sequenceNumber,corporateNumber,process,correct,updateDate,changeDate,name,nameImageId,kind,prefectureName,cityName,streetNumber,addressImageId,prefectureCode,cityCode,postCode,addressOutside,addressOutsideImageId,closeDate,closeCause,successorCorporateNumber,changeCause,assignmentDate,latest,enName,enPrefectureName,enCityName,enAddressOutside,furigana,hihyoji
2,1010001027783,登記記録の閉鎖等,0,2022-01-25,2022-01-14,扶桑商事株式会社,,株式会社,東京都,千代田区,永田町２丁目１０番１号,,13,101,1000014,,,2022-01-14,合併による解散等,7010601059700,令和４年１月１日東京都江東区木場一丁目５番６５号扶桑商事株式会社（7010601059700）に合併し解散,2015-10-05,1,,,,,フソウショウジ,0
33,1010403022077,登記記録の閉鎖等,0,2022-01-25,2022-01-14,Ｔｒｏｉｓ　Ｌｕｔｉｎｓ合同会社,,合同会社,東京都,港区,浜松町２丁目２番１５号,,13,103,1050013,,,2022-01-14,清算の結了等,,,2019-12-27,1,,,,,トゥルワリュタン,0
35,1010405014741,登記記録の閉鎖等,0,2022-01-25,2022-01-17,一般社団法人大分田室,,その他の設立登記法人,東京都,港区,北青山３丁目５番１２号青山クリスタルビル９階,,13,103,1070061,,,2022-01-17,清算の結了等,,,2016-04-14,1,,,,,オオイタタムロ,0
36,1010405018602,登記記録の閉鎖等,0,2022-01-25,2022-01-14,リアルブルーホールディングス５一般社団法人,,その他の設立登記法人,東京都,港区,虎ノ門３丁目２２番１０－２０１号,,13,103,1050001,,,2022-01-14,清算の結了等,,,2020-03-16,1,,,,,リアルブルーホールディングスファイブ,0
45,1010702007381,登記記録の閉鎖等,0,2022-01-25,2022-01-21,有限会社ベストクリエイト,,有限会社,東京都,品川区,荏原２丁目８番１号,,13,109,1420063,,,2022-01-21,清算の結了等,,,2015-10-05,1,,,,,ベストクリエイト,0
57,1011002035874,登記記録の閉鎖等,0,2022-01-25,2022-01-20,有限会社ＥＫインベストメンツ,,有限会社,東京都,渋谷区,桜丘町２９番３５号渋谷Ｄマンション６Ｗ,,13,113,1500031,,,2022-01-20,合併による解散等,9290001064750,令和４年１月８日福岡市博多区博多駅前四丁目３－２２産恵ビル５Ｆアポロテクノロジーズ株式会社（9290001064750）に合併し解散,2015-10-05,1,,,,,イーケーインベストメンツ,0
59,1011101040585,登記記録の閉鎖等,0,2022-01-25,2022-01-25,株式会社ワイ・ジービー新宿,,株式会社,東京都,新宿区,歌舞伎町１丁目５番９号ＮＯＡビル９階,,13,104,1600021,,,2022-01-25,登記官による閉鎖,,,2015-10-05,1,,,,,,0
60,1011101043431,登記記録の閉鎖等,0,2022-01-25,2022-01-25,新都市計画株式会社,,株式会社,東京都,新宿区,百人町１丁目１８番８号,,13,104,1690073,,,2022-01-25,登記官による閉鎖,,,2015-10-05,1,,,,,,0
61,1011101047606,登記記録の閉鎖等,0,2022-01-25,2022-01-25,株式会社ココロア,,株式会社,東京都,新宿区,左門町１４番地６１,,13,104,1600017,,,2022-01-25,登記官による閉鎖,,,2015-10-05,1,,,,,,0
62,1011101050089,登記記録の閉鎖等,0,2022-01-25,2022-01-25,株式会社ＪＣＫ天正,,株式会社,東京都,新宿区,四谷４丁目２番１６号,,13,104,1600004,,,2022-01-25,登記官による閉鎖,,,2015-10-05,1,,,,,,0
63,1011101060542,登記記録の閉鎖等,0,2022-01-25,2022-01-25,株式会社ＭＩＮＨＯ,,株式会社,東京都,新宿区,百人町２丁目９番９号,,13,104,1690073,,,2022-01-25,登記官による閉鎖,,,2015-10-05,1,,,,,,0
65,1011102000919,登記記録の閉鎖等,0,2022-01-25,2022-01-25,有限会社イーストヒルズ,,有限会社,東京都,新宿区,高田馬場３丁目１６番１１－７１１号,,13,104,1690075,,,2022-01-25,登記官による閉鎖,,,2015-10-05,1,,,,,,0
66,1011102001289,登記記録の閉鎖等,0,2022-01-25,2022-01-25,有限会社インフオメイション・スペース,,有限会社,東京都,新宿区,市谷薬王寺町８２番地,,13,104,1620063,,,2022-01-25,登記官による閉鎖,,,2015-10-05,1,,,,,,0
67,1011102013029,登記記録の閉鎖等,0,2022-01-25,2022-01-25,有限会社ヤサカコーポレーション,,有限会社,東京都,新宿区,住吉町６番１０号小松ビル,,13,104,1620065,,,2022-01-25,登記官による閉鎖,,,2015-10-05,1,,,,,,0
68,1011102013697,登記記録の閉鎖等,0,2022-01-25,2022-01-25,有限会社ライズ高踏園,,有限会社,東京都,新宿区,百人町２丁目６番７号,,13,104,1690073,,,2022-01-25,登記官による閉鎖,,,2015-10-05,1,,,,,,0
69,1011102021510,登記記録の閉鎖等,0,2022-01-25,2022-01-25,東洋元振開発有限会社,,有限会社,東京都,新宿区,大久保１丁目３番２２号,,13,104,1690072,,,2022-01-25,登記官による閉鎖,,,2015-10-05,1,,,,,,0
70,1011102021915,登記記録の閉鎖等,0,2022-01-25,2022-01-25,有限会社エムティーインターナショナル,,有限会社,東京都,新宿区,四谷１丁目２１番地,,13,104,1600004,,,2022-01-25,登記官による閉鎖,,,2015-10-05,1,,,,,,0
71,1011102029826,登記記録の閉鎖等,0,2022-01-25,2022-01-25,有限会社ハンドインハンド,,有限会社,東京都,新宿区,百人町１丁目２３番２号第一サンワビル２Ｆ,,13,104,1690073,,,2022-01-25,登記官による閉鎖,,,2015-10-05,1,,,,,,0
72,1011105002086,登記記録の閉鎖等,0,2022-01-25,2022-01-25,特定非営利活動法人ベネフィット・アーツ,,その他の設立登記法人,東京都,新宿区,住吉町１番１５号,,13,104,1620065,,,2022-01-25,登記官による閉鎖,,,2015-10-05,1,,,,,,0
73,1011105002185,登記記録の閉鎖等,0,2022-01-25,2022-01-25,特定非営利活動法人日本調査業学会,,その他の設立登記法人,東京都,新宿区,百人町１丁目１６番１３号,,13,104,1690073,,,2022-01-25,登記官による閉鎖,,,2015-10-05,1,,,,,,0
76,1011301000595,登記記録の閉鎖等,0,2022-01-25,2022-01-25,石井産業株式会社,,株式会社,東京都,杉並区,浜田山４丁目１３番６号,,13,115,1680065,,,2022-01-25,登記官による閉鎖,,,2015-10-05,1,,,,,,0
77,1011301002393,登記記録の閉鎖等,0,2022-01-25,2022-01-25,株式会社航洋,,株式会社,東京都,杉並区,梅里２丁目２５番１８号,,13,115,1660011,,,2022-01-25,登記官による閉鎖,,,2015-10-05,1,,,,,,0
79,1011301022664,登記記録の閉鎖等,0,2022-01-25,2022-01-25,株式会社ロンド写眞用品,00108354,株式会社,東京都,杉並区,松ノ木３丁目１６番５号,,13,115,1660014,,,2022-01-25,登記官による閉鎖,,,2016-11-14,1,,,,,,0
81,1011302006708,登記記録の閉鎖等,0,2022-01-25,2022-01-25,有限会社ナガイ,,有限会社,東京都,杉並区,梅里１丁目２１番５号,,13,115,1660011,,,2022-01-25,登記官による閉鎖,,,2015-10-05,1,,,,,,0
82,1011302015345,登記記録の閉鎖等,0,2022-01-25,2022-01-25,８－ｓｔｙｌｅ有限会社,,有限会社,東京都,杉並区,高円寺南４丁目９番２号,,13,115,1660003,,,2022-01-25,登記官による閉鎖,,,2015-10-05,1,,,,,,0
83,1011303001501,登記記録の閉鎖等,0,2022-01-25,2022-01-25,Ｓａｇａｒｍａｔｈａ合同会社,,合同会社,東京都,杉並区,永福４丁目１２番１３号,,13,115,1680064,,,2022-01-25,登記官による閉鎖,,,2015-10-05,1,,,,,,0
84,1011305001268,登記記録の閉鎖等,0,2022-01-25,2022-01-25,特定非営利活動法人ＣＡ’Ｚ,,その他の設立登記法人,東京都,杉並区,上高井戸１丁目２６番２４号ペガサス上高井戸１０１,,13,115,1680074,,,2022-01-25,登記官による閉鎖,,,2015-10-05,1,,,,,,0
85,1011401017787,登記記録の閉鎖等,0,2022-01-25,2022-01-12,株式会社ＧＳ企画,,株式会社,東京都,豊島区,西池袋１丁目２９番１９号,,13,116,1710021,,,2022-01-12,清算の結了等,,,2015-10-05,1,,,,,ジーエスキカク,0
139,1050002007970,登記記録の閉鎖等,0,2022-01-25,2022-01-21,有限会社茨城グリーンサービス,00022647,有限会社,茨城県,水戸市,元吉田町１２６７番地４,,08,201,3100836,,,2022-01-21,清算の結了等,,,2015-10-05,1,,,,,イバラキグリーンサービス,0
154,1120001200081,登記記録の閉鎖等,0,2022-01-25,2022-01-20,株式会社ＬＤＧ,,株式会社,大阪府,大阪市北区,松ケ枝町６番３号篠原松ケ枝ビル３階,,27,127,5300037,,,2022-01-20,清算の結了等,,,2016-08-10,1,,,,,,0
163,1120901025900,登記記録の閉鎖等,0,2022-01-25,2022-01-21,明和工業株式会社,,株式会社,大阪府,豊中市,新千里東町２丁目５番２０－７０１号,,27,203,5600082,,,2022-01-21,清算の結了等,,,2015-10-05,1,,,,,メイワコウギョウ,0
195,1160001020427,登記記録の閉鎖等,0,2022-01-25,2022-01-21,株式会社エーテル,,株式会社,滋賀県,米原市,岩脇３２０番地２５,,25,214,5210091,,,2022-01-21,清算の結了等,,,2017-09-07,1,,,,,エーテル,0
200,1180001028947,登記記録の閉鎖等,0,2022-01-25,2022-01-21,株式会社ミヨシ,,株式会社,愛知県,名古屋市緑区,大高町字寅新田４０番地,,23,114,4598001,,,2022-01-21,清算の結了等,,,2015-10-05,1,,,,,ミヨシ,0
205,1180301012634,登記記録の閉鎖等,0,2022-01-25,2022-01-24,株式会社あおみ電建,,株式会社,愛知県,安城市,井杭山町一本木５番地１０,,23,212,4460074,,,2022-01-24,清算の結了等,,,2015-10-05,1,,,,,アオミデンケン,0
207,1180302021725,登記記録の閉鎖等,0,2022-01-25,2022-01-19,有限会社和会鈑金,,有限会社,愛知県,豊田市,和会町中屋敷５２番地の１,,23,211,4701216,,,2022-01-19,清算の結了等,,,2015-10-05,1,,,,,カズエバンキン,0
208,1190001017890,登記記録の閉鎖等,0,2022-01-25,2022-01-24,株式会社ヤマグチ,,株式会社,三重県,四日市市,三重８丁目１８０番地,,24,202,5120912,,,2022-01-24,清算の結了等,,,2015-10-05,1,,,,,ヤマグチ,0
214,1210002002732,登記記録の閉鎖等,0,2022-01-25,2022-01-20,有限会社ニュームカイ,,有限会社,福井県,福井市,足羽２丁目１６番１９号,,18,201,9188007,,,2022-01-20,清算の結了等,,,2015-10-05,1,,,,,ニュームカイ,0
217,1240001001591,登記記録の閉鎖等,0,2022-01-25,2022-01-24,エルゴテック株式会社,,株式会社,広島県,広島市佐伯区,倉重２丁目２４０番地,,34,108,7315156,,,2022-01-24,登記官による閉鎖,,,2015-10-05,1,,,,,,0
218,1240001003415,登記記録の閉鎖等,0,2022-01-25,2022-01-24,高陽石油株式会社,,株式会社,広島県,広島市安佐北区,白木町小越字桧木谷３０３－１,,34,106,7391700,,,2022-01-24,登記官による閉鎖,,,2015-10-05,1,,,,,,0
219,1240001005147,登記記録の閉鎖等,0,2022-01-25,2022-01-24,株式会社水理企画設計事務所,,株式会社,広島県,広島市中区,西白島町２２番５８号,,34,101,7300005,,,2022-01-24,登記官による閉鎖,,,2015-10-05,1,,,,,,0
220,1240001007036,登記記録の閉鎖等,0,2022-01-25,2022-01-24,月森工業株式会社,,株式会社,広島県,広島市西区,楠木町４丁目１０番３号,,34,104,7330002,,,2022-01-24,登記官による閉鎖,,,2015-10-05,1,,,,,,0
221,1240001008422,登記記録の閉鎖等,0,2022-01-25,2022-01-24,ニチエーテック株式会社,,株式会社,広島県,広島市西区,観音本町１丁目２２番２１号,,34,104,7330033,,,2022-01-24,登記官による閉鎖,,,2016-03-10,1,,,,,,0
222,1240001017225,登記記録の閉鎖等,0,2022-01-25,2022-01-24,クリスタルインテリジェンス株式会社,,株式会社,広島県,広島市安佐北区,亀崎４丁目１０番１１号,,34,106,7391742,,,2022-01-24,登記官による閉鎖,,,2015-10-05,1,,,,,,0
223,1240001027686,登記記録の閉鎖等,0,2022-01-25,2022-01-24,株式会社大木,,株式会社,広島県,呉市,本通４丁目１番１７号,,34,202,7370045,,,2022-01-24,登記官による閉鎖,,,2015-10-05,1,,,,,,0
224,1240001031548,登記記録の閉鎖等,0,2022-01-25,2022-01-24,マルワランド株式会社,,株式会社,広島県,福山市,笠岡町２番７号,,34,207,7200044,,,2022-01-24,登記官による閉鎖,,,2015-10-05,1,,,,,,0
226,1240001034063,登記記録の閉鎖等,0,2022-01-25,2022-01-24,株式会社エムズホーム,,株式会社,広島県,福山市,奈良津町２丁目３番１３号,,34,207,7200022,,,2022-01-24,登記官による閉鎖,,,2015-10-05,1,,,,,,0
227,1240001039021,登記記録の閉鎖等,0,2022-01-25,2022-01-24,株式会社コダマ,,株式会社,広島県,世羅郡世羅町,大字黒川４４５番地,,34,462,7296711,,,2022-01-24,登記官による閉鎖,,,2015-10-05,1,,,,,,0
228,1240002001038,登記記録の閉鎖等,0,2022-01-25,2022-01-24,有限会社イウチ商事,,有限会社,広島県,広島市安佐南区,山本５丁目７４番３号,,34,105,7310137,,,2022-01-24,登記官による閉鎖,,,2015-10-05,1,,,,,,0
229,1240002003819,登記記録の閉鎖等,0,2022-01-25,2022-01-24,有限会社梶原商店,,有限会社,広島県,広島市安佐南区,祇園６丁目５番５号,,34,105,7310138,,,2022-01-24,登記官による閉鎖,,,2015-10-05,1,,,,,,0
230,1240002006425,登記記録の閉鎖等,0,2022-01-25,2022-01-24,有限会社三永試錐工業,,有限会社,広島県,広島市東区,戸坂くるめ木２丁目１３番１０号,,34,102,7320008,,,2022-01-24,登記官による閉鎖,,,2015-10-05,1,,,,,,0
231,1240002006771,登記記録の閉鎖等,0,2022-01-25,2022-01-24,有限会社宇品かも八,,有限会社,広島県,広島市南区,宇品神田３丁目７番２－３０２号,,34,103,7340004,,,2022-01-24,登記官による閉鎖,,,2015-10-05,1,,,,,,0
232,1240002014493,登記記録の閉鎖等,0,2022-01-25,2022-01-24,有限会社藤田塗工,,有限会社,広島県,広島市西区,古江西町３番１７号,,34,104,7330874,,,2022-01-24,登記官による閉鎖,,,2015-10-05,1,,,,,,0
233,1240002020112,登記記録の閉鎖等,0,2022-01-25,2022-01-24,有限会社魚彩みやざき,,有限会社,広島県,広島市中区,堀川町１番２号,,34,101,7300033,,,2022-01-24,登記官による閉鎖,,,2015-10-05,1,,,,,,0
234,1240002029517,登記記録の閉鎖等,0,2022-01-25,2022-01-24,有限会社一幸建設,,有限会社,広島県,山県郡北広島町,丁保余原１９７５番地１,,34,369,7311521,,,2022-01-24,登記官による閉鎖,,,2015-10-05,1,,,,,,0
235,1240002034590,登記記録の閉鎖等,0,2022-01-25,2022-01-24,有限会社平本汽船,00001133,有限会社,広島県,呉市,蒲刈町田戸９４１番地,,34,202,7370403,,,2022-01-24,登記官による閉鎖,,,2015-10-05,1,,,,,,0
236,1240002039103,登記記録の閉鎖等,0,2022-01-25,2022-01-24,有限会社曙高橋工業,,有限会社,広島県,福山市,曙町６丁目４番１号,00001203,34,207,7210952,,,2022-01-24,登記官による閉鎖,,,2015-10-05,1,,,,,,0
237,1240002039508,登記記録の閉鎖等,0,2022-01-25,2022-01-24,有限会社歌の館永井チヨ音楽事務所,,有限会社,広島県,福山市,川口町２丁目１１番２６号,,34,207,7200822,,,2022-01-24,登記官による閉鎖,,,2015-10-05,1,,,,,,0
238,1240002039697,登記記録の閉鎖等,0,2022-01-25,2022-01-24,エンブマツモト有限会社,,有限会社,広島県,福山市,藤江町１番地の１,,34,207,7200543,,,2022-01-24,登記官による閉鎖,,,2015-10-05,1,,,,,,0
239,1240002040812,登記記録の閉鎖等,0,2022-01-25,2022-01-24,佐藤ソーイング有限会社,,有限会社,広島県,福山市,駅家町大字中島６４３番地の３,,34,207,7201134,,,2022-01-24,登記官による閉鎖,,,2015-10-05,1,,,,,,0
240,1240002041439,登記記録の閉鎖等,0,2022-01-25,2022-01-24,園木商事有限会社,,有限会社,広島県,福山市,新涯町１丁目４１番８号,,34,207,7210955,,,2022-01-24,登記官による閉鎖,,,2015-10-05,1,,,,,,0
241,1240002044549,登記記録の閉鎖等,0,2022-01-25,2022-01-24,有限会社ケイテック,,有限会社,広島県,福山市,川口町３丁目８番３号,,34,207,7200822,,,2022-01-24,登記官による閉鎖,,,2015-10-05,1,,,,,,0
242,1240002048649,登記記録の閉鎖等,0,2022-01-25,2022-01-24,有限会社ビーチコーマー,,有限会社,広島県,安芸郡府中町,鶴江２丁目１３番１４号,,34,302,7350008,,,2022-01-24,登記官による閉鎖,,,2015-10-05,1,,,,,,0
243,1240002049242,登記記録の閉鎖等,0,2022-01-25,2022-01-24,有限会社ケンシン開発,,有限会社,広島県,安芸郡府中町,大須２丁目３番１－１０１号,,34,302,7350021,,,2022-01-24,登記官による閉鎖,,,2015-10-05,1,,,,,,0
244,1240002049481,登記記録の閉鎖等,0,2022-01-25,2022-01-24,有限会社新和塗装,,有限会社,広島県,竹原市,仁賀町３７３番地１５,,34,203,7250005,,,2022-01-24,登記官による閉鎖,,,2015-10-05,1,,,,,,0
245,1240002050869,登記記録の閉鎖等,0,2022-01-25,2022-01-24,有限会社大洋商会,,有限会社,広島県,尾道市,東尾道１２番地６１,,34,205,7220051,,,2022-01-24,登記官による閉鎖,,,2015-10-05,1,,,,,,0
246,1240002051611,登記記録の閉鎖等,0,2022-01-25,2022-01-24,有限会社向島土木,,有限会社,広島県,尾道市,向島町５５４８番地の２,,34,205,7220073,,,2022-01-24,登記官による閉鎖,,,2015-10-05,1,,,,,,0
247,1240003001160,登記記録の閉鎖等,0,2022-01-25,2022-01-24,合同会社わたなべ,,合同会社,広島県,広島市東区,曙４丁目３番３０－５０１号,,34,102,7320045,,,2022-01-24,登記官による閉鎖,,,2015-10-05,1,,,,,,0
248,1240005000219,登記記録の閉鎖等,0,2022-01-25,2022-01-24,西法寺,,その他の設立登記法人,広島県,広島市安佐北区,大林町２６１番地,,34,106,7310202,,,2022-01-24,登記官による閉鎖,,,2015-10-05,1,,,,,,0
249,1240005002132,登記記録の閉鎖等,0,2022-01-25,2022-01-24,経済振興会事業協同組合,,その他の設立登記法人,広島県,広島市中区,鉄砲町１番２４－４０１号,,34,101,7300017,,,2022-01-24,登記官による閉鎖,,,2015-10-05,1,,,,,,0
250,1240005002719,登記記録の閉鎖等,0,2022-01-25,2022-01-24,特定非営利活動法人西日本福祉協会,,その他の設立登記法人,広島県,広島市東区,戸坂出江１丁目１番１７号,,34,102,7320016,,,2022-01-24,登記官による閉鎖,,,2015-10-05,1,,,,,,0
251,1240005004590,登記記録の閉鎖等,0,2022-01-25,2022-01-24,一般社団法人地域活性化推進機構,,その他の設立登記法人,広島県,広島市西区,己斐西町１９番２２号,,34,104,7330814,,,2022-01-24,登記官による閉鎖,,,2015-10-05,1,,,,,,0
268,1290002038694,登記記録の閉鎖等,0,2022-01-25,2022-01-19,有限会社エムアンドエスコーポレーション,,有限会社,福岡県,筑紫野市,二日市中央２丁目１２番８号,,40,217,8180072,,,2022-01-19,清算の結了等,,,2015-10-05,1,,,,,エムアンドエスコーポレーション,0
292,1370802001249,登記記録の閉鎖等,0,2022-01-25,2022-01-21,有限会社キクチ電子,,有限会社,宮城県,亘理郡亘理町,逢隈田沢字西川原８０番地の３,00082170,04,361,9892383,,,2022-01-21,清算の結了等,,,2015-10-05,1,,,,,キクチデンシ,0
353,2011101007781,登記記録の閉鎖等,0,2022-01-25,2022-01-25,株式会社佐々木繁建築設計事務所,,株式会社,東京都,新宿区,高田馬場３丁目１番５号,,13,104,1690075,,,2022-01-25,登記官による閉鎖,,,2015-10-05,1,,,,,,0
354,2011101017434,登記記録の閉鎖等,0,2022-01-25,2022-01-25,服部甫丸八食品株式会社,,株式会社,東京都,新宿区,西早稲田１丁目１４番６号,,13,104,1690051,,,2022-01-25,登記官による閉鎖,,,2015-10-05,1,,,,,,0
355,2011101034339,登記記録の閉鎖等,0,2022-01-25,2022-01-25,三立電機株式会社,,株式会社,東京都,新宿区,西落合４丁目３番１５号ライフサイドカズ１０２,,13,104,1610031,,,2022-01-25,登記官による閉鎖,,,2015-10-05,1,,,,,,0
356,2011101036913,登記記録の閉鎖等,0,2022-01-25,2022-01-25,株式会社ワイケイ出版,,株式会社,東京都,新宿区,高田馬場２丁目１９番７号タックイレブン高田馬場５０５号室,,13,104,1690075,,,2022-01-25,登記官による閉鎖,,,2015-10-05,1,,,,,,0
357,2011101052456,登記記録の閉鎖等,0,2022-01-25,2022-01-25,株式会社パックプラス,,株式会社,東京都,新宿区,納戸町１２番地,,13,104,1620837,,,2022-01-25,登記官による閉鎖,,,2015-10-05,1,,,,,,0
358,2011101055244,登記記録の閉鎖等,0,2022-01-25,2022-01-25,株式会社東亜ホールディングス,,株式会社,東京都,新宿区,新宿２丁目６番４号,,13,104,1600022,,,2022-01-25,登記官による閉鎖,,,2015-10-05,1,,,,,,0
359,2011101057686,登記記録の閉鎖等,0,2022-01-25,2022-01-25,株式会社スゥイング,,株式会社,東京都,新宿区,百人町１丁目８番２４号,,13,104,1690073,,,2022-01-25,登記官による閉鎖,,,2015-10-05,1,,,,,,0
360,2011101058569,登記記録の閉鎖等,0,2022-01-25,2022-01-25,株式会社信用一番,,株式会社,東京都,新宿区,高田馬場４丁目２番１３号,,13,104,1690075,,,2022-01-25,登記官による閉鎖,,,2015-10-05,1,,,,,,0
361,2011101058742,登記記録の閉鎖等,0,2022-01-25,2022-01-25,株式会社Ｍｅｄｉａ　Ｃｒｅａｔｉｏｎ　Ｌｉｎｋ,,株式会社,東京都,新宿区,西落合１丁目５番８－２０１号,,13,104,1610031,,,2022-01-25,登記官による閉鎖,,,2015-10-05,1,,,,,,0
362,2011101092840,登記記録の閉鎖等,0,2022-01-25,2022-01-25,株式会社勝栄,,株式会社,東京都,新宿区,新宿４丁目１番２２－２０２号,,13,104,1600022,,,2022-01-25,登記官による閉鎖,,,2020-10-15,1,,,,,,0
363,2011102001420,登記記録の閉鎖等,0,2022-01-25,2022-01-25,有限会社ウイズ,,有限会社,東京都,新宿区,新宿１丁目２４番７号ルネ御苑プラザ,,13,104,1600022,,,2022-01-25,登記官による閉鎖,,,2015-10-05,1,,,,,,0
364,2011102002575,登記記録の閉鎖等,0,2022-01-25,2022-01-25,有限会社おく瀬,00053907,有限会社,東京都,新宿区,南町１番地,,13,104,1620836,,,2022-01-25,登記官による閉鎖,,,2015-10-05,1,,,,,,0
365,2011102005347,登記記録の閉鎖等,0,2022-01-25,2022-01-25,有限会社ささご,,有限会社,東京都,新宿区,歌舞伎町１丁目２９番１号,,13,104,1600021,,,2022-01-25,登記官による閉鎖,,,2015-10-05,1,,,,,,0
366,2011102009570,登記記録の閉鎖等,0,2022-01-25,2022-01-25,有限会社成田屋そば店,,有限会社,東京都,新宿区,新宿５丁目１０番１４号,,13,104,1600022,,,2022-01-25,登記官による閉鎖,,,2015-10-05,1,,,,,,0
367,2011102021988,登記記録の閉鎖等,0,2022-01-25,2022-01-25,有限会社住まいる不動産,,有限会社,東京都,新宿区,高田馬場１丁目１２番３２号,,13,104,1690075,,,2022-01-25,登記官による閉鎖,,,2015-10-05,1,,,,,,0
368,2011102028942,登記記録の閉鎖等,0,2022-01-25,2022-01-25,有限会社メディコ,,有限会社,東京都,新宿区,西落合１丁目１１番２１号,,13,104,1610031,,,2022-01-25,登記官による閉鎖,,,2015-10-05,1,,,,,,0
369,2011103002979,登記記録の閉鎖等,0,2022-01-25,2022-01-25,合同会社ランダムワン,,合同会社,東京都,新宿区,西落合４丁目５番２０号,,13,104,1610031,,,2022-01-25,登記官による閉鎖,,,2015-10-05,1,,,,,,0
370,2011103003894,登記記録の閉鎖等,0,2022-01-25,2022-01-25,合同会社Ｕｎｉｔｅｄ　Ｔｒａｄｉｎｇ,,合同会社,東京都,新宿区,若松町２５－２２,,13,104,1620056,,,2022-01-25,登記官による閉鎖,,,2015-10-05,1,,,,,,0
371,2011105002779,登記記録の閉鎖等,0,2022-01-25,2022-01-25,特定非営利活動法人あかり研究所,,その他の設立登記法人,東京都,新宿区,新宿２丁目１５番２２号Ｓ２ビル,,13,104,1600022,,,2022-01-25,登記官による閉鎖,,,2015-10-05,1,,,,,,0
372,2011105004726,登記記録の閉鎖等,0,2022-01-25,2022-01-25,一般社団法人高度人材交流機構,,その他の設立登記法人,東京都,新宿区,四谷２丁目１１番龍文堂ビル３Ｆ,,13,104,1600004,,,2022-01-25,登記官による閉鎖,,,2015-10-05,1,,,,,,0
374,2011301001436,登記記録の閉鎖等,0,2022-01-25,2022-01-25,大須賀商事株式会社,,株式会社,東京都,杉並区,善福寺１丁目２０番２３号,,13,115,1670041,,,2022-01-25,登記官による閉鎖,,,2015-10-05,1,,,,,,0
377,2011303001368,登記記録の閉鎖等,0,2022-01-25,2022-01-25,合同会社ＳＭＡＬＬＭＵＳＩＣ,,合同会社,東京都,杉並区,高円寺南４丁目４４番３号,,13,115,1660003,,,2022-01-25,登記官による閉鎖,,,2015-10-05,1,,,,,,0
378,2011305001358,登記記録の閉鎖等,0,2022-01-25,2022-01-25,特定非営利活動法人ＩＦＳネットワーク,,その他の設立登記法人,東京都,杉並区,阿佐谷北１丁目１３番１５号,,13,115,1660001,,,2022-01-25,登記官による閉鎖,,,2015-10-05,1,,,,,,0
395,2013101005451,登記記録の閉鎖等,0,2022-01-25,2022-01-24,リスペクトホームケア株式会社,,株式会社,東京都,羽村市,神明台１丁目２８番地１１,,13,227,2050023,,,2022-01-24,清算の結了等,,,2015-10-05,1,,,,,リスペクトホームケア,0
420,2030002094317,登記記録の閉鎖等,0,2022-01-25,2022-01-21,有限会社アトリエ・フォーエバー,,有限会社,埼玉県,比企郡鳩山町,大字石坂１３４０番地,,11,348,3500311,,,2022-01-21,清算の結了等,,,2015-10-05,1,,,,,アトリエフォーエバー,0
431,2050001029429,登記記録の閉鎖等,0,2022-01-25,2022-01-20,常和産業株式会社,,株式会社,茨城県,常総市,菅生町１９４５番地３,,08,211,3030044,,,2022-01-20,清算の結了等,,,2015-10-05,1,,,,,ジョウワサンギョウ,0
441,2080002012892,登記記録の閉鎖等,0,2022-01-25,2022-01-21,有限会社スルガライン,,有限会社,静岡県,静岡市駿河区,広野６丁目２０番３２号,,22,102,4210121,,,2022-01-21,清算の結了等,,,2015-10-05,1,,,,,スルガライン,0
448,2110002027697,登記記録の閉鎖等,0,2022-01-25,2022-01-20,有限会社三神,,有限会社,新潟県,長岡市,豊１丁目６０８番地,,15,202,9400867,,,2022-01-20,清算の結了等,,,2015-10-05,1,,,,,サガミ,0
451,2120001023606,登記記録の閉鎖等,0,2022-01-25,2022-01-20,株式会社ジエスプランニング,,株式会社,大阪府,大阪市天王寺区,小橋町２番１５号,,27,109,5430028,,,2022-01-20,清算の結了等,,,2015-10-05,1,,,,,ジエスプランニング,0
455,2120001025230,登記記録の閉鎖等,0,2022-01-25,2022-01-21,株式会社福岡屋建設工業,,株式会社,奈良県,奈良市,大宮町５丁目３番２０号,,29,201,6308115,,,2022-01-21,合併による解散等,9150001002096,令和４年１月２１日奈良市大宮町五丁目３番２０号株式会社福岡屋住宅流通（9150001002096）に合併し解散,2015-10-05,1,,,,,フクオカヤケンセツコウギョウ,0
466,2120002009835,登記記録の閉鎖等,0,2022-01-25,2022-01-20,有限会社ダイヤモンドデンタルサービス,,有限会社,大阪府,大阪市生野区,勝山南２丁目７番１５－１０１号,,27,116,5440021,,,2022-01-20,清算の結了等,,,2015-10-05,1,,,,,ダイヤモンドデンタルサービス,0
481,2120901015768,登記記録の閉鎖等,0,2022-01-25,2022-01-20,中茂エンジニアリング株式会社,,株式会社,大阪府,吹田市,桃山台３丁目８番１号,,27,205,5650854,,,2022-01-20,清算の結了等,,,2015-10-05,1,,,,,ナカシゲエンジニアリング,0
482,2120901019942,登記記録の閉鎖等,0,2022-01-25,2022-01-19,ニッポンレンタカー北大阪株式会社,,株式会社,大阪府,池田市,空港１丁目９番１０号,,27,204,5630034,,,2022-01-19,合併による解散等,6130001046081,令和４年１月１日京都市南区東九条室町６４番地ニッポンレンタカー関西株式会社（6130001046081）に合併し解散,2015-10-05,1,,,,,ニッポンレンタカーキタオオサカ,0
490,2140001064680,登記記録の閉鎖等,0,2022-01-25,2022-01-18,ランドフォース株式会社,,株式会社,大阪府,大阪市北区,豊崎３丁目１８番３－４１０３号,,27,127,5310072,,,2022-01-18,合併による解散等,4140001064679,令和４年１月１８日大阪市北区豊崎三丁目１８番３－４１０３号ランドヒルズ株式会社（4140001064679）に合併し解散,2015-10-05,1,,,,,ランドフォース,0
494,2140001113933,登記記録の閉鎖等,0,2022-01-25,2022-01-21,ＴＦ株式会社,,株式会社,兵庫県,芦屋市,月若町１番１３号,,28,206,6590084,,,2022-01-21,合併による解散等,9120001141731,令和４年１月２１日兵庫県芦屋市月若町１番１３号株式会社ＧＲＯＷＩＮＧ（9120001141731）に合併し解散,2019-06-07,1,,,,,ティーエフ,0
498,2140002035549,登記記録の閉鎖等,0,2022-01-25,2022-01-20,加古新産業有限会社,,有限会社,兵庫県,加古川市,加古川町粟津３４０番地の１,,28,210,6750039,,,2022-01-20,清算の結了等,,,2015-10-05,1,,,,,カコシンサンギョウ,0
510,2180002084724,登記記録の閉鎖等,0,2022-01-25,2022-01-20,共栄総業有限会社,,有限会社,愛知県,大府市,明成町１丁目３２７番地,,23,223,4740056,,,2022-01-20,清算の結了等,,,2015-10-05,1,,,,,キョウエイソウギョウ,0
519,2200001008689,登記記録の閉鎖等,0,2022-01-25,2022-01-24,株式会社ＣＢＫ開発,,株式会社,岐阜県,岐阜市,金宝町１丁目６番地,,21,201,5008847,,,2022-01-24,清算の結了等,,,2015-10-05,1,,,,,,0
521,2200001033415,登記記録の閉鎖等,0,2022-01-25,2022-01-21,エイ・ワン企画株式会社,,株式会社,岐阜県,高山市,上岡本町１８３３番地５,,21,203,5060055,,,2022-01-21,清算の結了等,,,2016-11-09,1,,,,,エイワンキカク,0
522,2200003003218,登記記録の閉鎖等,0,2022-01-25,2022-01-20,合同会社慶通所介護施設,,合同会社,岐阜県,加茂郡八百津町,伊岐津志１１５７番地４,,21,505,5050303,,,2022-01-20,清算の結了等,,,2015-10-05,1,,,,,ケイツウショカイゴシセツ,0
530,2240001004866,登記記録の閉鎖等,0,2022-01-25,2022-01-24,株式会社秀興セメント,,株式会社,広島県,広島市安佐北区,安佐町大字鈴張２７４２番地３,,34,106,7311141,,,2022-01-24,登記官による閉鎖,,,2015-10-05,1,,,,,,0
531,2240001019336,登記記録の閉鎖等,0,2022-01-25,2022-01-24,株式会社祥,,株式会社,広島県,広島市中区,本通１番２７号４Ｆ,,34,101,7300035,,,2022-01-24,登記官による閉鎖,,,2015-10-05,1,,,,,,0
532,2240001019939,登記記録の閉鎖等,0,2022-01-25,2022-01-24,市川木材工芸株式会社,,株式会社,広島県,広島市安佐北区,安佐町大字久地１６９５番地の１,,34,106,7313362,,,2022-01-24,登記官による閉鎖,,,2016-06-01,1,,,,,,0
533,2240001020772,登記記録の閉鎖等,0,2022-01-25,2022-01-24,株式会社ＡＲＣ財産コンサルタンツ,,株式会社,広島県,広島市中区,東白島町１９番５号,,34,101,7300004,,,2022-01-24,登記官による閉鎖,,,2015-10-05,1,,,,,,0
534,2240001024625,登記記録の閉鎖等,0,2022-01-25,2022-01-24,株式会社シー・ファクトリー,,株式会社,広島県,三次市,十日市西４丁目１０番２６号,,34,209,7280011,,,2022-01-24,登記官による閉鎖,,,2015-10-05,1,,,,,,0
535,2240001029260,登記記録の閉鎖等,0,2022-01-25,2022-01-24,株式会社クラウン,,株式会社,広島県,広島市中区,弥生町６番３号,,34,101,7300023,,,2022-01-24,登記官による閉鎖,,,2015-10-05,1,,,,,,0
536,2240001036281,登記記録の閉鎖等,0,2022-01-25,2022-01-24,株式会社片山設計,,株式会社,広島県,安芸郡坂町,平成ヶ浜５丁目２番９－３０５号,,34,309,7314312,,,2022-01-24,登記官による閉鎖,,,2015-10-05,1,,,,,,0
537,2240001036380,登記記録の閉鎖等,0,2022-01-25,2022-01-24,下河内建材株式会社,,株式会社,広島県,安芸郡熊野町,大字平谷２番地の２,,34,307,7314229,,,2022-01-24,登記官による閉鎖,,,2015-10-05,1,,,,,,0
538,2240001039391,登記記録の閉鎖等,0,2022-01-25,2022-01-24,株式会社アンカーコミュニケーションズ,,株式会社,広島県,尾道市,木ノ庄町畑１９７９番地５,,34,205,7220231,,,2022-01-24,登記官による閉鎖,,,2015-10-05,1,,,,,,0
539,2240001049044,登記記録の閉鎖等,0,2022-01-25,2022-01-24,株式会社山二商店,,株式会社,広島県,広島市南区,段原南１丁目１１番１０号,,34,103,7320814,,,2022-01-24,登記官による閉鎖,,,2016-03-18,1,,,,,,0
542,2240002006845,登記記録の閉鎖等,0,2022-01-25,2022-01-24,有限会社山創建設,,有限会社,広島県,広島市安佐南区,沼田町大字吉山６８４番地１,,34,105,7313272,,,2022-01-24,登記官による閉鎖,,,2015-10-05,1,,,,,,0
543,2240002007422,登記記録の閉鎖等,0,2022-01-25,2022-01-24,有限会社シンコー自動車,,有限会社,広島県,広島市佐伯区,八幡が丘１丁目１４番５号,,34,108,7315117,,,2022-01-24,登記官による閉鎖,,,2015-10-05,1,,,,,,0
544,2240002008420,登記記録の閉鎖等,0,2022-01-25,2022-01-24,有限会社寿司藤,,有限会社,広島県,広島市中区,流川町７番８号,,34,101,7300028,,,2022-01-24,登記官による閉鎖,,,2015-10-05,1,,,,,,0
545,2240002009699,登記記録の閉鎖等,0,2022-01-25,2022-01-24,有限会社鷹風味,,有限会社,広島県,広島市中区,胡町２番２０号,,34,101,7300021,,,2022-01-24,登記官による閉鎖,,,2015-10-05,1,,,,,,0
546,2240002012199,登記記録の閉鎖等,0,2022-01-25,2022-01-24,有限会社ミイリテック,,有限会社,広島県,広島市安佐北区,三入７丁目２４番１０号,,34,106,7310211,,,2022-01-24,登記官による閉鎖,,,2015-10-05,1,,,,,,0
547,2240002013206,登記記録の閉鎖等,0,2022-01-25,2022-01-24,有限会社肥後工務店,,有限会社,広島県,広島市安佐北区,小河原町１３３４番地の３,,34,106,7391754,,,2022-01-24,登記官による閉鎖,,,2015-10-05,1,,,,,,0
548,2240002015490,登記記録の閉鎖等,0,2022-01-25,2022-01-24,有限会社マスモト運送,,有限会社,広島県,広島市安佐南区,西原４丁目３８番２３号,,34,105,7310113,,,2022-01-24,登記官による閉鎖,,,2015-10-05,1,,,,,,0
549,2240002018304,登記記録の閉鎖等,0,2022-01-25,2022-01-24,有限会社リップル,,有限会社,広島県,広島市中区,中町７番１６－８１０号,,34,101,7300037,,,2022-01-24,登記官による閉鎖,,,2015-10-05,1,,,,,,0
550,2240002020012,登記記録の閉鎖等,0,2022-01-25,2022-01-24,有限会社日本キャリア・カレッジ,,有限会社,広島県,広島市東区,若草町１０番１２号,,34,102,7320053,,,2022-01-24,登記官による閉鎖,,,2015-10-05,1,,,,,,0
551,2240002024095,登記記録の閉鎖等,0,2022-01-25,2022-01-24,友大興業有限会社,,有限会社,広島県,広島市中区,舟入幸町１７番１－２０５号,,34,101,7300844,,,2022-01-24,登記官による閉鎖,,,2015-10-05,1,,,,,,0
552,2240002027024,登記記録の閉鎖等,0,2022-01-25,2022-01-24,有限会社スカイワン,,有限会社,広島県,広島市安芸区,船越５丁目１９番１５号,,34,107,7360081,,,2022-01-24,登記官による閉鎖,,,2015-10-05,1,,,,,,0
553,2240002035877,登記記録の閉鎖等,0,2022-01-25,2022-01-24,有限会社おおすみや,,有限会社,広島県,江田島市,大柿町飛渡瀬３２９番地の１,,34,215,7372101,,,2022-01-24,登記官による閉鎖,,,2015-10-05,1,,,,,,0
554,2240002036776,登記記録の閉鎖等,0,2022-01-25,2022-01-24,有限会社西野地健,,有限会社,広島県,廿日市市,四季が丘５丁目７番地の１３,,34,213,7380036,,,2022-01-24,登記官による閉鎖,,,2015-10-05,1,,,,,,0
555,2240002036834,登記記録の閉鎖等,0,2022-01-25,2022-01-24,有限会社広島経営サービス,,有限会社,広島県,廿日市市,阿品２丁目６番２２号,,34,213,7380054,,,2022-01-24,登記官による閉鎖,,,2015-10-05,1,,,,,,0
556,2240002038343,登記記録の閉鎖等,0,2022-01-25,2022-01-24,有限会社ふるさと,,有限会社,広島県,広島市佐伯区,湯来町大字白砂２０番地の１０,,34,108,7380512,,,2022-01-24,登記官による閉鎖,,,2015-10-05,1,,,,,,0
557,2240002040142,登記記録の閉鎖等,0,2022-01-25,2022-01-24,有限会社寒竹工業,,有限会社,広島県,福山市,幕山台６丁目９番７号,,34,207,7210913,,,2022-01-24,登記官による閉鎖,,,2015-10-05,1,,,,,,0
558,2240002043822,登記記録の閉鎖等,0,2022-01-25,2022-01-24,有限会社ワイテック,,有限会社,広島県,福山市,神村町６３７３番地の１,,34,207,7290112,,,2022-01-24,登記官による閉鎖,,,2015-10-05,1,,,,,,0
559,2240002050257,登記記録の閉鎖等,0,2022-01-25,2022-01-24,有限会社尾道屋食堂,,有限会社,広島県,尾道市,因島土生町１８１９番地,,34,205,7222323,,,2022-01-24,登記官による閉鎖,,,2015-10-05,1,,,,,,0
561,2240002052872,登記記録の閉鎖等,0,2022-01-25,2022-01-24,有限会社イチフジ技建,,有限会社,広島県,尾道市,御調町市２９１番地１,,34,205,7220311,,,2022-01-24,登記官による閉鎖,,,2015-10-05,1,,,,,,0
562,2240002053904,登記記録の閉鎖等,0,2022-01-25,2022-01-24,有限会社オカザキ,,有限会社,広島県,三原市,本郷南４丁目２４番１０号,,34,204,7290417,,,2022-01-24,登記官による閉鎖,,,2015-10-05,1,,,,,,0
563,2240003004179,登記記録の閉鎖等,0,2022-01-25,2022-01-20,Ｋ＆Ｋ　Ｉｎｔｅｒｎａｔｉｏｎａｌ　Ｐｒｏｐｅｒｔｙ合同会社,,合同会社,広島県,広島市東区,福田３丁目１６番２号,,34,102,7320029,,,2022-01-20,清算の結了等,,,2019-03-26,1,,,,,ケーアンドケーインターナショナルプロパティ,0
564,2240005002429,登記記録の閉鎖等,0,2022-01-25,2022-01-24,広島モービル石油協同組合,,その他の設立登記法人,広島県,広島市南区,宇品神田１丁目２番１６号,,34,103,7340004,,,2022-01-24,登記官による閉鎖,,,2015-10-05,1,,,,,,0
565,2240005002890,登記記録の閉鎖等,0,2022-01-25,2022-01-24,ひろしまデジタルプランニング協同組合,,その他の設立登記法人,広島県,広島市佐伯区,観音台４丁目３２番１２号,,34,108,7315157,,,2022-01-24,登記官による閉鎖,,,2015-10-05,1,,,,,,0
566,2240005006677,登記記録の閉鎖等,0,2022-01-25,2022-01-24,協同組合広島コラボレート,,その他の設立登記法人,広島県,呉市,広多賀谷２丁目５番３３号,,34,202,7370134,,,2022-01-24,登記官による閉鎖,,,2015-10-05,1,,,,,,0
567,2240005007618,登記記録の閉鎖等,0,2022-01-25,2022-01-24,福山地方木工協同組合,,その他の設立登記法人,広島県,福山市,箕島町字須之脇東端４８４番地の１,,34,207,7210957,,,2022-01-24,登記官による閉鎖,,,2015-10-05,1,,,,,,0
572,2260002011257,登記記録の閉鎖等,0,2022-01-25,2022-01-14,有限会社金子工務店,,有限会社,岡山県,岡山市東区,瀬戸町下４２４番地の１１,,33,103,7090856,,,2022-01-14,清算の結了等,,,2015-10-05,1,,,,,カネココウムテン,0
595,2330002013147,登記記録の閉鎖等,0,2022-01-25,2022-01-24,有限会社イーコムジャパン,,有限会社,熊本県,熊本市西区,上代８丁目３番２号,,43,103,8600068,,,2022-01-24,清算の結了等,,,2015-10-05,1,,,,,イーコムジャパン,0
596,2330002027106,登記記録の閉鎖等,0,2022-01-25,2022-01-20,有限会社たつみ総合サービス,,有限会社,熊本県,八代市,上日置町２１５８番地１,,43,202,8660824,,,2022-01-20,清算の結了等,,,2015-10-05,1,,,,,タツミソウゴウサービス,0
608,2400001001938,登記記録の閉鎖等,0,2022-01-25,2022-01-21,株式会社サンベンディング盛岡,,株式会社,岩手県,紫波郡矢巾町,大字広宮沢第１０地割５０５番地４,,03,322,0283621,,,2022-01-21,合併による解散等,8370001003115,令和４年１月１日仙台市宮城野区福田町南二丁目３番５０号株式会社サン・ベンディング東北（8370001003115）に合併し解散,2015-10-05,1,,,,,,0
610,2410003002727,登記記録の閉鎖等,0,2022-01-25,2022-01-20,合同会社たんせ,,合同会社,秋田県,横手市,杉沢字鶴谷地１０６番地２,,05,203,0130001,,,2022-01-20,清算の結了等,,,2015-10-05,1,,,,,タンセ,0
620,2430003008532,登記記録の閉鎖等,0,2022-01-25,2022-01-19,Ｅｎｊｏｙ　ＩＴ合同会社,,合同会社,北海道,白老郡白老町,字白老７４９番地５,,01,578,0590900,,,2022-01-19,清算の結了等,,,2017-07-07,1,,,,,,0
624,2460101004249,登記記録の閉鎖等,0,2022-01-25,2022-01-24,株式会社ライフテラス保険事務所,,株式会社,北海道,帯広市,西十一条南３４丁目１６番１号オフィス帯進Ｄ号室,,01,207,0800021,,,2022-01-24,清算の結了等,,,2015-10-05,1,,,,,ライフテラスホケンジムショ,0
625,2470002002458,登記記録の閉鎖等,0,2022-01-25,2022-01-21,有限会社久保工業,,有限会社,香川県,高松市,鶴市町１０７３番地１,,37,201,7618032,,,2022-01-21,清算の結了等,,,2015-10-05,1,,,,,クボコウギョウ,0
640,3010001171729,登記記録の閉鎖等,0,2022-01-25,2022-01-18,株式会社ハチマキ,,株式会社,東京都,新宿区,高田馬場１丁目２８番１０号三慶ビル４階ＣＡＳＥ－Ｓｈｉｎｊｕｋｕ５０６号,,13,104,1690075,,,2022-01-18,清算の結了等,,,2015-11-18,1,,,,,ハチマキ,0
650,3010401078937,登記記録の閉鎖等,0,2022-01-25,2022-01-25,株式会社アルバ,,株式会社,東京都,新宿区,高田馬場４丁目９番１１号,,13,104,1690075,,,2022-01-25,登記官による閉鎖,,,2015-10-05,1,,,,,,0
653,3010401139813,登記記録の閉鎖等,0,2022-01-25,2022-01-07,株式会社Ｂｅａｕｔｙ＆Ｍｏｎｅｙ,,株式会社,東京都,新宿区,西新宿６丁目１０番１号,,13,104,1600023,,,2022-01-07,清算の結了等,,,2018-07-25,1,,,,,ビューティーアンドマネー,0
681,3011101002807,登記記録の閉鎖等,0,2022-01-25,2022-01-25,株式会社永和,,株式会社,東京都,新宿区,高田馬場２丁目１４番９号,,13,104,1690075,,,2022-01-25,登記官による閉鎖,,,2015-10-05,1,,,,,,0
682,3011101009579,登記記録の閉鎖等,0,2022-01-25,2022-01-25,株式会社ジユン・システムズ,,株式会社,東京都,新宿区,百人町１丁目１８番８号,,13,104,1690073,,,2022-01-25,登記官による閉鎖,,,2015-10-05,1,,,,,,0
683,3011101016410,登記記録の閉鎖等,0,2022-01-25,2022-01-25,日本相互住宅株式会社,,株式会社,東京都,新宿区,高田馬場１丁目２７番１号,,13,104,1690075,,,2022-01-25,登記官による閉鎖,,,2015-10-05,1,,,,,,0
684,3011101020131,登記記録の閉鎖等,0,2022-01-25,2022-01-25,株式会社イーエフオート東京,,株式会社,東京都,新宿区,高田馬場１丁目２番１２号,,13,104,1690075,,,2022-01-25,登記官による閉鎖,,,2015-10-05,1,,,,,,0
685,3011101022813,登記記録の閉鎖等,0,2022-01-25,2022-01-25,ルーブル株式会社,,株式会社,東京都,新宿区,歌舞伎町１丁目２番２号,,13,104,1600021,,,2022-01-25,登記官による閉鎖,,,2015-10-05,1,,,,,,0
686,3011101035757,登記記録の閉鎖等,0,2022-01-25,2022-01-25,株式会社第一総研,,株式会社,東京都,新宿区,大久保１丁目１番４９号,,13,104,1690072,,,2022-01-25,登記官による閉鎖,,,2015-10-05,1,,,,,,0
687,3011101037729,登記記録の閉鎖等,0,2022-01-25,2022-01-25,ワクワクする株式会社,,株式会社,東京都,新宿区,西新宿７丁目２２番３７号ストーク西新宿福星３０４,,13,104,1600023,,,2022-01-25,登記官による閉鎖,,,2015-10-05,1,,,,,,0
688,3011101040674,登記記録の閉鎖等,0,2022-01-25,2022-01-25,株式会社アメテック,,株式会社,東京都,新宿区,中井１丁目１番４号,,13,104,1610035,,,2022-01-25,登記官による閉鎖,,,2015-10-05,1,,,,,,0
689,3011101040798,登記記録の閉鎖等,0,2022-01-25,2022-01-25,株式会社アクロスシティ,,株式会社,東京都,新宿区,大久保２丁目３番１８号,,13,104,1690072,,,2022-01-25,登記官による閉鎖,,,2015-10-05,1,,,,,,0
690,3011101046044,登記記録の閉鎖等,0,2022-01-25,2022-01-25,株式会社ＡＧＮＩＭＡ,,株式会社,東京都,新宿区,新宿２丁目４番１－１００８号,,13,104,1600022,,,2022-01-25,登記官による閉鎖,,,2015-10-05,1,,,,,,0
691,3011101047686,登記記録の閉鎖等,0,2022-01-25,2022-01-25,株式会社スタイルワークス,,株式会社,東京都,新宿区,西新宿１丁目２５番１号,,13,104,1600023,,,2022-01-25,登記官による閉鎖,,,2015-10-05,1,,,,,,0
692,3011101055508,登記記録の閉鎖等,0,2022-01-25,2022-01-25,株式会社ネクスト,,株式会社,東京都,新宿区,大久保１丁目１番４９号,,13,104,1690072,,,2022-01-25,登記官による閉鎖,,,2015-10-05,1,,,,,,0
693,3011101057248,登記記録の閉鎖等,0,2022-01-25,2022-01-25,株式会社ジャスティ,,株式会社,東京都,新宿区,原町３丁目２１番地,,13,104,1620053,,,2022-01-25,登記官による閉鎖,,,2015-10-05,1,,,,,,0
696,3011102021005,登記記録の閉鎖等,0,2022-01-25,2022-01-25,テクノメディア有限会社,,有限会社,東京都,新宿区,北新宿１丁目２番１２号貴松ビル,,13,104,1690074,,,2022-01-25,登記官による閉鎖,,,2015-10-05,1,,,,,,0
697,3011105001490,登記記録の閉鎖等,0,2022-01-25,2022-01-25,特定非営利活動法人いじめ根絶推進会議全国老人福祉介護会,,その他の設立登記法人,東京都,新宿区,西新宿７丁目１９番７号サンローゼ新宿２０１号,,13,104,1600023,,,2022-01-25,登記官による閉鎖,,,2015-10-05,1,,,,,,0
698,3011105001540,登記記録の閉鎖等,0,2022-01-25,2022-01-25,新宿デジタル・メディアミックス協同組合,,その他の設立登記法人,東京都,新宿区,矢来町２０番地,,13,104,1620805,,,2022-01-25,登記官による閉鎖,,,2015-10-05,1,,,,,,0
699,3011105002497,登記記録の閉鎖等,0,2022-01-25,2022-01-25,特定非営利活動法人演劇舎蝶恋花,,その他の設立登記法人,東京都,新宿区,住吉町１４番地９号カーサボニータ２－Ｄ号室,,13,104,1620065,,,2022-01-25,登記官による閉鎖,,,2015-10-05,1,,,,,,0
700,3011301017539,登記記録の閉鎖等,0,2022-01-25,2022-01-25,株式会社テクノス・ケー,,株式会社,東京都,杉並区,天沼３丁目２３番２３号,,13,115,1670032,,,2022-01-25,登記官による閉鎖,,,2015-10-05,1,,,,,,0
701,3011302001954,登記記録の閉鎖等,0,2022-01-25,2022-01-25,有限会社小川商店,,有限会社,東京都,杉並区,宮前５丁目１０番１２号,,13,115,1680081,,,2022-01-25,登記官による閉鎖,,,2015-10-05,1,,,,,,0
702,3011302003166,登記記録の閉鎖等,0,2022-01-25,2022-01-25,有限会社クロンボ,,有限会社,東京都,杉並区,高円寺南４丁目４９番１号,,13,115,1660003,,,2022-01-25,登記官による閉鎖,,,2015-10-05,1,,,,,,0
703,3011302004040,登記記録の閉鎖等,0,2022-01-25,2022-01-25,有限会社ＯＮＥ　ＬＩＮＥＳ,,有限会社,東京都,杉並区,梅里２丁目３６番１５号,,13,115,1660011,,,2022-01-25,登記官による閉鎖,,,2015-10-05,1,,,,,,0
704,3011302010798,登記記録の閉鎖等,0,2022-01-25,2022-01-25,有限会社トライベスト・インク,,有限会社,東京都,杉並区,南荻窪３丁目３０番１３号,,13,115,1670052,,,2022-01-25,登記官による閉鎖,,,2015-10-05,1,,,,,,0
713,3011801021750,登記記録の閉鎖等,0,2022-01-25,2022-01-24,株式会社アスウエイ,,株式会社,東京都,足立区,東和４丁目３番８－４０１号,,13,121,1200003,,,2022-01-24,清算の結了等,,,2015-10-05,1,,,,,アスウエイ,0
745,3030002079291,登記記録の閉鎖等,0,2022-01-25,2022-01-20,有限会社モデスト,,有限会社,埼玉県,川越市,仙波町４丁目２７番１４号（ライオンズマンション川越仙波町３０１号室）,,11,201,3500034,,,2022-01-20,清算の結了等,,,2015-10-05,1,,,,,モデスト,0
752,3040001003053,登記記録の閉鎖等,0,2022-01-25,2022-01-21,株式会社真広社,,株式会社,千葉県,千葉市中央区,神明町２０６番１８号,,12,101,2600022,,,2022-01-21,清算の結了等,,,2015-10-05,1,,,,,シンコウシャ,0
753,3040001054369,登記記録の閉鎖等,0,2022-01-25,2022-01-20,トーマスコンサルティング株式会社,,株式会社,千葉県,市原市,惣社４丁目１番地３５,,12,219,2900023,,,2022-01-20,清算の結了等,,,2015-10-05,1,,,,,トーマスコンサルティング,0
771,3070002026950,登記記録の閉鎖等,0,2022-01-25,2022-01-21,有限会社銘電社,,有限会社,群馬県,渋川市,渋川９０５番地３７,,10,208,3770008,,,2022-01-21,清算の結了等,,,2015-10-05,1,,,,,メイデンシャ,0
774,3070005006512,登記記録の閉鎖等,0,2022-01-25,2022-01-21,一般財団法人館林スポーツ振興協会,,その他の設立登記法人,群馬県,館林市,上赤生田町３９６６番地三羽工業株式会社内,,10,207,3740015,,,2022-01-21,清算の結了等,,,2015-10-05,1,,,,,タテバヤシスポーツシンコウキョウカイ,0
775,3080002014970,登記記録の閉鎖等,0,2022-01-25,2022-01-24,有限会社フジサワ,,有限会社,静岡県,牧之原市,白井１７０番地,,22,226,4210502,,,2022-01-24,清算の結了等,,,2015-10-05,1,,,,,フジサワ,0
806,3130001057214,登記記録の閉鎖等,0,2022-01-25,2022-01-21,株式会社駿希,,株式会社,京都府,亀岡市,篠町篠中北裏４２番地２,,26,206,6210826,,,2022-01-21,清算の結了等,,,2016-04-07,1,,,,,シュンキ,0
818,3150002004246,登記記録の閉鎖等,0,2022-01-25,2022-01-21,有限会社中谷米穀商店,,有限会社,奈良県,生駒市,高山町４２４１番地の２,,29,209,6300101,,,2022-01-21,清算の結了等,,,2015-10-05,1,,,,,ナカタニベイコクショウテン,0
826,3180002065723,登記記録の閉鎖等,0,2022-01-25,2022-01-20,有限会社岸下電機,,有限会社,愛知県,春日井市,朝宮町３丁目１８番地４,,23,206,4860846,,,2022-01-20,清算の結了等,,,2015-10-05,1,,,,,キシシタデンキ,0
836,3200001006394,登記記録の閉鎖等,0,2022-01-25,2022-01-24,株式会社ＣＢＧ開発,,株式会社,岐阜県,岐阜市,金宝町１丁目６番地,,21,201,5008847,,,2022-01-24,清算の結了等,,,2015-10-05,1,,,,,,0
843,3210002010295,登記記録の閉鎖等,0,2022-01-25,2022-01-21,有限会社小林興業,,有限会社,福井県,敦賀市,新和町１丁目１４番１１号,,18,202,9140122,,,2022-01-21,清算の結了等,,,2015-10-05,1,,,,,コバヤシコウギョウ,0
844,3220005004839,登記記録の閉鎖等,0,2022-01-25,2022-01-20,大津教会,,その他の設立登記法人,石川県,七尾市,大津町ヰ部１７番地１の２,,17,202,9292126,,,2022-01-20,清算の結了等,,,2015-10-05,1,,,,,オオツキョウカイ,0
845,3240001014113,登記記録の閉鎖等,0,2022-01-25,2022-01-24,株式会社ヨシダコート,,株式会社,広島県,広島市西区,横川新町５番１６号,,34,104,7330013,,,2022-01-24,登記官による閉鎖,,,2015-10-05,1,,,,,,0
846,3240001018915,登記記録の閉鎖等,0,2022-01-25,2022-01-24,株式会社サンコーポレーション,,株式会社,広島県,広島市中区,立町６番１号,,34,101,7300032,,,2022-01-24,登記官による閉鎖,,,2015-10-05,1,,,,,,0
847,3240001021646,登記記録の閉鎖等,0,2022-01-25,2022-01-24,株式会社Ｈ－ｔｗｏ,,株式会社,広島県,広島市西区,庚午中４丁目１０番２７－３０５号,,34,104,7330822,,,2022-01-24,登記官による閉鎖,,,2015-10-05,1,,,,,,0
848,3240001024756,登記記録の閉鎖等,0,2022-01-25,2022-01-24,株式会社コウダ被服,,株式会社,広島県,安芸高田市,甲田町高田原１６３７番地,,34,214,7391101,,,2022-01-24,登記官による閉鎖,,,2015-10-05,1,,,,,,0
849,3240001028708,登記記録の閉鎖等,0,2022-01-25,2022-01-24,株式会社Ａｉコーポレーション,,株式会社,広島県,大竹市,松ケ原町８３７番地,,34,211,7390657,,,2022-01-24,登記官による閉鎖,,,2015-10-05,1,,,,,,0
850,3240001029623,登記記録の閉鎖等,0,2022-01-25,2022-01-24,大三石油株式会社,,株式会社,広島県,福山市,神辺町大字道上字起６０１番地の１,,34,207,7210000,,,2022-01-24,登記官による閉鎖,,,2016-02-25,1,,,,,,0
851,3240001032313,登記記録の閉鎖等,0,2022-01-25,2022-01-24,宮地建設工業株式会社,,株式会社,広島県,福山市,多治米町６丁目７番３７号,,34,207,7200824,,,2022-01-24,登記官による閉鎖,,,2016-03-24,1,,,,,,0
852,3240001035852,登記記録の閉鎖等,0,2022-01-25,2022-01-24,日本エコセンター株式会社,,株式会社,広島県,福山市,曙町３丁目３０番１３号,,34,207,7210952,,,2022-01-24,登記官による閉鎖,,,2015-10-05,1,,,,,,0
853,3240001038095,登記記録の閉鎖等,0,2022-01-25,2022-01-24,山陽機工株式会社,,株式会社,広島県,尾道市,向東町９２１０番地,,34,205,7220062,,,2022-01-24,登記官による閉鎖,,,2015-10-05,1,,,,,,0
854,3240001039614,登記記録の閉鎖等,0,2022-01-25,2022-01-24,株式会社サンヨーコンサルタント,,株式会社,広島県,三原市,本郷南７丁目２１番１０号,,34,204,7290417,,,2022-01-24,登記官による閉鎖,,,2015-10-05,1,,,,,,0
855,3240001049745,登記記録の閉鎖等,0,2022-01-25,2022-01-24,平岡石油株式会社,,株式会社,広島県,呉市,広横路１丁目８番３６号,,34,202,7370113,,,2022-01-24,登記官による閉鎖,,,2016-08-04,1,,,,,,0
858,3240002001770,登記記録の閉鎖等,0,2022-01-25,2022-01-24,有限会社ウィンデザイン,,有限会社,広島県,広島市佐伯区,三宅１丁目５番５号,,34,108,7315143,,,2022-01-24,登記官による閉鎖,,,2015-10-05,1,,,,,,0
859,3240002004286,登記記録の閉鎖等,0,2022-01-25,2022-01-24,有限会社河中鉄筋工業,,有限会社,広島県,広島市西区,庚午中２丁目９番２６号,,34,104,7330822,,,2022-01-24,登記官による閉鎖,,,2015-10-05,1,,,,,,0
860,3240002010887,登記記録の閉鎖等,0,2022-01-25,2022-01-24,有限会社テニスプロジェクト,,有限会社,広島県,広島市佐伯区,海老園１丁目５番４４－６０２号,,34,108,7315135,,,2022-01-24,登記官による閉鎖,,,2015-10-05,1,,,,,,0
861,3240002012520,登記記録の閉鎖等,0,2022-01-25,2022-01-24,有限会社ノエビア広島中央販社,,有限会社,広島県,広島市安芸区,船越南２丁目１９番２６－１２１号,,34,107,7360082,,,2022-01-24,登記官による閉鎖,,,2015-10-05,1,,,,,,0
862,3240002016711,登記記録の閉鎖等,0,2022-01-25,2022-01-24,有限会社メタモルフォーゼ,,有限会社,広島県,広島市安佐南区,中筋２丁目１７番２０号,,34,105,7310122,,,2022-01-24,登記官による閉鎖,,,2015-10-05,1,,,,,,0
863,3240002022528,登記記録の閉鎖等,0,2022-01-25,2022-01-24,アークシップ建築事務所有限会社,,有限会社,広島県,広島市佐伯区,美鈴が丘緑１丁目１番１号,,34,108,7315113,,,2022-01-24,登記官による閉鎖,,,2015-10-05,1,,,,,,0
864,3240002023121,登記記録の閉鎖等,0,2022-01-25,2022-01-24,有限会社希望,,有限会社,広島県,広島市安佐南区,東原１丁目１６番３－１０２号,,34,105,7310112,,,2022-01-24,登記官による閉鎖,,,2015-10-05,1,,,,,,0
865,3240002024409,登記記録の閉鎖等,0,2022-01-25,2022-01-24,有限会社ユニコーン,,有限会社,広島県,広島市安芸区,矢野東１丁目１番４２号,,34,107,7360083,,,2022-01-24,登記官による閉鎖,,,2015-10-05,1,,,,,,0
867,3240002031578,登記記録の閉鎖等,0,2022-01-25,2022-01-24,有限会社比婆西メンテナンス,,有限会社,広島県,庄原市,実留町１８３６番地の８,,34,210,7270015,,,2022-01-24,登記官による閉鎖,,,2015-10-05,1,,,,,,0
868,3240002032576,登記記録の閉鎖等,0,2022-01-25,2022-01-24,有限会社きものの新田,,有限会社,広島県,呉市,長ノ木町８番４３号,,34,202,7370053,,,2022-01-24,登記官による閉鎖,,,2015-10-05,1,,,,,,0
869,3240002032717,登記記録の閉鎖等,0,2022-01-25,2022-01-24,有限会社クレバサービス,,有限会社,広島県,呉市,宮原１０丁目２番２７－１０１号,,34,202,7370024,,,2022-01-24,登記官による閉鎖,,,2015-10-05,1,,,,,,0
871,3240002045909,登記記録の閉鎖等,0,2022-01-25,2022-01-24,ジュリアーノガーデン有限会社,,有限会社,広島県,福山市,駅家町大字万能倉７２２番地１４,,34,207,7201131,,,2022-01-24,登記官による閉鎖,,,2015-10-05,1,,,,,,0
872,3240002050223,登記記録の閉鎖等,0,2022-01-25,2022-01-24,有限会社尾道日設エンジニアリング,,有限会社,広島県,尾道市,土堂２丁目３番１２号,,34,205,7220035,,,2022-01-24,登記官による閉鎖,,,2015-10-05,1,,,,,,0
873,3240002051403,登記記録の閉鎖等,0,2022-01-25,2022-01-24,有限会社芳選堂,,有限会社,広島県,尾道市,久保２丁目６番３号,,34,205,7220045,,,2022-01-24,登記官による閉鎖,,,2015-10-05,1,,,,,,0
874,3240002052442,登記記録の閉鎖等,0,2022-01-25,2022-01-24,有限会社西野商店,,有限会社,広島県,尾道市,瀬戸田町鹿田原１６番地の５,,34,205,7222414,,,2022-01-24,登記官による閉鎖,,,2015-10-05,1,,,,,,0
875,3240005002576,登記記録の閉鎖等,0,2022-01-25,2022-01-24,ブライダルプロダクション協同組合,,その他の設立登記法人,広島県,広島市西区,草津新町２丁目１７番１９－１０１号,,34,104,7330834,,,2022-01-24,登記官による閉鎖,,,2015-10-05,1,,,,,,0
876,3240005003104,登記記録の閉鎖等,0,2022-01-25,2022-01-24,西日本輸入木材協同組合,,その他の設立登記法人,広島県,広島市西区,山田町３８６番地の１,,34,104,7330854,,,2022-01-24,登記官による閉鎖,,,2015-10-05,1,,,,,,0
877,3240005003153,登記記録の閉鎖等,0,2022-01-25,2022-01-24,特定非営利活動法人農業戦隊コットンレンジャイ,,その他の設立登記法人,広島県,広島市安佐南区,西原９丁目６番２７号,,34,105,7310113,,,2022-01-24,登記官による閉鎖,,,2015-10-05,1,,,,,,0
878,3240005007105,登記記録の閉鎖等,0,2022-01-25,2022-01-24,大竹商業協同組合,,その他の設立登記法人,広島県,大竹市,新町１丁目８番３号,,34,211,7390611,,,2022-01-24,登記官による閉鎖,,,2015-10-05,1,,,,,,0
881,3260001015217,登記記録の閉鎖等,0,2022-01-25,2022-01-24,株式会社レーザーメデイア,,株式会社,岡山県,倉敷市,中畝５丁目２番２号,,33,202,7128051,,,2022-01-24,清算の結了等,,,2015-10-05,1,,,,,レーザーメデイア,0
942,4010001180547,登記記録の閉鎖等,0,2022-01-25,2022-01-21,株式会社Ａｓｓｅｔ　Ｈｏｌｄｉｎｇ,,株式会社,東京都,中央区,日本橋３丁目２番１４号新槇町ビル別館第一１階,,13,102,1030027,,,2022-01-21,清算の結了等,,,2017-01-12,1,,,,,アッセトホールディングス,0
975,4011101004843,登記記録の閉鎖等,0,2022-01-25,2022-01-25,株式会社川口ソフト開発,,株式会社,東京都,新宿区,東五軒町３番５号,,13,104,1620813,,,2022-01-25,登記官による閉鎖,,,2015-10-05,1,,,,,,0
976,4011101009751,登記記録の閉鎖等,0,2022-01-25,2022-01-25,伸和設備株式会社,,株式会社,東京都,新宿区,北新宿４丁目３１番１４号,,13,104,1690074,,,2022-01-25,登記官による閉鎖,,,2015-10-05,1,,,,,,0
977,4011101015790,登記記録の閉鎖等,0,2022-01-25,2022-01-25,日盛建設株式会社,,株式会社,東京都,新宿区,百人町１丁目１１番３１号浅川ビル４階,,13,104,1690073,,,2022-01-25,登記官による閉鎖,,,2015-10-05,1,,,,,,0
979,4011101030550,登記記録の閉鎖等,0,2022-01-25,2022-01-25,鵬飛建設株式会社,,株式会社,東京都,新宿区,大久保１丁目１４番２６号,,13,104,1690072,,,2022-01-25,登記官による閉鎖,,,2015-10-05,1,,,,,,0
980,4011101038247,登記記録の閉鎖等,0,2022-01-25,2022-01-25,株式会社ソウケンビバックス,,株式会社,東京都,新宿区,神楽坂３丁目２番地,,13,104,1620825,,,2022-01-25,登記官による閉鎖,,,2015-10-05,1,,,,,,0
981,4011101048923,登記記録の閉鎖等,0,2022-01-25,2022-01-25,株式会社メディカル,,株式会社,東京都,新宿区,西新宿５丁目１８番２６号,,13,104,1600023,,,2022-01-25,登記官による閉鎖,,,2015-10-05,1,,,,,,0
982,4011101052132,登記記録の閉鎖等,0,2022-01-25,2022-01-25,株式会社キャリアインダストリー,,株式会社,東京都,新宿区,西新宿７丁目１８番１８号新宿税理士ビル別館３Ｆ,,13,104,1600023,,,2022-01-25,登記官による閉鎖,,,2015-10-05,1,,,,,,0
983,4011101053766,登記記録の閉鎖等,0,2022-01-25,2022-01-25,株式会社スモールポンド,,株式会社,東京都,新宿区,新宿２丁目１２番９号,,13,104,1600022,,,2022-01-25,登記官による閉鎖,,,2015-10-05,1,,,,,,0
985,4011101057131,登記記録の閉鎖等,0,2022-01-25,2022-01-25,株式会社アリエス,,株式会社,東京都,新宿区,百人町２丁目６番２号,,13,104,1690073,,,2022-01-25,登記官による閉鎖,,,2015-10-05,1,,,,,,0
986,4011101057833,登記記録の閉鎖等,0,2022-01-25,2022-01-25,株式会社ビックロック,,株式会社,東京都,新宿区,西新宿４丁目１６番１２号,,13,104,1600023,,,2022-01-25,登記官による閉鎖,,,2015-10-05,1,,,,,,0
987,4011101058567,登記記録の閉鎖等,0,2022-01-25,2022-01-25,柳田農機株式会社,,株式会社,東京都,新宿区,三栄町１０番地,,13,104,1600008,,,2022-01-25,登記官による閉鎖,,,2015-10-05,1,,,,,,0
988,4011101060011,登記記録の閉鎖等,0,2022-01-25,2022-01-25,シーシーエルジャパン株式会社,,株式会社,東京都,新宿区,河田町３番５２－１５０７号室,,13,104,1620054,,,2022-01-25,登記官による閉鎖,,,2015-10-05,1,,,,,,0
989,4011101073137,登記記録の閉鎖等,0,2022-01-25,2022-01-25,三洲企業株式会社,,株式会社,東京都,新宿区,四谷２丁目８番地,,13,104,1600004,,,2022-01-25,登記官による閉鎖,,,2015-10-05,1,,,,,,0
991,4011102004462,登記記録の閉鎖等,0,2022-01-25,2022-01-25,幸信印刷有限会社,,有限会社,東京都,新宿区,天神町７９番地,,13,104,1620808,,,2022-01-25,登記官による閉鎖,,,2015-10-05,1,,,,,,0
992,4011102022539,登記記録の閉鎖等,0,2022-01-25,2022-01-25,有限会社ケイアンドジェイプランニング,,有限会社,東京都,新宿区,百人町１丁目１２番１１号,,13,104,1690073,,,2022-01-25,登記官による閉鎖,,,2015-10-05,1,,,,,,0
993,4011102028180,登記記録の閉鎖等,0,2022-01-25,2022-01-25,有限会社Ｍ＆Ｍ　Ｓｔｕｄｙ,,有限会社,東京都,新宿区,市谷台町８番１４号,,13,104,1620066,,,2022-01-25,登記官による閉鎖,,,2015-10-05,1,,,,,,0
994,4011105003734,登記記録の閉鎖等,0,2022-01-25,2022-01-25,特定非営利活動法人日本ハウスケア協会,,その他の設立登記法人,東京都,新宿区,西新宿７丁目１５番１７号井西ビル３Ｆ,,13,104,1600023,,,2022-01-25,登記官による閉鎖,,,2015-10-05,1,,,,,,0
995,4011105004518,登記記録の閉鎖等,0,2022-01-25,2022-01-25,一般社団法人ワーキングジャパン,,その他の設立登記法人,東京都,新宿区,新小川町６番２９号,,13,104,1620814,,,2022-01-25,登記官による閉鎖,,,2015-10-05,1,,,,,,0
1000,4011301016060,登記記録の閉鎖等,0,2022-01-25,2022-01-25,日本教育サポート株式会社,,株式会社,東京都,杉並区,高井戸西３丁目７番２９号,,13,115,1680071,,,2022-01-25,登記官による閉鎖,,,2015-10-05,1,,,,,,0
1002,4011302000410,登記記録の閉鎖等,0,2022-01-25,2022-01-25,有限会社安真建業,,有限会社,東京都,杉並区,上高井戸３丁目８番１８号,,13,115,1680074,,,2022-01-25,登記官による閉鎖,,,2015-10-05,1,,,,,,0
1003,4011302002134,登記記録の閉鎖等,0,2022-01-25,2022-01-25,有限会社オムニアーツ,,有限会社,東京都,杉並区,高井戸東４丁目８番１５－２０３号,,13,115,1680072,,,2022-01-25,登記官による閉鎖,,,2015-10-05,1,,,,,,0
1004,4011302002794,登記記録の閉鎖等,0,2022-01-25,2022-01-25,有限会社喫茶吾妻屋,,有限会社,東京都,杉並区,高円寺南２丁目２１番９号,,13,115,1660003,,,2022-01-25,登記官による閉鎖,,,2015-10-05,1,,,,,,0
1005,4011302005806,登記記録の閉鎖等,0,2022-01-25,2022-01-25,有限会社渡辺寛英商店,,有限会社,東京都,杉並区,南荻窪１丁目２２番１４号,,13,115,1670052,,,2022-01-25,登記官による閉鎖,,,2015-10-05,1,,,,,,0
1006,4011302008783,登記記録の閉鎖等,0,2022-01-25,2022-01-25,有限会社マルイチ不動産,,有限会社,東京都,杉並区,荻窪４丁目３１番３号,,13,115,1670051,,,2022-01-25,登記官による閉鎖,,,2015-10-05,1,,,,,,0
1007,4011305000498,登記記録の閉鎖等,0,2022-01-25,2022-01-25,ドムス高井戸管理組合法人,,その他の設立登記法人,東京都,杉並区,高井戸東３丁目２８番２４号ドムス高井戸内,,13,115,1680072,,,2022-01-25,登記官による閉鎖,,,2015-10-05,1,,,,,,0
1008,4011305001348,登記記録の閉鎖等,0,2022-01-25,2022-01-25,医療法人社団杏珠会,,その他の設立登記法人,東京都,杉並区,高円寺南１丁目７番４号杉木ビル４階４０１号室,,13,115,1660003,,,2022-01-25,登記官による閉鎖,,,2015-10-05,1,,,,,,0
1026,4012702000735,登記記録の閉鎖等,0,2022-01-25,2022-01-20,有限会社交和自動車工業,,有限会社,東京都,小平市,小川町２丁目１３２０番地,,13,211,1870032,,,2022-01-20,清算の結了等,,,2015-10-05,1,,,,,コウワジドウシャコウギョウ,0
1027,4012802002350,登記記録の閉鎖等,0,2022-01-25,2022-01-24,有限会社森正材木店,,有限会社,東京都,立川市,一番町４丁目２８番地４,,13,202,1900033,,,2022-01-24,清算の結了等,,,2015-10-05,1,,,,,,0
1031,4013302020462,登記記録の閉鎖等,0,2022-01-25,2022-01-20,有限会社Ｋ・Ｙ・Ｋｕｄｏｓ,,有限会社,東京都,豊島区,池袋２丁目４６番３号,,13,116,1710014,,,2022-01-20,合併による解散等,5010402031604,令和３年１１月３０日東京都港区南青山一丁目２６番１６号株式会社三優設計企画（5010402031604）に合併し解散,2015-10-05,1,,,,,,0
1033,4020001011791,登記記録の閉鎖等,0,2022-01-25,2022-01-21,株式会社東芳造園設計,,株式会社,神奈川県,横浜市青葉区,奈良町２５３３－１４５,,14,117,2270036,,,2022-01-21,清算の結了等,,,2015-10-05,1,,,,,トウホウゾウエンセッケイ,0
1046,4021001009859,登記記録の閉鎖等,0,2022-01-25,2022-01-20,株式会社ハウスモリーサービス,,株式会社,神奈川県,逗子市,逗子１丁目８番１０号,,14,208,2490006,,,2022-01-20,清算の結了等,,,2015-10-05,1,,,,,ハウスモリーサービス,0
1047,4021001058526,登記記録の閉鎖等,0,2022-01-25,2022-01-20,三共サービス株式会社,,株式会社,神奈川県,横須賀市,長沢６丁目５番５号,,14,201,2390842,,,2022-01-20,清算の結了等,,,2016-02-16,1,,,,,サンキョウサービス,0
1067,4050001021532,登記記録の閉鎖等,0,2022-01-25,2022-01-20,遠峰酒造株式会社,,株式会社,茨城県,潮来市,潮来２０９番地,,08,223,3112424,,,2022-01-20,清算の結了等,,,2015-10-05,1,,,,,,0
1083,4080003002197,登記記録の閉鎖等,0,2022-01-25,2022-01-20,合同会社シャレット,,合同会社,静岡県,静岡市清水区,辻１丁目１番３号,00115127,22,103,4240806,,,2022-01-20,清算の結了等,,,2018-12-04,1,,,,,シャレット,0
1087,4080102017393,登記記録の閉鎖等,0,2022-01-25,2022-01-21,有限会社山作本店,,有限会社,静岡県,富士宮市,大宮町３番５号,,22,207,4180066,,,2022-01-21,清算の結了等,,,2015-10-05,1,,,,,ヤマサクホンテン,0
1088,4080401011411,登記記録の閉鎖等,0,2022-01-25,2022-01-21,株式会社入七養魚,,株式会社,静岡県,湖西市,入出６４３番地,,22,221,4310411,,,2022-01-21,清算の結了等,,,2015-10-05,1,,,,,イリシチヨウギョ,0
1092,4100001006882,登記記録の閉鎖等,0,2022-01-25,2022-01-20,株式会社越関中越屋,,株式会社,長野県,長野市,箱清水２丁目２１番２号,,20,201,3800801,,,2022-01-20,清算の結了等,,,2015-10-05,1,,,,,エッカンナカゴエヤ,0
1103,4120001132041,登記記録の閉鎖等,0,2022-01-25,2022-01-20,株式会社ＣＨＯＣＯ．ＣＯ,,株式会社,大阪府,大阪市城東区,東中浜３丁目１９番７号,,27,118,5360023,,,2022-01-20,清算の結了等,,,2015-10-05,1,,,,,,0
1134,4140001054234,登記記録の閉鎖等,0,2022-01-25,2022-01-21,株式会社幸栄製作所,,株式会社,大阪府,豊中市,利倉２丁目１番１５号,,27,203,5610845,,,2022-01-21,清算の結了等,,,2015-10-05,1,,,,,コウエイセイサクショ,0
1136,4140001083902,登記記録の閉鎖等,0,2022-01-25,2022-01-20,陽明建設工業株式会社,,株式会社,兵庫県,川西市,向陽台１丁目５番地の７８,,28,217,6660115,,,2022-01-20,清算の結了等,,,2015-10-05,1,,,,,ヨウメイケンセツコウギョウ,0
1171,4200002024312,登記記録の閉鎖等,0,2022-01-25,2022-01-21,有限会社悠悠,,有限会社,岐阜県,中津川市,蛭川３４００番地の７,,21,206,5098301,,,2022-01-21,清算の結了等,,,2015-10-05,1,,,,,ユウユウ,0
1174,4220001013553,登記記録の閉鎖等,0,2022-01-25,2022-01-20,株式会社加賀商事,,株式会社,石川県,加賀市,山中温泉西桂木町ヌ１７番地の６,,17,206,9220112,,,2022-01-20,清算の結了等,,,2015-10-05,1,,,,,カガショウジ,0
1177,4240001001845,登記記録の閉鎖等,0,2022-01-25,2022-01-24,株式会社隠岐商店,,株式会社,広島県,広島市南区,猿猴橋町６番１２号,,34,103,7320823,,,2022-01-24,登記官による閉鎖,,,2015-10-05,1,,,,,,0
1178,4240001011514,登記記録の閉鎖等,0,2022-01-25,2022-01-24,株式会社三宅,,株式会社,広島県,広島市南区,段原３丁目３番１１号,,34,103,7320811,,,2022-01-24,登記官による閉鎖,,,2015-10-05,1,,,,,,0
1179,4240001011836,登記記録の閉鎖等,0,2022-01-25,2022-01-24,株式会社ヤング,,株式会社,広島県,広島市中区,本通４番１１号,,34,101,7300035,,,2022-01-24,登記官による閉鎖,,,2015-10-05,1,,,,,,0
1181,4240001019350,登記記録の閉鎖等,0,2022-01-25,2022-01-24,株式会社李全,,株式会社,広島県,広島市中区,基町１９番１－１３０２号,,34,101,7300011,,,2022-01-24,登記官による閉鎖,,,2015-10-05,1,,,,,,0
1182,4240001020473,登記記録の閉鎖等,0,2022-01-25,2022-01-24,プラネット株式会社,,株式会社,広島県,広島市佐伯区,利松２丁目４番２１号,,34,108,7315106,,,2022-01-24,登記官による閉鎖,,,2016-02-23,1,,,,,,0
1183,4240001023674,登記記録の閉鎖等,0,2022-01-25,2022-01-24,株式会社進藤商事,,株式会社,広島県,東広島市,西条町御薗宇５１７０番地１,,34,212,7390024,,,2022-01-24,登記官による閉鎖,,,2015-10-05,1,,,,,,0
1184,4240001025480,登記記録の閉鎖等,0,2022-01-25,2022-01-24,株式会社アピア,,株式会社,広島県,呉市,広多賀谷１丁目８番９号,,34,202,7370134,,,2022-01-24,登記官による閉鎖,,,2015-10-05,1,,,,,,0
1185,4240001030968,登記記録の閉鎖等,0,2022-01-25,2022-01-24,信興自動車株式会社,,株式会社,広島県,福山市,南蔵王町５丁目８番１１号,,34,207,7210973,,,2022-01-24,登記官による閉鎖,,,2015-10-05,1,,,,,,0
1186,4240001031529,登記記録の閉鎖等,0,2022-01-25,2022-01-24,マルワホーム株式会社,,株式会社,広島県,福山市,笠岡町２番７号,,34,207,7200044,,,2022-01-24,登記官による閉鎖,,,2015-10-05,1,,,,,,0
1187,4240001032089,登記記録の閉鎖等,0,2022-01-25,2022-01-24,寳和建材株式会社,,株式会社,広島県,福山市,横尾町１７３番地,,34,207,7200011,,,2022-01-24,登記官による閉鎖,,,2015-10-05,1,,,,,,0
1188,4240001036750,登記記録の閉鎖等,0,2022-01-25,2022-01-24,サンケイグローバルサービス株式会社,,株式会社,広島県,安芸郡府中町,千代８番７号,,34,302,7350027,,,2022-01-24,登記官による閉鎖,,,2015-10-05,1,,,,,,0
1189,4240001038697,登記記録の閉鎖等,0,2022-01-25,2022-01-24,山陽造船株式会社,,株式会社,広島県,尾道市,向島町５６０９番地の３,,34,205,7220073,,,2022-01-24,登記官による閉鎖,,,2015-10-05,1,,,,,,0
1190,4240002000185,登記記録の閉鎖等,0,2022-01-25,2022-01-24,有限会社アイ・ジー・エス,,有限会社,広島県,広島市中区,吉島西２丁目１６番１号,,34,101,7300823,,,2022-01-24,登記官による閉鎖,,,2015-10-05,1,,,,,,0
1191,4240002000458,登記記録の閉鎖等,0,2022-01-25,2022-01-24,有限会社秋月事務器,,有限会社,広島県,広島市西区,山手町７番１１号,,34,104,7330804,,,2022-01-24,登記官による閉鎖,,,2015-10-05,1,,,,,,0
1192,4240002004707,登記記録の閉鎖等,0,2022-01-25,2022-01-24,有限会社協栄商会,,有限会社,広島県,広島市安佐北区,白木町大字三田５９８３番地の１,,34,106,7391521,,,2022-01-24,登記官による閉鎖,,,2015-10-05,1,,,,,,0
1193,4240002004731,登記記録の閉鎖等,0,2022-01-25,2022-01-24,有限会社教研,,有限会社,広島県,広島市安佐南区,大町東３丁目１２番３０号,,34,105,7310124,,,2022-01-24,登記官による閉鎖,,,2015-10-05,1,,,,,,0
1195,4240002009755,登記記録の閉鎖等,0,2022-01-25,2022-01-24,有限会社竹美工舎,,有限会社,広島県,広島市安佐北区,三入南２丁目１２番４号,,34,106,7310213,,,2022-01-24,登記官による閉鎖,,,2015-10-05,1,,,,,,0
1196,4240002009978,登記記録の閉鎖等,0,2022-01-25,2022-01-24,田中工業有限会社,,有限会社,広島県,広島市佐伯区,藤の木２丁目９番３号,,34,108,7315103,,,2022-01-24,登記官による閉鎖,,,2015-10-05,1,,,,,,0
1197,4240002015729,登記記録の閉鎖等,0,2022-01-25,2022-01-24,有限会社万平,,有限会社,広島県,広島市中区,十日市町２丁目１番２５号,,34,101,7300805,,,2022-01-24,登記官による閉鎖,,,2015-10-05,1,,,,,,0
1198,4240002023599,登記記録の閉鎖等,0,2022-01-25,2022-01-24,有限会社イエローテイル,,有限会社,広島県,広島市安佐南区,大塚西７丁目２０番２７号,,34,105,7313167,,,2022-01-24,登記官による閉鎖,,,2015-10-05,1,,,,,,0
1199,4240002023822,登記記録の閉鎖等,0,2022-01-25,2022-01-24,有限会社アップストリーム,,有限会社,広島県,広島市中区,白島北町１６番２９号,,34,101,7300001,,,2022-01-24,登記官による閉鎖,,,2015-10-05,1,,,,,,0
1200,4240002030629,登記記録の閉鎖等,0,2022-01-25,2022-01-24,有限会社ますだストアー,,有限会社,広島県,三次市,吉舎町吉舎２８１番地の２,,34,209,7294211,,,2022-01-24,登記官による閉鎖,,,2015-10-05,1,,,,,,0
1201,4240002031701,登記記録の閉鎖等,0,2022-01-25,2022-01-24,有限会社坂工務店,,有限会社,広島県,庄原市,東城町川西８８４番地の１３,,34,210,7295125,,,2022-01-24,登記官による閉鎖,,,2015-10-05,1,,,,,,0
1202,4240002038300,登記記録の閉鎖等,0,2022-01-25,2022-01-24,有限会社住宅構造プランニング,,有限会社,広島県,大竹市,晴海１丁目２番４号,,34,211,7390622,,,2022-01-24,登記官による閉鎖,,,2015-10-05,1,,,,,,0
1203,4240002038473,登記記録の閉鎖等,0,2022-01-25,2022-01-24,有限会社ヒトミ工芸,,有限会社,広島県,福山市,沼隈町大字中山南６０４番地,,34,207,7200402,,,2022-01-24,登記官による閉鎖,,,2015-10-05,1,,,,,,0
1204,4240002041386,登記記録の閉鎖等,0,2022-01-25,2022-01-24,有限会社瀬戸内印刷,,有限会社,広島県,福山市,津之郷町１９１番地の２,,34,207,7210000,,,2022-01-24,登記官による閉鎖,,,2015-10-05,1,,,,,,0
1205,4240002042376,登記記録の閉鎖等,0,2022-01-25,2022-01-24,有限会社浜田建設,,有限会社,広島県,福山市,坪生町南３丁目２２番２２号,,34,207,7210904,,,2022-01-24,登記官による閉鎖,,,2015-10-05,1,,,,,,0
1206,4240002048506,登記記録の閉鎖等,0,2022-01-25,2022-01-24,有限会社パノス,,有限会社,広島県,安芸郡海田町,月見町９番３号,,34,304,7360034,,,2022-01-24,登記官による閉鎖,,,2015-10-05,1,,,,,,0
1207,4240002052251,登記記録の閉鎖等,0,2022-01-25,2022-01-24,有限会社プラズマ研究所,,有限会社,広島県,尾道市,御調町神１７番地の２,,34,205,7220341,,,2022-01-24,登記官による閉鎖,,,2015-10-05,1,,,,,,0
1209,4240005006659,登記記録の閉鎖等,0,2022-01-25,2022-01-24,広島職業紹介企業組合,,その他の設立登記法人,広島県,呉市,和庄１丁目１２番２２号坪田ビル１Ｆ,,34,202,7370041,,,2022-01-24,登記官による閉鎖,,,2015-10-05,1,,,,,,0
1210,4240005008028,登記記録の閉鎖等,0,2022-01-25,2022-01-24,広島県牛乳商業組合,,その他の設立登記法人,広島県,福山市,胡町３番８号,,34,207,7200055,,,2022-01-24,登記官による閉鎖,,,2015-10-05,1,,,,,,0
1211,4240005008977,登記記録の閉鎖等,0,2022-01-25,2022-01-24,備後土木協同組合,,その他の設立登記法人,広島県,福山市,春日町７丁目２７番６号,,34,207,7210907,,,2022-01-24,登記官による閉鎖,,,2015-10-05,1,,,,,,0
1212,4240005009439,登記記録の閉鎖等,0,2022-01-25,2022-01-24,協同組合Ｐ・Ｆ・Ｕ,,その他の設立登記法人,広島県,福山市,駅家町万能倉１２９７番地１３,,34,207,7210000,,,2022-01-24,登記官による閉鎖,,,2015-10-05,1,,,,,,0
1215,4250001011315,登記記録の閉鎖等,0,2022-01-25,2022-01-21,株式会社クリーンサービス,,株式会社,山口県,岩国市,門前町２丁目３３番３号,,35,208,7400031,,,2022-01-21,清算の結了等,,,2015-10-05,1,,,,,クリーンサービス,0
1222,4290001002582,登記記録の閉鎖等,0,2022-01-25,2022-01-20,株式会社アステム,,株式会社,福岡県,福岡市博多区,店屋町６番２５号,,40,132,8120025,,,2022-01-20,合併による解散等,9120001055741,令和４年１月１日大阪市淀川区西中島五丁目５番１５号ジェイズ・コミュニケーション株式会社（9120001055741）に合併し解散,2015-10-05,1,,,,,アステム,0
1239,4350001014472,登記記録の閉鎖等,0,2022-01-25,2022-01-21,株式会社コバケン,,株式会社,宮崎県,日向市,向江町２丁目１８番地,,45,206,8830051,,,2022-01-21,清算の結了等,,,2017-01-30,1,,,,,コバケン,0
1265,5010001105560,登記記録の閉鎖等,0,2022-01-25,2022-01-21,株式会社ファーマント,,株式会社,東京都,北区,志茂２丁目４５番１２号,,13,117,1150042,,,2022-01-21,清算の結了等,,,2015-10-05,1,,,,,ファーマント,0
1270,5010001202110,登記記録の閉鎖等,0,2022-01-25,2022-01-14,株式会社ＣＡＣホールディングス,,株式会社,東京都,千代田区,大手町１丁目６番１号,,13,101,1000004,,,2022-01-14,合併による解散等,9040001038102,令和４年１月１日千葉県流山市東初石二丁目１８６番地株式会社ＣＡＣ（9040001038102）に合併し解散,2019-07-04,1,,,,,シーエーシーホールディングス,0
1296,5010701020596,登記記録の閉鎖等,0,2022-01-25,2022-01-11,フォン・アジア・ジャパン・ディベロップメント株式会社,,株式会社,東京都,目黒区,下目黒１丁目８番１号アルコタワー７階,,13,110,1530064,,,2022-01-11,清算の結了等,,,2015-10-05,1,,,,,フォンアジアジャパンディベロップメント,0
1324,5011101001815,登記記録の閉鎖等,0,2022-01-25,2022-01-25,株式会社伊豆別荘土地,,株式会社,東京都,新宿区,南元町１９番地,,13,104,1600012,,,2022-01-25,登記官による閉鎖,,,2015-10-05,1,,,,,,0
1325,5011101005171,登記記録の閉鎖等,0,2022-01-25,2022-01-25,株式会社木村伝建築設計事務所,,株式会社,東京都,新宿区,大久保２丁目３番６号,,13,104,1690072,,,2022-01-25,登記官による閉鎖,,,2016-07-26,1,,,,,,0
1326,5011101016350,登記記録の閉鎖等,0,2022-01-25,2022-01-25,株式会社日本教育研究会,,株式会社,東京都,新宿区,西新宿７丁目１０番１７－６０２号,,13,104,1600023,,,2022-01-25,登記官による閉鎖,,,2015-10-05,1,,,,,,0
1327,5011101017836,登記記録の閉鎖等,0,2022-01-25,2022-01-25,株式会社美苑寿司,,株式会社,東京都,新宿区,新宿２丁目１番１３号,,13,104,1600022,,,2022-01-25,登記官による閉鎖,,,2015-10-05,1,,,,,,0
1328,5011101032075,登記記録の閉鎖等,0,2022-01-25,2022-01-25,アポロクオリティ株式会社,,株式会社,東京都,新宿区,新宿１丁目３４番１１号,,13,104,1600022,,,2022-01-25,登記官による閉鎖,,,2016-01-21,1,,,,,,0
1329,5011101042958,登記記録の閉鎖等,0,2022-01-25,2022-01-25,株式会社Ｉｎ　Ｄｅｓｉｇｎ,,株式会社,東京都,新宿区,西新宿６丁目１７番７号,,13,104,1600023,,,2022-01-25,登記官による閉鎖,,,2015-10-05,1,,,,,,0
1330,5011101043254,登記記録の閉鎖等,0,2022-01-25,2022-01-25,株式会社ブリリア,,株式会社,東京都,新宿区,新宿１丁目２４番３号,,13,104,1600022,,,2022-01-25,登記官による閉鎖,,,2015-10-05,1,,,,,,0
1331,5011101049029,登記記録の閉鎖等,0,2022-01-25,2022-01-25,帝国地所株式会社,,株式会社,東京都,新宿区,百人町１丁目２２番１６号,,13,104,1690073,,,2022-01-25,登記官による閉鎖,,,2015-10-05,1,,,,,,0
1332,5011101054937,登記記録の閉鎖等,0,2022-01-25,2022-01-25,株式会社軍鶏一,,株式会社,東京都,新宿区,四谷１丁目７番１５号,,13,104,1600004,,,2022-01-25,登記官による閉鎖,,,2015-10-05,1,,,,,,0
1333,5011101056702,登記記録の閉鎖等,0,2022-01-25,2022-01-25,ＴＵＮＡ株式会社,,株式会社,東京都,新宿区,西新宿７丁目５番９号１６１７,,13,104,1600023,,,2022-01-25,登記官による閉鎖,,,2015-10-05,1,,,,,,0
1334,5011101059119,登記記録の閉鎖等,0,2022-01-25,2022-01-25,株式会社ＪＲＣ,,株式会社,東京都,新宿区,西新宿１丁目２６番２号,,13,104,1600023,,,2022-01-25,登記官による閉鎖,,,2015-10-05,1,,,,,,0
1335,5011101059449,登記記録の閉鎖等,0,2022-01-25,2022-01-25,株式会社ＦＪＫ,,株式会社,東京都,新宿区,西新宿７丁目１０－１７新宿ダイカンプラザシティＢ館７０４,,13,104,1600023,,,2022-01-25,登記官による閉鎖,,,2015-10-05,1,,,,,,0
1337,5011102008520,登記記録の閉鎖等,0,2022-01-25,2022-01-25,有限会社データ・テック・ジャパン,,有限会社,東京都,新宿区,西新宿７丁目１９番１８号,,13,104,1600023,,,2022-01-25,登記官による閉鎖,,,2015-10-05,1,,,,,,0
1345,5011301001326,登記記録の閉鎖等,0,2022-01-25,2022-01-25,株式会社小田國屋,,株式会社,東京都,杉並区,高円寺南２丁目１３番１号,,13,115,1660003,,,2022-01-25,登記官による閉鎖,,,2015-10-05,1,,,,,,0
1346,5011301001664,登記記録の閉鎖等,0,2022-01-25,2022-01-25,カネ浅建設株式会社,,株式会社,東京都,杉並区,阿佐谷南２丁目２０番１号,,13,115,1660004,,,2022-01-25,登記官による閉鎖,,,2015-10-05,1,,,,,,0
1347,5011301015482,登記記録の閉鎖等,0,2022-01-25,2022-01-25,株式会社リアム,,株式会社,東京都,杉並区,浜田山３丁目６番２２号,,13,115,1680065,,,2022-01-25,登記官による閉鎖,,,2015-10-05,1,,,,,,0
1349,5011303001547,登記記録の閉鎖等,0,2022-01-25,2022-01-25,合同会社ユーモ,,合同会社,東京都,杉並区,西荻北３丁目１番地８号,,13,115,1670042,,,2022-01-25,登記官による閉鎖,,,2015-10-05,1,,,,,,0
1357,5011801019116,登記記録の閉鎖等,0,2022-01-25,2022-01-21,三和商事株式会社,,株式会社,東京都,足立区,入谷３丁目１１番１６号,,13,121,1210836,,,2022-01-21,清算の結了等,,,2015-10-05,1,,,,,サンワショウジ,0
1362,5012802000782,登記記録の閉鎖等,0,2022-01-25,2022-01-21,有限会社ケーティエス,,有限会社,東京都,立川市,羽衣町１丁目２５番５号秋山マンション,,13,202,1900021,,,2022-01-21,清算の結了等,,,2015-10-05,1,,,,,ケーティエス,0
1365,5013301005901,登記記録の閉鎖等,0,2022-01-25,2022-01-18,株式会社洲和,,株式会社,東京都,豊島区,池袋１丁目１６番２２号グレース飯島３０２,,13,116,1700014,,,2022-01-18,清算の結了等,,,2015-10-05,1,,,,,,0
1368,5013301036855,登記記録の閉鎖等,0,2022-01-25,2022-01-12,株式会社リオ函館２４駐車場,,株式会社,東京都,千代田区,永田町２丁目１２番４号,,13,101,1000014,,,2022-01-12,清算の結了等,,,2015-10-05,1,,,,,リオハコダテニジュウヨンチュウシャジョウ,0
1415,5080001004145,登記記録の閉鎖等,0,2022-01-25,2022-01-19,株式会社ニッポンレンタカー東海,,株式会社,静岡県,静岡市駿河区,馬渕３丁目３番３号,,22,102,4228063,,,2022-01-19,合併による解散等,2180001026685,令和４年１月１日名古屋市中村区則武一丁目３３番４号ニッポンレンタカー東海株式会社（2180001026685）に合併し解散,2015-10-05,1,,,,,ニッポンレンタカートウカイ,0
1421,5100002022630,登記記録の閉鎖等,0,2022-01-25,2022-01-20,有限会社六助,,有限会社,長野県,松本市,大字岡田伊深６２９番地,,20,202,3900314,,,2022-01-20,清算の結了等,,,2015-10-05,1,,,,,ロクスケ,0
1440,5120101045258,登記記録の閉鎖等,0,2022-01-25,2022-01-20,株式会社ワイティエス,,株式会社,大阪府,泉佐野市,高松西１丁目２０１６番地の７,,27,213,5980016,,,2022-01-20,清算の結了等,,,2015-10-05,1,,,,,ワイティエス,0
1444,5120901024056,登記記録の閉鎖等,0,2022-01-25,2022-01-24,シガ産業株式会社,,株式会社,大阪府,豊中市,新千里西町１丁目１番１０－１９２５号,,27,203,5600083,,,2022-01-24,清算の結了等,,,2015-10-05,1,,,,,シガサンギョウ,0
1472,5180002057207,登記記録の閉鎖等,0,2022-01-25,2022-01-20,有限会社キャピタル,,有限会社,愛知県,名古屋市守山区,西川原町１３７番地,,23,113,4630089,,,2022-01-20,清算の結了等,,,2015-10-05,1,,,,,キャピタル,0
1478,5180302005880,登記記録の閉鎖等,0,2022-01-25,2022-01-20,有限会社ＴＦ工業,,有限会社,愛知県,岡崎市,上地６丁目３０番地１３,,23,202,4440823,,,2022-01-20,清算の結了等,,,2015-10-05,1,,,,,エフティーコウギョウ,0
1482,5200002017406,登記記録の閉鎖等,0,2022-01-25,2022-01-20,有限会社渡辺塗料可児店,,有限会社,岐阜県,可児市,土田４２６７番地の１６４,,21,214,5090206,,,2022-01-20,清算の結了等,,,2015-10-05,1,,,,,ワタナベトリョウカニテン,0
1489,5240001007899,登記記録の閉鎖等,0,2022-01-25,2022-01-24,ｉｔｅｍＢＯＸ株式会社,,株式会社,広島県,広島市中区,本通１番２０号,,34,101,7300035,,,2022-01-24,登記官による閉鎖,,,2015-10-05,1,,,,,,0
1490,5240001008807,登記記録の閉鎖等,0,2022-01-25,2022-01-24,株式会社東栄,,株式会社,広島県,広島市安佐北区,可部２丁目３９番１８号,,34,106,7310221,,,2022-01-24,登記官による閉鎖,,,2015-10-05,1,,,,,,0
1491,5240001018178,登記記録の閉鎖等,0,2022-01-25,2022-01-24,ＹＩＳグループ株式会社,,株式会社,広島県,広島市中区,江波東１丁目１番２４号－１Ｆ,,34,101,7300832,,,2022-01-24,登記官による閉鎖,,,2015-10-05,1,,,,,,0
1492,5240001019069,登記記録の閉鎖等,0,2022-01-25,2022-01-24,株式会社おそうじ工房,,株式会社,広島県,広島市佐伯区,千同１丁目１５番３１号,,34,108,7315141,,,2022-01-24,登記官による閉鎖,,,2015-10-05,1,,,,,,0
1493,5240001019309,登記記録の閉鎖等,0,2022-01-25,2022-01-24,株式会社ＡＩＭＵ,,株式会社,広島県,広島市西区,己斐中３丁目４８番４号,,34,104,7330813,,,2022-01-24,登記官による閉鎖,,,2015-10-05,1,,,,,,0
1498,5240001021941,登記記録の閉鎖等,0,2022-01-25,2022-01-24,株式会社オズコーポレーション,,株式会社,広島県,広島市中区,東白島町１６番９号,,34,101,7300004,,,2022-01-24,登記官による閉鎖,,,2015-10-05,1,,,,,,0
1499,5240001037698,登記記録の閉鎖等,0,2022-01-25,2022-01-24,八仁海運株式会社,,株式会社,広島県,福山市,大黒町１番７号,,34,207,7200053,,,2022-01-24,登記官による閉鎖,,,2015-10-05,1,,,,,,0
1500,5240002009647,登記記録の閉鎖等,0,2022-01-25,2022-01-24,有限会社タケ測量事務所,,有限会社,広島県,広島市安佐南区,八木町３２９番地,,34,105,7310101,,,2022-01-24,登記官による閉鎖,,,2015-10-05,1,,,,,,0
1501,5240002011173,登記記録の閉鎖等,0,2022-01-25,2022-01-24,有限会社トータルクリエイト,,有限会社,広島県,広島市中区,舟入南３丁目９番２７－３０３号,,34,101,7300847,,,2022-01-24,登記官による閉鎖,,,2015-10-05,1,,,,,,0
1502,5240002013351,登記記録の閉鎖等,0,2022-01-25,2022-01-24,有限会社ハシダ,,有限会社,広島県,広島市東区,曙２丁目２番６－３０７号,00000878,34,102,7320045,,,2022-01-24,登記官による閉鎖,,,2015-10-05,1,,,,,,0
1503,5240002025132,登記記録の閉鎖等,0,2022-01-25,2022-01-24,有限会社ベリーサ,,有限会社,広島県,広島市中区,舟入南３丁目９番１９号,,34,101,7300847,,,2022-01-24,登記官による閉鎖,,,2015-10-05,1,,,,,,0
1504,5240002027038,登記記録の閉鎖等,0,2022-01-25,2022-01-24,有限会社ＤＴＯサポート,,有限会社,広島県,広島市中区,住吉町３番４号,,34,101,7300813,,,2022-01-24,登記官による閉鎖,,,2015-10-05,1,,,,,,0
1505,5240002029232,登記記録の閉鎖等,0,2022-01-25,2022-01-24,有限会社土屋電工,,有限会社,広島県,東広島市,安芸津町風早１４８９番地の９,,34,212,7392403,,,2022-01-24,登記官による閉鎖,,,2015-10-05,1,,,,,,0
1507,5240002030652,登記記録の閉鎖等,0,2022-01-25,2022-01-24,有限会社竹間玉子園,,有限会社,広島県,三次市,三和町敷名１５０１番地１２,,34,209,7296702,,,2022-01-24,登記官による閉鎖,,,2015-10-05,1,,,,,,0
1508,5240002035081,登記記録の閉鎖等,0,2022-01-25,2022-01-24,有限会社いまもと,,有限会社,広島県,呉市,安浦町中央１丁目２番３号,,34,202,7372516,,,2022-01-24,登記官による閉鎖,,,2015-10-05,1,,,,,,0
1509,5240002040164,登記記録の閉鎖等,0,2022-01-25,2022-01-24,有限会社きく,,有限会社,広島県,福山市,水呑町２７０７番地の５,,34,207,7200832,,,2022-01-24,登記官による閉鎖,,,2015-10-05,1,,,,,,0
1510,5240002042929,登記記録の閉鎖等,0,2022-01-25,2022-01-24,有限会社ヘッドワークス,,有限会社,広島県,福山市,三吉町４丁目７番３１号,,34,207,7200031,,,2022-01-24,登記官による閉鎖,,,2015-10-05,1,,,,,,0
1511,5240002045072,登記記録の閉鎖等,0,2022-01-25,2022-01-24,ティー・ジェイ・エンタープライズ有限会社,,有限会社,広島県,福山市,神辺町大字新十九１番地４アルファステイツ神辺２０７,,34,207,7202108,,,2022-01-24,登記官による閉鎖,,,2015-10-05,1,,,,,,0
1512,5240002051748,登記記録の閉鎖等,0,2022-01-25,2022-01-24,有限会社与加呂,,有限会社,広島県,尾道市,向島町５５３４番地の６０,,34,205,7220073,,,2022-01-24,登記官による閉鎖,,,2015-10-05,1,,,,,,0
1513,5240005005131,登記記録の閉鎖等,0,2022-01-25,2022-01-24,協同組合甲奴専門店会,,その他の設立登記法人,広島県,三次市,甲奴町西野７４番地,,34,209,7294102,,,2022-01-24,登記官による閉鎖,,,2015-10-05,1,,,,,,0
1514,5240005009256,登記記録の閉鎖等,0,2022-01-25,2022-01-24,特定非営利活動法人子育て支援センター駅型保育園,,その他の設立登記法人,広島県,福山市,駅家町大字上山守４８８番地の５,,34,207,7201142,,,2022-01-24,登記官による閉鎖,,,2015-10-05,1,,,,,,0
1515,5240005010255,登記記録の閉鎖等,0,2022-01-25,2022-01-24,特定非営利活動法人福祉工房むぎ,,その他の設立登記法人,広島県,安芸郡府中町,浜田１丁目５番１号１０１,,34,302,7350013,,,2022-01-24,登記官による閉鎖,,,2015-10-05,1,,,,,,0
1516,5240005010643,登記記録の閉鎖等,0,2022-01-25,2022-01-24,財団法人尾道交通安全協会,,その他の設立登記法人,広島県,尾道市,新浜１丁目７番３４号,,34,205,7220014,,,2022-01-24,登記官による閉鎖,,,2015-10-05,1,,,,,,0
1535,5290801021954,登記記録の閉鎖等,0,2022-01-25,2022-01-20,株式会社ティエラス,,株式会社,福岡県,田川郡福智町,伊方２４５９番地２９,,40,610,8221211,,,2022-01-20,合併による解散等,3011601022305,令和３年１２月１日東京都目黒区中根一丁目２４番３号株式会社東京不動産開発（3011601022305）に合併し解散,2015-10-16,1,,,,,ティエラス,0
1545,5350002013175,登記記録の閉鎖等,0,2022-01-25,2022-01-21,有限会社延岡エンタープライズ二十一,,有限会社,宮崎県,延岡市,大貫町１丁目３０１５番地１,,45,203,8820803,,,2022-01-21,清算の結了等,,,2015-10-05,1,,,,,ノベオカエンタープライズニジュウイチ,0
1554,5390002000814,登記記録の閉鎖等,0,2022-01-25,2022-01-20,有限会社北日本ラポール,,有限会社,山形県,山形市,香澄町３丁目８番３８号ターミナルプラザ６１１号,,06,201,9900039,,,2022-01-20,清算の結了等,,,2015-10-05,1,,,,,キタニホンラポール,0
1558,5430002048097,登記記録の閉鎖等,0,2022-01-25,2022-01-21,有限会社盤野自工,,有限会社,北海道,恵庭市,戸磯６０３番地１５,,01,231,0611405,,,2022-01-21,清算の結了等,,,2015-10-05,1,,,,,,0
1562,5440005002199,登記記録の閉鎖等,0,2022-01-25,2022-01-21,島牧村農業協同組合,,その他の設立登記法人,北海道,島牧郡島牧村,字泊８３番地の４８,,01,391,0480621,,,2022-01-21,清算の結了等,,,2015-10-05,1,,,,,シママキムラ,0
1597,6010803002806,登記記録の閉鎖等,0,2022-01-25,2022-01-18,合同会社ＤＯＤ,,合同会社,東京都,大田区,大森北５丁目１５番２号,,13,111,1430016,,,2022-01-18,清算の結了等,,,2018-09-28,1,,,,,ドッド,0
1610,6011101004057,登記記録の閉鎖等,0,2022-01-25,2022-01-25,株式会社オンキョウパブリッシュ,,株式会社,東京都,新宿区,矢来町５０番地,,13,104,1620805,,,2022-01-25,登記官による閉鎖,,,2015-10-05,1,,,,,,0
1611,6011101004899,登記記録の閉鎖等,0,2022-01-25,2022-01-25,川浪施設工業株式会社,,株式会社,東京都,新宿区,百人町２丁目１６番１３号,,13,104,1690073,,,2022-01-25,登記官による閉鎖,,,2015-10-05,1,,,,,,0
1612,6011101012209,登記記録の閉鎖等,0,2022-01-25,2022-01-25,ダイヤモンドゴルフサービス株式会社,,株式会社,東京都,新宿区,新宿３丁目１番１２号,,13,104,1600022,,,2022-01-25,登記官による閉鎖,,,2017-01-31,1,,,,,,0
1613,6011101021523,登記記録の閉鎖等,0,2022-01-25,2022-01-25,株式会社山菱産業,00053768,株式会社,東京都,新宿区,西新宿１丁目１９番４号,,13,104,1600023,,,2022-01-25,登記官による閉鎖,,,2015-10-05,1,,,,,,0
1614,6011101030755,登記記録の閉鎖等,0,2022-01-25,2022-01-25,三原商事株式会社,,株式会社,東京都,新宿区,百人町３丁目２７４番地,,13,104,1690073,,,2022-01-25,登記官による閉鎖,,,2016-07-26,1,,,,,,0
1615,6011101040531,登記記録の閉鎖等,0,2022-01-25,2022-01-25,株式会社アールプラス,,株式会社,東京都,新宿区,西新宿６丁目１６番１３号,,13,104,1600023,,,2022-01-25,登記官による閉鎖,,,2015-10-05,1,,,,,,0
1616,6011101041926,登記記録の閉鎖等,0,2022-01-25,2022-01-25,トーヨーｅサポート株式会社,,株式会社,東京都,新宿区,住吉町１番１５号,,13,104,1620065,,,2022-01-25,登記官による閉鎖,,,2015-10-05,1,,,,,,0
1617,6011101043501,登記記録の閉鎖等,0,2022-01-25,2022-01-25,アストロジャパン株式会社,,株式会社,東京都,新宿区,神楽坂４丁目８番,,13,104,1620825,,,2022-01-25,登記官による閉鎖,,,2015-10-05,1,,,,,,0
1618,6011101044490,登記記録の閉鎖等,0,2022-01-25,2022-01-25,株式会社ガムシャラ,,株式会社,東京都,新宿区,北新宿１丁目８番１０号司法書士会館,,13,104,1690074,,,2022-01-25,登記官による閉鎖,,,2015-10-05,1,,,,,,0
1619,6011101051982,登記記録の閉鎖等,0,2022-01-25,2022-01-25,株式会社グラソフト,,株式会社,東京都,新宿区,西新宿７丁目５番８号,,13,104,1600023,,,2022-01-25,登記官による閉鎖,,,2015-10-05,1,,,,,,0
1620,6011101052080,登記記録の閉鎖等,0,2022-01-25,2022-01-25,株式会社ユニバーサルライン,,株式会社,東京都,新宿区,新宿５丁目１７番１１号,,13,104,1600022,,,2022-01-25,登記官による閉鎖,,,2015-10-05,1,,,,,,0
1622,6011101053137,登記記録の閉鎖等,0,2022-01-25,2022-01-25,株式会社キングダム,,株式会社,東京都,新宿区,歌舞伎町１丁目１４番６号,,13,104,1600021,,,2022-01-25,登記官による閉鎖,,,2015-10-05,1,,,,,,0
1623,6011101053277,登記記録の閉鎖等,0,2022-01-25,2022-01-25,株式会社Ｖ－ＴＥＣ,,株式会社,東京都,新宿区,大久保１丁目１２番４号,,13,104,1690072,,,2022-01-25,登記官による閉鎖,,,2015-10-05,1,,,,,,0
1624,6011101054077,登記記録の閉鎖等,0,2022-01-25,2022-01-25,株式会社ＥＸＹ,,株式会社,東京都,新宿区,西新宿７丁目２１番９号,,13,104,1600023,,,2022-01-25,登記官による閉鎖,,,2015-10-05,1,,,,,,0
1625,6011101054837,登記記録の閉鎖等,0,2022-01-25,2022-01-25,株式会社ジェイ・ビルド,,株式会社,東京都,新宿区,大久保１丁目１番９号,,13,104,1690072,,,2022-01-25,登記官による閉鎖,,,2015-10-05,1,,,,,,0
1626,6011101055001,登記記録の閉鎖等,0,2022-01-25,2022-01-25,株式会社クリーン,,株式会社,東京都,新宿区,南元町４番地１７信濃町ハイム４２０号,,13,104,1600012,,,2022-01-25,登記官による閉鎖,,,2015-10-05,1,,,,,,0
1627,6011101055216,登記記録の閉鎖等,0,2022-01-25,2022-01-25,株式会社グローバル・インベストメント・ジャパン,,株式会社,東京都,新宿区,新宿５丁目９番２３号,,13,104,1600022,,,2022-01-25,登記官による閉鎖,,,2015-10-05,1,,,,,,0
1628,6011101056949,登記記録の閉鎖等,0,2022-01-25,2022-01-25,株式会社テトラ,,株式会社,東京都,新宿区,新宿５丁目１１番１３号富士新宿ビル４階,,13,104,1600022,,,2022-01-25,登記官による閉鎖,,,2015-10-05,1,,,,,,0
1629,6011101057154,登記記録の閉鎖等,0,2022-01-25,2022-01-25,株式会社メシア,,株式会社,東京都,新宿区,西新宿３丁目７番２６－３０６号,,13,104,1600023,,,2022-01-25,登記官による閉鎖,,,2015-10-05,1,,,,,,0
1630,6011101057195,登記記録の閉鎖等,0,2022-01-25,2022-01-25,株式会社スコープ,,株式会社,東京都,新宿区,新宿５丁目１２番５号,,13,104,1600022,,,2022-01-25,登記官による閉鎖,,,2015-10-05,1,,,,,,0
1631,6011101058326,登記記録の閉鎖等,0,2022-01-25,2022-01-25,ヴィーナス・ファクトリ株式会社,,株式会社,東京都,新宿区,西新宿７丁目１９番５号,,13,104,1600023,,,2022-01-25,登記官による閉鎖,,,2015-10-05,1,,,,,,0
1632,6011101060769,登記記録の閉鎖等,0,2022-01-25,2022-01-25,株式会社大商ハウス,,株式会社,東京都,新宿区,新宿２丁目６番３号,,13,104,1600022,,,2022-01-25,登記官による閉鎖,,,2015-10-05,1,,,,,,0
1633,6011101079198,登記記録の閉鎖等,0,2022-01-25,2022-01-25,株式会社第一商産,,株式会社,東京都,新宿区,西早稲田３丁目１２番４－４０１号,,13,104,1690051,,,2022-01-25,登記官による閉鎖,,,2017-01-11,1,,,,,,0
1635,6011102019772,登記記録の閉鎖等,0,2022-01-25,2022-01-25,有限会社幸銀,,有限会社,東京都,新宿区,大京町１３番地６,,13,104,1600015,,,2022-01-25,登記官による閉鎖,,,2015-10-05,1,,,,,,0
1636,6011102027288,登記記録の閉鎖等,0,2022-01-25,2022-01-25,有限会社貴楽,,有限会社,東京都,新宿区,歌舞伎町２丁目２２番８号第８金嶋ビル地下１階,,13,104,1600021,,,2022-01-25,登記官による閉鎖,,,2015-10-05,1,,,,,,0
1637,6011102028856,登記記録の閉鎖等,0,2022-01-25,2022-01-25,有限会社サニーハウス,,有限会社,東京都,新宿区,四谷４丁目２５番地１－４０２号,,13,104,1600004,,,2022-01-25,登記官による閉鎖,,,2015-10-05,1,,,,,,0
1638,6011102029251,登記記録の閉鎖等,0,2022-01-25,2022-01-25,有限会社ディアライト,,有限会社,東京都,新宿区,高田馬場３丁目２４番１号,,13,104,1690075,,,2022-01-25,登記官による閉鎖,,,2015-10-05,1,,,,,,0
1640,6011105002866,登記記録の閉鎖等,0,2022-01-25,2022-01-25,特定非営利活動法人リサイクル・ネットワーク,,その他の設立登記法人,東京都,新宿区,西新宿３丁目１７番７号西新宿ＴＯＫビル１階,,13,104,1600023,,,2022-01-25,登記官による閉鎖,,,2015-10-05,1,,,,,,0
1642,6011301006118,登記記録の閉鎖等,0,2022-01-25,2022-01-25,株式会社フコクシンパン,,株式会社,東京都,杉並区,高円寺南４丁目７番２号,,13,115,1660003,,,2022-01-25,登記官による閉鎖,,,2015-10-05,1,,,,,,0
1643,6011302003064,登記記録の閉鎖等,0,2022-01-25,2022-01-25,有限会社クリーンショップそのだ,,有限会社,東京都,杉並区,浜田山３丁目２８番９号,,13,115,1680065,,,2022-01-25,登記官による閉鎖,,,2015-10-05,1,,,,,,0
1649,6011602023150,登記記録の閉鎖等,0,2022-01-25,2022-01-13,有限会社白石事務所,,有限会社,埼玉県,入間市,久保稲荷１丁目１７番地７,,11,225,3580024,,,2022-01-13,清算の結了等,,,2015-10-05,1,,,,,シライシジムショ,0
1653,6012402007772,登記記録の閉鎖等,0,2022-01-25,2022-01-20,有限会社アールビー,,有限会社,東京都,小金井市,中町１丁目１０番１８号,,13,210,1840012,,,2022-01-20,清算の結了等,,,2015-10-05,1,,,,,,0
1657,6013301038470,登記記録の閉鎖等,0,2022-01-25,2022-01-18,株式会社ファンワイズ,,株式会社,東京都,豊島区,池袋２丁目５５－１２セピア池袋２－７０１号,,13,116,1710014,,,2022-01-18,清算の結了等,,,2016-03-09,1,,,,,ファンワイズ,0
1702,6040001084966,登記記録の閉鎖等,0,2022-01-25,2022-01-21,株式会社ＩＲＥＡＦ,,株式会社,千葉県,船橋市,前原西１丁目２３番５号リニエージ泰和５０１号,,12,204,2740825,,,2022-01-21,清算の結了等,,,2015-10-05,1,,,,,,0
1705,6040001112990,登記記録の閉鎖等,0,2022-01-25,2022-01-13,元伝媒株式会社,,株式会社,千葉県,船橋市,湊町２丁目１番１８号,,12,204,2730011,,,2022-01-13,清算の結了等,,,2020-03-27,1,,,,,ガンデンバイ,0
1708,6040002009237,登記記録の閉鎖等,0,2022-01-25,2022-01-14,有限会社長谷川水産,,有限会社,千葉県,千葉市花見川区,さつきが丘２丁目１０番５棟３０５号,,12,102,2620014,,,2022-01-14,清算の結了等,,,2015-10-05,1,,,,,ハセガワスイサン,0
1725,6100003005740,登記記録の閉鎖等,0,2022-01-25,2022-01-21,トモコス合同会社,,合同会社,長野県,北佐久郡軽井沢町,大字軽井沢１０６２番地９デュピア軽井沢１０６,,20,321,3890102,,,2022-01-21,清算の結了等,,,2020-07-13,1,,,,,トモコス,0
1728,6120001169263,登記記録の閉鎖等,0,2022-01-25,2022-01-20,株式会社アディション,,株式会社,大阪府,大阪市中央区,瓦町４丁目４番７号,,27,128,5410048,,,2022-01-20,清算の結了等,,,2015-10-05,1,,,,,アディション,0
1730,6120001223887,登記記録の閉鎖等,0,2022-01-25,2022-01-20,株式会社チャーミングケアモール,,株式会社,大阪府,大阪市北区,梅田１丁目１１番４号,,27,127,5300001,,,2022-01-20,清算の結了等,,,2019-09-25,1,,,,,チャーミングケアモール,0
1747,6120902008817,登記記録の閉鎖等,0,2022-01-25,2022-01-21,有限会社タニテック,,有限会社,大阪府,摂津市,鳥飼本町５丁目１１番８号,,27,224,5660052,,,2022-01-21,清算の結了等,,,2015-10-05,1,,,,,タニテック,0
1760,6160002012534,登記記録の閉鎖等,0,2022-01-25,2022-01-21,有限会社脇坂製作所,,有限会社,滋賀県,草津市,青地町２３６番地１４,,25,206,5250041,,,2022-01-21,清算の結了等,,,2015-10-05,1,,,,,ワキサカセイサクショ,0
1777,6190002007201,登記記録の閉鎖等,0,2022-01-25,2022-01-21,有限会社ムコウ,,有限会社,三重県,鈴鹿市,弓削１丁目８番３５号,,24,207,5130842,,,2022-01-21,清算の結了等,,,2015-10-05,1,,,,,ムコウ,0
1778,6200001010146,登記記録の閉鎖等,0,2022-01-25,2022-01-20,株式会社松野企画,,株式会社,岐阜県,瑞穂市,別府６１７番地の１,,21,216,5010222,,,2022-01-20,清算の結了等,,,2015-10-05,1,,,,,マツノキカク,0
1783,6220002013195,登記記録の閉鎖等,0,2022-01-25,2022-01-20,有限会社山際観光堂,,有限会社,石川県,加賀市,山中温泉本町２丁目ソの２０番地,,17,206,9220115,,,2022-01-20,清算の結了等,,,2015-10-05,1,,,,,ヤマギワカンコウドウ,0
1785,6240001000861,登記記録の閉鎖等,0,2022-01-25,2022-01-24,インテックヒロデン株式会社,,株式会社,広島県,広島市中区,吉島新町１丁目１８番５号,,34,101,7300824,,,2022-01-24,登記官による閉鎖,,,2015-10-05,1,,,,,,0
1786,6240001001050,登記記録の閉鎖等,0,2022-01-25,2022-01-24,株式会社ウエダ,,株式会社,広島県,広島市安芸区,上瀬野町６４３番地の１,,34,107,7390302,,,2022-01-24,登記官による閉鎖,,,2015-10-05,1,,,,,,0
1787,6240001017641,登記記録の閉鎖等,0,2022-01-25,2022-01-24,株式会社オフィスデイライト,,株式会社,広島県,広島市西区,高須４丁目１８番１６－８－３０６号,,34,104,7330871,,,2022-01-24,登記官による閉鎖,,,2015-10-05,1,,,,,,0
1788,6240001019324,登記記録の閉鎖等,0,2022-01-25,2022-01-24,株式会社久保海運,,株式会社,広島県,広島市南区,似島町字家下５３番地１,,34,103,7340017,,,2022-01-24,登記官による閉鎖,,,2015-10-05,1,,,,,,0
1789,6240001019844,登記記録の閉鎖等,0,2022-01-25,2022-01-24,栄進保険サービス株式会社,,株式会社,広島県,広島市南区,仁保新町２丁目９－１９,,34,103,7340024,,,2022-01-24,登記官による閉鎖,,,2015-10-05,1,,,,,,0
1790,6240001019943,登記記録の閉鎖等,0,2022-01-25,2022-01-24,株式会社マツシマＳＣ,,株式会社,広島県,広島市南区,丹那町１６番２１号,,34,103,7340034,,,2022-01-24,登記官による閉鎖,,,2015-10-05,1,,,,,,0
1791,6240001024349,登記記録の閉鎖等,0,2022-01-25,2022-01-24,株式会社岡田庭園,,株式会社,広島県,広島市安佐北区,口田南８丁目１１番１２号,,34,106,7391733,,,2022-01-24,登記官による閉鎖,,,2015-10-05,1,,,,,,0
1792,6240001024893,登記記録の閉鎖等,0,2022-01-25,2022-01-24,株式会社コウダ,,株式会社,広島県,安芸高田市,甲田町高田原１３７０番地１,,34,214,7391101,,,2022-01-24,登記官による閉鎖,,,2015-10-05,1,,,,,,0
1793,6240001036708,登記記録の閉鎖等,0,2022-01-25,2022-01-24,呉土地開発株式会社,,株式会社,広島県,安芸郡府中町,鹿籠１丁目８番３号,,34,302,7350025,,,2022-01-24,登記官による閉鎖,,,2015-10-05,1,,,,,,0
1794,6240001037268,登記記録の閉鎖等,0,2022-01-25,2022-01-24,竹原食品株式会社,,株式会社,広島県,竹原市,田ノ浦１丁目１番３号,,34,203,7250023,,,2022-01-24,登記官による閉鎖,,,2015-10-05,1,,,,,,0
1795,6240001049024,登記記録の閉鎖等,0,2022-01-25,2022-01-24,合同土地住宅株式会社,,株式会社,広島県,広島市中区,（広島市塩屋町１２番地）,,34,101,7300000,,,2022-01-24,登記官による閉鎖,,,2016-03-18,1,,,,,,1
1796,6240002001090,登記記録の閉鎖等,0,2022-01-25,2022-01-24,有限会社池之測量,,有限会社,広島県,広島市安佐北区,あさひが丘３丁目２９番２５号,,34,106,7313361,,,2022-01-24,登記官による閉鎖,,,2015-10-05,1,,,,,,0
1797,6240002003021,登記記録の閉鎖等,0,2022-01-25,2022-01-24,有限会社おおはら,,有限会社,広島県,広島市東区,矢賀新町１丁目１番２５号,,34,102,7320044,,,2022-01-24,登記官による閉鎖,,,2015-10-05,1,,,,,,0
1798,6240002009596,登記記録の閉鎖等,0,2022-01-25,2022-01-24,高雄不動産有限会社,,有限会社,広島県,広島市東区,牛田本町３丁目２番２０号,,34,102,7320066,,,2022-01-24,登記官による閉鎖,,,2015-10-05,1,,,,,,0
1799,6240002009712,登記記録の閉鎖等,0,2022-01-25,2022-01-24,有限会社高橋建設,,有限会社,広島県,広島市安芸区,中野４丁目１０番３４号,,34,107,7390321,,,2022-01-24,登記官による閉鎖,,,2015-10-05,1,,,,,,0
1800,6240002010752,登記記録の閉鎖等,0,2022-01-25,2022-01-24,有限会社テイー・ワイ企画,,有限会社,広島県,広島市安芸区,船越５丁目１３番９号,,34,107,7360081,,,2022-01-24,登記官による閉鎖,,,2015-10-05,1,,,,,,0
1801,6240002016031,登記記録の閉鎖等,0,2022-01-25,2022-01-24,有限会社三喜屋,,有限会社,広島県,広島市安佐北区,口田３丁目１５番１３号,,34,106,7391734,,,2022-01-24,登記官による閉鎖,,,2015-10-05,1,,,,,,0
1802,6240002025981,登記記録の閉鎖等,0,2022-01-25,2022-01-24,有限会社ひちょうざん,,有限会社,広島県,広島市安佐南区,上安２丁目１３番５号,,34,105,7310154,,,2022-01-24,登記官による閉鎖,,,2015-10-05,1,,,,,,0
1803,6240002027169,登記記録の閉鎖等,0,2022-01-25,2022-01-24,有限会社新太電設,,有限会社,広島県,東広島市,西条町寺家４２３７番地の５,,34,212,7390041,,,2022-01-24,登記官による閉鎖,,,2015-10-05,1,,,,,,0
1804,6240002030296,登記記録の閉鎖等,0,2022-01-25,2022-01-24,備北燃料有限会社,,有限会社,広島県,三次市,和知町３３５番地の４,,34,209,7296201,,,2022-01-24,登記官による閉鎖,,,2015-10-05,1,,,,,,0
1805,6240002031245,登記記録の閉鎖等,0,2022-01-25,2022-01-24,やちよ観光有限会社,,有限会社,広島県,安芸高田市,八千代町上根１０４９番地の１,,34,214,7310305,,,2022-01-24,登記官による閉鎖,,,2015-10-05,1,,,,,,0
1806,6240002034289,登記記録の閉鎖等,0,2022-01-25,2022-01-24,有限会社村上興業,,有限会社,広島県,呉市,焼山南２丁目５番８号,,34,202,7370924,,,2022-01-24,登記官による閉鎖,,,2015-10-05,1,,,,,,0
1807,6240002037820,登記記録の閉鎖等,0,2022-01-25,2022-01-24,アガタ薬品工業有限会社,,有限会社,広島県,廿日市市,沖塩屋４丁目４番５１号,,34,213,7390443,,,2022-01-24,登記官による閉鎖,,,2015-10-05,1,,,,,,0
1808,6240002040147,登記記録の閉鎖等,0,2022-01-25,2022-01-24,有限会社神原工業所,,有限会社,広島県,福山市,藤江町９２３番地,,34,207,7200543,,,2022-01-24,登記官による閉鎖,,,2015-10-05,1,,,,,,0
1809,6240002045856,登記記録の閉鎖等,0,2022-01-25,2022-01-24,有限会社ＯＣＣ,,有限会社,広島県,福山市,柳津町１２５４番地,,34,207,7290114,,,2022-01-24,登記官による閉鎖,,,2015-10-05,1,,,,,,0
1810,6240002047547,登記記録の閉鎖等,0,2022-01-25,2022-01-24,有限会社Ｈ．Ｉブレス,,有限会社,広島県,福山市,駅家町大字近田１９２番地の１,,34,207,7201133,,,2022-01-24,登記官による閉鎖,,,2015-10-05,1,,,,,,0
1811,6240002051499,登記記録の閉鎖等,0,2022-01-25,2022-01-24,有限会社マツ建工,,有限会社,広島県,尾道市,因島重井町９９２番地の１,,34,205,7222102,,,2022-01-24,登記官による閉鎖,,,2015-10-05,1,,,,,,0
1812,6240005002441,登記記録の閉鎖等,0,2022-01-25,2022-01-24,広島県利器工匠具商工協同組合,,その他の設立登記法人,広島県,広島市中区,西平塚町６番１５号,,34,101,7300024,,,2022-01-24,登記官による閉鎖,,,2015-10-05,1,,,,,,0
1813,6240005004173,登記記録の閉鎖等,0,2022-01-25,2022-01-24,ＪＳ協同組合,,その他の設立登記法人,広島県,東広島市,黒瀬町乃美尾４７０７番地の４,,34,212,7392622,,,2022-01-24,登記官による閉鎖,,,2015-10-05,1,,,,,,0
1814,6240005006269,登記記録の閉鎖等,0,2022-01-25,2022-01-24,協同組合呉食肉卸加工センター,,その他の設立登記法人,広島県,呉市,山手２丁目１３番５号,,34,202,7370814,,,2022-01-24,登記官による閉鎖,,,2015-10-05,1,,,,,,0
1815,6240005006302,登記記録の閉鎖等,0,2022-01-25,2022-01-24,広島サンド・リサイクル事業協同組合,,その他の設立登記法人,広島県,呉市,広町田２丁目２番１９号,,34,202,7370104,,,2022-01-24,登記官による閉鎖,,,2015-10-05,1,,,,,,0
1816,6260001010289,登記記録の閉鎖等,0,2022-01-25,2022-01-21,株式会社ジャパンサクスィードワン,,株式会社,岡山県,岡山市南区,妹尾２３４６番地１,,33,104,7010205,,,2022-01-21,合併による解散等,5260001028968,令和４年１月１日岡山市南区妹尾２３４６番地フォーシー株式会社（5260001028968）に合併し解散,2015-10-05,1,,,,,ジャパンサクスィードワン,0
1829,6290003010334,登記記録の閉鎖等,0,2022-01-25,2022-01-20,合同会社羽山商事,,合同会社,福岡県,福岡市早良区,原６丁目７番１８号中尾ビル３０１号,,40,137,8140022,,,2022-01-20,清算の結了等,,,2020-08-28,1,,,,,ハヤマショウジ,0
1831,6300001010722,登記記録の閉鎖等,0,2022-01-25,2022-01-21,株式会社日の丸ホールディングス,,株式会社,佐賀県,神埼市,神埼町田道ヶ里１３５３番地３,,41,210,8420002,,,2022-01-21,清算の結了等,,,2017-03-16,1,,,,,ヒノマルホールディングス,0
1834,6320001015249,登記記録の閉鎖等,0,2022-01-25,2022-01-21,株式会社Ｒｉｓｉｎｇ　Ｓｕｎ　Ｆｏｏｄ　Ｓｙｓｔｅｍ,,株式会社,大分県,大分市,三川新町１丁目１番４５号,,44,201,8700141,,,2022-01-21,合併による解散等,3320001001417,令和４年１月１日大分市三川新町一丁目１番４５号株式会社ジョイフル（3320001001417）に合併し解散,2016-10-28,1,,,,,ライジングサンフードシステム,0
1837,6330001004498,登記記録の閉鎖等,0,2022-01-25,2022-01-21,株式会社瑞穂鑑定センター,,株式会社,熊本県,熊本市中央区,水前寺３丁目５番２０－１０４号,,43,101,8620950,,,2022-01-21,清算の結了等,,,2015-10-05,1,,,,,ミズホカンテイセンター,0
1849,6400001001496,登記記録の閉鎖等,0,2022-01-25,2022-01-24,三浦工業株式会社,,株式会社,岩手県,盛岡市,上厨川字野子１１７番地３,,03,201,0200143,,,2022-01-24,清算の結了等,,,2015-10-05,1,,,,,ミウラコウギョウ,0
1881,7010001143352,登記記録の閉鎖等,0,2022-01-25,2022-01-20,バイオネスジャパン株式会社,,株式会社,東京都,中央区,日本橋兜町五丁目１番ＭＥＴＬＩＦＥ兜町ビル３階,,13,102,1030026,,,2022-01-20,清算の結了等,,,2015-10-05,1,,,,,バイオネスジャパン,0
1892,7010401068133,登記記録の閉鎖等,0,2022-01-25,2022-01-14,Ｃａｐｉｔａｌ　Ｂｌｏｗ株式会社,,株式会社,東京都,港区,虎ノ門２丁目１０番４号,,13,103,1050001,,,2022-01-14,清算の結了等,,,2015-10-05,1,,,,,キャピタルブロー,0
1913,7010603006089,登記記録の閉鎖等,0,2022-01-25,2022-01-18,ニューワールド合同会社,,合同会社,東京都,江東区,南砂７丁目２番６－２０８号,,13,108,1360076,,,2022-01-18,清算の結了等,,,2015-10-22,1,,,,,ニューワールド,0
1934,7011003012363,登記記録の閉鎖等,0,2022-01-25,2021-12-27,合同会社懸樋工務店,,合同会社,東京都,渋谷区,円山町５番５号Ｎａｖｉ渋谷Ｖ３階,,13,113,1500044,,,2021-12-27,清算の結了等,,,2021-03-03,1,,,,,カケヒコウムテン,0
1936,7011101001169,登記記録の閉鎖等,0,2022-01-25,2022-01-25,株式会社アプレイズ,,株式会社,東京都,新宿区,百人町１丁目２０番３号,,13,104,1690073,,,2022-01-25,登記官による閉鎖,,,2015-10-05,1,,,,,,0
1937,7011101009410,登記記録の閉鎖等,0,2022-01-25,2022-01-25,住宅管理サービス株式会社,,株式会社,東京都,新宿区,新宿３丁目２４番１号三井住友銀行新宿ビル６階,,13,104,1600022,,,2022-01-25,登記官による閉鎖,,,2015-10-05,1,,,,,,0
1938,7011101021910,登記記録の閉鎖等,0,2022-01-25,2022-01-25,株式会社横山商店,,株式会社,東京都,新宿区,歌舞伎町１丁目１９番５号,,13,104,1600021,,,2022-01-25,登記官による閉鎖,,,2016-02-25,1,,,,,,0
1941,7011101039234,登記記録の閉鎖等,0,2022-01-25,2022-01-25,株式会社ＹｅＬＬＯＷ,,株式会社,東京都,新宿区,住吉町２番１０号,,13,104,1620065,,,2022-01-25,登記官による閉鎖,,,2015-10-05,1,,,,,,0
1942,7011101049720,登記記録の閉鎖等,0,2022-01-25,2022-01-25,株式会社天行健,,株式会社,東京都,新宿区,富久町３番６号,,13,104,1620067,,,2022-01-25,登記官による閉鎖,,,2015-10-05,1,,,,,,0
1943,7011101051890,登記記録の閉鎖等,0,2022-01-25,2022-01-25,株式会社全商,,株式会社,東京都,新宿区,西新宿７丁目２２番３８号興亜ビル２Ｆ－Ａ号,,13,104,1600023,,,2022-01-25,登記官による閉鎖,,,2015-10-05,1,,,,,,0
1944,7011101052402,登記記録の閉鎖等,0,2022-01-25,2022-01-25,株式会社ＮＡＴＵＲＡＬ　ＣＯＭＰＡＮＹ,,株式会社,東京都,新宿区,歌舞伎町２丁目１１番４号,,13,104,1600021,,,2022-01-25,登記官による閉鎖,,,2015-10-05,1,,,,,,0
1946,7011101055413,登記記録の閉鎖等,0,2022-01-25,2022-01-25,株式会社ワンダー,,株式会社,東京都,新宿区,西新宿５丁目２４番１６号,,13,104,1600023,,,2022-01-25,登記官による閉鎖,,,2015-10-05,1,,,,,,0
1947,7011101057392,登記記録の閉鎖等,0,2022-01-25,2022-01-25,株式会社クラブインプレスト,,株式会社,東京都,新宿区,西新宿６丁目１０番１号日土地西新宿ビル８階,,13,104,1600023,,,2022-01-25,登記官による閉鎖,,,2015-10-05,1,,,,,,0
1948,7011101091004,登記記録の閉鎖等,0,2022-01-25,2022-01-07,株式会社ＢＭ学園,,株式会社,東京都,新宿区,西新宿６丁目１０番１号日土地西新宿ビル８階,,13,104,1600023,,,2022-01-07,清算の結了等,,,2020-04-07,1,,,,,ビーエムガクエン,0
1950,7011102008114,登記記録の閉鎖等,0,2022-01-25,2022-01-25,有限会社種安商店,,有限会社,東京都,新宿区,舟町１５番地,,13,104,1600006,,,2022-01-25,登記官による閉鎖,,,2015-10-05,1,,,,,,0
1953,7011102028566,登記記録の閉鎖等,0,2022-01-25,2022-01-25,有限会社エーアンドエフ,,有限会社,東京都,新宿区,高田馬場１丁目２９番７号,,13,104,1690075,,,2022-01-25,登記官による閉鎖,,,2015-10-05,1,,,,,,0
1954,7011102029498,登記記録の閉鎖等,0,2022-01-25,2022-01-25,有限会社ＳＷＡＴ－Ｔ,,有限会社,東京都,新宿区,北新宿１丁目８番２０号ＫＯＫＯＲＯ８０２号室,,13,104,1690074,,,2022-01-25,登記官による閉鎖,,,2015-10-05,1,,,,,,0
1955,7011103003907,登記記録の閉鎖等,0,2022-01-25,2022-01-25,合同会社Ｓ－ＰＬＡＮ,,合同会社,東京都,新宿区,西新宿７丁目１０番１７－４０７号,,13,104,1600023,,,2022-01-25,登記官による閉鎖,,,2015-10-05,1,,,,,,0
1956,7011105003599,登記記録の閉鎖等,0,2022-01-25,2022-01-25,城南法人協同組合,,その他の設立登記法人,東京都,新宿区,上落合２丁目１９番２号,,13,104,1610034,,,2022-01-25,登記官による閉鎖,,,2015-10-05,1,,,,,,0
1960,7011301002628,登記記録の閉鎖等,0,2022-01-25,2022-01-25,株式会社サイビッグ・フーズ,,株式会社,東京都,杉並区,宮前２丁目２２番１２号,,13,115,1680081,,,2022-01-25,登記官による閉鎖,,,2015-10-05,1,,,,,,0
1961,7011301016990,登記記録の閉鎖等,0,2022-01-25,2022-01-25,株式会社スカイネット,,株式会社,東京都,杉並区,久我山５丁目３３番３２号,,13,115,1680082,,,2022-01-25,登記官による閉鎖,,,2015-10-05,1,,,,,,0
1962,7011301021058,登記記録の閉鎖等,0,2022-01-25,2022-01-25,丸紅不動産株式会社,,株式会社,東京都,杉並区,高井戸東３丁目２８番６号,,13,115,1680072,,,2022-01-25,登記官による閉鎖,,,2015-10-05,1,,,,,,0
1963,7011302000556,登記記録の閉鎖等,0,2022-01-25,2022-01-25,有限会社アトリエ同人,,有限会社,東京都,杉並区,阿佐谷北２丁目２６番１３号,,13,115,1660001,,,2022-01-25,登記官による閉鎖,,,2015-10-05,1,,,,,,0
1964,7011302006108,登記記録の閉鎖等,0,2022-01-25,2022-01-25,有限会社ディーシーエス山田,,有限会社,東京都,杉並区,阿佐谷北６丁目５番１８号,,13,115,1660001,,,2022-01-25,登記官による閉鎖,,,2015-10-05,1,,,,,,0
1965,7011302008665,登記記録の閉鎖等,0,2022-01-25,2022-01-25,有限会社マツダ・ホンヤク,,有限会社,東京都,杉並区,本天沼３丁目１２番１９号,,13,115,1670031,,,2022-01-25,登記官による閉鎖,,,2015-10-05,1,,,,,,0
1966,7011302016503,登記記録の閉鎖等,0,2022-01-25,2022-01-25,有限会社ピア,,有限会社,東京都,杉並区,荻窪３丁目１３番１５－４１２号,,13,115,1670051,,,2022-01-25,登記官による閉鎖,,,2015-10-05,1,,,,,,0
1968,7011305000207,登記記録の閉鎖等,0,2022-01-25,2022-01-25,協同組合エフ・エム,,その他の設立登記法人,東京都,杉並区,和泉３丁目１２番９号,,13,115,1680063,,,2022-01-25,登記官による閉鎖,,,2015-10-05,1,,,,,,0
1971,7011402002345,登記記録の閉鎖等,0,2022-01-25,2022-01-21,有限会社カナオ,,有限会社,東京都,板橋区,大山金井町１２番１１－２０２号,,13,119,1730024,,,2022-01-21,清算の結了等,,,2015-10-05,1,,,,,カナオ,0
2001,7030001069182,登記記録の閉鎖等,0,2022-01-25,2022-01-21,株式会社ベスト,,株式会社,埼玉県,鶴ヶ島市,大字鶴ヶ丘５１１番地１,,11,241,3502204,,,2022-01-21,清算の結了等,,,2015-10-05,1,,,,,ベスト,0
2018,7050001001564,登記記録の閉鎖等,0,2022-01-25,2022-01-21,大洋印刷株式会社,,株式会社,茨城県,水戸市,西原１丁目１４番２２号,,08,201,3100044,,,2022-01-21,清算の結了等,,,2015-10-05,1,,,,,タイヨウインサツ,0
2063,7140002027335,登記記録の閉鎖等,0,2022-01-25,2022-01-20,有限会社ｇｌａｓｓ・Ｃ,,有限会社,兵庫県,神戸市中央区,日暮通２丁目２番４号,,28,110,6510077,,,2022-01-20,清算の結了等,,,2015-10-05,1,,,,,グラスシー,0
2065,7140002029983,登記記録の閉鎖等,0,2022-01-25,2022-01-18,有限会社ユミ化粧品店,,有限会社,兵庫県,明石市,西明石南町２丁目１８番１号,,28,203,6730041,,,2022-01-18,清算の結了等,,,2015-10-05,1,,,,,ユミケショウヒンテン,0
2067,7140005025170,登記記録の閉鎖等,0,2022-01-25,2022-01-24,一般社団法人くらし支援ネット明石,,その他の設立登記法人,兵庫県,明石市,本町１丁目２番３３号４階,,28,203,6730892,,,2022-01-24,清算の結了等,,,2020-05-22,1,,,,,クラシシエンネットアカシ,0
2070,7150005002375,登記記録の閉鎖等,0,2022-01-25,2022-01-24,神理羽衣教会,,その他の設立登記法人,奈良県,生駒市,東生駒月見町１９９番地の１２,,29,209,6300214,,,2022-01-24,清算の結了等,,,2015-10-05,1,,,,,シンリハゴロモキョウカイ,0
2072,7180001142107,登記記録の閉鎖等,0,2022-01-25,2022-01-13,名古屋電力株式会社,,株式会社,愛知県,尾張旭市,新居町諏訪南１２７８番地の１７,,23,226,4880072,,,2022-01-13,合併による解散等,9180001080206,令和４年１月１日愛知県尾張旭市新居町諏訪南１２７８番地の１７株式会社木の香の家（9180001080206）に合併し解散,2020-07-20,1,,,,,ナゴヤデンリョク,0
2078,7180301033699,登記記録の閉鎖等,0,2022-01-25,2022-01-21,株式会社木乃香,,株式会社,愛知県,豊田市,高丘新町上平地４１番地１,,23,211,4730921,,,2022-01-21,清算の結了等,,,2020-05-15,1,,,,,コノカ,0
2086,7200001032255,登記記録の閉鎖等,0,2022-01-25,2022-01-20,株式会社河合人事総研,,株式会社,岐阜県,加茂郡富加町,加治田７０１番地,,21,502,5013301,,,2022-01-20,清算の結了等,,,2015-11-11,1,,,,,カワイジンジソウケン,0
2092,7210002001101,登記記録の閉鎖等,0,2022-01-25,2022-01-21,有限会社建築コンサルタント前田設計,,有限会社,福井県,福井市,下細江町第９号１２番地,,18,201,9190301,,,2022-01-21,清算の結了等,,,2015-10-05,1,,,,,ケンチクコンサルタントマエダセッケイ,0
2094,7240001002758,登記記録の閉鎖等,0,2022-01-25,2022-01-24,共立商事株式会社,,株式会社,広島県,広島市中区,国泰寺町２丁目２番１７号,,34,101,7300042,,,2022-01-24,登記官による閉鎖,,,2015-10-05,1,,,,,,0
2095,7240001006908,登記記録の閉鎖等,0,2022-01-25,2022-01-24,株式会社中央設備設計,,株式会社,広島県,広島市安佐北区,真亀３丁目１６番１９号,,34,106,7391741,,,2022-01-24,登記官による閉鎖,,,2015-10-05,1,,,,,,0
2096,7240001007146,登記記録の閉鎖等,0,2022-01-25,2022-01-24,株式会社テイク・ワン設計,,株式会社,広島県,広島市西区,田方３丁目９０９番地１（ダイアパレスウェストシティ５２２号）,,34,104,7330851,,,2022-01-24,登記官による閉鎖,,,2015-10-05,1,,,,,,0
2097,7240001010967,登記記録の閉鎖等,0,2022-01-25,2022-01-24,株式会社マサヨシ,,株式会社,広島県,広島市南区,東本浦町２２番２９号,,34,103,7340025,,,2022-01-24,登記官による閉鎖,,,2015-10-05,1,,,,,,0
2098,7240001017806,登記記録の閉鎖等,0,2022-01-25,2022-01-24,株式会社ＭＩＫ,,株式会社,広島県,広島市西区,大宮１丁目１番５号,,34,104,7330007,,,2022-01-24,登記官による閉鎖,,,2015-10-05,1,,,,,,0
2099,7240001018614,登記記録の閉鎖等,0,2022-01-25,2022-01-24,株式会社オーラインターナショナル,,株式会社,広島県,広島市東区,温品４丁目２１番４５－１０２号,,34,102,7320033,,,2022-01-24,登記官による閉鎖,,,2015-10-05,1,,,,,,0
2100,7240001023374,登記記録の閉鎖等,0,2022-01-25,2022-01-24,株式会社サンファッション,,株式会社,広島県,東広島市,西条上市町５番２６号,,34,212,7390006,,,2022-01-24,登記官による閉鎖,,,2015-10-05,1,,,,,,0
2101,7240001023523,登記記録の閉鎖等,0,2022-01-25,2022-01-24,株式会社シエン,,株式会社,広島県,東広島市,西条町大沢８２番地９,,34,212,7390034,,,2022-01-24,登記官による閉鎖,,,2015-10-05,1,,,,,,0
2102,7240001026369,登記記録の閉鎖等,0,2022-01-25,2022-01-24,株式会社西電商事,,株式会社,広島県,呉市,焼山ひばりヶ丘町４番２４号,,34,202,7370901,,,2022-01-24,登記官による閉鎖,,,2015-10-05,1,,,,,,0
2103,7240001030973,登記記録の閉鎖等,0,2022-01-25,2022-01-24,株式会社ブリス．,,株式会社,広島県,福山市,三吉町５丁目６番１５号,,34,207,7200031,,,2022-01-24,登記官による閉鎖,,,2015-10-05,1,,,,,,0
2104,7240001033885,登記記録の閉鎖等,0,2022-01-25,2022-01-24,システムフオー株式会社,,株式会社,広島県,福山市,春日町５丁目１７番１１－４０９号,,34,207,7210907,,,2022-01-24,登記官による閉鎖,,,2015-10-05,1,,,,,,0
2106,7240001049238,登記記録の閉鎖等,0,2022-01-25,2022-01-24,東洋商事株式会社,,株式会社,広島県,江田島市,江田島町７７７８番地,,34,215,7372100,,,2022-01-24,登記官による閉鎖,,,2016-04-22,1,,,,,,0
2107,7240002001800,登記記録の閉鎖等,0,2022-01-25,2022-01-24,有限会社ウエニシ,,有限会社,広島県,広島市安佐北区,亀山南３丁目２４番２０－２号,,34,106,7310232,,,2022-01-24,登記官による閉鎖,,,2015-10-05,1,,,,,,0
2108,7240002008267,登記記録の閉鎖等,0,2022-01-25,2022-01-24,森林墓苑販売有限会社,,有限会社,広島県,広島市東区,馬木町字砂走り２４２４番地,,34,102,7320035,,,2022-01-24,登記官による閉鎖,,,2015-10-05,1,,,,,,0
2109,7240002014372,登記記録の閉鎖等,0,2022-01-25,2022-01-24,有限会社フクミ,,有限会社,広島県,広島市西区,草津本町３番１号,,34,104,7330865,,,2022-01-24,登記官による閉鎖,,,2015-10-05,1,,,,,,0
2110,7240002017854,登記記録の閉鎖等,0,2022-01-25,2022-01-24,有限会社Ａｓｓｉｓｔ．Ｈｉｒｏｓｈｉｍａ,,有限会社,広島県,広島市佐伯区,三筋３丁目２番２４号,,34,108,7315144,,,2022-01-24,登記官による閉鎖,,,2015-10-05,1,,,,,,0
2111,7240002024140,登記記録の閉鎖等,0,2022-01-25,2022-01-24,有限会社アイエヌケー,,有限会社,広島県,広島市中区,三川町２番２０号,,34,101,7300029,,,2022-01-24,登記官による閉鎖,,,2015-10-05,1,,,,,,0
2112,7240002037753,登記記録の閉鎖等,0,2022-01-25,2022-01-24,有限会社鳳凰,,有限会社,広島県,大竹市,油見３丁目２６番１号,,34,211,7390612,,,2022-01-24,登記官による閉鎖,,,2015-10-05,1,,,,,,0
2113,7240002047397,登記記録の閉鎖等,0,2022-01-25,2022-01-24,セラ通商事有限会社,,有限会社,広島県,福山市,本庄町中２丁目１０番１９号,,34,207,7200076,,,2022-01-24,登記官による閉鎖,,,2015-10-05,1,,,,,,0
2114,7240002051003,登記記録の閉鎖等,0,2022-01-25,2022-01-24,有限会社九十九呉服店,,有限会社,広島県,尾道市,久保１丁目３番３４号,,34,205,7220045,,,2022-01-24,登記官による閉鎖,,,2015-10-05,1,,,,,,0
2115,7240005002135,登記記録の閉鎖等,0,2022-01-25,2022-01-24,協同組合芸州建設,,その他の設立登記法人,広島県,広島市佐伯区,八幡東３丁目２９番１４号,,34,108,7315115,,,2022-01-24,登記官による閉鎖,,,2015-10-05,1,,,,,,0
2116,7240005007646,登記記録の閉鎖等,0,2022-01-25,2022-01-24,中企協建設協同組合,,その他の設立登記法人,広島県,福山市,南蔵王町６丁目１３番２号,,34,207,7210973,,,2022-01-24,登記官による閉鎖,,,2015-10-05,1,,,,,,0
2134,7320001004135,登記記録の閉鎖等,0,2022-01-25,2022-01-19,オリエンタルハウス株式会社,,株式会社,大分県,大分市,東津留２丁目１７番１４号,,44,201,8700934,,,2022-01-19,清算の結了等,,,2020-09-04,1,,,,,オリエンタルハウス,0
2136,7320001016238,登記記録の閉鎖等,0,2022-01-25,2022-01-20,株式会社ＩＸＩＯ,,株式会社,大分県,速見郡日出町,３８１１番地２６,,44,341,8791506,,,2022-01-20,合併による解散等,9320001008729,令和４年１月２０日大分県速見郡日出町３８１１番地２６株式会社エムケイ企画（9320001008729）に合併し解散,2018-03-16,1,,,,,イクシオ,0
2137,7320002018695,登記記録の閉鎖等,0,2022-01-25,2022-01-24,有限会社コヤマ,,有限会社,大分県,竹田市,久住町大字白丹３５１７番地６,,44,208,8780205,,,2022-01-24,清算の結了等,,,2015-10-05,1,,,,,コヤマ,0
2152,7380001028863,登記記録の閉鎖等,0,2022-01-25,2022-01-20,株式会社大越ゴルフガーデン,,株式会社,福島県,田村市,大越町下大越字川向３３５番地,,07,211,9634112,,,2022-01-20,清算の結了等,,,2018-02-21,1,,,,,オオゴエゴルフガーデン,0
2202,8010405017647,登記記録の閉鎖等,0,2022-01-25,2022-01-17,Ｍａｒｒｏｎ特定目的会社,,その他の設立登記法人,東京都,港区,虎ノ門５丁目１番４号,,13,103,1050001,,,2022-01-17,清算の結了等,,,2019-04-18,1,,,,,マロン,0
2203,8010501006165,登記記録の閉鎖等,0,2022-01-25,2022-01-24,アカサカ包装用品株式会社,,株式会社,東京都,台東区,浅草橋１丁目３１番３号,,13,106,1110053,,,2022-01-24,清算の結了等,,,2015-10-05,1,,,,,アカサカホウソウヨウヒン,0
2215,8010802008091,登記記録の閉鎖等,0,2022-01-25,2022-01-14,有限会社瀬野精機,00052372,有限会社,東京都,大田区,多摩川１丁目２番２３号,,13,111,1460095,,,2022-01-14,清算の結了等,,,2015-10-05,1,,,,,セノセイキ,0
2218,8010903006878,登記記録の閉鎖等,0,2022-01-25,2022-01-20,合同会社ちゅら,,合同会社,東京都,世田谷区,若林４丁目１９番６号松陰神社前レーベル３０２号室,,13,112,1540023,,,2022-01-20,清算の結了等,,,2021-10-21,1,,,,,チュラ,0
2220,8011001054431,登記記録の閉鎖等,0,2022-01-25,2022-01-19,株式会社エイチオーピー,,株式会社,東京都,渋谷区,道玄坂１丁目１５番３号,,13,113,1500043,,,2022-01-19,合併による解散等,8220001020843,令和４年１月１７日石川県金沢市黒田一丁目２１２番地株式会社ＡＭＲ（8220001020843）に合併し解散,2015-10-05,1,,,,,エイチオーピー,0
2227,8011001137657,登記記録の閉鎖等,0,2022-01-25,2022-01-11,株式会社やわらぎ建設,,株式会社,東京都,渋谷区,東３丁目２２番９号小倉ビル５０２,,13,113,1500011,,,2022-01-11,清算の結了等,,,2020-12-25,1,,,,,ヤワラギケンセツ,0
2233,8011101011506,登記記録の閉鎖等,0,2022-01-25,2022-01-25,株式会社ソーゴ二十一,,株式会社,東京都,新宿区,早稲田鶴巻町３７１番地,,13,104,1620041,,,2022-01-25,登記官による閉鎖,,,2015-10-05,1,,,,,,0
2234,8011101015184,登記記録の閉鎖等,0,2022-01-25,2022-01-25,株式会社東京ヘルス,,株式会社,東京都,新宿区,新宿５丁目９番１２号,,13,104,1600022,,,2022-01-25,登記官による閉鎖,,,2015-10-05,1,,,,,,0
2235,8011101017429,登記記録の閉鎖等,0,2022-01-25,2022-01-25,株式会社服部管工社,,株式会社,東京都,新宿区,西落合３丁目８番１８号,,13,104,1610031,,,2022-01-25,登記官による閉鎖,,,2015-10-05,1,,,,,,0
2236,8011101024895,登記記録の閉鎖等,0,2022-01-25,2022-01-25,株式会社バージニア,,株式会社,東京都,新宿区,西早稲田３丁目１７番２１号第３日信ビル５Ｆ,,13,104,1690051,,,2022-01-25,登記官による閉鎖,,,2015-10-05,1,,,,,,0
2237,8011101037583,登記記録の閉鎖等,0,2022-01-25,2022-01-25,國際出版株式会社,,株式会社,東京都,新宿区,西新宿３丁目８番５号,,13,104,1600023,,,2022-01-25,登記官による閉鎖,,,2015-10-05,1,,,,,,0
2238,8011101040711,登記記録の閉鎖等,0,2022-01-25,2022-01-25,太陽土地株式会社,,株式会社,東京都,新宿区,大久保１丁目１４番１８号,,13,104,1690072,,,2022-01-25,登記官による閉鎖,,,2015-10-05,1,,,,,,0
2240,8011101048465,登記記録の閉鎖等,0,2022-01-25,2022-01-25,住建共栄協会株式会社,,株式会社,東京都,新宿区,高田馬場４丁目４０番１３号双秀ビル１階,,13,104,1690075,,,2022-01-25,登記官による閉鎖,,,2015-10-05,1,,,,,,0
2241,8011101050636,登記記録の閉鎖等,0,2022-01-25,2022-01-25,株式会社アルファコーポレーション,,株式会社,東京都,新宿区,西新宿７丁目２番６号,,13,104,1600023,,,2022-01-25,登記官による閉鎖,,,2015-10-05,1,,,,,,0
2242,8011101052236,登記記録の閉鎖等,0,2022-01-25,2022-01-25,株式会社サクセスマネジメント,,株式会社,東京都,新宿区,西新宿７丁目４番７号,,13,104,1600023,,,2022-01-25,登記官による閉鎖,,,2015-10-05,1,,,,,,0
2243,8011101052681,登記記録の閉鎖等,0,2022-01-25,2022-01-25,株式会社コズミック企画,,株式会社,東京都,新宿区,四谷３丁目１３番地,,13,104,1600004,,,2022-01-25,登記官による閉鎖,,,2015-10-05,1,,,,,,0
2244,8011101053523,登記記録の閉鎖等,0,2022-01-25,2022-01-25,ニツケイ開発株式会社,,株式会社,東京都,新宿区,新宿３丁目１５番１６号,,13,104,1600022,,,2022-01-25,登記官による閉鎖,,,2015-10-05,1,,,,,,0
2245,8011101055296,登記記録の閉鎖等,0,2022-01-25,2022-01-25,株式会社ワイネット,,株式会社,東京都,新宿区,高田馬場２丁目６番１０号,,13,104,1690075,,,2022-01-25,登記官による閉鎖,,,2015-10-05,1,,,,,,0
2246,8011101055932,登記記録の閉鎖等,0,2022-01-25,2022-01-25,クイーン株式会社,,株式会社,東京都,新宿区,北新宿１丁目２９番１１号,,13,104,1690074,,,2022-01-25,登記官による閉鎖,,,2015-10-05,1,,,,,,0
2247,8011101057648,登記記録の閉鎖等,0,2022-01-25,2022-01-25,株式会社オープンプロジェクト,,株式会社,東京都,新宿区,西新宿５丁目２４番１６号西新宿ウェールビル６階,,13,104,1600023,,,2022-01-25,登記官による閉鎖,,,2015-10-05,1,,,,,,0
2248,8011101059891,登記記録の閉鎖等,0,2022-01-25,2022-01-25,ＴＳプラザ・インターナショナル株式会社,,株式会社,東京都,新宿区,新宿１丁目１４番３号,,13,104,1600022,,,2022-01-25,登記官による閉鎖,,,2015-10-05,1,,,,,,0
2249,8011101060065,登記記録の閉鎖等,0,2022-01-25,2022-01-25,株式会社ウエル,,株式会社,東京都,新宿区,下宮比町二丁目２８番,,13,104,1620822,,,2022-01-25,登記官による閉鎖,,,2015-10-05,1,,,,,,0
2251,8011102005309,登記記録の閉鎖等,0,2022-01-25,2022-01-25,有限会社相良寿司,,有限会社,東京都,新宿区,西新宿７丁目２３番１０号,,13,104,1600023,,,2022-01-25,登記官による閉鎖,,,2015-10-05,1,,,,,,0
2252,8011102006793,登記記録の閉鎖等,0,2022-01-25,2022-01-25,有限会社鈴健精米,,有限会社,東京都,新宿区,西落合１丁目２９番６号,,13,104,1610031,,,2022-01-25,登記官による閉鎖,,,2015-10-05,1,,,,,,0
2253,8011102013773,登記記録の閉鎖等,0,2022-01-25,2022-01-25,有限会社和貴,,有限会社,東京都,新宿区,市谷甲良町１番７号,,13,104,1620856,,,2022-01-25,登記官による閉鎖,,,2015-10-05,1,,,,,,0
2255,8011103003039,登記記録の閉鎖等,0,2022-01-25,2022-01-25,バンディエラ合同会社,,合同会社,東京都,新宿区,三栄町８番地３７,,13,104,1600008,,,2022-01-25,登記官による閉鎖,,,2015-10-05,1,,,,,,0
2256,8011103003096,登記記録の閉鎖等,0,2022-01-25,2022-01-25,クオリティ・オブ・ウェルス合同会社,,合同会社,東京都,新宿区,若葉２丁目５番－５号,,13,104,1600011,,,2022-01-25,登記官による閉鎖,,,2015-10-05,1,,,,,,0
2257,8011105001486,登記記録の閉鎖等,0,2022-01-25,2022-01-25,東京健康食品販売協同組合,,その他の設立登記法人,東京都,新宿区,新小川町七丁目２３番５０４号,,13,104,1620814,,,2022-01-25,登記官による閉鎖,,,2015-10-05,1,,,,,,0
2259,8011301002973,登記記録の閉鎖等,0,2022-01-25,2022-01-25,株式会社サンワシステム産業,,株式会社,東京都,杉並区,浜田山１丁目１７番１３号,,13,115,1680065,,,2022-01-25,登記官による閉鎖,,,2015-10-05,1,,,,,,0
2260,8011301005448,登記記録の閉鎖等,0,2022-01-25,2022-01-25,日本床暖房株式会社,,株式会社,東京都,杉並区,和田３丁目２８番４号,,13,115,1660012,,,2022-01-25,登記官による閉鎖,,,2015-10-05,1,,,,,,0
2261,8011301021024,登記記録の閉鎖等,0,2022-01-25,2022-01-25,株式会社アイ・エム企画,,株式会社,東京都,杉並区,西荻北３丁目２０番８号,,13,115,1670042,,,2022-01-25,登記官による閉鎖,,,2015-10-05,1,,,,,,0
2262,8011302008350,登記記録の閉鎖等,0,2022-01-25,2022-01-25,有限会社鳳皇,,有限会社,東京都,杉並区,阿佐谷北３丁目４２番１３号,,13,115,1660001,,,2022-01-25,登記官による閉鎖,,,2015-10-05,1,,,,,,0
2263,8011302015818,登記記録の閉鎖等,0,2022-01-25,2022-01-25,有限会社パワーサービス運輸,,有限会社,東京都,杉並区,和田３丁目３０番１０号１階,,13,115,1660012,,,2022-01-25,登記官による閉鎖,,,2015-10-05,1,,,,,,0
2264,8011303001593,登記記録の閉鎖等,0,2022-01-25,2022-01-25,サマリア建築設計合同会社,,合同会社,東京都,杉並区,荻窪２丁目４１番１２号,,13,115,1670051,,,2022-01-25,登記官による閉鎖,,,2015-10-05,1,,,,,,0
2265,8011305001559,登記記録の閉鎖等,0,2022-01-25,2022-01-20,特定非営利活動法人べてる杉並,,その他の設立登記法人,東京都,杉並区,成田東５丁目１３番１３号,,13,115,1660015,,,2022-01-20,清算の結了等,,,2015-10-05,1,,,,,ベテルスギナミ,0
2286,8020001050860,登記記録の閉鎖等,0,2022-01-25,2022-01-20,平田本社株式会社,,株式会社,神奈川県,横浜市鶴見区,馬場２丁目２７番７号,,14,101,2300076,,,2022-01-20,清算の結了等,,,2015-10-05,1,,,,,ヒラタホンシャ,0
2288,8020001123682,登記記録の閉鎖等,0,2022-01-25,2022-01-20,株式会社フジファミリーハウジング,,株式会社,神奈川県,川崎市多摩区,宿河原６丁目２３番９号,,14,135,2140021,,,2022-01-20,清算の結了等,,,2017-11-08,1,,,,,フジファミリーハウジング,0
2342,8110002035224,登記記録の閉鎖等,0,2022-01-25,2022-01-21,有限会社片桐工務店,,有限会社,新潟県,新発田市,新富町２丁目１番１５号,,15,206,9570017,,,2022-01-21,清算の結了等,,,2021-01-27,1,,,,,カタギリコウムテン,0
2360,8120002001885,登記記録の閉鎖等,0,2022-01-25,2022-01-20,有限会社劇団潮流,,有限会社,大阪府,大阪市西成区,松１丁目６番１７号,,27,122,5570034,,,2022-01-20,清算の結了等,,,2015-10-05,1,,,,,,0
2373,8130001019275,登記記録の閉鎖等,0,2022-01-25,2022-01-20,隆栄商事株式会社,,株式会社,京都府,京都市下京区,東洞院七条下ル二丁目東塩小路町５４０番地,,26,106,6000000,,,2022-01-20,清算の結了等,,,2015-10-05,1,,,,,リュウエイショウジ,0
2376,8140001036534,登記記録の閉鎖等,0,2022-01-25,2022-01-21,株式会社中山,,株式会社,兵庫県,三木市,志染町中自由が丘２丁目４９５番地,,28,215,6730552,,,2022-01-21,清算の結了等,,,2015-10-05,1,,,,,ナカヤマ,0
2400,8180002046173,登記記録の閉鎖等,0,2022-01-25,2022-01-20,有限会社エリカ,,有限会社,愛知県,名古屋市守山区,脇田町９１９番地,,23,113,4630024,,,2022-01-20,清算の結了等,,,2015-10-05,1,,,,,エリカ,0
2402,8180003014352,登記記録の閉鎖等,0,2022-01-25,2022-01-24,合同会社チトワントレーディングカンパニー,,合同会社,愛知県,名古屋市中村区,野田町字又部３１番地の１,,23,105,4530858,,,2022-01-24,清算の結了等,,,2015-10-05,1,,,,,チトワントレーディングカンパニー,0
2407,8200001036882,登記記録の閉鎖等,0,2022-01-25,2022-01-21,株式会社ぶらんこ,,株式会社,岐阜県,羽島郡岐南町,徳田西３丁目６４番地,,21,302,5016017,,,2022-01-21,清算の結了等,,,2019-11-26,1,,,,,ブランコ,0
2414,8220001022229,登記記録の閉鎖等,0,2022-01-25,2022-01-20,株式会社ＭＳ白山,,株式会社,石川県,白山市,米永町３００番地２,,17,210,9240075,,,2022-01-20,清算の結了等,,,2018-04-16,1,,,,,エムエスハクサン,0
2420,8240001001726,登記記録の閉鎖等,0,2022-01-25,2022-01-24,太田川物産株式会社,,株式会社,広島県,広島市安佐北区,白木町大字三田８７７５番地,,34,106,7391521,,,2022-01-24,登記官による閉鎖,,,2015-10-05,1,,,,,,0
2421,8240001004472,登記記録の閉鎖等,0,2022-01-25,2022-01-24,株式会社シーディー・コア,,株式会社,広島県,広島市中区,三川町６番１９号,,34,101,7300029,,,2022-01-24,登記官による閉鎖,,,2015-10-05,1,,,,,,0
2422,8240001016831,登記記録の閉鎖等,0,2022-01-25,2022-01-24,ぱるてんざ株式会社,,株式会社,広島県,広島市西区,横川町１丁目１２－１３－４Ｆ,,34,104,7330011,,,2022-01-24,登記官による閉鎖,,,2015-10-05,1,,,,,,0
2423,8240001017672,登記記録の閉鎖等,0,2022-01-25,2022-01-24,株式会社フロンティア,,株式会社,広島県,広島市中区,大手町４丁目３番１７号,,34,101,7300051,,,2022-01-24,登記官による閉鎖,,,2015-10-05,1,,,,,,0
2424,8240001019355,登記記録の閉鎖等,0,2022-01-25,2022-01-24,株式会社フレンドシップ三沢,,株式会社,広島県,広島市西区,南観音３丁目１０番９号,,34,104,7330035,,,2022-01-24,登記官による閉鎖,,,2015-10-05,1,,,,,,0
2425,8240001021385,登記記録の閉鎖等,0,2022-01-25,2022-01-24,株式会社之助の刀,,株式会社,広島県,広島市中区,吉島新町１丁目２番８号,,34,101,7300824,,,2022-01-24,登記官による閉鎖,,,2015-10-05,1,,,,,,0
2426,8240001023332,登記記録の閉鎖等,0,2022-01-25,2022-01-24,さくら産業株式会社,,株式会社,広島県,東広島市,八本松東６丁目１番２０号,,34,212,7390142,,,2022-01-24,登記官による閉鎖,,,2015-10-05,1,,,,,,0
2427,8240001023497,登記記録の閉鎖等,0,2022-01-25,2022-01-24,株式会社ハンダ,,株式会社,広島県,東広島市,西条町郷曽３６９番地１８,,34,212,7390035,,,2022-01-24,登記官による閉鎖,,,2015-10-05,1,,,,,,0
2428,8240001035088,登記記録の閉鎖等,0,2022-01-25,2022-01-24,株式会社テンペ屋,,株式会社,広島県,福山市,内海町２５１４番地１,,34,207,7222641,,,2022-01-24,登記官による閉鎖,,,2015-10-05,1,,,,,,0
2429,8240001038339,登記記録の閉鎖等,0,2022-01-25,2022-01-24,東和工業株式会社,,株式会社,広島県,尾道市,向東町３５２９番地の９,,34,205,7220062,,,2022-01-24,登記官による閉鎖,,,2015-10-05,1,,,,,,0
2433,8240002000066,登記記録の閉鎖等,0,2022-01-25,2022-01-24,有限会社安庵,,有限会社,広島県,広島市西区,井口５丁目１８番２７号,,34,104,7330842,,,2022-01-24,登記官による閉鎖,,,2015-10-05,1,,,,,,0
2434,8240002003795,登記記録の閉鎖等,0,2022-01-25,2022-01-24,有限会社梶川塗装店,,有限会社,広島県,広島市安佐北区,あさひが丘６丁目３４番３７号,,34,106,7313361,,,2022-01-24,登記官による閉鎖,,,2015-10-05,1,,,,,,0
2435,8240002006856,登記記録の閉鎖等,0,2022-01-25,2022-01-24,有限会社三星ネオン社,,有限会社,広島県,広島市西区,庚午北１丁目２０番１６号,,34,104,7330821,,,2022-01-24,登記官による閉鎖,,,2015-10-05,1,,,,,,0
2436,8240002009438,登記記録の閉鎖等,0,2022-01-25,2022-01-24,有限会社竹澤組,,有限会社,広島県,広島市安佐南区,高取北１丁目２５番５号,,34,105,7310144,,,2022-01-24,登記官による閉鎖,,,2015-10-05,1,,,,,,0
2437,8240002009818,登記記録の閉鎖等,0,2022-01-25,2022-01-24,有限会社高山建設,,有限会社,広島県,広島市安芸区,上瀬野１丁目１番７号,,34,107,7390301,,,2022-01-24,登記官による閉鎖,,,2015-10-05,1,,,,,,0
2438,8240002011170,登記記録の閉鎖等,0,2022-01-25,2022-01-24,有限会社トータルインテリア石渡,,有限会社,広島県,広島市佐伯区,美鈴が丘東３丁目５番１５号,,34,108,7315111,,,2022-01-24,登記官による閉鎖,,,2015-10-05,1,,,,,,0
2439,8240002020213,登記記録の閉鎖等,0,2022-01-25,2022-01-24,有限会社メタルコート,,有限会社,広島県,広島市安佐北区,安佐町大字宮野字谷２７５番地の１１,,34,106,7313353,,,2022-01-24,登記官による閉鎖,,,2015-10-05,1,,,,,,0
2440,8240002021558,登記記録の閉鎖等,0,2022-01-25,2022-01-24,有限会社エイ・シー・イー,,有限会社,広島県,広島市西区,中広町２丁目２３番３号,,34,104,7330012,,,2022-01-24,登記官による閉鎖,,,2015-10-05,1,,,,,,0
2441,8240002030187,登記記録の閉鎖等,0,2022-01-25,2022-01-24,有限会社田宮木工,,有限会社,広島県,三次市,畠敷町９９６番地の１,,34,209,7280006,,,2022-01-24,登記官による閉鎖,,,2015-10-05,1,,,,,,0
2442,8240002032794,登記記録の閉鎖等,0,2022-01-25,2022-01-24,有限会社コクピット丸山,,有限会社,広島県,呉市,広白石４丁目１７番７１号,,34,202,7370143,,,2022-01-24,登記官による閉鎖,,,2015-10-05,1,,,,,,0
2443,8240002037521,登記記録の閉鎖等,0,2022-01-25,2022-01-24,有限会社シンテックス,,有限会社,広島県,廿日市市,住吉２丁目２番２７号,,34,213,7380014,,,2022-01-24,登記官による閉鎖,,,2015-10-05,1,,,,,,0
2445,8240002043833,登記記録の閉鎖等,0,2022-01-25,2022-01-24,和公地所有限会社,,有限会社,広島県,福山市,木之庄町３丁目１０番４３号,,34,207,7200082,,,2022-01-24,登記官による閉鎖,,,2015-10-05,1,,,,,,0
2446,8240002043940,登記記録の閉鎖等,0,2022-01-25,2022-01-24,有限会社福山第一劇場,,有限会社,広島県,福山市,東町２丁目２番１号,,34,207,7200052,,,2022-01-24,登記官による閉鎖,,,2015-10-05,1,,,,,,0
2447,8240002049574,登記記録の閉鎖等,0,2022-01-25,2022-01-24,有限会社西村組,,有限会社,広島県,竹原市,吉名町５０５７番地の４,,34,203,7250013,,,2022-01-24,登記官による閉鎖,,,2015-10-05,1,,,,,,0
2448,8240002053972,登記記録の閉鎖等,0,2022-01-25,2022-01-24,有限会社羽島写真機店,,有限会社,広島県,三原市,本郷南６丁目１４番１０号,,34,204,7290417,,,2022-01-24,登記官による閉鎖,,,2015-10-05,1,,,,,,0
2449,8240003001492,登記記録の閉鎖等,0,2022-01-25,2022-01-24,合同会社タスカル・クリエイト,,合同会社,広島県,呉市,川尻町西１丁目４番６号,,34,202,7372603,,,2022-01-24,登記官による閉鎖,,,2015-10-05,1,,,,,,0
2450,8240005002217,登記記録の閉鎖等,0,2022-01-25,2022-01-24,ホットネット協同組合,,その他の設立登記法人,広島県,広島市南区,出汐２丁目１番３号,,34,103,7340001,,,2022-01-24,登記官による閉鎖,,,2015-10-05,1,,,,,,0
2451,8240005002373,登記記録の閉鎖等,0,2022-01-25,2022-01-24,広島茶業協同組合,,その他の設立登記法人,広島県,広島市西区,商工センター１丁目５番３０号,,34,104,7330833,,,2022-01-24,登記官による閉鎖,,,2015-10-05,1,,,,,,0
2452,8240005003702,登記記録の閉鎖等,0,2022-01-25,2022-01-24,西条東部食糧企業組合,,その他の設立登記法人,広島県,東広島市,西条本町７番２１号,,34,212,7390011,,,2022-01-24,登記官による閉鎖,,,2015-10-05,1,,,,,,0
2453,8240005012257,登記記録の閉鎖等,0,2022-01-25,2022-01-24,山中野農林産業農事組合法人,,その他の設立登記法人,広島県,三原市,久井町山中野１６１３番地,,34,204,7221416,,,2022-01-24,登記官による閉鎖,,,2015-10-05,1,,,,,,0
2461,8290001074569,登記記録の閉鎖等,0,2022-01-25,2022-01-20,株式会社ワーコン,,株式会社,福岡県,福岡市博多区,博多駅東１丁目１３番１８号,,40,132,8120013,,,2022-01-20,清算の結了等,,,2016-07-15,1,,,,,ワーコン,0
2477,8330002013372,登記記録の閉鎖等,0,2022-01-25,2022-01-20,有限会社ベクトル,,有限会社,熊本県,熊本市中央区,新大江２丁目８番１４号,,43,101,8620972,,,2022-01-20,清算の結了等,,,2015-10-05,1,,,,,ベクトル,0
2485,8370602001731,登記記録の閉鎖等,0,2022-01-25,2022-01-24,有限会社丸善高橋金物店,,有限会社,宮城県,宮城郡利府町,沢乙字熊野堂２３番地７,,04,406,9810123,,,2022-01-24,清算の結了等,,,2015-10-05,1,,,,,マルゼンタカハシカナモノテン,0
2536,9010701014207,登記記録の閉鎖等,0,2022-01-25,2022-01-20,株式会社アール,,株式会社,東京都,世田谷区,上用賀６丁目１９番８号,,13,112,1580098,,,2022-01-20,合併による解散等,5011001066248,令和４年１月１日東京都渋谷区初台一丁目４７番３号小田急初台ビル株式会社フェローズ（5011001066248）に合併し解散,2015-10-05,1,,,,,アール,0
2545,9011001023088,登記記録の閉鎖等,0,2022-01-25,2022-01-24,株式会社明和商会,,株式会社,東京都,渋谷区,千駄ヶ谷１丁目１９番９号,,13,113,1510051,,,2022-01-24,清算の結了等,,,2015-10-05,1,,,,,メイワショウカイ,0
2561,9011101003758,登記記録の閉鎖等,0,2022-01-25,2022-01-25,大久保電気株式会社,,株式会社,東京都,新宿区,北新宿２丁目１０番１２号,,13,104,1690074,,,2022-01-25,登記官による閉鎖,,,2015-10-05,1,,,,,,0
2562,9011101014301,登記記録の閉鎖等,0,2022-01-25,2022-01-25,株式会社東葉商事,,株式会社,東京都,新宿区,若松町３３番６号菱和パレス若松町９階,,13,104,1620056,,,2022-01-25,登記官による閉鎖,,,2015-10-26,1,,,,,,0
2563,9011101014342,登記記録の閉鎖等,0,2022-01-25,2022-01-25,藤和総合開発株式会社,,株式会社,東京都,新宿区,四谷４丁目４番地１１,,13,104,1600004,,,2022-01-25,登記官による閉鎖,,,2015-10-05,1,,,,,,0
2564,9011101017733,登記記録の閉鎖等,0,2022-01-25,2022-01-25,株式会社ピー・アール・オー・コーポレーション,,株式会社,東京都,新宿区,新宿１丁目２９番５号グランドメゾン新宿東３１３号,,13,104,1600022,,,2022-01-25,登記官による閉鎖,,,2015-10-05,1,,,,,,0
2565,9011101030364,登記記録の閉鎖等,0,2022-01-25,2022-01-25,カンパニードクターズ・カンパニー株式会社,,株式会社,東京都,新宿区,揚場町１番１号,,13,104,1620824,,,2022-01-25,登記官による閉鎖,,,2015-10-05,1,,,,,,0
2566,9011101044703,登記記録の閉鎖等,0,2022-01-25,2022-01-25,株式会社北電開発,,株式会社,東京都,新宿区,百人町１丁目２３番１３号大和ビル３０２号,,13,104,1690073,,,2022-01-25,登記官による閉鎖,,,2015-10-05,1,,,,,,0
2567,9011101046435,登記記録の閉鎖等,0,2022-01-25,2022-01-25,株式会社エースストライカー,,株式会社,東京都,新宿区,新宿３丁目８番９号,,13,104,1600022,,,2022-01-25,登記官による閉鎖,,,2015-10-05,1,,,,,,0
2568,9011101046443,登記記録の閉鎖等,0,2022-01-25,2022-01-25,株式会社リンク,,株式会社,東京都,新宿区,新宿５丁目１７番１１号,,13,104,1600022,,,2022-01-25,登記官による閉鎖,,,2015-10-05,1,,,,,,0
2569,9011101049165,登記記録の閉鎖等,0,2022-01-25,2022-01-25,東央開発株式会社,,株式会社,東京都,新宿区,百人町１丁目２３番１３号大和ビル３０２号,,13,104,1690073,,,2022-01-25,登記官による閉鎖,,,2015-10-05,1,,,,,,0
2570,9011101052664,登記記録の閉鎖等,0,2022-01-25,2022-01-25,株式会社グローバルネット,,株式会社,東京都,新宿区,大久保１丁目１２番４号,,13,104,1690072,,,2022-01-25,登記官による閉鎖,,,2015-10-05,1,,,,,,0
2571,9011101056310,登記記録の閉鎖等,0,2022-01-25,2022-01-25,株式会社アレックス,,株式会社,東京都,新宿区,三栄町８番地３７,,13,104,1600008,,,2022-01-25,登記官による閉鎖,,,2015-10-05,1,,,,,,0
2572,9011101057746,登記記録の閉鎖等,0,2022-01-25,2022-01-25,株式会社フジ広スターツ,,株式会社,東京都,新宿区,西新宿７丁目１７番１４号,,13,104,1600023,,,2022-01-25,登記官による閉鎖,,,2015-10-05,1,,,,,,0
2573,9011101058125,登記記録の閉鎖等,0,2022-01-25,2022-01-25,株式会社亜十夢,,株式会社,東京都,新宿区,新宿３丁目８番９号平生ビル４階,,13,104,1600022,,,2022-01-25,登記官による閉鎖,,,2015-10-05,1,,,,,,0
2574,9011101060510,登記記録の閉鎖等,0,2022-01-25,2022-01-25,ジェイアイティー株式会社,,株式会社,東京都,新宿区,下宮比町２番２８,,13,104,1620822,,,2022-01-25,登記官による閉鎖,,,2015-10-05,1,,,,,,0
2575,9011101072976,登記記録の閉鎖等,0,2022-01-25,2022-01-14,サクサシステムアメージング株式会社,,株式会社,東京都,新宿区,西新宿１丁目１９番５号第二明宝ビル,,13,104,1600023,,,2022-01-14,合併による解散等,4010401060019,令和４年１月１日東京都港区白金一丁目１７番３号ＮＢＦプラチナタワーサクサ株式会社（4010401060019）に合併し解散,2015-10-05,1,,,,,サクサシステムアメージング,0
2580,9011102027616,登記記録の閉鎖等,0,2022-01-25,2022-01-25,有限会社てん,,有限会社,東京都,新宿区,神楽坂２丁目１２番地１,,13,104,1620825,,,2022-01-25,登記官による閉鎖,,,2015-10-05,1,,,,,,0
2582,9011105000297,登記記録の閉鎖等,0,2022-01-25,2022-01-25,社団法人編物友の会,,その他の設立登記法人,東京都,新宿区,新宿１丁目８番１１号旭新宿ビル２０１号,,13,104,1600022,,,2022-01-25,登記官による閉鎖,,,2015-10-05,1,,,,,,0
2585,9011301006379,登記記録の閉鎖等,0,2022-01-25,2022-01-25,平成グリーン企画株式会社,,株式会社,東京都,杉並区,桃井１丁目３５番１８号,,13,115,1670034,,,2022-01-25,登記官による閉鎖,,,2015-10-05,1,,,,,,0
2586,9011301007294,登記記録の閉鎖等,0,2022-01-25,2022-01-25,株式会社宥光建材,,株式会社,東京都,杉並区,和田２丁目３９番６号,,13,115,1660012,,,2022-01-25,登記官による閉鎖,,,2015-10-05,1,,,,,,0
2587,9011301007939,登記記録の閉鎖等,0,2022-01-25,2022-01-25,アプレ株式会社,,株式会社,東京都,杉並区,西荻南２丁目１９番１０号,,13,115,1670053,,,2022-01-25,登記官による閉鎖,,,2015-10-05,1,,,,,,0
2588,9011302002121,登記記録の閉鎖等,0,2022-01-25,2022-01-25,有限会社尾張屋,,有限会社,東京都,杉並区,上井草４丁目３番７号,,13,115,1670023,,,2022-01-25,登記官による閉鎖,,,2015-10-05,1,,,,,,0
2589,9011302003805,登記記録の閉鎖等,0,2022-01-25,2022-01-25,有限会社才賀京子事務所,,有限会社,東京都,杉並区,荻窪５丁目２７番６号,,13,115,1670051,,,2022-01-25,登記官による閉鎖,,,2015-10-05,1,,,,,,0
2590,9011302004555,登記記録の閉鎖等,0,2022-01-25,2022-01-25,有限会社シチコウ,,有限会社,東京都,杉並区,阿佐谷北５丁目４８番６号,,13,115,1660001,,,2022-01-25,登記官による閉鎖,,,2015-10-05,1,,,,,,0
2591,9011302005181,登記記録の閉鎖等,0,2022-01-25,2022-01-25,有限会社杉並レッカー,,有限会社,東京都,杉並区,阿佐谷北３丁目３５番６号,,13,115,1660001,,,2022-01-25,登記官による閉鎖,,,2015-10-05,1,,,,,,0
2615,9020002047293,登記記録の閉鎖等,0,2022-01-25,2022-01-20,有限会社磯子カワサキ販売,,有限会社,神奈川県,横浜市磯子区,洋光台６丁目２０番４号,,14,107,2350045,,,2022-01-20,清算の結了等,,,2015-10-05,1,,,,,,0
2643,9040001008831,登記記録の閉鎖等,0,2022-01-25,2022-01-19,東和精機株式会社,,株式会社,千葉県,千葉市中央区,矢作町９９１番地の１６０,,12,101,2600851,,,2022-01-19,清算の結了等,,,2015-10-05,1,,,,,トウワセイキ,0
2652,9040001111313,登記記録の閉鎖等,0,2022-01-25,2022-01-17,株式会社ＳＫＰコンサルタンツ,,株式会社,千葉県,千葉市美浜区,高洲３丁目５番３棟１１０６号,,12,106,2610004,,,2022-01-17,清算の結了等,,,2019-11-01,1,,,,,エスケイピーコンサルタンツ,0
2653,9040001115215,登記記録の閉鎖等,0,2022-01-25,2022-01-21,ＮＳ工業株式会社,,株式会社,埼玉県,越谷市,東町３丁目８番地２,,11,222,3430826,,,2022-01-21,清算の結了等,,,2020-10-07,1,,,,,エヌエスコウギョウ,0
2655,9040003015339,登記記録の閉鎖等,0,2022-01-25,2022-01-18,合同会社チャーコ,,合同会社,千葉県,柏市,高柳１５１４番地１３プリムローズ１０２号,,12,217,2770941,,,2022-01-18,清算の結了等,,,2020-05-11,1,,,,,チャーコ,0
2657,9050001006719,登記記録の閉鎖等,0,2022-01-25,2022-01-24,株式会社久保商店,,株式会社,茨城県,ひたちなか市,大字馬渡町１１４１番地,,08,221,3120012,,,2022-01-24,清算の結了等,,,2015-10-05,1,,,,,クボショウテン,0
2663,9050002033043,登記記録の閉鎖等,0,2022-01-25,2022-01-20,有限会社岡野,,有限会社,茨城県,龍ケ崎市,３９９５番地,,08,208,3010000,,,2022-01-20,清算の結了等,,,2015-10-05,1,,,,,オカノ,0
2664,9050005007465,登記記録の閉鎖等,0,2022-01-25,2022-01-14,農事組合法人高原牧場組合,,その他の設立登記法人,茨城県,日立市,十王町高原字奥撫国有林１７５イ,,08,202,3191305,,,2022-01-14,清算の結了等,,,2015-10-05,1,,,,,タカハラボクジョウクミアイ,0
2665,9060001016535,登記記録の閉鎖等,0,2022-01-25,2022-01-18,株式会社ソラ,,株式会社,栃木県,栃木市,樋ノ口町４４４番地１,,09,203,3280024,,,2022-01-18,清算の結了等,,,2015-10-05,1,,,,,ソラ,0
2669,9060002002971,登記記録の閉鎖等,0,2022-01-25,2022-01-18,有限会社川上商店,,有限会社,栃木県,宇都宮市,上戸祭町３０６５番地２０,,09,201,3200051,,,2022-01-18,清算の結了等,,,2015-10-05,1,,,,,カワカミショウテン,0
2682,9100002017164,登記記録の閉鎖等,0,2022-01-25,2022-01-20,有限会社信濃技建,,有限会社,長野県,飯山市,大字飯山２１６２番地１,,20,213,3892253,,,2022-01-20,清算の結了等,,,2015-10-05,1,,,,,シナノギケン,0
2686,9120001086638,登記記録の閉鎖等,0,2022-01-25,2022-01-19,株式会社日経大阪総合サービス,,株式会社,大阪府,大阪市中央区,高麗橋１丁目４番２号,,27,128,5410043,,,2022-01-19,合併による解散等,1010001115101,令和４年１月１日東京都千代田区内神田一丁目６番１０号株式会社日経プラザ＆サービス（1010001115101）に合併し解散,2015-10-05,1,,,,,ニッケイオオサカソウゴウサービス,0
2710,9140001044742,登記記録の閉鎖等,0,2022-01-25,2022-01-20,株式会社建部電気工事,,株式会社,兵庫県,加古川市,別府町新野辺北町２丁目８６番地の２,,28,210,6750121,,,2022-01-20,清算の結了等,,,2015-10-05,1,,,,,タテベデンキコウジ,0
2735,9180002078703,登記記録の閉鎖等,0,2022-01-25,2022-01-21,有限会社アウトバックデンタルラボ,,有限会社,愛知県,一宮市,奥町字甚四前３１番地,,23,203,4910201,,,2022-01-21,清算の結了等,,,2015-10-05,1,,,,,アウトバックデンタルラボ,0
2740,9180302002981,登記記録の閉鎖等,0,2022-01-25,2022-01-21,有限会社美濃屋呉服店,,有限会社,愛知県,岡崎市,能見町９７番地１,,23,202,4440061,,,2022-01-21,清算の結了等,,,2015-10-05,1,,,,,ミノヤゴフクテン,0
2745,9190002007223,登記記録の閉鎖等,0,2022-01-25,2022-01-21,有限会社森本工務店,,有限会社,三重県,鈴鹿市,加佐登４丁目３０番１２号,,24,207,5130004,,,2022-01-21,清算の結了等,,,2015-10-05,1,,,,,モリモトコウムテン,0
2754,9240001000883,登記記録の閉鎖等,0,2022-01-25,2022-01-24,株式会社いづみ服地店,,株式会社,広島県,広島市南区,皆実町５丁目１番３９号,,34,103,7340007,,,2022-01-24,登記官による閉鎖,,,2015-10-05,1,,,,,,0
2755,9240001004141,登記記録の閉鎖等,0,2022-01-25,2022-01-24,株式会社サザンセトツーリスト,,株式会社,広島県,広島市西区,南観音町８番４６－６号,,34,104,7330034,,,2022-01-24,登記官による閉鎖,,,2015-10-05,1,,,,,,0
2756,9240001008761,登記記録の閉鎖等,0,2022-01-25,2022-01-24,バイソク株式会社,,株式会社,広島県,広島市中区,平野町３番４号,,34,101,7300047,,,2022-01-24,登記官による閉鎖,,,2015-10-05,1,,,,,,0
2757,9240001008877,登記記録の閉鎖等,0,2022-01-25,2022-01-24,浜正建設株式会社,,株式会社,広島県,広島市中区,南竹屋町６番１５号,,34,101,7300049,,,2022-01-24,登記官による閉鎖,,,2015-10-05,1,,,,,,0
2758,9240001010940,登記記録の閉鎖等,0,2022-01-25,2022-01-24,株式会社間下工務店,,株式会社,広島県,広島市安佐南区,山本新町１丁目１０番５号,,34,105,7310139,,,2022-01-24,登記官による閉鎖,,,2015-10-05,1,,,,,,0
2759,9240001012656,登記記録の閉鎖等,0,2022-01-25,2022-01-24,株式会社レオコーポレーション,,株式会社,広島県,広島市中区,富士見町１番１号,,34,101,7300043,,,2022-01-24,登記官による閉鎖,,,2015-10-05,1,,,,,,0
2760,9240001021228,登記記録の閉鎖等,0,2022-01-25,2022-01-24,株式会社かわずや,,株式会社,広島県,広島市東区,牛田早稲田１丁目２１番１０号,,34,102,7320062,,,2022-01-24,登記官による閉鎖,,,2015-10-05,1,,,,,,0
2761,9240001021236,登記記録の閉鎖等,0,2022-01-25,2022-01-24,株式会社センシルクリエイト,,株式会社,広島県,広島市安佐北区,可部２丁目２７番７号,,34,106,7310221,,,2022-01-24,登記官による閉鎖,,,2015-10-05,1,,,,,,0
2762,9240001022028,登記記録の閉鎖等,0,2022-01-25,2022-01-24,Ｍファーム広島株式会社,,株式会社,広島県,広島市中区,大手町５丁目７番１０－６０１号,,34,101,7300051,,,2022-01-24,登記官による閉鎖,,,2015-10-05,1,,,,,,0
2763,9240001022390,登記記録の閉鎖等,0,2022-01-25,2022-01-24,岩本建設株式会社,,株式会社,広島県,東広島市,西条町助実１８４１番地,,34,212,7390021,,,2022-01-24,登記官による閉鎖,,,2015-10-05,1,,,,,,0
2764,9240001038544,登記記録の閉鎖等,0,2022-01-25,2022-01-24,株式会社松葉屋,,株式会社,広島県,尾道市,東則末町３番１４号,,34,205,7220023,,,2022-01-24,登記官による閉鎖,,,2015-10-05,1,,,,,,0
2765,9240001049938,登記記録の閉鎖等,0,2022-01-25,2022-01-24,株式会社紀川商店,,株式会社,広島県,広島市中区,本川町１丁目１番１７号,,34,101,7300802,,,2022-01-24,登記官による閉鎖,,,2016-09-15,1,,,,,,0
2766,9240002005072,登記記録の閉鎖等,0,2022-01-25,2022-01-24,有限会社クリエートライン,,有限会社,広島県,広島市西区,井口３丁目１９番３号,,34,104,7330842,,,2022-01-24,登記官による閉鎖,,,2015-10-05,1,,,,,,0
2767,9240002006450,登記記録の閉鎖等,0,2022-01-25,2022-01-24,有限会社サンアイ,,有限会社,広島県,広島市安佐南区,古市１丁目３４番７号,,34,105,7310123,,,2022-01-24,登記官による閉鎖,,,2015-10-05,1,,,,,,0
2768,9240002012969,登記記録の閉鎖等,0,2022-01-25,2022-01-24,有限会社広島テクノス,,有限会社,広島県,広島市安佐南区,沼田町大字吉山８４８番地４６,,34,105,7313272,,,2022-01-24,登記官による閉鎖,,,2015-10-05,1,,,,,,0
2769,9240002014180,登記記録の閉鎖等,0,2022-01-25,2022-01-24,有限会社アカウティング,,有限会社,広島県,広島市中区,宝町９番２７号,,34,101,7300044,,,2022-01-24,登記官による閉鎖,,,2015-10-05,1,,,,,,0
2770,9240002017332,登記記録の閉鎖等,0,2022-01-25,2022-01-24,有限会社山根薬局,,有限会社,広島県,広島市東区,戸坂山根１丁目２番８号,,34,102,7320002,,,2022-01-24,清算の結了等,,,2015-10-05,1,,,,,ヤマネヤッキョク,0
2771,9240002022539,登記記録の閉鎖等,0,2022-01-25,2022-01-24,有限会社シンボリ,,有限会社,広島県,広島市安佐北区,白木町大字三田７３５４番地,,34,106,7391521,,,2022-01-24,登記官による閉鎖,,,2015-10-05,1,,,,,,0
2772,9240002033239,登記記録の閉鎖等,0,2022-01-25,2022-01-24,有限会社高倉鉄工所,,有限会社,広島県,呉市,阿賀南７丁目６番３１号,,34,202,7370004,,,2022-01-24,登記官による閉鎖,,,2015-10-05,1,,,,,,0
2773,9240002033949,登記記録の閉鎖等,0,2022-01-25,2022-01-24,有限会社フリーポート,,有限会社,広島県,呉市,焼山中央１丁目１０番３号,,34,202,7370935,,,2022-01-24,登記官による閉鎖,,,2015-10-05,1,,,,,,0
2774,9240002034575,登記記録の閉鎖等,0,2022-01-25,2022-01-24,有限会社小早川工務店,,有限会社,広島県,呉市,蒲刈町向２７４７番地,,34,202,7370311,,,2022-01-24,登記官による閉鎖,,,2015-10-05,1,,,,,,0
2775,9240002035805,登記記録の閉鎖等,0,2022-01-25,2022-01-24,有限会社御堂岡呉服店,,有限会社,広島県,江田島市,能美町中町２４０４番地の１,,34,215,7372301,,,2022-01-24,登記官による閉鎖,,,2015-10-05,1,,,,,,0
2776,9240002038031,登記記録の閉鎖等,0,2022-01-25,2022-01-24,有限会社ふくやま,,有限会社,広島県,廿日市市,宮島口上２丁目１６番１５号,,34,213,7390413,,,2022-01-24,登記官による閉鎖,,,2015-10-05,1,,,,,,0
2777,9240002039847,登記記録の閉鎖等,0,2022-01-25,2022-01-24,有限会社小川建設,,有限会社,広島県,福山市,北吉津町３丁目１２番２３号,,34,207,7200073,,,2022-01-24,登記官による閉鎖,,,2015-10-05,1,,,,,,0
2778,9240002040045,登記記録の閉鎖等,0,2022-01-25,2022-01-24,有限会社叶不動産サービス,,有限会社,広島県,福山市,南手城町３丁目９番１８号,,34,207,7210963,,,2022-01-24,登記官による閉鎖,,,2015-10-05,1,,,,,,0
2780,9240002046488,登記記録の閉鎖等,0,2022-01-25,2022-01-24,有限会社タカハシ,,有限会社,広島県,福山市,神辺町大字川南２９０６番地の１１,,34,207,7202124,,,2022-01-24,登記官による閉鎖,,,2015-10-05,1,,,,,,0
2781,9240002047131,登記記録の閉鎖等,0,2022-01-25,2022-01-24,有限会社三光教育研究会,,有限会社,広島県,府中市,府中町５０番地の２,,34,208,7260005,,,2022-01-24,登記官による閉鎖,,,2015-10-05,1,,,,,,0
2782,9240002048220,登記記録の閉鎖等,0,2022-01-25,2022-01-24,有限会社シグマ企画,,有限会社,広島県,安芸郡坂町,坂東１丁目１０番１５号,,34,309,7314313,,,2022-01-24,登記官による閉鎖,,,2015-10-05,1,,,,,,0
2783,9240002049425,登記記録の閉鎖等,0,2022-01-25,2022-01-24,大沢建設有限会社,,有限会社,広島県,竹原市,東野町２０４１番地９,,34,203,7250004,,,2022-01-24,登記官による閉鎖,,,2015-10-05,1,,,,,,0
2784,9240002051265,登記記録の閉鎖等,0,2022-01-25,2022-01-24,有限会社平住建設,,有限会社,広島県,尾道市,長江３丁目３２番１０号,,34,205,7220046,,,2022-01-24,登記官による閉鎖,,,2015-10-05,1,,,,,,0
2787,9240005006415,登記記録の閉鎖等,0,2022-01-25,2022-01-24,特定非営利活動法人呉聖隷福祉会,,その他の設立登記法人,広島県,呉市,焼山本庄２丁目９番６号,,34,202,7370912,,,2022-01-24,登記官による閉鎖,,,2015-10-05,1,,,,,,0
2788,9240005011563,登記記録の閉鎖等,0,2022-01-25,2022-01-24,備後木材協同組合,,その他の設立登記法人,広島県,世羅郡世羅町,大字本郷６９８番地の１,,34,462,7221112,,,2022-01-24,登記官による閉鎖,,,2015-10-05,1,,,,,,0
2789,9240005014161,登記記録の閉鎖等,0,2022-01-25,2022-01-24,向島東村農業會,00106713,その他の設立登記法人,広島県,尾道市,向東町（御調郡向島東村８８８０番地）,,34,205,7220062,,,2022-01-24,登記官による閉鎖,,,2016-05-18,1,,,,,,0
2791,9250002011887,登記記録の閉鎖等,0,2022-01-25,2022-01-21,有限会社民団小月支部会館,,有限会社,山口県,下関市,小月京泊１５４７番地の１５,,35,201,7501134,,,2022-01-21,清算の結了等,,,2015-10-05,1,,,,,ミンダンオヅキシブカイカン,0
2805,9290801012685,登記記録の閉鎖等,0,2022-01-25,2022-01-17,北九テクノ株式会社,,株式会社,福岡県,北九州市若松区,花野路３丁目１６番９号,,40,103,8080136,,,2022-01-17,清算の結了等,,,2015-10-05,1,,,,,キタキュウテクノ,0
2830,9420001009956,登記記録の閉鎖等,0,2022-01-25,2022-01-24,株式会社三福製麺,,株式会社,青森県,黒石市,大字浜町７５番地,,02,204,0360378,,,2022-01-24,清算の結了等,,,2015-10-05,1,,,,,,0
2835,9430002001556,登記記録の閉鎖等,0,2022-01-25,2022-01-21,有限会社伊勢建商,,有限会社,北海道,札幌市東区,東苗穂十四条３丁目１番６－１１０号,,01,103,0070814,,,2022-01-21,清算の結了等,,,2015-10-05,1,,,,,イセケンショウ,0
2836,9430005003566,登記記録の閉鎖等,0,2022-01-25,2022-01-20,医療法人社団中村医院,,その他の設立登記法人,北海道,札幌市東区,北二十四条東１７丁目１番１９号,,01,103,0650024,,,2022-01-20,清算の結了等,,,2015-10-05,1,,,,,ナカムライイン,0
