sequenceNumber,corporateNumber,process,correct,updateDate,changeDate,name,nameImageId,kind,prefectureName,cityName,streetNumber,addressImageId,prefectureCode,cityCode,postCode,addressOutside,addressOutsideImageId,closeDate,closeCause,successorCorporateNumber,changeCause,assignmentDate,latest,enName,enPrefectureName,enCityName,enAddressOutside,furigana,hihyoji
5,1010001241558,新規,0,2024-01-19,2024-01-19,株式会社クエスト・シイ,,株式会社,東京都,千代田区,紀尾井町４番１号,,13,101,1020094,,,,,,,2024-01-19,1,,,,,クエストシイ,0
6,1010001241566,新規,0,2024-01-19,2024-01-19,株式会社ＳｍａｒｔＳｔｅｐ,,株式会社,東京都,文京区,湯島１丁目２番１２－９０９号,,13,105,1130034,,,,,,,2024-01-19,1,,,,,スマートステップ,0
7,1010001241574,新規,0,2024-01-19,2024-01-19,ＢＩＣ　Ｇｒｏｕｐ　Ｈｏｌｄｉｎｇｓ株式会社,,株式会社,東京都,千代田区,丸の内３丁目４番１号新国際ビル４階,,13,101,1000005,,,,,,,2024-01-19,1,,,,,ビーアイシーグループホールディングス,0
8,1010001241590,新規,0,2024-01-19,2024-01-19,株式会社Ｒｅｇｉｏｎ＆Ｓｔｒａｔｅｇｙ,,株式会社,東京都,千代田区,丸の内３丁目１－１,,13,101,1000005,,,,,,,2024-01-19,1,,,,,リージョンアンドストラテジー,0
9,1010001241640,新規,0,2024-01-19,2024-01-19,株式会社ＭＹＴ,,株式会社,東京都,千代田区,神田和泉町１番地６－１６ヤマトビル４０５,,13,101,1010024,,,,,,,2024-01-19,1,,,,,エムワイティー,0
14,1010005037705,新規,0,2024-01-19,2024-01-19,一般社団法人次世代技術研究所,,その他の設立登記法人,東京都,千代田区,内神田１丁目３番７号４０１,,13,101,1010047,,,,,,,2024-01-19,1,,,,,,0
16,1010105002245,新規,0,2024-01-19,2024-01-19,一般財団法人資産運用管理協会,,その他の設立登記法人,東京都,八王子市,散田町３丁目２０番１９号,,13,201,1930832,,,,,,,2024-01-19,1,,,,,シサンウンヨウカンリキョウカイ,0
28,1010401179852,新規,0,2024-01-19,2024-01-19,株式会社Ｄｉｖｅｒｓｉｔｙ　Ｐａｒｔｎｅｒｓ,,株式会社,東京都,港区,元赤坂１丁目２番１７号赤坂Ｋタワーレジデンス２９０８,,13,103,1070051,,,,,,,2024-01-19,1,,,,,ダイバーシティパートナーズ,0
36,1010405022884,新規,0,2024-01-19,2024-01-19,Ａｌｔａ特定目的会社,,その他の設立登記法人,東京都,港区,西新橋１丁目１番１号ＥＰコンサルティングサービス内,,13,103,1050003,,,,,,,2024-01-19,1,,,,,アルタ,0
37,1010501051639,新規,0,2024-01-19,2024-01-19,Ｇｅｎｍｉｎｄｕｓ株式会社,,株式会社,東京都,台東区,北上野２丁目２５番７号利達ビル２０５,,13,106,1100014,,,,,,,2024-01-19,1,,,,,ゲンミンダス,0
38,1010501051647,新規,0,2024-01-19,2024-01-19,双霖株式会社,,株式会社,東京都,台東区,台東３丁目１３－１２蔵前ハイム２０４－２,,13,106,1100016,,,,,,,2024-01-19,1,,,,,ソウリン,0
43,1010603010591,新規,0,2024-01-19,2024-01-19,Ｔｉｇｒｅ　ｆａｍ合同会社,,合同会社,東京都,墨田区,千歳１丁目５－１８－８０３,,13,107,1300025,,,,,,,2024-01-19,1,,,,,ティグレファム,0
44,1010605004278,新規,0,2024-01-19,2024-01-19,特定非営利活動法人Ｒａｐｙｕｔａ　Ｆｏｕｎｄａｔｉｏｎ,,その他の設立登記法人,東京都,江東区,木場５丁目８番４０号,,13,108,1350042,,,,,,,2024-01-19,1,,,,,ラピュタファウンデーション,0
48,1010801034707,新規,0,2024-01-19,2024-01-19,リプリト科技精工株式会社,,株式会社,東京都,大田区,西蒲田８丁目１番１２号ロイヤルハイツ都南８０２,,13,111,1440051,,,,,,,2024-01-19,1,,,,,リプリトカギセイコウ,0
58,1010901054547,新規,0,2024-01-19,2024-01-19,竹アソートセルパーズ株式会社,,株式会社,東京都,世田谷区,松原３丁目３８番３号,,13,112,1560043,,,,,,,2024-01-19,1,,,,,タケアソートセルパーズ,0
67,1011001159451,新規,0,2024-01-19,2024-01-19,株式会社Ｌｉｆｅ　Ｓｅｃｕｒｉｔｙ,,株式会社,東京都,渋谷区,神宮前６丁目２９番４号原宿Ｋｏｍｉｙａビル６階,,13,113,1500001,,,,,,,2024-01-19,1,,,,,ライフセキュリティ,0
68,1011001159518,新規,0,2024-01-19,2024-01-19,株式会社Ｉｔ’ｓ　ｍｅ　Ｐｌｕｓ,,株式会社,東京都,渋谷区,神泉町２０－２１クロスシー渋谷神泉ビル,,13,113,1500045,,,,,,,2024-01-19,1,,,,,イッツミープラス,0
76,1011101105850,新規,0,2024-01-19,2024-01-19,株式会社エヌケイユー,,株式会社,東京都,新宿区,市谷台町６番３号,,13,104,1620066,,,,,,,2024-01-19,1,,,,,エヌケイユー,0
77,1011101105859,新規,0,2024-01-19,2024-01-19,株式会社レフトフィールド,,株式会社,東京都,新宿区,西新宿３丁目３番１３号西新宿水間ビル２Ｆ,,13,104,1600023,,,,,,,2024-01-19,1,,,,,レフトフィールド,0
78,1011101105867,新規,0,2024-01-19,2024-01-19,ＣｒｅａＦｏｒ株式会社,,株式会社,東京都,新宿区,西新宿３丁目３番１３号西新宿水間ビル６階,,13,104,1600023,,,,,,,2024-01-19,1,,,,,クレアフォー,0
79,1011101105883,新規,0,2024-01-19,2024-01-19,株式会社バリトス,,株式会社,東京都,新宿区,西新宿３丁目３番１３号西新宿水間ビル６階,,13,104,1600023,,,,,,,2024-01-19,1,,,,,バリトス,0
80,1011203004281,新規,0,2024-01-19,2024-01-19,合同会社眞田園,,合同会社,東京都,中野区,東中野４丁目７番１１号ダイナフォート東中野１０７,,13,114,1640003,,,,,,,2024-01-19,1,,,,,サナダエン,0
81,1011301029305,新規,0,2024-01-19,2024-01-19,ヤザワ株式会社,,株式会社,東京都,杉並区,西荻南２丁目２３番１０－７０９号,,13,115,1670053,,,,,,,2024-01-19,1,,,,,ヤザワ,0
84,1011401025781,新規,0,2024-01-19,2024-01-19,山崎株式会社,,株式会社,東京都,板橋区,小茂根１丁目２５番１６号,,13,119,1730037,,,,,,,2024-01-19,1,,,,,ヤマザキ,0
87,1011601027470,新規,0,2024-01-19,2024-01-19,株式会社ｋｅｅｎｅｓｔ,,株式会社,東京都,練馬区,豊玉南２丁目２０－２コモンテラス２０１号室,,13,120,1760014,,,,,,,2024-01-19,1,,,,,キーネスト,0
90,1011801043656,新規,0,2024-01-19,2024-01-19,恵縁社株式会社,,株式会社,東京都,足立区,椿２丁目２６番１－４０９号,,13,121,1230871,,,,,,,2024-01-19,1,,,,,ケイエンシャ,0
91,1011801043664,新規,0,2024-01-19,2024-01-19,株式会社ＭＯ,,株式会社,東京都,葛飾区,金町２丁目２１番７－６０２号ライオンズヴィアーレ金町,,13,122,1250042,,,,,,,2024-01-19,1,,,,,モ,0
93,1012401041422,新規,0,2024-01-19,2024-01-19,株式会社ナガイビルディング,,株式会社,東京都,多摩市,一ノ宮１丁目２６番地の７,,13,224,2060002,,,,,,,2024-01-19,1,,,,,ナガイビルディング,0
96,1012701018038,新規,0,2024-01-19,2024-01-19,よりよい株式会社,,株式会社,東京都,小平市,学園西町１丁目１４番１３－５０５号,,13,211,1870045,,,,,,,2024-01-19,1,,,,,ヨリヨイ,0
97,1012801022914,新規,0,2024-01-19,2024-01-19,株式会社ＯＵＲ’ｓ,,株式会社,東京都,立川市,錦町２丁目１番３２号明代ビル２０２号室,,13,202,1900022,,,,,,,2024-01-19,1,,,,,アワーズ,0
99,1013301051916,新規,0,2024-01-19,2024-01-19,美＿株式会社,00133412,株式会社,東京都,豊島区,池袋本町１丁目２５－１４－３０１,,13,116,1700011,,,,,,,2024-01-19,1,,,,,ミエイ,0
123,1020001155377,新規,0,2024-01-19,2024-01-19,フェニックスサービス株式会社,,株式会社,神奈川県,川崎市宮前区,鷺沼４丁目１４番地１,,14,136,2160004,,,,,,,2024-01-19,1,,,,,フェニックスサービス,0
146,1020003025388,新規,0,2024-01-19,2024-01-19,合同会社ＭＹ,,合同会社,神奈川県,横浜市西区,浅間町１丁目４番地３,,14,103,2200072,,,,,,,2024-01-19,1,,,,,エムワイ,0
147,1020003025396,新規,0,2024-01-19,2024-01-19,合同会社ラッチケア,,合同会社,神奈川県,横浜市旭区,川島町１５８５番地２１,,14,112,2410011,,,,,,,2024-01-19,1,,,,,ラッチケア,0
150,1020005016261,新規,0,2024-01-19,2024-01-19,一般社団法人災害救命協会,,その他の設立登記法人,神奈川県,横浜市鶴見区,尻手１丁目４番４９号,,14,101,2300003,,,,,,,2024-01-19,1,,,,,サイガイキュウメイキョウカイ,0
159,1021001081258,新規,0,2024-01-19,2024-01-19,ＳＴＡＲＣ株式会社,,株式会社,神奈川県,相模原市緑区,下九沢６４２番地１,,14,151,2520134,,,,,,,2024-01-19,1,,,,,スターク,0
190,1030005021533,新規,0,2024-01-19,2024-01-19,一般社団法人ＳＯＵＴＨ　ＩＳＬＡＮＤ,,その他の設立登記法人,埼玉県,さいたま市西区,大字宝来１１４２番地３,,11,101,3310074,,,,,,,2024-01-19,1,,,,,サウスアイランド,0
199,1040001131748,新規,0,2024-01-19,2024-01-19,株式会社Ｓｔｅｌｌａ　ｗｏｒｋｓ,,株式会社,千葉県,浦安市,堀江１丁目２３番１号,,12,227,2790041,,,,,,,2024-01-19,1,,,,,ステラワークス,0
200,1040001131806,新規,0,2024-01-19,2024-01-19,ＳＥシステム株式会社,,株式会社,千葉県,鎌ケ谷市,くぬぎ山３丁目１２番１５号,,12,224,2730128,,,,,,,2024-01-19,1,,,,,エスイーシステム,0
201,1040001131814,新規,0,2024-01-19,2024-01-19,株式会社ファーム,,株式会社,千葉県,松戸市,松戸新田１６９番地,,12,207,2702241,,,,,,,2024-01-19,1,,,,,ファーム,0
202,1040001131847,新規,0,2024-01-19,2024-01-19,関口工務店株式会社,,株式会社,千葉県,船橋市,夏見２丁目６番２号,,12,204,2730865,,,,,,,2024-01-19,1,,,,,セキグチコウムテン,0
206,1040003024132,新規,0,2024-01-19,2024-01-19,合同会社由,,合同会社,千葉県,佐倉市,弥勒町１５番地２岩澤ハイツＢ棟１０２号,,12,212,2850038,,,,,,,2024-01-19,1,,,,,ユウ,0
207,1040003024140,新規,0,2024-01-19,2024-01-19,クオモマークス合同会社,,合同会社,千葉県,八千代市,緑が丘５丁目２番地２６,,12,221,2760049,,,,,,,2024-01-19,1,,,,,クオモマークス,0
209,1060001036747,新規,0,2024-01-19,2024-01-19,エム．アイ．レスポンス株式会社,,株式会社,栃木県,佐野市,山越町１９３番地７,,09,204,3270318,,,,,,,2024-01-19,1,,,,,エムアイレスポンス,0
214,1070001041291,新規,0,2024-01-19,2024-01-19,オフィスキートン株式会社,,株式会社,群馬県,太田市,浜町４９番１２号,,10,205,3730853,,,,,,,2024-01-19,1,,,,,オフィスキートン,0
215,1070001041300,新規,0,2024-01-19,2024-01-19,株式会社ｆｒｅｅｓｈａ,,株式会社,群馬県,伊勢崎市,連取町１６１３番地２,,10,204,3720812,,,,,,,2024-01-19,1,,,,,フリーシャ,0
244,1080401026957,新規,0,2024-01-19,2024-01-19,株式会社さすてな,,株式会社,静岡県,磐田市,二之宮１２９１番地,,22,211,4380074,,,,,,,2024-01-19,1,,,,,サステナ,0
257,1100001037138,新規,0,2024-01-19,2024-01-19,株式会社バンブーアンドウィル,,株式会社,長野県,木曽郡上松町,本町通り４丁目１番地２Ｆ,,20,422,3995602,,,,,,,2024-01-19,1,,,,,バンブーアンドウィル,0
261,1110001038110,新規,0,2024-01-19,2024-01-19,株式会社Ｃｉｅｌ,,株式会社,新潟県,新潟市西区,寺地１６５番地,,15,107,9501104,,,,,,,2024-01-19,1,,,,,シエル,0
274,1120001261438,新規,0,2024-01-19,2024-01-19,株式会社美月観光,,株式会社,大阪府,大阪市天王寺区,大道１丁目１１番２２－３０２号,,27,109,5430052,,,,,,,2024-01-19,1,,,,,ミツキカンコウ,0
275,1120001261462,新規,0,2024-01-19,2024-01-19,株式会社ＴＬメンテナンス,,株式会社,大阪府,大阪市北区,梅田１丁目２番２号大阪駅前第２ビル１２－１２,,27,127,5300001,,,,,,,2024-01-19,1,,,,,ティエルメンテナンス,0
276,1120001261495,新規,0,2024-01-19,2024-01-19,卓凝商貿株式会社,,株式会社,大阪府,大阪市生野区,林寺２丁目８番２号Ａ１０２,,27,116,5440023,,,,,,,2024-01-19,1,,,,,タクギョウショウボ,0
277,1120001261504,新規,0,2024-01-19,2024-01-19,ＢＴＣ株式会社,,株式会社,大阪府,大阪市東住吉区,杭全１丁目１７番１７号,,27,121,5460002,,,,,,,2024-01-19,1,,,,,ビーティーシー,0
278,1120001261512,新規,0,2024-01-19,2024-01-19,株式会社ｉｍａｃｏｏ,,株式会社,大阪府,大阪市福島区,福島７丁目１番１０号,,27,103,5530003,,,,,,,2024-01-19,1,,,,,アイマコー,0
279,1120001261545,新規,0,2024-01-19,2024-01-19,株式会社ＴＲＵＳＴＢＵＹ,,株式会社,大阪府,大阪市西区,立売堀１丁目４番２２－１２１７号,,27,106,5500012,,,,,,,2024-01-19,1,,,,,トラストバイ,0
282,1120003025634,新規,0,2024-01-19,2024-01-19,島屋興産合同会社,,合同会社,大阪府,大阪市此花区,四貫島２丁目７番３号,,27,104,5540014,,,,,,,2024-01-19,1,,,,,シマヤコウサン,0
283,1120003025667,新規,0,2024-01-19,2024-01-19,合同会社前田,,合同会社,大阪府,大阪市住之江区,中加賀屋１丁目４番１６－３０２,,27,125,5590017,,,,,,,2024-01-19,1,,,,,マエダ,0
284,1120003025691,新規,0,2024-01-19,2024-01-19,合同会社ワイズ,,合同会社,大阪府,大阪市東淀川区,東中島１丁目１７番５号,,27,114,5330033,,,,,,,2024-01-19,1,,,,,ワイズ,0
285,1120003025717,新規,0,2024-01-19,2024-01-19,合同会社ＮＶＮＧ,,合同会社,大阪府,大阪市中央区,島之内１丁目１６番２２号おおきに長堀橋鰻谷北サニーアパートメント１１０１,,27,128,5420082,,,,,,,2024-01-19,1,,,,,エヌブイエヌジー,0
287,1120005024106,新規,0,2024-01-19,2024-01-19,一般社団法人まごころ,,その他の設立登記法人,大阪府,枚方市,杉責谷１丁目５７４番２号,,27,210,5730116,,,,,,,2024-01-19,1,,,,,マゴコロ,0
290,1120101068915,新規,0,2024-01-19,2024-01-19,株式会社ハクマサ,,株式会社,大阪府,松原市,三宅中４丁目２０番１８号,,27,217,5800046,,,,,,,2024-01-19,1,,,,,ハクマサ,0
291,1120101068923,新規,0,2024-01-19,2024-01-19,株式会社ＭＥＤＩＴＡＴＩＯＮＳ,,株式会社,大阪府,堺市南区,茶山台３丁３６番１２号,,27,145,5900115,,,,,,,2024-01-19,1,,,,,メディテーションズ,0
294,1120901048645,新規,0,2024-01-19,2024-01-19,株式会社ＭＩＬＩＮＯＡ,,株式会社,大阪府,茨木市,中津町１６番３号第二辰巳ビル２階,,27,211,5670824,,,,,,,2024-01-19,1,,,,,ミリノア,0
295,1120903005000,新規,0,2024-01-19,2024-01-19,合同会社アロン,,合同会社,大阪府,吹田市,山田西３丁目３９番１号,,27,205,5650824,,,,,,,2024-01-19,1,,,,,アロン,0
301,1130001076166,新規,0,2024-01-19,2024-01-19,株式会社いづみ,,株式会社,京都府,京都市上京区,一条通浄福寺西入革堂之内町２９４－７,,26,102,6028299,,,,,,,2024-01-19,1,,,,,イヅミ,0
302,1130001076182,新規,0,2024-01-19,2024-01-19,株式会社ｃｏｌｏｒｓ,,株式会社,京都府,京都市左京区,下鴨宮崎町１１９番地１,,26,103,6060802,,,,,,,2024-01-19,1,,,,,カラーズ,0
312,1140001133040,新規,0,2024-01-19,2024-01-19,株式会社八栄住総,,株式会社,兵庫県,神戸市長田区,二葉町５丁目１番１－２１３号,,28,106,6530042,,,,,,,2024-01-19,1,,,,,ヤサカジュウソウ,0
313,1140001133049,新規,0,2024-01-19,2024-01-19,株式会社ＳｏｒａＣｏｎｓｕｌｔｉｎｇ,,株式会社,兵庫県,淡路市,釜口２１１８番地９,,28,226,6562334,,,,,,,2024-01-19,1,,,,,ソラコンサルティング,0
314,1140001133057,新規,0,2024-01-19,2024-01-19,株式会社ＣＡＲＲＹ．Ｊ,,株式会社,兵庫県,尼崎市,東園田町６丁目３３番地の１３,,28,202,6610953,,,,,,,2024-01-19,1,,,,,キャリージェイ,0
317,1140003020039,新規,0,2024-01-19,2024-01-19,合同会社平野商コンテナー運輸,,合同会社,兵庫県,豊岡市,但東町中山１６２－４,,28,209,6680345,,,,,,,2024-01-19,1,,,,,ヒラノショウコンテナーウンユ,0
319,1170001017975,新規,0,2024-01-19,2024-01-19,ＳＣＫ株式会社,,株式会社,和歌山県,和歌山市,加太１２８５番地,,30,201,6400103,,,,,,,2024-01-19,1,,,,,エスシーケー,0
328,1180001159817,新規,0,2024-01-19,2024-01-19,Ｋａｔｓｕ株式会社,,株式会社,愛知県,知多郡武豊町,字豊成３丁目８１番地３,,23,447,4702318,,,,,,,2024-01-19,1,,,,,カツ,0
329,1180001159841,新規,0,2024-01-19,2024-01-19,株式会社エレクル,,株式会社,愛知県,一宮市,大赤見字市場地下屋敷２８７８番地,,23,203,4910015,,,,,,,2024-01-19,1,,,,,エレクル,0
334,1180301038241,新規,0,2024-01-19,2024-01-19,株式会社ＫＭパートナーズ,,株式会社,愛知県,岡崎市,竜美東３丁目２番地２０,,23,202,4440878,,,,,,,2024-01-19,1,,,,,ケイエムパートナーズ,0
352,1200003006213,新規,0,2024-01-19,2024-01-19,ヒロコネクト合同会社,,合同会社,岐阜県,岐阜市,大福町９丁目１２番地,,21,201,5020934,,,,,,,2024-01-19,1,,,,,ヒロコネクト,0
360,1220001025782,新規,0,2024-01-19,2024-01-19,アップティー株式会社,,株式会社,石川県,金沢市,古府町南４５９番地,,17,201,9200363,,,,,,,2024-01-19,1,,,,,アップティー,0
370,1240003006498,新規,0,2024-01-19,2024-01-19,ＭＴＫ２Ｙ合同会社,,合同会社,広島県,広島市西区,三滝町１番７号,,34,104,7330005,,,,,,,2024-01-19,1,,,,,エムティーケイツーワイ,0
380,1290001104398,新規,0,2024-01-19,2024-01-19,株式会社ゆうび,,株式会社,福岡県,朝倉市,牛木７７番地３,,40,228,8380067,,,,,,,2024-01-19,1,,,,,ユウビ,0
381,1290001104423,新規,0,2024-01-19,2024-01-19,株式会社ライズクオリティー,,株式会社,福岡県,福岡市博多区,博多駅前１丁目２３番２号ＰａｒｋＦｒｏｎｔ博多駅前１丁目５Ｆ－Ｂ,,40,132,8120011,,,,,,,2024-01-19,1,,,,,ライズクオリティー,0
382,1290001104431,新規,0,2024-01-19,2024-01-19,株式会社ＡＮＤ,,株式会社,福岡県,福岡市早良区,西新１丁目１２番２３号１Ｆ,,40,137,8140002,,,,,,,2024-01-19,1,,,,,アンド,0
390,1290803004597,新規,0,2024-01-19,2024-01-19,合同会社Ｄ・Ｐ・Ｔ,,合同会社,福岡県,北九州市若松区,波打町７番１０号,,40,103,8080013,,,,,,,2024-01-19,1,,,,,ディーピーティー,0
397,1320001020237,新規,0,2024-01-19,2024-01-19,ハタノＨＤ株式会社,,株式会社,大分県,津久見市,大字千怒７５番地の２３,,44,207,8792401,,,,,,,2024-01-19,1,,,,,ハタノホールディングス,0
415,1360001033094,新規,0,2024-01-19,2024-01-19,株式会社岸美装,,株式会社,沖縄県,宜野湾市,野嵩１丁目４０番１号Ｎ－２ハウス２Ｆ,,47,205,9012203,,,,,,,2024-01-19,1,,,,,キシビソウ,0
419,1370003006452,新規,0,2024-01-19,2024-01-19,ＰＰカンパニー合同会社,,合同会社,宮城県,仙台市太白区,あすと長町４丁目２番３８－９０８号,,04,104,9820007,,,,,,,2024-01-19,1,,,,,ピーピーカンパニー,0
422,1380001034248,新規,0,2024-01-19,2024-01-19,福島シルクラボ株式会社,,株式会社,福島県,南相馬市,小高区本町１丁目５３番地,,07,212,9792124,,,,,,,2024-01-19,1,,,,,フクシマシルクラボ,0
426,1390003002193,新規,0,2024-01-19,2024-01-19,ＰＰＰＰ合同会社,,合同会社,山形県,米沢市,本町２丁目１－１２,,06,202,9920037,,,,,,,2024-01-19,1,,,,,ピーピーピーピー,0
434,1430001090913,新規,0,2024-01-19,2024-01-19,株式会社Ｒ．Ｃ,,株式会社,北海道,札幌市中央区,南四条西８丁目１番地４オクトブランシュ１４０６号,,01,101,0640804,,,,,,,2024-01-19,1,,,,,アールシー,0
435,1430003015777,新規,0,2024-01-19,2024-01-19,合同会社陽だまり,,合同会社,北海道,恵庭市,福住町２丁目２番２６,,01,231,0611447,,,,,,,2024-01-19,1,,,,,ヒダマリ,0
436,1430003015868,新規,0,2024-01-19,2024-01-19,合同会社ロータリーＮＹ,,合同会社,北海道,札幌市中央区,南二条西２０丁目２番３号ロータリー２０ビル,,01,101,0640802,,,,,,,2024-01-19,1,,,,,ロータリーエヌワイ,0
448,1700150116706,新規,0,2024-01-19,2024-01-19,湖北莉馨服飾有限公司,,外国会社等,,,,,,,,湖北省孝感市漢川市城隍鎮仙女大道川宇建材市場Ｂ－２,,,,,,2024-01-19,1,,,,,コホクリケイフクショクユウゲンコウシ,0
461,2010001241482,新規,0,2024-01-19,2024-01-19,瑞海実業株式会社,,株式会社,東京都,千代田区,岩本町１丁目１２番１１－５０１号,,13,101,1010032,,,,,,,2024-01-19,1,,,,,ズイカイジツギョウ,0
462,2010001241524,新規,0,2024-01-19,2024-01-19,ＫＷＰテクノロジー日本株式会社,,株式会社,東京都,千代田区,神田駿河台２丁目１１－７－２０４,,13,101,1010062,,,,,,,2024-01-19,1,,,,,ケーダブリューピーテクノロジーニホン,0
463,2010001241573,新規,0,2024-01-19,2024-01-19,株式会社ＡｎｙＣｏｎｎｅｃＴ,,株式会社,東京都,千代田区,神田和泉町１番地６－１６ヤマトビル４０５,,13,101,1010024,,,,,,,2024-01-19,1,,,,,エニーコネクト,0
464,2010001241581,新規,0,2024-01-19,2024-01-19,株式会社Ｈｏｍｅ　ｍｏｒｅ,,株式会社,東京都,千代田区,丸の内３丁目２番２号,,13,101,1000005,,,,,,,2024-01-19,1,,,,,ホームモア,0
465,2010001241607,新規,0,2024-01-19,2024-01-19,株式会社ＧＦ６,,株式会社,東京都,文京区,大塚３丁目２０番１号紅屋茗荷谷ビル６Ｆ,00133410,13,105,1120012,,,,,,,2024-01-19,1,,,,,ジーエフシックス,0
468,2010003042656,新規,0,2024-01-19,2024-01-19,合同会社ＬＯＫＴＯＦＥＩＴＯ,,合同会社,東京都,中央区,銀座１丁目１２番４号Ｎ＆ＥＢＬＤ．６Ｆ,,13,102,1040061,,,,,,,2024-01-19,1,,,,,ロクトフェイト,0
469,2010003042672,新規,0,2024-01-19,2024-01-19,合同会社嘉燿,,合同会社,東京都,中央区,銀座８丁目６－２０,,13,102,1040061,,,,,,,2024-01-19,1,,,,,カヨウ,0
470,2010003042697,新規,0,2024-01-19,2024-01-19,合同会社ＱｕＯｌｉａ,,合同会社,東京都,千代田区,神田錦町３丁目１５名鉄不動産竹橋ビル３Ｆ,,13,101,1010054,,,,,,,2024-01-19,1,,,,,クオリア,0
471,2010003042706,新規,0,2024-01-19,2024-01-19,合同会社Ｓａｐｐｈｉｒｅ２,,合同会社,東京都,中央区,八丁堀４丁目２番１０号ＡＯＪ税理士法人内,,13,102,1040032,,,,,,,2024-01-19,1,,,,,サファイアツー,0
472,2010003042714,新規,0,2024-01-19,2024-01-19,クライストーン合同会社,,合同会社,東京都,中央区,日本橋室町１丁目１１番１２号日本橋水野ビル７階,,13,102,1030022,,,,,,,2024-01-19,1,,,,,クライストーン,0
479,2010401179785,新規,0,2024-01-19,2024-01-19,株式会社Ｓｔａｒｐａｙ　Ｊａｐａｎ,,株式会社,東京都,港区,港南２丁目１６番１号品川イーストワンタワー４階,,13,103,1080075,,,,,,,2024-01-19,1,,,,,スターペイジャパン,0
480,2010401179810,新規,0,2024-01-19,2024-01-19,株式会社ネクサウェア,,株式会社,東京都,港区,港南２丁目１６番２号太陽生命品川ビル１７Ｆ,,13,103,1080075,,,,,,,2024-01-19,1,,,,,ネクサウェア,0
481,2010401179827,新規,0,2024-01-19,2024-01-19,株式会社Ｏｎｅ　Ｓａｍｕｒａｉ,,株式会社,東京都,港区,南青山３丁目１番３６号青山丸竹ビル６Ｆ,,13,103,1070062,,,,,,,2024-01-19,1,,,,,ワンサムライ,0
482,2010401179851,新規,0,2024-01-19,2024-01-19,桜花設計集団株式会社,,株式会社,東京都,港区,赤坂５丁目１番２６号サンライズ赤坂ビル２０２号室,,13,103,1070052,,,,,,,2024-01-19,1,,,,,オウカセッケイシュウダン,0
483,2010401179868,新規,0,2024-01-19,2024-01-19,株式会社ＣＯＭＥＮ,,株式会社,東京都,港区,北青山１丁目３番１号アールキューブ青山３階,,13,103,1070061,,,,,,,2024-01-19,1,,,,,コメン,0
489,2010501051621,新規,0,2024-01-19,2024-01-19,翔宇株式会社,,株式会社,東京都,台東区,東上野５丁目１８番１号上野アインスタワー１５０６,,13,106,1100015,,,,,,,2024-01-19,1,,,,,ショウウ,0
494,2010601064507,新規,0,2024-01-19,2024-01-19,知雲堂株式会社,,株式会社,東京都,墨田区,横川３丁目１番１号寺林ビル４０１号,,13,107,1300003,,,,,,,2024-01-19,1,,,,,チウンドウ,0
497,2010701045373,新規,0,2024-01-19,2024-01-19,Ｏｒｉｏｎ　Ｐｈａｒｍａ　ＪＰ株式会社,,株式会社,東京都,品川区,上大崎４丁目５番１８号目黒オーケービル４階,,13,109,1410021,,,,,,,2024-01-19,1,,,,,オリオンファーマジェイピー,0
498,2010701045415,新規,0,2024-01-19,2024-01-19,株式会社モーゼスビジネスソリューションズ,,株式会社,東京都,品川区,東大井２丁目１３番８号ケイヒン東大井ビル１０Ｆ,,13,109,1400011,,,,,,,2024-01-19,1,,,,,モーゼスビジネスソリューションズ,0
499,2010701045423,新規,0,2024-01-19,2024-01-19,株式会社ＨＵＮＴＩＮＧ,,株式会社,東京都,品川区,東五反田４丁目８番９号３階ＧＡＴＥＢＡＳＥ,,13,109,1410022,,,,,,,2024-01-19,1,,,,,ハンティング,0
509,2010901054546,新規,0,2024-01-19,2024-01-19,株式会社ＲＯＵＴＥ３３２１,,株式会社,東京都,世田谷区,玉川３丁目３２番１号,,13,112,1580094,,,,,,,2024-01-19,1,,,,,ルートサンサンニイチ,0
523,2011001159459,新規,0,2024-01-19,2024-01-19,Ｏｃｅａｎ　Ｖａｌｌｅｙ株式会社,,株式会社,東京都,渋谷区,幡ヶ谷１丁目１１番９－８０１号,,13,113,1510072,,,,,,,2024-01-19,1,,,,,オーシャンバレー,0
524,2011001159467,新規,0,2024-01-19,2024-01-19,株式会社ｐａｔｈ　ｏｆ　ｅａｓｅ,,株式会社,東京都,渋谷区,道玄坂１丁目１０番８号渋谷道玄坂東急ビル２Ｆ－Ｃ,,13,113,1500043,,,,,,,2024-01-19,1,,,,,パスオブイース,0
525,2011001159491,新規,0,2024-01-19,2024-01-19,株式会社ＴＲＩＣＡＬ,,株式会社,東京都,目黒区,青葉台４丁目５番２０号,,13,110,1530042,,,,,,,2024-01-19,1,,,,,トリカル,0
529,2011101105841,新規,0,2024-01-19,2024-01-19,啓航供應鏈株式会社,,株式会社,東京都,新宿区,榎町３４番地３榎町ビル７階２６室,,13,104,1620806,,,,,,,2024-01-19,1,,,,,ケイコウキョウオウレン,0
533,2011103013976,新規,0,2024-01-19,2024-01-19,日本森林アセット１号合同会社,,合同会社,東京都,新宿区,西新宿１丁目２３番７号,,13,104,1600023,,,,,,,2024-01-19,1,,,,,ニホンシンリンアセットイチゴウ,0
535,2011201025188,新規,0,2024-01-19,2024-01-19,ウェイ株式会社,,株式会社,東京都,中野区,野方４丁目２０番２号,,13,114,1650027,,,,,,,2024-01-19,1,,,,,ウェイ,0
536,2011301029279,新規,0,2024-01-19,2024-01-19,株式会社朱の月,,株式会社,東京都,杉並区,阿佐谷北１丁目２１番４５号,,13,115,1660001,,,,,,,2024-01-19,1,,,,,シュノツキ,0
537,2011301029320,新規,0,2024-01-19,2024-01-19,ユニオン・ミニエール株式会社,,株式会社,東京都,杉並区,高井戸東４丁目７番６号－６０２,,13,115,1680072,,,,,,,2024-01-19,1,,,,,ユニオンミニエール,0
538,2011403004238,新規,0,2024-01-19,2024-01-19,ＭＴ　ＧＲＯＵＰ合同会社,,合同会社,東京都,板橋区,板橋１丁目１３番１０号アーバンクレスト板橋３０７,,13,119,1730004,,,,,,,2024-01-19,1,,,,,エムティーグループ,0
539,2011501030202,新規,0,2024-01-19,2024-01-19,Ｍｒｏｏｍ株式会社,,株式会社,東京都,荒川区,西日暮里２丁目１１番２号,,13,118,1160013,,,,,,,2024-01-19,1,,,,,エムルーム,0
540,2011601027478,新規,0,2024-01-19,2024-01-19,株式会社武蔵野堂,,株式会社,東京都,練馬区,練馬１丁目２０番８号日建練馬ビル２Ｆ,,13,120,1760001,,,,,,,2024-01-19,1,,,,,ムサシノドウ,0
542,2011701026925,新規,0,2024-01-19,2024-01-19,株式会社の助ＳＵＰＰＬＹ,,株式会社,東京都,江戸川区,瑞江１丁目２３番１号,,13,123,1320011,,,,,,,2024-01-19,1,,,,,ノスケサプライ,0
544,2011801043655,新規,0,2024-01-19,2024-01-19,株式会社Ｔ．Ｗ．Ａ,,株式会社,東京都,足立区,中央本町２丁目２５番５号クレインパレス１０２号室,,13,121,1200011,,,,,,,2024-01-19,1,,,,,ティダブルエー,0
545,2011801043663,新規,0,2024-01-19,2024-01-19,株式会社硝陽,,株式会社,東京都,足立区,保木間４丁目４５番１０号,,13,121,1210064,,,,,,,2024-01-19,1,,,,,ショウヨウ,0
546,2011801043671,新規,0,2024-01-19,2024-01-19,聚儷源株式会社,,株式会社,東京都,葛飾区,東新小岩２丁目２８番１号,,13,122,1240023,,,,,,,2024-01-19,1,,,,,シュウレイゲン,0
549,2011805003333,新規,0,2024-01-19,2024-01-19,一般社団法人葛飾クエルボの会,,その他の設立登記法人,東京都,葛飾区,小菅２丁目２１番２０号プレシャスオパール１０５,,13,122,1240001,,,,,,,2024-01-19,1,,,,,カツシカクエルボノカイ,0
555,2013303006966,新規,0,2024-01-19,2024-01-19,ＪＫ　ＥＮＴＥＲＰＲＩＳＥ合同会社,,合同会社,東京都,豊島区,東池袋２丁目１３－３コーポ清和３０４,,13,116,1700013,,,,,,,2024-01-19,1,,,,,ジェイケイエンタープライズ,0
572,2020001155418,新規,0,2024-01-19,2024-01-19,ＭＦＤホールディングス株式会社,,株式会社,神奈川県,横浜市中区,日本大通６０朝日生命横浜ビル,,14,104,2310021,,,,,,,2024-01-19,1,,,,,エムエフディーホールディングス,0
604,2021001081249,新規,0,2024-01-19,2024-01-19,株式会社煌燿,,株式会社,神奈川県,相模原市南区,鵜野森２丁目２７番１３－１０８（鵜野森団地Ｍ）,,14,153,2520301,,,,,,,2024-01-19,1,,,,,コウヨウ,0
605,2021001081265,新規,0,2024-01-19,2024-01-19,Ｎａｔｕｒａｌ　Ｒｉｎｇ株式会社,,株式会社,神奈川県,相模原市南区,相模台３丁目５番１１号,,14,153,2520321,,,,,,,2024-01-19,1,,,,,ナチュラルリング,0
624,2021005013000,新規,0,2024-01-19,2024-01-19,一般社団法人ムハマディマスジェッド,,その他の設立登記法人,神奈川県,相模原市南区,麻溝台３４１１番地,,14,153,2520328,,,,,,,2024-01-19,1,,,,,ムハマディマスジェッド,0
639,2030003023456,新規,0,2024-01-19,2024-01-19,合同会社晴れわたる空,,合同会社,埼玉県,さいたま市桜区,西堀６丁目１番１４―２０７号,,11,106,3380832,,,,,,,2024-01-19,1,,,,,ハレワタルソラ,0
642,2040001131805,新規,0,2024-01-19,2024-01-19,株式会社ＲＥＶＩＶＡＬ,,株式会社,千葉県,千葉市中央区,星久喜町２１９－１－３０３,,12,101,2600808,,,,,,,2024-01-19,1,,,,,リバイバル,0
643,2040001131813,新規,0,2024-01-19,2024-01-19,株式会社デイドリーム,,株式会社,千葉県,東金市,押堀１５９番地,,12,213,2830065,,,,,,,2024-01-19,1,,,,,デイドリーム,0
644,2040001131821,新規,0,2024-01-19,2024-01-19,株式会社ＹＩホールディングス,,株式会社,千葉県,柏市,光ケ丘２丁目２３番７３号,,12,217,2770065,,,,,,,2024-01-19,1,,,,,ワイアイホールディングス,0
645,2040001131846,新規,0,2024-01-19,2024-01-19,株式会社ＣＸ,,株式会社,千葉県,四街道市,大日４２８番地７,,12,228,2840001,,,,,,,2024-01-19,1,,,,,シーエックス,0
652,2040003024123,新規,0,2024-01-19,2024-01-19,合同会社アイコ,,合同会社,千葉県,東金市,田間１丁目２２番１号東海東金ビルＩＩ１０１号,00133413,12,213,2830005,,,,,,,2024-01-19,1,,,,,アイコ,0
653,2040003024131,新規,0,2024-01-19,2024-01-19,ｍａｌｕ合同会社,,合同会社,千葉県,松戸市,松戸１５４０番地,,12,207,2710092,,,,,,,2024-01-19,1,,,,,マル,0
654,2040003024148,新規,0,2024-01-19,2024-01-19,合同会社ＵＬＭ,,合同会社,千葉県,柏市,東３丁目５番２５号,,12,217,2770014,,,,,,,2024-01-19,1,,,,,ウルム,0
659,2050003008075,新規,0,2024-01-19,2024-01-19,合同会社クライ,,合同会社,茨城県,北茨城市,華川町小豆畑２６１６－３モンパレスおけみ,,08,215,3191538,,,,,,,2024-01-19,1,,,,,クライ,0
661,2060003004874,新規,0,2024-01-19,2024-01-19,合同会社コロン,,合同会社,栃木県,小山市,大字土塔２３４番地６,,09,208,3230812,,,,,,,2024-01-19,1,,,,,コロン,0
663,2080101024483,新規,0,2024-01-19,2024-01-19,株式会社木内印刷,,株式会社,静岡県,沼津市,双葉町４番３号,,22,203,4100005,,,,,,,2024-01-19,1,,,,,キウチインサツ,0
702,2100003007360,新規,0,2024-01-19,2024-01-19,Ｏｌｅ　ＴＳＣＪ合同会社,,合同会社,長野県,松本市,浅間温泉１丁目２５番５号,,20,202,3900303,,,,,,,2024-01-19,1,,,,,オレティーエスシージェー,0
704,2110005017043,新規,0,2024-01-19,2024-01-19,特定非営利活動法人新潟トラウマ治療協会,,その他の設立登記法人,新潟県,新潟市中央区,花園１丁目４番６号,,15,103,9500086,,,,,,,2024-01-19,1,,,,,ニイガタトラウマチリョウキョウカイ,0
714,2120001261503,新規,0,2024-01-19,2024-01-19,株式会社Ｉｎｔｅｇｒｉｔｙ,,株式会社,大阪府,大阪市北区,梅田２丁目５番１３号,,27,127,5300001,,,,,,,2024-01-19,1,,,,,インテグリティ,0
715,2120001261511,新規,0,2024-01-19,2024-01-19,株式会社Ｃ‐ＢＡＳＥ,,株式会社,大阪府,大阪市北区,梅田１丁目２番２号大阪駅前第２ビル１２－１２,,27,127,5300001,,,,,,,2024-01-19,1,,,,,シーベース,0
716,2120001261528,新規,0,2024-01-19,2024-01-19,株式会社愉悦,,株式会社,大阪府,大阪市天王寺区,上本町７丁目２－２７ローレルコート上本町七丁目北館６０１号室,,27,109,5430001,,,,,,,2024-01-19,1,,,,,ユエツ,0
717,2120001261536,新規,0,2024-01-19,2024-01-19,株式会社Ｑｎｉｏ,,株式会社,大阪府,大阪市淀川区,十三東３丁目２０番２０号,,27,123,5320023,,,,,,,2024-01-19,1,,,,,クニオ,0
718,2120001261544,新規,0,2024-01-19,2024-01-19,株式会社アステムス,,株式会社,大阪府,大阪市淀川区,新高３丁目１番８－８０９号,,27,123,5320033,,,,,,,2024-01-19,1,,,,,アステムス,0
719,2120001261552,新規,0,2024-01-19,2024-01-19,株式会社明晃化成工業所,,株式会社,大阪府,大阪市平野区,加美北９丁目１２番６号,,27,126,5470001,,,,,,,2024-01-19,1,,,,,メイコウカセイコウギョウショ,0
722,2120005024105,新規,0,2024-01-19,2024-01-19,医療法人やまもと消化器クリニック,,その他の設立登記法人,大阪府,大阪市城東区,鴫野東３丁目４番１８号鴫野東あさひビル２階,,27,118,5360013,,,,,,,2024-01-19,1,,,,,ヤマモトショウカキクリニック,0
726,2120101068906,新規,0,2024-01-19,2024-01-19,株式会社ジープラススポーツ,,株式会社,大阪府,富田林市,喜志町５丁目１番２－１０１号,,27,214,5840005,,,,,,,2024-01-19,1,,,,,ジープラススポーツ,0
728,2120901048644,新規,0,2024-01-19,2024-01-19,株式会社Ｏｒａｎｇｅ　Ｆａｒｍ,,株式会社,大阪府,摂津市,東一津屋４番１０号,,27,224,5660074,,,,,,,2024-01-19,1,,,,,オレンジファーム,0
729,2120901048652,新規,0,2024-01-19,2024-01-19,エス・エフ・ディー株式会社,,株式会社,大阪府,茨木市,島４丁目２６番６号,,27,211,5670854,,,,,,,2024-01-19,1,,,,,エスエフディー,0
736,2130001076149,新規,0,2024-01-19,2024-01-19,４３ホールディングス株式会社,,株式会社,京都府,京都市南区,吉祥院這登東町１２番地,00133411,26,107,6018337,,,,,,,2024-01-19,1,,,,,ヨンサンホールディングス,0
737,2130001076198,新規,0,2024-01-19,2024-01-19,冒険計画株式会社,,株式会社,京都府,京都市中京区,小川通三条上る西堂町５０８番地,,26,104,6048274,,,,,,,2024-01-19,1,,,,,ボウケンケイカク,0
738,2130003009247,新規,0,2024-01-19,2024-01-19,Ｌｉｎｋｍｏｅｒ合同会社,,合同会社,京都府,京都市左京区,岩倉幡枝町１２３１番地,,26,103,6060015,,,,,,,2024-01-19,1,,,,,リンクムーア,0
748,2140001133015,新規,0,2024-01-19,2024-01-19,株式会社ＶＥＲＹ　ＶＥＲＹ,,株式会社,兵庫県,神戸市東灘区,住吉宮町４丁目４番１号ＫｉＬａＬａ住吉２Ｆ,,28,101,6580053,,,,,,,2024-01-19,1,,,,,ベリーベリー,0
749,2140001133023,新規,0,2024-01-19,2024-01-19,株式会社ＦＫ　ＢＡＳＥ,,株式会社,兵庫県,丹波市,氷上町市辺８２７－１,,28,223,6693461,,,,,,,2024-01-19,1,,,,,エフケーベース,0
750,2140001133031,新規,0,2024-01-19,2024-01-19,株式会社Ｌ．Ａ,,株式会社,兵庫県,西宮市,高松町８番２５－１４０２号,,28,204,6638204,,,,,,,2024-01-19,1,,,,,エルエー,0
753,2160005011264,新規,0,2024-01-19,2024-01-19,一般社団法人金融経済教育支援機構,,その他の設立登記法人,滋賀県,近江八幡市,十王町１１９７番地２６,,25,204,5230063,,,,,,,2024-01-19,1,,,,,キンユウケイザイキョウイクシエンキコウ,0
765,2180001159832,新規,0,2024-01-19,2024-01-19,株式会社つながり,,株式会社,愛知県,犬山市,大字善師野字三軒寺３番地６,,23,215,4840003,,,,,,,2024-01-19,1,,,,,ツナガリ,0
766,2180001159881,新規,0,2024-01-19,2024-01-19,株式会社ビジョンクリエイト,,株式会社,愛知県,名古屋市中区,丸の内３丁目１７－２９丸の内ｉａビル７Ｆ,,23,106,4600002,,,,,,,2024-01-19,1,,,,,ビジョンクリエイト,0
768,2180003026246,新規,0,2024-01-19,2024-01-19,合同会社ツインズ,,合同会社,愛知県,名古屋市西区,名駅１丁目１番１７号名駅ダイヤメイテツビル１１階,,23,104,4510045,,,,,,,2024-01-19,1,,,,,ツインズ,0
769,2180003026254,新規,0,2024-01-19,2024-01-19,合同会社ドラセナ,,合同会社,愛知県,名古屋市中区,富士見町１３－１９富士見町八木ビル４０６号,,23,106,4600014,,,,,,,2024-01-19,1,,,,,ドラセナ,0
770,2190003004556,新規,0,2024-01-19,2024-01-19,ＴＡＵＲＵＳ合同会社,,合同会社,三重県,松阪市,挽木町３４２番地伊藤ビル２２,,24,204,5150038,,,,,,,2024-01-19,1,,,,,トーラス,0
776,2200001042085,新規,0,2024-01-19,2024-01-19,ｗｉｔｈＨＯＭＥ　Ｇｉｆｕ株式会社,,株式会社,岐阜県,岐阜市,五反田町１０番地,,21,201,5008328,,,,,,,2024-01-19,1,,,,,ウィズホームギフ,0
785,2220003003661,新規,0,2024-01-19,2024-01-19,合同会社Ｃｔｍｙエージェント,,合同会社,石川県,金沢市,神田２丁目４番２４号,,17,201,9218027,,,,,,,2024-01-19,1,,,,,シーティーエムワイエージェント,0
798,2290001104389,新規,0,2024-01-19,2024-01-19,熹途貿易株式会社,,株式会社,福岡県,福岡市博多区,山王１丁目１番１５号ローズマンション山王５０４号,,40,132,8120015,,,,,,,2024-01-19,1,,,,,キトボウエキ,0
799,2290001104406,新規,0,2024-01-19,2024-01-19,株式会社Ｃｏｃｏ　Ｌｉｖｉｎｇ,,株式会社,福岡県,福岡市中央区,舞鶴３丁目１番３号,,40,133,8100073,,,,,,,2024-01-19,1,,,,,ココリビング,0
800,2290001104422,新規,0,2024-01-19,2024-01-19,株式会社筑計装,,株式会社,福岡県,筑紫野市,二日市北６丁目２０番１７号,,40,217,8180056,,,,,,,2024-01-19,1,,,,,チクケイソウ,0
801,2290001104447,新規,0,2024-01-19,2024-01-19,株式会社日本スクラム会,,株式会社,福岡県,福岡市博多区,博多駅前２丁目１７番１号,,40,132,8120011,,,,,,,2024-01-19,1,,,,,ニホンスクラムカイシン,0
804,2290803004596,新規,0,2024-01-19,2024-01-19,合同会社Ｔｉｐｏ,,合同会社,福岡県,北九州市若松区,鴨生田２丁目２番３２号,,40,103,8080105,,,,,,,2024-01-19,1,,,,,ティポ,0
816,2320001020236,新規,0,2024-01-19,2024-01-19,株式会社ｍ’ｓ,,株式会社,大分県,豊後大野市,三重町小坂３９６９番地１５２ベストプリモ２０２号,,44,212,8797104,,,,,,,2024-01-19,1,,,,,エムズ,0
820,2330001031678,新規,0,2024-01-19,2024-01-19,株式会社宇宙温泉,,株式会社,熊本県,熊本市中央区,呉服町２丁目５番地６（８０１号）,,43,101,8600035,,,,,,,2024-01-19,1,,,,,ウチュウオンセン,0
827,2330003010176,新規,0,2024-01-19,2024-01-19,合同会社Ｌｏｏｎｇ　Ｗａｈ　Ｍｏｔｏｒｓ　ＪＡＰＡＮ,,合同会社,熊本県,菊池郡大津町,大字大津９２０番地３１クラリスＡ２,,43,403,8691233,,,,,,,2024-01-19,1,,,,,ロンワーモータースジャパン,0
829,2340001026223,新規,0,2024-01-19,2024-01-19,株式会社クレオパール,,株式会社,鹿児島県,鹿児島市,呉服町２番８号,,46,201,8920826,,,,,,,2024-01-19,1,,,,,クレオパール,0
830,2340003004350,新規,0,2024-01-19,2024-01-19,Ｔｒｉｐｌｅ　Ｈ合同会社,,合同会社,鹿児島県,鹿児島市,西田３丁目１番７号ファミール城西４０１号,,46,201,8900046,,,,,,,2024-01-19,1,,,,,トリプルエイチ,0
832,2350003004548,新規,0,2024-01-19,2024-01-19,合同会社隼鑑定,,合同会社,宮崎県,児湯郡川南町,大字川南２９７９番地,,45,405,8891301,,,,,,,2024-01-19,1,,,,,ハヤブサカンテイ,0
841,2370001050848,新規,0,2024-01-19,2024-01-19,株式会社弘亜,,株式会社,宮城県,仙台市若林区,沖野３丁目１１番２４－１０５号,,04,103,9840831,,,,,,,2024-01-19,1,,,,,コウア,0
862,2430001090904,新規,0,2024-01-19,2024-01-19,株式会社さとう商店,,株式会社,北海道,伊達市,長和町８０９番地７０,,01,233,0520035,,,,,,,2024-01-19,1,,,,,サトウショウテン,0
863,2430003015859,新規,0,2024-01-19,2024-01-19,合同会社Ｎ３４,,合同会社,北海道,札幌市北区,北三十四条西４丁目２番２６－５０１号,,01,102,0010034,,,,,,,2024-01-19,1,,,,,エヌサンジュウヨン,0
864,2430003015867,新規,0,2024-01-19,2024-01-19,合同会社クロケン,,合同会社,北海道,札幌市東区,北丘珠五条１丁目５番１２号,,01,103,0070885,,,,,,,2024-01-19,1,,,,,クロケン,0
868,2470001019981,新規,0,2024-01-19,2024-01-19,ＫＩＡＫＵ株式会社,,株式会社,香川県,高松市,寿町２丁目２－１０高松寿町プライムビル４階,,37,201,7600023,,,,,,,2024-01-19,1,,,,,キアク,0
870,2480001012358,新規,0,2024-01-19,2024-01-19,株式会社なかがわファーム,,株式会社,徳島県,海部郡海陽町,大里字上中須４６番地６,,36,388,7750203,,,,,,,2024-01-19,1,,,,,ナカガワファーム,0
872,2490001010682,新規,0,2024-01-19,2024-01-19,株式会社ルルル,,株式会社,高知県,高知市,旭町２丁目２番地,,39,201,7800935,,,,,,,2024-01-19,1,,,,,ルルル,0
876,2500001025423,新規,0,2024-01-19,2024-01-19,丸徳貿易株式会社,,株式会社,愛媛県,四国中央市,金生町下分２１７８番地１,,38,213,7990111,,,,,,,2024-01-19,1,,,,,マルトクボウエキ,0
879,2700150116705,新規,0,2024-01-19,2024-01-19,上海富慧紡織品有限公司,,外国会社等,,,,,,,,上海市双陽路３０１号４５６,,,,,,2024-01-19,1,,,,,シャンハイフケイフクショクユウゲンコウシ,0
888,3010001241564,新規,0,2024-01-19,2024-01-19,株式会社Ｇｅｌ　Ｃｏａｔ　Ｂｉｏｍａｔｅｒｉａｌｓ,,株式会社,東京都,千代田区,富士見１丁目３番１１号,,13,101,1020071,,,,,,,2024-01-19,1,,,,,ゲルコートバイオマテリアルズ,0
889,3010001241572,新規,0,2024-01-19,2024-01-19,ＡＬＴＥＭＹ株式会社,,株式会社,東京都,中央区,東日本橋２丁目２６番８号ＭＫＫビル８階,,13,102,1030004,,,,,,,2024-01-19,1,,,,,アルテミー,0
890,3010001241589,新規,0,2024-01-19,2024-01-19,ＤｅＶＸコンサルティング株式会社,,株式会社,東京都,中央区,築地２丁目１番１６号５階,,13,102,1040045,,,,,,,2024-01-19,1,,,,,デビックスドルコンサルティング,0
897,3010003042688,新規,0,2024-01-19,2024-01-19,ルアナホーム合同会社,,合同会社,東京都,中央区,日本橋室町１丁目１１番１２号日本橋水野ビル７階,,13,102,1030022,,,,,,,2024-01-19,1,,,,,ルアナホーム,0
898,3010003042696,新規,0,2024-01-19,2024-01-19,ワークライフマネジメント合同会社,,合同会社,東京都,中央区,銀座１丁目１２－４Ｎ＆Ｅ－ＢＬＤ．７階,,13,102,1040061,,,,,,,2024-01-19,1,,,,,ワークライフマネジメント,0
899,3010003042705,新規,0,2024-01-19,2024-01-19,合同会社Ｓａｐｐｈｉｒｅ１,,合同会社,東京都,中央区,八丁堀４丁目２番１０号ＡＯＪ税理士法人内,,13,102,1040032,,,,,,,2024-01-19,1,,,,,サファイアワン,0
900,3010003042721,新規,0,2024-01-19,2024-01-19,合同会社ＯＮＷＩＮＥ,,合同会社,東京都,千代田区,神田三崎町３丁目１０番２０－１００３号,,13,101,1010061,,,,,,,2024-01-19,1,,,,,オンワイン,0
904,3010005037752,新規,0,2024-01-19,2024-01-19,一般社団法人日本計算機統計学会,,その他の設立登記法人,東京都,千代田区,神田神保町３丁目６番能楽書林ビル５Ｆ公益財団法人統計情報研究開発センター内,,13,101,1010051,,,,,,,2024-01-19,1,,,,,ニホンケイサンキトウケイガッカイ,0
905,3010005037760,新規,0,2024-01-19,2024-01-19,一般社団法人ＷＬＪＳＨ２,,その他の設立登記法人,東京都,千代田区,霞が関３丁目２番５号,,13,101,1000013,,,,,,,2024-01-19,1,,,,,ダブリューエルジェイエスエイチツー,0
909,3010401179818,新規,0,2024-01-19,2024-01-19,Ｎａｔｉｖｅ　Ｖｉｌｌａｇｅ株式会社,,株式会社,東京都,港区,白金台３丁目１７番４号第一松島ビル３階,,13,103,1080071,,,,,,,2024-01-19,1,,,,,ネイティブヴィレッジ,0
910,3010401179859,新規,0,2024-01-19,2024-01-19,Ｏｃｅａｎ　Ｉｎｔｅｇｒｉｔｙ　Ｊａｐａｎ株式会社,,株式会社,東京都,港区,虎ノ門３丁目８番２５号,,13,103,1050001,,,,,,,2024-01-19,1,,,,,オーシャンインテグリティジャパン,0
916,3010403031761,新規,0,2024-01-19,2024-01-19,合同会社ＮＦＰＲＥＣＩＯＵＳ,,合同会社,東京都,港区,麻布十番２丁目２１番６－１５０８号,,13,103,1060045,,,,,,,2024-01-19,1,,,,,エヌエフプレシャス,0
921,3010405022858,新規,0,2024-01-19,2024-01-19,ＹＵＫＩ　ＦＵＲＡＮＯ一般社団法人,,その他の設立登記法人,東京都,港区,元赤坂１丁目１番８号株式会社赤坂国際会計内,,13,103,1070051,,,,,,,2024-01-19,1,,,,,ユキフラノ,0
925,3010501051645,新規,0,2024-01-19,2024-01-19,株式会社ＴＣ,,株式会社,東京都,台東区,柳橋１丁目３２番１号,,13,106,1110052,,,,,,,2024-01-19,1,,,,,ティーシー,0
927,3010601064506,新規,0,2024-01-19,2024-01-19,株式会社ピーメディアジャパン,,株式会社,東京都,江東区,有明３丁目７番２６号,,13,108,1350063,,,,,,,2024-01-19,1,,,,,ピーメディアジャパン,0
935,3010701045422,新規,0,2024-01-19,2024-01-19,ＵＰ‐Ｂａｓｅ株式会社,,株式会社,東京都,品川区,八潮５丁目３番１１－２１０号,,13,109,1400003,,,,,,,2024-01-19,1,,,,,アップベース,0
947,3010903008747,新規,0,2024-01-19,2024-01-19,Ｋａｐｏｎｏ合同会社,,合同会社,東京都,世田谷区,宮坂１丁目４１番４号,,13,112,1560051,,,,,,,2024-01-19,1,,,,,カポノ,0
958,3011001159482,新規,0,2024-01-19,2024-01-19,株式会社ＴＨＥ　ＧＲＯＷＴＨ,,株式会社,東京都,目黒区,大橋２丁目２２番４２号ＮＯ．Ｒ池尻大橋１Ｆ,,13,110,1530044,,,,,,,2024-01-19,1,,,,,ザグロウス,0
959,3011001159490,新規,0,2024-01-19,2024-01-19,Ｋａｐｓｕｌ株式会社,,株式会社,東京都,目黒区,青葉台３丁目１８－３ＴＨＥＷＯＲＫＳ４１０,,13,110,1530042,,,,,,,2024-01-19,1,,,,,カプシュル,0
968,3011101105849,新規,0,2024-01-19,2024-01-19,Ｃｏ‐Ｉｎｓ株式会社,,株式会社,東京都,新宿区,西新宿３丁目３番１３号,,13,104,1600023,,,,,,,2024-01-19,1,,,,,コインス,0
969,3011101105873,新規,0,2024-01-19,2024-01-19,株式会社ｗｏｒｐｈ,,株式会社,東京都,新宿区,四谷４丁目３２番地８ＹＫＢサニービルＢ１Ｆ,,13,104,1600004,,,,,,,2024-01-19,1,,,,,ウォルフ,0
973,3011103013967,新規,0,2024-01-19,2024-01-19,合同会社ＹＳＡコンサル,,合同会社,東京都,新宿区,市谷台町８番２号２０３号室,,13,104,1620066,,,,,,,2024-01-19,1,,,,,ワイエスエーコンサル,0
985,3011801043670,新規,0,2024-01-19,2024-01-19,京藤株式会社,,株式会社,東京都,葛飾区,東新小岩２丁目２８番１号,,13,122,1240023,,,,,,,2024-01-19,1,,,,,キョウトウ,0
986,3011805003332,新規,0,2024-01-19,2024-01-19,一般社団法人ライフ＆ビジネス支援協会,,その他の設立登記法人,東京都,足立区,青井２丁目２５番６号,,13,121,1200012,,,,,,,2024-01-19,1,,,,,ライフアンドビジネスシエンキョウカイ,0
988,3012401041420,新規,0,2024-01-19,2024-01-19,株式会社河田板金,,株式会社,東京都,稲城市,坂浜９９７番地の９,,13,225,2060822,,,,,,,2024-01-19,1,,,,,カワダバンキン,0
989,3012401041437,新規,0,2024-01-19,2024-01-19,Ｋ＆Ｄ株式会社,,株式会社,東京都,調布市,東つつじケ丘１丁目１５番地３,,13,208,1820005,,,,,,,2024-01-19,1,,,,,ケーアンドディー,0
994,3013103001299,新規,0,2024-01-19,2024-01-19,一同合同会社,,合同会社,東京都,あきる野市,伊奈２４４番地１１,,13,228,1900142,,,,,,,2024-01-19,1,,,,,イチドウ,0
996,3013301051856,新規,0,2024-01-19,2024-01-19,Ｇｅｎｅｓｉｓ　Ｉｎｖｅｓｔｍｅｎｔ株式会社,,株式会社,東京都,豊島区,東池袋２丁目６２番８－８０６号,,13,116,1700013,,,,,,,2024-01-19,1,,,,,ジェネシスインヴェストメント,0
997,3013301051930,新規,0,2024-01-19,2024-01-19,株式会社Ｅｘ‐ｔｅｃｈ,,株式会社,東京都,豊島区,南大塚３丁目４３番５－５０３号,,13,116,1700005,,,,,,,2024-01-19,1,,,,,エクステック,0
1018,3020001155367,新規,0,2024-01-19,2024-01-19,大口動物病院株式会社,,株式会社,神奈川県,横浜市神奈川区,大口通１２９番地７,,14,102,2210002,,,,,,,2024-01-19,1,,,,,,0
1019,3020001155375,新規,0,2024-01-19,2024-01-19,黄金スリーエス株式会社,,株式会社,神奈川県,横浜市中区,初音町３丁目６３番地,,14,104,2310053,,,,,,,2024-01-19,1,,,,,コガネスリーエス,0
1020,3020001155425,新規,0,2024-01-19,2024-01-19,株式会社ディーケーエヌ,,株式会社,神奈川県,横浜市西区,境之谷１１５番地,,14,103,2200054,,,,,,,2024-01-19,1,,,,,ディーケーエヌ,0
1051,3020003025394,新規,0,2024-01-19,2024-01-19,Ｗｉｎｇ合同会社,,合同会社,神奈川県,川崎市川崎区,貝塚２丁目１２番５号,,14,131,2100014,,,,,,,2024-01-19,1,,,,,ウイング,0
1068,3021001081248,新規,0,2024-01-19,2024-01-19,株式会社高橋会計,00133409,株式会社,神奈川県,相模原市南区,相武台団地２丁目２番１２－３７号,,14,153,2520323,,,,,,,2024-01-19,1,,,,,タカハシカイケイ,0
1069,3021001081256,新規,0,2024-01-19,2024-01-19,株式会社ボデーワークデザイン,,株式会社,神奈川県,相模原市緑区,下九沢１６７７番地４,,14,151,2520134,,,,,,,2024-01-19,1,,,,,ボデーワークデザイン,0
1070,3021001081264,新規,0,2024-01-19,2024-01-19,株式会社ｉｎｄｉｒｅｋｔ　ｖｉｓｔａ,,株式会社,神奈川県,横須賀市,小川町１９－５富士ビル３階,,14,201,2380004,,,,,,,2024-01-19,1,,,,,インディレクトビスタ,0
1081,3021003014040,新規,0,2024-01-19,2024-01-19,合同会社吉原商店,,合同会社,神奈川県,茅ヶ崎市,室田２丁目１９番１３号マロンハイム１０３,,14,207,2530018,,,,,,,2024-01-19,1,,,,,ヨシハラショウテン,0
1088,3030001158278,新規,0,2024-01-19,2024-01-19,株式会社Ｓｐａｃｅ　Ｋ,,株式会社,埼玉県,さいたま市緑区,大字大門１４５４番地６,,11,109,3360963,,,,,,,2024-01-19,1,,,,,スペースケー,0
1089,3030001158286,新規,0,2024-01-19,2024-01-19,株式会社センサルテ,,株式会社,埼玉県,さいたま市南区,文蔵３丁目２８番６号１０２号棟２０３室,,11,108,3360025,,,,,,,2024-01-19,1,,,,,センサルテ,0
1100,3040001131804,新規,0,2024-01-19,2024-01-19,Ｄｒａｆｔｉｎｇ　ＢＡＳＥ株式会社,,株式会社,千葉県,市原市,上高根１６０７番地２０,,12,219,2900243,,,,,,,2024-01-19,1,,,,,ドラフティングベース,0
1101,3040001131812,新規,0,2024-01-19,2024-01-19,株式会社Ｍｅｌ’ｓ,,株式会社,千葉県,千葉市中央区,新宿１丁目２３番５号山中会計ビル１Ａ,,12,101,2600021,,,,,,,2024-01-19,1,,,,,メルズ,0
1102,3040001131845,新規,0,2024-01-19,2024-01-19,ライアン株式会社,,株式会社,千葉県,松戸市,殿平賀１９５－１ノースウィング１階,,12,207,2700004,,,,,,,2024-01-19,1,,,,,ライアン,0
1103,3040001131861,新規,0,2024-01-19,2024-01-19,株式会社サイ,,株式会社,千葉県,千葉市美浜区,幕張西４丁目２番１－１３１１号,,12,106,2610026,,,,,,,2024-01-19,1,,,,,サイ,0
1108,3040003024139,新規,0,2024-01-19,2024-01-19,合同会社Ｙ．Ｍ．Ａ,,合同会社,千葉県,千葉市花見川区,畑町４３２－１ＳＴビル１０１,,12,102,2620018,,,,,,,2024-01-19,1,,,,,ワイエムエー,0
1111,3050001054129,新規,0,2024-01-19,2024-01-19,松本鋼業株式会社,,株式会社,茨城県,猿島郡五霞町,大字小手指１１３７番地２,,08,542,3060315,,,,,,,2024-01-19,1,,,,,マツモトコウギョウ,0
1112,3050001054145,新規,0,2024-01-19,2024-01-19,株式会社ｔｍプロジェット,,株式会社,茨城県,鹿嶋市,大字宮津台１５７番地４５,,08,222,3140006,,,,,,,2024-01-19,1,,,,,ティーエムプロジェット,0
1115,3050003008074,新規,0,2024-01-19,2024-01-19,モンテ・フジ合同会社,,合同会社,茨城県,鉾田市,青柳９７５番地,,08,234,3111535,,,,,,,2024-01-19,1,,,,,モンテフジ,0
1126,3080001026091,新規,0,2024-01-19,2024-01-19,Ｇｌｏｂａｌｉｔｙ株式会社,,株式会社,静岡県,静岡市葵区,鷹匠２丁目８－１０鷹二センタービル３階,,22,101,4200839,,,,,,,2024-01-19,1,,,,,グローバリティー,0
1175,3110005017042,新規,0,2024-01-19,2024-01-19,一般社団法人越山,,その他の設立登記法人,新潟県,新潟市中央区,笹口１丁目２番地新潟プラーカ２,,15,103,9500911,,,,,,,2024-01-19,1,,,,,エツザン,0
1188,3120001261312,新規,0,2024-01-19,2024-01-19,百藤株式会社,,株式会社,大阪府,大阪市都島区,中野町４丁目３番６号Ｈ２Ｈ大阪桜之宮邸３Ｂ－２,,27,102,5340027,,,,,,,2024-01-19,1,,,,,ヒャクトウ,0
1189,3120001261460,新規,0,2024-01-19,2024-01-19,株式会社ＴＨＥ　ＳＰＯＲＴＳ　ＴＲＥＥ,,株式会社,大阪府,大阪市住吉区,住吉１丁目９番３５号,,27,120,5580045,,,,,,,2024-01-19,1,,,,,ザスポーツツリー,0
1190,3120001261485,新規,0,2024-01-19,2024-01-19,株式会社ラハ,,株式会社,大阪府,大阪市此花区,四貫島１丁目４番２５号,,27,104,5540014,,,,,,,2024-01-19,1,,,,,ラハ,0
1191,3120001261510,新規,0,2024-01-19,2024-01-19,株式会社ＳＡＣｇｒａｎ,,株式会社,大阪府,大阪市東成区,深江南１丁目１番２１－６０４号,,27,115,5370002,,,,,,,2024-01-19,1,,,,,エスエーシーグラン,0
1192,3120001261527,新規,0,2024-01-19,2024-01-19,愛維美株式会社,,株式会社,大阪府,大阪市中央区,南本町３丁目３番２３号インペリアル船場ビル９０２号室,,27,128,5410054,,,,,,,2024-01-19,1,,,,,アイイビ,0
1193,3120001261535,新規,0,2024-01-19,2024-01-19,株式会社ＨＥＹＡＭＩＲＵ,,株式会社,大阪府,大阪市北区,梅田１丁目２番２号大阪駅前第２ビル１２－１２,,27,127,5300001,,,,,,,2024-01-19,1,,,,,ヘヤミル,0
1194,3120001261568,新規,0,2024-01-19,2024-01-19,米久貿易株式会社,,株式会社,大阪府,大阪市中央区,本町橋６－２１－１１０７,,27,128,5400029,,,,,,,2024-01-19,1,,,,,メクボウエキ,0
1195,3120003025640,新規,0,2024-01-19,2024-01-19,合同会社ぶなの森,,合同会社,大阪府,大阪市天王寺区,玉造元町１０番４－６０４,,27,109,5430014,,,,,,,2024-01-19,1,,,,,ブナノモリ,0
1196,3120003025715,新規,0,2024-01-19,2024-01-19,Ｍｉｃｈｉｓｉｒｕｂｅ合同会社,,合同会社,大阪府,大阪市北区,梅田１丁目２番２号大阪駅前第２ビル１２－１２,,27,127,5300001,,,,,,,2024-01-19,1,,,,,ミチシルベ,0
1197,3120003025723,新規,0,2024-01-19,2024-01-19,雅アセットマネジメント合同会社,,合同会社,大阪府,大阪市中央区,高津３丁目１４番１１号,,27,128,5420072,,,,,,,2024-01-19,1,,,,,ミヤビアセットマネジメント,0
1199,3120005024104,新規,0,2024-01-19,2024-01-19,医療法人耳鼻咽喉科・アレルギー科山本医院,,その他の設立登記法人,大阪府,寝屋川市,打上元町１８番１０号,,27,215,5720858,,,,,,,2024-01-19,1,,,,,ジビインコウカアレルギーカヤマモトイイン,0
1200,3120005024112,新規,0,2024-01-19,2024-01-19,一般社団法人日本サーフィン歴史保存協会,,その他の設立登記法人,大阪府,枚方市,大垣内町２丁目１７番５－５０７号,,27,210,5730027,,,,,,,2024-01-19,1,,,,,ニホンサーフィンレキシホゾンキョウカイ,0
1204,3120101068913,新規,0,2024-01-19,2024-01-19,株式会社アイリス,,株式会社,大阪府,堺市西区,草部１８００番地５棟５０８号,,27,144,5938312,,,,,,,2024-01-19,1,,,,,アイリス,0
1206,3120901048643,新規,0,2024-01-19,2024-01-19,株式会社ＶＯＢＬＥＥＤ,,株式会社,大阪府,吹田市,垂水町３丁目１０番２０号,,27,205,5640062,,,,,,,2024-01-19,1,,,,,ヴォブリード,0
1207,3120903004999,新規,0,2024-01-19,2024-01-19,合同会社ＵＮＩＯＭＳ,,合同会社,大阪府,吹田市,南吹田５丁目２８番２８号,,27,205,5640043,,,,,,,2024-01-19,1,,,,,ユニオンズ,0
1210,3122005003731,新規,0,2024-01-19,2024-01-19,医療法人友仁会,,その他の設立登記法人,大阪府,大東市,南津の辺町２３番３９号グラシア南津の辺１階１０１号,,27,218,5740016,,,,,,,2024-01-19,1,,,,,ユウジンカイ,0
1219,3130001076164,新規,0,2024-01-19,2024-01-19,株式会社勝進,,株式会社,京都府,八幡市,八幡吉野垣内２８番地の１サンコート吉野１０５号,,26,210,6148013,,,,,,,2024-01-19,1,,,,,ショウシン,0
1222,3130003009246,新規,0,2024-01-19,2024-01-19,合同会社育,,合同会社,京都府,京都市北区,小山西大野町７９番地５,,26,101,6038167,,,,,,,2024-01-19,1,,,,,ハグクミ,0
1226,3140001133022,新規,0,2024-01-19,2024-01-19,株式会社Ｃｉｒｒｕｓ,,株式会社,兵庫県,加古川市,尾上町口里６５１番地の１１,,28,210,6750022,,,,,,,2024-01-19,1,,,,,シーラス,0
1227,3140001133039,新規,0,2024-01-19,2024-01-19,ＹＯＫＩ株式会社,,株式会社,兵庫県,神戸市中央区,磯上通８丁目１番２９号カサベラビルＣ＆Ｍ４０３号室,,28,110,6510086,,,,,,,2024-01-19,1,,,,,ヨキ,0
1228,3140003020053,新規,0,2024-01-19,2024-01-19,合同会社Ｂａｓｅケア,,合同会社,兵庫県,神戸市垂水区,高丸３丁目２番２号原田マンション１階１０１号室,,28,108,6550016,,,,,,,2024-01-19,1,,,,,ベースケア,0
1229,3140005026916,新規,0,2024-01-19,2024-01-19,一般社団法人動物バイオ医薬品研究会,,その他の設立登記法人,兵庫県,神戸市中央区,港島南町５丁目５番２号神戸国際ビジネスセンター北６１１,,28,110,6500047,,,,,,,2024-01-19,1,,,,,ドウブツバイオイヤクヒンケンキュウカイ,0
1230,3170001017973,新規,0,2024-01-19,2024-01-19,株式会社紀和興産,,株式会社,和歌山県,和歌山市,東高松１丁目３番３６号,,30,201,6410052,,,,,,,2024-01-19,1,,,,,キワコウサン,0
1243,3180001159724,新規,0,2024-01-19,2024-01-19,株式会社東武,,株式会社,愛知県,あま市,中萱津大坊３番,,23,237,4901113,,,,,,,2024-01-19,1,,,,,トウブ,0
1244,3180001159773,新規,0,2024-01-19,2024-01-19,ナチュラルグループＨＤ株式会社,,株式会社,愛知県,半田市,阿原町１２番地の６,,23,205,4750031,,,,,,,2024-01-19,1,,,,,ナチュラルグループホールディングス,0
1245,3180001159807,新規,0,2024-01-19,2024-01-19,株式会社プレイズアップ,,株式会社,愛知県,名古屋市緑区,有松２６１３番地,,23,114,4580924,,,,,,,2024-01-19,1,,,,,プレイズアップ,0
1246,3180001159815,新規,0,2024-01-19,2024-01-19,株式会社アルトランス,,株式会社,愛知県,名古屋市中区,千代田５丁目１４番１０号伸和ビル２Ａ,,23,106,4600012,,,,,,,2024-01-19,1,,,,,アルトランス,0
1247,3180001159848,新規,0,2024-01-19,2024-01-19,株式会社ＯＮＥ　Ｇｒｏｕｐ,,株式会社,愛知県,名古屋市港区,多加良浦町３丁目２０番地の２,,23,111,4550825,,,,,,,2024-01-19,1,,,,,ワングループ,0
1248,3180001159856,新規,0,2024-01-19,2024-01-19,株式会社Ｓｐｕｎｋｙ,,株式会社,愛知県,名古屋市南区,堤町１丁目３０番地,,23,112,4570844,,,,,,,2024-01-19,1,,,,,スパンキー,0
1252,3180003026245,新規,0,2024-01-19,2024-01-19,合同会社安藤事務所,,合同会社,愛知県,名古屋市守山区,守山３丁目８番８号,,23,113,4630067,,,,,,,2024-01-19,1,,,,,アンドウジムショ,0
1255,3180303005980,新規,0,2024-01-19,2024-01-19,ラニアケア合同会社,,合同会社,愛知県,西尾市,貝吹町金葛２２－７,00133405,23,213,4450013,,,,,,,2024-01-19,1,,,,,ラニアケア,0
1268,3200003006211,新規,0,2024-01-19,2024-01-19,合同会社フォースツリー,,合同会社,岐阜県,加茂郡富加町,滝田１４１番地,,21,502,5013305,,,,,,,2024-01-19,1,,,,,フォースツリー,0
1274,3220003003660,新規,0,2024-01-19,2024-01-19,Ｒａｌｌｙｉｅｌｄ合同会社,,合同会社,石川県,金沢市,菊川１丁目２３番２３号,,17,201,9200967,,,,,,,2024-01-19,1,,,,,ラリールド,0
1278,3240001062681,新規,0,2024-01-19,2024-01-19,株式会社エースファイブ,,株式会社,広島県,東広島市,西条町郷曽１２６７番地,,34,212,7390035,,,,,,,2024-01-19,1,,,,,エースファイブ,0
1280,3240003006496,新規,0,2024-01-19,2024-01-19,合同会社サピュイエ,,合同会社,広島県,広島市西区,観音本町１丁目２２－３０－１Ｆ,,34,104,7330033,,,,,,,2024-01-19,1,,,,,サピュイエ,0
1293,3290001104388,新規,0,2024-01-19,2024-01-19,株式会社ユニオン工業,,株式会社,福岡県,嘉麻市,上山田６８３番１,,40,227,8210012,,,,,,,2024-01-19,1,,,,,ユニオンコウギョウ,0
1294,3290001104396,新規,0,2024-01-19,2024-01-19,ＦＥＭＳ株式会社,,株式会社,福岡県,福岡市中央区,天神２丁目５番２８号天神西通りセンタービル６Ｆ,,40,133,8100001,,,,,,,2024-01-19,1,,,,,エフイーエムエス,0
1295,3290001104405,新規,0,2024-01-19,2024-01-19,株式会社吉村建設,,株式会社,福岡県,嘉麻市,上臼井１１０２番地２,,40,227,8200502,,,,,,,2024-01-19,1,,,,,ヨシムラケンセツ,0
1296,3290001104421,新規,0,2024-01-19,2024-01-19,株式会社昴,,株式会社,福岡県,大牟田市,藤田町１７５番地１,,40,202,8360074,,,,,,,2024-01-19,1,,,,,スバル,0
1297,3290001104446,新規,0,2024-01-19,2024-01-19,株式会社啓成,,株式会社,福岡県,福岡市西区,西の丘３丁目２２番１８号,,40,135,8190046,,,,,,,2024-01-19,1,,,,,ケイセイ,0
1301,3290803004595,新規,0,2024-01-19,2024-01-19,合同会社白石アグリカルチャー,,合同会社,福岡県,遠賀郡遠賀町,大字上別府５９４番地,,40,384,8114332,,,,,,,2024-01-19,1,,,,,シライシアグリカルチャー,0
1308,3320001020235,新規,0,2024-01-19,2024-01-19,株式会社たすくファーム,,株式会社,大分県,宇佐市,安心院町古川２６６番地の１,,44,211,8720655,,,,,,,2024-01-19,1,,,,,タスクファーム,0
1309,3320001020243,新規,0,2024-01-19,2024-01-19,株式会社Ｓ・Ｋコンサルタント,,株式会社,大分県,宇佐市,大字高砂新田３５３番地,,44,211,8720046,,,,,,,2024-01-19,1,,,,,エスケイコンサルタント,0
1314,3330001031677,新規,0,2024-01-19,2024-01-19,株式会社マルテック,,株式会社,熊本県,菊池郡大津町,美咲野２丁目９番１３号,,43,403,8691237,,,,,,,2024-01-19,1,,,,,マルテック,0
1323,3360001033101,新規,0,2024-01-19,2024-01-19,株式会社ＲｅＰＬＵＳ沖縄,,株式会社,沖縄県,中頭郡嘉手納町,字水釜２５６番地ＨＮ・７０９０,,47,325,9040204,,,,,,,2024-01-19,1,,,,,リプラスオキナワ,0
1325,3370001050847,新規,0,2024-01-19,2024-01-19,株式会社リビルテック,,株式会社,宮城県,仙台市泉区,北中山２丁目１番地の２,,04,105,9813215,,,,,,,2024-01-19,1,,,,,リビルテック,0
1329,3380001034246,新規,0,2024-01-19,2024-01-19,株式会社Ｍｓｅｅｄｅｒ,,株式会社,福島県,郡山市,喜久田町前田沢１丁目４３番地,,07,203,9630543,,,,,,,2024-01-19,1,,,,,エムシーダー,0
1344,3420005007879,新規,0,2024-01-19,2024-01-19,一般社団法人青森県スケート連盟,,その他の設立登記法人,青森県,八戸市,大字長苗代字天狗柳２９番地５,,02,203,0391103,,,,,,,2024-01-19,1,,,,,アオモリケンスケートレンメイ,0
1345,3430001090928,新規,0,2024-01-19,2024-01-19,株式会社ウッドノワール,,株式会社,北海道,札幌市中央区,南二条西１２丁目３２３番地９,,01,101,0600062,,,,,,,2024-01-19,1,,,,,ウッドノワール,0
1350,3470001019980,新規,0,2024-01-19,2024-01-19,ＢＥＳＦＯＲＴ株式会社,,株式会社,香川県,さぬき市,志度２６８８番地１,,37,206,7692101,,,,,,,2024-01-19,1,,,,,ベスフォート,0
1355,3700150116704,新規,0,2024-01-19,2024-01-19,高郵航之帆貿易有限公司,,外国会社等,,,,,,,,江蘇省揚州市高郵市周山鎮思源路２５号,,,,,,2024-01-19,1,,,,,コウユウコウシハンボウエキユウゲンコウシ,0
1356,3700150123452,新規,0,2024-01-19,2024-01-19,河南倉坊貿易有限公司,,外国会社等,,,,,,,,河南自由貿易試験区鄭州エリア（鄭東）ビジネスセントラルガーデン２号１号ビル２１階２１１２号,00133369,,,,,2024-01-19,1,,,,,カナンソウボウボウエキユウゲンコウシ,0
1359,4010001241547,新規,0,2024-01-19,2024-01-19,株式会社ジェーン,,株式会社,東京都,文京区,小石川３丁目１７番２０号ブランコート文京竹早０２,,13,105,1120002,,,,,,,2024-01-19,1,,,,,ジェーン,0
1360,4010001241588,新規,0,2024-01-19,2024-01-19,株式会社ＴＴ,,株式会社,東京都,中央区,銀座３丁目１１番１７－７０１号,,13,102,1040061,,,,,,,2024-01-19,1,,,,,ティーティー,0
1361,4010001241596,新規,0,2024-01-19,2024-01-19,株式会社ウイズホーム,,株式会社,東京都,中央区,銀座６丁目６番１号,,13,102,1040061,,,,,,,2024-01-19,1,,,,,ウイズホーム,0
1362,4010001241621,新規,0,2024-01-19,2024-01-19,株式会社憧季,,株式会社,東京都,中央区,銀座１丁目１２番４号Ｎ＆ＥＢＬＤ．６階,,13,102,1040061,,,,,,,2024-01-19,1,,,,,トキ,0
1366,4010003042679,新規,0,2024-01-19,2024-01-19,エマージングジャパン合同会社,,合同会社,東京都,千代田区,丸の内１丁目８番３号丸の内トラストタワー本館２０階,,13,101,1000005,,,,,,,2024-01-19,1,,,,,エマージングジャパン,0
1367,4010005037751,新規,0,2024-01-19,2024-01-19,一般社団法人悠健会,,その他の設立登記法人,東京都,中央区,京橋１丁目１番５号京橋セントラルビル２階,,13,102,1040031,,,,,,,2024-01-19,1,,,,,ユウケンカイ,0
1368,4010101015974,新規,0,2024-01-19,2024-01-19,ＧＡＮＡインフィニティ株式会社,,株式会社,東京都,八王子市,片倉町３２５番１５,,13,201,1920914,,,,,,,2024-01-19,1,,,,,,0
1377,4010401179817,新規,0,2024-01-19,2024-01-19,ＡＳＫＹ株式会社,,株式会社,東京都,港区,白金１丁目２番２号,,13,103,1080072,,,,,,,2024-01-19,1,,,,,エイスカイ,0
1378,4010401179866,新規,0,2024-01-19,2024-01-19,株式会社ジョゼフジャパン,,株式会社,東京都,港区,海岸３丁目９番３２号,,13,103,1080022,,,,,,,2024-01-19,1,,,,,ジョゼフジャパン,0
1380,4010403031760,新規,0,2024-01-19,2024-01-19,合同会社Ｗａｌｔｚ,,合同会社,東京都,港区,浜松町２丁目２番１５号浜松町ダイヤビル２Ｆ,,13,103,1050013,,,,,,,2024-01-19,1,,,,,ワルツ,0
1383,4010405022849,新規,0,2024-01-19,2024-01-19,一般社団法人健康で安心な社会づくり推進協議会,,その他の設立登記法人,東京都,港区,西新橋１丁目１２番１０号一景ビル１階,,13,103,1050003,,,,,,,2024-01-19,1,,,,,ケンコウデアンシンナシャカイヅクリスイシンキョウギカイ,0
1387,4010501051644,新規,0,2024-01-19,2024-01-19,株式会社Ｔ＆Ｈ,,株式会社,東京都,台東区,根岸３丁目１４番１１―１１０１号,,13,106,1100003,,,,,,,2024-01-19,1,,,,,ティーアンドエイチ,0
1388,4010501051652,新規,0,2024-01-19,2024-01-19,明涌株式会社,,株式会社,東京都,台東区,浅草３丁目３番１２－１０２号,,13,106,1110032,,,,,,,2024-01-19,1,,,,,メイヨウ,0
1389,4010503007314,新規,0,2024-01-19,2024-01-19,ひらまつ合同会社,,合同会社,東京都,台東区,浅草３丁目１６番１－６０５号,,13,106,1110032,,,,,,,2024-01-19,1,,,,,ヒラマツ,0
1391,4010701045413,新規,0,2024-01-19,2024-01-19,株式会社バンブートゥルー,,株式会社,東京都,品川区,南品川２丁目６番６号,,13,109,1400004,,,,,,,2024-01-19,1,,,,,バンブートゥルー,0
1394,4010803004820,新規,0,2024-01-19,2024-01-19,合同会社はる企画,,合同会社,東京都,大田区,田園調布５丁目２６番１６号,,13,111,1450071,,,,,,,2024-01-19,1,,,,,ハルキカク,0
1412,4011001159465,新規,0,2024-01-19,2024-01-19,株式会社Ｉｎｔｅｒｐｅｒｓｏｎａｌ　Ｄｅｓｉｇｎ,,株式会社,東京都,渋谷区,円山町５－１８,,13,113,1500044,,,,,,,2024-01-19,1,,,,,インターパーソナルデザイン,0
1413,4011003018306,新規,0,2024-01-19,2024-01-19,ＴＷＯＦＯＵＲ　ＤＥＳＩＧＮ　ＷＯＲＫＳ合同会社,,合同会社,東京都,渋谷区,道玄坂１丁目１０番８号渋谷道玄坂東急ビル２Ｆ－Ｃ,,13,113,1500043,,,,,,,2024-01-19,1,,,,,ツーフォーデザインワークス,0
1414,4011005010343,新規,0,2024-01-19,2024-01-19,一般社団法人Ｒ５ｍ,,その他の設立登記法人,東京都,渋谷区,初台２丁目３－３アルテ代々木公園Ａ号室,,13,113,1510061,,,,,,,2024-01-19,1,,,,,アールゴエム,0
1416,4011101105864,新規,0,2024-01-19,2024-01-19,見喜株式会社,,株式会社,東京都,新宿区,上落合１丁目７番１３－１０５,,13,104,1610034,,,,,,,2024-01-19,1,,,,,ミヨシ,0
1418,4011201025186,新規,0,2024-01-19,2024-01-19,大宏株式会社,,株式会社,東京都,中野区,本町４丁目２１番８号,,13,114,1640012,,,,,,,2024-01-19,1,,,,,ダイコウ,0
1422,4011401025779,新規,0,2024-01-19,2024-01-19,スナグルケア株式会社,,株式会社,東京都,板橋区,小茂根２丁目９番２号ヴィレッジ小茂根３０２,,13,119,1730037,,,,,,,2024-01-19,1,,,,,スナグルケア,0
1424,4011501030209,新規,0,2024-01-19,2024-01-19,株式会社ファインクレスト,,株式会社,東京都,北区,赤羽１丁目７番９号赤羽第一葉山ビル４階,,13,117,1150045,,,,,,,2024-01-19,1,,,,,ファインクレスト,0
1425,4011601027468,新規,0,2024-01-19,2024-01-19,ＩｄｅｎＭ．Ｋ．Ｔ株式会社,,株式会社,東京都,練馬区,氷川台３丁目１２番３号,,13,120,1790084,,,,,,,2024-01-19,1,,,,,アイデンマーケット,0
1429,4011801043653,新規,0,2024-01-19,2024-01-19,株式会社幸匠商会,,株式会社,東京都,足立区,神明３丁目６番１９号,,13,121,1210051,,,,,,,2024-01-19,1,,,,,コウショウショウカイ,0
1430,4011803006047,新規,0,2024-01-19,2024-01-19,ＰＥＡＣＥ　ＤＯＯＲ　ＰＬＡＣＥ合同会社,,合同会社,東京都,葛飾区,立石５丁目３－１４立石パークファミリア２０７,,13,122,1240012,,,,,,,2024-01-19,1,,,,,ピースドアプレイス,0
1450,4020001155366,新規,0,2024-01-19,2024-01-19,Ｒｏｕｔｅｓ株式会社,,株式会社,神奈川県,川崎市宮前区,潮見台７番３５号,,14,136,2160013,,,,,,,2024-01-19,1,,,,,ルーツ,0
1451,4020001155374,新規,0,2024-01-19,2024-01-19,株式会社ｙｕｉｔｓｕｍｕ,,株式会社,神奈川県,川崎市多摩区,生田８丁目２２番１４号,,14,135,2140038,,,,,,,2024-01-19,1,,,,,ユイツム,0
1452,4020001155390,新規,0,2024-01-19,2024-01-19,株式会社Ｖｉｌｌｅｒ　Ｃｒｏｗｎ,,株式会社,神奈川県,横浜市保土ケ谷区,法泉２丁目５番２３号,,14,106,2400032,,,,,,,2024-01-19,1,,,,,ヴィラークラウン,0
1453,4020001155399,新規,0,2024-01-19,2024-01-19,株式会社ＵＲＵ,,株式会社,神奈川県,横浜市南区,永田山王台２３番７号,,14,105,2320074,,,,,,,2024-01-19,1,,,,,ウル,0
1473,4020003025377,新規,0,2024-01-19,2024-01-19,合同会社ＢＯＮＤ,,合同会社,神奈川県,川崎市高津区,下作延５丁目６－１３ブランニュー溝の口１０１号室,,14,134,2130033,,,,,,,2024-01-19,1,,,,,ボンド,0
1474,4020003025402,新規,0,2024-01-19,2024-01-19,合同会社ｒｉｃｃａ,,合同会社,神奈川県,横浜市神奈川区,西神奈川３丁目５番地１ネオマイム横浜白楽９０４号,,14,102,2210822,,,,,,,2024-01-19,1,,,,,リッカ,0
1485,4021001081255,新規,0,2024-01-19,2024-01-19,株式会社いぶし銀クラブ,,株式会社,神奈川県,大和市,中央林間８丁目２３番１９－６０６号,,14,213,2420007,,,,,,,2024-01-19,1,,,,,イブシギンクラブ,0
1486,4021001081271,新規,0,2024-01-19,2024-01-19,株式会社ＳＩＧＭＡ建設研究所,,株式会社,神奈川県,藤沢市,大鋸３丁目１番７～１０１号,,14,205,2510002,,,,,,,2024-01-19,1,,,,,シグマケンセツケンキュウジョ,0
1511,4030001158244,新規,0,2024-01-19,2024-01-19,株式会社トライビー,,株式会社,埼玉県,さいたま市桜区,西堀３丁目２０番９号,,11,106,3380832,,,,,,,2024-01-19,1,,,,,トライビー,0
1512,4030001158252,新規,0,2024-01-19,2024-01-19,ワーダース株式会社,,株式会社,埼玉県,川口市,川口４丁目４番１４号ソシアルセイワ川口２０２号,,11,203,3320015,,,,,,,2024-01-19,1,,,,,ワーダース,0
1513,4030001158260,新規,0,2024-01-19,2024-01-19,株式会社Ｓｍａｒｔ　Ｈ,,株式会社,埼玉県,さいたま市北区,日進町１丁目２３７番地２,,11,102,3310823,,,,,,,2024-01-19,1,,,,,スマートエイチ,0
1518,4030003023446,新規,0,2024-01-19,2024-01-19,ＨＥＥ合同会社,,合同会社,埼玉県,朝霞市,泉水３丁目７番１９－２１６号,,11,227,3510024,,,,,,,2024-01-19,1,,,,,ヘイイ,0
1519,4030005021530,新規,0,2024-01-19,2024-01-19,一般社団法人毎日フルーツ２００ｇ推進協会,,その他の設立登記法人,埼玉県,さいたま市大宮区,桜木町２丁目３大宮マルイ７階,,11,103,3300854,,,,,,,2024-01-19,1,,,,,マイニチフルーツニヒャクグラムスイシンキョウカイ,0
1524,4040001131803,新規,0,2024-01-19,2024-01-19,株式会社藤商コーポレーション,,株式会社,千葉県,袖ケ浦市,蔵波２７６０番地４－７０７号,,12,229,2990243,,,,,,,2024-01-19,1,,,,,フジショウコーポレーション,0
1525,4040001131811,新規,0,2024-01-19,2024-01-19,株式会社一松工業,,株式会社,千葉県,君津市,人見５丁目３番２０号,,12,225,2991147,,,,,,,2024-01-19,1,,,,,イチマツコウギョウ,0
1526,4040001131828,新規,0,2024-01-19,2024-01-19,翼陽工業株式会社,,株式会社,千葉県,千葉市緑区,鎌取町１１１番地２,,12,105,2660011,,,,,,,2024-01-19,1,,,,,ヨクヨウコウギョウ,0
1527,4040001131844,新規,0,2024-01-19,2024-01-19,福海株式会社,,株式会社,千葉県,船橋市,西船４丁目２６番２号西船サウンドビル平田３０１号,,12,204,2730031,,,,,,,2024-01-19,1,,,,,フクハイ,0
1538,4050001054128,新規,0,2024-01-19,2024-01-19,株式会社Ｂ＆Ｂ,,株式会社,茨城県,つくば市,学園南２丁目４番地３レーベン研究学園ＮＥＸＩＯ１１１０号,,08,220,3050818,,,,,,,2024-01-19,1,,,,,ビーアンドビー,0
1544,4060001036752,新規,0,2024-01-19,2024-01-19,越路エンジニアリング株式会社,,株式会社,栃木県,河内郡上三川町,大字上三川５０４４番地６,,09,301,3290611,,,,,,,2024-01-19,1,,,,,コシジエンジニアリング,0
1548,4080001026090,新規,0,2024-01-19,2024-01-19,株式会社エクスワーク,,株式会社,静岡県,静岡市駿河区,桃園町８番８号,,22,102,4210114,,,,,,,2024-01-19,1,,,,,エクスワーク,0
1593,4100001037143,新規,0,2024-01-19,2024-01-19,株式会社水設工業,,株式会社,長野県,茅野市,宮川５４６７番地７,,20,214,3910013,,,,,,,2024-01-19,1,,,,,スイセツコウギョウ,0
1594,4100003007350,新規,0,2024-01-19,2024-01-19,ＨＡＴＣＨ合同会社,,合同会社,長野県,佐久市,岩村田５００８番地９,,20,217,3850022,,,,,,,2024-01-19,1,,,,,ハッチ,0
1595,4100003007359,新規,0,2024-01-19,2024-01-19,合同会社生物資源利活用研究所,,合同会社,長野県,小諸市,相生町１丁目２番７号１階,,20,208,3840025,,,,,,,2024-01-19,1,,,,,セイブツシゲンリカツヨウケンキュウジョ,0
1599,4110001038116,新規,0,2024-01-19,2024-01-19,株式会社新企画,,株式会社,新潟県,胎内市,本町５番２１号,,15,227,9592645,,,,,,,2024-01-19,1,,,,,シンキカク,0
1607,4120001261393,新規,0,2024-01-19,2024-01-19,浪花観光産業株式会社,,株式会社,大阪府,大阪市西区,本田２丁目８番６－１０１号,,27,106,5500022,,,,,,,2024-01-19,1,,,,,ナニワカンコウサンギョウ,0
1608,4120001261476,新規,0,2024-01-19,2024-01-19,株式会社ジャック,,株式会社,大阪府,大阪市北区,堂島浜１丁目１番１５号堂浜第二ビル２０１,,27,127,5300004,,,,,,,2024-01-19,1,,,,,ジャック,0
1609,4120001261518,新規,0,2024-01-19,2024-01-19,株式会社ＢＲＩＧＨＴ,,株式会社,大阪府,大阪市天王寺区,味原町６－２６－８０１,,27,109,5430023,,,,,,,2024-01-19,1,,,,,ブライト,0
1610,4120001261526,新規,0,2024-01-19,2024-01-19,株式会社ペルルリエ,,株式会社,大阪府,大阪市都島区,友渕町１丁目５番２－１０９号,,27,102,5340016,,,,,,,2024-01-19,1,,,,,ペルルリエ,0
1611,4120001261534,新規,0,2024-01-19,2024-01-19,株式会社Ｔエンジニア,,株式会社,大阪府,大阪市都島区,片町２丁目５番６－３０１号,,27,102,5340025,,,,,,,2024-01-19,1,,,,,ティーエンジニア,0
1612,4120001261550,新規,0,2024-01-19,2024-01-19,株式会社カモチ,,株式会社,大阪府,大阪市西成区,天下茶屋東２丁目９番１６号,,27,122,5570011,,,,,,,2024-01-19,1,,,,,カモチ,0
1613,4120001261559,新規,0,2024-01-19,2024-01-19,ＹＳ電気株式会社,,株式会社,大阪府,大阪市平野区,瓜破西１丁目１－１ＣＲＥＡＴＩＶＥ・ＳＰＡＣＥ・ＨＡＶＥ瓜破西１０号室,,27,126,5470025,,,,,,,2024-01-19,1,,,,,ワイエスデンキ,0
1614,4120001261567,新規,0,2024-01-19,2024-01-19,巨東ＪＡＰＡＮ株式会社,,株式会社,大阪府,大阪市住之江区,新北島５丁目３番１６号,,27,125,5590024,,,,,,,2024-01-19,1,,,,,キョトウジャパン,0
1617,4120003025714,新規,0,2024-01-19,2024-01-19,Ｓ＆Ｊ合同会社,,合同会社,大阪府,大阪市住之江区,御崎８丁目２－２８,,27,125,5590013,,,,,,,2024-01-19,1,,,,,エスアンドジェー,0
1618,4120005024103,新規,0,2024-01-19,2024-01-19,廣倉国際社会保険労務士法人,00133421,その他の設立登記法人,大阪府,大阪市中央区,安堂寺町２丁目３番５号第１８松屋ビル５０８号室,,27,128,5420061,,,,,,,2024-01-19,1,,,,,ヒロクラコクサイ,0
1621,4120105009813,新規,0,2024-01-19,2024-01-19,医療法人植月医院,,その他の設立登記法人,大阪府,堺市南区,片蔵２３番地１,,27,145,5900121,,,,,,,2024-01-19,1,,,,,ウエツキイイン,0
1623,4120901048650,新規,0,2024-01-19,2024-01-19,株式会社Ｅ・ＡＮＹ,,株式会社,大阪府,豊中市,永楽荘１丁目８番４号,,27,203,5600051,,,,,,,2024-01-19,1,,,,,イーエニィ,0
1625,4122003002775,新規,0,2024-01-19,2024-01-19,合同会社スタートライン,,合同会社,大阪府,東大阪市,西石切町５丁目２番１７号ルクソール石切６０２,,27,227,5798013,,,,,,,2024-01-19,1,,,,,スタートライン,0
1631,4130001076171,新規,0,2024-01-19,2024-01-19,マネジメントハブ株式会社,,株式会社,京都府,京都市中京区,占出山町３０８ヤマチュウビル,,26,104,6048155,,,,,,,2024-01-19,1,,,,,マネジメントハブ,0
1638,4140001133013,新規,0,2024-01-19,2024-01-19,株式会社ＢＢ　Ｓｐｏｒｔｓ,,株式会社,兵庫県,尼崎市,南武庫之荘３丁目２５番１０号２階,,28,202,6610033,,,,,,,2024-01-19,1,,,,,ビービースポーツ,0
1639,4140001133054,新規,0,2024-01-19,2024-01-19,株式会社若松シャッター,,株式会社,兵庫県,川西市,水明台２丁目２番地の２１,,28,217,6660116,,,,,,,2024-01-19,1,,,,,ワカマツシャッター,0
1642,4140003020028,新規,0,2024-01-19,2024-01-19,合同会社ａｎｅｌａ,,合同会社,兵庫県,宝塚市,伊孑志３丁目２－４７－１,,28,214,6650033,,,,,,,2024-01-19,1,,,,,アネラ,0
1643,4140003020036,新規,0,2024-01-19,2024-01-19,合同会社みんなのサステナビリティ研究所,,合同会社,兵庫県,神戸市中央区,海岸通３丁目１番１号４階,,28,110,6500024,,,,,,,2024-01-19,1,,,,,ミンナノサステナビリティケンキュウジョ,0
1644,4140005026915,新規,0,2024-01-19,2024-01-19,一般社団法人壮意憲心会,,その他の設立登記法人,兵庫県,尼崎市,塚口町４丁目１２番地の９,,28,202,6610002,,,,,,,2024-01-19,1,,,,,ソウイケンシンカイ,0
1646,4160001025646,新規,0,2024-01-19,2024-01-19,株式会社バナブレラ,,株式会社,滋賀県,高島市,新旭町新庄４５２番地２,,25,212,5201522,,,,,,,2024-01-19,1,,,,,バナブレラ,0
1647,4170005007061,新規,0,2024-01-19,2024-01-19,一般社団法人長生楽ぶらくり,,その他の設立登記法人,和歌山県,和歌山市,新雑賀町２５番地,,30,201,6408101,,,,,,,2024-01-19,1,,,,,チョウセイラクブラクリ,0
1653,4180001159814,新規,0,2024-01-19,2024-01-19,ＣＬＯＥＮＳ株式会社,,株式会社,愛知県,名古屋市中川区,戸田５丁目１３０８番地１,,23,110,4540962,,,,,,,2024-01-19,1,,,,,クロエンス,0
1654,4180001159855,新規,0,2024-01-19,2024-01-19,株式会社京田興業,,株式会社,愛知県,名古屋市中区,錦３丁目４番１９号,,23,106,4600003,,,,,,,2024-01-19,1,,,,,キョウダコウギョウ,0
1655,4180001159863,新規,0,2024-01-19,2024-01-19,株式会社ＡＬＧ,,株式会社,愛知県,名古屋市中区,栄５丁目３番６号,,23,106,4600008,,,,,,,2024-01-19,1,,,,,エーエルジー,0
1657,4180003025964,新規,0,2024-01-19,2024-01-19,合同会社Ｌｉｂｅｒｏ,,合同会社,愛知県,名古屋市中区,丸の内１丁目１４―２９サンパーク丸の内６０２,,23,106,4600002,,,,,,,2024-01-19,1,,,,,リベロ,0
1658,4180003026252,新規,0,2024-01-19,2024-01-19,合同会社Ｃｏｃｏｒｏ,,合同会社,愛知県,名古屋市北区,喜惣治２丁目７５番地（市営喜惣治荘Ｔ１棟１０１号）,,23,103,4620065,,,,,,,2024-01-19,1,,,,,ココロ,0
1694,4240001062680,新規,0,2024-01-19,2024-01-19,株式会社スキャンパ西日本,,株式会社,広島県,広島市中区,大手町１丁目１番２０号相生橋ビル７階Ａ号室,,34,101,7300051,,,,,,,2024-01-19,1,,,,,スキャンパニシニホン,0
1699,4240003006495,新規,0,2024-01-19,2024-01-19,合同会社Ｓｅｃｏｎｄ　Ａｉｄ,,合同会社,広島県,福山市,本町３番１号,,34,207,7200056,,,,,,,2024-01-19,1,,,,,セカンドエイド,0
1701,4250003003418,新規,0,2024-01-19,2024-01-19,合同会社オフィスＥｉｇｈｔ８,,合同会社,山口県,柳井市,神代３１７０－２,,35,212,7490101,,,,,,,2024-01-19,1,,,,,オフィスエイト,0
1702,4250005008893,新規,0,2024-01-19,2024-01-19,一般社団法人ミライ・ラボ西宇部学童保育クラブ,,その他の設立登記法人,山口県,宇部市,大字際波５２７番地１,,35,202,7590207,,,,,,,2024-01-19,1,,,,,,0
1713,4290001104412,新規,0,2024-01-19,2024-01-19,株式会社ライトヘミスフェア,,株式会社,福岡県,福岡市西区,愛宕２丁目１０番７号,,40,135,8190015,,,,,,,2024-01-19,1,,,,,ライトヘミスフェア,0
1714,4290001104420,新規,0,2024-01-19,2024-01-19,株式会社レグノ,,株式会社,福岡県,福岡市東区,香椎照葉５丁目１番１２－２００５号,,40,131,8130017,,,,,,,2024-01-19,1,,,,,レグノ,0
1715,4290001104429,新規,0,2024-01-19,2024-01-19,株式会社お金のぜんぶ,,株式会社,福岡県,福岡市中央区,天神１丁目４番１号西日本新聞会館１６階,,40,133,8100001,,,,,,,2024-01-19,1,,,,,オカネノゼンブ,0
1716,4290001104437,新規,0,2024-01-19,2024-01-19,株式会社ＫＳＭＲ,,株式会社,福岡県,福岡市中央区,白金１丁目２１番１３号３階,,40,133,8100012,,,,,,,2024-01-19,1,,,,,ケイエスエムアール,0
1717,4290001104445,新規,0,2024-01-19,2024-01-19,株式会社宮浦庭園,,株式会社,福岡県,福岡市東区,土井２丁目３５番１２号,,40,131,8130032,,,,,,,2024-01-19,1,,,,,ミヤウラテイエン,0
1732,4320001020242,新規,0,2024-01-19,2024-01-19,株式会社イロドリ,,株式会社,大分県,別府市,大字鶴見２８００番地の７,,44,202,8740840,,,,,,,2024-01-19,1,,,,,イロドリ,0
1739,4330001031676,新規,0,2024-01-19,2024-01-19,株式会社眞藤,,株式会社,熊本県,熊本市東区,戸島５丁目１８－３５,,43,102,8618041,,,,,,,2024-01-19,1,,,,,シントウ,0
1751,4340005009692,新規,0,2024-01-19,2024-01-19,一般社団法人ソーシャルグッドワークス,,その他の設立登記法人,鹿児島県,鹿児島市,稲荷町２５－２,,46,201,8920801,,,,,,,2024-01-19,1,,,,,ソーシャルグッドワークス,0
1756,4370001050846,新規,0,2024-01-19,2024-01-19,株式会社大槻商会,,株式会社,宮城県,東松島市,赤井字中浦９番地２,,04,214,9810501,,,,,,,2024-01-19,1,,,,,オオツキショウカイ,0
1763,4380003005665,新規,0,2024-01-19,2024-01-19,合同会社谷と川,,合同会社,福島県,耶麻郡北塩原村,大字桧原字小野川原１０９２番地３８－２１５,,07,402,9692701,,,,,,,2024-01-19,1,,,,,タニトカワ,0
1775,4430001090910,新規,0,2024-01-19,2024-01-19,ライナーノーツ株式会社,,株式会社,北海道,札幌市東区,北八条東４丁目１番２０号,,01,103,0600908,,,,,,,2024-01-19,1,,,,,ライナーノーツ,0
1776,4430001090919,新規,0,2024-01-19,2024-01-19,株式会社イツモ,,株式会社,北海道,札幌市豊平区,豊平五条２丁目１番１６－１０１号,,01,105,0620905,,,,,,,2024-01-19,1,,,,,イツモ,0
1780,4430003015873,新規,0,2024-01-19,2024-01-19,合同会社ＨＰＡ,,合同会社,北海道,札幌市手稲区,富丘三条１丁目９番１１号,,01,109,0060013,,,,,,,2024-01-19,1,,,,,エイチピーエー,0
1781,4450003002432,新規,0,2024-01-19,2024-01-19,合同会社福喜,,合同会社,北海道,上川郡東神楽町,ひじり野北一条７丁目１番９号,,01,453,0711521,,,,,,,2024-01-19,1,,,,,フクヨロ,0
1787,4480001012356,新規,0,2024-01-19,2024-01-19,株式会社Ｒ．ｗ．ＦｏｒｅｓｔｒＹ,,株式会社,徳島県,三好市,三野町加茂野宮２９６番地５,,36,208,7712302,,,,,,,2024-01-19,1,,,,,ロウウッドフォレストリー,0
1793,4700150116711,新規,0,2024-01-19,2024-01-19,義鳥市双曦電子商務有限公司,,外国会社等,,,,,,,,浙江省義鳥市江東街道商苑小区３１棟１単元３０２室,,,,,,2024-01-19,1,,,,,ギウシソウギデンシショウムユウゲンコウシ,0
1811,5010001241562,新規,0,2024-01-19,2024-01-19,株式会社むらかず不動産,,株式会社,東京都,中央区,新川１丁目２７番５－１４０２号,,13,102,1040033,,,,,,,2024-01-19,1,,,,,ムラカズフドウサン,0
1812,5010001241570,新規,0,2024-01-19,2024-01-19,株式会社サンライズトレーディング,,株式会社,東京都,中央区,日本橋人形町２丁目２２番５号,,13,102,1030013,,,,,,,2024-01-19,1,,,,,サンライズトレーディング,0
1819,5010003042711,新規,0,2024-01-19,2024-01-19,ＲＩＯ＆ＣＯ合同会社,,合同会社,東京都,中央区,勝どき６丁目３番２－４１１３号,,13,102,1040054,,,,,,,2024-01-19,1,,,,,リオアンドコウ,0
1820,5010005037750,新規,0,2024-01-19,2024-01-19,一般社団法人賃貸サポート協会,,その他の設立登記法人,東京都,千代田区,九段南４丁目６－９土屋ビル３Ｆ,,13,101,1020074,,,,,,,2024-01-19,1,,,,,チンタイサポートキョウカイ,0
1821,5010101015973,新規,0,2024-01-19,2024-01-19,株式会社ＧＴＧ,,株式会社,東京都,八王子市,散田町３丁目２５番１０号,,13,201,1930832,,,,,,,2024-01-19,1,,,,,ジーティジー,0
1830,5010401179808,新規,0,2024-01-19,2024-01-19,株式会社どんぐり,,株式会社,東京都,港区,南青山７丁目１番２１―５０４号,,13,103,1070062,,,,,,,2024-01-19,1,,,,,ドングリ,0
1831,5010401179816,新規,0,2024-01-19,2024-01-19,Ｌｅｓ　Ｂｌｅｕｓ株式会社,,株式会社,東京都,港区,赤坂８丁目５番５号パークコート青山一丁目５０６号,,13,103,1070052,,,,,,,2024-01-19,1,,,,,レブルー,0
1835,5010403031751,新規,0,2024-01-19,2024-01-19,合同会社Ｌｅａｇｕｅ,,合同会社,東京都,港区,南青山３丁目１番３６号青山丸竹ビル６Ｆ,,13,103,1070062,,,,,,,2024-01-19,1,,,,,リーグ,0
1836,5010403031768,新規,0,2024-01-19,2024-01-19,Ｑ式合同会社,,合同会社,東京都,港区,芝公園３丁目５番１５ー６０４号,,13,103,1050011,,,,,,,2024-01-19,1,,,,,キュウシキ,0
1838,5010501051635,新規,0,2024-01-19,2024-01-19,興盛商事株式会社,,株式会社,東京都,台東区,松が谷２丁目２８番９号,,13,106,1110036,,,,,,,2024-01-19,1,,,,,コウセイショウジ,0
1839,5010501051643,新規,0,2024-01-19,2024-01-19,台東プロパティマネジメント株式会社,,株式会社,東京都,台東区,下谷２丁目２１番８号河野ビル３Ｆ,,13,106,1100004,,,,,,,2024-01-19,1,,,,,タイトウプロパティマネジメント,0
1841,5010601064495,新規,0,2024-01-19,2024-01-19,モンスターパンター株式会社,,株式会社,東京都,江東区,亀戸７丁目５０番２号アーテプルミエ５０４号室,,13,108,1360071,,,,,,,2024-01-19,1,,,,,モンスターパンター,0
1846,5010703007022,新規,0,2024-01-19,2024-01-19,なんくる合同会社,,合同会社,東京都,品川区,荏原３丁目８－５オーパスレジデンス武蔵小山４０７,,13,109,1420063,,,,,,,2024-01-19,1,,,,,ナンクル,0
1853,5010901054551,新規,0,2024-01-19,2024-01-19,ＧＳＡ株式会社,,株式会社,東京都,世田谷区,成城２丁目１４番３号,,13,112,1570066,,,,,,,2024-01-19,1,,,,,ジーエスエー,0
1866,5011001159456,新規,0,2024-01-19,2024-01-19,株式会社オフィスＨ．ＳＯＧＯＨ,,株式会社,東京都,渋谷区,広尾４丁目１番２６号広尾ガーデンフォレストＢ９０７,,13,113,1500012,,,,,,,2024-01-19,1,,,,,オフィスエイチソゴウ,0
1869,5011003018305,新規,0,2024-01-19,2024-01-19,Ｐｉｏｎｙ＆ｂ．合同会社,,合同会社,東京都,渋谷区,上原２丁目１番４号,,13,113,1510064,,,,,,,2024-01-19,1,,,,,ピオニーアンドビー,0
1870,5011003018313,新規,0,2024-01-19,2024-01-19,合同会社ＥＭＺＥＱ,,合同会社,東京都,渋谷区,本町３丁目４１－８パセオ西新宿五丁目１－２０４,,13,113,1510071,,,,,,,2024-01-19,1,,,,,エムゼック,0
1873,5011101105847,新規,0,2024-01-19,2024-01-19,株式会社高木商会,00133422,株式会社,東京都,新宿区,新宿１丁目３０番１６号ルネ新宿御苑タワー,,13,104,1600022,,,,,,,2024-01-19,1,,,,,タカギショウカイ,0
1874,5011101105855,新規,0,2024-01-19,2024-01-19,さくらキャピタル株式会社,,株式会社,東京都,新宿区,新宿５丁目１１番３０号新宿第五葉山ビル３階,,13,104,1600022,,,,,,,2024-01-19,1,,,,,サクラキャピタル,0
1879,5011201025193,新規,0,2024-01-19,2024-01-19,トウコウジャパン株式会社,,株式会社,東京都,中野区,鷺宮２丁目５番６－２０１号,,13,114,1650032,,,,,,,2024-01-19,1,,,,,トウコウジャパン,0
1886,5011303005028,新規,0,2024-01-19,2024-01-19,合同会社第一企画,,合同会社,東京都,杉並区,浜田山４丁目１６番２０号,,13,115,1680065,,,,,,,2024-01-19,1,,,,,ダイイチキカク,0
1887,5011401025778,新規,0,2024-01-19,2024-01-19,株式会社ＨＡＩ　Ｃａｐｉｔａｌ,,株式会社,東京都,板橋区,前野町３丁目３３番１号７０８号室,,13,119,1740063,,,,,,,2024-01-19,1,,,,,ハイキャピタル,0
1889,5011501030208,新規,0,2024-01-19,2024-01-19,株式会社キャニバリズム,,株式会社,東京都,北区,東十条４丁目６番４号サンマリンビルＢ１０２,,13,117,1140001,,,,,,,2024-01-19,1,,,,,キャニバリズム,0
1890,5011503005918,新規,0,2024-01-19,2024-01-19,合同会社３ｙｓ工業,,合同会社,東京都,荒川区,町屋１丁目３３番１５号１Ｆ,,13,118,1160001,,,,,,,2024-01-19,1,,,,,スリーワイズ,0
1898,5011801043660,新規,0,2024-01-19,2024-01-19,かぶきゅう株式会社,,株式会社,東京都,葛飾区,金町２丁目２１番７－６０２号ライオンズヴィアーレ金町,,13,122,1250042,,,,,,,2024-01-19,1,,,,,カブキュウ,0
1899,5011801043677,新規,0,2024-01-19,2024-01-19,ＪＮＴ株式会社,,株式会社,東京都,葛飾区,東四つ木２丁目１６番５－２０２号ライオンズマンション立石南,,13,122,1240014,,,,,,,2024-01-19,1,,,,,ジェイエヌティー,0
1900,5011803006046,新規,0,2024-01-19,2024-01-19,合同会社ＤＳ,,合同会社,東京都,足立区,千住旭町７番９－３０５号,,13,121,1200026,,,,,,,2024-01-19,1,,,,,ディーエス,0
1904,5012801022919,新規,0,2024-01-19,2024-01-19,リバーウッドワークス株式会社,,株式会社,東京都,昭島市,拝島町２丁目１６番３－２０１号,,13,207,1960002,,,,,,,2024-01-19,1,,,,,リバーウッドワークス,0
1928,5020001155373,新規,0,2024-01-19,2024-01-19,株式会社ジーアイエン,,株式会社,神奈川県,横浜市瀬谷区,宮沢２丁目６３番地１７,,14,114,2460038,,,,,,,2024-01-19,1,,,,,ジーアイエン,0
1929,5020001155381,新規,0,2024-01-19,2024-01-19,株式会社やまとはな,,株式会社,神奈川県,横浜市磯子区,杉田１丁目６番１１号,,14,107,2350033,,,,,,,2024-01-19,1,,,,,ヤマトハナ,0
1930,5020001155398,新規,0,2024-01-19,2024-01-19,株式会社ブルーウッドオフィス,,株式会社,神奈川県,横浜市金沢区,釜利谷東５丁目３番１４号,,14,108,2360042,,,,,,,2024-01-19,1,,,,,ブルーウッドオフィス,0
1931,5020001155407,新規,0,2024-01-19,2024-01-19,株式会社ＷｉｚＬａｓｈ,,株式会社,神奈川県,横浜市中区,本牧満坂３３番地,,14,104,2310833,,,,,,,2024-01-19,1,,,,,ウィズラッシュ,0
2005,5040001131810,新規,0,2024-01-19,2024-01-19,株式会社ホスタ,,株式会社,千葉県,木更津市,請西南５丁目５番地１,,12,206,2920807,,,,,,,2024-01-19,1,,,,,ホスタ,0
2006,5040001131819,新規,0,2024-01-19,2024-01-19,オーファーム株式会社,,株式会社,千葉県,市川市,相之川１丁目２６番１０－８０１号,,12,203,2720143,,,,,,,2024-01-19,1,,,,,オーファーム,0
2007,5040001131827,新規,0,2024-01-19,2024-01-19,株式会社カームスプラス１,,株式会社,千葉県,市原市,小田部７４７番地１０,,12,219,2900176,,,,,,,2024-01-19,1,,,,,カームスプラスワン,0
2008,5040001131851,新規,0,2024-01-19,2024-01-19,株式会社Ｃａｌｌａ＆Ｃｏ．,,株式会社,千葉県,柏市,柏１丁目１番１１号ファミリかしわ３階,,12,217,2770005,,,,,,,2024-01-19,1,,,,,カラーアンドコー,0
2013,5040003024145,新規,0,2024-01-19,2024-01-19,合同会社ライズ,,合同会社,千葉県,市川市,福栄４丁目９番６号,,12,203,2720137,,,,,,,2024-01-19,1,,,,,ライズ,0
2017,5050001054127,新規,0,2024-01-19,2024-01-19,明宏プロダクツ株式会社,,株式会社,茨城県,龍ケ崎市,佐貫３丁目１０番地２０コーキビル２０４号,,08,208,3010032,,,,,,,2024-01-19,1,,,,,メイコウプロダクツ,0
2018,5050001054143,新規,0,2024-01-19,2024-01-19,株式会社りらいぶ,,株式会社,茨城県,古河市,女沼４００番地１ル・レーヴ５０２,,08,204,3060226,,,,,,,2024-01-19,1,,,,,リライブ,0
2019,5050003008072,新規,0,2024-01-19,2024-01-19,合同会社白,,合同会社,茨城県,高萩市,大字上手綱１６４２－２,,08,214,3180004,,,,,,,2024-01-19,1,,,,,ハク,0
2023,5070001041296,新規,0,2024-01-19,2024-01-19,剛工務店株式会社,,株式会社,群馬県,伊勢崎市,境伊与久３２６８番地１,,10,204,3700105,,,,,,,2024-01-19,1,,,,,ゴウコウムテン,0
2024,5070001041305,新規,0,2024-01-19,2024-01-19,株式会社心和工業,,株式会社,群馬県,高崎市,箕郷町矢原１６７８番地,,10,202,3703107,,,,,,,2024-01-19,1,,,,,シンワコウギョウ,0
2030,5080103002963,新規,0,2024-01-19,2024-01-19,合同会社ＯＬＩＯＬＩ‐ＷＯＲＫＳ,,合同会社,静岡県,熱海市,昭和町７‐１,,22,205,4130022,,,,,,,2024-01-19,1,,,,,オリオリワークス,0
2064,5090001018508,新規,0,2024-01-19,2024-01-19,株式会社ＭＧＲｅ,,株式会社,山梨県,南アルプス市,吉田７０６番地５,,19,208,4000304,,,,,,,2024-01-19,1,,,,,メグリ,0
2069,5100003007358,新規,0,2024-01-19,2024-01-19,合同会社しなの急送,,合同会社,長野県,須坂市,大字米子５７０番地１７,,20,207,3820000,,,,,,,2024-01-19,1,,,,,シナノキュウソウ,0
2082,5120001261285,新規,0,2024-01-19,2024-01-19,ＵＳＴＡＹ株式会社,,株式会社,大阪府,大阪市東成区,玉津２丁目１８－３,,27,115,5370023,,,,,,,2024-01-19,1,,,,,ユーステー,0
2083,5120001261450,新規,0,2024-01-19,2024-01-19,株式会社グローバルサポート,,株式会社,大阪府,大阪市生野区,新今里３丁目７－２,,27,116,5440001,,,,,,,2024-01-19,1,,,,,グローバルサポート,0
2084,5120001261467,新規,0,2024-01-19,2024-01-19,梵煕諾商事株式会社,,株式会社,大阪府,大阪市浪速区,下寺１丁目３番１６オリエンス夕陽丘６０２号,,27,111,5560001,,,,,,,2024-01-19,1,,,,,ボンキダクショウジ,0
2085,5120001261525,新規,0,2024-01-19,2024-01-19,シースタイル株式会社,,株式会社,大阪府,枚方市,北中振３丁目２２番１３号,,27,210,5730064,,,,,,,2024-01-19,1,,,,,シースタイル,0
2086,5120001261541,新規,0,2024-01-19,2024-01-19,株式会社斗里,,株式会社,大阪府,大阪市中央区,本町２丁目３番４号アソルティ本町４Ｆ,,27,128,5410053,,,,,,,2024-01-19,1,,,,,トーリ,0
2087,5120003025721,新規,0,2024-01-19,2024-01-19,ネクストステージ合同会社,,合同会社,大阪府,大阪市平野区,長吉長原東２丁目８番３６－５０９号,,27,126,5470013,,,,,,,2024-01-19,1,,,,,ネクストステージ,0
2092,5120901048641,新規,0,2024-01-19,2024-01-19,株式会社ＹＦＤ,,株式会社,大阪府,吹田市,豊津町１２－２４中村ビルＲｅ：ＺＯＮＥ江坂０１－２１０,,27,205,5640051,,,,,,,2024-01-19,1,,,,,ワイエフディー,0
2096,5130001076154,新規,0,2024-01-19,2024-01-19,株式会社ＣｈｒｏｎｏＶｉｓｉｏｎ,,株式会社,京都府,京都市西京区,山田南町３１番地１グレース桂１－Ｃ,,26,111,6158275,,,,,,,2024-01-19,1,,,,,クロノビジョン,0
2097,5130001076162,新規,0,2024-01-19,2024-01-19,開紅株式会社,,株式会社,京都府,京都市伏見区,深草稲荷御前町８１番地４,,26,109,6120881,,,,,,,2024-01-19,1,,,,,カイコウ,0
2104,5140001133020,新規,0,2024-01-19,2024-01-19,株式会社Ｙｓ設計,,株式会社,兵庫県,神戸市中央区,海岸通３丁目２番１５－１５０２号,,28,110,6500024,,,,,,,2024-01-19,1,,,,,ワイズセッケイ,0
2111,5150001027023,新規,0,2024-01-19,2024-01-19,株式会社ＣｕｒｉＬｉｎＱ,,株式会社,奈良県,桜井市,大字赤尾３４１番地の１,,29,206,6330006,,,,,,,2024-01-19,1,,,,,キュリンク,0
2113,5160003003095,新規,0,2024-01-19,2024-01-19,合同会社蓮,,合同会社,滋賀県,東近江市,伊庭町１８８３番地３,,25,213,5211235,,,,,,,2024-01-19,1,,,,,レン,0
2123,5180001159788,新規,0,2024-01-19,2024-01-19,株式会社マエダビジネスサポート,,株式会社,愛知県,名古屋市中村区,名駅３丁目３番２号志摩ビル５階,,23,105,4500002,,,,,,,2024-01-19,1,,,,,マエダビジネスサポート,0
2124,5180001159846,新規,0,2024-01-19,2024-01-19,株式会社グローバルハーモニー,,株式会社,愛知県,一宮市,本町４丁目７番１号ＢＥＬＩＳＴＡタワー一宮１７０３号,,23,203,4910859,,,,,,,2024-01-19,1,,,,,グローバルハーモニー,0
2125,5180001159854,新規,0,2024-01-19,2024-01-19,株式会社つづら原,,株式会社,愛知県,愛西市,草平町道下９７番地６,,23,232,4968015,,,,,,,2024-01-19,1,,,,,ツヅラバラ,0
2126,5180001159862,新規,0,2024-01-19,2024-01-19,株式会社ＳＲＫ,,株式会社,愛知県,名古屋市中区,栄５丁目３番６号,,23,106,4600008,,,,,,,2024-01-19,1,,,,,エスアールケー,0
2134,5180303005970,新規,0,2024-01-19,2024-01-19,合同会社ＤＣＬ,,合同会社,愛知県,豊田市,金谷町４丁目３２ルピナス宇野３０３,,23,211,4710876,,,,,,,2024-01-19,1,,,,,ディーシーエル,0
2137,5190005011903,新規,0,2024-01-19,2024-01-19,一般社団法人ＳＴＫ,,その他の設立登記法人,三重県,鈴鹿市,南堀江１丁目８番２６号,,24,207,5130046,,,,,,,2024-01-19,1,,,,,エスティケイ,0
2155,5240001062688,新規,0,2024-01-19,2024-01-19,ＢＢＦＫ株式会社,,株式会社,広島県,呉市,広多賀谷１丁目２番１０号,,34,202,7370134,,,,,,,2024-01-19,1,,,,,ビービーエフケー,0
2161,5290001104428,新規,0,2024-01-19,2024-01-19,ＳＵＮＷＥＡＬＣ株式会社,,株式会社,福岡県,福岡市中央区,天神１丁目４番１号西日本新聞会館１６階,,40,133,8100001,,,,,,,2024-01-19,1,,,,,サンウェルシー,0
2162,5290001104436,新規,0,2024-01-19,2024-01-19,株式会社ｏｒｉｇｉｎａｔｉｏｎ,,株式会社,福岡県,福岡市東区,箱崎ふ頭３丁目１－５－２０３,,40,131,8120051,,,,,,,2024-01-19,1,,,,,オリジネイション,0
2163,5290003014872,新規,0,2024-01-19,2024-01-19,未来設計コンサルティング合同会社,,合同会社,福岡県,福岡市中央区,天神２丁目２番１２号Ｔ＆Ｊビルディング７Ｆ,,40,133,8100001,,,,,,,2024-01-19,1,,,,,ミライセッケイコンサルティング,0
2164,5290005019267,新規,0,2024-01-19,2024-01-19,土地家屋調査士法人ハル登記測量事務所福岡,,その他の設立登記法人,福岡県,福岡市博多区,美野島１丁目９番１４号１００１号室,,40,132,8120017,,,,,,,2024-01-19,1,,,,,ハルトウキソクリョウジムショフクオカ,0
2165,5290801030220,新規,0,2024-01-19,2024-01-19,株式会社ＫＳＩＴ,,株式会社,福岡県,北九州市八幡西区,引野２丁目１１番２３号,,40,109,8060067,,,,,,,2024-01-19,1,,,,,ケイエスアイティー,0
2166,5290801030229,新規,0,2024-01-19,2024-01-19,株式会社魚英,,株式会社,福岡県,北九州市小倉南区,南方３丁目１３番２９－２０３号,,40,107,8020976,,,,,,,2024-01-19,1,,,,,ウオヒデ,0
2167,5290801030237,新規,0,2024-01-19,2024-01-19,株式会社ＮＯＢＵ,,株式会社,福岡県,京都郡苅田町,富久町１丁目２８番１８号手打ちうどん喜,,40,621,8000352,,,,,,,2024-01-19,1,,,,,ノブ,0
2182,5330001031675,新規,0,2024-01-19,2024-01-19,株式会社ＮＬ開発,,株式会社,熊本県,菊池郡大津町,大字岩坂３２５８番地１０,,43,403,8691222,,,,,,,2024-01-19,1,,,,,エヌエルカイハツ,0
2183,5330001031683,新規,0,2024-01-19,2024-01-19,株式会社ＡＱＵＡ　ｆｌｏｗ,,株式会社,熊本県,菊池市,泗水町豊水３３７４番地１,,43,210,8611212,,,,,,,2024-01-19,1,,,,,アクアフロウ,0
2195,5330003010173,新規,0,2024-01-19,2024-01-19,合同会社ＤＳ,,合同会社,熊本県,上益城郡益城町,大字安永７６４番地６７,,43,443,8612231,,,,,,,2024-01-19,1,,,,,ディエス,0
2196,5330003010181,新規,0,2024-01-19,2024-01-19,合同会社Ｔ．ＷＯＲＫ,,合同会社,熊本県,菊池郡大津町,大字室３２７番地１グリーンハイツ１０３号,,43,403,8691235,,,,,,,2024-01-19,1,,,,,ティーワーク,0
2206,5370001050829,新規,0,2024-01-19,2024-01-19,株式会社サムライマキナス,,株式会社,宮城県,仙台市若林区,遠見塚１丁目１０番２２号,,04,103,9840823,,,,,,,2024-01-19,1,,,,,サムライマキナス,0
2207,5370001050837,新規,0,2024-01-19,2024-01-19,株式会社スプレッド,,株式会社,宮城県,宮城郡利府町,しらかし台４丁目２番地１４,,04,406,9810134,,,,,,,2024-01-19,1,,,,,スプレッド,0
2219,5380001034252,新規,0,2024-01-19,2024-01-19,株式会社ｉｗａｋｉｋｉ,,株式会社,福島県,いわき市,平豊間字合磯２１８番地の１,,07,204,9700224,,,,,,,2024-01-19,1,,,,,イワキキ,0
2222,5400003003203,新規,0,2024-01-19,2024-01-19,合同会社Ｙ’Ｓサービス,,合同会社,岩手県,盛岡市,山岸１丁目１３番１４号,,03,201,0200004,,,,,,,2024-01-19,1,,,,,ワイズサービス,0
2236,5420001018556,新規,0,2024-01-19,2024-01-19,株式会社Ｊａｐａｎ　Ｎａｖｉ青森,,株式会社,青森県,青森市,新町２丁目２番１１号東奥日報新町ビル２Ｆ,,02,201,0300801,,,,,,,2024-01-19,1,,,,,ジャパンナビアオモリ,0
2245,5470003002561,新規,0,2024-01-19,2024-01-19,合同会社コネクト提案,,合同会社,香川県,坂出市,高屋町５０９－３,,37,203,7620017,,,,,,,2024-01-19,1,,,,,コネクトテイアン,0
2246,5470005006544,新規,0,2024-01-19,2024-01-19,社会保険労務士法人そうけいＬａｂ,,その他の設立登記法人,香川県,高松市,藤塚町１丁目１０番３０号ベストアメニティ高松ビル２Ｆ,,37,201,7600071,,,,,,,2024-01-19,1,,,,,ソウケイラボ,0
2250,5700150116710,新規,0,2024-01-19,2024-01-19,Ｓｉｍｐｌｅ　＆　ｃｏｚｙ　ｈｏｍｅ　ｉｎｃ,,外国会社等,,,,,,,,３６　Ｓｏｕｔｈ　１８ｔｈ　Ａｖｅｎｕｅ　Ｓｕｉｔｅ　Ａ　Ｂｒｉｇｈｔｏｎ　Ｃｏ　８０６０１　Ｕｎｉｔｅｄ　Ｓｔａｔｅｓ,,,,,,2024-01-19,1,,,,,シンプルアンドコージーホームインク,0
2260,6010001241578,新規,0,2024-01-19,2024-01-19,株式会社ＭＡＴＳＵＹＡ　ＧＩＮＺＡ．ｃｏｍ,,株式会社,東京都,中央区,銀座３丁目６番１号,,13,102,1040061,,,,,,,2024-01-19,1,,,,,マツヤギンザドットコム,0
2261,6010001241586,新規,0,2024-01-19,2024-01-19,株式会社カロッツェ,,株式会社,東京都,文京区,本郷３丁目２３番５号,,13,105,1130033,,,,,,,2024-01-19,1,,,,,カロッツェ,0
2262,6010001241603,新規,0,2024-01-19,2024-01-19,株式会社ＴＩＥＲＡ,,株式会社,東京都,中央区,銀座７丁目１３番２１号銀座ｓｉｎｒｏｋｕｓｙｕビル２階,,13,102,1040061,,,,,,,2024-01-19,1,,,,,ティエラ,0
2264,6010003042702,新規,0,2024-01-19,2024-01-19,ＲＩＶＥＲ合同会社,,合同会社,東京都,千代田区,霞が関３丁目２番５号,,13,101,1000013,,,,,,,2024-01-19,1,,,,,リバー,0
2277,6010401179807,新規,0,2024-01-19,2024-01-19,株式会社ロードハッカー,,株式会社,東京都,港区,白金２丁目１番１号パセオ三光坂２０１,,13,103,1080072,,,,,,,2024-01-19,1,,,,,ロードハッカー,0
2278,6010401179831,新規,0,2024-01-19,2024-01-19,株式会社レディーム,,株式会社,東京都,港区,南青山３丁目１番３６号青山丸竹ビル６Ｆ,,13,103,1070062,,,,,,,2024-01-19,1,,,,,レディーム,0
2279,6010401179856,新規,0,2024-01-19,2024-01-19,株式会社Ｂｒａｖｅ,,株式会社,東京都,港区,赤坂３丁目１９番２号ＡＫＡＳＡＫＡ・ＫＡＺＡＭＡ・ＢＵＩＬＤＩＮＧ・Ｂ１Ｆ,,13,103,1070052,,,,,,,2024-01-19,1,,,,,ブレイブ,0
2284,6010403031734,新規,0,2024-01-19,2024-01-19,Ｏ３合同会社,,合同会社,東京都,港区,六本木３丁目２番１号,,13,103,1060032,,,,,,,2024-01-19,1,,,,,オースリー,0
2287,6010405022847,新規,0,2024-01-19,2024-01-19,アントレ社会保険労務士法人,,その他の設立登記法人,東京都,港区,赤坂９丁目１番７号,,13,103,1070052,,,,,,,2024-01-19,1,,,,,,0
2288,6010405022888,新規,0,2024-01-19,2024-01-19,一般社団法人英国機械技術者協会日本支部,,その他の設立登記法人,東京都,港区,赤坂９丁目６番４１号乃木坂ビル３階,,13,103,1070052,,,,,,,2024-01-19,1,,,,,エイコクキカイギジュツシャキョウカイニホンシブ,0
2294,6010603010587,新規,0,2024-01-19,2024-01-19,合同会社鯉躍,,合同会社,東京都,墨田区,向島２丁目６番５号,,13,107,1310033,,,,,,,2024-01-19,1,,,,,リヤク,0
2295,6010603010595,新規,0,2024-01-19,2024-01-19,合同会社キャピタルクリエイト,,合同会社,東京都,江東区,有明１丁目３番１４－１９０８号,,13,108,1350063,,,,,,,2024-01-19,1,,,,,キャピタルクリエイト,0
2316,6011001159364,新規,0,2024-01-19,2024-01-19,株式会社ＢｒｉｄｇｅＥｓｔａｔｅ,,株式会社,東京都,渋谷区,初台１丁目４８番５号,,13,113,1510061,,,,,,,2024-01-19,1,,,,,ブリッジエステート,0
2317,6011001159447,新規,0,2024-01-19,2024-01-19,株式会社ＷＷＲ,,株式会社,東京都,渋谷区,千駄ヶ谷４丁目１４番３号ＷＷビル,,13,113,1510051,,,,,,,2024-01-19,1,,,,,ダブリューダブリューアール,0
2318,6011001159471,新規,0,2024-01-19,2024-01-19,株式会社Ｗｉｎ‐Ｄｅａｌ,,株式会社,東京都,渋谷区,神宮前２丁目２８番９号,,13,113,1500001,,,,,,,2024-01-19,1,,,,,ウィンディール,0
2319,6011001159488,新規,0,2024-01-19,2024-01-19,株式会社Ｏｎｅ　Ｓｈｏｔ,,株式会社,東京都,渋谷区,神宮前６丁目１９番１６号,,13,113,1500001,,,,,,,2024-01-19,1,,,,,ワンショット,0
2322,6011101105796,新規,0,2024-01-19,2024-01-19,Ｏｂｅｒ株式会社,,株式会社,東京都,新宿区,西新宿３丁目３番１３号西新宿水間ビル６階,,13,104,1600023,,,,,,,2024-01-19,1,,,,,オーバー,0
2323,6011101105838,新規,0,2024-01-19,2024-01-19,ＢＪ　Ｊａｐａｎ　Ｃａｐｉｔａｌ株式会社,,株式会社,東京都,新宿区,市谷本村町２番３号ＮＯＶＥＬＷＯＲＫＩｃｈｉｇａｙａ８階,,13,104,1620845,,,,,,,2024-01-19,1,,,,,ビージェージャパンキャピタル,0
2324,6011101105846,新規,0,2024-01-19,2024-01-19,株式会社ＲｅＧｌａｄ,,株式会社,東京都,新宿区,四谷３丁目８番１号メゾンメトロビル６Ｆ,,13,104,1600004,,,,,,,2024-01-19,1,,,,,リグラッド,0
2325,6011103013972,新規,0,2024-01-19,2024-01-19,Ａｐｐ　Ｐａｌｅｔｔｅ合同会社,,合同会社,東京都,新宿区,西新宿３丁目３番１３号西新宿水間ビル２Ｆ,,13,104,1600023,,,,,,,2024-01-19,1,,,,,アップパレット,0
2326,6011105010919,新規,0,2024-01-19,2024-01-19,行政書士法人ｋｉｒｐｉ,,その他の設立登記法人,東京都,新宿区,西新宿３丁目５番３－２１４号,,13,104,1600023,,,,,,,2024-01-19,1,,,,,キルピ,0
2327,6011201025184,新規,0,2024-01-19,2024-01-19,株式会社ＶＯＬＤＴ,,株式会社,東京都,中野区,本町３丁目２８番１８号オルドサカイ２０１,,13,114,1640012,,,,,,,2024-01-19,1,,,,,ヴォルド,0
2329,6011301029333,新規,0,2024-01-19,2024-01-19,株式会社アクティス不動産,,株式会社,東京都,杉並区,高井戸東１丁目１０番１７号,,13,115,1680072,,,,,,,2024-01-19,1,,,,,アクティスフドウサン,0
2331,6011501030207,新規,0,2024-01-19,2024-01-19,株式会社エースマンション管理士事務所,,株式会社,東京都,荒川区,西尾久４丁目１３番１４号１階,,13,118,1160011,,,,,,,2024-01-19,1,,,,,エースマンションカンリシジムショ,0
2332,6011601027474,新規,0,2024-01-19,2024-01-19,株式会社スカイウェイ,,株式会社,東京都,練馬区,土支田１丁目８番７号,,13,120,1790076,,,,,,,2024-01-19,1,,,,,スカイウェイ,0
2333,6011603004208,新規,0,2024-01-19,2024-01-19,合同会社浜田塗工,,合同会社,東京都,練馬区,下石神井３丁目９番７号,,13,120,1770042,,,,,,,2024-01-19,1,,,,,ハマダトコウ,0
2338,6012403006369,新規,0,2024-01-19,2024-01-19,合同会社Ｅｎ‐Ａｂｌｅ,,合同会社,東京都,武蔵野市,吉祥寺南町２丁目２７－９,,13,203,1800003,,,,,,,2024-01-19,1,,,,,エンエイブル,0
2341,6012801022918,新規,0,2024-01-19,2024-01-19,徳勝株式会社,,株式会社,東京都,昭島市,福島町１丁目１８番６号ベルリオ１０２号室,,13,207,1960031,,,,,,,2024-01-19,1,,,,,トクカツ,0
2345,6013303006962,新規,0,2024-01-19,2024-01-19,ＤＩＧＩＴＡＬＰＡＮＤＡ合同会社,,合同会社,東京都,豊島区,池袋２丁目１７番８号,,13,116,1710014,,,,,,,2024-01-19,1,,,,,デジタルパンダ,0
2365,6020001155372,新規,0,2024-01-19,2024-01-19,株式会社ＭＡＳＡＮＡ,,株式会社,神奈川県,横浜市港北区,樽町３丁目９番５２号,,14,109,2220001,,,,,,,2024-01-19,1,,,,,マサナ,0
2366,6020001155406,新規,0,2024-01-19,2024-01-19,株式会社ＦＥＳＴ　ＨＩＫＩＴＡ,,株式会社,神奈川県,川崎市中原区,木月住吉町１１番４４号富士ハイツ１階右室,,14,133,2110021,,,,,,,2024-01-19,1,,,,,フェストヒキタ,0
2402,6021001081253,新規,0,2024-01-19,2024-01-19,株式会社桃電設,,株式会社,神奈川県,相模原市中央区,相模原３丁目７番２６号グリーンコート４０１,,14,152,2520231,,,,,,,2024-01-19,1,,,,,トウデンセツ,0
2403,6021001081261,新規,0,2024-01-19,2024-01-19,株式会社アカラファーマシー,,株式会社,神奈川県,鎌倉市,由比ガ浜４丁目４番３７号１１１,,14,204,2480014,,,,,,,2024-01-19,1,,,,,アカラファーマシー,0
2421,6021003014038,新規,0,2024-01-19,2024-01-19,合同会社ＩＩＭ,,合同会社,神奈川県,逗子市,久木８丁目１１番２２号,,14,208,2490001,,,,,,,2024-01-19,1,,,,,アイアイエム,0
2424,6030001158250,新規,0,2024-01-19,2024-01-19,株式会社サンエス,,株式会社,埼玉県,さいたま市岩槻区,大字本宿７４番地５,,11,110,3390074,,,,,,,2024-01-19,1,,,,,サンエス,0
2429,6030003023444,新規,0,2024-01-19,2024-01-19,合同会社希望社,,合同会社,埼玉県,川口市,北原台３丁目２－２０,,11,203,3330815,,,,,,,2024-01-19,1,,,,,キボウシャ,0
2430,6030005021529,新規,0,2024-01-19,2024-01-19,一般社団法人スマイルシード,,その他の設立登記法人,埼玉県,上尾市,中妻１丁目７番地６,,11,219,3620072,,,,,,,2024-01-19,1,,,,,スマイルシード,0
2434,6040001131818,新規,0,2024-01-19,2024-01-19,ＢＥＳＴ　ＷＯＲＫＳ株式会社,,株式会社,千葉県,木更津市,万石５７２番地４,,12,206,2920003,,,,,,,2024-01-19,1,,,,,ベストワークス,0
2436,6040003024128,新規,0,2024-01-19,2024-01-19,合同会社ホープユアスマイル,,合同会社,千葉県,千葉市花見川区,幕張本郷１丁目１４番７号,,12,102,2620033,,,,,,,2024-01-19,1,,,,,ホープユアスマイル,0
2437,6040003024144,新規,0,2024-01-19,2024-01-19,合同会社ＴＳＵＭＵＧＵ,,合同会社,千葉県,船橋市,夏見台４丁目２０番４５号,,12,204,2730866,,,,,,,2024-01-19,1,,,,,ツムグ,0
2438,6050001054118,新規,0,2024-01-19,2024-01-19,株式会社Ｇ．Ｍ．Ｓ．ＴＲＡＤＥＲＳ,,株式会社,茨城県,猿島郡境町,大字伏木１５４５番地１－２号棟,,08,546,3060416,,,,,,,2024-01-19,1,,,,,ジーエムエストレーダース,0
2439,6050001054142,新規,0,2024-01-19,2024-01-19,株式会社Ｎｐｌｕｓ,,株式会社,茨城県,つくばみらい市,富士見ヶ丘４丁目１６番地２,,08,235,3002417,,,,,,,2024-01-19,1,,,,,エヌプラス,0
2446,6080101024471,新規,0,2024-01-19,2024-01-19,株式会社わっか,,株式会社,静岡県,駿東郡長泉町,中土狩８７４－１プリモ・ウェルズ,,22,342,4110942,,,,,,,2024-01-19,1,,,,,ワッカ,0
2481,6100001037141,新規,0,2024-01-19,2024-01-19,株式会社ＣｒｏｐＳ,,株式会社,長野県,上伊那郡飯島町,七久保１７１３番地２,,20,384,3993705,,,,,,,2024-01-19,1,,,,,クロップス,0
2486,6110001038114,新規,0,2024-01-19,2024-01-19,株式会社ミクリ,,株式会社,新潟県,南蒲原郡田上町,大字坂田８１番地,,15,361,9591514,,,,,,,2024-01-19,1,,,,,ミクリ,0
2488,6110003005269,新規,0,2024-01-19,2024-01-19,合同会社新永工業,,合同会社,新潟県,新潟市中央区,大島１７番地１,,15,103,9500953,,,,,,,2024-01-19,1,,,,,シンエイコウギョウ,0
2498,6120001261276,新規,0,2024-01-19,2024-01-19,株式会社ＡＩＭＡＮＴ,,株式会社,大阪府,大阪市阿倍野区,松崎町２丁目３番地２０号ＫＩＩＩビル３Ｆ,00133403,27,119,5450053,,,,,,,2024-01-19,1,,,,,エマン,0
2499,6120001261433,新規,0,2024-01-19,2024-01-19,株式会社Ｒｅｓｏｒｔ　ｉｎｖｅｓｔｍｅｎｔ,,株式会社,大阪府,大阪市中央区,大手前１丁目７－３１ＯＭＭビル１Ｆ,,27,128,5400008,,,,,,,2024-01-19,1,,,,,リゾートインベストメント,0
2500,6120001261482,新規,0,2024-01-19,2024-01-19,株式会社タスクパートナーズ,,株式会社,大阪府,大阪市北区,梅田１丁目１－３大阪駅前第３ビル２９階１－１－１号室,,27,127,5300001,,,,,,,2024-01-19,1,,,,,タスクパートナーズ,0
2501,6120001261490,新規,0,2024-01-19,2024-01-19,禾木株式会社,,株式会社,大阪府,大阪市東淀川区,西淡路３丁目１２番３－１０１号,,27,114,5330031,,,,,,,2024-01-19,1,,,,,カボク,0
2502,6120001261516,新規,0,2024-01-19,2024-01-19,株式会社ＧＲＯＯＲＴ,,株式会社,大阪府,大阪市中央区,本町橋七丁目１７番トウセン本町橋ビル３階,,27,128,5400029,,,,,,,2024-01-19,1,,,,,グルート,0
2503,6120001261524,新規,0,2024-01-19,2024-01-19,Ｌ＆Ｐ株式会社,,株式会社,大阪府,大阪市阿倍野区,丸山通１丁目５番１号,,27,119,5450042,,,,,,,2024-01-19,1,,,,,エルアンドピー,0
2504,6120001261540,新規,0,2024-01-19,2024-01-19,株式会社ＵＡ,,株式会社,大阪府,大阪市西区,南堀江４丁目１１番８－２３０５号,,27,106,5500015,,,,,,,2024-01-19,1,,,,,ユーエー,0
2505,6120001261573,新規,0,2024-01-19,2024-01-19,国富株式会社,,株式会社,大阪府,大阪市浪速区,桜川３丁目６－１７,,27,111,5560022,,,,,,,2024-01-19,1,,,,,クニトミ,0
2506,6120001261581,新規,0,2024-01-19,2024-01-19,ＡＳＴＡＲ株式会社,,株式会社,大阪府,大阪市中央区,南船場２丁目７番６－２１３号,,27,128,5420081,,,,,,,2024-01-19,1,,,,,アスター,0
2511,6120003025712,新規,0,2024-01-19,2024-01-19,合同会社ワイズ,,合同会社,大阪府,大阪市北区,太融寺町２番２２号梅田八千代ビル４階,,27,127,5300051,,,,,,,2024-01-19,1,,,,,ワイズ,0
2512,6120003025720,新規,0,2024-01-19,2024-01-19,合同会社ＢＬＵＥ　ＢＩＲＤ,,合同会社,大阪府,大阪市鶴見区,茨田大宮２丁目７－５５カーザ宮之前３０６,,27,124,5380031,,,,,,,2024-01-19,1,,,,,ブルーバード,0
2517,6120901048640,新規,0,2024-01-19,2024-01-19,株式会社進喜,,株式会社,大阪府,高槻市,塚原２丁目１２番４５号,,27,207,5691046,,,,,,,2024-01-19,1,,,,,シンキ,0
2518,6120901048649,新規,0,2024-01-19,2024-01-19,株式会社ブロックフォトグラフ,,株式会社,大阪府,豊中市,西緑丘３丁目２６番４号,,27,203,5600005,,,,,,,2024-01-19,1,,,,,ブロックフォトグラフ,0
2519,6120901048657,新規,0,2024-01-19,2024-01-19,株式会社コンフィデンス,,株式会社,大阪府,高槻市,城北町１丁目４番１８号,,27,207,5690071,,,,,,,2024-01-19,1,,,,,コンフィデンス,0
2522,6120905006553,新規,0,2024-01-19,2024-01-19,一般社団法人日本心臓移植学会,,その他の設立登記法人,大阪府,吹田市,山田丘２番２号大阪大学大学院医学系研究科心臓血管外科学内,,27,205,5650871,,,,,,,2024-01-19,1,,,,,ニホンシンゾウイショクガッカイ,0
2531,6130003009243,新規,0,2024-01-19,2024-01-19,合同会社ハウル,,合同会社,京都府,京都市北区,衣笠東御所ノ内町５８－２０５,,26,101,6038371,,,,,,,2024-01-19,1,,,,,ハウル,0
2533,6140001133044,新規,0,2024-01-19,2024-01-19,株式会社ＨＯＭＥ,,株式会社,兵庫県,姫路市,十二所前町８５番地ＭＫ．ＦＯＲＴ,,28,201,6700911,,,,,,,2024-01-19,1,,,,,ホーム,0
2534,6140003020059,新規,0,2024-01-19,2024-01-19,合同会社Ｌｅｉ,,合同会社,兵庫県,神戸市中央区,中山手通１丁目９番１２号Ｍ’ｓビル,,28,110,6500004,,,,,,,2024-01-19,1,,,,,レイ,0
2535,6140003020067,新規,0,2024-01-19,2024-01-19,合同会社ＤＡ研,,合同会社,兵庫県,神戸市須磨区,妙法寺字谷野１５４番地ビラ妙法寺Ｃ棟１０１号室,,28,107,6540121,,,,,,,2024-01-19,1,,,,,ディーエーケン,0
2538,6160001025636,新規,0,2024-01-19,2024-01-19,株式会社ＴＪＫ,,株式会社,滋賀県,大津市,萱野浦２５番２４－２０７号,,25,201,5202143,,,,,,,2024-01-19,1,,,,,ティージェーケー,0
2539,6160005011260,新規,0,2024-01-19,2024-01-19,一般社団法人Ｍｏａｎａ,,その他の設立登記法人,滋賀県,長浜市,高月町重則８９,,25,203,5290275,,,,,,,2024-01-19,1,,,,,モアナ,0
2545,6180001159754,新規,0,2024-01-19,2024-01-19,株式会社Ｌ＆Ｆ,,株式会社,愛知県,名古屋市中村区,名駅３丁目４番１０号アルティメイト名駅１ｓｔ２階,,23,105,4500002,,,,,,,2024-01-19,1,,,,,エルアンドエフ,0
2546,6180001159861,新規,0,2024-01-19,2024-01-19,株式会社ＬｉｆＡｃｔ,,株式会社,愛知県,名古屋市中村区,太閤通９丁目２０番地の２（ミヤウラビル６０３号）,,23,105,4530811,,,,,,,2024-01-19,1,,,,,リフアクト,0
2552,6180003026234,新規,0,2024-01-19,2024-01-19,合同会社ＵｎｄｅｒｔａｋＥ‐Ｙ,,合同会社,愛知県,一宮市,木曽川町玉ノ井字野方浦１６１番地,,23,203,4930004,,,,,,,2024-01-19,1,,,,,アンダーテイクワイ,0
2553,6180003026242,新規,0,2024-01-19,2024-01-19,合同会社ＹＯプラス,,合同会社,愛知県,稲沢市,祖父江町三丸渕二段割３０番地３,,23,220,4950021,,,,,,,2024-01-19,1,,,,,ワイオープラス,0
2557,6190003004560,新規,0,2024-01-19,2024-01-19,合同会社ｔｓｕｃｒｅＡ,,合同会社,三重県,津市,渋見町７４９番地２６,,24,201,5140063,,,,,,,2024-01-19,1,,,,,ツクリエ,0
2558,6190005011902,新規,0,2024-01-19,2024-01-19,特定非営利活動法人ははごころ,,その他の設立登記法人,三重県,四日市市,波木が丘町３３番地３,,24,202,5100962,,,,,,,2024-01-19,1,,,,,ハハゴコロ,0
2573,6220001025778,新規,0,2024-01-19,2024-01-19,株式会社叶桜,,株式会社,石川県,金沢市,駅西本町３丁目１６０６番,,17,201,9200025,,,,,,,2024-01-19,1,,,,,カオウ,0
2579,6230001020175,新規,0,2024-01-19,2024-01-19,株式会社Ｃｒｅａｔｉｖｅ　Ｗｏｒｌｄ　Ｊａｐａｎ,,株式会社,富山県,富山市,秋吉１２１番地９,,16,201,9300953,,,,,,,2024-01-19,1,,,,,クリエイティブワールドジャパン,0
2580,6230001020183,新規,0,2024-01-19,2024-01-19,フィオレ株式会社,,株式会社,富山県,富山市,黒瀬１７０番地５,,16,201,9398213,,,,,,,2024-01-19,1,,,,,フィオレ,0
2583,6240001062687,新規,0,2024-01-19,2024-01-19,株式会社ガードセキュリティ,,株式会社,広島県,広島市東区,二葉の里１丁目４番１８号,,34,102,7320057,,,,,,,2024-01-19,1,,,,,ガードセキュリティ,0
2587,6260001038660,新規,0,2024-01-19,2024-01-19,株式会社ＰＨＬ,,株式会社,岡山県,岡山市北区,下中野３１０番地１０９,,33,101,7000973,,,,,,,2024-01-19,1,,,,,ピーエッチエル,0
2589,6270001008910,新規,0,2024-01-19,2024-01-19,株式会社ブラッドオレンジ,,株式会社,鳥取県,米子市,上福原５丁目３番１４号,,31,202,6830004,,,,,,,2024-01-19,1,,,,,ブラッドオレンジ,0
2594,6290001104435,新規,0,2024-01-19,2024-01-19,株式会社雅,,株式会社,福岡県,大牟田市,新地町４番地１,,40,202,8360032,,,,,,,2024-01-19,1,,,,,ミヤビ,0
2597,6290801030228,新規,0,2024-01-19,2024-01-19,株式会社ＧＭＡＪＯＲ,,株式会社,福岡県,直方市,大字感田２３１３番地,,40,204,8220001,,,,,,,2024-01-19,1,,,,,ジーメジャー,0
2607,6320001020240,新規,0,2024-01-19,2024-01-19,株式会社勇志建設工業,,株式会社,大分県,大分市,大字佐野４１１１番地の２,,44,201,8700315,,,,,,,2024-01-19,1,,,,,ユウシケンセツコウギョウ,0
2609,6320003004274,新規,0,2024-01-19,2024-01-19,合同会社クレアフィット,,合同会社,大分県,日田市,大字夜明３５２６番地２,,44,204,8770000,,,,,,,2024-01-19,1,,,,,クレアフィット,0
2615,6330001031674,新規,0,2024-01-19,2024-01-19,株式会社ＫＡＧＯＳＨＩＭＡ　Ｃｒｕｔｏ,,株式会社,熊本県,熊本市東区,下江津５丁目１０番２２号,,43,102,8620960,,,,,,,2024-01-19,1,,,,,カゴシマクルト,0
2616,6330001031682,新規,0,2024-01-19,2024-01-19,株式会社Ｓ・Ｔ・Ｋ,,株式会社,熊本県,熊本市中央区,新大江１丁目２３番１７号,,43,101,8620972,,,,,,,2024-01-19,1,,,,,エスティーケー,0
2633,6350001018752,新規,0,2024-01-19,2024-01-19,株式会社ゼロワン,,株式会社,宮崎県,日南市,吾田西１丁目８番８号,,45,204,8892536,,,,,,,2024-01-19,1,,,,,ゼロワン,0
2638,6360003013627,新規,0,2024-01-19,2024-01-19,合同会社恵理,,合同会社,沖縄県,中頭郡読谷村,字比謝３３８番地１ＨＪ２－５０２,,47,324,9040311,,,,,,,2024-01-19,1,,,,,メグリ,0
2654,6410001013706,新規,0,2024-01-19,2024-01-19,株式会社アシストクリーン,,株式会社,秋田県,大館市,清水１丁目１番９２号,,05,204,0170046,,,,,,,2024-01-19,1,,,,,アシストクリーン,0
2658,6410003003878,新規,0,2024-01-19,2024-01-19,合同会社ホームテックアイ,,合同会社,秋田県,南秋田郡八郎潟町,小池字岡本下台１５番地３,,05,363,0181603,,,,,,,2024-01-19,1,,,,,,0
2660,6420001018555,新規,0,2024-01-19,2024-01-19,株式会社コーセー不動産,,株式会社,青森県,弘前市,大字城東北３丁目４番地１６,,02,202,0368092,,,,,,,2024-01-19,1,,,,,コーセーフドウサン,0
2661,6430001090909,新規,0,2024-01-19,2024-01-19,ＴＲエナジー２ｎｄ株式会社,,株式会社,北海道,札幌市中央区,宮の森四条１２丁目１番２２号,,01,101,0640954,,,,,,,2024-01-19,1,,,,,ティーアールエナジーセカンド,0
2662,6430001090917,新規,0,2024-01-19,2024-01-19,トリセツキチ株式会社,,株式会社,北海道,札幌市北区,新琴似十条８丁目４番１０号,,01,102,0010910,,,,,,,2024-01-19,1,,,,,トリセツキチ,0
2672,6700150114829,新規,0,2024-01-19,2024-01-19,綿陽天鋭商貿有限公司,,外国会社等,,,,,,,,四川省綿陽市＿城区剣門路東段５６号,00133350,,,,,2024-01-19,1,,,,,メンヨウテンエイショウボウユウゲンコウシ,0
2680,7010001241412,新規,0,2024-01-19,2024-01-19,メイドイン・コレクション株式会社,,株式会社,東京都,千代田区,霞が関３丁目２番５号,,13,101,1000013,,,,,,,2024-01-19,1,,,,,メイドインコレクション,0
2681,7010001241486,新規,0,2024-01-19,2024-01-19,株式会社ｆｕｋａｎ,,株式会社,東京都,中央区,銀座１丁目１２－４Ｎ＆ＥＢＬＤ．７階,,13,102,1040061,,,,,,,2024-01-19,1,,,,,フカン,0
2682,7010001241536,新規,0,2024-01-19,2024-01-19,株式会社Ｙ＆Ａ　ＣＯＭＭＵＮＩＣＡＴＩＯＮＳ,,株式会社,東京都,千代田区,九段南１丁目５番６号りそな九段ビル５階,,13,101,1020074,,,,,,,2024-01-19,1,,,,,ワイアンドエーコミュニケーションズ,0
2683,7010001241552,新規,0,2024-01-19,2024-01-19,株式会社ＦＵＮＳＥＭ,,株式会社,東京都,千代田区,神田佐久間町３丁目５番地第二櫻井ビル４階４５号室,,13,101,1010025,,,,,,,2024-01-19,1,,,,,ファンセム,0
2684,7010001241560,新規,0,2024-01-19,2024-01-19,株式会社Ｈ＆Ｋアセットマネジメント,,株式会社,東京都,中央区,銀座８丁目１２番８号ＰＭＯ銀座八丁目７階,,13,102,1040061,,,,,,,2024-01-19,1,,,,,エイチアンドケーアセットマネジメント,0
2685,7010001241577,新規,0,2024-01-19,2024-01-19,株式会社ＦＡＥ,,株式会社,東京都,中央区,銀座５丁目９番１２号,,13,102,1040061,,,,,,,2024-01-19,1,,,,,エフエーイー,0
2686,7010001241602,新規,0,2024-01-19,2024-01-19,Ｐｅｄａｌｉｎｇ　Ｊａｐａｎ　Ｔｏｕｒｓ株式会社,,株式会社,東京都,中央区,日本橋横山町３番８号オーヒロローズハイツ１００３Ｆ,,13,102,1030003,,,,,,,2024-01-19,1,,,,,ペダリングジャパンツアーズ,0
2687,7010001241610,新規,0,2024-01-19,2024-01-19,Ｌｏｃａｓｅｅｋ株式会社,,株式会社,東京都,千代田区,丸の内２丁目２番１号,,13,101,1000005,,,,,,,2024-01-19,1,,,,,ロケシーク,0
2689,7010003042668,新規,0,2024-01-19,2024-01-19,合同会社ＪＲＥＡＳＴファンド第７号,,合同会社,東京都,中央区,日本橋１丁目４番１号日本橋一丁目ビルディング,,13,102,1030027,,,,,,,2024-01-19,1,,,,,ジェイアールイーストファンドダイナナゴウ,0
2690,7010003042676,新規,0,2024-01-19,2024-01-19,Ｂａｙｓｐａｉｒ　Ｊａｐａｎ合同会社,,合同会社,東京都,中央区,銀座１丁目１２番４号Ｎ＆Ｅ－ＢＬＤ．７階,,13,102,1040061,,,,,,,2024-01-19,1,,,,,ベイスペアジャパン,0
2701,7010401179756,新規,0,2024-01-19,2024-01-19,ＳＪインサイトソリューションズ株式会社,,株式会社,東京都,港区,赤坂２丁目１７番５０－３００６号,,13,103,1070052,,,,,,,2024-01-19,1,,,,,エスジェイインサイトソリューションズ,0
2702,7010401179772,新規,0,2024-01-19,2024-01-19,オラシアス株式会社,,株式会社,東京都,港区,北青山１丁目３番１号アールキューブ青山３階,,13,103,1070061,,,,,,,2024-01-19,1,,,,,オラシアス,0
2703,7010401179822,新規,0,2024-01-19,2024-01-19,株式会社ａｌｌｉｅ,,株式会社,東京都,港区,元麻布２丁目１１番１７－２０１号,,13,103,1060046,,,,,,,2024-01-19,1,,,,,アリエ,0
2704,7010401179830,新規,0,2024-01-19,2024-01-19,株式会社ＨＥＲＯ’ＺＺ,,株式会社,東京都,港区,海岸１丁目４番２２号１０階,,13,103,1050022,,,,,,,2024-01-19,1,,,,,ヒーローズ,0
2705,7010403031758,新規,0,2024-01-19,2024-01-19,合同会社ＮＩＫＯＬＡ,,合同会社,東京都,港区,六本木１丁目５番３－１１０５号,,13,103,1060032,,,,,,,2024-01-19,1,,,,,ニコラ,0
2708,7010405022854,新規,0,2024-01-19,2024-01-19,一般社団法人日本美容看護学会,,その他の設立登記法人,東京都,港区,愛宕２丁目５番１号愛宕グリーンヒルズＭＯＲＩタワー３４Ｆ,,13,103,1050002,,,,,,,2024-01-19,1,,,,,ニホンビヨウカンゴガッカイ,0
2709,7010405022887,新規,0,2024-01-19,2024-01-19,Ｍｏｚｕ一般社団法人,,その他の設立登記法人,東京都,港区,西新橋１丁目１番１号ＥＰコンサルティングサービス内,,13,103,1050003,,,,,,,2024-01-19,1,,,,,モズ,0
2712,7010503007311,新規,0,2024-01-19,2024-01-19,合同会社ゼネスペ,,合同会社,東京都,台東区,上野３丁目６番３号,,13,106,1100005,,,,,,,2024-01-19,1,,,,,ゼネスペ,0
2734,7011001159438,新規,0,2024-01-19,2024-01-19,株式会社特Ｑｕｅ,,株式会社,東京都,渋谷区,神宮前３丁目３２番６号デュオ表参道２０１号,,13,113,1500001,,,,,,,2024-01-19,1,,,,,トッキュウ,0
2735,7011001159479,新規,0,2024-01-19,2024-01-19,株式会社ＡＩＢＮ,,株式会社,東京都,目黒区,青葉台１丁目２７－１０－１２Ｆ,,13,110,1530042,,,,,,,2024-01-19,1,,,,,エーアイビーエヌ,0
2736,7011001159487,新規,0,2024-01-19,2024-01-19,株式会社ＭＡＫＡ,,株式会社,東京都,目黒区,五本木３丁目１２番８号,,13,110,1530053,,,,,,,2024-01-19,1,,,,,マカ,0
2737,7011001159504,新規,0,2024-01-19,2024-01-19,株式会社ＳＷＹ　ＪＡＰＡＮ,,株式会社,東京都,渋谷区,千駄ヶ谷１丁目６番４号千駄ヶ谷コーポラス２０３号室,,13,113,1510051,,,,,,,2024-01-19,1,,,,,エスダブリューワイジャパン,0
2744,7011101105853,新規,0,2024-01-19,2024-01-19,ＫＥＩＹＯホールディングス株式会社,,株式会社,東京都,新宿区,新小川町３番１６号,,13,104,1620814,,,,,,,2024-01-19,1,,,,,ケイヨーホールディングス,0
2745,7011101105861,新規,0,2024-01-19,2024-01-19,株式会社Ｍｅｔｅｏｒ,,株式会社,東京都,新宿区,西新宿３丁目３番１３号西新宿水間ビル６階,,13,104,1600023,,,,,,,2024-01-19,1,,,,,ミーティア,0
2746,7011101105903,新規,0,2024-01-19,2024-01-19,株式会社ジェイ・ケイ・ジー,,株式会社,東京都,新宿区,下宮比町１番４号,,13,104,1620822,,,,,,,2024-01-19,1,,,,,ジェイケイジー,0
2750,7011303005034,新規,0,2024-01-19,2024-01-19,耐震技研合同会社,,合同会社,東京都,杉並区,西荻北２丁目２番１１号,,13,115,1670042,,,,,,,2024-01-19,1,,,,,タイシンギケン,0
2751,7011305002954,新規,0,2024-01-19,2024-01-19,一般社団法人フリースクール新宿アレーズ,,その他の設立登記法人,東京都,杉並区,成田東１丁目４７番１０号,,13,115,1660015,,,,,,,2024-01-19,1,,,,,フリースクールシンジュクアレーズ,0
2754,7011601027473,新規,0,2024-01-19,2024-01-19,株式会社ＳＩＬＶＥＲ　ＣＯＲＤ,,株式会社,東京都,練馬区,桜台６丁目３３番２８号,,13,120,1760002,,,,,,,2024-01-19,1,,,,,シルバーコード,0
2755,7011603004207,新規,0,2024-01-19,2024-01-19,ＡＶＥ合同会社,,合同会社,東京都,練馬区,高野台２丁目２７番１３号ヴィライガラシ３０１,,13,120,1770033,,,,,,,2024-01-19,1,,,,,アベ,0
2762,7011801043659,新規,0,2024-01-19,2024-01-19,元亨株式会社,,株式会社,東京都,足立区,千住緑町２丁目４番５号,,13,121,1200044,,,,,,,2024-01-19,1,,,,,ゲンコウ,0
2763,7012703002892,新規,0,2024-01-19,2024-01-19,ツーネクスト合同会社,,合同会社,東京都,小平市,美園町１丁目２番１９－４０１号,,13,211,1870041,,,,,,,2024-01-19,1,,,,,ツーネクスト,0
2765,7012801022917,新規,0,2024-01-19,2024-01-19,株式会社Ｊｏｙ　Ｆｉｅｌｄ,,株式会社,東京都,立川市,上砂町３丁目７番地の２１,,13,202,1900032,,,,,,,2024-01-19,1,,,,,ジョイフィールド,0
2766,7012803003287,新規,0,2024-01-19,2024-01-19,合同会社Ｋｉｎｄ,,合同会社,東京都,国分寺市,南町２丁目１１番１７号ドゥ・リヴェール１Ｆ,,13,214,1850021,,,,,,,2024-01-19,1,,,,,カインド,0
2768,7013301051927,新規,0,2024-01-19,2024-01-19,株式会社ロアー,,株式会社,東京都,豊島区,西池袋５丁目５番地２１号９０４号室,,13,116,1710021,,,,,,,2024-01-19,1,,,,,ロアー,0
2791,7020001155371,新規,0,2024-01-19,2024-01-19,株式会社ワイ・ワイ・エム・アンド・カンパニー,,株式会社,神奈川県,横浜市金沢区,能見台東４番１号,,14,108,2360058,,,,,,,2024-01-19,1,,,,,ワイワイエムアンドカンパニー,0
2792,7020001155388,新規,0,2024-01-19,2024-01-19,株式会社ファンファン,,株式会社,神奈川県,横浜市鶴見区,寺谷１丁目４番１２号,,14,101,2300015,,,,,,,2024-01-19,1,,,,,ファンファン,0
2817,7020003025382,新規,0,2024-01-19,2024-01-19,レップス合同会社,,合同会社,神奈川県,横浜市泉区,新橋町１１０１番地,,14,116,2450009,,,,,,,2024-01-19,1,,,,,レップス,0
2858,7030001158241,新規,0,2024-01-19,2024-01-19,株式会社Ｔｈｉｓ　Ｔｉｍｅ,,株式会社,埼玉県,桶川市,坂田西１丁目９番地の３,,11,231,3630018,,,,,,,2024-01-19,1,,,,,ディスタイム,0
2859,7030001158258,新規,0,2024-01-19,2024-01-19,株式会社上々,,株式会社,埼玉県,さいたま市中央区,本町西６丁目３番９号アルファスクエアさいたま新都心５０２号,,11,105,3380004,,,,,,,2024-01-19,1,,,,,ジョウジョウ,0
2860,7030001158274,新規,0,2024-01-19,2024-01-19,株式会社Ｋａｆｕｕ,,株式会社,埼玉県,越谷市,レイクタウン７丁目４番地１クレアレイク３０１,,11,222,3430828,,,,,,,2024-01-19,1,,,,,カフー,0
2865,7030003023435,新規,0,2024-01-19,2024-01-19,インフィニス合同会社,,合同会社,埼玉県,三郷市,戸ケ崎５丁目１５７－７,,11,237,3410044,,,,,,,2024-01-19,1,,,,,インフィニス,0
2870,7040001131817,新規,0,2024-01-19,2024-01-19,株式会社いちぞの,,株式会社,千葉県,佐倉市,生谷１６０９番地１２８,,12,212,2850836,,,,,,,2024-01-19,1,,,,,イチゾノ,0
2876,7060001036741,新規,0,2024-01-19,2024-01-19,ＴＯＫＹＯ　ＪＡＰＡＮ　ＳＡＫＵＲＡ　ＫＹＵ株式会社,,株式会社,栃木県,足利市,山下町９３５番地第一根岸ハイツ１６号,,09,202,3260846,,,,,,,2024-01-19,1,,,,,トウキョウジャパンサクラチュー,0
2880,7070003005231,新規,0,2024-01-19,2024-01-19,合同会社ＴＡＮ　ＶＩＥＴ,,合同会社,群馬県,邑楽郡邑楽町,大字中野蛭沼６０６番地１７蛭沼店舗,,10,525,3700603,,,,,,,2024-01-19,1,,,,,タンベト,0
2883,7080001026088,新規,0,2024-01-19,2024-01-19,株式会社ピクシー・ワークス,,株式会社,静岡県,静岡市駿河区,南町４番３３号南町ビル３階,,22,102,4228067,,,,,,,2024-01-19,1,,,,,ピクシーワークス,0
2886,7080101024487,新規,0,2024-01-19,2024-01-19,ＡＮＤ不動産株式会社,,株式会社,静岡県,御殿場市,新橋１９６７－１３ＡＭＰ１Ｆ,,22,215,4120043,,,,,,,2024-01-19,1,,,,,アンドフドウサン,0
2922,7100001037124,新規,0,2024-01-19,2024-01-19,Ａｌｐｈａｂｅｔ　Ｓｏｕｐ株式会社,,株式会社,長野県,上田市,中央６丁目１７番８号シャーメゾン愛宕町２０１号,,20,203,3860012,,,,,,,2024-01-19,1,,,,,アルファベットスープ,0
2923,7100001037140,新規,0,2024-01-19,2024-01-19,安曇野ＲＥ株式会社,,株式会社,長野県,東筑摩郡山形村,字下本郷４０８２番地３,,20,450,3901301,,,,,,,2024-01-19,1,,,,,アズミノアールイー,0
2924,7100003007364,新規,0,2024-01-19,2024-01-19,合同会社万協,,合同会社,長野県,上伊那郡飯島町,七久保４４５６番地１１,,20,384,3993705,,,,,,,2024-01-19,1,,,,,バンキョウ,0
2925,7110001038113,新規,0,2024-01-19,2024-01-19,ＡＣＥ　ＴＡＢＬＥ株式会社,,株式会社,新潟県,新潟市中央区,天神尾２丁目１３番１３号,,15,103,9500905,,,,,,,2024-01-19,1,,,,,エーステーブル,0
2926,7110003005268,新規,0,2024-01-19,2024-01-19,合同会社真社会福祉士事務所,,合同会社,新潟県,阿賀野市,外城町７－１１,,15,223,9592022,,,,,,,2024-01-19,1,,,,,マコトシャカイフクシシジムショ,0
2941,7120001261515,新規,0,2024-01-19,2024-01-19,アールエージェンシー株式会社,,株式会社,大阪府,大阪市住之江区,北加賀屋５丁目８番６４号,,27,125,5590011,,,,,,,2024-01-19,1,,,,,アールエージェンシー,0
2942,7120001261564,新規,0,2024-01-19,2024-01-19,株式会社Ｔｗｏ　Ｈｅａｄｓ,,株式会社,大阪府,大阪市西区,靱本町１丁目１０番７－１８０６号,,27,106,5500004,,,,,,,2024-01-19,1,,,,,ツーヘッズ,0
2943,7120001261572,新規,0,2024-01-19,2024-01-19,晨昊株式会社,,株式会社,大阪府,大阪市中央区,北久宝寺町１丁目５番６－７０７号,,27,128,5410057,,,,,,,2024-01-19,1,,,,,シンコウ,0
2944,7120005024109,新規,0,2024-01-19,2024-01-19,ＡＩＣ社会保険労務士法人,,その他の設立登記法人,大阪府,大阪市北区,曾根崎新地２丁目３番３号桜橋西ビル９階,,27,127,5300002,,,,,,,2024-01-19,1,,,,,エーアイシーシャカイホケンロウムシ,0
2945,7120005024117,新規,0,2024-01-19,2024-01-19,一般社団法人ＫＶＡ,,その他の設立登記法人,大阪府,大阪市北区,南森町２丁目１番２０号,,27,127,5300054,,,,,,,2024-01-19,1,,,,,ケーブイエー,0
2949,7120905006552,新規,0,2024-01-19,2024-01-19,医療法人はやし眼科,,その他の設立登記法人,大阪府,豊中市,西緑丘３丁目１５番２７号,,27,203,5600005,,,,,,,2024-01-19,1,,,,,ハヤシガンカ,0
2950,7122001037746,新規,0,2024-01-19,2024-01-19,株式会社ラルゴバモス,,株式会社,大阪府,東大阪市,南荘町１３番４４号,,27,227,5798024,,,,,,,2024-01-19,1,,,,,ラルゴバモス,0
2951,7130001076169,新規,0,2024-01-19,2024-01-19,寛輝建設工業株式会社,,株式会社,京都府,城陽市,久世里ノ西１８５－１０,,26,207,6100102,,,,,,,2024-01-19,1,,,,,カンキケンセツコウギョウ,0
2952,7130001076177,新規,0,2024-01-19,2024-01-19,株式会社Ｂｌｕｅ,,株式会社,京都府,京都市下京区,新町通松原下る富永町１０７番地１－５６号室,,26,106,6008449,,,,,,,2024-01-19,1,,,,,ブルー,0
2953,7130001076185,新規,0,2024-01-19,2024-01-19,株式会社弘園,,株式会社,京都府,京都市左京区,上高野車地町１２１－２,,26,103,6060053,,,,,,,2024-01-19,1,,,,,コウエン,0
2959,7140001133043,新規,0,2024-01-19,2024-01-19,株式会社サクラクリア,,株式会社,兵庫県,豊岡市,日撫４５５番地,,28,209,6680815,,,,,,,2024-01-19,1,,,,,サクラクリア,0
2965,7140003019975,新規,0,2024-01-19,2024-01-19,医療専門職総合サポート合同会社,,合同会社,兵庫県,養父市,八鹿町八鹿３２－３,,28,222,6670021,,,,,,,2024-01-19,1,,,,,イリョウセンモンショクソウゴウサポート,0
2971,7180001159828,新規,0,2024-01-19,2024-01-19,陽明株式会社,,株式会社,愛知県,名古屋市熱田区,幡野町１番１２号,,23,109,4560077,,,,,,,2024-01-19,1,,,,,ヨウメイ,0
2972,7180001159836,新規,0,2024-01-19,2024-01-19,株式会社ｎｕｃｗａｔｔ,,株式会社,愛知県,名古屋市中村区,名駅３丁目４－１０アルティメイト名駅１ｓｔ　２階,,23,105,4500002,,,,,,,2024-01-19,1,,,,,ナックワット,0
2973,7180001159844,新規,0,2024-01-19,2024-01-19,ジャパンインスペクション株式会社,,株式会社,愛知県,一宮市,大江２丁目１番１８　３階,,23,203,4910851,,,,,,,2024-01-19,1,,,,,ジャパンインスペクション,0
2979,7190001031044,新規,0,2024-01-19,2024-01-19,ブルーム株式会社,,株式会社,三重県,桑名市,星見ヶ丘１丁目５０２番地ルミエールヒルズ１０６号,,24,205,5110912,,,,,,,2024-01-19,1,,,,,ブルーム,0
2993,7200003006216,新規,0,2024-01-19,2024-01-19,合同会社フォレストパーク,,合同会社,岐阜県,可児市,大森１３６３－２４フォレストパークＩＩ１Ｂ号室,00133408,21,214,5090238,,,,,,,2024-01-19,1,,,,,フォレストパーク,0
3005,7220001025785,新規,0,2024-01-19,2024-01-19,株式会社ＭＡＳ,,株式会社,石川県,金沢市,御供田町ホ１６番地１,,17,201,9208221,,,,,,,2024-01-19,1,,,,,エムエムエーエス,0
3017,7240003006501,新規,0,2024-01-19,2024-01-19,合同会社Ｋ＆Ｋ,,合同会社,広島県,福山市,津之郷町大字津之郷１０６３番地１４,,34,207,7200841,,,,,,,2024-01-19,1,,,,,ケーアンドケー,0
3025,7290001104401,新規,0,2024-01-19,2024-01-19,株式会社ブレーンワタリ,,株式会社,福岡県,福岡市東区,唐原３丁目１６番３４号,,40,131,8130001,,,,,,,2024-01-19,1,,,,,ブレーンワタリ,0
3026,7290001104426,新規,0,2024-01-19,2024-01-19,株式会社エムゼック,,株式会社,福岡県,福岡市博多区,千代２丁目２１番１８号,,40,132,8120044,,,,,,,2024-01-19,1,,,,,エムゼック,0
3027,7290001104442,新規,0,2024-01-19,2024-01-19,株式会社ｓｉｄｅ　ｏｆｆｉｃｅ,,株式会社,福岡県,福岡市中央区,赤坂１丁目８－２３,,40,133,8100042,,,,,,,2024-01-19,1,,,,,サイドオフィス,0
3038,7320001020223,新規,0,2024-01-19,2024-01-19,株式会社藤原ねぎ工房,,株式会社,大分県,杵築市,大字大内３４２３番地１,,44,210,8730006,,,,,,,2024-01-19,1,,,,,フジワラネギコウボウ,0
3039,7320003004273,新規,0,2024-01-19,2024-01-19,合同会社ＳＥＩＷＡ,,合同会社,大分県,大分市,大字片島３７６番地１,,44,201,8700943,,,,,,,2024-01-19,1,,,,,セイワ,0
3058,7380001034250,新規,0,2024-01-19,2024-01-19,株式会社たろうコンサルティング,,株式会社,福島県,双葉郡広野町,大字折木字正木内１９９番地,,07,541,9790404,,,,,,,2024-01-19,1,,,,,タロウコンサルティング,0
3061,7400001016527,新規,0,2024-01-19,2024-01-19,株式会社ＯＺＵＭＯ,,株式会社,岩手県,盛岡市,山王町６番８号,,03,201,0200821,,,,,,,2024-01-19,1,,,,,オズモ,0
3065,7410001013705,新規,0,2024-01-19,2024-01-19,株式会社伊藤石材店,,株式会社,秋田県,山本郡八峰町,八森字椿台１４９番地３,,05,349,0182644,,,,,,,2024-01-19,1,,,,,イトウセキザイテン,0
3068,7410003003877,新規,0,2024-01-19,2024-01-19,合同会社ぷらむ,,合同会社,秋田県,雄勝郡羽後町,西馬音内字中野３２－３サンフラワー憩,,05,463,0121131,,,,,,,2024-01-19,1,,,,,プラム,0
3069,7420001018562,新規,0,2024-01-19,2024-01-19,株式会社トラビス,,株式会社,青森県,八戸市,江陽５丁目２０－２,,02,203,0310801,,,,,,,2024-01-19,1,,,,,トラビス,0
3083,7700150116709,新規,0,2024-01-19,2024-01-19,安島貿易（寧波）有限公司,,外国会社等,,,,,,,,浙江省寧波市北侖区大契街道宝山路１２９８号１１層１１０６室,,,,,,2024-01-19,1,,,,,アントウボウエキニンポーユウゲンコウシ,0
3094,8010001241485,新規,0,2024-01-19,2024-01-19,バーチャルワークス株式会社,,株式会社,東京都,中央区,銀座１丁目１２番４号Ｎ＆ＥＢＬＤ．６Ｆ,,13,102,1040061,,,,,,,2024-01-19,1,,,,,バーチャルワークス,0
3095,8010001241527,新規,0,2024-01-19,2024-01-19,株式会社ＤＲＡＧＯＮ　ＪＡＤＥ,,株式会社,東京都,中央区,銀座１丁目１２番４号Ｎ＆ＥＢＬＤ．６Ｆ,,13,102,1040061,,,,,,,2024-01-19,1,,,,,ドラゴンジェイド,0
3096,8010001241535,新規,0,2024-01-19,2024-01-19,株式会社正和,,株式会社,東京都,中央区,銀座１丁目１６番７号銀座大栄ビル５Ｆ,,13,102,1040061,,,,,,,2024-01-19,1,,,,,セイワ,0
3097,8010001241543,新規,0,2024-01-19,2024-01-19,セル・メディシン株式会社,,株式会社,東京都,文京区,湯島１丁目６番１号利根川第２ビル６階,,13,105,1130034,,,,,,,2024-01-19,1,,,,,セルメディシン,0
3098,8010001241576,新規,0,2024-01-19,2024-01-19,ツナグンエージェント株式会社,,株式会社,東京都,中央区,八丁堀４丁目１４－７ファイブビル八丁堀８０３,,13,102,1040032,,,,,,,2024-01-19,1,,,,,ツナグンエージェント,0
3099,8010001241584,新規,0,2024-01-19,2024-01-19,株式会社ａｔｅｎｅａ,,株式会社,東京都,千代田区,神田佐久間町２丁目１８番秋葉原ＳＴＮフロント１３階Ｃ号,,13,101,1010025,,,,,,,2024-01-19,1,,,,,アテナ,0
3100,8010001241592,新規,0,2024-01-19,2024-01-19,株式会社Ｆｕｊｉｋｙｏ,,株式会社,東京都,中央区,日本橋室町１丁目１１番１２号日本橋水野ビル７階,,13,102,1030022,,,,,,,2024-01-19,1,,,,,フジキョウ,0
3101,8010001241618,新規,0,2024-01-19,2024-01-19,株式会社大日精化保険サービス,,株式会社,東京都,中央区,日本橋馬喰町１丁目７番６号,,13,102,1030002,,,,,,,2024-01-19,1,,,,,ダイニチセイカホケンサービス,0
3102,8010003042683,新規,0,2024-01-19,2024-01-19,合同会社ザギン,,合同会社,東京都,中央区,銀座７丁目３－１３,,13,102,1040061,,,,,,,2024-01-19,1,,,,,ザギン,0
3104,8010101015970,新規,0,2024-01-19,2024-01-19,株式会社ｉｍｐｒｅｓｓｉｖｅ　ｓｗｅｅｔｓ,,株式会社,東京都,八王子市,大谷町５９番地１,,13,201,1920034,,,,,,,2024-01-19,1,,,,,インプレッシブスイーツ,0
3113,8010401179763,新規,0,2024-01-19,2024-01-19,Ｔｅｄｄｙ’ｓ株式会社,,株式会社,東京都,港区,南青山３丁目１番３６号青山丸竹ビル６Ｆ,,13,103,1070062,,,,,,,2024-01-19,1,,,,,テディーズ,0
3114,8010401179813,新規,0,2024-01-19,2024-01-19,株式会社エスエリア,,株式会社,東京都,港区,赤坂３丁目１１番１４号赤坂ベルゴ７階,,13,103,1070052,,,,,,,2024-01-19,1,,,,,エスエリア,0
3115,8010401179821,新規,0,2024-01-19,2024-01-19,ローンチ・ポイント株式会社,,株式会社,東京都,港区,虎ノ門４丁目３番２０号,,13,103,1050001,,,,,,,2024-01-19,1,,,,,ローンチポイント,0
3116,8010401179870,新規,0,2024-01-19,2024-01-19,株式会社ＮＣＦインベストメント,,株式会社,東京都,港区,麻布十番２丁目１２番１０号ＴｈｅＪｕｂａｎ６０４,,13,103,1060045,,,,,,,2024-01-19,1,,,,,エヌシーエフインベストメント,0
3118,8010403031749,新規,0,2024-01-19,2024-01-19,合同会社ｒｅｍ,,合同会社,東京都,港区,六本木７丁目１２－２０ライジングビル１階,,13,103,1060032,,,,,,,2024-01-19,1,,,,,レム,0
3119,8010403031757,新規,0,2024-01-19,2024-01-19,Ｓａｌａｄｍａｓｔｅｒ　Ｊａｐａｎ合同会社,,合同会社,東京都,港区,元麻布３丁目１番６号,,13,103,1060046,,,,,,,2024-01-19,1,,,,,サラダマスタージャパン,0
3121,8010405022886,新規,0,2024-01-19,2024-01-19,Ａｌｔａ一般社団法人,,その他の設立登記法人,東京都,港区,西新橋１丁目１番１号ＥＰコンサルティングサービス内,,13,103,1050003,,,,,,,2024-01-19,1,,,,,アルタ,0
3126,8010501051632,新規,0,2024-01-19,2024-01-19,啓航株式会社,,株式会社,東京都,台東区,台東２丁目３１－１０ＩＮＣＯｆｆｉｃｅ御徒町１２３号,,13,106,1100016,,,,,,,2024-01-19,1,,,,,ケイコウ,0
3127,8010501051657,新規,0,2024-01-19,2024-01-19,株式会社ファンライド,,株式会社,東京都,台東区,浅草３丁目３０番１１号箭波ビル１０１,,13,106,1110032,,,,,,,2024-01-19,1,,,,,ファンライド,0
3133,8010601064501,新規,0,2024-01-19,2024-01-19,株式会社ミヤビ防水,,株式会社,東京都,墨田区,立花４丁目１２番７号,,13,107,1310043,,,,,,,2024-01-19,1,,,,,ミヤビボウスイ,0
3135,8010701045426,新規,0,2024-01-19,2024-01-19,Ａｒｃｈｉ‐Ｐｒｉｓｍａ　Ｄｅｓｉｇｎ　ｗｏｒｋｓ株式会社,,株式会社,東京都,品川区,上大崎２丁目６番７号－３０１,,13,109,1410021,,,,,,,2024-01-19,1,,,,,アーキプリズマデザインワークス,0
3157,8011001159461,新規,0,2024-01-19,2024-01-19,ＭＯＵＴ・ＣＡＰＩＴＡＬ株式会社,,株式会社,東京都,渋谷区,元代々木町４５番１－３２０号,,13,113,1510062,,,,,,,2024-01-19,1,,,,,マウトキャピタル,0
3158,8011001159478,新規,0,2024-01-19,2024-01-19,株式会社アゴッグ,,株式会社,東京都,渋谷区,代官山町９番３号,,13,113,1500034,,,,,,,2024-01-19,1,,,,,アゴッグ,0
3159,8011001159503,新規,0,2024-01-19,2024-01-19,ＤＥＦＩＮＥ　Ｘ株式会社,,株式会社,東京都,渋谷区,恵比寿４丁目２０番３号恵比寿ガーデンプレイスタワー１８階,,13,113,1500013,,,,,,,2024-01-19,1,,,,,ディファインエックス,0
3161,8011003018252,新規,0,2024-01-19,2024-01-19,合同会社ＢＯＶｙ,,合同会社,東京都,渋谷区,上原１丁目５番１号,,13,113,1510064,,,,,,,2024-01-19,1,,,,,ボビー,0
3164,8011101105844,新規,0,2024-01-19,2024-01-19,東瀛ブリッジ株式会社,,株式会社,東京都,新宿区,西落合３丁目２－１３－５０１日神パレステージ南長崎,,13,104,1610031,,,,,,,2024-01-19,1,,,,,トウエイブリッジ,0
3165,8011101105885,新規,0,2024-01-19,2024-01-19,株式会社Ｂｉｇ　Ｌｉｏｎ,,株式会社,東京都,新宿区,西新宿６丁目５番１号アイランドタワー２階,,13,104,1600023,,,,,,,2024-01-19,1,,,,,ビッグライオン,0
3169,8011103013987,新規,0,2024-01-19,2024-01-19,コンテナ合同会社,,合同会社,東京都,新宿区,西新宿３丁目３－１３－６Ｆ,,13,104,1600023,,,,,,,2024-01-19,1,,,,,コンテナ,0
3177,8011501030147,新規,0,2024-01-19,2024-01-19,然錦貿易株式会社,,株式会社,東京都,北区,田端新町１丁目７－１４ビズフィールド西日暮里２０５,,13,117,1140012,,,,,,,2024-01-19,1,,,,,ネンキンボウエキ,0
3178,8011701026936,新規,0,2024-01-19,2024-01-19,ＭＡＮＩＩ株式会社,,株式会社,東京都,江戸川区,南小岩５丁目１９番１０号プチロシェ１０１,,13,123,1330056,,,,,,,2024-01-19,1,,,,,マニー,0
3183,8011801043658,新規,0,2024-01-19,2024-01-19,株式会社堂前,,株式会社,東京都,葛飾区,南水元２丁目２番２号,,13,122,1250035,,,,,,,2024-01-19,1,,,,,ドウマエ,0
3184,8011801043666,新規,0,2024-01-19,2024-01-19,株式会社ｏｎｅ,,株式会社,東京都,葛飾区,堀切５丁目２１番１０号,,13,122,1240006,,,,,,,2024-01-19,1,,,,,ワン,0
3190,8012405004930,新規,0,2024-01-19,2024-01-19,社会福祉法人むさしの惣喜会,,その他の設立登記法人,東京都,武蔵野市,境４丁目７番５号,,13,203,1800022,,,,,,,2024-01-19,1,,,,,ムサシノソウキカイ,0
3222,8020001155379,新規,0,2024-01-19,2024-01-19,株式会社高山,,株式会社,神奈川県,横浜市南区,中村町４丁目２７７番地１２,,14,105,2320033,,,,,,,2024-01-19,1,,,,,タカヤマ,0
3223,8020001155395,新規,0,2024-01-19,2024-01-19,株式会社パーグリーン,,株式会社,神奈川県,横浜市港南区,港南６丁目３５番１５号,,14,111,2330003,,,,,,,2024-01-19,1,,,,,パーグリーン,0
3224,8020001155420,新規,0,2024-01-19,2024-01-19,株式会社ＰＯＲＴＡＬＺ,,株式会社,神奈川県,横浜市西区,南幸２丁目９番１９号,,14,103,2200005,,,,,,,2024-01-19,1,,,,,ポータルズ,0
3299,8030001158182,新規,0,2024-01-19,2024-01-19,株式会社レーヴ,,株式会社,埼玉県,朝霞市,溝沼２丁目９番２０号－メチエ９・３０３,,11,227,3510023,,,,,,,2024-01-19,1,,,,,レーヴ,0
3300,8030001158257,新規,0,2024-01-19,2024-01-19,株式会社ＭＭＹＳ,,株式会社,埼玉県,さいたま市大宮区,高鼻町３丁目５番地３,,11,103,3300803,,,,,,,2024-01-19,1,,,,,エムエムワイエス,0
3308,8030005021527,新規,0,2024-01-19,2024-01-19,一般社団法人佐月会,,その他の設立登記法人,埼玉県,富士見市,関沢３丁目４５番６号スターブルＩＩ２０５,00133404,11,235,3540025,,,,,,,2024-01-19,1,,,,,サツキカイ,0
3319,8040001131808,新規,0,2024-01-19,2024-01-19,株式会社フューチャー・ホーム,,株式会社,千葉県,千葉市若葉区,高品町１８５番地１－１０２号,,12,104,2640024,,,,,,,2024-01-19,1,,,,,フューチャーホーム,0
3320,8040001131816,新規,0,2024-01-19,2024-01-19,株式会社長谷川タイヤ商会,,株式会社,千葉県,白井市,根７６番地の７,,12,232,2701431,,,,,,,2024-01-19,1,,,,,ハセガワタイヤショウカイ,0
3321,8040001131824,新規,0,2024-01-19,2024-01-19,ｉＡ株式会社,,株式会社,千葉県,松戸市,根本３番地の７リッツフレア１階１号室,,12,207,2710077,,,,,,,2024-01-19,1,,,,,アイエー,0
3322,8040001131849,新規,0,2024-01-19,2024-01-19,株式会社ｉＭＳジャパン,,株式会社,千葉県,船橋市,坪井東２丁目１５番３号,,12,204,2740060,,,,,,,2024-01-19,1,,,,,アイエムエスジャパン,0
3327,8040003024092,新規,0,2024-01-19,2024-01-19,合同会社ＳＯＬ,,合同会社,千葉県,市川市,大和田２丁目９－３９,,12,203,2720025,,,,,,,2024-01-19,1,,,,,ソル,0
3328,8040003024150,新規,0,2024-01-19,2024-01-19,合同会社アシスト,,合同会社,千葉県,千葉市中央区,富士見１丁目１４番１３号千葉大栄ビル８Ｆ,,12,101,2600015,,,,,,,2024-01-19,1,,,,,アシスト,0
3335,8060001036749,新規,0,2024-01-19,2024-01-19,株式会社ピー・アンド・ジェイ,,株式会社,栃木県,小山市,天神町１丁目９番９号,,09,208,3230032,,,,,,,2024-01-19,1,,,,,ピーアンドジェイ,0
3336,8070001041293,新規,0,2024-01-19,2024-01-19,株式会社雄飛興業,,株式会社,群馬県,太田市,高林東町２４０５番地４,,10,205,3730825,,,,,,,2024-01-19,1,,,,,ユウヒコウギョウ,0
3343,8080101024486,新規,0,2024-01-19,2024-01-19,タカス冷凍機株式会社,,株式会社,静岡県,伊東市,荻５７４番地の１５,,22,208,4140053,,,,,,,2024-01-19,1,,,,,タカスレイトウキ,0
3389,8100001037148,新規,0,2024-01-19,2024-01-19,株式会社２８ｃｏｍｐａｎｙ,,株式会社,長野県,松本市,深志２丁目２番３号,,20,202,3900815,,,,,,,2024-01-19,1,,,,,ニジュウハチカンパニー,0
3393,8110001038120,新規,0,2024-01-19,2024-01-19,Ｄｅａｒ　Ｓｔａｆｆホールディングス株式会社,,株式会社,新潟県,新潟市中央区,姥ケ山３丁目１４番１８号ファミリータウンＳＵＷＡＮＯ、Ｃ棟２０２号,,15,103,9500923,,,,,,,2024-01-19,1,,,,,ディアスタッフホールディングス,0
3396,8110003005267,新規,0,2024-01-19,2024-01-19,合同会社オテント,,合同会社,新潟県,長岡市,古正寺３丁目３０２番地リーベンヴィラ１０１,,15,202,9402106,,,,,,,2024-01-19,1,,,,,オテント,0
3404,8120001261448,新規,0,2024-01-19,2024-01-19,ＳＵＮＸ分割準備株式会社,,株式会社,大阪府,門真市,大字門真１００６番地,,27,223,5710050,,,,,,,2024-01-19,1,,,,,サンクスブンカツジュンビ,0
3405,8120001261480,新規,0,2024-01-19,2024-01-19,ＬＥＡＤＳ　ＪＡＰＡＮ　ＴＥＣＨＮＯＬＯＧＹ株式会社,,株式会社,大阪府,大阪市西区,京町堀１１－７京旺ビル４階Ｂ号室,,27,106,5500000,,,,,,,2024-01-19,1,,,,,リーダスジャパンテクノロジー,0
3406,8120001261539,新規,0,2024-01-19,2024-01-19,株式会社ｆｏＷｔｈ,,株式会社,大阪府,大阪市中央区,島町１丁目２番１２－７１２号,,27,128,5400034,,,,,,,2024-01-19,1,,,,,フォウス,0
3407,8120001261563,新規,0,2024-01-19,2024-01-19,あい・にしよどがわ株式会社,,株式会社,大阪府,大阪市西淀川区,柏里２丁目７番２８号北川ビル３０３,,27,113,5550022,,,,,,,2024-01-19,1,,,,,アイニシヨドガワ,0
3408,8120001261596,新規,0,2024-01-19,2024-01-19,株式会社ＡＤＶＡＮＣＥ,,株式会社,大阪府,大阪市大正区,泉尾３丁目８番３号,,27,108,5510031,,,,,,,2024-01-19,1,,,,,アドバンス,0
3415,8120003025727,新規,0,2024-01-19,2024-01-19,合同会社ＲＺ,,合同会社,大阪府,大阪市都島区,友渕町１丁目５番８－２９０２号ベルパークシティＪ棟,,27,102,5340016,,,,,,,2024-01-19,1,,,,,リズ,0
3416,8120005024099,新規,0,2024-01-19,2024-01-19,医療法人慈光会,,その他の設立登記法人,大阪府,大阪市中央区,東心斎橋１丁目１７番１９号Ｓｏｉｅ心斎橋２階,,27,128,5420083,,,,,,,2024-01-19,1,,,,,ジコウカイ,0
3422,8120901048647,新規,0,2024-01-19,2024-01-19,株式会社ＵＢコンサルティング,,株式会社,大阪府,豊中市,長興寺南１丁目１番３０号シムカビル２０１号室,,27,203,5610874,,,,,,,2024-01-19,1,,,,,ユービーコンサルティング,0
3423,8120903005002,新規,0,2024-01-19,2024-01-19,合同会社ＨｏｗＮｉｃｅ,,合同会社,大阪府,茨木市,中穂積１丁目２番４０－４０６号,,27,211,5670034,,,,,,,2024-01-19,1,,,,,ハウナイス,0
3424,8120905006551,新規,0,2024-01-19,2024-01-19,医療法人佳佑会,,その他の設立登記法人,大阪府,箕面市,白島１丁目２番１５号ラポール白島１階,,27,220,5620012,,,,,,,2024-01-19,1,,,,,ケイユウカイ,0
3431,8140001133018,新規,0,2024-01-19,2024-01-19,ＯｐｅｎＬｉｎｋ株式会社,,株式会社,兵庫県,宝塚市,山手台東３丁目２４番７号,,28,214,6650887,,,,,,,2024-01-19,1,,,,,オープンリンク,0
3432,8140001133026,新規,0,2024-01-19,2024-01-19,株式会社テクノパートナー,,株式会社,兵庫県,丹波篠山市,味間北８６４番地,,28,221,6692224,,,,,,,2024-01-19,1,,,,,テクノパートナー,0
3433,8140001133042,新規,0,2024-01-19,2024-01-19,株式会社茂木塗装,00133406,株式会社,兵庫県,神戸市西区,糀台４丁目１４番地の６７,,28,111,6512273,,,,,,,2024-01-19,1,,,,,シゲキトソウ,0
3434,8140003020065,新規,0,2024-01-19,2024-01-19,合同会社Ｖｅｃｔｏｒ　Ｇｌｏｂａｌ,,合同会社,兵庫県,神戸市灘区,篠原南町６丁目６－２１－５０９,,28,102,6570059,,,,,,,2024-01-19,1,,,,,ベクトルグローバル,0
3437,8150001027020,新規,0,2024-01-19,2024-01-19,株式会社北井工務店,,株式会社,奈良県,天理市,守目堂町１６８番地５,,29,204,6320035,,,,,,,2024-01-19,1,,,,,キタイコウムテン,0
3455,8180003026240,新規,0,2024-01-19,2024-01-19,合同会社Ｃｏｌｏｒｓ,,合同会社,愛知県,一宮市,木曽川町内割田字南出３７番地１,,23,203,4930006,,,,,,,2024-01-19,1,,,,,カラーズ,0
3457,8180301038235,新規,0,2024-01-19,2024-01-19,株式会社ヴィーヴォ,,株式会社,愛知県,刈谷市,一ツ木町５丁目２０番地１５,,23,210,4480003,,,,,,,2024-01-19,1,,,,,ヴィーヴォ,0
3458,8180303005984,新規,0,2024-01-19,2024-01-19,合同会社スカイエクシード,,合同会社,愛知県,刈谷市,山池町２丁目２１３番地２,,23,210,4480036,,,,,,,2024-01-19,1,,,,,スカイエクシード,0
3459,8190003004559,新規,0,2024-01-19,2024-01-19,キッチンズ合同会社,,合同会社,三重県,四日市市,楠町本郷１１３２番地８,,24,202,5100106,,,,,,,2024-01-19,1,,,,,キッチンズ,0
3460,8200001042088,新規,0,2024-01-19,2024-01-19,株式会社Ｓｔｅｌｌａ,,株式会社,岐阜県,大垣市,東前４丁目３６番地,,21,202,5030835,,,,,,,2024-01-19,1,,,,,ステラ,0
3476,8240001062669,新規,0,2024-01-19,2024-01-19,株式会社ハイスマート,,株式会社,広島県,広島市南区,霞１丁目２番３号,,34,103,7340037,,,,,,,2024-01-19,1,,,,,ハイスマート,0
3477,8240001062693,新規,0,2024-01-19,2024-01-19,株式会社ロータスポンド,,株式会社,広島県,広島市東区,戸坂惣田１丁目６番２０号,,34,102,7320001,,,,,,,2024-01-19,1,,,,,ロータスポンド,0
3478,8240005015706,新規,0,2024-01-19,2024-01-19,一般社団法人ヒロシマ平和研究教育機構,,その他の設立登記法人,広島県,広島市中区,大手町４丁目１番１号,,34,101,7300051,,,,,,,2024-01-19,1,,,,,ヒロシマヘイワケンキュウキョウイクキコウ,0
3490,8290001104391,新規,0,2024-01-19,2024-01-19,株式会社Ａｐｏｌｒｏｎｅｙ,,株式会社,福岡県,福岡市南区,老司３丁目２６番５８－４号,,40,134,8111346,,,,,,,2024-01-19,1,,,,,アポロニー,0
3491,8290001104417,新規,0,2024-01-19,2024-01-19,株式会社Ｔ２,,株式会社,福岡県,福岡市中央区,天神２丁目３番１０号天神パインクレスト内,,40,133,8100001,,,,,,,2024-01-19,1,,,,,ティーツー,0
3492,8290001104425,新規,0,2024-01-19,2024-01-19,株式会社パピヨン,,株式会社,福岡県,福岡市博多区,中洲４丁目２番１４号,,40,132,8100801,,,,,,,2024-01-19,1,,,,,パピヨン,0
3493,8290001104441,新規,0,2024-01-19,2024-01-19,株式会社ＭＡＲＵＳＨＩＧＥ,,株式会社,福岡県,福岡市博多区,板付５丁目７番６－４０２号プレミアム板付,,40,132,8120888,,,,,,,2024-01-19,1,,,,,マルシゲ,0
3494,8290005019256,新規,0,2024-01-19,2024-01-19,医療法人実の里会,,その他の設立登記法人,福岡県,福岡市西区,拾六町５丁目１８－２１,,40,135,8190041,,,,,,,2024-01-19,1,,,,,ミノリカイ,0
3495,8290005019272,新規,0,2024-01-19,2024-01-19,医療法人正陽会,,その他の設立登記法人,福岡県,太宰府市,高雄１丁目３６９２－１,,40,221,8180122,,,,,,,2024-01-19,1,,,,,セイヨウカイ,0
3496,8290801030234,新規,0,2024-01-19,2024-01-19,株式会社有田組,,株式会社,福岡県,田川市,大字奈良２３０－１３,,40,206,8260043,,,,,,,2024-01-19,1,,,,,アリタグミ,0
3500,8310001018812,新規,0,2024-01-19,2024-01-19,田中商店株式会社,,株式会社,長崎県,対馬市,豊玉町仁位１２３０番地１,,42,209,8171201,,,,,,,2024-01-19,1,,,,,タナカショウテン,0
3516,8330001031672,新規,0,2024-01-19,2024-01-19,ＴＨＥ　ＰＡＮＥＳＥ株式会社,,株式会社,熊本県,阿蘇郡小国町,大字宮原２７９８番地３,,43,424,8692501,,,,,,,2024-01-19,1,,,,,ザパニース,0
3517,8330001031680,新規,0,2024-01-19,2024-01-19,株式会社響,,株式会社,熊本県,熊本市北区,八景水谷２丁目３番６号,,43,105,8618064,,,,,,,2024-01-19,1,,,,,ヒビキ,0
3528,8330003010170,新規,0,2024-01-19,2024-01-19,合同会社創装,,合同会社,熊本県,熊本市中央区,帯山１丁目３２番２４号,,43,101,8620924,,,,,,,2024-01-19,1,,,,,,0
3530,8360001033088,新規,0,2024-01-19,2024-01-19,株式会社スクーデリア・システム開発,,株式会社,沖縄県,沖縄市,泡瀬５丁目２４－１７,,47,211,9042172,,,,,,,2024-01-19,1,,,,,スクーデリアシステムカイハツ,0
3531,8360003013633,新規,0,2024-01-19,2024-01-19,将フロンティアリゾート合同会社,,合同会社,沖縄県,宮古島市,平良字西里３４０番地１具志川住宅２０５号室,,47,214,9060012,,,,,,,2024-01-19,1,,,,,マサフロンティアリゾート,0
3533,8370001050842,新規,0,2024-01-19,2024-01-19,株式会社英石材商会,,株式会社,宮城県,仙台市宮城野区,福田町南１丁目３番６７号,,04,102,9830025,,,,,,,2024-01-19,1,,,,,ハナブサセキザイショウカイ,0
3534,8370005010743,新規,0,2024-01-19,2024-01-19,一般社団法人エイトツリー,,その他の設立登記法人,宮城県,仙台市太白区,八木山香澄町１６番２１号,,04,104,9820831,,,,,,,2024-01-19,1,,,,,エイトツリー,0
3543,8390003002195,新規,0,2024-01-19,2024-01-19,合同会社便利屋ひろちゃん,,合同会社,山形県,東置賜郡高畠町,大字亀岡３０１５番地の２,,06,381,9920321,,,,,,,2024-01-19,1,,,,,ベンリヤヒロチャン,0
3544,8400001016526,新規,0,2024-01-19,2024-01-19,株式会社Ｗｅｌｔｅｃ　Ｋｕｗａｚｏｅ,,株式会社,岩手県,花巻市,下似内第１７地割７１番地１０,,03,205,0250006,,,,,,,2024-01-19,1,,,,,ウェルテッククワゾエ,0
3556,8420001018553,新規,0,2024-01-19,2024-01-19,株式会社ＳＰＡＲＸ　ＭＥＤＩＡ　ＧＲＯＵＰ,,株式会社,青森県,三沢市,松園町３丁目４番２号,,02,207,0330037,,,,,,,2024-01-19,1,,,,,スパークスメディアグループ,0
3565,8500001025426,新規,0,2024-01-19,2024-01-19,株式会社創世工業,,株式会社,愛媛県,松山市,平田町１４６４番地メイクロード１０３号,,38,201,7918001,,,,,,,2024-01-19,1,,,,,ソウセイコウギョウ,0
3567,8700150116708,新規,0,2024-01-19,2024-01-19,合肥景新信息技術有限公司,,外国会社等,,,,,,,,安徽長豊双鳳経済開発区蒙城北路与金梅路交口傾城水郷東区６幢５０２室,,,,,,2024-01-19,1,,,,,ゴウヒケイシンシンソクギジュツユウゲンコウシ,0
3568,8700150122805,新規,0,2024-01-19,2023-12-19,児童図書十社の会,,その他,東京都,千代田区,麹町４丁目２番地６住友不動産麹町ファーストビル,,13,101,1020083,,,,,,,2023-12-19,1,,,,,ジドウトシヨジユツシヤノカイ,0
3577,9010001241542,新規,0,2024-01-19,2024-01-19,アールパワード株式会社,,株式会社,東京都,文京区,白山４丁目７番１８号,,13,105,1120001,,,,,,,2024-01-19,1,,,,,アールパワード,0
3578,9010001241559,新規,0,2024-01-19,2024-01-19,エス・アンド・カンパニー株式会社,,株式会社,東京都,中央区,銀座６丁目１３番１６号銀座ｗａｌｌビルＵＣＦ５階,,13,102,1040061,,,,,,,2024-01-19,1,,,,,エスアンドカンパニー,0
3579,9010001241575,新規,0,2024-01-19,2024-01-19,株式会社ｆｏｒ　Ｄａｎｃｅ,,株式会社,東京都,中央区,銀座１丁目２２番１１号銀座大竹ビジデンス２階,,13,102,1040061,,,,,,,2024-01-19,1,,,,,フォーダンス,0
3580,9010001241583,新規,0,2024-01-19,2024-01-19,株式会社ＲＥＡＬＩＴＹ　ＡＲＴＳ,,株式会社,東京都,中央区,銀座１丁目１２番４号Ｎ＆ＥＢＬＤ６Ｆ,,13,102,1040061,,,,,,,2024-01-19,1,,,,,リアリティアーツ,0
3581,9010001241617,新規,0,2024-01-19,2024-01-19,株式会社三日,,株式会社,東京都,中央区,京橋２丁目８番－２１号,,13,102,1040031,,,,,,,2024-01-19,1,,,,,サンニチ,0
3585,9010003042690,新規,0,2024-01-19,2024-01-19,合同会社ＭＡＩＢＥＲＩＡ,,合同会社,東京都,文京区,本駒込６丁目３番１３号大和郷平和コーポラス１Ｆ,,13,105,1130021,,,,,,,2024-01-19,1,,,,,マイベリア,0
3586,9010003042699,新規,0,2024-01-19,2024-01-19,ＴＭＳ合同会社,,合同会社,東京都,中央区,日本橋箱崎町１６－１東益ビル４階,,13,102,1030015,,,,,,,2024-01-19,1,,,,,テイエムエス,0
3587,9010003042716,新規,0,2024-01-19,2024-01-19,ＧＣＰ１合同会社,,合同会社,東京都,千代田区,丸の内１丁目１１番１号,,13,101,1000005,,,,,,,2024-01-19,1,,,,,ジーシーピーワン,0
3588,9010005037763,新規,0,2024-01-19,2024-01-19,一般社団法人広島ホテルマネジメント,,その他の設立登記法人,東京都,千代田区,永田町２丁目１７番５号,,13,101,1000014,,,,,,,2024-01-19,1,,,,,ヒロシマホテルマネジメント,0
3591,9010103002297,新規,0,2024-01-19,2024-01-19,満堂合同会社,,合同会社,東京都,八王子市,旭町８－２プラスリノ八王子５階,,13,201,1920083,,,,,,,2024-01-19,1,,,,,マンドウ,0
3597,9010401179713,新規,0,2024-01-19,2024-01-19,チーイーシン技術株式会社,,株式会社,東京都,港区,南青山３丁目１番３号,,13,103,1070062,,,,,,,2024-01-19,1,,,,,チーイーシンギジュツ,0
3598,9010401179770,新規,0,2024-01-19,2024-01-19,ラディラド株式会社,,株式会社,東京都,港区,虎ノ門３丁目１８番１７号６０２号室,,13,103,1050001,,,,,,,2024-01-19,1,,,,,ラディラド,0
3599,9010401179812,新規,0,2024-01-19,2024-01-19,株式会社Ａｎｃｈｏｒ,,株式会社,東京都,港区,西新橋３丁目１７番７号,,13,103,1050003,,,,,,,2024-01-19,1,,,,,アンカー,0
3600,9010401179820,新規,0,2024-01-19,2024-01-19,株式会社ＦＡＴＥＭ,,株式会社,東京都,港区,西新橋１丁目９番５－５０９号,,13,103,1050003,,,,,,,2024-01-19,1,,,,,ファテム,0
3601,9010401179853,新規,0,2024-01-19,2024-01-19,順易利実業株式会社,,株式会社,東京都,港区,浜松町２丁目２番１５号浜松町ダイヤビル２Ｆ,,13,103,1050013,,,,,,,2024-01-19,1,,,,,サムイージージツギョウ,0
3606,9010405022885,新規,0,2024-01-19,2024-01-19,Ｍｏｚｕ特定目的会社,,その他の設立登記法人,東京都,港区,西新橋１丁目１番１号ＥＰコンサルティングサービス内,,13,103,1050003,,,,,,,2024-01-19,1,,,,,モズ,0
3607,9010603010576,新規,0,2024-01-19,2024-01-19,合同会社Ｊ‐Ｓｐａｒｋ,,合同会社,東京都,墨田区,横網２丁目８－１３レフォーレオーブ両国２０１,,13,107,1300015,,,,,,,2024-01-19,1,,,,,ジェイスパーク,0
3608,9010701045425,新規,0,2024-01-19,2024-01-19,株式会社Ｑｂｉｔ,,株式会社,東京都,品川区,北品川５丁目８番２６号プリマベーラ大崎９０２,,13,109,1410001,,,,,,,2024-01-19,1,,,,,キュービット,0
3609,9010801034690,新規,0,2024-01-19,2024-01-19,成株式会社,,株式会社,東京都,大田区,東海３丁目７番３号東海ビル,,13,111,1430001,,,,,,,2024-01-19,1,,,,,セイ,0
3610,9010801034708,新規,0,2024-01-19,2024-01-19,株式会社Ｃｏｎｔｒａｉｌ,,株式会社,東京都,大田区,上池台４丁目１８番１３号,,13,111,1450064,,,,,,,2024-01-19,1,,,,,コントレイル,0
3623,9010903008741,新規,0,2024-01-19,2024-01-19,合同会社ＡＨＮＡＳ,,合同会社,東京都,世田谷区,玉川３丁目２０番２号マノア玉川第３ビル５０１号室,,13,112,1580094,,,,,,,2024-01-19,1,,,,,アーナス,0
3639,9011001159428,新規,0,2024-01-19,2024-01-19,株式会社ものづくりＦＵＮ,,株式会社,東京都,渋谷区,道玄坂１丁目１０番８号渋谷道玄坂東急ビル２Ｆ－Ｃ,,13,113,1500043,,,,,,,2024-01-19,1,,,,,モノヅクリファン,0
3640,9011001159444,新規,0,2024-01-19,2024-01-19,株式会社ｉＧｒｕｓ,,株式会社,東京都,渋谷区,円山町５番１８号道玄坂スクエア５０３,,13,113,1500044,,,,,,,2024-01-19,1,,,,,アイグルース,0
3641,9011001159452,新規,0,2024-01-19,2024-01-19,株式会社佐藤岳利事務所,,株式会社,東京都,渋谷区,恵比寿南３丁目１１番８－７０３号,,13,113,1500022,,,,,,,2024-01-19,1,,,,,サトウタケトシジムショ,0
3642,9011001159460,新規,0,2024-01-19,2024-01-19,ＡＬＬ２株式会社,,株式会社,東京都,目黒区,東山１丁目９番１４号ラポール目黒東山２０１,,13,110,1530043,,,,,,,2024-01-19,1,,,,,オールツー,0
3643,9011001159477,新規,0,2024-01-19,2024-01-19,ユーオイ株式会社,,株式会社,東京都,渋谷区,恵比寿西２丁目４番８号ウィンド恵比寿ビル８Ｆ,,13,113,1500021,,,,,,,2024-01-19,1,,,,,ユーオイ,0
3644,9011001159519,新規,0,2024-01-19,2024-01-19,株式会社サイドカー,,株式会社,東京都,目黒区,東山１丁目９番１３号東山鈴房荘１０３,,13,110,1530043,,,,,,,2024-01-19,1,,,,,サイドカー,0
3645,9011003018301,新規,0,2024-01-19,2024-01-19,ａｓｓｉｓｔ合同会社,,合同会社,東京都,渋谷区,道玄坂１丁目１０番８号渋谷道玄坂東急ビル２Ｆ－Ｃ,,13,113,1500043,,,,,,,2024-01-19,1,,,,,アシスト,0
3652,9011101105868,新規,0,2024-01-19,2024-01-19,株式会社ＡｐｐＭｅｄｉｃｓ,,株式会社,東京都,新宿区,西新宿３丁目３番１３号西新宿水間ビル６階,,13,104,1600023,,,,,,,2024-01-19,1,,,,,アップメディクス,0
3653,9011103013978,新規,0,2024-01-19,2024-01-19,合同会社イーストゲイツコンタクト,,合同会社,東京都,新宿区,新宿５丁目７番１４－２１１号,,13,104,1600022,,,,,,,2024-01-19,1,,,,,イーストゲイツコンタクト,0
3654,9011201025181,新規,0,2024-01-19,2024-01-19,株式会社ＹＵＮＡＧＩ,,株式会社,東京都,中野区,上鷺宮３丁目６‐１４,,13,114,1650031,,,,,,,2024-01-19,1,,,,,ユウナギ,0
3659,9011501030204,新規,0,2024-01-19,2024-01-19,日本海開物流貿易株式会社,,株式会社,東京都,北区,西ケ原１丁目２７番３－１０１号,,13,117,1140024,,,,,,,2024-01-19,1,,,,,ニホンカイカイブツリュウボウエキ,0
3662,9011601027455,新規,0,2024-01-19,2024-01-19,株式会社Ａｎｄ　Ｔ．,,株式会社,東京都,練馬区,桜台３丁目３５番１６－６０２号,,13,120,1760002,,,,,,,2024-01-19,1,,,,,アンドティ,0
3666,9011703003718,新規,0,2024-01-19,2024-01-19,合同会社Ｋ．,,合同会社,東京都,江戸川区,上篠崎２丁目８―１４ソシアクレスト２０２,,13,123,1330054,,,,,,,2024-01-19,1,,,,,ケイドット,0
3670,9011801043657,新規,0,2024-01-19,2024-01-19,株式会社ＭＫＹ,,株式会社,東京都,足立区,竹の塚１丁目１７番４号,,13,121,1210813,,,,,,,2024-01-19,1,,,,,エムケイワイ,0
3671,9011801043673,新規,0,2024-01-19,2024-01-19,株式会社ＷＡＶＥ４４３,,株式会社,東京都,足立区,扇１丁目４６番２３号,,13,121,1230873,,,,,,,2024-01-19,1,,,,,ウェーヴフォーフォーティスリー,0
3673,9012701018039,新規,0,2024-01-19,2024-01-19,株式会社ビリーブ,,株式会社,東京都,小平市,小川東町５丁目４番１号シャトルホワイト１０１,,13,211,1870031,,,,,,,2024-01-19,1,,,,,ビリーブ,0
3674,9012801022915,新規,0,2024-01-19,2024-01-19,株式会社ＵＮＩ,,株式会社,東京都,日野市,新井１丁目２２番地の２４,,13,212,1910022,,,,,,,2024-01-19,1,,,,,ユニ,0
3696,9020001155403,新規,0,2024-01-19,2024-01-19,ミトヨ株式会社,,株式会社,神奈川県,横浜市鶴見区,馬場１丁目２１番４号,,14,101,2300076,,,,,,,2024-01-19,1,,,,,ミトヨ,0
3697,9020001155411,新規,0,2024-01-19,2024-01-19,株式会社ＳＡＷＡＳＨＩＮ,,株式会社,神奈川県,横浜市西区,北幸２丁目１０番４８号３階,,14,103,2200004,,,,,,,2024-01-19,1,,,,,サワシン,0
3728,9020003025364,新規,0,2024-01-19,2024-01-19,ＴＮＹ貿易合同会社,,合同会社,神奈川県,横浜市西区,霞ケ丘４１－５メゾン・ド・セヴェールパートＩＩ３０３,00133414,14,103,2200035,,,,,,,2024-01-19,1,,,,,ティーエヌワイボウエキ,0
3729,9020003025380,新規,0,2024-01-19,2024-01-19,合同会社Ｐｏｋｕｒａ　Ａｓｓｅｔｓ,,合同会社,神奈川県,横浜市青葉区,美しが丘２丁目１番地１－４０３,,14,117,2250002,,,,,,,2024-01-19,1,,,,,ポクラアセッツ,0
3748,9021001081250,新規,0,2024-01-19,2024-01-19,株式会社ネオクラシック,,株式会社,神奈川県,藤沢市,鵠沼海岸７丁目９番１１号鵠沼海岸７丁目テラスハウスＡ,,14,205,2510037,,,,,,,2024-01-19,1,,,,,ネオクラシック,0
3765,9021003014043,新規,0,2024-01-19,2024-01-19,合同会社グロディクス,,合同会社,神奈川県,横須賀市,米が浜通１丁目７番地２サクマ横須賀ビル３０４号,,14,201,2380011,,,,,,,2024-01-19,1,,,,,グロディクス,0
3773,9030003023433,新規,0,2024-01-19,2024-01-19,敬合堂合同会社,,合同会社,埼玉県,鴻巣市,吹上富士見４丁目５番２２号,,11,217,3690121,,,,,,,2024-01-19,1,,,,,ケイアイドウ,0
3774,9030003023441,新規,0,2024-01-19,2024-01-19,Ｓ＆Ｐ合同会社,,合同会社,埼玉県,草加市,瀬崎１丁目１０－４－２０１,,11,221,3400022,,,,,,,2024-01-19,1,,,,,エスアンドピー,0
3777,9040001131807,新規,0,2024-01-19,2024-01-19,ＫＥＮＳホールディングス株式会社,,株式会社,千葉県,千葉市美浜区,中瀬２丁目６番地１ワールドビジネスガーデンマリブウエスト３２階,,12,106,2610023,,,,,,,2024-01-19,1,,,,,ケンズホールディングス,0
3778,9040001131815,新規,0,2024-01-19,2024-01-19,株式会社トラックセンター白井,,株式会社,千葉県,白井市,根９５番地の２,,12,232,2701431,,,,,,,2024-01-19,1,,,,,トラックセンターシロイ,0
3779,9040001131823,新規,0,2024-01-19,2024-01-19,株式会社島田組,,株式会社,千葉県,船橋市,上山町２丁目４６３番地２８,,12,204,2730046,,,,,,,2024-01-19,1,,,,,シマダグミ,0
3780,9040001131848,新規,0,2024-01-19,2024-01-19,株式会社ビレッジ,,株式会社,千葉県,千葉市花見川区,こてはし台２丁目１９番１号,,12,102,2620005,,,,,,,2024-01-19,1,,,,,ビレッジ,0
3785,9040005022250,新規,0,2024-01-19,2024-01-19,一般社団法人まほろば,,その他の設立登記法人,千葉県,柏市,十余二３８０－９７,,12,217,2770872,,,,,,,2024-01-19,1,,,,,マホロバ,0
3789,9050001054073,新規,0,2024-01-19,2024-01-19,茨城県取手試験農場株式会社,,株式会社,茨城県,古河市,柳橋４０７番地,,08,204,3060203,,,,,,,2024-01-19,1,,,,,イバラキケントリデシケンジョウ,0
3790,9050001054148,新規,0,2024-01-19,2024-01-19,株式会社ＡＵＣＢＩＤ　ＴＲＡＤＩＮＧ,,株式会社,茨城県,古河市,西牛谷９３０番地４,,08,204,3060233,,,,,,,2024-01-19,1,,,,,オークビッドトレーディング,0
3791,9050003008069,新規,0,2024-01-19,2024-01-19,合同会社池沢,,合同会社,茨城県,下妻市,長塚１８７番地２,,08,210,3040056,,,,,,,2024-01-19,1,,,,,イケサワ,0
3797,9060003004876,新規,0,2024-01-19,2024-01-19,合同会社ことぶき,,合同会社,栃木県,河内郡上三川町,大字上郷１１３９,,09,301,3290604,,,,,,,2024-01-19,1,,,,,コトブキ,0
3801,9080101024477,新規,0,2024-01-19,2024-01-19,株式会社佐野まるか,,株式会社,静岡県,富士宮市,小泉１５００番地の１,,22,207,4180022,,,,,,,2024-01-19,1,,,,,サノマルカ,0
3802,9080103002968,新規,0,2024-01-19,2024-01-19,合同会社レグレス,,合同会社,静岡県,沼津市,若葉町４番４１号,,22,203,4100059,,,,,,,2024-01-19,1,,,,,レグレス,0
3840,9090003002472,新規,0,2024-01-19,2024-01-19,合同会社ハインドサイト,,合同会社,山梨県,甲斐市,西八幡９７０番地１１,,19,210,4000117,,,,,,,2024-01-19,1,,,,,ハインドサイト,0
3841,9100001037139,新規,0,2024-01-19,2024-01-19,株式会社ＳＡＳＡ,,株式会社,長野県,佐久市,佐久平駅北２３番地１,,20,217,3850027,,,,,,,2024-01-19,1,,,,,ササ,0
3842,9100001037147,新規,0,2024-01-19,2024-01-19,ビジコート株式会社,,株式会社,長野県,塩尻市,大字広丘吉田９５１番地１,,20,215,3990701,,,,,,,2024-01-19,1,,,,,ビジコート,0
3852,9120001261397,新規,0,2024-01-19,2024-01-19,ＳＰＩマネジメント株式会社,,株式会社,大阪府,大阪市福島区,福島６丁目１８番１８－１４０１号,,27,103,5530003,,,,,,,2024-01-19,1,,,,,エスピーアイマネジメント,0
3853,9120001261439,新規,0,2024-01-19,2024-01-19,＿逸株式会社,00133407,株式会社,大阪府,大阪市大正区,千島１丁目１０番１０号エスポワール４３,,27,108,5510003,,,,,,,2024-01-19,1,,,,,キンイツ,0
3854,9120001261496,新規,0,2024-01-19,2024-01-19,北極星株式会社,,株式会社,大阪府,大阪市中央区,安堂寺町２丁目７－２朝日プラザ長堀橋東パサージュ４０２号室,,27,128,5420061,,,,,,,2024-01-19,1,,,,,ホッキョクセイ,0
3855,9120001261521,新規,0,2024-01-19,2024-01-19,株式会社ビッグフォレスト,,株式会社,大阪府,枚方市,須山町３９番２９号,,27,210,5731164,,,,,,,2024-01-19,1,,,,,ビッグフォレスト,0
3857,9120003025718,新規,0,2024-01-19,2024-01-19,合同会社Ｃｙｂｅｒ　Ｓｍｏｋｅ　Ｊａｐａｎ,,合同会社,大阪府,大阪市北区,梅田１丁目２番２号大阪駅前第２ビル１２－１２,,27,127,5300001,,,,,,,2024-01-19,1,,,,,サイバースモークジャパン,0
3867,9120901048605,新規,0,2024-01-19,2024-01-19,株式会社ヤマナカ防災設備,,株式会社,大阪府,摂津市,鳥飼野々２丁目１番７号,,27,224,5660053,,,,,,,2024-01-19,1,,,,,ヤマナカボウサイセツビ,0
3868,9120901048662,新規,0,2024-01-19,2024-01-19,株式会社Ｊカーブ,,株式会社,大阪府,吹田市,片山町３丁目３７番１号,,27,205,5640082,,,,,,,2024-01-19,1,,,,,ジェイカーブ,0
3875,9130001076159,新規,0,2024-01-19,2024-01-19,ふたとき株式会社,,株式会社,京都府,京田辺市,同志社山手２丁目３番地１０１,,26,211,6100315,,,,,,,2024-01-19,1,,,,,フタトキ,0
3876,9130001076175,新規,0,2024-01-19,2024-01-19,株式会社ｏｕｉ,,株式会社,京都府,京都市南区,西九条東比永城町１４番地２１,,26,107,6018438,,,,,,,2024-01-19,1,,,,,ウィ,0
3888,9140001132951,新規,0,2024-01-19,2024-01-19,株式会社Ｅ‐ＴＥＣＨ,,株式会社,兵庫県,神崎郡福崎町,西治２１２１,,28,443,6792215,,,,,,,2024-01-19,1,,,,,イーテック,0
3889,9140001133017,新規,0,2024-01-19,2024-01-19,株式会社エムケイ,,株式会社,兵庫県,姫路市,御立西３丁目２－３,,28,201,6700074,,,,,,,2024-01-19,1,,,,,エムケイ,0
3890,9140001133025,新規,0,2024-01-19,2024-01-19,株式会社ＫＯＩ,,株式会社,兵庫県,川西市,向陽台３丁目６番地の４７,,28,217,6660115,,,,,,,2024-01-19,1,,,,,ケーオーアイ,0
3891,9140001133041,新規,0,2024-01-19,2024-01-19,株式会社わおんシステムズ,,株式会社,兵庫県,神戸市中央区,磯辺通１丁目１番１８号,,28,110,6510084,,,,,,,2024-01-19,1,,,,,ワオンシステムズ,0
3892,9140001133058,新規,0,2024-01-19,2024-01-19,Ａｒｋａｅｓｔｒａ株式会社,,株式会社,兵庫県,尼崎市,武庫之荘１丁目２０番３－３０２号,,28,202,6610035,,,,,,,2024-01-19,1,,,,,アカエストラ,0
3894,9140003020056,新規,0,2024-01-19,2024-01-19,Ｙｕｋｉ合同会社,,合同会社,兵庫県,神戸市灘区,泉通６丁目２番１３号オリエントシティ王子公園２０１号室,,28,102,6570834,,,,,,,2024-01-19,1,,,,,ユキ,0
3899,9150005009550,新規,0,2024-01-19,2024-01-19,一般社団法人ＷＯＯＤＭＯＯＲ,,その他の設立登記法人,奈良県,天理市,別所２４１－４番,,29,204,6320000,,,,,,,2024-01-19,1,,,,,ウッドムーア,0
3909,9180001159818,新規,0,2024-01-19,2024-01-19,株式会社Ｏｎｅ＆Ｏｎｌｙ,,株式会社,愛知県,名古屋市熱田区,二番１丁目２番１４号－１,,23,109,4560052,,,,,,,2024-01-19,1,,,,,ワンアンドオンリー,0
3910,9180001159826,新規,0,2024-01-19,2024-01-19,坂本鐵工株式会社,,株式会社,愛知県,小牧市,新町３丁目３３６番地,,23,219,4850013,,,,,,,2024-01-19,1,,,,,サカモトテッコウ,0
3911,9180001159834,新規,0,2024-01-19,2024-01-19,株式会社トルン,,株式会社,愛知県,名古屋市港区,当知３丁目３０１番地,,23,111,4550804,,,,,,,2024-01-19,1,,,,,トルン,0
3912,9180001159883,新規,0,2024-01-19,2024-01-19,株式会社Ｂｅａｔ　ｍｅ,,株式会社,愛知県,名古屋市瑞穂区,平郷町３丁目７番地の２,,23,108,4670879,,,,,,,2024-01-19,1,,,,,ビートミー,0
3929,9200001042087,新規,0,2024-01-19,2024-01-19,Ｍｏｎｃｈ株式会社,,株式会社,岐阜県,揖斐郡揖斐川町,房島１４４２番地１,,21,401,5010606,,,,,,,2024-01-19,1,,,,,モンチ,0
3938,9230001020180,新規,0,2024-01-19,2024-01-19,株式会社七福神,,株式会社,富山県,富山市,高田５２７富山県総合情報センタービル,,16,201,9300866,,,,,,,2024-01-19,1,,,,,シチフクジン,0
3946,9260001038674,新規,0,2024-01-19,2024-01-19,株式会社ＩＤＹＵＮＡＫＡＮＳＨＡ,,株式会社,岡山県,岡山市北区,今７丁目２４－８,,33,101,7000975,,,,,,,2024-01-19,1,,,,,イデューナカンシャ,0
3947,9260003004550,新規,0,2024-01-19,2024-01-19,合同会社カメリアデンタルラボ,,合同会社,岡山県,岡山市北区,奉還町１丁目２番３号セカンドユース西口１階,,33,101,7000026,,,,,,,2024-01-19,1,,,,,カメリアデンタルラボ,0
3953,9290001104390,新規,0,2024-01-19,2024-01-19,株式会社Ｔ．Ｎ　ＳＹＳＴＥＭ,,株式会社,福岡県,糸島市,新田８７３番地,,40,230,8191114,,,,,,,2024-01-19,1,,,,,ティーエヌシステム,0
3957,9290005019271,新規,0,2024-01-19,2024-01-19,医療法人ふかまち歯科クリニック,,その他の設立登記法人,福岡県,うきは市,吉井町生葉字塚本１０９６番地１,,40,225,8391342,,,,,,,2024-01-19,1,,,,,フカマチシカクリニック,0
3974,9330001031671,新規,0,2024-01-19,2024-01-19,Ｓｕｎ　Ｂｕｉｌｄｉｎｇ株式会社,,株式会社,熊本県,熊本市中央区,下通１丁目３－８下通ＮＳビル６Ｆ,,43,101,8600807,,,,,,,2024-01-19,1,,,,,サンビルディング,0
3982,9330003010178,新規,0,2024-01-19,2024-01-19,合同会社ＫＡＫＵ,,合同会社,熊本県,八代市,田中北町１５号１４番地,,43,202,8660877,,,,,,,2024-01-19,1,,,,,カク,0
3994,9370003006453,新規,0,2024-01-19,2024-01-19,合同会社ＡＫ．ｉｎｎｏｖａｔｉｏｎ,,合同会社,宮城県,大崎市,古川穂波５丁目２－３,,04,215,9896136,,,,,,,2024-01-19,1,,,,,エーケーイノベーション,0
4000,9390003002194,新規,0,2024-01-19,2024-01-19,合同会社ＮＫ,,合同会社,山形県,酒田市,日吉町２丁目２番３５号,,06,204,9980037,,,,,,,2024-01-19,1,,,,,エヌケー,0
4002,9400001016525,新規,0,2024-01-19,2024-01-19,株式会社畠山壁工,,株式会社,岩手県,一関市,大東町曽慶字中田２４番地５,,03,209,0290522,,,,,,,2024-01-19,1,,,,,ハタケヤマカベコウ,0
4012,9430001090914,新規,0,2024-01-19,2024-01-19,株式会社ＨＡＲＤＣＡＳＴＬＥ,,株式会社,北海道,江別市,文京台東町１番地の１８,,01,217,0690834,,,,,,,2024-01-19,1,,,,,ハードキャッスル,0
4015,9450001014202,新規,0,2024-01-19,2024-01-19,株式会社ＴＥＲＲＡＰＬＵＳ,,株式会社,北海道,雨竜郡秩父別町,１３００番地の３７,,01,434,0782100,,,,,,,2024-01-19,1,,,,,テラプルス,0
4018,9470001019991,新規,0,2024-01-19,2024-01-19,株式会社成高,,株式会社,香川県,高松市,上林町６６１番地８,,37,201,7610302,,,,,,,2024-01-19,1,,,,,セイコウ,0
4021,9490005006919,新規,0,2024-01-19,2024-01-19,特定非営利活動法人高知山岳文化研究センター,,その他の設立登記法人,高知県,高知市,高須１丁目３番１７－２号,,39,201,7818104,,,,,,,2024-01-19,1,,,,,コウチサンガクブンカケンキュウセンター,0
4024,9500001025417,新規,0,2024-01-19,2024-01-19,株式会社Ｒａｄｉａｎｔ,,株式会社,愛媛県,伊予郡松前町,大字筒井１５７３番地１,,38,401,7913120,,,,,,,2024-01-19,1,,,,,ラディアント,0
4025,9500001025425,新規,0,2024-01-19,2024-01-19,正岡塗工株式会社,,株式会社,愛媛県,今治市,小泉５丁目１０番１１号,,38,202,7940064,,,,,,,2024-01-19,1,,,,,マサオカトコウ,0
4028,9700150116707,新規,0,2024-01-19,2024-01-19,重慶小都茉莉電子商務有限公司,,外国会社等,,,,,,,,重慶高新区金鳳鎮鳳徳路１０号１♯楼房第四層４０３－６８室,,,,,,2024-01-19,1,,,,,ジュウケイショウヅマリデンシショウムユウゲンコウシ,0
