sequenceNumber,corporateNumber,process,correct,updateDate,changeDate,name,nameImageId,kind,prefectureName,cityName,streetNumber,addressImageId,prefectureCode,cityCode,postCode,addressOutside,addressOutsideImageId,closeDate,closeCause,successorCorporateNumber,changeCause,assignmentDate,latest,enName,enPrefectureName,enCityName,enAddressOutside,furigana,hihyoji
2,1010001178783,登記記録の閉鎖等,0,2023-04-14,2023-04-03,ＮＫジョブショップ株式会社,,株式会社,東京都,千代田区,岩本町２丁目１７番１７号,,13,101,1010032,,,2023-04-03,合併による解散等,8010001025616,令和５年４月１日東京都千代田区岩本町二丁目１７番１７号ＮＫワークス株式会社（8010001025616）に合併し解散,2016-10-07,1,,,,,エヌケージョブショップ,0
11,1010002052327,登記記録の閉鎖等,0,2023-04-14,2023-04-11,有限会社アイランド管理サービス,,有限会社,東京都,練馬区,貫井３丁目３３番３号,,13,120,1760021,,,2023-04-11,合併による解散等,4011601017510,令和５年４月３日東京都新宿区西新宿七丁目５番１４号株式会社幸拓コーポレーション（4011601017510）に合併し解散,2015-10-05,1,,,,,アイランドカンリサービス,0
18,1010401070391,登記記録の閉鎖等,0,2023-04-14,2023-03-31,株式会社ホーミング,,株式会社,東京都,港区,南青山２丁目２番１５号,,13,103,1070062,,,2023-03-31,清算の結了等,,,2015-10-05,1,,,,,ホーミング,0
35,1010501025048,登記記録の閉鎖等,0,2023-04-14,2023-04-03,株式会社オリエント・エコロジー,,株式会社,東京都,千代田区,神田神保町１丁目１０５番地,,13,101,1010051,,,2023-04-03,合併による解散等,4010001023838,令和５年４月１日東京都千代田区神田三崎町二丁目２０番４号テクオス株式会社（4010001023838）に合併し解散,2015-10-05,1,,,,,オリエントエコロジー,0
44,1010605002521,登記記録の閉鎖等,0,2023-04-14,2023-04-03,公益財団法人アサヒグループ学術振興財団,,その他の設立登記法人,東京都,墨田区,吾妻橋１丁目２３番１号,,13,107,1300001,,,2023-04-03,合併による解散等,4010605002527,令和５年４月１日東京都墨田区吾妻橋一丁目２３番１号公益財団法人アサヒグループ財団（4010605002527）に合併し解散,2015-10-05,1,,,,,アサヒグループガクジュツシンコウザイダン,0
60,1011001115966,登記記録の閉鎖等,0,2023-04-14,2023-04-11,フジプラ株式会社,,株式会社,東京都,渋谷区,渋谷３丁目１０番５号,,13,113,1500002,,,2023-04-11,合併による解散等,8180001063616,令和５年４月１日名古屋市東区葵三丁目１４番１２号ヒサゴ株式会社（8180001063616）に合併し解散,2017-04-25,1,,,,,フジプラ,0
67,1011101091769,登記記録の閉鎖等,0,2023-04-14,2023-04-03,スクルドホールディングス株式会社,,株式会社,東京都,中央区,日本橋３丁目１２－２朝日ビルヂング４Ｆ,,13,102,1030027,,,2023-04-03,合併による解散等,6011101063318,令和５年４月１日東京都中央区日本橋３－１２－２朝日ビルヂング４Ｆ株式会社スクルドアンドカンパニー（6011101063318）に合併し解散,2020-07-10,1,,,,,スクルドホールディングス,0
99,1012405001455,登記記録の閉鎖等,0,2023-04-14,2023-04-10,医療法人社団順聖会,,その他の設立登記法人,東京都,武蔵野市,中町２丁目２番４号,,13,203,1800006,,,2023-04-10,合併による解散等,1090005002577,令和５年３月２８日山梨県笛吹市一宮町坪井１７４５番地医療法人桃花会（1090005002577）に合併し解散,2015-10-05,1,,,,,ジュンセイカイ,0
116,1020001140016,登記記録の閉鎖等,0,2023-04-14,2023-04-10,株式会社Ａｉｍｅｒ,,株式会社,東京都,渋谷区,渋谷１丁目１２番８号ＩＬＡ渋谷美竹ビル５０６号室,,13,113,1500002,,,2023-04-10,清算の結了等,,,2021-02-17,1,,,,,エメ,0
147,1030003008788,登記記録の閉鎖等,0,2023-04-14,2023-04-04,合同会社ユースジーン,,合同会社,東京都,渋谷区,道玄坂１丁目１０番８号渋谷道玄坂東急ビル２Ｆ－Ｃ,,13,113,1500043,,,2023-04-04,清算の結了等,,,2016-05-26,1,,,,,ユースジーン,0
149,1040001042128,登記記録の閉鎖等,0,2023-04-14,2023-04-03,アルファー株式会社,,株式会社,千葉県,市川市,南八幡４丁目７番６号本八幡ダイヤモンドマンション３０５,,12,203,2720023,,,2023-04-03,合併による解散等,3040001026649,令和５年４月１日千葉県市川市南八幡四丁目７番６号本八幡ダイヤモンドマンション３０５千都リビング株式会社（3040001026649）に合併し解散,2015-10-05,1,,,,,アルファー,0
155,1040005005023,登記記録の閉鎖等,0,2023-04-14,2023-03-31,八柱石材協同組合,,その他の設立登記法人,千葉県,松戸市,河原塚４０２番地,,12,207,2702254,,,2023-03-31,清算の結了等,,,2015-10-05,1,,,,,ヤバシラセキザイ,0
157,1050001012930,登記記録の閉鎖等,0,2023-04-14,2023-04-05,ティクス石材株式会社,,株式会社,茨城県,小美玉市,大谷５１８番地７,,08,236,3190126,,,2023-04-05,清算の結了等,,,2015-10-05,1,,,,,ティクスセキザイ,0
160,1050002028331,登記記録の閉鎖等,0,2023-04-14,2023-04-04,有限会社アラハリ設備,,有限会社,茨城県,潮来市,牛堀５３３番地の２,,08,223,3112436,,,2023-04-04,清算の結了等,,,2015-10-05,1,,,,,アラハリセツビ,0
176,1080402006735,登記記録の閉鎖等,0,2023-04-14,2023-04-11,有限会社姫沙羅,,有限会社,静岡県,浜松市中区,伝馬町５７番地,,22,131,4300935,,,2023-04-11,清算の結了等,,,2015-10-05,1,,,,,ヒメシャラ,0
177,1080402021552,登記記録の閉鎖等,0,2023-04-14,2023-04-11,有限会社サワダ美術社,,有限会社,静岡県,袋井市,村松２６１番地の５,,22,216,4370011,,,2023-04-11,清算の結了等,,,2015-10-05,1,,,,,サワダビジュツシャ,0
187,1110002013715,登記記録の閉鎖等,0,2023-04-14,2023-04-06,有限会社茂野経理事務所,,有限会社,新潟県,五泉市,北五泉駅前７４９番地４,,15,218,9591814,,,2023-04-06,清算の結了等,,,2015-10-05,1,,,,,シゲノケイリジムショ,0
190,1110005006732,登記記録の閉鎖等,0,2023-04-14,2023-04-03,西山町商工会,,その他の設立登記法人,新潟県,柏崎市,西山町礼拝４３０番地２,,15,205,9494124,,,2023-04-03,合併による解散等,4110005016919,令和５年４月３日新潟県柏崎市大字大広田６８番地１北条商工会（5110005006729）と新潟県柏崎市高柳町岡野町１８５９番地３高柳町商工会（2110005006731）と合併して新潟県柏崎市西山町池浦８７７番地柏崎市商工会（4110005016919）を設立し解散,2015-10-05,1,,,,,ニシヤママチ,0
213,1120902017269,登記記録の閉鎖等,0,2023-04-14,2023-04-03,有限会社くれは,,有限会社,大阪府,池田市,城南３丁目１番１５－Ｉ－１５０３号,,27,204,5630025,,,2023-04-03,合併による解散等,8120902017270,令和５年４月１日大阪府池田市城南三丁目１番１５－Ｉ－１５０３号株式会社キムラ（8120902017270）に合併し解散,2015-10-05,1,,,,,クレハ,0
217,1130005006747,登記記録の閉鎖等,0,2023-04-14,2023-04-06,洛南生コンクリート協同組合,,その他の設立登記法人,京都府,城陽市,富野荒見田５３番地の１京明ビル１Ｆ,,26,207,6100111,,,2023-04-06,清算の結了等,,,2015-10-05,1,,,,,ラクナンナマコンクリート,0
234,1180001031769,登記記録の閉鎖等,0,2023-04-14,2023-04-07,株式会社ナゴヤアイキ,,株式会社,愛知県,名古屋市中村区,川前町５０７番地,,23,105,4530865,,,2023-04-07,合併による解散等,8240001002187,令和５年４月１日広島市西区中広町一丁目２０番９号架材産業株式会社（8240001002187）に合併し解散,2015-10-05,1,,,,,ナゴヤアイキ,0
235,1180001139216,登記記録の閉鎖等,0,2023-04-14,2023-04-04,株式会社ＴＲＵＴＨ,,株式会社,愛知県,名古屋市中村区,名駅５丁目１０番７号,,23,105,4500002,,,2023-04-04,清算の結了等,,,2019-12-13,1,,,,,トゥルース,0
251,1190001003932,登記記録の閉鎖等,0,2023-04-14,2023-04-05,株式会社ヒューマンサンクス,,株式会社,三重県,津市,一志町田尻５７番地,,24,201,5152516,,,2023-04-05,清算の結了等,,,2015-10-05,1,,,,,ヒューマンサンクス,0
257,1200002023110,登記記録の閉鎖等,0,2023-04-14,2023-04-04,有限会社加藤製作所,,有限会社,岐阜県,多治見市,大薮町字八幡前１０１５番地２,,21,204,5070068,,,2023-04-04,清算の結了等,,,2015-10-05,1,,,,,カトウセイサクショ,0
265,1240001017357,登記記録の閉鎖等,0,2023-04-14,2023-04-11,株式会社アイドゥー,,株式会社,広島県,広島市東区,二葉の里３丁目５番７号,,34,102,7320057,,,2023-04-11,合併による解散等,6290001062996,令和５年４月１日福岡市中央区今泉一丁目２０番２号ＦＡＶＯＲＩＸ　ＢＥＡＵＴＹ株式会社（6290001062996）に合併し解散,2015-10-05,1,,,,,アイドゥー,0
276,1240005006356,登記記録の閉鎖等,0,2023-04-14,2023-04-05,音倉内航海運協業組合,,その他の設立登記法人,広島県,呉市,中通１丁目２番２１号（月星ビル内）,,34,202,7370046,,,2023-04-05,清算の結了等,,,2015-10-05,1,,,,,オトクラナイコウカイウン,0
310,1320001003919,登記記録の閉鎖等,0,2023-04-14,2023-04-10,株式会社カクヤマ,,株式会社,大分県,大分市,萩原４丁目８番３８号,,44,201,8700921,,,2023-04-10,合併による解散等,9290001017163,令和５年４月１日福岡市博多区博多駅東二丁目１３番３４号ヤマエ久野株式会社（9290001017163）に合併し解散,2015-10-05,1,,,,,カクヤマ,0
312,1320002020599,登記記録の閉鎖等,0,2023-04-14,2023-04-06,クリエイト・アンドー有限会社,,有限会社,大分県,中津市,東本町２番２号,,44,203,8710032,,,2023-04-06,清算の結了等,,,2015-10-05,1,,,,,クリエイトアンドー,0
318,1330005006198,登記記録の閉鎖等,0,2023-04-14,2023-04-03,鏡町漁業協同組合,,その他の設立登記法人,熊本県,八代市,鏡町野崎字１番割１０２８番地の２,,43,202,8694205,,,2023-04-03,合併による解散等,1330005010646,令和５年４月３日熊本県八代市千丁町古閑出２９７５番地８千丁漁業協同組合（9330005005886）と合併して熊本県八代市鏡町野崎１０２８番地２鏡町漁業協同組合（1330005010646）を設立し解散,2015-10-05,1,,,,,カガミマチ,0
338,1380002012260,登記記録の閉鎖等,0,2023-04-14,2023-04-10,有限会社マストモ,,有限会社,福島県,郡山市,富久山町福原字東内打５番地の１,,07,203,9638061,,,2023-04-10,清算の結了等,,,2015-10-05,1,,,,,マストモ,0
339,1380002029825,登記記録の閉鎖等,0,2023-04-14,2023-04-10,有限会社飯土井鉄工,,有限会社,福島県,双葉郡富岡町,中央１丁目４６番地,,07,543,9791112,,,2023-04-10,清算の結了等,,,2015-10-05,1,,,,,イイドイテッコウ,0
346,1400001002128,登記記録の閉鎖等,0,2023-04-14,2023-04-03,アルティプロダクツ株式会社,,株式会社,岩手県,盛岡市,本宮５丁目１３番１０号,,03,201,0200866,,,2023-04-03,合併による解散等,4400001002083,令和５年４月１日岩手県盛岡市本宮五丁目１３番１０号株式会社花耶（4400001002083）に合併し解散,2015-10-05,1,,,,,アルティプロダクツ,0
349,1402702000632,登記記録の閉鎖等,0,2023-04-14,2023-04-10,有限会社森の前薬局,,有限会社,岩手県,陸前高田市,高田町字鳴石８９番地２５,,03,210,0292205,,,2023-04-10,合併による解散等,7290001008379,令和５年４月１日福岡市中央区天神二丁目１４番８号総合メディカル株式会社（7290001008379）に合併し解散,2015-10-05,1,,,,,,0
352,1410002011548,登記記録の閉鎖等,0,2023-04-14,2023-04-05,有限会社菅原総業,,有限会社,秋田県,仙北郡美郷町,六郷東根字雀柳１３６番地の２,,05,434,0191403,,,2023-04-05,清算の結了等,,,2015-10-05,1,,,,,スガワラソウギョウ,0
377,2010001088528,登記記録の閉鎖等,0,2023-04-14,2023-04-11,株式会社ホスピタルパートナーズ,,株式会社,東京都,新宿区,左門町２０番地,,13,104,1600017,,,2023-04-11,合併による解散等,5010901023507,令和５年４月１日東京都世田谷区代沢五丁目２番１号東邦薬品株式会社（5010901023507）に合併し解散,2015-10-05,1,,,,,ホスピタルパートナーズ,0
382,2010001183774,登記記録の閉鎖等,0,2023-04-14,2023-04-03,株式会社三井Ｅ＆Ｓマシナリー,,株式会社,東京都,中央区,築地５丁目６番４号,,13,102,1040045,,,2023-04-03,合併による解散等,9010001034946,令和５年４月１日東京都中央区築地五丁目６番４号株式会社三井Ｅ＆Ｓ（9010001034946）に合併し解散,2017-05-26,1,,,,,ミツイイーアンドエスマシナリー,0
391,2010002043911,登記記録の閉鎖等,0,2023-04-14,2023-04-12,有限会社ヴァシュモン・ビヤン,,有限会社,東京都,台東区,柳橋１丁目２番１２号,,13,106,1110052,,,2023-04-12,清算の結了等,,,2015-10-05,1,,,,,ヴァシュモンビヤン,0
396,2010005034313,登記記録の閉鎖等,0,2023-04-14,2023-04-07,一般社団法人ＤＳ２,,その他の設立登記法人,東京都,千代田区,内幸町２丁目１番６号,,13,101,1000011,,,2023-04-07,清算の結了等,,,2021-12-09,1,,,,,ディーエスツー,0
399,2010102004549,登記記録の閉鎖等,0,2023-04-14,2023-04-12,有限会社ティー・エヌ設計,,有限会社,東京都,八王子市,東浅川町５６０番地の５,,13,201,1930834,,,2023-04-12,清算の結了等,,,2015-10-05,1,,,,,ティーエヌセッケイ,0
408,2010501043916,登記記録の閉鎖等,0,2023-04-14,2023-04-11,株式会社南アジアエンジニア,,株式会社,東京都,台東区,上野６丁目１番６号御徒町グリーンハイツ１００５,,13,106,1100005,,,2023-04-11,清算の結了等,,,2019-03-28,1,,,,,ミナミアジアエンジニア,0
430,2011003008630,登記記録の閉鎖等,0,2023-04-14,2023-04-10,合同会社ＩＫＵ,,合同会社,東京都,渋谷区,松濤１丁目２８番１１号,,13,113,1500046,,,2023-04-10,清算の結了等,,,2018-04-13,1,,,,,アイケーユー,0
434,2011101057884,登記記録の閉鎖等,0,2023-04-14,2023-04-07,日本ポステック株式会社,,株式会社,東京都,渋谷区,代々木１丁目４１－９ＤＭＫ代々木ビル７階,,13,113,1510053,,,2023-04-07,合併による解散等,7011101045257,令和５年４月１日東京都新宿区西新宿六丁目８番１号アナザーレーン株式会社（7011101045257）に合併し解散,2015-10-05,1,,,,,ニホンポステック,0
468,2020001131121,登記記録の閉鎖等,0,2023-04-14,2023-04-04,株式会社創新,,株式会社,神奈川県,横浜市中区,本牧町２丁目３０４番地加藤ビル３Ｃ－５,,14,104,2310806,,,2023-04-04,清算の結了等,,,2019-05-16,1,,,,,ソウシン,0
476,2021001073790,登記記録の閉鎖等,0,2023-04-14,2023-04-11,株式会社ｆｅｅｌ,,株式会社,神奈川県,平塚市,老松町１８－２５－２０１,,14,203,2540033,,,2023-04-11,合併による解散等,4021001059169,令和５年３月３１日千葉県佐倉市王子台３－２９－１６レジデンス岡野ＩＩ１０３号株式会社協和（4021001059169）に合併し解散,2021-08-30,1,,,,,フィール,0
477,2021001074624,登記記録の閉鎖等,0,2023-04-14,2023-04-11,極美グループ株式会社,,株式会社,神奈川県,平塚市,老松町１８－２５－２０１,,14,203,2540033,,,2023-04-11,合併による解散等,4021001059169,令和５年３月３１日千葉県佐倉市王子台３－２９－１６レジデンス岡野ＩＩ１０３号株式会社協和（4021001059169）に合併し解散,2021-12-03,1,,,,,キワミグループ,0
484,2030002108290,登記記録の閉鎖等,0,2023-04-14,2023-04-03,有限会社ワイ・エム企業,,有限会社,埼玉県,川口市,大字芝２７５３番地,,11,203,3330866,,,2023-04-03,合併による解散等,1030001077190,令和５年４月１日埼玉県川口市芝新町８番２２号株式会社堀代商亊（1030001077190）に合併し解散,2015-10-05,1,,,,,ワイエムキギョウ,0
490,2050001024157,登記記録の閉鎖等,0,2023-04-14,2023-04-10,ＪＸ金属ファウンドリー株式会社,,株式会社,茨城県,北茨城市,華川町臼場字駒木１８７番地４,,08,215,3191535,,,2023-04-10,合併による解散等,2010001133878,令和５年４月１日東京都港区虎ノ門二丁目１０番４号ＪＸ金属株式会社（2010001133878）に合併し解散,2015-10-05,1,,,,,ジェイエックスキンゾクファウンドリー,0
494,2060001035013,登記記録の閉鎖等,0,2023-04-14,2023-04-04,株式会社Ｆａｓｈｉｏｎ　Ｍａｋｅｒ,,株式会社,栃木県,那須塩原市,東赤田３２１番地,,09,213,3292742,,,2023-04-04,清算の結了等,,,2022-06-23,1,,,,,ファッションメーカー,0
515,2110005006731,登記記録の閉鎖等,0,2023-04-14,2023-04-03,高柳町商工会,,その他の設立登記法人,新潟県,柏崎市,高柳町岡野町１８５９番地３,,15,205,9451502,,,2023-04-03,合併による解散等,4110005016919,令和５年４月３日新潟県柏崎市西山町礼拝４３０番地２西山町商工会（1110005006732）と新潟県柏崎市大字大広田６８番地１北条商工会（5110005006729）と合併して新潟県柏崎市西山町池浦８７７番地柏崎市商工会（4110005016919）を設立し解散,2015-10-05,1,,,,,タカヤナギマチ,0
518,2120001024802,登記記録の閉鎖等,0,2023-04-14,2023-04-10,西川システム開発株式会社,,株式会社,大阪府,大阪市天王寺区,餌差町１番１０号,,27,109,5430016,,,2023-04-10,清算の結了等,,,2015-10-05,1,,,,,ニシカワシステムカイハツ,0
521,2120001105131,登記記録の閉鎖等,0,2023-04-14,2023-04-10,株式会社シュア,,株式会社,大阪府,泉南郡熊取町,南山の手台１５番３号,,27,361,5900453,,,2023-04-10,清算の結了等,,,2015-10-05,1,,,,,シュア,0
550,2140001019115,登記記録の閉鎖等,0,2023-04-14,2023-04-10,株式会社エイ・エム・ケイ,,株式会社,兵庫県,神戸市中央区,八幡通１丁目１番１４号,,28,110,6510085,,,2023-04-10,清算の結了等,,,2015-10-05,1,,,,,エイエムケイ,0
575,2180001101802,登記記録の閉鎖等,0,2023-04-14,2023-04-03,株式会社大豊,,株式会社,愛知県,津島市,白浜町字下池３６番地１,,23,208,4960016,,,2023-04-03,合併による解散等,2180001097743,令和５年４月３日愛知県津島市白浜町字下池３６番地１株式会社風岡（2180001097743）に合併し解散,2015-10-05,1,,,,,ダイホウ,0
581,2180003010737,登記記録の閉鎖等,0,2023-04-14,2023-04-07,合資会社天王屋商店,,合資会社,愛知県,瀬戸市,北脇町８７番地,,23,204,4890918,,,2023-04-07,清算の結了等,,,2015-10-05,1,,,,,テンノウヤショウテン,0
588,2190001022989,登記記録の閉鎖等,0,2023-04-14,2023-04-03,株式会社ライズ,,株式会社,三重県,四日市市,日永東３丁目１３番５号,,24,202,5100886,,,2023-04-03,合併による解散等,7190001016912,令和５年４月１日三重県四日市市日永東三丁目１３番５号株式会社ライズオート（7190001016912）に合併し解散,2015-10-05,1,,,,,ライズ,0
590,2200002021625,登記記録の閉鎖等,0,2023-04-14,2023-04-04,有限会社マルシン陶苑,,有限会社,岐阜県,土岐市,土岐津町土岐口１３９９番地,,21,212,5095122,,,2023-04-04,清算の結了等,,,2015-10-05,1,,,,,マルシントウエン,0
611,2260001013782,登記記録の閉鎖等,0,2023-04-14,2023-04-06,セントサービス株式会社,,株式会社,岡山県,玉野市,和田３丁目２４番２１号,,33,204,7060021,,,2023-04-06,清算の結了等,,,2015-10-05,1,,,,,セントサービス,0
625,2290002007418,登記記録の閉鎖等,0,2023-04-14,2023-04-06,よしだ牛もつ料理専門店有限会社,,有限会社,福岡県,福岡市城南区,長尾５丁目３１番４号,,40,136,8140123,,,2023-04-06,清算の結了等,,,2015-10-05,1,,,,,ヨシダギュウモツリョウリセンモンテン,0
637,2310001007507,登記記録の閉鎖等,0,2023-04-14,2023-04-05,株式会社ＭＥＴＡＬ　ＣＲＥＡＴＥ　ＳＭＩＬＥ,,株式会社,長崎県,佐世保市,大和町１１７番地２,,42,202,8571165,,,2023-04-05,清算の結了等,,,2015-10-05,1,,,,,メタルクリエイトスマイル,0
665,2420002006208,登記記録の閉鎖等,0,2023-04-14,2023-04-06,有限会社上野商事,,有限会社,青森県,八戸市,日計１丁目１番１０号,,02,203,0391169,,,2023-04-06,清算の結了等,,,2015-10-05,1,,,,,ウエノショウジ,0
667,2430001008170,登記記録の閉鎖等,0,2023-04-14,2023-04-03,株式会社シンレキ,,株式会社,北海道,札幌市東区,北二十三条東１８丁目２番３号,,01,103,0650023,,,2023-04-03,合併による解散等,6430001015089,令和５年４月１日札幌市東区北二十三条東十八丁目２番３号株式会社北舗（6430001015089）に合併し解散,2015-10-05,1,,,,,シンレキ,0
685,2500001008898,登記記録の閉鎖等,0,2023-04-14,2023-04-12,伊予デンソー株式会社,,株式会社,愛媛県,西条市,中野甲１５８６番地,,38,206,7930054,,,2023-04-12,清算の結了等,,,2015-10-05,1,,,,,イヨデンソー,0
689,2500005007616,登記記録の閉鎖等,0,2023-04-14,2023-04-12,一般社団法人福祉環境整備協会,,その他の設立登記法人,愛媛県,新居浜市,中村２丁目７番８号,,38,205,7920044,,,2023-04-12,清算の結了等,,,2015-10-05,1,,,,,フクシカンキョウセイビキョウカイ,0
696,3010001186941,登記記録の閉鎖等,0,2023-04-14,2023-03-31,東京不動産株式会社,,株式会社,東京都,中央区,銀座７丁目９番１０号,,13,102,1040061,,,2023-03-31,清算の結了等,,,2017-10-17,1,,,,,トウキョウフドウサン,0
704,3010002019646,登記記録の閉鎖等,0,2023-04-14,2023-04-10,有限会社小林紙店,,有限会社,東京都,千代田区,富士見１丁目２番１１号河田フラッツ４０１号,,13,101,1020071,,,2023-04-10,合併による解散等,9030001047194,令和５年３月３１日埼玉県志木市下宗岡四丁目１１番４７号株式会社大玄（9030001047194）に合併し解散,2015-10-05,1,,,,,コバヤシカミテン,0
710,3010401059202,登記記録の閉鎖等,0,2023-04-14,2023-04-10,アイシン・インフォテックス株式会社,,株式会社,東京都,港区,三田３丁目１１番３４号,,13,103,1080073,,,2023-04-10,合併による解散等,6180301013611,令和５年４月１日愛知県刈谷市朝日町二丁目１番地株式会社アイシン（6180301013611）に合併し解散,2015-10-05,1,,,,,アイシンインフォテックス,0
740,3011001147693,登記記録の閉鎖等,0,2023-04-14,2023-04-04,楼蘭株式会社,,株式会社,東京都,渋谷区,幡ヶ谷３丁目３９番１２号渋谷ウェストビル１階,,13,113,1510072,,,2023-04-04,清算の結了等,,,2022-05-26,1,,,,,ロウラン,0
756,3011301013802,登記記録の閉鎖等,0,2023-04-14,2023-04-06,東京ホームヒーテング株式会社,,株式会社,東京都,杉並区,善福寺３丁目１５番１１号,,13,115,1670041,,,2023-04-06,清算の結了等,,,2015-10-05,1,,,,,トウキョウホームヒーテング,0
770,3012702002781,登記記録の閉鎖等,0,2023-04-14,2023-04-06,サニー商事有限会社,,有限会社,東京都,東村山市,野口町４丁目３２番地１,,13,213,1890022,,,2023-04-06,清算の結了等,,,2015-10-05,1,,,,,サニーショウジ,0
778,3013402001859,登記記録の閉鎖等,0,2023-04-14,2023-04-10,有限会社ウォーターテックジャパン,,有限会社,東京都,多摩市,和田１９２２番地の８,,13,224,2060001,,,2023-04-10,清算の結了等,,,2015-10-05,1,,,,,ウォーターテックジャパン,0
787,3021001063246,登記記録の閉鎖等,0,2023-04-14,2023-04-05,株式会社クライオテック,,株式会社,神奈川県,茅ヶ崎市,共恵１丁目８番６－１３０４号グレーシア茅ヶ崎,,14,207,2530056,,,2023-04-05,清算の結了等,,,2017-10-06,1,,,,,クライオテック,0
788,3021002016624,登記記録の閉鎖等,0,2023-04-14,2023-04-10,有限会社ジリオン,,有限会社,神奈川県,鎌倉市,七里ガ浜１丁目２０番２０号,,14,204,2480026,,,2023-04-10,清算の結了等,,,2015-10-05,1,,,,,ジリオン,0
802,3030002004076,登記記録の閉鎖等,0,2023-04-14,2023-04-03,有限会社北三和,,有限会社,埼玉県,さいたま市大宮区,仲町１丁目１番地,,11,103,3300845,,,2023-04-03,清算の結了等,,,2015-10-05,1,,,,,キタサンワ,0
821,3050001022449,登記記録の閉鎖等,0,2023-04-14,2023-04-06,株式会社たかよし,,株式会社,茨城県,行方市,玉造甲６３６４番地４,,08,233,3113512,,,2023-04-06,清算の結了等,,,2015-10-05,1,,,,,タカヨシ,0
824,3060001006161,登記記録の閉鎖等,0,2023-04-14,2023-04-05,株式会社島クリエーション,,株式会社,栃木県,塩谷郡高根沢町,大字石末４１０番地５,,09,386,3291225,,,2023-04-05,清算の結了等,,,2015-10-05,1,,,,,シマクリエーション,0
834,3080002009021,登記記録の閉鎖等,0,2023-04-14,2023-04-12,有限会社愛晃,,有限会社,静岡県,静岡市清水区,船越２丁目４番８号,,22,103,4240866,,,2023-04-12,清算の結了等,,,2015-10-05,1,,,,,アイコウ,0
836,3080102011975,登記記録の閉鎖等,0,2023-04-14,2023-04-11,有限会社豊造園土木,,有限会社,静岡県,三島市,塚原新田１３４番地の７,,22,206,4110016,,,2023-04-11,清算の結了等,,,2015-10-05,1,,,,,ユタカゾウエンドボク,0
837,3080102012783,登記記録の閉鎖等,0,2023-04-14,2023-04-11,株式会社マルイ建設,,株式会社,静岡県,三島市,梅名３２５番地の４,,22,206,4110816,,,2023-04-11,清算の結了等,,,2015-10-05,1,,,,,マルイケンセツ,0
839,3090002003436,登記記録の閉鎖等,0,2023-04-14,2023-04-11,有限会社リニアエクスプレス,,有限会社,山梨県,中央市,若宮１９番地１オフィス文教,,19,214,4093803,,,2023-04-11,合併による解散等,2011001045931,令和５年４月１日東京都千代田区神田神保町一丁目１３番地株式会社文教（2011001045931）に合併し解散,2015-10-05,1,,,,,リニアエクスプレス,0
850,3120001159696,登記記録の閉鎖等,0,2023-04-14,2023-04-07,株式会社ハーモニー,,株式会社,大阪府,守口市,長池町６番３号マンションアベニュー１Ｆ,,27,209,5700064,,,2023-04-07,清算の結了等,,,2015-10-05,1,,,,,ハーモニー,0
856,3120001244044,登記記録の閉鎖等,0,2023-04-14,2023-04-07,株式会社ランカー,,株式会社,大阪府,大阪市中央区,鎗屋町１丁目１番１号,,27,128,5400027,,,2023-04-07,清算の結了等,,,2022-02-25,1,,,,,ランカー,0
869,3120002075918,登記記録の閉鎖等,0,2023-04-14,2023-04-10,有限会社ファースト工学,,有限会社,大阪府,枚方市,中宮山戸町６番２２号,,27,210,5730011,,,2023-04-10,清算の結了等,,,2015-10-05,1,,,,,ファーストコウガク,0
884,3120901042464,登記記録の閉鎖等,0,2023-04-14,2023-04-07,Ｕｅ’ｓ　ｈｏｍｅ株式会社,,株式会社,大阪府,三島郡島本町,江川２丁目１１番１１号,,27,301,6180013,,,2023-04-07,清算の結了等,,,2020-03-06,1,,,,,ウエズホーム,0
921,3180001119182,登記記録の閉鎖等,0,2023-04-14,2023-04-07,ワンステップファイナンス株式会社,,株式会社,愛知県,名古屋市中区,新栄２丁目４４番２０号,,23,106,4600007,,,2023-04-07,清算の結了等,,,2015-10-05,1,,,,,ワンステップファイナンス,0
926,3180002090985,登記記録の閉鎖等,0,2023-04-14,2023-04-03,有限会社明輝,,有限会社,愛知県,海部郡飛島村,大字新政成１１丁目３６番地の１,,23,427,4901443,,,2023-04-03,合併による解散等,2180001097743,令和５年４月３日愛知県津島市白浜町字下池３６番地１株式会社風岡（2180001097743）に合併し解散,2015-10-05,1,,,,,メイキ,0
932,3180301020544,登記記録の閉鎖等,0,2023-04-14,2023-04-03,株式会社ＡＱＵＡ・Ｊ,,株式会社,愛知県,豊田市,竜神町弥生５３番地,,23,211,4730907,,,2023-04-03,合併による解散等,7180301018378,令和５年４月１日愛知県豊田市竜神町弥生５３番地株式会社ＪＰＣ（7180301018378）に合併し解散,2015-10-05,1,,,,,アクアジェイ,0
949,3260001029506,登記記録の閉鎖等,0,2023-04-14,2023-04-05,晴れの国活力計画株式会社,,株式会社,岡山県,岡山市北区,奉還町２丁目５番１号,,33,101,7000026,,,2023-04-05,清算の結了等,,,2016-04-21,1,,,,,ハレノクニカツリョクケイカク,0
953,3270001003170,登記記録の閉鎖等,0,2023-04-14,2023-04-03,株式会社オートケア,,株式会社,鳥取県,米子市,旗ヶ崎２１４８番地,,31,202,6830845,,,2023-04-03,合併による解散等,2270001003452,令和５年４月１日鳥取県米子市尾高町４７番地永瀬石油株式会社（2270001003452）に合併し解散,2015-10-05,1,,,,,オートケア,0
954,3270005002870,登記記録の閉鎖等,0,2023-04-14,2023-04-06,医療法人社団中井医院,,その他の設立登記法人,鳥取県,米子市,旗ヶ崎７丁目２０番１２号,,31,202,6830845,,,2023-04-06,清算の結了等,,,2015-10-05,1,,,,,ナカイイイン,0
956,3280002000637,登記記録の閉鎖等,0,2023-04-14,2023-04-07,有限会社キムラ不動産,,有限会社,島根県,松江市,西津田４丁目１番２８号,,32,201,6900017,,,2023-04-07,清算の結了等,,,2015-10-05,1,,,,,キムラフドウサン,0
958,3280002007797,登記記録の閉鎖等,0,2023-04-14,2023-04-03,有限会社マルタケストア,,有限会社,島根県,大田市,波根町１４８４番地,,32,205,6992211,,,2023-04-03,合併による解散等,1280001003907,令和５年４月１日島根県大田市大田町大田イ２７５６番地９大田青果株式会社（1280001003907）に合併し解散,2015-10-05,1,,,,,マルタケストア,0
959,3290001057578,登記記録の閉鎖等,0,2023-04-14,2023-04-10,株式会社インテラス,,株式会社,福岡県,福岡市早良区,有田５丁目８番１６号,,40,137,8140033,,,2023-04-10,合併による解散等,4240001017131,令和５年４月１日広島市中区八丁堀６番３号　和光八丁堀ビル７Ｆシューペルブリアン株式会社（4240001017131）に合併し解散,2015-10-05,1,,,,,インテラス,0
963,3290001089324,登記記録の閉鎖等,0,2023-04-14,2023-04-11,株式会社Ｓａｒａｎａｒｕ,,株式会社,鹿児島県,鹿児島市,加治屋町１３番８号,,46,201,8920846,,,2023-04-11,合併による解散等,9310002008596,令和５年４月１日福岡市博多区中洲四丁目３番１８号株式会社Ｆａ‐Ｔｕｓ（9310002008596）に合併し解散,2020-06-24,1,,,,,サラナル,0
964,3290001090348,登記記録の閉鎖等,0,2023-04-14,2023-04-05,Ｃｏａ株式会社,,株式会社,福岡県,久留米市,野中町１０５２番地１ベアーズマンション４０７号室,,40,203,8390862,,,2023-04-05,清算の結了等,,,2020-09-30,1,,,,,コア,0
978,3310002013998,登記記録の閉鎖等,0,2023-04-14,2023-04-03,有限会社近藤建設,,有限会社,長崎県,西海市,西彼町上岳郷１２２９番地,,42,212,8513304,,,2023-04-03,清算の結了等,,,2015-10-05,1,,,,,コンドウケンセツ,0
1005,3390001014214,登記記録の閉鎖等,0,2023-04-14,2023-04-05,寒河江仮設工業株式会社,,株式会社,山形県,寒河江市,大字柴橋８４２番地,,06,206,9910063,,,2023-04-05,清算の結了等,,,2015-10-05,1,,,,,サガエカセツコウギョウ,0
1009,3420005004356,登記記録の閉鎖等,0,2023-04-14,2023-04-03,社会福祉法人三友会,,その他の設立登記法人,青森県,弘前市,大字大和沢字沢田２番地５,,02,202,0368133,,,2023-04-03,合併による解散等,5420005004387,令和５年４月３日青森県弘前市大字大沢字稲元３番地２社会福祉法人沢朋会（5420005004387）に合併し解散,2015-10-05,1,,,,,サンユウカイ,0
1011,3430001074179,登記記録の閉鎖等,0,2023-04-14,2023-04-03,株式会社ゆう建築工房,,株式会社,北海道,札幌市北区,屯田六条１丁目１番１９号,,01,102,0020856,,,2023-04-03,清算の結了等,,,2017-05-26,1,,,,,ユウケンチクコウボウ,0
1043,4010002005505,登記記録の閉鎖等,0,2023-04-14,2023-04-10,有限会社カイエイ薬局,,有限会社,東京都,文京区,千駄木５丁目５０番１号,,13,105,1130022,,,2023-04-10,合併による解散等,6010901011741,令和５年４月１日東京都世田谷区若林四丁目２１番１５号みなと薬品株式会社（6010901011741）に合併し解散,2015-10-05,1,,,,,カイエイヤッキョク,0
1056,4010401141017,登記記録の閉鎖等,0,2023-04-14,2023-03-31,ＩＴｂｏｏｋ，Ｈ．Ｌ株式会社,,株式会社,東京都,港区,虎ノ門３丁目１番１号,,13,103,1050001,,,2023-03-31,清算の結了等,,,2018-09-26,1,,,,,アイティブックエイチエル,0
1062,4010501046999,登記記録の閉鎖等,0,2023-04-14,2023-04-11,株式会社ＣＯＥ,,株式会社,東京都,台東区,浅草橋５丁目２番３号鈴和ビル,,13,106,1110053,,,2023-04-11,清算の結了等,,,2021-03-08,1,,,,,コエ,0
1064,4010505001538,登記記録の閉鎖等,0,2023-04-14,2023-04-11,特定非営利活動法人ワーカーズコープエコテック,,その他の設立登記法人,東京都,台東区,小島２丁目２番９号,,13,106,1110056,,,2023-04-11,清算の結了等,,,2015-10-05,1,,,,,,0
1073,4010905001229,登記記録の閉鎖等,0,2023-04-14,2023-04-06,世田谷調査測量設計事業協同組合,,その他の設立登記法人,東京都,世田谷区,代田５丁目２８番４号,,13,112,1550033,,,2023-04-06,清算の結了等,,,2015-10-05,1,,,,,セタガヤチョウサソクリョウセッケイ,0
1078,4011001091354,登記記録の閉鎖等,0,2023-04-14,2023-04-03,ＢｅａｕｔｙＩｔ株式会社,,株式会社,東京都,中央区,銀座７丁目１６番１２号,,13,102,1040061,,,2023-04-03,合併による解散等,5011001059400,令和５年４月１日東京都中央区銀座七丁目１６番１２号株式会社セイムペイジ（5011001059400）に合併し解散,2015-10-05,1,,,,,ビューティーイット,0
1079,4011001105667,登記記録の閉鎖等,0,2023-04-14,2023-04-12,株式会社Ｆｌｏｗｅｒｙ　Ｈｅａｒｔｓ,,株式会社,東京都,港区,元赤坂１丁目１番７－５０２号,,13,103,1070051,,,2023-04-12,合併による解散等,3011001106352,令和５年４月１日東京都千代田区丸の内三丁目１番１号国際ビル２階２３６区株式会社アーク（3011001106352）に合併し解散,2015-10-05,1,,,,,フラワリーハーツ,0
1087,4011101033116,登記記録の閉鎖等,0,2023-04-14,2023-04-11,株式会社ベストライン,,株式会社,東京都,新宿区,西新宿６丁目２５番１６号,,13,104,1600023,,,2023-04-11,清算の結了等,,,2015-10-05,1,,,,,ベストライン,0
1095,4011601003015,登記記録の閉鎖等,0,2023-04-14,2023-04-10,志賀計装株式会社,,株式会社,東京都,練馬区,豊玉中２丁目５番７号,,13,120,1760013,,,2023-04-10,合併による解散等,3180001096562,令和５年４月１日愛知県津島市寺野町字五反田２８番地１株式会社中藤電機産業（3180001096562）に合併し解散,2015-10-05,1,,,,,シガケイソウ,0
1098,4011603000893,登記記録の閉鎖等,0,2023-04-14,2023-04-05,合同会社ケアーリソース絆,,合同会社,東京都,練馬区,富士見台１丁目１０番１３号,,13,120,1770034,,,2023-04-05,清算の結了等,,,2015-10-05,1,,,,,ケアーリソースキズナ,0
1105,4012701010090,登記記録の閉鎖等,0,2023-04-14,2023-04-07,株式会社ＳＴＰファクトリー,,株式会社,東京都,西東京市,泉町２丁目６番１号,,13,229,2020011,,,2023-04-07,清算の結了等,,,2015-10-05,1,,,,,エスティーピー,0
1113,4013202013764,登記記録の閉鎖等,0,2023-04-14,2023-04-05,有限会社ワイシーティ企画,,有限会社,東京都,目黒区,中目黒４丁目１１番２１－１０６号,,13,110,1530061,,,2023-04-05,清算の結了等,,,2015-10-05,1,,,,,ワイシーティキカク,0
1115,4020001016980,登記記録の閉鎖等,0,2023-04-14,2023-04-04,株式会社加藤物流サービス,,株式会社,神奈川県,横浜市鶴見区,尻手３丁目７番２３号,,14,101,2300003,,,2023-04-04,合併による解散等,8020001016911,令和５年４月１日横浜市鶴見区尻手三丁目７番２３号株式会社加藤運送（8020001016911）に合併し解散,2015-10-05,1,,,,,カトウブツリュウサービス,0
1122,4020001123819,登記記録の閉鎖等,0,2023-04-14,2023-04-05,ＧＴＪコミュニケーションズ株式会社,,株式会社,神奈川県,横浜市西区,平沼１丁目６－７川合ビル４Ｆ,,14,103,2200023,,,2023-04-05,清算の結了等,,,2017-11-16,1,,,,,,0
1123,4020001134238,登記記録の閉鎖等,0,2023-04-14,2023-04-06,株式会社ｏｍｕｕ,,株式会社,東京都,世田谷区,瀬田２丁目３１番２９－１１０２号,,13,112,1580095,,,2023-04-06,清算の結了等,,,2019-12-26,1,,,,,オム,0
1138,4030001021195,登記記録の閉鎖等,0,2023-04-14,2023-04-03,船越産業株式会社,,株式会社,埼玉県,蕨市,塚越６丁目２１番５号－４０１,,11,223,3350002,,,2023-04-03,清算の結了等,,,2015-10-05,1,,,,,フナコシサンギョウ,0
1141,4030001105072,登記記録の閉鎖等,0,2023-04-14,2023-04-03,株式会社エスユーコールド,,株式会社,埼玉県,志木市,上宗岡２丁目１４番６号,,11,228,3530001,,,2023-04-03,合併による解散等,2030001072505,令和５年４月１日埼玉県志木市上宗岡二丁目１４番６号株式会社エスユーロジ（2030001072505）に合併し解散,2015-10-05,1,,,,,エスユーコールド,0
1198,4120001228351,登記記録の閉鎖等,0,2023-04-14,2023-04-06,株式会社ＥＥロジスティックス,,株式会社,大阪府,大阪市平野区,平野北１丁目７番７号,,27,126,5470041,,,2023-04-06,合併による解散等,8120001119118,令和５年４月１日大阪市中央区北久宝寺町一丁目９番１号セントピア大阪ビル株式会社イーストエンドカンパニー（8120001119118）に合併し解散,2020-04-06,1,,,,,イーイーロジスティックス,0
1205,4120002030731,登記記録の閉鎖等,0,2023-04-14,2023-04-06,有限会社賛興,,有限会社,大阪府,大阪市北区,天満２丁目３番２－３Ｆ５号,,27,127,5300043,,,2023-04-06,合併による解散等,1120002020058,令和５年４月１日大阪市浪速区元町二丁目５番２４－２０２号新陽産興株式会社（1120002020058）に合併し解散,2015-10-05,1,,,,,サンコウ,0
1249,4160001017825,登記記録の閉鎖等,0,2023-04-14,2023-04-12,株式会社細井シェル,,株式会社,滋賀県,長浜市,湖北今町２４８番地,,25,203,5290333,,,2023-04-12,清算の結了等,,,2015-10-05,1,,,,,ホソイシェル,0
1254,4170001014986,登記記録の閉鎖等,0,2023-04-14,2023-04-10,株式会社Ｇｒａｃｅ,,株式会社,和歌山県,和歌山市,延時１４７－１３（３Ｆ）,,30,201,6408443,,,2023-04-10,清算の結了等,,,2017-11-27,1,,,,,グレイス,0
1258,4180001072942,登記記録の閉鎖等,0,2023-04-14,2023-04-10,伊相株式会社,,株式会社,愛知県,名古屋市瑞穂区,軍水町１丁目９番地の２,,23,108,4670059,,,2023-04-10,清算の結了等,,,2015-10-05,1,,,,,イソウ,0
1261,4180001085250,登記記録の閉鎖等,0,2023-04-14,2023-04-12,中部オリオン株式会社,,株式会社,愛知県,稲沢市,下津南山２丁目１番地１,,23,220,4928095,,,2023-04-12,合併による解散等,4100001005488,令和５年４月１日長野県須坂市大字幸高２４６番地オリオン機械株式会社（4100001005488）に合併し解散,2015-10-05,1,,,,,チュウブオリオン,0
1272,4180003013481,登記記録の閉鎖等,0,2023-04-14,2023-04-10,合名会社カネデン,,合名会社,愛知県,津島市,馬場町２８番地,,23,208,4960865,,,2023-04-10,清算の結了等,,,2015-10-05,1,,,,,カネデン,0
1282,4190003003647,登記記録の閉鎖等,0,2023-04-14,2023-04-05,ＴＥＩＺＥＮ合同会社,,合同会社,三重県,四日市市,別名４丁目１５番２号,,24,202,5100007,,,2023-04-05,清算の結了等,,,2021-04-06,1,,,,,テイゼン,0
1293,4240001003189,登記記録の閉鎖等,0,2023-04-14,2023-04-10,広栄薬品株式会社,,株式会社,広島県,広島市中区,基町１番１９号,,34,101,7300011,,,2023-04-10,合併による解散等,7290001008379,令和５年４月１日福岡市中央区天神二丁目１４番８号総合メディカル株式会社（7290001008379）に合併し解散,2015-10-05,1,,,,,コウエイヤクヒン,0
1332,4330001003386,登記記録の閉鎖等,0,2023-04-14,2023-04-03,株式会社ナブコ製作所,,株式会社,熊本県,熊本市東区,戸島町９７４番地１６,,43,102,8618031,,,2023-04-03,合併による解散等,4330001001019,令和５年４月１日熊本市東区戸島町９７４番地８株式会社キョーリツ熊本（4330001001019）に合併し解散,2015-10-05,1,,,,,ナブコセイサクジョ,0
1351,4380001005782,登記記録の閉鎖等,0,2023-04-14,2023-04-12,株式会社タナカ情報ビジネス,,株式会社,福島県,郡山市,安積荒井１丁目１６０番地,,07,203,9630117,,,2023-04-12,合併による解散等,1050001010075,令和５年４月１日茨城県土浦市藤沢３４９５番地１株式会社タナカ（1050001010075）に合併し解散,2015-10-05,1,,,,,タナカジョウホウビジネス,0
1409,5010005028782,登記記録の閉鎖等,0,2023-04-14,2023-04-07,Ｒｅｓｉｌｉｅｎｃｅ　Ｉｎｖｅｓｔｍｅｎｔ特定目的会社,,その他の設立登記法人,東京都,中央区,銀座１丁目６番１１号土志田ビルディング３Ｆ,,13,102,1040061,,,2023-04-07,清算の結了等,,,2018-07-11,1,,,,,レジリエンスインベストメント,0
1410,5010005031480,登記記録の閉鎖等,0,2023-04-14,2023-04-07,ウエストビレッジ特定目的会社,,その他の設立登記法人,東京都,千代田区,飯田橋４丁目７番１号結和税理士法人内,,13,101,1020072,,,2023-04-07,清算の結了等,,,2020-02-25,1,,,,,ウエストビレッジ,0
1418,5010401166979,登記記録の閉鎖等,0,2023-04-14,2023-04-11,株式会社アセッツグロース,,株式会社,東京都,足立区,六月２丁目１４番７－１０２,,13,121,1210814,,,2023-04-11,清算の結了等,,,2022-04-20,1,,,,,アセッツグロース,0
1443,5010903001675,登記記録の閉鎖等,0,2023-04-14,2023-04-06,合同会社ＮＴシステムアカウント,,合同会社,東京都,世田谷区,上馬４丁目２６番８号,,13,112,1540011,,,2023-04-06,清算の結了等,,,2015-10-05,1,,,,,エヌティシステムアカウント,0
1453,5011003005996,登記記録の閉鎖等,0,2023-04-14,2023-04-11,ルナ・クバーノ合同会社,,合同会社,東京都,渋谷区,代々木４丁目５１番７,,13,113,1510053,,,2023-04-11,清算の結了等,,,2015-10-05,1,,,,,ルナクバーノ,0
1456,5011101020534,登記記録の閉鎖等,0,2023-04-14,2023-04-03,三井ホームコンポーネント株式会社,,株式会社,東京都,新宿区,西新宿２丁目１番１号,,13,104,1600023,,,2023-04-03,合併による解散等,2011101020537,令和５年４月１日東京都新宿区西新宿二丁目１番１号三井ホーム株式会社（2011101020537）に合併し解散,2015-10-05,1,,,,,ミツイホームコンポーネント,0
1463,5011101098620,登記記録の閉鎖等,0,2023-04-14,2023-04-11,株式会社ヒラエス,,株式会社,東京都,新宿区,新宿５丁目４番１号新宿Ｑフラットビル６１１,,13,104,1600022,,,2023-04-11,清算の結了等,,,2022-04-21,1,,,,,ヒラエス,0
1468,5011401010532,登記記録の閉鎖等,0,2023-04-14,2023-04-12,プリンテック株式会社,,株式会社,東京都,板橋区,本町２３番２３号,,13,119,1730001,,,2023-04-12,合併による解散等,7013201015817,令和５年４月１日東京都目黒区中目黒二丁目１番２７号リンテックサインシステム株式会社（7013201015817）に合併し解散,2015-10-05,1,,,,,,0
1476,5011801039824,登記記録の閉鎖等,0,2023-04-14,2023-04-11,株式会社防災安全プラス,,株式会社,東京都,足立区,鹿浜６丁目４番１８号,,13,121,1230864,,,2023-04-11,清算の結了等,,,2021-10-13,1,,,,,ボウサイアンゼンプラス,0
1478,5012402016832,登記記録の閉鎖等,0,2023-04-14,2023-04-12,有限会社桜井乳業,,有限会社,東京都,武蔵野市,緑町１丁目２番１４号桜井ビル,,13,203,1800012,,,2023-04-12,清算の結了等,,,2015-10-05,1,,,,,サクライニュウギョウ,0
1479,5012405001815,登記記録の閉鎖等,0,2023-04-14,2023-04-05,特定非営利活動法人シニアＳＯＨＯむさしの,,その他の設立登記法人,東京都,武蔵野市,吉祥寺東町２丁目４２番３号,,13,203,1800002,,,2023-04-05,清算の結了等,,,2015-10-05,1,,,,,シニアソーホームサシノ,0
1480,5012702010246,登記記録の閉鎖等,0,2023-04-14,2023-04-07,有限会社ＺＩＺＯ,,有限会社,東京都,小平市,花小金井１丁目４８番１１号,,13,211,1870002,,,2023-04-07,清算の結了等,,,2015-10-05,1,,,,,ジゾ,0
1485,5020001131878,登記記録の閉鎖等,0,2023-04-14,2023-04-03,ジャパンベーカリーデザイン株式会社,,株式会社,神奈川県,横浜市青葉区,青葉台２丁目１０番２０号第二志田ビル２階,,14,117,2270062,,,2023-04-03,合併による解散等,9020001101935,令和５年４月１日神奈川県横浜市青葉区青葉台二丁目１０番２０号第二志田ビル２階ブレッドサンド株式会社（9020001101935）に合併し解散,2019-07-08,1,,,,,ジャパンベーカリーデザイン,0
1504,5040005015002,登記記録の閉鎖等,0,2023-04-14,2023-03-27,南総鉄工業協同組合,,その他の設立登記法人,千葉県,館山市,湊４９３番地２４,,12,205,2940054,,,2023-03-27,清算の結了等,,,2015-10-05,1,,,,,ナンソウテッコウギョウ,0
1527,5110001029931,登記記録の閉鎖等,0,2023-04-14,2023-04-07,株式会社ケイアイ防災,,株式会社,新潟県,新潟市南区,味方１１５８番地１１,,15,106,9501261,,,2023-04-07,清算の結了等,,,2015-10-05,1,,,,,ケイアイボウサイ,0
1531,5110005006729,登記記録の閉鎖等,0,2023-04-14,2023-04-03,北条商工会,,その他の設立登記法人,新潟県,柏崎市,大字大広田６８番地１,,15,205,9493724,,,2023-04-03,合併による解散等,4110005016919,令和５年４月３日新潟県柏崎市西山町礼拝４３０番地２西山町商工会（1110005006732）と新潟県柏崎市高柳町岡野町１８５９番地３高柳町商工会（2110005006731）と合併して新潟県柏崎市西山町池浦８７７番地柏崎市商工会（4110005016919）を設立し解散,2015-10-05,1,,,,,キタジョウ,0
1533,5120001086303,登記記録の閉鎖等,0,2023-04-14,2023-04-07,ナンスイ工業株式会社,,株式会社,大阪府,大阪市北区,天満１丁目１９番４号,,27,127,5300043,,,2023-04-07,清算の結了等,,,2015-10-05,1,,,,,ナンスイコウギョウ,0
1534,5120001089776,登記記録の閉鎖等,0,2023-04-14,2023-04-11,松崎紙工株式会社,,株式会社,大阪府,大阪市中央区,瓦屋町１丁目７番６号,,27,128,5420066,,,2023-04-11,清算の結了等,,,2015-10-05,1,,,,,マツザキシコウ,0
1539,5120001154729,登記記録の閉鎖等,0,2023-04-14,2023-04-06,株式会社ツープラトン,,株式会社,大阪府,大阪市浪速区,元町３丁目２番２１号難波元町ビル３０１,,27,111,5560016,,,2023-04-06,清算の結了等,,,2015-10-05,1,,,,,ツープラトン,0
1571,5140005001933,登記記録の閉鎖等,0,2023-04-14,2023-04-03,医療法人社団光陽会,,その他の設立登記法人,兵庫県,神戸市長田区,大日丘町２丁目７番地,,28,106,6530872,,,2023-04-03,合併による解散等,4140005019836,令和５年４月３日兵庫県南あわじ市賀集福井５６０番地医療法人社団南淡千遙会（4140005019836）に合併し解散,2015-10-05,1,,,,,コウヨウカイ,0
1585,5180001102756,登記記録の閉鎖等,0,2023-04-14,2023-04-06,株式会社ハッピーショップ,,株式会社,愛知県,名古屋市天白区,植田１丁目５０２番地の４,,23,116,4680051,,,2023-04-06,合併による解散等,6180001102755,令和５年４月６日名古屋市東区東桜二丁目３番１０号株式会社ラッキーショップ（6180001102755）に合併し解散,2015-10-05,1,,,,,ハッピーショップ,0
1591,5180002046688,登記記録の閉鎖等,0,2023-04-14,2023-04-07,有限会社ヌー・コーポレーション,,有限会社,愛知県,名古屋市昭和区,鶴舞２丁目１２番２３号,,23,107,4660064,,,2023-04-07,清算の結了等,,,2015-10-05,1,,,,,ヌーコーポレーション,0
1619,5240002015538,登記記録の閉鎖等,0,2023-04-14,2023-04-10,有限会社松岡経営計算センター,,有限会社,広島県,広島市中区,河原町７番２３号,,34,101,7300856,,,2023-04-10,清算の結了等,,,2015-10-05,1,,,,,マツオカケイエイケイサンセンター,0
1621,5260001024190,登記記録の閉鎖等,0,2023-04-14,2023-04-05,株式会社大黒屋・津山,,株式会社,岡山県,津山市,元魚町２３番地３,,33,203,7080061,,,2023-04-05,清算の結了等,,,2015-10-05,1,,,,,ダイコクヤツヤマ,0
1626,5280005003271,登記記録の閉鎖等,0,2023-04-14,2023-04-03,特定非営利活動法人ビジネスサポートひかわ,,その他の設立登記法人,島根県,出雲市,斐川町神氷２５３５番地１０,,32,203,6990613,,,2023-04-03,合併による解散等,7280005007543,島根県出雲市今市町北本町三丁目２番地１特定非営利活動法人２１世紀出雲産業支援センター（8280005003491）と合併し島根県出雲市斐川町神氷２５３５番地１０特定非営利活動法人ミライビジネスいずも（7280005007543）を設立し解散,2015-10-05,1,,,,,ビジネスサポートヒカワ,0
1636,5290801017696,登記記録の閉鎖等,0,2023-04-14,2023-04-12,株式会社Ｋ・Ｉ・Ｈ,,株式会社,福岡県,遠賀郡水巻町,樋口５番２０号,00094264,40,382,8070002,,,2023-04-12,清算の結了等,,,2015-10-05,1,,,,,ケイアイエイチ,0
1676,5430001074697,登記記録の閉鎖等,0,2023-04-14,2023-04-03,株式会社よつばメディカル,,株式会社,北海道,札幌市中央区,宮の森三条１丁目１番３５号,,01,101,0640953,,,2023-04-03,合併による解散等,6430002055720,令和５年４月１日北海道小樽市花園三丁目１９番１６号メディカルファイブ株式会社（6430002055720）に合併し解散,2017-08-08,1,,,,,ヨツバメディカル,0
1686,5500001018647,登記記録の閉鎖等,0,2023-04-14,2023-04-12,株式会社スパテラ,,株式会社,愛媛県,松山市,山越４丁目７番５１号,,38,201,7918013,,,2023-04-12,清算の結了等,,,2015-10-05,1,,,,,スパテラ,0
1704,6010001225787,登記記録の閉鎖等,0,2023-04-14,2023-04-11,株式会社エムズ,,株式会社,東京都,千代田区,内幸町１丁目３番３号内幸町ダイビル,,13,101,1000011,,,2023-04-11,合併による解散等,8120001071062,令和５年４月１日大阪市北区西天満一丁目２番５号株式会社ミューチュアル（8120001071062）に合併し解散,2022-04-15,1,,,,,エムズ,0
1731,6010701015059,登記記録の閉鎖等,0,2023-04-14,2023-04-10,総合メディプロ株式会社,,株式会社,東京都,千代田区,大手町１丁目７番２号,,13,101,1000004,,,2023-04-10,合併による解散等,7290001008379,令和５年４月１日福岡市中央区天神二丁目１４番８号総合メディカル株式会社（7290001008379）に合併し解散,2015-10-05,1,,,,,ソウゴウメディプロ,0
1738,6010901011741,登記記録の閉鎖等,0,2023-04-14,2023-04-11,みなと薬品株式会社,,株式会社,東京都,世田谷区,若林４丁目２１番１５号,,13,112,1540023,,,2023-04-11,合併による解散等,8010001028040,令和５年４月１日東京都千代田区神田練塀町６８番地１ムラタヤビル３階株式会社ユニスマイル（8010001028040）に合併し解散,2015-10-05,1,,,,,ミナトヤクヒン,0
1743,6011001109914,登記記録の閉鎖等,0,2023-04-14,2023-04-12,Ｂｌｕｅ　Ｏｎｉｏｎ株式会社,,株式会社,東京都,渋谷区,渋谷３丁目１－９ＹＡＺＡＷＡビル３階,,13,113,1500002,,,2023-04-12,合併による解散等,9010403024941,令和５年２月２８日東京都港区赤坂９－４－１合同会社ＯｒａｎｇｅＰｏｔａｔｏ（9010403024941）に合併し解散,2016-03-08,1,,,,,ブルーオニオン,0
1750,6011101093653,登記記録の閉鎖等,0,2023-04-14,2023-04-10,株式会社トモハッピー,,株式会社,東京都,新宿区,高田馬場３丁目１３番１号,,13,104,1690075,,,2023-04-10,合併による解散等,3010001228553,令和５年４月１日東京都千代田区神田佐久間町三丁目３８番地第５東ビル５階株式会社ハッピー商店（3010001228553）に合併し解散,2021-01-06,1,,,,,トモハッピー,0
1764,6011801016021,登記記録の閉鎖等,0,2023-04-14,2023-04-03,株式会社トーヨーリニューアル,,株式会社,東京都,葛飾区,柴又７丁目１番１１号,,13,122,1250052,,,2023-04-03,合併による解散等,1011801003239,令和５年４月１日東京都葛飾区柴又七丁目１番１１号株式会社トーヨー建設（1011801003239）に合併し解散,2015-10-05,1,,,,,トーヨーリニューアル,0
1784,6021001012076,登記記録の閉鎖等,0,2023-04-14,2023-04-03,株式会社寿ハム,,株式会社,神奈川県,相模原市中央区,星が丘３丁目８番１６号,,14,152,2520238,,,2023-04-03,合併による解散等,7021001012075,令和５年４月１日神奈川県相模原市中央区星が丘三丁目８番１６号株式会社寿食品（7021001012075）に合併し解散,2015-10-05,1,,,,,コトブキハム,0
1785,6021001029293,登記記録の閉鎖等,0,2023-04-14,2023-04-04,株式会社サニー,,株式会社,神奈川県,横浜市都筑区,荏田南３丁目２４番２３号,,14,118,2240007,,,2023-04-04,合併による解散等,1021001008236,令和５年４月１日横浜市中区桜木町一丁目１番地グランビュービル５階株式会社マミー・インターナショナル（1021001008236）に合併し解散,2015-10-05,1,,,,,サニー,0
1788,6021001054985,登記記録の閉鎖等,0,2023-04-14,2023-04-11,株式会社ワイル,,株式会社,神奈川県,平塚市,八重咲町２４番２８号,,14,203,2540811,,,2023-04-11,合併による解散等,4370402001613,令和５年４月１日東京都中野区新井一丁目１５番１３号株式会社ＰＡＰＡＢＵＢＢＬＥ　ＪＡＰＡＮ（4370402001613）に合併し解散,2015-10-05,1,,,,,ワイル,0
1792,6040001094701,登記記録の閉鎖等,0,2023-04-14,2023-03-31,株式会社ツムギ,,株式会社,千葉県,柏市,豊四季１００８番１号,,12,217,2770863,,,2023-03-31,合併による解散等,2040002095314,令和５年３月３１日千葉県柏市豊四季１００８番１号株式会社ＷＩＴＳ（2040002095314）に合併し解散,2016-04-08,1,,,,,ツムギ,0
1799,6040002077770,登記記録の閉鎖等,0,2023-04-14,2023-04-07,有限会社松屋薬局,,有限会社,千葉県,東金市,東上宿１６番地１４,,12,213,2830067,,,2023-04-07,合併による解散等,6010901003581,令和５年４月１日東京都世田谷区成城七丁目８番１８号株式会社グラム（6010901003581）に合併し解散,2015-10-05,1,,,,,マツヤヤッキョク,0
1803,6050001032890,登記記録の閉鎖等,0,2023-04-14,2023-04-04,株式会社ミライ,,株式会社,栃木県,真岡市,長田１丁目１７番地４,,09,209,3214364,,,2023-04-04,清算の結了等,,,2015-10-05,1,,,,,ミライ,0
1806,6050001048697,登記記録の閉鎖等,0,2023-04-14,2023-04-06,南星グリーン株式会社,,株式会社,茨城県,東茨城郡城里町,大字下赤沢５０４番地,,08,310,3114406,,,2023-04-06,清算の結了等,,,2021-02-05,1,,,,,ナンセイグリーン,0
1820,6080401015781,登記記録の閉鎖等,0,2023-04-14,2023-04-12,川合肥料株式会社,,株式会社,静岡県,磐田市,前野２２２６番地,,22,211,4380068,,,2023-04-12,合併による解散等,8180301027832,令和５年４月１日愛知県豊橋市若松町字若松１４６番地イノチオプラントケア株式会社（8180301027832）に合併し解散,2015-10-05,1,,,,,カワイヒリョウ,0
1832,6110005009227,登記記録の閉鎖等,0,2023-04-14,2023-04-03,安塚商工会,,その他の設立登記法人,新潟県,上越市,安塚区安塚７３２番地,,15,222,9420411,,,2023-04-03,合併による解散等,8110005009225,令和５年４月３日新潟県上越市浦川原区釜淵５番地大浦安商工会（8110005009225）に合併し解散,2015-10-05,1,,,,,ヤスズカ,0
1834,6120001094016,登記記録の閉鎖等,0,2023-04-14,2023-04-07,グレイド株式会社,,株式会社,大阪府,大阪市中央区,高麗橋２丁目４番６号,,27,128,5410043,,,2023-04-07,清算の結了等,,,2015-10-05,1,,,,,グレイド,0
1848,6120005021296,登記記録の閉鎖等,0,2023-04-14,2023-04-12,特定非営利活動法人ジュンチャン倶楽部,,その他の設立登記法人,大阪府,大阪市鶴見区,今津中２丁目４番３３号ロイヤル田中２０３,,27,124,5380042,,,2023-04-12,清算の結了等,,,2019-12-26,1,,,,,ジュンチャンクラブ,0
1851,6120901008256,登記記録の閉鎖等,0,2023-04-14,2023-04-03,株式会社藤川商店,,株式会社,大阪府,吹田市,高野台１丁目６番１７号,,27,205,5650861,,,2023-04-03,合併による解散等,7120901034029,令和５年４月１日大阪府豊中市上新田二丁目２１番２５号株式会社ナカオ（7120901034029）に合併し解散,2015-10-05,1,,,,,フジカワショウテン,0
1873,6140001059223,登記記録の閉鎖等,0,2023-04-14,2023-04-10,株式会社新栄ビルサービス,,株式会社,兵庫県,姫路市,北条宮の町２１９番地,,28,201,6700948,,,2023-04-10,合併による解散等,8140001060237,令和５年４月１日兵庫県姫路市西二階町１番地東洋テック姫路株式会社（8140001060237）に合併し解散,2015-10-05,1,,,,,シンエイビルサービス,0
1881,6140002041725,登記記録の閉鎖等,0,2023-04-14,2023-04-10,テクノシステム有限会社,,有限会社,兵庫県,尼崎市,富松町４丁目６番８号,,28,202,6610003,,,2023-04-10,清算の結了等,,,2015-10-05,1,,,,,テクノシステム,0
1913,6180301029145,登記記録の閉鎖等,0,2023-04-14,2023-04-03,株式会社フェニックス工業,,株式会社,愛知県,豊橋市,石巻本町字重行４番地１５,,23,201,4411115,,,2023-04-03,合併による解散等,1180301012196,令和５年４月１日愛知県豊橋市石巻本町字重行４番地１５株式会社ＴＳＵＧＵＭＩ（1180301012196）に合併し解散,2016-04-25,1,,,,,フェニックスコウギョウ,0
1917,6190001001304,登記記録の閉鎖等,0,2023-04-14,2023-04-06,株式会社三サンシステム,,株式会社,三重県,津市,久居北口町９９０番地の４４,,24,201,5141105,,,2023-04-06,清算の結了等,,,2015-10-05,1,,,,,サンサンシステム,0
1921,6200001010369,登記記録の閉鎖等,0,2023-04-14,2023-04-06,株式会社高田無線住設,,株式会社,岐阜県,瑞穂市,呂久１０６１番地,,21,216,5010324,,,2023-04-06,清算の結了等,,,2015-10-05,1,,,,,タカダムセンジュウセツ,0
1938,6240001034166,登記記録の閉鎖等,0,2023-04-14,2023-04-10,株式会社カレント,,株式会社,広島県,府中市,元町４５１番地の６,,34,208,7260003,,,2023-04-10,清算の結了等,,,2015-10-05,1,,,,,カレント,0
1939,6240001044330,登記記録の閉鎖等,0,2023-04-14,2023-04-11,株式会社ジュウセツ,,株式会社,広島県,広島市安佐北区,口田南２丁目１７番１２号,,34,106,7391733,,,2023-04-11,清算の結了等,,,2015-10-05,1,,,,,ジュウセツ,0
1976,6340002001700,登記記録の閉鎖等,0,2023-04-14,2023-04-12,有限会社エイコー,,有限会社,鹿児島県,鹿児島市,坂元町８３１番地の１０,,46,201,8920862,,,2023-04-12,清算の結了等,,,2015-10-05,1,,,,,,0
1986,6360001012201,登記記録の閉鎖等,0,2023-04-14,2023-04-07,アイランドストリーム株式会社,,株式会社,沖縄県,名護市,字親川３１番地,,47,209,9051146,,,2023-04-07,清算の結了等,,,2015-10-05,1,,,,,アイランドストリーム,0
1991,6360003012141,登記記録の閉鎖等,0,2023-04-14,2023-04-05,Ｂｅｓｔｏｎｅ合同会社,,合同会社,沖縄県,那覇市,前島３丁目２５番２号泊ポートビル２Ｆ－２１２号室,,47,201,9000016,,,2023-04-05,清算の結了等,,,2022-07-11,1,,,,,ベストワン,0
1993,6370001031638,登記記録の閉鎖等,0,2023-04-14,2023-04-07,松建機械株式会社,,株式会社,宮城県,仙台市青葉区,国見ケ丘３丁目９番地の８,,04,101,9893201,,,2023-04-07,清算の結了等,,,2015-10-05,1,,,,,マツケンキカイ,0
2004,6380002001952,登記記録の閉鎖等,0,2023-04-14,2023-04-11,清和電機有限会社,,有限会社,福島県,福島市,方木田字南島９番地の１１,,07,201,9608163,,,2023-04-11,清算の結了等,,,2015-10-05,1,,,,,セイワデンキ,0
2039,7010001050796,登記記録の閉鎖等,0,2023-04-14,2023-04-11,株式会社天一,,株式会社,東京都,中央区,銀座６丁目７番１６号,,13,102,1040061,,,2023-04-11,合併による解散等,7010801007517,令和５年４月１日東京都大田区山王一丁目４番９号株式会社天一食品（7010801007517）に合併し解散,2015-10-05,1,,,,,テンイチ,0
2068,7010501002487,登記記録の閉鎖等,0,2023-04-14,2023-04-12,株式会社エム・ハギワラ,,株式会社,東京都,台東区,浅草６丁目３１番１３号,,13,106,1110032,,,2023-04-12,清算の結了等,,,2015-10-05,1,,,,,エムハギワラ,0
2069,7010501011785,登記記録の閉鎖等,0,2023-04-14,2023-04-13,株式会社福田装錦堂,,株式会社,東京都,台東区,下谷３丁目２番３号,,13,106,1100004,,,2023-04-13,清算の結了等,,,2015-10-05,1,,,,,フクダソウキンドウ,0
2106,7012401000356,登記記録の閉鎖等,0,2023-04-14,2023-04-11,株式会社関東製紐工業,,株式会社,東京都,府中市,宮町３丁目１２番地１,,13,206,1830023,,,2023-04-11,清算の結了等,,,2015-10-05,1,,,,,カントウセイチュウコウギョウ,0
2108,7012401031806,登記記録の閉鎖等,0,2023-04-14,2023-04-03,ジー・ワーカー株式会社,,株式会社,東京都,港区,新橋４丁目２１番３号,,13,103,1050004,,,2023-04-03,合併による解散等,9010001075585,令和５年４月１日東京都港区新橋四丁目２１番３号サンマックス・テクノロジーズ株式会社（9010001075585）に合併し解散,2016-09-09,1,,,,,ジーワーカー,0
2112,7012701011359,登記記録の閉鎖等,0,2023-04-14,2023-04-10,株式会社オリエント,,株式会社,東京都,東村山市,青葉町３丁目２５番地３５,,13,213,1890002,,,2023-04-10,清算の結了等,,,2015-10-05,1,,,,,オリエント,0
2125,7020001098612,登記記録の閉鎖等,0,2023-04-14,2023-04-05,株式会社丹治陸運,,株式会社,神奈川県,横浜市金沢区,西柴２丁目２９番９号,,14,108,2360017,,,2023-04-05,清算の結了等,,,2015-10-05,1,,,,,タンジリクウン,0
2129,7020001136017,登記記録の閉鎖等,0,2023-04-14,2023-04-03,ジャパンベーカリーコンサルティング株式会社,,株式会社,神奈川県,横浜市青葉区,青葉台２丁目１０番２０号第二志田ビル２階,,14,117,2270062,,,2023-04-03,合併による解散等,9020001101935,令和５年４月１日神奈川県横浜市青葉区青葉台二丁目１０番２０号第二志田ビル２階ブレッドサンド株式会社（9020001101935）に合併し解散,2020-05-11,1,,,,,ジャパンベーカリーコンサルティング,0
2133,7020002088182,登記記録の閉鎖等,0,2023-04-14,2023-04-05,有限会社尼野設備工業,,有限会社,神奈川県,川崎市高津区,末長１丁目３９番１７号,,14,134,2130013,,,2023-04-05,清算の結了等,,,2015-10-05,1,,,,,アマノセツビコウギョウ,0
2137,7021003004285,登記記録の閉鎖等,0,2023-04-14,2023-04-06,マニ・ジャパン合同会社,,合同会社,神奈川県,鎌倉市,今泉台７丁目１４番１７号,,14,204,2470053,,,2023-04-06,清算の結了等,,,2015-10-05,1,,,,,マニジャパン,0
2145,7030001087639,登記記録の閉鎖等,0,2023-04-14,2023-04-03,ＫＳインベスト株式会社,,株式会社,埼玉県,行田市,大字野字神殿１５８４番地８,,11,206,3610026,,,2023-04-03,合併による解散等,1030001086019,令和５年４月１日埼玉県行田市大字野字神殿１５８４番地８関東総合輸送株式会社（1030001086019）に合併し解散,2015-10-05,1,,,,,ケイエスインベスト,0
2154,7040001019186,登記記録の閉鎖等,0,2023-04-14,2023-04-11,日本ペイント防食コーティングス株式会社,,株式会社,千葉県,船橋市,西浦３丁目７番１号,,12,204,2730017,,,2023-04-11,合併による解散等,5180001069252,令和５年４月１日愛知県豊明市阿野町池下３０番地エーエスペイント株式会社（5180001069252）に合併し解散,2015-10-05,1,,,,,ニッポンペイントボウショクコーティングス,0
2155,7040001023948,登記記録の閉鎖等,0,2023-04-14,2023-04-03,株式会社ルネサンス千葉,,株式会社,千葉県,船橋市,旭町５丁目１６番８号,,12,204,2730041,,,2023-04-03,清算の結了等,,,2015-10-05,1,,,,,ルネサンスチバ,0
2165,7050001020449,登記記録の閉鎖等,0,2023-04-14,2023-04-10,株式会社茨城日新,00022180,株式会社,茨城県,神栖市,知手中央１０丁目８番２号,,08,232,3140112,,,2023-04-10,合併による解散等,3020001023607,令和５年４月１日横浜市鶴見区寛政町２６－１株式会社日新陸運（3020001023607）に合併し解散,2015-10-05,1,,,,,イバラキニッシン,0
2170,7050003006248,登記記録の閉鎖等,0,2023-04-14,2023-04-06,Ｔｅａｍ合同会社,,合同会社,茨城県,牛久市,南２丁目２２番地２０,,08,219,3001222,,,2023-04-06,合併による解散等,9030001138951,令和５年４月１日埼玉県草加市中央２－１６－２２－５０２株式会社らくてぃ（9030001138951）に合併し解散,2021-12-08,1,,,,,チーム,0
2175,7060002001711,登記記録の閉鎖等,0,2023-04-14,2023-04-04,臼井塗装工業有限会社,,有限会社,栃木県,宇都宮市,横田新町２番２４号,,09,201,3210105,,,2023-04-04,清算の結了等,,,2015-10-05,1,,,,,ウスイトソウコウギョウ,0
2197,7110005009226,登記記録の閉鎖等,0,2023-04-14,2023-04-03,大島商工会,,その他の設立登記法人,新潟県,上越市,大島区上達字岩倉沖１４２３番地の１,,15,222,9421105,,,2023-04-03,合併による解散等,8110005009225,令和５年４月３日新潟県上越市浦川原区釜淵５番地大浦安商工会（8110005009225）に合併し解散,2015-10-05,1,,,,,オオシマ,0
2206,7120003016512,登記記録の閉鎖等,0,2023-04-14,2023-04-06,合同会社ＨＳ企画,,合同会社,大阪府,大阪市東成区,大今里西１丁目１２番７－９０２号,,27,115,5370014,,,2023-04-06,清算の結了等,,,2019-11-07,1,,,,,エイチエスキカク,0
2224,7130002033350,登記記録の閉鎖等,0,2023-04-14,2023-04-07,有限会社佐々木建設,,有限会社,京都府,綾部市,東山町見附２７番地,,26,203,6291262,,,2023-04-07,清算の結了等,,,2015-10-05,1,,,,,ササキケンセツ,0
2226,7140001020497,登記記録の閉鎖等,0,2023-04-14,2023-04-10,ユーシーシーキャピタル株式会社,,株式会社,兵庫県,神戸市中央区,港島中町７丁目７番７,,28,110,6500046,,,2023-04-10,合併による解散等,7140001012362,令和５年４月１日神戸市中央区多聞通五丁目１番６号ユーシーシーホールディングス株式会社（7140001012362）に合併し解散,2015-10-05,1,,,,,ユーシーシーキャピタル,0
2236,7140002001835,登記記録の閉鎖等,0,2023-04-14,2023-04-06,有限会社タアコーポレーション,,有限会社,兵庫県,神戸市東灘区,森北町５丁目１番１号,,28,101,6580001,,,2023-04-06,清算の結了等,,,2015-10-05,1,,,,,タアコーポレーション,0
2237,7140002037607,登記記録の閉鎖等,0,2023-04-14,2023-04-07,有限会社フロンテア,,有限会社,兵庫県,姫路市,栗山町１２６番地イノウエビル１階,,28,201,6700954,,,2023-04-07,清算の結了等,,,2015-10-05,1,,,,,フロンテア,0
2253,7180001038255,登記記録の閉鎖等,0,2023-04-14,2023-04-06,中産株式会社,,株式会社,愛知県,一宮市,下田２丁目１番５号,,23,203,4910883,,,2023-04-06,清算の結了等,,,2015-10-05,1,,,,,チュウサン,0
2258,7180001120855,登記記録の閉鎖等,0,2023-04-14,2023-04-05,株式会社ステディー,,株式会社,愛知県,瀬戸市,東松山町１０番地の２,,23,204,4890069,,,2023-04-05,清算の結了等,,,2015-11-09,1,,,,,ステディー,0
2269,7180003020335,登記記録の閉鎖等,0,2023-04-14,2023-04-10,合同会社みどり会,,合同会社,愛知県,名古屋市昭和区,白金３丁目５番１１号,,23,107,4660058,,,2023-04-10,清算の結了等,,,2019-09-06,1,,,,,ミドリカイ,0
2284,7200001033311,登記記録の閉鎖等,0,2023-04-14,2023-04-12,夢農家株式会社,,株式会社,岐阜県,関市,山田８７１番地３４,,21,205,5013944,,,2023-04-12,清算の結了等,,,2016-10-03,1,,,,,ユメノウカ,0
2308,7260002017084,登記記録の閉鎖等,0,2023-04-14,2023-04-06,岡川建築サービス有限会社,,有限会社,岡山県,倉敷市,二日市３５９番地の１７,,33,202,7100042,,,2023-04-06,清算の結了等,,,2015-10-05,1,,,,,オカガワケンチクサービス,0
2310,7260002021128,登記記録の閉鎖等,0,2023-04-14,2023-04-07,前田被服有限会社,,有限会社,岡山県,倉敷市,児島阿津１丁目５番８号,,33,202,7110923,,,2023-04-07,清算の結了等,,,2015-10-05,1,,,,,マエダヒフク,0
2313,7270002001649,登記記録の閉鎖等,0,2023-04-14,2023-04-07,西日本プロパン産業有限会社,,有限会社,鳥取県,鳥取市,今町１丁目３５２番地８,,31,201,6800822,,,2023-04-07,清算の結了等,,,2015-10-05,1,,,,,ニシニホンプロパンサンギョウ,0
2314,7280002011589,登記記録の閉鎖等,0,2023-04-14,2023-04-06,有限会社山崎測量設計,,有限会社,島根県,雲南市,大東町遠所４４番地,,32,209,6991231,,,2023-04-06,清算の結了等,,,2015-10-05,1,,,,,ヤマサキソクリョウセッケイ,0
2341,7340002010403,登記記録の閉鎖等,0,2023-04-14,2023-04-13,有限会社リンナイ商事,,有限会社,鹿児島県,鹿児島市,樋之口町１０番４５号,00099192,46,201,8920845,,,2023-04-13,清算の結了等,,,2015-10-05,1,,,,,リンナイショウジ,0
2343,7350002007308,登記記録の閉鎖等,0,2023-04-14,2023-04-06,有限会社竹下衣料店,,有限会社,宮崎県,東諸県郡綾町,大字南俣３２９番地,,45,383,8801303,,,2023-04-06,清算の結了等,,,2015-10-05,1,,,,,タケシタイリョウテン,0
2348,7370001046651,登記記録の閉鎖等,0,2023-04-14,2023-04-06,北星グリーン株式会社,,株式会社,宮城県,白石市,大鷹沢大町字矢ノ口下５１番地の１,,04,206,9890212,,,2023-04-06,清算の結了等,,,2021-02-04,1,,,,,ホクセイグリーン,0
2353,7370802001986,登記記録の閉鎖等,0,2023-04-14,2023-04-07,有限会社スズキエッチンググラス,,有限会社,宮城県,岩沼市,下野郷字新関迎４９番地２,,04,211,9892421,,,2023-04-07,清算の結了等,,,2015-10-05,1,,,,,スズキエッチンググラス,0
2368,7430001012457,登記記録の閉鎖等,0,2023-04-14,2023-04-04,豊羽鉱山株式会社,,株式会社,北海道,札幌市南区,定山渓８４９番地,,01,106,0612301,,,2023-04-04,清算の結了等,,,2015-10-05,1,,,,,トヨハコウザン,0
2376,7450003002297,登記記録の閉鎖等,0,2023-04-14,2023-04-11,合同会社ＲＥＳＴ,,合同会社,北海道,旭川市,西御料五条１丁目２番１４号,,01,204,0788825,,,2023-04-11,清算の結了等,,,2023-02-09,1,,,,,レスト,0
2379,7470001009490,登記記録の閉鎖等,0,2023-04-14,2023-04-06,株式会社長尾電機,,株式会社,香川県,坂出市,八幡町３丁目７番４７号,,37,203,7620041,,,2023-04-06,清算の結了等,,,2015-10-05,1,,,,,ナガオデンキ,0
2381,7480003001478,登記記録の閉鎖等,0,2023-04-14,2023-04-12,合同会社ホワイトベア,,合同会社,徳島県,板野郡藍住町,住吉字江端１４番地１１,,36,403,7711267,,,2023-04-12,清算の結了等,,,2020-04-02,1,,,,,ホワイトベア,0
2402,8010001190732,登記記録の閉鎖等,0,2023-04-14,2023-04-03,株式会社三井Ｅ＆Ｓビジネスサービス,,株式会社,東京都,中央区,築地５丁目６番４号,,13,102,1040045,,,2023-04-03,合併による解散等,9010001034946,令和５年４月１日東京都中央区築地五丁目６番４号株式会社三井Ｅ＆Ｓ（9010001034946）に合併し解散,2018-04-03,1,,,,,ミツイイーアンドエスビジネスサービス,0
2422,8010401123861,登記記録の閉鎖等,0,2023-04-14,2023-04-07,株式会社みーつけあ,,株式会社,東京都,千代田区,大手町１丁目７番２号東京サンケイビル２７階,,13,101,1000004,,,2023-04-07,合併による解散等,5010401143020,令和５年４月１日東京都港区南青山一丁目１５番５号パーソルイノベーション株式会社（5010401143020）に合併し解散,2016-03-22,1,,,,,ミーツケア,0
2424,8010401151499,登記記録の閉鎖等,0,2023-04-14,2023-03-31,ＳＩＺ株式会社,,株式会社,東京都,港区,虎ノ門３丁目１番１号,,13,103,1050001,,,2023-03-31,清算の結了等,,,2020-03-06,1,,,,,エスアイゼット,0
2429,8010501030768,登記記録の閉鎖等,0,2023-04-14,2023-04-03,ＴＣビジネス・エキスパーツ株式会社,,株式会社,東京都,千代田区,外神田４丁目１４番１号,,13,101,1010021,,,2023-04-03,合併による解散等,6010401015821,令和５年４月１日東京都千代田区神田練塀町３番地東京センチュリー株式会社（6010401015821）に合併し解散,2015-10-05,1,,,,,ティーシービジネスエキスパーツ,0
2434,8010601052654,登記記録の閉鎖等,0,2023-04-14,2023-04-11,株式会社ジーライフ,,株式会社,東京都,渋谷区,代々木２丁目２７番８代々木レジデンス５階,,13,113,1510053,,,2023-04-11,清算の結了等,,,2017-12-26,1,,,,,ジーライフ,0
2452,8011101084130,登記記録の閉鎖等,0,2023-04-14,2023-04-07,Ｈ．Ｉ．Ｓ．エネルギーホールディングス株式会社,,株式会社,東京都,港区,虎ノ門４丁目１番１号,,13,103,1050001,,,2023-04-07,清算の結了等,,,2018-05-11,1,,,,,エイチアイエスエネルギーホールディングス,0
2456,8011101098799,登記記録の閉鎖等,0,2023-04-14,2023-04-11,株式会社サイト,,株式会社,東京都,新宿区,新宿１丁目３４－１１ニューローレルマンション８０４,,13,104,1600022,,,2023-04-11,清算の結了等,,,2022-05-12,1,,,,,サイト,0
2470,8011402018588,登記記録の閉鎖等,0,2023-04-14,2023-04-11,有限会社ウェブライズ,,有限会社,東京都,板橋区,常盤台１丁目３８番６号朝日常盤台マンション３０４号,,13,119,1740071,,,2023-04-11,清算の結了等,,,2015-10-05,1,,,,,ウェブライズ,0
2476,8011801012357,登記記録の閉鎖等,0,2023-04-14,2023-04-11,みづほ物産株式会社,,株式会社,東京都,足立区,南花畑３丁目３２番２１号,,13,121,1210062,,,2023-04-11,清算の結了等,,,2015-10-05,1,,,,,ミヅホブッサン,0
2484,8012701014237,登記記録の閉鎖等,0,2023-04-14,2023-04-06,株式会社ユニアーツ,,株式会社,東京都,西東京市,南町１丁目１１番１５号,,13,229,1880012,,,2023-04-06,清算の結了等,,,2017-04-12,1,,,,,ユニアーツ,0
2502,8020002087761,登記記録の閉鎖等,0,2023-04-14,2023-04-05,有限会社マルイチランドリー,,有限会社,神奈川県,川崎市宮前区,平５丁目２番１４号,,14,136,2160022,,,2023-04-05,清算の結了等,,,2015-10-05,1,,,,,マルイチランドリー,0
2530,8050002041939,登記記録の閉鎖等,0,2023-04-14,2023-04-10,有限会社学習館,,有限会社,茨城県,筑西市,丙２１５番地の１,,08,227,3080031,,,2023-04-10,清算の結了等,,,2015-10-05,1,,,,,ガクシュウカン,0
2534,8060001005836,登記記録の閉鎖等,0,2023-04-14,2023-04-04,株式会社スポークス,,株式会社,栃木県,宇都宮市,戸祭町３０４１番地３,,09,201,3200053,,,2023-04-04,清算の結了等,,,2015-10-05,1,,,,,スポークス,0
2569,8120001201024,登記記録の閉鎖等,0,2023-04-14,2023-04-07,株式会社未来建設工業,,株式会社,大阪府,大阪市鶴見区,横堤１丁目１番８号,,27,124,5380052,,,2023-04-07,清算の結了等,,,2016-10-04,1,,,,,ミライケンセツコウギョウ,0
2581,8120003014242,登記記録の閉鎖等,0,2023-04-14,2023-04-10,合同会社山崎宏之事務所,00113359,合同会社,大阪府,大阪市北区,西天満５丁目６番２６－４０１号,,27,127,5300047,,,2023-04-10,清算の結了等,,,2018-05-08,1,,,,,ヤマサキヒロユキジムショ,0
2595,8120903002908,登記記録の閉鎖等,0,2023-04-14,2023-04-07,合同会社侑侑自適,,合同会社,大阪府,池田市,城南２丁目５番１５号,,27,204,5630025,,,2023-04-07,清算の結了等,,,2019-07-23,1,,,,,ユウユウジテキ,0
2626,8160005010599,登記記録の閉鎖等,0,2023-04-14,2023-04-07,一般社団法人日本未来支援機構,,その他の設立登記法人,滋賀県,長浜市,列見町２９２番地,,25,203,5260062,,,2023-04-07,清算の結了等,,,2018-07-03,1,,,,,ニホンミライシエンキコウ,0
2627,8170002001996,登記記録の閉鎖等,0,2023-04-14,2023-04-11,有限会社新伸電気,,有限会社,和歌山県,和歌山市,塩屋５丁目３番６６号,,30,201,6410054,,,2023-04-11,清算の結了等,,,2015-10-05,1,,,,,シンシンデンキ,0
2653,8210005009470,登記記録の閉鎖等,0,2023-04-14,2023-04-12,一般社団法人日米児童文化振興協会,,その他の設立登記法人,福井県,三方郡美浜町,河原市第１２号２５番地の１,,18,442,9191138,,,2023-04-12,清算の結了等,,,2015-10-05,1,,,,,ニチベイジドウブンカシンコウキョウカイ,0
2656,8220005007250,登記記録の閉鎖等,0,2023-04-14,2023-04-03,農事組合法人刈安営農組合,,その他の設立登記法人,石川県,河北郡津幡町,字刈安ハ１７５番甲地,,17,361,9290416,,,2023-04-03,合併による解散等,4220005007782,石川県河北郡津幡町字竹橋レ６６番地８農事組合法人倶利伽羅（4220005007782）に合併し解散,2015-10-05,1,,,,,カリヤスエイノウクミアイ,0
2670,8280005003491,登記記録の閉鎖等,0,2023-04-14,2023-04-03,特定非営利活動法人２１世紀出雲産業支援センター,,その他の設立登記法人,島根県,出雲市,今市町北本町３丁目２番地１,,32,203,6930002,,,2023-04-03,合併による解散等,7280005007543,島根県出雲市斐川町神氷２５３５番地１０特定非営利活動法人ビジネスサポートひかわ（5280005003271）と合併し島根県出雲市斐川町神氷２５３５番地１０特定非営利活動法人ミライビジネスいずも（7280005007543）を設立し解散,2015-10-05,1,,,,,ニジュウイッセイキイズモサンギョウシエンセンター,0
2673,8290002010317,登記記録の閉鎖等,0,2023-04-14,2023-04-05,有限会社エステートホーム,,有限会社,福岡県,福岡市中央区,舞鶴３丁目８番１０号,,40,133,8100073,,,2023-04-05,清算の結了等,,,2015-10-05,1,,,,,エステートホーム,0
2688,8310002011650,登記記録の閉鎖等,0,2023-04-14,2023-04-05,有限会社的場畳商店,,有限会社,長崎県,佐世保市,相浦町２３５番地,,42,202,8580918,,,2023-04-05,清算の結了等,,,2015-10-05,1,,,,,マトバタタミテン,0
2707,8370001040018,登記記録の閉鎖等,0,2023-04-14,2023-04-06,株式会社まるまつ,,株式会社,宮城県,石巻市,新栄２丁目１７番地５,,04,202,9860004,,,2023-04-06,清算の結了等,,,2016-07-26,1,,,,,マルマツ,0
2718,8390002012740,登記記録の閉鎖等,0,2023-04-14,2023-04-05,有限会社カミング,,有限会社,山形県,米沢市,下花沢３丁目１０番１号,,06,202,9920023,,,2023-04-05,清算の結了等,,,2015-10-05,1,,,,,カミング,0
2721,8420001008744,登記記録の閉鎖等,0,2023-04-14,2023-04-06,株式会社介護のマキタ,,株式会社,青森県,五所川原市,字元町１１２番地１,,02,205,0370044,,,2023-04-06,清算の結了等,,,2015-10-05,1,,,,,カイゴノマキタ,0
2779,9010401058363,登記記録の閉鎖等,0,2023-04-14,2023-04-10,高松テクノサービス株式会社,00109944,株式会社,東京都,千代田区,神田美土代町１番地１,,13,101,1010053,,,2023-04-10,合併による解散等,2120001058890,令和５年４月１日大阪市淀川区新北野一丁目１番２０号高松テクノサービス株式会社（2120001058890）に合併し解散,2015-10-05,1,,,,,タカマツテクノサービス,0
2780,9010401133133,登記記録の閉鎖等,0,2023-04-14,2023-04-06,株式会社匠,,株式会社,静岡県,熱海市,咲見町７番４８号,,22,205,4130019,,,2023-04-06,清算の結了等,,,2017-08-15,1,,,,,タクミ,0
2792,9010701025559,登記記録の閉鎖等,0,2023-04-14,2023-04-04,株式会社ＡＤ８,,株式会社,東京都,大田区,山王１丁目２４番６号,,13,111,1430023,,,2023-04-04,清算の結了等,,,2015-10-05,1,,,,,アドエイト,0
2796,9010801010493,登記記録の閉鎖等,0,2023-04-14,2023-03-31,株式会社ブッツ・デリカテッセン,,株式会社,東京都,大田区,田園調布３丁目１番３号,,13,111,1450071,,,2023-03-31,合併による解散等,1010801007035,令和５年３月３１日東京都大田区仲池上一丁目２１番１１号タカラ食品工業株式会社（1010801007035）に合併し解散,2015-10-05,1,,,,,ブッツデリカテッセン,0
2804,9011001137929,登記記録の閉鎖等,0,2023-04-14,2023-04-11,株式会社ＰＡＲＣＥＬＬＥ　ＰＡＲＴＮＥＲＳ,,株式会社,東京都,中央区,佃１丁目９番１２号,,13,102,1040051,,,2023-04-11,合併による解散等,5011001108859,令和５年４月１日東京都渋谷区東二丁目２０番１４号タワーホームズ氷川１０３号室株式会社ＰＡＲＣＥＬＬＥ（5011001108859）に合併し解散,2021-01-15,1,,,,,パーセルパートナーズ,0
2828,9012702009037,登記記録の閉鎖等,0,2023-04-14,2023-04-06,有限会社いがらし製本,,有限会社,東京都,清瀬市,下清戸２丁目５５４番地１２,,13,221,2040011,,,2023-04-06,清算の結了等,,,2015-10-05,1,,,,,イガラシセイホン,0
2851,9020003005309,登記記録の閉鎖等,0,2023-04-14,2023-04-05,ブライト合同会社,,合同会社,神奈川県,横浜市港南区,日野南７丁目８番３号,,14,111,2340055,,,2023-04-05,清算の結了等,,,2015-10-05,1,,,,,ブライト,0
2874,9030001143340,登記記録の閉鎖等,0,2023-04-14,2023-04-03,株式会社佐々木建機,,株式会社,埼玉県,吉川市,高久１丁目２９番地３９,,11,243,3420035,,,2023-04-03,清算の結了等,,,2021-07-15,1,,,,,ササキケンキ,0
2881,9040001102535,登記記録の閉鎖等,0,2023-04-14,2023-04-06,株式会社エブリウェル,,株式会社,大阪府,大阪市北区,梅田２丁目５番１３号桜橋第一ビル３０４号,,27,127,5300001,,,2023-04-06,清算の結了等,,,2017-11-24,1,,,,,エブリウェル,0
2883,9040002050477,登記記録の閉鎖等,0,2023-04-14,2023-03-31,有限会社大益,,有限会社,千葉県,松戸市,下矢切１５０番地の３３,,12,207,2710096,,,2023-03-31,合併による解散等,9040001005721,令和５年３月３１日千葉市若葉区若松町２２０９番地株式会社西船企業（9040001005721）に合併し解散,2015-10-05,1,,,,,オオマス,0
2904,9070001020081,登記記録の閉鎖等,0,2023-04-14,2023-04-03,株式会社スバル流通サービス,,株式会社,群馬県,邑楽郡大泉町,いずみ１丁目１番２号,,10,524,3700531,,,2023-04-03,合併による解散等,6070001019523,令和５年４月１日群馬県太田市朝日町５５８番地１株式会社スバルロジスティクス（6070001019523）に合併し解散,2015-10-05,1,,,,,スバルリュウツウサービス,0
2916,9100005002353,登記記録の閉鎖等,0,2023-04-14,2023-04-06,公益財団法人グレイスフル芸術館,,その他の設立登記法人,長野県,上高井郡小布施町,大字雁田１１７１番地,,20,541,3810211,,,2023-04-06,清算の結了等,,,2015-10-05,1,,,,,グレイスフルゲイジュツカン,0
2949,9130005008645,登記記録の閉鎖等,0,2023-04-14,2023-04-04,医療法人基歯会,,その他の設立登記法人,京都府,木津川市,木津清水６０番地,,26,214,6190214,,,2023-04-04,清算の結了等,,,2015-10-05,1,,,,,キシカイ,0
2985,9180002086103,登記記録の閉鎖等,0,2023-04-14,2023-04-06,杉江建設有限会社,,有限会社,愛知県,常滑市,字下隅３５番地の３,,23,216,4790032,,,2023-04-06,清算の結了等,,,2015-10-05,1,,,,,スギエケンセツ,0
2986,9180003012743,登記記録の閉鎖等,0,2023-04-14,2023-04-03,尾張製＿合資会社,00073925,合資会社,愛知県,半田市,成岩本町１丁目７０番地,,23,205,4750848,,,2023-04-03,合併による解散等,6180001091602,令和５年４月１日愛知県半田市成岩本町一丁目７０番地尾張製粉株式会社（6180001091602）に合併し解散,2015-10-05,1,,,,,オワリセイセン,0
2989,9180301005341,登記記録の閉鎖等,0,2023-04-14,2023-04-03,株式会社カーセンター関,,株式会社,愛知県,豊橋市,杉山町字久美２４番地,,23,201,4413302,,,2023-04-03,清算の結了等,,,2015-10-05,1,,,,,カーセンターセキ,0
2993,9190001023618,登記記録の閉鎖等,0,2023-04-14,2023-04-03,ＭＳＴ匠株式会社,,株式会社,三重県,松阪市,広陽町１２番地,,24,204,5150053,,,2023-04-03,合併による解散等,3190001029109,令和５年４月１日三重県松阪市広陽町１２番地松阪精工ホールディングス株式会社（3190001029109）に合併し解散,2016-04-28,1,,,,,エムエスティータクミ,0
3001,9240002000247,登記記録の閉鎖等,0,2023-04-14,2023-04-11,有限会社アートディレクト,,有限会社,広島県,広島市安佐南区,上安６丁目１１番３０号,,34,105,7310154,,,2023-04-11,清算の結了等,,,2015-10-05,1,,,,,アートディレクト,0
3010,9280001004708,登記記録の閉鎖等,0,2023-04-14,2023-04-03,ＭＹＳブライトネス株式会社,,株式会社,島根県,浜田市,三隅町西河内４７３番１地,,32,202,6993223,,,2023-04-03,清算の結了等,,,2015-10-05,1,,,,,,0
3012,9290001071375,登記記録の閉鎖等,0,2023-04-14,2023-04-10,株式会社アクティアス,,株式会社,福岡県,福岡市早良区,有田５丁目８番１５号,,40,137,8140033,,,2023-04-10,合併による解散等,4240001017131,令和５年４月１日広島市中区八丁堀６番３号　和光八丁堀ビル７Ｆシューペルブリアン株式会社（4240001017131）に合併し解散,2015-10-05,1,,,,,アクティアス,0
3020,9290002011248,登記記録の閉鎖等,0,2023-04-14,2023-04-06,有限会社松柏會,,有限会社,福岡県,糸島市,大字白糸２５７番地１１３,,40,230,8191100,,,2023-04-06,清算の結了等,,,2015-10-05,1,,,,,ショウハッカイ,0
3034,9330005005886,登記記録の閉鎖等,0,2023-04-14,2023-04-03,千丁漁業協同組合,,その他の設立登記法人,熊本県,八代市,千丁町古閑出２９７５番地８,,43,202,8694704,,,2023-04-03,合併による解散等,1330005010646,令和５年４月３日熊本県八代市鏡町野崎字１番割１０２８番地の２鏡町漁業協同組合（1330005006198）と合併して熊本県八代市鏡町野崎１０２８番地２鏡町漁業協同組合（1330005010646）を設立し解散,2015-10-05,1,,,,,センチョウ,0
3036,9340001012118,登記記録の閉鎖等,0,2023-04-14,2023-04-11,株式会社アール・エス・エル,,株式会社,鹿児島県,鹿児島市,加治屋町１３番８号,,46,201,8920846,,,2023-04-11,合併による解散等,9310002008596,令和５年４月１日福岡市博多区中洲四丁目３番１８号株式会社Ｆａ‐Ｔｕｓ（9310002008596）に合併し解散,2015-10-05,1,,,,,アールエスエル,0
3037,9340001023164,登記記録の閉鎖等,0,2023-04-14,2023-04-11,株式会社豊成,,株式会社,鹿児島県,鹿児島市,吉野町３２９２番地７－Ｂ棟,,46,201,8920871,,,2023-04-11,清算の結了等,,,2020-10-02,1,,,,,ホウセイ,0
3044,9360001010334,登記記録の閉鎖等,0,2023-04-14,2023-04-03,株式会社エルスペース,,株式会社,埼玉県,鴻巣市,栄町２番１２号,,11,217,3650055,,,2023-04-03,合併による解散等,3030001062678,令和５年４月１日埼玉県鴻巣市栄町２番１２号株式会社エルスペース（3030001062678）に合併し解散,2015-10-05,1,,,,,エルスペース,0
3054,9370001007783,登記記録の閉鎖等,0,2023-04-14,2023-04-06,株式会社喜楽,,株式会社,宮城県,仙台市青葉区,中央２丁目３番２３号,,04,101,9800021,,,2023-04-06,清算の結了等,,,2015-10-05,1,,,,,キラク,0
3059,9370102001644,登記記録の閉鎖等,0,2023-04-14,2023-04-05,越後自動車有限会社,,有限会社,宮城県,伊具郡丸森町,舘矢間舘山字坪石３２番地の２,,04,341,9812102,,,2023-04-05,清算の結了等,,,2015-10-05,1,,,,,エチゴジドウシャ,0
3069,9390002002352,登記記録の閉鎖等,0,2023-04-14,2023-04-05,有限会社ふみや書店,,有限会社,山形県,山形市,七日町２丁目１番４０号,,06,201,9900042,,,2023-04-05,清算の結了等,,,2015-10-05,1,,,,,フミヤショテン,0
3085,9490001007961,登記記録の閉鎖等,0,2023-04-14,2023-04-12,みかづきホールディングス株式会社,,株式会社,高知県,高知市,万々２４４番地,,39,201,7800973,,,2023-04-12,清算の結了等,,,2015-10-05,1,,,,,ミカヅキホールディングス,0
