sequenceNumber,corporateNumber,process,correct,updateDate,changeDate,name,nameImageId,kind,prefectureName,cityName,streetNumber,addressImageId,prefectureCode,cityCode,postCode,addressOutside,addressOutsideImageId,closeDate,closeCause,successorCorporateNumber,changeCause,assignmentDate,latest,enName,enPrefectureName,enCityName,enAddressOutside,furigana,hihyoji
1,1010001002027,登記記録の閉鎖等,0,2024-12-17,2024-12-03,株式会社ギンザスタンプクラブ,,株式会社,東京都,文京区,湯島４丁目５番２０号ハイランドコーポ２０１号,,13,105,1130034,,,2024-12-03,清算の結了等,,,2015-10-05,1,,,,,ギンザスタンプクラブ,0
9,1010002032155,登記記録の閉鎖等,0,2024-12-17,2024-11-29,有限会社ソフトミリオン,,有限会社,東京都,千代田区,三番町７番地１,,13,101,1020075,,,2024-11-29,清算の結了等,,,2015-10-05,1,,,,,ソフトミリオン,0
10,1010002037195,登記記録の閉鎖等,0,2024-12-17,2024-12-03,アイティーエヌ有限会社,,有限会社,東京都,文京区,本郷３丁目２７番１号,,13,105,1130033,,,2024-12-03,清算の結了等,,,2015-10-05,1,,,,,アイティーエヌ,0
19,1010402035154,登記記録の閉鎖等,0,2024-12-17,2024-12-11,有限会社チェルト,,有限会社,東京都,千代田区,神田佐久間町３丁目３１番地中嶋ビル３Ｆ,,13,101,1010025,,,2024-12-11,清算の結了等,,,2015-10-05,1,,,,,チェルト,0
20,1010405014270,登記記録の閉鎖等,0,2024-12-17,2024-11-25,八重山リゾートホテル一般社団法人,,その他の設立登記法人,東京都,目黒区,東山１丁目２０番１９号,,13,110,1530043,,,2024-11-25,清算の結了等,,,2015-10-21,1,,,,,ヤエヤマリゾートホテル,0
27,1010801018998,登記記録の閉鎖等,0,2024-12-17,2024-12-16,株式会社プリズム,,株式会社,神奈川県,大和市,中央５丁目２番２６－１１０５号,,14,213,2420021,,,2024-12-16,清算の結了等,,,2015-10-05,1,,,,,プリズム,0
29,1010802011044,登記記録の閉鎖等,0,2024-12-17,2024-12-06,有限会社日栄運輸,,有限会社,東京都,大田区,西六郷４丁目２１番２号,,13,111,1440056,,,2024-12-06,清算の結了等,,,2015-10-05,1,,,,,,0
41,1011501023041,登記記録の閉鎖等,0,2024-12-17,2024-11-29,株式会社Ａ．Ｙエステート,,株式会社,東京都,文京区,本郷１丁目１１番１４号,,13,105,1130033,,,2024-11-29,合併による解散等,1010001010839,令和６年１１月１日東京都文京区本郷一丁目１１番１４号株式会社ＩＺＵＭＩコーポレーション（1010001010839）に合併し解散,2017-09-26,1,,,,,エーワイエステート,0
42,1011501027389,登記記録の閉鎖等,0,2024-12-17,2024-12-13,株式会社ａｇａｉｎ,,株式会社,東京都,北区,滝野川４丁目１３－１０,,13,117,1140023,,,2024-12-13,清算の結了等,,,2021-10-15,1,,,,,アゲイン,0
43,1011502005063,登記記録の閉鎖等,0,2024-12-17,2024-12-13,有限会社藤ランド,,有限会社,東京都,北区,東十条１丁目２２番１１号,,13,117,1140001,,,2024-12-13,清算の結了等,,,2015-10-05,1,,,,,フジランド,0
64,1020002032419,登記記録の閉鎖等,0,2024-12-17,2024-12-05,有限会社今井管理事務所,,有限会社,神奈川県,横浜市緑区,鴨居３丁目２４番２０号,,14,113,2260003,,,2024-12-05,清算の結了等,,,2015-10-05,1,,,,,,0
70,1021002005471,登記記録の閉鎖等,0,2024-12-17,2024-12-13,有限会社リトルリバー,,有限会社,神奈川県,鎌倉市,長谷２丁目７番２５号,,14,204,2480016,,,2024-12-13,清算の結了等,,,2015-10-05,1,,,,,リトルリバー,0
73,1021002046235,登記記録の閉鎖等,0,2024-12-17,2024-12-13,有限会社柴本設計事務所,,有限会社,神奈川県,大和市,下鶴間２丁目５番１２－２０３号,,14,213,2420001,,,2024-12-13,清算の結了等,,,2015-10-05,1,,,,,シバモトセッケイジムショ,0
74,1021002066968,登記記録の閉鎖等,0,2024-12-17,2024-12-13,有限会社丸勝工業,,有限会社,神奈川県,横須賀市,深田台７５番地,,14,201,2380016,,,2024-12-13,清算の結了等,,,2015-10-05,1,,,,,マルショウコウギョウ,0
89,1040002018564,登記記録の閉鎖等,0,2024-12-17,2024-12-10,有限会社大清住宅,,有限会社,千葉県,習志野市,大久保４丁目５番１６号,,12,216,2750011,,,2024-12-10,清算の結了等,,,2015-10-05,1,,,,,タイセイジュウタク,0
95,1070002002342,登記記録の閉鎖等,0,2024-12-17,2024-12-13,有限会社三協厨房,,有限会社,群馬県,前橋市,朝日町３丁目４番６号,,10,201,3710014,,,2024-12-13,清算の結了等,,,2015-10-05,1,,,,,サンキョウチュウボウ,0
97,1070002033957,登記記録の閉鎖等,0,2024-12-17,2024-12-16,有限会社三田精工,,有限会社,群馬県,館林市,成島町１１９４番地,,10,207,3740055,,,2024-12-16,清算の結了等,,,2015-10-05,1,,,,,ミタセイコウ,0
100,1080001017919,登記記録の閉鎖等,0,2024-12-17,2024-12-11,健康イオン株式会社,,株式会社,静岡県,静岡市清水区,堂林２丁目２番３２－３号,,22,103,4240851,,,2024-12-11,清算の結了等,,,2015-10-05,1,,,,,ケンコウイオン,0
101,1080001024840,登記記録の閉鎖等,0,2024-12-17,2024-12-12,株式会社キャリアネット,,株式会社,静岡県,静岡市駿河区,西中原２丁目４番１０号１階,,22,102,4228053,,,2024-12-12,清算の結了等,,,2022-04-04,1,,,,,キャリアネット,0
112,1120001203332,登記記録の閉鎖等,0,2024-12-17,2024-12-11,ＡＲＣＯＬＬＥ株式会社,,株式会社,大阪府,大阪市北区,大淀南２丁目１番１－１６０５号,,27,127,5310075,,,2024-12-11,清算の結了等,,,2017-01-30,1,,,,,アルコレ,0
119,1120003012483,登記記録の閉鎖等,0,2024-12-17,2024-12-12,コングラントジャパン合同会社,,合同会社,大阪府,大阪市西区,江戸堀１丁目２２－１７西船場辰巳ビル６Ｆ,,27,106,5500002,,,2024-12-12,清算の結了等,,,2017-02-20,1,,,,,コングラント,0
124,1120005004248,登記記録の閉鎖等,0,2024-12-17,2024-12-13,駒川駅前商店街振興組合,,その他の設立登記法人,大阪府,大阪市東住吉区,駒川３丁目３０番９号,,27,121,5460043,,,2024-12-13,清算の結了等,,,2015-10-05,1,,,,,コマガワエキマエ,0
129,1120901029760,登記記録の閉鎖等,0,2024-12-17,2024-12-10,株式会社ルミナリー,,株式会社,大阪府,豊中市,少路１丁目１３番４０－５０１号,,27,203,5600004,,,2024-12-10,清算の結了等,,,2015-10-05,1,,,,,ルミナリー,0
153,1180002043482,登記記録の閉鎖等,0,2024-12-17,2024-12-09,有限会社パラブラック,,有限会社,愛知県,名古屋市昭和区,天神町２丁目１８番地の２,,23,107,4660032,,,2024-12-09,清算の結了等,,,2015-10-05,1,,,,,パラブラック,0
168,1240002023602,登記記録の閉鎖等,0,2024-12-17,2024-12-12,ティー・エム・サービス有限会社,,有限会社,広島県,広島市安佐北区,可部町大字南原３９５番地４,,34,106,7310215,,,2024-12-12,清算の結了等,,,2015-10-05,1,,,,,ティーエムサービス,0
169,1250002013271,登記記録の閉鎖等,0,2024-12-17,2024-12-16,有限会社トウシマ産業開発,,有限会社,山口県,萩市,大字土原６１２番地の１０,,35,204,7580025,,,2024-12-16,清算の結了等,,,2015-10-05,1,,,,,トウシマサンギョウカイハツ,0
224,2010003031502,登記記録の閉鎖等,0,2024-12-17,2024-12-03,Ｃｈｏｓｈｉ　Ｏｒｓｔｅｄ　ＨｏｌｄＣｏ合同会社,,合同会社,東京都,千代田区,有楽町１丁目１番２号日比谷三井タワー１２階,,13,101,1000006,,,2024-12-03,清算の結了等,,,2020-01-27,1,,,,,チョウシオーステッドホールドコ,0
225,2010003033903,登記記録の閉鎖等,0,2024-12-17,2024-12-03,Ｏｒｓｔｅｄ　ＨｏｌｄＣｏ２合同会社,,合同会社,東京都,千代田区,有楽町１丁目１番２号日比谷三井タワー１２階,,13,101,1000006,,,2024-12-03,清算の結了等,,,2021-01-12,1,,,,,オーステッドホールドコツー,0
263,2011702009516,登記記録の閉鎖等,0,2024-12-17,2024-12-12,光土地建物有限会社,,有限会社,東京都,江戸川区,北小岩５丁目８番２号,,13,123,1330051,,,2024-12-12,清算の結了等,,,2015-10-05,1,,,,,ヒカリトチタテモノ,0
264,2011702011083,登記記録の閉鎖等,0,2024-12-17,2024-12-10,有限会社マル勇水産,,有限会社,東京都,江戸川区,西葛西８丁目９番１３号,,13,123,1340088,,,2024-12-10,清算の結了等,,,2015-10-05,1,,,,,マルユウスイサン,0
265,2011801007453,登記記録の閉鎖等,0,2024-12-17,2024-12-10,株式会社ケー・エル・ピー,,株式会社,東京都,足立区,皿沼３丁目１番４号,,13,121,1230862,,,2024-12-10,清算の結了等,,,2015-10-05,1,,,,,ケーエルピー,0
322,2040002077246,登記記録の閉鎖等,0,2024-12-17,2024-12-09,有限会社小川屋石材開発,,有限会社,千葉県,東金市,東金１３８４番地,,12,213,2830802,,,2024-12-09,清算の結了等,,,2015-10-05,1,,,,,オガワヤセキザイカイハツ,0
324,2050002000520,登記記録の閉鎖等,0,2024-12-17,2024-12-11,有限会社エクスアート工房,,有限会社,茨城県,水戸市,新荘１丁目５番４２号,,08,201,3100036,,,2024-12-11,清算の結了等,,,2015-10-05,1,,,,,エクスアートコウボウ,0
330,2070001006632,登記記録の閉鎖等,0,2024-12-17,2024-12-16,株式会社協和テクノ,,株式会社,群馬県,高崎市,東貝沢町３丁目３４番地１０,,10,202,3700041,,,2024-12-16,清算の結了等,,,2015-10-05,1,,,,,キョウワテクノ,0
333,2070002012522,登記記録の閉鎖等,0,2024-12-17,2024-12-16,有限会社柳沢工業,,有限会社,群馬県,高崎市,剣崎町２３４番地３,,10,202,3700883,,,2024-12-16,清算の結了等,,,2015-10-05,1,,,,,ヤナギサワコウギョウ,0
334,2070002016795,登記記録の閉鎖等,0,2024-12-17,2024-12-13,カシワヤ薬局有限会社,,有限会社,群馬県,甘楽郡下仁田町,大字下仁田２５１番地,,10,382,3702601,,,2024-12-13,清算の結了等,,,2015-10-05,1,,,,,カシワヤヤッキョク,0
335,2080401005893,登記記録の閉鎖等,0,2024-12-17,2024-12-10,ローランドディー．ジー．株式会社,,株式会社,静岡県,浜松市浜名区,新都田１丁目１番２号,,22,139,4312103,,,2024-12-10,合併による解散等,9010401179936,令和６年１２月１日東京都港区六本木六丁目１０番１号ローランドディー．ジー．株式会社（9010401179936）に合併し解散,2015-10-05,1,,,,,ローランドディージー,0
338,2100002023706,登記記録の閉鎖等,0,2024-12-17,2024-12-11,有限会社高山設備工業,,有限会社,長野県,安曇野市,豊科２２９３番地２,,20,220,3998205,,,2024-12-11,清算の結了等,,,2015-10-05,1,,,,,タカヤマセツビコウギョウ,0
344,2120001129056,登記記録の閉鎖等,0,2024-12-17,2024-12-13,株式会社エコフィールド,,株式会社,大阪府,大阪市大正区,泉尾１丁目１９番１４号,,27,108,5510031,,,2024-12-13,清算の結了等,,,2015-10-05,1,,,,,エコフィールド,0
356,2120002073781,登記記録の閉鎖等,0,2024-12-17,2024-12-13,有限会社大野工業,,有限会社,大阪府,枚方市,高塚町２番２１号,,27,210,5730035,,,2024-12-13,清算の結了等,,,2015-10-05,1,,,,,オオノコウギョウ,0
361,2120901024769,登記記録の閉鎖等,0,2024-12-17,2024-12-10,豊中再繊工業株式会社,,株式会社,大阪府,豊中市,服部本町２丁目１３番７号,,27,203,5610852,,,2024-12-10,清算の結了等,,,2015-10-05,1,,,,,トヨナカサイセンコウギョウ,0
376,2140005024680,登記記録の閉鎖等,0,2024-12-17,2024-12-16,特定非営利活動法人アジアの輪,,その他の設立登記法人,兵庫県,明石市,東朝霧丘４番１２号,,28,203,6730854,,,2024-12-16,清算の結了等,,,2019-06-26,1,,,,,アジアノワ,0
380,2180001082860,登記記録の閉鎖等,0,2024-12-17,2024-12-09,ジャパンフーズ株式会社,,株式会社,愛知県,一宮市,真清田１丁目３番１６号,,23,203,4910043,,,2024-12-09,清算の結了等,,,2015-10-05,1,,,,,ジャパンフーズ,0
383,2180002000739,登記記録の閉鎖等,0,2024-12-17,2024-12-06,東雲産業有限会社,,有限会社,愛知県,名古屋市守山区,天子田３丁目４１０番地,,23,113,4630037,,,2024-12-06,清算の結了等,,,2024-07-31,1,,,,,シノノメサンギョウ,0
386,2180002062671,登記記録の閉鎖等,0,2024-12-17,2024-12-10,有限会社信念,,有限会社,愛知県,愛知郡東郷町,春木台１丁目１０番地の１８,,23,302,4700161,,,2024-12-10,清算の結了等,,,2015-10-05,1,,,,,シンネン,0
387,2180003021899,登記記録の閉鎖等,0,2024-12-17,2024-12-06,合同会社Ｍサポ,,合同会社,愛知県,東海市,富貴ノ台２丁目１７２番地星城大学内,,23,222,4760014,,,2024-12-06,清算の結了等,,,2020-12-04,1,,,,,エムサポ,0
392,2180301000753,登記記録の閉鎖等,0,2024-12-17,2024-12-12,株式会社クラブマンアンドサンズ,,株式会社,愛知県,岡崎市,羽根北町１丁目３番地１２,,23,202,4440831,,,2024-12-12,清算の結了等,,,2015-10-05,1,,,,,クラブマンアンドサンズ,0
395,2190001005275,登記記録の閉鎖等,0,2024-12-17,2024-12-12,日勢株式会社,,株式会社,三重県,鈴鹿市,岸岡町２１２９番地の１,,24,207,5100226,,,2024-12-12,清算の結了等,,,2015-10-05,1,,,,,ニッセイ,0
411,2280002011627,登記記録の閉鎖等,0,2024-12-17,2024-12-16,有限会社石原モーター,,有限会社,島根県,仁多郡奥出雲町,三成７１４番地１,,32,343,6991511,,,2024-12-16,合併による解散等,6280001005626,令和６年１０月２１日島根県仁多郡奥出雲町三成４４４番地１８株式会社サンエイト（6280001005626）に合併し解散,2015-10-05,1,,,,,イシハラモーター,0
418,2290805004974,登記記録の閉鎖等,0,2024-12-17,2024-12-05,特定非営利活動法人自由同和会福岡県本部,,その他の設立登記法人,福岡県,北九州市八幡西区,三ケ森２丁目１０番１０－２０２号,,40,109,8070843,,,2024-12-05,清算の結了等,,,2015-10-05,1,,,,,ジユウドウワカイフクオカケンホンブ,0
440,2380002022754,登記記録の閉鎖等,0,2024-12-17,2024-12-05,有限会社大富建設,,有限会社,福島県,いわき市,小名浜字平蔵塚１０２番地の１４,,07,204,9718101,,,2024-12-05,清算の結了等,,,2015-10-05,1,,,,,オオトミケンセツ,0
448,2430001008435,登記記録の閉鎖等,0,2024-12-17,2024-12-11,株式会社すずらん教材社,,株式会社,北海道,札幌市白石区,北郷四条３丁目７番３号,,01,104,0030834,,,2024-12-11,清算の結了等,,,2015-10-05,1,,,,,スズランキョウザイシャ,0
454,2430005009660,登記記録の閉鎖等,0,2024-12-17,2024-12-13,医療法人社団堅進会,,その他の設立登記法人,北海道,伊達市,大町１１番地,,01,233,0520027,,,2024-12-13,清算の結了等,,,2015-10-05,1,,,,,,0
459,2470002018842,登記記録の閉鎖等,0,2024-12-17,2024-12-12,石川製麺有限会社,00005543,有限会社,香川県,小豆郡土庄町,甲５３８１番地２,,37,322,7614101,,,2024-12-12,清算の結了等,,,2015-10-05,1,,,,,イシカワセイメン,0
460,2470005004253,登記記録の閉鎖等,0,2024-12-17,2024-12-09,医療法人社団久保外科整形外科医院,,その他の設立登記法人,香川県,観音寺市,柞田町甲２０９８番地,,37,205,7680040,,,2024-12-09,清算の結了等,,,2015-10-05,1,,,,,クボゲカセイケイゲカイイン,0
516,3011103005717,登記記録の閉鎖等,0,2024-12-17,2024-12-05,合同会社六泉京,,合同会社,東京都,小平市,花小金井南町１丁目３番１１－Ｂ５４９号,,13,211,1870003,,,2024-12-05,清算の結了等,,,2015-10-05,1,,,,,ロクセンキョウ,0
518,3011305002925,登記記録の閉鎖等,0,2024-12-17,2024-12-12,一般社団法人アジア・インスティチュート,,その他の設立登記法人,東京都,杉並区,阿佐谷南１丁目３４－６新東京会館５Ｆ,,13,115,1660004,,,2024-12-12,清算の結了等,,,2023-08-15,1,,,,,アジアインスティチュート,0
527,3011801026601,登記記録の閉鎖等,0,2024-12-17,2024-12-11,株式会社喜咲,,株式会社,東京都,足立区,竹の塚６丁目１４番１１号,,13,121,1210813,,,2024-12-11,清算の結了等,,,2015-10-05,1,,,,,キサキ,0
534,3012405001486,登記記録の閉鎖等,0,2024-12-17,2024-12-13,医療法人社団吉祥社,,その他の設立登記法人,東京都,武蔵野市,中町２丁目３１番１２号メゾン・ド・マーティ１階,,13,203,1800006,,,2024-12-13,清算の結了等,,,2015-10-05,1,,,,,キッショウシャ,0
538,3020001132242,登記記録の閉鎖等,0,2024-12-17,2024-12-12,マスオ生物産業株式会社,,株式会社,神奈川県,横浜市中区,山下町１６２番,,14,104,2310023,,,2024-12-12,合併による解散等,5010001226365,令和６年１２月１日東京都豊島区目白三丁目１３番５－１０３号トキリン株式会社（5010001226365）に合併し解散,2019-08-05,1,,,,,マスオセイブツサンギョウ,0
540,3020002026402,登記記録の閉鎖等,0,2024-12-17,2024-12-05,有限会社小林葬儀社,,有限会社,神奈川県,横浜市神奈川区,青木町１番地１,,14,102,2210057,,,2024-12-05,清算の結了等,,,2015-10-05,1,,,,,,0
554,3030002023720,登記記録の閉鎖等,0,2024-12-17,2024-12-12,有限会社井上電機,,有限会社,埼玉県,戸田市,笹目６丁目１３番地の７,,11,224,3350034,,,2024-12-12,清算の結了等,,,2015-10-05,1,,,,,イノウエデンキ,0
565,3040005020004,登記記録の閉鎖等,0,2024-12-17,2024-12-09,北総異業種交流協同組合,,その他の設立登記法人,千葉県,佐倉市,王子台１丁目１４番地４松戸ビル２０１,,12,212,2850837,,,2024-12-09,清算の結了等,,,2018-06-07,1,,,,,ホクソウイギョウシュコウリュウ,0
566,3040005021992,登記記録の閉鎖等,0,2024-12-17,2024-12-04,エム・エフ・ティー協同組合,,その他の設立登記法人,千葉県,千葉市中央区,富士見２丁目１５番地１,,12,101,2600015,,,2024-12-04,清算の結了等,,,2023-05-11,1,,,,,エムエフティー,0
588,3120001133189,登記記録の閉鎖等,0,2024-12-17,2024-12-13,第一交易株式会社,,株式会社,兵庫県,宝塚市,雲雀丘２丁目１２番４０号,,28,214,6650805,,,2024-12-13,清算の結了等,,,2015-10-05,1,,,,,,0
604,3120101029304,登記記録の閉鎖等,0,2024-12-17,2024-12-16,株式会社ジャパンアミューズクリエーション,,株式会社,大阪府,堺市南区,岩室１０８番地の１,,27,145,5900112,,,2024-12-16,清算の結了等,,,2015-10-05,1,,,,,ジャパンアミューズクリエーション,0
620,3140002031720,登記記録の閉鎖等,0,2024-12-17,2024-12-12,有限会社神港産業,,有限会社,兵庫県,明石市,大久保町谷八木５３８番地グランプレステージ西明石６１４号,,28,203,6740062,,,2024-12-12,清算の結了等,,,2015-10-05,1,,,,,,0
621,3140002054746,登記記録の閉鎖等,0,2024-12-17,2024-12-09,有限会社トミマサ,,有限会社,兵庫県,三田市,南が丘２丁目１４番３２号,,28,219,6691535,,,2024-12-09,合併による解散等,5140001066484,令和６年１１月５日兵庫県三田市横山町３番１１号株式会社トミマサ（5140001066484）に合併し解散,2015-10-05,1,,,,,トミマサ,0
626,3150005008558,登記記録の閉鎖等,0,2024-12-17,2024-12-13,特定非営利活動法人古代ヤマトの郷づくり塾,,その他の設立登記法人,奈良県,桜井市,安倍木材団地１丁目５番地の５,,29,206,6330055,,,2024-12-13,清算の結了等,,,2015-10-05,1,,,,,コダイヤマトノサトヅクリジュク,0
638,3180002051830,登記記録の閉鎖等,0,2024-12-17,2024-12-06,有限会社柴竹ビル,,有限会社,愛知県,北名古屋市,高田寺出口３７番地,,23,234,4810011,,,2024-12-06,清算の結了等,,,2015-10-05,1,,,,,シバタケビル,0
643,3180005007425,登記記録の閉鎖等,0,2024-12-17,2024-12-10,特定非営利活動法人健康と病を考える友の会,,その他の設立登記法人,愛知県,愛知郡東郷町,白鳥２丁目８番地１３,,23,302,4700155,,,2024-12-10,清算の結了等,,,2015-10-05,1,,,,,ケンコウトヤマイヲカンガエルトモノカイ,0
646,3180302020287,登記記録の閉鎖等,0,2024-12-17,2024-12-09,有限会社水野木型製作所,,有限会社,愛知県,碧南市,宮後町１丁目４５番地,,23,209,4470856,,,2024-12-09,清算の結了等,,,2015-10-05,1,,,,,ミズノキガタセイサクショ,0
657,3250001015127,登記記録の閉鎖等,0,2024-12-17,2024-12-12,株式会社ネクサス,,株式会社,山口県,下関市,藤ケ谷町８番１６号,,35,201,7510811,,,2024-12-12,清算の結了等,,,2015-10-05,1,,,,,ネクサス,0
670,3310001001913,登記記録の閉鎖等,0,2024-12-17,2024-12-11,株式会社ふれあい企画,,株式会社,長崎県,長崎市,油木町４６番地７５,,42,201,8528035,,,2024-12-11,清算の結了等,,,2015-10-05,1,,,,,フレアイキカク,0
675,3330002001885,登記記録の閉鎖等,0,2024-12-17,2024-12-10,有限会社おざわ商会,,有限会社,熊本県,熊本市中央区,平成２丁目１５番１１号,,43,101,8600833,,,2024-12-10,清算の結了等,,,2015-10-05,1,,,,,オザワショウカイ,0
676,3330003005101,登記記録の閉鎖等,0,2024-12-17,2024-12-11,合同会社こころ,,合同会社,熊本県,山鹿市,鹿本町中川１００９番地５,,43,208,8610314,,,2024-12-11,清算の結了等,,,2015-10-05,1,,,,,ココロ,0
686,3370001007211,登記記録の閉鎖等,0,2024-12-17,2024-12-09,エーネット株式会社,,株式会社,宮城県,仙台市青葉区,滝道４番１８－４０１号,,04,101,9810951,,,2024-12-09,清算の結了等,,,2015-10-05,1,,,,,エーネット,0
688,3370402000095,登記記録の閉鎖等,0,2024-12-17,2024-12-09,有限会社サトウ工務店,,有限会社,宮城県,登米市,東和町米谷字新細待井４１番地１,,04,212,9870902,,,2024-12-09,清算の結了等,,,2015-10-05,1,,,,,サトウコウムテン,0
689,3370501000260,登記記録の閉鎖等,0,2024-12-17,2024-12-09,株式会社三共マリン,,株式会社,宮城県,気仙沼市,魚町２丁目６番２５号,,04,205,9880013,,,2024-12-09,清算の結了等,,,2015-10-05,1,,,,,サンキョウマリン,0
691,3390002013941,登記記録の閉鎖等,0,2024-12-17,2024-12-11,有限会社鈴木プロパン店,,有限会社,山形県,東置賜郡高畠町,大字中島８７５番地,,06,381,9920322,,,2024-12-11,清算の結了等,,,2015-10-05,1,,,,,スズキプロパンテン,0
699,3470001006186,登記記録の閉鎖等,0,2024-12-17,2024-12-12,株式会社ナカマート,,株式会社,香川県,高松市,国分寺町新名５９６番地３,,37,201,7690104,,,2024-12-12,清算の結了等,,,2015-10-05,1,,,,,ナカマート,0
700,3470002012828,登記記録の閉鎖等,0,2024-12-17,2024-12-13,有限会社香川義彦商店,,有限会社,香川県,善通寺市,善通寺町７丁目４番１１号,,37,204,7650003,,,2024-12-13,清算の結了等,,,2015-10-05,1,,,,,カガワヨシヒコショウテン,0
704,3500002003988,登記記録の閉鎖等,0,2024-12-17,2024-12-12,有限会社泰協自動車,,有限会社,愛媛県,松山市,来住町１１８３番地２,,38,201,7911102,,,2024-12-12,清算の結了等,,,2015-10-05,1,,,,,タイキョウジドウシャ,0
711,4010001215798,登記記録の閉鎖等,0,2024-12-17,2024-12-02,株式会社ＯＮＯＤＥＲＡアグリビジネス,,株式会社,東京都,千代田区,大手町１丁目１番３号,,13,101,1000004,,,2024-12-02,合併による解散等,7010401086168,令和６年１２月１日東京都千代田区大手町一丁目１番３号株式会社ＬＥＯＣ（7010401086168）に合併し解散,2021-02-12,1,,,,,オノデラアグリビジネス,0
741,4012701001032,登記記録の閉鎖等,0,2024-12-17,2024-12-04,山市産業株式会社,,株式会社,東京都,小平市,学園東町２丁目１３番１０号,,13,211,1870043,,,2024-12-04,清算の結了等,,,2015-10-05,1,,,,,ヤマイチサンギョウ,0
747,4020001135418,登記記録の閉鎖等,0,2024-12-17,2024-12-04,ＳＰアサヒケア株式会社,,株式会社,神奈川県,横浜市旭区,白根６丁目３７番９号,,14,112,2410005,,,2024-12-04,清算の結了等,,,2020-03-23,1,,,,,エスピーアサヒケア,0
751,4020002106665,登記記録の閉鎖等,0,2024-12-17,2024-12-09,有限会社タナカエムエイサービス,,有限会社,神奈川県,川崎市宮前区,馬絹５丁目２３番１３号,,14,136,2160035,,,2024-12-09,清算の結了等,,,2015-10-05,1,,,,,タナカエムエイサービス,0
752,4021001024742,登記記録の閉鎖等,0,2024-12-17,2024-12-11,株式会社オートクリニックツカサ,,株式会社,神奈川県,高座郡寒川町,倉見５４４番地１,,14,321,2530101,,,2024-12-11,清算の結了等,,,2015-10-05,1,,,,,オートクリニックツカサ,0
761,4030001026533,登記記録の閉鎖等,0,2024-12-17,2024-12-12,中山塗装株式会社,,株式会社,埼玉県,狭山市,大字東三ツ木８６番地２,,11,215,3501302,,,2024-12-12,清算の結了等,,,2015-10-05,1,,,,,ナカヤマトソウ,0
769,4040001016748,登記記録の閉鎖等,0,2024-12-17,2024-12-10,株式会社いわき育成場,,株式会社,千葉県,船橋市,本町２丁目１０番１４号船橋サウスビル８階,,12,204,2730005,,,2024-12-10,清算の結了等,,,2015-10-05,1,,,,,イワキイクセイジョウ,0
779,4040002066395,登記記録の閉鎖等,0,2024-12-17,2024-12-09,有限会社関東リース,,有限会社,千葉県,木更津市,大久保４７５番地,,12,206,2920815,,,2024-12-09,清算の結了等,,,2015-10-05,1,,,,,カントウリース,0
790,4080002011075,登記記録の閉鎖等,0,2024-12-17,2024-12-11,有限会社フカザワ配管設備,,有限会社,静岡県,静岡市清水区,木の下町１５番地,,22,103,4240846,,,2024-12-11,清算の結了等,,,2015-10-05,1,,,,,フカザワハイカンセツビ,0
796,4090003001867,登記記録の閉鎖等,0,2024-12-17,2024-12-06,八乙女合同会社,,合同会社,山梨県,甲府市,相生１丁目２－１４コーポいづみ１－７,,19,201,4000858,,,2024-12-06,清算の結了等,,,2021-05-10,1,,,,,ヤオトメ,0
800,4120001042067,登記記録の閉鎖等,0,2024-12-17,2024-12-16,株式会社小野商会,,株式会社,大阪府,大阪市西区,川口２丁目８番１３号,,27,106,5500021,,,2024-12-16,清算の結了等,,,2015-10-05,1,,,,,オノショウカイ,0
811,4122001024887,登記記録の閉鎖等,0,2024-12-17,2024-12-12,株式会社ファインテック精工,,株式会社,大阪府,八尾市,八尾木北１丁目９２番地,,27,212,5810016,,,2024-12-12,清算の結了等,,,2015-10-05,1,,,,,ファインテックセイコウ,0
814,4130001075207,登記記録の閉鎖等,0,2024-12-17,2024-12-16,サムニーモ株式会社,,株式会社,京都府,京都市左京区,上高野仲町４番地リソシエ宝ヶ池１０２号,,26,103,6060044,,,2024-12-16,清算の結了等,,,2023-09-14,1,,,,,サムニーモ,0
817,4130003002679,登記記録の閉鎖等,0,2024-12-17,2024-12-09,合資会社キャリアアップ,,合資会社,京都府,京田辺市,花住坂１丁目９番地３,,26,211,6100352,,,2024-12-09,清算の結了等,,,2015-10-05,1,,,,,キャリアアップ,0
818,4130003008032,登記記録の閉鎖等,0,2024-12-17,2024-12-16,合同会社ジャパンネットマーケット,,合同会社,京都府,京都市中京区,西ノ京月輪町３－１５,,26,104,6048444,,,2024-12-16,清算の結了等,,,2022-06-28,1,,,,,ジャパンネットマーケット,0
825,4150001017198,登記記録の閉鎖等,0,2024-12-17,2024-12-10,株式会社あくび,,株式会社,奈良県,奈良市,北之庄町４５番地の１,,29,201,6308451,,,2024-12-10,清算の結了等,,,2015-10-05,1,,,,,アクビ,0
827,4150002008675,登記記録の閉鎖等,0,2024-12-17,2024-12-10,朝日総合保険サービス有限会社,,有限会社,奈良県,大和高田市,三和町２番５７号,,29,202,6350014,,,2024-12-10,清算の結了等,,,2015-10-05,1,,,,,アサヒソウゴウホケンサービス,0
841,4190002007608,登記記録の閉鎖等,0,2024-12-17,2024-12-12,有限会社真弓建機,,有限会社,三重県,鈴鹿市,徳居町５７１番地,,24,207,5100264,,,2024-12-12,清算の結了等,,,2015-10-05,1,,,,,マユミケンキ,0
845,4210001019816,登記記録の閉鎖等,0,2024-12-17,2024-12-12,株式会社ツ幹,,株式会社,福井県,福井市,八重巻東町１４の９番地,,18,201,9100157,,,2024-12-12,清算の結了等,,,2024-07-03,1,,,,,ツミキ,0
865,4330002007031,登記記録の閉鎖等,0,2024-12-17,2024-12-11,有限会社ディレクターズユニオン,,有限会社,熊本県,熊本市中央区,神水本町１０番６号,,43,101,8620955,,,2024-12-11,清算の結了等,,,2015-10-05,1,,,,,,0
868,4340002027185,登記記録の閉鎖等,0,2024-12-17,2024-12-12,有限会社丸千青果,,有限会社,鹿児島県,垂水市,柊原１１９６番地１,,46,214,8912116,,,2024-12-12,清算の結了等,,,2015-10-05,1,,,,,マルセンセイカ,0
892,4430005009849,登記記録の閉鎖等,0,2024-12-17,2024-12-13,医療法人社団慶和会野村歯科,,その他の設立登記法人,北海道,登別市,新生町１丁目１番地６,,01,230,0590032,,,2024-12-13,清算の結了等,,,2015-10-05,1,,,,,ケイワカイノムラシカ,0
906,5010002024405,登記記録の閉鎖等,0,2024-12-17,2024-12-03,有限会社双葉興産,,有限会社,東京都,文京区,本駒込２丁目１０番１５号,,13,105,1130021,,,2024-12-03,清算の結了等,,,2015-10-05,1,,,,,フタバコウサン,0
915,5010601015969,登記記録の閉鎖等,0,2024-12-17,2024-12-10,株式会社皆川商店,,株式会社,東京都,墨田区,東駒形４丁目１１番４号,,13,107,1300005,,,2024-12-10,清算の結了等,,,2015-10-05,1,,,,,ミナガワショウテン,0
920,5010801016214,登記記録の閉鎖等,0,2024-12-17,2024-12-06,エイティーエス株式会社,,株式会社,東京都,大田区,中央４丁目１７番１３号,,13,111,1430024,,,2024-12-06,清算の結了等,,,2015-10-05,1,,,,,エイティーエス,0
923,5010901033233,登記記録の閉鎖等,0,2024-12-17,2024-12-10,株式会社ハル・クリエイティブ・スタジオ,,株式会社,東京都,世田谷区,船橋３丁目１０番９号,,13,112,1560055,,,2024-12-10,清算の結了等,,,2015-10-05,1,,,,,ハルクリエイティブスタジオ,0
929,5011001059994,登記記録の閉鎖等,0,2024-12-17,2024-12-02,株式会社アール・ダブリュー・シー,,株式会社,東京都,千代田区,飯田橋１丁目５番６号,,13,101,1020072,,,2024-12-02,合併による解散等,4010001129494,令和６年１２月１日東京都千代田区飯田橋二丁目１番２号株式会社インターテクノロジー（4010001129494）に合併し解散,2015-10-05,1,,,,,アールダブリューシー,0
951,5012301008311,登記記録の閉鎖等,0,2024-12-17,2024-11-28,株式会社アセット・ナビゲーター,,株式会社,東京都,港区,赤坂１丁目１－１７－５０１,,13,103,1070052,,,2024-11-28,清算の結了等,,,2015-10-05,1,,,,,アセットナビゲーター,0
965,5020001087798,登記記録の閉鎖等,0,2024-12-17,2024-12-16,株式会社ｈａｌ,,株式会社,神奈川県,大和市,大和南２丁目５番１５号,,14,213,2420016,,,2024-12-16,清算の結了等,,,2015-10-05,1,,,,,ハル,0
983,5040001027843,登記記録の閉鎖等,0,2024-12-17,2024-12-11,株式会社ユーダイ,,株式会社,千葉県,市川市,末広２丁目２０番２５号,,12,203,2720121,,,2024-12-11,清算の結了等,,,2015-10-05,1,,,,,ユーダイ,0
993,5050002023262,登記記録の閉鎖等,0,2024-12-17,2024-12-10,有限会社丸勝技建工業,,有限会社,茨城県,つくば市,大形３９９番地１,,08,220,3004221,,,2024-12-10,清算の結了等,,,2015-10-05,1,,,,,マルカツギケンコウギョウ,0
1003,5080402004818,登記記録の閉鎖等,0,2024-12-17,2024-12-12,有限会社瀧本工業所,,有限会社,静岡県,浜松市中央区,入野町９２３８番地の１,,22,138,4328061,,,2024-12-12,清算の結了等,,,2015-10-05,1,,,,,タキモトコウギョウショ,0
1009,5110002027793,登記記録の閉鎖等,0,2024-12-17,2024-12-12,有限会社サンライフプラン,,有限会社,新潟県,長岡市,宮内１丁目１番４号,,15,202,9401106,,,2024-12-12,清算の結了等,,,2015-10-05,1,,,,,サンライフプラン,0
1016,5120001225752,登記記録の閉鎖等,0,2024-12-17,2024-12-12,令和薬品工業株式会社,,株式会社,兵庫県,神戸市東灘区,御影３丁目２番１１－１１号,,28,101,6580047,,,2024-12-12,清算の結了等,,,2019-12-16,1,,,,,レイワヤクヒンコウギョウ,0
1018,5120001236106,登記記録の閉鎖等,0,2024-12-17,2024-12-09,栗子株式会社,,株式会社,東京都,台東区,上野６丁目７－１６川久保ビル８０８号,,13,106,1100005,,,2024-12-09,清算の結了等,,,2021-03-22,1,,,,,クリコ,0
1036,5120002028717,登記記録の閉鎖等,0,2024-12-17,2024-12-10,ヨンゴスタジオ有限会社,,有限会社,大阪府,大阪市淀川区,加島３丁目中３番４号,,27,123,5320031,,,2024-12-10,清算の結了等,,,2015-10-05,1,,,,,ヨンゴスタジオ,0
1044,5120901022844,登記記録の閉鎖等,0,2024-12-17,2024-12-10,株式会社井上茂商店,,株式会社,大阪府,豊中市,浜１丁目１７番１１号,,27,203,5610817,,,2024-12-10,清算の結了等,,,2015-10-05,1,,,,,イノウエシゲルショウテン,0
1064,5150001000558,登記記録の閉鎖等,0,2024-12-17,2024-12-06,上林石油株式会社,,株式会社,奈良県,奈良市,三条大路２丁目１番６３号,,29,201,6308013,,,2024-12-06,清算の結了等,,,2015-10-05,1,,,,,カミバヤシセキユ,0
1068,5150002008567,登記記録の閉鎖等,0,2024-12-17,2024-12-16,有限会社ＩＭＡＮＩＳＩ,,有限会社,奈良県,磯城郡三宅町,大字三河６７７番地の１,,29,362,6360211,,,2024-12-16,清算の結了等,,,2015-10-05,1,,,,,イマニシ,0
1073,5180001010166,登記記録の閉鎖等,0,2024-12-17,2024-12-09,株式会社交友,,株式会社,愛知県,名古屋市瑞穂区,瑞穂通５丁目３７番地,,23,108,4670806,,,2024-12-09,清算の結了等,,,2015-10-05,1,,,,,コウユウ,0
1074,5180001062892,登記記録の閉鎖等,0,2024-12-17,2024-12-09,株式会社ワイワイサービス,,株式会社,愛知県,名古屋市守山区,西城１丁目４番２１号,,23,113,4630084,,,2024-12-09,清算の結了等,,,2015-10-05,1,,,,,ワイワイサービス,0
1076,5180001071200,登記記録の閉鎖等,0,2024-12-17,2024-12-09,株式会社マルショウハウジング,,株式会社,愛知県,愛知郡東郷町,兵庫２丁目６番地１８,,23,302,4700166,,,2024-12-09,清算の結了等,,,2015-10-05,1,,,,,マルショウハウジング,0
1079,5180001127167,登記記録の閉鎖等,0,2024-12-17,2024-12-10,杉杉医療投資管理日本株式会社,,株式会社,愛知県,小牧市,大字村中９６６番地１,,23,219,4850082,,,2024-12-10,清算の結了等,,,2017-04-07,1,,,,,シャンシャンイリョウトウシカンリニホン,0
1088,5180003024395,登記記録の閉鎖等,0,2024-12-17,2024-12-09,合同会社Ｒ．Ｓ．Ｔ,,合同会社,愛知県,名古屋市熱田区,伝馬１丁目７番１２号,,23,109,4560034,,,2024-12-09,清算の結了等,,,2022-10-27,1,,,,,アールエスティー,0
1093,5180302006227,登記記録の閉鎖等,0,2024-12-17,2024-12-11,有限会社あづまや,,有限会社,愛知県,豊橋市,前田町２丁目１２番地１１,,23,201,4400814,,,2024-12-11,清算の結了等,,,2015-10-05,1,,,,,アヅマヤ,0
1095,5190005011894,登記記録の閉鎖等,0,2024-12-17,2024-12-12,一般社団法人ａｔ　ｓｅａ,,その他の設立登記法人,三重県,鳥羽市,鳥羽５丁目２番１４号,,24,211,5170011,,,2024-12-12,清算の結了等,,,2023-12-14,1,,,,,アットシー,0
1096,5210001009502,登記記録の閉鎖等,0,2024-12-17,2024-12-11,株式会社ランクルー,,株式会社,福井県,福井市,花堂北１丁目５番３号,,18,201,9188012,,,2024-12-11,清算の結了等,,,2015-10-05,1,,,,,ランクルー,0
1114,5290001028478,登記記録の閉鎖等,0,2024-12-17,2024-11-25,３６９コーポレーション株式会社,,株式会社,福岡県,福岡市東区,箱崎１丁目６番１６－２０４号,,40,131,8120053,,,2024-11-25,清算の結了等,,,2015-10-05,1,,,,,ミロクコーポレーション,0
1115,5290001082896,登記記録の閉鎖等,0,2024-12-17,2024-11-25,株式会社エバーグリーン,,株式会社,福岡県,糟屋郡志免町,別府西３丁目１４番１－１０１２号,,40,343,8112232,,,2024-11-25,清算の結了等,,,2018-09-27,1,,,,,エバーグリーン,0
1119,5290005019291,登記記録の閉鎖等,0,2024-12-17,2024-12-03,一般社団法人Ｒｅ．ＳＴＡＲ,,その他の設立登記法人,福岡県,福岡市博多区,石城町７－９,,40,132,8120032,,,2024-12-03,清算の結了等,,,2024-02-08,1,,,,,リスタ,0
1120,5290801023182,登記記録の閉鎖等,0,2024-12-17,2024-12-12,株式会社ウィルコスメ研究所,,株式会社,福岡県,田川郡香春町,大字採銅所１３３４番地２,,40,601,8221401,,,2024-12-12,清算の結了等,,,2017-01-17,1,,,,,,0
1125,5320003000506,登記記録の閉鎖等,0,2024-12-17,2024-12-12,合資会社井手野商店,,合資会社,大分県,別府市,野口元町４番２１号,,44,202,8740933,,,2024-12-12,清算の結了等,,,2015-10-05,1,,,,,,0
1143,5390001011589,登記記録の閉鎖等,0,2024-12-17,2024-12-11,株式会社コラボスター,,株式会社,山形県,米沢市,太田町４丁目１番１２５－１０号,,06,202,9920035,,,2024-12-11,清算の結了等,,,2015-10-05,1,,,,,コラボスター,0
1144,5390002013304,登記記録の閉鎖等,0,2024-12-17,2024-12-11,福田織物工業有限会社,,有限会社,山形県,米沢市,吾妻町５番５７号,,06,202,9920034,,,2024-12-11,清算の結了等,,,2015-10-05,1,,,,,フクダオリモノコウギョウ,0
1146,5410001011231,登記記録の閉鎖等,0,2024-12-17,2024-12-09,ＴＫＳ株式会社,,株式会社,秋田県,大仙市,太田町川口字北川口２５３番地１,,05,212,0191615,,,2024-12-09,清算の結了等,,,2016-06-07,1,,,,,テーケーエス,0
1161,6010001080274,登記記録の閉鎖等,0,2024-12-17,2024-12-10,株式会社グッドナビゲイト,,株式会社,千葉県,浦安市,明海１丁目３番８－３０６号,,12,227,2790014,,,2024-12-10,清算の結了等,,,2015-10-05,1,,,,,グッドナビゲイト,0
1164,6010001145259,登記記録の閉鎖等,0,2024-12-17,2024-12-02,株式会社ファンタバローレ,,株式会社,東京都,港区,六本木１丁目９番１０号,,13,103,1060032,,,2024-12-02,合併による解散等,8010001104205,令和６年１１月３０日東京都港区六本木一丁目９番１０号株式会社サイプレス（8010001104205）に合併し解散,2015-10-05,1,,,,,ファンタバローレ,0
1165,6010001170380,登記記録の閉鎖等,0,2024-12-17,2024-12-10,自然電力アセットマネジメント株式会社,,株式会社,東京都,中央区,日本橋本町２丁目４番７号,,13,102,1030023,,,2024-12-10,合併による解散等,4010001153684,令和６年１１月１日福岡市中央区荒戸一丁目１番６号自然オペレーションズ株式会社（4010001153684）に合併し解散,2015-10-05,1,,,,,シゼンデンリョクアセットマネジメント,0
1168,6010001245249,登記記録の閉鎖等,0,2024-12-17,2024-12-03,株式会社天の門,,株式会社,東京都,中央区,晴海２丁目２番４２－３３１２号,,13,102,1040053,,,2024-12-03,清算の結了等,,,2024-05-29,1,,,,,テンノモン,0
1172,6010003021623,登記記録の閉鎖等,0,2024-12-17,2024-12-03,合同会社かけはし,,合同会社,東京都,千代田区,丸の内３丁目１番１号東京共同会計事務所内,,13,101,1000005,,,2024-12-03,清算の結了等,,,2015-10-05,1,,,,,カケハシ,0
1175,6010003023140,登記記録の閉鎖等,0,2024-12-17,2024-12-03,合同会社つつじ,,合同会社,東京都,千代田区,丸の内３丁目１番１号東京共同会計事務所内,,13,101,1000005,,,2024-12-03,清算の結了等,,,2016-02-29,1,,,,,ツツジ,0
1177,6010003032414,登記記録の閉鎖等,0,2024-12-17,2024-12-03,Ｏｒｓｔｅｄ　ＨｏｌｄＣｏ１合同会社,,合同会社,東京都,千代田区,有楽町１丁目１番２号日比谷三井タワー１２階,,13,101,1000006,,,2024-12-03,清算の結了等,,,2020-06-18,1,,,,,オーステッドホールドコワン,0
1179,6010005035571,登記記録の閉鎖等,0,2024-12-17,2024-12-13,一般社団法人ＤＵＭＳ３,,その他の設立登記法人,東京都,千代田区,丸の内３丁目１番１号東京共同会計事務所内,,13,101,1000005,,,2024-12-13,清算の結了等,,,2022-09-15,1,,,,,ディーユーエムエススリー,0
1181,6010401096837,登記記録の閉鎖等,0,2024-12-17,2024-12-03,フォースワン株式会社,,株式会社,東京都,千代田区,内神田１丁目１５番１１号千代田西井ビル５階,,13,101,1010047,,,2024-12-03,清算の結了等,,,2015-10-05,1,,,,,フォースワン,0
1187,6010401152144,登記記録の閉鎖等,0,2024-12-17,2024-11-29,スパークス・イノベーション・フォー・フューチャー株式会社,,株式会社,東京都,港区,港南１丁目２番７０号品川シーズンテラス,,13,103,1080075,,,2024-11-29,清算の結了等,,,2020-04-10,1,,,,,スパークスイノベーションフォーフューチャー,0
1198,6010801019991,登記記録の閉鎖等,0,2024-12-17,2024-12-02,株式会社エコー,,株式会社,東京都,大田区,大森西６丁目７番１９号,,13,111,1430015,,,2024-12-02,清算の結了等,,,2015-10-05,1,,,,,エコー,0
1206,6011003009212,登記記録の閉鎖等,0,2024-12-17,2024-11-27,イノセントジャパン合同会社,,合同会社,東京都,港区,元麻布３丁目１番６号,,13,103,1060046,,,2024-11-27,清算の結了等,,,2018-09-26,1,,,,,イノセントジャパン,0
1210,6011501001059,登記記録の閉鎖等,0,2024-12-17,2024-12-13,株式会社唐木商店,,株式会社,東京都,北区,十条仲原３丁目１２番３号,,13,117,1140031,,,2024-12-13,清算の結了等,,,2015-10-05,1,,,,,カラキショウテン,0
1216,6011603002392,登記記録の閉鎖等,0,2024-12-17,2024-12-03,合同会社ＫＴラボ,,合同会社,東京都,渋谷区,道玄坂１丁目１０番８号渋谷道玄坂東急ビル２Ｆ－Ｃ,,13,113,1500043,,,2024-12-03,清算の結了等,,,2018-07-23,1,,,,,ケイティーラボ,0
1220,6011703000899,登記記録の閉鎖等,0,2024-12-17,2024-12-11,合同会社春木,,合同会社,東京都,江戸川区,南小岩７丁目２６番２１号地下１階,,13,123,1330056,,,2024-12-11,清算の結了等,,,2015-10-05,1,,,,,ハルキ,0
1229,6020002039491,登記記録の閉鎖等,0,2024-12-17,2024-12-05,有限会社夏目洋品店,,有限会社,神奈川県,横浜市鶴見区,下末吉４丁目２７番１２号,,14,101,2300012,,,2024-12-05,清算の結了等,,,2015-10-05,1,,,,,,0
1231,6021001005014,登記記録の閉鎖等,0,2024-12-17,2024-12-16,株式会社オートパーク,,株式会社,神奈川県,藤沢市,亀井野２０８６番地１,,14,205,2520813,,,2024-12-16,清算の結了等,,,2015-10-05,1,,,,,オートパーク,0
1235,6021002002027,登記記録の閉鎖等,0,2024-12-17,2024-12-12,有限会社相模発条,,有限会社,神奈川県,藤沢市,長後１２１６番地,,14,205,2520801,,,2024-12-12,清算の結了等,,,2015-10-05,1,,,,,サガミハツジョウ,0
1238,6021003014731,登記記録の閉鎖等,0,2024-12-17,2024-12-16,合同会社アバヨ,,合同会社,神奈川県,三浦市,三崎町諸磯１２３７番地１４,,14,210,2380224,,,2024-12-16,清算の結了等,,,2024-07-05,1,,,,,アバヨ,0
1249,6040002050075,登記記録の閉鎖等,0,2024-12-17,2024-12-09,有限会社ワイズハウス,,有限会社,千葉県,松戸市,秋山３７１番地の２８,,12,207,2702223,,,2024-12-09,清算の結了等,,,2015-10-05,1,,,,,ワイズハウス,0
1266,6080005006946,登記記録の閉鎖等,0,2024-12-17,2024-12-11,一般社団法人牧之原技能実習生研修センター,,その他の設立登記法人,静岡県,牧之原市,細江５８７番地６,,22,226,4210421,,,2024-12-11,清算の結了等,,,2017-03-07,1,,,,,マキノハラギノウジッシュウセイケンシュウセンター,0
1270,6090002012285,登記記録の閉鎖等,0,2024-12-17,2024-12-06,有限会社テキスタイルフジ,,有限会社,山梨県,富士吉田市,下吉田２丁目３１番２４号,,19,202,4030004,,,2024-12-06,清算の結了等,,,2015-10-05,1,,,,,テキスタイルフジ,0
1276,6110002034640,登記記録の閉鎖等,0,2024-12-17,2024-12-11,有限会社フューチャー,,有限会社,新潟県,佐渡市,河原田本町３７９番地,,15,224,9521314,,,2024-12-11,清算の結了等,,,2015-10-05,1,,,,,フューチャー,0
1292,6120002007595,登記記録の閉鎖等,0,2024-12-17,2024-12-13,有限会社青山畳商店,,有限会社,大阪府,大阪市城東区,今福西３丁目４番１４号,,27,118,5360004,,,2024-12-13,清算の結了等,,,2015-10-05,1,,,,,アオヤマタタミショウテン,0
1298,6120901045241,登記記録の閉鎖等,0,2024-12-17,2024-12-10,アオスカイファーム株式会社,,株式会社,大阪府,箕面市,粟生間谷東７丁目１７番１７号,,27,220,5620022,,,2024-12-10,清算の結了等,,,2021-11-22,1,,,,,アオスカイファーム,0
1303,6122003002179,登記記録の閉鎖等,0,2024-12-17,2024-12-12,合同会社ａｎｏｎｅ,,合同会社,大阪府,東大阪市,高井田元町２丁目９番２１―１０３号,,27,227,5770054,,,2024-12-12,清算の結了等,,,2021-09-17,1,,,,,アノネ,0
1306,6130002034804,登記記録の閉鎖等,0,2024-12-17,2024-12-12,有限会社らびあん,,有限会社,京都府,舞鶴市,字伊佐津３６４番地,,26,202,6240816,,,2024-12-12,清算の結了等,,,2015-10-05,1,,,,,ラビアン,0
1316,6140002035280,登記記録の閉鎖等,0,2024-12-17,2024-12-06,有限会社新井産業,,有限会社,兵庫県,加古川市,尾上町池田８５番地の５,,28,210,6750023,,,2024-12-06,清算の結了等,,,2015-10-05,1,,,,,アライサンギョウ,0
1317,6140005021798,登記記録の閉鎖等,0,2024-12-17,2024-12-12,一般財団法人顕至院福祉文化財団,,その他の設立登記法人,兵庫県,伊丹市,中野西１丁目７番地５,,28,207,6640023,,,2024-12-12,清算の結了等,,,2015-10-05,1,,,,,ケンシンインフクシブンカザイダン,0
1320,6160002007154,登記記録の閉鎖等,0,2024-12-17,2024-12-16,有限会社両輪産業,,有限会社,滋賀県,長浜市,宮部町１０６０番地,,25,203,5290112,,,2024-12-16,清算の結了等,,,2015-10-05,1,,,,,リョウワサンギョウ,0
1322,6170001006288,登記記録の閉鎖等,0,2024-12-17,2024-12-16,きのくにテック株式会社,,株式会社,和歌山県,和歌山市,本渡６０７番地,,30,201,6400324,,,2024-12-16,清算の結了等,,,2015-10-05,1,,,,,キノクニテック,0
1332,6180002051588,登記記録の閉鎖等,0,2024-12-17,2024-12-10,有限会社ヒロ・マルイチ,,有限会社,愛知県,一宮市,木曽川町里小牧字砂越２６番地,,23,203,4930005,,,2024-12-10,清算の結了等,,,2015-10-05,1,,,,,ヒロマルイチ,0
1343,6220001012280,登記記録の閉鎖等,0,2024-12-17,2024-12-09,株式会社にしき堂,,株式会社,石川県,小松市,問屋町３５番地,,17,203,9230037,,,2024-12-09,合併による解散等,9220001004894,令和６年９月１日石川県金沢市古府一丁目６０番地株式会社にしき堂（9220001004894）に合併し解散,2015-10-05,1,,,,,ニシキドウ,0
1350,6240002030321,登記記録の閉鎖等,0,2024-12-17,2024-12-12,有限会社藤井組,,有限会社,広島県,三次市,粟屋町１２７５番地の２,,34,209,7280025,,,2024-12-12,清算の結了等,,,2015-10-05,1,,,,,フジイグミ,0
1352,6260001035154,登記記録の閉鎖等,0,2024-12-17,2024-12-09,株式会社西生会,,株式会社,岡山県,笠岡市,小平井２０３９番地２,,33,205,7140012,,,2024-12-09,清算の結了等,,,2021-01-26,1,,,,,セイショウカイ,0
1355,6260005008156,登記記録の閉鎖等,0,2024-12-17,2024-12-11,医療法人大智会,,その他の設立登記法人,岡山県,玉野市,田井４丁目１番１９号,,33,204,7060001,,,2024-12-11,清算の結了等,,,2015-10-05,1,,,,,ダイチカイ,0
1365,6290002018725,登記記録の閉鎖等,0,2024-12-17,2024-11-22,有限会社加藤商店,,有限会社,福岡県,那珂川市,王塚台２丁目３４４番地,,40,231,8111221,,,2024-11-22,清算の結了等,,,2015-10-05,1,,,,,カトウショウテン,0
1392,6430001086394,登記記録の閉鎖等,0,2024-12-17,2024-12-12,株式会社Ｂｅｅｔｒｕｓｔ,,株式会社,北海道,札幌市豊平区,豊平三条９丁目３番１０号,,01,105,0620903,,,2024-12-12,清算の結了等,,,2022-04-08,1,,,,,ビートラスト,0
1397,6430005010144,登記記録の閉鎖等,0,2024-12-17,2024-12-13,医療法人社団白鳥台医院,,その他の設立登記法人,北海道,室蘭市,白鳥台５丁目３番１４号,,01,205,0500054,,,2024-12-13,清算の結了等,,,2015-10-05,1,,,,,ハクチョウダイイイン,0
1399,6450002003157,登記記録の閉鎖等,0,2024-12-17,2024-12-12,有限会社第一マルサン商事,,有限会社,北海道,旭川市,一条通５丁目右１０号,,01,204,0700031,,,2024-12-12,清算の結了等,,,2015-10-05,1,,,,,ダイイチマルサンショウジ,0
1403,6490005002152,登記記録の閉鎖等,0,2024-12-17,2024-12-09,社会福祉法人あしずり会,,その他の設立登記法人,高知県,土佐清水市,浦尻４５２番地,,39,209,7870310,,,2024-12-09,清算の結了等,,,2015-10-05,1,,,,,アシズリカイ,0
1409,7010001210284,登記記録の閉鎖等,0,2024-12-17,2024-12-03,Ｏｒｓｔｅｄ　ＨｏｌｄＣｏ３合同会社,,合同会社,東京都,千代田区,有楽町１丁目１番２号日比谷三井タワー１２階,,13,101,1000006,,,2024-12-03,清算の結了等,,,2020-06-16,1,,,,,オーステッドホールドコスリー,0
1412,7010001241718,登記記録の閉鎖等,0,2024-12-17,2024-12-04,ＰＯＷＥＲ　ＯＮ株式会社,,株式会社,東京都,中央区,日本橋１丁目２－１０東洋ビル３０３,,13,102,1030027,,,2024-12-04,清算の結了等,,,2024-01-31,1,,,,,パワーオン,0
1418,7010401039646,登記記録の閉鎖等,0,2024-12-17,2024-11-28,株式会社ウェブクウ,,株式会社,東京都,港区,南青山５丁目１０番５号,,13,103,1070062,,,2024-11-28,清算の結了等,,,2015-10-05,1,,,,,ウェブクウ,0
1420,7010401084295,登記記録の閉鎖等,0,2024-12-17,2024-12-11,株式会社いとわくす,,株式会社,東京都,世田谷区,赤堤３丁目２７番１０号,,13,112,1560044,,,2024-12-11,清算の結了等,,,2015-10-05,1,,,,,イトワクス,0
1425,7010401161152,登記記録の閉鎖等,0,2024-12-17,2024-12-02,株式会社アスパラントグループＳＰＣ９号,,株式会社,東京都,港区,赤坂２丁目２３番１号,,13,103,1070052,,,2024-12-02,合併による解散等,1010001147706,令和６年１２月１日東京都港区芝公園二丁目６番１５号興人フィルム＆ケミカルズ株式会社（1010001147706）に合併し解散,2021-06-28,1,,,,,アスパラントグループエスピーシーキュウゴウ,0
1443,7011101043186,登記記録の閉鎖等,0,2024-12-17,2024-12-04,株式会社ヒューネル,,株式会社,東京都,文京区,小石川２丁目１番２号,,13,105,1120002,,,2024-12-04,清算の結了等,,,2015-10-05,1,,,,,ヒューネル,0
1456,7013301028462,登記記録の閉鎖等,0,2024-12-17,2024-12-10,株式会社保険のｇｉｆｔ,,株式会社,東京都,足立区,伊興１丁目２４番２５号,,13,121,1210823,,,2024-12-10,清算の結了等,,,2015-10-05,1,,,,,ホケンノギフト,0
1461,7020002036892,登記記録の閉鎖等,0,2024-12-17,2024-12-05,有限会社新井,,有限会社,神奈川県,横浜市鶴見区,東寺尾北台６番１３号,,14,101,2300016,,,2024-12-05,清算の結了等,,,2015-10-05,1,,,,,アライ,0
1466,7020005008518,登記記録の閉鎖等,0,2024-12-17,2024-12-06,特定非営利活動法人まちの灯,,その他の設立登記法人,神奈川県,川崎市宮前区,宮崎５丁目４番地１５,,14,136,2160033,,,2024-12-06,清算の結了等,,,2015-10-05,1,,,,,マチノヒ,0
1496,7070002015818,登記記録の閉鎖等,0,2024-12-17,2024-12-16,有限会社加ば沢,,有限会社,群馬県,高崎市,大沢町８９番地１,,10,202,3700012,,,2024-12-16,清算の結了等,,,2015-10-05,1,,,,,カバサワ,0
1522,7120001240064,登記記録の閉鎖等,0,2024-12-17,2024-12-16,株式会社登竜門,,株式会社,大阪府,大阪市中央区,内本町２丁目３番８号ダイアパレスビル本町４０６号室,,27,128,5400026,,,2024-12-16,清算の結了等,,,2021-09-01,1,,,,,トウリュウモン,0
1527,7120003017576,登記記録の閉鎖等,0,2024-12-17,2024-12-12,みんなの相続合同会社,,合同会社,大阪府,大阪市天王寺区,堀越町７番１９号ラルテ天王寺１階,,27,109,5430056,,,2024-12-12,清算の結了等,,,2020-06-10,1,,,,,ミンナノソウゾク,0
1530,7120101030786,登記記録の閉鎖等,0,2024-12-17,2024-12-16,極東フッソ産業株式会社,,株式会社,大阪府,富田林市,藤沢台６丁目９番３号,,27,214,5840071,,,2024-12-16,清算の結了等,,,2015-10-05,1,,,,,キョクトウフッソサンギョウ,0
1535,7120901015177,登記記録の閉鎖等,0,2024-12-17,2024-12-11,株式会社グレイスタイム,,株式会社,大阪府,三島郡島本町,山崎１丁目４－１８,,27,301,6180001,,,2024-12-11,清算の結了等,,,2015-10-05,1,,,,,グレイスタイム,0
1538,7120902008592,登記記録の閉鎖等,0,2024-12-17,2024-12-11,コーソー・アートサイン有限会社,,有限会社,大阪府,摂津市,千里丘東４丁目１１番１８号,,27,224,5660011,,,2024-12-11,清算の結了等,,,2015-10-05,1,,,,,コーソーアートサイン,0
1547,7130002029217,登記記録の閉鎖等,0,2024-12-17,2024-12-13,有限会社山本乳販,,有限会社,京都府,亀岡市,大井町かすみケ丘１９番１１号,,26,206,6210012,,,2024-12-13,清算の結了等,,,2015-10-05,1,,,,,ヤマモトニュウハン,0
1575,7180003025417,登記記録の閉鎖等,0,2024-12-17,2024-12-09,Ｏｃｔｏｐｕｓ合同会社,,合同会社,愛知県,一宮市,三ツ井５丁目１０番２９号,,23,203,4910827,,,2024-12-09,清算の結了等,,,2023-07-03,1,,,,,オクトパス,0
1601,7290002041635,登記記録の閉鎖等,0,2024-12-17,2024-11-22,エスピーシンカイ有限会社,,有限会社,福岡県,筑紫野市,紫６丁目２５番２４号,,40,217,8180061,,,2024-11-22,清算の結了等,,,2015-10-05,1,,,,,エスピーシンカイ,0
1604,7290803004352,登記記録の閉鎖等,0,2024-12-17,2024-12-12,ＪｕｎＺｈｅ合同会社,,合同会社,福岡県,田川郡添田町,大字添田２２１２番地,,40,602,8240602,,,2024-12-12,清算の結了等,,,2023-03-01,1,,,,,ジュンズゥ,0
1606,7290805004557,登記記録の閉鎖等,0,2024-12-17,2024-12-05,特定非営利活動法人福岡全自同人権国民会議,,その他の設立登記法人,福岡県,北九州市八幡西区,三ケ森２丁目１０番１０－２０２号,,40,109,8070843,,,2024-12-05,清算の結了等,,,2015-10-05,1,,,,,フクオカゼンジドウジンケンコクミンカイギ,0
1610,7320001001941,登記記録の閉鎖等,0,2024-12-17,2024-12-13,株式会社東和教育企画,,株式会社,大分県,大分市,大字上宗方１０６１番地の２,,44,201,8701152,,,2024-12-13,清算の結了等,,,2015-10-05,1,,,,,トウワキョウイクキカク,0
1616,7340002023223,登記記録の閉鎖等,0,2024-12-17,2024-12-11,有限会社保険センターいずみ,,有限会社,鹿児島県,出水市,高尾野町下高尾野４０１番地４,,46,208,8990404,,,2024-12-11,清算の結了等,,,2015-10-05,1,,,,,ホケンセンターイズミ,0
1618,7350002015987,登記記録の閉鎖等,0,2024-12-17,2024-12-10,有限会社新栄技術コンサルタント,,有限会社,宮崎県,都城市,太郎坊町７７０４番地３,,45,202,8850002,,,2024-12-10,清算の結了等,,,2015-10-05,1,,,,,シンエイギジュツコンサルタント,0
1623,7370005008854,登記記録の閉鎖等,0,2024-12-17,2024-12-09,一般社団法人音楽のある暮らしを,,その他の設立登記法人,宮城県,仙台市青葉区,愛子中央５丁目３番１０号グランドール広瀬５０７号,,04,101,9893128,,,2024-12-09,清算の結了等,,,2015-10-16,1,,,,,オンガクノアルクラシヲ,0
1627,7370802001053,登記記録の閉鎖等,0,2024-12-17,2024-12-09,有限会社ファースト,,有限会社,宮城県,岩沼市,末広１丁目４番１５号,,04,211,9892426,,,2024-12-09,清算の結了等,,,2015-10-05,1,,,,,ファースト,0
1629,7380001032592,登記記録の閉鎖等,0,2024-12-17,2024-12-05,株式会社甲斐設計,,株式会社,福島県,郡山市,富田町字矢ノ根石４０番地の３,,07,203,9638041,,,2024-12-05,清算の結了等,,,2022-02-22,1,,,,,カイセッケイ,0
1636,7400602000961,登記記録の閉鎖等,0,2024-12-17,2024-12-06,有限会社佐勝,,有限会社,岩手県,奥州市,江刺川原町３番１１号,,03,215,0231114,,,2024-12-06,清算の結了等,,,2015-10-05,1,,,,,サカツ,0
1654,8010001233648,登記記録の閉鎖等,0,2024-12-17,2024-12-02,ＩＴＦホールディングス株式会社,,株式会社,東京都,千代田区,平河町２丁目１６番９号永田町グラスゲート６階ＡＣＡ株式会社内,,13,101,1020093,,,2024-12-02,合併による解散等,2030001061557,令和６年１２月１日東京都千代田区外神田四丁目１４番１号秋葉原ＵＤＸ４Ｆ・ＬＩＦＯＲＫ秋葉原株式会社アイティエフ（2030001061557）に合併し解散,2023-03-10,1,,,,,アイティエフホールディングス,0
1667,8010802012011,登記記録の閉鎖等,0,2024-12-17,2024-12-09,有限会社瞳光機製作所,,有限会社,東京都,大田区,南雪谷５丁目１７番１７号,,13,111,1450066,,,2024-12-09,清算の結了等,,,2015-10-05,1,,,,,ヒトミコウキセイサクショ,0
1671,8011001059752,登記記録の閉鎖等,0,2024-12-17,2024-12-03,イグニス・イメージワークス株式会社,,株式会社,東京都,渋谷区,恵比寿１丁目２１番３号,,13,113,1500013,,,2024-12-03,合併による解散等,5011001033280,令和６年１２月１日東京都渋谷区恵比寿一丁目２１番３号シリコンスタジオ株式会社（5011001033280）に合併し解散,2015-10-05,1,,,,,イグニスイメージワークス,0
1682,8011401016758,登記記録の閉鎖等,0,2024-12-17,2024-12-02,株式会社クラビス,,株式会社,東京都,港区,芝浦３丁目１番２１号,,13,103,1080023,,,2024-12-02,合併による解散等,6011101063359,令和６年１２月１日東京都港区芝浦三丁目１番２１号ｍｓｂＴａｍａｃｈｉ田町ステーションタワーＳ２１階株式会社マネーフォワード（6011101063359）に合併し解散,2015-10-05,1,,,,,クラビス,0
1683,8011502004760,登記記録の閉鎖等,0,2024-12-17,2024-12-12,有限会社馬場商事不動産部,,有限会社,東京都,北区,王子１丁目６番１１－１０１号,,13,117,1140002,,,2024-12-12,清算の結了等,,,2015-10-05,1,,,,,ババショウジフドウサンブ,0
1686,8011701003316,登記記録の閉鎖等,0,2024-12-17,2024-12-11,三葛商事株式会社,,株式会社,東京都,江戸川区,西葛西６丁目１３番１６号,,13,123,1340088,,,2024-12-11,清算の結了等,,,2015-10-05,1,,,,,ミカツショウジ,0
1703,8020001118930,登記記録の閉鎖等,0,2024-12-17,2024-12-05,株式会社Ｊ．Ｂカンパニー,,株式会社,神奈川県,横浜市戸塚区,吉田町１３７１番地５サンクタス戸塚ラフィーネ１０２号,,14,110,2440817,,,2024-12-05,清算の結了等,,,2016-12-02,1,,,,,ジェイビーカンパニー,0
1708,8020002012224,登記記録の閉鎖等,0,2024-12-17,2024-12-05,有限会社巧建設,,有限会社,神奈川県,横浜市戸塚区,舞岡町３３８２番地１９,,14,110,2440813,,,2024-12-05,清算の結了等,,,2015-10-05,1,,,,,タクミケンセツ,0
1727,8040002037252,登記記録の閉鎖等,0,2024-12-17,2024-12-09,有限会社吉田工業,,有限会社,千葉県,市川市,南行徳２丁目２１番９号,,12,203,2720138,,,2024-12-09,清算の結了等,,,2015-10-05,1,,,,,ヨシダコウギョウ,0
1733,8070001011701,登記記録の閉鎖等,0,2024-12-17,2024-12-16,株式会社上田公益社,,株式会社,群馬県,富岡市,七日市９１１番地,,10,210,3702343,,,2024-12-16,清算の結了等,,,2015-10-05,1,,,,,ウエダコウエキシャ,0
1734,8070002019974,登記記録の閉鎖等,0,2024-12-17,2024-12-16,有限会社横堀電機製作所,,有限会社,群馬県,伊勢崎市,波志江町１０４６番地６,,10,204,3720001,,,2024-12-16,清算の結了等,,,2015-10-05,1,,,,,ヨコボリデンキセサクショ,0
1744,8100002009831,登記記録の閉鎖等,0,2024-12-17,2024-12-12,有限会社フジ商事,,有限会社,長野県,千曲市,大字須坂５１４番地５,,20,218,3890811,,,2024-12-12,清算の結了等,,,2015-10-05,1,,,,,フジショウジ,0
1748,8120001008361,登記記録の閉鎖等,0,2024-12-17,2024-12-12,株式会社長谷川建設興業,,株式会社,大阪府,大阪市北区,長柄中１丁目６番１７号,,27,127,5310062,,,2024-12-12,清算の結了等,,,2015-10-05,1,,,,,ハセガワケンセツコウギョウ,0
1760,8120101004962,登記記録の閉鎖等,0,2024-12-17,2024-12-12,北田電機商会株式会社,,株式会社,大阪府,堺市北区,百舌鳥西之町１丁８６番地,,27,146,5918033,,,2024-12-12,清算の結了等,,,2015-10-05,1,,,,,キタダデンキショウカイ,0
1768,8130003004969,登記記録の閉鎖等,0,2024-12-17,2024-12-13,合同会社Ｋ・Ｒ,,合同会社,京都府,宇治市,五ケ庄広岡谷２番地の５６０,,26,204,6110011,,,2024-12-13,清算の結了等,,,2017-03-16,1,,,,,ケーアール,0
1801,8180003019087,登記記録の閉鎖等,0,2024-12-17,2024-12-09,合同会社ＭＹＬ,,合同会社,愛知県,名古屋市天白区,池場４丁目１５０５番地,,23,116,4680055,,,2024-12-09,清算の結了等,,,2018-07-05,1,,,,,エムワイエル,0
1812,8250001016764,登記記録の閉鎖等,0,2024-12-17,2024-12-13,株式会社彩蔵不動産,,株式会社,山口県,下関市,武久町２丁目１番１５号,,35,201,7510833,,,2024-12-13,清算の結了等,,,2017-08-23,1,,,,,,0
1814,8260001021466,登記記録の閉鎖等,0,2024-12-17,2024-12-09,アサヒ炉材株式会社,,株式会社,岡山県,備前市,野谷５０番地,,33,211,7050131,,,2024-12-09,清算の結了等,,,2015-10-05,1,,,,,アサヒチクロ,0
1831,8290801000501,登記記録の閉鎖等,0,2024-12-17,2024-12-16,株式会社小田冷凍工業,,株式会社,福岡県,北九州市戸畑区,東大谷１丁目８番３８号,,40,105,8040031,,,2024-12-16,清算の結了等,,,2015-10-05,1,,,,,オダレイトウコウギョウ,0
1835,8290801020177,登記記録の閉鎖等,0,2024-12-17,2024-12-11,株式会社Ｈｅａｔ　Ｗａｖｅ,,株式会社,福岡県,遠賀郡遠賀町,大字鬼津１６８７番地の１,,40,384,8114341,,,2024-12-11,清算の結了等,,,2015-10-05,1,,,,,ヒートウェーブ,0
1841,8330002000726,登記記録の閉鎖等,0,2024-12-17,2024-12-11,有限会社出水グリーンコーポ,,有限会社,熊本県,熊本市中央区,出水５丁目７番８号,,43,101,8620941,,,2024-12-11,清算の結了等,,,2015-10-05,1,,,,,イズミグリーンコーポ,0
1844,8340001008645,登記記録の閉鎖等,0,2024-12-17,2024-12-12,株式会社白亜産業,,株式会社,鹿児島県,薩摩川内市,上川内町２９１０番地１,,46,215,8950067,,,2024-12-12,清算の結了等,,,2015-10-05,1,,,,,ハクアサンギョウ,0
1852,8360002007850,登記記録の閉鎖等,0,2024-12-17,2024-12-13,有限会社セイスイ,,有限会社,沖縄県,那覇市,泉崎２丁目１０５番地１ライオンズプラザハーバービュー１００２,,47,201,9000021,,,2024-12-13,清算の結了等,,,2015-10-05,1,,,,,,0
1860,8390002013193,登記記録の閉鎖等,0,2024-12-17,2024-12-10,有限会社中島モータース,,有限会社,山形県,米沢市,大字長手１１０８番地の１,,06,202,9920113,,,2024-12-10,清算の結了等,,,2015-10-05,1,,,,,ナカジマモータース,0
1868,8430002056320,登記記録の閉鎖等,0,2024-12-17,2024-12-11,有限会社笠沼冷機,,有限会社,北海道,古平郡古平町,大字浜町２８４番地２,,01,406,0460121,,,2024-12-11,清算の結了等,,,2015-10-05,1,,,,,カサヌマレイキ,0
1870,8460005000405,登記記録の閉鎖等,0,2024-12-17,2024-12-16,医療法人社団パール歯科医院,,その他の設立登記法人,北海道,釧路市,星が浦大通２丁目８番６号,,01,206,0840912,,,2024-12-16,清算の結了等,,,2015-10-05,1,,,,,パールシカイイン,0
1871,8460301000109,登記記録の閉鎖等,0,2024-12-17,2024-12-16,エル・エス・アイ北海道株式会社,,株式会社,北海道,北見市,南丘２５３番地の１,,01,208,0991581,,,2024-12-16,清算の結了等,,,2015-10-05,1,,,,,エルエスアイホッカイドウ,0
1873,8500001017233,登記記録の閉鎖等,0,2024-12-17,2024-12-04,極洋フィードワンマリン株式会社,,株式会社,神奈川県,横浜市神奈川区,鶴屋町２丁目２３番地２,,14,102,2210835,,,2024-12-04,清算の結了等,,,2015-10-05,1,,,,,キョクヨウフィードワンマリン,0
1874,9010001030904,登記記録の閉鎖等,0,2024-12-17,2024-12-03,株式会社モトブン,,株式会社,東京都,千代田区,一番町１５番６号コープ野村一番町１０３,,13,101,1020082,,,2024-12-03,清算の結了等,,,2015-10-05,1,,,,,モトブン,0
1880,9010001225784,登記記録の閉鎖等,0,2024-12-17,2024-12-04,Ｅｓｔｒｅｌａｓ株式会社,,株式会社,東京都,千代田区,神田紺屋町４４イーストビル３Ｆ,,13,101,1010035,,,2024-12-04,清算の結了等,,,2022-04-15,1,,,,,エストレーラス,0
1882,9010002001615,登記記録の閉鎖等,0,2024-12-17,2024-12-02,有限会社亀ノ湯,,有限会社,東京都,文京区,関口１丁目６番１２号,,13,105,1120014,,,2024-12-02,清算の結了等,,,2015-10-05,1,,,,,カメノユ,0
1890,9010401130287,登記記録の閉鎖等,0,2024-12-17,2024-11-22,株式会社ＦＡＭ,,株式会社,東京都,港区,芝浦４丁目１９番１－４４１６号,,13,103,1080023,,,2024-11-22,清算の結了等,,,2017-03-14,1,,,,,ファム,0
1897,9010601051374,登記記録の閉鎖等,0,2024-12-17,2024-12-13,キャナルグローブ株式会社,,株式会社,東京都,江東区,豊洲１丁目１番１号,,13,108,1350061,,,2024-12-13,合併による解散等,2010601029542,令和６年１２月１日東京都江東区豊洲一丁目１番１号ＢＩＰＲＯＧＹ株式会社（2010601029542）に合併し解散,2017-04-07,1,,,,,キャナルグローブ,0
1903,9010901039391,登記記録の閉鎖等,0,2024-12-17,2024-12-11,株式会社ＲＣＡＭＰ,,株式会社,東京都,世田谷区,梅丘２丁目２３番３２号,,13,112,1540022,,,2024-12-11,清算の結了等,,,2017-01-16,1,,,,,アールキャンプ,0
1916,9011502005097,登記記録の閉鎖等,0,2024-12-17,2024-12-12,有限会社フォンターナ泉,,有限会社,東京都,北区,滝野川６丁目７番２－１０１号,,13,117,1140023,,,2024-12-12,清算の結了等,,,2015-10-05,1,,,,,フォンターナイズミ,0
1922,9012301006245,登記記録の閉鎖等,0,2024-12-17,2024-11-27,サン・トランス株式会社,,株式会社,東京都,千代田区,東神田１丁目４番８号,,13,101,1010031,,,2024-11-27,清算の結了等,,,2015-10-05,1,,,,,サントランス,0
1926,9012402000056,登記記録の閉鎖等,0,2024-12-17,2024-12-13,有限会社アイコーフーズ,,有限会社,東京都,府中市,宮西町５丁目２５番地の１,,13,206,1830022,,,2024-12-13,清算の結了等,,,2015-10-05,1,,,,,アイコーフーズ,0
1929,9012405004533,登記記録の閉鎖等,0,2024-12-17,2024-12-12,一般社団法人Ｔｅｒａｃｃｏｌｌｅｃｔｉｖｅ,,その他の設立登記法人,東京都,武蔵野市,吉祥寺東町１丁目８番７号,,13,203,1800002,,,2024-12-12,清算の結了等,,,2020-12-15,1,,,,,テラッコレクティブ,0
1930,9012701017478,登記記録の閉鎖等,0,2024-12-17,2024-12-03,株式会社ＳＳＰ,,株式会社,東京都,清瀬市,元町２丁目６番１７号,,13,221,2040021,,,2024-12-03,清算の結了等,,,2023-02-09,1,,,,,エスエスピー,0
1935,9020001141221,登記記録の閉鎖等,0,2024-12-17,2024-12-06,株式会社ベイサイド通信,,株式会社,神奈川県,横浜市中区,不老町１丁目２番地１,,14,104,2310032,,,2024-12-06,清算の結了等,,,2021-05-11,1,,,,,ベイサイドツウシン,0
1946,9030001010210,登記記録の閉鎖等,0,2024-12-17,2024-12-11,株式会社ジャイブ,,株式会社,埼玉県,さいたま市見沼区,大字中川１０１５番地１２,,11,104,3370043,,,2024-12-11,清算の結了等,,,2015-10-05,1,,,,,ジャイブ,0
1954,9040001072142,登記記録の閉鎖等,0,2024-12-17,2024-12-09,ウイル企画株式会社,,株式会社,千葉県,野田市,三ツ堀９８８番地の１２,,12,208,2780011,,,2024-12-09,清算の結了等,,,2015-10-05,1,,,,,ウイルキカク,0
1968,9080001026045,登記記録の閉鎖等,0,2024-12-17,2024-12-13,エスワイ１号株式会社,,株式会社,静岡県,静岡市清水区,草薙北２番１号,,22,103,4240883,,,2024-12-13,合併による解散等,4130001039112,令和６年１１月３０日京都府八幡市上津屋中堤１５１番地株式会社カンサイロジック（4130001039112）に合併し解散,2023-12-22,1,,,,,エスワイイチゴウ,0
1973,9090002013529,登記記録の閉鎖等,0,2024-12-17,2024-12-05,有限会社オノ,,有限会社,山梨県,韮崎市,若宮２丁目６番１５号,,19,207,4070015,,,2024-12-05,清算の結了等,,,2015-10-05,1,,,,,オノ,0
1974,9090003000311,登記記録の閉鎖等,0,2024-12-17,2024-12-11,合資会社エレフ,,合資会社,山梨県,山梨市,上神内川１６７８番地メガドーム・サトウ１階,,19,205,4050018,,,2024-12-11,清算の結了等,,,2015-10-05,1,,,,,エレフ,0
1976,9090005002099,登記記録の閉鎖等,0,2024-12-17,2024-12-11,寳正院,,その他の設立登記法人,山梨県,南アルプス市,湯沢１０１９番地,,19,208,4000425,,,2024-12-11,清算の結了等,,,2015-10-05,1,,,,,ホウショウイン,0
2008,9122001027431,登記記録の閉鎖等,0,2024-12-17,2024-12-11,ウェブアドバンス株式会社,,株式会社,大阪府,東大阪市,新池島町１丁目６番１１号,,27,227,5798065,,,2024-12-11,清算の結了等,,,2015-10-05,1,,,,,ウェブアドバンス,0
2012,9140001106179,登記記録の閉鎖等,0,2024-12-17,2024-12-02,株式会社Ｓｈｅ　Ｄｏｃｉｌｅ　Ｍｉｃｈａｅｌ,,株式会社,兵庫県,神戸市須磨区,潮見台町１丁目５番６－３１２号,,28,107,6540075,,,2024-12-02,清算の結了等,,,2017-05-17,1,,,,,シードシルマイケル,0
2013,9140002042381,登記記録の閉鎖等,0,2024-12-17,2024-12-12,有限会社藤岡建設,,有限会社,兵庫県,尼崎市,名神町３丁目１１番２０号,,28,202,6610021,,,2024-12-12,清算の結了等,,,2015-10-05,1,,,,,フジオカケンセツ,0
2023,9180001070396,登記記録の閉鎖等,0,2024-12-17,2024-12-11,ＫＢツヅキホールディングス株式会社,,株式会社,愛知県,名古屋市中区,栄３丁目１１番３１号,,23,106,4600008,,,2024-12-11,清算の結了等,,,2015-10-05,1,,,,,ケイビーツヅキホールディングス,0
2034,9180002025770,登記記録の閉鎖等,0,2024-12-17,2024-12-06,有限会社山平絞店,,有限会社,愛知県,名古屋市緑区,大高町字北鶴田５４番地,,23,114,4598001,,,2024-12-06,清算の結了等,,,2015-10-05,1,,,,,ヤマヘイシボリテン,0
2038,9180002055371,登記記録の閉鎖等,0,2024-12-17,2024-12-09,加藤鉄工有限会社,,有限会社,愛知県,名古屋市瑞穂区,堀田通８丁目１９番地プレサンスロジェ堀田駅前６０５号,,23,108,4670862,,,2024-12-09,清算の結了等,,,2015-10-05,1,,,,,カトウテッコウ,0
2044,9190001014063,登記記録の閉鎖等,0,2024-12-17,2024-12-13,エルジーエー株式会社,,株式会社,三重県,度会郡玉城町,日向６４番地１０,,24,461,5190405,,,2024-12-13,清算の結了等,,,2015-10-05,1,,,,,,0
2053,9240002042660,登記記録の閉鎖等,0,2024-12-17,2024-12-09,有限会社福春不動産,,有限会社,広島県,福山市,東川口町４丁目１番５２号,,34,207,7200821,,,2024-12-09,清算の結了等,,,2015-10-05,1,,,,,フクハルフドウサン,0
2063,9290001078651,登記記録の閉鎖等,0,2024-12-17,2024-12-12,株式会社天山,,株式会社,広島県,広島市中区,舟入町５番２３号,,34,101,7300841,,,2024-12-12,清算の結了等,,,2017-08-04,1,,,,,テンザン,0
2073,9290802015340,登記記録の閉鎖等,0,2024-12-17,2024-12-09,有限会社丸昇建設,,有限会社,福岡県,北九州市八幡西区,紅梅１丁目６番１２－２０５号,,40,109,8060011,,,2024-12-09,合併による解散等,8290801008503,令和６年１２月８日北九州市小倉北区大門一丁目３番４号２階大石地所株式会社（8290801008503）に合併し解散,2015-10-05,1,,,,,,0
2078,9310002015188,登記記録の閉鎖等,0,2024-12-17,2024-12-13,有限会社貞包建設,,有限会社,長崎県,諫早市,長田町２１０番地,,42,204,8590301,,,2024-12-13,清算の結了等,,,2015-10-05,1,,,,,サダカネケンセツ,0
2095,9390002011139,登記記録の閉鎖等,0,2024-12-17,2024-12-10,中島林業有限会社,,有限会社,山形県,最上郡大蔵村,大字南山７５３番地の５,,06,365,9960201,,,2024-12-10,清算の結了等,,,2015-10-05,1,,,,,ナカジマリンギョウ,0
2108,9500001019204,登記記録の閉鎖等,0,2024-12-17,2024-12-13,株式会社テンプロム,,株式会社,茨城県,つくば市,吾妻１丁目５－７ダイワロイネットホテルつくばビル２Ｆ,,08,220,3050031,,,2024-12-13,合併による解散等,7020001128113,令和６年９月１０日神奈川県横浜市西区みなとみらい３－７－１オーシャンゲートみなとみらい８階株式会社物販総合研究所（7020001128113）に合併し解散,2015-10-05,1,,,,,テンプロム,0
2110,9500002011291,登記記録の閉鎖等,0,2024-12-17,2024-12-09,有限会社ふれあいサービス,,有限会社,愛媛県,伊予郡砥部町,川井３１７番地１,,38,402,7912123,,,2024-12-09,清算の結了等,,,2015-10-05,1,,,,,フレアイサービス,0
