sequenceNumber,corporateNumber,process,correct,updateDate,changeDate,name,nameImageId,kind,prefectureName,cityName,streetNumber,addressImageId,prefectureCode,cityCode,postCode,addressOutside,addressOutsideImageId,closeDate,closeCause,successorCorporateNumber,changeCause,assignmentDate,latest,enName,enPrefectureName,enCityName,enAddressOutside,furigana,hihyoji
14,1010003037624,新規,0,2022-05-13,2022-05-13,輪島市山是清農場風力発電合同会社,,合同会社,東京都,文京区,本郷５丁目３３番１０号,,13,105,1130033,,,,,,,2022-05-13,1,,,,,ワジマシヤマコレキヨノウジョウフウリョクハツデン,0
18,1010005035007,新規,0,2022-05-13,2022-05-13,一般社団法人毛穴の匠・エクストラクション協会,,その他の設立登記法人,東京都,中央区,銀座１丁目２２番１１号銀座大竹ビジデンス２階,,13,102,1040061,,,,,,,2022-05-13,1,,,,,ケアナノタクミエクストラクションキョウカイ,0
25,1010401167064,新規,0,2022-05-13,2022-05-13,株式会社東京香水,,株式会社,東京都,港区,赤坂７丁目５－１５Ｆｒｏｍ１ｓｔＡＫＡＳＡＫＡ１０６,,13,103,1070052,,,,,,,2022-05-13,1,,,,,トウキョウコウスイ,0
26,1010401167139,新規,0,2022-05-13,2022-05-13,株式会社ＺＩＶＡＮＥ,,株式会社,東京都,港区,南青山４丁目１４－７,,13,103,1070062,,,,,,,2022-05-13,1,,,,,ジバン,0
29,1010405020995,新規,0,2022-05-13,2022-05-13,一般社団法人日本甲状腺協会,,その他の設立登記法人,東京都,港区,芝浦３丁目１７番１１号天翔田町ビル１００９,,13,103,1080023,,,,,,,2022-05-13,1,,,,,ニホンコウジョウセンキョウカイ,0
32,1010501048825,新規,0,2022-05-13,2022-05-13,ＴＡＴＴＶＡＡ　Ｔｅｃｈｎｏｌｏｇｉｅｓ　ａｎｄ　Ｉｎｖｅｓｔｍｅｎｔｓ株式会社,,株式会社,東京都,台東区,台東１丁目１１番４号,,13,106,1100016,,,,,,,2022-05-13,1,,,,,タトゥーヴァテクノロジーズアンドインベストメンツ,0
41,1010801032958,新規,0,2022-05-13,2022-05-13,株式会社オフィスＫ２,,株式会社,東京都,大田区,大森本町１丁目６番２－８１４号,,13,111,1430011,,,,,,,2022-05-13,1,,,,,オフィスケーツー,0
44,1010901050760,新規,0,2022-05-13,2022-05-13,株式会社Ｆｕｎｓｅｄｙ,,株式会社,東京都,世田谷区,桜丘３丁目３７番３２－４１８号室,,13,112,1560054,,,,,,,2022-05-13,1,,,,,ファンセディ,0
52,1011001147398,新規,0,2022-05-13,2022-05-13,株式会社Ａ‐ｓｈｉｎｅ　Ｃｏｍｐａｎｙ,,株式会社,東京都,目黒区,中目黒３丁目６番２号中目黒Ｆ・Ｓビル５階,,13,110,1530061,,,,,,,2022-05-13,1,,,,,エーシャインカンパニー,0
59,1011101098847,新規,0,2022-05-13,2022-05-13,日本一株式会社,,株式会社,東京都,新宿区,新宿２丁目７－３ヴェラハイツ新宿御苑４０９,,13,104,1600022,,,,,,,2022-05-13,1,,,,,ニッポンイチ,0
61,1011201023812,新規,0,2022-05-13,2022-05-13,株式会社クラッキスイレブン,,株式会社,東京都,中野区,弥生町２丁目４１番１７号東京コンテンツインキュベーションセンター,,13,114,1640013,,,,,,,2022-05-13,1,,,,,クラッキスイレブン,0
62,1011201023820,新規,0,2022-05-13,2022-05-13,株式会社インタープロパティ,,株式会社,東京都,中野区,本町４丁目２８番９号,,13,114,1640012,,,,,,,2022-05-13,1,,,,,インタープロパティ,0
74,1011801040703,新規,0,2022-05-13,2022-05-13,株式会社リードソフト,,株式会社,東京都,足立区,扇１丁目１５番７－４０７号,,13,121,1230873,,,,,,,2022-05-13,1,,,,,リードソフト,0
81,1012801021577,新規,0,2022-05-13,2022-05-13,株式会社７Ｇ建設,,株式会社,東京都,立川市,羽衣町２丁目４４番６号,,13,202,1900021,,,,,,,2022-05-13,1,,,,,セブンジーケンセツ,0
88,1013301049092,新規,0,2022-05-13,2022-05-13,魔法の住まい株式会社,,株式会社,東京都,豊島区,南大塚１丁目１０番１５号,,13,116,1700005,,,,,,,2022-05-13,1,,,,,マホウノスマイ,0
89,1013305003343,新規,0,2022-05-13,2022-05-13,一般社団法人医療福祉ロジスティックス,,その他の設立登記法人,東京都,豊島区,南大塚２丁目３３番１０号,,13,116,1700005,,,,,,,2022-05-13,1,,,,,イリョウフクシロジスティックス,0
101,1020001146500,新規,0,2022-05-13,2022-05-13,株式会社井手商事,,株式会社,神奈川県,横浜市西区,赤門町２丁目２６番地アペックス赤門町１０５号,,14,103,2200034,,,,,,,2022-05-13,1,,,,,イデショウジ,0
102,1020001146509,新規,0,2022-05-13,2022-05-13,ブラウンリバース株式会社,,株式会社,神奈川県,横浜市西区,みなとみらい２丁目３番１号,,14,103,2200012,,,,,,,2022-05-13,1,,,,,ブラウンリバース,0
108,1021001075945,新規,0,2022-05-13,2022-05-13,株式会社スッキリ,,株式会社,神奈川県,相模原市中央区,田名４１２８番地１,,14,152,2520244,,,,,,,2022-05-13,1,,,,,スッキリ,0
109,1021001075961,新規,0,2022-05-13,2022-05-13,株式会社ＤＸラボ,,株式会社,神奈川県,小田原市,栄町２丁目１番２１号,,14,206,2500011,,,,,,,2022-05-13,1,,,,,ディーエックスラボ,0
110,1021003011700,新規,0,2022-05-13,2022-05-13,合同会社Ｎｉｇｈｔｓ,,合同会社,神奈川県,海老名市,大谷南４丁目１番１１号,,14,215,2430418,,,,,,,2022-05-13,1,,,,,ナイツ,0
122,1030001148198,新規,0,2022-05-13,2022-05-13,ウェルビンマーケティング株式会社,,株式会社,埼玉県,所沢市,東所沢２丁目２８番地の１７,,11,208,3590021,,,,,,,2022-05-13,1,,,,,ウェルビンマーケティング,0
123,1030001148207,新規,0,2022-05-13,2022-05-13,株式会社ＤＹＭ,,株式会社,埼玉県,川口市,西川口１丁目３０番２０－２０９号,,11,203,3320021,,,,,,,2022-05-13,1,,,,,,0
124,1030001148215,新規,0,2022-05-13,2022-05-13,株式会社ＨＹ,,株式会社,埼玉県,川越市,南台３丁目２番地４５,,11,201,3501165,,,,,,,2022-05-13,1,,,,,エイチワイ,0
131,1040001123282,新規,0,2022-05-13,2022-05-13,株式会社ビーム建工,,株式会社,千葉県,大網白里市,みどりが丘４丁目２１番地８,,12,239,2993255,,,,,,,2022-05-13,1,,,,,ビームケンコウ,0
136,1040003020024,新規,0,2022-05-13,2022-05-13,合同会社グラーノ,,合同会社,千葉県,市原市,ちはら台西６丁目３４番地１,,12,219,2900143,,,,,,,2022-05-13,1,,,,,グラーノ,0
137,1040003020032,新規,0,2022-05-13,2022-05-13,合同会社ホモデルフィナス,,合同会社,千葉県,館山市,犬石４５番地の５,,12,205,2940226,,,,,,,2022-05-13,1,,,,,ホモデルフィナス,0
150,1090001017562,新規,0,2022-05-13,2022-05-13,株式会社石川工務店,,株式会社,山梨県,韮崎市,穂坂町宮久保３２２－１,,19,207,4070175,,,,,,,2022-05-13,1,,,,,イシカワコウムテン,0
151,1090005007493,新規,0,2022-05-13,2022-05-13,特定非営利活動法人ぐんないや織ｓｙｏｋｕ,,その他の設立登記法人,山梨県,都留市,夏狩１８８４番地,,19,204,4020035,,,,,,,2022-05-13,1,,,,,グンナイヤショク,0
152,1100001035331,新規,0,2022-05-13,2022-05-13,株式会社Ｂ．Ｐ　ＴＥＣＨ,,株式会社,長野県,長野市,青木島１丁目２７番地９,,20,201,3812247,,,,,,,2022-05-13,1,,,,,ビーピーテック,0
157,1110001036659,新規,0,2022-05-13,2022-05-13,栃佐板金株式会社,,株式会社,新潟県,長岡市,天下島２丁目１番３号,,15,202,9400232,,,,,,,2022-05-13,1,,,,,トチサバンキン,0
167,1120001245614,新規,0,2022-05-13,2022-05-13,株式会社鴻成,,株式会社,大阪府,大阪市北区,浪花町１－２３－３０１,,27,127,5300022,,,,,,,2022-05-13,1,,,,,コウセイ,0
168,1120001245845,新規,0,2022-05-13,2022-05-13,株式会社ミラモコ,,株式会社,大阪府,大阪市北区,梅田２丁目６－２０,,27,127,5300001,,,,,,,2022-05-13,1,,,,,ミラモコ,0
169,1120001245853,新規,0,2022-05-13,2022-05-13,全日通株式会社,,株式会社,大阪府,大阪市西成区,津守３丁目５番５０号,,27,122,5570062,,,,,,,2022-05-13,1,,,,,ゼンニッツウ,0
170,1120001245861,新規,0,2022-05-13,2022-05-13,株式会社ｏｇｕｒａ‐ｄｒｉｖｅ,,株式会社,大阪府,大阪市住吉区,帝塚山西１丁目１１番Ｂ－２１８号,,27,120,5580052,,,,,,,2022-05-13,1,,,,,オグラドライブ,0
176,1120003021674,新規,0,2022-05-13,2022-05-13,合同会社ＣＲＥＳＴ　ＡＵＴＯ,,合同会社,大阪府,大阪市此花区,西九条６丁目１－１２５－１４２１,,27,104,5540012,,,,,,,2022-05-13,1,,,,,クレストオート,0
177,1120005022951,新規,0,2022-05-13,2022-05-13,一般社団法人ＲＥ．ｂｏｒｎ,,その他の設立登記法人,大阪府,枚方市,黄金野１丁目２番１号,,27,210,5731145,,,,,,,2022-05-13,1,,,,,リボン,0
180,1120103004694,新規,0,2022-05-13,2022-05-13,合同会社オーガニックハウスＲｅ．ＬＡＢＯ,,合同会社,大阪府,堺市中区,平井６１６番地４,,27,142,5998251,,,,,,,2022-05-13,1,,,,,オーガニックハウスリィラボ,0
193,1130001071753,新規,0,2022-05-13,2022-05-13,株式会社キャベッジ,,株式会社,京都府,京都市北区,上賀茂中ノ河原町２３－８,,26,101,6038032,,,,,,,2022-05-13,1,,,,,キャベッジ,0
206,1140001125896,新規,0,2022-05-13,2022-05-13,株式会社ＫＩＮＧＳ　ＷＡＹ　Ｄ,,株式会社,兵庫県,伊丹市,中央３丁目１番２５号Ｓｏｌｏ伊丹中央１階,,28,207,6640851,,,,,,,2022-05-13,1,,,,,キングスウェイディー,0
207,1140001125979,新規,0,2022-05-13,2022-05-13,ジャパンイーデン株式会社,,株式会社,兵庫県,伊丹市,昆陽６丁目１４０番地,,28,207,6640881,,,,,,,2022-05-13,1,,,,,ジャパンイーデン,0
211,1160001024205,新規,0,2022-05-13,2022-05-13,Ｒｅｐｌａｃｔ株式会社,,株式会社,滋賀県,彦根市,小泉町３１０－１６,,25,202,5220043,,,,,,,2022-05-13,1,,,,,リプラクト,0
228,1180301036212,新規,0,2022-05-13,2022-05-13,株式会社アブラックス,,株式会社,愛知県,豊橋市,神野新田町字ハノ割７番,,23,201,4418077,,,,,,,2022-05-13,1,,,,,,0
230,1190001029408,新規,0,2022-05-13,2022-05-13,エニックス株式会社,,株式会社,三重県,鈴鹿市,三日市南３丁目６番１６号,,24,207,5130804,,,,,,,2022-05-13,1,,,,,エニックス,0
241,1220001024842,新規,0,2022-05-13,2022-05-13,株式会社イグニッション・エージェント,,株式会社,石川県,金沢市,彦三町１丁目２番１号アソルティ金沢彦三１Ｆ,,17,201,9200901,,,,,,,2022-05-13,1,,,,,イグニッションエージェント,0
249,1250001019559,新規,0,2022-05-13,2022-05-13,株式会社正和輪業ＲＳＳ．ＳＨＯＷＡ,,株式会社,山口県,下関市,小月駅前１丁目７番３５号,,35,201,7501143,,,,,,,2022-05-13,1,,,,,ショウワリンギョウアールエスエスショウワ,0
254,1250003003049,新規,0,2022-05-13,2022-05-13,合同会社光,,合同会社,山口県,光市,大字岩田２４８８番地４下大塚ビル１階,,35,210,7430103,,,,,,,2022-05-13,1,,,,,ヒカリ,0
258,1260001036850,新規,0,2022-05-13,2022-05-13,株式会社ＯＮＥＳ,,株式会社,岡山県,岡山市北区,奉還町４丁目１３－１５,,33,101,7000026,,,,,,,2022-05-13,1,,,,,ワンズ,0
261,1270001008519,新規,0,2022-05-13,2022-05-13,Ｇ８株式会社,,株式会社,鳥取県,鳥取市,吉成４９番地４４ＳＫビル３Ｆ,,31,201,6800864,,,,,,,2022-05-13,1,,,,,ジーエイト,0
267,1290001097510,新規,0,2022-05-13,2022-05-13,株式会社１ｓｔ,,株式会社,福岡県,久留米市,安武町武島１６７０番地１,,40,203,8300071,,,,,,,2022-05-13,1,,,,,ファースト,0
270,1290005018677,新規,0,2022-05-13,2022-05-13,一般社団法人７５むらぐらし,,その他の設立登記法人,福岡県,八女市,星野村５０６４番地２,,40,210,8340201,,,,,,,2022-05-13,1,,,,,ナゴンムラグラシ,0
283,1340001024731,新規,0,2022-05-13,2022-05-13,株式会社牧本工務店,,株式会社,鹿児島県,志布志市,有明町蓬原４１２番地２,00126549,46,221,8997503,,,,,,,2022-05-13,1,,,,,マキモトコウムテン,0
291,1370001048562,新規,0,2022-05-13,2022-05-13,株式会社菅原住建,,株式会社,宮城県,仙台市太白区,鈎取４丁目４番５１－２０１号,,04,104,9820804,,,,,,,2022-05-13,1,,,,,スガワラジュウケン,0
293,1370003005693,新規,0,2022-05-13,2022-05-13,合同会社Ｎｅｘｔ,,合同会社,宮城県,登米市,迫町森字平柳３４番地６７水の里ハイツＧ号室,,04,212,9870512,,,,,,,2022-05-13,1,,,,,ネクスト,0
308,1430001086580,新規,0,2022-05-13,2022-05-13,株式会社鈴電,,株式会社,北海道,札幌市西区,二十四軒一条３丁目１番２２－３０１号,,01,107,0630801,,,,,,,2022-05-13,1,,,,,スズデン,0
309,1430001086606,新規,0,2022-05-13,2022-05-13,株式会社ＨＫＦ,,株式会社,北海道,岩見沢市,栗沢町北斗１５０８番地,,01,210,0680101,,,,,,,2022-05-13,1,,,,,エイチケーエフ,0
310,1430001086630,新規,0,2022-05-13,2022-05-13,株式会社ランボクト,,株式会社,北海道,札幌市中央区,南六条西８丁目８番１１号,,01,101,0640806,,,,,,,2022-05-13,1,,,,,ランボクト,0
313,1430003013871,新規,0,2022-05-13,2022-05-13,やおよろず合同会社,,合同会社,北海道,札幌市中央区,南三条東３丁目１番地,,01,101,0600053,,,,,,,2022-05-13,1,,,,,ヤオヨロズ,0
314,1430003013888,新規,0,2022-05-13,2022-05-13,合同会社ＭＵＮＩＥＱ,,合同会社,北海道,札幌市中央区,南七条西１８丁目３番１５―２１２号,,01,101,0640807,,,,,,,2022-05-13,1,,,,,ミュニーク,0
315,1430003013896,新規,0,2022-05-13,2022-05-13,合同会社主水の仕事,,合同会社,北海道,札幌市西区,八軒一条東４丁目１番１０－１０２号,,01,107,0630861,,,,,,,2022-05-13,1,,,,,モンドノシゴト,0
316,1430005014463,新規,0,2022-05-13,2022-05-13,一般社団法人北海道採用定着支援ラボ,,その他の設立登記法人,北海道,札幌市北区,北六条西６丁目２番地福徳ビル３Ｆ,,01,102,0600806,,,,,,,2022-05-13,1,,,,,ホッカイドウサイヨウテイチャクシエンラボ,0
336,1700150108728,新規,0,2022-05-13,2022-05-13,ＭＡＸ　ＷＯＲＬＤ　ＨＯＬＤＩＮＧＳ　ＬＩＭＩＴＥＤ,,外国会社等,北海道,虻田郡ニセコ町,字曽我４９４－１,,01,395,0481522,Ｓｕｉｔｅ　２００６－０７　ＩＣＢＣ　Ｔｏｗｅｒ　３　Ｇａｒｄｅｎ　Ｒｏａｄ　Ｃｅｎｔｒａｌ　Ｈｏｎｇ　Ｋｏｎｇ,,,,,,2022-05-13,1,,,,,マツクスワールドホールデイングス,0
347,2010001226558,新規,0,2022-05-13,2022-05-13,ＳＬＬ　Ｊａｐａｎ株式会社,,株式会社,東京都,中央区,銀座５丁目１５番８号,,13,102,1040061,,,,,,,2022-05-13,1,,,,,エスエルエルジャパン,0
349,2010003037598,新規,0,2022-05-13,2022-05-13,合同会社ＯＮＥ,,合同会社,東京都,千代田区,飯田橋２丁目１番４号九段セントラルビル１０２号室,,13,101,1020072,,,,,,,2022-05-13,1,,,,,ワン,0
350,2010003037672,新規,0,2022-05-13,2022-05-13,エヌスマートデザイン合同会社,,合同会社,東京都,中央区,八丁堀２丁目３０番１６号丸高八丁堀ビル２階,,13,102,1040032,,,,,,,2022-05-13,1,,,,,エヌスマートデザイン,0
380,2010801032957,新規,0,2022-05-13,2022-05-13,ＳＴＦ株式会社,,株式会社,東京都,大田区,仲六郷２丁目１６－７,,13,111,1440055,,,,,,,2022-05-13,1,,,,,エスティーエフ,0
384,2010901050850,新規,0,2022-05-13,2022-05-13,株式会社時市,,株式会社,東京都,世田谷区,北沢５丁目３２番１４号,,13,112,1550031,,,,,,,2022-05-13,1,,,,,トキイチ,0
391,2011001147348,新規,0,2022-05-13,2022-05-13,株式会社ｓｏｌａｒｅ　ｍｏｄｅｌｓ,,株式会社,東京都,渋谷区,神宮前４丁目１８番９号ボヌール表参道３０８,,13,113,1500001,,,,,,,2022-05-13,1,,,,,ソラーレモデルス,0
392,2011005009569,新規,0,2022-05-13,2022-05-13,税理士法人ｃｒｅｓｃｉｔａ,,その他の設立登記法人,東京都,渋谷区,広尾１丁目９番１６号,,13,113,1500012,,,,,,,2022-05-13,1,,,,,クレシタ,0
405,2011803005067,新規,0,2022-05-13,2022-05-13,合同会社太郎,,合同会社,東京都,足立区,佐野２丁目３４番５号,,13,121,1210053,,,,,,,2022-05-13,1,,,,,タロウ,0
407,2012405004738,新規,0,2022-05-13,2022-05-13,一般社団法人エクス・ノーヴォ,,その他の設立登記法人,東京都,武蔵野市,吉祥寺南町３丁目２７番５号,,13,203,1800003,,,,,,,2022-05-13,1,,,,,エクスノーヴォ,0
413,2013301049067,新規,0,2022-05-13,2022-05-13,株式会社ＩＷＫ,,株式会社,東京都,豊島区,千早２丁目６番１号,,13,116,1710044,,,,,,,2022-05-13,1,,,,,アイダブリュケイ,0
414,2013303006149,新規,0,2022-05-13,2022-05-13,合同会社Ｇ＆Ｓ,,合同会社,東京都,豊島区,上池袋３丁目１番２９号スカイハイツ上池袋９０３,,13,116,1700012,,,,,,,2022-05-13,1,,,,,ジーアンドエス,0
415,2013305003342,新規,0,2022-05-13,2022-05-13,特定非営利活動法人ブランディングポート,,その他の設立登記法人,東京都,豊島区,池袋３丁目３０番２１号１階,,13,116,1710014,,,,,,,2022-05-13,1,,,,,ブンランディングポート,0
420,2020001146466,新規,0,2022-05-13,2022-05-13,株式会社翔栄,,株式会社,神奈川県,横浜市港北区,樽町４丁目８番１６号３０２,,14,109,2220001,,,,,,,2022-05-13,1,,,,,ショウエイ,0
421,2020001146490,新規,0,2022-05-13,2022-05-13,株式会社ＡＤＶＡＮＣＥ,,株式会社,神奈川県,川崎市高津区,諏訪１丁目５番５号フォーレ１０１,,14,134,2130004,,,,,,,2022-05-13,1,,,,,アドヴァンス,0
422,2020001146499,新規,0,2022-05-13,2022-05-13,株式会社ＡＳＴＥＲ,,株式会社,神奈川県,横浜市都筑区,池辺町２９２１番地１,,14,118,2240053,,,,,,,2022-05-13,1,,,,,,0
429,2020003021766,新規,0,2022-05-13,2022-05-13,合同会社ＶｉｓＱ,,合同会社,神奈川県,川崎市中原区,新丸子東３丁目１１００番地１５Ｓ４４０４,,14,133,2110004,,,,,,,2022-05-13,1,,,,,ビスク,0
436,2021003011699,新規,0,2022-05-13,2022-05-13,合同会社晃明,,合同会社,神奈川県,茅ヶ崎市,浜須賀１番３２号,,14,207,2530035,,,,,,,2022-05-13,1,,,,,コウメイ,0
450,2030001148115,新規,0,2022-05-13,2022-05-13,株式会社エムエーアイ,,株式会社,埼玉県,深谷市,常盤町７１番地４,,11,218,3660034,,,,,,,2022-05-13,1,,,,,エムエーアイ,0
455,2030003019396,新規,0,2022-05-13,2022-05-13,タグボート合同会社,,合同会社,埼玉県,春日部市,南１丁目９番３４号,,11,214,3440064,,,,,,,2022-05-13,1,,,,,タグボート,0
462,2040001123372,新規,0,2022-05-13,2022-05-13,株式会社リスム,,株式会社,千葉県,千葉市中央区,富士見２丁目１０番８号稲生ビル１階,,12,101,2600015,,,,,,,2022-05-13,1,,,,,リスム,0
463,2040001123397,新規,0,2022-05-13,2022-05-13,株式会社勇服,,株式会社,千葉県,館山市,沼９２７番地の３,,12,205,2940034,,,,,,,2022-05-13,1,,,,,ユウフク,0
476,2070001039228,新規,0,2022-05-13,2022-05-13,株式会社良心舎,,株式会社,群馬県,安中市,安中３７０２番地,,10,211,3790116,,,,,,,2022-05-13,1,,,,,リョウシンシャ,0
483,2090001017561,新規,0,2022-05-13,2022-05-13,株式会社田中建装,,株式会社,山梨県,南都留郡西桂町,小沼７２９番地,,19,423,4030022,,,,,,,2022-05-13,1,,,,,タナカケンソウ,0
488,2100001035330,新規,0,2022-05-13,2022-05-13,株式会社住まい工房佐久平,,株式会社,長野県,北佐久郡軽井沢町,大字追分字上の原１５８３番５,,20,321,3890115,,,,,,,2022-05-13,1,,,,,スマイコウボウサクダイラ,0
495,2110005016805,新規,0,2022-05-13,2022-05-13,医療法人社団たけいクリニック,,その他の設立登記法人,新潟県,上越市,下門前２０３５,,15,222,9420063,,,,,,,2022-05-13,1,,,,,タケイクリニック,0
502,2120001245860,新規,0,2022-05-13,2022-05-13,株式会社Ｄｏｌｌ,,株式会社,大阪府,大阪市東成区,大今里２丁目２８番１０号,,27,115,5370012,,,,,,,2022-05-13,1,,,,,ドール,0
503,2120001245869,新規,0,2022-05-13,2022-05-13,株式会社Ｘｅｒｏｘ,,株式会社,大阪府,大阪市西区,江戸堀２丁目１－１江戸堀センタービルＢ１Ｆ,,27,106,5500002,,,,,,,2022-05-13,1,,,,,ゼロックス,0
529,2130001071752,新規,0,2022-05-13,2022-05-13,株式会社アイ・アストラルファミリー,,株式会社,京都府,京都市伏見区,羽束師古川町１３０番地,,26,109,6128486,,,,,,,2022-05-13,1,,,,,アイアストラルファミリー,0
530,2130005016472,新規,0,2022-05-13,2022-05-13,一般社団法人日本カレラクラブ,,その他の設立登記法人,京都府,京都市下京区,五条通新町東入東錺屋町１８４番地,,26,106,6008107,,,,,,,2022-05-13,1,,,,,ニホンカレラクラブ,0
533,2140001125755,新規,0,2022-05-13,2022-05-13,株式会社Ｔｏｔａｌ　Ｆｉｎａｎｃｅ,,株式会社,兵庫県,丹波篠山市,西新町１－４,,28,221,6692334,,,,,,,2022-05-13,1,,,,,トータルファイナンス,0
534,2140001125953,新規,0,2022-05-13,2022-05-13,河村工業株式会社,,株式会社,兵庫県,尼崎市,立花町２丁目２３番２３号,,28,202,6610025,,,,,,,2022-05-13,1,,,,,カワムラコウギョウ,0
535,2140001125978,新規,0,2022-05-13,2022-05-13,洲本アルミ株式会社,,株式会社,兵庫県,洲本市,千草己５２９番地２,,28,205,6560031,,,,,,,2022-05-13,1,,,,,スモトアルミ,0
538,2140003017653,新規,0,2022-05-13,2022-05-13,合同会社フジショー,,合同会社,兵庫県,姫路市,神田町４丁目５番地１,,28,201,6700991,,,,,,,2022-05-13,1,,,,,フジショー,0
546,2180001151285,新規,0,2022-05-13,2022-05-13,株式会社いまい設備,,株式会社,愛知県,名古屋市名東区,本郷３丁目１６７番地の１エルク本郷２０１号,,23,115,4650024,,,,,,,2022-05-13,1,,,,,イマイセツビ,0
553,2190003003987,新規,0,2022-05-13,2022-05-13,合同会社細野,,合同会社,三重県,四日市市,美里町２０８６番地６,,24,202,5121104,,,,,,,2022-05-13,1,,,,,ホソノ,0
558,2220001024825,新規,0,2022-05-13,2022-05-13,株式会社つながりエアーラボ,,株式会社,石川県,野々市市,稲荷２丁目２０６番地野々市稲荷ネスル６０２号,,17,212,9218805,,,,,,,2022-05-13,1,,,,,ツナガリエアーラボ,0
559,2220001024841,新規,0,2022-05-13,2022-05-13,株式会社ＥＦＦＯＲＴ,,株式会社,石川県,金沢市,四十万町北カ６６番地,,17,201,9218133,,,,,,,2022-05-13,1,,,,,エフォート,0
563,2240001059778,新規,0,2022-05-13,2022-05-13,株式会社アナミ,,株式会社,広島県,広島市西区,三篠北町６番１１号,,34,104,7330006,,,,,,,2022-05-13,1,,,,,アナミ,0
564,2240003005615,新規,0,2022-05-13,2022-05-13,合同会社Ｓｔａｒｓｈｉｎｅｓ７,,合同会社,広島県,広島市西区,高須台１丁目１１番７号,,34,104,7330876,,,,,,,2022-05-13,1,,,,,スターシャインズセブン,0
568,2260003003906,新規,0,2022-05-13,2022-05-13,合同会社幸建,,合同会社,岡山県,高梁市,玉川町玉１０１番地１アクアタウン神崎２－Ａ,,33,209,7160052,,,,,,,2022-05-13,1,,,,,コウケン,0
577,2290001097451,新規,0,2022-05-13,2022-05-13,株式会社ＳＭＢパートナーズ,,株式会社,福岡県,飯塚市,新立岩１１番１０号小田ビル２階,,40,205,8200004,,,,,,,2022-05-13,1,,,,,エスエムビーパートナーズ,0
588,2330001029722,新規,0,2022-05-13,2022-05-13,株式会社ビューティフル・ベガ,,株式会社,熊本県,玉名郡南関町,大字豊永５４１４番地,,43,367,8610815,,,,,,,2022-05-13,1,,,,,ビューティフルベガ,0
589,2350001017741,新規,0,2022-05-13,2022-05-13,マッケン株式会社,,株式会社,宮崎県,宮崎市,川原町１１番地１１永吉ビル２階２Ｆ号室,,45,201,8800866,,,,,,,2022-05-13,1,,,,,マッケン,0
609,2430003013887,新規,0,2022-05-13,2022-05-13,合同会社Ａｎｔｉｔｈｅｓｅ,,合同会社,北海道,札幌市豊平区,豊平三条１丁目１番５号,,01,105,0620903,,,,,,,2022-05-13,1,,,,,アンチテーゼ,0
615,2490001010170,新規,0,2022-05-13,2022-05-13,岡崎建装株式会社,00126551,株式会社,高知県,高知市,春野町東諸木２７６３番地,,39,201,7810315,,,,,,,2022-05-13,1,,,,,オカザキケンソウ,0
617,2500001024210,新規,0,2022-05-13,2022-05-13,株式会社四季式,,株式会社,愛媛県,松山市,余戸西１丁目３番７号,,38,201,7900046,,,,,,,2022-05-13,1,,,,,シキシキ,0
618,2700150108719,新規,0,2022-05-13,2022-05-13,いなさＲＵＴＣ,,その他,静岡県,浜松市北区,引佐町別所８５５,,22,135,4312534,,,,,,,2022-05-13,1,,,,,イナサアールユーティーシー,0
619,2700150108727,新規,0,2022-05-13,2022-05-13,３Ｓ（ＨｏｎｇＫｏｎｇ）Ｃｏ．，Ｌｉｍｉｔｅｄ,,外国会社等,東京都,港区,南青山４丁目７－１２,,13,103,1070062,Ｕｎｉｔ　５０３，５／Ｆｌ．，Ｓｉｌｖｅｒｃｏｒｄ　Ｔｏｗｅｒ２，３０　Ｃａｎｔｏｎ　Ｒｏａｄ，Ｔｓｉｍｓｈａｔｓｕｉ，Ｈｏｎｇ　Ｋｏｎｇ,,,,,,2022-05-13,1,,,,,スリーエスホンコンカンパニーリミテツド,0
626,3010001226400,新規,0,2022-05-13,2022-05-13,株式会社ｎｅｘｔ　ｈｙｂｒｉｄ,,株式会社,東京都,千代田区,神田松永町１３番地ＶＯＲＴ秋葉原ＩＩ,00126557,13,101,1010023,,,,,,,2022-05-13,1,,,,,ネクストハイブリッド,0
627,3010001226557,新規,0,2022-05-13,2022-05-13,株式会社ＰｒｉｖａｔｅＨｏｌｄｉｎｇｓ,,株式会社,東京都,中央区,銀座１丁目１５番４号,,13,102,1040061,,,,,,,2022-05-13,1,,,,,プライベートホールディングス,0
628,3010001226631,新規,0,2022-05-13,2022-05-13,ＶＣＦアドバイザリー株式会社,,株式会社,東京都,千代田区,神田淡路町１丁目９番地５天翔御茶ノ水ビル６１２号,,13,101,1010063,,,,,,,2022-05-13,1,,,,,ブイシーエフアドバイザリー,0
630,3010003037622,新規,0,2022-05-13,2022-05-13,合同会社Ａｌｏｈａ　Ｅｎｔｅｒｔａｉｎｍｅｎｔ,,合同会社,東京都,中央区,銀座６丁目６番１号,,13,102,1040061,,,,,,,2022-05-13,1,,,,,アロハエンターテイメント,0
633,3010401167054,新規,0,2022-05-13,2022-05-13,株式会社ＳＰｍｅｄｉａ,,株式会社,東京都,港区,南青山３丁目４－４カサビアンカ３０１,,13,103,1070062,,,,,,,2022-05-13,1,,,,,エスピーメディア,0
637,3010405020960,新規,0,2022-05-13,2022-05-13,一般社団法人１６タイプ・パーソナルカラー協会,,その他の設立登記法人,東京都,港区,南青山２丁目２番１５号,,13,103,1070062,,,,,,,2022-05-13,1,,,,,ジュウロクタイプパーソナルカラーキョウカイ,0
643,3010701042618,新規,0,2022-05-13,2022-05-13,ＫＲＩＴＩＫＡ株式会社,,株式会社,東京都,品川区,南大井６丁目２７番２０号セブンスターマンション大森第２ビル１Ｆ,,13,109,1400013,,,,,,,2022-05-13,1,,,,,キリテカ,0
650,3011001147363,新規,0,2022-05-13,2022-05-13,株式会社クーニー,,株式会社,東京都,渋谷区,東３丁目１２番１５号,,13,113,1500011,,,,,,,2022-05-13,1,,,,,クーニー,0
651,3011001147545,新規,0,2022-05-13,2022-05-13,株式会社王子プロジェクト,,株式会社,東京都,渋谷区,神宮前５丁目１８番７号,,13,113,1500001,,,,,,,2022-05-13,1,,,,,オウジプロジェクト,0
663,3011101098820,新規,0,2022-05-13,2022-05-13,株式会社ライフチャージ,,株式会社,東京都,新宿区,西早稲田２丁目１０番２号アミューズハウス１０６,,13,104,1690051,,,,,,,2022-05-13,1,,,,,ライフチャージ,0
664,3011101098837,新規,0,2022-05-13,2022-05-13,株式会社ＤＩＳＴＯＲＴＩＯＮ　ＮＯ’６,,株式会社,東京都,新宿区,西新宿７丁目５番地５号プラザ西新宿７０９,,13,104,1600023,,,,,,,2022-05-13,1,,,,,ディストーションナンバーシックス,0
669,3011201023827,新規,0,2022-05-13,2022-05-13,ＧＲＡＮ　ＢＬＵＥ株式会社,,株式会社,東京都,中野区,東中野５丁目１－１２－３０６,,13,114,1640003,,,,,,,2022-05-13,1,,,,,グランブルー,0
676,3011601002463,新規,0,2022-05-13,2022-05-13,株式会社サンイツ,,株式会社,東京都,練馬区,大泉町４丁目３４番２４号,,13,120,1780062,,,,,,,2022-05-13,1,,,,,サンイツ,0
679,3011601025951,新規,0,2022-05-13,2022-05-13,株式会社いろはプルーフ,,株式会社,東京都,練馬区,西大泉６丁目３番３１号,,13,120,1780065,,,,,,,2022-05-13,1,,,,,イロハプルーフ,0
680,3011701025298,新規,0,2022-05-13,2022-05-13,Ｄ島株式会社,,株式会社,東京都,江戸川区,船堀１丁目１番１－７０２号,,13,123,1340091,,,,,,,2022-05-13,1,,,,,ディージマ,0
691,3012801021575,新規,0,2022-05-13,2022-05-13,株式会社アーキスケッチジャパン,,株式会社,東京都,立川市,錦町１丁目４番４号立川サニーハイツ２０３（ＫＯＤＡＣＨＩ）９号室,,13,202,1900022,,,,,,,2022-05-13,1,,,,,アーキスケッチジャパン,0
692,3012803002771,新規,0,2022-05-13,2022-05-13,合同会社ＨＩＧＨＴ＆ＰＡＣＫ,,合同会社,東京都,国立市,谷保６９８５番地の２,,13,215,1860011,,,,,,,2022-05-13,1,,,,,ハイアンドパック,0
696,3013303006148,新規,0,2022-05-13,2022-05-13,合同会社ＦＵＵＧＡ企画,,合同会社,東京都,豊島区,巣鴨１丁目１１番２号３１９,,13,116,1700002,,,,,,,2022-05-13,1,,,,,フウガキカク,0
708,3020001146498,新規,0,2022-05-13,2022-05-13,株式会社慶匠企画,,株式会社,神奈川県,横浜市瀬谷区,阿久和西４丁目１４番地６ハイツスリーエースＢ１０１,,14,114,2460025,,,,,,,2022-05-13,1,,,,,ケイショウキカク,0
709,3020001146507,新規,0,2022-05-13,2022-05-13,株式会社ＡＳＴＡ,,株式会社,神奈川県,横浜市西区,西戸部町２丁目２２８番地サイレンスコーポ１０３号,,14,103,2200046,,,,,,,2022-05-13,1,,,,,アスタ,0
738,3040001123413,新規,0,2022-05-13,2022-05-13,株式会社ＮＥＸＵＳ,,株式会社,千葉県,市川市,国分５丁目１６番２６号,,12,203,2720834,,,,,,,2022-05-13,1,,,,,ネクサス,0
744,3040003020014,新規,0,2022-05-13,2022-05-13,合同会社かみじま,,合同会社,千葉県,佐倉市,宮ノ台５丁目２番４号,,12,212,2850857,,,,,,,2022-05-13,1,,,,,カミジマ,0
746,3040005021605,新規,0,2022-05-13,2022-05-13,医療法人社団松戸しいの木歯科医院,,その他の設立登記法人,千葉県,松戸市,松戸１１３９番地の１ライオンズプラザ松戸中央公園１０１号室,,12,207,2710092,,,,,,,2022-05-13,1,,,,,マツドシイノキシカイイン,0
747,3040005021613,新規,0,2022-05-13,2022-05-13,医療法人社団すずらん会,,その他の設立登記法人,千葉県,八千代市,緑が丘２丁目２番地１０秋葉緑が丘ビル３階３０１号室,,12,221,2760049,,,,,,,2022-05-13,1,,,,,スズランカイ,0
754,3070001039185,新規,0,2022-05-13,2022-05-13,ＮｅｆｔＴｅｃｈｎｏｌｏｇｙ株式会社,,株式会社,群馬県,高崎市,上豊岡町５５３番地１６,,10,202,3700871,,,,,,,2022-05-13,1,,,,,ネフトテクノロジー,0
755,3070001039227,新規,0,2022-05-13,2022-05-13,株式会社紡ぐ,,株式会社,群馬県,高崎市,島野町８４１番地１,,10,202,3700015,,,,,,,2022-05-13,1,,,,,ツムグ,0
765,3080101023278,新規,0,2022-05-13,2022-05-13,株式会社ＴＲＣ,,株式会社,静岡県,賀茂郡東伊豆町,稲取９５６番地,,22,301,4130411,,,,,,,2022-05-13,1,,,,,ティーアールシー,0
781,3110003004760,新規,0,2022-05-13,2022-05-13,合同会社訪問介護ヴィレッジ,,合同会社,新潟県,新潟市西区,五十嵐西３３番１１号,,15,107,9502161,,,,,,,2022-05-13,1,,,,,ホウモンカイゴヴィレッジ,0
790,3120001245884,新規,0,2022-05-13,2022-05-13,株式会社プラスワン・イノベーション,,株式会社,大阪府,大阪市西区,新町１丁目１４－３９日宝立売堀ビル３０５,,27,106,5500013,,,,,,,2022-05-13,1,,,,,プラスワンイノベーション,0
799,3130001071751,新規,0,2022-05-13,2022-05-13,株式会社ＱＳ　ａｇｒｉ,,株式会社,京都府,京田辺市,興戸地蔵谷１番地同志社大学京田辺キャンパス業成館３１０号,,26,211,6100332,,,,,,,2022-05-13,1,,,,,キューエスアグリ,0
800,3130001071768,新規,0,2022-05-13,2022-05-13,株式会社アロー,,株式会社,京都府,京都市南区,東九条中御霊町５２番地ＣＵＢＥＳＵＣＲＥＫｙｏｔｏＳｔａｔｉｏｎ３０１,,26,107,6018027,,,,,,,2022-05-13,1,,,,,アロー,0
810,3140001125985,新規,0,2022-05-13,2022-05-13,株式会社ギルド,,株式会社,兵庫県,尼崎市,神田北通６丁目１８２番地シエテ神田北マンション４０３号,,28,202,6600883,,,,,,,2022-05-13,1,,,,,ギルド,0
812,3140003017660,新規,0,2022-05-13,2022-05-13,合同会社輝,,合同会社,兵庫県,明石市,大蔵谷奥３－３－１０１Ａ,,28,203,6730867,,,,,,,2022-05-13,1,,,,,カガヤキ,0
817,3150005009390,新規,0,2022-05-13,2022-05-13,一般社団法人Ｓｏｌｅｉｌ,,その他の設立登記法人,奈良県,北葛城郡河合町,星和台２丁目１番１５号,,29,427,6360081,,,,,,,2022-05-13,1,,,,,ソレイユ,0
827,3180001151235,新規,0,2022-05-13,2022-05-13,株式会社ＭＵＩＴＯＡ,,株式会社,愛知県,名古屋市瑞穂区,新開町２１番４号,,23,108,4670856,,,,,,,2022-05-13,1,,,,,ムイトア,0
835,3190003003986,新規,0,2022-05-13,2022-05-13,合同会社ＢＥ‐Ｋ,,合同会社,三重県,亀山市,関町新所１３９４番地１１,,24,210,5191111,,,,,,,2022-05-13,1,,,,,ビーク,0
842,3210003001509,新規,0,2022-05-13,2022-05-13,ミンセイ合同会社,,合同会社,福井県,福井市,花月４丁目６番４号,,18,201,9100022,,,,,,,2022-05-13,1,,,,,ミンセイミンセイ,0
851,3240001059777,新規,0,2022-05-13,2022-05-13,ベルトキア株式会社,,株式会社,広島県,広島市南区,松原町５番２－５０１２号,,34,103,7320822,,,,,,,2022-05-13,1,,,,,ベルトキア,0
852,3240001059785,新規,0,2022-05-13,2022-05-13,株式会社ＮＥＸＴ　ＯＮＥ,,株式会社,広島県,広島市中区,上八丁堀８番２３号９Ｆ,,34,101,7300012,,,,,,,2022-05-13,1,,,,,ネクストワン,0
859,3260001036849,新規,0,2022-05-13,2022-05-13,アヴリオ教育心理館株式会社,,株式会社,岡山県,岡山市北区,中山下１丁目１０番１０号,,33,101,7000821,,,,,,,2022-05-13,1,,,,,アヴリオキョウイクシンリカン,0
869,3290001097509,新規,0,2022-05-13,2022-05-13,株式会社ＣＳＮ,,株式会社,福岡県,大牟田市,北磯町２７番地１７,,40,202,8360016,,,,,,,2022-05-13,1,,,,,シーエスエヌ,0
870,3290003012515,新規,0,2022-05-13,2022-05-13,合同会社ＹＳコンサルティング,,合同会社,福岡県,福岡市中央区,大名１丁目１５番７号,,40,133,8100041,,,,,,,2022-05-13,1,,,,,ワイエスコンサルティング,0
874,3300005007081,新規,0,2022-05-13,2022-05-13,特定非営利活動法人ＫＡＲＡＴＳＵ,,その他の設立登記法人,佐賀県,唐津市,鏡３６８４番地１,,41,202,8470022,,,,,,,2022-05-13,1,,,,,カラツ,0
879,3320003003808,新規,0,2022-05-13,2022-05-13,ロジスターク合同会社,,合同会社,大分県,大分市,城崎町２丁目４番１３号ダイヤモンド城崎ビル２Ｆ,,44,201,8700045,,,,,,,2022-05-13,1,,,,,ロジスターク,0
885,3350001017740,新規,0,2022-05-13,2022-05-13,株式会社ＳＴＫ,,株式会社,宮崎県,宮崎市,佐土原町下那珂１１２番地,,45,201,8800212,,,,,,,2022-05-13,1,,,,,エスティーケィ,0
890,3360003011996,新規,0,2022-05-13,2022-05-13,合同会社Ｃｒｅａｆ,,合同会社,沖縄県,沖縄市,登川１丁目２３番９号２Ｆ,,47,211,9042142,,,,,,,2022-05-13,1,,,,,,0
891,3370001048552,新規,0,2022-05-13,2022-05-13,ＬＥＥ　ＧＲＯＵＰ株式会社,,株式会社,宮城県,仙台市青葉区,中江１丁目５番１７号,,04,101,9800001,,,,,,,2022-05-13,1,,,,,リーグループ,0
895,3380001032811,新規,0,2022-05-13,2022-05-13,株式会社豊間再生会,,株式会社,福島県,いわき市,平豊間字合磯２５１番地,,07,204,9700224,,,,,,,2022-05-13,1,,,,,,0
901,3400003002933,新規,0,2022-05-13,2022-05-13,合同会社Ｖｅｎｔｉ,,合同会社,岩手県,盛岡市,長橋町４７番１３号,,03,201,0200146,,,,,,,2022-05-13,1,,,,,ヴェンティ,0
908,3430001086570,新規,0,2022-05-13,2022-05-13,株式会社ステラフォース,,株式会社,北海道,札幌市厚別区,大谷地東４丁目２番１５号西村ビル３階,,01,108,0040041,,,,,,,2022-05-13,1,,,,,ステラフォース,0
909,3430001086579,新規,0,2022-05-13,2022-05-13,株式会社ＬＡＮＤＲＥＳＳ,,株式会社,北海道,札幌市中央区,南一条西１丁目３番地板谷ビル８Ｆ,,01,101,0600061,,,,,,,2022-05-13,1,,,,,ランドレス,0
910,3430001086587,新規,0,2022-05-13,2022-05-13,株式会社ｇＮ．ｓｔｕｄｉｏ,,株式会社,北海道,小樽市,錦町５番１２号,,01,203,0470039,,,,,,,2022-05-13,1,,,,,ジーエヌスタジオ,0
911,3430001086604,新規,0,2022-05-13,2022-05-13,札幌テックサービス株式会社,,株式会社,北海道,札幌市東区,北四十二条東１丁目４番６号,,01,103,0070842,,,,,,,2022-05-13,1,,,,,サッポロテックサービス,0
912,3430001086620,新規,0,2022-05-13,2022-05-13,株式会社アンダービレッジ,,株式会社,北海道,札幌市東区,北三十九条東５丁目１番７‐４０５号,,01,103,0070839,,,,,,,2022-05-13,1,,,,,アンダービレッジ,0
913,3430003013878,新規,0,2022-05-13,2022-05-13,合同会社タカケイ,,合同会社,北海道,札幌市清田区,平岡六条１丁目７－７－５０４,,01,110,0040876,,,,,,,2022-05-13,1,,,,,タカケイ,0
920,3470003002183,新規,0,2022-05-13,2022-05-13,合同会社ＢＲＩＤＧＥ　ＳＣＯＲＥ,,合同会社,香川県,木田郡三木町,大字池戸３３６６番地１,,37,341,7610701,,,,,,,2022-05-13,1,,,,,ブリッジスコア,0
924,3700150108726,新規,0,2022-05-13,2022-05-13,Ｔｈｅ　Ｗｅｓｔｍｉｎｓｔｅｒ　Ｒｏｐｐｏｎｇｉ　Ｌｉｍｉｔｅｄ,,外国会社等,東京都,港区,六本木６丁目６－１１ザ・ウエストミンスター六本木１２０５,,13,103,1060032,Ｅａｓｔ　Ａｓｉａ　Ｃｈａｍｂｅｒｓ，Ｐ．Ｏ．Ｂｏｘ　９０１，Ｒｏａｄ　Ｔｏｗｎ，Ｔｏｒｔｏｌａ，ＢＶＩ,,,,,,2022-05-13,1,,,,,ザウエストミンスターロツポンギリミテツド,0
931,4010001226473,新規,0,2022-05-13,2022-05-13,株式会社スリーエイチ,,株式会社,東京都,中央区,銀座１丁目２２番１１号,,13,102,1040061,,,,,,,2022-05-13,1,,,,,スリーエイチ,0
935,4010003037670,新規,0,2022-05-13,2022-05-13,合同会社ＫＥＮＴ４,,合同会社,東京都,中央区,日本橋馬喰町１丁目３番１－４０４号,,13,102,1030002,,,,,,,2022-05-13,1,,,,,ケントフォー,0
936,4010005035004,新規,0,2022-05-13,2022-05-13,一般社団法人日本ロボット教習所協会,,その他の設立登記法人,東京都,文京区,小石川５丁目４１番１０号,,13,105,1120002,,,,,,,2022-05-13,1,,,,,ニホンロボットキョウシュウジョキョウカイ,0
944,4010401167276,新規,0,2022-05-13,2022-05-13,株式会社ぱそふる,,株式会社,東京都,港区,虎ノ門４丁目１番２８号虎ノ門タワーズオフィス１９Ｆ,,13,103,1050001,,,,,,,2022-05-13,1,,,,,パソフル,0
951,4010601061114,新規,0,2022-05-13,2022-05-13,株式会社聯誼コンサルティング,,株式会社,東京都,墨田区,両国２丁目２番１０－１０３号キャッスルマンション両国Ｂ号館,,13,107,1300026,,,,,,,2022-05-13,1,,,,,レンギコンサルティング,0
959,4010803004168,新規,0,2022-05-13,2022-05-13,オルマリソーシズジャパン合同会社,,合同会社,東京都,大田区,南久が原２丁目２番１号,,13,111,1460084,,,,,,,2022-05-13,1,,,,,オルマリソーシズジャパン,0
961,4010901050857,新規,0,2022-05-13,2022-05-13,株式会社ＴＫＤ　Ｊａｐａｎ,,株式会社,東京都,世田谷区,代田３丁目１９番１５号,,13,112,1550033,,,,,,,2022-05-13,1,,,,,ティーケーディージャパン,0
962,4010903007368,新規,0,2022-05-13,2022-05-13,合同会社ＫＴコミュニケーションズ,,合同会社,東京都,世田谷区,玉川３丁目３番１４－１０４号,,13,112,1580094,,,,,,,2022-05-13,1,,,,,ケイティコミュニケーションズ,0
965,4011001147387,新規,0,2022-05-13,2022-05-13,株式会社７ＡＴＥ,,株式会社,東京都,渋谷区,代々木４丁目３６番７－４０３号,,13,113,1510053,,,,,,,2022-05-13,1,,,,,セブンエイト,0
966,4011001147445,新規,0,2022-05-13,2022-05-13,株式会社４Ｄ,,株式会社,東京都,渋谷区,笹塚１丁目５２番６号千葉ビル８０２,,13,113,1510073,,,,,,,2022-05-13,1,,,,,フォーディー,0
967,4011001147503,新規,0,2022-05-13,2022-05-13,株式会社カンブリア,,株式会社,東京都,渋谷区,神宮前４丁目１６番２号パナック表参道ビルＩＩ,00126553,13,113,1500001,,,,,,,2022-05-13,1,,,,,カンブリア,0
969,4011101098828,新規,0,2022-05-13,2022-05-13,株式会社ＴＩＳＫＥＴ,,株式会社,東京都,新宿区,西新宿７丁目４番７号イマス浜田ビル３Ｆ－Ｂ,,13,104,1600023,,,,,,,2022-05-13,1,,,,,ティスケット,0
979,4011601025950,新規,0,2022-05-13,2022-05-13,株式会社ウイング,,株式会社,東京都,練馬区,羽沢１丁目７番７号第二ゼネラルビル５Ｆ,,13,120,1760003,,,,,,,2022-05-13,1,,,,,ウイング,0
986,4012301012990,新規,0,2022-05-13,2022-05-13,株式会社スペリオール,,株式会社,東京都,町田市,鶴川４丁目８番地３,,13,209,1950061,,,,,,,2022-05-13,1,,,,,スペリオール,0
989,4012705002308,新規,0,2022-05-13,2022-05-13,一般社団法人コニエレニ,,その他の設立登記法人,東京都,小平市,仲町６２８番地の３９,,13,211,1870042,,,,,,,2022-05-13,1,,,,,コニエレニ,0
991,4012801021574,新規,0,2022-05-13,2022-05-13,株式会社定敏,,株式会社,東京都,国分寺市,本町３丁目７番１９号イニシア国分寺本町３０２,,13,214,1850012,,,,,,,2022-05-13,1,,,,,サダトシ,0
992,4013101008915,新規,0,2022-05-13,2022-05-13,株式会社青梅Ａｌｉｖｅ,,株式会社,東京都,青梅市,東青梅１丁目８番地１,,13,205,1980042,,,,,,,2022-05-13,1,,,,,オウメアライブ,0
993,4013105001800,新規,0,2022-05-13,2022-05-13,一般社団法人Ａｌｉｖｅ,,その他の設立登記法人,東京都,青梅市,東青梅１丁目８番地１,,13,205,1980042,,,,,,,2022-05-13,1,,,,,アライブ,0
1003,4020001146489,新規,0,2022-05-13,2022-05-13,株式会社川崎幸製麺,,株式会社,神奈川県,川崎市幸区,南幸町３丁目１２６番地１水産棟２階,,14,132,2120016,,,,,,,2022-05-13,1,,,,,カワサキサイワイセイメン,0
1004,4020001146506,新規,0,2022-05-13,2022-05-13,株式会社ｂｅａｇｅｎｔ,,株式会社,神奈川県,横浜市青葉区,あかね台１丁目２２番地２１,,14,117,2270066,,,,,,,2022-05-13,1,,,,,ビージェント,0
1005,4020001146514,新規,0,2022-05-13,2022-05-13,株式会社ＲＳＨＣ,,株式会社,神奈川県,横浜市港北区,篠原西町７－２３,,14,109,2220025,,,,,,,2022-05-13,1,,,,,アーシュ,0
1018,4030001148187,新規,0,2022-05-13,2022-05-13,Ａ＆Ｈ株式会社,,株式会社,埼玉県,さいたま市浦和区,岸町７丁目１番７号,,11,107,3300064,,,,,,,2022-05-13,1,,,,,エーアンドエイチ,0
1024,4030003019411,新規,0,2022-05-13,2022-05-13,ＯＭＡＧＡ　ＴＲＡＤＩＮＧ合同会社,,合同会社,埼玉県,北葛飾郡杉戸町,清地５丁目１５－１５,,11,464,3450025,,,,,,,2022-05-13,1,,,,,オマガトレーディング,0
1036,4040001123370,新規,0,2022-05-13,2022-05-13,株式会社山本石材彫刻,,株式会社,千葉県,松戸市,胡録台１３１番地,,12,207,2710075,,,,,,,2022-05-13,1,,,,,ヤマモトセキザイチョウコク,0
1037,4040001123404,新規,0,2022-05-13,2022-05-13,株式会社アウル,,株式会社,千葉県,野田市,山崎１７５８番地,,12,208,2780022,,,,,,,2022-05-13,1,,,,,アウル,0
1043,4040005021604,新規,0,2022-05-13,2022-05-13,一般社団法人ロード１５,,その他の設立登記法人,千葉県,山武市,蓮沼イの３４３９番地５,,12,237,2891801,,,,,,,2022-05-13,1,,,,,ロードジュウゴ,0
1044,4040005021612,新規,0,2022-05-13,2022-05-13,医療法人社団成誠会,,その他の設立登記法人,千葉県,成田市,飯田町１５４番地８,,12,211,2860041,,,,,,,2022-05-13,1,,,,,セイセイカイ,0
1055,4070001039226,新規,0,2022-05-13,2022-05-13,株式会社Ａｍｂｅｒ　ｂｒｏｗｎ,,株式会社,群馬県,高崎市,新保町１６番地ＮＡＧＡＩテナント２階Ｄ号室ｒｏｏｍ２,,10,202,3700018,,,,,,,2022-05-13,1,,,,,アンバーブラウン,0
1079,4120001245784,新規,0,2022-05-13,2022-05-13,アルファプラス株式会社,,株式会社,大阪府,門真市,常盤町７番１２号,,27,223,5710078,,,,,,,2022-05-13,1,,,,,アルファプラス,0
1080,4120001245826,新規,0,2022-05-13,2022-05-13,株式会社ＮＯＭＵ,,株式会社,大阪府,大阪市天王寺区,筆ケ崎町５番３９－２００１号,,27,109,5430027,,,,,,,2022-05-13,1,,,,,ノム,0
1081,4120001245859,新規,0,2022-05-13,2022-05-13,学成貿易株式会社,,株式会社,大阪府,大阪市生野区,巽北１丁目２１－２９生野ハイツ１０１５室,00126547,27,116,5440004,,,,,,,2022-05-13,1,,,,,ガクナリボウエキ,0
1082,4120001245891,新規,0,2022-05-13,2022-05-13,銘博株式会社,,株式会社,大阪府,大阪市阿倍野区,美章園２丁目６番８,,27,119,5450003,,,,,,,2022-05-13,1,,,,,メイハク,0
1083,4120001245900,新規,0,2022-05-13,2022-05-13,株式会社４７マーケティング,,株式会社,大阪府,大阪市北区,神山町９－５,,27,127,5300026,,,,,,,2022-05-13,1,,,,,ヨンナナマーケティング,0
1099,4140001125976,新規,0,2022-05-13,2022-05-13,株式会社Ｏｆｆｉｃｅ‐Ｋ,,株式会社,兵庫県,神戸市灘区,灘北通９丁目１番１号灘北レジデンス１００３号,,28,102,6570835,,,,,,,2022-05-13,1,,,,,オフィスケー,0
1100,4140001125984,新規,0,2022-05-13,2022-05-13,株式会社Ｔプロジェクトカンパニー,,株式会社,兵庫県,神戸市須磨区,高倉台２丁目１７番３号,,28,107,6540081,,,,,,,2022-05-13,1,,,,,ティープロジェクトカンパニー,0
1104,4140003017643,新規,0,2022-05-13,2022-05-13,ふんわり合同会社,,合同会社,兵庫県,芦屋市,船戸町５－２６マリアキャリーヌビル,,28,206,6590093,,,,,,,2022-05-13,1,,,,,フンワリ,0
1105,4140003017668,新規,0,2022-05-13,2022-05-13,合同会社ＴＫＨＳ,,合同会社,兵庫県,神戸市北区,北五葉７丁目１番３－４０６号,,28,109,6511131,,,,,,,2022-05-13,1,,,,,ティーケイエイチエス,0
1108,4150001025507,新規,0,2022-05-13,2022-05-13,株式会社アイルウィン,,株式会社,奈良県,香芝市,別所２３番地３レオパレスクリオネ１０７号,,29,210,6390224,,,,,,,2022-05-13,1,,,,,アイルウィン,0
1109,4150001025548,新規,0,2022-05-13,2022-05-13,株式会社キャピタリアン,,株式会社,奈良県,吉野郡天川村,大字九尾６番地,,29,446,6380541,,,,,,,2022-05-13,1,,,,,キャピタリアン,0
1111,4160001024193,新規,0,2022-05-13,2022-05-13,株式会社高山工業,00126559,株式会社,滋賀県,栗東市,荒張１２７５番地３,,25,208,5203003,,,,,,,2022-05-13,1,,,,,タカヤマコウギョウ,0
1120,4180001151291,新規,0,2022-05-13,2022-05-13,株式会社愛ヨッシーホーム,,株式会社,愛知県,名古屋市東区,葵２丁目１４番２９号,,23,102,4610004,,,,,,,2022-05-13,1,,,,,アイヨッシーホーム,0
1129,4200001040070,新規,0,2022-05-13,2022-05-13,株式会社つむぎ舎,,株式会社,岐阜県,高山市,大新町２丁目８９番地,,21,203,5060851,,,,,,,2022-05-13,1,,,,,ツムギヤ,0
1132,4210001018933,新規,0,2022-05-13,2022-05-13,株式会社ＫＧディノ・リゾート,,株式会社,福井県,勝山市,栄町２丁目７番６号,,18,206,9110033,,,,,,,2022-05-13,1,,,,,ケージーディノリゾート,0
1146,4290001097466,新規,0,2022-05-13,2022-05-13,株式会社ＮＯＭＡＸ,,株式会社,福岡県,那珂川市,片縄６丁目７番地１,,40,231,8111201,,,,,,,2022-05-13,1,,,,,ノマックス,0
1147,4290001097516,新規,0,2022-05-13,2022-05-13,株式会社ＭＩＮＤ　ＴＲＵＳＳ,,株式会社,福岡県,福岡市中央区,平尾１丁目１０番２０－３Ａ号ＢＲＡＭＡＳＯＬＥｈｉｒａｏ,,40,133,8100014,,,,,,,2022-05-13,1,,,,,マインドトラス,0
1148,4290001097524,新規,0,2022-05-13,2022-05-13,株式会社デアンドエル,,株式会社,福岡県,福岡市西区,周船寺１丁目６番９号,,40,135,8190373,,,,,,,2022-05-13,1,,,,,デアンドエル,0
1149,4290001097532,新規,0,2022-05-13,2022-05-13,株式会社国際建材センター,,株式会社,福岡県,福岡市東区,青葉４丁目１７番２号,,40,131,8130025,,,,,,,2022-05-13,1,,,,,コクサイケンザイセンター,0
1151,4290003012480,新規,0,2022-05-13,2022-05-13,合同会社オヤジすこやか,,合同会社,福岡県,福岡市東区,香住ヶ丘５丁目２１番２７号,,40,131,8130003,,,,,,,2022-05-13,1,,,,,オヤジスコヤカ,0
1159,4340001024729,新規,0,2022-05-13,2022-05-13,株式会社平岩マシナリー,,株式会社,鹿児島県,出水市,知識町３５４番地１,,46,208,8990211,,,,,,,2022-05-13,1,,,,,ヒライワマシナリー,0
1172,4410003003657,新規,0,2022-05-13,2022-05-13,合同会社銘澤,,合同会社,秋田県,秋田市,山王沼田町７－８リハイム山王４０４号,,05,201,0100954,,,,,,,2022-05-13,1,,,,,メイサワ,0
1177,4420003002518,新規,0,2022-05-13,2022-05-13,合同会社ＡｔｅｌｉｅｒＮＯＺ,,合同会社,青森県,青森市,大字浅虫字山下２３１番地１２,,02,201,0393501,,,,,,,2022-05-13,1,,,,,アトリエノズ,0
1180,4430001086561,新規,0,2022-05-13,2022-05-13,株式会社ＷＦＰダチョウファーム,,株式会社,北海道,勇払郡むかわ町,汐見５２９番地３,,01,586,0540015,,,,,,,2022-05-13,1,,,,,ダブリューエフピーダチョウファーム,0
1181,4430001086586,新規,0,2022-05-13,2022-05-13,本田ハビタットデザイン株式会社,,株式会社,北海道,札幌市中央区,円山西町５丁目１２番４８号,,01,101,0640944,,,,,,,2022-05-13,1,,,,,ホンダハビタットデザイン,0
1182,4430001086603,新規,0,2022-05-13,2022-05-13,株式会社Ｊ‐エイト設備,,株式会社,北海道,北広島市,大曲並木３丁目７番地４,,01,234,0611279,,,,,,,2022-05-13,1,,,,,ジェイエイトセツビ,0
1183,4430001086628,新規,0,2022-05-13,2022-05-13,株式会社上杉工務店,,株式会社,北海道,苫小牧市,柏木町１丁目２番７号,,01,213,0530823,,,,,,,2022-05-13,1,,,,,ウエスギコウムテン,0
1184,4430001086660,新規,0,2022-05-13,2022-05-13,株式会社大日本国祭観光,,株式会社,北海道,札幌市中央区,南十二条西１丁目１番１５－５０５号,,01,101,0640912,,,,,,,2022-05-13,1,,,,,ダイニッポンコクサイカンコウ,0
1186,4430005014469,新規,0,2022-05-13,2022-05-13,一般社団法人ドローンスクール協会,,その他の設立登記法人,北海道,札幌市北区,新琴似五条１３丁目８番１－１０１号,,01,102,0010905,,,,,,,2022-05-13,1,,,,,ドローンスクールキョウカイ,0
1187,4440002005040,新規,0,2022-05-13,2022-05-13,有限会社ヤマト建設運輸,,有限会社,北海道,上磯郡知内町,字森越１０３番地１０３,,01,333,0491102,,,,,,,2022-05-13,1,,,,,ヤマトケンセツウンユ,0
1188,4460101007191,新規,0,2022-05-13,2022-05-13,株式会社ＣＨＩＥＮＯＴＥＣＨ,,株式会社,北海道,帯広市,西十九条南１丁目７番地３０,,01,207,0802469,,,,,,,2022-05-13,1,,,,,チエノテック,0
1189,4460103001457,新規,0,2022-05-13,2022-05-13,合同会社きみよし,,合同会社,北海道,帯広市,清流東３丁目６番地２,,01,207,0800871,,,,,,,2022-05-13,1,,,,,キミヨシ,0
1193,4480001011738,新規,0,2022-05-13,2022-05-13,株式会社スカイ・イーグレット七条,,株式会社,徳島県,板野郡藍住町,徳命字前須東２１４番地２,,36,403,7711212,,,,,,,2022-05-13,1,,,,,スカイイーグレットシチジョウ,0
1196,4700150108493,新規,0,2022-05-13,2022-05-02,ビバアルテ,,その他,兵庫県,西宮市,甲子園六番町１４－２０,,28,204,6638176,,,,,,,2022-05-02,1,,,,,ビバアルテ,0
1197,4700150108725,新規,0,2022-05-13,2022-05-13,Ｖｅｌｏｃｌｏｕｄ　Ｎｅｔｗｏｒｋｓ，ＬＬＣ,,外国会社等,,,,,,,,３４０１　Ｈｉｌｌｖｉｅｗ　Ａｖｅｎｕｅ，Ｐａｌｏ　Ａｌｔｏ　ＣＡ　９４３０４，Ｕｎｉｔｅｄ　Ｓｔａｔｅｓ,,,,,,2022-05-13,1,,,,,ヴエロクラウドネツトワークスリミテツドライアビリテイカンパニー,0
1206,5010001226514,新規,0,2022-05-13,2022-05-13,株式会社アンヴィル情報,,株式会社,東京都,千代田区,神田佐久間町３丁目３８第５東ビル５階,,13,101,1010025,,,,,,,2022-05-13,1,,,,,アンヴィルジョウホウ,0
1207,5010001226563,新規,0,2022-05-13,2022-05-13,株式会社ファミリーオフィス・デザイン,,株式会社,東京都,千代田区,内幸町１丁目３番１号,,13,101,1000011,,,,,,,2022-05-13,1,,,,,ファミリーオフィスデザイン,0
1212,5010003037686,新規,0,2022-05-13,2022-05-13,合同会社メリーズ,,合同会社,東京都,文京区,本郷１丁目２３番１－６０３号ガーラレジデンス文京本郷,,13,105,1130033,,,,,,,2022-05-13,1,,,,,メリーズ,0
1220,5010403027485,新規,0,2022-05-13,2022-05-13,合同会社Ｓｅｌｆ　ｅｖｅｒｙ,,合同会社,東京都,港区,南青山２丁目２番１５号,,13,103,1070062,,,,,,,2022-05-13,1,,,,,セルフエブリー,0
1239,5010901050856,新規,0,2022-05-13,2022-05-13,株式会社ＡＣサプライ,,株式会社,東京都,世田谷区,三軒茶屋２丁目５番２号エスカイア三軒茶屋４０１,,13,112,1540024,,,,,,,2022-05-13,1,,,,,エーシーサプライ,0
1250,5011001147221,新規,0,2022-05-13,2022-05-13,株式会社パルセック,,株式会社,東京都,渋谷区,神宮前６丁目２３番４号桑野ビル２階,,13,113,1500001,,,,,,,2022-05-13,1,,,,,パルセック,0
1253,5011003014667,新規,0,2022-05-13,2022-05-13,合同会社横浜ライフ,,合同会社,東京都,渋谷区,代々木２丁目１１番５－９０３号,,13,113,1510053,,,,,,,2022-05-13,1,,,,,ヨコハマライフ,0
1258,5011101098802,新規,0,2022-05-13,2022-05-13,株式会社縁ｉｎｇ　ＪＡＰＡＮ,,株式会社,東京都,新宿区,西新宿７丁目５番９－１７１４号,,13,104,1600023,,,,,,,2022-05-13,1,,,,,エニシングジャパン,0
1259,5011103011738,新規,0,2022-05-13,2022-05-13,ケーティージーエス合同会社,,合同会社,東京都,新宿区,高田馬場１丁目２８－１０,,13,104,1690075,,,,,,,2022-05-13,1,,,,,ケーティージーエス,0
1267,5011703003143,新規,0,2022-05-13,2022-05-13,合同会社あかつき企画,,合同会社,東京都,江戸川区,江戸川６丁目１６番地１３,,13,123,1340013,,,,,,,2022-05-13,1,,,,,アカツキキカク,0
1273,5012401039198,新規,0,2022-05-13,2022-05-13,株式会社ＳＴＡＮＤ,,株式会社,東京都,三鷹市,下連雀３丁目２番３－３１３号,,13,204,1810013,,,,,,,2022-05-13,1,,,,,スタンド,0
1274,5012405004735,新規,0,2022-05-13,2022-05-13,一般社団法人多摩大学同窓会,,その他の設立登記法人,東京都,多摩市,聖ヶ丘４丁目１番地１、学校法人田村学園多摩大学多摩キャンパス内,,13,224,2060022,,,,,,,2022-05-13,1,,,,,タマダイガクドウソウカイ,0
1287,5020001146463,新規,0,2022-05-13,2022-05-13,株式会社オレンジハウス,,株式会社,神奈川県,横浜市西区,楠町１４番地１,,14,103,2200003,,,,,,,2022-05-13,1,,,,,オレンジハウス,0
1288,5020001146471,新規,0,2022-05-13,2022-05-13,株式会社リバーサイド,,株式会社,神奈川県,横浜市中区,千歳町１番地２横浜ＴＨビル６０２号室,,14,104,2310035,,,,,,,2022-05-13,1,,,,,リバーサイド,0
1289,5020001146488,新規,0,2022-05-13,2022-05-13,株式会社ＮＴＱコンサルティングジャパン,,株式会社,神奈川県,横浜市神奈川区,金港町６番地３横浜金港町ビル３Ｆ,,14,102,2210056,,,,,,,2022-05-13,1,,,,,エヌティーキューコンサルティングジャパン,0
1292,5021001075958,新規,0,2022-05-13,2022-05-13,株式会社Ｋｏｔｔｙ,,株式会社,神奈川県,大和市,大和東１丁目２番１号,,14,213,2420017,,,,,,,2022-05-13,1,,,,,コッティ,0
1307,5030001148104,新規,0,2022-05-13,2022-05-13,ＨＥＡＲＴＳ株式会社,,株式会社,埼玉県,川口市,大字里１６４０番地の１プラティーククレイヴ６０６号,,11,203,3340005,,,,,,,2022-05-13,1,,,,,ハーツ,0
1308,5030001148194,新規,0,2022-05-13,2022-05-13,株式会社エムズオート,,株式会社,埼玉県,秩父市,中村町１丁目６番２号,,11,207,3680051,,,,,,,2022-05-13,1,,,,,エムズオート,0
1309,5030001148203,新規,0,2022-05-13,2022-05-13,株式会社アルファ,,株式会社,埼玉県,川越市,砂新田２丁目１４番地１０１号室,,11,201,3501137,,,,,,,2022-05-13,1,,,,,アルファ,0
1318,5040001123378,新規,0,2022-05-13,2022-05-13,みやこ設備株式会社,,株式会社,千葉県,千葉市若葉区,小倉町８５９番地２５,,12,104,2640007,,,,,,,2022-05-13,1,,,,,ミヤコセツビ,0
1319,5040001123386,新規,0,2022-05-13,2022-05-13,株式会社Ｔｗｅｅｄｉａ,,株式会社,千葉県,我孫子市,我孫子３丁目４番１５号,,12,222,2701166,,,,,,,2022-05-13,1,,,,,トゥイーディア,0
1320,5040001123394,新規,0,2022-05-13,2022-05-13,株式会社泉栄,,株式会社,千葉県,千葉市緑区,平川町１７６８番地３,,12,105,2660004,,,,,,,2022-05-13,1,,,,,センエイ,0
1321,5040001123411,新規,0,2022-05-13,2022-05-13,株式会社Ｍ＆Ｕカンパニー,,株式会社,千葉県,千葉市緑区,古市場町３６４番地,,12,105,2660026,,,,,,,2022-05-13,1,,,,,エムアンドユウカンパニー,0
1326,5040003020029,新規,0,2022-05-13,2022-05-13,ＨＴＹ合同会社,,合同会社,千葉県,四街道市,鹿放ケ丘９２番地,,12,228,2840008,,,,,,,2022-05-13,1,,,,,エイチティーワイ,0
1327,5040005021611,新規,0,2022-05-13,2022-05-13,医療法人社団めいわ歯科医院,,その他の設立登記法人,千葉県,四街道市,めいわ１丁目２３番１４号,,12,228,2840043,,,,,,,2022-05-13,1,,,,,メイワシカイイン,0
1334,5050003006555,新規,0,2022-05-13,2022-05-13,合同会社メイアクティブ,,合同会社,茨城県,稲敷郡阿見町,大字若栗３４２２番地の１４,,08,443,3000333,,,,,,,2022-05-13,1,,,,,メイアクティブ,0
1341,5070001039209,新規,0,2022-05-13,2022-05-13,株式会社アートプロジェクト,,株式会社,群馬県,吾妻郡中之条町,大字西中之条２４９番地１,,10,421,3770425,,,,,,,2022-05-13,1,,,,,アートプロジェクト,0
1342,5070003004482,新規,0,2022-05-13,2022-05-13,キタムラ企画合同会社,,合同会社,群馬県,太田市,新井町２１３番地,,10,205,3730852,,,,,,,2022-05-13,1,,,,,キタムラキカク,0
1355,5090001017559,新規,0,2022-05-13,2022-05-13,株式会社仲野工務店,,株式会社,山梨県,南都留郡西桂町,下暮地４７８番地２,,19,423,4030021,,,,,,,2022-05-13,1,,,,,ナカノコウムテン,0
1356,5090003002088,新規,0,2022-05-13,2022-05-13,たたかう合同会社,,合同会社,山梨県,甲州市,塩山藤木１９２２番地,,19,213,4040054,,,,,,,2022-05-13,1,,,,,,0
1357,5100001035336,新規,0,2022-05-13,2022-05-13,株式会社アクア,,株式会社,長野県,東筑摩郡山形村,３０１１番地３３,,20,450,3901301,,,,,,,2022-05-13,1,,,,,アクア,0
1360,5100005012876,新規,0,2022-05-13,2022-05-13,医療法人社団ＩＦＣ,,その他の設立登記法人,長野県,飯山市,大字静間２０９１番地２,,20,213,3892255,,,,,,,2022-05-13,1,,,,,シャダンアイエフシー,0
1364,5120001089289,新規,0,2022-05-13,2022-05-13,株式会社ホソミ,,株式会社,大阪府,大阪市中央区,（大阪市南区日本橋一丁目２２番２１号）,,27,128,5390000,,,,,,,2022-05-13,1,,,,,ホソミ,0
1369,5120001245866,新規,0,2022-05-13,2022-05-13,株式会社トライストーン,,株式会社,大阪府,大阪市住吉区,東粉浜２丁目２番１４号,,27,120,5580051,,,,,,,2022-05-13,1,,,,,トライストーン,0
1379,5120101065520,新規,0,2022-05-13,2022-05-13,株式会社日興ネクスト,,株式会社,大阪府,泉佐野市,中庄１４５８番地４,,27,213,5980002,,,,,,,2022-05-13,1,,,,,ニッコウネクスト,0
1381,5120103004699,新規,0,2022-05-13,2022-05-13,ＳＵＮＮＹ　ＳＫＹ合同会社,,合同会社,大阪府,和泉市,唐国町１丁目１２番２号Ｂ棟９０３号室,,27,219,5941151,,,,,,,2022-05-13,1,,,,,サニースカイ,0
1384,5120905006323,新規,0,2022-05-13,2022-05-13,一般社団法人あすなろ,,その他の設立登記法人,大阪府,高槻市,高垣町５１番３０号リラ・グラート１０３号,,27,207,5690097,,,,,,,2022-05-13,1,,,,,アスナロ,0
1392,5130001071741,新規,0,2022-05-13,2022-05-13,企業型確定拠出年金相談センター株式会社,,株式会社,京都府,京都市中京区,蛸薬師通烏丸西入橋弁慶町２２２,,26,104,6048151,,,,,,,2022-05-13,1,,,,,キギョウガタカクテイキョシュツネンキンソウダンセンター,0
1393,5130001071766,新規,0,2022-05-13,2022-05-13,株式会社ＴｉｉＭ,,株式会社,京都府,京都市中京区,西洞院通三条下る柳水町８４三洋六角ビル４０１,,26,104,6048242,,,,,,,2022-05-13,1,,,,,ティーム,0
1394,5130001071774,新規,0,2022-05-13,2022-05-13,マルキン商店株式会社,,株式会社,京都府,京都市右京区,西京極大門町１７番地４グラン・シティオ西京極４０２,,26,108,6150812,,,,,,,2022-05-13,1,,,,,マルキンショウテン,0
1398,5130005016478,新規,0,2022-05-13,2022-05-13,一般社団法人国際メタバース協会,,その他の設立登記法人,京都府,京都市左京区,下鴨北野々神町３５番地５,,26,103,6060846,,,,,,,2022-05-13,1,,,,,コクサイメタバースキョウカイ,0
1406,5140001125983,新規,0,2022-05-13,2022-05-13,ＶＰ　ＩＭＰＥＸ　ＬＩＭＩＴＥＤ株式会社,,株式会社,兵庫県,神戸市中央区,浜辺通４丁目１－２３三宮ベンチャービルディング８階８１１,,28,110,6510083,,,,,,,2022-05-13,1,,,,,ブイピイインペックスリミテッド,0
1429,5180001151274,新規,0,2022-05-13,2022-05-13,株式会社ハートブリッジ,,株式会社,愛知県,名古屋市中川区,山王３丁目６番１３号,,23,110,4540011,,,,,,,2022-05-13,1,,,,,ハートブリッジ,0
1430,5180003023777,新規,0,2022-05-13,2022-05-13,合同会社ＺＯＯ,,合同会社,愛知県,日進市,東山４丁目２０２番地,,23,230,4700116,,,,,,,2022-05-13,1,,,,,ズー,0
1432,5180005019773,新規,0,2022-05-13,2022-05-13,一般社団法人全日本大学ソフトボール連盟,,その他の設立登記法人,愛知県,知多郡美浜町,大字奥田字会下前３５番６学校法人日本福祉大学内,,23,446,4703233,,,,,,,2022-05-13,1,,,,,ゼンニホンダイガクソフトボールレンメイ,0
1435,5190001029404,新規,0,2022-05-13,2022-05-13,株式会社ＮＥＣＳＴ,,株式会社,三重県,鈴鹿市,算所町１２６４－２,,24,207,5130805,,,,,,,2022-05-13,1,,,,,ネクスト,0
1440,5240001059775,新規,0,2022-05-13,2022-05-13,株式会社Ｏ．Ｓ．Ｗｏｒｋｓ,,株式会社,広島県,福山市,曙町６丁目１７番２８号,00126558,34,207,7210952,,,,,,,2022-05-13,1,,,,,オーエスワークス,0
1441,5240003005612,新規,0,2022-05-13,2022-05-13,合同会社ＤＣＪ,,合同会社,広島県,福山市,御幸町大字中津原１７０５番地１５,,34,207,7200004,,,,,,,2022-05-13,1,,,,,ディーシージェー,0
1444,5260001036847,新規,0,2022-05-13,2022-05-13,株式会社オージーエス,,株式会社,岡山県,岡山市南区,豊成３丁目３番２９号,,33,104,7000942,,,,,,,2022-05-13,1,,,,,オージーエス,0
1446,5280001008695,新規,0,2022-05-13,2022-05-13,株式会社ｂｅｓｓｅｒ,,株式会社,島根県,出雲市,大津朝倉２丁目２番地１６,,32,203,6930015,,,,,,,2022-05-13,1,,,,,ベーサー,0
1452,5290001097498,新規,0,2022-05-13,2022-05-13,株式会社Ｍｅｒ　ｅｔ　Ｓｏｌｅｉｌ,,株式会社,福岡県,糟屋郡宇美町,ひばりが丘３丁目２番１０号,,40,341,8112106,,,,,,,2022-05-13,1,,,,,メレソレイ,0
1453,5290001097515,新規,0,2022-05-13,2022-05-13,株式会社ＶＡＬＵＡＢＬＥ　ＬＩＦＥ,,株式会社,福岡県,福岡市博多区,博多駅中央街８番１号ＪＲＪＰ博多ビル３Ｆ,,40,132,8120012,,,,,,,2022-05-13,1,,,,,バリュアブルライフ,0
1455,5290003012496,新規,0,2022-05-13,2022-05-13,合同会社ＤＬＩＧＨＴ,,合同会社,福岡県,春日市,光町３丁目１０２番１号,,40,218,8160806,,,,,,,2022-05-13,1,,,,,ディライト,0
1456,5290003012513,新規,0,2022-05-13,2022-05-13,合同会社Ｓｈａｋａｗｏｏｄ,,合同会社,福岡県,福岡市中央区,渡辺通１丁目９－３－６０１,,40,133,8100004,,,,,,,2022-05-13,1,,,,,シャカウッド,0
1460,5300001012934,新規,0,2022-05-13,2022-05-13,株式会社Ｈｅａｌｉｎ,,株式会社,佐賀県,佐賀市,天祐１丁目８番２号,,41,201,8400851,,,,,,,2022-05-13,1,,,,,ヒーリン,0
1465,5320001019069,新規,0,2022-05-13,2022-05-13,株式会社ＯＸ,,株式会社,大分県,大分市,弁天１丁目５番１７号,,44,201,8700017,,,,,,,2022-05-13,1,,,,,オーエックス,0
1470,5330003009348,新規,0,2022-05-13,2022-05-13,合同会社２０１Ｅｎｔｅｒｐｒｉｓｅ,,合同会社,熊本県,熊本市中央区,坪井２丁目２－４２ニュー広町ビル１階,,43,101,8600863,,,,,,,2022-05-13,1,,,,,トゥーオーワンエンタープライズ,0
1471,5330003009364,新規,0,2022-05-13,2022-05-13,合同会社ＮＥＸＴ　ＳＴＡＧＥ,,合同会社,熊本県,熊本市中央区,本荘４丁目１０番１４号タカラヤビル１－Ｂ,,43,101,8600811,,,,,,,2022-05-13,1,,,,,ネクストステージ,0
1475,5360001030352,新規,0,2022-05-13,2022-05-13,Ｋｏｋｏｎｉ株式会社,,株式会社,沖縄県,那覇市,前島３丁目２５番２号泊ポートビル５Ｆ,,47,201,9000016,,,,,,,2022-05-13,1,,,,,ココニ,0
1476,5360001030377,新規,0,2022-05-13,2022-05-13,株式会社みーふぁいゆー,,株式会社,沖縄県,那覇市,久米２丁目８番８号新栄プロパティ久米３－Ｂ号,,47,201,9000033,,,,,,,2022-05-13,1,,,,,ミーファイユー,0
1478,5370001048559,新規,0,2022-05-13,2022-05-13,株式会社コーワ東北,,株式会社,宮城県,仙台市宮城野区,岡田字樋前１１番地,,04,102,9830003,,,,,,,2022-05-13,1,,,,,コーワトウホク,0
1484,5410001013186,新規,0,2022-05-13,2022-05-13,翔和精工株式会社,,株式会社,秋田県,にかほ市,畑字町田４番地１,,05,214,0180433,,,,,,,2022-05-13,1,,,,,ショウワセイコウ,0
1486,5420005007811,新規,0,2022-05-13,2022-05-13,一般社団法人セライオＣＮＣ,,その他の設立登記法人,青森県,十和田市,大字三本木字千歳森３３３－１７,,02,206,0340001,,,,,,,2022-05-13,1,,,,,セライオシーエヌシー,0
1488,5430001086602,新規,0,2022-05-13,2022-05-13,大信エステート株式会社,,株式会社,北海道,札幌市中央区,南二条西７丁目１番地４,,01,101,0600062,,,,,,,2022-05-13,1,,,,,ダイシンエステート,0
1489,5430001086619,新規,0,2022-05-13,2022-05-13,みさわクリエイティブワークス株式会社,,株式会社,北海道,札幌市中央区,南一条西１０丁目６番地,,01,101,0600061,,,,,,,2022-05-13,1,,,,,ミサワクリエイティブワークス,0
1491,5430003013884,新規,0,2022-05-13,2022-05-13,ＦＡＺ合同会社,,合同会社,北海道,札幌市中央区,北五条西２６丁目１番７号,,01,101,0640825,,,,,,,2022-05-13,1,,,,,ファズ,0
1497,5480001011737,新規,0,2022-05-13,2022-05-13,株式会社奏功,,株式会社,徳島県,阿南市,新野町北宮ノ久保７１番地８,,36,204,7791510,,,,,,,2022-05-13,1,,,,,ソウコウ,0
1502,5490001010176,新規,0,2022-05-13,2022-05-13,株式会社マイカーセンターごとう,,株式会社,高知県,高知市,鷹匠町２丁目４番７９－２０３号,,39,201,7800862,,,,,,,2022-05-13,1,,,,,マイカーセンターゴトウ,0
1506,5700150052740,新規,0,2022-05-13,2015-10-09,山口県インターンシップ推進協議会,,その他,山口県,山口市,中央５丁目２－３１,,35,203,7530074,,,,,,,2015-10-09,1,,,,,ヤマグチケンインターンシツプスイシンキヨウギカイ,0
1507,5700150108492,新規,0,2022-05-13,2022-05-02,Ｂｒｉｌｌｉａｎｔ　Ｒｅｖｕｅ,,その他,東京都,大田区,上池台２丁目３２－１３ニューブリード洗足池１０１,,13,111,1450064,,,,,,,2022-05-02,1,,,,,ブリリアントレビユー,0
1508,5700150108575,新規,0,2022-05-13,2022-05-10,Ｓｔｕｄｉｏ２６音楽企画,,その他,北海道,札幌市北区,屯田四条８丁目４番１１号,,01,102,0020854,,,,,,,2022-05-10,1,,,,,スタジオニジユウロクオンガクキカク,0
1509,5700150108600,新規,0,2022-05-13,2022-05-10,Ｄｏｂｏ×Ｐｒｏ,,その他,東京都,三鷹市,下連雀３丁目３番５０号パークファミリア５０１,,13,204,1810013,,,,,,,2022-05-10,1,,,,,ドボプロ,0
1510,5700150108699,新規,0,2022-05-13,2022-05-13,ＰＲＯ　ＩＭＡＧＥ　ＴＥＣＨ　ＬＩＭＩＴＥＤ,,外国会社等,,,,,,,,ＵＮＩＴ　５０３，５／Ｆ　ＳＩＬＶＥＲＣＯＲＤ　ＴＯＷＥＲ　２，３０　ＣＡＮＴＯＮ　ＲＤ　ＴＳＴ　ＨＫ,,,,,,2022-05-13,1,,,,,プロイメージテツクリミテツド,0
1511,5700150108724,新規,0,2022-05-13,2022-05-13,Ｐｕｒｅ　Ｓｔｏｒａｇｅ　Ｉｎｔｅｒｎａｔｉｏｎａｌ　Ｌｔｄ,,外国会社等,,,,,,,,１ｓｔ　Ｆｌｏｏｒ，Ａｄｅｌｐｈｉ　Ｐｌａｚａ，Ｄｕｎ　Ｌａｏｇｈａｉｒｅ　Ａ９６　Ｔ９２　ＣＯＵＮＴＹ,,,,,,2022-05-13,1,,,,,ピユアストレージインターナシヨナルリミテツド,0
1518,6010001226554,新規,0,2022-05-13,2022-05-13,株式会社彩,,株式会社,東京都,文京区,小石川５丁目３５番８－３０３号,,13,105,1120002,,,,,,,2022-05-13,1,,,,,イロドリ,0
1519,6010001226562,新規,0,2022-05-13,2022-05-13,ＰＷＭフィナンシャル・パートナーズ株式会社,,株式会社,東京都,中央区,京橋２丁目１４番１号,,13,102,1040031,,,,,,,2022-05-13,1,,,,,ピーダブルエムフィナンシャルパートナーズ,0
1520,6010001226612,新規,0,2022-05-13,2022-05-13,ＦｏｒｅｓｔＡＩ株式会社,,株式会社,東京都,中央区,銀座１丁目１２番４号Ｎ＆ＥＢＬＤ．７階,,13,102,1040061,,,,,,,2022-05-13,1,,,,,フォレストエイアイ,0
1527,6010003037669,新規,0,2022-05-13,2022-05-13,ＡＫＭ合同会社,,合同会社,東京都,中央区,日本橋馬喰町２丁目７番１５号ザ・パークレックス日本橋馬喰町ビル３階,,13,102,1030002,,,,,,,2022-05-13,1,,,,,エーケーエム,0
1538,6010401167200,新規,0,2022-05-13,2022-05-13,ＶＩＸＩＡ株式会社,,株式会社,東京都,港区,南青山２丁目８番１８号,,13,103,1070062,,,,,,,2022-05-13,1,,,,,ヴィクシア,0
1541,6010405020958,新規,0,2022-05-13,2022-05-13,一般社団法人医師連合会,,その他の設立登記法人,東京都,港区,虎ノ門３丁目２２－７東武ハイライン第二芝虎ノ門３０２,,13,103,1050001,,,,,,,2022-05-13,1,,,,,イシレンゴウカイ,0
1545,6010801032961,新規,0,2022-05-13,2022-05-13,株式会社ファンテーヌ,,株式会社,東京都,大田区,西蒲田７丁目４８番１４号蒲田センタービル７階Ｃ店舗,,13,111,1440051,,,,,,,2022-05-13,1,,,,,ファンテーヌ,0
1552,6011001147328,新規,0,2022-05-13,2022-05-13,株式会社ＴＯＫＹＯ　ＦＯＯＤ　ＰＲＯＰＥＲＴＹ,,株式会社,東京都,渋谷区,神宮前６丁目２３番４号桑野ビル２階,,13,113,1500001,,,,,,,2022-05-13,1,,,,,トウキョウフードプロパティ,0
1553,6011001147402,新規,0,2022-05-13,2022-05-13,株式会社ＬＵＣＤＡ,,株式会社,東京都,渋谷区,神宮前６丁目２９番４号原宿ｋｏｍｉｙａビル６階,,13,113,1500001,,,,,,,2022-05-13,1,,,,,ラクダ,0
1554,6011001147518,新規,0,2022-05-13,2022-05-13,株式会社Ｊｎａ,,株式会社,東京都,渋谷区,神宮前５丁目１５番２号ルクレ神宮前１０４,,13,113,1500001,,,,,,,2022-05-13,1,,,,,ジェイナ,0
1562,6011101098776,新規,0,2022-05-13,2022-05-13,株式会社ＯＩＣＨＯ,,株式会社,東京都,新宿区,高田馬場４丁目４０－２５－１０１,,13,104,1690075,,,,,,,2022-05-13,1,,,,,オイチョ,0
1563,6011101098826,新規,0,2022-05-13,2022-05-13,株式会社ＳＫ企画,,株式会社,東京都,新宿区,四谷４丁目３１番地クレスト二木ビル,,13,104,1600004,,,,,,,2022-05-13,1,,,,,エスケーキカク,0
1566,6011301027774,新規,0,2022-05-13,2022-05-13,東京工業製造株式会社,,株式会社,東京都,杉並区,天沼２丁目７番７号マンション大竹３０１,,13,115,1670032,,,,,,,2022-05-13,1,,,,,トウキョウコウギョウセイゾウ,0
1567,6011303004367,新規,0,2022-05-13,2022-05-13,合同会社ルル,,合同会社,東京都,杉並区,永福２丁目１５－１０－１０１,,13,115,1680064,,,,,,,2022-05-13,1,,,,,ルル,0
1572,6011703003142,新規,0,2022-05-13,2022-05-13,合同会社ＴＯＨＹＡＭＡ２２,,合同会社,東京都,江戸川区,東葛西９丁目３番１４－１１３２号,,13,123,1340084,,,,,,,2022-05-13,1,,,,,トオヤマニジュウニ,0
1576,6012403005362,新規,0,2022-05-13,2022-05-13,合同会社アーキテクト・ワン,,合同会社,東京都,調布市,深大寺元町４丁目３６番地５,,13,208,1820017,,,,,,,2022-05-13,1,,,,,アーキテクトワン,0
1580,6020001146487,新規,0,2022-05-13,2022-05-13,株式会社グリーンクラス,,株式会社,神奈川県,横浜市中区,翁町１丁目５番地２－５０１号,,14,104,2310028,,,,,,,2022-05-13,1,,,,,グリーンクラス,0
1587,6020003021770,新規,0,2022-05-13,2022-05-13,合同会社ＴＳＫアセットマネジメント,,合同会社,神奈川県,横浜市磯子区,杉田４丁目１７番２１－２号,,14,107,2350033,,,,,,,2022-05-13,1,,,,,ティーエスケーアセットマネジメント,0
1598,6030001148185,新規,0,2022-05-13,2022-05-13,株式会社ＢＲＦ,,株式会社,埼玉県,川口市,東川口３丁目２番４１－８０４号デュオヒルズ東川口ザ・ファースト,,11,203,3330801,,,,,,,2022-05-13,1,,,,,ビーアールエフ,0
1605,6030003019392,新規,0,2022-05-13,2022-05-13,合同会社リノベック,,合同会社,埼玉県,富士見市,西みずほ台２丁目２番地５細田ビル７０１,,11,235,3540018,,,,,,,2022-05-13,1,,,,,リノベック,0
1616,6040001123360,新規,0,2022-05-13,2022-05-13,株式会社プランエム,,株式会社,千葉県,千葉市稲毛区,長沼町２６３番地東建タウンハウス２１棟１号,,12,103,2630005,,,,,,,2022-05-13,1,,,,,プランエム,0
1617,6040001123393,新規,0,2022-05-13,2022-05-13,株式会社ＳＨＯＯＴＯＥ,,株式会社,千葉県,松戸市,稔台７丁目６１番地の２４,,12,207,2702231,,,,,,,2022-05-13,1,,,,,シュートー,0
1619,6040003020028,新規,0,2022-05-13,2022-05-13,合同会社フロム・ツー,,合同会社,千葉県,流山市,おおたかの森北１丁目４番地の１ソライエグラン流山おおたかの森３２５,,12,220,2700119,,,,,,,2022-05-13,1,,,,,フロムツー,0
1620,6040003020036,新規,0,2022-05-13,2022-05-13,７Ｃｏｌｏｒｓ　Ｇａｍｅ合同会社,,合同会社,千葉県,千葉市緑区,茂呂町１２－３,,12,105,2660023,,,,,,,2022-05-13,1,,,,,セブンカラーズゲーム,0
1622,6050001051073,新規,0,2022-05-13,2022-05-13,株式会社ミューニュートリノ,,株式会社,茨城県,笠間市,寺崎１番地１,,08,216,3091614,,,,,,,2022-05-13,1,,,,,ミューニュートリノ,0
1623,6050001051081,新規,0,2022-05-13,2022-05-13,株式会社Ｉｎｓｐｉｒａｔｉｏｎａｌ　Ｂｒａｉｎ　Ｓｏｌｕｔｉｏｎ,,株式会社,茨城県,神栖市,知手１９３番地２,,08,232,3140115,,,,,,,2022-05-13,1,,,,,インスピレーショナルブレインソリューション,0
1641,6080101023291,新規,0,2022-05-13,2022-05-13,株式会社ティーメイク,,株式会社,静岡県,駿東郡清水町,八幡１５番地の１,,22,341,4110906,,,,,,,2022-05-13,1,,,,,ティーメイク,0
1644,6080401025806,新規,0,2022-05-13,2022-05-13,株式会社建設工房佐原,,株式会社,静岡県,湖西市,鷲津８２５番地の９,,22,221,4310431,,,,,,,2022-05-13,1,,,,,ケンセツコウボウサハラ,0
1645,6080403004535,新規,0,2022-05-13,2022-05-13,合同会社ＦＩＤＥＳ,,合同会社,静岡県,浜松市浜北区,西美薗２９０４番地,,22,136,4340033,,,,,,,2022-05-13,1,,,,,フィーデス,0
1648,6100001035335,新規,0,2022-05-13,2022-05-13,株式会社サクラクリエイト,,株式会社,長野県,東御市,加沢１４５２番地２,,20,219,3890514,,,,,,,2022-05-13,1,,,,,サクラクリエイト,0
1656,6110003004758,新規,0,2022-05-13,2022-05-13,合同会社ＮＭＮ,,合同会社,新潟県,長岡市,殿町３丁目３番地９,,15,202,9400064,,,,,,,2022-05-13,1,,,,,エヌエムエヌ,0
1666,6120001245881,新規,0,2022-05-13,2022-05-13,株式会社営業改善,,株式会社,大阪府,大阪市中央区,南本町２丁目１番１号ＴＤフロア１Ｆ,,27,128,5410054,,,,,,,2022-05-13,1,,,,,エイギョウカイゼン,0
1668,6120003021678,新規,0,2022-05-13,2022-05-13,エンドラン合同会社,,合同会社,大阪府,大阪市中央区,博労町１丁目８－１Ｗｉｌｌ博労町ビル１０Ｆ,,27,128,5410059,,,,,,,2022-05-13,1,,,,,エンドラン,0
1673,6120103004698,新規,0,2022-05-13,2022-05-13,合同会社そう,,合同会社,大阪府,高石市,千代田１丁目８番１７号,,27,225,5920005,,,,,,,2022-05-13,1,,,,,ソウ,0
1684,6130001071765,新規,0,2022-05-13,2022-05-13,株式会社こと企画,,株式会社,京都府,京都市伏見区,竹田浄菩提院町２６２番地,,26,109,6128445,,,,,,,2022-05-13,1,,,,,コトキカク,0
1688,6130003007924,新規,0,2022-05-13,2022-05-13,合同会社あおぞら,,合同会社,京都府,京都市上京区,上長者町通烏丸西入元浄花院町５８１番地ザ・パークハウス御所西２０１,,26,102,6028001,,,,,,,2022-05-13,1,,,,,アオゾラ,0
1696,6140001125966,新規,0,2022-05-13,2022-05-13,株式会社ネクストリノベーション,,株式会社,兵庫県,尼崎市,東難波町１丁目１番４－１０６号,,28,202,6600892,,,,,,,2022-05-13,1,,,,,ネクストリノベーション,0
1697,6140001125982,新規,0,2022-05-13,2022-05-13,株式会社ＹＯＵ・ＫＩ,,株式会社,兵庫県,芦屋市,浜町１０番９－１０２号,,28,206,6590025,,,,,,,2022-05-13,1,,,,,ユウキ,0
1707,6180001151307,新規,0,2022-05-13,2022-05-13,ＣＳＹコンサルティング株式会社,,株式会社,愛知県,名古屋市東区,大幸４丁目９番１１号,,23,102,4610043,,,,,,,2022-05-13,1,,,,,シーエスワイコンサルティング,0
1710,6180003023834,新規,0,2022-05-13,2022-05-13,合同会社おおきなわ,,合同会社,愛知県,名古屋市北区,水草町２丁目３９番地の１メゾン水草ＩＩ２０１号室,00126560,23,103,4620042,,,,,,,2022-05-13,1,,,,,オオキナワ,0
1711,6180005019764,新規,0,2022-05-13,2022-05-13,一般社団法人子どもねっこ育社,,その他の設立登記法人,愛知県,東海市,大田町東畑１４６番地の３,,23,222,4770031,,,,,,,2022-05-13,1,,,,,コドモネッコイクシャ,0
1712,6180005019772,新規,0,2022-05-13,2022-05-13,特定非営利活動法人動物愛護ひまわり,,その他の設立登記法人,愛知県,名古屋市中村区,本陣通５丁目８９番地シーズンコート本陣通５０２,,23,105,4530041,,,,,,,2022-05-13,1,,,,,ドウブツアイゴヒマワリ,0
1713,6180301036232,新規,0,2022-05-13,2022-05-13,株式会社Ｓｑｕａｄ,,株式会社,愛知県,安城市,城南町２丁目１６番地９,,23,212,4460043,,,,,,,2022-05-13,1,,,,,スクワッド,0
1717,6190001029386,新規,0,2022-05-13,2022-05-13,株式会社Ｋ‐３,,株式会社,三重県,鈴鹿市,南玉垣町４５５８番地の６,,24,207,5130816,,,,,,,2022-05-13,1,,,,,ケースリー,0
1718,6190001029403,新規,0,2022-05-13,2022-05-13,ＪＯＢ　ＣＯＮＮＥＣＴＩＯＮＳ株式会社,,株式会社,三重県,四日市市,笹川５丁目６５番地３８,,24,202,5100944,,,,,,,2022-05-13,1,,,,,ジョブコネクションズ,0
1719,6190001029411,新規,0,2022-05-13,2022-05-13,株式会社ＳｉＭ,,株式会社,三重県,四日市市,諏訪町９番７－６０５号サーパス諏訪町,,24,202,5100085,,,,,,,2022-05-13,1,,,,,シム,0
1734,6240001059774,新規,0,2022-05-13,2022-05-13,株式会社ツユリデザイン,,株式会社,広島県,広島市佐伯区,五日市町石内１２５０番地,,34,108,7315100,,,,,,,2022-05-13,1,,,,,ツユリデザイン,0
1743,6280001008694,新規,0,2022-05-13,2022-05-13,Ｍａｈａｌｏ．株式会社,,株式会社,島根県,松江市,西尾町１５番地８,,32,201,6900835,,,,,,,2022-05-13,1,,,,,マハロ,0
1750,6290005018680,新規,0,2022-05-13,2022-05-13,メディカルサポート行政書士法人,,その他の設立登記法人,福岡県,福岡市中央区,天神３丁目４番９号ＧＧソーラービル７階Ａ号室,,40,133,8100001,,,,,,,2022-05-13,1,,,,,メディカルサポート,0
1762,6350001017738,新規,0,2022-05-13,2022-05-13,株式会社デンタルラボＫ２,,株式会社,宮崎県,延岡市,富美山町８３－４１４,,45,203,8820051,,,,,,,2022-05-13,1,,,,,デンタルラボケーツー,0
1765,6360003011993,新規,0,2022-05-13,2022-05-13,合同会社オンマート,,合同会社,沖縄県,宮古島市,上野字上野４３７,,47,214,9060204,,,,,,,2022-05-13,1,,,,,オンマート,0
1774,6380001032809,新規,0,2022-05-13,2022-05-13,株式会社ＲＩＮＫエンタープライズ,,株式会社,福島県,郡山市,菜根３丁目２２番３号スイートヴィラ,,07,203,9638862,,,,,,,2022-05-13,1,,,,,リンクエンタープライズ,0
1781,6420001017846,新規,0,2022-05-13,2022-05-13,株式会社澪つくし,,株式会社,青森県,青森市,富田４丁目２４番４３号,,02,201,0380004,,,,,,,2022-05-13,1,,,,,ミオツクシ,0
1787,6430001086568,新規,0,2022-05-13,2022-05-13,株式会社元気工業,,株式会社,北海道,札幌市南区,南沢１９００番１５号,,01,106,0050827,,,,,,,2022-05-13,1,,,,,ゲンキコウギョウ,0
1788,6430001086576,新規,0,2022-05-13,2022-05-13,株式会社アルファプラス,,株式会社,北海道,札幌市豊平区,平岸三条９丁目１番１６号,,01,105,0620933,,,,,,,2022-05-13,1,,,,,アルファプラス,0
1789,6430001086601,新規,0,2022-05-13,2022-05-13,Ｌ．ＣＲＵＩＳＥ株式会社,,株式会社,北海道,札幌市白石区,北郷七条７丁目１－３カネトシビル１Ｆ,,01,104,0030837,,,,,,,2022-05-13,1,,,,,エルクルーズ,0
1792,6430003013883,新規,0,2022-05-13,2022-05-13,合同会社松浦工業,,合同会社,北海道,千歳市,富丘２丁目３番１８号,,01,224,0660034,,,,,,,2022-05-13,1,,,,,マツウラコウギョウ,0
1793,6430003013900,新規,0,2022-05-13,2022-05-13,合同会社イズム,,合同会社,北海道,札幌市中央区,北二条東１丁目５番２号イーホライズン北２条３階,,01,101,0600032,,,,,,,2022-05-13,1,,,,,イズム,0
1804,6700150108434,新規,0,2022-05-13,2022-04-28,ｃａｌｍｏプロデュース,,その他,東京都,江戸川区,平井７丁目３４－３１,,13,123,1320035,,,,,,,2022-04-28,1,,,,,カルモプロデユース,0
1805,6700150108541,新規,0,2022-05-13,2022-05-09,華寿會,,その他,兵庫県,西宮市,甲陽園東山町９－３４－３０３,,28,204,6620012,,,,,,,2022-05-09,1,,,,,コウジユカイ,0
1806,6700150108723,新規,0,2022-05-13,2022-05-13,ＬＧ　Ｃｈｅｍ　Ｌｔｄ．,,外国会社等,,,,,,,,ＬＧ　Ｔｗｉｎ　Ｔｏｗｅｒｓ，１２８，Ｙｅｏｕｉ－ｄａｅｒｏ　Ｙｅｏｎｇｄｅｕｎｇｐｏ－ｇｕ，Ｓｅｏｕｌ，Ｋｏｒｅａ,,,,,,2022-05-13,1,,,,,カブシキガイシヤエルジーカガク,0
1815,7010001226561,新規,0,2022-05-13,2022-05-13,株式会社ＤＩＧＩＳＥＥＤ,,株式会社,東京都,千代田区,内神田１丁目２番１号,,13,101,1010047,,,,,,,2022-05-13,1,,,,,デジシード,0
1816,7010001226644,新規,0,2022-05-13,2022-05-13,株式会社ジョウラッシュ,,株式会社,東京都,中央区,銀座１丁目２２番１１号銀座大竹ビジデンス２階,,13,102,1040061,,,,,,,2022-05-13,1,,,,,ジョウラッシュ,0
1818,7010003037668,新規,0,2022-05-13,2022-05-13,合同会社リアルサービス,,合同会社,東京都,中央区,銀座１丁目２２番１１号銀座大竹ビジデンス２階,,13,102,1040061,,,,,,,2022-05-13,1,,,,,リアルサービス,0
1825,7010401167273,新規,0,2022-05-13,2022-05-13,スタリク株式会社,,株式会社,東京都,港区,赤坂４丁目８番１９号,,13,103,1070052,,,,,,,2022-05-13,1,,,,,スタリク,0
1827,7010405020965,新規,0,2022-05-13,2022-05-13,ＭＦＪＰＮ４特定目的会社,,その他の設立登記法人,東京都,港区,虎ノ門３丁目２２番１０－２０１号,,13,103,1050001,,,,,,,2022-05-13,1,,,,,エムエフジェイピーエヌフォー,0
1835,7010901050854,新規,0,2022-05-13,2022-05-13,株式会社アントレランド,,株式会社,東京都,世田谷区,赤堤１丁目１３番８号,,13,112,1560044,,,,,,,2022-05-13,1,,,,,,0
1838,7011001147095,新規,0,2022-05-13,2022-05-13,株式会社Ｃｉｒｃｕｉｔ　Ｂｒｅａｋｅｒ,,株式会社,東京都,目黒区,駒場１丁目２３－７ドゥエルＪＳ３０４,,13,110,1530041,,,,,,,2022-05-13,1,,,,,サーキットブレーカー,0
1839,7011001147351,新規,0,2022-05-13,2022-05-13,株式会社ウィステリア,,株式会社,東京都,目黒区,中目黒１丁目８番５号,,13,110,1530061,,,,,,,2022-05-13,1,,,,,ウィステリア,0
1840,7011001147392,新規,0,2022-05-13,2022-05-13,プリムコプリン株式会社,,株式会社,東京都,渋谷区,神宮前６丁目２３番４号桑野ビル２階,,13,113,1500001,,,,,,,2022-05-13,1,,,,,プリムコプリン,0
1845,7011101098825,新規,0,2022-05-13,2022-05-13,株式会社ｗａｗｏ,,株式会社,東京都,新宿区,西新宿８丁目１７番１号３４階,,13,104,1600023,,,,,,,2022-05-13,1,,,,,ワオ,0
1862,7011801040672,新規,0,2022-05-13,2022-05-13,株式会社Ｍ’ｓ　ｐｒｏｊｅｃｔ,,株式会社,東京都,足立区,綾瀬２丁目２４番８号日興パレス綾瀬５０１,,13,121,1200005,,,,,,,2022-05-13,1,,,,,エムズプロジェクト,0
1864,7012401039196,新規,0,2022-05-13,2022-05-13,ハイト株式会社,,株式会社,東京都,調布市,小島町１丁目１９番地１パークホームズ調布ザレジデンス７０３,,13,208,1820026,,,,,,,2022-05-13,1,,,,,ハイト,0
1866,7012701017050,新規,0,2022-05-13,2022-05-13,株式会社Ｊ’ｓ　ｈｙｇｇｅ,,株式会社,東京都,清瀬市,下清戸２丁目５６７番地１３,,13,221,2040011,,,,,,,2022-05-13,1,,,,,ジェイズヒュッゲ,0
1869,7012803002776,新規,0,2022-05-13,2022-05-13,合同会社ＣＥＰＴ,,合同会社,東京都,立川市,柴崎町３丁目８－７アーバンコアカサイ１Ｆ,,13,202,1900023,,,,,,,2022-05-13,1,,,,,セプト,0
1872,7013301048997,新規,0,2022-05-13,2022-05-13,クラシト不動産株式会社,,株式会社,東京都,豊島区,池袋本町４丁目２３番１号ｒｏｏｍｓ３０１,,13,116,1700011,,,,,,,2022-05-13,1,,,,,クラシトフドウサン,0
1873,7013301049079,新規,0,2022-05-13,2022-05-13,ＭＵＺＩＫ　ＩＮＴＥＲＮＡＴＩＯＮＡＬ株式会社,,株式会社,東京都,豊島区,長崎１丁目３番４号大心ビル４０１号室,,13,116,1710051,,,,,,,2022-05-13,1,,,,,ムジクインターナショナル,0
1882,7020001146503,新規,0,2022-05-13,2022-05-13,株式会社心輝,,株式会社,神奈川県,横浜市金沢区,富岡西３丁目２７番２－１０３号,,14,108,2360052,,,,,,,2022-05-13,1,,,,,シンキ,0
1887,7020003021745,新規,0,2022-05-13,2022-05-13,合同会社ＴＨラボ,,合同会社,神奈川県,横浜市青葉区,美しが丘２丁目３９番地３８,,14,117,2250002,,,,,,,2022-05-13,1,,,,,ティーエイチラボ,0
1888,7020003021761,新規,0,2022-05-13,2022-05-13,Ｍ．Ａ．ＲＩＳＩＮＧ合同会社,,合同会社,神奈川県,横浜市港北区,小机町１４３４番地５モミの丘Ｃ２０１号室,,14,109,2220036,,,,,,,2022-05-13,1,,,,,エムエーライジング,0
1918,7040001123285,新規,0,2022-05-13,2022-05-13,株式会社Ｓｕｍｍｉｔ,,株式会社,千葉県,長生郡一宮町,東浪見７０４６番地２,,12,421,2994303,,,,,,,2022-05-13,1,,,,,サミット,0
1919,7040001123343,新規,0,2022-05-13,2022-05-13,小見川塗装株式会社,,株式会社,千葉県,袖ケ浦市,神納１２６４－２４,,12,229,2990257,,,,,,,2022-05-13,1,,,,,オミガワトソウ,0
1920,7040001123368,新規,0,2022-05-13,2022-05-13,株式会社ゼロ・ワン,,株式会社,千葉県,松戸市,二十世紀が丘美野里町９１番地３－Ｂ２０２,,12,207,2710081,,,,,,,2022-05-13,1,,,,,ゼロワン,0
1921,7040001123384,新規,0,2022-05-13,2022-05-13,株式会社ライフクリエーション,,株式会社,千葉県,八千代市,大和田２８３番地５１,,12,221,2760045,,,,,,,2022-05-13,1,,,,,ライフクリエーション,0
1922,7040001123401,新規,0,2022-05-13,2022-05-13,南葉国際株式会社,,株式会社,千葉県,千葉市中央区,道場北町３１７―２階,,12,101,2600000,,,,,,,2022-05-13,1,,,,,ナンヨウコクサイ,0
1930,7040003020027,新規,0,2022-05-13,2022-05-13,合同会社ＲＩＮＤＥＮ,,合同会社,千葉県,千葉市花見川区,幕張本郷７丁目２１番２４号グリーンテラス１０２号,,12,102,2620033,,,,,,,2022-05-13,1,,,,,リンデン,0
1935,7060001034844,新規,0,2022-05-13,2022-05-13,株式会社ふれあい薬局,,株式会社,栃木県,宇都宮市,五代２丁目１番６号,,09,201,3210135,,,,,,,2022-05-13,1,,,,,フレアイヤッキョク,0
1940,7070001039215,新規,0,2022-05-13,2022-05-13,株式会社マルオ,,株式会社,群馬県,藤岡市,鮎川１６５番地２,,10,209,3750042,,,,,,,2022-05-13,1,,,,,マルオ,0
1941,7070003004480,新規,0,2022-05-13,2022-05-13,合同会社ＧＡＩＫＡ,,合同会社,群馬県,高崎市,八幡町１３０８番地１０,,10,202,3700884,,,,,,,2022-05-13,1,,,,,ガイカ,0
1947,7080401025805,新規,0,2022-05-13,2022-05-13,株式会社光陽ホールディングス,,株式会社,静岡県,浜松市中区,板屋町１１１番地の２,,22,131,4300928,,,,,,,2022-05-13,1,,,,,コウヨウホールディングス,0
1953,7100003006548,新規,0,2022-05-13,2022-05-13,合同会社Ｂｒｏａｄｎｉｌ,,合同会社,長野県,長野市,鬼無里３３１,,20,201,3814301,,,,,,,2022-05-13,1,,,,,ブロードニル,0
1955,7110005016809,新規,0,2022-05-13,2022-05-13,一般財団法人未来応援奨学金にいがた,,その他の設立登記法人,新潟県,新潟市中央区,紫竹山５丁目７番２３号,,15,103,9500914,,,,,,,2022-05-13,1,,,,,ミライオウエンショウガクキンニイガタ,0
1982,7130001071764,新規,0,2022-05-13,2022-05-13,株式会社きらり,,株式会社,京都府,京都市上京区,今出川通大宮西入元北小路町１６８番地,,26,102,6028448,,,,,,,2022-05-13,1,,,,,キラリ,0
1984,7130003007923,新規,0,2022-05-13,2022-05-13,合同会社結乃音,,合同会社,京都府,福知山市,大池坂町２６番地,,26,201,6200816,,,,,,,2022-05-13,1,,,,,ユイノネ,0
1986,7140001125981,新規,0,2022-05-13,2022-05-13,英章道路株式会社,,株式会社,兵庫県,小野市,黒川町１００番地の１,,28,218,6751371,,,,,,,2022-05-13,1,,,,,エイショウドウロ,0
1994,7150001025504,新規,0,2022-05-13,2022-05-13,ＮＩＰＰＯＮ　ＷＨＥＥＬＳ株式会社,,株式会社,奈良県,生駒市,本町１３－２８スタンドアップ本町２０１号室,,29,209,6300256,,,,,,,2022-05-13,1,,,,,ニッポンホイールズ,0
1998,7160003002566,新規,0,2022-05-13,2022-05-13,ハーモニー合同会社,,合同会社,滋賀県,大津市,日吉台３丁目６番７号,,25,201,5200112,,,,,,,2022-05-13,1,,,,,ハーモニー,0
2008,7180001151289,新規,0,2022-05-13,2022-05-13,株式会社ワイツー,,株式会社,愛知県,一宮市,千秋町加納馬場字梅塚１１５番地,00126552,23,203,4910811,,,,,,,2022-05-13,1,,,,,ワイツー,0
2009,7180001151297,新規,0,2022-05-13,2022-05-13,株式会社ＵＳＭＡＮ,,株式会社,愛知県,岩倉市,西市町西市前４８番地１コーポ桜井２０３号,,23,228,4820036,,,,,,,2022-05-13,1,,,,,ウスマン,0
2016,7190001029410,新規,0,2022-05-13,2022-05-13,株式会社ここな,,株式会社,三重県,津市,垂水１４１６番地,,24,201,5140821,,,,,,,2022-05-13,1,,,,,ココナ,0
2023,7200001040068,新規,0,2022-05-13,2022-05-13,株式会社Ｓｏ‐Ｂｉｚ,,株式会社,岐阜県,大垣市,墨俣町墨俣５２８番地１,,21,202,5030102,,,,,,,2022-05-13,1,,,,,ソービズ,0
2024,7200003005564,新規,0,2022-05-13,2022-05-13,合同会社喜千重,,合同会社,岐阜県,加茂郡八百津町,久田見１２４０,,21,505,5050422,,,,,,,2022-05-13,1,,,,,キチジュウ,0
2034,7240001059765,新規,0,2022-05-13,2022-05-13,株式会社ＤｉｓｃｏｖｅｒＡｎｏｔｈｅｒＪａｐａｎ,,株式会社,広島県,広島市南区,皆実町１丁目４－２７,,34,103,7340007,,,,,,,2022-05-13,1,,,,,ディスカバーアナザージャパン,0
2035,7240003005619,新規,0,2022-05-13,2022-05-13,合同会社こども日和,,合同会社,広島県,広島市西区,草津南４丁目１番３号パークシティ草津南１０７号,,34,104,7330863,,,,,,,2022-05-13,1,,,,,コドモビヨリ,0
2046,7290001097471,新規,0,2022-05-13,2022-05-13,株式会社キンダイ,,株式会社,福岡県,福岡市中央区,大手門３丁目１４－２７ラフォーレ大濠パークアベニュー６０４,,40,133,8100074,,,,,,,2022-05-13,1,,,,,キンダイ,0
2048,7290801028527,新規,0,2022-05-13,2022-05-13,株式会社ティーツーエル,,株式会社,福岡県,北九州市小倉南区,湯川３丁目８番１０号,,40,107,8000257,,,,,,,2022-05-13,1,,,,,ティーツーエル,0
2051,7300003001842,新規,0,2022-05-13,2022-05-13,合同会社フォーブスインカレッジ,,合同会社,佐賀県,唐津市,浜玉町浜崎１９０４番地１５,,41,202,8495131,,,,,,,2022-05-13,1,,,,,フォーブスインカレッジ,0
2057,7330001029734,新規,0,2022-05-13,2022-05-13,株式会社Ｍ．ＲＩＳＥ,,株式会社,熊本県,宇城市,小川町江頭１５５番地２,,43,213,8690624,,,,,,,2022-05-13,1,,,,,エムライズ,0
2058,7330001029742,新規,0,2022-05-13,2022-05-13,株式会社Ｅｍｂｏ,,株式会社,熊本県,熊本市北区,龍田弓削１丁目１８番６８号,,43,105,8618007,,,,,,,2022-05-13,1,,,,,エンボ,0
2076,7380001032790,新規,0,2022-05-13,2022-05-13,株式会社ジャッカスキャンパーズ,,株式会社,福島県,須賀川市,八幡町１２２番地サンライズ八幡２０３号室,,07,207,9620831,,,,,,,2022-05-13,1,,,,,ジャッカスキャンパーズ,0
2077,7380003005175,新規,0,2022-05-13,2022-05-13,合同会社〆,,合同会社,福島県,二本松市,若宮２丁目１６２番地１９若宮ハイム１０２号,,07,210,9640906,,,,,,,2022-05-13,1,,,,,カンメ,0
2079,7390001016891,新規,0,2022-05-13,2022-05-13,株式会社Ａ　ＨＵＭＡＮ,,株式会社,山形県,最上郡金山町,大字金山４５１番地６,,06,361,9995402,,,,,,,2022-05-13,1,,,,,アヒューマン,0
2089,7430001086591,新規,0,2022-05-13,2022-05-13,株式会社新晃,,株式会社,北海道,札幌市白石区,本通１７丁目南５番３６号,,01,104,0030026,,,,,,,2022-05-13,1,,,,,シンコウ,0
2090,7430001086625,新規,0,2022-05-13,2022-05-13,芦田興産株式会社,,株式会社,北海道,札幌市中央区,南八条西１２丁目２番１２－３０２号,,01,101,0640808,,,,,,,2022-05-13,1,,,,,アシダコウサン,0
2093,7470001019077,新規,0,2022-05-13,2022-05-13,株式会社大成,,株式会社,香川県,三豊市,高瀬町上麻３７６３番地１,,37,208,7670014,,,,,,,2022-05-13,1,,,,,タイセイ,0
2096,7490001010174,新規,0,2022-05-13,2022-05-13,株式会社ＡＩＤ‐ＣＯ,,株式会社,高知県,南国市,緑ケ丘１丁目８０８番地リブハウスラビットＩＩ２０２,00126562,39,204,7830086,,,,,,,2022-05-13,1,,,,,エイドコー,0
2099,7500005008493,新規,0,2022-05-13,2022-05-13,一般社団法人国際生物技芸競技共演著作権協会,,その他の設立登記法人,愛媛県,宇和島市,寄松甲１２６０番地,,38,203,7980084,,,,,,,2022-05-13,1,,,,,コクサイセイブツギゲイキョウギキョウエンチョサクケンキョウカイ,0
2100,7700150108722,新規,0,2022-05-13,2022-05-13,ＤａｔａＤｙｎｅ　ＬＬＣ　日本駐在員事務所,,外国会社等,東京都,港区,芝浦３丁目１７－１１天翔田町ビル８階８１０号,,13,103,1080023,６０．ＥＡＳＴ　ＳＩＭＰＳＯＮ　ＡＶＥ．ＢＯＸ　２８６９，ＪＡＣＫＳＯＮ　ＷＹ　８３００１,,,,,,2022-05-13,1,,,,,データダインエルエルシーニホンチユウザイインジムシヨ,0
2101,7700150108730,新規,0,2022-05-13,2022-05-13,ＪＡＢＡＲＩ　ＧＲＯＵＰ　ＬＩＭＩＴＥＤ,,外国会社等,東京都,港区,浜松町１丁目３－２パークコート浜離宮ザタワー３２０１,,13,103,1050013,Ｐ．Ｏ．Ｂｏｘ　９５７，Ｏｆｆｓｈｏｒｅ　Ｉｎｃｏｒｐｏｒａｔｉｏｎｓ　Ｃｅｎｔｒｅ，Ｒｏａｄ　Ｔｏｗｎ，Ｔｏｒｔｏｌａ，Ｂｒｉｔｉｓｈ　Ｖｉｒｇｉｎ　Ｉｓｌａｎｄｓ,,,,,,2022-05-13,1,,,,,ジヤバリグループリミテツド,0
2111,8010001226445,新規,0,2022-05-13,2022-05-13,株式会社ＳＯＬＡＴＩＥ,,株式会社,東京都,中央区,日本橋小舟町６番４エクセレント三越前６０４,,13,102,1030024,,,,,,,2022-05-13,1,,,,,ソラティエ,0
2112,8010001226544,新規,0,2022-05-13,2022-05-13,Ｆ　ｔａｂｌｅ株式会社,,株式会社,東京都,千代田区,一番町１０番８号,,13,101,1020082,,,,,,,2022-05-13,1,,,,,エフテーブル,0
2113,8010001226560,新規,0,2022-05-13,2022-05-13,スマートグリーンエネルギー株式会社,,株式会社,東京都,千代田区,丸の内１丁目５番１号新丸の内ビルディング,,13,101,1000005,,,,,,,2022-05-13,1,,,,,スマートグリーンエネルギー,0
2114,8010001226627,新規,0,2022-05-13,2022-05-13,手神株式会社,00126554,株式会社,東京都,文京区,本郷３丁目１５番３－９０２号,,13,105,1130033,,,,,,,2022-05-13,1,,,,,テガミ,0
2116,8010003037667,新規,0,2022-05-13,2022-05-13,Ｃｈｒｏｎｏ２４Ｊａｐａｎ合同会社,,合同会社,東京都,中央区,新川１丁目２７番８号新川大原ビル８階,,13,102,1040033,,,,,,,2022-05-13,1,,,,,クロノトゥエンティフォージャパン,0
2117,8010005035000,新規,0,2022-05-13,2022-05-13,特定目的会社トキ,,その他の設立登記法人,東京都,千代田区,霞が関３丁目２番５号,,13,101,1000013,,,,,,,2022-05-13,1,,,,,トキ,0
2119,8010103001911,新規,0,2022-05-13,2022-05-13,ＭＩＲＡＩマネジメント合同会社,,合同会社,東京都,八王子市,北野町５３４番地３,,13,201,1920906,,,,,,,2022-05-13,1,,,,,ミライマネジメント,0
2126,8010401167272,新規,0,2022-05-13,2022-05-13,株式会社ＣＢリサーチ,,株式会社,東京都,港区,浜松町１丁目１８番１６号住友浜松町ビル,,13,103,1050013,,,,,,,2022-05-13,1,,,,,シービーリサーチ,0
2127,8010501012782,新規,0,2022-05-13,2022-05-13,プリントワールド株式会社,,株式会社,東京都,台東区,台東２丁目２２番４号,,13,106,1100016,,,,,,,2022-05-13,1,,,,,,0
2129,8010603009512,新規,0,2022-05-13,2022-05-13,合同会社ＩＮＴＲＯ,,合同会社,東京都,墨田区,押上３丁目５１番７号,,13,107,1310045,,,,,,,2022-05-13,1,,,,,イントロ,0
2142,8011001147334,新規,0,2022-05-13,2022-05-13,株式会社ＭＡＫＥＲ,,株式会社,東京都,渋谷区,宇田川町１番１２号,,13,113,1500042,,,,,,,2022-05-13,1,,,,,メイカー,0
2143,8011001147391,新規,0,2022-05-13,2022-05-13,株式会社ファイナルナイン,,株式会社,東京都,渋谷区,渋谷２丁目１９－１５宮益坂ビルディング６０９,,13,113,1500002,,,,,,,2022-05-13,1,,,,,ファイナルナイン,0
2144,8011001147409,新規,0,2022-05-13,2022-05-13,株式会社ＥＺ　Ｒｅａｌｔｙ,,株式会社,東京都,渋谷区,恵比寿４丁目３－５－１００１,,13,113,1500013,,,,,,,2022-05-13,1,,,,,イージーリアルティ,0
2145,8011001147516,新規,0,2022-05-13,2022-05-13,株式会社Ｒｅｅｎ,,株式会社,東京都,渋谷区,神宮前６丁目２３番４号桑野ビル２Ｆ,,13,113,1500001,,,,,,,2022-05-13,1,,,,,リーン,0
2146,8011001147524,新規,0,2022-05-13,2022-05-13,Ｆｏｒｅｓｈｉｐ株式会社,,株式会社,東京都,渋谷区,神宮前６丁目２３番４号桑野ビル２階,,13,113,1500001,,,,,,,2022-05-13,1,,,,,フォーシップ,0
2150,8011003014499,新規,0,2022-05-13,2022-05-13,合同会社ＦＩＮＡＬ　ＨＥＡＶＥＮ,,合同会社,東京都,目黒区,東山１丁目８－１１－１０３,,13,110,1530043,,,,,,,2022-05-13,1,,,,,ファイナルヘブン,0
2151,8011003014680,新規,0,2022-05-13,2022-05-13,ル・ソレイユ合同会社,,合同会社,東京都,目黒区,鷹番３丁目２０番１３－６０５号,,13,110,1520004,,,,,,,2022-05-13,1,,,,,ルソレイユ,0
2152,8011005009571,新規,0,2022-05-13,2022-05-13,医療法人社団碧衣会,,その他の設立登記法人,東京都,渋谷区,渋谷１丁目２３番１８号渋谷ワールドイーストビル１０階,,13,113,1500002,,,,,,,2022-05-13,1,,,,,アオイカイ,0
2162,8011101098808,新規,0,2022-05-13,2022-05-13,ＶＤ　ＤＩＡ株式会社,,株式会社,東京都,新宿区,新宿２丁目５番３号ＡＭビル７階,,13,104,1600022,,,,,,,2022-05-13,1,,,,,ブイディーディーアイエー,0
2163,8011101098824,新規,0,2022-05-13,2022-05-13,株式会社ボディポジティブ,,株式会社,東京都,新宿区,神楽坂３丁目６番地４３サンライズ神楽坂４０１,,13,104,1620825,,,,,,,2022-05-13,1,,,,,ボディポジティブ,0
2164,8011203003814,新規,0,2022-05-13,2022-05-13,カラムス合同会社,,合同会社,東京都,中野区,中央２丁目４６番１１号,,13,114,1640011,,,,,,,2022-05-13,1,,,,,カラムス,0
2171,8011701025293,新規,0,2022-05-13,2022-05-13,ＩＮＵホールディングス株式会社,,株式会社,東京都,江戸川区,中葛西５丁目４番２０号,,13,123,1340083,,,,,,,2022-05-13,1,,,,,イヌホールディングス,0
2174,8011801040696,新規,0,2022-05-13,2022-05-13,株式会社ＫＲＤプランニング,,株式会社,東京都,足立区,大谷田１丁目１（３－７０４）,,13,121,1200001,,,,,,,2022-05-13,1,,,,,ケーアールディープランニング,0
2175,8011801040713,新規,0,2022-05-13,2022-05-13,株式会社ＥＶＯ,,株式会社,東京都,葛飾区,西水元３丁目１０－９,,13,122,1250031,,,,,,,2022-05-13,1,,,,,エヴォ,0
2176,8011801040721,新規,0,2022-05-13,2022-05-13,株式会社千住,,株式会社,東京都,足立区,西綾瀬２丁目２３番３６号サンアレイ２Ｆ,,13,121,1200014,,,,,,,2022-05-13,1,,,,,センジュ,0
2180,8012305002010,新規,0,2022-05-13,2022-05-13,特定非営利活動法人アソビノマド,,その他の設立登記法人,東京都,町田市,相原町１５８５,,13,209,1940211,,,,,,,2022-05-13,1,,,,,アソビノマド,0
2190,8013301049078,新規,0,2022-05-13,2022-05-13,株式会社バルドージャパン,,株式会社,東京都,豊島区,東池袋５丁目７番３号アゼリア東池袋４０１,,13,116,1700013,,,,,,,2022-05-13,1,,,,,バルドージャパン,0
2197,8020001146502,新規,0,2022-05-13,2022-05-13,株式会社障子組,,株式会社,神奈川県,川崎市川崎区,桜本２丁目３４番８号,,14,131,2100833,,,,,,,2022-05-13,1,,,,,,0
2198,8020001146510,新規,0,2022-05-13,2022-05-13,株式会社Ｔアセット,,株式会社,神奈川県,横浜市瀬谷区,瀬谷２丁目２８番地の１５,,14,114,2460031,,,,,,,2022-05-13,1,,,,,ティーアセット,0
2202,8020003021760,新規,0,2022-05-13,2022-05-13,合同会社勝増,,合同会社,神奈川県,川崎市高津区,溝口１丁目２２番１８号,,14,134,2130001,,,,,,,2022-05-13,1,,,,,カツマス,0
2203,8020003021769,新規,0,2022-05-13,2022-05-13,合同会社ＡＫＡＬｉｎｏ,,合同会社,神奈川県,川崎市川崎区,四谷上町１２番２号,,14,131,2100828,,,,,,,2022-05-13,1,,,,,アカリノ,0
2216,8030001148051,新規,0,2022-05-13,2022-05-13,はかるみらい株式会社,,株式会社,埼玉県,さいたま市大宮区,桜木町１丁目２６６番地３シンワＫＩビル２Ｆ,,11,103,3300854,,,,,,,2022-05-13,1,,,,,ハカルミライ,0
2219,8030003019390,新規,0,2022-05-13,2022-05-13,合同会社岩波企画,,合同会社,埼玉県,さいたま市桜区,桜田１丁目９番地,,11,106,3380833,,,,,,,2022-05-13,1,,,,,イワナミキカク,0
2225,8040001123409,新規,0,2022-05-13,2022-05-13,株式会社ライフリンケージ,,株式会社,千葉県,市原市,姉崎１２９５番地２,,12,219,2990111,,,,,,,2022-05-13,1,,,,,ライフリンケージ,0
2232,8040003020026,新規,0,2022-05-13,2022-05-13,ＢｏｎＢｏｎ　ｂｉｃｙｃｌｅ合同会社,,合同会社,千葉県,船橋市,海神町東１丁目１３８３番地,,12,204,2730028,,,,,,,2022-05-13,1,,,,,ブンブンバイシクル,0
2238,8050003006552,新規,0,2022-05-13,2022-05-13,ＮＷ水戸発電所合同会社,,合同会社,茨城県,ひたちなか市,大字馬渡西谷津３８４６番地,,08,221,3120012,,,,,,,2022-05-13,1,,,,,エヌダブリューミトハツデンショ,0
2239,8050003006560,新規,0,2022-05-13,2022-05-13,ｍｅｍｅ合同会社,,合同会社,茨城県,水戸市,平須町１８２１番地の１１３,,08,201,3100853,,,,,,,2022-05-13,1,,,,,ミーム,0
2244,8070001039222,新規,0,2022-05-13,2022-05-13,株式会社オーバル,,株式会社,群馬県,桐生市,広沢町２丁目３０２０番地,,10,203,3760013,,,,,,,2022-05-13,1,,,,,オーバル,0
2249,8070005009989,新規,0,2022-05-13,2022-05-13,特定非営利活動法人あにまーと,,その他の設立登記法人,群馬県,吾妻郡東吾妻町,大字原町５９０番地３,,10,429,3770801,,,,,,,2022-05-13,1,,,,,アニマート,0
2254,8090001017564,新規,0,2022-05-13,2022-05-13,株式会社富士ＴＡＢＩ,,株式会社,山梨県,南都留郡富士河口湖町,船津３６８３番地２Ｆ－Ａ,,19,430,4010301,,,,,,,2022-05-13,1,,,,,フジタビ,0
2256,8100001035333,新規,0,2022-05-13,2022-05-13,株式会社ＡＹＹＡＮ　ＥＮＴＥＲＰＲＩＳＥ,,株式会社,長野県,須坂市,大字野辺２０４４番地１,,20,207,3820000,,,,,,,2022-05-13,1,,,,,アヤーンエンタープライズ,0
2258,8100005012873,新規,0,2022-05-13,2022-05-13,一般社団法人未来地図,,その他の設立登記法人,長野県,飯田市,東和町２丁目３５番地丘の上結いスクエア内５階,,20,205,3950086,,,,,,,2022-05-13,1,,,,,ミライチズ,0
2259,8110001036652,新規,0,2022-05-13,2022-05-13,株式会社ＦＣＮＥＸＴ,,株式会社,新潟県,加茂市,大字五反田１１１７番地,,15,209,9591302,,,,,,,2022-05-13,1,,,,,エフシーネクスト,0
2270,8120001245847,新規,0,2022-05-13,2022-05-13,株式会社ｅ’ｓ　Ｂａｓｅ,,株式会社,大阪府,大阪市東淀川区,豊新３丁目３番５号,,27,114,5330014,,,,,,,2022-05-13,1,,,,,イーズベース,0
2276,8120103004696,新規,0,2022-05-13,2022-05-13,合同会社葉月,,合同会社,大阪府,松原市,南新町１丁目９番３号,,27,217,5800023,,,,,,,2022-05-13,1,,,,,ハヅキ,0
2284,8130001071739,新規,0,2022-05-13,2022-05-13,株式会社ｔａｔｉ,,株式会社,京都府,京都市伏見区,京町３丁目１７９番地１,,26,109,6128083,,,,,,,2022-05-13,1,,,,,タチ,0
2285,8130001071763,新規,0,2022-05-13,2022-05-13,株式会社ペアドロップス,,株式会社,京都府,綴喜郡井手町,大字多賀小字内垣内２８番地４,,26,343,6100301,,,,,,,2022-05-13,1,,,,,ペアドロップス,0
2297,8140001125980,新規,0,2022-05-13,2022-05-13,塩崎商会株式会社,,株式会社,兵庫県,神戸市東灘区,深江南町３丁目１番１９号,,28,101,6580022,,,,,,,2022-05-13,1,,,,,シオザキショウカイ,0
2298,8140001125989,新規,0,2022-05-13,2022-05-13,株式会社仲村電工,,株式会社,兵庫県,神戸市北区,杉尾台１丁目７番地の４,,28,109,6511146,,,,,,,2022-05-13,1,,,,,ナカムラデンコウ,0
2303,8140003017664,新規,0,2022-05-13,2022-05-13,のんびりケア合同会社,,合同会社,兵庫県,神戸市中央区,熊内町３丁目４番２４号,,28,110,6510056,,,,,,,2022-05-13,1,,,,,ノンビリケア,0
2319,8180003023840,新規,0,2022-05-13,2022-05-13,合同会社飛鳥トラスト,,合同会社,愛知県,名古屋市中村区,名駅３丁目２３番２号,,23,105,4500002,,,,,,,2022-05-13,1,,,,,アスカトラスト,0
2325,8210001018913,新規,0,2022-05-13,2022-05-13,株式会社悠,,株式会社,福井県,敦賀市,衣掛町５０２番地,,18,202,9140043,,,,,,,2022-05-13,1,,,,,ユウ,0
2326,8210005010032,新規,0,2022-05-13,2022-05-13,一般社団法人さかのくちネットワーク,,その他の設立登記法人,福井県,越前市,中津原町第７３号３１番地,,18,209,9151223,,,,,,,2022-05-13,1,,,,,サカノクチネットワーク,0
2334,8240001059772,新規,0,2022-05-13,2022-05-13,株式会社ワンハート,,株式会社,広島県,呉市,中央２丁目４番１２号,,34,202,7370051,,,,,,,2022-05-13,1,,,,,ワンハート,0
2336,8240003005618,新規,0,2022-05-13,2022-05-13,Ｉｍｍｕｎｉｔｙ合同会社,,合同会社,広島県,安芸高田市,甲田町高田原１４２６番地２市有甲田住宅２号棟１０１号室,,34,214,7391101,,,,,,,2022-05-13,1,,,,,インミュニティ,0
2344,8270001008520,新規,0,2022-05-13,2022-05-13,株式会社Ｆｕｇｏ,,株式会社,鳥取県,米子市,新開６丁目８番２８号,,31,202,6830801,,,,,,,2022-05-13,1,,,,,フゴウ,0
2353,8290003012493,新規,0,2022-05-13,2022-05-13,合同会社康美堂Ｓ・Ｍ・Ｐ,,合同会社,福岡県,大牟田市,柿園町３丁目２番地２,,40,202,8360801,,,,,,,2022-05-13,1,,,,,コウビドウエスエムピー,0
2354,8290005018679,新規,0,2022-05-13,2022-05-13,行政書士法人ＣＨＩＫＹＵＪＩＮ,,その他の設立登記法人,福岡県,福岡市博多区,博多駅東１丁目９番１１号,,40,132,8120013,,,,,,,2022-05-13,1,,,,,チキュウジン,0
2361,8330002019304,新規,0,2022-05-13,2022-05-13,有限会社三藤鉄工,,有限会社,熊本県,熊本市北区,植木町大和４３番地７,,43,105,8610143,,,,,,,2022-05-13,1,,,,,ミフジテッコウ,0
2366,8340003003784,新規,0,2022-05-13,2022-05-13,コイモリ合同会社,,合同会社,鹿児島県,鹿児島市,小松原１丁目６９－２２－１０１,,46,201,8910114,,,,,,,2022-05-13,1,,,,,コイモリ,0
2377,8370003005695,新規,0,2022-05-13,2022-05-13,合同会社佐藤ボーリング,,合同会社,宮城県,黒川郡大和町,吉岡まほろば２丁目３３番地の１,,04,421,9813632,,,,,,,2022-05-13,1,,,,,サトウボーリング,0
2380,8420001017844,新規,0,2022-05-13,2022-05-13,株式会社日新モーター,,株式会社,青森県,上北郡東北町,字山添７番地６,,02,408,0392681,,,,,,,2022-05-13,1,,,,,ニッシンモーター,0
2388,8430001086616,新規,0,2022-05-13,2022-05-13,株式会社ハーモニィ,,株式会社,北海道,北広島市,大曲幸町１丁目１３番地３,,01,234,0611278,,,,,,,2022-05-13,1,,,,,ハーモニィ,0
2392,8430003013898,新規,0,2022-05-13,2022-05-13,合同会社リプラス,,合同会社,北海道,札幌市中央区,南八条西６丁目２８９番地１９５,,01,101,0640808,,,,,,,2022-05-13,1,,,,,リプラス,0
2394,8430005014465,新規,0,2022-05-13,2022-05-13,一般社団法人北海道乳腺外科振興会,,その他の設立登記法人,北海道,札幌市北区,あいの里二条６丁目３番６－１１０２号,,01,102,0028072,,,,,,,2022-05-13,1,,,,,ホッカイドウニュウセンゲカシンコウカイ,0
2401,8490001010173,新規,0,2022-05-13,2022-05-13,ＨＢＦＡ株式会社,,株式会社,高知県,高知市,曙町１丁目１７番２０号,,39,201,7808072,,,,,,,2022-05-13,1,,,,,エイチビーエフエー,0
2404,8500005008492,新規,0,2022-05-13,2022-05-13,医療法人皇漢会,,その他の設立登記法人,愛媛県,松山市,北斎院町４５５番地５,,38,201,7918031,,,,,,,2022-05-13,1,,,,,コウカンカイ,0
2405,8700150108358,新規,0,2022-05-13,2022-04-26,企画室　日本の藝,,その他,東京都,練馬区,上石神井１丁目７－２６コーポ南１０１,,13,120,1770044,,,,,,,2022-04-26,1,,,,,キカクシツニホンノゲイ,0
2406,8700150108572,新規,0,2022-05-13,2022-05-09,第２回沖縄空手世界大会実行委員会,,その他,沖縄県,那覇市,泉崎１丁目２番２号本庁舎１２階,,47,201,9000021,,,,,,,2022-05-09,1,,,,,ダイニカイオキナワカラテセカイタイカイジツコウイインカイ,0
2411,9010003037658,新規,0,2022-05-13,2022-05-13,エネイド合同会社,,合同会社,東京都,千代田区,神田佐久間町３丁目３８第５東ビル５Ｆ,,13,101,1010025,,,,,,,2022-05-13,1,,,,,エネイド,0
2413,9010103001910,新規,0,2022-05-13,2022-05-13,合同会社トモナミ,,合同会社,東京都,八王子市,中野上町５丁目１６番２０号,,13,201,1920041,,,,,,,2022-05-13,1,,,,,トモナミ,0
2419,9010401167271,新規,0,2022-05-13,2022-05-13,ＩＮ株式会社,,株式会社,東京都,港区,六本木４丁目９番２－７０４号,,13,103,1060032,,,,,,,2022-05-13,1,,,,,イン,0
2432,9010901050852,新規,0,2022-05-13,2022-05-13,Ｑａｍｍｅｒ株式会社,,株式会社,東京都,世田谷区,上祖師谷７丁目１番１１号,,13,112,1570065,,,,,,,2022-05-13,1,,,,,カンマ,0
2440,9011001147390,新規,0,2022-05-13,2022-05-13,株式会社ＧｉｖＷｅｌｌ,,株式会社,東京都,渋谷区,渋谷２丁目１９－１５宮益坂ビルディング６０９,,13,113,1500002,,,,,,,2022-05-13,1,,,,,ギブウェル,0
2441,9011001147399,新規,0,2022-05-13,2022-05-13,株式会社キミヅカ板金,,株式会社,東京都,目黒区,目黒本町５丁目１４番１６号,,13,110,1520002,,,,,,,2022-05-13,1,,,,,キミヅカバンキン,0
2443,9011003014647,新規,0,2022-05-13,2022-05-13,ＢＭアントレスクエア合同会社,,合同会社,東京都,渋谷区,神宮前６丁目２３番４号桑野ビル２階,,13,113,1500001,,,,,,,2022-05-13,1,,,,,ビーエムアントレスクエア,0
2450,9011101098823,新規,0,2022-05-13,2022-05-13,株式会社ＡＳメディケア,,株式会社,東京都,新宿区,西新宿６丁目１５－１ラトゥール新宿１２２１号,,13,104,1600023,,,,,,,2022-05-13,1,,,,,エーエスメディケア,0
2451,9011101098848,新規,0,2022-05-13,2022-05-13,ＶＢＥ技術商事株式会社,,株式会社,東京都,新宿区,西新宿３丁目７番１号新宿パークタワーＮ棟３０階,,13,104,1600023,,,,,,,2022-05-13,1,,,,,ブイビーイーギジュツショウジ,0
2452,9011103011742,新規,0,2022-05-13,2022-05-13,合同会社ＡＲＭＳ,,合同会社,東京都,新宿区,新宿３丁目１２番４号新宿Ｎタウンプラザ３０９号,,13,104,1600022,,,,,,,2022-05-13,1,,,,,アームズ,0
2456,9011105010255,新規,0,2022-05-13,2022-05-13,一般社団法人アートライツ振興会,,その他の設立登記法人,東京都,新宿区,西早稲田３丁目１６番２８号,,13,104,1690051,,,,,,,2022-05-13,1,,,,,アートライツシンコウカイ,0
2457,9011301027771,新規,0,2022-05-13,2022-05-13,株式会社ＳＡＭ,,株式会社,東京都,杉並区,天沼３丁目３０番１０号荻窪レジデンス１０４,,13,115,1670032,,,,,,,2022-05-13,1,,,,,サム,0
2459,9011601025954,新規,0,2022-05-13,2022-05-13,株式会社壱組,,株式会社,東京都,練馬区,大泉町１丁目４６番１８号,,13,120,1780062,,,,,,,2022-05-13,1,,,,,イチクミ,0
2466,9012301012986,新規,0,2022-05-13,2022-05-13,株式会社オーサム,,株式会社,東京都,町田市,中町１丁目５－１０,,13,209,1940021,,,,,,,2022-05-13,1,,,,,オーサム,0
2472,9013301049044,新規,0,2022-05-13,2022-05-13,ＨＮＬ株式会社,,株式会社,東京都,豊島区,池袋本町２丁目２９－１６岡本ビル３０２号室,,13,116,1700011,,,,,,,2022-05-13,1,,,,,エイチエヌエル,0
2473,9013301049069,新規,0,2022-05-13,2022-05-13,Ｎｉｓｓｙｏ株式会社,,株式会社,東京都,豊島区,池袋２丁目１７番８号天翔ＯＦＦＩＣＥ池袋西口ＡＮＮＥＸ３０１,,13,116,1710014,,,,,,,2022-05-13,1,,,,,ニッショウ,0
2474,9013301049085,新規,0,2022-05-13,2022-05-13,Ｔ‐ＬＩＦＥソリューションズ株式会社,,株式会社,東京都,豊島区,南池袋２丁目３５番４号ユニティ池袋８Ｆ,,13,116,1710022,,,,,,,2022-05-13,1,,,,,ティーライフソリューションズ,0
2476,9013305003344,新規,0,2022-05-13,2022-05-13,一般社団法人ママサポ,,その他の設立登記法人,東京都,豊島区,南大塚３丁目３８番１１号ヒルクレスト南大塚２０１号室,,13,116,1700005,,,,,,,2022-05-13,1,,,,,ママサポ,0
2480,9020001146492,新規,0,2022-05-13,2022-05-13,株式会社ＳＫＧ,,株式会社,神奈川県,川崎市幸区,新小倉２番７－２３３号,,14,132,2120031,,,,,,,2022-05-13,1,,,,,エスケージー,0
2481,9020001146501,新規,0,2022-05-13,2022-05-13,株式会社仁玉屋,,株式会社,神奈川県,横浜市神奈川区,菅田町８８３番地１２－１０２号,,14,102,2210864,,,,,,,2022-05-13,1,,,,,ジンタマヤ,0
2482,9020001146518,新規,0,2022-05-13,2022-05-13,株式会社ＴＡＩＳＨＩ,,株式会社,神奈川県,横浜市青葉区,新石川２丁目１１番地１０８,,14,117,2250003,,,,,,,2022-05-13,1,,,,,タイシ,0
2485,9020003021735,新規,0,2022-05-13,2022-05-13,合同会社アップドラフト,,合同会社,神奈川県,川崎市中原区,今井仲町１５番５３－４０６号,,14,133,2110065,,,,,,,2022-05-13,1,,,,,アップドラフト,0
2486,9020003021768,新規,0,2022-05-13,2022-05-13,合同会社ゼブラストラテジー,,合同会社,神奈川県,横浜市青葉区,鴨志田町５３４番地５,,14,117,2270033,,,,,,,2022-05-13,1,,,,,ゼブラストラテジー,0
2487,9020005015520,新規,0,2022-05-13,2022-05-13,特定非営利活動法人Ｗｏｒｌｄ　ＡＩ　Ｂｒｏａｄｃａｓｔｉｎｇ　Ｓｔａｔｉｏｎ,,その他の設立登記法人,神奈川県,川崎市麻生区,千代ケ丘８丁目１７番８号Ａ－２,,14,137,2150005,,,,,,,2022-05-13,1,,,,,ワールドエイアイブロードキャスティングステーション,0
2510,9030001148109,新規,0,2022-05-13,2022-05-13,株式会社こはく,,株式会社,埼玉県,越谷市,北越谷１丁目２０番１１号,,11,222,3430026,,,,,,,2022-05-13,1,,,,,コハク,0
2511,9030001148125,新規,0,2022-05-13,2022-05-13,Ｒｅ‐Ｓｔｙｌｅ株式会社,,株式会社,埼玉県,坂戸市,大字赤尾１８３３番地,,11,239,3500201,,,,,,,2022-05-13,1,,,,,,0
2512,9030001148199,新規,0,2022-05-13,2022-05-13,株式会社ＬＩＢＥＲＴＡ,,株式会社,埼玉県,さいたま市岩槻区,大字馬込９４８番地９,,11,110,3390077,,,,,,,2022-05-13,1,,,,,リベルタ,0
2513,9030001148216,新規,0,2022-05-13,2022-05-13,株式会社Ｒ‐ｐｈａｒｍａｃｙ,,株式会社,埼玉県,さいたま市北区,大成町４丁目４７番地８,,11,102,3310815,,,,,,,2022-05-13,1,,,,,アールファーマシー,0
2527,9040001123374,新規,0,2022-05-13,2022-05-13,株式会社ブライトグラウンド,,株式会社,千葉県,習志野市,東習志野２丁目１８番３３－１４０３号,,12,216,2750001,,,,,,,2022-05-13,1,,,,,ブライトグラウンド,0
2528,9040001123399,新規,0,2022-05-13,2022-05-13,株式会社万葉通商,,株式会社,千葉県,香取郡多古町,多古２０００番地２１７,,12,347,2892241,,,,,,,2022-05-13,1,,,,,マンヨウツウショウ,0
2534,9040003020025,新規,0,2022-05-13,2022-05-13,Ｊ．Ｌｅｔａｂａ合同会社,,合同会社,千葉県,市原市,君塚２丁目１８番地１８,00126550,12,219,2900051,,,,,,,2022-05-13,1,,,,,ジェイレタバ,0
2535,9040005021608,新規,0,2022-05-13,2022-05-13,医療法人社団よりそう手,,その他の設立登記法人,千葉県,柏市,柏４丁目８番１号柏東口金子ビル３階,,12,217,2770005,,,,,,,2022-05-13,1,,,,,ヨリソウテ,0
2556,9070005009988,新規,0,2022-05-13,2022-05-13,特定非営利活動法人ぽこ・あ・ぽこ,,その他の設立登記法人,群馬県,吾妻郡東吾妻町,大字矢倉６２０番地３,,10,429,3770816,,,,,,,2022-05-13,1,,,,,ポコアポコ,0
2557,9080001024924,新規,0,2022-05-13,2022-05-13,久保山エンジニア株式会社,,株式会社,静岡県,焼津市,三ケ名１５４４番地の６,,22,212,4250071,,,,,,,2022-05-13,1,,,,,クボヤマエンジニア,0
2558,9080001024940,新規,0,2022-05-13,2022-05-13,鷹匠ペットクリニック株式会社,,株式会社,静岡県,静岡市葵区,鷹匠２丁目１－３,,22,101,4200839,,,,,,,2022-05-13,1,,,,,タカジョウペットクリニック,0
2560,9080105006257,新規,0,2022-05-13,2022-05-13,一般社団法人リイズ事業人材創造研究所,,その他の設立登記法人,静岡県,伊東市,松原７７９番地の２０,,22,208,4140006,,,,,,,2022-05-13,1,,,,,リイズジギョウジンザイソウゾウケンキュウジョ,0
2564,9100003006546,新規,0,2022-05-13,2022-05-13,ＳＩＲＯＣＣＯ合同会社,,合同会社,長野県,東御市,本海野８６１,,20,219,3890518,,,,,,,2022-05-13,1,,,,,シロッコ,0
2580,9120001245854,新規,0,2022-05-13,2022-05-13,モリシャスコンサルティング株式会社,,株式会社,大阪府,大阪市天王寺区,堀越町９番２０－６０１号,,27,109,5430056,,,,,,,2022-05-13,1,,,,,モリシャスコンサルティング,0
2581,9120001245887,新規,0,2022-05-13,2022-05-13,金銀屋株式会社,,株式会社,大阪府,大阪市中央区,瓦屋町３丁目７番６号ポルテボナール６０２号室,,27,128,5420066,,,,,,,2022-05-13,1,,,,,キンギンヤ,0
2582,9120001245895,新規,0,2022-05-13,2022-05-13,株式会社殿,,株式会社,大阪府,大阪市西成区,天下茶屋東２丁目１４番４０号,,27,122,5570011,,,,,,,2022-05-13,1,,,,,トノ,0
2588,9120003021592,新規,0,2022-05-13,2022-05-13,合同会社Ｋａｅｒｕ　ＪＡＰＡＮ,,合同会社,大阪府,大阪市生野区,新今里３丁目１３番１９号,,27,116,5440001,,,,,,,2022-05-13,1,,,,,カエルジャパン,0
2589,9120003021675,新規,0,2022-05-13,2022-05-13,合同会社ＪＣ,,合同会社,大阪府,大阪市城東区,鴫野西３丁目１－１８－５０１,,27,118,5360014,,,,,,,2022-05-13,1,,,,,ジェイシー,0
2593,9120101065582,新規,0,2022-05-13,2022-05-13,株式会社エムプラン,,株式会社,大阪府,南河内郡太子町,大字山田５６１－７,,27,381,5830992,,,,,,,2022-05-13,1,,,,,エムプラン,0
2594,9120105009560,新規,0,2022-05-13,2022-05-13,特定非営利活動法人Ｗｉｔｈ　Ｄａｗｇ,,その他の設立登記法人,大阪府,堺市中区,土師町４丁２５番１号,,27,142,5998238,,,,,,,2022-05-13,1,,,,,ウイズダーグ,0
2609,9130001071762,新規,0,2022-05-13,2022-05-13,リエール株式会社,,株式会社,京都府,京田辺市,河原御影３０番２６号Ｆビル５０２,,26,211,6100361,,,,,,,2022-05-13,1,,,,,リエール,0
2610,9130001071770,新規,0,2022-05-13,2022-05-13,株式会社栄光建産,,株式会社,京都府,京都市南区,吉祥院石原南町３４石原住宅Ｄ－１０２,,26,107,6018364,,,,,,,2022-05-13,1,,,,,エイコウケンサン,0
2622,9140001125939,新規,0,2022-05-13,2022-05-13,ＢＸＮ株式会社,,株式会社,兵庫県,神戸市東灘区,御影石町４丁目１４－２,,28,101,6580045,,,,,,,2022-05-13,1,,,,,ビーエックスエヌ,0
2623,9140001125963,新規,0,2022-05-13,2022-05-13,株式会社ＮＯＺＯＭＵ　ＩＮＤ,,株式会社,兵庫県,豊岡市,日高町久田谷２６番地の５,,28,209,6695345,,,,,,,2022-05-13,1,,,,,ノゾムアイエヌディー,0
2628,9150001025543,新規,0,2022-05-13,2022-05-13,株式会社フォワード,,株式会社,奈良県,生駒郡平群町,緑ケ丘６丁目１番２８号,,29,342,6360941,,,,,,,2022-05-13,1,,,,,フォワード,0
2635,9160001024197,新規,0,2022-05-13,2022-05-13,株式会社ロックシー,,株式会社,滋賀県,大津市,膳所２丁目８番１７号,,25,201,5200815,,,,,,,2022-05-13,1,,,,,ロックシー,0
2643,9190001029383,新規,0,2022-05-13,2022-05-13,株式会社パールハヤシ,,株式会社,三重県,度会郡南伊勢町,五ケ所浦４１６８番地,,24,472,5160101,,,,,,,2022-05-13,1,,,,,パールハヤシ,0
2644,9190001029409,新規,0,2022-05-13,2022-05-13,株式会社Ａｒｋｓ,,株式会社,三重県,桑名市,星見ヶ丘６丁目８０６番地１,,24,205,5110912,,,,,,,2022-05-13,1,,,,,アークス,0
2645,9190002024680,新規,0,2022-05-13,2022-05-13,有限会社鶴東組,,有限会社,三重県,四日市市,七つ屋町７６番地,,24,202,5100856,,,,,,,2022-05-13,1,,,,,ツルヒガシグミ,0
2651,9210001018929,新規,0,2022-05-13,2022-05-13,株式会社エリアベイス,,株式会社,福井県,あわら市,滝第１１号１０番地,,18,208,9190805,,,,,,,2022-05-13,1,,,,,エリアベイス,0
2652,9210005010031,新規,0,2022-05-13,2022-05-13,社会保険労務士法人橋事務所,,その他の設立登記法人,福井県,福井市,西開発１丁目２５０８番地野阪第２ビル,,18,201,9100843,,,,,,,2022-05-13,1,,,,,ハシジムショ,0
2654,9220001024843,新規,0,2022-05-13,2022-05-13,株式会社すかいうぇーぶ,,株式会社,石川県,金沢市,大場町東３０９番地,,17,201,9203121,,,,,,,2022-05-13,1,,,,,スカイウェーブ,0
2660,9240001059714,新規,0,2022-05-13,2022-05-13,こだまホールディングス株式会社,,株式会社,広島県,福山市,駅家町大字法成寺１５７５番地９,,34,207,7202413,,,,,,,2022-05-13,1,,,,,コダマホールディングス,0
2668,9290001097511,新規,0,2022-05-13,2022-05-13,ＪＵＺＡＮ　Ｃａｐｉｔａｌ株式会社,,株式会社,福岡県,筑紫野市,美しが丘南４丁目１番地１８,,40,217,8180034,,,,,,,2022-05-13,1,,,,,ジュザンキャピタル,0
2672,9290801028533,新規,0,2022-05-13,2022-05-13,株式会社ＡＢＥＬＩＡ,,株式会社,福岡県,北九州市八幡西区,浅川学園台２丁目２１番２号,,40,109,8070871,,,,,,,2022-05-13,1,,,,,アベリア,0
2677,9320001019065,新規,0,2022-05-13,2022-05-13,株式会社オリモト,,株式会社,大分県,日田市,大字西有田１３０５番地１,,44,204,8770000,,,,,,,2022-05-13,1,,,,,オリモト,0
2678,9330001029740,新規,0,2022-05-13,2022-05-13,滴水製作所株式会社,,株式会社,熊本県,熊本市北区,植木町平野２４３番地５グランツイリーデＡ１０５号室,,43,105,8610144,,,,,,,2022-05-13,1,,,,,タルミズセイサクショ,0
2680,9340001024699,新規,0,2022-05-13,2022-05-13,愛翔工業株式会社,,株式会社,鹿児島県,霧島市,溝辺町有川８５１番地１０,,46,218,8996401,,,,,,,2022-05-13,1,,,,,マナトコウギョウ,0
2682,9340003003783,新規,0,2022-05-13,2022-05-13,Ｐｏｋａｅ合同会社,,合同会社,鹿児島県,霧島市,隼人町見次１０６１番地３,,46,218,8995117,,,,,,,2022-05-13,1,,,,,ポカエ,0
2683,9340005009457,新規,0,2022-05-13,2022-05-13,一般社団法人南九州相続相談センター,,その他の設立登記法人,鹿児島県,鹿児島市,西田２丁目１０番１号,,46,201,8900046,,,,,,,2022-05-13,1,,,,,ミナミキュウシュウソウゾクソウダンセンター,0
2689,9370001048547,新規,0,2022-05-13,2022-05-13,株式会社Ｒ＆Ｓ,,株式会社,宮城県,仙台市太白区,鹿野１丁目１番７号ボーヌング長町２０２,,04,104,9820023,,,,,,,2022-05-13,1,,,,,アールアンドエス,0
2690,9370003005694,新規,0,2022-05-13,2022-05-13,合同会社しゆうの風,,合同会社,宮城県,多賀城市,八幡４丁目８番１２号ホワイトコーポ八幡２０２号,,04,209,9850874,,,,,,,2022-05-13,1,,,,,シユウノカゼ,0
2696,9400001015881,新規,0,2022-05-13,2022-05-13,株式会社中嶋製材所,,株式会社,岩手県,宮古市,津軽石第１０地割１７６番地５,,03,202,0270203,,,,,,,2022-05-13,1,,,,,ナカシマセイザイショ,0
2700,9430001086631,新規,0,2022-05-13,2022-05-13,ノースモア株式会社,,株式会社,北海道,札幌市中央区,南九条西８丁目２番４１号スタジオ９　３０５号,,01,101,0640809,,,,,,,2022-05-13,1,,,,,ノースモア,0
2701,9430003013880,新規,0,2022-05-13,2022-05-13,Ｎｏｒｔｈ　Ｓｑｕａｒｅ　Ｇａｒｄｅｎ合同会社,,合同会社,北海道,札幌市中央区,南一条西２０丁目１‐６‐６０５,,01,101,0640801,,,,,,,2022-05-13,1,,,,,ノーススクエアガーデン,0
2710,9470005006441,新規,0,2022-05-13,2022-05-13,一般社団法人香川小児先進医療協議会,,その他の設立登記法人,香川県,木田郡三木町,大字池戸１７５０番地１香川大学医学部小児科学講座内,,37,341,7610701,,,,,,,2022-05-13,1,,,,,カガワショウニセンシンイリョウキョウギカイ,0
2714,9490003001657,新規,0,2022-05-13,2022-05-13,合同会社ＮＯＡＨ,,合同会社,高知県,吾川郡いの町,桑瀬３３６番地３,,39,386,7812615,,,,,,,2022-05-13,1,,,,,ノア,0
2716,9700150108704,新規,0,2022-05-13,2022-05-13,相続財産法人光田比公,,その他,愛媛県,松山市,古川南１丁目６番７号,,38,201,7900943,,,,,,,2022-05-13,1,,,,,ソウゾクザイサンホウジンミツタコレヒト,0
2717,9700150108729,新規,0,2022-05-13,2022-05-13,Ｄａｉｍｌｅｒ　Ｔｒｕｃｋ　Ｉｎｎｏｖａｔｉｏｎ　Ｃｅｎｔｅｒ　Ｉｎｄｉａ　Ｐｒｉｖａｔｅ　Ｌｉｍｉｔｅｄ,,外国会社等,,,,,,,,Ｗｈｉｔｅｆｉｅｌｄ　Ｐａｌｍｓ，Ｐｌｏｔ　Ｎｏ．９＆１０，ＥＰＩＰ　Ｚｏｎｅ，Ｐｈａｓｅ　Ｉ，Ｗｈｉｔｅｆｉｅｌｄ　Ｒｏａｄ，Ｂａｎｇａｌｏｒｅ，５６００６６，Ｉｎｄｉａ,,,,,,2022-05-13,1,,,,,ダイムラートラツクイノベーシヨンセンターインデイアプライベートリミテツド,0
