sequenceNumber,corporateNumber,process,correct,updateDate,changeDate,name,nameImageId,kind,prefectureName,cityName,streetNumber,addressImageId,prefectureCode,cityCode,postCode,addressOutside,addressOutsideImageId,closeDate,closeCause,successorCorporateNumber,changeCause,assignmentDate,latest,enName,enPrefectureName,enCityName,enAddressOutside,furigana,hihyoji
3,1010001087662,登記記録の閉鎖等,0,2025-08-28,2025-08-04,株式会社リプロキュア,,株式会社,東京都,中央区,八丁堀３丁目１４番４号,,13,102,1040032,,,2025-08-04,清算の結了等,,,2015-10-05,1,,,,,リプロキュア,0
12,1010101014442,登記記録の閉鎖等,0,2025-08-28,2025-08-27,株式会社コミュニティタウン,,株式会社,東京都,八王子市,散田町４丁目２８番９号,,13,201,1930832,,,2025-08-27,清算の結了等,,,2020-12-09,1,,,,,コミュニティタウン,0
19,1010403029997,登記記録の閉鎖等,0,2025-08-28,2025-08-25,オフィスおね合同会社,,合同会社,神奈川県,小田原市,栄町２丁目１２番３号サングレイス小田原３１３号,,14,206,2500011,,,2025-08-25,清算の結了等,,,2023-04-27,1,,,,,オフィスオネ,0
20,1010502021888,登記記録の閉鎖等,0,2025-08-28,2025-08-12,有限会社とりこえ社会福祉士事務所,,有限会社,東京都,台東区,三筋２丁目２番１－４０１号,,13,106,1110055,,,2025-08-12,清算の結了等,,,2015-10-05,1,,,,,,0
28,1010703004345,登記記録の閉鎖等,0,2025-08-28,2025-08-08,合同会社ＩＦＴＡ,,合同会社,神奈川県,横浜市港北区,綱島上町４８番地１－１１１号,,14,109,2230055,,,2025-08-08,清算の結了等,,,2018-07-18,1,,,,,アイエフティーエー,0
33,1010902005623,登記記録の閉鎖等,0,2025-08-28,2025-08-26,有限会社広告用品ワタナベ,,有限会社,東京都,世田谷区,中町３丁目１７番８号,,13,112,1580091,,,2025-08-26,清算の結了等,,,2015-10-05,1,,,,,コウコクヨウヒンワタナベ,0
34,1011001059577,登記記録の閉鎖等,0,2025-08-28,2025-07-28,株式会社ＭＡＨＡＬＯ,,株式会社,東京都,渋谷区,本町２丁目４８番７号,,13,113,1510071,,,2025-07-28,清算の結了等,,,2015-10-05,1,,,,,マハロ,0
52,1011101041410,登記記録の閉鎖等,0,2025-08-28,2025-08-26,朝日テスコム株式会社,,株式会社,東京都,足立区,綾瀬２丁目３番１０号ホワイトシティ１０１,,13,121,1200005,,,2025-08-26,清算の結了等,,,2015-10-05,1,,,,,アサヒテスコム,0
58,1011103014967,登記記録の閉鎖等,0,2025-08-28,2025-07-31,合同会社ＥＳ５５,,合同会社,東京都,新宿区,下宮比町１番４号,,13,104,1620822,,,2025-07-31,清算の結了等,,,2024-09-20,1,,,,,イーエスゴジュウゴ,0
66,1011301024941,登記記録の閉鎖等,0,2025-08-28,2025-08-25,株式会社ｃｈａｍ,,株式会社,東京都,東久留米市,神宝町２丁目４番２０号,,13,222,2030002,,,2025-08-25,清算の結了等,,,2019-04-03,1,,,,,チャム,0
73,1011701010186,登記記録の閉鎖等,0,2025-08-28,2025-08-04,株式会社ジャパンエコ,,株式会社,東京都,千代田区,神田三崎町３丁目８番４号江戸川ビル３階Ａ,,13,101,1010061,,,2025-08-04,清算の結了等,,,2015-10-05,1,,,,,ジャパンエコ,0
88,1020002019457,登記記録の閉鎖等,0,2025-08-28,2025-08-08,有限会社成田測量設計,,有限会社,神奈川県,横浜市港南区,丸山台２丁目１番５号第２丸照ビル,,14,111,2330013,,,2025-08-08,清算の結了等,,,2015-10-05,1,,,,,ナリタソクリョウセッケイ,0
94,1021001078865,登記記録の閉鎖等,0,2025-08-28,2025-08-22,株式会社ＡＲＣ,,株式会社,神奈川県,相模原市緑区,西橋本２丁目２５番３号,,14,151,2520131,,,2025-08-22,清算の結了等,,,2023-04-26,1,,,,,エーアールシー,0
98,1021003004919,登記記録の閉鎖等,0,2025-08-28,2025-07-01,合同会社Ｍａｎｏａ,,合同会社,神奈川県,平塚市,松風町２８番４７－５０３号,,14,203,2540812,,,2025-07-01,合併による解散等,3021003002739,令和７年７月１日神奈川県平塚市松風町２８番４７－５０３号合同会社Ｈｏｋｕｌｅａ（3021003002739）に合併し解散,2015-10-05,1,,,,,,0
105,1030002006272,登記記録の閉鎖等,0,2025-08-28,2025-08-22,有限会社サワダ,,有限会社,埼玉県,さいたま市西区,大字佐知川１２７２番地の２０,,11,101,3310064,,,2025-08-22,清算の結了等,,,2015-10-05,1,,,,,サワダ,0
106,1030002092552,登記記録の閉鎖等,0,2025-08-28,2025-08-21,有限会社関口測量事務所,,有限会社,埼玉県,坂戸市,清水町４６番２８号,,11,239,3500222,,,2025-08-21,清算の結了等,,,2015-10-05,1,,,,,セキグチソクリョウジムショ,0
113,1040002027425,登記記録の閉鎖等,0,2025-08-28,2025-08-05,ケンズハウジング有限会社,,有限会社,千葉県,船橋市,飯山満町３丁目１５２５番地６－３０５,,12,204,2740822,,,2025-08-05,清算の結了等,,,2015-10-05,1,,,,,ケンズハウジング,0
118,1050001032540,登記記録の閉鎖等,0,2025-08-28,2025-08-18,株式会社シルクロード,,株式会社,茨城県,結城市,大字結城７４７３番地,,08,207,3070001,,,2025-08-18,清算の結了等,,,2015-10-05,1,,,,,シルクロード,0
122,1050002024000,登記記録の閉鎖等,0,2025-08-28,2025-08-18,有限会社鈴木ドレスメーカー,,有限会社,茨城県,古河市,東本町２丁目３番１５号,,08,204,3060013,,,2025-08-18,清算の結了等,,,2015-10-05,1,,,,,スズキドレスメーカー,0
141,1110002013442,登記記録の閉鎖等,0,2025-08-28,2025-08-15,有限会社ハタノ工業,,有限会社,新潟県,阿賀野市,下山屋前田４３７番地３,,15,223,9591952,,,2025-08-15,清算の結了等,,,2015-10-05,1,,,,,ハタノコウギョウ,0
142,1110005011815,登記記録の閉鎖等,0,2025-08-28,2025-08-15,御嶽教稻荷教会,00071610,その他の設立登記法人,新潟県,長岡市,越路中沢５２３番地,,15,202,9495408,,,2025-08-15,清算の結了等,,,2015-10-05,1,,,,,,0
143,1120001062035,登記記録の閉鎖等,0,2025-08-28,2025-08-19,株式会社オーバ,,株式会社,大阪府,大阪市北区,浪花町１３番５号,,27,127,5300022,,,2025-08-19,清算の結了等,,,2015-10-05,1,,,,,オーバ,0
153,1120003022301,登記記録の閉鎖等,0,2025-08-28,2025-08-12,合同会社ＫＭＫ,,合同会社,大阪府,大阪市東淀川区,下新庄３丁目４番２７－８０６号,,27,114,5330021,,,2025-08-12,清算の結了等,,,2022-08-16,1,,,,,ケーエムケー,0
154,1120101026682,登記記録の閉鎖等,0,2025-08-28,2025-08-18,株式会社ピアサーティ,,株式会社,大阪府,大阪狭山市,狭山５丁目２２３２番地の３（１－５０７号）,,27,231,5890005,,,2025-08-18,清算の結了等,,,2015-10-05,1,,,,,ピアサーティ,0
156,1120101037416,登記記録の閉鎖等,0,2025-08-28,2025-08-20,原化成工業株式会社,,株式会社,大阪府,岸和田市,尾生町２１８６番地,,27,202,5960816,,,2025-08-20,清算の結了等,,,2015-10-05,1,,,,,ハラカセイコウギョウ,0
161,1120901006231,登記記録の閉鎖等,0,2025-08-28,2025-08-06,クリエート株式会社,,株式会社,大阪府,吹田市,山田東３丁目８番２３－１２０５号,,27,205,5650821,,,2025-08-06,清算の結了等,,,2015-10-05,1,,,,,クリエート,0
172,1120902020636,登記記録の閉鎖等,0,2025-08-28,2025-08-08,有限会社木下塗装工業,,有限会社,大阪府,豊中市,利倉西２丁目１０番３－１０３号,,27,203,5610844,,,2025-08-08,清算の結了等,,,2015-10-05,1,,,,,,0
186,1130002025535,登記記録の閉鎖等,0,2025-08-28,2025-08-12,有限会社ハロープロジェクト,,有限会社,京都府,乙訓郡大山崎町,字円明寺小字鳥居前４８番地１９,,26,303,6180091,,,2025-08-12,清算の結了等,,,2015-10-05,1,,,,,,0
199,1180001083265,登記記録の閉鎖等,0,2025-08-28,2025-08-04,株式会社戸松商事,,株式会社,愛知県,一宮市,八町通２丁目１６番地,,23,203,4910844,,,2025-08-04,清算の結了等,,,2015-10-05,1,,,,,トマツショウジ,0
208,1180003011257,登記記録の閉鎖等,0,2025-08-28,2025-08-04,合資会社丹羽ふとん店,,合資会社,愛知県,犬山市,大字羽黒字鳳町１１７番地,,23,215,4840894,,,2025-08-04,清算の結了等,,,2015-10-05,1,,,,,ニワフトン,0
209,1180003026791,登記記録の閉鎖等,0,2025-08-28,2025-08-05,合同会社ＭＴ２,,合同会社,愛知県,丹羽郡大口町,丸１丁目９０番地,,23,361,4800145,,,2025-08-05,清算の結了等,,,2024-05-20,1,,,,,エムティーツー,0
211,1180302015140,登記記録の閉鎖等,0,2025-08-28,2025-08-20,有限会社上村撚糸,,有限会社,愛知県,蒲郡市,大塚町平原１０６番地,,23,214,4430013,,,2025-08-20,清算の結了等,,,2015-10-05,1,,,,,ウエムラネンシ,0
213,1200001015397,登記記録の閉鎖等,0,2025-08-28,2025-08-27,ジョイトーカイ株式会社,,株式会社,岐阜県,海津市,海津町内記２３７番地,,21,221,5030641,,,2025-08-27,清算の結了等,,,2015-10-05,1,,,,,ジョイトーカイ,0
221,1240001007647,登記記録の閉鎖等,0,2025-08-28,2025-08-27,株式会社ＴＯＳＨＩ,,株式会社,広島県,広島市安佐南区,高取北２丁目１０番８号,,34,105,7310144,,,2025-08-27,清算の結了等,,,2015-10-05,1,,,,,トシ,0
230,1270002000185,登記記録の閉鎖等,0,2025-08-28,2025-08-27,有限会社いわなり,,有限会社,鳥取県,鳥取市,栄町７０５番地,,31,201,6800831,,,2025-08-27,清算の結了等,,,2015-10-05,1,,,,,イワナリ,0
243,1320205000530,登記記録の閉鎖等,0,2025-08-28,2025-08-25,農事組合法人ＪＯフーズ,,その他の設立登記法人,大分県,臼杵市,野津町大字吉田１４１１番地,,44,206,8750222,,,2025-08-25,清算の結了等,,,2015-10-05,1,,,,,ジェイオーフーズ,0
250,1360003005744,登記記録の閉鎖等,0,2025-08-28,2025-08-20,合同会社颯来と花,,合同会社,沖縄県,那覇市,字小禄４２１番地６コーポ屋良１０５,,47,201,9010152,,,2025-08-20,清算の結了等,,,2015-10-05,1,,,,,ソラトハナ,0
253,1370001002602,登記記録の閉鎖等,0,2025-08-28,2025-08-07,泉崎建設株式会社,,株式会社,宮城県,仙台市若林区,五十人町１１８番地の１,,04,103,9840812,,,2025-08-07,清算の結了等,,,2015-10-05,1,,,,,イズミザキケンセツ,0
254,1370001049899,登記記録の閉鎖等,0,2025-08-28,2025-08-08,株式会社スタークリムゾン,,株式会社,宮城県,仙台市青葉区,本町１丁目５番２８号カーニープレイス仙台駅前通６０３号室,,04,101,9800014,,,2025-08-08,清算の結了等,,,2023-05-12,1,,,,,スタークリムゾン,0
271,2010001007099,登記記録の閉鎖等,0,2025-08-28,2025-08-04,株式会社ボア,,株式会社,東京都,文京区,本郷３丁目４１番９号Ｎ．ＨＯＮＧＯＢＬＤ７階,,13,105,1130033,,,2025-08-04,清算の結了等,,,2015-10-05,1,,,,,ボア,0
273,2010001186562,登記記録の閉鎖等,0,2025-08-28,2025-08-04,ミクウガマーケティングエージェンシー株式会社,,株式会社,東京都,千代田区,岩本町２丁目４－５,,13,101,1010032,,,2025-08-04,清算の結了等,,,2017-10-03,1,,,,,,0
274,2010001190151,登記記録の閉鎖等,0,2025-08-28,2025-08-04,ビブリロォス株式会社,,株式会社,東京都,千代田区,神田淡路町１丁目５番地,,13,101,1010063,,,2025-08-04,清算の結了等,,,2018-03-08,1,,,,,ビブリロォス,0
294,2010401128957,登記記録の閉鎖等,0,2025-08-28,2025-08-12,株式会社ＮＡＧＩ,,株式会社,京都府,京都市中京区,聚楽廻南町４１番地６,,26,104,6048411,,,2025-08-12,清算の結了等,,,2017-01-06,1,,,,,ナギ,0
298,2010403015823,登記記録の閉鎖等,0,2025-08-28,2025-07-31,ユニバースワン合同会社,,合同会社,東京都,港区,東新橋２丁目１０番１０号,,13,103,1050021,,,2025-07-31,清算の結了等,,,2016-12-27,1,,,,,ユニバースワン,0
307,2011001012782,登記記録の閉鎖等,0,2025-08-28,2025-08-01,株式会社ソースマート,,株式会社,愛知県,名古屋市中区,丸の内２丁目１６番８号,,23,106,4600002,,,2025-08-01,合併による解散等,8180001037727,令和７年８月１日名古屋市中区丸の内二丁目１６番８号高田株式会社（8180001037727）に合併し解散,2015-10-05,1,,,,,ソースマート,0
310,2011001117409,登記記録の閉鎖等,0,2025-08-28,2025-07-28,ＡＣ株式会社,,株式会社,東京都,渋谷区,桜丘町２６番１号,,13,113,1500031,,,2025-07-28,清算の結了等,,,2017-07-19,1,,,,,エーシー,0
316,2011101009266,登記記録の閉鎖等,0,2025-08-28,2025-08-25,照栄印刷工業株式会社,,株式会社,東京都,江東区,石島２０番２号,,13,108,1350014,,,2025-08-25,清算の結了等,,,2015-10-05,1,,,,,,0
325,2011502011960,登記記録の閉鎖等,0,2025-08-28,2025-08-25,有限会社渡辺コーポ,,有限会社,東京都,荒川区,東尾久８丁目３１番３号,,13,118,1160012,,,2025-08-25,清算の結了等,,,2015-10-05,1,,,,,ワタナベコーポ,0
330,2011702006579,登記記録の閉鎖等,0,2025-08-28,2025-08-25,有限会社創健,,有限会社,静岡県,浜松市中央区,中島１丁目１１番１３－７号,,22,138,4300856,,,2025-08-25,清算の結了等,,,2015-10-05,1,,,,,ソウケン,0
339,2020001049413,登記記録の閉鎖等,0,2025-08-28,2025-08-08,ＪＰマーケティング株式会社,,株式会社,神奈川県,横浜市磯子区,久木町２３番３号,,14,107,2350015,,,2025-08-08,清算の結了等,,,2015-10-05,1,,,,,ジェイピーマーケティング,0
341,2020001137119,登記記録の閉鎖等,0,2025-08-28,2025-08-25,株式会社エアチェン,,株式会社,神奈川県,横浜市青葉区,青葉台２丁目２６－４スエヒロビル２階,,14,117,2270062,,,2025-08-25,合併による解散等,2010401109627,令和７年８月１日東京都千代田区麹町三丁目２番６号垣見麹町ビル４階パーストワン株式会社（2010401109627）に合併し解散,2020-08-04,1,,,,,エアチェン,0
365,2021003009421,登記記録の閉鎖等,0,2025-08-28,2025-08-25,合同会社レフォルマーレ,,合同会社,神奈川県,横須賀市,佐島の丘２丁目１５番２号,,14,201,2400108,,,2025-08-25,清算の結了等,,,2020-06-09,1,,,,,,0
369,2030001107228,登記記録の閉鎖等,0,2025-08-28,2025-08-06,オーディオマニア株式会社,,株式会社,埼玉県,ふじみ野市,亀久保１丁目３番地３７,,11,245,3560051,,,2025-08-06,清算の結了等,,,2015-10-05,1,,,,,オーディオマニア,0
377,2030003001610,登記記録の閉鎖等,0,2025-08-28,2025-08-22,合資会社日本バリュークリエイト,,合資会社,埼玉県,久喜市,本町４丁目１３番１２号,,11,232,3460005,,,2025-08-22,清算の結了等,,,2015-10-05,1,,,,,ニホンバリュークリエイト,0
389,2050002014339,登記記録の閉鎖等,0,2025-08-28,2025-08-12,有限会社ミカワ建装,,有限会社,茨城県,かすみがうら市,東野寺１７３番地１,,08,230,3150072,,,2025-08-12,清算の結了等,,,2015-10-05,1,,,,,ミカワケンソウ,0
399,2080401014878,登記記録の閉鎖等,0,2025-08-28,2025-08-22,株式会社落合商店,,株式会社,静岡県,菊川市,本所９９７番地,,22,224,4390018,,,2025-08-22,清算の結了等,,,2015-10-05,1,,,,,オチアイショウテン,0
404,2110005000313,登記記録の閉鎖等,0,2025-08-28,2025-07-03,新潟鉄工業協同組合,,その他の設立登記法人,新潟県,新潟市,山木戸八丁目４番８号,,15,100,,,,2025-07-03,清算の結了等,,,2025-05-28,1,,,,,ニイガタテツコウギョウ,0
405,2120001043315,登記記録の閉鎖等,0,2025-08-28,2025-08-18,小西測量株式会社,,株式会社,大阪府,大阪市西区,西本町１丁目１２番１９号,,27,106,5500005,,,2025-08-18,清算の結了等,,,2015-10-05,1,,,,,コニシソクリョウ,0
436,2130001014521,登記記録の閉鎖等,0,2025-08-28,2025-08-12,株式会社サン・クリエイト,,株式会社,京都府,京都市伏見区,舞台町３５番地,,26,109,6128338,,,2025-08-12,清算の結了等,,,2015-10-05,1,,,,,サンクリエイト,0
438,2130001046639,登記記録の閉鎖等,0,2025-08-28,2025-08-18,株式会社岡村事務所,,株式会社,京都府,京都市上京区,丸太町通千本東入中務町４９１番地の３０ブラザービル,,26,102,6028158,,,2025-08-18,合併による解散等,1130001004184,令和７年８月１５日京都市上京区丸太町通千本東入中務町４９１番地の３０ブラザービル株式会社京都ゼネラルセンター（1130001004184）に合併し解散,2015-10-05,1,,,,,オカムラジムショ,0
444,2150001027331,登記記録の閉鎖等,0,2025-08-28,2025-08-20,株式会社アイエム,,株式会社,奈良県,奈良市,大宮町２丁目３－５－４０７,,29,201,6308115,,,2025-08-20,清算の結了等,,,2024-06-07,1,,,,,アイエム,0
446,2160001001921,登記記録の閉鎖等,0,2025-08-28,2025-08-12,＿食商事株式会社,00044192,株式会社,京都府,京都市山科区,西野山射庭上町２１１番地の１,,26,110,6070000,,,2025-08-12,合併による解散等,6130001013420,令和７年８月１日京都市山科区西野山射庭上町２１１番地の１＿＿食品株式会社（6130001013420）に合併し解散,2015-10-05,1,,,,,ミンショクショウジ,0
452,2180002005218,登記記録の閉鎖等,0,2025-08-28,2025-08-04,有限会社北伸電業,,有限会社,愛知県,名古屋市千種区,下方町４丁目４１番地,,23,101,4640096,,,2025-08-04,清算の結了等,,,2015-10-05,1,,,,,ホクシンデンギョウ,0
476,2260002025991,登記記録の閉鎖等,0,2025-08-28,2025-08-12,有限会社山陽新聞矢掛販売所,,有限会社,岡山県,小田郡矢掛町,矢掛１９７３番地,,33,461,7141201,,,2025-08-12,清算の結了等,,,2015-10-05,1,,,,,サンヨウシンブンヤカゲハンバイショ,0
493,2310001014965,登記記録の閉鎖等,0,2025-08-28,2025-08-26,平戸商事株式会社,,株式会社,長崎県,平戸市,田平町山内免３４４番地５,,42,207,8594825,,,2025-08-26,清算の結了等,,,2017-06-19,1,,,,,ヒラドショウジ,0
497,2340003003146,登記記録の閉鎖等,0,2025-08-28,2025-08-19,合同会社紫陽花,,合同会社,鹿児島県,鹿児島市,伊敷１丁目１３番１５号,,46,201,8900008,,,2025-08-19,清算の結了等,,,2020-07-10,1,,,,,アジサイ,0
507,2470002003084,登記記録の閉鎖等,0,2025-08-28,2025-08-27,サンセイ商事有限会社,,有限会社,香川県,高松市,木太町３２０１番地９,,37,201,7600080,,,2025-08-27,清算の結了等,,,2015-10-05,1,,,,,サンセイショウジ,0
513,2490002004824,登記記録の閉鎖等,0,2025-08-28,2025-08-26,有限会社町田技研工業,,有限会社,高知県,高知市,二葉町１２番１６号,,39,201,7810815,,,2025-08-26,清算の結了等,,,2015-10-05,1,,,,,マチダギケンコウギョウ,0
527,3010002027319,登記記録の閉鎖等,0,2025-08-28,2025-08-04,有限会社緑汎,,有限会社,東京都,文京区,向丘２丁目３１番３号,,13,105,1130023,,,2025-08-04,清算の結了等,,,2015-10-05,1,,,,,リョクハン,0
538,3010403015319,登記記録の閉鎖等,0,2025-08-28,2025-07-31,ルモンドアセットマネジメント合同会社,,合同会社,東京都,港区,東新橋２丁目１０番１０号,,13,103,1050021,,,2025-07-31,清算の結了等,,,2016-09-07,1,,,,,,0
539,3010403015822,登記記録の閉鎖等,0,2025-08-28,2025-07-31,ＫＴＡ合同会社,,合同会社,東京都,港区,東新橋２丁目１０番１０号,,13,103,1050021,,,2025-07-31,清算の結了等,,,2016-12-27,1,,,,,ケーティーエー,0
559,3011101055838,登記記録の閉鎖等,0,2025-08-28,2025-07-31,株式会社ニュートントラベル,,株式会社,東京都,新宿区,歌舞伎町２丁目４番１０号,,13,104,1600021,,,2025-07-31,清算の結了等,,,2015-10-05,1,,,,,ニュートントラベル,0
578,3011801026790,登記記録の閉鎖等,0,2025-08-28,2025-08-27,エイトア・パラディーゾ株式会社,,株式会社,東京都,足立区,東綾瀬２丁目１番７号,,13,121,1200004,,,2025-08-27,清算の結了等,,,2015-10-05,1,,,,,,0
580,3011802015157,登記記録の閉鎖等,0,2025-08-28,2025-08-26,有限会社太陽軒,,有限会社,東京都,足立区,六町３丁目２番３号,,13,121,1210073,,,2025-08-26,清算の結了等,,,2015-10-05,1,,,,,,0
586,3013303005736,登記記録の閉鎖等,0,2025-08-28,2025-08-19,合同会社ＲＡＶＥＮ,,合同会社,東京都,板橋区,中丸町３－１－１２０２,,13,119,1730026,,,2025-08-19,清算の結了等,,,2021-07-05,1,,,,,レイヴン,0
595,3021001053998,登記記録の閉鎖等,0,2025-08-28,2025-08-21,ＫＡＩＢＡ株式会社,,株式会社,神奈川県,鎌倉市,十二所３２４番地１０,,14,204,2480001,,,2025-08-21,清算の結了等,,,2015-10-05,1,,,,,カイバ,0
601,3030001123182,登記記録の閉鎖等,0,2025-08-28,2025-08-01,株式会社智栄,,株式会社,東京都,千代田区,神田須田町１丁目２４番２１号加瀬ビル１７３－４０１号,,13,101,1010041,,,2025-08-01,清算の結了等,,,2017-11-28,1,,,,,トモエイ,0
610,3040001125797,登記記録の閉鎖等,0,2025-08-28,2025-08-01,株式会社ｎｅｏ　ｍａｍａ　ｏｉｌｓ,,株式会社,千葉県,千葉市中央区,神明町１３番地１神明ビル１Ｆ,,12,101,2600022,,,2025-08-01,清算の結了等,,,2022-11-11,1,,,,,ネオママオイルズ,0
614,3050002000478,登記記録の閉鎖等,0,2025-08-28,2025-08-18,有限会社ウチヤマ,,有限会社,茨城県,水戸市,酒門町４０５６番地,,08,201,3100841,,,2025-08-18,清算の結了等,,,2015-10-05,1,,,,,ウチヤマ,0
618,3080005003822,登記記録の閉鎖等,0,2025-08-28,2025-08-21,特定非営利活動法人静岡療術整体師協会,,その他の設立登記法人,静岡県,静岡市葵区,常磐町１丁目４番１１号,,22,101,4200034,,,2025-08-21,清算の結了等,,,2015-10-05,1,,,,,シズオカリョウジュツセイタイシキョウカイ,0
625,3110002024082,登記記録の閉鎖等,0,2025-08-28,2025-08-13,有限会社西村建設,,有限会社,新潟県,上越市,大潟区雁子浜４６９番地１,,15,222,9493101,,,2025-08-13,清算の結了等,,,2015-10-05,1,,,,,ニシムラケンセツ,0
636,3120003021986,登記記録の閉鎖等,0,2025-08-28,2025-08-12,合同会社イシュタル,,合同会社,大阪府,大阪市北区,天神橋２丁目１番２４号スペースフォーリブス３０１号室,,27,127,5300041,,,2025-08-12,清算の結了等,,,2022-06-28,1,,,,,イシュタル,0
645,3120902001353,登記記録の閉鎖等,0,2025-08-28,2025-08-08,有限会社平尾,,有限会社,大阪府,茨木市,沢良宜西１丁目１８番１１号グリーン平尾１０５号,,27,211,5670868,,,2025-08-08,清算の結了等,,,2015-10-05,1,,,,,,0
655,3150002009930,登記記録の閉鎖等,0,2025-08-28,2025-08-19,有限会社コモアインターナショナル,,有限会社,奈良県,香芝市,北今市２丁目２３０番地の４,,29,210,6390242,,,2025-08-19,清算の結了等,,,2015-10-05,1,,,,,コモアインターナショナル,0
659,3180001085870,登記記録の閉鎖等,0,2025-08-28,2025-08-22,株式会社サンリフォーム,,株式会社,愛知県,稲沢市,天池五反田町１番地,,23,220,4928275,,,2025-08-22,合併による解散等,5011701014480,令和７年７月１日東京都江戸川区北葛西四丁目１４番１号日本商業施設株式会社（5011701014480）に合併し解散,2015-10-05,1,,,,,サンリフォーム,0
668,3180301019297,登記記録の閉鎖等,0,2025-08-28,2025-08-15,株式会社マツイ,,株式会社,愛知県,豊田市,若林西町六反ケ坪６５番地２,,23,211,4730917,,,2025-08-15,清算の結了等,,,2015-10-05,1,,,,,マツイ,0
670,3180303005675,登記記録の閉鎖等,0,2025-08-28,2025-08-21,ＤＯＲＭ合同会社,,合同会社,愛知県,豊田市,梅坪町３丁目１２番地１２,,23,211,4710064,,,2025-08-21,清算の結了等,,,2023-04-07,1,,,,,ドーム,0
679,3230002007422,登記記録の閉鎖等,0,2025-08-28,2025-08-27,有限会社アキエンジニアリング,,有限会社,富山県,魚津市,本江５１９番地の１１,,16,204,9370805,,,2025-08-27,清算の結了等,,,2015-10-05,1,,,,,アキエンジニアリング,0
687,3260001030884,登記記録の閉鎖等,0,2025-08-28,2025-08-20,株式会社ウイハル建設,,株式会社,岡山県,倉敷市,鶴の浦３丁目３番６－１２号,,33,202,7128007,,,2025-08-20,清算の結了等,,,2017-05-30,1,,,,,,0
699,3290001096238,登記記録の閉鎖等,0,2025-08-28,2025-07-29,株式会社Ｐｏｎｏ．Ｃｏ,,株式会社,福岡県,福岡市南区,井尻２丁目４９番３９－３０２号ラポールメゾン,,40,134,8111302,,,2025-07-29,清算の結了等,,,2022-01-26,1,,,,,ポノカンパニー,0
705,3320005008078,登記記録の閉鎖等,0,2025-08-28,2025-08-21,特定非営利活動法人中津みどり会,,その他の設立登記法人,大分県,中津市,大字下宮永字西ノ前２５９－１,,44,203,8710029,,,2025-08-21,清算の結了等,,,2015-10-05,1,,,,,ナカツミドリカイ,0
707,3330002029381,登記記録の閉鎖等,0,2025-08-28,2025-08-13,有限会社木本建装,,有限会社,熊本県,上天草市,龍ヶ岳町高戸３４９６番地,,43,212,8660202,,,2025-08-13,清算の結了等,,,2015-10-05,1,,,,,キモトケンソウ,0
711,3380001022713,登記記録の閉鎖等,0,2025-08-28,2025-08-08,株式会社ハルイチ,,株式会社,福島県,双葉郡大熊町,大字小入野字向畑４１番地１５,,07,545,9791302,,,2025-08-08,清算の結了等,,,2015-10-05,1,,,,,ハルイチ,0
716,3420003002667,登記記録の閉鎖等,0,2025-08-28,2025-08-15,合同会社フォロカル,,合同会社,青森県,弘前市,大字浜の町東３丁目３番地７,,02,202,0368323,,,2025-08-15,清算の結了等,,,2023-02-21,1,,,,,フォロカル,0
720,3430002058222,登記記録の閉鎖等,0,2025-08-28,2025-08-04,有限会社岡組,,有限会社,北海道,白老郡白老町,字竹浦２５８番地２,,01,578,0590642,,,2025-08-04,清算の結了等,,,2015-10-05,1,,,,,オカクミ,0
721,3470003001953,登記記録の閉鎖等,0,2025-08-28,2025-08-14,合同会社Ｋｚ,,合同会社,香川県,丸亀市,郡家町２８７１番地１フォーエバー２０－１０２号,,37,202,7630093,,,2025-08-14,清算の結了等,,,2021-05-13,1,,,,,ケイズ,0
723,4010001041039,登記記録の閉鎖等,0,2025-08-28,2025-08-04,株式会社銀泉,,株式会社,東京都,中央区,築地２丁目１番１７号,,13,102,1040045,,,2025-08-04,清算の結了等,,,2015-10-05,1,,,,,ギンセン,0
725,4010001147785,登記記録の閉鎖等,0,2025-08-28,2025-06-05,株式会社ＴＥＣインターナショナル,,株式会社,東京都,千代田区,霞が関３丁目７番１号霞が関東急ビル,,13,101,1000013,,,2025-06-05,合併による解散等,6010001034247,令和７年６月１日東京都千代田区霞が関三丁目７番１号霞が関東急ビル株式会社東京設計事務所（6010001034247）に合併し解散,2015-10-05,1,,,,,ティイーシィインターナショナル,0
729,4010001217514,登記記録の閉鎖等,0,2025-08-28,2025-08-05,Ｖ　Ｓｐａｒｋ株式会社,,株式会社,東京都,千代田区,二番町７番地１ミレニアムガーデンコート１７０１号,,13,101,1020084,,,2025-08-05,清算の結了等,,,2021-04-21,1,,,,,ブイスパーク,0
746,4010401177705,登記記録の閉鎖等,0,2025-08-28,2025-08-25,株式会社ｍｅｄｏ,,株式会社,埼玉県,さいたま市浦和区,神明２丁目１５番３－１０１号,,11,107,3300065,,,2025-08-25,清算の結了等,,,2023-10-12,1,,,,,メド,0
749,4010403015821,登記記録の閉鎖等,0,2025-08-28,2025-07-31,ラフレス合同会社,,合同会社,東京都,港区,東新橋２丁目１０番１０号,,13,103,1050021,,,2025-07-31,清算の結了等,,,2016-12-27,1,,,,,,0
754,4010602010251,登記記録の閉鎖等,0,2025-08-28,2025-08-22,有限会社京島浪花家,,有限会社,東京都,墨田区,京島２丁目９番７号,,13,107,1310046,,,2025-08-22,清算の結了等,,,2015-10-05,1,,,,,キョウジマナニワヤ,0
793,4011502010390,登記記録の閉鎖等,0,2025-08-28,2025-08-25,有限会社ノサカ眼鏡,,有限会社,東京都,荒川区,西尾久３丁目２４番１８号,,13,118,1160011,,,2025-08-25,清算の結了等,,,2015-10-05,1,,,,,ノサカメガネ,0
800,4012305001651,登記記録の閉鎖等,0,2025-08-28,2025-08-25,一般社団法人日本介護技術協会,,その他の設立登記法人,東京都,千代田区,麹町３丁目４番地７,,13,101,1020083,,,2025-08-25,清算の結了等,,,2015-10-05,1,,,,,ニホンカイゴギジュツキョウカイ,0
815,4021001034650,登記記録の閉鎖等,0,2025-08-28,2025-08-21,株式会社越山製作所,,株式会社,神奈川県,小田原市,新屋１９８番地１,,14,206,2500856,,,2025-08-21,清算の結了等,,,2015-10-05,1,,,,,コシヤマセイサクショ,0
818,4021002000123,登記記録の閉鎖等,0,2025-08-28,2025-08-25,有限会社アイ・プロダクツ・アンド・サプライズ,,有限会社,神奈川県,藤沢市,遠藤６２６番地の５,,14,205,2520816,,,2025-08-25,清算の結了等,,,2015-10-05,1,,,,,,0
824,4030002096633,登記記録の閉鎖等,0,2025-08-28,2025-08-22,有限会社長岡機工,,有限会社,埼玉県,比企郡吉見町,大字北吉見２８９６番地１,,11,347,3550155,,,2025-08-22,清算の結了等,,,2015-10-05,1,,,,,ナガオカキコウ,0
828,4040001022102,登記記録の閉鎖等,0,2025-08-28,2025-08-01,パシフィックマリーン株式会社,,株式会社,千葉県,船橋市,緑台１丁目２番２棟５０２号,,12,204,2740818,,,2025-08-01,清算の結了等,,,2015-10-05,1,,,,,パシフィックマリーン,0
836,4050001003002,登記記録の閉鎖等,0,2025-08-28,2025-08-18,株式会社川広,,株式会社,茨城県,東茨城郡城里町,大字石塚１１７５番地５,,08,310,3114303,,,2025-08-18,清算の結了等,,,2015-10-05,1,,,,,カワヒロ,0
837,4050001021532,登記記録の閉鎖等,0,2025-08-28,2025-08-12,遠峰酒造株式会社,,株式会社,茨城県,潮来市,潮来２０９番地,,08,223,3112424,,,2025-08-12,清算の結了等,,,2015-10-05,1,,,,,トオミネシュゾウ,0
838,4050001043980,登記記録の閉鎖等,0,2025-08-28,2025-08-13,株式会社Ｏｐｕｓ,,株式会社,茨城県,つくば市,学園の森１丁目３６番地８,,08,220,3050816,,,2025-08-13,合併による解散等,7050001017247,令和７年７月３１日茨城県つくば市小田２８３０番地株式会社筑波農場（7050001017247）に合併し解散,2018-02-02,1,,,,,オーパス,0
845,4110001005958,登記記録の閉鎖等,0,2025-08-28,2025-08-12,カレント商事株式会社,,株式会社,新潟県,新潟市中央区,弁天３丁目３番５号松栄ビル２０５号,,15,103,9500901,,,2025-08-12,清算の結了等,,,2015-10-05,1,,,,,カレントショウジ,0
847,4120001044162,登記記録の閉鎖等,0,2025-08-28,2025-08-15,株式会社シー・エヌ,,株式会社,大阪府,大阪市浪速区,難波中２丁目１０番５２号,,27,111,5560011,,,2025-08-15,清算の結了等,,,2015-10-05,1,,,,,シーエヌ,0
848,4120001225497,登記記録の閉鎖等,0,2025-08-28,2025-08-12,ケイアイクリーン株式会社,,株式会社,大阪府,大阪市淀川区,西宮原２丁目５番４６－２２７号,,27,123,5320004,,,2025-08-12,清算の結了等,,,2019-12-02,1,,,,,ケイアイクリーン,0
852,4120003022216,登記記録の閉鎖等,0,2025-08-28,2025-08-12,合同会社ヒーローズ,,合同会社,大阪府,大阪市中央区,瓦町３丁目４－１０日宝御堂ビル６０８,,27,128,5410048,,,2025-08-12,清算の結了等,,,2022-08-04,1,,,,,ヒーローズ,0
873,4130002012869,登記記録の閉鎖等,0,2025-08-28,2025-08-12,有限会社＿食,00047500,有限会社,京都府,京都市山科区,西野山射庭上町２１１番地の１,,26,110,6070000,,,2025-08-12,合併による解散等,6130001013420,令和７年８月１日京都市山科区西野山射庭上町２１１番地の１＿＿食品株式会社（6130001013420）に合併し解散,2015-10-05,1,,,,,ミンショク,0
886,4180001094268,登記記録の閉鎖等,0,2025-08-28,2025-08-04,株式会社クラブ亭,,株式会社,愛知県,東海市,高横須賀町公家２番地の２,,23,222,4770037,,,2025-08-04,清算の結了等,,,2015-10-05,1,,,,,クラブテイ,0
890,4180001158659,登記記録の閉鎖等,0,2025-08-28,2025-08-04,株式会社シーハート,,株式会社,愛知県,長久手市,香桶３０８番地１,,23,238,4801176,,,2025-08-04,清算の結了等,,,2023-10-26,1,,,,,シーハート,0
894,4180005003729,登記記録の閉鎖等,0,2025-08-28,2025-08-25,名古屋茶業協同組合,,その他の設立登記法人,愛知県,名古屋市中区,橘１丁目１５番２１号,,23,106,4600016,,,2025-08-25,清算の結了等,,,2015-10-05,1,,,,,ナゴヤチャギョウ,0
908,4290001017424,登記記録の閉鎖等,0,2025-08-28,2025-07-30,株式会社リエ,,株式会社,福岡県,福岡市博多区,山王１丁目３番１３号,,40,132,8120015,,,2025-07-30,清算の結了等,,,2015-10-05,1,,,,,リエ,0
918,4290802001106,登記記録の閉鎖等,0,2025-08-28,2025-08-25,有限会社音羽工務店,,有限会社,福岡県,北九州市小倉南区,横代北町２丁目４番２７号,,40,107,8020821,,,2025-08-25,清算の結了等,,,2015-10-05,1,,,,,,0
927,4310002007628,登記記録の閉鎖等,0,2025-08-28,2025-08-26,有限会社アンドーテック,,有限会社,長崎県,西彼杵郡時津町,久留里郷３９６番地６,,42,308,8512107,,,2025-08-26,清算の結了等,,,2015-10-05,1,,,,,アンドーテック,0
943,4420005000081,登記記録の閉鎖等,0,2025-08-28,2025-08-19,青森個人タクシー協同組合,,その他の設立登記法人,青森県,青森市,大字大野字若宮１６７番地５号,,02,201,0300852,,,2025-08-19,清算の結了等,,,2015-10-05,1,,,,,アオモリコジンタクシー,0
947,4430001036013,登記記録の閉鎖等,0,2025-08-28,2025-08-06,株式会社エヴァンス,,株式会社,北海道,札幌市中央区,南九条西５丁目４２１番地,,01,101,0640809,,,2025-08-06,合併による解散等,7430001008637,令和７年８月１日札幌市中央区南九条西五丁目４２１番地株式会社セコマ（7430001008637）に合併し解散,2015-10-05,1,,,,,エヴァンス,0
948,4430003006484,登記記録の閉鎖等,0,2025-08-28,2025-08-04,ラ・プラース合同会社,,合同会社,北海道,札幌市西区,西野六条６丁目１１番２号,,01,107,0630036,,,2025-08-04,合併による解散等,7430003007208,令和７年８月１日札幌市西区西野六条六丁目１１番２号フローレス合同会社（7430003007208）に合併し解散,2015-10-05,1,,,,,ラプラース,0
956,5010001064641,登記記録の閉鎖等,0,2025-08-28,2025-08-04,株式会社豊和,,株式会社,東京都,中央区,日本橋小伝馬町７番１７号,,13,102,1030001,,,2025-08-04,清算の結了等,,,2015-10-05,1,,,,,ホウワ,0
969,5010401162615,登記記録の閉鎖等,0,2025-08-28,2025-07-30,株式会社Ｙｏｕ’ｓ,,株式会社,東京都,港区,赤坂２丁目２１番８号ＲＩＦＡ５ビル,,13,103,1070052,,,2025-07-30,清算の結了等,,,2021-09-09,1,,,,,ユーズ,0
977,5010902003565,登記記録の閉鎖等,0,2025-08-28,2025-08-26,有限会社オフィス考,,有限会社,東京都,世田谷区,下馬２丁目２２番２号,,13,112,1540002,,,2025-08-26,清算の結了等,,,2015-10-05,1,,,,,オフィスコウ,0
989,5011101050390,登記記録の閉鎖等,0,2025-08-28,2025-07-31,株式会社エス・ケービル,,株式会社,東京都,新宿区,西新宿６丁目２番１８号,,13,104,1600023,,,2025-07-31,清算の結了等,,,2015-10-05,1,,,,,エスケービル,0
1023,5021001046538,登記記録の閉鎖等,0,2025-08-28,2025-08-22,株式会社アキラホーム,,株式会社,神奈川県,相模原市緑区,西橋本２丁目２５番３号,,14,151,2520131,,,2025-08-22,清算の結了等,,,2015-10-05,1,,,,,アキラホーム,0
1027,5021002044251,登記記録の閉鎖等,0,2025-08-28,2025-08-07,有限会社松山製作所,,有限会社,神奈川県,座間市,小松原２丁目１１番３号,,14,216,2520002,,,2025-08-07,清算の結了等,,,2015-10-05,1,,,,,マツヤマセイサクショ,0
1035,5030002109261,登記記録の閉鎖等,0,2025-08-28,2025-08-22,有限会社鶴柾工務店,,有限会社,埼玉県,川口市,大字西新井宿１４１番地の８,,11,203,3330833,,,2025-08-22,清算の結了等,,,2015-10-05,1,,,,,ツルマサコウムテン,0
1040,5040002062757,登記記録の閉鎖等,0,2025-08-28,2025-08-04,有限会社ワタックス,,有限会社,千葉県,四街道市,大日１１１番地の１,,12,228,2840001,,,2025-08-04,清算の結了等,,,2015-10-05,1,,,,,ワタックス,0
1045,5050001035226,登記記録の閉鎖等,0,2025-08-28,2025-08-18,株式会社洸陽,,株式会社,茨城県,東茨城郡茨城町,大字小幡字桜峰２７３１番地４３,,08,302,3113157,,,2025-08-18,清算の結了等,,,2015-10-05,1,,,,,コウヨウ,0
1047,5060002023154,登記記録の閉鎖等,0,2025-08-28,2025-08-25,有限会社トキワ工務店,,有限会社,栃木県,那須郡那須町,大字寺子乙２５３番地,,09,407,3293215,,,2025-08-25,清算の結了等,,,2015-10-05,1,,,,,トキワコウムテン,0
1055,5080402003340,登記記録の閉鎖等,0,2025-08-28,2025-08-25,有限会社佐野設計,,有限会社,静岡県,浜松市中央区,芳川町５９７番地の１,,22,138,4300813,,,2025-08-25,清算の結了等,,,2015-10-05,1,,,,,サノセッケイ,0
1062,5120001119343,登記記録の閉鎖等,0,2025-08-28,2025-08-14,株式会社アサヒフード,,株式会社,大阪府,大阪市浪速区,日本橋東３丁目１０番１４号,,27,111,5560006,,,2025-08-14,合併による解散等,3120001037126,令和７年８月１日大阪市浪速区日本橋東三丁目１０番１４号株式会社アサヒ企画（3120001037126）に合併し解散,2015-10-05,1,,,,,アサヒフード,0
1068,5120003022215,登記記録の閉鎖等,0,2025-08-28,2025-08-12,合同会社Ｌａｐｉｓ,,合同会社,大阪府,大阪市西成区,花園南１丁目１３番６号メゾンオーク１０３号,,27,122,5570015,,,2025-08-12,清算の結了等,,,2022-08-04,1,,,,,ラピス,0
1069,5120003022272,登記記録の閉鎖等,0,2025-08-28,2025-08-12,合同会社Ａ．Ａ,,合同会社,大阪府,大阪市東淀川区,菅原１丁目１３番１４号米虫ハイツ４０５号,,27,114,5330022,,,2025-08-12,清算の結了等,,,2022-08-12,1,,,,,エーエー,0
1070,5120101058813,登記記録の閉鎖等,0,2025-08-28,2025-08-18,株式会社住まいＲｉｎｏ,,株式会社,大阪府,泉佐野市,鶴原１８３３番地の４－Ａ１０１,,27,213,5980071,,,2025-08-18,清算の結了等,,,2018-09-27,1,,,,,スマイリノ,0
1087,5120902017678,登記記録の閉鎖等,0,2025-08-28,2025-08-06,有限会社宇賀神,,有限会社,大阪府,豊中市,玉井町１丁目３番２６号,,27,203,5600026,,,2025-08-06,清算の結了等,,,2015-10-05,1,,,,,ウガジン,0
1093,5130001030152,登記記録の閉鎖等,0,2025-08-28,2025-08-12,株式会社情報開発,,株式会社,京都府,長岡京市,河陽が丘１丁目４番地の１,,26,209,6170852,,,2025-08-12,清算の結了等,,,2015-10-05,1,,,,,ジョウホウカイハツ,0
1095,5130001072681,登記記録の閉鎖等,0,2025-08-28,2025-08-08,株式会社いとしのホーム,,株式会社,大阪府,茨木市,中穂積１丁目７番４０－３０３号,,27,211,5670034,,,2025-08-08,清算の結了等,,,2022-09-29,1,,,,,イトシノホーム,0
1098,5130002024335,登記記録の閉鎖等,0,2025-08-28,2025-08-12,有限会社スプレンドーレ,,有限会社,京都府,京都市左京区,岩倉村松町１８番地池田方,,26,103,6060034,,,2025-08-12,清算の結了等,,,2015-10-05,1,,,,,スプレンドーレ,0
1110,5180001056127,登記記録の閉鎖等,0,2025-08-28,2025-08-01,株式会社ウイング,,株式会社,愛知県,名古屋市瑞穂区,洲雲町４丁目７１番地,,23,108,4670804,,,2025-08-01,合併による解散等,6180001114387,令和７年８月１日名古屋市瑞穂区洲雲町四丁目７１番地サンライズホールディングス株式会社（6180001114387）に合併し解散,2015-10-05,1,,,,,ウイング,0
1111,5180001066902,登記記録の閉鎖等,0,2025-08-28,2025-08-21,東和工業株式会社,,株式会社,愛知県,みよし市,三好町西田２９番地２,,23,236,4700224,,,2025-08-21,清算の結了等,,,2015-10-05,1,,,,,トウワコウギョウ,0
1113,5180001145210,登記記録の閉鎖等,0,2025-08-28,2025-07-29,株式会社ジェイキャスト,,株式会社,愛知県,名古屋市中区,栄３丁目４番２８号,,23,106,4600008,,,2025-07-29,合併による解散等,8180001050135,令和７年７月１７日名古屋市中区栄三丁目４番２８号株式会社ジェイグループホールディングス（8180001050135）に合併し解散,2021-03-18,1,,,,,ジェイキャスト,0
1123,5180301036308,登記記録の閉鎖等,0,2025-08-28,2025-08-22,株式会社ＴＥＣ安城,,株式会社,愛知県,安城市,三河安城南町１丁目１５番地１０,,23,212,4460058,,,2025-08-22,清算の結了等,,,2022-06-09,1,,,,,テックアンジョウ,0
1129,5200001000833,登記記録の閉鎖等,0,2025-08-28,2025-08-27,株式会社温故知新,,株式会社,岐阜県,岐阜市,正木１３５０番地,,21,201,5020857,,,2025-08-27,清算の結了等,,,2015-10-05,1,,,,,オンコチシン,0
1132,5210001017389,登記記録の閉鎖等,0,2025-08-28,2025-08-26,株式会社ＡＲＥ,,株式会社,福井県,福井市,西開発１丁目２５０８番地野阪第二ビル２０２,,18,201,9100843,,,2025-08-26,清算の結了等,,,2019-01-07,1,,,,,エーアルイー,0
1135,5240002004251,登記記録の閉鎖等,0,2025-08-28,2025-08-08,有限会社かわとも,,有限会社,広島県,広島市中区,中町７番１６－１２０７号,,34,101,7300037,,,2025-08-08,清算の結了等,,,2015-10-05,1,,,,,カワトモ,0
1136,5240002009911,登記記録の閉鎖等,0,2025-08-28,2025-08-26,有限会社たちかわ商事,,有限会社,広島県,広島市安佐南区,毘沙門台２丁目１６番２２－５号,,34,105,7310152,,,2025-08-26,清算の結了等,,,2015-10-05,1,,,,,タチカワショウジ,0
1137,5240002011875,登記記録の閉鎖等,0,2025-08-28,2025-08-27,有限会社なかむら,,有限会社,広島県,広島市東区,牛田本町３丁目５番９号,,34,102,7320066,,,2025-08-27,清算の結了等,,,2015-10-05,1,,,,,ナカムラ,0
1138,5240002020348,登記記録の閉鎖等,0,2025-08-28,2025-08-27,お助けまんサービス有限会社,,有限会社,広島県,安芸郡海田町,砂走１０番２３号,,34,304,7360001,,,2025-08-27,清算の結了等,,,2015-10-05,1,,,,,オタスケマンサービス,0
1142,5260003004199,登記記録の閉鎖等,0,2025-08-28,2025-08-14,合同会社ローカル・モビリティーズ,,合同会社,岡山県,英田郡西粟倉村,大字影石５８０番１ａｍｏｃａ白棟Ｃ号室,,33,643,7070503,,,2025-08-14,清算の結了等,,,2023-02-10,1,,,,,ローカルモビリティーズ,0
1143,5290001001245,登記記録の閉鎖等,0,2025-08-28,2025-08-01,新栄ヤヒロ建設株式会社,,株式会社,福岡県,福岡市中央区,大名２丁目１１番２５号,,40,133,8100041,,,2025-08-01,合併による解散等,6290001005229,令和７年８月１日福岡市中央区大名二丁目１１番２５号新栄総合管理株式会社（6290001005229）に合併し解散,2015-10-05,1,,,,,シンエイヤヒロケンセツ,0
1147,5290002039648,登記記録の閉鎖等,0,2025-08-28,2025-08-05,有限会社つくし,,有限会社,福岡県,筑紫野市,原田５丁目１番地の８,,40,217,8180024,,,2025-08-05,清算の結了等,,,2015-10-05,1,,,,,ツクシ,0
1166,5360005006679,登記記録の閉鎖等,0,2025-08-28,2025-08-15,一般社団法人こども笑顔支援会,,その他の設立登記法人,沖縄県,那覇市,小禄１丁目２７番１２号,,47,201,9010152,,,2025-08-15,清算の結了等,,,2022-06-27,1,,,,,コドモエガオシエンカイ,0
1181,6010001019388,登記記録の閉鎖等,0,2025-08-28,2025-08-04,株式会社シグマ開発計画研究所,,株式会社,東京都,千代田区,神田駿河台３丁目１番地９,,13,101,1010062,,,2025-08-04,清算の結了等,,,2015-10-05,1,,,,,シグマカイハツケイカクケンキュウジョ,0
1183,6010001049922,登記記録の閉鎖等,0,2025-08-28,2025-08-04,株式会社ＳＶアセット,,株式会社,東京都,千代田区,永田町２丁目９番８－７０１,,13,101,1000014,,,2025-08-04,清算の結了等,,,2015-10-05,1,,,,,エスブイアセット,0
1196,6010401135966,登記記録の閉鎖等,0,2025-08-28,2025-07-31,アドバンテッジアドバイザーズ株式会社,,株式会社,東京都,港区,虎ノ門４丁目１番２８号虎ノ門タワーズオフィス１７階,,13,103,1050001,,,2025-07-31,合併による解散等,8010401095110,令和７年７月３１日東京都港区虎ノ門四丁目１番２８号虎ノ門タワーズオフィス１７階株式会社アドバンテッジパートナーズ（8010401095110）に合併し解散,2018-01-11,1,,,,,アドバンテッジアドバイザーズ,0
1201,6010501039910,登記記録の閉鎖等,0,2025-08-28,2025-08-04,Ｎｏｔ　ｏｎｅ株式会社,,株式会社,東京都,千代田区,鍛冶町２丁目９－５東園ビルＢ１,,13,101,1010044,,,2025-08-04,清算の結了等,,,2016-08-10,1,,,,,ノットワン,0
1204,6010701010019,登記記録の閉鎖等,0,2025-08-28,2025-08-21,豊印刷株式会社,,株式会社,東京都,品川区,西大井６丁目１番１５号,,13,109,1400015,,,2025-08-21,清算の結了等,,,2015-10-05,1,,,,,ユタカインサツ,0
1223,6011102012100,登記記録の閉鎖等,0,2025-08-28,2025-07-30,有限会社松実,,有限会社,東京都,新宿区,新宿３丁目８番２号,,13,104,1600022,,,2025-07-30,清算の結了等,,,2015-10-05,1,,,,,マツミ,0
1230,6012403004323,登記記録の閉鎖等,0,2025-08-28,2025-08-26,鶴羽合同会社,,合同会社,東京都,稲城市,平尾４丁目６３番地の２０,,13,225,2060823,,,2025-08-26,清算の結了等,,,2020-04-21,1,,,,,ツルハネ,0
1231,6013201000613,登記記録の閉鎖等,0,2025-08-28,2025-07-28,市川抜型株式会社,,株式会社,東京都,目黒区,中目黒４丁目１番４号,,13,110,1530061,,,2025-07-28,清算の結了等,,,2015-10-05,1,,,,,イチカワヌキガタ,0
1240,6020002014387,登記記録の閉鎖等,0,2025-08-28,2025-08-13,有限会社サンメイト教育研究所,,有限会社,神奈川県,横浜市青葉区,美しが丘４丁目１９番地１,,14,117,2250002,,,2025-08-13,清算の結了等,,,2015-10-05,1,,,,,サンメイトキョウイクケンキュウジョ,0
1245,6020005002298,登記記録の閉鎖等,0,2025-08-28,2025-08-08,神奈川県宿泊業協同組合,,その他の設立登記法人,神奈川県,横浜市中区,寿町４丁目１５番地３,,14,104,2310026,,,2025-08-08,清算の結了等,,,2015-10-05,1,,,,,,0
1250,6021002039639,登記記録の閉鎖等,0,2025-08-28,2025-08-20,有限会社ツル建設,,有限会社,神奈川県,厚木市,寿町３丁目１５番２３号アトレ本厚木２階,,14,212,2430003,,,2025-08-20,清算の結了等,,,2015-10-05,1,,,,,ツルケンセツ,0
1261,6060002011868,登記記録の閉鎖等,0,2025-08-28,2025-08-25,有限会社松山運送,,有限会社,栃木県,宇都宮市,清原台１丁目１０番６号,,09,201,3213223,,,2025-08-25,清算の結了等,,,2015-10-05,1,,,,,マツヤマウンソウ,0
1264,6080002000976,登記記録の閉鎖等,0,2025-08-28,2025-08-26,有限会社エヌズ,,有限会社,静岡県,静岡市葵区,上伝馬３２番２６号,,22,101,4200943,,,2025-08-26,清算の結了等,,,2015-10-05,1,,,,,エヌズ,0
1273,6120001208062,登記記録の閉鎖等,0,2025-08-28,2025-08-12,株式会社とうふのかど,,株式会社,大阪府,大阪市西区,千代崎１丁目８番１４号,,27,106,5500023,,,2025-08-12,清算の結了等,,,2017-09-12,1,,,,,トウフノカド,0
1284,6120005021924,登記記録の閉鎖等,0,2025-08-28,2025-08-25,特定非営利活動法人アジアパートナーシップ支援機構,,その他の設立登記法人,大阪府,大阪市城東区,永田１丁目４番１９号,,27,118,5360022,,,2025-08-25,清算の結了等,,,2020-10-29,1,,,,,アジアパートナーシップシエンキコウ,0
1289,6120901022868,登記記録の閉鎖等,0,2025-08-28,2025-08-08,株式会社井村工務店,,株式会社,大阪府,豊中市,穂積１丁目１番１７号,,27,203,5610856,,,2025-08-08,清算の結了等,,,2015-10-05,1,,,,,イムラコウムテン,0
1292,6120901042222,登記記録の閉鎖等,0,2025-08-28,2025-08-08,株式会社Ｓｈｏｆｆｉｃｅ,,株式会社,大阪府,豊中市,熊野町４丁目２１番３８－６０３号,,27,203,5600014,,,2025-08-08,清算の結了等,,,2020-01-09,1,,,,,,0
1305,6122002010926,登記記録の閉鎖等,0,2025-08-28,2025-08-18,有限会社雅工業,,有限会社,大阪府,東大阪市,西鴻池町１丁目４番１８－２０２号,,27,227,5780976,,,2025-08-18,清算の結了等,,,2015-10-05,1,,,,,ミヤビコウギョウ,0
1306,6130001034722,登記記録の閉鎖等,0,2025-08-28,2025-08-12,株式会社三栄テクノス,,株式会社,京都府,京都市下京区,西七条北月読町７５番地,,26,106,6008886,,,2025-08-12,清算の結了等,,,2015-10-05,1,,,,,サンエイテクノス,0
1314,6180001008481,登記記録の閉鎖等,0,2025-08-28,2025-08-01,株式会社常磐精機,,株式会社,愛知県,名古屋市昭和区,福江１丁目１２番５号,,23,107,4660059,,,2025-08-01,合併による解散等,4180001010290,令和７年８月１日名古屋市瑞穂区洲雲町四丁目７１番地三和商事株式会社（4180001010290）に合併し解散,2015-10-05,1,,,,,トキワセイキ,0
1332,6180302017339,登記記録の閉鎖等,0,2025-08-28,2025-08-20,有限会社明誠館,,有限会社,愛知県,安城市,大東町２５番４５号,,23,212,4460065,,,2025-08-20,清算の結了等,,,2015-10-05,1,,,,,メイセイカン,0
1338,6230001018723,登記記録の閉鎖等,0,2025-08-28,2025-08-27,株式会社ＤＬ,,株式会社,富山県,魚津市,吉島２２６－１,,16,204,9370041,,,2025-08-27,清算の結了等,,,2021-03-23,1,,,,,デイエル,0
1346,6260001031450,登記記録の閉鎖等,0,2025-08-28,2025-08-15,株式会社ヒラオテクノサービス,,株式会社,岡山県,倉敷市,林１９９３番地６,,33,202,7100142,,,2025-08-15,清算の結了等,,,2017-11-20,1,,,,,ヒラオテクノサービス,0
1347,6260001034981,登記記録の閉鎖等,0,2025-08-28,2025-08-22,株式会社イージスプロテーボ,,株式会社,岡山県,倉敷市,玉島爪崎１４５番地クリスタルローズＢ棟２０５号,,33,202,7100252,,,2025-08-22,清算の結了等,,,2020-12-10,1,,,,,イージスプロテーボ,0
1348,6260001036177,登記記録の閉鎖等,0,2025-08-28,2025-08-15,株式会社ライズ工業,,株式会社,岡山県,岡山市南区,妹尾２６８５番地４,,33,104,7010205,,,2025-08-15,清算の結了等,,,2021-11-02,1,,,,,ライズコウギョウ,0
1356,6290001060645,登記記録の閉鎖等,0,2025-08-28,2025-07-16,株式会社えがおサポート,,株式会社,福岡県,大牟田市,山下町６２番地２,,40,202,8360053,,,2025-07-16,清算の結了等,,,2015-10-05,1,,,,,,0
1357,6290001067368,登記記録の閉鎖等,0,2025-08-28,2025-08-27,株式会社ＩＳＳＥＮ,,株式会社,佐賀県,三養基郡基山町,大字小倉１２１番地３－１０２号室,,41,341,8410201,,,2025-08-27,清算の結了等,,,2015-10-05,1,,,,,イッセン,0
1376,6320001014151,登記記録の閉鎖等,0,2025-08-28,2025-08-25,株式会社アンビシャスＪａｐａｎ,,株式会社,大分県,大分市,大字下郡６５０番地の７６,,44,201,8700951,,,2025-08-25,清算の結了等,,,2015-10-05,1,,,,,アンビシャスジャパン,0
1378,6320001018103,登記記録の閉鎖等,0,2025-08-28,2025-08-25,株式会社大分エシカル,,株式会社,大分県,大分市,大字寒田１０２６番地の１８,,44,201,8701123,,,2025-08-25,清算の結了等,,,2020-12-23,1,,,,,オオイタエシカル,0
1386,6370001022190,登記記録の閉鎖等,0,2025-08-28,2025-07-31,株式会社ＣＭＹハウジング,,株式会社,宮城県,仙台市青葉区,上杉５丁目６番７－１０３号,,04,101,9800011,,,2025-07-31,合併による解散等,2370001018713,令和７年７月３１日仙台市青葉区上杉五丁目６番７－１０３号株式会社エムズワイエステート（2370001018713）に合併し解散,2015-10-05,1,,,,,シーエムワイハウジング,0
1409,7010001153574,登記記録の閉鎖等,0,2025-08-28,2025-08-21,寿楽株式会社,,株式会社,埼玉県,所沢市,北所沢町２２２４－５ベルフイールドコートＡ１０１号,,11,208,3590046,,,2025-08-21,清算の結了等,,,2015-10-05,1,,,,,ジュラク,0
1410,7010001177359,登記記録の閉鎖等,0,2025-08-28,2025-08-04,ミクウガジャパン株式会社,,株式会社,東京都,千代田区,岩本町２丁目４－５,,13,101,1010032,,,2025-08-04,清算の結了等,,,2016-08-02,1,,,,,ミクウガジャパン,0
1415,7010401086944,登記記録の閉鎖等,0,2025-08-28,2025-08-12,株式会社ビルマネジメントサービス,,株式会社,岡山県,岡山市北区,内山下２丁目６番８号４階,,33,101,7000824,,,2025-08-12,清算の結了等,,,2015-10-05,1,,,,,ビルマネジメントサービス,0
1425,7010501048316,登記記録の閉鎖等,0,2025-08-28,2025-08-01,ふるはうす株式会社,,株式会社,東京都,千代田区,神田神保町２丁目２番３４号,,13,101,1010051,,,2025-08-01,清算の結了等,,,2022-01-12,1,,,,,フルハウス,0
1426,7010501049611,登記記録の閉鎖等,0,2025-08-28,2025-08-22,株式会社プロキスタ東京,,株式会社,東京都,台東区,上野５丁目２３－１４－Ｂ１Ｆ－Ｂ,,13,106,1100005,,,2025-08-22,合併による解散等,6040001088323,令和７年７月３１日千葉県船橋市市場三丁目１０番３号１階株式会社スーパーゴールド（6040001088323）に合併し解散,2022-11-11,1,,,,,プロキスタトウキョウ,0
1430,7010701034066,登記記録の閉鎖等,0,2025-08-28,2025-08-22,株式会社シュンズ,,株式会社,東京都,品川区,西五反田１丁目４番８－６１０号,,13,109,1410031,,,2025-08-22,清算の結了等,,,2017-05-02,1,,,,,,0
1434,7010903005831,登記記録の閉鎖等,0,2025-08-28,2025-07-01,合同会社ＮｅｗＰｌｅ,,合同会社,東京都,世田谷区,赤堤３丁目３７番１２号オーチャードハウス１０２,,13,112,1560044,,,2025-07-01,清算の結了等,,,2020-07-15,1,,,,,ニュープル,0
1445,7011003013304,登記記録の閉鎖等,0,2025-08-28,2025-07-31,ムーブアヘッド合同会社,,合同会社,東京都,新宿区,南元町９番地７ライオンズ外苑の杜２１０,,13,104,1600012,,,2025-07-31,清算の結了等,,,2021-09-03,1,,,,,ムーブアヘッド,0
1451,7011103011216,登記記録の閉鎖等,0,2025-08-28,2025-08-05,アペクシア合同会社,,合同会社,東京都,中央区,銀座１丁目１２番４号,,13,102,1040061,,,2025-08-05,清算の結了等,,,2021-11-26,1,,,,,アペクシア,0
1456,7011201026355,登記記録の閉鎖等,0,2025-08-28,2025-06-27,株式会社東京中野銀行,,株式会社,東京都,中野区,本町通三丁目１４番地,,13,114,1640000,,,2025-06-27,清算の結了等,,,2025-05-22,1,,,,,トウキョウナカノギンコウ,0
1463,7011501000778,登記記録の閉鎖等,0,2025-08-28,2025-08-12,王光カラー株式会社,,株式会社,東京都,練馬区,春日町６丁目９番１４号,,13,120,1790074,,,2025-08-12,清算の結了等,,,2015-10-05,1,,,,,オウコウカラー,0
1482,7013202000479,登記記録の閉鎖等,0,2025-08-28,2025-07-29,有限会社アパッシュ,,有限会社,東京都,目黒区,緑が丘２丁目４番８号,,13,110,1520034,,,2025-07-29,清算の結了等,,,2015-10-05,1,,,,,アパッシュ,0
1485,7013301053816,登記記録の閉鎖等,0,2025-08-28,2025-08-08,株式会社藤郎商会,,株式会社,東京都,豊島区,西巣鴨３丁目１０番１号オティアス６２３－１０３号,,13,116,1700001,,,2025-08-08,清算の結了等,,,2025-02-20,1,,,,,フジロウショウカイ,0
1492,7020002003356,登記記録の閉鎖等,0,2025-08-28,2025-07-29,有限会社プチドール,,有限会社,神奈川県,横浜市泉区,弥生台６７－１番地,,14,116,2450008,,,2025-07-29,清算の結了等,,,2015-10-05,1,,,,,プチドール,0
1493,7020002106778,登記記録の閉鎖等,0,2025-08-28,2025-08-08,有限会社ウェブ・アソシエイツ,,有限会社,神奈川県,川崎市麻生区,王禅寺東３丁目１５番１４号,,14,137,2150018,,,2025-08-08,清算の結了等,,,2015-10-05,1,,,,,ウェブアソシエイツ,0
1500,7021002044076,登記記録の閉鎖等,0,2025-08-28,2025-08-18,有限会社橋本工務店,,有限会社,神奈川県,座間市,栗原２７０１番地の１４,,14,216,2520013,,,2025-08-18,清算の結了等,,,2015-10-05,1,,,,,ハシモトコウムテン,0
1503,7030001081303,登記記録の閉鎖等,0,2025-08-28,2025-08-22,株式会社ジャスティス,,株式会社,埼玉県,川口市,坂下町２丁目１３番１３号,,11,203,3340003,,,2025-08-22,清算の結了等,,,2015-10-05,1,,,,,ジャスティス,0
1504,7030001095179,登記記録の閉鎖等,0,2025-08-28,2025-08-21,ウエスト・ホールディング株式会社,,株式会社,埼玉県,さいたま市見沼区,大字中川４１２番地１,,11,104,3370043,,,2025-08-21,清算の結了等,,,2015-10-05,1,,,,,ウエストホールディング,0
1516,7040002022833,登記記録の閉鎖等,0,2025-08-28,2025-08-01,有限会社正札堂,,有限会社,千葉県,船橋市,本中山２丁目１９番３号,,12,204,2730035,,,2025-08-01,清算の結了等,,,2015-10-05,1,,,,,ショウフダドウ,0
1526,7050005010446,登記記録の閉鎖等,0,2025-08-28,2025-08-19,協同組合ショッピングタウンゆうき,,その他の設立登記法人,茨城県,結城市,大字結城７４７３番地,,08,207,3070001,,,2025-08-19,清算の結了等,,,2015-10-05,1,,,,,,0
1527,7060001011307,登記記録の閉鎖等,0,2025-08-28,2025-08-20,イーデイーハウス株式会社,,株式会社,栃木県,那須塩原市,鍋掛１０８８番地１３,,09,213,3250013,,,2025-08-20,清算の結了等,,,2015-10-05,1,,,,,イーデイーハウス,0
1530,7070002032796,登記記録の閉鎖等,0,2025-08-28,2025-08-25,有限会社三村製作所,,有限会社,群馬県,太田市,寺井町７０８番地１,,10,205,3730052,,,2025-08-25,清算の結了等,,,2015-10-05,1,,,,,ミムラセイサクジョ,0
1535,7110005012295,登記記録の閉鎖等,0,2025-08-28,2025-08-15,御嶽教御嶽教会,,その他の設立登記法人,新潟県,長岡市,寺泊蔵場町８３７３番地,,15,202,9402502,,,2025-08-15,清算の結了等,,,2015-10-05,1,,,,,,0
1539,7120001206338,登記記録の閉鎖等,0,2025-08-28,2025-08-12,株式会社ＬＥＶＥＬ５ｃｏｍｃｅｐｔ,,株式会社,大阪府,大阪市浪速区,湊町２丁目１番７号,,27,111,5560017,,,2025-08-12,清算の結了等,,,2017-06-14,1,,,,,レベルファイブコンセプト,0
1550,7120101064074,登記記録の閉鎖等,0,2025-08-28,2025-08-18,上村工務店株式会社,,株式会社,大阪府,羽曳野市,南恵我之荘３丁目６番２号,,27,222,5830885,,,2025-08-18,清算の結了等,,,2021-08-03,1,,,,,ウエムラコウムテン,0
1559,7120901043839,登記記録の閉鎖等,0,2025-08-28,2025-08-06,株式会社ツナガリ,,株式会社,大阪府,吹田市,佐竹台３丁目１番１３－２号,,27,205,5650855,,,2025-08-06,清算の結了等,,,2021-02-05,1,,,,,ツナガリ,0
1580,7180001057362,登記記録の閉鎖等,0,2025-08-28,2025-08-04,株式会社錦梱包,,株式会社,愛知県,名古屋市港区,港栄３丁目１０番１０号,,23,111,4550015,,,2025-08-04,清算の結了等,,,2015-10-05,1,,,,,ニシキコンポウ,0
1583,7180001153252,登記記録の閉鎖等,0,2025-08-28,2025-08-04,株式会社Ａｉｍｅｒｒｙ,,株式会社,愛知県,名古屋市千種区,覚王山通８丁目４６ＭＥＲＩＤＩＡＮ７０１,,23,101,4640841,,,2025-08-04,清算の結了等,,,2022-10-05,1,,,,,アイメリー,0
1592,7180003012927,登記記録の閉鎖等,0,2025-08-28,2025-08-04,合資会社小出靴鞄店,00073932,合資会社,愛知県,大府市,中央町３丁目６９番地,,23,223,4740025,,,2025-08-04,清算の結了等,,,2015-10-05,1,,,,,コイデクツカバンテン,0
1593,7180003014849,登記記録の閉鎖等,0,2025-08-28,2025-08-21,合同会社アイピスコンサルタント,,合同会社,愛知県,名古屋市中区,錦１丁目２０番８号,,23,106,4600003,,,2025-08-21,清算の結了等,,,2015-10-05,1,,,,,アイピスコンサルタント,0
1599,7180302022214,登記記録の閉鎖等,0,2025-08-28,2025-08-21,有限会社三立,,有限会社,愛知県,豊田市,細谷町４丁目３番地２,,23,211,4710853,,,2025-08-21,清算の結了等,,,2015-10-05,1,,,,,サンリツ,0
1601,7190001021342,登記記録の閉鎖等,0,2025-08-28,2025-08-12,株式会社ウザワコーポレーション,,株式会社,京都府,綴喜郡宇治田原町,大字南小字堂後５７番地,,26,344,6100241,,,2025-08-12,清算の結了等,,,2015-10-05,1,,,,,ウザワコーポレーション,0
1603,7200001024319,登記記録の閉鎖等,0,2025-08-28,2025-08-26,ユニオンモーターソリューション株式会社,,株式会社,岐阜県,恵那市,東野字大薙２８９１番地４,,21,210,5097202,,,2025-08-26,清算の結了等,,,2015-10-05,1,,,,,ユニオンモーターソリューション,0
1610,7250001010025,登記記録の閉鎖等,0,2025-08-28,2025-08-22,富田タクシー株式会社,,株式会社,山口県,周南市,政所３丁目１３番９号,,35,215,7460012,,,2025-08-22,清算の結了等,,,2015-10-05,1,,,,,トンダタクシー,0
1611,7250002015766,登記記録の閉鎖等,0,2025-08-28,2025-08-22,有限会社末富商事,,有限会社,山口県,下松市,東柳１丁目５番３号,,35,207,7440017,,,2025-08-22,清算の結了等,,,2015-10-05,1,,,,,スエトミショウジ,0
1617,7290001064579,登記記録の閉鎖等,0,2025-08-28,2025-08-25,ラックスポータル株式会社,,株式会社,福岡県,京都郡みやこ町,犀川花熊１２２１番地２,,40,625,8240233,,,2025-08-25,清算の結了等,,,2015-10-05,1,,,,,ラックスポータル,0
1619,7290003007164,登記記録の閉鎖等,0,2025-08-28,2025-07-31,合同会社ＷＥＤＤＩＮＧ　ＣＯＮＣＩＥＲＧＥ　ＪＡＰＡＮ,,合同会社,東京都,港区,南麻布２丁目１４番２１号ＰＵＲＥＴＥ南麻布１０５,,13,103,1060047,,,2025-07-31,清算の結了等,,,2017-04-20,1,,,,,ウェディングコンシェルジュジャパン,0
1623,7290801025953,登記記録の閉鎖等,0,2025-08-28,2025-08-25,ＡＲＩＡＮＮＥ株式会社,,株式会社,福岡県,北九州市小倉北区,浅野３丁目８番１号ＡＩＭビル６階,,40,106,8020001,,,2025-08-25,清算の結了等,,,2019-10-08,1,,,,,アリアンヌ,0
1626,7330002013712,登記記録の閉鎖等,0,2025-08-28,2025-08-13,有限会社ヨシザワ総合企画,,有限会社,熊本県,合志市,幾久富１６４７番地１６１,,43,216,8611112,,,2025-08-13,清算の結了等,,,2015-10-05,1,,,,,ヨシザワソウゴウキカク,0
1629,7350003003124,登記記録の閉鎖等,0,2025-08-28,2025-08-19,合同会社森山プラニング,,合同会社,宮崎県,延岡市,別府町４１９６番地,,45,203,8820861,,,2025-08-19,清算の結了等,,,2018-06-13,1,,,,,モリヤマプラニング,0
1635,7380002021116,登記記録の閉鎖等,0,2025-08-28,2025-08-08,有限会社カトヤ,,有限会社,福島県,石川郡玉川村,大字川辺字中沖３０３番地の５,,07,502,9636313,,,2025-08-08,清算の結了等,,,2015-10-05,1,,,,,カトヤ,0
1637,7380003005704,登記記録の閉鎖等,0,2025-08-28,2025-08-06,合同会社本多工業,,合同会社,福島県,いわき市,四倉町上仁井田字穴狐原２２番地の８,,07,204,9790202,,,2025-08-06,清算の結了等,,,2024-03-08,1,,,,,ホンタコウギョウ,0
1666,8010401168114,登記記録の閉鎖等,0,2025-08-28,2025-07-28,株式会社ｗａｇｏｔｏ,,株式会社,東京都,港区,赤坂４丁目３番５号,,13,103,1070052,,,2025-07-28,清算の結了等,,,2022-06-21,1,,,,,ワゴト,0
1695,8011105010644,登記記録の閉鎖等,0,2025-08-28,2025-07-31,表参道ブリッジ一般社団法人,,その他の設立登記法人,東京都,新宿区,四谷２丁目９番地１５東京ユナイテッド綜合事務所内,,13,104,1600004,,,2025-07-31,清算の結了等,,,2023-04-28,1,,,,,オモテサンドウブリッジ,0
1712,8013302008685,登記記録の閉鎖等,0,2025-08-28,2025-08-08,有限会社ブテイツクヒロ,,有限会社,東京都,豊島区,要町３丁目２１番３号,,13,116,1710043,,,2025-08-08,清算の結了等,,,2015-10-05,1,,,,,ブテイツクヒロ,0
1720,8020002060132,登記記録の閉鎖等,0,2025-08-28,2025-08-13,有限会社なす花,,有限会社,神奈川県,横浜市磯子区,岡村６丁目５番７号,,14,107,2350021,,,2025-08-13,清算の結了等,,,2015-10-05,1,,,,,ナスカ,0
1725,8030001030622,登記記録の閉鎖等,0,2025-08-28,2025-08-22,株式会社グローブ,,株式会社,埼玉県,狭山市,広瀬１丁目２９番２５号,,11,215,3501319,,,2025-08-22,清算の結了等,,,2015-10-05,1,,,,,グローブ,0
1728,8040001029408,登記記録の閉鎖等,0,2025-08-28,2025-07-30,川金木材株式会社,,株式会社,東京都,港区,虎ノ門１丁目１番１０号,,13,103,1050001,,,2025-07-30,合併による解散等,2010401087484,令和７年７月３０日東京都港区虎ノ門一丁目１番１０号株式会社アドラスト（2010401087484）に合併し解散,2015-10-05,1,,,,,カワキンモクザイ,0
1740,8050001024531,登記記録の閉鎖等,0,2025-08-28,2025-08-15,株式会社新和技研コンサルタント,,株式会社,茨城県,日立市,東金沢町５丁目３番１５号,,08,202,3160014,,,2025-08-15,清算の結了等,,,2015-10-05,1,,,,,シンワギケンコンサルタント,0
1760,8120001274276,登記記録の閉鎖等,0,2025-08-28,2025-08-27,株式会社Ｂｌｏｏｍ,,株式会社,大阪府,寝屋川市,寿町２番１０－１号,,27,215,5720029,,,2025-08-27,清算の結了等,,,2025-04-08,1,,,,,ブルーム,0
1768,8120101024069,登記記録の閉鎖等,0,2025-08-28,2025-08-14,株式会社スワン,,株式会社,大阪府,堺市東区,北野田１０８４番地８０４号,,27,143,5998123,,,2025-08-14,清算の結了等,,,2015-10-05,1,,,,,スワン,0
1776,8120902018319,登記記録の閉鎖等,0,2025-08-28,2025-08-01,有限会社交声堂,,有限会社,大阪府,豊中市,少路２丁目１番１－７０３号,,27,203,5600004,,,2025-08-01,清算の結了等,,,2015-10-05,1,,,,,コウセイドウ,0
1778,8120902022188,登記記録の閉鎖等,0,2025-08-28,2025-08-06,有限会社ローモンド,,有限会社,大阪府,豊中市,豊南町南５丁目１０番１号,,27,203,5610815,,,2025-08-06,清算の結了等,,,2015-10-05,1,,,,,ローモンド,0
1779,8122001004951,登記記録の閉鎖等,0,2025-08-28,2025-08-21,株式会社ツヅキテクノ,,株式会社,大阪府,東大阪市,西石切町５丁目１番４２号,,27,227,5798013,,,2025-08-21,清算の結了等,,,2015-10-05,1,,,,,ツヅキテクノ,0
1781,8122002016450,登記記録の閉鎖等,0,2025-08-28,2025-08-19,有限会社小川設計,,有限会社,大阪府,八尾市,服部川３丁目１５８番地の９,,27,212,5810865,,,2025-08-19,清算の結了等,,,2015-10-05,1,,,,,オガワセッケイ,0
1792,8140001086777,登記記録の閉鎖等,0,2025-08-28,2025-08-25,株式会社寿限無,,株式会社,兵庫県,川辺郡猪名川町,白金１丁目１１５番地１１,,28,301,6660257,,,2025-08-25,清算の結了等,,,2015-10-05,1,,,,,ジュゲム,0
1819,8180002060661,登記記録の閉鎖等,0,2025-08-28,2025-07-29,有限会社エー・ラウンド,,有限会社,愛知県,名古屋市中村区,名駅４丁目１８番１８号森政ビル１Ｆ,,23,105,4500002,,,2025-07-29,合併による解散等,8180001050135,令和７年７月１７日名古屋市中区栄三丁目４番２８号株式会社ジェイグループホールディングス（8180001050135）に合併し解散,2015-10-05,1,,,,,エーラウンド,0
1826,8180301000500,登記記録の閉鎖等,0,2025-08-28,2025-08-21,株式会社エス・ピー・エス,,株式会社,愛知県,岡崎市,欠町字河原田２１番地１,,23,202,4440011,,,2025-08-21,清算の結了等,,,2015-10-05,1,,,,,エスピーエス,0
1827,8180301007339,登記記録の閉鎖等,0,2025-08-28,2025-08-21,株式会社美加和製作所,,株式会社,愛知県,豊橋市,花田町字築地１５番地の１,,23,201,4418019,,,2025-08-21,清算の結了等,,,2015-10-05,1,,,,,ミカワセイサクショ,0
1829,8180302019861,登記記録の閉鎖等,0,2025-08-28,2025-08-20,有限会社ウイングマン,,有限会社,愛知県,碧南市,植出町３丁目５８番地,,23,209,4470047,,,2025-08-20,清算の結了等,,,2015-10-05,1,,,,,ウイングマン,0
1831,8180305009158,登記記録の閉鎖等,0,2025-08-28,2025-08-14,一般社団法人ラブセービング協会,,その他の設立登記法人,愛知県,碧南市,霞浦町５丁目８５番地,,23,209,4470881,,,2025-08-14,清算の結了等,,,2021-01-15,1,,,,,ラブセービングキョウカイ,0
1834,8200001040901,登記記録の閉鎖等,0,2025-08-28,2025-08-25,株式会社ＰＨＯＥＮＩＣＳ,,株式会社,岐阜県,大垣市,今宿６丁目５２番地１６ドリーム・コア５１６号室,,21,202,5030807,,,2025-08-25,清算の結了等,,,2023-01-30,1,,,,,フェニックス,0
1836,8200002023913,登記記録の閉鎖等,0,2025-08-28,2025-08-26,有限会社西尾倉庫,,有限会社,岐阜県,中津川市,付知町３８０５番地,,21,206,5080351,,,2025-08-26,清算の結了等,,,2015-10-05,1,,,,,ニシオソウコ,0
1841,8220001009226,登記記録の閉鎖等,0,2025-08-28,2025-08-26,大光商事株式会社,,株式会社,石川県,白山市,安田町３６番地,,17,210,9240862,,,2025-08-26,清算の結了等,,,2015-10-05,1,,,,,ダイコウショウジ,0
1842,8240001010826,登記記録の閉鎖等,0,2025-08-28,2025-08-26,ホンダ中国販売株式会社,,株式会社,広島県,広島市西区,己斐本町２丁目１７番２５号升川ビル,,34,104,7330812,,,2025-08-26,清算の結了等,,,2015-10-05,1,,,,,ホンダチュウゴクハンバイ,0
1849,8260001033288,登記記録の閉鎖等,0,2025-08-28,2025-08-12,株式会社ＦＡＬＧＵ,,株式会社,岡山県,津山市,山北８０３番地ルノアールビル２Ｆ,,33,203,7080004,,,2025-08-12,清算の結了等,,,2019-07-01,1,,,,,ファーグ,0
1852,8290001029523,登記記録の閉鎖等,0,2025-08-28,2025-08-01,株式会社エフビューティック,,株式会社,福岡県,福岡市中央区,天神２丁目７番９号天神２７ビル７階,,40,133,8100001,,,2025-08-01,合併による解散等,8330002012523,令和７年８月１日福岡市中央区天神二丁目７番９号天神２７ビル７階株式会社クレンシアラボラトリーズ（8330002012523）に合併し解散,2015-10-05,1,,,,,エフビューティック,0
1860,8290001094286,登記記録の閉鎖等,0,2025-08-28,2025-08-01,株式会社ＭＦアセッツ,,株式会社,福岡県,福岡市中央区,六本松３丁目１番５３－１４０１号,,40,133,8100044,,,2025-08-01,合併による解散等,1290001062316,令和７年８月１日福岡市中央区六本松三丁目１－５３－１４０１株式会社ライトグリーン（1290001062316）に合併し解散,2021-08-24,1,,,,,エムエフアセッツ,0
1867,8350001017851,登記記録の閉鎖等,0,2025-08-28,2025-08-27,株式会社フォレスト不動産,,株式会社,大分県,大分市,寺崎町２丁目４番１４号ＮＥＯ２１‐３０１,,44,201,8700137,,,2025-08-27,清算の結了等,,,2022-07-07,1,,,,,フォレストフドウサン,0
1885,8430001083588,登記記録の閉鎖等,0,2025-08-28,2025-08-07,スターライティング株式会社,,株式会社,北海道,札幌市清田区,清田十条４丁目２０番６号,,01,110,0040840,,,2025-08-07,清算の結了等,,,2021-03-10,1,,,,,スターライティング,0
1902,9010401041856,登記記録の閉鎖等,0,2025-08-28,2025-07-30,株式会社ホワイトハウス,,株式会社,東京都,港区,白金４丁目６番１７－４０３号,,13,103,1080072,,,2025-07-30,清算の結了等,,,2015-10-05,1,,,,,ホワイトハウス,0
1907,9010403015362,登記記録の閉鎖等,0,2025-08-28,2025-07-31,イスト呼続アセットマネジメント合同会社,,合同会社,東京都,港区,東新橋２丁目１０番１０号,,13,103,1050021,,,2025-07-31,清算の結了等,,,2016-09-23,1,,,,,イストヨビツギアセットマネジメント,0
1910,9010601049360,登記記録の閉鎖等,0,2025-08-28,2025-08-21,株式会社協栄ホールディングス,,株式会社,東京都,江東区,千田２３番１４号,,13,108,1350013,,,2025-08-21,合併による解散等,9010601066835,令和７年８月１９日東京都江東区千田２３番１４号希績株式会社（9010601066835）に合併し解散,2016-03-14,1,,,,,キョウエイホールディングス,0
1920,9011101044439,登記記録の閉鎖等,0,2025-08-28,2025-07-31,株式会社オーパス,,株式会社,東京都,新宿区,西新宿７丁目５番５号Ｐｌａｚａ西新宿ＵＣＦ４階,,13,104,1600023,,,2025-07-31,清算の結了等,,,2015-10-05,1,,,,,オーパス,0
1932,9011703002174,登記記録の閉鎖等,0,2025-08-28,2025-08-22,優佳サービス合同会社,,合同会社,東京都,江戸川区,東小松川４丁目５４番８号,,13,123,1320033,,,2025-08-22,清算の結了等,,,2019-01-17,1,,,,,ユウカサービス,0
1946,9020003023120,登記記録の閉鎖等,0,2025-08-28,2025-08-08,合同会社ＮＵＭＢＥＲ　ＯＮＥ,,合同会社,神奈川県,横浜市中区,太田町６丁目７０番地,,14,104,2310011,,,2025-08-08,清算の結了等,,,2023-01-16,1,,,,,ナンバーワン,0
1949,9021001063819,登記記録の閉鎖等,0,2025-08-28,2025-08-22,株式会社ＡＲ,,株式会社,神奈川県,相模原市緑区,西橋本２丁目２５番３号,,14,151,2520131,,,2025-08-22,清算の結了等,,,2017-12-26,1,,,,,エーアール,0
1952,9021002026147,登記記録の閉鎖等,0,2025-08-28,2025-08-25,有限会社ニッカ,,有限会社,神奈川県,相模原市緑区,橋本３丁目３１番５号,,14,151,2520143,,,2025-08-25,清算の結了等,,,2015-10-05,1,,,,,,0
1965,9040001017840,登記記録の閉鎖等,0,2025-08-28,2025-08-01,盛大食品製造株式会社,,株式会社,千葉県,船橋市,本中山５丁目１１番１２号,,12,204,2730035,,,2025-08-01,清算の結了等,,,2015-10-05,1,,,,,セイダイショクヒンセイゾウ,0
1967,9040001066499,登記記録の閉鎖等,0,2025-08-28,2025-08-01,マルタ秀建建設株式会社,,株式会社,千葉県,柏市,亀甲台町１丁目６番２０号,,12,217,2770031,,,2025-08-01,清算の結了等,,,2015-10-05,1,,,,,マルタシュウケンケンセツ,0
1969,9040002100397,登記記録の閉鎖等,0,2025-08-28,2025-08-01,有限会社果實乃甲常,,有限会社,千葉県,南房総市,千倉町北朝夷２８２５番地,,12,234,2950011,,,2025-08-01,清算の結了等,,,2015-10-05,1,,,,,カジツノコウツネ,0
1970,9040003023952,登記記録の閉鎖等,0,2025-08-28,2025-08-04,ＡＮＨ　ＤＵＯＮＧ合同会社,,合同会社,千葉県,千葉市若葉区,高根町９２９番地４７,,12,104,2650061,,,2025-08-04,清算の結了等,,,2023-12-27,1,,,,,アィンズオン,0
1973,9060002017508,登記記録の閉鎖等,0,2025-08-28,2025-08-25,有限会社ナースリー柴山,,有限会社,栃木県,真岡市,島３３５番地１,,09,209,3214326,,,2025-08-25,清算の結了等,,,2015-10-05,1,,,,,ナースリーシバヤマ,0
1974,9060003003341,登記記録の閉鎖等,0,2025-08-28,2025-08-05,合同会社フェザースペース,,合同会社,東京都,中央区,銀座１丁目２２番１１号銀座大竹ビジデンス２階,,13,102,1040061,,,2025-08-05,清算の結了等,,,2020-04-16,1,,,,,フェザースペース,0
1977,9080102002861,登記記録の閉鎖等,0,2025-08-28,2025-08-26,有限会社ハイメック,,有限会社,静岡県,沼津市,大平２８７４番地の５５４,,22,203,4100821,,,2025-08-26,清算の結了等,,,2015-10-05,1,,,,,ハイメック,0
1979,9080102022117,登記記録の閉鎖等,0,2025-08-28,2025-08-26,日本ライフサクシード有限会社,,有限会社,東京都,世田谷区,松原６丁目４２番３号,,13,112,1560043,,,2025-08-26,清算の結了等,,,2015-10-05,1,,,,,ニホンライフサクシード,0
1981,9100001036405,登記記録の閉鎖等,0,2025-08-28,2025-08-27,ＭＪサポート株式会社,,株式会社,長野県,松本市,大字島内３４８７番地８,,20,202,3900851,,,2025-08-27,清算の結了等,,,2023-05-15,1,,,,,エムジェーサポート,0
1983,9100002038219,登記記録の閉鎖等,0,2025-08-28,2025-08-26,伸和工業有限会社,,有限会社,長野県,下伊那郡高森町,下市田２２６８番地１,,20,403,3993103,,,2025-08-26,清算の結了等,,,2015-10-05,1,,,,,シンワコウギョウ,0
1999,9120101053851,登記記録の閉鎖等,0,2025-08-28,2025-08-20,株式会社Ｄｏ　Ｔｅｍｐｏ．,,株式会社,大阪府,岸和田市,五軒屋町２番３号,,27,202,5960055,,,2025-08-20,清算の結了等,,,2015-11-10,1,,,,,,0
2002,9120901032716,登記記録の閉鎖等,0,2025-08-28,2025-08-07,ＳＭメディア株式会社,,株式会社,大阪府,豊中市,岡町南２丁目７番１４号,,27,203,5610883,,,2025-08-07,清算の結了等,,,2015-10-05,1,,,,,エスエムメディア,0
2027,9180001104435,登記記録の閉鎖等,0,2025-08-28,2025-08-01,株式会社ワタナベ食品,,株式会社,愛知県,名古屋市中川区,草平町２丁目５７番地の２,,23,110,4540868,,,2025-08-01,合併による解散等,4180002046037,令和７年８月１日名古屋市中川区草平町二丁目５７番地の２ワタナベフード株式会社（4180002046037）に合併し解散,2015-10-05,1,,,,,ワタナベショクヒン,0
2031,9180001159116,登記記録の閉鎖等,0,2025-08-28,2025-08-04,株式会社ＳＴＫ,,株式会社,愛知県,知多郡武豊町,字楠４丁目１７番地,,23,447,4702358,,,2025-08-04,清算の結了等,,,2023-12-01,1,,,,,エスティーケー,0
2039,9180003000228,登記記録の閉鎖等,0,2025-08-28,2025-07-29,大塚産業合同会社,,合同会社,東京都,多摩市,聖ヶ丘２丁目８番地５,,13,224,2060022,,,2025-07-29,合併による解散等,5180003001535,令和７年７月２８日東京都多摩市聖ケ丘二丁目８番地５合同会社メゾンドオーツカ（5180003001535）に合併し解散,2015-10-05,1,,,,,オオツカサンギョウ,0
2040,9180003009500,登記記録の閉鎖等,0,2025-08-28,2025-08-04,水島食品合資会社,,合資会社,愛知県,日進市,折戸町前田６９番地,,23,230,4700115,,,2025-08-04,清算の結了等,,,2015-10-05,1,,,,,ミズシマショクヒン,0
2059,9210003000505,登記記録の閉鎖等,0,2025-08-28,2025-08-25,合資会社三谷屋製パン所,,合資会社,福井県,勝山市,本町１丁目１番１８号,,18,206,9110806,,,2025-08-25,清算の結了等,,,2015-10-05,1,,,,,ミタニヤセイパンショ,0
2065,9250002015137,登記記録の閉鎖等,0,2025-08-28,2025-08-26,有限会社西村商会,,有限会社,山口県,周南市,相生町２丁目２１番地,,35,215,7450055,,,2025-08-26,清算の結了等,,,2015-10-05,1,,,,,ニシムラショウカイ,0
2073,9310001007764,登記記録の閉鎖等,0,2025-08-28,2025-08-25,株式会社川内総建,,株式会社,長崎県,佐世保市,柚木町１９１７番地３９,,42,202,8570112,,,2025-08-25,清算の結了等,,,2015-10-05,1,,,,,カワチソウケン,0
2078,9330002016135,登記記録の閉鎖等,0,2025-08-28,2025-08-14,有限会社ケイヅカンパニー,,有限会社,熊本県,菊池郡大津町,大字引水４４５番地２,,43,403,8691234,,,2025-08-14,清算の結了等,,,2015-10-05,1,,,,,,0
2084,9370005001361,登記記録の閉鎖等,0,2025-08-28,2025-08-06,学校法人いずみ学園,,その他の設立登記法人,宮城県,仙台市泉区,将監２丁目１０番１号,,04,105,9813132,,,2025-08-06,清算の結了等,,,2015-10-05,1,,,,,イズミガクエン,0
2085,9370005010759,登記記録の閉鎖等,0,2025-08-28,2025-08-06,一般社団法人お結び,,その他の設立登記法人,宮城県,仙台市青葉区,郷六字葛岡下４９番地の１２広瀬の杜１番館１０１,,04,101,9893121,,,2025-08-06,清算の結了等,,,2024-04-01,1,,,,,オムスビ,0
2094,9480002000421,登記記録の閉鎖等,0,2025-08-28,2025-08-26,有限会社アルミナ,,有限会社,徳島県,徳島市,川内町平石流通団地８番地,,36,201,7710138,,,2025-08-26,清算の結了等,,,2015-10-05,1,,,,,アルミナ,0
2095,9500001007910,登記記録の閉鎖等,0,2025-08-28,2025-08-26,菊間瓦販売株式会社,,株式会社,愛媛県,西予市,宇和町田苗真土２０５６番地,,38,214,7970032,,,2025-08-26,清算の結了等,,,2015-10-05,1,,,,,キクマカワラハンバイ,0
