sequenceNumber,corporateNumber,process,correct,updateDate,changeDate,name,nameImageId,kind,prefectureName,cityName,streetNumber,addressImageId,prefectureCode,cityCode,postCode,addressOutside,addressOutsideImageId,closeDate,closeCause,successorCorporateNumber,changeCause,assignmentDate,latest,enName,enPrefectureName,enCityName,enAddressOutside,furigana,hihyoji
11,1010001221353,新規,0,2021-09-29,2021-09-29,株式会社ＴＯＫＹＯ　ＰＡＮＤＡ,,株式会社,東京都,千代田区,岩本町２丁目６－９佐藤産業ビル９階,,13,101,1010032,,,,,,,2021-09-29,1,,,,,トウキョウパンダ,0
12,1010001221386,新規,0,2021-09-29,2021-09-29,株式会社Ａ－ｕｒｏｒａ,,株式会社,東京都,中央区,月島４丁目３番１６号,,13,102,1040052,,,,,,,2021-09-29,1,,,,,オーロラ,0
13,1010001221452,新規,0,2021-09-29,2021-09-29,アステラミール株式会社,,株式会社,東京都,千代田区,外神田３丁目６番４号第一勧業信用組合秋葉原ビル５Ｆ,,13,101,1010021,,,,,,,2021-09-29,1,,,,,アステラミール,0
15,1010003035933,新規,0,2021-09-29,2021-09-29,エツセンス合同会社,,合同会社,東京都,文京区,大塚６丁目１０番１１号－６０２,00124368,13,105,1120012,,,,,,,2021-09-29,1,,,,,エツセンス,0
23,1010403026185,新規,0,2021-09-29,2021-09-29,合同会社アンチエイジング研究所,,合同会社,東京都,港区,南青山２丁目２番１５号ウイン青山１２１４号,,13,103,1070062,,,,,,,2021-09-29,1,,,,,アンチエイジングケンキュウジョ,0
24,1010503006392,新規,0,2021-09-29,2021-09-29,合同会社ながしろアセッツ,,合同会社,東京都,台東区,浅草橋１丁目２５－７シティコープ浅草橋２０２,,13,106,1110053,,,,,,,2021-09-29,1,,,,,ナガシロアセッツ,0
28,1010605004006,新規,0,2021-09-29,2021-09-29,特定非営利活動法人どんぐり,,その他の設立登記法人,東京都,江東区,大島３丁目２６番７号,,13,108,1360072,,,,,,,2021-09-29,1,,,,,ドングリ,0
30,1010701041571,新規,0,2021-09-29,2021-09-29,株式会社上平会計社,,株式会社,東京都,品川区,西五反田８丁目７番１１号,,13,109,1410031,,,,,,,2021-09-29,1,,,,,ウエヒラカイケイシャ,0
41,1011001142886,新規,0,2021-09-29,2021-09-29,サイファー株式会社,,株式会社,東京都,渋谷区,恵比寿２丁目１３番１６号,,13,113,1500013,,,,,,,2021-09-29,1,,,,,サイファー,0
42,1011001143001,新規,0,2021-09-29,2021-09-29,株式会社粋道,,株式会社,東京都,渋谷区,恵比寿１丁目１５番９号日宝恵比寿ビル４０３号室,,13,113,1500013,,,,,,,2021-09-29,1,,,,,イキミチ,0
43,1011001143018,新規,0,2021-09-29,2021-09-29,株式会社ネクスト,,株式会社,東京都,渋谷区,渋谷２丁目７番２－６０１号,,13,113,1500002,,,,,,,2021-09-29,1,,,,,ネクスト,0
44,1011001143100,新規,0,2021-09-29,2021-09-29,株式会社チョークトーク,,株式会社,東京都,目黒区,鷹番３丁目１２番１３－２０６号,,13,110,1520004,,,,,,,2021-09-29,1,,,,,チョークトーク,0
45,1011003013400,新規,0,2021-09-29,2021-09-29,Ｔｗｏ　Ｓｔｅｐ合同会社,,合同会社,東京都,渋谷区,神宮前６丁目２３番４号桑野ビル２階,,13,113,1500001,,,,,,,2021-09-29,1,,,,,ツーステップ,0
46,1011003013409,新規,0,2021-09-29,2021-09-29,合同会社Ｂｅｙｏｎｄビジョン,,合同会社,東京都,目黒区,碑文谷３丁目９番８号,,13,110,1520003,,,,,,,2021-09-29,1,,,,,ビヨンドビジョン,0
54,1011101096413,新規,0,2021-09-29,2021-09-29,株式会社ＯＮ－ＩＳＭ,,株式会社,東京都,新宿区,大久保１丁目２－１天翔東新宿ビル６０５,,13,104,1690072,,,,,,,2021-09-29,1,,,,,オンイズム,0
56,1011103011031,新規,0,2021-09-29,2021-09-29,合同会社東京電洋,,合同会社,東京都,新宿区,下落合２丁目６－１３泉マンション３０１,,13,104,1610033,,,,,,,2021-09-29,1,,,,,トウキョウデンヨウ,0
72,1011801039729,新規,0,2021-09-29,2021-09-29,株式会社ＭＧＫ,,株式会社,東京都,葛飾区,金町２丁目１５番６号,,13,122,1250042,,,,,,,2021-09-29,1,,,,,エムジーケー,0
74,1011803004796,新規,0,2021-09-29,2021-09-29,Ｋ’ｓ　Ｖｉｌｌａｇｅ合同会社,,合同会社,東京都,足立区,西新井栄町１丁目１５－１４,,13,121,1230843,,,,,,,2021-09-29,1,,,,,ケーズヴィレッジ,0
85,1013301048061,新規,0,2021-09-29,2021-09-29,大森アウトドア株式会社,,株式会社,東京都,豊島区,南池袋４丁目８番４号ｄｅ－Ｚａｙ－４０２号室,,13,116,1710022,,,,,,,2021-09-29,1,,,,,オオモリアウトドア,0
100,1020003020546,新規,0,2021-09-29,2021-09-29,合同会社ＬａＰｏｍｍｅ,,合同会社,神奈川県,横浜市青葉区,あざみ野１丁目６番地３陽輪台あざみ野１０１号室,,14,117,2250011,,,,,,,2021-09-29,1,,,,,ラポム,0
101,1020003020554,新規,0,2021-09-29,2021-09-29,合同会社エヌプラン,,合同会社,神奈川県,横浜市鶴見区,鶴見１丁目６番４３－２１２号,,14,101,2300063,,,,,,,2021-09-29,1,,,,,エヌプラン,0
111,1021001074030,新規,0,2021-09-29,2021-09-29,株式会社ＫＳ　ＢＩＺ,,株式会社,神奈川県,相模原市緑区,西橋本５丁目４番２１号,,14,151,2520131,,,,,,,2021-09-29,1,,,,,ケーエスビズ,0
118,1021003010917,新規,0,2021-09-29,2021-09-29,ソリューションアドバイザリー合同会社,,合同会社,神奈川県,藤沢市,長後７０７－１,,14,205,2520801,,,,,,,2021-09-29,1,,,,,ソリューションアドバイザリー,0
124,1030003018028,新規,0,2021-09-29,2021-09-29,合同会社ＥＬＤＥＭＩＣ,,合同会社,埼玉県,さいたま市北区,吉野町２丁目２２３－２３－１０１,,11,102,3310811,,,,,,,2021-09-29,1,,,,,エルデミック,0
133,1040001120338,新規,0,2021-09-29,2021-09-29,株式会社ラーショ,,株式会社,千葉県,柏市,南増尾１丁目２５番３８号,,12,217,2770054,,,,,,,2021-09-29,1,,,,,ラーショ,0
134,1040001120362,新規,0,2021-09-29,2021-09-29,株式会社レイブリック,,株式会社,千葉県,四街道市,池花２丁目１番地３,,12,228,2840014,,,,,,,2021-09-29,1,,,,,レイブリック,0
137,1040003018613,新規,0,2021-09-29,2021-09-29,Ａｐｉｒｅｌ合同会社,,合同会社,千葉県,白井市,七次台３丁目４８番２５号,,12,232,2701436,,,,,,,2021-09-29,1,,,,,アピレル,0
141,1050003006096,新規,0,2021-09-29,2021-09-29,ＡＱ　ＴＲＡＤＩＮＧ合同会社,,合同会社,茨城県,筑西市,赤浜６６番地６,,08,227,3004523,,,,,,,2021-09-29,1,,,,,エーキュートレーディング,0
144,1060001034123,新規,0,2021-09-29,2021-09-29,株式会社ｔｏ７,,株式会社,栃木県,栃木市,吹上町１６３０番地７,,09,203,3280125,,,,,,,2021-09-29,1,,,,,トゥーセブン,0
173,1120001240656,新規,0,2021-09-29,2021-09-29,一森株式会社,,株式会社,大阪府,大阪市北区,芝田１丁目１番４号阪急ターミナルビル１６階,,27,127,5300012,,,,,,,2021-09-29,1,,,,,イチモリ,0
174,1120001240672,新規,0,2021-09-29,2021-09-29,東昇株式会社,,株式会社,大阪府,大阪市北区,天満２丁目９番１７号天満双葉ビル５０６号室,,27,127,5300043,,,,,,,2021-09-29,1,,,,,トウショウ,0
175,1120001240714,新規,0,2021-09-29,2021-09-29,株式会社ポラリス,,株式会社,大阪府,大阪市北区,東天満１丁目１０番１５号,,27,127,5300044,,,,,,,2021-09-29,1,,,,,ポラリス,0
176,1120001240722,新規,0,2021-09-29,2021-09-29,株式会社ＷＥＳＴ　ＰＲＩＭＥ,,株式会社,大阪府,大阪市阿倍野区,阪南町３丁目３４番２５号,,27,119,5450021,,,,,,,2021-09-29,1,,,,,ウエストプライム,0
177,1120001240730,新規,0,2021-09-29,2021-09-29,ＴＹＰＩＣＡ株式会社,,株式会社,大阪府,大阪市中央区,南船場４丁目１２番８号関西心斎橋ビル７階,,27,128,5420081,,,,,,,2021-09-29,1,,,,,ティピカ,0
186,1120103004364,新規,0,2021-09-29,2021-09-29,名阪鉄筋合同会社,,合同会社,大阪府,堺市南区,竹城台３丁１－１６－２０３,,27,145,5900105,,,,,,,2021-09-29,1,,,,,メイハンテッキン,0
188,1122001035202,新規,0,2021-09-29,2021-09-29,株式会社ｐｒｏｍ,,株式会社,大阪府,八尾市,久宝寺６丁目６－１８,,27,212,5810072,,,,,,,2021-09-29,1,,,,,プロム,0
190,1122005003584,新規,0,2021-09-29,2021-09-29,一般社団法人こもれび,,その他の設立登記法人,大阪府,東大阪市,御厨東１丁目６番２１号,,27,227,5770033,,,,,,,2021-09-29,1,,,,,コモレビ,0
193,1130005016275,新規,0,2021-09-29,2021-09-29,弁護士法人京都総合法律事務所,,その他の設立登記法人,京都府,京都市中京区,河原町二条南西角一之船入町３６６,,26,104,6040000,,,,,,,2021-09-29,1,,,,,キョウトソウゴウホウリツジムショ,0
196,1140001123157,新規,0,2021-09-29,2021-09-29,株式会社Ｈａｐｐｙ　Ｓｍｉｌｅ,,株式会社,兵庫県,加古川市,平岡町新在家２５１３番地の３,,28,210,6750101,,,,,,,2021-09-29,1,,,,,ハッピースマイル,0
197,1140001123181,新規,0,2021-09-29,2021-09-29,株式会社陸未工業,,株式会社,兵庫県,伊丹市,御願塚２丁目３番３６号,,28,207,6640855,,,,,,,2021-09-29,1,,,,,リクミコウギョウ,0
225,1180003023005,新規,0,2021-09-29,2021-09-29,合同会社エコ,,合同会社,愛知県,知多郡美浜町,大字河和字北田面１５５番地１,,23,446,4702406,,,,,,,2021-09-29,1,,,,,エコ,0
226,1180003023013,新規,0,2021-09-29,2021-09-29,ＨＡＰＰＹモンゴル合同会社,,合同会社,愛知県,名古屋市東区,芳野１丁目８番９号,,23,102,4610027,,,,,,,2021-09-29,1,,,,,ハッピーモンゴル,0
238,1200003005322,新規,0,2021-09-29,2021-09-29,合同会社ｄｅＮｉ,,合同会社,岐阜県,関市,下有知４６５番地５,,21,205,5013217,,,,,,,2021-09-29,1,,,,,デニ,0
240,1220001024438,新規,0,2021-09-29,2021-09-29,たち測量設計株式会社,,株式会社,石川県,金沢市,割出町３５０番地１,,17,201,9200062,,,,,,,2021-09-29,1,,,,,タチソクリョウセッケイ,0
243,1240001058657,新規,0,2021-09-29,2021-09-29,グランドランドＡＺ株式会社,,株式会社,広島県,広島市佐伯区,美鈴が丘西４丁目３番１号,,34,108,7315114,,,,,,,2021-09-29,1,,,,,グランドランドエイジイ,0
244,1240001058665,新規,0,2021-09-29,2021-09-29,株式会社Ｏｆｆｉｃｅ　ｔｈｅ　Ｆｉｔ,,株式会社,広島県,呉市,焼山中央２丁目６番５１号脇屋ビル１Ｆ,,34,202,7370935,,,,,,,2021-09-29,1,,,,,オフィスザフィット,0
256,1290001094739,新規,0,2021-09-29,2021-09-29,森源産業株式会社,,株式会社,福岡県,筑紫野市,大字筑紫２８番地５,,40,217,8180025,,,,,,,2021-09-29,1,,,,,モリゲンサンギョウ,0
257,1290001094771,新規,0,2021-09-29,2021-09-29,株式会社ＣＥサービス,,株式会社,福岡県,春日市,春日原東町３丁目４６番地３,,40,218,8160801,,,,,,,2021-09-29,1,,,,,シーイーサービス,0
258,1290001094805,新規,0,2021-09-29,2021-09-29,株式会社Ｌｉｔｔｌｅ　Ｃｉｔｒｏｎ,,株式会社,福岡県,糸島市,前原中央３丁目１９番２０号,,40,230,8191116,,,,,,,2021-09-29,1,,,,,リトルシトロン,0
267,1320001018628,新規,0,2021-09-29,2021-09-29,ビフェイス株式会社,,株式会社,大分県,大分市,大字中戸次４１９７番地の２,,44,201,8797761,,,,,,,2021-09-29,1,,,,,ビフェイス,0
273,1330001029013,新規,0,2021-09-29,2021-09-29,株式会社ワイエフケイ,,株式会社,熊本県,熊本市東区,小峯１丁目８番８号,,43,102,8620933,,,,,,,2021-09-29,1,,,,,ワイエフケイ,0
275,1350001017321,新規,0,2021-09-29,2021-09-29,株式会社Ｍｐｈｏｔｏ,,株式会社,宮崎県,宮崎市,霧島４丁目１２７番地１　２Ｆ,,45,201,8800032,,,,,,,2021-09-29,1,,,,,エムフォト,0
281,1360005006518,新規,0,2021-09-29,2021-09-29,瀬底ビーチリゾート管理組合法人,,その他の設立登記法人,沖縄県,国頭郡本部町,字瀬底新地原１０８１番地４,,47,308,9050227,,,,,,,2021-09-29,1,,,,,セソコビーチリゾート,0
282,1370005010353,新規,0,2021-09-29,2021-09-29,一般社団法人タンコーカナリ,,その他の設立登記法人,宮城県,宮城郡利府町,中央３丁目１６番１４号コージハウスソルトバレー１０４,,04,406,9810104,,,,,,,2021-09-29,1,,,,,タンコーカナリ,0
295,1410001012968,新規,0,2021-09-29,2021-09-29,株式会社ＣＫＢ,,株式会社,秋田県,横手市,赤坂字館ノ下１０５番地５,,05,203,0130064,,,,,,,2021-09-29,1,,,,,シーケービー,0
303,1460101007062,新規,0,2021-09-29,2021-09-29,ＳＨＡＩＲ　ＡＬＩ　ＴＲＡＤＩＮＧ株式会社,,株式会社,北海道,中川郡本別町,栄町７７番地１２,,01,646,0893322,,,,,,,2021-09-29,1,,,,,シャイルアリトレーディング,0
307,1500001023700,新規,0,2021-09-29,2021-09-29,株式会社フレスコ,,株式会社,愛媛県,伊予郡砥部町,八倉６０番地５,,38,402,7912111,,,,,,,2021-09-29,1,,,,,フレスコ,0
308,1700150104925,新規,0,2021-09-29,2021-09-29,ｋｒｕｓｔ　Ｕｎｉｖｅｒｓｅ　Ｐｔｅ．Ｌｔｄ．,,外国会社等,東京都,港区,六本木７丁目７番７号,,13,103,1060032,シンガポール共和国０６８８９５、ロビンソン・ロード７１、＃１４－０１,,,,,,2021-09-29,1,,,,,クラストユニバースプライベートリミテツド,0
315,2010001221427,新規,0,2021-09-29,2021-09-29,株式会社ＦｏｒｔｅＰｌａｎｔ,,株式会社,東京都,中央区,勝どき６丁目３番２－４１０５号,,13,102,1040054,,,,,,,2021-09-29,1,,,,,フォルテプラント,0
325,2010401162832,新規,0,2021-09-29,2021-09-29,株式会社タカミツ,,株式会社,東京都,港区,西麻布２丁目２２番１４号コモド西麻布３０２,,13,103,1060031,,,,,,,2021-09-29,1,,,,,タカミツ,0
326,2010401162907,新規,0,2021-09-29,2021-09-29,株式会社ＫＲＭ,,株式会社,東京都,港区,赤坂４丁目２番３号ディライトビル３Ｆ,,13,103,1070052,,,,,,,2021-09-29,1,,,,,ケーアールエム,0
327,2010403026201,新規,0,2021-09-29,2021-09-29,強羅観光リゾート合同会社,,合同会社,東京都,港区,芝浦２丁目７－１１－２８０１,,13,103,1080023,,,,,,,2021-09-29,1,,,,,ゴウラカンコウリゾート,0
328,2010403026218,新規,0,2021-09-29,2021-09-29,ノーザンクリエイション合同会社,,合同会社,東京都,港区,南青山２丁目２番１５号ウィン青山９４２,,13,103,1070062,,,,,,,2021-09-29,1,,,,,ノーザンクリエイション,0
332,2010601059985,新規,0,2021-09-29,2021-09-29,株式会社モンスーンテック,,株式会社,東京都,江東区,東陽２丁目５番１８号ジャパンハイツ東陽３０２,,13,108,1350016,,,,,,,2021-09-29,1,,,,,モンスーンテック,0
334,2010801032354,新規,0,2021-09-29,2021-09-29,株式会社レザレク,,株式会社,東京都,大田区,大森本町１丁目８番１０－２００３号,,13,111,1430011,,,,,,,2021-09-29,1,,,,,レザレク,0
337,2010805002881,新規,0,2021-09-29,2021-09-29,一般社団法人ＳＯＤＡ,,その他の設立登記法人,東京都,大田区,大森西６丁目１７番１７号,,13,111,1430015,,,,,,,2021-09-29,1,,,,,ソウダ,0
339,2011001143025,新規,0,2021-09-29,2021-09-29,株式会社アデルビジュー,,株式会社,東京都,目黒区,大橋２丁目２２番４７号,,13,110,1530044,,,,,,,2021-09-29,1,,,,,アデルビジュー,0
341,2011003013416,新規,0,2021-09-29,2021-09-29,合同会社渋谷パートナーズ,,合同会社,東京都,渋谷区,神南１丁目５番４号ロイヤルパレス原宿５０２,,13,113,1500041,,,,,,,2021-09-29,1,,,,,シブヤパートナーズ,0
342,2011003013473,新規,0,2021-09-29,2021-09-29,合同会社グラン,,合同会社,東京都,目黒区,碑文谷１丁目４番１７号,,13,110,1520003,,,,,,,2021-09-29,1,,,,,グラン,0
347,2011101096395,新規,0,2021-09-29,2021-09-29,株式会社ナンバーレス,,株式会社,東京都,新宿区,西新宿２丁目１番１号新宿三井ビル１６Ｆ,,13,104,1600023,,,,,,,2021-09-29,1,,,,,ナンバーレス,0
348,2011101096404,新規,0,2021-09-29,2021-09-29,株式会社メックステージ,,株式会社,東京都,新宿区,西落合１丁目２８－１３,,13,104,1610031,,,,,,,2021-09-29,1,,,,,メックステージ,0
361,2011603003394,新規,0,2021-09-29,2021-09-29,合同会社むーんさん,,合同会社,東京都,練馬区,石神井台４丁目１番上石神井ハイム４号棟８０６号室,,13,120,1770045,,,,,,,2021-09-29,1,,,,,ムーンサン,0
366,2011703002949,新規,0,2021-09-29,2021-09-29,合同会社ママンキッチン,,合同会社,東京都,江戸川区,北小岩２丁目１３－９,,13,123,1330051,,,,,,,2021-09-29,1,,,,,ママンキッチン,0
369,2011803004795,新規,0,2021-09-29,2021-09-29,高木將雄合同会社,00124371,合同会社,東京都,足立区,新田２丁目９－３２セザールリバーサイド王子神谷２０５号室,,13,121,1230865,,,,,,,2021-09-29,1,,,,,タカギマサオ,0
370,2012401038335,新規,0,2021-09-29,2021-09-29,株式会社清水メディカルコンサルタント,,株式会社,東京都,調布市,布田１丁目３２番地５－３０６号,,13,208,1820024,,,,,,,2021-09-29,1,,,,,シミズメディカルコンサルタント,0
372,2012701016684,新規,0,2021-09-29,2021-09-29,株式会社ＳＹＲｉｎｇ,,株式会社,東京都,東村山市,久米川町４丁目３８番地６,,13,213,1890003,,,,,,,2021-09-29,1,,,,,シリング,0
380,2013301048060,新規,0,2021-09-29,2021-09-29,白神株式会社,,株式会社,東京都,豊島区,西巣鴨４丁目１４番１２号白澤ビル２０１号,,13,116,1700001,,,,,,,2021-09-29,1,,,,,ハクシン,0
394,2020003020529,新規,0,2021-09-29,2021-09-29,合同会社ハマブリッジ,,合同会社,神奈川県,横浜市中区,山下町２８－２ライオンズプラザ山下公園２２８,,14,104,2310023,,,,,,,2021-09-29,1,,,,,ハマブリッジ,0
395,2020003020553,新規,0,2021-09-29,2021-09-29,合同会社エムワイプラン,,合同会社,神奈川県,横浜市青葉区,藤が丘２丁目１番地３ソルジェガーデン６２９号,,14,117,2270043,,,,,,,2021-09-29,1,,,,,エムワイプラン,0
407,2030001144519,新規,0,2021-09-29,2021-09-29,株式会社アイ・ヴィラージュ,,株式会社,埼玉県,さいたま市浦和区,元町２丁目１４番１１号,,11,107,3300073,,,,,,,2021-09-29,1,,,,,アイヴィラージュ,0
408,2030001144527,新規,0,2021-09-29,2021-09-29,アリ株式会社,,株式会社,埼玉県,川口市,西川口１丁目１９番８号２０２号室,,11,203,3320021,,,,,,,2021-09-29,1,,,,,アリ,0
411,2030003018010,新規,0,2021-09-29,2021-09-29,合同会社エムアンドエム,,合同会社,埼玉県,東松山市,幸町１３番２号レオパレスＢｏｎｈｅｕｒ２０３号室,,11,212,3550025,,,,,,,2021-09-29,1,,,,,エムアンドエム,0
422,2040001120337,新規,0,2021-09-29,2021-09-29,株式会社清水家,,株式会社,千葉県,柏市,南増尾１丁目２５番３８号,,12,217,2770054,,,,,,,2021-09-29,1,,,,,シミズヤ,0
424,2040003018637,新規,0,2021-09-29,2021-09-29,合同会社ＰｌｕｓＦｏｒｃｅ,,合同会社,千葉県,佐倉市,稲荷台３丁目３番地８,,12,212,2850864,,,,,,,2021-09-29,1,,,,,プラスフォース,0
431,2060001034122,新規,0,2021-09-29,2021-09-29,株式会社フリーダム,,株式会社,栃木県,宇都宮市,駒生町３３７１番地２３カーサＳＴ－Ａ号棟,,09,201,3200065,,,,,,,2021-09-29,1,,,,,フリーダム,0
432,2060001034130,新規,0,2021-09-29,2021-09-29,株式会社グローバルダイナー,,株式会社,栃木県,宇都宮市,上戸祭町２９３６番地４６,,09,201,3200051,,,,,,,2021-09-29,1,,,,,グローバルダイナー,0
434,2060003003819,新規,0,2021-09-29,2021-09-29,合同会社海金,,合同会社,栃木県,小山市,城東３丁目１－２５,,09,208,3230807,,,,,,,2021-09-29,1,,,,,,0
437,2070005009904,新規,0,2021-09-29,2021-09-29,特定非営利活動法人山と渓流,,その他の設立登記法人,群馬県,利根郡みなかみ町,谷川４６３番１,,10,449,3791619,,,,,,,2021-09-29,1,,,,,ヤマトケイリュウ,0
446,2110001036063,新規,0,2021-09-29,2021-09-29,ＡＶＩＡＴＯＲ株式会社,,株式会社,新潟県,新潟市中央区,古町通２番町５４３番地ライオンズマンション新潟古町１０２,,15,103,9518063,,,,,,,2021-09-29,1,,,,,アビエーター,0
467,2120001240663,新規,0,2021-09-29,2021-09-29,株式会社ロウレンス,,株式会社,大阪府,大阪市西淀川区,歌島２丁目１２番２６－２０５号,,27,113,5550021,,,,,,,2021-09-29,1,,,,,ロウレンス,0
471,2120003020312,新規,0,2021-09-29,2021-09-29,合同会社ビルハウス,,合同会社,大阪府,大阪市淀川区,宮原２丁目１１番９号,,27,123,5320003,,,,,,,2021-09-29,1,,,,,ビルハウス,0
477,2120903003845,新規,0,2021-09-29,2021-09-29,合同会社ＷｏｒｄＳｅａ,,合同会社,大阪府,高槻市,西真上１丁目２３番１４号,,27,207,5691127,,,,,,,2021-09-29,1,,,,,ワードシー,0
482,2130003007507,新規,0,2021-09-29,2021-09-29,Ｂｏｎｔｒａｄｅ合同会社,,合同会社,京都府,京都市中京区,西ノ京大炊御門町８番地８６,,26,104,6048467,,,,,,,2021-09-29,1,,,,,ボントレード,0
483,2130005016274,新規,0,2021-09-29,2021-09-29,特定非営利活動法人京都凛の会,,その他の設立登記法人,京都府,京都市東山区,大和大路通四条下る東入小松町６１６番地クリオ祇園４０５号,,26,105,6050811,,,,,,,2021-09-29,1,,,,,キョウトリンノカイ,0
492,2140001123148,新規,0,2021-09-29,2021-09-29,ＭＹ株式会社,,株式会社,兵庫県,神戸市垂水区,五色山１丁目２番１６号,,28,108,6550035,,,,,,,2021-09-29,1,,,,,エムワイ,0
493,2140001123156,新規,0,2021-09-29,2021-09-29,株式会社和栄,,株式会社,兵庫県,尼崎市,大庄西町１丁目２番１５号,,28,202,6600077,,,,,,,2021-09-29,1,,,,,ワエイ,0
494,2140001123164,新規,0,2021-09-29,2021-09-29,株式会社Ｎ－ＬＩＶＩＮＧ,,株式会社,兵庫県,姫路市,南新在家２０番５号,,28,201,6700093,,,,,,,2021-09-29,1,,,,,エヌリビング,0
495,2140001123180,新規,0,2021-09-29,2021-09-29,株式会社ＨＧＳＴ,,株式会社,兵庫県,神戸市中央区,中山手通２丁目１１番１号エル中山手６０２,,28,110,6500004,,,,,,,2021-09-29,1,,,,,エイチジーエスティー,0
496,2140003016762,新規,0,2021-09-29,2021-09-29,プレス合同会社,,合同会社,兵庫県,芦屋市,楠町６－１５,,28,206,6590015,,,,,,,2021-09-29,1,,,,,プレス,0
501,2150005009334,新規,0,2021-09-29,2021-09-29,一般社団法人空,,その他の設立登記法人,奈良県,奈良市,角振新屋町８番地,,29,201,6308223,,,,,,,2021-09-29,1,,,,,クウ,0
503,2160003002389,新規,0,2021-09-29,2021-09-29,クリボウ合同会社,,合同会社,滋賀県,草津市,大路１丁目１－１,,25,206,5250032,,,,,,,2021-09-29,1,,,,,クリボウ,0
511,2180003022996,新規,0,2021-09-29,2021-09-29,合同会社トライアド,,合同会社,愛知県,名古屋市名東区,極楽４丁目９０２番地の２,,23,115,4650053,,,,,,,2021-09-29,1,,,,,トライアド,0
512,2180005019454,新規,0,2021-09-29,2021-09-29,特定非営利活動法人Ｏｎｅ　Ｄｉｎｉｎｇ　Ｔａｂｌｅ,,その他の設立登記法人,愛知県,名古屋市昭和区,山里町６６番地の７シーマンビル山手１階,,23,107,4660824,,,,,,,2021-09-29,1,,,,,ワンダイニングテーブル,0
526,2240001058664,新規,0,2021-09-29,2021-09-29,株式会社ヤマノ,,株式会社,広島県,福山市,花園町２丁目２番３０号,,34,207,7200803,,,,,,,2021-09-29,1,,,,,ヤマノ,0
528,2250001019145,新規,0,2021-09-29,2021-09-29,ＯＭＹＳ株式会社,,株式会社,山口県,防府市,大字牟礼４５２０－２,,35,206,7470004,,,,,,,2021-09-29,1,,,,,オミーズ,0
530,2260001035991,新規,0,2021-09-29,2021-09-29,株式会社エスパス,,株式会社,岡山県,岡山市北区,京橋南町１番１７号,,33,101,7000832,,,,,,,2021-09-29,1,,,,,エスパス,0
532,2260005010974,新規,0,2021-09-29,2021-09-29,特定非営利活動法人ｋｕｍｏ,,その他の設立登記法人,岡山県,倉敷市,真備町辻田１００３番地５号,,33,202,7101312,,,,,,,2021-09-29,1,,,,,クモ,0
546,2330001029012,新規,0,2021-09-29,2021-09-29,株式会社九月社,,株式会社,熊本県,熊本市南区,八幡５丁目４番１６号,,43,104,8614113,,,,,,,2021-09-29,1,,,,,クガツシャ,0
547,2330003009053,新規,0,2021-09-29,2021-09-29,ＭＩＮＥ合同会社,,合同会社,熊本県,熊本市東区,八反田１丁目３番７８号,,43,102,8618034,,,,,,,2021-09-29,1,,,,,マイン,0
548,2330003009061,新規,0,2021-09-29,2021-09-29,合同会社コンパスマネジメント,,合同会社,熊本県,熊本市東区,広木町２９番３０号ソレジオ広木Ａ－２０２,,43,102,8620906,,,,,,,2021-09-29,1,,,,,コンパスマネジメント,0
550,2350001017320,新規,0,2021-09-29,2021-09-29,株式会社ｍｉｒａｉ,,株式会社,宮崎県,小林市,水流迫６４８番地１２,,45,205,8860002,,,,,,,2021-09-29,1,,,,,ミライ,0
551,2360001029414,新規,0,2021-09-29,2021-09-29,株式会社平工務店,,株式会社,沖縄県,うるま市,与那城屋慶名１５６０番地５４,,47,213,9042304,,,,,,,2021-09-29,1,,,,,タイラコウムテン,0
552,2360003011469,新規,0,2021-09-29,2021-09-29,合同会社ｂｌｕｅ　ｆｏｒｅｓｔ,,合同会社,沖縄県,那覇市,具志２丁目２９番７号,,47,201,9010146,,,,,,,2021-09-29,1,,,,,ブルーフォレスト,0
553,2370001047638,新規,0,2021-09-29,2021-09-29,十符の里工業株式会社,,株式会社,宮城県,宮城郡利府町,沢乙字大沢東４６番地,,04,406,9810123,,,,,,,2021-09-29,1,,,,,トフノサトコウギョウ,0
554,2370003005395,新規,0,2021-09-29,2021-09-29,合同会社ワコー,,合同会社,宮城県,亘理郡亘理町,逢隈鹿島字西鹿島１４５番地２,00124365,04,361,9892371,,,,,,,2021-09-29,1,,,,,ワコー,0
564,2420001017602,新規,0,2021-09-29,2021-09-29,株式会社ｂｕｌａｎ．ｂｉｎｔａｎｇ．ｍａｔａｈａｒｉ,,株式会社,青森県,青森市,青柳２丁目１１番５号,,02,201,0300811,,,,,,,2021-09-29,1,,,,,ブランビンタンマタハリ,0
565,2420003002387,新規,0,2021-09-29,2021-09-29,合同会社北日本ＭＴＫ開発,,合同会社,青森県,弘前市,大字城東３丁目３番地１２,,02,202,0368095,,,,,,,2021-09-29,1,,,,,キタニホンエムティーケーカイハツ,0
571,2440003001412,新規,0,2021-09-29,2021-09-29,合同会社道新おざき,,合同会社,北海道,山越郡長万部町,字長万部１２８番地,,01,347,0493521,,,,,,,2021-09-29,1,,,,,ドウシンオザキ,0
575,2470001018728,新規,0,2021-09-29,2021-09-29,株式会社トラスティ,,株式会社,香川県,丸亀市,川西町北６５５番地６,,37,202,7630091,,,,,,,2021-09-29,1,,,,,トラスティ,0
583,2500001023699,新規,0,2021-09-29,2021-09-29,株式会社ｇｌｅａｍ,,株式会社,愛媛県,新居浜市,庄内町６丁目６番１４号,,38,205,7920811,,,,,,,2021-09-29,1,,,,,グリーム,0
595,3010001221426,新規,0,2021-09-29,2021-09-29,丸紅グローバルファーマ株式会社,,株式会社,東京都,千代田区,大手町１丁目４番２号,,13,101,1000004,,,,,,,2021-09-29,1,,,,,マルベニグローバルファーマ,0
596,3010001221434,新規,0,2021-09-29,2021-09-29,エムキャップ九号株式会社,,株式会社,東京都,千代田区,丸の内３丁目１番１号,,13,101,1000005,,,,,,,2021-09-29,1,,,,,エムキャップキュウゴウ,0
599,3010003035923,新規,0,2021-09-29,2021-09-29,ＫＴ　Ｉｎｖｅｓｔｍｅｎｔｓ合同会社,,合同会社,東京都,文京区,本駒込５丁目６２－８,,13,105,1130021,,,,,,,2021-09-29,1,,,,,ケイティーインベストメンツ,0
602,3010005034015,新規,0,2021-09-29,2021-09-29,一般社団法人日本文化伝承協会,,その他の設立登記法人,東京都,千代田区,外神田３丁目６番７号,,13,101,1010021,,,,,,,2021-09-29,1,,,,,ニホンブンカデンショウキョウカイ,0
606,3010401162897,新規,0,2021-09-29,2021-09-29,株式会社ＩＤＥＡＲ,,株式会社,東京都,港区,南青山４丁目１５番４号,,13,103,1070062,,,,,,,2021-09-29,1,,,,,アイディアー,0
607,3010403026167,新規,0,2021-09-29,2021-09-29,合同会社上昇,,合同会社,東京都,港区,虎ノ門５丁目２番１４号３階,,13,103,1050001,,,,,,,2021-09-29,1,,,,,ジョウショウ,0
608,3010403026183,新規,0,2021-09-29,2021-09-29,ＧｅｎＡｒｋ合同会社,,合同会社,東京都,港区,東新橋１丁目１０番１－８１２号,,13,103,1050021,,,,,,,2021-09-29,1,,,,,ジェナーク,0
617,3010605004004,新規,0,2021-09-29,2021-09-29,一般社団法人日本潜在能力教育研究協会,,その他の設立登記法人,東京都,江東区,有明１丁目４番１１－１１１２号,,13,108,1350063,,,,,,,2021-09-29,1,,,,,ニホンセンザイノウリョクキョウイクケンキュウキョウカイ,0
620,3010701041586,新規,0,2021-09-29,2021-09-29,エムワイフィールド株式会社,,株式会社,東京都,品川区,中延４丁目９番３号,,13,109,1420053,,,,,,,2021-09-29,1,,,,,エムワイフィールド,0
639,3011001142942,新規,0,2021-09-29,2021-09-29,株式会社いずみｌａｂｏ,,株式会社,東京都,渋谷区,神宮前６丁目２３番４号桑野ビル２階,,13,113,1500001,,,,,,,2021-09-29,1,,,,,イズミラボ,0
640,3011001142950,新規,0,2021-09-29,2021-09-29,ヴォランテ・ビジネスデザイン株式会社,,株式会社,東京都,渋谷区,恵比寿南３丁目１番１号恵比寿グリーングラス６階,,13,113,1500022,,,,,,,2021-09-29,1,,,,,ヴォランテビジネスデザイン,0
641,3011001142991,新規,0,2021-09-29,2021-09-29,株式会社Ｒｉоｚ,,株式会社,東京都,渋谷区,神宮前６丁目２３番４号桑野ビル２階,,13,113,1500001,,,,,,,2021-09-29,1,,,,,リオズ,0
642,3011001143032,新規,0,2021-09-29,2021-09-29,株式会社副業の窓口,,株式会社,東京都,渋谷区,代々木２丁目２３番１号,,13,113,1510053,,,,,,,2021-09-29,1,,,,,フクギョウノマドグチ,0
643,3011001143049,新規,0,2021-09-29,2021-09-29,ＪＫＡ株式会社,,株式会社,東京都,渋谷区,道玄坂１丁目１７－１１,,13,113,1500043,,,,,,,2021-09-29,1,,,,,ジェイケイエイ,0
644,3011003013398,新規,0,2021-09-29,2021-09-29,Ｄ２Ｃ合同会社,,合同会社,東京都,渋谷区,円山町５－５Ｎａｖｉ渋谷Ｖ３階,,13,113,1500044,,,,,,,2021-09-29,1,,,,,ディーツーシー,0
645,3011003013407,新規,0,2021-09-29,2021-09-29,合同会社Ｃａｐｒｉｃｏｒｎ,,合同会社,東京都,渋谷区,渋谷２丁目１９番１５号宮益坂ビルディング６０９,,13,113,1500002,,,,,,,2021-09-29,1,,,,,カプリコーン,0
646,3011003013423,新規,0,2021-09-29,2021-09-29,合同会社マリンドル,,合同会社,東京都,渋谷区,恵比寿南１丁目１０番７－４０９号パークハビオ恵比寿,,13,113,1500022,,,,,,,2021-09-29,1,,,,,マリンドル,0
655,3011103011021,新規,0,2021-09-29,2021-09-29,合同会社ＪＳ,,合同会社,東京都,新宿区,大久保１丁目１１番２号エコロ新宿第５ビル８０２号,,13,104,1690072,,,,,,,2021-09-29,1,,,,,ジェイエス,0
656,3011103011038,新規,0,2021-09-29,2021-09-29,合同会社グローリー,,合同会社,東京都,新宿区,早稲田鶴巻町５５５番地中川ビル,,13,104,1620041,,,,,,,2021-09-29,1,,,,,グローリー,0
657,3011105009971,新規,0,2021-09-29,2021-09-29,医療法人社団胡蝶会,,その他の設立登記法人,東京都,新宿区,新宿３丁目１番１６号京王新宿追分第二ビル４階,,13,104,1600022,,,,,,,2021-09-29,1,,,,,コチョウカイ,0
665,3011403003453,新規,0,2021-09-29,2021-09-29,トラステクト合同会社,,合同会社,東京都,板橋区,舟渡３丁目１０番８号,,13,119,1740041,,,,,,,2021-09-29,1,,,,,トラステクト,0
675,3011601025423,新規,0,2021-09-29,2021-09-29,株式会社フラッグ・フード,,株式会社,東京都,練馬区,富士見台２丁目１８番９号,,13,120,1770034,,,,,,,2021-09-29,1,,,,,フラッグフード,0
679,3011703002948,新規,0,2021-09-29,2021-09-29,Ｗｏｎｄｅｒｆｕｌ　Ｉｎｔｅｒｎａｔｉｏｎａｌ　Ｓｅｒｖｉｃｅｓ　Ｉｎｃ．合同会社,,合同会社,東京都,江戸川区,上篠崎４丁目６番５号,,13,123,1330054,,,,,,,2021-09-29,1,,,,,ワンダフルインターナショナルサービシスインク,0
685,3012401038334,新規,0,2021-09-29,2021-09-29,株式会社ネクストリンク,,株式会社,東京都,武蔵野市,御殿山２丁目１０番３３号,,13,203,1800005,,,,,,,2021-09-29,1,,,,,ネクストリンク,0
686,3012405004646,新規,0,2021-09-29,2021-09-29,医療法人社団和光,,その他の設立登記法人,東京都,小金井市,前原町３丁目４１番２４号ビュークレスト小金井１０２,,13,210,1840013,,,,,,,2021-09-29,1,,,,,ワコウ,0
687,3012701016683,新規,0,2021-09-29,2021-09-29,株式会社京屋,,株式会社,東京都,東村山市,萩山町５丁目６番地２１－５０１,,13,213,1890012,,,,,,,2021-09-29,1,,,,,キョウヤ,0
710,3020001143132,新規,0,2021-09-29,2021-09-29,株式会社クアフォード,,株式会社,神奈川県,横浜市西区,北幸１丁目１１番１号水信ビル７階,,14,103,2200004,,,,,,,2021-09-29,1,,,,,クアフォード,0
711,3020001143181,新規,0,2021-09-29,2021-09-29,株式会社栄友,,株式会社,神奈川県,横浜市戸塚区,秋葉町２５３番地２４９,,14,110,2450052,,,,,,,2021-09-29,1,,,,,エイユウ,0
721,3021001074029,新規,0,2021-09-29,2021-09-29,株式会社兼装,,株式会社,神奈川県,平塚市,虹ケ浜２０番１４―２０７号,,14,203,2540823,,,,,,,2021-09-29,1,,,,,ケンソウ,0
722,3021001074053,新規,0,2021-09-29,2021-09-29,株式会社ＢＢＣ,,株式会社,神奈川県,相模原市南区,新磯野１丁目１０番６－２０３号,,14,153,2520325,,,,,,,2021-09-29,1,,,,,ビビック,0
725,3021003010923,新規,0,2021-09-29,2021-09-29,ベネディーク合同会社,,合同会社,神奈川県,鎌倉市,玉縄５丁目１５番地５３,,14,204,2470071,,,,,,,2021-09-29,1,,,,,ベネディーク,0
730,3030001144501,新規,0,2021-09-29,2021-09-29,株式会社日越,,株式会社,埼玉県,八潮市,緑町１丁目１７番地１１,,11,234,3400808,,,,,,,2021-09-29,1,,,,,ニチエツ,0
731,3030001144518,新規,0,2021-09-29,2021-09-29,株式会社ＡＲＨ,,株式会社,埼玉県,川越市,大字鴨田１１６０番地５,,11,201,3500844,,,,,,,2021-09-29,1,,,,,エイアールエイチ,0
737,3030003018018,新規,0,2021-09-29,2021-09-29,ＱＤ合同会社,,合同会社,埼玉県,川口市,金山町１０－１－３０３,,11,203,3320014,,,,,,,2021-09-29,1,,,,,キューディー,0
738,3030003018026,新規,0,2021-09-29,2021-09-29,オレンジエンジニア合同会社,,合同会社,埼玉県,狭山市,大字水野１２９１－１７,,11,215,3501317,,,,,,,2021-09-29,1,,,,,オレンジエンジニア,0
740,3030005020533,新規,0,2021-09-29,2021-09-29,一般社団法人川口市旅行観光協会,,その他の設立登記法人,埼玉県,川口市,戸塚３丁目２０番２７号２階,,11,203,3330811,,,,,,,2021-09-29,1,,,,,カワグチシリョコウカンコウキョウカイ,0
746,3040001120344,新規,0,2021-09-29,2021-09-29,株式会社ＭＥＩＲＯ,,株式会社,千葉県,千葉市若葉区,加曽利町１５０２－２１,,12,104,2640017,,,,,,,2021-09-29,1,,,,,メイロ,0
747,3040001120360,新規,0,2021-09-29,2021-09-29,株式会社ＲｉｖｅｒＭｏｕｎｔａｉｎ,,株式会社,千葉県,柏市,十余二２４９番地４６８,,12,217,2770872,,,,,,,2021-09-29,1,,,,,リバーマウンテン,0
753,3040003018594,新規,0,2021-09-29,2021-09-29,合同会社ＡＹＡ,,合同会社,千葉県,松戸市,松戸新田５７１番地の２０,,12,207,2702241,,,,,,,2021-09-29,1,,,,,アヤ,0
757,3050003006094,新規,0,2021-09-29,2021-09-29,ＬＵＰ　Ｐｌａｎｎｉｎｇ合同会社,,合同会社,茨城県,守谷市,野木崎３７番地の１１,,08,224,3020117,,,,,,,2021-09-29,1,,,,,ルププランニング,0
758,3050003006103,新規,0,2021-09-29,2021-09-29,合同会社３Ｗｏｒｋｓ,,合同会社,茨城県,神栖市,神栖３丁目７－２６パレスＫ棟２号,,08,232,3140143,,,,,,,2021-09-29,1,,,,,スリーワークス,0
761,3060003003818,新規,0,2021-09-29,2021-09-29,合同会社ＧＵＮＡＴＨＩＬＡＫＡ　ＥＮＴＥＲＰＲＩＳＥＳ,,合同会社,栃木県,佐野市,小中町１８７３番地１,,09,204,3270001,,,,,,,2021-09-29,1,,,,,グナティラカエンタープライズ,0
767,3080001024459,新規,0,2021-09-29,2021-09-29,株式会社杉山自転車商会,,株式会社,静岡県,静岡市葵区,弥勒１丁目５番２０号,,22,101,4200053,,,,,,,2021-09-29,1,,,,,スギヤマジデンシャショウカイ,0
781,3100001034637,新規,0,2021-09-29,2021-09-29,株式会社スクールユニフォームタカコウ,,株式会社,長野県,長野市,上松４丁目５番２号,,20,201,3800802,,,,,,,2021-09-29,1,,,,,スクールユニフォームタカコウ,0
789,3120001240720,新規,0,2021-09-29,2021-09-29,バウアート株式会社,,株式会社,大阪府,大阪市天王寺区,堀越町９番８号,,27,109,5430056,,,,,,,2021-09-29,1,,,,,バウアート,0
790,3120001240761,新規,0,2021-09-29,2021-09-29,株式会社ＷＡＫＵ家,,株式会社,大阪府,大阪市北区,梅田１丁目１－３大阪駅前第３ビル２３０７,,27,127,5300001,,,,,,,2021-09-29,1,,,,,ワクヤ,0
793,3120003020278,新規,0,2021-09-29,2021-09-29,ＳＧＧ合同会社,,合同会社,大阪府,大阪市都島区,都島南通２丁目１０番１６－３０５号,,27,102,5340023,,,,,,,2021-09-29,1,,,,,エスジージー,0
795,3120005022520,新規,0,2021-09-29,2021-09-29,一般社団法人ＴＲＵＥ　ＤＥＳＩＧＮ　ＣＬＩＮＩＣ,,その他の設立登記法人,大阪府,大阪市中央区,難波３丁目８番９号なんばマルイ３階,,27,128,5420076,,,,,,,2021-09-29,1,,,,,トゥルーデザインクリニック,0
800,3120103004362,新規,0,2021-09-29,2021-09-29,合同会社トライ,,合同会社,大阪府,堺市北区,新金岡町４丁３番１６－１０１号,,27,146,5918021,,,,,,,2021-09-29,1,,,,,トライ,0
804,3120901044956,新規,0,2021-09-29,2021-09-29,株式会社メイテック・ミノ,,株式会社,大阪府,高槻市,大塚町５丁目１５番２０号,,27,207,5690034,,,,,,,2021-09-29,1,,,,,メイテックミノ,0
807,3120903003844,新規,0,2021-09-29,2021-09-29,合同会社吉岡モーターサイクル,,合同会社,大阪府,池田市,渋谷３丁目１５－１０－１０７,,27,204,5630028,,,,,,,2021-09-29,1,,,,,ヨシオカモーターサイクル,0
810,3122001035200,新規,0,2021-09-29,2021-09-29,株式会社ＫＩＤＥＮ,,株式会社,大阪府,東大阪市,六万寺町１丁目２０番３１号,,27,227,5798061,,,,,,,2021-09-29,1,,,,,キデン,0
815,3130001070167,新規,0,2021-09-29,2021-09-29,株式会社グラティア,,株式会社,京都府,京都市東山区,慈法院庵町５８０－８,,26,105,6050871,,,,,,,2021-09-29,1,,,,,グラティア,0
819,3140003016778,新規,0,2021-09-29,2021-09-29,合同会社ａｍｏｕｒ．ｍ,,合同会社,兵庫県,三田市,東本庄１６５７番地１,,28,219,6691357,,,,,,,2021-09-29,1,,,,,アムールエム,0
821,3150001024955,新規,0,2021-09-29,2021-09-29,株式会社上上サービス,,株式会社,奈良県,奈良市,神殿町６６７番地の１,,29,201,6308441,,,,,,,2021-09-29,1,,,,,ジョウジョウサービス,0
830,3180001147935,新規,0,2021-09-29,2021-09-29,ＳＷＯＲＵＰ　ＥＮＴＥＲＰＲＩＳＥＳ株式会社,,株式会社,愛知県,名古屋市熱田区,三番町１３－２１,,23,109,4560056,,,,,,,2021-09-29,1,,,,,ソルプエンタープライセス,0
832,3180003023011,新規,0,2021-09-29,2021-09-29,合同会社コーモラント,,合同会社,愛知県,春日井市,牛山町２９６番地２,,23,206,4860901,,,,,,,2021-09-29,1,,,,,コーモラント,0
841,3200001039196,新規,0,2021-09-29,2021-09-29,株式会社山下興業,,株式会社,岐阜県,安八郡安八町,南今ケ渕４５０番地の９,,21,383,5030115,,,,,,,2021-09-29,1,,,,,ヤマシタコウギョウ,0
847,3220003003124,新規,0,2021-09-29,2021-09-29,アミターバ合同会社,,合同会社,石川県,金沢市,新保本２丁目６１８番地,,17,201,9218062,,,,,,,2021-09-29,1,,,,,アミターバ,0
850,3240001058663,新規,0,2021-09-29,2021-09-29,株式会社人間力徳育検定協会,,株式会社,広島県,広島市中区,本川町２丁目５番１７号,,34,101,7300802,,,,,,,2021-09-29,1,,,,,,0
854,3260001035990,新規,0,2021-09-29,2021-09-29,株式会社カワミチ,,株式会社,岡山県,岡山市南区,三浜町２丁目１番２３号,,33,104,7028036,,,,,,,2021-09-29,1,,,,,カワミチ,0
855,3260001035999,新規,0,2021-09-29,2021-09-29,エンクル株式会社,,株式会社,岡山県,岡山市北区,大元駅前３番６５号ロイヤルガーデン大元駅前１３０７号室,,33,101,7000923,,,,,,,2021-09-29,1,,,,,エンクル,0
864,3290001094745,新規,0,2021-09-29,2021-09-29,株式会社ケッチ,,株式会社,福岡県,福岡市中央区,大名１丁目２－３１矢野ビル２階,,40,133,8100041,,,,,,,2021-09-29,1,,,,,ケッチ,0
865,3290001094803,新規,0,2021-09-29,2021-09-29,株式会社横浜不動産,,株式会社,福岡県,福岡市西区,横浜１丁目１８番２０号,,40,135,8190166,,,,,,,2021-09-29,1,,,,,ヨコハマフドウサン,0
868,3290003011657,新規,0,2021-09-29,2021-09-29,合同会社ｒｅＳＯＬｖｅ,,合同会社,福岡県,福岡市中央区,天神５丁目９番２号,,40,133,8100001,,,,,,,2021-09-29,1,,,,,リソルヴ,0
869,3290003011665,新規,0,2021-09-29,2021-09-29,合同会社ダイアローグヴィレッジ,,合同会社,福岡県,福岡市中央区,薬院２丁目４番１５－８０１号,,40,133,8100022,,,,,,,2021-09-29,1,,,,,ダイアローグヴィレッジ,0
873,3290801027838,新規,0,2021-09-29,2021-09-29,株式会社Ｇａｌａｘｉａ,,株式会社,福岡県,北九州市小倉北区,浅野３丁目８－１ＡＩＭビル６階,,40,106,8020001,,,,,,,2021-09-29,1,,,,,ジャラクシア,0
880,3310003004170,新規,0,2021-09-29,2021-09-29,合同会社小牧牧場,,合同会社,長崎県,壱岐市,郷ノ浦町小牧東触７６６番地,,42,210,8115106,,,,,,,2021-09-29,1,,,,,コマキボクジョウ,0
894,3410003003575,新規,0,2021-09-29,2021-09-29,３５プランニング合同会社,,合同会社,秋田県,大館市,御成町３丁目３番２号,,05,204,0170044,,,,,,,2021-09-29,1,,,,,サンゴープランニング,0
909,3470001018727,新規,0,2021-09-29,2021-09-29,株式会社エイシンサービス,,株式会社,香川県,坂出市,福江町３丁目３番５７号,,37,203,7620034,,,,,,,2021-09-29,1,,,,,エイシンサービス,0
925,4010001221425,新規,0,2021-09-29,2021-09-29,株式会社ハッピーグッド,,株式会社,東京都,中央区,銀座１丁目２２－１１銀座大竹ビジデンス２Ｆ,,13,102,1040061,,,,,,,2021-09-29,1,,,,,ハッピーグッド,0
926,4010001221433,新規,0,2021-09-29,2021-09-29,株式会社ｎａｎａｉｒｏ,,株式会社,東京都,中央区,銀座７丁目１３番６号サガミビル２階,,13,102,1040061,,,,,,,2021-09-29,1,,,,,ナナイロ,0
930,4010003035930,新規,0,2021-09-29,2021-09-29,日本橋プラーナ合同会社,,合同会社,東京都,中央区,日本橋兜町５番１号第一平和ビル３Ｆ,,13,102,1030026,,,,,,,2021-09-29,1,,,,,ニホンバシプラーナ,0
932,4010005034014,新規,0,2021-09-29,2021-09-29,一般社団法人九段下劇場,,その他の設立登記法人,東京都,千代田区,飯田橋２丁目５番４号,,13,101,1020072,,,,,,,2021-09-29,1,,,,,クダンシタゲキジョウ,0
933,4010101014877,新規,0,2021-09-29,2021-09-29,株式会社Ｃｏｎｔｉｎｕｅ,,株式会社,東京都,八王子市,久保山町２丁目４６番地２、４－４０１,,13,201,1920023,,,,,,,2021-09-29,1,,,,,,0
934,4010103001774,新規,0,2021-09-29,2021-09-29,ＴＨＭＨ合同会社,,合同会社,東京都,八王子市,子安町４丁目１４番４号,,13,201,1920904,,,,,,,2021-09-29,1,,,,,ティーエイチエムエイチ,0
938,4010401162806,新規,0,2021-09-29,2021-09-29,ジャパンシステムパワー株式会社,,株式会社,東京都,港区,赤坂４丁目３番３１－４０４号,,13,103,1070052,,,,,,,2021-09-29,1,,,,,ジャパンシステムパワー,0
939,4010401162905,新規,0,2021-09-29,2021-09-29,株式会社Ｓｎａｐ　ｃａｌｌ,,株式会社,東京都,港区,白金５丁目１２番２３号ｔｒｉａｓ２２３・３０１,,13,103,1080072,,,,,,,2021-09-29,1,,,,,スナップコール,0
942,4010403026182,新規,0,2021-09-29,2021-09-29,合同会社黒澤建物,,合同会社,東京都,港区,赤坂５丁目４番９号いちご赤坂五丁目ビル地下一階,,13,103,1070052,,,,,,,2021-09-29,1,,,,,クロサワタテモノ,0
954,4010605004003,新規,0,2021-09-29,2021-09-29,一般財団法人ヤーマン奨学財団,,その他の設立登記法人,東京都,江東区,東陽２丁目４番２号,,13,108,1350016,,,,,,,2021-09-29,1,,,,,ヤーマンショウガクザイダン,0
967,4011003013406,新規,0,2021-09-29,2021-09-29,合同会社トンボ,,合同会社,東京都,渋谷区,神宮前６丁目２３番４号桑野ビル２階,,13,113,1500001,,,,,,,2021-09-29,1,,,,,トンボ,0
968,4011003013439,新規,0,2021-09-29,2021-09-29,合同会社マイアセット,,合同会社,東京都,目黒区,上目黒１丁目２６番１－４２０７号高橋方,00124364,13,110,1530051,,,,,,,2021-09-29,1,,,,,マイアセット,0
971,4011101096402,新規,0,2021-09-29,2021-09-29,株式会社アスピレーション,,株式会社,東京都,新宿区,下宮比町２－２８,,13,104,1620822,,,,,,,2021-09-29,1,,,,,アスピレーション,0
976,4011301027207,新規,0,2021-09-29,2021-09-29,株式会社バグフィルム,,株式会社,東京都,杉並区,荻窪５丁目３０番１６号,,13,115,1670051,,,,,,,2021-09-29,1,,,,,バグフィルム,0
996,4011701024737,新規,0,2021-09-29,2021-09-29,株式会社安寿,,株式会社,東京都,江戸川区,北篠崎１丁目５番１４号,,13,123,1330053,,,,,,,2021-09-29,1,,,,,アンジュ,0
997,4011801039734,新規,0,2021-09-29,2021-09-29,株式会社イーリス,,株式会社,東京都,足立区,綾瀬２丁目２７番２号,,13,121,1200005,,,,,,,2021-09-29,1,,,,,イーリス,0
998,4011801039742,新規,0,2021-09-29,2021-09-29,株式会社ＧＭコンサルティング,,株式会社,東京都,足立区,西綾瀬２丁目１２番９－３０４号,,13,121,1200014,,,,,,,2021-09-29,1,,,,,ジーエムコンサルティング,0
1005,4012405004645,新規,0,2021-09-29,2021-09-29,一般社団法人視覚聴覚障害アドボカシー研究所,,その他の設立登記法人,東京都,武蔵野市,境１丁目１６－３１ペガサスマンション１０２,,13,203,1800022,,,,,,,2021-09-29,1,,,,,シカクチョウカクショウガイアドボカシーケンキュウジョ,0
1015,4013301048067,新規,0,2021-09-29,2021-09-29,株式会社ｆｉｌｓｏｎａ,,株式会社,東京都,豊島区,東池袋１丁目３４番５号いちご東池袋ビル６階,,13,116,1700013,,,,,,,2021-09-29,1,,,,,フィルソナ,0
1022,4020001143206,新規,0,2021-09-29,2021-09-29,ＡＬＥＸＩＡ株式会社,,株式会社,神奈川県,横浜市磯子区,中原２丁目２０番１２号,,14,107,2350036,,,,,,,2021-09-29,1,,,,,,0
1036,4030003018017,新規,0,2021-09-29,2021-09-29,合同会社Ｓ－ｎａｎａ,,合同会社,埼玉県,越谷市,七左町１丁目８１番地２,,11,222,3430851,,,,,,,2021-09-29,1,,,,,ナナ,0
1051,4050003006102,新規,0,2021-09-29,2021-09-29,ｓｏｒａｔｏｂｕｎｅｚｕｍｉ合同会社,,合同会社,茨城県,水戸市,東原３丁目６番４４号,,08,201,3100035,,,,,,,2021-09-29,1,,,,,ソラトブネズミ,0
1054,4060001034120,新規,0,2021-09-29,2021-09-29,株式会社エヌケーライン,,株式会社,栃木県,宇都宮市,鶴田町３３０１番地４,,09,201,3200851,,,,,,,2021-09-29,1,,,,,エヌケーライン,0
1067,4080001024458,新規,0,2021-09-29,2021-09-29,株式会社加藤冷設,,株式会社,静岡県,静岡市駿河区,大谷２丁目１２番１６号,,22,102,4228017,,,,,,,2021-09-29,1,,,,,カトウレイセツ,0
1073,4080401025361,新規,0,2021-09-29,2021-09-29,株式会社シライ,,株式会社,静岡県,湖西市,白須賀６１３１番地,,22,221,4310451,,,,,,,2021-09-29,1,,,,,シライ,0
1074,4080403004371,新規,0,2021-09-29,2021-09-29,Ｇ　ＰＡＲＴＳ合同会社,,合同会社,静岡県,浜松市中区,幸２丁目９番２３号,,22,131,4338123,,,,,,,2021-09-29,1,,,,,ジーパーツ,0
1075,4090001017205,新規,0,2021-09-29,2021-09-29,株式会社ＭＳ－ＩＶＴ,,株式会社,山梨県,南アルプス市,六科１５８８番地,,19,208,4000206,,,,,,,2021-09-29,1,,,,,エムエスアイブィティ,0
1078,4090005007433,新規,0,2021-09-29,2021-09-29,ＮＰＯ法人空き家バンク空き家・実家の売却相談センター,,その他の設立登記法人,山梨県,甲府市,大里町５２７６番地１,,19,201,4000053,,,,,,,2021-09-29,1,,,,,アキヤバンクアキヤジッカノバイキャクソウダンセンター,0
1082,4100003006245,新規,0,2021-09-29,2021-09-29,ＣＯ　ＧＡＩ　ＶＩＥＴ合同会社,,合同会社,長野県,諏訪市,大手１丁目６番３号,,20,206,3920026,,,,,,,2021-09-29,1,,,,,コガイヴェット,0
1103,4120001240694,新規,0,2021-09-29,2021-09-29,株式会社エキスパートソフトウェア,,株式会社,大阪府,大阪市北区,曾根崎２丁目２－１,,27,127,5300057,,,,,,,2021-09-29,1,,,,,エキスパートソフトウェア,0
1104,4120001240703,新規,0,2021-09-29,2021-09-29,株式会社誠心開発,,株式会社,大阪府,寝屋川市,打上南町９０７－４,,27,215,5720861,,,,,,,2021-09-29,1,,,,,セイシンカイハツ,0
1105,4120001240711,新規,0,2021-09-29,2021-09-29,ＡＵＧＵＲＩ株式会社,,株式会社,大阪府,大阪市北区,梅田１丁目１１番４号大阪駅前第４ビル９階９２３－１６０９号,,27,127,5300001,,,,,,,2021-09-29,1,,,,,アゥグーリ,0
1111,4120103004361,新規,0,2021-09-29,2021-09-29,ＡＯ合同会社,,合同会社,大阪府,堺市堺区,出島海岸通１丁９－６,,27,141,5900833,,,,,,,2021-09-29,1,,,,,エーオー,0
1121,4140001123154,新規,0,2021-09-29,2021-09-29,株式会社ＭＵＫＡＩ,,株式会社,兵庫県,西宮市,甲子園二番町２番４３号,,28,204,6638172,,,,,,,2021-09-29,1,,,,,ムカイ,0
1122,4140001123162,新規,0,2021-09-29,2021-09-29,株式会社まめフーズ,,株式会社,兵庫県,西宮市,石在町１１－２２－３,,28,204,6620928,,,,,,,2021-09-29,1,,,,,マメフーズ,0
1123,4140001123179,新規,0,2021-09-29,2021-09-29,株式会社みなとマーク,,株式会社,兵庫県,神戸市北区,鹿の子台北町７丁目３－５,,28,109,6511513,,,,,,,2021-09-29,1,,,,,ミナトマーク,0
1124,4140001123212,新規,0,2021-09-29,2021-09-29,山村ＪＲ貨物きらベジステーション株式会社,,株式会社,兵庫県,尼崎市,西向島町１５番地の１,,28,202,6600857,,,,,,,2021-09-29,1,,,,,ヤマムラジェイアールカモツキラベジステーション,0
1128,4150001024954,新規,0,2021-09-29,2021-09-29,ＳＣＤＣ株式会社,,株式会社,奈良県,生駒市,あすか野北２丁目１４番１９号,,29,209,6300134,,,,,,,2021-09-29,1,,,,,エスシーディーシー,0
1130,4160001023641,新規,0,2021-09-29,2021-09-29,株式会社マスタークルー,,株式会社,滋賀県,長浜市,列見町２９２番地,,25,203,5260062,,,,,,,2021-09-29,1,,,,,マスタークルー,0
1134,4170001016792,新規,0,2021-09-29,2021-09-29,株式会社ＫＡＹＡＭＡ,,株式会社,和歌山県,和歌山市,福島２４６番地４クレアンジュソーラスＦ号,,30,201,6408401,,,,,,,2021-09-29,1,,,,,カヤマ,0
1160,4190001028704,新規,0,2021-09-29,2021-09-29,株式会社松太郎,,株式会社,三重県,四日市市,高角町２６０５番地,,24,202,5120923,,,,,,,2021-09-29,1,,,,,マツタロウ,0
1164,4200001039195,新規,0,2021-09-29,2021-09-29,株式会社ＵＮＩＯＮＢＥＬＬ,,株式会社,岐阜県,岐阜市,加野１丁目７番６号,,21,201,5013107,,,,,,,2021-09-29,1,,,,,ユニオンベル,0
1171,4240001058662,新規,0,2021-09-29,2021-09-29,株式会社シャインライズ,,株式会社,広島県,呉市,宝町１番３－１２０７号,,34,202,7370029,,,,,,,2021-09-29,1,,,,,シャインライズ,0
1172,4250005008687,新規,0,2021-09-29,2021-09-29,司法書士法人ながと,,その他の設立登記法人,山口県,長門市,東深川１８６１番地４スクエアムラタ２０１,,35,211,7594101,,,,,,,2021-09-29,1,,,,,ナガト,0
1180,4290001094769,新規,0,2021-09-29,2021-09-29,株式会社リベラマートジャパン,,株式会社,福岡県,福岡市中央区,小笹３丁目９番２７－９０９号,,40,133,8100033,,,,,,,2021-09-29,1,,,,,リベラマートジャパン,0
1181,4290001094793,新規,0,2021-09-29,2021-09-29,株式会社ＦＯＲ　ＯＮＥ　ＣＯＭＰＡＮＹ,,株式会社,福岡県,筑後市,大字羽犬塚１４５番地１－５０２号,,40,211,8330003,,,,,,,2021-09-29,1,,,,,フォーワンカンパニー,0
1185,4290003011648,新規,0,2021-09-29,2021-09-29,合同会社ＪＥＴＳＨＩＮ,,合同会社,福岡県,福岡市早良区,内野１丁目１番８号,,40,137,8111123,,,,,,,2021-09-29,1,,,,,ジェットシン,0
1186,4290003011656,新規,0,2021-09-29,2021-09-29,ファイブ・コンサルティング合同会社,,合同会社,福岡県,福岡市城南区,七隈５丁目１３－３２－２０２,,40,136,8140133,,,,,,,2021-09-29,1,,,,,ファイブコンサルティング,0
1190,4300001012638,新規,0,2021-09-29,2021-09-29,株式会社毛利商事,,株式会社,佐賀県,佐賀市,川副町大字早津江８３番地４,,41,201,8402203,,,,,,,2021-09-29,1,,,,,モウリショウジ,0
1193,4330001029019,新規,0,2021-09-29,2021-09-29,株式会社オフィス・エスポワール,,株式会社,熊本県,熊本市中央区,新屋敷２丁目２０番８号,,43,101,8620975,,,,,,,2021-09-29,1,,,,,オフィスエスポワール,0
1194,4330003009051,新規,0,2021-09-29,2021-09-29,合同会社スリーシーズ,,合同会社,熊本県,熊本市北区,下硯川町２０９５番地５,,43,105,8615522,,,,,,,2021-09-29,1,,,,,スリーシーズ,0
1196,4340001024126,新規,0,2021-09-29,2021-09-29,株式会社フィットコンサル,,株式会社,鹿児島県,鹿児島市,名山町９番１５－４０３号,,46,201,8920821,,,,,,,2021-09-29,1,,,,,フィットコンサル,0
1197,4340003003565,新規,0,2021-09-29,2021-09-29,山口ｗｏｏｄｗｏｒｋ合同会社,,合同会社,鹿児島県,薩摩郡さつま町,山崎１７５０－１,,46,392,8951721,,,,,,,2021-09-29,1,,,,,ヤマグチウッドワーク,0
1198,4340003003573,新規,0,2021-09-29,2021-09-29,合同会社ＬｉｖｅＮａｔｕｒａｌ,,合同会社,鹿児島県,姶良郡湧水町,川西９５６番地１公営御手洗団地Ｃ棟１０２号,,46,452,8996104,,,,,,,2021-09-29,1,,,,,リヴナチュラル,0
1208,4410001012973,新規,0,2021-09-29,2021-09-29,株式会社アンベリール,,株式会社,秋田県,秋田市,飯島松根東町４番５１号,,05,201,0110922,,,,,,,2021-09-29,1,,,,,アンベリール,0
1213,4440005002712,新規,0,2021-09-29,2021-09-29,医療法人社団協働遊学舎,,その他の設立登記法人,北海道,亀田郡七飯町,本町６丁目７番４２号,,01,337,0411111,,,,,,,2021-09-29,1,,,,,キョウドウユウガクシャ,0
1214,4460001005601,新規,0,2021-09-29,2021-09-29,エム・エス電工株式会社,,株式会社,北海道,釧路市,益浦２丁目９番２号,,01,206,0850803,,,,,,,2021-09-29,1,,,,,エムエスデンコウ,0
1226,5010001221300,新規,0,2021-09-29,2021-09-29,株式会社Ａ－ＳＥＬＥＣＴ,,株式会社,東京都,中央区,日本橋兜町９－５,,13,102,1030026,,,,,,,2021-09-29,1,,,,,エーセレクト,0
1227,5010001221341,新規,0,2021-09-29,2021-09-29,東京セミナースタジオ株式会社,,株式会社,東京都,千代田区,岩本町１丁目４番７号,,13,101,1010032,,,,,,,2021-09-29,1,,,,,トウキョウセミナースタジオ,0
1228,5010001221424,新規,0,2021-09-29,2021-09-29,株式会社コア・ブレイン,,株式会社,東京都,千代田区,丸の内１丁目８番３号丸の内トラストタワー２０階,,13,101,1000005,,,,,,,2021-09-29,1,,,,,コアブレイン,0
1229,5010001221457,新規,0,2021-09-29,2021-09-29,株式会社シン・コモン,,株式会社,東京都,千代田区,九段南１丁目５番６号りそな九段ビル５ＦＫＳフロア,,13,101,1020074,,,,,,,2021-09-29,1,,,,,シンコモン,0
1230,5010001221465,新規,0,2021-09-29,2021-09-29,株式会社Ｒｅｇｅｎｅｒａｔｉｏｎ　Ｖａｎｇｕａｒｄ,,株式会社,東京都,中央区,銀座１丁目２２番１１号銀座大竹ビジデンス２階,,13,102,1040061,,,,,,,2021-09-29,1,,,,,リジェネレーションバンガード,0
1232,5010003035847,新規,0,2021-09-29,2021-09-29,Ｍｉｔｔｅ－Ｖｅｒｓｏ合同会社,,合同会社,東京都,中央区,京橋２丁目８番２１号仁大ビル天翔オフィス京橋７階,,13,102,1040031,,,,,,,2021-09-29,1,,,,,ミッテヴェルソ,0
1233,5010003035913,新規,0,2021-09-29,2021-09-29,合同会社ＳＵＣＣＥＳＳ　ＬＩＮＫ,,合同会社,東京都,中央区,銀座７丁目１３番６号,,13,102,1040061,,,,,,,2021-09-29,1,,,,,サクセスリンク,0
1239,5010401162904,新規,0,2021-09-29,2021-09-29,株式会社１７５４,,株式会社,東京都,港区,西麻布３丁目２４番１６号,,13,103,1060031,,,,,,,2021-09-29,1,,,,,イチナナゴーヨン,0
1245,5010703005959,新規,0,2021-09-29,2021-09-29,補助金活用支援合同会社,,合同会社,東京都,品川区,大井３丁目６番９号アーバンライフ大井町１階,,13,109,1400014,,,,,,,2021-09-29,1,,,,,ホジョキンカツヨウシエン,0
1247,5010801032351,新規,0,2021-09-29,2021-09-29,株式会社川京,,株式会社,東京都,大田区,南馬込２丁目２１番４号,,13,111,1430025,,,,,,,2021-09-29,1,,,,,カワキョウ,0
1250,5010901049535,新規,0,2021-09-29,2021-09-29,株式会社ｐａｒａ,,株式会社,東京都,世田谷区,代沢１丁目１９－５シャルム代沢１０５,,13,112,1550032,,,,,,,2021-09-29,1,,,,,パラ,0
1258,5011001142866,新規,0,2021-09-29,2021-09-29,株式会社コラボフィット,,株式会社,東京都,渋谷区,恵比寿１丁目２３番２１号,,13,113,1500013,,,,,,,2021-09-29,1,,,,,コラボフィット,0
1259,5011001142932,新規,0,2021-09-29,2021-09-29,株式会社ＳＴＡＴＩＯＮ,,株式会社,東京都,渋谷区,神南１丁目１２番１４号渋谷宮田ビル６０７号,,13,113,1500041,,,,,,,2021-09-29,1,,,,,ステーション,0
1260,5011001143055,新規,0,2021-09-29,2021-09-29,株式会社フィフティトウキョウ,,株式会社,東京都,渋谷区,神宮前３丁目１番２４－２１５号,,13,113,1500001,,,,,,,2021-09-29,1,,,,,フィフティトウキョウ,0
1261,5011003013371,新規,0,2021-09-29,2021-09-29,合同会社ペンギン,,合同会社,東京都,渋谷区,渋谷２丁目１９－１５宮益坂ビルディング６０９,,13,113,1500002,,,,,,,2021-09-29,1,,,,,ペンギン,0
1262,5011003013405,新規,0,2021-09-29,2021-09-29,合同会社タレント・アクイジション,,合同会社,東京都,渋谷区,神宮前６丁目２３番４号桑野ビル２階,,13,113,1500001,,,,,,,2021-09-29,1,,,,,タレントアクイジション,0
1263,5011003013446,新規,0,2021-09-29,2021-09-29,合同会社Ｃａｎａｌ,,合同会社,東京都,渋谷区,富ヶ谷２丁目２０番８－７０６号,,13,113,1510063,,,,,,,2021-09-29,1,,,,,カナル,0
1264,5011003013454,新規,0,2021-09-29,2021-09-29,装合同会社,,合同会社,東京都,渋谷区,神宮前６丁目２３番４号桑野ビル２階,,13,113,1500001,,,,,,,2021-09-29,1,,,,,ソウ,0
1266,5011101096401,新規,0,2021-09-29,2021-09-29,Ｐｌａｃｅ　Ｍ株式会社,,株式会社,東京都,新宿区,新宿１丁目２番１１号近代ビル３階,,13,104,1600022,,,,,,,2021-09-29,1,,,,,プレイスエム,0
1270,5011301027206,新規,0,2021-09-29,2021-09-29,株式会社Ｇｏｏｄｂｒｉｇｈｔ．,,株式会社,東京都,杉並区,高円寺北２丁目２－１２,,13,115,1660002,,,,,,,2021-09-29,1,,,,,グッドブライト,0
1273,5011401023699,新規,0,2021-09-29,2021-09-29,株式会社Ｈ．Ｔ．Ｃ,,株式会社,東京都,板橋区,南常盤台１丁目１９番１号,,13,119,1740072,,,,,,,2021-09-29,1,,,,,エイチティーシー,0
1284,5011701024736,新規,0,2021-09-29,2021-09-29,株式会社家幸興業,,株式会社,東京都,江戸川区,江戸川２丁目３４番１３号,,13,123,1320013,,,,,,,2021-09-29,1,,,,,ヤコウコウギョウ,0
1286,5012803002605,新規,0,2021-09-29,2021-09-29,合同会社ＳａｎＧｏ,,合同会社,東京都,立川市,錦町２丁目１番２５号,,13,202,1900022,,,,,,,2021-09-29,1,,,,,サンゴ,0
1291,5013301048066,新規,0,2021-09-29,2021-09-29,株式会社ＧＯＲＯ,,株式会社,東京都,豊島区,南長崎３丁目３０番１３号ラグゼ南長崎１０２号,,13,116,1710052,,,,,,,2021-09-29,1,,,,,ゴロ,0
1300,5020003020550,新規,0,2021-09-29,2021-09-29,合同会社インアンドアウト,,合同会社,神奈川県,横浜市南区,伏見町３番地,,14,105,2320001,,,,,,,2021-09-29,1,,,,,インアンドアウト,0
1306,5021001074051,新規,0,2021-09-29,2021-09-29,株式会社バチスカーフ,,株式会社,神奈川県,秦野市,今泉３０４番地,,14,211,2570014,,,,,,,2021-09-29,1,,,,,バチスカーフ,0
1315,5030001144499,新規,0,2021-09-29,2021-09-29,株式会社ｗｉｌｄｓｉｄｅ,,株式会社,埼玉県,志木市,本町５丁目２４番２１号,,11,228,3530004,,,,,,,2021-09-29,1,,,,,ワイルドサイド,0
1321,5030003018016,新規,0,2021-09-29,2021-09-29,合同会社オーシャントレーディング,,合同会社,埼玉県,川口市,大字伊刈１５１８番地,,11,203,3330865,,,,,,,2021-09-29,1,,,,,オーシャントレーディング,0
1327,5040001120292,新規,0,2021-09-29,2021-09-29,株式会社ソルアークセキサン,,株式会社,千葉県,習志野市,藤崎５丁目１番２１号,,12,216,2750017,,,,,,,2021-09-29,1,,,,,ソルアークセキサン,0
1328,5040001120301,新規,0,2021-09-29,2021-09-29,株式会社ＦＡＨＡＤオート,,株式会社,千葉県,松戸市,八ケ崎７丁目１－７ホワイトレジデンス１０２号室,,12,207,2700023,,,,,,,2021-09-29,1,,,,,ファーハドオート,0
1337,5050001049886,新規,0,2021-09-29,2021-09-29,ＭＨ　ＴＲＡＤＥＲＳ株式会社,,株式会社,茨城県,坂東市,上出島２７番地２２,,08,228,3060654,,,,,,,2021-09-29,1,,,,,エムエイチトレーダーズ,0
1338,5050003006101,新規,0,2021-09-29,2021-09-29,合同会社プロネット,,合同会社,茨城県,つくば市,並木３丁目１８－１０,,08,220,3050044,,,,,,,2021-09-29,1,,,,,プロネット,0
1349,5080403004370,新規,0,2021-09-29,2021-09-29,ＮＫＮ合同会社,,合同会社,静岡県,浜松市北区,細江町気賀７７１４番地,,22,135,4311305,,,,,,,2021-09-29,1,,,,,エヌケーエヌ,0
1367,5120001240702,新規,0,2021-09-29,2021-09-29,株式会社ＧＡＧ,,株式会社,大阪府,大阪市中央区,西心斎橋２丁目１７番１３号,,27,128,5420086,,,,,,,2021-09-29,1,,,,,ギャグ,0
1368,5120001240710,新規,0,2021-09-29,2021-09-29,株式会社ＷＩＬＬＯＷ,,株式会社,大阪府,大阪市西区,靱本町１丁目１４番１９号,,27,106,5500004,,,,,,,2021-09-29,1,,,,,ウィロー,0
1371,5120003020268,新規,0,2021-09-29,2021-09-29,ＪＭＪ合同会社,,合同会社,大阪府,大阪市城東区,放出西３丁目１１－９,,27,118,5360011,,,,,,,2021-09-29,1,,,,,ジェイエムジェイ,0
1375,5120103004369,新規,0,2021-09-29,2021-09-29,ＤＰＳＪａｐａｎ合同会社,,合同会社,大阪府,堺市中区,深井沢町２７９－１－７０５,,27,142,5998236,,,,,,,2021-09-29,1,,,,,ディーピーエスジャパン,0
1377,5120901044954,新規,0,2021-09-29,2021-09-29,株式会社ｃｏｌｏｒｆｕｌ,,株式会社,大阪府,茨木市,庄１丁目１９番１７号,,27,211,5670806,,,,,,,2021-09-29,1,,,,,カラフル,0
1378,5120901044962,新規,0,2021-09-29,2021-09-29,株式会社クロネ,,株式会社,大阪府,高槻市,城北町１丁目８番９号,,27,207,5690071,,,,,,,2021-09-29,1,,,,,クロネ,0
1381,5122001035198,新規,0,2021-09-29,2021-09-29,エイトワン株式会社,,株式会社,大阪府,東大阪市,稲葉１丁目２番４７号,,27,227,5780925,,,,,,,2021-09-29,1,,,,,エイトワン,0
1384,5130001070157,新規,0,2021-09-29,2021-09-29,株式会社アナンパートナーズ,,株式会社,京都府,宇治市,小倉町蓮池１４５番地の４２,,26,204,6110042,,,,,,,2021-09-29,1,,,,,アナンパートナーズ,0
1385,5130001070181,新規,0,2021-09-29,2021-09-29,株式会社おひさまコーポレーション,,株式会社,京都府,京都市下京区,梅小路本町２５番地梅小路スカイハイツＡ棟４０４,,26,106,6008856,,,,,,,2021-09-29,1,,,,,オヒサマコーポレーション,0
1387,5130003007504,新規,0,2021-09-29,2021-09-29,合同会社ＣＨＡＢＵＹＡ,,合同会社,京都府,京都市中京区,西ノ京職司町６９インパクトイク北３０６,,26,104,6048381,,,,,,,2021-09-29,1,,,,,チャブヤ,0
1392,5140001123161,新規,0,2021-09-29,2021-09-29,株式会社鈴木通信,,株式会社,兵庫県,神戸市東灘区,向洋町中７丁目２番地の２・８１６号,,28,101,6580032,,,,,,,2021-09-29,1,,,,,スズキツウシン,0
1395,5140005025833,新規,0,2021-09-29,2021-09-29,特定非営利活動法人ビレッジ,,その他の設立登記法人,兵庫県,西宮市,甲陽園山王町１番９３－５０１号,,28,204,6620018,,,,,,,2021-09-29,1,,,,,ビレッジ,0
1397,5160001023649,新規,0,2021-09-29,2021-09-29,ケイズ株式会社,,株式会社,滋賀県,大津市,森３丁目５番１５号,,25,201,5202274,,,,,,,2021-09-29,1,,,,,ケイズ,0
1413,5180001147958,新規,0,2021-09-29,2021-09-29,株式会社ＤＬＰ,,株式会社,愛知県,名古屋市千種区,今池３丁目１２番２０号,,23,101,4640850,,,,,,,2021-09-29,1,,,,,ディーエルピー,0
1424,5180005019443,新規,0,2021-09-29,2021-09-29,特定非営利活動法人カレッジの森協会,,その他の設立登記法人,愛知県,名古屋市守山区,喜多山１丁目１番１１号,,23,113,4630017,,,,,,,2021-09-29,1,,,,,カレッジノモリキョウカイ,0
1428,5180303005112,新規,0,2021-09-29,2021-09-29,合同会社きのえね屋,,合同会社,愛知県,豊田市,寺部町１丁目５５番地,,23,211,4710017,,,,,,,2021-09-29,1,,,,,キノエネヤ,0
1435,5220001024442,新規,0,2021-09-29,2021-09-29,株式会社Ｔａｃｔｉｃａｌ　Ｄｅｓｉｇｎ,,株式会社,石川県,金沢市,小立野２丁目１４番１３号,,17,201,9200942,,,,,,,2021-09-29,1,,,,,タクティカルデザイン,0
1439,5220005008598,新規,0,2021-09-29,2021-09-29,一般社団法人金沢あかりメンテナンス協会,,その他の設立登記法人,石川県,金沢市,進和町６７番地,,17,201,9218006,,,,,,,2021-09-29,1,,,,,カナザワアカリメンテナンスキョウカイ,0
1451,5260001035989,新規,0,2021-09-29,2021-09-29,株式会社エスケークリエイト,,株式会社,岡山県,岡山市南区,藤田２１５９番地,,33,104,7010221,,,,,,,2021-09-29,1,,,,,エスケークリエイト,0
1452,5260001035997,新規,0,2021-09-29,2021-09-29,株式会社リクエストプラス,,株式会社,岡山県,岡山市北区,東古松４８５番地４‐２階,,33,101,7000921,,,,,,,2021-09-29,1,,,,,リクエストプラス,0
1455,5270003001352,新規,0,2021-09-29,2021-09-29,合同会社Ｃｏｐｉａ,,合同会社,鳥取県,鳥取市,商栄町２５１番地４,,31,201,6800912,,,,,,,2021-09-29,1,,,,,コピア,0
1456,5280001008514,新規,0,2021-09-29,2021-09-29,株式会社ＨＡＫＵＲＡＫＵ,,株式会社,島根県,松江市,八束町波入４６２番地,,32,201,6901404,,,,,,,2021-09-29,1,,,,,ハクラク,0
1463,5290003011647,新規,0,2021-09-29,2021-09-29,合同会社Ｗｉｍ,,合同会社,福岡県,福岡市東区,三苫１丁目１２－１３,,40,131,8110201,,,,,,,2021-09-29,1,,,,,ウィム,0
1474,5340003003564,新規,0,2021-09-29,2021-09-29,合同会社すい水めだか,,合同会社,鹿児島県,鹿児島市,吉野２丁目１２番８－１号,,46,201,8920877,,,,,,,2021-09-29,1,,,,,スイスイメダカ,0
1475,5340005009345,新規,0,2021-09-29,2021-09-29,医療法人はしぐち歯科クリニック,,その他の設立登記法人,鹿児島県,出水市,上知識町５４８番地,,46,208,8990212,,,,,,,2021-09-29,1,,,,,ハシグチシカクリニック,0
1479,5360003011474,新規,0,2021-09-29,2021-09-29,合同会社沖縄資産投資総合研究所,,合同会社,沖縄県,那覇市,字宇栄原７２２番地,,47,201,9010153,,,,,,,2021-09-29,1,,,,,オキナワシサントウシソウゴウケンキュウショ,0
1489,5400001015613,新規,0,2021-09-29,2021-09-29,株式会社リアライズ岩手,,株式会社,岩手県,花巻市,台第２地割５７番地９,,03,205,0250305,,,,,,,2021-09-29,1,,,,,リアライズイワテ,0
1505,5490001009994,新規,0,2021-09-29,2021-09-29,株式会社なでしこ,,株式会社,高知県,高知市,一宮東町５丁目２９－１２,,39,201,7818132,,,,,,,2021-09-29,1,,,,,ナデシコ,0
1508,5500005008421,新規,0,2021-09-29,2021-09-29,一般社団法人みのる,,その他の設立登記法人,愛媛県,松山市,土居田町２２０番地７,,38,201,7900056,,,,,,,2021-09-29,1,,,,,ミノル,0
1520,6010001221407,新規,0,2021-09-29,2021-09-29,株式会社Ｐｒｅｓｉｄｅｎｔ　Ｌｉｎｋ,,株式会社,東京都,中央区,日本橋小伝馬町９番５－１１０５号,,13,102,1030001,,,,,,,2021-09-29,1,,,,,プレジデントリンク,0
1521,6010001221415,新規,0,2021-09-29,2021-09-29,パネコーホールディングス株式会社,,株式会社,東京都,中央区,八重洲２丁目４番１号,,13,102,1040028,,,,,,,2021-09-29,1,,,,,パネコーホールディングス,0
1526,6010003035912,新規,0,2021-09-29,2021-09-29,Ｅｎｅｒｇｙ　Ａｓｐｅｃｔｓ合同会社,,合同会社,東京都,中央区,日本橋兜町６番５号,,13,102,1030026,,,,,,,2021-09-29,1,,,,,エナジーアスペクツ,0
1527,6010003035929,新規,0,2021-09-29,2021-09-29,合同会社ＣＨＯ,,合同会社,東京都,中央区,銀座１丁目２２番１１号２Ｆ,,13,102,1040061,,,,,,,2021-09-29,1,,,,,チョウ,0
1528,6010005034020,新規,0,2021-09-29,2021-09-29,一般社団法人日本婦人科美容・形成外科研究会,,その他の設立登記法人,東京都,中央区,銀座３丁目３番１３号阪急阪神銀座ビル７階,,13,102,1040061,,,,,,,2021-09-29,1,,,,,ニホンフジンカビヨウケイセイゲカケンキュウカイ,0
1529,6010101014875,新規,0,2021-09-29,2021-09-29,株式会社ＡＢＣ．ＪＡＰＡＮ,,株式会社,東京都,八王子市,大谷町１０４３番地４３,,13,201,1920034,,,,,,,2021-09-29,1,,,,,,0
1535,6010401162903,新規,0,2021-09-29,2021-09-29,株式会社北里ＢＦＰ,,株式会社,東京都,港区,南青山５丁目５番１１号,,13,103,1070062,,,,,,,2021-09-29,1,,,,,キタサトビーエフピー,0
1540,6010403026206,新規,0,2021-09-29,2021-09-29,Ｓｏｕｔｈｅｒｎ　Ｃｒｏｓｓ合同会社,,合同会社,東京都,港区,南青山２丁目２番１５号ウィン青山１２１４号,,13,103,1070062,,,,,,,2021-09-29,1,,,,,サザンクロス,0
1544,6010603009175,新規,0,2021-09-29,2021-09-29,合同会社ＬＯＴＵＳ,,合同会社,東京都,墨田区,江東橋３丁目６番１２号ペンシルビル６階,,13,107,1300022,,,,,,,2021-09-29,1,,,,,ロータス,0
1545,6010701041583,新規,0,2021-09-29,2021-09-29,ＣＵＲＩＯＯ　ＪＡＰＡＮ株式会社,,株式会社,東京都,品川区,西五反田３丁目９番１８号,,13,109,1410031,,,,,,,2021-09-29,1,,,,,キュリオジャパン,0
1559,6011001142898,新規,0,2021-09-29,2021-09-29,Ｄａｐｈｎｅ　Ｅｎｔｅｒｔａｉｎｍｅｎｔ株式会社,,株式会社,東京都,渋谷区,富ヶ谷１丁目９－２１－５０４,,13,113,1510063,,,,,,,2021-09-29,1,,,,,ダフネエンタテインメント,0
1560,6011001143137,新規,0,2021-09-29,2021-09-29,株式会社白,,株式会社,東京都,渋谷区,東３丁目２４番１１－２０２号,,13,113,1500011,,,,,,,2021-09-29,1,,,,,シロ,0
1564,6011003013461,新規,0,2021-09-29,2021-09-29,合同会社新宿ＭＩＬＡＮＯ０５,,合同会社,東京都,目黒区,五本木１丁目１２番１７号,,13,110,1530053,,,,,,,2021-09-29,1,,,,,シンジュクミラノゼロファイブ,0
1568,6011101096409,新規,0,2021-09-29,2021-09-29,大和ＳＫＹ株式会社,,株式会社,東京都,新宿区,高田馬場４丁目１０番１３号,,13,104,1690075,,,,,,,2021-09-29,1,,,,,ダイワスカイ,0
1573,6011301027196,新規,0,2021-09-29,2021-09-29,株式会社ｔｅｃ,,株式会社,東京都,杉並区,梅里２丁目２４番１２号ツカダビル５０１,,13,115,1660011,,,,,,,2021-09-29,1,,,,,テック,0
1574,6011301027205,新規,0,2021-09-29,2021-09-29,株式会社ラビットペイジ,,株式会社,東京都,杉並区,高円寺南４丁目２４番７号,,13,115,1660003,,,,,,,2021-09-29,1,,,,,ラビットペイジ,0
1589,6011701024735,新規,0,2021-09-29,2021-09-29,株式会社５１,,株式会社,東京都,江戸川区,松江１丁目２０－１２,,13,123,1320025,,,,,,,2021-09-29,1,,,,,フィフティーワン,0
1596,6012401038331,新規,0,2021-09-29,2021-09-29,株式会社ＣＯＥＵＲＳ,,株式会社,東京都,府中市,四谷５丁目４１番地の５４,,13,206,1830035,,,,,,,2021-09-29,1,,,,,,0
1597,6012403005040,新規,0,2021-09-29,2021-09-29,合同会社松本商事,,合同会社,東京都,三鷹市,北野１丁目１０番１号,,13,204,1810003,,,,,,,2021-09-29,1,,,,,マツモトショウジ,0
1603,6012803002612,新規,0,2021-09-29,2021-09-29,合同会社アイシークウエルサービス,,合同会社,東京都,武蔵村山市,中央３丁目１１番地,,13,223,2080003,,,,,,,2021-09-29,1,,,,,アイシークウエルサービス,0
1611,6013301048057,新規,0,2021-09-29,2021-09-29,行雲商事株式会社,,株式会社,東京都,豊島区,西巣鴨１丁目８番３号レフィーズ大塚７０２,,13,116,1700001,,,,,,,2021-09-29,1,,,,,コウウンショウジ,0
1620,6020001143162,新規,0,2021-09-29,2021-09-29,株式会社江端塗装,,株式会社,神奈川県,川崎市川崎区,川中島２丁目６番１３－２０２号ＮＥＯ－ＦＬＡＴ,,14,131,2100803,,,,,,,2021-09-29,1,,,,,エバタトソウ,0
1621,6020001143195,新規,0,2021-09-29,2021-09-29,株式会社ママコーチング,,株式会社,神奈川県,川崎市麻生区,高石２丁目５１番１５号,,14,137,2150003,,,,,,,2021-09-29,1,,,,,ママコーチング,0
1635,6021001074034,新規,0,2021-09-29,2021-09-29,Ａｓａｍｉｄｏｒｉ　Ｌａｂｏ株式会社,,株式会社,神奈川県,小田原市,早川２丁目４番地１９,,14,206,2500021,,,,,,,2021-09-29,1,,,,,アサミドリラボ,0
1636,6021001074050,新規,0,2021-09-29,2021-09-29,株式会社オカノ不動産,,株式会社,神奈川県,秦野市,堀西９１９番地,,14,211,2591331,,,,,,,2021-09-29,1,,,,,オカノフドウサン,0
1637,6021003010937,新規,0,2021-09-29,2021-09-29,合同会社ロトモ,,合同会社,神奈川県,中郡二宮町,山西３５番地の２０８,,14,342,2590124,,,,,,,2021-09-29,1,,,,,ロトモ,0
1644,6030001144515,新規,0,2021-09-29,2021-09-29,株式会社ＨｅｌｌｏＣｉｒｃｕｓ,,株式会社,埼玉県,川口市,前上町１番３１号,,11,203,3330843,,,,,,,2021-09-29,1,,,,,ハローサーカス,0
1647,6030003017990,新規,0,2021-09-29,2021-09-29,合同会社ＴＯ　ＴＲＥＥ,,合同会社,埼玉県,さいたま市桜区,大字神田２２番地２３,,11,106,3380812,,,,,,,2021-09-29,1,,,,,トゥツリー,0
1648,6030003018015,新規,0,2021-09-29,2021-09-29,合同会社Ｄａｎ＆Ｆａｍｉｌｙ　Ｗｏｒｋｓ,,合同会社,埼玉県,和光市,新倉２丁目７番５７号,,11,229,3510115,,,,,,,2021-09-29,1,,,,,ダンアンドファミリーワークス,0
1649,6030003018023,新規,0,2021-09-29,2021-09-29,コマツリペアテクニクス合同会社,,合同会社,埼玉県,春日部市,小渕１３４番地１ＷＯＲＫＯＦＦＩＣＥ・Ｋ＆Ｎ２０１,,11,214,3440007,,,,,,,2021-09-29,1,,,,,コマツリペアテクニクス,0
1659,6050001049885,新規,0,2021-09-29,2021-09-29,株式会社ＭＩＫＩＤＩ　ＴＲＡＤＩＮＧ,,株式会社,茨城県,常総市,大沢１９４３番地５,,08,211,3002727,,,,,,,2021-09-29,1,,,,,ミキディトレーディング,0
1665,6060003003815,新規,0,2021-09-29,2021-09-29,合同会社クロスリバー,,合同会社,栃木県,真岡市,熊倉２丁目２８番地４、２０１,,09,209,3214369,,,,,,,2021-09-29,1,,,,,クロスリバー,0
1678,6110003004584,新規,0,2021-09-29,2021-09-29,新・新潟米ネットワーク合同会社,,合同会社,新潟県,新潟市江南区,木津３丁目８番１１号,,15,104,9500206,,,,,,,2021-09-29,1,,,,,シンニイガタマイネットワーク,0
1694,6120901044953,新規,0,2021-09-29,2021-09-29,ｍｙ　ｐｏｎｏ株式会社,,株式会社,大阪府,高槻市,郡家新町４０番７号,,27,207,5691136,,,,,,,2021-09-29,1,,,,,マイポノ,0
1696,6120905006231,新規,0,2021-09-29,2021-09-29,一般社団法人ヨガトゥーラデザイン協会,,その他の設立登記法人,大阪府,豊中市,本町３丁目８番６号,,27,203,5600021,,,,,,,2021-09-29,1,,,,,ヨガトゥーラデザインキョウカイ,0
1706,6140001123160,新規,0,2021-09-29,2021-09-29,株式会社ＩＲＯＤＯＲＩ,,株式会社,兵庫県,宝塚市,川面５丁目１０番３２号,,28,214,6650842,,,,,,,2021-09-29,1,,,,,イロドリ,0
1707,6140001123169,新規,0,2021-09-29,2021-09-29,株式会社なかよし山荘,,株式会社,兵庫県,赤穂郡上郡町,高山１２２８番地６２０,,28,481,6781254,,,,,,,2021-09-29,1,,,,,ナカヨシサンソウ,0
1708,6140001123177,新規,0,2021-09-29,2021-09-29,株式会社ＮＥＸＴ　ＤＯＯＲ,,株式会社,兵庫県,尼崎市,武庫之荘東２丁目３３番１５－１０２号,,28,202,6610032,,,,,,,2021-09-29,1,,,,,ネクストドア,0
1713,6150001024952,新規,0,2021-09-29,2021-09-29,株式会社松下組,,株式会社,奈良県,桜井市,大字豊田３０１番地の３,,29,206,6330079,,,,,,,2021-09-29,1,,,,,マツシタグミ,0
1716,6160001023648,新規,0,2021-09-29,2021-09-29,株式会社Ｍネットサービス,,株式会社,滋賀県,栗東市,小柿７丁目５番１１－３０６号,,25,208,5203024,,,,,,,2021-09-29,1,,,,,エムネットサービス,0
1726,6180001147940,新規,0,2021-09-29,2021-09-29,東海西建設株式会社,,株式会社,愛知県,津島市,東中地町２丁目３５番地３,,23,208,4960846,,,,,,,2021-09-29,1,,,,,トウカイニシケンセツ,0
1727,6180001147957,新規,0,2021-09-29,2021-09-29,株式会社Ｌｉｂエステート,,株式会社,愛知県,小牧市,常普請３丁目１５２番地,,23,219,4850044,,,,,,,2021-09-29,1,,,,,リブエステート,0
1732,6180003023000,新規,0,2021-09-29,2021-09-29,合同会社丸家,,合同会社,愛知県,あま市,森山江端２４番地６,,23,237,4901223,,,,,,,2021-09-29,1,,,,,マルヤ,0
1734,6190001028710,新規,0,2021-09-29,2021-09-29,ＡＮＴＥＬＯＰＥ株式会社,,株式会社,三重県,四日市市,波木町１２８番地,,24,202,5100961,,,,,,,2021-09-29,1,,,,,アンテロープ,0
1741,6220001024441,新規,0,2021-09-29,2021-09-29,株式会社ノトハハソ,,株式会社,石川県,珠洲市,東山中町ホの部２番地,,17,205,9271443,,,,,,,2021-09-29,1,,,,,ノトハハソ,0
1758,6290003011646,新規,0,2021-09-29,2021-09-29,合同会社ウィズトレーニング,,合同会社,福岡県,福岡市東区,舞松原２丁目７番１１号,,40,131,8130042,,,,,,,2021-09-29,1,,,,,ウィズトレーニング,0
1763,6310005008547,新規,0,2021-09-29,2021-09-29,特定非営利活動法人街づくり・防災諫早,,その他の設立登記法人,長崎県,諫早市,城見町２７番１１号,,42,204,8540005,,,,,,,2021-09-29,1,,,,,マチヅクリボウサイイサハヤ,0
1765,6340003003571,新規,0,2021-09-29,2021-09-29,合同会社離島総合開発,,合同会社,鹿児島県,熊毛郡中種子町,田島１５５４番地,,46,501,8913607,,,,,,,2021-09-29,1,,,,,リトウソウゴウカイハツ,0
1772,6370001047626,新規,0,2021-09-29,2021-09-29,株式会社Ａ－ｏｎｅ　Ｕｎｉｔｙ,,株式会社,宮城県,柴田郡川崎町,青根温泉８番地１０,,04,324,9890908,,,,,,,2021-09-29,1,,,,,エーワンユニティ,0
1779,6410001012971,新規,0,2021-09-29,2021-09-29,Ｖａｔ株式会社,,株式会社,秋田県,秋田市,広面字野添６４－６,,05,201,0100041,,,,,,,2021-09-29,1,,,,,,0
1787,6430005014277,新規,0,2021-09-29,2021-09-29,社会保険労務士法人リープレス,,その他の設立登記法人,北海道,札幌市豊平区,月寒西一条８丁目６番１２号,,01,105,0620021,,,,,,,2021-09-29,1,,,,,リープレス,0
1791,6480001011505,新規,0,2021-09-29,2021-09-29,株式会社エイコーファーム,,株式会社,徳島県,美馬市,脇町木ノ内３７１８番地,,36,207,7793620,,,,,,,2021-09-29,1,,,,,エイコーファーム,0
1798,6500001023704,新規,0,2021-09-29,2021-09-29,株式会社ユーズ,,株式会社,愛媛県,松山市,南吉田町１８５４番地５,,38,201,7918042,,,,,,,2021-09-29,1,,,,,ユーズ,0
1799,6500005008420,新規,0,2021-09-29,2021-09-29,農事組合法人これよし,,その他の設立登記法人,愛媛県,宇和島市,三間町是能３０１番地,,38,203,7981105,,,,,,,2021-09-29,1,,,,,コレヨシ,0
1810,7010001221380,新規,0,2021-09-29,2021-09-29,株式会社Ｔ＆Ｉパートナーズ,,株式会社,東京都,文京区,小石川２丁目１８番２３号,,13,105,1120002,,,,,,,2021-09-29,1,,,,,ティーアンドアイパートナーズ,0
1811,7010001221414,新規,0,2021-09-29,2021-09-29,中央システムホールディングス株式会社,,株式会社,東京都,中央区,八重洲２丁目４番１号,,13,102,1040028,,,,,,,2021-09-29,1,,,,,チュウオウシステムホールディングス,0
1818,7010403026196,新規,0,2021-09-29,2021-09-29,ＩＫＲＳ　ＪＡＰＡＮ合同会社,,合同会社,東京都,港区,浜松町２丁目２番１５号浜松町ダイヤビル２階,,13,103,1050013,,,,,,,2021-09-29,1,,,,,イクリスジャパン,0
1819,7010403026205,新規,0,2021-09-29,2021-09-29,ＮＹ合同会社,,合同会社,東京都,港区,西新橋２丁目１４番１号西新橋アルファレジデンス１５０５,,13,103,1050003,,,,,,,2021-09-29,1,,,,,エヌワイ,0
1820,7010403026213,新規,0,2021-09-29,2021-09-29,堺ロジスティック合同会社,,合同会社,東京都,港区,東新橋１丁目５番２号汐留シティセンター,,13,103,1050021,,,,,,,2021-09-29,1,,,,,サカイロジスティック,0
1840,7011001142897,新規,0,2021-09-29,2021-09-29,株式会社ＶｅＬｉｎｅ,,株式会社,東京都,渋谷区,広尾１丁目１３番１号,,13,113,1500012,,,,,,,2021-09-29,1,,,,,ヴィライン,0
1841,7011001142955,新規,0,2021-09-29,2021-09-29,株式会社ＤｒｕｎｋｅｎＢｉｒｄ,,株式会社,東京都,渋谷区,神宮前６丁目２３番４号桑野ビル２階,,13,113,1500001,,,,,,,2021-09-29,1,,,,,ドランクンバード,0
1842,7011001143012,新規,0,2021-09-29,2021-09-29,Ｂｕｚｚ　Ｍａｋｅｒ株式会社,,株式会社,東京都,渋谷区,恵比寿３丁目４０番１９－１０４号,,13,113,1500013,,,,,,,2021-09-29,1,,,,,バズメーカー,0
1845,7011101096399,新規,0,2021-09-29,2021-09-29,株式会社フリーア,,株式会社,東京都,新宿区,新宿２丁目１１番７号第３３宮廷ビル５階,,13,104,1600022,,,,,,,2021-09-29,1,,,,,フリーア,0
1849,7011303004184,新規,0,2021-09-29,2021-09-29,合同会社オスカーワークス,,合同会社,東京都,杉並区,南荻窪１丁目３５番１３号Ｙ’ｓビル２０１,,13,115,1670052,,,,,,,2021-09-29,1,,,,,オスカーワークス,0
1860,7011801039748,新規,0,2021-09-29,2021-09-29,万代商事株式会社,,株式会社,東京都,葛飾区,奥戸７丁目１４番１２,,13,122,1240022,,,,,,,2021-09-29,1,,,,,マンダイショウジ,0
1863,7012803002611,新規,0,2021-09-29,2021-09-29,合同会社Ｇ－Ａｒｔ,,合同会社,東京都,立川市,高松町１丁目３０番地１３号,,13,202,1900011,,,,,,,2021-09-29,1,,,,,ジーアート,0
1879,7020003020549,新規,0,2021-09-29,2021-09-29,合同会社エコハウス,,合同会社,神奈川県,横浜市金沢区,六浦４丁目１７番１０号大橋ハイツＡ１０１,,14,108,2360031,,,,,,,2021-09-29,1,,,,,エコハウス,0
1884,7021001074025,新規,0,2021-09-29,2021-09-29,株式会社ＮＳ　ＴＲＡＤＩＮＧ,,株式会社,神奈川県,座間市,座間１丁目３１８７番地の３宝アパート５号室,,14,216,2520027,,,,,,,2021-09-29,1,,,,,エヌエストレーディング,0
1888,7030001144489,新規,0,2021-09-29,2021-09-29,株式会社Ｔ２　ＩＮＮＯＶＡＴＩＯＮ,,株式会社,埼玉県,吉川市,高富２丁目４番地２３,,11,243,3420036,,,,,,,2021-09-29,1,,,,,ティーツーイノベーション,0
1889,7030001144514,新規,0,2021-09-29,2021-09-29,株式会社Ｎｅｘｔ　Ａｒｃｈ．,,株式会社,埼玉県,越谷市,レイクタウン１丁目２３番地４シンフォニーＡ２０１,,11,222,3430828,,,,,,,2021-09-29,1,,,,,ネクストアーチ,0
1890,7030001144547,新規,0,2021-09-29,2021-09-29,株式会社Ｔｈｉｒｄ　ｈｕｔ,,株式会社,埼玉県,入間市,高倉３丁目５番２６号１０３,,11,225,3580021,,,,,,,2021-09-29,1,,,,,サードハット,0
1893,7030003018014,新規,0,2021-09-29,2021-09-29,ファイブフィンガーズ合同会社,,合同会社,埼玉県,さいたま市南区,神明１丁目２番１－１０６号,,11,108,3360023,,,,,,,2021-09-29,1,,,,,ファイブフィンガーズ,0
1894,7030003018022,新規,0,2021-09-29,2021-09-29,合同会社ＭＫ　ｃｏｎｎｅｃｔｉｏｎ,,合同会社,埼玉県,川越市,大字下新河岸９６番地１（コンフォート・フォレストⅡ２０６号室）,00124369,11,201,3501136,,,,,,,2021-09-29,1,,,,,エムケーコネクション,0
1910,7050001049884,新規,0,2021-09-29,2021-09-29,株式会社Ｄａｉｋｏｋｕ　Ｅｘｐｒｅｓｓ,,株式会社,茨城県,水戸市,石川１丁目３９３１番地の５－７０５,,08,201,3100905,,,,,,,2021-09-29,1,,,,,ダイコクエクスプレス,0
1914,7060001034118,新規,0,2021-09-29,2021-09-29,株式会社竜也,,株式会社,栃木県,那須烏山市,中山７８０番地６,,09,215,3210604,,,,,,,2021-09-29,1,,,,,タツヤ,0
1917,7060003003814,新規,0,2021-09-29,2021-09-29,合同会社ＮＲＳ,,合同会社,栃木県,佐野市,浅沼町５６７番地７丸正ビルⅢ,00124361,09,204,3270831,,,,,,,2021-09-29,1,,,,,エヌアールエス,0
1947,7120001240700,新規,0,2021-09-29,2021-09-29,株式会社ライフアクティベーション,,株式会社,大阪府,大阪市中央区,難波５丁目１番６０号ＷｅＷｏｒｋなんばスカイオ２７Ｆ,,27,128,5420076,,,,,,,2021-09-29,1,,,,,ライフアクティベーション,0
1948,7120001240709,新規,0,2021-09-29,2021-09-29,株式会社ｋｕｎｉｕｍｉ,,株式会社,大阪府,大阪市鶴見区,横堤１丁目７番３５号ヴィアソーレ鶴見Ｂ３０３,,27,124,5380052,,,,,,,2021-09-29,1,,,,,クニウミ,0
1949,7120001240717,新規,0,2021-09-29,2021-09-29,株式会社朝日総合事務所,,株式会社,大阪府,大阪市中央区,南船場１丁目３番２７号ＮＩＬ南船場ビル５Ｂ,,27,128,5420081,,,,,,,2021-09-29,1,,,,,アサヒソウゴウジムショ,0
1955,7120003020308,新規,0,2021-09-29,2021-09-29,琉花合同会社,,合同会社,大阪府,大阪市福島区,海老江３丁目２３－２５,,27,103,5530001,,,,,,,2021-09-29,1,,,,,ルカ,0
1971,7140001123168,新規,0,2021-09-29,2021-09-29,株式会社ライト,,株式会社,兵庫県,加東市,北野４７４番地４,,28,228,6790205,,,,,,,2021-09-29,1,,,,,ライト,0
1972,7140001123176,新規,0,2021-09-29,2021-09-29,株式会社コンパル,,株式会社,兵庫県,神戸市中央区,京町７６番地１,,28,110,6500034,,,,,,,2021-09-29,1,,,,,コンパル,0
1978,7160001023655,新規,0,2021-09-29,2021-09-29,株式会社チャンチャーレ,,株式会社,滋賀県,近江八幡市,桜宮町２１１番地７（１０１号）,,25,204,5230893,,,,,,,2021-09-29,1,,,,,チャンチャーレ,0
1979,7160005010988,新規,0,2021-09-29,2021-09-29,一般社団法人あんど,,その他の設立登記法人,滋賀県,守山市,下之郷３丁目１３番１１号,,25,207,5240013,,,,,,,2021-09-29,1,,,,,アンド,0
1989,7180001147972,新規,0,2021-09-29,2021-09-29,株式会社東海美裝,,株式会社,愛知県,瀬戸市,塩草町３２３番地の２,,23,204,4890895,,,,,,,2021-09-29,1,,,,,トウカイビソウ,0
1990,7180001147980,新規,0,2021-09-29,2021-09-29,株式会社ママ寄り添いゆめか,,株式会社,愛知県,東海市,加木屋町中井道６２番地の２,,23,222,4770032,,,,,,,2021-09-29,1,,,,,ママヨリソイユメカ,0
1993,7180303005119,新規,0,2021-09-29,2021-09-29,合同会社ＳＫ,,合同会社,愛知県,知立市,新林町茶野２０番地３ハイツエクセルＫ１０３号,,23,225,4720017,,,,,,,2021-09-29,1,,,,,エスケー,0
1997,7200001039201,新規,0,2021-09-29,2021-09-29,株式会社ＭＡＲｓ,,株式会社,岐阜県,大垣市,静里町２７番地３リバーサイドパーク５０１,,21,202,5030983,,,,,,,2021-09-29,1,,,,,マーズ,0
2006,7240001058668,新規,0,2021-09-29,2021-09-29,源和株式会社,,株式会社,広島県,安芸高田市,吉田町吉田１９５２番地１,,34,214,7310501,,,,,,,2021-09-29,1,,,,,ゲンワ,0
2015,7290001094774,新規,0,2021-09-29,2021-09-29,株式会社命根や,,株式会社,福岡県,福岡市中央区,桜坂３丁目１番１－４０１号,,40,133,8100024,,,,,,,2021-09-29,1,,,,,イネヤ,0
2017,7290003011653,新規,0,2021-09-29,2021-09-29,合同会社マイナス,,合同会社,福岡県,福岡市中央区,舞鶴１丁目２－３３ライオンズマンション天神２０４,,40,133,8100073,,,,,,,2021-09-29,1,,,,,マイナス,0
2020,7290803003940,新規,0,2021-09-29,2021-09-29,合同会社ＦＵＫＵＴＯＭＩ,,合同会社,福岡県,北九州市八幡西区,樋口町７番９－１０５号,,40,109,8060048,,,,,,,2021-09-29,1,,,,,フクトミ,0
2026,7320001018622,新規,0,2021-09-29,2021-09-29,株式会社トリオンフ,,株式会社,大分県,大分市,法勝台１丁目１７３３－５,,44,201,8700171,,,,,,,2021-09-29,1,,,,,トリオンフ,0
2038,7360003011464,新規,0,2021-09-29,2021-09-29,合同会社ＦｒｏｎｔｉｅｒＩｎｎｏｖａｔｉｏｎ,,合同会社,沖縄県,島尻郡南風原町,字津嘉山２００番地,,47,350,9011117,,,,,,,2021-09-29,1,,,,,フロンティアイノベーション,0
2039,7360003011472,新規,0,2021-09-29,2021-09-29,ｓＭｅｄ合同会社,,合同会社,沖縄県,中頭郡西原町,字上原２０７番地,,47,329,9030125,,,,,,,2021-09-29,1,,,,,エスメド,0
2055,7430001085024,新規,0,2021-09-29,2021-09-29,新・海洋エネルギー開発株式会社,,株式会社,北海道,札幌市中央区,南二条西３丁目１３番地４カタオカビル３階,,01,101,0600062,,,,,,,2021-09-29,1,,,,,シンカイヨウエネルギーカイハツ,0
2056,7430001085040,新規,0,2021-09-29,2021-09-29,Ａｃｔ株式会社,,株式会社,北海道,札幌市北区,新川西五条４丁目１４番６号,,01,102,0010935,,,,,,,2021-09-29,1,,,,,アクト,0
2062,7470001018731,新規,0,2021-09-29,2021-09-29,株式会社シュタインズ,,株式会社,香川県,高松市,磨屋町５－８,,37,201,7600026,,,,,,,2021-09-29,1,,,,,シュタインズ,0
2066,7480003001734,新規,0,2021-09-29,2021-09-29,加加国際合同会社,,合同会社,徳島県,徳島市,南庄町５丁目１番地の４８,,36,201,7700045,,,,,,,2021-09-29,1,,,,,カカコクサイ,0
2080,8010001221371,新規,0,2021-09-29,2021-09-29,株式会社つき・ドルフィン,,株式会社,東京都,小笠原村,母島字元地沖村都住１０－２,,13,421,1002211,,,,,,,2021-09-29,1,,,,,ツキドルフィン,0
2081,8010001221388,新規,0,2021-09-29,2021-09-29,ＶＩＥＲ　ＪＡＰＡＮ株式会社,,株式会社,東京都,千代田区,神田佐久間町３丁目３７番地５８,,13,101,1010025,,,,,,,2021-09-29,1,,,,,フィアージャパン,0
2084,8010003035860,新規,0,2021-09-29,2021-09-29,Ｍｏｒｒｏｗ　Ｓｏｄａｌｉ　Ｊａｐａｎ合同会社,,合同会社,東京都,千代田区,麹町３丁目４－３,,13,101,1020083,,,,,,,2021-09-29,1,,,,,モローソダリジャパン,0
2095,8010401162694,新規,0,2021-09-29,2021-09-29,グルービー株式会社,,株式会社,東京都,港区,芝浦３丁目３番６号東京工業大学田町キャンパス５０４,,13,103,1080023,,,,,,,2021-09-29,1,,,,,グルービー,0
2096,8010401162892,新規,0,2021-09-29,2021-09-29,株式会社Ｓ１,,株式会社,東京都,港区,赤坂３丁目１６番１１号８階,,13,103,1070052,,,,,,,2021-09-29,1,,,,,エスワン,0
2100,8010403026187,新規,0,2021-09-29,2021-09-29,東伊豆風力発電合同会社,,合同会社,東京都,港区,芝公園２丁目２番１０号中和ビル３階,,13,103,1050011,,,,,,,2021-09-29,1,,,,,ヒガシイズフウリョクハツデン,0
2101,8010403026204,新規,0,2021-09-29,2021-09-29,ＧＢインターナショナル合同会社,,合同会社,東京都,港区,西新橋２丁目１４番１号西新橋アルファレジデンス１５０５,,13,103,1050003,,,,,,,2021-09-29,1,,,,,ジービーインターナショナル,0
2112,8010701041573,新規,0,2021-09-29,2021-09-29,株式会社ヴェヌス,,株式会社,東京都,品川区,八潮５丁目１２番６９－２２６号,,13,109,1400003,,,,,,,2021-09-29,1,,,,,ヴェヌス,0
2113,8010703005956,新規,0,2021-09-29,2021-09-29,合同会社Ｇｒｉｔ,,合同会社,東京都,品川区,東五反田２丁目１０番１号,,13,109,1410022,,,,,,,2021-09-29,1,,,,,グリット,0
2114,8010801032349,新規,0,2021-09-29,2021-09-29,鈴屋商店株式会社,,株式会社,東京都,大田区,大森東５丁目１５番３号,,13,111,1430012,,,,,,,2021-09-29,1,,,,,スズヤショウテン,0
2116,8010803003892,新規,0,2021-09-29,2021-09-29,合同会社ｌｏｔｆｏｒ,,合同会社,東京都,大田区,南馬込５丁目４２番３－２０４号,,13,111,1430025,,,,,,,2021-09-29,1,,,,,ロットフォー,0
2118,8010901049508,新規,0,2021-09-29,2021-09-29,株式会社ＨｉＪＯＹ,,株式会社,東京都,世田谷区,尾山台３丁目２９番９－２００号,,13,112,1580086,,,,,,,2021-09-29,1,,,,,ハイジョイ,0
2122,8011001143044,新規,0,2021-09-29,2021-09-29,株式会社Ｂｒａｖｅ,,株式会社,東京都,渋谷区,神宮前６丁目２９番４号原宿ｋｏｍｉｙａビル６階,,13,113,1500001,,,,,,,2021-09-29,1,,,,,ブレイブ,0
2123,8011001143085,新規,0,2021-09-29,2021-09-29,株式会社ＴｅａｍＦｉｒｓｔ,,株式会社,東京都,目黒区,上目黒１丁目２２番４号－３Ｆ,,13,110,1530051,,,,,,,2021-09-29,1,,,,,チームファースト,0
2128,8011101096407,新規,0,2021-09-29,2021-09-29,株式会社ワールド・アスリート・アカデミー,,株式会社,東京都,新宿区,高田馬場３丁目２番１４号,,13,104,1690075,,,,,,,2021-09-29,1,,,,,ワールドアスリートアカデミー,0
2136,8011501027333,新規,0,2021-09-29,2021-09-29,株式会社成功,,株式会社,東京都,北区,田端１丁目５番１号,,13,117,1140014,,,,,,,2021-09-29,1,,,,,セイコウ,0
2137,8011505002423,新規,0,2021-09-29,2021-09-29,一般社団法人ミャンマーグローバル支援財団,,その他の設立登記法人,東京都,荒川区,東日暮里６丁目３１番１号,,13,118,1160014,,,,,,,2021-09-29,1,,,,,ミャンマーグローバルシエンザイダン,0
2145,8011801039739,新規,0,2021-09-29,2021-09-29,株式会社オハナサポート,,株式会社,東京都,足立区,東和３丁目１４番３号,,13,121,1200003,,,,,,,2021-09-29,1,,,,,オハナサポート,0
2146,8011801039747,新規,0,2021-09-29,2021-09-29,株式会社高和建設,00124367,株式会社,東京都,足立区,保木間１丁目１８番１９号,,13,121,1210064,,,,,,,2021-09-29,1,,,,,コウワケンセツ,0
2149,8012401038338,新規,0,2021-09-29,2021-09-29,株式会社シンクサポート,,株式会社,東京都,調布市,東つつじケ丘１丁目１番地７,,13,208,1820005,,,,,,,2021-09-29,1,,,,,シンクサポート,0
2157,8013301048055,新規,0,2021-09-29,2021-09-29,ｃｕｒｅｒａ株式会社,,株式会社,東京都,豊島区,巣鴨１丁目２０番１０号宝生第一ビル３階,,13,116,1700002,,,,,,,2021-09-29,1,,,,,キュレラ,0
2160,8020001143086,新規,0,2021-09-29,2021-09-29,ディープブレスカンパニー株式会社,,株式会社,神奈川県,横浜市戸塚区,品濃町５２５番地１,,14,110,2440801,,,,,,,2021-09-29,1,,,,,ディープブレスカンパニー,0
2161,8020001143193,新規,0,2021-09-29,2021-09-29,株式会社Ｐｒｏｇ,,株式会社,神奈川県,川崎市宮前区,宮前平１丁目６番地１４,,14,136,2160006,,,,,,,2021-09-29,1,,,,,プログ,0
2166,8020003020548,新規,0,2021-09-29,2021-09-29,合同会社ＢＥＳＴＡＲ,,合同会社,神奈川県,川崎市中原区,新丸子町７５３番地１－５０２,,14,133,2110005,,,,,,,2021-09-29,1,,,,,ビースター,0
2172,8021001074032,新規,0,2021-09-29,2021-09-29,株式会社アネクスト,,株式会社,神奈川県,小田原市,早川１丁目１３番地の１８,,14,206,2500021,,,,,,,2021-09-29,1,,,,,アネクスト,0
2178,8030001144538,新規,0,2021-09-29,2021-09-29,Ｎｏｖｅｌｅｅ株式会社,,株式会社,埼玉県,富士見市,鶴瀬東２丁目１１－４７,,11,235,3540024,,,,,,,2021-09-29,1,,,,,ノベリー,0
2179,8030003018005,新規,0,2021-09-29,2021-09-29,合同会社Ｓ．Ｒ．Ｅ,,合同会社,埼玉県,久喜市,栗橋東４丁目１１番２８号,,11,232,3491103,,,,,,,2021-09-29,1,,,,,エスアールイー,0
2180,8030003018021,新規,0,2021-09-29,2021-09-29,旭商事合同会社,,合同会社,埼玉県,桶川市,寿２丁目２番２号１Ｆ,,11,231,3630016,,,,,,,2021-09-29,1,,,,,アサヒショウジ,0
2187,8040001120331,新規,0,2021-09-29,2021-09-29,ＲＯＳＥ　ＩＮＴＥＲＮＡＴＩＯＮＡＬ株式会社,,株式会社,千葉県,茂原市,本納１０２番地３,,12,210,2994114,,,,,,,2021-09-29,1,,,,,ローズインターナショナル,0
2188,8040001120348,新規,0,2021-09-29,2021-09-29,株式会社中本商事,,株式会社,千葉県,船橋市,本町４丁目４０番２３号サドヤサザンテラス１Ｆいいオフィス船橋ｂｙＳＤＹ,,12,204,2730005,,,,,,,2021-09-29,1,,,,,ナカモトショウジ,0
2194,8040003018615,新規,0,2021-09-29,2021-09-29,合同会社ユニオン,,合同会社,千葉県,旭市,東足洗２７５３番地１０２,,12,215,2892512,,,,,,,2021-09-29,1,,,,,ユニオン,0
2211,8080103002424,新規,0,2021-09-29,2021-09-29,合同会社Ｃｏｌｏｒｓ,,合同会社,静岡県,沼津市,西椎路５２１－１９,,22,203,4100303,,,,,,,2021-09-29,1,,,,,カラーズ,0
2212,8090003001954,新規,0,2021-09-29,2021-09-29,合同会社Ｍｏｃｃｈｉｌｉｎｏ,,合同会社,山梨県,南巨摩郡富士川町,最勝寺２００４番地７,,19,368,4000502,,,,,,,2021-09-29,1,,,,,モッチリノ,0
2220,8110001036058,新規,0,2021-09-29,2021-09-29,株式会社山田創建,,株式会社,新潟県,上越市,御殿山町９－２７,,15,222,9430895,,,,,,,2021-09-29,1,,,,,ヤマダソウケン,0
2223,8110005016717,新規,0,2021-09-29,2021-09-29,粟島浦地域づくり協同組合,,その他の設立登記法人,新潟県,岩船郡粟島浦村,字日ノ見山１４９１番地８,,15,586,9580061,,,,,,,2021-09-29,1,,,,,アワシマウラチイキヅクリ,0
2238,8120001240658,新規,0,2021-09-29,2021-09-29,株式会社ＶＥＣＴＯＲ,,株式会社,大阪府,大阪市東淀川区,小松３丁目４番１号,,27,114,5330004,,,,,,,2021-09-29,1,,,,,ベクトル,0
2239,8120001240682,新規,0,2021-09-29,2021-09-29,株式会社フレームパンチ,,株式会社,大阪府,大阪市北区,本庄東１丁目１番１０号ライズ８８ビル８０１,,27,127,5310074,,,,,,,2021-09-29,1,,,,,フレームパンチ,0
2240,8120001240716,新規,0,2021-09-29,2021-09-29,株式会社Ｒ．Ｄ．Ｓ,,株式会社,大阪府,大阪市中央区,南久宝寺町３丁目４番１５－３１３号,,27,128,5410058,,,,,,,2021-09-29,1,,,,,アールディーエス,0
2241,8120003020323,新規,0,2021-09-29,2021-09-29,合同会社破沙盆,,合同会社,大阪府,大阪市中央区,安土町１丁目４番５号,,27,128,5410052,,,,,,,2021-09-29,1,,,,,ハサボン,0
2243,8120005022524,新規,0,2021-09-29,2021-09-29,一般社団法人メディ・ファＭｅｄｉｃａｌ　ｆｉｎｅ,,その他の設立登記法人,大阪府,大阪市西区,阿波座１丁目６番１号,,27,106,5500011,,,,,,,2021-09-29,1,,,,,メディファメディカルファイン,0
2247,8120105009454,新規,0,2021-09-29,2021-09-29,一般社団法人統合ヘルスリテラシーラボ,,その他の設立登記法人,大阪府,泉大津市,東雲町１０－１１,,27,206,5950026,,,,,,,2021-09-29,1,,,,,トウゴウヘスルリテラシーラボ,0
2251,8122003002185,新規,0,2021-09-29,2021-09-29,合同会社Ａｄａｍａｓ,,合同会社,大阪府,四條畷市,中野新町１１番４号,,27,229,5750054,,,,,,,2021-09-29,1,,,,,アダマス,0
2257,8140001123159,新規,0,2021-09-29,2021-09-29,株式会社ジスト,,株式会社,兵庫県,神戸市中央区,野崎通２丁目１－５,,28,110,6510054,,,,,,,2021-09-29,1,,,,,ジスト,0
2258,8140003016781,新規,0,2021-09-29,2021-09-29,橋本健史建築設計事務所合同会社,,合同会社,兵庫県,神戸市垂水区,塩屋町９丁目２番２号,,28,108,6550872,,,,,,,2021-09-29,1,,,,,ハシモトタケシケンチクセッケイジムショ,0
2260,8140005025830,新規,0,2021-09-29,2021-09-29,一般社団法人ＮＴＨＯ,,その他の設立登記法人,兵庫県,西宮市,和上町１番６号,,28,204,6620971,,,,,,,2021-09-29,1,,,,,エヌティエイチオウ,0
2273,8180001147955,新規,0,2021-09-29,2021-09-29,株式会社ｈａｕｏｌｉ　ａｇｅｎｃｙ,,株式会社,愛知県,名古屋市中区,大須３丁目５番４９号第２ハセビル３階南１,,23,106,4600011,,,,,,,2021-09-29,1,,,,,ハウオリエージェンシー,0
2274,8180001147971,新規,0,2021-09-29,2021-09-29,株式会社Ｌａ　ｓｏｉｅ,,株式会社,愛知県,江南市,古知野町朝日２４３番地１,,23,217,4838213,,,,,,,2021-09-29,1,,,,,ラソイエ,0
2275,8180001147988,新規,0,2021-09-29,2021-09-29,株式会社Ｓｅｖａ,,株式会社,愛知県,名古屋市名東区,本郷２丁目６２番地,,23,115,4650024,,,,,,,2021-09-29,1,,,,,セーヴァ,0
2282,8180003022999,新規,0,2021-09-29,2021-09-29,合同会社アイ・ピー,,合同会社,愛知県,名古屋市天白区,野並２丁目２３９番地１,,23,116,4680045,,,,,,,2021-09-29,1,,,,,アイピー,0
2283,8180003023007,新規,0,2021-09-29,2021-09-29,Ｙｕ　Ｒａｂｂｉｔ　Ｊａｐａｎ合同会社,,合同会社,愛知県,名古屋市中村区,下米野町２丁目１８番地の２（ＤｒｏｏｍＢ棟）,,23,105,4530802,,,,,,,2021-09-29,1,,,,,ユーラビットジャパン,0
2307,8260001035994,新規,0,2021-09-29,2021-09-29,株式会社ＲＥＣＳＴ,,株式会社,岡山県,岡山市北区,今６丁目２０番２０号,,33,101,7000975,,,,,,,2021-09-29,1,,,,,レクスト,0
2308,8260003003685,新規,0,2021-09-29,2021-09-29,合同会社わっしょいボヘミアン,,合同会社,岡山県,真庭市,久世２４２６,,33,214,7193201,,,,,,,2021-09-29,1,,,,,ワッショイボヘミアン,0
2314,8290001094757,新規,0,2021-09-29,2021-09-29,株式会社Ａｔｈｅｎａ,,株式会社,福岡県,福岡市博多区,住吉４丁目１番５号,,40,132,8120018,,,,,,,2021-09-29,1,,,,,アテナ,0
2315,8290001094765,新規,0,2021-09-29,2021-09-29,株式会社ザ・ロードデンドロン,,株式会社,福岡県,福岡市中央区,梅光園団地７番１０５号,,40,133,8100036,,,,,,,2021-09-29,1,,,,,ザロードデンドロン,0
2316,8290001094798,新規,0,2021-09-29,2021-09-29,ＳｈｉｇｅＳｈｉｍａ株式会社,,株式会社,福岡県,福岡市西区,愛宕浜４丁目１２番７号,,40,135,8190013,,,,,,,2021-09-29,1,,,,,シゲシマ,0
2328,8330001029015,新規,0,2021-09-29,2021-09-29,株式会社ｐａｌｅｔｔｅ　ｃｏｍｐａｎｙ,,株式会社,熊本県,熊本市北区,植木町舞尾４８０番地７,,43,105,8610134,,,,,,,2021-09-29,1,,,,,パレットカンパニー,0
2329,8330003009056,新規,0,2021-09-29,2021-09-29,合同会社トモコンサルタント三,,合同会社,熊本県,熊本市南区,出仲間８丁目３番３３号,,43,104,8620963,,,,,,,2021-09-29,1,,,,,トモコンサルタントサン,0
2336,8360001029425,新規,0,2021-09-29,2021-09-29,株式会社エックスネス,,株式会社,沖縄県,那覇市,字安謝１８６番地しまもり荘２０１,,47,201,9000003,,,,,,,2021-09-29,1,,,,,エックスネス,0
2346,8400003002838,新規,0,2021-09-29,2021-09-29,合同会社Ａｌｅａ,,合同会社,岩手県,盛岡市,上厨川字新田８１番地２２,,03,201,0200143,,,,,,,2021-09-29,1,,,,,アーレア,0
2356,8500001023702,新規,0,2021-09-29,2021-09-29,株式会社黒住防水技研,,株式会社,愛媛県,東温市,南方１７３８番地３０,,38,215,7910301,,,,,,,2021-09-29,1,,,,,クロズミボウスイギケン,0
2370,9010001220868,新規,0,2021-09-29,2021-09-29,日比谷フィナンシャル・コンサルティング株式会社,,株式会社,東京都,千代田区,内幸町１丁目３－１幸ビルディング,,13,101,1000011,,,,,,,2021-09-29,1,,,,,ヒビヤフィナンシャルコンサルティング,0
2376,9010403026194,新規,0,2021-09-29,2021-09-29,合同会社Ｊコーポレーション,,合同会社,東京都,港区,南青山２丁目２９番６－５０３号,,13,103,1070062,,,,,,,2021-09-29,1,,,,,ジェイコーポレーション,0
2379,9010501047869,新規,0,2021-09-29,2021-09-29,株式会社大志楊重,,株式会社,東京都,台東区,三ノ輪１丁目１６番７号,,13,106,1100011,,,,,,,2021-09-29,1,,,,,ダイシヨウジュウ,0
2380,9010503006393,新規,0,2021-09-29,2021-09-29,合同会社ふるテック,,合同会社,東京都,台東区,谷中１丁目４番１７号ハイツ・ラック２０１,,13,106,1100001,,,,,,,2021-09-29,1,,,,,フルテック,0
2384,9010601059979,新規,0,2021-09-29,2021-09-29,株式会社ｇｏｅｓ　ｏｎ,,株式会社,東京都,江東区,亀戸５丁目１５番５号コーポアピアランス２０２号室,,13,108,1360071,,,,,,,2021-09-29,1,,,,,ゴーズオン,0
2390,9010801032356,新規,0,2021-09-29,2021-09-29,株式会社ＴＯＹＯ,,株式会社,東京都,大田区,東矢口３丁目２７番４号,,13,111,1460094,,,,,,,2021-09-29,1,,,,,トーヨー,0
2392,9010803003900,新規,0,2021-09-29,2021-09-29,合同会社甘蕉商会,,合同会社,東京都,大田区,多摩川２丁目２４番２５号トミンハイム９０２,,13,111,1460095,,,,,,,2021-09-29,1,,,,,バナナショウカイ,0
2396,9011001142887,新規,0,2021-09-29,2021-09-29,株式会社ＴＳＵＭＵＧＩ　ＷＯＲＫＳ,,株式会社,東京都,渋谷区,代官山町１０番１２－４０７号,,13,113,1500034,,,,,,,2021-09-29,1,,,,,ツムギワークス,0
2397,9011001142929,新規,0,2021-09-29,2021-09-29,ＡＲＭＯＮＹ株式会社,,株式会社,東京都,渋谷区,神宮前６丁目８番６号,,13,113,1500001,,,,,,,2021-09-29,1,,,,,アルモニー,0
2398,9011001142986,新規,0,2021-09-29,2021-09-29,Ｗ　Ｐａｒｔｎｅｒｓ株式会社,,株式会社,東京都,渋谷区,神南１丁目６－５,,13,113,1500041,,,,,,,2021-09-29,1,,,,,ダブリューパートナーズ,0
2399,9011001143027,新規,0,2021-09-29,2021-09-29,Ｄｅｌｉｇｈｔ　Ｏｎｅ株式会社,,株式会社,東京都,渋谷区,代々木２丁目１１番５－３０４号,,13,113,1510053,,,,,,,2021-09-29,1,,,,,ディライトワン,0
2400,9011001143051,新規,0,2021-09-29,2021-09-29,Ｎｏ．１Ｍｅｄｉａ　Ｊａｐａｎ株式会社,,株式会社,東京都,渋谷区,道玄坂１丁目１７－１１,,13,113,1500043,,,,,,,2021-09-29,1,,,,,ナンバーワンメディアジャパン,0
2404,9011003013426,新規,0,2021-09-29,2021-09-29,合同会社ウルトラエコ,,合同会社,東京都,渋谷区,千駄ヶ谷３丁目１１番８号（ＴＯＳグループ内）,,13,113,1510051,,,,,,,2021-09-29,1,,,,,ウルトラエコ,0
2407,9011101096190,新規,0,2021-09-29,2021-09-29,サトランスアセットマネジメント株式会社,,株式会社,東京都,新宿区,市谷加賀町２丁目５番１号ウエリス市谷加賀町３０５,,13,104,1620062,,,,,,,2021-09-29,1,,,,,サトランスアセットマネジメント,0
2408,9011101096397,新規,0,2021-09-29,2021-09-29,ＭＡＸ　ＡＳＳＥＴ株式会社,,株式会社,東京都,新宿区,四谷４丁目３番２９号,,13,104,1600004,,,,,,,2021-09-29,1,,,,,マックスアセット,0
2454,9020001143184,新規,0,2021-09-29,2021-09-29,株式会社杉山住工,,株式会社,神奈川県,川崎市宮前区,宮崎６丁目８番地１７,,14,136,2160033,,,,,,,2021-09-29,1,,,,,スギヤマジュウコウ,0
2455,9020001143192,新規,0,2021-09-29,2021-09-29,和由機工株式会社,,株式会社,神奈川県,川崎市幸区,神明町１丁目１４番地レジデンスヨシダ３０１,,14,132,2120022,,,,,,,2021-09-29,1,,,,,カズヨシキコウ,0
2458,9020003020506,新規,0,2021-09-29,2021-09-29,Ｂｒｅｅｚｅ　Ｍａｒｅ合同会社,,合同会社,神奈川県,横浜市泉区,中田東２丁目２７番２５号,,14,116,2450013,,,,,,,2021-09-29,1,,,,,ブリーズマーレ,0
2459,9020003020547,新規,0,2021-09-29,2021-09-29,合同会社加速流グリーンパワー研究所,,合同会社,神奈川県,川崎市川崎区,京町２丁目２４番６－１４０２号,,14,131,2100848,,,,,,,2021-09-29,1,,,,,カソクリュウグリーンパワーケンキュウジョ,0
2465,9021001074031,新規,0,2021-09-29,2021-09-29,株式会社金乃竹,,株式会社,神奈川県,足柄下郡箱根町,仙石原８１７番地,,14,382,2500631,,,,,,,2021-09-29,1,,,,,キンノタケ,0
2469,9030001144537,新規,0,2021-09-29,2021-09-29,株式会社翼ビジョン,,株式会社,埼玉県,行田市,行田七丁目２番１階,,11,206,3610073,,,,,,,2021-09-29,1,,,,,ツバサビジョン,0
2470,9030001144553,新規,0,2021-09-29,2021-09-29,株式会社ＲＡＹＺ,,株式会社,埼玉県,越谷市,新越谷１丁目３８９番地７,,11,222,3430857,,,,,,,2021-09-29,1,,,,,レイズ,0
2471,9030001144561,新規,0,2021-09-29,2021-09-29,株式会社彩玉不動産,,株式会社,埼玉県,さいたま市岩槻区,大字裏慈恩寺２７０番地１,,11,110,3390002,,,,,,,2021-09-29,1,,,,,サイタマフドウサン,0
2484,9050001049890,新規,0,2021-09-29,2021-09-29,株式会社メイコーポレーション,,株式会社,茨城県,土浦市,北荒川沖町７番４号マイシティーライフ７番館２０５,,08,203,3000876,,,,,,,2021-09-29,1,,,,,メイコーポレーション,0
2491,9060001034124,新規,0,2021-09-29,2021-09-29,株式会社Ｋプラス,,株式会社,栃木県,佐野市,小中町１８７３番地２,,09,204,3270001,,,,,,,2021-09-29,1,,,,,ケープラス,0
2493,9060003003820,新規,0,2021-09-29,2021-09-29,合同会社山崎建築社,,合同会社,栃木県,宇都宮市,下荒針町３４７６番地９８,,09,201,3210346,,,,,,,2021-09-29,1,,,,,ヤマザキケンチクシャ,0
2500,9080401025365,新規,0,2021-09-29,2021-09-29,株式会社カクメイＪＡＰＡＮ,,株式会社,静岡県,浜松市中区,西伊場町５７番１１号、東－３,,22,131,4328038,,,,,,,2021-09-29,1,,,,,カクメイジャパン,0
2510,9110005016716,新規,0,2021-09-29,2021-09-29,行政書士法人エアール,,その他の設立登記法人,新潟県,新潟市西蒲区,巻甲２５４８番地３,,15,108,9530041,,,,,,,2021-09-29,1,,,,,エアール,0
2521,9120001240673,新規,0,2021-09-29,2021-09-29,株式会社人生分の１,,株式会社,大阪府,大阪市中央区,東心斎橋２丁目７番２７号ベル八幡３Ｆ,,27,128,5420083,,,,,,,2021-09-29,1,,,,,ジンセイブンノイチ,0
2522,9120001240707,新規,0,2021-09-29,2021-09-29,株式会社ＭＡＡＭ,,株式会社,大阪府,大阪市西区,立売堀１丁目７番５号６０２,,27,106,5500012,,,,,,,2021-09-29,1,,,,,マーム,0
2526,9120003020314,新規,0,2021-09-29,2021-09-29,ＨＳ合同会社,,合同会社,大阪府,大阪市港区,市岡３丁目８番７号,,27,107,5520012,,,,,,,2021-09-29,1,,,,,エッチエス,0
2529,9120005022523,新規,0,2021-09-29,2021-09-29,一般社団法人日本スイーツ・パンロス削減協会,,その他の設立登記法人,大阪府,大阪市西区,南堀江１丁目１１番１号,,27,106,5500015,,,,,,,2021-09-29,1,,,,,ニホンスイーツパンロスサクゲンキョウカイ,0
2530,9120101064361,新規,0,2021-09-29,2021-09-29,ｂｏｘ．９株式会社,,株式会社,大阪府,富田林市,若松町５丁目１８番６号,,27,214,5840024,,,,,,,2021-09-29,1,,,,,ボックスナイン,0
2531,9120103004365,新規,0,2021-09-29,2021-09-29,合同会社サンオルケスタ,,合同会社,大阪府,堺市西区,浜寺船尾町東４丁５３番地１,,27,144,5928341,,,,,,,2021-09-29,1,,,,,サンオルケスタ,0
2539,9130003007509,新規,0,2021-09-29,2021-09-29,合同会社ｉｔｅｒａｔｔｙ,,合同会社,京都府,京都市中京区,御池通東洞院東入笹屋町４３６永和御池ビル６０６号,,26,104,6048187,,,,,,,2021-09-29,1,,,,,イテラティ,0
2540,9130003007517,新規,0,2021-09-29,2021-09-29,合同会社ＫＲインベストメント,,合同会社,京都府,京都市中京区,天神山町２８１番地,,26,104,6048221,,,,,,,2021-09-29,1,,,,,ケーアールインベストメント,0
2541,9130005016276,新規,0,2021-09-29,2021-09-29,特定非営利活動法人東ティモール就労支援の会,,その他の設立登記法人,京都府,京都市中京区,壬生賀陽御所町４１番地１２,,26,104,6048811,,,,,,,2021-09-29,1,,,,,ヒガシティモールシュウロウシエンノカイ,0
2542,9140001123141,新規,0,2021-09-29,2021-09-29,株式会社大蔵谷介護サービス,,株式会社,兵庫県,明石市,宮の上１番１７－３０３号,,28,203,6730031,,,,,,,2021-09-29,1,,,,,オオクラダニカイゴサービス,0
2543,9140001123158,新規,0,2021-09-29,2021-09-29,株式会社幸永,,株式会社,兵庫県,姫路市,香寺町溝口４９１番地１,,28,201,6792161,,,,,,,2021-09-29,1,,,,,コウエイ,0
2544,9140001123174,新規,0,2021-09-29,2021-09-29,株式会社ＫＢ．Ｆｉｅｌｄ,,株式会社,兵庫県,神戸市長田区,明泉寺町３丁目３－９南棟１１,,28,106,6530884,,,,,,,2021-09-29,1,,,,,ケービーフィールド,0
2569,9180001147913,新規,0,2021-09-29,2021-09-29,ＷＥＬＬＶＹ株式会社,,株式会社,愛知県,長久手市,市が洞２丁目１０８ＡＲＣＡＤＩＡⅣ１０２号,00124363,23,238,4801147,,,,,,,2021-09-29,1,,,,,ウェルビー,0
2570,9180001147954,新規,0,2021-09-29,2021-09-29,株式会社チャオ,,株式会社,愛知県,名古屋市昭和区,五軒家町３０番地の１７,,23,107,4660838,,,,,,,2021-09-29,1,,,,,チャオ,0
2571,9180001147987,新規,0,2021-09-29,2021-09-29,株式会社ドゥ・ウェル,,株式会社,愛知県,名古屋市中区,錦３丁目４番２２号,,23,106,4600003,,,,,,,2021-09-29,1,,,,,ドゥウェル,0
2573,9180003023006,新規,0,2021-09-29,2021-09-29,Ｓｕｎｓ合同会社,,合同会社,愛知県,名古屋市千種区,竹越１丁目５番２２号－１,,23,101,4640007,,,,,,,2021-09-29,1,,,,,サンズ,0
2576,9200001039174,新規,0,2021-09-29,2021-09-29,株式会社ＧｒｅｅｎＬｉｇｈｔ,,株式会社,岐阜県,美濃加茂市,下米田町小山１０５７番地１,,21,211,5050017,,,,,,,2021-09-29,1,,,,,グリーンライト,0
2591,9240003005294,新規,0,2021-09-29,2021-09-29,合同会社ＲＣＪ,,合同会社,広島県,広島市西区,草津東１丁目１５番５号,,34,104,7330861,,,,,,,2021-09-29,1,,,,,アールシージェイ,0
2596,9260001035993,新規,0,2021-09-29,2021-09-29,株式会社ＭＯＲＩＫＵ,,株式会社,岡山県,岡山市中区,長岡２００番地２,,33,102,7038221,,,,,,,2021-09-29,1,,,,,モリク,0
2603,9290001094707,新規,0,2021-09-29,2021-09-29,株式会社Ｍ＆ホールディングス,,株式会社,福岡県,福岡市博多区,店屋町５番２号,,40,132,8120025,,,,,,,2021-09-29,1,,,,,エムアンドホールディングス,0
2604,9290001094756,新規,0,2021-09-29,2021-09-29,双創株式会社,,株式会社,福岡県,福岡市東区,千早４丁目２１番５５－１４２４号,,40,131,8130044,,,,,,,2021-09-29,1,,,,,ソウソウ,0
2605,9290001094764,新規,0,2021-09-29,2021-09-29,株式会社Ｋｉｗｉ,,株式会社,福岡県,福岡市中央区,大名２丁目６－１１,,40,133,8100041,,,,,,,2021-09-29,1,,,,,キウイ,0
2612,9290003011651,新規,0,2021-09-29,2021-09-29,合同会社ｕｎａ．,,合同会社,福岡県,福岡市東区,松崎４丁目３５番１７－１０１号,,40,131,8130035,,,,,,,2021-09-29,1,,,,,ウナ,0
2615,9300003001725,新規,0,2021-09-29,2021-09-29,タケモトケン合同会社,,合同会社,佐賀県,鹿島市,大字飯田乙２６４１－１,,41,207,8491324,,,,,,,2021-09-29,1,,,,,タケモトケン,0
2622,9330001029014,新規,0,2021-09-29,2021-09-29,株式会社デントトラスト,,株式会社,熊本県,熊本市中央区,安政町２番２６号,,43,101,8600801,,,,,,,2021-09-29,1,,,,,デントトラスト,0
2625,9330003009047,新規,0,2021-09-29,2021-09-29,合同会社Ｐｏｒｉｔｅ　Ｗｏｒｋ,,合同会社,熊本県,熊本市西区,上高橋２丁目１７番３３号,,43,103,8600061,,,,,,,2021-09-29,1,,,,,ポーライトワーク,0
2626,9330003009055,新規,0,2021-09-29,2021-09-29,合同会社Ｄｅｒｉｖｅ,,合同会社,熊本県,天草市,今釜町８番２９号,,43,215,8630012,,,,,,,2021-09-29,1,,,,,デライブ,0
2643,9400003002837,新規,0,2021-09-29,2021-09-29,合同会社はなまるカンパニー,,合同会社,岩手県,盛岡市,三ツ割１丁目９番８号ＳＲビル１０１,,03,201,0200011,,,,,,,2021-09-29,1,,,,,ハナマルカンパニー,0
2665,9500001023701,新規,0,2021-09-29,2021-09-29,株式会社ドットカラーズ,,株式会社,愛媛県,西条市,新町２７３番地４,,38,206,7991331,,,,,,,2021-09-29,1,,,,,ドットカラーズ,0
