sequenceNumber,corporateNumber,process,correct,updateDate,changeDate,name,nameImageId,kind,prefectureName,cityName,streetNumber,addressImageId,prefectureCode,cityCode,postCode,addressOutside,addressOutsideImageId,closeDate,closeCause,successorCorporateNumber,changeCause,assignmentDate,latest,enName,enPrefectureName,enCityName,enAddressOutside,furigana,hihyoji
39,1010901009162,登記記録の閉鎖等,0,2022-04-28,2022-04-26,ニシオ管商株式会社,,株式会社,東京都,世田谷区,瀬田５丁目２７番１２号,,13,112,1580095,,,2022-04-26,清算の結了等,,,2015-10-05,1,,,,,ニシオカンショウ,0
49,1011101041328,登記記録の閉鎖等,0,2022-04-28,2022-04-26,株式会社ＪＴＣ,,株式会社,東京都,新宿区,大京町４番地６,,13,104,1600015,,,2022-04-26,清算の結了等,,,2015-10-05,1,,,,,ジェイティシー,0
55,1011602004601,登記記録の閉鎖等,0,2022-04-28,2022-04-25,有限会社サルー,,有限会社,東京都,練馬区,東大泉６丁目４６番１７号,,13,120,1780063,,,2022-04-25,清算の結了等,,,2015-10-05,1,,,,,サルー,0
61,1012302005311,登記記録の閉鎖等,0,2022-04-28,2022-04-21,有限会社若松,,有限会社,東京都,町田市,鶴間３丁目１３番地１３,,13,209,1940004,,,2022-04-21,清算の結了等,,,2015-10-05,1,,,,,ワカマツ,0
123,1050002020156,登記記録の閉鎖等,0,2022-04-28,2022-04-22,有限会社真中建材店,,有限会社,茨城県,坂東市,辺田１１４４番地の２０,,08,228,3060632,,,2022-04-22,清算の結了等,,,2015-10-05,1,,,,,マナカケンザイテン,0
190,1180003014516,登記記録の閉鎖等,0,2022-04-28,2022-04-21,合同会社ファースト・ツーリング,,合同会社,愛知県,名古屋市瑞穂区,豊岡通３丁目１３番地,,23,108,4670012,,,2022-04-21,清算の結了等,,,2015-10-05,1,,,,,ファーストツーリング,0
200,1200002003806,登記記録の閉鎖等,0,2022-04-28,2022-04-27,有限会社尾藤ビル,,有限会社,岐阜県,岐阜市,茜部寺屋敷３丁目１９１番地,,21,201,5008267,,,2022-04-27,清算の結了等,,,2015-10-05,1,,,,,ビトウビル,0
218,1260003002891,登記記録の閉鎖等,0,2022-04-28,2022-04-27,合同会社ＳＧＮ,,合同会社,岡山県,加賀郡吉備中央町,上竹４７０１番地,,33,681,7161131,,,2022-04-27,清算の結了等,,,2019-07-03,1,,,,,エスジーエヌ,0
241,1350001013568,登記記録の閉鎖等,0,2022-04-28,2022-04-25,株式会社旅館石山観音池,,株式会社,宮崎県,都城市,高城町石山４４０２番地,,45,202,8851205,,,2022-04-25,清算の結了等,,,2015-10-05,1,,,,,リョカンイシヤマカンノンイケ,0
262,1390002002987,登記記録の閉鎖等,0,2022-04-28,2022-04-21,有限会社六華宅建センター,,有限会社,山形県,山形市,南原町２丁目８番２９号,,06,201,9902413,,,2022-04-21,清算の結了等,,,2015-10-05,1,,,,,ユキタッケンセンター,0
265,1400003002828,登記記録の閉鎖等,0,2022-04-28,2022-04-26,合同会社ウィズ北星,,合同会社,岩手県,盛岡市,羽場３地割１０９－１,,03,201,0200841,,,2022-04-26,清算の結了等,,,2021-09-02,1,,,,,ウィズホクセイ,0
266,1410001004412,登記記録の閉鎖等,0,2022-04-28,2022-04-21,株式会社杉のや,,株式会社,秋田県,秋田市,手形字山崎９２番地５　４０４号,,05,201,0100851,,,2022-04-21,清算の結了等,,,2015-10-05,1,,,,,スギノヤ,0
276,1490005000771,登記記録の閉鎖等,0,2022-04-28,2022-04-25,医療法人光風会,,その他の設立登記法人,高知県,高知市,菜園場町１番１５号,,39,201,7800823,,,2022-04-25,清算の結了等,,,2015-10-05,1,,,,,コウフウカイ,0
303,2010502021152,登記記録の閉鎖等,0,2022-04-28,2022-04-26,有限会社コミニット,,有限会社,東京都,板橋区,板橋２丁目３４番６号,,13,119,1730004,,,2022-04-26,清算の結了等,,,2015-10-05,1,,,,,,0
326,2011201019165,登記記録の閉鎖等,0,2022-04-28,2022-04-18,スカイファーマシー株式会社,,株式会社,東京都,中野区,弥生町２丁目２８番１０号,,13,114,1640013,,,2022-04-18,清算の結了等,,,2016-06-20,1,,,,,スカイファーマシー,0
336,2013201015862,登記記録の閉鎖等,0,2022-04-28,2022-04-11,コーツト株式会社,,株式会社,東京都,目黒区,上目黒５丁目８番８号,,13,110,1530051,,,2022-04-11,清算の結了等,,,2015-10-05,1,,,,,コーツト,0
352,2021003004802,登記記録の閉鎖等,0,2022-04-28,2022-04-21,合同会社シュシュ,,合同会社,神奈川県,相模原市中央区,淵野辺４丁目３３番６号コスモプラザ３０３,,14,152,2520206,,,2022-04-21,清算の結了等,,,2015-10-05,1,,,,,シュシュ,0
361,2030001111881,登記記録の閉鎖等,0,2022-04-28,2022-04-25,株式会社建将リフォーム,,株式会社,神奈川県,大和市,大和南１丁目７番１１号,,14,213,2420016,,,2022-04-25,清算の結了等,,,2015-12-16,1,,,,,ケンショウリフォーム,0
370,2040001071258,登記記録の閉鎖等,0,2022-04-28,2022-04-21,芝建設株式会社,,株式会社,千葉県,野田市,尾崎９０１番地,,12,208,2700235,,,2022-04-21,清算の結了等,,,2015-10-05,1,,,,,シバケンセツ,0
381,2060002026374,登記記録の閉鎖等,0,2022-04-28,2022-04-25,有限会社佐藤工業,,有限会社,栃木県,大田原市,大豆田１２５番地,,09,210,3240242,,,2022-04-25,清算の結了等,,,2015-10-05,1,,,,,サトウコウギョウ,0
383,2070002013801,登記記録の閉鎖等,0,2022-04-28,2022-04-20,有限会社佐々駒工芸,,有限会社,群馬県,高崎市,西国分町２３番地,,10,202,3703512,,,2022-04-20,清算の結了等,,,2015-10-05,1,,,,,ササコマコウゲイ,0
393,2100002000812,登記記録の閉鎖等,0,2022-04-28,2022-04-25,エム・エス・アール有限会社,,有限会社,長野県,長野市,川中島町御厨１０９０番地１,,20,201,3812221,,,2022-04-25,清算の結了等,,,2015-10-05,1,,,,,エムエスアール,0
414,2120101030287,登記記録の閉鎖等,0,2022-04-28,2022-04-25,株式会社ＲＳ　ＬＩＮＥ,,株式会社,大阪府,大阪狭山市,今熊３丁目６９２番地の４２,,27,231,5890021,,,2022-04-25,清算の結了等,,,2015-10-05,1,,,,,,0
421,2120901022129,登記記録の閉鎖等,0,2022-04-28,2022-04-19,株式会社テクノア,,株式会社,大阪府,箕面市,箕面６丁目９番地４６,,27,220,5620001,,,2022-04-19,清算の結了等,,,2015-10-05,1,,,,,テクノア,0
424,2120903002351,登記記録の閉鎖等,0,2022-04-28,2022-04-26,合同会社Ａｌｂａ　Ｒｏｓｓｏ,,合同会社,大阪府,吹田市,原町４丁目８番８号,,27,205,5640004,,,2022-04-26,清算の結了等,,,2017-12-07,1,,,,,アルバロッソ,0
450,2150001011244,登記記録の閉鎖等,0,2022-04-28,2022-04-19,中山繊維株式会社,,株式会社,奈良県,磯城郡田原本町,４９３番地,,29,363,6360300,,,2022-04-19,清算の結了等,,,2015-10-05,1,,,,,ナカヤマセンイ,0
453,2180001072374,登記記録の閉鎖等,0,2022-04-28,2022-04-20,安江美建株式会社,,株式会社,愛知県,名古屋市西区,比良４丁目１４番地,,23,104,4520802,,,2022-04-20,清算の結了等,,,2015-10-05,1,,,,,ヤスエビケン,0
454,2180001091151,登記記録の閉鎖等,0,2022-04-28,2022-04-22,株式会社オークデザインシステム,,株式会社,愛知県,名古屋市中区,橘１丁目６番８号,,23,106,4600016,,,2022-04-22,清算の結了等,,,2015-10-05,1,,,,,オークデザインシステム,0
465,2180002077843,登記記録の閉鎖等,0,2022-04-28,2022-04-25,有限会社ヴィヴァサポート,,有限会社,愛知県,一宮市,萩原町花井方字郷中１０１４番地１,,23,203,4910351,,,2022-04-25,清算の結了等,,,2015-10-05,1,,,,,ヴィヴァサポート,0
467,2180003020091,登記記録の閉鎖等,0,2022-04-28,2022-04-19,ＡＡＬＴＯ１９０５０１合同会社,,合同会社,愛知県,名古屋市緑区,鳴海町字母呂後７５,,23,114,4580801,,,2022-04-19,清算の結了等,,,2019-06-14,1,,,,,アアルトイチキュウゼロゴゼロイチ,0
471,2180301011081,登記記録の閉鎖等,0,2022-04-28,2022-04-18,鈴木製綱株式会社,,株式会社,愛知県,蒲郡市,形原町西中畑４３番地,,23,214,4430104,,,2022-04-18,清算の結了等,,,2015-10-05,1,,,,,スズキセイコウ,0
478,2190003003830,登記記録の閉鎖等,0,2022-04-28,2022-04-21,合同会社ヒロチメソツド,,合同会社,三重県,桑名市,大山田２丁目１２番地１２,,24,205,5110903,,,2022-04-21,清算の結了等,,,2021-11-25,1,,,,,ヒロチメソツド,0
501,2290002042316,登記記録の閉鎖等,0,2022-04-28,2022-04-25,有限会社岡田運輸,,有限会社,福岡県,大野城市,大池１丁目１３番１２号,,40,219,8160904,,,2022-04-25,清算の結了等,,,2015-10-05,1,,,,,オカダウンユ,0
514,2340001023121,登記記録の閉鎖等,0,2022-04-28,2022-04-27,Ｔ＆Ｔ　Ｃｏｎｓｕｌｔａｎｔ株式会社,,株式会社,鹿児島県,鹿児島市,新屋敷町１６番４１８号,,46,201,8920838,,,2022-04-27,清算の結了等,,,2020-09-11,1,,,,,ティーアンドティーコンサルタント,0
541,2420002006538,登記記録の閉鎖等,0,2022-04-28,2022-04-25,有限会社カキヌマ,,有限会社,青森県,八戸市,大字類家字堤端１３番地,,02,203,0310001,,,2022-04-25,清算の結了等,,,2015-10-05,1,,,,,カキヌマ,0
542,2430001077810,登記記録の閉鎖等,0,2022-04-28,2022-04-18,邦斉株式会社,,株式会社,北海道,白老郡白老町,字石山８６番４８,,01,578,0590921,,,2022-04-18,清算の結了等,,,2018-11-28,1,,,,,ホウセイ,0
558,3010001118127,登記記録の閉鎖等,0,2022-04-28,2022-04-11,株式会社ＩＩＪイノベーションインスティテュート,,株式会社,東京都,千代田区,富士見２丁目１０番２号,,13,101,1020071,,,2022-04-11,合併による解散等,6010001011147,令和４年４月１日東京都千代田区富士見二丁目１０番２号株式会社インターネットイニシアティブ（6010001011147）に合併し解散,2015-10-05,1,,,,,アイアイジェイイノベーションインスティテュート,0
559,3010001138406,登記記録の閉鎖等,0,2022-04-28,2022-04-21,ＡＬＳＯＫリース株式会社,,株式会社,東京都,千代田区,丸の内３丁目４番１号新国際ビル,,13,101,1000005,,,2022-04-21,合併による解散等,3010401016070,令和４年４月１日東京都港区元赤坂一丁目６番６号綜合警備保障株式会社（3010401016070）に合併し解散,2015-10-05,1,,,,,アルソックリース,0
570,3010005028842,登記記録の閉鎖等,0,2022-04-28,2022-04-26,一般社団法人日本金地金メダリオン協会,,その他の設立登記法人,東京都,千代田区,内神田３丁目２０番７号,,13,101,1010047,,,2022-04-26,清算の結了等,,,2018-07-26,1,,,,,ニホンキンジガネメダリオンキョウカイ,0
611,3011101010561,登記記録の閉鎖等,0,2022-04-28,2022-04-11,矢来管財株式会社,,株式会社,東京都,中央区,日本橋２丁目１番１４号日本橋加藤ビルディング６階弁護士法人ＰＬＡＺＡ総合法律事務所内,,13,102,1030027,,,2022-04-11,清算の結了等,,,2015-10-05,1,,,,,ヤライカンザイ,0
632,3012702007789,登記記録の閉鎖等,0,2022-04-28,2022-04-25,有限会社クラフト,,有限会社,東京都,清瀬市,元町２丁目２０番５号,,13,221,2040021,,,2022-04-25,清算の結了等,,,2015-10-05,1,,,,,クラフト,0
656,3020005014288,登記記録の閉鎖等,0,2022-04-28,2022-04-25,一般社団法人中小企業支援センター,,その他の設立登記法人,神奈川県,横浜市西区,高島２丁目１１番２号,,14,103,2200011,,,2022-04-25,清算の結了等,,,2019-08-28,1,,,,,チュウショウキギョウシエンセンター,0
660,3021003005196,登記記録の閉鎖等,0,2022-04-28,2022-04-21,ＢＡ合同会社,,合同会社,神奈川県,相模原市緑区,大島２６９５番地１０,,14,151,2520135,,,2022-04-21,清算の結了等,,,2015-10-05,1,,,,,ビーエー,0
676,3040002073087,登記記録の閉鎖等,0,2022-04-28,2022-04-21,有限会社県都開発,,有限会社,千葉県,市原市,山小川３９２番地１,,12,219,2900521,,,2022-04-21,清算の結了等,,,2015-10-05,1,,,,,ケントカイハツ,0
697,3080102016644,登記記録の閉鎖等,0,2022-04-28,2022-04-26,旭陽工業有限会社,,有限会社,静岡県,富士宮市,内房３９２５番地の３,,22,207,4190317,,,2022-04-26,清算の結了等,,,2015-10-05,1,,,,,キョクヨウコウギョウ,0
703,3110001003806,登記記録の閉鎖等,0,2022-04-28,2022-04-13,株式会社ジェイアール新潟ビジネス,,株式会社,新潟県,新潟市中央区,笹口１丁目９番１,,15,103,9500911,,,2022-04-13,合併による解散等,6110001004520,令和４年４月１日新潟県新潟市中央区笹口一丁目９番１ＪＲ東日本新潟シティクリエイト株式会社（6110001004520）に合併し解散,2015-10-05,1,,,,,ジェイアールニイガタビジネス,0
711,3120001173755,登記記録の閉鎖等,0,2022-04-28,2022-04-25,新田会計事務所株式会社,,株式会社,大阪府,大阪市中央区,伏見町３丁目１番１－８０８号,,27,128,5410044,,,2022-04-25,清算の結了等,,,2015-10-05,1,,,,,ニッタカイケイジムショ,0
727,3130001014272,登記記録の閉鎖等,0,2022-04-28,2022-04-25,協和化成株式会社,,株式会社,京都府,京都市伏見区,淀生津町２番地の２,,26,109,6130914,,,2022-04-25,清算の結了等,,,2015-10-05,1,,,,,キョウワカセイ,0
733,3130002017803,登記記録の閉鎖等,0,2022-04-28,2022-04-26,有限会社渡辺合金製作所,,有限会社,京都府,京都市中京区,壬生坊城町７０番地,,26,104,6048804,,,2022-04-26,清算の結了等,,,2015-10-05,1,,,,,ワタナベゴウキンセイサクショ,0
748,3170002006190,登記記録の閉鎖等,0,2022-04-28,2022-04-18,株式会社ＥＣＯ　ＧＲＥＥＮ,,株式会社,宮城県,石巻市,中屋敷２丁目３番２号,,04,202,9860849,,,2022-04-18,清算の結了等,,,2015-10-05,1,,,,,エコグリーン,0
768,3210002013661,登記記録の閉鎖等,0,2022-04-28,2022-04-21,有限会社石田商店,,有限会社,福井県,小浜市,南川町４番１０号,,18,204,9170075,,,2022-04-21,清算の結了等,,,2015-10-05,1,,,,,イシダショウテン,0
784,3270005005452,登記記録の閉鎖等,0,2022-04-28,2022-04-19,一般社団法人ブライダルツーリズムアソシエーション,,その他の設立登記法人,鳥取県,米子市,新開７丁目２番２１号,,31,202,6830801,,,2022-04-19,清算の結了等,,,2021-03-24,1,,,,,ブライダルツーリズムアソシエーション,0
788,3290001039758,登記記録の閉鎖等,0,2022-04-28,2022-04-25,株式会社インテリア紫水,,株式会社,福岡県,糟屋郡志免町,別府２丁目１９番１号,,40,343,8112205,,,2022-04-25,清算の結了等,,,2015-10-05,1,,,,,インテリアシスイ,0
799,3290002026994,登記記録の閉鎖等,0,2022-04-28,2022-04-25,有限会社マンマミーア,,有限会社,福岡県,福岡市西区,愛宕浜１丁目１番８号塩次内,,40,135,8190013,,,2022-04-25,清算の結了等,,,2015-10-05,1,,,,,マンマミーア,0
806,3330002003659,登記記録の閉鎖等,0,2022-04-28,2022-04-19,有限会社ケイズプロジェクト,,有限会社,熊本県,熊本市東区,戸島町１８０２番地４,,43,102,8618031,,,2022-04-19,清算の結了等,,,2015-10-05,1,,,,,ケイズプロジェクト,0
816,3380005011720,登記記録の閉鎖等,0,2022-04-28,2022-04-22,特定非営利活動法人すみれ会,,その他の設立登記法人,福島県,郡山市,堤下町１２番１４号,,07,203,9638878,,,2022-04-22,清算の結了等,,,2016-09-14,1,,,,,スミレカイ,0
817,3380005012082,登記記録の閉鎖等,0,2022-04-28,2022-04-22,一般社団法人悲しみを佛の智慧に学ぶ会,,その他の設立登記法人,福島県,郡山市,安積町成田字成田６８番地,,07,203,9630112,,,2022-04-22,清算の結了等,,,2018-10-25,1,,,,,カナシミヲホトケノチエニマナブカイ,0
831,3430002065367,登記記録の閉鎖等,0,2022-04-28,2022-04-18,有限会社真英技建,,有限会社,北海道,登別市,若草町４丁目１８番地１,,01,230,0590035,,,2022-04-18,清算の結了等,,,2015-10-05,1,,,,,シンエイギケン,0
839,3470002007836,登記記録の閉鎖等,0,2022-04-28,2022-04-26,有限会社コージー,,有限会社,香川県,高松市,上之町２丁目８番３５号,,37,201,7618064,,,2022-04-26,清算の結了等,,,2015-10-05,1,,,,,コージー,0
866,4010005030707,登記記録の閉鎖等,0,2022-04-28,2022-04-26,一般社団法人ＮＲＴグロース１６,,その他の設立登記法人,東京都,中央区,日本橋２丁目７番１号,,13,102,1030027,,,2022-04-26,清算の結了等,,,2019-09-04,1,,,,,エヌアールティグロースシックスティーン,0
867,4010005031093,登記記録の閉鎖等,0,2022-04-28,2022-04-26,ＳＦＴ　Ｉｎｖｅｓｔｍｅｎｔ特定目的会社,,その他の設立登記法人,東京都,千代田区,丸の内２丁目２番３号丸の内仲通りビル６階,,13,101,1000005,,,2022-04-26,清算の結了等,,,2019-11-21,1,,,,,エスエフティインベストメント,0
910,4011601017246,登記記録の閉鎖等,0,2022-04-28,2022-04-26,株式会社ＲＵＮ,,株式会社,東京都,練馬区,旭町１丁目２９番２号,,13,120,1790071,,,2022-04-26,清算の結了等,,,2015-10-05,1,,,,,ルン,0
937,4020005002449,登記記録の閉鎖等,0,2022-04-28,2022-04-25,横浜瓦斯協同組合,,その他の設立登記法人,神奈川県,横浜市金沢区,幸浦２丁目５番１号,,14,108,2360003,,,2022-04-25,清算の結了等,,,2015-10-05,1,,,,,ヨコハマガス,0
938,4020005007720,登記記録の閉鎖等,0,2022-04-28,2022-04-22,医療法人財団田代医院,,その他の設立登記法人,神奈川県,川崎市幸区,小向西町２丁目２２番３号,,14,132,2120004,,,2022-04-22,清算の結了等,,,2015-10-05,1,,,,,タシロイイン,0
950,4021005000112,登記記録の閉鎖等,0,2022-04-28,2022-04-21,湘南タクシー協同組合,,その他の設立登記法人,神奈川県,藤沢市,川名１丁目１番１号,,14,205,2510015,,,2022-04-21,清算の結了等,,,2015-10-05,1,,,,,ショウナンタクシー,0
959,4040001014033,登記記録の閉鎖等,0,2022-04-28,2022-04-21,株式会社エム・コーポレーション,,株式会社,千葉県,千葉市中央区,椿森６丁目３番１７号,,12,101,2600042,,,2022-04-21,清算の結了等,,,2015-10-05,1,,,,,エムコーポレーション,0
961,4040001060647,登記記録の閉鎖等,0,2022-04-28,2022-04-21,株式会社カーショップライズ,,株式会社,千葉県,千葉市緑区,古市場町３９９番地,,12,105,2660026,,,2022-04-21,清算の結了等,,,2015-10-05,1,,,,,カーショップライズ,0
977,4080102014218,登記記録の閉鎖等,0,2022-04-28,2022-04-27,有限会社鈴木内科医院,,有限会社,静岡県,富士市,伝法３０７５番地の１,,22,210,4170061,,,2022-04-27,清算の結了等,,,2015-10-05,1,,,,,スズキナイカイイン,0
978,4080102014333,登記記録の閉鎖等,0,2022-04-28,2022-04-27,有限会社大孝建設,,有限会社,静岡県,富士市,一色６３７番地,,22,210,4170808,,,2022-04-27,清算の結了等,,,2015-10-05,1,,,,,タイコウケンセツ,0
979,4080102018094,登記記録の閉鎖等,0,2022-04-28,2022-04-26,有限会社泉電設,,有限会社,静岡県,熱海市,泉４６番地,,22,205,4130001,,,2022-04-26,清算の結了等,,,2015-10-05,1,,,,,イズミデンセツ,0
987,4120001173052,登記記録の閉鎖等,0,2022-04-28,2022-04-27,ＴＫＭ株式会社,,株式会社,京都府,京都市南区,上鳥羽川端町６８番地,,26,107,6018171,,,2022-04-27,清算の結了等,,,2015-10-05,1,,,,,ティーケーエム,0
997,4120003019229,登記記録の閉鎖等,0,2022-04-28,2022-04-19,ＭＩＣＨＩＫＯ合同会社,,合同会社,大阪府,大阪市生野区,新今里４丁目２－３－４０１号,,27,116,5440001,,,2022-04-19,清算の結了等,,,2021-04-12,1,,,,,ミチコ,0
1000,4120101006748,登記記録の閉鎖等,0,2022-04-28,2022-04-26,株式会社丸谷本店,,株式会社,大阪府,堺市堺区,材木町東１丁１番１０号,,27,141,5900942,,,2022-04-26,清算の結了等,,,2015-10-05,1,,,,,マルタニホンテン,0
1014,4130002007142,登記記録の閉鎖等,0,2022-04-28,2022-04-22,有限会社坂下昌商店,,有限会社,京都府,京都市下京区,猪熊通五条上る柿本町５８８番地,,26,106,6008357,,,2022-04-22,清算の結了等,,,2015-10-05,1,,,,,サカシタマサショウテン,0
1025,4140005024456,登記記録の閉鎖等,0,2022-04-28,2022-04-25,一般社団法人経営管理センター,,その他の設立登記法人,兵庫県,神戸市中央区,元町通６丁目７番１０号,,28,110,6500022,,,2022-04-25,清算の結了等,,,2019-02-06,1,,,,,ケイエイカンリセンター,0
1028,4160001023583,登記記録の閉鎖等,0,2022-04-28,2022-04-21,株式会社魚徳,,株式会社,滋賀県,長浜市,平方町８６８番地の１,,25,203,5260033,,,2022-04-21,清算の結了等,,,2021-09-06,1,,,,,ウオトク,0
1029,4160002010325,登記記録の閉鎖等,0,2022-04-28,2022-04-26,有限会社マルニチツーワン,,有限会社,滋賀県,東近江市,大塚町１３３６番地,,25,213,5291512,,,2022-04-26,清算の結了等,,,2015-10-05,1,,,,,マルニチツーワン,0
1038,4180301008984,登記記録の閉鎖等,0,2022-04-28,2022-04-20,株式会社スキップコーポレーション,,株式会社,愛知県,豊橋市,大村町字桜島５５番地,,23,201,4400081,,,2022-04-20,清算の結了等,,,2015-10-05,1,,,,,スキップコーポレーション,0
1051,4210001003712,登記記録の閉鎖等,0,2022-04-28,2022-04-26,株式会社前田機械,,株式会社,福井県,福井市,西開発３丁目７１７番地,,18,201,9100843,,,2022-04-26,清算の結了等,,,2015-10-05,1,,,,,マエダキカイ,0
1053,4210002007761,登記記録の閉鎖等,0,2022-04-28,2022-04-25,有限会社北甚,,有限会社,福井県,坂井市,丸岡町西里丸岡第５号４番地,,18,210,9100242,,,2022-04-25,清算の結了等,,,2015-10-05,1,,,,,キタジン,0
1063,4280001004563,登記記録の閉鎖等,0,2022-04-28,2022-04-21,有福観光株式会社,,株式会社,島根県,江津市,有福温泉町６９５番地,,32,207,6950156,,,2022-04-21,清算の結了等,,,2015-10-05,1,,,,,アリフクカンコウ,0
1075,4290002000750,登記記録の閉鎖等,0,2022-04-28,2022-04-22,有限会社長崎屋,00092922,有限会社,福岡県,糸島市,荻浦４丁目３番１号,,40,230,8191121,,,2022-04-22,清算の結了等,,,2015-10-05,1,,,,,ナガサキヤ,0
1102,4360001028232,登記記録の閉鎖等,0,2022-04-28,2022-04-15,株式会社Ｍ＆Ｌ,,株式会社,沖縄県,那覇市,字安里６９番地４、２Ｆ,,47,201,9020067,,,2022-04-15,清算の結了等,,,2021-01-18,1,,,,,エムアンドエル,0
1104,4370001002327,登記記録の閉鎖等,0,2022-04-28,2022-04-15,株式会社湯浅商店,,株式会社,宮城県,仙台市太白区,東中田１丁目１２番２号,,04,104,9811107,,,2022-04-15,清算の結了等,,,2015-10-05,1,,,,,ユアサショウテン,0
1115,4380002025409,登記記録の閉鎖等,0,2022-04-28,2022-04-25,有限会社ハイメック,,有限会社,福島県,いわき市,平下高久字前ノ内１５０番地の２,,07,204,9700221,,,2022-04-25,清算の結了等,,,2015-10-05,1,,,,,ハイメック,0
1141,5010001034099,登記記録の閉鎖等,0,2022-04-28,2022-04-21,株式会社ＵＨＭ,,株式会社,東京都,千代田区,神田三崎町１丁目１番１６号,,13,101,1010061,,,2022-04-21,合併による解散等,9011101082075,令和４年４月１日東京都新宿区西新宿一丁目２６番２号野村不動産ホテルズ株式会社（9011101082075）に合併し解散,2015-10-05,1,,,,,ユーエイチエム,0
1169,5010601049637,登記記録の閉鎖等,0,2022-04-28,2022-04-15,パナレ株式会社,,株式会社,東京都,江東区,東砂１丁目３番２４－１１０５号,,13,108,1360074,,,2022-04-15,清算の結了等,,,2016-04-28,1,,,,,パナレ,0
1213,5020002035038,登記記録の閉鎖等,0,2022-04-28,2022-04-25,有限会社とり山,,有限会社,神奈川県,横浜市港北区,鳥山町１０８９番地,,14,109,2220035,,,2022-04-25,清算の結了等,,,2015-10-05,1,,,,,トリヤマ,0
1225,5021005011562,登記記録の閉鎖等,0,2022-04-28,2022-04-21,特定非営利活動法人スマイルガーデン江の島,,その他の設立登記法人,神奈川県,藤沢市,片瀬海岸１丁目８番１８号ガーデンズビス江ノ島１－Ｃ,,14,205,2510035,,,2022-04-21,清算の結了等,,,2019-04-04,1,,,,,スマイルガーデンエノシマ,0
1226,5030001013200,登記記録の閉鎖等,0,2022-04-28,2022-04-22,ネクストリーム株式会社,,株式会社,埼玉県,さいたま市見沼区,東大宮４丁目５９番地１１,,11,104,3370051,,,2022-04-22,清算の結了等,,,2015-10-05,1,,,,,ネクストリーム,0
1230,5030002023231,登記記録の閉鎖等,0,2022-04-28,2022-04-21,株式会社柳伸,,株式会社,埼玉県,川口市,西川口１丁目５番２０号,,11,203,3320021,,,2022-04-21,合併による解散等,1030001020175,令和４年４月２１日埼玉県戸田市新曽南二丁目１１番２５号共栄商事株式会社（1030001020175）に合併し解散,2015-10-05,1,,,,,リュウシン,0
1253,5080402002549,登記記録の閉鎖等,0,2022-04-28,2022-04-26,有限会社久保田,,有限会社,静岡県,浜松市中区,佐鳴台４丁目１１番２４号,,22,131,4328021,,,2022-04-26,清算の結了等,,,2015-10-05,1,,,,,クボタ,0
1258,5090002001784,登記記録の閉鎖等,0,2022-04-28,2022-04-25,有限会社積善,,有限会社,山梨県,甲府市,朝日５丁目７番２号,,19,201,4000025,,,2022-04-25,清算の結了等,,,2015-10-05,1,,,,,セキゼン,0
1290,5120101063549,登記記録の閉鎖等,0,2022-04-28,2022-04-26,ＳＡＣＩＱ株式会社,,株式会社,大阪府,泉南郡岬町,望海坂１丁目１１番１７号,,27,366,5990304,,,2022-04-26,清算の結了等,,,2021-04-28,1,,,,,サシック,0
1292,5120102000336,登記記録の閉鎖等,0,2022-04-28,2022-04-22,有限会社新井土木,,有限会社,大阪府,堺市堺区,少林寺町西２丁２番２３号,,27,141,5900960,,,2022-04-22,清算の結了等,,,2015-10-05,1,,,,,アライドボク,0
1302,5130002027692,登記記録の閉鎖等,0,2022-04-28,2022-04-22,有限会社タザン電子,,有限会社,京都府,宇治市,木幡北山畑２０番地の１,,26,204,6110002,,,2022-04-22,清算の結了等,,,2015-10-05,1,,,,,タザンデンシ,0
1306,5140001047674,登記記録の閉鎖等,0,2022-04-28,2022-04-25,株式会社イトウカンコウ,,株式会社,兵庫県,尼崎市,稲葉荘１丁目１６番１９号,,28,202,6600064,,,2022-04-25,清算の結了等,,,2015-10-05,1,,,,,イトウカンコウ,0
1307,5140001053292,登記記録の閉鎖等,0,2022-04-28,2022-04-18,阪神鉄骨建設株式会社,,株式会社,兵庫県,尼崎市,道意町１丁目４番地,,28,202,6600083,,,2022-04-18,清算の結了等,,,2015-10-05,1,,,,,ハンシンテッコツケンセツ,0
1318,5160001010713,登記記録の閉鎖等,0,2022-04-28,2022-04-27,協和自動車株式会社,,株式会社,滋賀県,近江八幡市,西庄町１９４５番地,,25,204,5230816,,,2022-04-27,清算の結了等,,,2015-10-05,1,,,,,キョウワジドウシャ,0
1328,5180001141969,登記記録の閉鎖等,0,2022-04-28,2022-04-22,株式会社春福,,株式会社,愛知県,豊川市,中央通２丁目１２番地,,23,207,4420051,,,2022-04-22,清算の結了等,,,2020-07-10,1,,,,,ハルフク,0
1333,5180301008892,登記記録の閉鎖等,0,2022-04-28,2022-04-20,寺田設計事務所株式会社,,株式会社,愛知県,豊橋市,佐藤２丁目２９番地２,,23,201,4400853,,,2022-04-20,清算の結了等,,,2015-10-05,1,,,,,テラダセッケイ,0
1380,5290801016814,登記記録の閉鎖等,0,2022-04-28,2022-04-15,原口建設株式会社,,株式会社,福岡県,田川郡糸田町,３４７９番地,,40,604,8221300,,,2022-04-15,清算の結了等,,,2015-10-05,1,,,,,ハラグチケンセツ,0
1383,5300005005199,登記記録の閉鎖等,0,2022-04-28,2022-04-26,一般社団法人唐津市身体障害者福祉協会,,その他の設立登記法人,佐賀県,唐津市,東城内１番３号,,41,202,8470016,,,2022-04-26,清算の結了等,,,2015-10-05,1,,,,,カラツシシンタイショウガイシャフクシキョウカイ,0
1389,5330002027870,登記記録の閉鎖等,0,2022-04-28,2022-04-08,肥薩瓦有限会社,00097976,有限会社,熊本県,葦北郡津奈木町,大字千代６３９番地,,43,484,8695601,,,2022-04-08,清算の結了等,,,2015-10-05,1,,,,,ヒサツカワラ,0
1393,5350002010346,登記記録の閉鎖等,0,2022-04-28,2022-04-26,有限会社徳元商事,,有限会社,宮崎県,宮崎市,希望ケ丘４丁目１５番２１号,,45,201,8800923,,,2022-04-26,清算の結了等,,,2015-10-05,1,,,,,トクモトショウジ,0
1406,5430001003202,登記記録の閉鎖等,0,2022-04-28,2022-04-18,株式会社丘珠設備工業,,株式会社,北海道,札幌市東区,北四十六条東１６丁目１番５２号,,01,103,0070846,,,2022-04-18,清算の結了等,,,2015-10-05,1,,,,,オカダマセツビコウギョウ,0
1414,5460001005658,登記記録の閉鎖等,0,2022-04-28,2022-04-21,株式会社丸本本間商店,,株式会社,北海道,釧路市,錦町２丁目１番地,,01,206,0850016,,,2022-04-21,清算の結了等,,,2022-03-08,1,,,,,マルホンホンマショウテン,0
1425,6010001067420,登記記録の閉鎖等,0,2022-04-28,2022-04-22,メルコトラベル株式会社,,株式会社,東京都,千代田区,丸の内２丁目２番１号,,13,101,1000005,,,2022-04-22,合併による解散等,5010401059497,令和４年４月１日東京都港区芝公園二丁目４番１号三菱電機ライフサービス株式会社（5010401059497）に合併し解散,2015-10-05,1,,,,,メルコトラベル,0
1439,6010001152569,登記記録の閉鎖等,0,2022-04-28,2022-04-11,株式会社フージャースアベニュー,,株式会社,東京都,中央区,日本橋室町４丁目３番１６号,,13,102,1030022,,,2022-04-11,合併による解散等,8010001051604,令和４年４月１日東京都千代田区丸の内二丁目２番３号株式会社フージャースコーポレーション（8010001051604）に合併し解散,2015-10-05,1,,,,,フージャースアベニュー,0
1485,6011101011607,登記記録の閉鎖等,0,2022-04-28,2022-04-15,株式会社叢林書院,,株式会社,東京都,新宿区,大久保２丁目１８番１０号,,13,104,1690072,,,2022-04-15,清算の結了等,,,2015-10-05,1,,,,,ソウリンショイン,0
1492,6011201010962,登記記録の閉鎖等,0,2022-04-28,2022-04-14,株式会社ＰＰＲ,,株式会社,東京都,中野区,上鷺宮５丁目２５番６号,,13,114,1650031,,,2022-04-14,清算の結了等,,,2015-10-05,1,,,,,,0
1498,6011602004308,登記記録の閉鎖等,0,2022-04-28,2022-04-27,有限会社サクマシステムエンジニアリング,,有限会社,東京都,練馬区,春日町１丁目１８番２４号,,13,120,1790074,,,2022-04-27,清算の結了等,,,2015-10-05,1,,,,,サクマシステムエンジニアリング,0
1508,6012702001244,登記記録の閉鎖等,0,2022-04-28,2022-04-27,有限会社天光電機製作所,,有限会社,東京都,小平市,御幸町１２７番地,,13,211,1870012,,,2022-04-27,清算の結了等,,,2015-10-05,1,,,,,テンコウデンキセイサクジョ,0
1510,6013101005860,登記記録の閉鎖等,0,2022-04-28,2022-04-27,株式会社Ｉ・Ｐトラスト,,株式会社,東京都,青梅市,藤橋１丁目４１７番１６号,,13,205,1980022,,,2022-04-27,清算の結了等,,,2015-10-05,1,,,,,,0
1542,6021001065586,登記記録の閉鎖等,0,2022-04-28,2022-04-25,株式会社メイコーエレクトロニクスサービス,,株式会社,神奈川県,綾瀬市,大上５丁目１４番１５号,,14,218,2521104,,,2022-04-25,清算の結了等,,,2018-09-05,1,,,,,メイコーエレクトロニクスサービス,0
1548,6030001019097,登記記録の閉鎖等,0,2022-04-28,2022-04-21,株式会社柳輝,,株式会社,埼玉県,さいたま市岩槻区,鈎上新田９７１番地１,,11,110,3390000,,,2022-04-21,合併による解散等,1030001020175,令和４年４月２１日埼玉県戸田市新曽南二丁目１１番２５号共栄商事株式会社（1030001020175）に合併し解散,2015-10-05,1,,,,,リュウキ,0
1551,6030001055761,登記記録の閉鎖等,0,2022-04-28,2022-04-22,ユウ建築企画株式会社,,株式会社,埼玉県,川越市,南大塚２丁目１３番地２,,11,201,3501162,,,2022-04-22,清算の結了等,,,2015-10-05,1,,,,,ユウケンチクキカク,0
1561,6040002066352,登記記録の閉鎖等,0,2022-04-28,2022-04-21,有限会社カサイ建築,,有限会社,千葉県,袖ケ浦市,三箇４９７番地９,,12,229,2990212,,,2022-04-21,清算の結了等,,,2015-10-05,1,,,,,カサイケンチク,0
1575,6080101015413,登記記録の閉鎖等,0,2022-04-28,2022-04-27,株式会社ケーズカンパニー,,株式会社,静岡県,裾野市,須山２２５５番地の４９４１,,22,220,4101231,,,2022-04-27,清算の結了等,,,2015-10-05,1,,,,,,0
1624,6160001012733,登記記録の閉鎖等,0,2022-04-28,2022-04-25,関西環境計量サービス株式会社,,株式会社,滋賀県,草津市,青地町３７２番地,,25,206,5250041,,,2022-04-25,清算の結了等,,,2015-10-05,1,,,,,カンサイカンキョウケイリョウサービス,0
1625,6170001009596,登記記録の閉鎖等,0,2022-04-28,2022-04-26,株式会社しままえテニスコート,,株式会社,和歌山県,西牟婁郡白浜町,３２１番地,,30,401,6492211,,,2022-04-26,清算の結了等,,,2015-10-05,1,,,,,シママエテニスコート,0
1629,6180001099851,登記記録の閉鎖等,0,2022-04-28,2022-04-20,株式会社エイチテック,,株式会社,愛知県,愛知郡東郷町,春木台２丁目１３番地３１,,23,302,4700161,,,2022-04-20,清算の結了等,,,2015-10-05,1,,,,,エイチテック,0
1645,6180301009048,登記記録の閉鎖等,0,2022-04-28,2022-04-18,株式会社Ｂｌｏｅｍｅｎ　Ｖａｎ　Ｔｈｕｒａ,,株式会社,愛知県,豊橋市,冨士見町２６７番地,,23,201,4413126,,,2022-04-18,清算の結了等,,,2015-10-05,1,,,,,ブルマンファンチュラ,0
1647,6180302000393,登記記録の閉鎖等,0,2022-04-28,2022-04-21,有限会社いろは,,有限会社,愛知県,岡崎市,戸崎町字才苗１２番地３,,23,202,4440840,,,2022-04-21,清算の結了等,,,2015-10-05,1,,,,,イロハ,0
1688,6330001024620,登記記録の閉鎖等,0,2022-04-28,2022-04-19,株式会社バニーユ,,株式会社,熊本県,宇土市,入地町１６８番地１,,43,211,8690422,,,2022-04-19,清算の結了等,,,2017-10-16,1,,,,,バニーユ,0
1720,6460305000387,登記記録の閉鎖等,0,2022-04-28,2022-04-19,国立大学法人北見工業大学,,その他の設立登記法人,北海道,北見市,公園町１６５番地,,01,208,0900015,,,2022-04-19,清算の結了等,,,2015-10-05,1,,,,,キタミコウギョウダイガク,0
1721,6470001008072,登記記録の閉鎖等,0,2022-04-28,2022-04-25,株式会社エスエヌ,,株式会社,京都府,京都市上京区,宮垣町９１番まむあん荒神口１０２,,26,102,6020853,,,2022-04-25,清算の結了等,,,2015-10-05,1,,,,,エスエヌ,0
1732,7010001159522,登記記録の閉鎖等,0,2022-04-28,2022-04-21,株式会社Ｂｅａｕｔｙ　Ｄｉａｍｏｎｄ,,株式会社,千葉県,千葉市中央区,富士見２丁目１６－４三社プラザビル６０３,,12,101,2600015,,,2022-04-21,清算の結了等,,,2015-10-05,1,,,,,ビューティーダイヤモンド,0
1735,7010001215408,登記記録の閉鎖等,0,2022-04-28,2022-04-11,株式会社ＷＢＰ,,株式会社,東京都,中央区,銀座３丁目１０番６号マルイトギンザ第３ビル地下一階,,13,102,1040061,,,2022-04-11,清算の結了等,,,2021-01-29,1,,,,,ダブリュービーピー,0
1737,7010001219895,登記記録の閉鎖等,0,2022-04-28,2022-04-11,株式会社よりそいファースト,,株式会社,東京都,千代田区,大手町１丁目９番５号大手町フィナンシャルシティノースタワー,,13,101,1000004,,,2022-04-11,清算の結了等,,,2021-07-27,1,,,,,ヨリソイファースト,0
1745,7010003027735,登記記録の閉鎖等,0,2022-04-28,2022-04-11,合同会社青山Ｍ２,,合同会社,東京都,千代田区,神田淡路町１丁目５番地３,,13,101,1010063,,,2022-04-11,清算の結了等,,,2018-06-18,1,,,,,アオヤマエムツー,0
1746,7010003029095,登記記録の閉鎖等,0,2022-04-28,2022-04-11,合同会社陽の杜笑店,,合同会社,東京都,中央区,月島１丁目１６番地１２号,,13,102,1040052,,,2022-04-11,清算の結了等,,,2019-01-21,1,,,,,ヒノモリショウテン,0
1754,7010502016387,登記記録の閉鎖等,0,2022-04-28,2022-04-11,有限会社エヌワイプラン,,有限会社,東京都,中央区,日本橋馬喰町１丁目６番１５号,,13,102,1030002,,,2022-04-11,清算の結了等,,,2015-10-05,1,,,,,エヌワイプラン,0
1795,7011801005312,登記記録の閉鎖等,0,2022-04-28,2022-04-20,株式会社レデイ・バード,,株式会社,東京都,葛飾区,東新小岩６丁目８番１号,,13,122,1240023,,,2022-04-20,清算の結了等,,,2021-12-07,1,,,,,レデイバード,0
1797,7011803004601,登記記録の閉鎖等,0,2022-04-28,2022-04-22,ラストライン合同会社,,合同会社,東京都,足立区,花畑５丁目１０番２７－５０１号,,13,121,1210061,,,2022-04-22,清算の結了等,,,2021-05-06,1,,,,,ラストライン,0
1810,7020001059481,登記記録の閉鎖等,0,2022-04-28,2022-04-25,レイバン産業株式会社,,株式会社,神奈川県,横浜市鶴見区,駒岡４丁目１９－１７－３０４号,,14,101,2300071,,,2022-04-25,清算の結了等,,,2015-10-05,1,,,,,レイバンサンギョウ,0
1814,7020001115268,登記記録の閉鎖等,0,2022-04-28,2022-04-22,株式会社インプルーブメント,,株式会社,神奈川県,横浜市中区,海岸通４丁目２０番地２ＹＴ馬車道ビル４０６号室,,14,104,2310002,,,2022-04-22,清算の結了等,,,2016-03-15,1,,,,,インプルーブメント,0
1857,7050001030480,登記記録の閉鎖等,0,2022-04-28,2022-04-21,フードリサーチ株式会社,,株式会社,茨城県,牛久市,中央１丁目１９番地１,,08,219,3001234,,,2022-04-21,清算の結了等,,,2015-10-05,1,,,,,,0
1863,7060001000796,登記記録の閉鎖等,0,2022-04-28,2022-04-25,エーセイエネルギー株式会社,,株式会社,栃木県,宇都宮市,駒生町１８０７番地,,09,201,3200065,,,2022-04-25,清算の結了等,,,2015-10-05,1,,,,,エーセイエネルギー,0
1865,7060002013938,登記記録の閉鎖等,0,2022-04-28,2022-04-25,有限会社桜井製作所,,有限会社,栃木県,那須烏山市,滝田５５４番地,,09,215,3210605,,,2022-04-25,清算の結了等,,,2015-10-05,1,,,,,サクライセイサクショ,0
1872,7100002037791,登記記録の閉鎖等,0,2022-04-28,2022-04-18,有限会社伊藤工業,,有限会社,長野県,飯田市,中村１１８４番地６,,20,205,3950156,,,2022-04-18,清算の結了等,,,2015-10-05,1,,,,,,0
1878,7120001070263,登記記録の閉鎖等,0,2022-04-28,2022-04-21,宝来食品株式会社,,株式会社,大阪府,大阪市北区,中津１丁目１３番９号,,27,127,5310071,,,2022-04-21,清算の結了等,,,2015-10-05,1,,,,,,0
1917,7140002040924,登記記録の閉鎖等,0,2022-04-28,2022-04-25,三幸サービス有限会社,,有限会社,大阪府,大阪市西淀川区,御幣島２丁目１５番２８号,,27,113,5550012,,,2022-04-25,清算の結了等,,,2015-10-05,1,,,,,サンコウサービス,0
1927,7180001013002,登記記録の閉鎖等,0,2022-04-28,2022-04-25,中村製材株式会社,,株式会社,愛知県,名古屋市北区,上飯田南町５丁目３番地,,23,103,4620804,,,2022-04-25,清算の結了等,,,2015-10-05,1,,,,,ナカムラセイザイ,0
1928,7180001081858,登記記録の閉鎖等,0,2022-04-28,2022-04-20,株式会社リーウェイ＆フリーダム,,株式会社,愛知県,瀬戸市,苗場町４８番地の２スペリア瀬戸４０２,,23,204,4890983,,,2022-04-20,清算の結了等,,,2015-10-05,1,,,,,リーウェイアンドフリーダム,0
1930,7180001103050,登記記録の閉鎖等,0,2022-04-28,2022-04-22,株式会社泰信,,株式会社,愛知県,名古屋市南区,星宮町１１９番地シャトール星宮３０２号,,23,112,4570055,,,2022-04-22,清算の結了等,,,2015-10-05,1,,,,,タイシン,0
1936,7180003014519,登記記録の閉鎖等,0,2022-04-28,2022-04-26,合同会社ボルト,,合同会社,愛知県,清須市,東外町３８番地２,,23,233,4520906,,,2022-04-26,清算の結了等,,,2015-10-05,1,,,,,ボルト,0
1942,7180301021472,登記記録の閉鎖等,0,2022-04-28,2022-04-20,株式会社サンライズ,,株式会社,愛知県,豊田市,土橋町５丁目１３番地１,,23,211,4710842,,,2022-04-20,清算の結了等,,,2015-10-05,1,,,,,サンライズ,0
1947,7190002008842,登記記録の閉鎖等,0,2022-04-28,2022-04-18,有限会社三和電器,,有限会社,三重県,伊勢市,黒瀬町２４０番地１,,24,203,5160018,,,2022-04-18,清算の結了等,,,2015-10-05,1,,,,,サンワデンキ,0
1961,7240002054443,登記記録の閉鎖等,0,2022-04-28,2022-04-25,有限会社マルヤス,,有限会社,広島県,三原市,大和町大具３８３７番地３,,34,204,7291323,,,2022-04-25,清算の結了等,,,2015-10-05,1,,,,,マルヤス,0
1970,7270001001138,登記記録の閉鎖等,0,2022-04-28,2022-04-18,株式会社住宅研究所,,株式会社,鳥取県,鳥取市,東品治町１２１番地９,,31,201,6800835,,,2022-04-18,合併による解散等,8270001000460,令和４年４月１８日鳥取市東品治町１２１番地９株式会社デコール（8270001000460）に合併し解散,2015-10-05,1,,,,,ジュウタクケンキュウジョ,0
1977,7280002006060,登記記録の閉鎖等,0,2022-04-28,2022-04-26,明和商事有限会社,,有限会社,島根県,出雲市,今市町８０５番地１,,32,203,6930001,,,2022-04-26,清算の結了等,,,2015-10-05,1,,,,,メイワショウジ,0
2018,7380001026363,登記記録の閉鎖等,0,2022-04-28,2022-04-20,株式会社ニューウェーブ福島,,株式会社,福島県,喜多方市,字経壇１９番地１,,07,208,9660892,,,2022-04-20,清算の結了等,,,2016-01-13,1,,,,,ニューウェーブフクシマ,0
2033,7430005008674,登記記録の閉鎖等,0,2022-04-28,2022-04-12,一般社団法人北海道トラックスリゾートプロパティーズ,,その他の設立登記法人,北海道,虻田郡倶知安町,字山田１９０番地１８,,01,400,0440081,,,2022-04-12,清算の結了等,,,2015-10-05,1,,,,,ホッカイドウトラックスリゾートプロパティーズ,0
2058,8010003015136,登記記録の閉鎖等,0,2022-04-28,2022-04-11,東池袋合同会社,,合同会社,東京都,千代田区,平河町１丁目６番１５号シルスフィア会計事務所内,,13,101,1020093,,,2022-04-11,清算の結了等,,,2015-10-05,1,,,,,ヒガシイケブクロ,0
2071,8010403024694,登記記録の閉鎖等,0,2022-04-28,2022-04-12,京都ファイナンス合同会社,,合同会社,東京都,港区,虎ノ門３丁目２２番１０－２０１号,,13,103,1050001,,,2022-04-12,清算の結了等,,,2021-02-15,1,,,,,キョウトファイナンス,0
2075,8010701035550,登記記録の閉鎖等,0,2022-04-28,2022-04-21,フィンテックＭ＆Ａソリューション株式会社,,株式会社,東京都,品川区,上大崎３丁目１番１号目黒セントラルスクエア,,13,109,1410021,,,2022-04-21,清算の結了等,,,2018-03-23,1,,,,,フィンテックエムアンドエーソリューション,0
2079,8010802012085,登記記録の閉鎖等,0,2022-04-28,2022-04-22,有限会社ヒロキ,,有限会社,東京都,大田区,大森東５丁目２１番１号,,13,111,1430012,,,2022-04-22,清算の結了等,,,2015-10-05,1,,,,,,0
2115,8012302000181,登記記録の閉鎖等,0,2022-04-28,2022-04-20,有限会社アットワーク,,有限会社,東京都,町田市,森野２丁目２７番８,,13,209,1940022,,,2022-04-20,清算の結了等,,,2015-10-05,1,,,,,アットワーク,0
2131,8020002016621,登記記録の閉鎖等,0,2022-04-28,2022-04-22,有限会社三共運輸商会,,有限会社,神奈川県,横浜市港北区,篠原東２丁目１４番２３号,,14,109,2220022,,,2022-04-22,清算の結了等,,,2015-10-05,1,,,,,サンキョウウンユショウカイ,0
2140,8030001004188,登記記録の閉鎖等,0,2022-04-28,2022-04-21,株式会社新星コンサルタント,,株式会社,埼玉県,さいたま市北区,宮原町４丁目１４番地１０,,11,102,3310812,,,2022-04-21,清算の結了等,,,2015-10-05,1,,,,,シンセイコンサルタント,0
2144,8030001103808,登記記録の閉鎖等,0,2022-04-28,2022-04-22,株式会社光エンジニアリング,,株式会社,埼玉県,北足立郡伊奈町,大字小室４４０３番地１,,11,301,3620806,,,2022-04-22,清算の結了等,,,2015-10-05,1,,,,,ヒカルエンジニアリング,0
2160,8040001092538,登記記録の閉鎖等,0,2022-04-28,2022-04-21,株式会社深澤鋼業,,株式会社,千葉県,船橋市,本中山５丁目１２番８号,,12,204,2730035,,,2022-04-21,清算の結了等,,,2015-10-28,1,,,,,フカサワコウギョウ,0
2176,8080101004190,登記記録の閉鎖等,0,2022-04-28,2022-04-27,株式会社東海エステート,,株式会社,静岡県,御殿場市,新橋１９８４番地の２,,22,215,4120043,,,2022-04-27,清算の結了等,,,2015-10-05,1,,,,,トウカイエステート,0
2179,8080405006552,登記記録の閉鎖等,0,2022-04-28,2022-04-27,特定非営利活動法人心・ライフサポートネット,,その他の設立登記法人,静岡県,浜松市天竜区,両島７１５番地の１,,22,137,4313426,,,2022-04-27,清算の結了等,,,2015-10-05,1,,,,,ココロライフサポートネット,0
2187,8120001025051,登記記録の閉鎖等,0,2022-04-28,2022-04-25,株式会社広森紙工所,,株式会社,大阪府,大阪市天王寺区,大道２丁目１０番２７号,,27,109,5430052,,,2022-04-25,清算の結了等,,,2015-10-05,1,,,,,ヒロモリシコウショ,0
2201,8120003013657,登記記録の閉鎖等,0,2022-04-28,2022-04-26,合同会社Ａｒｉｓｅ,,合同会社,大阪府,大阪市中央区,森ノ宮中央２丁目１３番３５－９０６号,,27,128,5400003,,,2022-04-26,清算の結了等,,,2017-12-07,1,,,,,アライズ,0
2222,8130001021537,登記記録の閉鎖等,0,2022-04-28,2022-04-25,立花商事株式会社,,株式会社,京都府,京都市中京区,西ノ京小堀町２番地の１０,,26,104,6048383,,,2022-04-25,清算の結了等,,,2015-10-05,1,,,,,,0
2246,8180301032758,登記記録の閉鎖等,0,2022-04-28,2022-04-21,株式会社豊萬,,株式会社,愛知県,豊田市,大清水町大清水６３番地６,,23,211,4700342,,,2022-04-21,清算の結了等,,,2019-07-08,1,,,,,トヨマン,0
2255,8210001017568,登記記録の閉鎖等,0,2022-04-28,2022-04-11,株式会社ジー・アドバンス,,株式会社,福井県,敦賀市,原６２号２番地の１,,18,202,9140824,,,2022-04-11,合併による解散等,2370001014043,令和４年３月３１日仙台市青葉区五橋一丁目４番２４号株式会社ジー・エネックス（2370001014043）に合併し解散,2019-06-06,1,,,,,ジーアドバンス,0
2264,8240002051712,登記記録の閉鎖等,0,2022-04-28,2022-04-25,有限会社ヤマワキ,,有限会社,広島県,尾道市,美ノ郷町三成１６０４番地の１,,34,205,7220215,,,2022-04-25,清算の結了等,,,2015-10-05,1,,,,,ヤマワキ,0
2267,8260001005196,登記記録の閉鎖等,0,2022-04-28,2022-04-27,株式会社日興メンテナンス,,株式会社,岡山県,岡山市北区,磨屋町２番１号,,33,101,7000826,,,2022-04-27,合併による解散等,2260001005193,令和４年４月２７日岡山市北区磨屋町２番１号株式会社日興不動産（2260001005193）に合併し解散,2015-10-05,1,,,,,ニッコウメンテナンス,0
2269,8270001007670,登記記録の閉鎖等,0,2022-04-28,2022-04-21,株式会社細田商店,,株式会社,鳥取県,米子市,祇園町２丁目２６番地１,,31,202,6830047,,,2022-04-21,清算の結了等,,,2019-01-09,1,,,,,ホソダショウテン,0
2301,8390001008021,登記記録の閉鎖等,0,2022-04-28,2022-04-25,株式会社デンザイ,,株式会社,山形県,鶴岡市,城北町８番３０号,,06,203,9970041,,,2022-04-25,清算の結了等,,,2015-10-05,1,,,,,デンザイ,0
2302,8400002002120,登記記録の閉鎖等,0,2022-04-28,2022-04-27,有限会社テーアイ設備研究所,,有限会社,岩手県,盛岡市,黒川８地割４７番地３,,03,201,0200402,,,2022-04-27,清算の結了等,,,2015-10-05,1,,,,,テーアイセツビケンキュウジョ,0
2313,8430003011002,登記記録の閉鎖等,0,2022-04-28,2022-04-19,合同会社ノーズカンパニー,,合同会社,北海道,札幌市中央区,大通西１８丁目１－４３,,01,101,0600042,,,2022-04-19,清算の結了等,,,2019-11-22,1,,,,,ノーズカンパニー,0
2315,8450001007009,登記記録の閉鎖等,0,2022-04-28,2022-04-27,株式会社雅,,株式会社,北海道,旭川市,東光六条１丁目２番１３号,,01,204,0788346,,,2022-04-27,清算の結了等,,,2015-10-05,1,,,,,ミヤビ,0
2319,8460301000562,登記記録の閉鎖等,0,2022-04-28,2022-04-22,株式会社ソヤノ,,株式会社,北海道,北見市,美園４３８番地１５,,01,208,0990879,,,2022-04-22,清算の結了等,,,2015-10-05,1,,,,,ソヤノ,0
2328,9010001086467,登記記録の閉鎖等,0,2022-04-28,2022-04-11,株式会社蒼陽社,,株式会社,東京都,千代田区,神田三崎町２丁目２０番７号水道橋西口会館３０７号,,13,101,1010061,,,2022-04-11,清算の結了等,,,2015-10-05,1,,,,,ソウヨウシャ,0
2346,9010401119413,登記記録の閉鎖等,0,2022-04-28,2022-04-11,株式会社仙石山オペレーションズ,,株式会社,東京都,中央区,京橋２丁目６番１４号,,13,102,1040031,,,2022-04-11,清算の結了等,,,2015-10-05,1,,,,,センゴクヤマオペレーションズ,0
2363,9010701029386,登記記録の閉鎖等,0,2022-04-28,2022-04-21,株式会社ｃｒｅｅｚ　ｈｏｍｅ,,株式会社,東京都,品川区,西五反田１丁目１１番１号,,13,109,1410031,,,2022-04-21,清算の結了等,,,2015-10-05,1,,,,,クリーズホーム,0
2378,9011001116841,登記記録の閉鎖等,0,2022-04-28,2022-04-13,株式会社トゥエンティーストーリー,,株式会社,東京都,渋谷区,代官山町１７番５－４０３号,,13,113,1500034,,,2022-04-13,清算の結了等,,,2017-06-14,1,,,,,トゥエンティーストーリー,0
2381,9011003008855,登記記録の閉鎖等,0,2022-04-28,2022-04-25,合同会社スマートラボ,,合同会社,東京都,目黒区,下目黒４丁目１番１６－８０４号,,13,110,1530064,,,2022-04-25,清算の結了等,,,2018-06-12,1,,,,,,0
2395,9011501003820,登記記録の閉鎖等,0,2022-04-28,2022-04-22,はたみ光学工業株式会社,,株式会社,東京都,北区,堀船１丁目７番１号,,13,117,1140004,,,2022-04-22,清算の結了等,,,2015-10-05,1,,,,,ハタミコウガクコウギョウ,0
2432,9021001033177,登記記録の閉鎖等,0,2022-04-28,2022-04-21,株式会社松浦自動車整備工場,,株式会社,神奈川県,小田原市,北ノ窪５０９番地,,14,206,2500051,,,2022-04-21,清算の結了等,,,2015-10-05,1,,,,,,0
2441,9030001070980,登記記録の閉鎖等,0,2022-04-28,2022-04-15,株式会社丸信建設,,株式会社,埼玉県,東松山市,日吉町９番２１号,,11,212,3550012,,,2022-04-15,清算の結了等,,,2015-10-05,1,,,,,マルシンケンセツ,0
2447,9040001028359,登記記録の閉鎖等,0,2022-04-28,2022-04-21,明和之興業株式会社,,株式会社,千葉県,鎌ケ谷市,軽井沢２０２７番地３,,12,224,2730131,,,2022-04-21,清算の結了等,,,2015-10-05,1,,,,,メイワノコウギョウ,0
2450,9040001099144,登記記録の閉鎖等,0,2022-04-28,2022-04-21,株式会社たま企画,,株式会社,千葉県,茂原市,緑ケ丘４丁目３番地５,,12,210,2970065,,,2022-04-21,清算の結了等,,,2017-03-08,1,,,,,タマキカク,0
2452,9040002077462,登記記録の閉鎖等,0,2022-04-28,2022-04-21,有限会社創健,,有限会社,千葉県,東金市,田間２丁目３７番地９,,12,213,2830005,,,2022-04-21,清算の結了等,,,2015-10-05,1,,,,,ソウケン,0
2458,9060005009519,登記記録の閉鎖等,0,2022-04-28,2022-04-22,一般社団法人星音,,その他の設立登記法人,栃木県,足利市,大門通２３７１番地１,,09,202,3260812,,,2022-04-22,清算の結了等,,,2018-11-08,1,,,,,セイネ,0
2471,9090002006136,登記記録の閉鎖等,0,2022-04-28,2022-04-26,有限会社遠藤銘木産業,,有限会社,山梨県,甲府市,国母７丁目１２番３３号,,19,201,4000043,,,2022-04-26,清算の結了等,,,2015-10-05,1,,,,,エンドウメイボクサンギョウ,0
2478,9120001042657,登記記録の閉鎖等,0,2022-04-28,2022-04-25,株式会社共栄組,,株式会社,広島県,福山市,幕山台８丁目１７番１９号,,34,207,7210913,,,2022-04-25,清算の結了等,,,2015-10-05,1,,,,,キョウエイグミ,0
2482,9120001116246,登記記録の閉鎖等,0,2022-04-28,2022-04-25,ＣＴＴ　ＣＡＰＩＴＡＬ株式会社,,株式会社,兵庫県,神戸市中央区,港島中町６丁目２番３号,,28,110,6500046,,,2022-04-25,清算の結了等,,,2015-10-05,1,,,,,シーティティキャピタル,0
2493,9120101028457,登記記録の閉鎖等,0,2022-04-28,2022-04-25,株式会社ＲＩＳＥ,,株式会社,大阪府,大阪狭山市,今熊３丁目６９２番地の４２,,27,231,5890021,,,2022-04-25,清算の結了等,,,2015-10-05,1,,,,,,0
2502,9140001001660,登記記録の閉鎖等,0,2022-04-28,2022-04-25,株式会社シー・シー・ティー商事,,株式会社,兵庫県,神戸市東灘区,向洋町中６丁目９番地,,28,101,6580032,,,2022-04-25,清算の結了等,,,2015-10-05,1,,,,,,0
2510,9140002061935,登記記録の閉鎖等,0,2022-04-28,2022-04-25,有限会社のうしょう動物病院,,有限会社,兵庫県,西脇市,和田町６８８番地の３１,,28,213,6770052,,,2022-04-25,清算の結了等,,,2015-10-05,1,,,,,ノウショウドウブツビョウイン,0
2522,9160002012572,登記記録の閉鎖等,0,2022-04-28,2022-04-25,有限会社伊藤雄二管理事務所,,有限会社,滋賀県,栗東市,目川４２９番地,,25,208,5203013,,,2022-04-25,清算の結了等,,,2015-10-05,1,,,,,イトウユウジカンリジムショ,0
2537,9180005007097,登記記録の閉鎖等,0,2022-04-28,2022-04-25,特定非営利活動法人ＭｅＤＩＣＣ,,その他の設立登記法人,愛知県,名古屋市西区,名駅２丁目３４番１７号セントラル名古屋－１１０１号,,23,104,4510045,,,2022-04-25,清算の結了等,,,2015-10-05,1,,,,,メディック,0
2577,9290805005405,登記記録の閉鎖等,0,2022-04-28,2022-04-25,特定非営利活動法人里山宮の森,,その他の設立登記法人,福岡県,遠賀郡岡垣町,東高倉２丁目７番２号,,40,383,8114237,,,2022-04-25,清算の結了等,,,2015-10-05,1,,,,,サトヤマミヤノモリ,0
2588,9330003009162,登記記録の閉鎖等,0,2022-04-28,2022-04-19,合同会社ウェムケア,,合同会社,熊本県,宇土市,本町１丁目７４番地,,43,211,8690431,,,2022-04-19,清算の結了等,,,2021-12-08,1,,,,,ウェムケア,0
2595,9370003004829,登記記録の閉鎖等,0,2022-04-28,2022-04-18,株式会社ｔｅａｍＳｔｙｌｅ,,株式会社,宮城県,仙台市宮城野区,苦竹３丁目１番６号ＳＴＵＤＩＯ０８０,,04,102,9830036,,,2022-04-18,清算の結了等,,,2020-06-09,1,,,,,,0
2598,9380001030504,登記記録の閉鎖等,0,2022-04-28,2022-04-25,株式会社ワイサービス,,株式会社,福島県,福島市,小倉寺字白山道８－７,,07,201,9608142,,,2022-04-25,清算の結了等,,,2019-12-02,1,,,,,ワイサービス,0
