sequenceNumber,corporateNumber,process,correct,updateDate,changeDate,name,nameImageId,kind,prefectureName,cityName,streetNumber,addressImageId,prefectureCode,cityCode,postCode,addressOutside,addressOutsideImageId,closeDate,closeCause,successorCorporateNumber,changeCause,assignmentDate,latest,enName,enPrefectureName,enCityName,enAddressOutside,furigana,hihyoji
21,1010401185586,新規,0,2024-10-11,2024-10-11,株式会社ＦＵＮＤ　Ｆｏｒｃｅ　Ａｄｖｅｒｔｉｓｉｎｇ,,株式会社,東京都,港区,六本木１丁目３番５０号,,13,103,1060032,,,,,,,2024-10-11,1,,,,,ファンドフォースアドバタイジング,0
22,1010401185677,新規,0,2024-10-11,2024-10-11,株式会社ＮＴＴアクア,,株式会社,東京都,港区,芝浦３丁目４番１号,,13,103,1080023,,,,,,,2024-10-11,1,,,,,エヌティティアクア,0
23,1010403033594,新規,0,2024-10-11,2024-10-11,合同会社ローカルエナジー,,合同会社,東京都,港区,芝公園２丁目２番１０号中和ビル３階,,13,103,1050011,,,,,,,2024-10-11,1,,,,,ローカルエナジー,0
24,1010501053024,新規,0,2024-10-11,2024-10-11,明日印象株式会社,,株式会社,東京都,台東区,浅草橋５丁目３番９号秋光ビル１０３,,13,106,1110053,,,,,,,2024-10-11,1,,,,,アシタインショウ,0
27,1010601066066,新規,0,2024-10-11,2024-10-11,宇光株式会社,,株式会社,東京都,墨田区,八広５丁目１５番３号,,13,107,1310041,,,,,,,2024-10-11,1,,,,,ウコウ,0
30,1010701046678,新規,0,2024-10-11,2024-10-11,株式会社ＡＪＰ１８３,,株式会社,東京都,品川区,大崎２丁目９番１号,,13,109,1410032,,,,,,,2024-10-11,1,,,,,エージェーピーイチハチサン,0
41,1011001165078,新規,0,2024-10-11,2024-10-11,ＴｅｃｈＴｉｍｅ株式会社,,株式会社,東京都,渋谷区,渋谷２丁目１９－１５宮益坂ビルディング６０９,,13,113,1500002,,,,,,,2024-10-11,1,,,,,テックタイム,0
42,1011001165210,新規,0,2024-10-11,2024-10-11,株式会社ウルトララッキー,,株式会社,東京都,渋谷区,上原２丁目３０番１号Ｋ．ＳＴＡＲビル３Ｆ,,13,113,1510064,,,,,,,2024-10-11,1,,,,,ウルトララッキー,0
49,1011101109018,新規,0,2024-10-11,2024-10-11,ＨＳ　Ｃａｐｉａｌ株式会社,,株式会社,東京都,新宿区,大久保３丁目８番３－３１０５号,,13,104,1690072,,,,,,,2024-10-11,1,,,,,エイチエスカピタル,0
51,1011103015032,新規,0,2024-10-11,2024-10-11,ザンクシャー合同会社,,合同会社,東京都,新宿区,西新宿３丁目３番１３号西新宿水間ビル６階,,13,104,1600023,,,,,,,2024-10-11,1,,,,,ザンクシャー,0
54,1011201025858,新規,0,2024-10-11,2024-10-11,株式会社ＫＯＴＯＢＵＫＩ,,株式会社,東京都,中野区,新井１丁目２３番２２号プルメリア２０１,,13,114,1650026,,,,,,,2024-10-11,1,,,,,コトブキ,0
60,1011301030064,新規,0,2024-10-11,2024-10-11,ＢＡＢＥＬＩＡＮ株式会社,,株式会社,東京都,杉並区,阿佐谷南１丁目７番１１号,,13,115,1660004,,,,,,,2024-10-11,1,,,,,バベリアン,0
62,1011403004528,新規,0,2024-10-11,2024-10-11,合同会社ＲＥＵＳ,,合同会社,東京都,板橋区,前野町４丁目１番６－１０４号,,13,119,1740063,,,,,,,2024-10-11,1,,,,,レウス,0
67,1011601028114,新規,0,2024-10-11,2024-10-11,株式会社カラスヤマ,,株式会社,東京都,練馬区,早宮４丁目１９番２４号,,13,120,1790085,,,,,,,2024-10-11,1,,,,,カラスヤマ,0
71,1011801044927,新規,0,2024-10-11,2024-10-11,株式会社ＡＬＰＨＡ,,株式会社,東京都,足立区,竹の塚１丁目４０番１５号庄栄ビル５階,,13,121,1210813,,,,,,,2024-10-11,1,,,,,アルファ,0
72,1011801044968,新規,0,2024-10-11,2024-10-11,株式会社ジェンメディア,,株式会社,東京都,足立区,綾瀬４丁目２５番２号,,13,121,1200005,,,,,,,2024-10-11,1,,,,,ジェンメディア,0
73,1011801044976,新規,0,2024-10-11,2024-10-11,株式会社Ｎｏｎ　Ｇｅｎｅｒａｌ,,株式会社,東京都,足立区,千住１丁目３７番７号ハイツ松本１０２号室,,13,121,1200034,,,,,,,2024-10-11,1,,,,,ノンジェネラル,0
75,1011805003400,新規,0,2024-10-11,2024-10-11,土地家屋調査士法人ヴェルテックスプラン東京,,その他の設立登記法人,東京都,足立区,千住宮元町１３番１３号,,13,121,1200043,,,,,,,2024-10-11,1,,,,,ヴェルテックスプラントウキョウ,0
85,1013305003649,新規,0,2024-10-11,2024-10-11,税理士法人ＨＯＰＥオフィス,,その他の設立登記法人,東京都,豊島区,南池袋２丁目３１番５号南大和ビル３階,,13,116,1710022,,,,,,,2024-10-11,1,,,,,ホープオフィス,0
87,1020001159510,新規,0,2024-10-11,2024-10-11,ウィッシュトレイン株式会社,,株式会社,神奈川県,横浜市保土ケ谷区,霞台１番２－４０２号,,14,106,2400014,,,,,,,2024-10-11,1,,,,,ウィッシュトレイン,0
90,1020003027021,新規,0,2024-10-11,2024-10-11,合同会社Ｏｖｅｒｔｕｒｅ,,合同会社,神奈川県,横浜市南区,中里４丁目９－５,,14,105,2320063,,,,,,,2024-10-11,1,,,,,オーバーチュア,0
94,1021001083452,新規,0,2024-10-11,2024-10-11,呉缺株式会社,,株式会社,神奈川県,秦野市,南矢名２２２３番地の４東海ビル１０７Ａ,,14,211,2570003,,,,,,,2024-10-11,1,,,,,ゴケツ,0
95,1021003015098,新規,0,2024-10-11,2024-10-11,合同会社Ｆｒｉｅｄｅｎ,,合同会社,神奈川県,大和市,南林間４丁目４番１４号,,14,213,2420006,,,,,,,2024-10-11,1,,,,,フリーデン,0
99,1030001162892,新規,0,2024-10-11,2024-10-11,株式会社ＬＯＣ　ＰＨＡＴ,,株式会社,埼玉県,川口市,前川４丁目１５番９号,,11,203,3330842,,,,,,,2024-10-11,1,,,,,ロックファット,0
100,1030001162934,新規,0,2024-10-11,2024-10-11,株式会社北関,,株式会社,埼玉県,熊谷市,永井太田８８２番４,,11,202,3600237,,,,,,,2024-10-11,1,,,,,キタカン,0
101,1030001162942,新規,0,2024-10-11,2024-10-11,株式会社坂野建築,,株式会社,埼玉県,行田市,大字下池守２０７番地１４,,11,206,3610067,,,,,,,2024-10-11,1,,,,,,0
106,1040001135773,新規,0,2024-10-11,2024-10-11,幕張興業株式会社,,株式会社,千葉県,千葉市花見川区,幕張町１丁目７６８７番地ダイアパレス幕張タイムズガーデン３０７号,,12,102,2620032,,,,,,,2024-10-11,1,,,,,マクハリコウギョウ,0
107,1040001135798,新規,0,2024-10-11,2024-10-11,功奏建設株式会社,,株式会社,千葉県,市川市,大野町１丁目５７番地の１６,,12,203,2720805,,,,,,,2024-10-11,1,,,,,コウソウケンセツ,0
108,1040001135807,新規,0,2024-10-11,2024-10-11,株式会社荒井工業,,株式会社,千葉県,柏市,布施１５２６－３,,12,217,2770825,,,,,,,2024-10-11,1,,,,,アライコウギョウ,0
112,1040003025881,新規,0,2024-10-11,2024-10-11,ＲＥＹＯＮ＆Ｃｏ．合同会社,,合同会社,千葉県,千葉市中央区,宮崎１丁目６番３５号,,12,101,2600806,,,,,,,2024-10-11,1,,,,,レヨンアンドカンパニー,0
113,1040005022539,新規,0,2024-10-11,2024-10-11,医療法人社団ＰＯＮＯ　ＤＥＮＴＡＬ　ＣＬＩＮＩＣ,,その他の設立登記法人,千葉県,千葉市美浜区,打瀬１丁目１１１番地,,12,106,2610013,,,,,,,2024-10-11,1,,,,,ポノデンタルクリニック,0
120,1050001055483,新規,0,2024-10-11,2024-10-11,春雷株式会社,,株式会社,茨城県,東茨城郡茨城町,大字木部８１６番地,,08,302,3113151,,,,,,,2024-10-11,1,,,,,,0
121,1050001055525,新規,0,2024-10-11,2024-10-11,株式会社吉葉自動車,,株式会社,茨城県,取手市,戸頭２８０番地１５,,08,217,3020034,,,,,,,2024-10-11,1,,,,,ヨシバジドウシャ,0
123,1050003008720,新規,0,2024-10-11,2024-10-11,合同会社ハイネテクノ,,合同会社,茨城県,つくば市,谷田部４６８７番地,,08,220,3050861,,,,,,,2024-10-11,1,,,,,ハイネテクノ,0
124,1050005013504,新規,0,2024-10-11,2024-10-11,八千代行政書士法人,,その他の設立登記法人,茨城県,結城郡八千代町,大字粟野２３０－３,,08,521,3003535,,,,,,,2024-10-11,1,,,,,ヤチヨ,0
131,1070003005609,新規,0,2024-10-11,2024-10-11,ＴＨＩＲＤ合同会社,,合同会社,群馬県,吾妻郡嬬恋村,大字鎌原字群馬坂１７８８番地４６,,10,425,3771524,,,,,,,2024-10-11,1,,,,,サード,0
140,1080401027501,新規,0,2024-10-11,2024-10-11,株式会社ライトスクエア,,株式会社,静岡県,掛川市,宮脇１丁目２番地の２３,,22,213,4360086,,,,,,,2024-10-11,1,,,,,ライトスクエア,0
142,1090003002620,新規,0,2024-10-11,2024-10-11,合同会社ＭＯＭＥＮＴＳ,,合同会社,山梨県,甲斐市,富竹新田９８９番地ＬＵＭＩＮＥかなまるＩＩ２０１,00136617,19,210,4000113,,,,,,,2024-10-11,1,,,,,モーメント,0
145,1100001037930,新規,0,2024-10-11,2024-10-11,まわり不動産株式会社,,株式会社,長野県,上田市,中央４丁目７番４号,,20,203,3860012,,,,,,,2024-10-11,1,,,,,マワリフドウサン,0
148,1110003005546,新規,0,2024-10-11,2024-10-11,合同会社Ｌ＆Ｒ,,合同会社,新潟県,新潟市中央区,女池２丁目４番１６号,,15,103,9500941,,,,,,,2024-10-11,1,,,,,エルアンドアール,0
166,1120001269282,新規,0,2024-10-11,2024-10-11,キャリアサポーターズ株式会社,,株式会社,大阪府,大阪市北区,梅田１丁目１－３大阪駅前第３ビル２９階１－１－１号室,,27,127,5300001,,,,,,,2024-10-11,1,,,,,キャリアサポーターズ,0
167,1120001269290,新規,0,2024-10-11,2024-10-11,僑領株式会社,,株式会社,大阪府,大阪市浪速区,恵美須東２丁目６番１５－６０２号,,27,111,5560002,,,,,,,2024-10-11,1,,,,,キョウリョウ,0
168,1120001269308,新規,0,2024-10-11,2024-10-11,株式会社Ｅｍｉｅｌ,,株式会社,大阪府,大阪市西区,北堀江３丁目４番１９号大阪金物会館１階,,27,106,5500014,,,,,,,2024-10-11,1,,,,,エミエル,0
172,1120003027721,新規,0,2024-10-11,2024-10-11,ＦＵＪＩ不動産合同会社,,合同会社,大阪府,大阪市中央区,平野町１丁目６番８－５０３号,,27,128,5410046,,,,,,,2024-10-11,1,,,,,フジフドウサン,0
173,1120003027738,新規,0,2024-10-11,2024-10-11,Ｋ２合同会社,,合同会社,大阪府,大阪市中央区,北浜２丁目１番１７号,,27,128,5410041,,,,,,,2024-10-11,1,,,,,ケイニ,0
177,1120101070409,新規,0,2024-10-11,2024-10-11,株式会社テクノロジックス,,株式会社,大阪府,藤井寺市,林５丁目３番１４号,,27,226,5830007,,,,,,,2024-10-11,1,,,,,テクノロジックス,0
178,1120103006088,新規,0,2024-10-11,2024-10-11,合同会社アイシス,,合同会社,大阪府,堺市南区,大庭寺８６５－１,,27,145,5900153,,,,,,,2024-10-11,1,,,,,アイシス,0
181,1120901049899,新規,0,2024-10-11,2024-10-11,株式会社Ｇｒａｎｏ,,株式会社,大阪府,高槻市,天神町１丁目９番２６号,,27,207,5691117,,,,,,,2024-10-11,1,,,,,グラノ,0
187,1130003009925,新規,0,2024-10-11,2024-10-11,合同会社おちゃはかせ研究所,,合同会社,京都府,舞鶴市,字上東５４７,,26,202,6240968,,,,,,,2024-10-11,1,,,,,オチャハカセケンキュウジョ,0
189,1130005017208,新規,0,2024-10-11,2024-10-11,一般社団法人コミセモ・ジャパン,,その他の設立登記法人,京都府,相楽郡精華町,桜が丘１丁目３２番地２６,,26,366,6190232,,,,,,,2024-10-11,1,,,,,コミセモジャパン,0
193,1140001136051,新規,0,2024-10-11,2024-10-11,株式会社ＬＴ,,株式会社,兵庫県,姫路市,青山北１丁目１６番５号,,28,201,6712221,,,,,,,2024-10-11,1,,,,,エルティ,0
204,1180003027451,新規,0,2024-10-11,2024-10-11,合同会社ＮＯＲＴＹ,,合同会社,愛知県,名古屋市中区,金山５丁目１番地５号満ビル１Ｆ,,23,106,4600022,,,,,,,2024-10-11,1,,,,,ノーティー,0
211,1190001031710,新規,0,2024-10-11,2024-10-11,ＯＫホールディング株式会社,,株式会社,三重県,四日市市,諏訪町１１‐１２,,24,202,5100085,,,,,,,2024-10-11,1,,,,,オーケーホールディング,0
220,1220003003852,新規,0,2024-10-11,2024-10-11,合同会社ＴＲＩＮＩＴＹ,,合同会社,石川県,小松市,丸の内町２丁目１８０番地ドミールＭ１０１号室,,17,203,9230903,,,,,,,2024-10-11,1,,,,,トリニティ,0
236,1260003004921,新規,0,2024-10-11,2024-10-11,合同会社ｗｉｔｈ,,合同会社,岡山県,浅口市,鴨方町地頭上４４８番地６,,33,216,7190233,,,,,,,2024-10-11,1,,,,,ウィズ,0
239,1290001107392,新規,0,2024-10-11,2024-10-11,株式会社ＳＩＧ．,,株式会社,福岡県,福岡市東区,水谷２丁目５５番１号エールマンション１６Ｆ,,40,131,8130041,,,,,,,2024-10-11,1,,,,,シグ,0
240,1290001107434,新規,0,2024-10-11,2024-10-11,株式会社七夕,,株式会社,福岡県,福岡市中央区,天神４丁目６番２８号天神ファーストビル７階,,40,133,8100001,,,,,,,2024-10-11,1,,,,,タナバタ,0
241,1290001107459,新規,0,2024-10-11,2024-10-11,ＨＭホールディングス株式会社,,株式会社,福岡県,朝倉郡筑前町,東小田３４２６番地３,,40,447,8380214,,,,,,,2024-10-11,1,,,,,エイチエムホールディングス,0
242,1290001107541,新規,0,2024-10-11,2024-10-11,日創国際株式会社,,株式会社,福岡県,福岡市南区,大楠１丁目６番１号南博多パールシャトー９１２号,,40,134,8150082,,,,,,,2024-10-11,1,,,,,ニッソウコクサイ,0
243,1290001107566,新規,0,2024-10-11,2024-10-11,株式会社アクセル９,,株式会社,福岡県,福岡市中央区,天神４丁目６－２８,,40,133,8100001,,,,,,,2024-10-11,1,,,,,アクセルナイン,0
245,1290003015899,新規,0,2024-10-11,2024-10-11,合同会社Ｄ　Ｔｅｃｈ,,合同会社,福岡県,福岡市中央区,渡辺通５丁目１４番１２号南天神ビル３階,,40,133,8100004,,,,,,,2024-10-11,1,,,,,ディーテック,0
246,1290003015916,新規,0,2024-10-11,2024-10-11,合同会社ｚｅｒｏ１,,合同会社,福岡県,春日市,小倉４丁目１５４－２,,40,218,8160824,,,,,,,2024-10-11,1,,,,,,0
247,1290801030950,新規,0,2024-10-11,2024-10-11,ＴＹＦホールディングス株式会社,,株式会社,福岡県,北九州市小倉北区,富野台１２番３号,,40,106,8020033,,,,,,,2024-10-11,1,,,,,ティーワイエフホールディングス,0
255,1330001032537,新規,0,2024-10-11,2024-10-11,株式会社富明発,,株式会社,熊本県,熊本市北区,植木町滴水７２番１,,43,105,8610133,,,,,,,2024-10-11,1,,,,,トミメイハツ,0
258,1340003004632,新規,0,2024-10-11,2024-10-11,合同会社ｔｅｒｒａ,,合同会社,鹿児島県,姶良市,西餅田５１３番２,,46,225,8995431,,,,,,,2024-10-11,1,,,,,テラ,0
264,1360001034299,新規,0,2024-10-11,2024-10-11,轟ホールディングス株式会社,,株式会社,沖縄県,中頭郡北谷町,伊平２丁目２－１９エミフルテラス２０３,,47,326,9040102,,,,,,,2024-10-11,1,,,,,トドロキホールディングス,0
280,1430003016874,新規,0,2024-10-11,2024-10-11,合同会社ＸＫＳ,,合同会社,北海道,札幌市清田区,清田３５３番２６０,,01,110,0040859,,,,,,,2024-10-11,1,,,,,ゼクス,0
306,2010401185585,新規,0,2024-10-11,2024-10-11,株式会社ＦＵＮＤｉＴ　Ｍｅｄｉａ　Ｍｅｒｇｅｒｓ,,株式会社,東京都,港区,六本木１丁目３番５０号,,13,103,1060032,,,,,,,2024-10-11,1,,,,,ファンディットメディアマージャーズ,0
307,2010401185635,新規,0,2024-10-11,2024-10-11,株式会社ＨＡ,,株式会社,東京都,港区,六本木３丁目７番１－２７０１号,,13,103,1060032,,,,,,,2024-10-11,1,,,,,エイチエイ,0
312,2010403033593,新規,0,2024-10-11,2024-10-11,小平インターナショナルＭＬ合同会社,,合同会社,東京都,港区,西新橋１丁目２２番５号６階,,13,103,1050003,,,,,,,2024-10-11,1,,,,,コダイラインターナショナルエムエル,0
318,2010601066081,新規,0,2024-10-11,2024-10-11,平和株式会社,,株式会社,東京都,墨田区,両国２丁目１７番１７号両国ダイヤハイツ２０２－５号室,,13,107,1300026,,,,,,,2024-10-11,1,,,,,ヘイワ,0
319,2010701046636,新規,0,2024-10-11,2024-10-11,まいつー株式会社,,株式会社,東京都,品川区,西五反田４丁目１５番１０号,,13,109,1410031,,,,,,,2024-10-11,1,,,,,マイツー,0
320,2010701046669,新規,0,2024-10-11,2024-10-11,株式会社Ｂｌａｃｋ　Ｃｏａｌ,,株式会社,東京都,品川区,東五反田５丁目２番２３号,,13,109,1410022,,,,,,,2024-10-11,1,,,,,ブラックコール,0
321,2010701046677,新規,0,2024-10-11,2024-10-11,株式会社ＴＴデザインラボ,,株式会社,東京都,品川区,大崎２丁目１番２－１７０８号,,13,109,1410032,,,,,,,2024-10-11,1,,,,,ティーティーデザインラボ,0
324,2010705003682,新規,0,2024-10-11,2024-10-11,医療法人社団ＴＮＤ,,その他の設立登記法人,東京都,品川区,戸越３丁目１１番１４号ｐｒｅｃｉｏｕｓ戸越１階,,13,109,1420041,,,,,,,2024-10-11,1,,,,,ティーエヌディー,0
332,2011001165028,新規,0,2024-10-11,2024-10-11,株式会社東駿,,株式会社,東京都,渋谷区,円山町５番５号Ｎａｖｉ渋谷Ｖ３階,00136611,13,113,1500044,,,,,,,2024-10-11,1,,,,,トウシュン,0
333,2011001165110,新規,0,2024-10-11,2024-10-11,株式会社モカ,,株式会社,東京都,渋谷区,神宮前６丁目２３番４号桑野ビル２階,,13,113,1500001,,,,,,,2024-10-11,1,,,,,モカ,0
334,2011001165226,新規,0,2024-10-11,2024-10-11,株式会社ｐｅｉｌｉ,,株式会社,東京都,渋谷区,恵比寿４丁目２０番３号恵比寿ガーデンプレイスタワー１９階,,13,113,1500013,,,,,,,2024-10-11,1,,,,,ペイリ,0
341,2011101109000,新規,0,2024-10-11,2024-10-11,ジーエルテクノホールディングス株式会社,,株式会社,東京都,新宿区,西新宿６丁目２２番１号,,13,104,1600023,,,,,,,2024-10-11,1,,,,,ジーエルテクノホールディングス,0
343,2011201025857,新規,0,2024-10-11,2024-10-11,株式会社アスク,,株式会社,東京都,中野区,鷺宮５丁目６番２１－１０３号,,13,114,1650032,,,,,,,2024-10-11,1,,,,,アスク,0
351,2011701027717,新規,0,2024-10-11,2024-10-11,温吉株式会社,,株式会社,東京都,江戸川区,松島３丁目１４番７－２０２号若林ビル,,13,123,1320031,,,,,,,2024-10-11,1,,,,,オンキチ,0
354,2011801044975,新規,0,2024-10-11,2024-10-11,アリエスデコール株式会社,,株式会社,東京都,葛飾区,柴又５丁目１番１６号,,13,122,1250052,,,,,,,2024-10-11,1,,,,,アリエスデコール,0
356,2012401042353,新規,0,2024-10-11,2024-10-11,株式会社エイチティーＨＴ,,株式会社,東京都,三鷹市,下連雀３丁目９－６三鷹ダイカンプラザ３０５室,,13,204,1810013,,,,,,,2024-10-11,1,,,,,エイチティーエイチティー,0
357,2012403006793,新規,0,2024-10-11,2024-10-11,合同会社ＡｒｃｈｉＴａｐ,,合同会社,東京都,小金井市,前原町４丁目７番２４号,,13,210,1840013,,,,,,,2024-10-11,1,,,,,アーキタップ,0
361,2013301053192,新規,0,2024-10-11,2024-10-11,株式会社ＧｌＡｎｚ,,株式会社,東京都,豊島区,東池袋２丁目２６番１４号オルタナ池袋イースト８０２号,,13,116,1700013,,,,,,,2024-10-11,1,,,,,グランツ,0
366,2020001159484,新規,0,2024-10-11,2024-10-11,ＤｅＦｅａｔ株式会社,,株式会社,神奈川県,横浜市港北区,富士塚１丁目２２番１５号,,14,109,2220012,,,,,,,2024-10-11,1,,,,,ディフィート,0
367,2020001159526,新規,0,2024-10-11,2024-10-11,株式会社ＮＥＫＯＮＯＴＥ　Ｎｅｘｔ,,株式会社,神奈川県,横浜市南区,白妙町３丁目３９高陽ビル１Ｆ,,14,105,2320023,,,,,,,2024-10-11,1,,,,,ネコノテネクスト,0
368,2020001159542,新規,0,2024-10-11,2024-10-11,株式会社ダリウス,,株式会社,神奈川県,横浜市保土ケ谷区,法泉２丁目２０番１４－３０４号,,14,106,2400032,,,,,,,2024-10-11,1,,,,,ダリウス,0
369,2020001159583,新規,0,2024-10-11,2024-10-11,株式会社テラスプランニング,,株式会社,神奈川県,川崎市中原区,新城３丁目１３番５号,,14,133,2110044,,,,,,,2024-10-11,1,,,,,テラスプランニング,0
370,2020001159682,新規,0,2024-10-11,2024-10-11,サンワ株式会社,,株式会社,神奈川県,横浜市中区,本郷町１丁目１８,,14,104,2310843,,,,,,,2024-10-11,1,,,,,サンワ,0
376,2021001083451,新規,0,2024-10-11,2024-10-11,株式会社ＳｉＮＲＡ,,株式会社,神奈川県,相模原市緑区,小渕５１番地１７,,14,151,2520184,,,,,,,2024-10-11,1,,,,,シンラ,0
382,2030001162818,新規,0,2024-10-11,2024-10-11,株式会社イヌガミエクスプレス,,株式会社,埼玉県,川口市,大字石神１７６番地の３４,,11,203,3330823,,,,,,,2024-10-11,1,,,,,イヌガミエクスプレス,0
383,2030001162900,新規,0,2024-10-11,2024-10-11,株式会社たかやまでんこう,,株式会社,埼玉県,八潮市,八潮６丁目６番地１８,,11,234,3400815,,,,,,,2024-10-11,1,,,,,タカヤマデンコウ,0
384,2030001162941,新規,0,2024-10-11,2024-10-11,株式会社ＳＷＭ,,株式会社,埼玉県,川越市,大字笠幡１７３６番地２２４,,11,201,3501175,,,,,,,2024-10-11,1,,,,,スウィム,0
391,2040001135582,新規,0,2024-10-11,2024-10-11,新日電気株式会社,,株式会社,千葉県,成田市,南三里塚７８－７プロロジスパーク成田１－Ｂ・１階１２番,,12,211,2860113,,,,,,,2024-10-11,1,,,,,シンニチデンキ,0
392,2040001135789,新規,0,2024-10-11,2024-10-11,ＵＮＩＴＹ　ＢＲＩＤＧＥ株式会社,,株式会社,千葉県,松戸市,幸谷１１４番地の２６,,12,207,2700017,,,,,,,2024-10-11,1,,,,,ユニティブリッジ,0
393,2040001135797,新規,0,2024-10-11,2024-10-11,株式会社圭電,,株式会社,千葉県,市川市,曽谷６丁目１４番１－３号,,12,203,2720832,,,,,,,2024-10-11,1,,,,,ケイデン,0
399,2040003025971,新規,0,2024-10-11,2024-10-11,もちまるコーポレーション合同会社,,合同会社,千葉県,千葉市中央区,神明町１４番地１７,,12,101,2600022,,,,,,,2024-10-11,1,,,,,モチマルコーポレーション,0
404,2050005013503,新規,0,2024-10-11,2024-10-11,医療法人明総会,,その他の設立登記法人,茨城県,稲敷郡阿見町,本郷１丁目２番地１,,08,443,3001159,,,,,,,2024-10-11,1,,,,,メイソウカイ,0
405,2060001037570,新規,0,2024-10-11,2024-10-11,株式会社多摩ミツヤゴルフ,,株式会社,栃木県,大田原市,浅香２丁目３５４８番地１７,,09,210,3240043,,,,,,,2024-10-11,1,,,,,タマミツヤゴルフ,0
412,2080005007650,新規,0,2024-10-11,2024-10-11,医療法人社団石上歯科医院,,その他の設立登記法人,静岡県,静岡市葵区,羽鳥４丁目４番３１号,,22,101,4211215,,,,,,,2024-10-11,1,,,,,イシガミシカイイン,0
420,2100001037921,新規,0,2024-10-11,2024-10-11,天策株式会社,,株式会社,長野県,北佐久郡軽井沢町,大字発地１３９９番地７１,,20,321,3890113,,,,,,,2024-10-11,1,,,,,テンサク,0
425,2110001038737,新規,0,2024-10-11,2024-10-11,ヤマゼンツール株式会社,,株式会社,新潟県,三条市,林町２丁目１７番８－５号,,15,204,9550061,,,,,,,2024-10-11,1,,,,,ヤマゼンツール,0
436,2120001269091,新規,0,2024-10-11,2024-10-11,株式会社Ｒ‐ＡＩ,,株式会社,大阪府,大阪市淀川区,三津屋北２丁目１５番３６－３０７号,,27,123,5320032,,,,,,,2024-10-11,1,,,,,アールアイ,0
437,2120001269100,新規,0,2024-10-11,2024-10-11,株式会社ＴＯＷＡ,,株式会社,大阪府,大阪市生野区,新今里５丁目９番１１号,,27,116,5440001,,,,,,,2024-10-11,1,,,,,トーワ,0
438,2120001269232,新規,0,2024-10-11,2024-10-11,瑞途株式会社,,株式会社,大阪府,大阪市中央区,島之内２丁目１０番１２号７０１号室,,27,128,5420082,,,,,,,2024-10-11,1,,,,,ズイト,0
439,2120001269273,新規,0,2024-10-11,2024-10-11,六面株式会社,,株式会社,大阪府,大阪市北区,梅田１丁目１番３号大阪駅前第３ビル２９階１－１－１号室,,27,127,5300001,,,,,,,2024-10-11,1,,,,,ロッメン,0
440,2120001269307,新規,0,2024-10-11,2024-10-11,株式会社甜瓜瓜,,株式会社,大阪府,大阪市東住吉区,北田辺５丁目９番３６号ルンルン桃ケ池３０２室,,27,121,5460044,,,,,,,2024-10-11,1,,,,,カンガガ,0
441,2120001269315,新規,0,2024-10-11,2024-10-11,株式会社ＷＨＹサポート,,株式会社,大阪府,大阪市中央区,本町２丁目３－４アソルティ本町４Ｆ,,27,128,5410053,,,,,,,2024-10-11,1,,,,,ホワイサポート,0
446,2120003027737,新規,0,2024-10-11,2024-10-11,ＫＣ１合同会社,,合同会社,大阪府,大阪市中央区,北浜２丁目１番１７号,,27,128,5410041,,,,,,,2024-10-11,1,,,,,ケイシーイチ,0
447,2120005024575,新規,0,2024-10-11,2024-10-11,一般社団法人歩っとこもんず,,その他の設立登記法人,大阪府,大阪市生野区,中川西２丁目１６番７号,,27,116,5440032,,,,,,,2024-10-11,1,,,,,ホットコモンズ,0
449,2120101070399,新規,0,2024-10-11,2024-10-11,株式会社ＨｉｇｈＶｏｌｔ　Ｍｉｘ,,株式会社,大阪府,堺市南区,三原台４丁３２番１３号,,27,145,5900111,,,,,,,2024-10-11,1,,,,,ハイボルトミックス,0
450,2120101070408,新規,0,2024-10-11,2024-10-11,株式会社ＢＲＡＶＥＬＹ,,株式会社,大阪府,大阪狭山市,狭山５丁目２３３９番地の１９－２０１,,27,231,5890005,,,,,,,2024-10-11,1,,,,,ブレイブリー,0
455,2120901049898,新規,0,2024-10-11,2024-10-11,株式会社ツーファイブ,,株式会社,大阪府,吹田市,江坂町１丁目２３番１９号米澤ビル第五江坂７０５号室,,27,205,5640063,,,,,,,2024-10-11,1,,,,,ツーファイブ,0
464,2130001078112,新規,0,2024-10-11,2024-10-11,高橋組株式会社,00136607,株式会社,京都府,京都市北区,紫野東舟岡町７番地,,26,101,6038228,,,,,,,2024-10-11,1,,,,,タカハシグミ,0
465,2130001078120,新規,0,2024-10-11,2024-10-11,ＴｅａｍＢＴ株式会社,,株式会社,京都府,京都市下京区,新町通花屋町下る東若松町８２０番地２０,,26,106,6008305,,,,,,,2024-10-11,1,,,,,チームビーティー,0
469,2140001135928,新規,0,2024-10-11,2024-10-11,株式会社ビューティフルワールド,,株式会社,兵庫県,神戸市北区,大沢町簾３２６番地の１,,28,109,6511526,,,,,,,2024-10-11,1,,,,,ビューティフルワールド,0
472,2160001026274,新規,0,2024-10-11,2024-10-11,豊欣株式会社,,株式会社,滋賀県,彦根市,日夏町１７７６－１６０,,25,202,5220047,,,,,,,2024-10-11,1,,,,,プンシン,0
474,2170001018337,新規,0,2024-10-11,2024-10-11,株式会社ＲＴＨ不動産,,株式会社,和歌山県,東牟婁郡那智勝浦町,大字下里１７５４番地１０,,30,421,6495142,,,,,,,2024-10-11,1,,,,,アールティーエイチフドウサン,0
479,2180001163553,新規,0,2024-10-11,2024-10-11,株式会社プレスト・カンパニー,,株式会社,愛知県,名古屋市中区,栄１丁目７番２８号,,23,106,4600008,,,,,,,2024-10-11,1,,,,,プレストカンパニー,0
480,2180001163603,新規,0,2024-10-11,2024-10-11,株式会社味仙柳橋店,,株式会社,愛知県,名古屋市中村区,名駅４丁目１７番４号,,23,105,4500002,,,,,,,2024-10-11,1,,,,,ミセンヤナギバシテン,0
482,2180003027459,新規,0,2024-10-11,2024-10-11,合同会社ケアマネ商店米勝,,合同会社,愛知県,名古屋市名東区,牧の里２丁目１３０４番地コーポ牧の里１０１号,,23,115,4650068,,,,,,,2024-10-11,1,,,,,ケアマネショウテンコメカツ,0
488,2200001043026,新規,0,2024-10-11,2024-10-11,株式会社ＴＭエステート,,株式会社,岐阜県,岐阜市,柳津町蓮池５丁目４５番地２,,21,201,5016103,,,,,,,2024-10-11,1,,,,,エステート,0
498,2240001063929,新規,0,2024-10-11,2024-10-11,株式会社ライブワーク,,株式会社,広島県,広島市安芸区,中野４丁目３番２１号,,34,107,7390321,,,,,,,2024-10-11,1,,,,,ライブワーク,0
509,2260003004920,新規,0,2024-10-11,2024-10-11,合同会社ＦＳＰ,,合同会社,岡山県,岡山市中区,湊８７番地６,,33,102,7038266,,,,,,,2024-10-11,1,,,,,エフエスピー,0
520,2290001107540,新規,0,2024-10-11,2024-10-11,ＴＨコンサルティング株式会社,,株式会社,福岡県,福岡市中央区,大手門１丁目２番９号２Ｆ,,40,133,8100074,,,,,,,2024-10-11,1,,,,,ティーエイチコンサルティング,0
521,2290001107549,新規,0,2024-10-11,2024-10-11,株式会社武藤電工,,株式会社,福岡県,大牟田市,大字倉永３４１９番地５,,40,202,8370906,,,,,,,2024-10-11,1,,,,,ムトウデンコウ,0
522,2290001107565,新規,0,2024-10-11,2024-10-11,株式会社ＲＯＪＥＣ,,株式会社,福岡県,福岡市中央区,天神４丁目６－２天神ファーストビル７階,,40,133,8100001,,,,,,,2024-10-11,1,,,,,,0
524,2290003015865,新規,0,2024-10-11,2024-10-11,合同会社ＳＴＥＰＵＰ,,合同会社,福岡県,福岡市西区,野方２丁目４９－２,,40,135,8190043,,,,,,,2024-10-11,1,,,,,ステップアップ,0
525,2290003015923,新規,0,2024-10-11,2024-10-11,合同会社ａｕｇｕｒｉｏ,,合同会社,福岡県,飯塚市,南尾３６１番１－２０６号,,40,205,8200072,,,,,,,2024-10-11,1,,,,,アウグリオ,0
529,2300001013935,新規,0,2024-10-11,2024-10-11,株式会社Ｆｕｎ　Ｍａｒｋｅｔ　Ｒｅｔａｉｌｉｎｇ,,株式会社,佐賀県,佐賀市,大和町大字尼寺１７２９番地２,,41,201,8400201,,,,,,,2024-10-11,1,,,,,ファンマーケットリテイリング,0
536,2340003004631,新規,0,2024-10-11,2024-10-11,ＡＣＴ合同会社,,合同会社,鹿児島県,鹿児島市,福山町１０４番地１０,,46,201,8992702,,,,,,,2024-10-11,1,,,,,アクト,0
539,2360001034298,新規,0,2024-10-11,2024-10-11,株式会社ＩＫＥちゃんず,,株式会社,沖縄県,中頭郡中城村,字南上原７２６番地１キャンパスサイド白石３０３号室,,47,328,9012424,,,,,,,2024-10-11,1,,,,,イケチャンズ,0
556,2430001092784,新規,0,2024-10-11,2024-10-11,株式会社クレエＨＤ,,株式会社,北海道,札幌市中央区,南三条東２丁目１番地,,01,101,0600053,,,,,,,2024-10-11,1,,,,,クレエホールディングス,0
557,2430001092842,新規,0,2024-10-11,2024-10-11,楽谷株式会社,,株式会社,北海道,虻田郡倶知安町,ニセコひらふ四条３丁目５番２１号,,01,400,0440087,,,,,,,2024-10-11,1,,,,,ラクタニ,0
564,2470001020411,新規,0,2024-10-11,2024-10-11,株式会社ＳＲＥＩＴ,,株式会社,香川県,三豊市,詫間町詫間６１０番地１０Ｉ・Ｔビル１０２,,37,208,7691101,,,,,,,2024-10-11,1,,,,,エスリート,0
566,2470005006588,新規,0,2024-10-11,2024-10-11,一般社団法人島に灯,,その他の設立登記法人,香川県,丸亀市,手島町１５７７番地,,37,202,7630111,,,,,,,2024-10-11,1,,,,,シマニアカリ,0
573,2700150127470,新規,0,2024-10-11,2024-10-11,Ｍｉｒａｃｌｅ　Ｌｅｏ　Ｃｏｍｐａｎｙ　Ｌｉｍｉｔｅｄ,,外国会社等,,,,,,,,２　Ｇｒａｎｄ　Ｃａｎａｌ　Ｓｑｕａｒｅ，Ｇｒａｎｄ　Ｃａｎａｌ　Ｈａｒｂｏｕｒ，Ｄｕｂｌｉｎ　２，Ｄｕｂｌｉｎ，Ｉｒｅｌａｎｄ,,,,,,2024-10-11,1,,,,,ミラクルレオカンパニーリミテツド,0
586,3010101016362,新規,0,2024-10-11,2024-10-11,双奥遠洋商事株式会社,,株式会社,東京都,八王子市,大塚６４５－１ユーカリハイツ八王子４０２号室,,13,201,1920352,,,,,,,2024-10-11,1,,,,,ソウオウエンヨウ,0
600,3010601066080,新規,0,2024-10-11,2024-10-11,株式会社北極星,,株式会社,東京都,墨田区,向島４丁目１３番１８号,,13,107,1310033,,,,,,,2024-10-11,1,,,,,ホッキョクセイ,0
612,3011003020171,新規,0,2024-10-11,2024-10-11,合同会社ＨＩＲＯＳＥ　ＦＩＬＭ,,合同会社,東京都,渋谷区,代々木１丁目４０番１６－２０１号アームスコート代々木,,13,113,1510053,,,,,,,2024-10-11,1,,,,,ヒロセフィルム,0
613,3011003020188,新規,0,2024-10-11,2024-10-11,合同会社Ａｕｔｏｎｏｍｏｕｓ,,合同会社,東京都,渋谷区,道玄坂１丁目１０番８号渋谷道玄坂東急ビル２Ｆ－Ｃ,,13,113,1500043,,,,,,,2024-10-11,1,,,,,オートノマス,0
614,3011005010716,新規,0,2024-10-11,2024-10-11,一般社団法人日本ウェルビーイング連盟,,その他の設立登記法人,東京都,渋谷区,神南１丁目４番９号,,13,113,1500041,,,,,,,2024-10-11,1,,,,,ニホンウェルビーイングレンメイ,0
617,3011101109024,新規,0,2024-10-11,2024-10-11,株式会社ＴＤＸ,,株式会社,東京都,新宿区,高田馬場２丁目１６番１１号高田馬場２１６ビル７階,,13,104,1690075,,,,,,,2024-10-11,1,,,,,ティーディーエックス,0
618,3011101109073,新規,0,2024-10-11,2024-10-11,株式会社ＮＥＷ　ＳＵＭＭＥＲ,,株式会社,東京都,新宿区,揚場町１－１２オーララビル地下１階,,13,104,1620824,,,,,,,2024-10-11,1,,,,,ニューサマー,0
619,3011101109098,新規,0,2024-10-11,2024-10-11,株式会社Ｒａｒｅ,,株式会社,東京都,新宿区,大久保２丁目３番６－３０９号,,13,104,1690072,,,,,,,2024-10-11,1,,,,,レア,0
623,3011201025856,新規,0,2024-10-11,2024-10-11,オーガスタ株式会社,,株式会社,東京都,中野区,中央３丁目１２番３号シャルムＹＭ１階,,13,114,1640011,,,,,,,2024-10-11,1,,,,,オーガスタ,0
626,3011501031240,新規,0,2024-10-11,2024-10-11,和株式会社,,株式会社,東京都,荒川区,西尾久２丁目３４番８号,,13,118,1160011,,,,,,,2024-10-11,1,,,,,ナゴミ,0
630,3011701027716,新規,0,2024-10-11,2024-10-11,泰金新エネルギーテク日本株式会社,,株式会社,東京都,江戸川区,中葛西１丁目３５－９鈴木ビル３０１室,,13,123,1340083,,,,,,,2024-10-11,1,,,,,タイキンシンエネルギーテクニホン,0
632,3011801044966,新規,0,2024-10-11,2024-10-11,ＬＯＮ株式会社,,株式会社,東京都,足立区,足立４丁目１３－９ＢＶビル４Ｆ,,13,121,1200015,,,,,,,2024-10-11,1,,,,,ロン,0
635,3012301014113,新規,0,2024-10-11,2024-10-11,株式会社セキグチ,,株式会社,東京都,町田市,南成瀬１丁目７番地１Ｄ’クラディア成瀬３０５,,13,209,1940045,,,,,,,2024-10-11,1,,,,,セキグチ,0
639,3012703003102,新規,0,2024-10-11,2024-10-11,合同会社ＣＬＴｅｃｈ,,合同会社,東京都,小平市,上水本町４丁目２２番２－２２３号,,13,211,1870022,,,,,,,2024-10-11,1,,,,,シーエルテック,0
640,3012801023489,新規,0,2024-10-11,2024-10-11,株式会社おしゃれ工房マネジメントオフィス,,株式会社,東京都,立川市,錦町３丁目２番２号ＴＭ・タワー２Ｆ,,13,202,1900022,,,,,,,2024-10-11,1,,,,,オシャレコウボウマネジメントオフィス,0
643,3013303007336,新規,0,2024-10-11,2024-10-11,Ａｍａｚｉｎｇ合同会社,,合同会社,東京都,豊島区,池袋２丁目６９番１２号キャピタルライフ２０３号,,13,116,1710014,,,,,,,2024-10-11,1,,,,,アメージング,0
653,3020001159517,新規,0,2024-10-11,2024-10-11,株式会社エミリア,,株式会社,神奈川県,横浜市戸塚区,戸塚町１４５番地,,14,110,2440003,,,,,,,2024-10-11,1,,,,,エミリア,0
654,3020001159566,新規,0,2024-10-11,2024-10-11,株式会社アトリエＴＡＵ,,株式会社,神奈川県,川崎市中原区,新丸子東３丁目１１１１番地１レジデンス・ザ・武蔵小杉９１５,,14,133,2110004,,,,,,,2024-10-11,1,,,,,アトリエタウ,0
655,3020001159574,新規,0,2024-10-11,2024-10-11,株式会社Ｂ‐ＰＯＷＥＲ,,株式会社,神奈川県,川崎市麻生区,細山５丁目１番１５－２号,,14,137,2150001,,,,,,,2024-10-11,1,,,,,ビーパワー,0
658,3020003027011,新規,0,2024-10-11,2024-10-11,合同会社ＫＭＹ,,合同会社,神奈川県,川崎市宮前区,犬蔵２丁目１３番６１－５０１号,,14,136,2160011,,,,,,,2024-10-11,1,,,,,ケーエムワイ,0
672,3030001162800,新規,0,2024-10-11,2024-10-11,株式会社Ｔ３シール,,株式会社,埼玉県,富士見市,ふじみ野東３丁目１番地１５,,11,235,3540036,,,,,,,2024-10-11,1,,,,,ティースリーシール,0
680,3040001135796,新規,0,2024-10-11,2024-10-11,株式会社ＦｕｔｕｒｅＬｉｇｈｔ,,株式会社,千葉県,我孫子市,柴崎台４丁目５番１３号,,12,222,2701176,,,,,,,2024-10-11,1,,,,,フューチャーライト,0
686,3040003025987,新規,0,2024-10-11,2024-10-11,合同会社ＴＳＮ,,合同会社,千葉県,松戸市,五香南２丁目１５－３９,,12,207,2702212,,,,,,,2024-10-11,1,,,,,ティーエスエヌ,0
692,3050001055531,新規,0,2024-10-11,2024-10-11,株式会社ロジカルデベロップ,,株式会社,茨城県,神栖市,息栖３９５０番地４４６,,08,232,3140133,,,,,,,2024-10-11,1,,,,,ロジカルデベロップ,0
695,3050003008727,新規,0,2024-10-11,2024-10-11,合同会社はぐくみのもり,,合同会社,茨城県,潮来市,島須３０８１番地２,,08,223,3112434,,,,,,,2024-10-11,1,,,,,ハグクミノモリ,0
700,3070001042263,新規,0,2024-10-11,2024-10-11,フィーアットルクス株式会社,,株式会社,群馬県,前橋市,下川町４１番地８,,10,201,3792144,,,,,,,2024-10-11,1,,,,,フィーアットルクス,0
701,3070003005607,新規,0,2024-10-11,2024-10-11,米沢トレーディング合同会社,,合同会社,群馬県,前橋市,上泉町１４８１番地Ｅ－３０３号,,10,201,3710007,,,,,,,2024-10-11,1,,,,,ヨネザワトレーディング,0
708,3080103003162,新規,0,2024-10-11,2024-10-11,合同会社セキドウ,,合同会社,静岡県,富士市,森島２６９－１２,,22,210,4160948,,,,,,,2024-10-11,1,,,,,セキドウ,0
710,3080105006460,新規,0,2024-10-11,2024-10-11,医療法人社団香貫医院,,その他の設立登記法人,静岡県,沼津市,本郷町２７番１８号,,22,203,4100817,,,,,,,2024-10-11,1,,,,,カヌキイイン,0
711,3080401027499,新規,0,2024-10-11,2024-10-11,株式会社Ｓ＆Ｓ　ＪＡＰＡＮ,,株式会社,静岡県,菊川市,牧之原２６４４番地の３,,22,224,4390015,,,,,,,2024-10-11,1,,,,,エスアンドエスジャパン,0
720,3100003007806,新規,0,2024-10-11,2024-10-11,合同会社はいちいず,,合同会社,長野県,松本市,深志３丁目５番１６号,,20,202,3900815,,,,,,,2024-10-11,1,,,,,ハイチイズ,0
734,3120001269124,新規,0,2024-10-11,2024-10-11,株式会社ｆｌｏｗｅｒ,,株式会社,大阪府,大阪市天王寺区,上汐４丁目４番２３－６０２号,,27,109,5430002,,,,,,,2024-10-11,1,,,,,フラワー,0
735,3120001269248,新規,0,2024-10-11,2024-10-11,印象環球株式会社,,株式会社,大阪府,大阪市住吉区,長居４丁目１０番２６号１０１号室,,27,120,5580003,,,,,,,2024-10-11,1,,,,,インショウカンキュウ,0
736,3120001269256,新規,0,2024-10-11,2024-10-11,簡築リフォーム株式会社,,株式会社,大阪府,大阪市西成区,橘１丁目１１－２８オフィスポート橘５０４号室,,27,122,5570051,,,,,,,2024-10-11,1,,,,,カンチクリフォーム,0
737,3120001269289,新規,0,2024-10-11,2024-10-11,Ｉ　ｊｅｎ株式会社,,株式会社,大阪府,大阪市浪速区,恵美須東２丁目６番１５－２０３号,,27,111,5560002,,,,,,,2024-10-11,1,,,,,アイジェン,0
740,3120003027736,新規,0,2024-10-11,2024-10-11,Ｎｉｎｊａい合同会社,,合同会社,大阪府,大阪市中央区,北浜２丁目１番１７号,,27,128,5410041,,,,,,,2024-10-11,1,,,,,ニンジャイ,0
744,3120101070398,新規,0,2024-10-11,2024-10-11,株式会社Ｇｌｏｒｙ不動産販売,,株式会社,大阪府,藤井寺市,西古室１丁目１番２１－１０３号,,27,226,5830018,,,,,,,2024-10-11,1,,,,,グローリーフドウサンハンバイ,0
745,3120101070407,新規,0,2024-10-11,2024-10-11,株式会社兼定,,株式会社,大阪府,和泉市,久井町１３２８番地の８,,27,219,5941142,,,,,,,2024-10-11,1,,,,,カネサダ,0
753,3122001038533,新規,0,2024-10-11,2024-10-11,ワンフードナチュラル株式会社,,株式会社,大阪府,柏原市,太平寺１丁目８番１３号,,27,221,5820017,,,,,,,2024-10-11,1,,,,,ワンフードナチュラル,0
759,3130003009915,新規,0,2024-10-11,2024-10-11,合同会社みずほ,,合同会社,京都府,船井郡京丹波町,鎌谷中西又４０番地,,26,407,6220444,,,,,,,2024-10-11,1,,,,,ミズホ,0
760,3130003009923,新規,0,2024-10-11,2024-10-11,Ｗａｎｏｂｉ　Ｈｏｕｓｅ合同会社,,合同会社,京都府,京都市北区,平野八丁柳町６８番地１サニーハイム金閣寺２０４,,26,101,6038345,,,,,,,2024-10-11,1,,,,,ワノビハウス,0
761,3130005017214,新規,0,2024-10-11,2024-10-11,特定非営利活動法人阪和皮膚疾患研究会,,その他の設立登記法人,京都府,京都市左京区,松ケ崎西桜木町３１番地,,26,103,6060903,,,,,,,2024-10-11,1,,,,,ハンワヒフシッカンケンキュウカイ,0
769,3140003021167,新規,0,2024-10-11,2024-10-11,合同会社ＩＴＯ,,合同会社,兵庫県,神崎郡神河町,福本１８４番地コーポタテイワ１０５号室,,28,446,6792415,,,,,,,2024-10-11,1,,,,,アイティーオー,0
777,3160001026273,新規,0,2024-10-11,2024-10-11,小藍人株式会社,,株式会社,滋賀県,大津市,際川４丁目１５－１８－２Ｆ,,25,201,5200002,,,,,,,2024-10-11,1,,,,,コアイト,0
792,3180001163494,新規,0,2024-10-11,2024-10-11,ＮＣホールディングス株式会社,,株式会社,愛知県,名古屋市名東区,丁田町２８番地,,23,115,4650027,,,,,,,2024-10-11,1,,,,,エヌシーホールディングス,0
793,3180001163602,新規,0,2024-10-11,2024-10-11,株式会社アドテク,,株式会社,愛知県,名古屋市中村区,名駅３丁目３番２号,,23,105,4500002,,,,,,,2024-10-11,1,,,,,アドテク,0
794,3180001163643,新規,0,2024-10-11,2024-10-11,ＺＹＸ　Ｃｏｒｐ株式会社,,株式会社,愛知県,一宮市,泉２丁目２２番９－１１０３号エスポア一宮２,,23,203,4910861,,,,,,,2024-10-11,1,,,,,ザイクスコープ,0
801,3180301039139,新規,0,2024-10-11,2024-10-11,株式会社ビーエクス,,株式会社,愛知県,豊川市,中央通１丁目８番地１,,23,207,4420051,,,,,,,2024-10-11,1,,,,,ビーエクス,0
814,3220001026250,新規,0,2024-10-11,2024-10-11,Ｃｏｎｆｉｄｅｎｃｅ　ａｎｄ　Ｆｕｎ株式会社,,株式会社,石川県,金沢市,長坂台１２番２２号,,17,201,9218115,,,,,,,2024-10-11,1,,,,,コンフィデンスアンドファン,0
816,3230001020558,新規,0,2024-10-11,2024-10-11,株式会社Ｙｉ,,株式会社,富山県,富山市,緑町１丁目１番３号２Ｆ,,16,201,9300038,,,,,,,2024-10-11,1,,,,,イー,0
821,3240001063928,新規,0,2024-10-11,2024-10-11,株式会社かえる,,株式会社,広島県,広島市中区,新天地１番１３号,,34,101,7300034,,,,,,,2024-10-11,1,,,,,カエル,0
831,3290001107564,新規,0,2024-10-11,2024-10-11,株式会社ＫＩＫＩＴＥ,,株式会社,福岡県,福岡市西区,姪の浜４丁目２３番４－４０２号,,40,135,8190002,,,,,,,2024-10-11,1,,,,,キキテ,0
832,3290003015906,新規,0,2024-10-11,2024-10-11,合同会社ハンズシェイク,,合同会社,福岡県,久留米市,宮ノ陣４丁目７番２－１０２号,,40,203,8390801,,,,,,,2024-10-11,1,,,,,ハンズシェイク,0
833,3290003015914,新規,0,2024-10-11,2024-10-11,ＮＬ合同会社,,合同会社,福岡県,福岡市博多区,博多駅前１丁目２３番２号５Ｆ－Ｂ,,40,132,8120011,,,,,,,2024-10-11,1,,,,,エヌエル,0
834,3290003015939,新規,0,2024-10-11,2024-10-11,Ｐ＆Ｈ合同会社,,合同会社,福岡県,小郡市,小板井３７２－１,,40,216,8380143,,,,,,,2024-10-11,1,,,,,,0
836,3290801030949,新規,0,2024-10-11,2024-10-11,株式会社ＰＯＮＴＯＳ,,株式会社,福岡県,北九州市若松区,浜町３丁目８番９－１号,,40,103,8080024,,,,,,,2024-10-11,1,,,,,ポントス,0
839,3300001013934,新規,0,2024-10-11,2024-10-11,株式会社ＨＬＦ,,株式会社,佐賀県,小城市,芦刈町道免３０３番地,00136612,41,208,8490316,,,,,,,2024-10-11,1,,,,,エイチエルエフ,0
856,3370001051820,新規,0,2024-10-11,2024-10-11,株式会社ベイコク,,株式会社,宮城県,仙台市青葉区,二日町６番６－６０３号,,04,101,9800802,,,,,,,2024-10-11,1,,,,,ベイコク,0
864,3380003005872,新規,0,2024-10-11,2024-10-11,合同会社ＴＭカンパニー,,合同会社,福島県,いわき市,小名浜寺廻町１４番地の２６,,07,204,9718164,,,,,,,2024-10-11,1,,,,,ティーエムカンパニー,0
868,3400001016828,新規,0,2024-10-11,2024-10-11,株式会社肉のさんた,,株式会社,岩手県,紫波郡紫波町,高水寺字古屋敷９０番地３,,03,321,0283303,,,,,,,2024-10-11,1,,,,,ニクノサンタ,0
882,3430001092866,新規,0,2024-10-11,2024-10-11,株式会社竹一,,株式会社,北海道,石狩市,花川北一条３丁目１３７番地,,01,235,0613211,,,,,,,2024-10-11,1,,,,,タケイチ,0
889,3470003002729,新規,0,2024-10-11,2024-10-11,合同会社ＳＡＴＯＹＡＭＡ　ＬＩＦＥ,,合同会社,香川県,東かがわ市,五名１３９９番地４,,37,207,7692715,,,,,,,2024-10-11,1,,,,,サトヤマライフ,0
890,3480001012613,新規,0,2024-10-11,2024-10-11,ヨシコムホールディングス株式会社,,株式会社,徳島県,阿南市,那賀川町中島１６９番地１,,36,204,7791245,,,,,,,2024-10-11,1,,,,,ヨシコムホールディングス,0
899,3500001025934,新規,0,2024-10-11,2024-10-11,株式会社Ｏ‐ｃｉｔｙ,,株式会社,愛媛県,松山市,湊町３丁目９番地１知足ビル３号館３階,,38,201,7900012,,,,,,,2024-10-11,1,,,,,オーシティ,0
920,4010005038948,新規,0,2024-10-11,2024-10-11,一般社団法人東池袋プロパティーズ,,その他の設立登記法人,東京都,千代田区,丸の内１丁目４番１号東京共同会計事務所内,,13,101,1000005,,,,,,,2024-10-11,1,,,,,ヒガシイケブクロプロパティーズ,0
928,4010401185518,新規,0,2024-10-11,2024-10-11,株式会社Ｆｌｕｋｅ,,株式会社,東京都,港区,浜松町２丁目５番３号リブポート浜松町,,13,103,1050013,,,,,,,2024-10-11,1,,,,,フルーク,0
931,4010405023590,新規,0,2024-10-11,2024-10-11,司法書士法人ＢＥＳＴ　ＲＥＧＡＲＤＳ,,その他の設立登記法人,東京都,港区,南麻布３丁目２０番１号,,13,103,1060047,,,,,,,2024-10-11,1,,,,,ベストリガーズ,0
932,4010501052849,新規,0,2024-10-11,2024-10-11,株式会社ｍｏｒｐｈｏ,,株式会社,東京都,台東区,上野２丁目１１番１２号ＴＫＳビル２Ｆ,,13,106,1100005,,,,,,,2024-10-11,1,,,,,モルフォ,0
940,4010703007386,新規,0,2024-10-11,2024-10-11,合同会社Ｐｏｎｔ６,,合同会社,東京都,品川区,旗の台２丁目１１－４,,13,109,1420064,,,,,,,2024-10-11,1,,,,,ポンシス,0
952,4011001165232,新規,0,2024-10-11,2024-10-11,Ｔｒｉｓｓｉｎｏ　ＡＩ株式会社,,株式会社,東京都,渋谷区,神南１丁目１１番４号ＦＰＧリンクス神南５階,,13,113,1500041,,,,,,,2024-10-11,1,,,,,トリッシノエーアイ,0
957,4011101109072,新規,0,2024-10-11,2024-10-11,株式会社Ｍ＆Ａ戦略アドバイザーズ,,株式会社,東京都,新宿区,西新宿１丁目２６－２新宿野村ビル３２階,,13,104,1600023,,,,,,,2024-10-11,1,,,,,エムアンドエーセンリャクアドバイザーズ,0
958,4011101109097,新規,0,2024-10-11,2024-10-11,株式会社リッチメーカー,,株式会社,東京都,新宿区,西新宿３丁目３番１３号西新宿水間ビル２Ｆ,,13,104,1600023,,,,,,,2024-10-11,1,,,,,リッチメーカー,0
960,4011103015005,新規,0,2024-10-11,2024-10-11,Ｔ＆Ｌ合同会社,,合同会社,東京都,新宿区,西新宿７丁目１番７号新宿ダイカンプラザＡ館５１９号,,13,104,1600023,,,,,,,2024-10-11,1,,,,,ティーアンドエル,0
969,4011401026496,新規,0,2024-10-11,2024-10-11,株式会社Ｗｉｔｈ‐Ｇｒｏｗｔｈ,,株式会社,東京都,板橋区,坂下１丁目２５番１６号２Ｆ,,13,119,1740043,,,,,,,2024-10-11,1,,,,,ウィズグロース,0
972,4011501031256,新規,0,2024-10-11,2024-10-11,株式会社Ｕ‐ＭＡＲＫＥＴ,,株式会社,東京都,北区,中十条４丁目４－１６パティーナ十条４０１,,13,117,1140032,,,,,,,2024-10-11,1,,,,,ユーマーケット,0
979,4012401042376,新規,0,2024-10-11,2024-10-11,株式会社島田ハウジング,,株式会社,東京都,三鷹市,井の頭３丁目２４番２号,,13,204,1810001,,,,,,,2024-10-11,1,,,,,シマダハウジング,0
980,4012403006791,新規,0,2024-10-11,2024-10-11,合同会社太一,,合同会社,東京都,調布市,飛田給１丁目２番地３０カサ・アレグレＣ－１０２,,13,208,1820036,,,,,,,2024-10-11,1,,,,,タイイツ,0
984,4013301053199,新規,0,2024-10-11,2024-10-11,株式会社アヴァロン,,株式会社,東京都,豊島区,東池袋１丁目３４番５号いちご東池袋ビル６階,,13,116,1700013,,,,,,,2024-10-11,1,,,,,アヴァロン,0
989,4020001159516,新規,0,2024-10-11,2024-10-11,株式会社Ａｔｔ　Ｂｒｉｇｈｔ,,株式会社,神奈川県,横浜市中区,根岸旭台５０番地５,,14,104,2310854,,,,,,,2024-10-11,1,,,,,エイティーティーブライト,0
990,4020001159549,新規,0,2024-10-11,2024-10-11,株式会社新希レールウェイサービス,,株式会社,神奈川県,横浜市戸塚区,平戸３丁目５３番６７－１号,,14,110,2440802,,,,,,,2024-10-11,1,,,,,シンキレールウェイサービス,0
991,4020001159557,新規,0,2024-10-11,2024-10-11,株式会社イグレック,,株式会社,神奈川県,横浜市西区,浅間町１丁目４番３号ウィザードビル４０２,,14,103,2200072,,,,,,,2024-10-11,1,,,,,イグレック,0
1001,4021003015079,新規,0,2024-10-11,2024-10-11,合同会社さいとう商事,,合同会社,神奈川県,藤沢市,鵠沼橘１丁目１６－１８,00136604,14,205,2510024,,,,,,,2024-10-11,1,,,,,サイトウショウジ,0
1002,4021003015095,新規,0,2024-10-11,2024-10-11,合同会社トゥエンティー,,合同会社,神奈川県,厚木市,中町２丁目１０番１５号吉田ビル２階２０１号室,,14,212,2430018,,,,,,,2024-10-11,1,,,,,トゥエンティー,0
1008,4030003025310,新規,0,2024-10-11,2024-10-11,合同会社フジワン,,合同会社,埼玉県,春日部市,藤塚１８９７番地４,,11,214,3440011,,,,,,,2024-10-11,1,,,,,フジワン,0
1015,4040003025986,新規,0,2024-10-11,2024-10-11,ＳＲ　ＡＵＴＯ合同会社,,合同会社,千葉県,東金市,薄島３９番地２１,,12,213,2830031,,,,,,,2024-10-11,1,,,,,エスアールオート,0
1022,4050001055514,新規,0,2024-10-11,2024-10-11,株式会社Ｒｅユニオン,,株式会社,茨城県,古河市,尾崎４０１４番地４５,,08,204,3060101,,,,,,,2024-10-11,1,,,,,リユニオン,0
1030,4070003005606,新規,0,2024-10-11,2024-10-11,Ｍｕｈａｍｍａｄ　Ｔｒａｄｉｎｇ合同会社,,合同会社,群馬県,前橋市,西片貝町４丁目１－９グリーンハイツ西片貝Ｂ－３３号,,10,201,3710013,,,,,,,2024-10-11,1,,,,,ムハマッドトレーディング,0
1032,4080001026545,新規,0,2024-10-11,2024-10-11,よりごころ株式会社,,株式会社,静岡県,静岡市駿河区,北丸子２丁目２９－７マウントテラス１０１号室,,22,102,4210106,,,,,,,2024-10-11,1,,,,,ヨリゴコロ,0
1034,4080403005122,新規,0,2024-10-11,2024-10-11,合同会社Ｌｉｂｒａ,,合同会社,静岡県,浜松市中央区,広沢３丁目１３番５－６０４号,,22,138,4328013,,,,,,,2024-10-11,1,,,,,リブラ,0
1042,4110001038743,新規,0,2024-10-11,2024-10-11,Ｓｋｉｄｉｙ　Ｊａｐａｎ株式会社,,株式会社,新潟県,南魚沼郡湯沢町,大字湯沢１８３１番地,,15,461,9496101,,,,,,,2024-10-11,1,,,,,スキーディーアイワイジャパン,0
1046,4120001269255,新規,0,2024-10-11,2024-10-11,株式会社サリジェ・アンド・カンパニー,,株式会社,大阪府,大阪市中央区,北久宝寺町３丁目６番１号本町南ガーデンシティ７階,,27,128,5410057,,,,,,,2024-10-11,1,,,,,サリジェアンドカンパニー,0
1047,4120001269296,新規,0,2024-10-11,2024-10-11,ＴＭ株式会社,,株式会社,大阪府,大阪市生野区,新今里１丁目１２番２６号,,27,116,5440001,,,,,,,2024-10-11,1,,,,,ティーエム,0
1048,4120001269305,新規,0,2024-10-11,2024-10-11,鴻橋株式会社,,株式会社,大阪府,大阪市西成区,天下茶屋３丁目８－１７,,27,122,5570014,,,,,,,2024-10-11,1,,,,,コウバシ,0
1051,4120003027677,新規,0,2024-10-11,2024-10-11,合同会社ＲＯＭＡＮＣＥ,,合同会社,大阪府,大阪市淀川区,西宮原１丁目７番１５－４０６号,,27,123,5320004,,,,,,,2024-10-11,1,,,,,ロマンス,0
1057,4120101070397,新規,0,2024-10-11,2024-10-11,丸山建装株式会社,,株式会社,大阪府,堺市北区,新堀町１丁８４番地９,,27,146,5918005,,,,,,,2024-10-11,1,,,,,マルヤマケンソウ,0
1061,4122001038524,新規,0,2024-10-11,2024-10-11,株式会社ゆめはんな会,,株式会社,大阪府,東大阪市,花園西町１丁目３番２４－１２０２号,,27,227,5780936,,,,,,,2024-10-11,1,,,,,ユメハンナカイ,0
1066,4130001078110,新規,0,2024-10-11,2024-10-11,株式会社食堂おがわ,,株式会社,京都府,京都市下京区,船頭町２２５番地の３,,26,106,6008019,,,,,,,2024-10-11,1,,,,,ショクドウオガワ,0
1067,4130001078119,新規,0,2024-10-11,2024-10-11,株式会社Ｋｙｏｓｈｉｃｈｉホールディングス,,株式会社,京都府,京都市下京区,西七条南東野町１７６番地２Ｆ－２０２,,26,106,6008872,,,,,,,2024-10-11,1,,,,,キョウシチホールディングス,0
1068,4130001078127,新規,0,2024-10-11,2024-10-11,株式会社タガタファーマシー,,株式会社,京都府,京都市伏見区,醍醐高畑町３０番地の１,,26,109,6011375,,,,,,,2024-10-11,1,,,,,タガタファーマシー,0
1071,4130003009922,新規,0,2024-10-11,2024-10-11,合同会社喜和,,合同会社,京都府,与謝郡与謝野町,字四辻６１,,26,465,6292312,,,,,,,2024-10-11,1,,,,,ヨシカズ,0
1072,4130005017213,新規,0,2024-10-11,2024-10-11,一般社団法人いきいきライフ協会佑,,その他の設立登記法人,京都府,京都市伏見区,久我本町４番地８,,26,109,6128492,,,,,,,2024-10-11,1,,,,,イキイキライフキョウカイユウ,0
1080,4160001026272,新規,0,2024-10-11,2024-10-11,株式会社ネオプロア,,株式会社,滋賀県,草津市,南草津１丁目１番地５アーバンホテル南草津テナント２号室１Ｆ,,25,206,5250050,,,,,,,2024-10-11,1,,,,,ネオプロア,0
1087,4180001163659,新規,0,2024-10-11,2024-10-11,株式会社ブルーダー,,株式会社,愛知県,名古屋市名東区,神月町１０２番地グランドールＪ・Ｓ４０５号,,23,115,4650006,,,,,,,2024-10-11,1,,,,,ブルーダー,0
1099,4200001043024,新規,0,2024-10-11,2024-10-11,三和グループ株式会社,,株式会社,岐阜県,山県市,佐賀７６４番地５,,21,215,5012114,,,,,,,2024-10-11,1,,,,,サンワグループ,0
1102,4220001026258,新規,0,2024-10-11,2024-10-11,かがやき断熱株式会社,,株式会社,石川県,金沢市,矢木３丁目２９２番地３,,17,201,9218066,,,,,,,2024-10-11,1,,,,,カガヤキダンネツ,0
1111,4260001039537,新規,0,2024-10-11,2024-10-11,株式会社Ｙ　Ｐｌｕｓ,,株式会社,岡山県,岡山市北区,花尻あかね町１番地１０２クレストハイムＣ２０２,,33,101,7010133,,,,,,,2024-10-11,1,,,,,ワイプラス,0
1121,4300003002190,新規,0,2024-10-11,2024-10-11,合同会社ナチュラルエナジー,,合同会社,佐賀県,佐賀市,蓮池町大字小松３０８番地１,,41,201,8400004,,,,,,,2024-10-11,1,,,,,ナチュラルエナジー,0
1127,4330001032542,新規,0,2024-10-11,2024-10-11,株式会社ショーヘイ,,株式会社,熊本県,熊本市西区,上熊本３丁目１２－３０シティパル上熊本１２０５号室,,43,103,8600079,,,,,,,2024-10-11,1,,,,,ショーヘイ,0
1131,4340001026857,新規,0,2024-10-11,2024-10-11,ラブオール株式会社,,株式会社,鹿児島県,霧島市,国分野口西２３－１３－７,,46,218,8994343,,,,,,,2024-10-11,1,,,,,ラブオール,0
1150,4400001016827,新規,0,2024-10-11,2024-10-11,株式会社オートモービルメンテナンス,,株式会社,岩手県,奥州市,江刺岩谷堂字根岸５５番地５,,03,215,0231101,,,,,,,2024-10-11,1,,,,,,0
1151,4400005008449,新規,0,2024-10-11,2024-10-11,岡田・佐々木社会保険労務士法人,,その他の設立登記法人,岩手県,盛岡市,東安庭１丁目２番２４号,,03,201,0200824,,,,,,,2024-10-11,1,,,,,オカダササキ,0
1153,4410001013963,新規,0,2024-10-11,2024-10-11,株式会社柿崎組,00136620,株式会社,秋田県,雄勝郡羽後町,西馬音内字町田４０番地２４,,05,463,0121131,,,,,,,2024-10-11,1,,,,,カキザキグミ,0
1155,4420003003012,新規,0,2024-10-11,2024-10-11,合同会社みついし,,合同会社,青森県,弘前市,大字土手町５５番地,,02,202,0368182,,,,,,,2024-10-11,1,,,,,ミツイシ,0
1156,4420005007928,新規,0,2024-10-11,2024-10-11,一般財団法人あかね霊園財団,,その他の設立登記法人,青森県,弘前市,大字早稲田３丁目９番地１,,02,202,0368087,,,,,,,2024-10-11,1,,,,,アカネレイエンザイダン,0
1159,4430001092865,新規,0,2024-10-11,2024-10-11,ＤＡＴＴＥＬ株式会社,,株式会社,北海道,伊達市,末永町３３番地３,,01,233,0520021,,,,,,,2024-10-11,1,,,,,ダッテル,0
1161,4500001025933,新規,0,2024-10-11,2024-10-11,株式会社ＭＯＰＩＣ,,株式会社,愛媛県,新居浜市,庄内町４丁目６番１６号メルヘンハイツＢ－１０２号,,38,205,7920811,,,,,,,2024-10-11,1,,,,,モピック,0
1199,5010401185450,新規,0,2024-10-11,2024-10-11,ＭＩＵＴ株式会社,,株式会社,東京都,港区,浜松町１丁目１４番１０－６０３号,,13,103,1050013,,,,,,,2024-10-11,1,,,,,ミュート,0
1200,5010401185632,新規,0,2024-10-11,2024-10-11,ＨＭキャピタル株式会社,,株式会社,東京都,港区,白金１丁目２番１－Ｅ３４１３号,,13,103,1080072,,,,,,,2024-10-11,1,,,,,エイチエムキャピタル,0
1203,5010405023607,新規,0,2024-10-11,2024-10-11,一般社団法人日本ウイメンズヘルスケア協会,,その他の設立登記法人,東京都,港区,芝浦３丁目１７番１１号天翔オフィス田町１００７,,13,103,1080023,,,,,,,2024-10-11,1,,,,,ニホンウイメンズヘルスケアキョウカイ,0
1208,5010601066079,新規,0,2024-10-11,2024-10-11,発欣健康株式会社,,株式会社,東京都,墨田区,両国２丁目１７番１７号両国ダイヤハイツ２０２－３号室,,13,107,1300026,,,,,,,2024-10-11,1,,,,,ハツキンケンコウ,0
1209,5010603011140,新規,0,2024-10-11,2024-10-11,合同会社もももんが電王,,合同会社,東京都,江東区,永代２丁目３３番９－３０２号,,13,108,1350034,,,,,,,2024-10-11,1,,,,,モモモンガデンオウ,0
1224,5011001165041,新規,0,2024-10-11,2024-10-11,株式会社ミューズエーアイ,,株式会社,東京都,目黒区,下目黒１丁目１番１４号,,13,110,1530064,,,,,,,2024-10-11,1,,,,,ミューズエーアイ,0
1229,5011101109063,新規,0,2024-10-11,2024-10-11,株式会社ＯＮＮＵＲＩ　ＪＡＰＡＮ,,株式会社,東京都,新宿区,大久保２丁目１番８号,,13,104,1690072,,,,,,,2024-10-11,1,,,,,オンヌリジャパン,0
1230,5011101109088,新規,0,2024-10-11,2024-10-11,日本松田化学工業株式会社,,株式会社,東京都,新宿区,百人町２丁目１３番１３号Ｊハウス２０５,,13,104,1690073,,,,,,,2024-10-11,1,,,,,ニホンマツダカガクコウギョウ,0
1238,5011301030044,新規,0,2024-10-11,2024-10-11,株式会社サイズスタッフ,,株式会社,東京都,杉並区,方南２丁目４番７号,,13,115,1680062,,,,,,,2024-10-11,1,,,,,サイズスタッフ,0
1241,5011401026495,新規,0,2024-10-11,2024-10-11,株式会社大樹,,株式会社,東京都,板橋区,大谷口２丁目４９番７号エステート大野,,13,119,1730035,,,,,,,2024-10-11,1,,,,,タイジュ,0
1248,5011601028119,新規,0,2024-10-11,2024-10-11,株式会社ｋｉｃｋ　ｉｔ,,株式会社,東京都,練馬区,旭町２丁目１４番４号,,13,120,1790071,,,,,,,2024-10-11,1,,,,,キックイット,0
1249,5011603004480,新規,0,2024-10-11,2024-10-11,合同会社ＹＫＤＲ,,合同会社,東京都,練馬区,栄町３１－６ベルウッドビル１０１,,13,120,1760006,,,,,,,2024-10-11,1,,,,,ワイケーディアール,0
1254,5011801044980,新規,0,2024-10-11,2024-10-11,晴海株式会社,,株式会社,東京都,葛飾区,水元４丁目１０番１６号フラッパー・アーミーＩＩ号館２号室,00136618,13,122,1250032,,,,,,,2024-10-11,1,,,,,ハルミ,0
1262,5013301053198,新規,0,2024-10-11,2024-10-11,株式会社原ちゃり電ちゃり,,株式会社,東京都,豊島区,西巣鴨２丁目１４－５フレール三田２０３号,,13,116,1700001,,,,,,,2024-10-11,1,,,,,ゲンチャリデンチャリ,0
1270,5020001159507,新規,0,2024-10-11,2024-10-11,株式会社Ｄｉｎｉｎｇ　ｖｅｒ．ＳＫ,,株式会社,神奈川県,横浜市磯子区,磯子２丁目５番１０号,,14,107,2350016,,,,,,,2024-10-11,1,,,,,ダイニングバージョンエスケー,0
1271,5020001159556,新規,0,2024-10-11,2024-10-11,一紀株式会社,,株式会社,神奈川県,横浜市戸塚区,戸塚町４２２５－１５－１０２,,14,110,2440003,,,,,,,2024-10-11,1,,,,,イッキ,0
1272,5020001159572,新規,0,2024-10-11,2024-10-11,安田建設株式会社,,株式会社,神奈川県,横浜市港南区,最戸１丁目１４番３１号,,14,111,2330008,,,,,,,2024-10-11,1,,,,,ヤスダケンセツ,0
1281,5021001083449,新規,0,2024-10-11,2024-10-11,中奥株式会社,,株式会社,神奈川県,秦野市,南矢名２２２３番地の４東海ビル１０６Ｂ,,14,211,2570003,,,,,,,2024-10-11,1,,,,,チュウオク,0
1282,5021001083457,新規,0,2024-10-11,2024-10-11,ＧＦＣ株式会社,,株式会社,神奈川県,藤沢市,片瀬２丁目２番５号ダイアパレス湘南片瀬山２０３,,14,205,2510032,,,,,,,2024-10-11,1,,,,,ジーエフシー,0
1284,5021003015103,新規,0,2024-10-11,2024-10-11,富士山合同会社,,合同会社,神奈川県,茅ヶ崎市,芹沢１００４番地１５,,14,207,2530008,,,,,,,2024-10-11,1,,,,,フジサン,0
1289,5030001162939,新規,0,2024-10-11,2024-10-11,なないろ株式会社,,株式会社,埼玉県,吉川市,皿沼２丁目１３５番地,,11,243,3420023,,,,,,,2024-10-11,1,,,,,ナナイロ,0
1295,5030003025251,新規,0,2024-10-11,2024-10-11,合同会社ＭＲｍｏｋｏ,,合同会社,埼玉県,所沢市,大字中富２２７番地の１０サンモール２０２,,11,208,3590002,,,,,,,2024-10-11,1,,,,,エムアールモコ,0
1296,5030005021884,新規,0,2024-10-11,2024-10-11,医療法人社団慶城会,,その他の設立登記法人,埼玉県,深谷市,岡２７５７番地３,,11,218,3690201,,,,,,,2024-10-11,1,,,,,ケイジョウカイ,0
1301,5040001135761,新規,0,2024-10-11,2024-10-11,銘彩株式会社,,株式会社,千葉県,浦安市,猫実３丁目１６番４８号,,12,227,2790004,,,,,,,2024-10-11,1,,,,,ミンザイ,0
1305,5040003025985,新規,0,2024-10-11,2024-10-11,合同会社ベラ・アーサー,,合同会社,千葉県,船橋市,前原東５丁目２６番２－１号,,12,204,2740824,,,,,,,2024-10-11,1,,,,,ベラアーサー,0
1307,5040005022535,新規,0,2024-10-11,2024-10-11,一般社団法人地域共同獣害対策推進協会,,その他の設立登記法人,千葉県,館山市,上野原１０１番地の９,,12,205,2940042,,,,,,,2024-10-11,1,,,,,チイキキョウドウジュウガイタイサクスイシンキョウカイ,0
1308,5040005022551,新規,0,2024-10-11,2024-10-11,一般社団法人眞珠会,,その他の設立登記法人,千葉県,千葉市花見川区,幕張町５丁目４１５番地２,,12,102,2620032,,,,,,,2024-10-11,1,,,,,シンシュカイ,0
1316,5050005013500,新規,0,2024-10-11,2024-10-11,一般社団法人ＣＯＥＳ,,その他の設立登記法人,茨城県,守谷市,松前台４丁目３－８,,08,224,3020102,,,,,,,2024-10-11,1,,,,,コエズ,0
1318,5060001037568,新規,0,2024-10-11,2024-10-11,Ｓｕｎ　Ｌａｎｋａ　Ａｕｔｏ　Ｔｒａｄｉｎｇ株式会社,,株式会社,栃木県,栃木市,岩舟町新里１１４５番地３－Ｃ,,09,203,3294316,,,,,,,2024-10-11,1,,,,,サンランカオートトレーディング,0
1320,5070001042261,新規,0,2024-10-11,2024-10-11,株式会社アップヒルカンパニー,,株式会社,群馬県,高崎市,鼻高町１２８５番地２,,10,202,3700868,,,,,,,2024-10-11,1,,,,,アップヒルカンパニー,0
1326,5080403005121,新規,0,2024-10-11,2024-10-11,合同会社Ｉ’ｓ,,合同会社,静岡県,浜松市中央区,中島３丁目１６番１４号,,22,138,4300856,,,,,,,2024-10-11,1,,,,,アイズ,0
1328,5090001018945,新規,0,2024-10-11,2024-10-11,株式会社ＡＣＴＩＶＥ,,株式会社,山梨県,中央市,成島２２９６番地５,,19,214,4093815,,,,,,,2024-10-11,1,,,,,アクティブ,0
1330,5100003007804,新規,0,2024-10-11,2024-10-11,合同会社ｉｉｒａ,,合同会社,長野県,下伊那郡売木村,７１５,,20,412,3991601,,,,,,,2024-10-11,1,,,,,イイラ,0
1333,5110003005542,新規,0,2024-10-11,2024-10-11,合同会社アンドしらかわ,,合同会社,新潟県,十日町市,松之山湯本５５番地１,,15,210,9421432,,,,,,,2024-10-11,1,,,,,アンドシラカワ,0
1348,5120001269122,新規,0,2024-10-11,2024-10-11,株式会社陽光国際,,株式会社,大阪府,大阪市西成区,天下茶屋１丁目２８番１６号１Ｆ,,27,122,5570014,,,,,,,2024-10-11,1,,,,,ヨウコウコクサイ,0
1349,5120001269155,新規,0,2024-10-11,2024-10-11,株式会社伊藤防水工業,,株式会社,大阪府,寝屋川市,上神田２丁目９番７号,,27,215,5720052,,,,,,,2024-10-11,1,,,,,イトウボウスイコウギョウ,0
1350,5120001269254,新規,0,2024-10-11,2024-10-11,諾語株式会社,,株式会社,大阪府,大阪市中央区,博労町１丁目６番１３号いろはビル３１２号室,,27,128,5410059,,,,,,,2024-10-11,1,,,,,ダクゴ,0
1351,5120001269295,新規,0,2024-10-11,2024-10-11,諭吉株式会社,,株式会社,大阪府,大阪市北区,樋之口町１番２０－１８１５号,,27,127,5300032,,,,,,,2024-10-11,1,,,,,ユキチ,0
1354,5120003027692,新規,0,2024-10-11,2024-10-11,合同会社ヘリナス,,合同会社,大阪府,守口市,金下町１丁目９番９号,,27,209,5700079,,,,,,,2024-10-11,1,,,,,ヘリナス,0
1357,5120101070405,新規,0,2024-10-11,2024-10-11,株式会社ＡＭＡＴＥＲＡＴＨ３５８,,株式会社,大阪府,岸和田市,作才町１１５７,,27,202,5960826,,,,,,,2024-10-11,1,,,,,アマテラスサンゴーハチ,0
1358,5120101070413,新規,0,2024-10-11,2024-10-11,株式会社ＵＮＩＴＹ,,株式会社,大阪府,泉南市,信達牧野８４６番地の１４,,27,228,5900522,,,,,,,2024-10-11,1,,,,,ユニティ,0
1363,5120901049904,新規,0,2024-10-11,2024-10-11,株式会社ＩＣＨＩｔｏＩＣＨＩ,,株式会社,大阪府,豊中市,豊南町西４丁目２６番１３号,,27,203,5610816,,,,,,,2024-10-11,1,,,,,イチトゥイチ,0
1366,5122001038531,新規,0,2024-10-11,2024-10-11,株式会社ＲＳＲ,,株式会社,大阪府,四條畷市,中野３丁目１番３１－１０１号,,27,229,5750052,,,,,,,2024-10-11,1,,,,,アールエスアール,0
1372,5130001078126,新規,0,2024-10-11,2024-10-11,株式会社とめ企画,,株式会社,京都府,長岡京市,一文橋２丁目２５番８号,,26,209,6170825,,,,,,,2024-10-11,1,,,,,トメキカク,0
1377,5130003009921,新規,0,2024-10-11,2024-10-11,合同会社つつみ,,合同会社,京都府,京都市山科区,椥辻東浦町６０－２,00136606,26,110,6078160,,,,,,,2024-10-11,1,,,,,ツツミ,0
1381,5140001136089,新規,0,2024-10-11,2024-10-11,株式会社ＧＲＥＥＮ,,株式会社,兵庫県,西宮市,大谷町１１－３３－５０９,,28,204,6620054,,,,,,,2024-10-11,1,,,,,グリーン,0
1388,5180001163641,新規,0,2024-10-11,2024-10-11,株式会社ヤナセパイピング,,株式会社,愛知県,名古屋市南区,桜本町１３６番地の１セゾン桜２０３号,,23,112,4570038,,,,,,,2024-10-11,1,,,,,ヤナセパイピング,0
1390,5180003027464,新規,0,2024-10-11,2024-10-11,合同会社Ｈ,,合同会社,愛知県,名古屋市西区,名駅２丁目１６番２号,,23,104,4510045,,,,,,,2024-10-11,1,,,,,アッシュ,0
1396,5190003004826,新規,0,2024-10-11,2024-10-11,合同会社聖博商事,,合同会社,三重県,鈴鹿市,北玉垣町１６９７番地の６,,24,207,5130813,,,,,,,2024-10-11,1,,,,,マサヒロショウジ,0
1413,5260001039536,新規,0,2024-10-11,2024-10-11,株式会社矢掛屋,,株式会社,岡山県,総社市,美袋３３０－１,,33,208,7191311,,,,,,,2024-10-11,1,,,,,ヤカゲヤ,0
1414,5260003004918,新規,0,2024-10-11,2024-10-11,合同会社ＧＡＩＮＥＲ,,合同会社,岡山県,岡山市北区,下石井１丁目１番１７号アクロスキューブビル２階,,33,101,7000907,,,,,,,2024-10-11,1,,,,,ゲイナー,0
1417,5260005011409,新規,0,2024-10-11,2024-10-11,一般社団法人岡山ももたろう義塾,,その他の設立登記法人,岡山県,岡山市南区,妹尾８２３－３Ｍ－１ハウス２８,,33,104,7010205,,,,,,,2024-10-11,1,,,,,オカヤマモモタロウギジュク,0
1418,5270001009067,新規,0,2024-10-11,2024-10-11,ＡＲエステート株式会社,,株式会社,鳥取県,鳥取市,湖山町北５丁目１１３番地,,31,201,6800941,,,,,,,2024-10-11,1,,,,,エイアールエステート,0
1425,5290001107538,新規,0,2024-10-11,2024-10-11,宮商事株式会社,,株式会社,福岡県,糟屋郡篠栗町,津波黒１丁目８番１５号,,40,342,8112415,,,,,,,2024-10-11,1,,,,,ミヤショウジ,0
1429,5290003015879,新規,0,2024-10-11,2024-10-11,合同会社一路,,合同会社,福岡県,福岡市南区,高宮３丁目２１番地２１－２０１号オーキッドヒルズ,,40,134,8150083,,,,,,,2024-10-11,1,,,,,イチロ,0
1430,5290003015929,新規,0,2024-10-11,2024-10-11,合同会社Ｎソシオ,,合同会社,福岡県,福岡市中央区,薬院４丁目２１－１０グランドメゾン浄水８０１,,40,133,8100022,,,,,,,2024-10-11,1,,,,,エヌソシオ,0
1434,5320001020761,新規,0,2024-10-11,2024-10-11,株式会社ＢＵＮＧＯカンパニー,,株式会社,大分県,大分市,田中町３丁目８番１６号,,44,201,8700852,,,,,,,2024-10-11,1,,,,,ブンゴカンパニー,0
1435,5330001032541,新規,0,2024-10-11,2024-10-11,株式会社ユキテック,,株式会社,熊本県,熊本市西区,横手５丁目３－２,,43,103,8600046,,,,,,,2024-10-11,1,,,,,ユキテック,0
1442,5360003014378,新規,0,2024-10-11,2024-10-11,合同会社りゅうきゅうアセットデベロップメント,,合同会社,沖縄県,宮古島市,平良字西里８４０番地２,,47,214,9060012,,,,,,,2024-10-11,1,,,,,リュウキュウアセットデベロップメント,0
1449,5400001016826,新規,0,2024-10-11,2024-10-11,株式会社箱石三之助,,株式会社,岩手県,宮古市,茂市第２地割,,03,202,0282101,,,,,,,2024-10-11,1,,,,,ハコイシサンノスケ,0
1453,5420003003011,新規,0,2024-10-11,2024-10-11,合同会社ＣＯＣＯＦＡｌａｂｏ,,合同会社,青森県,南津軽郡田舎館村,大字東光寺字前田７０番地２,,02,367,0381101,,,,,,,2024-10-11,1,,,,,ココファラボ,0
1461,5430001092864,新規,0,2024-10-11,2024-10-11,株式会社ＦｏｒｅｓＳｅａ,,株式会社,北海道,札幌市東区,北四十条東１６丁目１－２４,,01,103,0070840,,,,,,,2024-10-11,1,,,,,フォレスシー,0
1463,5430003016870,新規,0,2024-10-11,2024-10-11,スマートステイズ合同会社,,合同会社,北海道,虻田郡ニセコ町,字有島１２３番地６５号,,01,395,0481531,,,,,,,2024-10-11,1,,,,,スマートステイズ,0
1486,6010005038938,新規,0,2024-10-11,2024-10-11,ティー・エル・ジェイ・心斎橋一般社団法人,,その他の設立登記法人,東京都,千代田区,丸の内１丁目４番１号東京共同会計事務所内,,13,101,1000005,,,,,,,2024-10-11,1,,,,,ティーエルジェイシンサイバシ,0
1487,6010005038946,新規,0,2024-10-11,2024-10-11,一般社団法人銀座商業施設協議会,,その他の設立登記法人,東京都,中央区,銀座３丁目６番１号,,13,102,1040061,,,,,,,2024-10-11,1,,,,,ギンザショウギョウシセツキョウギカイ,0
1496,6010401185771,新規,0,2024-10-11,2024-10-11,ＲＮＤ株式会社,,株式会社,東京都,港区,南青山３丁目１番３６号青山丸竹ビル６Ｆ,,13,103,1070062,,,,,,,2024-10-11,1,,,,,アールエヌディー,0
1500,6010403033598,新規,0,2024-10-11,2024-10-11,ＡＧＰディベロップメント・ジャパン合同会社,,合同会社,東京都,港区,虎ノ門５丁目１番４号,,13,103,1050001,,,,,,,2024-10-11,1,,,,,エージーピーデベロップメントジャパン,0
1503,6010601066061,新規,0,2024-10-11,2024-10-11,株式会社ネイバー３５,,株式会社,東京都,墨田区,太平２丁目１１番５号,,13,107,1300012,,,,,,,2024-10-11,1,,,,,ネイバーサンジュウゴ,0
1504,6010601066078,新規,0,2024-10-11,2024-10-11,鞠氏株式会社,,株式会社,東京都,墨田区,両国２丁目１７番１７号両国ダイヤハイツ２０２－９号室,,13,107,1300026,,,,,,,2024-10-11,1,,,,,キクシ,0
1521,6011001165131,新規,0,2024-10-11,2024-10-11,株式会社ｒｕｒｕＬｉ,,株式会社,東京都,渋谷区,神宮前３丁目２３番２号ＮＳビル１Ｆ,,13,113,1500001,,,,,,,2024-10-11,1,,,,,ルルリ,0
1527,6011103015036,新規,0,2024-10-11,2024-10-11,合同会社リベンジスナイパーズ,,合同会社,東京都,新宿区,高田馬場２丁目１９－８ダイヤモンドビル高田馬場,,13,104,1690075,,,,,,,2024-10-11,1,,,,,リベンジスナイパーズ,0
1528,6011103015044,新規,0,2024-10-11,2024-10-11,ＲＰＩパートナーズ合同会社,,合同会社,東京都,新宿区,若宮町１７番神楽坂コート,,13,104,1620827,,,,,,,2024-10-11,1,,,,,アールピーアイパートナーズ,0
1530,6011201025845,新規,0,2024-10-11,2024-10-11,ＳＭＥＩＴ株式会社,,株式会社,東京都,中野区,中野３丁目１８番１－１２１号,,13,114,1640001,,,,,,,2024-10-11,1,,,,,スメイト,0
1535,6011501031246,新規,0,2024-10-11,2024-10-11,蹊禄カーボン株式会社,,株式会社,東京都,北区,浮間１丁目１番１４号リムジンビル３５４,,13,117,1150051,,,,,,,2024-10-11,1,,,,,ケイロクカーボン,0
1543,6011801044971,新規,0,2024-10-11,2024-10-11,株式会社おぶ,,株式会社,東京都,足立区,梅田２丁目９番１３－９０３号,,13,121,1230851,,,,,,,2024-10-11,1,,,,,オブ,0
1544,6011803006499,新規,0,2024-10-11,2024-10-11,Ｋ．Ｍ合同会社,,合同会社,東京都,葛飾区,新小岩４丁目３７番８号,,13,122,1240024,,,,,,,2024-10-11,1,,,,,ケーエム,0
1552,6012401042374,新規,0,2024-10-11,2024-10-11,ＹＳＭ株式会社,,株式会社,東京都,多摩市,鶴牧２丁目１３－７－１０６,,13,224,2060034,,,,,,,2024-10-11,1,,,,,ワイエスエム,0
1554,6013301053180,新規,0,2024-10-11,2024-10-11,株式会社ＬＴＳ,,株式会社,東京都,豊島区,南池袋２丁目３０番１７号,,13,116,1710022,,,,,,,2024-10-11,1,,,,,エルティーエス,0
1555,6013301053197,新規,0,2024-10-11,2024-10-11,株式会社ＯｎｅＴｒｕｅ,,株式会社,東京都,豊島区,要町２丁目２５番１１号エクスト要町１０１,,13,116,1710043,,,,,,,2024-10-11,1,,,,,ワントゥルー,0
1560,6020001159489,新規,0,2024-10-11,2024-10-11,株式会社武田商事,,株式会社,神奈川県,横浜市旭区,鶴ケ峰２丁目８２番地１クリオレジダンスタワー横濱鶴ヶ峰２３１１号,,14,112,2410022,,,,,,,2024-10-11,1,,,,,タケダショウジ,0
1561,6020001159522,新規,0,2024-10-11,2024-10-11,ヴェリタス株式会社,,株式会社,神奈川県,横浜市西区,平沼１丁目３番１０－３０４号室,,14,103,2200023,,,,,,,2024-10-11,1,,,,,ヴェリタス,0
1562,6020001159596,新規,0,2024-10-11,2024-10-11,達安貿易株式会社,,株式会社,神奈川県,横浜市中区,吉浜町２－３６ＢＣＣビル２０３号室,,14,104,2310024,,,,,,,2024-10-11,1,,,,,タツアンボウエキ,0
1567,6021003015093,新規,0,2024-10-11,2024-10-11,Ｂｌｏｏｍ　Ｐａｃｉｆｉｃ　Ｊａｐａｎ合同会社,,合同会社,神奈川県,大和市,南林間７丁目１番３号,,14,213,2420006,,,,,,,2024-10-11,1,,,,,ブルームパシフィックジャパン,0
1574,6030001162938,新規,0,2024-10-11,2024-10-11,ＲｅｖｏｎＡｓ株式会社,,株式会社,埼玉県,春日部市,増冨４５４番地４,,11,214,3440000,,,,,,,2024-10-11,1,,,,,レボナス,0
1579,6030003025259,新規,0,2024-10-11,2024-10-11,サンクスィー合同会社,,合同会社,埼玉県,川口市,西川口６丁目４番６号第二荻島ビル２２８号室,,11,203,3320021,,,,,,,2024-10-11,1,,,,,サンクスィー,0
1580,6030003025309,新規,0,2024-10-11,2024-10-11,合同会社Ｒｏｂｉｎ,,合同会社,埼玉県,坂戸市,薬師町１４番地２,,11,239,3500229,,,,,,,2024-10-11,1,,,,,ロビン,0
1585,6040001135769,新規,0,2024-10-11,2024-10-11,株式会社心和,,株式会社,千葉県,佐倉市,上志津原３０９番地２,,12,212,2850844,,,,,,,2024-10-11,1,,,,,シンワ,0
1586,6040001135777,新規,0,2024-10-11,2024-10-11,株式会社ＮＥＸＴ北総,,株式会社,千葉県,船橋市,八木が谷２丁目１５番１３号,,12,204,2740802,,,,,,,2024-10-11,1,,,,,ネクストホクソウ,0
1592,6040005022542,新規,0,2024-10-11,2024-10-11,医療法人社団一高会,,その他の設立登記法人,千葉県,松戸市,串崎南町１９番地１階,,12,207,2702215,,,,,,,2024-10-11,1,,,,,イチタカカイ,0
1598,6060003005282,新規,0,2024-10-11,2024-10-11,合同会社カリナン,,合同会社,栃木県,芳賀郡茂木町,大字茂木１９１１番地１,,09,343,3213531,,,,,,,2024-10-11,1,,,,,カリナン,0
1600,6070001042260,新規,0,2024-10-11,2024-10-11,株式会社ＯＶＥＲｕｓ,,株式会社,群馬県,太田市,飯塚町４０番地３０,,10,205,3730817,,,,,,,2024-10-11,1,,,,,オベラス,0
1602,6070003005604,新規,0,2024-10-11,2024-10-11,合同会社富源,,合同会社,群馬県,太田市,宝町８１４番地,,10,205,3730042,,,,,,,2024-10-11,1,,,,,トミゲン,0
1635,6120001269294,新規,0,2024-10-11,2024-10-11,ＹＵＵＫＩ　ＪＡＰＡＮ株式会社,,株式会社,大阪府,大阪市阿倍野区,美章園２丁目２－２０,,27,119,5450003,,,,,,,2024-10-11,1,,,,,ユウキジャパン,0
1638,6120003027659,新規,0,2024-10-11,2024-10-11,合同会社ポラリス,,合同会社,大阪府,大阪市福島区,鷺洲５丁目１番１５号セレンディップ鷺洲３０２号,,27,103,5530002,,,,,,,2024-10-11,1,,,,,ポラリス,0
1639,6120003027691,新規,0,2024-10-11,2024-10-11,合同会社Ｒｉｎ,,合同会社,大阪府,大阪市浪速区,難波中３丁目９－３南朝日ビル７０４,,27,111,5560011,,,,,,,2024-10-11,1,,,,,リン,0
1640,6120003027725,新規,0,2024-10-11,2024-10-11,ＫＳＴ合同会社,,合同会社,大阪府,大阪市北区,梅田１丁目２番２号大阪駅前第２ビル１２－１２,,27,127,5300001,,,,,,,2024-10-11,1,,,,,ケーエスティー,0
1644,6120101070387,新規,0,2024-10-11,2024-10-11,株式会社ＵＬＴＩＶＩＴＡ,,株式会社,大阪府,堺市北区,南長尾町２丁３番４号,,27,146,5918045,,,,,,,2024-10-11,1,,,,,アルティビタ,0
1647,6120903005375,新規,0,2024-10-11,2024-10-11,合同会社ｃａｌｍ,,合同会社,大阪府,摂津市,別府２丁目２番１３号,,27,224,5660046,,,,,,,2024-10-11,1,,,,,カーム,0
1654,6130003009920,新規,0,2024-10-11,2024-10-11,合同会社ｓａｋｕｍｏｍｏ,,合同会社,京都府,京都市伏見区,醍醐北端山２５番地３５,,26,109,6011321,,,,,,,2024-10-11,1,,,,,サクモモ,0
1655,6130003009929,新規,0,2024-10-11,2024-10-11,ささの合同会社,,合同会社,京都府,京都市伏見区,深草下川原町８番地,,26,109,6128401,,,,,,,2024-10-11,1,,,,,ササノ,0
1656,6130005017211,新規,0,2024-10-11,2024-10-11,一般社団法人アジェンダ・プロジェクト,,その他の設立登記法人,京都府,京都市南区,東九条北松ノ木町３７番地の７,,26,107,6018022,,,,,,,2024-10-11,1,,,,,アジェンダプロジェクト,0
1669,6140003021156,新規,0,2024-10-11,2024-10-11,合同会社バント,,合同会社,兵庫県,揖保郡太子町,太田１４２１番地３,,28,464,6711511,,,,,,,2024-10-11,1,,,,,バント,0
1687,6180301039136,新規,0,2024-10-11,2024-10-11,株式会社ｃａｃｏ,,株式会社,愛知県,蒲郡市,金平町長田１０番地８,,23,214,4430102,,,,,,,2024-10-11,1,,,,,カコ,0
1698,6220001026264,新規,0,2024-10-11,2024-10-11,株式会社ＫＤＣ,,株式会社,石川県,鳳珠郡能登町,字小木１５字２３番地４,,17,463,9270553,,,,,,,2024-10-11,1,,,,,ケーディーシー,0
1699,6220003003856,新規,0,2024-10-11,2024-10-11,合同会社ｅｓｓｅ,,合同会社,石川県,小松市,大領町ロ１２６ＲＥＩ　ＧＲＡＮ　ＦＩＲＳＴ２０２,,17,203,9230854,,,,,,,2024-10-11,1,,,,,エッセ,0
1700,6230001020563,新規,0,2024-10-11,2024-10-11,グッドスマイル株式会社,,株式会社,富山県,富山市,願海寺４２０番地３,,16,201,9300175,,,,,,,2024-10-11,1,,,,,グッドスマイル,0
1721,6290001107545,新規,0,2024-10-11,2024-10-11,三和工務店株式会社,,株式会社,福岡県,福岡市東区,香椎照葉２丁目５番２－７０３号照葉テラスマリナコート２番館,,40,131,8130017,,,,,,,2024-10-11,1,,,,,サンワコウムテン,0
1722,6290001107561,新規,0,2024-10-11,2024-10-11,株式会社イドムＪＰ,,株式会社,福岡県,福岡市東区,唐原１丁目５番２８－１号Ｉｔ′ｓ九産大前１０２号室,,40,131,8130001,,,,,,,2024-10-11,1,,,,,イドムジェイピー,0
1724,6290003015878,新規,0,2024-10-11,2024-10-11,合同会社３９ａｍ．ｂｕｓｉｎｅｓｓ,,合同会社,福岡県,福岡市博多区,山王１丁目１番２４－２０２号グリュックハイム山王公園前,,40,132,8120015,,,,,,,2024-10-11,1,,,,,サンキュウアセットマネジメントビジネス,0
1730,6330001032540,新規,0,2024-10-11,2024-10-11,株式会社ＵＹＡＫＥ,,株式会社,熊本県,熊本市東区,小峯２丁目１番８号,,43,102,8620933,,,,,,,2024-10-11,1,,,,,ユウヤケ,0
1732,6330003010593,新規,0,2024-10-11,2024-10-11,合同会社関工業,,合同会社,熊本県,菊池郡大津町,大字吹田４５７番地１,,43,403,8691218,,,,,,,2024-10-11,1,,,,,セキコウギョウ,0
1752,6420003003010,新規,0,2024-10-11,2024-10-11,Ｆａｔ　Ｄａｎｃｉｎｇ　Ｐｒｏｄｕｃｔｉｏｎｓ，Ｅａｓｔ合同会社,,合同会社,青森県,弘前市,大字富士見町２０番地１１,,02,202,0368223,,,,,,,2024-10-11,1,,,,,ファットダンシングプロダクションズイースト,0
1760,6450001014428,新規,0,2024-10-11,2024-10-11,ＲＡＦＡＱ　ＳＨＯＫＡＩ株式会社,,株式会社,北海道,旭川市,台場二条２丁目２４９番地の１０７,,01,204,0708072,,,,,,,2024-10-11,1,,,,,ラファショウカイ,0
1770,6490003001940,新規,0,2024-10-11,2024-10-11,合同会社ＫＩＳＨＩ　ＷＥＢ＆ＤＥＳＩＧＮ,,合同会社,高知県,吾川郡いの町,中野川３４番地１,,39,386,7812616,,,,,,,2024-10-11,1,,,,,,0
1784,7010005038945,新規,0,2024-10-11,2024-10-11,特定非営利活動法人ふりーだむ,,その他の設立登記法人,東京都,千代田区,外神田２丁目１番４号松住町別館４１２,,13,101,1010021,,,,,,,2024-10-11,1,,,,,フリーダム,0
1787,7010101016367,新規,0,2024-10-11,2024-10-11,株式会社ｍｏｉｔｉｅ,,株式会社,東京都,八王子市,散田町１丁目１３番地１０号,,13,201,1930832,,,,,,,2024-10-11,1,,,,,モワティエ,0
1798,7010401185622,新規,0,2024-10-11,2024-10-11,ピンクフォン・ジャパン株式会社,,株式会社,東京都,港区,虎ノ門２丁目４番７号１６Ｆオフィス０６,,13,103,1050001,,,,,,,2024-10-11,1,,,,,ピンクフォンジャパン,0
1800,7010405023605,新規,0,2024-10-11,2024-10-11,一般社団法人Ｔｈｅ　Ｇｏｏｄ　Ｆｏｏｄ　Ｉｎｓｔｉｔｕｔｅ　Ｊａｐａｎ,,その他の設立登記法人,東京都,港区,虎ノ門４丁目１番２８号虎ノ門タワーズオフィス１９階,,13,103,1050001,,,,,,,2024-10-11,1,,,,,ザグッドフードインスティテュートジャパン,0
1805,7010601066077,新規,0,2024-10-11,2024-10-11,健美康株式会社,,株式会社,東京都,墨田区,両国２丁目１７番１７号両国ダイヤハイツ２０２－６号室,,13,107,1300026,,,,,,,2024-10-11,1,,,,,ケンビコウ,0
1806,7010605004388,新規,0,2024-10-11,2024-10-11,アドス税理士法人,,その他の設立登記法人,東京都,江東区,塩浜２丁目２９番２－２０９号,,13,108,1350043,,,,,,,2024-10-11,1,,,,,アドス,0
1810,7010701046672,新規,0,2024-10-11,2024-10-11,ＷｅｌｌｎｅｓｓＰｌｕｓ株式会社,,株式会社,東京都,品川区,西五反田３丁目１１番６号サンウエスト山手ビル４Ｆ,,13,109,1410031,,,,,,,2024-10-11,1,,,,,ウェルネスプラス,0
1811,7010703007383,新規,0,2024-10-11,2024-10-11,Ｃａｆｉｅ合同会社,,合同会社,東京都,品川区,西五反田１丁目２６番２号五反田サンハイツ９１１,,13,109,1410031,,,,,,,2024-10-11,1,,,,,カフィー,0
1816,7010903009411,新規,0,2024-10-11,2024-10-11,合同会社Ｋ．ｓｈｉｎ,,合同会社,東京都,世田谷区,赤堤３丁目２６番７－１０８号,,13,112,1560044,,,,,,,2024-10-11,1,,,,,ケッシン,0
1827,7011005010704,新規,0,2024-10-11,2024-10-11,特定非営利活動法人サイバーセキュリティ促進支援機構,,その他の設立登記法人,東京都,目黒区,目黒２丁目１４番１３－１３０３号ダイヤパレスシェルトワレ目黒,,13,110,1530063,,,,,,,2024-10-11,1,,,,,,0
1832,7011103015035,新規,0,2024-10-11,2024-10-11,合同会社ロビンクリエイト,,合同会社,東京都,新宿区,西新宿６丁目５番１号新宿アイランドタワー２階,,13,104,1600023,,,,,,,2024-10-11,1,,,,,ロビンクリエイト,0
1833,7011105011180,新規,0,2024-10-11,2024-10-11,一般社団法人損保ジャパン代理店共済会,,その他の設立登記法人,東京都,新宿区,西新宿１丁目２６番２号新宿野村ビル２４階,,13,104,1600023,,,,,,,2024-10-11,1,,,,,ソンポジャパンダイリテンキョウサイカイ,0
1836,7011203004499,新規,0,2024-10-11,2024-10-11,合同会社ＳＰＩＴＩ,,合同会社,東京都,中野区,沼袋１丁目２６番１０号ヴェルコリーヌ喜多村３０２,,13,114,1650025,,,,,,,2024-10-11,1,,,,,スピティ,0
1846,7011801044905,新規,0,2024-10-11,2024-10-11,株式会社宸安,,株式会社,東京都,足立区,入谷７丁目２０－８－２階,,13,121,1210836,,,,,,,2024-10-11,1,,,,,シンアン,0
1847,7011801044970,新規,0,2024-10-11,2024-10-11,株式会社ＱｕｅｓｔＬｉｎｋ,,株式会社,東京都,葛飾区,堀切３丁目１６番１０号,,13,122,1240006,,,,,,,2024-10-11,1,,,,,クエストリンク,0
1849,7012401042324,新規,0,2024-10-11,2024-10-11,株式会社ｓｍｉｌｅ＆ｎｏｕｒｉｓｈ,,株式会社,東京都,多摩市,永山１丁目９番地の１２,,13,224,2060025,,,,,,,2024-10-11,1,,,,,スマイルアンドナリッシュ,0
1850,7012401042381,新規,0,2024-10-11,2024-10-11,ズー株式会社,,株式会社,東京都,府中市,宮西町２丁目３－６富士会館ビルＢ１―Ｂ,,13,206,1830022,,,,,,,2024-10-11,1,,,,,ズー,0
1851,7012703003107,新規,0,2024-10-11,2024-10-11,合同会社ＡＩ．Ｔｒｉｍ,,合同会社,東京都,小平市,小川町１丁目８４５－１風舎４０２,,13,211,1870032,,,,,,,2024-10-11,1,,,,,アイトリム,0
1855,7013301053196,新規,0,2024-10-11,2024-10-11,株式会社ＭＥＭＥＮＴ,,株式会社,東京都,豊島区,要町１丁目１０番８号,,13,116,1710043,,,,,,,2024-10-11,1,,,,,メメント,0
1856,7013303007340,新規,0,2024-10-11,2024-10-11,ＮＴＡ　ＬＡＮＫＡ合同会社,,合同会社,東京都,豊島区,南池袋１丁目９番１８号２０２号室,,13,116,1710022,,,,,,,2024-10-11,1,,,,,エヌティエイランカ,0
1857,7013303007349,新規,0,2024-10-11,2024-10-11,ＫＨＡＮＧ　ＶＵ合同会社,,合同会社,東京都,豊島区,北大塚２丁目１８番４号コーポ大塚５０２,,13,116,1700004,,,,,,,2024-10-11,1,,,,,カンヴ,0
1863,7020001159538,新規,0,2024-10-11,2024-10-11,株式会社エフ電気,,株式会社,神奈川県,川崎市川崎区,観音１丁目１２番４号斉藤荘２号室,,14,131,2100831,,,,,,,2024-10-11,1,,,,,エフデンキ,0
1864,7020001159579,新規,0,2024-10-11,2024-10-11,株式会社横浜青機,,株式会社,神奈川県,横浜市南区,六ツ川３丁目９７－８,,14,105,2320066,,,,,,,2024-10-11,1,,,,,ヨコハマセイキ,0
1865,7020003027016,新規,0,2024-10-11,2024-10-11,合同会社ハイム,,合同会社,神奈川県,川崎市高津区,末長４丁目１２番９号,,14,134,2130013,,,,,,,2024-10-11,1,,,,,ハイム,0
1866,7020003027065,新規,0,2024-10-11,2024-10-11,梓董堂合同会社,,合同会社,神奈川県,横浜市港南区,港南台５丁目１５番３１号,,14,111,2340054,,,,,,,2024-10-11,1,,,,,シクンドウ,0
1868,7021001083447,新規,0,2024-10-11,2024-10-11,パスレル株式会社,,株式会社,神奈川県,相模原市緑区,橋本台１丁目３２番１号,,14,151,2520132,,,,,,,2024-10-11,1,,,,,パスレル,0
1877,7030001162821,新規,0,2024-10-11,2024-10-11,株式会社シュガー総研,,株式会社,埼玉県,志木市,本町３丁目１２番１２号,,11,228,3530004,,,,,,,2024-10-11,1,,,,,シュガーソウケン,0
1878,7030001162879,新規,0,2024-10-11,2024-10-11,株式会社アナコンダ,,株式会社,埼玉県,比企郡ときがわ町,大字本郷５９８番地１,,11,349,3550353,,,,,,,2024-10-11,1,,,,,アナコンダ,0
1879,7030001162904,新規,0,2024-10-11,2024-10-11,株式会社ＨＹＫＣ,,株式会社,埼玉県,所沢市,北野南１丁目８番地の１８,,11,208,3591156,,,,,,,2024-10-11,1,,,,,エイチワイケーシー,0
1880,7030001162937,新規,0,2024-10-11,2024-10-11,熊猫金属株式会社,,株式会社,埼玉県,本庄市,若泉１丁目７番５号キャッスル本庄弐番館４０８,,11,211,3670055,,,,,,,2024-10-11,1,,,,,パンダキンゾク,0
1881,7030001162945,新規,0,2024-10-11,2024-10-11,株式会社ＵＲＡ　ＦＡＣＴＯＲＹ,,株式会社,埼玉県,草加市,柳島町４３５番地６,,11,221,3400033,,,,,,,2024-10-11,1,,,,,ウラファクトリー,0
1889,7030003025274,新規,0,2024-10-11,2024-10-11,合同会社ＵＭＳ,,合同会社,埼玉県,さいたま市大宮区,桜木町２丁目３番地大宮マルイ７階,,11,103,3300854,,,,,,,2024-10-11,1,,,,,ユーエムエス,0
1899,7040005022533,新規,0,2024-10-11,2024-10-11,特定非営利活動法人ソーシャルユナイト,,その他の設立登記法人,千葉県,茂原市,東郷１５３４番地９,,12,210,2970017,,,,,,,2024-10-11,1,,,,,ソーシャルユナイト,0
1903,7050001055494,新規,0,2024-10-11,2024-10-11,株式会社秀栄,,株式会社,茨城県,常総市,中妻町９２１番地,,08,211,3002505,,,,,,,2024-10-11,1,,,,,シュウエイ,0
1904,7050001055536,新規,0,2024-10-11,2024-10-11,株式会社ＮＦＡ,,株式会社,茨城県,牛久市,ひたち野東１丁目３２番地６ルネ・インタープレイス４１４号,,08,219,3001207,,,,,,,2024-10-11,1,,,,,エヌエフエイ,0
1917,7070001042251,新規,0,2024-10-11,2024-10-11,株式会社関東ホールディングス,,株式会社,群馬県,伊勢崎市,東小保方４００３番地の１,,10,204,3720000,,,,,,,2024-10-11,1,,,,,カントウホールディングス,0
1919,7070003005603,新規,0,2024-10-11,2024-10-11,合同会社リッカー,,合同会社,群馬県,高崎市,足門町８２２番地２コーポＨＩＲＯ２０３号,,10,202,3703531,,,,,,,2024-10-11,1,,,,,リッカー,0
1921,7080001026542,新規,0,2024-10-11,2024-10-11,株式会社ＣＨＩＲＡＹＡ,,株式会社,静岡県,焼津市,本町３丁目９番２０号,,22,212,4250022,,,,,,,2024-10-11,1,,,,,チラヤ,0
1924,7080103003159,新規,0,2024-10-11,2024-10-11,合同会社ｋｏｍｉｍｉ,,合同会社,静岡県,三島市,東本町２丁目８－１７,,22,206,4110831,,,,,,,2024-10-11,1,,,,,コミミ,0
1941,7120001269079,新規,0,2024-10-11,2024-10-11,株式会社ＭＩＮＴホールディング,,株式会社,大阪府,枚方市,新町１丁目２番１０号枚方テイクスリービル３階,,27,210,5731191,,,,,,,2024-10-11,1,,,,,ミントホールディング,0
1942,7120001269269,新規,0,2024-10-11,2024-10-11,株式会社デイジェイド,,株式会社,大阪府,大阪市西成区,潮路１丁目７番８号,,27,122,5570052,,,,,,,2024-10-11,1,,,,,デイジェイド,0
1943,7120001269277,新規,0,2024-10-11,2024-10-11,株式会社オトタイ,,株式会社,大阪府,大阪市北区,梅田１丁目２番２号大阪駅前第２ビル１２－１２,,27,127,5300001,,,,,,,2024-10-11,1,,,,,オトタイ,0
1944,7120001269285,新規,0,2024-10-11,2024-10-11,大阪米藍服装貿易株式会社,,株式会社,大阪府,大阪市港区,市岡元町１丁目６番１１－８０１号室,,27,107,5520002,,,,,,,2024-10-11,1,,,,,オオサカミランフクソウボウエキ,0
1945,7120001269293,新規,0,2024-10-11,2024-10-11,秋楽株式会社,,株式会社,大阪府,大阪市淀川区,十三元今里２丁目１２番２５－２０１号,,27,123,5320028,,,,,,,2024-10-11,1,,,,,アキラク,0
1946,7120001269302,新規,0,2024-10-11,2024-10-11,株式会社キョウリキコ,,株式会社,大阪府,枚方市,東山２丁目３７番地の２７,,27,210,5731114,,,,,,,2024-10-11,1,,,,,キョウリキコ,0
1947,7120001269310,新規,0,2024-10-11,2024-10-11,株式会社Ｐｉｏｎｉ,,株式会社,大阪府,大阪市平野区,平野西５丁目４番２－２０２号,,27,126,5470033,,,,,,,2024-10-11,1,,,,,ピオニ,0
1953,7120003027658,新規,0,2024-10-11,2024-10-11,合同会社梅田ステラート,,合同会社,大阪府,大阪市福島区,鷺洲５丁目１番１５号セレンディップ鷺洲３０２号,,27,103,5530002,,,,,,,2024-10-11,1,,,,,ウメダステラート,0
1954,7120003027690,新規,0,2024-10-11,2024-10-11,合同会社ＭＡＭｏｒａ,,合同会社,大阪府,大阪市東淀川区,大道南１丁目１３－２,,27,114,5330012,,,,,,,2024-10-11,1,,,,,マモラ,0
1955,7120003027740,新規,0,2024-10-11,2024-10-11,Ｋ４合同会社,,合同会社,大阪府,大阪市中央区,北浜２丁目１番１７号,,27,128,5410041,,,,,,,2024-10-11,1,,,,,ケイヨン,0
1960,7120901049885,新規,0,2024-10-11,2024-10-11,株式会社ＨＮＴ,,株式会社,大阪府,高槻市,高槻町１６番５号ライズビル２階,,27,207,5690803,,,,,,,2024-10-11,1,,,,,エイチエヌティー,0
1966,7130001078124,新規,0,2024-10-11,2024-10-11,株式会社フォルムトラスト,,株式会社,京都府,城陽市,平川中道表１８番地の２０,,26,207,6100101,,,,,,,2024-10-11,1,,,,,フォルムトラスト,0
1975,7140001136054,新規,0,2024-10-11,2024-10-11,ＣＦＯパートナーズ株式会社,,株式会社,兵庫県,伊丹市,中央６丁目１番９－３０１号,,28,207,6640851,,,,,,,2024-10-11,1,,,,,シーエフオーパートナーズ,0
1976,7140001136079,新規,0,2024-10-11,2024-10-11,株式会社ＡＳＫ,,株式会社,兵庫県,姫路市,北平野南の町１０－３イニジオ・フロンテ北平野南の町Ｂ,,28,201,6700887,,,,,,,2024-10-11,1,,,,,アスク,0
1986,7150003003391,新規,0,2024-10-11,2024-10-11,廣岡塗装合同会社,,合同会社,奈良県,桜井市,大字東新堂３３５－７,,29,206,6330068,,,,,,,2024-10-11,1,,,,,ヒロオカトソウ,0
2001,7190001031713,新規,0,2024-10-11,2024-10-11,日の丸トレーディング株式会社,,株式会社,三重県,三重郡菰野町,大字菰野１６３６番地１６,,24,341,5101233,,,,,,,2024-10-11,1,,,,,ヒノマルトレーディング,0
2002,7190003004824,新規,0,2024-10-11,2024-10-11,合同会社クスオ工業,,合同会社,三重県,鈴鹿市,東玉垣町６７８番地の３,,24,207,5130814,,,,,,,2024-10-11,1,,,,,クスオコウギョウ,0
2007,7200003006538,新規,0,2024-10-11,2024-10-11,ミカミ商事合同会社,,合同会社,岐阜県,養老郡養老町,蛇持５０８番地１６,,21,341,5031303,,,,,,,2024-10-11,1,,,,,ミカミショウジ,0
2016,7220005008893,新規,0,2024-10-11,2024-10-11,一般社団法人豊和会,,その他の設立登記法人,石川県,小松市,鵜川町乙１３６番地１,,17,203,9230063,,,,,,,2024-10-11,1,,,,,ホウワカイ,0
2018,7230001020562,新規,0,2024-10-11,2024-10-11,株式会社ＮＳ　ＴＲＡＤＥＲＳ,,株式会社,富山県,射水市,庄西町１丁目１５番６号,,16,211,9340001,,,,,,,2024-10-11,1,,,,,エヌエストレーダーズ,0
2024,7240003006880,新規,0,2024-10-11,2024-10-11,合同会社ｗｅｖ,,合同会社,広島県,広島市西区,三篠町２丁目１７番１０－１０１号,,34,104,7330003,,,,,,,2024-10-11,1,,,,,ウィーブ,0
2029,7260001039534,新規,0,2024-10-11,2024-10-11,株式会社エムエムシステムズ,,株式会社,岡山県,岡山市北区,津高９１９－６サーパス津高台通３番館３０１号室,,33,101,7011152,,,,,,,2024-10-11,1,,,,,エムエムシステムズ,0
2040,7290001107544,新規,0,2024-10-11,2024-10-11,株式会社大華工業,,株式会社,福岡県,福岡市東区,香椎６丁目３番２２－１０２号,,40,131,8130011,,,,,,,2024-10-11,1,,,,,ダイカコウギョウ,0
2041,7290001107560,新規,0,2024-10-11,2024-10-11,株式会社水文調査,,株式会社,福岡県,糟屋郡久山町,大字久原４２６１番地,,40,348,8112501,,,,,,,2024-10-11,1,,,,,スイモンチョウサ,0
2044,7290003015935,新規,0,2024-10-11,2024-10-11,合同会社ｐｈｉｅｒｏ,,合同会社,福岡県,福岡市博多区,御供所町２－４８メゾン・ド・祇園７０４号室,,40,132,8120037,,,,,,,2024-10-11,1,,,,,,0
2052,7360003014376,新規,0,2024-10-11,2024-10-11,合同会社いーちＡｏｌｌ,,合同会社,沖縄県,那覇市,山下町２８番３０－４０１号シンフォニア奥武山イーストウィング,,47,201,9000027,,,,,,,2024-10-11,1,,,,,イーチオール,0
2063,7400003003333,新規,0,2024-10-11,2024-10-11,合同会社Ｌｉｆｅ,,合同会社,岩手県,胆沢郡金ケ崎町,三ケ尻瘤木丁１５,,03,381,0294502,,,,,,,2024-10-11,1,,,,,ライフ,0
2074,7430001092846,新規,0,2024-10-11,2024-10-11,株式会社プロテクト,,株式会社,北海道,室蘭市,八丁平２丁目２７番７号,,01,205,0500061,,,,,,,2024-10-11,1,,,,,プロテクト,0
2078,7430003016869,新規,0,2024-10-11,2024-10-11,合同会社ＳＫファーム,,合同会社,北海道,岩見沢市,北村赤川４５３４番地,,01,210,0681213,,,,,,,2024-10-11,1,,,,,エスケーファーム,0
2085,7480001012618,新規,0,2024-10-11,2024-10-11,株式会社アクール,,株式会社,徳島県,美馬郡つるぎ町,貞光字宮下１３番地１,,36,468,7794101,,,,,,,2024-10-11,1,,,,,アクール,0
2086,7480003002187,新規,0,2024-10-11,2024-10-11,合同会社ＣＬＩＰ,,合同会社,徳島県,阿南市,那賀川町敷地２０３番地,,36,204,7791115,,,,,,,2024-10-11,1,,,,,クリップ,0
2089,7500003003348,新規,0,2024-10-11,2024-10-11,グループホーム松風園合同会社,,合同会社,愛媛県,今治市,上徳乙２８４番地１,,38,202,7991511,,,,,,,2024-10-11,1,,,,,グループホームショウフウエン,0
2109,8010005038952,新規,0,2024-10-11,2024-10-11,ティー・エル・ジェイ・心斎橋特定目的会社,,その他の設立登記法人,東京都,千代田区,丸の内１丁目４番１号東京共同会計事務所内,,13,101,1000005,,,,,,,2024-10-11,1,,,,,ティーエルジェイシンサイバシ,0
2118,8010401185638,新規,0,2024-10-11,2024-10-11,株式会社ｋｉｔｓｕｎｅ,,株式会社,東京都,港区,南青山５丁目１７番２号,,13,103,1070062,,,,,,,2024-10-11,1,,,,,キツネ,0
2119,8010401185654,新規,0,2024-10-11,2024-10-11,Ｆａｓｔ　Ｔｒａｃｋ　Ｉｍｐａｃｔ株式会社,,株式会社,東京都,港区,北青山２丁目１４番４号ｔｈｅＡＲＧＹＬＥａｏｙａｍａ６階,,13,103,1070061,,,,,,,2024-10-11,1,,,,,ファストトラックインパクト,0
2121,8010403033596,新規,0,2024-10-11,2024-10-11,合同会社ＳＴ梅田,,合同会社,東京都,港区,西新橋１丁目２番９号メンターキャピタル税理士法人内,,13,103,1050003,,,,,,,2024-10-11,1,,,,,エスティーウメダ,0
2123,8010501053018,新規,0,2024-10-11,2024-10-11,三石商事株式会社,,株式会社,東京都,台東区,三ノ輪１丁目１８番９号ビューハイム三ノ輪６０２,,13,106,1100011,,,,,,,2024-10-11,1,,,,,サンゴクショウジ,0
2124,8010501053026,新規,0,2024-10-11,2024-10-11,東京日化株式会社,,株式会社,東京都,台東区,蔵前３丁目１３－１２蔵前ハイツ２０４－１,,13,106,1110051,,,,,,,2024-10-11,1,,,,,トウキョウニカ,0
2126,8010601066068,新規,0,2024-10-11,2024-10-11,株式会社ＣＯＲＯＭＯ会計,,株式会社,東京都,江東区,有明１丁目４番２０－２７２６号,,13,108,1350063,,,,,,,2024-10-11,1,,,,,コロモカイケイ,0
2127,8010601066076,新規,0,2024-10-11,2024-10-11,株式会社ＤＲＯＰＳ,,株式会社,東京都,墨田区,業平３丁目１１－１１大室ビル一階,,13,107,1300002,,,,,,,2024-10-11,1,,,,,ドロップス,0
2129,8010603011138,新規,0,2024-10-11,2024-10-11,合同会社ＳＡＭＵＲＡＩｓ１１,,合同会社,東京都,江東区,常盤２丁目５－４,,13,108,1350006,,,,,,,2024-10-11,1,,,,,サムライズイレブン,0
2130,8010701046655,新規,0,2024-10-11,2024-10-11,ステラホールディングス株式会社,,株式会社,東京都,品川区,北品川５丁目５番２５号,,13,109,1410001,,,,,,,2024-10-11,1,,,,,ステラホールディングス,0
2131,8010703007382,新規,0,2024-10-11,2024-10-11,合同会社ＭＡＮＭＡＲＵ,,合同会社,東京都,品川区,小山４丁目４番７号,,13,109,1420062,,,,,,,2024-10-11,1,,,,,マンマル,0
2132,8010903009410,新規,0,2024-10-11,2024-10-11,合同会社ＶＩＳＥＩ,,合同会社,東京都,世田谷区,尾山台３丁目１５－７,,13,112,1580086,,,,,,,2024-10-11,1,,,,,ビセイ,0
2146,8011101109060,新規,0,2024-10-11,2024-10-11,株式会社ＬｉｖＮＩＮＥ,,株式会社,東京都,新宿区,西新宿３丁目３番１３号西新宿水間ビル６階,,13,104,1600023,,,,,,,2024-10-11,1,,,,,リブナイン,0
2147,8011101109093,新規,0,2024-10-11,2024-10-11,株式会社ＭＧＩ　ＳＹＳＴＥＭ,,株式会社,東京都,新宿区,西新宿３丁目３番１３号西新宿水間ビル６階,,13,104,1600023,,,,,,,2024-10-11,1,,,,,エムジーアイシステム,0
2148,8011103015042,新規,0,2024-10-11,2024-10-11,Ａ２Ｚ合同会社,,合同会社,東京都,新宿区,若松町７番１－６１４号,,13,104,1620056,,,,,,,2024-10-11,1,,,,,エートゥーゼット,0
2152,8011301030074,新規,0,2024-10-11,2024-10-11,株式会社ＰＩＣＫＳ,,株式会社,東京都,杉並区,方南１丁目４４－１２ガーデン杉並方南１０１,,13,115,1680062,,,,,,,2024-10-11,1,,,,,ピックス,0
2153,8011401026492,新規,0,2024-10-11,2024-10-11,株式会社Ｃａｓａ　Ｒｅａｌ　Ｅｓｔａｔｅ,,株式会社,東京都,板橋区,仲宿５４番２号,,13,119,1730005,,,,,,,2024-10-11,1,,,,,カーサリアルエステート,0
2154,8011501031244,新規,0,2024-10-11,2024-10-11,京武株式会社,,株式会社,東京都,北区,王子本町１丁目２２－１－３０６ＫＳＧビル,,13,117,1140022,,,,,,,2024-10-11,1,,,,,ケイブ,0
2158,8011703003999,新規,0,2024-10-11,2024-10-11,Ａｑｕａ　Ｈｅａｌ合同会社,,合同会社,東京都,江戸川区,南小岩３丁目１－１４プランドールＭ１１５室,,13,123,1330056,,,,,,,2024-10-11,1,,,,,アクアヒール,0
2169,8012403006788,新規,0,2024-10-11,2024-10-11,理想郷コンサルティング合同会社,,合同会社,東京都,府中市,住吉町３丁目８番地の２１,,13,206,1830034,,,,,,,2024-10-11,1,,,,,ユートピアコンサルティング,0
2172,8020001159396,新規,0,2024-10-11,2024-10-11,株式会社Ｋクリーン,,株式会社,神奈川県,横浜市鶴見区,駒岡１丁目１０番Ｂ－３０４号,,14,101,2300071,,,,,,,2024-10-11,1,,,,,ケイクリーン,0
2173,8020001159520,新規,0,2024-10-11,2024-10-11,ＹＸ　ｆａｃｔｏｒｙ株式会社,,株式会社,神奈川県,横浜市西区,浅間町１丁目４番３号ウィザードビル４０２,,14,103,2200072,,,,,,,2024-10-11,1,,,,,ワイテンファクトリー,0
2174,8020001159529,新規,0,2024-10-11,2024-10-11,株式会社ライフエレック防災,,株式会社,神奈川県,横浜市保土ケ谷区,上菅田町４９９番地３エクセレントビュー第３－２０３号,,14,106,2400051,,,,,,,2024-10-11,1,,,,,ライフエレックボウサイ,0
2179,8020003027023,新規,0,2024-10-11,2024-10-11,合同会社ＥＭＭＡ,,合同会社,神奈川県,横浜市神奈川区,菅田町１５１４番地６,,14,102,2210864,,,,,,,2024-10-11,1,,,,,イーエムエムエー,0
2181,8021001083446,新規,0,2024-10-11,2024-10-11,株式会社Ｗｉｓｈ,,株式会社,神奈川県,平塚市,紅谷町３番１７号,,14,203,2540043,,,,,,,2024-10-11,1,,,,,ウィッシュ,0
2188,8030001162829,新規,0,2024-10-11,2024-10-11,株式会社多聞総研,,株式会社,埼玉県,春日部市,大場６８７番地,,11,214,3440021,,,,,,,2024-10-11,1,,,,,タモンソウケン,0
2189,8030001162903,新規,0,2024-10-11,2024-10-11,株式会社藤尾商店,,株式会社,埼玉県,川口市,大字安行北谷６１２番地の１１,,11,203,3340054,,,,,,,2024-10-11,1,,,,,フジオショウテン,0
2194,8040001135775,新規,0,2024-10-11,2024-10-11,株式会社ＲＰ,,株式会社,千葉県,木更津市,貝渕２丁目９番６号,,12,206,2920833,,,,,,,2024-10-11,1,,,,,アールピー,0
2195,8040001135791,新規,0,2024-10-11,2024-10-11,シティモーターズジャパン株式会社,,株式会社,千葉県,白井市,木９１５番地,,12,232,2701437,,,,,,,2024-10-11,1,,,,,シティモーターズジャパン,0
2199,8040003025990,新規,0,2024-10-11,2024-10-11,Ｂｉｇ　Ｗｅｓｔ　Ｐａｒｔｎｅｒｓ合同会社,,合同会社,千葉県,千葉市中央区,道場南１丁目１０３番地２２,,12,101,2600005,,,,,,,2024-10-11,1,,,,,ビッグウェストパートナーズ,0
2208,8050001055510,新規,0,2024-10-11,2024-10-11,株式会社海東組,,株式会社,茨城県,鉾田市,青柳２１２１番地１０,,08,234,3111535,,,,,,,2024-10-11,1,,,,,カイトウグミ,0
2211,8070001042259,新規,0,2024-10-11,2024-10-11,アルファリンクス株式会社,,株式会社,群馬県,邑楽郡大泉町,大字吉田３２６５番地,,10,524,3700523,,,,,,,2024-10-11,1,,,,,アルファリンクス,0
2213,8070003005602,新規,0,2024-10-11,2024-10-11,合同会社フジイ,,合同会社,群馬県,高崎市,下大類町７００番地２,,10,202,3700034,,,,,,,2024-10-11,1,,,,,フジイ,0
2215,8080003003308,新規,0,2024-10-11,2024-10-11,合同会社うんた,,合同会社,静岡県,静岡市葵区,吉野町４番７号,,22,101,4200046,,,,,,,2024-10-11,1,,,,,ウンタ,0
2224,8110001038764,新規,0,2024-10-11,2024-10-11,ユニオンアーキデザイン株式会社,,株式会社,新潟県,新潟市中央区,米山４丁目１番３１号紫竹綜合ビル３０６号,,15,103,9500916,,,,,,,2024-10-11,1,,,,,ユニオンアーキデザイン,0
2238,8120001269061,新規,0,2024-10-11,2024-10-11,ナノポアジャパン株式会社,,株式会社,大阪府,大阪市此花区,西九条６丁目１番３－３０３号室,,27,104,5540012,,,,,,,2024-10-11,1,,,,,ナノポアジャパン,0
2239,8120001269086,新規,0,2024-10-11,2024-10-11,ａｎｙｐｌａｃｅｓ株式会社,,株式会社,大阪府,大阪市北区,東天満２丁目９番３号６階,,27,127,5300044,,,,,,,2024-10-11,1,,,,,エニィプレイス,0
2240,8120001269202,新規,0,2024-10-11,2024-10-11,株式会社ＡＭＯＵＲ．,,株式会社,大阪府,大阪市北区,大淀南２丁目１番１号,,27,127,5310075,,,,,,,2024-10-11,1,,,,,アムール,0
2241,8120001269284,新規,0,2024-10-11,2024-10-11,赤兎馬株式会社,,株式会社,大阪府,大阪市大正区,南恩加島６丁目１９番２５号,,27,108,5510021,,,,,,,2024-10-11,1,,,,,セキトバ,0
2242,8120001269301,新規,0,2024-10-11,2024-10-11,アサヱ株式会社,,株式会社,大阪府,門真市,打越町３番２５号,,27,223,5710029,,,,,,,2024-10-11,1,,,,,アサエ,0
2248,8120003027715,新規,0,2024-10-11,2024-10-11,岸上田合同会社,,合同会社,大阪府,大阪市港区,市岡２丁目２番４号２０３号室,,27,107,5520012,,,,,,,2024-10-11,1,,,,,キシウエダ,0
2257,8120101070393,新規,0,2024-10-11,2024-10-11,コーデックスジャパン株式会社,,株式会社,大阪府,泉佐野市,上町３丁目３番１－１３１０号,,27,213,5980007,,,,,,,2024-10-11,1,,,,,コーデックスジャパン,0
2261,8120901049868,新規,0,2024-10-11,2024-10-11,株式会社Ｂｅコンサルティング,,株式会社,大阪府,吹田市,垂水町１丁目６０番３５－３０５号,,27,205,5640062,,,,,,,2024-10-11,1,,,,,ビーコンサルティング,0
2262,8120901049892,新規,0,2024-10-11,2024-10-11,株式会社ＯＮＥ　ＥＳＴＡＴＥ,,株式会社,大阪府,吹田市,原町４丁目２１番４５－８０３号,,27,205,5640004,,,,,,,2024-10-11,1,,,,,ワンエステート,0
2264,8120905006650,新規,0,2024-10-11,2024-10-11,一般社団法人祐尚会,,その他の設立登記法人,大阪府,吹田市,千里丘上８番２３号フォーラム千里丘１Ｆ,,27,205,5650811,,,,,,,2024-10-11,1,,,,,ユウショウカイ,0
2266,8130001078123,新規,0,2024-10-11,2024-10-11,株式会社Ｃｌｕｖ４３,,株式会社,京都府,京都市西京区,桂乾町３８番地５９,,26,111,6158086,,,,,,,2024-10-11,1,,,,,クラブフォーティースリー,0
2273,8140001136061,新規,0,2024-10-11,2024-10-11,株式会社ＹＫＲＮ,,株式会社,兵庫県,宝塚市,雲雀丘１丁目４番４号,,28,214,6650805,,,,,,,2024-10-11,1,,,,,ワイケーアールエヌ,0
2274,8140001136086,新規,0,2024-10-11,2024-10-11,株式会社３６９,,株式会社,兵庫県,宍粟市,一宮町西深２７２－３,,28,227,6714125,,,,,,,2024-10-11,1,,,,,ミロク,0
2278,8140003021162,新規,0,2024-10-11,2024-10-11,ＣｕＲａＳｉＹｏＣｕ合同会社,,合同会社,兵庫県,淡路市,大磯２３－２４,,28,226,6562302,,,,,,,2024-10-11,1,,,,,クラシヨク,0
2283,8180001163622,新規,0,2024-10-11,2024-10-11,株式会社三井コンサル事務所,,株式会社,愛知県,岩倉市,西市町桝西２－９,,23,228,4820036,,,,,,,2024-10-11,1,,,,,ミツイコンサルジムショ,0
2287,8180301039134,新規,0,2024-10-11,2024-10-11,株式会社ぶんペットクリニック,,株式会社,愛知県,岡崎市,上和田町字森崎４５番地,,23,202,4440201,,,,,,,2024-10-11,1,,,,,ブンペットクリニック,0
2292,8200001043029,新規,0,2024-10-11,2024-10-11,株式会社Ｎｏａ　Ａ　Ｂｒｉｄｇｅ　Ｇｏｌｆ,,株式会社,岐阜県,岐阜市,長良１９１９－１,,21,201,5020071,,,,,,,2024-10-11,1,,,,,ノアアブリッジゴルフ,0
2296,8220003003854,新規,0,2024-10-11,2024-10-11,合同会社ＹＯＵ‐Ｉ　ＴＲＡＶＥＬ,,合同会社,石川県,金沢市,朝霧台２丁目５６番地,,17,201,9201158,,,,,,,2024-10-11,1,,,,,ユーアイトラベル,0
2297,8230001020561,新規,0,2024-10-11,2024-10-11,ＴＯＴＡ株式会社,,株式会社,富山県,富山市,黒瀬２５２番地４３,,16,201,9398213,,,,,,,2024-10-11,1,,,,,トータ,0
2303,8240003006896,新規,0,2024-10-11,2024-10-11,ｃｎｌａｂｏ合同会社,,合同会社,広島県,東広島市,高尾高美が丘二丁目１０番６号,,34,212,7390000,,,,,,,2024-10-11,1,,,,,シーエヌラボ,0
2308,8260001039533,新規,0,2024-10-11,2024-10-11,株式会社ＮＡＮＵＭＵ,,株式会社,岡山県,都窪郡早島町,早島３１６４番地,,33,423,7010304,,,,,,,2024-10-11,1,,,,,ナヌム,0
2322,8290001107485,新規,0,2024-10-11,2024-10-11,株式会社ＳｅａＧｒａｐｈ,,株式会社,福岡県,福岡市中央区,大名１丁目４番２４－２０４号ロマネスク大名,,40,133,8100041,,,,,,,2024-10-11,1,,,,,シーグラフ,0
2323,8290001107535,新規,0,2024-10-11,2024-10-11,株式会社諸富建設,,株式会社,福岡県,大川市,大字道海島２６０番地１,,40,212,8310007,,,,,,,2024-10-11,1,,,,,モロドミケンセツ,0
2324,8290001107543,新規,0,2024-10-11,2024-10-11,株式会社ＡＮＤ　ＳＡＬＥＳ,,株式会社,福岡県,福岡市東区,多の津１丁目１０番１―４１１号,,40,131,8130034,,,,,,,2024-10-11,1,,,,,アンドセールス,0
2326,8290003015926,新規,0,2024-10-11,2024-10-11,合同会社Ａｃｔｉｖｅ　Ｌｉｆｅ,,合同会社,福岡県,福岡市博多区,美野島２丁目２番２号,,40,132,8120017,,,,,,,2024-10-11,1,,,,,アクティブライフ,0
2329,8290801030952,新規,0,2024-10-11,2024-10-11,株式会社ユニバースホーム,,株式会社,福岡県,北九州市八幡西区,沖田３丁目１６番８号（１０１）,,40,109,8070077,,,,,,,2024-10-11,1,,,,,ユニバースホーム,0
2333,8290803004855,新規,0,2024-10-11,2024-10-11,合同会社ＳＡＡＭ,,合同会社,福岡県,北九州市小倉南区,守恒本町１丁目２６番９号,,40,107,8020971,,,,,,,2024-10-11,1,,,,,エスエーエーエム,0
2334,8320001020759,新規,0,2024-10-11,2024-10-11,大和商事株式会社,,株式会社,大分県,佐伯市,大字海崎８４２番地の１４,,44,205,8761105,,,,,,,2024-10-11,1,,,,,ダイワショウジ,0
2338,8330001032530,新規,0,2024-10-11,2024-10-11,株式会社スリーエイト,,株式会社,熊本県,熊本市東区,秋津町秋田３３３９番地９,,43,102,8612105,,,,,,,2024-10-11,1,,,,,スリーエイト,0
2347,8370001051816,新規,0,2024-10-11,2024-10-11,遠山商事株式会社,,株式会社,宮城県,加美郡色麻町,四竃字伝八１９番地３,,04,444,9814122,,,,,,,2024-10-11,1,,,,,トオヤマショウジ,0
2352,8400003003332,新規,0,2024-10-11,2024-10-11,合同会社誠和会計,,合同会社,岩手県,盛岡市,茶畑１丁目１７－１０さんさビル６－Ｄ,,03,201,0200822,,,,,,,2024-10-11,1,,,,,,0
2359,8430001092861,新規,0,2024-10-11,2024-10-11,株式会社Ｗｏｒｋ　ｒｅｐ,,株式会社,北海道,札幌市西区,西野二条２丁目５番７号ロイヤル三王ビル５階,,01,107,0630032,,,,,,,2024-10-11,1,,,,,ワークレップ,0
2362,8430003016876,新規,0,2024-10-11,2024-10-11,合同会社禍福倚伏,,合同会社,北海道,札幌市豊平区,水車町１丁目８－８六本木ヒルズ１７水車町２０５,,01,105,0620912,,,,,,,2024-10-11,1,,,,,カフクイフク,0
2369,8500003003347,新規,0,2024-10-11,2024-10-11,合同会社Ｔｈｅ　Ｓａｉｇｏｎｅｅｒ,,合同会社,愛媛県,伊予郡松前町,大字昌農内９０－６８,,38,401,7913133,,,,,,,2024-10-11,1,,,,,ダサイゴンニア,0
2395,9010401185587,新規,0,2024-10-11,2024-10-11,株式会社ＶｉＺＵＡＬＬＹ,,株式会社,東京都,港区,六本木１丁目３番５０号,,13,103,1060032,,,,,,,2024-10-11,1,,,,,ビジュアリー,0
2401,9010403033612,新規,0,2024-10-11,2024-10-11,Ｂｒｉｄｐｌｅ合同会社,,合同会社,東京都,港区,南青山３丁目１番３６号青山丸竹ビル６Ｆ,,13,103,1070062,,,,,,,2024-10-11,1,,,,,ブリップル,0
2403,9010501053025,新規,0,2024-10-11,2024-10-11,味達通国際商事株式会社,,株式会社,東京都,台東区,千束３丁目２１番１２号４０３,,13,106,1110031,,,,,,,2024-10-11,1,,,,,ウェイダートン,0
2408,9010601066067,新規,0,2024-10-11,2024-10-11,株式会社Ｐ　ＳＰＡＣＥ,,株式会社,東京都,墨田区,両国２丁目９番１０号伊藤ビル１Ｆ,,13,107,1300026,,,,,,,2024-10-11,1,,,,,ピースペース,0
2410,9010701046670,新規,0,2024-10-11,2024-10-11,虎ノ門人材総合サービス株式会社,,株式会社,東京都,品川区,東五反田１丁目２５番１２号－２０３,,13,109,1410022,,,,,,,2024-10-11,1,,,,,トラノモンジンザイソウゴウサービス,0
2411,9010701046687,新規,0,2024-10-11,2024-10-11,株式会社ＨＩＶＥ,,株式会社,東京都,品川区,西五反田２丁目１９－１２五反田井門ビル,,13,109,1410031,,,,,,,2024-10-11,1,,,,,ハイブ,0
2425,9011001165079,新規,0,2024-10-11,2024-10-11,株式会社Ｄｅｅｐｓｅａ,,株式会社,東京都,渋谷区,円山町５－５Ｎａｖｉ渋谷Ｖ３階,,13,113,1500044,,,,,,,2024-10-11,1,,,,,ディープシー,0
2426,9011001165095,新規,0,2024-10-11,2024-10-11,ｂｕｆｆ　ｒｏｏｍ株式会社,,株式会社,東京都,目黒区,鷹番３丁目４番１０号サンハウス３，４Ｆ,,13,110,1520004,,,,,,,2024-10-11,1,,,,,バフルーム,0
2428,9011003020182,新規,0,2024-10-11,2024-10-11,ＬＩＢＥＲＡＮＥＸ合同会社,,合同会社,東京都,渋谷区,道玄坂１丁目１０番８号渋谷道玄坂東急ビル２Ｆ－Ｃ,,13,113,1500043,,,,,,,2024-10-11,1,,,,,リベラネックス,0
2433,9011103015017,新規,0,2024-10-11,2024-10-11,合同会社Ｍｅｔｏｏ,,合同会社,東京都,新宿区,西新宿３丁目３番１３号西新宿水間ビル２Ｆ,,13,104,1600023,,,,,,,2024-10-11,1,,,,,ミトウ,0
2436,9011201025859,新規,0,2024-10-11,2024-10-11,ｎｅｘｔ　ＰＨ株式会社,,株式会社,東京都,中野区,中央１丁目３８番１号,,13,114,1640011,,,,,,,2024-10-11,1,,,,,ネクストピーエイチ,0
2439,9011301030065,新規,0,2024-10-11,2024-10-11,ＴＥＥＭＳコンサルティング株式会社,,株式会社,東京都,杉並区,久我山４丁目２９－４４,,13,115,1680082,,,,,,,2024-10-11,1,,,,,ティームズコンサルティング,0
2441,9011501031251,新規,0,2024-10-11,2024-10-11,和枝家株式会社,,株式会社,東京都,荒川区,町屋３丁目１８番１２号ＮＤビル２１８,,13,118,1160001,,,,,,,2024-10-11,1,,,,,ワシヤ,0
2444,9011801044886,新規,0,2024-10-11,2024-10-11,Ｋａｓｈｉｗａ　Ｃｏｍｐａｎｙ株式会社,,株式会社,東京都,足立区,梅島３丁目３３番６号ＥＭＢＬＥＭ西新井２Ｆ,,13,121,1210816,,,,,,,2024-10-11,1,,,,,カシワカンパニー,0
2445,9011801044985,新規,0,2024-10-11,2024-10-11,東京生コン建材株式会社,,株式会社,東京都,葛飾区,水元４丁目２番１５号,,13,122,1250032,,,,,,,2024-10-11,1,,,,,トウキョウナマコンケンザイ,0
2448,9012301014116,新規,0,2024-10-11,2024-10-11,株式会社Ｄｔｅｃｈｎｏｌｏｇｙ,,株式会社,東京都,町田市,小山町３５１９－２エクセル豊堀１０１,,13,209,1940212,,,,,,,2024-10-11,1,,,,,ディーテクノロジー,0
2455,9013303007339,新規,0,2024-10-11,2024-10-11,合同会社フォレスト,,合同会社,東京都,豊島区,東池袋１丁目１７番１１号パークハイツ池袋１１０５号,,13,116,1700013,,,,,,,2024-10-11,1,,,,,フォレスト,0
2463,9020003027014,新規,0,2024-10-11,2024-10-11,合同会社Ｌａｎｉａｌａ,,合同会社,神奈川県,横浜市戸塚区,上矢部町４４０－１－７２５号,,14,110,2450053,,,,,,,2024-10-11,1,,,,,ラニアラ,0
2464,9020003027030,新規,0,2024-10-11,2024-10-11,合同会社ｇｒａｎｄｅ,,合同会社,神奈川県,川崎市高津区,北見方１丁目１９番３０－１０２号,,14,134,2130005,,,,,,,2024-10-11,1,,,,,グランデ,0
2467,9021003015090,新規,0,2024-10-11,2024-10-11,合同会社Ｒａｉｓｅ,,合同会社,神奈川県,茅ヶ崎市,浜之郷１１７７－５１,,14,207,2530086,,,,,,,2024-10-11,1,,,,,レイズ,0
2473,9030001162761,新規,0,2024-10-11,2024-10-11,株式会社佐々木商店,,株式会社,埼玉県,さいたま市緑区,美園３丁目１０番１３号,,11,109,3360967,,,,,,,2024-10-11,1,,,,,ササキショウテン,0
2474,9030001162902,新規,0,2024-10-11,2024-10-11,イチムラコーポレーション株式会社,,株式会社,埼玉県,草加市,弁天４丁目２３番１５号,,11,221,3400004,,,,,,,2024-10-11,1,,,,,イチムラコーポレーション,0
2475,9030003025306,新規,0,2024-10-11,2024-10-11,合同会社ｈｉｇｈｂｒｉｇｈｔ,,合同会社,埼玉県,新座市,野火止４丁目１１番４－７号,,11,230,3520011,,,,,,,2024-10-11,1,,,,,ハイブライト,0
2481,9040001135766,新規,0,2024-10-11,2024-10-11,ＥａｓｙＳｔａｃｋ株式会社,,株式会社,千葉県,佐倉市,宮前３丁目２２番地４ＧＡＲＤＥＮＥＬＥＧＡＮＴ４１５号室,,12,212,2850005,,,,,,,2024-10-11,1,,,,,イージースタック,0
2482,9040001135782,新規,0,2024-10-11,2024-10-11,株式会社蟻ファミリー,,株式会社,千葉県,野田市,木間ケ瀬５６８７番地４,,12,208,2700222,,,,,,,2024-10-11,1,,,,,アリファミリー,0
2483,9040001135799,新規,0,2024-10-11,2024-10-11,株式会社テンウコンム,,株式会社,千葉県,流山市,向小金１丁目２３９番地の１２シャルマン南柏３０２,,12,220,2700143,,,,,,,2024-10-11,1,,,,,テンウコンム,0
2488,9050001055501,新規,0,2024-10-11,2024-10-11,株式会社共生研究所,,株式会社,茨城県,牛久市,井ノ岡町４１１８番地１,,08,219,3001282,,,,,,,2024-10-11,1,,,,,キョウセイケンキュウジョ,0
2489,9050001055526,新規,0,2024-10-11,2024-10-11,ＡＹＵＭＵ　ＨＯＬＤＩＮＧＳ株式会社,,株式会社,茨城県,結城郡八千代町,大字若９８番地４,,08,521,3003544,,,,,,,2024-10-11,1,,,,,アユムホールディングス,0
2490,9050005013505,新規,0,2024-10-11,2024-10-11,一般社団法人フェアリーたま,,その他の設立登記法人,茨城県,鹿嶋市,大字津賀１７１０番地１０,,08,222,3112205,,,,,,,2024-10-11,1,,,,,フェアリータマ,0
2497,9070001042266,新規,0,2024-10-11,2024-10-11,株式会社ｃｅｎ,,株式会社,群馬県,高崎市,栄町３－１１高崎バナーズビル３－５Ｆ,,10,202,3700841,,,,,,,2024-10-11,1,,,,,セン,0
2499,9080003003307,新規,0,2024-10-11,2024-10-11,ながお合同会社,,合同会社,静岡県,静岡市駿河区,高松１丁目２６－５,,22,102,4228034,,,,,,,2024-10-11,1,,,,,ナガオ,0
2502,9080401027502,新規,0,2024-10-11,2024-10-11,ＢＮＧ株式会社,,株式会社,静岡県,浜松市中央区,雄踏町山崎５０７６番地の１,,22,138,4310101,,,,,,,2024-10-11,1,,,,,ビーエヌジー,0
2510,9110001038739,新規,0,2024-10-11,2024-10-11,株式会社ＪＥＷＥＬＳ,,株式会社,新潟県,新潟市中央区,花町２０６９番地新潟花町ビル９階,,15,103,9518056,,,,,,,2024-10-11,1,,,,,ジュエルズ,0
2511,9110001038763,新規,0,2024-10-11,2024-10-11,株式会社暁,,株式会社,新潟県,上越市,柿崎区柿崎４０３番地１１,,15,222,9493216,,,,,,,2024-10-11,1,,,,,アカツキ,0
2512,9110003005547,新規,0,2024-10-11,2024-10-11,合同会社須貝林業,,合同会社,新潟県,岩船郡関川村,大字上関５３５番地,,15,581,9593264,,,,,,,2024-10-11,1,,,,,スガイリンギョウ,0
2519,9120001269028,新規,0,2024-10-11,2024-10-11,株式会社ＶＣ　ＩＮＮＯＶＡＴＩＯＮＳ,,株式会社,大阪府,大阪市北区,梅田１丁目１－３大阪駅前第３ビル２９階１－１－１号室,,27,127,5300001,,,,,,,2024-10-11,1,,,,,ブイシーイノベーションズ,0
2520,9120001269218,新規,0,2024-10-11,2024-10-11,陽光株式会社,,株式会社,大阪府,大阪市北区,本庄西２丁目２番４号－２０１号室,,27,127,5310073,,,,,,,2024-10-11,1,,,,,ヨウコウ,0
2521,9120001269291,新規,0,2024-10-11,2024-10-11,株式会社ｒｉｎｋ,,株式会社,大阪府,大阪市阿倍野区,阿倍野筋２丁目４－２７,,27,119,5450052,,,,,,,2024-10-11,1,,,,,リンク,0
2522,9120001269309,新規,0,2024-10-11,2024-10-11,ＪＡＲＡＮＩＨＯＮ株式会社,,株式会社,大阪府,大阪市北区,長柄東１丁目４番２４－４１０号,,27,127,5310063,,,,,,,2024-10-11,1,,,,,ジャラニホン,0
2526,9120003027722,新規,0,2024-10-11,2024-10-11,合同会社ジーニー,,合同会社,大阪府,大阪市西区,江之子島２丁目１番３７－３９０６号,,27,106,5500006,,,,,,,2024-10-11,1,,,,,ジーニー,0
2527,9120003027739,新規,0,2024-10-11,2024-10-11,Ｋ３合同会社,,合同会社,大阪府,大阪市中央区,北浜２丁目１番１７号,,27,128,5410041,,,,,,,2024-10-11,1,,,,,ケイサン,0
2533,9120103006089,新規,0,2024-10-11,2024-10-11,ＬｉｎｏＶｅｒｓｅ合同会社,,合同会社,大阪府,岸和田市,土生町６丁目１３番１０号,,27,202,5960825,,,,,,,2024-10-11,1,,,,,リノヴァース,0
2537,9120903005372,新規,0,2024-10-11,2024-10-11,合同会社イージーモト関西,,合同会社,大阪府,吹田市,千里丘下４番１０号Ｂ１,,27,205,5650813,,,,,,,2024-10-11,1,,,,,イージーモトカンサイ,0
2539,9122001038494,新規,0,2024-10-11,2024-10-11,株式会社ＣＦＳＣ,,株式会社,大阪府,柏原市,河原町３番３４号,,27,221,5820004,,,,,,,2024-10-11,1,,,,,シーエフエスシー,0
2543,9130001078122,新規,0,2024-10-11,2024-10-11,株式会社ＨＲＴｈｅｏｒｙ,,株式会社,京都府,京都市下京区,七条通油小路東入大黒町２２７番地第２キョートビル４０２,,26,106,6008223,,,,,,,2024-10-11,1,,,,,エイチアールセオリー,0
2549,9150001027606,新規,0,2024-10-11,2024-10-11,株式会社玄,,株式会社,奈良県,橿原市,曽我町４２６番地の２フジイビル３階,,29,205,6340831,,,,,,,2024-10-11,1,,,,,ゲン,0
2552,9170001018339,新規,0,2024-10-11,2024-10-11,ＧｌｏｂａｌＤｉｃｅ株式会社,,株式会社,和歌山県,日高郡日高川町,大字千津川４１９９番地の１,,30,392,6491332,,,,,,,2024-10-11,1,,,,,グローバルダイス,0
2555,9180001163563,新規,0,2024-10-11,2024-10-11,株式会社かぶらやグループ,,株式会社,愛知県,名古屋市中区,千代田４丁目２番７号,,23,106,4600012,,,,,,,2024-10-11,1,,,,,カブラヤグループ,0
2558,9180301039141,新規,0,2024-10-11,2024-10-11,イー・ワークス株式会社,,株式会社,愛知県,岡崎市,下和田町字尾之越２１番地２,,23,202,4440212,,,,,,,2024-10-11,1,,,,,イーワークス,0
2569,9240001063922,新規,0,2024-10-11,2024-10-11,株式会社ＥＸＣＨＡＮＧＥ,,株式会社,広島県,広島市中区,富士見町８番５号,,34,101,7300043,,,,,,,2024-10-11,1,,,,,エクスチェンジ,0
2573,9260001039532,新規,0,2024-10-11,2024-10-11,ＡＲＡＴＯ５３５株式会社,,株式会社,岡山県,新見市,哲多町蚊家１６１８－５,,33,210,7180311,,,,,,,2024-10-11,1,,,,,アラトゴーサンゴ,0
2574,9270003001679,新規,0,2024-10-11,2024-10-11,Ｂｏｎｄ合同会社,,合同会社,鳥取県,西伯郡南部町,円山１３８番地,,31,389,6830211,,,,,,,2024-10-11,1,,,,,ボンド,0
2578,9290001107484,新規,0,2024-10-11,2024-10-11,株式会社Ｎｅｗ　Ｃａｒｅ,,株式会社,福岡県,福岡市城南区,堤１丁目１２番１２号,,40,136,8140151,,,,,,,2024-10-11,1,,,,,ニューケア,0
2579,9290001107518,新規,0,2024-10-11,2024-10-11,株式会社インフィールド,,株式会社,福岡県,福岡市早良区,西新３丁目１番４号,,40,137,8140002,,,,,,,2024-10-11,1,,,,,インフィールド,0
2581,9290003015917,新規,0,2024-10-11,2024-10-11,合同会社ＳＰ,,合同会社,福岡県,福岡市南区,大楠１丁目１０－１６リテラ平尾東３０１,,40,134,8150082,,,,,,,2024-10-11,1,,,,,エスピー,0
2582,9290003015925,新規,0,2024-10-11,2024-10-11,合同会社モリヤマサービス,,合同会社,福岡県,福岡市南区,高宮１丁目１６番３２－５０３号,,40,134,8150083,,,,,,,2024-10-11,1,,,,,モリヤマサービス,0
2584,9290005019503,新規,0,2024-10-11,2024-10-11,特定非営利活動法人Ｋｙｕｓｈｕ　Ｍｏｔｈｅｒｈｏｏｄ　Ｎｅｔｗｏｒｋ,,その他の設立登記法人,福岡県,太宰府市,石坂２丁目１１番１０号,,40,221,8180118,,,,,,,2024-10-11,1,,,,,キュウシュウマザーフッドネットワーク,0
2586,9290803004854,新規,0,2024-10-11,2024-10-11,合同会社ベジフレ,,合同会社,福岡県,北九州市八幡東区,桃園２丁目１１番１８号,,40,108,8050068,,,,,,,2024-10-11,1,,,,,ベジフレ,0
2603,9360003014374,新規,0,2024-10-11,2024-10-11,合同会社ＤＩＡＮＡ,,合同会社,沖縄県,沖縄市,宮里３丁目９番３号,,47,211,9042165,,,,,,,2024-10-11,1,,,,,ダイアナ,0
2604,9360005007112,新規,0,2024-10-11,2024-10-11,特定非営利活動法人夢みらいもとぶ,,その他の設立登記法人,沖縄県,国頭郡本部町,字伊野波２５８番地－１,,47,308,9050228,,,,,,,2024-10-11,1,,,,,ユメミライモトブ,0
2616,9390003002293,新規,0,2024-10-11,2024-10-11,みちのく小水力発電合同会社,,合同会社,山形県,尾花沢市,大字名木沢１１１番地,,06,212,9994556,,,,,,,2024-10-11,1,,,,,ミチノクショウスイリョクハツデン,0
2619,9420001018890,新規,0,2024-10-11,2024-10-11,株式会社ファンダ,,株式会社,青森県,つがる市,木造藤田４７番地１,,02,209,0383123,,,,,,,2024-10-11,1,,,,,ファンダ,0
2623,9430001092860,新規,0,2024-10-11,2024-10-11,株式会社ＹＳパートナー,,株式会社,北海道,札幌市北区,北十二条西２丁目１番８－５０２号,,01,102,0010012,,,,,,,2024-10-11,1,,,,,ワイエスパートナー,0
2625,9430003016875,新規,0,2024-10-11,2024-10-11,合同会社リムーバルワーク,,合同会社,北海道,札幌市白石区,北郷三条４丁目９番１８号,,01,104,0030833,,,,,,,2024-10-11,1,,,,,リムーバルワーク,0
