sequenceNumber,corporateNumber,process,correct,updateDate,changeDate,name,nameImageId,kind,prefectureName,cityName,streetNumber,addressImageId,prefectureCode,cityCode,postCode,addressOutside,addressOutsideImageId,closeDate,closeCause,successorCorporateNumber,changeCause,assignmentDate,latest,enName,enPrefectureName,enCityName,enAddressOutside,furigana,hihyoji
5,1010001252142,新規,0,2025-02-12,2025-02-12,株式会社Ｑｕｅｅｎｓ　ｏｆ　Ｅｇｙｐｔ,,株式会社,東京都,中央区,湊１丁目１４番１９－１０１号,,13,102,1040043,,,,,,,2025-02-12,1,,,,,クイーンズオブエジプト,0
6,1010001252167,新規,0,2025-02-12,2025-02-12,パラゴンメディカルコンサルティング株式会社,,株式会社,東京都,文京区,本郷３丁目３２番７号東京ビル５階,,13,105,1130033,,,,,,,2025-02-12,1,,,,,パラゴンメディカルコンサルティング,0
9,1010003046377,新規,0,2025-02-12,2025-02-12,昭島モール・リーシング合同会社,,合同会社,東京都,千代田区,丸の内１丁目４番１号東京共同会計事務所内,,13,101,1000005,,,,,,,2025-02-12,1,,,,,アキシマモールリーシング,0
10,1010003046402,新規,0,2025-02-12,2025-02-12,西国立プロパティー合同会社,,合同会社,東京都,千代田区,霞が関３丁目２番５号,,13,101,1000013,,,,,,,2025-02-12,1,,,,,ニシクニタチプロパティー,0
11,1010005039544,新規,0,2025-02-12,2025-02-12,一般社団法人かちはる,,その他の設立登記法人,東京都,中央区,勝どき５丁目５番１４－２１７号,,13,102,1040054,,,,,,,2025-02-12,1,,,,,カチハル,0
12,1010005039569,新規,0,2025-02-12,2025-02-12,東京オフィス５一般社団法人,,その他の設立登記法人,東京都,千代田区,丸の内１丁目４番１号東京共同会計事務所内,,13,101,1000005,,,,,,,2025-02-12,1,,,,,トウキョウオフィスファイブ,0
22,1010401188143,新規,0,2025-02-12,2025-02-12,株式会社Ｃｌｅａｒ　Ｐａｙ,,株式会社,東京都,港区,赤坂２丁目１４番５号Ｄａｉｗａ赤坂ビル７階,,13,103,1070052,,,,,,,2025-02-12,1,,,,,クリアペイ,0
23,1010401188201,新規,0,2025-02-12,2025-02-12,株式会社イーグル,,株式会社,東京都,港区,赤坂６丁目６番２９号サンバレー赤坂５０３,,13,103,1070052,,,,,,,2025-02-12,1,,,,,イーグル,0
27,1010403034312,新規,0,2025-02-12,2025-02-12,合同会社ライズ,,合同会社,東京都,港区,北青山１丁目３番１号アールキューブ青山３階,,13,103,1070061,,,,,,,2025-02-12,1,,,,,ライズ,0
28,1010403034361,新規,0,2025-02-12,2025-02-12,ブライトイーストコンサルティング合同会社,,合同会社,東京都,港区,南青山３丁目１番３６号青山丸竹ビル６Ｆ,,13,103,1070062,,,,,,,2025-02-12,1,,,,,ブライトイーストコンサルティング,0
29,1010405024096,新規,0,2025-02-12,2025-02-12,東山三条インベストメント一般社団法人,,その他の設立登記法人,東京都,港区,元赤坂１丁目１番８号赤坂コミュニティビル４階,,13,103,1070051,,,,,,,2025-02-12,1,,,,,ヒガシヤマサンジョウインベストメント,0
33,1010701047239,新規,0,2025-02-12,2025-02-12,株式会社ＲＥＡＬＩＳＳ,,株式会社,東京都,品川区,南品川５丁目１０―４５,,13,109,1400004,,,,,,,2025-02-12,1,,,,,リアリス,0
35,1010901056790,新規,0,2025-02-12,2025-02-12,ＡＫＫＯＤｉＳコンサルティング株式会社,,株式会社,東京都,世田谷区,大蔵１丁目３番２９号セボンエトワール砧公園Ｓ１０５,,13,112,1570074,,,,,,,2025-02-12,1,,,,,アコーディスコンサルティング,0
41,1011001167545,新規,0,2025-02-12,2025-02-12,Ｇｙｏｋｕｔｏ株式会社,,株式会社,東京都,渋谷区,道玄坂１丁目１０番８号渋谷道玄坂東急ビル２Ｆ－Ｃ,,13,113,1500043,,,,,,,2025-02-12,1,,,,,ギョクト,0
42,1011001167611,新規,0,2025-02-12,2025-02-12,株式会社ラビス,,株式会社,東京都,渋谷区,神宮前６丁目１０－９原宿董友ビル４Ｆ,,13,113,1500001,,,,,,,2025-02-12,1,,,,,ラビス,0
43,1011001167628,新規,0,2025-02-12,2025-02-12,株式会社ＴＯＨＲＡＩ,,株式会社,東京都,渋谷区,円山町５番５号Ｎａｖｉ渋谷Ｖ３階,00137967,13,113,1500044,,,,,,,2025-02-12,1,,,,,トウライ,0
44,1011001167636,新規,0,2025-02-12,2025-02-12,株式会社ボンクリエイト,,株式会社,東京都,目黒区,五本木１丁目３３番５号ステラハイム藤山３０３,,13,110,1530053,,,,,,,2025-02-12,1,,,,,ボンクリエイト,0
45,1011001167677,新規,0,2025-02-12,2025-02-12,株式会社ｖｉｄａｒａ,,株式会社,東京都,渋谷区,富ヶ谷２丁目２６番１６号アパートメント稲木２０２,,13,113,1510063,,,,,,,2025-02-12,1,,,,,ヴィダラ,0
47,1011003020818,新規,0,2025-02-12,2025-02-12,合同会社ｐｌａｎｅｔ,,合同会社,東京都,渋谷区,千駄ヶ谷３丁目３－２０－２１０Ｓｏｃｉａｌａｐａｒｔｍｅｎｔｈａｒａｊｕｋｕ,,13,113,1510051,,,,,,,2025-02-12,1,,,,,プラネット,0
48,1011003020941,新規,0,2025-02-12,2025-02-12,合同会社よりみち,,合同会社,東京都,目黒区,柿の木坂３丁目８番１７号ホビット柿の木坂３０２号,,13,110,1520022,,,,,,,2025-02-12,1,,,,,ヨリミチ,0
49,1011003020982,新規,0,2025-02-12,2025-02-12,合同会社ＨＹＫＹＭ,,合同会社,東京都,渋谷区,恵比寿西２丁目８‐４ＥＸ恵比寿西ビル５階,,13,113,1500021,,,,,,,2025-02-12,1,,,,,ハイキャム,0
54,1011503006416,新規,0,2025-02-12,2025-02-12,合同会社オニオンヘッド,,合同会社,東京都,北区,赤羽北３丁目２６番４－１００３号,,13,117,1150052,,,,,,,2025-02-12,1,,,,,オニオンヘッド,0
55,1011701028055,新規,0,2025-02-12,2025-02-12,株式会社しろた,,株式会社,東京都,江戸川区,松島３丁目３４番１９号,,13,123,1320031,,,,,,,2025-02-12,1,,,,,シロタ,0
68,1013301053755,新規,0,2025-02-12,2025-02-12,株式会社のぶテクニカルラボ,,株式会社,東京都,豊島区,池袋３丁目９番２２号アーネス池袋Ｂ１Ｆ,,13,116,1710014,,,,,,,2025-02-12,1,,,,,ノブテクニカルラボ,0
72,1020001161284,新規,0,2025-02-12,2025-02-12,株式会社ソアラ,,株式会社,神奈川県,川崎市宮前区,南野川２丁目２８番１０号,,14,136,2160042,,,,,,,2025-02-12,1,,,,,ソアラ,0
73,1020001161292,新規,0,2025-02-12,2025-02-12,株式会社ネット・アークス,,株式会社,神奈川県,横浜市中区,花咲町１丁目９－１ログ桜木町５０３,,14,104,2310063,,,,,,,2025-02-12,1,,,,,ネットアークス,0
74,1020001161301,新規,0,2025-02-12,2025-02-12,株式会社ＢｌｕｅＣｒａｎｅｓ松山,,株式会社,神奈川県,横浜市旭区,鶴ケ峰本町２丁目２番４７号,,14,112,2410021,,,,,,,2025-02-12,1,,,,,,0
75,1020001161326,新規,0,2025-02-12,2025-02-12,株式会社インセクション,,株式会社,神奈川県,横浜市磯子区,下町７番３５号,,14,107,2350004,,,,,,,2025-02-12,1,,,,,インセクション,0
76,1020003027673,新規,0,2025-02-12,2025-02-12,合同会社ＭＫＴ会計,,合同会社,神奈川県,横浜市泉区,和泉中央北１丁目１５番３２号,,14,116,2450024,,,,,,,2025-02-12,1,,,,,エムケイティカイケイ,0
77,1020003027748,新規,0,2025-02-12,2025-02-12,ＷｉｎＷｉｎ合同会社,,合同会社,神奈川県,横浜市緑区,長津田町３０１６番地１南長津田団地４２５,,14,113,2260026,,,,,,,2025-02-12,1,,,,,ウィンウィン,0
78,1020003027772,新規,0,2025-02-12,2025-02-12,ｔｈｒｅｅ　ｏｎｅ合同会社,,合同会社,神奈川県,横浜市中区,寿町１丁目３－１３グランシエル横濱公園７Ｆ,,14,104,2310026,,,,,,,2025-02-12,1,,,,,スリーワン,0
79,1020003027806,新規,0,2025-02-12,2025-02-12,ＮＯＣＡＰ合同会社,,合同会社,神奈川県,川崎市多摩区,生田１丁目３番２５－１号,,14,135,2140038,,,,,,,2025-02-12,1,,,,,ノーキャップ,0
80,1020003027855,新規,0,2025-02-12,2025-02-12,合同会社モノクローム,,合同会社,神奈川県,横浜市神奈川区,金港町５－１４クアドリフォリオ８階,,14,102,2210056,,,,,,,2025-02-12,1,,,,,モノクローム,0
85,1021001084459,新規,0,2025-02-12,2025-02-12,ＰＡＮＪＡＢ　ＩＮＴＥＲＮＡＴＩＯＮＡＬ株式会社,,株式会社,神奈川県,相模原市中央区,富士見２丁目１０番１８号フレンドポート矢部第二４０２号室,,14,152,2520236,,,,,,,2025-02-12,1,,,,,パンジャブインターナショナル,0
87,1021005013273,新規,0,2025-02-12,2025-02-12,一般社団法人フェムクレール,,その他の設立登記法人,神奈川県,相模原市南区,文京２丁目２５番６号,,14,153,2520307,,,,,,,2025-02-12,1,,,,,フェムクレール,0
105,1040001137316,新規,0,2025-02-12,2025-02-12,株式会社スギウランド,,株式会社,千葉県,鴨川市,仲町１０４９番地１,,12,223,2992851,,,,,,,2025-02-12,1,,,,,スギウランド,0
110,1040003026839,新規,0,2025-02-12,2025-02-12,合同会社ＴＫＤ　Ｉｎｔｅｒｎａｔｉｏｎａｌ,,合同会社,千葉県,印西市,武西学園台１丁目３番地１ー８１３号,,12,231,2701355,,,,,,,2025-02-12,1,,,,,ティーケーディーインターナショナル,0
124,1080001026754,新規,0,2025-02-12,2025-02-12,杉本工業株式会社,,株式会社,静岡県,静岡市清水区,七ツ新屋１丁目１４番３３号,,22,103,4240066,,,,,,,2025-02-12,1,,,,,スギモトコウギョウ,0
127,1080003003388,新規,0,2025-02-12,2025-02-12,合同会社光彩,,合同会社,静岡県,静岡市駿河区,南町二丁目１４番地４０１号室,,22,102,4228067,,,,,,,2025-02-12,1,,,,,コウサイ,0
132,1110003005661,新規,0,2025-02-12,2025-02-12,つながるさいとう合同会社,,合同会社,新潟県,南魚沼郡湯沢町,大字土樽字下中子１７５番地１ホワイトプラザ湯沢７１４,00137956,15,461,9496103,,,,,,,2025-02-12,1,,,,,ツナガルサイトウ,0
141,1120001272798,新規,0,2025-02-12,2025-02-12,門真工業株式会社,,株式会社,大阪府,門真市,寿町２０－２６川島第１９ビル２０２号室,,27,223,5710032,,,,,,,2025-02-12,1,,,,,カドマコウギョウ,0
142,1120001272823,新規,0,2025-02-12,2025-02-12,株式会社Ｖｉｖｉｎｇ,,株式会社,大阪府,大阪市東淀川区,淡路５丁目９番２号,,27,114,5330032,,,,,,,2025-02-12,1,,,,,ヴィヴィング,0
144,1120003028595,新規,0,2025-02-12,2025-02-12,合同会社Ｊａｍｇｒａｐｈ,,合同会社,大阪府,大阪市北区,梅田１丁目１－３大阪駅前第３ビル２９階１－１－１号室,,27,127,5300001,,,,,,,2025-02-12,1,,,,,ジャムグラフ,0
148,1120901050428,新規,0,2025-02-12,2025-02-12,株式会社オネスティー,,株式会社,大阪府,高槻市,高槻町１６番４号,,27,207,5690803,,,,,,,2025-02-12,1,,,,,オネスティー,0
151,1122001038881,新規,0,2025-02-12,2025-02-12,株式会社ＫＩＮ．Ｄ．ＴＥＣＨＮＯ,,株式会社,大阪府,八尾市,久宝寺２丁目１番９号,,27,212,5810072,,,,,,,2025-02-12,1,,,,,カインドテクノ,0
158,1140001137330,新規,0,2025-02-12,2025-02-12,ＧＬＩＯＮ‐ＭＣホールディングス株式会社,,株式会社,兵庫県,神戸市中央区,新港町１１番１号,,28,110,6500041,,,,,,,2025-02-12,1,,,,,ジーライオンエムシーホールディングス,0
159,1140001137371,新規,0,2025-02-12,2025-02-12,ＯＰＥＮ株式会社,,株式会社,兵庫県,姫路市,南車崎２丁目１番１２号エバーグリーン車崎６０３号,,28,201,6700053,,,,,,,2025-02-12,1,,,,,オープン,0
163,1140003021631,新規,0,2025-02-12,2025-02-12,合同会社くろーばー,,合同会社,兵庫県,西脇市,黒田庄町津万井１４２番地の３,,28,213,6790315,,,,,,,2025-02-12,1,,,,,クローバー,0
169,1160003003396,新規,0,2025-02-12,2025-02-12,合同会社ｆｅｌｉｃｉｔａ,,合同会社,滋賀県,草津市,野路町１２１９－３エスリード南草津グランプレイス６０１,,25,206,5250055,,,,,,,2025-02-12,1,,,,,フェリチタ,0
180,1190001031990,新規,0,2025-02-12,2025-02-12,山城株式会社,,株式会社,三重県,亀山市,羽若町８２４番地１４,,24,210,5190164,,,,,,,2025-02-12,1,,,,,ヤマシロ,0
181,1190003004937,新規,0,2025-02-12,2025-02-12,ＢＩＮ合同会社,,合同会社,三重県,伊賀市,久米町２５番地２３,,24,216,5180843,,,,,,,2025-02-12,1,,,,,ビン,0
182,1200003006691,新規,0,2025-02-12,2025-02-12,合同会社オフィスコモリ,,合同会社,岐阜県,山県市,岩佐１４６３番地５,,21,215,5012259,,,,,,,2025-02-12,1,,,,,オフィスコモリ,0
183,1210001020058,新規,0,2025-02-12,2025-02-12,どーだ株式会社,,株式会社,福井県,福井市,西開発１丁目２３１０番ＣＡＳＴビル３Ｆ,,18,201,9100843,,,,,,,2025-02-12,1,,,,,ドーダ,0
184,1220003003951,新規,0,2025-02-12,2025-02-12,合同会社ＰｈｏｔｏＳａｌｏｎ　ＬＵＭＩＮＡ,,合同会社,石川県,金沢市,鳴和町タ２７９番地,,17,201,9200814,,,,,,,2025-02-12,1,,,,,フォトサロンルミナ,0
186,1230001011170,新規,0,2025-02-12,2025-02-12,株式会社蝋半,00137868,株式会社,富山県,高岡市,白金町５番２１号,,16,202,9330022,,,,,,,2025-02-12,1,,,,,ロウハン,0
188,1240001064515,新規,0,2025-02-12,2025-02-12,ＭＳＫ株式会社,,株式会社,広島県,広島市東区,牛田早稲田１丁目２２番１３号,,34,102,7320062,,,,,,,2025-02-12,1,,,,,エムエスケイ,0
190,1250003003651,新規,0,2025-02-12,2025-02-12,合同会社寄与,,合同会社,山口県,下関市,豊田町大字中村３６９番地１,,35,201,7500441,,,,,,,2025-02-12,1,,,,,キヨ,0
192,1270001009145,新規,0,2025-02-12,2025-02-12,株式会社Ｃｕｏｒｅ,,株式会社,鳥取県,鳥取市,千代水３丁目８０番地,,31,201,6800911,,,,,,,2025-02-12,1,,,,,クオーレ,0
200,1290001108903,新規,0,2025-02-12,2025-02-12,＿峰株式会社,00137965,株式会社,福岡県,福岡市博多区,博多駅中央街５番１１号,,40,132,8120012,,,,,,,2025-02-12,1,,,,,キンホウ,0
201,1290001108911,新規,0,2025-02-12,2025-02-12,株式会社ＬＩＦＥＬＥＸ,,株式会社,福岡県,福岡市中央区,大名２丁目９番１７号,,40,133,8100041,,,,,,,2025-02-12,1,,,,,ライフレックス,0
202,1290001108928,新規,0,2025-02-12,2025-02-12,株式会社ＤＥＮＣＹＵ,,株式会社,福岡県,福岡市博多区,博多駅前１丁目２３番２号ＰａｒｋＦｒｏｎｔ博多駅前１丁目５Ｆ‐Ｂ,,40,132,8120011,,,,,,,2025-02-12,1,,,,,デンチュー,0
203,1290001108936,新規,0,2025-02-12,2025-02-12,ケアロボテックジャパン株式会社,,株式会社,福岡県,大川市,大字上白垣２９９番地,,40,212,8310012,,,,,,,2025-02-12,1,,,,,ケアロボテックジャパン,0
205,1290003016410,新規,0,2025-02-12,2025-02-12,合同会社ベレーナ,,合同会社,福岡県,福岡市早良区,飯倉４丁目１－２５－２０２,,40,137,8140161,,,,,,,2025-02-12,1,,,,,ベレーナ,0
206,1290801031263,新規,0,2025-02-12,2025-02-12,株式会社ＳＴＡＲＴＥＮＤ,,株式会社,福岡県,中間市,中間３丁目３番１号,,40,215,8090034,,,,,,,2025-02-12,1,,,,,スターテンド,0
208,1320003004576,新規,0,2025-02-12,2025-02-12,アジア商会合同会社,,合同会社,大分県,豊後高田市,玉津１４６９番地,,44,209,8790606,,,,,,,2025-02-12,1,,,,,アジアショウカイ,0
213,1360003014679,新規,0,2025-02-12,2025-02-12,金城設備工業合同会社,,合同会社,沖縄県,那覇市,牧志２丁目１７番２７－４０１号,,47,201,9000013,,,,,,,2025-02-12,1,,,,,キンジョウセツビコウギョウ,0
215,1370001052218,新規,0,2025-02-12,2025-02-12,株式会社ツースリー,,株式会社,宮城県,名取市,手倉田字八幡２７８番地ＢＥＲＥＯＧＲＡＮＳＥＮＮＡ２０１号,,04,207,9811231,,,,,,,2025-02-12,1,,,,,ツースリー,0
219,1420003003064,新規,0,2025-02-12,2025-02-12,合同会社マダムシック,,合同会社,青森県,弘前市,大字鍛冶町６－４ホワイトヘブンビル１０４,,02,202,0368192,,,,,,,2025-02-12,1,,,,,マダムシック,0
223,1430001093651,新規,0,2025-02-12,2025-02-12,北海道敷島ファーム株式会社,,株式会社,北海道,白老郡白老町,字白老７８２番地３,,01,578,0590900,,,,,,,2025-02-12,1,,,,,ホッカイドウシキシマファーム,0
224,1430001093668,新規,0,2025-02-12,2025-02-12,ｅ‐ｐｒｏｍ株式会社,,株式会社,北海道,札幌市北区,あいの里三条２丁目５番１４号,,01,102,0028073,,,,,,,2025-02-12,1,,,,,イープロム,0
225,1430003017278,新規,0,2025-02-12,2025-02-12,合同会社ｅｓ,,合同会社,北海道,札幌市中央区,大通西２０丁目２番１８号,,01,101,0640820,,,,,,,2025-02-12,1,,,,,エス,0
226,1450001014531,新規,0,2025-02-12,2025-02-12,Ｈｉｇｈ　Ｔｏｕｃｈ　Ｃｌｅａｎｉｎｇ株式会社,,株式会社,北海道,富良野市,扇町６番１９号,,01,229,0760008,,,,,,,2025-02-12,1,,,,,ハイタッチクリーニング,0
228,1450003002600,新規,0,2025-02-12,2025-02-12,Ｑｕｏｃ　Ａｎｋ合同会社,,合同会社,北海道,旭川市,忠和七条７丁目３番８,,01,204,0708047,,,,,,,2025-02-12,1,,,,,クオークアン,0
234,1700150129138,新規,0,2025-02-12,2025-02-07,津山市子どもまつり実行委員会,,その他,岡山県,津山市,山北５２０,,33,203,7080004,,,,,,,2025-02-07,1,,,,,ツヤマシコドモマツリジツコウイインカイ,0
235,1700150129170,新規,0,2025-02-12,2025-02-12,Ｓｈｅｎｚｈｅｎｓｈｉｗａｎｄｅｃｈｕａｎｇｋｅｋｅｊｉｙｏｕｘｉａｎｇｏｎｇｓｉ,,外国会社等,,,,,,,,Ｒｏｏｍ　３２Ｂ－１０３，ＧｕｉｆａｎｇＹｕａｎ　８ＱｉＢｕｊｉ　Ｓｔｒｅｅｔ，Ｌｏｎｇｇａｎｇ　Ｄｉｓｔｒｉｃｔ，Ｓｈｅｎｚｈｅｎ，Ｃｈｉｎａ,,,,,,2025-02-12,1,,,,,シェンジェンシーワンダーチュワンコーコージーヨウシエンゴンスー,0
239,2010001252059,新規,0,2025-02-12,2025-02-12,ＢＩＧ　ＤＵＯ株式会社,,株式会社,東京都,千代田区,神田佐久間町３丁目２８星野ビル４Ｆ３０号室,,13,101,1010025,,,,,,,2025-02-12,1,,,,,ビッグデュオ,0
240,2010001252158,新規,0,2025-02-12,2025-02-12,株式会社ＳＰＥＱＴＲＡ　Ｉｎｖｅｓｔｍｅｎｔ　Ｒｅｓｅａｒｃｈ,,株式会社,東京都,中央区,日本橋茅場町１丁目８番１号,,13,102,1030025,,,,,,,2025-02-12,1,,,,,スペクトラインベストメントリサーチ,0
241,2010001252166,新規,0,2025-02-12,2025-02-12,ロハスコミュニティ株式会社,,株式会社,東京都,千代田区,東神田２丁目４－１２ＫＶＴビル２－７階,,13,101,1010031,,,,,,,2025-02-12,1,,,,,ロハスコミュニティ,0
242,2010001252174,新規,0,2025-02-12,2025-02-12,株式会社ブレソワ,,株式会社,東京都,中央区,築地６丁目５番３号,,13,102,1040045,,,,,,,2025-02-12,1,,,,,ブレソワ,0
246,2010003046203,新規,0,2025-02-12,2025-02-12,カメリアプロダクト合同会社,,合同会社,東京都,中央区,銀座１丁目１２－４Ｎ＆ＥＢＬＤ．７階,,13,102,1040061,,,,,,,2025-02-12,1,,,,,カメリアプロダクト,0
247,2010003046368,新規,0,2025-02-12,2025-02-12,合同会社Ｃｏｎｓｅｎｔｅ,,合同会社,東京都,中央区,銀座１丁目１２番４号Ｎ＆ＥＢＬＤ．６Ｆ,,13,102,1040061,,,,,,,2025-02-12,1,,,,,コンセンテ,0
248,2010003046376,新規,0,2025-02-12,2025-02-12,昭島商業開発合同会社,,合同会社,東京都,千代田区,丸の内１丁目４番１号東京共同会計事務所内,,13,101,1000005,,,,,,,2025-02-12,1,,,,,アキシマショウギョウカイハツ,0
259,2010401188084,新規,0,2025-02-12,2025-02-12,株式会社Ｋｉｔａｉｃｈｉ,,株式会社,東京都,港区,新橋４丁目１４番１新橋ＡＵＮＢＬＤＧ４階,,13,103,1050004,,,,,,,2025-02-12,1,,,,,キタイチ,0
260,2010401188142,新規,0,2025-02-12,2025-02-12,株式会社Ｚ　ＦＯＲＣＥ,,株式会社,東京都,港区,新橋１丁目１２番９号新橋プレイス８０７,,13,103,1050004,,,,,,,2025-02-12,1,,,,,ゼットフォース,0
261,2010401188150,新規,0,2025-02-12,2025-02-12,オーブ株式会社,,株式会社,東京都,港区,西麻布１丁目１１番１０号高橋ビル３Ｆ,,13,103,1060031,,,,,,,2025-02-12,1,,,,,オーブ,0
262,2010401188183,新規,0,2025-02-12,2025-02-12,Ｒｅｂｅｌｌｉｏｎｓ　Ｊａｐａｎ株式会社,,株式会社,東京都,港区,虎ノ門１丁目１７番１号虎ノ門ヒルズビジネスタワー１５階,,13,103,1050001,,,,,,,2025-02-12,1,,,,,リベリオンジャパン,0
263,2010401188241,新規,0,2025-02-12,2025-02-12,オペーク株式会社,,株式会社,東京都,港区,北青山１丁目３番１号アールキューブ青山３階,,13,103,1070061,,,,,,,2025-02-12,1,,,,,オペーク,0
266,2010403034360,新規,0,2025-02-12,2025-02-12,ルーポロ合同会社,,合同会社,東京都,港区,北青山１丁目３番１号アールキューブ青山３階,,13,103,1070061,,,,,,,2025-02-12,1,,,,,ルーポロ,0
267,2010403034369,新規,0,2025-02-12,2025-02-12,合同会社とりこ,,合同会社,東京都,港区,西麻布４丁目１１番３０号西麻布リカム５ビル地下１階,,13,103,1060031,,,,,,,2025-02-12,1,,,,,トリコ,0
268,2010403034385,新規,0,2025-02-12,2025-02-12,ＷｈｉｔｅＣａｌｍ合同会社,,合同会社,東京都,港区,芝浦２丁目４番６号,,13,103,1080023,,,,,,,2025-02-12,1,,,,,ホワイトカーム,0
269,2010405024095,新規,0,2025-02-12,2025-02-12,一般社団法人エヌエイチ・ジェイエスエフ,,その他の設立登記法人,東京都,港区,虎ノ門３丁目２２番１０－２０１号,,13,103,1050001,,,,,,,2025-02-12,1,,,,,エヌエイチジェイエスエフ,0
273,2010601066718,新規,0,2025-02-12,2025-02-12,大和建託株式会社,,株式会社,東京都,江東区,亀戸３丁目６２番１０号ＳＡＮビル４０７,,13,108,1360071,,,,,,,2025-02-12,1,,,,,ダイワケンタク,0
274,2010601066767,新規,0,2025-02-12,2025-02-12,株式会社ＲＩＳＨ,,株式会社,東京都,江東区,東雲２丁目３番１５－２１２号,,13,108,1350062,,,,,,,2025-02-12,1,,,,,,0
275,2010603011382,新規,0,2025-02-12,2025-02-12,合同会社ＭＥＭ,,合同会社,東京都,江東区,塩浜１丁目４番３３－１５１０号,,13,108,1350043,,,,,,,2025-02-12,1,,,,,エムイーエム,0
280,2010901056798,新規,0,2025-02-12,2025-02-12,株式会社Ｌｏｖｉａｓ,,株式会社,東京都,世田谷区,駒沢５丁目２５番７号,,13,112,1540012,,,,,,,2025-02-12,1,,,,,ラビアス,0
282,2010903009705,新規,0,2025-02-12,2025-02-12,合同会社２ｂ,,合同会社,東京都,世田谷区,深沢１丁目３１－１７－１０２,,13,112,1580081,,,,,,,2025-02-12,1,,,,,トゥービー,0
293,2011001167528,新規,0,2025-02-12,2025-02-12,株式会社ＮＡＶＩＬＩＳ,,株式会社,東京都,渋谷区,神宮前１丁目１０－３４－５１０,,13,113,1500001,,,,,,,2025-02-12,1,,,,,ナヴィリス,0
294,2011001167552,新規,0,2025-02-12,2025-02-12,株式会社佐伯知亮事務所,,株式会社,東京都,渋谷区,神宮前６丁目２３番４号桑野ビル２階,,13,113,1500001,,,,,,,2025-02-12,1,,,,,サエキトモアキジムショ,0
295,2011001167585,新規,0,2025-02-12,2025-02-12,株式会社Ｇｌｏｒｙ　Ｓｕｐｐｏｒｔ,,株式会社,東京都,渋谷区,渋谷２丁目１９－１５宮益坂ビルディング６０９,,13,113,1500002,,,,,,,2025-02-12,1,,,,,グローリーサポート,0
296,2011001167602,新規,0,2025-02-12,2025-02-12,ＫＹＯＬＯＯＫ株式会社,,株式会社,東京都,渋谷区,神宮前６丁目２８番９号東武ビル６Ｆ,,13,113,1500001,,,,,,,2025-02-12,1,,,,,キョウルック,0
297,2011001167619,新規,0,2025-02-12,2025-02-12,エネポート株式会社,,株式会社,東京都,渋谷区,恵比寿南１丁目１９番１１－２０１号ＫｅｙａｋｉＴｅｒｒａｃｅ恵比寿南,,13,113,1500022,,,,,,,2025-02-12,1,,,,,エネポート,0
298,2011001167643,新規,0,2025-02-12,2025-02-12,株式会社Ｓｙｓｔｅｍｉｎａ,,株式会社,東京都,渋谷区,神宮前６丁目２３番４号桑野ビル２階,,13,113,1500001,,,,,,,2025-02-12,1,,,,,システミナ,0
299,2011001167684,新規,0,2025-02-12,2025-02-12,ＵＮＩ　Ｓｔｕｄｉｏ株式会社,,株式会社,東京都,渋谷区,東１丁目２７番１号,,13,113,1500011,,,,,,,2025-02-12,1,,,,,ユニスタジオ,0
300,2011001167718,新規,0,2025-02-12,2025-02-12,株式会社ＫＹＮ,,株式会社,東京都,渋谷区,桜丘町３番１号,,13,113,1500031,,,,,,,2025-02-12,1,,,,,ケーワイエヌ,0
301,2011001167726,新規,0,2025-02-12,2025-02-12,株式会社ｎｏｎ,,株式会社,東京都,渋谷区,神宮前６丁目２３番４号桑野ビル２階,,13,113,1500001,,,,,,,2025-02-12,1,,,,,ノン,0
302,2011001167775,新規,0,2025-02-12,2025-02-12,Ｓｐａｃｅ　Ｓｈｉｂａ株式会社,,株式会社,東京都,目黒区,青葉台３丁目１－１２,,13,110,1530042,,,,,,,2025-02-12,1,,,,,スペースシバ,0
303,2011003020908,新規,0,2025-02-12,2025-02-12,合同会社エコゼット,,合同会社,東京都,渋谷区,神南１丁目１１番４号ＦＰＧリンクス神南５階,,13,113,1500041,,,,,,,2025-02-12,1,,,,,エコゼット,0
304,2011003020932,新規,0,2025-02-12,2025-02-12,合同会社ＬＮＸ,,合同会社,東京都,渋谷区,道玄坂１丁目１０番８号渋谷道玄坂東急ビル２Ｆ－Ｃ,,13,113,1500043,,,,,,,2025-02-12,1,,,,,エルエヌエックス,0
305,2011003020940,新規,0,2025-02-12,2025-02-12,ＳＵＭＯ　ＣＯＮＳＵＬＴＩＮＧ合同会社,,合同会社,東京都,渋谷区,千駄ヶ谷１丁目２０番１８号,,13,113,1510051,,,,,,,2025-02-12,1,,,,,スモウコンサルティング,0
307,2011101110577,新規,0,2025-02-12,2025-02-12,株式会社Ｌｖ,,株式会社,東京都,新宿区,歌舞伎町２丁目４５番２号,,13,104,1600021,,,,,,,2025-02-12,1,,,,,レベル,0
308,2011101110610,新規,0,2025-02-12,2025-02-12,あしあと株式会社,,株式会社,東京都,新宿区,上落合２丁目１３番１０号ＮＴＫハイム１０３,,13,104,1610034,,,,,,,2025-02-12,1,,,,,アシアト,0
330,2013301053787,新規,0,2025-02-12,2025-02-12,Ｗａｔｅｒｃｌｏｖｅｒ株式会社,,株式会社,東京都,豊島区,東池袋１丁目１７番１１号パークハイツ池袋１１０５号,,13,116,1700013,,,,,,,2025-02-12,1,,,,,ウォータークローバー,0
337,2020001161218,新規,0,2025-02-12,2025-02-12,遊牧族株式会社,,株式会社,神奈川県,横浜市神奈川区,神大寺４丁目１４番２１号３ユナイト片倉アデリーナ１０３室,,14,102,2210801,,,,,,,2025-02-12,1,,,,,ユウボクゾク,0
338,2020001161242,新規,0,2025-02-12,2025-02-12,株式会社フラクタルウェイ,,株式会社,神奈川県,横浜市中区,桜木町１丁目１０１番地１クロスゲート７階,,14,104,2310062,,,,,,,2025-02-12,1,,,,,フラクタルウェイ,0
339,2020001161259,新規,0,2025-02-12,2025-02-12,株式会社ＣｏｎＴｈｒｉｖｅ,,株式会社,神奈川県,川崎市中原区,新丸子東２丁目９２５番地パルテンザ武蔵小杉５０８,,14,133,2110004,,,,,,,2025-02-12,1,,,,,コンスライブ,0
340,2020001161333,新規,0,2025-02-12,2025-02-12,株式会社ＭＬＣａＴ,,株式会社,神奈川県,横浜市神奈川区,神大寺１丁目７番１３号,,14,102,2210801,,,,,,,2025-02-12,1,,,,,エムエルキャット,0
341,2020001161366,新規,0,2025-02-12,2025-02-12,株式会社元銀行員,,株式会社,神奈川県,川崎市川崎区,富士見１丁目２―１―４２４,,14,131,2100011,,,,,,,2025-02-12,1,,,,,モトギンコウイン,0
344,2020003027730,新規,0,2025-02-12,2025-02-12,合同会社ＹＫｔｒａｄｉｎｇ,,合同会社,神奈川県,横浜市港北区,篠原町１５７６－３８,,14,109,2220026,,,,,,,2025-02-12,1,,,,,ワイケイトレーディング,0
345,2020003027739,新規,0,2025-02-12,2025-02-12,合同会社グリーンフェア,,合同会社,神奈川県,横浜市青葉区,荏子田３丁目１２－１７グリーンパレス１０１,,14,117,2250005,,,,,,,2025-02-12,1,,,,,グリーンフェア,0
346,2020003027755,新規,0,2025-02-12,2025-02-12,合同会社ｚｅｎｎｉｃｏ,,合同会社,神奈川県,川崎市高津区,坂戸３丁目１６番２１号ＰｏｐｐｙＧａｒｄｅｎＩ２０２,00137961,14,134,2130012,,,,,,,2025-02-12,1,,,,,ゼニコ,0
347,2020003027771,新規,0,2025-02-12,2025-02-12,合同会社ブラン,,合同会社,神奈川県,横浜市西区,北幸２丁目１０番４８号むつみビル３階,,14,103,2200004,,,,,,,2025-02-12,1,,,,,ブラン,0
348,2020003027788,新規,0,2025-02-12,2025-02-12,合同会社未来カタリスト,,合同会社,神奈川県,横浜市西区,浅間町１丁目４番３号ウィザードビル４０２,,14,103,2200072,,,,,,,2025-02-12,1,,,,,ミライカタリスト,0
356,2021001084433,新規,0,2025-02-12,2025-02-12,方晶株式会社,,株式会社,神奈川県,秦野市,南矢名２２２３番地の４東海ビル２０１Ｂ,,14,211,2570003,,,,,,,2025-02-12,1,,,,,ホウショウ,0
357,2021001084441,新規,0,2025-02-12,2025-02-12,株式会社さがみ総建,,株式会社,神奈川県,海老名市,東柏ケ谷３丁目１５番１１号,,14,215,2430401,,,,,,,2025-02-12,1,,,,,サガミソウケン,0
358,2021001084458,新規,0,2025-02-12,2025-02-12,株式会社ヨハクライフ,,株式会社,神奈川県,大和市,中央２丁目５番７号ＣＡＯビル２０１号,,14,213,2420021,,,,,,,2025-02-12,1,,,,,ヨハクライフ,0
360,2021003015568,新規,0,2025-02-12,2025-02-12,合同会社セイソー,,合同会社,神奈川県,逗子市,久木２丁目７番２６－２０２号,,14,208,2490001,,,,,,,2025-02-12,1,,,,,セイソー,0
361,2021005013272,新規,0,2025-02-12,2025-02-12,一般社団法人おはな,,その他の設立登記法人,神奈川県,厚木市,妻田北２丁目２４番１１号,,14,212,2430812,,,,,,,2025-02-12,1,,,,,オハナ,0
367,2030001164814,新規,0,2025-02-12,2025-02-12,株式会社ＦＯＲ　ＬＩＮＫ,,株式会社,埼玉県,春日部市,大場１６２３番地８,,11,214,3440021,,,,,,,2025-02-12,1,,,,,フォーリンク,0
372,2030003026095,新規,0,2025-02-12,2025-02-12,Ｋ＆Ｒ合同会社,,合同会社,埼玉県,さいたま市浦和区,神明２丁目１２－１３－１,,11,107,3300065,,,,,,,2025-02-12,1,,,,,ケンアンドレイコ,0
377,2040001137356,新規,0,2025-02-12,2025-02-12,株式会社健伸農場,,株式会社,千葉県,富里市,根木名５９１,,12,233,2860205,,,,,,,2025-02-12,1,,,,,ケンシンノウジョウ,0
380,2040003026838,新規,0,2025-02-12,2025-02-12,ＡＧＥ　Ｃｏｒｐｏｒａｔｉｏｎ合同会社,,合同会社,千葉県,野田市,岩名２丁目９－１４,,12,208,2780055,,,,,,,2025-02-12,1,,,,,エージーイーコーポレーション,0
396,2080001026753,新規,0,2025-02-12,2025-02-12,株式会社Ｓｏｓｉｏｕｓ,,株式会社,静岡県,島田市,横井３丁目２０番１７の２号,,22,209,4270024,,,,,,,2025-02-12,1,,,,,ソーシャス,0
397,2080003003387,新規,0,2025-02-12,2025-02-12,合同会社グリージョン,,合同会社,静岡県,静岡市駿河区,小鹿１丁目１２番３２－１１号,,22,102,4228021,,,,,,,2025-02-12,1,,,,,グリージョン,0
402,2110003005660,新規,0,2025-02-12,2025-02-12,合同会社ペピーノ,,合同会社,新潟県,五泉市,吉沢１丁目６番２３－１号,,15,218,9591824,,,,,,,2025-02-12,1,,,,,ペピーノ,0
408,2120001272731,新規,0,2025-02-12,2025-02-12,株式会社ＭａｒｓＬｉｎｋ,,株式会社,大阪府,大阪市北区,大深町６番３８号グラングリーン大阪北館ＪＡＭＢＡＳＥ６階ＪＡＭ－ＤＥＳＫ,,27,127,5300011,,,,,,,2025-02-12,1,,,,,マーズリンク,0
409,2120001272756,新規,0,2025-02-12,2025-02-12,軒古株式会社,,株式会社,大阪府,大阪市中央区,島之内２丁目２番２０号白扇ビル３０６号室,,27,128,5420082,,,,,,,2025-02-12,1,,,,,ケンコ,0
410,2120001272806,新規,0,2025-02-12,2025-02-12,ＦＲＡＭＥＷＯＲＫＳ株式会社,,株式会社,大阪府,大阪市西区,立売堀１丁目６－１３南本町天祥ビル２号館５０１号室,,27,106,5500012,,,,,,,2025-02-12,1,,,,,フレームワークス,0
411,2120001272822,新規,0,2025-02-12,2025-02-12,ＨＡＯＬＯＯ株式会社,,株式会社,大阪府,大阪市浪速区,下寺３丁目１番１４－２０５号,,27,111,5560001,,,,,,,2025-02-12,1,,,,,ホーロー,0
412,2120001272830,新規,0,2025-02-12,2025-02-12,株式会社ＧＴＴ,,株式会社,大阪府,大阪市西区,京町堀１丁目１４－３２生建ビル５Ｄ,,27,106,5500003,,,,,,,2025-02-12,1,,,,,ジーティティ,0
413,2120001272847,新規,0,2025-02-12,2025-02-12,タナカクレスト株式会社,,株式会社,大阪府,寝屋川市,新家２丁目７番１７号,,27,215,5720812,,,,,,,2025-02-12,1,,,,,タナカクレスト,0
418,2120101071050,新規,0,2025-02-12,2025-02-12,スリーベリー株式会社,,株式会社,大阪府,泉佐野市,羽倉崎４丁目１番５－３０１号,,27,213,5980046,,,,,,,2025-02-12,1,,,,,スリーベリー,0
419,2120101071059,新規,0,2025-02-12,2025-02-12,ｄｒｅａｍｉｉ株式会社,,株式会社,大阪府,松原市,天美東２丁目２１２－３０２,,27,217,5800032,,,,,,,2025-02-12,1,,,,,ドリーミー,0
424,2122001038880,新規,0,2025-02-12,2025-02-12,株式会社Ｔ’ｓアセットマネジメント,,株式会社,大阪府,柏原市,古町１丁目１１番５号,,27,221,5820008,,,,,,,2025-02-12,1,,,,,ティーズアセットマネジメント,0
451,2180001165319,新規,0,2025-02-12,2025-02-12,株式会社Ｕ‐ＣＡＲ　ＣＯＯＬ,,株式会社,愛知県,一宮市,木曽川町黒田八ノ通り５２番地,,23,203,4930001,,,,,,,2025-02-12,1,,,,,ユーカークール,0
452,2180001165401,新規,0,2025-02-12,2025-02-12,株式会社ＩＲＩＳ,,株式会社,愛知県,名古屋市東区,泉１丁目１１番２０号,,23,102,4610001,,,,,,,2025-02-12,1,,,,,アイリス,0
458,2180303006451,新規,0,2025-02-12,2025-02-12,合同会社ＲＴリペア,,合同会社,愛知県,豊川市,谷川町洞１３１番地,,23,207,4420807,,,,,,,2025-02-12,1,,,,,アールティーリペア,0
461,2200001043422,新規,0,2025-02-12,2025-02-12,株式会社ＹＵＭＩＴＡＩ,,株式会社,岐阜県,下呂市,湯之島２１３番地３,,21,220,5092207,,,,,,,2025-02-12,1,,,,,ユミタイ,0
465,2210001020057,新規,0,2025-02-12,2025-02-12,株式会社Ｃｏｃｏ　ｐｌｕｓ＆Ｃｏ．,,株式会社,福井県,福井市,馬垣町板垣境４１０レ・ジーナＩＩ１０１,00137970,18,201,9188111,,,,,,,2025-02-12,1,,,,,ココプラスアンドシーオー,0
476,2240001064506,新規,0,2025-02-12,2025-02-12,ＳＡＮＥＯ　ＰＲＯＤＵＣＴＳ株式会社,,株式会社,広島県,広島市佐伯区,薬師が丘４丁目９番１８号,,34,108,7315154,,,,,,,2025-02-12,1,,,,,サーネオプロダクツ,0
477,2240001064514,新規,0,2025-02-12,2025-02-12,株式会社サンエイサービス,,株式会社,広島県,広島市安佐南区,長束西１丁目３９－３－１１,,34,105,7310136,,,,,,,2025-02-12,1,,,,,サンエイサービス,0
478,2250001005756,新規,0,2025-02-12,2025-02-12,株式会社西菱,,株式会社,山口県,下関市,楠乃１丁目２０９９番１号,,35,201,7510804,,,,,,,2025-02-12,1,,,,,セイリョウ,0
479,2250003003650,新規,0,2025-02-12,2025-02-12,合同会社みつは,,合同会社,山口県,山口市,阿知須２９２０番地１－Ａ２０２,,35,203,7541277,,,,,,,2025-02-12,1,,,,,ミツハ,0
489,2290001108877,新規,0,2025-02-12,2025-02-12,株式会社アンセマム,,株式会社,福岡県,久留米市,野中町１３１６番地２２,,40,203,8390862,,,,,,,2025-02-12,1,,,,,アンセマム,0
490,2290001108919,新規,0,2025-02-12,2025-02-12,株式会社アイランドケアサービス,,株式会社,福岡県,福岡市西区,大字玄界島１番地２２,,40,135,8190205,,,,,,,2025-02-12,1,,,,,アイランドケアサービス,0
492,2290003016384,新規,0,2025-02-12,2025-02-12,ＷｏｏＰｌｕｓ合同会社,,合同会社,福岡県,福岡市東区,原田４丁目２５番１号,,40,131,8120063,,,,,,,2025-02-12,1,,,,,ウープラス,0
493,2290003016392,新規,0,2025-02-12,2025-02-12,合同会社晴耕雨讀,,合同会社,福岡県,福岡市博多区,寿町２丁目９番２３－７０７号,,40,132,8120884,,,,,,,2025-02-12,1,,,,,セイコウウドク,0
503,2330003010795,新規,0,2025-02-12,2025-02-12,合同会社琉善林業,,合同会社,熊本県,菊池郡菊陽町,大字津久礼５８７番地４,,43,404,8691101,,,,,,,2025-02-12,1,,,,,リュウゼンリンギョウ,0
507,2360003014686,新規,0,2025-02-12,2025-02-12,合同会社ＮＡＧＩ,,合同会社,沖縄県,南城市,玉城字百名１２９０番地１,,47,215,9010603,,,,,,,2025-02-12,1,,,,,ナギ,0
508,2370001052225,新規,0,2025-02-12,2025-02-12,Ｆ‐ＬＩＮＥ株式会社,,株式会社,宮城県,仙台市泉区,八乙女中央５丁目３番３８号,,04,105,9813135,,,,,,,2025-02-12,1,,,,,エフライン,0
509,2370001052233,新規,0,2025-02-12,2025-02-12,株式会社Ｂｅｃｋｌｅｙ,,株式会社,宮城県,仙台市青葉区,鷺ケ森２丁目１２番６号エアリーファインヒル１０２,,04,101,9810922,,,,,,,2025-02-12,1,,,,,ベックリー,0
517,2420001019012,新規,0,2025-02-12,2025-02-12,株式会社旬菜旬肴,,株式会社,青森県,むつ市,大曲１丁目１６番２５号,,02,208,0350042,,,,,,,2025-02-12,1,,,,,シュンサイシュンコウ,0
518,2430001093659,新規,0,2025-02-12,2025-02-12,ＨＯＲＩＩ株式会社,,株式会社,北海道,札幌市北区,篠路町拓北７番地３３３,,01,102,0028054,,,,,,,2025-02-12,1,,,,,ホリイ,0
519,2430003017269,新規,0,2025-02-12,2025-02-12,合同会社海堂亭,,合同会社,北海道,札幌市中央区,北一条西１０丁目１番地１１原田ビル５Ｆ,,01,101,0600001,,,,,,,2025-02-12,1,,,,,カイドウテイ,0
520,2430003017277,新規,0,2025-02-12,2025-02-12,合同会社ＢＥＩＤ,,合同会社,北海道,札幌市西区,西野十一条９丁目１３番１０号,,01,107,0630041,,,,,,,2025-02-12,1,,,,,ベイド,0
543,3010001252116,新規,0,2025-02-12,2025-02-12,ＡＱｉＤ株式会社,,株式会社,東京都,千代田区,神田須田町１丁目２５番,,13,101,1010041,,,,,,,2025-02-12,1,,,,,エイキュウアイディー,0
544,3010001252157,新規,0,2025-02-12,2025-02-12,金石株式会社,,株式会社,東京都,千代田区,内神田１丁目３番８号ステージ内神田ビル６階,,13,101,1010047,,,,,,,2025-02-12,1,,,,,キンセキ,0
545,3010001252165,新規,0,2025-02-12,2025-02-12,株式会社ＬＦＧ,,株式会社,東京都,千代田区,九段北１丁目１３番９号,,13,101,1020073,,,,,,,2025-02-12,1,,,,,エルエフジー,0
546,3010001252231,新規,0,2025-02-12,2025-02-12,株式会社枡々,,株式会社,東京都,中央区,勝どき６丁目５番６－９１１号,,13,102,1040054,,,,,,,2025-02-12,1,,,,,マスマス,0
549,3010003046219,新規,0,2025-02-12,2025-02-12,合同会社ＧＬＯＢＡＬ東京,,合同会社,東京都,中央区,佃１丁目１１－７－１９０２,,13,102,1040051,,,,,,,2025-02-12,1,,,,,グローバルトウキョウ,0
560,3010401188141,新規,0,2025-02-12,2025-02-12,株式会社ＰｉｃｏＬｕｍｉｎａ,,株式会社,東京都,港区,南青山３丁目１番３６号青山丸竹ビル６Ｆ,,13,103,1070062,,,,,,,2025-02-12,1,,,,,ピコルミナ,0
565,3010403034252,新規,0,2025-02-12,2025-02-12,合同会社ＯＴＳ,,合同会社,東京都,港区,南青山３丁目１番３６号青山丸竹ビル６Ｆ,,13,103,1070062,,,,,,,2025-02-12,1,,,,,オーティーエス,0
566,3010403034351,新規,0,2025-02-12,2025-02-12,合同会社Ｆａｓｔａｌ,,合同会社,東京都,港区,南青山３丁目１番３６号青山丸竹ビル６Ｆ,,13,103,1070062,,,,,,,2025-02-12,1,,,,,ファスタル,0
567,3010403034384,新規,0,2025-02-12,2025-02-12,Ａ５ＪＰ　Ｉｚｕ　Ｈｏｔｅｌ合同会社,,合同会社,東京都,港区,六本木１丁目６番１号泉ガーデンタワー１２階,,13,103,1060032,,,,,,,2025-02-12,1,,,,,エーファイブジェイピーイズホテル,0
568,3010405024078,新規,0,2025-02-12,2025-02-12,西久保一般社団法人,,その他の設立登記法人,東京都,港区,西新橋１丁目２２番５号６階,,13,103,1050003,,,,,,,2025-02-12,1,,,,,ニシクボ,0
569,3010501053583,新規,0,2025-02-12,2025-02-12,Ｃｏｚｙ　Ｓｐａｃｅ株式会社,,株式会社,東京都,台東区,根岸４丁目１６番６号１Ｆ,,13,106,1100003,,,,,,,2025-02-12,1,,,,,コージースペース,0
572,3010601066766,新規,0,2025-02-12,2025-02-12,オングレース株式会社,,株式会社,東京都,墨田区,江東橋４丁目２７番１４号楽天地ビル３階ＢＩＺｃｏｍｆｏｒｔ錦糸町,,13,107,1300022,,,,,,,2025-02-12,1,,,,,オングレース,0
574,3010803005282,新規,0,2025-02-12,2025-02-12,ＹＵＩ合同会社,,合同会社,東京都,大田区,田園調布５丁目４８番７号,,13,111,1450071,,,,,,,2025-02-12,1,,,,,ユイ,0
582,3011001167527,新規,0,2025-02-12,2025-02-12,株式会社カンゲンエージェント,,株式会社,東京都,渋谷区,道玄坂１丁目１０番８号渋谷道玄坂東急ビル２Ｆ－Ｃ,,13,113,1500043,,,,,,,2025-02-12,1,,,,,カンゲンエージェント,0
583,3011001167543,新規,0,2025-02-12,2025-02-12,株式会社ヴィフラビ,,株式会社,東京都,渋谷区,宇田川町３４番５号サイトービルＩＩＩ５階,00137955,13,113,1500042,,,,,,,2025-02-12,1,,,,,ヴィフラビ,0
584,3011001167618,新規,0,2025-02-12,2025-02-12,株式会社ＹＡＡＡＡＡＳ,,株式会社,東京都,渋谷区,神宮前３丁目５番１０号,,13,113,1500001,,,,,,,2025-02-12,1,,,,,ヤース,0
585,3011001167634,新規,0,2025-02-12,2025-02-12,株式会社ねこ飼いたい,,株式会社,東京都,渋谷区,千駄ヶ谷１丁目３番１９号,,13,113,1510051,,,,,,,2025-02-12,1,,,,,ネコカイタイカイ,0
586,3011001167709,新規,0,2025-02-12,2025-02-12,ＩＶＹ　ＦＡＳＨＩＯＮ　Ｊａｐａｎ株式会社,,株式会社,東京都,渋谷区,神宮前３丁目３３番１７号ガーデンテラス神宮前６０１,,13,113,1500001,,,,,,,2025-02-12,1,,,,,アイビーファッションジャパン,0
587,3011001167717,新規,0,2025-02-12,2025-02-12,株式会社ＡＴＥ,,株式会社,東京都,渋谷区,代官山町１番４号,,13,113,1500034,,,,,,,2025-02-12,1,,,,,エイト,0
588,3011001167725,新規,0,2025-02-12,2025-02-12,株式会社ＭＫＴ,,株式会社,東京都,渋谷区,渋谷２丁目１９番１５号宮益坂ビルディング６０９,,13,113,1500002,,,,,,,2025-02-12,1,,,,,エムケイティ,0
589,3011001167774,新規,0,2025-02-12,2025-02-12,株式会社ＭＧＲＩ,,株式会社,東京都,目黒区,目黒４丁目９番９号,,13,110,1530063,,,,,,,2025-02-12,1,,,,,エムジーアールアイ,0
591,3011003020907,新規,0,2025-02-12,2025-02-12,スリーハウス合同会社,,合同会社,東京都,渋谷区,道玄坂２丁目１９－１丸八ビル１階,,13,113,1500043,,,,,,,2025-02-12,1,,,,,スリーハウス,0
592,3011003020915,新規,0,2025-02-12,2025-02-12,合同会社Ｂｌａｃｋ　Ｏｃｅａｎ,,合同会社,東京都,渋谷区,恵比寿西１丁目１６番１６号エースビル３階,,13,113,1500021,,,,,,,2025-02-12,1,,,,,ブラックオーシャン,0
598,3011201026111,新規,0,2025-02-12,2025-02-12,株式会社ワンストップ,,株式会社,東京都,中野区,南台２丁目１７番１０号１階,,13,114,1640014,,,,,,,2025-02-12,1,,,,,ワンストップ,0
605,3011501031694,新規,0,2025-02-12,2025-02-12,ｆｒａｍｏ株式会社,,株式会社,東京都,荒川区,荒川８丁目２０－５－１０４,,13,118,1160002,,,,,,,2025-02-12,1,,,,,フラモ,0
606,3011503006422,新規,0,2025-02-12,2025-02-12,合同会社ｂａｒｂａｄｏｓ,,合同会社,東京都,荒川区,荒川３丁目６６－７,,13,118,1160002,,,,,,,2025-02-12,1,,,,,バルバドス,0
608,3011801045626,新規,0,2025-02-12,2025-02-12,株式会社はれやか商会,,株式会社,東京都,足立区,花畑３丁目４０番１９号サンライズコーポ３０１,,13,121,1210061,,,,,,,2025-02-12,1,,,,,ハレヤカショウカイ,0
610,3012403006966,新規,0,2025-02-12,2025-02-12,池田方宣合同会社,,合同会社,東京都,三鷹市,井の頭３丁目３２番１０号リュミエール井の頭公園２０３,,13,204,1810001,,,,,,,2025-02-12,1,,,,,イケダマサノブ,0
614,3012705002449,新規,0,2025-02-12,2025-02-12,一般社団法人チアフル倶楽部,,その他の設立登記法人,東京都,西東京市,東伏見２丁目４番４号,,13,229,2020021,,,,,,,2025-02-12,1,,,,,チアフルクラブ,0
621,3020001161217,新規,0,2025-02-12,2025-02-12,長月株式会社,,株式会社,神奈川県,横浜市神奈川区,羽沢町１２０２－１０８,,14,102,2210863,,,,,,,2025-02-12,1,,,,,ナガツキ,0
622,3020001161290,新規,0,2025-02-12,2025-02-12,原悟株式会社,,株式会社,神奈川県,川崎市川崎区,下並木６８番地１０川崎西ダイカンプラザ１０１,,14,131,2100025,,,,,,,2025-02-12,1,,,,,ゲンゴ,0
623,3020001161316,新規,0,2025-02-12,2025-02-12,グローバルプロキュアメントパートナーズ株式会社,,株式会社,神奈川県,横浜市港北区,新横浜３丁目２番地３,,14,109,2220033,,,,,,,2025-02-12,1,,,,,グローバルプロキュアメントパートナーズ,0
627,3020003027770,新規,0,2025-02-12,2025-02-12,合同会社ＫＯＫＩＣＩＫ,,合同会社,神奈川県,横浜市中区,麦田町１丁目２番地コローレ石川町４０２,,14,104,2310849,,,,,,,2025-02-12,1,,,,,コーキチック,0
628,3020003027779,新規,0,2025-02-12,2025-02-12,Ｍ‐ｓｈｉｎｅｅ合同会社,,合同会社,神奈川県,横浜市戸塚区,上矢部町１７８４番地１,,14,110,2450053,,,,,,,2025-02-12,1,,,,,エムシャイニー,0
629,3020003027804,新規,0,2025-02-12,2025-02-12,ＥＶＥＲ‐ＧＲＥＥＮ合同会社,,合同会社,神奈川県,川崎市川崎区,大島１丁目２３－１２－２,,14,131,2100834,,,,,,,2025-02-12,1,,,,,エバーグリーン,0
630,3020003027812,新規,0,2025-02-12,2025-02-12,合同会社わんわん,,合同会社,神奈川県,横浜市南区,大岡５丁目６番８号ガーデンロッジ１０２,,14,105,2320061,,,,,,,2025-02-12,1,,,,,ワンワン,0
631,3020003027829,新規,0,2025-02-12,2025-02-12,合同会社Ｎｅｘｕｓ,,合同会社,神奈川県,川崎市高津区,二子６丁目４－２４,,14,134,2130002,,,,,,,2025-02-12,1,,,,,ネクサス,0
633,3021001084358,新規,0,2025-02-12,2025-02-12,株式会社ベルブリエ,,株式会社,神奈川県,藤沢市,川名１８１番地の１７ヴェレーナグラン湘南藤沢３０４号室,,14,205,2510015,,,,,,,2025-02-12,1,,,,,ベルブリエ,0
634,3021001084432,新規,0,2025-02-12,2025-02-12,双京株式会社,,株式会社,神奈川県,秦野市,南矢名２２２３番地の４東海ビル２０１Ａ,,14,211,2570003,,,,,,,2025-02-12,1,,,,,ソウキョウ,0
635,3021001084449,新規,0,2025-02-12,2025-02-12,株式会社ＴＫＣ,,株式会社,神奈川県,海老名市,本郷３４３９番地の２０,,14,215,2430417,,,,,,,2025-02-12,1,,,,,ティーケーシー,0
652,3030003026020,新規,0,2025-02-12,2025-02-12,第３ヤマト合同会社,,合同会社,埼玉県,加須市,志多見５２５番地２,,11,210,3470042,,,,,,,2025-02-12,1,,,,,ダイサンヤマト,0
659,3040001137347,新規,0,2025-02-12,2025-02-12,株式会社Ｖｉｒｔｕｏｕｓ　Ｇｌｏｗ　Ｃｏｒｐｏｒａｔｉｏｎ,,株式会社,千葉県,船橋市,本町６丁目３－１０レジデンス船橋６０３号室,,12,204,2730005,,,,,,,2025-02-12,1,,,,,バーチャスグロウコーポレーション,0
663,3040003026845,新規,0,2025-02-12,2025-02-12,合同会社俊工業,,合同会社,千葉県,八千代市,大和田新田３５１番地６,,12,221,2760046,,,,,,,2025-02-12,1,,,,,トシコウギョウ,0
667,3040005022660,新規,0,2025-02-12,2025-02-12,医療法人社団ＮＣ,,その他の設立登記法人,千葉県,市川市,八幡２丁目４番１氏家ビル３階,,12,203,2720021,,,,,,,2025-02-12,1,,,,,エヌシー,0
670,3050001056166,新規,0,2025-02-12,2025-02-12,株式会社フェイステック,,株式会社,茨城県,水戸市,河和田１丁目１５１３－２３メゾンかわだ１０２,,08,201,3114152,,,,,,,2025-02-12,1,,,,,フェイステック,0
671,3050003009015,新規,0,2025-02-12,2025-02-12,合同会社ＥＩＧＨＴ,,合同会社,茨城県,猿島郡境町,２２８８－６,,08,546,3060433,,,,,,,2025-02-12,1,,,,,,0
672,3070001042602,新規,0,2025-02-12,2025-02-12,Ｎ’ＳＦＡＲＭ株式会社,,株式会社,群馬県,前橋市,大友町３丁目１２番地５,,10,201,3710847,,,,,,,2025-02-12,1,,,,,エヌズファーム,0
673,3080003003386,新規,0,2025-02-12,2025-02-12,ＲａｉｎｙＤｏｌｌＧａｍｅｓ合同会社,,合同会社,静岡県,焼津市,塩津１３５－３,,22,212,4250085,,,,,,,2025-02-12,1,,,,,レイニードールゲームズ,0
676,3090001019128,新規,0,2025-02-12,2025-02-12,株式会社ＫＵＧＵＩ　ＲＥＳＯＲＴ,,株式会社,山梨県,南都留郡山中湖村,山中２２４,,19,425,4010501,,,,,,,2025-02-12,1,,,,,クグイリゾート,0
688,3120001272805,新規,0,2025-02-12,2025-02-12,楽海株式会社,,株式会社,大阪府,大阪市東住吉区,矢田１丁目２６番７－２０３号,,27,121,5460023,,,,,,,2025-02-12,1,,,,,ラクミ,0
689,3120001272813,新規,0,2025-02-12,2025-02-12,株式会社Ｖｅｒｍｉｌｌｉｏｎ,,株式会社,大阪府,大阪市西区,北堀江１丁目２３番１０号,,27,106,5500014,,,,,,,2025-02-12,1,,,,,ヴァーミリオン,0
690,3120001272854,新規,0,2025-02-12,2025-02-12,株式会社ＡＩＭ,,株式会社,大阪府,大阪市平野区,平野東１丁目４番２号ＫＩＮＧ’ＳＡＶＥＮＵＥ４０１,,27,126,5470043,,,,,,,2025-02-12,1,,,,,エイム,0
691,3120001272862,新規,0,2025-02-12,2025-02-12,株式会社大阪ストーク,,株式会社,大阪府,大阪市西区,江戸堀１丁目２３番１９号,,27,106,5500002,,,,,,,2025-02-12,1,,,,,オオサカストーク,0
693,3120005024789,新規,0,2025-02-12,2025-02-12,医療法人志清会,,その他の設立登記法人,大阪府,大阪市西淀川区,大和田４丁目８番２４号カサグランデ甚田１階,,27,113,5550032,,,,,,,2025-02-12,1,,,,,シセイカイ,0
696,3120103006276,新規,0,2025-02-12,2025-02-12,合同会社ｗａｌｋ　ｏｎ,,合同会社,大阪府,堺市東区,高松３１８番地９,,27,143,5998121,,,,,,,2025-02-12,1,,,,,ウォークオン,0
699,3120903005543,新規,0,2025-02-12,2025-02-12,合同会社ＴＡＫＥ２,,合同会社,大阪府,豊中市,寺内２丁目１４番１－２１４号,,27,203,5610872,,,,,,,2025-02-12,1,,,,,テイクツー,0
714,3140001137361,新規,0,2025-02-12,2025-02-12,株式会社ｅｆｆｏｒｔ,,株式会社,兵庫県,相生市,那波大浜町３番３１号Ｂ棟,,28,208,6780051,,,,,,,2025-02-12,1,,,,,エフォート,0
715,3140001137378,新規,0,2025-02-12,2025-02-12,株式会社夢咲屋,,株式会社,兵庫県,姫路市,夢前町杉之内１７４－２,,28,201,6712111,,,,,,,2025-02-12,1,,,,,ユメサキヤ,0
716,3140001137394,新規,0,2025-02-12,2025-02-12,エミオ株式会社,,株式会社,兵庫県,宝塚市,湯本町４番８号グランディアミ・アモーレ宝塚南口２０５号室,,28,214,6650003,,,,,,,2025-02-12,1,,,,,エミオ,0
722,3140003021654,新規,0,2025-02-12,2025-02-12,合同会社ＭＫ．Ｐｒｏｐｅｒｔｙ,,合同会社,兵庫県,神戸市中央区,磯辺通１丁目１番１８号カサベラ国際プラザビル７０７号室,,28,110,6510084,,,,,,,2025-02-12,1,,,,,エムケープロパティ,0
723,3170001018492,新規,0,2025-02-12,2025-02-12,株式会社クマキチホーム,,株式会社,和歌山県,和歌山市,田尻１０９番地１グランドハイツ田尻３１０号室,,30,201,6410005,,,,,,,2025-02-12,1,,,,,クマキチホーム,0
733,3180001165375,新規,0,2025-02-12,2025-02-12,株式会社鈴商,,株式会社,愛知県,日進市,岩崎町神明１４４番地２８,,23,230,4700131,,,,,,,2025-02-12,1,,,,,スズショウ,0
734,3180001165391,新規,0,2025-02-12,2025-02-12,株式会社ＣｈｏｃｏＣｏｏｋｉｅ,,株式会社,愛知県,名古屋市中川区,水里５丁目４５４番地,,23,110,4540963,,,,,,,2025-02-12,1,,,,,チョコクッキー,0
738,3180301039510,新規,0,2025-02-12,2025-02-12,株式会社エムワイネクサス,,株式会社,愛知県,岡崎市,宇頭町字出口２６番地７,,23,202,4440905,,,,,,,2025-02-12,1,,,,,エムワイネクサス,0
739,3190001031989,新規,0,2025-02-12,2025-02-12,株式会社三重ＷＡＬＫ,,株式会社,三重県,員弁郡東員町,大字鳥取２１６０番地２サウス蔵水２０２号室,,24,324,5110241,,,,,,,2025-02-12,1,,,,,ミエウォーク,0
741,3190003004935,新規,0,2025-02-12,2025-02-12,合同会社北椿,,合同会社,三重県,多気郡明和町,大字上村１３６３‐４,,24,442,5150322,,,,,,,2025-02-12,1,,,,,キタツバキ,0
747,3240001064505,新規,0,2025-02-12,2025-02-12,株式会社Ａｄｅｌａｎｔｅ,,株式会社,広島県,三原市,城町１丁目１１番１８号,,34,204,7230014,,,,,,,2025-02-12,1,,,,,アデランテ,0
748,3240001064513,新規,0,2025-02-12,2025-02-12,株式会社Ｋ‐ＴＥＣマリン,,株式会社,広島県,広島市南区,宇品海岸１丁目１２番２８－１０１１号,,34,103,7340011,,,,,,,2025-02-12,1,,,,,ケーテックマリン,0
753,3250001021001,新規,0,2025-02-12,2025-02-12,株式会社エクスファイブ,,株式会社,山口県,防府市,国衙５丁目１１番２２号２階,,35,206,7470024,,,,,,,2025-02-12,1,,,,,エクスファイブ,0
756,3260001039901,新規,0,2025-02-12,2025-02-12,上杉工務店株式会社,,株式会社,岡山県,新見市,上市５３０６番地,,33,210,7180005,,,,,,,2025-02-12,1,,,,,ウエスギコウムテン,0
762,3290001108843,新規,0,2025-02-12,2025-02-12,西日本外国語学院株式会社,,株式会社,福岡県,糸島市,高田１丁目８番２号,,40,230,8191102,,,,,,,2025-02-12,1,,,,,ニシニホンガイコクゴガクイン,0
763,3290001108901,新規,0,2025-02-12,2025-02-12,五醍エステート株式会社,,株式会社,福岡県,筑後市,大字久恵７５１番地,,40,211,8330011,,,,,,,2025-02-12,1,,,,,ゴダイエステート,0
764,3290001108918,新規,0,2025-02-12,2025-02-12,株式会社ボーズ,,株式会社,福岡県,福岡市中央区,警固２丁目２番２５－４０５号,,40,133,8100023,,,,,,,2025-02-12,1,,,,,ボーズ,0
768,3290003016391,新規,0,2025-02-12,2025-02-12,合同会社福与,,合同会社,福岡県,福岡市中央区,天神２丁目２番１２号,,40,133,8100001,,,,,,,2025-02-12,1,,,,,フクヨ,0
769,3290005019649,新規,0,2025-02-12,2025-02-12,医療法人一生会,,その他の設立登記法人,福岡県,飯塚市,楽市３０９番８,,40,205,8200074,,,,,,,2025-02-12,1,,,,,イッセイカイ,0
770,3290803004967,新規,0,2025-02-12,2025-02-12,合同会社Ｍ・Ｋ,,合同会社,福岡県,直方市,神正町２番１０号,,40,204,8220023,,,,,,,2025-02-12,1,,,,,エムケイ,0
772,3310001019443,新規,0,2025-02-12,2025-02-12,希隆株式会社,,株式会社,長崎県,東彼杵郡波佐見町,折敷瀬郷１７４２番地１２,,42,323,8593701,,,,,,,2025-02-12,1,,,,,キリュウ,0
773,3310003004939,新規,0,2025-02-12,2025-02-12,合同会社ＫＩ‐ＫＯ,,合同会社,長崎県,南島原市,西有家町須川２４４１,,42,214,8592212,,,,,,,2025-02-12,1,,,,,キーコ,0
774,3320001020937,新規,0,2025-02-12,2025-02-12,株式会社ＡＴＯＭファシリティーズ,,株式会社,大分県,別府市,石垣東４丁目１０３３番地,,44,202,8740919,,,,,,,2025-02-12,1,,,,,アトムファシリティーズ,0
784,3370001052216,新規,0,2025-02-12,2025-02-12,株式会社ｔｈｏｕｓａｎｄ　ｃａｐｉｔａｌ,,株式会社,宮城県,仙台市青葉区,台原３丁目２１番１－１０２号,,04,101,9810911,,,,,,,2025-02-12,1,,,,,サウザンドキャピタル,0
789,3410001014062,新規,0,2025-02-12,2025-02-12,株式会社Ａｇｒｉ　ＢＡＳＥ,,株式会社,秋田県,南秋田郡大潟村,字北２丁目４番地８６,,05,368,0100441,,,,,,,2025-02-12,1,,,,,アグリベース,0
790,3410003004045,新規,0,2025-02-12,2025-02-12,合同会社ＵＦＤ,,合同会社,秋田県,潟上市,天王字追分西３２番地１１６,,05,211,0100101,,,,,,,2025-02-12,1,,,,,ユーエフディー,0
793,3420001019011,新規,0,2025-02-12,2025-02-12,むつにぎわいクリエイト株式会社,,株式会社,青森県,むつ市,金谷１丁目９番２５号,,02,208,0350072,,,,,,,2025-02-12,1,,,,,ムツニギワイクリエイト,0
798,3430001093666,新規,0,2025-02-12,2025-02-12,株式会社エムクラフト,,株式会社,北海道,石狩市,新港西１丁目７０３番１０,,01,235,0613241,,,,,,,2025-02-12,1,,,,,エムクラフト,0
801,3430003017268,新規,0,2025-02-12,2025-02-12,合同会社ＦｒｉｅｄｅｎＨｏｍｅ,,合同会社,北海道,千歳市,豊里４丁目２番１３号,,01,224,0660022,,,,,,,2025-02-12,1,,,,,フリーデンホーム,0
802,3430003017276,新規,0,2025-02-12,2025-02-12,アシストｃｏｒｐｏｒａｔｉｏｎ合同会社,,合同会社,北海道,札幌市中央区,円山西町１丁目８番７号,,01,101,0640944,,,,,,,2025-02-12,1,,,,,アシストコーポレーション,0
805,3460105002306,新規,0,2025-02-12,2025-02-12,一般社団法人ばんえい十勝,,その他の設立登記法人,北海道,帯広市,西十三条南９丁目１番地,,01,207,0800023,,,,,,,2025-02-12,1,,,,,バンエイトカチ,0
808,3480001012737,新規,0,2025-02-12,2025-02-12,株式会社ガードプラス,,株式会社,徳島県,板野郡北島町,中村字外川也１３番地の１グランヴェールＡ棟１０２号室,,36,402,7710203,,,,,,,2025-02-12,1,,,,,ガードプラス,0
809,3490001010962,新規,0,2025-02-12,2025-02-12,株式会社山本興業,,株式会社,高知県,四万十市,中村丸の内４６番地１,,39,210,7870003,,,,,,,2025-02-12,1,,,,,ヤマモトコウギョウ,0
811,3490005006973,新規,0,2025-02-12,2025-02-12,特定非営利活動法人環境保全部たまき,,その他の設立登記法人,高知県,香南市,夜須町坪井４８６番地２,,39,211,7815601,,,,,,,2025-02-12,1,,,,,カンキョウホゼンブタマキ,0
813,3700150129169,新規,0,2025-02-12,2025-02-12,Ｓｈｅｎｚｈｅｎ　ＹｉｎｇＬａｉ　Ｔｅｃｈｎｏｌｏｇｙ　Ｃｏ．，Ｌｔｄ,,外国会社等,,,,,,,,Ｙｕｙｅ　Ｃｏｍｍｕｎｉｔｙ，Ｘｉｘｉａｎｇ　ＳｔｒｅｅｔＲｏｏｍ　２１０，ＨＵＡＦＥＮＧ　ＮＥＷ　ＥＮＥＲＧＹ　ＴＥＣＨＮＯＬＯＧＹ　ＢＵＩＬＤＩＮＧ　２ｎｄ　ＦＬＯＯＲＳＨＥＮＺＨＥＮＧＵＡＮＧＤＯＮＧ,,,,,,2025-02-12,1,,,,,シェンジェンシーインライコージーヨウシエンゴンスー,0
826,4010001252107,新規,0,2025-02-12,2025-02-12,グローバルファーマ株式会社,,株式会社,東京都,中央区,銀座１丁目１２番４号Ｎ＆Ｅ・ＢＬＤ．６Ｆ,,13,102,1040061,,,,,,,2025-02-12,1,,,,,グローバルファーマ,0
827,4010001252148,新規,0,2025-02-12,2025-02-12,里羽株式会社,,株式会社,東京都,中央区,湊２丁目１１番１－１３０８号,,13,102,1040043,,,,,,,2025-02-12,1,,,,,リウ,0
828,4010001252164,新規,0,2025-02-12,2025-02-12,株式会社仁美,,株式会社,東京都,千代田区,外神田２丁目１番８号スクエア秋葉原１１６号室,,13,101,1010021,,,,,,,2025-02-12,1,,,,,ヒトミ,0
831,4010003046374,新規,0,2025-02-12,2025-02-12,合同会社ＰＳ,,合同会社,東京都,千代田区,四番町２番地１,,13,101,1020081,,,,,,,2025-02-12,1,,,,,ピーエス,0
832,4010003046449,新規,0,2025-02-12,2025-02-12,東京オフィス５合同会社,,合同会社,東京都,千代田区,丸の内１丁目４番１号東京共同会計事務所内,,13,101,1000005,,,,,,,2025-02-12,1,,,,,トウキョウオフィスファイブ,0
833,4010005039574,新規,0,2025-02-12,2025-02-12,一般社団法人日神１１,,その他の設立登記法人,東京都,千代田区,霞が関３丁目２番５号,,13,101,1000013,,,,,,,2025-02-12,1,,,,,ニッシンイレブン,0
835,4010401188099,新規,0,2025-02-12,2025-02-12,ＩＭＳ株式会社,,株式会社,東京都,港区,赤坂３丁目１２－１倶会ビル２Ｆ,,13,103,1070052,,,,,,,2025-02-12,1,,,,,アイムス,0
836,4010401188181,新規,0,2025-02-12,2025-02-12,株式会社アジア不動産ビジネス研究所,,株式会社,東京都,港区,元赤坂１丁目１番７号,,13,103,1070051,,,,,,,2025-02-12,1,,,,,アジアフドウサンビジネスケンキュウショ,0
838,4010403034383,新規,0,2025-02-12,2025-02-12,ＬＪＤＣゴウダＲｕｂｙ合同会社,,合同会社,東京都,港区,六本木１丁目６番１号泉ガーデンタワー１２階,,13,103,1060032,,,,,,,2025-02-12,1,,,,,エルジェーディーシーゴウダルビー,0
839,4010405024077,新規,0,2025-02-12,2025-02-12,富岳一般社団法人,,その他の設立登記法人,東京都,港区,六本木１丁目６番１号泉ガーデンタワーＫＰＭＧ税理士法人内,,13,103,1060032,,,,,,,2025-02-12,1,,,,,フガク,0
840,4010405024085,新規,0,2025-02-12,2025-02-12,Ａ５ＪＰ　Ｉｚｕ　Ｈｏｔｅｌ一般社団法人,,その他の設立登記法人,東京都,港区,六本木１丁目６番１号泉ガーデンタワー１２階,,13,103,1060032,,,,,,,2025-02-12,1,,,,,エーファイブジェイピーイズホテル,0
842,4010501053590,新規,0,2025-02-12,2025-02-12,ＬＣ　Ｉｎｖｅｓｔｍｅｎｔｓ株式会社,,株式会社,東京都,台東区,浅草橋５丁目１－３１ロッキービル３０７号,,13,106,1110053,,,,,,,2025-02-12,1,,,,,エルシーインベストメンツ,0
843,4010501053599,新規,0,2025-02-12,2025-02-12,山輝商事株式会社,,株式会社,東京都,台東区,東上野３丁目１５番１４号丸山ビルＣ,,13,106,1100015,,,,,,,2025-02-12,1,,,,,ヤマキショウジ,0
844,4010501053632,新規,0,2025-02-12,2025-02-12,株式会社ＵＮＫＮＯＷＮ　ＰＲＯＤＵＣＴＳ,,株式会社,東京都,台東区,橋場１丁目２－１１光栄ハイツ２Ｆ,,13,106,1110023,,,,,,,2025-02-12,1,,,,,アンノウンプロダクツ,0
850,4010701047194,新規,0,2025-02-12,2025-02-12,Ｗｏｎｋａ株式会社,,株式会社,東京都,品川区,大崎３丁目６番１７号,,13,109,1410032,,,,,,,2025-02-12,1,,,,,ウォンカ,0
857,4010901056796,新規,0,2025-02-12,2025-02-12,株式会社ａｎｎｂｏｏ,,株式会社,東京都,世田谷区,等々力８丁目１４－１５－リムテラス等々力１０６,,13,112,1580082,,,,,,,2025-02-12,1,,,,,アンブー,0
861,4011001167617,新規,0,2025-02-12,2025-02-12,株式会社クラブスクレート,,株式会社,東京都,渋谷区,円山町２３番９－４１０号,,13,113,1500044,,,,,,,2025-02-12,1,,,,,クラブスクレート,0
862,4011001167633,新規,0,2025-02-12,2025-02-12,株式会社コエクロス,,株式会社,東京都,渋谷区,代々木５丁目６７番７号１Ｆ,,13,113,1510053,,,,,,,2025-02-12,1,,,,,コエクロス,0
863,4011001167749,新規,0,2025-02-12,2025-02-12,株式会社ＬＯＴＵＳ,,株式会社,東京都,渋谷区,恵比寿西１丁目１３番６号ブラッセムＺＥＮ３階,,13,113,1500021,,,,,,,2025-02-12,1,,,,,ロータス,0
864,4011003020914,新規,0,2025-02-12,2025-02-12,合同会社ＭＥＴＡｓｉｌｖｅｒｓｅ,,合同会社,東京都,渋谷区,道玄坂１丁目１０番８号渋谷道玄坂東急ビル２Ｆ－Ｃ,,13,113,1500043,,,,,,,2025-02-12,1,,,,,メタシルバース,0
865,4011005010855,新規,0,2025-02-12,2025-02-12,一般社団法人国際次世代再生医療研究会,,その他の設立登記法人,東京都,渋谷区,恵比寿１丁目７番１３号只見ビル７階,,13,113,1500013,,,,,,,2025-02-12,1,,,,,コクサイジセダイサイセイイリョウケンキュウカイ,0
868,4011103015500,新規,0,2025-02-12,2025-02-12,合同会社ＫＯＨＡＫＵ,,合同会社,東京都,新宿区,新宿１丁目１５－５カテリーナ新宿御苑駅前８０４,,13,104,1600022,,,,,,,2025-02-12,1,,,,,コハク,0
869,4011103015525,新規,0,2025-02-12,2025-02-12,合同会社Ｎ‐Ｃｏｎｎｅｃｔ１号,,合同会社,東京都,新宿区,西新宿８丁目５番１号,,13,104,1600023,,,,,,,2025-02-12,1,,,,,エヌコネクトイチゴウ,0
878,4012401042748,新規,0,2025-02-12,2025-02-12,株式会社坂本商会,,株式会社,東京都,稲城市,東長沼７２２番地の７,,13,225,2060802,,,,,,,2025-02-12,1,,,,,サカモトショウカイ,0
880,4012403006965,新規,0,2025-02-12,2025-02-12,合同会社マーガレット,,合同会社,東京都,武蔵野市,吉祥寺南町３丁目４５番９－２０２号,,13,203,1800003,,,,,,,2025-02-12,1,,,,,マーガレット,0
881,4012701018704,新規,0,2025-02-12,2025-02-12,株式会社データミネーションパートナーズ,,株式会社,東京都,西東京市,下保谷４丁目１－８ビルト川端２０１,,13,229,2020004,,,,,,,2025-02-12,1,,,,,データミネーションパートナーズ,0
887,4013301053760,新規,0,2025-02-12,2025-02-12,株式会社ルクスパーク,,株式会社,東京都,豊島区,池袋１丁目１６－１６－５０１,,13,116,1700014,,,,,,,2025-02-12,1,,,,,ルクスパーク,0
889,4020001161216,新規,0,2025-02-12,2025-02-12,ジョリオ株式会社,,株式会社,神奈川県,横浜市中区,桜木町１丁目１０１番地１クロスゲート７階,,14,104,2310062,,,,,,,2025-02-12,1,,,,,ジョリオ,0
890,4020001161364,新規,0,2025-02-12,2025-02-12,株式会社コレクト・ライト,,株式会社,神奈川県,横浜市金沢区,並木１丁目１１番３ー４０３号,,14,108,2360005,,,,,,,2025-02-12,1,,,,,コレクトライト,0
892,4020003027729,新規,0,2025-02-12,2025-02-12,合同会社ポント,,合同会社,神奈川県,川崎市中原区,新丸子東３丁目１３０１Ｇ２０１３,,14,133,2110004,,,,,,,2025-02-12,1,,,,,ポント,0
893,4020003027828,新規,0,2025-02-12,2025-02-12,合同会社サイコロテック,,合同会社,神奈川県,横浜市港南区,港南台３丁目１２－３０,,14,111,2340054,,,,,,,2025-02-12,1,,,,,サイコロテック,0
899,4021001084431,新規,0,2025-02-12,2025-02-12,日本菱康株式会社,,株式会社,神奈川県,秦野市,南矢名２２２３番地の４東海ビル２０６Ｂ,,14,211,2570003,,,,,,,2025-02-12,1,,,,,ニホンリョウコウ,0
900,4021001084448,新規,0,2025-02-12,2025-02-12,株式会社ＢＥＬ,,株式会社,神奈川県,藤沢市,辻堂東海岸２丁目３番２０号,,14,205,2510045,,,,,,,2025-02-12,1,,,,,ベル,0
905,4030001164820,新規,0,2025-02-12,2025-02-12,ＵＮＩＱＵＥ　ＧＲＯＵＰ株式会社,,株式会社,埼玉県,さいたま市大宮区,桜木町１丁目１９６番地１,,11,103,3300854,,,,,,,2025-02-12,1,,,,,ユニークグループ,0
906,4030001164845,新規,0,2025-02-12,2025-02-12,株式会社カラダリノベイト,,株式会社,埼玉県,さいたま市南区,南浦和２丁目４１番地６福田ビル１階,,11,108,3360017,,,,,,,2025-02-12,1,,,,,カラダリノベイト,0
912,4030003026085,新規,0,2025-02-12,2025-02-12,合同会社ＴＨＩＲＤ　ＰＬＡＣＥ,,合同会社,埼玉県,南埼玉郡宮代町,和戸４丁目３番２２－２号,,11,442,3450836,,,,,,,2025-02-12,1,,,,,サードプレイス,0
914,4040001137346,新規,0,2025-02-12,2025-02-12,株式会社ＢＯＳＥウォーター,,株式会社,千葉県,鎌ケ谷市,くぬぎ山３丁目１５―２６―６,,12,224,2730128,,,,,,,2025-02-12,1,,,,,ボーズウォーター,0
915,4040001137362,新規,0,2025-02-12,2025-02-12,株式会社クロワトル,,株式会社,千葉県,千葉市中央区,末広５丁目５－１１,,12,101,2600843,,,,,,,2025-02-12,1,,,,,クロワトル,0
935,4080003003385,新規,0,2025-02-12,2025-02-12,ＶＯＬＡＮＴＥ合同会社,,合同会社,静岡県,静岡市駿河区,大谷３９０番地の１１,,22,102,4228017,,,,,,,2025-02-12,1,,,,,ボランチ,0
936,4080101025307,新規,0,2025-02-12,2025-02-12,株式会社みてしる,,株式会社,静岡県,三島市,北田町４番２５号ザ・仲次郎１階南,,22,206,4110854,,,,,,,2025-02-12,1,,,,,ミテシル,0
948,4110001039048,新規,0,2025-02-12,2025-02-12,株式会社松本商店,,株式会社,新潟県,新潟市東区,材木町１番６３号,,15,102,9500811,,,,,,,2025-02-12,1,,,,,マツモトショウテン,0
954,4120001272647,新規,0,2025-02-12,2025-02-12,旭建設株式会社,,株式会社,大阪府,大阪市中央区,南船場３丁目２番２２－２０５号,,27,128,5420081,,,,,,,2025-02-12,1,,,,,アサヒケンセツ,0
955,4120001272696,新規,0,2025-02-12,2025-02-12,盛源株式会社,,株式会社,大阪府,大阪市東住吉区,住道矢田８丁目２－１５－１０１室,,27,121,5460022,,,,,,,2025-02-12,1,,,,,セイゲン,0
956,4120001272770,新規,0,2025-02-12,2025-02-12,日峰株式会社,,株式会社,大阪府,大阪市阿倍野区,昭和町１丁目１９番３１－３０４号,,27,119,5450011,,,,,,,2025-02-12,1,,,,,ニッポウ,0
957,4120001272829,新規,0,2025-02-12,2025-02-12,レジラック株式会社,,株式会社,大阪府,大阪市住吉区,清水丘１丁目２番１８号,,27,120,5580033,,,,,,,2025-02-12,1,,,,,レジラック,0
961,4120003028584,新規,0,2025-02-12,2025-02-12,合同会社ｎｉｃｏＳｕｂ,,合同会社,大阪府,大阪市北区,梅田１丁目２番２号大阪駅前第２ビル１２－１２,,27,127,5300001,,,,,,,2025-02-12,1,,,,,ニコサブ,0
962,4120003028592,新規,0,2025-02-12,2025-02-12,Ｏｈａｎａ介護サービス合同会社,,合同会社,大阪府,大阪市北区,天神橋７丁目１０番２号喜住ビル１Ｆ,,27,127,5310041,,,,,,,2025-02-12,1,,,,,オハナカイゴサービス,0
968,4120103006275,新規,0,2025-02-12,2025-02-12,合同会社Ｄｅｅ,,合同会社,大阪府,堺市中区,土師町１丁１２番３９－３０５号,,27,142,5998238,,,,,,,2025-02-12,1,,,,,ディー,0
969,4120901050400,新規,0,2025-02-12,2025-02-12,株式会社金馬不動産,,株式会社,大阪府,吹田市,内本町３丁目４番１２号,,27,205,5640032,,,,,,,2025-02-12,1,,,,,キンバフドウサン,0
975,4122001038879,新規,0,2025-02-12,2025-02-12,株式会社萬葉,,株式会社,大阪府,八尾市,郡川３丁目４９番地,,27,212,5810872,,,,,,,2025-02-12,1,,,,,マンヨウ,0
978,4130001078977,新規,0,2025-02-12,2025-02-12,株式会社榮輝商事,,株式会社,京都府,船井郡京丹波町,須知天神２９番１,,26,407,6220213,,,,,,,2025-02-12,1,,,,,エイキショウジ,0
980,4130003010203,新規,0,2025-02-12,2025-02-12,合同会社ＫＡ,,合同会社,京都府,京都市山科区,西野岸ノ下町２９－１ガーデンプレイス寺岡１０８号室,,26,110,6078352,,,,,,,2025-02-12,1,,,,,ケーエー,0
988,4140001137286,新規,0,2025-02-12,2025-02-12,株式会社ホリバー,,株式会社,兵庫県,神戸市中央区,磯辺通１丁目１番１８号カサベラ国際プラザビル７０７,,28,110,6510084,,,,,,,2025-02-12,1,,,,,ホリバー,0
989,4140001137311,新規,0,2025-02-12,2025-02-12,株式会社藤原設備,,株式会社,兵庫県,加西市,鶉野町２０５５－２,,28,220,6752103,,,,,,,2025-02-12,1,,,,,フジワラセツビ,0
990,4140001137360,新規,0,2025-02-12,2025-02-12,株式会社ＴＲＩＯＳＴＡＲ,,株式会社,兵庫県,明石市,大久保町ゆりのき通１丁目１番地の１イーストスクエアＩＩ番館６０２号,00137959,28,203,6740068,,,,,,,2025-02-12,1,,,,,トリオスター,0
1016,4230001020730,新規,0,2025-02-12,2025-02-12,株式会社エスファイブ,,株式会社,富山県,富山市,黒崎６６番地,,16,201,9398214,,,,,,,2025-02-12,1,,,,,エスファイブ,0
1029,4290001108909,新規,0,2025-02-12,2025-02-12,株式会社オフィスＴＡＫ,,株式会社,福岡県,福岡市博多区,東比恵２丁目２０番３０号Ｌ．Ｂｉｚ東比恵４階,,40,132,8120007,,,,,,,2025-02-12,1,,,,,オフィスティーエイケイ,0
1030,4290001108917,新規,0,2025-02-12,2025-02-12,學株式会社,,株式会社,福岡県,福岡市中央区,舞鶴３丁目２番３２号舞鶴ロイヤービル２階,,40,133,8100073,,,,,,,2025-02-12,1,,,,,マナビ,0
1031,4290001108925,新規,0,2025-02-12,2025-02-12,株式会社ヒサミヘルスカルチャー,,株式会社,福岡県,福岡市博多区,南本町１丁目２番３号,,40,132,8120883,,,,,,,2025-02-12,1,,,,,ヒサミヘルスカルチャー,0
1032,4290001108933,新規,0,2025-02-12,2025-02-12,株式会社３ＰＥＡＣＥ,,株式会社,福岡県,福岡市中央区,天神４丁目６－２８天神ファーストビル７階,,40,133,8100001,,,,,,,2025-02-12,1,,,,,スリーピース,0
1033,4290001108958,新規,0,2025-02-12,2025-02-12,柴工空調株式会社,,株式会社,福岡県,福岡市南区,柏原５丁目１７番１３号,,40,134,8111353,,,,,,,2025-02-12,1,,,,,シバコウクウチョウ,0
1038,4290003016382,新規,0,2025-02-12,2025-02-12,シン健康寿命十．１０合同会社,,合同会社,福岡県,福岡市南区,柏原６丁目６２番１２号棟２０２号,,40,134,8111353,,,,,,,2025-02-12,1,,,,,シンケンコウジュミョウジュウドットテン,0
1039,4290003016390,新規,0,2025-02-12,2025-02-12,ｔｏｒｏ合同会社,,合同会社,福岡県,福岡市中央区,天神２丁目２番１２号,,40,133,8100001,,,,,,,2025-02-12,1,,,,,トロ,0
1041,4310003004938,新規,0,2025-02-12,2025-02-12,合同会社タブアットホーム,,合同会社,長崎県,長崎市,元船町９番１８号,,42,201,8500035,,,,,,,2025-02-12,1,,,,,タブアットホーム,0
1050,4380003005954,新規,0,2025-02-12,2025-02-12,合同会社ｍｅｒ,,合同会社,福島県,郡山市,安積町日出山字新鍬４１番地の１ボナールＡ棟１０２号,,07,203,9630101,,,,,,,2025-02-12,1,,,,,メール,0
1054,4410001014061,新規,0,2025-02-12,2025-02-12,株式会社サンケイ,,株式会社,秋田県,秋田市,雄和戸賀沢字金山沢９２‐１,,05,201,0101232,,,,,,,2025-02-12,1,,,,,,0
1058,4430003017267,新規,0,2025-02-12,2025-02-12,合同会社ライフライン,,合同会社,北海道,札幌市中央区,南一条西７丁目１番地１ビルヂングフクダ５階,,01,101,0600061,,,,,,,2025-02-12,1,,,,,ライフライン,0
1059,4430003017275,新規,0,2025-02-12,2025-02-12,合同会社ゆりねキングダム,,合同会社,北海道,札幌市中央区,南二条西５丁目３１－１ＲＭＢｌｄ．７０１,,01,101,0600062,,,,,,,2025-02-12,1,,,,,ユリネキングダム,0
1060,4460301005276,新規,0,2025-02-12,2025-02-12,羽賀商店株式会社,,株式会社,北海道,北見市,相内町３９番地１４,,01,208,0990871,,,,,,,2025-02-12,1,,,,,ハガショウテン,0
1064,4480001012744,新規,0,2025-02-12,2025-02-12,株式会社ゴトウダ,,株式会社,徳島県,吉野川市,川島町学字大戸井１２６番地,,36,205,7793306,,,,,,,2025-02-12,1,,,,,ゴトウダ,0
1070,4700150129168,新規,0,2025-02-12,2025-02-12,Ｓｈａｎｇｈａｉ　Ｈａｏｓｈｉ　Ｃａｉ　Ｌｉａｏ　Ｋｅｊｉ　Ｃｏｍｐａｎｙ　Ｌｔｄ．,,外国会社等,,,,,,,,Ｒｏｏｍ　３５９，Ｎｏ．６６８，Ｘｉｎｚｈｕａｎ　Ｒｏａｄ，Ｘｉｎｑｉａｏ　Ｔｏｗｎ，Ｓｏｎｇｊｉａｎｇ　Ｄｉｓｔｒｉｃｔ，Ｓｈａｎｇｈａｉ,,,,,,2025-02-12,1,,,,,シャンハイハオシーツァイリャオコージーヨウシエンゴンスー,0
1076,5010001251710,新規,0,2025-02-12,2025-02-12,ＶＬＧ　Ｔｅｃｈｎｏｌｏｇｙ　Ｊａｐａｎ株式会社,,株式会社,東京都,千代田区,外神田２丁目１番８スクエア秋葉原１１８号,,13,101,1010021,,,,,,,2025-02-12,1,,,,,ヴイエルジーテクノロジージャパン,0
1077,5010001252163,新規,0,2025-02-12,2025-02-12,株式会社ｎａｎａｉｒｏ,,株式会社,東京都,千代田区,神田和泉町１番地６の１６ヤマトビル４０５,,13,101,1010024,,,,,,,2025-02-12,1,,,,,ナナイロ,0
1078,5010001252188,新規,0,2025-02-12,2025-02-12,株式会社ＵＧＵＩＳＵ,,株式会社,東京都,中央区,銀座１丁目１２－４Ｎ＆ＥＢＬＤ．７階,,13,102,1040061,,,,,,,2025-02-12,1,,,,,ウグイス,0
1079,5010001252279,新規,0,2025-02-12,2025-02-12,株式会社ＢａｂｙＧｒａｎｄ,,株式会社,東京都,千代田区,内神田１丁目５－１２北大手町スクエア１階,,13,101,1010047,,,,,,,2025-02-12,1,,,,,ベイビーグランド,0
1082,5010003046308,新規,0,2025-02-12,2025-02-12,合同会社ｂａｃｋｐａｃｋ,,合同会社,東京都,中央区,湊２丁目１５番１４－２２０４号,,13,102,1040043,,,,,,,2025-02-12,1,,,,,バックパック,0
1083,5010003046381,新規,0,2025-02-12,2025-02-12,Ａ＆Ｉ合同会社,,合同会社,東京都,千代田区,麹町１丁目３番地２３－２Ｆ,,13,101,1020083,,,,,,,2025-02-12,1,,,,,エーアンドアイ,0
1084,5010003046407,新規,0,2025-02-12,2025-02-12,オオシロラボ合同会社,,合同会社,東京都,千代田区,神田小川町２丁目４―１４フィールドクレストビル８階,,13,101,1010052,,,,,,,2025-02-12,1,,,,,オオシロラボ,0
1086,5010005039508,新規,0,2025-02-12,2025-02-12,一般社団法人天美会,,その他の設立登記法人,東京都,中央区,銀座４丁目２番２号,,13,102,1040061,,,,,,,2025-02-12,1,,,,,テンビカイ,0
1087,5010005039549,新規,0,2025-02-12,2025-02-12,一般社団法人創世会,,その他の設立登記法人,東京都,中央区,銀座３丁目１１番１６号ＶＯＲＴ銀座イースト１０階,,13,102,1040061,,,,,,,2025-02-12,1,,,,,ソウセイカイ,0
1097,5010401187983,新規,0,2025-02-12,2025-02-12,株式会社ＰＳＪ,,株式会社,東京都,港区,芝５丁目２７－３ＭＢＣ．Ａ－２１号,,13,103,1080014,,,,,,,2025-02-12,1,,,,,ピーエスジェイ,0
1098,5010401188065,新規,0,2025-02-12,2025-02-12,株式会社ＭＨＤ医健,,株式会社,東京都,港区,浜松町２丁目２番１５号浜松町ダイヤビル２Ｆ,,13,103,1050013,,,,,,,2025-02-12,1,,,,,エムエイチディーイケン,0
1099,5010401188123,新規,0,2025-02-12,2025-02-12,株式会社パテラ,,株式会社,東京都,港区,北青山１丁目３番１号アールキューブ青山３Ｆ,,13,103,1070061,,,,,,,2025-02-12,1,,,,,パテラ,0
1100,5010401188164,新規,0,2025-02-12,2025-02-12,Ｍホールディングス株式会社,,株式会社,東京都,港区,虎ノ門３丁目１４番１－１８０６号,,13,103,1050001,,,,,,,2025-02-12,1,,,,,エムホールディングス,0
1103,5010405024019,新規,0,2025-02-12,2025-02-12,一般社団法人ひとり親予備軍支援協会,,その他の設立登記法人,東京都,港区,六本木３丁目１番３０号Ａ・Ｂビル６階,,13,103,1060032,,,,,,,2025-02-12,1,,,,,ヒトリオヤヨビグンシエンキョウカイ,0
1104,5010405024084,新規,0,2025-02-12,2025-02-12,ＬＪＤＣゴウダＲｕｂｙ一般社団法人,,その他の設立登記法人,東京都,港区,六本木１丁目６番１号泉ガーデンタワー１２階,,13,103,1060032,,,,,,,2025-02-12,1,,,,,エルジェーディーシーゴウダルビー,0
1107,5010601066748,新規,0,2025-02-12,2025-02-12,株式会社林,,株式会社,東京都,墨田区,墨田２丁目２５番５号,,13,107,1310031,,,,,,,2025-02-12,1,,,,,リン,0
1108,5010601066764,新規,0,2025-02-12,2025-02-12,株式会社ＮｅｏＮｅｘ　Ｊａｐａｎ,,株式会社,東京都,江東区,豊洲６丁目２番１１－１４２０号,,13,108,1350061,,,,,,,2025-02-12,1,,,,,ネオネクスジャパン,0
1112,5010703007567,新規,0,2025-02-12,2025-02-12,合同会社今人,,合同会社,東京都,品川区,大井６丁目２１番１,,13,109,1400014,,,,,,,2025-02-12,1,,,,,イマジン,0
1116,5010901056795,新規,0,2025-02-12,2025-02-12,株式会社ソライ,,株式会社,東京都,世田谷区,奥沢１丁目１７番５－１０１号,,13,112,1580083,,,,,,,2025-02-12,1,,,,,ソライ,0
1125,5011001167533,新規,0,2025-02-12,2025-02-12,日本デジタルデザイン株式会社,,株式会社,東京都,渋谷区,本町１丁目５２番５号,,13,113,1510071,,,,,,,2025-02-12,1,,,,,ニホンデジタルデザイン,0
1126,5011001167616,新規,0,2025-02-12,2025-02-12,株式会社ＳＯＬ　ｐｒｏｄｕｃｔ,,株式会社,東京都,渋谷区,渋谷１丁目１番３号アミーホール３Ｆ,,13,113,1500002,,,,,,,2025-02-12,1,,,,,ソルプロダクト,0
1127,5011001167632,新規,0,2025-02-12,2025-02-12,株式会社まどか,,株式会社,東京都,渋谷区,神南１丁目１１番４号ＦＰＧリンクス神南５階,,13,113,1500041,,,,,,,2025-02-12,1,,,,,マドカ,0
1128,5011001167657,新規,0,2025-02-12,2025-02-12,株式会社ｉｐｏｃａアスシル,,株式会社,東京都,渋谷区,神宮前１丁目５番８号,,13,113,1500001,,,,,,,2025-02-12,1,,,,,イポカアスシル,0
1129,5011001167665,新規,0,2025-02-12,2025-02-12,株式会社ＨＥＷＥＧＯ,,株式会社,東京都,渋谷区,渋谷２丁目１９番１５号宮益坂ビルディング６０９,,13,113,1500002,,,,,,,2025-02-12,1,,,,,ヒウィゴー,0
1130,5011001167707,新規,0,2025-02-12,2025-02-12,株式会社Ａｒｃｏ　ＳＵＲ,,株式会社,東京都,目黒区,五本木３丁目２７番１３号,,13,110,1530053,,,,,,,2025-02-12,1,,,,,アルコスール,0
1132,5011003020896,新規,0,2025-02-12,2025-02-12,合同会社ＫＵＬＥＨＡ,,合同会社,東京都,渋谷区,神南１丁目１１－４ＦＰＧリンクス神南５階,,13,113,1500041,,,,,,,2025-02-12,1,,,,,クレハ,0
1133,5011003020962,新規,0,2025-02-12,2025-02-12,ＡＫＡ　ＳＨＩＲＯ合同会社,,合同会社,東京都,渋谷区,恵比寿１丁目３１番２－１３０３号,,13,113,1500013,,,,,,,2025-02-12,1,,,,,アカシロ,0
1144,5011301030333,新規,0,2025-02-12,2025-02-12,株式会社ボルティングテクノロジー,,株式会社,東京都,杉並区,成田西３丁目１９番５号,,13,115,1660016,,,,,,,2025-02-12,1,,,,,ボルティングテクノロジー,0
1148,5011403004615,新規,0,2025-02-12,2025-02-12,ソラティス合同会社,,合同会社,東京都,板橋区,徳丸１丁目５４番６号,,13,119,1750083,,,,,,,2025-02-12,1,,,,,ソラティス,0
1153,5012401042763,新規,0,2025-02-12,2025-02-12,株式会社ナイツブリッジ,,株式会社,東京都,三鷹市,下連雀６丁目６番３号,,13,204,1810013,,,,,,,2025-02-12,1,,,,,ナイツブリッジ,0
1154,5012401042771,新規,0,2025-02-12,2025-02-12,株式会社キャットハンズ,,株式会社,東京都,三鷹市,新川３丁目１７番６号新川プラザ４Ａ１,,13,204,1810004,,,,,,,2025-02-12,1,,,,,キャットハンズ,0
1169,5020001161297,新規,0,2025-02-12,2025-02-12,ライカン株式会社,,株式会社,神奈川県,横浜市瀬谷区,阿久和東４丁目１番地１６－１０２,,14,114,2460023,,,,,,,2025-02-12,1,,,,,ライカン,0
1170,5020001161322,新規,0,2025-02-12,2025-02-12,クレアティビスタ株式会社,,株式会社,神奈川県,川崎市川崎区,中瀬３丁目２０番１９－１１１号,,14,131,2100818,,,,,,,2025-02-12,1,,,,,クレアティビスタ,0
1171,5020001161347,新規,0,2025-02-12,2025-02-12,株式会社ｉｅｍｏ,,株式会社,神奈川県,横浜市神奈川区,三ツ沢南町５番１３号３０４,,14,102,2210854,,,,,,,2025-02-12,1,,,,,イエモ,0
1172,5020001161371,新規,0,2025-02-12,2025-02-12,株式会社ｐｏｌｌｕｘ,,株式会社,神奈川県,横浜市都筑区,北山田１丁目１２番９号ツトヤパセオ１Ｆ,,14,118,2240021,,,,,,,2025-02-12,1,,,,,ポルックス,0
1175,5020003027728,新規,0,2025-02-12,2025-02-12,パースペクティブ・パートナーズ合同会社,,合同会社,神奈川県,横浜市緑区,寺山町１７６番地５,,14,113,2260013,,,,,,,2025-02-12,1,,,,,パースペクティブパートナーズ,0
1178,5021001084430,新規,0,2025-02-12,2025-02-12,瑞祥株式会社,,株式会社,神奈川県,秦野市,南矢名２２２３番地の４東海ビル２０４Ｂ,,14,211,2570003,,,,,,,2025-02-12,1,,,,,ズイショウ,0
1181,5021003015573,新規,0,2025-02-12,2025-02-12,メルテックジャパン合同会社,,合同会社,神奈川県,座間市,入谷東２丁目１－１９,,14,216,2520028,,,,,,,2025-02-12,1,,,,,メルテックジャパン,0
1191,5030003026035,新規,0,2025-02-12,2025-02-12,合同会社全装,,合同会社,埼玉県,上尾市,大字中新井５１４番地５,,11,219,3620052,,,,,,,2025-02-12,1,,,,,ゼンソウ,0
1196,5040001137238,新規,0,2025-02-12,2025-02-12,株式会社Ｄｅｓｉｇｎ　Ｅｎｇｉｎｅｅｒｉｎｇ,,株式会社,千葉県,千葉市中央区,栄町３６－１０,,12,101,2600016,,,,,,,2025-02-12,1,,,,,デザインエンジニアリング,0
1197,5040001137337,新規,0,2025-02-12,2025-02-12,株式会社Ｌａ　Ｌａ　Ｌａｎｄ・Ｊａｐａｎ,,株式会社,千葉県,印西市,高花６丁目３７番地１０,,12,231,2701342,,,,,,,2025-02-12,1,,,,,ララランドジャパン,0
1198,5040001137353,新規,0,2025-02-12,2025-02-12,ＢＩＧ　ＰＬＵＭ　ＡＳＳＥＴ株式会社,,株式会社,千葉県,八街市,八街い１８８－２ヤマダＳＧビル５０２,,12,230,2891143,,,,,,,2025-02-12,1,,,,,ビッグプラムアセット,0
1201,5040003026827,新規,0,2025-02-12,2025-02-12,合同会社Ｎｅｗ　Ｋｉｔｃｈｅｎ　Ｓｅｒｖｉｃｅ,,合同会社,千葉県,佐倉市,臼井台２０８－２,,12,212,2850866,,,,,,,2025-02-12,1,,,,,ニューキッチンサービス,0
1211,5050001056164,新規,0,2025-02-12,2025-02-12,小林貿易株式会社,,株式会社,茨城県,古河市,東山田３８６,,08,204,3060112,,,,,,,2025-02-12,1,,,,,コバヤシボウエキ,0
1213,5060003005416,新規,0,2025-02-12,2025-02-12,合同会社サクセス,,合同会社,栃木県,宇都宮市,鶴田町１９０９番地１９,,09,201,3200851,,,,,,,2025-02-12,1,,,,,サクセス,0
1217,5070003005778,新規,0,2025-02-12,2025-02-12,孝情合同会社,,合同会社,群馬県,前橋市,関根町３丁目２６番地１４レトア小見１０２号,,10,201,3710047,,,,,,,2025-02-12,1,,,,,コウジョウ,0
1224,5080403005204,新規,0,2025-02-12,2025-02-12,合同会社坂井ファーム,,合同会社,静岡県,浜松市中央区,寺島町２１８－５,,22,138,4300925,,,,,,,2025-02-12,1,,,,,サカイファーム,0
1226,5090001019134,新規,0,2025-02-12,2025-02-12,株式会社ホクトライスフィールド,,株式会社,山梨県,北杜市,高根町村山東割１４０５番地,,19,209,4080019,,,,,,,2025-02-12,1,,,,,ホクトライスフィールド,0
1229,5110001039047,新規,0,2025-02-12,2025-02-12,株式会社ペイントワークス,,株式会社,新潟県,上越市,仲町３丁目６番５号ブライトンパレス２Ｆ,,15,222,9430831,,,,,,,2025-02-12,1,,,,,ペイントワークス,0
1240,5120001272497,新規,0,2025-02-12,2025-02-12,財通株式会社,,株式会社,大阪府,大阪市北区,天神橋６丁目２－２５－３Ｂ,,27,127,5300041,,,,,,,2025-02-12,1,,,,,ザイツウ,0
1241,5120001272745,新規,0,2025-02-12,2025-02-12,先進会メディカルホールディングス株式会社,,株式会社,大阪府,大阪市北区,梅田１丁目１３番１号大阪梅田ツインタワーズ・サウス１３Ｆ,,27,127,5300001,,,,,,,2025-02-12,1,,,,,センシンカイメディカルホールディングス,0
1242,5120001272753,新規,0,2025-02-12,2025-02-12,株式会社ＭＡＪＵＥ,,株式会社,大阪府,大阪市中央区,淡路町１丁目４番１５号,,27,128,5410047,,,,,,,2025-02-12,1,,,,,マジュエ,0
1243,5120001272828,新規,0,2025-02-12,2025-02-12,株式会社ＳＲＳ,,株式会社,大阪府,大阪市福島区,鷺洲５丁目１２番１－３１６号,,27,103,5530002,,,,,,,2025-02-12,1,,,,,エスアールエス,0
1244,5120001272836,新規,0,2025-02-12,2025-02-12,ＵＲＢＡＮ　ＬＥＧＥＮＤ株式会社,,株式会社,大阪府,大阪市中央区,南船場２丁目３番４号日宝長堀ビル８Ｆ,,27,128,5420081,,,,,,,2025-02-12,1,,,,,アーバンレジェンド,0
1245,5120001272893,新規,0,2025-02-12,2025-02-12,株式会社ＳＯＮ,,株式会社,大阪府,大阪市北区,堂島１丁目２番７号パーマリィイン堂島７階,,27,127,5300003,,,,,,,2025-02-12,1,,,,,ソン,0
1249,5120101071015,新規,0,2025-02-12,2025-02-12,株式会社ノック・ドア,,株式会社,大阪府,岸和田市,下池田町３丁目１番２７号下池田マンション２０１号,,27,202,5960811,,,,,,,2025-02-12,1,,,,,ノックドア,0
1253,5130003010202,新規,0,2025-02-12,2025-02-12,合同会社東キャピタル,,合同会社,京都府,京都市伏見区,深草池ノ内町２番地の４５,,26,109,6120031,,,,,,,2025-02-12,1,,,,,ヒガシキャピタル,0
1264,5180001165381,新規,0,2025-02-12,2025-02-12,愛電気株式会社,,株式会社,愛知県,春日井市,穴橋町１丁目２番地１フルーティーＶＩＩ１０２号,00137958,23,206,4860853,,,,,,,2025-02-12,1,,,,,アイデンキ,0
1265,5180001165415,新規,0,2025-02-12,2025-02-12,株式会社ＢｅａｒＥｆｆｒｕｉｔ,,株式会社,愛知県,名古屋市港区,秋葉１丁目１８１－２２,,23,111,4550857,,,,,,,2025-02-12,1,,,,,ベアエフルート,0
1273,5190001031995,新規,0,2025-02-12,2025-02-12,株式会社Ｋ’ｓ　ｔｒａｄｉｎｇ,,株式会社,三重県,亀山市,長明寺町５９３‐１,,24,210,5190214,,,,,,,2025-02-12,1,,,,,ケーズトレーディング,0
1275,5200001043428,新規,0,2025-02-12,2025-02-12,ＳＡＦＩ　ＴＲＡＤＩＮＧ株式会社,,株式会社,岐阜県,各務原市,三井北町２丁目７７番地若宮マンション２０３,,21,213,5040956,,,,,,,2025-02-12,1,,,,,サフィトレーディング,0
1289,5290001108908,新規,0,2025-02-12,2025-02-12,ホンマル株式会社,,株式会社,福岡県,福岡市中央区,天神２丁目２番１２号Ｔ＆Ｊビルディング７Ｆ,,40,133,8100001,,,,,,,2025-02-12,1,,,,,ホンマル,0
1290,5290001108916,新規,0,2025-02-12,2025-02-12,テトボット株式会社,,株式会社,福岡県,福岡市博多区,博多駅前１丁目２３番２号５Ｆ－Ｂ,,40,132,8120011,,,,,,,2025-02-12,1,,,,,テトボット,0
1291,5290001108924,新規,0,2025-02-12,2025-02-12,株式会社アンリーシュ・パートナーズ,,株式会社,福岡県,福岡市早良区,百道浜３丁目９番３３－１４１０号,,40,137,8140001,,,,,,,2025-02-12,1,,,,,アンリーシュパートナーズ,0
1292,5290001108940,新規,0,2025-02-12,2025-02-12,株式会社アンテレ,,株式会社,福岡県,福岡市博多区,麦野５丁目１３番３８－４０７号,,40,132,8120882,,,,,,,2025-02-12,1,,,,,アンテレ,0
1299,5350001019396,新規,0,2025-02-12,2025-02-12,株式会社コノヒト,,株式会社,宮崎県,児湯郡都農町,大字川北１１８４番地１２Ｒｉｎｋ　Ｗｏｒｋｓ　Ｃ,,45,406,8891201,,,,,,,2025-02-12,1,,,,,コノヒト,0
1300,5360001034774,新規,0,2025-02-12,2025-02-12,株式会社ロコ観光,,株式会社,沖縄県,那覇市,松山１丁目２７番１１号,,47,201,9000032,,,,,,,2025-02-12,1,,,,,ロコカンコウ,0
1301,5360003014683,新規,0,2025-02-12,2025-02-12,ＣＬＩＰ合同会社,,合同会社,沖縄県,うるま市,石川１丁目８－２２,,47,213,9041106,,,,,,,2025-02-12,1,,,,,クリップ,0
1306,5410001014060,新規,0,2025-02-12,2025-02-12,株式会社マルテイン,,株式会社,秋田県,能代市,落合字中大野台１２１‐１,,05,202,0160014,,,,,,,2025-02-12,1,,,,,,0
1311,5430001093656,新規,0,2025-02-12,2025-02-12,ＲＴ商事株式会社,,株式会社,北海道,札幌市北区,北二十三条西４丁目２－３,,01,102,0010023,,,,,,,2025-02-12,1,,,,,アールティーショウジ,0
1312,5430001093672,新規,0,2025-02-12,2025-02-12,株式会社ＵＧ,,株式会社,北海道,札幌市白石区,北郷七条７丁目１番３号,,01,104,0030837,,,,,,,2025-02-12,1,,,,,ユージー,0
1323,5700150129167,新規,0,2025-02-12,2025-02-12,ＬＡＮＫＡ　ＰＡＲＴＳ　ＰＡＲＡＤＩＳＥ,,外国会社等,長野県,茅野市,宮川１０９１１　平成ハウスＣ,,20,214,3910013,スリランカ民主社会主義共和国、ムルタラワ、アラデニヤロード、Ｎｏ．５９,,,,,,2025-02-12,1,,,,,ランカパーツパラダイス,0
1331,6010001252022,新規,0,2025-02-12,2025-02-12,株式会社ヒトゴト,,株式会社,東京都,中央区,銀座１丁目１４番１０号松楠ビル４階,,13,102,1040061,,,,,,,2025-02-12,1,,,,,ヒトゴト,0
1332,6010001252179,新規,0,2025-02-12,2025-02-12,Ｋａｎｇ　Ｙｕ‐ｒａ株式会社,,株式会社,東京都,中央区,日本橋箱崎町４１番６－９０８号,,13,102,1030015,,,,,,,2025-02-12,1,,,,,カンユラ,0
1335,6010003046323,新規,0,2025-02-12,2025-02-12,ＡＩＡ上野１４合同会社,,合同会社,東京都,中央区,日本橋２丁目１番１８号,,13,102,1030027,,,,,,,2025-02-12,1,,,,,エーアイエーウエノイチヨン,0
1336,6010003046372,新規,0,2025-02-12,2025-02-12,合同会社マルトク,,合同会社,東京都,中央区,日本橋箱崎町４１番４号エクセリア日本橋箱崎２０２号室,,13,102,1030015,,,,,,,2025-02-12,1,,,,,マルトク,0
1337,6010003046380,新規,0,2025-02-12,2025-02-12,ｍｉｓｓｉｎ合同会社,,合同会社,東京都,中央区,銀座１丁目１２－４Ｎ＆ＥＢＬＤ．７階,,13,102,1040061,,,,,,,2025-02-12,1,,,,,ミッシン,0
1341,6010401187867,新規,0,2025-02-12,2025-02-12,株式会社栗林良子事務所,,株式会社,東京都,港区,南青山３丁目１番３６号青山丸竹ビル６Ｆ,,13,103,1070062,,,,,,,2025-02-12,1,,,,,クリバヤシリョウコジムショ,0
1342,6010401188188,新規,0,2025-02-12,2025-02-12,マリスコーポレーション株式会社,,株式会社,東京都,港区,南麻布１丁目６番３６号南麻布Ａビル７階,,13,103,1060047,,,,,,,2025-02-12,1,,,,,マリスコーポレーション,0
1343,6010401188205,新規,0,2025-02-12,2025-02-12,株式会社ＶｉｓｉｏｎＰｌｕｓ,,株式会社,東京都,港区,虎ノ門４丁目３番１号城山トラストタワー２７階,,13,103,1050001,,,,,,,2025-02-12,1,,,,,ビジョンプラス,0
1346,6010403034373,新規,0,2025-02-12,2025-02-12,巴町合同会社,,合同会社,東京都,港区,西新橋１丁目２２番５号６階,,13,103,1050003,,,,,,,2025-02-12,1,,,,,トモエチョウ,0
1349,6010601066739,新規,0,2025-02-12,2025-02-12,株式会社エスジェイ・アセット,,株式会社,東京都,江東区,南砂１丁目２０番１－６０８号,,13,108,1360076,,,,,,,2025-02-12,1,,,,,エスジェイアセット,0
1353,6010801035840,新規,0,2025-02-12,2025-02-12,株式会社ライフステージ,,株式会社,東京都,大田区,南蒲田２丁目２７番１７号キャラメルハウス１Ｆ,,13,111,1440035,,,,,,,2025-02-12,1,,,,,ライフステージ,0
1361,6011001167598,新規,0,2025-02-12,2025-02-12,株式会社ホウリン,,株式会社,東京都,渋谷区,道玄坂２丁目１５番１号ノア道玄坂１１１８号室,,13,113,1500043,,,,,,,2025-02-12,1,,,,,ホウリン,0
1362,6011001167607,新規,0,2025-02-12,2025-02-12,株式会社Ｓｙｎ　Ｓｔａｃｋ,,株式会社,東京都,渋谷区,道玄坂１丁目１０番８号渋谷道玄坂東急ビル２Ｆ－Ｃ,,13,113,1500043,,,,,,,2025-02-12,1,,,,,シンスタック,0
1363,6011001167615,新規,0,2025-02-12,2025-02-12,株式会社１ｍｍｉｘ,,株式会社,東京都,渋谷区,代々木２丁目１８番４号細川ビル３階,,13,113,1510053,,,,,,,2025-02-12,1,,,,,イミックス,0
1364,6011001167623,新規,0,2025-02-12,2025-02-12,株式会社Ｌａｔｔｅ,,株式会社,東京都,渋谷区,千駄ヶ谷５丁目２０番７号グランクラス代々木６０２,,13,113,1510051,,,,,,,2025-02-12,1,,,,,ラテ,0
1365,6011001167631,新規,0,2025-02-12,2025-02-12,プラストスタジオ株式会社,,株式会社,東京都,渋谷区,道玄坂１丁目１０番８号渋谷道玄坂東急ビル２Ｆ－Ｃ,,13,113,1500043,,,,,,,2025-02-12,1,,,,,プラストスタジオ,0
1366,6011001167648,新規,0,2025-02-12,2025-02-12,コスモウェルビーイング株式会社,,株式会社,東京都,渋谷区,道玄坂１丁目１０番８号渋谷道玄坂東急ビル２Ｆ－Ｃ,,13,113,1500043,,,,,,,2025-02-12,1,,,,,コスモウェルビーイング,0
1367,6011001167706,新規,0,2025-02-12,2025-02-12,パフォーム株式会社,,株式会社,東京都,渋谷区,道玄坂１丁目１０番８号渋谷道玄坂東急ビル２Ｆ－Ｃ,,13,113,1500043,,,,,,,2025-02-12,1,,,,,パフォーム,0
1368,6011001167739,新規,0,2025-02-12,2025-02-12,株式会社ｄｏｕｍ,,株式会社,東京都,渋谷区,道玄坂１丁目２２番１２号長島第一ビル８階,,13,113,1500043,,,,,,,2025-02-12,1,,,,,ドウム,0
1370,6011003020937,新規,0,2025-02-12,2025-02-12,マリガン合同会社,,合同会社,東京都,目黒区,上目黒３丁目１４番８－８０１号Ｍ．Ｆビル,,13,110,1530051,,,,,,,2025-02-12,1,,,,,マリガン,0
1371,6011003020986,新規,0,2025-02-12,2025-02-12,エバーグローブ合同会社,,合同会社,東京都,目黒区,碑文谷３丁目１８番９－４０５号ブランズ碑文谷三丁目,,13,110,1520003,,,,,,,2025-02-12,1,,,,,エバーグローブ,0
1372,6011005010886,新規,0,2025-02-12,2025-02-12,一般社団法人発酵性食物繊維普及プロジェクト,,その他の設立登記法人,東京都,渋谷区,千駄ヶ谷１丁目２０番１号,,13,113,1510051,,,,,,,2025-02-12,1,,,,,ハッコウセイショクモツセンイフキュウプロジェクト,0
1376,6011101110598,新規,0,2025-02-12,2025-02-12,株式会社加世田工務店,,株式会社,東京都,新宿区,住吉町３番１１号,,13,104,1620065,,,,,,,2025-02-12,1,,,,,カセダコウムテン,0
1386,6011501031691,新規,0,2025-02-12,2025-02-12,株式会社陽海,,株式会社,東京都,荒川区,荒川４丁目９番１号プラウド町屋４０３号室,,13,118,1160002,,,,,,,2025-02-12,1,,,,,ハルミ,0
1396,6012801023742,新規,0,2025-02-12,2025-02-12,株式会社上城総業,,株式会社,東京都,東大和市,向原６丁目１１７９番地６,,13,220,2070013,,,,,,,2025-02-12,1,,,,,ワイジョウソウギョウ,0
1404,6020001161263,新規,0,2025-02-12,2025-02-12,株式会社ＢＬＵＥ　ＭＡＬＡＭＵＴＥ,,株式会社,神奈川県,横浜市鶴見区,元宮１丁目７番１８号,,14,101,2300004,,,,,,,2025-02-12,1,,,,,ブルーマラミュート,0
1405,6020001161305,新規,0,2025-02-12,2025-02-12,株式会社ライジングホーム,,株式会社,神奈川県,川崎市中原区,新丸子東２丁目８９５番地武蔵小杉ＴＳマンション１０２,,14,133,2110004,,,,,,,2025-02-12,1,,,,,ライジングホーム,0
1406,6020001161313,新規,0,2025-02-12,2025-02-12,ＲＵＮＳＵＮ　ＣＬＯＵＤ　ＡＩ株式会社,,株式会社,神奈川県,横浜市中区,長者町９丁目１４７番地２,,14,104,2310033,,,,,,,2025-02-12,1,,,,,ランサンクラウドエーアイ,0
1407,6020001161346,新規,0,2025-02-12,2025-02-12,株式会社Ｔｅｇａｍｉ,,株式会社,神奈川県,川崎市麻生区,岡上２丁目２７－３４,,14,137,2150027,,,,,,,2025-02-12,1,,,,,テガミ,0
1408,6020001161354,新規,0,2025-02-12,2025-02-12,みなとリビング株式会社,,株式会社,神奈川県,川崎市多摩区,栗谷１丁目１１番１６号,,14,135,2140039,,,,,,,2025-02-12,1,,,,,ミナトリビング,0
1412,6020003027768,新規,0,2025-02-12,2025-02-12,合同会社セブンメープル,,合同会社,神奈川県,横浜市神奈川区,高島台１８－２６,,14,102,2210833,,,,,,,2025-02-12,1,,,,,セブンメープル,0
1413,6020003027801,新規,0,2025-02-12,2025-02-12,ソレイユ合同会社,,合同会社,神奈川県,川崎市中原区,木月２丁目２４番８号,,14,133,2110025,,,,,,,2025-02-12,1,,,,,ソレイユ,0
1415,6021001084446,新規,0,2025-02-12,2025-02-12,株式会社桜山,,株式会社,神奈川県,逗子市,桜山８丁目１６番１０号,,14,208,2490005,,,,,,,2025-02-12,1,,,,,サクラヤマ,0
1422,6030001164785,新規,0,2025-02-12,2025-02-12,ＴＲ住建株式会社,,株式会社,埼玉県,所沢市,緑町４丁目１番５号グリーン・ジュピター２０５,,11,208,3591111,,,,,,,2025-02-12,1,,,,,ティーアールジュウケン,0
1424,6030003026018,新規,0,2025-02-12,2025-02-12,合同会社住興,,合同会社,埼玉県,白岡市,西２丁目１番１４,,11,246,3490205,,,,,,,2025-02-12,1,,,,,,0
1425,6030003026067,新規,0,2025-02-12,2025-02-12,合同会社あっふぇとーぞ,,合同会社,埼玉県,春日部市,備後東８丁目８番２１号,,11,214,3440032,,,,,,,2025-02-12,1,,,,,アッフェトーゾ,0
1434,6040001137336,新規,0,2025-02-12,2025-02-12,株式会社Ｍａｒｋ,,株式会社,千葉県,千葉市稲毛区,小深町１３８番地１２,,12,103,2630003,,,,,,,2025-02-12,1,,,,,マーク,0
1435,6040001137352,新規,0,2025-02-12,2025-02-12,５ｄｒｉｖｅ株式会社,,株式会社,千葉県,山武市,木原２９４番地,,12,237,2891212,,,,,,,2025-02-12,1,,,,,ファイブドライブ,0
1436,6040001137360,新規,0,2025-02-12,2025-02-12,イメコン株式会社,,株式会社,千葉県,習志野市,谷津１丁目１１番１３号小平ビル２階,,12,216,2750026,,,,,,,2025-02-12,1,,,,,イメコン,0
1437,6040001137369,新規,0,2025-02-12,2025-02-12,株式会社イチカラ不動産,,株式会社,千葉県,市川市,湊新田７－１３,,12,203,2720132,,,,,,,2025-02-12,1,,,,,イチカラフドウサン,0
1442,6040003026826,新規,0,2025-02-12,2025-02-12,合同会社Ｇｏ　ｇｏｏｄ　Ｈｏｍｅ,,合同会社,千葉県,船橋市,薬円台６丁目５番１２号,,12,204,2740077,,,,,,,2025-02-12,1,,,,,ゴーグッドホーム,0
1443,6040003026834,新規,0,2025-02-12,2025-02-12,合同会社五常,,合同会社,千葉県,船橋市,山手２丁目７番７号,,12,204,2730045,,,,,,,2025-02-12,1,,,,,ゴジョウ,0
1444,6040003026842,新規,0,2025-02-12,2025-02-12,合同会社アピリ,,合同会社,千葉県,松戸市,千駄堀２４３番地,,12,207,2702252,,,,,,,2025-02-12,1,,,,,アピリ,0
1449,6040005022658,新規,0,2025-02-12,2025-02-12,社会福祉法人ちば地域生活支援舎,,その他の設立登記法人,千葉県,東金市,東金４２１番地３,,12,213,2830802,,,,,,,2025-02-12,1,,,,,チバチイキセイカツシエンシャ,0
1455,6070001042616,新規,0,2025-02-12,2025-02-12,株式会社プレコ,,株式会社,群馬県,館林市,松原３丁目７番地の４,,10,207,3740016,,,,,,,2025-02-12,1,,,,,プレコ,0
1458,6080101025305,新規,0,2025-02-12,2025-02-12,株式会社ＪプランニングＳａｎｏ,,株式会社,静岡県,富士市,平垣１３３番地の３,,22,210,4160916,,,,,,,2025-02-12,1,,,,,ジェイプランニングサノ,0
1467,6080401027736,新規,0,2025-02-12,2025-02-12,トクギ・インサン・マダニ株式会社,,株式会社,静岡県,浜松市中央区,森田町２４８東海ビルＩＩ２０２,00137957,22,138,4328048,,,,,,,2025-02-12,1,,,,,トクギインサンマダニ,0
1469,6100001038288,新規,0,2025-02-12,2025-02-12,株式会社シミズ,,株式会社,長野県,小諸市,大字御影新田８４１番地,,20,208,3840808,,,,,,,2025-02-12,1,,,,,シミズ,0
1471,6100003007992,新規,0,2025-02-12,2025-02-12,合同会社８７,,合同会社,長野県,伊那市,西箕輪７２００－２７ｉｎａｄａｎｉｓｅｅｓ,,20,209,3960041,,,,,,,2025-02-12,1,,,,,ハチナナ,0
1473,6110001039046,新規,0,2025-02-12,2025-02-12,株式会社ぷぺのおうち,,株式会社,新潟県,上越市,頸城区姥谷内１４１番地,,15,222,9420112,,,,,,,2025-02-12,1,,,,,プペノオウチ,0
1488,6120001272521,新規,0,2025-02-12,2025-02-12,株式会社Ｒｅｊａｄｅ,,株式会社,大阪府,大阪市中央区,平野町３丁目１番７号日宝平野町セントラルビル３Ｆ７号室,,27,128,5410046,,,,,,,2025-02-12,1,,,,,リジェイド,0
1489,6120001272694,新規,0,2025-02-12,2025-02-12,株式会社三和,,株式会社,大阪府,大阪市東住吉区,湯里５丁目１６番地５号３Ｆ－Ｆ,,27,121,5460013,,,,,,,2025-02-12,1,,,,,サンワ,0
1490,6120001272760,新規,0,2025-02-12,2025-02-12,維楽多株式会社,,株式会社,大阪府,大阪市大正区,三軒家西３丁目４番１６号中山ビル３０３Ａ,,27,108,5510001,,,,,,,2025-02-12,1,,,,,イラクタ,0
1491,6120001272785,新規,0,2025-02-12,2025-02-12,三水株式会社,,株式会社,大阪府,大阪市西成区,鶴見橋３丁目２番１８号,,27,122,5570031,,,,,,,2025-02-12,1,,,,,サンスイ,0
1492,6120001272835,新規,0,2025-02-12,2025-02-12,株式会社ＮＡＹＵ,,株式会社,大阪府,大阪市北区,梅田１丁目２番２号大阪駅前第２ビル１２－１２,,27,127,5300001,,,,,,,2025-02-12,1,,,,,ナユ,0
1494,6120003028582,新規,0,2025-02-12,2025-02-12,しあわせケア福祉合同会社,,合同会社,大阪府,大阪市住之江区,中加賀屋４丁目１－２５－５０３,,27,125,5590017,,,,,,,2025-02-12,1,,,,,シアワセケアフクシ,0
1495,6120101071063,新規,0,2025-02-12,2025-02-12,株式会社竹光建設,,株式会社,大阪府,堺市中区,八田西町２丁７番２３号,,27,142,5998265,,,,,,,2025-02-12,1,,,,,タケミツケンセツ,0
1498,6120901050431,新規,0,2025-02-12,2025-02-12,株式会社テクフジ,,株式会社,大阪府,豊中市,原田元町１丁目８番５の１号,,27,203,5610808,,,,,,,2025-02-12,1,,,,,テクフジ,0
1501,6130003010201,新規,0,2025-02-12,2025-02-12,伎冶商事合同会社,,合同会社,京都府,京都市下京区,七条通油小路東入大黒町２２７番地第２キョートビル４０２,,26,106,6008223,,,,,,,2025-02-12,1,,,,,キヤショウジ,0
1503,6130005017285,新規,0,2025-02-12,2025-02-12,一般社団法人Ｆｏｏｄ　Ｅｘｐｏｒｔ　Ｓｏｌｕｔｉｏｎ　Ｔｅａｍ　ｆｏｒ　Ｃｈｅｆｓ,,その他の設立登記法人,京都府,京都市北区,鞍馬口通室町東入小山町２２５番地の２,,26,101,6038152,,,,,,,2025-02-12,1,,,,,フードエキスポートソリューションチームフォーシェフズ,0
1514,6140005027374,新規,0,2025-02-12,2025-02-12,一般社団法人戎座人形芝居館,,その他の設立登記法人,兵庫県,西宮市,田中町４番９号,,28,204,6620973,,,,,,,2025-02-12,1,,,,,エビスザニンギョウシバイカン,0
1518,6150001027872,新規,0,2025-02-12,2025-02-12,ＯＣＩ株式会社,,株式会社,奈良県,生駒郡三郷町,立野南２丁目１０－７三郷駅前ビル５０７,,29,343,6360822,,,,,,,2025-02-12,1,,,,,オーシーアイ,0
1525,6180001165323,新規,0,2025-02-12,2025-02-12,株式会社楽生,,株式会社,愛知県,名古屋市東区,泉１丁目３番７号,,23,102,4610001,,,,,,,2025-02-12,1,,,,,ライク,0
1526,6180001165406,新規,0,2025-02-12,2025-02-12,ｉＳｔｏｃｋ株式会社,,株式会社,愛知県,名古屋市中区,丸の内２丁目７番２号,,23,106,4600002,,,,,,,2025-02-12,1,,,,,アイストック,0
1527,6180001165414,新規,0,2025-02-12,2025-02-12,株式会社ＭＫグローバル,,株式会社,愛知県,名古屋市港区,小碓２丁目２６２サンシャイン８８・４Ｆ,,23,111,4550801,,,,,,,2025-02-12,1,,,,,エムケーグローバル,0
1532,6190001031978,新規,0,2025-02-12,2025-02-12,株式会社縁家,,株式会社,三重県,伊勢市,神田久志本町１７００番地８,,24,203,5160016,,,,,,,2025-02-12,1,,,,,エンヤ,0
1541,6240003007062,新規,0,2025-02-12,2025-02-12,アザミプランニング合同会社,,合同会社,広島県,広島市西区,己斐上２丁目７４番１０－１０７号,,34,104,7330815,,,,,,,2025-02-12,1,,,,,アザミプランニング,0
1545,6260001039898,新規,0,2025-02-12,2025-02-12,株式会社マーガレット,,株式会社,岡山県,倉敷市,中島１０５５番地４,,33,202,7100803,,,,,,,2025-02-12,1,,,,,マーガレット,0
1551,6290001108741,新規,0,2025-02-12,2025-02-12,康加斯株式会社,,株式会社,福岡県,福岡市西区,愛宕１丁目１７番１２ＰＬＥＡＳＴ愛宕ＩＩＩ４０１号,00137962,40,135,8190015,,,,,,,2025-02-12,1,,,,,コウカシ,0
1552,6290001108915,新規,0,2025-02-12,2025-02-12,株式会社パルアセット,,株式会社,福岡県,福岡市南区,大橋団地４番１７－２０１号フリーディア大橋プレミアム,,40,134,8150038,,,,,,,2025-02-12,1,,,,,パルアセット,0
1553,6290001108923,新規,0,2025-02-12,2025-02-12,株式会社Ｕ．ａｉ,,株式会社,福岡県,福岡市早良区,百道浜１丁目３番７０－１１４１号,,40,137,8140001,,,,,,,2025-02-12,1,,,,,ユードットエーアイ,0
1557,6290801031267,新規,0,2025-02-12,2025-02-12,Ｇ＆Ｓ株式会社,,株式会社,福岡県,北九州市小倉北区,下富野１丁目３番３号,,40,106,8020023,,,,,,,2025-02-12,1,,,,,ジーアンドエス,0
1558,6300001014079,新規,0,2025-02-12,2025-02-12,ＳＡＧＡｎｏＮＥ株式会社,,株式会社,佐賀県,佐賀市,城内１丁目６番１０号,,41,201,8400041,,,,,,,2025-02-12,1,,,,,サガノネ,0
1560,6310001019440,新規,0,2025-02-12,2025-02-12,株式会社政治経済新聞,,株式会社,長崎県,佐世保市,鹿子前町７９７番地１,,42,202,8580922,,,,,,,2025-02-12,1,,,,,セイジケイザイシンブン,0
1561,6310003004944,新規,0,2025-02-12,2025-02-12,花開合同会社,00137972,合同会社,長崎県,長崎市,中小島１丁目２番２０号Ａ１０２,,42,201,8500836,,,,,,,2025-02-12,1,,,,,カーケー,0
1564,6330005010872,新規,0,2025-02-12,2025-02-12,一般社団法人ファームここから,,その他の設立登記法人,熊本県,菊池市,七城町蘇崎１７４２,,43,210,8611344,,,,,,,2025-02-12,1,,,,,ファームココカラ,0
1571,6360003014682,新規,0,2025-02-12,2025-02-12,ＭＩＴＥ合同会社,,合同会社,沖縄県,沖縄市,与儀１丁目１４－８ＳＨマンションマハロ２０１,,47,211,9042174,,,,,,,2025-02-12,1,,,,,マイト,0
1585,6420003003068,新規,0,2025-02-12,2025-02-12,合同会社ＨＫＣ　Ｐｒｏｊｅｃｔ,,合同会社,青森県,平川市,町居西田７番地１５,,02,210,0360114,,,,,,,2025-02-12,1,,,,,エイチケーシープロジェクト,0
1598,6700150129166,新規,0,2025-02-12,2025-02-12,ＨＡＺＡＲＤ　ＬＡＮＫＡ　ＰＶＴ　ＬＴＤ,,外国会社等,長野県,茅野市,宮川１０９１１　平成ハウスＢ,,20,214,3910013,スリランカ民主社会主義共和国、アクラナ、ワラガシンナ、Ｎｏ．４２６／３,,,,,,2025-02-12,1,,,,,ハザードランカプライベートリミテツド,0
1608,7010001252178,新規,0,2025-02-12,2025-02-12,株式会社ｉ．ｃｏｎ,,株式会社,東京都,千代田区,神田和泉町１番地６－１６ヤマトビル４０５,,13,101,1010024,,,,,,,2025-02-12,1,,,,,アイコン,0
1609,7010001252203,新規,0,2025-02-12,2025-02-12,瑞テクノロジー株式会社,,株式会社,東京都,千代田区,外神田２丁目１３番７号,,13,101,1010021,,,,,,,2025-02-12,1,,,,,ズイテクノロジー,0
1610,7010001252277,新規,0,2025-02-12,2025-02-12,東臻株式会社,,株式会社,東京都,千代田区,神田佐久間町３丁目２８星野ビル４階２２号室,,13,101,1010025,,,,,,,2025-02-12,1,,,,,トウシン,0
1611,7010003046363,新規,0,2025-02-12,2025-02-12,合同会社うなぎ化粧品,,合同会社,東京都,中央区,銀座１丁目１２番４号Ｎ＆ＥＢＬＤ．６Ｆ,,13,102,1040061,,,,,,,2025-02-12,1,,,,,エウナギエケショウヒン,0
1612,7010003046371,新規,0,2025-02-12,2025-02-12,合同会社オブノ２号,,合同会社,東京都,千代田区,麹町４丁目３番地２９ＶＯＲＴ紀尾井坂８階,,13,101,1020083,,,,,,,2025-02-12,1,,,,,オブノニゴウ,0
1626,7010401188105,新規,0,2025-02-12,2025-02-12,株式会社Ｄｅｃｕｓ,,株式会社,東京都,港区,白金４丁目１－６－７０１,,13,103,1080072,,,,,,,2025-02-12,1,,,,,デクス,0
1627,7010401188154,新規,0,2025-02-12,2025-02-12,株式会社ＥＹＥｄｅｎｔｉｔｙ,,株式会社,東京都,港区,西新橋１丁目２０番１０号４階,,13,103,1050003,,,,,,,2025-02-12,1,,,,,アイデンティティ,0
1628,7010401188195,新規,0,2025-02-12,2025-02-12,三和情報株式会社,,株式会社,東京都,港区,西新橋２丁目８番２号日欧ビル３Ｆ,,13,103,1050003,,,,,,,2025-02-12,1,,,,,サンワジョウホウ,0
1632,7010403034372,新規,0,2025-02-12,2025-02-12,西久保合同会社,,合同会社,東京都,港区,西新橋１丁目２２番５号６階,,13,103,1050003,,,,,,,2025-02-12,1,,,,,ニシクボ,0
1635,7010501053621,新規,0,2025-02-12,2025-02-12,株式会社ｍｉｍｉｇｏ,,株式会社,東京都,台東区,寿４丁目２番８－７０２号ＬＵＭＩＥＣＡＳＡＫＵＳＡ,,13,106,1110042,,,,,,,2025-02-12,1,,,,,ミミゴ,0
1636,7010601066770,新規,0,2025-02-12,2025-02-12,株式会社ＳＥＩＯＮ,,株式会社,東京都,墨田区,墨田４丁目５５番１６号八広ＨＯＭＥ１０１,,13,107,1310031,,,,,,,2025-02-12,1,,,,,セイオン,0
1637,7010603011378,新規,0,2025-02-12,2025-02-12,ＣＲＥＤＯ合同会社,,合同会社,東京都,江東区,東雲２丁目３番１５－２１２号,,13,108,1350062,,,,,,,2025-02-12,1,,,,,,0
1639,7010703007565,新規,0,2025-02-12,2025-02-12,アリアケ合同会社,,合同会社,東京都,品川区,上大崎３丁目１番１号目黒セントラルスクエア１５階,,13,109,1410021,,,,,,,2025-02-12,1,,,,,アリアケ,0
1646,7010901056793,新規,0,2025-02-12,2025-02-12,株式会社Ｃｅｒｅｎｉｔｙ　Ｉｎｎｏｖａｔｉｏｎ,,株式会社,東京都,世田谷区,松原５丁目３３番５号,,13,112,1560043,,,,,,,2025-02-12,1,,,,,セレニティイノベーション,0
1647,7010901056802,新規,0,2025-02-12,2025-02-12,ｈｅｄｇｅｈｏｇ株式会社,,株式会社,東京都,世田谷区,野毛３丁目６番６号,,13,112,1580092,,,,,,,2025-02-12,1,,,,,ヘッジホッグ,0
1649,7011001167548,新規,0,2025-02-12,2025-02-12,株式会社匠ソフト,,株式会社,東京都,渋谷区,富ヶ谷１丁目１４番１４号３階,,13,113,1510063,,,,,,,2025-02-12,1,,,,,タクミソフト,0
1650,7011001167564,新規,0,2025-02-12,2025-02-12,株式会社ＴＣＦｐｒｏ,,株式会社,東京都,渋谷区,南平台町１３－４－９０１,,13,113,1500036,,,,,,,2025-02-12,1,,,,,ティーシーエフプロ,0
1651,7011001167630,新規,0,2025-02-12,2025-02-12,Ｇｌｏｂａｌ　Ｔｏｋｙｏ株式会社,,株式会社,東京都,渋谷区,宇田川町３７番１４号,,13,113,1500042,,,,,,,2025-02-12,1,,,,,グローバルトーキョー,0
1652,7011001167647,新規,0,2025-02-12,2025-02-12,株式会社ａ．,,株式会社,東京都,渋谷区,広尾１丁目７番２０号,,13,113,1500012,,,,,,,2025-02-12,1,,,,,エードット,0
1653,7011001167655,新規,0,2025-02-12,2025-02-12,株式会社チアメイト,,株式会社,東京都,渋谷区,南平台町３番１３号渋谷ＳＴビル４Ｆ,,13,113,1500036,,,,,,,2025-02-12,1,,,,,チアメイト,0
1654,7011001167688,新規,0,2025-02-12,2025-02-12,株式会社ジェニュインホールディングス,,株式会社,東京都,渋谷区,道玄坂１丁目１０番８号渋谷道玄坂東急ビル２Ｆ－Ｃ,,13,113,1500043,,,,,,,2025-02-12,1,,,,,ジュニュインホールディングス,0
1655,7011001167721,新規,0,2025-02-12,2025-02-12,株式会社ミツケテ,,株式会社,東京都,渋谷区,神南１丁目１１番４号ＦＰＧリンクス神南５階,,13,113,1500041,,,,,,,2025-02-12,1,,,,,ミツケテ,0
1661,7011003020936,新規,0,2025-02-12,2025-02-12,合同会社ＹＭＰａｒｔｎｅｒｓ,,合同会社,東京都,渋谷区,道玄坂１丁目１０番８号渋谷道玄坂東急ビル２Ｆ－Ｃ,,13,113,1500043,,,,,,,2025-02-12,1,,,,,ワイエムパートナーズ,0
1662,7011003020960,新規,0,2025-02-12,2025-02-12,合同会社アメイク,,合同会社,東京都,渋谷区,広尾５丁目１９番２号ＰＩＰＥ２０３,,13,113,1500012,,,,,,,2025-02-12,1,,,,,アメイク,0
1666,7011101110597,新規,0,2025-02-12,2025-02-12,株式会社ＧＯＬＤＥＮ,,株式会社,東京都,新宿区,住吉町３番１１号,,13,104,1620065,,,,,,,2025-02-12,1,,,,,ゴールデン,0
1667,7011103015472,新規,0,2025-02-12,2025-02-12,合同会社ノビシロ,,合同会社,東京都,新宿区,西新宿３丁目３番１３号,,13,104,1600023,,,,,,,2025-02-12,1,,,,,ノビシロ,0
1668,7011103015514,新規,0,2025-02-12,2025-02-12,合同会社ＫＹＭ,,合同会社,東京都,新宿区,新宿７丁目２５－２ＡＸＡＳ新宿ＴＯＷＥＲＳＥＡＳＴ１１０３,,13,104,1600022,,,,,,,2025-02-12,1,,,,,ケイワイエム,0
1669,7011203004607,新規,0,2025-02-12,2025-02-12,合同会社Ｆｒｅｅ　Ｓｅａｓｏｎｓ,,合同会社,東京都,中野区,上鷺宮４丁目１１－９－３０６,,13,114,1650031,,,,,,,2025-02-12,1,,,,,フリーシーズンズ,0
1672,7011501031682,新規,0,2025-02-12,2025-02-12,金勇環保株式会社,,株式会社,東京都,北区,田端新町１丁目７番１４号ビズフィールド西日暮里２０４,,13,117,1140012,,,,,,,2025-02-12,1,,,,,キンユウカンポ,0
1673,7011501031690,新規,0,2025-02-12,2025-02-12,株式会社正宸,,株式会社,東京都,北区,赤羽北１丁目１１－１２,,13,117,1150052,,,,,,,2025-02-12,1,,,,,セイシン,0
1678,7012403006962,新規,0,2025-02-12,2025-02-12,合同会社ＹＯＬＯ,,合同会社,東京都,武蔵野市,桜堤３丁目２－１８,,13,203,1800021,,,,,,,2025-02-12,1,,,,,ヨロ,0
1679,7012703003197,新規,0,2025-02-12,2025-02-12,ＩＴＩ合同会社,,合同会社,東京都,西東京市,南町６丁目１１番２３号,,13,229,1880012,,,,,,,2025-02-12,1,,,,,アイティーアイ,0
1685,7020001161295,新規,0,2025-02-12,2025-02-12,株式会社アールワーク,,株式会社,神奈川県,横浜市鶴見区,矢向１丁目９番１７号リバーサイドパレス１０３,,14,101,2300001,,,,,,,2025-02-12,1,,,,,アールワーク,0
1686,7020001161304,新規,0,2025-02-12,2025-02-12,株式会社すしざんまいサービス,,株式会社,神奈川県,横浜市西区,南幸２丁目１５番４号恩田ビル１階,,14,103,2200005,,,,,,,2025-02-12,1,,,,,スシザンマイサービス,0
1687,7020001161337,新規,0,2025-02-12,2025-02-12,株式会社うどん宗,,株式会社,神奈川県,川崎市多摩区,登戸１８８３番地４グランメール遊園１階,,14,135,2140014,,,,,,,2025-02-12,1,,,,,ウドンムネ,0
1692,7020005016693,新規,0,2025-02-12,2025-02-12,一般社団法人かながわ農福連携推進協会,,その他の設立登記法人,神奈川県,横浜市南区,高根町３丁目１７－１２ＫＳビル内,,14,105,2320022,,,,,,,2025-02-12,1,,,,,,0
1703,7030001164792,新規,0,2025-02-12,2025-02-12,日本サナム株式会社,,株式会社,埼玉県,東松山市,山崎町１番地３１,,11,212,3550033,,,,,,,2025-02-12,1,,,,,ニッポンサナム,0
1704,7030001164818,新規,0,2025-02-12,2025-02-12,株式会社ラスター,,株式会社,埼玉県,上尾市,小泉１丁目１２番地１３,,11,219,3620063,,,,,,,2025-02-12,1,,,,,ラスター,0
1705,7030001164834,新規,0,2025-02-12,2025-02-12,ステイフル株式会社,,株式会社,埼玉県,さいたま市南区,太田窪２丁目７番４号,,11,108,3360015,,,,,,,2025-02-12,1,,,,,ステイフル,0
1708,7030005022039,新規,0,2025-02-12,2025-02-12,特定非営利活動法人わかくさくらぶ,,その他の設立登記法人,埼玉県,所沢市,中富南４丁目２９番地の１４,,11,208,3590003,,,,,,,2025-02-12,1,,,,,ワカクサクラブ,0
1717,7040001137302,新規,0,2025-02-12,2025-02-12,株式会社Ｙ‐ＣｏｎｎｅＸｉ,,株式会社,千葉県,船橋市,西習志野３丁目２６番１２－１０３号,,12,204,2740815,,,,,,,2025-02-12,1,,,,,ワイコネクシー,0
1718,7040001137343,新規,0,2025-02-12,2025-02-12,株式会社くすのき資産総研,,株式会社,千葉県,浦安市,北栄１丁目１２番７－２０２号,,12,227,2790002,,,,,,,2025-02-12,1,,,,,クスノキシサンソウケン,0
1723,7040003026841,新規,0,2025-02-12,2025-02-12,合同会社良心,,合同会社,千葉県,千葉市花見川区,幕張町６丁目３０１番地１８９,,12,102,2620032,,,,,,,2025-02-12,1,,,,,リョウシン,0
1734,7090001019132,新規,0,2025-02-12,2025-02-12,ＭＨホールディングス株式会社,,株式会社,山梨県,甲府市,住吉２丁目４番８号アイダビル４階,,19,201,4000851,,,,,,,2025-02-12,1,,,,,エムエイチホールディングス,0
1735,7100001038287,新規,0,2025-02-12,2025-02-12,株式会社ステーブル軽井沢,,株式会社,長野県,北佐久郡軽井沢町,大字発地２７１番地,,20,321,3890113,,,,,,,2025-02-12,1,,,,,ステーブルカルイザワ,0
1739,7110001039045,新規,0,2025-02-12,2025-02-12,株式会社Ｂｉｚｉｎ,,株式会社,新潟県,三条市,南四日町４丁目８番２０号,,15,204,9550852,,,,,,,2025-02-12,1,,,,,ビジン,0
1743,7110003005656,新規,0,2025-02-12,2025-02-12,合同会社タカノ,,合同会社,新潟県,新潟市西区,鳥原２６５３番地５,,15,107,9501115,,,,,,,2025-02-12,1,,,,,タカノ,0
1748,7120001272693,新規,0,2025-02-12,2025-02-12,栩栩如生株式会社,,株式会社,大阪府,大阪市旭区,千林２丁目１３番７号２０６,,27,117,5350012,,,,,,,2025-02-12,1,,,,,ククジョセイ,0
1749,7120001272776,新規,0,2025-02-12,2025-02-12,株式会社ＨＫ,,株式会社,大阪府,大阪市中央区,安土町２丁目４番１１－３９１７号,,27,128,5410052,,,,,,,2025-02-12,1,,,,,エイチケー,0
1751,7120101071038,新規,0,2025-02-12,2025-02-12,株式会社Ｏｆｆｉｃｅ堀江,,株式会社,大阪府,高石市,西取石１丁目２６番３９号,,27,225,5920012,,,,,,,2025-02-12,1,,,,,オフィスホリエ,0
1757,7120901050430,新規,0,2025-02-12,2025-02-12,株式会社ＴＯＰ塗装,,株式会社,大阪府,箕面市,粟生間谷東７丁目８番１号,,27,220,5620022,,,,,,,2025-02-12,1,,,,,トップトソウ,0
1760,7130001046725,新規,0,2025-02-12,2025-02-12,株式会社建禄,,株式会社,京都府,京都市右京区,山越東町２６番地の１２,,26,108,6168194,,,,,,,2025-02-12,1,,,,,ケンロク,0
1764,7130003010200,新規,0,2025-02-12,2025-02-12,合同会社Ｎｏｎ‐Ｄｏｍａｉｎ,,合同会社,京都府,京都市上京区,下立売通日暮西入中村町５１２－１,,26,102,6028175,,,,,,,2025-02-12,1,,,,,ノンドメイン,0
1770,7140001137358,新規,0,2025-02-12,2025-02-12,株式会社Ｂｕｉｌｄ　Ｔｒｕｓｔ,,株式会社,兵庫県,芦屋市,朝日ケ丘町７番２２－５０２号,,28,206,6590012,,,,,,,2025-02-12,1,,,,,ビルドトラスト,0
1771,7140001137374,新規,0,2025-02-12,2025-02-12,港ダイニング株式会社,,株式会社,兵庫県,神戸市長田区,細田町７丁目１番９号,,28,106,6530835,,,,,,,2025-02-12,1,,,,,ミナトダイニング,0
1772,7140001137382,新規,0,2025-02-12,2025-02-12,株式会社国際人材リンク,,株式会社,兵庫県,小野市,中町３２３番地の２,,28,218,6751332,,,,,,,2025-02-12,1,,,,,コクサイジンザイリンク,0
1785,7180001165405,新規,0,2025-02-12,2025-02-12,株式会社ＥＸＥ,,株式会社,愛知県,名古屋市中区,大須３丁目１０－２４トラスト赤門通ビル４階,,23,106,4600011,,,,,,,2025-02-12,1,,,,,エグゼ,0
1794,7220005008927,新規,0,2025-02-12,2025-02-12,特定非営利活動法人フェアトレードタウン金沢推進委員会,,その他の設立登記法人,石川県,金沢市,北安江３丁目１０番３０号幸ビル１階,,17,201,9200022,,,,,,,2025-02-12,1,,,,,フェアトレードタウンカナザワスイシンイインカイ,0
1798,7240003007061,新規,0,2025-02-12,2025-02-12,合同会社馬の手,,合同会社,広島県,広島市佐伯区,楽々園４丁目７番５号,,34,108,7315136,,,,,,,2025-02-12,1,,,,,ウマノテ,0
1813,7290001108815,新規,0,2025-02-12,2025-02-12,真創株式会社,,株式会社,福岡県,福岡市中央区,今泉２丁目１－７０－８０２号,,40,133,8100021,,,,,,,2025-02-12,1,,,,,シンソウ,0
1814,7290001108906,新規,0,2025-02-12,2025-02-12,株式会社Ｄｒ．Ｋ,,株式会社,福岡県,福岡市中央区,薬院１丁目１２番１０－８０７号,,40,133,8100022,,,,,,,2025-02-12,1,,,,,ドクターケイ,0
1815,7290001108914,新規,0,2025-02-12,2025-02-12,株式会社ｎｉｃｏ　ｐａｒｋ,,株式会社,福岡県,糟屋郡粕屋町,駕与丁２丁目５番１３号ザ・パーク駕与丁１０３号,,40,349,8112309,,,,,,,2025-02-12,1,,,,,ニコパーク,0
1817,7290003016396,新規,0,2025-02-12,2025-02-12,合同会社フォーティワンコネクト,,合同会社,福岡県,福岡市中央区,赤坂２丁目１番３３－４０１号ダイアパレス赤坂,,40,133,8100042,,,,,,,2025-02-12,1,,,,,フォーティワンコネクト,0
1818,7290801031266,新規,0,2025-02-12,2025-02-12,株式会社竜総業,,株式会社,福岡県,北九州市若松区,二島１丁目１番３４－１５０６号,,40,103,8080103,,,,,,,2025-02-12,1,,,,,リュウソウギョウ,0
1819,7310003004943,新規,0,2025-02-12,2025-02-12,花蕊合同会社,,合同会社,長崎県,長崎市,中小島１丁目２番２０号Ａ１０１,,42,201,8500836,,,,,,,2025-02-12,1,,,,,カーリー,0
1823,7360003014681,新規,0,2025-02-12,2025-02-12,ＪＥＮＴ合同会社,,合同会社,沖縄県,沖縄市,与儀１丁目１４－８－２０１,,47,211,9042174,,,,,,,2025-02-12,1,,,,,ジェント,0
1834,7430003017272,新規,0,2025-02-12,2025-02-12,合同会社ＳＡＢＩ,,合同会社,北海道,札幌市中央区,南二条西５丁目３１－１ＲＭＢｌｄ．７０１,,01,101,0600062,,,,,,,2025-02-12,1,,,,,サビ,0
1836,7450001014534,新規,0,2025-02-12,2025-02-12,株式会社クレス,,株式会社,北海道,上川郡美瑛町,北町１丁目１０番５号,,01,459,0710206,,,,,,,2025-02-12,1,,,,,クレス,0
1840,7480001012717,新規,0,2025-02-12,2025-02-12,エイドコード株式会社,,株式会社,徳島県,徳島市,南常三島町２丁目１番地,,36,201,7700814,,,,,,,2025-02-12,1,,,,,エイドコード,0
1845,7700150129165,新規,0,2025-02-12,2025-02-12,Ｓｕｎｏｏ，Ｉｎｃ．,,外国会社等,東京都,港区,北青山１丁目３番１号アールキューブ青山３階,,13,103,1070061,アメリカ合衆国ワシントン州ニューカッスル、エスイー７８通り１４４３２,,,,,,2025-02-12,1,,,,,ソヌインク,0
1852,8010001252037,新規,0,2025-02-12,2025-02-12,ＬＩＦＡＬＩＶＥ．株式会社,,株式会社,東京都,中央区,銀座１丁目１２番４号Ｎ＆ＥＢＬＤ．７階,,13,102,1040061,,,,,,,2025-02-12,1,,,,,ライファライブ,0
1853,8010001252177,新規,0,2025-02-12,2025-02-12,株式会社ｕｄ．Ｊａｐａｎ,,株式会社,東京都,中央区,日本橋３丁目１番３号ｘＢｒｉｄｇｅ－Ｇｌｏｂａｌ４Ｆ,,13,102,1030027,,,,,,,2025-02-12,1,,,,,ユーディージャパン,0
1854,8010001252185,新規,0,2025-02-12,2025-02-12,株式会社Ｇａｍｏｒｙ,,株式会社,東京都,千代田区,丸の内２丁目５－１丸の内二丁目ビル７階,,13,101,1000005,,,,,,,2025-02-12,1,,,,,ガモリー,0
1855,8010001252243,新規,0,2025-02-12,2025-02-12,株式会社ＴＥＡＭ第２２号,,株式会社,東京都,千代田区,丸の内２丁目７番２号,,13,101,1000005,,,,,,,2025-02-12,1,,,,,ティーイーエーエムダイニジュウニゴウ,0
1856,8010001252251,新規,0,2025-02-12,2025-02-12,ＪＡＭ株式会社,,株式会社,東京都,中央区,銀座１丁目１２－４Ｎ＆ＥＢＬＤ．７階,,13,102,1040061,,,,,,,2025-02-12,1,,,,,ジャム,0
1866,8010401187964,新規,0,2025-02-12,2025-02-12,ヘインズジャパン株式会社,,株式会社,東京都,港区,六本木１丁目９番１０号アークヒルズ仙石山森タワー２８階べーカー＆マッケンジー法律事務所（外国法共同事業）内,,13,103,1060032,,,,,,,2025-02-12,1,,,,,ヘインズジャパン,0
1867,8010401188054,新規,0,2025-02-12,2025-02-12,株式会社ＰｌａｙＢｒｉｄｇｅ,,株式会社,東京都,港区,芝５丁目３６番４号札の辻スクエア９階,,13,103,1080014,,,,,,,2025-02-12,1,,,,,プレイブリッジ,0
1868,8010401188070,新規,0,2025-02-12,2025-02-12,株式会社パソナサステナビリティ,,株式会社,東京都,港区,南青山３丁目１番３０号,,13,103,1070062,,,,,,,2025-02-12,1,,,,,パソナサステナビリティ,0
1869,8010401188178,新規,0,2025-02-12,2025-02-12,株式会社ＳＨＩＫＩ　ｄｅｓｉｇｎ,,株式会社,東京都,港区,高輪２丁目２１番３８号大野高輪ビル３Ｆ,,13,103,1080074,,,,,,,2025-02-12,1,,,,,シキデザイン,0
1878,8010601066720,新規,0,2025-02-12,2025-02-12,ＳｈｅｅｐＳｈｉｐ株式会社,,株式会社,東京都,江東区,新木場１丁目１４番地５号,,13,108,1360082,,,,,,,2025-02-12,1,,,,,シープシップ,0
1879,8010601066753,新規,0,2025-02-12,2025-02-12,株式会社拓,,株式会社,東京都,墨田区,両国２丁目６－１２ＯＰビル５０１,,13,107,1300026,,,,,,,2025-02-12,1,,,,,タク,0
1880,8010603011377,新規,0,2025-02-12,2025-02-12,合同会社ＫＭヴィジョン,,合同会社,東京都,江東区,豊洲３丁目６番８－２８０９号,,13,108,1350061,,,,,,,2025-02-12,1,,,,,ケーエムヴィジョン,0
1889,8010905004731,新規,0,2025-02-12,2025-02-12,一般社団法人ワイイーエス,,その他の設立登記法人,東京都,世田谷区,松原６丁目５番２０号,,13,112,1560043,,,,,,,2025-02-12,1,,,,,ワイイーエス,0
1895,8011001167704,新規,0,2025-02-12,2025-02-12,Ｂｅｒａｂｏ　Ｅｎｔｅｒｔａｉｎｍｅｎｔ株式会社,,株式会社,東京都,目黒区,目黒本町４丁目２２番１４号,,13,110,1520002,,,,,,,2025-02-12,1,,,,,ベラボーエンターテインメント,0
1896,8011003020852,新規,0,2025-02-12,2025-02-12,ＭＯＷ合同会社,,合同会社,東京都,渋谷区,広尾４丁目１番１５－２０３号,,13,113,1500012,,,,,,,2025-02-12,1,,,,,エムオーダブリュー,0
1897,8011003020927,新規,0,2025-02-12,2025-02-12,合同会社ＰＨＯＴＩＮＯＳ,,合同会社,東京都,渋谷区,渋谷２丁目１９番１５号宮益坂ビルディング６０９,,13,113,1500002,,,,,,,2025-02-12,1,,,,,フォティノース,0
1898,8011003020935,新規,0,2025-02-12,2025-02-12,Ｕｍｉ＆Ｃｏ．合同会社,,合同会社,東京都,渋谷区,恵比寿西１丁目３５番１１号東急アパートメント代官山タワー３０２,,13,113,1500021,,,,,,,2025-02-12,1,,,,,ウミアンドシーオー,0
1899,8011003020951,新規,0,2025-02-12,2025-02-12,ＡＤＡＮ　ＪＡＰＡＮ合同会社,,合同会社,東京都,渋谷区,代々木５丁目８番６－７０６号,,13,113,1510053,,,,,,,2025-02-12,1,,,,,アダンジャパン,0
1902,8011101110588,新規,0,2025-02-12,2025-02-12,ＡＳＥＮ株式会社,,株式会社,東京都,新宿区,西新宿１丁目２６番２号新宿野村ビル３２階,,13,104,1600023,,,,,,,2025-02-12,1,,,,,アーセン,0
1903,8011101110605,新規,0,2025-02-12,2025-02-12,株式会社すむとこネット,,株式会社,東京都,新宿区,西新宿３丁目３番１３号西新宿水間ビル６階,,13,104,1600023,,,,,,,2025-02-12,1,,,,,スムトコネット,0
1904,8011101110613,新規,0,2025-02-12,2025-02-12,株式会社シング,,株式会社,東京都,新宿区,歌舞伎町１丁目１４番地６号,,13,104,1600021,,,,,,,2025-02-12,1,,,,,シング,0
1907,8011201026115,新規,0,2025-02-12,2025-02-12,株式会社オフィスＫ,,株式会社,東京都,中野区,新井１丁目３７番１０号幸ビル,,13,114,1650026,,,,,,,2025-02-12,1,,,,,オフィスケイ,0
1913,8011503006426,新規,0,2025-02-12,2025-02-12,合同会社ＢｒｉｇｈｔＦｌｏｗ,,合同会社,東京都,北区,田端新町１丁目１４－８,,13,117,1140012,,,,,,,2025-02-12,1,,,,,ブライトフロー,0
1924,8012401042769,新規,0,2025-02-12,2025-02-12,株式会社ＡｐｐＴａｌｅｎｔＨｕｂ,,株式会社,東京都,稲城市,平尾３丁目７－５,,13,225,2060823,,,,,,,2025-02-12,1,,,,,アップタレントハブ,0
1926,8012703003196,新規,0,2025-02-12,2025-02-12,合同会社ＳＴＲＯＮＧ　ＢＯＮＤ,,合同会社,東京都,東久留米市,八幡町２丁目１番５号リブリ・武蔵１０３,,13,222,2030042,,,,,,,2025-02-12,1,,,,,ストロングボンド,0
1937,8020001161204,新規,0,2025-02-12,2025-02-12,株式会社Ｅｄｄａ,,株式会社,神奈川県,横浜市西区,北幸２丁目１０番４８号むつみビル３階,,14,103,2200004,,,,,,,2025-02-12,1,,,,,エッダ,0
1938,8020001161261,新規,0,2025-02-12,2025-02-12,かはくクリエイション株式会社,,株式会社,神奈川県,横浜市中区,本牧町２丁目３１３番７－１０３号,,14,104,2310806,,,,,,,2025-02-12,1,,,,,カハククリエイション,0
1939,8020001161336,新規,0,2025-02-12,2025-02-12,株式会社ウェーブ,,株式会社,神奈川県,横浜市青葉区,新石川４丁目２８番地２２,,14,117,2250003,,,,,,,2025-02-12,1,,,,,ウエーブ,0
1940,8020001161344,新規,0,2025-02-12,2025-02-12,株式会社洋巧社,,株式会社,神奈川県,横浜市金沢区,富岡西３丁目２７番２－２０３号,,14,108,2360052,,,,,,,2025-02-12,1,,,,,ヨウコウシャ,0
1941,8020002011283,新規,0,2025-02-12,2025-02-12,有限会社英進学院,00137878,有限会社,神奈川県,横浜市戸塚区,原宿２丁目１９番１号田辺ビル２階,,14,110,2450063,,,,,,,2025-02-12,1,,,,,エイシンガクイン,0
1943,8020003027725,新規,0,2025-02-12,2025-02-12,グラディテュード合同会社,,合同会社,神奈川県,横浜市保土ケ谷区,新桜ケ丘２丁目５－１２,,14,106,2400036,,,,,,,2025-02-12,1,,,,,グラディテュード,0
1944,8020003027758,新規,0,2025-02-12,2025-02-12,合同会社Ｈｅａｌｔｈ　ｉｓ　ｈａｐｐｉｎｅｓｓ,,合同会社,神奈川県,横浜市保土ケ谷区,峰沢町３２１番地２２,,14,106,2400061,,,,,,,2025-02-12,1,,,,,ヘルスイズハピネス,0
1945,8020003027766,新規,0,2025-02-12,2025-02-12,ウェル・アドバイザリー合同会社,,合同会社,神奈川県,横浜市青葉区,あざみ野南４丁目１４番地１５,,14,117,2250012,,,,,,,2025-02-12,1,,,,,ウェルアドバイザリー,0
1946,8020003027774,新規,0,2025-02-12,2025-02-12,Ｍｏｎｏｃｅｒａ合同会社,,合同会社,神奈川県,横浜市神奈川区,金港町５番地１４クアドリフォリオ８階,,14,102,2210056,,,,,,,2025-02-12,1,,,,,モノセラ,0
1947,8020003027782,新規,0,2025-02-12,2025-02-12,コンサルティング東京合同会社,,合同会社,神奈川県,川崎市川崎区,下並木１１番地５川崎サイトシティＩ番館１４１１,00137963,14,131,2100025,,,,,,,2025-02-12,1,,,,,コンサルティングトウキョウ,0
1951,8021001084460,新規,0,2025-02-12,2025-02-12,ＡＦ　ＩＮＴＥＲＮＡＴＩＯＮＡＬ株式会社,,株式会社,神奈川県,座間市,座間１丁目３０２４番地カオルハイツ１０５号,,14,216,2520027,,,,,,,2025-02-12,1,,,,,エイエフインターナショナル,0
1967,8040001137276,新規,0,2025-02-12,2025-02-12,ＧｏｏｙａｎＭｉｎｄ株式会社,,株式会社,千葉県,松戸市,上本郷２７８９番地ブランドール郷美３０１号,,12,207,2710064,,,,,,,2025-02-12,1,,,,,グーヤンマインド,0
1968,8040001137342,新規,0,2025-02-12,2025-02-12,株式会社アークデンキ工業,,株式会社,千葉県,袖ケ浦市,川原井２０４１番地３３,,12,229,2990201,,,,,,,2025-02-12,1,,,,,アークデンキコウギョウ,0
1969,8040001137350,新規,0,2025-02-12,2025-02-12,株式会社リセンティア,,株式会社,千葉県,柏市,若柴１７８番地４柏の葉キャンパス１４８街区１パークシティ柏の葉キャンパスザ・ゲートタワーウエスト３階Ｖ１３３,,12,217,2770871,,,,,,,2025-02-12,1,,,,,リセンティア,0
1978,8050001056161,新規,0,2025-02-12,2025-02-12,株式会社ＥＡＳＹ　ＧＲＯＵＰ,,株式会社,茨城県,下妻市,下木戸４３９番地４,,08,210,3040028,,,,,,,2025-02-12,1,,,,,イージーグループ,0
1980,8050005013555,新規,0,2025-02-12,2025-02-12,農事組合法人ヨコタ,,その他の設立登記法人,茨城県,土浦市,中高津２丁目８番５号,,08,203,3000815,,,,,,,2025-02-12,1,,,,,ヨコタ,0
1986,8080403005201,新規,0,2025-02-12,2025-02-12,合同会社メディカルアポロ,,合同会社,静岡県,浜松市中央区,小豆餅４丁目１３－１９,,22,138,4338113,,,,,,,2025-02-12,1,,,,,メディカルアポロ,0
1987,8090005007677,新規,0,2025-02-12,2025-02-12,一般社団法人八ヶ岳終活クラブ,,その他の設立登記法人,山梨県,北杜市,長坂町日野２４０番地９,,19,209,4080026,,,,,,,2025-02-12,1,,,,,ヤツガタケシュウカツクラブ,0
1990,8100005013293,新規,0,2025-02-12,2025-02-12,社会保険労務士法人コンビンスアイ,,その他の設立登記法人,長野県,松本市,大手２丁目４番３０号シンフォニア２Ｆ,,20,202,3900874,,,,,,,2025-02-12,1,,,,,コンビンスアイ,0
1992,8110005017186,新規,0,2025-02-12,2025-02-12,一般社団法人ＥＣＯ　ｖｉｌｌａｇｅ　ＳＨＥＬＴＥＲ　ｐｒｏｊｅｃｔ,,その他の設立登記法人,新潟県,阿賀野市,出湯４９８番地,,15,223,9591926,,,,,,,2025-02-12,1,,,,,エコビレッジシェルタープロジェクト,0
2012,8120001272684,新規,0,2025-02-12,2025-02-12,和森株式会社,,株式会社,大阪府,大阪市東住吉区,杭全１丁目１７－１７－５０２号,,27,121,5460002,,,,,,,2025-02-12,1,,,,,ワシン,0
2013,8120001272759,新規,0,2025-02-12,2025-02-12,Ｔｉｇｅｒｌｏｒｄ　ｍｏｔｏｒｓ株式会社,,株式会社,大阪府,大阪市中央区,松屋町９番２０号ローレルステート松屋町４０１Ｃ,,27,128,5420067,,,,,,,2025-02-12,1,,,,,タイガーロードモーターズ,0
2014,8120001272800,新規,0,2025-02-12,2025-02-12,明発株式会社,,株式会社,大阪府,大阪市住吉区,今市遠里小野一丁目６－１５遠里小野マンション４０２号室,,27,120,5580000,,,,,,,2025-02-12,1,,,,,メイハツ,0
2021,8120003028589,新規,0,2025-02-12,2025-02-12,ＲＫ　ＧＲＯＵＰ合同会社,,合同会社,大阪府,大阪市淀川区,塚本２丁目２１番６号３階,,27,123,5320026,,,,,,,2025-02-12,1,,,,,アールケイグループ,0
2025,8120101071020,新規,0,2025-02-12,2025-02-12,株式会社ＭＧ,,株式会社,大阪府,富田林市,久野喜台１丁目２１番１８－５０１号,,27,214,5840074,,,,,,,2025-02-12,1,,,,,エムジー,0
2026,8120101071045,新規,0,2025-02-12,2025-02-12,ＡＴサポート株式会社,,株式会社,大阪府,松原市,天美南１丁目９８番地の９,,27,217,5800033,,,,,,,2025-02-12,1,,,,,エーティーサポート,0
2031,8120903005547,新規,0,2025-02-12,2025-02-12,合同会社ＶＡＬＥＲＥ,,合同会社,大阪府,箕面市,小野原西２丁目１６番４９号,,27,220,5620032,,,,,,,2025-02-12,1,,,,,ヴァレレ,0
2036,8130003010199,新規,0,2025-02-12,2025-02-12,合同会社Ａｒｋ,,合同会社,京都府,京田辺市,興戸塚ノ本３５番地２６,00137966,26,211,6100332,,,,,,,2025-02-12,1,,,,,アーク,0
2041,8140001137365,新規,0,2025-02-12,2025-02-12,株式会社ライフベーシック,,株式会社,兵庫県,姫路市,大塩町９２５番地３,,28,201,6710101,,,,,,,2025-02-12,1,,,,,ライフベーシック,0
2047,8160001026541,新規,0,2025-02-12,2025-02-12,ゼロアートデザイン株式会社,,株式会社,滋賀県,彦根市,正法寺町３７０番地６,,25,202,5220024,,,,,,,2025-02-12,1,,,,,ゼロアートデザイン,0
2054,8230001020743,新規,0,2025-02-12,2025-02-12,パティナギャラリー株式会社,,株式会社,富山県,高岡市,御旅屋町１０１番地御旅屋セリオ４階,,16,202,9330029,,,,,,,2025-02-12,1,,,,,パティナギャラリー,0
2058,8240003007060,新規,0,2025-02-12,2025-02-12,安順合同会社,,合同会社,広島県,広島市西区,小河内町２丁目１４－２０－１０４,,34,104,7330025,,,,,,,2025-02-12,1,,,,,アンジュン,0
2070,8290001108905,新規,0,2025-02-12,2025-02-12,株式会社Ｔ’ｅＮｅＴ,,株式会社,福岡県,飯塚市,大分１６６１番地４６,,40,205,8200712,,,,,,,2025-02-12,1,,,,,ティーネット,0
2071,8290001108938,新規,0,2025-02-12,2025-02-12,株式会社ＡＲＣＡＴＨ,,株式会社,福岡県,福岡市中央区,輝国２丁目２４番５－１号,,40,133,8100032,,,,,,,2025-02-12,1,,,,,アルカス,0
2075,8290003016387,新規,0,2025-02-12,2025-02-12,Ｂｌｉｓｓ合同会社,,合同会社,福岡県,福岡市東区,御島崎２丁目２０番２６－７０５号,,40,131,8130005,,,,,,,2025-02-12,1,,,,,ブリス,0
2076,8290003016395,新規,0,2025-02-12,2025-02-12,ｔｏｗａ合同会社,,合同会社,福岡県,福岡市早良区,室見４丁目２４－２５,,40,137,8140015,,,,,,,2025-02-12,1,,,,,トワ,0
2077,8290801031265,新規,0,2025-02-12,2025-02-12,株式会社坂本工務店,,株式会社,福岡県,田川郡糸田町,北区２７１４番地,,40,604,8221311,,,,,,,2025-02-12,1,,,,,サカモトコウムテン,0
2080,8350001019393,新規,0,2025-02-12,2025-02-12,株式会社山栄重機,,株式会社,宮崎県,えびの市,大字前田２７７番地４,,45,209,8894305,,,,,,,2025-02-12,1,,,,,サンエイジュウキ,0
2082,8360003014680,新規,0,2025-02-12,2025-02-12,ＳＵＮＦＬＯＷＥＲ合同会社,,合同会社,沖縄県,名護市,大中３丁目１０－１８,,47,209,9050017,,,,,,,2025-02-12,1,,,,,サンフラワー,0
2100,8450001014525,新規,0,2025-02-12,2025-02-12,株式会社藤岡農園,,株式会社,北海道,雨竜郡秩父別町,２０２０番地の１０,,01,434,0782100,,,,,,,2025-02-12,1,,,,,フジオカノウエン,0
2101,8470003002807,新規,0,2025-02-12,2025-02-12,合同会社マワリシア,,合同会社,香川県,坂出市,白金町２丁目７番１４号,,37,203,7620042,,,,,,,2025-02-12,1,,,,,マワリシア,0
2104,8500003003438,新規,0,2025-02-12,2025-02-12,合同会社ドトド,,合同会社,愛媛県,松山市,持田町３丁目１番１１号第２レジデンス持田２０５号,,38,201,7900855,,,,,,,2025-02-12,1,,,,,ドトド,0
2115,9010001252151,新規,0,2025-02-12,2025-02-12,株式会社コクリア,,株式会社,東京都,千代田区,神田和泉町１番地６－１６ヤマトビル４０５,,13,101,1010024,,,,,,,2025-02-12,1,,,,,コクリア,0
2116,9010001252176,新規,0,2025-02-12,2025-02-12,株式会社ＬａｎｇＧｅｎｉｕｓ,,株式会社,東京都,中央区,日本橋３丁目６番２号日本橋フロント１階,,13,102,1030027,,,,,,,2025-02-12,1,,,,,ラングジーニアス,0
2120,9010003046287,新規,0,2025-02-12,2025-02-12,合同会社葉山,,合同会社,東京都,千代田区,霞が関３丁目２番５号,,13,101,1000013,,,,,,,2025-02-12,1,,,,,ハヤマ,0
2121,9010003046353,新規,0,2025-02-12,2025-02-12,ｉプロパティ２０合同会社,,合同会社,東京都,千代田区,永田町２丁目１４番２号－３階スリーアイズキャピタル株式会社内,,13,101,1000014,,,,,,,2025-02-12,1,,,,,アイプロパティトゥエンティ,0
2122,9010003046361,新規,0,2025-02-12,2025-02-12,Ｌａｂｙｒｉｎｔｈ　Ｐａｒｔｎｅｒｓ合同会社,,合同会社,東京都,中央区,日本橋横山町７－１０第２７イチオクビル３階３－Ｇ,,13,102,1030003,,,,,,,2025-02-12,1,,,,,ラビリンスパートナーズ,0
2123,9010005039504,新規,0,2025-02-12,2025-02-12,一般財団法人さわかみ未来創造研究所,,その他の設立登記法人,東京都,千代田区,麹町３丁目５番地４麹町インテリジェントビルＢ－１,,13,101,1020083,,,,,,,2025-02-12,1,,,,,サワカミミライソウゾウケンキュウジョ,0
2134,9010401187880,新規,0,2025-02-12,2025-02-12,株式会社Ｊａｐａｎ　Ｃｏｎｓｕｌｔｉｎｇ,,株式会社,東京都,港区,虎ノ門１丁目１番２１号新虎ノ門実業会館５階,,13,103,1050001,,,,,,,2025-02-12,1,,,,,ジャパンコンサルティング,0
2135,9010401187971,新規,0,2025-02-12,2025-02-12,株式会社ひめいコンサルティング,,株式会社,東京都,港区,南青山３丁目１番３６号青山丸竹ビル６Ｆ,,13,103,1070062,,,,,,,2025-02-12,1,,,,,ヒメイコンサルティング,0
2136,9010401188029,新規,0,2025-02-12,2025-02-12,パインリサーチ株式会社,,株式会社,東京都,港区,南青山３丁目１番３６号青山丸竹ビル６Ｆ,,13,103,1070062,,,,,,,2025-02-12,1,,,,,パインリサーチ,0
2137,9010401188144,新規,0,2025-02-12,2025-02-12,ＡＯＨＰ株式会社,,株式会社,東京都,港区,海岸２丁目２番９－２０６号,,13,103,1050022,,,,,,,2025-02-12,1,,,,,エーオーエイチピー,0
2139,9010405024089,新規,0,2025-02-12,2025-02-12,一般社団法人ＴＴＣＦ,,その他の設立登記法人,東京都,港区,虎ノ門３丁目２２番１０－２０１号,,13,103,1050001,,,,,,,2025-02-12,1,,,,,ティーティーシーエフ,0
2146,9010703007571,新規,0,2025-02-12,2025-02-12,ＮａｔＢｅｅ合同会社,,合同会社,東京都,品川区,戸越１丁目１５番地２０号ベルファース戸越スタティオ８０５,,13,109,1420041,,,,,,,2025-02-12,1,,,,,ナットビー,0
2151,9010901056791,新規,0,2025-02-12,2025-02-12,株式会社クリエイティブ・Ｙ,,株式会社,東京都,世田谷区,太子堂４丁目１８番１５号マガザン三軒茶屋２・３Ｆ－３,,13,112,1540004,,,,,,,2025-02-12,1,,,,,クリエイティブワイ,0
2153,9011001167620,新規,0,2025-02-12,2025-02-12,株式会社ＡＳ,,株式会社,東京都,渋谷区,千駄ヶ谷５丁目１４番６号グランドパーク代々木６０４,,13,113,1510051,,,,,,,2025-02-12,1,,,,,エーエス,0
2154,9011001167629,新規,0,2025-02-12,2025-02-12,株式会社ＭＴＴ,,株式会社,東京都,渋谷区,神宮前５丁目１８番７号,,13,113,1500001,,,,,,,2025-02-12,1,,,,,エムティーティー,0
2158,9011101110554,新規,0,2025-02-12,2025-02-12,丹青株式会社,,株式会社,東京都,新宿区,西新宿７丁目７番２３号トミービル４階ＳＳ－ＯＦＦＩＣＥ新宿４号室,,13,104,1600023,,,,,,,2025-02-12,1,,,,,タンセイ,0
2159,9011101110587,新規,0,2025-02-12,2025-02-12,Ｗｅｌｌｒｙ株式会社,,株式会社,東京都,新宿区,西新宿３丁目３番１３号西新宿水間ビル２Ｆ,,13,104,1600023,,,,,,,2025-02-12,1,,,,,ウェルリー,0
2160,9011103015520,新規,0,2025-02-12,2025-02-12,合同会社ＬＩＮＫ,,合同会社,東京都,新宿区,榎町３４－３榎町ビル５階－１２室,,13,104,1620806,,,,,,,2025-02-12,1,,,,,リンク,0
2161,9011201026114,新規,0,2025-02-12,2025-02-12,ＧＣＤ株式会社,,株式会社,東京都,中野区,本町３丁目４番３号徳和ビル２階,,13,114,1640012,,,,,,,2025-02-12,1,,,,,ジーシーディー,0
2162,9011203004605,新規,0,2025-02-12,2025-02-12,合同会社Ｍｏｊｉｄ,,合同会社,東京都,中野区,野方１丁目２８番１５号メゾンドールアパート１０３,,13,114,1650027,,,,,,,2025-02-12,1,,,,,モジド,0
2165,9011401026814,新規,0,2025-02-12,2025-02-12,賞味人生株式会社,,株式会社,東京都,板橋区,板橋２丁目６３番４号ＥＡＳＹＯＦＦＩＣＥ５０１号室,,13,119,1730004,,,,,,,2025-02-12,1,,,,,ショウミジンセイ,0
2169,9011501031689,新規,0,2025-02-12,2025-02-12,株式会社Ｍａｇｉｃ　Ｓｔｏｒｙ,,株式会社,東京都,荒川区,西日暮里２丁目２８－６パークレーン日暮里３０１号室,,13,118,1160013,,,,,,,2025-02-12,1,,,,,マジックストーリー,0
2172,9011601028420,新規,0,2025-02-12,2025-02-12,株式会社ひなた庭苑,,株式会社,東京都,練馬区,錦１丁目２５番２５号,,13,120,1790082,,,,,,,2025-02-12,1,,,,,ヒナタテイエン,0
2175,9013303007537,新規,0,2025-02-12,2025-02-12,宏業合同会社,,合同会社,東京都,豊島区,西巣鴨２丁目２３－２－７０６,,13,116,1700001,,,,,,,2025-02-12,1,,,,,コウギョウ,0
2182,9020001161293,新規,0,2025-02-12,2025-02-12,株式会社バイオタームジャパン,,株式会社,神奈川県,横浜市南区,永田東２丁目３８番１８－３１１号,,14,105,2320072,,,,,,,2025-02-12,1,,,,,バイオタームジャパン,0
2183,9020001161319,新規,0,2025-02-12,2025-02-12,ＢｅＣｏｍｍｉｔ株式会社,,株式会社,神奈川県,横浜市西区,浅間町１丁目４－３ウィザードビル４０２,,14,103,2200072,,,,,,,2025-02-12,1,,,,,ビーコミット,0
2184,9020001161343,新規,0,2025-02-12,2025-02-12,株式会社昭和看板,,株式会社,神奈川県,横浜市都筑区,大熊町１０４番地,,14,118,2240042,,,,,,,2025-02-12,1,,,,,ショウワカンバン,0
2185,9020001161351,新規,0,2025-02-12,2025-02-12,株式会社ＡＮＤＬｕｃｋ,,株式会社,神奈川県,横浜市中区,常磐町二丁目１５番地１モダン関内ビル３０６,,14,104,2310000,,,,,,,2025-02-12,1,,,,,アンドラック,0
2186,9020001161384,新規,0,2025-02-12,2025-02-12,邦威嘉源株式会社,,株式会社,神奈川県,横浜市西区,浅間町３丁目１６８番地２２－２０１号室,,14,103,2200072,,,,,,,2025-02-12,1,,,,,ホウイカゲン,0
2187,9020003027708,新規,0,2025-02-12,2025-02-12,Ｊａｐａｎ　ｙａｃｈｔ　ｍａｎａｇｅｍｅｎｔ合同会社,,合同会社,神奈川県,横浜市神奈川区,金港町５－１４クアドリフォリオ８階,,14,102,2210056,,,,,,,2025-02-12,1,,,,,ジャパンヨットマネジメント,0
2199,9030001164535,新規,0,2025-02-12,2025-02-12,株式会社ＦＪＪ,,株式会社,埼玉県,川口市,大字榛松７５７番地の２,,11,203,3340062,,,,,,,2025-02-12,1,,,,,エフジェージェー,0
2200,9030001164774,新規,0,2025-02-12,2025-02-12,トリプルティ株式会社,,株式会社,埼玉県,熊谷市,久保島１３３－１,,11,202,3600831,,,,,,,2025-02-12,1,,,,,トリプルティ,0
2212,9040003026823,新規,0,2025-02-12,2025-02-12,合同会社伊織,,合同会社,千葉県,市川市,国府台５丁目２６番４２号,,12,203,2720827,,,,,,,2025-02-12,1,,,,,イオリ,0
2213,9040003026831,新規,0,2025-02-12,2025-02-12,ｒｉｆｆ合同会社,,合同会社,千葉県,八街市,朝日５０番地３２,,12,230,2891101,,,,,,,2025-02-12,1,,,,,リフ,0
2220,9050003009018,新規,0,2025-02-12,2025-02-12,ＦＵＴＡＤＯＲＡ商事合同会社,,合同会社,茨城県,つくば市,新牧田１１９－７,,08,220,3050076,,,,,,,2025-02-12,1,,,,,フタドラショウジ,0
2222,9080001026755,新規,0,2025-02-12,2025-02-12,株式会社ワガツナグ,,株式会社,静岡県,静岡市葵区,本通３丁目２５番地さんぶらいと本通り２０６号室,,22,101,4200064,,,,,,,2025-02-12,1,,,,,ワガツナグ,0
2223,9080101025310,新規,0,2025-02-12,2025-02-12,連城則＿株式会社,00137960,株式会社,静岡県,熱海市,熱海１７３９番地３４熱海パサニアクラブ１７０４号室,,22,205,4130033,,,,,,,2025-02-12,1,,,,,レンジョウソクキン,0
2228,9100001038285,新規,0,2025-02-12,2025-02-12,株式会社ＣＯ,,株式会社,長野県,安曇野市,豊科４３３８－２,,20,220,3998205,,,,,,,2025-02-12,1,,,,,シーオー,0
2237,9120001272683,新規,0,2025-02-12,2025-02-12,アレイナ・ネクサス株式会社,,株式会社,大阪府,大阪市東住吉区,杭全１丁目１７－１７－２０２号,,27,121,5460002,,,,,,,2025-02-12,1,,,,,アレイナネクサス,0
2238,9120001272758,新規,0,2025-02-12,2025-02-12,株式会社万美,,株式会社,大阪府,大阪市中央区,島之内２丁目２番２０号白扇ビル２０６号室,,27,128,5420082,,,,,,,2025-02-12,1,,,,,マンミ,0
2239,9120001272766,新規,0,2025-02-12,2025-02-12,株式会社音,,株式会社,大阪府,大阪市西成区,千本中１丁目１２番１８号和らぎ２０３,,27,122,5570054,,,,,,,2025-02-12,1,,,,,オト,0
2240,9120001272774,新規,0,2025-02-12,2025-02-12,株式会社メイクサクセス,,株式会社,大阪府,大阪市中央区,高津１丁目１番４１号,,27,128,5420072,,,,,,,2025-02-12,1,,,,,メイクサクセス,0
2241,9120001272782,新規,0,2025-02-12,2025-02-12,株式会社Ｅｔｏｉｌｅ,,株式会社,大阪府,大阪市浪速区,難波中１丁目１４番８号ｍｏｎａｍｉ３０１号,,27,111,5560011,,,,,,,2025-02-12,1,,,,,エトワール,0
2242,9120001272799,新規,0,2025-02-12,2025-02-12,株式会社ウィンリバー,,株式会社,大阪府,大阪市福島区,玉川１丁目８番１０号,,27,103,5530004,,,,,,,2025-02-12,1,,,,,ウィンリバー,0
2243,9120001272832,新規,0,2025-02-12,2025-02-12,株式会社日進映像研究所,,株式会社,大阪府,大阪市北区,万歳町３－３９－１５０３,,27,127,5300028,,,,,,,2025-02-12,1,,,,,ニッシンエイゾウケンキュウショ,0
2244,9120001272857,新規,0,2025-02-12,2025-02-12,東方株式会社,,株式会社,大阪府,大阪市港区,磯路２丁目５番５号,,27,107,5520003,,,,,,,2025-02-12,1,,,,,トウホウ,0
2245,9120001272881,新規,0,2025-02-12,2025-02-12,株式会社Ｍｅｔａ　ＧＧ,,株式会社,大阪府,大阪市北区,梅田１丁目１‐３大阪駅前第３ビル２９階１‐１‐１号室,,27,127,5300001,,,,,,,2025-02-12,1,,,,,メタジージー,0
2251,9120003028596,新規,0,2025-02-12,2025-02-12,合同会社Ｗｉｓｈ,,合同会社,大阪府,寝屋川市,黒原新町９番１３－５３２号,,27,215,5720059,,,,,,,2025-02-12,1,,,,,ウィッシュ,0
2254,9120101071028,新規,0,2025-02-12,2025-02-12,株式会社白南,,株式会社,大阪府,和泉市,府中町５丁目７番３号,,27,219,5940071,,,,,,,2025-02-12,1,,,,,シロミナミ,0
2255,9120101071036,新規,0,2025-02-12,2025-02-12,芸の愛商務株式会社,,株式会社,大阪府,堺市堺区,旭ヶ丘南町１丁２番２８号,,27,141,5900807,,,,,,,2025-02-12,1,,,,,ゲイノアイショウム,0
2256,9120101071044,新規,0,2025-02-12,2025-02-12,株式会社米田工務店,,株式会社,大阪府,堺市南区,御池台１丁１２番１０号,,27,145,5900134,,,,,,,2025-02-12,1,,,,,ヨネダコウムテン,0
2260,9120901050420,新規,0,2025-02-12,2025-02-12,株式会社グリシーヌ,,株式会社,大阪府,豊中市,中桜塚３丁目３番１７－２０２号,,27,203,5610881,,,,,,,2025-02-12,1,,,,,グリシーヌ,0
2261,9120901050429,新規,0,2025-02-12,2025-02-12,追光株式会社,,株式会社,大阪府,吹田市,江坂町５丁目１１番１０号サンシャイン緑地公園１０４号室,,27,205,5640063,,,,,,,2025-02-12,1,,,,,ツイコウ,0
2263,9122001038890,新規,0,2025-02-12,2025-02-12,株式会社ハクナマタタ,,株式会社,大阪府,大東市,緑が丘２丁目５番２７号,,27,218,5740073,,,,,,,2025-02-12,1,,,,,ハクナマタタ,0
2272,9140003021649,新規,0,2025-02-12,2025-02-12,ブルームクリエイション合同会社,,合同会社,兵庫県,川辺郡猪名川町,若葉２丁目５０番地,,28,301,6660251,,,,,,,2025-02-12,1,,,,,ブルームクリエイション,0
2276,9160003003397,新規,0,2025-02-12,2025-02-12,合同会社秋津,,合同会社,滋賀県,米原市,上丹生６４７（ゲストハウス）,,25,214,5210033,,,,,,,2025-02-12,1,,,,,アキツ,0
2281,9180001165411,新規,0,2025-02-12,2025-02-12,株式会社ｓａｉｎｔ,,株式会社,愛知県,名古屋市中区,栄４丁目４番１５号,,23,106,4600008,,,,,,,2025-02-12,1,,,,,セイント,0
2294,9240001064516,新規,0,2025-02-12,2025-02-12,株式会社エソール２４,,株式会社,広島県,大竹市,油見２丁目６番７号,,34,211,7390612,,,,,,,2025-02-12,1,,,,,エソールトゥエンティフォー,0
2298,9250003003652,新規,0,2025-02-12,2025-02-12,合同会社音のえ,,合同会社,山口県,光市,和田町３０番１６号,,35,210,7430044,,,,,,,2025-02-12,1,,,,,オトノエ,0
2299,9260001039895,新規,0,2025-02-12,2025-02-12,株式会社スズラン,,株式会社,岡山県,岡山市北区,田町２丁目１４－１６ドレミ田町ビル３０２,,33,101,7000825,,,,,,,2025-02-12,1,,,,,スズラン,0
2303,9290001108755,新規,0,2025-02-12,2025-02-12,株式会社ＧＲＥＥＮＢＩＴ,,株式会社,福岡県,福岡市博多区,博多駅前１丁目２３番２号ＰａｒｋＦｒｏｎｔ博多駅前一丁目５Ｆ－Ｂ,,40,132,8120011,,,,,,,2025-02-12,1,,,,,グリーンビット,0
2304,9290001108895,新規,0,2025-02-12,2025-02-12,株式会社フィフティ・プラス,,株式会社,福岡県,福岡市東区,香椎照葉４丁目４番２０－１３０３号パークフロント香椎照葉ＷＥＳＴ,,40,131,8130017,,,,,,,2025-02-12,1,,,,,フィフティプラス,0
2305,9290001108912,新規,0,2025-02-12,2025-02-12,金東株式会社,,株式会社,福岡県,那珂川市,中原５丁目５４番地,,40,231,8111213,,,,,,,2025-02-12,1,,,,,キントウ,0
2306,9290001108929,新規,0,2025-02-12,2025-02-12,株式会社プラスセキュリティ,,株式会社,福岡県,福岡市南区,平和２丁目３番３１号,,40,134,8150071,,,,,,,2025-02-12,1,,,,,プラスセキュリティ,0
2307,9290001108961,新規,0,2025-02-12,2025-02-12,鵬興業株式会社,,株式会社,福岡県,福岡市東区,和白４丁目３番２６号,,40,131,8110202,,,,,,,2025-02-12,1,,,,,オオトリコウギョウ,0
2309,9290003016394,新規,0,2025-02-12,2025-02-12,Ｏｆｆｉｃｅ　Ｋａｚｕ合同会社,,合同会社,福岡県,福岡市中央区,天神２丁目２番１２号Ｔ＆Ｊビルディング７Ｆ,,40,133,8100001,,,,,,,2025-02-12,1,,,,,オフィスカズ,0
2310,9290005019643,新規,0,2025-02-12,2025-02-12,一般財団法人みつこ財団,,その他の設立登記法人,福岡県,福岡市博多区,博多駅前３丁目２５番２４号,,40,132,8120011,,,,,,,2025-02-12,1,,,,,ミツコザイダン,0
2314,9290801031264,新規,0,2025-02-12,2025-02-12,株式会社スカイ,,株式会社,福岡県,北九州市八幡西区,馬場山東１丁目４－２２,,40,109,8071131,,,,,,,2025-02-12,1,,,,,スカイ,0
2317,9310003004941,新規,0,2025-02-12,2025-02-12,合同会社河上サッシガラス店,,合同会社,長崎県,東彼杵郡波佐見町,長野郷５１７－６,,42,323,8593725,,,,,,,2025-02-12,1,,,,,カワカミサッシガラステン,0
2319,9330001032884,新規,0,2025-02-12,2025-02-12,株式会社クレリア,,株式会社,熊本県,熊本市中央区,上水前寺２丁目１９番２０号,,43,101,8620951,,,,,,,2025-02-12,1,,,,,クレリア,0
2321,9330003010797,新規,0,2025-02-12,2025-02-12,合同会社ＫＯＵＮＥＴ．,,合同会社,熊本県,阿蘇郡南小国町,大字満願寺７８０１番地２,,43,423,8692402,,,,,,,2025-02-12,1,,,,,コウネット,0
2324,9360003014688,新規,0,2025-02-12,2025-02-12,アルミン合同会社,,合同会社,沖縄県,中頭郡北中城村,字島袋１５６,,47,327,9012301,,,,,,,2025-02-12,1,,,,,アルミン,0
2329,9420001019014,新規,0,2025-02-12,2025-02-12,株式会社カダルコンサルティング,,株式会社,青森県,八戸市,大字新井田字立石沢１４番地６,,02,203,0310813,,,,,,,2025-02-12,1,,,,,カダルコンサルティング,0
2331,9420003003065,新規,0,2025-02-12,2025-02-12,合同会社丸和建設,,合同会社,青森県,五所川原市,金木町喜良市千苅４６番地,,02,205,0370203,,,,,,,2025-02-12,1,,,,,マルワケンセツ,0
2338,9430001093669,新規,0,2025-02-12,2025-02-12,株式会社祐水,,株式会社,北海道,札幌市北区,屯田七条１０丁目８番２８号,,01,102,0020857,,,,,,,2025-02-12,1,,,,,ユウスイ,0
2340,9450001014532,新規,0,2025-02-12,2025-02-12,株式会社船城商店,,株式会社,北海道,上川郡美瑛町,字美沢中央５８５－１１,,01,459,0710236,,,,,,,2025-02-12,1,,,,,フナシロショウテン,0
2342,9470003002806,新規,0,2025-02-12,2025-02-12,合同会社ＦＲＥＥＤＯＭ,,合同会社,香川県,仲多度郡琴平町,８６１番地１１,,37,403,7660001,,,,,,,2025-02-12,1,,,,,,0
2343,9480005007059,新規,0,2025-02-12,2025-02-12,徳島県ラーメン業協同組合,,その他の設立登記法人,徳島県,徳島市,上吉野町２丁目１６番地の３,,36,201,7700803,,,,,,,2025-02-12,1,,,,,トクシマケンラーメンギョウ,0
2347,9700150129163,新規,0,2025-02-12,2025-02-12,パティヴァラ・エクスポート・プライベート・リミテド,,外国会社等,千葉県,八千代市,八千代台北１２丁目２番２０号千石荘２０１号,,12,221,2760031,ネパール連邦民主共和国トーカ市第４区バニヤタール、カトマンズ,,,,,,2025-02-12,1,,,,,パテイヴアラエクスポートプライベートリミテド,0
2348,9700150129171,新規,0,2025-02-12,2025-02-12,ｓｈｅｎｚｈｅｎｓｈｉｔａｙａｋｅｊｉｙｏｕｘｉａｎｇｏｎｇｓｉ,,外国会社等,,,,,,,,ｓｈｅｎｚｈｅｎｓｈｉｆｕｔｉａｎｑｕｆｕｔｉａｎｊｉｅｄａｏｆｕｓｈａｎｓｈｅｑｕｂｉｎｈｅｄａｄａｏ５０２２ｈａｏｌｉａｎｈｅｇｕａｎｇｃｈａｎｇＡｚｕｏ２２０８Ｗ,,,,,,2025-02-12,1,,,,,シェンジェンシーターヤーコージーヨウシエンゴンスー,0
