sequenceNumber,corporateNumber,process,correct,updateDate,changeDate,name,nameImageId,kind,prefectureName,cityName,streetNumber,addressImageId,prefectureCode,cityCode,postCode,addressOutside,addressOutsideImageId,closeDate,closeCause,successorCorporateNumber,changeCause,assignmentDate,latest,enName,enPrefectureName,enCityName,enAddressOutside,furigana,hihyoji
15,1010001229669,新規,0,2022-09-26,2022-09-26,株式会社成実フィナンシャルアドバイザリー,,株式会社,東京都,千代田区,平河町１丁目３番６号ＴＨＥＨＵＢ半蔵門６１２号室,,13,101,1020093,,,,,,,2022-09-26,1,,,,,ナルミフィナンシャルアドバイザリー,0
16,1010001229677,新規,0,2022-09-26,2022-09-26,エムファクトリー株式会社,,株式会社,東京都,文京区,千石１丁目１番５号ビューハイム千石１０２,,13,105,1120011,,,,,,,2022-09-26,1,,,,,エムファクトリー,0
23,1010005035592,新規,0,2022-09-26,2022-09-26,ジェイコアレジ７ホールディング特定目的会社,,その他の設立登記法人,東京都,千代田区,丸の内３丁目１番１号東京共同会計事務所内,,13,101,1000005,,,,,,,2022-09-26,1,,,,,ジェイコアレジセブンホールディング,0
39,1010401169820,新規,0,2022-09-26,2022-09-26,Ｆａｎｔｒｅｃ株式会社,,株式会社,東京都,港区,芝２丁目２６番６－３０５,,13,103,1050014,,,,,,,2022-09-26,1,,,,,ファントレック,0
40,1010403028553,新規,0,2022-09-26,2022-09-26,イトシキ合同会社,,合同会社,東京都,港区,西麻布４丁目８番３１号レジデンス西麻布４０１,,13,103,1060031,,,,,,,2022-09-26,1,,,,,,0
42,1010501049410,新規,0,2022-09-26,2022-09-26,Ｊ．Ｉ．Ｓ．株式会社,,株式会社,東京都,台東区,台東１丁目２４番１号,,13,106,1100016,,,,,,,2022-09-26,1,,,,,ジェイアイエス,0
45,1010601061892,新規,0,2022-09-26,2022-09-26,株式会社リーロック,,株式会社,東京都,江東区,森下４丁目８番１号サンファースト１０１,,13,108,1350004,,,,,,,2022-09-26,1,,,,,リーロック,0
46,1010603009741,新規,0,2022-09-26,2022-09-26,合同会社Ｈ＆Ｂ,,合同会社,東京都,江東区,豊洲２丁目５番１－５１２号,,13,108,1350061,,,,,,,2022-09-26,1,,,,,エッチアンドビー,0
50,1010701043238,新規,0,2022-09-26,2022-09-26,株式会社Ｈ,,株式会社,東京都,品川区,西品川３丁目２１番８号インザガーデン２０１,,13,109,1410033,,,,,,,2022-09-26,1,,,,,エイチ,0
52,1010703006390,新規,0,2022-09-26,2022-09-26,合同会社ＬＩＦＥ　ＩＳ　ＢＥＡＵＴＩＦＵＬ,,合同会社,東京都,品川区,上大崎３丁目１番３０－２００３号,,13,109,1410021,,,,,,,2022-09-26,1,,,,,ライフイズビューティフル,0
55,1010801033287,新規,0,2022-09-26,2022-09-26,株式会社Ｓｐｏｏｐｙ　Ｐａｒｔｙ,,株式会社,東京都,大田区,南馬込１丁目１５－４－２０２,,13,111,1430025,,,,,,,2022-09-26,1,,,,,スプーピーパーティー,0
59,1011001149881,新規,0,2022-09-26,2022-09-26,株式会社ＫＬＡＮＮＡＤ,,株式会社,東京都,渋谷区,神宮前６丁目２３番４号桑野ビル２階,,13,113,1500001,,,,,,,2022-09-26,1,,,,,クラナド,0
60,1011001149898,新規,0,2022-09-26,2022-09-26,株式会社Ｌｉｎａｍｉｅ,,株式会社,東京都,目黒区,下目黒６丁目１５番１８号,,13,110,1530064,,,,,,,2022-09-26,1,,,,,,0
63,1011503005293,新規,0,2022-09-26,2022-09-26,ＭＩＯ合同会社,,合同会社,東京都,北区,赤羽西１丁目１６番１２号赤羽ＴＰビルＡ棟１１２号室,,13,117,1150055,,,,,,,2022-09-26,1,,,,,ミオ,0
72,1011803005274,新規,0,2022-09-26,2022-09-26,合同会社ＣＯＭＰＡＳＳＩＯＮ　ＳＨＩＦＴ,,合同会社,東京都,葛飾区,立石８丁目５１－１４,,13,122,1240012,,,,,,,2022-09-26,1,,,,,コンパッションシフト,0
73,1012401039664,新規,0,2022-09-26,2022-09-26,株式会社Ｄｅａｒｇｅ,,株式会社,東京都,小金井市,東町４丁目３８番２０号,,13,210,1840011,,,,,,,2022-09-26,1,,,,,ディアージュ,0
76,1013301049704,新規,0,2022-09-26,2022-09-26,株式会社セゾンビジネスサポート,,株式会社,東京都,豊島区,東池袋３丁目１番１号,,13,116,1700013,,,,,,,2022-09-26,1,,,,,セゾンビジネスサポート,0
83,1020001148298,新規,0,2022-09-26,2022-09-26,ＳＯＭＯＳ株式会社,,株式会社,神奈川県,横浜市泉区,上飯田町４６６７番地６ジョイア２０１号,,14,116,2450018,,,,,,,2022-09-26,1,,,,,ソモス,0
86,1020003022435,新規,0,2022-09-26,2022-09-26,合同会社インベスコア,,合同会社,神奈川県,横浜市西区,みなとみらい２丁目３番１号クイーンズタワーＡ４Ｆ４０１,,14,103,2200012,,,,,,,2022-09-26,1,,,,,インベスコア,0
92,1021001077033,新規,0,2022-09-26,2022-09-26,株式会社Ｔｈｒｅｅ　ｌｉｔｔｌｅ　ｂｉｒｄｓ,,株式会社,神奈川県,横須賀市,大滝町２丁目６番地ザ・タワー横須賀中央リドレ３階,,14,201,2380008,,,,,,,2022-09-26,1,,,,,スリーリトルバーズ,0
100,1030001150170,新規,0,2022-09-26,2022-09-26,株式会社トライサービス,,株式会社,埼玉県,さいたま市桜区,西堀４丁目９番７号ペルシャトウ西堀,,11,106,3380832,,,,,,,2022-09-26,1,,,,,トライサービス,0
101,1030001150179,新規,0,2022-09-26,2022-09-26,成田不動産株式会社,,株式会社,埼玉県,川越市,石原町２丁目９番地３,,11,201,3500824,,,,,,,2022-09-26,1,,,,,ナリタフドウサン,0
102,1030001150204,新規,0,2022-09-26,2022-09-26,株式会社エミレイト,,株式会社,埼玉県,越谷市,七左町４丁目４３１番地９,,11,222,3430851,,,,,,,2022-09-26,1,,,,,エミレイト,0
104,1030003020223,新規,0,2022-09-26,2022-09-26,Ｎｅｗ　Ｍｉｒａｉ　Ｉｎｔｅｒｎａｔｉｏｎａｌ合同会社,,合同会社,埼玉県,さいたま市大宮区,三橋２丁目１３１－２,,11,103,3300856,,,,,,,2022-09-26,1,,,,,ニューミライインターナショナル,0
108,1040001125155,新規,0,2022-09-26,2022-09-26,株式会社いっすん,,株式会社,千葉県,野田市,堤根７２番地の３フラワーハイツうめさと１－２０５,,12,208,2780021,,,,,,,2022-09-26,1,,,,,イッスン,0
109,1040003020890,新規,0,2022-09-26,2022-09-26,Ｇｏｏトクモバイル合同会社,,合同会社,千葉県,市川市,富浜２丁目５番４－１０１号,,12,203,2720115,,,,,,,2022-09-26,1,,,,,グートクモバイル,0
110,1040003020899,新規,0,2022-09-26,2022-09-26,合同会社ＨＳＡ,,合同会社,千葉県,市川市,宝１丁目９番６号,,12,203,2720122,,,,,,,2022-09-26,1,,,,,エイチエスエー,0
113,1060001035286,新規,0,2022-09-26,2022-09-26,株式会社Ｎｉｃｏ　ｐｌａｎｎｉｎｇ,,株式会社,栃木県,小山市,城東７丁目１３番１０号,,09,208,3230807,,,,,,,2022-09-26,1,,,,,ニコプランニング,0
115,1070001039641,新規,0,2022-09-26,2022-09-26,ＡＬ　ＳＨＡＨ　ＴＲＡＤＩＮＧ株式会社,,株式会社,群馬県,太田市,細谷町１６９０番地１２,,10,205,3730842,,,,,,,2022-09-26,1,,,,,アルシャートレーディング,0
116,1070001039658,新規,0,2022-09-26,2022-09-26,株式会社ＲＫ　ＴＲＡＤＩＮＧ,,株式会社,群馬県,太田市,尾島町５１０番地ソレーユシャンブル３５４Ａ－１０１号,,10,205,3700401,,,,,,,2022-09-26,1,,,,,アールケイトレーディング,0
117,1070003004627,新規,0,2022-09-26,2022-09-26,合同会社ＢＲＯＷＮ　ＷＯＲＫＳ,,合同会社,群馬県,高崎市,日高町１０３９番地２,,10,202,3700002,,,,,,,2022-09-26,1,,,,,ブラウンワークス,0
138,1120001248988,新規,0,2022-09-26,2022-09-26,株式会社ＨＳメディカル,,株式会社,大阪府,大阪市住之江区,粉浜３丁目１２番１４号,,27,125,5590001,,,,,,,2022-09-26,1,,,,,エイチエスメディカル,0
139,1120001248996,新規,0,2022-09-26,2022-09-26,ヒトトツナグ株式会社,,株式会社,大阪府,大阪市淀川区,野中北１丁目１番７４号,,27,123,5320034,,,,,,,2022-09-26,1,,,,,ヒトトツナグ,0
140,1120001249012,新規,0,2022-09-26,2022-09-26,株式会社Ｓｕｍｍｅｒ　Ｋａｔｅ　Ｌａｕｒｅｎｔ,,株式会社,大阪府,大阪市中央区,久太郎町１丁目７－１１プレサンスレジェンド堺筋本町タワー２５１２号,,27,128,5410056,,,,,,,2022-09-26,1,,,,,サマーケイトローラン,0
141,1120001249037,新規,0,2022-09-26,2022-09-26,株式会社聚豊,,株式会社,大阪府,大阪市中央区,農人橋２丁目１番３１号,,27,128,5400011,,,,,,,2022-09-26,1,,,,,ジュホウ,0
147,1120003022409,新規,0,2022-09-26,2022-09-26,プリューム合同会社,,合同会社,大阪府,大阪市淀川区,西宮原１丁目８番４８号ホワイトハイデンス新大阪５０７,,27,123,5320004,,,,,,,2022-09-26,1,,,,,プリューム,0
148,1120003022524,新規,0,2022-09-26,2022-09-26,合同会社ｒｕｎ,,合同会社,大阪府,寝屋川市,黒原城内町３１番７号（２０７号）,,27,215,5720050,,,,,,,2022-09-26,1,,,,,ラン,0
149,1120003022532,新規,0,2022-09-26,2022-09-26,和満合同会社,,合同会社,大阪府,大阪市此花区,梅香１丁目１９番１２号ボンジュール梅香３０１号室,,27,104,5540013,,,,,,,2022-09-26,1,,,,,ワマン,0
154,1120901046491,新規,0,2022-09-26,2022-09-26,Ｓｈｏｓｅｉ　Ｊａｐａｎ株式会社,,株式会社,大阪府,摂津市,鳥飼野々１丁目２９番４－５号,,27,224,5660053,,,,,,,2022-09-26,1,,,,,ショウセイジャパン,0
159,1130001072660,新規,0,2022-09-26,2022-09-26,株式会社Ｓｔｅｐ’ｓ,,株式会社,京都府,宇治市,広野町９２－３京都建物宇治大久保ビル１Ｆ,,26,204,6110031,,,,,,,2022-09-26,1,,,,,ステップス,0
167,1140001127389,新規,0,2022-09-26,2022-09-26,株式会社Ｏｕｉ,,株式会社,兵庫県,姫路市,安田４丁目４６番地１０,,28,201,6700955,,,,,,,2022-09-26,1,,,,,ウイ,0
168,1140001127447,新規,0,2022-09-26,2022-09-26,株式会社和み,,株式会社,兵庫県,神戸市長田区,宮川町４丁目８番地１号ルネ神戸宮川町さくら坂４０５号,,28,106,6530813,,,,,,,2022-09-26,1,,,,,ナゴミ,0
169,1140001127463,新規,0,2022-09-26,2022-09-26,株式会社西口防水,,株式会社,兵庫県,川西市,加茂２丁目１２番１１号,,28,217,6660025,,,,,,,2022-09-26,1,,,,,ニシグチボウスイ,0
183,1180005019942,新規,0,2022-09-26,2022-09-26,医療法人ホワイト,,その他の設立登記法人,愛知県,知多郡東浦町,大字緒川字寿久茂８８番地,,23,442,4702102,,,,,,,2022-09-26,1,,,,,ホワイト,0
190,1220003003365,新規,0,2022-09-26,2022-09-26,一美合同会社,,合同会社,石川県,羽咋市,志々見町は２０番地,,17,207,9250624,,,,,,,2022-09-26,1,,,,,カズミ,0
207,1290003012970,新規,0,2022-09-26,2022-09-26,合同会社昌起,,合同会社,福岡県,福岡市東区,名島４丁目２６番９－３０８号サンライフ名島,,40,131,8130043,,,,,,,2022-09-26,1,,,,,ショウキ,0
215,1310003004445,新規,0,2022-09-26,2022-09-26,合同会社オフィス空,,合同会社,長崎県,西彼杵郡時津町,浜田郷５５４－６７ホワイトパレス長崎８１６,,42,308,8512102,,,,,,,2022-09-26,1,,,,,オフィスソラ,0
217,1320001019345,新規,0,2022-09-26,2022-09-26,株式会社ヒロ運送,,株式会社,大分県,由布市,挾間町時松４８番地,,44,213,8795524,,,,,,,2022-09-26,1,,,,,ヒロウンソウ,0
223,1350002016149,新規,0,2022-09-26,2022-09-26,有限会社南九州物産,,有限会社,宮崎県,都城市,南鷹尾町１１街区４６号,,45,202,8850082,,,,,,,2022-09-26,1,,,,,,0
226,1360001030991,新規,0,2022-09-26,2022-09-26,株式会社型枠山善,,株式会社,沖縄県,沖縄市,海邦２丁目１６番９号,,47,211,9042162,,,,,,,2022-09-26,1,,,,,カタワクヤマゼン,0
230,1370001049073,新規,0,2022-09-26,2022-09-26,株式会社ｔｏｋｕｓｕｌ,,株式会社,宮城県,石巻市,南中里３丁目１６番３０号,,04,202,9860814,,,,,,,2022-09-26,1,,,,,トクスル,0
243,1480005006919,新規,0,2022-09-26,2022-09-26,医療法人聖生会,,その他の設立登記法人,徳島県,徳島市,南庄町３丁目１２番地６,,36,201,7700045,,,,,,,2022-09-26,1,,,,,ショウセイカイ,0
244,1490001010295,新規,0,2022-09-26,2022-09-26,株式会社三聖工業,,株式会社,高知県,高知市,東雲町４番３６号,,39,201,7810805,,,,,,,2022-09-26,1,,,,,サンセイコウギョウ,0
245,1500005008524,新規,0,2022-09-26,2022-09-26,一般社団法人アライアンス国際人材開発機構,,その他の設立登記法人,愛媛県,今治市,山路５５０番地２,,38,202,7940072,,,,,,,2022-09-26,1,,,,,アライアンスコクサイジンザイカイハツキコウ,0
246,1700150111905,新規,0,2022-09-26,2022-09-26,飯倉三生マンション建替組合,,その他,東京都,千代田区,神田神保町１丁目１０５番地,,13,101,1010051,,,,,,,2022-09-26,1,,,,,イイクラサンセイマンシヨンタテカエクミアイ,0
261,2010001229619,新規,0,2022-09-26,2022-09-26,株式会社Ｋホールディングス,,株式会社,東京都,千代田区,有楽町１丁目２番２号東宝日比谷ビル９階,,13,101,1000006,,,,,,,2022-09-26,1,,,,,ケーホールディングス,0
262,2010001229651,新規,0,2022-09-26,2022-09-26,株式会社ＲａｎｄｙＯｎｅ,,株式会社,東京都,千代田区,九段南４丁目８番３０号アルス市ヶ谷７０８号室,,13,101,1020074,,,,,,,2022-09-26,1,,,,,ランディワン,0
263,2010001229676,新規,0,2022-09-26,2022-09-26,ＰＭ２ＣＭ　Ｊａｐａｎ株式会社,,株式会社,東京都,中央区,銀座１丁目２２番１１号銀座大竹ビジデンス２階,,13,102,1040061,,,,,,,2022-09-26,1,,,,,ピーエムツーシーエムジャパン,0
265,2010003038729,新規,0,2022-09-26,2022-09-26,合同会社でしたか,,合同会社,東京都,中央区,東日本橋１丁目６番１２－３０５号,,13,102,1030004,,,,,,,2022-09-26,1,,,,,デシタカ,0
270,2010401169877,新規,0,2022-09-26,2022-09-26,ＳａｌｅｓＬＩＦＴ株式会社,,株式会社,東京都,港区,港南２丁目１６－２太陽生命品川ビル２８Ｆ,,13,103,1080075,,,,,,,2022-09-26,1,,,,,セールスリフト,0
272,2010403028536,新規,0,2022-09-26,2022-09-26,Ｎｅｋｏｔｏ合同会社,,合同会社,東京都,港区,白金台２丁目２３番１４号,,13,103,1080071,,,,,,,2022-09-26,1,,,,,ネコト,0
274,2010405021381,新規,0,2022-09-26,2022-09-26,医療法人社団幸花はちどり会,,その他の設立登記法人,東京都,港区,赤坂４丁目２番１号ＪＦＢビル２階,,13,103,1070052,,,,,,,2022-09-26,1,,,,,コウカハチドリカイ,0
278,2010601061883,新規,0,2022-09-26,2022-09-26,ＵＥ株式会社,,株式会社,東京都,江東区,大島１丁目２番１号,,13,108,1360072,,,,,,,2022-09-26,1,,,,,ユーイー,0
281,2010603009740,新規,0,2022-09-26,2022-09-26,合同会社ユミエミ,,合同会社,東京都,墨田区,東向島５丁目４番６－１４０３号ステーションプラザメッツ東向島駅前,,13,107,1310032,,,,,,,2022-09-26,1,,,,,ユミエミ,0
289,2010701043237,新規,0,2022-09-26,2022-09-26,株式会社アスリートバリュー,,株式会社,東京都,品川区,上大崎２丁目１５番１９号,,13,109,1410021,,,,,,,2022-09-26,1,,,,,アスリートバリュー,0
301,2011001149848,新規,0,2022-09-26,2022-09-26,株式会社ＮＸコミュニティ,,株式会社,東京都,渋谷区,円山町５番５号Ｎａｖｉ渋谷Ｖ３階,,13,113,1500044,,,,,,,2022-09-26,1,,,,,エヌエックスコミュニティ,0
302,2011001149897,新規,0,2022-09-26,2022-09-26,株式会社Ｈｉｔｃｈ,,株式会社,東京都,渋谷区,代々木２丁目１６番１号宮坂甲斐路ビル６Ｆ,,13,113,1510053,,,,,,,2022-09-26,1,,,,,ヒッチ,0
305,2011101100280,新規,0,2022-09-26,2022-09-26,株式会社イマジナリーワークス,,株式会社,東京都,新宿区,西新宿６丁目２２番１号新宿スクエアタワー２６階,,13,104,1600023,,,,,,,2022-09-26,1,,,,,イマジナリーワークス,0
309,2011501028493,新規,0,2022-09-26,2022-09-26,株式会社山崎ブラザーズ建設事務所,00127920,株式会社,東京都,北区,中十条３丁目２０番１７号,,13,117,1140032,,,,,,,2022-09-26,1,,,,,ヤマザキブラザーズケンセツジムショ,0
317,2012701017261,新規,0,2022-09-26,2022-09-26,株式会社デニケン,,株式会社,東京都,小平市,小川町１丁目１１０９番地,,13,211,1870032,,,,,,,2022-09-26,1,,,,,デニケン,0
327,2020001148289,新規,0,2022-09-26,2022-09-26,株式会社シャフリヤール,,株式会社,神奈川県,横浜市港北区,新横浜３丁目７番地１８,,14,109,2220033,,,,,,,2022-09-26,1,,,,,シャフリヤール,0
328,2020003022442,新規,0,2022-09-26,2022-09-26,合同会社若松屋,,合同会社,神奈川県,川崎市高津区,宇奈根７２０番地７,,14,134,2130031,,,,,,,2022-09-26,1,,,,,ワカマツヤ,0
335,2021001076843,新規,0,2022-09-26,2022-09-26,株式会社エド興業,,株式会社,神奈川県,綾瀬市,落合北３丁目１１５３－１７,,14,218,2521116,,,,,,,2022-09-26,1,,,,,エドコウギョウ,0
336,2021001077049,新規,0,2022-09-26,2022-09-26,株式会社ＲＩＳＥ,,株式会社,神奈川県,秦野市,堀山下６１２番地ラルクアンシェル２０１号,,14,211,2591304,,,,,,,2022-09-26,1,,,,,ライズ,0
338,2021003012169,新規,0,2022-09-26,2022-09-26,サクラファーム合同会社,,合同会社,神奈川県,足柄下郡箱根町,仙石原８１７番地１８９,,14,382,2500631,,,,,,,2022-09-26,1,,,,,サクラファーム,0
343,2030001150145,新規,0,2022-09-26,2022-09-26,株式会社高翔,,株式会社,埼玉県,川口市,並木３丁目８番７号エムザ西川口４０３,,11,203,3320034,,,,,,,2022-09-26,1,,,,,タカショウ,0
344,2030001150178,新規,0,2022-09-26,2022-09-26,株式会社ソフィアトレーディング,,株式会社,埼玉県,川口市,大字芝６３５９番地の３,,11,203,3330866,,,,,,,2022-09-26,1,,,,,ソフィアトレーディング,0
345,2030001150186,新規,0,2022-09-26,2022-09-26,株式会社Ｃｏｔｔｏｎ　Ｃａｎｄｙ,,株式会社,埼玉県,春日部市,梅田１丁目２番１８号,,11,214,3440052,,,,,,,2022-09-26,1,,,,,コットンキャンディ,0
346,2030001150194,新規,0,2022-09-26,2022-09-26,Ｈｏｍｅｒｏｏｏｍ株式会社,,株式会社,埼玉県,さいたま市浦和区,東高砂町４番１４号,,11,107,3300055,,,,,,,2022-09-26,1,,,,,ホームルーム,0
358,2050005013148,新規,0,2022-09-26,2022-09-26,医療法人社団あやべ内科医院,,その他の設立登記法人,茨城県,ひたちなか市,西大島２丁目１２番１４,,08,221,3120041,,,,,,,2022-09-26,1,,,,,アヤベナイカイイン,0
359,2060003004239,新規,0,2022-09-26,2022-09-26,合同会社上野,,合同会社,栃木県,宇都宮市,中央２丁目１－２,,09,201,3200806,,,,,,,2022-09-26,1,,,,,ウエノ,0
362,2070001039657,新規,0,2022-09-26,2022-09-26,株式会社義友,,株式会社,群馬県,邑楽郡大泉町,大字古海６２１番地,,10,524,3700524,,,,,,,2022-09-26,1,,,,,ヨシトモ,0
373,2100001035719,新規,0,2022-09-26,2022-09-26,株式会社ＳＫＹ,,株式会社,長野県,東御市,芸術村９０５－１,,20,219,3890500,,,,,,,2022-09-26,1,,,,,スカイ,0
382,2120001003120,新規,0,2022-09-26,2022-09-26,株式会社カサヤ商店,,株式会社,大阪府,大阪市西成区,花園南１丁目３４番２５号,,27,122,5570015,,,,,,,2022-09-26,1,,,,,カサヤショウテン,0
392,2120001248970,新規,0,2022-09-26,2022-09-26,株式会社アーティザンインターナショナル,,株式会社,大阪府,守口市,文園町６番２８号,,27,209,5700074,,,,,,,2022-09-26,1,,,,,アーティザンインターナショナル,0
393,2120001248987,新規,0,2022-09-26,2022-09-26,株式会社マルルートル,,株式会社,大阪府,大阪市城東区,中央１丁目１２番１７号第一坂本ビル１０３号,,27,118,5360005,,,,,,,2022-09-26,1,,,,,マルルートル,0
394,2120001248995,新規,0,2022-09-26,2022-09-26,株式会社マイビジネス,,株式会社,大阪府,大阪市北区,芝田２丁目８番１１号共栄ビル３階,,27,127,5300012,,,,,,,2022-09-26,1,,,,,マイビジネス,0
395,2120001249011,新規,0,2022-09-26,2022-09-26,Ｍｉｍｏｓａ　Ｊａｐａｎ株式会社,,株式会社,大阪府,大阪市淀川区,西宮原２丁目６番１６号新大阪コーポビアネーズ５３６号室,,27,123,5320004,,,,,,,2022-09-26,1,,,,,ミモサジャパン,0
396,2120001249052,新規,0,2022-09-26,2022-09-26,株式会社ＨＡＣＨＩ,,株式会社,大阪府,大阪市中央区,久太郎町１丁目６番２７号ルクレ堺筋本町レジデンス９０１号室,,27,128,5410056,,,,,,,2022-09-26,1,,,,,ハチ,0
397,2120001249060,新規,0,2022-09-26,2022-09-26,株式会社沃田,,株式会社,大阪府,大阪市中央区,谷町６丁目２番３１－１４０２号,,27,128,5420012,,,,,,,2022-09-26,1,,,,,ヨクデン,0
399,2120003022523,新規,0,2022-09-26,2022-09-26,合同会社かひなた,,合同会社,大阪府,大阪市中央区,高麗橋２丁目１番８－１２０９号,,27,128,5410043,,,,,,,2022-09-26,1,,,,,カヒナタ,0
404,2120105009625,新規,0,2022-09-26,2022-09-26,特定非営利活動法人ぐらんぱ,,その他の設立登記法人,大阪府,堺市北区,百舌鳥陵南町２丁６８０番地,,27,146,5918034,,,,,,,2022-09-26,1,,,,,グランパ,0
433,2210003001559,新規,0,2022-09-26,2022-09-26,合同会社光君,,合同会社,福井県,敦賀市,松原町１８番７号,,18,202,9140806,,,,,,,2022-09-26,1,,,,,ヒカルキミ,0
434,2230001019527,新規,0,2022-09-26,2022-09-26,第一ファーム株式会社,,株式会社,富山県,南砺市,高堀８番地,,16,210,9391511,,,,,,,2022-09-26,1,,,,,ダイイチファーム,0
444,2290001098994,新規,0,2022-09-26,2022-09-26,株式会社ＳＡＮＤＯ,,株式会社,福岡県,久留米市,中央町１１－１第１田中ビル２階,,40,203,8300023,,,,,,,2022-09-26,1,,,,,サンド,0
447,2290003012978,新規,0,2022-09-26,2022-09-26,合同会社ＥＮＰＡＮ,,合同会社,福岡県,福岡市博多区,住吉４丁目３０番１８－１１０号セジュール住吉,,40,132,8120018,,,,,,,2022-09-26,1,,,,,エンパン,0
453,2320001019328,新規,0,2022-09-26,2022-09-26,株式会社ＷＨＥＲＥＡＢＯＵＴＳ,,株式会社,大分県,大分市,金池町２丁目４－２杉野ビル１０６,,44,201,8700026,,,,,,,2022-09-26,1,,,,,ウェアバウツ,0
460,2340001025043,新規,0,2022-09-26,2022-09-26,株式会社リトルコンシェルＰｌｕｓ,,株式会社,鹿児島県,志布志市,志布志町志布志３丁目３番１４号,,46,221,8997103,,,,,,,2022-09-26,1,,,,,リトルコンシェルプラス,0
464,2360003012319,新規,0,2022-09-26,2022-09-26,合同会社ＹＹ,,合同会社,沖縄県,中頭郡中城村,字新垣３１１番地,,47,328,9012422,,,,,,,2022-09-26,1,,,,,ワイワイ,0
465,2370001049080,新規,0,2022-09-26,2022-09-26,株式会社ＳＡＡＤ,,株式会社,宮城県,仙台市泉区,北高森８番地の９,,04,105,9813202,,,,,,,2022-09-26,1,,,,,サード,0
470,2460003000916,新規,0,2022-09-26,2022-09-26,合同会社ひがし北海道フードサービス,,合同会社,北海道,釧路市,新川町７番１４号,,01,206,0850047,,,,,,,2022-09-26,1,,,,,ヒガシホッカイドウフードサービス,0
471,2460101007251,新規,0,2022-09-26,2022-09-26,株式会社とかち楽農技研,,株式会社,北海道,帯広市,東十条南５丁目５番地１８,,01,207,0800810,,,,,,,2022-09-26,1,,,,,トカチラクノウギケン,0
472,2460103001483,新規,0,2022-09-26,2022-09-26,合同会社帯広商店,,合同会社,北海道,帯広市,西九条南１５丁目２番６号,,01,207,0800019,,,,,,,2022-09-26,1,,,,,オビヒロショウテン,0
480,2700150111598,新規,0,2022-09-26,2022-09-02,奥銀谷地域自治協議会,,その他,兵庫県,朝来市,生野町新町１１８５,,28,225,6793321,,,,,,,2022-09-02,1,,,,,オクガナヤチイキジチキヨウギカイ,0
481,2700150111904,新規,0,2022-09-26,2022-09-26,Ｃａｔｗａｌｋ　Ｅｎｔｅｒｐｒｉｓｅ　Ｉｎｔｅｒｎａｔｉｏｎａｌ,,外国会社等,長崎県,佐世保市,大岳台町２５－１４,,42,202,8571163,アメリカ合衆国バージニア州ノーフォークメイソン郡クリーク通り２３５０３,,,,,,2022-09-26,1,,,,,キヤツトウオークエンタープライズインターナシヨナル,0
489,3010001229642,新規,0,2022-09-26,2022-09-26,株式会社青々,,株式会社,東京都,中央区,銀座３丁目１１番３号,,13,102,1040061,,,,,,,2022-09-26,1,,,,,アオアオ,0
490,3010001229667,新規,0,2022-09-26,2022-09-26,株式会社アディクトシステムズ,,株式会社,東京都,中央区,日本橋小網町３番１８号,,13,102,1030016,,,,,,,2022-09-26,1,,,,,アディクトシステムズ,0
491,3010001229675,新規,0,2022-09-26,2022-09-26,株式会社ＳＫＹ,,株式会社,東京都,千代田区,神田錦町３丁目２番地,,13,101,1010054,,,,,,,2022-09-26,1,,,,,エスケーワイ,0
495,3010003038736,新規,0,2022-09-26,2022-09-26,ＰＤＣ　ＢＲＡＮＤＳジャパン合同会社,,合同会社,東京都,千代田区,丸の内２丁目３－２郵船ビルディング１階,,13,101,1000005,,,,,,,2022-09-26,1,,,,,ピーディーシーブランズジャパン,0
497,3010005035590,新規,0,2022-09-26,2022-09-26,Ｎｅｗ　Ｂｒｉｄｇｅ特定目的会社,,その他の設立登記法人,東京都,千代田区,丸の内３丁目１番１号東京共同会計事務所内,,13,101,1000005,,,,,,,2022-09-26,1,,,,,ニューブリッジ,0
503,3010401169876,新規,0,2022-09-26,2022-09-26,ＳＫＧ株式会社,,株式会社,東京都,港区,南青山６丁目８番６号,,13,103,1070062,,,,,,,2022-09-26,1,,,,,エスケージー,0
504,3010403028411,新規,0,2022-09-26,2022-09-26,ＦｌｕｔｔｅｒＷｏｒｋｓ合同会社,,合同会社,東京都,港区,南青山２丁目２番１５号,,13,103,1070062,,,,,,,2022-09-26,1,,,,,フラッターワークス,0
507,3010501049400,新規,0,2022-09-26,2022-09-26,株式会社ＷＯＲＬＤ　ＡＵＣＴＩＯＮ,,株式会社,東京都,台東区,上野５丁目８番１３号３Ｆ,,13,106,1100005,,,,,,,2022-09-26,1,,,,,ワールドオークション,0
514,3010601061882,新規,0,2022-09-26,2022-09-26,株式会社Ｇｌａｎｚ　ｃｏｍｐａｎｙ,,株式会社,東京都,江東区,南砂７丁目４番６号パークサイド飯島３０３,,13,108,1360076,,,,,,,2022-09-26,1,,,,,グランツカンパニー,0
515,3010601061890,新規,0,2022-09-26,2022-09-26,Ｋ‐ＧＲＯＵＰ株式会社,,株式会社,東京都,墨田区,江東橋３丁目３番５号スミワートビル１０１,,13,107,1300022,,,,,,,2022-09-26,1,,,,,ケーグループ,0
516,3010601061899,新規,0,2022-09-26,2022-09-26,Ｒｅｄｏｎｎｅｒ株式会社,,株式会社,東京都,江東区,越中島２丁目１０番１０号稲田ビル２階,,13,108,1350044,,,,,,,2022-09-26,1,,,,,リドナー,0
517,3010701043236,新規,0,2022-09-26,2022-09-26,株式会社アイティエステック,,株式会社,東京都,品川区,大井１丁目６番３号,,13,109,1400014,,,,,,,2022-09-26,1,,,,,アイティエステック,0
533,3011001149905,新規,0,2022-09-26,2022-09-26,株式会社ＧｒｏｏｖｙＤａｙｓ,,株式会社,東京都,目黒区,大橋２丁目４番８－２０１号ＮＫ渋谷コータース,,13,110,1530044,,,,,,,2022-09-26,1,,,,,グルービーデイズ,0
534,3011003015428,新規,0,2022-09-26,2022-09-26,合同会社ダイセイ,,合同会社,東京都,渋谷区,本町５丁目６番４号,,13,113,1510071,,,,,,,2022-09-26,1,,,,,,0
537,3011101100271,新規,0,2022-09-26,2022-09-26,株式会社ビクスダイニング,,株式会社,東京都,新宿区,西新宿８丁目４番７号,,13,104,1600023,,,,,,,2022-09-26,1,,,,,ビクスダイニング,0
552,3012403005596,新規,0,2022-09-26,2022-09-26,合同会社ハコノソト,,合同会社,東京都,武蔵野市,西久保１丁目３５番１１号,,13,203,1800013,,,,,,,2022-09-26,1,,,,,ハコノソト,0
558,3013301049710,新規,0,2022-09-26,2022-09-26,株式会社サイダー,,株式会社,東京都,豊島区,東池袋３丁目１９－１０－１９０９,,13,116,1700013,,,,,,,2022-09-26,1,,,,,サイダー,0
561,3020001148288,新規,0,2022-09-26,2022-09-26,株式会社Ｍ＆Ｙ　ＹＯＫＯＨＡＭＡ,,株式会社,神奈川県,横浜市旭区,善部町６９番地,,14,112,2410823,,,,,,,2022-09-26,1,,,,,エムアンドワイヨコハマ,0
562,3020001148296,新規,0,2022-09-26,2022-09-26,前島保育株式会社,,株式会社,神奈川県,横浜市旭区,鶴ケ峰２丁目６３－１０,,14,112,2410022,,,,,,,2022-09-26,1,,,,,マエジマホイク,0
563,3020003022433,新規,0,2022-09-26,2022-09-26,合同会社日本動物医療サービス,,合同会社,神奈川県,川崎市宮前区,宮崎５丁目１４番地１３プレミスト宮崎台２０１,,14,136,2160033,,,,,,,2022-09-26,1,,,,,ニホンドウブツイリョウサービス,0
567,3021001076966,新規,0,2022-09-26,2022-09-26,サテライトビレッジ株式会社,,株式会社,神奈川県,横須賀市,浦賀１丁目８番５号,,14,201,2390822,,,,,,,2022-09-26,1,,,,,サテライトビレッッジ,0
568,3021001077048,新規,0,2022-09-26,2022-09-26,株式会社光伸フロア,,株式会社,神奈川県,相模原市南区,麻溝台８丁目２５番３４号,,14,153,2520328,,,,,,,2022-09-26,1,,,,,コウシンフロア,0
569,3021003012168,新規,0,2022-09-26,2022-09-26,合同会社エムアールサービス,,合同会社,神奈川県,藤沢市,下土棚４３５－２－４０４,00127919,14,205,2520807,,,,,,,2022-09-26,1,,,,,エムアールサービス,0
573,3030001150177,新規,0,2022-09-26,2022-09-26,株式会社Ｍ‐ＴＥＣＨ,,株式会社,埼玉県,和光市,白子２丁目１１番１－２０１号,,11,229,3510101,,,,,,,2022-09-26,1,,,,,エムテック,0
574,3030001150202,新規,0,2022-09-26,2022-09-26,株式会社Ｐ’ｓ　ｃｏｌｏｎｙ,,株式会社,埼玉県,坂戸市,芦山町１３番地６,,11,239,3500273,,,,,,,2022-09-26,1,,,,,ピーズコロニー,0
576,3030003020238,新規,0,2022-09-26,2022-09-26,金佳商事合同会社,,合同会社,埼玉県,川口市,並木４丁目２番１８－７１２号プロシード西川口,,11,203,3320034,,,,,,,2022-09-26,1,,,,,ジンカショウジ,0
577,3030003020246,新規,0,2022-09-26,2022-09-26,合同会社フェリシア,,合同会社,埼玉県,吉川市,大字保５１番地１,,11,243,3420041,,,,,,,2022-09-26,1,,,,,フェリシア,0
588,3040003020897,新規,0,2022-09-26,2022-09-26,合同会社こどもみらい研究所,,合同会社,千葉県,市川市,曽谷８丁目１３番６号,,12,203,2720832,,,,,,,2022-09-26,1,,,,,コドモミライケンキュウショ,0
592,3050001051704,新規,0,2022-09-26,2022-09-26,株式会社海老澤商店,,株式会社,茨城県,那珂郡東海村,舟石川駅西４丁目１番１８号,,08,341,3191116,,,,,,,2022-09-26,1,,,,,エビサワショウテン,0
601,3070001039664,新規,0,2022-09-26,2022-09-26,株式会社Ａｃｔａｒｉｓｅ,,株式会社,群馬県,邑楽郡邑楽町,大字狸塚１３２７番地１,,10,525,3700613,,,,,,,2022-09-26,1,,,,,アクタライズ,0
620,3120001248961,新規,0,2022-09-26,2022-09-26,株式会社ＭＯＣＬ,,株式会社,大阪府,大阪市東淀川区,東中島２丁目９番１５号,,27,114,5330033,,,,,,,2022-09-26,1,,,,,エムオーシーエル,0
621,3120001248986,新規,0,2022-09-26,2022-09-26,Ｎａｖｉｓ　Ｐｒｏｏｆ株式会社,,株式会社,大阪府,寝屋川市,香里南之町９番１４号ＡＺＴＯ香里園Ｂ,,27,215,5720084,,,,,,,2022-09-26,1,,,,,ナビスプルーフ,0
622,3120001249002,新規,0,2022-09-26,2022-09-26,Ｂ＆Ａ株式会社,,株式会社,大阪府,大阪市東淀川区,瑞光１丁目２番１４号,,27,114,5330005,,,,,,,2022-09-26,1,,,,,ビーアンドエイ,0
623,3120001249010,新規,0,2022-09-26,2022-09-26,バタフライ株式会社,,株式会社,大阪府,大阪市天王寺区,城南寺町３番２２号ファミール三燈３０２号,,27,109,5430017,,,,,,,2022-09-26,1,,,,,バタフライ,0
624,3120001249019,新規,0,2022-09-26,2022-09-26,新奥琳特株式会社,,株式会社,大阪府,大阪市中央区,松屋町９番２０号ローレルステート松屋町６０６Ｂ,,27,128,5420067,,,,,,,2022-09-26,1,,,,,シンオクリントク,0
625,3120001249035,新規,0,2022-09-26,2022-09-26,株式会社千年ＵＤＯＮ,,株式会社,大阪府,枚方市,堂山３丁目３４－１６,,27,210,5730007,,,,,,,2022-09-26,1,,,,,センネンウドン,0
626,3120001249043,新規,0,2022-09-26,2022-09-26,ＢＯＡＴ　ＬＩＦＥ株式会社,,株式会社,大阪府,大阪市港区,築港４丁目７番４号,,27,107,5520021,,,,,,,2022-09-26,1,,,,,ボートライフ,0
627,3120001249076,新規,0,2022-09-26,2022-09-26,株式会社ＴＡＫＡＯＫＡ,,株式会社,大阪府,大阪市住吉区,東粉浜３丁目１番５号,,27,120,5580051,,,,,,,2022-09-26,1,,,,,タカオカ,0
631,3120003022530,新規,0,2022-09-26,2022-09-26,ＧＭＲ合同会社,,合同会社,大阪府,大阪市淀川区,西中島１丁目１５番４－６０７号,,27,123,5320011,,,,,,,2022-09-26,1,,,,,ジーエムアール,0
635,3120101066248,新規,0,2022-09-26,2022-09-26,栄久株式会社,,株式会社,大阪府,泉大津市,条南町３－２６－２０１,,27,206,5950016,,,,,,,2022-09-26,1,,,,,エイキュウ,0
645,3140001127429,新規,0,2022-09-26,2022-09-26,Ａｌｌａｍａｎｄａ株式会社,,株式会社,兵庫県,神戸市東灘区,向洋町中６丁目９番,,28,101,6580032,,,,,,,2022-09-26,1,,,,,アラマンダ,0
647,3140003018139,新規,0,2022-09-26,2022-09-26,合同会社ＰＦＣ,,合同会社,兵庫県,尼崎市,塚口本町１丁目１３番５号２０２号,,28,202,6610001,,,,,,,2022-09-26,1,,,,,ピーエフシー,0
648,3140005026321,新規,0,2022-09-26,2022-09-26,一般社団法人ほぼちの,,その他の設立登記法人,兵庫県,神戸市西区,神出町紫合７４番地の５,,28,111,6512334,,,,,,,2022-09-26,1,,,,,ホボチノ,0
662,3180001153108,新規,0,2022-09-26,2022-09-26,株式会社ｃｈｉｐｉｅ,,株式会社,愛知県,名古屋市西区,市場木町３７６番地（グランビル上小田井１０５号）,,23,104,4520805,,,,,,,2022-09-26,1,,,,,シピ,0
666,3180003024281,新規,0,2022-09-26,2022-09-26,合同会社ソーラ,,合同会社,愛知県,名古屋市千種区,星が丘山手１１５番地,,23,101,4640808,,,,,,,2022-09-26,1,,,,,ソーラ,0
672,3180303005452,新規,0,2022-09-26,2022-09-26,まほろば合同会社,,合同会社,愛知県,岡崎市,矢作町字末広４４番地２,,23,202,4440943,,,,,,,2022-09-26,1,,,,,マホロバ,0
673,3190001029777,新規,0,2022-09-26,2022-09-26,株式会社ベースデザイン,,株式会社,三重県,いなべ市,大安町平塚５６８番地２,,24,214,5110273,,,,,,,2022-09-26,1,,,,,ベースデザイン,0
687,3240001060388,新規,0,2022-09-26,2022-09-26,株式会社ニクラヤ,,株式会社,広島県,三原市,小坂町１３０６番地,,34,204,7230131,,,,,,,2022-09-26,1,,,,,ニクラヤ,0
710,3370001049071,新規,0,2022-09-26,2022-09-26,株式会社アパッチ,,株式会社,宮城県,仙台市若林区,中倉２丁目２５番７号,,04,103,9840821,,,,,,,2022-09-26,1,,,,,アパッチ,0
712,3370005010533,新規,0,2022-09-26,2022-09-26,一般社団法人東北を明るくする仙台ストリートピアノ協会,,その他の設立登記法人,宮城県,仙台市青葉区,新坂町１６番７号,,04,101,9810934,,,,,,,2022-09-26,1,,,,,トウホクヲアカルクスルセンダイストリートピアノキョウカイ,0
724,3460003000915,新規,0,2022-09-26,2022-09-26,合同会社釧路商店,,合同会社,北海道,釧路市,文苑４丁目２７番９号ドミール文苑１０１,,01,206,0850063,,,,,,,2022-09-26,1,,,,,クシロショウテン,0
725,3460101007250,新規,0,2022-09-26,2022-09-26,株式会社帯広宅建開発企画,,株式会社,北海道,帯広市,西八条南１５丁目４番地,,01,207,0800018,,,,,,,2022-09-26,1,,,,,オビヒロタッケンカイハツキカク,0
729,3700150111597,新規,0,2022-09-26,2022-09-02,広島県コンクリート診断士会,,その他,広島県,広島市中区,東千田町２丁目３－２６,,34,101,7300053,,,,,,,2022-09-02,1,,,,,ヒロシマケンコンクリートシンダンシカイ,0
730,3700150111903,新規,0,2022-09-26,2022-09-26,南城市つきしろＩＣ南土地区画整理組合,,その他,沖縄県,南城市,佐敷字新里１８７０番地,,47,215,9011412,,,,,,,2022-09-26,1,,,,,ナンジヨウシツキシロインターチエンジミナミトチクカクセイリクミアイ,0
750,4010601061881,新規,0,2022-09-26,2022-09-26,株式会社ｐｒｉｍｅ,,株式会社,東京都,江東区,富岡１丁目１３番６号,,13,108,1350047,,,,,,,2022-09-26,1,,,,,プライム,0
752,4010603009739,新規,0,2022-09-26,2022-09-26,ラキベンチャー合同会社,,合同会社,東京都,江東区,豊洲６丁目２番２９号,,13,108,1350061,,,,,,,2022-09-26,1,,,,,ラキベンチャー,0
758,4010901051574,新規,0,2022-09-26,2022-09-26,ダブルセット株式会社,,株式会社,東京都,世田谷区,松原６丁目５番２０号,,13,112,1560043,,,,,,,2022-09-26,1,,,,,ダブルセット,0
760,4010903007657,新規,0,2022-09-26,2022-09-26,ＪＲＥ合同会社,,合同会社,東京都,世田谷区,弦巻２丁目３番２１号,,13,112,1540016,,,,,,,2022-09-26,1,,,,,ジェイアールイー,0
765,4011001149912,新規,0,2022-09-26,2022-09-26,株式会社ＳＡＹ,,株式会社,東京都,渋谷区,恵比寿西１丁目８番４号,,13,113,1500021,,,,,,,2022-09-26,1,,,,,エスエーワイ,0
766,4011001149920,新規,0,2022-09-26,2022-09-26,株式会社ラッドキャリアコンサルティング,,株式会社,東京都,目黒区,中目黒４丁目８－８,,13,110,1530061,,,,,,,2022-09-26,1,,,,,,0
767,4011001149937,新規,0,2022-09-26,2022-09-26,株式会社ヒューマン,,株式会社,東京都,渋谷区,神宮前２丁目２番１９号１Ｆ,,13,113,1500001,,,,,,,2022-09-26,1,,,,,ヒューマン,0
768,4011003015427,新規,0,2022-09-26,2022-09-26,ＵＮ‐ＲＥＣＯＲＤ合同会社,,合同会社,東京都,渋谷区,桜丘町４－１４ＶＯＲＴ渋谷桜丘ビル５Ｆ,,13,113,1500031,,,,,,,2022-09-26,1,,,,,アンレコード,0
769,4011005009749,新規,0,2022-09-26,2022-09-26,神宮外苑前税理士法人,,その他の設立登記法人,東京都,渋谷区,神宮前３丁目１番３０号,,13,113,1500001,,,,,,,2022-09-26,1,,,,,ジングウガイエンマエ,0
772,4011101100270,新規,0,2022-09-26,2022-09-26,株式会社Ｂｅｌｌｅ,,株式会社,東京都,新宿区,市谷台町２番１号,,13,104,1620066,,,,,,,2022-09-26,1,,,,,ベル,0
775,4011103012191,新規,0,2022-09-26,2022-09-26,Ｎｅｗｈｅｒｅ　Ｊａｐａｎ合同会社,,合同会社,東京都,新宿区,西新宿３丁目３番１３号西新宿水間ビル６Ｆ,,13,104,1600023,,,,,,,2022-09-26,1,,,,,ニューヒアジャパン,0
780,4011501028491,新規,0,2022-09-26,2022-09-26,Ｍ＆Ｍ　Ｃｏｎｓｕｌｔａｎｔｓ株式会社,,株式会社,東京都,北区,滝野川４丁目６番５号,,13,117,1140023,,,,,,,2022-09-26,1,,,,,エムアンドエムコンサルタンツ,0
781,4011701025636,新規,0,2022-09-26,2022-09-26,株式会社Ｒｅむすびケア,,株式会社,東京都,江戸川区,平井４丁目１３番１３号１階１０１号室,,13,123,1320035,,,,,,,2022-09-26,1,,,,,リムスビケア,0
803,4020001148279,新規,0,2022-09-26,2022-09-26,株式会社Ｎｅｘｔ　Ｆｒｏｎｔｉｅｒ,,株式会社,神奈川県,横浜市泉区,中田東１丁目１６－２０,,14,116,2450013,,,,,,,2022-09-26,1,,,,,ネクストフロンティア,0
805,4020003022449,新規,0,2022-09-26,2022-09-26,合同会社パークインターナショナル,,合同会社,神奈川県,川崎市川崎区,浜町２丁目７－２、１階,,14,131,2100851,,,,,,,2022-09-26,1,,,,,パークインターナショナル,0
808,4021001077047,新規,0,2022-09-26,2022-09-26,株式会社ザ・ボーズ,,株式会社,神奈川県,相模原市南区,東林間８丁目７番３４号,,14,153,2520311,,,,,,,2022-09-26,1,,,,,ザボーズ,0
816,4030001150192,新規,0,2022-09-26,2022-09-26,株式会社咲,,株式会社,埼玉県,川口市,元郷２丁目１５番１－４３０５号,,11,203,3320011,,,,,,,2022-09-26,1,,,,,サキ,0
819,4030003020187,新規,0,2022-09-26,2022-09-26,Ｍｕｓｈｒｏｏｍ合同会社,,合同会社,埼玉県,和光市,白子３丁目２６－８プルメリアＣ１０１,,11,229,3510101,,,,,,,2022-09-26,1,,,,,マッシュルーム,0
820,4030003020229,新規,0,2022-09-26,2022-09-26,合同会社ＭＩＺＵＮＯＴＯ,,合同会社,埼玉県,越谷市,花田４丁目２番地７,,11,222,3430015,,,,,,,2022-09-26,1,,,,,ミズノト,0
821,4030003020237,新規,0,2022-09-26,2022-09-26,大平合同会社,,合同会社,埼玉県,八潮市,大字南川崎２９８－１－２０３室,,11,234,3400814,,,,,,,2022-09-26,1,,,,,タイヘイ,0
822,4040001125094,新規,0,2022-09-26,2022-09-26,株式会社ＴＳＵＭＯＭＡＲＵ　ＦＡＣＴＯＲＹ,,株式会社,千葉県,市川市,市川２丁目３１番１６－４０６号（プラウド市川大門通り）,,12,203,2720034,,,,,,,2022-09-26,1,,,,,ツモマルファクトリー,0
823,4040001125160,新規,0,2022-09-26,2022-09-26,株式会社グローイングアイランズ,,株式会社,千葉県,浦安市,北栄１丁目１番３号柳内ビル３階,,12,227,2790002,,,,,,,2022-09-26,1,,,,,グローイングアイランズ,0
824,4040001125185,新規,0,2022-09-26,2022-09-26,株式会社エッセンス,,株式会社,千葉県,船橋市,習志野台８丁目２５番１９号,,12,204,2740063,,,,,,,2022-09-26,1,,,,,エッセンス,0
827,4040003020888,新規,0,2022-09-26,2022-09-26,合同会社ＴＡＫＵＭＵ,,合同会社,千葉県,千葉市若葉区,桜木北２丁目１２番１４号,,12,104,2640029,,,,,,,2022-09-26,1,,,,,タクム,0
829,4050001051711,新規,0,2022-09-26,2022-09-26,株式会社ウエノアセツトマネジメント,,株式会社,茨城県,水戸市,見川２丁目７１番地の１ポレスター水戸見川７０３号,,08,201,3100912,,,,,,,2022-09-26,1,,,,,ウエノアセツトマネジメント,0
834,4100001035717,新規,0,2022-09-26,2022-09-26,株式会社Ｚｅｒｏ１,,株式会社,長野県,中野市,大字中野２５７番地,,20,211,3830013,,,,,,,2022-09-26,1,,,,,ゼロワン,0
839,4110003004867,新規,0,2022-09-26,2022-09-26,合同会社ｇｒｅｅｎ３６,,合同会社,新潟県,十日町市,木落６８４－３,,15,210,9480304,,,,,,,2022-09-26,1,,,,,グリーンサム,0
845,4120001249001,新規,0,2022-09-26,2022-09-26,ＭＩＣ株式会社,,株式会社,大阪府,大阪市福島区,吉野４丁目９番１８－７０５号,,27,103,5530006,,,,,,,2022-09-26,1,,,,,エムアイシー,0
846,4120001249018,新規,0,2022-09-26,2022-09-26,正晟株式会社,,株式会社,大阪府,大阪市中央区,島之内２丁目９番２１号ユイットメゾン３０１号,,27,128,5420082,,,,,,,2022-09-26,1,,,,,セイセイ,0
847,4120001249042,新規,0,2022-09-26,2022-09-26,株式会社ｍｉｍａ．Ｄ．ｌａｂ,,株式会社,大阪府,大阪市港区,夕凪２丁目１８番５号朝潮ビル６Ｆ,,27,107,5520004,,,,,,,2022-09-26,1,,,,,ミマデラボ,0
848,4120001249059,新規,0,2022-09-26,2022-09-26,株式会社ｏｐｔｉｏｎ,,株式会社,大阪府,大阪市西区,西本町１丁目１３番１４号９Ｆ,,27,106,5500005,,,,,,,2022-09-26,1,,,,,オプション,0
850,4120003022505,新規,0,2022-09-26,2022-09-26,合同会社ＺＩＮ,,合同会社,大阪府,大阪市生野区,新今里３丁目２２番１９号サンハイツ今里５０３,,27,116,5440001,,,,,,,2022-09-26,1,,,,,ジン,0
853,4120101066263,新規,0,2022-09-26,2022-09-26,株式会社ＳｙＦＴ,,株式会社,大阪府,和泉市,葛の葉町３丁目５番８８号,,27,219,5940081,,,,,,,2022-09-26,1,,,,,シフト,0
859,4130003008180,新規,0,2022-09-26,2022-09-26,Ｃｅｆｉａ合同会社,,合同会社,京都府,亀岡市,千歳町千歳泉垣内２４番,,26,206,6210002,,,,,,,2022-09-26,1,,,,,セフィア,0
865,4140001127428,新規,0,2022-09-26,2022-09-26,日本経和経営株式会社,,株式会社,兵庫県,神戸市東灘区,向洋町中６丁目９番,,28,101,6580032,,,,,,,2022-09-26,1,,,,,ニホンケイワケイエイ,0
866,4140001127444,新規,0,2022-09-26,2022-09-26,株式会社ＮＩＮ,,株式会社,兵庫県,神戸市長田区,菅原通７丁目４８番,,28,106,6530015,,,,,,,2022-09-26,1,,,,,ニン,0
868,4140003018146,新規,0,2022-09-26,2022-09-26,ＳＭＩＬＥＳ３合同会社,,合同会社,兵庫県,神戸市中央区,磯辺通１丁目１番２０号ＫＯＷＡビル１階１１３号室,,28,110,6510084,,,,,,,2022-09-26,1,,,,,スマイルズスリー,0
870,4170001017287,新規,0,2022-09-26,2022-09-26,株式会社繋ホーム,,株式会社,和歌山県,和歌山市,有本２３９番地１エル有本２０３,,30,201,6408390,,,,,,,2022-09-26,1,,,,,ツナグホーム,0
878,4180303005451,新規,0,2022-09-26,2022-09-26,合同会社雲白,,合同会社,愛知県,豊田市,若林西町空池２４番地３,,23,211,4730917,,,,,,,2022-09-26,1,,,,,ウンパイ,0
884,4220001025045,新規,0,2022-09-26,2022-09-26,Ｐｒｉｍａｒｙ株式会社,,株式会社,石川県,金沢市,神宮寺２丁目１５番４号,,17,201,9200806,,,,,,,2022-09-26,1,,,,,プライマリー,0
903,4290001098992,新規,0,2022-09-26,2022-09-26,株式会社ＯＢＬＥＡＤ,,株式会社,福岡県,福岡市西区,姪の浜１丁目１３番９－８０１号サムティ姪浜リトス,,40,135,8190002,,,,,,,2022-09-26,1,,,,,オブリード,0
913,4330001030125,新規,0,2022-09-26,2022-09-26,株式会社Ｔｏｎｔｔｕ,,株式会社,熊本県,合志市,須屋１４８６番地２,,43,216,8611102,,,,,,,2022-09-26,1,,,,,トントゥ,0
918,4360001031005,新規,0,2022-09-26,2022-09-26,Ｃｏｃｏ　Ｐｒｏｐｅｒｔｙ　Ｄｅｖｅｌｏｐｍｅｎｔ＆Ｍａｎａｇｅｍｅｎｔ株式会社,,株式会社,沖縄県,中頭郡読谷村,字瀬名波６７８番地３ＷｈｉｔｅＨｏｕｓｅ,,47,324,9040325,,,,,,,2022-09-26,1,,,,,ココプロパティディベロップメントアンドマネジメント,0
928,4430001087535,新規,0,2022-09-26,2022-09-26,株式会社ファイブフラッグス,,株式会社,北海道,札幌市中央区,南六条西１２丁目７６１番地５オランジュリー６１２－３０１号,,01,101,0640806,,,,,,,2022-09-26,1,,,,,ファイブフラッグス,0
930,4430003014289,新規,0,2022-09-26,2022-09-26,合同会社近藤一希建築設計,,合同会社,北海道,札幌市北区,新川五条１６丁目６番５号,,01,102,0010925,,,,,,,2022-09-26,1,,,,,コンドウイッキケンチクセッケイ,0
931,4440003001484,新規,0,2022-09-26,2022-09-26,合同会社函館商店,,合同会社,北海道,函館市,湯川町２丁目２７番１５号レジオンス湯の川１０１,,01,202,0420932,,,,,,,2022-09-26,1,,,,,ハコダテショウテン,0
935,4470003002257,新規,0,2022-09-26,2022-09-26,合同会社ディゼウス,,合同会社,香川県,丸亀市,三条町６９４番地７,,37,202,7630094,,,,,,,2022-09-26,1,,,,,ディゼウス,0
937,4500002015660,新規,0,2022-09-26,2022-09-26,有限会社ノムラ,,有限会社,愛媛県,新居浜市,徳常町７番５２号,,38,205,7920022,,,,,,,2022-09-26,1,,,,,ノムラ,0
957,5010003038701,新規,0,2022-09-26,2022-09-26,アクティブリーシング２０号合同会社,,合同会社,東京都,千代田区,麹町４丁目７番２号,,13,101,1020083,,,,,,,2022-09-26,1,,,,,アクティブリーシングニジュウゴウ,0
958,5010105002183,新規,0,2022-09-26,2022-09-26,一般社団法人共栄会,,その他の設立登記法人,東京都,八王子市,宮下町９８３番地,,13,201,1920005,,,,,,,2022-09-26,1,,,,,キョウエイカイ,0
973,5010503006728,新規,0,2022-09-26,2022-09-26,合同会社オッケー,,合同会社,東京都,台東区,上野６丁目１６番１６号黒田ビル２階２０１号室,,13,106,1100005,,,,,,,2022-09-26,1,,,,,オッケー,0
976,5010601061880,新規,0,2022-09-26,2022-09-26,嘉盛株式会社,,株式会社,東京都,墨田区,横川３丁目６番７号３－Ａ,,13,107,1300003,,,,,,,2022-09-26,1,,,,,カセイ,0
977,5010603009738,新規,0,2022-09-26,2022-09-26,合同会社ＭｏｉｓｔＶｉｌｌａｇｅ,,合同会社,東京都,江東区,豊洲５丁目１－１３－３４０６,,13,108,1350061,,,,,,,2022-09-26,1,,,,,モイストヴィレッジ,0
981,5010701043250,新規,0,2022-09-26,2022-09-26,株式会社ｆｉｆｔｙ　ｎｕｒｓｅ,,株式会社,東京都,品川区,平塚３丁目１番２１－１００４号,,13,109,1420051,,,,,,,2022-09-26,1,,,,,フィフティナース,0
986,5010901051672,新規,0,2022-09-26,2022-09-26,株式会社シッテル,,株式会社,東京都,世田谷区,桜上水４丁目１６番５号グリュックスクレー１０２,,13,112,1560045,,,,,,,2022-09-26,1,,,,,シッテル,0
995,5011001149886,新規,0,2022-09-26,2022-09-26,株式会社Ｕプラス,,株式会社,東京都,目黒区,平町１丁目５番９号,,13,110,1520032,,,,,,,2022-09-26,1,,,,,ユープラス,0
996,5011001149903,新規,0,2022-09-26,2022-09-26,株式会社ｍｅｅｋ　ａｓ,,株式会社,東京都,渋谷区,千駄ヶ谷５丁目５番１０号,,13,113,1510051,,,,,,,2022-09-26,1,,,,,ミークアス,0
1004,5011105010416,新規,0,2022-09-26,2022-09-26,一般社団法人全国業者連合会,,その他の設立登記法人,東京都,新宿区,西落合１丁目２５番２号ソアブールＭ西落合４０１,,13,104,1610031,,,,,,,2022-09-26,1,,,,,ゼンコクギョウシャレンゴウカイ,0
1009,5011403003773,新規,0,2022-09-26,2022-09-26,Ｍａｙ　Ｌａｂ．合同会社,,合同会社,東京都,板橋区,大山西町２番６－１３０１号,,13,119,1730033,,,,,,,2022-09-26,1,,,,,メイラボ,0
1025,5013301049691,新規,0,2022-09-26,2022-09-26,株式会社ＤＭＦ,,株式会社,東京都,豊島区,巣鴨１丁目７番６号東邦アネックス２Ｆ,,13,116,1700002,,,,,,,2022-09-26,1,,,,,ディーエムエフ,0
1033,5020001148278,新規,0,2022-09-26,2022-09-26,株式会社ロ,,株式会社,神奈川県,川崎市多摩区,枡形３丁目５番１９－５２０号,,14,135,2140032,,,,,,,2022-09-26,1,,,,,ロ,0
1035,5020003022448,新規,0,2022-09-26,2022-09-26,ＴＯＰ　ＯＮＥ　ＴＲＡＤＩＮＧ　ＣＯＭＰＡＮＹ合同会社,,合同会社,神奈川県,横浜市南区,真金町２丁目１８番４７号,,14,105,2320021,,,,,,,2022-09-26,1,,,,,トップワントレーディングカンパニー,0
1039,5021001077038,新規,0,2022-09-26,2022-09-26,ＬＥＩ・ＢＲＯＴＨＥＲＳ株式会社,,株式会社,神奈川県,鎌倉市,梶原５丁目８番４号,,14,204,2470063,,,,,,,2022-09-26,1,,,,,レイブラザーズ,0
1044,5030001150167,新規,0,2022-09-26,2022-09-26,株式会社ソンテ,,株式会社,埼玉県,入間市,豊岡１丁目４番３５号１３０４,,11,225,3580003,,,,,,,2022-09-26,1,,,,,ソンテ,0
1045,5030001150183,新規,0,2022-09-26,2022-09-26,ナノトラル株式会社,,株式会社,埼玉県,鶴ヶ島市,大字中新田１４９４番地９,,11,241,3502226,,,,,,,2022-09-26,1,,,,,ナノトラル,0
1048,5030003020186,新規,0,2022-09-26,2022-09-26,ＴＵＮＧ　ＡＮＨ合同会社,,合同会社,埼玉県,坂戸市,日の出町３３－３日の出町ビル２Ｆ,,11,239,3500225,,,,,,,2022-09-26,1,,,,,トウンアン,0
1055,5040001125168,新規,0,2022-09-26,2022-09-26,ベストパートナーズ株式会社,,株式会社,千葉県,松戸市,五香１丁目１０番地の１９,,12,207,2702213,,,,,,,2022-09-26,1,,,,,ベストパートナーズ,0
1061,5050003006877,新規,0,2022-09-26,2022-09-26,ＲＡＺＺＡＱ　ＴＲＡＤＩＮＧ合同会社,,合同会社,茨城県,古河市,東山田１６０１番地２－１階２号室,,08,204,3060112,,,,,,,2022-09-26,1,,,,,ラザクトレーディング,0
1067,5070001039654,新規,0,2022-09-26,2022-09-26,株式会社Ｊアシスト,,株式会社,群馬県,前橋市,宮地町４３番地,,10,201,3710814,,,,,,,2022-09-26,1,,,,,ジェイアシスト,0
1069,5070005010041,新規,0,2022-09-26,2022-09-26,一般社団法人あなたの生き方働き方応援団,,その他の設立登記法人,群馬県,伊勢崎市,三室町３６５５番地２４,,10,204,3792235,,,,,,,2022-09-26,1,,,,,アナタノイキカタハタラキカタオウエンダン,0
1080,5100001035708,新規,0,2022-09-26,2022-09-26,ライフニーズ株式会社,,株式会社,長野県,飯山市,南町２５番地１２,,20,213,3892254,,,,,,,2022-09-26,1,,,,,ライフニーズ,0
1093,5120001248984,新規,0,2022-09-26,2022-09-26,株式会社まっさいちゅう,,株式会社,大阪府,大阪市住之江区,安立１丁目５番２８号,,27,125,5590003,,,,,,,2022-09-26,1,,,,,マッサイチュウ,0
1094,5120001249009,新規,0,2022-09-26,2022-09-26,翰波株式会社,,株式会社,大阪府,大阪市東成区,深江北３丁目４番２１号エクラ深江橋２１５Ａ,,27,115,5370001,,,,,,,2022-09-26,1,,,,,カンパ,0
1095,5120001249017,新規,0,2022-09-26,2022-09-26,非凡株式会社,,株式会社,大阪府,大阪市中央区,森ノ宮中央２丁目１１－６シュライン森ノ宮１０１号,,27,128,5400003,,,,,,,2022-09-26,1,,,,,ヒボン,0
1096,5120003022545,新規,0,2022-09-26,2022-09-26,合同会社オオサコ,,合同会社,大阪府,大阪市北区,梅田１丁目２番２号大阪駅前第２ビル１２―１２,,27,127,5300001,,,,,,,2022-09-26,1,,,,,オオサコ,0
1097,5120101066238,新規,0,2022-09-26,2022-09-26,株式会社Ｔ‐ｇｉｆｔ,,株式会社,大阪府,河内長野市,喜多町４９番地の１３,,27,216,5860033,,,,,,,2022-09-26,1,,,,,ティーギフト,0
1098,5120101066262,新規,0,2022-09-26,2022-09-26,ティ・ワークス株式会社,,株式会社,大阪府,松原市,大堀２丁目１６番３０号,,27,217,5800006,,,,,,,2022-09-26,1,,,,,ティワークス,0
1102,5130001072525,新規,0,2022-09-26,2022-09-26,Ｃｐｏｉｎｔ株式会社,,株式会社,京都府,京都市西京区,桂稲荷山町３１－２１－３Ｆ,,26,111,6158025,,,,,,,2022-09-26,1,,,,,シーポイント,0
1106,5140001127427,新規,0,2022-09-26,2022-09-26,株式会社イセヤ薬局,,株式会社,兵庫県,神戸市兵庫区,東山町１丁目２番４号,,28,105,6520042,,,,,,,2022-09-26,1,,,,,イセヤヤッキョク,0
1107,5140001127451,新規,0,2022-09-26,2022-09-26,株式会社舟坂商事,,株式会社,兵庫県,三木市,別所町西這田５６７番地の７３,,28,215,6730445,,,,,,,2022-09-26,1,,,,,フナサカショウジ,0
1108,5140001127468,新規,0,2022-09-26,2022-09-26,株式会社サンサント,,株式会社,兵庫県,神戸市東灘区,青木２丁目１０－２０－１０７,,28,101,6580027,,,,,,,2022-09-26,1,,,,,サンサント,0
1113,5140003018145,新規,0,2022-09-26,2022-09-26,エラクション合同会社,,合同会社,兵庫県,川西市,平野１丁目２５－３－２－１０１,,28,217,6660121,,,,,,,2022-09-26,1,,,,,エラクション,0
1116,5150001025828,新規,0,2022-09-26,2022-09-26,株式会社和心み,,株式会社,奈良県,奈良市,神殿町６１０番地の７,,29,201,6308441,,,,,,,2022-09-26,1,,,,,ナゴミ,0
1118,5160003002675,新規,0,2022-09-26,2022-09-26,合同会社ＢＩＷＡＫＯＬＡＢＯ,,合同会社,滋賀県,大津市,打出浜１３－２２－１０１,,25,201,5200806,,,,,,,2022-09-26,1,,,,,ビワコラボ,0
1130,5180303005450,新規,0,2022-09-26,2022-09-26,アカリヤアドバイザリー合同会社,,合同会社,愛知県,刈谷市,南桜町１丁目７２番地１アルバックスタワー刈谷駅前９０３号,,23,210,4480841,,,,,,,2022-09-26,1,,,,,アカリヤアドバイザリー,0
1135,5200001040466,新規,0,2022-09-26,2022-09-26,パックスソーラー株式会社,,株式会社,岐阜県,恵那市,長島町中野１２１２番地１,,21,210,5097205,,,,,,,2022-09-26,1,,,,,パックスソーラー,0
1140,5220001025044,新規,0,2022-09-26,2022-09-26,株式会社モノコトワークス,,株式会社,石川県,金沢市,西念１丁目４番１１号三翠ビル２０６号,,17,201,9200024,,,,,,,2022-09-26,1,,,,,モノコトワークス,0
1145,5240001060386,新規,0,2022-09-26,2022-09-26,ＫＭ株式会社,,株式会社,広島県,広島市西区,大芝１丁目１６番１９号,,34,104,7330001,,,,,,,2022-09-26,1,,,,,ケイエム,0
1149,5260001015132,新規,0,2022-09-26,2022-09-26,株式会社吉富呉服店,,株式会社,岡山県,倉敷市,幸町１１番３０号,,33,202,7100051,,,,,,,2022-09-26,1,,,,,,0
1166,5320003003913,新規,0,2022-09-26,2022-09-26,阿南リース合同会社,,合同会社,大分県,大分市,大字三芳１１９０－１グランドアーク４０３,,44,201,8700030,,,,,,,2022-09-26,1,,,,,アナンリース,0
1173,5340003003911,新規,0,2022-09-26,2022-09-26,合同会社ｇｒａｃｅ　ｕｐ,,合同会社,鹿児島県,日置市,東市来町湯田２７９５番地,,46,216,8992201,,,,,,,2022-09-26,1,,,,,グレイスアップ,0
1175,5350003004173,新規,0,2022-09-26,2022-09-26,合同会社サンワテック,,合同会社,宮崎県,宮崎市,大塚台西２丁目３０番地７,,45,201,8802105,,,,,,,2022-09-26,1,,,,,サンワテック,0
1178,5360003012324,新規,0,2022-09-26,2022-09-26,Ｏｃｅａｎ　Ｂｌｕｅ合同会社,,合同会社,沖縄県,宮古島市,平良字下里３９６番地１,,47,214,9060013,,,,,,,2022-09-26,1,,,,,オーシャンブルー,0
1180,5370001049078,新規,0,2022-09-26,2022-09-26,ランドマス株式会社,,株式会社,宮城県,名取市,名取が丘１丁目１７番８－３号,,04,207,9811235,,,,,,,2022-09-26,1,,,,,ランドマス,0
1188,5430001087492,新規,0,2022-09-26,2022-09-26,株式会社ナビオン,,株式会社,北海道,札幌市中央区,南一条西１６丁目１番地３２３春野ビル３Ｆ,,01,101,0600061,,,,,,,2022-09-26,1,,,,,ナビオン,0
1189,5430001087518,新規,0,2022-09-26,2022-09-26,株式会社ＲＯＫＵＧＯＵＢＡＳＥ,,株式会社,北海道,札幌市中央区,北二条西２６丁目１番１８－１０２号,,01,101,0640822,,,,,,,2022-09-26,1,,,,,ロクゴウベース,0
1194,5700150078034,新規,0,2022-09-26,2016-11-25,ビブレ西小倉Ｂ館　管理組合,,その他,福岡県,北九州市小倉北区,大門２丁目３－１９,,40,106,8030811,,,,,,,2016-11-25,1,,,,,ビブレニシコクラビーカンカンリクミアイ,0
1195,5700150109994,新規,0,2022-09-26,2022-06-17,残留農薬分析国際交流会,,その他,東京都,大田区,平和島４丁目１－２３ＪＳプログレビル３Ｆ　一般財団法人日本食品検査内,,13,111,1430006,,,,,,,2022-06-17,1,,,,,ザンリユウノウヤクブンセキコクサイコウリユウカイ,0
1196,5700150111199,新規,0,2022-09-26,2022-08-12,Ｔｒｏｍｂｏｎｅ　Ｑｕａｒｔｅｔｔｏ　Ｂｏｏｎ,,その他,東京都,江戸川区,江戸川５丁目１５－６３,,13,123,1340013,,,,,,,2022-08-12,1,,,,,トロンボーンカルテツトブーン,0
1212,6010001229615,新規,0,2022-09-26,2022-09-26,株式会社インフラレッドインスペクション,,株式会社,東京都,千代田区,鍛冶町２丁目９番６号,,13,101,1010044,,,,,,,2022-09-26,1,,,,,インフラレッドインスペクション,0
1213,6010001229631,新規,0,2022-09-26,2022-09-26,勤学株式会社,,株式会社,東京都,中央区,日本橋小伝馬町１７番１５号ＬＳＴビル,,13,102,1030001,,,,,,,2022-09-26,1,,,,,キンガク,0
1214,6010001229656,新規,0,2022-09-26,2022-09-26,Ｎｏｐｈｉａ株式会社,,株式会社,東京都,中央区,銀座１丁目２２番１１号銀座大竹ビジデンス２階,,13,102,1040061,,,,,,,2022-09-26,1,,,,,ノフィア,0
1225,6010401169832,新規,0,2022-09-26,2022-09-26,株式会社Ｈａｉｏｔ,,株式会社,東京都,港区,虎ノ門４丁目１－２８虎ノ門タワーズオフィス１９階,,13,103,1050001,,,,,,,2022-09-26,1,,,,,ハイオ,0
1226,6010401169840,新規,0,2022-09-26,2022-09-26,株式会社Ｍｅｄｉｃ　Ａｒｔ,,株式会社,東京都,港区,浜松町２丁目２番１５号浜松町ダイヤビル２Ｆ,,13,103,1050013,,,,,,,2022-09-26,1,,,,,メディックアート,0
1229,6010405021428,新規,0,2022-09-26,2022-09-26,滋賀栗東特定目的会社,,その他の設立登記法人,東京都,港区,元赤坂１丁目１番８号株式会社赤坂国際会計内,,13,103,1070051,,,,,,,2022-09-26,1,,,,,シガリットウ,0
1237,6010603009745,新規,0,2022-09-26,2022-09-26,イニティウム合同会社,,合同会社,東京都,江東区,亀戸５丁目２３番８号,,13,108,1360071,,,,,,,2022-09-26,1,,,,,イニティウム,0
1240,6010701043241,新規,0,2022-09-26,2022-09-26,株式会社サンケイエステート,,株式会社,東京都,品川区,南大井３丁目３３番７号,,13,109,1400013,,,,,,,2022-09-26,1,,,,,サンケイエステート,0
1252,6011001149877,新規,0,2022-09-26,2022-09-26,Ｓｔｅｐｗｉｓｅ株式会社,,株式会社,東京都,渋谷区,渋谷１丁目１番３号アミーホール３階,,13,113,1500002,,,,,,,2022-09-26,1,,,,,ステップワイズ,0
1253,6011001149902,新規,0,2022-09-26,2022-09-26,株式会社ブランディングエンジニア,,株式会社,東京都,渋谷区,渋谷２丁目２２－３渋谷東口ビル６Ｆ,,13,113,1500002,,,,,,,2022-09-26,1,,,,,ブランディングエンジニア,0
1255,6011003015425,新規,0,2022-09-26,2022-09-26,合同会社エッジ,,合同会社,東京都,渋谷区,恵比寿南１丁目１３番１０号,,13,113,1500022,,,,,,,2022-09-26,1,,,,,エッジ,0
1268,6011701025642,新規,0,2022-09-26,2022-09-26,株式会社アイリス,,株式会社,東京都,江戸川区,南小岩７丁目１番２６号石井ハイツ３０２号室,,13,123,1330056,,,,,,,2022-09-26,1,,,,,アイリス,0
1275,6012701017266,新規,0,2022-09-26,2022-09-26,株式会社ＳＶサービス,,株式会社,東京都,小平市,小川西町３丁目２４－２３－３０２号,,13,211,1870035,,,,,,,2022-09-26,1,,,,,エスブイサービス,0
1283,6013305003388,新規,0,2022-09-26,2022-09-26,特定非営利活動法人過眠症サポートネットワーク,,その他の設立登記法人,東京都,豊島区,池袋１丁目１６番３３号グランビーバーズＢ１,,13,116,1700014,,,,,,,2022-09-26,1,,,,,カミンショウサポートネットワーク,0
1288,6020001148269,新規,0,2022-09-26,2022-09-26,株式会社ＨＡＳＳＤＹ,,株式会社,神奈川県,横浜市青葉区,市ケ尾町１０５５番地１０レジデンスウチノＤ棟,,14,117,2250024,,,,,,,2022-09-26,1,,,,,ハスディ,0
1289,6020001148277,新規,0,2022-09-26,2022-09-26,株式会社風林火山,,株式会社,神奈川県,川崎市川崎区,田島町２２番２号,,14,131,2100853,,,,,,,2022-09-26,1,,,,,フウリンカザン,0
1290,6020001148293,新規,0,2022-09-26,2022-09-26,株式会社ベアーファミリー,,株式会社,神奈川県,横浜市青葉区,美しが丘１丁目４番地１（２階）,,14,117,2250002,,,,,,,2022-09-26,1,,,,,ベアーファミリー,0
1297,6020003022447,新規,0,2022-09-26,2022-09-26,合同会社サンズテクノロジー,,合同会社,神奈川県,川崎市中原区,下小田中２丁目２９番１０－２０３号,,14,133,2110041,,,,,,,2022-09-26,1,,,,,サンズテクノロジー,0
1301,6021003012124,新規,0,2022-09-26,2022-09-26,Ｓ．Ｋ．ＩＮＴＥＲＮＡＴＩＯＮＡＬ合同会社,,合同会社,神奈川県,平塚市,真田４丁目６番２６号１Ｆ,,14,203,2591206,,,,,,,2022-09-26,1,,,,,エスケイインターナショナル,0
1312,6030001150133,新規,0,2022-09-26,2022-09-26,株式会社ＡＩグループ,,株式会社,埼玉県,越谷市,流通団地３丁目１番１０号,,11,222,3430824,,,,,,,2022-09-26,1,,,,,エーアイグループ,0
1313,6030001150166,新規,0,2022-09-26,2022-09-26,株式会社ＦＲＥＡＫ,,株式会社,埼玉県,大里郡寄居町,大字富田１６０７番地７,,11,408,3691216,,,,,,,2022-09-26,1,,,,,フリーク,0
1314,6030001150199,新規,0,2022-09-26,2022-09-26,株式会社ＳＫＹ,,株式会社,埼玉県,川越市,新富町２丁目１１番地３萩原ビル２階,,11,201,3500043,,,,,,,2022-09-26,1,,,,,スカイ,0
1323,6040001125175,新規,0,2022-09-26,2022-09-26,ＪＳＨ　ＪＡＰＡＮ株式会社,,株式会社,千葉県,千葉市花見川区,朝日ケ丘３丁目２８－１４ハウスメイトいこい２０２号室,,12,102,2620019,,,,,,,2022-09-26,1,,,,,ジェイエスエイチジャパン,0
1324,6040001125183,新規,0,2022-09-26,2022-09-26,株式会社グランツ,,株式会社,千葉県,流山市,大字平方２５０番地の２２８,,12,220,2700105,,,,,,,2022-09-26,1,,,,,グランツ,0
1327,6040003020829,新規,0,2022-09-26,2022-09-26,クラウドダッシュ合同会社,,合同会社,千葉県,千葉市美浜区,幸町２丁目１３番１棟２０８号,,12,106,2610001,,,,,,,2022-09-26,1,,,,,クラウドダッシュ,0
1329,6050003006876,新規,0,2022-09-26,2022-09-26,ＫＡＮＳＷＡＬ　ＴＲＡＤＩＮＧ合同会社,,合同会社,茨城県,結城市,大字結城１１３９７番地１アーバニティー２４－１０２号室,,08,207,3070001,,,,,,,2022-09-26,1,,,,,カンスワールトレーディング,0
1333,6060003004243,新規,0,2022-09-26,2022-09-26,合同会社しおいぬ商事,,合同会社,栃木県,足利市,山下町１０５３－３,,09,202,3260846,,,,,,,2022-09-26,1,,,,,シオイヌショウジ,0
1337,6070001039653,新規,0,2022-09-26,2022-09-26,株式会社勇栄,,株式会社,群馬県,前橋市,龍蔵寺町１９２番地４,,10,201,3710057,,,,,,,2022-09-26,1,,,,,ユウエイ,0
1354,6120001249008,新規,0,2022-09-26,2022-09-26,株式会社ＢＬＵＥ　ＯＣＥＡＮ,,株式会社,大阪府,大阪市北区,芝田２丁目８－１１共栄ビル３Ｆ,,27,127,5300012,,,,,,,2022-09-26,1,,,,,ブルーオーシャン,0
1355,6120001249016,新規,0,2022-09-26,2022-09-26,株式会社ライトウイング,,株式会社,大阪府,大阪市城東区,今福西２丁目１０番１５－１０２号,,27,118,5360004,,,,,,,2022-09-26,1,,,,,ライトウイング,0
1356,6120003022511,新規,0,2022-09-26,2022-09-26,合同会社ｅｆｆｏｒｔ,,合同会社,大阪府,大阪市中央区,大手通１丁目４番１号日宝ニュー大手ビル４Ｆ,,27,128,5400021,,,,,,,2022-09-26,1,,,,,エフォート,0
1357,6120003022528,新規,0,2022-09-26,2022-09-26,合同会社Ｒ．Ｈ,,合同会社,大阪府,大阪市西区,南堀江３丁目７番１３号インペリアルスイート南堀江１００４,,27,106,5500015,,,,,,,2022-09-26,1,,,,,アールエイチ,0
1359,6120005023202,新規,0,2022-09-26,2022-09-26,司法書士法人ＮｅｗＳｔａｒｔｓ,,その他の設立登記法人,大阪府,大阪市中央区,平野町３丁目３番７－２０１号,,27,128,5410046,,,,,,,2022-09-26,1,,,,,ニュースターツ,0
1362,6120101066261,新規,0,2022-09-26,2022-09-26,ＳＦ　Ｃｈｒｏｎｏｓ株式会社,,株式会社,大阪府,貝塚市,新井１０３－２,,27,208,5970022,,,,,,,2022-09-26,1,,,,,エスエフクロノス,0
1375,6140001127434,新規,0,2022-09-26,2022-09-26,株式会社ＳＰＡＣＩＯＵＳ,,株式会社,兵庫県,西脇市,高田井町３７３番地６,,28,213,6770016,,,,,,,2022-09-26,1,,,,,スペイシャス,0
1385,6180001153105,新規,0,2022-09-26,2022-09-26,株式会社ＳＯＺＯ　ＬＡＢＯ,,株式会社,愛知県,名古屋市港区,千鳥１丁目３番１７号,,23,111,4550031,,,,,,,2022-09-26,1,,,,,ソウゾウラボ,0
1386,6180001153121,新規,0,2022-09-26,2022-09-26,株式会社池防水,,株式会社,愛知県,名古屋市名東区,高柳町２２０番地マンション森貢２０３号,,23,115,4650034,,,,,,,2022-09-26,1,,,,,イケボウスイ,0
1410,6290001098990,新規,0,2022-09-26,2022-09-26,バード・マシンギャラリー株式会社,,株式会社,福岡県,福岡市博多区,吉塚８丁目８番３６号２Ｆ,,40,132,8120041,,,,,,,2022-09-26,1,,,,,バードマシンギャラリー,0
1416,6290003012974,新規,0,2022-09-26,2022-09-26,合同会社ａｒｉａ,,合同会社,福岡県,太宰府市,石坂３丁目８番３０号,,40,221,8180118,,,,,,,2022-09-26,1,,,,,アリア,0
1421,6330001030123,新規,0,2022-09-26,2022-09-26,藤吉郎不動産株式会社,,株式会社,熊本県,熊本市南区,田迎５丁目１１番１５号３Ｆ－２,,43,104,8620962,,,,,,,2022-09-26,1,,,,,トウキチロウフドウサン,0
1424,6340003003910,新規,0,2022-09-26,2022-09-26,姶良中央警備合同会社,,合同会社,鹿児島県,姶良市,加治木町本町３９５番地１,,46,225,8995215,,,,,,,2022-09-26,1,,,,,アイラチュウオウケイビ,0
1439,6410001013284,新規,0,2022-09-26,2022-09-26,株式会社ＫＨＹ,,株式会社,秋田県,秋田市,泉中央５丁目１番３－１００２号,,05,201,0100917,,,,,,,2022-09-26,1,,,,,ケーエイチワイ,0
1442,6450005004350,新規,0,2022-09-26,2022-09-26,医療法人稀乃会,,その他の設立登記法人,北海道,旭川市,緑が丘東三条１丁目１２番１９号,,01,204,0788803,,,,,,,2022-09-26,1,,,,,キノカイ,0
1446,6470003002255,新規,0,2022-09-26,2022-09-26,合同会社ＦＡＩＲ,,合同会社,香川県,高松市,西山崎町６９４番地２,,37,201,7618045,,,,,,,2022-09-26,1,,,,,フェアー,0
1454,6700150111636,新規,0,2022-09-26,2022-09-06,松前町観光協会,,その他,愛媛県,伊予郡松前町,大字筒井８５０まさき村内,,38,401,7913120,,,,,,,2022-09-06,1,,,,,マサキチヨウカンコウキヨウカイ,0
1463,7010001229630,新規,0,2022-09-26,2022-09-26,株式会社アートチューンズ,,株式会社,東京都,中央区,日本橋本町１丁目２番８号Ｎ１１ビル２Ｆ,,13,102,1030023,,,,,,,2022-09-26,1,,,,,アートチューンズ,0
1464,7010001229655,新規,0,2022-09-26,2022-09-26,四時株式会社,,株式会社,東京都,千代田区,四番町４番地９新東京国際リーガル内,,13,101,1020081,,,,,,,2022-09-26,1,,,,,ヨジ,0
1479,7010401169864,新規,0,2022-09-26,2022-09-26,株式会社ウェルズセネカ,,株式会社,東京都,港区,南青山２丁目２番１５号,,13,103,1070062,,,,,,,2022-09-26,1,,,,,ウェルズセネカ,0
1483,7010405021393,新規,0,2022-09-26,2022-09-26,谷島行政書士法人,,その他の設立登記法人,東京都,港区,六本木２丁目４番９号,,13,103,1060032,,,,,,,2022-09-26,1,,,,,タニシマ,0
1486,7010601061879,新規,0,2022-09-26,2022-09-26,木蘭株式会社,,株式会社,東京都,墨田区,両国２丁目１８－２さとうビル５階,,13,107,1300026,,,,,,,2022-09-26,1,,,,,キラン,0
1488,7010603009744,新規,0,2022-09-26,2022-09-26,合同会社ＭＡＲＫ,,合同会社,東京都,墨田区,東向島３丁目２２－７,,13,107,1310032,,,,,,,2022-09-26,1,,,,,マーク,0
1493,7010801033281,新規,0,2022-09-26,2022-09-26,株式会社ＣＨＯＩＮＡ,,株式会社,東京都,大田区,大森本町２丁目２５番２７号,,13,111,1430011,,,,,,,2022-09-26,1,,,,,チョイナ,0
1503,7011001149868,新規,0,2022-09-26,2022-09-26,株式会社スタイルギビング,,株式会社,東京都,渋谷区,渋谷２丁目１９－１５宮益坂ビルディング６０９,,13,113,1500002,,,,,,,2022-09-26,1,,,,,スタイルギビング,0
1504,7011001149884,新規,0,2022-09-26,2022-09-26,株式会社ムーンビーナス,,株式会社,東京都,渋谷区,幡ヶ谷１丁目３０番１－９０９号,,13,113,1510072,,,,,,,2022-09-26,1,,,,,ムーンビーナス,0
1506,7011003015416,新規,0,2022-09-26,2022-09-26,合同会社グラッドプラス,,合同会社,東京都,渋谷区,神宮前６丁目２３番４号桑野ビル２階,,13,113,1500001,,,,,,,2022-09-26,1,,,,,グラッドプラス,0
1518,7011801041299,新規,0,2022-09-26,2022-09-26,株式会社ｒａｉｎｂｏｗｓ,,株式会社,東京都,葛飾区,東四つ木２丁目２２番４－１０５,,13,122,1240014,,,,,,,2022-09-26,1,,,,,レインボウズ,0
1519,7012401039667,新規,0,2022-09-26,2022-09-26,株式会社パフェクレープ,,株式会社,東京都,武蔵野市,吉祥寺東町２丁目１番１１号,,13,203,1800002,,,,,,,2022-09-26,1,,,,,,0
1520,7012701017265,新規,0,2022-09-26,2022-09-26,株式会社にじゅむ,,株式会社,東京都,東村山市,本町１丁目３番地１３,,13,213,1890014,,,,,,,2022-09-26,1,,,,,ニジュム,0
1524,7013303006301,新規,0,2022-09-26,2022-09-26,合同会社Ａｏ,,合同会社,東京都,豊島区,高田３丁目６番１０－３０９号,,13,116,1710033,,,,,,,2022-09-26,1,,,,,アオ,0
1528,7020001148276,新規,0,2022-09-26,2022-09-26,ＴＨＹ建物株式会社,,株式会社,神奈川県,川崎市川崎区,京町１丁目３番２５号,,14,131,2100848,,,,,,,2022-09-26,1,,,,,ティーエイチワイタテモノ,0
1529,7020001148292,新規,0,2022-09-26,2022-09-26,株式会社ＮＫエンタープライズ,,株式会社,神奈川県,横浜市都筑区,仲町台１丁目７番１８号,,14,118,2240041,,,,,,,2022-09-26,1,,,,,エヌケイエンタープライズ,0
1532,7020003022438,新規,0,2022-09-26,2022-09-26,合同会社Ｋｕｓｔｏｍ‐Ｏｆｆ,,合同会社,神奈川県,川崎市麻生区,白鳥１丁目９－９麻生ハイツ２０３,,14,137,2150024,,,,,,,2022-09-26,1,,,,,カスタムオフ,0
1535,7021001077044,新規,0,2022-09-26,2022-09-26,株式会社ＴＵＳＨＩＧ,,株式会社,神奈川県,相模原市南区,相模大野９丁目２０番１５号１０１号室,,14,153,2520303,,,,,,,2022-09-26,1,,,,,トゥーシグ,0
1539,7030001150173,新規,0,2022-09-26,2022-09-26,株式会社ロザ,,株式会社,埼玉県,川口市,芝宮根町１９番４号,,11,203,3330869,,,,,,,2022-09-26,1,,,,,ロザ,0
1540,7030001150181,新規,0,2022-09-26,2022-09-26,株式会社基,,株式会社,埼玉県,上尾市,大字原市６４３番地３６,,11,219,3620021,,,,,,,2022-09-26,1,,,,,ハジメ,0
1541,7030001150198,新規,0,2022-09-26,2022-09-26,株式会社光城,,株式会社,埼玉県,川口市,飯塚４丁目４番３１－３０２号飯塚四丁目ハイツ,,11,203,3320023,,,,,,,2022-09-26,1,,,,,コウジョウ,0
1546,7040001125158,新規,0,2022-09-26,2022-09-26,三光電気株式会社,,株式会社,千葉県,松戸市,西馬橋４丁目４８番地の１グランドール西馬橋ＩＩ－２０２号,00127918,12,207,2710044,,,,,,,2022-09-26,1,,,,,サンコウデンキ,0
1548,7040003020910,新規,0,2022-09-26,2022-09-26,合同会社クリエーションサンバ,,合同会社,千葉県,柏市,大室１丁目１２－４－４０３,,12,217,2770813,,,,,,,2022-09-26,1,,,,,クリエーションサンバ,0
1549,7050001051709,新規,0,2022-09-26,2022-09-26,ＮＳ　ＪＡＰＡＮ　ＴＲＡＤＩＮＧ株式会社,,株式会社,茨城県,古河市,静町７番３号２０３,,08,204,3060001,,,,,,,2022-09-26,1,,,,,エヌエスジャパントレーディング,0
1551,7050003006875,新規,0,2022-09-26,2022-09-26,合同会社ＳＨＥＮＵＭＩ　ＩＮＴＥＲＮＡＴＩＯＮＡＬ,,合同会社,茨城県,稲敷郡阿見町,大字若栗１９８３番地,,08,443,3000333,,,,,,,2022-09-26,1,,,,,シェヌミインターナショナル,0
1555,7060003004242,新規,0,2022-09-26,2022-09-26,合同会社Ｄｒｅａｍ　Ａｍｂｉｔｉｏｕｓ,,合同会社,栃木県,河内郡上三川町,大字西汗７３５番地４,,09,301,3290607,,,,,,,2022-09-26,1,,,,,ドリームアンビシャス,0
1557,7070001039660,新規,0,2022-09-26,2022-09-26,株式会社Ｂｅ‐Ｇｉｎｎｉｎｇ,,株式会社,群馬県,高崎市,赤坂町１１０番地１ラフォーレ赤坂Ｈ号棟,,10,202,3700818,,,,,,,2022-09-26,1,,,,,ビギニング,0
1559,7080001025197,新規,0,2022-09-26,2022-09-26,株式会社Ｏ・Ｔ・Ａ,,株式会社,静岡県,静岡市清水区,春日１丁目５番１５号ファムス桜橋３０５号,,22,103,4240842,,,,,,,2022-09-26,1,,,,,オーティーエー,0
1565,7090005007513,新規,0,2022-09-26,2022-09-26,一般社団法人都留まなびの未来づくり推進機構,,その他の設立登記法人,山梨県,都留市,上谷２丁目２番１０号,,19,204,4020053,,,,,,,2022-09-26,1,,,,,ツルマナビノミライヅクリスイシンキコウ,0
1566,7100001035714,新規,0,2022-09-26,2022-09-26,Ｓｎｏｗｇｕｍｓ　Ｃａｐｉｔａｌ株式会社,,株式会社,長野県,飯山市,大字飯山１１４９２番地３３１,,20,213,3892253,,,,,,,2022-09-26,1,,,,,スノーガムズキャピタル,0
1586,7120001248966,新規,0,2022-09-26,2022-09-26,ＢＥＲ　ｓｔｕｄｉｏ株式会社,,株式会社,大阪府,大阪市住之江区,北加賀屋１丁目８番１６号,,27,125,5590011,,,,,,,2022-09-26,1,,,,,バースタジオ,0
1587,7120001248999,新規,0,2022-09-26,2022-09-26,株式会社ＮＡＩＬＩＴ,,株式会社,大阪府,大阪市中央区,淡路町４丁目５番８－９０６号,,27,128,5410047,,,,,,,2022-09-26,1,,,,,ネイリット,0
1588,7120001249007,新規,0,2022-09-26,2022-09-26,株式会社ＴＭ,,株式会社,大阪府,大阪市大正区,泉尾２丁目１８番５号,,27,108,5510031,,,,,,,2022-09-26,1,,,,,ティーエム,0
1589,7120001249031,新規,0,2022-09-26,2022-09-26,株式会社レクスト,,株式会社,大阪府,大阪市北区,梅田１丁目２番２号大阪駅前第２ビル２階５－６号室,,27,127,5300001,,,,,,,2022-09-26,1,,,,,レクスト,0
1591,7120003022485,新規,0,2022-09-26,2022-09-26,合同会社しんせつ,,合同会社,大阪府,大阪市東住吉区,湯里１丁目１６番１１号,,27,121,5460013,,,,,,,2022-09-26,1,,,,,シンセツ,0
1592,7120003022527,新規,0,2022-09-26,2022-09-26,合同会社Ｓｈｉｎｙ,,合同会社,大阪府,大阪市北区,堂島１丁目２－２７,,27,127,5300003,,,,,,,2022-09-26,1,,,,,シャイニー,0
1593,7120003022535,新規,0,2022-09-26,2022-09-26,合同会社わんど,,合同会社,大阪府,大阪市西成区,岸里２丁目５番１４号賀來マンション２０２号,,27,122,5570041,,,,,,,2022-09-26,1,,,,,ワンド,0
1596,7120101066260,新規,0,2022-09-26,2022-09-26,株式会社ＣＯＬＯＲ,,株式会社,大阪府,河内長野市,喜多町２３９番地の１０,,27,216,5860033,,,,,,,2022-09-26,1,,,,,カラー,0
1607,7130001072663,新規,0,2022-09-26,2022-09-26,株式会社ＧＲＡＮＸ,,株式会社,京都府,京都市下京区,岩戸山町４４１－２０４号,,26,106,6008445,,,,,,,2022-09-26,1,,,,,グランクス,0
1610,7130005016583,新規,0,2022-09-26,2022-09-26,一般社団法人メディフロート医療支援機構,,その他の設立登記法人,京都府,京都市下京区,松原通烏丸西入ル玉津島町２９４,,26,106,6000000,,,,,,,2022-09-26,1,,,,,メディフロートイリョウシエンキコウ,0
1612,7140003018127,新規,0,2022-09-26,2022-09-26,合同会社ＦＯＣＵＳ,,合同会社,兵庫県,朝来市,山東町粟鹿９９４－２,,28,225,6695125,,,,,,,2022-09-26,1,,,,,フォーカス,0
1613,7140005026318,新規,0,2022-09-26,2022-09-26,特定非営利活動法人どうぶつ弁護団,,その他の設立登記法人,兵庫県,伊丹市,西台１丁目２番１１号Ｃ－３ビル５階春名・田中・細川法律事務所内,,28,207,6640858,,,,,,,2022-09-26,1,,,,,ドウブツベンゴダン,0
1614,7150003002781,新規,0,2022-09-26,2022-09-26,合同会社Ｓ．Ｃｏｌｌｅｃｔ,,合同会社,奈良県,宇陀郡曽爾村,大字伊賀見２２１１番,,29,385,6331201,,,,,,,2022-09-26,1,,,,,エスドットコレクト,0
1616,7170001017284,新規,0,2022-09-26,2022-09-26,野上不動産株式会社,,株式会社,和歌山県,和歌山市,関戸５丁目２番４３号,,30,201,6410035,,,,,,,2022-09-26,1,,,,,ノカミフドウサン,0
1618,7180001153104,新規,0,2022-09-26,2022-09-26,オアシス株式会社,,株式会社,愛知県,名古屋市西区,天塚町１丁目２３,,23,104,4510021,,,,,,,2022-09-26,1,,,,,オアシス,0
1619,7180001153112,新規,0,2022-09-26,2022-09-26,株式会社ａｑｕａ　ｐｌｕｓ,,株式会社,愛知県,一宮市,浅井町西浅井字川田９７番地５,,23,203,4910113,,,,,,,2022-09-26,1,,,,,アクアプラス,0
1625,7210001019094,新規,0,2022-09-26,2022-09-26,株式会社Ａｒｂｏｌ,,株式会社,福井県,福井市,光陽１丁目２７番２１号１,,18,201,9100026,,,,,,,2022-09-26,1,,,,,アルボル,0
1628,7220005008704,新規,0,2022-09-26,2022-09-26,一般社団法人白山令峰会,,その他の設立登記法人,石川県,加賀市,山中温泉中田町ト３番地,,17,206,9220101,,,,,,,2022-09-26,1,,,,,ハクサンレイホウカイ,0
1637,7290001098981,新規,0,2022-09-26,2022-09-26,津諮株式会社,,株式会社,福岡県,福岡市東区,唐原５丁目３－２１、２０１室,,40,131,8130001,,,,,,,2022-09-26,1,,,,,ツシ,0
1649,7320003003911,新規,0,2022-09-26,2022-09-26,合同会社ＡＬＡＮＤ,,合同会社,大分県,宇佐市,大字樋田２９番地の１０,,44,211,8790461,,,,,,,2022-09-26,1,,,,,アランド,0
1653,7340001025047,新規,0,2022-09-26,2022-09-26,株式会社市野畜産,,株式会社,鹿児島県,姶良市,加治木町小山田５８９０番地１,,46,225,8995203,,,,,,,2022-09-26,1,,,,,イチノチクサン,0
1660,7370001049068,新規,0,2022-09-26,2022-09-26,株式会社スタジオニューワールド,,株式会社,宮城県,仙台市青葉区,水の森２丁目２５番１５号,,04,101,9810962,,,,,,,2022-09-26,1,,,,,スタジオニューワールド,0
1661,7370003005837,新規,0,2022-09-26,2022-09-26,ＤＱ合同会社,,合同会社,宮城県,仙台市宮城野区,榴岡２丁目２番８号コーポ童子５０４号室,,04,102,9830852,,,,,,,2022-09-26,1,,,,,ディーキュー,0
1665,7390001017031,新規,0,2022-09-26,2022-09-26,株式会社ＥＭＣ,,株式会社,山形県,山形市,桜田東４丁目２番１号グランディオーズ１０２,,06,201,9902323,,,,,,,2022-09-26,1,,,,,イーエムシー,0
1671,7430003014303,新規,0,2022-09-26,2022-09-26,合同会社ネオスマイル,,合同会社,北海道,札幌市白石区,菊水元町三条１丁目１番６号,,01,104,0030823,,,,,,,2022-09-26,1,,,,,ネオスマイル,0
1678,7460301005100,新規,0,2022-09-26,2022-09-26,ＮＣＲ株式会社,,株式会社,北海道,北見市,端野町三区３５９番地４,,01,208,0992103,,,,,,,2022-09-26,1,,,,,エヌシーアール,0
1686,7700150111222,新規,0,2022-09-26,2022-08-12,盛岡市クリーンセンター公害防止対策協議会,,その他,岩手県,盛岡市,上田字小鳥沢１４８－２５,,03,201,0200102,,,,,,,2022-08-12,1,,,,,モリオカシクリーンセンターコウガイボウシタイサクキヨウギカイ,0
1703,8010001229613,新規,0,2022-09-26,2022-09-26,株式会社ＺＰＭ,,株式会社,東京都,中央区,湊２丁目３番８－４０４号,,13,102,1040043,,,,,,,2022-09-26,1,,,,,ゼットピーエム,0
1704,8010001229654,新規,0,2022-09-26,2022-09-26,株式会社Ｐｌａｎ・Ｄｏ・Ｓｅｅ・Ｄｉｎｉｎｇ,,株式会社,東京都,千代田区,丸の内２丁目１番１号,,13,101,1000005,,,,,,,2022-09-26,1,,,,,プランドゥーシーダイニング,0
1705,8010001229670,新規,0,2022-09-26,2022-09-26,株式会社ＳｔａｇｅＦｏｒｗａｒｄ,,株式会社,東京都,中央区,銀座８丁目１０番８号銀座八丁目１０番ビル,,13,102,1040061,,,,,,,2022-09-26,1,,,,,ステージフォワード,0
1707,8010003038731,新規,0,2022-09-26,2022-09-26,和辰商事合同会社,,合同会社,東京都,千代田区,麹町５丁目５番地葵シャトーＢ１,,13,101,1020083,,,,,,,2022-09-26,1,,,,,ワシンショウジ,0
1718,8010603009743,新規,0,2022-09-26,2022-09-26,ボンエキップ合同会社,,合同会社,東京都,江東区,平野４丁目４番２－６０２号,,13,108,1350023,,,,,,,2022-09-26,1,,,,,ボンエキップ,0
1729,8011001149900,新規,0,2022-09-26,2022-09-26,ＨＫＭ株式会社,,株式会社,東京都,渋谷区,代々木２丁目２１番８－４０７号,,13,113,1510053,,,,,,,2022-09-26,1,,,,,エイチケーエム,0
1730,8011001149909,新規,0,2022-09-26,2022-09-26,株式会社グッドライフ,,株式会社,東京都,渋谷区,神宮前６丁目２３番４号桑野ビル２階,,13,113,1500001,,,,,,,2022-09-26,1,,,,,グッドライフ,0
1747,8020001148291,新規,0,2022-09-26,2022-09-26,株式会社実穗,,株式会社,神奈川県,横浜市緑区,長津田１丁目２４番１３－１０１号,,14,113,2260027,,,,,,,2022-09-26,1,,,,,ミホ,0
1751,8020003022445,新規,0,2022-09-26,2022-09-26,合同会社キャンディテラス,,合同会社,神奈川県,横浜市都筑区,川和台１番２２号,,14,118,2240056,,,,,,,2022-09-26,1,,,,,キャンディテラス,0
1758,8021003012171,新規,0,2022-09-26,2022-09-26,合同会社Ａｒｍ,,合同会社,神奈川県,横須賀市,小矢部１丁目１７番１５号,,14,201,2380026,,,,,,,2022-09-26,1,,,,,アーム,0
1766,8030003020175,新規,0,2022-09-26,2022-09-26,ＹＥＳ合同会社,,合同会社,埼玉県,久喜市,青葉１丁目２番２－２０５号,,11,232,3460013,,,,,,,2022-09-26,1,,,,,ワイイーエス,0
1772,8040001125173,新規,0,2022-09-26,2022-09-26,株式会社やまけん,,株式会社,千葉県,野田市,瀬戸５８５番地１,,12,208,2780012,,,,,,,2022-09-26,1,,,,,ヤマケン,0
1773,8040003020802,新規,0,2022-09-26,2022-09-26,合同会社エクシア,,合同会社,千葉県,柏市,光ケ丘２丁目２５－１２,,12,217,2770065,,,,,,,2022-09-26,1,,,,,エクシア,0
1774,8040003020868,新規,0,2022-09-26,2022-09-26,合同会社つむぎつむぐ,,合同会社,千葉県,習志野市,東習志野８丁目１３番１０－３０２号,,12,216,2750001,,,,,,,2022-09-26,1,,,,,ツムギツムグ,0
1792,8090001017787,新規,0,2022-09-26,2022-09-26,株式会社ＤＬＳ　ＩＮＴＥＲＮＡＴＩＯＮＡＬ,,株式会社,山梨県,甲府市,屋形３丁目５番１号ハイツホサカ２０４,,19,201,4000017,,,,,,,2022-09-26,1,,,,,ディーエルエスインターナショナル,0
1798,8110001036974,新規,0,2022-09-26,2022-09-26,株式会社ＳＲＵ,,株式会社,新潟県,新潟市西区,内野町１１３０番地,,15,107,9502112,,,,,,,2022-09-26,1,,,,,エスアールユー,0
1799,8110003004871,新規,0,2022-09-26,2022-09-26,合同会社ＳＳＳ,,合同会社,新潟県,新潟市中央区,愛宕３丁目４－５,,15,103,9500944,,,,,,,2022-09-26,1,,,,,エスエスエス,0
1811,8120001248940,新規,0,2022-09-26,2022-09-26,日本商業投資株式会社,,株式会社,大阪府,大阪市北区,梅田１丁目１番３号大阪駅前第３ビル２階,,27,127,5300001,,,,,,,2022-09-26,1,,,,,ニホンショウギョウトウシ,0
1812,8120001248998,新規,0,2022-09-26,2022-09-26,株式会社ａｎｏｔｈｅｒ　ｐｉｅｃｅ,,株式会社,大阪府,大阪市中央区,淡路町３丁目５番１３号創建御堂筋ビル２階,,27,128,5410047,,,,,,,2022-09-26,1,,,,,アナザーピース,0
1813,8120001249014,新規,0,2022-09-26,2022-09-26,日中友聯株式会社,,株式会社,大阪府,大阪市中央区,松屋町９番２０号ローレルステート松屋町６１０Ｃ,,27,128,5420067,,,,,,,2022-09-26,1,,,,,ニッチュウユウレン,0
1814,8120001249055,新規,0,2022-09-26,2022-09-26,株式会社グローバルマインド,,株式会社,大阪府,大阪市西成区,花園北２丁目１３番２４号白菊マンション１０２号,,27,122,5570016,,,,,,,2022-09-26,1,,,,,グローバルマインド,0
1815,8120003022518,新規,0,2022-09-26,2022-09-26,水科学合同会社,,合同会社,大阪府,大阪市北区,梅田１丁目１－３大阪駅前第３ビル２９階１－１－１号室,,27,127,5300001,,,,,,,2022-09-26,1,,,,,ミズカガク,0
1816,8120003022526,新規,0,2022-09-26,2022-09-26,ポロルプランニング合同会社,,合同会社,大阪府,大阪市北区,梅田１丁目１－３大阪駅前第３ビル２９階１－１－１号室,,27,127,5300001,,,,,,,2022-09-26,1,,,,,ポロルプランニング,0
1820,8122003002425,新規,0,2022-09-26,2022-09-26,合同会社佐々木塗装,,合同会社,大阪府,東大阪市,横小路町４丁目２番３号グランドハイム山本６０３号,,27,227,5798063,,,,,,,2022-09-26,1,,,,,ササキトソウ,0
1823,8130001072662,新規,0,2022-09-26,2022-09-26,サードポイント京都株式会社,,株式会社,京都府,京都市中京区,御池通東洞院東入笹屋町４３６番地永和御池ビル６０６号,,26,104,6048187,,,,,,,2022-09-26,1,,,,,サードポンイントキョウト,0
1827,8130003008193,新規,0,2022-09-26,2022-09-26,合同会社ＴＡＴＳＵＭＩ,,合同会社,京都府,京都市伏見区,中島御所ノ内町３番地,,26,109,6128463,,,,,,,2022-09-26,1,,,,,タツミ,0
1828,8130005016582,新規,0,2022-09-26,2022-09-26,一般社団法人Ｅｖａｎｇｅｌｉｓｍ　Ｅｘｐｌｏｓｉｏｎ　Ｊａｐａｎ,,その他の設立登記法人,京都府,京都市右京区,太秦西峰岡町２７番地１０,,26,108,6160000,,,,,,,2022-09-26,1,,,,,エバンジェリズムエクスプロージョンジャパン,0
1834,8140003018142,新規,0,2022-09-26,2022-09-26,合同会社ＩＲＯＤＯＲＩ,,合同会社,兵庫県,神戸市中央区,浜辺通４丁目１番２３号三宮ベンチャービル７２１,,28,110,6510083,,,,,,,2022-09-26,1,,,,,イロドリ,0
1835,8140005026317,新規,0,2022-09-26,2022-09-26,一般社団法人豊岡コミュニティシネマ,,その他の設立登記法人,兵庫県,豊岡市,元町１０番１８号,,28,209,6680026,,,,,,,2022-09-26,1,,,,,トヨオカコミュニティシネマ,0
1838,8150001025833,新規,0,2022-09-26,2022-09-26,株式会社光輝,,株式会社,奈良県,桜井市,大字巻野内６０－５,,29,206,6330082,,,,,,,2022-09-26,1,,,,,ミツキ,0
1853,8190001029772,新規,0,2022-09-26,2022-09-26,株式会社松南荘,,株式会社,三重県,伊賀市,法花１８００番地,,24,216,5180036,,,,,,,2022-09-26,1,,,,,ショウナンソウ,0
1858,8220003003367,新規,0,2022-09-26,2022-09-26,合同会社ｎａｎｏ‐ｆｏｏｔ,,合同会社,石川県,白山市,菜の花３丁目９７番地白山地所（株）事務所１階,,17,210,9240810,,,,,,,2022-09-26,1,,,,,ナノフット,0
1860,8240003005816,新規,0,2022-09-26,2022-09-26,合同会社グリット,,合同会社,広島県,広島市安佐南区,大町東３丁目３２番８号,,34,105,7310124,,,,,,,2022-09-26,1,,,,,グリット,0
1864,8260005011141,新規,0,2022-09-26,2022-09-26,特定非営利活動法人陽だまりの里,,その他の設立登記法人,岡山県,総社市,北溝手４６０番地２,,33,208,7191117,,,,,,,2022-09-26,1,,,,,ヒダマリノサト,0
1873,8290001098989,新規,0,2022-09-26,2022-09-26,アマゾン・マシンガレージ株式会社,,株式会社,福岡県,福岡市南区,皿山４丁目２番７号,,40,134,8111365,,,,,,,2022-09-26,1,,,,,アマゾンマシンガレージ,0
1877,8290805009588,新規,0,2022-09-26,2022-09-26,一般社団法人Ｒｅｌａｔｉｏｎｓｈｉｐ,,その他の設立登記法人,福岡県,田川市,大字川宮１４８番地１７,,40,206,8260042,,,,,,,2022-09-26,1,,,,,リレーションシップ,0
1896,8350001017967,新規,0,2022-09-26,2022-09-26,ミルン株式会社,,株式会社,宮崎県,宮崎市,佐土原町下田島１３５６９番地１,,45,201,8800211,,,,,,,2022-09-26,1,,,,,ミルン,0
1900,8370001049059,新規,0,2022-09-26,2022-09-26,株式会社ＲＩＮＣ,,株式会社,宮城県,仙台市太白区,中田２丁目２３番２６号,,04,104,9811104,,,,,,,2022-09-26,1,,,,,リンク,0
1901,8370003005836,新規,0,2022-09-26,2022-09-26,合同会社共屋,,合同会社,宮城県,仙台市青葉区,中央４丁目８番１７号小林ビル１Ｆ,,04,101,9800021,,,,,,,2022-09-26,1,,,,,トモヤ,0
1910,8390001017030,新規,0,2022-09-26,2022-09-26,アイメディコ株式会社,,株式会社,山形県,米沢市,城南４丁目３番１６号,,06,202,9920038,,,,,,,2022-09-26,1,,,,,アイメディコ,0
1919,8430005014564,新規,0,2022-09-26,2022-09-26,医療法人ペルル,,その他の設立登記法人,北海道,岩見沢市,鳩が丘３丁目１番７号,,01,210,0680828,,,,,,,2022-09-26,1,,,,,ペルル,0
1932,9010001229653,新規,0,2022-09-26,2022-09-26,株式会社Ｎｅｘｓｔａ,,株式会社,東京都,中央区,銀座１丁目２２番１１号２階,,13,102,1040061,,,,,,,2022-09-26,1,,,,,ネクスタ,0
1933,9010001229711,新規,0,2022-09-26,2022-09-26,株式会社Ｎｅｘｔ　Ｙｓ,,株式会社,東京都,文京区,千石４丁目２１番地２号コーポ堀井３０３,,13,105,1120011,,,,,,,2022-09-26,1,,,,,ネクストワイズ,0
1938,9010003038656,新規,0,2022-09-26,2022-09-26,合同会社ＲＩＴＡＣＯ,,合同会社,東京都,中央区,銀座１丁目１２－４Ｎ＆ＥＢＬＤ．７階,,13,102,1040061,,,,,,,2022-09-26,1,,,,,リタコ,0
1950,9010401169565,新規,0,2022-09-26,2022-09-26,ささやん株式会社,,株式会社,東京都,港区,西麻布２丁目２３番１６－１０２号,,13,103,1060031,,,,,,,2022-09-26,1,,,,,ササヤン,0
1951,9010401169763,新規,0,2022-09-26,2022-09-26,株式会社ＰＯＫＥＲ　ＬＩＶＥ　ＳＨＩＮＪＹＵＫＵ,,株式会社,東京都,港区,港南４丁目６番７号,,13,103,1080075,,,,,,,2022-09-26,1,,,,,ポーカーライブシンジュク,0
1952,9010401169887,新規,0,2022-09-26,2022-09-26,株式会社マリアミューズ,,株式会社,東京都,港区,西麻布２丁目１９番１０号１０１,,13,103,1060031,,,,,,,2022-09-26,1,,,,,マリアミューズ,0
1954,9010403028538,新規,0,2022-09-26,2022-09-26,ブリッジアドバンス合同会社,,合同会社,東京都,港区,芝５丁目３６番４号札の辻スクエア９階,,13,103,1080014,,,,,,,2022-09-26,1,,,,,ブリッジアドバンス,0
1955,9010405021425,新規,0,2022-09-26,2022-09-26,特定目的会社相模原開発ツー,,その他の設立登記法人,東京都,港区,六本木６丁目１０番１号六本木ヒルズ森タワー,,13,103,1060032,,,,,,,2022-09-26,1,,,,,サガミハラカイハツツー,0
1957,9010501049403,新規,0,2022-09-26,2022-09-26,ＮＥＷ　ＦＵＴＵＲＥ株式会社,,株式会社,東京都,台東区,上野６丁目７番１６号川久保ビル４１３号室,,13,106,1100005,,,,,,,2022-09-26,1,,,,,ニューフューチャー,0
1959,9010601061877,新規,0,2022-09-26,2022-09-26,株式会社ＲｉＴａ,,株式会社,東京都,江東区,有明１丁目３－１４－２０１５,,13,108,1350063,,,,,,,2022-09-26,1,,,,,リタ,0
1960,9010601061885,新規,0,2022-09-26,2022-09-26,株式会社Ｎｏｓｋｅ,,株式会社,東京都,江東区,豊洲５丁目１番１３－１７１０号,,13,108,1350061,,,,,,,2022-09-26,1,,,,,ノスケ,0
1961,9010603009742,新規,0,2022-09-26,2022-09-26,有明ロジスティクス合同会社,,合同会社,東京都,江東区,有明３丁目７番２６号有明フロンティアビルＢ棟９階,,13,108,1350063,,,,,,,2022-09-26,1,,,,,アリアケロジスティクス,0
1962,9010701043239,新規,0,2022-09-26,2022-09-26,株式会社Ｏ,,株式会社,東京都,品川区,西品川３丁目２１番８号インザガーデン２０１,,13,109,1410033,,,,,,,2022-09-26,1,,,,,オー,0
1974,9011001149767,新規,0,2022-09-26,2022-09-26,株式会社ＫＩＩＲＯ,,株式会社,東京都,目黒区,目黒４丁目１４番４２号目黒モンドパークマンション３０２号,,13,110,1530063,,,,,,,2022-09-26,1,,,,,キイロ,0
1975,9011001149866,新規,0,2022-09-26,2022-09-26,株式会社ＳＨＩＮＭＥ,,株式会社,東京都,渋谷区,神宮前６丁目２３番４号桑野ビル２階,,13,113,1500001,,,,,,,2022-09-26,1,,,,,シンメ,0
1976,9011003015414,新規,0,2022-09-26,2022-09-26,Ｏｃｔａｖｅ合同会社,,合同会社,東京都,渋谷区,神宮前６丁目２３番４号桑野ビル２階,,13,113,1500001,,,,,,,2022-09-26,1,,,,,オクターブ,0
1984,9011101100274,新規,0,2022-09-26,2022-09-26,ダブルレインボー株式会社,,株式会社,東京都,新宿区,西新宿３丁目９番７号フロンティア新宿タワーオフィス３３３号室,,13,104,1600023,,,,,,,2022-09-26,1,,,,,ダブルレインボー,0
1986,9011501028495,新規,0,2022-09-26,2022-09-26,花汐薬粧株式会社,,株式会社,東京都,荒川区,南千住３丁目２７－２浅草ビル,,13,118,1160003,,,,,,,2022-09-26,1,,,,,カシオヤクショウ,0
1989,9011805003211,新規,0,2022-09-26,2022-09-26,一般社団法人点字教材制作ネットワーク,,その他の設立登記法人,東京都,足立区,千住旭町１２番４号三幸ハイム１０１,,13,121,1200026,,,,,,,2022-09-26,1,,,,,テンジキョウザイセイサクネットワーク,0
1990,9012401039665,新規,0,2022-09-26,2022-09-26,株式会社メモアカ,,株式会社,東京都,三鷹市,上連雀４丁目１－１１禅林寺第一ビル３Ｆ,,13,204,1810012,,,,,,,2022-09-26,1,,,,,メモアカ,0
1995,9013301049696,新規,0,2022-09-26,2022-09-26,株式会社ＲＥＡＬ　ＭＡＫＥ,,株式会社,東京都,豊島区,駒込１丁目３９番５号,,13,116,1700003,,,,,,,2022-09-26,1,,,,,リアルメイク,0
2000,9020001148274,新規,0,2022-09-26,2022-09-26,株式会社Ｂａｙ　Ｌａｇｏｏｎ,,株式会社,神奈川県,川崎市幸区,南幸町２丁目５６番地ＬＡＸ５０１,,14,132,2120016,,,,,,,2022-09-26,1,,,,,ベイラグーン,0
2001,9020001148290,新規,0,2022-09-26,2022-09-26,株式会社ハウスマネジメント社,,株式会社,神奈川県,川崎市高津区,久本１丁目６番８号,,14,134,2130011,,,,,,,2022-09-26,1,,,,,ハウスマネジメントシャ,0
2002,9020003022444,新規,0,2022-09-26,2022-09-26,合同会社ＳＥＥＫ　ＹＯＫＯＨＡＭＡ,,合同会社,神奈川県,横浜市青葉区,奈良１丁目８番地７エスペオＤ１０２号,,14,117,2270038,,,,,,,2022-09-26,1,,,,,シークヨコハマ,0
2003,9020003022452,新規,0,2022-09-26,2022-09-26,マイジョブ合同会社,,合同会社,神奈川県,横浜市西区,花咲町５丁目１３７番地１プラウド横浜桜木町１００５号,,14,103,2200022,,,,,,,2022-09-26,1,,,,,マイジョブ,0
2004,9021001077034,新規,0,2022-09-26,2022-09-26,株式会社Ｉ．Ｈ．Ｓ．,,株式会社,神奈川県,平塚市,桜ケ丘４番４３号３Ｆ,,14,203,2540053,,,,,,,2022-09-26,1,,,,,アイエイチエス,0
2013,9030001149998,新規,0,2022-09-26,2022-09-26,株式会社ｋ‐ｇｒａｎｔ,,株式会社,埼玉県,新座市,大和田４丁目８番２０号グランパレス志木２０１号室,,11,230,3520004,,,,,,,2022-09-26,1,,,,,ケーグラント,0
2014,9030001150139,新規,0,2022-09-26,2022-09-26,株式会社月星工業,,株式会社,埼玉県,さいたま市緑区,原山２丁目４０番３号レジデンス原山３０２,,11,109,3360931,,,,,,,2022-09-26,1,,,,,ツキホシコウギョウ,0
2015,9030001150171,新規,0,2022-09-26,2022-09-26,株式会社１００,,株式会社,埼玉県,川越市,脇田町１７－５ＭＴＫ脇田町ビル４Ｆ,,11,201,3501122,,,,,,,2022-09-26,1,,,,,ハンドレッド,0
2016,9030001150188,新規,0,2022-09-26,2022-09-26,株式会社五洲商事,,株式会社,埼玉県,川口市,並木３丁目３２番６号シモタマリビル３０１号,,11,203,3320034,,,,,,,2022-09-26,1,,,,,ゴシュウショウジ,0
2017,9030001150213,新規,0,2022-09-26,2022-09-26,株式会社熊谷エクセレント,,株式会社,埼玉県,熊谷市,玉井１０６番地２,,11,202,3600853,,,,,,,2022-09-26,1,,,,,クマガヤエクセレント,0
2019,9030003020224,新規,0,2022-09-26,2022-09-26,合同会社エム・ケー・ツー,,合同会社,埼玉県,新座市,北野２丁目１３－１８,,11,230,3520003,,,,,,,2022-09-26,1,,,,,エムケーツー,0
2027,9040003020900,新規,0,2022-09-26,2022-09-26,Ｉｎｓｉｇｈｔ　Ｌａｂ合同会社,,合同会社,千葉県,柏市,豊四季２１３番地１５,,12,217,2770863,,,,,,,2022-09-26,1,,,,,インサイトラボ,0
2028,9050003006873,新規,0,2022-09-26,2022-09-26,合同会社オリーブ,,合同会社,茨城県,日立市,折笠町３４７番地,,08,202,3191412,,,,,,,2022-09-26,1,,,,,オリーブ,0
2029,9060001035287,新規,0,2022-09-26,2022-09-26,遊心高速荷役株式会社,,株式会社,栃木県,小山市,大字粟宮２２８番地１,,09,208,3290201,,,,,,,2022-09-26,1,,,,,ユウシンコウソクニヤク,0
2032,9070003004628,新規,0,2022-09-26,2022-09-26,ＣＡＲ　ＪＡＰＡＮ合同会社,,合同会社,群馬県,伊勢崎市,上諏訪町１２６０番地１わかばハイツＢ棟１０２号室,,10,204,3720021,,,,,,,2022-09-26,1,,,,,カージャパン,0
2064,9120001248980,新規,0,2022-09-26,2022-09-26,株式会社グローブスエステート,,株式会社,大阪府,大阪市天王寺区,上本町４丁目２－１７エーアイビル４０１号室,,27,109,5430001,,,,,,,2022-09-26,1,,,,,グローブスエステート,0
2065,9120001249005,新規,0,2022-09-26,2022-09-26,ウェイバックホーム株式会社,,株式会社,大阪府,大阪市住之江区,粉浜３丁目２番１７号,,27,125,5590001,,,,,,,2022-09-26,1,,,,,ウェイバックホーム,0
2066,9120001249013,新規,0,2022-09-26,2022-09-26,株式会社時,,株式会社,大阪府,大阪市淀川区,田川北２丁目５－３４・Ｄ棟３０２号室,,27,123,5320021,,,,,,,2022-09-26,1,,,,,トキ,0
2067,9120001249021,新規,0,2022-09-26,2022-09-26,臻雄株式会社,,株式会社,大阪府,大阪市中央区,松屋町９番２０号ローレルステート松屋町１２０６Ｂ,,27,128,5420067,,,,,,,2022-09-26,1,,,,,シンユウ,0
2068,9120001249062,新規,0,2022-09-26,2022-09-26,株式会社ＰＤＳ,,株式会社,大阪府,大阪市北区,西天満３丁目３番１７号,,27,127,5300047,,,,,,,2022-09-26,1,,,,,ピーディーエス,0
2075,9120101066259,新規,0,2022-09-26,2022-09-26,株式会社南,,株式会社,大阪府,藤井寺市,御舟町１１－１５,,27,226,5830021,,,,,,,2022-09-26,1,,,,,ミナミ,0
2076,9120103004860,新規,0,2022-09-26,2022-09-26,合同会社インパルス,,合同会社,大阪府,堺市南区,城山台４丁２番２号,,27,145,5900137,,,,,,,2022-09-26,1,,,,,インパルス,0
2080,9120901046518,新規,0,2022-09-26,2022-09-26,株式会社ダノンワーク,,株式会社,大阪府,高槻市,日向町２９番１７号,,27,207,5690024,,,,,,,2022-09-26,1,,,,,ダノンワーク,0
2081,9120905006377,新規,0,2022-09-26,2022-09-26,一般社団法人愛犬共生住宅機構,,その他の設立登記法人,大阪府,豊中市,長興寺北３丁目２番６号カノン緑地１階,,27,203,5610875,,,,,,,2022-09-26,1,,,,,アイケンキョウセイジュウタクキコウ,0
2083,9122003002424,新規,0,2022-09-26,2022-09-26,朝日投資運用合資会社,,合資会社,大阪府,八尾市,本町５丁目５番１－４０１号,,27,212,5810003,,,,,,,2022-09-26,1,,,,,アサヒトウシウンヨウ,0
2090,9130005016581,新規,0,2022-09-26,2022-09-26,一般社団法人カウンセリングセンターきょうと,,その他の設立登記法人,京都府,京都市下京区,真苧屋町１９５福井ビル６Ｆ,,26,106,6008211,,,,,,,2022-09-26,1,,,,,カウンセリングセンターキョウト,0
2092,9140001127423,新規,0,2022-09-26,2022-09-26,株式会社笑楽堂,,株式会社,兵庫県,多可郡多可町,加美区的場５０４番地２,,28,365,6791214,,,,,,,2022-09-26,1,,,,,ワラクドウ,0
2093,9140001127464,新規,0,2022-09-26,2022-09-26,株式会社ＢＯＣＡＬＵ,,株式会社,兵庫県,西宮市,松原町２番１３－８０３号,,28,204,6620912,,,,,,,2022-09-26,1,,,,,ボカル,0
2102,9180001153102,新規,0,2022-09-26,2022-09-26,株式会社アテナゴルフ,,株式会社,愛知県,名古屋市千種区,内山３丁目５番２３号ＡＤＶＡＮ千種ビル５Ｆ,,23,101,4640075,,,,,,,2022-09-26,1,,,,,アテナゴルフ,0
2103,9180003024292,新規,0,2022-09-26,2022-09-26,合同会社エイ・ビー・ダブリュ・インターナショナル,,合同会社,愛知県,名古屋市中区,錦１丁目１７番１３号名興ビルディング２階Ａ３４,,23,106,4600003,,,,,,,2022-09-26,1,,,,,エイビーダブリュインターナショナル,0
2105,9180005019943,新規,0,2022-09-26,2022-09-26,一般社団法人保育士ネイル協会,,その他の設立登記法人,愛知県,豊明市,三崎町中ノ坪９番１０中島ビル２０４号,,23,229,4701125,,,,,,,2022-09-26,1,,,,,ホイクシネイルキョウカイ,0
2112,9220003003366,新規,0,2022-09-26,2022-09-26,合同会社橋本エンジニアリングサービス,,合同会社,石川県,小松市,あけぼの町８４番地,,17,203,9230035,,,,,,,2022-09-26,1,,,,,,0
2126,9260005011140,新規,0,2022-09-26,2022-09-26,一般社団法人倉敷ファッションセンター,,その他の設立登記法人,岡山県,倉敷市,児島駅前１丁目４６番地,,33,202,7110921,,,,,,,2022-09-26,1,,,,,クラシキファッションセンター,0
2132,9290001098988,新規,0,2022-09-26,2022-09-26,株式会社アマゾン・クラシック,,株式会社,福岡県,太宰府市,大佐野１丁目６番１号,,40,221,8180134,,,,,,,2022-09-26,1,,,,,アマゾンクラシック,0
2137,9320001019346,新規,0,2022-09-26,2022-09-26,株式会社ナスリー,,株式会社,大分県,大分市,明野西１丁目２５番１４号,,44,201,8700164,,,,,,,2022-09-26,1,,,,,ナスリー,0
2138,9330001030129,新規,0,2022-09-26,2022-09-26,株式会社ハウスマート,,株式会社,熊本県,熊本市中央区,渡鹿３丁目８番１８号,,43,101,8620970,,,,,,,2022-09-26,1,,,,,ハウスマート,0
2142,9340001025045,新規,0,2022-09-26,2022-09-26,株式会社Ｒ１０,,株式会社,鹿児島県,霧島市,国分広瀬４丁目２１番３号,,46,218,8994321,,,,,,,2022-09-26,1,,,,,アールテン,0
2145,9360001030992,新規,0,2022-09-26,2022-09-26,株式会社ＡＣＣＯＲＥ,,株式会社,沖縄県,浦添市,安波茶１丁目３６番２号,,47,208,9012114,,,,,,,2022-09-26,1,,,,,アコーレ,0
2146,9360001031000,新規,0,2022-09-26,2022-09-26,株式会社ＷｉＬＬ‐ＰＬＡＮ,,株式会社,沖縄県,うるま市,勝連内間１２７０－１,,47,213,9042313,,,,,,,2022-09-26,1,,,,,ウィルプラン,0
2151,9370001049074,新規,0,2022-09-26,2022-09-26,株式会社ｌｉｎｋ,,株式会社,宮城県,仙台市宮城野区,榴岡３丁目７番２７－３０３号,,04,102,9830852,,,,,,,2022-09-26,1,,,,,リンク,0
2159,9390001017021,新規,0,2022-09-26,2022-09-26,株式会社庄内シヤープ,,株式会社,山形県,鶴岡市,宝町７番２６号,,06,203,9970021,,,,,,,2022-09-26,1,,,,,ショウナイシャープ,0
2162,9420005007824,新規,0,2022-09-26,2022-09-26,一般社団法人医療教育福祉機構,,その他の設立登記法人,青森県,青森市,西大野３丁目１３番地４,,02,201,0300856,,,,,,,2022-09-26,1,,,,,イリョウキョウイクフクシキコウ,0
2163,9430001087530,新規,0,2022-09-26,2022-09-26,株式会社レフテクノ,,株式会社,北海道,札幌市北区,あいの里四条４丁目１０番２６号,,01,102,0028074,,,,,,,2022-09-26,1,,,,,レフテクノ,0
2164,9430001087547,新規,0,2022-09-26,2022-09-26,株式会社北伸,,株式会社,北海道,札幌市厚別区,青葉町１丁目１番１－７０１号,,01,108,0040021,,,,,,,2022-09-26,1,,,,,ホクシン,0
2165,9430003014301,新規,0,2022-09-26,2022-09-26,合同会社ｍｅｅｔｕｐ,,合同会社,北海道,札幌市北区,篠路町太平２２２番地,,01,102,0028051,,,,,,,2022-09-26,1,,,,,ミートアップ,0
2167,9450001013798,新規,0,2022-09-26,2022-09-26,株式会社菅原農場,,株式会社,北海道,空知郡中富良野町,字中富良野東４線北十八号,,01,461,0710774,,,,,,,2022-09-26,1,,,,,スガワラノウジョウ,0
2168,9460101007253,新規,0,2022-09-26,2022-09-26,株式会社エイコークリエイティブ,,株式会社,北海道,帯広市,西十条北１丁目８番地,,01,207,0800040,,,,,,,2022-09-26,1,,,,,エイコークリエイティブ,0
2169,9460103001485,新規,0,2022-09-26,2022-09-26,合同会社じゃがのかお,,合同会社,北海道,帯広市,東五条南２１丁目１番地２０,,01,207,0800805,,,,,,,2022-09-26,1,,,,,ジャガノカオ,0
2171,9470001019265,新規,0,2022-09-26,2022-09-26,株式会社Ｆｕｎｎｙ,,株式会社,香川県,三豊市,三野町吉津甲５３４番地４,,37,208,7670033,,,,,,,2022-09-26,1,,,,,ファニー,0
2174,9700150111906,新規,0,2022-09-26,2022-09-26,白山市部入道町土地区画整理組合,,その他,石川県,白山市,部入道町チ２４番地１,,17,210,9202167,,,,,,,2022-09-26,1,,,,,ハクサンシブニユウドウマチトチクカクセイリクミアイ,0
