sequenceNumber,corporateNumber,process,correct,updateDate,changeDate,name,nameImageId,kind,prefectureName,cityName,streetNumber,addressImageId,prefectureCode,cityCode,postCode,addressOutside,addressOutsideImageId,closeDate,closeCause,successorCorporateNumber,changeCause,assignmentDate,latest,enName,enPrefectureName,enCityName,enAddressOutside,furigana,hihyoji
6,1010001262538,新規,0,2026-02-05,2026-02-05,株式会社アップダウン,,株式会社,東京都,文京区,湯島３丁目３５番３号川部ビル１階,,13,105,1130034,,,,,,,2026-02-05,1,,,,,アップダウン,0
13,1010401196237,新規,0,2026-02-05,2026-02-05,虎ノ門交通株式会社,,株式会社,東京都,港区,虎ノ門３丁目５番１号虎ノ門３７森ビル,,13,103,1050001,,,,,,,2026-02-05,1,,,,,トラノモンコウツウ,0
14,1010401196286,新規,0,2026-02-05,2026-02-05,株式会社ＬＡＮＤ　ＯＦ　ＬＡＶＡ,,株式会社,東京都,港区,南青山２丁目１５番５号ＦＡＲＯ青山１Ｆ,,13,103,1070062,,,,,,,2026-02-05,1,,,,,ランドオブラバ,0
22,1010701048988,新規,0,2026-02-05,2026-02-05,ファンダムテック株式会社,,株式会社,東京都,品川区,西五反田１丁目２１番８号ヒューリック五反田山手通ビル４階,,13,109,1410031,,,,,,,2026-02-05,1,,,,,ファンダムテック,0
23,1010701048996,新規,0,2026-02-05,2026-02-05,株式会社妓,,株式会社,東京都,品川区,荏原２丁目３－１ＯＲＳＵＳ戸越銀座１０５,,13,109,1420063,,,,,,,2026-02-05,1,,,,,アソビメ,0
24,1010703008123,新規,0,2026-02-05,2026-02-05,合同会社メディアスケール,,合同会社,東京都,品川区,東五反田１丁目１９番４号レオ五反田辻ビル３０５,,13,109,1410022,,,,,,,2026-02-05,1,,,,,メディアスケール,0
28,1010903010614,新規,0,2026-02-05,2026-02-05,Ｌｏｎｇｂｏｗ　Ｅｓｔａｔｅｓ合同会社,,合同会社,東京都,世田谷区,北沢２丁目２７番９号,,13,112,1550031,,,,,,,2026-02-05,1,,,,,ロングボウエステイツ,0
32,1011001175309,新規,0,2026-02-05,2026-02-05,株式会社ＰＲＥＳＥＲＶＥ,,株式会社,東京都,渋谷区,神宮前２丁目６番６号秀和外苑レジデンス３０１号,,13,113,1500001,,,,,,,2026-02-05,1,,,,,プリザーブ,0
34,1011005011369,新規,0,2026-02-05,2026-02-05,一般社団法人ＬＩＧＡＲＩＳ　Ｈｏｌｄｉｎｇｓ,,その他の設立登記法人,東京都,渋谷区,恵比寿南１丁目５番５号ＪＲ恵比寿ビル１１Ｆ,,13,113,1500022,,,,,,,2026-02-05,1,,,,,リガリスホールディングス,0
36,1011103016724,新規,0,2026-02-05,2026-02-05,ＥＮ　Ｈｏｌｄｉｎｇｓ合同会社,,合同会社,東京都,新宿区,富久町１５番１－５３１８号,,13,104,1620067,,,,,,,2026-02-05,1,,,,,エンホールディングス,0
39,1011203004942,新規,0,2026-02-05,2026-02-05,合同会社ルシアム,,合同会社,東京都,中野区,大和町１丁目２２－６プレジール高円寺２０１,,13,114,1650034,,,,,,,2026-02-05,1,,,,,ルシアム,0
41,1011301031244,新規,0,2026-02-05,2026-02-05,株式会社ＲＥＶＥＲＳＥ　ＦＡＴＥ,,株式会社,東京都,杉並区,和泉４丁目１７番２８号高木デンタルコーポ２０６号室,,13,115,1680063,,,,,,,2026-02-05,1,,,,,リバースフェイト,0
50,1012803003994,新規,0,2026-02-05,2026-02-05,ＮＩＫＯプロダクツ合同会社,,合同会社,東京都,立川市,一番町６丁目１７番地の１エステート立川一番町２２棟２０２号,,13,202,1900033,,,,,,,2026-02-05,1,,,,,ニコプロダクツ,0
57,1020001166993,新規,0,2026-02-05,2026-02-05,株式会社ＦＵＫＵＲＡＭＵ　ＭＵＳＩＣ,,株式会社,神奈川県,横浜市西区,北幸２丁目１番２２号６階Ａ室,,14,103,2200004,,,,,,,2026-02-05,1,,,,,フクラムミュージック,0
60,1020003030289,新規,0,2026-02-05,2026-02-05,合同会社未完成制作所,,合同会社,神奈川県,横浜市港北区,新羽町１２９２番地１グランエスポワール３０８,,14,109,2230057,,,,,,,2026-02-05,1,,,,,ミカンセイセイサクジョ,0
61,1020003030297,新規,0,2026-02-05,2026-02-05,合同会社泰住,,合同会社,神奈川県,横浜市戸塚区,平戸５丁目２３番１号,,14,110,2440802,,,,,,,2026-02-05,1,,,,,タイジュウ,0
62,1020003030306,新規,0,2026-02-05,2026-02-05,合同会社ＴＨＥ．Ｓコーポレーション,,合同会社,神奈川県,横浜市磯子区,磯子３丁目１３番Ｉ－７０４号,,14,107,2350016,,,,,,,2026-02-05,1,,,,,ザエスコーポレーション,0
65,1021001087453,新規,0,2026-02-05,2026-02-05,相模不動産株式会社,,株式会社,神奈川県,藤沢市,城南４丁目１０番３３号,,14,205,2510057,,,,,,,2026-02-05,1,,,,,サガミフドウサン,0
67,1030001170805,新規,0,2026-02-05,2026-02-05,廣昌株式会社,,株式会社,埼玉県,さいたま市岩槻区,大字大口堤下２６８－３,,11,110,3390013,,,,,,,2026-02-05,1,,,,,コウショー,0
68,1030001170838,新規,0,2026-02-05,2026-02-05,Ｏｒｉｏｎ・Ｃａｐｉｔａｌ株式会社,,株式会社,埼玉県,さいたま市浦和区,領家６丁目６番１１号,,11,107,3300072,,,,,,,2026-02-05,1,,,,,オリオンキャピタル,0
69,1030001170854,新規,0,2026-02-05,2026-02-05,株式会社カメリア,,株式会社,埼玉県,越谷市,大字下間久里９２番地１,,11,222,3430045,,,,,,,2026-02-05,1,,,,,カメリア,0
70,1030001170862,新規,0,2026-02-05,2026-02-05,Ｋ制御システム株式会社,,株式会社,埼玉県,上尾市,大字原市１２２６番地１,,11,219,3620021,,,,,,,2026-02-05,1,,,,,ケーセイギョシステム,0
71,1030001170870,新規,0,2026-02-05,2026-02-05,株式会社アミモリオートリンク,,株式会社,埼玉県,富士見市,大字上南畑１９０－１５,,11,235,3540002,,,,,,,2026-02-05,1,,,,,アミモリオートリンク,0
75,1030003028571,新規,0,2026-02-05,2026-02-05,ＴＫ　ｓｔｕｄｉｏ合同会社,,合同会社,埼玉県,川越市,神明町１番地１５,,11,201,3500823,,,,,,,2026-02-05,1,,,,,ティーケースタジオ,0
76,1030003028596,新規,0,2026-02-05,2026-02-05,合同会社ブルーオーシャン,,合同会社,埼玉県,戸田市,川岸３丁目３番１４号,,11,224,3350015,,,,,,,2026-02-05,1,,,,,ブルーオーシャン,0
78,1030005022390,新規,0,2026-02-05,2026-02-05,特定非営利活動法人ＦｒｅＦｒｅＴＶ,,その他の設立登記法人,埼玉県,さいたま市浦和区,常盤２丁目８－１６イトーピア常盤７０４,,11,107,3300061,,,,,,,2026-02-05,1,,,,,フリフリティビー,0
81,1040001142324,新規,0,2026-02-05,2026-02-05,山徳株式会社,,株式会社,千葉県,佐倉市,下志津９０８番地,,12,212,2850841,,,,,,,2026-02-05,1,,,,,サントク,0
82,1040001142332,新規,0,2026-02-05,2026-02-05,株式会社Ｒｕｎａ　Ｐｒｏｄｕｃｔｉｏｎ,,株式会社,千葉県,千葉市若葉区,愛生町５３番地２５,,12,104,2640031,,,,,,,2026-02-05,1,,,,,ルナプロダクション,0
83,1040001142349,新規,0,2026-02-05,2026-02-05,株式会社Ｃ＆Ｄ　Ｈｕｂ,,株式会社,千葉県,船橋市,印内町５６４番地８サウスサイドビル４階ＡＺＯｆｆｉｃｅＰＩＴＩＮＮ１３Ｎｏ．４,,12,204,2730025,,,,,,,2026-02-05,1,,,,,シーアンドディーハブ,0
84,1040001142357,新規,0,2026-02-05,2026-02-05,株式会社Ｔ２,,株式会社,千葉県,松戸市,本町１９番地の３エスクード３０５号,,12,207,2710091,,,,,,,2026-02-05,1,,,,,ティーツー,0
86,1040005023033,新規,0,2026-02-05,2026-02-05,医療法人社団Ｃｈｅｒ,,その他の設立登記法人,千葉県,柏市,若柴２７６番地１中央１６１街区１ＫＡＳＨＩＷＡＮＯＨＡＣＬＩＮＩＣＭＡＬＬ１階,,12,217,2770871,,,,,,,2026-02-05,1,,,,,シェール,0
91,1050001057950,新規,0,2026-02-05,2026-02-05,株式会社ｗｒｅｎｃｈ,,株式会社,茨城県,筑西市,幸町１丁目２４番１６号,,08,227,3080848,,,,,,,2026-02-05,1,,,,,レンチ,0
105,1100001039316,新規,0,2026-02-05,2026-02-05,株式会社ジオデザイン,,株式会社,長野県,松本市,村井町南１丁目２１番１４号,,20,202,3990036,,,,,,,2026-02-05,1,,,,,ジオデザイン,0
118,1120001283853,新規,0,2026-02-05,2026-02-05,株式会社ＣＲＥＳＣＯ,,株式会社,大阪府,大阪市鶴見区,今津南２丁目４番３８－１１１号室,,27,124,5380043,,,,,,,2026-02-05,1,,,,,クレスコ,0
122,1120005025384,新規,0,2026-02-05,2026-02-05,一般社団法人クリーンプロジェクト,,その他の設立登記法人,大阪府,大阪市北区,梅田１丁目２番２号大阪駅前第２ビル１２－１２,,27,127,5300001,,,,,,,2026-02-05,1,,,,,クリーンプロジェクト,0
123,1120005025392,新規,0,2026-02-05,2026-02-05,ことのは司法書士法人,,その他の設立登記法人,大阪府,大阪市西区,新町１丁目８番１号行成ビル,,27,106,5500013,,,,,,,2026-02-05,1,,,,,コトノハ,0
124,1120901052201,新規,0,2026-02-05,2026-02-05,株式会社ＡＺＵ,,株式会社,大阪府,摂津市,千里丘７丁目１―９,,27,224,5660001,,,,,,,2026-02-05,1,,,,,アズ,0
130,1130003011138,新規,0,2026-02-05,2026-02-05,合同会社Ｏｎｅ　ｆｏｒ　ａｌｌ,,合同会社,京都府,京都市下京区,七条通油小路東入大黒町２２７番地第２キョートビル４０２,,26,106,6008223,,,,,,,2026-02-05,1,,,,,ワンフォーオール,0
136,1140001141555,新規,0,2026-02-05,2026-02-05,ＧＶＥ　Ｔｅｃｈｎｏｌｏｇｙ株式会社,,株式会社,兵庫県,神戸市中央区,旗塚通１丁目６－２－４Ｆ,,28,110,6510068,,,,,,,2026-02-05,1,,,,,ジーブイイーテクノロジー,0
137,1140001141638,新規,0,2026-02-05,2026-02-05,想いを紡ぐ株式会社,,株式会社,兵庫県,神戸市垂水区,星が丘１丁目２番２５号,,28,108,6550032,,,,,,,2026-02-05,1,,,,,オモイヲツムグ,0
138,1140001141646,新規,0,2026-02-05,2026-02-05,株式会社ＷＯＲＬＤ　ＧＡＴＥ,,株式会社,兵庫県,芦屋市,呉川町１５番３号１Ｆ,,28,206,6590051,,,,,,,2026-02-05,1,,,,,ワールドゲート,0
142,1140005027791,新規,0,2026-02-05,2026-02-05,ＮＰＯ法人神戸エッグス,,その他の設立登記法人,兵庫県,神戸市兵庫区,吉田町１丁目９番１２－２号,,28,105,6520872,,,,,,,2026-02-05,1,,,,,コウベエッグス,0
148,1170005007188,新規,0,2026-02-05,2026-02-05,医療法人おおぞら会,,その他の設立登記法人,和歌山県,有田郡有田川町,大字下津野８５４－１,,30,366,6430021,,,,,,,2026-02-05,1,,,,,オオゾラカイ,0
152,1180001170542,新規,0,2026-02-05,2026-02-05,ｙｏｈａｑ株式会社,,株式会社,愛知県,名古屋市中区,栄５丁目２６番３９号ＧＳ栄ビル３Ｆ,,23,106,4600008,,,,,,,2026-02-05,1,,,,,ヨハク,0
153,1180001170550,新規,0,2026-02-05,2026-02-05,株式会社雅Ｇｒｏｕｐ,,株式会社,愛知県,一宮市,和光２丁目１０番９号,,23,203,4910026,,,,,,,2026-02-05,1,,,,,ミヤビグループ,0
157,1180003029745,新規,0,2026-02-05,2026-02-05,合同会社ＡｉｋａＦｉｅｌｄｓ,,合同会社,愛知県,稲沢市,片原一色町道法１６番地１,,23,220,4928355,,,,,,,2026-02-05,1,,,,,アイカフィールズ,0
160,1190001032881,新規,0,2026-02-05,2026-02-05,成有グループ株式会社,,株式会社,三重県,亀山市,みどり町１番地３３,,24,210,5190106,,,,,,,2026-02-05,1,,,,,セイユウグループ,0
165,1200001044693,新規,0,2026-02-05,2026-02-05,株式会社いちごいちえ,,株式会社,岐阜県,可児市,瀬田１０３２番地３,,21,214,5090213,,,,,,,2026-02-05,1,,,,,イチゴイチエ,0
166,1230001021285,新規,0,2026-02-05,2026-02-05,株式会社ＨＫトラストライン,,株式会社,富山県,高岡市,福岡町土屋６９１番地１,,16,202,9390142,,,,,,,2026-02-05,1,,,,,エイチケートラストライン,0
169,1240001066123,新規,0,2026-02-05,2026-02-05,栄泉株式会社,,株式会社,広島県,広島市安佐北区,口田南２丁目１８番６－１１号,,34,106,7391733,,,,,,,2026-02-05,1,,,,,エイセン,0
170,1250001021531,新規,0,2026-02-05,2026-02-05,誠光株式会社,,株式会社,山口県,下松市,南花岡４丁目５番８号,,35,207,7440027,,,,,,,2026-02-05,1,,,,,セイコウ,0
175,1260001040968,新規,0,2026-02-05,2026-02-05,株式会社ＫＯＴＯＲＩＮＫ,,株式会社,岡山県,勝田郡勝央町,黒坂１０２番地６,,33,622,7094323,,,,,,,2026-02-05,1,,,,,コトリンク,0
191,1300001014496,新規,0,2026-02-05,2026-02-05,伊万里歴史まちづくり株式会社,,株式会社,佐賀県,伊万里市,二里町八谷搦１１２番地１５,,41,205,8480031,,,,,,,2026-02-05,1,,,,,イマリレキシマチヅクリ,0
194,1330001033972,新規,0,2026-02-05,2026-02-05,株式会社真,,株式会社,熊本県,熊本市北区,植木町植木４４５－２,,43,105,8610132,,,,,,,2026-02-05,1,,,,,シン,0
198,1340001027957,新規,0,2026-02-05,2026-02-05,株式会社ヤマキタ水産,,株式会社,鹿児島県,出水郡長島町,諸浦１２５７番地５,,46,404,8991403,,,,,,,2026-02-05,1,,,,,ヤマキタスイサン,0
208,1360003015603,新規,0,2026-02-05,2026-02-05,合同会社マハロ,,合同会社,沖縄県,那覇市,小禄２丁目２番地８,,47,201,9010152,,,,,,,2026-02-05,1,,,,,マハロ,0
210,1370001053463,新規,0,2026-02-05,2026-02-05,株式会社三義,,株式会社,宮城県,仙台市青葉区,一番町２丁目３‐３０号いろは横丁内５９号,,04,101,9800811,,,,,,,2026-02-05,1,,,,,ミヨシ,0
211,1380003006245,新規,0,2026-02-05,2026-02-05,合同会社イーミッシュ,,合同会社,福島県,会津若松市,栄町３番１８号,,07,202,9650871,,,,,,,2026-02-05,1,,,,,イーミッシュ,0
226,1430003018557,新規,0,2026-02-05,2026-02-05,合同会社ＡＸＩＡ１９,,合同会社,北海道,札幌市中央区,南一条東７丁目２－２ラピスアクアシティ大通１４０３号室,,01,101,0600051,,,,,,,2026-02-05,1,,,,,アクシアナインティーン,0
229,1460001006065,新規,0,2026-02-05,2026-02-05,株式会社Ａｌｌ・ｃｒａｆｔ　Ｓ,,株式会社,北海道,川上郡標茶町,旭５丁目２番２号,,01,664,0882301,,,,,,,2026-02-05,1,,,,,オールクラフトエス,0
232,1470003003068,新規,0,2026-02-05,2026-02-05,ＩＮＡＧＥｆａｒｍ合同会社,,合同会社,香川県,丸亀市,飯山町東小川２４９番地,,37,202,7620085,,,,,,,2026-02-05,1,,,,,イナゲファーム,0
237,1700150134006,新規,0,2026-02-05,2026-02-05,Ｇｏｐｈｅｒ　Ｈｏｌｄｉｎｇｓ（ＨＫ）Ｌｉｍｉｔｅｄ,,外国会社等,,,,,,,,ＢＬＫ２　３１／Ｆ　Ｔｉｍｅｓ　Ｓｑｕａｒｅ，１　Ｍａｔｈｅｓｏｎ　Ｓｔｒｅｅｔ，Ｃａｕｓｅｗａｙ　Ｂａｙ，ＨＫ,,,,,,2026-02-05,1,,,,,ゴーフアーホールデイングスホンコンリミテツド,0
254,2010003050287,新規,0,2026-02-05,2026-02-05,合同会社ＲＩＬＬ,,合同会社,東京都,中央区,京橋２丁目１１番３号服部ビル４０１号室,,13,102,1040031,,,,,,,2026-02-05,1,,,,,ライル,0
259,2010101017072,新規,0,2026-02-05,2026-02-05,株式会社ＷＩＳＥ・ＡＤＶＩＣＥ,,株式会社,東京都,八王子市,みなみ野２丁目１６番９号Ｄ－ＣＵＢＥ２Ｆ,,13,201,1920916,,,,,,,2026-02-05,1,,,,,ワイズアドバイス,0
267,2010401196236,新規,0,2026-02-05,2026-02-05,横横交通株式会社,,株式会社,東京都,港区,虎ノ門３丁目５番１号虎ノ門３７森ビル,,13,103,1050001,,,,,,,2026-02-05,1,,,,,ヨコヨココウツウ,0
268,2010403037223,新規,0,2026-02-05,2026-02-05,Ｎｉｃｋ　Ｗｏｏｄ　Ｍｕｓｉｃ合同会社,,合同会社,東京都,港区,六本木７丁目７番７号トライセブン六本木１３階,,13,103,1060032,,,,,,,2026-02-05,1,,,,,ニックウッドミュージック,0
277,2010601068672,新規,0,2026-02-05,2026-02-05,株式会社ＡｌｇｏＢａｓｅ　Ｔｅｃｈｎｏｌｏｇｉｅｓ,,株式会社,東京都,江東区,有明３丁目７番２６号有明フロンティアビルＢ棟９階,,13,108,1350063,,,,,,,2026-02-05,1,,,,,アルゴベーステクノロジーズ,0
278,2010603012034,新規,0,2026-02-05,2026-02-05,合同会社サン,,合同会社,東京都,墨田区,東墨田１丁目７－７,,13,107,1310042,,,,,,,2026-02-05,1,,,,,サン,0
283,2010701048962,新規,0,2026-02-05,2026-02-05,株式会社Ｆｉｌｌｔｙ,,株式会社,東京都,品川区,西品川３丁目１３番１４号,,13,109,1410033,,,,,,,2026-02-05,1,,,,,フィルティー,0
284,2010701048987,新規,0,2026-02-05,2026-02-05,株式会社イー・エージェンシー,,株式会社,東京都,品川区,西五反田１丁目２１番８号ヒューリック五反田山手通ビル４階,,13,109,1410031,,,,,,,2026-02-05,1,,,,,イーエージェンシー,0
285,2010703008122,新規,0,2026-02-05,2026-02-05,合同会社フォーシーム・コンサルティング,,合同会社,東京都,品川区,戸越６丁目２２番５号,,13,109,1420041,,,,,,,2026-02-05,1,,,,,フォーシームコンサルティング,0
286,2010801037015,新規,0,2026-02-05,2026-02-05,株式会社ユルム,,株式会社,東京都,大田区,蒲田５丁目７番４号エンゼルハイム蒲田第５－１１０１号室,,13,111,1440052,,,,,,,2026-02-05,1,,,,,ユルム,0
294,2011001175183,新規,0,2026-02-05,2026-02-05,株式会社藍,,株式会社,東京都,渋谷区,神南１丁目１１－４ＦＰＧリンクス神南５階,,13,113,1500041,,,,,,,2026-02-05,1,,,,,アイ,0
295,2011001175290,新規,0,2026-02-05,2026-02-05,株式会社ＭａｙａＷａｇ,,株式会社,東京都,渋谷区,恵比寿西２丁目８番４号ＥＸ恵比寿西ビル５階,,13,113,1500021,,,,,,,2026-02-05,1,,,,,マヤワグ,0
296,2011001175514,新規,0,2026-02-05,2026-02-05,株式会社渋谷トラスト,,株式会社,東京都,渋谷区,道玄坂１丁目１７番１１号ミナミビル３階,,13,113,1500043,,,,,,,2026-02-05,1,,,,,シブヤトラスト,0
297,2011003023480,新規,0,2026-02-05,2026-02-05,合同会社ピカリス,,合同会社,東京都,目黒区,原町１丁目２５－１１メゾンドロゼ１０１,,13,110,1520011,,,,,,,2026-02-05,1,,,,,ピカリス,0
299,2011101114628,新規,0,2026-02-05,2026-02-05,普賢株式会社,,株式会社,東京都,新宿区,百人町１丁目１８番８号大久保カドビルＬｉｎｋＳｐａｃｅ百人町Ａ０５,,13,104,1690073,,,,,,,2026-02-05,1,,,,,フゲン,0
302,2011301031243,新規,0,2026-02-05,2026-02-05,株式会社オキシテック関東,,株式会社,東京都,杉並区,高円寺南４丁目２－８サン・ユースビルＩＩ３Ｆ,00142466,13,115,1660003,,,,,,,2026-02-05,1,,,,,オキシテックカントウ,0
309,2011601029359,新規,0,2026-02-05,2026-02-05,ＭｕＵ株式会社,,株式会社,東京都,練馬区,高松１丁目３２番１５号,,13,120,1790075,,,,,,,2026-02-05,1,,,,,ムー,0
312,2012303002281,新規,0,2026-02-05,2026-02-05,Ａｎｇｅｌｓ　Ｐａｒｔｙ合同会社,,合同会社,東京都,町田市,能ヶ谷７丁目４６－３,,13,209,1950053,,,,,,,2026-02-05,1,,,,,エンジェルパーティ,0
323,2020001167066,新規,0,2026-02-05,2026-02-05,株式会社Ｋｏｔｏｒ,,株式会社,神奈川県,横浜市西区,北幸２丁目１０番４８号むつみビル３階,,14,103,2200004,,,,,,,2026-02-05,1,,,,,コトル,0
327,2021003017119,新規,0,2026-02-05,2026-02-05,合同会社Ｈｅａｖｅｎ,,合同会社,神奈川県,小田原市,鴨宮３番地,,14,206,2500874,,,,,,,2026-02-05,1,,,,,ヘブン,0
330,2030001170812,新規,0,2026-02-05,2026-02-05,株式会社ｍｏＲｉｃｈ,,株式会社,埼玉県,坂戸市,清水町４６番４０号ライフルマンション１０３号室,,11,239,3500222,,,,,,,2026-02-05,1,,,,,モリッチ,0
331,2030001170829,新規,0,2026-02-05,2026-02-05,株式会社リンド,,株式会社,埼玉県,さいたま市大宮区,仲町２丁目４２番地セッテイン大宮５階,,11,103,3300845,,,,,,,2026-02-05,1,,,,,リンド,0
332,2030001170837,新規,0,2026-02-05,2026-02-05,株式会社吉越,,株式会社,埼玉県,春日部市,上柳４６４－３,,11,214,3440121,,,,,,,2026-02-05,1,,,,,ヨシゴエ,0
333,2030001170845,新規,0,2026-02-05,2026-02-05,株式会社拠点展開コンサルティング,,株式会社,埼玉県,東松山市,あずま町１丁目１６番地１０ラッフィナート１０３,,11,212,3550048,,,,,,,2026-02-05,1,,,,,キョテンテンカイコンサルティング,0
334,2030001170853,新規,0,2026-02-05,2026-02-05,株式会社丸山水産,,株式会社,埼玉県,富士見市,渡戸２丁目１６番１８号,,11,235,3540032,,,,,,,2026-02-05,1,,,,,マルヤマスイサン,0
335,2030001170861,新規,0,2026-02-05,2026-02-05,株式会社杏樹,,株式会社,埼玉県,蓮田市,西城３丁目９８番地９,,11,238,3490145,,,,,,,2026-02-05,1,,,,,アンジュ,0
336,2030001170878,新規,0,2026-02-05,2026-02-05,株式会社杉田商事,,株式会社,埼玉県,加須市,上高柳１６９番地１,,11,210,3470101,,,,,,,2026-02-05,1,,,,,スギタショウジ,0
337,2030001170886,新規,0,2026-02-05,2026-02-05,株式会社ＲｅＳｈａｐｅ,,株式会社,埼玉県,川口市,鳩ヶ谷本町３丁目８番３－２０７号ダイアパレス鳩ヶ谷本町,,11,203,3340002,,,,,,,2026-02-05,1,,,,,リシェイプ,0
341,2030003028546,新規,0,2026-02-05,2026-02-05,合同会社てとて,,合同会社,埼玉県,さいたま市岩槻区,仲町２丁目１０番１５号,,11,110,3390054,,,,,,,2026-02-05,1,,,,,テトテ,0
342,2030003028579,新規,0,2026-02-05,2026-02-05,合同会社はじめの一歩,,合同会社,埼玉県,川口市,上青木２丁目１１番１９号,,11,203,3330844,,,,,,,2026-02-05,1,,,,,ハジメノイッポ,0
343,2030003028595,新規,0,2026-02-05,2026-02-05,合同会社ｍ＆ｍ,,合同会社,埼玉県,上尾市,大字原市１４２３番地３２,,11,219,3620021,,,,,,,2026-02-05,1,,,,,エムアンドエム,0
345,2040001142307,新規,0,2026-02-05,2026-02-05,株式会社Ｈｉｇｈｌａｎｄ　Ｄａｙ,,株式会社,千葉県,我孫子市,台田１丁目１番５６－４０１号,,12,222,2701167,,,,,,,2026-02-05,1,,,,,ハイランドデイ,0
353,2070005010465,新規,0,2026-02-05,2026-02-05,社会保険労務士法人児島労務管理事務所,,その他の設立登記法人,群馬県,伊勢崎市,田中島町１４９５番地２,,10,204,3720802,,,,,,,2026-02-05,1,,,,,コジマロウムカンリジムショ,0
357,2080401028424,新規,0,2026-02-05,2026-02-05,株式会社裕環,,株式会社,静岡県,浜松市中央区,三方原町１３０６番地の３,,22,138,4338105,,,,,,,2026-02-05,1,,,,,ユウワ,0
373,2120001283902,新規,0,2026-02-05,2026-02-05,ナカマテラス株式会社,,株式会社,大阪府,大阪市中央区,瓦町３丁目４番９号ステーツ本町３Ｆ,,27,128,5410048,,,,,,,2026-02-05,1,,,,,ナカマテラス,0
374,2120001284009,新規,0,2026-02-05,2026-02-05,株式会社ＯＰＴＩＭＵＳ　Ｘ,,株式会社,大阪府,大阪市中央区,北浜東４番２４－３４０３号,,27,128,5400031,,,,,,,2026-02-05,1,,,,,オプティマスエックス,0
380,2120003031805,新規,0,2026-02-05,2026-02-05,合同会社保育福祉研究会,,合同会社,大阪府,交野市,倉治２丁目４６番１４－１１号,,27,230,5760051,,,,,,,2026-02-05,1,,,,,ホイクフクシケンキュウカイ,0
385,2120901052175,新規,0,2026-02-05,2026-02-05,株式会社ＯＯＰＡＲＴＳ,,株式会社,大阪府,茨木市,水尾３丁目１６番２５号,,27,211,5670891,,,,,,,2026-02-05,1,,,,,オオパーツ,0
389,2130003011129,新規,0,2026-02-05,2026-02-05,Ｎ．Ｙ．Ａ．合同会社,,合同会社,京都府,京都市下京区,七条通油小路東入大黒町２２７番地第２キョートビル４０２,,26,106,6008223,,,,,,,2026-02-05,1,,,,,エヌワイエー,0
390,2130003011137,新規,0,2026-02-05,2026-02-05,Ｋｅｎｊｉｎ　Ｌａｂｓ合同会社,,合同会社,京都府,京都市右京区,梅津西浦町２３番地７梅津西浦町個室ブース１０３,,26,108,6150917,,,,,,,2026-02-05,1,,,,,ケンジンラボ,0
399,2140001141463,新規,0,2026-02-05,2026-02-05,株式会社ＴＡＫＡＲＡＫＯＧＹＯ,,株式会社,兵庫県,尼崎市,立花町３丁目３３－１０－１０１,,28,202,6610025,,,,,,,2026-02-05,1,,,,,カタラコウギョウ,0
400,2140001141595,新規,0,2026-02-05,2026-02-05,株式会社ＮＯＵＶＥＬ　ＥＬＡＮ,,株式会社,兵庫県,明石市,大久保町ゆりのき通１丁目１番地の１イーストスクエアＩＩ番館１３０１号,00142473,28,203,6740068,,,,,,,2026-02-05,1,,,,,ヌーベルエラン,0
401,2140001141604,新規,0,2026-02-05,2026-02-05,株式会社ＥＨＲＥＺ,,株式会社,兵庫県,西宮市,山口町名来１丁目７番１４号,,28,204,6511411,,,,,,,2026-02-05,1,,,,,エーレッツ,0
402,2140001141645,新規,0,2026-02-05,2026-02-05,株式会社ＧＲＡＶＹ,,株式会社,兵庫県,川西市,緑台７丁目１番地の２７,,28,217,6660129,,,,,,,2026-02-05,1,,,,,グレイビー,0
410,2140005027790,新規,0,2026-02-05,2026-02-05,一般社団法人三田青磁振興協会,,その他の設立登記法人,兵庫県,三田市,四ツ辻７２０番地２,00142475,28,219,6691342,,,,,,,2026-02-05,1,,,,,サンダセイジシンコウキョウカイ,0
411,2160001027396,新規,0,2026-02-05,2026-02-05,株式会社三和貴,,株式会社,滋賀県,彦根市,高宮町２５７５番地,,25,202,5220201,,,,,,,2026-02-05,1,,,,,ミワキ,0
415,2170005007187,新規,0,2026-02-05,2026-02-05,医療法人天響会,,その他の設立登記法人,和歌山県,和歌山市,下町１８,,30,201,6408220,,,,,,,2026-02-05,1,,,,,アマビコカイ,0
420,2180001170541,新規,0,2026-02-05,2026-02-05,株式会社飛計会,,株式会社,愛知県,名古屋市西区,枇杷島２丁目６番３２号,,23,104,4510053,,,,,,,2026-02-05,1,,,,,ヒケイカイ,0
438,2230001021284,新規,0,2026-02-05,2026-02-05,株式会社友和板金,,株式会社,富山県,高岡市,大手町１６番５号,,16,202,9330039,,,,,,,2026-02-05,1,,,,,ユウワバンキン,0
444,2240003007578,新規,0,2026-02-05,2026-02-05,合同会社デントリペアＣａｌｌｉｎｇ,,合同会社,広島県,安芸郡海田町,東１丁目３番１４－２０号,,34,304,7360013,,,,,,,2026-02-05,1,,,,,デントリペアコーリング,0
445,2240003007586,新規,0,2026-02-05,2026-02-05,合同会社ＭＳＫ,,合同会社,広島県,広島市東区,牛田新町３丁目１９番３７－７０６号,,34,102,7320068,,,,,,,2026-02-05,1,,,,,エムエスケイ,0
446,2250003003898,新規,0,2026-02-05,2026-02-05,合同会社ｎａｃａｙｏｃｉ,,合同会社,山口県,下関市,豊浦町吉永９０７,,35,201,7500000,,,,,,,2026-02-05,1,,,,,ナカヨシ,0
449,2260001040967,新規,0,2026-02-05,2026-02-05,株式会社ＫＥＹ　ＦＬＯＣＣＡ,,株式会社,岡山県,岡山市北区,本町６番３６号第一セントラルビル４Ｆ,,33,101,7000901,,,,,,,2026-02-05,1,,,,,キーフロッカ,0
464,2300001014495,新規,0,2026-02-05,2026-02-05,株式会社ＦＤＳリンクス,,株式会社,佐賀県,鹿島市,大字高津原３７８４番地１,,41,207,8491311,,,,,,,2026-02-05,1,,,,,エフディーエスリンクス,0
465,2310001019948,新規,0,2026-02-05,2026-02-05,株式会社キャリママＦＰ会,,株式会社,長崎県,長崎市,扇町３１－１－３０５号,,42,201,8528132,,,,,,,2026-02-05,1,,,,,キャリママエフピーカイ,0
467,2320001021572,新規,0,2026-02-05,2026-02-05,ＬＩＶＡＮＣＥ株式会社,,株式会社,大分県,大分市,碩田町３丁目１番１号オフィスニューガイア大分北１Ｆ,,44,201,8700048,,,,,,,2026-02-05,1,,,,,リバンス,0
469,2330001033971,新規,0,2026-02-05,2026-02-05,株式会社Ｙ・Ｋ・Ｔ馬場企画,,株式会社,熊本県,玉名郡長洲町,大字清源寺２５１４番地３,,43,368,8690105,,,,,,,2026-02-05,1,,,,,ワイケイティババキカク,0
470,2330003011422,新規,0,2026-02-05,2026-02-05,合同会社Ｄｅａｒ,,合同会社,熊本県,宇城市,松橋町曲野２１６３番地１松久ビル１－Ｃ,,43,213,8690511,,,,,,,2026-02-05,1,,,,,ディア,0
471,2340001027956,新規,0,2026-02-05,2026-02-05,株式会社仮屋,,株式会社,鹿児島県,鹿児島市,山田町１６０４番地１,,46,201,8910104,,,,,,,2026-02-05,1,,,,,カリヤ,0
480,2360001036328,新規,0,2026-02-05,2026-02-05,株式会社石垣島食品加工社,,株式会社,沖縄県,石垣市,字登野城２６－４,,47,207,9070004,,,,,,,2026-02-05,1,,,,,イシガキジマショクヒンカコウシャ,0
481,2360003015602,新規,0,2026-02-05,2026-02-05,東勇工業合同会社,,合同会社,沖縄県,那覇市,古島２丁目２３番地１いずみハウス３０２,,47,201,9020061,,,,,,,2026-02-05,1,,,,,トウユウコウギョウ,0
484,2420001019409,新規,0,2026-02-05,2026-02-05,株式会社ＦＲＥＷ,,株式会社,青森県,青森市,大字幸畑字松元６３番地３,,02,201,0300943,,,,,,,2026-02-05,1,,,,,フルー,0
485,2420003003237,新規,0,2026-02-05,2026-02-05,合同会社ＯｃｅａｎＢｌｕｅ１８,,合同会社,青森県,八戸市,城下４丁目１４番５号,,02,203,0310072,,,,,,,2026-02-05,1,,,,,オーシャンブルーエイティーン,0
490,2430001096174,新規,0,2026-02-05,2026-02-05,株式会社Ｔｅｋｋｙ,,株式会社,北海道,札幌市清田区,北野六条３丁目１３－１６,,01,110,0040866,,,,,,,2026-02-05,1,,,,,テッキー,0
494,2470001021079,新規,0,2026-02-05,2026-02-05,Ｈｉｎｏｒｉ　Ｈｏｌｄｉｎｇｓ株式会社,,株式会社,香川県,丸亀市,飯山町東小川２４９番地,,37,202,7620085,,,,,,,2026-02-05,1,,,,,ハイノリホールディングス,0
501,2700150134005,新規,0,2026-02-05,2026-02-05,Ｊｏｙ　Ｉｎｖｅｓｔｍｅｎｔ　Ｉｎｔｅｒｎａｔｉｏｎａｌ　Ｌｉｍｉｔｅｄ,,外国会社等,,,,,,,,Ｔｏｗｅｒ２　３４／Ｆ　Ｔｉｍｅｓ　Ｓｑｕａｒｅ，１　Ｍａｔｈｅｓｏｎ　Ｓｔｒｅｅｔ，Ｃａｕｓｅｗａｙ　Ｂａｙ，ＨＫ,,,,,,2026-02-05,1,,,,,ジヨイインベストメントインターナシヨナルリミテツド,0
514,3010001262313,新規,0,2026-02-05,2026-02-05,株式会社ｕｆｏブリッジ,,株式会社,東京都,中央区,銀座１丁目１２番４号Ｎ＆Ｅ＿ＢＬＤ．６Ｆ,,13,102,1040061,,,,,,,2026-02-05,1,,,,,ユーエフオーブリッジ,0
515,3010001262503,新規,0,2026-02-05,2026-02-05,株式会社平安中央商事,,株式会社,東京都,中央区,銀座７丁目１２番４号,,13,102,1040061,,,,,,,2026-02-05,1,,,,,ヘイアンチュウオウショウジ,0
516,3010001262511,新規,0,2026-02-05,2026-02-05,株式会社ＧＲＡＦＩＡ,,株式会社,東京都,文京区,根津２丁目１６番１号,,13,105,1130031,,,,,,,2026-02-05,1,,,,,グラフィア,0
517,3010001262552,新規,0,2026-02-05,2026-02-05,Ｃｕｒｓｏｒｖｅｒｓ株式会社,,株式会社,東京都,千代田区,九段南１丁目５番６号りそな九段ビル５階ＫＳフロア,,13,101,1020074,,,,,,,2026-02-05,1,,,,,カーソルバース,0
518,3010001262577,新規,0,2026-02-05,2026-02-05,アイデジナーレ株式会社,,株式会社,東京都,千代田区,神田須田町１丁目２８番地２,,13,101,1010041,,,,,,,2026-02-05,1,,,,,アイデジナーレ,0
519,3010003050278,新規,0,2026-02-05,2026-02-05,合同会社ＰＦケイニス,,合同会社,東京都,千代田区,平河町１丁目６番１５号シルスフィア会計事務所内,,13,101,1020093,,,,,,,2026-02-05,1,,,,,ピーエフケイニス,0
520,3010003050311,新規,0,2026-02-05,2026-02-05,ＵＮＣＨＡＩＮＥＤ合同会社,,合同会社,東京都,中央区,晴海３丁目１３－１,,13,102,1040053,,,,,,,2026-02-05,1,,,,,アンチェインド,0
522,3010101017071,新規,0,2026-02-05,2026-02-05,株式会社Ｒｅ・Ｎ,,株式会社,東京都,八王子市,椚田町２５１番地４,,13,201,1930942,,,,,,,2026-02-05,1,,,,,リエヌ,0
526,3010401196169,新規,0,2026-02-05,2026-02-05,グランディ株式会社,,株式会社,東京都,港区,白金３丁目１１－８白金レーベル１Ｆ,,13,103,1080072,,,,,,,2026-02-05,1,,,,,グランディ,0
527,3010401196284,新規,0,2026-02-05,2026-02-05,株式会社ＡＮ　Ｇｌｏｂａｌ　Ｒｅａｌｔｙ,,株式会社,東京都,港区,新橋６丁目１１番８号ＰＯＲＴＯＮＥＳＨＩＭＢＡＳＨＩ１Ｆ,,13,103,1050004,,,,,,,2026-02-05,1,,,,,エーエヌグローバルリアルティ,0
530,3010403037107,新規,0,2026-02-05,2026-02-05,Ａｒｍａｎ合同会社,,合同会社,東京都,港区,白金１丁目２番１Ｅ３１０６,,13,103,1080072,,,,,,,2026-02-05,1,,,,,アルマン,0
531,3010403037239,新規,0,2026-02-05,2026-02-05,ニッチワークス合同会社,,合同会社,東京都,港区,浜松町２丁目２番１５号浜松町ダイヤビル２Ｆ,,13,103,1050013,,,,,,,2026-02-05,1,,,,,ニッチワークス,0
532,3010501055415,新規,0,2026-02-05,2026-02-05,ＰＸＣ株式会社,,株式会社,東京都,台東区,台東４丁目１９番９号,,13,106,1100016,,,,,,,2026-02-05,1,,,,,ピーエックスシー,0
535,3010601068671,新規,0,2026-02-05,2026-02-05,凡石株式会社,,株式会社,東京都,江東区,東雲２丁目１１番２２号ニイチクビル５Ｂ,,13,108,1350062,,,,,,,2026-02-05,1,,,,,ボンイシ,0
537,3010703008121,新規,0,2026-02-05,2026-02-05,ＡＫＩＹ合同会社,,合同会社,東京都,品川区,戸越５丁目２０番１６号ｔｒｉａｓ５２０－２０３,,13,109,1420041,,,,,,,2026-02-05,1,,,,,エイキー,0
550,3011001175307,新規,0,2026-02-05,2026-02-05,株式会社エーエスエス,,株式会社,東京都,渋谷区,千駄ヶ谷１丁目１１番１４号,,13,113,1510051,,,,,,,2026-02-05,1,,,,,エーエスエス,0
552,3011101114627,新規,0,2026-02-05,2026-02-05,株式会社ＣｒａｆｔＧｕｉｌｄ,,株式会社,東京都,新宿区,西新宿３丁目３－１３西新宿西間ビル２Ｆ,,13,104,1600023,,,,,,,2026-02-05,1,,,,,クラフトギルド,0
556,3011303005847,新規,0,2026-02-05,2026-02-05,合同会社栞雨,,合同会社,東京都,杉並区,南荻窪２丁目４０番８号フェリーチェ南荻窪２０２,,13,115,1670052,,,,,,,2026-02-05,1,,,,,シオリアメ,0
560,3011501033071,新規,0,2026-02-05,2026-02-05,ＡＵＲＥＮ　ＧＲＯＵＰ株式会社,,株式会社,東京都,北区,浮間１丁目１番２８―６０４号,,13,117,1150051,,,,,,,2026-02-05,1,,,,,オーレングループ,0
563,3011601029366,新規,0,2026-02-05,2026-02-05,株式会社ＧＯＡＴ　ｉｎｄｕｓｔｒｙ,,株式会社,東京都,練馬区,富士見台４丁目３番３２号,,13,120,1770034,,,,,,,2026-02-05,1,,,,,ゴートインダストリ,0
565,3011703004515,新規,0,2026-02-05,2026-02-05,ケイエイオフィス合同会社,,合同会社,東京都,江戸川区,一之江７丁目２５番６号,,13,123,1320024,,,,,,,2026-02-05,1,,,,,ケイエイオフィス,0
570,3012401044101,新規,0,2026-02-05,2026-02-05,Ａｓｈ　Ｔｒａｉｌ株式会社,,株式会社,東京都,武蔵野市,吉祥寺本町４丁目６番３号Ｓｔａｎｄｕｐ吉祥寺,,13,203,1800004,,,,,,,2026-02-05,1,,,,,アッシュトレイル,0
582,3020003030287,新規,0,2026-02-05,2026-02-05,合同会社パワフルケア,,合同会社,神奈川県,横浜市戸塚区,上矢部町３０５７－１グランシャリオ弐番館１０３,,14,110,2450053,,,,,,,2026-02-05,1,,,,,パワフルケア,0
583,3020003030295,新規,0,2026-02-05,2026-02-05,合同会社ポルティナ,,合同会社,神奈川県,横浜市港北区,綱島東４丁目１番２２号パークスクエア綱島４２３,,14,109,2230052,,,,,,,2026-02-05,1,,,,,ポルティナ,0
584,3020003030345,新規,0,2026-02-05,2026-02-05,ベネスティア合同会社,,合同会社,神奈川県,川崎市宮前区,五所塚１丁目１６番地５,,14,136,2160021,,,,,,,2026-02-05,1,,,,,ベネスティア,0
588,3030001170811,新規,0,2026-02-05,2026-02-05,ライズウィン株式会社,,株式会社,埼玉県,朝霞市,溝沼６丁目４番３５号,,11,227,3510023,,,,,,,2026-02-05,1,,,,,ライズウィン,0
589,3030001170828,新規,0,2026-02-05,2026-02-05,株式会社こめしばファーム,,株式会社,埼玉県,幸手市,大字戸島１８４４番地,,11,240,3400144,,,,,,,2026-02-05,1,,,,,コメシバファーム,0
590,3030001170836,新規,0,2026-02-05,2026-02-05,株式会社カナリ電工,,株式会社,埼玉県,飯能市,大字小岩井５７３番地２,,11,209,3570066,,,,,,,2026-02-05,1,,,,,カナリデンコウ,0
591,3030001170844,新規,0,2026-02-05,2026-02-05,株式会社ひかわ荘,,株式会社,埼玉県,さいたま市見沼区,大字中川５３０番地１５,,11,104,3370043,,,,,,,2026-02-05,1,,,,,ヒカワソウ,0
592,3030001170852,新規,0,2026-02-05,2026-02-05,岩槻断熱工業株式会社,,株式会社,埼玉県,さいたま市南区,辻４丁目９番１５－１号,00142464,11,108,3360026,,,,,,,2026-02-05,1,,,,,イワツキダンネツコウギョウ,0
593,3030001170860,新規,0,2026-02-05,2026-02-05,コネクトラック株式会社,,株式会社,埼玉県,さいたま市岩槻区,上野１丁目６番地１０,,11,110,3390073,,,,,,,2026-02-05,1,,,,,コネクトラック,0
594,3030001170869,新規,0,2026-02-05,2026-02-05,キムリフォーム株式会社,,株式会社,埼玉県,さいたま市見沼区,大字中川１４５番地５２向陽荘１０１号室,,11,104,3370043,,,,,,,2026-02-05,1,,,,,キムリフォーム,0
595,3030001170885,新規,0,2026-02-05,2026-02-05,株式会社ＳＯＡＲＡ,,株式会社,埼玉県,越谷市,千間台東２丁目１５番９号ビィファーストビル５０２,,11,222,3430042,,,,,,,2026-02-05,1,,,,,ソアラ,0
596,3030001170893,新規,0,2026-02-05,2026-02-05,ＡＲＡＩホールディングス株式会社,,株式会社,埼玉県,東松山市,六軒町２２番地２８,,11,212,3550024,,,,,,,2026-02-05,1,,,,,アライホールディングス,0
598,3030003028454,新規,0,2026-02-05,2026-02-05,合同会社スタリオン,,合同会社,埼玉県,加須市,花崎２丁目８番地３号５０５号室,,11,210,3470032,,,,,,,2026-02-05,1,,,,,スタリオン,0
599,3030003028578,新規,0,2026-02-05,2026-02-05,合同会社無限商事,,合同会社,埼玉県,川口市,並木２丁目２４番１８号オーベル川口並木１００４,,11,203,3320034,,,,,,,2026-02-05,1,,,,,ムゲンショウジ,0
600,3030003028586,新規,0,2026-02-05,2026-02-05,合同会社ＧＲＥＥＮ　ＧＡＬＬＥＲＹ,,合同会社,埼玉県,川口市,並木元町３－３０川口ハウス１０３号室,,11,203,3320033,,,,,,,2026-02-05,1,,,,,グリーンギャラリー,0
601,3030003028594,新規,0,2026-02-05,2026-02-05,合同会社レイズＰＲＯ,,合同会社,埼玉県,さいたま市大宮区,三橋２丁目５１９番地,,11,103,3300856,,,,,,,2026-02-05,1,,,,,,0
607,3040001142330,新規,0,2026-02-05,2026-02-05,株式会社トリオパッケージ,,株式会社,千葉県,松戸市,中矢切６０２番地の２マルジュベルテ１０６号,,12,207,2710095,,,,,,,2026-02-05,1,,,,,トリオパッケージ,0
608,3040001142363,新規,0,2026-02-05,2026-02-05,吉川電熱株式会社,,株式会社,千葉県,松戸市,古ケ崎４丁目３５８２番地の６,,12,207,2710068,,,,,,,2026-02-05,1,,,,,ヨシカワデンネツ,0
609,3040003029419,新規,0,2026-02-05,2026-02-05,合同会社美波,,合同会社,千葉県,八千代市,八千代台東１丁目５番２号メゾン八千代台４０３号,,12,221,2760032,,,,,,,2026-02-05,1,,,,,ミナミ,0
610,3050001057932,新規,0,2026-02-05,2026-02-05,株式会社ＫＳＧホールディングス,,株式会社,茨城県,結城市,大字結城１００番地,,08,207,3070001,,,,,,,2026-02-05,1,,,,,ケイエスジィホールディングス,0
611,3050001057949,新規,0,2026-02-05,2026-02-05,株式会社ホットスタッフ水戸,,株式会社,茨城県,水戸市,元吉田町１１９４番地２３ＹＫビルディング１Ｆ,,08,201,3100836,,,,,,,2026-02-05,1,,,,,ホットスタッフミト,0
612,3050003009923,新規,0,2026-02-05,2026-02-05,Ｔｈｅ　ｏｆｆｉｃｅ．Ｍ合同会社,,合同会社,茨城県,水戸市,百合が丘町１０番地の６１,,08,201,3111134,,,,,,,2026-02-05,1,,,,,ジオフィスエム,0
618,3080005007757,新規,0,2026-02-05,2026-02-05,一般社団法人みやみずタウンマネジメント,,その他の設立登記法人,静岡県,静岡市清水区,三保松原町１９－４７－オレンジストリートＣ７,,22,103,4240908,,,,,,,2026-02-05,1,,,,,ミヤミズタウンマネジメント,0
623,3080103003518,新規,0,2026-02-05,2026-02-05,ふじこ水産合同会社,,合同会社,静岡県,下田市,蓮台寺４８６番地の１５,,22,219,4150031,,,,,,,2026-02-05,1,,,,,フジコスイサン,0
627,3090001019722,新規,0,2026-02-05,2026-02-05,株式会社Ｊｅｗｅｌｒｙ　Ｃｏｆｕ,,株式会社,山梨県,甲府市,里吉４丁目１６番２８号２階,,19,201,4000822,,,,,,,2026-02-05,1,,,,,ジュエリーコウフ,0
628,3090003002981,新規,0,2026-02-05,2026-02-05,合同会社めぐるくだもの,,合同会社,山梨県,南アルプス市,飯野３４２５番地,,19,208,4000222,,,,,,,2026-02-05,1,,,,,メグルクダモノ,0
632,3110001039882,新規,0,2026-02-05,2026-02-05,メゾンルセット株式会社,,株式会社,新潟県,長岡市,北山３丁目１７番２号,,15,202,9402114,,,,,,,2026-02-05,1,,,,,メゾンルセット,0
635,3110003006063,新規,0,2026-02-05,2026-02-05,長岡マロンワーク合同会社,,合同会社,新潟県,長岡市,上前島３丁目１８１７番地,,15,202,9401140,,,,,,,2026-02-05,1,,,,,ナガオカマロンワーク,0
650,3120001283876,新規,0,2026-02-05,2026-02-05,株式会社ｓｏｒａｗｏｒｋｓ,,株式会社,大阪府,大阪市東淀川区,西淡路４丁目１５番１９号,,27,114,5330031,,,,,,,2026-02-05,1,,,,,ソラワークス,0
651,3120001283884,新規,0,2026-02-05,2026-02-05,株式会社ＣＯＯ,,株式会社,大阪府,大阪市北区,梅田１丁目２番２号大阪駅前第２ビル１２－１２,,27,127,5300001,,,,,,,2026-02-05,1,,,,,クー,0
652,3120001283892,新規,0,2026-02-05,2026-02-05,株式会社ＴＨＴ‐ＮＥＸＴ,,株式会社,大阪府,大阪市中央区,南船場３丁目２番２２号おおきに南船場ビル２０５,,27,128,5420081,,,,,,,2026-02-05,1,,,,,ティーエイチティーネクスト,0
653,3120001283901,新規,0,2026-02-05,2026-02-05,株式会社ライズ冷熱,,株式会社,大阪府,大阪市港区,弁天１丁目２番１号１４Ｆ,,27,107,5520007,,,,,,,2026-02-05,1,,,,,ライズレイネツ,0
654,3120001283942,新規,0,2026-02-05,2026-02-05,株式会社Ｌ,,株式会社,大阪府,大阪市西成区,岸里東１丁目１７番８号１Ｆ,,27,122,5570042,,,,,,,2026-02-05,1,,,,,エル,0
657,3120003031812,新規,0,2026-02-05,2026-02-05,暁ステイ合同会社,,合同会社,大阪府,大阪市西成区,天下茶屋１丁目１３番１１号,,27,122,5570014,,,,,,,2026-02-05,1,,,,,アカツキステイ,0
662,3120901052182,新規,0,2026-02-05,2026-02-05,ドクターズアカデミー株式会社,,株式会社,大阪府,吹田市,豊津町１０番２６号２１センチュリービル３０１・３０２号室,,27,205,5640051,,,,,,,2026-02-05,1,,,,,ドクターズアカデミー,0
668,3130001081494,新規,0,2026-02-05,2026-02-05,株式会社琉建,,株式会社,京都府,京都市南区,吉祥院池田町７番地７,,26,107,6018349,,,,,,,2026-02-05,1,,,,,リュウケン,0
669,3130001081528,新規,0,2026-02-05,2026-02-05,株式会社Ｅ３ｎｅｘｔ,,株式会社,京都府,京都市南区,唐橋門脇町２３番地３１,,26,107,6018461,,,,,,,2026-02-05,1,,,,,イーネクスト,0
673,3130003011128,新規,0,2026-02-05,2026-02-05,ＪＥＨＡＩＡ合同会社,,合同会社,京都府,京丹後市,大宮町善王寺小字西八反田８４番地１,,26,212,6292504,,,,,,,2026-02-05,1,,,,,ジェハイア,0
680,3140001141529,新規,0,2026-02-05,2026-02-05,ＴＯＫＵＹＡＭＡホールディングス株式会社,,株式会社,兵庫県,西宮市,生瀬東町２番１６号,,28,204,6691103,,,,,,,2026-02-05,1,,,,,トクヤマホールディングス,0
681,3140001141594,新規,0,2026-02-05,2026-02-05,株式会社眞形工業,,株式会社,兵庫県,加古川市,別府町新野辺５７４番地の３３５,,28,210,6750131,,,,,,,2026-02-05,1,,,,,マガタコウギョウ,0
682,3140001141603,新規,0,2026-02-05,2026-02-05,株式会社おのえの松ディベロップメント,,株式会社,兵庫県,加古川市,尾上町旭１丁目４９番地の３,,28,210,6750026,,,,,,,2026-02-05,1,,,,,オノエノマツディベロップメント,0
683,3140001141611,新規,0,2026-02-05,2026-02-05,株式会社レリエスト,,株式会社,兵庫県,西宮市,剣谷町７番１号,,28,204,6620099,,,,,,,2026-02-05,1,,,,,レリエスト,0
684,3140001141636,新規,0,2026-02-05,2026-02-05,株式会社ＫＳＫテック,,株式会社,兵庫県,姫路市,東山５４６番地１,,28,201,6728014,,,,,,,2026-02-05,1,,,,,ケイエスケイテック,0
688,3150001028717,新規,0,2026-02-05,2026-02-05,株式会社ＳＴＡＮＤ　ＵＰｅｒ,,株式会社,奈良県,奈良市,橋本町３－１,,29,201,6308217,,,,,,,2026-02-05,1,,,,,スタンドアッパー,0
691,3160001027395,新規,0,2026-02-05,2026-02-05,金星寺田株式会社,,株式会社,滋賀県,彦根市,田附町１５８９番地,,25,202,5211134,,,,,,,2026-02-05,1,,,,,キンボシテラダ,0
692,3170001000236,新規,0,2026-02-05,2026-02-05,株式会社一真,,株式会社,和歌山県,和歌山市,田中町２丁目５番地,,30,201,6408329,,,,,,,2026-02-05,1,,,,,イッシン,0
700,3180001170540,新規,0,2026-02-05,2026-02-05,株式会社ＢｒｉＯｎｅ,,株式会社,愛知県,東海市,荒尾町木戸畑３７番地６,,23,222,4760003,,,,,,,2026-02-05,1,,,,,ブリワン,0
701,3180001170549,新規,0,2026-02-05,2026-02-05,ＣａｒｅＰｕｚｚｌｅ株式会社,,株式会社,愛知県,東海市,富木島町山中６７番地の１,,23,222,4760011,,,,,,,2026-02-05,1,,,,,ケアパズル,0
702,3180001170565,新規,0,2026-02-05,2026-02-05,Ｋ’ｓ　ｄｅｓｉｇｎ　Ｊａｐａｎ株式会社,,株式会社,愛知県,名古屋市中村区,名駅５丁目１０番７号花車ビル中館１０４号,,23,105,4500002,,,,,,,2026-02-05,1,,,,,ケーズデザインジャパン,0
704,3180003029743,新規,0,2026-02-05,2026-02-05,合同会社ＯＨＮ,,合同会社,愛知県,小牧市,桃ケ丘１丁目８番地５,,23,219,4850813,,,,,,,2026-02-05,1,,,,,オーエイチエヌ,0
705,3180005021418,新規,0,2026-02-05,2026-02-05,行政書士法人スクエア,,その他の設立登記法人,愛知県,名古屋市中区,東桜２丁目２２番１８号,,23,106,4600005,,,,,,,2026-02-05,1,,,,,スクエア,0
710,3190001032871,新規,0,2026-02-05,2026-02-05,株式会社紫宝ホールディングス,,株式会社,三重県,度会郡大紀町,滝原８７０番地６,,24,471,5192703,,,,,,,2026-02-05,1,,,,,シホウホールディングス,0
719,3220005009037,新規,0,2026-02-05,2026-02-05,一般財団法人能登地方創生推進事業組合,,その他の設立登記法人,石川県,七尾市,古府町ラ部３５番地甲,,17,202,9260031,,,,,,,2026-02-05,1,,,,,,0
721,3240001066138,新規,0,2026-02-05,2026-02-05,ツネイシキャピタルパートナーズ株式会社,,株式会社,広島県,福山市,沼隈町大字常石１０８３番地,,34,207,7200313,,,,,,,2026-02-05,1,,,,,ツネイシキャピタルパートナーズ,0
723,3240003007585,新規,0,2026-02-05,2026-02-05,合同会社ＴＯＹＯ‐人誉,,合同会社,広島県,広島市中区,江波南２丁目１０番３６－５０３号,,34,101,7300835,,,,,,,2026-02-05,1,,,,,トーヨー,0
728,3260001040966,新規,0,2026-02-05,2026-02-05,株式会社アルノア,,株式会社,岡山県,岡山市南区,福成１丁目１６８番地２１,,33,104,7028022,,,,,,,2026-02-05,1,,,,,アルノア,0
729,3270001009390,新規,0,2026-02-05,2026-02-05,株式会社Ｅｒｆｏｌｇ,,株式会社,鳥取県,鳥取市,国府町町屋５２３番地６,,31,201,6800146,,,,,,,2026-02-05,1,,,,,,0
736,3290003018009,新規,0,2026-02-05,2026-02-05,合同会社ＮＥＸＵＳ　ＴＲＡＤＩＮＧ,,合同会社,福岡県,福岡市西区,横浜２丁目１６番１号,,40,135,8190166,,,,,,,2026-02-05,1,,,,,ネクサストレーディング,0
738,3290801032235,新規,0,2026-02-05,2026-02-05,株式会社ネクサスメディカル,,株式会社,福岡県,北九州市小倉南区,東貫１丁目１３番４６号,,40,107,8000224,,,,,,,2026-02-05,1,,,,,ネクサスメディカル,0
740,3300001014503,新規,0,2026-02-05,2026-02-05,久道株式会社,,株式会社,佐賀県,唐津市,八幡町７５８番地６３,,41,202,8470102,,,,,,,2026-02-05,1,,,,,ヒサミチ,0
741,3330001033970,新規,0,2026-02-05,2026-02-05,株式会社Ｙ．Ｙファーム,,株式会社,熊本県,玉名市,六田４０番地１８ユニキューブロクタ１号,,43,206,8650058,,,,,,,2026-02-05,1,,,,,ワイワイファーム,0
742,3330003011413,新規,0,2026-02-05,2026-02-05,ＡＫパートナーズ合同会社,,合同会社,熊本県,菊池郡菊陽町,花立３丁目１３番３４号,,43,404,8691113,,,,,,,2026-02-05,1,,,,,エーケーパートナーズ,0
744,3340001027955,新規,0,2026-02-05,2026-02-05,株式会社ＭＳＦ,,株式会社,鹿児島県,鹿児島市,桜ヶ丘７丁目６番地１３,,46,201,8900075,,,,,,,2026-02-05,1,,,,,エムエスエフ,0
748,3350001019935,新規,0,2026-02-05,2026-02-05,ＫＴＩ株式会社,,株式会社,宮崎県,宮崎市,大字新名爪４３２８番地１,,45,201,8800124,,,,,,,2026-02-05,1,,,,,ケイティアイ,0
751,3360001036327,新規,0,2026-02-05,2026-02-05,株式会社琉球クラフト,,株式会社,沖縄県,那覇市,牧志２丁目１１番１２号１０２号室,,47,201,9000013,,,,,,,2026-02-05,1,,,,,リュウキュウクラフト,0
752,3360001036343,新規,0,2026-02-05,2026-02-05,株式会社Ｈａｒｕ,,株式会社,沖縄県,うるま市,字豊原６５３番地,,47,213,9042233,,,,,,,2026-02-05,1,,,,,ハル,0
754,3360003015592,新規,0,2026-02-05,2026-02-05,合同会社ＦＯＲ　ＥＶＥＲＹ　ＣＨＩＬＤ,,合同会社,沖縄県,中頭郡西原町,字我謝８番地１００,,47,329,9030112,,,,,,,2026-02-05,1,,,,,フォーエブリーチャイルド,0
755,3360003015601,新規,0,2026-02-05,2026-02-05,合同会社ぽのふる,,合同会社,沖縄県,宜野湾市,伊佐２丁目２番１－３１４号,,47,205,9012221,,,,,,,2026-02-05,1,,,,,ポノフル,0
756,3370001053453,新規,0,2026-02-05,2026-02-05,ＯＫファクトリー技研株式会社,,株式会社,宮城県,伊具郡丸森町,字大舘１丁目２７番地,,04,341,9812104,,,,,,,2026-02-05,1,,,,,オーケーファクトリーギケン,0
757,3370001053461,新規,0,2026-02-05,2026-02-05,株式会社望,,株式会社,宮城県,塩竈市,梅の宮６番２号１号棟,,04,203,9850077,,,,,,,2026-02-05,1,,,,,ノゾミ,0
758,3370003007465,新規,0,2026-02-05,2026-02-05,元気ファーム・ジャパン合同会社,,合同会社,宮城県,石巻市,広渕字柏木前９９番地,,04,202,9871222,,,,,,,2026-02-05,1,,,,,ゲンキファームジャパン,0
759,3370005011069,新規,0,2026-02-05,2026-02-05,一般社団法人ＩＧＵＮＥ,,その他の設立登記法人,宮城県,仙台市太白区,秋保町湯向２５－２２,,04,104,9820245,,,,,,,2026-02-05,1,,,,,イグネ,0
767,3400003003642,新規,0,2026-02-05,2026-02-05,合同会社ＨＢＣ,,合同会社,岩手県,北上市,しらゆり１４番１９号,,03,206,0240085,,,,,,,2026-02-05,1,,,,,エイチビーシー,0
773,3430001096173,新規,0,2026-02-05,2026-02-05,株式会社ＮＹプロパティマネジメント,,株式会社,北海道,恵庭市,黄金北２丁目２番地１０,,01,231,0611407,,,,,,,2026-02-05,1,,,,,エヌワイプロパティマネジメント,0
774,3430001096181,新規,0,2026-02-05,2026-02-05,ＭＫＨ株式会社,,株式会社,北海道,室蘭市,東町３丁目２番１５号,,01,205,0500083,,,,,,,2026-02-05,1,,,,,エムケーエイチ,0
781,3450003002771,新規,0,2026-02-05,2026-02-05,合同会社ＭＩＤＯＲＩ,,合同会社,北海道,稚内市,緑１丁目１０番２３号,,01,214,0970004,,,,,,,2026-02-05,1,,,,,ミドリ,0
782,3470003003066,新規,0,2026-02-05,2026-02-05,合同会社Ｆ．Ｓ,,合同会社,香川県,さぬき市,造田野間田１３６番地７,,37,206,7692313,,,,,,,2026-02-05,1,,,,,エフエス,0
783,3490003002090,新規,0,2026-02-05,2026-02-05,合同会社帯屋町プロパティ,,合同会社,高知県,高知市,帯屋町１丁目１０番１８号,,39,201,7800841,,,,,,,2026-02-05,1,,,,,オビヤマチプロパティ,0
786,3500005008852,新規,0,2026-02-05,2026-02-05,特定非営利活動法人南伊予まちづくりネットワーク,,その他の設立登記法人,愛媛県,伊予市,上三谷甲１８８４番地,,38,210,7993104,,,,,,,2026-02-05,1,,,,,ミナミイヨマチヅクリネットワーク,0
789,3700150134004,新規,0,2026-02-05,2026-02-05,ＤＤ　Ｆｉｎａｎｃｅ（Ｈｏｎｇ　Ｋｏｎｇ）Ｌｔｄ,,外国会社等,,,,,,,,ＢＬＫ２　３１／Ｆ　Ｔｉｍｅｓ　Ｓｑｕａｒｅ，１　Ｍａｔｈｅｓｏｎ　Ｓｔｒｅｅｔ，Ｃａｕｓｅｗａｙ　Ｂａｙ，ＨＫ,,,,,,2026-02-05,1,,,,,デイデイフアイナンスホンコンリミテツド,0
806,4010401196333,新規,0,2026-02-05,2026-02-05,株式会社ＡＰ８８,,株式会社,東京都,港区,虎ノ門４丁目１番２８号虎ノ門タワーズオフィス１７階,,13,103,1050001,,,,,,,2026-02-05,1,,,,,エーピーハチジュウハチ,0
808,4010405025249,新規,0,2026-02-05,2026-02-05,虎ノ門税理士法人,,その他の設立登記法人,東京都,港区,虎ノ門３丁目２５番５号,,13,103,1050001,,,,,,,2026-02-05,1,,,,,トラノモン,0
809,4010405025331,新規,0,2026-02-05,2026-02-05,那須岳一般社団法人,,その他の設立登記法人,東京都,港区,六本木１丁目６番１号泉ガーデンタワーＫＰＭＧ税理士法人内,,13,103,1060032,,,,,,,2026-02-05,1,,,,,ナスダケ,0
811,4010501055414,新規,0,2026-02-05,2026-02-05,株式会社まるごとＶｅｇａｎ,,株式会社,東京都,台東区,花川戸１丁目３－１３矢吹ビル１階,,13,106,1110033,,,,,,,2026-02-05,1,,,,,マルゴトヴィーガン,0
812,4010503008171,新規,0,2026-02-05,2026-02-05,ＨＫＳ合同会社,,合同会社,東京都,台東区,上野６丁目１番６号御徒町グリーンハイツ１００５号,,13,106,1100005,,,,,,,2026-02-05,1,,,,,エイチケーエス,0
819,4010701048985,新規,0,2026-02-05,2026-02-05,ＷｏｒｋＲｕｌｅｓアーキテクチャーズ株式会社,,株式会社,東京都,品川区,西五反田２丁目２５番１号インテックス五反田ビル３階,,13,109,1410031,,,,,,,2026-02-05,1,,,,,ワークルールズアーキテクチャーズ,0
820,4010701048993,新規,0,2026-02-05,2026-02-05,株式会社Ｊｉｎｇａｓ,,株式会社,東京都,品川区,西五反田１丁目２６－２五反田サンハイツビルディング２階,,13,109,1410031,,,,,,,2026-02-05,1,,,,,ジンガス,0
834,4011001175413,新規,0,2026-02-05,2026-02-05,株式会社ギルド,,株式会社,東京都,渋谷区,神宮前６丁目２８番９号東武ビル３０６,,13,113,1500001,,,,,,,2026-02-05,1,,,,,ギルド,0
836,4011003023470,新規,0,2026-02-05,2026-02-05,合同会社Ｎｏｂｌｅ,,合同会社,東京都,渋谷区,道玄坂１丁目１０番８号渋谷道玄坂東急ビル２Ｆ－Ｃ,,13,113,1500043,,,,,,,2026-02-05,1,,,,,ノーブル,0
839,4011103016481,新規,0,2026-02-05,2026-02-05,合同会社ＩＮＣＡ　ＭＡＲＵ,,合同会社,東京都,新宿区,西新宿３丁目３番１３号西新宿水間ビル６階,,13,104,1600023,,,,,,,2026-02-05,1,,,,,インカマル,0
841,4011301031241,新規,0,2026-02-05,2026-02-05,株式会社Ｔｒｅｅｄｉａ,,株式会社,東京都,杉並区,上井草１丁目３３－１０パレス上井草３０３,,13,115,1670023,,,,,,,2026-02-05,1,,,,,ツリーディア,0
844,4011403005011,新規,0,2026-02-05,2026-02-05,便利ＰＬＵＳ合同会社,,合同会社,東京都,板橋区,西台２丁目７番１７号,,13,119,1750045,,,,,,,2026-02-05,1,,,,,ベンリプラス,0
847,4011601029357,新規,0,2026-02-05,2026-02-05,株式会社ルリ,,株式会社,東京都,練馬区,高松１丁目３８番１３号,,13,120,1790075,,,,,,,2026-02-05,1,,,,,ルリ,0
848,4011601029365,新規,0,2026-02-05,2026-02-05,株式会社シャイニーハウス,,株式会社,東京都,練馬区,東大泉７丁目３６番１５号,,13,120,1780063,,,,,,,2026-02-05,1,,,,,シャイニーハウス,0
849,4011603005001,新規,0,2026-02-05,2026-02-05,Ｗｉ　Ａｇｅｎｔｓ合同会社,,合同会社,東京都,練馬区,下石神井５丁目２番１７号,,13,120,1770042,,,,,,,2026-02-05,1,,,,,ヴェイエージェンツ,0
851,4011701029141,新規,0,2026-02-05,2026-02-05,株式会社ｍｅｍｅ,,株式会社,東京都,江戸川区,中葛西３丁目１３－１２マキコーポ３０１,,13,123,1340083,,,,,,,2026-02-05,1,,,,,ミーム,0
853,4012401044109,新規,0,2026-02-05,2026-02-05,株式会社オリエント・テロワール,,株式会社,東京都,三鷹市,上連雀２丁目８番１７号,,13,204,1810012,,,,,,,2026-02-05,1,,,,,オリエントテロワール,0
854,4012405005214,新規,0,2026-02-05,2026-02-05,一般社団法人ＣＳＫ,,その他の設立登記法人,東京都,調布市,多摩川１丁目２９番地１,,13,208,1820025,,,,,,,2026-02-05,1,,,,,シーエスケー,0
860,4013301055699,新規,0,2026-02-05,2026-02-05,ＱＵＩＣＫ　ＲＥＳＰＯＮＳＥ株式会社,,株式会社,東京都,豊島区,池袋２丁目３６番１号ＩＮＦＩＮＩＴＹＩＫＥＢＵＫＵＲＯ６ＦＢＩＺｃｏｍｆｏｒｔ池袋西口,,13,116,1710014,,,,,,,2026-02-05,1,,,,,クイックレスポンス,0
861,4013301055708,新規,0,2026-02-05,2026-02-05,株式会社ＭＯＺＵ,,株式会社,東京都,豊島区,西池袋３丁目３０番２号フェリース西池袋２階,,13,116,1710021,,,,,,,2026-02-05,1,,,,,モズ,0
866,4020001166792,新規,0,2026-02-05,2026-02-05,株式会社ＣｙｂｅｒＳｐａｃｅ,,株式会社,神奈川県,横浜市都筑区,南山田町４１７７番地,,14,118,2240026,,,,,,,2026-02-05,1,,,,,サイバースペース,0
867,4020001166917,新規,0,2026-02-05,2026-02-05,株式会社三平,,株式会社,神奈川県,川崎市中原区,新丸子町７２０番地４０,,14,133,2110005,,,,,,,2026-02-05,1,,,,,サンペイ,0
868,4020001166966,新規,0,2026-02-05,2026-02-05,株式会社敬優シャイン,,株式会社,神奈川県,横浜市港北区,大倉山４丁目３３番９号,,14,109,2220037,,,,,,,2026-02-05,1,,,,,ケイユウシャイン,0
871,4020003030278,新規,0,2026-02-05,2026-02-05,合同会社ハートフルサルーテ,,合同会社,神奈川県,横浜市南区,中里３丁目２番１３号メゾンドゥ２０３,,14,105,2320063,,,,,,,2026-02-05,1,,,,,ハートフルサルーテ,0
872,4020003030294,新規,0,2026-02-05,2026-02-05,ＲＡＹ　ＰＨＯＴＯ　ＳＴＵＤＩＯ合同会社,,合同会社,神奈川県,川崎市中原区,宮内１丁目１３番３６－２号,,14,133,2110051,,,,,,,2026-02-05,1,,,,,レイフォトスタジオ,0
874,4021001087442,新規,0,2026-02-05,2026-02-05,株式会社ジーンハック,,株式会社,神奈川県,厚木市,飯山南５丁目４番１号アメニティヒル本厚木６０５号,,14,212,2430218,,,,,,,2026-02-05,1,,,,,ジーンハック,0
875,4021001087459,新規,0,2026-02-05,2026-02-05,株式会社ＦＵＪＩ　ＦＩＥＬＤ,,株式会社,神奈川県,愛甲郡愛川町,角田８４５番地の３,,14,401,2430301,,,,,,,2026-02-05,1,,,,,フジフィールド,0
878,4030001170827,新規,0,2026-02-05,2026-02-05,植村パートナーズ株式会社,,株式会社,埼玉県,川口市,金山町１２番１号サウスゲートタワー川口２階,,11,203,3320014,,,,,,,2026-02-05,1,,,,,ウエムラパートナーズ,0
879,4030001170851,新規,0,2026-02-05,2026-02-05,Ｓｈｏｓａｎ　Ｆｉｌｍ株式会社,,株式会社,埼玉県,新座市,東北２丁目３９－１０ドゥーセット弐番館６Ｆ,,11,230,3520001,,,,,,,2026-02-05,1,,,,,ショーサンフィルム,0
880,4030001170868,新規,0,2026-02-05,2026-02-05,株式会社テンノライフ,,株式会社,埼玉県,春日部市,米崎２６５番,,11,214,3440124,,,,,,,2026-02-05,1,,,,,テンノライフ,0
881,4030001170876,新規,0,2026-02-05,2026-02-05,株式会社リライバ,,株式会社,埼玉県,所沢市,小手指南３丁目３６番地１６号,,11,208,3591146,,,,,,,2026-02-05,1,,,,,リライバ,0
882,4030001170884,新規,0,2026-02-05,2026-02-05,株式会社ＨＥＲＯｓ,,株式会社,埼玉県,ふじみ野市,新田１丁目５番４号５,,11,245,3560033,,,,,,,2026-02-05,1,,,,,ヒーローズ,0
883,4030001170901,新規,0,2026-02-05,2026-02-05,株式会社Ｗｅａｖｉａ,,株式会社,埼玉県,さいたま市桜区,大字白鍬３５７番地,,11,106,3380811,,,,,,,2026-02-05,1,,,,,ウィーヴィア,0
885,4030003028577,新規,0,2026-02-05,2026-02-05,ＭｙＭｅ合同会社,,合同会社,埼玉県,さいたま市見沼区,大字御蔵１５２２番地９,,11,104,3370033,,,,,,,2026-02-05,1,,,,,マイミー,0
889,4040001142338,新規,0,2026-02-05,2026-02-05,株式会社ＫＡＩＱ,,株式会社,千葉県,流山市,松ケ丘１丁目４５５番地の７アーバンパレス南柏３１６,,12,220,2700141,,,,,,,2026-02-05,1,,,,,カイク,0
890,4040001142354,新規,0,2026-02-05,2026-02-05,株式会社あおぞら経営マネジメント,,株式会社,千葉県,千葉市中央区,新田町７番７号ジェイグランデＩＩＩ－４Ｂ,00142469,12,101,2600027,,,,,,,2026-02-05,1,,,,,アオゾラケイエイマネジメント,0
916,4120001283685,新規,0,2026-02-05,2026-02-05,株式会社ＩＭＡＩ　Ｇｒｏｕｐ,,株式会社,大阪府,大阪市東成区,東小橋２丁目１１番２８号,,27,115,5370024,,,,,,,2026-02-05,1,,,,,イマイグループ,0
917,4120001283883,新規,0,2026-02-05,2026-02-05,株式会社石清石材,,株式会社,大阪府,大阪市城東区,今福南４丁目７番１２号,,27,118,5360003,,,,,,,2026-02-05,1,,,,,イシキヨセキザイ,0
918,4120001283891,新規,0,2026-02-05,2026-02-05,Ｈｉｔ　Ｒｏｌｅ　ＰＬＵＳ株式会社,,株式会社,大阪府,大阪市北区,黒崎町１１番１号ＴＨＥ・ＯＳＡＫＡ・ＴＥＲＲＡＣＥ・Ｂ棟,,27,127,5300023,,,,,,,2026-02-05,1,,,,,ヒットロールプラス,0
923,4120101073144,新規,0,2026-02-05,2026-02-05,株式会社ｐｅｐｅ,,株式会社,大阪府,富田林市,美山台７番３－５０８号,,27,214,5840039,,,,,,,2026-02-05,1,,,,,ペペ,0
924,4120103006985,新規,0,2026-02-05,2026-02-05,ｆｕｗａｔｔｏ合同会社,,合同会社,大阪府,和泉市,繁和町６－２１,,27,219,5940075,,,,,,,2026-02-05,1,,,,,フワット,0
931,4120901052181,新規,0,2026-02-05,2026-02-05,株式会社リヴゴーシュ,,株式会社,大阪府,高槻市,庄所町３番２１号１階,,27,207,5690064,,,,,,,2026-02-05,1,,,,,リヴゴーシュ,0
936,4130001081535,新規,0,2026-02-05,2026-02-05,株式会社京都たけ田,,株式会社,京都府,京都市左京区,岡崎徳成町２８番地９,,26,103,6068351,,,,,,,2026-02-05,1,,,,,キョウトタケダ,0
937,4130001081543,新規,0,2026-02-05,2026-02-05,ＪＳＳサポートサービス株式会社,,株式会社,京都府,城陽市,久世南垣内１１６番地,,26,207,6100102,,,,,,,2026-02-05,1,,,,,ジェイエスエスサポートサービス,0
938,4130001081551,新規,0,2026-02-05,2026-02-05,株式会社希,,株式会社,京都府,南丹市,園部町小山西町滝谷１０－３,,26,213,6220043,,,,,,,2026-02-05,1,,,,,ノゾミ,0
942,4130003011135,新規,0,2026-02-05,2026-02-05,合同会社ＤＥＮアセットマネジメント,,合同会社,京都府,京都市右京区,西院久田町１３３番地,,26,108,6150064,,,,,,,2026-02-05,1,,,,,デンアセットマネジメント,0
953,4140001141577,新規,0,2026-02-05,2026-02-05,株式会社アセントホールディングス,,株式会社,兵庫県,西宮市,宮前町７番２１号グロリィ石１階,,28,204,6620947,,,,,,,2026-02-05,1,,,,,アセントホールディングス,0
954,4140001141593,新規,0,2026-02-05,2026-02-05,Ｌｅ　ＨＩＢＯＵ株式会社,,株式会社,兵庫県,明石市,二見町西二見駅前１丁目１０番地の１,,28,203,6740095,,,,,,,2026-02-05,1,,,,,ルイブー,0
955,4140001141619,新規,0,2026-02-05,2026-02-05,株式会社ＧＴＡ,,株式会社,兵庫県,神戸市東灘区,御影中町４丁目３番１９－２号,,28,101,6580054,,,,,,,2026-02-05,1,,,,,ジーティーエー,0
956,4140001141635,新規,0,2026-02-05,2026-02-05,株式会社ＲＡＤＩＣ　ＰＡＲＴＮＥＲＳ,,株式会社,兵庫県,西宮市,名塩南台１丁目５番地７,,28,204,6691132,,,,,,,2026-02-05,1,,,,,ラディックパートナーズ,0
961,4150005009761,新規,0,2026-02-05,2026-02-05,一般社団法人居住サポートＲｕｍｏ,,その他の設立登記法人,奈良県,天理市,杉本町３９３番地１０,,29,204,6320078,,,,,,,2026-02-05,1,,,,,キョジュウサポートルーモ,0
968,4160001027411,新規,0,2026-02-05,2026-02-05,株式会社集陽,,株式会社,滋賀県,東近江市,小脇町２４３１番地４,,25,213,5270091,,,,,,,2026-02-05,1,,,,,シュウヨウ,0
975,4180001170531,新規,0,2026-02-05,2026-02-05,株式会社Ｇ．ＧＮＩＴ,,株式会社,愛知県,名古屋市中川区,万場４丁目８０８番地,,23,110,4540997,,,,,,,2026-02-05,1,,,,,ジグニット,0
976,4180001170548,新規,0,2026-02-05,2026-02-05,株式会社アルメリア,,株式会社,愛知県,名古屋市中川区,新家２丁目１７０９番地,,23,110,4540972,,,,,,,2026-02-05,1,,,,,アルメリア,0
979,4180003029742,新規,0,2026-02-05,2026-02-05,合同会社Ｉｎｓｉｇｈｔ　Ｂａｓｅ,,合同会社,愛知県,名古屋市東区,新出来２丁目４－２２,,23,102,4610038,,,,,,,2026-02-05,1,,,,,インサイトベース,0
986,4180301040665,新規,0,2026-02-05,2026-02-05,吉美株式会社,,株式会社,愛知県,知立市,昭和１丁目１２番地７,,23,225,4720011,,,,,,,2026-02-05,1,,,,,ヨシミ,0
995,4200001044690,新規,0,2026-02-05,2026-02-05,株式会社ベジエッグ,,株式会社,岐阜県,岐阜市,西川手５丁目４７番地,,21,201,5008258,,,,,,,2026-02-05,1,,,,,ベジエッグ,0
997,4210005010250,新規,0,2026-02-05,2026-02-05,一般社団法人かぐら記念日,,その他の設立登記法人,福井県,敦賀市,神楽町１丁目２番２号４Ｆ,,18,202,9140063,,,,,,,2026-02-05,1,,,,,カグラキネンビ,0
998,4230001021290,新規,0,2026-02-05,2026-02-05,株式会社アニューリーフ,,株式会社,富山県,南砺市,細野１４５番地,,16,210,9391805,,,,,,,2026-02-05,1,,,,,アニューリーフ,0
1001,4240005016039,新規,0,2026-02-05,2026-02-05,ｓｏｌａ社会保険労務士法人,,その他の設立登記法人,広島県,広島市中区,上八丁堀５番２５－４０４号,,34,101,7300012,,,,,,,2026-02-05,1,,,,,ソラ,0
1004,4260001040957,新規,0,2026-02-05,2026-02-05,ＭａｒｋｅｔＲｉｓｅＥｘｐｒｅｓｓ株式会社,,株式会社,岡山県,岡山市南区,下中野１４２０番地７,,33,104,7000973,,,,,,,2026-02-05,1,,,,,マーケットライズエクスプレス,0
1008,4260003005504,新規,0,2026-02-05,2026-02-05,合同会社飛空船,,合同会社,岡山県,倉敷市,西岡２８４－６,,33,202,7100005,,,,,,,2026-02-05,1,,,,,ヒクウセン,0
1010,4290001113017,新規,0,2026-02-05,2026-02-05,喜多村マルチサポート株式会社,,株式会社,福岡県,久留米市,中央町１２番地の９,,40,203,8300023,,,,,,,2026-02-05,1,,,,,キタムラマルチサポート,0
1011,4290001113025,新規,0,2026-02-05,2026-02-05,ＧｏｏｄＢｕｄｄｙ株式会社,,株式会社,福岡県,福岡市博多区,博多駅前１丁目２３－２－５Ｆ,,40,132,8120011,,,,,,,2026-02-05,1,,,,,グッドバディ,0
1012,4290001113099,新規,0,2026-02-05,2026-02-05,株式会社Ｆｌｏｗ　Ｇｌｏｂａｌ,,株式会社,福岡県,福岡市東区,三苫７丁目７－４９,,40,131,8110201,,,,,,,2026-02-05,1,,,,,フロウグローバル,0
1019,4290003018024,新規,0,2026-02-05,2026-02-05,合同会社ＪＵＬＹ,,合同会社,福岡県,福岡市博多区,千代４丁目１２－１２－２０１,,40,132,8120044,,,,,,,2026-02-05,1,,,,,ジェイユーエルワイ,0
1021,4290801032226,新規,0,2026-02-05,2026-02-05,株式会社１０９３,,株式会社,福岡県,宮若市,黒丸１５３９番地,,40,226,8220146,,,,,,,2026-02-05,1,,,,,,0
1022,4300001014502,新規,0,2026-02-05,2026-02-05,株式会社ほうでい,,株式会社,佐賀県,武雄市,武雄町大字昭和１２８番地,,41,206,8430023,,,,,,,2026-02-05,1,,,,,ホウデイ,0
1026,4330001033961,新規,0,2026-02-05,2026-02-05,天海ウェルネス＆リゾート株式会社,,株式会社,熊本県,上天草市,大矢野町中４４６４番地,,43,212,8693603,,,,,,,2026-02-05,1,,,,,アマミウェルネスアンドリゾート,0
1027,4330003011420,新規,0,2026-02-05,2026-02-05,合同会社ベッカム,,合同会社,熊本県,宇城市,不知火町御領１５７番地１ライフステージ第一ビル２０１号,,43,213,8690551,,,,,,,2026-02-05,1,,,,,ベッカム,0
1030,4350001019926,新規,0,2026-02-05,2026-02-05,株式会社ＥＮＲＩＣＨ　ＨＯＭＥ,,株式会社,宮崎県,宮崎市,北高松町１番１２号ＴＯＫＩＷＡ３４－１０１号,,45,201,8800017,,,,,,,2026-02-05,1,,,,,エンリッチホーム,0
1032,4360001036326,新規,0,2026-02-05,2026-02-05,株式会社Ｈｏｍｅ　Ｂａｓｅ,,株式会社,沖縄県,那覇市,寄宮２丁目１６番１２号,,47,201,9020064,,,,,,,2026-02-05,1,,,,,ホームベース,0
1036,4360003015600,新規,0,2026-02-05,2026-02-05,ＫＩ　Ｈｏｌｄｉｎｇｓ合同会社,,合同会社,沖縄県,石垣市,字川平１２１６番地６０７,,47,207,9070453,,,,,,,2026-02-05,1,,,,,ケーアイホールディングス,0
1039,4370001053469,新規,0,2026-02-05,2026-02-05,セキネヤ株式会社,,株式会社,宮城県,名取市,ゆりが丘４丁目１４番地の１８,,04,207,9811245,,,,,,,2026-02-05,1,,,,,セキネヤ,0
1040,4370003007464,新規,0,2026-02-05,2026-02-05,合同会社Ｒｅｅｎａｂｉｏ,,合同会社,宮城県,大崎市,古川七日町１０－２,,04,215,9896153,,,,,,,2026-02-05,1,,,,,リナビオ,0
1046,4380003006242,新規,0,2026-02-05,2026-02-05,合同会社ＡＬＬ　ＷＩＮ,,合同会社,福島県,双葉郡浪江町,大字北幾世橋字北原５３－２１－２０３号室,,07,547,9791512,,,,,,,2026-02-05,1,,,,,オールウィン,0
1047,4380005013063,新規,0,2026-02-05,2026-02-05,行政書士法人つなぐ,,その他の設立登記法人,福島県,福島市,渡利字沖町６２番地の３,,07,201,9608141,,,,,,,2026-02-05,1,,,,,ツナグ,0
1048,4400003003641,新規,0,2026-02-05,2026-02-05,合同会社Ｒｉｎｎｅ,,合同会社,岩手県,盛岡市,浅岸１丁目８番３５号フォーブル加賀野２１０号,,03,201,0200801,,,,,,,2026-02-05,1,,,,,リンネ,0
1050,4420001019407,新規,0,2026-02-05,2026-02-05,ＧＯＯＤ　ＯＬＤ　ＡＯＭＯＲＩ株式会社,,株式会社,青森県,弘前市,大字新鍛冶町８０－２,,02,202,0368193,,,,,,,2026-02-05,1,,,,,グッドオールドアオモリ,0
1051,4420003003235,新規,0,2026-02-05,2026-02-05,合同会社アトラス,,合同会社,青森県,八戸市,大字尻内町字三条目３番地１１ライフ２１－２Ｆ,,02,203,0391101,,,,,,,2026-02-05,1,,,,,アトラス,0
1055,4450003002770,新規,0,2026-02-05,2026-02-05,合同会社ＬＩＦＵＮ,,合同会社,北海道,旭川市,東光三条２丁目１番２３号,,01,204,0788343,,,,,,,2026-02-05,1,,,,,ライファン,0
1060,4500001026766,新規,0,2026-02-05,2026-02-05,源灯株式会社,,株式会社,愛媛県,松山市,宮西１丁目４番４３号大智ビル４階,,38,201,7900065,,,,,,,2026-02-05,1,,,,,ゲントウ,0
1061,4500005008851,新規,0,2026-02-05,2026-02-05,保証責任中田渡負債整理組合,,その他の設立登記法人,愛媛県,喜多郡内子町,,,38,422,7913300,,,,,,,2026-02-05,1,,,,,,0
1062,4700150134003,新規,0,2026-02-05,2026-02-05,Ｄａｓｈｉ　（Ｈｏｎｇ　Ｋｏｎｇ）Ｌｉｍｉｔｅｄ,,外国会社等,,,,,,,,ＢＬＫ２　３１／Ｆ　Ｔｉｍｅｓ　Ｓｑｕａｒｅ，１　Ｍａｔｈｅｓｏｎ　Ｓｔｒｅｅｔ，Ｃａｕｓｅｗａｙ　Ｂａｙ，ＨＫ,,,,,,2026-02-05,1,,,,,ダシホンコンリミテツド,0
1063,4700150134291,新規,0,2026-02-05,2026-02-05,京セラドキュメントソリューションズ健康保険組合,,その他,大阪府,大阪市中央区,玉造１丁目２番２８号,,27,128,5400004,,,,,,,2026-02-05,1,,,,,キョウセラドキュメントソリューションズケンコウホケンクミアイ,0
1075,5010001262468,新規,0,2026-02-05,2026-02-05,丸高商事株式会社,,株式会社,東京都,文京区,千駄木３丁目４３番３号,,13,105,1130022,,,,,,,2026-02-05,1,,,,,マルタカショウジ,0
1076,5010001262526,新規,0,2026-02-05,2026-02-05,株式会社三友ウェルス＆パートナーズ,,株式会社,東京都,千代田区,大手町１丁目５番１号大手町ファーストスクエアイーストタワー４Ｆ,,13,101,1000004,,,,,,,2026-02-05,1,,,,,サンユウウェルスアンドパートナーズ,0
1079,5010003050268,新規,0,2026-02-05,2026-02-05,合同会社ＪＲＷＤファンド第１４号,,合同会社,東京都,中央区,日本橋１丁目４番１号日本橋一丁目ビルディング,,13,102,1030027,,,,,,,2026-02-05,1,,,,,ジェイアールダブリューディーファンドダイジュウヨンゴウ,0
1080,5010003050284,新規,0,2026-02-05,2026-02-05,合同会社ＣＡＲＯｉＴＯ,,合同会社,東京都,中央区,銀座１丁目２２－１１銀座大竹ビジデンス２階,,13,102,1040061,,,,,,,2026-02-05,1,,,,,キャロット,0
1091,5010401196159,新規,0,2026-02-05,2026-02-05,株式会社ｉＣｅｎｄｒｉｌｌｏｎ,,株式会社,東京都,港区,南青山３丁目１‐３６‐６階,,13,103,1070062,,,,,,,2026-02-05,1,,,,,アイサンドリヨン,0
1092,5010401196290,新規,0,2026-02-05,2026-02-05,株式会社ＳＫＹ,,株式会社,東京都,港区,南青山５丁目１２番２４号８０１,,13,103,1070062,,,,,,,2026-02-05,1,,,,,エスケーワイ,0
1093,5010403037229,新規,0,2026-02-05,2026-02-05,メドログ合同会社,,合同会社,東京都,港区,赤坂１丁目１２番３２号,,13,103,1070052,,,,,,,2026-02-05,1,,,,,メドログ,0
1096,5010603012056,新規,0,2026-02-05,2026-02-05,合同会社日頃の備え,,合同会社,東京都,墨田区,亀沢４丁目１７番２－５０８号,,13,107,1300014,,,,,,,2026-02-05,1,,,,,ヒゴロノソナエ,0
1097,5010701048992,新規,0,2026-02-05,2026-02-05,株式会社ＥＮＴＩＡＬ,,株式会社,東京都,品川区,西品川３丁目２１番８号インザガーデン１１０２,,13,109,1410033,,,,,,,2026-02-05,1,,,,,エンシャル,0
1109,5010903010610,新規,0,2026-02-05,2026-02-05,合同会社ＳＥＥＫ,,合同会社,東京都,世田谷区,松原５丁目３３番８号,,13,112,1560043,,,,,,,2026-02-05,1,,,,,シーク,0
1118,5011001175239,新規,0,2026-02-05,2026-02-05,株式会社ＬＳＡ,,株式会社,東京都,目黒区,中根２丁目１８番１２号ルエルＩＩ－１０３,00142468,13,110,1520031,,,,,,,2026-02-05,1,,,,,エルエスエー,0
1124,5011201026935,新規,0,2026-02-05,2026-02-05,株式会社ヨザクラ,,株式会社,東京都,中野区,中野５丁目５０番５号ウインドビル２Ｆ,,13,114,1640001,,,,,,,2026-02-05,1,,,,,ヨザクラ,0
1126,5011303005853,新規,0,2026-02-05,2026-02-05,合同会社湯道プロダクション,,合同会社,東京都,杉並区,高円寺南４丁目７番３号サンシャイン高円寺８０３号,,13,115,1660003,,,,,,,2026-02-05,1,,,,,ユドウプロダクション,0
1132,5011503006858,新規,0,2026-02-05,2026-02-05,初奈合同会社,,合同会社,東京都,荒川区,西日暮里５丁目２７－４－５０４号,,13,118,1160013,,,,,,,2026-02-05,1,,,,,ハツナ,0
1133,5011601029364,新規,0,2026-02-05,2026-02-05,株式会社ＳＴＡＲＴ,,株式会社,東京都,練馬区,西大泉５丁目３７番２０号,,13,120,1780065,,,,,,,2026-02-05,1,,,,,スタート,0
1141,5012405005213,新規,0,2026-02-05,2026-02-05,一般社団法人日本野外映画協会,,その他の設立登記法人,東京都,調布市,染地２丁目１番地２１,,13,208,1820023,,,,,,,2026-02-05,1,,,,,ニホンヤガイエイガキョウカイ,0
1144,5013303008084,新規,0,2026-02-05,2026-02-05,合同会社リサーチ,,合同会社,東京都,豊島区,池袋２丁目２３番４号２０５号室,,13,116,1710014,,,,,,,2026-02-05,1,,,,,リサーチ,0
1154,5020003030277,新規,0,2026-02-05,2026-02-05,合同会社ＢｅｅＳｉｄｅ,,合同会社,神奈川県,横浜市西区,平沼１丁目３番２２－２０３号,,14,103,2200023,,,,,,,2026-02-05,1,,,,,ビーサイド,0
1155,5020003030310,新規,0,2026-02-05,2026-02-05,ＭｃＣａｒｔｎｅｙ合同会社,,合同会社,神奈川県,横浜市南区,平楽８番地２,,14,105,2320035,,,,,,,2026-02-05,1,,,,,マッカートニー,0
1156,5020003030343,新規,0,2026-02-05,2026-02-05,合同会社ＩＴインサイト,,合同会社,神奈川県,横浜市港南区,日限山１丁目６７番１１－８２５号,,14,111,2330015,,,,,,,2026-02-05,1,,,,,アイティーインサイト,0
1157,5021001087458,新規,0,2026-02-05,2026-02-05,ＮＲＳ株式会社,,株式会社,神奈川県,相模原市緑区,二本松１丁目１５番３号,,14,151,2520137,,,,,,,2026-02-05,1,,,,,エヌアールエス,0
1158,5021003017124,新規,0,2026-02-05,2026-02-05,合同会社ＰＯＲＴＯ　ｐｌｕｓ,,合同会社,神奈川県,小田原市,栄町２丁目１２番１０号ＳｑｕａｒｅＯ２―１階,,14,206,2500011,,,,,,,2026-02-05,1,,,,,ポルトプラス,0
1164,5030001170818,新規,0,2026-02-05,2026-02-05,株式会社エコ・リエル,,株式会社,埼玉県,志木市,本町４丁目１７番１３号１階,,11,228,3530004,,,,,,,2026-02-05,1,,,,,エコリエル,0
1165,5030001170826,新規,0,2026-02-05,2026-02-05,株式会社ＡＩＲ　ＲＩＳＥ,,株式会社,埼玉県,さいたま市岩槻区,大字裏慈恩寺１３９１番地２,,11,110,3390002,,,,,,,2026-02-05,1,,,,,エアーライズ,0
1166,5030001170842,新規,0,2026-02-05,2026-02-05,株式会社Ｇｏｈ,,株式会社,埼玉県,蕨市,北町１丁目８番２１号,,11,223,3350001,,,,,,,2026-02-05,1,,,,,ゴー,0
1167,5030001170850,新規,0,2026-02-05,2026-02-05,エイジーオー株式会社,,株式会社,埼玉県,上尾市,宮本町３番２－７０９号,,11,219,3620036,,,,,,,2026-02-05,1,,,,,エイジーオー,0
1168,5030001170867,新規,0,2026-02-05,2026-02-05,株式会社ＧＵＳＴＵＳ,,株式会社,埼玉県,さいたま市緑区,大字下野田３９３番地,,11,109,3360962,,,,,,,2026-02-05,1,,,,,グストゥス,0
1169,5030001170883,新規,0,2026-02-05,2026-02-05,株式会社ＮＥＸＴＯＶＥＲ,,株式会社,埼玉県,戸田市,大字新曽１６２３番地の１（ツインコート北戸田１０２号室）,,11,224,3350021,,,,,,,2026-02-05,1,,,,,ネクストオーバー,0
1170,5030001170900,新規,0,2026-02-05,2026-02-05,株式会社うにいくら,,株式会社,埼玉県,川口市,北原台１丁目１３番２０号,,11,203,3330815,,,,,,,2026-02-05,1,,,,,ウニイクラ,0
1173,5030003028576,新規,0,2026-02-05,2026-02-05,合同会社ケイエステイト,,合同会社,埼玉県,さいたま市南区,大谷場１丁目４番１３号,,11,108,3360016,,,,,,,2026-02-05,1,,,,,ケイエステイト,0
1174,5030003028584,新規,0,2026-02-05,2026-02-05,ウィングス合同会社,,合同会社,埼玉県,羽生市,西１丁目７番２３号,,11,216,3480054,,,,,,,2026-02-05,1,,,,,ウィングス,0
1175,5030003028592,新規,0,2026-02-05,2026-02-05,ＮＥＸＯＲＡ合同会社,,合同会社,埼玉県,川口市,桜町３丁目１７－２１サクラ会館２Ｃ,,11,203,3340001,,,,,,,2026-02-05,1,,,,,ネクソラ,0
1177,5040003029409,新規,0,2026-02-05,2026-02-05,合同会社スタートアップ,,合同会社,千葉県,流山市,南流山２丁目２３番地の２５ＦＭＫ２０２,,12,220,2700163,,,,,,,2026-02-05,1,,,,,スタートアップ,0
1178,5040005023038,新規,0,2026-02-05,2026-02-05,一般社団法人ＱＣｏｄｅｒ,,その他の設立登記法人,千葉県,佐倉市,井野１５２９番地１朝日パリオ勝田台１０６号,,12,212,2850855,,,,,,,2026-02-05,1,,,,,キューコーダー,0
1180,5050001057906,新規,0,2026-02-05,2026-02-05,プロスペラ株式会社,,株式会社,茨城県,北相馬郡利根町,大字八幡台１２－８,,08,564,3001623,,,,,,,2026-02-05,1,,,,,プロスペラ,0
1183,5050003009921,新規,0,2026-02-05,2026-02-05,合同会社森,,合同会社,茨城県,古河市,三杉町２丁目１４番２４号,,08,204,3060002,,,,,,,2026-02-05,1,,,,,モリ,0
1186,5060001038987,新規,0,2026-02-05,2026-02-05,株式会社ＣｒｏｓｓＢａｓｅ,,株式会社,栃木県,宇都宮市,西１丁目５番２５号,,09,201,3200861,,,,,,,2026-02-05,1,,,,,クロスベース,0
1192,5090001019720,新規,0,2026-02-05,2026-02-05,イールフードサービス株式会社,,株式会社,山梨県,山梨市,下栗原１１３７番地,,19,205,4050023,,,,,,,2026-02-05,1,,,,,イールフードサービス,0
1197,5110001039880,新規,0,2026-02-05,2026-02-05,株式会社ラッドデモ,,株式会社,新潟県,魚沼市,竜光村前２０００－１,,15,225,9497404,,,,,,,2026-02-05,1,,,,,ラッドデモ,0
1208,5120001283692,新規,0,2026-02-05,2026-02-05,株式会社ＺＥＮＪＵＤＯ,,株式会社,大阪府,大阪市中央区,谷町６丁目１８－９ＲＥＩＳＥＨＯＢＢＹ０３,,27,128,5420012,,,,,,,2026-02-05,1,,,,,ゼンジュウドウ,0
1209,5120001283841,新規,0,2026-02-05,2026-02-05,株式会社樹ＩＴＵＫＩ,,株式会社,大阪府,大阪市浪速区,日本橋東３丁目６番１３－１０２号,,27,111,5560006,,,,,,,2026-02-05,1,,,,,イツキ,0
1210,5120001283866,新規,0,2026-02-05,2026-02-05,株式会社縁継,,株式会社,大阪府,大阪市中央区,久太郎町１丁目１番７－３０２号,,27,128,5410056,,,,,,,2026-02-05,1,,,,,エンケイ,0
1215,5120101073151,新規,0,2026-02-05,2026-02-05,株式会社Ａｋｒｉａ,,株式会社,大阪府,泉佐野市,日根野１１３１番地の５,,27,213,5980021,,,,,,,2026-02-05,1,,,,,アクリア,0
1216,5120103006968,新規,0,2026-02-05,2026-02-05,ＩＲＯＡ合同会社,,合同会社,大阪府,松原市,天美西２丁目９番８号,,27,217,5800034,,,,,,,2026-02-05,1,,,,,イロア,0
1217,5120103006976,新規,0,2026-02-05,2026-02-05,合同会社松島住機サービス,,合同会社,大阪府,南河内郡太子町,大字山田１７４３－２,,27,381,5830992,,,,,,,2026-02-05,1,,,,,マツシマジュウキサービス,0
1218,5120105010118,新規,0,2026-02-05,2026-02-05,ＴＹＫ社会保険労務士法人,,その他の設立登記法人,大阪府,堺市堺区,三国ヶ丘御幸通１５４番地（１８０６号）,,27,141,5900028,,,,,,,2026-02-05,1,,,,,ティーワイケー,0
1219,5120901052172,新規,0,2026-02-05,2026-02-05,ＮＯＢＵＧＡＴＥ　ＣＯＮＳＵＬＴＩＮＧ株式会社,,株式会社,大阪府,茨木市,並木町１８番１９号,,27,211,5670892,,,,,,,2026-02-05,1,,,,,ノブゲートコンサルティング,0
1226,5130001081559,新規,0,2026-02-05,2026-02-05,株式会社ＴＮＧ,,株式会社,京都府,京都市北区,紫野東御所田町８番地４,,26,101,6038164,,,,,,,2026-02-05,1,,,,,ティーエヌジー,0
1228,5130003011134,新規,0,2026-02-05,2026-02-05,合同会社ＤＥＮホールディングス,,合同会社,京都府,京都市右京区,西院久田町１３３番地,,26,108,6150064,,,,,,,2026-02-05,1,,,,,デンホールディングス,0
1235,5140001141568,新規,0,2026-02-05,2026-02-05,株式会社麟泉,,株式会社,兵庫県,宝塚市,千種４丁目６番２号,,28,214,6650072,,,,,,,2026-02-05,1,,,,,リンセン,0
1236,5140001141592,新規,0,2026-02-05,2026-02-05,株式会社昭建興業,,株式会社,兵庫県,尼崎市,田能６丁目１番３７号,,28,202,6610951,,,,,,,2026-02-05,1,,,,,ショウケンコウギョウ,0
1239,5160001027402,新規,0,2026-02-05,2026-02-05,株式会社山智,,株式会社,滋賀県,犬上郡甲良町,大字池寺４１６－４,,25,442,5220254,,,,,,,2026-02-05,1,,,,,ヤマトモ,0
1254,5180001170514,新規,0,2026-02-05,2026-02-05,株式会社未来,,株式会社,愛知県,名古屋市中村区,名駅４丁目２４番５号第２森ビル４０１,,23,105,4500002,,,,,,,2026-02-05,1,,,,,ミライ,0
1255,5180001170539,新規,0,2026-02-05,2026-02-05,株式会社ジモＰ,,株式会社,愛知県,名古屋市中区,丸の内２丁目１６番２３号,,23,106,4600002,,,,,,,2026-02-05,1,,,,,ジモピー,0
1256,5180001170571,新規,0,2026-02-05,2026-02-05,ネクストラベル株式会社,,株式会社,愛知県,名古屋市中村区,名駅３丁目４－１０アルティメイト名駅１ｓｔ２階,,23,105,4500002,,,,,,,2026-02-05,1,,,,,ネクストラベル,0
1257,5180003029733,新規,0,2026-02-05,2026-02-05,合同会社フルーツパフェ,,合同会社,愛知県,豊明市,新栄町６丁目１９７番地４,,23,229,4701154,,,,,,,2026-02-05,1,,,,,フルーツパフェ,0
1258,5180301040672,新規,0,2026-02-05,2026-02-05,株式会社ココノワ,,株式会社,愛知県,豊川市,中央通４丁目１５番地サンクレーア豊川中央通７０３号,,23,207,4420051,,,,,,,2026-02-05,1,,,,,ココノワ,0
1259,5200003007224,新規,0,2026-02-05,2026-02-05,合同会社マウンテンワン,,合同会社,岐阜県,岐阜市,日ノ出町４丁目１７番地サンワビル１Ｆ,,21,201,5008876,,,,,,,2026-02-05,1,,,,,マウンテンワン,0
1263,5240001066136,新規,0,2026-02-05,2026-02-05,株式会社坂田商店,,株式会社,広島県,福山市,延広町６番１３号,,34,207,7200064,,,,,,,2026-02-05,1,,,,,サカタショウテン,0
1264,5240001066144,新規,0,2026-02-05,2026-02-05,株式会社Ｍａｔｈｙｓ,,株式会社,広島県,廿日市市,阿品４丁目４７番６号阿品ビル３階,,34,213,7380054,,,,,,,2026-02-05,1,,,,,マティス,0
1265,5240001066152,新規,0,2026-02-05,2026-02-05,株式会社ＭＭＪ,,株式会社,広島県,広島市中区,本川町１丁目２番１５－１４０３号,,34,101,7300802,,,,,,,2026-02-05,1,,,,,エムエムジェー,0
1270,5250003003895,新規,0,2026-02-05,2026-02-05,合同会社ｆａｙｔｉａ,,合同会社,山口県,山陽小野田市,大字丸河内９７４番地７２,,35,216,7560821,,,,,,,2026-02-05,1,,,,,フェイティア,0
1273,5260001040972,新規,0,2026-02-05,2026-02-05,株式会社故引工業,,株式会社,岡山県,岡山市中区,兼基２４０番地８,,33,102,7038227,,,,,,,2026-02-05,1,,,,,コビキコウギョウ,0
1281,5290001113024,新規,0,2026-02-05,2026-02-05,ロックベア株式会社,,株式会社,福岡県,福岡市西区,九大新町４番１号,,40,135,8190388,,,,,,,2026-02-05,1,,,,,ロックベア,0
1285,5310003005175,新規,0,2026-02-05,2026-02-05,おそうじの燿合同会社,,合同会社,長崎県,長崎市,竹の久保町１７番１７号,,42,201,8528014,,,,,,,2026-02-05,1,,,,,オソウジノカガヤキ,0
1288,5330001033969,新規,0,2026-02-05,2026-02-05,株式会社ＮＥＮＥ,,株式会社,熊本県,玉名郡長洲町,大字宮野３８５番地２,,43,368,8690101,,,,,,,2026-02-05,1,,,,,ネネ,0
1289,5340001027945,新規,0,2026-02-05,2026-02-05,株式会社上野美月製茶工場,,株式会社,鹿児島県,曽於市,財部町北俣５３０３番地,,46,217,8994102,,,,,,,2026-02-05,1,,,,,ウエノミツキセイチャコウジョウ,0
1290,5340001027961,新規,0,2026-02-05,2026-02-05,ジョイフード株式会社,,株式会社,鹿児島県,鹿児島市,吉野町３４８２番地８,,46,201,8920871,,,,,,,2026-02-05,1,,,,,ジョイフード,0
1293,5350001019925,新規,0,2026-02-05,2026-02-05,株式会社ＳｕｎＳｕｎ,,株式会社,宮崎県,児湯郡高鍋町,大字南高鍋８４９４番地,,45,401,8840003,,,,,,,2026-02-05,1,,,,,サンサン,0
1298,5360001036325,新規,0,2026-02-05,2026-02-05,株式会社ラブマイセルフ,,株式会社,沖縄県,浦添市,西原３丁目１１番１２号,,47,208,9012101,,,,,,,2026-02-05,1,,,,,ラブマイセルフ,0
1299,5360001036341,新規,0,2026-02-05,2026-02-05,株式会社ＣＭＳ,,株式会社,沖縄県,豊見城市,字翁長８５６－２,,47,212,9010223,,,,,,,2026-02-05,1,,,,,シモセ,0
1303,5360005007363,新規,0,2026-02-05,2026-02-05,一般社団法人ＮＢＡＳＥ,,その他の設立登記法人,沖縄県,南城市,大里字古堅９６７番地１,,47,215,9011207,,,,,,,2026-02-05,1,,,,,エヌベース,0
1307,5380003006241,新規,0,2026-02-05,2026-02-05,合同会社Ａｉ　Ｌｕｓｈ　Ｇｒｅｅｎ,,合同会社,福島県,大沼郡会津美里町,字高田甲２８４０番,,07,447,9696264,,,,,,,2026-02-05,1,,,,,アイラッシュグリーン,0
1310,5420003003234,新規,0,2026-02-05,2026-02-05,合同会社リアライズ,,合同会社,青森県,八戸市,大字妙字油久保５番地２２,,02,203,0310814,,,,,,,2026-02-05,1,,,,,リアライズ,0
1317,5490001011273,新規,0,2026-02-05,2026-02-05,株式会社みらいウインド,,株式会社,高知県,高知市,札場８－１３ベルカント札場１０８,,39,201,7810085,,,,,,,2026-02-05,1,,,,,ミライウインド,0
1321,5700150134290,新規,0,2026-02-05,2026-02-05,大和町会,,その他,茨城県,土浦市,大和町８番３号,,08,203,3000036,,,,,,,2026-02-05,1,,,,,ヤマトチョウカイ,0
1327,6010001262293,新規,0,2026-02-05,2026-02-05,ＴＬＭｅｄＴｅｃｈ株式会社,,株式会社,東京都,中央区,築地６丁目２５－１０,,13,102,1040045,,,,,,,2026-02-05,1,,,,,ティーエルメドテック,0
1335,6010101017060,新規,0,2026-02-05,2026-02-05,株式会社ＣＥＩ,,株式会社,東京都,八王子市,散田町１丁目１番Ｂ－１０２号,,13,201,1930832,,,,,,,2026-02-05,1,,,,,シーイーアイ,0
1341,6010401196249,新規,0,2026-02-05,2026-02-05,株式会社宝山商事,,株式会社,東京都,港区,赤坂３丁目１番１６号ＢＩビル７階,,13,103,1070052,,,,,,,2026-02-05,1,,,,,ホウザンショウジ,0
1350,6010701048991,新規,0,2026-02-05,2026-02-05,ＬＩＮＯＡ　ＢＡＳＥ株式会社,,株式会社,東京都,品川区,西五反田３丁目１１番６号,,13,109,1410031,,,,,,,2026-02-05,1,,,,,リノアベース,0
1365,6011001175320,新規,0,2026-02-05,2026-02-05,ＧＭＯサムライコンテンツスタジオ株式会社,,株式会社,東京都,渋谷区,桜丘町２６番１号,,13,113,1500031,,,,,,,2026-02-05,1,,,,,ジーエムオーサムライコンテンツスタジオ,0
1366,6011001175329,新規,0,2026-02-05,2026-02-05,Ａｌｍｕｒｅ株式会社,,株式会社,東京都,渋谷区,円山町５番３号ＭＩＥＵＸ渋谷ビル８階,,13,113,1500044,,,,,,,2026-02-05,1,,,,,アルミュール,0
1371,6011003023485,新規,0,2026-02-05,2026-02-05,ＯＮＥ合同会社,,合同会社,東京都,渋谷区,桜丘町２９番１６－３０８号,,13,113,1500031,,,,,,,2026-02-05,1,,,,,ワン,0
1376,6011201026942,新規,0,2026-02-05,2026-02-05,株式会社ＴＡＢＩＴＯ,,株式会社,東京都,中野区,弥生町１丁目８番９－７０４号,,13,114,1640013,,,,,,,2026-02-05,1,,,,,タビト,0
1377,6011401027781,新規,0,2026-02-05,2026-02-05,株式会社ＬＩＢＲＥ,,株式会社,東京都,板橋区,熊野町１５番３－１００２号,,13,119,1730025,,,,,,,2026-02-05,1,,,,,リブレ,0
1378,6011501033069,新規,0,2026-02-05,2026-02-05,赤松株式会社,,株式会社,東京都,北区,西ケ原１丁目８番４号,,13,117,1140024,,,,,,,2026-02-05,1,,,,,アカマツ,0
1387,6012405005212,新規,0,2026-02-05,2026-02-05,一般社団法人詠櫻會,,その他の設立登記法人,東京都,調布市,上石原３丁目３７番地１０,,13,208,1820035,,,,,,,2026-02-05,1,,,,,エイオウカイ,0
1389,6012705002495,新規,0,2026-02-05,2026-02-05,一般社団法人サステナブル市民会議,,その他の設立登記法人,東京都,東久留米市,南沢２丁目２０番１３号,,13,222,2030023,,,,,,,2026-02-05,1,,,,,サステナブルシミンカイギ,0
1392,6013301055714,新規,0,2026-02-05,2026-02-05,株式会社Ｓｏａｒｕ,,株式会社,東京都,豊島区,東池袋３丁目９番９号明昌ＭＧビル１Ｆ,,13,116,1700013,,,,,,,2026-02-05,1,,,,,ソアル,0
1396,6020001166964,新規,0,2026-02-05,2026-02-05,株式会社ＩｍｐａｃｔＤｒｏｐ,,株式会社,神奈川県,川崎市宮前区,鷺沼４丁目１４－２ドレッセ鷺沼の杜Ｄ２１３,,14,136,2160004,,,,,,,2026-02-05,1,,,,,インパクトドロップ,0
1397,6020001166997,新規,0,2026-02-05,2026-02-05,一条美術株式会社,,株式会社,神奈川県,横浜市南区,南吉田町５丁目４７番２号２Ｆ,,14,105,2320012,,,,,,,2026-02-05,1,,,,,イチジョウビジュツ,0
1401,6020003030251,新規,0,2026-02-05,2026-02-05,ＹＡＫＵＯ合同会社,,合同会社,神奈川県,横浜市神奈川区,菅田町７９９番地ビレッジハウス菅田３号棟２０２号室,,14,102,2210864,,,,,,,2026-02-05,1,,,,,ヤクオ,0
1407,6030001170817,新規,0,2026-02-05,2026-02-05,株式会社リサイコー,,株式会社,埼玉県,川口市,大字安行吉岡１７６５番地の１プレジール１０３号,,11,203,3340072,,,,,,,2026-02-05,1,,,,,リサイコー,0
1408,6030001170825,新規,0,2026-02-05,2026-02-05,株式会社ＴＲＹ　ＴＷＯ,,株式会社,埼玉県,新座市,新堀３丁目１番２１号アイリスガーデン清瀬３１１号室,,11,230,3520032,,,,,,,2026-02-05,1,,,,,トライツー,0
1409,6030001170841,新規,0,2026-02-05,2026-02-05,株式会社進盛,,株式会社,埼玉県,鴻巣市,宮地３丁目１番４号,,11,217,3650075,,,,,,,2026-02-05,1,,,,,シンセイ,0
1410,6030001170890,新規,0,2026-02-05,2026-02-05,株式会社大地美装,,株式会社,埼玉県,川口市,大字前田１２６８番地の４,,11,203,3340014,,,,,,,2026-02-05,1,,,,,ダイチビソウ,0
1413,6030003028559,新規,0,2026-02-05,2026-02-05,合同会社三和Ｍ・Ｙ,,合同会社,埼玉県,八潮市,大字大曽根４８番地５,,11,234,3400834,,,,,,,2026-02-05,1,,,,,サンレエスワイ,0
1414,6030003028583,新規,0,2026-02-05,2026-02-05,日向アセット合同会社,,合同会社,埼玉県,秩父郡横瀬町,大字横瀬５２５０番地,,11,361,3680072,,,,,,,2026-02-05,1,,,,,ヒナタアセット,0
1415,6030003028600,新規,0,2026-02-05,2026-02-05,合同会社Ｂｕｉｌｄ　ａ　ｎｅｗ　ｆｕｔｕｒｅ,,合同会社,埼玉県,熊谷市,上之３７６３番地３,,11,202,3600012,,,,,,,2026-02-05,1,,,,,ビルドアニューフューチャー,0
1427,6040001142303,新規,0,2026-02-05,2026-02-05,株式会社ＧＬＯＢＡＬ　ＬＩＮＫ,,株式会社,千葉県,船橋市,金杉８丁目１２番３０－６１１号,,12,204,2730853,,,,,,,2026-02-05,1,,,,,グローバルリンク,0
1428,6040001142336,新規,0,2026-02-05,2026-02-05,株式会社恵,,株式会社,千葉県,佐倉市,臼井田１５７番地,,12,212,2850861,,,,,,,2026-02-05,1,,,,,メグミ,0
1429,6040001142352,新規,0,2026-02-05,2026-02-05,株式会社ヒノマル建設,,株式会社,千葉県,船橋市,咲が丘２丁目２５－９,,12,204,2740807,,,,,,,2026-02-05,1,,,,,ヒノマルケンセツ,0
1430,6040001142360,新規,0,2026-02-05,2026-02-05,オーティスエイト株式会社,,株式会社,千葉県,君津市,糠田１５０番地２,,12,225,2991104,,,,,,,2026-02-05,1,,,,,オーティスエイト,0
1433,6050001057954,新規,0,2026-02-05,2026-02-05,株式会社ＴＹＯ,,株式会社,茨城県,取手市,米ノ井１７８番地１,,08,217,3020033,,,,,,,2026-02-05,1,,,,,ティーワイオー,0
1434,6050005013755,新規,0,2026-02-05,2026-02-05,特定非営利活動法人きっかけ,,その他の設立登記法人,茨城県,守谷市,本町６１９番地,,08,224,3020109,,,,,,,2026-02-05,1,,,,,キッカケ,0
1443,6080101026063,新規,0,2026-02-05,2026-02-05,株式会社Ｏｆｆｉｃｅ　Ｎｉｓｈｉｙａｍａ,,株式会社,静岡県,駿東郡長泉町,東野６０６番地の６,,22,342,4110931,,,,,,,2026-02-05,1,,,,,オフィスニシヤマ,0
1447,6100001039311,新規,0,2026-02-05,2026-02-05,株式会社Ｎ２ＰＲ,,株式会社,長野県,北佐久郡御代田町,大字御代田３９２０番地６,,20,323,3890206,,,,,,,2026-02-05,1,,,,,エヌツーピーアール,0
1449,6100003008603,新規,0,2026-02-05,2026-02-05,合同会社サンモーリ,,合同会社,長野県,長野市,川中島町上氷鉋６７４番地１レピュート二ツ矢Ｂ号,,20,201,3812233,,,,,,,2026-02-05,1,,,,,サンモーリ,0
1460,6120101073159,新規,0,2026-02-05,2026-02-05,ＡＸＥＮＴ株式会社,,株式会社,大阪府,貝塚市,地藏堂５３－１２,,27,208,5970053,,,,,,,2026-02-05,1,,,,,アクセント,0
1462,6120103006975,新規,0,2026-02-05,2026-02-05,合同会社ＳＯＲＡ,,合同会社,大阪府,堺市北区,新金岡町３丁１番２１－４０３号,,27,146,5918021,,,,,,,2026-02-05,1,,,,,ソラ,0
1463,6122001040156,新規,0,2026-02-05,2026-02-05,フロムエッジ株式会社,,株式会社,大阪府,東大阪市,鷹殿町１７－１３,,27,227,5798036,,,,,,,2026-02-05,1,,,,,フロムエッジ,0
1471,6140001141567,新規,0,2026-02-05,2026-02-05,株式会社Ｃｙｃｌａ,,株式会社,兵庫県,宝塚市,美幸町８－５,,28,214,6650042,,,,,,,2026-02-05,1,,,,,シクラ,0
1472,6140001141600,新規,0,2026-02-05,2026-02-05,株式会社フォレストリンク,,株式会社,兵庫県,西宮市,菊谷町２番１７号,,28,204,6620078,,,,,,,2026-02-05,1,,,,,フォレストリンク,0
1476,6140005027787,新規,0,2026-02-05,2026-02-05,一般財団法人ピナコテカ辻司,00142465,その他の設立登記法人,兵庫県,宝塚市,千種４丁目３番２２号,,28,214,6650072,,,,,,,2026-02-05,1,,,,,ピナコテカツジツカサ,0
1477,6150001028714,新規,0,2026-02-05,2026-02-05,トラストフォース株式会社,,株式会社,奈良県,生駒郡斑鳩町,法隆寺北２丁目１番９号,,29,344,6360111,,,,,,,2026-02-05,1,,,,,トラストフォース,0
1480,6160001027392,新規,0,2026-02-05,2026-02-05,ＧｒｅｅｎＭａｋｅｒ　Ｏｔｓｕ株式会社,,株式会社,滋賀県,大津市,下阪本６丁目２４－２３,,25,201,5200105,,,,,,,2026-02-05,1,,,,,グリーンメーカーオオツ,0
1481,6160001027401,新規,0,2026-02-05,2026-02-05,株式会社志氣武,,株式会社,滋賀県,湖南市,若竹町１番地２９ＭＢビル１－Ｂ,,25,211,5203216,,,,,,,2026-02-05,1,,,,,シキブ,0
1487,6180001170538,新規,0,2026-02-05,2026-02-05,株式会社未来和,,株式会社,愛知県,名古屋市港区,畑中１丁目１２０４番地,,23,111,4550879,,,,,,,2026-02-05,1,,,,,ミライワ,0
1488,6180001170546,新規,0,2026-02-05,2026-02-05,ＤＡＳＨ株式会社,,株式会社,愛知県,名古屋市中区,千代田４丁目１１番８号,,23,106,4600012,,,,,,,2026-02-05,1,,,,,ダッシュ,0
1489,6180001170570,新規,0,2026-02-05,2026-02-05,株式会社Ｋ‐ＦＯＵＮＤ,,株式会社,愛知県,春日井市,稲口町１丁目３番地５,,23,206,4860905,,,,,,,2026-02-05,1,,,,,ケイファウンド,0
1490,6180003029625,新規,0,2026-02-05,2026-02-05,Ｓａｋｕｒａ　Ｆｌｏｗｍａｒｋ合同会社,,合同会社,愛知県,春日井市,上条町４丁目１３ディアスＹＡ棟１０２,,23,206,4860833,,,,,,,2026-02-05,1,,,,,サクラフローマーク,0
1494,6200003007223,新規,0,2026-02-05,2026-02-05,合同会社ＦＵＪＩＫＩＣＨＩ,,合同会社,岐阜県,岐阜市,小野２丁目１２０番地１,,21,201,5011174,,,,,,,2026-02-05,1,,,,,フジキチ,0
1496,6210005010249,新規,0,2026-02-05,2026-02-05,一般社団法人フルード,,その他の設立登記法人,福井県,坂井市,丸岡町里丸岡７字２番１０,,18,210,9100302,,,,,,,2026-02-05,1,,,,,フルード,0
1497,6240001066151,新規,0,2026-02-05,2026-02-05,株式会社Ｂｕｌｋ　Ｅｓｔａｔｅ,,株式会社,広島県,広島市南区,宇品神田４丁目１４番５－１００４号,,34,103,7340004,,,,,,,2026-02-05,1,,,,,バルクエステート,0
1498,6240003007582,新規,0,2026-02-05,2026-02-05,合同会社ＺＥＲＯ,,合同会社,広島県,広島市安佐南区,古市３丁目３０番１９－１０２号,,34,105,7310123,,,,,,,2026-02-05,1,,,,,ゼロ,0
1504,6280001009577,新規,0,2026-02-05,2026-02-05,株式会社おきかん資材,,株式会社,島根県,隠岐郡隠岐の島町,下西８１１番地６,,32,528,6850017,,,,,,,2026-02-05,1,,,,,オキカンシザイ,0
1508,6290001112999,新規,0,2026-02-05,2026-02-05,Ｊ‐Ｆｉｎａｎｃｉａｌ　Ｃｏｎｓｕｌｔｉｎｇ株式会社,,株式会社,福岡県,福岡市博多区,空港前１丁目１１番１０－４０２号,,40,132,8120002,,,,,,,2026-02-05,1,,,,,ジェイフィナンシャルコンサルティング,0
1509,6290001113031,新規,0,2026-02-05,2026-02-05,株式会社ＫＯＨＡ,,株式会社,福岡県,筑紫野市,二日市南２丁目８番１８号,,40,217,8180057,,,,,,,2026-02-05,1,,,,,コハ,0
1513,6290005019992,新規,0,2026-02-05,2026-02-05,ＮＰＯ法人心臓電気生理研究機構,,その他の設立登記法人,福岡県,福岡市中央区,渡辺通５丁目２３番２－４０９号,,40,133,8100004,,,,,,,2026-02-05,1,,,,,シンゾウデンキセイリケンキュウキコウ,0
1516,6300001014500,新規,0,2026-02-05,2026-02-05,株式会社原林業,,株式会社,佐賀県,三養基郡基山町,大字小倉１３２２,,41,341,8410201,,,,,,,2026-02-05,1,,,,,ハラリンギョウ,0
1519,6320003004893,新規,0,2026-02-05,2026-02-05,合同会社ＬＯＯＰ,,合同会社,大分県,中津市,大字牛神２２０番地１,,44,203,8710015,,,,,,,2026-02-05,1,,,,,ループ,0
1520,6330001033968,新規,0,2026-02-05,2026-02-05,株式会社ハッピーラボ,,株式会社,熊本県,合志市,幾久富１６５６番地４６１,,43,216,8611112,,,,,,,2026-02-05,1,,,,,ハッピーラボ,0
1521,6330003011419,新規,0,2026-02-05,2026-02-05,合同会社一魚一恵,,合同会社,熊本県,八代市,鏡町鏡村４６１番地５,,43,202,8694201,,,,,,,2026-02-05,1,,,,,イチギョイチエ,0
1522,6340001027952,新規,0,2026-02-05,2026-02-05,株式会社きくなが,,株式会社,鹿児島県,南九州市,知覧町塩屋２５０９５番地,,46,223,8910911,,,,,,,2026-02-05,1,,,,,キクナガ,0
1523,6340001027960,新規,0,2026-02-05,2026-02-05,株式会社Ｃｏａｔｗｏｏｄ,,株式会社,鹿児島県,南九州市,知覧町東別府１３９２９番地,,46,223,8970304,,,,,,,2026-02-05,1,,,,,コートウッド,0
1528,6350001019924,新規,0,2026-02-05,2026-02-05,株式会社ＰＥＲＩＤＩＡ,,株式会社,宮崎県,宮崎市,生目台東２丁目２７番地３,,45,201,8800942,,,,,,,2026-02-05,1,,,,,ペリディア,0
1529,6350001019932,新規,0,2026-02-05,2026-02-05,株式会社ＧＲＡＮＤＩＲ,,株式会社,宮崎県,宮崎市,江平中町３番地９レクシアシティ宮崎中央レジデンス３０７号,,45,201,8800814,,,,,,,2026-02-05,1,,,,,グランディール,0
1531,6360001036340,新規,0,2026-02-05,2026-02-05,Ｕｐ　Ｓｔｒｅａｍ株式会社,,株式会社,沖縄県,糸満市,字阿波根８０１－１,,47,210,9010301,,,,,,,2026-02-05,1,,,,,アップストリーム,0
1532,6360001036349,新規,0,2026-02-05,2026-02-05,株式会社ＭＲ　ＡＵＴＯ,,株式会社,沖縄県,石垣市,字白保７８１－１,,47,207,9070242,,,,,,,2026-02-05,1,,,,,エムアールオート,0
1534,6360003015499,新規,0,2026-02-05,2026-02-05,合同会社Ｌｅａｒｎｅｘｔ,,合同会社,沖縄県,名護市,字許田６０６,,47,209,9050024,,,,,,,2026-02-05,1,,,,,ラーネクスト,0
1535,6360003015598,新規,0,2026-02-05,2026-02-05,合同会社Ｕｎｉｖｅｒｓｏ,,合同会社,沖縄県,那覇市,壺屋２丁目２３番８号３階,,47,201,9020065,,,,,,,2026-02-05,1,,,,,ユニベルソ,0
1539,6370005011074,新規,0,2026-02-05,2026-02-05,一般社団法人リサージュ,,その他の設立登記法人,宮城県,登米市,津山町柳津字本町８５,,04,212,9860401,,,,,,,2026-02-05,1,,,,,リサージュ,0
1545,6420001019405,新規,0,2026-02-05,2026-02-05,株式会社Ｂ‐Ｉ,,株式会社,青森県,上北郡六戸町,小松ケ丘４丁目７７番地８２３グランデール蔵司Ｃ棟,,02,405,0330074,,,,,,,2026-02-05,1,,,,,ビーワン,0
1548,6430001096179,新規,0,2026-02-05,2026-02-05,ジョイントライフ株式会社,,株式会社,北海道,札幌市中央区,南六条西３丁目１１番地３セントラルビル２階,,01,101,0640806,,,,,,,2026-02-05,1,,,,,ジョイントライフ,0
1551,6430003018560,新規,0,2026-02-05,2026-02-05,合同会社グレックヒェンバウム・パートナーズ,,合同会社,北海道,札幌市中央区,北三条西１６丁目１番地１知事公館前タワーレジデンス２８０３号,,01,101,0600003,,,,,,,2026-02-05,1,,,,,グレックヒェンバウムパートナーズ,0
1552,6430003018569,新規,0,2026-02-05,2026-02-05,合同会社エルプロ,,合同会社,北海道,札幌市中央区,南三条西１丁目８‐１０コネクト札幌４Ｆ,,01,101,0600063,,,,,,,2026-02-05,1,,,,,エルプロ,0
1553,6450003002769,新規,0,2026-02-05,2026-02-05,合同会社開地,,合同会社,北海道,枝幸郡枝幸町,歌登東歌登４００番地９,,01,514,0985202,,,,,,,2026-02-05,1,,,,,カイチ,0
1555,6450005004474,新規,0,2026-02-05,2026-02-05,司法書士法人梅野事務所,,その他の設立登記法人,北海道,名寄市,西三条南１０丁目１番地,,01,221,0960013,,,,,,,2026-02-05,1,,,,,ウメノジムショ,0
1581,7010401196248,新規,0,2026-02-05,2026-02-05,ＡＩＯＮ　ＨＯＬＤＩＮＧＳ株式会社,,株式会社,東京都,港区,南青山５丁目１２番６号英ビル２Ｆ,,13,103,1070062,,,,,,,2026-02-05,1,,,,,アイオンホールディングス,0
1598,7010701048999,新規,0,2026-02-05,2026-02-05,Ｅアシスト株式会社,,株式会社,東京都,品川区,南品川６丁目１１番９号,,13,109,1400004,,,,,,,2026-02-05,1,,,,,イーアシスト,0
1604,7010801036953,新規,0,2026-02-05,2026-02-05,ドットコネクト株式会社,,株式会社,東京都,大田区,池上３丁目２５番５号グリーンパレス１階,,13,111,1460082,,,,,,,2026-02-05,1,,,,,ドットコネクト,0
1608,7010803005709,新規,0,2026-02-05,2026-02-05,ポラム合同会社,,合同会社,東京都,大田区,千鳥２丁目１３番１１号,,13,111,1460083,,,,,,,2026-02-05,1,,,,,ポラム,0
1623,7011001175294,新規,0,2026-02-05,2026-02-05,株式会社Ｅｐｕｒｓｉｍｏ,,株式会社,東京都,渋谷区,恵比寿西２丁目４番８号ウィンド恵比寿ビル８Ｆ,,13,113,1500021,,,,,,,2026-02-05,1,,,,,エプルシモ,0
1628,7011003023476,新規,0,2026-02-05,2026-02-05,アーヤプリズム合同会社,,合同会社,東京都,渋谷区,神泉町１０番１５号アネックス神泉３０１,,13,113,1500045,,,,,,,2026-02-05,1,,,,,アーヤプリズム,0
1629,7011003023484,新規,0,2026-02-05,2026-02-05,合同会社Ｓｐｒｉｎｇ　Ｏｃｅａｎ,,合同会社,東京都,渋谷区,恵比寿３丁目３９番９号リシェ広尾１２０５,,13,113,1500013,,,,,,,2026-02-05,1,,,,,スプリングオーシャン,0
1630,7011003023550,新規,0,2026-02-05,2026-02-05,ノーザンパーク・リアルエステイト・アンド・コンサルティング合同会社,,合同会社,東京都,渋谷区,松濤１丁目１０番２２号プラウド松濤１０５号室,,13,113,1500046,,,,,,,2026-02-05,1,,,,,ノーザンパークリアルエステイトアンドコンサルティング,0
1637,7011401027780,新規,0,2026-02-05,2026-02-05,ＺＥ・成功株式会社,,株式会社,東京都,板橋区,南町３６番６号第二岡部アパート１０２,,13,119,1730027,,,,,,,2026-02-05,1,,,,,ゼセイコウ,0
1638,7011601029362,新規,0,2026-02-05,2026-02-05,株式会社ＧｉｌｌＢｅｃｋ,,株式会社,東京都,練馬区,谷原５丁目１６－４,,13,120,1770032,,,,,,,2026-02-05,1,,,,,ギルベック,0
1641,7011801047379,新規,0,2026-02-05,2026-02-05,株式会社ＳＯＲＡ,,株式会社,東京都,足立区,鹿浜６丁目２９番７号,,13,121,1230864,,,,,,,2026-02-05,1,,,,,ソラ,0
1647,7012401044089,新規,0,2026-02-05,2026-02-05,株式会社Ｋｉｍｅｔｅ,,株式会社,東京都,小金井市,梶野町５丁目１番８号エスペランサ東小金井２Ｆ,,13,210,1840002,,,,,,,2026-02-05,1,,,,,キメテ,0
1648,7012403007589,新規,0,2026-02-05,2026-02-05,合同会社ｗｅｌｃｏｍｅ　ｉｎｃ．,,合同会社,東京都,武蔵野市,関前３丁目３９－１０－１,,13,203,1800014,,,,,,,2026-02-05,1,,,,,ウェルカムインク,0
1649,7012403007597,新規,0,2026-02-05,2026-02-05,合同会社スタジオクロスライン,,合同会社,東京都,小金井市,本町１丁目６番４号,,13,210,1840004,,,,,,,2026-02-05,1,,,,,スタジオクロスライン,0
1659,7020001166996,新規,0,2026-02-05,2026-02-05,株式会社九地所,,株式会社,神奈川県,横浜市中区,宮川町２丁目３８番地１ｉＢｏｘＢＬＤ宮川町３０１号,,14,104,2310065,,,,,,,2026-02-05,1,,,,,ココノツジショ,0
1660,7020003030259,新規,0,2026-02-05,2026-02-05,ＡＹＡ合同会社,,合同会社,神奈川県,横浜市鶴見区,馬場６丁目１８番１２－５号,,14,101,2300076,,,,,,,2026-02-05,1,,,,,エイワイエイ,0
1661,7021003017114,新規,0,2026-02-05,2026-02-05,アーバンテック合同会社,,合同会社,神奈川県,藤沢市,下土棚２０２９番地の４,00142470,14,205,2520807,,,,,,,2026-02-05,1,,,,,アーバンテック,0
1662,7021005013532,新規,0,2026-02-05,2026-02-05,一般社団法人にほんのことなら,,その他の設立登記法人,神奈川県,鎌倉市,扇ガ谷４丁目１５番２１号,,14,204,2480011,,,,,,,2026-02-05,1,,,,,ニホンノコトナラ,0
1665,7030001170816,新規,0,2026-02-05,2026-02-05,株式会社プライムエージェント,,株式会社,埼玉県,東松山市,若松町１丁目１８番２６号,,11,212,3550037,,,,,,,2026-02-05,1,,,,,プライムエージェント,0
1666,7030001170832,新規,0,2026-02-05,2026-02-05,狭山興産株式会社,,株式会社,埼玉県,狭山市,大字根岸６６０番地,,11,215,3501325,,,,,,,2026-02-05,1,,,,,サヤマコウサン,0
1667,7030001170849,新規,0,2026-02-05,2026-02-05,トラステック株式会社,,株式会社,埼玉県,日高市,大字高萩７５６番地１１,,11,242,3501213,,,,,,,2026-02-05,1,,,,,トラステック,0
1668,7030001170857,新規,0,2026-02-05,2026-02-05,ＴＫホールディングス株式会社,,株式会社,埼玉県,比企郡嵐山町,大字古里１３９１番地２,,11,342,3550201,,,,,,,2026-02-05,1,,,,,ティーケーホールディングス,0
1669,7030001170873,新規,0,2026-02-05,2026-02-05,株式会社ラーディッシュ,,株式会社,埼玉県,幸手市,大字木立１３０８番地２,,11,240,3400123,,,,,,,2026-02-05,1,,,,,ラーディッシュ,0
1670,7030001170898,新規,0,2026-02-05,2026-02-05,株式会社おおつかファーム,,株式会社,埼玉県,春日部市,椚１９番地,,11,214,3440133,,,,,,,2026-02-05,1,,,,,オオツカファーム,0
1674,7030003028566,新規,0,2026-02-05,2026-02-05,合同会社ＺＥＲＯ,,合同会社,埼玉県,新座市,栗原５丁目６－２０パークアベニューデュエットひばりが丘Ａ２０７号室,,11,230,3520035,,,,,,,2026-02-05,1,,,,,ゼロ,0
1675,7030003028574,新規,0,2026-02-05,2026-02-05,合同会社ＲＴＦｒｏｎｔｉｅｒ,,合同会社,埼玉県,比企郡川島町,大字東大塚３０４,,11,346,3500114,,,,,,,2026-02-05,1,,,,,アールティフロンティア,0
1676,7030003028582,新規,0,2026-02-05,2026-02-05,合同会社ヒロシ,,合同会社,埼玉県,川口市,西川口５丁目１５番５号,,11,203,3320021,,,,,,,2026-02-05,1,,,,,ヒロシ,0
1681,7040001142351,新規,0,2026-02-05,2026-02-05,ＳＥＱＵＥＬ株式会社,,株式会社,千葉県,船橋市,本町２丁目６番２号イーストベイ・船橋本町１０１号室,,12,204,2730005,,,,,,,2026-02-05,1,,,,,シークエル,0
1683,7040003029415,新規,0,2026-02-05,2026-02-05,合同会社大山,,合同会社,千葉県,富里市,七栄８６８番地１３,,12,233,2860221,,,,,,,2026-02-05,1,,,,,オオヤマ,0
1688,7050001057945,新規,0,2026-02-05,2026-02-05,株式会社もりや地域商社,,株式会社,茨城県,守谷市,松前台１丁目１６番地７,,08,224,3020102,,,,,,,2026-02-05,1,,,,,モリヤチイキショウシャ,0
1698,7080101026054,新規,0,2026-02-05,2026-02-05,株式会社やまびこ庭苑,,株式会社,静岡県,裾野市,須山２２５５番地の４２５７,,22,220,4101231,,,,,,,2026-02-05,1,,,,,ヤマビコテイエン,0
1699,7080101026062,新規,0,2026-02-05,2026-02-05,ＲＹＵ　ＨＯＬＤＩＮＧＳ株式会社,,株式会社,静岡県,富士宮市,万野原新田３０８０番地の１１,,22,207,4180001,,,,,,,2026-02-05,1,,,,,リュウホールディングス,0
1701,7080103003522,新規,0,2026-02-05,2026-02-05,合同会社伊豆くらしサポート,,合同会社,静岡県,伊東市,八幡野１１９７番地の２６,,22,208,4130232,,,,,,,2026-02-05,1,,,,,イズクラシサポート,0
1703,7080403005441,新規,0,2026-02-05,2026-02-05,合同会社静浜建設,,合同会社,静岡県,浜松市中央区,渡瀬町２１３番地の５,,22,138,4350036,,,,,,,2026-02-05,1,,,,,シズハマケンセツ,0
1706,7090005007760,新規,0,2026-02-05,2026-02-05,医療法人恒昌会,,その他の設立登記法人,山梨県,甲府市,里吉３丁目１０番２号,,19,201,4000822,,,,,,,2026-02-05,1,,,,,コウショウカイ,0
1708,7100005013443,新規,0,2026-02-05,2026-02-05,一般社団法人ＯＣＯＳＵ　ＦＩＥＬＤ,,その他の設立登記法人,長野県,飯田市,知久町２丁目１番地,,20,205,3950045,,,,,,,2026-02-05,1,,,,,オコスフィールド,0
1726,7120001283914,新規,0,2026-02-05,2026-02-05,株式会社エムツー,,株式会社,大阪府,大阪市西区,南堀江１丁目１８番４号ＯｓａｋａＭｅｔｒｏ南堀江ビル５階,,27,106,5500015,,,,,,,2026-02-05,1,,,,,エムツー,0
1727,7120001283930,新規,0,2026-02-05,2026-02-05,富森株式会社,,株式会社,大阪府,大阪市天王寺区,大道３丁目４－２４,,27,109,5430052,,,,,,,2026-02-05,1,,,,,トミモリ,0
1734,7120003031825,新規,0,2026-02-05,2026-02-05,ｆｒｅｓｈｌｙ合同会社,,合同会社,大阪府,大阪市淀川区,木川東１丁目７番３３号,,27,123,5320012,,,,,,,2026-02-05,1,,,,,フレッシュリー,0
1735,7120005025387,新規,0,2026-02-05,2026-02-05,社会保険労務士法人トルク,,その他の設立登記法人,大阪府,大阪市中央区,南本町２丁目４番１号スタービルディング３０１号,,27,128,5410054,,,,,,,2026-02-05,1,,,,,トルク,0
1736,7120103006974,新規,0,2026-02-05,2026-02-05,合同会社アディール,,合同会社,大阪府,堺市北区,百舌鳥赤畑町５丁６８０番地２,,27,146,5918037,,,,,,,2026-02-05,1,,,,,アディール,0
1737,7120901052195,新規,0,2026-02-05,2026-02-05,Ｌｕｍｉｅｒｅ株式会社,,株式会社,大阪府,箕面市,粟生間谷東６丁目２１番４号,,27,220,5620022,,,,,,,2026-02-05,1,,,,,ルミエール,0
1740,7122003003449,新規,0,2026-02-05,2026-02-05,合同会社ユイ企画,,合同会社,大阪府,四條畷市,大字下田原１２５２－１,,27,229,5750012,,,,,,,2026-02-05,1,,,,,ユイキカク,0
1742,7130001081540,新規,0,2026-02-05,2026-02-05,株式会社魁力屋分割準備会社,,株式会社,京都府,京都市中京区,烏丸通錦小路上る手洗水町６７０番地,,26,104,6048152,,,,,,,2026-02-05,1,,,,,カイリキヤブンカツジュンビガイシャ,0
1743,7130001081573,新規,0,2026-02-05,2026-02-05,ＪＯＵプランニング株式会社,,株式会社,京都府,京都市中京区,壬生松原町５４－３松下ビル３０５号,,26,104,6048823,,,,,,,2026-02-05,1,,,,,ジョウプランニング,0
1748,7140001141608,新規,0,2026-02-05,2026-02-05,株式会社Ｈｏｐｅはりま,,株式会社,兵庫県,姫路市,安田２丁目５２番地プレステージ姫路ラフィーネ２０３号,,28,201,6700955,,,,,,,2026-02-05,1,,,,,ホープハリマ,0
1749,7140001141665,新規,0,2026-02-05,2026-02-05,コアリンク株式会社,,株式会社,兵庫県,川西市,湯山台１丁目３１－５,,28,217,6660137,,,,,,,2026-02-05,1,,,,,コアリンク,0
1751,7140003023176,新規,0,2026-02-05,2026-02-05,合同会社ＨＡＮＥ,,合同会社,兵庫県,たつの市,龍野町片山２３３－３,,28,229,6794123,,,,,,,2026-02-05,1,,,,,ハネ,0
1754,7150001028713,新規,0,2026-02-05,2026-02-05,株式会社開発考,,株式会社,奈良県,葛城市,兵家１４６９－３,,29,211,6392154,,,,,,,2026-02-05,1,,,,,カイハツコウ,0
1756,7160001027409,新規,0,2026-02-05,2026-02-05,株式会社アーチスト,,株式会社,滋賀県,愛知郡愛荘町,市１７２７番地２,,25,425,5291313,,,,,,,2026-02-05,1,,,,,アーチスト,0
1761,7180001170504,新規,0,2026-02-05,2026-02-05,ＴＡＭＡＮＯホールディングス株式会社,,株式会社,愛知県,名古屋市南区,元塩町４丁目６番地,,23,112,4570823,,,,,,,2026-02-05,1,,,,,タマノホールディングス,0
1762,7180001170529,新規,0,2026-02-05,2026-02-05,株式会社ノア,,株式会社,愛知県,名古屋市中区,栄２丁目１番１２号ダイアパレス伏見３０６号室,,23,106,4600008,,,,,,,2026-02-05,1,,,,,ノア,0
1763,7180001170537,新規,0,2026-02-05,2026-02-05,アンダーフォレスト株式会社,,株式会社,愛知県,常滑市,新田町３丁目１８９番地の４,,23,216,4790855,,,,,,,2026-02-05,1,,,,,アンダーフォレスト,0
1764,7180001170553,新規,0,2026-02-05,2026-02-05,株式会社Ｆｏｒｅｓｔ愛知,,株式会社,愛知県,名古屋市中川区,若山町３丁目２９番地１,,23,110,4540876,,,,,,,2026-02-05,1,,,,,フォレストアイチ,0
1767,7180003029731,新規,0,2026-02-05,2026-02-05,合同会社コンパス,,合同会社,愛知県,尾張旭市,桜ケ丘町２丁目１６８番地,,23,226,4880859,,,,,,,2026-02-05,1,,,,,コンパス,0
1770,7180301040662,新規,0,2026-02-05,2026-02-05,株式会社ＭＺ,,株式会社,愛知県,碧南市,平七町２丁目１１８番地２,,23,209,4470884,,,,,,,2026-02-05,1,,,,,エムゼット,0
1771,7190001032884,新規,0,2026-02-05,2026-02-05,株式会社ＫＹカンパニー,,株式会社,三重県,鈴鹿市,稲生西３丁目７番１号,,24,207,5100204,,,,,,,2026-02-05,1,,,,,ケイワイカンパニー,0
1772,7190003005343,新規,0,2026-02-05,2026-02-05,合同会社棗,,合同会社,三重県,津市,広明町３７１番地ハシモトビル１０１,,24,201,5140006,,,,,,,2026-02-05,1,,,,,ナツメ,0
1777,7200001044696,新規,0,2026-02-05,2026-02-05,株式会社農喜楽,00142474,株式会社,岐阜県,郡上市,高鷲町大鷲２３３１番地１,,21,219,5015303,,,,,,,2026-02-05,1,,,,,ノキラ,0
1778,7200003007222,新規,0,2026-02-05,2026-02-05,スマートシステムズ合同会社,,合同会社,岐阜県,各務原市,大佐野町３丁目１７３番地,,21,213,5040931,,,,,,,2026-02-05,1,,,,,スマートシステムズ,0
1780,7220003004218,新規,0,2026-02-05,2026-02-05,合同会社Ｗ３,,合同会社,石川県,河北郡内灘町,字千鳥台３丁目１９２番地,,17,365,9200277,,,,,,,2026-02-05,1,,,,,ダブルスリー,0
1782,7240001066134,新規,0,2026-02-05,2026-02-05,株式会社今井農林,,株式会社,広島県,東広島市,河内町入野７６６８番地２,,34,212,7392208,,,,,,,2026-02-05,1,,,,,イマイノウリン,0
1783,7240001066142,新規,0,2026-02-05,2026-02-05,株式会社プラスワン,,株式会社,広島県,広島市安佐北区,可部町大字上町屋１７７８番地６,,34,106,7310216,,,,,,,2026-02-05,1,,,,,プラスワン,0
1789,7260001040970,新規,0,2026-02-05,2026-02-05,株式会社エスエイチキャピタル,,株式会社,岡山県,倉敷市,児島下の町５丁目２番２１号,,33,202,7110906,,,,,,,2026-02-05,1,,,,,エスエイチキャピタル,0
1801,7290001112973,新規,0,2026-02-05,2026-02-05,株式会社Ｐａｓｃａｌｉｎｅ,,株式会社,福岡県,飯塚市,幸袋５７６－１４ｅ－ＺＵＫＡトライバレーセンターＡ２０１号室,,40,205,8200066,,,,,,,2026-02-05,1,,,,,パスカリーヌ,0
1802,7290001113047,新規,0,2026-02-05,2026-02-05,株式会社國義,,株式会社,福岡県,糟屋郡篠栗町,庄６丁目７番１５号,,40,342,8112419,,,,,,,2026-02-05,1,,,,,,0
1805,7290801032231,新規,0,2026-02-05,2026-02-05,株式会社萬田技建工業,,株式会社,福岡県,田川郡川崎町,大字田原１９７１番地,,40,605,8270004,,,,,,,2026-02-05,1,,,,,マンダギケンコウギョウ,0
1807,7310001019943,新規,0,2026-02-05,2026-02-05,株式会社Ｊｅｓｓｉｅ　Ｅｎｇｌｉｓｈ,,株式会社,長崎県,大村市,東本町３番地９,,42,205,8560831,,,,,,,2026-02-05,1,,,,,ジェシーイングリッシュ,0
1816,7330001033967,新規,0,2026-02-05,2026-02-05,シンハーツ株式会社,,株式会社,熊本県,熊本市東区,東野１丁目３番３５－３０５号,,43,102,8612106,,,,,,,2026-02-05,1,,,,,シンハーツ,0
1818,7330003011418,新規,0,2026-02-05,2026-02-05,レアサイド合同会社,,合同会社,熊本県,熊本市東区,戸島西３丁目５番１７号,,43,102,8618043,,,,,,,2026-02-05,1,,,,,レアサイド,0
1819,7340003005088,新規,0,2026-02-05,2026-02-05,合同会社神之苑,,合同会社,鹿児島県,指宿市,山川成川１１４８番地,,46,210,8910516,,,,,,,2026-02-05,1,,,,,カミノソノ,0
1820,7350001019931,新規,0,2026-02-05,2026-02-05,都商事株式会社,,株式会社,宮崎県,都城市,大王町５０号９番地,,45,202,8850026,,,,,,,2026-02-05,1,,,,,ミヤコショウジ,0
1824,7360001036315,新規,0,2026-02-05,2026-02-05,株式会社天佑,,株式会社,沖縄県,国頭郡恩納村,字恩納２５２６番地,,47,311,9040411,,,,,,,2026-02-05,1,,,,,テンユウ,0
1826,7360003015597,新規,0,2026-02-05,2026-02-05,合同会社ピッチャーズ,,合同会社,沖縄県,名護市,字田井等５８４番地,,47,209,9051147,,,,,,,2026-02-05,1,,,,,ピッチャーズ,0
1829,7370001053466,新規,0,2026-02-05,2026-02-05,株式会社スリーエス,,株式会社,宮城県,仙台市泉区,南光台１丁目５６番１５－２号,,04,105,9818003,,,,,,,2026-02-05,1,,,,,スリーエス,0
1831,7370005011073,新規,0,2026-02-05,2026-02-05,一般社団法人鳴子温泉観光協会,,その他の設立登記法人,宮城県,大崎市,鳴子温泉字新屋敷７８番地３,,04,215,9896822,,,,,,,2026-02-05,1,,,,,ナルコオンセンカンコウキョウカイ,0
1845,7460103001784,新規,0,2026-02-05,2026-02-05,アイスバーグ合同会社,,合同会社,北海道,帯広市,東十条南１６丁目１‐２４,,01,207,0800810,,,,,,,2026-02-05,1,,,,,アイスバーグ,0
1850,7470003003070,新規,0,2026-02-05,2026-02-05,合同会社彌榮,,合同会社,香川県,丸亀市,飯山町西坂元７８０－１大林１０５,,37,202,7620087,,,,,,,2026-02-05,1,,,,,,0
1867,8010001262597,新規,0,2026-02-05,2026-02-05,株式会社ミエルスカイ,,株式会社,東京都,中央区,月島１丁目５番１－３６０９号,,13,102,1040052,,,,,,,2026-02-05,1,,,,,ミエルスカイ,0
1870,8010003050265,新規,0,2026-02-05,2026-02-05,Ｋｙｌｉｎ百人町合同会社,,合同会社,東京都,中央区,日本橋中洲４番１３－３０７号,,13,102,1030008,,,,,,,2026-02-05,1,,,,,キリンヒャクニンチョウ,0
1871,8010003050273,新規,0,2026-02-05,2026-02-05,合同会社バリュークリエイト,,合同会社,東京都,中央区,日本橋小伝馬町３－１０,,13,102,1030001,,,,,,,2026-02-05,1,,,,,バリュークリエイト,0
1872,8010003050281,新規,0,2026-02-05,2026-02-05,合同会社白岡キャピタル,,合同会社,東京都,千代田区,丸の内１丁目６番５号,,13,101,1000005,,,,,,,2026-02-05,1,,,,,シラオカキャピタル,0
1886,8010501055402,新規,0,2026-02-05,2026-02-05,株式会社ＬＩＡ,,株式会社,東京都,台東区,東上野３丁目２４番９号ＭＩＴＡビル５Ｆ,,13,106,1100015,,,,,,,2026-02-05,1,,,,,リア,0
1893,8010701048998,新規,0,2026-02-05,2026-02-05,株式会社ＲＯＯＴＳ　ＣＡＰＩＴＡＬ,,株式会社,東京都,品川区,西五反田３丁目３－２プラウドタワー目黒ＭＡＲＣ２２０２,,13,109,1410031,,,,,,,2026-02-05,1,,,,,ルーツキャピタル,0
1903,8011001175293,新規,0,2026-02-05,2026-02-05,株式会社Ｃｏｌｌａ,,株式会社,東京都,渋谷区,恵比寿１丁目８－７ＩＴＯビル４階,,13,113,1500013,,,,,,,2026-02-05,1,,,,,コーラ,0
1904,8011001175310,新規,0,2026-02-05,2026-02-05,株式会社Ｈｉｇｈ　Ｐｅｒｆｏｒｍａｎｃｅ　ＯＳ,,株式会社,東京都,渋谷区,恵比寿西２丁目４番８号ウィンド恵比寿ビル８Ｆ,,13,113,1500021,,,,,,,2026-02-05,1,,,,,ハイパフォーマンスオーエス,0
1905,8011101114721,新規,0,2026-02-05,2026-02-05,ＳＥＳＯ株式会社,,株式会社,東京都,新宿区,百人町２丁目１３番１３号Ｊハウス２１９,,13,104,1690073,,,,,,,2026-02-05,1,,,,,セソ,0
1906,8011203004944,新規,0,2026-02-05,2026-02-05,合同会社ＵＮＭ,,合同会社,東京都,中野区,江原町３丁目３９－４ストークＭ３０１,,13,114,1650023,,,,,,,2026-02-05,1,,,,,ユーエヌエム,0
1909,8011301031238,新規,0,2026-02-05,2026-02-05,株式会社ＹＯＳＨＹ,,株式会社,東京都,杉並区,方南１丁目４４番７号,,13,115,1680062,,,,,,,2026-02-05,1,,,,,ヨッシー,0
1911,8011403005016,新規,0,2026-02-05,2026-02-05,合同会社エスペラント,,合同会社,東京都,板橋区,高島平２丁目３２番１－１０４号,,13,119,1750082,,,,,,,2026-02-05,1,,,,,エスペラント,0
1915,8012303002284,新規,0,2026-02-05,2026-02-05,なかま合同会社,,合同会社,東京都,町田市,旭町１丁目１２番１６号２,,13,209,1940023,,,,,,,2026-02-05,1,,,,,ナカマ,0
1916,8012801024516,新規,0,2026-02-05,2026-02-05,株式会社Ｓｅｓｓｉｏｎ,,株式会社,東京都,立川市,柴崎町２丁目２３番５号,,13,202,1900023,,,,,,,2026-02-05,1,,,,,セッション,0
1924,8020001166938,新規,0,2026-02-05,2026-02-05,株式会社ＲＰ,,株式会社,神奈川県,横浜市鶴見区,東寺尾６丁目２９番３４号,,14,101,2300077,,,,,,,2026-02-05,1,,,,,アールピー,0
1925,8020001166970,新規,0,2026-02-05,2026-02-05,株式会社リンクアンドベース,,株式会社,神奈川県,横浜市西区,北幸２丁目１０番４８号むつみビル３階,,14,103,2200004,,,,,,,2026-02-05,1,,,,,リンクアンドベース,0
1929,8020003030225,新規,0,2026-02-05,2026-02-05,合同会社ＬＵＭＩＶＥＩＬ,,合同会社,神奈川県,川崎市中原区,木月伊勢町六丁目１４番ＲＡＹＳＡＩＴＥ１０１,,14,133,2110032,,,,,,,2026-02-05,1,,,,,ルミヴェール,0
1930,8020003030308,新規,0,2026-02-05,2026-02-05,合同会社ＫＭＫＨコーポレーション,,合同会社,神奈川県,横浜市磯子区,磯子３丁目１３番Ｉ－７０４号,,14,107,2350016,,,,,,,2026-02-05,1,,,,,ケーエムケーエイチコーポレーション,0
1931,8021001087439,新規,0,2026-02-05,2026-02-05,株式会社ＡＹＵＭＩ,,株式会社,神奈川県,茅ヶ崎市,東海岸南１丁目１５番３６号－１０３,,14,207,2530054,,,,,,,2026-02-05,1,,,,,アユミ,0
1932,8021001087455,新規,0,2026-02-05,2026-02-05,株式会社小澤商事,,株式会社,神奈川県,平塚市,纒１丁目３５番３０号,,14,203,2540901,,,,,,,2026-02-05,1,,,,,オザワショウジ,0
1933,8021003017121,新規,0,2026-02-05,2026-02-05,合同会社Ｕｌｔｉｍａｔｅ　Ｂｅａｕｔｙ　Ｗｏｒｋｓ,,合同会社,神奈川県,小田原市,栄町２丁目１番２９号ＪＭＳビル３０２,,14,206,2500011,,,,,,,2026-02-05,1,,,,,アルティメットビューティーワークス,0
1942,8030001170781,新規,0,2026-02-05,2026-02-05,株式会社貫英防災,,株式会社,埼玉県,所沢市,大字山口７４９番地の１０,,11,208,3591145,,,,,,,2026-02-05,1,,,,,カンエイボウサイ,0
1943,8030001170848,新規,0,2026-02-05,2026-02-05,株式会社Ｎ‐ｓｔｙｌｅ,,株式会社,埼玉県,三郷市,三郷１丁目１４番地８ココオレンヂ１０２,,11,237,3410024,,,,,,,2026-02-05,1,,,,,エヌスタイル,0
1944,8030001170856,新規,0,2026-02-05,2026-02-05,株式会社しあわせ,,株式会社,埼玉県,さいたま市大宮区,東町１丁目１００番地６,,11,103,3300841,,,,,,,2026-02-05,1,,,,,シアワセ,0
1945,8030001170889,新規,0,2026-02-05,2026-02-05,株式会社Ｔｉｇｅｒ　Ｍａｎａｇｅｍｅｎｔ,,株式会社,埼玉県,さいたま市南区,辻１丁目２６番３号,,11,108,3360026,,,,,,,2026-02-05,1,,,,,タイガーマネジメント,0
1946,8030001170897,新規,0,2026-02-05,2026-02-05,株式会社ファミリーハウジング,,株式会社,埼玉県,川越市,広谷新町３１番地７,,11,201,3500805,,,,,,,2026-02-05,1,,,,,ファミリーハウジング,0
1948,8030003028565,新規,0,2026-02-05,2026-02-05,合同会社くらしと健康支援社,,合同会社,埼玉県,草加市,栄町２丁目５－２３エトワール山崎４０５,,11,221,3400011,,,,,,,2026-02-05,1,,,,,クラシトケンコウシエンシャ,0
1949,8030003028573,新規,0,2026-02-05,2026-02-05,合同会社Ｙ’ｓ,,合同会社,埼玉県,さいたま市大宮区,仲町１丁目１０５－１南銀川鍋ビル４階,,11,103,3300845,,,,,,,2026-02-05,1,,,,,ワイズ,0
1950,8030003028598,新規,0,2026-02-05,2026-02-05,合同会社ｓｏｌｅｉｌ,,合同会社,埼玉県,さいたま市大宮区,仲町１丁目５０番地福田産業ビル２階２０２号,,11,103,3300845,,,,,,,2026-02-05,1,,,,,ソレイユ,0
1960,8050003009885,新規,0,2026-02-05,2026-02-05,合同会社Ｓｔａｒ　Ｋｅｙ,,合同会社,茨城県,つくば市,下広岡１６４―１,,08,220,3050042,,,,,,,2026-02-05,1,,,,,スターキー,0
1962,8060005010411,新規,0,2026-02-05,2026-02-05,一般社団法人家庭生活安全政策推進会,,その他の設立登記法人,栃木県,宇都宮市,西刑部町２４８０番地９,,09,201,3210917,,,,,,,2026-02-05,1,,,,,カテイセイカツアンゼンセイサクスイシンカイ,0
1963,8070001043785,新規,0,2026-02-05,2026-02-05,川場村自然エネルギー株式会社,,株式会社,群馬県,利根郡川場村,大字谷地３２００番地,,10,444,3780101,,,,,,,2026-02-05,1,,,,,カワバムラシゼンエネルギー,0
1965,8080101026061,新規,0,2026-02-05,2026-02-05,株式会社ｍｉｎａｍｉｉｚｕ．ｓｈｉｚｕｏｋａ,,株式会社,静岡県,賀茂郡南伊豆町,下賀茂８３９番地の３,,22,304,4150303,,,,,,,2026-02-05,1,,,,,ミナミイズシズオカ,0
1979,8120001283863,新規,0,2026-02-05,2026-02-05,株式会社Ｆｅｌｉｘ　Ｓｔｕｄｉｏ,,株式会社,大阪府,大阪市西区,北堀江１丁目１番３号四ツ橋日生ビル別館２Ｃ,,27,106,5500014,,,,,,,2026-02-05,1,,,,,フェリックススタジオ,0
1980,8120001283871,新規,0,2026-02-05,2026-02-05,Ｃｈａｍｅｌｅｏｎ　Ｉｎｔｅｒｎａｔｉｏｎａｌ　Ｔｒａｄｉｎｇ株式会社,,株式会社,大阪府,大阪市阿倍野区,阿倍野筋１丁目４－４３あべのハルカス３１Ｆ,,27,119,5450052,,,,,,,2026-02-05,1,,,,,カメレオンインターナショナルトレーディング,0
1981,8120001283888,新規,0,2026-02-05,2026-02-05,ダンドルエイト株式会社,,株式会社,大阪府,大阪市北区,梅田１丁目１番３号大阪駅前第３ビル２９階１－１－１号室,,27,127,5300001,,,,,,,2026-02-05,1,,,,,ダンドルエイト,0
1982,8120001283970,新規,0,2026-02-05,2026-02-05,株式会社おくとぱす,,株式会社,大阪府,大阪市北区,浪花町１２番６号,,27,127,5300022,,,,,,,2026-02-05,1,,,,,オクトパス,0
1983,8120001284003,新規,0,2026-02-05,2026-02-05,株式会社ＡＭＯＮ,,株式会社,大阪府,大阪市平野区,長吉長原３丁目１３‐６,,27,126,5470016,,,,,,,2026-02-05,1,,,,,アモン,0
1987,8120005025394,新規,0,2026-02-05,2026-02-05,一般社団法人日中友好飲食総商会,,その他の設立登記法人,大阪府,大阪市中央区,南船場１丁目３番１４号,,27,128,5420081,,,,,,,2026-02-05,1,,,,,ニッチュウユウコウインショクソウショウカイ,0
1991,8120101073165,新規,0,2026-02-05,2026-02-05,株式会社アーレアルック,,株式会社,大阪府,泉佐野市,上之郷２９５０番地,,27,213,5980024,,,,,,,2026-02-05,1,,,,,アーレアルック,0
1992,8120103006981,新規,0,2026-02-05,2026-02-05,幸徳商事合同会社,00142477,合同会社,大阪府,富田林市,中野町３丁目４－８,,27,214,5840021,,,,,,,2026-02-05,1,,,,,コウトクショウジ,0
1996,8120901052178,新規,0,2026-02-05,2026-02-05,株式会社絆,,株式会社,大阪府,吹田市,垂水町３丁目２８番３６号,,27,205,5640062,,,,,,,2026-02-05,1,,,,,キズナ,0
1997,8120901052186,新規,0,2026-02-05,2026-02-05,株式会社ディーエルホーム,,株式会社,大阪府,豊中市,豊南町南６丁目６番１８－２０１号,,27,203,5610815,,,,,,,2026-02-05,1,,,,,ディーエルホーム,0
2000,8130001081548,新規,0,2026-02-05,2026-02-05,株式会社クリスタ,,株式会社,京都府,京都市北区,小山下総町５３－９コルネリオビル２階,,26,101,6038151,,,,,,,2026-02-05,1,,,,,クリスタ,0
2001,8130001081564,新規,0,2026-02-05,2026-02-05,株式会社乾製茶,,株式会社,京都府,相楽郡南山城村,大字高尾小字上廣見２８番地,00142467,26,367,6191422,,,,,,,2026-02-05,1,,,,,イヌイセイチャ,0
2003,8130005017580,新規,0,2026-02-05,2026-02-05,一般社団法人東洋,,その他の設立登記法人,京都府,京都市伏見区,深草ヲカヤ町３３番地３ネベルデラフ２０１,,26,109,6128403,,,,,,,2026-02-05,1,,,,,トウヨウ,0
2009,8140001141598,新規,0,2026-02-05,2026-02-05,あまじ営農株式会社,,株式会社,兵庫県,神崎郡市川町,甘地３７４番地の２,,28,442,6792323,,,,,,,2026-02-05,1,,,,,アマジエイノウ,0
2014,8150001028704,新規,0,2026-02-05,2026-02-05,株式会社ＭＯＲＩＡＳＯＢＩ,,株式会社,奈良県,大和郡山市,九条町５２４番地３８,,29,203,6391001,,,,,,,2026-02-05,1,,,,,モリアソビ,0
2016,8160001027408,新規,0,2026-02-05,2026-02-05,株式会社喜喜,,株式会社,滋賀県,草津市,大路１丁目４番１２号大丸ソイビル１階,,25,206,5250032,,,,,,,2026-02-05,1,,,,,キキ,0
2018,8160003003720,新規,0,2026-02-05,2026-02-05,合同会社Ｕｎｉｑｕｅ　Ｃｏｌｏｒ,,合同会社,滋賀県,大津市,今堅田１丁目８番１６号,,25,201,5200241,,,,,,,2026-02-05,1,,,,,ユニークカラー,0
2020,8170003002382,新規,0,2026-02-05,2026-02-05,合名会社一位,,合名会社,和歌山県,和歌山市,坂田７５９番地４,,30,201,6410003,,,,,,,2026-02-05,1,,,,,イチイ,0
2026,8180001170536,新規,0,2026-02-05,2026-02-05,株式会社ＭＸＳＤ,,株式会社,愛知県,名古屋市東区,葵１丁目２番６号,,23,102,4610004,,,,,,,2026-02-05,1,,,,,エムエックスエスディー,0
2027,8180001170544,新規,0,2026-02-05,2026-02-05,株式会社アステル不動産,,株式会社,愛知県,名古屋市北区,如意４丁目９６番地,,23,103,4620007,,,,,,,2026-02-05,1,,,,,アステルフドウサン,0
2028,8180001170560,新規,0,2026-02-05,2026-02-05,株式会社ＡＫコーポレーション,,株式会社,愛知県,名古屋市守山区,深沢２丁目１０１番地,,23,113,4630811,,,,,,,2026-02-05,1,,,,,エーケーコーポレーション,0
2029,8180003029706,新規,0,2026-02-05,2026-02-05,パスウェイ合同会社,,合同会社,愛知県,名古屋市中村区,名駅３丁目４番１０号,,23,105,4500002,,,,,,,2026-02-05,1,,,,,パスウェイ,0
2031,8180003029739,新規,0,2026-02-05,2026-02-05,合同会社ＮＥＸＩＡ,,合同会社,愛知県,名古屋市熱田区,白鳥３丁目１番５号メゾン・ド・カナール１０１号,,23,109,4560035,,,,,,,2026-02-05,1,,,,,ネクシア,0
2032,8180005021421,新規,0,2026-02-05,2026-02-05,税理士法人きらり総研,,その他の設立登記法人,愛知県,名古屋市中区,栄２丁目９番３０号栄山吉ビル８階,,23,106,4600008,,,,,,,2026-02-05,1,,,,,キラリソウケン,0
2033,8180301040653,新規,0,2026-02-05,2026-02-05,株式会社ムツミＨＤ,,株式会社,愛知県,豊橋市,若松町字若松９５０番地１,,23,201,4418123,,,,,,,2026-02-05,1,,,,,ムツミホールディングス,0
2040,8200001044695,新規,0,2026-02-05,2026-02-05,株式会社ＺＡＩＲＩＮ,,株式会社,岐阜県,羽島市,竹鼻町丸の内５丁目１３８番地,,21,209,5016244,,,,,,,2026-02-05,1,,,,,ザイリン,0
2063,8290001113005,新規,0,2026-02-05,2026-02-05,株式会社ＩＯＳ,,株式会社,福岡県,福岡市中央区,小笹３丁目１６番３６号,,40,133,8100033,,,,,,,2026-02-05,1,,,,,アイオーエス,0
2066,8290003018004,新規,0,2026-02-05,2026-02-05,ＲＯＹＡＬｊａｐａｎ合同会社,,合同会社,福岡県,福岡市博多区,東那珂３丁目７－１９－３,,40,132,8120892,,,,,,,2026-02-05,1,,,,,ロイヤルジャパン,0
2071,8310001019950,新規,0,2026-02-05,2026-02-05,クロス株式会社,,株式会社,長崎県,佐世保市,大潟町２９０番地１３６,,42,202,8580926,,,,,,,2026-02-05,1,,,,,クロス,0
2079,8330003011417,新規,0,2026-02-05,2026-02-05,合同会社ＵＴＰ,,合同会社,熊本県,熊本市中央区,本荘５丁目４番１５号ハウスとりみゆ３０３,,43,101,8600811,,,,,,,2026-02-05,1,,,,,,0
2080,8330003011425,新規,0,2026-02-05,2026-02-05,合同会社ＩＳインダストリー,,合同会社,熊本県,上益城郡嘉島町,大字上島２６８５番地,,43,442,8613106,,,,,,,2026-02-05,1,,,,,アイエスインダストリー,0
2081,8340003005087,新規,0,2026-02-05,2026-02-05,合同会社Ａｄａｍ,,合同会社,鹿児島県,薩摩川内市,田崎町４３７番地１,,46,215,8950006,,,,,,,2026-02-05,1,,,,,アダム,0
2087,8360001036322,新規,0,2026-02-05,2026-02-05,株式会社ＲｅＶＡＬＵＥ,,株式会社,沖縄県,南城市,大里字古堅９６７番地１,,47,215,9011207,,,,,,,2026-02-05,1,,,,,リバリュー,0
2088,8360001036330,新規,0,2026-02-05,2026-02-05,株式会社砂川電業,,株式会社,沖縄県,宮古島市,平良字下里９９４番地３２,,47,214,9060013,,,,,,,2026-02-05,1,,,,,スナカワデンギョウ,0
2089,8360001036339,新規,0,2026-02-05,2026-02-05,株式会社ＵＭＵＩＲＵ,,株式会社,沖縄県,石垣市,字真栄里４１５番地３６,,47,207,9070002,,,,,,,2026-02-05,1,,,,,ウムイル,0
2090,8360001036347,新規,0,2026-02-05,2026-02-05,株式会社つむぎグロース,,株式会社,沖縄県,浦添市,大平３丁目３番１５号,,47,208,9012113,,,,,,,2026-02-05,1,,,,,ツムギグロース,0
2092,8360003015596,新規,0,2026-02-05,2026-02-05,合同会社リール,,合同会社,沖縄県,浦添市,沢岻１丁目３９番５－３０２号ビューサイドテラス,,47,208,9012112,,,,,,,2026-02-05,1,,,,,リール,0
2094,8370001053449,新規,0,2026-02-05,2026-02-05,株式会社プロントシステム,,株式会社,宮城県,遠田郡涌谷町,涌谷字上谷地六１１８番地４,,04,501,9870121,,,,,,,2026-02-05,1,,,,,プロントシステム,0
2095,8370001053465,新規,0,2026-02-05,2026-02-05,杜音株式会社,,株式会社,宮城県,仙台市太白区,西中田７丁目１１番３７号,,04,104,9811105,,,,,,,2026-02-05,1,,,,,モリオン,0
2098,8390003002492,新規,0,2026-02-05,2026-02-05,合同会社ＴｈｅＭｏｖｅ,,合同会社,山形県,東根市,神町北４丁目１―１１,,06,211,9993762,,,,,,,2026-02-05,1,,,,,,0
2109,8430005015406,新規,0,2026-02-05,2026-02-05,一般社団法人ＮＦＩ,,その他の設立登記法人,北海道,札幌市西区,西野十三条８丁目４番２５号,,01,107,0630043,,,,,,,2026-02-05,1,,,,,エヌエフアイ,0
2111,8460003001090,新規,0,2026-02-05,2026-02-05,合同会社綺希,,合同会社,北海道,釧路郡釧路町,曙４丁目７－１,,01,661,0880616,,,,,,,2026-02-05,1,,,,,キキ,0
2116,8700150134131,新規,0,2026-02-05,2026-02-05,ペルセロアン・テルバタス・アリスタ・エレクトリカ・インドネシア,,外国会社等,,,,,,,,インドネシア共和国イースト・ジャカルタ、ジャラン・ラヤ・カリマラン１９,,,,,,2026-02-05,1,,,,,ペルセロアンテルバタスアリスタエレクトリカインドネシア,0
2126,9010001262571,新規,0,2026-02-05,2026-02-05,日本を明るくする株式会社,,株式会社,東京都,中央区,銀座１丁目６番１３号銀座１０６ビル８Ｆ,,13,102,1040061,,,,,,,2026-02-05,1,,,,,ニホンヲアカルクスル,0
2127,9010001262588,新規,0,2026-02-05,2026-02-05,株式会社マーブルホテルズ,,株式会社,東京都,中央区,銀座３丁目１１番１１号,,13,102,1040061,,,,,,,2026-02-05,1,,,,,マーブルホテルズ,0
2132,9010003050272,新規,0,2026-02-05,2026-02-05,合同会社ＳＲＡファンド０２,,合同会社,東京都,中央区,日本橋１丁目４番１号,,13,102,1030027,,,,,,,2026-02-05,1,,,,,エスアールエーファンドゼロツー,0
2135,9010005041336,新規,0,2026-02-05,2026-02-05,一般社団法人銀河第１４号,,その他の設立登記法人,東京都,中央区,日本橋１丁目４番１号日本橋一丁目ビルディング,,13,102,1030027,,,,,,,2026-02-05,1,,,,,ギンガダイジュウヨンゴウ,0
2144,9010401196238,新規,0,2026-02-05,2026-02-05,湘葉交通株式会社,,株式会社,東京都,港区,虎ノ門３丁目５番１号虎ノ門３７森ビル,,13,103,1050001,,,,,,,2026-02-05,1,,,,,ショウヨウコウツウ,0
2145,9010401196378,新規,0,2026-02-05,2026-02-05,株式会社Ｍ＆Ａプレップホールディングス,,株式会社,東京都,港区,六本木３丁目７番１－１４１９号,,13,103,1060032,,,,,,,2026-02-05,1,,,,,エムアンドエープレップホールディングス,0
2148,9010501055401,新規,0,2026-02-05,2026-02-05,ＷＥＮ株式会社,,株式会社,東京都,台東区,上野６丁目７－１６川久保ビル８１６室,,13,106,1100005,,,,,,,2026-02-05,1,,,,,ウェン,0
2154,9010701048948,新規,0,2026-02-05,2026-02-05,株式会社Ｒｅｖｅｌ,,株式会社,東京都,品川区,西品川１丁目１－１住友不動産大崎ガーデンタワー９階　トンネル東京,,13,109,1410033,,,,,,,2026-02-05,1,,,,,リベル,0
2161,9011001175301,新規,0,2026-02-05,2026-02-05,株式会社ＡＮＹ,,株式会社,東京都,渋谷区,道玄坂１丁目１０番８号渋谷道玄坂東急ビル２Ｆ－Ｃ,,13,113,1500043,,,,,,,2026-02-05,1,,,,,エニー,0
2162,9011001175499,新規,0,2026-02-05,2026-02-05,株式会社東京優駿倶楽部,,株式会社,東京都,渋谷区,元代々木町２４番２号,,13,113,1510062,,,,,,,2026-02-05,1,,,,,トウキョウユウシュンクラブ,0
2164,9011003023482,新規,0,2026-02-05,2026-02-05,Ｓｉｎｇｕｌａｒ　Ｍａｃｈｉｎｅｓ　Ｊａｐａｎ合同会社,,合同会社,東京都,渋谷区,広尾４丁目１番５－１０８号,,13,113,1500012,,,,,,,2026-02-05,1,,,,,シンギュラーマシーンズジャパン,0
2165,9011003023573,新規,0,2026-02-05,2026-02-05,合同会社リベルタ研究所,,合同会社,東京都,渋谷区,神南１丁目１１－４ＦＰＧリンクス神南５階,,13,113,1500041,,,,,,,2026-02-05,1,,,,,リベルタケンキュウジョ,0
2171,9011203004943,新規,0,2026-02-05,2026-02-05,ＰＥＤＩ　ＪＡＰＡＮ合同会社,,合同会社,東京都,中野区,中野４丁目１０番２号中野セントラルパークサウス２階,,13,114,1640001,,,,,,,2026-02-05,1,,,,,ペディジャパン,0
2174,9011403005015,新規,0,2026-02-05,2026-02-05,合同会社エスケイ企画,,合同会社,東京都,板橋区,大山東町６０番６－４０３号,,13,119,1730014,,,,,,,2026-02-05,1,,,,,エスケイキカク,0
2175,9011501033074,新規,0,2026-02-05,2026-02-05,株式会社三和漣創,,株式会社,東京都,北区,豊島４丁目１８番７－１２１４号,,13,117,1140003,,,,,,,2026-02-05,1,,,,,サンワレンソウ,0
2176,9011601029360,新規,0,2026-02-05,2026-02-05,株式会社フェブルウス,,株式会社,東京都,練馬区,北町１丁目５番１９号,,13,120,1790081,,,,,,,2026-02-05,1,,,,,フェブルウス,0
2180,9012303002283,新規,0,2026-02-05,2026-02-05,合同会社ＯＫＴトレーディング,,合同会社,東京都,町田市,中町１丁目４番２号,,13,209,1940021,,,,,,,2026-02-05,1,,,,,オーケーティートレーディング,0
2184,9012803003995,新規,0,2026-02-05,2026-02-05,合同会社Ｔ‐ＦＩＲＳＴ,,合同会社,東京都,昭島市,中神町１１３８番地１２メゾンＫ－３・２０２号,,13,207,1960022,,,,,,,2026-02-05,1,,,,,ティーファースト,0
2188,9013301055711,新規,0,2026-02-05,2026-02-05,株式会社Ｖｏｃａｒｅ,,株式会社,東京都,豊島区,池袋３丁目３番５－１２０１号,,13,116,1710014,,,,,,,2026-02-05,1,,,,,ヴォカーレ,0
2197,9020003030298,新規,0,2026-02-05,2026-02-05,合同会社ＢＡＩＬＬ,,合同会社,神奈川県,川崎市多摩区,登戸３４１５番地ＨＡＲＳ２階,,14,135,2140014,,,,,,,2026-02-05,1,,,,,ベイル,0
2199,9021001087454,新規,0,2026-02-05,2026-02-05,ライトハウス未来経営株式会社,,株式会社,神奈川県,厚木市,水引１丁目１番６号サミット厚木ビル,,14,212,2430004,,,,,,,2026-02-05,1,,,,,ライトハウスミライケイエイ,0
2200,9021001087462,新規,0,2026-02-05,2026-02-05,株式会社ＲＩＳＥＯＮ,,株式会社,神奈川県,茅ヶ崎市,浜竹１丁目４番２５号,,14,207,2530021,,,,,,,2026-02-05,1,,,,,ライズオン,0
2207,9030001170806,新規,0,2026-02-05,2026-02-05,Ｈ＆ｔｃ株式会社,,株式会社,埼玉県,三郷市,戸ケ崎１丁目２７１－１中央コーポ２０２号室,,11,237,3410044,,,,,,,2026-02-05,1,,,,,エイチアンドティシィ,0
2208,9030001170814,新規,0,2026-02-05,2026-02-05,株式会社アイズクラフト,,株式会社,埼玉県,草加市,北谷２丁目６番１８号,,11,221,3400046,,,,,,,2026-02-05,1,,,,,アイズクラフト,0
2209,9030001170847,新規,0,2026-02-05,2026-02-05,興航株式会社,,株式会社,埼玉県,川口市,差間１丁目１７番２２号１階,,11,203,3330816,,,,,,,2026-02-05,1,,,,,キョウコウ,0
2210,9030001170855,新規,0,2026-02-05,2026-02-05,株式会社エンステイ,,株式会社,埼玉県,さいたま市浦和区,仲町３丁目１１番１４号,,11,107,3300062,,,,,,,2026-02-05,1,,,,,エンステイ,0
2211,9030001170863,新規,0,2026-02-05,2026-02-05,Ｌａｎｄ　Ｗｏｒｋｓ株式会社,,株式会社,埼玉県,さいたま市大宮区,櫛引町１丁目３６０番地１ミカーサ２０２,,11,103,3300851,,,,,,,2026-02-05,1,,,,,ランドワークス,0
2212,9030001170871,新規,0,2026-02-05,2026-02-05,株式会社後藤工業,,株式会社,埼玉県,北葛飾郡杉戸町,大字堤根４２１２番地８,,11,464,3450024,,,,,,,2026-02-05,1,,,,,ゴトウコウギョウ,0
2213,9030001170888,新規,0,2026-02-05,2026-02-05,ＵＧＯＫＵ株式会社,,株式会社,埼玉県,さいたま市岩槻区,加倉４丁目２７番１６号,,11,110,3390056,,,,,,,2026-02-05,1,,,,,ウゴク,0
2216,9030003028580,新規,0,2026-02-05,2026-02-05,合同会社ＦＭＰ,,合同会社,埼玉県,越谷市,大字下間久里８４３－６,,11,222,3430045,,,,,,,2026-02-05,1,,,,,エフエムピー,0
2217,9030003028597,新規,0,2026-02-05,2026-02-05,ＴＯＳＨＩ　ＣＬＡＳＳＩＣＡＬ　ＰＲＯＪＥＣＴＳ合同会社,,合同会社,埼玉県,川口市,幸町１丁目１２番２３号３１１,,11,203,3320016,,,,,,,2026-02-05,1,,,,,トシクラシカルプロジェクツ,0
2219,9040001142325,新規,0,2026-02-05,2026-02-05,株式会社八咫烏,,株式会社,千葉県,佐倉市,臼井５９２番地３,,12,212,2850863,,,,,,,2026-02-05,1,,,,,ヤタガラス,0
2223,9050001057935,新規,0,2026-02-05,2026-02-05,株式会社井坂,,株式会社,茨城県,かすみがうら市,加茂４４７７番地,,08,230,3000135,,,,,,,2026-02-05,1,,,,,イサカ,0
2226,9060003005949,新規,0,2026-02-05,2026-02-05,合同会社ケア美,,合同会社,栃木県,宇都宮市,花園町１６番６号２階,,09,201,3200843,,,,,,,2026-02-05,1,,,,,ケアミ,0
2228,9080001027415,新規,0,2026-02-05,2026-02-05,株式会社アイエーイーホールディングス,,株式会社,静岡県,静岡市葵区,御幸町１１番地の３０エクセルワード静岡ビル１３階,,22,101,4200857,,,,,,,2026-02-05,1,,,,,アイエーイーホールディングス,0
2230,9080101026060,新規,0,2026-02-05,2026-02-05,株式会社Ｓｏｎｄｅｒ　Ｐｌｕｓ,,株式会社,静岡県,富士市,江尾１７５番地の２２,,22,210,4170811,,,,,,,2026-02-05,1,,,,,ソンダープラス,0
2235,9090001019725,新規,0,2026-02-05,2026-02-05,株式会社ＣＲＥＡ,,株式会社,山梨県,南アルプス市,十日市場１４７４番地,,19,208,4000336,,,,,,,2026-02-05,1,,,,,クレア,0
2237,9100001039317,新規,0,2026-02-05,2026-02-05,株式会社ＳＵＩＴＥＮ,,株式会社,長野県,飯田市,龍江７４５６番地５,,20,205,3992221,,,,,,,2026-02-05,1,,,,,スイテン,0
2238,9100005013441,新規,0,2026-02-05,2026-02-05,朝日行政書士法人,,その他の設立登記法人,長野県,上伊那郡宮田村,１５７番地,,20,388,3994301,,,,,,,2026-02-05,1,,,,,アサヒ,0
2239,9110001039885,新規,0,2026-02-05,2026-02-05,明和０２株式会社,,株式会社,新潟県,新潟市西蒲区,打越１３５番地１,,15,108,9501348,,,,,,,2026-02-05,1,,,,,メイワゼロニ,0
2240,9110003006066,新規,0,2026-02-05,2026-02-05,コバヤシワークス合同会社,,合同会社,新潟県,見附市,学校町２丁目１３番７５号,,15,211,9540052,,,,,,,2026-02-05,1,,,,,コバヤシワークス,0
2251,9120001283870,新規,0,2026-02-05,2026-02-05,ＪＰＸグループＨＤ株式会社,,株式会社,大阪府,門真市,東田町２１番１１号,,27,223,5710034,,,,,,,2026-02-05,1,,,,,ジェイピィエックスグループホールディングス,0
2252,9120001283895,新規,0,2026-02-05,2026-02-05,ＧＬＡＤ　ＳＯＡＲ株式会社,,株式会社,大阪府,大阪市平野区,長吉長原西２丁目１１番２６号,,27,126,5470015,,,,,,,2026-02-05,1,,,,,グラッドソアー,0
2253,9120001283904,新規,0,2026-02-05,2026-02-05,株式会社ＡＸＩＳ　ＴＩＭＥ,,株式会社,大阪府,大阪市西区,江之子島２丁目１番３７－２７０７号,,27,106,5500006,,,,,,,2026-02-05,1,,,,,アクシスタイム,0
2254,9120001283912,新規,0,2026-02-05,2026-02-05,株式会社ＥＮプラス,,株式会社,大阪府,大阪市北区,梅田１丁目２番２号大阪駅前第２ビル１２－１２,,27,127,5300001,,,,,,,2026-02-05,1,,,,,エンプラス,0
2258,9120101073148,新規,0,2026-02-05,2026-02-05,株式会社アクティヴァライズ,,株式会社,大阪府,松原市,南新町２丁目２番１９号,,27,217,5800023,,,,,,,2026-02-05,1,,,,,アクティヴァライズ,0
2259,9120101073156,新規,0,2026-02-05,2026-02-05,株式会社信都,,株式会社,大阪府,堺市南区,竹城台２丁５番６号,,27,145,5900105,,,,,,,2026-02-05,1,,,,,シント,0
2260,9120103006972,新規,0,2026-02-05,2026-02-05,合同会社ＣＨＯＵＥＴＴＥ,,合同会社,大阪府,泉佐野市,若宮町３番１５号,,27,213,5980055,,,,,,,2026-02-05,1,,,,,シュエット,0
2261,9120903006065,新規,0,2026-02-05,2026-02-05,合同会社片岡技術士事務所,,合同会社,大阪府,箕面市,桜ケ丘１丁目２番４６号,,27,220,5620046,,,,,,,2026-02-05,1,,,,,カタオカギジュツシジムショ,0
2266,9130001081571,新規,0,2026-02-05,2026-02-05,株式会社Ｒｉｐｐｌｅ　ｃｒｅａｔｉｖｅ,,株式会社,京都府,京都市中京区,壬生坊城町５３番地６壬生坊城ビル３－４号,,26,104,6048804,,,,,,,2026-02-05,1,,,,,リップルクリエイティブ,0
2267,9130003011139,新規,0,2026-02-05,2026-02-05,合同会社ＫＡＶＩＳ,,合同会社,京都府,京都市左京区,東丸太町４６－４山光ハウス１Ｆ,,26,103,6068395,,,,,,,2026-02-05,1,,,,,カビス,0
2272,9140001141597,新規,0,2026-02-05,2026-02-05,株式会社ＺｅｒｏＯｎｅＷｏｒｋｓ,,株式会社,兵庫県,尼崎市,南塚口町４丁目１番４６号,,28,202,6610012,,,,,,,2026-02-05,1,,,,,ゼロワンワークス,0
2273,9140001141614,新規,0,2026-02-05,2026-02-05,株式会社エスパ,,株式会社,兵庫県,神戸市中央区,旭通１丁目１番１号サンピア１１２－３,,28,110,6510095,,,,,,,2026-02-05,1,,,,,エスパ,0
2274,9140001141630,新規,0,2026-02-05,2026-02-05,株式会社ｏｎｙｘ,,株式会社,兵庫県,尼崎市,栗山町２丁目８番６－１０３号,,28,202,6610013,,,,,,,2026-02-05,1,,,,,オニキス,0
2275,9140001141639,新規,0,2026-02-05,2026-02-05,株式会社ＡＳＫ,,株式会社,兵庫県,尼崎市,塚口町６丁目５０番地の２,,28,202,6610002,,,,,,,2026-02-05,1,,,,,エーエスケー,0
2288,9180001170502,新規,0,2026-02-05,2026-02-05,＿隆商事株式会社,00142476,株式会社,愛知県,名古屋市守山区,小六町７番１号,,23,113,4630054,,,,,,,2026-02-05,1,,,,,キンロンショウジ,0
2289,9180001170527,新規,0,2026-02-05,2026-02-05,株式会社ＥＤＯ　ＳＯＬＵＴＩＯＮＳ,,株式会社,愛知県,名古屋市中区,丸の内２丁目１４－４エグゼ丸の内１００２,,23,106,4600002,,,,,,,2026-02-05,1,,,,,エドソリューションズ,0
2290,9180001170535,新規,0,2026-02-05,2026-02-05,ＳＥＡＺ株式会社,,株式会社,愛知県,犬山市,大字羽黒新田字灸仕場１０番地２,,23,215,4840888,,,,,,,2026-02-05,1,,,,,シーズ,0
2291,9180001170543,新規,0,2026-02-05,2026-02-05,株式会社かるん愛知,,株式会社,愛知県,名古屋市中村区,名駅３丁目２２番４号,,23,105,4500002,,,,,,,2026-02-05,1,,,,,カルンアイチ,0
2292,9180001170551,新規,0,2026-02-05,2026-02-05,Ｍｓｅｔ株式会社,,株式会社,愛知県,東海市,富木島町山中６７番地の１,,23,222,4760011,,,,,,,2026-02-05,1,,,,,エムセット,0
2297,9180303006882,新規,0,2026-02-05,2026-02-05,合同会社一期一輝,,合同会社,愛知県,岡崎市,法性寺町字荒子５４番地２,,23,202,4440206,,,,,,,2026-02-05,1,,,,,イチゴイッキ,0
2298,9190001032882,新規,0,2026-02-05,2026-02-05,株式会社Ｔｈｒｅｅ,,株式会社,三重県,鈴鹿市,東玉垣町１２８６番地の１,,24,207,5130814,,,,,,,2026-02-05,1,,,,,スリー,0
2302,9200001044694,新規,0,2026-02-05,2026-02-05,ＳＪ　ＮＥＸＴ株式会社,,株式会社,岐阜県,大垣市,東町３丁目２０番地１０,,21,202,5030802,,,,,,,2026-02-05,1,,,,,エスジェイネクスト,0
2304,9210001020488,新規,0,2026-02-05,2026-02-05,株式会社酒乃井,,株式会社,福井県,越前市,妙法寺町４９４番地,,18,209,9150844,,,,,,,2026-02-05,1,,,,,サカノイ,0
2314,9240001066108,新規,0,2026-02-05,2026-02-05,駅家熔接株式会社,,株式会社,広島県,福山市,駅家町大字江良１５２番地,,34,207,7201141,,,,,,,2026-02-05,1,,,,,エキヤヨウセツ,0
2315,9240001066140,新規,0,2026-02-05,2026-02-05,株式会社堅昇建設,,株式会社,広島県,広島市中区,南千田西町４番７－１０２号,,34,101,7300055,,,,,,,2026-02-05,1,,,,,ケンショウケンセツ,0
2317,9250003003891,新規,0,2026-02-05,2026-02-05,合同会社ＵＬＵ,,合同会社,山口県,周南市,川端町１丁目１８番地の２川端ビル２０２号,,35,215,7450012,,,,,,,2026-02-05,1,,,,,ウル,0
2320,9260001040960,新規,0,2026-02-05,2026-02-05,株式会社ＲＹＯＫＥＮ,,株式会社,岡山県,倉敷市,北畝１丁目２２番２３号エテルナＡ棟１０２号室,,33,202,7128032,,,,,,,2026-02-05,1,,,,,リョウケン,0
2321,9260001040969,新規,0,2026-02-05,2026-02-05,株式会社エムオーティー,,株式会社,岡山県,浅口郡里庄町,大字新庄２８６番地１,,33,445,7190302,,,,,,,2026-02-05,1,,,,,エムオーティー,0
2327,9270001009385,新規,0,2026-02-05,2026-02-05,株式会社Ａｐｏｌｌｏ,,株式会社,鳥取県,鳥取市,南吉方１丁目８６アルビオガーデン２０４,,31,201,6800843,,,,,,,2026-02-05,1,,,,,,0
2331,9290001113061,新規,0,2026-02-05,2026-02-05,株式会社Ｘｒｏｓｓ,,株式会社,福岡県,小郡市,小郡２４１３番地の１,,40,216,8380141,,,,,,,2026-02-05,1,,,,,クロス,0
2337,9290003018028,新規,0,2026-02-05,2026-02-05,合同会社Ｂｅａｕａ,,合同会社,福岡県,久留米市,藤山町１２８３,,40,203,8300053,,,,,,,2026-02-05,1,,,,,ビューア,0
2340,9300001014497,新規,0,2026-02-05,2026-02-05,株式会社はるファーム,,株式会社,佐賀県,唐津市,原１０４３番地６サンビレッジＡー２０１号,,41,202,8470031,,,,,,,2026-02-05,1,,,,,ハルファーム,0
2341,9330001033965,新規,0,2026-02-05,2026-02-05,株式会社ガレージＦＩＶＥ,,株式会社,熊本県,阿蘇郡南阿蘇村,大字立野１１９４番地,,43,433,8691401,,,,,,,2026-02-05,1,,,,,ガレージファイブ,0
2342,9330003011416,新規,0,2026-02-05,2026-02-05,合同会社テラス,,合同会社,熊本県,熊本市中央区,水前寺１丁目１１番１－１４０５号,,43,101,8620950,,,,,,,2026-02-05,1,,,,,テラス,0
2343,9330003011424,新規,0,2026-02-05,2026-02-05,合同会社令和システム,,合同会社,熊本県,熊本市南区,城南町東阿高１３２５番地２１,,43,104,8614225,,,,,,,2026-02-05,1,,,,,レイワシステム,0
2346,9340001027958,新規,0,2026-02-05,2026-02-05,株式会社Ｎｅｘｕｓ　Ｌｏｇｉｓｔｉｃｓ,,株式会社,鹿児島県,奄美市,名瀬浦上８００番地５,,46,222,8940000,,,,,,,2026-02-05,1,,,,,ネクサスロジスティックス,0
2354,9360003015595,新規,0,2026-02-05,2026-02-05,合同会社琉義,,合同会社,沖縄県,中頭郡北谷町,北前１丁目１７－８－２０２号,,47,326,9040117,,,,,,,2026-02-05,1,,,,,リュウギ,0
2355,9360003015604,新規,0,2026-02-05,2026-02-05,合同会社ＡＲＡＫＡＫＩ,,合同会社,沖縄県,中頭郡中城村,字久場３番地２６,,47,328,9012401,,,,,,,2026-02-05,1,,,,,アラカキ,0
2356,9370001053464,新規,0,2026-02-05,2026-02-05,株式会社信拓不動産,,株式会社,宮城県,多賀城市,山王字千刈田６番地の３,,04,209,9850852,,,,,,,2026-02-05,1,,,,,シンタクフドウサン,0
2358,9370005011071,新規,0,2026-02-05,2026-02-05,一般社団法人住環境生活向上協会,,その他の設立登記法人,宮城県,仙台市青葉区,中央２丁目１１－１９仙南ビル４階－Ａ,,04,101,9800021,,,,,,,2026-02-05,1,,,,,ジュウカンキョウセイカツコウジョウキョウカイ,0
2359,9380003006246,新規,0,2026-02-05,2026-02-05,合同会社ＩＫＥＧＡＭＥ,,合同会社,福島県,伊達郡川俣町,字仲ノ内３－１０,,07,308,9601412,,,,,,,2026-02-05,1,,,,,イケガメ,0
2362,9400001017309,新規,0,2026-02-05,2026-02-05,株式会社ブルーム・ウェルネス,,株式会社,岩手県,盛岡市,中央通２丁目２番５号甲南アセット盛岡ビル９０１,,03,201,0200021,,,,,,,2026-02-05,1,,,,,ブルームウェルネス,0
2370,9430001096176,新規,0,2026-02-05,2026-02-05,伊藤組ホールディングス株式会社,,株式会社,北海道,札幌市中央区,北四条西４丁目１番地,,01,101,0600004,,,,,,,2026-02-05,1,,,,,イトウグミホールディングス,0
2371,9430001096192,新規,0,2026-02-05,2026-02-05,株式会社成者,,株式会社,北海道,空知郡南幌町,南２１線西２２番地,,01,423,0690221,,,,,,,2026-02-05,1,,,,,ナリモノ,0
2374,9460001006066,新規,0,2026-02-05,2026-02-05,株式会社Ｌｉｖｅ,,株式会社,北海道,釧路市,豊川町１４番８号,,01,206,0850053,,,,,,,2026-02-05,1,,,,,ライヴ,0
2378,9480005007125,新規,0,2026-02-05,2026-02-05,一般社団法人スマイル家族応援団,,その他の設立登記法人,徳島県,徳島市,国府町日開８１５番地の２３,,36,201,7793117,,,,,,,2026-02-05,1,,,,,,0
2381,9700150134304,新規,0,2026-02-05,2026-02-05,サカタインクス健康保険組合,,その他,大阪府,大阪市中央区,淡路町４丁目２番１３号　アーバンネット御堂筋ビル,,27,128,5410047,,,,,,,2026-02-05,1,,,,,サカタインクスケンコウホケンクミアイ,0
