sequenceNumber,corporateNumber,process,correct,updateDate,changeDate,name,nameImageId,kind,prefectureName,cityName,streetNumber,addressImageId,prefectureCode,cityCode,postCode,addressOutside,addressOutsideImageId,closeDate,closeCause,successorCorporateNumber,changeCause,assignmentDate,latest,enName,enPrefectureName,enCityName,enAddressOutside,furigana,hihyoji
27,1010601055762,登記記録の閉鎖等,0,2023-06-14,2023-06-09,Ａｔｌａｔｅｃ　Ｊａｐａｎ株式会社,,株式会社,東京都,江東区,有明１丁目４番１１号,,13,108,1350063,,,2023-06-09,清算の結了等,,,2019-07-04,1,,,,,アトラテックジャパン,0
51,1011101098483,登記記録の閉鎖等,0,2023-06-14,2023-06-09,株式会社ミツエーフュージョンプロセス,,株式会社,東京都,新宿区,西新宿８丁目１７番１号,,13,104,1600023,,,2023-06-09,清算の結了等,,,2022-04-08,1,,,,,ミツエーフュージョンプロセス,0
61,1011701025390,登記記録の閉鎖等,0,2023-06-14,2023-06-12,美勝不動産株式会社,,株式会社,東京都,江戸川区,東葛西２丁目３２番９号,,13,123,1340084,,,2023-06-12,清算の結了等,,,2022-06-24,1,,,,,ミカツフドウサン,0
64,1011802002446,登記記録の閉鎖等,0,2023-06-14,2023-06-12,有限会社至善,,有限会社,東京都,台東区,花川戸２丁目１６番１１号,,13,106,1110033,,,2023-06-12,清算の結了等,,,2015-10-05,1,,,,,シゼン,0
67,1011802015919,登記記録の閉鎖等,0,2023-06-14,2023-06-12,有限会社ティーアンドティーデプラ,,有限会社,東京都,足立区,千住５丁目１３番１号,,13,121,1200034,,,2023-06-12,清算の結了等,,,2015-10-05,1,,,,,ティーアンドティーデプラ,0
81,1020001055767,登記記録の閉鎖等,0,2023-06-14,2023-06-07,Ａ＆Ｉスピリット株式会社,,株式会社,神奈川県,横浜市青葉区,すみよし台９番地２３,,14,117,2270035,,,2023-06-07,清算の結了等,,,2015-10-05,1,,,,,エーアンドアイスピリット,0
108,1040002009522,登記記録の閉鎖等,0,2023-06-14,2023-06-01,有限会社ビー,,有限会社,千葉県,千葉市緑区,古市場町４７４番地３８,,12,105,2660026,,,2023-06-01,合併による解散等,1040001006297,令和５年６月１日千葉市緑区古市場町４７４番地５１ビー・シイ商事株式会社（1040001006297）に合併し解散,2015-10-05,1,,,,,ビー,0
116,1050002039378,登記記録の閉鎖等,0,2023-06-14,2023-06-07,有限会社日新制御技術研究所,,有限会社,茨城県,つくばみらい市,小絹１２７４番地の１５,,08,235,3002445,,,2023-06-07,清算の結了等,,,2015-10-05,1,,,,,,0
124,1060002026912,登記記録の閉鎖等,0,2023-06-14,2023-06-02,有限会社おおがね肥料,,有限会社,栃木県,矢板市,上町７番２４号,,09,211,3292123,,,2023-06-02,清算の結了等,,,2015-10-05,1,,,,,オオガネヒリョウ,0
128,1080002006037,登記記録の閉鎖等,0,2023-06-14,2023-06-12,有限会社山一村松,,有限会社,静岡県,静岡市葵区,若松町２６番地,,22,101,4200006,,,2023-06-12,清算の結了等,,,2015-10-05,1,,,,,ヤマイチムラマツ,0
131,1080101010088,登記記録の閉鎖等,0,2023-06-14,2023-06-09,静岡産経総業株式会社,,株式会社,静岡県,富士宮市,小泉１９１４番地の８,,22,207,4180022,,,2023-06-09,清算の結了等,,,2015-10-05,1,,,,,シズオカサンケイソウギョウ,0
135,1080102004403,登記記録の閉鎖等,0,2023-06-14,2023-06-09,有限会社坪井プレス製作所,,有限会社,静岡県,裾野市,御宿６０９番地,,22,220,4101107,,,2023-06-09,清算の結了等,,,2015-10-05,1,,,,,ツボイプレスセイサクショ,0
142,1100002018343,登記記録の閉鎖等,0,2023-06-14,2023-06-07,有限会社山岸酒店,,有限会社,長野県,中野市,大字吉田１１８６番地２,,20,211,3830015,,,2023-06-07,清算の結了等,,,2015-10-05,1,,,,,ヤマギシサケテン,0
143,1110001003089,登記記録の閉鎖等,0,2023-06-14,2023-06-07,株式会社ダイレクトジャパン,,株式会社,新潟県,新潟市中央区,山二ツ３丁目１３番１６号,,15,103,9500922,,,2023-06-07,清算の結了等,,,2015-10-05,1,,,,,ダイレクトジャパン,0
151,1120001064394,登記記録の閉鎖等,0,2023-06-14,2023-06-12,株式会社サンテックシステム,,株式会社,大阪府,大阪市北区,中津３丁目２３番１８号,,27,127,5310071,,,2023-06-12,清算の結了等,,,2015-10-05,1,,,,,,0
177,1140001006394,登記記録の閉鎖等,0,2023-06-14,2023-06-07,株式会社エイワ,,株式会社,兵庫県,神戸市中央区,元町通５丁目７番２０号,,28,110,6500022,,,2023-06-07,清算の結了等,,,2015-10-05,1,,,,,エイワ,0
192,1180001002902,登記記録の閉鎖等,0,2023-06-14,2023-06-08,ヘリオス株式会社,,株式会社,三重県,鳥羽市,安楽島町１０４５番地１８フジタ鳥羽マンション１０８,,24,211,5170021,,,2023-06-08,清算の結了等,,,2015-10-05,1,,,,,ヘリオス,0
199,1180002080732,登記記録の閉鎖等,0,2023-06-14,2023-06-08,祖父江繊維有限会社,,有限会社,愛知県,稲沢市,祖父江町山崎野口６８番地の２,,23,220,4950002,,,2023-06-08,清算の結了等,,,2015-10-05,1,,,,,ソブエセンイ,0
206,1180301004747,登記記録の閉鎖等,0,2023-06-14,2023-06-06,株式会社西建,,株式会社,愛知県,岡崎市,中之郷町字元山甲１番地２,,23,202,4440242,,,2023-06-06,清算の結了等,,,2015-10-05,1,,,,,ニシケン,0
211,1190002009912,登記記録の閉鎖等,0,2023-06-14,2023-06-07,有限会社紅葉館,,有限会社,三重県,伊勢市,二見町山田原１５５番地５,,24,203,5190604,,,2023-06-07,清算の結了等,,,2015-10-05,1,,,,,コウヨウカン,0
214,1200001036988,登記記録の閉鎖等,0,2023-06-14,2023-06-12,ａｓ　ｃｏｎｎｅｃｔｉｏｎ株式会社,,株式会社,岐阜県,岐阜市,鏡島中１丁目２番３号,,21,201,5010124,,,2023-06-12,清算の結了等,,,2019-12-24,1,,,,,,0
224,1240001034823,登記記録の閉鎖等,0,2023-06-14,2023-06-07,将仲エンジニアリング株式会社,,株式会社,広島県,福山市,沼隈町大字草深１９２４番地の３,,34,207,7200311,,,2023-06-07,清算の結了等,,,2015-10-05,1,,,,,ショウチュウエンジニアリング,0
237,1280003000638,登記記録の閉鎖等,0,2023-06-14,2023-06-06,合同会社ＬＩＧＨＴＯＳ,,合同会社,島根県,大田市,静間町３６番地１,,32,205,6940031,,,2023-06-06,清算の結了等,,,2015-10-05,1,,,,,ライトス,0
244,1290802023227,登記記録の閉鎖等,0,2023-06-14,2023-06-12,有限会社イマイシ,,有限会社,福岡県,築上郡築上町,大字椎田１６２６番地の４,,40,647,8290301,,,2023-06-12,清算の結了等,,,2015-10-05,1,,,,,イマイシ,0
249,1320002016556,登記記録の閉鎖等,0,2023-06-14,2023-06-09,有限会社共立工業,,有限会社,大分県,佐伯市,大字護江９１２番地３,,44,205,8761103,,,2023-06-09,清算の結了等,,,2015-10-05,1,,,,,キョウリツコウギョウ,0
251,1330002024293,登記記録の閉鎖等,0,2023-06-14,2023-06-07,有限会社太田商店,,有限会社,熊本県,宇土市,松山町１８５０番地,,43,211,8690416,,,2023-06-07,清算の結了等,,,2015-10-05,1,,,,,オオタショウテン,0
271,1420001016316,登記記録の閉鎖等,0,2023-06-14,2023-06-01,エイトドア株式会社,,株式会社,青森県,八戸市,大字八幡字林崎３番地１,,02,203,0391105,,,2023-06-01,合併による解散等,6420002008860,令和５年６月１日青森県八戸市大字八幡字林崎３番地の１株式会社マルミヤマミチ（6420002008860）に合併し解散,2018-08-31,1,,,,,エイトドア,0
281,1470001011205,登記記録の閉鎖等,0,2023-06-14,2023-06-05,ワイエム志度株式会社,,株式会社,香川県,さぬき市,志度１２９８番地７,,37,206,7692101,,,2023-06-05,清算の結了等,,,2015-10-05,1,,,,,ワイエムシド,0
322,2010602009601,登記記録の閉鎖等,0,2023-06-14,2023-06-08,有限会社エンドウ,,有限会社,東京都,墨田区,錦糸３丁目５番４号,,13,107,1300013,,,2023-06-08,清算の結了等,,,2015-10-05,1,,,,,エンドウ,0
327,2010701023800,登記記録の閉鎖等,0,2023-06-14,2023-06-08,株式会社ＦＵＪＩファーム,,株式会社,東京都,大田区,西蒲田７丁目２３番７号シャトー白亜３０１,,13,111,1440051,,,2023-06-08,清算の結了等,,,2015-10-05,1,,,,,フジファーム,0
337,2011001055162,登記記録の閉鎖等,0,2023-06-14,2023-06-05,株式会社トピックサービス,,株式会社,東京都,渋谷区,南平台町１３番４号,,13,113,1500036,,,2023-06-05,合併による解散等,8011001057104,令和５年６月１日東京都渋谷区南平台町１３番４号株式会社トピックホールディングス（8011001057104）に合併し解散,2015-10-05,1,,,,,トピックサービス,0
339,2011001129825,登記記録の閉鎖等,0,2023-06-14,2023-05-16,株式会社Ｎａｄｉｅ,,株式会社,東京都,渋谷区,神宮前６丁目１８番３号神宮前Ｓビル７Ｆ,,13,113,1500001,,,2023-05-16,清算の結了等,,,2019-09-09,1,,,,,ナディエ,0
369,2011502011969,登記記録の閉鎖等,0,2023-06-14,2023-06-08,有限会社渡辺商会,,有限会社,東京都,荒川区,荒川２丁目１５番４号,,13,118,1160002,,,2023-06-08,清算の結了等,,,2015-10-05,1,,,,,ワタナベショウカイ,0
370,2011502016010,登記記録の閉鎖等,0,2023-06-14,2023-06-09,有限会社アオキ,,有限会社,東京都,荒川区,南千住８丁目９番１－１４０２号,,13,118,1160003,,,2023-06-09,清算の結了等,,,2015-10-05,1,,,,,アオキ,0
437,2050001005454,登記記録の閉鎖等,0,2023-06-14,2023-06-07,株式会社パルアンドライフ,,株式会社,茨城県,水戸市,平須町１８１４番地２０４,,08,201,3100853,,,2023-06-07,清算の結了等,,,2015-10-05,1,,,,,パルアンドライフ,0
440,2050002045268,登記記録の閉鎖等,0,2023-06-14,2023-06-06,有限会社コーラスケイト,,有限会社,茨城県,つくば市,赤塚６０２番地６３,,08,220,3050062,,,2023-06-06,清算の結了等,,,2015-10-05,1,,,,,コーラスケイト,0
444,2070001008918,登記記録の閉鎖等,0,2023-06-14,2023-06-12,株式会社アリマコーポレーション,,株式会社,群馬県,高崎市,高砂町９番地,,10,202,3700047,,,2023-06-12,清算の結了等,,,2023-02-13,1,,,,,アリマコーポレーション,0
458,2120001115337,登記記録の閉鎖等,0,2023-06-14,2023-06-12,株式会社ライト・アップ,,株式会社,大阪府,大阪市中央区,島之内１丁目８番８号,,27,128,5420082,,,2023-06-12,清算の結了等,,,2015-10-05,1,,,,,ライトアップ,0
460,2120001168698,登記記録の閉鎖等,0,2023-06-14,2023-06-05,ＬＥＯＮ株式会社,,株式会社,兵庫県,神戸市中央区,伊藤町１０６番地,,28,110,6500032,,,2023-06-05,清算の結了等,,,2015-10-05,1,,,,,レオン,0
481,2140001022523,登記記録の閉鎖等,0,2023-06-14,2023-06-08,株式会社小島建設,,株式会社,兵庫県,神戸市東灘区,魚崎北町６丁目１０番１４号,,28,101,6580082,,,2023-06-08,清算の結了等,,,2015-10-05,1,,,,,コジマケンセツ,0
482,2140001034329,登記記録の閉鎖等,0,2023-06-14,2023-06-08,株式会社ＣＯＳＨ,,株式会社,兵庫県,神戸市中央区,三宮町１丁目１０番１号さんちか２番街,,28,110,6500021,,,2023-06-08,清算の結了等,,,2015-10-05,1,,,,,コシュ,0
488,2140002000668,登記記録の閉鎖等,0,2023-06-14,2023-06-07,パン・インターナショナル有限会社,,有限会社,兵庫県,芦屋市,春日町２４番８－２０１号,,28,206,6590021,,,2023-06-07,清算の結了等,,,2015-10-05,1,,,,,パンインターナショナル,0
490,2140002065471,登記記録の閉鎖等,0,2023-06-14,2023-06-07,有限会社ファーストステップ,,有限会社,兵庫県,伊丹市,西台３丁目２番２５－２０２号,,28,207,6640858,,,2023-06-07,清算の結了等,,,2015-10-05,1,,,,,ファーストステップ,0
491,2140003013132,登記記録の閉鎖等,0,2023-06-14,2023-06-06,合同会社ＦＯＲ　ＮＥＴ,,合同会社,兵庫県,朝来市,田路４９６番地,,28,225,6793442,,,2023-06-06,清算の結了等,,,2018-07-05,1,,,,,フォーネット,0
503,2180002030422,登記記録の閉鎖等,0,2023-06-14,2023-06-06,有限会社河合材木店,,有限会社,愛知県,名古屋市中区,松原３丁目２番１６号,,23,106,4600017,,,2023-06-06,清算の結了等,,,2015-10-05,1,,,,,カワイザイモクテン,0
519,2240002050876,登記記録の閉鎖等,0,2023-06-14,2023-06-12,有限会社たけうち商店,,有限会社,広島県,尾道市,新高山３丁目１１７０番地の２２３,,34,205,7220055,,,2023-06-12,清算の結了等,,,2015-10-05,1,,,,,タケウチショウテン,0
521,2260001036263,登記記録の閉鎖等,0,2023-06-14,2023-06-08,株式会社みをつくす,,株式会社,岡山県,苫田郡鏡野町,瀬戸３１６番地１０,,33,606,7080325,,,2023-06-08,清算の結了等,,,2021-12-03,1,,,,,ミヲツクス,0
523,2260002012940,登記記録の閉鎖等,0,2023-06-14,2023-06-09,有限会社磯島,,有限会社,岡山県,岡山市北区,楢津２５４１番地,,33,101,7011202,,,2023-06-09,清算の結了等,,,2015-10-05,1,,,,,イソシマ,0
526,2290001082461,登記記録の閉鎖等,0,2023-06-14,2023-06-09,株式会社ＨＯＵＳＥ－ＲＥＦＯＲＭ,,株式会社,福岡県,福岡市南区,桧原４丁目１９番４号,,40,134,8111355,,,2023-06-09,清算の結了等,,,2018-08-15,1,,,,,ハウスリフォーム,0
527,2290002005306,登記記録の閉鎖等,0,2023-06-14,2023-06-08,有限会社タバサ,,有限会社,福岡県,福岡市南区,長住５丁目１４番９号,,40,134,8111362,,,2023-06-08,清算の結了等,,,2015-10-05,1,,,,,,0
566,2460001004431,登記記録の閉鎖等,0,2023-06-14,2023-06-12,株式会社蔵,,株式会社,北海道,釧路市,文苑３丁目１３番７号,,01,206,0850063,,,2023-06-12,清算の結了等,,,2015-10-05,1,,,,,,0
604,3010603008262,登記記録の閉鎖等,0,2023-06-14,2023-06-09,リッチメイク合同会社,,合同会社,東京都,江東区,有明１丁目４番２０－８１８号,,13,108,1350063,,,2023-06-09,清算の結了等,,,2020-03-19,1,,,,,リッチメイク,0
612,3011001111617,登記記録の閉鎖等,0,2023-06-14,2023-06-01,株式会社３２ｂｕｉｌｄｉｎｇ,,株式会社,東京都,港区,赤坂２丁目８番２号,,13,103,1070052,,,2023-06-01,清算の結了等,,,2016-07-04,1,,,,,ミツビルディング,0
613,3011001128388,登記記録の閉鎖等,0,2023-06-14,2023-06-07,株式会社ＳＣＬＡＭ,,株式会社,東京都,渋谷区,宇田川町３６番２号,,13,113,1500042,,,2023-06-07,清算の結了等,,,2019-06-07,1,,,,,,0
615,3011001133297,登記記録の閉鎖等,0,2023-06-14,2023-06-06,株式会社カインドメディア,,株式会社,東京都,渋谷区,宇田川町４２－１２,,13,113,1500042,,,2023-06-06,清算の結了等,,,2020-04-22,1,,,,,カインドメディア,0
623,3011101044700,登記記録の閉鎖等,0,2023-06-14,2023-06-12,株式会社ボブ,,株式会社,東京都,新宿区,市谷田町３丁目６番地,,13,104,1620843,,,2023-06-12,清算の結了等,,,2015-10-05,1,,,,,ボブ,0
634,3011701002446,登記記録の閉鎖等,0,2023-06-14,2023-06-12,協友電気株式会社,,株式会社,東京都,江戸川区,中央１丁目１５番１７号,,13,123,1320021,,,2023-06-12,清算の結了等,,,2015-10-05,1,,,,,キョウユウデンキ,0
636,3011801024134,登記記録の閉鎖等,0,2023-06-14,2023-06-09,エイワビジネス株式会社,,株式会社,東京都,足立区,中川４丁目２４－１５,,13,121,1200002,,,2023-06-09,清算の結了等,,,2015-10-05,1,,,,,エイワビジネス,0
646,3013301009474,登記記録の閉鎖等,0,2023-06-14,2023-06-06,株式会社日興通商,,株式会社,東京都,豊島区,南大塚３丁目４番３号,,13,116,1700005,,,2023-06-06,清算の結了等,,,2015-10-05,1,,,,,ニッコウツウショウ,0
656,3020001144386,登記記録の閉鎖等,0,2023-06-14,2023-06-09,ＣＯＵＲＡＧＥ　ＬＩＦＥ株式会社,,株式会社,神奈川県,横浜市青葉区,千草台１２番地２８,,14,117,2270051,,,2023-06-09,清算の結了等,,,2021-12-20,1,,,,,カレッジライフ,0
659,3020002010216,登記記録の閉鎖等,0,2023-06-14,2023-06-07,有限会社堤商会,,有限会社,神奈川県,横浜市磯子区,岡村１丁目２９番５号,,14,107,2350021,,,2023-06-07,清算の結了等,,,2015-10-05,1,,,,,,0
673,3030002065597,登記記録の閉鎖等,0,2023-06-14,2023-05-31,ケージェーシー企画有限会社,,有限会社,埼玉県,朝霞市,根岸台１丁目１０番３０－２０８号,,11,227,3510005,,,2023-05-31,清算の結了等,,,2015-10-05,1,,,,,ケージェーシーキカク,0
692,3050003004354,登記記録の閉鎖等,0,2023-06-14,2023-06-07,ＴＥＲＡＭ合同会社,,合同会社,茨城県,下妻市,下木戸４２９番地７,,08,210,3040028,,,2023-06-07,清算の結了等,,,2018-09-18,1,,,,,テラム,0
701,3070002023808,登記記録の閉鎖等,0,2023-06-14,2023-06-08,須昭染色有限会社,,有限会社,群馬県,桐生市,境野町７丁目１１６番地１,,10,203,3760002,,,2023-06-08,清算の結了等,,,2015-10-05,1,,,,,スショウセンショク,0
713,3120001073088,登記記録の閉鎖等,0,2023-06-14,2023-06-12,アイオイ商事株式会社,,株式会社,大阪府,大阪市城東区,今福西６丁目９番６号,,27,118,5360004,,,2023-06-12,清算の結了等,,,2015-10-05,1,,,,,アイオイショウジ,0
734,3120101066421,登記記録の閉鎖等,0,2023-06-14,2023-06-09,株式会社関西喜久家,,株式会社,愛知県,名古屋市中村区,名駅４丁目６番２３号,,23,105,4500002,,,2023-06-09,合併による解散等,1200001001546,令和５年６月１日岐阜市神田町九丁目１６番地株式会社喜久家（1200001001546）に合併し解散,2022-10-25,1,,,,,カンサイキクヤ,0
736,3120102000676,登記記録の閉鎖等,0,2023-06-14,2023-06-09,有限会社エスエスティーマネジメント,,有限会社,大阪府,堺市堺区,南田出井町４丁４番２７号,,27,141,5900015,,,2023-06-09,清算の結了等,,,2015-10-05,1,,,,,エスエスティーマネジメント,0
745,3122001029805,登記記録の閉鎖等,0,2023-06-14,2023-06-08,株式会社ワンダー,,株式会社,大阪府,大阪市西区,江戸堀１丁目６－１７－１００２,,27,106,5500002,,,2023-06-08,清算の結了等,,,2016-07-27,1,,,,,ワンダー,0
754,3140001116555,登記記録の閉鎖等,0,2023-06-14,2023-06-08,ＢＡＮＧ　ＦＡＭＩＬＹ株式会社,,株式会社,兵庫県,神戸市中央区,熊内町７丁目６番１－２９０１号,,28,110,6510056,,,2023-06-08,清算の結了等,,,2020-02-18,1,,,,,バンファミリー,0
770,3180001142531,登記記録の閉鎖等,0,2023-06-14,2023-06-12,株式会社スリーツーセブン,,株式会社,愛知県,名古屋市千種区,法王町２丁目３番地,,23,101,4640057,,,2023-06-12,清算の結了等,,,2020-08-26,1,,,,,スリーツーセブン,0
798,3230002002233,登記記録の閉鎖等,0,2023-06-14,2023-06-12,有限会社ティ・データ,,有限会社,富山県,富山市,水落５番地５,,16,201,9318301,,,2023-06-12,清算の結了等,,,2015-10-05,1,,,,,ティデータ,0
811,3290001035187,登記記録の閉鎖等,0,2023-06-14,2023-06-09,サンボーマテリアル株式会社,,株式会社,福岡県,福岡市博多区,金の隈３丁目５番１１－５０３号,,40,132,8120863,,,2023-06-09,清算の結了等,,,2015-10-05,1,,,,,サンボーマテリアル,0
819,3290801003608,登記記録の閉鎖等,0,2023-06-14,2023-06-12,宮脇工業株式会社,,株式会社,福岡県,北九州市小倉北区,上富野５丁目１２番１３号,,40,106,8020022,,,2023-06-12,清算の結了等,,,2015-10-05,1,,,,,ミヤワキコウギョウ,0
830,3330003007865,登記記録の閉鎖等,0,2023-06-14,2023-05-29,合同会社ＯＡＫ　ＶＩＬＬＡ　ＰＲＯＰＥＲＴＩＥＳ,,合同会社,福岡県,福岡市中央区,白金１丁目２１番１３号３階,,40,133,8100012,,,2023-05-29,合併による解散等,8290001071987,令和５年５月２９日福岡市中央区白金一丁目２１番１３号３階株式会社カシムラホールディングス（8290001071987）に合併し解散,2019-04-03,1,,,,,オークヴィラプロパティーズ,0
833,3340002002718,登記記録の閉鎖等,0,2023-06-14,2023-06-12,有限会社かわの製粉,,有限会社,鹿児島県,鹿児島市,小松原１丁目２９番１４号,,46,201,8910114,,,2023-06-12,清算の結了等,,,2015-10-05,1,,,,,カワノセイフン,0
858,3700150115540,削除,,2023-06-14,,,,,,,,,,,,,,,,,,,,,,,,,
875,4010005023173,登記記録の閉鎖等,0,2023-06-14,2023-06-12,一般社団法人岩国ソーラーホールディングス,,その他の設立登記法人,東京都,千代田区,丸の内３丁目１番１号東京共同会計事務所内,,13,101,1000005,,,2023-06-12,清算の結了等,,,2015-10-05,1,,,,,イワクニソーラーホールディングス,0
887,4010401170676,登記記録の閉鎖等,0,2023-06-14,2023-06-01,株式会社Ｅｄｉｔｅｃｈ,,株式会社,東京都,港区,芝１丁目９番２－４０２号,,13,103,1050014,,,2023-06-01,清算の結了等,,,2022-11-07,1,,,,,エディテック,0
899,4011001090331,登記記録の閉鎖等,0,2023-06-14,2023-06-01,株式会社パイドン,,株式会社,東京都,渋谷区,広尾４丁目１番１７号,,13,113,1500012,,,2023-06-01,合併による解散等,9011001092983,令和５年６月１日東京都渋谷区広尾四丁目１番１７号クロノス株式会社（9011001092983）に合併し解散,2015-10-05,1,,,,,パイドン,0
907,4011101051010,登記記録の閉鎖等,0,2023-06-14,2023-06-12,株式会社Ｓｏｃｉｏ　Ｌｉｎｋ,,株式会社,東京都,新宿区,天神町６６番地,,13,104,1620808,,,2023-06-12,清算の結了等,,,2015-10-05,1,,,,,ソシオリンク,0
920,4011802021096,登記記録の閉鎖等,0,2023-06-14,2023-06-12,有限会社サン・モードスタジオ,,有限会社,東京都,足立区,梅島３丁目２５番１号,,13,121,1210816,,,2023-06-12,清算の結了等,,,2015-10-05,1,,,,,サンモードスタジオ,0
984,4060002034037,登記記録の閉鎖等,0,2023-06-14,2023-06-01,有限会社ポリフォニック,,有限会社,栃木県,下都賀郡壬生町,大字安塚９１９番地３,,09,361,3210201,,,2023-06-01,清算の結了等,,,2015-10-05,1,,,,,ポリフォニック,0
1007,4120001209277,登記記録の閉鎖等,0,2023-06-14,2023-06-13,スターアップ株式会社,,株式会社,大阪府,大阪市城東区,野江３丁目２４番８号,,27,118,5360006,,,2023-06-13,清算の結了等,,,2017-11-06,1,,,,,スターアップ,0
1033,4130001045837,登記記録の閉鎖等,0,2023-06-14,2023-06-12,株式会社安心安全誠実おうち塗装,,株式会社,東京都,足立区,東保木間１丁目２６番３４号,,13,121,1210063,,,2023-06-12,清算の結了等,,,2015-10-05,1,,,,,アンシンアンゼンセイジツオウチトソウ,0
1040,4140001092779,登記記録の閉鎖等,0,2023-06-14,2023-06-06,株式会社森田商事,,株式会社,兵庫県,姫路市,広畑区鶴町２丁目２０,,28,201,6711124,,,2023-06-06,清算の結了等,,,2015-10-05,1,,,,,,0
1051,4140003017528,登記記録の閉鎖等,0,2023-06-14,2023-06-07,ジュ・ジュー合同会社,,合同会社,兵庫県,姫路市,大津区天神町２丁目４５番地の２,,28,201,6711131,,,2023-06-07,清算の結了等,,,2022-04-06,1,,,,,ジュジュー,0
1067,4180003024553,登記記録の閉鎖等,0,2023-06-14,2023-06-08,合同会社野田村商会,,合同会社,愛知県,名古屋市中村区,日吉町２５番地ロイジェント日吉１２０４号,,23,105,4530029,,,2023-06-08,清算の結了等,,,2022-12-01,1,,,,,ノダムラショウカイ,0
1071,4180302024502,登記記録の閉鎖等,0,2023-06-14,2023-06-06,有限会社後藤建築,,有限会社,愛知県,豊田市,千田町馬尺２４番・２５番合筆地,,23,211,4442606,,,2023-06-06,清算の結了等,,,2015-10-05,1,,,,,ゴトウケンチク,0
1083,4240001017107,登記記録の閉鎖等,0,2023-06-14,2023-06-12,山田居宅介護支援事業所株式会社,,株式会社,広島県,広島市東区,中山新町１丁目４番５３号,,34,102,7320021,,,2023-06-12,清算の結了等,,,2015-10-05,1,,,,,ヤマダキョタクカイゴシエンジギョウショ,0
1093,4290003012381,登記記録の閉鎖等,0,2023-06-14,2023-06-07,合同会社ＯＡＳＩＳ　ＬＩＦＥ,,合同会社,福岡県,福岡市早良区,野芥２丁目４８－１９,,40,137,8140171,,,2023-06-07,清算の結了等,,,2022-04-15,1,,,,,オアシスライフ,0
1115,4420002001231,登記記録の閉鎖等,0,2023-06-14,2023-06-08,有限会社佐藤葬儀造花店,,有限会社,青森県,青森市,古川２丁目４番２０号,,02,201,0300862,,,2023-06-08,清算の結了等,,,2015-10-05,1,,,,,サトウソウギゾウカテン,0
1120,4430003007136,登記記録の閉鎖等,0,2023-06-14,2023-05-31,合同会社三共建機サービス,,合同会社,北海道,石狩市,樽川４６３番地３８,,01,235,0613251,,,2023-05-31,清算の結了等,,,2015-10-23,1,,,,,サンキョウケンキサービス,0
1140,5010101006709,登記記録の閉鎖等,0,2023-06-14,2023-06-06,株式会社ジーワークス,,株式会社,東京都,八王子市,大和田町３丁目３－７ライオンズモリス八王子ガーデン５０２号,,13,201,1920045,,,2023-06-06,清算の結了等,,,2015-10-05,1,,,,,ジーワークス,0
1149,5010501018262,登記記録の閉鎖等,0,2023-06-14,2023-06-12,株式会社三輝設計,,株式会社,東京都,台東区,東上野３丁目７番９号中西ビル２０１,,13,106,1100015,,,2023-06-12,清算の結了等,,,2015-10-05,1,,,,,サンキセッケイ,0
1163,5011101055571,登記記録の閉鎖等,0,2023-06-14,2023-06-06,株式会社ガンマ,,株式会社,東京都,練馬区,高松５丁目２２番１１号,,13,120,1790075,,,2023-06-06,清算の結了等,,,2015-10-05,1,,,,,ガンマ,0
1203,5021001037363,登記記録の閉鎖等,0,2023-06-14,2023-06-08,松田商事株式会社,,株式会社,神奈川県,平塚市,高根１丁目１２番６号,,14,203,2540912,,,2023-06-08,清算の結了等,,,2015-10-05,1,,,,,マツダショウジ,0
1234,5050001051909,登記記録の閉鎖等,0,2023-06-14,2023-06-08,株式会社ラーメン,,株式会社,東京都,杉並区,松庵３丁目１２番４号リーベスト松庵４０２,,13,115,1670054,,,2023-06-08,清算の結了等,,,2022-11-07,1,,,,,ラーメン,0
1235,5060002011308,登記記録の閉鎖等,0,2023-06-14,2023-06-06,有限会社ローズ・コーポレーション,,有限会社,栃木県,河内郡上三川町,大字磯岡４４７番地１,,09,301,3290606,,,2023-06-06,清算の結了等,,,2015-10-05,1,,,,,ローズコーポレーション,0
1241,5080002005506,登記記録の閉鎖等,0,2023-06-14,2023-06-12,有限会社丸一電工,,有限会社,静岡県,静岡市葵区,内牧１７３３番地の１,,22,101,4212118,,,2023-06-12,清算の結了等,,,2015-10-05,1,,,,,マルイチデンコウ,0
1255,5120001181392,登記記録の閉鎖等,0,2023-06-14,2023-06-12,株式会社ヒロヨシ,,株式会社,大阪府,大阪市東住吉区,針中野３丁目５番１１号,,27,121,5460011,,,2023-06-12,清算の結了等,,,2015-10-05,1,,,,,ヒロヨシ,0
1277,5120005016504,登記記録の閉鎖等,0,2023-06-14,2023-06-12,一般社団法人日本臨床研究フォーラム,,その他の設立登記法人,大阪府,大阪市淀川区,西宮原１丁目６番６０号４０５号室,,27,123,5320004,,,2023-06-12,清算の結了等,,,2015-10-05,1,,,,,ニホンリンショウケンキュウフォーラム,0
1287,5130002025358,登記記録の閉鎖等,0,2023-06-14,2023-06-08,有限会社円明寺電化センター,,有限会社,京都府,乙訓郡大山崎町,字円明寺小字葛原５１番地２２Ｙ棟１０６号,,26,303,6180091,,,2023-06-08,清算の結了等,,,2015-10-05,1,,,,,エンミョウジデンカセンター,0
1294,5140001081145,登記記録の閉鎖等,0,2023-06-14,2023-06-06,アイワ興産株式会社,,株式会社,兵庫県,宝塚市,福井町２７番９号,,28,214,6650046,,,2023-06-06,清算の結了等,,,2015-10-05,1,,,,,アイワコウサン,0
1307,5160003001578,登記記録の閉鎖等,0,2023-06-14,2023-06-12,合同会社ＡＶＥＡＣＨ,,合同会社,滋賀県,栗東市,坊袋１７２－１ハイツＮＲＫ５０３号室,,25,208,5203023,,,2023-06-12,清算の結了等,,,2017-10-16,1,,,,,アビーチ,0
1311,5180001017120,削除,,2023-06-14,,,,,,,,,,,,,,,,,,,,,,,,,
1320,5180002080704,登記記録の閉鎖等,0,2023-06-14,2023-06-08,有限会社Ｓｅｅｄ,,有限会社,愛知県,稲沢市,祖父江町大牧郷中４０１番地１,,23,220,4950014,,,2023-06-08,清算の結了等,,,2015-10-05,1,,,,,シード,0
1327,5190002004141,登記記録の閉鎖等,0,2023-06-14,2023-06-08,有限会社システムケア,,有限会社,三重県,津市,半田３３５０番地９９,,24,201,5140823,,,2023-06-08,清算の結了等,,,2015-10-05,1,,,,,システムケア,0
1331,5200003001004,登記記録の閉鎖等,0,2023-06-14,2023-06-09,合資会社サテライト・セブン,,合資会社,岐阜県,岐阜市,岩崎１丁目７番３号,,21,201,5020005,,,2023-06-09,清算の結了等,,,2015-10-05,1,,,,,サテライトセブン,0
1360,5290001092499,登記記録の閉鎖等,0,2023-06-14,2023-06-08,株式会社クロージャ,,株式会社,福岡県,福岡市博多区,博多駅前２丁目１番１号,,40,132,8120011,,,2023-06-08,清算の結了等,,,2021-04-02,1,,,,,クロージャ,0
1365,5310002000978,登記記録の閉鎖等,0,2023-06-14,2023-06-07,有限会社大山設計事務所,,有限会社,長崎県,西彼杵郡時津町,元村郷３７７番地,,42,308,8512103,,,2023-06-07,清算の結了等,,,2015-10-05,1,,,,,オオヤマセッケイジムショ,0
1368,5310003004061,登記記録の閉鎖等,0,2023-06-14,2023-06-07,合同会社いいねオンライン,,合同会社,長崎県,長崎市,小江原４丁目１９番地５号,,42,201,8511132,,,2023-06-07,清算の結了等,,,2021-05-13,1,,,,,イイネオンライン,0
1370,5320002004805,登記記録の閉鎖等,0,2023-06-14,2023-06-08,東洋モーター有限会社,,有限会社,大分県,大分市,西新地１丁目１０番２９号,,44,201,8700901,,,2023-06-08,清算の結了等,,,2015-10-05,1,,,,,トウヨウモーター,0
1386,5390003001308,登記記録の閉鎖等,0,2023-06-14,2023-06-08,合同会社ケーアイシー,,合同会社,山形県,山形市,薬師町１丁目９番５号,,06,201,9900053,,,2023-06-08,清算の結了等,,,2015-10-05,1,,,,,ケーアイシー,0
1398,5470001010921,登記記録の閉鎖等,0,2023-06-14,2023-06-01,株式会社藤田ホンダ販売,,株式会社,香川県,観音寺市,大野原町大野原５５４２番地４,,37,205,7691611,,,2023-06-01,合併による解散等,2470001008019,令和５年６月１日香川県善通寺市上吉田町４１８番地２株式会社ホンダカーズ香川中央（2470001008019）に合併し解散,2015-10-05,1,,,,,フジタホンダハンバイ,0
1402,5500002006304,登記記録の閉鎖等,0,2023-06-14,2023-06-13,有限会社マスモト空調,,有限会社,愛媛県,松山市,南土居町２４１番地２,,38,201,7911116,,,2023-06-13,清算の結了等,,,2015-10-05,1,,,,,マスモトクウチョウ,0
1407,5700150113988,削除,,2023-06-14,,,,,,,,,,,,,,,,,,,,,,,,,
1413,6010001128610,登記記録の閉鎖等,0,2023-06-14,2023-06-05,エス・シー・シー株式会社,,株式会社,東京都,清瀬市,中里２丁目１６２６番地の７,,13,221,2040003,,,2023-06-05,清算の結了等,,,2015-10-05,1,,,,,エスシーシー,0
1424,6010005031802,登記記録の閉鎖等,0,2023-06-14,2023-06-12,一般社団法人阿武隈ホールディングス,,その他の設立登記法人,東京都,千代田区,丸の内３丁目１番１号東京共同会計事務所内,,13,101,1000005,,,2023-06-12,清算の結了等,,,2020-05-13,1,,,,,アブクマホールディングス,0
1425,6010005033542,登記記録の閉鎖等,0,2023-06-14,2023-05-02,一般社団法人国際セルフウェイトボディメイク協会,,その他の設立登記法人,東京都,中央区,銀座１丁目２２番１１号銀座大竹ビジデンス２階,,13,102,1040061,,,2023-05-02,清算の結了等,,,2021-07-27,1,,,,,コクサイセルフウェイトボディメイクキョウカイ,0
1441,6010902002228,登記記録の閉鎖等,0,2023-06-14,2023-06-09,有限会社エーコム,,有限会社,東京都,世田谷区,北沢２丁目３３番６号,,13,112,1550031,,,2023-06-09,清算の結了等,,,2015-10-05,1,,,,,エーコム,0
1457,6011101074059,登記記録の閉鎖等,0,2023-06-14,2023-06-09,株式会社Ｔｒａｎｓ－Ｆａｓｔ　Ｊａｐａｎ　Ｃｏｍｐａｎｙ　Ｌｉｍｉｔｅｄ,,株式会社,東京都,新宿区,新宿２丁目５番３号,,13,104,1600022,,,2023-06-09,清算の結了等,,,2015-10-05,1,,,,,トランスファストジャパンカンパニーリミテッド,0
1473,6011502008219,登記記録の閉鎖等,0,2023-06-14,2023-06-08,有限会社慶野機械,,有限会社,東京都,荒川区,町屋２丁目１３番１７号,,13,118,1160001,,,2023-06-08,清算の結了等,,,2015-10-05,1,,,,,ケイノキカイ,0
1485,6012402016377,登記記録の閉鎖等,0,2023-06-14,2023-06-12,有限会社エラン企画,,有限会社,東京都,武蔵野市,吉祥寺南町１丁目１番８号,,13,203,1800003,,,2023-06-12,清算の結了等,,,2015-10-05,1,,,,,エランキカク,0
1497,6020003016507,登記記録の閉鎖等,0,2023-06-14,2023-06-06,合同会社遠方メディア,,合同会社,東京都,八王子市,別所２丁目２１－１０－１０２,,13,201,1920363,,,2023-06-06,清算の結了等,,,2019-08-20,1,,,,,エンポウメディア,0
1498,6021001002291,登記記録の閉鎖等,0,2023-06-14,2023-06-08,株式会社ヤマザキ,,株式会社,神奈川県,藤沢市,城南１丁目２０番５号,,14,205,2510057,,,2023-06-08,清算の結了等,,,2015-10-05,1,,,,,ヤマザキ,0
1502,6021001061783,登記記録の閉鎖等,0,2023-06-14,2023-06-08,株式会社ナルキ・ジャパン,,株式会社,神奈川県,藤沢市,鵠沼石上１丁目７番２号ステェイビル,,14,205,2510025,,,2023-06-08,清算の結了等,,,2017-04-05,1,,,,,ナルキジャパン,0
1511,6030002038484,登記記録の閉鎖等,0,2023-06-14,2023-05-31,有限会社アサおおくぼ,,有限会社,埼玉県,白岡市,白岡１８９０番地,,11,246,3490218,,,2023-05-31,清算の結了等,,,2015-10-05,1,,,,,アサオオクボ,0
1530,6060001016876,登記記録の閉鎖等,0,2023-06-14,2023-06-06,株式会社渡辺組,,株式会社,栃木県,栃木市,都賀町富張３２３番地１,,09,203,3280102,,,2023-06-06,清算の結了等,,,2015-10-05,1,,,,,ワタナベグミ,0
1534,6070003004052,登記記録の閉鎖等,0,2023-06-14,2023-06-12,合同会社Ｓａｒｉｏｎ,,合同会社,群馬県,伊勢崎市,本町３－６,,10,204,3720047,,,2023-06-12,清算の結了等,,,2021-03-30,1,,,,,サリオン,0
1540,6080402005550,登記記録の閉鎖等,0,2023-06-14,2023-06-12,有限会社富屋,,有限会社,静岡県,浜松市南区,富屋町８６番地,,22,134,4300824,,,2023-06-12,清算の結了等,,,2015-10-05,1,,,,,トミヤ,0
1551,6120001058846,登記記録の閉鎖等,0,2023-06-14,2023-06-12,森田酒販株式会社,,株式会社,大阪府,大阪市淀川区,東三国２丁目２４番１０号,,27,123,5320002,,,2023-06-12,清算の結了等,,,2015-10-05,1,,,,,モリタシュハン,0
1553,6120001115060,登記記録の閉鎖等,0,2023-06-14,2023-06-12,株式会社ライト・オン,,株式会社,大阪府,大阪市中央区,島之内１丁目８番８号,,27,128,5420082,,,2023-06-12,清算の結了等,,,2015-10-05,1,,,,,ライトオン,0
1555,6120001149785,登記記録の閉鎖等,0,2023-06-14,2023-06-08,株式会社昭和商事,,株式会社,大阪府,枚方市,東香里３丁目１１番３号,,27,210,5730075,,,2023-06-08,清算の結了等,,,2015-10-05,1,,,,,ショウワショウジ,0
1556,6120001164719,登記記録の閉鎖等,0,2023-06-14,2023-06-12,株式会社エー・シー・エム,,株式会社,大阪府,大阪市城東区,新喜多東２丁目６番１３－６０７号,,27,118,5360017,,,2023-06-12,清算の結了等,,,2015-10-05,1,,,,,エーシーエム,0
1603,6170001010141,登記記録の閉鎖等,0,2023-06-14,2023-06-12,株式会社菱日商会,,株式会社,和歌山県,御坊市,御坊７９番地,,30,205,6440001,,,2023-06-12,清算の結了等,,,2015-10-05,1,,,,,ヒシビショウカイ,0
1608,6180001087237,登記記録の閉鎖等,0,2023-06-14,2023-06-12,株式会社六建,,株式会社,愛知県,稲沢市,平和町下起北１５５番地,,23,220,4901323,,,2023-06-12,清算の結了等,,,2015-10-05,1,,,,,ロクゲン,0
1610,6180001104438,登記記録の閉鎖等,0,2023-06-14,2023-06-09,株式会社ｉｍｒｉ,,株式会社,愛知県,名古屋市東区,東桜２丁目９－３４成田ビル１Ｆ,,23,102,4610005,,,2023-06-09,清算の結了等,,,2015-10-05,1,,,,,イムリ,0
1617,6180002068459,登記記録の閉鎖等,0,2023-06-14,2023-06-08,有限会社愛岐ミルクセンター,,有限会社,愛知県,小牧市,大字野口２０５６番地,,23,219,4850806,,,2023-06-08,清算の結了等,,,2015-10-05,1,,,,,アイギミルクセンター,0
1621,6180003020360,登記記録の閉鎖等,0,2023-06-14,2023-06-09,合同会社楠乃木,,合同会社,愛知県,尾張旭市,南本地ケ原町３丁目８８番地２,,23,226,4880044,,,2023-06-09,清算の結了等,,,2019-09-18,1,,,,,クスノキ,0
1631,6200002020466,登記記録の閉鎖等,0,2023-06-14,2023-06-08,有限会社東海産業コーポレーション,,有限会社,岐阜県,多治見市,市之倉町７丁目１７５番地の１４,,21,204,5070814,,,2023-06-08,清算の結了等,,,2015-10-05,1,,,,,トウカイサンギョウコーポレーション,0
1639,6230005004100,登記記録の閉鎖等,0,2023-06-14,2023-06-12,榮顔寺,,その他の設立登記法人,富山県,下新川郡朝日町,大家庄２３９番地,,16,343,9390722,,,2023-06-12,清算の結了等,,,2015-10-05,1,,,,,エイゲンジ,0
1640,6240002029693,登記記録の閉鎖等,0,2023-06-14,2023-06-12,有限会社西坂農園,,有限会社,広島県,山県郡北広島町,今吉田１１１２番地の２,,34,369,7311221,,,2023-06-12,清算の結了等,,,2015-10-05,1,,,,,ニシサカノウエン,0
1641,6240002036442,登記記録の閉鎖等,0,2023-06-14,2023-06-06,有限会社オーアンドオー,,有限会社,広島県,廿日市市,峰高１丁目９番２３号,,34,213,7380032,,,2023-06-06,清算の結了等,,,2015-10-05,1,,,,,オーアンドオー,0
1644,6260001029569,登記記録の閉鎖等,0,2023-06-14,2023-06-12,株式会社いろは,,株式会社,岡山県,倉敷市,上富井４９３番地３７,,33,202,7100846,,,2023-06-12,清算の結了等,,,2016-05-13,1,,,,,イロハ,0
1647,6270002010584,登記記録の閉鎖等,0,2023-06-14,2023-06-05,有限会社ファミリーショップオアシス,,有限会社,鳥取県,倉吉市,馬場町９８番地,,31,203,6820914,,,2023-06-05,清算の結了等,,,2015-10-05,1,,,,,ファミリーショップオアシス,0
1659,6320001012650,登記記録の閉鎖等,0,2023-06-14,2023-06-09,くす自然エネルギー株式会社,,株式会社,大分県,玖珠郡玖珠町,大字大隈２２６番地の１１,,44,462,8794414,,,2023-06-09,清算の結了等,,,2015-10-05,1,,,,,クスシゼンエネルギー,0
1660,6330003002640,登記記録の閉鎖等,0,2023-06-14,2023-06-08,合同会社杖立グランドホテルくきた,,合同会社,熊本県,阿蘇郡小国町,大字下城３３３４番地,,43,424,8692503,,,2023-06-08,清算の結了等,,,2015-10-05,1,,,,,ツエタテグランドホテルクキタ,0
1681,6480002011066,登記記録の閉鎖等,0,2023-06-14,2023-06-13,有限会社うのひ丸,,有限会社,徳島県,板野郡北島町,高房字百広花１６番地１３,,36,402,7710206,,,2023-06-13,清算の結了等,,,2015-10-05,1,,,,,ウノヒマル,0
1683,6500002020452,登記記録の閉鎖等,0,2023-06-14,2023-06-13,有限会社ケイ・テック,,有限会社,愛媛県,今治市,波止浜１１番地５９,,38,202,7992118,,,2023-06-13,清算の結了等,,,2015-10-05,1,,,,,,0
1686,6700150114597,削除,,2023-06-14,,,,,,,,,,,,,,,,,,,,,,,,,
1692,7010001092946,登記記録の閉鎖等,0,2023-06-14,2023-06-06,東風海運株式会社,,株式会社,東京都,千代田区,九段南１丁目５番６号,,13,101,1020074,,,2023-06-06,清算の結了等,,,2015-10-05,1,,,,,トウフウカイウン,0
1703,7010001216083,登記記録の閉鎖等,0,2023-06-14,2023-06-07,ＦＩＶＥ　ＳＴＡＲ　ＴＲＵＳＴ　ＮＩＰＰＯＮ株式会社,,株式会社,東京都,千代田区,丸の内２丁目３番２号郵船ビルディング１階,,13,101,1000005,,,2023-06-07,清算の結了等,,,2021-03-08,1,,,,,ファイブスタートラストニッポン,0
1724,7010601030818,登記記録の閉鎖等,0,2023-06-14,2023-06-07,株式会社通電,,株式会社,東京都,墨田区,墨田４丁目３２番２号,,13,107,1310031,,,2023-06-07,清算の結了等,,,2015-10-05,1,,,,,ツウデン,0
1732,7011001055414,登記記録の閉鎖等,0,2023-06-14,2023-06-05,株式会社トピックテクノロジー,,株式会社,東京都,渋谷区,南平台町１３番４号,,13,113,1500036,,,2023-06-05,合併による解散等,8011001057104,令和５年６月１日東京都渋谷区南平台町１３番４号株式会社トピックホールディングス（8011001057104）に合併し解散,2015-10-05,1,,,,,トピックテクノロジー,0
1754,7011103009318,登記記録の閉鎖等,0,2023-06-14,2023-06-09,タムラビル合同会社,,合同会社,東京都,新宿区,荒木町３番地田村ビル４０１,,13,104,1600007,,,2023-06-09,清算の結了等,,,2019-12-10,1,,,,,タムラビル,0
1760,7011403002864,登記記録の閉鎖等,0,2023-06-14,2023-06-13,Ｃｈｅｅｒｓ合同会社,,合同会社,東京都,板橋区,高島平１丁目７番６号コンドミニアム・Ｕ３０３,,13,119,1750082,,,2023-06-13,清算の結了等,,,2019-12-12,1,,,,,チアーズ,0
1762,7011701001279,登記記録の閉鎖等,0,2023-06-14,2023-06-12,エスアンドオーカラー印刷株式会社,,株式会社,東京都,江戸川区,平井１丁目１９番９号,,13,123,1320035,,,2023-06-12,清算の結了等,,,2015-10-05,1,,,,,,0
1768,7012802001374,登記記録の閉鎖等,0,2023-06-14,2023-06-01,有限会社大黒屋,,有限会社,東京都,港区,芝浦４丁目５番４号,,13,103,1080023,,,2023-06-01,合併による解散等,1010403029493,令和５年６月１日東京都港区芝浦四丁目５番４号立川大黒屋合同会社（1010403029493）に合併し解散,2015-10-05,1,,,,,ダイコクヤ,0
1771,7013301023736,登記記録の閉鎖等,0,2023-06-14,2023-06-07,株式会社アイラック,,株式会社,東京都,豊島区,池袋２丁目５８番８号,,13,116,1710014,,,2023-06-07,清算の結了等,,,2015-10-05,1,,,,,アイラック,0
1774,7020001001162,登記記録の閉鎖等,0,2023-06-14,2023-06-08,株式会社アリス,,株式会社,神奈川県,横浜市保土ケ谷区,上菅田町７２４番地４１,,14,106,2400051,,,2023-06-08,清算の結了等,,,2015-10-05,1,,,,,アリス,0
1777,7020001141272,登記記録の閉鎖等,0,2023-06-14,2023-06-08,ＳＡＮＺＥＮ株式会社,,株式会社,神奈川県,川崎市川崎区,元木１丁目３番６－１号,,14,131,2100021,,,2023-06-08,清算の結了等,,,2021-05-13,1,,,,,サンゼン,0
1787,7021002069180,登記記録の閉鎖等,0,2023-06-14,2023-06-12,アーキエステート有限会社,,有限会社,神奈川県,横須賀市,金谷２丁目１１番１８号,,14,201,2380034,,,2023-06-12,清算の結了等,,,2015-10-05,1,,,,,,0
1799,7030002102768,登記記録の閉鎖等,0,2023-06-14,2023-05-31,有限会社小室美装工業所,,有限会社,埼玉県,川口市,上青木西２丁目６番７号,,11,203,3330845,,,2023-05-31,清算の結了等,,,2015-10-05,1,,,,,コムロビソウコウギョウショ,0
1807,7040002010367,登記記録の閉鎖等,0,2023-06-14,2023-05-29,有限会社ベスト,,有限会社,千葉県,千葉市花見川区,花島町４２８番地４４,,12,102,2620042,,,2023-05-29,清算の結了等,,,2015-10-05,1,,,,,ベスト,0
1818,7050002015753,登記記録の閉鎖等,0,2023-06-14,2023-06-07,有限会社野村工務店,,有限会社,茨城県,石岡市,鯨岡２１１番地,,08,205,3150163,,,2023-06-07,清算の結了等,,,2015-10-05,1,,,,,ノムラコウムテン,0
1827,7070002025189,登記記録の閉鎖等,0,2023-06-14,2023-06-12,リズ商事有限会社,,有限会社,群馬県,桐生市,相生町２丁目６２４番地２０,,10,203,3760011,,,2023-06-12,清算の結了等,,,2015-10-05,1,,,,,リズショウジ,0
1837,7100002024988,登記記録の閉鎖等,0,2023-06-14,2023-06-07,有限会社設備建装,,有限会社,長野県,塩尻市,大字広丘野村２０１６番地１,,20,215,3990702,,,2023-06-07,清算の結了等,,,2015-10-05,1,,,,,セツビケンソウ,0
1843,7120001088875,登記記録の閉鎖等,0,2023-06-14,2023-06-12,フルヤシャツ地株式会社,,株式会社,大阪府,大阪市中央区,谷町５丁目３番２０号,,27,128,5400012,,,2023-06-12,清算の結了等,,,2015-10-05,1,,,,,フルヤシャツジ,0
1860,7120903001043,登記記録の閉鎖等,0,2023-06-14,2023-06-09,ジーティーモーグル合同会社,,合同会社,大阪府,豊中市,服部寿町２丁目２２番６号,,27,203,5610857,,,2023-06-09,清算の結了等,,,2015-10-05,1,,,,,ジーティーモーグル,0
1867,7140001043630,登記記録の閉鎖等,0,2023-06-14,2023-06-08,株式会社マルモト製作所,,株式会社,兵庫県,加古川市,八幡町宗佐１４４９番地の１,,28,210,6751201,,,2023-06-08,清算の結了等,,,2015-10-05,1,,,,,マルモトセイサクショ,0
1893,7180002006748,登記記録の閉鎖等,0,2023-06-14,2023-06-12,トミナガ化成有限会社,,有限会社,愛知県,名古屋市港区,善北町１７番地,,23,111,4550812,,,2023-06-12,清算の結了等,,,2015-10-05,1,,,,,トミナガカセイ,0
1897,7180002078936,登記記録の閉鎖等,0,2023-06-14,2023-06-09,有限会社アンリミテッド,,有限会社,愛知県,一宮市,北小渕字西幟２５番地,,23,203,4910013,,,2023-06-09,清算の結了等,,,2015-10-05,1,,,,,アンリミテッド,0
1899,7180005019763,登記記録の閉鎖等,0,2023-06-14,2023-06-09,一般社団法人地域医療推進センター尾張,,その他の設立登記法人,愛知県,一宮市,奥町字蘇東５５番地,,23,203,4910201,,,2023-06-09,清算の結了等,,,2022-05-02,1,,,,,チイキイリョウスイシンセンターオワリ,0
1909,7240001010356,登記記録の閉鎖等,0,2023-06-14,2023-06-08,藤川工業株式会社,,株式会社,広島県,広島市安佐北区,あさひが丘６丁目７番７号,,34,106,7313361,,,2023-06-08,清算の結了等,,,2015-10-05,1,,,,,フジカワコウギョウ,0
1928,7290801009568,登記記録の閉鎖等,0,2023-06-14,2023-06-13,株式会社青柳薬局,,株式会社,福岡県,北九州市八幡西区,黒崎１丁目６番９号,,40,109,8060021,,,2023-06-13,清算の結了等,,,2015-10-05,1,,,,,アオヤギヤッキョク,0
1952,7410003001518,登記記録の閉鎖等,0,2023-06-14,2023-06-06,アベナショナル合同会社,,合同会社,秋田県,鹿角市,花輪字下花輪１６４番地３,,05,209,0185201,,,2023-06-06,清算の結了等,,,2015-10-05,1,,,,,アベナショナル,0
1982,8010001104320,登記記録の閉鎖等,0,2023-06-14,2023-06-07,株式会社空間未来図,,株式会社,東京都,文京区,湯島３丁目４１番１号,,13,105,1130034,,,2023-06-07,清算の結了等,,,2015-10-05,1,,,,,クウカンミライズ,0
1988,8010002022240,登記記録の閉鎖等,0,2023-06-14,2023-06-07,有限会社ターニー．スタジオ,,有限会社,東京都,中央区,築地１丁目４番８号,,13,102,1040045,,,2023-06-07,清算の結了等,,,2015-10-05,1,,,,,ターニースタジオ,0
2055,8013202002524,登記記録の閉鎖等,0,2023-06-14,2023-06-06,有限会社光琉會本部鑑定所,,有限会社,東京都,目黒区,上目黒３丁目１番１４号,,13,110,1530051,,,2023-06-06,清算の結了等,,,2015-10-05,1,,,,,コウリュウカイホンブカンテイショ,0
2073,8021001057251,登記記録の閉鎖等,0,2023-06-14,2023-06-09,エフコンサルティング株式会社,,株式会社,神奈川県,茅ヶ崎市,香川１丁目１番２９号栄紀ビル２０３号室,,14,207,2530082,,,2023-06-09,清算の結了等,,,2015-10-05,1,,,,,エフコンサルティング,0
2077,8021002039975,登記記録の閉鎖等,0,2023-06-14,2023-06-08,有限会社池田商事不動産,,有限会社,神奈川県,大和市,南林間５丁目８番２５号,,14,213,2420006,,,2023-06-08,清算の結了等,,,2015-10-05,1,,,,,イケダショウジフドウサン,0
2086,8030003009383,登記記録の閉鎖等,0,2023-06-14,2023-05-30,合同会社ａｒｏｓｅ,,合同会社,埼玉県,所沢市,上新井３丁目６４番地の２２,,11,208,3591142,,,2023-05-30,清算の結了等,,,2016-10-04,1,,,,,,0
2098,8050002015083,登記記録の閉鎖等,0,2023-06-14,2023-06-07,有限会社金原石材,,有限会社,茨城県,小美玉市,小川１５１５番地の３,,08,236,3113423,,,2023-06-07,清算の結了等,,,2015-10-05,1,,,,,カネハラセキザイ,0
2111,8080101007879,登記記録の閉鎖等,0,2023-06-14,2023-06-09,株式会社プロジェクトＮ,,株式会社,静岡県,沼津市,千本郷林１９０７,,22,203,4100000,,,2023-06-09,清算の結了等,,,2015-10-05,1,,,,,プロジェクトエヌ,0
2122,8120001018187,登記記録の閉鎖等,0,2023-06-14,2023-06-12,株式会社ツルーザー,,株式会社,大阪府,大阪市生野区,新今里１丁目１０番１６号,,27,116,5440001,,,2023-06-12,清算の結了等,,,2015-10-05,1,,,,,ツルーザー,0
2127,8120001205644,登記記録の閉鎖等,0,2023-06-14,2023-06-09,株式会社プロマネジメント,,株式会社,大阪府,大阪市北区,梅田１丁目１番３号,,27,127,5300001,,,2023-06-09,清算の結了等,,,2017-05-17,1,,,,,,0
2137,8120101034497,登記記録の閉鎖等,0,2023-06-14,2023-06-12,株式会社ＮＳＧ,,株式会社,大阪府,羽曳野市,恵我之荘３丁目４番６号,,27,222,5830886,,,2023-06-12,清算の結了等,,,2015-10-05,1,,,,,エヌエスジー,0
2140,8120102022724,登記記録の閉鎖等,0,2023-06-14,2023-06-09,有限会社フイッシュ・マーケティング,,有限会社,大阪府,岸和田市,沼町２２番１１号オリーブ沼町２Ａ号,,27,202,5960053,,,2023-06-09,清算の結了等,,,2015-10-05,1,,,,,フィッシュマーケティング,0
2171,8180001083936,登記記録の閉鎖等,0,2023-06-14,2023-06-08,山一毛織株式会社,,株式会社,愛知県,一宮市,赤見３丁目１５番２６号,,23,203,4910023,,,2023-06-08,清算の結了等,,,2015-10-05,1,,,,,ヤマイチケオリ,0
2173,8180001132321,登記記録の閉鎖等,0,2023-06-14,2023-06-09,株式会社長島興業,,株式会社,愛知県,名古屋市港区,知多２丁目１１０３番地,,23,111,4550883,,,2023-06-09,清算の結了等,,,2018-05-18,1,,,,,ナガシマコウギョウ,0
2175,8180001150901,登記記録の閉鎖等,0,2023-06-14,2023-06-09,株式会社大恵,,株式会社,愛知県,名古屋市港区,大西１丁目６４番地,,23,111,4550861,,,2023-06-09,清算の結了等,,,2022-04-13,1,,,,,ダイケイ,0
2179,8180003001078,登記記録の閉鎖等,0,2023-06-14,2023-06-12,合資会社扇屋,,合資会社,愛知県,名古屋市瑞穂区,堀田通７丁目８番地,,23,108,4670862,,,2023-06-12,清算の結了等,,,2015-10-05,1,,,,,オウギヤ,0
2223,8380001023987,登記記録の閉鎖等,0,2023-06-14,2023-06-06,株式会社畑中,,株式会社,福島県,いわき市,東田町１丁目１５番地の４,,07,204,9748212,,,2023-06-06,清算の結了等,,,2015-10-05,1,,,,,ハタナカ,0
2227,8400002007128,登記記録の閉鎖等,0,2023-06-14,2023-06-02,ＮＫ設備サービス株式会社,,株式会社,岩手県,紫波郡紫波町,稲藤字升形２０１番地,,03,321,0283451,,,2023-06-02,合併による解散等,1400001003852,令和５年６月２日岩手県紫波郡紫波町稲藤字升形２０１番地エヌケー紫波株式会社（1400001003852）に合併し解散,2015-10-05,1,,,,,エヌケーセツビサービス,0
2232,8430001018255,登記記録の閉鎖等,0,2023-06-14,2023-05-31,株式会社ワンダーオフィス,,株式会社,北海道,札幌市東区,北二十三条東８丁目３番１号,,01,103,0650023,,,2023-05-31,清算の結了等,,,2015-10-05,1,,,,,ワンダーオフィス,0
2248,8460402000131,登記記録の閉鎖等,0,2023-06-14,2023-06-12,有限会社桂洋漁業,,有限会社,北海道,根室市,花咲港３００番地,,01,223,0870032,,,2023-06-12,清算の結了等,,,2015-10-05,1,,,,,ケイヨウギョギョウ,0
2249,8460402000214,登記記録の閉鎖等,0,2023-06-14,2023-06-12,有限会社竹本建設,,有限会社,北海道,根室市,光洋町３丁目１９番地６７,,01,223,0870004,,,2023-06-12,清算の結了等,,,2015-10-05,1,,,,,タケモトケンセツ,0
2272,9010002017280,登記記録の閉鎖等,0,2023-06-14,2023-06-07,有限会社遠州屋商店,,有限会社,東京都,中央区,築地４丁目７番５号,,13,102,1040045,,,2023-06-07,清算の結了等,,,2015-10-05,1,,,,,エンシュウヤショウテン,0
2274,9010102004591,登記記録の閉鎖等,0,2023-06-14,2023-06-08,有限会社ディジタル・カンパニー・ネットワーク,,有限会社,東京都,八王子市,別所２丁目４５番地２－３０４,,13,201,1920363,,,2023-06-08,清算の結了等,,,2015-10-05,1,,,,,ディジタルカンパニーネットワーク,0
2278,9010401105033,登記記録の閉鎖等,0,2023-06-14,2023-06-01,ディーピーアイ株式会社,,株式会社,東京都,港区,赤坂３丁目２１番４号,,13,103,1070052,,,2023-06-01,清算の結了等,,,2015-10-05,1,,,,,ディーピーアイ,0
2282,9010502021170,登記記録の閉鎖等,0,2023-06-14,2023-06-12,有限会社稲辺製作所,,有限会社,東京都,台東区,元浅草３丁目２１番１２号,,13,106,1110041,,,2023-06-12,清算の結了等,,,2015-10-05,1,,,,,イナベセイサクジョ,0
2283,9010601060821,登記記録の閉鎖等,0,2023-06-14,2023-06-07,古賀商会株式会社,,株式会社,東京都,江東区,東雲１丁目９番３１－１７０４号,,13,108,1350062,,,2023-06-07,清算の結了等,,,2022-03-11,1,,,,,コガショウカイ,0
2287,9010701005651,登記記録の閉鎖等,0,2023-06-14,2023-06-09,株式会社泰明電機製作所,00051853,株式会社,東京都,品川区,西五反田４丁目１９番９号,,13,109,1410031,,,2023-06-09,清算の結了等,,,2015-10-05,1,,,,,タイメイデンキセイサクジョ,0
2293,9011001134595,登記記録の閉鎖等,0,2023-06-14,2023-06-09,株式会社旺文社ＥｄｕＬａｂ　ＥＤＧｅ　Ｓｃｈｏｏｌ,,株式会社,東京都,渋谷区,道玄坂１丁目２１番１号渋谷ソラスタ１４階,,13,113,1500043,,,2023-06-09,清算の結了等,,,2020-07-07,1,,,,,オウブンシャエデュラボエッジスクール,0
2300,9011101091068,登記記録の閉鎖等,0,2023-06-14,2023-06-09,株式会社ミツエーリンクスＴＳＤ,,株式会社,東京都,新宿区,西新宿８丁目１７番１号,,13,104,1600023,,,2023-06-09,清算の結了等,,,2020-04-27,1,,,,,ミツエーリンクスティーエスディー,0
2325,9020001042774,登記記録の閉鎖等,0,2023-06-14,2023-06-07,株式会社サイプレスＧＩＡ,,株式会社,神奈川県,横浜市青葉区,藤が丘２丁目５番地５,,14,117,2270043,,,2023-06-07,清算の結了等,,,2015-10-05,1,,,,,サイプレスジーアイエー,0
2352,9040001108160,登記記録の閉鎖等,0,2023-06-14,2023-05-29,株式会社アキモト,,株式会社,千葉県,浦安市,堀江４丁目３５番１３号,,12,227,2790041,,,2023-05-29,清算の結了等,,,2019-02-27,1,,,,,アキモト,0
2384,9120005021533,登記記録の閉鎖等,0,2023-06-14,2023-06-12,一般社団法人関西バレー,,その他の設立登記法人,大阪府,大阪市北区,大深町３番１号グランフロント大阪北館６階,,27,127,5300011,,,2023-06-12,清算の結了等,,,2020-04-08,1,,,,,カンサイバレー,0
2388,9120901030513,登記記録の閉鎖等,0,2023-06-14,2023-06-08,株式会社ＭＩＲＡＩＥ,,株式会社,大阪府,摂津市,正雀本町２丁目２１番１号イー・ティー・ワンビル２０１号,,27,224,5660024,,,2023-06-08,清算の結了等,,,2015-10-05,1,,,,,,0
2396,9140001034727,登記記録の閉鎖等,0,2023-06-14,2023-06-07,カネモ水産株式会社,,株式会社,兵庫県,明石市,藤江２０２９番地の１,,28,203,6730044,,,2023-06-07,清算の結了等,,,2015-10-05,1,,,,,カネモスイサン,0
2399,9140001085299,登記記録の閉鎖等,0,2023-06-14,2023-06-07,上村建設株式会社,,株式会社,兵庫県,淡路市,野島蟇浦５９２番地の３,,28,226,6561721,,,2023-06-07,清算の結了等,,,2015-10-05,1,,,,,ウエムラケンセツ,0
2410,9140002047744,登記記録の閉鎖等,0,2023-06-14,2023-06-08,有限会社エムエス,,有限会社,兵庫県,姫路市,田寺６丁目１０番２８号,,28,201,6700086,,,2023-06-08,清算の結了等,,,2015-10-05,1,,,,,エムエス,0
2416,9160002008612,登記記録の閉鎖等,0,2023-06-14,2023-06-09,有限会社万寿家,,有限会社,滋賀県,愛知郡愛荘町,市１０３６番地,,25,425,5291313,,,2023-06-09,清算の結了等,,,2015-10-05,1,,,,,マンジュヤ,0
2420,9180001150487,登記記録の閉鎖等,0,2023-06-14,2023-06-09,株式会社ＨＡＺＥ,,株式会社,愛知県,北名古屋市,中之郷栗島４８番地,,23,234,4810045,,,2023-06-09,清算の結了等,,,2022-03-23,1,,,,,ヒーズ,0
2425,9180002031843,登記記録の閉鎖等,0,2023-06-14,2023-06-09,有限会社ティーズグラフィックス,,有限会社,愛知県,名古屋市中区,栄４丁目１４番６号,,23,106,4600008,,,2023-06-09,清算の結了等,,,2015-10-05,1,,,,,ティーズグラフィックス,0
2427,9180002043038,登記記録の閉鎖等,0,2023-06-14,2023-06-12,有限会社喜むら庭,,有限会社,愛知県,名古屋市中区,上前津２丁目３番２号,,23,106,4600013,,,2023-06-12,清算の結了等,,,2015-10-05,1,,,,,キムラテイ,0
2428,9180002057913,登記記録の閉鎖等,0,2023-06-14,2023-06-09,有限会社トラストＦＴ,,有限会社,岐阜県,各務原市,緑苑南１丁目８６番地,,21,213,5090115,,,2023-06-09,清算の結了等,,,2015-10-05,1,,,,,トラストエフティ,0
2430,9180002077944,登記記録の閉鎖等,0,2023-06-14,2023-06-09,有限会社吉崎商店,,有限会社,愛知県,一宮市,北小渕字八幡１４番地,,23,203,4910013,,,2023-06-09,清算の結了等,,,2015-10-05,1,,,,,ヨシザキショウテン,0
2432,9180003023451,登記記録の閉鎖等,0,2023-06-14,2023-06-12,合同会社スリームーヴィン,,合同会社,愛知県,犬山市,大字犬山字東古券４１１番地１,,23,215,4840083,,,2023-06-12,清算の結了等,,,2022-01-31,1,,,,,スリームーヴィン,0
2449,9230005003594,登記記録の閉鎖等,0,2023-06-14,2023-06-12,正圓寺,,その他の設立登記法人,富山県,魚津市,末広町２番１１号,,16,204,9370059,,,2023-06-12,清算の結了等,,,2015-10-05,1,,,,,ショウエンジ,0
2452,9240002027356,登記記録の閉鎖等,0,2023-06-14,2023-06-08,有限会社おぐら興産,,有限会社,広島県,東広島市,西条町下見４０７２番地１１,,34,212,7390044,,,2023-06-08,清算の結了等,,,2015-10-05,1,,,,,オグラコウサン,0
2459,9290002039611,登記記録の閉鎖等,0,2023-06-14,2023-06-08,有限会社筑水工業,,有限会社,福岡県,大野城市,東大利３丁目９番４５－２０６号,,40,219,8160941,,,2023-06-08,清算の結了等,,,2015-10-05,1,,,,,チクスイコウギョウ,0
2498,9430001032131,登記記録の閉鎖等,0,2023-06-14,2023-05-31,株式会社フレンドユー,,株式会社,北海道,札幌市白石区,川北２２９３番地２９,,01,104,0030859,,,2023-05-31,清算の結了等,,,2015-10-05,1,,,,,フレンドユー,0
2511,9490005006621,登記記録の閉鎖等,0,2023-06-14,2023-06-09,特定非営利活動法人仁淀ブルー,,その他の設立登記法人,高知県,高岡郡越知町,横畠北３０８０番地２,,39,403,7811315,,,2023-06-09,清算の結了等,,,2019-02-05,1,,,,,ニヨドブルー,0
