sequenceNumber,corporateNumber,process,correct,updateDate,changeDate,name,nameImageId,kind,prefectureName,cityName,streetNumber,addressImageId,prefectureCode,cityCode,postCode,addressOutside,addressOutsideImageId,closeDate,closeCause,successorCorporateNumber,changeCause,assignmentDate,latest,enName,enPrefectureName,enCityName,enAddressOutside,furigana,hihyoji
14,1010003019639,登記記録の閉鎖等,0,2025-10-07,2025-09-19,合同会社軽井沢若草,,合同会社,東京都,千代田区,丸の内１丁目４番１号東京共同会計事務所内,,13,101,1000005,,,2025-09-19,清算の結了等,,,2015-10-05,1,,,,,カルイザワワカクサ,0
15,1010003029860,登記記録の閉鎖等,0,2025-10-07,2025-09-26,合同会社日本ウインドファーム,,合同会社,東京都,品川区,東品川２丁目２番４号,,13,109,1400002,,,2025-09-26,清算の結了等,,,2019-05-22,1,,,,,ニホンウインドファーム,0
20,1010401088368,登記記録の閉鎖等,0,2025-10-07,2025-09-29,株式会社トランスシグマ,,株式会社,茨城県,常総市,馬場２３８０番地２,,08,211,3002748,,,2025-09-29,清算の結了等,,,2015-10-05,1,,,,,トランスシグマ,0
21,1010401098739,登記記録の閉鎖等,0,2025-10-07,2025-09-17,株式会社ポジティブサイコロジースクール,,株式会社,東京都,千代田区,一番町１０番８号,,13,101,1020082,,,2025-09-17,清算の結了等,,,2015-10-05,1,,,,,ポジティブサイコロジースクール,0
24,1010403027324,登記記録の閉鎖等,0,2025-10-07,2025-09-04,ジャパンインフラ２０号合同会社,,合同会社,東京都,港区,元赤坂１丁目１番７号,,13,103,1070051,,,2025-09-04,清算の結了等,,,2022-03-29,1,,,,,ジャパンインフラニジュウゴウ,0
34,1010501035154,登記記録の閉鎖等,0,2025-10-07,2025-09-22,株式会社万象ホールディングス,,株式会社,福島県,双葉郡富岡町,大字本岡字赤木１００番地２２,,07,543,9791151,,,2025-09-22,清算の結了等,,,2015-10-05,1,,,,,バンショウホールディングス,0
63,1011301003210,登記記録の閉鎖等,0,2025-10-07,2025-09-01,新東京食堂株式会社,,株式会社,東京都,新宿区,左門町３番地１左門イレブンビル３階,,13,104,1600017,,,2025-09-01,合併による解散等,3011001030453,令和７年９月１日東京都新宿区左門町３番地１左門イレブンビル３階東京ケータリング株式会社（3011001030453）に合併し解散,2015-10-05,1,,,,,シントウキョウショクドウ,0
69,1011801009500,登記記録の閉鎖等,0,2025-10-07,2025-10-01,ダイヤ交通株式会社,,株式会社,東京都,足立区,西保木間３丁目８番２号,,13,121,1210812,,,2025-10-01,清算の結了等,,,2015-10-05,1,,,,,ダイヤコウツウ,0
89,1020001037889,登記記録の閉鎖等,0,2025-10-07,2025-09-16,株式会社健康ファミリー薬品,,株式会社,神奈川県,横浜市旭区,今宿東町１６３１－３,,14,112,2410032,,,2025-09-16,清算の結了等,,,2015-10-05,1,,,,,ケンコウファミリーヤクヒン,0
109,1040002052282,登記記録の閉鎖等,0,2025-10-07,2025-09-03,有限会社ベンテック,,有限会社,千葉県,野田市,木間ケ瀬３５２１番地２,,12,208,2700222,,,2025-09-03,清算の結了等,,,2015-10-05,1,,,,,ベンテック,0
118,1060005004304,登記記録の閉鎖等,0,2025-10-07,2025-09-29,職業訓練法人大田原地域職業訓練センター管理公社,,その他の設立登記法人,栃木県,大田原市,本町１丁目２８０５番地３,,09,210,3240041,,,2025-09-29,清算の結了等,,,2015-10-05,1,,,,,オオタワラチイキショクギョウクンレンセンターカンリコウシャ,0
127,1080401010845,登記記録の閉鎖等,0,2025-10-07,2025-10-01,豊栄産業株式会社,,株式会社,静岡県,浜松市天竜区,佐久間町浦川２８２０番地の３５,,22,140,4313906,,,2025-10-01,合併による解散等,1080401013212,令和７年１０月１日静岡県浜松市中央区高丘北一丁目５５番１３号静岡ガスコム株式会社（1080401013212）に合併し解散,2015-10-05,1,,,,,ホウエイサンギョウ,0
129,1080401020076,登記記録の閉鎖等,0,2025-10-07,2025-09-30,株式会社ハラダ,,株式会社,静岡県,浜松市中央区,西山町２８６番地の１３,,22,138,4328001,,,2025-09-30,清算の結了等,,,2015-10-05,1,,,,,ハラダ,0
132,1090001009832,登記記録の閉鎖等,0,2025-10-07,2025-09-29,タナベ電器株式会社,,株式会社,山梨県,富士吉田市,上吉田東２丁目７番１３号,,19,202,4030032,,,2025-09-29,清算の結了等,,,2015-10-05,1,,,,,タナベデンキ,0
134,1100002029423,登記記録の閉鎖等,0,2025-10-07,2025-10-01,有限会社エリスデザイン,,有限会社,長野県,諏訪郡下諏訪町,４９３１番地の１７,,20,361,3930000,,,2025-10-01,清算の結了等,,,2015-10-05,1,,,,,エリスデザイン,0
140,1120001014077,登記記録の閉鎖等,0,2025-10-07,2025-09-30,株式会社大阪第一測量,,株式会社,大阪府,大阪市東成区,東今里２丁目６番４号,,27,115,5370011,,,2025-09-30,清算の結了等,,,2015-10-05,1,,,,,オオサカダイイチソクリョウ,0
142,1120001057968,登記記録の閉鎖等,0,2025-10-07,2025-10-01,株式会社ヒラヤマ,,株式会社,大阪府,大阪市淀川区,十三東１丁目１１番２８号,,27,123,5320023,,,2025-10-01,合併による解散等,9120001057886,令和７年１０月１日大阪市淀川区十三東一丁目１１番２８号光食品工業株式会社（9120001057886）に合併し解散,2015-10-05,1,,,,,ヒラヤマ,0
145,1120001196683,登記記録の閉鎖等,0,2025-10-07,2025-10-01,株式会社アンド・アイ,,株式会社,大阪府,大阪市北区,曾根崎２丁目３番５号,,27,127,5300057,,,2025-10-01,合併による解散等,4120001223443,令和７年１０月１日大阪市北区曽根崎二丁目３番５号株式会社エクストリンク（4120001223443）に合併し解散,2016-03-04,1,,,,,アンドアイ,0
150,1120001267039,登記記録の閉鎖等,0,2025-10-07,2025-09-29,旺昇株式会社,,株式会社,大阪府,大阪市住之江区,安立２丁目１０番１４号三坂ビル２０３号室,,27,125,5590003,,,2025-09-29,清算の結了等,,,2024-07-24,1,,,,,オウショウ,0
161,1120002007492,登記記録の閉鎖等,0,2025-10-07,2025-09-29,有限会社ヤマハチ製作所,,有限会社,大阪府,大阪市東成区,大今里南４丁目６番１３号,,27,115,5370013,,,2025-09-29,清算の結了等,,,2015-10-05,1,,,,,,0
164,1120002052489,登記記録の閉鎖等,0,2025-10-07,2025-09-29,有限会社ヒラヤマ,,有限会社,大阪府,大阪市西淀川区,千舟３丁目１番２－３０６号,,27,113,5550013,,,2025-09-29,清算の結了等,,,2015-10-05,1,,,,,ヒラヤマ,0
166,1120002071869,登記記録の閉鎖等,0,2025-10-07,2025-10-01,有限会社えいぶる,,有限会社,大阪府,寝屋川市,大利町４番１号Ｆ．タニヤマ１階,,27,215,5720048,,,2025-10-01,合併による解散等,3120002076115,令和７年１０月１日大阪府寝屋川市大利町４番１号Ｆ．タニヤマ１階株式会社Ｔ‐ＣＯＡＲ（3120002076115）に合併し解散,2015-10-05,1,,,,,エイブル,0
168,1120101048116,登記記録の閉鎖等,0,2025-10-07,2025-10-01,株式会社ＪＯＲＩＮコーポレーション,,株式会社,大阪府,門真市,上島町４４番１２号,,27,223,5710071,,,2025-10-01,合併による解散等,3120101020766,令和７年１０月１日大阪府門真市上島町４４番１２号株式会社岩商（3120101020766）に合併し解散,2015-10-05,1,,,,,ジョリンコーポレーション,0
178,1130001003970,登記記録の閉鎖等,0,2025-10-07,2025-09-17,株式会社メセナ,,株式会社,京都府,京都市中京区,小川通二条上る槌屋町６１１番地,00035156,26,104,6040061,,,2025-09-17,合併による解散等,7130001002637,令和７年９月１日京都市中京区小川通二条上ル槌屋町６１１番地株式会社大入（7130001002637）に合併し解散,2015-10-05,1,,,,,メセナ,0
179,1130001021915,登記記録の閉鎖等,0,2025-10-07,2025-10-02,株式会社中塚商店,,株式会社,京都府,京都市中京区,西ノ京御輿岡町１６番地,,26,104,6048451,,,2025-10-02,清算の結了等,,,2015-10-05,1,,,,,ナカツカショウテン,0
197,1140001051267,登記記録の閉鎖等,0,2025-10-07,2025-09-30,真下王冠工業株式会社,,株式会社,兵庫県,芦屋市,朝日ケ丘町３４番７号,,28,206,6590012,,,2025-09-30,清算の結了等,,,2015-10-05,1,,,,,マシタオウカンコウギョウ,0
198,1140001103919,登記記録の閉鎖等,0,2025-10-07,2025-09-30,株式会社細川機設,,株式会社,兵庫県,川西市,南花屋敷４丁目１２番３号,,28,217,6660026,,,2025-09-30,清算の結了等,,,2016-11-07,1,,,,,ホソカワキセツ,0
208,1150001020857,登記記録の閉鎖等,0,2025-10-07,2025-10-01,株式会社弘栄グループ,,株式会社,奈良県,奈良市,法用町４９７番１,,29,201,6301126,,,2025-10-01,清算の結了等,,,2016-07-06,1,,,,,コウエイグループ,0
216,1180001131585,登記記録の閉鎖等,0,2025-10-07,2025-09-16,株式会社ＢＯＺＬＥＳ,,株式会社,愛知県,名古屋市西区,十方町１１６番地,,23,104,4520837,,,2025-09-16,清算の結了等,,,2018-03-22,1,,,,,ボーズレス,0
229,1180301000721,登記記録の閉鎖等,0,2025-10-07,2025-10-06,かもめ交通株式会社,,株式会社,愛知県,岡崎市,美合新町１０番地６,,23,202,4440801,,,2025-10-06,清算の結了等,,,2015-10-05,1,,,,,カモメコウツウ,0
231,1180303004340,登記記録の閉鎖等,0,2025-10-07,2025-10-06,株式会社ＡＬＩＶＥ,,株式会社,愛知県,岡崎市,井田町字稲場１１番地４,,23,202,4440076,,,2025-10-06,清算の結了等,,,2019-06-06,1,,,,,アライブ,0
249,1240001022613,登記記録の閉鎖等,0,2025-10-07,2025-10-01,株式会社ヒロテックツーリング,,株式会社,広島県,東広島市,吉川工業団地８番４号,,34,212,7390153,,,2025-10-01,合併による解散等,4240001010045,令和７年１０月１日広島市佐伯区石内南五丁目２番１号株式会社ヒロテック（4240001010045）に合併し解散,2015-10-05,1,,,,,ヒロテックツーリング,0
252,1250002006044,登記記録の閉鎖等,0,2025-10-07,2025-10-02,オリエンタルオイル有限会社,,有限会社,山口県,山陽小野田市,大字小野田６８０７番地の６,,35,216,7560817,,,2025-10-02,清算の結了等,,,2015-10-05,1,,,,,オリエンタルオイル,0
255,1280002009738,登記記録の閉鎖等,0,2025-10-07,2025-10-03,有限会社イー・エイチ・ケイ,,有限会社,島根県,松江市,八束町江島８６０番地３,,32,201,6901401,,,2025-10-03,清算の結了等,,,2015-10-05,1,,,,,イーエイチケイ,0
269,1320005005143,登記記録の閉鎖等,0,2025-10-07,2025-09-30,農事組合法人風見種鶏卵生産組合,,その他の設立登記法人,大分県,国東市,国見町中２００６番地１０,,44,214,8721402,,,2025-09-30,清算の結了等,,,2015-10-05,1,,,,,カザミシュケイランセイサンクミアイ,0
270,1330005008491,登記記録の閉鎖等,0,2025-10-07,2025-09-26,医療法人社団成郁会,,その他の設立登記法人,熊本県,熊本市北区,津浦町１９番２号,,43,105,8600088,,,2025-09-26,清算の結了等,,,2015-10-05,1,,,,,セイイクカイ,0
271,1350001017049,登記記録の閉鎖等,0,2025-10-07,2025-10-03,株式会社いちばん,,株式会社,宮崎県,宮崎市,新別府町前浜１４０１－３４,,45,201,8800834,,,2025-10-03,合併による解散等,7180301031109,令和７年９月３０日愛知県岡崎市東明大寺町１１番地２（イエローボックス１０１）ＴＲＯＣ株式会社（7180301031109）に合併し解散,2021-05-12,1,,,,,イチバン,0
277,1360001023442,登記記録の閉鎖等,0,2025-10-07,2025-09-30,株式会社Ｙ’ｓ　Ｐｒｏｊｅｃｔｓ,,株式会社,沖縄県,那覇市,田原１丁目６番地５ラハウェル田原１０１,,47,201,9010156,,,2025-09-30,清算の結了等,,,2018-01-25,1,,,,,ワイズプロジェクツ,0
278,1360001028920,登記記録の閉鎖等,0,2025-10-07,2025-09-30,株式会社ＣＯＭＡＴＳＵ　ＯＫＩＮＡＷＡ,,株式会社,沖縄県,那覇市,牧志３丁目１３番１２号,,47,201,9000013,,,2025-09-30,合併による解散等,9290001069023,令和７年９月５日福岡市中央区薬院一丁目８番２０号株式会社ニューコマツ（9290001069023）に合併し解散,2021-06-16,1,,,,,コマツオキナワ,0
289,1390002012383,登記記録の閉鎖等,0,2025-10-07,2025-10-01,有限会社三藏美容,,有限会社,山形県,東根市,神町西１丁目２番１０号,,06,211,9993766,,,2025-10-01,清算の結了等,,,2015-10-05,1,,,,,ミクラビヨウ,0
304,1480003000972,登記記録の閉鎖等,0,2025-10-07,2025-10-02,合同会社法市の干し芋,,合同会社,徳島県,三好郡東みよし町,加茂６０２０番地３,,36,489,7794701,,,2025-10-02,清算の結了等,,,2016-01-06,1,,,,,ホイチノホシイモ,0
316,2010001114655,登記記録の閉鎖等,0,2025-10-07,2025-09-19,株式会社メディアサポート,,株式会社,東京都,中央区,入船２丁目７番３号,,13,102,1040042,,,2025-09-19,清算の結了等,,,2015-10-05,1,,,,,メディアサポート,0
327,2010003033218,登記記録の閉鎖等,0,2025-10-07,2025-09-19,合同会社アセット投資事業９号,,合同会社,東京都,中央区,日本橋１丁目４番１号,,13,102,1030027,,,2025-09-19,清算の結了等,,,2020-10-07,1,,,,,アセットトウシジギョウキュウゴウ,0
338,2010401156223,登記記録の閉鎖等,0,2025-10-07,2025-09-04,株式会社ＬＥＥコンサルティング,,株式会社,東京都,港区,浜松町２丁目２番１５号浜松町ダイヤビル２Ｆ,,13,103,1050013,,,2025-09-04,清算の結了等,,,2020-11-05,1,,,,,リーコンサルティング,0
340,2010403023818,登記記録の閉鎖等,0,2025-10-07,2025-09-04,合同会社ティーアール・スリー,,合同会社,東京都,港区,赤坂２丁目１０番５号デロイトトーマツ赤坂インターナショナル株式会社内,,13,103,1070052,,,2025-09-04,清算の結了等,,,2020-09-30,1,,,,,ティーアールスリー,0
341,2010403026795,登記記録の閉鎖等,0,2025-10-07,2025-09-04,ジャパンインフラ１７号合同会社,,合同会社,東京都,港区,元赤坂１丁目１番７号,,13,103,1070051,,,2025-09-04,清算の結了等,,,2022-01-04,1,,,,,ジャパンインフラジュウナナゴウ,0
342,2010405019946,登記記録の閉鎖等,0,2025-10-07,2025-09-04,プラチナホールディング２一般社団法人,,その他の設立登記法人,東京都,港区,虎ノ門３丁目２２番１０－２０１号,,13,103,1050001,,,2025-09-04,清算の結了等,,,2021-06-29,1,,,,,プラチナホールディングツー,0
349,2010702005970,登記記録の閉鎖等,0,2025-10-07,2025-10-01,有限会社中島商会,,有限会社,東京都,品川区,西大井５丁目１０番２０号,,13,109,1400015,,,2025-10-01,清算の結了等,,,2015-10-05,1,,,,,,0
357,2011001112483,登記記録の閉鎖等,0,2025-10-07,2025-10-03,株式会社丸長,,株式会社,東京都,世田谷区,三軒茶屋２丁目１６番１３－４０３号,,13,112,1540024,,,2025-10-03,清算の結了等,,,2016-08-24,1,,,,,マルチョウ,0
366,2011101008235,登記記録の閉鎖等,0,2025-10-07,2025-09-02,株式会社サンロード,,株式会社,東京都,新宿区,四谷３丁目５番地,,13,104,1600004,,,2025-09-02,清算の結了等,,,2015-10-05,1,,,,,サンロード,0
374,2011102013639,登記記録の閉鎖等,0,2025-10-07,2025-09-01,有限会社よつ家,,有限会社,東京都,新宿区,四谷本塩町３番１号,,13,104,1600003,,,2025-09-01,合併による解散等,1011101064543,令和７年８月３１日東京都新宿区四谷本塩町３番１号ＣＰホールディングス株式会社（1011101064543）に合併し解散,2015-10-05,1,,,,,ヨツヤ,0
385,2011801031858,登記記録の閉鎖等,0,2025-10-07,2025-10-01,株式会社協伸商事,,株式会社,東京都,足立区,六町４丁目３番７－５０２号,,13,121,1210073,,,2025-10-01,清算の結了等,,,2016-05-25,1,,,,,キョウシンショウジ,0
428,2030001122086,登記記録の閉鎖等,0,2025-10-07,2025-09-29,Ｊ－Ｃｏｌｌｅｃｔ株式会社,,株式会社,埼玉県,春日部市,南栄町１５番地９,,11,214,3440057,,,2025-09-29,清算の結了等,,,2017-09-11,1,,,,,ジェイコレクト,0
435,2040001102987,登記記録の閉鎖等,0,2025-10-07,2025-09-03,株式会社音羽,,株式会社,千葉県,いすみ市,岬町鴨根９３４番地,,12,238,2994624,,,2025-09-03,清算の結了等,,,2017-12-28,1,,,,,オトワ,0
454,2080002016919,登記記録の閉鎖等,0,2025-10-07,2025-09-30,有限会社村越建材,,有限会社,静岡県,焼津市,飯渕１０２２番地の１０,,22,212,4250000,,,2025-09-30,清算の結了等,,,2015-10-05,1,,,,,ムラコシケンザイ,0
464,2100001030546,登記記録の閉鎖等,0,2025-10-07,2025-10-01,東京丸善工業株式会社,,株式会社,静岡県,裾野市,千福４６番地の１,,22,220,4101116,,,2025-10-01,合併による解散等,1080101002283,令和７年１０月１日静岡県裾野市千福４６番地の１ニデックマテリアル株式会社（1080101002283）に合併し解散,2017-08-21,1,,,,,トウキョウマルゼンコウギョウ,0
465,2100002012535,登記記録の閉鎖等,0,2025-10-07,2025-10-01,有限会社タグチ,,有限会社,長野県,小諸市,田町２丁目８番６２号,,20,208,3840028,,,2025-10-01,清算の結了等,,,2015-10-05,1,,,,,タグチ,0
492,2120901018003,登記記録の閉鎖等,0,2025-10-07,2025-09-24,株式会社エスジェイ,,株式会社,大阪府,高槻市,成合南の町５番１号,,27,207,5691013,,,2025-09-24,清算の結了等,,,2015-10-05,1,,,,,エスジェイ,0
537,2200005000758,登記記録の閉鎖等,0,2025-10-07,2025-09-30,御嶽教岐阜照王教会,,その他の設立登記法人,岐阜県,岐阜市,八ツ寺町１丁目１９番地,,21,201,5008825,,,2025-09-30,清算の結了等,,,2015-10-05,1,,,,,,0
546,2240003006695,登記記録の閉鎖等,0,2025-10-07,2025-10-02,合同会社あさひ,,合同会社,広島県,福山市,駅家町万能倉４１６－２－２０１,,34,207,7210000,,,2025-10-02,清算の結了等,,,2024-05-29,1,,,,,アサヒ,0
547,2240005012436,登記記録の閉鎖等,0,2025-10-07,2025-10-02,一般社団法人広島国際青少年協会,,その他の設立登記法人,広島県,広島市中区,八丁堀６番４号,,34,101,7300013,,,2025-10-02,清算の結了等,,,2015-10-05,1,,,,,ヒロシマコクサイセイショウネンキョウカイ,0
561,2290002053998,登記記録の閉鎖等,0,2025-10-07,2025-08-22,有限会社丸福,,有限会社,福岡県,大川市,大字新田１４２０番地の３,,40,212,8310043,,,2025-08-22,清算の結了等,,,2015-10-05,1,,,,,マルフク,0
565,2290801010274,登記記録の閉鎖等,0,2025-10-07,2025-10-02,株式会社俵工業所,,株式会社,福岡県,遠賀郡遠賀町,大字島津４７７番地１,,40,384,8114301,,,2025-10-02,合併による解散等,8010001251583,令和７年９月１日東京都千代田区大手町二丁目３番１号大手町プレイスウエストタワー２４階株式会社ＪＳＳ０２（8010001251583）に合併し解散,2015-10-05,1,,,,,タワラコウギョウショ,0
574,2330002016694,登記記録の閉鎖等,0,2025-10-07,2025-09-30,有限会社高司農園,,有限会社,熊本県,合志市,野々島４３９３番地７７,,43,216,8611103,,,2025-09-30,清算の結了等,,,2015-10-05,1,,,,,タカジノウエン,0
589,2400002008593,登記記録の閉鎖等,0,2025-10-07,2025-10-01,有限会社石鳥谷運送,,有限会社,岩手県,花巻市,石鳥谷町好地第１５地割１４番地,,03,205,0283101,,,2025-10-01,合併による解散等,5400002008599,令和７年１０月１日岩手県花巻市石鳥谷町中寺林第５地割２４番地２６株式会社イシウン（5400002008599）に合併し解散,2015-10-05,1,,,,,イシドリヤウンソウ,0
595,2430001049000,登記記録の閉鎖等,0,2025-10-07,2025-09-18,ふじ商事保険サービス株式会社,,株式会社,北海道,滝川市,新町３丁目１番１５号,,01,225,0730033,,,2025-09-18,清算の結了等,,,2015-10-05,1,,,,,フジショウジホケンサービス,0
624,3010001126113,登記記録の閉鎖等,0,2025-10-07,2025-09-19,株式会社美生社,,株式会社,東京都,中央区,日本橋３丁目８番２号,,13,102,1030027,,,2025-09-19,清算の結了等,,,2015-10-05,1,,,,,ビセイシャ,0
635,3010005033388,登記記録の閉鎖等,0,2025-10-07,2025-10-01,ジェイエルシティホールディング特定目的会社,,その他の設立登記法人,東京都,千代田区,丸の内１丁目４番１号東京共同会計事務所内,,13,101,1000005,,,2025-10-01,清算の結了等,,,2021-05-21,1,,,,,ジェイエルシティホールディング,0
643,3010403027553,登記記録の閉鎖等,0,2025-10-07,2025-09-04,ビーナスインフラファンド合同会社,,合同会社,東京都,港区,元赤坂１丁目１番７号,,13,103,1070051,,,2025-09-04,清算の結了等,,,2022-05-10,1,,,,,ビーナスインフラファンド,0
646,3010405019945,登記記録の閉鎖等,0,2025-10-07,2025-09-04,プラチナホールディング１一般社団法人,,その他の設立登記法人,東京都,港区,虎ノ門３丁目２２番１０－２０１号,,13,103,1050001,,,2025-09-04,清算の結了等,,,2021-06-29,1,,,,,プラチナホールディングワン,0
662,3010802003519,登記記録の閉鎖等,0,2025-10-07,2025-09-29,有限会社加藤工業,,有限会社,東京都,大田区,大森南３丁目１９番１２号,,13,111,1430013,,,2025-09-29,清算の結了等,,,2015-10-05,1,,,,,カトウコウギョウ,0
663,3010901002215,登記記録の閉鎖等,0,2025-10-07,2025-10-03,オーストリア通商株式会社,,株式会社,東京都,世田谷区,等々力７丁目１２番６号,,13,112,1580082,,,2025-10-03,清算の結了等,,,2015-10-05,1,,,,,オーストリアツウショウ,0
664,3010901018252,登記記録の閉鎖等,0,2025-10-07,2025-10-03,株式会社Ｏｆｆｉｃｅ・Ｓｈｉｍａｍｏｔｏ,,株式会社,東京都,世田谷区,太子堂３丁目１番２６号,,13,112,1540004,,,2025-10-03,清算の結了等,,,2015-10-05,1,,,,,,0
666,3010901046633,登記記録の閉鎖等,0,2025-10-07,2025-10-03,ビスポーク株式会社,,株式会社,東京都,世田谷区,梅丘２丁目２３番３６号,,13,112,1540022,,,2025-10-03,清算の結了等,,,2020-07-17,1,,,,,ビスポーク,0
671,3010902014184,登記記録の閉鎖等,0,2025-10-07,2025-10-03,有限会社舛本屋石井酒店,00052911,有限会社,東京都,世田谷区,瀬田２丁目１番２３号,,13,112,1580095,,,2025-10-03,清算の結了等,,,2015-10-05,1,,,,,マスモトヤイシイサケテン,0
672,3010902016040,登記記録の閉鎖等,0,2025-10-07,2025-10-03,有限会社吉村兄弟酒店,,有限会社,東京都,世田谷区,下馬３丁目３０番２９号,,13,112,1540002,,,2025-10-03,清算の結了等,,,2015-10-05,1,,,,,ヨシムラキョウダイサケテン,0
696,3011602006364,登記記録の閉鎖等,0,2025-10-07,2025-09-22,有限会社巧美社,,有限会社,東京都,練馬区,豊玉中１丁目１０番１２号,,13,120,1760013,,,2025-09-22,清算の結了等,,,2015-10-05,1,,,,,コウビシャ,0
708,3013201012462,登記記録の閉鎖等,0,2025-10-07,2025-10-01,株式会社ジーアンドジー,,株式会社,東京都,荒川区,南千住２丁目１６番９号,,13,118,1160003,,,2025-10-01,清算の結了等,,,2015-10-05,1,,,,,,0
741,3030002027928,登記記録の閉鎖等,0,2025-10-07,2025-09-30,有限会社アイエスピー,,有限会社,埼玉県,所沢市,小手指元町１丁目２１番地１０,,11,208,3591147,,,2025-09-30,清算の結了等,,,2015-10-05,1,,,,,アイエスピー,0
753,3040002002921,登記記録の閉鎖等,0,2025-10-07,2025-09-08,有限会社カネサカ,,有限会社,千葉県,千葉市緑区,誉田町３丁目４８番地の４,,12,105,2660005,,,2025-09-08,清算の結了等,,,2015-10-05,1,,,,,カネサカ,0
785,3090001009806,登記記録の閉鎖等,0,2025-10-07,2025-09-29,スバル建材株式会社,,株式会社,山梨県,南都留郡富士河口湖町,船津７６９８番地の１,,19,430,4010301,,,2025-09-29,清算の結了等,,,2015-10-05,1,,,,,スバルケンザイ,0
794,3110001029512,登記記録の閉鎖等,0,2025-10-07,2025-09-30,吉津軽量株式会社,,株式会社,新潟県,新潟市東区,山木戸６丁目２番１８号,,15,102,9500871,,,2025-09-30,清算の結了等,,,2015-10-05,1,,,,,ヨシヅケイリョウ,0
815,3120003014453,登記記録の閉鎖等,0,2025-10-07,2025-10-01,マッケンジー合同会社,,合同会社,大阪府,大阪市此花区,朝日２丁目１８番８号４Ｆ４３７,,27,104,5540011,,,2025-10-01,合併による解散等,7120003015332,令和７年１０月１日大阪府寝屋川市新家一丁目４番３号フェルマー合同会社（7120003015332）に合併し解散,2018-06-27,1,,,,,マッケンジー,0
817,3120003019394,登記記録の閉鎖等,0,2025-10-07,2025-09-29,ＩＭＰＲＥＳＳ合同会社,,合同会社,大阪府,大阪市浪速区,難波中２丁目１０番５２－５０３号,,27,111,5560011,,,2025-09-29,清算の結了等,,,2021-05-14,1,,,,,インプレス,0
827,3120102019254,登記記録の閉鎖等,0,2025-10-07,2025-10-01,大島住宅開発有限会社,,有限会社,大阪府,藤井寺市,御舟町１２番１２号,,27,226,5830021,,,2025-10-01,合併による解散等,5120101048830,令和７年１０月１日大阪府藤井寺市御舟町１２番１２号リコーホーム株式会社（5120101048830）に合併し解散,2015-10-05,1,,,,,オオシマジュウタクカイハツ,0
831,3120902005437,登記記録の閉鎖等,0,2025-10-07,2025-09-24,有限会社エーティエス,,有限会社,大阪府,吹田市,江坂町１丁目２３番５号,,27,205,5640063,,,2025-09-24,清算の結了等,,,2015-10-05,1,,,,,エーティエス,0
843,3140002036158,登記記録の閉鎖等,0,2025-10-07,2025-09-30,有限会社暖ホーム,,有限会社,兵庫県,加古郡播磨町,古田１丁目１番３４号,,28,382,6750146,,,2025-09-30,清算の結了等,,,2015-10-05,1,,,,,ダンホーム,0
844,3140002037197,登記記録の閉鎖等,0,2025-10-07,2025-09-30,有限会社松栄産業,,有限会社,兵庫県,高砂市,曽根町２３３３番地,,28,216,6760082,,,2025-09-30,清算の結了等,,,2015-10-05,1,,,,,ショウエイサンギョウ,0
847,3150001001368,登記記録の閉鎖等,0,2025-10-07,2025-10-01,株式会社大和清掃,,株式会社,奈良県,奈良市,四条大路２丁目２番１０号,,29,201,6308014,,,2025-10-01,清算の結了等,,,2015-10-05,1,,,,,ダイワセイソウ,0
870,3200001023340,登記記録の閉鎖等,0,2025-10-07,2025-09-29,恵東精機株式会社,,株式会社,岐阜県,中津川市,苗木４８６９番地,,21,206,5080101,,,2025-09-29,清算の結了等,,,2015-10-05,1,,,,,,0
880,3230001000551,登記記録の閉鎖等,0,2025-10-07,2025-10-01,株式会社オリンピア,,株式会社,富山県,魚津市,吉島２丁目４番２５号,,16,204,9370041,,,2025-10-01,清算の結了等,,,2015-10-05,1,,,,,オリンピア,0
888,3250002016157,登記記録の閉鎖等,0,2025-10-07,2025-10-02,有限会社周南総合会計,,有限会社,山口県,周南市,代々木通２丁目３番地,,35,215,7450073,,,2025-10-02,清算の結了等,,,2015-10-05,1,,,,,シュウナンソウゴウカイケイ,0
904,3290001083979,登記記録の閉鎖等,0,2025-10-07,2025-09-08,株式会社スリーエスしばた,,株式会社,福岡県,大牟田市,笹原町２丁目２２番地１１,,40,202,8360884,,,2025-09-08,清算の結了等,,,2019-01-23,1,,,,,スリーエスシバタ,0
907,3290801002782,登記記録の閉鎖等,0,2025-10-07,2025-09-30,日生殖産株式会社,,株式会社,福岡県,北九州市小倉北区,上富野３丁目２番８号,,40,106,8020022,,,2025-09-30,合併による解散等,4290801031657,令和７年９月３０日北九州市小倉北区上富野四丁目１番２５号日生殖産株式会社（4290801031657）に合併し解散,2015-10-05,1,,,,,ニッセイショクサン,0
911,3310001004577,登記記録の閉鎖等,0,2025-10-07,2025-10-03,株式会社ＰＡＰＥＬ,,株式会社,長崎県,長崎市,飯香浦町４４９５番地,,42,201,8510254,,,2025-10-03,清算の結了等,,,2015-10-05,1,,,,,パペル,0
918,3320003002669,登記記録の閉鎖等,0,2025-10-07,2025-09-29,合同会社藤喜,,合同会社,大分県,竹田市,大字小塚３７３番地１,00111197,44,208,8796181,,,2025-09-29,清算の結了等,,,2017-08-30,1,,,,,フジキ,0
929,3370802001081,登記記録の閉鎖等,0,2025-10-07,2025-09-19,有限会社ママの店,,有限会社,宮城県,岩沼市,三色吉字亀９５番地の１,,04,211,9892464,,,2025-09-19,清算の結了等,,,2015-10-05,1,,,,,ママノミセ,0
939,3430001070525,登記記録の閉鎖等,0,2025-10-07,2025-10-01,株式会社オイシエ,,株式会社,東京都,千代田区,平河町１丁目６番１５号,,13,101,1020093,,,2025-10-01,合併による解散等,7310002017574,令和７年９月２６日長崎県大村市中里町３９０番地１株式会社不二養土（7310002017574）に合併し解散,2015-12-28,1,,,,,オイシエ,0
960,4010005022571,登記記録の閉鎖等,0,2025-10-07,2025-10-02,一般社団法人日本エアレスキュー促進協議会,,その他の設立登記法人,東京都,中央区,新川２丁目１番５号,,13,102,1040033,,,2025-10-02,清算の結了等,,,2015-10-05,1,,,,,ニホンエアレスキューソクシンキョウギカイ,0
967,4010103000801,登記記録の閉鎖等,0,2025-10-07,2025-09-22,川口建大合同会社,,合同会社,東京都,三鷹市,井の頭１丁目２１－１３浅野荘１０３号室,,13,204,1810001,,,2025-09-22,清算の結了等,,,2015-10-05,1,,,,,カワグチタケヒロ,0
968,4010401110120,登記記録の閉鎖等,0,2025-10-07,2025-10-03,株式会社モーベルファーム養父,,株式会社,兵庫県,養父市,大屋町門野６５番地,,28,222,6670433,,,2025-10-03,合併による解散等,6140001118565,令和７年１０月１日兵庫県丹波篠山市八上内１０－１株式会社モーベルファーム（6140001118565）に合併し解散,2015-10-05,1,,,,,モーベルファームヤブ,0
976,4010405020778,登記記録の閉鎖等,0,2025-10-07,2025-09-04,ジャパンインフラホールディングス２１号一般社団法人,,その他の設立登記法人,東京都,港区,元赤坂１丁目１番７号,,13,103,1070051,,,2025-09-04,清算の結了等,,,2022-03-04,1,,,,,ジャパンインフラホールディングスニジュウイチゴウ,0
977,4010405020844,登記記録の閉鎖等,0,2025-10-07,2025-09-04,ジャパンインフラホールディングス２０号一般社団法人,,その他の設立登記法人,東京都,港区,元赤坂１丁目１番７号,,13,103,1070051,,,2025-09-04,清算の結了等,,,2022-03-25,1,,,,,ジャパンインフラホールディングスニジュウゴウ,0
978,4010405021033,登記記録の閉鎖等,0,2025-10-07,2025-09-04,Ｏインフラホールディングス２号一般社団法人,,その他の設立登記法人,東京都,港区,元赤坂１丁目１番７号,,13,103,1070051,,,2025-09-04,清算の結了等,,,2022-06-01,1,,,,,オーインフラホールディングスニゴウ,0
980,4010501000023,登記記録の閉鎖等,0,2025-10-07,2025-09-22,株式会社東照明,,株式会社,東京都,台東区,蔵前４丁目１７番１０号,,13,106,1110051,,,2025-09-22,清算の結了等,,,2015-10-05,1,,,,,アズマショウメイ,0
982,4010501004973,登記記録の閉鎖等,0,2025-10-07,2025-09-19,株式会社幸,,株式会社,東京都,台東区,雷門１丁目１番１０号,,13,106,1110034,,,2025-09-19,清算の結了等,,,2015-10-05,1,,,,,ミユキ,0
1014,4011103012613,登記記録の閉鎖等,0,2025-10-07,2025-09-01,合同会社ＭＡＺＥ,,合同会社,東京都,新宿区,高田馬場２丁目９番１号天野ビル,,13,104,1690075,,,2025-09-01,清算の結了等,,,2023-01-19,1,,,,,メイズ,0
1019,4011301008181,登記記録の閉鎖等,0,2025-10-07,2025-09-29,株式会社ディプローデータサービス東京,,株式会社,東京都,杉並区,梅里２丁目１番１６号,,13,115,1660011,,,2025-09-29,清算の結了等,,,2015-10-05,1,,,,,ディプローデータサービストウキョウ,0
1025,4011402008551,登記記録の閉鎖等,0,2025-10-07,2025-09-30,有限会社ミサト,,有限会社,東京都,北区,赤羽３丁目２０番５号,,13,117,1150045,,,2025-09-30,清算の結了等,,,2015-10-05,1,,,,,ミサト,0
1026,4011403003097,登記記録の閉鎖等,0,2025-10-07,2025-10-01,合同会社テクテク,,合同会社,東京都,板橋区,前野町５丁目３５－５ＧＲＡＮＤＣＲＥＳＴ３０３,,13,119,1740063,,,2025-10-01,清算の結了等,,,2020-09-02,1,,,,,テクテク,0
1032,4011703003177,登記記録の閉鎖等,0,2025-10-07,2025-10-01,合同会社林直人商事,,合同会社,東京都,江戸川区,西葛西８丁目２番１－１２１０号,,13,123,1340088,,,2025-10-01,清算の結了等,,,2022-06-21,1,Naoto Hayashi Business LLC,Tokyo,"8-2-1-1210, Nishikasai Edogawa-ku",,ハヤシナオトショウジ,0
1047,4020001017731,登記記録の閉鎖等,0,2025-10-07,2025-09-16,末広木材株式会社,,株式会社,神奈川県,横浜市鶴見区,寛政町２２番２１号,,14,101,2300034,,,2025-09-16,清算の結了等,,,2015-10-05,1,,,,,スエヒロモクザイ,0
1068,4030001061976,登記記録の閉鎖等,0,2025-10-07,2025-09-30,株式会社クレイ,,株式会社,埼玉県,北本市,宮内５丁目１１５番地１,,11,233,3640002,,,2025-09-30,清算の結了等,,,2015-10-05,1,,,,,クレイ,0
1076,4030002044914,登記記録の閉鎖等,0,2025-10-07,2025-09-30,有限会社田中商事,,有限会社,埼玉県,草加市,谷塚１丁目１８番５号,,11,221,3400028,,,2025-09-30,清算の結了等,,,2015-10-05,1,,,,,タナカショウジ,0
1103,4070001032809,登記記録の閉鎖等,0,2025-10-07,2025-10-01,株式会社マルタカ,,株式会社,群馬県,太田市,下小林町１４３番地２,,10,205,3730807,,,2025-10-01,清算の結了等,,,2016-11-01,1,,,,,マルタカ,0
1119,4110003001815,登記記録の閉鎖等,0,2025-10-07,2025-09-30,合資会社大翔,,合資会社,新潟県,上越市,東本町５丁目２番１９号,,15,222,9430825,,,2025-09-30,清算の結了等,,,2015-10-05,1,,,,,ダイショウ,0
1130,4120001149531,登記記録の閉鎖等,0,2025-10-07,2025-10-01,御殿山米穀株式会社,,株式会社,大阪府,枚方市,渚西１丁目２２番８号,00045999,27,210,5731178,,,2025-10-01,清算の結了等,,,2015-10-05,1,,,,,ゴテンヤマベイコク,0
1132,4120001217354,登記記録の閉鎖等,0,2025-10-07,2025-09-29,株式会社ＲＥＡＴＴＡ,,株式会社,大阪府,大阪市平野区,長吉長原東３丁目１４番５号,,27,126,5470013,,,2025-09-29,清算の結了等,,,2018-11-26,1,,,,,リアッタ,0
1152,4120901043230,登記記録の閉鎖等,0,2025-10-07,2025-09-29,株式会社Ｔ・Ｓ・Ｓ,,株式会社,大阪府,枚方市,禁野本町１丁目８番２１号,,27,210,5731197,,,2025-09-29,清算の結了等,,,2020-09-18,1,,,,,ティーエスエス,0
1159,4130001042776,登記記録の閉鎖等,0,2025-10-07,2025-10-01,株式会社スカイ企画,,株式会社,京都府,京丹後市,大宮町河辺２３９９番地,,26,212,6292502,,,2025-10-01,合併による解散等,6130001042774,令和７年１０月１日京都府京丹後市大宮町河辺２３９９番地株式会社シマダ（6130001042774）に合併し解散,2015-10-05,1,,,,,スカイキカク,0
1200,4230001013924,登記記録の閉鎖等,0,2025-10-07,2025-10-01,株式会社コクタイ,,株式会社,富山県,射水市,布目沢２０１番地,,16,211,9390418,,,2025-10-01,清算の結了等,,,2015-10-05,1,,,,,コクタイ,0
1202,4230002012850,登記記録の閉鎖等,0,2025-10-07,2025-09-30,有限会社小林電機商会,,有限会社,富山県,氷見市,幸町９番３号,,16,205,9350021,,,2025-09-30,清算の結了等,,,2015-10-05,1,,,,,コバヤシデンキショウカイ,0
1211,4280001002864,登記記録の閉鎖等,0,2025-10-07,2025-10-01,株式会社Ｇｒａｎｄ,,株式会社,島根県,松江市,馬潟町３５４番地１０,,32,201,6900024,,,2025-10-01,合併による解散等,9280001003321,令和７年１０月１日島根県出雲市天神町８６９番地ミシマ産業株式会社（9280001003321）に合併し解散,2015-10-05,1,,,,,グランド,0
1217,4290001069977,登記記録の閉鎖等,0,2025-10-07,2025-09-04,小松商店株式会社,,株式会社,福岡県,飯塚市,菰田西２丁目４番３６号,,40,205,8200017,,,2025-09-04,清算の結了等,,,2015-10-05,1,,,,,コマツショウテン,0
1219,4290003005030,登記記録の閉鎖等,0,2025-10-07,2025-09-09,ヒロセ電工株式会社,,株式会社,福岡県,福岡市南区,的場２丁目２番２１号,,40,134,8111314,,,2025-09-09,清算の結了等,,,2015-10-05,1,,,,,ヒロセデンコウ,0
1228,4320001012966,登記記録の閉鎖等,0,2025-10-07,2025-09-30,株式会社エンジョイアミール,,株式会社,大分県,大分市,大字羽田８６５番地,,44,201,8700942,,,2025-09-30,合併による解散等,9320001005701,令和７年９月３０日大分市大字羽田８６５番地株式会社センターリバー（9320001005701）に合併し解散,2015-10-05,1,,,,,エンジョイアミール,0
1257,4430002061514,登記記録の閉鎖等,0,2025-10-07,2025-09-18,有限会社坂本機鋼,,有限会社,北海道,日高郡新ひだか町,静内緑町８丁目２番３号,,01,610,0560004,,,2025-09-18,清算の結了等,,,2015-10-05,1,,,,,サカモトキコウ,0
1263,4460302003948,登記記録の閉鎖等,0,2025-10-07,2025-10-03,有限会社美山不動産プランニング,,有限会社,北海道,北見市,美山町西２丁目６１番地８,,01,208,0900070,,,2025-10-03,清算の結了等,,,2015-10-05,1,,,,,ミヤマフドウサンプランニング,0
1282,5010001059443,登記記録の閉鎖等,0,2025-10-07,2025-09-22,株式会社安井,,株式会社,東京都,中央区,日本橋堀留町１丁目３番２１号,,13,102,1030012,,,2025-09-22,清算の結了等,,,2015-10-05,1,,,,,ヤスイ,0
1285,5010001200411,登記記録の閉鎖等,0,2025-10-07,2025-09-03,ＨＡＮＺＡＷＡ株式会社,,株式会社,千葉県,東金市,福俵３８９番地福俵ヴィレッジＣ１０７,,12,213,2830812,,,2025-09-03,清算の結了等,,,2019-04-25,1,,,,,ハンザワ,0
1324,5010403027221,登記記録の閉鎖等,0,2025-10-07,2025-09-04,ジャパンインフラ２１号合同会社,,合同会社,東京都,港区,元赤坂１丁目１番７号,,13,103,1070051,,,2025-09-04,清算の結了等,,,2022-03-04,1,,,,,ジャパンインフラニジュウイチゴウ,0
1327,5010405009572,登記記録の閉鎖等,0,2025-10-07,2025-09-25,特定非営利活動法人日本アジア経験交流会,,その他の設立登記法人,東京都,渋谷区,松濤２丁目１６番１６号６０２,,13,113,1500046,,,2025-09-25,清算の結了等,,,2015-10-05,1,,,,,ニホンアジアケイケンコウリュウカイ,0
1343,5010901014357,登記記録の閉鎖等,0,2025-10-07,2025-09-30,株式会社ジェイ・フィールド,,株式会社,埼玉県,蓮田市,西新宿５丁目２７番地３,,11,238,3490141,,,2025-09-30,清算の結了等,,,2015-10-05,1,,,,,ジェイフィールド,0
1357,5011101035516,登記記録の閉鎖等,0,2025-10-07,2025-08-27,株式会社アイネット・アーク,,株式会社,東京都,新宿区,西早稲田１丁目２２番３－２６０５号,,13,104,1690051,,,2025-08-27,清算の結了等,,,2015-10-05,1,,,,,アイネットアーク,0
1366,5011301020326,登記記録の閉鎖等,0,2025-10-07,2025-09-30,株式会社早川美術,,株式会社,東京都,杉並区,松ノ木３丁目１６番１６号,,13,115,1660014,,,2025-09-30,清算の結了等,,,2015-10-05,1,,,,,ハヤカワビジュツ,0
1376,5011701008516,登記記録の閉鎖等,0,2025-10-07,2025-09-12,渡辺繊維工業株式会社,,株式会社,東京都,千代田区,丸の内２丁目２番３号,,13,101,1000005,,,2025-09-12,清算の結了等,,,2015-10-05,1,,,,,ワタナベセンイコウギョウ,0
1379,5011802012706,登記記録の閉鎖等,0,2025-10-07,2025-09-30,有限会社紺野経営研究所,,有限会社,東京都,足立区,千住３丁目２５番６号,,13,121,1200034,,,2025-09-30,清算の結了等,,,2015-10-05,1,,,,,コンノケイエイケンキュウショ,0
1409,5030001107662,登記記録の閉鎖等,0,2025-10-07,2025-09-04,スフィアロココス株式会社,,株式会社,東京都,港区,浜松町２丁目２番１５号,,13,103,1050013,,,2025-09-04,清算の結了等,,,2015-10-05,1,,,,,スフィアロココス,0
1416,5030002023545,登記記録の閉鎖等,0,2025-10-07,2025-09-30,有限会社会津屋酒店,,有限会社,埼玉県,戸田市,笹目１丁目３９番地の１,,11,224,3350034,,,2025-09-30,清算の結了等,,,2015-10-05,1,,,,,アイズヤサケテン,0
1417,5030002036282,登記記録の閉鎖等,0,2025-10-07,2025-09-29,あおばガス有限会社,,有限会社,埼玉県,狭山市,入間川４丁目１５番２１号,,11,215,3501305,,,2025-09-29,清算の結了等,,,2015-10-05,1,,,,,アオバガス,0
1419,5030002064416,登記記録の閉鎖等,0,2025-10-07,2025-09-26,有限会社野尻合成樹脂製作所,,有限会社,埼玉県,和光市,新倉３丁目１６番９号,,11,229,3510115,,,2025-09-26,清算の結了等,,,2015-10-05,1,,,,,ノジリゴウセイジュシセイサクショ,0
1437,5050002025639,登記記録の閉鎖等,0,2025-10-07,2025-09-29,有限会社三光精密,,有限会社,茨城県,古河市,大和田９５７番地の１７,,08,204,3060111,,,2025-09-29,清算の結了等,,,2015-10-05,1,,,,,サンコウセイミツ,0
1454,5080402003530,登記記録の閉鎖等,0,2025-10-07,2025-09-30,シー・テック・インターナショナル有限会社,,有限会社,静岡県,浜松市中央区,三島町１６６１番地の２,,22,138,4300853,,,2025-09-30,清算の結了等,,,2015-10-05,1,,,,,シーテックインターナショナル,0
1455,5080402015146,登記記録の閉鎖等,0,2025-10-07,2025-09-30,盛公産業有限会社,,有限会社,静岡県,浜松市浜名区,高畑８３２番地の１,,22,139,4340034,,,2025-09-30,清算の結了等,,,2015-10-05,1,,,,,セイコウサンギョウ,0
1460,5100005011630,登記記録の閉鎖等,0,2025-10-07,2025-09-29,特定非営利活動法人手をつなぐ親の育成会・小諸,,その他の設立登記法人,長野県,小諸市,大字御影新田２２３８番地１,,20,208,3840808,,,2025-09-29,清算の結了等,,,2015-10-05,1,,,,,テヲツナグオヤノイクセイカイコモロ,0
1465,5120001166451,登記記録の閉鎖等,0,2025-10-07,2025-10-01,株式会社メドテック,,株式会社,大阪府,大阪市中央区,上汐２丁目５番２４号,,27,128,5420064,,,2025-10-01,合併による解散等,8150002009629,令和７年９月２６日奈良県葛城市北花内６１６番地１株式会社マルエスメディカル（8150002009629）に合併し解散,2015-10-05,1,,,,,メドテック,0
1493,5122001022155,登記記録の閉鎖等,0,2025-10-07,2025-10-01,奄美共同住販株式会社,,株式会社,大阪府,藤井寺市,御舟町２番４２号,,27,226,5830021,,,2025-10-01,合併による解散等,5120101048830,令和７年１０月１日大阪府藤井寺市御舟町１２番１２号リコーホーム株式会社（5120101048830）に合併し解散,2015-10-05,1,,,,,アマミキョウドウジュウハン,0
1494,5130001006227,登記記録の閉鎖等,0,2025-10-07,2025-10-02,共栄自動車株式会社,,株式会社,京都府,京都市西京区,樫原五反田２番地５,,26,111,6158131,,,2025-10-02,清算の結了等,,,2015-10-05,1,,,,,キョウエイジドウシャ,0
1500,5140001008528,登記記録の閉鎖等,0,2025-10-07,2025-10-01,シャチフードシステム株式会社,,株式会社,兵庫県,神戸市中央区,元町通３丁目１番１８号,,28,110,6500022,,,2025-10-01,合併による解散等,9140001009514,令和７年１０月１日神戸市中央区元町通三丁目１番１８号寺崎食品産業株式会社（9140001009514）に合併し解散,2015-10-05,1,,,,,シャチフードシステム,0
1507,5140002023518,登記記録の閉鎖等,0,2025-10-07,2025-10-01,有限会社スカイエンジニアリング,,有限会社,兵庫県,神戸市北区,ひよどり台３丁目１５番地の６,,28,109,6511123,,,2025-10-01,清算の結了等,,,2015-10-05,1,,,,,,0
1526,5180001166207,登記記録の閉鎖等,0,2025-10-07,2025-09-19,株式会社新丸,,株式会社,愛知県,名古屋市天白区,植田南１丁目３０６番地,,23,116,4680053,,,2025-09-19,清算の結了等,,,2025-04-04,1,,,,,シンマル,0
1551,5230001010532,登記記録の閉鎖等,0,2025-10-07,2025-09-29,株式会社トーカン,,株式会社,富山県,高岡市,蓮花寺２０６番地の１,,16,202,9330802,,,2025-09-29,清算の結了等,,,2021-07-09,1,,,,,トーカン,0
1555,5240001039091,登記記録の閉鎖等,0,2025-10-07,2025-09-30,株式会社大田原組,,株式会社,広島県,尾道市,向島町１１７６番地の１２,,34,205,7220073,,,2025-09-30,清算の結了等,,,2015-10-05,1,,,,,オオタハラグミ,0
1556,5240001045453,登記記録の閉鎖等,0,2025-10-07,2025-09-30,環境工房株式会社,,株式会社,広島県,福山市,引野町北５丁目１番６号,,34,207,7210941,,,2025-09-30,清算の結了等,,,2015-10-05,1,,,,,カンキョウコウボウ,0
1573,5280002005130,登記記録の閉鎖等,0,2025-10-07,2025-10-02,有限会社イタケンワークス,,有限会社,島根県,出雲市,大津町１１１４番地１,,32,203,6930011,,,2025-10-02,合併による解散等,7280002005129,令和７年１０月１日島根県出雲市大津町１１１４番地１株式会社イタケン（7280002005129）に合併し解散,2015-10-05,1,,,,,イタケンワークス,0
1580,5290002020104,登記記録の閉鎖等,0,2025-10-07,2025-09-09,有限会社復陽薬局,,有限会社,福岡県,福岡市中央区,天神３丁目１０番１１号,,40,133,8100001,,,2025-09-09,清算の結了等,,,2015-10-05,1,,,,,フクヨウヤッキョク,0
1586,5290802007028,登記記録の閉鎖等,0,2025-10-07,2025-09-26,有限会社六甲,,有限会社,福岡県,北九州市門司区,寺内４丁目６番３０号,,40,101,8000015,,,2025-09-26,清算の結了等,,,2015-10-05,1,,,,,ロッコウ,0
1587,5290802020559,登記記録の閉鎖等,0,2025-10-07,2025-10-03,有限会社光建設,,有限会社,福岡県,直方市,大字植木１０６７番地１,,40,204,8220031,,,2025-10-03,清算の結了等,,,2015-10-05,1,,,,,ヒカリケンセツ,0
1598,5330001008566,登記記録の閉鎖等,0,2025-10-07,2025-09-29,株式会社サイプレス,,株式会社,熊本県,熊本市中央区,水前寺４丁目７番３９号,,43,101,8620950,,,2025-09-29,清算の結了等,,,2015-10-05,1,,,,,サイプレス,0
1600,5330002006288,登記記録の閉鎖等,0,2025-10-07,2025-09-25,有限会社大文字,,有限会社,熊本県,熊本市中央区,京町１丁目９番２４号,,43,101,8600078,,,2025-09-25,合併による解散等,7330003000197,令和７年９月２５日熊本市中央区上林町１番２５号株式会社上通第一ビル（7330003000197）に合併し解散,2015-10-05,1,,,,,ダイモンジ,0
1616,5390002016034,登記記録の閉鎖等,0,2025-10-07,2025-10-01,有限会社オフィス２１,,有限会社,山形県,西村山郡河北町,大字溝延字千苅２０番地３,,06,321,9993522,,,2025-10-01,清算の結了等,,,2015-10-05,1,,,,,オフィスニジュウイチ,0
1619,5400501000767,登記記録の閉鎖等,0,2025-10-07,2025-09-22,株式会社むつわ商事,,株式会社,岩手県,一関市,萩荘字鍋倉２番地１,,03,209,0210902,,,2025-09-22,清算の結了等,,,2015-10-05,1,,,,,ムツワショウジ,0
1620,5410002003847,登記記録の閉鎖等,0,2025-10-07,2025-10-06,有限会社よいこのくに宮崎教材社,,有限会社,秋田県,秋田市,新藤田字大所３０番地の３,,05,201,0100826,,,2025-10-06,清算の結了等,,,2015-10-05,1,,,,,ヨイコノクニミヤザキキョウザイシャ,0
1624,5430002004703,登記記録の閉鎖等,0,2025-10-07,2025-09-18,有限会社加賀谷幸藏商店,,有限会社,北海道,札幌市西区,西野六条３丁目１０番１号,,01,107,0630036,,,2025-09-18,清算の結了等,,,2015-10-05,1,,,,,カガヤコウゾウショウテン,0
1625,5430003009759,登記記録の閉鎖等,0,2025-10-07,2025-10-01,合同会社ＢＡＳＥ　ＪＡＰＡＮ,,合同会社,北海道,札幌市北区,北六条西７丁目５番地２２,,01,102,0600806,,,2025-10-01,合併による解散等,4430001021931,令和７年１０月１日札幌市北区北六条西七丁目５番地２２北海道ジェイ・アール都市開発株式会社（4430001021931）に合併し解散,2018-10-03,1,,,,,ベースジャパン,0
1632,5462502000609,登記記録の閉鎖等,0,2025-10-07,2025-10-06,有限会社平田漁業,,有限会社,北海道,目梨郡羅臼町,海岸町３３８番地５,,01,694,0861815,,,2025-10-06,清算の結了等,,,2015-10-05,1,,,,,ヒラタギョギョウ,0
1635,5480001007644,登記記録の閉鎖等,0,2025-10-07,2025-10-01,株式会社西部コンサル,,株式会社,徳島県,三好市,三野町加茂野宮１７２５番地１,,36,208,7712302,,,2025-10-01,清算の結了等,,,2015-10-05,1,,,,,セイブコンサル,0
1648,6010001090538,登記記録の閉鎖等,0,2025-10-07,2025-10-03,松和開発株式会社,,株式会社,東京都,目黒区,目黒本町６丁目１６番３号,,13,110,1520002,,,2025-10-03,合併による解散等,3180001024507,令和７年１０月１日名古屋市天白区焼山二丁目６０８番地ワコウプロモーション株式会社（3180001024507）に合併し解散,2015-10-05,1,,,,,ショウワカイハツ,0
1649,6010001107424,登記記録の閉鎖等,0,2025-10-07,2025-09-18,株式会社アームインターナショナル,,株式会社,東京都,文京区,向丘１丁目９番１８号平山ビル,,13,105,1130023,,,2025-09-18,清算の結了等,,,2015-10-05,1,,,,,アームインターナショナル,0
1655,6010001226728,登記記録の閉鎖等,0,2025-10-07,2025-09-19,ジーエルバレイ株式会社,,株式会社,東京都,中央区,東日本橋２丁目２８番４号日本橋ＣＥＴビル２階,,13,102,1030004,,,2025-09-19,清算の結了等,,,2022-05-20,1,GLValley Inc.,Tokyo,"NihombashiCET Bld.2F, 2-28-4, Higashinihombashi, Chuo ku",,ジーエルバレイ,0
1662,6010002005412,登記記録の閉鎖等,0,2025-10-07,2025-09-12,有限会社平成酒販,,有限会社,東京都,文京区,本駒込２丁目１９番４－１０２号,,13,105,1130021,,,2025-09-12,清算の結了等,,,2015-10-05,1,,,,,ヘイセイシュハン,0
1663,6010003030005,登記記録の閉鎖等,0,2025-10-07,2025-09-26,合同会社日本ウインドファーム２,,合同会社,東京都,品川区,東品川２丁目２番４号,,13,109,1400002,,,2025-09-26,清算の結了等,,,2019-06-10,1,,,,,ニホンウインドファームツー,0
1667,6010401041421,登記記録の閉鎖等,0,2025-10-07,2025-09-02,株式会社アルコネット,,株式会社,東京都,港区,浜松町１丁目２２番１号,,13,103,1050013,,,2025-09-02,清算の結了等,,,2015-10-05,1,,,,,アルコネット,0
1675,6010401175269,登記記録の閉鎖等,0,2025-10-07,2025-09-04,株式会社ごはんデリ,,株式会社,東京都,港区,新橋２丁目２０番１５号新橋駅前ビル１号館４階,,13,103,1050004,,,2025-09-04,清算の結了等,,,2023-06-27,1,,,,,ゴハンデリ,0
1711,6011105009894,登記記録の閉鎖等,0,2025-10-07,2025-09-01,一般社団法人Ｇ＆Ｔ笑顔の会,,その他の設立登記法人,東京都,新宿区,高田馬場３丁目１番５号サンパティオ高田馬場３０９号室,,13,104,1690075,,,2025-09-01,清算の結了等,,,2021-08-04,1,,,,,ジーアンドティーエガオノカイ,0
1712,6011202000095,登記記録の閉鎖等,0,2025-10-07,2025-09-22,有限会社アオキ,,有限会社,東京都,中野区,中野５丁目５２番１５号－１１６,,13,114,1640001,,,2025-09-22,清算の結了等,,,2015-10-05,1,,,,,アオキ,0
1719,6011601017491,登記記録の閉鎖等,0,2025-10-07,2025-09-12,株式会社アジアンマーケット企画,,株式会社,東京都,千代田区,九段北３丁目２番４号,,13,101,1020073,,,2025-09-12,清算の結了等,,,2015-10-05,1,,,,,アジアンマーケットキカク,0
1727,6011802026812,登記記録の閉鎖等,0,2025-10-07,2025-10-01,有限会社ラーナー,,有限会社,東京都,葛飾区,堀切３丁目９番６号,,13,122,1240006,,,2025-10-01,清算の結了等,,,2015-10-05,1,,,,,,0
1749,6021001049416,登記記録の閉鎖等,0,2025-10-07,2025-09-16,株式会社アイディ,,株式会社,神奈川県,大和市,上和田１６８９番地７,,14,213,2420014,,,2025-09-16,清算の結了等,,,2015-10-05,1,,,,,アイディ,0
1762,6030001146635,登記記録の閉鎖等,0,2025-10-07,2025-09-30,株式会社ＭＵＫ,,株式会社,埼玉県,川口市,大字東本郷１５１４－１,,11,203,3340063,,,2025-09-30,清算の結了等,,,2022-02-03,1,,,,,エムユウケイ,0
1765,6030002022199,登記記録の閉鎖等,0,2025-10-07,2025-09-29,有限会社ケーエス商会,,有限会社,埼玉県,蓮田市,上２丁目１３番５号,,11,238,3490122,,,2025-09-29,清算の結了等,,,2015-10-05,1,,,,,ケーエスショウカイ,0
1768,6040001111299,登記記録の閉鎖等,0,2025-10-07,2025-09-17,株式会社リーク,,株式会社,千葉県,八千代市,米本２２５２番地４９、１棟２号,,12,221,2760015,,,2025-09-17,清算の結了等,,,2019-10-31,1,,,,,リーク,0
1801,6110001034996,登記記録の閉鎖等,0,2025-10-07,2025-09-25,株式会社Ｌｅａｆ,,株式会社,新潟県,五泉市,横町３丁目３番５号,,15,218,9591874,,,2025-09-25,清算の結了等,,,2020-07-14,1,,,,,リーフ,0
1823,6120005022781,登記記録の閉鎖等,0,2025-10-07,2025-10-02,ＮＰＯ法人ＧＯ－ＥＮ,,その他の設立登記法人,大阪府,大阪市平野区,平野上町１丁目５－１０,,27,126,5470045,,,2025-10-02,清算の結了等,,,2022-02-04,1,,,,,ゴエン,0
1834,6120901018536,登記記録の閉鎖等,0,2025-10-07,2025-10-01,株式会社ベストリサイクル,,株式会社,兵庫県,芦屋市,浜風町３番７号,,28,206,6590032,,,2025-10-01,清算の結了等,,,2015-10-05,1,,,,,ベストリサイクル,0
1851,6140001057722,登記記録の閉鎖等,0,2025-10-07,2025-09-30,井口食品株式会社,,株式会社,兵庫県,姫路市,網干区興浜５２５番地の１,,28,201,6711241,,,2025-09-30,清算の結了等,,,2015-10-05,1,,,,,イグチショクヒン,0
1859,6140002009128,登記記録の閉鎖等,0,2025-10-07,2025-09-30,有限会社広野アルミ鋳造所,,有限会社,兵庫県,神戸市長田区,細田町４丁目２番１１号,,28,106,6530835,,,2025-09-30,清算の結了等,,,2015-10-05,1,,,,,ヒロノアルミチュウゾウショ,0
1860,6150001001316,登記記録の閉鎖等,0,2025-10-07,2025-10-01,株式会社田中公栄堂,,株式会社,奈良県,奈良市,北之庄町４１番地の１,,29,201,6308451,,,2025-10-01,合併による解散等,4150001008040,令和７年１０月１日奈良市北之庄町４１番地の２株式会社キノシタ（4150001008040）に合併し解散,2015-10-05,1,,,,,タナカコウエイドウ,0
1893,6200001028849,登記記録の閉鎖等,0,2025-10-07,2025-10-01,株式会社一心,,株式会社,岐阜県,揖斐郡池田町,藤代２６７番地の１,,21,404,5032429,,,2025-10-01,合併による解散等,3200001034932,令和７年１０月１日岐阜市薮田南五丁目６番３号株式会社ＭＯＲＩ　ＨＤ（3200001034932）に合併し解散,2015-10-05,1,,,,,イッシン,0
1894,6200001037180,登記記録の閉鎖等,0,2025-10-07,2025-10-01,社会医療機構株式会社,,株式会社,静岡県,富士市,松岡３２６番地１アルカンシェル１階,,22,210,4160909,,,2025-10-01,合併による解散等,1040001118497,令和７年１０月１日静岡県富士市松岡３２６番地１アルカンシェル２Ｄインフラストラクチャー株式会社（1040001118497）に合併し解散,2020-02-28,1,,,,,シャカイイリョウキコウ,0
1896,6210001003248,登記記録の閉鎖等,0,2025-10-07,2025-10-01,福種株式会社,,株式会社,福井県,福井市,開発５丁目２００４番地,,18,201,9100842,,,2025-10-01,合併による解散等,9210001004540,令和７年１０月１日福井市開発五丁目２００４番地福井シード株式会社（9210001004540）に合併し解散,2015-10-05,1,,,,,フクタネ,0
1898,6220001013304,登記記録の閉鎖等,0,2025-10-07,2025-09-30,株式会社東西商事,,株式会社,石川県,加賀市,大聖寺南町ホ２番地の１,,17,206,9220811,,,2025-09-30,清算の結了等,,,2015-10-05,1,,,,,トウザイショウジ,0
1902,6240001024860,登記記録の閉鎖等,0,2025-10-07,2025-10-01,広島ガス三次株式会社,,株式会社,広島県,三次市,東酒屋町１４２４番地１,,34,209,7280023,,,2025-10-01,合併による解散等,8240001037068,令和７年１０月１日広島県安芸郡海田町明神町２番１１８号広島ガスプロパン株式会社（8240001037068）に合併し解散,2015-10-05,1,,,,,ヒロシマガスミヨシ,0
1903,6240001034273,登記記録の閉鎖等,0,2025-10-07,2025-09-30,株式会社シンセリティ,,株式会社,広島県,府中市,栗柄町１２２４番地の２,,34,208,7260023,,,2025-09-30,清算の結了等,,,2015-10-05,1,,,,,シンセリティ,0
1919,6290001055802,登記記録の閉鎖等,0,2025-10-07,2025-10-03,株式会社タナチョー福北センター,,株式会社,福岡県,福岡市博多区,三筑１丁目６番２２号,,40,132,8120887,,,2025-10-03,合併による解散等,9010001224902,令和７年９月１日東京都中央区日本橋室町三丁目２番１号株式会社タナチョー（9010001224902）に合併し解散,2015-10-05,1,,,,,タナチョーフクホクセンター,0
1925,6290802011417,登記記録の閉鎖等,0,2025-10-07,2025-09-26,有限会社タカセ設備,,有限会社,福岡県,北九州市小倉北区,片野４丁目２３番７号,,40,106,8020064,,,2025-09-26,清算の結了等,,,2015-10-05,1,,,,,タカセセツビ,0
1934,6340005005112,登記記録の閉鎖等,0,2025-10-07,2025-10-02,出水たばこ販売協同組合,,その他の設立登記法人,鹿児島県,出水市,本町５番３３号,,46,208,8990205,,,2025-10-02,清算の結了等,,,2015-10-05,1,,,,,イズミタバコハンバイ,0
1940,6360001018974,登記記録の閉鎖等,0,2025-10-07,2025-10-01,株式会社ヒロエンターテイメント,,株式会社,沖縄県,うるま市,字赤道６８０番地６,,47,213,9042245,,,2025-10-01,清算の結了等,,,2015-10-05,1,,,,,ヒロエンターテイメント,0
1946,6390001002653,登記記録の閉鎖等,0,2025-10-07,2025-10-01,株式会社エヴァハウジング,,株式会社,山形県,山形市,成沢西２丁目９番１５号,,06,201,9902339,,,2025-10-01,清算の結了等,,,2015-10-05,1,,,,,エヴァハウジング,0
1948,6390001015259,登記記録の閉鎖等,0,2025-10-07,2025-10-01,株式会社ＮＳ東北,,株式会社,山形県,山形市,長町２丁目３番１７号,,06,201,9900811,,,2025-10-01,合併による解散等,4390001012547,令和７年１０月１日山形市長町二丁目３番１７号株式会社金内勝彦設計工房（4390001012547）に合併し解散,2018-04-04,1,,,,,エヌエストウホク,0
1980,6480001000771,登記記録の閉鎖等,0,2025-10-07,2025-10-02,株式会社サナス,,株式会社,徳島県,徳島市,出来島本町２丁目４２番地６,,36,201,7700823,,,2025-10-02,合併による解散等,4500001001991,令和７年１０月１日愛媛県松山市南吉田町２２０９番地１株式会社サナス（4500001001991）に合併し解散,2015-10-05,1,,,,,サナス,0
1984,6500001005470,登記記録の閉鎖等,0,2025-10-07,2025-10-01,株式会社愛キャリアながさき,,株式会社,愛媛県,松山市,花園町５番地１,,38,201,7900005,,,2025-10-01,清算の結了等,,,2015-10-05,1,,,,,アイキャリアナガサキ,0
1994,7010001187218,登記記録の閉鎖等,0,2025-10-07,2025-09-17,株式会社リバースプラス,,株式会社,東京都,台東区,寿３丁目９番５号,,13,106,1110042,,,2025-09-17,合併による解散等,1010001029557,令和７年９月１日東京都台東区寿三丁目９番５号株式会社Ｒｅｂｉｒｔｈ（1010001029557）に合併し解散,2017-10-26,1,,,,,リバースプラス,0
2004,7010002026085,登記記録の閉鎖等,0,2025-10-07,2025-09-18,有限会社薮そば,,有限会社,東京都,中央区,日本橋浜町２丁目５番３号,,13,102,1030007,,,2025-09-18,清算の結了等,,,2015-10-05,1,,,,,,0
2005,7010003033072,登記記録の閉鎖等,0,2025-10-07,2025-09-18,デルタＭＬ合同会社,,合同会社,東京都,千代田区,丸の内１丁目４番１号東京共同会計事務所内,,13,101,1000005,,,2025-09-18,清算の結了等,,,2020-09-17,1,,,,,デルタエムエル,0
2012,7010005031594,登記記録の閉鎖等,0,2025-10-07,2025-10-03,三郷３特定目的会社,,その他の設立登記法人,東京都,千代田区,飯田橋４丁目７番１号結和税理士法人内,,13,101,1020072,,,2025-10-03,清算の結了等,,,2020-03-16,1,,,,,ミサトスリー,0
2016,7010401140437,登記記録の閉鎖等,0,2025-10-07,2025-09-02,株式会社ＳＰＡＣＥＴＯＤＡＹ,,株式会社,東京都,港区,麻布台１丁目３番１号,,13,103,1060041,,,2025-09-02,清算の結了等,,,2018-08-23,1,,,,,スペーストゥデイ,0
2018,7010403023714,登記記録の閉鎖等,0,2025-10-07,2025-09-04,Ｃｌｏｕｄｓｏｕｔｈ合同会社,,合同会社,東京都,港区,浜松町２丁目２番１５号,,13,103,1050013,,,2025-09-04,清算の結了等,,,2020-09-14,1,,,,,クラウドサウス,0
2030,7010701020173,登記記録の閉鎖等,0,2025-10-07,2025-09-19,株式会社住まい安心ラボ,,株式会社,東京都,千代田区,内神田１丁目１０番１号,,13,101,1010047,,,2025-09-19,清算の結了等,,,2015-10-05,1,,,,,スマイアンシンラボ,0
2034,7010801022838,登記記録の閉鎖等,0,2025-10-07,2025-09-30,株式会社二輪ラック,,株式会社,東京都,大田区,南六郷１丁目２０番１０号,,13,111,1440045,,,2025-09-30,清算の結了等,,,2015-10-05,1,,,,,ニリンラック,0
2036,7010802008571,登記記録の閉鎖等,0,2025-10-07,2025-09-30,有限会社大松商店,,有限会社,東京都,大田区,西蒲田５丁目１１番２２号,,13,111,1440051,,,2025-09-30,清算の結了等,,,2015-10-05,1,,,,,オオマツショウテン,0
2037,7010901038536,登記記録の閉鎖等,0,2025-10-07,2025-10-01,株式会社ノイズ,,株式会社,東京都,世田谷区,梅丘１丁目５９番２７号,,13,112,1540022,,,2025-10-01,清算の結了等,,,2016-07-26,1,,,,,ノイズ,0
2044,7011001136123,登記記録の閉鎖等,0,2025-10-07,2025-09-02,株式会社ミギテック,,株式会社,東京都,渋谷区,東１丁目２２番１１号,,13,113,1500011,,,2025-09-02,合併による解散等,7010401140676,令和７年８月３１日東京都渋谷区東一丁目２２番１１号株式会社ミギナナメウエ（7010401140676）に合併し解散,2020-10-02,1,,,,,ミギテック,0
2073,7013305003552,登記記録の閉鎖等,0,2025-10-07,2025-09-25,特定非営利活動法人カラム,,その他の設立登記法人,東京都,豊島区,千早２丁目１８番４号,,13,116,1710044,,,2025-09-25,清算の結了等,,,2023-12-11,1,,,,,カラム,0
2074,7013402007076,登記記録の閉鎖等,0,2025-10-07,2025-09-19,有限会社Ｋａｍ’ｓ,,有限会社,東京都,日野市,南平２丁目４３番地の４７,,13,212,1910041,,,2025-09-19,清算の結了等,,,2015-10-05,1,,,,,カムズ,0
2090,7030002064703,登記記録の閉鎖等,0,2025-10-07,2025-09-26,有限会社エム・エイチ企画,,有限会社,埼玉県,朝霞市,根岸台６丁目７番１９号,,11,227,3510005,,,2025-09-26,清算の結了等,,,2015-10-05,1,,,,,エムエイチキカク,0
2132,7120001093454,登記記録の閉鎖等,0,2025-10-07,2025-10-02,日本ユーザック株式会社,,株式会社,大阪府,大阪市中央区,森ノ宮中央２丁目７番２０号,,27,128,5400003,,,2025-10-02,合併による解散等,1011001107146,令和７年９月１日東京都渋谷区神宮前二丁目３４番１７号ＬＥＤ　ＴＯＫＹＯ株式会社（1011001107146）に合併し解散,2015-10-05,1,,,,,ニホンユーザック,0
2145,7120002079428,登記記録の閉鎖等,0,2025-10-07,2025-09-29,有限会社扇谷製作所,,有限会社,大阪府,門真市,打越町１６番１号,,27,223,5710029,,,2025-09-29,清算の結了等,,,2015-10-05,1,,,,,オウギタニセイサクショ,0
2176,7140001122566,登記記録の閉鎖等,0,2025-10-07,2025-10-01,フジッコＮＥＷデリカ株式会社,,株式会社,兵庫県,神戸市中央区,港島中町６丁目１３番地４,,28,110,6500046,,,2025-10-01,合併による解散等,9140001010604,令和７年１０月１日神戸市中央区港島中町六丁目１３番地４フジッコ株式会社（9140001010604）に合併し解散,2021-08-05,1,,,,,フジッコニューデリカ,0
2184,7140003020495,登記記録の閉鎖等,0,2025-10-07,2025-09-30,南九州ソーラー合同会社,,合同会社,兵庫県,神戸市中央区,御幸通８丁目１番６号,,28,110,6510087,,,2025-09-30,清算の結了等,,,2024-05-01,1,,,,,ミナミキュウシュウソーラー,0
2189,7180001043817,登記記録の閉鎖等,0,2025-10-07,2025-10-02,株式会社食文化研究所,,株式会社,愛知県,名古屋市守山区,向台３丁目１８０７番地,,23,113,4630036,,,2025-10-02,合併による解散等,5180001000563,令和７年１０月１日名古屋市守山区向台三丁目１８０７番地株式会社ショクブン（5180001000563）に合併し解散,2015-10-05,1,,,,,ショクブンカケンキュウショ,0
2193,7180001137651,登記記録の閉鎖等,0,2025-10-07,2025-09-17,株式会社岩,,株式会社,愛知県,名古屋市南区,泉楽通２丁目２４番地,,23,112,4570852,,,2025-09-17,清算の結了等,,,2019-08-09,1,,,,,イワ,0
2210,7200002003767,登記記録の閉鎖等,0,2025-10-07,2025-09-30,有限会社ピース美術印刷工業,,有限会社,岐阜県,岐阜市,正木１９７８番地の７６,,21,201,5020857,,,2025-09-30,清算の結了等,,,2015-10-05,1,,,,,ピースビジュツインサツコウギョウ,0
2223,7250002000537,登記記録の閉鎖等,0,2025-10-07,2025-10-01,有限会社桑本商店,,有限会社,山口県,山口市,阿東生雲東分１３６６番地,,35,203,7591231,,,2025-10-01,清算の結了等,,,2015-10-05,1,,,,,クワモトショウテン,0
2229,7270002002077,登記記録の閉鎖等,0,2025-10-07,2025-10-01,有限会社鳥取水共社,,有限会社,鳥取県,鳥取市,賀露町西４丁目１８０６,,31,201,6800908,,,2025-10-01,清算の結了等,,,2015-10-05,1,,,,,トットリスイキョウシャ,0
2233,7290001035687,登記記録の閉鎖等,0,2025-10-07,2025-09-11,株式会社キッチン生活,,株式会社,福岡県,福岡市南区,玉川町６番１号,,40,134,8150037,,,2025-09-11,清算の結了等,,,2015-10-05,1,,,,,キッチンセイカツ,0
2254,7330002005734,登記記録の閉鎖等,0,2025-10-07,2025-09-29,有限会社清晃ビル管理,,有限会社,熊本県,熊本市北区,龍田４丁目１６番２０号,,43,105,8618006,,,2025-09-29,清算の結了等,,,2015-10-05,1,,,,,セイコウビルカンリ,0
2258,7350001017860,登記記録の閉鎖等,0,2025-10-07,2025-09-30,株式会社Ｗｅｉｒｄｏ．Ｌｏｌ,,株式会社,宮崎県,宮崎市,下北方町常盤元１０３７番地１,,45,201,8800035,,,2025-09-30,清算の結了等,,,2022-07-20,1,,,,,ウィアドー,0
2277,7400001004399,登記記録の閉鎖等,0,2025-10-07,2025-09-25,株式会社深沢ツール,,株式会社,岩手県,滝沢市,大釜風林３番地１７,,03,216,0200757,,,2025-09-25,清算の結了等,,,2015-10-05,1,,,,,フカザワツール,0
2280,7410001007624,登記記録の閉鎖等,0,2025-10-07,2025-10-02,株式会社渡部設備,,株式会社,秋田県,能代市,字東大瀬４８番地２６,,05,202,0160839,,,2025-10-02,清算の結了等,,,2015-10-05,1,,,,,ワタナベセツビ,0
2282,7410002002789,登記記録の閉鎖等,0,2025-10-07,2025-10-02,有限会社豊田薬品商事,,有限会社,秋田県,秋田市,金足追分字海老穴２６７番地,,05,201,0100126,,,2025-10-02,清算の結了等,,,2015-10-05,1,,,,,トヨタヤクヒンショウジ,0
2287,7430001087111,登記記録の閉鎖等,0,2025-10-07,2025-10-01,株式会社クリエスタ,,株式会社,北海道,札幌市中央区,南一条西１６丁目１番地３２３春野ビル３Ｆ,,01,101,0600061,,,2025-10-01,清算の結了等,,,2022-07-27,1,,,,,クリエスタ,0
2293,7430005013055,登記記録の閉鎖等,0,2025-10-07,2025-09-10,一般社団法人Ｓｈａｌｏｍ　ＹＯＳＨＩＴＯ,,その他の設立登記法人,北海道,登別市,新川町３丁目１番地２７,,01,230,0590015,,,2025-09-10,清算の結了等,,,2017-03-03,1,,,,,シャロームヨシト,0
2294,7440003001317,登記記録の閉鎖等,0,2025-10-07,2025-10-02,合同会社大門ひつじ亭,,合同会社,北海道,函館市,時任町１４番４号,,01,202,0400012,,,2025-10-02,清算の結了等,,,2020-02-25,1,,,,,ダイモンヒツジテイ,0
2296,7460001004022,登記記録の閉鎖等,0,2025-10-07,2025-10-02,株式会社リストム,,株式会社,北海道,釧路市,益浦２丁目５番１２号,,01,206,0850803,,,2025-10-02,清算の結了等,,,2015-10-05,1,,,,,リストム,0
2300,7480001001629,登記記録の閉鎖等,0,2025-10-07,2025-10-01,株式会社エヌエス,,株式会社,徳島県,徳島市,津田海岸町５番４３号,,36,201,7708001,,,2025-10-01,清算の結了等,,,2015-10-05,1,,,,,エヌエス,0
2303,7500001024833,登記記録の閉鎖等,0,2025-10-07,2025-09-29,ＮＩＡ株式会社,,株式会社,愛媛県,宇和島市,吉田町沖村甲１９６７番地,,38,203,7993751,,,2025-09-29,清算の結了等,,,2023-03-31,1,,,,,ニア,0
2311,8010001049771,登記記録の閉鎖等,0,2025-10-07,2025-09-18,ダイナフレックス株式会社,,株式会社,東京都,中央区,日本橋浜町２丁目１８番５号藤光ビル３Ｆ,,13,102,1030007,,,2025-09-18,清算の結了等,,,2015-10-05,1,,,,,ダイナフレックス,0
2314,8010001146833,登記記録の閉鎖等,0,2025-10-07,2025-10-03,株式会社翼,,株式会社,東京都,新宿区,下宮比町２番６－５Ｆ,,13,104,1620822,,,2025-10-03,合併による解散等,1040002047407,令和７年９月２日千葉県松戸市本町２０番地１３株式会社東進商興（1040002047407）に合併し解散,2015-10-05,1,,,,,ツバサ,0
2333,8010003020887,登記記録の閉鎖等,0,2025-10-07,2025-09-22,株式会社ペダルノート,,株式会社,東京都,豊島区,南池袋４丁目２０番９号,,13,116,1710022,,,2025-09-22,清算の結了等,,,2015-10-05,1,,,,,ペダルノート,0
2337,8010005030182,登記記録の閉鎖等,0,2025-10-07,2025-09-26,一般社団法人日本ウインドパワー,,その他の設立登記法人,東京都,品川区,東品川２丁目２番４号,,13,109,1400002,,,2025-09-26,清算の結了等,,,2019-05-20,1,,,,,ニホンウインドパワー,0
2340,8010401138736,登記記録の閉鎖等,0,2025-10-07,2025-09-04,ＭＯＯＲＥＲ　ＪＡＰＡＮ株式会社,,株式会社,東京都,港区,六本木７丁目７番７号トライセブン六本木８Ｆ,,13,103,1060032,,,2025-09-04,清算の結了等,,,2018-05-31,1,,,,,ムーレージャパン,0
2342,8010403027689,登記記録の閉鎖等,0,2025-10-07,2025-09-04,Ｏインフラファンド２号合同会社,,合同会社,東京都,港区,元赤坂１丁目１番７号,,13,103,1070051,,,2025-09-04,清算の結了等,,,2022-06-01,1,,,,,オーインフラファンドニゴウ,0
2346,8010501052432,登記記録の閉鎖等,0,2025-10-07,2025-09-16,株式会社ＡＩベース,,株式会社,東京都,台東区,竜泉３丁目５番１－５０１号,,13,106,1100012,,,2025-09-16,清算の結了等,,,2024-06-10,1,,,,,エーアイベース,0
2355,8010701031582,登記記録の閉鎖等,0,2025-10-07,2025-10-01,株式会社ＣＬＡＳＳＩＣＡ　ｄｅｓｉｇｎ,,株式会社,東京都,品川区,小山６丁目５番１４－４０４号,,13,109,1420062,,,2025-10-01,清算の結了等,,,2015-11-09,1,,,,,クラシカデザイン,0
2364,8010902012472,登記記録の閉鎖等,0,2025-10-07,2025-10-03,有限会社久野左官工業所,,有限会社,東京都,世田谷区,宇奈根１丁目７番４号,,13,112,1570068,,,2025-10-03,清算の結了等,,,2015-10-05,1,,,,,クノサカンコウギョウショ,0
2369,8011001090542,登記記録の閉鎖等,0,2025-10-07,2025-09-29,パシフィック・スター株式会社,,株式会社,東京都,大田区,羽田空港１丁目７番１号,,13,111,1440041,,,2025-09-29,清算の結了等,,,2015-10-05,1,,,,,パシフィックスター,0
2383,8011101032601,登記記録の閉鎖等,0,2025-10-07,2025-09-01,株式会社レオプロダクト,,株式会社,東京都,新宿区,下宮比町２番１４号飯田橋ＫＳビル２階,,13,104,1620822,,,2025-09-01,清算の結了等,,,2015-10-05,1,,,,,レオプロダクト,0
2384,8011101043284,登記記録の閉鎖等,0,2025-10-07,2025-10-01,株式会社豆蔵,,株式会社,東京都,新宿区,西新宿２丁目１番１号,,13,104,1600023,,,2025-10-01,合併による解散等,6011101093174,令和７年１０月１日東京都新宿区西新宿二丁目１番１号株式会社豆蔵（6011101093174）に合併し解散,2015-10-05,1,,,,,マメゾウ,0
2385,8011101055346,登記記録の閉鎖等,0,2025-10-07,2025-10-01,株式会社エムアイ・アンド・エムオー・リッチー,,株式会社,東京都,荒川区,西尾久８丁目２９番８号,,13,118,1160011,,,2025-10-01,清算の結了等,,,2015-10-05,1,,,,,エムアイアンドエムオーリッチー,0
2403,8011801017950,登記記録の閉鎖等,0,2025-10-07,2025-10-01,新興プレス株式会社,,株式会社,東京都,葛飾区,新宿１丁目１３番１０号,,13,122,1250051,,,2025-10-01,清算の結了等,,,2015-10-05,1,,,,,,0
2429,8030001126445,登記記録の閉鎖等,0,2025-10-07,2025-09-30,株式会社ピロティ,,株式会社,埼玉県,八潮市,大瀬１丁目１番１－３０３号,,11,234,3400822,,,2025-09-30,清算の結了等,,,2018-07-06,1,,,,,ピロティ,0
2433,8030002018138,登記記録の閉鎖等,0,2025-10-07,2025-09-30,有限会社おさむこーぽれーしょん,,有限会社,埼玉県,さいたま市北区,別所町１３０番地１２,,11,102,3310821,,,2025-09-30,清算の結了等,,,2015-10-05,1,,,,,オサムコーポレーション,0
2438,8030002114465,登記記録の閉鎖等,0,2025-10-07,2025-09-30,有限会社良庵,,有限会社,埼玉県,熊谷市,中西１丁目６番１２号,,11,202,3600013,,,2025-09-30,清算の結了等,,,2015-10-05,1,,,,,リョウアン,0
2448,8040002032377,登記記録の閉鎖等,0,2025-10-07,2025-09-29,有限会社市川テレビ,,有限会社,千葉県,市川市,曽谷５丁目６番５号,,12,203,2720832,,,2025-09-29,清算の結了等,,,2015-10-05,1,,,,,イチカワテレビ,0
2468,8080002015163,登記記録の閉鎖等,0,2025-10-07,2025-09-30,有限会社杉山繃帯,00067560,有限会社,静岡県,牧之原市,細江１８５２番地１,,22,226,4210421,,,2025-09-30,清算の結了等,,,2015-10-05,1,,,,,スギヤマホウタイ,0
2470,8080102016788,登記記録の閉鎖等,0,2025-10-07,2025-09-30,有限会社佐野修工業,,有限会社,静岡県,富士宮市,大鹿窪３８３番地の７,,22,207,4190303,,,2025-09-30,清算の結了等,,,2015-10-05,1,,,,,サノシュウコウギョウ,0
2471,8080102021680,登記記録の閉鎖等,0,2025-10-07,2025-09-30,有限会社かいとく丸,,有限会社,静岡県,賀茂郡松崎町,岩地３６３番地の３,,22,305,4103617,,,2025-09-30,清算の結了等,,,2015-10-05,1,,,,,カイトクマル,0
2477,8090002010510,登記記録の閉鎖等,0,2025-10-07,2025-09-30,有限会社ミタケ,,有限会社,山梨県,都留市,中央３丁目６番９号,,19,204,4020052,,,2025-09-30,清算の結了等,,,2015-10-05,1,,,,,ミタケ,0
2488,8120001112386,登記記録の閉鎖等,0,2025-10-07,2025-10-01,株式会社ＯＣ－Ｊ,,株式会社,大阪府,大阪市北区,堂島１丁目３番３４号,,27,127,5300003,,,2025-10-01,合併による解散等,2120001135104,令和７年１０月１日大阪市北区堂山町４番１５号株式会社ジャパンフーズコーポレーション（2120001135104）に合併し解散,2015-10-05,1,,,,,オーシージェイ,0
2498,8120003022939,登記記録の閉鎖等,0,2025-10-07,2025-09-30,ｏｎｅ　ｓｔｅｐ合同会社,,合同会社,大阪府,守口市,大日東町３４番８―１３０５号,,27,209,5700016,,,2025-09-30,清算の結了等,,,2022-11-24,1,,,,,ワンステップ,0
2510,8130001020571,登記記録の閉鎖等,0,2025-10-07,2025-10-01,日下株式会社,,株式会社,京都府,京都市中京区,猪熊通三条下る三条猪熊町６３５番地,,26,104,6048334,,,2025-10-01,清算の結了等,,,2015-10-05,1,,,,,クサカ,0
2518,8130005012607,登記記録の閉鎖等,0,2025-10-07,2025-09-29,特定非営利活動法人みんなのＮＰＯ,,その他の設立登記法人,京都府,京都市上京区,寺之内通新町東入古木町４１１番地リソシエ今出川聚楽邸１０８号,,26,102,6020026,,,2025-09-29,清算の結了等,,,2015-10-05,1,,,,,ミンナノエヌピーオー,0
2527,8140003016443,登記記録の閉鎖等,0,2025-10-07,2025-09-29,リブレ合同会社,,合同会社,兵庫県,川西市,中央町１８番１３号,,28,217,6660016,,,2025-09-29,清算の結了等,,,2021-06-22,1,,,,,リブレ,0
2533,8180001039293,登記記録の閉鎖等,0,2025-10-07,2025-09-18,日本経営指導協会株式会社,,株式会社,愛知県,名古屋市中区,栄３丁目３５番２１号,,23,106,4600008,,,2025-09-18,清算の結了等,,,2015-10-05,1,,,,,ニホンケイエイシドウキョウカイ,0
2550,8180005019168,登記記録の閉鎖等,0,2025-10-07,2025-09-18,一般社団法人福祉映像技術協会,,その他の設立登記法人,愛知県,名古屋市瑞穂区,北原町１丁目７番地の１２,,23,108,4670811,,,2025-09-18,清算の結了等,,,2021-03-05,1,,,,,フクシエイゾウギジュツキョウカイ,0
2558,8200001016174,登記記録の閉鎖等,0,2025-10-07,2025-09-29,池田縫製株式会社,,株式会社,岐阜県,揖斐郡池田町,八幡１５３８番地,,21,404,5032426,,,2025-09-29,清算の結了等,,,2015-10-05,1,,,,,,0
2559,8200001018047,登記記録の閉鎖等,0,2025-10-07,2025-09-01,御嵩タクシー株式会社,,株式会社,岐阜県,岐阜市,鶴田町３丁目７番地の１,,21,201,5008164,,,2025-09-01,合併による解散等,3200001005693,令和７年９月１日岐阜市鶴田町三丁目７番地１ユニオンモータース株式会社（3200001005693）に合併し解散,2015-10-05,1,,,,,ミタケタクシー,0
2567,8220001006099,登記記録の閉鎖等,0,2025-10-07,2025-10-02,株式会社北洋工業,,株式会社,石川県,金沢市,無量寺町ニ１２番地１１,,17,201,9200332,,,2025-10-02,合併による解散等,4220001026316,令和７年１０月１日石川県金沢市無量寺町ニ１２番地１１株式会社ＫＩＴＡＭＵＲＡホールディングス（4220001026316）に合併し解散,2015-10-05,1,,,,,ホクヨウコウギョウ,0
2568,8220002008409,登記記録の閉鎖等,0,2025-10-07,2025-10-02,有限会社グリーンワイズ,,有限会社,石川県,金沢市,神宮寺町１番地４１,,17,201,9200803,,,2025-10-02,清算の結了等,,,2015-10-05,1,,,,,グリーンワイズ,0
2577,8270002006639,登記記録の閉鎖等,0,2025-10-07,2025-10-06,有限会社ニシキ印刷,,有限会社,鳥取県,米子市,灘町３丁目１５０番地,00004359,31,202,6830835,,,2025-10-06,清算の結了等,,,2015-10-05,1,,,,,,0
2587,8290005006436,登記記録の閉鎖等,0,2025-10-07,2025-09-25,税理士法人林会計事務所,,その他の設立登記法人,福岡県,福岡市中央区,薬院１丁目１４番５号,,40,133,8100022,,,2025-09-25,清算の結了等,,,2015-10-05,1,,,,,ハヤシカイケイジムショ,0
2588,8290801021877,登記記録の閉鎖等,0,2025-10-07,2025-09-25,株式会社コンチャ,,株式会社,福岡県,遠賀郡遠賀町,大字広渡１５８１番地,,40,384,8114302,,,2025-09-25,清算の結了等,,,2015-10-05,1,,,,,コンチャ,0
2597,8350002000988,登記記録の閉鎖等,0,2025-10-07,2025-10-02,有限会社折田経営サービス,,有限会社,宮崎県,宮崎市,小松台東３丁目７番地５,,45,201,8800953,,,2025-10-02,清算の結了等,,,2015-10-05,1,,,,,オリタケイエイサービス,0
2608,8430001055629,登記記録の閉鎖等,0,2025-10-07,2025-09-17,株式会社入二浜崎水産,,株式会社,北海道,幌泉郡えりも町,字大和２７０番地,,01,609,0580205,,,2025-09-17,清算の結了等,,,2015-10-05,1,,,,,イリニハマザキスイサン,0
2611,8430002003710,登記記録の閉鎖等,0,2025-10-07,2025-09-17,有限会社及川ビル,,有限会社,北海道,札幌市豊平区,平岸一条８丁目４番１２号,,01,105,0620931,,,2025-09-17,清算の結了等,,,2015-10-05,1,,,,,オイカワビル,0
2618,8480002011849,登記記録の閉鎖等,0,2025-10-07,2025-10-01,有限会社ミマメディカルサービス,,有限会社,徳島県,板野郡板野町,羅漢字野神６０番地の１,,36,404,7790114,,,2025-10-01,合併による解散等,9480001006246,令和７年９月３０日徳島県板野郡板野町羅漢字野神６０番地１株式会社アプリア（9480001006246）に合併し解散,2015-10-05,1,,,,,ミマメディカルサービス,0
2629,9010001026241,登記記録の閉鎖等,0,2025-10-07,2025-09-18,株式会社ノウハウ,,株式会社,東京都,千代田区,九段南２丁目５番５号イシカワＢ．Ｌ．Ｄ九段,,13,101,1020074,,,2025-09-18,清算の結了等,,,2015-10-05,1,,,,,ノウハウ,0
2631,9010001084561,登記記録の閉鎖等,0,2025-10-07,2025-10-01,株式会社クオリス,,株式会社,東京都,世田谷区,経堂５丁目４番１号,,13,112,1560052,,,2025-10-01,合併による解散等,6010001119064,令和７年１０月１日東京都世田谷区経堂五丁目４番１号株式会社イーディーシー（6010001119064）に合併し解散,2015-10-05,1,,,,,クオリス,0
2649,9010003045297,登記記録の閉鎖等,0,2025-10-07,2025-09-12,プレイス合同会社,,合同会社,東京都,文京区,本郷５丁目１５番５－１０５号,,13,105,1130033,,,2025-09-12,清算の結了等,,,2024-10-25,1,,,,,プレイス,0
2656,9010005032467,登記記録の閉鎖等,0,2025-10-07,2025-09-30,一般社団法人首都圏任意売却推進機構,,その他の設立登記法人,東京都,千代田区,九段南１丁目５番６号りそな九段ビル５Ｆ,,13,101,1020074,,,2025-09-30,清算の結了等,,,2020-10-27,1,,,,,シュトケンニンイバイキャクスイシンキコウ,0
2658,9010401081191,登記記録の閉鎖等,0,2025-10-07,2025-10-01,株式会社エヌティ・ソリューションズ,,株式会社,東京都,新宿区,西新宿２丁目１番１号新宿三井ビル３４階,,13,104,1600023,,,2025-10-01,合併による解散等,6011101093174,令和７年１０月１日東京都新宿区西新宿二丁目１番１号株式会社豆蔵（6011101093174）に合併し解散,2015-10-05,1,,,,,エヌティソリューションズ,0
2667,9010403026789,登記記録の閉鎖等,0,2025-10-07,2025-09-30,セントラルリース合同会社,,合同会社,広島県,広島市中区,東平塚町７番１２号メイクス京橋川ＩＩ－１２０４,00138870,34,101,7300025,,,2025-09-30,清算の結了等,,,2022-01-04,1,,,,,セントラルリース,0
2670,9010405020955,登記記録の閉鎖等,0,2025-10-07,2025-09-04,ビーナスインフラホールディングス一般社団法人,,その他の設立登記法人,東京都,港区,元赤坂１丁目１番７号,,13,103,1070051,,,2025-09-04,清算の結了等,,,2022-05-10,1,,,,,ビーナスインフラホールディングス,0
2671,9010501038273,登記記録の閉鎖等,0,2025-10-07,2025-09-16,株式会社リスペクト,,株式会社,東京都,台東区,上野５丁目１６番１４号,,13,106,1100005,,,2025-09-16,清算の結了等,,,2015-10-05,1,,,,,リスペクト,0
2675,9010601040220,登記記録の閉鎖等,0,2025-10-07,2025-09-25,株式会社タルタルーガ社,,株式会社,東京都,墨田区,京島１丁目１番２号イーストコア曳舟弐番館２７１１号,,13,107,1310046,,,2025-09-25,清算の結了等,,,2015-10-05,1,,,,,,0
2686,9010801022976,登記記録の閉鎖等,0,2025-10-07,2025-09-29,株式会社ミューリイヴ,,株式会社,東京都,大田区,矢口３丁目２８番８－８２５号,,13,111,1460093,,,2025-09-29,清算の結了等,,,2015-10-05,1,,,,,ミューリイブ,0
2728,9013301008512,登記記録の閉鎖等,0,2025-10-07,2025-09-22,東豊工産株式会社,,株式会社,東京都,豊島区,長崎２丁目１４番７号,,13,116,1710051,,,2025-09-22,清算の結了等,,,2015-10-05,1,,,,,トウホウコウサン,0
2760,9030001146046,登記記録の閉鎖等,0,2025-10-07,2025-09-30,株式会社マルメ,,株式会社,埼玉県,鴻巣市,雷電２丁目１番２６号,,11,217,3650077,,,2025-09-30,清算の結了等,,,2021-12-27,1,,,,,マルメ,0
2763,9030002036394,登記記録の閉鎖等,0,2025-10-07,2025-09-29,有限会社蔵企画設計,,有限会社,埼玉県,入間市,宮寺２００４番地６,,11,225,3580014,,,2025-09-29,清算の結了等,,,2015-10-05,1,,,,,クラキカクセッケイ,0
2767,9030003016627,登記記録の閉鎖等,0,2025-10-07,2025-09-26,合同会社ひかり,,合同会社,埼玉県,狭山市,柏原７２２番地の２,,11,215,3501335,,,2025-09-26,清算の結了等,,,2021-02-04,1,,,,,ヒカリ,0
2774,9040001088857,登記記録の閉鎖等,0,2025-10-07,2025-09-03,株式会社アクシスコンピューテック,,株式会社,千葉県,市川市,相之川４丁目１５番３号友泉南行徳ビル５０２,,12,203,2720143,,,2025-09-03,清算の結了等,,,2015-10-05,1,,,,,アクシスコンピューテック,0
2784,9040002046285,登記記録の閉鎖等,0,2025-10-07,2025-09-03,有限会社新日本亭,,有限会社,千葉県,松戸市,新松戸南１丁目３６５番地,,12,207,2700035,,,2025-09-03,清算の結了等,,,2015-10-05,1,,,,,シンニホンテイ,0
2791,9050002014992,登記記録の閉鎖等,0,2025-10-07,2025-09-29,有限会社石塚クリーニング茨城工場,00022811,有限会社,茨城県,小美玉市,竹原下郷１１１番地の１,,08,236,3190112,,,2025-09-29,清算の結了等,,,2015-10-05,1,,,,,イシツカクリーニングイバラキコウジョウ,0
2804,9080001018232,登記記録の閉鎖等,0,2025-10-07,2025-10-02,株式会社潤い総研,,株式会社,静岡県,藤枝市,田沼２丁目２０番２２号,,22,214,4260061,,,2025-10-02,合併による解散等,8180001130242,令和７年１０月１日名古屋市中区栄二丁目１０番１号株式会社ｉ＆ｆホールディングス（8180001130242）に合併し解散,2015-10-05,1,,,,,ウルオイソウケン,0
2806,9080002005493,登記記録の閉鎖等,0,2025-10-07,2025-09-30,有限会社マルイケ,,有限会社,静岡県,静岡市葵区,本通１０丁目１番地,,22,101,4200064,,,2025-09-30,清算の結了等,,,2015-10-05,1,,,,,マルイケ,0
2844,9120901006637,登記記録の閉鎖等,0,2025-10-07,2025-10-01,株式会社三宝,,株式会社,大阪府,大阪市淀川区,十八条２丁目１８番１１０号,,27,123,5320001,,,2025-10-01,合併による解散等,1120002036608,令和７年１０月１日大阪市中央区難波千日前５番３０号株式会社正起屋酒店（1120002036608）に合併し解散,2015-10-05,1,,,,,サンポウ,0
2867,9140005026266,登記記録の閉鎖等,0,2025-10-07,2025-09-29,一般社団法人ＩＫＩＧＡＩ　ＤＡＩ,,その他の設立登記法人,兵庫県,神戸市中央区,磯上通６丁目１番１７号,,28,110,6510086,,,2025-09-29,清算の結了等,,,2022-07-29,1,,,,,イキガイダイ,0
2887,9180001163745,登記記録の閉鎖等,0,2025-10-07,2025-09-19,株式会社ＶＧ,,株式会社,愛知県,名古屋市中区,栄４丁目２１番２４号,,23,106,4600008,,,2025-09-19,清算の結了等,,,2024-10-22,1,,,,,ブイジー,0
2899,9200002008293,登記記録の閉鎖等,0,2025-10-07,2025-10-02,有限会社マトリクス,,有限会社,岐阜県,各務原市,鵜沼各務原町４丁目２４０番地,,21,213,5090141,,,2025-10-02,清算の結了等,,,2015-10-05,1,,,,,マトリクス,0
2902,9220002010173,登記記録の閉鎖等,0,2025-10-07,2025-10-01,有限会社朝本葬儀社,,有限会社,石川県,小松市,八幡町５４番地,,17,203,9230954,,,2025-10-01,清算の結了等,,,2015-10-05,1,,,,,アサモトソウギシャ,0
2929,9300003001502,登記記録の閉鎖等,0,2025-10-07,2025-10-03,合同会社田中美化店,,合同会社,佐賀県,三養基郡基山町,大字宮浦５５２番地３７,,41,341,8410204,,,2025-10-03,清算の結了等,,,2020-01-10,1,,,,,タナカビカテン,0
2930,9310002018067,登記記録の閉鎖等,0,2025-10-07,2025-10-03,有限会社パリー装飾,,有限会社,長崎県,島原市,北安徳町丁２２９１番地,,42,203,8550873,,,2025-10-03,清算の結了等,,,2015-10-05,1,,,,,パリーソウショク,0
2933,9320003000072,登記記録の閉鎖等,0,2025-10-07,2025-09-30,合資会社後藤家具店,,合資会社,大分県,大分市,大在浜２丁目１３番２４号,,44,201,8700252,,,2025-09-30,清算の結了等,,,2015-10-05,1,,,,,ゴトウカグテン,0
2949,9380001030652,登記記録の閉鎖等,0,2025-10-07,2025-09-22,株式会社東和塗工,,株式会社,福島県,南相馬市,原町区萱浜字原畑１９０番地の５,,07,212,9750036,,,2025-09-22,清算の結了等,,,2020-01-28,1,,,,,トウワトコウ,0
2953,9390001000349,登記記録の閉鎖等,0,2025-10-07,2025-10-01,鬼がらし本店株式会社,,株式会社,山形県,山形市,南原町３丁目９番３８号,,06,201,9902413,,,2025-10-01,合併による解散等,6390002001687,令和７年１０月１日山形市七日町三丁目３番８号株式会社鬼がらし（6390002001687）に合併し解散,2015-10-05,1,,,,,オニガラシホンテン,0
2962,9430001068349,登記記録の閉鎖等,0,2025-10-07,2025-10-01,株式会社メモリアホール西野山の手,,株式会社,北海道,札幌市西区,西野三条２丁目３番１７号,,01,107,0630033,,,2025-10-01,合併による解散等,3430001033977,令和７年１０月１日札幌市南区澄川六条四丁目１１－１９株式会社ティア北海道（3430001033977）に合併し解散,2015-10-05,1,,,,,メモリアホールニシノヤマノテ,0
2969,9462502000745,登記記録の閉鎖等,0,2025-10-07,2025-10-06,有限会社丸お逢坂漁業,00091443,有限会社,北海道,目梨郡羅臼町,共栄町３４番地,,01,694,0861816,,,2025-10-06,清算の結了等,,,2015-10-05,1,,,,,マルオオウサカギョギョウ,0
