sequenceNumber,corporateNumber,process,correct,updateDate,changeDate,name,nameImageId,kind,prefectureName,cityName,streetNumber,addressImageId,prefectureCode,cityCode,postCode,addressOutside,addressOutsideImageId,closeDate,closeCause,successorCorporateNumber,changeCause,assignmentDate,latest,enName,enPrefectureName,enCityName,enAddressOutside,furigana,hihyoji
12,1010001229165,新規,0,2022-09-06,2022-09-06,株式会社哲,,株式会社,東京都,中央区,銀座１丁目１５番７号ＭＡＣ銀座ビル３階,,13,102,1040061,,,,,,,2022-09-06,1,,,,,テツ,0
13,1010001229215,新規,0,2022-09-06,2022-09-06,株式会社ＳＮＥＴインベストメント,,株式会社,東京都,千代田区,神田鍛冶町３丁目７番２１号,,13,101,1010045,,,,,,,2022-09-06,1,,,,,エスエヌイーティーインベストメント,0
14,1010001229223,新規,0,2022-09-06,2022-09-06,株式会社星松,,株式会社,東京都,中央区,日本橋蛎殻町１丁目６番７－１００４号,,13,102,1030014,,,,,,,2022-09-06,1,,,,,ホシマツ,0
15,1010001229256,新規,0,2022-09-06,2022-09-06,インサイトテラス株式会社,,株式会社,東京都,中央区,銀座１丁目２２番１１号銀座大竹ビジデンス２階,,13,102,1040061,,,,,,,2022-09-06,1,,,,,インサイトテラス,0
16,1010001229272,新規,0,2022-09-06,2022-09-06,株式会社ファーベス,,株式会社,東京都,中央区,銀座７丁目１７番１８号,,13,102,1040061,,,,,,,2022-09-06,1,,,,,ファーベス,0
20,1010003038548,新規,0,2022-09-06,2022-09-06,合同会社もも太郎,,合同会社,東京都,中央区,湊２丁目１５－１４パークシティ中央湊ザタワー２７１１,,13,102,1040043,,,,,,,2022-09-06,1,,,,,モモタロウ,0
21,1010003038556,新規,0,2022-09-06,2022-09-06,ＭＭＹコーポレーション合同会社,,合同会社,東京都,文京区,本郷１丁目３３番３号後楽園キャステールビル６０７,,13,105,1130033,,,,,,,2022-09-06,1,,,,,エムエムワイコーポレーション,0
22,1010003038572,新規,0,2022-09-06,2022-09-06,合同会社ムーンアイランドコーポレーション,,合同会社,東京都,中央区,月島２丁目１６番１号,,13,102,1040052,,,,,,,2022-09-06,1,,,,,ムーンアイランドコーポレーション,0
24,1010103001983,新規,0,2022-09-06,2022-09-06,ぞろ屋合同会社,,合同会社,東京都,八王子市,楢原町９８０番地１０２,,13,201,1930803,,,,,,,2022-09-06,1,,,,,ゾロヤ,0
30,1010401169440,新規,0,2022-09-06,2022-09-06,株式会社ＫＡＩＮＡ,,株式会社,東京都,港区,六本木４丁目８－７,,13,103,1060032,,,,,,,2022-09-06,1,,,,,カイナ,0
31,1010401169449,新規,0,2022-09-06,2022-09-06,株式会社エイエム,,株式会社,東京都,港区,芝大門２丁目４番５号芝ダイヤハイツ９０８,,13,103,1050012,,,,,,,2022-09-06,1,,,,,エイエム,0
32,1010401169507,新規,0,2022-09-06,2022-09-06,ＴＥＨＴＲＩＳ　ＪＡＰＡＮ株式会社,,株式会社,東京都,港区,東麻布１丁目２３番５号ＰＭＣビル２Ｆ,,13,103,1060044,,,,,,,2022-09-06,1,,,,,テトリスジャパン,0
33,1010401169523,新規,0,2022-09-06,2022-09-06,株式会社Ｋｅｅｐ,,株式会社,東京都,港区,高輪３丁目１５番９号田中マンション１０１,,13,103,1080074,,,,,,,2022-09-06,1,,,,,キープ,0
34,1010403028322,新規,0,2022-09-06,2022-09-06,ＳＣＧ７８合同会社,,合同会社,東京都,港区,虎ノ門４丁目１番２８号,,13,103,1050001,,,,,,,2022-09-06,1,,,,,エスシージーセブンティエイト,0
35,1010403028413,新規,0,2022-09-06,2022-09-06,パシフィコ・エナジー・ストレージ白石合同会社,,合同会社,東京都,港区,六本木３丁目２番１号六本木グランドタワー,,13,103,1060032,,,,,,,2022-09-06,1,,,,,パシフィコエナジーストレージシロイシ,0
36,1010403028421,新規,0,2022-09-06,2022-09-06,合同会社Ｄｅｎｔａｌ　Ｉｍｐｌａｎｔ　Ｓｃｉｅｎｃｅ　ａｎｄ　Ｅｄｕｃａｔｉｏｎ,,合同会社,東京都,港区,高輪１丁目２７番３７号,,13,103,1080074,,,,,,,2022-09-06,1,,,,,デンタルインプラントサイエンスアンドエデュケーション,0
38,1010405021309,新規,0,2022-09-06,2022-09-06,オースティンホールディング１一般社団法人,,その他の設立登記法人,東京都,港区,虎ノ門３丁目２２番１０－２０１号,,13,103,1050001,,,,,,,2022-09-06,1,,,,,オースティンホールディングワン,0
40,1010501049328,新規,0,2022-09-06,2022-09-06,株式会社ＳＯＲＡＲＡ,,株式会社,東京都,台東区,千束３丁目２７番１２－６０６号ジェノヴィア浅草ＩＩスカイガーデン,00127738,13,106,1110031,,,,,,,2022-09-06,1,,,,,ソララ,0
41,1010601061802,新規,0,2022-09-06,2022-09-06,株式会社ＴＨＥ　ＩＤＥＡＳ,,株式会社,東京都,江東区,塩浜２丁目２９番１６－４１４号,,13,108,1350043,,,,,,,2022-09-06,1,,,,,ザアイディアス,0
43,1010603009717,新規,0,2022-09-06,2022-09-06,合同会社Ｍｉｔｏｃｈｏｎ,,合同会社,東京都,江東区,東雲１丁目９番４２－３５０７号,,13,108,1350062,,,,,,,2022-09-06,1,,,,,ミトコン,0
47,1010803004278,新規,0,2022-09-06,2022-09-06,合同会社３９ａｌｌ,,合同会社,東京都,大田区,池上３丁目３１番１号,,13,111,1460082,,,,,,,2022-09-06,1,,,,,サンキューオール,0
48,1010901051560,新規,0,2022-09-06,2022-09-06,ＢＢＷパートナーズ株式会社,,株式会社,東京都,世田谷区,瀬田２丁目２２番１０－２０７号,,13,112,1580095,,,,,,,2022-09-06,1,,,,,ビービーダブリューパートナーズ,0
49,1010901051569,新規,0,2022-09-06,2022-09-06,株式会社ＴＥＡＭＷＯＲＫ,,株式会社,東京都,世田谷区,太子堂２丁目９番２５号１階,,13,112,1540004,,,,,,,2022-09-06,1,,,,,ティームワーク,0
51,1010903007627,新規,0,2022-09-06,2022-09-06,しまのかぎしっぽ合同会社,,合同会社,東京都,世田谷区,桜丘５丁目３２番５号,,13,112,1560054,,,,,,,2022-09-06,1,,,,,シマノカギシッポ,0
56,1011003015322,新規,0,2022-09-06,2022-09-06,日本アカシックマーケティング合同会社,,合同会社,東京都,渋谷区,渋谷２丁目１９－１５宮益坂ビルディング６０９,,13,113,1500002,,,,,,,2022-09-06,1,,,,,ニッポンアカシックマーケティング,0
63,1011501028429,新規,0,2022-09-06,2022-09-06,株式会社格星教育,,株式会社,東京都,北区,赤羽１丁目５２－４グリーンマンション４０２号室,,13,117,1150045,,,,,,,2022-09-06,1,,,,,カクセイキョウイク,0
64,1011503005277,新規,0,2022-09-06,2022-09-06,日本紫陽国際合同会社,,合同会社,東京都,荒川区,東日暮里５丁目４８－３レジェンド日暮里４０２,,13,118,1160014,,,,,,,2022-09-06,1,,,,,ニホンシヨウコクサイ,0
65,1011601026217,新規,0,2022-09-06,2022-09-06,谷口不動産株式会社,,株式会社,東京都,練馬区,貫井３丁目５３番５号,,13,120,1760021,,,,,,,2022-09-06,1,,,,,タニグチフドウサン,0
67,1011801041239,新規,0,2022-09-06,2022-09-06,株式会社北千住工務店,,株式会社,東京都,足立区,千住桜木１丁目１０番２４号メゾン恩田２０３,,13,121,1200045,,,,,,,2022-09-06,1,,,,,キタセンジュコウムテン,0
73,1012801021817,新規,0,2022-09-06,2022-09-06,株式会社ＯＳＣフィッシュ,,株式会社,東京都,国分寺市,本町４丁目１２番１号,,13,214,1850012,,,,,,,2022-09-06,1,,,,,オーエスシーフィッシュ,0
74,1012803002872,新規,0,2022-09-06,2022-09-06,合同会社ふくわらい,,合同会社,東京都,国立市,東１丁目４番地の６アイヴィ国立４０３,,13,215,1860002,,,,,,,2022-09-06,1,,,,,,0
75,1013101009008,新規,0,2022-09-06,2022-09-06,株式会社ワークアップ・イチノサワ,,株式会社,東京都,青梅市,長淵８丁目１８番地の１０,,13,205,1980052,,,,,,,2022-09-06,1,,,,,ワークアップイチノサワ,0
80,1013301049613,新規,0,2022-09-06,2022-09-06,株式会社ＡＬＬ　ＩＮ,,株式会社,東京都,豊島区,池袋２丁目６０番１１号ＴＯＭＯビル１１Ｆ,,13,116,1710014,,,,,,,2022-09-06,1,,,,,オールイン,0
85,1020001148034,新規,0,2022-09-06,2022-09-06,株式会社アプローズ,,株式会社,神奈川県,川崎市宮前区,有馬８丁目５番１１号,,14,136,2160003,,,,,,,2022-09-06,1,,,,,アプローズ,0
86,1020001148050,新規,0,2022-09-06,2022-09-06,ＺＡＣＲＯ株式会社,,株式会社,神奈川県,横浜市神奈川区,平川町２３－１－１０１,,14,102,2210812,,,,,,,2022-09-06,1,,,,,ザクロ,0
87,1020001148067,新規,0,2022-09-06,2022-09-06,株式会社横浜８０８商店,,株式会社,神奈川県,横浜市神奈川区,栄町８９番地,,14,102,2210052,,,,,,,2022-09-06,1,,,,,ヨコハマヤオヤショウテン,0
88,1020001148075,新規,0,2022-09-06,2022-09-06,アート・パートナーズ株式会社,,株式会社,神奈川県,横浜市港北区,日吉本町２丁目１３番８号,,14,109,2230062,,,,,,,2022-09-06,1,,,,,アートパートナーズ,0
89,1020001148100,新規,0,2022-09-06,2022-09-06,Ｄ‐ｆａｍ株式会社,,株式会社,神奈川県,川崎市中原区,新丸子東２丁目９２６番地,,14,133,2110004,,,,,,,2022-09-06,1,,,,,ディーファン,0
90,1020001148117,新規,0,2022-09-06,2022-09-06,株式会社エス・エイ・エム,,株式会社,神奈川県,横浜市緑区,いぶき野３８番地９－２０５号,,14,113,2260028,,,,,,,2022-09-06,1,,,,,エスエイエム,0
92,1020003022278,新規,0,2022-09-06,2022-09-06,合同会社アシスト,,合同会社,神奈川県,横浜市西区,楠町１－３ＢＬＡ横浜西口ビル,,14,103,2200003,,,,,,,2022-09-06,1,,,,,アシスト,0
93,1020003022328,新規,0,2022-09-06,2022-09-06,パーシステンス合同会社,,合同会社,神奈川県,横浜市西区,北幸１丁目１１番１号水信ビル７階,,14,103,2200004,,,,,,,2022-09-06,1,,,,,パーシステンス,0
94,1020003022336,新規,0,2022-09-06,2022-09-06,合同会社富商,,合同会社,神奈川県,横浜市旭区,左近山１７１番地３左近山団地５街区９棟５０４号,,14,112,2410831,,,,,,,2022-09-06,1,,,,,トミショウ,0
103,1030001149948,新規,0,2022-09-06,2022-09-06,株式会社ココロリンク,,株式会社,埼玉県,入間市,大字野田３０３５番地５,,11,225,3580054,,,,,,,2022-09-06,1,,,,,ココロリンク,0
104,1030001149972,新規,0,2022-09-06,2022-09-06,株式会社スティック,,株式会社,埼玉県,春日部市,大畑８０番地,,11,214,3440022,,,,,,,2022-09-06,1,,,,,スティック,0
109,1030003020132,新規,0,2022-09-06,2022-09-06,合同会社ｍａｒｒｏｇｌａ,,合同会社,埼玉県,飯能市,大字大河原７２番地５,,11,209,3570065,,,,,,,2022-09-06,1,,,,,マログラ,0
110,1030003020140,新規,0,2022-09-06,2022-09-06,合同会社フィールドコア,,合同会社,埼玉県,さいたま市緑区,大字中尾１６５４番地１０,,11,109,3360932,,,,,,,2022-09-06,1,,,,,フィールドコア,0
116,1040001124917,新規,0,2022-09-06,2022-09-06,株式会社サンペイ,,株式会社,千葉県,木更津市,太田２丁目１５番１１－９０３号,,12,206,2920044,,,,,,,2022-09-06,1,,,,,サンペイ,0
117,1040001124958,新規,0,2022-09-06,2022-09-06,株式会社ポケットマーケット,,株式会社,千葉県,八千代市,八千代台北１６丁目１６番９号リージェントコート１０５号,,12,221,2760031,,,,,,,2022-09-06,1,,,,,ポケットマーケット,0
122,1040003020750,新規,0,2022-09-06,2022-09-06,Ｓｎｏｗｄｒｏｐ合同会社,,合同会社,千葉県,千葉市中央区,市場町２番７号,,12,101,2600855,,,,,,,2022-09-06,1,,,,,スノードロップ,0
123,1040003020759,新規,0,2022-09-06,2022-09-06,合同会社ｍａｄａｍｅ　ＦＩＧＵＩＥＲ,,合同会社,千葉県,我孫子市,天王台２丁目２－２２コーポタナアミ１０２号,,12,222,2701143,,,,,,,2022-09-06,1,,,,,マダムフィギエ,0
124,1040003020767,新規,0,2022-09-06,2022-09-06,弥治右衛門合同会社,,合同会社,千葉県,印西市,山田２８０８－２,,12,231,2701604,,,,,,,2022-09-06,1,,,,,ヤジエモン,0
125,1040003020783,新規,0,2022-09-06,2022-09-06,合同会社Ｎ．Ｈオフィス,,合同会社,千葉県,四街道市,めいわ４丁目２１－１９,,12,228,2840043,,,,,,,2022-09-06,1,,,,,エヌエイチオフィス,0
131,1050001051631,新規,0,2022-09-06,2022-09-06,株式会社川前農園,,株式会社,茨城県,ひたちなか市,阿字ケ浦町５１３番地,,08,221,3111201,,,,,,,2022-09-06,1,,,,,カワマエノウエン,0
134,1060003004215,新規,0,2022-09-06,2022-09-06,ＢＡＪＡＰ　ＩＮＴＥＲＮＡＴＩＯＮＡＬ合同会社,,合同会社,栃木県,宇都宮市,平松本町３５８番地４メゾンＫＩＩ１階１０１号室,00127742,09,201,3210932,,,,,,,2022-09-06,1,,,,,バジャップインターナショナル,0
144,1090001017769,新規,0,2022-09-06,2022-09-06,株式会社ＧＡＴＥＷＡＹみらい,,株式会社,山梨県,甲府市,相生２丁目４番１８号,,19,201,4000858,,,,,,,2022-09-06,1,,,,,ゲートウェイミライ,0
145,1090005007510,新規,0,2022-09-06,2022-09-06,池谷行政書士法人,,その他の設立登記法人,山梨県,富士吉田市,下吉田５丁目１８番１７号,,19,202,4030004,,,,,,,2022-09-06,1,,,,,イケヤ,0
153,1110001036931,新規,0,2022-09-06,2022-09-06,株式会社太田農場,,株式会社,新潟県,長岡市,東新町３丁目７番４０号,,15,202,9400022,,,,,,,2022-09-06,1,,,,,オオタノウジョウ,0
154,1110001036948,新規,0,2022-09-06,2022-09-06,ｌｉｎｋ株式会社,,株式会社,新潟県,新潟市中央区,弁天橋通１丁目３７番５号５,,15,103,9500925,,,,,,,2022-09-06,1,,,,,リンク,0
156,1110003004853,新規,0,2022-09-06,2022-09-06,縄一長岡合同会社,,合同会社,新潟県,長岡市,浦４８４番地,,15,202,9495406,,,,,,,2022-09-06,1,,,,,ナワイチナガオカ,0
166,1120101066167,新規,0,2022-09-06,2022-09-06,株式会社ジーク,,株式会社,大阪府,堺市北区,東三国ヶ丘町１丁１番４－４０４号,,27,146,5918046,,,,,,,2022-09-06,1,,,,,ジーク,0
167,1120101066183,新規,0,2022-09-06,2022-09-06,株式会社こたや,,株式会社,大阪府,泉佐野市,笠松２丁目４番１１号,,27,213,5980044,,,,,,,2022-09-06,1,,,,,コタヤ,0
169,1120901046434,新規,0,2022-09-06,2022-09-06,株式会社ＫＮＴ,,株式会社,大阪府,箕面市,粟生新家２丁目３番１５号,,27,220,5620024,,,,,,,2022-09-06,1,,,,,ケィエヌティ,0
170,1120901046450,新規,0,2022-09-06,2022-09-06,株式会社ＲＩＣＨＥＳＳＥ,,株式会社,大阪府,茨木市,五十鈴町１６番３４－３０３号,,27,211,5670842,,,,,,,2022-09-06,1,,,,,リシェス,0
171,1120903004290,新規,0,2022-09-06,2022-09-06,合同会社井上会計,,合同会社,大阪府,吹田市,片山町３丁目３７番１９号,,27,205,5640082,,,,,,,2022-09-06,1,,,,,イノウエカイケイ,0
181,1140001127265,新規,0,2022-09-06,2022-09-06,ステュディオエイトアーキテクツ株式会社,,株式会社,兵庫県,神戸市中央区,三宮町３丁目９番８号,,28,110,6500021,,,,,,,2022-09-06,1,,,,,ステュディオエイトアーキテクツ,0
182,1140001127273,新規,0,2022-09-06,2022-09-06,株式会社Ｓｕｐｅｒｂ,,株式会社,兵庫県,神戸市中央区,中山手通３丁目２番１－１１４号,,28,110,6500004,,,,,,,2022-09-06,1,,,,,スパーブ,0
183,1140001127307,新規,0,2022-09-06,2022-09-06,株式会社一義建設,,株式会社,兵庫県,宝塚市,安倉中５丁目２３番７号,,28,214,6650822,,,,,,,2022-09-06,1,,,,,イチギケンセツ,0
187,1150003002770,新規,0,2022-09-06,2022-09-06,合同会社４５８Ｉ,,合同会社,奈良県,生駒市,美鹿の台４番１６号,,29,209,6300116,,,,,,,2022-09-06,1,,,,,ヨンゴーハチアイ,0
188,1150005009418,新規,0,2022-09-06,2022-09-06,一般社団法人スマイル,,その他の設立登記法人,奈良県,葛城市,山田１２３番地２,,29,211,6392138,,,,,,,2022-09-06,1,,,,,スマイル,0
192,1160001024493,新規,0,2022-09-06,2022-09-06,株式会社ＳＥＩＫＯＵＤＯ,,株式会社,滋賀県,草津市,西大路町１０番２７号,,25,206,5250037,,,,,,,2022-09-06,1,,,,,セイコウドウ,0
196,1160003002662,新規,0,2022-09-06,2022-09-06,ＹＡＴ合同会社,,合同会社,滋賀県,彦根市,船町８番１３号,,25,202,5220072,,,,,,,2022-09-06,1,,,,,ヤット,0
204,1180001152862,新規,0,2022-09-06,2022-09-06,株式会社ユーテック,,株式会社,愛知県,一宮市,瀬部字大馬場６０番地,,23,203,4910001,,,,,,,2022-09-06,1,,,,,ユーテック,0
205,1180001152870,新規,0,2022-09-06,2022-09-06,株式会社倉田不動産,,株式会社,愛知県,一宮市,開明字郷中６４番地５,,23,203,4940001,,,,,,,2022-09-06,1,,,,,クラタフドウサン,0
206,1180001152887,新規,0,2022-09-06,2022-09-06,株式会社ファースト,,株式会社,愛知県,名古屋市昭和区,川名町４丁目６８－３,,23,107,4660856,,,,,,,2022-09-06,1,,,,,ファースト,0
207,1180001152904,新規,0,2022-09-06,2022-09-06,株式会社Ｌｉｎｋ　Ｍａｓｔｅｒ,,株式会社,愛知県,大府市,森岡町５丁目１００番地,,23,223,4740038,,,,,,,2022-09-06,1,,,,,リンクマスター,0
214,1180301036617,新規,0,2022-09-06,2022-09-06,株式会社リベルタ,,株式会社,愛知県,西尾市,熊味町北十五夜４９番地６,,23,213,4450071,,,,,,,2022-09-06,1,,,,,リベルタ,0
218,1190001029738,新規,0,2022-09-06,2022-09-06,身心パートナーズ株式会社,,株式会社,三重県,四日市市,西浦１丁目７番７号尾西ビル２階,,24,202,5100071,,,,,,,2022-09-06,1,,,,,シンジンパートナーズ,0
219,1190003004078,新規,0,2022-09-06,2022-09-06,合同会社一夜コーポレーション,,合同会社,三重県,伊賀市,丸柱１４８３番地,,24,216,5181325,,,,,,,2022-09-06,1,,,,,イチヤコーポレーション,0
228,1220001025015,新規,0,2022-09-06,2022-09-06,株式会社一宇,,株式会社,石川県,白山市,中ノ郷町リ３６番１,,17,210,9202147,,,,,,,2022-09-06,1,,,,,イチウ,0
237,1240001060299,新規,0,2022-09-06,2022-09-06,株式会社Ｕｎｉｖｅｒｓｅ,,株式会社,広島県,呉市,広小坪２丁目２１番１７号,,34,202,7370137,,,,,,,2022-09-06,1,,,,,ユニバース,0
238,1240001060316,新規,0,2022-09-06,2022-09-06,株式会社村井電機,,株式会社,広島県,福山市,日吉台１丁目１８番１５号,,34,207,7210972,,,,,,,2022-09-06,1,,,,,ムライデンキ,0
243,1250005008772,新規,0,2022-09-06,2022-09-06,下関市家庭系一般廃棄物事業協同組合,,その他の設立登記法人,山口県,下関市,長府扇町３番３８号,,35,201,7520927,,,,,,,2022-09-06,1,,,,,シモノセキシカテイケイイッパンハイキブツ,0
244,1260001037221,新規,0,2022-09-06,2022-09-06,倉敷潜水株式会社,,株式会社,岡山県,倉敷市,児島味野１丁目７番２９号,,33,202,7110913,,,,,,,2022-09-06,1,,,,,クラシキセンスイ,0
250,1290001098789,新規,0,2022-09-06,2022-09-06,株式会社タイソン,,株式会社,福岡県,久留米市,荒木町白口１８６番地２,,40,203,8300062,,,,,,,2022-09-06,1,,,,,タイソン,0
251,1290001098797,新規,0,2022-09-06,2022-09-06,株式会社グート千早,,株式会社,福岡県,福岡市博多区,青木１丁目３番３３号,,40,132,8120851,,,,,,,2022-09-06,1,,,,,グートチハヤ,0
252,1290001098822,新規,0,2022-09-06,2022-09-06,株式会社ユズズ,,株式会社,福岡県,福岡市南区,大橋２丁目２番１号,,40,134,8150033,,,,,,,2022-09-06,1,,,,,ユズズ,0
253,1290001098830,新規,0,2022-09-06,2022-09-06,株式会社スターライズ,,株式会社,福岡県,久留米市,東町３２番１１号ニュートミタヤビル４０２,,40,203,8300032,,,,,,,2022-09-06,1,,,,,スターライズ,0
255,1290003012896,新規,0,2022-09-06,2022-09-06,合同会社アルモニア,,合同会社,福岡県,福岡市南区,高宮１丁目２２－３３フリーディア高宮プレミアム５０２号室,,40,134,8150083,,,,,,,2022-09-06,1,,,,,アルモニア,0
257,1290805009586,新規,0,2022-09-06,2022-09-06,田川市建築協同組合,,その他の設立登記法人,福岡県,田川市,大字伊田４９６９番地,,40,206,8250002,,,,,,,2022-09-06,1,,,,,タガワシケンチク,0
260,1320001019304,新規,0,2022-09-06,2022-09-06,株式会社ＰＩＥＣＥ,,株式会社,大分県,大分市,木上台２丁目７番８号,,44,201,8701169,,,,,,,2022-09-06,1,,,,,ピース,0
261,1330001030094,新規,0,2022-09-06,2022-09-06,株式会社幸徳企画,,株式会社,熊本県,玉名市,亀甲３３番地３,,43,206,8650015,,,,,,,2022-09-06,1,,,,,コウトクキカク,0
266,1350001017940,新規,0,2022-09-06,2022-09-06,株式会社鷹虎山業,,株式会社,宮崎県,都城市,南鷹尾町２７街区２０号,,45,202,8850082,,,,,,,2022-09-06,1,,,,,タカトラサンギョウ,0
268,1360005006708,新規,0,2022-09-06,2022-09-06,一般社団法人ＫｏＬａｂ,,その他の設立登記法人,沖縄県,国頭郡大宜味村,字塩屋念蒲１３０６番５２,,47,302,9051311,,,,,,,2022-09-06,1,,,,,コラボ,0
270,1370001049008,新規,0,2022-09-06,2022-09-06,藤英設備工業株式会社,,株式会社,宮城県,仙台市青葉区,高野原２丁目９番地の１３,,04,101,9893216,,,,,,,2022-09-06,1,,,,,フジヒデセツビコウギョウ,0
276,1390001017012,新規,0,2022-09-06,2022-09-06,株式会社大江町同志会鈴木果樹園,,株式会社,山形県,西村山郡大江町,大字荻野２２２番地,,06,324,9901131,,,,,,,2022-09-06,1,,,,,オオエチョウドウシカイスズキカジュエン,0
278,1420001017990,新規,0,2022-09-06,2022-09-06,株式会社ミライトブルー,,株式会社,青森県,平川市,大坊前田１８６番地１,,02,210,0360146,,,,,,,2022-09-06,1,,,,,ミライトブルー,0
280,1430001087439,新規,0,2022-09-06,2022-09-06,株式会社バントック,,株式会社,北海道,札幌市清田区,平岡三条４丁目４番１０号,,01,110,0040873,,,,,,,2022-09-06,1,,,,,バントック,0
281,1430003014250,新規,0,2022-09-06,2022-09-06,合同会社Ｆｒｏｎｔ　Ｒｏｗ,,合同会社,北海道,札幌市中央区,南十五条西１８丁目４番２９号,,01,101,0640915,,,,,,,2022-09-06,1,,,,,フロントロウ,0
286,1460101007244,新規,0,2022-09-06,2022-09-06,戸和建設株式会社,,株式会社,北海道,帯広市,東六条南１９丁目３番地２,,01,207,0800806,,,,,,,2022-09-06,1,,,,,トワケンセツ,0
292,1490001010270,新規,0,2022-09-06,2022-09-06,株式会社自地然,,株式会社,高知県,高知市,はりまや町１丁目３番１９号,,39,201,7800822,,,,,,,2022-09-06,1,,,,,シチゼン,0
293,1490001010279,新規,0,2022-09-06,2022-09-06,株式会社Ｒｅｌｉｆｅ,,株式会社,高知県,宿毛市,宿毛１０２３番地３,,39,208,7880000,,,,,,,2022-09-06,1,,,,,リライフ,0
296,1700150110460,新規,0,2022-09-06,2022-06-27,オペラ石見銀山実行委員会,,その他,島根県,大田市,長久町長久イ５５５株式会社シグナル　内,,32,205,6940041,,,,,,,2022-06-27,1,,,,,オペライワミギンザンジツコウイインカイ,0
306,2010001229164,新規,0,2022-09-06,2022-09-06,株式会社リソコ,,株式会社,東京都,中央区,日本橋大伝馬町１２‐１‐２Ｆ,,13,102,1030011,,,,,,,2022-09-06,1,,,,,リソコ,0
307,2010001229214,新規,0,2022-09-06,2022-09-06,株式会社バリューアプレイザル,,株式会社,東京都,千代田区,平河町１丁目３番６号ＢＩＺＭＡＲＫＳ麹町５階,,13,101,1020093,,,,,,,2022-09-06,1,,,,,バリューアプレイザル,0
309,2010003038547,新規,0,2022-09-06,2022-09-06,ＲＹＮ　Ｔｒａｄｉｎｇ合同会社,,合同会社,東京都,中央区,日本橋兜町５－１兜町第１平和ビル３Ｆ,,13,102,1030026,,,,,,,2022-09-06,1,,,,,アールワイエヌトレーディング,0
310,2010003038555,新規,0,2022-09-06,2022-09-06,合同会社ジャパン・プライベート・ソーラー・ファンド１,,合同会社,東京都,千代田区,丸の内３丁目１番１号東京共同会計事務所内,,13,101,1000005,,,,,,,2022-09-06,1,,,,,ジャパンプライベートソーラーファンドワン,0
311,2010003038563,新規,0,2022-09-06,2022-09-06,合同会社ｎｏｂｉ,,合同会社,東京都,中央区,銀座１丁目２２番１１号,,13,102,1040061,,,,,,,2022-09-06,1,,,,,ノビ,0
312,2010003038571,新規,0,2022-09-06,2022-09-06,合同会社Ｋｏｋｏｒｏｕｍ,,合同会社,東京都,千代田区,九段南１丁目５番６号りそな九段ビル５Ｆ・ＫＳフロア,,13,101,1020074,,,,,,,2022-09-06,1,,,,,ココロウム,0
313,2010005035468,新規,0,2022-09-06,2022-09-06,一般社団法人日中医薬美健協会,,その他の設立登記法人,東京都,千代田区,神田小川町３丁目１１番地２インペリアルお茶の水２０３号,,13,101,1010052,,,,,,,2022-09-06,1,,,,,ニッチュウイヤクビケンキョウカイ,0
314,2010005035518,新規,0,2022-09-06,2022-09-06,一般社団法人オルタナフィフティーン,,その他の設立登記法人,東京都,千代田区,丸の内３丁目１番１号東京共同会計事務所内,,13,101,1000005,,,,,,,2022-09-06,1,,,,,オルタナフィフティーン,0
326,2010403028321,新規,0,2022-09-06,2022-09-06,ＳＣＧ７７合同会社,,合同会社,東京都,港区,虎ノ門４丁目１番２８号,,13,103,1050001,,,,,,,2022-09-06,1,,,,,エスシージーセブンティセブン,0
327,2010403028387,新規,0,2022-09-06,2022-09-06,合同会社浜市丸,,合同会社,東京都,港区,芝２丁目１－２３,,13,103,1050014,,,,,,,2022-09-06,1,,,,,ハマイチマル,0
328,2010403028412,新規,0,2022-09-06,2022-09-06,パシフィコ・エナジー・ストレージ糸島合同会社,,合同会社,東京都,港区,六本木３丁目２番１号六本木グランドタワー,,13,103,1060032,,,,,,,2022-09-06,1,,,,,パシフィコエナジーストレージイトシマ,0
329,2010501049319,新規,0,2022-09-06,2022-09-06,株式会社レプロ,,株式会社,東京都,台東区,上野３丁目１６番２号天翔上野末広町ビル,,13,106,1100005,,,,,,,2022-09-06,1,,,,,レプロ,0
330,2010501049327,新規,0,2022-09-06,2022-09-06,株式会社Ｔｈｒｅｅ　Ｓｏｕｒ,,株式会社,東京都,台東区,北上野２丁目２９番６号,,13,106,1100014,,,,,,,2022-09-06,1,,,,,スリーサワー,0
331,2010505003338,新規,0,2022-09-06,2022-09-06,医療法人社団七賢会,,その他の設立登記法人,東京都,台東区,東上野２丁目２２番５号旭ビル１階１０１号室,,13,106,1100015,,,,,,,2022-09-06,1,,,,,シチケンカイ,0
341,2010901051568,新規,0,2022-09-06,2022-09-06,ＭＡＩＡ株式会社,,株式会社,東京都,世田谷区,太子堂３丁目３７番１－Ａ２０１号,,13,112,1540004,,,,,,,2022-09-06,1,,,,,マイア,0
345,2011001149583,新規,0,2022-09-06,2022-09-06,株式会社７２８,,株式会社,東京都,目黒区,上目黒３丁目２８－１９,,13,110,1530051,,,,,,,2022-09-06,1,,,,,セブントゥエイト,0
346,2011001149609,新規,0,2022-09-06,2022-09-06,Ｌｉｖｅｌｉｈｏｏｄ株式会社,,株式会社,東京都,渋谷区,円山町５－５Ｎａｖｉ渋谷Ｖ３階,,13,113,1500044,,,,,,,2022-09-06,1,,,,,ライブリフッド,0
352,2011103012136,新規,0,2022-09-06,2022-09-06,合同会社ＫＵＲＡＮ,,合同会社,東京都,新宿区,新宿１丁目３６番２号新宿第七葉山ビル３階,,13,104,1600022,,,,,,,2022-09-06,1,,,,,クラン,0
355,2011301028090,新規,0,2022-09-06,2022-09-06,ＢＡＲＫ株式会社,,株式会社,東京都,杉並区,上井草１丁目５番１０ー１０２号,,13,115,1670023,,,,,,,2022-09-06,1,,,,,バーク,0
360,2011303004511,新規,0,2022-09-06,2022-09-06,合同会社ｓｃｏｕｓｅ,,合同会社,東京都,杉並区,荻窪４丁目２１番２５－２０７号秀和東荻窪レジデンス,,13,115,1670051,,,,,,,2022-09-06,1,,,,,スカウス,0
362,2011501028444,新規,0,2022-09-06,2022-09-06,酷默默伝播株式会社,,株式会社,東京都,荒川区,南千住３丁目２７－２浅草ビルＧ号室,,13,118,1160003,,,,,,,2022-09-06,1,,,,,クールモモメディア,0
363,2011503005276,新規,0,2022-09-06,2022-09-06,合同会社ＦＡＮＧＥＬ,,合同会社,東京都,北区,赤羽台３丁目２１番１５号菊地方,,13,117,1150053,,,,,,,2022-09-06,1,,,,,,0
369,2011803005249,新規,0,2022-09-06,2022-09-06,メディグル事業管理合同会社,,合同会社,東京都,足立区,西新井本町５丁目７番１２号小暮ビル１階,,13,121,1230845,,,,,,,2022-09-06,1,,,,,メディグルジギョウカンリ,0
370,2012301013124,新規,0,2022-09-06,2022-09-06,アトピーバスターＴＯＫＹＯ株式会社,,株式会社,東京都,町田市,南つくし野１丁目８－２０,,13,209,1940002,,,,,,,2022-09-06,1,,,,,アトピーバスタートウキョウ,0
373,2012703002534,新規,0,2022-09-06,2022-09-06,合同会社マカロ,,合同会社,東京都,清瀬市,旭が丘６丁目１００３番地７,,13,221,2040002,,,,,,,2022-09-06,1,,,,,マカロ,0
374,2012801021816,新規,0,2022-09-06,2022-09-06,株式会社ＳＢＣ,,株式会社,東京都,日野市,大坂上２丁目１４番地の２１,,13,212,1910061,,,,,,,2022-09-06,1,,,,,エスビーシー,0
383,2020001148058,新規,0,2022-09-06,2022-09-06,株式会社ＴＴＣ,,株式会社,神奈川県,横浜市港北区,日吉本町２丁目１０番３号,,14,109,2230062,,,,,,,2022-09-06,1,,,,,ティーティーシー,0
384,2020001148066,新規,0,2022-09-06,2022-09-06,Ｔ．Ｒ．Ｙ株式会社,,株式会社,神奈川県,川崎市高津区,新作２丁目５番１号,,14,134,2130014,,,,,,,2022-09-06,1,,,,,ティアールワイ,0
385,2020001148074,新規,0,2022-09-06,2022-09-06,シーア・デザイン株式会社,,株式会社,神奈川県,横浜市中区,桜木町１丁目１０１－１クロスゲート７Ｆ,,14,104,2310062,,,,,,,2022-09-06,1,,,,,シーアデザイン,0
386,2020001148082,新規,0,2022-09-06,2022-09-06,株式会社ＡＰＣ,,株式会社,神奈川県,横浜市青葉区,たちばな台２丁目２番地３３,,14,117,2270046,,,,,,,2022-09-06,1,,,,,エーピーシー,0
387,2020001148090,新規,0,2022-09-06,2022-09-06,株式会社ＳＥＩＳＨＩＮＫＥＩ,,株式会社,神奈川県,横浜市金沢区,福浦２丁目１番地２１,,14,108,2360004,,,,,,,2022-09-06,1,,,,,セイシンケイ,0
388,2020001148099,新規,0,2022-09-06,2022-09-06,Ｂ．Ｉ．Ｍ．株式会社,,株式会社,神奈川県,横浜市中区,本郷町２丁目６０番６号１０２号室,,14,104,2310843,,,,,,,2022-09-06,1,,,,,ビーアイエム,0
389,2020001148108,新規,0,2022-09-06,2022-09-06,株式会社ガーデンファクトリー,,株式会社,神奈川県,横浜市泉区,岡津町２１０７番地２,,14,116,2450003,,,,,,,2022-09-06,1,,,,,ガーデンファクトリー,0
390,2020001148116,新規,0,2022-09-06,2022-09-06,株式会社ｇｉｎ,,株式会社,神奈川県,川崎市幸区,下平間３５番地１－４０１,,14,132,2120053,,,,,,,2022-09-06,1,,,,,ジン,0
396,2020003022343,新規,0,2022-09-06,2022-09-06,合同会社六角えんぴつ,,合同会社,神奈川県,川崎市中原区,丸子通２丁目６７７番地リバーサイド浅見３０１,,14,133,2110006,,,,,,,2022-09-06,1,,,,,ロッカクエンピツ,0
401,2021001076918,新規,0,2022-09-06,2022-09-06,株式会社ほけんの津田,,株式会社,神奈川県,鎌倉市,台１４１２番地３ヒルポイント１０１,,14,204,2470061,,,,,,,2022-09-06,1,,,,,ホケンノツダ,0
403,2021003012094,新規,0,2022-09-06,2022-09-06,合同会社ＭＡＤＭＹ,,合同会社,神奈川県,平塚市,撫子原１２番３０号,,14,203,2540825,,,,,,,2022-09-06,1,,,,,マドミー,0
407,2030001149930,新規,0,2022-09-06,2022-09-06,株式会社スカイグローバル,,株式会社,埼玉県,加須市,花崎４丁目１９番地１１アルペンハイツ２０２号,,11,210,3470032,,,,,,,2022-09-06,1,,,,,スカイグローバル,0
408,2030001149947,新規,0,2022-09-06,2022-09-06,株式会社ヒガシ,,株式会社,埼玉県,熊谷市,肥塚３丁目５番３２号,,11,202,3600015,,,,,,,2022-09-06,1,,,,,ヒガシ,0
409,2030001149971,新規,0,2022-09-06,2022-09-06,起業サポート株式会社,,株式会社,埼玉県,草加市,長栄４丁目２０番地１,,11,221,3400051,,,,,,,2022-09-06,1,,,,,キギョウサポート,0
413,2030003020131,新規,0,2022-09-06,2022-09-06,合同会社Ｃｏ‐ｍｉｘ,,合同会社,埼玉県,春日部市,粕壁１丁目２番８号２階,,11,214,3440061,,,,,,,2022-09-06,1,,,,,コミックス,0
417,2040001124932,新規,0,2022-09-06,2022-09-06,株式会社小出塗装工業,,株式会社,千葉県,木更津市,新田１丁目８番１０号,,12,206,2920832,,,,,,,2022-09-06,1,,,,,,0
418,2040001124940,新規,0,2022-09-06,2022-09-06,ＨＰＩ株式会社,,株式会社,千葉県,市原市,五井４７８０番地２,,12,219,2900056,,,,,,,2022-09-06,1,,,,,エイチピーアイ,0
419,2040001124965,新規,0,2022-09-06,2022-09-06,株式会社バモアクト,,株式会社,千葉県,柏市,柏１丁目１－１０ＫＡＳＨＩ－ＷＯＲＫビル,,12,217,2770005,,,,,,,2022-09-06,1,,,,,バモアクト,0
420,2040001124998,新規,0,2022-09-06,2022-09-06,株式会社茜浜工芸,,株式会社,千葉県,船橋市,三山８丁目７番地１号,,12,204,2740072,,,,,,,2022-09-06,1,,,,,アカネハマコウゲイ,0
421,2040003020741,新規,0,2022-09-06,2022-09-06,合同会社ＭＪ．Ｆａｃｔ,,合同会社,千葉県,習志野市,谷津１丁目１３－１８,,12,216,2750026,,,,,,,2022-09-06,1,,,,,エムジェイファクト,0
422,2040003020758,新規,0,2022-09-06,2022-09-06,合同会社レオン,,合同会社,千葉県,船橋市,本町４丁目４３番２０号みよしビル２階,,12,204,2730005,,,,,,,2022-09-06,1,,,,,レオン,0
423,2040003020774,新規,0,2022-09-06,2022-09-06,鈴商ライン合同会社,,合同会社,千葉県,成田市,稲荷山３９１番地２４８,,12,211,2870233,,,,,,,2022-09-06,1,,,,,スズショウライン,0
427,2050001051622,新規,0,2022-09-06,2022-09-06,株式会社Ｒｅｇｏｌｉｔｈ,,株式会社,茨城県,つくば市,二の宮２丁目３番地１,,08,220,3050051,,,,,,,2022-09-06,1,,,,,レゴリス,0
428,2050001051630,新規,0,2022-09-06,2022-09-06,株式会社セキタ工務店,,株式会社,茨城県,ひたちなか市,大字足崎１５０４番地１４,,08,221,3120003,,,,,,,2022-09-06,1,,,,,セキタコウムテン,0
429,2050001051639,新規,0,2022-09-06,2022-09-06,株式会社ナーブエイト,,株式会社,茨城県,つくば市,谷田部２４１４番地（陣場Ｅ１６街区１４）,,08,220,3050861,,,,,,,2022-09-06,1,,,,,ナーブエイト,0
432,2060003004214,新規,0,2022-09-06,2022-09-06,合同会社オカジマ,,合同会社,栃木県,下都賀郡壬生町,大師町１９番３０号,,09,361,3210228,,,,,,,2022-09-06,1,,,,,オカジマ,0
438,2080103002644,新規,0,2022-09-06,2022-09-06,合同会社遠藤,,合同会社,静岡県,富士宮市,小泉１４３４－２,,22,207,4180022,,,,,,,2022-09-06,1,,,,,エンドウ,0
441,2080405007481,新規,0,2022-09-06,2022-09-06,社会保険労務士法人あさひ労務管理事務所,,その他の設立登記法人,静岡県,浜松市北区,初生町１１６３番地の４７,,22,135,4338112,,,,,,,2022-09-06,1,,,,,アサヒロウムカンリジムショ,0
443,2100003006684,新規,0,2022-09-06,2022-09-06,合同会社あるかぶる,,合同会社,長野県,長野市,大岡丙２８６１番５６,,20,201,3812702,,,,,,,2022-09-06,1,,,,,アルカブル,0
444,2110002025081,新規,0,2022-09-06,2022-09-06,有限会社新清ホテル,,有限会社,新潟県,妙高市,大字関川６４３番地,,15,217,9492112,,,,,,,2022-09-06,1,,,,,,0
445,2110003004852,新規,0,2022-09-06,2022-09-06,合同会社フルサポート,,合同会社,新潟県,糸魚川市,桜木１２８番地,,15,216,9491354,,,,,,,2022-09-06,1,,,,,フルサポート,0
451,2120001248632,新規,0,2022-09-06,2022-09-06,株式会社經田電設,,株式会社,大阪府,大阪市東淀川区,豊里５丁目１９番２５号,,27,114,5330013,,,,,,,2022-09-06,1,,,,,キョウダデンセツ,0
452,2120001248657,新規,0,2022-09-06,2022-09-06,株式会社関西宇部輸送,,株式会社,大阪府,大阪市港区,海岸通４丁目２番２３号,,27,107,5520022,,,,,,,2022-09-06,1,,,,,カンサイウベユソウ,0
453,2120001248715,新規,0,2022-09-06,2022-09-06,御豊商事株式会社,,株式会社,大阪府,大阪市都島区,内代町４丁目３－３７ハマダハウス３０４号室,,27,102,5340013,,,,,,,2022-09-06,1,,,,,ゴホウショウジ,0
455,2120003022399,新規,0,2022-09-06,2022-09-06,合同会社こもれび,,合同会社,大阪府,大阪市淀川区,西三国４丁目３番１１号,,27,123,5320006,,,,,,,2022-09-06,1,,,,,コモレビ,0
456,2120003022408,新規,0,2022-09-06,2022-09-06,ロックス合同会社,,合同会社,大阪府,大阪市淀川区,木川西２丁目１６番２１号,,27,123,5320013,,,,,,,2022-09-06,1,,,,,ロックス,0
459,2120101066190,新規,0,2022-09-06,2022-09-06,株式会社ＭＡＮＵＳ,,株式会社,大阪府,和泉市,伏屋町２丁目９番２０号,,27,219,5940031,,,,,,,2022-09-06,1,,,,,マヌス,0
460,2120101066199,新規,0,2022-09-06,2022-09-06,株式会社小西住建,,株式会社,大阪府,松原市,河合１丁目１１番３２号,,27,217,5800022,,,,,,,2022-09-06,1,,,,,コニシジュウケン,0
461,2120103004834,新規,0,2022-09-06,2022-09-06,合同会社ルックアップ,,合同会社,大阪府,貝塚市,東山５丁目１番２４号,,27,208,5970046,,,,,,,2022-09-06,1,,,,,ルックアップ,0
464,2120901046458,新規,0,2022-09-06,2022-09-06,株式会社クロキ機械,,株式会社,大阪府,豊中市,走井３丁目４番２３号,,27,203,5610891,,,,,,,2022-09-06,1,,,,,クロキキカイ,0
474,2130003008158,新規,0,2022-09-06,2022-09-06,ＥＡＳ合同会社,,合同会社,京都府,長岡京市,下海印寺横山１０番地１９,,26,209,6170845,,,,,,,2022-09-06,1,,,,,イーエーエス,0
475,2140001127248,新規,0,2022-09-06,2022-09-06,ハックソリューションズ株式会社,,株式会社,兵庫県,西宮市,笠屋町７番１６－１号,,28,204,6638136,,,,,,,2022-09-06,1,,,,,ハックソリューションズ,0
476,2140001127280,新規,0,2022-09-06,2022-09-06,株式会社ジーシーサイエンス,,株式会社,兵庫県,神戸市中央区,港島南町６丁目３－７クリエイティブラボ神戸３０３,,28,110,6500047,,,,,,,2022-09-06,1,,,,,ジーシーサイエンス,0
477,2140001127289,新規,0,2022-09-06,2022-09-06,株式会社金木犀,,株式会社,兵庫県,神戸市中央区,元町通２丁目１０番１号,,28,110,6500022,,,,,,,2022-09-06,1,,,,,キンモクセイ,0
478,2140001127297,新規,0,2022-09-06,2022-09-06,株式会社森寺工業,,株式会社,兵庫県,豊岡市,九日市中町９２番地の５,,28,209,6680053,,,,,,,2022-09-06,1,,,,,モリデラコウギョウ,0
483,2150001025797,新規,0,2022-09-06,2022-09-06,株式会社Ｋｅｙｓｔｏｎｅ,,株式会社,奈良県,生駒市,美鹿の台８番１５号,,29,209,6300116,,,,,,,2022-09-06,1,,,,,キーストン,0
486,2160001024484,新規,0,2022-09-06,2022-09-06,株式会社ａ‐Ｓ,,株式会社,滋賀県,近江八幡市,上畑町６３番地１,,25,204,5230026,,,,,,,2022-09-06,1,,,,,エース,0
488,2160003002661,新規,0,2022-09-06,2022-09-06,合同会社ライズ,,合同会社,滋賀県,長浜市,小野寺町４６３番地１８,,25,203,5260221,,,,,,,2022-09-06,1,,,,,ライズ,0
493,2180001152878,新規,0,2022-09-06,2022-09-06,株式会社ＭＫ住建,,株式会社,愛知県,名古屋市名東区,藤里町１２０１番地藤の木団地２棟５０６号,,23,115,4650036,,,,,,,2022-09-06,1,,,,,エムケージュウケン,0
494,2180001152903,新規,0,2022-09-06,2022-09-06,株式会社いとう設備,,株式会社,愛知県,尾張旭市,平子町長池上６２６３番地１,,23,226,4880872,,,,,,,2022-09-06,1,,,,,イトウセツビ,0
499,2180301036590,新規,0,2022-09-06,2022-09-06,プログラミングワークスタイル株式会社,,株式会社,愛知県,岡崎市,鴨田町字南魂場３７番地２,,23,202,4442121,,,,,,,2022-09-06,1,,,,,プログラミングワークスタイル,0
501,2190001029737,新規,0,2022-09-06,2022-09-06,株式会社ハイロー,,株式会社,三重県,伊勢市,一之木５丁目３番３２号,,24,203,5160071,,,,,,,2022-09-06,1,,,,,ハイロー,0
503,2200001040428,新規,0,2022-09-06,2022-09-06,株式会社大和,,株式会社,岐阜県,大垣市,南頬町５丁目２２番地１モナーク安井１０１号,,21,202,5030864,,,,,,,2022-09-06,1,,,,,ダイワ,0
505,2210001019058,新規,0,2022-09-06,2022-09-06,Ａｒｔ　Ｓｔｙｌｅ株式会社,,株式会社,福井県,坂井市,坂井町清永第１１号１９番地１,,18,210,9190534,,,,,,,2022-09-06,1,,,,,アートスタイル,0
509,2220005008700,新規,0,2022-09-06,2022-09-06,弁護士法人クラフト,,その他の設立登記法人,石川県,金沢市,兼六元町３番２４号,,17,201,9200931,,,,,,,2022-09-06,1,,,,,クラフト,0
517,2240001060323,新規,0,2022-09-06,2022-09-06,Ａｓｓｉｓｔ株式会社,,株式会社,広島県,福山市,新涯町６丁目６番５号,,34,207,7210955,,,,,,,2022-09-06,1,,,,,アシスト,0
528,2260001037195,新規,0,2022-09-06,2022-09-06,株式会社自然と暮らす農園,,株式会社,岡山県,赤磐市,下仁保１５７１番地,,33,213,7090836,,,,,,,2022-09-06,1,,,,,シゼントクラスノウエン,0
532,2260003004029,新規,0,2022-09-06,2022-09-06,合同会社マーテル,,合同会社,岡山県,岡山市北区,桑田町１３番１９号,,33,101,7000984,,,,,,,2022-09-06,1,,,,,マーテル,0
540,2290001098796,新規,0,2022-09-06,2022-09-06,株式会社ｋｉｋｉ,,株式会社,福岡県,福岡市中央区,天神５丁目７番１号,,40,133,8100001,,,,,,,2022-09-06,1,,,,,キキ,0
542,2290003012920,新規,0,2022-09-06,2022-09-06,合同会社ハッピーファーム,,合同会社,福岡県,大川市,大字坂井３６０番地５,,40,212,8310025,,,,,,,2022-09-06,1,,,,,ハッピーファーム,0
544,2290801028878,新規,0,2022-09-06,2022-09-06,株式会社ＮａＮａ,,株式会社,福岡県,北九州市若松区,童子丸１丁目５番３号,,40,103,8080076,,,,,,,2022-09-06,1,,,,,ナナ,0
545,2290803004191,新規,0,2022-09-06,2022-09-06,Ｚｉｎａｇｉ合同会社,,合同会社,福岡県,豊前市,大字宇島１２２番地１,,40,214,8280022,,,,,,,2022-09-06,1,,,,,ジナギ,0
548,2310001018025,新規,0,2022-09-06,2022-09-06,株式会社Ｓａｎｋ,,株式会社,長崎県,西彼杵郡長与町,高田郷２０８７番地１２フィールド高田Ａ号,,42,307,8512127,,,,,,,2022-09-06,1,,,,,サンク,0
552,2320001019311,新規,0,2022-09-06,2022-09-06,株式会社みらいーず,,株式会社,大分県,津久見市,大字津久見１５６０番地,,44,207,8792421,,,,,,,2022-09-06,1,,,,,ミライーズ,0
553,2330001030077,新規,0,2022-09-06,2022-09-06,株式会社丸福,,株式会社,熊本県,熊本市中央区,水前寺１丁目３１番１５－３０１号ＡＢＣマンション,,43,101,8620950,,,,,,,2022-09-06,1,,,,,マルフク,0
554,2330001030085,新規,0,2022-09-06,2022-09-06,株式会社新田商店,,株式会社,熊本県,天草市,八幡町１４番１３－４号,,43,215,8630047,,,,,,,2022-09-06,1,,,,,ニッタショウテン,0
555,2330001030093,新規,0,2022-09-06,2022-09-06,スタンディア株式会社,,株式会社,熊本県,熊本市東区,月出２丁目４番４０－１２０３号,,43,102,8620920,,,,,,,2022-09-06,1,,,,,スタンディア,0
557,2330003009508,新規,0,2022-09-06,2022-09-06,合同会社ももの木訪問看護ステーション,,合同会社,熊本県,葦北郡芦北町,大字田浦町６５３芦北サテライトオフィス田浦,00127736,43,482,8695305,,,,,,,2022-09-06,1,,,,,モモノキホウモンカンゴステーション,0
560,2340005009496,新規,0,2022-09-06,2022-09-06,医療法人貴和会,,その他の設立登記法人,鹿児島県,日置市,伊集院町麦生田３３８番地５,,46,216,8992513,,,,,,,2022-09-06,1,,,,,キワカイ,0
561,2350001017931,新規,0,2022-09-06,2022-09-06,株式会社あぐりちゃん,,株式会社,宮崎県,児湯郡都農町,大字川北１２０２番地８,,45,406,8891201,,,,,,,2022-09-06,1,,,,,アグリチャン,0
566,2360005006715,新規,0,2022-09-06,2022-09-06,一般財団法人Ｃ‐１推進評議会,,その他の設立登記法人,沖縄県,那覇市,樋川２丁目１０番１４－１９０６号,,47,201,9000022,,,,,,,2022-09-06,1,,,,,シーワンスイシンヒョウギカイ,0
572,2370001049031,新規,0,2022-09-06,2022-09-06,株式会社学心舎,,株式会社,宮城県,仙台市青葉区,上杉１丁目５－１３Ｂｏｎｄｓ＆Ｒ上杉ビル１階,,04,101,9800011,,,,,,,2022-09-06,1,,,,,ガクシンシャ,0
579,2380001033091,新規,0,2022-09-06,2022-09-06,株式会社第一建設,,株式会社,福島県,石川郡石川町,大字板橋字茅刈場５８番地,,07,501,9637813,,,,,,,2022-09-06,1,,,,,ダイイチケンセツ,0
584,2400001015995,新規,0,2022-09-06,2022-09-06,株式会社ＥＶＶＩＶＡ,,株式会社,岩手県,岩手郡岩手町,大字沼宮内第９地割２２番地２,,03,303,0284301,,,,,,,2022-09-06,1,,,,,エッビーバ,0
587,2420001017998,新規,0,2022-09-06,2022-09-06,株式会社まるたけ,,株式会社,青森県,青森市,大字浦町字奥野３４７番地２１,,02,201,0300842,,,,,,,2022-09-06,1,,,,,マルタケ,0
589,2420003002569,新規,0,2022-09-06,2022-09-06,合同会社みちのく不動産,,合同会社,青森県,青森市,浪岡大字浪岡字細田１４７番地,,02,201,0381311,,,,,,,2022-09-06,1,,,,,ミチノクフドウサン,0
594,2440001009143,新規,0,2022-09-06,2022-09-06,リベルタハコダテ株式会社,,株式会社,北海道,函館市,五稜郭町３２番１８号,,01,202,0400001,,,,,,,2022-09-06,1,,,,,リベルタハコダテ,0
620,3010001229130,新規,0,2022-09-06,2022-09-06,エネグローバルホールディングス株式会社,,株式会社,東京都,千代田区,丸の内１丁目６番５号丸の内北口ビルディング９階,,13,101,1000005,,,,,,,2022-09-06,1,,,,,エネグローバルホールディングス,0
621,3010001229188,新規,0,2022-09-06,2022-09-06,株式会社ＳＴＯＣＫ１０９,,株式会社,東京都,千代田区,永田町２丁目１２番４号,,13,101,1000014,,,,,,,2022-09-06,1,,,,,ストックヒャクキュウ,0
622,3010001229213,新規,0,2022-09-06,2022-09-06,サポートカンパニー株式会社,,株式会社,東京都,中央区,日本橋人形町２丁目３３番５号ＯＴＡＹＡビル３０３号,,13,102,1030013,,,,,,,2022-09-06,1,,,,,サポートカンパニー,0
623,3010001229254,新規,0,2022-09-06,2022-09-06,株式会社Ｋ‐ＮＥＴＺ　ＪＡＰＡＮ,,株式会社,東京都,中央区,東日本橋２丁目４番１２号北川ビル７階,,13,102,1030004,,,,,,,2022-09-06,1,,,,,ケーネッツジャパン,0
624,3010001229270,新規,0,2022-09-06,2022-09-06,株式会社未来都市ホールディングス,,株式会社,東京都,中央区,築地５丁目３番３号,,13,102,1040045,,,,,,,2022-09-06,1,,,,,ミライトシホールディングス,0
625,3010003038570,新規,0,2022-09-06,2022-09-06,Ｒａｐｉｓ合同会社,,合同会社,東京都,中央区,日本橋堀留町１丁目１０番１号カクタビル２階,,13,102,1030012,,,,,,,2022-09-06,1,,,,,ラピス,0
632,3010401168507,新規,0,2022-09-06,2022-09-06,Ａｆｒｉｃａｎ　Ｍｏｔｈｅｒｓ株式会社,,株式会社,東京都,港区,芝浦１丁目１３番１０号,,13,103,1050023,,,,,,,2022-09-06,1,,,,,アフリカンマザーズ,0
633,3010401169430,新規,0,2022-09-06,2022-09-06,株式会社Ｍ９,,株式会社,東京都,港区,三田１丁目３番４０－９１０号,,13,103,1080073,,,,,,,2022-09-06,1,,,,,エムナイン,0
634,3010401169471,新規,0,2022-09-06,2022-09-06,ＰＭＩキャピタルマネジメント株式会社,,株式会社,東京都,港区,元赤坂１丁目７番１８号,,13,103,1070051,,,,,,,2022-09-06,1,,,,,ピーエムアイキャピタルマネジメント,0
635,3010401169538,新規,0,2022-09-06,2022-09-06,株式会社ＢｏｏｓｔＬａｂ,,株式会社,東京都,港区,浜松町２丁目２番１５号浜松町ダイヤビル２Ｆ,,13,103,1050013,,,,,,,2022-09-06,1,,,,,ブーストラボ,0
637,3010403028295,新規,0,2022-09-06,2022-09-06,合同会社ＬＩＦＥ　ＰＡＲＴＮＥＲＳ,,合同会社,東京都,港区,虎ノ門１丁目１６番６号虎ノ門ＲＡＰＯ－ＴＯビルＵＣＦ７０３,,13,103,1050001,,,,,,,2022-09-06,1,,,,,ライフパートナーズ,0
638,3010403028320,新規,0,2022-09-06,2022-09-06,ＳＣＧ７６合同会社,,合同会社,東京都,港区,虎ノ門４丁目１番２８号,,13,103,1050001,,,,,,,2022-09-06,1,,,,,エスシージーセブンティシックス,0
643,3010601061791,新規,0,2022-09-06,2022-09-06,株式会社ＡＳ　Ａ　ＢＩＲＤ,,株式会社,東京都,江東区,木場５丁目８－４１,,13,108,1350042,,,,,,,2022-09-06,1,,,,,アズアバード,0
652,3011001149582,新規,0,2022-09-06,2022-09-06,株式会社ＲＯＬＥＵＰ,,株式会社,東京都,渋谷区,恵比寿４丁目２０番３号恵比寿ガーデンプレイスタワー１８階,,13,113,1500013,,,,,,,2022-09-06,1,,,,,ロールアップ,0
666,3011501028451,新規,0,2022-09-06,2022-09-06,ＺＲＫＲ健康研究院株式会社,,株式会社,東京都,荒川区,南千住３丁目２７－２浅草ビル５０８号室,,13,118,1160003,,,,,,,2022-09-06,1,,,,,ゼットケーアールケンコウケンキュウイン,0
667,3011503005275,新規,0,2022-09-06,2022-09-06,Ｂｒｉｇｈｔ合同会社,,合同会社,東京都,荒川区,東日暮里４丁目２８－１３堀マンション２０１号室,,13,118,1160014,,,,,,,2022-09-06,1,,,,,ブライト,0
669,3011701025587,新規,0,2022-09-06,2022-09-06,株式会社ムロゾノ,,株式会社,東京都,江戸川区,春江町２丁目１０番１５号,,13,123,1320003,,,,,,,2022-09-06,1,,,,,ムロゾノ,0
672,3011801041245,新規,0,2022-09-06,2022-09-06,株式会社サンフォレスト,,株式会社,東京都,葛飾区,亀有５丁目２０番１２号一番館１階,,13,122,1250061,,,,,,,2022-09-06,1,,,,,サンフォレスト,0
673,3011803005248,新規,0,2022-09-06,2022-09-06,合同会社フレンズ金町,,合同会社,東京都,葛飾区,金町２丁目８番１４号,,13,122,1250042,,,,,,,2022-09-06,1,,,,,フレンズカナマチ,0
682,3012701017236,新規,0,2022-09-06,2022-09-06,株式会社大西,,株式会社,東京都,東久留米市,金山町１丁目９番３号,,13,222,2030003,,,,,,,2022-09-06,1,,,,,オオニシ,0
683,3012801021815,新規,0,2022-09-06,2022-09-06,株式会社ＳＢＣｈ,,株式会社,東京都,日野市,大坂上２丁目１４番地の２１,,13,212,1910061,,,,,,,2022-09-06,1,,,,,エスビーシーアッシュ,0
684,3012801021823,新規,0,2022-09-06,2022-09-06,株式会社Ｌａｏｌ,,株式会社,東京都,立川市,幸町３丁目３３番地の１２,,13,202,1900002,,,,,,,2022-09-06,1,,,,,ラオウ,0
685,3012803002870,新規,0,2022-09-06,2022-09-06,合同会社イノベサスＨＤ,,合同会社,東京都,日野市,日野台１丁目１６番地の７号,,13,212,1910003,,,,,,,2022-09-06,1,,,,,,0
695,3020001148049,新規,0,2022-09-06,2022-09-06,神奈川鋼材株式会社,,株式会社,神奈川県,横浜市磯子区,新磯子町３番地,,14,107,2350017,,,,,,,2022-09-06,1,,,,,カナガワコウザイ,0
696,3020001148065,新規,0,2022-09-06,2022-09-06,株式会社スカイウッド,,株式会社,神奈川県,横浜市旭区,今宿西町４４８番地１,,14,112,2410031,,,,,,,2022-09-06,1,,,,,スカイウッド,0
697,3020001148081,新規,0,2022-09-06,2022-09-06,株式会社ＣＨＡＭＯＳ　ＳＴＵＤＩＯＳ,,株式会社,神奈川県,横浜市中区,太田町１丁目１８番地２関内エスビル７０１,,14,104,2310011,,,,,,,2022-09-06,1,,,,,チャモススタジオ,0
698,3020001148107,新規,0,2022-09-06,2022-09-06,株式会社Ｌａｐｉｓ　Ｇｒｏｕｐ,,株式会社,神奈川県,横浜市瀬谷区,阿久和東４丁目２番地１１プルミエＫ１０２,,14,114,2460023,,,,,,,2022-09-06,1,,,,,ラピスグループ,0
700,3020003022342,新規,0,2022-09-06,2022-09-06,ＨＡＲＡＤＡ合同会社,,合同会社,神奈川県,川崎市川崎区,台町７番９号,,14,131,2100814,,,,,,,2022-09-06,1,,,,,ハラダ,0
701,3021001076917,新規,0,2022-09-06,2022-09-06,スリーテン株式会社,,株式会社,神奈川県,伊勢原市,善波７８７番地１,,14,214,2591106,,,,,,,2022-09-06,1,,,,,スリーテン,0
711,3030001149946,新規,0,2022-09-06,2022-09-06,株式会社ファイントゥデイインダストリーズ,,株式会社,埼玉県,久喜市,清久町５番,,11,232,3460035,,,,,,,2022-09-06,1,,,,,ファイントゥデイインダストリーズ,0
712,3030001149962,新規,0,2022-09-06,2022-09-06,雄善株式会社,,株式会社,埼玉県,川越市,新宿町２丁目７番地８,,11,201,3501124,,,,,,,2022-09-06,1,,,,,ユウゼン,0
713,3030001149970,新規,0,2022-09-06,2022-09-06,株式会社ＩＹＭ電気,,株式会社,埼玉県,新座市,馬場３丁目３番４５号,,11,230,3520016,,,,,,,2022-09-06,1,,,,,アイワイエムデンキ,0
714,3030001149979,新規,0,2022-09-06,2022-09-06,ｉＣｏｎｎｅｃｔ株式会社,,株式会社,埼玉県,上尾市,柏座１丁目９番１８号リモージュ２０１号室,,11,219,3620075,,,,,,,2022-09-06,1,,,,,アイコネクト,0
715,3030001149987,新規,0,2022-09-06,2022-09-06,株式会社エアキス,,株式会社,埼玉県,さいたま市浦和区,領家５丁目８番１５号,,11,107,3300072,,,,,,,2022-09-06,1,,,,,エアキス,0
716,3030001149995,新規,0,2022-09-06,2022-09-06,株式会社ＧＵＳＨＩＫＥＮ,,株式会社,埼玉県,蕨市,塚越５丁目５０番１６号ハイツ西川口４０３号,,11,223,3350002,,,,,,,2022-09-06,1,,,,,グシケン,0
717,3030001150004,新規,0,2022-09-06,2022-09-06,ＳＫＣ株式会社,,株式会社,埼玉県,川口市,大字芝４５０４番地１,,11,203,3330866,,,,,,,2022-09-06,1,,,,,エスケーシー,0
718,3030001150012,新規,0,2022-09-06,2022-09-06,タケダ商事株式会社,,株式会社,埼玉県,児玉郡上里町,大字三町９２６番地１アルペジオ三町２０１号,,11,385,3690314,,,,,,,2022-09-06,1,,,,,タケダショウジ,0
720,3030003020122,新規,0,2022-09-06,2022-09-06,合同会社隆美,,合同会社,埼玉県,蕨市,塚越３丁目３１番３号,,11,223,3350002,,,,,,,2022-09-06,1,,,,,リュウビ,0
721,3030003020147,新規,0,2022-09-06,2022-09-06,コリンヌ合同会社,,合同会社,埼玉県,さいたま市見沼区,東大宮４丁目４１番地１０,,11,104,3370051,,,,,,,2022-09-06,1,,,,,コリンヌ,0
725,3040001124923,新規,0,2022-09-06,2022-09-06,株式会社ＫＩＣ,,株式会社,千葉県,旭市,新町７１２番地１５,,12,215,2892501,,,,,,,2022-09-06,1,,,,,ケイアイシー,0
726,3040001124948,新規,0,2022-09-06,2022-09-06,株式会社ＵＵＴＥＣＨ,,株式会社,千葉県,市川市,相之川４丁目１３－１９－２０３,,12,203,2720143,,,,,,,2022-09-06,1,,,,,ユユテック,0
727,3040001124956,新規,0,2022-09-06,2022-09-06,株式会社グレイスガーデン,,株式会社,千葉県,船橋市,三咲２丁目１３－２４－１０２,,12,204,2740812,,,,,,,2022-09-06,1,,,,,グレイスガーデン,0
731,3040003020716,新規,0,2022-09-06,2022-09-06,ＰＧ　Ｆｉｌｍｓ合同会社,,合同会社,千葉県,大網白里市,北飯塚２５６－８,,12,239,2993218,,,,,,,2022-09-06,1,,,,,ピージーフィルムズ,0
732,3040003020757,新規,0,2022-09-06,2022-09-06,華客合同会社,,合同会社,千葉県,浦安市,北栄３丁目３４－２２ジュネパレス浦安２の３０４号室,,12,227,2790002,,,,,,,2022-09-06,1,,,,,フアケ,0
733,3040003020781,新規,0,2022-09-06,2022-09-06,ＬＩＮＨ　ＤＵＹ合同会社,,合同会社,千葉県,船橋市,前原西１丁目１０番２８－コスモス前原１０６号,,12,204,2740825,,,,,,,2022-09-06,1,,,,,リンズイ,0
735,3040005021729,新規,0,2022-09-06,2022-09-06,ＮＰＯ法人まんてんこども食堂,,その他の設立登記法人,千葉県,千葉市稲毛区,小仲台３丁目１番１１号,,12,103,2630043,,,,,,,2022-09-06,1,,,,,マンテンコドモショクドウ,0
739,3050001051638,新規,0,2022-09-06,2022-09-06,株式会社陽だまり,,株式会社,茨城県,稲敷郡阿見町,大字青宿６８７番地７,,08,443,3000301,,,,,,,2022-09-06,1,,,,,ヒダマリ,0
740,3050001051646,新規,0,2022-09-06,2022-09-06,株式会社薄井土建,,株式会社,茨城県,石岡市,大塚６２４番地３,,08,205,3150105,,,,,,,2022-09-06,1,,,,,ウスイドケン,0
742,3060001035243,新規,0,2022-09-06,2022-09-06,株式会社ＡＫ,,株式会社,栃木県,佐野市,植下町２８６番地１,,09,204,3270835,,,,,,,2022-09-06,1,,,,,エーケイ,0
743,3060003004213,新規,0,2022-09-06,2022-09-06,合同会社ＢＯＤＹ　ＦＡＢ,,合同会社,栃木県,小山市,駅南町２丁目２６番１７号,,09,208,3230822,,,,,,,2022-09-06,1,,,,,ボディファブ,0
747,3080101023518,新規,0,2022-09-06,2022-09-06,株式会社ふりす動物病院,,株式会社,静岡県,田方郡函南町,平井８３２番地の３１,,22,325,4190107,,,,,,,2022-09-06,1,,,,,フリスドウブツビョウイン,0
751,3080103002643,新規,0,2022-09-06,2022-09-06,合同会社Ｓｈａｄｅ　Ｔｒｅｅ,,合同会社,静岡県,伊東市,富戸１３１７－１１４４,,22,208,4130231,,,,,,,2022-09-06,1,,,,,シェイドツリー,0
753,3080401026022,新規,0,2022-09-06,2022-09-06,株式会社ＺＥＲＯ　Ｇｒｏｕｐ,,株式会社,静岡県,浜松市東区,貴平町１５１番地１,,22,132,4313104,,,,,,,2022-09-06,1,,,,,ゼログループ,0
755,3080405007480,新規,0,2022-09-06,2022-09-06,社会保険労務士法人如水会,,その他の設立登記法人,静岡県,浜松市南区,寺脇町３０３番地,,22,134,4300841,,,,,,,2022-09-06,1,,,,,ジョスイカイ,0
756,3090005007509,新規,0,2022-09-06,2022-09-06,池谷税理士法人,,その他の設立登記法人,山梨県,富士吉田市,下吉田５丁目１８番１７号,,19,202,4030004,,,,,,,2022-09-06,1,,,,,イケヤ,0
782,3120001248623,新規,0,2022-09-06,2022-09-06,株式会社アスク近畿,,株式会社,大阪府,大阪市北区,梅田１丁目２番２号,,27,127,5300001,,,,,,,2022-09-06,1,,,,,アスクキンキ,0
783,3120001248664,新規,0,2022-09-06,2022-09-06,株式会社自動車旅団,,株式会社,大阪府,大阪市平野区,瓜破３丁目２番４０号,,27,126,5470024,,,,,,,2022-09-06,1,,,,,ジドウシャリョダン,0
788,3120005023171,新規,0,2022-09-06,2022-09-06,一般社団法人日本ストリートダンスパフォーマンス協会,,その他の設立登記法人,大阪府,大阪市中央区,西心斎橋１丁目１２番８号,,27,128,5420086,,,,,,,2022-09-06,1,,,,,ニホンストリートダンスパフォーマンスキョウカイ,0
800,3120901046457,新規,0,2022-09-06,2022-09-06,池田土地建物株式会社,,株式会社,大阪府,池田市,神田１丁目２６番２号,,27,204,5630043,,,,,,,2022-09-06,1,,,,,イケダトチタテモノ,0
802,3120903004289,新規,0,2022-09-06,2022-09-06,合同会社ｓａｐｉｅｎｓ,,合同会社,大阪府,茨木市,新中条町１番３０号－５５２号,,27,211,5670872,,,,,,,2022-09-06,1,,,,,サピエンス,0
806,3122001036223,新規,0,2022-09-06,2022-09-06,株式会社Ｐａｒａｄｏｘ,,株式会社,大阪府,八尾市,東山本新町７丁目２番１５号,,27,212,5810866,,,,,,,2022-09-06,1,,,,,パラドックス,0
812,3130001072568,新規,0,2022-09-06,2022-09-06,株式会社ｍｉｎｉｍａｌ,,株式会社,京都府,京都市中京区,新京極通四条上る中之町５６９番地５,,26,104,6048042,,,,,,,2022-09-06,1,,,,,ミニマル,0
816,3140001127247,新規,0,2022-09-06,2022-09-06,株式会社ＳＡＮＳＥＩ,,株式会社,兵庫県,尼崎市,西立花町１丁目２番１０号,,28,202,6600054,,,,,,,2022-09-06,1,,,,,サンセイ,0
817,3140001127313,新規,0,2022-09-06,2022-09-06,株式会社ＳＬＯＰＥＷＡＹ,,株式会社,兵庫県,神戸市中央区,東川崎町１丁目８－４神戸市産業振興センター５Ｆ、５－７,,28,110,6500044,,,,,,,2022-09-06,1,,,,,スロープウェイ,0
820,3140003018089,新規,0,2022-09-06,2022-09-06,ヒルトップ合同会社,,合同会社,兵庫県,神戸市中央区,港島中町６丁目１４番地ポートピアプラザＢ棟２５０７号,,28,110,6500046,,,,,,,2022-09-06,1,,,,,ヒルトップ,0
822,3150001025788,新規,0,2022-09-06,2022-09-06,株式会社ＳＳ,,株式会社,奈良県,生駒市,高山町７８４５番地,,29,209,6300101,,,,,,,2022-09-06,1,,,,,エスエス,0
823,3150001025796,新規,0,2022-09-06,2022-09-06,株式会社ｃｈｏｕｃｈｏｕ,,株式会社,奈良県,大和郡山市,下三橋町２９４番地１０１,,29,203,6391101,,,,,,,2022-09-06,1,,,,,シュシュ,0
827,3160001024483,新規,0,2022-09-06,2022-09-06,株式会社青亥,,株式会社,滋賀県,草津市,下笠町２０７番１号,,25,206,5250029,,,,,,,2022-09-06,1,,,,,アオイ,0
839,3180001152860,新規,0,2022-09-06,2022-09-06,株式会社徳重はりがやメディカルサポート,,株式会社,愛知県,名古屋市緑区,徳重１丁目１４１５番地,,23,114,4580815,,,,,,,2022-09-06,1,,,,,トクシゲハリガヤメディカルサポート,0
840,3180001152869,新規,0,2022-09-06,2022-09-06,株式会社森本企画,,株式会社,愛知県,日進市,香久山４丁目５０２番地２,,23,230,4700134,,,,,,,2022-09-06,1,,,,,モリモトキカク,0
841,3180001152902,新規,0,2022-09-06,2022-09-06,株式会社トップコート,,株式会社,愛知県,西春日井郡豊山町,大字青山１７２０番地１９,,23,342,4800201,,,,,,,2022-09-06,1,,,,,トップコート,0
844,3180003024216,新規,0,2022-09-06,2022-09-06,合同会社エトワル,,合同会社,愛知県,名古屋市緑区,有松愛宕７１６番地の３,,23,114,4580903,,,,,,,2022-09-06,1,,,,,エトワル,0
845,3180003024224,新規,0,2022-09-06,2022-09-06,合同会社武神,,合同会社,愛知県,一宮市,高田字池尻５９番地２,,23,203,4910125,,,,,,,2022-09-06,1,,,,,ブシン,0
847,3180301036615,新規,0,2022-09-06,2022-09-06,株式会社みのる,,株式会社,愛知県,知立市,上重原町寺内１１番地,,23,225,4720026,,,,,,,2022-09-06,1,,,,,ミノル,0
848,3190001029736,新規,0,2022-09-06,2022-09-06,株式会社フィトス,,株式会社,三重県,津市,高野尾町４９５１番地,,24,201,5142221,,,,,,,2022-09-06,1,,,,,フィトス,0
849,3190001029752,新規,0,2022-09-06,2022-09-06,株式会社しおん,,株式会社,三重県,四日市市,安島２丁目３番５－８０４号ライオンズシティ四日市,,24,202,5100075,,,,,,,2022-09-06,1,,,,,シオン,0
851,3200003005659,新規,0,2022-09-06,2022-09-06,合同会社楽市,,合同会社,岐阜県,関市,富之保４２７３番地１,,21,205,5013501,,,,,,,2022-09-06,1,,,,,ラクイチ,0
855,3220001025021,新規,0,2022-09-06,2022-09-06,株式会社ファンテック,,株式会社,石川県,金沢市,米泉町２丁目１５番地９,,17,201,9218044,,,,,,,2022-09-06,1,,,,,ファンテック,0
857,3220003003355,新規,0,2022-09-06,2022-09-06,新日本サービス合同会社,,合同会社,石川県,金沢市,笠舞１丁目８番５９号,,17,201,9200965,,,,,,,2022-09-06,1,,,,,シンニホンサービス,0
859,3240001060306,新規,0,2022-09-06,2022-09-06,黒川建設株式会社,,株式会社,広島県,東広島市,黒瀬町乃美尾１１５７番地,,34,212,7392622,,,,,,,2022-09-06,1,,,,,クロカワケンセツ,0
860,3240001060314,新規,0,2022-09-06,2022-09-06,株式会社ＡＫＩカーウォッシュ,,株式会社,広島県,広島市安佐南区,長束３丁目２５番２１号,,34,105,7310135,,,,,,,2022-09-06,1,,,,,アキカーウォッシュ,0
861,3240001060330,新規,0,2022-09-06,2022-09-06,株式会社ウェルスクリエイト,,株式会社,広島県,広島市南区,京橋町１番７号アスティ広島京橋ビルディング,,34,103,7320828,,,,,,,2022-09-06,1,,,,,ウェルスクリエイト,0
862,3240001060339,新規,0,2022-09-06,2022-09-06,株式会社ＣＡＲＤ　ＢＯＡＲＤ,,株式会社,広島県,広島市中区,江波南２丁目１０番１８号,,34,101,7300835,,,,,,,2022-09-06,1,,,,,カードボード,0
870,3260001037228,新規,0,2022-09-06,2022-09-06,株式会社鶴山サービス,,株式会社,岡山県,津山市,細工町２４番地,,33,203,7080053,,,,,,,2022-09-06,1,,,,,カクザンサービス,0
871,3260001037236,新規,0,2022-09-06,2022-09-06,株式会社ＩＲＦ,,株式会社,岡山県,倉敷市,西尾３７７番地４,,33,202,7010103,,,,,,,2022-09-06,1,,,,,アイアールエフ,0
879,3290001098795,新規,0,2022-09-06,2022-09-06,株式会社ＯＬＩＶＥＲ　ＬＩＧＨＴ,,株式会社,福岡県,福岡市中央区,天神５丁目７番１号,,40,133,8100001,,,,,,,2022-09-06,1,,,,,オリバーライト,0
880,3290001098812,新規,0,2022-09-06,2022-09-06,株式会社エンタープライズ,,株式会社,福岡県,糟屋郡宇美町,宇美中央４丁目１０番４９号,,40,341,8112128,,,,,,,2022-09-06,1,,,,,エンタープライズ,0
881,3290001098829,新規,0,2022-09-06,2022-09-06,株式会社笑福,,株式会社,福岡県,久留米市,東町３２番１１号ニュートミタヤビル４０２,,40,203,8300032,,,,,,,2022-09-06,1,,,,,エフ,0
882,3290001098837,新規,0,2022-09-06,2022-09-06,株式会社那珂川金属,,株式会社,福岡県,那珂川市,西隈２丁目７番１８号,,40,231,8111242,,,,,,,2022-09-06,1,,,,,ナカガワキンゾク,0
885,3290801028860,新規,0,2022-09-06,2022-09-06,新嬌運輸株式会社,,株式会社,福岡県,行橋市,大字草野２１番地５,,40,213,8240061,,,,,,,2022-09-06,1,,,,,シンキョウウンユ,0
886,3290801028869,新規,0,2022-09-06,2022-09-06,株式会社ＤＡＨＬＩＡ,,株式会社,福岡県,北九州市小倉南区,守恒本町３丁目１番１７号,,40,107,8020971,,,,,,,2022-09-06,1,,,,,ダリア,0
892,3330001030076,新規,0,2022-09-06,2022-09-06,株式会社スッキリ,,株式会社,熊本県,山鹿市,菊鹿町下内田１８５５番地,,43,208,8610406,,,,,,,2022-09-06,1,,,,,スッキリ,0
894,3340001025001,新規,0,2022-09-06,2022-09-06,株式会社ＪＡＣＫＰＲＯＪＥＣＴ．,,株式会社,鹿児島県,鹿児島市,唐湊１丁目１１番１号唐湊Ｎビル１Ｆ,,46,201,8900081,,,,,,,2022-09-06,1,,,,,ジャックプロジェクト,0
898,3340005009495,新規,0,2022-09-06,2022-09-06,医療法人おとなとこどもの整形外科,,その他の設立登記法人,鹿児島県,鹿児島市,鴨池１丁目３１番６号ＤＥＬＰＨＩ鴨池Ｉ　１階,,46,201,8900063,,,,,,,2022-09-06,1,,,,,オトナトコドモノセイケイゲカ,0
899,3350001017939,新規,0,2022-09-06,2022-09-06,株式会社昇木材,,株式会社,宮崎県,都城市,中原町２９街区６号,,45,202,8850032,,,,,,,2022-09-06,1,,,,,ノボリモクザイ,0
901,3360003012276,新規,0,2022-09-06,2022-09-06,合同会社ＨＫＳＣピース,,合同会社,沖縄県,名護市,字呉我１３９番地,,47,209,9051154,,,,,,,2022-09-06,1,,,,,エイチケイエスシーピース,0
902,3370001049014,新規,0,2022-09-06,2022-09-06,株式会社アスク北日本,,株式会社,宮城県,仙台市青葉区,大町２丁目４番１０号,,04,101,9800804,,,,,,,2022-09-06,1,,,,,アスクキタニホン,0
903,3370001049030,新規,0,2022-09-06,2022-09-06,株式会社彩心屋,,株式会社,宮城県,塩竈市,松陽台３丁目１６番１０号,,04,203,9850071,,,,,,,2022-09-06,1,,,,,イロミヤ,0
908,3380001033090,新規,0,2022-09-06,2022-09-06,株式会社ふるさと,,株式会社,福島県,南相馬市,原町区中太田字天狗田１２０番地の１２,,07,212,9750052,,,,,,,2022-09-06,1,,,,,フルサト,0
912,3390001017010,新規,0,2022-09-06,2022-09-06,株式会社Ｄｒ．ＢＡＳＥ,,株式会社,山形県,酒田市,亀ケ崎７丁目１２番１号,,06,204,9980842,,,,,,,2022-09-06,1,,,,,ドクターベース,0
914,3390003001994,新規,0,2022-09-06,2022-09-06,合同会社森のケーキ屋さん,,合同会社,山形県,東田川郡庄内町,廿六木字三ツ車２１番地,,06,428,9997707,,,,,,,2022-09-06,1,,,,,モリノケーキヤサン,0
915,3400001015994,新規,0,2022-09-06,2022-09-06,ワタナベオフィス株式会社,,株式会社,岩手県,紫波郡矢巾町,大字藤沢６－６－１０,,03,322,0283602,,,,,,,2022-09-06,1,,,,,ワタナベオフィス,0
919,3430001087461,新規,0,2022-09-06,2022-09-06,株式会社ハマダヴィンヤード,,株式会社,北海道,三笠市,高美町４４４番地４０,,01,222,0682154,,,,,,,2022-09-06,1,,,,,ハマダヴィンヤード,0
924,3470001019246,新規,0,2022-09-06,2022-09-06,株式会社Ｗ．Ｚ,,株式会社,香川県,三豊市,山本町財田西５８１番地１,,37,208,7680103,,,,,,,2022-09-06,1,,,,,ワイズ,0
927,3490001010269,新規,0,2022-09-06,2022-09-06,株式会社とあね,,株式会社,高知県,高知市,鴨部２丁目１１番２０号,,39,201,7808052,,,,,,,2022-09-06,1,,,,,トアネ,0
931,3500001024449,新規,0,2022-09-06,2022-09-06,株式会社明豊,,株式会社,愛媛県,今治市,郷桜井４丁目５番６２号,,38,202,7991523,,,,,,,2022-09-06,1,,,,,メイホウ,0
934,3700150027224,新規,0,2022-09-06,2015-10-09,京都タクシー業務センター,,その他,京都府,京都市伏見区,竹田向代町５１－５京都自動車会館２階,,26,109,6128418,,,,,,,2015-10-09,1,,,,,キヨウトタクシーギヨウムセンター,0
949,4010001229204,新規,0,2022-09-06,2022-09-06,三井物産かんぽアセットマネジメント株式会社,,株式会社,東京都,千代田区,西神田３丁目２番１号,,13,101,1010065,,,,,,,2022-09-06,1,,,,,ミツイブッサンカンポアセットマネジメント,0
950,4010001229229,新規,0,2022-09-06,2022-09-06,Ｑｕｅｒｉ株式会社,,株式会社,東京都,中央区,八丁堀２丁目１５番９号,,13,102,1040032,,,,,,,2022-09-06,1,,,,,クエリ,0
951,4010001229237,新規,0,2022-09-06,2022-09-06,ＦＬＣ＆Ｓホールディングス株式会社,,株式会社,東京都,千代田区,神田神保町３丁目２５番地,,13,101,1010051,,,,,,,2022-09-06,1,,,,,エフエルシーアンドエスホールディングス,0
952,4010001229253,新規,0,2022-09-06,2022-09-06,株式会社シブリング,,株式会社,東京都,中央区,日本橋箱崎町３４番４号,,13,102,1030015,,,,,,,2022-09-06,1,,,,,シブリング,0
972,4010401169355,新規,0,2022-09-06,2022-09-06,ネオフロント株式会社,,株式会社,東京都,港区,南青山２丁目２番１５号ウィン青山９４２,,13,103,1070062,,,,,,,2022-09-06,1,,,,,ネオフロント,0
973,4010401169495,新規,0,2022-09-06,2022-09-06,株式会社Ｍｙ　Ｓｔａｔｉｏｎ,,株式会社,東京都,港区,南青山２丁目２番８号ＤＦビル５１２号室,,13,103,1070062,,,,,,,2022-09-06,1,,,,,マイステーション,0
974,4010401169529,新規,0,2022-09-06,2022-09-06,ｃｒｅａｔｉｖｅｌａｂ株式会社,,株式会社,東京都,港区,新橋３丁目２番６号,,13,103,1050004,,,,,,,2022-09-06,1,,,,,クリエイティブラボ,0
977,4010403028286,新規,0,2022-09-06,2022-09-06,ＣＡＳＡＭＩＸ合同会社,,合同会社,東京都,港区,虎ノ門１丁目１６－６,,13,103,1050001,,,,,,,2022-09-06,1,,,,,カーサミックス,0
978,4010403028443,新規,0,2022-09-06,2022-09-06,プエンテ・リサーチ合同会社,,合同会社,東京都,港区,南青山２丁目２番１５号,,13,103,1070062,,,,,,,2022-09-06,1,,,,,プエンテリサーチ,0
981,4010801033243,新規,0,2022-09-06,2022-09-06,株式会社アクアプラットフォーム,,株式会社,東京都,大田区,東海６丁目１番２号,,13,111,1430001,,,,,,,2022-09-06,1,,,,,アクアプラットフォーム,0
982,4010803004275,新規,0,2022-09-06,2022-09-06,合同会社Ｍｉｎｄ　ｓｈａｒｅ,,合同会社,東京都,大田区,中央８丁目１１－１０,,13,111,1430024,,,,,,,2022-09-06,1,,,,,マインドシェア,0
986,4011001149573,新規,0,2022-09-06,2022-09-06,株式会社ブロックバリュー,,株式会社,東京都,渋谷区,恵比寿西１丁目３３番６号１Ｆ,,13,113,1500021,,,,,,,2022-09-06,1,,,,,ブロックバリュー,0
987,4011001149607,新規,0,2022-09-06,2022-09-06,ＳＵＮ．株式会社,,株式会社,東京都,渋谷区,神宮前６丁目２３番４号桑野ビル２階,,13,113,1500001,,,,,,,2022-09-06,1,,,,,,0
989,4011003015336,新規,0,2022-09-06,2022-09-06,ＣｏｍＧｒｏｗ合同会社,,合同会社,東京都,渋谷区,渋谷２丁目１９―１５宮益坂ビルディング６０９,,13,113,1500002,,,,,,,2022-09-06,1,,,,,コムグロー,0
995,4011301028080,新規,0,2022-09-06,2022-09-06,株式会社キーフォース,,株式会社,東京都,杉並区,荻窪２丁目２９番１８号,,13,115,1670051,,,,,,,2022-09-06,1,,,,,キーフォース,0
997,4011505002492,新規,0,2022-09-06,2022-09-06,医療法人社団ＮＳＤ,,その他の設立登記法人,東京都,荒川区,西日暮里５丁目１４番３号サンキエームビル１階,,13,118,1160013,,,,,,,2022-09-06,1,,,,,エヌエスディー,0
999,4011801041236,新規,0,2022-09-06,2022-09-06,徳輝株式会社,,株式会社,東京都,足立区,西新井本町２丁目２７番１０－１０３号,,13,121,1230845,,,,,,,2022-09-06,1,,,,,トクキ,0
1000,4011801041244,新規,0,2022-09-06,2022-09-06,株式会社トモテック,,株式会社,東京都,葛飾区,東堀切２丁目１７番４号,,13,122,1240004,,,,,,,2022-09-06,1,,,,,トモテック,0
1001,4011803005247,新規,0,2022-09-06,2022-09-06,ＹＵＳＵＫＥ　ＴＯＤＡ　ＳＴＵＤＩＯ合同会社,,合同会社,東京都,足立区,綾瀬２丁目１０番２２号晟幸ビル１０２号室,,13,121,1200005,,,,,,,2022-09-06,1,,,,,ユウスケトダスタジオ,0
1003,4012301013122,新規,0,2022-09-06,2022-09-06,株式会社アイアンドユー,,株式会社,東京都,町田市,木曽東３丁目２１番１４号,,13,209,1940036,,,,,,,2022-09-06,1,,,,,アイアンドユー,0
1006,4012401039595,新規,0,2022-09-06,2022-09-06,株式会社笑顔４２８,,株式会社,東京都,稲城市,百村１６２３番地の１パストラルハイム稲城１１０１,,13,225,2060804,,,,,,,2022-09-06,1,,,,,エガオヨンニイハチ,0
1007,4012405004777,新規,0,2022-09-06,2022-09-06,医療法人社団充幸会,,その他の設立登記法人,東京都,小金井市,梶野町５丁目１１番５号パピスプラザ２０５号室,,13,210,1840002,,,,,,,2022-09-06,1,,,,,ジュウコウカイ,0
1008,4012701017235,新規,0,2022-09-06,2022-09-06,株式会社Ｊ　ＰＬＵＳ,,株式会社,東京都,西東京市,北町２丁目１７番１９号,,13,229,2020003,,,,,,,2022-09-06,1,,,,,ジェイプラス,0
1009,4012801021814,新規,0,2022-09-06,2022-09-06,株式会社ＯＳＣミート,,株式会社,東京都,国分寺市,本町４丁目１２番１号,,13,214,1850012,,,,,,,2022-09-06,1,,,,,オーエスシーミート,0
1010,4013101009005,新規,0,2022-09-06,2022-09-06,西部ライン株式会社,,株式会社,東京都,あきる野市,原小宮３１０番地３,,13,228,1970811,,,,,,,2022-09-06,1,,,,,セイブライン,0
1015,4013301049610,新規,0,2022-09-06,2022-09-06,株式会社ＤＴダイナミクス,,株式会社,東京都,豊島区,南池袋１丁目１６番１５号,,13,116,1710022,,,,,,,2022-09-06,1,,,,,ディーティーダイナミクス,0
1020,4020001148048,新規,0,2022-09-06,2022-09-06,株式会社オウモリ食品,,株式会社,神奈川県,横浜市中区,初音町３丁目５３番地,,14,104,2310053,,,,,,,2022-09-06,1,,,,,オウモリショクヒン,0
1021,4020001148056,新規,0,2022-09-06,2022-09-06,株式会社ＳＯＵＬ　ＵＰ,,株式会社,神奈川県,横浜市青葉区,青葉台１丁目１３－１青葉台郵便局３Ｆ－Ｉ区画,00127734,14,117,2270062,,,,,,,2022-09-06,1,,,,,ソウルアップ,0
1022,4020001148072,新規,0,2022-09-06,2022-09-06,株式会社ミヤビ,,株式会社,神奈川県,横浜市瀬谷区,本郷１丁目４５番地の１７,,14,114,2460015,,,,,,,2022-09-06,1,,,,,ミヤビ,0
1023,4020001148080,新規,0,2022-09-06,2022-09-06,株式会社仁頼,,株式会社,神奈川県,横浜市神奈川区,西寺尾４丁目６番６－３号,,14,102,2210001,,,,,,,2022-09-06,1,,,,,ジンライ,0
1024,4020001148089,新規,0,2022-09-06,2022-09-06,株式会社ＡＳＵＴＯ,,株式会社,神奈川県,横浜市都筑区,茅ケ崎南４丁目１番３６号,,14,118,2240037,,,,,,,2022-09-06,1,,,,,アスト,0
1031,4020003022333,新規,0,2022-09-06,2022-09-06,合同会社ｍａｐｌｅ,,合同会社,神奈川県,川崎市高津区,向ケ丘１５９番地７ヒルトップ宮崎台Ｂ１０２,,14,134,2130035,,,,,,,2022-09-06,1,,,,,メープル,0
1032,4020003022341,新規,0,2022-09-06,2022-09-06,合同会社ＮＯＷＡ,,合同会社,神奈川県,横浜市西区,北幸１丁目１１番１号水信ビル７階,,14,103,2200004,,,,,,,2022-09-06,1,,,,,ノワ,0
1037,4021001076908,新規,0,2022-09-06,2022-09-06,株式会社プロスペリティ,,株式会社,神奈川県,平塚市,平塚４丁目１８番９号,,14,203,2540052,,,,,,,2022-09-06,1,,,,,プロスペリティ,0
1038,4021001076916,新規,0,2022-09-06,2022-09-06,ＡＶＯＩ株式会社,,株式会社,神奈川県,藤沢市,湘南台１丁目６番地の４ヴィオラプリート８０２号室,,14,205,2520804,,,,,,,2022-09-06,1,,,,,アヴォワ,0
1039,4021005012611,新規,0,2022-09-06,2022-09-06,一般社団法人理念フィルム協会,,その他の設立登記法人,神奈川県,鎌倉市,台１４８３番地１,,14,204,2470061,,,,,,,2022-09-06,1,,,,,リネンフィルムキョウカイ,0
1042,4030001149929,新規,0,2022-09-06,2022-09-06,大山国際株式会社,,株式会社,埼玉県,蕨市,北町１丁目４－１９ビレッタＧＡ１０２,,11,223,3350001,,,,,,,2022-09-06,1,,,,,オオヤマコクサイ,0
1043,4030001149978,新規,0,2022-09-06,2022-09-06,株式会社はなまるスポーツクラブ,,株式会社,埼玉県,川口市,幸町３丁目１２番３５－２０２号モンシャトー川口,,11,203,3320016,,,,,,,2022-09-06,1,,,,,ハナマルスポーツクラブ,0
1044,4030001149986,新規,0,2022-09-06,2022-09-06,株式会社ＭＡＭＡ,,株式会社,埼玉県,さいたま市大宮区,下町３丁目７番地１Ｆ１７１７号,,11,103,3300844,,,,,,,2022-09-06,1,,,,,ママ,0
1045,4030001150011,新規,0,2022-09-06,2022-09-06,エナジースタッフ東日本株式会社,,株式会社,埼玉県,さいたま市大宮区,桜木町２丁目３番地大宮マルイ７階,,11,103,3300854,,,,,,,2022-09-06,1,,,,,エナジースタッフヒガシニホン,0
1048,4040001124906,新規,0,2022-09-06,2022-09-06,株式会社イーテック,,株式会社,千葉県,千葉市若葉区,みつわ台４丁目１６番２号,,12,104,2640032,,,,,,,2022-09-06,1,,,,,イーテック,0
1049,4040001124922,新規,0,2022-09-06,2022-09-06,株式会社リヤン・ピスティ,,株式会社,千葉県,四街道市,大日２２３９番地１０,,12,228,2840001,,,,,,,2022-09-06,1,,,,,リヤンピスティ,0
1050,4040001124971,新規,0,2022-09-06,2022-09-06,株式会社やまぽん,,株式会社,千葉県,旭市,鎌数５５６番地２,,12,215,2892505,,,,,,,2022-09-06,1,,,,,ヤマポン,0
1051,4040001124996,新規,0,2022-09-06,2022-09-06,株式会社芽育実トマト園,,株式会社,千葉県,旭市,萬力１５１４番地,,12,215,2890517,,,,,,,2022-09-06,1,,,,,メグミトマトエン,0
1054,4040003020748,新規,0,2022-09-06,2022-09-06,梅木フーズ合同会社,,合同会社,千葉県,八千代市,八千代台東１丁目２番１２号第２イーストビル１階,,12,221,2760032,,,,,,,2022-09-06,1,,,,,ウメキフーズ,0
1056,4040005021728,新規,0,2022-09-06,2022-09-06,一般社団法人ジュノール千葉,,その他の設立登記法人,千葉県,千葉市若葉区,高品町１５８５番地１,,12,104,2640024,,,,,,,2022-09-06,1,,,,,ジュノールチバ,0
1058,4050001051587,新規,0,2022-09-06,2022-09-06,株式会社ＲＯＭＥＭ,,株式会社,茨城県,龍ケ崎市,４２４８番地の１,,08,208,3010000,,,,,,,2022-09-06,1,,,,,ロメム,0
1059,4050001051620,新規,0,2022-09-06,2022-09-06,株式会社信頼テック,,株式会社,茨城県,つくば市,榎戸３３９番地１,,08,220,3050853,,,,,,,2022-09-06,1,,,,,シンライテック,0
1060,4050001051629,新規,0,2022-09-06,2022-09-06,スズキ設備株式会社,,株式会社,茨城県,下妻市,中郷２８３番地１,,08,210,3040014,,,,,,,2022-09-06,1,,,,,スズキセツビ,0
1066,4060003004220,新規,0,2022-09-06,2022-09-06,合同会社ぱんだ商会,,合同会社,栃木県,宇都宮市,西原３丁目４番４号シティーハイツセゾン２０１号室,,09,201,3200862,,,,,,,2022-09-06,1,,,,,パンダショウカイ,0
1094,4110001036929,新規,0,2022-09-06,2022-09-06,株式会社マツオ,,株式会社,新潟県,五泉市,番坂甲３２４９番地１,,15,218,9591766,,,,,,,2022-09-06,1,,,,,マツオ,0
1095,4110001036953,新規,0,2022-09-06,2022-09-06,株式会社インナーユニバース,,株式会社,新潟県,新潟市東区,一日市６２番地,,15,102,9500802,,,,,,,2022-09-06,1,,,,,インナーユニバース,0
1098,4110005016852,新規,0,2022-09-06,2022-09-06,医療法人社団上田眼科,,その他の設立登記法人,新潟県,村上市,下鍛冶屋６０３番地１,,15,212,9580000,,,,,,,2022-09-06,1,,,,,ウエダガンカ,0
1107,4120001248705,新規,0,2022-09-06,2022-09-06,株式会社リバーズ,,株式会社,大阪府,大阪市北区,菅栄町１番２０－３Ｆ,,27,127,5300031,,,,,,,2022-09-06,1,,,,,リバーズ,0
1114,4120003022397,新規,0,2022-09-06,2022-09-06,合同会社人生楽勝,,合同会社,大阪府,大阪市西区,北堀江１丁目２１番１２－９０１号,,27,106,5500014,,,,,,,2022-09-06,1,,,,,ジンセイラクショウ,0
1116,4120101066189,新規,0,2022-09-06,2022-09-06,Ｚｅｒｏｂａｓｅ株式会社,,株式会社,大阪府,阪南市,箱作２１３０番地,,27,232,5990232,,,,,,,2022-09-06,1,,,,,ゼロベース,0
1124,4120901046431,新規,0,2022-09-06,2022-09-06,株式会社Ｒｏｙａｌ．Ｉ,,株式会社,大阪府,箕面市,箕面５丁目１１番１１号,,27,220,5620001,,,,,,,2022-09-06,1,,,,,ロイヤルドットアイ,0
1125,4120903004296,新規,0,2022-09-06,2022-09-06,ニィーズティー合同会社,,合同会社,大阪府,高槻市,城北町１丁目３番１１号久保田ハイツ１０５号,,27,207,5690071,,,,,,,2022-09-06,1,,,,,ニィーズティー,0
1128,4122001036222,新規,0,2022-09-06,2022-09-06,株式会社Ｎｏｔｉｃｅ,,株式会社,大阪府,柏原市,玉手町２５番１号,,27,221,5820028,,,,,,,2022-09-06,1,,,,,ノーティス,0
1136,4130001072550,新規,0,2022-09-06,2022-09-06,Ｍｅｔａ　ＨａｎｄＳ株式会社,,株式会社,京都府,京都市下京区,玉津島町２９４番地,,26,106,6008427,,,,,,,2022-09-06,1,,,,,メタハンズ,0
1141,4140001127238,新規,0,2022-09-06,2022-09-06,富士デザイン株式会社,,株式会社,兵庫県,小野市,万勝寺町８０４番１６,,28,218,6751311,,,,,,,2022-09-06,1,,,,,フジデザイン,0
1142,4140001127246,新規,0,2022-09-06,2022-09-06,株式会社モハラ,,株式会社,兵庫県,神戸市長田区,雲雀ケ丘３丁目１番１８－３０１号,,28,106,6530879,,,,,,,2022-09-06,1,,,,,モハラ,0
1143,4140001127262,新規,0,2022-09-06,2022-09-06,株式会社信和テクノサービス,,株式会社,兵庫県,西宮市,西宮浜２丁目２１番９号,,28,204,6620934,,,,,,,2022-09-06,1,,,,,シンワテクノサービス,0
1147,4140003018088,新規,0,2022-09-06,2022-09-06,合同会社麗,,合同会社,兵庫県,たつの市,誉田町誉９５番地３,,28,229,6794133,,,,,,,2022-09-06,1,,,,,ウルハ,0
1149,4150001025787,新規,0,2022-09-06,2022-09-06,株式会社ＴＯＷＡＩＲＯ,,株式会社,奈良県,北葛城郡広陵町,馬見中１丁目４番２０－９号,,29,426,6350832,,,,,,,2022-09-06,1,,,,,トワイロ,0
1150,4150001025795,新規,0,2022-09-06,2022-09-06,ｐｌｕｓ１株式会社,,株式会社,奈良県,奈良市,法蓮町１２０６番地の４,,29,201,6308113,,,,,,,2022-09-06,1,,,,,プラスワン,0
1151,4150001025804,新規,0,2022-09-06,2022-09-06,株式会社ＧＲＯＷ,,株式会社,奈良県,大和郡山市,高田町８７番地１,,29,203,6391132,,,,,,,2022-09-06,1,,,,,グロウ,0
1152,4160005011106,新規,0,2022-09-06,2022-09-06,一般社団法人河内観光協会,,その他の設立登記法人,滋賀県,犬上郡多賀町,大字河内１４７番地１,,25,443,5220301,,,,,,,2022-09-06,1,,,,,カワチカンコウキョウカイ,0
1153,4170003001768,新規,0,2022-09-06,2022-09-06,合同会社マリーゴールド,,合同会社,和歌山県,和歌山市,坂田７２３番地メゾン畑野２０２号,,30,201,6410003,,,,,,,2022-09-06,1,,,,,マリーゴールド,0
1158,4180001152876,新規,0,2022-09-06,2022-09-06,株式会社ＵＮＩＱＵＥ,,株式会社,愛知県,名古屋市名東区,梅森坂西１丁目８０１番地の６１,,23,115,4650066,,,,,,,2022-09-06,1,,,,,ユニーク,0
1159,4180001152918,新規,0,2022-09-06,2022-09-06,株式会社ユーエージェント,,株式会社,愛知県,名古屋市北区,楠５丁目７４４番地,,23,103,4620012,,,,,,,2022-09-06,1,,,,,ユーエージェント,0
1160,4180001152926,新規,0,2022-09-06,2022-09-06,株式会社ＴＡＣ,,株式会社,愛知県,愛西市,鰯江町郷中１２番地１,,23,232,4960923,,,,,,,2022-09-06,1,,,,,テイエシ,0
1165,4180003024215,新規,0,2022-09-06,2022-09-06,わっしょい合同会社,,合同会社,愛知県,名古屋市中村区,大門町８番地,,23,105,4530027,,,,,,,2022-09-06,1,,,,,ワッショイ,0
1166,4180003024223,新規,0,2022-09-06,2022-09-06,タカナ合同会社,,合同会社,愛知県,あま市,西今宿六反地五３０番地,,23,237,4901104,,,,,,,2022-09-06,1,,,,,タカナ,0
1167,4180301036614,新規,0,2022-09-06,2022-09-06,株式会社マリエイト,,株式会社,愛知県,高浜市,論地町５丁目３番地３２,,23,227,4441314,,,,,,,2022-09-06,1,,,,,マリエイト,0
1170,4190001029735,新規,0,2022-09-06,2022-09-06,丸徳産業株式会社,,株式会社,三重県,伊勢市,小俣町元町８５２番地１,,24,203,5190503,,,,,,,2022-09-06,1,,,,,マルトクサンギョウ,0
1172,4200001040418,新規,0,2022-09-06,2022-09-06,株式会社晃栄工業,,株式会社,岐阜県,岐阜市,粟野台３０７番地２６１,,21,201,5020007,,,,,,,2022-09-06,1,,,,,コウエイコウギョウ,0
1173,4200001040434,新規,0,2022-09-06,2022-09-06,株式会社心生土建,,株式会社,岐阜県,本巣市,屋井９６８番地１,,21,218,5010417,,,,,,,2022-09-06,1,,,,,シンセイドケン,0
1175,4200003005658,新規,0,2022-09-06,2022-09-06,合同会社ｍａｃｉｒｄａ,,合同会社,岐阜県,美濃加茂市,下米田町今４３１番地３,,21,211,5050015,,,,,,,2022-09-06,1,,,,,マチルダ,0
1177,4220003003354,新規,0,2022-09-06,2022-09-06,合同会社康,,合同会社,石川県,金沢市,米泉町７丁目２４番地,,17,201,9218044,,,,,,,2022-09-06,1,,,,,ヤス,0
1181,4240001060321,新規,0,2022-09-06,2022-09-06,株式会社ＮＳＣ,,株式会社,広島県,福山市,野上町２丁目１番５号野上ビル２０１号,,34,207,7200815,,,,,,,2022-09-06,1,,,,,エヌエスシー,0
1182,4240001060346,新規,0,2022-09-06,2022-09-06,株式会社晴皓,,株式会社,広島県,広島市南区,向洋本町８番８号,,34,103,7340062,,,,,,,2022-09-06,1,,,,,ハルコウ,0
1185,4240003005786,新規,0,2022-09-06,2022-09-06,合同会社Ｒａｄｒｅａｍ,,合同会社,広島県,広島市安佐南区,山本新町３丁目１６－１,,34,105,7310139,,,,,,,2022-09-06,1,,,,,ラドリーム,0
1190,4260001037210,新規,0,2022-09-06,2022-09-06,株式会社優建,,株式会社,岡山県,倉敷市,玉島勇崎１２９１番地１８,,33,202,7138125,,,,,,,2022-09-06,1,,,,,ユウケン,0
1191,4260001037235,新規,0,2022-09-06,2022-09-06,株式会社パンドミ,,株式会社,岡山県,高梁市,津川町八川２６１番地１,,33,209,7160001,,,,,,,2022-09-06,1,,,,,,0
1193,4280001008779,新規,0,2022-09-06,2022-09-06,株式会社富士商会,,株式会社,島根県,松江市,白潟本町７５番地,,32,201,6900000,,,,,,,2022-09-06,1,,,,,フジショウカイ,0
1194,4290001098778,新規,0,2022-09-06,2022-09-06,株式会社Ｐｏｗｅｒ　Ｌｉｆｅ,,株式会社,福岡県,古賀市,新原８８３番地３,,40,223,8113127,,,,,,,2022-09-06,1,,,,,パワーライフ,0
1195,4290001098794,新規,0,2022-09-06,2022-09-06,株式会社クリアマネジメント,,株式会社,福岡県,福岡市中央区,天神４丁目６－２８天神ファーストビル７階,,40,133,8100001,,,,,,,2022-09-06,1,,,,,クリアマネジメント,0
1196,4290001098828,新規,0,2022-09-06,2022-09-06,株式会社ＡＥＳ,,株式会社,福岡県,福岡市東区,松島４丁目８番３２－９０１号,,40,131,8130062,,,,,,,2022-09-06,1,,,,,アイズ,0
1204,4310001018023,新規,0,2022-09-06,2022-09-06,松尾白蟻株式会社,,株式会社,長崎県,南島原市,加津佐町乙１６番地１６,,42,214,8592605,,,,,,,2022-09-06,1,,,,,マツオシロアリ,0
1208,4330001030067,新規,0,2022-09-06,2022-09-06,株式会社Ｒｅ．ＺＥＲＯ　ＰＬＵＳ,,株式会社,熊本県,熊本市中央区,帯山６丁目７番１３０号,,43,101,8620924,,,,,,,2022-09-06,1,,,,,リゼロプラス,0
1209,4330001030075,新規,0,2022-09-06,2022-09-06,株式会社お片付け本舗,,株式会社,熊本県,山鹿市,菊鹿町下内田１８５５番地,,43,208,8610406,,,,,,,2022-09-06,1,,,,,オカタヅケホンポ,0
1212,4330003009497,新規,0,2022-09-06,2022-09-06,合名会社Ｃｏｎｔｉｎｕａｒ,,合名会社,熊本県,熊本市北区,龍田１丁目４番１０号,,43,105,8618006,,,,,,,2022-09-06,1,,,,,コンティノアール,0
1215,4340001025017,新規,0,2022-09-06,2022-09-06,株式会社ナッジテック,,株式会社,鹿児島県,鹿児島市,本名町８４１番地４,,46,201,8911304,,,,,,,2022-09-06,1,,,,,ナッジテック,0
1218,4350005006094,新規,0,2022-09-06,2022-09-06,一般社団法人和音,,その他の設立登記法人,宮崎県,宮崎市,吉村町江田原甲２０９番地１シャーメゾン江田原１０２,,45,201,8800841,,,,,,,2022-09-06,1,,,,,ワオン,0
1219,4360003012275,新規,0,2022-09-06,2022-09-06,アセットファイナンス名古屋合同会社,,合同会社,沖縄県,那覇市,松山２丁目１番１２号,,47,201,9000032,,,,,,,2022-09-06,1,,,,,アセットファイナンスナゴヤ,0
1224,4380003005269,新規,0,2022-09-06,2022-09-06,合同会社伝衛門,,合同会社,福島県,福島市,南沢又字畑田７番地の５,,07,201,9608254,,,,,,,2022-09-06,1,,,,,デンエモン,0
1228,4420001017988,新規,0,2022-09-06,2022-09-06,株式会社北前船,,株式会社,青森県,上北郡野辺地町,字陣場川原６８番地５,,02,401,0393173,,,,,,,2022-09-06,1,,,,,キタマエブネ,0
1231,4430003014248,新規,0,2022-09-06,2022-09-06,合同会社Ｔｗｏ‐Ｍｏｕｔｈ,,合同会社,北海道,滝川市,中島町５丁目９番１９号,,01,225,0730035,,,,,,,2022-09-06,1,,,,,トゥーマウス,0
1234,4450001013786,新規,0,2022-09-06,2022-09-06,グッドワン東日本株式会社,,株式会社,北海道,深川市,音江町１丁目６番１５号,,01,228,0741273,,,,,,,2022-09-06,1,,,,,グッドワンヒガシニホン,0
1237,4480001011845,新規,0,2022-09-06,2022-09-06,株式会社設計スタジオＩＮＭＡ,,株式会社,徳島県,板野郡北島町,高房字東川田４番地２０,,36,402,7710206,,,,,,,2022-09-06,1,,,,,セッケイスタジオインマ,0
1243,4500001024448,新規,0,2022-09-06,2022-09-06,株式会社馬越建設,,株式会社,愛媛県,新居浜市,多喜浜４丁目１２番３５号,,38,205,7920893,,,,,,,2022-09-06,1,,,,,バコシケンセツ,0
1245,4700150111638,新規,0,2022-09-06,2022-09-06,ＳＵＲＥ　ＪＯＹ　ＧＬＯＢＡＬ（ＨＫ）ＬＩＭＩＴＥＤ,,外国会社等,東京都,品川区,上大崎３丁目１－３０－２００４号室,,13,109,1410021,ＦＬＡＴ／ＲＭ２１０５　２１／ＦＫ．ＷＡＨ　ＣＥＮＴＲＥ　１９１ＪＡＶＡＲＯＡＤ　ＮＯＲＴＨＰＯＩＮＴ　ＨＫ,,,,,,2022-09-06,1,,,,,シユアジヨイグローバルホンコンリミテツド,0
1257,5010001229178,新規,0,2022-09-06,2022-09-06,株式会社ブルーティパワー,,株式会社,東京都,千代田区,神田東松下町１４番地,,13,101,1010042,,,,,,,2022-09-06,1,,,,,ブルーティパワー,0
1258,5010001229186,新規,0,2022-09-06,2022-09-06,株式会社ＳＴＯＣＫ１０８,,株式会社,東京都,千代田区,永田町２丁目１２番４号,,13,101,1000014,,,,,,,2022-09-06,1,,,,,ストックヒャクハチ,0
1259,5010001229228,新規,0,2022-09-06,2022-09-06,株式会社ＹＯＳＨＩＫＯ,,株式会社,東京都,千代田区,神田多町２丁目６番地１だいつねビル１階,,13,101,1010046,,,,,,,2022-09-06,1,,,,,ヨシコ,0
1260,5010001229236,新規,0,2022-09-06,2022-09-06,クージーズ株式会社,,株式会社,東京都,千代田区,大手町１丁目５番１号大手町ファーストスクエアイーストタワー４Ｆ,,13,101,1000004,,,,,,,2022-09-06,1,,,,,クージーズ,0
1261,5010001229244,新規,0,2022-09-06,2022-09-06,株式会社Ｅｖｏｌｖｅ　Ｅｑｕｉｔｙ,,株式会社,東京都,中央区,銀座１丁目１２番４号Ｎ＆ＥＢＬＤ．７階,,13,102,1040061,,,,,,,2022-09-06,1,,,,,エボルブエクイティ,0
1262,5010001229252,新規,0,2022-09-06,2022-09-06,株式会社丶丶,,株式会社,東京都,千代田区,神田神保町２丁目２番地１２,,13,101,1010051,,,,,,,2022-09-06,1,,,,,テンテン,0
1264,5010003038569,新規,0,2022-09-06,2022-09-06,合同会社ＩｎＲｕｄｄｅｒ,,合同会社,東京都,中央区,築地３丁目７番１号ＴＳＵＫＩＪＩＧＲＡＮＤＥ２Ｆ,,13,102,1040045,,,,,,,2022-09-06,1,,,,,インラダー,0
1273,5010401169544,新規,0,2022-09-06,2022-09-06,株式会社年収サプリ,,株式会社,東京都,港区,三田１丁目１番１５号４階,,13,103,1080073,,,,,,,2022-09-06,1,,,,,ネンシュウサプリ,0
1274,5010401169560,新規,0,2022-09-06,2022-09-06,タピルスホールディングス株式会社,,株式会社,東京都,港区,高輪３丁目１９番１５号,,13,103,1080074,,,,,,,2022-09-06,1,,,,,タピルスホールディングス,0
1278,5010403028252,新規,0,2022-09-06,2022-09-06,合同会社ＡＭＯＷ,,合同会社,東京都,港区,南青山２丁目２－１５,,13,103,1070062,,,,,,,2022-09-06,1,,,,,アモウ,0
1279,5010403028384,新規,0,2022-09-06,2022-09-06,ＴＡＴＥ‐ＴＲＡＤＥ合同会社,,合同会社,東京都,港区,南青山２丁目２番１５号,,13,103,1070062,,,,,,,2022-09-06,1,,,,,タテトレード,0
1280,5010403028401,新規,0,2022-09-06,2022-09-06,合同会社Ｒｉｂｂｏｎ,,合同会社,東京都,港区,虎ノ門５丁目１番４号,,13,103,1050001,,,,,,,2022-09-06,1,,,,,リボン,0
1284,5010501049332,新規,0,2022-09-06,2022-09-06,株式会社さんプロ,,株式会社,東京都,台東区,根岸５丁目１４番１８号サニーコート台東根岸７０３,,13,106,1100003,,,,,,,2022-09-06,1,,,,,サンプロ,0
1295,5010801033242,新規,0,2022-09-06,2022-09-06,株式会社ｅｙｅｐｉｎ,,株式会社,東京都,大田区,南馬込１丁目３０番１ガーラレジデンス南馬込２１０,,13,111,1430025,,,,,,,2022-09-06,1,,,,,アイピン,0
1296,5010803004274,新規,0,2022-09-06,2022-09-06,シフクノヒトサラ合同会社,,合同会社,東京都,大田区,南六郷１丁目１番２号,,13,111,1440045,,,,,,,2022-09-06,1,,,,,シフクノヒトサラ,0
1299,5010901051565,新規,0,2022-09-06,2022-09-06,株式会社ＹＭ,,株式会社,東京都,世田谷区,池尻２丁目３２番１１－４０１号,,13,112,1540001,,,,,,,2022-09-06,1,,,,,ワイエム,0
1300,5010903007623,新規,0,2022-09-06,2022-09-06,ＲＯＢＢＯ　Ｊａｐａｎ　Ｕｎｉｖｅｒｓｉｔｙ合同会社,,合同会社,東京都,世田谷区,砧７丁目４番１－２０９号,,13,112,1570073,,,,,,,2022-09-06,1,,,,,ロッボジャパンユニバーシティ,0
1303,5011001149572,新規,0,2022-09-06,2022-09-06,ＸＳＲ株式会社,,株式会社,東京都,渋谷区,恵比寿南２丁目３番２号６Ｆ,,13,113,1500022,,,,,,,2022-09-06,1,,,,,,0
1304,5011001149589,新規,0,2022-09-06,2022-09-06,株式会社ＲＯＩ　ｔｅｃｈｎｏｌｏｇｉｅｓ,,株式会社,東京都,目黒区,青葉台３丁目５番４４－１４０１号グランド・ガーラ渋谷,,13,110,1530042,,,,,,,2022-09-06,1,,,,,アールオーアイテクノロジーズ,0
1305,5011001149614,新規,0,2022-09-06,2022-09-06,株式会社アップメソッド,,株式会社,東京都,渋谷区,渋谷３丁目１番９号ＹＡＺＡＷＡビル３階,,13,113,1500002,,,,,,,2022-09-06,1,,,,,アップメソッド,0
1307,5011003015335,新規,0,2022-09-06,2022-09-06,合同会社ＧＣ’ｓブートキャンプ,,合同会社,東京都,渋谷区,神宮前６丁目２３番４号桑野ビル２階,,13,113,1500001,,,,,,,2022-09-06,1,,,,,ジーシーズブートキャンプ,0
1312,5011101100055,新規,0,2022-09-06,2022-09-06,株式会社シービーラボ,,株式会社,東京都,新宿区,西新宿６丁目５番１号新宿アイランドタワー４１階,,13,104,1600023,,,,,,,2022-09-06,1,,,,,シービーラボ,0
1313,5011103012125,新規,0,2022-09-06,2022-09-06,ジェントーン合同会社,,合同会社,東京都,新宿区,西新宿３丁目３番１３号西新宿水間ビル６階,,13,104,1600023,,,,,,,2022-09-06,1,,,,,ジェントーン,0
1318,5011505002491,新規,0,2022-09-06,2022-09-06,一般社団法人おだやか福祉会,,その他の設立登記法人,東京都,北区,東十条２丁目１４番２１号高橋ビル１０１,,13,117,1140001,,,,,,,2022-09-06,1,,,,,オダヤカフクシカイ,0
1321,5011601026221,新規,0,2022-09-06,2022-09-06,株式会社リナブル,,株式会社,東京都,練馬区,桜台３丁目２９番１３号,,13,120,1760002,,,,,,,2022-09-06,1,,,,,リナブル,0
1324,5011801041243,新規,0,2022-09-06,2022-09-06,株式会社ウィンウィントイズ,,株式会社,東京都,足立区,谷在家３丁目１５番３号,,13,121,1230863,,,,,,,2022-09-06,1,,,,,ウィンウィントイズ,0
1325,5011803005246,新規,0,2022-09-06,2022-09-06,Ｙ．Ｗ．貿易合同会社,,合同会社,東京都,足立区,栗原３丁目２６番１号２Ｆ,,13,121,1230842,,,,,,,2022-09-06,1,,,,,ワイダブリューボウエキ,0
1326,5012303001719,新規,0,2022-09-06,2022-09-06,合同会社ＣＯＭＳＴＲＥＡＭ,,合同会社,東京都,町田市,野津田町１３５７番地７,,13,209,1950063,,,,,,,2022-09-06,1,,,,,コムストリーム,0
1330,5012401039594,新規,0,2022-09-06,2022-09-06,Ｎｅｕｕｔ株式会社,,株式会社,東京都,小金井市,梶野町４丁目３番２０号,,13,210,1840002,,,,,,,2022-09-06,1,,,,,ニュート,0
1331,5012401039603,新規,0,2022-09-06,2022-09-06,株式会社ＪＳラーテル,,株式会社,東京都,調布市,上石原１丁目６番地の１２,,13,208,1820035,,,,,,,2022-09-06,1,,,,,ジェイエスラーテル,0
1332,5012701017234,新規,0,2022-09-06,2022-09-06,株式会社Ｂｉｇｇａｒｄｅｎ,,株式会社,東京都,西東京市,谷戸町３丁目２８番１６－９２３号,,13,229,1880001,,,,,,,2022-09-06,1,,,,,ビッグガーデン,0
1333,5012705002323,新規,0,2022-09-06,2022-09-06,一般社団法人東京都スケート連盟,,その他の設立登記法人,東京都,西東京市,東伏見３丁目１番２５号,,13,229,2020021,,,,,,,2022-09-06,1,,,,,トウキョウトスケートレンメイ,0
1334,5012801021813,新規,0,2022-09-06,2022-09-06,株式会社ＯＳＣエフワン,,株式会社,東京都,国分寺市,本町４丁目１２番１号,,13,214,1850012,,,,,,,2022-09-06,1,,,,,オーエスシーエフワン,0
1339,5013303006286,新規,0,2022-09-06,2022-09-06,合同会社龍之総合研究所,,合同会社,東京都,豊島区,東池袋４丁目５番１号エアライズタワー２００８,,13,116,1700013,,,,,,,2022-09-06,1,,,,,タツノソウゴウケンキュウジョ,0
1342,5020001148022,新規,0,2022-09-06,2022-09-06,株式会社ＣｅｅＳ,,株式会社,神奈川県,川崎市高津区,久本１丁目６番８号,,14,134,2130011,,,,,,,2022-09-06,1,,,,,シーズ,0
1343,5020001148030,新規,0,2022-09-06,2022-09-06,株式会社ワイズ,,株式会社,神奈川県,横浜市中区,扇町３丁目８番地４,,14,104,2310027,,,,,,,2022-09-06,1,,,,,ワイズ,0
1344,5020001148055,新規,0,2022-09-06,2022-09-06,株式会社Ｊ＆Ｈ,,株式会社,神奈川県,横浜市中区,本牧原１５－６－１Ｆ－Ｂ,,14,104,2310821,,,,,,,2022-09-06,1,,,,,ジェアンドエチ,0
1345,5020001148063,新規,0,2022-09-06,2022-09-06,株式会社Ｓ．Ｔ．Ｋチーム,,株式会社,神奈川県,川崎市川崎区,浜町２丁目１１番２号,,14,131,2100851,,,,,,,2022-09-06,1,,,,,エスティケーチーム,0
1346,5020001148071,新規,0,2022-09-06,2022-09-06,株式会社シミズ不動産,,株式会社,神奈川県,横浜市中区,松影町３丁目９番地３,,14,104,2310025,,,,,,,2022-09-06,1,,,,,,0
1348,5020003022308,新規,0,2022-09-06,2022-09-06,大宮技術事務所合同会社,,合同会社,神奈川県,川崎市高津区,新作６丁目５番１－３０１号ウェルネスＬ,,14,134,2130014,,,,,,,2022-09-06,1,,,,,オオミヤギジュツジムショ,0
1349,5020003022332,新規,0,2022-09-06,2022-09-06,合同会社オッチ,,合同会社,神奈川県,川崎市川崎区,東田町１０番地５アルテシモリンクディセラ１１０１,,14,131,2100005,,,,,,,2022-09-06,1,,,,,オッチ,0
1350,5020003022340,新規,0,2022-09-06,2022-09-06,ＶＥＬＬメンテナンス合同会社,,合同会社,神奈川県,横浜市保土ケ谷区,和田２丁目１７番６－３０６号,,14,106,2400065,,,,,,,2022-09-06,1,,,,,ベルメンテナンス,0
1351,5021001076907,新規,0,2022-09-06,2022-09-06,株式会社ブランチホームズ,,株式会社,神奈川県,海老名市,上今泉１丁目５番３１号,,14,215,2430431,,,,,,,2022-09-06,1,,,,,ブランチホームズ,0
1352,5021001076915,新規,0,2022-09-06,2022-09-06,株式会社大樹サービス,,株式会社,神奈川県,横須賀市,西浦賀５丁目１５番９号,,14,201,2390824,,,,,,,2022-09-06,1,,,,,タイジュサービス,0
1353,5021001076923,新規,0,2022-09-06,2022-09-06,株式会社ビルデクス,,株式会社,神奈川県,小田原市,国府津２７７５番地,,14,206,2560812,,,,,,,2022-09-06,1,,,,,ビルデクス,0
1355,5021005012610,新規,0,2022-09-06,2022-09-06,一般社団法人安心終活サポート協会,,その他の設立登記法人,神奈川県,相模原市南区,相模台２丁目２番２号ガーデンビルＩＩ３階フェルゴ内,00127750,14,153,2520321,,,,,,,2022-09-06,1,,,,,アンシンシュウカツサポートキョウカイ,0
1358,5030001149960,新規,0,2022-09-06,2022-09-06,株式会社７０８ＰＬＡＮＴＳ,,株式会社,埼玉県,熊谷市,柿沼６９７番地２,,11,202,3600803,,,,,,,2022-09-06,1,,,,,ナナマルハチプランツ,0
1359,5030001149977,新規,0,2022-09-06,2022-09-06,株式会社職人気質,,株式会社,埼玉県,さいたま市緑区,東大門３丁目６番地５メゾンエクレーレ浦和東１０４,,11,109,3360964,,,,,,,2022-09-06,1,,,,,ショクニンカタギ,0
1360,5030001149985,新規,0,2022-09-06,2022-09-06,株式会社Ｔｒａｄｉｔｉｏｎ　ＢｏｏｋＳ,,株式会社,埼玉県,狭山市,鵜ノ木２５番１８号５１９,,11,215,3501323,,,,,,,2022-09-06,1,,,,,トラディションブックス,0
1361,5030001150010,新規,0,2022-09-06,2022-09-06,Ｓｕｎｗａｒｄ　Ｊａｐａｎ株式会社,,株式会社,埼玉県,川口市,並木４丁目１番１－９０２号,,11,203,3320034,,,,,,,2022-09-06,1,,,,,サンワードジャパン,0
1364,5030003020137,新規,0,2022-09-06,2022-09-06,合同会社Ｃａｒｅ　Ｂａｓｅ,,合同会社,埼玉県,富士見市,鶴馬３丁目３番７号,,11,235,3540021,,,,,,,2022-09-06,1,,,,,ケアベース,0
1373,5040001124921,新規,0,2022-09-06,2022-09-06,株式会社ＨＡＲＫＳ,,株式会社,千葉県,印旛郡酒々井町,東酒々井２丁目２番１８８,,12,322,2850923,,,,,,,2022-09-06,1,,,,,ハークス,0
1374,5040001124954,新規,0,2022-09-06,2022-09-06,株式会社フィールドＫ,,株式会社,千葉県,千葉市稲毛区,山王町２０番地３５,,12,103,2630002,,,,,,,2022-09-06,1,,,,,,0
1375,5040001124979,新規,0,2022-09-06,2022-09-06,円城寺株式会社,,株式会社,千葉県,柏市,増尾台３丁目６番地４４号,,12,217,2770052,,,,,,,2022-09-06,1,,,,,エンジョウジ,0
1376,5040001124987,新規,0,2022-09-06,2022-09-06,株式会社フォレスト,,株式会社,千葉県,我孫子市,緑１丁目４番９－４０１号ＳＵＮＧＡＲＤＥＮＲＥＧＡＬＰＡＲＴＩ,00127752,12,222,2701153,,,,,,,2022-09-06,1,,,,,フォレスト,0
1379,5040005021719,新規,0,2022-09-06,2022-09-06,特定非営利活動法人のだ・ひと粒の種,,その他の設立登記法人,千葉県,野田市,船形今泉２８８番２,,12,208,2700233,,,,,,,2022-09-06,1,,,,,ノダヒトツブノタネ,0
1381,5050001051636,新規,0,2022-09-06,2022-09-06,株式会社弱電舎,,株式会社,茨城県,つくば市,栄５８５番地７,,08,220,3050013,,,,,,,2022-09-06,1,,,,,ジャクデンシャ,0
1382,5050001051652,新規,0,2022-09-06,2022-09-06,株式会社ＫＡＩＺＥＮ　ＴＲＩＧＧＥＲ,,株式会社,茨城県,牛久市,田宮町３６８番地２,,08,219,3001236,,,,,,,2022-09-06,1,,,,,カイゼントリガー,0
1387,5070001039596,新規,0,2022-09-06,2022-09-06,株式会社映夢ＤＯ,,株式会社,群馬県,高崎市,貝沢町１０２６番地２,,10,202,3700042,,,,,,,2022-09-06,1,,,,,エイムドゥ,0
1388,5070001039605,新規,0,2022-09-06,2022-09-06,株式会社敏栄,,株式会社,群馬県,前橋市,上大島町４９７番地３,,10,201,3792153,,,,,,,2022-09-06,1,,,,,ビンエイ,0
1390,5070003004615,新規,0,2022-09-06,2022-09-06,合同会社ホスピスケア,,合同会社,群馬県,高崎市,上小鳥町３４２番地３,,10,202,3700078,,,,,,,2022-09-06,1,,,,,ホスピスケア,0
1399,5080401026029,新規,0,2022-09-06,2022-09-06,株式会社あおい畳店,,株式会社,静岡県,浜松市南区,三和町１９４番地,,22,134,4350038,,,,,,,2022-09-06,1,,,,,アオイタタミテン,0
1400,5080405007479,新規,0,2022-09-06,2022-09-06,ＮＰＯ法人ｅｍｏｔｉｏｎ‐Ｉ,,その他の設立登記法人,静岡県,浜松市東区,半田山１丁目２０番１号浜松医科大学看護棟３Ｆ情報医学研究室,,22,132,4313125,,,,,,,2022-09-06,1,,,,,エモーションアイ,0
1403,5110001036928,新規,0,2022-09-06,2022-09-06,株式会社ヤマトモータース,,株式会社,新潟県,長岡市,下条町７２２番地,,15,202,9401146,,,,,,,2022-09-06,1,,,,,ヤマトモータース,0
1406,5110005016851,新規,0,2022-09-06,2022-09-06,医療法人社団内野整形外科クリニック,,その他の設立登記法人,新潟県,新潟市西区,内野町５３番地５,,15,107,9502112,,,,,,,2022-09-06,1,,,,,ウチノセイケイゲカクリニック,0
1417,5120001248646,新規,0,2022-09-06,2022-09-06,ＵＮＴＩＴＬＥＤ株式会社,,株式会社,大阪府,大阪市旭区,高殿３丁目４番９号,,27,117,5350031,,,,,,,2022-09-06,1,,,,,アンタイトル,0
1418,5120001248662,新規,0,2022-09-06,2022-09-06,達源株式会社,,株式会社,大阪府,大阪市西成区,長橋１丁目７－３,,27,122,5570025,,,,,,,2022-09-06,1,,,,,タツモト,0
1419,5120001248670,新規,0,2022-09-06,2022-09-06,株式会社ＴＨＥ　ＫＩＮＧ８,,株式会社,大阪府,大阪市東淀川区,相川２丁目１７番７号,,27,114,5330007,,,,,,,2022-09-06,1,,,,,ザキングエイト,0
1420,5120001248679,新規,0,2022-09-06,2022-09-06,株式会社Ｍｏｎｅｙ　Ｓｅａ,,株式会社,大阪府,大阪市北区,中之島６丁目１番３８－１９０８号,,27,127,5300005,,,,,,,2022-09-06,1,,,,,マネーシー,0
1421,5120001248704,新規,0,2022-09-06,2022-09-06,株式会社ルナエッジ,,株式会社,大阪府,枚方市,南船橋２丁目１１番６６号,,27,210,5731123,,,,,,,2022-09-06,1,,,,,ルナエッジ,0
1437,5120105009622,新規,0,2022-09-06,2022-09-06,一般社団法人幸心福祉会,,その他の設立登記法人,大阪府,岸和田市,北町１０番６号,,27,202,5960056,,,,,,,2022-09-06,1,,,,,コウシンフクシカイ,0
1439,5120901046463,新規,0,2022-09-06,2022-09-06,遊望株式会社,,株式会社,大阪府,箕面市,坊島４丁目１８－４,,27,220,5620013,,,,,,,2022-09-06,1,,,,,アソボウ,0
1444,5130001072533,新規,0,2022-09-06,2022-09-06,Ｓｅｉｋａ　Ｇｒｏｕｐ株式会社,,株式会社,京都府,京都市上京区,一条通御前通東入西町２４番地４,,26,102,6028371,,,,,,,2022-09-06,1,,,,,セイカグループ,0
1448,5140001127245,新規,0,2022-09-06,2022-09-06,株式会社勝田,,株式会社,兵庫県,西宮市,獅子ケ口町１０番４０号,,28,204,6620026,,,,,,,2022-09-06,1,,,,,カツタ,0
1449,5140001127261,新規,0,2022-09-06,2022-09-06,株式会社シュロス神戸,,株式会社,兵庫県,神戸市東灘区,御影本町５丁目８番１０号,,28,101,6580046,,,,,,,2022-09-06,1,,,,,シュロスコウベ,0
1450,5140001127278,新規,0,2022-09-06,2022-09-06,山本電気株式会社,,株式会社,兵庫県,豊岡市,下陰２０番地３,,28,209,6680012,,,,,,,2022-09-06,1,,,,,ヤマモトデンキ,0
1452,5150001025794,新規,0,2022-09-06,2022-09-06,人材ニュースネクスト株式会社,,株式会社,奈良県,橿原市,中曽司町３５１番地の２,,29,205,6340845,,,,,,,2022-09-06,1,,,,,ジンザイニュースネクスト,0
1460,5180001152867,新規,0,2022-09-06,2022-09-06,株式会社絢芽光彩,,株式会社,愛知県,長久手市,上川原４番地６ハイツかなれ４０３号,,23,238,4801132,,,,,,,2022-09-06,1,,,,,アヤメコウサイ,0
1461,5180001152891,新規,0,2022-09-06,2022-09-06,株式会社ニカラバー,,株式会社,愛知県,日進市,米野木町北山１番地６６,,23,230,4700111,,,,,,,2022-09-06,1,,,,,ニカラバー,0
1465,5180301036605,新規,0,2022-09-06,2022-09-06,Ｏｎｅ　Ｆｏｒ　Ａｌｌ株式会社,,株式会社,愛知県,岡崎市,本宿西１丁目３番地１１,,23,202,4443506,,,,,,,2022-09-06,1,,,,,ワンフォーオール,0
1470,5190001029734,新規,0,2022-09-06,2022-09-06,サンアイ株式会社,,株式会社,三重県,三重郡川越町,大字亀崎新田７７番地４５５,,24,344,5108114,,,,,,,2022-09-06,1,,,,,サンアイ,0
1471,5190001029750,新規,0,2022-09-06,2022-09-06,株式会社ポラリス,,株式会社,三重県,四日市市,芝田１丁目１番６号,,24,202,5100822,,,,,,,2022-09-06,1,,,,,ポラリス,0
1473,5190003004082,新規,0,2022-09-06,2022-09-06,合同会社ＡＲＣＨＥ,,合同会社,三重県,桑名市,星見ヶ丘７丁目４０４番地３,,24,205,5110912,,,,,,,2022-09-06,1,,,,,アルケ,0
1481,5220003003353,新規,0,2022-09-06,2022-09-06,合同会社石川ＩＣＴイノベーション,,合同会社,石川県,野々市市,末松３丁目５７０番,,17,212,9218836,,,,,,,2022-09-06,1,,,,,イシカワアイシーティーイノベーション,0
1485,5240001060320,新規,0,2022-09-06,2022-09-06,株式会社ＮＶＤＣ,,株式会社,広島県,呉市,阿賀南４丁目２番２１－２０５号,,34,202,7370004,,,,,,,2022-09-06,1,,,,,エヌブイディーシー,0
1486,5240001060337,新規,0,2022-09-06,2022-09-06,株式会社竜三工業,,株式会社,広島県,三原市,小泉町５１２０番地１,,34,204,7292361,,,,,,,2022-09-06,1,,,,,タツミコウギョウ,0
1487,5240001060345,新規,0,2022-09-06,2022-09-06,株式会社ＳＯＵＮＤＳ　ＣＲＥＡＴＩＯＮ．,,株式会社,広島県,広島市西区,上天満町１０番３９号１Ｆ,,34,104,7330021,,,,,,,2022-09-06,1,,,,,サウンズクリエイション,0
1491,5250005008769,新規,0,2022-09-06,2022-09-06,一般社団法人日本ジビエ連合会,,その他の設立登記法人,山口県,山陽小野田市,中川１丁目８番４３号,,35,216,7560806,,,,,,,2022-09-06,1,,,,,ニホンジビエレンゴウカイ,0
1494,5260003004026,新規,0,2022-09-06,2022-09-06,合同会社ＳＫ　ｗｅｌｌ‐ｂｅｉｎｇ,,合同会社,岡山県,岡山市中区,国富１００１番地３,,33,102,7038236,,,,,,,2022-09-06,1,,,,,エスケーウェルビーイング,0
1500,5290001098793,新規,0,2022-09-06,2022-09-06,和光めがね医療器株式会社,,株式会社,福岡県,久留米市,日吉町２９番地１３,,40,203,8300017,,,,,,,2022-09-06,1,,,,,ワコウメガネイリョウキ,0
1501,5290001098802,新規,0,2022-09-06,2022-09-06,株式会社継ぐ,,株式会社,福岡県,筑紫野市,二日市西３丁目１１番２０号,,40,217,8180071,,,,,,,2022-09-06,1,,,,,ツナグ,0
1502,5290001098843,新規,0,2022-09-06,2022-09-06,ＳＯＦＴＣＡＴ株式会社,,株式会社,福岡県,福岡市博多区,東比恵２丁目１７番２３号,,40,132,8120007,,,,,,,2022-09-06,1,,,,,ソフトキャット,0
1507,5290005018797,新規,0,2022-09-06,2022-09-06,一般社団法人結ぶ食ネットワーク,,その他の設立登記法人,福岡県,福岡市中央区,平尾４丁目４番２２号,,40,133,8100014,,,,,,,2022-09-06,1,,,,,ムスブショクネットワーク,0
1510,5290803004197,新規,0,2022-09-06,2022-09-06,ｍａｇｏｎｏｔｅ合同会社,,合同会社,福岡県,北九州市小倉北区,浅野３丁目８番１号,,40,106,8020001,,,,,,,2022-09-06,1,,,,,マゴノテ,0
1511,5320001019309,新規,0,2022-09-06,2022-09-06,株式会社ｃｙｅ,,株式会社,大分県,杵築市,大字溝井６５７番地,,44,210,8730025,,,,,,,2022-09-06,1,,,,,サイ,0
1512,5330001030066,新規,0,2022-09-06,2022-09-06,株式会社ＨＡＹＡＴＯ,,株式会社,熊本県,玉名市,松木２９番地１,,43,206,8650052,,,,,,,2022-09-06,1,,,,,ハヤト,0
1513,5330001030090,新規,0,2022-09-06,2022-09-06,株式会社＿和貿易,00127732,株式会社,熊本県,玉名郡和水町,久米野６４番１,,43,369,8650115,,,,,,,2022-09-06,1,,,,,キンワボウエキ,0
1522,5360003012282,新規,0,2022-09-06,2022-09-06,合同会社幸翔,,合同会社,沖縄県,沖縄市,美里仲原町２５番７号,,47,211,9042156,,,,,,,2022-09-06,1,,,,,ユキト,0
1523,5370001049012,新規,0,2022-09-06,2022-09-06,株式会社ＹＯＡＫＥ,,株式会社,宮城県,仙台市青葉区,木町１６番１０‐２０６号,,04,101,9810932,,,,,,,2022-09-06,1,,,,,ヨアケ,0
1525,5380003005268,新規,0,2022-09-06,2022-09-06,合同会社くっく工房,,合同会社,福島県,石川郡石川町,字猫啼３６１番地１,,07,501,9637855,,,,,,,2022-09-06,1,,,,,クックコウボウ,0
1527,5390001017009,新規,0,2022-09-06,2022-09-06,株式会社ウォーター・レベル,,株式会社,山形県,鶴岡市,茅原町１番５１号,,06,203,9970018,,,,,,,2022-09-06,1,,,,,ウォーターレベル,0
1528,5390003001992,新規,0,2022-09-06,2022-09-06,合同会社ツナグッド,,合同会社,山形県,山形市,大字長谷堂１１１６－２,,06,201,9902363,,,,,,,2022-09-06,1,,,,,ツナグッド,0
1529,5400005008266,新規,0,2022-09-06,2022-09-06,特定非営利活動法人イノベブリッジたきざわ,,その他の設立登記法人,岩手県,滝沢市,巣子１５２番４０９号,,03,216,0200611,,,,,,,2022-09-06,1,,,,,イノベブリッジタキザワ,0
1532,5440001009140,新規,0,2022-09-06,2022-09-06,株式会社エイアールビズ,,株式会社,北海道,北斗市,七重浜４丁目２８番３２号,,01,236,0490111,,,,,,,2022-09-06,1,,,,,エイアールビズ,0
1536,5480001011844,新規,0,2022-09-06,2022-09-06,株式会社ＣＡＮ　ＤＯ　ＩＴ,,株式会社,徳島県,徳島市,津田西町１丁目４番１４号,,36,201,7708004,,,,,,,2022-09-06,1,,,,,キャンドゥイット,0
1547,6010001229193,新規,0,2022-09-06,2022-09-06,開誠不動産株式会社,,株式会社,東京都,千代田区,紀尾井町３番１２号紀尾井町ビル１５０１,,13,101,1020094,,,,,,,2022-09-06,1,,,,,カイセイフドウサン,0
1548,6010001229251,新規,0,2022-09-06,2022-09-06,株式会社Ｃｉｔｙ　Ｌｉｇｈｔｓ,,株式会社,東京都,中央区,銀座７丁目１２番５号銀星ビル３Ｆ,,13,102,1040061,,,,,,,2022-09-06,1,,,,,シティライツ,0
1550,6010101015320,新規,0,2022-09-06,2022-09-06,株式会社佑建築,,株式会社,東京都,八王子市,緑町６７２番地１,,13,201,1930932,,,,,,,2022-09-06,1,,,,,ユウケンチク,0
1554,6010401169436,新規,0,2022-09-06,2022-09-06,株式会社ビューティーワークス,,株式会社,東京都,港区,浜松町１丁目１２番８号,,13,103,1050013,,,,,,,2022-09-06,1,,,,,ビューティーワークス,0
1555,6010401169485,新規,0,2022-09-06,2022-09-06,株式会社フォレストハブ,,株式会社,東京都,港区,港南２丁目１６番１号品川イーストワンタワー４階,,13,103,1080075,,,,,,,2022-09-06,1,,,,,フォレストハブ,0
1556,6010403028466,新規,0,2022-09-06,2022-09-06,合同会社ひとり,,合同会社,東京都,港区,南青山３丁目１番３６号青山丸竹ビル６Ｆ,,13,103,1070062,,,,,,,2022-09-06,1,,,,,ヒトリ,0
1559,6010501049323,新規,0,2022-09-06,2022-09-06,株式会社グラスブリッジ,,株式会社,東京都,台東区,浅草橋３丁目２１番８号,,13,106,1110053,,,,,,,2022-09-06,1,,,,,グラスブリッジ,0
1564,6010701043167,新規,0,2022-09-06,2022-09-06,ｓｉｘｂｏｎｄ株式会社,,株式会社,東京都,品川区,東品川２丁目８番８号ＦＬＥＺＩＯ五反田ビル３階,,13,109,1400002,,,,,,,2022-09-06,1,,,,,シックスボンド,0
1566,6010805002969,新規,0,2022-09-06,2022-09-06,医療法人社団ＤＴＪ,,その他の設立登記法人,東京都,大田区,北千束１丁目４４番３号山梨屋ビル２階,,13,111,1450062,,,,,,,2022-09-06,1,,,,,ディーティージェイ,0
1569,6010901051556,新規,0,2022-09-06,2022-09-06,株式会社１０１,,株式会社,東京都,世田谷区,東玉川１丁目４０番１５号,,13,112,1580084,,,,,,,2022-09-06,1,,,,,イチマルイチ,0
1570,6010901051580,新規,0,2022-09-06,2022-09-06,Ｆｅｅｌ　Ｇｏｏｄ株式会社,,株式会社,東京都,世田谷区,池尻３丁目１１番３１－３２５号,,13,112,1540001,,,,,,,2022-09-06,1,,,,,フィールグッド,0
1574,6010903007622,新規,0,2022-09-06,2022-09-06,ｘＣａｐａｂｉｌｉｔｙ合同会社,,合同会社,東京都,世田谷区,桜新町２丁目２４番５号,,13,112,1540015,,,,,,,2022-09-06,1,,,,,クロスケイパビリティ,0
1576,6011001149621,新規,0,2022-09-06,2022-09-06,株式会社ＤＰＬＵＳ,,株式会社,東京都,渋谷区,上原１丁目３－９,,13,113,1510064,,,,,,,2022-09-06,1,,,,,ディプラス,0
1577,6011003015350,新規,0,2022-09-06,2022-09-06,理想の暮らしラボ合同会社,,合同会社,東京都,目黒区,中央町１丁目６１１番地３の３０９,,13,110,1520001,,,,,,,2022-09-06,1,,,,,リソウノクラシラボ,0
1586,6011503005280,新規,0,2022-09-06,2022-09-06,合同会社丸金,,合同会社,東京都,北区,赤羽西６丁目２９番１５号１０２号室,,13,117,1150055,,,,,,,2022-09-06,1,,,,,マルカネ,0
1588,6011601026220,新規,0,2022-09-06,2022-09-06,株式会社ＷＡＫＡＩＫＩ,,株式会社,東京都,練馬区,桜台１丁目２番１０号,,13,120,1760002,,,,,,,2022-09-06,1,,,,,ワカイキ,0
1591,6011803005245,新規,0,2022-09-06,2022-09-06,たかでん合同会社,,合同会社,東京都,足立区,舎人２丁目９番１－５０２号,,13,121,1210831,,,,,,,2022-09-06,1,,,,,タカデン,0
1594,6012301013120,新規,0,2022-09-06,2022-09-06,株式会社Ｄｏｗｉｎｇ,,株式会社,東京都,町田市,中町１丁目２番３号新光中町ビル５Ｆ,,13,209,1940021,,,,,,,2022-09-06,1,,,,,ドゥウィング,0
1595,6012303001718,新規,0,2022-09-06,2022-09-06,Ｇｒｏｓｓ　Ｍｏｕｎｔａｉｎ合同会社,,合同会社,東京都,町田市,南つくし野１丁目３番地３６シャンプレンハイツつくし野ＩＩ３－２,00127741,13,209,1940002,,,,,,,2022-09-06,1,,,,,グロスマウンテン,0
1599,6012403005569,新規,0,2022-09-06,2022-09-06,合同会社嶋田美建,,合同会社,東京都,三鷹市,北野３丁目１０番３号,,13,204,1810003,,,,,,,2022-09-06,1,,,,,シマダビケン,0
1603,6013301049609,新規,0,2022-09-06,2022-09-06,株式会社ＡＴＨＬＥＴＥ,,株式会社,東京都,豊島区,南池袋１丁目２１番５号第７野萩ビルＢ１Ｆ,,13,116,1710022,,,,,,,2022-09-06,1,,,,,アスリート,0
1604,6013303006285,新規,0,2022-09-06,2022-09-06,ｓｙｎｋｓ合同会社,,合同会社,東京都,豊島区,東池袋３丁目１５番５号８０２,,13,116,1700013,,,,,,,2022-09-06,1,,,,,シンクス,0
1606,6020001147980,新規,0,2022-09-06,2022-09-06,株式会社金の星,,株式会社,神奈川県,横浜市青葉区,藤が丘１丁目２６番地５ラ・クール藤が丘２０４,,14,117,2270043,,,,,,,2022-09-06,1,,,,,キンノホシ,0
1607,6020001148046,新規,0,2022-09-06,2022-09-06,株式会社Ｌｏｃｋｏｎ,,株式会社,神奈川県,横浜市戸塚区,吉田町９９２番地２,,14,110,2440817,,,,,,,2022-09-06,1,,,,,ロコン,0
1608,6020001148054,新規,0,2022-09-06,2022-09-06,株式会社シンクリーン,,株式会社,神奈川県,川崎市川崎区,駅前本町１１－２川崎フロンティアビル４階,,14,131,2100007,,,,,,,2022-09-06,1,,,,,シンクリーン,0
1609,6020001148062,新規,0,2022-09-06,2022-09-06,スカイホーム株式会社,,株式会社,神奈川県,川崎市高津区,溝口４丁目９番４号,,14,134,2130001,,,,,,,2022-09-06,1,,,,,スカイホーム,0
1610,6020001148070,新規,0,2022-09-06,2022-09-06,株式会社Ｋ,,株式会社,神奈川県,横浜市旭区,二俣川１丁目２番地１,,14,112,2410821,,,,,,,2022-09-06,1,,,,,ケイ,0
1611,6020001148087,新規,0,2022-09-06,2022-09-06,株式会社Ｕｎｄｅｒｃｕｒｒｅｎｔ,,株式会社,神奈川県,横浜市西区,みなとみらい２丁目２番１号横浜ランドマークタワー,,14,103,2200012,,,,,,,2022-09-06,1,,,,,アンダーカレント,0
1612,6020001148095,新規,0,2022-09-06,2022-09-06,株式会社ジュール,,株式会社,神奈川県,横浜市中区,山田町５番地１フロール山田町第２－１０３号,,14,104,2310036,,,,,,,2022-09-06,1,,,,,ジュール,0
1613,6020001148104,新規,0,2022-09-06,2022-09-06,Ａ．Ｒ．Ｃ．ｃｒａｆｔ株式会社,,株式会社,神奈川県,川崎市中原区,小杉陣屋町１丁目２３番３号Ｖｅｓｔａ３０３,,14,133,2110062,,,,,,,2022-09-06,1,,,,,エイアールシークラフト,0
1615,6020003022307,新規,0,2022-09-06,2022-09-06,ロロノロ合同会社,,合同会社,神奈川県,横浜市中区,野毛町２丁目７１番地９モックビル４階,,14,104,2310064,,,,,,,2022-09-06,1,,,,,ロロノロ,0
1616,6020003022348,新規,0,2022-09-06,2022-09-06,合同会社ヒカリノユイ,,合同会社,神奈川県,川崎市中原区,上新城２丁目７番１９－１１０号ダイアパレスステーションプラザ,,14,133,2110045,,,,,,,2022-09-06,1,,,,,ヒカリノユイ,0
1618,6021001076889,新規,0,2022-09-06,2022-09-06,株式会社ＡＲホールディングス,,株式会社,神奈川県,伊勢原市,鈴川２９番地,,14,214,2591146,,,,,,,2022-09-06,1,,,,,エーアールホールディングス,0
1619,6021001076914,新規,0,2022-09-06,2022-09-06,株式会社ＧＡｉｍ,,株式会社,神奈川県,小田原市,本町２丁目２番４号アーバンビュー本町６Ｆ,,14,206,2500012,,,,,,,2022-09-06,1,,,,,ゲイム,0
1622,6021003012108,新規,0,2022-09-06,2022-09-06,合同会社８Ｕ,,合同会社,神奈川県,大和市,上和田９４２－５－１０３,,14,213,2420014,,,,,,,2022-09-06,1,,,,,エイトユー,0
1629,6030001149844,新規,0,2022-09-06,2022-09-06,株式会社セカンドプロダクション,,株式会社,埼玉県,川越市,大字笠幡２３６８－３,,11,201,3501175,,,,,,,2022-09-06,1,,,,,セカンドプロダクション,0
1631,6030003020136,新規,0,2022-09-06,2022-09-06,合同会社シーナリー,,合同会社,埼玉県,さいたま市見沼区,大字深作２３６番地２２,,11,104,3370003,,,,,,,2022-09-06,1,,,,,シーナリー,0
1635,6040001124929,新規,0,2022-09-06,2022-09-06,株式会社池翔,,株式会社,千葉県,市原市,姉崎８２９番地,,12,219,2990111,,,,,,,2022-09-06,1,,,,,イケショウ,0
1636,6040001124953,新規,0,2022-09-06,2022-09-06,株式会社ＡＲＴ　Ｓｔｙｌｅ　Ｐｌｕｓ,,株式会社,千葉県,柏市,緑台７番地１４,,12,217,2770903,,,,,,,2022-09-06,1,,,,,アートスタイルプラス,0
1638,6040003020746,新規,0,2022-09-06,2022-09-06,合同会社Ｂｅｎｅｆｉｔ,,合同会社,千葉県,千葉市中央区,今井１丁目２０番１号Ｙ’ｓビル２Ｆ－Ｃ,,12,101,2600834,,,,,,,2022-09-06,1,,,,,ベネフィット,0
1639,6040003020770,新規,0,2022-09-06,2022-09-06,ルビコン合同会社,,合同会社,千葉県,千葉市稲毛区,稲毛東３丁目２０番１３号第２大越ビル４０５,,12,103,2630031,,,,,,,2022-09-06,1,,,,,ルビコン,0
1640,6040003020779,新規,0,2022-09-06,2022-09-06,合同会社あいの実介護,,合同会社,千葉県,流山市,三輪野山１丁目１０６３番地の９,,12,220,2700175,,,,,,,2022-09-06,1,,,,,アイノミカイゴ,0
1643,6050001051619,新規,0,2022-09-06,2022-09-06,株式会社かしまの森どうぶつクリニック,,株式会社,茨城県,鹿嶋市,緑ヶ丘４丁目８番地１,,08,222,3140039,,,,,,,2022-09-06,1,,,,,カシマノモリドウブツクリニック,0
1644,6050001051627,新規,0,2022-09-06,2022-09-06,株式会社グラスルーツ,,株式会社,茨城県,神栖市,平泉東２丁目４０番地４３,,08,232,3140145,,,,,,,2022-09-06,1,,,,,グラスルーツ,0
1645,6050001051635,新規,0,2022-09-06,2022-09-06,株式会社ＰＳＥ．,,株式会社,茨城県,猿島郡境町,大字伏木１２８３番地５,,08,546,3060416,,,,,,,2022-09-06,1,,,,,ピーエスイードット,0
1646,6050001051643,新規,0,2022-09-06,2022-09-06,株式会社ＡＯ,,株式会社,茨城県,古河市,雷電町９番３８号,,08,204,3060004,,,,,,,2022-09-06,1,,,,,アオ,0
1650,6060001035249,新規,0,2022-09-06,2022-09-06,株式会社山千,,株式会社,栃木県,佐野市,奈良渕町３３８番地２０,,09,204,3270842,,,,,,,2022-09-06,1,,,,,ヤマセン,0
1658,6080001025181,新規,0,2022-09-06,2022-09-06,アオポップ株式会社,,株式会社,静岡県,静岡市葵区,安東２丁目７番９号,,22,101,4200882,,,,,,,2022-09-06,1,,,,,アオポップ,0
1668,6100001035673,新規,0,2022-09-06,2022-09-06,株式会社Ｗｉｔｈ,,株式会社,長野県,長野市,徳間１丁目１２番２号,,20,201,3810041,,,,,,,2022-09-06,1,,,,,ウィズ,0
1669,6100005012909,新規,0,2022-09-06,2022-09-06,土地家屋調査士法人久保田コンサルタント,,その他の設立登記法人,長野県,飯田市,鼎切石４３７１番地３,,20,205,3950807,,,,,,,2022-09-06,1,,,,,クボタコンサルタント,0
1678,6120001248620,新規,0,2022-09-06,2022-09-06,株式会社けんしん,,株式会社,大阪府,門真市,大倉町３０番３号第二北井ハイツ１０６号,,27,223,5710068,,,,,,,2022-09-06,1,,,,,ケンシン,0
1679,6120001248629,新規,0,2022-09-06,2022-09-06,リザルト株式会社,,株式会社,大阪府,大阪市中央区,谷町７丁目１番３０－４０２号,,27,128,5420012,,,,,,,2022-09-06,1,,,,,リザルト,0
1683,6120003022404,新規,0,2022-09-06,2022-09-06,リーデーレ合同会社,,合同会社,大阪府,大阪市中央区,島之内１丁目５番１６－９０８号,,27,128,5420082,,,,,,,2022-09-06,1,,,,,リーデーレ,0
1690,6120105009621,新規,0,2022-09-06,2022-09-06,一般社団法人Ａｋａｒｕｉｔｅ,,その他の設立登記法人,大阪府,堺市南区,宮山台３丁１番２２号グランコープ泉北宮山台３０２号,,27,145,5900101,,,,,,,2022-09-06,1,,,,,アカルイテ,0
1691,6120901046446,新規,0,2022-09-06,2022-09-06,株式会社いまこの瞬間を全力で,,株式会社,大阪府,吹田市,青葉丘南２番１－３０１号,,27,205,5650802,,,,,,,2022-09-06,1,,,,,イマコノシュンカンヲゼンリョクデ,0
1693,6122001036220,新規,0,2022-09-06,2022-09-06,株式会社えんじゅコーポレーション,,株式会社,大阪府,東大阪市,長堂１丁目９番２４号,,27,227,5770056,,,,,,,2022-09-06,1,,,,,エンジュコーポレーション,0
1698,6122003002419,新規,0,2022-09-06,2022-09-06,くすもと空家管理合同会社,,合同会社,大阪府,東大阪市,稲葉３丁目４番１５号,,27,227,5780925,,,,,,,2022-09-06,1,,,,,クスモトアキヤカンリ,0
1703,6130001072581,新規,0,2022-09-06,2022-09-06,株式会社ＷＯＢ,,株式会社,京都府,京都市伏見区,西大手町３０７番地３８,,26,109,6128362,,,,,,,2022-09-06,1,,,,,ダブルオービー,0
1709,6140001127260,新規,0,2022-09-06,2022-09-06,株式会社樹建設,,株式会社,兵庫県,神崎郡市川町,小谷４２番地,,28,442,6792322,,,,,,,2022-09-06,1,,,,,イツキケンセツ,0
1710,6140001127269,新規,0,2022-09-06,2022-09-06,株式会社ホンダ兵庫ホールディングス,,株式会社,兵庫県,神戸市北区,星和台１丁目１７番地の１,,28,109,6511121,,,,,,,2022-09-06,1,,,,,ホンダヒョウゴホールディングス,0
1711,6140001127277,新規,0,2022-09-06,2022-09-06,株式会社東建設工業,,株式会社,兵庫県,神戸市西区,白水２丁目１８番２３－３０４号,,28,111,6512129,,,,,,,2022-09-06,1,,,,,アズマケンセツコウギョウ,0
1714,6140003018086,新規,0,2022-09-06,2022-09-06,アシストＵ合同会社,,合同会社,兵庫県,西宮市,御茶家所町４番１５号中田ビル２階,,28,204,6620961,,,,,,,2022-09-06,1,,,,,アシストユー,0
1716,6150001025793,新規,0,2022-09-06,2022-09-06,株式会社ミズカワエステート,,株式会社,奈良県,大和郡山市,額田部北町７３５番地,,29,203,6391037,,,,,,,2022-09-06,1,,,,,ミズカワエステート,0
1720,6160001024489,新規,0,2022-09-06,2022-09-06,株式会社長浜ミニコン,,株式会社,滋賀県,長浜市,鍛冶屋町８５８番地,,25,203,5260204,,,,,,,2022-09-06,1,,,,,ナガハマミニコン,0
1732,6180001152874,新規,0,2022-09-06,2022-09-06,株式会社オンステージ,,株式会社,愛知県,名古屋市守山区,鼓が丘２丁目８０２番地,,23,113,4630807,,,,,,,2022-09-06,1,,,,,オンステージ,0
1733,6180001152890,新規,0,2022-09-06,2022-09-06,株式会社ＦＡＮＴＡＳＹ,,株式会社,愛知県,名古屋市東区,白壁２丁目１番２０号,,23,102,4610011,,,,,,,2022-09-06,1,,,,,ファンタジー,0
1742,6180301036595,新規,0,2022-09-06,2022-09-06,佐藤工業株式会社,,株式会社,愛知県,岡崎市,上青野町字舞野１５番地,,23,202,4440243,,,,,,,2022-09-06,1,,,,,サトウコウギョウ,0
1743,6180301036612,新規,0,2022-09-06,2022-09-06,株式会社ブラプロ,,株式会社,愛知県,蒲郡市,形原町前田３４番地８,,23,214,4430104,,,,,,,2022-09-06,1,,,,,ブラプロ,0
1748,6190001029733,新規,0,2022-09-06,2022-09-06,株式会社三重工業所,,株式会社,三重県,鈴鹿市,自由ヶ丘１丁目１３番２７号,,24,207,5131124,,,,,,,2022-09-06,1,,,,,ミエコウギョウショ,0
1749,6190001029741,新規,0,2022-09-06,2022-09-06,株式会社刀根設備工業,,株式会社,三重県,伊勢市,辻久留１丁目１２番１４号,00127735,24,203,5160066,,,,,,,2022-09-06,1,,,,,トネセツビコウギョウ,0
1752,6190003004081,新規,0,2022-09-06,2022-09-06,合同会社空撮伊賀,,合同会社,三重県,伊賀市,鳳凰寺６２番地の１,,24,216,5181405,,,,,,,2022-09-06,1,,,,,クウサツイガ,0
1755,6210001019070,新規,0,2022-09-06,2022-09-06,ドーマンホールディングス株式会社,,株式会社,福井県,小浜市,小浜鹿島９２番地,,18,204,9170067,,,,,,,2022-09-06,1,,,,,ドーマンホールディングス,0
1757,6220001025019,新規,0,2022-09-06,2022-09-06,頼廣瓦株式会社,00127740,株式会社,石川県,珠洲市,若山町古蔵１０の部２番地,,17,205,9271239,,,,,,,2022-09-06,1,,,,,ヨリヒロガワラ,0
1760,6220003003352,新規,0,2022-09-06,2022-09-06,合同会社トリプルエー,,合同会社,石川県,金沢市,近岡町９６３番地ＣＵＢＩＯＳＩ‐１０１号室,00127739,17,201,9208217,,,,,,,2022-09-06,1,,,,,トリプルエー,0
1761,6230001019515,新規,0,2022-09-06,2022-09-06,株式会社メノウ,,株式会社,富山県,砺波市,秋元１１８番地,,16,208,9391304,,,,,,,2022-09-06,1,,,,,メノウ,0
1766,6240001060294,新規,0,2022-09-06,2022-09-06,株式会社ＩＮＦＩＮＩＴＹ,,株式会社,広島県,広島市南区,仁保１丁目１９番３号,,34,103,7340026,,,,,,,2022-09-06,1,,,,,インフィニィティ,0
1767,6240001060303,新規,0,2022-09-06,2022-09-06,株式会社イワセツ,,株式会社,広島県,福山市,引野町南３丁目１０番３１号,,34,207,7210945,,,,,,,2022-09-06,1,,,,,イワセツ,0
1768,6240001060344,新規,0,2022-09-06,2022-09-06,株式会社Ｔ＆Ｔ,,株式会社,広島県,福山市,赤坂町大字赤坂１０８７番地１,,34,207,7200843,,,,,,,2022-09-06,1,,,,,ティーアンドティー,0
1770,6250003003143,新規,0,2022-09-06,2022-09-06,合同会社Ｌｉｋｃ,,合同会社,山口県,周南市,桜木２丁目１０番１９－２,,35,215,7450806,,,,,,,2022-09-06,1,,,,,リック,0
1773,6260001037209,新規,0,2022-09-06,2022-09-06,株式会社さかもと,,株式会社,岡山県,倉敷市,水島東常盤町８番１７号,,33,202,7128058,,,,,,,2022-09-06,1,,,,,サカモト,0
1774,6260001037233,新規,0,2022-09-06,2022-09-06,株式会社ＦＦＰ,,株式会社,岡山県,岡山市北区,今７丁目１８番２０号,,33,101,7000975,,,,,,,2022-09-06,1,,,,,エフエフピー,0
1776,6270001008621,新規,0,2022-09-06,2022-09-06,Ｆｉｓｈプランニング株式会社,,株式会社,鳥取県,米子市,天神町２丁目４８番地,,31,202,6830821,,,,,,,2022-09-06,1,,,,,フィッシュプランニング,0
1784,6290001098784,新規,0,2022-09-06,2022-09-06,株式会社ホームアシスト,,株式会社,福岡県,福岡市東区,和白東５丁目３番２９－１０１号ＪＲ新宮センチュリー２１,,40,131,8110214,,,,,,,2022-09-06,1,,,,,ホームアシスト,0
1785,6290001098792,新規,0,2022-09-06,2022-09-06,株式会社やました鮮魚,,株式会社,福岡県,福岡市博多区,千代３丁目１９番１－１１６号,,40,132,8120044,,,,,,,2022-09-06,1,,,,,ヤマシタセンギョ,0
1786,6290001098801,新規,0,2022-09-06,2022-09-06,株式会社リブレ,,株式会社,福岡県,久留米市,北野町大城４８８番地２６,,40,203,8301104,,,,,,,2022-09-06,1,,,,,リブレ,0
1787,6290001098834,新規,0,2022-09-06,2022-09-06,株式会社Ｌｉｅｎ　Ｓｔｙｌｅ,,株式会社,福岡県,福岡市中央区,高砂１丁目１番２５－６０５号,,40,133,8100011,,,,,,,2022-09-06,1,,,,,リアンスタイル,0
1791,6310003004440,新規,0,2022-09-06,2022-09-06,合同会社ＤＲＥＡＭ,,合同会社,長崎県,諫早市,飯盛町久保２４０番地１,,42,204,8541114,,,,,,,2022-09-06,1,,,,,ドリーム,0
1792,6330001030065,新規,0,2022-09-06,2022-09-06,株式会社ＳＮテック,,株式会社,熊本県,熊本市南区,良町４丁目６番５号,,43,104,8620969,,,,,,,2022-09-06,1,,,,,エスエヌテック,0
1794,6340001025007,新規,0,2022-09-06,2022-09-06,株式会社漢方のサカモト,,株式会社,鹿児島県,肝属郡肝付町,新富１１８番地４,,46,492,8931207,,,,,,,2022-09-06,1,,,,,カンポウノサカモト,0
1795,6340001025015,新規,0,2022-09-06,2022-09-06,株式会社マーガレット,,株式会社,鹿児島県,霧島市,隼人町西光寺２４７５番地,,46,218,8995114,,,,,,,2022-09-06,1,,,,,マーガレット,0
1800,6370001049011,新規,0,2022-09-06,2022-09-06,株式会社ＧＯＧＯカンパニー,,株式会社,宮城県,名取市,愛島小豆島字宇賀崎６１番地,,04,207,9811236,,,,,,,2022-09-06,1,,,,,ゴーゴーカンパニー,0
1803,6380001033088,新規,0,2022-09-06,2022-09-06,株式会社希来の杜,,株式会社,福島県,南相馬市,小高区東町１丁目４０番地,,07,212,9792121,,,,,,,2022-09-06,1,,,,,キラノモリ,0
1804,6380001033096,新規,0,2022-09-06,2022-09-06,株式会社きのうちライスファーム,,株式会社,福島県,西白河郡泉崎村,大字関和久字明地１５番地,,07,464,9690102,,,,,,,2022-09-06,1,,,,,キノウチライスファーム,0
1806,6400001015991,新規,0,2022-09-06,2022-09-06,株式会社ＭＥＲＣＩＴ,,株式会社,岩手県,北上市,本通り１丁目５－１１,,03,206,0240094,,,,,,,2022-09-06,1,,,,,メルシット,0
1809,6420001017994,新規,0,2022-09-06,2022-09-06,株式会社ワダクリエイト,,株式会社,青森県,五所川原市,大字漆川字浅井８番地９,,02,205,0370017,,,,,,,2022-09-06,1,,,,,ワダクリエイト,0
1810,6420003002573,新規,0,2022-09-06,2022-09-06,合同会社Ｋインストールサービス,,合同会社,青森県,青森市,西大野５丁目３番地５,,02,201,0300856,,,,,,,2022-09-06,1,,,,,ケイインストールサービス,0
1812,6430001087426,新規,0,2022-09-06,2022-09-06,株式会社鎌田土建,,株式会社,北海道,小樽市,清水町２２番１０号,,01,203,0470045,,,,,,,2022-09-06,1,,,,,カマダドケン,0
1813,6430001087442,新規,0,2022-09-06,2022-09-06,株式会社ぎょれん道北食品,,株式会社,北海道,札幌市中央区,北三条西７丁目１番地,,01,101,0600003,,,,,,,2022-09-06,1,,,,,ギョレンドウホクショクヒン,0
1828,7010001229218,新規,0,2022-09-06,2022-09-06,Ｆｕｎｎｉｚｅ株式会社,,株式会社,東京都,千代田区,丸の内２丁目２－１岸本ビルヂング６Ｆ,,13,101,1000005,,,,,,,2022-09-06,1,,,,,ファンナイズ,0
1829,7010001229234,新規,0,2022-09-06,2022-09-06,ＳＰＥＤｉ株式会社,,株式会社,東京都,千代田区,九段南１丁目５番６号りそな九段ビル５階ＫＳフロア,,13,101,1020074,,,,,,,2022-09-06,1,,,,,スペディ,0
1830,7010001229300,新規,0,2022-09-06,2022-09-06,株式会社ＳＯＵＺＯＵＤＯ,,株式会社,東京都,中央区,銀座１丁目１２－４Ｎ＆ＥＢＬＤ．７階,,13,102,1040061,,,,,,,2022-09-06,1,,,,,ソウゾウドウ,0
1831,7010001229317,新規,0,2022-09-06,2022-09-06,株式会社パリオ,,株式会社,東京都,文京区,本郷７丁目２番６号,,13,105,1130033,,,,,,,2022-09-06,1,,,,,パリオ,0
1835,7010003038559,新規,0,2022-09-06,2022-09-06,ＨＭ　ｋｉｄｓ川崎合同会社,,合同会社,東京都,中央区,銀座２丁目６―５アサコ銀座ビル６階,,13,102,1040061,,,,,,,2022-09-06,1,,,,,エイチエムキッズカワサキ,0
1848,7010401169220,新規,0,2022-09-06,2022-09-06,株式会社三木,,株式会社,東京都,港区,三田３丁目４番１５号,,13,103,1080073,,,,,,,2022-09-06,1,,,,,ミキ,0
1849,7010401169501,新規,0,2022-09-06,2022-09-06,株式会社ヴァティービジネスサポート,,株式会社,東京都,港区,新橋３丁目１１番１号,,13,103,1050004,,,,,,,2022-09-06,1,,,,,ヴァティービジネスサポート,0
1851,7010403028424,新規,0,2022-09-06,2022-09-06,合同会社神谷町インベストメント２８号,,合同会社,東京都,港区,虎ノ門５丁目１番４号,,13,103,1050001,,,,,,,2022-09-06,1,,,,,カミヤチョウインベストメントニジュウハチゴウ,0
1853,7010405021294,新規,0,2022-09-06,2022-09-06,一般財団法人日米アースアクセス委員会,,その他の設立登記法人,東京都,港区,西麻布１丁目８番２１－２０１号,,13,103,1060031,,,,,,,2022-09-06,1,,,,,ニチベイアースアクセスイインカイ,0
1855,7010601061805,新規,0,2022-09-06,2022-09-06,株式会社３５４２,,株式会社,東京都,江東区,東陽６丁目３番２５号中央マンション６０２,,13,108,1350016,,,,,,,2022-09-06,1,,,,,サンゴヨンニ,0
1865,7011001149570,新規,0,2022-09-06,2022-09-06,株式会社ＰＲＯ,,株式会社,東京都,渋谷区,恵比寿南１丁目３番２－６０４号エルスタンザ恵比寿,,13,113,1500022,,,,,,,2022-09-06,1,,,,,プロ,0
1866,7011001149620,新規,0,2022-09-06,2022-09-06,株式会社プラウドサニー,,株式会社,東京都,目黒区,下目黒１丁目２－２１,,13,110,1530064,,,,,,,2022-09-06,1,,,,,プラウドサニー,0
1867,7011003015267,新規,0,2022-09-06,2022-09-06,ＰｏｋｅｒＮｕｔｓ合同会社,,合同会社,東京都,渋谷区,円山町５番５号Ｎａｖｉ渋谷Ｖ３階,,13,113,1500044,,,,,,,2022-09-06,1,,,,,ポーカーナッツ,0
1868,7011003015325,新規,0,2022-09-06,2022-09-06,合同会社アイビー,,合同会社,東京都,渋谷区,道玄坂１丁目１０番８号渋谷道玄坂東急ビル２Ｆ―Ｃ,,13,113,1500043,,,,,,,2022-09-06,1,,,,,アイビー,0
1871,7011101100078,新規,0,2022-09-06,2022-09-06,株式会社マリーナプロパティ,,株式会社,東京都,新宿区,新宿２丁目５番１６号,,13,104,1600022,,,,,,,2022-09-06,1,,,,,マリーナプロパティ,0
1872,7011101100086,新規,0,2022-09-06,2022-09-06,株式会社ＺＥＲＯ,,株式会社,東京都,新宿区,西新宿３丁目９－７フロンティア新宿タワーオフィス,,13,104,1600023,,,,,,,2022-09-06,1,,,,,ゼロ,0
1879,7011401024522,新規,0,2022-09-06,2022-09-06,株式会社ウォル・イニシエイト,,株式会社,東京都,板橋区,東山町１番１２号,,13,119,1740073,,,,,,,2022-09-06,1,,,,,ウォルイニシエイト,0
1881,7011503005271,新規,0,2022-09-06,2022-09-06,ＴＨＭ　Ｍａｒｋｅｔ合同会社,,合同会社,東京都,北区,赤羽西１丁目１６番１２号赤羽ＴＰビルＡ棟２１０号室,,13,117,1150055,,,,,,,2022-09-06,1,,,,,ティーエイチエムマーケット,0
1884,7011703003249,新規,0,2022-09-06,2022-09-06,天覇合同会社,,合同会社,東京都,江戸川区,東小松川４丁目４４番９号,,13,123,1320033,,,,,,,2022-09-06,1,,,,,テンハク,0
1887,7011805003205,新規,0,2022-09-06,2022-09-06,医療法人社団永天会,,その他の設立登記法人,東京都,足立区,千住旭町４番１１号西村ビル４階,,13,121,1200026,,,,,,,2022-09-06,1,,,,,シャダンエイテンカイ,0
1894,7013303006284,新規,0,2022-09-06,2022-09-06,合同会社ｍｏｏｎ,,合同会社,東京都,豊島区,南池袋２丁目１７－１１,,13,116,1710022,,,,,,,2022-09-06,1,,,,,ムーン,0
1895,7013305003379,新規,0,2022-09-06,2022-09-06,医療法人社団康昇会千川胃腸内科外科クリニック,,その他の設立登記法人,東京都,豊島区,要町３丁目３９番５号アジリア千川駅前２階,,13,116,1710043,,,,,,,2022-09-06,1,,,,,コウショウカイセンカワイチョウナイカゲカクリニック,0
1899,7020001148029,新規,0,2022-09-06,2022-09-06,株式会社Ｓｏｕｎｄ　Ｏｎｅ,,株式会社,神奈川県,横浜市港北区,新横浜３丁目９番３号,,14,109,2220033,,,,,,,2022-09-06,1,,,,,サウンドワン,0
1900,7020001148045,新規,0,2022-09-06,2022-09-06,質元通商株式会社,,株式会社,神奈川県,横浜市金沢区,柳町２５番地２５,,14,108,2360026,,,,,,,2022-09-06,1,,,,,タチモトツウショウ,0
1901,7020001148061,新規,0,2022-09-06,2022-09-06,株式会社５０,,株式会社,神奈川県,川崎市宮前区,鷺沼４丁目１４番地２ドレッセ鷺沼の杜プライムフォレストＦ号棟５０９,,14,136,2160004,,,,,,,2022-09-06,1,,,,,ゴジュウ,0
1902,7020001148094,新規,0,2022-09-06,2022-09-06,株式会社野口食品流通センター,,株式会社,神奈川県,横浜市鶴見区,大黒町９番４号,,14,101,2300053,,,,,,,2022-09-06,1,,,,,ノグチショクヒンリュウツウセンター,0
1903,7020001148103,新規,0,2022-09-06,2022-09-06,株式会社ＴＯＲＵＳ　ＰＡＲＴＮＥＲ,,株式会社,神奈川県,横浜市旭区,中沢１丁目１番９号,,14,112,2410814,,,,,,,2022-09-06,1,,,,,トーラスパートナー,0
1904,7020001148111,新規,0,2022-09-06,2022-09-06,加藤電設株式会社,,株式会社,神奈川県,川崎市川崎区,大島３丁目３６番１５号ルーファー１０１,,14,131,2100834,,,,,,,2022-09-06,1,,,,,,0
1905,7020001148136,新規,0,2022-09-06,2022-09-06,株式会社アルムナイ,,株式会社,神奈川県,横浜市西区,中央１丁目３８番１号,,14,103,2200051,,,,,,,2022-09-06,1,,,,,アルムナイ,0
1906,7020003022330,新規,0,2022-09-06,2022-09-06,融茂合同会社,,合同会社,神奈川県,川崎市中原区,北谷町９５番地５３,,14,133,2110015,,,,,,,2022-09-06,1,,,,,ユウシゲ,0
1907,7020003022339,新規,0,2022-09-06,2022-09-06,合同会社ブライトアシスト,,合同会社,神奈川県,横浜市保土ケ谷区,保土ケ谷町１丁目２０番地１クリオ横浜保土ヶ谷７０４号,,14,106,2400021,,,,,,,2022-09-06,1,,,,,ブライトアシスト,0
1911,7021001076896,新規,0,2022-09-06,2022-09-06,ソルトブルック株式会社,,株式会社,神奈川県,厚木市,三田南３丁目２番２０号,,14,212,2430217,,,,,,,2022-09-06,1,,,,,ソルトブルック,0
1912,7021001076913,新規,0,2022-09-06,2022-09-06,株式会社ＦＩＮＥ,,株式会社,神奈川県,大和市,中央林間２丁目２１番１２－２０８号,,14,213,2420007,,,,,,,2022-09-06,1,,,,,ファイン,0
1913,7021003012081,新規,0,2022-09-06,2022-09-06,合同会社オステオペルタ,,合同会社,神奈川県,藤沢市,川名１丁目３番２０－１２０９号,,14,205,2510015,,,,,,,2022-09-06,1,,,,,オステオペルタ,0
1914,7021005012609,新規,0,2022-09-06,2022-09-06,行政書士法人ＤＡＩＳＨＯＹＡ．ｎｅｔ,,その他の設立登記法人,神奈川県,横須賀市,佐野町６丁目２２番地,,14,201,2380052,,,,,,,2022-09-06,1,,,,,ダイショヤドットネット,0
1920,7030001149934,新規,0,2022-09-06,2022-09-06,株式会社小林,,株式会社,埼玉県,和光市,白子１丁目３３番３号,,11,229,3510101,,,,,,,2022-09-06,1,,,,,コバヤシ,0
1921,7030001149950,新規,0,2022-09-06,2022-09-06,株式会社ＳＳサービス,,株式会社,埼玉県,川口市,東領家２丁目１９番２１号,,11,203,3320003,,,,,,,2022-09-06,1,,,,,エスエスサービス,0
1922,7030001149959,新規,0,2022-09-06,2022-09-06,株式会社リアクト,,株式会社,埼玉県,ふじみ野市,福岡中央２丁目５番１４号２,,11,245,3560031,,,,,,,2022-09-06,1,,,,,リアクト,0
1923,7030001149975,新規,0,2022-09-06,2022-09-06,株式会社タグチビル,,株式会社,埼玉県,さいたま市浦和区,高砂３丁目４番１１号５０２,,11,107,3300063,,,,,,,2022-09-06,1,,,,,タグチビル,0
1924,7030001149983,新規,0,2022-09-06,2022-09-06,株式会社Ｌａｔｔｅ,,株式会社,埼玉県,ふじみ野市,上福岡１丁目４番１０号協和ハイツ１０１号,,11,245,3560004,,,,,,,2022-09-06,1,,,,,ラテ,0
1925,7030001149991,新規,0,2022-09-06,2022-09-06,株式会社ネッチ・ジャパン,,株式会社,埼玉県,富士見市,羽沢１丁目１番１１号,,11,235,3540033,,,,,,,2022-09-06,1,,,,,ネッチジャパン,0
1926,7030001150009,新規,0,2022-09-06,2022-09-06,株式会社浩山,,株式会社,埼玉県,川越市,久保町１１番地９,,11,201,3500055,,,,,,,2022-09-06,1,,,,,コウザン,0
1930,7030003020143,新規,0,2022-09-06,2022-09-06,合同会社ジャハン,,合同会社,埼玉県,鶴ヶ島市,大字上広谷２６９番地７０ストーンズ鶴ヶ島１０３号,,11,241,3502203,,,,,,,2022-09-06,1,,,,,ジャハン,0
1937,7040001124960,新規,0,2022-09-06,2022-09-06,株式会社Ｂａｒｏｑｕｅ,,株式会社,千葉県,千葉市中央区,問屋町１４番１号コンフォルシア千葉みなと４０３号,,12,101,2600025,,,,,,,2022-09-06,1,,,,,バロック,0
1938,7040001124977,新規,0,2022-09-06,2022-09-06,株式会社ビズリンク,,株式会社,千葉県,市川市,新井２丁目１番１７－３０１号,,12,203,2720144,,,,,,,2022-09-06,1,,,,,ビズリンク,0
1941,7040003020778,新規,0,2022-09-06,2022-09-06,合同会社フィルコネクト,,合同会社,千葉県,船橋市,宮本６丁目３５番９－４１０号,,12,204,2730003,,,,,,,2022-09-06,1,,,,,フィルコネクト,0
1944,7050001051634,新規,0,2022-09-06,2022-09-06,有機物研究所株式会社,,株式会社,茨城県,つくば市,島名４４３６番地（香取台Ｂ５７街区１）ガレリアヴェール８０６号,,08,220,3002655,,,,,,,2022-09-06,1,,,,,ユウキブツケンキュウジョ,0
1945,7050001051642,新規,0,2022-09-06,2022-09-06,株式会社ｏｐｕｓ,,株式会社,茨城県,稲敷郡阿見町,うずら野２丁目２０番地１メイフェアハウスＥ２号室,,08,443,3000341,,,,,,,2022-09-06,1,,,,,オーパス,0
1946,7060001035248,新規,0,2022-09-06,2022-09-06,株式会社Ｓｕｒ‐ｇｅ,,株式会社,栃木県,宇都宮市,簗瀬４丁目２２番３３号レジデンスＹＡＮＡＺＥ１０１,,09,201,3210934,,,,,,,2022-09-06,1,,,,,サージ,0
1955,7080001025172,新規,0,2022-09-06,2022-09-06,株式会社Ｋａｉｓｅｒ,,株式会社,静岡県,静岡市葵区,竜南１丁目２４番１号,,22,101,4200804,,,,,,,2022-09-06,1,,,,,カイザー,0
1971,7120001248561,新規,0,2022-09-06,2022-09-06,株式会社ヘリックスプラス,,株式会社,大阪府,大阪市北区,角田町８番４７号梅田阪急グランドビル２０階,,27,127,5300017,,,,,,,2022-09-06,1,,,,,ヘリックスプラス,0
1972,7120001248669,新規,0,2022-09-06,2022-09-06,兆平株式会社,,株式会社,大阪府,大阪市生野区,中川西１丁目１７番１０号３Ｆ,,27,116,5440032,,,,,,,2022-09-06,1,,,,,チョウヘイ,0
1973,7120003022403,新規,0,2022-09-06,2022-09-06,合同会社グレートファーム,,合同会社,大阪府,大阪市中央区,南本町１丁目５番６号スミヤビル２０３号室,,27,128,5410054,,,,,,,2022-09-06,1,,,,,グレートファーム,0
1974,7120005023176,新規,0,2022-09-06,2022-09-06,一般社団法人健康経営推進機構,,その他の設立登記法人,大阪府,大阪市福島区,吉野１丁目５番１７号野田庄ビル２Ｆ,,27,103,5530006,,,,,,,2022-09-06,1,,,,,ケンコウケイエイスイシンキコウ,0
1979,7120101066178,新規,0,2022-09-06,2022-09-06,株式会社ＣＭ．ｃ,,株式会社,大阪府,松原市,上田３丁目４番８号,,27,217,5800016,,,,,,,2022-09-06,1,,,,,シーエムドットシー,0
1980,7120101066186,新規,0,2022-09-06,2022-09-06,株式会社リズムデザイン,,株式会社,大阪府,泉佐野市,中庄１８４９番地の１,,27,213,5980002,,,,,,,2022-09-06,1,,,,,リズムデザイン,0
1981,7120103004838,新規,0,2022-09-06,2022-09-06,合同会社ディアロード,,合同会社,大阪府,堺市北区,北長尾町２丁１番２３号,,27,146,5918043,,,,,,,2022-09-06,1,,,,,ディアロード,0
1984,7120901046445,新規,0,2022-09-06,2022-09-06,株式会社Ｐａｌｅｔｔｅ,,株式会社,大阪府,吹田市,豊津町２１番１０号１階,,27,205,5640051,,,,,,,2022-09-06,1,,,,,パレット,0
1985,7120901046453,新規,0,2022-09-06,2022-09-06,株式会社Ｓａｉｓｅｉ,,株式会社,大阪府,池田市,桃園１丁目４番１８－Ａ－１０１号,,27,204,5630045,,,,,,,2022-09-06,1,,,,,サイセイ,0
1993,7130001072548,新規,0,2022-09-06,2022-09-06,株式会社大橋総業,,株式会社,京都府,木津川市,城山台１丁目３１番地１０,,26,214,6190218,,,,,,,2022-09-06,1,,,,,オオハシソウギョウ,0
1994,7130001072580,新規,0,2022-09-06,2022-09-06,株式会社記憶の音,,株式会社,京都府,京都市右京区,龍安寺玉津芝町２２番地７,,26,108,6168004,,,,,,,2022-09-06,1,,,,,キオクノート,0
2000,7140001127243,新規,0,2022-09-06,2022-09-06,株式会社Ｓ‐ｆｉｘ,,株式会社,兵庫県,明石市,二見町福里１１６番地の１９,,28,203,6740091,,,,,,,2022-09-06,1,,,,,エスフィックス,0
2001,7140001127268,新規,0,2022-09-06,2022-09-06,株式会社サポク,,株式会社,兵庫県,神戸市垂水区,平磯４丁目２番１０号松栄ビル２０１,,28,108,6550892,,,,,,,2022-09-06,1,,,,,サポク,0
2004,7150001025792,新規,0,2022-09-06,2022-09-06,株式会社エテルネルＩＭＡ．,,株式会社,奈良県,天理市,川原城町８２３番地,,29,204,6320016,,,,,,,2022-09-06,1,,,,,エテルネルアイエムエイ,0
2005,7150001025801,新規,0,2022-09-06,2022-09-06,株式会社ラティエラデルバジェ,,株式会社,奈良県,桜井市,大字上之庄４４９番地,,29,206,6330061,,,,,,,2022-09-06,1,,,,,ラティエラデルバジェ,0
2011,7160001024488,新規,0,2022-09-06,2022-09-06,株式会社スマイル,,株式会社,滋賀県,彦根市,芹川町１２１２番地（７１０号）,,25,202,5220033,,,,,,,2022-09-06,1,,,,,スマイル,0
2012,7160001024496,新規,0,2022-09-06,2022-09-06,株式会社なかなか,,株式会社,滋賀県,守山市,下之郷町三丁目６０６番地３,,25,207,5240013,,,,,,,2022-09-06,1,,,,,ナカナカ,0
2014,7160003002665,新規,0,2022-09-06,2022-09-06,合同会社ＭＣＧ,,合同会社,滋賀県,大津市,坂本６丁目２１番５号,,25,201,5200113,,,,,,,2022-09-06,1,,,,,エムシージー,0
2021,7180001152808,新規,0,2022-09-06,2022-09-06,株式会社Ｃａｒｒｉｅ,,株式会社,愛知県,稲沢市,祖父江町三丸渕中島２８番地２,,23,220,4950021,,,,,,,2022-09-06,1,,,,,キャリー,0
2022,7180001152898,新規,0,2022-09-06,2022-09-06,株式会社ＷａＫｅ,,株式会社,愛知県,名古屋市天白区,中砂町３４０番地,,23,116,4680065,,,,,,,2022-09-06,1,,,,,ウェイク,0
2023,7180001152907,新規,0,2022-09-06,2022-09-06,株式会社おうち計画．ＣＯＭ,,株式会社,愛知県,名古屋市守山区,大森八龍２丁目５１１番地の３,,23,113,4630028,,,,,,,2022-09-06,1,,,,,オウチケイカクドットコム,0
2024,7180001152915,新規,0,2022-09-06,2022-09-06,アンビカンパニー株式会社,,株式会社,愛知県,名古屋市東区,古出来３丁目１番１０号,,23,102,4610049,,,,,,,2022-09-06,1,,,,,アンビカンパニー,0
2025,7180001152931,新規,0,2022-09-06,2022-09-06,株式会社オンサル,,株式会社,愛知県,名古屋市名東区,新宿２丁目１２２番地レイクヒルズ新宿２０２号,,23,115,4650063,,,,,,,2022-09-06,1,,,,,オンサル,0
2031,7180003024229,新規,0,2022-09-06,2022-09-06,合同会社彩友,,合同会社,愛知県,清須市,春日夢の森３丁目３７番地,,23,233,4520961,,,,,,,2022-09-06,1,,,,,サイユウ,0
2034,7180301036594,新規,0,2022-09-06,2022-09-06,株式会社Ｅｖｅ,,株式会社,愛知県,岡崎市,稲熊町字山神戸２８番地１９,,23,202,4440071,,,,,,,2022-09-06,1,,,,,イヴ,0
2036,7190001029732,新規,0,2022-09-06,2022-09-06,株式会社ヒーローズ,,株式会社,三重県,桑名市,赤尾台４丁目１１番地１,,24,205,5110935,,,,,,,2022-09-06,1,,,,,ヒーローズ,0
2037,7190001029740,新規,0,2022-09-06,2022-09-06,株式会社ＨＩＲＯＳＡＷＡ工務店,,株式会社,三重県,名張市,つつじが丘北２番町１１５番地,,24,208,5180432,,,,,,,2022-09-06,1,,,,,ヒロサワコウムテン,0
2038,7190001029749,新規,0,2022-09-06,2022-09-06,北勢建装株式会社,,株式会社,三重県,いなべ市,北勢町其原８３６番地３４,,24,214,5110426,,,,,,,2022-09-06,1,,,,,ホクセイケンソウ,0
2039,7190003004080,新規,0,2022-09-06,2022-09-06,合同会社Ｌｉｉｂｅ,,合同会社,三重県,津市,青葉台２丁目２－１,,24,201,5141139,,,,,,,2022-09-06,1,,,,,リィベ,0
2040,7190005011736,新規,0,2022-09-06,2022-09-06,アルセア協同組合,,その他の設立登記法人,三重県,鈴鹿市,神戸６丁目４番３６号,,24,207,5130801,,,,,,,2022-09-06,1,,,,,アルセア,0
2042,7210003001554,新規,0,2022-09-06,2022-09-06,合同会社ジャパローレ,,合同会社,福井県,坂井市,坂井町新庄２丁目２２３,,18,210,9190523,,,,,,,2022-09-06,1,,,,,ジャパローレ,0
2056,7240001060327,新規,0,2022-09-06,2022-09-06,株式会社花将,,株式会社,広島県,広島市西区,観音町９番８号,,34,104,7330031,,,,,,,2022-09-06,1,,,,,ハナショウ,0
2057,7240001060343,新規,0,2022-09-06,2022-09-06,株式会社ヒロガーデン,,株式会社,広島県,福山市,沼隈町中山南２１８８番地２,,34,207,7210000,,,,,,,2022-09-06,1,,,,,ヒロガーデン,0
2058,7240003005783,新規,0,2022-09-06,2022-09-06,合同会社ＣＯＷＣＯＷ大家さん,,合同会社,広島県,広島市南区,出汐３丁目４番９号,,34,103,7340001,,,,,,,2022-09-06,1,,,,,カウカウオオヤサン,0
2060,7260001037216,新規,0,2022-09-06,2022-09-06,株式会社大幸,,株式会社,岡山県,倉敷市,児島柳田町３７２番地１９,,33,202,7110936,,,,,,,2022-09-06,1,,,,,タイコウ,0
2061,7260001037232,新規,0,2022-09-06,2022-09-06,アイ・ビー・シー株式会社,,株式会社,岡山県,倉敷市,黒崎２９０番地３,,33,202,7100014,,,,,,,2022-09-06,1,,,,,アイビーシー,0
2063,7260005011134,新規,0,2022-09-06,2022-09-06,一般社団法人岡山県アーバンスポーツ協会,,その他の設立登記法人,岡山県,岡山市南区,青江６丁目２－１,,33,104,7000941,,,,,,,2022-09-06,1,,,,,オカヤマケンアーバンスポーツキョウカイ,0
2072,7290001098809,新規,0,2022-09-06,2022-09-06,株式会社フジモト,,株式会社,福岡県,福岡市中央区,梅光園団地３番１０６号,,40,133,8100036,,,,,,,2022-09-06,1,,,,,フジモト,0
2073,7290001098825,新規,0,2022-09-06,2022-09-06,株式会社ＣＯＳＥＮ,,株式会社,福岡県,春日市,大土居３丁目１６８番地,,40,218,8160847,,,,,,,2022-09-06,1,,,,,コウセン,0
2079,7290803004195,新規,0,2022-09-06,2022-09-06,Ｂｒｉｇｈｔ　Ａｉｒ合同会社,,合同会社,福岡県,北九州市小倉南区,北方２丁目１５番１０号,,40,107,8020841,,,,,,,2022-09-06,1,,,,,ブライトエアー,0
2081,7320001019307,新規,0,2022-09-06,2022-09-06,株式会社ｔｒｉｇｇｅｒ,,株式会社,大分県,大分市,富士見が丘西２丁目１２４５番地の３５,,44,201,8701177,,,,,,,2022-09-06,1,,,,,トリガー,0
2082,7320001019315,新規,0,2022-09-06,2022-09-06,株式会社明翔,,株式会社,大分県,大分市,牧３丁目４番１２号アリュール牧４１２,,44,201,8700924,,,,,,,2022-09-06,1,,,,,メイショウ,0
2084,7320003003894,新規,0,2022-09-06,2022-09-06,合同会社ウッドアート楽,,合同会社,大分県,日田市,大山町東大山４７４番地３,,44,204,8770202,,,,,,,2022-09-06,1,,,,,ウッドアートラク,0
2088,7330001030072,新規,0,2022-09-06,2022-09-06,幸徳丸株式会社,,株式会社,熊本県,上天草市,大矢野町維和３１３６番地１,,43,212,8693604,,,,,,,2022-09-06,1,,,,,コウトクマル,0
2089,7330001030080,新規,0,2022-09-06,2022-09-06,株式会社ｔｗｏ‐ｔｏｎ,,株式会社,熊本県,熊本市南区,良町１丁目１２番３０号,,43,104,8620969,,,,,,,2022-09-06,1,,,,,ツートン,0
2091,7340001025006,新規,0,2022-09-06,2022-09-06,株式会社スマート青果,,株式会社,鹿児島県,指宿市,開聞仙田２２６６番地１,,46,210,8910604,,,,,,,2022-09-06,1,,,,,スマートセイカ,0
2092,7340001025014,新規,0,2022-09-06,2022-09-06,株式会社フォーセブン,,株式会社,鹿児島県,姶良郡湧水町,木場１１１１番地,,46,452,8996201,,,,,,,2022-09-06,1,,,,,フォーセブン,0
2099,7360001030929,新規,0,2022-09-06,2022-09-06,株式会社ティーダ,,株式会社,沖縄県,那覇市,宇栄原３丁目３３番５－６０３号小禄マンション,,47,201,9010153,,,,,,,2022-09-06,1,,,,,ティーダ,0
2105,7380001033095,新規,0,2022-09-06,2022-09-06,株式会社さかもと不動産,,株式会社,福島県,いわき市,常磐水野谷町諏訪ケ崎２０番地の１コンフェッティ１０１号室,,07,204,9728311,,,,,,,2022-09-06,1,,,,,サカモトフドウサン,0
2106,7380003005266,新規,0,2022-09-06,2022-09-06,合同会社遊心,,合同会社,福島県,南会津郡只見町,大字只見字田中１２１５番地１,,07,367,9680421,,,,,,,2022-09-06,1,,,,,ユウシン,0
2109,7390001017015,新規,0,2022-09-06,2022-09-06,株式会社レギュラス,,株式会社,山形県,酒田市,亀ケ崎３丁目１２番２５号,,06,204,9980842,,,,,,,2022-09-06,1,,,,,レギュラス,0
2113,7410001013275,新規,0,2022-09-06,2022-09-06,サンワ工業株式会社,,株式会社,秋田県,大仙市,四ツ屋字下古道１０７番地１,,05,212,0140102,,,,,,,2022-09-06,1,,,,,サンワコウギョウ,0
2115,7420003002572,新規,0,2022-09-06,2022-09-06,合同会社住吉事務所,,合同会社,青森県,青森市,奥野２丁目２７番６号,,02,201,0300841,,,,,,,2022-09-06,1,,,,,スミヨシジムショ,0
2116,7430001087400,新規,0,2022-09-06,2022-09-06,株式会社月夕,,株式会社,北海道,小樽市,新光５丁目３４番２７号,,01,203,0470152,,,,,,,2022-09-06,1,,,,,ゲッセキ,0
2124,7470001019242,新規,0,2022-09-06,2022-09-06,株式会社ベルビル,,株式会社,香川県,綾歌郡宇多津町,３２４３番地１,,37,386,7690210,,,,,,,2022-09-06,1,,,,,ベルビル,0
2126,7480001011850,新規,0,2022-09-06,2022-09-06,株式会社ＡＬＩＣＥ,,株式会社,徳島県,阿波市,吉野町西条字築地１１９番地１,,36,206,7711402,,,,,,,2022-09-06,1,,,,,アリス,0
2127,7490001010273,新規,0,2022-09-06,2022-09-06,株式会社岡本建物管理,,株式会社,高知県,高知市,東秦泉寺１６４番地,,39,201,7800023,,,,,,,2022-09-06,1,,,,,オカモトタテモノカンリ,0
2128,7490001010281,新規,0,2022-09-06,2022-09-06,Ｌ＆Ｇ株式会社,,株式会社,高知県,四万十市,佐田３２番地１４,,39,210,7871106,,,,,,,2022-09-06,1,,,,,エルアンドジー,0
2137,8010001229142,新規,0,2022-09-06,2022-09-06,株式会社イデアインキュベータ,,株式会社,東京都,中央区,銀座１丁目１２番４号Ｎ＆Ｅ・ＢＬＤ．７階,,13,102,1040061,,,,,,,2022-09-06,1,,,,,イデアインキュベータ,0
2138,8010001229217,新規,0,2022-09-06,2022-09-06,株式会社Ｒａｓｅｎ　Ｇｌｏｂａｌ　Ｖｅｎｔｕｒｅｓ,,株式会社,東京都,中央区,銀座６丁目１０番１号,,13,102,1040061,,,,,,,2022-09-06,1,,,,,ラセングローバルベンチャーズ,0
2139,8010001229225,新規,0,2022-09-06,2022-09-06,Ｂホールディングス株式会社,,株式会社,東京都,千代田区,紀尾井町１番３号,,13,101,1020094,,,,,,,2022-09-06,1,,,,,ビーホールディングス,0
2140,8010001229258,新規,0,2022-09-06,2022-09-06,株式会社Ｋコーポレーション,,株式会社,東京都,文京区,関口１丁目１２番１０号,,13,105,1120014,,,,,,,2022-09-06,1,,,,,ケーコーポレーション,0
2141,8010001229316,新規,0,2022-09-06,2022-09-06,株式会社ＹＫＰ,,株式会社,東京都,中央区,銀座１丁目１２番４号Ｎ＆ＥＢＬＤ．６Ｆ,,13,102,1040061,,,,,,,2022-09-06,1,,,,,ワイケーピー,0
2142,8010003038525,新規,0,2022-09-06,2022-09-06,アクティブリーシング１９号合同会社,,合同会社,東京都,千代田区,麹町４丁目７番２号,,13,101,1020083,,,,,,,2022-09-06,1,,,,,アクティブリーシングジュウキュウゴウ,0
2143,8010003038558,新規,0,2022-09-06,2022-09-06,ＨＭ　ｋｉｄｓ西寺尾合同会社,,合同会社,東京都,中央区,銀座２丁目６―５アサコ銀座ビル６階,,13,102,1040061,,,,,,,2022-09-06,1,,,,,エイチエムキッズニシテラオ,0
2149,8010401169343,新規,0,2022-09-06,2022-09-06,株式会社ＨＺ　ＶＩＬＬＡＧＥ,,株式会社,東京都,港区,西新橋１丁目２３番１０号,,13,103,1050003,,,,,,,2022-09-06,1,,,,,エイチゼットヴィレッジ,0
2150,8010401169533,新規,0,2022-09-06,2022-09-06,ＫＫＣ株式会社,,株式会社,東京都,港区,南青山７丁目１番２７－６１５号,,13,103,1070062,,,,,,,2022-09-06,1,,,,,ケーケーシー,0
2151,8010401169574,新規,0,2022-09-06,2022-09-06,ＳＮＦＴ株式会社,,株式会社,東京都,港区,港南１丁目７番１号,,13,103,1080075,,,,,,,2022-09-06,1,,,,,エスエヌエフティー,0
2154,8010403028381,新規,0,2022-09-06,2022-09-06,ＡＤＲ　Ｃｏｍｐａｎｙ合同会社,,合同会社,東京都,港区,南青山２丁目２番１５号ＷｉｎＡｏｙａｍａビルＵＣＦ６３５,,13,103,1070062,,,,,,,2022-09-06,1,,,,,エーディアールカンパニー,0
2155,8010403028423,新規,0,2022-09-06,2022-09-06,合同会社神谷町インベストメント２７号,,合同会社,東京都,港区,虎ノ門５丁目１番４号,,13,103,1050001,,,,,,,2022-09-06,1,,,,,カミヤチョウインベストメントニジュウナナゴウ,0
2156,8010403028431,新規,0,2022-09-06,2022-09-06,ＡＬＰジャパンワン合同会社,,合同会社,東京都,港区,元赤坂１丁目１番８号株式会社赤坂国際会計内,,13,103,1070051,,,,,,,2022-09-06,1,,,,,エーエルピージャパンワン,0
2157,8010405021310,新規,0,2022-09-06,2022-09-06,ヒューストンホールディング１一般社団法人,,その他の設立登記法人,東京都,港区,虎ノ門３丁目２２番１０－２０１号,,13,103,1050001,,,,,,,2022-09-06,1,,,,,ヒューストンホールディングワン,0
2165,8010701043157,新規,0,2022-09-06,2022-09-06,株式会社ネクスト・ホスピタリティー研究所,,株式会社,東京都,品川区,東五反田２丁目１０番１号,,13,109,1410022,,,,,,,2022-09-06,1,,,,,ネクストホスピタリティーケンキュウジョ,0
2168,8010901051554,新規,0,2022-09-06,2022-09-06,株式会社テニス・コモンズ,,株式会社,東京都,世田谷区,深沢２丁目１番７－４０８号,,13,112,1580081,,,,,,,2022-09-06,1,,,,,テニスコモンズ,0
2169,8010901051570,新規,0,2022-09-06,2022-09-06,日本久光製薬株式会社,,株式会社,東京都,世田谷区,世田谷１丁目４１番２号,,13,112,1540017,,,,,,,2022-09-06,1,,,,,ジャパンエターナルライトケミスト,0
2170,8010901051579,新規,0,2022-09-06,2022-09-06,株式会社ＥＰＩＤ,,株式会社,東京都,世田谷区,北沢２丁目１２番２号サウスウェーブ下北沢１Ｂ,,13,112,1550031,,,,,,,2022-09-06,1,,,,,エピッド,0
2178,8011001149545,新規,0,2022-09-06,2022-09-06,株式会社Ｔａｋａｓｈｉ　Ｋａｗａｓｈｉｍａ　Ｓｔｕｄｉｏ,,株式会社,東京都,渋谷区,道玄坂１丁目１０番８号渋谷道玄坂東急ビル２Ｆ－Ｃ,,13,113,1500043,,,,,,,2022-09-06,1,,,,,タカシカワシマスタジオ,0
2179,8011001149586,新規,0,2022-09-06,2022-09-06,ｏｎｅ　ｔｗｏ　ｓｉｘ株式会社,,株式会社,東京都,目黒区,五本木１丁目８番１９－２０４号,,13,110,1530053,,,,,,,2022-09-06,1,,,,,ワントゥーシックス,0
2180,8011001149594,新規,0,2022-09-06,2022-09-06,株式会社ｃｏｔｔｓｕ,,株式会社,東京都,渋谷区,神宮前６丁目１８番１３号,,13,113,1500001,,,,,,,2022-09-06,1,,,,,コッツ,0
2183,8011003015332,新規,0,2022-09-06,2022-09-06,合同会社ヨルハ,,合同会社,東京都,目黒区,下目黒３丁目２２番２７号サン目黒須田１０１,,13,110,1530064,,,,,,,2022-09-06,1,,,,,ヨルハ,0
2190,8011101100085,新規,0,2022-09-06,2022-09-06,株式会社おとぎ話,,株式会社,東京都,新宿区,新宿２丁目１２番４号,,13,104,1600022,,,,,,,2022-09-06,1,,,,,オトギバナシ,0
2193,8011401024521,新規,0,2022-09-06,2022-09-06,十恩株式会社,,株式会社,東京都,板橋区,小茂根１丁目２５－１６ＵＩＳビル２１３室,,13,119,1730037,,,,,,,2022-09-06,1,,,,,ジュウオン,0
2194,8011501028447,新規,0,2022-09-06,2022-09-06,株式会社ｄａｍａｗｏｒｋｓ,,株式会社,東京都,北区,赤羽西４丁目４３番７号,,13,117,1150055,,,,,,,2022-09-06,1,,,,,ダマワークス,0
2199,8011601026219,新規,0,2022-09-06,2022-09-06,株式会社動物病院練馬ＳａｖｅＰｅｔｓ,,株式会社,東京都,練馬区,高松１丁目４２番１８号,,13,120,1790075,,,,,,,2022-09-06,1,,,,,ドウブツビョウインネリマセイブペッツ,0
2200,8011603003694,新規,0,2022-09-06,2022-09-06,鈴木エイト合同会社,,合同会社,東京都,練馬区,下石神井２丁目１３番９号,,13,120,1770042,,,,,,,2022-09-06,1,,,,,スズキエイト,0
2203,8012301013119,新規,0,2022-09-06,2022-09-06,株式会社ＭＹＭソリューション,,株式会社,東京都,町田市,大蔵町２３０番地７,,13,209,1950062,,,,,,,2022-09-06,1,,,,,エムワイエムソリューション,0
2205,8013301049581,新規,0,2022-09-06,2022-09-06,カグヤス株式会社,,株式会社,東京都,豊島区,北大塚２丁目１７－４キャリアビル５階,,13,116,1700004,,,,,,,2022-09-06,1,,,,,カグヤス,0
2206,8013303006283,新規,0,2022-09-06,2022-09-06,合同会社ミナ・アルファ,,合同会社,東京都,豊島区,上池袋３丁目３２番３号,,13,116,1700012,,,,,,,2022-09-06,1,,,,,ミナアルファ,0
2210,8020001148052,新規,0,2022-09-06,2022-09-06,株式会社ＨＭＫ,,株式会社,神奈川県,横浜市磯子区,丸山２丁目１番５号,,14,107,2350011,,,,,,,2022-09-06,1,,,,,エイチエムケイ,0
2211,8020001148085,新規,0,2022-09-06,2022-09-06,株式会社宇佐美運送,,株式会社,神奈川県,川崎市高津区,明津６番地２エスペランサ第１元住吉３０１,,14,134,2130024,,,,,,,2022-09-06,1,,,,,ウサミウンソウ,0
2212,8020001148093,新規,0,2022-09-06,2022-09-06,株式会社ぐっぱ,,株式会社,神奈川県,横浜市青葉区,柿の木台４４番地４８,,14,117,2270048,,,,,,,2022-09-06,1,,,,,グッパ,0
2213,8020001148102,新規,0,2022-09-06,2022-09-06,株式会社金子総合研究所,,株式会社,神奈川県,川崎市高津区,新作３丁目２６番３１号,,14,134,2130014,,,,,,,2022-09-06,1,,,,,カネコソウゴウケンキュウジョ,0
2217,8020003022338,新規,0,2022-09-06,2022-09-06,合同会社角野企画,,合同会社,神奈川県,横浜市神奈川区,三ツ沢東町１１番１９号,,14,102,2210853,,,,,,,2022-09-06,1,,,,,カクノキカク,0
2218,8020003022346,新規,0,2022-09-06,2022-09-06,ＴＨＥ　ＣＡＲ　ＹＯＫＯＨＡＭＡ合同会社,,合同会社,神奈川県,横浜市戸塚区,戸塚町２６３６番地２６,,14,110,2440003,,,,,,,2022-09-06,1,,,,,ザカーヨコハマ,0
2220,8021001076929,新規,0,2022-09-06,2022-09-06,株式会社いつも薬局,,株式会社,神奈川県,平塚市,札場町１２番１６号,,14,203,2540802,,,,,,,2022-09-06,1,,,,,イツモヤッキョク,0
2223,8021003012106,新規,0,2022-09-06,2022-09-06,ヒュウガ・テクノロジー・パートナーズ合同会社,,合同会社,神奈川県,横須賀市,ハイランド１丁目５２－１０,,14,201,2390833,,,,,,,2022-09-06,1,,,,,ヒュウガテクノロジーパートナーズ,0
2228,8030001149925,新規,0,2022-09-06,2022-09-06,株式会社コルミ,,株式会社,埼玉県,熊谷市,銀座７丁目１０５番地サンテラス志苑１０１,,11,202,3600032,,,,,,,2022-09-06,1,,,,,コルミ,0
2229,8030001149966,新規,0,2022-09-06,2022-09-06,株式会社あしたの花,,株式会社,埼玉県,さいたま市大宮区,吉敷町１丁目１０３大宮大鷹ビル５０４,,11,103,3300843,,,,,,,2022-09-06,1,,,,,アシタノハナ,0
2230,8030001149990,新規,0,2022-09-06,2022-09-06,株式会社アロックス,,株式会社,埼玉県,三郷市,鷹野３丁目４２番地５,,11,237,3410035,,,,,,,2022-09-06,1,,,,,アロックス,0
2231,8030001149999,新規,0,2022-09-06,2022-09-06,株式会社ＫＲＳ,,株式会社,埼玉県,さいたま市緑区,大字上野田６９２番地２,,11,109,3360977,,,,,,,2022-09-06,1,,,,,ケーアールエス,0
2233,8030003020118,新規,0,2022-09-06,2022-09-06,合同会社ｒｅｖｉｖａｌ,,合同会社,埼玉県,久喜市,南栗橋２丁目７－１８,,11,232,3491117,,,,,,,2022-09-06,1,,,,,リバイバル,0
2234,8030003020126,新規,0,2022-09-06,2022-09-06,合同会社サイシ,,合同会社,埼玉県,越谷市,弥栄町４丁目１番地９０,,11,222,3430046,,,,,,,2022-09-06,1,,,,,サイシ,0
2235,8030003020134,新規,0,2022-09-06,2022-09-06,合同会社ワイシーエー,,合同会社,埼玉県,越谷市,弥栄町１丁目１９５番地１１７,,11,222,3430046,,,,,,,2022-09-06,1,,,,,ワイシーエー,0
2236,8030003020142,新規,0,2022-09-06,2022-09-06,合同会社Ｃａｐｙ　Ｍｏｎｓｔｅｒ,,合同会社,埼玉県,新座市,新座１丁目３－２,,11,230,3520006,,,,,,,2022-09-06,1,,,,,カピモンスター,0
2240,8040001124927,新規,0,2022-09-06,2022-09-06,株式会社海の音,,株式会社,千葉県,東金市,日吉台７丁目１４番地１１,,12,213,2830803,,,,,,,2022-09-06,1,,,,,ウミノネ,0
2241,8040001124935,新規,0,2022-09-06,2022-09-06,株式会社ＴＭＳ,,株式会社,千葉県,我孫子市,つくし野２丁目３番１５号,,12,222,2701164,,,,,,,2022-09-06,1,,,,,ティーエムエス,0
2242,8040001124943,新規,0,2022-09-06,2022-09-06,株式会社江東ペイントイノベーション,,株式会社,千葉県,佐倉市,井野１５６０番地５,,12,212,2850855,,,,,,,2022-09-06,1,,,,,コウトウペイントイノベーション,0
2243,8040001125000,新規,0,2022-09-06,2022-09-06,株式会社アスラン工業,,株式会社,千葉県,野田市,木間ケ瀬２０５５番地の１,,12,208,2700222,,,,,,,2022-09-06,1,,,,,アスランコウギョウ,0
2250,8040003020744,新規,0,2022-09-06,2022-09-06,ａｍｅｔｈｙｓｔ合同会社,,合同会社,千葉県,佐倉市,宮ノ台５丁目２０番８号,,12,212,2850857,,,,,,,2022-09-06,1,,,,,アメジスト,0
2251,8040003020769,新規,0,2022-09-06,2022-09-06,合同会社Ｔｈｉｎｋ　Ｇｏｏｄ,,合同会社,千葉県,千葉市美浜区,幸町１丁目１－１－１４１３,,12,106,2610001,,,,,,,2022-09-06,1,,,,,シンクグッド,0
2252,8040003020777,新規,0,2022-09-06,2022-09-06,ＤＬＣ合同会社,,合同会社,千葉県,松戸市,小金４４８番地の１３ベルピア北小金第３－２－２０４号,,12,207,2700014,,,,,,,2022-09-06,1,,,,,ディーエルシー,0
2254,8040005021724,新規,0,2022-09-06,2022-09-06,特定非営利活動法人おひとりさま安心コンシェルジュ,,その他の設立登記法人,千葉県,松戸市,西馬橋５丁目１番地の５,,12,207,2710044,,,,,,,2022-09-06,1,,,,,オヒトリサマアンシンコンシェルジュ,0
2258,8050001051617,新規,0,2022-09-06,2022-09-06,深井国際株式会社,,株式会社,茨城県,石岡市,国府４丁目３番２１－３０１号,,08,205,3150014,,,,,,,2022-09-06,1,,,,,フカイコクサイ,0
2260,8060001035239,新規,0,2022-09-06,2022-09-06,株式会社ＱＵＡＲＩＳ,,株式会社,栃木県,宇都宮市,東宿郷４丁目１番２８号,,09,201,3210953,,,,,,,2022-09-06,1,,,,,クオリス,0
2262,8060003004217,新規,0,2022-09-06,2022-09-06,リアルトラスト合同会社,,合同会社,栃木県,下野市,緑２丁目６番地５,,09,216,3290433,,,,,,,2022-09-06,1,,,,,リアルトラスト,0
2263,8070001039610,新規,0,2022-09-06,2022-09-06,ブレーン株式会社,,株式会社,群馬県,前橋市,元総社町９２７番地１,,10,201,3710846,,,,,,,2022-09-06,1,,,,,ブレーン,0
2267,8080001025171,新規,0,2022-09-06,2022-09-06,清水ソーラーエナジー株式会社,,株式会社,静岡県,静岡市清水区,袖師町１９００番地,,22,103,4240037,,,,,,,2022-09-06,1,,,,,シミズソーラーエナジー,0
2268,8080101023513,新規,0,2022-09-06,2022-09-06,クリエイティブテクノロジー株式会社,,株式会社,静岡県,富士市,今泉９丁目８番３１号,,22,210,4170001,,,,,,,2022-09-06,1,,,,,クリエイティブテクノロジー,0
2270,8080105006282,新規,0,2022-09-06,2022-09-06,一般社団法人スケラボ,,その他の設立登記法人,静岡県,田方郡函南町,畑５３０番地の３,,22,325,4190104,,,,,,,2022-09-06,1,,,,,スケラボ,0
2272,8080401026034,新規,0,2022-09-06,2022-09-06,株式会社Ｄｉｂｂｌｅｂｉｚｉａ,,株式会社,静岡県,浜松市中区,鍛冶町１００番地の１ザザシティ浜松中央館Ｂ１Ｆ,,22,131,4300933,,,,,,,2022-09-06,1,,,,,ディブルビジア,0
2279,8110001036900,新規,0,2022-09-06,2022-09-06,Ｔａｎｏｓｈｉｉ株式会社,,株式会社,新潟県,妙高市,大字杉野沢２９６８番地,,15,217,9492113,,,,,,,2022-09-06,1,,,,,タノシイ,0
2280,8110001036941,新規,0,2022-09-06,2022-09-06,株式会社ＯＮＥ,,株式会社,新潟県,燕市,吉田西太田７８７番地４６,,15,213,9590221,,,,,,,2022-09-06,1,,,,,オーエヌイー,0
2291,8120001248619,新規,0,2022-09-06,2022-09-06,株式会社ＦＯＢ,,株式会社,大阪府,大阪市福島区,福島１丁目１－４８ザ・タワー大阪４８０３,,27,103,5530003,,,,,,,2022-09-06,1,,,,,エフオービー,0
2292,8120001248635,新規,0,2022-09-06,2022-09-06,株式会社アウトバランス,,株式会社,大阪府,大阪市中央区,平野町３丁目３番７－１００７号,,27,128,5410046,,,,,,,2022-09-06,1,,,,,アウトバランス,0
2298,8120003022402,新規,0,2022-09-06,2022-09-06,合同会社ゲッコウ,,合同会社,大阪府,大阪市住吉区,苅田６丁目７－２５－６０２,,27,120,5580011,,,,,,,2022-09-06,1,,,,,ゲッコウ,0
2299,8120003022410,新規,0,2022-09-06,2022-09-06,合同会社ルチアコンサルティング,,合同会社,大阪府,大阪市阿倍野区,阪南町３丁目６番２９号,,27,119,5450021,,,,,,,2022-09-06,1,,,,,ルチアコンサルティング,0
2301,8120005023175,新規,0,2022-09-06,2022-09-06,一般社団法人高瀬川,,その他の設立登記法人,大阪府,大阪市中央区,宗右衛門町２番１３号,,27,128,5420084,,,,,,,2022-09-06,1,,,,,タカセガワ,0
2308,8120901046436,新規,0,2022-09-06,2022-09-06,株式会社Ｔ‐ＬＩＮＫ,,株式会社,大阪府,高槻市,西町６８番７号,,27,207,5690854,,,,,,,2022-09-06,1,,,,,ティーリンク,0
2317,8140001127242,新規,0,2022-09-06,2022-09-06,株式会社インクリース,,株式会社,兵庫県,宝塚市,千種１丁目２番５－Ｅ－１０１号,,28,214,6650072,,,,,,,2022-09-06,1,,,,,インクリース,0
2318,8140001127267,新規,0,2022-09-06,2022-09-06,株式会社ユノファクトリー,,株式会社,兵庫県,尼崎市,杭瀬本町１丁目９番１４号,,28,202,6600814,,,,,,,2022-09-06,1,,,,,ユノファクトリー,0
2321,8140003018101,新規,0,2022-09-06,2022-09-06,合同会社ＭＹＮ,,合同会社,兵庫県,西宮市,南越木岩町１０番１２号,,28,204,6620075,,,,,,,2022-09-06,1,,,,,ミン,0
2322,8150001025791,新規,0,2022-09-06,2022-09-06,株式会社秀正,,株式会社,奈良県,北葛城郡上牧町,大字上牧３１２５番地５,,29,424,6390214,,,,,,,2022-09-06,1,,,,,ヒデマサ,0
2323,8150001025800,新規,0,2022-09-06,2022-09-06,株式会社ライコックス,,株式会社,奈良県,吉野郡吉野町,大字上市２５４－１,,29,441,6393111,,,,,,,2022-09-06,1,,,,,ライコックス,0
2325,8160001024487,新規,0,2022-09-06,2022-09-06,株式会社ギブネクト,,株式会社,滋賀県,彦根市,野田山町９０１番地１５,,25,202,5220025,,,,,,,2022-09-06,1,,,,,ギブネクト,0
2326,8160001024495,新規,0,2022-09-06,2022-09-06,株式会社縁,,株式会社,滋賀県,高島市,新旭町熊野本１２２３－３,,25,212,5201532,,,,,,,2022-09-06,1,,,,,エン,0
2329,8160003002664,新規,0,2022-09-06,2022-09-06,ＫＡＬＭ合同会社,,合同会社,滋賀県,甲賀市,水口町本町１丁目３番４号,,25,209,5280031,,,,,,,2022-09-06,1,,,,,カーム,0
2333,8180001152864,新規,0,2022-09-06,2022-09-06,株式会社奏,,株式会社,愛知県,名古屋市港区,木場町６番地の７,,23,111,4550021,,,,,,,2022-09-06,1,,,,,カナデ,0
2334,8180001152906,新規,0,2022-09-06,2022-09-06,株式会社中建,,株式会社,愛知県,あま市,金岩十王堂８,,23,237,4901221,,,,,,,2022-09-06,1,,,,,ナカケン,0
2339,8180301036585,新規,0,2022-09-06,2022-09-06,株式会社山二ホールディングス,,株式会社,愛知県,豊田市,小坂本町１丁目５８番地,,23,211,4710034,,,,,,,2022-09-06,1,,,,,ヤマニホールディングス,0
2340,8180301036610,新規,0,2022-09-06,2022-09-06,ペンギンフライ株式会社,,株式会社,愛知県,豊川市,八幡町弥五郎６７,,23,207,4420857,,,,,,,2022-09-06,1,,,,,ペンギンフライ,0
2342,8190001029748,新規,0,2022-09-06,2022-09-06,株式会社ＮＡＫＡＧＡＷＡ,,株式会社,三重県,津市,藤方２６２６番地,,24,201,5140815,,,,,,,2022-09-06,1,,,,,ナカガワ,0
2343,8190005011735,新規,0,2022-09-06,2022-09-06,社会保険労務士法人中央企画,,その他の設立登記法人,三重県,四日市市,八田１丁目１３番１７号,,24,202,5100001,,,,,,,2022-09-06,1,,,,,チュウオウキカク,0
2344,8200001040414,新規,0,2022-09-06,2022-09-06,株式会社大雄勧,,株式会社,岐阜県,可児市,長坂１丁目１４２番地,,21,214,5090257,,,,,,,2022-09-06,1,,,,,ダイユウススム,0
2345,8200001040430,新規,0,2022-09-06,2022-09-06,株式会社Ａマート,,株式会社,岐阜県,岐阜市,野一色３丁目１６番１０号,,21,201,5008226,,,,,,,2022-09-06,1,,,,,エーマート,0
2350,8210001019077,新規,0,2022-09-06,2022-09-06,株式会社ミュウミュウ,,株式会社,福井県,福井市,栗森１丁目３０４番地,,18,201,9100137,,,,,,,2022-09-06,1,,,,,ミュウミュウ,0
2351,8210005010049,新規,0,2022-09-06,2022-09-06,特定非営利活動法人なろっさＡＬＬＹふくい,,その他の設立登記法人,福井県,福井市,本堂町第８９号８番地３４,,18,201,9188076,,,,,,,2022-09-06,1,,,,,ナロッサアライフクイ,0
2360,8240003005790,新規,0,2022-09-06,2022-09-06,ＭＡＲＳ合同会社,,合同会社,広島県,広島市中区,三川町６番１１ライフメントビル３０１号,,34,101,7300029,,,,,,,2022-09-06,1,,,,,マアズ,0
2361,8250001019750,新規,0,2022-09-06,2022-09-06,株式会社はるかファーマシア,,株式会社,山口県,山口市,大内矢田北６丁目３番２６号,,35,203,7530221,,,,,,,2022-09-06,1,,,,,ハルカファーマシア,0
2367,8260001037207,新規,0,2022-09-06,2022-09-06,株式会社ＯＫＡＭＯＴＯ,,株式会社,岡山県,備前市,浦伊部１０００番地５０,,33,211,7050002,,,,,,,2022-09-06,1,,,,,オカモト,0
2368,8260001037231,新規,0,2022-09-06,2022-09-06,ＨＡＳＨ　ＴＥＣＨ株式会社,,株式会社,岡山県,岡山市北区,問屋町９番地１０１タイルビル３Ｆ,,33,101,7000977,,,,,,,2022-09-06,1,,,,,ハッシュテック,0
2370,8260005011133,新規,0,2022-09-06,2022-09-06,一般社団法人中小企業経営改善推進協議会,,その他の設立登記法人,岡山県,岡山市北区,厚生町３丁目１番１５号岡山商工会議所８階,,33,101,7000985,,,,,,,2022-09-06,1,,,,,チュウショウキギョウケイエイカイゼンスイシンキョウギカイ,0
2374,8290001098782,新規,0,2022-09-06,2022-09-06,株式会社グローテック,,株式会社,福岡県,福岡市中央区,舞鶴１丁目８番３５号５Ｆ,,40,133,8100073,,,,,,,2022-09-06,1,,,,,グローテック,0
2375,8290001098808,新規,0,2022-09-06,2022-09-06,株式会社龍,,株式会社,福岡県,福岡市東区,唐原４丁目８番６５号,,40,131,8130001,,,,,,,2022-09-06,1,,,,,リュウ,0
2376,8290001098816,新規,0,2022-09-06,2022-09-06,株式会社Ｔ＆Ｇ,,株式会社,福岡県,福岡市東区,香椎照葉３丁目１番１３号,,40,131,8130017,,,,,,,2022-09-06,1,,,,,ティーアンドジー,0
2377,8290001098840,新規,0,2022-09-06,2022-09-06,ＢＯＮＤ株式会社,,株式会社,福岡県,古賀市,谷山７４９番地,,40,223,8113125,,,,,,,2022-09-06,1,,,,,ボンド,0
2380,8290003012915,新規,0,2022-09-06,2022-09-06,ユニコーン・ソフトウェア合同会社,,合同会社,福岡県,福岡市中央区,天神１丁目１－１アクロス福岡１Ｆ　ｆａｂｂｉｔ　Ｇｌｏｂａｌ　Ｇａｔｅｗａｙ”ＡＣＲＯＳ　Ｆｕｋｕｏｋａ”,,40,133,8100001,,,,,,,2022-09-06,1,,,,,ユニコーンソフトウェア,0
2386,8330001030096,新規,0,2022-09-06,2022-09-06,株式会社ＮＩＣＥ　ＰＬＵＳ,,株式会社,熊本県,菊池市,亘２２０番地６,,43,210,8611308,,,,,,,2022-09-06,1,,,,,ナイスプラス,0
2396,8360001030936,新規,0,2022-09-06,2022-09-06,株式会社大鳳,,株式会社,沖縄県,豊見城市,字嘉数３８６番地２０２号室,,47,212,9010202,,,,,,,2022-09-06,1,,,,,オオトリ,0
2398,8360003012271,新規,0,2022-09-06,2022-09-06,合同会社ＷＡＬＫ３,,合同会社,沖縄県,宮古島市,城辺字長間２１５８番地１,,47,214,9060105,,,,,,,2022-09-06,1,,,,,ウォークスリー,0
2399,8360003012288,新規,0,2022-09-06,2022-09-06,合同会社ＳＡＮＧＡ,,合同会社,沖縄県,那覇市,識名１丁目７番６３号嘉数ビル１０２,,47,201,9020078,,,,,,,2022-09-06,1,,,,,サンガ,0
2408,8380001033094,新規,0,2022-09-06,2022-09-06,株式会社ＳＧテック,,株式会社,福島県,相馬市,大坪字前田１４２番地の４,,07,209,9760007,,,,,,,2022-09-06,1,,,,,エスジーテック,0
2410,8390001017014,新規,0,2022-09-06,2022-09-06,株式会社近藤乗物,,株式会社,山形県,山形市,江俣１丁目９番４３号,,06,201,9900861,,,,,,,2022-09-06,1,,,,,コンドウノリモノ,0
2414,8420001017992,新規,0,2022-09-06,2022-09-06,株式会社佐々木建築舎,,株式会社,青森県,青森市,浪岡大字浪岡字平野１３７番地２６,,02,201,0381311,,,,,,,2022-09-06,1,,,,,ササキケンチクシャ,0
2415,8420003002571,新規,0,2022-09-06,2022-09-06,合同会社ＮＡＣ,,合同会社,青森県,青森市,港町２丁目１９番１５号,,02,201,0300901,,,,,,,2022-09-06,1,,,,,ナック,0
2420,8430003014252,新規,0,2022-09-06,2022-09-06,合同会社てらだ,,合同会社,北海道,札幌市白石区,菊水三条１丁目８番２２－８０２号,,01,104,0030803,,,,,,,2022-09-06,1,,,,,テラダ,0
2428,8700150111345,新規,0,2022-09-06,2022-08-19,遠賀町遠賀川駅南土地区画整理組合,,その他,福岡県,遠賀郡遠賀町,大字木守１１２５－１,,40,384,8114313,,,,,,,2022-08-19,1,,,,,オンガチヨウオンガガワエキミナミトチクカクセイリクミアイ,0
2439,9010001229216,新規,0,2022-09-06,2022-09-06,ハミングデイ株式会社,,株式会社,東京都,千代田区,神田猿楽町２丁目８番１１号ＶＯＲＴ水道橋ＩＩＩ９階,00127751,13,101,1010064,,,,,,,2022-09-06,1,,,,,,0
2440,9010001229232,新規,0,2022-09-06,2022-09-06,株式会社ＮＲＳ,,株式会社,東京都,中央区,築地２丁目１１番４号,,13,102,1040045,,,,,,,2022-09-06,1,,,,,エヌアールエス,0
2441,9010001229257,新規,0,2022-09-06,2022-09-06,株式会社ＪＪ研,,株式会社,東京都,中央区,佃２丁目１番１－１３１３号,,13,102,1040051,,,,,,,2022-09-06,1,,,,,ジェイジェイケン,0
2442,9010001229281,新規,0,2022-09-06,2022-09-06,株式会社クエストリー,,株式会社,東京都,千代田区,内神田１丁目５番４号,,13,101,1010047,,,,,,,2022-09-06,1,,,,,クエストリー,0
2443,9010001229307,新規,0,2022-09-06,2022-09-06,Ｙｓ　Ｍｉｒａｃｌｅ　Ｊａｐａｎ株式会社,,株式会社,東京都,中央区,銀座１丁目１２－４Ｎ＆Ｅ．ＢＬＤ．７階,,13,102,1040061,,,,,,,2022-09-06,1,,,,,ワイズミラクルジャパン,0
2447,9010003038565,新規,0,2022-09-06,2022-09-06,白浜ホールディング合同会社,,合同会社,東京都,千代田区,丸の内３丁目１番１号東京共同会計事務所内,,13,101,1000005,,,,,,,2022-09-06,1,,,,,シラハマホールディング,0
2449,9010101015318,新規,0,2022-09-06,2022-09-06,株式会社ＯｎｅＥｉｔｙ,,株式会社,東京都,八王子市,小比企町５１１番地２,,13,201,1930934,,,,,,,2022-09-06,1,,,,,ワンエイティ,0
2474,9010403028323,新規,0,2022-09-06,2022-09-06,ＳＣＧ７９合同会社,,合同会社,東京都,港区,虎ノ門４丁目１番２８号,,13,103,1050001,,,,,,,2022-09-06,1,,,,,エスシージーセブンティナイン,0
2475,9010403028389,新規,0,2022-09-06,2022-09-06,ＲＯＹＡＬ　ＴＨＵＭＢ合同会社,,合同会社,東京都,港区,海岸１丁目１―１―４４１０,,13,103,1050022,,,,,,,2022-09-06,1,,,,,ロイヤルサァム,0
2477,9010501049320,新規,0,2022-09-06,2022-09-06,イブニングスター株式会社,,株式会社,東京都,台東区,東上野２丁目２番８号あかつきビル４階,,13,106,1100015,,,,,,,2022-09-06,1,,,,,イブニングスター,0
2484,9010601061803,新規,0,2022-09-06,2022-09-06,株式会社ユニークウェルビーイング,,株式会社,東京都,江東区,扇橋１丁目２１番５－４２８号,,13,108,1350011,,,,,,,2022-09-06,1,,,,,ユニークウェルビーイング,0
2485,9010701043156,新規,0,2022-09-06,2022-09-06,株式会社ａｍｂｏｓ,,株式会社,東京都,品川区,二葉３丁目１７番１３号山崎ビル１Ｆ店舗,,13,109,1420043,,,,,,,2022-09-06,1,,,,,アンボス,0
2488,9010901051561,新規,0,2022-09-06,2022-09-06,株式会社伊勢屋,,株式会社,東京都,世田谷区,太子堂４丁目１８番１５号,,13,112,1540004,,,,,,,2022-09-06,1,,,,,イセヤ,0
2489,9010901051578,新規,0,2022-09-06,2022-09-06,株式会社Ｖｉｓｂａｎ,,株式会社,東京都,世田谷区,弦巻３丁目２２番２１号,,13,112,1540016,,,,,,,2022-09-06,1,,,,,ビスバン,0
2491,9010905004367,新規,0,2022-09-06,2022-09-06,医療法人社団用賀デンタルオフィス,,その他の設立登記法人,東京都,世田谷区,用賀４丁目９番２５号,,13,112,1580097,,,,,,,2022-09-06,1,,,,,ヨウガデンタルオフィス,0
2493,9011001149288,新規,0,2022-09-06,2022-09-06,株式会社Ｏｗｌ　Ｎｏｔｅ,,株式会社,東京都,渋谷区,神宮前６丁目２３番４号桑野ビル２階,,13,113,1500001,,,,,,,2022-09-06,1,,,,,アウルノート,0
2494,9011003015323,新規,0,2022-09-06,2022-09-06,Ｌｙｒａ合同会社,,合同会社,東京都,目黒区,東山１丁目１３―１６マウナイースト２０１,,13,110,1530043,,,,,,,2022-09-06,1,,,,,ライラ,0
2499,9011101100084,新規,0,2022-09-06,2022-09-06,株式会社石川プロダクション,,株式会社,東京都,新宿区,舟町４番地１メゾンド四谷６０３,,13,104,1600006,,,,,,,2022-09-06,1,,,,,イシカワプロダクション,0
2503,9011405002217,新規,0,2022-09-06,2022-09-06,医療法人社団ＶＥＲＩＴＥ,,その他の設立登記法人,東京都,板橋区,成増２丁目１７番１３号ヒューリック成増２階,,13,119,1750094,,,,,,,2022-09-06,1,,,,,ヴェリテ,0
2504,9011601026218,新規,0,2022-09-06,2022-09-06,株式会社サン・レヴィ,,株式会社,東京都,練馬区,平和台４丁目３番３号,,13,120,1790083,,,,,,,2022-09-06,1,,,,,サンレヴィ,0
2510,9012401039608,新規,0,2022-09-06,2022-09-06,株式会社セノ造園,,株式会社,東京都,多摩市,桜ヶ丘２丁目１番地の１４,,13,224,2060013,,,,,,,2022-09-06,1,,,,,セノゾウエン,0
2514,9012801021818,新規,0,2022-09-06,2022-09-06,株式会社Ｏｌｙｍｐｉｃセラー,,株式会社,東京都,国分寺市,本町４丁目１２番１号,,13,214,1850012,,,,,,,2022-09-06,1,,,,,オリンピックセラー,0
2519,9013301049614,新規,0,2022-09-06,2022-09-06,たけまるコンサル株式会社,,株式会社,東京都,豊島区,駒込３丁目２９番７号,,13,116,1700003,,,,,,,2022-09-06,1,,,,,タケマルコンサル,0
2526,9020001148002,新規,0,2022-09-06,2022-09-06,株式会社ルクビナ,,株式会社,神奈川県,川崎市高津区,子母口７７１番地１２,,14,134,2130023,,,,,,,2022-09-06,1,,,,,ルクビナ,0
2527,9020001148043,新規,0,2022-09-06,2022-09-06,ベジタリアファーム横浜株式会社,,株式会社,神奈川県,横浜市青葉区,美しが丘２丁目１７番地２６フォーリストビル３Ｆ,,14,117,2250002,,,,,,,2022-09-06,1,,,,,ベジタリアファームヨコハマ,0
2528,9020001148051,新規,0,2022-09-06,2022-09-06,ＮＣＤインターベント株式会社,,株式会社,神奈川県,横浜市青葉区,若草台１４番地６,,14,117,2270045,,,,,,,2022-09-06,1,,,,,エヌシーディーインターベント,0
2529,9020001148068,新規,0,2022-09-06,2022-09-06,株式会社ベルガーデン,,株式会社,神奈川県,横浜市栄区,長沼町５７７番地アネックスハルＡ１０１号,,14,115,2440841,,,,,,,2022-09-06,1,,,,,ベルガーデン,0
2530,9020001148076,新規,0,2022-09-06,2022-09-06,株式会社ｆａｖｏ．,,株式会社,神奈川県,横浜市港北区,岸根町４１３番地４ハルハイム１０３,,14,109,2220034,,,,,,,2022-09-06,1,,,,,ファボ,0
2531,9020001148084,新規,0,2022-09-06,2022-09-06,株式会社ＡＬＬＡＳＴＡＲＳＥＡ,,株式会社,神奈川県,横浜市中区,日本大通７番地合人社横浜日本大通７ビル４階,,14,104,2310021,,,,,,,2022-09-06,1,,,,,アラスターシー,0
2532,9020001148092,新規,0,2022-09-06,2022-09-06,横浜コンサル株式会社,,株式会社,神奈川県,横浜市鶴見区,下末吉３丁目１２番５号,,14,101,2300012,,,,,,,2022-09-06,1,,,,,ヨコハマコンサル,0
2533,9020001148101,新規,0,2022-09-06,2022-09-06,ＡＰＰＲＩＳＭ株式会社,,株式会社,神奈川県,川崎市幸区,南幸町３丁目２３番地１エステムプラザ川崎ウエストレジデンス１０５,,14,132,2120016,,,,,,,2022-09-06,1,,,,,アップリズム,0
2536,9020003022304,新規,0,2022-09-06,2022-09-06,合同会社ＳＩＤＦＥＥＬ,,合同会社,神奈川県,横浜市中区,日本大通７番地合人社横浜日本大通７ビル４階,,14,104,2310021,,,,,,,2022-09-06,1,,,,,シドフィール,0
2537,9020003022312,新規,0,2022-09-06,2022-09-06,Ｉａｍｙ合同会社,,合同会社,神奈川県,横浜市西区,高島２丁目１１番２号スカイメナー横浜５１９,,14,103,2200011,,,,,,,2022-09-06,1,,,,,アイエムワイ,0
2539,9021001076911,新規,0,2022-09-06,2022-09-06,株式会社Ａｎｔｉｋ,,株式会社,神奈川県,三浦郡葉山町,堀内１８８６番地の２,,14,301,2400112,,,,,,,2022-09-06,1,,,,,アンティック,0
2540,9021001076928,新規,0,2022-09-06,2022-09-06,株式会社日本ＶＭＡＸ　Ｎｅｗ　Ｅｎｅｒｇｙ,,株式会社,神奈川県,鎌倉市,台２丁目３番４号,,14,204,2470061,,,,,,,2022-09-06,1,,,,,ニホンブイマックスニューエナジー,0
2550,9030001149949,新規,0,2022-09-06,2022-09-06,株式会社ＲＦ高橋,,株式会社,埼玉県,草加市,吉町３丁目３番６５号,,11,221,3400017,,,,,,,2022-09-06,1,,,,,アールエフタカハシ,0
2551,9030001149965,新規,0,2022-09-06,2022-09-06,株式会社ＲｕｃｋＵｐ,,株式会社,埼玉県,朝霞市,根岸台２丁目２－４３,,11,227,3510005,,,,,,,2022-09-06,1,,,,,ラックアップ,0
2552,9030001149973,新規,0,2022-09-06,2022-09-06,株式会社カネ商,,株式会社,埼玉県,春日部市,小渕２０８９番地７,,11,214,3440007,,,,,,,2022-09-06,1,,,,,カネショウ,0
2553,9030001149981,新規,0,2022-09-06,2022-09-06,株式会社Ｎｅｘｔ　Ｉｎｆｉｂｉｌｉｔｉｓ,,株式会社,埼玉県,所沢市,緑町１丁目１番６号グランドパレス２０３,,11,208,3591111,,,,,,,2022-09-06,1,,,,,ネクストインフィビリティス,0
2556,9030003020125,新規,0,2022-09-06,2022-09-06,合同会社Ｆｌａｎｅｒ,,合同会社,埼玉県,川口市,本町４丁目３－１４,,11,203,3320012,,,,,,,2022-09-06,1,,,,,フラネ,0
2557,9030003020133,新規,0,2022-09-06,2022-09-06,合同会社原コンサルティング,,合同会社,埼玉県,さいたま市浦和区,本太２丁目２番３０－４０３号,,11,107,3300052,,,,,,,2022-09-06,1,,,,,ハラコンサルティング,0
2558,9030003020141,新規,0,2022-09-06,2022-09-06,合同会社Ｏｒｆｅｖｒｅ,,合同会社,埼玉県,川越市,三光町９番地２８,,11,201,3500067,,,,,,,2022-09-06,1,,,,,オルフェーブル,0
2562,9040003020776,新規,0,2022-09-06,2022-09-06,ＮＫＴＹ合同会社,,合同会社,千葉県,白井市,中２７６番地の６,,12,232,2701406,,,,,,,2022-09-06,1,,,,,エヌケーティーワイ,0
2565,9040005021723,新規,0,2022-09-06,2022-09-06,一般社団法人シニアドリーム,,その他の設立登記法人,千葉県,柏市,藤心１丁目２５番１号,,12,217,2770034,,,,,,,2022-09-06,1,,,,,シニアドリーム,0
2566,9050001051632,新規,0,2022-09-06,2022-09-06,株式会社Ｍ．Ｙ．Ｈ,,株式会社,茨城県,つくば市,島名福田坪Ｂ４８街区１,,08,220,3002655,,,,,,,2022-09-06,1,,,,,エムワイエイチ,0
2567,9050001051640,新規,0,2022-09-06,2022-09-06,株式会社中央工業,,株式会社,茨城県,神栖市,知手中央１丁目１２番３０号,,08,232,3140112,,,,,,,2022-09-06,1,,,,,チュウオウコウギョウ,0
2570,9050003006816,新規,0,2022-09-06,2022-09-06,合同会社Ｍａｒｃｈ,,合同会社,茨城県,神栖市,大野原２丁目２２番３２号,,08,232,3140144,,,,,,,2022-09-06,1,,,,,マーチ,0
2571,9060001035246,新規,0,2022-09-06,2022-09-06,株式会社Ｍｉｙａｂｉ,,株式会社,栃木県,宇都宮市,下小倉町３２４４番地１,,09,201,3210403,,,,,,,2022-09-06,1,,,,,ミヤビ,0
2573,9070001039601,新規,0,2022-09-06,2022-09-06,株式会社ハーティーワン,,株式会社,群馬県,前橋市,三俣町３丁目２９番地３９,,10,201,3710018,,,,,,,2022-09-06,1,,,,,ハーティーワン,0
2575,9080001025179,新規,0,2022-09-06,2022-09-06,株式会社巽工房,,株式会社,静岡県,藤枝市,水守１丁目４番地の２,,22,214,4260005,,,,,,,2022-09-06,1,,,,,タツミコウボウ,0
2578,9080103002646,新規,0,2022-09-06,2022-09-06,ローズトーン合同会社,,合同会社,静岡県,熱海市,中央町４‐１５野田屋ビル２０１号,,22,205,4130015,,,,,,,2022-09-06,1,,,,,ローズトーン,0
2582,9100001035646,新規,0,2022-09-06,2022-09-06,株式会社アリゼＮＡＧＡＮＯ,,株式会社,長野県,北安曇郡松川村,３３６３番地３６,,20,482,3998501,,,,,,,2022-09-06,1,,,,,アリゼナガノ,0
2583,9100001035670,新規,0,2022-09-06,2022-09-06,株式会社市川建築,,株式会社,長野県,上田市,下之郷２６７番地２,,20,203,3861211,,,,,,,2022-09-06,1,,,,,イチカワケンチク,0
2589,9110001036949,新規,0,2022-09-06,2022-09-06,株式会社Ｋ‐ＤＡＳＨ,,株式会社,新潟県,新潟市中央区,姥ケ山５丁目１４番１１号,,15,103,9500923,,,,,,,2022-09-06,1,,,,,ケーダッシュ,0
2591,9110003004854,新規,0,2022-09-06,2022-09-06,合同会社Ｌｉｆｅ　Ｃｒｅａｔｉｏｎ,,合同会社,新潟県,長岡市,三ツ郷屋１丁目１０－２６ベルハウス１０１,,15,202,9402111,,,,,,,2022-09-06,1,,,,,ライフクリエーション,0
2592,9110005016848,新規,0,2022-09-06,2022-09-06,税理士法人村山会計グループ,,その他の設立登記法人,新潟県,村上市,山居町２丁目５番２６号,,15,212,9580853,,,,,,,2022-09-06,1,,,,,ムラヤマカイケイグループ,0
2602,9120001248576,新規,0,2022-09-06,2022-09-06,ニコラシカ株式会社,,株式会社,大阪府,大阪市西区,南堀江３丁目１１番２２号堀江ＪＮＳビル９Ｆ,,27,106,5500015,,,,,,,2022-09-06,1,,,,,ニコラシカ,0
2603,9120001248709,新規,0,2022-09-06,2022-09-06,効率研究室株式会社,,株式会社,大阪府,大阪市北区,長柄東３丁目３番２９号,,27,127,5310063,,,,,,,2022-09-06,1,,,,,コウリツケンキュウシツ,0
2614,9120901027088,新規,0,2022-09-06,2022-09-06,株式会社ナカツ,,株式会社,大阪府,豊中市,宝山町２２番５０号,,27,203,5610893,,,,,,,2022-09-06,1,,,,,,0
2616,9120901046427,新規,0,2022-09-06,2022-09-06,ＳＨＥＩＮ株式会社,,株式会社,大阪府,池田市,井口堂２丁目４番１－４０３号,,27,204,5630023,,,,,,,2022-09-06,1,,,,,シイン,0
2617,9120901046443,新規,0,2022-09-06,2022-09-06,株式会社木部キッチン,,株式会社,大阪府,池田市,木部町２１２番地,,27,204,5630014,,,,,,,2022-09-06,1,,,,,キベキッチン,0
2618,9120901046451,新規,0,2022-09-06,2022-09-06,株式会社Ｎ‐ＴＲＵＳＴ,,株式会社,大阪府,豊中市,庄内西町１丁目１番１－２０１号,,27,203,5610832,,,,,,,2022-09-06,1,,,,,エヌトラスト,0
2619,9120901046468,新規,0,2022-09-06,2022-09-06,株式会社Ｅａｒｔｈｉｎｇ,,株式会社,大阪府,吹田市,内本町３丁目１番１１号石元ビル１階,,27,205,5640032,,,,,,,2022-09-06,1,,,,,アーシング,0
2629,9130001072562,新規,0,2022-09-06,2022-09-06,株式会社角井,,株式会社,京都府,京都市右京区,西院東淳和院町２６番地,,26,108,6160000,,,,,,,2022-09-06,1,,,,,カクイ,0
2632,9140001127282,新規,0,2022-09-06,2022-09-06,株式会社ＳＵＮＺ,,株式会社,兵庫県,伊丹市,瑞原３丁目５７番地,,28,207,6640005,,,,,,,2022-09-06,1,,,,,サンズ,0
2633,9140001127316,新規,0,2022-09-06,2022-09-06,株式会社ＣＯＬ,,株式会社,兵庫県,神戸市長田区,大日丘町２丁目９番２号,,28,106,6530872,,,,,,,2022-09-06,1,,,,,コル,0
2634,9140003018091,新規,0,2022-09-06,2022-09-06,合同会社もちの木,,合同会社,兵庫県,神戸市西区,伊川谷町有瀬４５４番地の２,,28,111,6512113,,,,,,,2022-09-06,1,,,,,モチノキ,0
2635,9150003002771,新規,0,2022-09-06,2022-09-06,合同会社ＣＬＭＲ,,合同会社,奈良県,北葛城郡河合町,星和台１丁目１４番地５,,29,427,6360081,,,,,,,2022-09-06,1,,,,,シーエルエムアール,0
2636,9150005009419,新規,0,2022-09-06,2022-09-06,一般社団法人幸せをつかむ会,,その他の設立登記法人,奈良県,橿原市,白橿町５丁目２番１６－４０２号,,29,205,6340051,,,,,,,2022-09-06,1,,,,,シアワセヲツカムカイ,0
2638,9160001024486,新規,0,2022-09-06,2022-09-06,株式会社琵琶湖印刷,,株式会社,滋賀県,守山市,今宿４丁目１番１８号Ｅ,,25,207,5240046,,,,,,,2022-09-06,1,,,,,ビワコインサツ,0
2639,9160001024494,新規,0,2022-09-06,2022-09-06,株式会社ビューファースト,,株式会社,滋賀県,東近江市,八日市東浜町４番１４号,,25,213,5270021,,,,,,,2022-09-06,1,,,,,ビューファースト,0
2641,9170001017274,新規,0,2022-09-06,2022-09-06,Ｆｅｒ株式会社,,株式会社,和歌山県,田辺市,上秋津１５８８番地の６,,30,206,6460001,,,,,,,2022-09-06,1,,,,,フェール,0
2642,9170003001771,新規,0,2022-09-06,2022-09-06,オフィスみかん合同会社,,合同会社,和歌山県,西牟婁郡上富田町,岡３６３番地の２,,30,404,6492101,,,,,,,2022-09-06,1,,,,,オフィスミカン,0
2643,9170005006967,新規,0,2022-09-06,2022-09-06,一般社団法人ＡＮＤ　ＬＯＣＡＬ,,その他の設立登記法人,和歌山県,田辺市,磯間７－３,,30,206,6460037,,,,,,,2022-09-06,1,,,,,アンドローカル,0
2647,9180001152863,新規,0,2022-09-06,2022-09-06,株式会社ｂｌｏｏｍ,,株式会社,愛知県,半田市,仲田町２丁目２０番地の３,,23,205,4750929,,,,,,,2022-09-06,1,,,,,ブルーム,0
2648,9180001152871,新規,0,2022-09-06,2022-09-06,株式会社徳川警備保障,,株式会社,愛知県,名古屋市中村区,椿町２１番２号,,23,105,4530015,,,,,,,2022-09-06,1,,,,,トクガワケイビホショウ,0
2650,9180003024219,新規,0,2022-09-06,2022-09-06,合同会社あいあ,,合同会社,愛知県,海部郡大治町,大字八ツ屋字郷内５４番地の１２,,23,424,4901133,,,,,,,2022-09-06,1,,,,,アイア,0
2655,9190001029739,新規,0,2022-09-06,2022-09-06,株式会社山口製作所,,株式会社,三重県,桑名市,大字蓮花寺８２５番地３１,,24,205,5110854,,,,,,,2022-09-06,1,,,,,ヤマグチセイサクショ,0
2660,9200001040396,新規,0,2022-09-06,2022-09-06,ｏｆｆｉｃｅ・保険トラスト株式会社,,株式会社,岐阜県,恵那市,長島町正家１０６７番地２４６,,21,210,5097203,,,,,,,2022-09-06,1,,,,,ホケントラスト,0
2661,9210001019076,新規,0,2022-09-06,2022-09-06,株式会社ふくいのデジタル,,株式会社,福井県,福井市,順化１丁目１番１号,,18,201,9100023,,,,,,,2022-09-06,1,,,,,フクイノデジタル,0
2662,9220001025016,新規,0,2022-09-06,2022-09-06,株式会社ＣＲＥＷ,,株式会社,石川県,小松市,安宅町安宅林４番地１５０,,17,203,9230003,,,,,,,2022-09-06,1,,,,,クルー,0
2664,9220005008702,新規,0,2022-09-06,2022-09-06,一般社団法人オーディナリーライフ,,その他の設立登記法人,石川県,金沢市,窪６丁目２５７番地１,,17,201,9218151,,,,,,,2022-09-06,1,,,,,オーディナリーライフ,0
2667,9240001060300,新規,0,2022-09-06,2022-09-06,株式会社アニバーサリーファクトリー,,株式会社,広島県,東広島市,高屋町杵原１０４０番地８,,34,212,7392102,,,,,,,2022-09-06,1,,,,,アニバーサリーファクトリー,0
2668,9240001060317,新規,0,2022-09-06,2022-09-06,株式会社ＦＹパーツ,,株式会社,広島県,福山市,千代田町１丁目８番３０号,,34,207,7200823,,,,,,,2022-09-06,1,,,,,エフワイパーツ,0
2669,9240001060325,新規,0,2022-09-06,2022-09-06,シーティー・パートナーズ株式会社,,株式会社,広島県,広島市中区,大手町１丁目１番２０号相生橋ビル７階,,34,101,7300051,,,,,,,2022-09-06,1,,,,,シーティーパートナーズ,0
2670,9240001060341,新規,0,2022-09-06,2022-09-06,株式会社ツカウカチ,,株式会社,広島県,呉市,本通１丁目３番８号,,34,202,7370045,,,,,,,2022-09-06,1,,,,,ツカウカチ,0
2671,9240003005781,新規,0,2022-09-06,2022-09-06,合同会社ＭＡＨＡＬＯ,,合同会社,広島県,呉市,郷原町６３５４番地,,34,202,7370161,,,,,,,2022-09-06,1,,,,,マハロ,0
2687,9290001098732,新規,0,2022-09-06,2022-09-06,株式会社相浦,,株式会社,福岡県,福岡市中央区,西中洲５番１５号,,40,133,8100002,,,,,,,2022-09-06,1,,,,,アイウラ,0
2688,9290001098781,新規,0,2022-09-06,2022-09-06,株式会社Ｙ・Ｍテック,,株式会社,福岡県,古賀市,薦野４３３－１,,40,223,8113122,,,,,,,2022-09-06,1,,,,,ワイエムテック,0
2689,9290001098798,新規,0,2022-09-06,2022-09-06,イオンウエルシア九州株式会社,,株式会社,福岡県,福岡市博多区,博多駅南２丁目９番１１号,,40,132,8120016,,,,,,,2022-09-06,1,,,,,イオンウエルシアキュウシュウ,0
2690,9290001098823,新規,0,2022-09-06,2022-09-06,Ｔｈｒｅｅ　Ｗａｙ株式会社,,株式会社,福岡県,糟屋郡粕屋町,若宮１丁目３番１２号,,40,349,8112314,,,,,,,2022-09-06,1,,,,,スリーウェイ,0
2692,9290003012914,新規,0,2022-09-06,2022-09-06,Ｊ．ｃｏｍｐａｎｙ合同会社,,合同会社,福岡県,みやま市,瀬高町下庄１５５０番地８,,40,229,8350024,,,,,,,2022-09-06,1,,,,,ジェイカンパニー,0
2694,9290801028863,新規,0,2022-09-06,2022-09-06,株式会社ＨＩＴ,,株式会社,福岡県,北九州市八幡東区,宮田町１９番２５号,,40,108,8050009,,,,,,,2022-09-06,1,,,,,ヒット,0
2695,9310001018019,新規,0,2022-09-06,2022-09-06,株式会社北松,,株式会社,長崎県,松浦市,調川町下免６９５番地,,42,208,8594536,,,,,,,2022-09-06,1,,,,,ホクショウ,0
2696,9320001019313,新規,0,2022-09-06,2022-09-06,株式会社ライズワン,,株式会社,大分県,中津市,大字上宮永１０２０番地２,,44,203,8710027,,,,,,,2022-09-06,1,,,,,ライズワン,0
2697,9330001030079,新規,0,2022-09-06,2022-09-06,Ｈ＆Ｋ株式会社,,株式会社,熊本県,玉名市,岱明町古閑１５７番地１,,43,206,8690233,,,,,,,2022-09-06,1,,,,,エイチアンドケイ,0
2698,9330001030087,新規,0,2022-09-06,2022-09-06,株式会社荒木畜産,,株式会社,熊本県,上益城郡山都町,鶴ケ田６１４番地１４,,43,447,8613812,,,,,,,2022-09-06,1,,,,,アラキチクサン,0
2699,9330003009501,新規,0,2022-09-06,2022-09-06,合同会社妙吉,,合同会社,熊本県,熊本市南区,城南町隈庄９３２番地５,,43,104,8614203,,,,,,,2022-09-06,1,,,,,ミョウキチ,0
2703,9350003004161,新規,0,2022-09-06,2022-09-06,合同会社ホワイト・ポーン・カーサ,,合同会社,宮崎県,宮崎市,月見ケ丘６丁目１番９号月見荘１０１号,,45,201,8800926,,,,,,,2022-09-06,1,,,,,ホワイトポーンカーサ,0
2704,9360001030910,新規,0,2022-09-06,2022-09-06,株式会社シーエンジニアリング沖縄,,株式会社,沖縄県,宜野湾市,愛知１丁目８番１９号,,47,205,9012206,,,,,,,2022-09-06,1,,,,,シーエンジニアリングオキナワ,0
2705,9360001030927,新規,0,2022-09-06,2022-09-06,株式会社崎電気工事,,株式会社,沖縄県,中頭郡西原町,字呉屋４２８番地の１,,47,329,9030124,,,,,,,2022-09-06,1,,,,,サキデンキコウジ,0
2707,9370001049000,新規,0,2022-09-06,2022-09-06,株式会社モンスターガレージ,,株式会社,宮城県,塩竈市,新浜町２丁目１８番１４号,,04,203,9850001,,,,,,,2022-09-06,1,,,,,モンスターガレージ,0
2708,9370001049009,新規,0,2022-09-06,2022-09-06,ＭＲＡ株式会社,,株式会社,宮城県,名取市,大手町４丁目５番地の３,,04,207,9811232,,,,,,,2022-09-06,1,,,,,エムアールエイ,0
2709,9370001049017,新規,0,2022-09-06,2022-09-06,株式会社Ｙ‐２便,,株式会社,宮城県,塩竈市,新富町２４番２２号,,04,203,9850022,,,,,,,2022-09-06,1,,,,,ワイツービン,0
2712,9380001033093,新規,0,2022-09-06,2022-09-06,株式会社Ｖｅｒｓｏａ,,株式会社,福島県,郡山市,東原１丁目１３７番地,,07,203,9630552,,,,,,,2022-09-06,1,,,,,ヴェルソア,0
2718,9390001017013,新規,0,2022-09-06,2022-09-06,株式会社グローバルロード,,株式会社,山形県,山形市,木の実町１－３ダイヤ３２,,06,201,9900044,,,,,,,2022-09-06,1,,,,,グローバルロード,0
2729,9420001017991,新規,0,2022-09-06,2022-09-06,株式会社フィット,,株式会社,青森県,三戸郡階上町,蒼前西１丁目９番地１６７,,02,446,0391212,,,,,,,2022-09-06,1,,,,,フィット,0
2732,9430003014251,新規,0,2022-09-06,2022-09-06,合同会社クリーンネット,,合同会社,北海道,岩見沢市,上幌向南二条７丁目５番地２１,,01,210,0690363,,,,,,,2022-09-06,1,,,,,クリーンネット,0
2735,9440001009145,新規,0,2022-09-06,2022-09-06,株式会社ＩＤＬ,,株式会社,北海道,北斗市,大工川２丁目１番１９号,,01,236,0490153,,,,,,,2022-09-06,1,,,,,イデアル,0
2739,9490001010271,新規,0,2022-09-06,2022-09-06,株式会社ＷＡＮＬＩＦＥ,,株式会社,高知県,四万十市,古津賀３０４番地１,,39,210,7870010,,,,,,,2022-09-06,1,,,,,ワンライフ,0
