sequenceNumber,corporateNumber,process,correct,updateDate,changeDate,name,nameImageId,kind,prefectureName,cityName,streetNumber,addressImageId,prefectureCode,cityCode,postCode,addressOutside,addressOutsideImageId,closeDate,closeCause,successorCorporateNumber,changeCause,assignmentDate,latest,enName,enPrefectureName,enCityName,enAddressOutside,furigana,hihyoji
4,1010001230536,新規,0,2022-11-09,2022-11-09,Ｆｅｅｌ　Ｍｏｒｅ株式会社,,株式会社,東京都,中央区,佃１丁目１１－９シティーフロントタワー８０６号室,,13,102,1040051,,,,,,,2022-11-09,1,,,,,フィールモア,0
5,1010001230643,新規,0,2022-11-09,2022-11-09,日本平和愛森産業株式会社,,株式会社,東京都,中央区,日本橋２丁目１３－１２,,13,102,1030027,,,,,,,2022-11-09,1,,,,,ニホンヘイワアイシンサンギョウ,0
6,1010001230726,新規,0,2022-11-09,2022-11-09,株式会社ＫＯ‐ＨＥＩ商事,,株式会社,東京都,千代田区,九段南１丁目５番６号りそな九段ビル５ＦＫＳフロア,,13,101,1020074,,,,,,,2022-11-09,1,,,,,コーヘイショウジ,0
11,1010101015399,新規,0,2022-11-09,2022-11-09,株式会社ＰＣＳＤ,,株式会社,東京都,八王子市,七国５丁目２９番６号サニーヒルズ１０１号,,13,201,1920919,,,,,,,2022-11-09,1,,,,,ピーシーエスディー,0
17,1010401170613,新規,0,2022-11-09,2022-11-09,株式会社ｆｉｖｅ　ｄａｓｈ,,株式会社,東京都,港区,南青山６丁目７番８号ファーロ南青山１１０１,,13,103,1070062,,,,,,,2022-11-09,1,,,,,ファイブダッシュ,0
18,1010401170679,新規,0,2022-11-09,2022-11-09,Ｕ＆Ｔ株式会社,,株式会社,東京都,港区,赤坂４丁目２番３号ディライトビル２Ｆ,,13,103,1070052,,,,,,,2022-11-09,1,,,,,ユーアンドティー,0
19,1010401170695,新規,0,2022-11-09,2022-11-09,ＳＰＲＩＮＧ株式会社,,株式会社,東京都,港区,赤坂３丁目４番３号赤坂マカベビル３階,,13,103,1070052,,,,,,,2022-11-09,1,,,,,スプリング,0
20,1010401170720,新規,0,2022-11-09,2022-11-09,株式会社ＢｌａｃｋＲａｂｂｉｔ,,株式会社,東京都,港区,南青山３丁目１番３６号青山丸竹ビル６Ｆ,,13,103,1070062,,,,,,,2022-11-09,1,,,,,ブラックラビット,0
21,1010401170729,新規,0,2022-11-09,2022-11-09,株式会社ＯＭＥＮ,,株式会社,東京都,港区,六本木７丁目７－７Ｔｒｉ－ＳｅｖｅｎＲｏｐｐｏｎｇｉ８階,,13,103,1060032,,,,,,,2022-11-09,1,,,,,オーメン,0
26,1010501049600,新規,0,2022-11-09,2022-11-09,品国株式会社,,株式会社,東京都,台東区,根岸４丁目１６番３０号,,13,106,1100003,,,,,,,2022-11-09,1,,,,,シナクニ,0
44,1011001150666,新規,0,2022-11-09,2022-11-09,株式会社イレヴンスアワー,,株式会社,東京都,目黒区,目黒本町２丁目３番３号,,13,110,1520002,,,,,,,2022-11-09,1,,,,,イレヴンスアワー,0
48,1011003015693,新規,0,2022-11-09,2022-11-09,ＤＫＭＣ合同会社,,合同会社,東京都,渋谷区,道玄坂１丁目１０－８渋谷道玄坂東急ビル２Ｆ－Ｃ,,13,113,1500043,,,,,,,2022-11-09,1,,,,,ディーケーエムシー,0
57,1011101100744,新規,0,2022-11-09,2022-11-09,株式会社シュビヒロ,,株式会社,東京都,新宿区,高田馬場３丁目２４－１ダイホープラザ高田馬場２－１１０２号室,,13,104,1690075,,,,,,,2022-11-09,1,,,,,シュビヒロ,0
58,1011101100777,新規,0,2022-11-09,2022-11-09,株式会社Ｏｎｌｉｘｓ,,株式会社,東京都,新宿区,西新宿３丁目３番１３号西新宿水間ビル６階,,13,104,1600023,,,,,,,2022-11-09,1,,,,,オンリックス,0
59,1011101100793,新規,0,2022-11-09,2022-11-09,ＭＢＣ株式会社,,株式会社,東京都,新宿区,新宿１丁目３６番２号,,13,104,1600022,,,,,,,2022-11-09,1,,,,,エムビーシー,0
60,1011101100802,新規,0,2022-11-09,2022-11-09,株式会社レイヴアップ,,株式会社,東京都,新宿区,西新宿７丁目７番地３３号新銘ビル５階,,13,104,1600023,,,,,,,2022-11-09,1,,,,,レイヴアップ,0
63,1011105010469,新規,0,2022-11-09,2022-11-09,一般社団法人砂漠の水,,その他の設立登記法人,東京都,新宿区,西早稲田２丁目１７番３号エイアイコーポ３０１,,13,104,1690051,,,,,,,2022-11-09,1,,,,,サバクノミズ,0
67,1011301028240,新規,0,2022-11-09,2022-11-09,Ｇａｒａ株式会社,,株式会社,東京都,杉並区,荻窪３丁目７番５２号,,13,115,1670051,,,,,,,2022-11-09,1,,,,,ガラ,0
72,1011401024668,新規,0,2022-11-09,2022-11-09,株式会社ＮｉｃｅＣｏｄｅ,,株式会社,東京都,板橋区,熊野町５番７－３０４号,,13,119,1730025,,,,,,,2022-11-09,1,,,,,ナイスコード,0
82,1011701025762,新規,0,2022-11-09,2022-11-09,株式会社Ｂｏｎｄｓ,,株式会社,東京都,江戸川区,北葛西２丁目１番３７号,,13,123,1340081,,,,,,,2022-11-09,1,,,,,ボンズ,0
87,1011803005365,新規,0,2022-11-09,2022-11-09,合同会社ａｙａｍａｔｅ,,合同会社,東京都,葛飾区,金町２丁目１番１１号,,13,122,1250042,,,,,,,2022-11-09,1,,,,,アヤメイト,0
90,1013301049902,新規,0,2022-11-09,2022-11-09,株式会社暁工業,,株式会社,東京都,豊島区,南池袋１丁目２０－１１植原ビル４Ｆ,,13,116,1710022,,,,,,,2022-11-09,1,,,,,アカツキコウギョウ,0
91,1013303006364,新規,0,2022-11-09,2022-11-09,合同会社６６,,合同会社,東京都,豊島区,北大塚１丁目１９番１２号,,13,116,1700004,,,,,,,2022-11-09,1,,,,,ロクロク,0
99,1020001148851,新規,0,2022-11-09,2022-11-09,荒井しょうてん株式会社,,株式会社,神奈川県,横浜市鶴見区,潮田町１丁目６４番地,,14,101,2300041,,,,,,,2022-11-09,1,,,,,アライショウテン,0
100,1020001148959,新規,0,2022-11-09,2022-11-09,株式会社桃太郎経済研究所,,株式会社,神奈川県,横浜市神奈川区,子安通２丁目２６６番地４,,14,102,2210021,,,,,,,2022-11-09,1,,,,,モモタロウケイザイケンキュウショ,0
101,1020003022658,新規,0,2022-11-09,2022-11-09,合同会社Ｌｉｅｎ　Ｃｏｃｏ,,合同会社,神奈川県,横浜市南区,山谷８２番地４ロータリーパレス横濱山の手８０９,,14,105,2320036,,,,,,,2022-11-09,1,,,,,リアンココ,0
106,1021001077405,新規,0,2022-11-09,2022-11-09,株式会社ｎｅ,,株式会社,神奈川県,相模原市中央区,宮下本町３丁目６番２８号,,14,152,2520211,,,,,,,2022-11-09,1,,,,,エヌイー,0
107,1021001077413,新規,0,2022-11-09,2022-11-09,Ｒａｙ　Ｅ株式会社,,株式会社,神奈川県,中郡大磯町,東小磯３３３番地２２,,14,341,2550004,,,,,,,2022-11-09,1,,,,,レイイー,0
116,1030001150864,新規,0,2022-11-09,2022-11-09,株式会社金子環境サービス,,株式会社,埼玉県,比企郡吉見町,大字田甲６５９番地３,,11,347,3550167,,,,,,,2022-11-09,1,,,,,カネコカンキョウサービス,0
117,1030001150880,新規,0,2022-11-09,2022-11-09,ｗｉｌｌｓ株式会社,,株式会社,埼玉県,ふじみ野市,福岡３丁目６番６号,,11,245,3560011,,,,,,,2022-11-09,1,,,,,ウィルズ,0
118,1030001150963,新規,0,2022-11-09,2022-11-09,株式会社インプレス,,株式会社,埼玉県,春日部市,南中曽根６８４番地２モアグランデ豊春６１１号,,11,214,3440048,,,,,,,2022-11-09,1,,,,,インプレス,0
119,1030001150971,新規,0,2022-11-09,2022-11-09,株式会社ピヤクシ,,株式会社,埼玉県,川口市,中青木１丁目１番３０号,,11,203,3320032,,,,,,,2022-11-09,1,,,,,ピヤクシ,0
120,1030001150996,新規,0,2022-11-09,2022-11-09,株式会社浩和興業,,株式会社,埼玉県,川口市,朝日３丁目１６番４－２０７号,,11,203,3320001,,,,,,,2022-11-09,1,,,,,コウワコウギョウ,0
121,1030001151012,新規,0,2022-11-09,2022-11-09,株式会社湘際,,株式会社,埼玉県,比企郡ときがわ町,大字玉川１１７７番地,,11,349,3550342,,,,,,,2022-11-09,1,,,,,ショウサイ,0
124,1030003020512,新規,0,2022-11-09,2022-11-09,ヒマル合同会社,,合同会社,埼玉県,戸田市,喜沢１丁目２番１０－２Ｆ１０,,11,224,3350013,,,,,,,2022-11-09,1,,,,,ヒマル,0
131,1040001125741,新規,0,2022-11-09,2022-11-09,Ｌｉｇｈｔｈｏｕｓｅ株式会社,,株式会社,千葉県,柏市,若柴１７８番地４－１４８街区１パークシティ柏の葉キャンパス・ザ・ゲートタワーウェスト３Ｆ,,12,217,2770871,,,,,,,2022-11-09,1,,,,,ライトハウス,0
132,1040001125758,新規,0,2022-11-09,2022-11-09,マシューズワイン株式会社,,株式会社,千葉県,館山市,那古１１６９番地,,12,205,2940055,,,,,,,2022-11-09,1,,,,,マシューズワイン,0
133,1040001125766,新規,0,2022-11-09,2022-11-09,株式会社クランプ,,株式会社,千葉県,千葉市花見川区,幕張町５丁目３５７番地１ライオンズクオーレ幕張マークスフォート４０３号,,12,102,2620032,,,,,,,2022-11-09,1,,,,,クランプ,0
135,1040003021187,新規,0,2022-11-09,2022-11-09,ＡＵＴＯ　ＧＬＯＢＥ合同会社,,合同会社,千葉県,八街市,八街ほ９３７番地７サニーフラット富士見１０２号,,12,230,2891115,,,,,,,2022-11-09,1,,,,,オートグローブ,0
145,1060001035419,新規,0,2022-11-09,2022-11-09,株式会社Ｒｈａｍｅ,,株式会社,栃木県,宇都宮市,宝木本町１１５０番地６６,,09,201,3200075,,,,,,,2022-11-09,1,,,,,レイム,0
146,1060001035427,新規,0,2022-11-09,2022-11-09,株式会社ヒトミ工業,,株式会社,栃木県,那須塩原市,東栄１丁目２５番地８,,09,213,3250016,,,,,,,2022-11-09,1,,,,,ヒトミコウギョウ,0
147,1060001035443,新規,0,2022-11-09,2022-11-09,株式会社Ｍｏｒｉｓ　Ｇｒｏｕｐ,,株式会社,栃木県,小山市,神山２丁目１１番２５号グランヌーフ１階,,09,208,3230828,,,,,,,2022-11-09,1,,,,,モリスグループ,0
157,1080101023635,新規,0,2022-11-09,2022-11-09,山一ホールディングス株式会社,,株式会社,静岡県,駿東郡長泉町,本宿６５２番地の１０,,22,342,4110945,,,,,,,2022-11-09,1,,,,,ヤマイチホールディングス,0
159,1090001017835,新規,0,2022-11-09,2022-11-09,株式会社アダチ園,,株式会社,山梨県,南アルプス市,飯野３８３７－１,,19,208,4000222,,,,,,,2022-11-09,1,,,,,アダチエン,0
161,1100001035843,新規,0,2022-11-09,2022-11-09,株式会社ＢＡＮＹＡ,,株式会社,長野県,上伊那郡飯島町,七久保２５６５番地４,,20,384,3993705,,,,,,,2022-11-09,1,,,,,バンヤ,0
162,1100001035876,新規,0,2022-11-09,2022-11-09,Ｏｆｆｓｃｒｙｐｔ株式会社,,株式会社,長野県,北佐久郡軽井沢町,大字長倉７２９番地１ＫＥＩＤＡＳＲｏｏｍ１,,20,321,3890111,,,,,,,2022-11-09,1,,,,,オフスクリプト,0
183,1120001250011,新規,0,2022-11-09,2022-11-09,株式会社ＴＥＮ,,株式会社,大阪府,大阪市大正区,平尾４丁目１３番１９号,,27,108,5510012,,,,,,,2022-11-09,1,,,,,テン,0
184,1120001250135,新規,0,2022-11-09,2022-11-09,富士ゴルフマネジメント株式会社,,株式会社,大阪府,大阪市住吉区,苅田５丁目１８番１２号,,27,120,5580011,,,,,,,2022-11-09,1,,,,,フジゴルフマネジメント,0
185,1120001250143,新規,0,2022-11-09,2022-11-09,株式会社Ｎａｖｅｓ,,株式会社,大阪府,大阪市旭区,高殿５丁目４番２７号,,27,117,5350031,,,,,,,2022-11-09,1,,,,,ネイブス,0
186,1120001250176,新規,0,2022-11-09,2022-11-09,株式会社ミレンダ,,株式会社,大阪府,大阪市天王寺区,上汐３丁目５－１５ＭＡＲＩＳ上汐３０１,,27,109,5430002,,,,,,,2022-11-09,1,,,,,ミレンダ,0
192,1120003022796,新規,0,2022-11-09,2022-11-09,Ｍｅｄｉｃａｌ　Ｈｏｕｓｅ合同会社,,合同会社,大阪府,大阪市淀川区,三津屋南２丁目５番７－３０５号,,27,123,5320035,,,,,,,2022-11-09,1,,,,,メディカルハウス,0
193,1120003022813,新規,0,2022-11-09,2022-11-09,合同会社レーヴス・コンサルティング,,合同会社,大阪府,大阪市北区,西天満６丁目８番１９－１１０１号,,27,127,5300047,,,,,,,2022-11-09,1,,,,,レーヴスコンサルティング,0
198,1120101066497,新規,0,2022-11-09,2022-11-09,株式会社サクセスプラン,,株式会社,大阪府,堺市堺区,三国ヶ丘御幸通１０番地三幸ビル５階,,27,141,5900028,,,,,,,2022-11-09,1,,,,,サクセスプラン,0
199,1120101066506,新規,0,2022-11-09,2022-11-09,株式会社Ｒｉｓｉｎｇ,,株式会社,大阪府,堺市西区,山田１丁１２７２番地１,,27,144,5938316,,,,,,,2022-11-09,1,,,,,ライジング,0
201,1120103004918,新規,0,2022-11-09,2022-11-09,合同会社シーケーライフ,,合同会社,大阪府,泉佐野市,俵屋２８３番地の１２,,27,213,5980003,,,,,,,2022-11-09,1,,,,,シーケーライフ,0
211,1130001072982,新規,0,2022-11-09,2022-11-09,株式会社モンポルト山口,,株式会社,京都府,京都市右京区,太秦堀ケ内町１５番地１２,,26,108,6168152,,,,,,,2022-11-09,1,,,,,モンポルトヤマグチ,0
212,1130001073023,新規,0,2022-11-09,2022-11-09,株式会社グレープヴァイン,,株式会社,京都府,京都市伏見区,小栗栖森本町２０番地６,,26,109,6011462,,,,,,,2022-11-09,1,,,,,グレープヴァイン,0
213,1130001073080,新規,0,2022-11-09,2022-11-09,株式会社ＦＯＩＳ,,株式会社,京都府,京都市下京区,大江町５３８－１－２０１,,26,106,6008402,,,,,,,2022-11-09,1,,,,,フォワ,0
224,1140001128032,新規,0,2022-11-09,2022-11-09,株式会社シンフーズ,,株式会社,兵庫県,加古川市,志方町横大路６６番地の２,,28,210,6750332,,,,,,,2022-11-09,1,,,,,シンフーズ,0
225,1140001128040,新規,0,2022-11-09,2022-11-09,株式会社ＴＩＲＥＭＡＸ,,株式会社,兵庫県,加古川市,米田町平津４１番地の６,,28,210,6750054,,,,,,,2022-11-09,1,,,,,タイヤマックス,0
228,1140003018314,新規,0,2022-11-09,2022-11-09,合同会社ＲＯＢＥＬＴ,,合同会社,兵庫県,伊丹市,堀池１丁目６番１９号,,28,207,6640871,,,,,,,2022-11-09,1,,,,,ロベルト,0
229,1140005026372,新規,0,2022-11-09,2022-11-09,一般社団法人淡路ザル観察公苑,,その他の設立登記法人,兵庫県,洲本市,畑田組２８９番地,,28,205,6562533,,,,,,,2022-11-09,1,,,,,アワジザルカンサツコウエン,0
231,1150001025939,新規,0,2022-11-09,2022-11-09,ＡＲＸレンタリース株式会社,,株式会社,奈良県,吉野郡吉野町,大字上市２９２,,29,441,6393111,,,,,,,2022-11-09,1,,,,,アークスレンタリース,0
234,1170003001787,新規,0,2022-11-09,2022-11-09,合同会社幸水,,合同会社,和歌山県,岩出市,２３８番地１１,,30,209,6496200,,,,,,,2022-11-09,1,,,,,コウスイ,0
243,1180003024465,新規,0,2022-11-09,2022-11-09,ＬＯＹＡＬ　ＴＲＡＤＥＲＳ合同会社,,合同会社,愛知県,名古屋市守山区,喜多山２丁目５番１５号昭栄コーポラス３０３号,,23,113,4630017,,,,,,,2022-11-09,1,,,,,ロイヤルトレイダース,0
248,1180303005495,新規,0,2022-11-09,2022-11-09,合同会社ととと,,合同会社,愛知県,刈谷市,寺横町３丁目３番地２フォレストガーデンＢ棟１０２号,,23,210,4480846,,,,,,,2022-11-09,1,,,,,トトト,0
251,1200003005735,新規,0,2022-11-09,2022-11-09,合同会社ラビットケア,,合同会社,岐阜県,高山市,花里町１丁目１７８番地,,21,203,5060026,,,,,,,2022-11-09,1,,,,,ラビットケア,0
254,1230001019585,新規,0,2022-11-09,2022-11-09,株式会社ＡｄｄＦｏｒｃｅ,,株式会社,富山県,射水市,松木６９７－３,,16,211,9340052,,,,,,,2022-11-09,1,,,,,アドフォース,0
271,1280001008815,新規,0,2022-11-09,2022-11-09,株式会社リースキンＢＵＨＮＥ,,株式会社,島根県,大田市,大田町大田ロ６６３番地６,,32,205,6940064,,,,,,,2022-11-09,1,,,,,リースキンビューネ,0
275,1290001099523,新規,0,2022-11-09,2022-11-09,株式会社ＧＲＡＣＥ,,株式会社,福岡県,福岡市博多区,比恵町８番２４号１０階,,40,132,8120014,,,,,,,2022-11-09,1,,,,,グレイス,0
276,1290001099531,新規,0,2022-11-09,2022-11-09,株式会社ＡｉｍＡｓｓｉｓｔ,,株式会社,福岡県,福岡市中央区,天神４丁目６－２８天神ファーストビル７階,,40,133,8100001,,,,,,,2022-11-09,1,,,,,エイムアシスト,0
277,1290001099548,新規,0,2022-11-09,2022-11-09,九州ＦＣＴテクニカル株式会社,,株式会社,福岡県,福岡市早良区,賀茂１丁目１３番４－４号,,40,137,8140164,,,,,,,2022-11-09,1,,,,,キュウシュウエフシーティーテクニカル,0
279,1290003013176,新規,0,2022-11-09,2022-11-09,竹田コンフィデンス合同会社,,合同会社,福岡県,福岡市南区,塩原４丁目７番２２－８０５号,,40,134,8150032,,,,,,,2022-11-09,1,,,,,タケダコンフィデンス,0
280,1290005018850,新規,0,2022-11-09,2022-11-09,一般社団法人にっぽんＤ２Ｃ応援委員会,,その他の設立登記法人,福岡県,福岡市中央区,天神１丁目１０番２０号１５階,,40,133,8100001,,,,,,,2022-11-09,1,,,,,ニッポンディートゥーシーオウエンイインカイ,0
281,1290801029051,新規,0,2022-11-09,2022-11-09,リベアティ株式会社,,株式会社,福岡県,北九州市小倉北区,下到津１丁目４番５号Ｃｏｃｏメゾン９０２号室,,40,106,8030846,,,,,,,2022-11-09,1,,,,,リベアティ,0
282,1290805009603,新規,0,2022-11-09,2022-11-09,一般社団法人さいどうしょ,,その他の設立登記法人,福岡県,田川郡香春町,大字採銅所６０９５番地,,40,601,8221401,,,,,,,2022-11-09,1,,,,,サイドウショ,0
283,1300001013127,新規,0,2022-11-09,2022-11-09,株式会社アイネットマコト,,株式会社,佐賀県,唐津市,二タ子３丁目４番２５号,,41,202,8470861,,,,,,,2022-11-09,1,,,,,アイネットマコト,0
290,1310005008642,新規,0,2022-11-09,2022-11-09,一般社団法人国際技術者支援協会,,その他の設立登記法人,長崎県,長崎市,魚の町３－１４タカクラビル２Ｆ,,42,201,8500874,,,,,,,2022-11-09,1,,,,,コクサイギジュツシャシエンキョウカイ,0
295,1330001030276,新規,0,2022-11-09,2022-11-09,株式会社ライブハウスＡＳＡ,,株式会社,熊本県,天草市,佐伊津町３１６０番地１,,43,215,8632171,,,,,,,2022-11-09,1,,,,,ライブハウスアーサ,0
296,1330001030284,新規,0,2022-11-09,2022-11-09,株式会社圭,,株式会社,熊本県,熊本市南区,八幡７丁目３番３３‐１号,,43,104,8614113,,,,,,,2022-11-09,1,,,,,ケイ,0
297,1340001025143,新規,0,2022-11-09,2022-11-09,株式会社三松,,株式会社,鹿児島県,姶良市,西餅田３６１２番地１,,46,225,8995431,,,,,,,2022-11-09,1,,,,,サンショウ,0
298,1350001018039,新規,0,2022-11-09,2022-11-09,落合工業株式会社,,株式会社,宮崎県,宮崎市,佐土原町東上那珂９４８７番地３,,45,201,8800303,,,,,,,2022-11-09,1,,,,,オチアイコウギョウ,0
299,1350005006114,新規,0,2022-11-09,2022-11-09,特定非営利活動法人宮崎県盲ろう者友の会,,その他の設立登記法人,宮崎県,宮崎市,大字浮田１３５８番地６,,45,201,8802104,,,,,,,2022-11-09,1,,,,,ミヤザキケンモウロウシャトモノカイ,0
300,1360001031164,新規,0,2022-11-09,2022-11-09,株式会社ＭａｎｄＦ,,株式会社,沖縄県,宜野湾市,大山１丁目１４番２３ー４０４号,,47,205,9012223,,,,,,,2022-11-09,1,,,,,エムアンドエフ,0
301,1360001031180,新規,0,2022-11-09,2022-11-09,株式会社ナパーギリ,,株式会社,沖縄県,中頭郡北中城村,字島袋１３７３番地,,47,327,9012301,,,,,,,2022-11-09,1,,,,,ナパーギリ,0
308,1370001049214,新規,0,2022-11-09,2022-11-09,アクアシスト株式会社,,株式会社,宮城県,仙台市泉区,将監殿４丁目４番地の７,,04,105,9813136,,,,,,,2022-11-09,1,,,,,アクアシスト,0
309,1370001049230,新規,0,2022-11-09,2022-11-09,株式会社ｓｕｎｒｕｂｙ,,株式会社,宮城県,仙台市青葉区,上杉３丁目２番４２－２０７号,,04,101,9800011,,,,,,,2022-11-09,1,,,,,サンルビー,0
310,1370001049239,新規,0,2022-11-09,2022-11-09,ＴＷＩＮ　ＴＯＷＥＲ株式会社,,株式会社,宮城県,仙台市泉区,泉中央南２番地,,04,105,9813126,,,,,,,2022-11-09,1,,,,,ツインタワー,0
311,1370003005891,新規,0,2022-11-09,2022-11-09,合同会社ルーキー,,合同会社,宮城県,仙台市青葉区,桜ケ丘５丁目３１番７号,,04,101,9810961,,,,,,,2022-11-09,1,,,,,ルーキー,0
312,1380001033241,新規,0,2022-11-09,2022-11-09,株式会社正憲ＥＬＥＣ,,株式会社,福島県,須賀川市,季の郷５７７番地,,07,207,9620405,,,,,,,2022-11-09,1,,,,,ショウケンエレック,0
313,1380003005313,新規,0,2022-11-09,2022-11-09,合同会社Ｆｕｔｕｒｅ,,合同会社,福島県,いわき市,内郷高坂町大平９番地の１,,07,204,9738408,,,,,,,2022-11-09,1,,,,,フューチャー,0
331,1430001087810,新規,0,2022-11-09,2022-11-09,株式会社トゥーリア,,株式会社,北海道,札幌市西区,発寒十二条３丁目７番２号,,01,107,0630832,,,,,,,2022-11-09,1,,,,,トゥーリア,0
332,1430001087819,新規,0,2022-11-09,2022-11-09,スズカＩＴソリューションズ株式会社,,株式会社,北海道,札幌市中央区,北二条西２丁目３４番地フージャース札幌ビル,,01,101,0600002,,,,,,,2022-11-09,1,,,,,スズカアイティーソリューションズ,0
343,1450001013839,新規,0,2022-11-09,2022-11-09,株式会社お不動さん,,株式会社,北海道,稚内市,栄４丁目４番３１号,,01,214,0970017,,,,,,,2022-11-09,1,,,,,オフドウサン,0
347,1490001010337,新規,0,2022-11-09,2022-11-09,株式会社まことや,,株式会社,高知県,高知市,鴨部１４７６番地１０,,39,201,7808050,,,,,,,2022-11-09,1,,,,,マコトヤ,0
348,1490003001714,新規,0,2022-11-09,2022-11-09,合同会社Ｙ’ｓ　Ｆａｍｉｌｙ,,合同会社,高知県,高知市,朝倉甲２８９番地３３,,39,201,7808061,,,,,,,2022-11-09,1,,,,,ワイズファミリー,0
350,1500001024582,新規,0,2022-11-09,2022-11-09,高榮工業株式会社,00128408,株式会社,愛媛県,宇和島市,川内甲７６２番地６,,38,203,7980075,,,,,,,2022-11-09,1,,,,,コウエイコウギョウ,0
351,1500001024590,新規,0,2022-11-09,2022-11-09,株式会社宮崎工業,00128404,株式会社,愛媛県,西条市,神拝甲１６４番地１,,38,206,7930041,,,,,,,2022-11-09,1,,,,,ミヤザキコウギョウ,0
355,1700150112671,新規,0,2022-11-09,2022-11-09,ナタラズインタナショナルトレーディング,,外国会社等,東京都,八王子市,子安町２丁目１３－６六本杉コーポ６,,13,201,1920904,ネパール連邦民主共和国カトマンズ行政部カトマンズメトロポリタンシティー２、ラジンパット,,,,,,2022-11-09,1,,,,,ナタラズインタナシヨナルトレーデイング,0
365,2010001230683,新規,0,2022-11-09,2022-11-09,ＳＯＵ株式会社,,株式会社,東京都,中央区,銀座３丁目４番１号大倉別館５階,,13,102,1040061,,,,,,,2022-11-09,1,,,,,エスオーユー,0
366,2010001230717,新規,0,2022-11-09,2022-11-09,ＴＢＪＨ株式会社,,株式会社,東京都,千代田区,丸の内２丁目１番１号,,13,101,1000005,,,,,,,2022-11-09,1,,,,,ティービージェイエイチ,0
367,2010001230733,新規,0,2022-11-09,2022-11-09,株式会社アカラン,,株式会社,東京都,中央区,銀座１丁目２２番１１号銀座大竹ビジデンス２階,,13,102,1040061,,,,,,,2022-11-09,1,,,,,アカラン,0
369,2010003039025,新規,0,2022-11-09,2022-11-09,合同会社ｅ‐ｓｕｐｐｏｒｔ,,合同会社,東京都,中央区,銀座１丁目１２番４号Ｎ＆ＥＢＬＤ．６Ｆ,,13,102,1040061,,,,,,,2022-11-09,1,,,,,イーサポート,0
373,2010101015398,新規,0,2022-11-09,2022-11-09,エムズエイト株式会社,,株式会社,東京都,八王子市,長沼町１０７７番地２０,,13,201,1920907,,,,,,,2022-11-09,1,,,,,エムズエイト,0
384,2010401170686,新規,0,2022-11-09,2022-11-09,ＳＶ　Ｔｅｃｈ株式会社,,株式会社,東京都,港区,三田２丁目１７番２４号,,13,103,1080073,,,,,,,2022-11-09,1,,,,,エスブイテック,0
385,2010401170744,新規,0,2022-11-09,2022-11-09,株式会社Ｌｅｇａｃｙ,,株式会社,東京都,港区,南青山３丁目１番３６号青山丸竹ビル６Ｆ,,13,103,1070062,,,,,,,2022-11-09,1,,,,,レガシィ,0
390,2010501049599,新規,0,2022-11-09,2022-11-09,株式会社トウバン,,株式会社,東京都,台東区,蔵前２丁目１５番６号寺輪ビル２Ｆ,,13,106,1110051,,,,,,,2022-11-09,1,,,,,トウバン,0
394,2010601062114,新規,0,2022-11-09,2022-11-09,株式会社ＮｅｉＲｏ,,株式会社,東京都,墨田区,江東橋４丁目２４番３号Ｃｒｏｂｉｓ錦糸町１Ｆ,,13,107,1300022,,,,,,,2022-11-09,1,,,,,ネイロ,0
398,2010701043419,新規,0,2022-11-09,2022-11-09,株式会社Ｎｅｅｅｗ　Ｌｏｃａｌ,,株式会社,東京都,品川区,東大井３丁目１１－２１ムサシヤビル２１０,,13,109,1400011,,,,,,,2022-11-09,1,,,,,ニューローカル,0
399,2010701043443,新規,0,2022-11-09,2022-11-09,株式会社ＬＩＦＩＸ,,株式会社,東京都,品川区,東大井１丁目５番１３号,,13,109,1400011,,,,,,,2022-11-09,1,,,,,リフィックス,0
403,2010703006456,新規,0,2022-11-09,2022-11-09,合同会社岡野製策所,,合同会社,東京都,品川区,上大崎３丁目１番２号,,13,109,1410021,,,,,,,2022-11-09,1,,,,,オカノセイサクジョ,0
406,2010801033385,新規,0,2022-11-09,2022-11-09,住マイルシステム株式会社,,株式会社,東京都,大田区,大森東３丁目２７番１３号,,13,111,1430012,,,,,,,2022-11-09,1,,,,,,0
414,2010901051907,新規,0,2022-11-09,2022-11-09,株式会社ＴＭ,,株式会社,東京都,世田谷区,駒沢４丁目２番８号Ｂ－１４,,13,112,1540012,,,,,,,2022-11-09,1,,,,,ティーエム,0
415,2010901051923,新規,0,2022-11-09,2022-11-09,株式会社８２Ａ,,株式会社,東京都,世田谷区,玉堤１丁目２７番１２号,,13,112,1580087,,,,,,,2022-11-09,1,,,,,エイトトゥーエー,0
416,2010901051931,新規,0,2022-11-09,2022-11-09,ＪＯＧ株式会社,,株式会社,東京都,世田谷区,上馬２丁目３３番１号Ａスペース３０２,,13,112,1540011,,,,,,,2022-11-09,1,,,,,ジョグ,0
427,2011001150665,新規,0,2022-11-09,2022-11-09,株式会社ディグワン,,株式会社,東京都,渋谷区,道玄坂１丁目１０番８号渋谷道玄坂東急ビル２Ｆ－Ｃ,,13,113,1500043,,,,,,,2022-11-09,1,,,,,ディグワン,0
428,2011001150707,新規,0,2022-11-09,2022-11-09,株式会社Ｎｉｂｂｌｅ,,株式会社,東京都,渋谷区,神宮前１丁目８番２４号ＯＺ原宿３Ｆ－Ａ,,13,113,1500001,,,,,,,2022-11-09,1,,,,,ニブル,0
429,2011001150756,新規,0,2022-11-09,2022-11-09,株式会社ソーシャル・エックス総研,,株式会社,東京都,渋谷区,渋谷２丁目１９番１５号宮益坂ビルディング６０９,,13,113,1500002,,,,,,,2022-11-09,1,,,,,ソーシャルエックスソウケン,0
433,2011101100710,新規,0,2022-11-09,2022-11-09,Ｓｅｅｌｅ　ｓｏｕｎｄ株式会社,,株式会社,東京都,新宿区,新宿２丁目１２番１３号新宿アントレサロンビル２階,,13,104,1600022,,,,,,,2022-11-09,1,,,,,ゼーレサウンド,0
434,2011101100743,新規,0,2022-11-09,2022-11-09,株式会社成宮,,株式会社,東京都,新宿区,河田町３番５１－２８１２号,,13,104,1620054,,,,,,,2022-11-09,1,,,,,ナリミヤ,0
436,2011103012367,新規,0,2022-11-09,2022-11-09,合同会社ＶｉｒｔｕａｌＢｒａｉｎ,,合同会社,東京都,新宿区,西新宿３丁目３番地１３号西新宿水間ビル６階,,13,104,1600023,,,,,,,2022-11-09,1,,,,,ヴァーチャルブレイン,0
440,2011403003818,新規,0,2022-11-09,2022-11-09,Ｇｏｌｄｅｎ　Ｂｌｏｏｍ合同会社,,合同会社,東京都,板橋区,中丸町３番１－１１０６号,,13,119,1730026,,,,,,,2022-11-09,1,,,,,ゴールデンブルーム,0
443,2011701025753,新規,0,2022-11-09,2022-11-09,株式会社昊,,株式会社,東京都,江戸川区,北小岩６丁目８番６号,,13,123,1330051,,,,,,,2022-11-09,1,,,,,コウ,0
446,2011801041535,新規,0,2022-11-09,2022-11-09,株式会社ｆｏｒ　ｍｅ,,株式会社,東京都,足立区,小台１丁目２２番２－４２３号,,13,121,1200046,,,,,,,2022-11-09,1,,,,,フォーミー,0
448,2011803005372,新規,0,2022-11-09,2022-11-09,合同会社Ｊ＆Ｄ,,合同会社,東京都,足立区,梅島１丁目２６番１０―１２０１号,,13,121,1210816,,,,,,,2022-11-09,1,,,,,ジェイアンドディー,0
471,2020003022698,新規,0,2022-11-09,2022-11-09,多摩空調企画合同会社,,合同会社,神奈川県,川崎市多摩区,菅稲田堤１丁目１１番３－４０１号,,14,135,2140003,,,,,,,2022-11-09,1,,,,,タマクウチョウキカク,0
476,2021003012350,新規,0,2022-11-09,2022-11-09,合同会社ＦＯＲＳ,,合同会社,神奈川県,藤沢市,辻堂太平台１丁目１４番３６号,,14,205,2510044,,,,,,,2022-11-09,1,,,,,フォース,0
491,2030001150888,新規,0,2022-11-09,2022-11-09,株式会社カノ,,株式会社,埼玉県,川口市,本町４丁目４番１６－２０３号リビオアクシスプレイス,,11,203,3320012,,,,,,,2022-11-09,1,,,,,カノ,0
492,2030001150962,新規,0,2022-11-09,2022-11-09,株式会社ＯＺ,,株式会社,埼玉県,北葛飾郡松伏町,大字松伏４７９７－１,,11,465,3430111,,,,,,,2022-11-09,1,,,,,オズ,0
493,2030001150979,新規,0,2022-11-09,2022-11-09,株式会社はるみつ工務店,,株式会社,埼玉県,越谷市,大字船渡１８６番地３,,11,222,3430003,,,,,,,2022-11-09,1,,,,,ハルミツコウムテン,0
494,2030001150987,新規,0,2022-11-09,2022-11-09,Ｅｍｍａ株式会社,,株式会社,埼玉県,朝霞市,本町１丁目３４番４３－３１５号,,11,227,3510011,,,,,,,2022-11-09,1,,,,,エマ,0
495,2030001150995,新規,0,2022-11-09,2022-11-09,株式会社善収庵大こくや,,株式会社,埼玉県,さいたま市中央区,本町東２丁目１７番２号,,11,105,3380003,,,,,,,2022-11-09,1,,,,,ゼンシュウアンダイコクヤ,0
496,2030001151003,新規,0,2022-11-09,2022-11-09,株式会社ｇＮｕｕｗ,,株式会社,埼玉県,越谷市,東大沢４丁目１６番地１８,,11,222,3430022,,,,,,,2022-11-09,1,,,,,ヌー,0
497,2030001151011,新規,0,2022-11-09,2022-11-09,株式会社ゆるせない世界,,株式会社,埼玉県,川口市,大字石神９４２番地４,,11,203,3330823,,,,,,,2022-11-09,1,,,,,ユルセナイセカイ,0
499,2030003020503,新規,0,2022-11-09,2022-11-09,Ｐｌｕｍｅ合同会社,,合同会社,埼玉県,さいたま市緑区,松木３丁目１６番地５,,11,109,3360918,,,,,,,2022-11-09,1,,,,,プルーム,0
500,2030003020544,新規,0,2022-11-09,2022-11-09,ＷＥＥＲＡＴＨＵＮＧＡ　ＭＯＴＯＲＳ　ＪＡＰＡＮ合同会社,,合同会社,埼玉県,坂戸市,浅羽野３丁目２番地７ＫＩＳ亜州商会館坂戸Ｂ号室,,11,239,3500237,,,,,,,2022-11-09,1,,,,,ウェラトゥンガモーターズジャパン,0
501,2030003020560,新規,0,2022-11-09,2022-11-09,合同会社カレント,,合同会社,埼玉県,新座市,畑中１丁目８番３０－８０４号,,11,230,3520012,,,,,,,2022-11-09,1,,,,,カレント,0
511,2040001125724,新規,0,2022-11-09,2022-11-09,株式会社バグースサポート,,株式会社,千葉県,長生郡一宮町,東浪見７２３８番地１,,12,421,2994303,,,,,,,2022-11-09,1,,,,,バグースサポート,0
512,2040001125757,新規,0,2022-11-09,2022-11-09,株式会社三井通商,,株式会社,千葉県,船橋市,夏見６丁目１５番１号,,12,204,2730865,,,,,,,2022-11-09,1,,,,,ミツイツウショウ,0
513,2040001125773,新規,0,2022-11-09,2022-11-09,株式会社スクールコンサルティングＬＡＰＩＳ,,株式会社,千葉県,松戸市,新松戸４丁目３２番１号新松戸東パークハウスＢ棟６０８号,,12,207,2700034,,,,,,,2022-11-09,1,,,,,スクールコンサルティングラピス,0
517,2040003021228,新規,0,2022-11-09,2022-11-09,合同会社ＳＳ　ＥＮＴＥＲＰＲＩＳＥＳ,,合同会社,千葉県,富里市,御料６７４番地,,12,233,2860211,,,,,,,2022-11-09,1,,,,,,0
521,2060001035426,新規,0,2022-11-09,2022-11-09,株式会社レンタルバリュー,,株式会社,栃木県,足利市,五十部町１１３６番地３,,09,202,3260843,,,,,,,2022-11-09,1,,,,,レンタルバリュー,0
522,2060001035442,新規,0,2022-11-09,2022-11-09,株式会社ＥＭＢＥＬＬＩＲ,,株式会社,栃木県,真岡市,亀山１丁目１１番地１１,,09,209,3214363,,,,,,,2022-11-09,1,,,,,アンベリール,0
523,2060003004296,新規,0,2022-11-09,2022-11-09,合同会社ＬＥＡＦ,,合同会社,栃木県,足利市,柳原町８５９番地１４,,09,202,3260806,,,,,,,2022-11-09,1,,,,,リーフ,0
526,2070001039797,新規,0,2022-11-09,2022-11-09,株式会社ｃｌｅａｒ,,株式会社,群馬県,館林市,青柳町１７８４番地の１,,10,207,3740035,,,,,,,2022-11-09,1,,,,,クリア,0
527,2070005010052,新規,0,2022-11-09,2022-11-09,一般社団法人ＭＩＲＡＩＫＵ,,その他の設立登記法人,群馬県,前橋市,山王町１丁目１－３コモンヒロセ２階２－２,,10,201,3792123,,,,,,,2022-11-09,1,,,,,ミライク,0
530,2080101023634,新規,0,2022-11-09,2022-11-09,株式会社有賀商店,,株式会社,静岡県,富士宮市,万野原新田３３２０番地の４２,,22,207,4180001,,,,,,,2022-11-09,1,,,,,アリガショウテン,0
531,2080103002685,新規,0,2022-11-09,2022-11-09,合同会社いのり,,合同会社,静岡県,富士市,岩淵１４５１番地の１ベル・アンジュ１０５号,,22,210,4213305,,,,,,,2022-11-09,1,,,,,イノリ,0
536,2100001035867,新規,0,2022-11-09,2022-11-09,株式会社グッドベース,,株式会社,長野県,飯田市,上郷飯沼５１８番地１,,20,205,3950002,,,,,,,2022-11-09,1,,,,,グッドベース,0
537,2100001035875,新規,0,2022-11-09,2022-11-09,株式会社はこぶね,,株式会社,長野県,諏訪市,大字上諏訪６６６６番地２８,,20,206,3920003,,,,,,,2022-11-09,1,,,,,ハコブネ,0
542,2110001037094,新規,0,2022-11-09,2022-11-09,株式会社Ｎｅｒｖｅ　Ｃｅｌｌ　Ｍｅｒｇｅ,,株式会社,新潟県,新潟市中央区,万代島５番１号万代島ビル１１Ｆ,,15,103,9500078,,,,,,,2022-11-09,1,,,,,ナーヴセルマージ,0
555,2120001250101,新規,0,2022-11-09,2022-11-09,株式会社三進,,株式会社,大阪府,大阪市淀川区,田川１丁目１２－２２,,27,123,5320027,,,,,,,2022-11-09,1,,,,,サンシン,0
556,2120001250134,新規,0,2022-11-09,2022-11-09,三重内橋エステック株式会社,,株式会社,大阪府,大阪市鶴見区,今津北３丁目５番３６号,,27,124,5380041,,,,,,,2022-11-09,1,,,,,ミエウチハシエステック,0
557,2120001250159,新規,0,2022-11-09,2022-11-09,株式会社誠銘,,株式会社,大阪府,大阪市住之江区,新北島１丁目２－１８－８０３,,27,125,5590024,,,,,,,2022-11-09,1,,,,,セイメイ,0
558,2120001250183,新規,0,2022-11-09,2022-11-09,株式会社ＭＯＧＵ,,株式会社,大阪府,大阪市城東区,成育５丁目１３番１２号,,27,118,5360007,,,,,,,2022-11-09,1,,,,,モグ,0
559,2120001250191,新規,0,2022-11-09,2022-11-09,株式会社ファーマシー・オフィスデポ,,株式会社,大阪府,大阪市中央区,博労町２丁目４番１１号中博ビル,,27,128,5410059,,,,,,,2022-11-09,1,,,,,ファーマシーオフィスデポ,0
560,2120001250217,新規,0,2022-11-09,2022-11-09,株式会社リンク,,株式会社,大阪府,枚方市,村野高見台９番１３号,,27,210,5730014,,,,,,,2022-11-09,1,,,,,リンク,0
565,2120003022812,新規,0,2022-11-09,2022-11-09,合同会社バールテクス,,合同会社,大阪府,大阪市西成区,南津守３丁目６－３１,,27,122,5570063,,,,,,,2022-11-09,1,,,,,バールテクス,0
568,2120101066496,新規,0,2022-11-09,2022-11-09,Ａｓｕｒａ株式会社,,株式会社,大阪府,和泉市,唐国町１丁目１２－６、２階,,27,219,5941151,,,,,,,2022-11-09,1,,,,,アスラ,0
569,2120101066505,新規,0,2022-11-09,2022-11-09,ＡＤｗｉｔｈ株式会社,,株式会社,大阪府,岸和田市,箕土路町１丁目１２番９号,,27,202,5960801,,,,,,,2022-11-09,1,,,,,アドウィズ,0
576,2122001036356,新規,0,2022-11-09,2022-11-09,株式会社オフレル,,株式会社,大阪府,柏原市,旭ケ丘２丁目３－６８,,27,221,5820026,,,,,,,2022-11-09,1,,,,,オフレル,0
583,2130001072998,新規,0,2022-11-09,2022-11-09,株式会社みんなのいえ,,株式会社,京都府,京都市上京区,長門町４１４番地,,26,102,6028353,,,,,,,2022-11-09,1,,,,,ミンナノイエ,0
598,2140001128031,新規,0,2022-11-09,2022-11-09,てるてるランド株式会社,,株式会社,兵庫県,加古川市,東神吉町出河原７３３番地の３０,,28,210,6750052,,,,,,,2022-11-09,1,,,,,テルテルランド,0
599,2140003018338,新規,0,2022-11-09,2022-11-09,クランフォール合同会社,,合同会社,兵庫県,芦屋市,打出小槌町３番２１－２０６号,00128424,28,206,6590028,,,,,,,2022-11-09,1,,,,,クランフォール,0
603,2160001024633,新規,0,2022-11-09,2022-11-09,優屋工機株式会社,,株式会社,滋賀県,甲賀市,水口町西林口１番５９－２６号,,25,209,5280025,,,,,,,2022-11-09,1,,,,,ユウヤコウキ,0
604,2160001024641,新規,0,2022-11-09,2022-11-09,株式会社ＭＡＲＫＳ．,,株式会社,滋賀県,近江八幡市,鷹飼町１５４６番地２,,25,204,5230891,,,,,,,2022-11-09,1,,,,,マークス,0
608,2160003002728,新規,0,2022-11-09,2022-11-09,合同会社あおい,,合同会社,滋賀県,長浜市,小野寺町４６５番地３,,25,203,5260221,,,,,,,2022-11-09,1,,,,,アオイ,0
612,2180001153785,新規,0,2022-11-09,2022-11-09,株式会社Ａｖｅｎｉｒ,,株式会社,愛知県,名古屋市中区,丸の内１丁目９番２１号,,23,106,4600002,,,,,,,2022-11-09,1,,,,,アヴェニール,0
616,2180003024464,新規,0,2022-11-09,2022-11-09,ＨＷ　Ｔｒａｄｉｎｇ合同会社,,合同会社,愛知県,名古屋市守山区,喜多山２丁目５番１５号昭栄コーポラス３０６号,,23,113,4630017,,,,,,,2022-11-09,1,,,,,エイチダブリュウトレイディング,0
618,2180301036797,新規,0,2022-11-09,2022-11-09,株式会社陽,,株式会社,愛知県,豊田市,丸山町４丁目３番地１０７,,23,211,4710832,,,,,,,2022-11-09,1,,,,,ヨウ,0
623,2190001029919,新規,0,2022-11-09,2022-11-09,株式会社クリアム,,株式会社,三重県,伊勢市,津村町１９８３番地,,24,203,5161103,,,,,,,2022-11-09,1,,,,,クリアム,0
625,2200005013405,新規,0,2022-11-09,2022-11-09,一般社団法人Ｗａｎｎａ　ｂｅ,,その他の設立登記法人,岐阜県,各務原市,那加吾妻町４５コーポＨＩＲＡＩ・１－Ｂ,,21,213,5040962,,,,,,,2022-11-09,1,,,,,ワナビー,0
628,2220001025121,新規,0,2022-11-09,2022-11-09,株式会社加賀きくらげ,,株式会社,石川県,金沢市,古府１丁目１８５番地,,17,201,9200362,,,,,,,2022-11-09,1,,,,,カガキクラゲ,0
630,2230001019584,新規,0,2022-11-09,2022-11-09,株式会社ＲｕＲｕ,,株式会社,富山県,富山市,黒崎１０１番地５,,16,201,9398214,,,,,,,2022-11-09,1,,,,,ルル,0
638,2240001060637,新規,0,2022-11-09,2022-11-09,Ｈ・Ｍ株式会社,,株式会社,広島県,広島市東区,戸坂大上４丁目２８番４号,,34,102,7320014,,,,,,,2022-11-09,1,,,,,エイチエム,0
640,2250001019839,新規,0,2022-11-09,2022-11-09,株式会社ＬＩＰＥＲＤ,,株式会社,山口県,周南市,久米中央４丁目５番３１号,,35,215,7450809,,,,,,,2022-11-09,1,,,,,リパード,0
649,2290001099514,新規,0,2022-11-09,2022-11-09,株式会社菊屋,,株式会社,福岡県,福岡市南区,老司２丁目２番１３号,,40,134,8111346,,,,,,,2022-11-09,1,,,,,キクヤ,0
650,2290001099547,新規,0,2022-11-09,2022-11-09,株式会社ＫＡＺＯＫＵ,,株式会社,福岡県,糸島市,神在西３丁目８番１号,,40,230,8191148,,,,,,,2022-11-09,1,,,,,カゾク,0
651,2290001099555,新規,0,2022-11-09,2022-11-09,株式会社ＶＮＳ,,株式会社,福岡県,福岡市博多区,博多駅東１丁目１１番１５号,,40,132,8120013,,,,,,,2022-11-09,1,,,,,ブイエヌエス,0
653,2290003013175,新規,0,2022-11-09,2022-11-09,ＡＫＲ合同会社,,合同会社,福岡県,那珂川市,片縄東１丁目１５番９－２０５号ソレアード,,40,231,8111204,,,,,,,2022-11-09,1,,,,,アクル,0
655,2290801029042,新規,0,2022-11-09,2022-11-09,ＩＮＴＥＧＹ株式会社,,株式会社,福岡県,北九州市八幡西区,永犬丸南町３丁目１３－１,,40,109,8070845,,,,,,,2022-11-09,1,,,,,インテジー,0
657,2300005007108,新規,0,2022-11-09,2022-11-09,一般社団法人鹿島ｄスポーツコミッション,,その他の設立登記法人,佐賀県,鹿島市,大字高津原１７７７番地１,,41,207,8491311,,,,,,,2022-11-09,1,,,,,カシマディースポーツコミッション,0
659,2310001018116,新規,0,2022-11-09,2022-11-09,アルマ株式会社,,株式会社,長崎県,佐世保市,皆瀬町６７番地６,,42,202,8570144,,,,,,,2022-11-09,1,,,,,アルマ,0
662,2330001030283,新規,0,2022-11-09,2022-11-09,トライデント株式会社,,株式会社,熊本県,上天草市,松島町阿村４１２番地３７,,43,212,8616101,,,,,,,2022-11-09,1,,,,,トライデント,0
666,2340001025159,新規,0,2022-11-09,2022-11-09,株式会社ＴＹＨ　ＧＲＯＵＰ,,株式会社,鹿児島県,鹿児島市,中央町２４－３７,,46,201,8900053,,,,,,,2022-11-09,1,,,,,ティーワイエイチグループ,0
668,2350005006113,新規,0,2022-11-09,2022-11-09,特定非営利活動法人子ども未来ＳＴＥＬＬＡ,,その他の設立登記法人,宮崎県,宮崎市,瀬頭２丁目６番１１号カーサステラ１階,,45,201,8800867,,,,,,,2022-11-09,1,,,,,コドモミライステラ,0
672,2360001031139,新規,0,2022-11-09,2022-11-09,ＪＥＭＳホールディングス株式会社,,株式会社,沖縄県,八重山郡竹富町,字上原５２０番地コーポＩＢＭ２－３,,47,381,9071541,,,,,,,2022-11-09,1,,,,,ジェームスホールディングス,0
673,2360001031171,新規,0,2022-11-09,2022-11-09,株式会社ＴＭＤ,,株式会社,沖縄県,中頭郡中城村,字南上原１０７４番地１ゆいハウス４０２,,47,328,9012424,,,,,,,2022-11-09,1,,,,,ティーエムディー,0
674,2360003012442,新規,0,2022-11-09,2022-11-09,合同会社山の茶屋楽水,,合同会社,沖縄県,南城市,玉城字玉城１９番地１,,47,215,9010604,,,,,,,2022-11-09,1,,,,,ヤマノチャヤラクスイ,0
677,2370001049238,新規,0,2022-11-09,2022-11-09,株式会社こだまランド,,株式会社,宮城県,仙台市若林区,鶴代町６番７７号,,04,103,9840001,,,,,,,2022-11-09,1,,,,,コダマランド,0
678,2370001049254,新規,0,2022-11-09,2022-11-09,株式会社蒼葉,,株式会社,宮城県,石巻市,門脇字青葉東１４２番地１,,04,202,9860853,,,,,,,2022-11-09,1,,,,,アオバ,0
688,2380001033232,新規,0,2022-11-09,2022-11-09,株式会社ティグレ,,株式会社,福島県,須賀川市,前田川字家内神２５番地９６,,07,207,9620814,,,,,,,2022-11-09,1,,,,,ティグレ,0
689,2380001033240,新規,0,2022-11-09,2022-11-09,和株式会社,,株式会社,福島県,福島市,吉倉字柳田１３番地の１ミニアムピースＩ－１０２,,07,201,9608165,,,,,,,2022-11-09,1,,,,,ナゴミ,0
690,2380001033249,新規,0,2022-11-09,2022-11-09,ＳＵＰＲＥＭＥ株式会社,,株式会社,福島県,いわき市,勿来町窪田町通１丁目１３５番地の３,,07,204,9790141,,,,,,,2022-11-09,1,,,,,シュプリーム,0
691,2380005012645,新規,0,2022-11-09,2022-11-09,一般社団法人ヒューマニタリアン・サポーツ,,その他の設立登記法人,福島県,二本松市,太田字西勝内６７番地,,07,210,9640111,,,,,,,2022-11-09,1,,,,,ヒューマニタリアンサポーツ,0
692,2410001013321,新規,0,2022-11-09,2022-11-09,株式会社ネクストプラン,,株式会社,秋田県,大館市,有浦１丁目８番５１号,,05,204,0170043,,,,,,,2022-11-09,1,,,,,ネクストプラン,0
693,2410003003717,新規,0,2022-11-09,2022-11-09,合同会社ファームとのせ,,合同会社,秋田県,大館市,山田字茂屋上羽立５７番地,,05,204,0183502,,,,,,,2022-11-09,1,,,,,ファームトノセ,0
696,2420001018071,新規,0,2022-11-09,2022-11-09,タナカグループホールディングス株式会社,,株式会社,青森県,八戸市,根城８丁目１４番９号,,02,203,0391166,,,,,,,2022-11-09,1,,,,,タナカグループホールディングス,0
718,2490001010328,新規,0,2022-11-09,2022-11-09,株式会社ＯＮＤＯ,,株式会社,高知県,土佐市,中島４０６－２,,39,205,7811151,,,,,,,2022-11-09,1,,,,,オンド,0
719,2490001010336,新規,0,2022-11-09,2022-11-09,株式会社ラネット,,株式会社,高知県,高知市,朝倉西町２丁目１６番１２－３０５号,,39,201,7808077,,,,,,,2022-11-09,1,,,,,ラネット,0
724,2700150112670,新規,0,2022-11-09,2022-11-09,Ｃｅｌｅｓｔｉａｌ　Ａｖｉａｔｉｏｎ　Ｔｒａｄｉｎｇ　５５　Ｌｉｍｉｔｅｄ,,外国会社等,,,,,,,,Ａｖｉａｔｉｏｎ　Ｈｏｕｓｅ　Ｓｈａｎｎｏｎ　Ｃｏ　Ｃｌａｒｅ　Ｉｒｅｌａｎｄ　Ｖ１４　ＡＮ２９,,,,,,2022-11-09,1,,,,,セレスシヤルエヴイエイシヨントレーデイングフイフテイフアイブリミテツド,0
729,3010001230600,新規,0,2022-11-09,2022-11-09,株式会社ジザイエ,,株式会社,東京都,文京区,本郷４丁目１０番６－５０７号,,13,105,1130033,,,,,,,2022-11-09,1,,,,,ジザイエ,0
730,3010001230682,新規,0,2022-11-09,2022-11-09,ＲＥＷＩＮＤ株式会社,,株式会社,東京都,中央区,銀座３丁目４番１号大倉別館５階,,13,102,1040061,,,,,,,2022-11-09,1,,,,,リワインド,0
731,3010001230690,新規,0,2022-11-09,2022-11-09,＿庭商事株式会社,00128405,株式会社,東京都,中央区,勝どき２丁目８番１２東京ビュック中銀１２０７号,,13,102,1040054,,,,,,,2022-11-09,1,,,,,ゲツテイショウジ,0
732,3010001230749,新規,0,2022-11-09,2022-11-09,株式会社ＳＧＦ,,株式会社,東京都,千代田区,平河町１丁目５－１５ＶＯＲＴ平河町１０階,,13,101,1020093,,,,,,,2022-11-09,1,,,,,エスジーエフ,0
738,3010003039040,新規,0,2022-11-09,2022-11-09,合同会社ピーエフトレーニング,,合同会社,東京都,中央区,銀座１丁目１２－４Ｎ＆ＥＢＬＤ．７階,,13,102,1040061,,,,,,,2022-11-09,1,,,,,ピーエフトレーニング,0
739,3010003039057,新規,0,2022-11-09,2022-11-09,合同会社さんぺい,,合同会社,東京都,千代田区,内神田１丁目１２‐４,,13,101,1010047,,,,,,,2022-11-09,1,,,,,サンペイ,0
741,3010103002022,新規,0,2022-11-09,2022-11-09,Ｓｈａｎｔｉ合同会社,,合同会社,東京都,八王子市,松が谷８番地１－５０１号,,13,201,1920354,,,,,,,2022-11-09,1,,,,,シャンティ,0
745,3010401170660,新規,0,2022-11-09,2022-11-09,株式会社ジェネシス,,株式会社,東京都,港区,六本木３丁目１６番１９号,,13,103,1060032,,,,,,,2022-11-09,1,,,,,ジェネシス,0
746,3010401170702,新規,0,2022-11-09,2022-11-09,株式会社インカム,,株式会社,東京都,港区,北青山１丁目４番３号,,13,103,1070061,,,,,,,2022-11-09,1,,,,,インカム,0
749,3010403028816,新規,0,2022-11-09,2022-11-09,合同会社ＳＫＴＣ,,合同会社,東京都,港区,六本木７丁目４番８号ＴＫＧビル３０１,,13,103,1060032,,,,,,,2022-11-09,1,,,,,エスケーティーシー,0
752,3010501049598,新規,0,2022-11-09,2022-11-09,大木株式会社,,株式会社,東京都,台東区,台東３丁目３９番５号,,13,106,1100016,,,,,,,2022-11-09,1,,,,,オオキ,0
759,3010601062105,新規,0,2022-11-09,2022-11-09,ＸＡＶＡ株式会社,,株式会社,東京都,墨田区,錦糸１丁目２番１号アルカセントラル１４ＦＳ０２,,13,107,1300013,,,,,,,2022-11-09,1,,,,,サーファ,0
760,3010601062113,新規,0,2022-11-09,2022-11-09,株式会社ＢＬＵＥＣＯＲＥ　ＣＯＭＰＡＮＹ　ＪＡＰＡＮ,,株式会社,東京都,江東区,森下３丁目４番５号,,13,108,1350004,,,,,,,2022-11-09,1,,,,,ブルーコアカンパニージャパン,0
762,3010701043426,新規,0,2022-11-09,2022-11-09,アディッシュオーパス株式会社,,株式会社,東京都,品川区,西五反田１丁目２１番８号,,13,109,1410031,,,,,,,2022-11-09,1,,,,,アディッシュオーパス,0
764,3010703006455,新規,0,2022-11-09,2022-11-09,合同会社Ｃａｒｕｃａｒｕ,,合同会社,東京都,品川区,西大井２丁目２２－１シーフォルム西大井１１０２号室,,13,109,1400015,,,,,,,2022-11-09,1,,,,,カルカル,0
770,3010901051930,新規,0,2022-11-09,2022-11-09,株式会社ＹＵＲＡパーソナル,,株式会社,東京都,世田谷区,上馬１丁目３２番３号ＣＯＭＢＯＸ三軒茶屋４階,,13,112,1540011,,,,,,,2022-11-09,1,,,,,ユラパーソナル,0
776,3011001150664,新規,0,2022-11-09,2022-11-09,ＴＫホテル準備株式会社,,株式会社,東京都,渋谷区,南平台町５番６号,,13,113,1500036,,,,,,,2022-11-09,1,,,,,ティーケーホテルジュンビ,0
777,3011001150680,新規,0,2022-11-09,2022-11-09,株式会社ネクシィーズ・テクノ,,株式会社,東京都,渋谷区,桜丘町２０番４号,,13,113,1500031,,,,,,,2022-11-09,1,,,,,ネクシィーズテクノ,0
778,3011001150813,新規,0,2022-11-09,2022-11-09,株式会社ＨＮ　Ｃｏｍｐａｎｙ,,株式会社,東京都,目黒区,南３丁目１２番２０号２Ｆ,,13,110,1520013,,,,,,,2022-11-09,1,,,,,エイチエヌカンパニー,0
780,3011003015642,新規,0,2022-11-09,2022-11-09,Ｔｈｅ　Ｈｏｍｅ合同会社,,合同会社,東京都,渋谷区,神宮前６丁目１２番２６号,,13,113,1500001,,,,,,,2022-11-09,1,,,,,ザホーム,0
781,3011003015675,新規,0,2022-11-09,2022-11-09,ＲＯＮＡ　ｃｒｅａｔｉｏｎ合同会社,,合同会社,東京都,渋谷区,神宮前６丁目２３番４号桑野ビル２階,,13,113,1500001,,,,,,,2022-11-09,1,,,,,ロナクリエイション,0
782,3011005009808,新規,0,2022-11-09,2022-11-09,一般社団法人ＦｌｕｔｔｅｒＫａｉｇｉ,,その他の設立登記法人,東京都,渋谷区,渋谷２丁目１９番１５号宮益坂ビルディング６０９,,13,113,1500002,,,,,,,2022-11-09,1,,,,,フラッターカイギ,0
787,3011101100734,新規,0,2022-11-09,2022-11-09,クロスデータ株式会社,,株式会社,東京都,新宿区,新宿３丁目４番１号,,13,104,1600022,,,,,,,2022-11-09,1,,,,,クロスデータ,0
788,3011101100750,新規,0,2022-11-09,2022-11-09,株式会社新大徳,,株式会社,東京都,新宿区,大久保２丁目３番１８号三蔵住建第一ビル,,13,104,1690072,,,,,,,2022-11-09,1,,,,,シンダイトク,0
789,3011101100783,新規,0,2022-11-09,2022-11-09,ＡＲＩＧＡＴＯ株式会社,,株式会社,東京都,新宿区,納戸町２８－１－２０１,,13,104,1620837,,,,,,,2022-11-09,1,,,,,アリガト,0
791,3011103012358,新規,0,2022-11-09,2022-11-09,合同会社ＡＫＳ,,合同会社,東京都,新宿区,西新宿４丁目４１－１０－１３０６,,13,104,1600023,,,,,,,2022-11-09,1,,,,,エーケーエス,0
795,3011205002521,新規,0,2022-11-09,2022-11-09,一般社団法人プリンセチア,,その他の設立登記法人,東京都,中野区,新井２丁目７番１３号,,13,114,1650026,,,,,,,2022-11-09,1,,,,,プリンセチア,0
801,3011401024666,新規,0,2022-11-09,2022-11-09,株式会社エムズスタッフ,,株式会社,東京都,板橋区,東坂下２丁目４番１４号,,13,119,1740042,,,,,,,2022-11-09,1,,,,,エムズスタッフ,0
805,3011603003740,新規,0,2022-11-09,2022-11-09,合同会社アークトゥルス,,合同会社,東京都,練馬区,高野台５丁目１４番２６号ソーシャルレジデンス石神井公園１０５,,13,120,1770033,,,,,,,2022-11-09,1,,,,,アークトゥルス,0
810,3011803005363,新規,0,2022-11-09,2022-11-09,合同会社サクセス,,合同会社,東京都,足立区,中央本町２丁目２３番７号,,13,121,1200011,,,,,,,2022-11-09,1,,,,,サクセス,0
817,3013301049883,新規,0,2022-11-09,2022-11-09,アンダースモーク株式会社,,株式会社,東京都,豊島区,高田１丁目１８番６－６３５号,,13,116,1710033,,,,,,,2022-11-09,1,,,,,アンダースモーク,0
818,3013303006354,新規,0,2022-11-09,2022-11-09,ヒマワリ合同会社,,合同会社,東京都,豊島区,池袋本町４丁目３４番４号コナ・コースト３０３号室,,13,116,1700011,,,,,,,2022-11-09,1,,,,,ヒマワリ,0
823,3020001148825,新規,0,2022-11-09,2022-11-09,株式会社磯貝,,株式会社,神奈川県,横浜市西区,高島２丁目１１番２号スカイメナー横浜５１９,,14,103,2200011,,,,,,,2022-11-09,1,,,,,イソガイ,0
836,3030001150887,新規,0,2022-11-09,2022-11-09,イースト企画株式会社,,株式会社,埼玉県,川口市,戸塚境町３番２号,,11,203,3330806,,,,,,,2022-11-09,1,,,,,イーストキカク,0
837,3030001150961,新規,0,2022-11-09,2022-11-09,株式会社ＳＩＧＭＡ,,株式会社,埼玉県,川口市,並木１丁目８番３１号,,11,203,3320034,,,,,,,2022-11-09,1,,,,,シグマ,0
838,3030001150978,新規,0,2022-11-09,2022-11-09,株式会社再生美容室リネジャパン,,株式会社,埼玉県,さいたま市大宮区,浅間町１丁目１０６番地６,,11,103,3300842,,,,,,,2022-11-09,1,,,,,サイセイビヨウシツリネジャパン,0
839,3030001150986,新規,0,2022-11-09,2022-11-09,ＴＭコンサルタント株式会社,,株式会社,埼玉県,吉川市,保１丁目３１番地５,,11,243,3420041,,,,,,,2022-11-09,1,,,,,ティーエムコンサルタント,0
840,3030001151010,新規,0,2022-11-09,2022-11-09,Ｓ・Ｋ株式会社,,株式会社,埼玉県,所沢市,中新井３丁目２０－３５,,11,208,3590041,,,,,,,2022-11-09,1,,,,,エスケー,0
845,3030003020543,新規,0,2022-11-09,2022-11-09,合同会社別所沼どうぶつ病院,,合同会社,埼玉県,さいたま市南区,別所３丁目３８番２９号,,11,108,3360021,,,,,,,2022-11-09,1,,,,,ベッショヌマドウブツビョウイン,0
846,3030003020551,新規,0,2022-11-09,2022-11-09,ＮＥトレード合同会社,,合同会社,埼玉県,上尾市,東町１丁目１２番１８－２号,,11,219,3620031,,,,,,,2022-11-09,1,,,,,エヌイートレード,0
856,3040001125731,新規,0,2022-11-09,2022-11-09,株式会社マリヤファーム,,株式会社,千葉県,木更津市,真里谷２６９６番地,,12,206,2920201,,,,,,,2022-11-09,1,,,,,マリヤファーム,0
857,3040001125756,新規,0,2022-11-09,2022-11-09,株式会社エムスリー設計事務所,,株式会社,千葉県,浦安市,東野２丁目２３番６－３０３号,,12,227,2790042,,,,,,,2022-11-09,1,,,,,エムスリーセッケイジムショ,0
865,3040003021227,新規,0,2022-11-09,2022-11-09,合同会社Ａ・Ｉ・Ｎ　ＥＮＴＥＲＰＲＩＳＥＳ,,合同会社,千葉県,山武郡九十九里町,作田５６３３番地５８,,12,403,2830101,,,,,,,2022-11-09,1,,,,,,0
866,3040003021235,新規,0,2022-11-09,2022-11-09,ＭＩＲＡＣＬＥ合同会社,,合同会社,千葉県,千葉市緑区,おゆみ野南６丁目７－２イズヤマリゾート,,12,105,2660033,,,,,,,2022-11-09,1,,,,,ミラクル,0
867,3040003021243,新規,0,2022-11-09,2022-11-09,合同会社Ｍｃｉｔｙ,,合同会社,千葉県,船橋市,浜町２丁目２番１号,,12,204,2730012,,,,,,,2022-11-09,1,,,,,エムシティ,0
870,3050003007002,新規,0,2022-11-09,2022-11-09,創成企画合同会社,,合同会社,茨城県,守谷市,御所ケ丘４丁目７番８号御所ケ丘ドリームハイツ１０２号室,,08,224,3020119,,,,,,,2022-11-09,1,,,,,ソウセイキカク,0
871,3060001035433,新規,0,2022-11-09,2022-11-09,瀧口ファーム株式会社,,株式会社,栃木県,栃木市,大平町西野田１０７７番地,,09,203,3294421,,,,,,,2022-11-09,1,,,,,タキグチファーム,0
879,3080101023633,新規,0,2022-11-09,2022-11-09,株式会社４７工務店,,株式会社,静岡県,富士市,五貫島２００番地グリシーヌＩ－１０５号,00128411,22,210,4160946,,,,,,,2022-11-09,1,,,,,ヨンナナコウムテン,0
881,3080103002684,新規,0,2022-11-09,2022-11-09,ＭＩＥＵＸマリッジコンサルティング合同会社,,合同会社,静岡県,富士市,天間７１８番地の１,,22,210,4190205,,,,,,,2022-11-09,1,,,,,ミューマリッジコンサルティング,0
885,3080403004653,新規,0,2022-11-09,2022-11-09,向宿企画合同会社,,合同会社,静岡県,浜松市中区,向宿２丁目２３番７号,,22,131,4300851,,,,,,,2022-11-09,1,,,,,ムコウジュクキカク,0
912,3120001250100,新規,0,2022-11-09,2022-11-09,ジェイシップウエスト株式会社,,株式会社,大阪府,大阪市中央区,西心斎橋１丁目１２－２３－１２０５,,27,128,5420086,,,,,,,2022-11-09,1,,,,,ジェイシップウエスト,0
913,3120001250133,新規,0,2022-11-09,2022-11-09,夢創株式会社,,株式会社,大阪府,大阪市西区,南堀江１丁目２６番２７号南堀江スカイハイツ１１０２号室,,27,106,5500015,,,,,,,2022-11-09,1,,,,,ユメソウ,0
914,3120001250141,新規,0,2022-11-09,2022-11-09,大森プランニング株式会社,,株式会社,大阪府,大阪市西成区,橘１丁目１１番２８号,,27,122,5570051,,,,,,,2022-11-09,1,,,,,オオモリプランニング,0
915,3120001250182,新規,0,2022-11-09,2022-11-09,株式会社ミント,,株式会社,大阪府,大阪市中央区,瓦町２丁目４番５号,,27,128,5410048,,,,,,,2022-11-09,1,,,,,ミント,0
916,3120001250208,新規,0,2022-11-09,2022-11-09,株式会社Ｌｕｎａ,,株式会社,大阪府,大阪市福島区,海老江１丁目１３番６号,,27,103,5530001,,,,,,,2022-11-09,1,,,,,ルナ,0
925,3120101066495,新規,0,2022-11-09,2022-11-09,株式会社アーキテクト,,株式会社,大阪府,泉南郡田尻町,吉見５８０番地の１４,,27,362,5980092,,,,,,,2022-11-09,1,,,,,アーキテクト,0
926,3120101066512,新規,0,2022-11-09,2022-11-09,株式会社リフト,,株式会社,大阪府,堺市西区,菱木１丁２４４７番地１,,27,144,5938315,,,,,,,2022-11-09,1,,,,,リフト,0
932,3120903004355,新規,0,2022-11-09,2022-11-09,合同会社ＹＯＵ‐ＢＡＳＥ,,合同会社,大阪府,高槻市,大和１丁目３番８号,,27,207,5691047,,,,,,,2022-11-09,1,,,,,ユウベース,0
933,3122001036347,新規,0,2022-11-09,2022-11-09,株式会社グランビルド,,株式会社,大阪府,八尾市,太田７丁目２２番地,,27,212,5810037,,,,,,,2022-11-09,1,,,,,グランビルド,0
938,3130001072972,新規,0,2022-11-09,2022-11-09,株式会社Ｓ技建,,株式会社,京都府,城陽市,平川広田７５番地の２,,26,207,6100101,,,,,,,2022-11-09,1,,,,,エスギケン,0
939,3130001072997,新規,0,2022-11-09,2022-11-09,駿工株式会社,,株式会社,京都府,京都市右京区,花園伊町２０番地,,26,108,6168042,,,,,,,2022-11-09,1,,,,,シュンコウ,0
940,3130001073005,新規,0,2022-11-09,2022-11-09,株式会社ｂｏｋｕｍｉｎ,,株式会社,京都府,京都市中京区,新町通六角下る六角町３５７－４,,26,104,6048212,,,,,,,2022-11-09,1,,,,,ボクミン,0
941,3130001073013,新規,0,2022-11-09,2022-11-09,株式会社ＭＨホールディングス,,株式会社,京都府,京都市下京区,四条大宮町２番地,,26,106,6000000,,,,,,,2022-11-09,1,,,,,エムエイチホールディングス,0
942,3130003008289,新規,0,2022-11-09,2022-11-09,合同会社ＡＩＲ,,合同会社,京都府,京都市中京区,石橋町４さんてらすびる４Ｆ,,26,104,6040043,,,,,,,2022-11-09,1,,,,,エアー,0
952,3140001128006,新規,0,2022-11-09,2022-11-09,エスワイ・エステート株式会社,,株式会社,兵庫県,姫路市,網干区和久１２５番地１６,,28,201,6711227,,,,,,,2022-11-09,1,,,,,エスワイエステート,0
953,3140001128014,新規,0,2022-11-09,2022-11-09,株式会社サンスレッド,,株式会社,兵庫県,神戸市兵庫区,駅南通５丁目１番２－２３０７号,,28,105,6520897,,,,,,,2022-11-09,1,,,,,サンスレッド,0
954,3140001128039,新規,0,2022-11-09,2022-11-09,ミライズ株式会社,,株式会社,兵庫県,西宮市,門戸西町９番３２－２０７号,,28,204,6620828,,,,,,,2022-11-09,1,,,,,ミライズ,0
963,3160001024640,新規,0,2022-11-09,2022-11-09,Ｓｕｐｅｒｉｏｒ夢暮株式会社,,株式会社,滋賀県,大津市,南志賀３丁目２０番４０号,,25,201,5200011,,,,,,,2022-11-09,1,,,,,スペリオルムク,0
964,3160003002727,新規,0,2022-11-09,2022-11-09,ＭＪパートナーズ合同会社,,合同会社,滋賀県,草津市,大路１丁目９番１号アトラスタワー草津１５０５,,25,206,5250032,,,,,,,2022-11-09,1,,,,,エムジェイパートナーズ,0
976,3180001153735,新規,0,2022-11-09,2022-11-09,株式会社トモ・クリエイト,,株式会社,愛知県,名古屋市名東区,勢子坊１丁目１４０４番地の１,,23,115,4650055,,,,,,,2022-11-09,1,,,,,トモクリエイト,0
977,3180001153784,新規,0,2022-11-09,2022-11-09,株式会社Ｆｏｒｍｅ,,株式会社,愛知県,名古屋市中村区,那古野１丁目３９番３号,00128406,23,105,4500001,,,,,,,2022-11-09,1,,,,,フォルム,0
986,3190001029918,新規,0,2022-11-09,2022-11-09,株式会社矢田組,,株式会社,三重県,鈴鹿市,郡山町２００２番地の１４７,,24,207,5100263,,,,,,,2022-11-09,1,,,,,ヤダグミ,0
996,3240001060628,新規,0,2022-11-09,2022-11-09,株式会社ＦａｎＤａｙ,,株式会社,広島県,東広島市,西条町郷曽２８２番地８,,34,212,7390035,,,,,,,2022-11-09,1,,,,,ファンデイ,0
1001,3260005011154,新規,0,2022-11-09,2022-11-09,特定非営利活動法人ゆうしん,,その他の設立登記法人,岡山県,倉敷市,船穂町船穂２８４６番地１,,33,202,7100261,,,,,,,2022-11-09,1,,,,,ユウシン,0
1007,3290001099380,新規,0,2022-11-09,2022-11-09,株式会社デザリンク,,株式会社,福岡県,福岡市中央区,薬院２丁目３番１１－１３０４号,,40,133,8100022,,,,,,,2022-11-09,1,,,,,デザリンク,0
1008,3290001099513,新規,0,2022-11-09,2022-11-09,株式会社ＡＩ‐ｗｏｒｋｓ,,株式会社,福岡県,福岡市中央区,大名２丁目９番３５号トウセン天神ビル９階,,40,133,8100041,,,,,,,2022-11-09,1,,,,,アイワークス,0
1009,3290001099521,新規,0,2022-11-09,2022-11-09,株式会社芳野地所,,株式会社,福岡県,飯塚市,南尾４００番地６,,40,205,8200072,,,,,,,2022-11-09,1,,,,,ヨシノチショ,0
1013,3310001018115,新規,0,2022-11-09,2022-11-09,株式会社ＯＲＡＮＧＥ,,株式会社,長崎県,佐世保市,峰坂町７番３３号ドミナントヒルズ３０６号室,,42,202,8570861,,,,,,,2022-11-09,1,,,,,オレンジ,0
1016,3330001030274,新規,0,2022-11-09,2022-11-09,株式会社てんびんの会,,株式会社,熊本県,熊本市西区,沖新町３４０５番地,,43,103,8615273,,,,,,,2022-11-09,1,,,,,テンビンノカイ,0
1018,3330005010578,新規,0,2022-11-09,2022-11-09,特定非営利活動法人ほのぼのクラブ,,その他の設立登記法人,熊本県,水俣市,丸島町２丁目８番１５号,,43,205,8670058,,,,,,,2022-11-09,1,,,,,ホノボノクラブ,0
1020,3350001018037,新規,0,2022-11-09,2022-11-09,株式会社ほっぺいちご,,株式会社,宮崎県,宮崎市,清武町今泉甲３７０５番地４,,45,201,8891602,,,,,,,2022-11-09,1,,,,,ホッペイチゴ,0
1022,3350005006112,新規,0,2022-11-09,2022-11-09,特定非営利活動法人チャイルドホープ,,その他の設立登記法人,宮崎県,宮崎市,清武町木原５２００発達泌尿生殖医学講座小児科学分野,,45,201,8891601,,,,,,,2022-11-09,1,,,,,チャイルドホープ,0
1025,3360003012441,新規,0,2022-11-09,2022-11-09,合同会社ビックキャッスル,,合同会社,沖縄県,島尻郡南風原町,字照屋３８番地,,47,350,9011116,,,,,,,2022-11-09,1,,,,,ビックキャッスル,0
1028,3370001049245,新規,0,2022-11-09,2022-11-09,体ウェルネス株式会社,,株式会社,宮城県,仙台市若林区,かすみ町１６番１４号,,04,103,9840822,,,,,,,2022-11-09,1,,,,,カラダウェルネス,0
1029,3370001049253,新規,0,2022-11-09,2022-11-09,株式会社Ｖｅｃｔ,,株式会社,宮城県,仙台市太白区,長町６丁目１３番２号フリシャー仙台ビル１０３号,,04,104,9820011,,,,,,,2022-11-09,1,,,,,ベクト,0
1037,3380001033223,新規,0,2022-11-09,2022-11-09,株式会社Ｌｙｃｏｒｉｓ,,株式会社,福島県,福島市,泉字南谷地５番地の５,,07,201,9608253,,,,,,,2022-11-09,1,,,,,リコリス,0
1038,3380001033248,新規,0,2022-11-09,2022-11-09,株式会社月夜美,,株式会社,福島県,いわき市,泉ケ丘２丁目１７番地の９,,07,204,9718171,,,,,,,2022-11-09,1,,,,,ツキヨミ,0
1039,3380001033256,新規,0,2022-11-09,2022-11-09,株式会社アフレッシュ,,株式会社,福島県,郡山市,富田町字塩ノ草９０番１０,,07,203,9638041,,,,,,,2022-11-09,1,,,,,アフレッシュ,0
1040,3380003005311,新規,0,2022-11-09,2022-11-09,合同会社サラダハウス,,合同会社,福島県,福島市,丸子字広町３０番地の５,,07,201,9600111,,,,,,,2022-11-09,1,,,,,サラダハウス,0
1046,3410003003716,新規,0,2022-11-09,2022-11-09,建築工房フジヨシ合同会社,,合同会社,秋田県,横手市,増田町増田字上川原８９番地６,,05,203,0190701,,,,,,,2022-11-09,1,,,,,ケンチクコウボウフジヨシ,0
1047,3420001018070,新規,0,2022-11-09,2022-11-09,株式会社いえナビ,,株式会社,青森県,北津軽郡鶴田町,大字鶴田字前田１１２番地７,,02,384,0383503,,,,,,,2022-11-09,1,,,,,イエナビ,0
1051,3430001087809,新規,0,2022-11-09,2022-11-09,株式会社ＬａＬ,,株式会社,北海道,札幌市中央区,南十条西８丁目４番１０－２０１号,,01,101,0640810,,,,,,,2022-11-09,1,,,,,ラル,0
1052,3430001087817,新規,0,2022-11-09,2022-11-09,株式会社インフィニティ・プラス,,株式会社,北海道,札幌市北区,北二十一条西３丁目２番５－１０１号,,01,102,0010021,,,,,,,2022-11-09,1,,,,,インフィニティプラス,0
1055,3430003014439,新規,0,2022-11-09,2022-11-09,合同会社バレンティア・ラボ,,合同会社,北海道,札幌市手稲区,西宮の沢二条３丁目９番２９号,,01,109,0060002,,,,,,,2022-11-09,1,,,,,バレンティアラボ,0
1058,3470001019329,新規,0,2022-11-09,2022-11-09,株式会社対馬工業,,株式会社,香川県,善通寺市,吉原町２３２８番地３,,37,204,7650061,,,,,,,2022-11-09,1,,,,,ツシマコウギョウ,0
1060,3480001011912,新規,0,2022-11-09,2022-11-09,株式会社白桃さと美デザイン事務所,,株式会社,徳島県,徳島市,沖浜町大木２４７番地,,36,201,7708051,,,,,,,2022-11-09,1,,,,,シラモモサトミデザインジムショ,0
1061,3480001011920,新規,0,2022-11-09,2022-11-09,Ｍ．Ｃケアネス株式会社,,株式会社,徳島県,板野郡北島町,鯛浜字かや１２２番地３,,36,402,7710204,,,,,,,2022-11-09,1,,,,,エムドットシーケアネス,0
1078,4010001230590,新規,0,2022-11-09,2022-11-09,株式会社ＪＲＩ,,株式会社,東京都,中央区,銀座１丁目２２番１１号銀座大竹ビジデンス２階,,13,102,1040061,,,,,,,2022-11-09,1,,,,,ジェイアールアイ,0
1079,4010001230673,新規,0,2022-11-09,2022-11-09,株式会社ＭＳこども研究所,,株式会社,東京都,中央区,銀座１丁目２２番１１号銀座大竹ビジデンス２階,,13,102,1040061,,,,,,,2022-11-09,1,,,,,エムエスコドモケンキュウジョ,0
1080,4010001230756,新規,0,2022-11-09,2022-11-09,株式会社アクイラＰＲ,,株式会社,東京都,中央区,銀座１丁目１２－４Ｎ＆ＥＢＬＤ．７階,,13,102,1040061,,,,,,,2022-11-09,1,,,,,アクイラピーアール,0
1081,4010003039007,新規,0,2022-11-09,2022-11-09,ミチシルベキャピタル合同会社,,合同会社,東京都,千代田区,霞が関３丁目２番５号,,13,101,1000013,,,,,,,2022-11-09,1,,,,,ミチシルベキャピタル,0
1084,4010005035697,新規,0,2022-11-09,2022-11-09,一般社団法人Ｔｈｅ　ＭｅｄＴｅｃｈ　Ａｃａｄｅｍｙ,,その他の設立登記法人,東京都,中央区,日本橋本町３丁目１１－５日本橋ライフサイエンスビル２，＃６０１,,13,102,1030023,,,,,,,2022-11-09,1,,,,,ザメドテックアカデミー,0
1085,4010005035739,新規,0,2022-11-09,2022-11-09,一般財団法人国際人材活躍支援機構,,その他の設立登記法人,東京都,千代田区,神田三崎町３丁目１番１６号,,13,101,1010061,,,,,,,2022-11-09,1,,,,,コクサイジンザイカツヤクシエンキコウ,0
1092,4010401170627,新規,0,2022-11-09,2022-11-09,株式会社ＯＧＵ　ＲＯＯＭ,,株式会社,東京都,港区,南青山２丁目２番１５号,,13,103,1070062,,,,,,,2022-11-09,1,,,,,オグルーム,0
1093,4010401170635,新規,0,2022-11-09,2022-11-09,株式会社ｓｈｉｒｏｒｏ,,株式会社,東京都,港区,浜松町２丁目２番１５号浜松町ダイヤビル２Ｆ,,13,103,1050013,,,,,,,2022-11-09,1,,,,,シロロ,0
1094,4010401170718,新規,0,2022-11-09,2022-11-09,ＬＳ‐ＳＨＩＰ第３０号株式会社,,株式会社,東京都,港区,六本木１丁目６番１号,,13,103,1060032,,,,,,,2022-11-09,1,,,,,エルエスシップダイサンジュウゴウ,0
1103,4010601062112,新規,0,2022-11-09,2022-11-09,株式会社Ｐｅａｃｅ　Ｔｉｍｅ,,株式会社,東京都,江東区,富岡１丁目１２番４号み満きビル１Ｆ,,13,108,1350047,,,,,,,2022-11-09,1,,,,,ピースタイム,0
1105,4010603009838,新規,0,2022-11-09,2022-11-09,合同会社カメノコプロ,,合同会社,東京都,江東区,北砂６丁目１２番６号,,13,108,1360073,,,,,,,2022-11-09,1,,,,,カメノコプロ,0
1106,4010701043441,新規,0,2022-11-09,2022-11-09,株式会社Ｒｅｓｉ　Ｌｉｎｋ,,株式会社,東京都,品川区,西五反田５丁目３０番１９号ハイタウン目黒１０３,,13,109,1410031,,,,,,,2022-11-09,1,,,,,レジリンク,0
1110,4010903007764,新規,0,2022-11-09,2022-11-09,ドッグウッドコンサルティング合同会社,,合同会社,東京都,世田谷区,上野毛４丁目２２番１８－２０４号,,13,112,1580093,,,,,,,2022-11-09,1,,,,,ドッグウッドコンサルティング,0
1118,4011001150705,新規,0,2022-11-09,2022-11-09,株式会社ｔｕｌｌｅ,,株式会社,東京都,渋谷区,円山町５番５号Ｎａｖｉ渋谷Ｖ３階,,13,113,1500044,,,,,,,2022-11-09,1,,,,,,0
1119,4011001150713,新規,0,2022-11-09,2022-11-09,株式会社ｃｓｆ,,株式会社,東京都,渋谷区,神宮前６丁目１５番１４号,,13,113,1500001,,,,,,,2022-11-09,1,,,,,シーエスエフ,0
1124,4011003015641,新規,0,2022-11-09,2022-11-09,ｇｒａｔｅｆｕｌ合同会社,,合同会社,東京都,渋谷区,道玄坂１丁目１０－８渋谷道玄坂ビル２Ｆ－Ｃ,,13,113,1500043,,,,,,,2022-11-09,1,,,,,グレートフル,0
1125,4011005009807,新規,0,2022-11-09,2022-11-09,一般社団法人生命科学ビジュアルコミュニケーション協会,,その他の設立登記法人,東京都,目黒区,上目黒３丁目１０番３－２１４号メイツ扶翼中目黒,,13,110,1530051,,,,,,,2022-11-09,1,,,,,セイメイカガクビジュアルコミュニケーションキョウカイ,0
1130,4011101100733,新規,0,2022-11-09,2022-11-09,通信事業株式会社,,株式会社,東京都,新宿区,西新宿６丁目１２番４号,,13,104,1600023,,,,,,,2022-11-09,1,,,,,ツウシンジギョウ,0
1131,4011101100766,新規,0,2022-11-09,2022-11-09,株式会社ライオンインテリアデザイン,,株式会社,東京都,新宿区,歌舞伎町２丁目４２－１１－１０２,,13,104,1600021,,,,,,,2022-11-09,1,,,,,ライオンインテリアデザイン,0
1132,4011101100782,新規,0,2022-11-09,2022-11-09,株式会社みどるふぃーるど,,株式会社,東京都,新宿区,百人町２丁目１７番１２号,,13,104,1690073,,,,,,,2022-11-09,1,,,,,ミドルフィールド,0
1139,4011501028640,新規,0,2022-11-09,2022-11-09,株式会社Ｒｅｖｏｐｐ,,株式会社,東京都,北区,浮間２丁目２２番９－６０４号,,13,117,1150051,,,,,,,2022-11-09,1,,,,,レボップ,0
1140,4011501028649,新規,0,2022-11-09,2022-11-09,日本延時製薬株式会社,,株式会社,東京都,荒川区,南千住３丁目２７－２浅草ビル５０８号室,,13,118,1160003,,,,,,,2022-11-09,1,,,,,ニッボンノブトキセイヤク,0
1144,4011803005362,新規,0,2022-11-09,2022-11-09,合同会社ベストサービス,,合同会社,東京都,葛飾区,鎌倉１丁目６番１５号,,13,122,1250053,,,,,,,2022-11-09,1,,,,,ベストサービス,0
1146,4012701017334,新規,0,2022-11-09,2022-11-09,富士見ホールディング株式会社,,株式会社,東京都,清瀬市,中里４丁目８３３番地,,13,221,2040003,,,,,,,2022-11-09,1,,,,,フジミホールディング,0
1147,4012701017342,新規,0,2022-11-09,2022-11-09,株式会社ＩＣＮＳコンサルティング,,株式会社,東京都,小平市,津田町３丁目３２－５,,13,211,1870025,,,,,,,2022-11-09,1,,,,,アイシーエヌエスコンサルティング,0
1148,4012705002332,新規,0,2022-11-09,2022-11-09,特定非営利活動法人ｘＴＲｅｅＥ,,その他の設立登記法人,東京都,小平市,上水南町３丁目３０番２０号,,13,211,1870021,,,,,,,2022-11-09,1,,,,,クロスツリー,0
1162,4020001148898,新規,0,2022-11-09,2022-11-09,株式会社マネープライム,,株式会社,神奈川県,川崎市中原区,市ノ坪１２８番地１,,14,133,2110016,,,,,,,2022-11-09,1,,,,,マネープライム,0
1163,4020001148923,新規,0,2022-11-09,2022-11-09,Ｖａｌｕｅ　Ｃｏｎｎｅｃｔｅｄ株式会社,,株式会社,神奈川県,横浜市鶴見区,豊岡町２３番７－２０２号,,14,101,2300062,,,,,,,2022-11-09,1,,,,,バリューコネクテッド,0
1164,4020001148956,新規,0,2022-11-09,2022-11-09,株式会社松林甫,,株式会社,神奈川県,横浜市都筑区,川和町８９０番地,,14,118,2240057,,,,,,,2022-11-09,1,,,,,ショウリンポウ,0
1169,4020003022713,新規,0,2022-11-09,2022-11-09,テクガイア２１合同会社,,合同会社,神奈川県,横浜市戸塚区,川上町９１番地１ＢＥＬＩＳＴＡタワー東戸塚１４０５号,,14,110,2440805,,,,,,,2022-11-09,1,,,,,テクガイアニジュウイチ,0
1170,4020003022721,新規,0,2022-11-09,2022-11-09,ワイズプラン合同会社,,合同会社,神奈川県,横浜市鶴見区,生麦４丁目６番１５－６０２号,,14,101,2300052,,,,,,,2022-11-09,1,,,,,ワイズプラン,0
1172,4020005015715,新規,0,2022-11-09,2022-11-09,一般社団法人ＳＴＣ相続サポート協会,,その他の設立登記法人,神奈川県,川崎市川崎区,東田町８番地,,14,131,2100005,,,,,,,2022-11-09,1,,,,,エスティーシーソウゾクサポートキョウカイ,0
1181,4021001077410,新規,0,2022-11-09,2022-11-09,株式会社コトリノ,,株式会社,神奈川県,大和市,中央林間６丁目５－４－２０３,,14,213,2420007,,,,,,,2022-11-09,1,,,,,コトリノ,0
1191,4030001150952,新規,0,2022-11-09,2022-11-09,株式会社ＴＡＫＥ　ＯＦＦ,,株式会社,埼玉県,さいたま市大宮区,桜木町２丁目４４６番地３０５号,,11,103,3300854,,,,,,,2022-11-09,1,,,,,テイクオフ,0
1192,4030001150977,新規,0,2022-11-09,2022-11-09,ＲＬＡＴＩＯ株式会社,,株式会社,埼玉県,草加市,中央２丁目６番７－４０３号,,11,221,3400016,,,,,,,2022-11-09,1,,,,,ラツィオ,0
1193,4030001150985,新規,0,2022-11-09,2022-11-09,株式会社上山工業,,株式会社,埼玉県,富士見市,西みずほ台１丁目２０番地１１－１Ｆ,,11,235,3540018,,,,,,,2022-11-09,1,,,,,ウエヤマコウギョウ,0
1194,4030001151001,新規,0,2022-11-09,2022-11-09,株式会社ＲｅＴｈｉｎｋ,,株式会社,埼玉県,川口市,西青木２丁目１４番２６号,,11,203,3320035,,,,,,,2022-11-09,1,,,,,リシンク,0
1202,4030003020534,新規,0,2022-11-09,2022-11-09,ノーザンタイ合同会社,,合同会社,埼玉県,川越市,脇田本町１５番地１９ニューパレスビル新館４Ｆ,,11,201,3501123,,,,,,,2022-11-09,1,,,,,ノーザンタイ,0
1203,4030003020542,新規,0,2022-11-09,2022-11-09,合同会社タニモト電設,,合同会社,埼玉県,和光市,白子３丁目３０番４１－１０１号,,11,229,3510101,,,,,,,2022-11-09,1,,,,,タニモトデンセツ,0
1204,4030003020559,新規,0,2022-11-09,2022-11-09,合同会社ピンキー,,合同会社,埼玉県,さいたま市西区,大字指扇６５９番地１０,,11,101,3310047,,,,,,,2022-11-09,1,,,,,ピンキー,0
1211,4040001125656,新規,0,2022-11-09,2022-11-09,株式会社ＭＯＯＮ　ＳＵＮ　ＩＮＴＥＲＮＡＴＩＯＮＡＬ,,株式会社,千葉県,市川市,欠真間１丁目１４－８フラワーヴェール１０２,,12,203,2720142,,,,,,,2022-11-09,1,,,,,ムーンサンインターナショナル,0
1212,4040001125664,新規,0,2022-11-09,2022-11-09,ＳＩＮＡ株式会社,,株式会社,千葉県,四街道市,栗山１０８２－２２イーストワン２０３,,12,228,2840027,,,,,,,2022-11-09,1,,,,,シナ,0
1213,4040001125722,新規,0,2022-11-09,2022-11-09,株式会社大網トラック,,株式会社,千葉県,銚子市,森戸町５４２番地,,12,202,2880872,,,,,,,2022-11-09,1,,,,,オオアミトラック,0
1214,4040001125763,新規,0,2022-11-09,2022-11-09,株式会社Ｐｏｒｔａ　ｄｅｌ　ｃｕｏｒｅ,,株式会社,千葉県,柏市,十余二２９７番地５８ダイシンテラス柏の葉Ｂ１０２号,,12,217,2770872,,,,,,,2022-11-09,1,,,,,ポルタデルクオーレ,0
1215,4040001125821,新規,0,2022-11-09,2022-11-09,金子不動産株式会社,,株式会社,千葉県,浦安市,富岡２丁目２番１５－２０５号,,12,227,2790021,,,,,,,2022-11-09,1,,,,,カネコフドウサン,0
1219,4040003021176,新規,0,2022-11-09,2022-11-09,合同会社グッド環境テック,,合同会社,千葉県,成田市,押畑２０９２番地,,12,211,2860845,,,,,,,2022-11-09,1,,,,,グッドカンキョウテック,0
1220,4040003021226,新規,0,2022-11-09,2022-11-09,ハピネスリンク合同会社,,合同会社,千葉県,千葉市中央区,新千葉１丁目７番２号ペリエ＋Ｐｌｕｓビル,,12,101,2600031,,,,,,,2022-11-09,1,,,,,ハピネスリンク,0
1221,4040003021234,新規,0,2022-11-09,2022-11-09,合同会社オフィスララ,,合同会社,千葉県,袖ケ浦市,蔵波２９６０番地１２３,,12,229,2990243,,,,,,,2022-11-09,1,,,,,オフィスララ,0
1224,4050001051942,新規,0,2022-11-09,2022-11-09,株式会社クレア,,株式会社,茨城県,古河市,大和田１７７７番地１６,,08,204,3060111,,,,,,,2022-11-09,1,,,,,クレア,0
1227,4050003007001,新規,0,2022-11-09,2022-11-09,Ｒ．Ｊ．Ｎ　ＡＵＴＯ　ＷＯＲＫＳ合同会社,,合同会社,茨城県,下妻市,宗道１５５番地１筑波荘６号,,08,210,3040814,,,,,,,2022-11-09,1,,,,,アールジェイエヌオートワークス,0
1232,4060001035440,新規,0,2022-11-09,2022-11-09,株式会社ＢＵＬＬ,,株式会社,栃木県,宇都宮市,中央３丁目１番４号栃木県産業会館３階,,09,201,3200806,,,,,,,2022-11-09,1,,,,,ブル,0
1234,4060003004303,新規,0,2022-11-09,2022-11-09,合同会社あいば,,合同会社,栃木県,宇都宮市,野沢町４５１番地１７,,09,201,3200071,,,,,,,2022-11-09,1,,,,,アイバ,0
1241,4080401026145,新規,0,2022-11-09,2022-11-09,株式会社ＢＡＳＡＲＡ,,株式会社,静岡県,浜松市中区,肴町３１８番地の２イケヤビル２Ｆ,,22,131,4300932,,,,,,,2022-11-09,1,,,,,バサラ,0
1245,4100001035865,新規,0,2022-11-09,2022-11-09,株式会社ＳＯＸＩ,,株式会社,長野県,松本市,深志２丁目１番４号,,20,202,3900815,,,,,,,2022-11-09,1,,,,,ソザイ,0
1263,4120001249942,新規,0,2022-11-09,2022-11-09,株式会社ＨＬ８８,,株式会社,大阪府,大阪市浪速区,日本橋５丁目１１番７号第１片倉ビル７階７０１号室,,27,111,5560005,,,,,,,2022-11-09,1,,,,,エイチエルハチハチ,0
1264,4120001250124,新規,0,2022-11-09,2022-11-09,株式会社レクサー,,株式会社,大阪府,大阪市中央区,備後町３丁目４番１号,,27,128,5410051,,,,,,,2022-11-09,1,,,,,レクサー,0
1265,4120001250132,新規,0,2022-11-09,2022-11-09,株式会社アクロス,,株式会社,大阪府,大阪市東淀川区,東中島１丁目１７番５号ステュディオ新大阪８０６号,,27,114,5330033,,,,,,,2022-11-09,1,,,,,アクロス,0
1266,4120001250140,新規,0,2022-11-09,2022-11-09,馬記良行株式会社,,株式会社,大阪府,大阪市西成区,橘１丁目１１－２８－５１０号室,,27,122,5570051,,,,,,,2022-11-09,1,,,,,マキリョウコウ,0
1267,4120001250149,新規,0,2022-11-09,2022-11-09,株式会社ＣＰアクセレーション,,株式会社,大阪府,大阪市住吉区,千躰１丁目４番１５号,,27,120,5580047,,,,,,,2022-11-09,1,,,,,シーピーアクセレーション,0
1268,4120001250165,新規,0,2022-11-09,2022-11-09,株式会社ａｎｉｍｏパートナーズ,,株式会社,大阪府,大阪市中央区,久太郎町１丁目９番２６号,,27,128,5410056,,,,,,,2022-11-09,1,,,,,アニモパートナーズ,0
1269,4120001250181,新規,0,2022-11-09,2022-11-09,株式会社村山商事,,株式会社,大阪府,大阪市平野区,瓜破東２丁目７番１２号,,27,126,5470022,,,,,,,2022-11-09,1,,,,,ムラヤマショウジ,0
1273,4120003022827,新規,0,2022-11-09,2022-11-09,オレイユｄｅボヌール合同会社,,合同会社,大阪府,大阪市城東区,野江２丁目１２番５７号,,27,118,5360006,,,,,,,2022-11-09,1,,,,,オレイユデボヌール,0
1274,4120003022843,新規,0,2022-11-09,2022-11-09,Ｂｉｇｇｅｒ　ｔｅｃｈｎｏｌｏｇｙ合同会社,,合同会社,大阪府,大阪市平野区,平野本町５丁目４番２１号,,27,126,5470044,,,,,,,2022-11-09,1,,,,,ビガーテクノロジー,0
1281,4120101066478,新規,0,2022-11-09,2022-11-09,京電設工業株式会社,,株式会社,大阪府,堺市美原区,真福寺１１９－２Ｍ’ｓ美原ビル,,27,147,5870013,,,,,,,2022-11-09,1,,,,,ミヤコデンセツコウギョウ,0
1282,4120101066494,新規,0,2022-11-09,2022-11-09,株式会社ゴールドパートナーズ,,株式会社,大阪府,泉大津市,助松町１丁目１番２３号清音ビル３０３号,,27,206,5950071,,,,,,,2022-11-09,1,,,,,ゴールドパートナーズ,0
1283,4120101066503,新規,0,2022-11-09,2022-11-09,リアライズ株式会社,,株式会社,大阪府,堺市中区,田園５７８番地,,27,142,5998246,,,,,,,2022-11-09,1,,,,,リアライズ,0
1284,4120103004915,新規,0,2022-11-09,2022-11-09,合同会社スローロリス,,合同会社,大阪府,高石市,千代田１丁目１７－２,,27,225,5920005,,,,,,,2022-11-09,1,,,,,スローロリス,0
1285,4120103004923,新規,0,2022-11-09,2022-11-09,合同会社Ｒｏｉ,,合同会社,大阪府,河内長野市,喜多町１６９エレガントライフマンション２Ｆ,,27,216,5860033,,,,,,,2022-11-09,1,,,,,ロイ,0
1291,4120901046695,新規,0,2022-11-09,2022-11-09,株式会社Ａ‐ＴＨ,,株式会社,大阪府,豊中市,宮山町４丁目３番６６号,,27,203,5600056,,,,,,,2022-11-09,1,,,,,エーティーエイチ,0
1292,4120903004362,新規,0,2022-11-09,2022-11-09,合同会社ＧＯ‐ＷＡ,,合同会社,大阪府,茨木市,山手台新町２丁目２１番３号,,27,211,5670010,,,,,,,2022-11-09,1,,,,,ゴーワ,0
1294,4122005003648,新規,0,2022-11-09,2022-11-09,特定非営利活動法人ウイング,,その他の設立登記法人,大阪府,東大阪市,南荘町１１番７号,,27,227,5798024,,,,,,,2022-11-09,1,,,,,ウイング,0
1299,4130001072963,新規,0,2022-11-09,2022-11-09,株式会社クスダ塾,,株式会社,京都府,京丹後市,峰山町荒山２８０番地の１,,26,212,6270004,,,,,,,2022-11-09,1,,,,,クスダジュク,0
1300,4130001072971,新規,0,2022-11-09,2022-11-09,株式会社ｏｆｆｉｃｅ．Ｎ．,,株式会社,京都府,京都市伏見区,指物町５７０番地,,26,109,6128074,,,,,,,2022-11-09,1,,,,,オフィスエヌドット,0
1301,4130001073029,新規,0,2022-11-09,2022-11-09,ヒロガル株式会社,,株式会社,京都府,京都市中京区,新京極通蛸薬師下る東側町５０１番地３松やビル２階,00128425,26,104,6048046,,,,,,,2022-11-09,1,,,,,ヒロガル,0
1302,4130001073037,新規,0,2022-11-09,2022-11-09,株式会社ネックスター,,株式会社,京都府,京都市右京区,西京極下沢町１６番地４,,26,108,6150814,,,,,,,2022-11-09,1,,,,,ネックスター,0
1303,4130001073045,新規,0,2022-11-09,2022-11-09,株式会社サンフィールド,,株式会社,京都府,京都市伏見区,日野田頬町１番地３７,,26,109,6011424,,,,,,,2022-11-09,1,,,,,サンフィールド,0
1305,4130003008288,新規,0,2022-11-09,2022-11-09,合同会社ＴＡＫＡ,,合同会社,京都府,京都市右京区,西京極南大入町８６番地１,,26,108,6150883,,,,,,,2022-11-09,1,,,,,タカ,0
1306,4130003008296,新規,0,2022-11-09,2022-11-09,合同会社京都基地,,合同会社,京都府,京都市下京区,中堂寺前田町９－１２,,26,106,6008804,,,,,,,2022-11-09,1,,,,,キョウトキチ,0
1319,4140003018336,新規,0,2022-11-09,2022-11-09,ＯＲＡＮＧＥ合同会社,,合同会社,兵庫県,神戸市中央区,多聞通４丁目２番６号,,28,110,6500015,,,,,,,2022-11-09,1,,,,,オレンジ,0
1338,4180001153651,新規,0,2022-11-09,2022-11-09,株式会社タケヤグループ,,株式会社,愛知県,常滑市,金山字六治６８番地タケヤビル１階,,23,216,4790003,,,,,,,2022-11-09,1,,,,,タケヤグループ,0
1339,4180001153750,新規,0,2022-11-09,2022-11-09,株式会社たから屋グループ,,株式会社,愛知県,名古屋市北区,楠味鋺５丁目２１１６番地,,23,103,4620014,,,,,,,2022-11-09,1,,,,,タカラヤグループ,0
1340,4180001153767,新規,0,2022-11-09,2022-11-09,株式会社ＲＦＴ,,株式会社,愛知県,名古屋市瑞穂区,田光町３丁目２７番地,,23,108,4670828,,,,,,,2022-11-09,1,,,,,アールエフティー,0
1345,4180301036770,新規,0,2022-11-09,2022-11-09,株式会社ＧＯＯＤＦＲＩＥＮＤＳ,,株式会社,愛知県,豊橋市,東岩田３丁目１５番地１４,,23,201,4400033,,,,,,,2022-11-09,1,,,,,グッドフレンズ,0
1347,4180303005501,新規,0,2022-11-09,2022-11-09,アドミニストレーション・システムズ合同会社,,合同会社,愛知県,刈谷市,新田町６丁目１７番地１２,,23,210,4480015,,,,,,,2022-11-09,1,,,,,アドミニストレーションシステムズ,0
1348,4190001029917,新規,0,2022-11-09,2022-11-09,株式会社ＢｅＧＡＴＥ,,株式会社,三重県,桑名市,陽だまりの丘５丁目７０１番地１６,,24,205,5110867,,,,,,,2022-11-09,1,,,,,ビゲイト,0
1355,4200001040657,新規,0,2022-11-09,2022-11-09,株式会社ＤＯＭＡＮＮＡＫＡ,,株式会社,岐阜県,本巣郡北方町,高屋太子１丁目２５番地,,21,421,5010457,,,,,,,2022-11-09,1,,,,,ドマンナカ,0
1356,4200001040665,新規,0,2022-11-09,2022-11-09,株式会社エングラティ,,株式会社,岐阜県,岐阜市,元宮町２丁目１９,,21,201,5008869,,,,,,,2022-11-09,1,,,,,エングラティ,0
1358,4200003005732,新規,0,2022-11-09,2022-11-09,合同会社不動産法人心,,合同会社,岐阜県,岐阜市,岩田坂３丁目２番３号,,21,201,5013155,,,,,,,2022-11-09,1,,,,,フドウサンホウジンココロ,0
1361,4220001025128,新規,0,2022-11-09,2022-11-09,株式会社ＳＴＡＧＥ,,株式会社,石川県,金沢市,堀川新町５番１号,,17,201,9200849,,,,,,,2022-11-09,1,,,,,ステージ,0
1368,4260001037391,新規,0,2022-11-09,2022-11-09,逸軒株式会社,,株式会社,岡山県,津山市,山北４７９－３マリオン１－６０２号,,33,203,7080004,,,,,,,2022-11-09,1,,,,,イツケン,0
1378,4290001099520,新規,0,2022-11-09,2022-11-09,東明株式会社,,株式会社,福岡県,福岡市東区,青葉７丁目５９－３３,,40,131,8130025,,,,,,,2022-11-09,1,,,,,トウメイ,0
1379,4290001099545,新規,0,2022-11-09,2022-11-09,株式会社Ｇａｎａｘｔ,,株式会社,福岡県,福岡市中央区,大名１丁目９番５０号,,40,133,8100041,,,,,,,2022-11-09,1,,,,,ガナスト,0
1385,4290801029040,新規,0,2022-11-09,2022-11-09,株式会社ルビー,,株式会社,福岡県,北九州市若松区,青葉台南２丁目４番１２号,,40,103,8080142,,,,,,,2022-11-09,1,,,,,ルビー,0
1386,4290801029049,新規,0,2022-11-09,2022-11-09,株式会社きづき,,株式会社,福岡県,北九州市小倉北区,浅野３丁目８番１号ＡＩＭビル６Ｆ,,40,106,8020001,,,,,,,2022-11-09,1,,,,,キヅキ,0
1387,4290803004248,新規,0,2022-11-09,2022-11-09,合同会社風凛,,合同会社,福岡県,行橋市,大字金屋５６３番地１２,,40,213,8240004,,,,,,,2022-11-09,1,,,,,フウリン,0
1390,4310001018114,新規,0,2022-11-09,2022-11-09,株式会社ダブルハート,,株式会社,長崎県,佐世保市,相浦町１６７番地３,,42,202,8580918,,,,,,,2022-11-09,1,,,,,,0
1395,4330001030273,新規,0,2022-11-09,2022-11-09,ケーエスティー株式会社,,株式会社,熊本県,山鹿市,鹿本町御宇田２９８番地３,,43,208,8610304,,,,,,,2022-11-09,1,,,,,ケーエスティー,0
1396,4330001030281,新規,0,2022-11-09,2022-11-09,株式会社ＹＡＭＡテック,,株式会社,熊本県,荒尾市,上井手７３２番地１,,43,204,8640013,,,,,,,2022-11-09,1,,,,,ヤマテック,0
1398,4330005010577,新規,0,2022-11-09,2022-11-09,一般社団法人ＣＯＣＯＯＮ　ＬＡＢ,,その他の設立登記法人,熊本県,熊本市中央区,平成３丁目２３－３０サンリブシティくまなん３階,,43,101,8600833,,,,,,,2022-11-09,1,,,,,コクーンラボ,0
1399,4340001025124,新規,0,2022-11-09,2022-11-09,株式会社いろいろ,,株式会社,鹿児島県,鹿屋市,札元１丁目１９番３１号,,46,203,8930013,,,,,,,2022-11-09,1,,,,,イロイロ,0
1403,4350001018036,新規,0,2022-11-09,2022-11-09,株式会社ハイメタルシート,,株式会社,宮崎県,小林市,真方３０４番地１０,,45,205,8860007,,,,,,,2022-11-09,1,,,,,ハイメタルシート,0
1409,4370001049236,新規,0,2022-11-09,2022-11-09,株式会社Ｚインディペンデンス,,株式会社,宮城県,仙台市青葉区,柏木１丁目７番３７号,,04,101,9810933,,,,,,,2022-11-09,1,,,,,ゼットインディペンデンス,0
1410,4370001049244,新規,0,2022-11-09,2022-11-09,株式会社リビング通信社宮城,,株式会社,宮城県,仙台市若林区,卸町２丁目１５番地の２,,04,103,9840015,,,,,,,2022-11-09,1,,,,,リビングツウシンシャミヤギ,0
1411,4370003005889,新規,0,2022-11-09,2022-11-09,合同会社ｕｒｕ,,合同会社,宮城県,気仙沼市,松崎鶴巻５４－３３,,04,205,9880144,,,,,,,2022-11-09,1,,,,,ウル,0
1413,4370005010549,新規,0,2022-11-09,2022-11-09,特定非営利活動法人東北アカデミー,,その他の設立登記法人,宮城県,仙台市泉区,市名坂字町７４番地,,04,105,9813117,,,,,,,2022-11-09,1,,,,,トウホクアカデミー,0
1419,4380001033255,新規,0,2022-11-09,2022-11-09,株式会社Ｓ・ライン,,株式会社,福島県,いわき市,常磐藤原町大畑６１番地,,07,204,9728326,,,,,,,2022-11-09,1,,,,,エスライン,0
1421,4380005012643,新規,0,2022-11-09,2022-11-09,社会保険労務士法人ＯＮＯＫＵＲＩ,,その他の設立登記法人,福島県,郡山市,鶴見坦３丁目５番８号,,07,203,9638861,,,,,,,2022-11-09,1,,,,,オンオクリ,0
1433,4470003002281,新規,0,2022-11-09,2022-11-09,合同会社きらきら,,合同会社,香川県,善通寺市,大麻町１３２９番地,,37,204,7650052,,,,,,,2022-11-09,1,,,,,キラキラ,0
1434,4470005006479,新規,0,2022-11-09,2022-11-09,一般社団法人てつがく屋,,その他の設立登記法人,香川県,丸亀市,土器町西４丁目６６２番地７,,37,202,7630081,,,,,,,2022-11-09,1,,,,,テツガクヤ,0
1435,4490001010334,新規,0,2022-11-09,2022-11-09,エム・エム・ユニティ株式会社,,株式会社,高知県,香南市,野市町土居１２３３番地２,,39,211,7815212,,,,,,,2022-11-09,1,,,,,エムエムユニティ,0
1455,5010001230706,新規,0,2022-11-09,2022-11-09,チタニストラボラトリーズ株式会社,,株式会社,東京都,千代田区,内神田１丁目１４番８号ＫＡＮＤＡＳＱＵＡＲＥＧＡＴＥ３階,,13,101,1010047,,,,,,,2022-11-09,1,,,,,チタニストラボラトリーズ,0
1456,5010001230722,新規,0,2022-11-09,2022-11-09,株式会社２ＤＣ,,株式会社,東京都,中央区,銀座１丁目１２番４号Ｎ＆ＥＢＬＤ．６Ｆ,,13,102,1040061,,,,,,,2022-11-09,1,,,,,トゥーディーシー,0
1457,5010001230739,新規,0,2022-11-09,2022-11-09,株式会社ＲｅＺＹＭＥ,,株式会社,東京都,中央区,銀座７丁目１３番６号サガミビル２階,,13,102,1040061,,,,,,,2022-11-09,1,,,,,リザイム,0
1461,5010003039014,新規,0,2022-11-09,2022-11-09,合同会社ＡＥＲＩＹ,,合同会社,東京都,文京区,湯島３丁目３７－４－８０１,,13,105,1130034,,,,,,,2022-11-09,1,,,,,エアリー,0
1462,5010003039030,新規,0,2022-11-09,2022-11-09,自然エネルギーＳＩＰＰ７合同会社,,合同会社,東京都,文京区,本郷５丁目３３番１０号,,13,105,1130033,,,,,,,2022-11-09,1,,,,,シゼンエネルギーエスアイピーピーナナ,0
1463,5010003039039,新規,0,2022-11-09,2022-11-09,合同会社ウェルラボ,,合同会社,東京都,千代田区,平河町１丁目６番２５号ＵＳビル８０２号室,,13,101,1020093,,,,,,,2022-11-09,1,,,,,ウェルラボ,0
1464,5010003039055,新規,0,2022-11-09,2022-11-09,グローアップ合同会社,,合同会社,東京都,千代田区,神田神保町３丁目１１－１安田神保町マンション－２２,,13,101,1010051,,,,,,,2022-11-09,1,,,,,グローアップ,0
1476,5010401170650,新規,0,2022-11-09,2022-11-09,株式会社Ｆｉｖｅ　ｉｓｍ,,株式会社,東京都,港区,新橋３丁目５番１１号プラザ新橋３階,,13,103,1050004,,,,,,,2022-11-09,1,,,,,ファイブイズム,0
1477,5010401170659,新規,0,2022-11-09,2022-11-09,株式会社Ｆｉｒｓｔ　Ｃｌｉｅｎｔ,,株式会社,東京都,港区,麻布十番２丁目４番１－７０５号,,13,103,1060045,,,,,,,2022-11-09,1,,,,,ファーストクライアント,0
1478,5010401170667,新規,0,2022-11-09,2022-11-09,青海株式会社,,株式会社,東京都,港区,元麻布３丁目１番６号,,13,103,1060046,,,,,,,2022-11-09,1,,,,,アオミ,0
1479,5010401170675,新規,0,2022-11-09,2022-11-09,株式会社ｎｅｏ　ｃｏｎｃｅｐｔ,,株式会社,東京都,港区,麻布十番２丁目７番５号,,13,103,1060045,,,,,,,2022-11-09,1,,,,,ネオコンセプト,0
1480,5010401170717,新規,0,2022-11-09,2022-11-09,ＬＳ‐ＳＨＩＰ第２９号株式会社,,株式会社,東京都,港区,六本木１丁目６番１号,,13,103,1060032,,,,,,,2022-11-09,1,,,,,エルエスシップダイニジュウキュウゴウ,0
1482,5010403028847,新規,0,2022-11-09,2022-11-09,合同会社ｃｏｎｖｉｖｉａｌｌｙ,,合同会社,東京都,港区,南青山３丁目１番３６号青山丸竹ビル６Ｆ,,13,103,1070062,,,,,,,2022-11-09,1,,,,,コンヴィヴィアリー,0
1483,5010403028855,新規,0,2022-11-09,2022-11-09,福島大須合同会社,,合同会社,東京都,港区,虎ノ門３丁目２２番１０－２０１号,,13,103,1050001,,,,,,,2022-11-09,1,,,,,フクシマオオス,0
1487,5010701043374,新規,0,2022-11-09,2022-11-09,株式会社ＢＥＣＫ,,株式会社,東京都,品川区,中延１丁目６番１７－７０２号,,13,109,1420053,,,,,,,2022-11-09,1,,,,,ベック,0
1490,5010901051929,新規,0,2022-11-09,2022-11-09,フレックスリニューアブルス株式会社,,株式会社,東京都,世田谷区,大原１丁目５９－８ＮＳＰビル１０２,,13,112,1560041,,,,,,,2022-11-09,1,,,,,フレックスリニューアブルス,0
1495,5010903007771,新規,0,2022-11-09,2022-11-09,Ｂ・Ｂ　Ｐｌａｎｎｉｎｇ合同会社,,合同会社,東京都,世田谷区,船橋１丁目３９番１０号,,13,112,1560055,,,,,,,2022-11-09,1,,,,,,0
1506,5011001150571,新規,0,2022-11-09,2022-11-09,株式会社がくまるくん,,株式会社,東京都,渋谷区,神宮前６丁目２３番４号桑野ビル２階,,13,113,1500001,,,,,,,2022-11-09,1,,,,,ガクマルクン,0
1507,5011001150679,新規,0,2022-11-09,2022-11-09,株式会社クローバー,,株式会社,東京都,渋谷区,神宮前６丁目２３番４号桑野ビル２階,,13,113,1500001,,,,,,,2022-11-09,1,,,,,クローバー,0
1508,5011001150704,新規,0,2022-11-09,2022-11-09,ヴィーガンコンサルティングジャパン株式会社,,株式会社,東京都,渋谷区,神南１丁目６番５号,,13,113,1500041,,,,,,,2022-11-09,1,,,,,ヴィーガンコンサルティングジャパン,0
1509,5011001150745,新規,0,2022-11-09,2022-11-09,ＴＥＡＭＳ株式会社,,株式会社,東京都,渋谷区,渋谷２丁目１９番１５号宮益坂ビルディング６０９,,13,113,1500002,,,,,,,2022-11-09,1,,,,,チームス,0
1514,5011101100765,新規,0,2022-11-09,2022-11-09,サンユテック株式会社,,株式会社,東京都,新宿区,高田馬場４丁目３１番９－１０１Ａ号,,13,104,1690075,,,,,,,2022-11-09,1,,,,,サンユテック,0
1517,5011103012364,新規,0,2022-11-09,2022-11-09,合同会社ＫＡＤＡ,,合同会社,東京都,新宿区,下落合４丁目３番１６号エンブレム下落合１０３,,13,104,1610033,,,,,,,2022-11-09,1,,,,,ケーエーディーエー,0
1519,5011201024220,新規,0,2022-11-09,2022-11-09,株式会社星子アーリヤ,,株式会社,東京都,中野区,弥生町１丁目１６番１２号（コーポ松栄２０２号室）,,13,114,1640013,,,,,,,2022-11-09,1,,,,,ホシコアーリヤ,0
1521,5011203003940,新規,0,2022-11-09,2022-11-09,合同会社１０１,,合同会社,東京都,中野区,中野３丁目３３番１５号ＫＨＴビル７Ｈ,,13,114,1640001,,,,,,,2022-11-09,1,,,,,イチマルイチ,0
1523,5011301028229,新規,0,2022-11-09,2022-11-09,株式会社Ｄａｙ１,,株式会社,東京都,杉並区,桃井３丁目１０番１号,,13,115,1670034,,,,,,,2022-11-09,1,,,,,デイワン,0
1529,5011403003807,新規,0,2022-11-09,2022-11-09,合同会社フライハイ,,合同会社,東京都,板橋区,赤塚新町２丁目７番１６号,,13,119,1750093,,,,,,,2022-11-09,1,,,,,フライハイ,0
1531,5011501028648,新規,0,2022-11-09,2022-11-09,株式会社紬麦,,株式会社,東京都,北区,上十条３丁目２８番１１－１０２号矢口ハイツ,,13,117,1140034,,,,,,,2022-11-09,1,,,,,ツムギ,0
1538,5011801041524,新規,0,2022-11-09,2022-11-09,ＡＺＵＭＡＲＹＵ株式会社,,株式会社,東京都,足立区,西伊興１丁目９番１１号,,13,121,1210824,,,,,,,2022-11-09,1,,,,,アズマリュウ,0
1541,5011803005361,新規,0,2022-11-09,2022-11-09,合同会社シモ,,合同会社,東京都,葛飾区,西新小岩４丁目４０番２０－４０４マンションサンエイドＡ,,13,122,1240025,,,,,,,2022-11-09,1,,,,,シモ,0
1546,5012803002919,新規,0,2022-11-09,2022-11-09,合同会社Ｋ＆Ｒ,,合同会社,東京都,国分寺市,富士本１丁目２１番地の４４,,13,214,1850031,,,,,,,2022-11-09,1,,,,,ケーアンドアール,0
1550,5013301049898,新規,0,2022-11-09,2022-11-09,株式会社ルーム,,株式会社,東京都,豊島区,巣鴨４丁目３２番４号,,13,116,1700002,,,,,,,2022-11-09,1,,,,,ルーム,0
1551,5013301049907,新規,0,2022-11-09,2022-11-09,株式会社エイ・エヌ・コンサルティング,,株式会社,東京都,豊島区,西池袋５丁目１７番１号,,13,116,1710021,,,,,,,2022-11-09,1,,,,,エイエヌコンサルティング,0
1557,5020001148914,新規,0,2022-11-09,2022-11-09,Ｕ・Ｋ株式会社,,株式会社,神奈川県,川崎市中原区,丸子通１丁目６０８番地６,,14,133,2110006,,,,,,,2022-11-09,1,,,,,ユーケー,0
1558,5020001148947,新規,0,2022-11-09,2022-11-09,株式会社スタジオ・ホープヒルズ,,株式会社,神奈川県,横浜市旭区,二俣川２丁目７２番１７の３０１,,14,112,2410821,,,,,,,2022-11-09,1,,,,,スタジオホープヒルズ,0
1565,5020003022712,新規,0,2022-11-09,2022-11-09,Ｏｎｅ　Ｊａｐａｎ合同会社,,合同会社,神奈川県,横浜市都筑区,南山田１丁目３番１０－１０８号,,14,118,2240029,,,,,,,2022-11-09,1,,,,,ワンジャパン,0
1566,5020005015714,新規,0,2022-11-09,2022-11-09,一般社団法人終活サポートよこはま,,その他の設立登記法人,神奈川県,横浜市神奈川区,鶴屋町２丁目１２番地１カリオカビル６Ｆ,,14,102,2210835,,,,,,,2022-11-09,1,,,,,シュウカツサポートヨコハマ,0
1569,5021003012348,新規,0,2022-11-09,2022-11-09,合同会社Ｈａｔｃｈ研,,合同会社,神奈川県,海老名市,中新田２丁目２８－１８,,14,215,2430422,,,,,,,2022-11-09,1,,,,,ハッチケン,0
1577,5030001150836,新規,0,2022-11-09,2022-11-09,株式会社Ｔ’ｓ　Ｉｎｄｕｓｔｒｙ,,株式会社,埼玉県,川越市,稲荷町４番地１９,,11,201,3501144,,,,,,,2022-11-09,1,,,,,ティーズインダストリー,0
1578,5030001150943,新規,0,2022-11-09,2022-11-09,三位ホールディングス株式会社,,株式会社,埼玉県,川口市,大字小谷場５３１番地,,11,203,3330857,,,,,,,2022-11-09,1,,,,,サンミホールディングス,0
1579,5030001150951,新規,0,2022-11-09,2022-11-09,株式会社エシカルハート,,株式会社,埼玉県,坂戸市,本町７－２,,11,239,3500226,,,,,,,2022-11-09,1,,,,,エシカルハート,0
1580,5030001150976,新規,0,2022-11-09,2022-11-09,３Ｒ産業株式会社,,株式会社,埼玉県,秩父郡皆野町,大字大渕１７０番地１,,11,362,3691623,,,,,,,2022-11-09,1,,,,,サンアールサンギョウ,0
1581,5030001150984,新規,0,2022-11-09,2022-11-09,株式会社ラブライク,,株式会社,埼玉県,鶴ヶ島市,松ヶ丘３丁目２８番７号,,11,241,3502205,,,,,,,2022-11-09,1,,,,,ラブライク,0
1582,5030001151009,新規,0,2022-11-09,2022-11-09,株式会社裕コーポレーション,,株式会社,埼玉県,越谷市,大字平方１７１８番地２,,11,222,3430002,,,,,,,2022-11-09,1,,,,,ユウコーポレーション,0
1583,5030001151017,新規,0,2022-11-09,2022-11-09,株式会社Ｎｅｕｔｒａｌ,,株式会社,埼玉県,戸田市,本町１丁目１０－１３,,11,224,3350023,,,,,,,2022-11-09,1,,,,,ニュートラル,0
1589,5030003020491,新規,0,2022-11-09,2022-11-09,合同会社クリエーション,,合同会社,埼玉県,川口市,本町４丁目３－１４小峰第一ビル４階,,11,203,3320012,,,,,,,2022-11-09,1,,,,,クリエーション,0
1590,5030003020517,新規,0,2022-11-09,2022-11-09,合同会社Ｙ’ｓ,,合同会社,埼玉県,ふじみ野市,桜ケ丘１丁目１０番６５号,,11,245,3560059,,,,,,,2022-11-09,1,,,,,ワイズ,0
1591,5030003020541,新規,0,2022-11-09,2022-11-09,合同会社融旺,,合同会社,埼玉県,さいたま市大宮区,土手町２丁目６４番地クレイナボナール３０５,,11,103,3300801,,,,,,,2022-11-09,1,,,,,ユウオウ,0
1595,5040001125688,新規,0,2022-11-09,2022-11-09,株式会社飛庄,,株式会社,千葉県,千葉市緑区,誉田町２丁目２０番地８８６,,12,105,2660005,,,,,,,2022-11-09,1,,,,,トビショウ,0
1596,5040001125754,新規,0,2022-11-09,2022-11-09,株式会社Ｃ‐ｇｒｏｗ,,株式会社,千葉県,千葉市中央区,都町３丁目１１番１５号,,12,101,2600001,,,,,,,2022-11-09,1,,,,,シーグロー,0
1597,5040001125770,新規,0,2022-11-09,2022-11-09,株式会社アストラダイン,,株式会社,千葉県,市川市,南八幡３丁目２１番１号,,12,203,2720023,,,,,,,2022-11-09,1,,,,,アストラダイン,0
1598,5040003021241,新規,0,2022-11-09,2022-11-09,Ｌ３Ｌ合同会社,,合同会社,千葉県,船橋市,海神４丁目１３番２号神田荘２０１号室,,12,204,2730021,,,,,,,2022-11-09,1,,,,,エルサンエル,0
1602,5060001035415,新規,0,2022-11-09,2022-11-09,株式会社エーエス,,株式会社,栃木県,足利市,奥戸町４３７番地,,09,202,3294215,,,,,,,2022-11-09,1,,,,,エーエス,0
1603,5060001035423,新規,0,2022-11-09,2022-11-09,株式会社ロジコネクト,,株式会社,栃木県,鹿沼市,西茂呂４丁目１４番地２３,,09,205,3220029,,,,,,,2022-11-09,1,,,,,ロジコネクト,0
1604,5060001035431,新規,0,2022-11-09,2022-11-09,株式会社ｐｌｕｓ,,株式会社,栃木県,さくら市,草川１１番地１,,09,214,3291324,,,,,,,2022-11-09,1,,,,,プラス,0
1608,5060003004277,新規,0,2022-11-09,2022-11-09,合同会社チャーリック,,合同会社,栃木県,日光市,森友１０８１－１１,,09,206,3212335,,,,,,,2022-11-09,1,,,,,チャーリック,0
1609,5060003004293,新規,0,2022-11-09,2022-11-09,合同会社ＢＬＵＥ　ＰＩＸＥＬ,,合同会社,栃木県,佐野市,田沼町８８５番地１４,,09,204,3270317,,,,,,,2022-11-09,1,,,,,ブルーピクセル,0
1614,5080401026144,新規,0,2022-11-09,2022-11-09,アームズ浜松株式会社,,株式会社,静岡県,浜松市中区,富塚町３８７７番地の４０６,,22,131,4328002,,,,,,,2022-11-09,1,,,,,アームズハママツ,0
1621,5100003006748,新規,0,2022-11-09,2022-11-09,合同会社あづみ野アップサイクル研究所,,合同会社,長野県,安曇野市,三郷小倉２８２１番１７,,20,220,3998103,,,,,,,2022-11-09,1,,,,,アヅミノアップサイクルケンキュウジョ,0
1622,5100003006772,新規,0,2022-11-09,2022-11-09,合同会社みんなのまる福,,合同会社,長野県,木曽郡木曽町,三岳６３０８番地３,,20,432,3970101,,,,,,,2022-11-09,1,,,,,ミンナノマルフク,0
1635,5120001250115,新規,0,2022-11-09,2022-11-09,ＪＯＹＶＥＳＳＥＬ株式会社,,株式会社,大阪府,大阪市中央区,南本町２丁目１－１ＴＤフロア１Ｆ,,27,128,5410054,,,,,,,2022-11-09,1,,,,,ジョイヴェッセル,0
1636,5120001250148,新規,0,2022-11-09,2022-11-09,株式会社Ｂ　ｃｈｏｒｄ,,株式会社,大阪府,大阪市北区,西天満４丁目１３番８号,,27,127,5300047,,,,,,,2022-11-09,1,,,,,ビーコード,0
1637,5120001250180,新規,0,2022-11-09,2022-11-09,株式会社Ｇ‐ＴＷＯ,,株式会社,大阪府,大阪市浪速区,幸町２丁目７番３号,,27,111,5560021,,,,,,,2022-11-09,1,,,,,ジーツー,0
1638,5120001250189,新規,0,2022-11-09,2022-11-09,株式会社Ｊ＆Ｃトレーディング,,株式会社,大阪府,大阪市中央区,平野町１丁目８－５壱番館ビル５０２室,,27,128,5410046,,,,,,,2022-11-09,1,,,,,ジェイアンドシートレーディング,0
1639,5120001250214,新規,0,2022-11-09,2022-11-09,Ｙ＆Ａ株式会社,,株式会社,大阪府,大阪市北区,堂島浜２丁目２番２８号４階,,27,127,5300004,,,,,,,2022-11-09,1,,,,,ワイアンドエー,0
1642,5120005023293,新規,0,2022-11-09,2022-11-09,一般社団法人日本医療協会,,その他の設立登記法人,大阪府,大阪市浪速区,難波中３丁目１２番３号６０２号室,,27,111,5560011,,,,,,,2022-11-09,1,,,,,ニホンイリョウキョウカイ,0
1646,5120103004914,新規,0,2022-11-09,2022-11-09,合同会社エンゼル,,合同会社,大阪府,堺市北区,大豆塚町１丁５番地２,,27,146,5918042,,,,,,,2022-11-09,1,,,,,エンゼル,0
1647,5120103004922,新規,0,2022-11-09,2022-11-09,合同会社スポーツライフジャパン,,合同会社,大阪府,泉大津市,我孫子１３２－１グッドライフ２１Ａ１０１,,27,206,5950031,,,,,,,2022-11-09,1,,,,,スポーツライフジャパン,0
1658,5122001036378,新規,0,2022-11-09,2022-11-09,株式会社阪奈オペレーションスクール,,株式会社,大阪府,大東市,平野屋１丁目４番５号,,27,218,5740022,,,,,,,2022-11-09,1,,,,,ハンナオペレーションスクール,0
1664,5130001072962,新規,0,2022-11-09,2022-11-09,Ｔａｋｕｍｉ　Ｖｉｓｉｏｎ株式会社,,株式会社,京都府,京都市下京区,夷之町６８６番地３コタニビル３Ｆ,,26,106,6008183,,,,,,,2022-11-09,1,,,,,タクミビジョン,0
1665,5130001073028,新規,0,2022-11-09,2022-11-09,株式会社タツミ,,株式会社,京都府,京都市伏見区,中島秋ノ山町５１番地,,26,109,6128462,,,,,,,2022-11-09,1,,,,,タツミ,0
1666,5130002035778,新規,0,2022-11-09,2022-11-09,有限会社スタイル,,有限会社,京都府,京都市中京区,夷川通麩屋町西入木屋町４８４番地,,26,104,6040961,,,,,,,2022-11-09,1,,,,,スタイル,0
1677,5140001128029,新規,0,2022-11-09,2022-11-09,株式会社ＧＲＥＥＮ　ＪＥＴ,,株式会社,兵庫県,神戸市須磨区,北落合６丁目９－９,,28,107,6540151,,,,,,,2022-11-09,1,,,,,グリーンジェット,0
1678,5140001128061,新規,0,2022-11-09,2022-11-09,株式会社ディーマート,,株式会社,兵庫県,神戸市兵庫区,荒田町１丁目８番１８号渡辺ビル１階,,28,105,6520032,,,,,,,2022-11-09,1,,,,,ディーマート,0
1684,5140003018335,新規,0,2022-11-09,2022-11-09,ＫＬＬフィールド合同会社,,合同会社,兵庫県,三田市,すずかけ台３丁目４番地２（２番館５０１号）,,28,219,6691322,,,,,,,2022-11-09,1,,,,,ケーエルエルフィールド,0
1687,5150001025943,新規,0,2022-11-09,2022-11-09,株式会社ウエスギ工建,,株式会社,奈良県,生駒市,青山台３４２番地６８,,29,209,6300239,,,,,,,2022-11-09,1,,,,,ウエスギコウケン,0
1692,5160001024639,新規,0,2022-11-09,2022-11-09,株式会社アマネクホーム,,株式会社,滋賀県,彦根市,小泉町１３７番地１（Ａ号）,,25,202,5220043,,,,,,,2022-11-09,1,,,,,アマネクホーム,0
1701,5180001153650,新規,0,2022-11-09,2022-11-09,南星ホールディングス株式会社,,株式会社,愛知県,名古屋市南区,豊１丁目４９番１０号,,23,112,4570863,,,,,,,2022-11-09,1,,,,,ナンセイホールディングス,0
1702,5180001153659,新規,0,2022-11-09,2022-11-09,株式会社Ｆｉｖｅ‐ｓｔａｒ　Ｃｏｍｐａｎｙ,,株式会社,愛知県,名古屋市北区,清水１丁目６番地８ＮＡＴＵＲＥ・ＷＯＲＬＤ・ＢＵｌＬＤＩＮＧ２Ｆ,,23,103,4620844,,,,,,,2022-11-09,1,,,,,ファイブスターカンパニー,0
1703,5180001153816,新規,0,2022-11-09,2022-11-09,株式会社Ｍｓ,,株式会社,愛知県,名古屋市名東区,貴船１丁目１３２番地の１,,23,115,4650058,,,,,,,2022-11-09,1,,,,,エムズ,0
1706,5180005019988,新規,0,2022-11-09,2022-11-09,税理士法人アルカディア,,その他の設立登記法人,愛知県,名古屋市天白区,山郷町７４番地,,23,116,4680032,,,,,,,2022-11-09,1,,,,,アルカディア,0
1707,5180005019996,新規,0,2022-11-09,2022-11-09,一般社団法人中七ＨＤ,,その他の設立登記法人,愛知県,名古屋市昭和区,檀渓通三丁目２番地の２パールハイツ１０１号,,23,107,4660000,,,,,,,2022-11-09,1,,,,,ナカシチホールディングス,0
1710,5180301036786,新規,0,2022-11-09,2022-11-09,株式会社Ｑ‐ＮＥＸＴ,,株式会社,愛知県,岡崎市,康生通東２丁目４４番地,,23,202,4440045,,,,,,,2022-11-09,1,,,,,キューネクスト,0
1712,5190001029916,新規,0,2022-11-09,2022-11-09,ＧＬ不動産株式会社,,株式会社,三重県,四日市市,生桑町５９１番地,,24,202,5120911,,,,,,,2022-11-09,1,,,,,ジーエルフドウサン,0
1716,5200001040664,新規,0,2022-11-09,2022-11-09,株式会社尉,,株式会社,岐阜県,岐阜市,福富町田８４番地１,,21,201,5012567,,,,,,,2022-11-09,1,,,,,ジョウ,0
1723,5220001025119,新規,0,2022-11-09,2022-11-09,ＰＥＲＶＡＤＥ株式会社,,株式会社,石川県,金沢市,尾張町２丁目４番１１号人人ビル地下１階,,17,201,9200902,,,,,,,2022-11-09,1,,,,,パヴェーロ,0
1728,5240001060618,新規,0,2022-11-09,2022-11-09,株式会社やまなか商店,,株式会社,広島県,広島市南区,大須賀町１０番７号,,34,103,7320821,,,,,,,2022-11-09,1,,,,,ヤマナカショウテン,0
1729,5240001060634,新規,0,2022-11-09,2022-11-09,株式会社ＩＧＩｅ,,株式会社,広島県,広島市南区,南蟹屋２丁目１番３６号,,34,103,7320803,,,,,,,2022-11-09,1,,,,,イチゴイチエ,0
1747,5290001099379,新規,0,2022-11-09,2022-11-09,株式会社Ｅｃｏ　Ｓｏｌｕｔｉｏｎｓ,,株式会社,福岡県,うきは市,浮羽町妹川３１５５番地２,,40,225,8391415,,,,,,,2022-11-09,1,,,,,エコソリューションズ,0
1748,5290001099453,新規,0,2022-11-09,2022-11-09,株式会社Ｎ２ソリューション,,株式会社,福岡県,太宰府市,高雄６丁目５番２５号,,40,221,8180122,,,,,,,2022-11-09,1,,,,,エヌツーソリューション,0
1749,5290001099494,新規,0,2022-11-09,2022-11-09,株式会社Ｇｒｅｅｎ　Ａｒｒｏｗ,,株式会社,福岡県,福岡市東区,塩浜３丁目４１３番地１－７０６,,40,131,8110203,,,,,,,2022-11-09,1,,,,,グリーンアロー,0
1750,5290001099528,新規,0,2022-11-09,2022-11-09,株式会社みかつき,,株式会社,福岡県,福岡市中央区,桜坂１丁目１４番１８号ＥＳハウス１２,,40,133,8100024,,,,,,,2022-11-09,1,,,,,ミカツキ,0
1751,5290001099544,新規,0,2022-11-09,2022-11-09,株式会社ＲＩＹＡＫＵ．,,株式会社,福岡県,糟屋郡篠栗町,大字萩尾６７１番地,,40,342,8112403,,,,,,,2022-11-09,1,,,,,リヤク,0
1752,5290001099552,新規,0,2022-11-09,2022-11-09,株式会社ＭＡｒＫＥ‐ＩＴ,,株式会社,福岡県,福岡市博多区,博多駅南４丁目４番１５－４０６号ＬａＦｏｎｔｅ博多駅南,,40,132,8120016,,,,,,,2022-11-09,1,,,,,マーケイット,0
1753,5290001099560,新規,0,2022-11-09,2022-11-09,株式会社峰盛園,,株式会社,福岡県,福岡市西区,戸切３丁目３９番３号,,40,135,8190032,,,,,,,2022-11-09,1,,,,,ホウセイエン,0
1766,5330001030289,新規,0,2022-11-09,2022-11-09,株式会社ｕｌｕ,,株式会社,熊本県,人吉市,駒井田町１９７番地１駒井田テナント２Ｆ,,43,203,8680006,,,,,,,2022-11-09,1,,,,,ウル,0
1768,5340001025156,新規,0,2022-11-09,2022-11-09,株式会社ＲｕｎｎｅｒＲｕｎｎｅｒ,,株式会社,鹿児島県,鹿児島市,呉服町２－８ＨＩＴＴＯＢＥｐｏｗｅｒｅｄ　ｂｙ　Ｔｈｅ　Ｃｏｍｐａｎｙ,,46,201,8920826,,,,,,,2022-11-09,1,,,,,ランナーランナー,0
1778,5370003005888,新規,0,2022-11-09,2022-11-09,合同会社ＦＥＬＩＣＥ,,合同会社,宮城県,仙台市若林区,若林７丁目５番２３－３０１号,,04,103,9840826,,,,,,,2022-11-09,1,,,,,フェリーチェ,0
1780,5370005010548,新規,0,2022-11-09,2022-11-09,一般社団法人あんど,,その他の設立登記法人,宮城県,仙台市青葉区,国分町１丁目７番１８号,,04,101,9800803,,,,,,,2022-11-09,1,,,,,アンド,0
1782,5380001033221,新規,0,2022-11-09,2022-11-09,株式会社ＷＢＨ,,株式会社,福島県,郡山市,田村町東山２丁目２番地の１２３,,07,203,9631156,,,,,,,2022-11-09,1,,,,,ダブリュービーエイチ,0
1785,5390005008978,新規,0,2022-11-09,2022-11-09,一般社団法人ＢＡＱＳＡＮ,,その他の設立登記法人,山形県,東村山郡山辺町,大字山辺２８８８番地２,,06,301,9900301,,,,,,,2022-11-09,1,,,,,バクサン,0
1792,5420001018069,新規,0,2022-11-09,2022-11-09,株式会社一芯,,株式会社,青森県,上北郡おいらせ町,緑ヶ丘４丁目５０番地１８４７,,02,412,0392187,,,,,,,2022-11-09,1,,,,,イッシン,0
1796,5430001087807,新規,0,2022-11-09,2022-11-09,未来ステージカムイ株式会社,,株式会社,北海道,札幌市北区,新琴似一条１３丁目１５番１９号,,01,102,0010901,,,,,,,2022-11-09,1,,,,,ミライステージカムイ,0
1797,5430001087815,新規,0,2022-11-09,2022-11-09,株式会社ＥＸＣＥＰＴ,,株式会社,北海道,札幌市中央区,南一条西１６丁目１番地３２３春野ビル３Ｆ,,01,101,0600061,,,,,,,2022-11-09,1,,,,,エクセプト,0
1798,5430003014445,新規,0,2022-11-09,2022-11-09,ＢＥＧＡＳＯ　ＪＡＰＡＮ合同会社,,合同会社,北海道,札幌市豊平区,平岸五条１２丁目３番２７号グランドール平岸５１２－２０１,,01,105,0620935,,,,,,,2022-11-09,1,,,,,ベガーソジャパン,0
1803,5470003002280,新規,0,2022-11-09,2022-11-09,ＳＨＩＫＵＭＩ合同会社,,合同会社,香川県,高松市,木太町１９４８番地６,,37,201,7600080,,,,,,,2022-11-09,1,,,,,シクミ,0
1804,5490001010325,新規,0,2022-11-09,2022-11-09,下元工業株式会社,,株式会社,高知県,高知市,北秦泉寺７７７番地,,39,201,7800022,,,,,,,2022-11-09,1,,,,,,0
1815,6010001230705,新規,0,2022-11-09,2022-11-09,ティグリス・ジャパン株式会社,,株式会社,東京都,千代田区,有楽町１丁目１番２号,,13,101,1000006,,,,,,,2022-11-09,1,,,,,ティグリスジャパン,0
1816,6010001230721,新規,0,2022-11-09,2022-11-09,株式会社エムサーキュラーリソーシーズ,,株式会社,東京都,千代田区,大手町１丁目４番２号,,13,101,1000004,,,,,,,2022-11-09,1,,,,,エムサーキュラーリソーシーズ,0
1821,6010005035761,新規,0,2022-11-09,2022-11-09,一般社団法人明乳会全国連合会,,その他の設立登記法人,東京都,千代田区,内神田１丁目９番１０号,,13,101,1010047,,,,,,,2022-11-09,1,,,,,メイニュウカイゼンコクレンゴウカイ,0
1823,6010101015394,新規,0,2022-11-09,2022-11-09,ハウスクリニックビルド株式会社,,株式会社,東京都,八王子市,石川町２９６６番地９,,13,201,1920032,,,,,,,2022-11-09,1,,,,,ハウスクリニックビルド,0
1833,6010401170674,新規,0,2022-11-09,2022-11-09,株式会社エーススタンド,,株式会社,東京都,港区,芝浦３丁目１４番２号地下１階,,13,103,1080023,,,,,,,2022-11-09,1,,,,,エーススタンド,0
1834,6010401170699,新規,0,2022-11-09,2022-11-09,ＥｎＧｅｎｉｕｓ　Ｎｅｔｗｏｒｋｓ　　Ｊａｐａｎ株式会社,,株式会社,東京都,港区,赤坂２丁目８番１４－５０４号,,13,103,1070052,,,,,,,2022-11-09,1,,,,,エンジェニウスネットワークスジャパン,0
1835,6010401170716,新規,0,2022-11-09,2022-11-09,株式会社ＭＡ　ＰＲＯＭＯＴＩＯＮＳ,,株式会社,東京都,港区,西麻布１丁目８番１２号,,13,103,1060031,,,,,,,2022-11-09,1,,,,,エムエープロモーションズ,0
1836,6010401170740,新規,0,2022-11-09,2022-11-09,株式会社ピスターシュ,,株式会社,東京都,港区,南青山３丁目１番３６号青山丸竹ビル６Ｆ,,13,103,1070062,,,,,,,2022-11-09,1,,,,,ピスターシュ,0
1839,6010403028615,新規,0,2022-11-09,2022-11-09,合同会社Ｈｏｒｉｚｏｎｉｘ,,合同会社,東京都,港区,浜松町２丁目２番１５号浜松町ダイヤビル２Ｆ,,13,103,1050013,,,,,,,2022-11-09,1,,,,,ホライゾニクス,0
1840,6010403028821,新規,0,2022-11-09,2022-11-09,合同会社トリニティビジョン,,合同会社,東京都,港区,三田１丁目１番１２―１５０２号,,13,103,1080073,,,,,,,2022-11-09,1,,,,,トリニティビジョン,0
1841,6010403028854,新規,0,2022-11-09,2022-11-09,合同会社ｋｔｃ,,合同会社,東京都,港区,麻布十番２丁目７番５号カスタリア麻布十番七面坂２０５,,13,103,1060045,,,,,,,2022-11-09,1,,,,,ケーティーシー,0
1845,6010601062110,新規,0,2022-11-09,2022-11-09,ＳＪエクスプレス株式会社,,株式会社,東京都,墨田区,吾妻橋３丁目２－８コーポウエダ２０１室,,13,107,1300001,,,,,,,2022-11-09,1,,,,,エスジェーエクスプレス,0
1869,6011001150760,新規,0,2022-11-09,2022-11-09,株式会社だの,,株式会社,東京都,渋谷区,笹塚１丁目５８番７－８０１号ＰＡＲＫＨＩＬＬＳＴＯＷＥＲ,,13,113,1510073,,,,,,,2022-11-09,1,,,,,ダノ,0
1870,6011001150835,新規,0,2022-11-09,2022-11-09,ＫＳＴ　Ｃｉｔｙ　Ｐａｒｔｎｅｒｓ株式会社,,株式会社,東京都,渋谷区,代々木５丁目３１番５－２２０号,,13,113,1510053,,,,,,,2022-11-09,1,,,,,ケイエスティーシティパートナーズ,0
1874,6011003015672,新規,0,2022-11-09,2022-11-09,合同会社ジューク,,合同会社,東京都,目黒区,下目黒４丁目２０番２７号,,13,110,1530064,,,,,,,2022-11-09,1,,,,,ジューク,0
1881,6011101100748,新規,0,2022-11-09,2022-11-09,ＫＫＶ　ＪＡＰＡＮ株式会社,,株式会社,東京都,新宿区,高田馬場１丁目２４番９－６０２室,,13,104,1690075,,,,,,,2022-11-09,1,,,,,ケーケーヴィジャパン,0
1882,6011101100756,新規,0,2022-11-09,2022-11-09,ＩＴテクノロジー株式会社,,株式会社,東京都,新宿区,西新宿３丁目３番１３号西新宿水間ビル２Ｆ,,13,104,1600023,,,,,,,2022-11-09,1,,,,,アイティーテクノロジー,0
1883,6011103012363,新規,0,2022-11-09,2022-11-09,合同会社ＣＡＲＥＡＲ,,合同会社,東京都,新宿区,赤城下町４５,,13,104,1620803,,,,,,,2022-11-09,1,,,,,キャリア,0
1887,6011301028236,新規,0,2022-11-09,2022-11-09,株式会社ｂｉｇｇｒｏｕｎｄ,,株式会社,東京都,杉並区,天沼３丁目３１番４号,,13,115,1670032,,,,,,,2022-11-09,1,,,,,ビッググラウンド,0
1899,6013101009052,新規,0,2022-11-09,2022-11-09,ＳＡＭＩＮＡ　ＩＮＴＥＲＮＡＴＩＯＮＡＬ株式会社,,株式会社,東京都,青梅市,今井２丁目７６１番地の３,,13,205,1980023,,,,,,,2022-11-09,1,,,,,サミナインターナショナル,0
1902,6013301049897,新規,0,2022-11-09,2022-11-09,株式会社青島,,株式会社,東京都,豊島区,南大塚１丁目３６番４号,,13,116,1700005,,,,,,,2022-11-09,1,,,,,アオシマ,0
1903,6013301049906,新規,0,2022-11-09,2022-11-09,株式会社日信建設,,株式会社,東京都,豊島区,南池袋３丁目８－１ニックハイム南池袋２０３,,13,116,1710022,,,,,,,2022-11-09,1,,,,,ニッシンケンセツ,0
1904,6013305003405,新規,0,2022-11-09,2022-11-09,一般社団法人ＭＡＳＡ,,その他の設立登記法人,東京都,豊島区,西池袋１丁目１０番８号サン・グロウビル７階,,13,116,1710021,,,,,,,2022-11-09,1,,,,,マサ,0
1909,6020001148905,新規,0,2022-11-09,2022-11-09,株式会社サンクスシステムズ,,株式会社,神奈川県,川崎市幸区,小倉１番地１Ｅ－１５１２,,14,132,2120054,,,,,,,2022-11-09,1,,,,,サンクスシステムズ,0
1910,6020001148946,新規,0,2022-11-09,2022-11-09,株式会社ＭＳＣ,,株式会社,神奈川県,横浜市保土ケ谷区,坂本町２３７番地１,,14,106,2400043,,,,,,,2022-11-09,1,,,,,エムエスシー,0
1912,6020003022694,新規,0,2022-11-09,2022-11-09,合同会社メリル,,合同会社,神奈川県,川崎市川崎区,南町１１番地１７アーバンコート２０１号室,,14,131,2100015,,,,,,,2022-11-09,1,,,,,メリル,0
1913,6020005015713,新規,0,2022-11-09,2022-11-09,一般社団法人東南アジア人材開発センター,,その他の設立登記法人,神奈川県,横浜市神奈川区,沢渡４８－９,,14,102,2210844,,,,,,,2022-11-09,1,,,,,トウナンアジアジンザイカイハツセンター,0
1917,6021003012330,新規,0,2022-11-09,2022-11-09,トラストリビング合同会社,,合同会社,神奈川県,相模原市中央区,東淵野辺４丁目１３番１７－８号,,14,152,2520203,,,,,,,2022-11-09,1,,,,,トラストリビング,0
1921,6030001150926,新規,0,2022-11-09,2022-11-09,株式会社万福,,株式会社,埼玉県,上尾市,大字平方１７０２番地１１,,11,219,3620059,,,,,,,2022-11-09,1,,,,,マンプク,0
1922,6030001150959,新規,0,2022-11-09,2022-11-09,株式会社ＨＲＴ,,株式会社,埼玉県,さいたま市緑区,大字三室９５３－８,,11,109,3360911,,,,,,,2022-11-09,1,,,,,エイチアールティ,0
1923,6030001150967,新規,0,2022-11-09,2022-11-09,株式会社クールサポート,,株式会社,埼玉県,春日部市,藤塚２３７８番地１,,11,214,3440011,,,,,,,2022-11-09,1,,,,,クールサポート,0
1924,6030001151016,新規,0,2022-11-09,2022-11-09,株式会社みち,,株式会社,埼玉県,さいたま市見沼区,風渡野１丁目１０番地１１ＮＫコーポ１０３,,11,104,3370017,,,,,,,2022-11-09,1,,,,,ミチ,0
1932,6030003020532,新規,0,2022-11-09,2022-11-09,合同会社きこかこ商店,,合同会社,埼玉県,秩父郡小鹿野町,伊豆沢２５６番地２３,,11,365,3680104,,,,,,,2022-11-09,1,,,,,キコカコショウテン,0
1933,6030003020540,新規,0,2022-11-09,2022-11-09,合同会社ヌルキジェイピー,,合同会社,埼玉県,八潮市,大字大原５３７－３エスポアールＩＩ３０５,00128417,11,234,3400825,,,,,,,2022-11-09,1,,,,,ヌルキジェイピー,0
1939,6040001125761,新規,0,2022-11-09,2022-11-09,株式会社ＪＳＳ,,株式会社,千葉県,千葉市花見川区,幕張本郷２丁目４番１１号ニューよろづや第３ビル３階,,12,102,2620033,,,,,,,2022-11-09,1,,,,,ジェイエスエス,0
1940,6040001125778,新規,0,2022-11-09,2022-11-09,株式会社ＮＡＲＡＭＩＡ,,株式会社,千葉県,松戸市,古ケ崎１９２番地の６,,12,207,2710068,,,,,,,2022-11-09,1,,,,,ナラミア,0
1943,6040003021199,新規,0,2022-11-09,2022-11-09,翠佑庵合同会社,,合同会社,千葉県,袖ケ浦市,奈良輪３３６番地,,12,229,2990263,,,,,,,2022-11-09,1,,,,,スイユウアン,0
1944,6040003021216,新規,0,2022-11-09,2022-11-09,合同会社アキヤラボ,,合同会社,千葉県,大網白里市,四天木６８９番地２,,12,239,2993203,,,,,,,2022-11-09,1,,,,,アキヤラボ,0
1945,6040003021232,新規,0,2022-11-09,2022-11-09,合同会社Ｋ＆Ｋ,,合同会社,千葉県,習志野市,奏の杜２丁目３番２－７２８号,,12,216,2750028,,,,,,,2022-11-09,1,,,,,ケーアンドケー,0
1946,6040003021240,新規,0,2022-11-09,2022-11-09,合同会社ミートコンサルタントＭ＆Ｍ,,合同会社,千葉県,長生郡白子町,剃金２７２９番地６ダイアパレス白子第２－５１８,,12,424,2994203,,,,,,,2022-11-09,1,,,,,,0
1951,6050003006950,新規,0,2022-11-09,2022-11-09,合同会社８１,,合同会社,茨城県,坂東市,左平太新田字向６１８番地３,,08,228,3060512,,,,,,,2022-11-09,1,,,,,ハチジュウイチ,0
1952,6050003006975,新規,0,2022-11-09,2022-11-09,ＡＮ　ＣＨＡＵＣＨＩＮＧ　ＴＲＡＤＩＮＧ合同会社,,合同会社,茨城県,古河市,諸川１８７６番地３スズキハイツＡ－２０１,,08,204,3060126,,,,,,,2022-11-09,1,,,,,アンチャウチングトレーディング,0
1956,6060003004301,新規,0,2022-11-09,2022-11-09,Ｔｈｅ　Ｎｅｘｔ　Ｃｒｅａｔｅ合同会社,,合同会社,栃木県,小山市,大字大行寺１１０８番地３４パークヴィレッジ１１１号室,,09,208,3230041,,,,,,,2022-11-09,1,,,,,ザネクストクリエイト,0
1960,6070001039819,新規,0,2022-11-09,2022-11-09,株式会社内装屋フジノ,,株式会社,群馬県,前橋市,緑が丘町２０番地４アウル緑が丘Ａ－１０１号,,10,201,3710045,,,,,,,2022-11-09,1,,,,,ナイソウヤフジノ,0
1966,6100001035871,新規,0,2022-11-09,2022-11-09,株式会社Ｔｚ,,株式会社,長野県,上田市,菅平高原１２７８番地６２７,,20,203,3862204,,,,,,,2022-11-09,1,,,,,ティーズ,0
1971,6110001037108,新規,0,2022-11-09,2022-11-09,株式会社Ｎ‐ＴＥＣ,,株式会社,新潟県,新潟市東区,上王瀬町１番５０号,,15,102,9500063,,,,,,,2022-11-09,1,,,,,,0
1981,6120001250064,新規,0,2022-11-09,2022-11-09,株式会社ＣＲＥＡＴＥ,,株式会社,大阪府,大阪市西区,京町堀１丁目１６番２８号Ｗ４０２号室,,27,106,5500003,,,,,,,2022-11-09,1,,,,,クリエイト,0
1982,6120001250130,新規,0,2022-11-09,2022-11-09,アサヒ清風株式会社,,株式会社,大阪府,大阪市生野区,巽北１丁目１番１号１Ｆ－Ｇ,,27,116,5440004,,,,,,,2022-11-09,1,,,,,アサヒセイフウ,0
1983,6120001250147,新規,0,2022-11-09,2022-11-09,株式会社ＰＹＧＭＹ,,株式会社,大阪府,枚方市,磯島南町１５－１－１０４,,27,210,5731186,,,,,,,2022-11-09,1,,,,,ピグミー,0
1984,6120001250155,新規,0,2022-11-09,2022-11-09,株式会社Ｖ‐ｆｅｖｉｎｃｅｒｅ,,株式会社,大阪府,枚方市,御殿山南町３番５３－１０６号,,27,210,5731193,,,,,,,2022-11-09,1,,,,,ブイフェビンチェレ,0
1985,6120001250163,新規,0,2022-11-09,2022-11-09,株式会社Ｄ’ｓ　ａｓｓｅｔ,,株式会社,大阪府,大阪市北区,大淀南２丁目２番９－４９０４号,,27,127,5310075,,,,,,,2022-11-09,1,,,,,ディーズアセット,0
1986,6120001250205,新規,0,2022-11-09,2022-11-09,株式会社ＲＡＹＳ１,,株式会社,大阪府,大阪市住吉区,沢之町２丁目６番２９－０１号,,27,120,5580031,,,,,,,2022-11-09,1,,,,,レイズ,0
1992,6120101066492,新規,0,2022-11-09,2022-11-09,株式会社ＣＡＲＫＩＣＨＩ　ＰＯＬＩＳＨ,,株式会社,大阪府,堺市美原区,木材通２丁目２番７０号,,27,147,5870042,,,,,,,2022-11-09,1,,,,,カーキチポリッシュ,0
1994,6120103004921,新規,0,2022-11-09,2022-11-09,Ｔ’ｓ　Ｂｅｅ　Ｇｒｏｕｐ合同会社,,合同会社,大阪府,泉佐野市,下瓦屋４丁目２番３７号,,27,213,5980062,,,,,,,2022-11-09,1,,,,,ティーズビーグループ,0
1995,6120901046677,新規,0,2022-11-09,2022-11-09,株式会社ケイデンス,,株式会社,大阪府,高槻市,高垣町５０番２１号,,27,207,5690097,,,,,,,2022-11-09,1,,,,,ケイデンス,0
1996,6120903004360,新規,0,2022-11-09,2022-11-09,合同会社Ｐｒｏｏｆ,,合同会社,大阪府,茨木市,彩都やまぶき２丁目２番ジオ彩都のぞみ丘Ｂ－２０９,,27,211,5670086,,,,,,,2022-11-09,1,,,,,プルーフ,0
2007,6130001072986,新規,0,2022-11-09,2022-11-09,旭ウェルネス株式会社,,株式会社,京都府,京都市上京区,下丸屋町５０３番地,,26,102,6020000,,,,,,,2022-11-09,1,,,,,アサヒウェルネス,0
2008,6130001073019,新規,0,2022-11-09,2022-11-09,株式会社リンク,,株式会社,京都府,長岡京市,開田４丁目１番７号ＫＳビル３階,,26,209,6170826,,,,,,,2022-11-09,1,,,,,リンク,0
2009,6130005016626,新規,0,2022-11-09,2022-11-09,一般社団法人淡水生態研究所,,その他の設立登記法人,京都府,長岡京市,久貝２丁目２番２２号,,26,209,6170837,,,,,,,2022-11-09,1,,,,,タンスイセイタイケンキュウジョ,0
2013,6140001128028,新規,0,2022-11-09,2022-11-09,株式会社テイクワンエクスプレス,,株式会社,兵庫県,尼崎市,水堂町２丁目３４番１０号,,28,202,6610026,,,,,,,2022-11-09,1,,,,,テイクワンエクスプレス,0
2018,6140003018342,新規,0,2022-11-09,2022-11-09,グリーンコンシャスコミュニティー合同会社,,合同会社,兵庫県,神戸市北区,大沢町日西原４７,,28,109,6511525,,,,,,,2022-11-09,1,,,,,グリーンコンシャスコミュニティー,0
2019,6140005026368,新規,0,2022-11-09,2022-11-09,一般社団法人あくしゅ,,その他の設立登記法人,兵庫県,神戸市中央区,加納町４丁目１０番２３－１１０５号,,28,110,6500001,,,,,,,2022-11-09,1,,,,,アクシュ,0
2020,6150001025942,新規,0,2022-11-09,2022-11-09,ふたかみ喞筒株式会社,,株式会社,奈良県,香芝市,高山台３丁目３番地６,,29,210,6390256,,,,,,,2022-11-09,1,,,,,フタカミポンプ,0
2021,6150003002808,新規,0,2022-11-09,2022-11-09,合同会社ｒｕｌｅ,,合同会社,奈良県,御所市,大字櫛羅１２９９番地の２,,29,208,6392312,,,,,,,2022-11-09,1,,,,,ルール,0
2022,6160001024638,新規,0,2022-11-09,2022-11-09,株式会社ＴＲＭホールディングス,,株式会社,滋賀県,湖南市,岩根１６２２番地１０,,25,211,5203252,,,,,,,2022-11-09,1,,,,,ティーアールエムホールディングス,0
2023,6160003002732,新規,0,2022-11-09,2022-11-09,合同会社ＩＴＯＷＡ,,合同会社,滋賀県,蒲生郡日野町,大字大窪９０８番地,,25,383,5291603,,,,,,,2022-11-09,1,,,,,イトワ,0
2032,6180001153674,新規,0,2022-11-09,2022-11-09,株式会社Ｍ＆Ｍ　Ｌａｂｏｒａｔｏｒｙ,,株式会社,愛知県,豊明市,前後町仙人塚１７３６番地７８,,23,229,4701152,,,,,,,2022-11-09,1,,,,,エムアンドエムラボラトリー,0
2033,6180001153773,新規,0,2022-11-09,2022-11-09,株式会社梅田事務所,,株式会社,愛知県,名古屋市熱田区,横田１丁目１番５２号,,23,109,4560022,,,,,,,2022-11-09,1,,,,,ウメダジムショ,0
2038,6180003024469,新規,0,2022-11-09,2022-11-09,合同会社ＳＬＧｓ　ｄｗｅｌｌ,,合同会社,愛知県,名古屋市南区,元鳴尾町４３番地,,23,112,4570065,,,,,,,2022-11-09,1,,,,,エスエルジーズドウェル,0
2039,6180005019970,新規,0,2022-11-09,2022-11-09,特定非営利活動法人Ｓｏｔｔａｋｕ,,その他の設立登記法人,愛知県,名古屋市天白区,土原３丁目７０１番地の６,,23,116,4680026,,,,,,,2022-11-09,1,,,,,ソッタク,0
2042,6180301036769,新規,0,2022-11-09,2022-11-09,ＳＫ　Ｌｉｎｅ株式会社,,株式会社,愛知県,豊橋市,新本町８４番地（３０４）,,23,201,4400892,,,,,,,2022-11-09,1,,,,,エスケーライン,0
2043,6180301036777,新規,0,2022-11-09,2022-11-09,株式会社フェニックススポーツクラブ,,株式会社,愛知県,岡崎市,宇頭町字稲荷９４番地１,,23,202,4440905,,,,,,,2022-11-09,1,,,,,フェニックススポーツクラブ,0
2044,6180301036793,新規,0,2022-11-09,2022-11-09,株式会社ＭＡＲＣＥＲ,,株式会社,愛知県,西尾市,伊藤町村４番地４,,23,213,4450806,,,,,,,2022-11-09,1,,,,,マーサー,0
2049,6200001040655,新規,0,2022-11-09,2022-11-09,株式会社ｒｅａｌｉｓｅｒ,,株式会社,岐阜県,土岐市,泉郷町４丁目１６番地,,21,212,5095147,,,,,,,2022-11-09,1,,,,,レアリゼ,0
2050,6200001040663,新規,0,2022-11-09,2022-11-09,株式会社ＨＤ,,株式会社,岐阜県,各務原市,川島河田町９２５番地６８,,21,213,5016025,,,,,,,2022-11-09,1,,,,,エイチディー,0
2053,6220001025126,新規,0,2022-11-09,2022-11-09,株式会社しんち林業,,株式会社,石川県,白山市,鶴来今町タ１２６番地２,,17,210,9202125,,,,,,,2022-11-09,1,,,,,シンチリンギョウ,0
2059,6240001060633,新規,0,2022-11-09,2022-11-09,株式会社ＡＩＣグループホールディングス,,株式会社,広島県,広島市中区,中町１番１号,,34,101,7300037,,,,,,,2022-11-09,1,,,,,エーアイシーグループホールディングス,0
2060,6240001060641,新規,0,2022-11-09,2022-11-09,株式会社ＲＪ,,株式会社,広島県,福山市,新涯町４丁目２０番２１号,,34,207,7210955,,,,,,,2022-11-09,1,,,,,アールジェイ,0
2067,6260001037398,新規,0,2022-11-09,2022-11-09,株式会社ＴＨＲＥＥＭ,,株式会社,岡山県,岡山市北区,奥田２丁目３番２号,,33,101,7000933,,,,,,,2022-11-09,1,,,,,スリーム,0
2070,6280003001664,新規,0,2022-11-09,2022-11-09,合同会社飯石総合設備,,合同会社,島根県,邑智郡邑南町,上亀谷２６０番地１,,32,449,6960224,,,,,,,2022-11-09,1,,,,,イイシソウゴウセツビ,0
2075,6290001099444,新規,0,2022-11-09,2022-11-09,株式会社ゼロイチ,,株式会社,福岡県,福岡市中央区,大名２丁目６番１１号,,40,133,8100041,,,,,,,2022-11-09,1,,,,,ゼロイチ,0
2076,6290001099502,新規,0,2022-11-09,2022-11-09,株式会社Ｂｉａｎｃｏ　Ｆｒｏｎｔｉｅｒ,,株式会社,福岡県,福岡市博多区,美野島１丁目２３－３３リタリッチ博多１０２号室,,40,132,8120017,,,,,,,2022-11-09,1,,,,,ビアンコフロンティア,0
2077,6290001099527,新規,0,2022-11-09,2022-11-09,ビープラス株式会社,,株式会社,福岡県,福岡市南区,長住５丁目１６番１２号,,40,134,8111362,,,,,,,2022-11-09,1,,,,,ビープラス,0
2078,6290001099543,新規,0,2022-11-09,2022-11-09,株式会社ベース,,株式会社,福岡県,福岡市中央区,白金１丁目６番１４号,,40,133,8100012,,,,,,,2022-11-09,1,,,,,ベース,0
2079,6290001099551,新規,0,2022-11-09,2022-11-09,ホドック株式会社,,株式会社,福岡県,福岡市博多区,博多駅前２丁目１－１,,40,132,8120011,,,,,,,2022-11-09,1,,,,,ホドック,0
2081,6290003013155,新規,0,2022-11-09,2022-11-09,あんしん安全サポート合同会社,,合同会社,福岡県,福津市,花見が丘２丁目３番２５号,,40,224,8113214,,,,,,,2022-11-09,1,,,,,アンシンアンゼンサポート,0
2082,6290003013171,新規,0,2022-11-09,2022-11-09,合同会社ＵＮＩＣＯ,,合同会社,福岡県,福岡市中央区,桜坂１丁目１４番１８号ＥＳハウス１３,,40,133,8100024,,,,,,,2022-11-09,1,,,,,ユニコ,0
2083,6290801029039,新規,0,2022-11-09,2022-11-09,株式会社リベラ,,株式会社,福岡県,北九州市若松区,青葉台南２丁目４番１２号,,40,103,8080142,,,,,,,2022-11-09,1,,,,,リベラ,0
2087,6290803004246,新規,0,2022-11-09,2022-11-09,合同会社パークホールディングス,,合同会社,福岡県,北九州市小倉北区,大畠２丁目９番２号,,40,106,8020026,,,,,,,2022-11-09,1,,,,,パークホールディングス,0
2089,6300001013114,新規,0,2022-11-09,2022-11-09,株式会社ＪＯＹＲＯＩＤ,,株式会社,佐賀県,唐津市,厳木町本山３７８－３,,41,202,8493133,,,,,,,2022-11-09,1,,,,,ジョイロイド,0
2098,6320001019415,新規,0,2022-11-09,2022-11-09,株式会社ＲＩＮＳＨＯ,,株式会社,大分県,大分市,大字皆春１８４番地の１メルヴェーユＩＩ２０７,00128423,44,201,8700131,,,,,,,2022-11-09,1,,,,,リンショウ,0
2100,6320003003945,新規,0,2022-11-09,2022-11-09,５０Ｓ合同会社,,合同会社,大分県,大分市,東春日町１７番２０号,,44,201,8700037,,,,,,,2022-11-09,1,,,,,ゴーマルエス,0
2103,6330003009586,新規,0,2022-11-09,2022-11-09,ＴＫ　Ｐａｒｔｎｅｒｓ合同会社,,合同会社,熊本県,熊本市北区,津浦町２０－１３－２,,43,105,8600088,,,,,,,2022-11-09,1,,,,,ティーケーパートナーズ,0
2106,6340001025163,新規,0,2022-11-09,2022-11-09,ＳＴＢＪＡＰＡＮ株式会社,,株式会社,鹿児島県,鹿屋市,串良町有里６２８４番１,,46,203,8931602,,,,,,,2022-11-09,1,,,,,エスティービージャパン,0
2109,6360001031176,新規,0,2022-11-09,2022-11-09,株式会社つかさ,,株式会社,沖縄県,うるま市,字宮里８４９番地１１,,47,213,9042243,,,,,,,2022-11-09,1,,,,,ツカサ,0
2110,6360003012430,新規,0,2022-11-09,2022-11-09,合同会社昇利,,合同会社,沖縄県,那覇市,辻１丁目６番５－４０３号ライオンズマンション辻,00128409,47,201,9000037,,,,,,,2022-11-09,1,,,,,ショウリ,0
2111,6360003012439,新規,0,2022-11-09,2022-11-09,合同会社ビーエスワン,,合同会社,沖縄県,中頭郡北谷町,字浜川１１７番地５５エンズサーフサイド北谷コースト４０５,,47,326,9040112,,,,,,,2022-11-09,1,,,,,ビーエスワン,0
2112,6360003012463,新規,0,2022-11-09,2022-11-09,合同会社ＡｓｉｔａｒＺ,,合同会社,沖縄県,島尻郡八重瀬町,字安里７２２－１コンフォート八重瀬３－Ｂ,,47,362,9010514,,,,,,,2022-11-09,1,,,,,アシターズ,0
2115,6370001049201,新規,0,2022-11-09,2022-11-09,株式会社アートパラドックス,,株式会社,宮城県,仙台市青葉区,栗生５丁目２１番５号,,04,101,9893122,,,,,,,2022-11-09,1,,,,,アートパラドックス,0
2116,6370001049226,新規,0,2022-11-09,2022-11-09,株式会社ＰＬＯＷ　ＷＯＲＫＳ,,株式会社,宮城県,仙台市泉区,泉中央２丁目２０番地の８ハピネス日泉６０１,,04,105,9813133,,,,,,,2022-11-09,1,,,,,プローワークス,0
2119,6370003005895,新規,0,2022-11-09,2022-11-09,合同会社スマデリ,,合同会社,宮城県,仙台市青葉区,落合２丁目６番７号ウェルステージ丸浩６０８,,04,101,9893126,,,,,,,2022-11-09,1,,,,,スマデリ,0
2123,6380001033220,新規,0,2022-11-09,2022-11-09,株式会社谷建,,株式会社,福島県,福島市,南矢野目字谷地６０番地の１,,07,201,9600112,,,,,,,2022-11-09,1,,,,,タニケン,0
2124,6380001033229,新規,0,2022-11-09,2022-11-09,株式会社天翔工業,,株式会社,福島県,いわき市,岩間町上山１２６番地の１６,,07,204,9748222,,,,,,,2022-11-09,1,,,,,テンショウコウギョウ,0
2125,6380001033245,新規,0,2022-11-09,2022-11-09,中華そば我成株式会社,,株式会社,福島県,郡山市,芳賀２丁目１８番１７号,,07,203,9638813,,,,,,,2022-11-09,1,,,,,チュウカソバガナリ,0
2126,6380001033253,新規,0,2022-11-09,2022-11-09,株式会社いわき民報社,,株式会社,福島県,いわき市,常磐上矢田町叶作１３番地の３,,07,204,9718131,,,,,,,2022-11-09,1,,,,,イワキミンポウシャ,0
2133,6420001018068,新規,0,2022-11-09,2022-11-09,株式会社半蔵,,株式会社,青森県,十和田市,東二十一番町１２番２０号,,02,206,0340014,,,,,,,2022-11-09,1,,,,,ハンゾウ,0
2139,6430001087756,新規,0,2022-11-09,2022-11-09,ＦＳＳ株式会社,,株式会社,北海道,札幌市白石区,川下二条７丁目１番３０号,,01,104,0030862,,,,,,,2022-11-09,1,,,,,エフエスエス,0
2140,6430001087814,新規,0,2022-11-09,2022-11-09,株式会社Ｅｘｃｅｌｌｅｎｔ,,株式会社,北海道,札幌市手稲区,稲穂一条１丁目１２番２４号,,01,109,0060031,,,,,,,2022-11-09,1,,,,,エクセレント,0
2146,6480001011918,新規,0,2022-11-09,2022-11-09,ｈｏｔｍｉｘ株式会社,,株式会社,徳島県,徳島市,国府町早淵２０５番地の３２,,36,201,7793125,,,,,,,2022-11-09,1,,,,,ホットミックス,0
2147,6480003001891,新規,0,2022-11-09,2022-11-09,合同会社ｍｉｒａｉｔｏ,,合同会社,徳島県,板野郡北島町,高房字百広花２６番地７,,36,402,7710206,,,,,,,2022-11-09,1,,,,,ミライト,0
2150,6500001024586,新規,0,2022-11-09,2022-11-09,株式会社おむすび,,株式会社,愛媛県,新居浜市,庄内町４丁目６番６８号,,38,205,7920811,,,,,,,2022-11-09,1,,,,,オムスビ,0
2154,6500003002920,新規,0,2022-11-09,2022-11-09,合同会社ｐｉｊｏｕ,,合同会社,愛媛県,四国中央市,川之江町２０７８番地,,38,213,7990101,,,,,,,2022-11-09,1,,,,,ピジュー,0
2155,6700150112675,新規,0,2022-11-09,2022-11-09,Ｙｏｕｘｉ　Ｃｏｕｎｔｙ　Ｔｏｎｇｇｅ　Ｂｅａｕｔｙ　Ｓｔｕｄｉｏ,,外国会社等,,,,,,,,３２　Ｐｏ　ｔａｕ　ｖｉｌｌａｇｅ　Ｓａｎｍｉｎｇ／ｃｈｅｎｇｇｕａｎ　Ｆｕｊｉａｎ　３６５１００　ＣＮ,,,,,,2022-11-09,1,,,,,ユウシーカントリートンゴオビユーテイースタジオ,0
2163,7010001230555,新規,0,2022-11-09,2022-11-09,ｉｍａｎｏｃ株式会社,,株式会社,東京都,中央区,日本橋富沢町７番１６号ＴＨＥＧＡＴＥ日本橋人形町４階,,13,102,1030006,,,,,,,2022-11-09,1,,,,,アイマノック,0
2164,7010001230654,新規,0,2022-11-09,2022-11-09,株式会社ＡＭＴＫ,,株式会社,東京都,文京区,本郷４丁目３３番１２号,,13,105,1130033,,,,,,,2022-11-09,1,,,,,エイエムティーケー,0
2165,7010001230687,新規,0,2022-11-09,2022-11-09,株式会社Ｄ＆Ｃ　Ｓｕｃｃｅｓｓ,,株式会社,東京都,中央区,日本橋３丁目２番１４号,,13,102,1030027,,,,,,,2022-11-09,1,,,,,ディーアンドシーサクセス,0
2166,7010001230704,新規,0,2022-11-09,2022-11-09,株式会社ＡＭ,,株式会社,東京都,文京区,大塚５丁目１６番１７号,,13,105,1120012,,,,,,,2022-11-09,1,,,,,エーエム,0
2167,7010001230720,新規,0,2022-11-09,2022-11-09,株式会社博多トレーディング,,株式会社,東京都,文京区,千石１丁目２７番１２号,,13,105,1120011,,,,,,,2022-11-09,1,,,,,,0
2168,7010001230729,新規,0,2022-11-09,2022-11-09,Ｒａｒｅ株式会社,,株式会社,東京都,千代田区,岩本町２丁目１７－４泰合ビルＩＩ,00128418,13,101,1010032,,,,,,,2022-11-09,1,,,,,レア,0
2169,7010001230737,新規,0,2022-11-09,2022-11-09,株式会社Ａｍｂｅｒ　ＰＤ,,株式会社,東京都,中央区,銀座４丁目１４番１５号,,13,102,1040061,,,,,,,2022-11-09,1,,,,,アンバーピーディー,0
2170,7010003039004,新規,0,2022-11-09,2022-11-09,合同会社ＨＮＰ,,合同会社,東京都,千代田区,九段南１丁目５－６りそな九段ビル５階,,13,101,1020074,,,,,,,2022-11-09,1,,,,,エイチエヌピー,0
2171,7010003039012,新規,0,2022-11-09,2022-11-09,合同会社ＴＳＵ,,合同会社,東京都,中央区,日本橋小伝馬町２番８号,,13,102,1030001,,,,,,,2022-11-09,1,,,,,ティーエスユー,0
2172,7010003039029,新規,0,2022-11-09,2022-11-09,ＨＫ　ｐｒｏ合同会社,,合同会社,東京都,中央区,日本橋横山町９－１４－１Ｆ,,13,102,1030003,,,,,,,2022-11-09,1,,,,,エイチケイプロ,0
2173,7010003039045,新規,0,2022-11-09,2022-11-09,合同会社ＭＫＳＣ,,合同会社,東京都,中央区,東日本橋２丁目２８番４号日本橋ＣＥＴビル２階,,13,102,1030004,,,,,,,2022-11-09,1,,,,,エムケイエスシー,0
2174,7010003039061,新規,0,2022-11-09,2022-11-09,合同会社ｒａｍｏ,,合同会社,東京都,中央区,入船３丁目８番９号ドシミールカワイ５０１,,13,102,1040042,,,,,,,2022-11-09,1,,,,,ラモ,0
2175,7010005035760,新規,0,2022-11-09,2022-11-09,一般社団法人ＫＳＴ２,,その他の設立登記法人,東京都,千代田区,内幸町２丁目１番６号,,13,101,1000011,,,,,,,2022-11-09,1,,,,,ケイエスティーツー,0
2178,7010103002019,新規,0,2022-11-09,2022-11-09,合同会社北八興業,,合同会社,東京都,八王子市,大和田町５丁目１４番２号－３０１,,13,201,1920045,,,,,,,2022-11-09,1,,,,,キタハチコウギョウ,0
2192,7010401170624,新規,0,2022-11-09,2022-11-09,株式会社ＷＡＢＩＳＵＫＥ,,株式会社,東京都,港区,六本木３丁目１４－１４ＶＯＲＴ六本木ｂｒｉｌｌｅｒ４階,,13,103,1060032,,,,,,,2022-11-09,1,,,,,ワビスケ,0
2193,7010401170665,新規,0,2022-11-09,2022-11-09,株式会社Ｔｒｉｇｇｅｒ　Ｈｏｌｄｉｎｇｓ,,株式会社,東京都,港区,虎ノ門４丁目１番１号神谷町トラストタワー２３Ｆ,,13,103,1050001,,,,,,,2022-11-09,1,,,,,トリガーホールディングス,0
2194,7010401170715,新規,0,2022-11-09,2022-11-09,株式会社ラッキーハウス,,株式会社,東京都,港区,芝２丁目３０番１１号芝コトブキビル８Ｆ,,13,103,1050014,,,,,,,2022-11-09,1,,,,,ラッキーハウス,0
2195,7010401170723,新規,0,2022-11-09,2022-11-09,ＤｒｉｖｅＣｈｅｃｋｅｒ株式会社,,株式会社,東京都,港区,六本木７丁目８番６号,,13,103,1060032,,,,,,,2022-11-09,1,,,,,ドライブチェッカー,0
2196,7010403028861,新規,0,2022-11-09,2022-11-09,合同会社恵比寿リゾート,,合同会社,東京都,港区,西新橋１丁目２番９号メンターキャピタル税理士法人内,,13,103,1050003,,,,,,,2022-11-09,1,,,,,エビスリゾート,0
2198,7010601062092,新規,0,2022-11-09,2022-11-09,株式会社シリウスリンク,,株式会社,東京都,江東区,毛利２丁目５番５号,,13,108,1350001,,,,,,,2022-11-09,1,,,,,シリウスリンク,0
2199,7010605004149,新規,0,2022-11-09,2022-11-09,社会保険労務士法人つばさ,,その他の設立登記法人,東京都,江東区,大島６丁目１番５－６２９号,,13,108,1360072,,,,,,,2022-11-09,1,,,,,ツバサ,0
2205,7010701043422,新規,0,2022-11-09,2022-11-09,株式会社ｒｏｏｆｔｏｐ,,株式会社,東京都,品川区,小山３丁目１４番２－２７１２号,,13,109,1420062,,,,,,,2022-11-09,1,,,,,ルーフトップ,0
2220,7010901051935,新規,0,2022-11-09,2022-11-09,株式会社ハシル,,株式会社,東京都,世田谷区,上用賀１丁目９番５－４０８号,,13,112,1580098,,,,,,,2022-11-09,1,,,,,ハシル,0
2229,7011001150677,新規,0,2022-11-09,2022-11-09,株式会社ｅＢｅａｔ,,株式会社,東京都,渋谷区,道玄坂１丁目１０番８号渋谷道玄坂東急ビル２Ｆ－Ｃ,,13,113,1500043,,,,,,,2022-11-09,1,,,,,イービート,0
2230,7011001150693,新規,0,2022-11-09,2022-11-09,株式会社ＳＡＴＲＡＳ,,株式会社,東京都,渋谷区,代々木５丁目３３－２パラシオベラビスタ２１０,,13,113,1510053,,,,,,,2022-11-09,1,,,,,サトラス,0
2231,7011001150702,新規,0,2022-11-09,2022-11-09,ＩＳＴ　Ｓｐｏｒｔｓ株式会社,,株式会社,東京都,渋谷区,神南１丁目１５番３号神南プラザビル６０２号,,13,113,1500041,,,,,,,2022-11-09,1,,,,,アイエスティースポーツ,0
2232,7011001150834,新規,0,2022-11-09,2022-11-09,Ａ＆Ａｗｏｒｋｓ株式会社,,株式会社,東京都,渋谷区,恵比寿３丁目３７番１０－１００４号ＺＯＯＭ恵比寿,,13,113,1500013,,,,,,,2022-11-09,1,,,,,エーダブルワークス,0
2253,7011501028646,新規,0,2022-11-09,2022-11-09,佑恩技術株式会社,,株式会社,東京都,北区,志茂４丁目３２－３,,13,117,1150042,,,,,,,2022-11-09,1,,,,,ユーオンギジュツ,0
2255,7011701025765,新規,0,2022-11-09,2022-11-09,株式会社ルート,,株式会社,東京都,江戸川区,西小岩４丁目８番２３号ハニーハイツ２０１,,13,123,1330057,,,,,,,2022-11-09,1,,,,,ルート,0
2258,7011801041522,新規,0,2022-11-09,2022-11-09,ジェイナス株式会社,,株式会社,東京都,足立区,竹の塚２丁目８番１８－５０３号,,13,121,1210813,,,,,,,2022-11-09,1,,,,,ジェイナス,0
2270,7013301049913,新規,0,2022-11-09,2022-11-09,株式会社ｃｏｌｌｅｃｔｏｒ’ｓ　ｉｎｖｅｓｔｍｅｎｔ,,株式会社,東京都,豊島区,北大塚１丁目１６番５号パークアクシス大塚ＳＧＴ,,13,116,1700004,,,,,,,2022-11-09,1,,,,,コレクターズインベストメント,0
2285,7021001077382,新規,0,2022-11-09,2022-11-09,株式会社Ｋａｚａｍａ,,株式会社,神奈川県,小田原市,蓮正寺７０７番地の４アーバンシティ小田原蛍田１１１１,,14,206,2500865,,,,,,,2022-11-09,1,,,,,カザマ,0
2286,7021003012338,新規,0,2022-11-09,2022-11-09,合同会社ＶＥＮＴ,,合同会社,神奈川県,平塚市,西八幡２丁目１６－１４ＨＩＲＡＮＯ・ＡＰＡＲＴＭＥＮＴ１０１,,14,203,2540073,,,,,,,2022-11-09,1,,,,,ヴォン,0
2295,7030001150966,新規,0,2022-11-09,2022-11-09,株式会社東部マネジメント,,株式会社,埼玉県,八潮市,大字新町１番地１,,11,234,3400807,,,,,,,2022-11-09,1,,,,,トウブマネジメント,0
2296,7030001150974,新規,0,2022-11-09,2022-11-09,株式会社関川工業,,株式会社,埼玉県,川口市,赤井４丁目２番３号,,11,203,3340073,,,,,,,2022-11-09,1,,,,,セキカワコウギョウ,0
2297,7030001150990,新規,0,2022-11-09,2022-11-09,ＵＬＵ株式会社,,株式会社,埼玉県,所沢市,大字上安松９０３番地の７,,11,208,3590025,,,,,,,2022-11-09,1,,,,,ウル,0
2304,7030003020531,新規,0,2022-11-09,2022-11-09,合同会社イシバシ貿易,,合同会社,埼玉県,さいたま市南区,辻８丁目２０－１３－１０２,00128416,11,108,3360026,,,,,,,2022-11-09,1,,,,,イシバシボウエキ,0
2307,7030005021057,新規,0,2022-11-09,2022-11-09,一般社団法人優・ハーモニー,,その他の設立登記法人,埼玉県,川口市,本町４丁目３－１４,,11,203,3320012,,,,,,,2022-11-09,1,,,,,ユウハーモニー,0
2310,7040001125769,新規,0,2022-11-09,2022-11-09,ケアサポートカメリア株式会社,,株式会社,千葉県,千葉市中央区,椿森３丁目６番２－５号,,12,101,2600042,,,,,,,2022-11-09,1,,,,,ケアサポートカメリア,0
2312,7040003021223,新規,0,2022-11-09,2022-11-09,合同会社ｕｐ　ｆｌｏｏｒ,,合同会社,千葉県,船橋市,習志野台８丁目３９番１６号,,12,204,2740063,,,,,,,2022-11-09,1,,,,,アップフロア,0
2316,7060001035421,新規,0,2022-11-09,2022-11-09,株式会社コネクトユー,,株式会社,栃木県,栃木市,樋ノ口町４３番地５,,09,203,3280024,,,,,,,2022-11-09,1,,,,,コネクトユー,0
2317,7060001035438,新規,0,2022-11-09,2022-11-09,株式会社ＩＴＥ,,株式会社,栃木県,宇都宮市,石井町２５６８番地１１,,09,201,3210912,,,,,,,2022-11-09,1,,,,,アイティーイー,0
2320,7060003004300,新規,0,2022-11-09,2022-11-09,ＡＫＩＲＡ　ＡＵＴＯ　ＥＲＰＯＲＴ合同会社,,合同会社,栃木県,栃木市,岩舟町静戸字鯉ヶ島１６３１番１,,09,203,3294305,,,,,,,2022-11-09,1,,,,,アキラオートエクスポート,0
2321,7070001039818,新規,0,2022-11-09,2022-11-09,株式会社Ｂ４Ｌ,,株式会社,群馬県,前橋市,高井町１丁目１３番地１０,,10,201,3710857,,,,,,,2022-11-09,1,,,,,ビーフォーエル,0
2323,7070003004679,新規,0,2022-11-09,2022-11-09,ＳＥＤＡ合同会社,,合同会社,群馬県,高崎市,上佐野町３４８番地１,,10,202,3700857,,,,,,,2022-11-09,1,,,,,セダ,0
2324,7070003004695,新規,0,2022-11-09,2022-11-09,インベストアーツ合同会社,,合同会社,群馬県,前橋市,江田町４９番地７,,10,201,3710836,,,,,,,2022-11-09,1,,,,,インベストアーツ,0
2325,7080001025288,新規,0,2022-11-09,2022-11-09,株式会社えびすオート,,株式会社,静岡県,静岡市葵区,古庄１丁目７番地の４,,22,101,4200812,,,,,,,2022-11-09,1,,,,,エビスオート,0
2328,7090003002193,新規,0,2022-11-09,2022-11-09,合同会社ファイバース,,合同会社,山梨県,韮崎市,龍岡町下條東割４９０番地１,,19,207,4070032,,,,,,,2022-11-09,1,,,,,ファイバース,0
2332,7100001035854,新規,0,2022-11-09,2022-11-09,ドドド株式会社,,株式会社,長野県,松本市,寿中１丁目１４番２２号アグリビレッジＤ,,20,202,3990026,,,,,,,2022-11-09,1,,,,,ドドド,0
2333,7100001035862,新規,0,2022-11-09,2022-11-09,株式会社ＳＡＫＵＲＡＩ,,株式会社,長野県,伊那市,上牧５２８３番地１０,,20,209,3960006,,,,,,,2022-11-09,1,,,,,サクライ,0
2351,7120001249980,新規,0,2022-11-09,2022-11-09,株式会社宝栄商事,,株式会社,大阪府,大阪市西成区,北津守２丁目５番７－１２号,,27,122,5570061,,,,,,,2022-11-09,1,,,,,ホウエイショウジ,0
2352,7120001250154,新規,0,2022-11-09,2022-11-09,樟潤実業株式会社,,株式会社,大阪府,大阪市平野区,平野本町１丁目１番８号ツインコート平野１番館７０５号室,,27,126,5470044,,,,,,,2022-11-09,1,,,,,ショウジュンジツギョウ,0
2353,7120001250204,新規,0,2022-11-09,2022-11-09,株式会社海興,,株式会社,大阪府,大阪市港区,海岸通３丁目３番３号,,27,107,5520022,,,,,,,2022-11-09,1,,,,,カイコウ,0
2354,7120001250245,新規,0,2022-11-09,2022-11-09,株式会社ＴＡＢＩＢＩＴＯ,,株式会社,大阪府,大阪市福島区,福島５丁目７番２２号,,27,103,5530003,,,,,,,2022-11-09,1,,,,,タビビト,0
2356,7120003022824,新規,0,2022-11-09,2022-11-09,井口会計合同会社,,合同会社,大阪府,守口市,外島町２番２―４０９号,,27,209,5700096,,,,,,,2022-11-09,1,,,,,イグチカイケイ,0
2364,7120101066483,新規,0,2022-11-09,2022-11-09,株式会社ひこ,,株式会社,大阪府,羽曳野市,桃山台２丁目５番１７号,,27,222,5830873,,,,,,,2022-11-09,1,,,,,ヒコ,0
2365,7120101066500,新規,0,2022-11-09,2022-11-09,大成株式会社,,株式会社,大阪府,泉南郡田尻町,嘉祥寺６９５番地９,,27,362,5980091,,,,,,,2022-11-09,1,,,,,ダイセイ,0
2366,7120101066509,新規,0,2022-11-09,2022-11-09,株式会社Ｓｅａ　ｙｏｕ,,株式会社,大阪府,堺市堺区,戎島町５丁３番地,,27,141,5900985,,,,,,,2022-11-09,1,,,,,シーユー,0
2367,7120103004920,新規,0,2022-11-09,2022-11-09,合同会社ＨＡｔｔ,,合同会社,大阪府,堺市西区,浜寺公園町３丁２５２番地６,,27,144,5928346,,,,,,,2022-11-09,1,,,,,ハット,0
2371,7122001036384,新規,0,2022-11-09,2022-11-09,株式会社ＳＫ‐ＳＭＩＬＥ,,株式会社,大阪府,八尾市,高砂町５丁目６番地の１グランデフィオーレ２０３号,,27,212,5810822,,,,,,,2022-11-09,1,,,,,エスケースマイル,0
2372,7122001036392,新規,0,2022-11-09,2022-11-09,株式会社Ｂｏａｔ　Ｌｉｆｅ,,株式会社,大阪府,東大阪市,新家２丁目６番２３号,,27,227,5770025,,,,,,,2022-11-09,1,,,,,ボートライフ,0
2373,7122003002434,新規,0,2022-11-09,2022-11-09,合同会社１０９,,合同会社,大阪府,東大阪市,新町５－２８,,27,227,5798037,,,,,,,2022-11-09,1,,,,,イチマルキュウ,0
2374,7122003002450,新規,0,2022-11-09,2022-11-09,合同会社リタハーツ,,合同会社,大阪府,柏原市,堂島町３番２１号,,27,221,5820003,,,,,,,2022-11-09,1,,,,,リタハーツ,0
2378,7130001072977,新規,0,2022-11-09,2022-11-09,株式会社タニグチ工業,,株式会社,京都府,舞鶴市,溝尻町７番地２２,,26,202,6250042,,,,,,,2022-11-09,1,,,,,タニグチコウギョウ,0
2379,7130001072985,新規,0,2022-11-09,2022-11-09,株式会社ＳＡＦＥ　ＢＡＳＥ,,株式会社,京都府,京都市伏見区,桃山町三河６９番地２３,,26,109,6128029,,,,,,,2022-11-09,1,,,,,セーフベース,0
2380,7130001073026,新規,0,2022-11-09,2022-11-09,株式会社つなぐ,,株式会社,京都府,相楽郡精華町,光台１丁目７ラボ棟第Ｌ１１０９－１号室,,26,366,6190237,,,,,,,2022-11-09,1,,,,,ツナグ,0
2387,7140001128019,新規,0,2022-11-09,2022-11-09,株式会社アラカイマネジメント,,株式会社,兵庫県,神戸市灘区,新在家北町２丁目３番１－６１０号,,28,102,6570861,,,,,,,2022-11-09,1,,,,,アラカイマネジメント,0
2395,7160001024637,新規,0,2022-11-09,2022-11-09,株式会社コバカンパニー,,株式会社,滋賀県,甲賀市,水口町高塚７番１４号,00128419,25,209,5280011,,,,,,,2022-11-09,1,,,,,コバカンパニー,0
2398,7160003002731,新規,0,2022-11-09,2022-11-09,合同会社ＵＳＪ,,合同会社,滋賀県,甲賀市,水口町北脇１５０６番地,,25,209,5280057,,,,,,,2022-11-09,1,,,,,ユーエスジェイ,0
2411,7180001153772,新規,0,2022-11-09,2022-11-09,株式会社グリーゼ,,株式会社,愛知県,名古屋市中川区,十一番町２丁目１番地,,23,110,4540056,,,,,,,2022-11-09,1,,,,,グリーゼ,0
2412,7180001153830,新規,0,2022-11-09,2022-11-09,株式会社優和,,株式会社,愛知県,稲沢市,正明寺２丁目２１番１３号,,23,220,4928145,,,,,,,2022-11-09,1,,,,,ユウワ,0
2418,7180003024451,新規,0,2022-11-09,2022-11-09,イケダリテールジャパン合同会社,,合同会社,愛知県,名古屋市中村区,則武２丁目２２番２号（プレサンス名古屋ＳＴＡＴＩＯＮビーフレックス１３０６号）,,23,105,4530014,,,,,,,2022-11-09,1,,,,,イケダリテールジャパン,0
2420,7180005019978,新規,0,2022-11-09,2022-11-09,特定非営利活動法人ＦＩＥＳＴＡ,,その他の設立登記法人,愛知県,半田市,乙川高良町２０番地,,23,205,4750052,,,,,,,2022-11-09,1,,,,,フィエスタ,0
2423,7180301036768,新規,0,2022-11-09,2022-11-09,株式会社ＫＳＳ,,株式会社,愛知県,豊橋市,牟呂大西町１４番地２２,,23,201,4418089,,,,,,,2022-11-09,1,,,,,ケイエスエス,0
2424,7180301036801,新規,0,2022-11-09,2022-11-09,株式会社ファインクリエイト,,株式会社,愛知県,豊橋市,高洲町字小島１４５番地１,,23,201,4418006,,,,,,,2022-11-09,1,,,,,ファインクリエイト,0
2429,7200003005738,新規,0,2022-11-09,2022-11-09,合同会社ＴＭＲＰ,,合同会社,岐阜県,高山市,本母町１３番地,,21,203,5060003,,,,,,,2022-11-09,1,,,,,ティーエムアールピー,0
2431,7210001019144,新規,0,2022-11-09,2022-11-09,株式会社ｃａｔａｄｏｏｒ　ｐｅｒｉｏｄ,,株式会社,福井県,福井市,北四ツ居２丁目１３番１０号,,18,201,9188205,,,,,,,2022-11-09,1,,,,,カタドルピリオド,0
2437,7240001060624,新規,0,2022-11-09,2022-11-09,株式会社アールアンドエムホーム,,株式会社,広島県,呉市,焼山北２丁目１８番１号,,34,202,7370911,,,,,,,2022-11-09,1,,,,,アールアンドエムホーム,0
2439,7250001019834,新規,0,2022-11-09,2022-11-09,株式会社葬祭のまごころ,,株式会社,山口県,大島郡周防大島町,大字久賀４３６５番地,,35,305,7422301,,,,,,,2022-11-09,1,,,,,ソウサイノマゴコロ,0
2440,7250005008783,新規,0,2022-11-09,2022-11-09,一般社団法人梅光学院同窓会,,その他の設立登記法人,山口県,下関市,向洋町１丁目１番１号,,35,201,7500041,,,,,,,2022-11-09,1,,,,,バイコウガクインドウソウカイ,0
2442,7260001037389,新規,0,2022-11-09,2022-11-09,岡山倉庫株式会社,,株式会社,岡山県,岡山市東区,西大寺上２丁目６番５－４号,,33,103,7048112,,,,,,,2022-11-09,1,,,,,オカヤマソウコ,0
2451,7290001099427,新規,0,2022-11-09,2022-11-09,株式会社いいねフォト,,株式会社,福岡県,福岡市博多区,上川端町９番３３号,,40,132,8120026,,,,,,,2022-11-09,1,,,,,イイネフォト,0
2452,7290001099534,新規,0,2022-11-09,2022-11-09,農地所有適格法人株式会社宇佐川農園,,株式会社,福岡県,久留米市,荒木町今１６４番地１,,40,203,8300065,,,,,,,2022-11-09,1,,,,,ウサガワノウエン,0
2453,7290001099542,新規,0,2022-11-09,2022-11-09,株式会社壷,,株式会社,福岡県,福岡市博多区,中洲４丁目３番１６号２Ｆ,,40,132,8100801,,,,,,,2022-11-09,1,,,,,ツボ,0
2454,7290001099550,新規,0,2022-11-09,2022-11-09,株式会社松本,,株式会社,福岡県,那珂川市,中原４丁目１７,,40,231,8111213,,,,,,,2022-11-09,1,,,,,マツモト,0
2457,7290801029046,新規,0,2022-11-09,2022-11-09,株式会社武道,,株式会社,福岡県,北九州市八幡西区,上上津役２丁目２番２７号,,40,109,8070072,,,,,,,2022-11-09,1,,,,,タケミチ,0
2467,7330001030279,新規,0,2022-11-09,2022-11-09,ＦＵＫＵＩ工業株式会社,,株式会社,熊本県,熊本市西区,中島町１８８３番地,,43,103,8615272,,,,,,,2022-11-09,1,,,,,フクイコウギョウ,0
2474,7350001018033,新規,0,2022-11-09,2022-11-09,松乃興業株式会社,,株式会社,宮崎県,宮崎市,清武町木原６１５６番地５,,45,201,8891601,,,,,,,2022-11-09,1,,,,,マツノコウギョウ,0
2476,7360001031159,新規,0,2022-11-09,2022-11-09,株式会社ｆａｍｉｌｙ,,株式会社,沖縄県,那覇市,字安里１０５番地トンガリロ３０４,,47,201,9020067,,,,,,,2022-11-09,1,,,,,ファミリー,0
2477,7360001031175,新規,0,2022-11-09,2022-11-09,株式会社ＣｏＣｏ,,株式会社,沖縄県,那覇市,古波蔵３丁目３番３７－７０５号ブランシエラ那覇古波蔵,,47,201,9000024,,,,,,,2022-11-09,1,,,,,ココ,0
2479,7370001049241,新規,0,2022-11-09,2022-11-09,ＬＥＬＵ株式会社,,株式会社,宮城県,仙台市青葉区,春日町５番１６号,,04,101,9800821,,,,,,,2022-11-09,1,,,,,レル,0
2498,7430001087813,新規,0,2022-11-09,2022-11-09,株式会社ＳＥＯＪＩＮ,,株式会社,北海道,札幌市中央区,宮の森三条２丁目２番１１号,,01,101,0640953,,,,,,,2022-11-09,1,,,,,ソジン,0
2499,7430001087821,新規,0,2022-11-09,2022-11-09,株式会社ワンス北海道,,株式会社,北海道,苫小牧市,浜町２丁目６番９号,,01,213,0530014,,,,,,,2022-11-09,1,,,,,ワンスホッカイドウ,0
2502,7430003014427,新規,0,2022-11-09,2022-11-09,合同会社ＭＡＬＩＶ,,合同会社,北海道,札幌市厚別区,厚別北四条５丁目４－８,,01,108,0040074,,,,,,,2022-11-09,1,,,,,マリヴ,0
2506,7460305001987,新規,0,2022-11-09,2022-11-09,農事組合法人ノーザンライツ,,その他の設立登記法人,北海道,常呂郡置戸町,字雄勝５７１番地１,,01,550,0991362,,,,,,,2022-11-09,1,,,,,ノーザンライツ,0
2507,7470001019333,新規,0,2022-11-09,2022-11-09,株式会社クローバーリアルエステート,,株式会社,香川県,丸亀市,土器町東９丁目２６０番地３,,37,202,7630082,,,,,,,2022-11-09,1,,,,,クローバーリアルエステート,0
2508,7470003002279,新規,0,2022-11-09,2022-11-09,合同会社豊島工業,,合同会社,香川県,丸亀市,川西町北４６２番地１０,,37,202,7630091,,,,,,,2022-11-09,1,,,,,トヨシマコウギョウ,0
2509,7480003001890,新規,0,2022-11-09,2022-11-09,チサンプロダクツ合同会社,,合同会社,徳島県,鳴門市,大麻町東馬詰字参番越２８－１,,36,202,7790312,,,,,,,2022-11-09,1,,,,,チサンプロダクツ,0
2513,7700150112674,新規,0,2022-11-09,2022-11-09,ＳＯＮＹ　ＲＥＳＥＡＲＣＨ　ＩＮＤＩＡ　ＰＲＩＶＡＴＥ　ＬＩＭＩＴＥＤ,,外国会社等,,,,,,,,ＳＥＺ，Ｄｅｖａｒａｂｅｓａｎｅｈａｌｌｉ，Ｂａｎｇａｌｏｒｅ，Ｂａｎｇａｌｏｒｅ，Ｋａｒｎａｔａｋａ．Ｉｎｄｉａ，５６００３７,,,,,,2022-11-09,1,,,,,ソニーリサーチインデイアプライベートリミテツド,0
2518,8010001230686,新規,0,2022-11-09,2022-11-09,株式会社ＢＥＧ,,株式会社,東京都,中央区,銀座１丁目２２番１１号銀座大竹ビジデンス２階,,13,102,1040061,,,,,,,2022-11-09,1,,,,,ビーイージー,0
2519,8010001230703,新規,0,2022-11-09,2022-11-09,ＴＡＰ株式会社,,株式会社,東京都,中央区,銀座７丁目１３番２０号銀座ＴＨビル,,13,102,1040061,,,,,,,2022-11-09,1,,,,,ティーエイピー,0
2520,8010001230728,新規,0,2022-11-09,2022-11-09,株式会社ＰＬＡＮ　Ａ,,株式会社,東京都,中央区,銀座１丁目１２番４号Ｎ＆ＥＢＬＤ．６Ｆ,,13,102,1040061,,,,,,,2022-11-09,1,,,,,プランエー,0
2523,8010003039011,新規,0,2022-11-09,2022-11-09,合同会社ＹｏｕＸ,,合同会社,東京都,中央区,銀座１丁目２２番１１号銀座大竹ビジデンス２階,,13,102,1040061,,,,,,,2022-11-09,1,,,,,ユーエックス,0
2524,8010003039028,新規,0,2022-11-09,2022-11-09,スライブ合同会社,,合同会社,東京都,中央区,銀座１丁目６番１１号土志田ビルディング３Ｆ,,13,102,1040061,,,,,,,2022-11-09,1,,,,,スライブ,0
2525,8010003039044,新規,0,2022-11-09,2022-11-09,合同会社ＴＡｋａｔａｎ,,合同会社,東京都,中央区,銀座７丁目１３番６号サガミビル２階,,13,102,1040061,,,,,,,2022-11-09,1,,,,,タカタン,0
2526,8010005035719,新規,0,2022-11-09,2022-11-09,一般社団法人日本アマチュア映画祭振興協会,,その他の設立登記法人,東京都,千代田区,飯田橋４丁目５－１３,,13,101,1020072,,,,,,,2022-11-09,1,,,,,ニホンアマチュアエイガサイシンコウキョウカイ,0
2527,8010005035727,新規,0,2022-11-09,2022-11-09,特定非営利活動法人ＳＤＧｓ　ＨｅｌｌｏＷｏｒｋ,,その他の設立登記法人,東京都,千代田区,九段北１丁目５番５号東建ニューハイツ九段６０７,,13,101,1020073,,,,,,,2022-11-09,1,,,,,エスディジーズハローワーク,0
2528,8010101015392,新規,0,2022-11-09,2022-11-09,株式会社Ｂｕｉｌｄ　ＹＵ,,株式会社,東京都,八王子市,大和田町６丁目７番１６－１１１号,,13,201,1920045,,,,,,,2022-11-09,1,,,,,ビルドユー,0
2532,8010401170615,新規,0,2022-11-09,2022-11-09,株式会社Ｇｏ　Ｌｏｏｐ,,株式会社,東京都,港区,芝大門１丁目６番６号芝大門ヤマトビル３階,,13,103,1050012,,,,,,,2022-11-09,1,,,,,ゴーループ,0
2533,8010401170664,新規,0,2022-11-09,2022-11-09,株式会社ｓｏｒｒｉｓｏ,,株式会社,東京都,港区,芝浦４丁目２２番１－３８１１号,,13,103,1080023,,,,,,,2022-11-09,1,,,,,ソリーゾ,0
2539,8010701043454,新規,0,2022-11-09,2022-11-09,株式会社ワイルドオーシャン,,株式会社,東京都,品川区,荏原１丁目２０番７号,,13,109,1420063,,,,,,,2022-11-09,1,,,,,ワイルドオーシャン,0
2541,8010703006450,新規,0,2022-11-09,2022-11-09,Ｖｅｒｉｔｉｖ　Ｊａｐａｎ　Ｔｒａｄｉｎｇ合同会社,,合同会社,東京都,品川区,西五反田１丁目２６番２号五反田サンハイツビル２階,,13,109,1410031,,,,,,,2022-11-09,1,,,,,ベリティブジャパントレーディング,0
2549,8010901051926,新規,0,2022-11-09,2022-11-09,株式会社ボクともぐらと,,株式会社,東京都,世田谷区,奥沢３丁目３０－３プラウド奥沢５０３,,13,112,1580083,,,,,,,2022-11-09,1,,,,,ボクトモグタト,0
2554,8011001150676,新規,0,2022-11-09,2022-11-09,トリプルデザイン株式会社,,株式会社,東京都,渋谷区,恵比寿２丁目２４番６－３０１号,,13,113,1500013,,,,,,,2022-11-09,1,,,,,トリプルデザイン,0
2555,8011001150825,新規,0,2022-11-09,2022-11-09,株式会社７ＢｅＴ　Ｈｏｌｄｉｎｇｓ,,株式会社,東京都,渋谷区,道玄坂１丁目１０番８号渋谷道玄坂東急ビル２Ｆ－Ｃ,,13,113,1500043,,,,,,,2022-11-09,1,,,,,セブンベットホールディングス,0
2560,8011005009803,新規,0,2022-11-09,2022-11-09,一般社団法人日本デジタルアダプション協会,,その他の設立登記法人,東京都,渋谷区,渋谷２丁目２４番１２号ＷｅＷｏｒｋ渋谷スクランブルスクエア内,,13,113,1500002,,,,,,,2022-11-09,1,,,,,ニホンデジタルアダプションキョウカイ,0
2567,8011101100770,新規,0,2022-11-09,2022-11-09,株式会社ＡＭＯＮ,,株式会社,東京都,新宿区,西新宿４丁目２番１５－１５０３号,,13,104,1600023,,,,,,,2022-11-09,1,,,,,アモン,0
2568,8011101100795,新規,0,2022-11-09,2022-11-09,株式会社ＭｅＬＴ,,株式会社,東京都,新宿区,西新宿３丁目３番１３号西新宿水間ビル６階,,13,104,1600023,,,,,,,2022-11-09,1,,,,,メルト,0
2573,8011301028242,新規,0,2022-11-09,2022-11-09,Ｒｉｓｉｎｇ　Ｓｔａｒ株式会社,,株式会社,東京都,杉並区,荻窪４丁目２番１５号,,13,115,1670051,,,,,,,2022-11-09,1,,,,,ライジングスター,0
2575,8011303004571,新規,0,2022-11-09,2022-11-09,合同会社ｓｅｌｆ‐ｅｓｔｅｅｍ．ｐｒｏｊｅｃｔ,,合同会社,東京都,杉並区,成田東３丁目６番７号,,13,115,1660015,,,,,,,2022-11-09,1,,,,,セルフエスティームプロジェクト,0
2576,8011501028637,新規,0,2022-11-09,2022-11-09,株式会社ＭＯＤＥＬ‐１６,,株式会社,東京都,荒川区,東日暮里５丁目２９番５号,,13,118,1160014,,,,,,,2022-11-09,1,,,,,モデルイチロク,0
2577,8011503005353,新規,0,2022-11-09,2022-11-09,合同会社Ｄｏｕｂｌｅ３,,合同会社,東京都,北区,赤羽北２丁目３３番８－５０７号,,13,117,1150052,,,,,,,2022-11-09,1,,,,,ダブルスリー,0
2581,8011703003297,新規,0,2022-11-09,2022-11-09,合同会社だるまコンサルティングス,,合同会社,東京都,江戸川区,篠崎町２丁目３番５－４０３号ライオンズマンション篠崎駅前,,13,123,1330061,,,,,,,2022-11-09,1,,,,,ダルマコンサルティングス,0
2582,8011801041538,新規,0,2022-11-09,2022-11-09,株式会社ａｃｏｃｏすまいる,,株式会社,東京都,葛飾区,白鳥２丁目１６番２１－７０１号,,13,122,1250063,,,,,,,2022-11-09,1,,,,,アココスマイル,0
2587,8012701017339,新規,0,2022-11-09,2022-11-09,Ｅｎｐａｃｔ　Ｉｎｔｅｒｎａｔｉｏｎａｌ株式会社,,株式会社,東京都,東久留米市,学園町１丁目１４番３６号,,13,222,2030021,,,,,,,2022-11-09,1,,,,,アンパクトインターナショナル,0
2588,8012801021934,新規,0,2022-11-09,2022-11-09,株式会社立川ブレンド,,株式会社,東京都,立川市,錦町３丁目１２番１６号１階,,13,202,1900022,,,,,,,2022-11-09,1,,,,,タチカワブレンド,0
2589,8013103001179,新規,0,2022-11-09,2022-11-09,合同会社ＦＡｆａｃｔｏｒｙ,,合同会社,東京都,青梅市,今寺５丁目４番地の２５,,13,205,1980021,,,,,,,2022-11-09,1,,,,,エフエイファクトリー,0
2593,8013301049895,新規,0,2022-11-09,2022-11-09,悦麗株式会社,,株式会社,東京都,豊島区,南大塚３丁目３８番１４号－２０２室,,13,116,1700005,,,,,,,2022-11-09,1,,,,,エツレイ,0
2604,8020003022726,新規,0,2022-11-09,2022-11-09,合同会社エフテラス,,合同会社,神奈川県,川崎市宮前区,東有馬３丁目４番１０号,,14,136,2160002,,,,,,,2022-11-09,1,,,,,エフテラス,0
2618,8021003012345,新規,0,2022-11-09,2022-11-09,合同会社ＳＯＷ＆ＲＥＡＰ,,合同会社,神奈川県,厚木市,林２丁目２０番１８号,,14,212,2430816,,,,,,,2022-11-09,1,,,,,ソウアンドリープ,0
2629,8030001150932,新規,0,2022-11-09,2022-11-09,株式会社アップ,,株式会社,埼玉県,入間市,大字西三ツ木４７番地,,11,225,3580043,,,,,,,2022-11-09,1,,,,,アップ,0
2630,8030001150965,新規,0,2022-11-09,2022-11-09,株式会社Ｔ＆Ｙプランニング,,株式会社,埼玉県,三郷市,戸ケ崎２丁目５８８番地グランテラス水元公園２０４号,,11,237,3410044,,,,,,,2022-11-09,1,,,,,ティーアンドワイプランニング,0
2633,8030003020530,新規,0,2022-11-09,2022-11-09,合同会社ケイサック,,合同会社,埼玉県,狭山市,狭山台４丁目１３番地の１１,,11,215,3501304,,,,,,,2022-11-09,1,,,,,ケイサック,0
2634,8030003020539,新規,0,2022-11-09,2022-11-09,合同会社ＩＬＹｓ,,合同会社,埼玉県,さいたま市大宮区,仲町１丁目７８番地１ガルボ仲町ビル３階,,11,103,3300845,,,,,,,2022-11-09,1,,,,,イリユス,0
2636,8030005021064,新規,0,2022-11-09,2022-11-09,一般社団法人さくらの樹,,その他の設立登記法人,埼玉県,上尾市,藤波３丁目３０８番地１,,11,219,3620061,,,,,,,2022-11-09,1,,,,,サクラノキ,0
2639,8040001125801,新規,0,2022-11-09,2022-11-09,スリーケアホールディングス株式会社,,株式会社,千葉県,八千代市,村上１８９１番地７０,,12,221,2760028,,,,,,,2022-11-09,1,,,,,スリーケアホールディングス,0
2640,8040002081878,新規,0,2022-11-09,2022-11-09,有限会社渡瀬縫製,,有限会社,千葉県,茂原市,南吉田３４７番地,,12,210,2994104,,,,,,,2022-11-09,1,,,,,ワタセホウセイ,0
2641,8040003021239,新規,0,2022-11-09,2022-11-09,合同会社ＫＩＹＡＴＨＯ　ＩＮＴＥＲＮＡＴＩＯＮＡＬ,,合同会社,千葉県,富里市,新中沢５０３,,12,233,2860223,,,,,,,2022-11-09,1,,,,,キヤトインターナショナル,0
2642,8050001051930,新規,0,2022-11-09,2022-11-09,株式会社ＬＵＳＨ　ＧＯＬＤ,,株式会社,茨城県,鉾田市,子生６７６番地１０,,08,234,3111414,,,,,,,2022-11-09,1,,,,,ラッシュゴールド,0
2645,8050005013167,新規,0,2022-11-09,2022-11-09,税理士法人希望のみらい,,その他の設立登記法人,茨城県,古河市,茶屋新田２２２番地８,,08,204,3060051,,,,,,,2022-11-09,1,,,,,キボウノミライ,0
2651,8060003004299,新規,0,2022-11-09,2022-11-09,合同会社フォーチュンクリエイト,,合同会社,栃木県,小山市,大字乙女４２８番地７８,,09,208,3290214,,,,,,,2022-11-09,1,,,,,フォーチュンクリエイト,0
2653,8070001039791,新規,0,2022-11-09,2022-11-09,株式会社カーム,,株式会社,群馬県,太田市,本町２３番２４号,,10,205,3730057,,,,,,,2022-11-09,1,,,,,カーム,0
2657,8080001025270,新規,0,2022-11-09,2022-11-09,株式会社ｓｏｃｉａｌ　ｓｅｅｄ,,株式会社,静岡県,静岡市駿河区,石部４６番３０－８０４号,,22,102,4210123,,,,,,,2022-11-09,1,,,,,ソーシャルシード,0
2659,8080101023629,新規,0,2022-11-09,2022-11-09,株式会社ウル,,株式会社,静岡県,富士市,中央町２丁目２番５号,,22,210,4170052,,,,,,,2022-11-09,1,,,,,ウル,0
2661,8080401026141,新規,0,2022-11-09,2022-11-09,株式会社島野農園,,株式会社,静岡県,浜松市西区,伊左地町８８３８番地,,22,133,4311111,,,,,,,2022-11-09,1,,,,,シマノノウエン,0
2663,8090001017845,新規,0,2022-11-09,2022-11-09,スポーツライフ韮崎株式会社,,株式会社,山梨県,韮崎市,富士見３丁目７番２９号,,19,207,4070014,,,,,,,2022-11-09,1,,,,,スポーツライフニラサキ,0
2668,8100001035861,新規,0,2022-11-09,2022-11-09,ＡｒｔＭＨＩホテル投資株式会社,,株式会社,長野県,北安曇郡小谷村,大字千国乙１２８４０番地１,,20,486,3999422,,,,,,,2022-11-09,1,,,,,アートエムエイチアイホテルトウシ,0
2687,8120001250129,新規,0,2022-11-09,2022-11-09,株式会社ｂｏｋｕｒａ,,株式会社,大阪府,大阪市北区,紅梅町２番１７号,,27,127,5300038,,,,,,,2022-11-09,1,,,,,ボクラ,0
2688,8120001250153,新規,0,2022-11-09,2022-11-09,京畿美術株式会社,,株式会社,大阪府,大阪市中央区,南本町２丁目４番８号ミズワンビル５Ｆ,,27,128,5410054,,,,,,,2022-11-09,1,,,,,ケイキビジュツ,0
2689,8120001250161,新規,0,2022-11-09,2022-11-09,Ｓｕｎｃｅｌｌ株式会社,,株式会社,大阪府,大阪市東住吉区,中野３丁目３番１３号,,27,121,5460012,,,,,,,2022-11-09,1,,,,,サンセル,0
2694,8120003022815,新規,0,2022-11-09,2022-11-09,合同会社ＭＡＲＵＣＡ,,合同会社,大阪府,大阪市中央区,玉造２丁目６番１１号１Ｆ,,27,128,5400004,,,,,,,2022-11-09,1,,,,,マルカ,0
2695,8120003022823,新規,0,2022-11-09,2022-11-09,合同会社Ｒ＆Ｓ,,合同会社,大阪府,大阪市都島区,都島中通２丁目１５番４号,,27,102,5340022,,,,,,,2022-11-09,1,,,,,アールアンドエス,0
2697,8120005023290,新規,0,2022-11-09,2022-11-09,一般社団法人ＨＩＴＯＩＫＩ,,その他の設立登記法人,大阪府,交野市,東倉治１丁目２３番２号,,27,230,5760061,,,,,,,2022-11-09,1,,,,,ヒトイキ,0
2701,8120101066499,新規,0,2022-11-09,2022-11-09,株式会社ＲＥＳＵＲＧＥ,,株式会社,大阪府,堺市北区,北花田町３丁４１番地１－Ｄ,,27,146,5918002,,,,,,,2022-11-09,1,,,,,リサージュ,0
2702,8120101066508,新規,0,2022-11-09,2022-11-09,株式会社リンクスター,,株式会社,大阪府,松原市,別所５丁目６番９号,,27,217,5800005,,,,,,,2022-11-09,1,,,,,リンクスター,0
2714,8122001036367,新規,0,2022-11-09,2022-11-09,株式会社ＰＬＵＭセキュリティ,,株式会社,大阪府,東大阪市,大蓮南１丁目２３番３号,,27,227,5770825,,,,,,,2022-11-09,1,,,,,プラムセキュリティ,0
2722,8130001072992,新規,0,2022-11-09,2022-11-09,エンザパワー株式会社,,株式会社,京都府,京都市中京区,御池通東洞院東入笹屋町４３６番地永和御池ビル６０６号,,26,104,6048187,,,,,,,2022-11-09,1,,,,,エンザパワー,0
2723,8130001073025,新規,0,2022-11-09,2022-11-09,グローバルネットワーク株式会社,,株式会社,京都府,京都市中京区,塩屋町５４番地,,26,104,6048247,,,,,,,2022-11-09,1,,,,,グローバルネットワーク,0
2724,8130001073033,新規,0,2022-11-09,2022-11-09,株式会社イシハラモータース,,株式会社,京都府,京都市山科区,小野西浦６－１,,26,110,6078258,,,,,,,2022-11-09,1,,,,,イシハラモータース,0
2729,8130003008284,新規,0,2022-11-09,2022-11-09,合同会社ＴＴＨ,,合同会社,京都府,京都市東山区,西町１２７番地三条白川橋ビル２Ｆ,,26,105,6050037,,,,,,,2022-11-09,1,,,,,ティーティーエイチ,0
2730,8130003008292,新規,0,2022-11-09,2022-11-09,合同会社ＷＡＯ,,合同会社,京都府,京都市西京区,桂上野東町２０７番地,,26,111,6158003,,,,,,,2022-11-09,1,,,,,ワオ,0
2741,8140001128018,新規,0,2022-11-09,2022-11-09,株式会社ＬＰ土建,,株式会社,兵庫県,神戸市西区,中野１丁目４番地の１７,,28,111,6512136,,,,,,,2022-11-09,1,,,,,エルピードケン,0
2742,8140001128059,新規,0,2022-11-09,2022-11-09,Ｔ＆Ｉ　ＥＮＴＥＲＰＲＩＳＥＳ株式会社,,株式会社,兵庫県,神戸市北区,鈴蘭台東町７丁目１３番１１－２１１号,,28,109,6511112,,,,,,,2022-11-09,1,,,,,ティーアンドアイエンタープライシス,0
2748,8140003018340,新規,0,2022-11-09,2022-11-09,合同会社ｅｂｕｒｉｓ,,合同会社,兵庫県,神戸市東灘区,深江南町１丁目１１番２１－５０６号,,28,101,6580022,,,,,,,2022-11-09,1,,,,,エブリス,0
2752,8160001024636,新規,0,2022-11-09,2022-11-09,株式会社ｋｉｒｉｋａｅ,,株式会社,滋賀県,野洲市,小篠原１２６６番地１トモエアパート５号室,,25,210,5202331,,,,,,,2022-11-09,1,,,,,キリカエ,0
2753,8160003002730,新規,0,2022-11-09,2022-11-09,合同会社ジョブコンサルティング,,合同会社,滋賀県,守山市,水保町３９２番地,,25,207,5240102,,,,,,,2022-11-09,1,,,,,ジョブコンサルティング,0
2758,8170003001789,新規,0,2022-11-09,2022-11-09,合同会社福福商事,,合同会社,和歌山県,和歌山市,和歌浦東４丁目２番２９号,,30,201,6410021,,,,,,,2022-11-09,1,,,,,フクフクショウジ,0
2768,8190001029913,新規,0,2022-11-09,2022-11-09,株式会社ｓｈｉｍｉｚｕ,,株式会社,三重県,南牟婁郡紀宝町,鵜殿１９８２番地２,,24,562,5195701,,,,,,,2022-11-09,1,,,,,シミズ,0
2769,8190001029921,新規,0,2022-11-09,2022-11-09,ＮＳメタル株式会社,,株式会社,三重県,鈴鹿市,御薗町３６００番地の３０,,24,207,5100261,,,,,,,2022-11-09,1,,,,,エヌエスメタル,0
2777,8200003005737,新規,0,2022-11-09,2022-11-09,東海Ｌｉｆｅ　Ｃｒｅａｔｅ　Ｇｒｏｕｐ合同会社,,合同会社,岐阜県,山県市,高富１５８７番地２,,21,215,5012105,,,,,,,2022-11-09,1,,,,,トウカイライフクリエイトグループ,0
2785,8250005008782,新規,0,2022-11-09,2022-11-09,一般社団法人健康福笑い協会,,その他の設立登記法人,山口県,防府市,大字浜方７０７番地の４３,,35,206,7470833,,,,,,,2022-11-09,1,,,,,ケンコウフクワライキョウカイ,0
2788,8260001037388,新規,0,2022-11-09,2022-11-09,ＳＡＩＵＮホールディングス株式会社,,株式会社,岡山県,岡山市東区,神崎町１８３０番地１,,33,103,7048138,,,,,,,2022-11-09,1,,,,,サイウンホールディングス,0
2789,8260001037396,新規,0,2022-11-09,2022-11-09,株式会社ＧｂｙＧ,,株式会社,岡山県,備前市,伊部１６９１番地６,,33,211,7050001,,,,,,,2022-11-09,1,,,,,ジーバイジー,0
2794,8290001099500,新規,0,2022-11-09,2022-11-09,株式会社アシバウエスト,,株式会社,福岡県,三潴郡大木町,大字上八院１７１９番地１,,40,522,8300417,,,,,,,2022-11-09,1,,,,,アシバウエスト,0
2795,8290001099525,新規,0,2022-11-09,2022-11-09,株式会社平嶋工務店,,株式会社,福岡県,嘉麻市,熊ヶ畑１２１１番地３,,40,227,8210013,,,,,,,2022-11-09,1,,,,,ヒラシマコウムテン,0
2800,8290801029037,新規,0,2022-11-09,2022-11-09,九州シルバーライフ株式会社,,株式会社,福岡県,北九州市小倉北区,浅野２丁目１３番２３号幹線ビル２０２号,,40,106,8020001,,,,,,,2022-11-09,1,,,,,キュウシュウシルバーライフ,0
2801,8300003001899,新規,0,2022-11-09,2022-11-09,Ｔマネジメント合同会社,,合同会社,佐賀県,小城市,牛津町牛津８３４番地,,41,208,8490303,,,,,,,2022-11-09,1,,,,,ティーマネジメント,0
2808,8330001030278,新規,0,2022-11-09,2022-11-09,株式会社一真,,株式会社,熊本県,熊本市北区,龍田８丁目１４番４３号,,43,105,8618006,,,,,,,2022-11-09,1,,,,,イッシン,0
2814,8330003009584,新規,0,2022-11-09,2022-11-09,合同会社真成,,合同会社,熊本県,菊池市,泗水町永２４９６－２,,43,210,8611204,,,,,,,2022-11-09,1,,,,,シンセイ,0
2818,8340001025161,新規,0,2022-11-09,2022-11-09,株式会社Ｓｈｉｋｉ,,株式会社,鹿児島県,奄美市,名瀬幸町４－１,,46,222,8940025,,,,,,,2022-11-09,1,,,,,シキ,0
2819,8350001018032,新規,0,2022-11-09,2022-11-09,株式会社たちばな,,株式会社,宮崎県,宮崎市,祇園２丁目１７番地,,45,201,8800024,,,,,,,2022-11-09,1,,,,,タチバナ,0
2820,8350001018040,新規,0,2022-11-09,2022-11-09,株式会社Ｃｉｅｌ,,株式会社,宮崎県,都城市,菓子野町１０７０９番地４,,45,202,8850111,,,,,,,2022-11-09,1,,,,,シエル,0
2823,8360001031158,新規,0,2022-11-09,2022-11-09,株式会社津波古塗装工業,,株式会社,沖縄県,南城市,玉城字奥武２番地２,,47,215,9010614,,,,,,,2022-11-09,1,,,,,ツハコトソウコウギョウ,0
2832,8370001049257,新規,0,2022-11-09,2022-11-09,八インテリア株式会社,,株式会社,宮城県,仙台市泉区,加茂３丁目１１－１０,,04,105,9813122,,,,,,,2022-11-09,1,,,,,エイトインテリア,0
2835,8380001033235,新規,0,2022-11-09,2022-11-09,株式会社カンキ鋼業,,株式会社,福島県,福島市,立子山字甚念坊山９番地の４,,07,201,9601321,,,,,,,2022-11-09,1,,,,,カンキコウギョウ,0
2841,8420001018058,新規,0,2022-11-09,2022-11-09,ミナリエ株式会社,,株式会社,青森県,青森市,堤町２丁目１番３号,,02,201,0300812,,,,,,,2022-11-09,1,,,,,ミナリエ,0
2844,8430001087829,新規,0,2022-11-09,2022-11-09,株式会社シャーロット,,株式会社,北海道,札幌市東区,北二十二条東８丁目３番１７－５０１号,,01,103,0650022,,,,,,,2022-11-09,1,,,,,シャーロット,0
2846,8430003014442,新規,0,2022-11-09,2022-11-09,いろは合同会社,,合同会社,北海道,札幌市北区,北二十七条西７丁目３－７－５,,01,102,0010027,,,,,,,2022-11-09,1,,,,,イロハ,0
2847,8430005014597,新規,0,2022-11-09,2022-11-09,一般社団法人ＨＭ,,その他の設立登記法人,北海道,札幌市北区,北九条西４丁目７番４号エルムビル８階,,01,102,0600809,,,,,,,2022-11-09,1,,,,,エイチエム,0
2850,8470001019332,新規,0,2022-11-09,2022-11-09,ｄ・ＭＯＳＴ株式会社,,株式会社,香川県,高松市,南新町１３番地５七星ビル,,37,201,7600051,,,,,,,2022-11-09,1,,,,,モスト,0
2855,8500001024584,新規,0,2022-11-09,2022-11-09,木村自動車株式会社,,株式会社,愛媛県,四国中央市,土居町入野８４２番地３,,38,213,7990712,,,,,,,2022-11-09,1,,,,,キムラジドウシャ,0
2858,8700150112673,新規,0,2022-11-09,2022-11-09,Ｓｈｅｎ　Ｚｈｅｎ　Ｓｈｉ　Ａｏ　Ｌｅｉ　Ｄｉａｎ　Ｓｈａｎｇ　Ｋｅ　Ｊｉ　Ｇｕ　Ｆｅｎ　Ｙｏｕ　Ｘｉａｎ　Ｇｏｎｇ　Ｓｉ,,外国会社等,,,,,,,,５ｔｈ　Ｆｌｏｏｒ，Ｂｕｉｌｄｉｎｇ　Ａ２，Ｆｕｈａｉ　Ｉｎｆｏｒｍａｔｉｏｎ　Ｈａｒｂｏｒ，Ｆｕｈａｉ　Ｓｕｂｄ　Ｓｈｅｎｚｈｅｎ　Ｇｕａｎｇｄｏｎｇ,,,,,,2022-11-09,1,,,,,シエンチエンシアオレイデンシヨウカギカブユウゲンコウシ,0
2870,9010001230537,新規,0,2022-11-09,2022-11-09,株式会社いもや,,株式会社,東京都,中央区,銀座１丁目２７番１０号,,13,102,1040061,,,,,,,2022-11-09,1,,,,,イモヤ,0
2871,9010001230553,新規,0,2022-11-09,2022-11-09,株式会社ＪＬＳアルファ,,株式会社,東京都,中央区,日本橋浜町３丁目３６番５号日本橋浜町ビル５階,,13,102,1030007,,,,,,,2022-11-09,1,,,,,ジェイエルエスアルファ,0
2872,9010001230611,新規,0,2022-11-09,2022-11-09,バーチューアンドエクセレンス株式会社,,株式会社,東京都,千代田区,紀尾井町３番１２号,,13,101,1020094,,,,,,,2022-11-09,1,,,,,バーチューアンドエクセレンス,0
2873,9010001230660,新規,0,2022-11-09,2022-11-09,株式会社ジェイノアセット,,株式会社,東京都,中央区,晴海５丁目１番１７,,13,102,1040053,,,,,,,2022-11-09,1,,,,,ジェイノアセット,0
2874,9010001230743,新規,0,2022-11-09,2022-11-09,株式会社Ｃｏｎｓｏｒｔ　Ｓｏｌａｒ　Ｊａｐａｎ,,株式会社,東京都,中央区,湊２丁目１１番１号シティタワー銀座東６２２,,13,102,1040043,,,,,,,2022-11-09,1,,,,,コンソートソーラージャパン,0
2878,9010003038978,新規,0,2022-11-09,2022-11-09,合同会社謙和,,合同会社,東京都,文京区,向丘１丁目７番１０－３０１号,,13,105,1130023,,,,,,,2022-11-09,1,,,,,ケンワ,0
2886,9010101015409,新規,0,2022-11-09,2022-11-09,株式会社堀内ライフ＆ヘルス,,株式会社,東京都,八王子市,明神町４丁目１番２－１３０１号,,13,201,1920046,,,,,,,2022-11-09,1,,,,,ホリウチライフアンドヘルス,0
2892,9010401170705,新規,0,2022-11-09,2022-11-09,ｗｈｅｌｂｈｙ株式会社,,株式会社,東京都,港区,西麻布３丁目１９番１９号麻布ブラザーズアネックス２０１,,13,103,1060031,,,,,,,2022-11-09,1,,,,,フェルビー,0
2898,9010501049592,新規,0,2022-11-09,2022-11-09,株式会社ＳＴＬ,,株式会社,東京都,台東区,谷中３丁目２４番１３号エターナル３－Ｂ,,13,106,1100001,,,,,,,2022-11-09,1,,,,,エスティーエル,0
2902,9010601062108,新規,0,2022-11-09,2022-11-09,ＳＣＳＫオートモーティブＨ＆Ｓ株式会社,,株式会社,東京都,江東区,豊洲３丁目２番２０号,,13,108,1350061,,,,,,,2022-11-09,1,,,,,エスシーエスケイオートモーティブエイチアンドエス,0
2903,9010801033420,新規,0,2022-11-09,2022-11-09,Ｇｏ‐ｏｎ株式会社,,株式会社,東京都,大田区,大森西１丁目１１番２４号ウィステリア大森２０６,,13,111,1430015,,,,,,,2022-11-09,1,,,,,,0
2909,9010901051933,新規,0,2022-11-09,2022-11-09,シモカワプランニング株式会社,,株式会社,東京都,世田谷区,上北沢５丁目２２番８号,,13,112,1560057,,,,,,,2022-11-09,1,,,,,シモカワプランニング,0
2910,9010901051941,新規,0,2022-11-09,2022-11-09,Ｍ＆Ａエグゼキューションフィールド株式会社,,株式会社,東京都,世田谷区,喜多見８丁目９番２号,,13,112,1570067,,,,,,,2022-11-09,1,,,,,エムアンドエーエグゼキューションフィールド,0
2922,9011001150634,新規,0,2022-11-09,2022-11-09,株式会社Ｔｈｅ　ｄａｙ　ｔｏｋｙｏ,,株式会社,東京都,渋谷区,円山町５番５号Ｎａｖｉ渋谷Ｖ３階,,13,113,1500044,,,,,,,2022-11-09,1,,,,,ザデイトーキョー,0
2923,9011001150683,新規,0,2022-11-09,2022-11-09,株式会社ステップパイン,,株式会社,東京都,目黒区,柿の木坂２丁目１８番８号,,13,110,1520022,,,,,,,2022-11-09,1,,,,,ステップパイン,0
2924,9011001150700,新規,0,2022-11-09,2022-11-09,株式会社ＪＫＶ　Ｅｎｔｅｒｔａｉｎｍｅｎｔ,,株式会社,東京都,渋谷区,神宮前２丁目１４番１９号神宮前２１４ビル３０３号,,13,113,1500001,,,,,,,2022-11-09,1,,,,,ジェイケイブイエンタテインメント,0
2928,9011003015612,新規,0,2022-11-09,2022-11-09,合同会社７２ｓ,,合同会社,東京都,目黒区,青葉台３丁目１番６号ビアンカ青葉台２０１,,13,110,1530042,,,,,,,2022-11-09,1,,,,,ナッツ,0
2929,9011003015645,新規,0,2022-11-09,2022-11-09,合同会社ＳＨＡＬＯＭ　ＩＮＶＥＳＴＭＥＮＴ,,合同会社,東京都,渋谷区,千駄ヶ谷３丁目５３番１４－２０２号,,13,113,1510051,,,,,,,2022-11-09,1,,,,,シャロームインベストメント,0
2930,9011003015653,新規,0,2022-11-09,2022-11-09,合同会社スピンアクシス,,合同会社,東京都,渋谷区,神宮前３丁目１８番６－４０５号,,13,113,1500001,,,,,,,2022-11-09,1,,,,,スピンアクシス,0
2935,9011101100786,新規,0,2022-11-09,2022-11-09,ＷＡＫＵＲＵ株式会社,,株式会社,東京都,新宿区,西新宿３丁目３番１３号西新宿水間ビル２階,,13,104,1600023,,,,,,,2022-11-09,1,,,,,ワクル,0
2936,9011101100794,新規,0,2022-11-09,2022-11-09,株式会社シンカゼ,,株式会社,東京都,新宿区,西新宿３丁目３番１３号西新宿水間ビル２Ｆ,,13,104,1600023,,,,,,,2022-11-09,1,,,,,シンカゼ,0
2937,9011103012360,新規,0,2022-11-09,2022-11-09,合同会社ｏｈ,,合同会社,東京都,新宿区,新宿１丁目３６－２新宿第七葉山ビル３Ｆ,,13,104,1600022,,,,,,,2022-11-09,1,,,,,オー,0
2939,9011301028217,新規,0,2022-11-09,2022-11-09,株式会社チケットキングａｓｃ,,株式会社,東京都,杉並区,上荻１丁目１６‐１６ユアビル１階,,13,115,1670043,,,,,,,2022-11-09,1,,,,,チケットキングエイエスシー,0
2943,9011401024669,新規,0,2022-11-09,2022-11-09,株式会社シェアハウスＪＯＹ,,株式会社,東京都,板橋区,徳丸６丁目１０番１号,,13,119,1750083,,,,,,,2022-11-09,1,,,,,シェアハウスジョイ,0
2945,9011501028644,新規,0,2022-11-09,2022-11-09,株式会社東京花日向,,株式会社,東京都,北区,桐ケ丘１丁目９番Ｅ２８Ｂ－１０８号,,13,117,1150054,,,,,,,2022-11-09,1,,,,,トウキョウハナヒュウガ,0
2949,9011801041529,新規,0,2022-11-09,2022-11-09,株式会社Ｒａｙｌｉｃｅ,,株式会社,東京都,葛飾区,東金町１丁目４４番１７号星野金町ビル３階,,13,122,1250041,,,,,,,2022-11-09,1,,,,,レイリス,0
2958,9012401039814,新規,0,2022-11-09,2022-11-09,株式会社ｓｉｇｍａ,,株式会社,東京都,武蔵野市,八幡町４丁目１２番７号,,13,203,1800011,,,,,,,2022-11-09,1,,,,,シグマ,0
2960,9013301049911,新規,0,2022-11-09,2022-11-09,株式会社Ｂｅｅｒｕｓ,,株式会社,東京都,豊島区,南池袋１丁目１６番１５号ダイヤゲート５Ｆ,,13,116,1710022,,,,,,,2022-11-09,1,,,,,ビルス,0
2967,9020001148836,新規,0,2022-11-09,2022-11-09,株式会社ｓｙｚｙｇｙ,,株式会社,神奈川県,横浜市都筑区,牛久保西３丁目１０番９号,,14,118,2240015,,,,,,,2022-11-09,1,,,,,シジジー,0
2968,9020001148910,新規,0,2022-11-09,2022-11-09,株式会社４Ｋｅｙｓ,,株式会社,神奈川県,横浜市中区,石川町１丁目５０番地３,,14,104,2310868,,,,,,,2022-11-09,1,,,,,フォーキーズ,0
2969,9020001148919,新規,0,2022-11-09,2022-11-09,株式会社シンセイ不動産,,株式会社,神奈川県,川崎市中原区,新丸子東１丁目７９１番地３朝日サンライズ多摩川２０４号室,,14,133,2110004,,,,,,,2022-11-09,1,,,,,シンセイフドウサン,0
2980,9020003022733,新規,0,2022-11-09,2022-11-09,Ｕｎｌｅａｓｈ合同会社,,合同会社,神奈川県,横浜市西区,浅間町１丁目２０－４,,14,103,2200072,,,,,,,2022-11-09,1,,,,,アンリーシュ,0
2981,9020005015710,新規,0,2022-11-09,2022-11-09,一般社団法人実務家ＦＰ支援機構,,その他の設立登記法人,神奈川県,横浜市緑区,十日市場町８７０番地１２アールブラン十日市場５０１号,,14,113,2260025,,,,,,,2022-11-09,1,,,,,ジツムカエフピーシエンキコウ,0
2991,9021003012344,新規,0,2022-11-09,2022-11-09,Ａｓｐｉｒａｔｉｏｎ　Ｐａｒｔｎｅｒｓ合同会社,,合同会社,神奈川県,逗子市,新宿５丁目１番１０－２１７号,,14,208,2490007,,,,,,,2022-11-09,1,,,,,アスピレーションパートナーズ,0
3010,9030001150948,新規,0,2022-11-09,2022-11-09,株式会社東昇,,株式会社,埼玉県,入間市,大字小谷田字鞍掛１６６６番地４,,11,225,3580026,,,,,,,2022-11-09,1,,,,,トウショウ,0
3011,9030001150956,新規,0,2022-11-09,2022-11-09,株式会社小澤空調設備,,株式会社,埼玉県,草加市,西町１３３３番地１ライオンズマンション草加西町３０２号,,11,221,3400035,,,,,,,2022-11-09,1,,,,,オザワクウチョウセツビ,0
3012,9030001150972,新規,0,2022-11-09,2022-11-09,株式会社Ａ‐ｆｒａｍｅ,,株式会社,埼玉県,越谷市,大沢３４１３－１４,,11,222,3430025,,,,,,,2022-11-09,1,,,,,エーフレーム,0
3013,9030001150980,新規,0,2022-11-09,2022-11-09,株式会社ＳＴＹＬＥ　ＦＡＣＴＯＲＹ,,株式会社,埼玉県,比企郡川島町,大字上小見野１２００番地１,,11,346,3500106,,,,,,,2022-11-09,1,,,,,スタイルファクトリー,0
3017,9030003020538,新規,0,2022-11-09,2022-11-09,合同会社カネトラ,,合同会社,埼玉県,さいたま市緑区,大字中尾２０１７番地６グリシーヌＢ棟,,11,109,3360932,,,,,,,2022-11-09,1,,,,,カネトラ,0
3027,9040001125734,新規,0,2022-11-09,2022-11-09,株式会社ありがとう,,株式会社,千葉県,千葉市緑区,古市場町４７４－１７５メゾンアイレット２０３,,12,105,2660026,,,,,,,2022-11-09,1,,,,,アリガトウ,0
3028,9040001125750,新規,0,2022-11-09,2022-11-09,株式会社ＴＯＢＩＳＨＩ,,株式会社,千葉県,千葉市緑区,高津戸町７３７番地９,,12,105,2670053,,,,,,,2022-11-09,1,,,,,トビシ,0
3029,9040001125809,新規,0,2022-11-09,2022-11-09,株式会社ＨＡＰＰＹ　ＲＡＩＮ,,株式会社,千葉県,船橋市,緑台２丁目９－２－５０２,,12,204,2740818,,,,,,,2022-11-09,1,,,,,ハッピーレイン,0
3032,9050001051938,新規,0,2022-11-09,2022-11-09,株式会社ＴＥＲＲＡＳＵＹＡ,,株式会社,茨城県,土浦市,中村南１丁目１２番１０号,,08,203,3000843,,,,,,,2022-11-09,1,,,,,テラスヤ,0
3037,9060001035428,新規,0,2022-11-09,2022-11-09,株式会社ＤＥＷＡＮ,,株式会社,栃木県,小山市,城東５丁目２６番３２,,09,208,3230807,,,,,,,2022-11-09,1,,,,,デワン,0
3039,9060003004298,新規,0,2022-11-09,2022-11-09,ＩＳＨＡＮ合同会社,,合同会社,栃木県,足利市,小俣町３４０８番地２,,09,202,3260141,,,,,,,2022-11-09,1,,,,,イシャン,0
3040,9070001039808,新規,0,2022-11-09,2022-11-09,株式会社ＦＡ,,株式会社,群馬県,太田市,飯塚町１３３８番地２ウィズマンション３０１号,,10,205,3730817,,,,,,,2022-11-09,1,,,,,エフエー,0
3045,9080001025286,新規,0,2022-11-09,2022-11-09,株式会社ＡＭＷＯＲＫＳ,,株式会社,静岡県,島田市,金谷天王町１５９０番地の５４,,22,209,4280032,,,,,,,2022-11-09,1,,,,,アムワークス,0
3046,9080401026149,新規,0,2022-11-09,2022-11-09,株式会社ユニバース,,株式会社,静岡県,浜松市中区,田町２３１番地の１０エクシード田町６０３号,,22,131,4300944,,,,,,,2022-11-09,1,,,,,ユニバース,0
3047,9080405007500,新規,0,2022-11-09,2022-11-09,一般社団法人アレスグート,,その他の設立登記法人,静岡県,浜松市北区,細江町気賀１４２８番地の５,,22,135,4311305,,,,,,,2022-11-09,1,,,,,アレスグート,0
3052,9100003006769,新規,0,2022-11-09,2022-11-09,合同会社心楽しき日々,,合同会社,長野県,飯山市,大字静間２６２５番地,,20,213,3892255,,,,,,,2022-11-09,1,,,,,ココロタノシキヒビ,0
3055,9100005012939,新規,0,2022-11-09,2022-11-09,社会保険労務士法人南信経営センター,,その他の設立登記法人,長野県,諏訪市,高島１丁目２５番１４号,,20,206,3920022,,,,,,,2022-11-09,1,,,,,ナンシンケイエイセンター,0
3072,9120001250086,新規,0,2022-11-09,2022-11-09,株式会社ミヨケン,,株式会社,大阪府,大阪市淀川区,三国本町３丁目２７番２号,,27,123,5320005,,,,,,,2022-11-09,1,,,,,ミヨケン,0
3073,9120001250103,新規,0,2022-11-09,2022-11-09,ＫＴＳＲ株式会社,,株式会社,大阪府,大阪市北区,梅田１丁目３番１号大阪駅前第一ビル８階ｂｉｌｌａｇｅＯＳＡＫＡ８２４号室,,27,127,5300001,,,,,,,2022-11-09,1,,,,,ケイティーエスアール,0
3074,9120001250136,新規,0,2022-11-09,2022-11-09,株式会社アヴァロ,,株式会社,大阪府,大阪市中央区,平野町２丁目２番７号北浜コンソール７０２,,27,128,5410046,,,,,,,2022-11-09,1,,,,,アヴァロ,0
3075,9120003022797,新規,0,2022-11-09,2022-11-09,合同会社コテツ,,合同会社,大阪府,大阪市北区,中崎西４丁目３番３２号,,27,127,5300015,,,,,,,2022-11-09,1,,,,,コテツ,0
3078,9120101066465,新規,0,2022-11-09,2022-11-09,株式会社イッシーガーデン,,株式会社,大阪府,堺市南区,美木多上５９番地１２,,27,145,5900136,,,,,,,2022-11-09,1,,,,,イッシーガーデン,0
3079,9120101066507,新規,0,2022-11-09,2022-11-09,株式会社アドフロージャパン,,株式会社,大阪府,堺市北区,金岡町２４１３－５,,27,146,5918022,,,,,,,2022-11-09,1,,,,,アドフロージャパン,0
3083,9120103004919,新規,0,2022-11-09,2022-11-09,合同会社Ｔｈｅ　Ｗｅｓｔ,,合同会社,大阪府,高石市,羽衣４丁目１２番２２号,,27,225,5920002,,,,,,,2022-11-09,1,,,,,ザウエスト,0
3090,9122001036390,新規,0,2022-11-09,2022-11-09,株式会社おかしら,,株式会社,大阪府,八尾市,南本町５丁目１番３１号,,27,212,5810081,,,,,,,2022-11-09,1,,,,,オカシラ,0
3094,9130001072975,新規,0,2022-11-09,2022-11-09,株式会社ファーストスターキャリアサービス,,株式会社,京都府,八幡市,八幡女郎花６８番地の１,,26,210,6148077,,,,,,,2022-11-09,1,,,,,ファーストスターキャリアサービス,0
3095,9130003008291,新規,0,2022-11-09,2022-11-09,オアシス合同会社,,合同会社,京都府,亀岡市,馬路町市場４０番地,,26,206,6210008,,,,,,,2022-11-09,1,,,,,オアシス,0
3105,9140001128058,新規,0,2022-11-09,2022-11-09,三好電機株式会社,,株式会社,兵庫県,神戸市西区,伊川谷町有瀬１２８１番地の６、２－２０４号,,28,111,6512113,,,,,,,2022-11-09,1,,,,,ミヨシデンキ,0
3119,9180001153713,新規,0,2022-11-09,2022-11-09,株式会社大嶽建築設計事務所,,株式会社,愛知県,名古屋市守山区,大字下志段味字風越１９５０番地,,23,113,4630003,,,,,,,2022-11-09,1,,,,,オオタケケンチクセッケイジムショ,0
3121,9180003024482,新規,0,2022-11-09,2022-11-09,合同会社愛知クレーン工業,,合同会社,愛知県,名古屋市港区,いろは町２丁目６４番地,,23,111,4550052,,,,,,,2022-11-09,1,,,,,アイチクレーンコウギョウ,0
3122,9180005019984,新規,0,2022-11-09,2022-11-09,日本キリスト改革派教会名古屋岩の上教会,,その他の設立登記法人,愛知県,名古屋市緑区,滝ノ水２丁目２０１２番地,,23,114,4580021,,,,,,,2022-11-09,1,,,,,ニホンキリストカイカクハキョウカイナゴヤイワノウエキョウカイ,0
3130,9190001029912,新規,0,2022-11-09,2022-11-09,株式会社女神ラボ,,株式会社,三重県,伊賀市,治田４６７５番地,,24,216,5181155,,,,,,,2022-11-09,1,,,,,メガミラボ,0
3131,9190003004137,新規,0,2022-11-09,2022-11-09,合同会社ハイブリッジ,,合同会社,三重県,鈴鹿市,高塚町１８４１番地の１７５,,24,207,5130011,,,,,,,2022-11-09,1,,,,,ハイブリッジ,0
3138,9200001040652,新規,0,2022-11-09,2022-11-09,株式会社エスプラ機設,,株式会社,岐阜県,羽島市,上中町一色９９８番地１,,21,209,5016312,,,,,,,2022-11-09,1,,,,,エスプラキセツ,0
3139,9200003005736,新規,0,2022-11-09,2022-11-09,ＡＴＴＲＡＣＴＩＶＥ合同会社,,合同会社,岐阜県,岐阜市,今嶺１丁目６番１１号サニーハイツＩＩ１０２,00128413,21,201,5008388,,,,,,,2022-11-09,1,,,,,アトラクティブ,0
3142,9240001060639,新規,0,2022-11-09,2022-11-09,もみじ設備株式会社,,株式会社,広島県,広島市南区,大州５丁目９番２４－４０６号,,34,103,7320802,,,,,,,2022-11-09,1,,,,,モミジセツビ,0
3144,9250001019840,新規,0,2022-11-09,2022-11-09,株式会社Ｎｅｖｏｃ,,株式会社,山口県,下関市,垢田町１丁目１９番２１号,,35,201,7510841,,,,,,,2022-11-09,1,,,,,ネボック,0
3145,9250003003173,新規,0,2022-11-09,2022-11-09,合名会社Ｔｙｒ,,合名会社,山口県,下関市,川中本町１丁目４番５号,,35,201,7510859,,,,,,,2022-11-09,1,,,,,ティール,0
3151,9290001099400,新規,0,2022-11-09,2022-11-09,株式会社高嘉,00128407,株式会社,福岡県,宗像市,神湊４５４番地３,,40,220,8113501,,,,,,,2022-11-09,1,,,,,タカヨシ,0
3152,9290001099516,新規,0,2022-11-09,2022-11-09,株式会社ＲｅｃＥｄｉｔ,,株式会社,福岡県,福岡市中央区,平尾３丁目５番１０－７０５号,,40,133,8100014,,,,,,,2022-11-09,1,,,,,レックエディット,0
3153,9290001099524,新規,0,2022-11-09,2022-11-09,株式会社アシスト設備,,株式会社,福岡県,福岡市早良区,野芥８丁目４番１８号,,40,137,8140171,,,,,,,2022-11-09,1,,,,,アシストセツビ,0
3157,9290003013177,新規,0,2022-11-09,2022-11-09,合同会社おぼう,,合同会社,福岡県,福岡市博多区,東比恵３丁目１８番２－１００４号アーベイン東比恵駅前,,40,132,8120007,,,,,,,2022-11-09,1,,,,,オボウ,0
3158,9290003013185,新規,0,2022-11-09,2022-11-09,ＴＳ合同会社,,合同会社,福岡県,福岡市博多区,千代４丁目４番１４,,40,132,8120044,,,,,,,2022-11-09,1,,,,,ティーエス,0
3164,9310001018118,新規,0,2022-11-09,2022-11-09,山海国際株式会社,,株式会社,長崎県,長崎市,芒塚町３０３番地３,00128415,42,201,8510126,,,,,,,2022-11-09,1,,,,,サンカイコクサイ,0
3166,9310003004479,新規,0,2022-11-09,2022-11-09,合同会社Ｒ・Ｅながさき,,合同会社,長崎県,長崎市,小江原３丁目３５番１６号,,42,201,8511132,,,,,,,2022-11-09,1,,,,,アールイーナガサキ,0
3168,9330001030277,新規,0,2022-11-09,2022-11-09,株式会社ＡＮＤ　ＯＬＩＶＥ,,株式会社,熊本県,熊本市東区,下南部３丁目１０番２６号２Ｆ,,43,102,8618019,,,,,,,2022-11-09,1,,,,,アンドオリーブ,0
3176,9350001018031,新規,0,2022-11-09,2022-11-09,ポスコマネジメント株式会社,,株式会社,宮崎県,宮崎市,大字本郷北方１２０番地６,,45,201,8800925,,,,,,,2022-11-09,1,,,,,ポスコマネジメント,0
3177,9360001031173,新規,0,2022-11-09,2022-11-09,株式会社ミエルクロワッサン,,株式会社,沖縄県,中頭郡読谷村,字高志保１３１７番地Ｙ′ｓヴューテラス１０１,,47,324,9040323,,,,,,,2022-11-09,1,,,,,ミエルクロワッサン,0
3179,9360003012428,新規,0,2022-11-09,2022-11-09,Ｅ＆Ｍ　Ｅｎｔｅｒｔａｉｎｍｅｎｔ　ｓｔａｆｆｉｎｇ合同会社,,合同会社,沖縄県,中頭郡北中城村,字安谷屋１９３２番地１,,47,327,9012316,,,,,,,2022-11-09,1,,,,,イーアンドエムエンターテインメントスタッフィング,0
3183,9370001049181,新規,0,2022-11-09,2022-11-09,ＴＳＵＢＯＴＥＣ株式会社,,株式会社,宮城県,宮城郡利府町,葉山１丁目３９番地５,,04,406,9810105,,,,,,,2022-11-09,1,,,,,ツボテック,0
3184,9370001049198,新規,0,2022-11-09,2022-11-09,株式会社Ｔ．ｍ．ｓ,,株式会社,宮城県,仙台市宮城野区,鶴ケ谷１丁目３５番地の１１,,04,102,9830824,,,,,,,2022-11-09,1,,,,,ティーエムエス,0
3185,9370001049231,新規,0,2022-11-09,2022-11-09,株式会社双葉総建,,株式会社,宮城県,仙台市若林区,かすみ町５番１１,,04,103,9840822,,,,,,,2022-11-09,1,,,,,フタバソウケン,0
3190,9390001017070,新規,0,2022-11-09,2022-11-09,ｈｏｋｕ　ａｒｃｈｉｄｅｓｉｇｎ株式会社,,株式会社,山形県,山形市,寿町１０番３５号寿町コーポラス２０３,,06,201,9902414,,,,,,,2022-11-09,1,,,,,ホクアーキデザイン,0
3193,9400001016054,新規,0,2022-11-09,2022-11-09,株式会社きら星,,株式会社,岩手県,一関市,千厩町千厩字摩王５２番地１,00128422,03,209,0290803,,,,,,,2022-11-09,1,,,,,キラボシ,0
3194,9420001018073,新規,0,2022-11-09,2022-11-09,株式会社キヨフク,,株式会社,青森県,上北郡野辺地町,字馬門９６番地,,02,401,0393179,,,,,,,2022-11-09,1,,,,,キヨフク,0
3200,9440005002740,新規,0,2022-11-09,2022-11-09,特定非営利活動法人初春巴港賑,,その他の設立登記法人,北海道,函館市,松風町１８番１５号,,01,202,0400035,,,,,,,2022-11-09,1,,,,,ハツハルトモエノニギワイ,0
3205,9500005008533,新規,0,2022-11-09,2022-11-09,一般社団法人愛南の風,,その他の設立登記法人,愛媛県,南宇和郡愛南町,中浦７７４番地,,38,506,7984125,,,,,,,2022-11-09,1,,,,,アイナンノカゼ,0
3206,9700150112672,新規,0,2022-11-09,2022-11-09,ＶｉｓｉｏｎＫｉｄｓ　Ｃｏｍｐａｎｙ　Ｌｉｍｉｔｅｄ,,外国会社等,,,,,,,,ＲＯＯＭ　５１３Ｖ　５／Ｆ　ＩＮＴＥＲＮＡＴＩＯＮＡＬ　ＰＬＡＺＡ　２０　ＳＨＥＵＮＧ　ＹＵＥＴ　ＲＯＡＤ　ＫＯＷＬＯＯＮ　ＢＡＹ　ＨＯＮＧ　ＫＯＮＧ,,,,,,2022-11-09,1,,,,,ビジヨンキツズカンパニーリミテツド,0
