sequenceNumber,corporateNumber,process,correct,updateDate,changeDate,name,nameImageId,kind,prefectureName,cityName,streetNumber,addressImageId,prefectureCode,cityCode,postCode,addressOutside,addressOutsideImageId,closeDate,closeCause,successorCorporateNumber,changeCause,assignmentDate,latest,enName,enPrefectureName,enCityName,enAddressOutside,furigana,hihyoji
5,1010001214324,登記記録の閉鎖等,0,2024-11-11,2024-11-05,株式会社Ｂｏｒｄｅｒ　Ｏｖｅｒ,,株式会社,千葉県,柏市,高田４８２番地１－１０３号,,12,217,2770861,,,2024-11-05,清算の結了等,,,2020-12-09,1,,,,,ボーダーオーバー,0
13,1010002008411,登記記録の閉鎖等,0,2024-11-11,2024-10-29,有限会社岡庭寝具工業,,有限会社,東京都,千代田区,神田和泉町１番地,,13,101,1010024,,,2024-10-29,清算の結了等,,,2015-10-05,1,,,,,,0
58,1010601024528,登記記録の閉鎖等,0,2024-11-11,2024-11-07,株式会社アドシステム,,株式会社,東京都,墨田区,堤通１丁目６番５号グレイス堤通公園６０３号,,13,107,1310034,,,2024-11-07,清算の結了等,,,2015-10-05,1,,,,,アドシステム,0
60,1010701034237,登記記録の閉鎖等,0,2024-11-11,2024-11-01,宮創テクノロジー株式会社,,株式会社,東京都,品川区,北品川５丁目５番２５号,,13,109,1410001,,,2024-11-01,合併による解散等,2010701009535,令和６年１１月１日東京都品川区北品川五丁目５番２５号株式会社宮創（2010701009535）に合併し解散,2017-06-06,1,,,,,ミヤソウテクノロジー,0
61,1010702007415,登記記録の閉鎖等,0,2024-11-11,2024-10-23,有限会社ベアーズドラッグカンパニー,,有限会社,神奈川県,横浜市港南区,日限山３丁目１０番２５号,,14,111,2330015,,,2024-10-23,清算の結了等,,,2015-10-05,1,,,,,ベアーズドラッグカンパニー,0
67,1010902014335,登記記録の閉鎖等,0,2024-11-11,2024-11-05,有限会社松本商店,,有限会社,東京都,世田谷区,用賀４丁目１１番１号,,13,112,1580097,,,2024-11-05,清算の結了等,,,2015-10-05,1,,,,,マツモトショウテン,0
79,1011105010345,登記記録の閉鎖等,0,2024-11-11,2024-10-30,一般社団法人サマリア,,その他の設立登記法人,東京都,新宿区,大久保１丁目２番１号,,13,104,1690072,,,2024-10-30,清算の結了等,,,2022-08-08,1,,,,,サマリア,0
81,1011203003424,登記記録の閉鎖等,0,2024-11-11,2024-11-06,白雪合同会社,,合同会社,東京都,府中市,宮西町５丁目６番地の２アローランドマンション２０３,,13,206,1830022,,,2024-11-06,合併による解散等,8011203003624,令和６年１１月１日東京都中野区江原町二丁目２１番７－５０４号松山合同会社（8011203003624）に合併し解散,2020-11-13,1,,,,,シラユキ,0
84,1011302006988,登記記録の閉鎖等,0,2024-11-11,2024-11-01,有限会社日本ウォールグラフィック,,有限会社,東京都,杉並区,上荻３丁目２１番８号,,13,115,1670043,,,2024-11-01,清算の結了等,,,2015-10-05,1,,,,,,0
96,1011702008816,登記記録の閉鎖等,0,2024-11-11,2024-11-01,有限会社ニシノ,,有限会社,東京都,江戸川区,東葛西５丁目４７番３号,,13,123,1340084,,,2024-11-01,清算の結了等,,,2015-10-05,1,,,,,ニシノ,0
107,1013301031950,登記記録の閉鎖等,0,2024-11-11,2024-10-28,株式会社伊勢伊,,株式会社,東京都,豊島区,巣鴨５丁目１番５号,,13,116,1700002,,,2024-10-28,清算の結了等,,,2015-10-05,1,,,,,イセイ,0
139,1030002029050,登記記録の閉鎖等,0,2024-11-11,2024-11-05,有限会社黒田工業所,,有限会社,埼玉県,所沢市,西所沢１丁目５番９号,,11,208,3591144,,,2024-11-05,清算の結了等,,,2015-10-05,1,,,,,クロダコウギョウショ,0
140,1030003023416,登記記録の閉鎖等,0,2024-11-11,2024-10-28,合同会社ＤＯＧ　ＴＲＵＳＴ,,合同会社,東京都,千代田区,神田富山町７,,13,101,1010043,,,2024-10-28,清算の結了等,,,2024-01-15,1,,,,,ドッグトラスト,0
169,1100005008184,登記記録の閉鎖等,0,2024-11-11,2024-11-06,特定非営利活動法人みちくさ,,その他の設立登記法人,長野県,茅野市,宮川４１１２番地,,20,214,3910013,,,2024-11-06,清算の結了等,,,2015-10-05,1,,,,,ミチクサ,0
175,1120001160887,登記記録の閉鎖等,0,2024-11-11,2024-11-07,株式会社アカンサス,,株式会社,大阪府,東大阪市,荒本西３丁目６番１５号,,27,227,5770024,,,2024-11-07,清算の結了等,,,2015-10-05,1,,,,,,0
190,1120005018917,登記記録の閉鎖等,0,2024-11-11,2024-11-07,特定非営利活動法人全日本笑いとふれあい研究会,,その他の設立登記法人,大阪府,大阪市中央区,瓦屋町２丁目４番１２－７０２号,,27,128,5420066,,,2024-11-07,清算の結了等,,,2016-09-07,1,,,,,ニホンワライトフレアイケンキュウカイ,0
194,1120905006095,登記記録の閉鎖等,0,2024-11-11,2024-10-18,一般社団法人やさしいビジネスラボ,,その他の設立登記法人,埼玉県,上尾市,大字南８番地５,,11,219,3620002,,,2024-10-18,清算の結了等,,,2020-11-02,1,,,,,ヤサシイビジネスラボ,0
195,1130001001512,登記記録の閉鎖等,0,2024-11-11,2024-11-05,株式会社中村製作所,,株式会社,京都府,京都市右京区,西京極南庄境町５４番地,,26,108,6150803,,,2024-11-05,清算の結了等,,,2015-10-05,1,,,,,ナカムラセイサクショ,0
208,1180001057070,登記記録の閉鎖等,0,2024-11-11,2024-11-01,株式会社シー・ハート,,株式会社,愛知県,春日井市,上条町６丁目２３５２番地７,,23,206,4860833,,,2024-11-01,清算の結了等,,,2015-10-05,1,,,,,シーハート,0
219,1180003023590,登記記録の閉鎖等,0,2024-11-11,2024-11-01,合同会社リンク,,合同会社,愛知県,春日井市,味美上ノ町２０６４番地３,,23,206,4860965,,,2024-11-01,合併による解散等,2180002066276,令和６年１１月１日愛知県春日井市金ケ口町３番地９株式会社ショウワクリエイト（2180002066276）に合併し解散,2022-03-10,1,,,,,リンク,0
221,1180302021428,登記記録の閉鎖等,0,2024-11-11,2024-10-31,有限会社今井造園,,有限会社,愛知県,豊田市,月見町３丁目２番地４,,23,211,4710033,,,2024-10-31,清算の結了等,,,2015-10-05,1,,,,,イマイゾウエン,0
225,1200001014622,登記記録の閉鎖等,0,2024-11-11,2024-11-01,株式会社トミタ商会,,株式会社,岐阜県,安八郡神戸町,大字更屋敷１８３番地の５,,21,381,5032322,,,2024-11-01,清算の結了等,,,2015-10-05,1,,,,,トミタショウカイ,0
227,1200002013937,登記記録の閉鎖等,0,2024-11-11,2024-11-05,澁谷設備有限会社,,有限会社,岐阜県,養老郡養老町,根古地１９１番地,,21,341,5031273,,,2024-11-05,清算の結了等,,,2015-10-05,1,,,,,シブヤセツビ,0
237,1250001000106,登記記録の閉鎖等,0,2024-11-11,2024-10-01,株式会社大隅,,株式会社,山口県,山口市,朝田９２８番地１,,35,203,7530871,,,2024-10-01,合併による解散等,2250001000105,令和６年１０月１日山口県山口市朝田９２８番地１株式会社大隅タクシー（2250001000105）に合併し解散,2015-10-05,1,,,,,オオスミ,0
240,1260005004993,登記記録の閉鎖等,0,2024-11-11,2024-11-01,医療法人歯慈会,,その他の設立登記法人,岡山県,笠岡市,笠岡５２７１番地の５,,33,205,7140081,,,2024-11-01,清算の結了等,,,2015-10-05,1,,,,,シジカイ,0
241,1270001002397,登記記録の閉鎖等,0,2024-11-11,2024-11-08,日本農業資材株式会社,,株式会社,鳥取県,鳥取市,国府町三代寺７７４番地,,31,201,6800154,,,2024-11-08,清算の結了等,,,2015-10-05,1,,,,,ニホンノウギョウシザイ,0
246,1290001083527,登記記録の閉鎖等,0,2024-11-11,2024-10-04,株式会社アイルコーポレーション,,株式会社,福岡県,春日市,伯玄町２丁目４６番地２,,40,218,8160825,,,2024-10-04,清算の結了等,,,2018-12-07,1,,,,,アイルコーポレーション,0
263,1330003005623,登記記録の閉鎖等,0,2024-11-11,2024-11-01,合同会社望開発,,合同会社,熊本県,熊本市中央区,出水１丁目５番４４号,,43,101,8620941,,,2024-11-01,清算の結了等,,,2015-10-05,1,,,,,ノゾミカイハツ,0
270,1360001012437,登記記録の閉鎖等,0,2024-11-11,2024-11-08,沖縄ポッカ食品株式会社,,株式会社,沖縄県,国頭郡東村,字平良７６７番地の１,,47,303,9051204,,,2024-11-08,清算の結了等,,,2015-10-05,1,,,,,オキナワポッカショクヒン,0
275,1370002005653,登記記録の閉鎖等,0,2024-11-11,2024-10-31,東成工業有限会社,,有限会社,宮城県,仙台市若林区,荒井字宅地１８番地の２,,04,103,9840032,,,2024-10-31,清算の結了等,,,2015-10-05,1,,,,,トウセイコウギョウ,0
280,1400003002035,登記記録の閉鎖等,0,2024-11-11,2024-10-31,合同会社ＶＩＮ　ＣＯＯＬ,,合同会社,岩手県,盛岡市,中野１丁目１３番３号,,03,201,0200816,,,2024-10-31,清算の結了等,,,2016-03-30,1,,,,,バンクール,0
281,1420002005276,登記記録の閉鎖等,0,2024-11-11,2024-11-06,有限会社サンライズ開発,,有限会社,青森県,青森市,大字石江字三好１１３番地１,,02,201,0380003,,,2024-11-06,清算の結了等,,,2015-10-05,1,,,,,サンライズカイハツ,0
284,1430001036148,登記記録の閉鎖等,0,2024-11-11,2024-11-06,株式会社栄和不動産,,株式会社,北海道,富良野市,北斗町８番５号モリーゼ１０３号室,,01,229,0760046,,,2024-11-06,清算の結了等,,,2015-10-05,1,,,,,エイワフドウサン,0
290,1450002000539,登記記録の閉鎖等,0,2024-11-11,2024-11-06,有限会社旭川チヤイルド社,,有限会社,北海道,旭川市,神楽岡十二条６丁目１番５号,,01,204,0788322,,,2024-11-06,清算の結了等,,,2015-10-05,1,,,,,アサヒカワチャイルドシャ,0
292,1450003002484,登記記録の閉鎖等,0,2024-11-11,2024-11-05,合資会社福士化粧品店,,合資会社,北海道,深川市,四条８番１５号,,01,228,0740004,,,2024-11-05,清算の結了等,,,2024-06-07,1,,,,,フクシケショウヒンテン,0
293,1460101005834,登記記録の閉鎖等,0,2024-11-11,2024-11-05,株式会社芽登ファーム,,株式会社,北海道,足寄郡足寄町,喜登牛６０６番地,,01,647,0893874,,,2024-11-05,清算の結了等,,,2015-11-30,1,,,,,メトウファーム,0
294,1470001005792,登記記録の閉鎖等,0,2024-11-11,2024-11-07,株式会社フォレストホーム,,株式会社,香川県,高松市,木太町３５９１番地１,,37,201,7600080,,,2024-11-07,清算の結了等,,,2015-10-05,1,,,,,フォレストホーム,0
306,2010003022055,登記記録の閉鎖等,0,2024-11-11,2024-11-08,合同会社ＴＫＩ,,合同会社,東京都,千代田区,丸の内３丁目１番１号東京共同会計事務所内,,13,101,1000005,,,2024-11-08,清算の結了等,,,2015-10-05,1,,,,,ティケイアイ,0
341,2010405020854,登記記録の閉鎖等,0,2024-11-11,2024-10-28,一般社団法人Ｐｅａｒｌ　Ｃａｐ,,その他の設立登記法人,東京都,港区,虎ノ門５丁目１番４号,,13,103,1050001,,,2024-10-28,清算の結了等,,,2022-03-28,1,,,,,パールキャップ,0
364,2011202006179,登記記録の閉鎖等,0,2024-11-11,2024-10-29,有限会社シンタック,,有限会社,東京都,新宿区,中落合１丁目５番３号レジディア中落合Ｂ１０９,,13,104,1610032,,,2024-10-29,清算の結了等,,,2015-10-05,1,,,,,シンタック,0
365,2011203003530,登記記録の閉鎖等,0,2024-11-11,2024-11-06,山桜合同会社,,合同会社,東京都,杉並区,高円寺南４丁目７番３号サンシャイン高円寺８０３,,13,115,1660003,,,2024-11-06,合併による解散等,8011203003624,令和６年１１月１日東京都中野区江原町二丁目２１番７－５０４号松山合同会社（8011203003624）に合併し解散,2021-04-26,1,,,,,ヤマザクラ,0
414,2030002004374,登記記録の閉鎖等,0,2024-11-11,2024-11-07,有限会社クドウプレス,,有限会社,埼玉県,さいたま市西区,大字指扇６５９番地の１３,,11,101,3310047,,,2024-11-07,清算の結了等,,,2015-10-05,1,,,,,クドウプレス,0
415,2030002086751,登記記録の閉鎖等,0,2024-11-11,2024-11-06,有限会社セントラル,,有限会社,埼玉県,越谷市,大字下間久里４０２番地３６,,11,222,3430045,,,2024-11-06,清算の結了等,,,2015-10-05,1,,,,,セントラル,0
425,2040001084251,登記記録の閉鎖等,0,2024-11-11,2024-11-05,株式会社マックスケリー,,株式会社,千葉県,船橋市,海神４丁目２１番１６号,,12,204,2730021,,,2024-11-05,清算の結了等,,,2015-10-05,1,,,,,マックスケリー,0
429,2040002090884,登記記録の閉鎖等,0,2024-11-11,2024-11-05,有限会社ドラゴン商会,,有限会社,千葉県,柏市,柏１丁目１番１１号,,12,217,2770005,,,2024-11-05,清算の結了等,,,2015-10-05,1,,,,,ドラゴンショウカイ,0
438,2050002030237,登記記録の閉鎖等,0,2024-11-11,2024-10-31,エコー有限会社,,有限会社,茨城県,日立市,久慈町４丁目１６番１０号,,08,202,3191222,,,2024-10-31,清算の結了等,,,2015-10-05,1,,,,,エコー,0
439,2050002035310,登記記録の閉鎖等,0,2024-11-11,2024-11-01,有限会社里美観光農園,,有限会社,茨城県,常陸太田市,大中町１８５１番地の１,,08,212,3110505,,,2024-11-01,清算の結了等,,,2015-10-05,1,,,,,サトミカンコウノウエン,0
440,2050002041903,登記記録の閉鎖等,0,2024-11-11,2024-10-22,有限会社大島,,有限会社,茨城県,筑西市,二木成１９５６番地,,08,227,3080841,,,2024-10-22,清算の結了等,,,2015-10-05,1,,,,,オオシマ,0
442,2060002032934,登記記録の閉鎖等,0,2024-11-11,2024-11-05,有限会社栗原商事,,有限会社,栃木県,栃木市,大平町西野田６５７番地７,,09,203,3294421,,,2024-11-05,清算の結了等,,,2015-10-05,1,,,,,クリハラショウジ,0
450,2080001020178,登記記録の閉鎖等,0,2024-11-11,2024-11-01,丸三自動車整備株式会社,,株式会社,静岡県,静岡市清水区,興津中町８７３番地の２,,22,103,4240204,,,2024-11-01,合併による解散等,1080001008810,令和６年１１月１日静岡市清水区興津中町８７３番地の１徳三運輸倉庫株式会社（1080001008810）に合併し解散,2015-10-05,1,,,,,マルサンジドウシャセイビ,0
493,2120002072263,登記記録の閉鎖等,0,2024-11-11,2024-11-08,有限会社ケーワイデンタルサービス,,有限会社,大阪府,寝屋川市,堀溝１丁目１６番３号,,27,215,5720814,,,2024-11-08,清算の結了等,,,2015-10-05,1,,,,,ケーワイデンタルサービス,0
499,2120101007855,登記記録の閉鎖等,0,2024-11-11,2024-11-07,隆盛貿易株式会社,,株式会社,大阪府,堺市堺区,香ヶ丘町４丁７番１号,,27,141,5900011,,,2024-11-07,清算の結了等,,,2015-10-05,1,,,,,リュウセイボウエキ,0
531,2150002007910,登記記録の閉鎖等,0,2024-11-11,2024-11-06,三光商事有限会社,,有限会社,奈良県,磯城郡川西町,大字結崎６７０番地の１２,,29,361,6360202,,,2024-11-06,清算の結了等,,,2015-10-05,1,,,,,サンコウショウジ,0
546,2180003019258,登記記録の閉鎖等,0,2024-11-11,2024-10-30,合同会社ＦＨＡＣＴ,,合同会社,愛知県,稲沢市,祖父江町祖父江外川田８９番地,,23,220,4950001,,,2024-10-30,清算の結了等,,,2018-09-06,1,,,,,ファクト,0
553,2200001007518,登記記録の閉鎖等,0,2024-11-11,2024-11-06,堀部米穀株式会社,,株式会社,岐阜県,各務原市,鵜沼川崎町３丁目９番地,,21,213,5090147,,,2024-11-06,清算の結了等,,,2015-10-05,1,,,,,ホリベベイコク,0
554,2200002000793,登記記録の閉鎖等,0,2024-11-11,2024-11-05,有限会社おおのとしおでんき,,有限会社,岐阜県,岐阜市,西改田字若宮１番地,,21,201,5011162,,,2024-11-05,合併による解散等,8200001035422,令和６年１１月１日岐阜市西改田若宮１番地おおの電気通信工事株式会社（8200001035422）に合併し解散,2015-10-05,1,,,,,オオノトシオデンキ,0
556,2210001008515,登記記録の閉鎖等,0,2024-11-11,2024-11-07,株式会社アシスト,,株式会社,福井県,坂井市,丸岡町今福第１３号２番地１４,,18,210,9100304,,,2024-11-07,清算の結了等,,,2015-10-05,1,,,,,アシスト,0
558,2220001002013,登記記録の閉鎖等,0,2024-11-11,2024-11-05,株式会社金沢インフォメーションセンター,,株式会社,石川県,金沢市,片町２丁目２１番３０号,,17,201,9200981,,,2024-11-05,清算の結了等,,,2015-10-05,1,,,,,カナザワインフォメーションセンター,0
572,2280005005915,登記記録の閉鎖等,0,2024-11-11,2024-11-08,医療法人清水医院,,その他の設立登記法人,島根県,雲南市,加茂町加茂中１０１３番地１,,32,209,6991106,,,2024-11-08,清算の結了等,,,2015-10-05,1,,,,,シミズイイン,0
589,2320005000143,登記記録の閉鎖等,0,2024-11-11,2024-11-08,一般社団法人大分野生生物研究センター,,その他の設立登記法人,大分県,大分市,大字八幡４０番地の１,,44,201,8700100,,,2024-11-08,清算の結了等,,,2015-10-05,1,,,,,オオイタヤセイセイブツケンキュウセンター,0
593,2350002002123,登記記録の閉鎖等,0,2024-11-11,2024-11-05,有限会社ジオ企画,,有限会社,宮崎県,宮崎市,大塚台東１丁目４２番地５１ル・グラン大塚台４０３号,,45,201,8800952,,,2024-11-05,清算の結了等,,,2015-10-05,1,,,,,ジオキカク,0
594,2350002005539,登記記録の閉鎖等,0,2024-11-11,2024-11-01,有限会社やなせ,,有限会社,宮崎県,宮崎市,高岡町浦之名２２７１番地１,,45,201,8802323,,,2024-11-01,合併による解散等,6350002008380,令和６年１１月１日宮崎市大工三丁目２６３番地１サンデービーチトピカ４０８号株式会社ＴＯＰＩＫＡ（6350002008380）に合併し解散,2015-10-05,1,,,,,ヤナセ,0
595,2360003010140,登記記録の閉鎖等,0,2024-11-11,2024-11-05,合同会社Ｋ’ｓ　ｆａｃｔｏｒｙ,,合同会社,千葉県,柏市,高田４８２番地１－１０３号,,12,217,2770861,,,2024-11-05,清算の結了等,,,2020-03-13,1,,,,,ケイズファクトリー,0
601,2380001030774,登記記録の閉鎖等,0,2024-11-11,2024-10-28,株式会社エムライン,,株式会社,福島県,相馬市,沖ノ内３丁目８番地２Ａ１０１,,07,209,9760016,,,2024-10-28,清算の結了等,,,2020-03-16,1,,,,,エムライン,0
602,2380002021450,登記記録の閉鎖等,0,2024-11-11,2024-10-28,有限会社タダノフーズ,,有限会社,福島県,須賀川市,西山寺町２９１番地,,07,207,9620063,,,2024-10-28,清算の結了等,,,2015-10-05,1,,,,,タダノフーズ,0
605,2410001010351,登記記録の閉鎖等,0,2024-11-11,2024-11-05,広栄工業株式会社,,株式会社,秋田県,由利本荘市,石脇字田尻野９番地４３,,05,210,0150013,,,2024-11-05,清算の結了等,,,2015-10-05,1,,,,,,0
606,2430001005366,登記記録の閉鎖等,0,2024-11-11,2024-11-06,ケイジーソフト株式会社,,株式会社,北海道,札幌市北区,北六条西６丁目２番地,,01,102,0600806,,,2024-11-06,清算の結了等,,,2015-10-05,1,,,,,ケイジーソフト,0
607,2430001053423,登記記録の閉鎖等,0,2024-11-11,2024-11-05,株式会社とまみん印刷センター,,株式会社,北海道,苫小牧市,若草町３丁目１番８号,,01,213,0530021,,,2024-11-05,清算の結了等,,,2015-10-05,1,,,,,トマミンインサツセンター,0
614,2470001016748,登記記録の閉鎖等,0,2024-11-11,2024-10-01,株式会社スワニーｉｔ,,株式会社,香川県,東かがわ市,松原９８１番地,,37,207,7692702,,,2024-10-01,合併による解散等,3470001011260,令和６年１０月１日香川県東かがわ市松原９８１番地株式会社スワニー（3470001011260）に合併し解散,2018-02-19,1,,,,,スワニーイット,0
617,2480001012580,登記記録の閉鎖等,0,2024-11-11,2024-10-21,株式会社阿波住宅,,株式会社,徳島県,美馬郡つるぎ町,貞光字西山５７番地の２,,36,468,7794102,,,2024-10-21,清算の結了等,,,2024-09-03,1,,,,,,0
633,3010002011867,登記記録の閉鎖等,0,2024-11-11,2024-10-28,有限会社第一和晃印刷社,,有限会社,東京都,千代田区,神田三崎町２丁目２０番１号,,13,101,1010061,,,2024-10-28,清算の結了等,,,2015-10-05,1,,,,,ダイイチワコウインサツ,0
679,3010802006819,登記記録の閉鎖等,0,2024-11-11,2024-11-05,有限会社真孝実業,,有限会社,東京都,大田区,大森北６丁目２５番２２号,,13,111,1430016,,,2024-11-05,清算の結了等,,,2015-10-05,1,,,,,シンコウジツギョウ,0
707,3011403000153,登記記録の閉鎖等,0,2024-11-11,2024-11-01,株式会社福田,,株式会社,東京都,板橋区,板橋２丁目６３番４－２１７号,,13,119,1730004,,,2024-11-01,清算の結了等,,,2015-10-05,1,,,,,フクダ,0
712,3011702000333,登記記録の閉鎖等,0,2024-11-11,2024-10-29,有限会社アカツカリカ販売,,有限会社,東京都,江戸川区,東小岩５丁目３３－２７レクセルマンション小岩１０３号,,13,123,1330052,,,2024-10-29,清算の結了等,,,2015-10-05,1,,,,,アカツカリカハンバイ,0
718,3011802002031,登記記録の閉鎖等,0,2024-11-11,2024-11-05,有限会社カミヤマ,,有限会社,東京都,葛飾区,宝町２丁目２８番２号,,13,122,1240005,,,2024-11-05,清算の結了等,,,2015-10-05,1,,,,,カミヤマ,0
732,3013301029794,登記記録の閉鎖等,0,2024-11-11,2024-10-28,株式会社ブイ・エー,,株式会社,東京都,豊島区,巣鴨５丁目４５番８号,,13,116,1700002,,,2024-10-28,清算の結了等,,,2015-10-05,1,,,,,ブイエー,0
750,3020002088632,登記記録の閉鎖等,0,2024-11-11,2024-10-24,有限会社仮屋製作所,,有限会社,神奈川県,川崎市高津区,諏訪３丁目８番１９号,,14,134,2130004,,,2024-10-24,清算の結了等,,,2015-10-05,1,,,,,カリヤセイサクショ,0
754,3020005014908,登記記録の閉鎖等,0,2024-11-11,2024-10-22,三田コーポ管理組合法人,,その他の設立登記法人,神奈川県,川崎市多摩区,三田１丁目１２番地５,,14,135,2140034,,,2024-10-22,清算の結了等,,,2020-12-28,1,,,,,ミタコーポ,0
773,3040001085686,登記記録の閉鎖等,0,2024-11-11,2024-11-05,株式会社菅原建設,,株式会社,千葉県,松戸市,三矢小台４丁目１６番地の２４,,12,207,2710087,,,2024-11-05,清算の結了等,,,2015-10-05,1,,,,,スガワラケンセツ,0
780,3050002013819,登記記録の閉鎖等,0,2024-11-11,2024-10-31,有限会社ライフサポートミナミ,,有限会社,茨城県,土浦市,中村南６丁目１番１３号,,08,203,3000843,,,2024-10-31,清算の結了等,,,2015-10-05,1,,,,,ライフサポートミナミ,0
788,3080005004267,登記記録の閉鎖等,0,2024-11-11,2024-11-01,静岡県内装用ライナー株式会社,,株式会社,静岡県,静岡市清水区,興津中町９９２番地の１,,22,103,4240204,,,2024-11-01,合併による解散等,1080001008810,令和６年１１月１日静岡市清水区興津中町８７３番地の１徳三運輸倉庫株式会社（1080001008810）に合併し解散,2015-10-05,1,,,,,シズオカケンナイソウヨウライナー,0
799,3110001019645,登記記録の閉鎖等,0,2024-11-11,2024-11-05,株式会社マイテック,,株式会社,新潟県,上越市,大潟区雁子浜３１８番地１９,,15,222,9493101,,,2024-11-05,清算の結了等,,,2015-10-05,1,,,,,マイテック,0
819,3120101027976,登記記録の閉鎖等,0,2024-11-11,2024-11-06,株式会社山田武部建築事務所,,株式会社,大阪府,堺市西区,鳳東町７丁７９９番地ライブヒルズ鳳１０１号,,27,144,5938324,,,2024-11-06,清算の結了等,,,2015-10-05,1,,,,,ヤマダタケベケンチクジムショ,0
834,3140002036455,登記記録の閉鎖等,0,2024-11-11,2024-11-01,有限会社パティオ,,有限会社,兵庫県,加古川市,別府町緑町３番地,,28,210,6750124,,,2024-11-01,合併による解散等,1140001022763,令和６年１１月１日神戸市中央区明石町３２番地株式会社垂水センター（1140001022763）に合併し解散,2015-10-05,1,,,,,,0
846,3180001105884,登記記録の閉鎖等,0,2024-11-11,2024-10-30,ＦＬＡＧ株式会社,,株式会社,愛知県,名古屋市中区,栄３丁目２１番２７号,,23,106,4600008,,,2024-10-30,清算の結了等,,,2015-10-05,1,,,,,フラッグ,0
847,3180001137812,登記記録の閉鎖等,0,2024-11-11,2024-10-30,株式会社インターアクション,,株式会社,愛知県,名古屋市東区,泉２丁目２１番３号,,23,102,4610001,,,2024-10-30,清算の結了等,,,2019-08-16,1,,,,,インターアクション,0
865,3200002025526,登記記録の閉鎖等,0,2024-11-11,2024-11-06,有限会社高山観光写真サービス,,有限会社,岐阜県,高山市,西之一色町３丁目１４２４番地の１５,,21,203,5060031,,,2024-11-06,清算の結了等,,,2015-10-05,1,,,,,タカヤマカンコウシャシンサービス,0
875,3260001036056,登記記録の閉鎖等,0,2024-11-11,2024-11-05,株式会社ＴＹカンパニー,,株式会社,広島県,広島市佐伯区,観音台３丁目１６番１号,,34,108,7315157,,,2024-11-05,清算の結了等,,,2021-10-07,1,,,,,ティーワイーカンパニー,0
878,3270001000515,登記記録の閉鎖等,0,2024-11-11,2024-11-08,株式会社動機,,株式会社,鳥取県,鳥取市,国安２１０番地１０,,31,201,6801132,,,2024-11-08,清算の結了等,,,2015-10-05,1,,,,,ドウキ,0
887,3290001078450,登記記録の閉鎖等,0,2024-11-11,2024-11-01,株式会社山崎,00110858,株式会社,福岡県,那珂川市,仲１丁目１３３番地１,,40,231,8111253,,,2024-11-01,合併による解散等,6290001024518,令和６年１１月１日福岡県那珂川市仲三丁目８番２号株式会社幸建（6290001024518）に合併し解散,2017-07-18,1,,,,,ヤマサキ,0
892,3290002046605,登記記録の閉鎖等,0,2024-11-11,2024-10-07,有限会社キイポイント,,有限会社,福岡県,嘉麻市,下山田４４７番地の１２,,40,227,8210011,,,2024-10-07,清算の結了等,,,2015-10-05,1,,,,,キイポイント,0
896,3310003002422,登記記録の閉鎖等,0,2024-11-11,2024-10-31,合同会社リハビリサポートあすか,,合同会社,長崎県,長崎市,鶴の尾町１０番１８号,,42,201,8510132,,,2024-10-31,清算の結了等,,,2015-10-05,1,,,,,リハビリサポートアスカ,0
901,3330003009060,登記記録の閉鎖等,0,2024-11-11,2024-11-05,合同会社ばんさい,,合同会社,熊本県,熊本市東区,錦ケ丘９番１８－２０２号,,43,102,8620912,,,2024-11-05,清算の結了等,,,2021-10-01,1,,,,,バンサイ,0
915,3410005004613,登記記録の閉鎖等,0,2024-11-11,2024-11-05,特定非営利活動法人フラワーデザイン普及協会,,その他の設立登記法人,秋田県,大仙市,福田町１２番２７号,,05,212,0140021,,,2024-11-05,清算の結了等,,,2015-10-05,1,,,,,フラワーデザインフキュウキョウカイ,0
918,3430002052605,登記記録の閉鎖等,0,2024-11-11,2024-11-05,千葉製茶有限会社,,有限会社,北海道,芦別市,北一条西１丁目１８番地,,01,216,0750001,,,2024-11-05,清算の結了等,,,2015-10-05,1,,,,,チバセイチャ,0
922,3460001004793,登記記録の閉鎖等,0,2024-11-11,2024-11-07,株式会社まるに,,株式会社,北海道,厚岸郡厚岸町,湾月２丁目３５３番地,,01,662,0881114,,,2024-11-07,清算の結了等,,,2015-10-05,1,,,,,マルニ,0
927,3500002017526,登記記録の閉鎖等,0,2024-11-11,2024-11-06,有限会社ポラリス,,有限会社,愛媛県,新居浜市,又野１丁目５番２２号,,38,205,7920882,,,2024-11-06,清算の結了等,,,2015-10-05,1,,,,,ポラリス,0
978,4010501023602,登記記録の閉鎖等,0,2024-11-11,2024-11-05,ロングウェル株式会社,,株式会社,埼玉県,さいたま市北区,宮原町１丁目１８４番地１ラミーユ大宮ハイライズ２－７０１号,,11,102,3310812,,,2024-11-05,清算の結了等,,,2015-10-05,1,,,,,ロングウェル,0
1020,4013102002553,登記記録の閉鎖等,0,2024-11-11,2024-11-06,有限会社相川製作所,,有限会社,東京都,西多摩郡瑞穂町,箱根ケ崎西松原３４番地１３,,13,303,1901223,,,2024-11-06,清算の結了等,,,2015-10-05,1,,,,,アイカワセイサクジョ,0
1021,4013301031155,登記記録の閉鎖等,0,2024-11-11,2024-10-28,株式会社リロ・プロダクション,,株式会社,東京都,豊島区,南池袋２丁目２０番４号,,13,116,1710022,,,2024-10-28,清算の結了等,,,2015-10-05,1,,,,,リロプロダクション,0
1026,4020001097823,登記記録の閉鎖等,0,2024-11-11,2024-11-01,株式会社フェリーチェ,,株式会社,東京都,品川区,荏原６丁目１８番１６号,,13,109,1420063,,,2024-11-01,合併による解散等,3010001134529,令和６年１１月１日東京都品川区荏原六丁目１８番１６号ウェルス・インベストメンツ株式会社（3010001134529）に合併し解散,2015-10-05,1,,,,,フェリーチェ,0
1031,4020001121327,登記記録の閉鎖等,0,2024-11-11,2024-10-24,日東ハイウエイ興業株式会社,,株式会社,神奈川県,川崎市宮前区,土橋３丁目２３番地４,,14,136,2160005,,,2024-10-24,清算の結了等,,,2017-05-16,1,,,,,ニットウハイウエイコウギョウ,0
1033,4020002032878,登記記録の閉鎖等,0,2024-11-11,2024-10-23,有限会社太田原工業,,有限会社,神奈川県,横浜市港北区,綱島東４丁目７番２７号,,14,109,2230052,,,2024-10-23,清算の結了等,,,2015-10-05,1,,,,,オオタワラコウギョウ,0
1045,4030002071941,登記記録の閉鎖等,0,2024-11-11,2024-11-07,有限会社ユーツー,,有限会社,埼玉県,春日部市,大畑２０７番地１,,11,214,3440022,,,2024-11-07,清算の結了等,,,2015-10-05,1,,,,,ユーツー,0
1053,4040001118593,登記記録の閉鎖等,0,2024-11-11,2024-10-29,株式会社Ｃｏｍｆｏｒｔ　Ｓｑｕａｒｅ,,株式会社,千葉県,君津市,常代４丁目１５番２３号,,12,225,2991121,,,2024-10-29,清算の結了等,,,2021-05-27,1,,,,,コンフォートスクエア,0
1054,4040001119220,登記記録の閉鎖等,0,2024-11-11,2024-11-01,株式会社デクシスプランニング,,株式会社,千葉県,船橋市,本町２丁目１番３４号,,12,204,2730005,,,2024-11-01,合併による解散等,9040001018104,令和６年１１月１日千葉県船橋市本町二丁目１番３４号株式会社デクシス（9040001018104）に合併し解散,2021-07-05,1,,,,,デクシスプランニング,0
1070,4070001030630,登記記録の閉鎖等,0,2024-11-11,2024-11-01,ＡｑｕａｔｉｃＣｒｅａｔｉｏｎ株式会社,,株式会社,群馬県,渋川市,赤城町三原田６１８番地１５９,,10,208,3791126,,,2024-11-01,清算の結了等,,,2015-10-05,1,,,,,アクアティッククリエイション,0
1071,4080001018658,登記記録の閉鎖等,0,2024-11-11,2024-11-01,ＰＩＡオーシャンニック株式会社,,株式会社,東京都,品川区,大崎１丁目１９番１３号,,13,109,1410032,,,2024-11-01,清算の結了等,,,2015-10-05,1,,,,,ピーアイエーオーシャンニック,0
1075,4080101024201,登記記録の閉鎖等,0,2024-11-11,2024-11-05,株式会社Ｍａｋｅｓ,,株式会社,静岡県,富士市,木島１２９８番地の１,,22,210,4213304,,,2024-11-05,清算の結了等,,,2023-09-06,1,,,,,メイクス,0
1087,4120001143625,登記記録の閉鎖等,0,2024-11-11,2024-11-05,株式会社ユー・エス・イメージング,,株式会社,大阪府,大阪市中央区,今橋４丁目３番１８号,,27,128,5410042,,,2024-11-05,清算の結了等,,,2015-10-05,1,,,,,ユーエスイメージング,0
1101,4120901029907,登記記録の閉鎖等,0,2024-11-11,2024-11-07,株式会社スリートレジャー,,株式会社,大阪府,豊中市,上野西１丁目１３番１５号,,27,203,5600011,,,2024-11-07,清算の結了等,,,2015-10-05,1,,,,,スリートレジャー,0
1148,4190001008565,登記記録の閉鎖等,0,2024-11-11,2024-11-07,株式会社東邦設備,,株式会社,三重県,伊賀市,西明寺２３４４番地,,24,216,5180809,,,2024-11-07,清算の結了等,,,2015-10-05,1,,,,,トウホウセツビ,0
1170,4290002045812,登記記録の閉鎖等,0,2024-11-11,2024-10-15,有限会社中島紙器,,有限会社,福岡県,飯塚市,上三緒１番地の５１,,40,205,8200013,,,2024-10-15,清算の結了等,,,2015-10-05,1,,,,,ナカシマシキ,0
1191,4320201000556,登記記録の閉鎖等,0,2024-11-11,2024-10-01,株式会社アスト,,株式会社,大分県,臼杵市,大字二王座３８９番地１,,44,206,8750043,,,2024-10-01,合併による解散等,7320001001537,令和６年１０月１日大分県臼杵市大字江無田２５１番地株式会社アストソイル（7320001001537）に合併し解散,2015-10-05,1,,,,,アスト,0
1198,4350002011717,登記記録の閉鎖等,0,2024-11-11,2024-11-01,伊東商事有限会社,,有限会社,宮崎県,延岡市,旭町１丁目６番地１２,,45,203,8820847,,,2024-11-01,清算の結了等,,,2015-10-05,1,,,,,イトウショウジ,0
1199,4360001014991,登記記録の閉鎖等,0,2024-11-11,2024-11-06,ラッキーファクトリーエイジア株式会社,,株式会社,沖縄県,石垣市,字新川２４５９番地１,,47,207,9070024,,,2024-11-06,清算の結了等,,,2015-10-05,1,,,,,ラッキーファクトリーエイジア,0
1215,4430003009867,登記記録の閉鎖等,0,2024-11-11,2024-11-05,合同会社シトラス,,合同会社,北海道,札幌市北区,屯田八条８丁目６－１４,,01,102,0020858,,,2024-11-05,清算の結了等,,,2018-11-12,1,,,,,シトラス,0
1225,4490005000802,登記記録の閉鎖等,0,2024-11-11,2024-09-11,稲荷神社,00006906,その他の設立登記法人,高知県,高知市,春野町東諸木４２１４番地,,39,201,7810315,,,2024-09-11,合併による解散等,1490005001225,令和６年９月７日高知県高知市春野町東諸木４２６３番地２八幡宮（1490005001225）に合併し解散,2015-10-05,1,,,,,イナリジンジャ,0
1229,5010001191312,登記記録の閉鎖等,0,2024-11-11,2024-11-01,ＤｅＬｉｇｈｔ株式会社,,株式会社,兵庫県,西宮市,若松町４番１７号,,28,204,6620035,,,2024-11-01,合併による解散等,6140001130891,令和６年１１月１日兵庫県西宮市若松町４番１７号ＤＥＬＩＧＨＴ株式会社（6140001130891）に合併し解散,2018-04-25,1,,,,,ディライト,0
1267,5010403030472,登記記録の閉鎖等,0,2024-11-11,2024-11-07,合同会社ＧＫ０７０,,合同会社,東京都,港区,虎ノ門３丁目２２番１０－２０１号,,13,103,1050001,,,2024-11-07,合併による解散等,2040003017110,令和６年１１月１日千葉市中央区富士見一丁目１４番１３号千葉大栄ビル８階第九日本ソーラー電力合同会社（2040003017110）に合併し解散,2023-07-13,1,,,,,ジーケイゼロセブンゼロ,0
1271,5010601056311,登記記録の閉鎖等,0,2024-11-11,2024-11-01,株式会社エムアイグランド,,株式会社,東京都,墨田区,菊川３丁目２３番８号,,13,107,1300024,,,2024-11-01,清算の結了等,,,2019-10-25,1,,,,,エムアイグランド,0
1272,5010601061451,登記記録の閉鎖等,0,2024-11-11,2024-11-07,株式会社スマーテック,,株式会社,東京都,江東区,新砂３丁目４番４３－９１４号,,13,108,1360075,,,2024-11-07,清算の結了等,,,2022-07-08,1,,,,,スマーテック,0
1324,5021002016325,登記記録の閉鎖等,0,2024-11-11,2024-11-01,有限会社鎌倉はちみつ園,,有限会社,神奈川県,鎌倉市,扇ガ谷１丁目１０番１０号,,14,204,2480011,,,2024-11-01,清算の結了等,,,2015-10-05,1,,,,,,0
1336,5030001048972,登記記録の閉鎖等,0,2024-11-11,2024-11-07,株式会社ヤマトテクノ,,株式会社,埼玉県,富士見市,関沢２丁目２４番４４号,,11,235,3540025,,,2024-11-07,清算の結了等,,,2015-10-05,1,,,,,ヤマトテクノ,0
1349,5030002047585,登記記録の閉鎖等,0,2024-11-11,2024-11-06,有限会社南埼ダイカスト,,有限会社,埼玉県,八潮市,大字南後谷６８５番地,,11,234,3400831,,,2024-11-06,清算の結了等,,,2015-10-05,1,,,,,,0
1350,5030002066684,登記記録の閉鎖等,0,2024-11-11,2024-11-06,有限会社Ｓ－ＳＴＹＬＥ,,有限会社,埼玉県,新座市,野寺４丁目１番２４号,,11,230,3520034,,,2024-11-06,清算の結了等,,,2015-10-05,1,,,,,,0
1356,5040002076757,登記記録の閉鎖等,0,2024-11-11,2024-11-06,有限会社市根井電気,,有限会社,千葉県,市原市,古市場４８８番地２,,12,219,2900008,,,2024-11-06,清算の結了等,,,2015-10-05,1,,,,,イチネイデンキ,0
1371,5050002012249,登記記録の閉鎖等,0,2024-11-11,2024-11-01,有限会社誉総業,,有限会社,茨城県,土浦市,中高津３丁目８番１０号,,08,203,3000815,,,2024-11-01,清算の結了等,,,2015-10-05,1,,,,,ホマレソウギョウ,0
1375,5070002001497,登記記録の閉鎖等,0,2024-11-11,2024-11-07,有限会社神尾食肉店,,有限会社,群馬県,前橋市,堀越町１１０６番地１,,10,201,3710231,,,2024-11-07,清算の結了等,,,2015-10-05,1,,,,,カミオショクニクテン,0
1378,5080101013368,登記記録の閉鎖等,0,2024-11-11,2024-11-01,宇城不動産株式会社,,株式会社,埼玉県,所沢市,西所沢１丁目５番１９号,,11,208,3591144,,,2024-11-01,合併による解散等,4030001147445,令和６年１１月１日埼玉県所沢市西所沢一丁目５番１９号株式会社雅（4030001147445）に合併し解散,2015-10-05,1,,,,,ウシロフドウサン,0
1415,5130001029657,登記記録の閉鎖等,0,2024-11-11,2024-11-06,株式会社ロンド,,株式会社,京都府,京都市中京区,堺町通蛸薬師上る甲屋町３９４番地パレロワイヤル京都４０２,00036111,26,104,6048114,,,2024-11-06,清算の結了等,,,2015-10-05,1,,,,,ロンド,0
1457,5190002015007,登記記録の閉鎖等,0,2024-11-11,2024-11-06,有限会社勉屋百貨店,,有限会社,三重県,多気郡明和町,大字前野７２４番地,,24,442,5150346,,,2024-11-06,清算の結了等,,,2015-10-05,1,,,,,ベンヤヒャッカテン,0
1461,5200003000385,登記記録の閉鎖等,0,2024-11-11,2024-11-05,合資会社久保鉄工場,,合資会社,岐阜県,岐阜市,長住町８丁目３番地,,21,201,5008175,,,2024-11-05,清算の結了等,,,2015-10-05,1,,,,,クボテッコウジョウ,0
1479,5270001002526,登記記録の閉鎖等,0,2024-11-11,2024-11-01,株式会社マルイアットホーム,,株式会社,岡山県,津山市,戸島８９３番地１５,,33,203,7080016,,,2024-11-01,合併による解散等,4260001020240,令和６年１１月１日岡山県津山市戸島８９３番地１５株式会社マルイ（4260001020240）に合併し解散,2015-10-05,1,,,,,マルイアットホーム,0
1503,5320001002504,登記記録の閉鎖等,0,2024-11-11,2024-10-01,豊信産業株式会社,,株式会社,大分県,大分市,須賀２丁目１１番２４号,,44,201,8700244,,,2024-10-01,合併による解散等,3320201000268,令和６年１０月１日大分県津久見市大字堅浦１３８１番地１株式会社ヤクテツ（3320201000268）に合併し解散,2015-10-05,1,,,,,ホウシンサンギョウ,0
1506,5320001013609,登記記録の閉鎖等,0,2024-11-11,2024-11-07,株式会社マテリアルＫ,,株式会社,大分県,大分市,明野東５丁目３番６号,,44,201,8700161,,,2024-11-07,清算の結了等,,,2015-10-05,1,,,,,マテリアルケイ,0
1509,5340002000983,登記記録の閉鎖等,0,2024-11-11,2024-11-05,有限会社アッサン,,有限会社,鹿児島県,鹿児島市,鴨池１丁目４３番４号,,46,201,8900063,,,2024-11-05,清算の結了等,,,2015-10-05,1,,,,,アッサン,0
1511,5370002012357,登記記録の閉鎖等,0,2024-11-11,2024-10-29,有限会社デイム,,有限会社,宮城県,仙台市青葉区,二日町７番３２号,,04,101,9800802,,,2024-10-29,清算の結了等,,,2015-10-05,1,,,,,デイム,0
1595,6010601060147,登記記録の閉鎖等,0,2024-11-11,2024-11-06,株式会社遊楽商店,,株式会社,東京都,江東区,辰巳１丁目７番２８－５０３号,,13,108,1350053,,,2024-11-06,清算の結了等,,,2021-10-29,1,,,,,ユウラクショウテン,0
1596,6010701030280,登記記録の閉鎖等,0,2024-11-11,2024-11-01,株式会社ＦＡワークス,,株式会社,東京都,品川区,戸越５丁目１番３号,,13,109,1420041,,,2024-11-01,清算の結了等,,,2015-10-05,1,,,,,エフエーワークス,0
1607,6011001100864,登記記録の閉鎖等,0,2024-11-11,2024-10-10,株式会社ＦＯＲＥＳＴ　ＰＩＮＥ,,株式会社,東京都,渋谷区,南平台町８番１１号,,13,113,1500036,,,2024-10-10,清算の結了等,,,2015-10-05,1,,,,,フォレストパイン,0
1642,6020005015812,登記記録の閉鎖等,0,2024-11-11,2024-10-23,一般社団法人日本みそ・発酵コンシェルジュ認定協会,,その他の設立登記法人,神奈川県,横浜市都筑区,茅ケ崎中央８番３３号,,14,118,2240032,,,2024-10-23,清算の結了等,,,2023-01-17,1,,,,,ニホンミソハッコウコンシェルジュニンテイキョウカイ,0
1646,6030001064309,登記記録の閉鎖等,0,2024-11-11,2024-11-05,株式会社オズ,,株式会社,埼玉県,越谷市,花田５丁目５番地４,,11,222,3430015,,,2024-11-05,清算の結了等,,,2015-10-05,1,,,,,オズ,0
1653,6030002079875,登記記録の閉鎖等,0,2024-11-11,2024-11-06,有限会社インパクト,,有限会社,埼玉県,川越市,大字藤間８０２番地８,,11,201,3501142,,,2024-11-06,清算の結了等,,,2015-10-05,1,,,,,インパクト,0
1654,6030003016282,登記記録の閉鎖等,0,2024-11-11,2024-09-12,ダリル合同会社,,合同会社,東京都,町田市,森野１丁目３６－２セレステ町田１Ｆ,,13,209,1940022,,,2024-09-12,清算の結了等,,,2020-12-02,1,,,,,ダリル,0
1658,6040001052130,登記記録の閉鎖等,0,2024-11-11,2024-11-05,ニチデン工業株式会社,,株式会社,千葉県,君津市,中野４丁目１５番１２号,,12,225,2991151,,,2024-11-05,清算の結了等,,,2015-10-05,1,,,,,ニチデンコウギョウ,0
1701,6090001013615,登記記録の閉鎖等,0,2024-11-11,2024-11-05,株式会社うえだグループ,,株式会社,山梨県,甲府市,下石田２丁目９番２号グランシード大間Ｃ２０１,,19,201,4000046,,,2024-11-05,清算の結了等,,,2015-10-05,1,,,,,,0
1713,6120001154901,登記記録の閉鎖等,0,2024-11-11,2024-11-06,ファーストホスピタリティ株式会社,,株式会社,奈良県,香芝市,真美ヶ丘１丁目１０番１８号,,29,210,6390223,,,2024-11-06,清算の結了等,,,2015-10-05,1,,,,,ファーストホスピタリティ,0
1738,6122001019340,登記記録の閉鎖等,0,2024-11-11,2024-11-05,株式会社天満技術コンサルタンツ,,株式会社,大阪府,八尾市,西山本町４丁目５番１１号,,27,212,5810868,,,2024-11-05,清算の結了等,,,2015-10-05,1,,,,,テンマギジュツコンサルタンツ,0
1742,6130001026892,登記記録の閉鎖等,0,2024-11-11,2024-11-06,株式会社クラハシ技建,,株式会社,京都府,京都市西京区,大原野西境谷町２丁目９番地西境谷第二住宅９棟１０１号,,26,111,6101146,,,2024-11-06,清算の結了等,,,2015-10-05,1,,,,,クラハシギケン,0
1749,6130003009540,登記記録の閉鎖等,0,2024-11-11,2024-11-06,合同会社Ｋ‐Ｓｅｒａ,,合同会社,京都府,京都市右京区,嵯峨苅分町１－８,,26,108,6168342,,,2024-11-06,清算の結了等,,,2024-05-09,1,,,,,ケーセラ,0
1752,6140001055882,登記記録の閉鎖等,0,2024-11-11,2024-11-05,喜多見印刷株式会社,,株式会社,兵庫県,豊岡市,中陰５４６番地の２,,28,209,6680013,,,2024-11-05,清算の結了等,,,2015-10-05,1,,,,,キタミインサツ,0
1759,6140002065377,登記記録の閉鎖等,0,2024-11-11,2024-11-01,阿南商工有限会社,,有限会社,兵庫県,伊丹市,昆陽東４丁目８番２号,,28,207,6640886,,,2024-11-01,清算の結了等,,,2015-10-05,1,,,,,アナンショウコウ,0
1779,6190002009775,登記記録の閉鎖等,0,2024-11-11,2024-11-07,三重工業写真有限会社,,有限会社,三重県,伊勢市,竹ケ鼻町３６３番地の４,,24,203,5160005,,,2024-11-07,清算の結了等,,,2015-10-05,1,,,,,ミエコウギョウシャシン,0
1808,6310001004426,登記記録の閉鎖等,0,2024-11-11,2024-11-01,株式会社石原組,,株式会社,長崎県,長崎市,万才町１番１号,,42,201,8500033,,,2024-11-01,合併による解散等,8310001002007,令和６年１１月１日長崎市万才町１番１号松島建設工業株式会社（8310001002007）に合併し解散,2015-10-05,1,,,,,イシハラグミ,0
1811,6320001000556,登記記録の閉鎖等,0,2024-11-11,2024-11-07,岩本建設株式会社,,株式会社,大分県,大分市,大字常行１３２番地の１,,44,201,8700116,,,2024-11-07,清算の結了等,,,2015-10-05,1,,,,,,0
1812,6320002010661,登記記録の閉鎖等,0,2024-11-11,2024-11-01,有限会社東豊技建,,有限会社,大分県,大分市,中春日町３番１３号,,44,201,8700039,,,2024-11-01,合併による解散等,5320001008237,令和６年１１月１日大分県国東市国東町富来浦１６２５番地１株式会社ダイプロ・Ｈｏｍｅ（5320001008237）に合併し解散,2015-10-05,1,,,,,トウホウギケン,0
1822,6370001002234,登記記録の閉鎖等,0,2024-11-11,2024-10-30,株式会社丸大フーズ,,株式会社,宮城県,仙台市太白区,袋原字堰場１０番地,,04,104,9811102,,,2024-10-30,清算の結了等,,,2015-10-05,1,,,,,マルダイフーズ,0
1831,6450002007637,登記記録の閉鎖等,0,2024-11-11,2024-11-06,有限会社向昌良商店,,有限会社,北海道,深川市,西町６番３４号,,01,228,0740012,,,2024-11-06,清算の結了等,,,2015-10-05,1,,,,,ムカイマサヨシショウテン,0
1837,6480002014201,登記記録の閉鎖等,0,2024-11-11,2024-11-07,有限会社ますとみ酒店,,有限会社,徳島県,海部郡牟岐町,大字中村字本村３０３番地の１,,36,383,7750006,,,2024-11-07,清算の結了等,,,2015-10-05,1,,,,,マストミショウテン,0
1845,7010001100667,登記記録の閉鎖等,0,2024-11-11,2024-11-05,株式会社オリフラム,,株式会社,東京都,江東区,住吉２丁目１２番１号,,13,108,1350002,,,2024-11-05,清算の結了等,,,2015-10-05,1,,,,,オリフラム,0
1860,7010003039697,登記記録の閉鎖等,0,2024-11-11,2024-10-29,合同会社ぴの,,合同会社,東京都,中央区,銀座１丁目１２番４号Ｎ＆ＥＢＬＤ．６Ｆ,,13,102,1040061,,,2024-10-29,清算の結了等,,,2023-01-26,1,,,,,ピノ,0
1885,7010005028483,登記記録の閉鎖等,0,2024-11-11,2024-11-01,アドバンス・ロジスティクス投資法人,,その他の設立登記法人,東京都,千代田区,神田神保町１丁目１０５番地,,13,101,1010051,,,2024-11-01,合併による解散等,1010005025065,令和６年１１月１日東京都中央区銀座六丁目８番７号三井不動産ロジスティクスパーク投資法人（1010005025065）に合併し解散,2018-05-02,1,,,,,アドバンスロジスティクス,0
1894,7010401124084,登記記録の閉鎖等,0,2024-11-11,2024-10-23,株式会社ブルーキャンパス,,株式会社,東京都,港区,南青山２丁目２番１５号ｗｉｎ青山ビルＵＣＦ９１７,,13,103,1070062,,,2024-10-23,清算の結了等,,,2016-04-08,1,,,,,ブルーキャンパス,0
1898,7010401183196,登記記録の閉鎖等,0,2024-11-11,2024-10-25,株式会社国土開発機構,,株式会社,東京都,港区,虎ノ門５丁目１１番１５号,,13,103,1050001,,,2024-10-25,清算の結了等,,,2024-06-20,1,,,,,コクドカイハツキコウ,0
1909,7010405016641,登記記録の閉鎖等,0,2024-11-11,2024-10-28,一般社団法人自然栽培協会,,その他の設立登記法人,東京都,港区,海岸２丁目６番３１号,,13,103,1050022,,,2024-10-28,清算の結了等,,,2018-04-18,1,,,,,シゼンサイバイキョウカイ,0
1914,7010502022690,登記記録の閉鎖等,0,2024-11-11,2024-11-01,有限会社テイク・サン,,有限会社,東京都,台東区,西浅草３丁目６番１号,,13,106,1110035,,,2024-11-01,清算の結了等,,,2015-10-05,1,,,,,テイクサン,0
1916,7010601048637,登記記録の閉鎖等,0,2024-11-11,2024-11-07,株式会社薩摩路,,株式会社,東京都,墨田区,押上２丁目１番１－１１０号,,13,107,1310045,,,2024-11-07,清算の結了等,,,2015-10-23,1,,,,,サツマジ,0
1934,7011001129358,登記記録の閉鎖等,0,2024-11-11,2024-10-23,株式会社シンセプション,,株式会社,東京都,港区,北青山３丁目９番２号,,13,103,1070061,,,2024-10-23,清算の結了等,,,2019-08-06,1,,,,,シンセプション,0
1955,7011303002205,登記記録の閉鎖等,0,2024-11-11,2024-11-07,合同会社武藤建物,,合同会社,東京都,杉並区,和田１丁目５０番２４号,,13,115,1660012,,,2024-11-07,合併による解散等,2040003010172,令和６年１１月１日千葉県東金市田間２０１９番地１合同会社武藤エステート（2040003010172）に合併し解散,2015-10-05,1,,,,,ムトウタテモノ,0
1959,7011403003185,登記記録の閉鎖等,0,2024-11-11,2024-11-01,Ｂｅｉｍ合同会社,,合同会社,東京都,板橋区,板橋２丁目３５番１２号タウンコート３０１,,13,119,1730004,,,2024-11-01,清算の結了等,,,2020-12-04,1,,,,,ベイム,0
1977,7020001057650,登記記録の閉鎖等,0,2024-11-11,2024-10-18,株式会社ＷＡＤＯＷ,,株式会社,神奈川県,横浜市戸塚区,吉田町１２０６番地６,,14,110,2440817,,,2024-10-18,清算の結了等,,,2015-10-05,1,,,,,ワドウ,0
1978,7020001117272,登記記録の閉鎖等,0,2024-11-11,2024-11-05,ＪＩＤ株式会社,,株式会社,神奈川県,横浜市神奈川区,反町４丁目３７番３号,,14,102,2210825,,,2024-11-05,合併による解散等,2040001060970,令和６年１０月３１日千葉県木更津市羽鳥野六丁目２１番地４日本賃貸保証株式会社（2040001060970）に合併し解散,2016-08-04,1,,,,,ジェイアイディ,0
1985,7020002030805,登記記録の閉鎖等,0,2024-11-11,2024-10-23,有限会社当木建設,,有限会社,神奈川県,横浜市保土ケ谷区,狩場町３０２番地２１,,14,106,2400025,,,2024-10-23,清算の結了等,,,2015-10-05,1,,,,,トウギケンセツ,0
2008,7040002043771,登記記録の閉鎖等,0,2024-11-11,2024-11-05,有限会社オールイントレード,,有限会社,千葉県,市川市,新田５丁目１７番１２号,,12,203,2720035,,,2024-11-05,清算の結了等,,,2015-10-05,1,,,,,オールイントレード,0
2027,7120001140842,登記記録の閉鎖等,0,2024-11-11,2024-11-07,株式会社エナジー,,株式会社,大阪府,大阪市中央区,農人橋２丁目１番６号,,27,128,5400011,,,2024-11-07,清算の結了等,,,2015-10-05,1,,,,,エナジー,0
2041,7120101022619,登記記録の閉鎖等,0,2024-11-11,2024-11-06,株式会社ものづくり経営研究所,,株式会社,大阪府,豊中市,西泉丘３丁目４番１号７０１,,27,203,5610862,,,2024-11-06,清算の結了等,,,2015-10-05,1,,,,,モノヅクリケイエイケンキュウショ,0
2044,7120901014336,登記記録の閉鎖等,0,2024-11-11,2024-11-06,株式会社イノウエ,,株式会社,大阪府,吹田市,広芝町９番１２号第１１マイダビル２０２号,,27,205,5640052,,,2024-11-06,清算の結了等,,,2015-10-05,1,,,,,イノウエ,0
2047,7120901049729,登記記録の閉鎖等,0,2024-11-11,2024-11-01,株式会社イースリーコンサルティング,,株式会社,大阪府,吹田市,千里山星が丘１３番１－６１０号,,27,205,5650845,,,2024-11-01,合併による解散等,7120901034433,令和６年１１月１日大阪府高槻市高槻町１４番１３号株式会社イースリーコンサルティング（7120901034433）に合併し解散,2024-09-06,1,,,,,イースリーコンサルティング,0
2053,7130001054439,登記記録の閉鎖等,0,2024-11-11,2024-11-05,ＮＧＰ－ＳＥＲＳ株式会社,,株式会社,京都府,長岡京市,城の里１０番地９,,26,209,6170835,,,2024-11-05,清算の結了等,,,2015-10-05,1,,,,,エヌジーピーセアーズ,0
2065,7140002009713,登記記録の閉鎖等,0,2024-11-11,2024-11-05,有限会社エンドウ,,有限会社,兵庫県,神戸市北区,小倉台２丁目２番地の５,,28,109,6511211,,,2024-11-05,清算の結了等,,,2015-10-05,1,,,,,エンドウ,0
2069,7140005020205,登記記録の閉鎖等,0,2024-11-11,2024-11-08,特定非営利活動法人リンクデザイン,,その他の設立登記法人,兵庫県,神戸市東灘区,魚崎南町３丁目１８番３号,,28,101,6580025,,,2024-11-08,清算の結了等,,,2015-10-05,1,,,,,リンクデザイン,0
2080,7180001119393,登記記録の閉鎖等,0,2024-11-11,2024-10-30,株式会社ＡＧＥＮＤＡ,,株式会社,愛知県,名古屋市東区,泉２丁目２１番３号,,23,102,4610001,,,2024-10-30,清算の結了等,,,2015-10-05,1,,,,,アジェンダ,0
2082,7180001149894,登記記録の閉鎖等,0,2024-11-11,2024-10-30,ＲＥＥＡＲＴＨ　ＩＮＦＩＮＩＴＹ株式会社,,株式会社,愛知県,春日井市,八光町４丁目９１番地１,,23,206,4860916,,,2024-10-30,清算の結了等,,,2022-02-08,1,,,,,リアースインフィニティ,0
2097,7210001010433,登記記録の閉鎖等,0,2024-11-11,2024-11-07,株式会社ＦＡＩＲＹ　ＢＡＬＬＥＴ,,株式会社,福井県,福井市,二の宮４丁目１８番６号,,18,201,9100015,,,2024-11-07,清算の結了等,,,2015-10-05,1,,,,,フェアリーバレエ,0
2099,7230002005587,登記記録の閉鎖等,0,2024-11-11,2024-11-06,有限会社ケー・アイ・オフィス,,有限会社,富山県,富山市,呉羽町６５２９番地２,,16,201,9300138,,,2024-11-06,清算の結了等,,,2015-10-05,1,,,,,ケーアイオフィス,0
2102,7240001038422,登記記録の閉鎖等,0,2024-11-11,2024-11-01,株式会社橋本組,,株式会社,広島県,尾道市,因島土生町３３２番地,,34,205,7222323,,,2024-11-01,清算の結了等,,,2015-10-05,1,,,,,ハシモトグミ,0
2110,7260001039435,登記記録の閉鎖等,0,2024-11-11,2024-10-23,内外インテリア株式会社,,株式会社,岡山県,岡山市北区,大内田７１５番地の１,,33,101,7010165,,,2024-10-23,清算の結了等,,,2024-09-25,1,,,,,,0
2112,7270002007282,登記記録の閉鎖等,0,2024-11-11,2024-11-05,有限会社山本整備,,有限会社,鳥取県,米子市,新開６丁目１５番１０号,,31,202,6830801,,,2024-11-05,清算の結了等,,,2015-10-05,1,,,,,ヤマモトセイビ,0
2128,7290801010600,登記記録の閉鎖等,0,2024-11-11,2024-10-25,株式会社花口商店,,株式会社,福岡県,北九州市八幡西区,折尾３丁目８番３１号,,40,109,8070825,,,2024-10-25,清算の結了等,,,2015-10-05,1,,,,,ハナグチショウテン,0
2144,7370001022289,登記記録の閉鎖等,0,2024-11-11,2024-10-31,株式会社荒工業,,株式会社,宮城県,仙台市宮城野区,自由ケ丘８番２５号,,04,102,9830831,,,2024-10-31,清算の結了等,,,2015-10-05,1,,,,,アラコウギョウ,0
2151,7380001004682,登記記録の閉鎖等,0,2024-11-11,2024-10-01,株式会社エヌケー製作所,,株式会社,福島県,郡山市,喜久田町堀之内字地田東１７番地の２,,07,203,9630541,,,2024-10-01,合併による解散等,4380001006062,令和６年１０月１日福島県郡山市鶴見坦一丁目１４番５号株式会社内藤工業所（4380001006062）に合併し解散,2015-10-05,1,,,,,エヌケーセイサクショ,0
2176,7430001078449,登記記録の閉鎖等,0,2024-11-11,2024-11-01,株式会社一寸房コンサル,,株式会社,北海道,札幌市中央区,南七条西１丁目１３番地７３,,01,101,0640807,,,2024-11-01,合併による解散等,5430001038256,令和６年１１月１日札幌市中央区北二条西二丁目４１番地株式会社一寸房（5430001038256）に合併し解散,2019-03-05,1,,,,,イッスンボウコンサル,0
2184,7460101004657,登記記録の閉鎖等,0,2024-11-11,2024-11-06,株式会社ハートネット,,株式会社,北海道,帯広市,西二十三条南３丁目２９番地１,,01,207,0802473,,,2024-11-06,清算の結了等,,,2015-10-05,1,,,,,ハートネット,0
2191,7500001019123,登記記録の閉鎖等,0,2024-11-11,2024-11-06,株式会社立花工業,,株式会社,愛媛県,今治市,蔵敷町１丁目４番地１０,,38,202,7940044,,,2024-11-06,清算の結了等,,,2015-10-05,1,,,,,タチバナコウギョウ,0
2241,8010403021907,登記記録の閉鎖等,0,2024-11-11,2024-11-05,６ＩＸＴＹ８ＩＧＨＴ　Ｊａｐａｎ合同会社,,合同会社,栃木県,栃木市,吹上町６９１番地１,,09,203,3280125,,,2024-11-05,清算の結了等,,,2019-11-28,1,,,,,シックスティーエイトジャパン,0
2282,8011101089600,登記記録の閉鎖等,0,2024-11-11,2024-10-31,株式会社Ｓｕｎ　ｐｒｏｊｅｃｔ,,株式会社,東京都,新宿区,新宿３丁目２番２号新宿紺野ビル７階,,13,104,1600022,,,2024-10-31,合併による解散等,5011101072096,令和６年１０月３１日東京都新宿区新宿三丁目２番２号新宿紺野ビル７階株式会社Ａｎ　ｐｒｏｊｅｃｔ（5011101072096）に合併し解散,2019-11-19,1,,,,,サンプロジェクト,0
2300,8012302003457,登記記録の閉鎖等,0,2024-11-11,2024-10-31,有限会社東亜観光,,有限会社,東京都,町田市,原町田１丁目１８番１５号,,13,209,1940013,,,2024-10-31,清算の結了等,,,2015-10-05,1,,,,,トウアカンコウ,0
2323,8021003001249,登記記録の閉鎖等,0,2024-11-11,2024-11-07,合資会社四方田質店,,合資会社,神奈川県,相模原市中央区,淵野辺４丁目３８番６号,,14,152,2520206,,,2024-11-07,清算の結了等,,,2015-10-05,1,,,,,ヨモダシチテン,0
2325,8030001061824,登記記録の閉鎖等,0,2024-11-11,2024-11-07,成田株式会社,,株式会社,埼玉県,北本市,深井６丁目１３５番地１０,,11,233,3640001,,,2024-11-07,清算の結了等,,,2015-10-05,1,,,,,ナリタ,0
2326,8030001102628,登記記録の閉鎖等,0,2024-11-11,2024-11-01,株式会社古川企画,,株式会社,埼玉県,川口市,大字東本郷８７１番地２５,,11,203,3340063,,,2024-11-01,合併による解散等,6030001098513,令和６年１１月１日埼玉県川口市大字東本郷８７１番地２５株式会社エフ・ケー商事（6030001098513）に合併し解散,2015-10-05,1,,,,,フルカワキカク,0
2336,8030003022444,登記記録の閉鎖等,0,2024-11-11,2024-11-05,合同会社サキア,,合同会社,埼玉県,川口市,西川口１丁目２０番１５号西川口ハイツ２０３,,11,203,3320021,,,2024-11-05,清算の結了等,,,2023-09-08,1,,,,,サキア,0
2337,8040001050280,登記記録の閉鎖等,0,2024-11-11,2024-11-05,株式会社ワイズ,,株式会社,千葉県,市川市,新田５丁目１０番１５号,,12,203,2720035,,,2024-11-05,清算の結了等,,,2015-10-05,1,,,,,ワイズ,0
2344,8040001112551,登記記録の閉鎖等,0,2024-11-11,2024-11-05,株式会社泰寛,,株式会社,千葉県,船橋市,本中山４丁目１１番３－５０６号,,12,204,2730035,,,2024-11-05,清算の結了等,,,2020-02-18,1,,,,,タイカン,0
2347,8040001129307,登記記録の閉鎖等,0,2024-11-11,2024-11-01,株式会社Ｃｏｌａ　Ｐｕｅｎｔｅ,,株式会社,千葉県,野田市,中根１６０番地の２,,12,208,2780031,,,2024-11-01,合併による解散等,1220002009909,令和６年１１月１日千葉県野田市中根１６０番地の２株式会社ファーストロジ（1220002009909）に合併し解散,2023-07-21,1,,,,,コラプエンテ,0
2350,8050001002603,登記記録の閉鎖等,0,2024-11-11,2024-11-01,株式会社見澤製作所,,株式会社,茨城県,水戸市,水府町１５０６番地,,08,201,3100005,,,2024-11-01,清算の結了等,,,2015-10-05,1,,,,,ミサワセイサクショ,0
2355,8050003000019,登記記録の閉鎖等,0,2024-11-11,2024-10-31,合資会社大谷事務所,,合資会社,茨城県,水戸市,新荘２丁目１５番２１号,,08,201,3100036,,,2024-10-31,清算の結了等,,,2015-10-05,1,,,,,オオタニジムショ,0
2359,8080002012722,登記記録の閉鎖等,0,2024-11-11,2024-11-05,有限会社シーエムエイチ,,有限会社,静岡県,静岡市駿河区,森下町１番４１号,,22,102,4228061,,,2024-11-05,清算の結了等,,,2015-10-05,1,,,,,シーエムエイチ,0
2360,8080102020063,登記記録の閉鎖等,0,2024-11-11,2024-11-05,有限会社高橋商会,,有限会社,静岡県,伊東市,荻５７６番地の７,,22,208,4140053,,,2024-11-05,清算の結了等,,,2015-10-05,1,,,,,タカハシショウカイ,0
2368,8100002002621,登記記録の閉鎖等,0,2024-11-11,2024-11-01,有限会社諏訪盛保険事務所,,有限会社,長野県,長野市,新諏訪１丁目３番１９号,,20,201,3800873,,,2024-11-01,清算の結了等,,,2015-10-05,1,,,,,スワモリホケンジムショ,0
2389,8130001006736,登記記録の閉鎖等,0,2024-11-11,2024-11-07,株式会社大都管材社,,株式会社,京都府,京都市左京区,一乗寺築田町１番地,,26,103,6068175,,,2024-11-07,清算の結了等,,,2015-10-05,1,,,,,ダイトカンザイシャ,0
2395,8140001001249,登記記録の閉鎖等,0,2024-11-11,2024-10-04,関西アライドコーヒーロースターズ株式会社,,株式会社,兵庫県,神戸市東灘区,深江浜町１２番３,,28,101,6580023,,,2024-10-04,合併による解散等,6010801007716,令和６年１０月１日東京都大田区仲池上二丁目２３番２１号アライドコーヒーロースターズ株式会社（6010801007716）に合併し解散,2015-10-05,1,,,,,カンサイアライドコーヒーロースターズ,0
2397,8140001028952,登記記録の閉鎖等,0,2024-11-11,2024-11-01,株式会社大興,,株式会社,兵庫県,神戸市中央区,明石町３２番地,,28,110,6500037,,,2024-11-01,合併による解散等,1140001022763,令和６年１１月１日神戸市中央区明石町３２番地株式会社垂水センター（1140001022763）に合併し解散,2015-10-05,1,,,,,ダイコウ,0
2405,8150001002436,登記記録の閉鎖等,0,2024-11-11,2024-11-05,森本産業株式会社,,株式会社,奈良県,奈良市,藤ノ木台２丁目２８番１号,,29,201,6310044,,,2024-11-05,清算の結了等,,,2015-10-05,1,,,,,モリモトサンギョウ,0
2406,8150001013458,登記記録の閉鎖等,0,2024-11-11,2024-11-05,株式会社ＥＭニシガキ,,株式会社,奈良県,大和高田市,大字野口６９８番地３,,29,202,6350075,,,2024-11-05,清算の結了等,,,2015-10-05,1,,,,,イーエムニシガキ,0
2407,8150001016213,登記記録の閉鎖等,0,2024-11-11,2024-11-06,株式会社飛鳥マテリアルズ,,株式会社,奈良県,吉野郡上北山村,大字河合３７７番地の１,,29,451,6393701,,,2024-11-06,清算の結了等,,,2015-10-05,1,,,,,アスカマテリアルズ,0
2414,8180001153227,登記記録の閉鎖等,0,2024-11-11,2024-11-01,株式会社ＯＭＳ,,株式会社,愛知県,名古屋市中川区,服部１丁目３０７番地,,23,110,4540976,,,2024-11-01,合併による解散等,5180001139237,令和６年１１月１日名古屋市中川区服部一丁目３０６番地株式会社ＴＭＳ（5180001139237）に合併し解散,2022-10-03,1,,,,,オーエムエス,0
2429,8190001003356,登記記録の閉鎖等,0,2024-11-11,2024-10-31,株式会社亀山魚青物市場,,株式会社,三重県,亀山市,東台町１番３号,,24,210,5190122,,,2024-10-31,清算の結了等,,,2015-10-05,1,,,,,カメヤマウオアオモノイチバ,0
2437,8210002014275,登記記録の閉鎖等,0,2024-11-11,2024-11-06,有限会社日爽,,有限会社,福井県,小浜市,飯盛第６１号８番地,,18,204,9170044,,,2024-11-06,清算の結了等,,,2015-10-05,1,,,,,ニッソウ,0
2438,8230002008317,登記記録の閉鎖等,0,2024-11-11,2024-11-06,有限会社新登,,有限会社,富山県,下新川郡入善町,新屋３９番地,,16,342,9390637,,,2024-11-06,清算の結了等,,,2015-10-05,1,,,,,シント,0
2440,8240001038512,登記記録の閉鎖等,0,2024-11-11,2024-11-05,平成フーズ株式会社,,株式会社,広島県,尾道市,東尾道５番地３,,34,205,7220051,,,2024-11-05,合併による解散等,7240005010609,令和６年１０月３１日広島県尾道市東尾道５番地３広島県東部食糧株式会社（7240005010609）に合併し解散,2015-10-05,1,,,,,ヘイセイフーズ,0
2449,8250002012861,登記記録の閉鎖等,0,2024-11-11,2024-11-05,有限会社いきいき介護支援,,有限会社,山口県,下関市,一の宮町１丁目２番３－７０２号,,35,201,7510806,,,2024-11-05,清算の結了等,,,2015-10-05,1,,,,,イキイキカイゴシエン,0
2460,8290002017816,登記記録の閉鎖等,0,2024-11-11,2024-09-30,有限会社みよし研究所,,有限会社,福岡県,福岡市博多区,下川端町１０番１２号,,40,132,8120027,,,2024-09-30,清算の結了等,,,2015-10-05,1,,,,,ミヨシケンキュウショ,0
2470,8330001016822,登記記録の閉鎖等,0,2024-11-11,2024-11-05,株式会社ロジック,,株式会社,熊本県,熊本市中央区,水道町２番７－３０１号,,43,101,8600844,,,2024-11-05,清算の結了等,,,2015-10-05,1,,,,,ロジック,0
2474,8340001001988,登記記録の閉鎖等,0,2024-11-11,2024-11-01,株式会社三州機工商会,,株式会社,鹿児島県,鹿児島市,錦江町７番２号,,46,201,8920836,,,2024-11-01,合併による解散等,1010001036925,令和６年１０月２１日東京都中央区八丁堀四丁目５番８号イシグロ株式会社（1010001036925）に合併し解散,2015-10-05,1,,,,,サンシュウキコウショウカイ,0
2492,8410002006244,登記記録の閉鎖等,0,2024-11-11,2024-11-05,有限会社電研工業所,,有限会社,秋田県,男鹿市,船川港比詰字大巻１００番地１２,,05,206,0100502,,,2024-11-05,清算の結了等,,,2015-10-05,1,,,,,デンケンコウギョウショ,0
2494,8420001013315,登記記録の閉鎖等,0,2024-11-11,2024-11-07,株式会社セブンハウス,,株式会社,青森県,むつ市,大畑町正津川平２１７番地,,02,208,0394402,,,2024-11-07,清算の結了等,,,2015-10-05,1,,,,,セブンハウス,0
2504,8430002039655,登記記録の閉鎖等,0,2024-11-11,2024-11-05,有限会社杢装,,有限会社,北海道,札幌市手稲区,前田八条１４丁目４番１０号,,01,109,0060818,,,2024-11-05,清算の結了等,,,2015-10-05,1,,,,,,0
2517,8700150118092,登記記録の閉鎖等,0,2024-11-11,2024-06-07,ＲＥＰＲＡＰＰＥＲ　ＴＥＣＨ　ＣＯ．，ＬＩＭＩＴＥＤ,,外国会社等,,,,,,,,ＨｏｎｇＫｏｎｇ　ＦＬＡＴ／ＲＭ　８０３　ＣＨＥＶＡＬＩＥＲ　ＨＯＵＳＥ　４５－５１　ＣＨＡＴＨＡＭ　ＲＯＡＤ　ＳＯＵＴＨ　ＴＳＩＭ　ＳＨＡ　ＴＳＵＩ　ＫＬ　ＣＮ,,2024-06-07,その他の清算の結了等,,,2023-07-03,1,,,,,エイフカギユウゲンコウシ,0
2518,9010001120151,登記記録の閉鎖等,0,2024-11-11,2024-10-28,株式会社森林土木施設研究所,,株式会社,東京都,文京区,後楽１丁目７番１２号,,13,105,1120004,,,2024-10-28,清算の結了等,,,2015-10-05,1,,,,,シンリンドボクシセツケンキュウジョ,0
2526,9010003027675,登記記録の閉鎖等,0,2024-11-11,2024-10-25,クラッチ・コンサルティング合同会社,,合同会社,東京都,立川市,一番町１丁目１４番地の１ハイホーム立川一番町３０８号,,13,202,1900033,,,2024-10-25,清算の結了等,,,2018-06-06,1,,,,,クラッチコンサルティング,0
2528,9010003036032,登記記録の閉鎖等,0,2024-11-11,2024-11-08,合同会社コラボローン西瀬戸３,,合同会社,東京都,千代田区,丸の内３丁目１番１号東京共同会計事務所内,,13,101,1000005,,,2024-11-08,清算の結了等,,,2021-10-12,1,,,,,コラボローンニシセトスリー,0
2559,9010401147505,登記記録の閉鎖等,0,2024-11-11,2024-10-23,株式会社Ｎｍｗ,,株式会社,東京都,港区,南青山５丁目１３番４号Ｎビル１Ｆ,,13,103,1070062,,,2024-10-23,清算の結了等,,,2019-08-20,1,,,,,エヌエムダブリュー,0
2571,9010403024537,登記記録の閉鎖等,0,2024-11-11,2024-10-28,合同会社ＳＡ　ＰＲＯＰＥＲＴＹ４,,合同会社,東京都,港区,虎ノ門５丁目１番４号,,13,103,1050001,,,2024-10-28,清算の結了等,,,2021-01-22,1,,,,,エスエープロパティフォー,0
2580,9010601043974,登記記録の閉鎖等,0,2024-11-11,2024-11-05,株式会社グリーンナビ,,株式会社,東京都,墨田区,業平２丁目１４番９－２０６号,,13,107,1300002,,,2024-11-05,清算の結了等,,,2015-10-05,1,,,,,,0
2588,9010801028370,登記記録の閉鎖等,0,2024-11-11,2024-11-05,株式会社リスタ・プロダクツ,,株式会社,東京都,大田区,千鳥２丁目４０番１５号,,13,111,1460083,,,2024-11-05,清算の結了等,,,2017-12-07,1,,,,,リスタプロダクツ,0
2614,9011701009766,登記記録の閉鎖等,0,2024-11-11,2024-11-05,株式会社トーヨーアドバンス,,株式会社,東京都,江戸川区,船堀５丁目１番９号,,13,123,1340091,,,2024-11-05,清算の結了等,,,2015-10-05,1,,,,,トーヨーアドバンス,0
2615,9011702003594,登記記録の閉鎖等,0,2024-11-11,2024-11-05,有限会社グリーン企画,,有限会社,東京都,江戸川区,松島３丁目３６番５号,,13,123,1320031,,,2024-11-05,清算の結了等,,,2015-10-05,1,,,,,,0
2642,9020001127559,登記記録の閉鎖等,0,2024-11-11,2024-11-05,株式会社リライズ,,株式会社,大阪府,東大阪市,衣摺６丁目１番４５号,,27,227,5770827,,,2024-11-05,清算の結了等,,,2018-08-14,1,,,,,リライズ,0
2658,9021002022492,登記記録の閉鎖等,0,2024-11-11,2024-11-08,有限会社デンケン,,有限会社,神奈川県,相模原市中央区,淵野辺１丁目１番３号,,14,152,2520206,,,2024-11-08,清算の結了等,,,2015-10-05,1,,,,,デンケン,0
2675,9050001025974,登記記録の閉鎖等,0,2024-11-11,2024-11-01,株式会社エムシーアイ,,株式会社,茨城県,龍ケ崎市,佐貫町３７１６番地,,08,208,3010033,,,2024-11-01,清算の結了等,,,2015-10-05,1,,,,,エムシーアイ,0
2678,9050003007764,登記記録の閉鎖等,0,2024-11-11,2024-10-18,合同会社かりもす,,合同会社,茨城県,つくば市,東平塚１２５３番地４,,08,220,3050812,,,2024-10-18,清算の結了等,,,2023-08-31,1,,,,,カリモス,0
2683,9080101009916,登記記録の閉鎖等,0,2024-11-11,2024-11-05,株式会社友愛商会,,株式会社,静岡県,富士市,吉原２丁目１１番１５号,,22,210,4170051,,,2024-11-05,清算の結了等,,,2015-10-05,1,,,,,,0
2685,9080102011482,登記記録の閉鎖等,0,2024-11-11,2024-11-06,有限会社フジ工業,,有限会社,静岡県,三島市,谷田夏梅木７２４番地の１,,22,206,4110801,,,2024-11-06,清算の結了等,,,2015-10-05,1,,,,,フジコウギョウ,0
2686,9080102017802,登記記録の閉鎖等,0,2024-11-11,2024-11-06,有限会社静岡の森,,有限会社,静岡県,富士宮市,粟倉２１９９番地の１,,22,207,4180011,,,2024-11-06,清算の結了等,,,2015-10-05,1,,,,,シズオカノモリ,0
2698,9110001022610,登記記録の閉鎖等,0,2024-11-11,2024-11-01,株式会社東京島津,,株式会社,新潟県,長岡市,南陽２丁目９４９番地３,,15,202,9401164,,,2024-11-01,合併による解散等,3110001014191,令和６年１１月１日新潟県三条市塚野目２１５３番地５株式会社ＳＡＮＫＡ（3110001014191）に合併し解散,2015-10-05,1,,,,,トウキョウシマヅ,0
2727,9140001050253,登記記録の閉鎖等,0,2024-11-11,2024-11-06,トナイ産業株式会社,,株式会社,兵庫県,尼崎市,東園田町４丁目２６番地の９,,28,202,6610953,,,2024-11-06,清算の結了等,,,2015-10-05,1,,,,,トナイサンギョウ,0
2734,9150002009017,登記記録の閉鎖等,0,2024-11-11,2024-11-07,有限会社昌和工業,,有限会社,奈良県,奈良市,学園中５丁目５５５番地エステムコート学園前６０１号,,29,201,6310035,,,2024-11-07,清算の結了等,,,2015-10-05,1,,,,,ショウワコウギョウ,0
2750,9190002020944,登記記録の閉鎖等,0,2024-11-11,2024-11-06,有限会社タチ電工社,,有限会社,三重県,四日市市,朝明町２４９０番地の４３,,24,202,5128054,,,2024-11-06,清算の結了等,,,2015-10-05,1,,,,,タチデンコウシャ,0
2751,9190002023708,登記記録の閉鎖等,0,2024-11-11,2024-11-06,北住石油有限会社,,有限会社,三重県,三重郡菰野町,大字潤田６５０番地の２,,24,341,5101253,,,2024-11-06,清算の結了等,,,2015-10-05,1,,,,,キタズミセキユ,0
2760,9250005008559,登記記録の閉鎖等,0,2024-11-11,2024-10-24,Ｇ　ｗｏｒｋｅｒｓ　ｎｅｔ協同組合,,その他の設立登記法人,山口県,下松市,大字末武中１０３５番地,,35,207,7440023,,,2024-10-24,清算の結了等,,,2020-03-27,1,,,,,ジーワーカーズネット,0
2762,9260005002791,登記記録の閉鎖等,0,2024-11-11,2024-11-08,医療法人高取内科医院,,その他の設立登記法人,岡山県,岡山市南区,西紅陽台３丁目１番地の１４３瀬戸内ビル２階,,33,104,7091203,,,2024-11-08,清算の結了等,,,2015-10-05,1,,,,,タカトリナイカイイン,0
2764,9290001036469,登記記録の閉鎖等,0,2024-11-11,2024-10-07,大坪建設株式会社,,株式会社,福岡県,福津市,高平１２番地４,,40,224,8113227,,,2024-10-07,清算の結了等,,,2015-10-05,1,,,,,オオツボケンセツ,0
2769,9290801013972,登記記録の閉鎖等,0,2024-11-11,2024-10-25,株式会社尾田運輸,,株式会社,福岡県,北九州市小倉南区,中貫１丁目８番５号,,40,107,8000237,,,2024-10-25,清算の結了等,,,2015-10-05,1,,,,,,0
2770,9290801016141,登記記録の閉鎖等,0,2024-11-11,2024-10-25,株式会社ライズ,,株式会社,福岡県,北九州市小倉南区,徳力６丁目１５番１６号,,40,107,8020974,,,2024-10-25,清算の結了等,,,2015-10-05,1,,,,,ライズ,0
2772,9290801017321,登記記録の閉鎖等,0,2024-11-11,2024-11-07,株式会社エマソンエイト,,株式会社,福岡県,北九州市八幡西区,相生町１７番１６－２０１号,,40,109,8060044,,,2024-11-07,清算の結了等,,,2015-10-05,1,,,,,エマソンエイト,0
2781,9340002019095,登記記録の閉鎖等,0,2024-11-11,2024-11-01,有限会社山下建築設計事務所,,有限会社,鹿児島県,指宿市,開聞十町２５１９番地１２,,46,210,8910603,,,2024-11-01,清算の結了等,,,2015-10-05,1,,,,,ヤマシタケンチクセッケイジムショ,0
2806,9430001000402,登記記録の閉鎖等,0,2024-11-11,2024-11-01,株式会社アクティブ札幌,,株式会社,北海道,札幌市中央区,南六条西２０丁目１番１６号,,01,101,0640806,,,2024-11-01,合併による解散等,5430001019306,令和６年１１月１日札幌市中央区南六条西二十丁目１番１６号三城美装株式会社（5430001019306）に合併し解散,2015-10-05,1,,,,,アクティブサッポロ,0
2808,9430001061907,登記記録の閉鎖等,0,2024-11-11,2024-11-01,株式会社池田商会,,株式会社,北海道,札幌市東区,北二十六条東７丁目３番３号,,01,103,0650026,,,2024-11-01,清算の結了等,,,2015-10-05,1,,,,,イケダショウカイ,0
2810,9430001092134,登記記録の閉鎖等,0,2024-11-11,2024-11-01,ナヴィ株式会社,,株式会社,北海道,札幌市中央区,南二十一条西７丁目２－１９クリーンリバーフィネス山鼻１５０５号,,01,101,0640921,,,2024-11-01,清算の結了等,,,2024-07-01,1,,,,,ナヴィ,0
2815,9500002017974,登記記録の閉鎖等,0,2024-11-11,2024-11-06,有限会社越智呉服店,,有限会社,愛媛県,今治市,共栄町４丁目４番地３,,38,202,7940024,,,2024-11-06,清算の結了等,,,2015-10-05,1,,,,,オチゴフクテン,0
