sequenceNumber,corporateNumber,process,correct,updateDate,changeDate,name,nameImageId,kind,prefectureName,cityName,streetNumber,addressImageId,prefectureCode,cityCode,postCode,addressOutside,addressOutsideImageId,closeDate,closeCause,successorCorporateNumber,changeCause,assignmentDate,latest,enName,enPrefectureName,enCityName,enAddressOutside,furigana,hihyoji
8,1010001247472,新規,0,2024-08-26,2024-08-26,株式会社東洋グループホールディングス,,株式会社,東京都,中央区,日本橋浜町２丁目６０番１０号東洋エンジニアリング株式会社内,,13,102,1030007,,,,,,,2024-08-26,1,,,,,トウヨウグループホールディングス,0
9,1010001247704,新規,0,2024-08-26,2024-08-26,株式会社のり平,,株式会社,東京都,中央区,日本橋室町１丁目１１番１２号日本橋水野ビル７階,,13,102,1030022,,,,,,,2024-08-26,1,,,,,ノリヘイ,0
10,1010001247720,新規,0,2024-08-26,2024-08-26,日本蓄電池株式会社,,株式会社,東京都,中央区,京橋２丁目７番１４号ビュレックス京橋７０３港総合会計事務所内,,13,102,1040031,,,,,,,2024-08-26,1,,,,,ニホンチクデンチ,0
11,1010001247745,新規,0,2024-08-26,2024-08-26,株式会社モルガナイト,,株式会社,東京都,中央区,銀座１丁目２２番１１号銀座大竹ビジデンス２階,,13,102,1040061,,,,,,,2024-08-26,1,,,,,モルガナイト,0
12,1010001247828,新規,0,2024-08-26,2024-08-26,株式会社ＳＡアドバイザリー,,株式会社,東京都,中央区,銀座１丁目２２番１１号２Ｆ,,13,102,1040061,,,,,,,2024-08-26,1,,,,,エスエーアドバイザリー,0
24,1010705003667,新規,0,2024-08-26,2024-08-26,一般社団法人サステナブルキャリア支援協会,,その他の設立登記法人,東京都,品川区,大崎１丁目１１－２ゲートシティ大崎イーストタワー５階,,13,109,1410032,,,,,,,2024-08-26,1,,,,,サステナブルキャリアシエンキョウカイ,0
25,1010903009318,新規,0,2024-08-26,2024-08-26,合同会社Ｊ．Ｆ．Ｋ,,合同会社,東京都,世田谷区,新町２丁目２６番４号ルミエール２０２,,13,112,1540014,,,,,,,2024-08-26,1,,,,,ジェーエフケー,0
28,1011001164162,新規,0,2024-08-26,2024-08-26,株式会社ＤＥＮ‐ＮＯ　Ｓｏｌｕｔｉｏｎｓ,,株式会社,東京都,渋谷区,渋谷２丁目１９－１５宮益坂ビルディング６０９,,13,113,1500002,,,,,,,2024-08-26,1,,,,,デンノーソリューションズ,0
34,1011105011129,新規,0,2024-08-26,2024-08-26,一般社団法人お金と不動産・お悩み相談所,,その他の設立登記法人,東京都,新宿区,四谷２丁目１４番４号ミツヤ四谷ビル８０２号,,13,104,1600004,,,,,,,2024-08-26,1,,,,,オカネトフドウサンオナヤミソウダンショ,0
39,1011403004486,新規,0,2024-08-26,2024-08-26,合同会社ジェイルーム,,合同会社,東京都,板橋区,小茂根２丁目１２番１３号,,13,119,1730037,,,,,,,2024-08-26,1,,,,,ジェイルーム,0
42,1011501031077,新規,0,2024-08-26,2024-08-26,株式会社Ｇｒｅｅｎ　Ｇｅｎｅｒａｔｉｏｎ,,株式会社,東京都,荒川区,西日暮里６丁目５４番１１－３０２号第一三京ビル,,13,118,1160013,,,,,,,2024-08-26,1,,,,,グリーンジェネレーション,0
45,1011603004435,新規,0,2024-08-26,2024-08-26,合同会社楓組,,合同会社,東京都,練馬区,平和台３丁目１９番２０号,,13,120,1790083,,,,,,,2024-08-26,1,,,,,カエデグミ,0
46,1011703003948,新規,0,2024-08-26,2024-08-26,ＢＡＮＤＵ　ＭＯＴＯＲＳ合同会社,,合同会社,東京都,江戸川区,南小岩２丁目１２番１２号,,13,123,1330056,,,,,,,2024-08-26,1,,,,,バンドゥモーターズ,0
47,1012405005035,新規,0,2024-08-26,2024-08-26,医療法人社団明靖会,,その他の設立登記法人,東京都,府中市,本宿町１丁目４６番地の８西府駅エクセルポートビル１階,,13,206,1830032,,,,,,,2024-08-26,1,,,,,メイセイカイ,0
52,1013301053012,新規,0,2024-08-26,2024-08-26,Ｌｉｇｈｔｓ　Ａｎｄ　Ｓｏｕｎｄｓ株式会社,,株式会社,東京都,豊島区,池袋２丁目３９番１２号,,13,116,1710014,,,,,,,2024-08-26,1,,,,,ライツアンドサウンズ,0
53,1013301053029,新規,0,2024-08-26,2024-08-26,静丸株式会社,,株式会社,東京都,豊島区,東池袋１丁目３４番５号いちご東池袋ビル６階,,13,116,1700013,,,,,,,2024-08-26,1,,,,,シズマル,0
54,1013303007271,新規,0,2024-08-26,2024-08-26,ｍｉｍｏｓａ　ｗｏｒｋｓ合同会社,,合同会社,東京都,豊島区,巣鴨１丁目２番１号,,13,116,1700002,,,,,,,2024-08-26,1,,,,,ミモザワークス,0
61,1020001158702,新規,0,2024-08-26,2024-08-26,株式会社ツインビル,,株式会社,神奈川県,川崎市川崎区,大島５丁目１４番１４－８０１号ツインビル野田,,14,131,2100834,,,,,,,2024-08-26,1,,,,,ツインビル,0
62,1020001158710,新規,0,2024-08-26,2024-08-26,株式会社ＡＬＰＨＡ,,株式会社,神奈川県,横浜市都筑区,北山田４丁目２２番１５号,,14,118,2240021,,,,,,,2024-08-26,1,,,,,アルファ,0
63,1020001158719,新規,0,2024-08-26,2024-08-26,株式会社駒,,株式会社,神奈川県,横浜市中区,桜木町１丁目１０１番地１,,14,104,2310062,,,,,,,2024-08-26,1,,,,,コマ,0
64,1020003026691,新規,0,2024-08-26,2024-08-26,合同会社ＯＰＵＳ,,合同会社,神奈川県,横浜市西区,北幸２丁目１０番４８号むつみビル３階,,14,103,2200004,,,,,,,2024-08-26,1,,,,,オーパス,0
65,1020003026717,新規,0,2024-08-26,2024-08-26,合同会社ネイビーブルーフィールド,,合同会社,神奈川県,川崎市多摩区,生田１丁目２４－２５－１,,14,135,2140038,,,,,,,2024-08-26,1,,,,,ネイビーブルーフィールド,0
67,1021001083097,新規,0,2024-08-26,2024-08-26,ＫＨｉｌｌ　Ｒｅｆｉｎｅｓ株式会社,,株式会社,神奈川県,鎌倉市,山ノ内３０９－９,,14,204,2470062,,,,,,,2024-08-26,1,,,,,カーヒルリファイン,0
71,1030001162067,新規,0,2024-08-26,2024-08-26,株式会社黒川鉄工,,株式会社,埼玉県,比企郡吉見町,大字江和井字西谷１６４５番地１,,11,347,3550133,,,,,,,2024-08-26,1,,,,,クロカワテッコウ,0
72,1030001162083,新規,0,2024-08-26,2024-08-26,トウセイ株式会社,,株式会社,埼玉県,さいたま市中央区,上落合４丁目２番９号,,11,105,3380001,,,,,,,2024-08-26,1,,,,,トウセイ,0
73,1030001162117,新規,0,2024-08-26,2024-08-26,株式会社ＲＥＤＢＵＤ,,株式会社,埼玉県,さいたま市見沼区,大字大谷１９４１番地１０,,11,104,3370014,,,,,,,2024-08-26,1,,,,,レッドバッド,0
80,1030005021822,新規,0,2024-08-26,2024-08-26,ＮＰＯ法人おんたいむ,,その他の設立登記法人,埼玉県,さいたま市桜区,大字神田８５番１２号,,11,106,3380812,,,,,,,2024-08-26,1,,,,,オンタイム,0
85,1040001135088,新規,0,2024-08-26,2024-08-26,株式会社サンスター,,株式会社,千葉県,千葉市花見川区,検見川町３丁目３３３番地１８,,12,102,2620023,,,,,,,2024-08-26,1,,,,,サンスター,0
93,1050001055252,新規,0,2024-08-26,2024-08-26,株式会社Ｍ‐ＪＡＰＡＮ,,株式会社,茨城県,潮来市,潮来字内洲１０２番地２,,08,223,3112424,,,,,,,2024-08-26,1,,,,,エムジャパン,0
94,1050001055302,新規,0,2024-08-26,2024-08-26,株式会社ＹＫＮＢＢＱ,,株式会社,茨城県,鉾田市,当間２３７１番地９,,08,234,3111528,,,,,,,2024-08-26,1,,,,,ワイケーエヌビービーキュー,0
102,1070001042109,新規,0,2024-08-26,2024-08-26,ファミリアオート株式会社,,株式会社,群馬県,渋川市,半田２１８０番地３,,10,208,3770004,,,,,,,2024-08-26,1,,,,,ファミリアオート,0
110,1100002039380,新規,0,2024-08-26,2024-08-26,有限会社山崎林業,,有限会社,長野県,下高井郡山ノ内町,大字夜間瀬８３８０番地１,,20,561,3810405,,,,,,,2024-08-26,1,,,,,ヤマザキリンギョウ,0
111,1100003007741,新規,0,2024-08-26,2024-08-26,合同会社Ｒ’ｕｎａ,,合同会社,長野県,長野市,大字大豆島１８６９番地６,,20,201,3810022,,,,,,,2024-08-26,1,,,,,ルーナ,0
125,1120001267600,新規,0,2024-08-26,2024-08-26,株式会社ＤｅａｌＬｉｇｈｔ,,株式会社,大阪府,大阪市北区,梅田１丁目２番２号大阪駅前第２ビル１２－１２,,27,127,5300001,,,,,,,2024-08-26,1,,,,,ディールライト,0
126,1120001268020,新規,0,2024-08-26,2024-08-26,浩軒国際株式会社,,株式会社,大阪府,大阪市天王寺区,真田山町５番－３６－１０８室,,27,109,5430015,,,,,,,2024-08-26,1,,,,,コウケンコクサイ,0
127,1120005024510,新規,0,2024-08-26,2024-08-26,一般社団法人戦略的コミュニケーション力育成協会,,その他の設立登記法人,大阪府,大阪市北区,梅田２丁目５番１３号桜橋第一ビル３０４号,,27,127,5300001,,,,,,,2024-08-26,1,,,,,センリャクテキコミュニケーションリョクイクセイキョウカイ,0
129,1120101070193,新規,0,2024-08-26,2024-08-26,株式会社ＢＥＰＬＥＡ,,株式会社,大阪府,堺市北区,百舌鳥陵南町３丁１３８番地,,27,146,5918034,,,,,,,2024-08-26,1,,,,,ビープレア,0
138,1150005009616,新規,0,2024-08-26,2024-08-26,一般社団法人Ｈｕｍｍｉｎｇｂｉｒｄ,,その他の設立登記法人,奈良県,奈良市,法華寺町１番地の５奈良バイパスビル２階,,29,201,6308001,,,,,,,2024-08-26,1,,,,,ハミングバード,0
143,1180001162969,新規,0,2024-08-26,2024-08-26,徳仁株式会社,,株式会社,愛知県,名古屋市南区,泉楽通２丁目２０番地１,,23,112,4570852,,,,,,,2024-08-26,1,,,,,トクジン,0
144,1180001163001,新規,0,2024-08-26,2024-08-26,株式会社福興,,株式会社,愛知県,春日井市,美濃町３丁目５７番地ソレイユ１０３,,23,206,4860917,,,,,,,2024-08-26,1,,,,,フッコウ,0
168,1290001106923,新規,0,2024-08-26,2024-08-26,株式会社ＨＡＬＩ,,株式会社,福岡県,福岡市早良区,百道浜３丁目３番６－１３０４号,,40,137,8140001,,,,,,,2024-08-26,1,,,,,ハリ,0
169,1290001106931,新規,0,2024-08-26,2024-08-26,株式会社古賀商店,,株式会社,福岡県,小郡市,井上１３４０番地１,,40,216,8380114,,,,,,,2024-08-26,1,,,,,コガショウテン,0
170,1290001106948,新規,0,2024-08-26,2024-08-26,株式会社Ｓ‐Ｌａｂ,,株式会社,福岡県,古賀市,中央４丁目４番１３号,,40,223,8113103,,,,,,,2024-08-26,1,,,,,エースラボ,0
171,1290001106956,新規,0,2024-08-26,2024-08-26,株式会社クォーク,,株式会社,福岡県,糸島市,神在東３丁目１０番１３号,,40,230,8191120,,,,,,,2024-08-26,1,,,,,クォーク,0
172,1290001106964,新規,0,2024-08-26,2024-08-26,株式会社Ｊ．Ｎ．Ｐ,,株式会社,福岡県,柳川市,大和町中島１２９１番地,,40,207,8390254,,,,,,,2024-08-26,1,,,,,ジェイエヌピー,0
173,1290001106972,新規,0,2024-08-26,2024-08-26,株式会社ｒａｚｉ,,株式会社,福岡県,福岡市東区,箱崎４丁目３４番７号,,40,131,8120053,,,,,,,2024-08-26,1,,,,,ラジ,0
174,1290001107021,新規,0,2024-08-26,2024-08-26,株式会社８０号不動産会館,,株式会社,福岡県,福岡市博多区,上川端町３－６ザマーカーズビルディング０８０の８０３号室,,40,132,8120026,,,,,,,2024-08-26,1,,,,,フドウサンカイカン,0
178,1290003015701,新規,0,2024-08-26,2024-08-26,合同会社エスナリア,,合同会社,福岡県,福岡市南区,若久４丁目１３番２号,,40,134,8150042,,,,,,,2024-08-26,1,,,,,エスナリア,0
181,1290801030827,新規,0,2024-08-26,2024-08-26,株式会社オヒラキ塗装,,株式会社,福岡県,北九州市八幡西区,御開２丁目３番１２号,,40,109,8070806,,,,,,,2024-08-26,1,,,,,オヒラキトソウ,0
182,1290803004829,新規,0,2024-08-26,2024-08-26,Ｒｅｄａｒａｍ合同会社,,合同会社,福岡県,北九州市小倉南区,大字母原６３－４,,40,107,8030187,,,,,,,2024-08-26,1,,,,,リダラム,0
183,1300001013886,新規,0,2024-08-26,2024-08-26,株式会社百歳,,株式会社,佐賀県,唐津市,見借３４７５番地１,,41,202,8470825,,,,,,,2024-08-26,1,,,,,モモトセ,0
184,1310002013785,新規,0,2024-08-26,2024-08-26,有限会社大崎産業,,有限会社,長崎県,西海市,大島町１９０８番地,,42,212,8572427,,,,,,,2024-08-26,1,,,,,オオサキサンギョウ,0
193,1370001051673,新規,0,2024-08-26,2024-08-26,株式会社ＫＣＳ,,株式会社,宮城県,石巻市,不動町２丁目１２番７号,,04,202,9860017,,,,,,,2024-08-26,1,,,,,ケーシーエス,0
202,1430005015049,新規,0,2024-08-26,2024-08-26,一般社団法人地域創生研究所,,その他の設立登記法人,北海道,札幌市北区,北八条西６丁目２－６シャンボール札幌１０１,,01,102,0600808,,,,,,,2024-08-26,1,,,,,チイキソウセイケンキュウショ,0
203,1450001014390,新規,0,2024-08-26,2024-08-26,株式会社レボルト,,株式会社,北海道,旭川市,末広東二条２丁目５番１１号,,01,204,0718122,,,,,,,2024-08-26,1,,,,,レボルト,0
204,1450003002534,新規,0,2024-08-26,2024-08-26,合同会社もくもく,,合同会社,北海道,旭川市,九条通７丁目２４８３番地の９,,01,204,0700039,,,,,,,2024-08-26,1,,,,,モクモク,0
208,1500003003295,新規,0,2024-08-26,2024-08-26,合同会社ｏｐｅｎｉｎｇ　ｉｎｃ,,合同会社,愛媛県,四国中央市,中之庄町５７４－１,,38,213,7990422,,,,,,,2024-08-26,1,,,,,オープニングインク,0
209,1500003003312,新規,0,2024-08-26,2024-08-26,合同会社ｔｒｉｃｕｂｅ,,合同会社,愛媛県,松山市,萱町６丁目５６番地３ウエストヒル２１－３－Ｄ,,38,201,7900813,,,,,,,2024-08-26,1,,,,,トライキューブ,0
211,1700150126853,新規,0,2024-08-26,2024-08-26,ＳｈｅｎＺｈｅｎ　Ｆｕｘｉｎ　Ｔｅｃｈｎｏｌｏｇｙ　Ｃｏ．，ＬＴＤ,,外国会社等,,,,,,,,５１３－Ｃ，Ｂｌｏｃｋ　Ｒ２－Ｂ，Ｇａｏｘｉｎ　Ｉｎｄｕｓｔｒｉａｌ　Ｖｉｌｌａｇｅ，Ｎｏ．０２０，Ｓｏｕｔｈ　７ｔｈ　Ｇａｏｘｉｎ　Ｒｏａｄ，Ｇａｏｘｉｎ　Ｃｏｍｍｕｎｉｔｙ，Ｙｕｅｈａｉ　Ｓｔｒｅｅｔ，Ｎａｎｓｈａｎ　Ｄｉｓｔｒｉｃｔ，Ｓｈｅｎｚｈｅｎ　Ｃｈｉｎａ　５１８０６３,,,,,,2024-08-26,1,,,,,シンセンフシンテクノロジーカンパニーリミテッド,0
212,1700150126903,新規,0,2024-08-26,2024-08-26,ｙａｎｇｊｉａｎｇｓｈｉｑｉｅｙｕｅｄｉａｎｚｉｓｈａｎｇｗｕｙｏｕｘｉａｎｇｏｎｇｓｉ,,外国会社等,,,,,,,,ｙａｎｇｊｉａｎｇｓｈｉｊｉａｎｇｃｅｈｎｇｑｕｃｈａｏｐａｉｓｈａｎｋａｉｆａｑｕＢ４－４　ＣＮ,,,,,,2024-08-26,1,,,,,ヤンジャンシチェユエデンシショウムユウゲンコウシ,0
222,2010001247406,新規,0,2024-08-26,2024-08-26,株式会社メルティンＭＭＩ,,株式会社,東京都,中央区,日本橋兜町１７－２兜町第６葉山ビル４階,,13,102,1030026,,,,,,,2024-08-26,1,,,,,メルティンエムエムアイ,0
223,2010001247637,新規,0,2024-08-26,2024-08-26,株式会社ＪＩＮコンサルティング,,株式会社,東京都,中央区,日本橋茅場町２丁目５番６号,,13,102,1030025,,,,,,,2024-08-26,1,,,,,ジェイアイエヌコンサルティング,0
224,2010001247760,新規,0,2024-08-26,2024-08-26,本心株式会社,,株式会社,東京都,文京区,根津２丁目３７番８－２０５号,,13,105,1130031,,,,,,,2024-08-26,1,,,,,ホンシン,0
228,2010003044710,新規,0,2024-08-26,2024-08-26,合同会社ＭＹＣ,,合同会社,東京都,文京区,水道２丁目９－９－８０１,,13,105,1120005,,,,,,,2024-08-26,1,,,,,エムワイシー,0
238,2010403033296,新規,0,2024-08-26,2024-08-26,みつばち２０２合同会社,,合同会社,東京都,港区,浜松町２丁目２番１５号,,13,103,1050013,,,,,,,2024-08-26,1,,,,,ミツバチツーゼロツー,0
242,2010501052818,新規,0,2024-08-26,2024-08-26,株式会社いやさか,,株式会社,東京都,台東区,台東２丁目１３番１１－９０３号ＰＡＳＥＯ上野御徒町,,13,106,1100016,,,,,,,2024-08-26,1,,,,,イヤサカ,0
248,2010701046446,新規,0,2024-08-26,2024-08-26,ＴＹ投資株式会社,,株式会社,東京都,品川区,東五反田５丁目２２番３７号,,13,109,1410022,,,,,,,2024-08-26,1,,,,,ティーワイトウシ,0
255,2011001164178,新規,0,2024-08-26,2024-08-26,Ｂｒａｎｄｉｔ株式会社,,株式会社,東京都,渋谷区,神泉町９番５号,,13,113,1500045,,,,,,,2024-08-26,1,,,,,ブランディット,0
256,2011001164228,新規,0,2024-08-26,2024-08-26,株式会社ＴＪＫＨＤ,,株式会社,東京都,目黒区,自由が丘１丁目１３番６号,,13,110,1520035,,,,,,,2024-08-26,1,,,,,ティージェイケーエイチディー,0
258,2011003019850,新規,0,2024-08-26,2024-08-26,ダズルフュージョン合同会社,,合同会社,東京都,渋谷区,渋谷２丁目１９－１５宮益坂ビルディング６０９,,13,113,1500002,,,,,,,2024-08-26,1,,,,,ダズルフュージョン,0
259,2011003019883,新規,0,2024-08-26,2024-08-26,合同会社アズクリエイト,,合同会社,東京都,渋谷区,渋谷２丁目１９番１５号宮益坂ビルディング６０９,,13,113,1500002,,,,,,,2024-08-26,1,,,,,アズクリエイト,0
263,2011101108472,新規,0,2024-08-26,2024-08-26,株式会社Ｓｉｌｅｎｔ　ｄｒｅａｍ,,株式会社,東京都,新宿区,西新宿３丁目３番１３号西新宿水間ビル６Ｆ,,13,104,1600023,,,,,,,2024-08-26,1,,,,,サイレントドリーム,0
264,2011105011128,新規,0,2024-08-26,2024-08-26,一般社団法人ライブアイドルネットワーク,,その他の設立登記法人,東京都,新宿区,歌舞伎町１丁目２３番１４号第一メトロビル３階,,13,104,1600021,,,,,,,2024-08-26,1,,,,,ライブアイドルネットワーク,0
268,2011701027568,新規,0,2024-08-26,2024-08-26,株式会社ｓｔａｒｓ　ｂｕｓ,,株式会社,東京都,江戸川区,南小岩４丁目９－１５,,13,123,1330056,,,,,,,2024-08-26,1,,,,,スターズバス,0
269,2011801044744,新規,0,2024-08-26,2024-08-26,株式会社松川企画,,株式会社,東京都,足立区,千住中居町２５番６号Ｈ．Ｕ．ビル２０４,,13,121,1200035,,,,,,,2024-08-26,1,,,,,マツカワキカク,0
275,2012801023416,新規,0,2024-08-26,2024-08-26,株式会社ＮＹジャック,,株式会社,東京都,立川市,緑町７番地の２サンクタス立川Ｔ１－５２２号,,13,202,1900014,,,,,,,2024-08-26,1,,,,,エヌワイジャック,0
278,2013301052855,新規,0,2024-08-26,2024-08-26,阡陌学社株式会社,,株式会社,東京都,豊島区,西池袋３丁目１９－１４ロビンビルＢ１,,13,116,1710021,,,,,,,2024-08-26,1,,,,,センパク,0
279,2013301053028,新規,0,2024-08-26,2024-08-26,ユニバースボケイショナルスクール株式会社,,株式会社,東京都,豊島区,巣鴨１丁目２２番８号キャニオンヒル５０１号,,13,116,1700002,,,,,,,2024-08-26,1,,,,,ユニバースボケイショナルスクール,0
286,2020001158668,新規,0,2024-08-26,2024-08-26,株式会社身近なリハ,,株式会社,神奈川県,横浜市西区,浅間町１丁目４番３号ウィザードビル４０２,,14,103,2200072,,,,,,,2024-08-26,1,,,,,ミジカナリハ,0
287,2020001158684,新規,0,2024-08-26,2024-08-26,＿龍達株式会社,00136070,株式会社,神奈川県,横浜市中区,山下町１６５番地４、４階,,14,104,2310023,,,,,,,2024-08-26,1,,,,,キンリュウタツ,0
291,2020003026690,新規,0,2024-08-26,2024-08-26,合同会社Ｍ　ｓｗｅｅｔ,,合同会社,神奈川県,横浜市西区,浅間町１丁目４番３号ウィザードビル４０２,,14,103,2200072,,,,,,,2024-08-26,1,,,,,エムスウィート,0
292,2020003026708,新規,0,2024-08-26,2024-08-26,コンステレーションＥ合同会社,,合同会社,神奈川県,横浜市西区,浅間町１丁目４番３号ウィザードビル４０２,,14,103,2200072,,,,,,,2024-08-26,1,,,,,,0
293,2020003026740,新規,0,2024-08-26,2024-08-26,合同会社オウル,,合同会社,神奈川県,横浜市泉区,和泉町６２０５番地１,,14,116,2450016,,,,,,,2024-08-26,1,,,,,オウル,0
294,2020003026807,新規,0,2024-08-26,2024-08-26,グローリーアセット合同会社,,合同会社,神奈川県,横浜市緑区,十日市場町８４７番地７エテルナＺＥＲＯ１０２,,14,113,2260025,,,,,,,2024-08-26,1,,,,,グローリーアセット,0
310,2030001162124,新規,0,2024-08-26,2024-08-26,株式会社Ａｐｗｅｇ,,株式会社,埼玉県,草加市,住吉２丁目６番２５－３号,,11,221,3400014,,,,,,,2024-08-26,1,,,,,アフウェグ,0
311,2030001162132,新規,0,2024-08-26,2024-08-26,株式会社ＦａｎＲｉｓｅ,,株式会社,埼玉県,吉川市,美南２丁目２２番地５１,,11,243,3420038,,,,,,,2024-08-26,1,,,,,ファンライズ,0
312,2030001162140,新規,0,2024-08-26,2024-08-26,鋼・プランニング株式会社,,株式会社,埼玉県,坂戸市,大字石井２６３１番地６,,11,239,3500212,,,,,,,2024-08-26,1,,,,,ハガネプランニング,0
314,2030003024990,新規,0,2024-08-26,2024-08-26,Ｑｕａｎｇ　Ｌｉｅｍ合同会社,,合同会社,埼玉県,新座市,東北２丁目３０番２５号,,11,230,3520001,,,,,,,2024-08-26,1,,,,,クアンリエン,0
319,2040001135095,新規,0,2024-08-26,2024-08-26,株式会社アシスト,,株式会社,千葉県,市川市,新田５丁目７番１３号,,12,203,2720035,,,,,,,2024-08-26,1,,,,,アシスト,0
324,2040003025625,新規,0,2024-08-26,2024-08-26,合同会社ＮＥＫＳ,,合同会社,千葉県,君津市,末吉８３６番地１－２,,12,225,2920451,,,,,,,2024-08-26,1,,,,,ネクス,0
327,2050001055318,新規,0,2024-08-26,2024-08-26,東方ルビ生技株式会社,,株式会社,茨城県,下妻市,平方１８４番地２,,08,210,3040001,,,,,,,2024-08-26,1,,,,,トウホウルビセイギ,0
335,2060003005212,新規,0,2024-08-26,2024-08-26,合同会社カッコいい,,合同会社,栃木県,栃木市,平井町１２２－１５,,09,203,3280054,,,,,,,2024-08-26,1,,,,,カッコイイ,0
336,2060003005220,新規,0,2024-08-26,2024-08-26,丸山塗装合同会社,,合同会社,栃木県,鹿沼市,旭が丘１３５番地１７２,,09,205,3220345,,,,,,,2024-08-26,1,,,,,マルヤマトソウ,0
351,2120001076950,新規,0,2024-08-26,2024-08-26,カナヤ株式会社,,株式会社,大阪府,大阪市中央区,船場中央２丁目２番５－１２４号,,27,128,5410055,,,,,,,2024-08-26,1,,,,,カナヤ,0
359,2120001268011,新規,0,2024-08-26,2024-08-26,株式会社Ｙｇ．Ｓｅｒｖｉｃｅ,,株式会社,大阪府,大阪市西成区,松３丁目３番３９号ロイヤルメドゥ花園７０４号室,,27,122,5570034,,,,,,,2024-08-26,1,,,,,ワイジーサービス,0
360,2120003027373,新規,0,2024-08-26,2024-08-26,合同会社ＹＵＭＥＮＩ,,合同会社,大阪府,大阪市西成区,南津守３丁目１－４１,,27,122,5570063,,,,,,,2024-08-26,1,,,,,ユメニ,0
361,2120003027381,新規,0,2024-08-26,2024-08-26,ＹＳＰシーギフト合同会社,,合同会社,大阪府,大阪市東住吉区,杭全１丁目１４番２号１階,,27,121,5460002,,,,,,,2024-08-26,1,,,,,ワイエスピーシーギフト,0
364,2120901049659,新規,0,2024-08-26,2024-08-26,株式会社ＭＵＺＩＫＯ,,株式会社,大阪府,箕面市,桜井１丁目１４番２６号,,27,220,5620043,,,,,,,2024-08-26,1,,,,,ムジコ,0
369,2122003002975,新規,0,2024-08-26,2024-08-26,合同会社三日月商会,,合同会社,大阪府,東大阪市,高井田元町１丁目１７番９号,,27,227,5770054,,,,,,,2024-08-26,1,,,,,ミカヅキショウカイ,0
371,2130001077782,新規,0,2024-08-26,2024-08-26,株式会社オフタイム,,株式会社,京都府,京都市左京区,下鴨岸本町２３番地１サンクシャンブル１０１,,26,103,6060853,,,,,,,2024-08-26,1,,,,,オフタイム,0
372,2130001077799,新規,0,2024-08-26,2024-08-26,ｅｙｅｓｃｒｅａｍ株式会社,,株式会社,京都府,京都市伏見区,桃山南大島町７１番地３１,,26,109,6128017,,,,,,,2024-08-26,1,,,,,アイスクリーム,0
388,2180001162951,新規,0,2024-08-26,2024-08-26,株式会社ＳＳＣ,,株式会社,愛知県,丹羽郡扶桑町,大字高木字白山前４０７番地,,23,362,4800107,,,,,,,2024-08-26,1,,,,,エスエスシー,0
389,2180001162992,新規,0,2024-08-26,2024-08-26,Ｊａｋｓ株式会社,,株式会社,愛知県,名古屋市港区,七番町３丁目２,,23,111,4550001,,,,,,,2024-08-26,1,,,,,ジャクス,0
390,2180001163000,新規,0,2024-08-26,2024-08-26,株式会社新日調査,,株式会社,愛知県,稲沢市,祖父江町拾町野屋敷間２０８番地１,,23,220,4950037,,,,,,,2024-08-26,1,,,,,シンニチチョウサ,0
394,2190001031585,新規,0,2024-08-26,2024-08-26,アコルデサイン株式会社,,株式会社,三重県,四日市市,蔵町３番２０号アコルデ蔵町１０１,,24,202,5100045,,,,,,,2024-08-26,1,,,,,アコルデサイン,0
398,2200005013660,新規,0,2024-08-26,2024-08-26,医療法人聡健会,,その他の設立登記法人,岐阜県,土岐市,泉町久尻６１６番地の１４,,21,212,5095142,,,,,,,2024-08-26,1,,,,,ソウケンカイ,0
400,2220001026177,新規,0,2024-08-26,2024-08-26,株式会社ＣＲＥＡＳ,,株式会社,石川県,金沢市,長土塀２丁目５番３０‐３０３号,,17,201,9200867,,,,,,,2024-08-26,1,,,,,クレアス,0
413,2290001106922,新規,0,2024-08-26,2024-08-26,株式会社アイリスコーポレーション,,株式会社,福岡県,那珂川市,片縄３丁目２番地,,40,231,8111201,,,,,,,2024-08-26,1,,,,,アイリスコーポレーション,0
414,2290001106963,新規,0,2024-08-26,2024-08-26,株式会社Ｌｅａｄ,,株式会社,福岡県,大野城市,牛頸４丁目１３番２６号,,40,219,8160971,,,,,,,2024-08-26,1,,,,,リード,0
415,2290001106971,新規,0,2024-08-26,2024-08-26,株式会社Ｃ　ｓｔａｉｒ,,株式会社,福岡県,福岡市中央区,春吉２丁目２番２０号,,40,133,8100003,,,,,,,2024-08-26,1,,,,,シーステア,0
416,2290001106988,新規,0,2024-08-26,2024-08-26,株式会社バイロン,,株式会社,福岡県,福岡市中央区,渡辺通５丁目１４番１２号南天神ビル３階,,40,133,8100004,,,,,,,2024-08-26,1,,,,,バイロン,0
418,2290003015691,新規,0,2024-08-26,2024-08-26,モリハタ化学工業合同会社,,合同会社,福岡県,福岡市中央区,天神２丁目２番１２号７階,,40,133,8100001,,,,,,,2024-08-26,1,,,,,モリハタカガクコウギョウ,0
419,2290003015717,新規,0,2024-08-26,2024-08-26,おーくる合同会社,,合同会社,福岡県,福岡市東区,箱崎２丁目３１―３,,40,131,8120053,,,,,,,2024-08-26,1,,,,,オークル,0
422,2290801030826,新規,0,2024-08-26,2024-08-26,株式会社ａｎｄ　ｍｉｉ,,株式会社,福岡県,北九州市小倉北区,金田２丁目２番８－６０１号,,40,106,8030816,,,,,,,2024-08-26,1,,,,,アンドミー,0
423,2300001013885,新規,0,2024-08-26,2024-08-26,株式会社エグチ・ビルド不動産,,株式会社,佐賀県,小城市,三日月町三ヶ島７０２番地,,41,208,8450025,,,,,,,2024-08-26,1,,,,,エグチビルドフドウサン,0
426,2310001019171,新規,0,2024-08-26,2024-08-26,株式会社裕斗工業,,株式会社,長崎県,佐世保市,大潟町８１５番地２０アートインブルーリバー１０２,,42,202,8580926,,,,,,,2024-08-26,1,,,,,ユウトコウギョウ,0
434,2390001017721,新規,0,2024-08-26,2024-08-26,株式会社なごみ農産フード,,株式会社,山形県,天童市,大字山口３５３０番地,,06,210,9940101,,,,,,,2024-08-26,1,,,,,ナゴミノウサンフード,0
438,2430001092529,新規,0,2024-08-26,2024-08-26,株式会社ｍｏｏｎ　ｂｉｒｄ,,株式会社,北海道,札幌市東区,北三十八条東１３丁目２番２０号,,01,103,0070838,,,,,,,2024-08-26,1,,,,,ムーンバード,0
440,2430003016717,新規,0,2024-08-26,2024-08-26,合同会社ＩＶＹ,,合同会社,北海道,札幌市中央区,南五条西１丁目２番地９札幌中央レジデンス１４０５号,,01,101,0640805,,,,,,,2024-08-26,1,,,,,アイビー,0
445,2500003003311,新規,0,2024-08-26,2024-08-26,虹印刷合同会社,,合同会社,愛媛県,松山市,本町６丁目１番地１ＫＢコート本町ＩＩ１１０６号,00136073,38,201,7900811,,,,,,,2024-08-26,1,,,,,ニジインサツ,0
446,2700150089620,新規,0,2024-08-26,2018-06-26,永続講,,その他,長野県,須坂市,大字日滝４８２,,20,207,3820000,,,,,,,2018-06-26,1,,,,,エイゾクコウ,0
447,2700150126852,新規,0,2024-08-26,2024-08-26,浙江途都進出口有限公司,,外国会社等,,,,,,,,中国浙江省金華市永康市龍山鎮橋下南村馬山頭自然村２２８号第二幢第二層,00136027,,,,,2024-08-26,1,,,,,セッコウトトシンシュツコウユウゲンコウシ,0
464,3010001247644,新規,0,2024-08-26,2024-08-26,株式会社インフィニティサービス,,株式会社,東京都,中央区,月島１丁目５番１－３５０５号,,13,102,1040052,,,,,,,2024-08-26,1,,,,,インフィニティサービス,0
467,3010003044668,新規,0,2024-08-26,2024-08-26,カフカ合同会社,,合同会社,東京都,千代田区,永田町２丁目１７番５号,,13,101,1000014,,,,,,,2024-08-26,1,,,,,カフカ,0
469,3010005038676,新規,0,2024-08-26,2024-08-26,一般社団法人高志会,,その他の設立登記法人,東京都,千代田区,神田淡路町２丁目３－１２・３Ｆ,,13,101,1010063,,,,,,,2024-08-26,1,,,,,コウシカイ,0
473,3010101016288,新規,0,2024-08-26,2024-08-26,株式会社ＯＣＥＡＮ,,株式会社,東京都,八王子市,北野台５丁目１２番７号,,13,201,1920913,,,,,,,2024-08-26,1,,,,,オーシャン,0
478,3010501052809,新規,0,2024-08-26,2024-08-26,Ｍ＆Ｋ株式会社,,株式会社,東京都,台東区,根岸３丁目１１番８号,,13,106,1100003,,,,,,,2024-08-26,1,,,,,エムアンドケー,0
479,3010501052817,新規,0,2024-08-26,2024-08-26,株式会社六善,,株式会社,東京都,台東区,上野５丁目６番１１号サンキビル９階,,13,106,1100005,,,,,,,2024-08-26,1,,,,,ムツヨシ,0
485,3010701046445,新規,0,2024-08-26,2024-08-26,株式会社オーシャンズ５,,株式会社,東京都,品川区,南大井１丁目８番１８号,,13,109,1400013,,,,,,,2024-08-26,1,,,,,オーシャンズファイブ,0
497,3011001164136,新規,0,2024-08-26,2024-08-26,Ｂ．ＣＯＵＰＳ株式会社,,株式会社,東京都,渋谷区,東３丁目１７番１４号,,13,113,1500011,,,,,,,2024-08-26,1,,,,,ビークープス,0
498,3011001164160,新規,0,2024-08-26,2024-08-26,株式会社ＫＮＩＯＴ,,株式会社,東京都,渋谷区,神宮前６丁目２３番４号桑野ビル２Ｆ,,13,113,1500001,,,,,,,2024-08-26,1,,,,,ナイアット,0
499,3011001164202,新規,0,2024-08-26,2024-08-26,清泉株式会社,,株式会社,東京都,渋谷区,本町６丁目２４－９－２０１号,,13,113,1510071,,,,,,,2024-08-26,1,,,,,セイセン,0
500,3011001164268,新規,0,2024-08-26,2024-08-26,株式会社ＮＪＫ,,株式会社,東京都,渋谷区,恵比寿西１丁目２０番５号恵比寿ＳＡビル８階,,13,113,1500021,,,,,,,2024-08-26,1,,,,,エヌジェーケー,0
504,3011003019890,新規,0,2024-08-26,2024-08-26,合同会社梅森,,合同会社,東京都,渋谷区,神宮前６丁目２３番４号桑野ビル２階,,13,113,1500001,,,,,,,2024-08-26,1,,,,,ウメモリ,0
511,3011303005269,新規,0,2024-08-26,2024-08-26,合同会社ＰｕｒｅＲｏａｓｔ＆Ｂｒｅｗ,,合同会社,東京都,杉並区,井草２丁目３４番１１号カーサ篠ＩＩＩ１０１,00136075,13,115,1670021,,,,,,,2024-08-26,1,,,,,,0
513,3011701027567,新規,0,2024-08-26,2024-08-26,ＮＥＲＤ　Ｍ株式会社,,株式会社,東京都,江戸川区,北葛西２丁目２７番２６号,,13,123,1340081,,,,,,,2024-08-26,1,,,,,ナードエム,0
514,3011703003946,新規,0,2024-08-26,2024-08-26,合同会社Ｒ６Ｎ,,合同会社,東京都,江戸川区,東瑞江１丁目３１番６号,,13,123,1320014,,,,,,,2024-08-26,1,,,,,アールシックスエヌ,0
516,3011801044743,新規,0,2024-08-26,2024-08-26,株式会社ＢＢＣ,,株式会社,東京都,足立区,柳原２丁目６番４－４０７号,,13,121,1200022,,,,,,,2024-08-26,1,,,,,ビービーシー,0
521,3012801023415,新規,0,2024-08-26,2024-08-26,株式会社きっと力になりますホールディングス,,株式会社,東京都,東大和市,立野１丁目２５番地の１７,,13,220,2070021,,,,,,,2024-08-26,1,,,,,キットチカラニナリマスホールディングス,0
522,3012801023423,新規,0,2024-08-26,2024-08-26,株式会社ＳｏｓｉｏＳｅｒｖｉｃｅ,,株式会社,東京都,国立市,谷保５０３２番地の２６,,13,215,1860011,,,,,,,2024-08-26,1,,,,,ソシオサービス,0
528,3013301053027,新規,0,2024-08-26,2024-08-26,株式会社オールインワン,,株式会社,東京都,豊島区,池袋２丁目５０番１号,,13,116,1710014,,,,,,,2024-08-26,1,,,,,オールインワン,0
539,3020001158683,新規,0,2024-08-26,2024-08-26,Ｏｒｉｅｎｔａｌ　Ｔｏｕｒ　Ｈｏｍｅ　Ｆａｓｈｉｏｎ株式会社,,株式会社,神奈川県,横浜市南区,中村町３丁目２０３番地１０,,14,105,2320033,,,,,,,2024-08-26,1,,,,,オリエンタルツアーホームファッション,0
540,3020001158700,新規,0,2024-08-26,2024-08-26,株式会社佳龍,,株式会社,神奈川県,横浜市青葉区,美しが丘２丁目６番地３５,,14,117,2250002,,,,,,,2024-08-26,1,,,,,カリュウ,0
541,3020001158717,新規,0,2024-08-26,2024-08-26,株式会社ＭＡＧ,,株式会社,神奈川県,横浜市中区,桜木町１丁目１０１番地１,,14,104,2310062,,,,,,,2024-08-26,1,,,,,エムエージー,0
542,3020001158849,新規,0,2024-08-26,2024-08-26,株式会社アルベール,,株式会社,神奈川県,川崎市高津区,新作４丁目１１番１８号,,14,134,2130014,,,,,,,2024-08-26,1,,,,,アルベール,0
546,3020003026731,新規,0,2024-08-26,2024-08-26,合同会社ＫＩＮＤＭＩＮＤ　ＣＲＥＡＴＯＲＳ,,合同会社,神奈川県,横浜市神奈川区,神大寺４丁目３２番１－５０１号,,14,102,2210801,,,,,,,2024-08-26,1,,,,,カインドマインドクリエイター,0
553,3021003014949,新規,0,2024-08-26,2024-08-26,合同会社ユートリー,,合同会社,神奈川県,小田原市,久野７４―３,,14,206,2500055,,,,,,,2024-08-26,1,,,,,ユートリー,0
554,3030001034784,新規,0,2024-08-26,2024-08-26,小関住研株式会社,,株式会社,埼玉県,草加市,住吉１丁目２番２７号,,11,221,3400014,,,,,,,2024-08-26,1,,,,,コセキジュウケン,0
560,3030001162065,新規,0,2024-08-26,2024-08-26,株式会社Ｐｉｅｅｃｅ,,株式会社,埼玉県,さいたま市北区,日進町２丁目１７８８番地６号リブゼＭＯＲＩＴＡ２０２号,,11,102,3310823,,,,,,,2024-08-26,1,,,,,ピース,0
561,3030001162131,新規,0,2024-08-26,2024-08-26,株式会社Ｗｈａｌｅ,,株式会社,埼玉県,さいたま市北区,盆栽町３９９番地７石井ホームズ２０１,,11,102,3310805,,,,,,,2024-08-26,1,,,,,,0
564,3030005021795,新規,0,2024-08-26,2024-08-26,一般社団法人なんじゃもんじゃの木,,その他の設立登記法人,埼玉県,上尾市,向山２丁目４３番地８,,11,219,3620045,,,,,,,2024-08-26,1,,,,,ナンジャモンジャノキ,0
572,3040001135086,新規,0,2024-08-26,2024-08-26,株式会社平野養豚,,株式会社,千葉県,旭市,後草１８９３番地,,12,215,2892613,,,,,,,2024-08-26,1,,,,,ヒラノヨウトン,0
577,3040003025665,新規,0,2024-08-26,2024-08-26,合同会社Ｍ＆Ｍフューチャー,,合同会社,千葉県,市川市,国府台５丁目２６番１２号,,12,203,2720827,,,,,,,2024-08-26,1,,,,,エムアンドエムフューチャー,0
578,3040005022479,新規,0,2024-08-26,2024-08-26,一般社団法人子どものみらい開墾社,,その他の設立登記法人,千葉県,八街市,八街ほ２４０番地３２,,12,230,2891115,,,,,,,2024-08-26,1,,,,,コドモノミライカイコンシャ,0
580,3050001055250,新規,0,2024-08-26,2024-08-26,株式会社Ａ　ＲＡＹ,,株式会社,茨城県,石岡市,鹿の子１丁目１１番３８号,,08,205,3150005,,,,,,,2024-08-26,1,,,,,アレイ,0
587,3070003005557,新規,0,2024-08-26,2024-08-26,ＨＰ融雪合同会社,,合同会社,群馬県,太田市,藤阿久町９１０番地３クレセント太田２１２,,10,205,3730034,,,,,,,2024-08-26,1,,,,,エイチピーユウセツ,0
588,3070005010308,新規,0,2024-08-26,2024-08-26,特定非営利活動法人みらい安中,,その他の設立登記法人,群馬県,安中市,松井田町松井田１２３１番地１,,10,211,3790222,,,,,,,2024-08-26,1,,,,,ミライアンナカ,0
596,3090001018880,新規,0,2024-08-26,2024-08-26,恒盛株式会社,,株式会社,山梨県,笛吹市,石和町川中島１１２番地１,,19,211,4060024,,,,,,,2024-08-26,1,,,,,コウセイ,0
619,3120001268002,新規,0,2024-08-26,2024-08-26,日本国際交流トレード株式会社,,株式会社,大阪府,大阪市港区,南市岡２丁目４番２５－３０５号,,27,107,5520011,,,,,,,2024-08-26,1,,,,,ニホンコクサイコウリュウトレード,0
620,3120001268019,新規,0,2024-08-26,2024-08-26,諾一商貿株式会社,,株式会社,大阪府,大阪市住吉区,万代東１丁目３番２２号メゾン東和２０５号室,,27,120,5580056,,,,,,,2024-08-26,1,,,,,ダクイチショウボウ,0
627,3120901049666,新規,0,2024-08-26,2024-08-26,株式会社ファッション工学研究所,,株式会社,大阪府,豊中市,長興寺北２丁目１番３号,,27,203,5610875,,,,,,,2024-08-26,1,,,,,ファッションコウガクケンキュウショ,0
634,3140001135605,新規,0,2024-08-26,2024-08-26,株式会社ＥＳＴ,,株式会社,兵庫県,尼崎市,金楽寺町２丁目５番４７号,,28,202,6600806,,,,,,,2024-08-26,1,,,,,エスト,0
638,3150001027504,新規,0,2024-08-26,2024-08-26,株式会社ｅｖｉｓ,,株式会社,奈良県,香芝市,良福寺１７８－１３,,29,210,6390235,,,,,,,2024-08-26,1,,,,,エヴィス,0
643,3180001162983,新規,0,2024-08-26,2024-08-26,株式会社ＴＷＳ,,株式会社,愛知県,尾張旭市,城山町三ツ池６１３７番地８,,23,226,4880881,,,,,,,2024-08-26,1,,,,,ティーダブルエス,0
648,3180003027276,新規,0,2024-08-26,2024-08-26,合同会社ナイアレ,,合同会社,愛知県,名古屋市名東区,山の手３丁目１１０２番地の５,,23,115,4650011,,,,,,,2024-08-26,1,,,,,ナイアレ,0
664,3220001026176,新規,0,2024-08-26,2024-08-26,株式会社ＩＮＦＩＮＩ,,株式会社,石川県,鹿島郡中能登町,金丸ム部５３番地,,17,407,9291621,,,,,,,2024-08-26,1,,,,,アンフィニ,0
666,3230001020500,新規,0,2024-08-26,2024-08-26,株式会社ＭＩＳＡ,,株式会社,富山県,富山市,宝町１丁目５‐１４アミティ宝１Ｆ,,16,201,9300007,,,,,,,2024-08-26,1,,,,,ミーサ,0
667,3240001063738,新規,0,2024-08-26,2024-08-26,株式会社ｉｎｍｅ,,株式会社,広島県,廿日市市,対厳山２丁目１４―１６,,34,213,7390402,,,,,,,2024-08-26,1,,,,,インミー,0
681,3290001106921,新規,0,2024-08-26,2024-08-26,株式会社明澤,,株式会社,福岡県,福岡市博多区,博多駅中央街５番１１号,,40,132,8120012,,,,,,,2024-08-26,1,,,,,アキザワ,0
682,3290001106954,新規,0,2024-08-26,2024-08-26,株式会社ＢＡＹＡＮＧ,,株式会社,福岡県,福岡市城南区,別府１丁目１０番２４号,,40,136,8140104,,,,,,,2024-08-26,1,,,,,バイアング,0
683,3290001106962,新規,0,2024-08-26,2024-08-26,株式会社フーライ・コネクト,,株式会社,福岡県,久留米市,原古賀町２０番地１６－３０５号,,40,203,8300046,,,,,,,2024-08-26,1,,,,,フーライコネクト,0
684,3290001106987,新規,0,2024-08-26,2024-08-26,未来総研株式会社,,株式会社,福岡県,福岡市博多区,祇園１番２０号スタービル,,40,132,8120000,,,,,,,2024-08-26,1,,,,,ミライソウケン,0
686,3290003015716,新規,0,2024-08-26,2024-08-26,ＰＩＣ合同会社,,合同会社,福岡県,福岡市博多区,博多駅前１丁目２３番２号ＰａｒｋＦｒｏｎｔ博多駅前１丁目５Ｆ－Ｂ,,40,132,8120011,,,,,,,2024-08-26,1,,,,,ピーアイーシー,0
693,3310001019179,新規,0,2024-08-26,2024-08-26,株式会社ＶｉｎＣＲＥＷ,,株式会社,長崎県,長崎市,大黒町１０番１０号ＫｏＫｏＲｏビル６１４９号室,,42,201,8500057,,,,,,,2024-08-26,1,,,,,ヴィンクルー,0
698,3350005006252,新規,0,2024-08-26,2024-08-26,無限責任正近第一負債整理組合,,その他の設立登記法人,宮崎県,都城市,山之口町富吉,,45,202,8891801,,,,,,,2024-08-26,1,,,,,,0
710,3410005006601,新規,0,2024-08-26,2024-08-26,一般社団法人スマイルキャンプ,,その他の設立登記法人,秋田県,潟上市,天王字追分西７０番地３－１０５号,,05,211,0100101,,,,,,,2024-08-26,1,,,,,スマイルキャンプ,0
719,3430001092536,新規,0,2024-08-26,2024-08-26,株式会社ロックモータース,,株式会社,北海道,札幌市手稲区,手稲前田５３８番地１３,,01,109,0060829,,,,,,,2024-08-26,1,,,,,ロックモータース,0
728,3500001025843,新規,0,2024-08-26,2024-08-26,株式会社フロムオン,,株式会社,愛媛県,松山市,勝山町２丁目１２番地３－９０４号,,38,201,7900878,,,,,,,2024-08-26,1,,,,,フロムオン,0
731,3500003003310,新規,0,2024-08-26,2024-08-26,合同会社重松,,合同会社,愛媛県,松山市,食場町乙１０２番地１１７,,38,201,7910104,,,,,,,2024-08-26,1,,,,,シゲマツ,0
734,3700150126694,新規,0,2024-08-26,2024-08-09,日本小児科学会東京都地方会,,その他,東京都,板橋区,大谷口上町３０－１事務局　日本大学医学部小児科,,13,119,1730032,,,,,,,2024-08-09,1,,,,,ニホンシヨウニカガツカイトウキヨウトチホウカイ,0
745,4010003044601,新規,0,2024-08-26,2024-08-26,ＢＭＣ　ＪＡＰＡＮ合同会社,,合同会社,東京都,中央区,銀座１丁目１２番４号Ｎ＆Ｅ＿ＢＬＤ．６Ｆ,,13,102,1040061,,,,,,,2024-08-26,1,,,,,ビーエムシージャパン,0
746,4010003044683,新規,0,2024-08-26,2024-08-26,合同会社三葉プロパティ,,合同会社,東京都,千代田区,二番町３番地５,,13,101,1020084,,,,,,,2024-08-26,1,,,,,ミツバプロパティ,0
747,4010003044691,新規,0,2024-08-26,2024-08-26,サスティレル合同会社,,合同会社,東京都,千代田区,神田和泉町１番地６－１６ヤマトビル４０５,,13,101,1010024,,,,,,,2024-08-26,1,,,,,サスティレル,0
748,4010003044700,新規,0,2024-08-26,2024-08-26,Ｓｗｅｅｔｏｐｉａ合同会社,,合同会社,東京都,中央区,銀座１丁目１２番４号Ｎ＆ＥＢＬＤ．６Ｆ,,13,102,1040061,,,,,,,2024-08-26,1,,,,,スウィートピア,0
749,4010005038691,新規,0,2024-08-26,2024-08-26,一般社団法人ＦＩＥＳＴＡ,,その他の設立登記法人,東京都,中央区,京橋２丁目１２番６号ＡＯＪ税理士法人内,,13,102,1040031,,,,,,,2024-08-26,1,,,,,フェスタ,0
761,4010403033278,新規,0,2024-08-26,2024-08-26,合同会社雲太,,合同会社,東京都,港区,港南４丁目６番８－３８０５号,,13,103,1080075,,,,,,,2024-08-26,1,,,,,ウンタ,0
763,4010501052816,新規,0,2024-08-26,2024-08-26,幻想回路株式会社,,株式会社,東京都,台東区,千束３丁目２１番２号ＶＡＲＩＯ浅草３０２号室,,13,106,1110031,,,,,,,2024-08-26,1,,,,,ゲンソウカイロ,0
768,4010601065809,新規,0,2024-08-26,2024-08-26,ルイズサービス株式会社,,株式会社,東京都,江東区,枝川１丁目１番１０－１１１０号,,13,108,1350051,,,,,,,2024-08-26,1,,,,,ルイズサービス,0
779,4011001164151,新規,0,2024-08-26,2024-08-26,バイモア株式会社,,株式会社,東京都,渋谷区,渋谷２丁目１９－１５宮益坂ビルディング６０９,,13,113,1500002,,,,,,,2024-08-26,1,,,,,バイモア,0
780,4011001164242,新規,0,2024-08-26,2024-08-26,株式会社アロフトフォーカス,,株式会社,東京都,渋谷区,桜丘町２６番１号セルリアンタワー１５階,,13,113,1500031,,,,,,,2024-08-26,1,,,,,アロフトフォーカス,0
781,4011003019849,新規,0,2024-08-26,2024-08-26,ＢＮマネジメント合同会社,,合同会社,東京都,渋谷区,道玄坂１丁目１６－６二葉ビル８ｂ,,13,113,1500043,,,,,,,2024-08-26,1,,,,,ビーエヌマネジメント,0
786,4011303005268,新規,0,2024-08-26,2024-08-26,エスアイ・キャピタル合同会社,,合同会社,東京都,杉並区,荻窪１丁目２３番６号,,13,115,1670051,,,,,,,2024-08-26,1,,,,,エスアイキャピタル,0
787,4011403004475,新規,0,2024-08-26,2024-08-26,ウィングコンサルティング合同会社,,合同会社,東京都,板橋区,幸町５３－１０,,13,119,1730034,,,,,,,2024-08-26,1,,,,,ウィングコンサルティング,0
790,4011703003945,新規,0,2024-08-26,2024-08-26,Ｓ＆Ｓｃｏｒｐｏｒａｔｉｏｎ合同会社,,合同会社,東京都,江戸川区,西葛西５丁目１番３号第６山秀ビル６０３,,13,123,1340088,,,,,,,2024-08-26,1,,,,,エスアンドエスコーポレーション,0
792,4011801044742,新規,0,2024-08-26,2024-08-26,東和株式会社,,株式会社,東京都,足立区,西保木間２丁目４番１６－３０１号,,13,121,1210812,,,,,,,2024-08-26,1,,,,,トウワ,0
798,4012803003496,新規,0,2024-08-26,2024-08-26,セカンド合同会社,,合同会社,東京都,日野市,三沢５丁目２８番地の１ヴェルジェ日野１０１,,13,212,1910032,,,,,,,2024-08-26,1,,,,,セカンド,0
800,4013301053026,新規,0,2024-08-26,2024-08-26,聖諾株式会社,,株式会社,東京都,豊島区,東池袋１丁目２６番４号,,13,116,1700013,,,,,,,2024-08-26,1,,,,,セイダク,0
807,4020001158658,新規,0,2024-08-26,2024-08-26,ＯＵＴＲＵＳＨ株式会社,,株式会社,神奈川県,横浜市保土ケ谷区,神戸町１０８番地,,14,106,2400005,,,,,,,2024-08-26,1,,,,,アウトラッシュ,0
808,4020001158708,新規,0,2024-08-26,2024-08-26,株式会社オクト,,株式会社,神奈川県,川崎市中原区,上丸子天神町７５番地,,14,133,2110007,,,,,,,2024-08-26,1,,,,,オクト,0
814,4020003026714,新規,0,2024-08-26,2024-08-26,合同会社アルファアクト,,合同会社,神奈川県,川崎市幸区,新川崎６番１－１０１５号,,14,132,2120032,,,,,,,2024-08-26,1,,,,,アルファアクト,0
815,4020003026739,新規,0,2024-08-26,2024-08-26,Ｋｏｔｏｂｕｋｉ合同会社,,合同会社,神奈川県,横浜市青葉区,たちばな台１丁目６番地８,,14,117,2270046,,,,,,,2024-08-26,1,,,,,コトブキ,0
818,4021001083094,新規,0,2024-08-26,2024-08-26,株式会社１ＨＰ,,株式会社,神奈川県,茅ヶ崎市,浜須賀９－４８,,14,207,2530035,,,,,,,2024-08-26,1,,,,,ワンエイチピー,0
819,4021003014923,新規,0,2024-08-26,2024-08-26,合同会社ホームスチール,,合同会社,神奈川県,平塚市,明石町４番２－６０４号,,14,203,2540042,,,,,,,2024-08-26,1,,,,,ホームスチール,0
820,4021003014948,新規,0,2024-08-26,2024-08-26,Ｌｉｆｅ　Ａｌｃｈｅｍｙ合同会社,,合同会社,神奈川県,藤沢市,鵠沼藤が谷３丁目１３番２０号,00136074,14,205,2510031,,,,,,,2024-08-26,1,,,,,ライフアルケミー,0
825,4030003024989,新規,0,2024-08-26,2024-08-26,合同会社ラスト,,合同会社,埼玉県,さいたま市岩槻区,宮町２丁目１６番３３号,,11,110,3390065,,,,,,,2024-08-26,1,,,,,ラスト,0
827,4030005021828,新規,0,2024-08-26,2024-08-26,一般社団法人こどものまちプロジェクト,,その他の設立登記法人,埼玉県,秩父市,熊木町９番５号秩父ビジネスプラザ３階,,11,207,3680032,,,,,,,2024-08-26,1,,,,,コドモノマチプロジェクト,0
835,4040001135069,新規,0,2024-08-26,2024-08-26,株式会社ＳＴＥＬＬＡＲ,,株式会社,千葉県,南房総市,千倉町忽戸６０１番地１,,12,234,2950022,,,,,,,2024-08-26,1,,,,,ステラ,0
836,4040001135093,新規,0,2024-08-26,2024-08-26,市原リサイクルマネジメント株式会社,,株式会社,千葉県,市原市,五井９０９３番地３,,12,219,2900056,,,,,,,2024-08-26,1,,,,,イチハラリサイクルマネジメント,0
840,4040003025664,新規,0,2024-08-26,2024-08-26,乗り物ワールド合同会社,,合同会社,千葉県,東金市,川場字荒地７０８番地５セレーナ東金２０３号,,12,213,2830064,,,,,,,2024-08-26,1,,,,,ノリモノワールド,0
842,4040005022478,新規,0,2024-08-26,2024-08-26,一般財団法人松岡千恵財団,,その他の設立登記法人,千葉県,市川市,湊新田２丁目１－２５三東第３マンション２０３号,,12,203,2720132,,,,,,,2024-08-26,1,,,,,マツオカチエザイダン,0
846,4050003008610,新規,0,2024-08-26,2024-08-26,合同会社ｃｏｃｏｒｏ,,合同会社,茨城県,取手市,宮和田５３１,,08,217,3001514,,,,,,,2024-08-26,1,,,,,ココロ,0
851,4070001042106,新規,0,2024-08-26,2024-08-26,株式会社Ｇブライト,,株式会社,群馬県,高崎市,並榎町１９３番地１１,,10,202,3700802,,,,,,,2024-08-26,1,,,,,ジーブライト,0
854,4080101024969,新規,0,2024-08-26,2024-08-26,株式会社小泉塗装,,株式会社,静岡県,伊東市,吉田９０４番地の５,,22,208,4140051,,,,,,,2024-08-26,1,,,,,コイズミトソウ,0
855,4100001037804,新規,0,2024-08-26,2024-08-26,株式会社小松総合サービス保険事務所,,株式会社,長野県,諏訪市,大字湖南１０９８番地１,,20,206,3920131,,,,,,,2024-08-26,1,,,,,コマツソウゴウサービスホケンジムショ,0
864,4120001268026,新規,0,2024-08-26,2024-08-26,株式会社スピカ,,株式会社,大阪府,大阪市中央区,南船場３丁目２番２２号おおきに南船場ビル２０５,,27,128,5420081,,,,,,,2024-08-26,1,,,,,スピカ,0
869,4120901049657,新規,0,2024-08-26,2024-08-26,ＴＫＹＤ株式会社,,株式会社,大阪府,豊中市,桜の町７丁目９番１－１０３号,,27,203,5600054,,,,,,,2024-08-26,1,,,,,ティーケイワイディー,0
874,4130005017163,新規,0,2024-08-26,2024-08-26,一般財団法人池坊文化・芸術財団,,その他の設立登記法人,京都府,京都市下京区,室町通四条下る鶏鉾町４９１番地,,26,106,6008491,,,,,,,2024-08-26,1,,,,,イケノボウブンカゲイジュツザイダン,0
886,4180001162974,新規,0,2024-08-26,2024-08-26,ＡＰＰＲＯ株式会社,,株式会社,愛知県,豊明市,沓掛町中川２２１番地２,,23,229,4701101,,,,,,,2024-08-26,1,,,,,アップロ,0
889,4180003027275,新規,0,2024-08-26,2024-08-26,合同会社スマイル,,合同会社,愛知県,名古屋市中川区,大当郎３丁目１１２２番地の１ＰＡＬＡＺＺＯ大当郎４０３号,,23,110,4540943,,,,,,,2024-08-26,1,,,,,スマイル,0
893,4190001031583,新規,0,2024-08-26,2024-08-26,あさひファーム株式会社,,株式会社,三重県,桑名市,大字上深谷部４８５,,24,205,5110809,,,,,,,2024-08-26,1,,,,,アサヒファーム,0
896,4200001042769,新規,0,2024-08-26,2024-08-26,岐阜信託株式会社,,株式会社,岐阜県,岐阜市,神田町１丁目８番地の３,,21,201,5008833,,,,,,,2024-08-26,1,,,,,ギフシンタク,0
898,4200005013659,新規,0,2024-08-26,2024-08-26,一般社団法人アリビオ,,その他の設立登記法人,岐阜県,多治見市,栄町１丁目５５番地の１モアグレース多治見ゲートテラス１１０３,,21,204,5070035,,,,,,,2024-08-26,1,,,,,アリビオ,0
901,4220001026175,新規,0,2024-08-26,2024-08-26,株式会社ｂａｂ,,株式会社,石川県,金沢市,窪３丁目１５２番地９,,17,201,9218151,,,,,,,2024-08-26,1,,,,,バブ,0
903,4240003006818,新規,0,2024-08-26,2024-08-26,合同会社ｃｏｌｏｒ,,合同会社,広島県,安芸郡府中町,大通３丁目８番１１号,,34,302,7350022,,,,,,,2024-08-26,1,,,,,カラー,0
904,4250001020786,新規,0,2024-08-26,2024-08-26,株式会社ＴＫコンサルティング,,株式会社,山口県,下関市,長府新松原町８番２８号,,35,201,7520982,,,,,,,2024-08-26,1,,,,,ティーケーコンサルティング,0
906,4250002020843,新規,0,2024-08-26,2024-08-26,有限会社岩本工務店,,有限会社,山口県,山陽小野田市,大字小野田４４１８番地,,35,216,7560817,,,,,,,2024-08-26,1,,,,,,0
915,4290001106838,新規,0,2024-08-26,2024-08-26,株式会社ＳＵＮＦＬＥＸ,,株式会社,福岡県,福岡市早良区,飯倉３丁目４５－１７ファミールハピネス原２０５号室,,40,137,8140161,,,,,,,2024-08-26,1,,,,,サンフレクス,0
916,4290001106937,新規,0,2024-08-26,2024-08-26,株式会社ＱＵＡＬＩＡ　ＴＩＭＥＳ,,株式会社,福岡県,福岡市西区,姪の浜２丁目１番１－１Ｆ,,40,135,8190002,,,,,,,2024-08-26,1,,,,,クオリアタイムズ,0
917,4290001106945,新規,0,2024-08-26,2024-08-26,株式会社ＧＵＦ,,株式会社,福岡県,糸島市,志摩新町２１番３・２Ｆ,,40,230,8191333,,,,,,,2024-08-26,1,,,,,ジーユーエフ,0
918,4290001106986,新規,0,2024-08-26,2024-08-26,鯤鵬株式会社,,株式会社,福岡県,福岡市中央区,平尾１丁目１１番６－３１２号,,40,133,8100014,,,,,,,2024-08-26,1,,,,,コンホウ,0
919,4290001106994,新規,0,2024-08-26,2024-08-26,Ｔｒｙ’ｓ株式会社,,株式会社,福岡県,福岡市早良区,南庄１丁目１７番２０号,,40,137,8140031,,,,,,,2024-08-26,1,,,,,トライズ,0
926,4290803004826,新規,0,2024-08-26,2024-08-26,合同会社モンリーブ,,合同会社,福岡県,中間市,中間２丁目９番１３号,,40,215,8090034,,,,,,,2024-08-26,1,,,,,モンリーブ,0
931,4310003004847,新規,0,2024-08-26,2024-08-26,たき乃や農園合同会社,,合同会社,長崎県,長崎市,風頭町１０番３４号,,42,201,8500803,,,,,,,2024-08-26,1,,,,,タキノヤノウエン,0
932,4330001032393,新規,0,2024-08-26,2024-08-26,株式会社レゾナンソネット,,株式会社,熊本県,八代市,千丁町新牟田１０５０番地１,,43,202,8694703,,,,,,,2024-08-26,1,,,,,レゾナンソネット,0
933,4330003010538,新規,0,2024-08-26,2024-08-26,合同会社ＨＯＲＩＫＡＷＡ　ＢＡＳＥ,,合同会社,熊本県,菊池郡菊陽町,大字原水５１８９番地５,,43,404,8691102,,,,,,,2024-08-26,1,,,,,ホリカワベース,0
942,4400001016769,新規,0,2024-08-26,2024-08-26,祝井澤口株式会社,,株式会社,岩手県,二戸郡一戸町,一戸字北舘１０５番地２０,,03,524,0285312,,,,,,,2024-08-26,1,,,,,イワイサワグチ,0
955,4700150126702,新規,0,2024-08-26,2024-08-09,群馬県私立小・中・高等学校保護者会連合会,,その他,群馬県,前橋市,大渡町１丁目１０－７群馬県公社総合ビル６Ｆ私学センター内,,10,201,3710854,,,,,,,2024-08-09,1,,,,,グンマケンシリツシヨウチユウコウトウガツコウホゴシヤカイレンゴウカイ,0
964,5010001247725,新規,0,2024-08-26,2024-08-26,ロロント株式会社,,株式会社,東京都,千代田区,神田和泉町１番地６－１６ヤマトビル４０５,,13,101,1010024,,,,,,,2024-08-26,1,,,,,ロロント,0
965,5010003044518,新規,0,2024-08-26,2024-08-26,Ｒｅ合同会社,,合同会社,東京都,中央区,銀座５丁目１２番６号ＣＵＲＡＧＩＮＺＡ７Ｆ,,13,102,1040061,,,,,,,2024-08-26,1,,,,,リー,0
966,5010003044682,新規,0,2024-08-26,2024-08-26,しらさぎパートナーズ合同会社,,合同会社,東京都,文京区,千石１丁目２７番１２号,,13,105,1120011,,,,,,,2024-08-26,1,,,,,シラサギパートナーズ,0
979,5010703007311,新規,0,2024-08-26,2024-08-26,合同会社ラクシロウ,,合同会社,東京都,品川区,小山３丁目８番９号ＰＡＴＩＯ１０２Ｂ２１号室,,13,109,1420062,,,,,,,2024-08-26,1,,,,,ラクシロウ,0
980,5010903009314,新規,0,2024-08-26,2024-08-26,合同会社日本社会設計,,合同会社,東京都,世田谷区,砧４丁目３４－１３,,13,112,1570073,,,,,,,2024-08-26,1,,,,,ニホンシャカイセッケイ,0
986,5011001164282,新規,0,2024-08-26,2024-08-26,Ｆａｖｏｒｉｔｅ株式会社,,株式会社,東京都,渋谷区,神宮前６丁目２３番４号桑野ビル２階,,13,113,1500001,,,,,,,2024-08-26,1,,,,,フェイバリット,0
987,5011003019798,新規,0,2024-08-26,2024-08-26,合同会社サムエッジ,,合同会社,東京都,渋谷区,渋谷２丁目１９－１５宮益坂ビルディング６０９,,13,113,1500002,,,,,,,2024-08-26,1,,,,,,0
1002,5011803006426,新規,0,2024-08-26,2024-08-26,合同会社スライブ,,合同会社,東京都,葛飾区,亀有５丁目３４－１１,,13,122,1250061,,,,,,,2024-08-26,1,,,,,スライブ,0
1005,5012401042219,新規,0,2024-08-26,2024-08-26,株式会社リノリノ,,株式会社,東京都,三鷹市,井の頭３丁目７番１１号,,13,204,1810001,,,,,,,2024-08-26,1,,,,,リノリノ,0
1006,5012403006725,新規,0,2024-08-26,2024-08-26,合同会社Ｎリアルティ,,合同会社,東京都,調布市,小島町１丁目１番地１ＵＥＣＰｏｒｔドーム友達４６０６,,13,208,1820026,,,,,,,2024-08-26,1,,,,,エヌリアルティ,0
1008,5012705002414,新規,0,2024-08-26,2024-08-26,一般社団法人フードバンクこだいら,,その他の設立登記法人,東京都,小平市,学園東町１丁目７番２４号,,13,211,1870043,,,,,,,2024-08-26,1,,,,,フードバンクコダイラ,0
1012,5013301053017,新規,0,2024-08-26,2024-08-26,ＭＯＯＮ　ＴＥＲＲＡＣＥ株式会社,,株式会社,東京都,豊島区,南大塚１丁目３１番８－１０２号,,13,116,1700005,,,,,,,2024-08-26,1,,,,,ムーンテラス,0
1013,5013301053025,新規,0,2024-08-26,2024-08-26,株式会社輪郭,,株式会社,東京都,豊島区,東池袋４丁目５番１号エアライズタワー３５０３号,,13,116,1700013,,,,,,,2024-08-26,1,,,,,リンカク,0
1014,5013303007276,新規,0,2024-08-26,2024-08-26,ＳＪ　Ａｕｔｏ合同会社,,合同会社,東京都,豊島区,南池袋１丁目９番１８号３２９号室,,13,116,1710022,,,,,,,2024-08-26,1,,,,,エスジェイオート,0
1023,5020001158673,新規,0,2024-08-26,2024-08-26,株式会社ＪＧＣ,,株式会社,神奈川県,川崎市多摩区,登戸２１３０番地２,,14,135,2140014,,,,,,,2024-08-26,1,,,,,ジェイジーシー,0
1024,5020001158707,新規,0,2024-08-26,2024-08-26,株式会社未来ウィンドウ,,株式会社,神奈川県,横浜市神奈川区,金港町５－１４クアドリフォリオ８階,,14,102,2210056,,,,,,,2024-08-26,1,,,,,ミライウィンドウ,0
1027,5020003026738,新規,0,2024-08-26,2024-08-26,リンクドユーコンサルティング合同会社,,合同会社,神奈川県,横浜市中区,矢口台４６番地５４,,14,104,2310831,,,,,,,2024-08-26,1,,,,,リンクドユーコンサルティング,0
1028,5020003026795,新規,0,2024-08-26,2024-08-26,合同会社７２,,合同会社,神奈川県,横浜市戸塚区,小雀町２３８１－２,,14,110,2440004,,,,,,,2024-08-26,1,,,,,セブンツー,0
1032,5021001083077,新規,0,2024-08-26,2024-08-26,永楽株式会社,,株式会社,神奈川県,藤沢市,南藤沢１７－１４,,14,205,2510055,,,,,,,2024-08-26,1,,,,,ナガラク,0
1036,5030001162113,新規,0,2024-08-26,2024-08-26,株式会社アクロス,,株式会社,埼玉県,三郷市,早稲田１丁目１７番地６松崎ビル３０４,,11,237,3410018,,,,,,,2024-08-26,1,,,,,アクロス,0
1037,5030001162121,新規,0,2024-08-26,2024-08-26,アネックスアイ株式会社,,株式会社,埼玉県,さいたま市南区,南浦和２丁目４５番１号グランジュール南浦和１０２,,11,108,3360017,,,,,,,2024-08-26,1,,,,,アネックスアイ,0
1039,5030003024988,新規,0,2024-08-26,2024-08-26,合同会社ＢＬＵＥＦＲＥＥ,,合同会社,埼玉県,さいたま市岩槻区,宮町２丁目１６番３３号,,11,110,3390065,,,,,,,2024-08-26,1,,,,,ブルーフリー,0
1044,5040001135092,新規,0,2024-08-26,2024-08-26,株式会社幸陽ハウジング,,株式会社,千葉県,銚子市,大橋町２番地の１６,,12,202,2880046,,,,,,,2024-08-26,1,,,,,コウヨウハウジング,0
1048,5040003025655,新規,0,2024-08-26,2024-08-26,合同会社５５Ｙ,,合同会社,千葉県,千葉市美浜区,若葉３丁目１番地１幕張ベイパークスカイグランドタワー４６０８号,,12,106,2610014,,,,,,,2024-08-26,1,,,,,ゴーゴーワイ,0
1049,5050001055307,新規,0,2024-08-26,2024-08-26,株式会社創希,,株式会社,茨城県,龍ケ崎市,佐貫町７４４番地１４,,08,208,3010033,,,,,,,2024-08-26,1,,,,,ソウキ,0
1056,5080103003111,新規,0,2024-08-26,2024-08-26,合同会社Ｓａｎｏ,,合同会社,静岡県,富士市,一色４０５番地,,22,210,4170808,,,,,,,2024-08-26,1,,,,,サノ,0
1057,5080401002590,新規,0,2024-08-26,2024-08-26,株式会社スタジオプロス,,株式会社,静岡県,浜松市中央区,下石田町１７４６番地の１,,22,138,4350006,,,,,,,2024-08-26,1,,,,,スタジオプロス,0
1060,5080401027398,新規,0,2024-08-26,2024-08-26,株式会社あいみる,,株式会社,静岡県,浜松市中央区,志都呂１丁目４５番１４号,,22,138,4328069,,,,,,,2024-08-26,1,,,,,アイミル,0
1066,5100001037786,新規,0,2024-08-26,2024-08-26,株式会社ｋｕ‐ｎｅｌ建築設計,,株式会社,長野県,南佐久郡佐久穂町,大字平林３２番地４,,20,309,3840611,,,,,,,2024-08-26,1,,,,,クーネルケンチクセッケイ,0
1076,5120001268000,新規,0,2024-08-26,2024-08-26,グローバルトレード株式会社,,株式会社,大阪府,大阪市港区,南市岡２丁目４番２５－３０６号,,27,107,5520011,,,,,,,2024-08-26,1,,,,,グローバルトレード,0
1077,5120001268017,新規,0,2024-08-26,2024-08-26,株式会社ブレイブＸ,,株式会社,大阪府,大阪市淀川区,西中島６丁目７番１１号小谷第一ビル２階,,27,123,5320011,,,,,,,2024-08-26,1,,,,,ブレイブエックス,0
1078,5120001268025,新規,0,2024-08-26,2024-08-26,ＡＲＣＡＮ株式会社,,株式会社,大阪府,門真市,四宮１丁目１番６－１０１号,,27,223,5710017,,,,,,,2024-08-26,1,,,,,アルカン,0
1083,5120003027379,新規,0,2024-08-26,2024-08-26,路加合同会社,,合同会社,大阪府,大阪市西成区,長橋３丁目６番１９号長橋ハイツ３０３号室,,27,122,5570025,,,,,,,2024-08-26,1,,,,,ルカ,0
1087,5130003009780,新規,0,2024-08-26,2024-08-26,合同会社ダルマ,,合同会社,京都府,京都市下京区,七条通油小路東入大黒町２２７番地第２キョートビル４０２,,26,106,6008223,,,,,,,2024-08-26,1,,,,,ダルマ,0
1088,5130003009814,新規,0,2024-08-26,2024-08-26,合同会社Ｊａｃａｌｉｚｅ,,合同会社,京都府,京都市上京区,今出川通室町西入堀出シ町２８３メルシーメゾネット今出川５０２,,26,102,6020931,,,,,,,2024-08-26,1,,,,,ジェイカライズ,0
1101,5180001162973,新規,0,2024-08-26,2024-08-26,株式会社アスリートホールディングス,,株式会社,愛知県,半田市,岩滑東町１丁目９２番地の１,,23,205,4750905,,,,,,,2024-08-26,1,,,,,アスリートホールディングス,0
1102,5180001162998,新規,0,2024-08-26,2024-08-26,キャリアギフト株式会社,,株式会社,愛知県,一宮市,浅野字水屋高１１８番地２,,23,203,4910871,,,,,,,2024-08-26,1,,,,,キャリアギフト,0
1103,5180001163014,新規,0,2024-08-26,2024-08-26,株式会社Ｙ．Ｕ．Ｓ,,株式会社,愛知県,一宮市,東島町２丁目２９番地,,23,203,4910074,,,,,,,2024-08-26,1,,,,,ワイユウエス,0
1106,5180003027274,新規,0,2024-08-26,2024-08-26,合同会社ＳｔｏｒｙＴａｉｌｏｒ,,合同会社,愛知県,名古屋市中村区,名駅４丁目２４番５号第２森ビル４０１,,23,105,4500002,,,,,,,2024-08-26,1,,,,,ストーリーテイラー,0
1114,5220003003816,新規,0,2024-08-26,2024-08-26,Ｌｕｃｙ合同会社,,合同会社,石川県,白山市,村井町７２６番地３,,17,210,9240032,,,,,,,2024-08-26,1,,,,,ルーシー,0
1116,5230001020498,新規,0,2024-08-26,2024-08-26,株式会社アットマーク,,株式会社,富山県,南砺市,戸板３０６番地,,16,210,9320253,,,,,,,2024-08-26,1,,,,,アットマーク,0
1122,5290001106894,新規,0,2024-08-26,2024-08-26,株式会社Ｔｈｒｅｅ　Ｒｉｎｇ,,株式会社,福岡県,福岡市博多区,博多駅前３丁目２３番２０－１００４号ウェルブライト博多ステーション,,40,132,8120011,,,,,,,2024-08-26,1,,,,,スリーリング,0
1123,5290001106928,新規,0,2024-08-26,2024-08-26,株式会社Ｋｅｋｉｎ　Ｍａｎａｇｅｍｅｎｔ,,株式会社,福岡県,福岡市中央区,平尾１丁目１０番１８－７０４号,,40,133,8100014,,,,,,,2024-08-26,1,,,,,ケーキンマネージメント,0
1124,5290001106944,新規,0,2024-08-26,2024-08-26,ＩＣＨＩＲＯ環境株式会社,,株式会社,福岡県,糟屋郡宇美町,桜原１丁目１７番２号,,40,341,8112109,,,,,,,2024-08-26,1,,,,,イチロカンキョウ,0
1128,5290801030831,新規,0,2024-08-26,2024-08-26,株式会社ｄｅｓｉｇｎ　ｍｏｎｓｔｅｒ,,株式会社,福岡県,北九州市小倉北区,京町１丁目６番２４号,,40,106,8020002,,,,,,,2024-08-26,1,,,,,デザインモンスター,0
1130,5290803004825,新規,0,2024-08-26,2024-08-26,串間崎田ウィンドファーム合同会社,,合同会社,福岡県,北九州市八幡東区,中尾１丁目１３番２１号,,40,108,8050025,,,,,,,2024-08-26,1,,,,,クシマサキダウィンドファーム,0
1132,5320003004457,新規,0,2024-08-26,2024-08-26,合同会社ＣＡＮＯＷ,,合同会社,大分県,大分市,大手町２丁目３番２３号,,44,201,8700022,,,,,,,2024-08-26,1,,,,,,0
1135,5330001032401,新規,0,2024-08-26,2024-08-26,株式会社ＫＢＫ,,株式会社,熊本県,熊本市中央区,水前寺５丁目１８番５－１号,,43,101,8620950,,,,,,,2024-08-26,1,,,,,ケイビイケイ,0
1147,5380001034748,新規,0,2024-08-26,2024-08-26,株式会社甲子開発,,株式会社,福島県,西白河郡西郷村,大字小田倉字上野原２９４番地５,,07,461,9618061,,,,,,,2024-08-26,1,,,,,カシカイハツ,0
1151,5410001013921,新規,0,2024-08-26,2024-08-26,株式会社Ｎ‐ＴＲＹ,,株式会社,秋田県,秋田市,手形字中谷地６５番地２,,05,201,0100851,,,,,,,2024-08-26,1,,,,,エヌトライ,0
1152,5450001014387,新規,0,2024-08-26,2024-08-26,株式会社ＢＢＣ,,株式会社,北海道,上川郡美瑛町,大町２丁目６番３号,,01,459,0710204,,,,,,,2024-08-26,1,,,,,ビービーシー,0
1154,5480003002172,新規,0,2024-08-26,2024-08-26,ＧＡＩＡ自然エネルギー合同会社,,合同会社,徳島県,阿南市,黒津地町山下５番地１,,36,204,7740006,,,,,,,2024-08-26,1,,,,,ガイアシゼンエネルギー,0
1166,6010001247492,新規,0,2024-08-26,2024-08-26,株式会社３ＶＩＳＩＯＮ,,株式会社,東京都,中央区,銀座１丁目２２番１１号銀座大竹ビジデンス２階,,13,102,1040061,,,,,,,2024-08-26,1,,,,,スリービジョン,0
1167,6010001247583,新規,0,2024-08-26,2024-08-26,株式会社桜井屋灯具店,,株式会社,東京都,中央区,日本橋３丁目２番１４号新槇町ビル別館第一２階,,13,102,1030027,,,,,,,2024-08-26,1,,,,,サクライヤトウグテン,0
1168,6010001247724,新規,0,2024-08-26,2024-08-26,株式会社Ｎａｙｕｔａｍ,,株式会社,東京都,中央区,晴海３丁目６番８号,,13,102,1040053,,,,,,,2024-08-26,1,,,,,ナユタム,0
1169,6010001247757,新規,0,2024-08-26,2024-08-26,株式会社中落合プロパティ,,株式会社,東京都,千代田区,内幸町２丁目１番６号,,13,101,1000011,,,,,,,2024-08-26,1,,,,,ナカオチアイプロパティ,0
1170,6010001247765,新規,0,2024-08-26,2024-08-26,株式会社みらくる,,株式会社,東京都,千代田区,外神田２丁目１２番６号パラシオン千代田６０１号,,13,101,1010021,,,,,,,2024-08-26,1,,,,,ミラクル,0
1173,6010003044673,新規,0,2024-08-26,2024-08-26,合同会社ＳＯＭＥＯＮＥ,,合同会社,東京都,中央区,日本橋室町１丁目１１－１２日本橋水野ビル７階,,13,102,1030022,,,,,,,2024-08-26,1,,,,,サムワン,0
1174,6010003044698,新規,0,2024-08-26,2024-08-26,Ｔ・Ｎ・Ｒ合同会社,,合同会社,東京都,中央区,銀座１丁目１２番４号Ｎ＆ＥＢＬＤ．６Ｆ,,13,102,1040061,,,,,,,2024-08-26,1,,,,,ティーエヌアール,0
1183,6010401184699,新規,0,2024-08-26,2024-08-26,株式会社Ｅｎｄｌｅｓｓ,,株式会社,東京都,港区,南麻布３丁目２０－１ＤＡＩＷＡ麻布テラス５Ｆ,,13,103,1060047,,,,,,,2024-08-26,1,,,,,エンドレス,0
1184,6010401184716,新規,0,2024-08-26,2024-08-26,株式会社ＨＡＫＳ,,株式会社,東京都,港区,芝浦４丁目３番４号田町きよたビル,,13,103,1080023,,,,,,,2024-08-26,1,,,,,エイチエーケーエス,0
1186,6010403033276,新規,0,2024-08-26,2024-08-26,ＳＲ　Ｃｏｒｅ合同会社,,合同会社,東京都,港区,虎ノ門５丁目１番４号,,13,103,1050001,,,,,,,2024-08-26,1,,,,,エスアールコア,0
1191,6010701046450,新規,0,2024-08-26,2024-08-26,株式会社ロマンドリーム,,株式会社,東京都,品川区,西五反田２丁目１４番１０－８０６号,,13,109,1410031,,,,,,,2024-08-26,1,,,,,ロマンドリーム,0
1193,6010903009313,新規,0,2024-08-26,2024-08-26,長野コンサルティング合同会社,,合同会社,東京都,世田谷区,成城４丁目３３番６－２０７号,,13,112,1570066,,,,,,,2024-08-26,1,,,,,ナガノコンサルティング,0
1199,6011001164133,新規,0,2024-08-26,2024-08-26,株式会社普門工,,株式会社,東京都,渋谷区,桜丘町２９－３１清桜ハイツ７０４,,13,113,1500031,,,,,,,2024-08-26,1,,,,,フモンコウ,0
1200,6011001164182,新規,0,2024-08-26,2024-08-26,ｍａｋｅ　ｕｐ株式会社,,株式会社,東京都,渋谷区,道玄坂１丁目１０番８号渋谷道玄坂東急ビル２Ｆ－Ｃ,,13,113,1500043,,,,,,,2024-08-26,1,,,,,メイクアップ,0
1201,6011001164208,新規,0,2024-08-26,2024-08-26,ＳｔｕｎＰｉｅｃｅ株式会社,,株式会社,東京都,渋谷区,渋谷２丁目１９－１５宮益坂ビルディング６０９,,13,113,1500002,,,,,,,2024-08-26,1,,,,,スタンピース,0
1203,6011003019855,新規,0,2024-08-26,2024-08-26,合同会社レンタ,,合同会社,東京都,渋谷区,神宮前６丁目２３番４号桑野ビル２階,,13,113,1500001,,,,,,,2024-08-26,1,,,,,レンタ,0
1208,6011101108584,新規,0,2024-08-26,2024-08-26,ＳＯＭＰＯ　Ｇｒｏｗｔｈ　Ｐａｒｔｎｅｒｓ株式会社,,株式会社,東京都,新宿区,西新宿１丁目２６番１号,,13,104,1600023,,,,,,,2024-08-26,1,,,,,ソンポグロウスパートナーズ,0
1216,6011501031080,新規,0,2024-08-26,2024-08-26,Ｈａｎ株式会社,,株式会社,東京都,荒川区,町屋２丁目１６番８号１０１号室,,13,118,1160001,,,,,,,2024-08-26,1,,,,,ハン,0
1218,6011601028002,新規,0,2024-08-26,2024-08-26,株式会社Ｌｉｂｅｒｔｙ,,株式会社,東京都,練馬区,関町北３丁目２０番５２号,,13,120,1770051,,,,,,,2024-08-26,1,,,,,リバティ,0
1221,6011803006425,新規,0,2024-08-26,2024-08-26,合同会社ＫＭＧＤ,,合同会社,東京都,葛飾区,西水元１丁目１８番２１号センターハウスＢ棟２０２,,13,122,1250031,,,,,,,2024-08-26,1,,,,,ケーエムジーディー,0
1224,6012403006724,新規,0,2024-08-26,2024-08-26,合同会社コーソー,,合同会社,東京都,武蔵野市,境南町２丁目２６－１７,,13,203,1800023,,,,,,,2024-08-26,1,,,,,コーソー,0
1225,6013301053016,新規,0,2024-08-26,2024-08-26,逸鳶株式会社,,株式会社,東京都,豊島区,上池袋１丁目１０番５号コスモ上池袋８０４,,13,116,1700012,,,,,,,2024-08-26,1,,,,,イチエン,0
1228,6013303007267,新規,0,2024-08-26,2024-08-26,合同会社中裕,,合同会社,東京都,豊島区,西池袋２丁目３３－１９,,13,116,1710021,,,,,,,2024-08-26,1,,,,,チュウユウ,0
1230,6020001158565,新規,0,2024-08-26,2024-08-26,株式会社ＴｏｐＯｄｅｒ,,株式会社,神奈川県,横浜市戸塚区,秋葉町２５３－２５７,,14,110,2450052,,,,,,,2024-08-26,1,,,,,トップオーダー,0
1231,6020001158573,新規,0,2024-08-26,2024-08-26,華啓未来株式会社,,株式会社,神奈川県,横浜市中区,曙町１丁目３藤和伊勢佐木ハイタウン６１５号室,,14,104,2310057,,,,,,,2024-08-26,1,,,,,カケイミライ,0
1232,6020001158664,新規,0,2024-08-26,2024-08-26,株式会社ｋａｉｐｙ,,株式会社,神奈川県,川崎市幸区,北加瀬１丁目７番１０号,,14,132,2120057,,,,,,,2024-08-26,1,,,,,カイピー,0
1233,6020001158730,新規,0,2024-08-26,2024-08-26,株式会社ＳＫＩＴ　ＡＳＳＥＴ,,株式会社,神奈川県,川崎市川崎区,京町２丁目２２番４号,,14,131,2100848,,,,,,,2024-08-26,1,,,,,スキットアセット,0
1234,6020001158739,新規,0,2024-08-26,2024-08-26,株式会社シンショウ,,株式会社,神奈川県,横浜市泉区,和泉町１４５２番地３,,14,116,2450016,,,,,,,2024-08-26,1,,,,,シンショウ,0
1240,6020003026720,新規,0,2024-08-26,2024-08-26,合同会社青東,,合同会社,神奈川県,川崎市中原区,下沼部１９１５エスペランスＲ２０２,,14,133,2110011,,,,,,,2024-08-26,1,,,,,,0
1241,6020003026761,新規,0,2024-08-26,2024-08-26,合同会社あすか医療経済研究所,,合同会社,神奈川県,横浜市西区,北幸２丁目１０番４８号むつみビル３階,,14,103,2200004,,,,,,,2024-08-26,1,,,,,アスカイリョウケイザイケンキュウジョ,0
1245,6021001082879,新規,0,2024-08-26,2024-08-26,株式会社タケトラ,,株式会社,神奈川県,藤沢市,高谷１５－１６,,14,205,2510017,,,,,,,2024-08-26,1,,,,,タケトラ,0
1251,6030001162062,新規,0,2024-08-26,2024-08-26,茶々株式会社,,株式会社,埼玉県,川口市,西川口４丁目１５番１号福山ビル３０２号,,11,203,3320021,,,,,,,2024-08-26,1,,,,,チャチャ,0
1252,6030001162112,新規,0,2024-08-26,2024-08-26,株式会社シー・エフ・エル,,株式会社,埼玉県,越谷市,赤山町２丁目６番地１芙蓉アクティス越谷４０２,,11,222,3430807,,,,,,,2024-08-26,1,,,,,シーエフエル,0
1254,6030003024987,新規,0,2024-08-26,2024-08-26,合同会社Ａｔｏｍ,,合同会社,埼玉県,狭山市,狭山２３番８号ラディエンス奥野１０４,,11,215,3501334,,,,,,,2024-08-26,1,,,,,アトム,0
1262,6040005022476,新規,0,2024-08-26,2024-08-26,一般社団法人なでこＨＤ,,その他の設立登記法人,千葉県,松戸市,馬橋１４４７番地,,12,207,2710051,,,,,,,2024-08-26,1,,,,,ナデコホールディングス,0
1268,6070003005554,新規,0,2024-08-26,2024-08-26,合同会社英商会,,合同会社,群馬県,太田市,高林南町６１５番地２９,,10,205,3730827,,,,,,,2024-08-26,1,,,,,ハナブサショウカイ,0
1274,6100001037802,新規,0,2024-08-26,2024-08-26,グッドデジタル株式会社,,株式会社,長野県,長野市,大字鶴賀権堂町２３１２－１,,20,201,3800833,,,,,,,2024-08-26,1,,,,,グッドデジタル,0
1290,6120001268040,新規,0,2024-08-26,2024-08-26,株式会社Ｅｎｔｒｏｐｉｅ,,株式会社,大阪府,大阪市城東区,鴫野西５丁目１５－７－３Ｆ、Ｒｅ：ＺＯＮＥ鴫野０１,,27,118,5360014,,,,,,,2024-08-26,1,,,,,エントロピー,0
1293,6120003027361,新規,0,2024-08-26,2024-08-26,合同会社はる,,合同会社,大阪府,大阪市東住吉区,山坂５丁目１番５号,,27,121,5460035,,,,,,,2024-08-26,1,,,,,ハル,0
1294,6120003027378,新規,0,2024-08-26,2024-08-26,牟礼ヶ岡風力発電合同会社,,合同会社,大阪府,大阪市住之江区,南港北２丁目１番１０号,,27,125,5590034,,,,,,,2024-08-26,1,,,,,ムレガオカフウリョクハツデン,0
1298,6120101070180,新規,0,2024-08-26,2024-08-26,株式会社Ｋ．ＬＡＢ,,株式会社,大阪府,泉南郡岬町,淡輪９５３番地の７マリノワビル１階,,27,366,5990301,,,,,,,2024-08-26,1,,,,,ケーラボ,0
1299,6120101070189,新規,0,2024-08-26,2024-08-26,株式会社ＳＥＫＡＳＨＩＧ０,,株式会社,大阪府,堺市堺区,新在家町東１丁１番２８号,,27,141,5900964,,,,,,,2024-08-26,1,,,,,セカシゴ,0
1302,6120901013074,新規,0,2024-08-26,2024-08-26,株式会社織田商店,,株式会社,大阪府,茨木市,宮島１丁目１番１号,,27,211,5670853,,,,,,,2024-08-26,1,,,,,オリタショウテン,0
1303,6120901049655,新規,0,2024-08-26,2024-08-26,十全ライフサポート株式会社,,株式会社,大阪府,茨木市,田中町１６番５号,,27,211,5670025,,,,,,,2024-08-26,1,,,,,ジュウゼンライフサポート,0
1308,6130001077795,新規,0,2024-08-26,2024-08-26,株式会社ＹＵＵ,,株式会社,京都府,京都市南区,西九条東比永城町６５番地１Ｆ,,26,107,6018438,,,,,,,2024-08-26,1,,,,,ユウ,0
1309,6130003009796,新規,0,2024-08-26,2024-08-26,合同会社まるっぽ間人,,合同会社,京都府,京丹後市,丹後町間人１９７４,,26,212,6270201,,,,,,,2024-08-26,1,,,,,マルッポタイザ,0
1314,6140001135593,新規,0,2024-08-26,2024-08-26,株式会社Ｋ土地建物,,株式会社,兵庫県,神戸市垂水区,塩屋北町３丁目５番１３号,,28,108,6550863,,,,,,,2024-08-26,1,,,,,ケートチタテモノ,0
1315,6140001135602,新規,0,2024-08-26,2024-08-26,株式会社Ａｚｕｒｅ　Ｐｅｔａｌ,,株式会社,兵庫県,尼崎市,大島３丁目８番１９号,,28,202,6600076,,,,,,,2024-08-26,1,,,,,アズールペタル,0
1323,6180001162980,新規,0,2024-08-26,2024-08-26,ハヤマホールディングス株式会社,,株式会社,愛知県,海部郡飛島村,竹之郷４丁目１３９番地,,23,427,4901436,,,,,,,2024-08-26,1,,,,,ハヤマホールディングス,0
1327,6180003027273,新規,0,2024-08-26,2024-08-26,合同会社ＭＫＤ工業,,合同会社,愛知県,名古屋市中村区,深川町２丁目４２番地の４,,23,105,4530805,,,,,,,2024-08-26,1,,,,,エムケイディーコウギョウ,0
1328,6180301038988,新規,0,2024-08-26,2024-08-26,株式会社タブレ,,株式会社,愛知県,豊橋市,中岩田３丁目１５番地２５,,23,201,4400832,,,,,,,2024-08-26,1,,,,,タブレ,0
1337,6230003002279,新規,0,2024-08-26,2024-08-26,Ｌｕｌｕｐｅｔｉｔ合同会社,,合同会社,富山県,滑川市,追分１２２番地７,,16,206,9360808,,,,,,,2024-08-26,1,,,,,ルルペティット,0
1352,6290001106910,新規,0,2024-08-26,2024-08-26,株式会社リソースデベロップメント,,株式会社,福岡県,福岡市中央区,天神１丁目９－１７福岡天神フコク生命ビル１５階,,40,133,8100001,,,,,,,2024-08-26,1,,,,,リソースデベロップメント,0
1353,6290001106943,新規,0,2024-08-26,2024-08-26,株式会社やさか海,,株式会社,福岡県,柳川市,大和町谷垣４番地１,,40,207,8390264,,,,,,,2024-08-26,1,,,,,ヤサカウミ,0
1354,6290001106951,新規,0,2024-08-26,2024-08-26,株式会社ＴＯＨＯ,,株式会社,福岡県,久留米市,国分町１１５７番地,,40,203,8390863,,,,,,,2024-08-26,1,,,,,トウホウ,0
1355,6290001107000,新規,0,2024-08-26,2024-08-26,株式会社Ｒｉｎ,,株式会社,福岡県,福岡市城南区,友泉亭１番１１号,,40,136,8140122,,,,,,,2024-08-26,1,,,,,リン,0
1358,6290801030830,新規,0,2024-08-26,2024-08-26,株式会社Ｒｉｖｅｒ　Ｖｉｌｌａｇｅ,,株式会社,福岡県,北九州市小倉北区,上到津４丁目３番９－９０１号,,40,106,8030845,,,,,,,2024-08-26,1,,,,,リバービレッジ,0
1360,6300003002172,新規,0,2024-08-26,2024-08-26,合同会社サガカラ,,合同会社,佐賀県,佐賀市,水ヶ江２丁目８番１３号,,41,201,8400054,,,,,,,2024-08-26,1,,,,,サガカラ,0
1361,6320001020678,新規,0,2024-08-26,2024-08-26,株式会社スターダストヒルズ,,株式会社,大分県,大分市,城南南２丁目４番８号,,44,201,8700825,,,,,,,2024-08-26,1,,,,,スターダストヒルズ,0
1363,6320003004456,新規,0,2024-08-26,2024-08-26,合同会社イマニ,,合同会社,大分県,中津市,大字角木８２番地５,,44,203,8710091,,,,,,,2024-08-26,1,,,,,イマニ,0
1367,6330003010536,新規,0,2024-08-26,2024-08-26,ＫＳＭＹ合同会社,,合同会社,熊本県,熊本市西区,上代６丁目６番１号,,43,103,8600068,,,,,,,2024-08-26,1,,,,,ケイエスエムワイ,0
1371,6350003004726,新規,0,2024-08-26,2024-08-26,合同会社シトラス,,合同会社,宮崎県,都城市,上町１７街区２４号都城ビル２０１,,45,202,8850072,,,,,,,2024-08-26,1,,,,,シトラス,0
1372,6350003004734,新規,0,2024-08-26,2024-08-26,合同会社ヤダケイ,,合同会社,宮崎県,宮崎市,大字本郷北方２６５３番地４３,,45,201,8800925,,,,,,,2024-08-26,1,,,,,ヤダケイ,0
1373,6360001034113,新規,0,2024-08-26,2024-08-26,株式会社Ｊｕｓｔｉｃｅ,,株式会社,沖縄県,島尻郡座間味村,字阿嘉１２５番地,,47,354,9013311,,,,,,,2024-08-26,1,,,,,ジャスティス,0
1383,6400001016767,新規,0,2024-08-26,2024-08-26,株式会社グリッター,,株式会社,岩手県,盛岡市,つつじが丘３１番１号,,03,201,0200802,,,,,,,2024-08-26,1,,,,,グリッター,0
1387,6430001018876,新規,0,2024-08-26,2024-08-26,北日本融雪株式会社,,株式会社,北海道,札幌市東区,東雁来町３９７番地１６,,01,103,0070820,,,,,,,2024-08-26,1,,,,,キタニホンユウセツ,0
1402,6500001025840,新規,0,2024-08-26,2024-08-26,株式会社アブソリュート,,株式会社,愛媛県,松山市,山越４丁目７－２１フェニックス山越８０１号室,,38,201,7918013,,,,,,,2024-08-26,1,,,,,アブソリュート,0
1416,7010001247748,新規,0,2024-08-26,2024-08-26,日本羽藤製薬株式会社,,株式会社,東京都,文京区,千石４丁目１４番９号,,13,105,1120011,,,,,,,2024-08-26,1,,,,,ニホンハネフジセイヤク,0
1417,7010001247780,新規,0,2024-08-26,2024-08-26,株式会社ＩｎＨｏｕｓｅマネジメント,,株式会社,東京都,千代田区,岩本町２丁目１番８号ＳＯＵＳＩＡ神田ビル２階,,13,101,1010032,,,,,,,2024-08-26,1,,,,,インハウスマネジメント,0
1434,7010401184657,新規,0,2024-08-26,2024-08-26,株式会社ＨＡＫＯＢＵＮＥ,,株式会社,東京都,港区,南青山３丁目１番３６号青山丸竹ビル６Ｆ,,13,103,1070062,,,,,,,2024-08-26,1,,,,,ハコブネ,0
1435,7010401184698,新規,0,2024-08-26,2024-08-26,ＴＥＧエンターテインメント株式会社,,株式会社,東京都,港区,芝公園４丁目２番８号,,13,103,1050011,,,,,,,2024-08-26,1,,,,,ティーイージーエンターテインメント,0
1436,7010403033283,新規,0,2024-08-26,2024-08-26,ジー・エイ・ワン・レジデンス・シックス合同会社,,合同会社,東京都,港区,虎ノ門５丁目１番４号,,13,103,1050001,,,,,,,2024-08-26,1,,,,,ジーエイワンレジデンスシックス,0
1446,7010903009320,新規,0,2024-08-26,2024-08-26,２８３合同会社,,合同会社,東京都,世田谷区,砧５丁目１－１８,,13,112,1570073,,,,,,,2024-08-26,1,,,,,ツバサ,0
1452,7011001164132,新規,0,2024-08-26,2024-08-26,Ｐｅｔ　Ｓｏｃｉｅｔｙ　Ｊａｐａｎ株式会社,,株式会社,東京都,目黒区,下目黒１丁目８番１号アルコタワー７階,,13,110,1530064,,,,,,,2024-08-26,1,,,,,ペットソサイエティジャパン,0
1453,7011001164165,新規,0,2024-08-26,2024-08-26,Ｌｏｔｕｓ　Ａｄｖｉｓｏｒｙ株式会社,,株式会社,東京都,渋谷区,渋谷３丁目６番２号エクラート渋谷ビル５階,,13,113,1500002,,,,,,,2024-08-26,1,,,,,ロータスアドバイザリー,0
1454,7011001164173,新規,0,2024-08-26,2024-08-26,株式会社Ｗｉｎｄｅ,,株式会社,東京都,目黒区,下目黒１丁目１番１４号コノトラビル７Ｆ,,13,110,1530064,,,,,,,2024-08-26,1,,,,,ウィンデ,0
1455,7011003019846,新規,0,2024-08-26,2024-08-26,センダ技研合同会社,,合同会社,東京都,渋谷区,円山町５番５号Ｎａｖｉ渋谷Ｖ３階,,13,113,1500044,,,,,,,2024-08-26,1,,,,,センダギケン,0
1477,7012401042217,新規,0,2024-08-26,2024-08-26,株式会社ネオボナム,,株式会社,東京都,調布市,国領町８丁目２番地２コナ・ヴィレッジ調布国領５０９,,13,208,1820022,,,,,,,2024-08-26,1,,,,,ネオボナム,0
1478,7012403006723,新規,0,2024-08-26,2024-08-26,合同会社ローカル・エイド,,合同会社,東京都,調布市,深大寺東町６丁目１４番地１５,,13,208,1820012,,,,,,,2024-08-26,1,,,,,ローカルエイド,0
1479,7012701018420,新規,0,2024-08-26,2024-08-26,株式会社ＲＩＫＹＵ,,株式会社,東京都,西東京市,住吉町６丁目４番１５号,,13,229,2020005,,,,,,,2024-08-26,1,,,,,リキュウ,0
1481,7013301053015,新規,0,2024-08-26,2024-08-26,ＡＣＱＡ　ＤＩ　ＥＩＧＨＴ株式会社,,株式会社,東京都,豊島区,東池袋４丁目８番１号,,13,116,1700013,,,,,,,2024-08-26,1,,,,,アクアディーエイト,0
1482,7013301053023,新規,0,2024-08-26,2024-08-26,株式会社バノーラ,,株式会社,東京都,豊島区,西池袋５丁目２０番１６号,,13,116,1710021,,,,,,,2024-08-26,1,,,,,バノーラ,0
1483,7013303007274,新規,0,2024-08-26,2024-08-26,合同会社オンリーメディアネットワーク,,合同会社,東京都,豊島区,高田２丁目１８－１５パサニアガーデン目白台６１２,,13,116,1710033,,,,,,,2024-08-26,1,,,,,オンリーメディアネットワーク,0
1491,7020001158515,新規,0,2024-08-26,2024-08-26,Ｊ＆Ｋ株式会社,,株式会社,神奈川県,横浜市緑区,三保町１８０３番地１フレンズ中山２０３号室,,14,113,2260015,,,,,,,2024-08-26,1,,,,,ジェイアンドケイ,0
1492,7020001158671,新規,0,2024-08-26,2024-08-26,株式会社キーマンズ・アソシエイション,,株式会社,神奈川県,横浜市神奈川区,片倉１丁目２５番１２号ハイツ５２１－２０２号,,14,102,2210865,,,,,,,2024-08-26,1,,,,,キーマンズアソシエイション,0
1493,7020001158738,新規,0,2024-08-26,2024-08-26,株式会社ｃｈｉｌｄ　ｇｏｏｄ,,株式会社,神奈川県,川崎市幸区,南幸町３丁目９番地,,14,132,2120016,,,,,,,2024-08-26,1,,,,,チャイルドグッド,0
1494,7020001158754,新規,0,2024-08-26,2024-08-26,株式会社Ｉ．Ｔ．Ｆ,,株式会社,神奈川県,横浜市港南区,港南台１丁目２７番１１－３０７号,,14,111,2340054,,,,,,,2024-08-26,1,,,,,アイティーエフ,0
1495,7020001158779,新規,0,2024-08-26,2024-08-26,株式会社オカモトコーポレーション,,株式会社,神奈川県,川崎市川崎区,藤崎４丁目１１番１３－３０５号,,14,131,2100804,,,,,,,2024-08-26,1,,,,,オカモトコーポレーション,0
1510,7030001162128,新規,0,2024-08-26,2024-08-26,ツリーハウス株式会社,,株式会社,埼玉県,南埼玉郡宮代町,宮代台３丁目２番１号,,11,442,3450835,,,,,,,2024-08-26,1,,,,,ツリーハウス,0
1511,7030001162136,新規,0,2024-08-26,2024-08-26,株式会社ＴＳＵＭｉＫＩ,,株式会社,埼玉県,さいたま市緑区,原山１丁目３３番１０号,,11,109,3360931,,,,,,,2024-08-26,1,,,,,ツミキ,0
1517,7040003025661,新規,0,2024-08-26,2024-08-26,合同会社ＡＲＫＬＩＴＹ,,合同会社,千葉県,市原市,鶴舞３４４番地１７,,12,219,2900512,,,,,,,2024-08-26,1,,,,,アークリティ,0
1519,7040005022475,新規,0,2024-08-26,2024-08-26,一般社団法人オフィス９,,その他の設立登記法人,千葉県,市川市,八幡１丁目１７番１－３０４号,,12,203,2720021,,,,,,,2024-08-26,1,,,,,オフィスナイン,0
1523,7050003008632,新規,0,2024-08-26,2024-08-26,ＡＪＩＴＨ　ＥＮＴＥＲＰＲＩＳＥＳ合同会社,,合同会社,茨城県,筑西市,嘉家佐和１７７４番地２,,08,227,3080837,,,,,,,2024-08-26,1,,,,,アジツエンタープライセス,0
1528,7080003003283,新規,0,2024-08-26,2024-08-26,合同会社ＭＥＧＵＭＩ,,合同会社,静岡県,静岡市清水区,清地３９６番地,,22,103,4240402,,,,,,,2024-08-26,1,,,,,メグミ,0
1535,7100005013212,新規,0,2024-08-26,2024-08-26,一般社団法人わレらの学校,,その他の設立登記法人,長野県,上伊那郡飯島町,七久保１８３３－５,,20,384,3993705,,,,,,,2024-08-26,1,,,,,ワレラノガッコウ,0
1537,7110001038666,新規,0,2024-08-26,2024-08-26,株式会社ＳＡＩＧＬＯＷＴＨ,,株式会社,新潟県,長岡市,宮原１丁目３番１３号,,15,202,9400083,,,,,,,2024-08-26,1,,,,,サイグロウス,0
1543,7120001267974,新規,0,2024-08-26,2024-08-26,株式会社デイインザライフ,,株式会社,大阪府,大阪市北区,天神橋４丁目８番２７号,,27,127,5300041,,,,,,,2024-08-26,1,,,,,デイインザライフ,0
1544,7120001268007,新規,0,2024-08-26,2024-08-26,株式会社アンビリカ・ソーシャルサービス,,株式会社,大阪府,大阪市住吉区,庭井１丁目３番１５号,,27,120,5580012,,,,,,,2024-08-26,1,,,,,アンビリカソーシャルサービス,0
1545,7120001268023,新規,0,2024-08-26,2024-08-26,株式会社Ｒｅｓｏｌｕｔｅ　Ｈａｗｋ,,株式会社,大阪府,大阪市北区,梅田１丁目１番３号大阪駅前第３ビル２９階１－１－１号室,,27,127,5300001,,,,,,,2024-08-26,1,,,,,レゾリュートホーク,0
1548,7120101070171,新規,0,2024-08-26,2024-08-26,センスアール株式会社,,株式会社,大阪府,和泉市,阪本町１２６０－２,,27,219,5940052,,,,,,,2024-08-26,1,,,,,センスアール,0
1549,7120901049662,新規,0,2024-08-26,2024-08-26,近畿自動車新聞株式会社,,株式会社,大阪府,豊中市,東泉丘３丁目３番１５－３０３号,,27,203,5610861,,,,,,,2024-08-26,1,,,,,キンキジドウシャシンブン,0
1552,7122001038389,新規,0,2024-08-26,2024-08-26,株式会社ＮＯＮ‐ＢＩＬＬＹ,,株式会社,大阪府,大東市,大野１丁目２番１１号,,27,218,5740042,,,,,,,2024-08-26,1,,,,,ノンビリー,0
1556,7130001077803,新規,0,2024-08-26,2024-08-26,よしだファーム株式会社,,株式会社,京都府,宮津市,字国分８４３番地,,26,205,6292234,,,,,,,2024-08-26,1,,,,,ヨシダファーム,0
1558,7130003009812,新規,0,2024-08-26,2024-08-26,合同会社ＭａｒｋｅＯＮＥ,,合同会社,京都府,京都市下京区,七条御所ノ内北町９３,,26,106,6008861,,,,,,,2024-08-26,1,,,,,マーケワン,0
1564,7150005009619,新規,0,2024-08-26,2024-08-26,一般社団法人はちのき,,その他の設立登記法人,奈良県,香芝市,旭ケ丘３丁目２０番地２３,,29,210,6390266,,,,,,,2024-08-26,1,,,,,ハチノキ,0
1573,7180001162971,新規,0,2024-08-26,2024-08-26,株式会社ネクサス,,株式会社,愛知県,名古屋市中区,上前津２丁目１１番１７号,,23,106,4600013,,,,,,,2024-08-26,1,,,,,ネクサス,0
1584,7230003002278,新規,0,2024-08-26,2024-08-26,合同会社はぴえる,,合同会社,富山県,高岡市,長江１３９番地６,,16,202,9330959,,,,,,,2024-08-26,1,,,,,ハピエル,0
1593,7250005008940,新規,0,2024-08-26,2024-08-26,無限責任長野負債整理組合,,その他の設立登記法人,山口県,岩国市,（玖珂郡賀見畑村大字生見第４１８番地）,,35,208,7400000,,,,,,,2024-08-26,1,,,,,,0
1600,7290001106843,新規,0,2024-08-26,2024-08-26,メドテリア株式会社,,株式会社,福岡県,福岡市中央区,赤坂２丁目４番５号,,40,133,8100042,,,,,,,2024-08-26,1,,,,,メドテリア,0
1601,7290001106892,新規,0,2024-08-26,2024-08-26,萩原不動産株式会社,,株式会社,福岡県,久留米市,北野町千代島８７５番地５,,40,203,8301111,,,,,,,2024-08-26,1,,,,,ハギワラフドウサン,0
1602,7290001106918,新規,0,2024-08-26,2024-08-26,株式会社Ｉｓｏｒａ　Ｓｔｏｒｙ,,株式会社,福岡県,福岡市博多区,南本町１丁目４番１２号,,40,132,8120883,,,,,,,2024-08-26,1,,,,,イゾラストーリー,0
1605,7290803004831,新規,0,2024-08-26,2024-08-26,Ｄａｗｎｉｎｇ合同会社,,合同会社,福岡県,遠賀郡水巻町,古賀２丁目２番４号,,40,382,8070012,,,,,,,2024-08-26,1,,,,,ドーニング,0
1608,7310001019183,新規,0,2024-08-26,2024-08-26,株式会社ナチュラルスタンダード,,株式会社,長崎県,佐世保市,大和町９８７,,42,202,8571165,,,,,,,2024-08-26,1,,,,,ナチュラルスタンダード,0
1612,7320003004455,新規,0,2024-08-26,2024-08-26,合同会社ＲＥＧＩＯＮ　ＣＲＥＥＲ,,合同会社,大分県,日田市,川原町３番２１号,,44,204,8770043,,,,,,,2024-08-26,1,,,,,,0
1617,7350001019155,新規,0,2024-08-26,2024-08-26,株式会社楠木,,株式会社,宮崎県,宮崎市,橘通西２丁目７番７号アレグリアビル１階,,45,201,8800001,,,,,,,2024-08-26,1,,,,,クスノキ,0
1618,7350003004733,新規,0,2024-08-26,2024-08-26,合同会社零ＨＬＤ,,合同会社,宮崎県,宮崎市,恒久南１丁目４－１０－１０２,,45,201,8800915,,,,,,,2024-08-26,1,,,,,ゼロホールディンクス,0
1626,7420001018843,新規,0,2024-08-26,2024-08-26,エスアイプランテック株式会社,,株式会社,青森県,八戸市,大字白銀町字白浜道３４番地６,,02,203,0310822,,,,,,,2024-08-26,1,,,,,エスアイプランテック,0
1628,7430001092549,新規,0,2024-08-26,2024-08-26,株式会社ＩＭＡＧＩＮＡＴＩＯＮ　Ｘ,,株式会社,北海道,札幌市白石区,中央二条６丁目３番１－５０３号,,01,104,0030012,,,,,,,2024-08-26,1,,,,,イマジネーションエックス,0
1630,7430003016704,新規,0,2024-08-26,2024-08-26,合同会社ＯＢＵＮＥ,,合同会社,北海道,小樽市,春香町３２５‐３,,01,203,0470265,,,,,,,2024-08-26,1,,,,,オーブネ,0
1639,7700150126583,新規,0,2024-08-26,2024-08-01,ルミナーレ新体操クラブ,,その他,山形県,酒田市,浜田１丁目３－４７,,06,204,9980031,,,,,,,2024-08-01,1,,,,,ルミナーレシンタイソウクラブ,0
1642,8010001247400,新規,0,2024-08-26,2024-08-26,株式会社ベルローズ,,株式会社,東京都,千代田区,九段北１丁目１４番２１号,,13,101,1020073,,,,,,,2024-08-26,1,,,,,ベルローズ,0
1643,8010001247689,新規,0,2024-08-26,2024-08-26,株式会社無垠海岸,,株式会社,東京都,文京区,千駄木３丁目４４番１０号,,13,105,1130022,,,,,,,2024-08-26,1,,,,,ムギンカイガン,0
1644,8010001247730,新規,0,2024-08-26,2024-08-26,ＹＯＮＡＧＵＮＩ株式会社,,株式会社,東京都,中央区,勝どき１丁目３番１－２６０１号,,13,102,1040054,,,,,,,2024-08-26,1,,,,,ヨナグニ,0
1645,8010001247747,新規,0,2024-08-26,2024-08-26,株式会社リズムトレンド,,株式会社,東京都,中央区,新川１丁目３番２１号,,13,102,1040033,,,,,,,2024-08-26,1,,,,,リズムトレンド,0
1648,8010005038696,新規,0,2024-08-26,2024-08-26,カメリア一般社団法人,,その他の設立登記法人,東京都,中央区,銀座１丁目６番１１号アースタックス税理士法人内,,13,102,1040061,,,,,,,2024-08-26,1,,,,,カメリア,0
1660,8010601065805,新規,0,2024-08-26,2024-08-26,日本創新技術株式会社,,株式会社,東京都,墨田区,千歳３丁目６番５号３０１室プロス森下,,13,107,1300025,,,,,,,2024-08-26,1,,,,,ニホンソウシンギジュツ,0
1664,8010901055860,新規,0,2024-08-26,2024-08-26,ＲＡＤＩＳＨ株式会社,,株式会社,東京都,世田谷区,松原３丁目４２番１号クラウンズコート１Ｆ,,13,112,1560043,,,,,,,2024-08-26,1,,,,,ラディッシュ,0
1675,8011001164131,新規,0,2024-08-26,2024-08-26,クライムファクトリー株式会社,,株式会社,東京都,渋谷区,恵比寿４丁目２０－３恵比寿ガーデンプレイスタワー１８階,,13,113,1500013,,,,,,,2024-08-26,1,,,,,クライムファクトリー,0
1676,8011001164156,新規,0,2024-08-26,2024-08-26,株式会社ＰＬＡＴＨ,,株式会社,東京都,渋谷区,代々木２丁目２３－１ニューステイトメナー３５０,,13,113,1510053,,,,,,,2024-08-26,1,,,,,プラス,0
1677,8011001164206,新規,0,2024-08-26,2024-08-26,ＥＴＥＲＮＩＴＹ株式会社,,株式会社,東京都,渋谷区,富ヶ谷１丁目１４番１４号スタンフォードアネックスビル４Ｆ,,13,113,1510063,,,,,,,2024-08-26,1,,,,,エターニティ,0
1696,8011603004437,新規,0,2024-08-26,2024-08-26,ココグレイス合同会社,,合同会社,東京都,練馬区,光が丘２丁目８番２－１００６号,,13,120,1790072,,,,,,,2024-08-26,1,,,,,ココグレイス,0
1699,8011801044747,新規,0,2024-08-26,2024-08-26,株式会社中村工業,,株式会社,東京都,足立区,椿２丁目６番８号,,13,121,1230871,,,,,,,2024-08-26,1,,,,,ナカムラコウギョウ,0
1702,8012801023419,新規,0,2024-08-26,2024-08-26,株式会社ＣＹＢＥＲ　Ｇ,,株式会社,東京都,国分寺市,本町２丁目１２番２号,,13,214,1850012,,,,,,,2024-08-26,1,,,,,サイバージー,0
1705,8013301053022,新規,0,2024-08-26,2024-08-26,スマートルーム株式会社,,株式会社,東京都,豊島区,東池袋４丁目２４番１３号,,13,116,1700013,,,,,,,2024-08-26,1,,,,,スマートルーム,0
1706,8013301053030,新規,0,2024-08-26,2024-08-26,グランドイクオリティ株式会社,,株式会社,東京都,豊島区,東池袋１丁目３３番４号ニュー池袋ハイツ２１２号室,,13,116,1700013,,,,,,,2024-08-26,1,,,,,グランドイクオリティ,0
1707,8013303007273,新規,0,2024-08-26,2024-08-26,ＧＲＥＡＴ　ＭＯＭ＆ＤＡＤ合同会社,,合同会社,東京都,豊島区,北大塚３丁目２０番１８号ユースワル大塚３０８,,13,116,1700004,,,,,,,2024-08-26,1,,,,,グレードマムアンドディヤド,0
1711,8020001158638,新規,0,2024-08-26,2024-08-26,株式会社Ｄｉａｎｇｅ,,株式会社,神奈川県,横浜市青葉区,美しが丘４丁目５－２,,14,117,2250002,,,,,,,2024-08-26,1,,,,,ディアンジュ,0
1712,8020001158646,新規,0,2024-08-26,2024-08-26,株式会社Ｌａｕｇｈ　Ｔａｌｅ,,株式会社,神奈川県,横浜市都筑区,牛久保１丁目１３番１１号１０２,,14,118,2240012,,,,,,,2024-08-26,1,,,,,ラフテル,0
1713,8020001158662,新規,0,2024-08-26,2024-08-26,ＩＳ建設株式会社,,株式会社,神奈川県,横浜市鶴見区,東寺尾６丁目５番１３－３号,,14,101,2300077,,,,,,,2024-08-26,1,,,,,アイエスケンセツ,0
1714,8020001158712,新規,0,2024-08-26,2024-08-26,株式会社タカベル,,株式会社,神奈川県,横浜市神奈川区,三ツ沢上町７番８号ハイツジュネス２０３,,14,102,2210856,,,,,,,2024-08-26,1,,,,,タカベル,0
1715,8020001158737,新規,0,2024-08-26,2024-08-26,ＥＯＣ事業準備株式会社,,株式会社,神奈川県,横浜市西区,みなとみらい２丁目２番１号,,14,103,2200012,,,,,,,2024-08-26,1,,,,,イーオーシージギョウジュンビ,0
1718,8020003026702,新規,0,2024-08-26,2024-08-26,合同会社ＤＵＯＬＯＧＹ,,合同会社,神奈川県,横浜市中区,打越６９番地３４,,14,104,2310867,,,,,,,2024-08-26,1,,,,,デュオロジー,0
1745,8040003025660,新規,0,2024-08-26,2024-08-26,合同会社オルスペリ,,合同会社,千葉県,柏市,逆井１１９５番地３コーポ逆井１０５号,,12,217,2770042,,,,,,,2024-08-26,1,,,,,オルスペリ,0
1746,8040003025685,新規,0,2024-08-26,2024-08-26,合同会社Ｐｒｏｍｏｔｉｚｅ,,合同会社,千葉県,流山市,南流山５丁目１２－４,,12,220,2700163,,,,,,,2024-08-26,1,,,,,プロモタイズ,0
1747,8040005022474,新規,0,2024-08-26,2024-08-26,一般社団法人ブリリアプロ,,その他の設立登記法人,千葉県,市川市,八幡１丁目１７番１－３０４号,,12,203,2720021,,,,,,,2024-08-26,1,,,,,ブリリアプロ,0
1755,8080102010048,新規,0,2024-08-26,2024-08-26,有限会社くさび企画,,有限会社,静岡県,三島市,谷田１４４３番地の４,,22,206,4110801,,,,,,,2024-08-26,1,,,,,クサビキカク,0
1760,8090001018876,新規,0,2024-08-26,2024-08-26,株式会社理音,,株式会社,山梨県,甲府市,南口町３番５号,,19,201,4000863,,,,,,,2024-08-26,1,,,,,リオン,0
1761,8090003002630,新規,0,2024-08-26,2024-08-26,合同会社ＴＯカンパニー,,合同会社,山梨県,山梨市,小原東２５－１,,19,205,4050005,,,,,,,2024-08-26,1,,,,,ティーオーカンパニー,0
1772,8120001268014,新規,0,2024-08-26,2024-08-26,株式会社アトリエモミジ,,株式会社,大阪府,大阪市都島区,中野町５丁目３番１６号,,27,102,5340027,,,,,,,2024-08-26,1,,,,,アトリエモミジ,0
1773,8120001268039,新規,0,2024-08-26,2024-08-26,株式会社ｓｔａｔｔ,,株式会社,大阪府,大阪市西区,南堀江２丁目９番７号,,27,106,5500015,,,,,,,2024-08-26,1,,,,,スタット,0
1774,8120003027392,新規,0,2024-08-26,2024-08-26,フジショウ合同会社,,合同会社,大阪府,大阪市天王寺区,玉造元町１０番９,,27,109,5430014,,,,,,,2024-08-26,1,,,,,フジショウ,0
1776,8120103006024,新規,0,2024-08-26,2024-08-26,合同会社コスモ不動産,,合同会社,大阪府,和泉市,池上町１丁目４番１号ラ・フォーレ池上２Ｄ,,27,219,5940083,,,,,,,2024-08-26,1,,,,,コスモフドウサン,0
1778,8122001038388,新規,0,2024-08-26,2024-08-26,株式会社ＫＴＣ,,株式会社,大阪府,八尾市,山本高安町２丁目１３番４５号プラザハピネス高安１０８号,,27,212,5810021,,,,,,,2024-08-26,1,,,,,ケイティーシー,0
1784,8140001135609,新規,0,2024-08-26,2024-08-26,瑞豊株式会社,,株式会社,兵庫県,神戸市兵庫区,福原町２６－５,,28,105,6520036,,,,,,,2024-08-26,1,,,,,ズイホウ,0
1789,8160003003274,新規,0,2024-08-26,2024-08-26,フリーフライト合同会社,,合同会社,滋賀県,大津市,粟津町４－７石山駅前近江鉄道ビル５ＦｂｉｌｌａｇｅＯＴＳＵ１０３号室,,25,201,5200832,,,,,,,2024-08-26,1,,,,,フリーフライト,0
1797,8180001163003,新規,0,2024-08-26,2024-08-26,株式会社大福,,株式会社,愛知県,名古屋市東区,東桜２丁目１２番１号東桜スカイハイツ９０３号,,23,102,4610005,,,,,,,2024-08-26,1,,,,,ダイフク,0
1801,8180301038994,新規,0,2024-08-26,2024-08-26,株式会社Ｔ＆Ｔ,,株式会社,愛知県,豊田市,五ケ丘７丁目３番地２,,23,211,4710814,,,,,,,2024-08-26,1,,,,,ティーアンドティー,0
1820,8270003001663,新規,0,2024-08-26,2024-08-26,合同会社ぴかぴか,,合同会社,鳥取県,鳥取市,東今在家５８－２５,,31,201,6800852,,,,,,,2024-08-26,1,,,,,ピカピカ,0
1828,8290001106909,新規,0,2024-08-26,2024-08-26,株式会社ＩｍＵ,,株式会社,福岡県,福岡市中央区,清川２丁目６番３号,,40,133,8100005,,,,,,,2024-08-26,1,,,,,アイミュー,0
1829,8290001106966,新規,0,2024-08-26,2024-08-26,株式会社Ｌｕａｎ．,,株式会社,福岡県,久留米市,東合川７丁目９番５－３０２号,,40,203,8390809,,,,,,,2024-08-26,1,,,,,ルアンドット,0
1830,8290001107015,新規,0,2024-08-26,2024-08-26,株式会社２１,,株式会社,福岡県,福岡市博多区,中洲４丁目７番８号ラ・パピヨンビル２ＦＡ号室,,40,132,8100801,,,,,,,2024-08-26,1,,,,,トゥエンティワン,0
1837,8290003015711,新規,0,2024-08-26,2024-08-26,合同会社Ｍｉｅｕｘ,,合同会社,福岡県,福岡市中央区,天神４丁目６－２８天神ファーストビル７階,,40,133,8100001,,,,,,,2024-08-26,1,,,,,,0
1840,8300001013888,新規,0,2024-08-26,2024-08-26,株式会社Ｔ‐ＷｏｒＸ,,株式会社,佐賀県,佐賀市,金立町大字千布３５０３番地２,,41,201,8490905,,,,,,,2024-08-26,1,,,,,ティーワークス,0
1841,8310003004851,新規,0,2024-08-26,2024-08-26,合同会社ファームもり,,合同会社,長崎県,島原市,柏野町３２４６番地６,,42,203,8550064,,,,,,,2024-08-26,1,,,,,ファームモリ,0
1865,8490001010859,新規,0,2024-08-26,2024-08-26,株式会社アールデザインハウス,,株式会社,高知県,高知市,一宮東町１丁目１７番２５号,,39,201,7818132,,,,,,,2024-08-26,1,,,,,アールデザインハウス,0
1867,8700150126855,新規,0,2024-08-26,2024-08-26,Ｎｉｎｇｂｏ　Ａｕｄｉｔｏｒｙｗｏｒｋｓ　Ｃｏ．，Ｌｔｄ．,,外国会社等,,,,,,,,（３－３１４）Ｎｏ．２２９，Ｌｉｎｇｑｉａｏ　Ｒｏａｄ，Ｈａｉｓｈｕ　Ｄｉｓｔｒｉｃｔ，Ｎｉｎｇｂｏ，Ｚｈｅｊｉａｎｇ　ＣＮ　３１５０００,,,,,,2024-08-26,1,,,,,ニンボオーディトリーワークスカンパニーリミテッド,0
1874,9010001247606,新規,0,2024-08-26,2024-08-26,株式会社ＧＩＮＺＡビューティーラボ,,株式会社,東京都,千代田区,東神田１丁目１５番９号,,13,101,1010031,,,,,,,2024-08-26,1,,,,,ギンザビューティーラボ,0
1875,9010001247688,新規,0,2024-08-26,2024-08-26,株式会社Ｔｏｍｏｒｒｏｗ　Ｒｅｓｅａｒｃｈ,,株式会社,東京都,千代田区,九段南１丁目５番６号りそな九段ビル５Ｆ・ＫＳフロア,,13,101,1020074,,,,,,,2024-08-26,1,,,,,トゥモローリサーチ,0
1876,9010001247779,新規,0,2024-08-26,2024-08-26,株式会社ｒｅＢＯＮ,,株式会社,東京都,千代田区,神田和泉町１番地６－１６ヤマトビル４０５,,13,101,1010024,,,,,,,2024-08-26,1,,,,,リボン,0
1889,9010401184671,新規,0,2024-08-26,2024-08-26,Ｓｐｅｅｄｙ株式会社,,株式会社,東京都,港区,虎ノ門１丁目１７番１号虎ノ門ヒルズビジネスタワー１５階,,13,103,1050001,,,,,,,2024-08-26,1,,,,,スピーディー,0
1892,9010403033298,新規,0,2024-08-26,2024-08-26,アマリリス９合同会社,,合同会社,東京都,港区,西新橋１丁目２番９号メンターキャピタル税理士法人内,,13,103,1050003,,,,,,,2024-08-26,1,,,,,アマリリスナイン,0
1895,9010601065804,新規,0,2024-08-26,2024-08-26,ピナクルプロパティーズ株式会社,,株式会社,東京都,江東区,亀戸５丁目３２番３号川久保ビル１０１号室,,13,108,1360071,,,,,,,2024-08-26,1,,,,,ピナクルプロパティーズ,0
1904,9011001164114,新規,0,2024-08-26,2024-08-26,株式会社ＭａｎｍａｒｕＡＩ,,株式会社,東京都,渋谷区,渋谷２丁目１９－１５宮益坂ビルディング６０９,,13,113,1500002,,,,,,,2024-08-26,1,,,,,マンマルエーアイ,0
1905,9011001164254,新規,0,2024-08-26,2024-08-26,株式会社エスラボ,,株式会社,東京都,渋谷区,猿楽町９番５号－５１６号,,13,113,1500033,,,,,,,2024-08-26,1,,,,,エスラボ,0
1906,9011003019852,新規,0,2024-08-26,2024-08-26,合同会社Ｙｏｕｎｇｓｔｏｎｅ　Ｍｕｓｉｃ　ｉｎｃ．,,合同会社,東京都,渋谷区,道玄坂１丁目１０番８号渋谷道玄坂東急ビル２Ｆ－Ｃ,,13,113,1500043,,,,,,,2024-08-26,1,,,,,ヤングストーンミュージック,0
1916,9011302017508,新規,0,2024-08-26,2024-08-26,有限会社樺沢工務店,,有限会社,東京都,杉並区,堀ノ内２丁目３７番２号,,13,115,1660013,,,,,,,2024-08-26,1,,,,,カバサワコウムテン,0
1924,9011503006193,新規,0,2024-08-26,2024-08-26,合同会社プログレス,,合同会社,東京都,北区,浮間２丁目１６番１１－９０２号,,13,117,1150051,,,,,,,2024-08-26,1,,,,,プログレス,0
1930,9011703003949,新規,0,2024-08-26,2024-08-26,Ｓｌａｉｎｔｅ合同会社,,合同会社,東京都,江戸川区,春江町３丁目３５番１９号,,13,123,1320003,,,,,,,2024-08-26,1,,,,,スランチャ,0
1936,9020001158661,新規,0,2024-08-26,2024-08-26,株式会社Ｓｕｒｔｅｅｓ,,株式会社,神奈川県,横浜市港南区,港南５丁目１６番８号,,14,111,2330003,,,,,,,2024-08-26,1,,,,,サーティース,0
1937,9020001158711,新規,0,2024-08-26,2024-08-26,株式会社かとう商店,,株式会社,神奈川県,横浜市南区,南吉田町５丁目４１番地１ポートハイム第七吉野町９０４,,14,105,2320012,,,,,,,2024-08-26,1,,,,,カトウショウテン,0
1938,9020001158868,新規,0,2024-08-26,2024-08-26,ＭＫＫビジネスプラス株式会社,,株式会社,神奈川県,川崎市川崎区,大川町２番１号,,14,131,2100858,,,,,,,2024-08-26,1,,,,,エムケーケービジネスプラス,0
1942,9020003026627,新規,0,2024-08-26,2024-08-26,ユニテク触媒合同会社,,合同会社,神奈川県,横浜市中区,山下町２番地産業貿易センタ一ビル２階,,14,104,2310023,,,,,,,2024-08-26,1,,,,,ユニテクショクバイ,0
1943,9020003026701,新規,0,2024-08-26,2024-08-26,合同会社ライフ,,合同会社,神奈川県,横浜市西区,北幸２丁目１０番４８号むつみビル３階,,14,103,2200004,,,,,,,2024-08-26,1,,,,,ライフ,0
1944,9020003026726,新規,0,2024-08-26,2024-08-26,合同会社Ｗａｖｅ,,合同会社,神奈川県,横浜市神奈川区,鶴屋町２丁目１２－１横浜カリオカビル２Ｆ,,14,102,2210835,,,,,,,2024-08-26,1,,,,,ウェーブ,0
1946,9021003014803,新規,0,2024-08-26,2024-08-26,合同会社ＧＡＵＤＩ,,合同会社,神奈川県,小田原市,板橋５１７番地の４２,,14,206,2500034,,,,,,,2024-08-26,1,,,,,ガウディ,0
1947,9021003014927,新規,0,2024-08-26,2024-08-26,合同会社フロンティア,,合同会社,神奈川県,相模原市南区,上鶴間本町１丁目１９番８号プアメリア１０１,,14,153,2520318,,,,,,,2024-08-26,1,,,,,フロンティア,0
1976,9040003025651,新規,0,2024-08-26,2024-08-26,Ｃｏｎｓｕｌｔｉｎｇ　Ｓａｌｅｓサポート合同会社,,合同会社,千葉県,千葉市稲毛区,稲毛町５丁目３１７番地３,,12,103,2630035,,,,,,,2024-08-26,1,,,,,コンサルティングセールスサポート,0
1977,9040003025692,新規,0,2024-08-26,2024-08-26,合同会社晴風,,合同会社,千葉県,千葉市緑区,土気町１５５１番地８,,12,105,2670061,,,,,,,2024-08-26,1,,,,,ハルカゼ,0
2004,9120001267948,新規,0,2024-08-26,2024-08-26,ＴＡＩＨＯＵ　ＨＤ株式会社,,株式会社,大阪府,大阪市住之江区,平林南２丁目８番２４号,,27,125,5590025,,,,,,,2024-08-26,1,,,,,タイホウホールディングス,0
2005,9120001267972,新規,0,2024-08-26,2024-08-26,星空株式会社,,株式会社,大阪府,大阪市平野区,平野上町１丁目６番５号－３０１,,27,126,5470045,,,,,,,2024-08-26,1,,,,,ホシゾラ,0
2006,9120001268046,新規,0,2024-08-26,2024-08-26,Ｒｅｓｔ　Ｉｎｖｅｓｔｍｅｎｔ株式会社,,株式会社,大阪府,大阪市浪速区,戎本町１丁目８番３号２０１号室,,27,111,5560013,,,,,,,2024-08-26,1,,,,,レストインベストメント,0
2007,9120003027383,新規,0,2024-08-26,2024-08-26,合同会社Ｃｏｌｏｎｙ,,合同会社,大阪府,大阪市北区,梅田１丁目１－３大阪駅前第３ビル２９階１－１－１号室,,27,127,5300001,,,,,,,2024-08-26,1,,,,,コロニー,0
2009,9120101070194,新規,0,2024-08-26,2024-08-26,株式会社ｉｒｏ　ｗｏｒｋｓ,,株式会社,大阪府,富田林市,寿町１丁目１番１９－１号,,27,214,5840031,,,,,,,2024-08-26,1,,,,,アイロワークス,0
2020,9180001163002,新規,0,2024-08-26,2024-08-26,株式会社祐建,,株式会社,愛知県,知多郡東浦町,大字緒川字屋敷弐区７０番地１５,,23,442,4702102,,,,,,,2024-08-26,1,,,,,ユウケン,0
2021,9180001163010,新規,0,2024-08-26,2024-08-26,株式会社ムーンショットファクトリー,,株式会社,愛知県,春日井市,如意申町８丁目５番地１３,,23,206,4860918,,,,,,,2024-08-26,1,,,,,ムーンショットファクトリー,0
2024,9180003027270,新規,0,2024-08-26,2024-08-26,合同会社ココカラテラス,,合同会社,愛知県,稲沢市,御供所町３番地１ロイヤルコーポ生駒２０２号,,23,220,4928146,,,,,,,2024-08-26,1,,,,,ココカラテラス,0
2025,9180005020744,新規,0,2024-08-26,2024-08-26,一般財団法人岡島育英会,,その他の設立登記法人,愛知県,名古屋市中区,栄２丁目２番１７号,,23,106,4600008,,,,,,,2024-08-26,1,,,,,オカジマイクエイカイ,0
2038,9220003003829,新規,0,2024-08-26,2024-08-26,ＧＥＭＩＮＩ　ＩＮＶＥＳＴ合同会社,,合同会社,石川県,金沢市,神谷内町葵１０２番地,,17,201,9200801,,,,,,,2024-08-26,1,,,,,ゲミニインヴェスト,0
2045,9280001009236,新規,0,2024-08-26,2024-08-26,株式会社トラしゃら,,株式会社,島根県,浜田市,吉地町イ１９３番地３,,32,202,6971325,,,,,,,2024-08-26,1,,,,,トラシャラ,0
2053,9290001106916,新規,0,2024-08-26,2024-08-26,株式会社アイケイ,,株式会社,福岡県,糟屋郡志免町,別府北４丁目２番１７ー１０２号,,40,343,8112233,,,,,,,2024-08-26,1,,,,,アイケイ,0
2054,9290001106932,新規,0,2024-08-26,2024-08-26,株式会社イシイ管工,,株式会社,福岡県,久留米市,北野町中３１１５番地１０,,40,203,8301113,,,,,,,2024-08-26,1,,,,,イシイカンコウ,0
2055,9290001106965,新規,0,2024-08-26,2024-08-26,株式会社コネクト,,株式会社,福岡県,福岡市早良区,小田部２丁目３番９号,,40,137,8140032,,,,,,,2024-08-26,1,,,,,コネクト,0
2058,9290003015693,新規,0,2024-08-26,2024-08-26,合同会社高松企画設備設計,00136071,合同会社,福岡県,久留米市,東櫛原町４７７番地１セジュール東櫛原Ｃ－１１２,,40,203,8300003,,,,,,,2024-08-26,1,,,,,タカマツキカクセツビセッケイ,0
2059,9290003015710,新規,0,2024-08-26,2024-08-26,ＴＵＮＳ合同会社,,合同会社,福岡県,福岡市東区,香住ヶ丘３丁目１２番３６－２０３号グラン・シャリオ２番館,,40,131,8130003,,,,,,,2024-08-26,1,,,,,ティーユーエヌエス,0
2062,9300001013887,新規,0,2024-08-26,2024-08-26,株式会社Ｅｔｏｍａ,,株式会社,佐賀県,神埼郡吉野ヶ里町,吉田２９４６番地３９,,41,327,8420031,,,,,,,2024-08-26,1,,,,,エトマ,0
2079,9430001092547,新規,0,2024-08-26,2024-08-26,株式会社汐谷,,株式会社,北海道,札幌市白石区,東札幌三条５丁目３－５,,01,104,0030003,,,,,,,2024-08-26,1,,,,,シオヤ,0
2080,9430001092555,新規,0,2024-08-26,2024-08-26,Ａｒａｋａｗａ機工株式会社,,株式会社,北海道,札幌市北区,篠路二条２丁目２番１３号,,01,102,0028022,,,,,,,2024-08-26,1,,,,,アラカワキコウ,0
2087,9490001000025,新規,0,2024-08-26,2024-08-26,葵産業株式会社,,株式会社,高知県,高知市,本町５丁目２番１８号,,39,201,7800870,,,,,,,2024-08-26,1,,,,,,0
2091,9700150126854,新規,0,2024-08-26,2024-08-26,Ｆｏｓｈａｎ　Ａｌｐｉｃｏｏｌ　Ｈｏｌｄｉｎｇ　Ｇｒｏｕｐ　Ｃｏ．，Ｌｔｄ．,,外国会社等,,,,,,,,Ｎｏ．３，ＺｈｅｎＺｈｕ　Ｒｏａｄ，Ｙａｎｇ＿ｅ，Ｌｕｎｊｉａｏ，Ｓｈｕｎｄｅ，Ｆｏｓｈａｎ，Ｇｕａｎｇｄｏｎｇ，Ｃｈｉｎａ　５２８３０８,00136029,,,,,2024-08-26,1,,,,,フォサンアルピクールホールディンググループカンパニーリミテッド,0
2092,9700150126904,新規,0,2024-08-26,2024-08-26,伊豆沼沿岸土地改良区,,その他,宮城県,登米市,迫町新田字新穴山３０７番地,,04,212,9894601,,,,,,,2024-08-26,1,,,,,イズヌマエンガントチカイリヨウク,0
