sequenceNumber,corporateNumber,process,correct,updateDate,changeDate,name,nameImageId,kind,prefectureName,cityName,streetNumber,addressImageId,prefectureCode,cityCode,postCode,addressOutside,addressOutsideImageId,closeDate,closeCause,successorCorporateNumber,changeCause,assignmentDate,latest,enName,enPrefectureName,enCityName,enAddressOutside,furigana,hihyoji
3,1010001189491,登記記録の閉鎖等,0,2023-10-19,2023-10-06,株式会社リビング・プランナー,,株式会社,東京都,千代田区,九段南３丁目８番１０号１１階,,13,101,1020074,,,2023-10-06,清算の結了等,,,2018-02-07,1,,,,,リビングプランナー,0
11,1010005015066,登記記録の閉鎖等,0,2023-10-19,2023-10-16,Ｒｏｏｓｔｅｒ特定目的会社,,その他の設立登記法人,東京都,千代田区,平河町１丁目６番１５号シルスフィア会計事務所内,,13,101,1020093,,,2023-10-16,清算の結了等,,,2015-10-05,1,,,,,ルースター,0
37,1010502003738,登記記録の閉鎖等,0,2023-10-19,2023-10-13,有限会社近藤製缶所,,有限会社,東京都,台東区,鳥越１丁目５番４号,,13,106,1110054,,,2023-10-13,清算の結了等,,,2015-10-05,1,,,,,コンドウセイカンショ,0
63,1011001126484,登記記録の閉鎖等,0,2023-10-19,2023-10-16,株式会社木之下商事不動産,,株式会社,東京都,渋谷区,代々木２丁目２３番１－８１８号,,13,113,1510053,,,2023-10-16,清算の結了等,,,2019-02-08,1,,,,,キノシタショウジフドウサン,0
72,1011005009801,登記記録の閉鎖等,0,2023-10-19,2023-10-16,一般社団法人シャロンテックごか町,,その他の設立登記法人,東京都,目黒区,洗足２丁目１６番１９号,,13,110,1520012,,,2023-10-16,清算の結了等,,,2022-10-26,1,,,,,シャロンテックゴカマチ,0
73,1011101052218,登記記録の閉鎖等,0,2023-10-19,2023-10-16,株式会社デザインワード,,株式会社,東京都,新宿区,歌舞伎町２丁目４６番３号,,13,104,1600021,,,2023-10-16,合併による解散等,8010001232939,令和５年１０月１日東京都千代田区丸の内二丁目４番１号株式会社デザインワード（8010001232939）に合併し解散,2015-10-05,1,,,,,デザインワード,0
82,1011302008695,登記記録の閉鎖等,0,2023-10-19,2023-10-06,有限会社マヤアート,,有限会社,東京都,杉並区,浜田山１丁目２６番１２号,,13,115,1680065,,,2023-10-06,清算の結了等,,,2015-10-05,1,,,,,マヤアート,0
91,1013202003578,登記記録の閉鎖等,0,2023-10-19,2023-10-05,有限会社鈴木工業所,,有限会社,東京都,目黒区,目黒２丁目３番１号,,13,110,1530063,,,2023-10-05,清算の結了等,,,2015-10-05,1,,,,,スズキコウギョウショ,0
103,1021001032681,登記記録の閉鎖等,0,2023-10-19,2023-10-12,さがみサプライ株式会社,,株式会社,神奈川県,小田原市,成田１３２番地１,,14,206,2500862,,,2023-10-12,清算の結了等,,,2015-10-05,1,,,,,サガミサプライ,0
107,1021002020082,登記記録の閉鎖等,0,2023-10-19,2023-10-13,有限会社小島陶器,,有限会社,神奈川県,相模原市中央区,上溝５丁目１番２１号,,14,152,2520243,,,2023-10-13,清算の結了等,,,2015-10-05,1,,,,,コジマトウキ,0
109,1030001109233,登記記録の閉鎖等,0,2023-10-19,2023-10-13,華耀株式会社,,株式会社,東京都,町田市,大蔵町３３７－１,,13,209,1950062,,,2023-10-13,清算の結了等,,,2015-10-05,1,,,,,カヨウ,0
110,1030001115710,登記記録の閉鎖等,0,2023-10-19,2023-10-03,株式会社上野,,株式会社,埼玉県,久喜市,西大輪８７６番地１,,11,232,3400206,,,2023-10-03,清算の結了等,,,2016-08-03,1,,,,,ウエノ,0
113,1030002093162,登記記録の閉鎖等,0,2023-10-19,2023-10-02,有限会社伊勢屋,,有限会社,埼玉県,鶴ヶ島市,大字鶴ヶ丘６５４番地,,11,241,3502204,,,2023-10-02,清算の結了等,,,2015-10-05,1,,,,,,0
123,1030002113283,登記記録の閉鎖等,0,2023-10-19,2023-10-02,有限会社小林瓦店,,有限会社,埼玉県,熊谷市,三ヶ尻２７０８番地,,11,202,3600843,,,2023-10-02,合併による解散等,6030001084760,令和５年１０月１日埼玉県熊谷市三ケ尻２７０８番地株式会社広託（6030001084760）に合併し解散,2015-10-05,1,,,,,コバヤシカワラテン,0
135,1040001014993,登記記録の閉鎖等,0,2023-10-19,2023-10-04,日本馬事畜産株式会社,,株式会社,千葉県,習志野市,大久保２丁目７番２０号,,12,216,2750011,,,2023-10-04,清算の結了等,,,2015-10-05,1,,,,,ニホンバジチクサン,0
137,1040001063792,登記記録の閉鎖等,0,2023-10-19,2023-10-04,株式会社日本ビジネスコネクション,,株式会社,千葉県,香取市,沢２１５５番地５,,12,236,2870105,,,2023-10-04,清算の結了等,,,2015-10-05,1,,,,,ニホンビジネスコネクション,0
170,1090002002051,登記記録の閉鎖等,0,2023-10-19,2023-10-16,有限会社土屋石油,,有限会社,山梨県,甲府市,国母４丁目２番６号,,19,201,4000043,,,2023-10-16,清算の結了等,,,2015-10-05,1,,,,,ツチヤセキユ,0
172,1100002003650,登記記録の閉鎖等,0,2023-10-19,2023-10-06,有限会社ナガノ・タネ,,有限会社,長野県,長野市,伊勢宮１丁目９番１２号,,20,201,3800958,,,2023-10-06,清算の結了等,,,2015-10-05,1,,,,,ナガノタネ,0
173,1110001035909,登記記録の閉鎖等,0,2023-10-19,2023-10-12,ＤＤオペレーションズ株式会社,,株式会社,新潟県,燕市,東太田１４－３ＷＯＲＫＩＮＧ、ＨＵＢ,,15,213,9591289,,,2023-10-12,清算の結了等,,,2021-07-05,1,,,,,ディーディーオペレーションズ,0
174,1120001117185,登記記録の閉鎖等,0,2023-10-19,2023-10-06,株式会社Ｅ・Ｊコーポレーション,,株式会社,大阪府,大阪市淀川区,宮原５丁目３番２３号,,27,123,5320003,,,2023-10-06,清算の結了等,,,2015-10-05,1,,,,,イージェーコーポレーション,0
211,1160005010192,登記記録の閉鎖等,0,2023-10-19,2023-10-18,特定非営利活動法人おうみコアラ,,その他の設立登記法人,滋賀県,近江八幡市,十王町９１９ＴＷＩＮ　ＯＡＫＳ　Ａ棟１０号室,,25,204,5230063,,,2023-10-18,清算の結了等,,,2016-01-21,1,,,,,オウミコアラ,0
215,1180001012067,登記記録の閉鎖等,0,2023-10-19,2023-10-16,光城自動車株式会社,,株式会社,愛知県,名古屋市北区,辻町１丁目４４番地,00071840,23,103,4620032,,,2023-10-16,清算の結了等,,,2015-10-05,1,,,,,コウジョウジドウシャ,0
255,1290805008811,登記記録の閉鎖等,0,2023-10-19,2023-10-16,特定非営利活動法人築城モータースポーツ協会,,その他の設立登記法人,福岡県,行橋市,行事２丁目２１番１８号,,40,213,8240001,,,2023-10-16,清算の結了等,,,2016-01-22,1,,,,,ツイキモータースポーツキョウカイ,0
257,1300001000174,登記記録の閉鎖等,0,2023-10-19,2023-10-16,株式会社唐津鮮漁,,株式会社,佐賀県,佐賀市,柳町６番１８号,,41,201,8400823,,,2023-10-16,清算の結了等,,,2015-10-05,1,,,,,カラツセンギョ,0
264,1330002018106,登記記録の閉鎖等,0,2023-10-19,2023-10-11,九州設計有限会社,,有限会社,熊本県,菊池市,泗水町吉富４０番地１,,43,210,8611201,,,2023-10-11,清算の結了等,,,2015-10-05,1,,,,,キュウシュウセッケイ,0
270,1380002012343,登記記録の閉鎖等,0,2023-10-19,2023-10-11,有限会社マルコー自動車整備工場,,有限会社,福島県,郡山市,香久池２丁目１７番１０号,,07,203,9638833,,,2023-10-11,清算の結了等,,,2015-10-05,1,,,,,マルコージドウシャセイビコウジョウ,0
274,1420001012034,登記記録の閉鎖等,0,2023-10-19,2023-10-10,立崎農栄株式会社,,株式会社,青森県,十和田市,大字立崎字立崎２７番地,,02,206,0340103,,,2023-10-10,清算の結了等,,,2015-10-05,1,,,,,タチザキノウエイ,0
311,2010001205834,登記記録の閉鎖等,0,2023-10-19,2023-10-06,株式会社佐井,,株式会社,東京都,中央区,新川１丁目３番７号,,13,102,1040033,,,2023-10-06,清算の結了等,,,2019-12-10,1,,,,,サイ,0
353,2011101052217,登記記録の閉鎖等,0,2023-10-19,2023-10-16,株式会社エッセンシャル,,株式会社,東京都,新宿区,歌舞伎町２丁目４６番３号,,13,104,1600021,,,2023-10-16,合併による解散等,8010001232939,令和５年１０月１日東京都千代田区丸の内二丁目４番１号株式会社デザインワード（8010001232939）に合併し解散,2015-10-05,1,,,,,エッセンシャル,0
362,2011501019906,登記記録の閉鎖等,0,2023-10-19,2023-10-11,日暮里中央管財株式会社,,株式会社,東京都,荒川区,東日暮里６丁目１５番１号,,13,118,1160014,,,2023-10-11,清算の結了等,,,2015-10-05,1,,,,,ニッポリチュウオウカンザイ,0
366,2011601024863,登記記録の閉鎖等,0,2023-10-19,2023-10-16,ＨＩＤＲＯＧＥＮ株式会社,,株式会社,東京都,練馬区,石神井町３丁目３番３１号,,13,120,1770041,,,2023-10-16,清算の結了等,,,2021-02-17,1,,,,,ハイドロゲン,0
371,2011801005928,登記記録の閉鎖等,0,2023-10-19,2023-10-17,イソガワスタジオ株式会社,,株式会社,東京都,足立区,綾瀬７丁目２２番１１号,,13,121,1200005,,,2023-10-17,清算の結了等,,,2015-10-05,1,,,,,イソガワスタジオ,0
386,2020001054784,登記記録の閉鎖等,0,2023-10-19,2023-10-05,株式会社グリーンハーツ,,株式会社,神奈川県,横浜市保土ケ谷区,星川３丁目２１番１２号,,14,106,2400006,,,2023-10-05,清算の結了等,,,2015-10-05,1,,,,,グリーンハーツ,0
394,2021001061507,登記記録の閉鎖等,0,2023-10-19,2023-10-13,株式会社エヌプラス,,株式会社,神奈川県,大和市,大和南２丁目２番６号２０２号室,,14,213,2420016,,,2023-10-13,清算の結了等,,,2017-03-03,1,,,,,エヌプラス,0
399,2021003007573,登記記録の閉鎖等,0,2023-10-19,2023-10-11,合同会社北澤イノベーション研究所,,合同会社,神奈川県,海老名市,国分北３丁目２７番４号,,14,215,2430406,,,2023-10-11,清算の結了等,,,2018-06-11,1,,,,,キタザワイノベーションケンキュウジョ,0
402,2030001020711,登記記録の閉鎖等,0,2023-10-19,2023-10-04,ボングルー株式会社,,株式会社,埼玉県,戸田市,本町４丁目１１番１９号パールステーションビル２０３号,,11,224,3350023,,,2023-10-04,清算の結了等,,,2015-10-05,1,,,,,ボングルー,0
403,2030001038646,登記記録の閉鎖等,0,2023-10-19,2023-09-06,株式会社シモコウベプランニングオフィス,,株式会社,埼玉県,三郷市,新和５丁目１２８番地１－２０７,,11,237,3410034,,,2023-09-06,清算の結了等,,,2015-10-05,1,,,,,シモコウベプランニングオフィス,0
418,2050001007178,登記記録の閉鎖等,0,2023-10-19,2023-10-11,株式会社大貫宝飾,,株式会社,茨城県,東茨城郡大洗町,磯浜町１１８３番地,,08,309,3111301,,,2023-10-11,清算の結了等,,,2015-10-05,1,,,,,オオヌキホウショク,0
421,2060003001780,登記記録の閉鎖等,0,2023-10-19,2023-10-12,那須グリーンパワー合同会社,,合同会社,栃木県,那須塩原市,新朝日５番３５号,,09,213,3250054,,,2023-10-12,清算の結了等,,,2015-10-05,1,,,,,ナスグリーンパワー,0
429,2080101012397,登記記録の閉鎖等,0,2023-10-19,2023-10-16,株式会社あゆみ総合警備保障,,株式会社,静岡県,富士市,本市場町７３３番地,,22,210,4160954,,,2023-10-16,清算の結了等,,,2015-10-05,1,,,,,アユミソウゴウケイビホショウ,0
439,2120001023399,登記記録の閉鎖等,0,2023-10-19,2023-10-17,株式会社サイドイー,,株式会社,大阪府,大阪市天王寺区,玉造元町１６番１４号,,27,109,5430014,,,2023-10-17,清算の結了等,,,2015-10-05,1,,,,,サイドイー,0
441,2120001086339,登記記録の閉鎖等,0,2023-10-19,2023-10-17,株式会社南海工業写真社,,株式会社,大阪府,大阪市中央区,淡路町１丁目１番８号,,27,128,5410047,,,2023-10-17,清算の結了等,,,2015-10-05,1,,,,,ナンカイコウギョウシャシンシャ,0
443,2120001130550,登記記録の閉鎖等,0,2023-10-19,2023-10-10,株式会社ワイワイ,,株式会社,大阪府,大阪市中央区,南船場２丁目４番１号美貴ビル３Ｆ,,27,128,5420081,,,2023-10-10,合併による解散等,2120001150904,令和５年１０月１日大阪府枚方市春日野一丁目１番４８号株式会社友栄（2120001150904）に合併し解散,2015-10-05,1,,,,,ワイワイ,0
483,2180001135395,登記記録の閉鎖等,0,2023-10-19,2023-10-17,株式会社Ｕ‐ＳＥＩ工務店,,株式会社,愛知県,尾張旭市,庄南町１丁目９番地１,,23,226,4880823,,,2023-10-17,清算の結了等,,,2019-02-06,1,,,,,ユーセイコウムテン,0
484,2180001142094,登記記録の閉鎖等,0,2023-10-19,2023-10-12,摩塑佳株式会社,,株式会社,岐阜県,美濃市,安毛６４５番地１,,21,207,5013717,,,2023-10-12,清算の結了等,,,2020-07-20,1,,,,,モスガ,0
488,2180003001348,登記記録の閉鎖等,0,2023-10-19,2023-10-16,合資会社小河商店,,合資会社,愛知県,名古屋市北区,駒止町１丁目１６番地,,23,103,4620059,,,2023-10-16,清算の結了等,,,2015-10-05,1,,,,,オガワショウテン,0
491,2180302001544,登記記録の閉鎖等,0,2023-10-19,2023-10-05,有限会社スギウラ技研,,有限会社,愛知県,岡崎市,大平町字西上野２６番地１,,23,202,4440007,,,2023-10-05,清算の結了等,,,2015-10-05,1,,,,,スギウラギケン,0
497,2200002000406,登記記録の閉鎖等,0,2023-10-19,2023-10-18,有限会社稲垣電気工事,,有限会社,岐阜県,岐阜市,下奈良４丁目３番２３号,,21,201,5008385,,,2023-10-18,清算の結了等,,,2015-10-05,1,,,,,イナガキデンキコウジ,0
498,2200002012194,登記記録の閉鎖等,0,2023-10-19,2023-10-17,有限会社ケーエステクノ,,有限会社,岐阜県,羽島市,舟橋町２丁目９６番地,,21,209,5016302,,,2023-10-17,清算の結了等,,,2015-10-05,1,,,,,ケーエステクノ,0
537,2330002024202,登記記録の閉鎖等,0,2023-10-19,2023-10-10,有限会社米田建設,,有限会社,熊本県,下益城郡美里町,中小路１４６５番地,,43,348,8614407,,,2023-10-10,清算の結了等,,,2015-10-05,1,,,,,,0
549,2370001005645,登記記録の閉鎖等,0,2023-10-19,2023-10-13,株式会社東伸開発興業,,株式会社,宮城県,仙台市宮城野区,白鳥１丁目２番５号,,04,102,9830006,,,2023-10-13,清算の結了等,,,2015-10-05,1,,,,,トウシンカイハツコウギョウ,0
550,2380002034130,登記記録の閉鎖等,0,2023-10-19,2023-10-10,有限会社サンヒロオート,,有限会社,福島県,河沼郡会津坂下町,大字金上字辰巳８８番地１,,07,421,9696521,,,2023-10-10,清算の結了等,,,2015-10-05,1,,,,,サンヒロオート,0
573,3010001099945,登記記録の閉鎖等,0,2023-10-19,2023-10-06,株式会社グランドスラム,,株式会社,東京都,中央区,日本橋人形町２丁目１４番９号５Ａ,,13,102,1030013,,,2023-10-06,清算の結了等,,,2015-10-05,1,,,,,グランドスラム,0
616,3010501046249,登記記録の閉鎖等,0,2023-10-19,2023-10-13,株式会社ＥＪＣ,,株式会社,東京都,墨田区,江東橋１丁目１５－１ＶＯＲＴ錦糸町７階,,13,107,1300022,,,2023-10-13,清算の結了等,,,2020-09-24,1,,,,,イージェイシー,0
622,3010802011471,登記記録の閉鎖等,0,2023-10-19,2023-10-13,有限会社ハシモトクリエーション,,有限会社,東京都,大田区,池上６丁目１８番２号,,13,111,1460082,,,2023-10-13,清算の結了等,,,2015-10-05,1,,,,,ハシモトクリエーション,0
623,3010802012949,登記記録の閉鎖等,0,2023-10-19,2023-10-13,有限会社オースッドシュヴァル,,有限会社,東京都,大田区,南馬込２丁目２１番２号,,13,111,1430025,,,2023-10-13,清算の結了等,,,2015-10-05,1,,,,,オースッドシュヴァル,0
648,3011302007308,登記記録の閉鎖等,0,2023-10-19,2023-10-17,有限会社橋本時計店,,有限会社,東京都,杉並区,下井草２丁目３９番１０号,,13,115,1670022,,,2023-10-17,清算の結了等,,,2015-10-05,1,,,,,,0
656,3011605001924,登記記録の閉鎖等,0,2023-10-19,2023-10-16,一般社団法人石神井工房化計画,,その他の設立登記法人,東京都,練馬区,石神井町３丁目３番３１号モノデコール石神井公園３階,,13,120,1770041,,,2023-10-16,清算の結了等,,,2015-10-05,1,,,,,シャクジイコウボウカケイカク,0
657,3011701007610,登記記録の閉鎖等,0,2023-10-19,2023-10-05,ミサワ医科工業株式会社,,株式会社,茨城県,笠間市,長兎路１３２０番地５,,08,216,3091712,,,2023-10-05,合併による解散等,6050001012067,令和５年１０月１日茨城県小美玉市三箇８１７番地１エア・ウォーター・リアライズ株式会社（6050001012067）に合併し解散,2015-10-05,1,,,,,ミサワイカコウギョウ,0
659,3011702015579,登記記録の閉鎖等,0,2023-10-19,2023-10-11,ニューカクタス有限会社,,有限会社,東京都,江戸川区,西小岩１丁目１１番２６号,,13,123,1330057,,,2023-10-11,清算の結了等,,,2015-10-05,1,,,,,ニューカクタス,0
672,3020002095455,登記記録の閉鎖等,0,2023-10-19,2023-10-06,有限会社荒金不動産,,有限会社,神奈川県,川崎市川崎区,田町１丁目９番６号,,14,131,2100822,,,2023-10-06,清算の結了等,,,2015-10-05,1,,,,,アラガネフドウサン,0
679,3021001066001,登記記録の閉鎖等,0,2023-10-19,2023-10-11,株式会社サンテック建物管理,,株式会社,神奈川県,伊勢原市,三ノ宮８０６番地,,14,214,2591103,,,2023-10-11,清算の結了等,,,2018-11-07,1,,,,,サンテックタテモノカンリ,0
688,3030001125633,登記記録の閉鎖等,0,2023-10-19,2023-10-02,株式会社マスダック東京ばな奈ファクトリー,,株式会社,埼玉県,所沢市,小手指元町１丁目２７番地２０,,11,208,3591147,,,2023-10-02,合併による解散等,9030001024284,令和５年１０月１日埼玉県所沢市小手指元町一丁目２７番地２０株式会社マスダック（9030001024284）に合併し解散,2018-05-11,1,,,,,マスダックトウキョウバナナファクトリー,0
721,3100001009580,登記記録の閉鎖等,0,2023-10-19,2023-10-13,太陽誘電エナジーデバイス株式会社,,株式会社,福島県,西白河郡西郷村,大字米字椙山９番地３２,,07,461,9618031,,,2023-10-13,合併による解散等,3020001038480,令和５年１０月１日東京都中央区京橋二丁目７番１９号エルナー株式会社（3020001038480）に合併し解散,2015-10-05,1,,,,,タイヨウユウデンエナジーデバイス,0
723,3100001033523,登記記録の閉鎖等,0,2023-10-19,2023-10-06,株式会社ラビットトラベル,,株式会社,長野県,大町市,常盤６９０６番地５７,,20,212,3980004,,,2023-10-06,清算の結了等,,,2020-09-15,1,,,,,ラビットトラベル,0
724,3100002017087,登記記録の閉鎖等,0,2023-10-19,2023-10-06,有限会社木村商店,,有限会社,長野県,飯山市,大字常盤５４３４番地５,,20,213,3892414,,,2023-10-06,清算の結了等,,,2015-10-05,1,,,,,キムラショウテン,0
726,3110001015479,登記記録の閉鎖等,0,2023-10-19,2023-10-16,株式会社ＧＲＡＮＤ　ＣＯＭＦＯＲＴ　Ｄｅｓｉｇｎ＆Ｌｉｆｅ,,株式会社,新潟県,三条市,上須頃１４７番地１,,15,204,9550091,,,2023-10-16,清算の結了等,,,2015-10-05,1,,,,,グランドカムフォートデザインアンドライフ,0
727,3110001024331,登記記録の閉鎖等,0,2023-10-19,2023-10-16,ケミコン長岡株式会社,,株式会社,新潟県,長岡市,新産３丁目４番地１２,,15,202,9402127,,,2023-10-16,合併による解散等,4390001011391,令和５年１０月１日山形県長井市幸町１番１号ケミコンデバイス株式会社（4390001011391）に合併し解散,2015-10-05,1,,,,,ケミコンナガオカ,0
733,3120001029908,登記記録の閉鎖等,0,2023-10-19,2023-10-10,三善自動車株式会社,,株式会社,大阪府,大阪市港区,波除５丁目１３番２２号キングマンション弁天町ＩＩ１３０９号,00119209,27,107,5520001,,,2023-10-10,清算の結了等,,,2015-10-05,1,,,,,サンゼンジドウシャ,0
737,3120001204733,登記記録の閉鎖等,0,2023-10-19,2023-10-17,株式会社ファーストクラス,,株式会社,大阪府,大阪市中央区,島之内２丁目１７番１１号,,27,128,5420082,,,2023-10-17,清算の結了等,,,2017-04-07,1,,,,,ファーストクラス,0
753,3120901000208,登記記録の閉鎖等,0,2023-10-19,2023-10-04,株式会社茨木研究所,00033213,株式会社,大阪府,茨木市,学園南町１６番２４号,,27,211,5670834,,,2023-10-04,合併による解散等,1120901001653,令和５年１０月１日大阪府茨木市学園南町１６番２４号日本特殊機械株式会社（1120901001653）に合併し解散,2015-10-05,1,,,,,イバラギケンキュウショ,0
773,3180001001737,登記記録の閉鎖等,0,2023-10-19,2023-10-16,オーエー電子株式会社,,株式会社,愛知県,名古屋市名東区,高柳町２１８番,,23,115,4650034,,,2023-10-16,清算の結了等,,,2015-10-05,1,,,,,オーエーデンシ,0
776,3180001142911,登記記録の閉鎖等,0,2023-10-19,2023-10-13,株式会社ＰＣＲコーポレーション,,株式会社,愛知県,名古屋市中区,錦３丁目８番７号,,23,106,4600003,,,2023-10-13,清算の結了等,,,2020-09-25,1,,,,,ピーシーアールコーポレーション,0
792,3240001006382,登記記録の閉鎖等,0,2023-10-19,2023-10-13,多田医療器株式会社,,株式会社,広島県,広島市中区,東白島町２１番１６号,,34,101,7300004,,,2023-10-13,清算の結了等,,,2015-10-05,1,,,,,タダイリョウキ,0
803,3260002025470,登記記録の閉鎖等,0,2023-10-19,2023-10-16,有限会社守屋ハーネス,,有限会社,岡山県,笠岡市,東大戸２０５番地,,33,205,7140071,,,2023-10-16,清算の結了等,,,2015-10-05,1,,,,,モリヤハーネス,0
810,3310002008791,登記記録の閉鎖等,0,2023-10-19,2023-10-17,有限会社ワイ・テック,,有限会社,長崎県,長崎市,大浜町１５９７番地８,,42,201,8500066,,,2023-10-17,清算の結了等,,,2015-10-05,1,,,,,ワイテック,0
822,3350002007419,登記記録の閉鎖等,0,2023-10-19,2023-10-12,有限会社記念品の田中屋,,有限会社,宮崎県,宮崎市,佐土原町下那珂３６２１番地,,45,201,8800212,,,2023-10-12,清算の結了等,,,2015-10-05,1,,,,,キネンヒンノタナカヤ,0
843,4010001005497,登記記録の閉鎖等,0,2023-10-19,2023-10-06,株式会社東美社,,株式会社,東京都,千代田区,神田三崎町３丁目３番１２号,,13,101,1010061,,,2023-10-06,合併による解散等,3010001018921,令和５年１０月１日東京都千代田区神田三崎町三丁目３番１２号株式会社少年画報社（3010001018921）に合併し解散,2015-10-05,1,,,,,トウビシャ,0
851,4010003034098,登記記録の閉鎖等,0,2023-10-19,2023-10-06,合同会社青山ファンド１号,,合同会社,東京都,中央区,日本橋１丁目４番１号,,13,102,1030027,,,2023-10-06,清算の結了等,,,2021-02-08,1,,,,,アオヤマファンドイチゴウ,0
854,4010005024857,登記記録の閉鎖等,0,2023-10-19,2023-10-16,一般社団法人ＫＳＬＦ９,,その他の設立登記法人,東京都,千代田区,内幸町２丁目１番６号,,13,101,1000011,,,2023-10-16,清算の結了等,,,2016-01-19,1,,,,,ケイエスエルエフナイン,0
862,4010401093035,登記記録の閉鎖等,0,2023-10-19,2023-10-16,ＡＬＳＯＫイーグルス株式会社,,株式会社,東京都,港区,元赤坂１丁目５番３１号,,13,103,1070051,,,2023-10-16,合併による解散等,7010601039140,令和５年１０月１日東京都江東区木場二丁目１７番１２号ＡＬＳＯＫビジネスサポート株式会社（7010601039140）に合併し解散,2015-10-05,1,,,,,アルソックイーグルス,0
867,4010401159067,登記記録の閉鎖等,0,2023-10-19,2023-09-13,株式会社シャイニングスターズ,,株式会社,東京都,港区,新橋５丁目１２番１１号天翔新橋５丁目ビル９０７,,13,103,1050004,,,2023-09-13,清算の結了等,,,2021-03-25,1,,,,,シャイニングスターズ,0
882,4010405005003,登記記録の閉鎖等,0,2023-10-19,2023-10-05,特定非営利活動法人なでしこ友の会,,その他の設立登記法人,東京都,港区,高輪２丁目１６番５２パラシオン高輪４０６号,,13,103,1080074,,,2023-10-05,清算の結了等,,,2015-10-05,1,,,,,ナデシコトモノカイ,0
886,4010502005855,登記記録の閉鎖等,0,2023-10-19,2023-10-12,有限会社須賀工業所,,有限会社,東京都,台東区,台東４丁目５番５号,,13,106,1100016,,,2023-10-12,清算の結了等,,,2015-10-05,1,,,,,スガコウギョウショ,0
891,4010701010318,登記記録の閉鎖等,0,2023-10-19,2023-10-12,渡一工業株式会社,,株式会社,東京都,品川区,平塚２丁目９番３１号,,13,109,1420051,,,2023-10-12,清算の結了等,,,2015-10-05,1,,,,,ワタリイチコウギョウ,0
930,4011803003341,登記記録の閉鎖等,0,2023-10-19,2023-10-16,ＴＲ合同会社,,合同会社,東京都,葛飾区,堀切２丁目１４番１０－２０３号,,13,122,1240006,,,2023-10-16,清算の結了等,,,2018-06-26,1,,,,,ティーアール,0
935,4012402000275,登記記録の閉鎖等,0,2023-10-19,2023-10-16,有限会社泉工芸社,,有限会社,東京都,府中市,押立町４丁目１４番地の６０,,13,206,1830012,,,2023-10-16,清算の結了等,,,2015-10-05,1,,,,,,0
948,4020003013398,登記記録の閉鎖等,0,2023-10-19,2023-10-16,合同会社横浜住環境設計,,合同会社,神奈川県,川崎市川崎区,駅前本町１１番地２川崎フロンティアビル４階,,14,131,2100007,,,2023-10-16,合併による解散等,9240001051761,令和５年１０月１日広島県東広島市八本松南七丁目２８番１４号株式会社藤田住環境設計（9240001051761）に合併し解散,2017-10-10,1,,,,,ヨコハマジュウカンキョウセッケイ,0
965,4030005011572,登記記録の閉鎖等,0,2023-10-19,2023-10-02,医療法人皐月會（社団）,,その他の設立登記法人,埼玉県,比企郡小川町,大字大塚１０３番地,,11,343,3550328,,,2023-10-02,清算の結了等,,,2015-10-05,1,,,,,サツキカイシャダン,0
982,4050001000387,登記記録の閉鎖等,0,2023-10-19,2023-10-12,株式会社伊豆陶,,株式会社,茨城県,水戸市,笠原町６００番３６号,,08,201,3100852,,,2023-10-12,清算の結了等,,,2015-10-05,1,,,,,イズトウ,0
1029,4130001054383,登記記録の閉鎖等,0,2023-10-19,2023-10-02,株式会社新生,,株式会社,京都府,向日市,寺戸町渋川１５番地の１,,26,208,6170002,,,2023-10-02,合併による解散等,9130001030900,令和５年１０月１日京都府向日市寺戸町小佃１番地３株式会社純豊（9130001030900）に合併し解散,2015-10-05,1,,,,,シンセイ,0
1047,4180002081736,登記記録の閉鎖等,0,2023-10-19,2023-09-29,有限会社乙女座,,有限会社,愛知県,江南市,北野町旭２８番地,,23,217,4838176,,,2023-09-29,清算の結了等,,,2015-10-05,1,,,,,オトメザ,0
1048,4180003012095,登記記録の閉鎖等,0,2023-10-19,2023-10-10,合資会社オフィス・ビルド,,合資会社,愛知県,一宮市,松降１丁目６番１３－７０２号,,23,203,4910042,,,2023-10-10,清算の結了等,,,2015-10-05,1,,,,,オフィスビルド,0
1061,4250002006181,登記記録の閉鎖等,0,2023-10-19,2023-10-16,有限会社タケガワ,,有限会社,山口県,山陽小野田市,高千帆２丁目３５番１１号,,35,216,7560060,,,2023-10-16,清算の結了等,,,2015-10-05,1,,,,,タケガワ,0
1062,4250002016981,登記記録の閉鎖等,0,2023-10-19,2023-10-12,有限会社三文字屋,,有限会社,山口県,光市,虹ケ浜３丁目４番８号,,35,210,7430022,,,2023-10-12,清算の結了等,,,2015-10-05,1,,,,,サンモジヤ,0
1066,4270001006503,登記記録の閉鎖等,0,2023-10-19,2023-10-17,株式会社響,,株式会社,鳥取県,倉吉市,堺町３丁目７０番地,,31,203,6820885,,,2023-10-17,清算の結了等,,,2015-10-05,1,,,,,ヒビキ,0
1077,4320001012776,登記記録の閉鎖等,0,2023-10-19,2023-10-13,株式会社ファースト企画,,株式会社,大分県,日田市,三本松１丁目１２番４０号,,44,204,8770016,,,2023-10-13,清算の結了等,,,2015-10-05,1,,,,,ファーストキカク,0
1088,4340002000662,登記記録の閉鎖等,0,2023-10-19,2023-10-02,九建土木株式会社,,株式会社,福岡県,那珂川市,今光８丁目１番５号,,40,231,8111211,,,2023-10-02,合併による解散等,2290001012724,令和５年１０月１日福岡県那珂川市今光八丁目１番５号九建架線工事株式会社（2290001012724）に合併し解散,2015-10-05,1,,,,,キュウケンドボク,0
1119,4500001022410,登記記録の閉鎖等,0,2023-10-19,2023-10-17,株式会社西条動物医療センター,,株式会社,愛媛県,西条市,福武甲８１４番地３,,38,206,7930035,,,2023-10-17,清算の結了等,,,2019-12-05,1,,,,,サイジョウドウブツイリョウセンター,0
1154,5010403029861,登記記録の閉鎖等,0,2023-10-19,2023-10-05,ＲＢソーラーパセリ合同会社,,合同会社,東京都,中央区,八丁堀４丁目２番１０号ＡＯＪ税理士法人内,,13,102,1040032,,,2023-10-05,合併による解散等,8010401139338,令和５年１０月５日東京都中央区八丁堀四丁目２番１０号ＡＯＪ税理士法人内株式会社はくつる開発（8010401139338）に合併し解散,2023-04-07,1,,,,,アールビーソーラーパセリ,0
1155,5010405019308,登記記録の閉鎖等,0,2023-10-19,2023-10-06,ナイル特定目的会社,,その他の設立登記法人,東京都,港区,六本木１丁目６番１号泉ガーデンタワー,,13,103,1060032,,,2023-10-06,清算の結了等,,,2020-12-02,1,,,,,ナイル,0
1188,5011501013996,登記記録の閉鎖等,0,2023-10-19,2023-10-11,株式会社メック技研,,株式会社,東京都,北区,赤羽台１丁目３番８－９０３号,,13,117,1150053,,,2023-10-11,清算の結了等,,,2015-10-05,1,,,,,メックギケン,0
1216,5021001029121,登記記録の閉鎖等,0,2023-10-19,2023-10-12,株式会社ＮＥＸＴ,,株式会社,神奈川県,大和市,中央林間西５丁目８－１１,,14,213,2420008,,,2023-10-12,清算の結了等,,,2015-10-05,1,,,,,,0
1223,5021002006425,登記記録の閉鎖等,0,2023-10-19,2023-10-10,有限会社マスキ,,有限会社,神奈川県,藤沢市,立石１丁目１９番Ａ－２０６号,,14,205,2510872,,,2023-10-10,清算の結了等,,,2015-10-05,1,,,,,マスキ,0
1237,5040001008835,登記記録の閉鎖等,0,2023-10-19,2023-10-03,株式会社オオヤマインターナショナル,,株式会社,千葉県,千葉市稲毛区,園生町９５５番地の３６,,12,103,2630051,,,2023-10-03,清算の結了等,,,2015-10-05,1,,,,,オオヤマインターナショナル,0
1246,5040001091674,登記記録の閉鎖等,0,2023-10-19,2023-10-04,株式会社鐵建津嶋組,,株式会社,千葉県,市原市,有秋台西２丁目４番地１７,,12,219,2990125,,,2023-10-04,清算の結了等,,,2015-10-05,1,,,,,テッケンツシマグミ,0
1251,5040002041455,登記記録の閉鎖等,0,2023-10-19,2023-10-03,有限会社ハヤセ,,有限会社,千葉県,浦安市,富士見１丁目１４番４７号,,12,227,2790043,,,2023-10-03,清算の結了等,,,2015-10-05,1,,,,,ハヤセ,0
1269,5080102019595,登記記録の閉鎖等,0,2023-10-19,2023-10-17,有限会社小川設備工業,,有限会社,静岡県,伊東市,池８８９番地の６０,,22,208,4130234,,,2023-10-17,清算の結了等,,,2015-10-05,1,,,,,オガワセツビコウギョウ,0
1271,5080401000413,登記記録の閉鎖等,0,2023-10-19,2023-10-18,イケトミ熱学株式会社,,株式会社,静岡県,浜松市中区,鹿谷町２７番２６号,,22,131,4328014,,,2023-10-18,清算の結了等,,,2015-10-05,1,,,,,イケトミネツガク,0
1273,5080402010535,登記記録の閉鎖等,0,2023-10-19,2023-10-17,有限会社玄曠,,有限会社,静岡県,浜松市中区,幸１丁目１１番７号,,22,131,4338123,,,2023-10-17,清算の結了等,,,2015-10-05,1,,,,,ゲンコウ,0
1277,5110001011749,登記記録の閉鎖等,0,2023-10-19,2023-10-16,株式会社マツケン．,,株式会社,新潟県,五泉市,中川新２６番地,,15,218,9591632,,,2023-10-16,清算の結了等,,,2015-10-05,1,,,,,マツケン,0
1280,5110001031061,登記記録の閉鎖等,0,2023-10-19,2023-10-05,アーバンカースタイル株式会社,,株式会社,新潟県,新潟市北区,東栄町１丁目７番１１号,,15,101,9503323,,,2023-10-05,清算の結了等,,,2015-11-05,1,,,,,アーバンカースタイル,0
1282,5110005000946,登記記録の閉鎖等,0,2023-10-19,2023-10-16,新潟指定自動車教習所協同組合,,その他の設立登記法人,新潟県,新潟市中央区,関屋浜松町２２番地,,15,103,9518166,,,2023-10-16,清算の結了等,,,2015-10-05,1,,,,,ニイガタシテイジドウシャキョウシュウジョ,0
1283,5120001112579,登記記録の閉鎖等,0,2023-10-19,2023-10-17,株式会社道野,,株式会社,大阪府,大阪市阿倍野区,王子町４丁目３番１３号,,27,119,5450023,,,2023-10-17,清算の結了等,,,2015-10-05,1,,,,,ミチノ,0
1285,5120001154571,登記記録の閉鎖等,0,2023-10-19,2023-10-16,株式会社冨久屋,,株式会社,大阪府,大阪市中央区,南船場２丁目１１番１８号中村ビル１階,,27,128,5420081,,,2023-10-16,清算の結了等,,,2015-10-05,1,,,,,フクヤ,0
1288,5120001214128,登記記録の閉鎖等,0,2023-10-19,2023-10-16,株式会社宮内工業,,株式会社,大阪府,八尾市,安中町２丁目１番６３号,,27,212,5810085,,,2023-10-16,清算の結了等,,,2018-06-20,1,,,,,ミヤウチコウギョウ,0
1307,5122001017221,登記記録の閉鎖等,0,2023-10-19,2023-10-12,株式会社オフィスカワハラ,,株式会社,大阪府,大東市,北楠の里町１０番１８号,,27,218,5740007,,,2023-10-12,清算の結了等,,,2015-10-05,1,,,,,オフィスカワハラ,0
1308,5122001023995,登記記録の閉鎖等,0,2023-10-19,2023-10-16,株式会社ＥＮＳＥＭＥ７８９,,株式会社,東京都,渋谷区,道玄坂１丁目１０番８号渋谷道玄坂東急ビル２階－Ｃ,,13,113,1500043,,,2023-10-16,清算の結了等,,,2015-10-05,1,,,,,アンサムセットユイヌップ,0
1326,5180001124065,登記記録の閉鎖等,0,2023-10-19,2023-10-16,株式会社小久保電設,,株式会社,愛知県,名古屋市南区,芝町２４４番地の４,,23,112,4570023,,,2023-10-16,清算の結了等,,,2016-07-13,1,,,,,コクボデンセツ,0
1333,5180002076826,登記記録の閉鎖等,0,2023-10-19,2023-10-16,有限会社大洋造園土木,,有限会社,愛知県,一宮市,北今字西田面二ノ切５１番地１,,23,203,4940004,,,2023-10-16,清算の結了等,,,2015-10-05,1,,,,,タイヨウゾウエンドボク,0
1354,5280002000759,登記記録の閉鎖等,0,2023-10-19,2023-10-17,有限会社コイシ調理機,,有限会社,島根県,松江市,大海崎町４２５番地,,32,201,6900831,,,2023-10-17,清算の結了等,,,2015-10-05,1,,,,,コイシチヨウリキ,0
1358,5290002056734,登記記録の閉鎖等,0,2023-10-19,2023-10-03,有限会社若宮建材,,有限会社,福岡県,うきは市,吉井町若宮１２９番地の２,,40,225,8391311,,,2023-10-03,清算の結了等,,,2015-10-05,1,,,,,ワカミヤケンザイ,0
1414,6010001198959,登記記録の閉鎖等,0,2023-10-19,2023-10-10,ＡＣＡＳ６株式会社,,株式会社,東京都,台東区,上野５丁目１５番１４号,,13,106,1100005,,,2023-10-10,合併による解散等,6010501005103,令和５年９月３０日東京都台東区上野五丁目１５番１４号株式会社サンエス工業（6010501005103）に合併し解散,2019-03-05,1,,,,,エーシーエーエスシックス,0
1418,6010005026026,登記記録の閉鎖等,0,2023-10-19,2023-10-13,一般社団法人五条,,その他の設立登記法人,東京都,千代田区,霞が関３丁目２番５号,,13,101,1000013,,,2023-10-13,清算の結了等,,,2016-11-18,1,,,,,ゴジョウ,0
1423,6010401142599,登記記録の閉鎖等,0,2023-10-19,2023-10-02,グローム・ステイ株式会社,,株式会社,東京都,港区,赤坂１丁目１２番３２号,,13,103,1070052,,,2023-10-02,合併による解散等,7012801003743,令和５年１０月１日東京都港区赤坂一丁目１２番３２号グローム・ホールディングス株式会社（7012801003743）に合併し解散,2018-12-13,1,,,,,グロームステイ,0
1427,6010403014012,登記記録の閉鎖等,0,2023-10-19,2023-10-02,合同会社シアトル５２５,,合同会社,東京都,港区,赤坂１丁目１２番３２号,,13,103,1070052,,,2023-10-02,合併による解散等,7012801003743,令和５年１０月１日東京都港区赤坂一丁目１２番３２号グローム・ホールディングス株式会社（7012801003743）に合併し解散,2015-10-28,1,,,,,シアトルゴーニーゴー,0
1438,6010802001536,登記記録の閉鎖等,0,2023-10-19,2023-10-04,有限会社イメージトレース,,有限会社,千葉県,浦安市,猫実５丁目１番３６－４０３号,,12,227,2790004,,,2023-10-04,清算の結了等,,,2015-10-05,1,,,,,イメージトレース,0
1444,6010902004505,登記記録の閉鎖等,0,2023-10-19,2023-10-16,有限会社錦彩堂市川経師店,,有限会社,東京都,世田谷区,上野毛４丁目２３番１２号,,13,112,1580093,,,2023-10-16,清算の結了等,,,2015-10-05,1,,,,,キンサイドウイチカワケイシテン,0
1450,6011003007389,登記記録の閉鎖等,0,2023-10-19,2023-10-04,ルーツアンドビーチ合同会社,,合同会社,東京都,渋谷区,恵比寿２丁目２８－１０ＳｈｕＢＬＤＧ２５４８,,13,113,1500013,,,2023-10-04,清算の結了等,,,2017-01-30,1,,,,,ルーツアンドビーチ,0
1454,6011101067847,登記記録の閉鎖等,0,2023-10-19,2023-10-10,株式会社教育デジタルソリューションズ,,株式会社,東京都,渋谷区,道玄坂１丁目２１番１号渋谷ソラスタ１４階,,13,113,1500043,,,2023-10-10,合併による解散等,4010401088225,令和５年１０月１日東京都渋谷区道玄坂一丁目２１番１号渋谷ソラスタ１４階株式会社教育測定研究所（4010401088225）に合併し解散,2015-10-05,1,,,,,キョウイクデジタルソリューションズ,0
1459,6011102011738,登記記録の閉鎖等,0,2023-10-19,2023-10-17,有限会社保坂印刷社,00054016,有限会社,東京都,新宿区,山吹町３３６番地,,13,104,1620801,,,2023-10-17,清算の結了等,,,2015-10-05,1,,,,,ホサカインサツシャ,0
1461,6011105009457,登記記録の閉鎖等,0,2023-10-19,2023-10-10,一般社団法人ＹＫ,,その他の設立登記法人,東京都,新宿区,弁天町１０９,,13,104,1620851,,,2023-10-10,清算の結了等,,,2020-08-21,1,,,,,ワイケイ,0
1468,6011601021733,登記記録の閉鎖等,0,2023-10-19,2023-10-16,株式会社フラッツ,,株式会社,東京都,練馬区,北町５丁目９番４号,,13,120,1790081,,,2023-10-16,清算の結了等,,,2017-04-28,1,,,,,フラッツ,0
1483,6012402011741,登記記録の閉鎖等,0,2023-10-19,2023-10-13,有限会社玉川屋商店,,有限会社,東京都,調布市,西つつじケ丘１丁目２９番地１０,,13,208,1820006,,,2023-10-13,清算の結了等,,,2015-10-05,1,,,,,タマガワヤショウテン,0
1496,6021001012803,登記記録の閉鎖等,0,2023-10-19,2023-10-13,株式会社草建,,株式会社,神奈川県,相模原市中央区,矢部１丁目１番１３号,,14,152,2520232,,,2023-10-13,清算の結了等,,,2015-10-05,1,,,,,ソウケン,0
1510,6030001129045,登記記録の閉鎖等,0,2023-10-19,2023-10-13,クノールブレムゼステアリングシステムジャパン株式会社,,株式会社,埼玉県,比企郡滑川町,大字都２５番地１０,,11,341,3550812,,,2023-10-13,合併による解散等,8030001070115,令和５年１０月１日埼玉県坂戸市にっさい花みず木六丁目２２番地１クノールブレムゼ商用車システムジャパン株式会社（8030001070115）に合併し解散,2019-01-11,1,,,,,クノールブレムゼステアリングシステムジャパン,0
1521,6040001004908,登記記録の閉鎖等,0,2023-10-19,2023-10-04,千葉明治牛乳株式会社,,株式会社,千葉県,千葉市若葉区,愛生町１番地,,12,104,2640031,,,2023-10-04,清算の結了等,,,2015-10-05,1,,,,,チバメイジギュウニュウ,0
1524,6040001073960,登記記録の閉鎖等,0,2023-10-19,2023-10-03,株式会社渡辺孵卵場,,株式会社,千葉県,館山市,下真倉６８８番地,,12,205,2940048,,,2023-10-03,清算の結了等,,,2015-10-05,1,,,,,ワタナベフランジョウ,0
1535,6050002021570,登記記録の閉鎖等,0,2023-10-19,2023-10-10,太陽技術サービス有限会社,,有限会社,茨城県,つくば市,長高野６６３番地,,08,220,3003265,,,2023-10-10,清算の結了等,,,2015-10-05,1,,,,,タイヨウギジュツサービス,0
1544,6080401018875,登記記録の閉鎖等,0,2023-10-19,2023-10-18,田代電子株式会社,,株式会社,静岡県,浜松市南区,新橋町８７０番地の４６,,22,134,4328058,,,2023-10-18,清算の結了等,,,2015-10-05,1,,,,,タシロデンシ,0
1549,6100003002390,登記記録の閉鎖等,0,2023-10-19,2023-10-06,合同会社十六夜奥原社会福祉士事務所,,合同会社,長野県,北安曇郡松川村,６６６０番地８,,20,482,3998501,,,2023-10-06,清算の結了等,,,2015-10-05,1,,,,,イザヨイオクハラシャカイフクシシジムショ,0
1551,6110001004207,登記記録の閉鎖等,0,2023-10-19,2023-10-17,新潟県民エフエム放送株式会社,,株式会社,新潟県,新潟市中央区,万代２丁目１番１号,,15,103,9500088,,,2023-10-17,清算の結了等,,,2015-10-05,1,,,,,ニイガタケンミンエフエムホウソウ,0
1553,6110001022679,登記記録の閉鎖等,0,2023-10-19,2023-10-05,株式会社スターフィルド,,株式会社,新潟県,長岡市,新組町２００３番地１,,15,202,9400897,,,2023-10-05,清算の結了等,,,2015-10-05,1,,,,,スターフィルド,0
1557,6110002024823,登記記録の閉鎖等,0,2023-10-19,2023-10-17,有限会社石川建設,,有限会社,新潟県,妙高市,大字岡崎新田２０８番地の１,,15,217,9440094,,,2023-10-17,清算の結了等,,,2015-10-05,1,,,,,イシカワケンセツ,0
1578,6120101060264,登記記録の閉鎖等,0,2023-10-19,2023-10-16,ＹＯＵ－ＬＩＮＥ株式会社,,株式会社,大阪府,大阪市中央区,内本町２丁目３番８号ダイアパレスビル本町３１２号,,27,128,5400026,,,2023-10-16,清算の結了等,,,2019-07-29,1,,,,,ユーライン,0
1584,6122001036071,登記記録の閉鎖等,0,2023-10-19,2023-10-16,セカンドワイド株式会社,,株式会社,大阪府,八尾市,山本町南１丁目９－２５フウキレジデンス１０１,,27,212,5810013,,,2023-10-16,清算の結了等,,,2022-07-15,1,,,,,セカンドワイド,0
1602,6140005019033,登記記録の閉鎖等,0,2023-10-19,2023-10-12,特定非営利活動法人近畿青少年文武両道育成会源武館,,その他の設立登記法人,兵庫県,川西市,栄根２丁目６番３６号,,28,217,6660021,,,2023-10-12,清算の結了等,,,2015-10-05,1,,,,,キンキセイショウネンブンブリョウドウイクセイカイゲンブカン,0
1608,6180001051250,登記記録の閉鎖等,0,2023-10-19,2023-10-12,株式会社ミーノ,,株式会社,愛知県,名古屋市昭和区,長戸町４丁目４０番地,,23,107,4660848,,,2023-10-12,清算の結了等,,,2015-10-05,1,,,,,ミーノ,0
1619,6190001004364,登記記録の閉鎖等,0,2023-10-19,2023-10-16,株式会社濱矢建材,,株式会社,三重県,南牟婁郡御浜町,大字阿田和５１２２番地７,,24,561,5195204,,,2023-10-16,清算の結了等,,,2015-10-05,1,,,,,ハマヤケンザイ,0
1620,6200001012225,登記記録の閉鎖等,0,2023-10-19,2023-10-17,ケイテクニカル株式会社,,株式会社,岐阜県,羽島市,舟橋町２丁目９６番地,,21,209,5016302,,,2023-10-17,清算の結了等,,,2015-10-05,1,,,,,ケイテクニカル,0
1623,6210002003866,登記記録の閉鎖等,0,2023-10-19,2023-10-12,有限会社山下製餡所,,有限会社,福井県,福井市,中央２丁目７番４号,,18,201,9100006,,,2023-10-12,清算の結了等,,,2015-10-05,1,,,,,ヤマシタセイアンショ,0
1624,6210003001183,登記記録の閉鎖等,0,2023-10-19,2023-10-12,ＣＰサポート合同会社,,合同会社,福井県,福井市,門前２丁目１２０６－１,,18,201,9188021,,,2023-10-12,清算の結了等,,,2019-09-09,1,,,,,シーピーサポート,0
1625,6220002001407,登記記録の閉鎖等,0,2023-10-19,2023-10-17,有限会社えがわ,,有限会社,石川県,金沢市,西念４丁目１２番２１号,,17,201,9200024,,,2023-10-17,清算の結了等,,,2015-10-05,1,,,,,エガワ,0
1636,6290001085923,登記記録の閉鎖等,0,2023-10-19,2023-10-02,ＮＣＢキャピタルインベストメント株式会社,,株式会社,福岡県,福岡市博多区,下川端町２番１号,,40,132,8120027,,,2023-10-02,合併による解散等,2290001068733,令和５年９月３０日福岡市博多区下川端町２番１号ＮＣＢキャピタル株式会社（2290001068733）に合併し解散,2019-07-18,1,,,,,エヌシービーキャピタルインベストメント,0
1649,6330001018317,登記記録の閉鎖等,0,2023-10-19,2023-10-05,株式会社ＳＣＲＥＥＮ　ＭＦＧサービス,,株式会社,京都府,京都市上京区,堀川通寺之内上る４丁目天神北町１番地の１,,26,102,6020087,,,2023-10-05,清算の結了等,,,2015-10-05,1,,,,,スクリーンエムエフジーサービス,0
1661,6380002030357,登記記録の閉鎖等,0,2023-10-19,2023-10-11,有限会社ヒロ企画,,有限会社,福島県,双葉郡富岡町,大字本岡字王塚５５６番地,,07,543,9791151,,,2023-10-11,清算の結了等,,,2015-10-05,1,,,,,ヒロキカク,0
1663,6410002014075,登記記録の閉鎖等,0,2023-10-19,2023-10-11,西根木材有限会社,,有限会社,秋田県,北秋田市,阿仁幸屋渡字高畑岱８６番地１,,05,213,0184742,,,2023-10-11,清算の結了等,,,2023-05-08,1,,,,,ニシネモクザイ,0
1735,7010602009290,登記記録の閉鎖等,0,2023-10-19,2023-10-11,有限会社栄光堂紙工,,有限会社,東京都,墨田区,石原３丁目１３番７号,,13,107,1300011,,,2023-10-11,清算の結了等,,,2015-10-05,1,,,,,エイコウドウシコウ,0
1736,7010602013219,登記記録の閉鎖等,0,2023-10-19,2023-10-11,有限会社中沢桐鋸屑工業所,00051689,有限会社,東京都,墨田区,石原４丁目１３番４号,,13,107,1300011,,,2023-10-11,清算の結了等,,,2015-10-05,1,,,,,ナカザワキリオガクズコウギョウショ,0
1760,7011402010174,登記記録の閉鎖等,0,2023-10-19,2023-10-16,有限会社ジーティ大西,,有限会社,東京都,板橋区,志村２丁目２３番４号ドエルアルス志村坂上２０８号,,13,119,1740056,,,2023-10-16,清算の結了等,,,2015-10-05,1,,,,,ジーティーオオニシ,0
1791,7030001032438,登記記録の閉鎖等,0,2023-10-19,2023-10-04,株式会社アミューズ,,株式会社,埼玉県,加須市,諏訪１丁目１２番２号,,11,210,3470061,,,2023-10-04,清算の結了等,,,2015-10-05,1,,,,,アミューズ,0
1806,7030002029326,登記記録の閉鎖等,0,2023-10-19,2023-10-04,有限会社竿神,,有限会社,埼玉県,所沢市,大字荒幡７２９番地６,,11,208,3591133,,,2023-10-04,清算の結了等,,,2015-10-05,1,,,,,サオシン,0
1810,7040001029565,登記記録の閉鎖等,0,2023-10-19,2023-10-02,株式会社三和ハウス,,株式会社,千葉県,浦安市,堀江１丁目３５番２０号,,12,227,2790041,,,2023-10-02,清算の結了等,,,2015-10-05,1,,,,,サンワハウス,0
1826,7050001024788,登記記録の閉鎖等,0,2023-10-19,2023-09-15,株式会社ＡＳＯ　ＩＮＴＥＲＮＡＴＩＯＮＡＬ　ＨＩＴＡＣＨＩ,,株式会社,茨城県,日立市,大久保町１丁目１番１９号,,08,202,3160012,,,2023-09-15,清算の結了等,,,2015-10-05,1,,,,,アソインターナショナルヒタチ,0
1842,7080401003513,登記記録の閉鎖等,0,2023-10-19,2023-10-18,遠江観光株式会社,,株式会社,静岡県,浜松市南区,倉松町４３５番地の６シーサイドコーポ１０３,,22,134,4328064,,,2023-10-18,清算の結了等,,,2015-10-05,1,,,,,トオトウミカンコウ,0
1848,7090005000369,登記記録の閉鎖等,0,2023-10-19,2023-10-13,甲府建築金物販売協同組合,,その他の設立登記法人,山梨県,甲府市,太田町５番３０号,,19,201,4000865,,,2023-10-13,清算の結了等,,,2015-10-05,1,,,,,コウフケンチクカナモノハンバイ,0
1850,7100002003785,登記記録の閉鎖等,0,2023-10-19,2023-10-06,有限会社中沢ビル,,有限会社,長野県,長野市,岡田町３番地,,20,201,3810000,,,2023-10-06,清算の結了等,,,2015-10-05,1,,,,,ナカザワビル,0
1854,7110005004532,登記記録の閉鎖等,0,2023-10-19,2023-10-17,医療法人社団西小児科医院,,その他の設立登記法人,新潟県,新発田市,大手町４丁目５番９号,,15,206,9570052,,,2023-10-17,清算の結了等,,,2015-10-05,1,,,,,ニシショウニカイイン,0
1858,7120001190565,登記記録の閉鎖等,0,2023-10-19,2023-10-17,株式会社ランチェスターキャピタル,,株式会社,大阪府,大阪市北区,西天満３丁目５番１０号オフィスポート大阪３１２,,27,127,5300047,,,2023-10-17,合併による解散等,2120003017069,令和５年１０月１７日大阪市中央区内本町二丁目４番１６号株式会社クロスインカム（2120003017069）に合併し解散,2015-10-05,1,,,,,ランチェスターキャピタル,0
1876,7130002034266,登記記録の閉鎖等,0,2023-10-19,2023-10-05,クロンボ有限会社,,有限会社,京都府,舞鶴市,字浜２８番地,,26,202,6250036,,,2023-10-05,清算の結了等,,,2015-10-05,1,,,,,クロンボ,0
1896,7180001110856,登記記録の閉鎖等,0,2023-10-19,2023-10-16,サテライト一宮株式会社,,株式会社,愛知県,一宮市,羽衣２丁目５番１００号,,23,203,4910025,,,2023-10-16,合併による解散等,7011301001448,令和５年１０月１日東京都杉並区阿佐谷南三丁目５０番５号ＯＴＳ株式会社（7011301001448）に合併し解散,2015-10-05,1,,,,,サテライトイチノミヤ,0
1900,7180002008496,登記記録の閉鎖等,0,2023-10-19,2023-10-16,有限会社ドラッグサクラ井,,有限会社,愛知県,名古屋市瑞穂区,桜見町２丁目１１番地,,23,108,4670805,,,2023-10-16,清算の結了等,,,2015-10-05,1,,,,,ドラッグサクライ,0
1902,7180003017208,登記記録の閉鎖等,0,2023-10-19,2023-10-12,合資会社Ｈ＆Ｔ,,合資会社,愛知県,江南市,草井町宮東２００番地レインボー第２江南４０３号,,23,217,4838004,,,2023-10-12,清算の結了等,,,2016-07-07,1,,,,,エイチアンドティ,0
1907,7200002000376,登記記録の閉鎖等,0,2023-10-19,2023-10-17,有限会社イトシン浴場,,有限会社,岐阜県,岐阜市,日ノ本町２丁目２番地,,21,201,5008852,,,2023-10-17,清算の結了等,,,2015-10-05,1,,,,,イトシンヨクジョウ,0
1908,7210005007054,登記記録の閉鎖等,0,2023-10-19,2023-10-11,武生食品小売商協同組合,,その他の設立登記法人,福井県,越前市,矢船町１７号１５番地,,18,209,9150057,,,2023-10-11,清算の結了等,,,2015-10-05,1,,,,,タケフショクヒンコウリショウ,0
1910,7230001010092,登記記録の閉鎖等,0,2023-10-19,2023-10-16,株式会社サンゴールド,,株式会社,富山県,高岡市,下牧野字埋田４１５番地１,,16,202,9340091,,,2023-10-16,清算の結了等,,,2015-10-05,1,,,,,サンゴールド,0
1919,7290001015202,登記記録の閉鎖等,0,2023-10-19,2023-10-03,株式会社日本企業管理協会,,株式会社,福岡県,福津市,東福間８丁目１番５－２０３号,,40,224,8113225,,,2023-10-03,清算の結了等,,,2015-10-05,1,,,,,ニホンキギョウカンリキョウカイ,0
1921,7290001064315,登記記録の閉鎖等,0,2023-10-19,2023-10-04,株式会社シンエイ,,株式会社,福岡県,福岡市中央区,赤坂１丁目１４番２２号,,40,133,8100042,,,2023-10-04,合併による解散等,3290001084721,令和５年１０月１日福岡市博多区対馬小路１３番３５－４０６号株式会社サントス（3290001084721）に合併し解散,2015-10-05,1,,,,,シンエイ,0
1931,7290002044885,登記記録の閉鎖等,0,2023-10-19,2023-10-04,有限会社カホ抜型製作所,,有限会社,福岡県,飯塚市,鯰田３２４番地の６,,40,205,8200001,,,2023-10-04,清算の結了等,,,2015-10-05,1,,,,,カホヌキカタセイサクショ,0
1951,7380001019755,登記記録の閉鎖等,0,2023-10-19,2023-10-11,ティンカーベル．ＪＰ株式会社,,株式会社,福島県,会津若松市,行仁町７番２２号,,07,202,9650033,,,2023-10-11,清算の結了等,,,2015-10-05,1,,,,,ティンカーベルジェイピー,0
1968,7470002013161,登記記録の閉鎖等,0,2023-10-19,2023-10-16,有限会社旅館山本屋本館,,有限会社,香川県,善通寺市,善通寺町６丁目２番２号,,37,204,7650003,,,2023-10-16,清算の結了等,,,2015-10-05,1,,,,,リョカンヤマモトヤホンカン,0
1985,8010001086096,登記記録の閉鎖等,0,2023-10-19,2023-10-16,株式会社エイ・アイ・ディー,,株式会社,東京都,台東区,台東１丁目３１番９号,,13,106,1100016,,,2023-10-16,清算の結了等,,,2015-10-05,1,,,,,エイアイディー,0
1994,8010105002065,登記記録の閉鎖等,0,2023-10-19,2023-10-17,特定非営利活動法人アイドリンク居宅生活情報協会,,その他の設立登記法人,東京都,八王子市,楢原町３６３番地２ｕｎｖｉｌｌａ八王子Ｅ号室,,13,201,1930803,,,2023-10-17,清算の結了等,,,2020-06-11,1,,,,,アイドリンクキョタクセイカツジョウホウキョウカイ,0
1997,8010401125503,登記記録の閉鎖等,0,2023-10-19,2023-10-12,株式会社Ｌｅｏ,,株式会社,東京都,渋谷区,神南１丁目１２番１４号,,13,113,1500041,,,2023-10-12,合併による解散等,2010401085595,令和５年１０月１日東京都渋谷区松濤一丁目９番２２号株式会社ベータ（2010401085595）に合併し解散,2016-06-29,1,,,,,レオ,0
1999,8010401150492,登記記録の閉鎖等,0,2023-10-19,2023-10-06,株式会社アントレプラス,,株式会社,東京都,港区,赤坂５丁目２番２０号,,13,103,1070052,,,2023-10-06,合併による解散等,6010001197993,令和５年９月３０日東京都港区赤坂五丁目２番２０号株式会社アントレ（6010001197993）に合併し解散,2020-01-21,1,,,,,アントレプラス,0
2000,8010401164914,登記記録の閉鎖等,0,2023-10-19,2023-10-05,株式会社エフシード,,株式会社,東京都,港区,南青山２丁目２－１５,,13,103,1070062,,,2023-10-05,清算の結了等,,,2022-01-18,1,,,,,エフシード,0
2007,8010403024265,登記記録の閉鎖等,0,2023-10-19,2023-10-06,タナ合同会社,,合同会社,東京都,港区,六本木１丁目６番１号泉ガーデンタワー,,13,103,1060032,,,2023-10-06,清算の結了等,,,2020-12-04,1,,,,,タナ,0
2017,8010701010479,登記記録の閉鎖等,0,2023-10-19,2023-09-29,株式会社ＵＷテクノロジーズ,,株式会社,東京都,港区,港南２丁目１０番９号,,13,103,1080075,,,2023-09-29,清算の結了等,,,2015-10-05,1,,,,,ユーダブリューテクノロジーズ,0
2053,8011401004283,登記記録の閉鎖等,0,2023-10-19,2023-10-16,株式会社テーピーエンジニアリング,,株式会社,東京都,板橋区,前野町４丁目２６番２号,,13,119,1740063,,,2023-10-16,清算の結了等,,,2015-10-05,1,,,,,テーピーエンジニアリング,0
2079,8020001072335,登記記録の閉鎖等,0,2023-10-19,2023-10-06,株式会社川伸商会,,株式会社,神奈川県,川崎市川崎区,小田３丁目２番２３号,,14,131,2100846,,,2023-10-06,清算の結了等,,,2015-10-05,1,,,,,カワシンショウカイ,0
2084,8021001040975,登記記録の閉鎖等,0,2023-10-19,2023-10-12,日の出タクシー株式会社,,株式会社,神奈川県,横須賀市,吉井２丁目８番１０号,,14,201,2390804,,,2023-10-12,清算の結了等,,,2015-10-05,1,,,,,ヒノデタクシー,0
2088,8021002022840,登記記録の閉鎖等,0,2023-10-19,2023-10-18,有限会社トリプル・ウェーブ,,有限会社,東京都,八王子市,狭間町１４６２番５号Ｆ５４７,,13,201,1930941,,,2023-10-18,清算の結了等,,,2015-10-05,1,,,,,トリプルウェーブ,0
2094,8030002031198,登記記録の閉鎖等,0,2023-10-19,2023-10-02,株式会社マスダック,,株式会社,埼玉県,所沢市,小手指元町１丁目２７番地２０,,11,208,3591147,,,2023-10-02,合併による解散等,9030001024284,令和５年１０月１日埼玉県所沢市小手指元町一丁目２７番地２０株式会社マスダック（9030001024284）に合併し解散,2015-10-05,1,,,,,マスダック,0
2113,8050002034298,登記記録の閉鎖等,0,2023-10-19,2023-10-10,有限会社埜口建材興業,,有限会社,茨城県,稲敷市,上馬渡７３６番地の４,,08,229,3000643,,,2023-10-10,清算の結了等,,,2015-10-05,1,,,,,ノグチケンザイコウギョウ,0
2122,8090002005139,登記記録の閉鎖等,0,2023-10-19,2023-10-04,アシザワファームサービス有限会社,,有限会社,山梨県,甲府市,上町３２８番地１,,19,201,4000831,,,2023-10-04,清算の結了等,,,2015-10-05,1,,,,,アシザワファームサービス,0
2134,8120001180012,登記記録の閉鎖等,0,2023-10-19,2023-10-17,ＦＵＲＵＥＬ株式会社,,株式会社,大阪府,大阪市北区,中崎西４丁目３番２７号新日本ビル５Ｆ,,27,127,5300015,,,2023-10-17,清算の結了等,,,2015-10-05,1,,,,,フルエル,0
2176,8180001142782,登記記録の閉鎖等,0,2023-10-19,2023-10-13,株式会社ラボット,,株式会社,愛知県,名古屋市千種区,萱場２丁目１３番２号,,23,101,4640086,,,2023-10-13,清算の結了等,,,2020-09-10,1,,,,,ラボット,0
2199,8220001022617,登記記録の閉鎖等,0,2023-10-19,2023-10-16,株式会社Ｕｒａｎｏｓ,,株式会社,石川県,金沢市,入江２丁目２７１番地１,,17,201,9218011,,,2023-10-16,清算の結了等,,,2018-12-05,1,,,,,,0
2202,8220001022641,登記記録の閉鎖等,0,2023-10-19,2023-10-16,ＴＨサービス株式会社,,株式会社,石川県,金沢市,打木町東１３４７番地,,17,201,9200377,,,2023-10-16,清算の結了等,,,2018-12-21,1,,,,,,0
2204,8220003000629,登記記録の閉鎖等,0,2023-10-19,2023-10-13,合資会社エレホーム,,合資会社,石川県,金沢市,光が丘２丁目１１４番地,,17,201,9218142,,,2023-10-13,清算の結了等,,,2015-10-05,1,,,,,エレホーム,0
2214,8240002011889,登記記録の閉鎖等,0,2023-10-19,2023-10-13,有限会社中村鶏卵,,有限会社,広島県,広島市佐伯区,楽々園３丁目１５番３７号,,34,108,7315136,,,2023-10-13,清算の結了等,,,2015-10-05,1,,,,,ナカムラケイラン,0
2215,8240002037372,登記記録の閉鎖等,0,2023-10-19,2023-10-13,有限会社ケイ・ビイ技研,,有限会社,広島県,廿日市市,阿品台５丁目５番２３号,,34,213,7380053,,,2023-10-13,清算の結了等,,,2015-10-05,1,,,,,ケイビイギケン,0
2287,9010401088757,登記記録の閉鎖等,0,2023-10-19,2023-10-05,株式会社森創見,,株式会社,東京都,港区,西新橋１丁目２番９号,,13,103,1050003,,,2023-10-05,清算の結了等,,,2015-10-05,1,,,,,モリソウケン,0
2290,9010401129981,登記記録の閉鎖等,0,2023-10-19,2023-10-05,株式会社ＢＡＣ　ＡＳＩＡ,,株式会社,東京都,港区,赤坂７丁目１０番６号赤坂今野ビル６階,,13,103,1070052,,,2023-10-05,清算の結了等,,,2017-03-02,1,,,,,ビーエーシーアジア,0
2291,9010401140658,登記記録の閉鎖等,0,2023-10-19,2023-10-02,グローム・プラス株式会社,,株式会社,東京都,港区,赤坂１丁目１２番３２号,,13,103,1070052,,,2023-10-02,合併による解散等,7012801003743,令和５年１０月１日東京都港区赤坂一丁目１２番３２号グローム・ホールディングス株式会社（7012801003743）に合併し解散,2018-09-11,1,,,,,グロームプラス,0
2296,9010405018198,登記記録の閉鎖等,0,2023-10-19,2023-10-05,一般社団法人群馬安中太陽光発電,,その他の設立登記法人,東京都,港区,元赤坂１丁目１番７号,,13,103,1070051,,,2023-10-05,清算の結了等,,,2019-10-31,1,,,,,グンマアンナカタイヨウコウハツデン,0
2297,9010501022228,登記記録の閉鎖等,0,2023-10-19,2023-10-17,アークソリューション株式会社,,株式会社,東京都,台東区,台東２丁目８番８号,,13,106,1100016,,,2023-10-17,清算の結了等,,,2015-10-05,1,,,,,アークソリューション,0
2318,9011001124365,登記記録の閉鎖等,0,2023-10-19,2023-10-12,株式会社ブリキ,,株式会社,東京都,渋谷区,幡ヶ谷１丁目１番１号,,13,113,1510072,,,2023-10-12,合併による解散等,1011001058372,令和５年１０月１２日東京都渋谷区幡ヶ谷一丁目１番１号株式会社ラクナ（1011001058372）に合併し解散,2018-09-21,1,,,,,ブリキ,0
2327,9011003011859,登記記録の閉鎖等,0,2023-10-19,2023-10-16,ＢＡＮＡＸ　ＡＲＴ合同会社,,合同会社,東京都,渋谷区,本町２丁目３３番２号初台ワールドマンション５０５号室,,13,113,1510071,,,2023-10-16,清算の結了等,,,2020-11-16,1,,,,,バナックスアート,0
2328,9011101024044,登記記録の閉鎖等,0,2023-10-19,2023-10-16,松栄管財株式会社,,株式会社,山梨県,甲府市,飯田２丁目１５番１６号,,19,201,4000035,,,2023-10-16,清算の結了等,,,2015-10-05,1,,,,,ショウエイカンザイ,0
2338,9011202003789,登記記録の閉鎖等,0,2023-10-19,2023-10-16,有限会社タナーボカンパニー,,有限会社,東京都,中野区,本町２丁目４９番５号,,13,114,1640012,,,2023-10-16,清算の結了等,,,2015-10-05,1,,,,,タナーボカンパニー,0
2341,9011302002897,登記記録の閉鎖等,0,2023-10-19,2023-10-16,有限会社キャン・ドゥ,,有限会社,東京都,杉並区,和泉２丁目３０番１４号,,13,115,1680063,,,2023-10-16,清算の結了等,,,2015-10-05,1,,,,,キャンドゥ,0
2345,9011402006823,登記記録の閉鎖等,0,2023-10-19,2023-10-17,有限会社肉の太田屋,,有限会社,東京都,板橋区,新河岸２丁目１０番１０－１１０号,,13,119,1750081,,,2023-10-17,清算の結了等,,,2015-10-05,1,,,,,ニクノオオタヤ,0
2361,9013301019666,登記記録の閉鎖等,0,2023-10-19,2023-10-17,磐梯東都バス株式会社,,株式会社,東京都,新宿区,新宿２丁目３番１５号,,13,104,1600022,,,2023-10-17,合併による解散等,9013301008297,令和５年１０月７日東京都新宿区新宿二丁目３番１５号東都観光バス株式会社（9013301008297）に合併し解散,2015-10-05,1,,,,,バンダイトウトバス,0
2388,9030005014926,登記記録の閉鎖等,0,2023-10-19,2023-09-29,一般財団法人秩父地域地場産業振興センター,,その他の設立登記法人,埼玉県,秩父市,宮側町１番７号,,11,207,3680046,,,2023-09-29,清算の結了等,,,2015-10-05,1,,,,,チチブチイキジバサンギョウシンコウセンター,0
2394,9040002016008,登記記録の閉鎖等,0,2023-10-19,2023-10-02,有限会社トータルケアサービス,,有限会社,千葉県,千葉市花見川区,幕張町３丁目１１０５番地１２,,12,102,2620032,,,2023-10-02,清算の結了等,,,2015-10-05,1,,,,,トータルケアサービス,0
2395,9040002016668,登記記録の閉鎖等,0,2023-10-19,2023-10-03,有限会社オクト工業,,有限会社,千葉県,千葉市若葉区,中田町２３５７番地２４,,12,104,2650043,,,2023-10-03,清算の結了等,,,2015-10-05,1,,,,,オクトコウギョウ,0
2396,9040002101346,登記記録の閉鎖等,0,2023-10-19,2023-10-03,有限会社ダイアナ館山,,有限会社,千葉県,館山市,北条１３５５番地３８,,12,205,2940045,,,2023-10-03,清算の結了等,,,2015-10-05,1,,,,,ダイアナタテヤマ,0
2425,9120001200165,登記記録の閉鎖等,0,2023-10-19,2023-10-17,株式会社フェイスジャパン,,株式会社,大阪府,大阪市中央区,島之内１丁目２２番２２号,,27,128,5420082,,,2023-10-17,清算の結了等,,,2016-08-16,1,,,,,フェイスジャパン,0
2428,9120001241779,登記記録の閉鎖等,0,2023-10-19,2023-10-03,株式会社ＴＯＭＯＮＩ,,株式会社,大阪府,守口市,京阪本通１丁目１０番３２号メロディハイム守口Ａ棟２０１,,27,209,5700083,,,2023-10-03,清算の結了等,,,2021-11-12,1,,,,,トモニ,0
2451,9130001072835,登記記録の閉鎖等,0,2023-10-19,2023-10-02,株式会社ブライラント,,株式会社,京都府,京都市下京区,松原通堺町東入杉屋町２８３番地,,26,106,6008078,,,2023-10-02,清算の結了等,,,2022-10-18,1,,,,,ブライラント,0
2463,9160001020592,登記記録の閉鎖等,0,2023-10-19,2023-10-18,株式会社寿楽,,株式会社,滋賀県,栗東市,上鈎３９４－１０,,25,208,5203022,,,2023-10-18,清算の結了等,,,2017-11-29,1,,,,,,0
2466,9180001075949,登記記録の閉鎖等,0,2023-10-19,2023-10-16,株式会社昭和工業,,株式会社,愛知県,小牧市,小木１丁目２０番地,,23,219,4850058,,,2023-10-16,清算の結了等,,,2015-10-05,1,,,,,ショウワコウギョウ,0
2478,9180002062789,登記記録の閉鎖等,0,2023-10-19,2023-10-12,有限会社ファロップ,,有限会社,愛知県,日進市,栄４丁目３０１番地,,23,230,4700113,,,2023-10-12,合併による解散等,2180002061582,令和５年１０月１２日愛知県日進市折戸町出屋敷１１１番地株式会社Ｅｘｅｃｕｔｉｖｅ　ｂｒａｎｄ（2180002061582）に合併し解散,2015-10-05,1,,,,,ファロップ,0
2494,9230002013638,登記記録の閉鎖等,0,2023-10-19,2023-10-18,有限会社岡田電機商会,,有限会社,富山県,射水市,中央町４番６号,,16,211,9340012,,,2023-10-18,清算の結了等,,,2015-10-05,1,,,,,オカダデンキショウカイ,0
2504,9270002009483,登記記録の閉鎖等,0,2023-10-19,2023-10-17,有限会社双設計,,有限会社,鳥取県,東伯郡琴浦町,大字徳万５０９番地,,31,371,6892303,,,2023-10-17,清算の結了等,,,2015-10-05,1,,,,,ソウセッケイ,0
2525,9320003002044,登記記録の閉鎖等,0,2023-10-19,2023-10-17,合同会社インフィニティ,,合同会社,大分県,大分市,季の坂２丁目３番１号,,44,201,8700870,,,2023-10-17,清算の結了等,,,2015-10-05,1,,,,,インフィニティ,0
