sequenceNumber,corporateNumber,process,correct,updateDate,changeDate,name,nameImageId,kind,prefectureName,cityName,streetNumber,addressImageId,prefectureCode,cityCode,postCode,addressOutside,addressOutsideImageId,closeDate,closeCause,successorCorporateNumber,changeCause,assignmentDate,latest,enName,enPrefectureName,enCityName,enAddressOutside,furigana,hihyoji
10,1010001208400,登記記録の閉鎖等,0,2022-05-25,2022-05-10,Ｃｕｂｅｄ３　Ｌｉｆｅ　Ｓｃｉｅｎｃｅｓ　Ｊａｐａｎ株式会社,,株式会社,東京都,中央区,八丁堀４丁目２番１号,,13,102,1040032,,,2022-05-10,清算の結了等,,,2020-03-18,1,,,,,キューブドスリーライフサイエンシズジャパン,0
22,1010401019538,登記記録の閉鎖等,0,2022-05-25,2022-05-19,株式会社トオヤマスタジオ,,株式会社,東京都,世田谷区,三宿２丁目２７番８－３０１号,,13,112,1540005,,,2022-05-19,清算の結了等,,,2015-10-05,1,,,,,トオヤマスタジオ,0
23,1010401074905,登記記録の閉鎖等,0,2022-05-25,2022-04-12,バイオリライアンス株式会社,,株式会社,東京都,目黒区,下目黒１丁目８番１号アルコタワー,,13,110,1530064,,,2022-04-12,合併による解散等,2011001133752,令和４年４月１日東京都目黒区下目黒一丁目８番１号アルコタワーメルク株式会社（2011001133752）に合併し解散,2015-10-05,1,,,,,バイオリライアンス,0
35,1010502014545,登記記録の閉鎖等,0,2022-05-25,2022-05-24,有限会社日新技術コンサルタント,,有限会社,東京都,台東区,東上野５丁目１０番２号,,13,106,1100015,,,2022-05-24,清算の結了等,,,2015-10-05,1,,,,,ニッシンギジュツコンサルタント,0
77,1012702005233,登記記録の閉鎖等,0,2022-05-25,2022-05-19,有限会社岩佐電機製作所,,有限会社,東京都,西東京市,芝久保町４丁目１５番３号,,13,229,1880014,,,2022-05-19,清算の結了等,,,2015-10-05,1,,,,,イワサデンキセイサクジョ,0
83,1020001024549,登記記録の閉鎖等,0,2022-05-25,2022-05-09,三ツ澤電設株式会社,,株式会社,神奈川県,横浜市神奈川区,三ツ沢下町１０番１４号,,14,102,2210852,,,2022-05-09,清算の結了等,,,2018-03-05,1,,,,,ミツザワデンセツ,0
121,1040002027722,登記記録の閉鎖等,0,2022-05-25,2022-05-19,有限会社滝川技術工房,,有限会社,千葉県,船橋市,芝山５丁目３１番１２号,,12,204,2740816,,,2022-05-19,清算の結了等,,,2015-10-05,1,,,,,タキガワギジュツコウボウ,0
143,1080401005671,登記記録の閉鎖等,0,2022-05-25,2022-05-23,ユニオン工機株式会社,,株式会社,静岡県,浜松市西区,坪井町１５５９番地の６,,22,133,4310202,,,2022-05-23,清算の結了等,,,2015-10-05,1,,,,,ユニオンコウキ,0
146,1100002027922,登記記録の閉鎖等,0,2022-05-25,2022-05-20,有限会社荻原組,,有限会社,長野県,諏訪市,小和田１４番３号,,20,206,3920024,,,2022-05-20,清算の結了等,,,2015-10-05,1,,,,,オギワラグミ,0
148,1100002036238,登記記録の閉鎖等,0,2022-05-25,2022-05-23,有限会社毛呂窪天文台,,有限会社,長野県,飯田市,千栄１７０９番地,,20,205,3992223,,,2022-05-23,清算の結了等,,,2015-10-05,1,,,,,ケロクボテンモンダイ,0
166,1120003019223,登記記録の閉鎖等,0,2022-05-25,2022-05-23,日佳Ｃ＆Ｄ合同会社,,合同会社,大阪府,大阪市東住吉区,照ケ丘矢田２丁目６－１６,,27,121,5460021,,,2022-05-23,清算の結了等,,,2021-04-12,1,,,,,ニチカシーアンドディ,0
185,1140001032663,登記記録の閉鎖等,0,2022-05-25,2022-05-23,株式会社くとうてん,,株式会社,兵庫県,神戸市西区,竹の台６丁目６番地３－１０３号,,28,111,6512274,,,2022-05-23,清算の結了等,,,2015-10-05,1,,,,,クトウテン,0
194,1180001083785,登記記録の閉鎖等,0,2022-05-25,2022-05-18,株式会社アーバンオフィス,,株式会社,愛知県,一宮市,平島２丁目２番１９号,,23,203,4910833,,,2022-05-18,清算の結了等,,,2015-10-05,1,,,,,アーバンオフィス,0
206,1190002015415,登記記録の閉鎖等,0,2022-05-25,2022-05-19,有限会社グローリー,,有限会社,三重県,松阪市,久保町８３６番地１３,,24,204,5150044,,,2022-05-19,清算の結了等,,,2015-10-05,1,,,,,グローリー,0
220,1290002041723,登記記録の閉鎖等,0,2022-05-25,2022-05-20,有限会社ワールド・ウイング,,有限会社,福岡県,大野城市,南ケ丘２丁目６番９号,,40,219,8160964,,,2022-05-20,清算の結了等,,,2015-10-05,1,,,,,ワールドウイング,0
266,1460302000056,登記記録の閉鎖等,0,2022-05-25,2022-05-17,有限会社朝田ビル,,有限会社,北海道,北見市,北二条西３丁目１番地,,01,208,0900042,,,2022-05-17,清算の結了等,,,2015-10-05,1,,,,,アサダビル,0
278,2010001193063,登記記録の閉鎖等,0,2022-05-25,2022-05-23,株式会社ａｉｆｏｒｃｅ　ｓｏｌｕｔｉｏｎｓ,,株式会社,東京都,千代田区,大手町１丁目５番１号,,13,101,1000004,,,2022-05-23,合併による解散等,6011001106762,令和４年５月２日東京都渋谷区渋谷三丁目８番１２号ＡＩ　ｉｎｓｉｄｅ株式会社（6011001106762）に合併し解散,2018-07-06,1,,,,,エーアイフォースソリューションズ,0
320,2011402005914,登記記録の閉鎖等,0,2022-05-25,2022-05-23,有限会社長南紙工所,,有限会社,東京都,板橋区,四葉２丁目２５番２号,,13,119,1750084,,,2022-05-23,清算の結了等,,,2015-10-05,1,,,,,チョウナンシコウジョ,0
325,2011701004666,登記記録の閉鎖等,0,2022-05-25,2022-05-16,大成機工株式会社,,株式会社,東京都,江戸川区,船堀５丁目９番８号,,13,123,1340091,,,2022-05-16,清算の結了等,,,2015-10-05,1,,,,,タイセイキコウ,0
338,2013401005110,登記記録の閉鎖等,0,2022-05-25,2022-05-19,株式会社セブントレス,,株式会社,東京都,日野市,落川６７番地１７,,13,212,1910034,,,2022-05-19,清算の結了等,,,2015-10-05,1,,,,,セブントレス,0
341,2020001065600,登記記録の閉鎖等,0,2022-05-25,2022-05-19,株式会社ホシノ商会,,株式会社,神奈川県,川崎市麻生区,上麻生７丁目２１番１０号,,14,137,2150021,,,2022-05-19,清算の結了等,,,2015-10-05,1,,,,,ホシノショウカイ,0
342,2020001070591,登記記録の閉鎖等,0,2022-05-25,2022-05-19,株式会社ウェルズ,,株式会社,神奈川県,川崎市幸区,神明町２丁目７３番地,,14,132,2120022,,,2022-05-19,清算の結了等,,,2015-10-05,1,,,,,ウェルズ,0
347,2021001013557,登記記録の閉鎖等,0,2022-05-25,2022-05-20,株式会社大斗,,株式会社,神奈川県,相模原市中央区,中央３丁目３番１５号,,14,152,2520239,,,2022-05-20,合併による解散等,9021001011802,令和４年５月２０日神奈川県相模原市中央区中央三丁目３番１５号木本建興株式会社（9021001011802）に合併し解散,2015-10-05,1,,,,,ダイト,0
351,2021002058460,登記記録の閉鎖等,0,2022-05-25,2022-05-20,千商事有限会社,,有限会社,神奈川県,平塚市,夕陽ケ丘３６番１８号,,14,203,2540806,,,2022-05-20,清算の結了等,,,2015-10-05,1,,,,,センショウジ,0
394,2080002000609,登記記録の閉鎖等,0,2022-05-25,2022-05-23,有限会社インテリアタケシタ,,有限会社,静岡県,静岡市葵区,千代田３丁目１１番１０号,,22,101,4200803,,,2022-05-23,清算の結了等,,,2015-10-05,1,,,,,,0
409,2120001209898,登記記録の閉鎖等,0,2022-05-25,2022-05-19,エフシーホールディングス株式会社,,株式会社,大阪府,大阪市中央区,久太郎町２丁目４番１１号クラボウアネックスビル,,27,128,5410056,,,2022-05-19,合併による解散等,6120003013535,令和４年５月１９日大阪市城東区森之宮二丁目４番１９号パシフィックウェーブ合同会社（6120003013535）に合併し解散,2017-12-08,1,,,,,エフシーホールディングス,0
446,2180302008721,登記記録の閉鎖等,0,2022-05-25,2022-05-17,有限会社豊健,,有限会社,愛知県,豊橋市,関屋町１５２番地,,23,201,4400891,,,2022-05-17,清算の結了等,,,2015-10-05,1,,,,,ホウケン,0
450,2200001022153,登記記録の閉鎖等,0,2022-05-25,2022-05-23,株式会社カイ・コーポレーション,,株式会社,岐阜県,多治見市,滝呂町９丁目１５２番地の８,,21,204,5070813,,,2022-05-23,清算の結了等,,,2015-10-05,1,,,,,カイコーポレーション,0
469,2260001026231,登記記録の閉鎖等,0,2022-05-25,2022-05-24,備中ＲＤメンテ株式会社,,株式会社,岡山県,倉敷市,茶屋町早沖１２７５番地３,,33,202,7101102,,,2022-05-24,清算の結了等,,,2015-10-05,1,,,,,ビッチュウアールディーメンテ,0
489,2370001042168,登記記録の閉鎖等,0,2022-05-25,2022-05-23,株式会社カンゲン,,株式会社,宮城県,仙台市若林区,卸町１丁目６番地の１３,,04,103,9840015,,,2022-05-23,清算の結了等,,,2017-10-13,1,,,,,,0
513,2430005001931,登記記録の閉鎖等,0,2022-05-25,2022-05-17,医療法人社団長田歯科医院,,その他の設立登記法人,北海道,札幌市白石区,本通８丁目南２番５号,,01,104,0030026,,,2022-05-17,清算の結了等,,,2015-10-05,1,,,,,ナガタシカイイン,0
518,2470002004743,登記記録の閉鎖等,0,2022-05-25,2022-05-23,有限会社ティワイハートランド,,有限会社,香川県,高松市,太田上町６２８番地５,,37,201,7618074,,,2022-05-23,清算の結了等,,,2015-10-05,1,,,,,ティワイハートランド,0
533,3010001197807,登記記録の閉鎖等,0,2022-05-25,2022-05-10,株式会社ＧＩＮＺＡ　Ｒ．,,株式会社,東京都,中央区,銀座３丁目９番５号伊勢半ビル４階,,13,102,1040061,,,2022-05-10,清算の結了等,,,2019-01-22,1,,,,,ギンザアールドット,0
535,3010001211105,登記記録の閉鎖等,0,2022-05-25,2022-05-02,ＳＨＥＮＧＱＵＡＮ　ＪＡＰＡＮ株式会社,,株式会社,東京都,港区,元麻布３丁目１番６号,,13,103,1060046,,,2022-05-02,清算の結了等,,,2020-07-20,1,,,,,セイケンジャパン,0
539,3010003025924,登記記録の閉鎖等,0,2022-05-25,2022-05-11,神南プロパティ合同会社,,合同会社,東京都,千代田区,丸の内３丁目１番１号東京共同会計事務所内,,13,101,1000005,,,2022-05-11,清算の結了等,,,2017-08-23,1,,,,,ジンナンプロパティ,0
540,3010005029584,登記記録の閉鎖等,0,2022-05-25,2022-05-20,ＡＣ１４一般社団法人,,その他の設立登記法人,東京都,中央区,銀座１丁目６番１１号土志田ビルディング３Ｆ,,13,102,1040061,,,2022-05-20,清算の結了等,,,2019-01-11,1,,,,,エーシーフォーティーン,0
587,3011601014005,登記記録の閉鎖等,0,2022-05-25,2022-05-23,株式会社登美代商事,,株式会社,東京都,新宿区,四谷４丁目３０番,,13,104,1600004,,,2022-05-23,清算の結了等,,,2015-10-05,1,,,,,トミヨショウジ,0
599,3012402010341,登記記録の閉鎖等,0,2022-05-25,2022-05-20,有限会社一冨士,,有限会社,東京都,調布市,仙川町１丁目１９番地の３,,13,208,1820002,,,2022-05-20,清算の結了等,,,2015-10-05,1,,,,,イチフジ,0
627,3030002043883,登記記録の閉鎖等,0,2022-05-25,2022-05-20,有限会社共進興業,,有限会社,埼玉県,草加市,中根３丁目２２番３２号,,11,221,3400005,,,2022-05-20,清算の結了等,,,2015-10-05,1,,,,,,0
663,3100002028654,登記記録の閉鎖等,0,2022-05-25,2022-05-23,有限会社中島産業,,有限会社,長野県,諏訪郡下諏訪町,社７４１８番地１,,20,361,3930000,,,2022-05-23,清算の結了等,,,2015-10-05,1,,,,,ナカジマサンギョウ,0
668,3120001046226,登記記録の閉鎖等,0,2022-05-25,2022-05-24,ニッシンユニテック株式会社,,株式会社,大阪府,大阪市西区,立売堀５丁目１番１１－４０５号,,27,106,5500012,,,2022-05-24,清算の結了等,,,2015-10-05,1,,,,,ニッシンユニテック,0
670,3120001080927,登記記録の閉鎖等,0,2022-05-25,2022-05-23,株式会社シー・エム・エス,,株式会社,大阪府,大阪市西区,靭本町一丁目９番１５号,,27,106,5500000,,,2022-05-23,清算の結了等,,,2015-10-05,1,,,,,シーエムエス,0
677,3120001107878,登記記録の閉鎖等,0,2022-05-25,2022-05-23,海山鉱業株式会社,,株式会社,大阪府,大阪市西区,川口２丁目４番２号,,27,106,5500021,,,2022-05-23,清算の結了等,,,2015-10-05,1,,,,,ウミヤマコウギョウ,0
688,3120005009625,登記記録の閉鎖等,0,2022-05-25,2022-05-23,特定非営利活動法人ハローキッズ,,その他の設立登記法人,大阪府,大阪市阿倍野区,阿倍野筋５丁目１１番２号アベノサンガビル３階,,27,119,5450052,,,2022-05-23,清算の結了等,,,2015-10-05,1,,,,,ハローキッズ,0
691,3120901014380,登記記録の閉鎖等,0,2022-05-25,2022-05-24,株式会社ケアサービス優,,株式会社,大阪府,茨木市,星見町１２番３０号,,27,211,5670843,,,2022-05-24,清算の結了等,,,2015-10-05,1,,,,,ケアサービスユウ,0
708,3140003014179,登記記録の閉鎖等,0,2022-05-25,2022-05-23,合同会社エス・ケイ興産,,合同会社,兵庫県,神戸市北区,山田町下谷上字かんじや１７番地の１１,,28,109,6511243,,,2022-05-23,清算の結了等,,,2019-08-07,1,,,,,エスケイコウサン,0
746,3260001027773,登記記録の閉鎖等,0,2022-05-25,2022-05-24,株式会社ＫＡＩ,,株式会社,岡山県,岡山市北区,本町４番１８号コア本町Ｂ１Ｆ,,33,101,7000901,,,2022-05-24,清算の結了等,,,2015-10-05,1,,,,,,0
758,3290802018571,登記記録の閉鎖等,0,2022-05-25,2022-05-23,有限会社上木原海運,,有限会社,福岡県,北九州市若松区,棚田町１２番２１号,,40,103,8080042,,,2022-05-23,清算の結了等,,,2015-10-05,1,,,,,カミキハラカイウン,0
762,3330005001107,登記記録の閉鎖等,0,2022-05-25,2022-05-23,医療法人社団一柳会,00098297,その他の設立登記法人,熊本県,熊本市東区,花立５丁目７番４６号,,43,102,8620918,,,2022-05-23,清算の結了等,,,2015-10-05,1,,,,,イチリュウカイ,0
763,3350001012428,登記記録の閉鎖等,0,2022-05-25,2022-05-24,株式会社天恵,,株式会社,宮崎県,児湯郡川南町,大字川南２１０９６番地２,,45,405,8891301,,,2022-05-24,清算の結了等,,,2015-10-05,1,,,,,テンケイ,0
779,3370001013432,登記記録の閉鎖等,0,2022-05-25,2022-05-19,株式会社葵調剤,,株式会社,宮城県,仙台市太白区,鈎取１丁目１番１号,,04,104,9820804,,,2022-05-19,合併による解散等,7430001069398,令和４年５月１日札幌市白石区東札幌五条二丁目４番３０号株式会社アインファーマシーズ（7430001069398）に合併し解散,2015-10-05,1,,,,,,0
782,3370002011708,登記記録の閉鎖等,0,2022-05-25,2022-05-23,有限会社スズキコーポレーション,,有限会社,宮城県,仙台市青葉区,荒巻神明町２５番６号,,04,101,9810965,,,2022-05-23,清算の結了等,,,2015-10-05,1,,,,,スズキコーポレーション,0
799,3430002015099,登記記録の閉鎖等,0,2022-05-25,2022-05-18,有限会社日昭リビングス,,有限会社,北海道,札幌市中央区,南一条西１１丁目３２７番地,,01,101,0600061,,,2022-05-18,清算の結了等,,,2015-10-05,1,,,,,,0
825,4010005029583,登記記録の閉鎖等,0,2022-05-25,2022-05-20,ＡＣ１３一般社団法人,,その他の設立登記法人,東京都,中央区,銀座１丁目６番１１号土志田ビルディング３Ｆ,,13,102,1040061,,,2022-05-20,清算の結了等,,,2019-01-15,1,,,,,エーシーサーティーン,0
881,4011201011483,登記記録の閉鎖等,0,2022-05-25,2022-05-18,スターフ株式会社,,株式会社,東京都,中野区,中央５丁目２３番１４－３０２号,,13,114,1640011,,,2022-05-18,清算の結了等,,,2015-10-05,1,,,,,スターフ,0
891,4011702018390,登記記録の閉鎖等,0,2022-05-25,2022-05-24,有限会社鎌田産業,,有限会社,東京都,江戸川区,松島１丁目２８番８号,,13,123,1320031,,,2022-05-24,清算の結了等,,,2022-05-24,1,,,,,カマタサンギョウ,0
898,4020001022574,登記記録の閉鎖等,0,2022-05-25,2022-05-19,株式会社オリオン・ソフト,,株式会社,神奈川県,横浜市港南区,港南台２丁目１番６－８０１号,,14,111,2340054,,,2022-05-19,清算の結了等,,,2015-10-05,1,,,,,オリオンソフト,0
945,4050001036588,登記記録の閉鎖等,0,2022-05-25,2022-05-19,ＣＯＥＪキャリアマネジメント株式会社,,株式会社,茨城県,ひたちなか市,新光町３８番地,,08,221,3120005,,,2022-05-19,清算の結了等,,,2015-10-05,1,,,,,シーオーイージェイキャリアマネジメント,0
958,4080101015613,登記記録の閉鎖等,0,2022-05-25,2022-05-24,株式会社ＹＭＳ,,株式会社,静岡県,富士市,大淵３０４０番地の３１,,22,210,4170801,,,2022-05-24,清算の結了等,,,2015-10-05,1,,,,,ワイエムエス,0
962,4120001106846,登記記録の閉鎖等,0,2022-05-25,2022-05-24,株式会社ふれ愛交通,,株式会社,大阪府,大阪市平野区,平野東４丁目５番１９号,,27,126,5470043,,,2022-05-24,清算の結了等,,,2015-10-05,1,,,,,,0
993,4140001100211,登記記録の閉鎖等,0,2022-05-25,2022-05-23,株式会社成伸,,株式会社,兵庫県,伊丹市,池尻４丁目１番地５－８１８号,,28,207,6640027,,,2022-05-23,清算の結了等,,,2015-12-02,1,,,,,セイシン,0
999,4180001019134,登記記録の閉鎖等,0,2022-05-25,2022-05-20,株式会社尾頭橋印刷所,,株式会社,愛知県,名古屋市中川区,南脇町３丁目２０番地,,23,110,4540817,,,2022-05-20,清算の結了等,,,2015-10-05,1,,,,,オトウバシインサツジョ,0
1030,4240002014656,登記記録の閉鎖等,0,2022-05-25,2022-05-11,有限会社フナダ工業,,有限会社,沖縄県,沖縄市,越来３丁目２番１号,,47,211,9040001,,,2022-05-11,清算の結了等,,,2015-10-05,1,,,,,フナダコウギョウ,0
1044,4350005000948,登記記録の閉鎖等,0,2022-05-25,2022-05-23,学校法人めぐみ学園,,その他の設立登記法人,宮崎県,宮崎市,田野町乙９３９８番地,,45,201,8891702,,,2022-05-23,清算の結了等,,,2015-10-05,1,,,,,メグミガクエン,0
1059,4410001000061,登記記録の閉鎖等,0,2022-05-25,2022-05-19,旭青果株式会社,,株式会社,秋田県,秋田市,外旭川字待合２８番地,,05,201,0100802,,,2022-05-19,清算の結了等,,,2015-10-05,1,,,,,アサヒセイカ,0
1071,4430003008976,登記記録の閉鎖等,0,2022-05-25,2022-05-18,合同会社ビリーフード,,合同会社,北海道,札幌市中央区,北一条西３丁目３番地,,01,101,0600001,,,2022-05-18,合併による解散等,1120001024068,令和４年５月１日大阪市北区堂島一丁目５番３０号株式会社タスク・フォース（1120001024068）に合併し解散,2017-12-21,1,,,,,ビリーフード,0
1114,5010401133946,登記記録の閉鎖等,0,2022-05-25,2022-05-06,Ｇｏｏｄ　Ｗｉｌｌ　Ｈｕｎｔｉｎｇ株式会社,,株式会社,東京都,港区,西麻布２丁目１３番８－７０１号,,13,103,1060031,,,2022-05-06,清算の結了等,,,2017-09-29,1,,,,,グッドウィルハンティング,0
1115,5010401134556,登記記録の閉鎖等,0,2022-05-25,2022-05-06,株式会社ニチホウ,,株式会社,東京都,港区,浜松町２丁目４番１号世界貿易センタービルディング,,13,103,1050013,,,2022-05-06,合併による解散等,3290001051374,令和４年５月１日東京都港区浜松町二丁目４番１号世界貿易センタービルディング株式会社日本防犯システム（3290001051374）に合併し解散,2017-10-25,1,,,,,ニチホウ,0
1116,5010401144670,登記記録の閉鎖等,0,2022-05-25,2022-05-06,Ａ．Ｙ．Ｍｉｒａｉ株式会社,,株式会社,東京都,港区,浜松町２丁目２番１５号,,13,103,1050013,,,2022-05-06,清算の結了等,,,2019-04-01,1,,,,,エーワイミライ,0
1170,5011802010395,登記記録の閉鎖等,0,2022-05-25,2022-05-19,有限会社エステックス,,有限会社,東京都,足立区,興野２丁目１８番３号,,13,121,1230844,,,2022-05-19,清算の結了等,,,2015-10-05,1,,,,,エステックス,0
1198,5030001056141,登記記録の閉鎖等,0,2022-05-25,2022-05-18,サトミ電機株式会社,,株式会社,埼玉県,ふじみ野市,大井字東台７０７番地５８,,11,245,3560053,,,2022-05-18,清算の結了等,,,2015-10-05,1,,,,,サトミデンキ,0
1236,5050002032387,登記記録の閉鎖等,0,2022-05-25,2022-05-20,有限会社クリーン開発,,有限会社,茨城県,北茨城市,関南町神岡下２６１９番地１,,08,215,3191715,,,2022-05-20,合併による解散等,6010002031061,令和４年５月１日東京都中央区築地五丁目４番１９号ジュエル浜離宮９０６号株式会社ジェフ（6010002031061）に合併し解散,2015-10-05,1,,,,,クリーンカイハツ,0
1238,5060001022818,登記記録の閉鎖等,0,2022-05-25,2022-05-20,株式会社うをのぶ応援ファンド,,株式会社,栃木県,宇都宮市,塙田２丁目５番５２号,,09,201,3200027,,,2022-05-20,清算の結了等,,,2015-10-05,1,,,,,ウヲノブオウエンファンド,0
1298,5180002075992,登記記録の閉鎖等,0,2022-05-25,2022-05-20,有限会社小栗漬物食品商店,,有限会社,愛知県,一宮市,和光１丁目６番４号,,23,203,4910026,,,2022-05-20,清算の結了等,,,2015-10-05,1,,,,,オグリツケモノショクヒンショウテン,0
1306,5190001020560,登記記録の閉鎖等,0,2022-05-25,2022-05-19,株式会社Ｅ．Ｎ．ビルド,,株式会社,三重県,松阪市,湊町１８４番地６ローレル・コート松阪４０７,,24,204,5150085,,,2022-05-19,清算の結了等,,,2015-10-05,1,,,,,イーエヌビルド,0
1315,5250002002972,登記記録の閉鎖等,0,2022-05-25,2022-05-23,有限会社キーボード,,有限会社,山口県,防府市,宮市町６番１０号,,35,206,7470032,,,2022-05-23,清算の結了等,,,2015-10-05,1,,,,,キーボード,0
1317,5260002008192,登記記録の閉鎖等,0,2022-05-25,2022-05-24,有限会社ビジネステック,,有限会社,岡山県,岡山市東区,中川町２３７番地の６,,33,103,7048176,,,2022-05-24,清算の結了等,,,2015-10-05,1,,,,,ビジネステック,0
1336,5330002030619,登記記録の閉鎖等,0,2022-05-25,2022-05-23,有限会社吉村会計事務所,,有限会社,熊本県,人吉市,宝来町１３番地の１７,,43,203,8680011,,,2022-05-23,清算の結了等,,,2015-10-05,1,,,,,ヨシムラカイケイジムショ,0
1346,5370001023495,登記記録の閉鎖等,0,2022-05-25,2022-05-23,株式会社弦杜舎,,株式会社,宮城県,仙台市青葉区,貝ケ森１丁目２２番７号,,04,101,9810942,,,2022-05-23,清算の結了等,,,2015-10-05,1,,,,,,0
1352,5390002000847,登記記録の閉鎖等,0,2022-05-25,2022-05-20,有限会社グリル・かもしか,,有限会社,山形県,山形市,七日町４丁目１番６号,,06,201,9900042,,,2022-05-20,清算の結了等,,,2015-10-05,1,,,,,グリルカモシカ,0
1354,5400005002236,登記記録の閉鎖等,0,2022-05-25,2022-05-24,特定非営利活動法人ＪＯＹ,,その他の設立登記法人,岩手県,盛岡市,北松園２丁目２７番３号,,03,201,0200105,,,2022-05-24,清算の結了等,,,2015-10-05,1,,,,,ジョイ,0
1363,5490001001150,登記記録の閉鎖等,0,2022-05-25,2022-05-12,株式会社武田組,,株式会社,高知県,高知市,長浜４０６３番地,,39,201,7810270,,,2022-05-12,清算の結了等,,,2021-07-30,1,,,,,タケダクミ,0
1366,6010001164283,登記記録の閉鎖等,0,2022-05-25,2022-05-09,ＩＭＳ株式会社,,株式会社,東京都,港区,六本木７丁目１７番３６号,,13,103,1060032,,,2022-05-09,清算の結了等,,,2015-10-05,1,,,,,アイエムエス,0
1410,6011002011417,登記記録の閉鎖等,0,2022-05-25,2022-05-09,有限会社本田不動産鑑定事務所,,有限会社,東京都,渋谷区,南平台町１２番１３－５２３号,,13,113,1500036,,,2022-05-09,清算の結了等,,,2015-10-05,1,,,,,ホンダフドウサンカンテイジムショ,0
1432,6011602002567,登記記録の閉鎖等,0,2022-05-25,2022-05-23,有限会社梶リボン,,有限会社,東京都,練馬区,小竹町２丁目６７番地,,13,120,1760004,,,2022-05-23,清算の結了等,,,2015-10-05,1,,,,,カジリボン,0
1440,6013102002436,登記記録の閉鎖等,0,2022-05-25,2022-05-23,有限会社宮崎土建,,有限会社,東京都,あきる野市,菅生２９１番地,,13,228,1970801,,,2022-05-23,清算の結了等,,,2015-10-05,1,,,,,ミヤザキドケン,0
1444,6020001044476,登記記録の閉鎖等,0,2022-05-25,2022-05-19,株式会社ＡＢＣコラボレーション,,株式会社,神奈川県,横浜市栄区,桂台西１丁目８番１８号,,14,115,2470035,,,2022-05-19,清算の結了等,,,2015-10-05,1,,,,,エイビイシイコラボレーション,0
1478,6070001022709,登記記録の閉鎖等,0,2022-05-25,2022-05-09,株式会社ルポン,,株式会社,群馬県,太田市,新田早川町３５０番地３,,10,205,3700344,,,2022-05-09,清算の結了等,,,2015-10-05,1,,,,,ルポン,0
1488,6100002035912,登記記録の閉鎖等,0,2022-05-25,2022-05-23,有限会社エイチ・エヌ企画,,有限会社,長野県,飯田市,松尾常盤台１７１番地３,,20,205,3950815,,,2022-05-23,清算の結了等,,,2015-10-05,1,,,,,エイチエヌキカク,0
1501,6120003019359,登記記録の閉鎖等,0,2022-05-25,2022-05-24,合同会社ＩＭＫ,,合同会社,大阪府,大阪市西区,京町堀１丁目１１番７号京旺ビル４階Ｂ号室,,27,106,5500003,,,2022-05-24,清算の結了等,,,2021-05-11,1,,,,,アイエムケー,0
1535,6180002023983,登記記録の閉鎖等,0,2022-05-25,2022-05-23,有限会社ティー・エム,,有限会社,愛知県,名古屋市西区,則武新町４丁目３番２０号久田ビル２階,,23,104,4510051,,,2022-05-23,清算の結了等,,,2015-10-05,1,,,,,ティーエム,0
1536,6180002033719,登記記録の閉鎖等,0,2022-05-25,2022-05-23,有限会社ドゥリームテープ,,有限会社,愛知県,名古屋市中区,千代田３丁目１４番１６号ジョイフル鶴舞１Ｆ,,23,106,4600012,,,2022-05-23,清算の結了等,,,2015-10-05,1,,,,,ドゥリームテープ,0
1547,6220001001234,登記記録の閉鎖等,0,2022-05-25,2022-05-20,岩崎株式会社,,株式会社,石川県,金沢市,彦三町２丁目３番１号,,17,201,9200901,,,2022-05-20,清算の結了等,,,2015-10-05,1,,,,,イワサキ,0
1554,6290001044648,登記記録の閉鎖等,0,2022-05-25,2022-05-23,株式会社Ｏｎｅ３,,株式会社,福岡県,福岡市中央区,小笹２丁目１２番３１号,,40,133,8100033,,,2022-05-23,清算の結了等,,,2015-10-05,1,,,,,ワンスリー,0
1565,6340002017060,登記記録の閉鎖等,0,2022-05-25,2022-05-23,有限会社宝石サロン鈴木,,有限会社,鹿児島県,薩摩川内市,西向田町１３番１８号,,46,215,8950027,,,2022-05-23,清算の結了等,,,2015-10-05,1,,,,,ホウセキサロンスズキ,0
1575,6380002029184,登記記録の閉鎖等,0,2022-05-25,2022-05-19,有限会社ミューズ,,有限会社,福島県,南相馬市,原町区本町３丁目３２番地,,07,212,9750008,,,2022-05-19,清算の結了等,,,2015-10-05,1,,,,,ミューズ,0
1586,6430001003861,登記記録の閉鎖等,0,2022-05-25,2022-05-16,カネキキムラ株式会社,,株式会社,北海道,札幌市中央区,北三条西１３丁目３番地２アルス知事公館１３０２号,,01,101,0600003,,,2022-05-16,清算の結了等,,,2015-10-05,1,,,,,カネキキムラ,0
1591,6430002053146,登記記録の閉鎖等,0,2022-05-25,2022-05-23,有限会社水口模範製薬院,,有限会社,北海道,滝川市,緑町１丁目２番１号,,01,225,0730023,,,2022-05-23,清算の結了等,,,2015-10-05,1,,,,,,0
1650,7011001127007,登記記録の閉鎖等,0,2022-05-25,2022-05-23,株式会社フォワードプレス,,株式会社,大阪府,大阪市中央区,谷町３丁目１番１１号,,27,128,5400012,,,2022-05-23,清算の結了等,,,2019-03-12,1,,,,,フォワードプレス,0
1664,7011101076335,登記記録の閉鎖等,0,2022-05-25,2022-05-12,株式会社３Ｄ　ＳＴＵＤＩＯ　ＷＡＴＴＳ,,株式会社,東京都,新宿区,新宿１丁目３２－１１山口ビル１０２,,13,104,1600022,,,2022-05-12,清算の結了等,,,2016-03-11,1,,,,,,0
1678,7012405004221,登記記録の閉鎖等,0,2022-05-25,2022-05-19,一般財団法人Ｍａｒｉｅ　Ｆｏｕｎｄａｔｉｏｎ,,その他の設立登記法人,東京都,小金井市,貫井北町１丁目２４番１５号２階,,13,210,1840015,,,2022-05-19,清算の結了等,,,2018-08-08,1,,,,,マリーファンデーション,0
1733,7070002033803,登記記録の閉鎖等,0,2022-05-25,2022-05-18,有限会社長谷川自動車部品工業,,有限会社,群馬県,邑楽郡板倉町,大字籾谷甲１５２０番地の２,00025892,10,521,3740134,,,2022-05-18,清算の結了等,,,2015-10-05,1,,,,,ハセガワジドウシャブヒンコウギョウ,0
1747,7110001034863,登記記録の閉鎖等,0,2022-05-25,2022-05-23,株式会社ＢＲＩＳＩＯＮ,,株式会社,新潟県,南魚沼市,六日町１１７番地１,,15,226,9496680,,,2022-05-23,清算の結了等,,,2020-05-12,1,,,,,ブリション,0
1767,7122001008755,登記記録の閉鎖等,0,2022-05-25,2022-05-23,東大阪電鍍株式会社,,株式会社,大阪府,東大阪市,高井田本通４丁目１番１７号,,27,227,5770066,,,2022-05-23,清算の結了等,,,2015-10-05,1,,,,,ヒガシオオサカデント,0
1771,7130001028789,登記記録の閉鎖等,0,2022-05-25,2022-05-23,株式会社カイウル,,株式会社,京都府,京都市中京区,錦小路通高倉西入西魚屋町６０７番地ＦＯＲＵＭ四条烏丸１階,,26,104,6048142,,,2022-05-23,清算の結了等,,,2015-10-05,1,,,,,カイウル,0
1775,7130002026255,登記記録の閉鎖等,0,2022-05-25,2022-05-20,有限会社きのした商事,,有限会社,京都府,宇治市,小倉町西山６９番地,,26,204,6110042,,,2022-05-20,清算の結了等,,,2015-10-05,1,,,,,キノシタショウジ,0
1798,7180003001384,登記記録の閉鎖等,0,2022-05-25,2022-05-20,合資会社タケトー,,合資会社,愛知県,名古屋市名東区,望が丘２８３番地の２,,23,115,4650046,,,2022-05-20,清算の結了等,,,2015-10-05,1,,,,,タケトー,0
1808,7270002011359,登記記録の閉鎖等,0,2022-05-25,2022-05-18,有限会社ダイモン商事,,有限会社,鳥取県,鳥取市,末広温泉町３６１番地,,31,201,6800833,,,2022-05-18,清算の結了等,,,2022-03-10,1,,,,,ダイモンショウジ,0
1820,7290802017264,登記記録の閉鎖等,0,2022-05-25,2022-05-23,有限会社井原工業,,有限会社,福岡県,中間市,中間３丁目２７番３７号,,40,215,8090034,,,2022-05-23,清算の結了等,,,2015-10-05,1,,,,,イハラコウギョウ,0
1821,7300001000631,登記記録の閉鎖等,0,2022-05-25,2022-05-23,株式会社西日本新聞広告社佐賀,,株式会社,佐賀県,佐賀市,愛敬町１３番１４号,,41,201,8400812,,,2022-05-23,清算の結了等,,,2015-10-05,1,,,,,ニシニッポンシンブンコウコクシャサガ,0
1835,7380001018542,登記記録の閉鎖等,0,2022-05-25,2022-05-16,株式会社新生ホーム,,株式会社,福島県,会津若松市,河東町金田字塩庭１５７番地,,07,202,9693462,,,2022-05-16,清算の結了等,,,2015-10-05,1,,,,,,0
1839,7390002003666,登記記録の閉鎖等,0,2022-05-25,2022-05-20,有限会社アサ・サービス,,有限会社,山形県,山形市,下条町２丁目２０番２９号,,06,201,9900823,,,2022-05-20,清算の結了等,,,2015-10-05,1,,,,,アササービス,0
1841,7420001001717,登記記録の閉鎖等,0,2022-05-25,2022-05-20,株式会社八甲田ゴルフセンター,,株式会社,青森県,青森市,大字合子沢字松森３４８番地２,,02,201,0300134,,,2022-05-20,清算の結了等,,,2015-10-05,1,,,,,ハッコウダゴルフセンター,0
1867,8010001044013,登記記録の閉鎖等,0,2022-05-25,2022-05-10,株式会社是川総合研究所,,株式会社,東京都,中央区,日本橋室町１丁目１１番７号,,13,102,1030022,,,2022-05-10,清算の結了等,,,2015-10-05,1,,,,,コレカワソウゴウケンキュウジョ,0
1914,8011402006056,登記記録の閉鎖等,0,2022-05-25,2022-05-23,有限会社ティー・ヘッド,,有限会社,東京都,板橋区,板橋４丁目１５番２号,,13,119,1730004,,,2022-05-23,清算の結了等,,,2015-10-05,1,,,,,ティーヘッド,0
1917,8011701018735,登記記録の閉鎖等,0,2022-05-25,2022-05-24,株式会社小瀧,,株式会社,東京都,江戸川区,新堀１丁目１２番７－７０１号,,13,123,1320001,,,2022-05-24,清算の結了等,,,2015-10-05,1,,,,,コタキ,0
1929,8020001061866,登記記録の閉鎖等,0,2022-05-25,2022-05-18,株式会社エムケービルサービス,,株式会社,神奈川県,横浜市都筑区,川和町２５８７番地,,14,118,2240057,,,2022-05-18,清算の結了等,,,2015-10-05,1,,,,,エムケービルサービス,0
1935,8020002025011,登記記録の閉鎖等,0,2022-05-25,2022-05-18,有限会社明倫保険事務所,,有限会社,神奈川県,横浜市中区,池袋８番地,,14,104,2310834,,,2022-05-18,清算の結了等,,,2015-10-05,1,,,,,メイリンホケンジムショ,0
1941,8030001035043,登記記録の閉鎖等,0,2022-05-25,2022-05-19,株式会社シオヤ,,株式会社,埼玉県,草加市,氷川町２１７８番地７,,11,221,3400034,,,2022-05-19,清算の結了等,,,2015-10-05,1,,,,,シオヤ,0
1953,8030002071665,登記記録の閉鎖等,0,2022-05-25,2022-05-18,有限会社アトリエみず,,有限会社,埼玉県,春日部市,西金野井３３８番地１５１,,11,214,3440112,,,2022-05-18,清算の結了等,,,2015-10-05,1,,,,,アトリエミズ,0
1991,8120002014623,登記記録の閉鎖等,0,2022-05-25,2022-05-20,有限会社カシハラ不動産管理,,有限会社,大阪府,大阪市大正区,南恩加島３丁目１１番１９号,,27,108,5510021,,,2022-05-20,清算の結了等,,,2015-10-05,1,,,,,カシハラフドウサンカンリ,0
2015,8140005003935,登記記録の閉鎖等,0,2022-05-25,2022-05-23,特定非営利活動法人ナショナルアブソービングミスティークプラン,,その他の設立登記法人,兵庫県,神戸市東灘区,住吉山手７丁目８－６－１０１,,28,101,6580063,,,2022-05-23,清算の結了等,,,2015-10-05,1,,,,,ナショナルアブソービングミスティークプラン,0
2039,8190002001350,登記記録の閉鎖等,0,2022-05-25,2022-05-23,有限会社婦人服のまゆみ,,有限会社,三重県,津市,南丸之内８番３６号,,24,201,5140034,,,2022-05-23,清算の結了等,,,2015-10-05,1,,,,,フジンフクノマユミ,0
2066,8300003000802,登記記録の閉鎖等,0,2022-05-25,2022-05-20,合同会社ＳＴ,,合同会社,佐賀県,佐賀市,諸富町大字徳富６３７番地１,,41,201,8402104,,,2022-05-20,清算の結了等,,,2015-10-05,1,,,,,エスティ,0
2083,8390001004284,登記記録の閉鎖等,0,2022-05-25,2022-05-18,伊藤建設工業株式会社,,株式会社,山形県,天童市,大字山口１８２５番地,,06,210,9940101,,,2022-05-18,清算の結了等,,,2018-02-13,1,,,,,,0
2095,8430002054753,登記記録の閉鎖等,0,2022-05-25,2022-05-16,有限会社玉の湯,,有限会社,北海道,小樽市,錦町１３番３号,,01,203,0470039,,,2022-05-16,清算の結了等,,,2015-10-05,1,,,,,タマノユ,0
2100,8440001002258,登記記録の閉鎖等,0,2022-05-25,2022-05-19,株式会社丸五丸山靴店,,株式会社,北海道,函館市,松風町８番２号,,01,202,0400035,,,2022-05-19,清算の結了等,,,2015-10-05,1,,,,,マルゴマルヤマクツテン,0
2125,9010003030266,登記記録の閉鎖等,0,2022-05-25,2022-05-06,ＭＢ合同会社,,合同会社,東京都,港区,虎ノ門１丁目１０－５－１１Ｆ,,13,103,1050001,,,2022-05-06,清算の結了等,,,2019-07-24,1,,,,,エムビー,0
2159,9011101036551,登記記録の閉鎖等,0,2022-05-25,2022-05-23,株式会社ディ・シー・シー,,株式会社,東京都,新宿区,市谷薬王寺町５８番地,,13,104,1620063,,,2022-05-23,清算の結了等,,,2015-10-05,1,,,,,ディシーシー,0
2161,9011101083602,登記記録の閉鎖等,0,2022-05-25,2022-05-20,株式会社プライム,,株式会社,東京都,新宿区,新宿２丁目１２番１３号アントレサロンビル２階,,13,104,1600022,,,2022-05-20,清算の結了等,,,2018-03-26,1,,,,,プライム,0
2185,9012301008836,登記記録の閉鎖等,0,2022-05-25,2022-05-16,株式会社オフィス植田,,株式会社,東京都,町田市,小野路町２９５４番地１５,,13,209,1950064,,,2022-05-16,清算の結了等,,,2015-10-05,1,,,,,オフィスウエダ,0
2250,9040002056045,登記記録の閉鎖等,0,2022-05-25,2022-05-19,有限会社小野田商店,,有限会社,千葉県,富里市,十倉５５５番地,,12,233,2860212,,,2022-05-19,清算の結了等,,,2021-12-22,1,,,,,オノダショウテン,0
2258,9070001011345,登記記録の閉鎖等,0,2022-05-25,2022-05-20,株式会社佐相建設,,株式会社,群馬県,高崎市,倉賀野町４０２５番地,,10,202,3701201,,,2022-05-20,清算の結了等,,,2015-10-05,1,,,,,サソウケンセツ,0
2265,9080001021707,登記記録の閉鎖等,0,2022-05-25,2022-05-23,株式会社豚風ＪＡＰＡＮ,,株式会社,静岡県,静岡市清水区,押切１４３４,,22,103,4240008,,,2022-05-23,清算の結了等,,,2017-07-21,1,,,,,トンプウジャパン,0
2269,9100002028707,登記記録の閉鎖等,0,2022-05-25,2022-05-23,有限会社日本空調設備,,有限会社,長野県,諏訪市,大字中洲２９５０番地２,,20,206,3920015,,,2022-05-23,清算の結了等,,,2015-10-05,1,,,,,ニホンクウチョウセツビ,0
2283,9120002014622,登記記録の閉鎖等,0,2022-05-25,2022-05-20,有限会社カシハラ,,有限会社,大阪府,大阪市大正区,南恩加島５丁目８番４８号,,27,108,5510021,,,2022-05-20,清算の結了等,,,2015-10-05,1,,,,,カシハラ,0
2307,9140002025477,登記記録の閉鎖等,0,2022-05-25,2022-05-23,有限会社ネット,,有限会社,兵庫県,神戸市長田区,長田天神町１丁目１６番１－６０３号,,28,106,6530882,,,2022-05-23,清算の結了等,,,2015-10-05,1,,,,,ネット,0
2343,9280002011439,登記記録の閉鎖等,0,2022-05-25,2022-05-18,有限会社飛田製粉製麺所,,有限会社,島根県,雲南市,大東町大東１７４２番地１,,32,209,6991251,,,2022-05-18,清算の結了等,,,2021-05-26,1,,,,,トビタセイフンセイメンショ,0
2344,9290001017584,登記記録の閉鎖等,0,2022-05-25,2022-05-23,共立電材株式会社,,株式会社,福岡県,福岡市博多区,住吉５丁目３１番１４号,,40,132,8120018,,,2022-05-23,清算の結了等,,,2015-10-05,1,,,,,キョウリツデンザイ,0
2364,9370201000308,登記記録の閉鎖等,0,2022-05-25,2022-05-20,東北スズキ自動車販売株式会社,,株式会社,宮城県,大崎市,古川稲葉２丁目２番５号,,04,215,9896135,,,2022-05-20,清算の結了等,,,2015-10-05,1,,,,,トウホクスズキジドウシャハンバイ,0
2384,9460302004826,登記記録の閉鎖等,0,2022-05-25,2022-05-19,有限会社コピーセンター,,有限会社,北海道,斜里郡斜里町,朝日町１１番地２,,01,545,0994114,,,2022-05-19,清算の結了等,,,2015-10-05,1,,,,,コピーセンター,0
