sequenceNumber,corporateNumber,process,correct,updateDate,changeDate,name,nameImageId,kind,prefectureName,cityName,streetNumber,addressImageId,prefectureCode,cityCode,postCode,addressOutside,addressOutsideImageId,closeDate,closeCause,successorCorporateNumber,changeCause,assignmentDate,latest,enName,enPrefectureName,enCityName,enAddressOutside,furigana,hihyoji
12,1010102006884,登記記録の閉鎖等,0,2025-04-21,2025-04-15,有限会社モード,,有限会社,東京都,八王子市,千人町２丁目２０番１号,,13,201,1930835,,,2025-04-15,清算の結了等,,,2015-10-05,1,,,,,モード,0
14,1010401137645,登記記録の閉鎖等,0,2025-04-21,2025-04-16,ソシオフードサービス株式会社,,株式会社,神奈川県,横浜市西区,みなとみらい２丁目２番１号ランドマークタワー１２階,,14,103,2200012,,,2025-04-16,合併による解散等,7030001056924,令和７年４月１日埼玉県川越市笠幡４５２７番地１株式会社ニフス（7030001056924）に合併し解散,2018-04-06,1,,,,,ソシオフードサービス,0
30,1010801002655,登記記録の閉鎖等,0,2025-04-21,2025-04-07,株式会社金子雄太郎構造事務所,,株式会社,東京都,大田区,南馬込５丁目１３番５号,,13,111,1430025,,,2025-04-07,清算の結了等,,,2015-10-05,1,,,,,カネコユウタロウコウゾウジムショ,0
31,1010801003240,登記記録の閉鎖等,0,2025-04-21,2025-04-16,株式会社クドウ,,株式会社,東京都,大田区,西蒲田８丁目２４番８号,,13,111,1440051,,,2025-04-16,合併による解散等,7010401136559,令和７年４月１日東京都新宿区富久町１５番１－４００２号株式会社クドウ（7010401136559）に合併し解散,2015-10-05,1,,,,,クドウ,0
45,1011001123044,登記記録の閉鎖等,0,2025-04-21,2025-04-07,株式会社パラグラフ,,株式会社,東京都,目黒区,青葉台１丁目１９番７号,,13,110,1530042,,,2025-04-07,合併による解散等,1011001030926,令和７年４月１日東京都渋谷区広尾二丁目１番１４号株式会社パパス（1011001030926）に合併し解散,2018-07-03,1,,,,,パラグラフ,0
68,1011501002986,登記記録の閉鎖等,0,2025-04-21,2025-04-11,テコインターナショナル株式会社,,株式会社,東京都,北区,豊島３丁目２１番１３号,,13,117,1140003,,,2025-04-11,清算の結了等,,,2015-10-05,1,,,,,テコインターナショナル,0
69,1011502008074,登記記録の閉鎖等,0,2025-04-21,2025-04-11,有限会社串焼一番鳥,,有限会社,東京都,荒川区,町屋３丁目８番２０号,,13,118,1160001,,,2025-04-11,清算の結了等,,,2015-10-05,1,,,,,クシヤキイチバンドリ,0
77,1012701017857,登記記録の閉鎖等,0,2025-04-21,2025-03-25,株式会社Ｍｉｃｏ,,株式会社,東京都,渋谷区,神宮前６丁目２３番４号桑野ビル２階,,13,113,1500001,,,2025-03-25,清算の結了等,,,2023-09-27,1,,,,,ミコ,0
101,1030005018967,登記記録の閉鎖等,0,2025-04-21,2025-04-14,ＮＰＯ法人鶴ヶ島動画ファンクラブ,,その他の設立登記法人,埼玉県,鶴ヶ島市,大字脚折１４２８番地９２,,11,241,3502213,,,2025-04-14,清算の結了等,,,2018-04-12,1,,,,,ツルガシマドウガファンクラブ,0
109,1040002035287,登記記録の閉鎖等,0,2025-04-21,2025-04-03,有限会社つちや映像ステーション,,有限会社,千葉県,市川市,福栄２丁目１１番２０号４０９室,,12,203,2720137,,,2025-04-03,清算の結了等,,,2015-10-05,1,,,,,ツチヤエイゾウステーション,0
126,1060001005132,登記記録の閉鎖等,0,2025-04-21,2025-04-11,株式会社ユーユープロダクツ,,株式会社,栃木県,宇都宮市,伝馬町２番２５号,,09,201,3200035,,,2025-04-11,清算の結了等,,,2015-10-05,1,,,,,ユーユープロダクツ,0
132,1080002011664,登記記録の閉鎖等,0,2025-04-21,2025-04-16,有限会社ワカスイ,,有限会社,静岡県,静岡市清水区,谷田１２番２７号－１０３,,22,103,4240887,,,2025-04-16,清算の結了等,,,2015-10-05,1,,,,,ワカスイ,0
144,1100002010572,登記記録の閉鎖等,0,2025-04-21,2025-04-15,有限会社協和自動車,,有限会社,長野県,佐久市,岩村田９４１番地７,,20,217,3850022,,,2025-04-15,清算の結了等,,,2015-10-05,1,,,,,キョウワジドウシャ,0
193,1180001130471,登記記録の閉鎖等,0,2025-04-21,2025-04-09,株式会社サンリブ,,株式会社,愛知県,瀬戸市,東権現町５３番地の３,,23,204,4890883,,,2025-04-09,清算の結了等,,,2017-12-14,1,,,,,サンリブ,0
207,1230001002038,登記記録の閉鎖等,0,2025-04-21,2025-04-15,富山住宅工業株式会社,,株式会社,富山県,富山市,千原崎１丁目６番３号,,16,201,9318334,,,2025-04-15,合併による解散等,3011101061927,令和７年４月１日東京都杉並区高井戸東二丁目４番５号テクノエフアンドシー株式会社（3011101061927）に合併し解散,2015-10-05,1,,,,,トヤマジュウタクコウギョウ,0
232,1360001009243,登記記録の閉鎖等,0,2025-04-21,2025-04-07,ユニフォームプラザ沖縄株式会社,,株式会社,沖縄県,浦添市,仲西１丁目７番８号,,47,208,9012125,,,2025-04-07,清算の結了等,,,2015-10-05,1,,,,,,0
236,1360003007583,登記記録の閉鎖等,0,2025-04-21,2025-04-09,株式会社レフトステージ,,株式会社,沖縄県,那覇市,牧志３丁目２番１０号,,47,201,9000013,,,2025-04-09,清算の結了等,,,2016-04-27,1,,,,,,0
253,1450002009761,登記記録の閉鎖等,0,2025-04-21,2025-04-10,有限会社エスアイ商事,,有限会社,北海道,名寄市,西四条南１１丁目３番地,,01,221,0960014,,,2025-04-10,清算の結了等,,,2015-10-05,1,,,,,エスアイショウジ,0
256,1490001009206,登記記録の閉鎖等,0,2025-04-21,2025-04-16,株式会社エコパワー,,株式会社,高知県,高知市,万々４８３番地グランドソレイユ１０１号室,,39,201,7800973,,,2025-04-16,清算の結了等,,,2019-03-07,1,,,,,,0
258,1500002001829,登記記録の閉鎖等,0,2025-04-21,2025-04-16,有限会社小田運送,,有限会社,愛媛県,松山市,高岡町５９番地４,,38,201,7918036,,,2025-04-16,清算の結了等,,,2015-10-05,1,,,,,オダウンソウ,0
299,2010701016003,登記記録の閉鎖等,0,2025-04-21,2025-04-01,株式会社パルス,,株式会社,東京都,品川区,南大井３丁目３１番１９号,,13,109,1400013,,,2025-04-01,清算の結了等,,,2015-10-05,1,,,,,パルス,0
307,2011001155128,登記記録の閉鎖等,0,2025-04-21,2025-03-25,株式会社ＭＥＮ’Ｓ　ＨＡＩＲ　ＪＡＰＡＮ,,株式会社,東京都,渋谷区,神宮前３丁目２７番１５号ＦＬＡＧ３Ｆ,,13,113,1500001,,,2025-03-25,清算の結了等,,,2023-06-16,1,,,,,メンズヘアジャパン,0
325,2011202012103,登記記録の閉鎖等,0,2025-04-21,2025-04-16,有限会社橋本電気商会,,有限会社,東京都,中野区,東中野１丁目１２番２０－３０４号,,13,114,1640003,,,2025-04-16,清算の結了等,,,2015-10-05,1,,,,,,0
326,2011301004042,登記記録の閉鎖等,0,2025-04-21,2025-04-07,大長建設株式会社,,株式会社,東京都,杉並区,和泉３丁目６０番１９号,,13,115,1680063,,,2025-04-07,清算の結了等,,,2015-10-05,1,,,,,ダイチョウケンセツ,0
338,2011801027856,登記記録の閉鎖等,0,2025-04-21,2025-04-09,株式会社ＫＮＳ,,株式会社,東京都,足立区,足立３丁目５番１号,,13,121,1200015,,,2025-04-09,清算の結了等,,,2015-10-05,1,,,,,ケイエヌエス,0
340,2011802025669,登記記録の閉鎖等,0,2025-04-21,2025-04-14,有限会社アスカ建装,,有限会社,東京都,葛飾区,立石２丁目２８番６－９０１号メッツ立石,,13,122,1240012,,,2025-04-14,清算の結了等,,,2015-10-05,1,,,,,アスカケンソウ,0
344,2012701017294,登記記録の閉鎖等,0,2025-04-21,2025-04-14,株式会社エフケーエス,,株式会社,東京都,西東京市,芝久保町３丁目２３番１号,,13,229,1880014,,,2025-04-14,清算の結了等,,,2022-10-13,1,,,,,エフケーエス,0
372,2030002090943,登記記録の閉鎖等,0,2025-04-21,2025-04-15,サンリード硝子有限会社,,有限会社,埼玉県,越谷市,平方南町２番地２,,11,222,3430001,,,2025-04-15,清算の結了等,,,2015-10-05,1,,,,,サンリードガラス,0
374,2040001042300,登記記録の閉鎖等,0,2025-04-21,2025-04-03,株式会社中臺興業,00019084,株式会社,千葉県,千葉市若葉区,野呂町１７９１番地,,12,104,2650053,,,2025-04-03,清算の結了等,,,2015-10-05,1,,,,,ナカダイコウギョウ,0
382,2050001049641,登記記録の閉鎖等,0,2025-04-21,2025-04-15,株式会社キッチニスタ,,株式会社,茨城県,筑西市,森添島１２４５番地,,08,227,3080861,,,2025-04-15,合併による解散等,4010001034802,令和７年４月１日東京都千代田区大手町一丁目１番３号信越ポリマー株式会社（4010001034802）に合併し解散,2021-08-04,1,,,,,キッチニスタ,0
393,2060002012465,登記記録の閉鎖等,0,2025-04-21,2025-04-10,有限会社あらい製機加工所,,有限会社,栃木県,さくら市,葛城１６８１番地,,09,214,3291413,,,2025-04-10,清算の結了等,,,2015-10-05,1,,,,,アライセイキカコウジョ,0
398,2080101005046,登記記録の閉鎖等,0,2025-04-21,2025-04-08,佐藤建設株式会社,,株式会社,静岡県,伊豆の国市,寺家２０１番地の２,,22,225,4102122,,,2025-04-08,清算の結了等,,,2015-10-05,1,,,,,サトウケンセツ,0
404,2100003004580,登記記録の閉鎖等,0,2025-04-21,2025-04-14,株式会社シラキクリーン,,株式会社,長野県,茅野市,米沢３０７６－２０１,,20,214,3910216,,,2025-04-14,清算の結了等,,,2017-01-20,1,,,,,シラキクリーン,0
406,2110002010595,登記記録の閉鎖等,0,2025-04-21,2025-04-04,有限会社金房板金工業,,有限会社,新潟県,新潟市北区,葛塚４７８１番地１,,15,101,9503321,,,2025-04-04,清算の結了等,,,2015-10-05,1,,,,,カネフサバンキンコウギョウ,0
408,2120001015388,登記記録の閉鎖等,0,2025-04-21,2025-04-15,株式会社ダイユー,,株式会社,大阪府,大阪市城東区,東中浜５丁目８番１６号,,27,118,5360023,,,2025-04-15,合併による解散等,3120001015370,令和７年３月１日大阪市城東区東中浜五丁目８番１６号株式会社ダイショウ（3120001015370）に合併し解散,2015-10-05,1,,,,,ダイユー,0
418,2120001191865,登記記録の閉鎖等,0,2025-04-21,2025-04-10,株式会社ヤマトプランニング,,株式会社,大阪府,東大阪市,楠根２丁目３番３８号,,27,227,5770006,,,2025-04-10,清算の結了等,,,2015-10-05,1,,,,,ヤマトプランニング,0
469,2180002025216,登記記録の閉鎖等,0,2025-04-21,2025-04-10,有限会社アドバンスト・ソフトウェア・インスティチュート,,有限会社,愛知県,名古屋市緑区,大清水５丁目１８０４番地,,23,114,4580805,,,2025-04-10,清算の結了等,,,2015-10-05,1,,,,,アドバンストソフトウェアインスティチュート,0
470,2180002038688,登記記録の閉鎖等,0,2025-04-21,2025-04-10,有限会社泰久館,,有限会社,愛知県,名古屋市中川区,八熊３丁目１番２号,,23,110,4540013,,,2025-04-10,清算の結了等,,,2015-10-05,1,,,,,タイキュウカン,0
476,2190003004069,登記記録の閉鎖等,0,2025-04-21,2025-04-08,仁和合同会社,,合同会社,三重県,鈴鹿市,大池３丁目９番５号,,24,207,5130827,,,2025-04-08,清算の結了等,,,2022-08-23,1,,,,,ニンワ,0
483,2240001036587,登記記録の閉鎖等,0,2025-04-21,2025-04-14,株式会社広島三協,,株式会社,広島県,安芸郡熊野町,城之堀１０丁目２番１６号,,34,307,7314215,,,2025-04-14,合併による解散等,8230001010570,令和７年４月１日富山県高岡市早川７０番地三協テック株式会社（8230001010570）に合併し解散,2015-10-05,1,,,,,ヒロシマサンキョウ,0
484,2240001042412,登記記録の閉鎖等,0,2025-04-21,2025-04-07,株式会社ＨＡＲＵ,,株式会社,広島県,福山市,本庄町中１丁目２２番１６号,,34,207,7200076,,,2025-04-07,清算の結了等,,,2015-10-05,1,,,,,ハル,0
485,2240001046900,登記記録の閉鎖等,0,2025-04-21,2025-04-16,株式会社一文字屋,,株式会社,広島県,広島市佐伯区,観音台３丁目２０番２５号,,34,108,7315157,,,2025-04-16,清算の結了等,,,2015-10-05,1,,,,,,0
487,2240001053244,登記記録の閉鎖等,0,2025-04-21,2025-04-15,ぐんぐん株式会社,,株式会社,広島県,廿日市市,宮内２丁目６番３９－１１１５号,,34,213,7380034,,,2025-04-15,清算の結了等,,,2018-08-30,1,,,,,グングン,0
491,2260005010628,登記記録の閉鎖等,0,2025-04-21,2025-04-03,一般社団法人アルベルゴ・ディフーゾ・ジャパン,,その他の設立登記法人,岡山県,岡山市北区,厚生町３丁目１番１５号,,33,101,7000985,,,2025-04-03,清算の結了等,,,2019-06-13,1,,,,,アルベルゴディフーゾジャパン,0
496,2290001081546,登記記録の閉鎖等,0,2025-04-21,2025-04-03,株式会社エデュアーツ,,株式会社,福岡県,福岡市東区,唐原２丁目４番１３号,,40,131,8130001,,,2025-04-03,清算の結了等,,,2018-05-21,1,,,,,エデュアーツ,0
504,2300002006302,登記記録の閉鎖等,0,2025-04-21,2025-04-17,有限会社肥前セメント工業所,,有限会社,佐賀県,嬉野市,嬉野町大字下宿甲４０００番地イ,,41,209,8430301,,,2025-04-17,清算の結了等,,,2015-10-05,1,,,,,ヒゼンセメントコウギョウショ,0
505,2300002006806,登記記録の閉鎖等,0,2025-04-21,2025-04-17,ダイヤ興産有限会社,,有限会社,佐賀県,鹿島市,大字高津原４０１３番地１,,41,207,8491311,,,2025-04-17,清算の結了等,,,2015-10-05,1,,,,,ダイヤコウサン,0
529,2420001017081,登記記録の閉鎖等,0,2025-04-21,2025-04-16,株式会社青森介護支援事業所,,株式会社,青森県,弘前市,大字大久保字西田９８番地４,,02,202,0368071,,,2025-04-16,合併による解散等,3410001007900,令和７年４月１日秋田県大仙市花館字間倉２５０番地８株式会社大曲仙北介護支援事業所（3410001007900）に合併し解散,2020-07-27,1,,,,,アオモリカイゴシエンジギョウショ,0
530,2430001003386,登記記録の閉鎖等,0,2025-04-21,2025-04-09,株式会社オモテ,,株式会社,北海道,札幌市西区,山の手一条４丁目２番１２号,,01,107,0630001,,,2025-04-09,清算の結了等,,,2015-10-05,1,,,,,オモテ,0
563,3010401141802,登記記録の閉鎖等,0,2025-04-21,2025-04-15,シェアワイズ株式会社,,株式会社,東京都,渋谷区,広尾１丁目１０番６号７０６,,13,113,1500012,,,2025-04-15,合併による解散等,8011101052616,令和７年３月３１日東京都新宿区四ツ谷四丁目２５番地の１０株式会社ティエイピイ（8011101052616）に合併し解散,2018-11-02,1,,,,,シェアワイズ,0
585,3011003014082,登記記録の閉鎖等,0,2025-04-21,2025-03-31,合同会社ＬＩＶＥＳＴ,,合同会社,東京都,港区,赤坂９丁目１番７号赤坂レジデンシャルホテル６５８号室,,13,103,1070052,,,2025-03-31,清算の結了等,,,2022-02-01,1,,,,,リーベスト,0
592,3011201021260,登記記録の閉鎖等,0,2025-04-21,2025-04-14,株式会社トラベルジャーナルワールド,,株式会社,東京都,中野区,東中野３丁目１８番１１号,,13,114,1640003,,,2025-04-14,清算の結了等,,,2019-04-11,1,,,,,トラベルジャーナルワールド,0
594,3011205002018,登記記録の閉鎖等,0,2025-04-21,2025-04-15,一般社団法人セラピストネット,,その他の設立登記法人,東京都,中野区,東中野２丁目１番２－８０７号,,13,114,1640003,,,2025-04-15,清算の結了等,,,2015-10-05,1,,,,,セラピストネット,0
613,3020001020240,登記記録の閉鎖等,0,2025-04-21,2025-04-17,コムシス株式会社,,株式会社,神奈川県,横浜市西区,みなとみらい６丁目３番６号,,14,103,2200012,,,2025-04-17,合併による解散等,2010001095739,令和７年４月１日東京都中央区日本橋本町四丁目８番１４号株式会社マーブル（2010001095739）に合併し解散,2015-10-05,1,,,,,コムシス,0
616,3020001092156,登記記録の閉鎖等,0,2025-04-21,2025-04-07,株式会社Ｈ＆Ｙ,,株式会社,神奈川県,横浜市都筑区,荏田南４丁目３０－１９,,14,118,2240007,,,2025-04-07,清算の結了等,,,2015-10-05,1,,,,,,0
624,3021001062636,登記記録の閉鎖等,0,2025-04-21,2025-04-10,株式会社Ｈｉｊａ,,株式会社,神奈川県,横須賀市,小原台３０番２９号,,14,201,2390812,,,2025-04-10,清算の結了等,,,2017-07-21,1,,,,,,0
630,3030001145284,登記記録の閉鎖等,0,2025-04-21,2025-04-14,株式会社ＴＹＳコーポレーション,,株式会社,埼玉県,幸手市,北２丁目１４番４号,,11,240,3400111,,,2025-04-14,清算の結了等,,,2021-11-11,1,,,,,ティーワイエスコーポレーション,0
633,3030002020874,登記記録の閉鎖等,0,2025-04-21,2025-04-07,有限会社河内人形店,,有限会社,埼玉県,さいたま市岩槻区,宮町２丁目７番２２号,,11,110,3390065,,,2025-04-07,清算の結了等,,,2015-10-05,1,,,,,カワウチニンギョウテン,0
635,3030002045541,登記記録の閉鎖等,0,2025-04-21,2025-04-14,有限会社深澤建築板金,,有限会社,埼玉県,草加市,谷塚２丁目２６番３０号,,11,221,3400028,,,2025-04-14,清算の結了等,,,2015-10-05,1,,,,,フカザワケンチクバンキン,0
653,3050001021665,登記記録の閉鎖等,0,2025-04-21,2025-04-16,株式会社パイオニアネットワーク,,株式会社,茨城県,神栖市,矢田部９４４６番地１０,,08,232,3140341,,,2025-04-16,合併による解散等,4040001072898,令和７年４月１日千葉県銚子市柴崎町一丁目３１５番６株式会社パイオニアセキュリティー（4040001072898）に合併し解散,2015-10-05,1,,,,,パイオニアネットワーク,0
659,3080001017198,登記記録の閉鎖等,0,2025-04-21,2025-04-15,株式会社エイ・エム企画,,株式会社,静岡県,藤枝市,岡部町三輪１３６０番地の３２,,22,214,4211132,,,2025-04-15,清算の結了等,,,2015-10-05,1,,,,,エイエムキカク,0
669,3100001023061,登記記録の閉鎖等,0,2025-04-21,2025-04-14,株式会社スタンレー伊那製作所,,株式会社,長野県,飯田市,松尾寺所７３０２番地１号,,20,205,3950822,,,2025-04-14,清算の結了等,,,2015-10-05,1,,,,,スタンレーイナセイサクジョ,0
670,3100001036286,登記記録の閉鎖等,0,2025-04-21,2025-04-08,株式会社サン農事センター,,株式会社,長野県,佐久市,野沢１番地,,20,217,3850053,,,2025-04-08,合併による解散等,3100001007295,令和７年４月１日長野県佐久市野沢１番地相馬商事株式会社（3100001007295）に合併し解散,2023-04-10,1,,,,,サンノウジセンター,0
676,3110003001691,登記記録の閉鎖等,0,2025-04-21,2025-04-09,株式会社信越電設,,株式会社,新潟県,糸魚川市,寺島２丁目１番３９号,,15,216,9410066,,,2025-04-09,清算の結了等,,,2015-10-05,1,,,,,シンエツデンセツ,0
680,3120001136737,登記記録の閉鎖等,0,2025-04-21,2025-04-18,株式会社ＧＬＯＢＲＩＤＧＥ,,株式会社,大阪府,大阪市北区,西天満２丁目９番１４号,,27,127,5300047,,,2025-04-18,清算の結了等,,,2015-10-05,1,,,,,グローブリッジ,0
698,3120101024627,登記記録の閉鎖等,0,2025-04-21,2025-04-11,株式会社積水化成品堺,,株式会社,大阪府,堺市堺区,匠町１番地,,27,141,5900908,,,2025-04-11,清算の結了等,,,2015-10-05,1,,,,,セキスイカセイヒンサカイ,0
717,3140002061783,登記記録の閉鎖等,0,2025-04-21,2025-04-08,橘織物有限会社,,有限会社,兵庫県,多可郡多可町,八千代区中野間５８９番地,,28,365,6770121,,,2025-04-08,清算の結了等,,,2015-10-05,1,,,,,タチバナオリモノ,0
732,3180002048760,登記記録の閉鎖等,0,2025-04-21,2025-04-09,朝倉サービス有限会社,,有限会社,愛知県,名古屋市中川区,中郷５丁目１０番地,,23,110,4540921,,,2025-04-09,清算の結了等,,,2015-10-05,1,,,,,アサクラサービス,0
733,3180002066201,登記記録の閉鎖等,0,2025-04-21,2025-04-10,有限会社新谷健康・美容クリニック,,有限会社,愛知県,春日井市,宮町字宮町２０９番地の１,,23,206,4860904,,,2025-04-10,清算の結了等,,,2015-10-05,1,,,,,シンタニケンコウビヨウクリニック,0
757,3310002002753,登記記録の閉鎖等,0,2025-04-21,2025-04-14,千里工業有限会社,,有限会社,長崎県,長崎市,白鳥町２番２２号メイゾン白鳥１０５号,,42,201,8528042,,,2025-04-14,清算の結了等,,,2015-10-05,1,,,,,センリコウギョウ,0
761,3320201000532,登記記録の閉鎖等,0,2025-04-21,2025-04-17,株式会社大分創研テックカンパニー,,株式会社,大分県,臼杵市,野津町大字秋山１３０５番地１,,44,206,8750221,,,2025-04-17,清算の結了等,,,2015-10-05,1,,,,,,0
781,3360003012045,登記記録の閉鎖等,0,2025-04-21,2025-04-07,合同会社ｅｎｇｒｏｏ　ｏｋｉｎａｗａ　ｓｏｌｕｔｉｏｎｓ,,合同会社,沖縄県,那覇市,壺川３丁目３－２コーポリバーサイド４階,,47,201,9000025,,,2025-04-07,清算の結了等,,,2022-05-30,1,,,,,エングルーオキナワソリューションズ,0
788,3380001008497,登記記録の閉鎖等,0,2025-04-21,2025-04-07,株式会社アーク・フィールド,,株式会社,福島県,郡山市,喜久田町字入ノ内３２番地の４５,,07,203,9630551,,,2025-04-07,清算の結了等,,,2015-10-05,1,,,,,アークフィールド,0
794,3380005010615,登記記録の閉鎖等,0,2025-04-21,2025-04-03,ＮＰＯ法人ふくしま３０年プロジェクト,,その他の設立登記法人,福島県,福島市,飯坂町字一本松１１番７,,07,201,9600201,,,2025-04-03,清算の結了等,,,2015-10-05,1,,,,,フクシマサンジュウネンプロジェクト,0
796,3400001013288,登記記録の閉鎖等,0,2025-04-21,2025-04-02,小笠原建材株式会社,,株式会社,岩手県,北上市,小鳥崎３地割３６番地２,,03,206,0240105,,,2025-04-02,清算の結了等,,,2016-07-14,1,,,,,オガサワラケンザイ,0
805,3460305000150,登記記録の閉鎖等,0,2025-04-21,2025-04-18,医療法人治恵会,,その他の設立登記法人,北海道,北見市,とん田東町３８３番地,,01,208,0900833,,,2025-04-18,清算の結了等,,,2015-10-05,1,,,,,ジケイカイ,0
808,3470002017975,登記記録の閉鎖等,0,2025-04-21,2025-04-15,有限会社松岡印刷所,,有限会社,香川県,さぬき市,志度字石立９８４番地,,37,206,7692101,,,2025-04-15,清算の結了等,,,2015-10-05,1,,,,,マツオカインサツシヨ,0
809,3480001008784,登記記録の閉鎖等,0,2025-04-21,2025-04-11,株式会社武田会計事務所,,株式会社,徳島県,徳島市,城東町２丁目２番２４－５号,,36,201,7700862,,,2025-04-11,清算の結了等,,,2015-10-05,1,,,,,タケダカイケイジムショ,0
816,4010001107120,登記記録の閉鎖等,0,2025-04-21,2025-04-15,株式会社ＥＮＥＯＳジェイクエスト,,株式会社,東京都,中央区,新川１丁目１０番１４号,,13,102,1040033,,,2025-04-15,合併による解散等,4010001140063,令和７年４月１日東京都港区芝公園二丁目４番１号株式会社ＥＮＥＯＳモビリニア（4010001140063）に合併し解散,2015-10-05,1,,,,,エネオスジェイクエスト,0
817,4010001117490,登記記録の閉鎖等,0,2025-04-21,2025-04-01,株式会社ディオントーキョー,,株式会社,東京都,新宿区,高田馬場３丁目１２番２号,,13,104,1690075,,,2025-04-01,合併による解散等,8010001233573,令和７年４月１日東京都新宿区高田馬場三丁目１２番２号株式会社ディオントーキョー（8010001233573）に合併し解散,2015-10-05,1,,,,,ディオントーキョー,0
836,4010401017885,登記記録の閉鎖等,0,2025-04-21,2025-04-15,株式会社ＥＮＥＯＳジェネレーションズ,,株式会社,神奈川県,横浜市西区,みなとみらい４丁目４番２号,,14,103,2200012,,,2025-04-15,合併による解散等,4010001140063,令和７年４月１日東京都港区芝公園二丁目４番１号株式会社ＥＮＥＯＳモビリニア（4010001140063）に合併し解散,2015-10-05,1,,,,,エネオスジェネレーションズ,0
858,4011001065457,登記記録の閉鎖等,0,2025-04-21,2025-04-14,株式会社アイエイチ・ラブ,,株式会社,東京都,世田谷区,玉川３丁目２０番２号,,13,112,1580094,,,2025-04-14,清算の結了等,,,2015-10-05,1,,,,,アイエイチラブ,0
881,4011502006769,登記記録の閉鎖等,0,2025-04-21,2025-04-14,有限会社畔上製本所,,有限会社,東京都,荒川区,町屋２丁目１４番３号,,13,118,1160001,,,2025-04-14,清算の結了等,,,2015-10-05,1,,,,,,0
904,4020003016558,登記記録の閉鎖等,0,2025-04-21,2025-03-17,合同会社ハピフル,,合同会社,神奈川県,川崎市川崎区,台町８－１,,14,131,2100814,,,2025-03-17,清算の結了等,,,2019-08-21,1,,,,,ハピフル,0
911,4021002069679,登記記録の閉鎖等,0,2025-04-21,2025-04-16,有限会社翔,,有限会社,神奈川県,逗子市,逗子５丁目４番２９号,,14,208,2490006,,,2025-04-16,清算の結了等,,,2015-10-05,1,,,,,カケル,0
913,4030001106426,登記記録の閉鎖等,0,2025-04-21,2025-04-16,株式会社城南フェアリィー,,株式会社,埼玉県,越谷市,瓦曽根２丁目８－７３金田第二ビル２Ａ,,11,222,3430821,,,2025-04-16,合併による解散等,8020001073184,令和７年４月１日川崎市川崎区駅前本町２２番地２株式会社城南進学研究社（8020001073184）に合併し解散,2015-10-05,1,,,,,ジョウナンフェアリィー,0
920,4030005016431,登記記録の閉鎖等,0,2025-04-21,2025-04-14,特定非営利活動法人エルミタージュ,,その他の設立登記法人,埼玉県,越谷市,大字弥十郎４６８番地１越谷弥十郎圦前住宅１０７,,11,222,3430047,,,2025-04-14,清算の結了等,,,2015-10-05,1,,,,,エルミタージュ,0
922,4040001000322,登記記録の閉鎖等,0,2025-04-21,2025-04-03,アサヒ木材株式会社,,株式会社,千葉県,千葉市緑区,大野台１丁目７番地８,,12,105,2670056,,,2025-04-03,清算の結了等,,,2015-10-05,1,,,,,アサヒモクザイ,0
923,4040001031805,登記記録の閉鎖等,0,2025-04-21,2025-04-02,株式会社信生設備,,株式会社,千葉県,市川市,柏井町１丁目２２１２番地,,12,203,2720802,,,2025-04-02,清算の結了等,,,2015-10-05,1,,,,,シンセイセツビ,0
927,4040001110385,登記記録の閉鎖等,0,2025-04-21,2025-04-04,ベタス株式会社,,株式会社,千葉県,市川市,島尻２番３４－１０１７号,,12,203,2720145,,,2025-04-04,清算の結了等,,,2019-08-16,1,,,,,ベタス,0
931,4040002036588,登記記録の閉鎖等,0,2025-04-21,2025-04-07,有限会社萬喜商店,,有限会社,東京都,三鷹市,中原２丁目１１番１９号,,13,204,1810005,,,2025-04-07,清算の結了等,,,2015-10-05,1,,,,,ヨロキショウテン,0
938,4050001047164,登記記録の閉鎖等,0,2025-04-21,2025-04-04,友泉科研株式会社,,株式会社,茨城県,古河市,中田２４１５番地２,,08,204,3060053,,,2025-04-04,清算の結了等,,,2020-02-14,1,,,,,ユウセンカケン,0
946,4080401016360,登記記録の閉鎖等,0,2025-04-21,2025-04-16,株式会社ニッパ,,株式会社,静岡県,磐田市,川袋１５５０番地,,22,211,4380232,,,2025-04-16,合併による解散等,1010001245419,令和７年４月１日東京都千代田区内幸町一丁目３番３号株式会社ニッパホールディングス（1010001245419）に合併し解散,2015-10-05,1,,,,,ニッパ,0
956,4100002023794,登記記録の閉鎖等,0,2025-04-21,2025-04-15,有限会社デザインコム,,有限会社,長野県,安曇野市,豊科１１６０番地３,,20,220,3998205,,,2025-04-15,清算の結了等,,,2015-10-05,1,,,,,デザインコム,0
957,4110001012590,登記記録の閉鎖等,0,2025-04-21,2025-04-01,株式会社五菱電子,,株式会社,新潟県,新発田市,大伝５４０番地の１,,15,206,9592304,,,2025-04-01,合併による解散等,3110001012708,令和７年４月１日新潟県新発田市大伝５４０番地の１株式会社せいだ（3110001012708）に合併し解散,2015-10-05,1,,,,,ゴリョウデンシ,0
962,4120001151248,登記記録の閉鎖等,0,2025-04-21,2025-04-16,株式会社オージープラン,,株式会社,大阪府,大阪市浪速区,元町２丁目５番８号,,27,111,5560016,,,2025-04-16,合併による解散等,9010401095530,令和７年４月１日東京都中央区八重洲二丁目２番１号株式会社ストレチア（9010401095530）に合併し解散,2015-10-05,1,,,,,オージープラン,0
965,4120001249760,登記記録の閉鎖等,0,2025-04-21,2025-04-03,北開ＰＪ株式会社,,株式会社,大阪府,大阪市西区,江戸堀１丁目２５番３０号,,27,106,5500002,,,2025-04-03,合併による解散等,9120001242521,令和７年１月３０日大阪市西区江戸堀一丁目２５番１２号タット・プラン建物株式会社（9120001242521）に合併し解散,2022-10-26,1,,,,,,0
1013,4190002007211,登記記録の閉鎖等,0,2025-04-21,2025-04-09,有限会社森製作所,,有限会社,三重県,三重郡朝日町,白梅の丘東１丁目５番地１,,24,343,5108106,,,2025-04-09,清算の結了等,,,2015-10-05,1,,,,,モリセイサクショ,0
1024,4240001036247,登記記録の閉鎖等,0,2025-04-21,2025-04-15,株式会社みどりや,,株式会社,広島県,広島市安芸区,船越１丁目５３番７号,,34,107,7360081,,,2025-04-15,清算の結了等,,,2015-10-05,1,,,,,ミドリヤ,0
1029,4250002015926,登記記録の閉鎖等,0,2025-04-21,2025-04-14,有限会社ボンディ・パートナー・システム,,有限会社,山口県,下松市,望町４丁目６番３号,,35,207,7440072,,,2025-04-14,清算の結了等,,,2015-10-05,1,,,,,,0
1036,4280001008440,登記記録の閉鎖等,0,2025-04-21,2025-04-18,ヒロスカイサービス株式会社,,株式会社,島根県,雲南市,木次町下熊谷５６０番地２２,,32,209,6991333,,,2025-04-18,清算の結了等,,,2021-05-21,1,,,,,ヒロスカイサービス,0
1052,4340002014101,登記記録の閉鎖等,0,2025-04-21,2025-04-09,有限会社フラミンゴコーポレーション,,有限会社,鹿児島県,霧島市,国分中央３丁目１３番１５号,,46,218,8994332,,,2025-04-09,清算の結了等,,,2015-10-05,1,,,,,フラミンゴコーポレーション,0
1072,4430001080952,登記記録の閉鎖等,0,2025-04-21,2025-04-07,株式会社トリメストラーレ,,株式会社,北海道,札幌市中央区,南二条東２丁目１６堀尾ビル２階,,01,101,0600052,,,2025-04-07,清算の結了等,,,2020-02-28,1,,,,,トリメストラーレ,0
1080,4490001002430,登記記録の閉鎖等,0,2025-04-21,2025-04-16,株式会社エフテイオー,,株式会社,高知県,高知市,若松町５番２０号,,39,201,7800812,,,2025-04-16,清算の結了等,,,2015-10-05,1,,,,,,0
1082,4700150069133,登記記録の閉鎖等,0,2025-04-21,2025-03-28,ＮＯＫ第一企業年金基金,,その他,東京都,港区,芝大門１丁目１２番１５号,,13,103,1050012,,,2025-03-28,その他の清算の結了等,,,2016-01-12,1,,,,,エヌオーケーダイイチキギョウネンキンキキン,0
1108,5010402036339,登記記録の閉鎖等,0,2025-04-21,2025-03-31,星空有限会社,,有限会社,東京都,港区,虎ノ門１丁目２番６号,,13,103,1050001,,,2025-03-31,清算の結了等,,,2015-10-05,1,,,,,セイクウ,0
1109,5010402036363,登記記録の閉鎖等,0,2025-04-21,2025-03-31,シカゴトレーダー・リーシング有限会社,,有限会社,東京都,港区,虎ノ門１丁目２番６号,,13,103,1050001,,,2025-03-31,清算の結了等,,,2015-10-05,1,,,,,シカゴトレーダーリーシング,0
1110,5010402036628,登記記録の閉鎖等,0,2025-04-21,2025-03-31,ちゅら海・リーシング有限会社,,有限会社,東京都,港区,虎ノ門１丁目２番６号,,13,103,1050001,,,2025-03-31,清算の結了等,,,2015-10-05,1,,,,,チュラウミリーシング,0
1116,5010501038608,登記記録の閉鎖等,0,2025-04-21,2025-03-31,株式会社北のスパイス,,株式会社,東京都,台東区,浅草橋１丁目７番６号,,13,106,1110053,,,2025-03-31,合併による解散等,2010501042406,令和６年９月１日東京都台東区浅草橋一丁目７番６号株式会社スパイスワークスホールディングス（2010501042406）に合併し解散,2015-10-05,1,,,,,キタノスパイス,0
1132,5010802017946,登記記録の閉鎖等,0,2025-04-21,2025-04-08,有限会社エーシープラネット,,有限会社,東京都,大田区,中央６丁目２２番２号,,13,111,1430024,,,2025-04-08,清算の結了等,,,2015-10-05,1,,,,,エーシープラネット,0
1142,5011001152287,登記記録の閉鎖等,0,2025-04-21,2025-03-25,株式会社Ｔｅｃｈ　Ｐｌｕｓ,,株式会社,東京都,渋谷区,渋谷３丁目１１番７号第２ミネギシビル９階,,13,113,1500002,,,2025-03-25,清算の結了等,,,2023-02-01,1,,,,,テックプラス,0
1196,5030001003416,登記記録の閉鎖等,0,2025-04-21,2025-04-15,埼玉コンピュータシステム株式会社,,株式会社,埼玉県,さいたま市北区,奈良町１２４番地の６,,11,102,3310822,,,2025-04-15,清算の結了等,,,2015-10-05,1,,,,,サイタマコンピュータシステム,0
1208,5040002049028,登記記録の閉鎖等,0,2025-04-21,2025-04-04,有限会社茗荷工業所,,有限会社,千葉県,松戸市,河原塚宮ノ内３４２番地,,12,207,2702254,,,2025-04-04,清算の結了等,,,2015-10-05,1,,,,,,0
1230,5080101007106,登記記録の閉鎖等,0,2025-04-21,2025-04-07,株式会社アイタック,,株式会社,静岡県,駿東郡長泉町,竹原２９９番地の１６,,22,342,4110944,,,2025-04-07,清算の結了等,,,2015-10-05,1,,,,,,0
1240,5120001018306,登記記録の閉鎖等,0,2025-04-21,2025-04-18,株式会社永井,,株式会社,大阪府,大阪市生野区,勝山北２丁目１３番１５号,,27,116,5440033,,,2025-04-18,清算の結了等,,,2015-10-05,1,,,,,ナガイ,0
1249,5120001245271,登記記録の閉鎖等,0,2025-04-21,2025-04-17,Ａｌｅｓ株式会社,,株式会社,大阪府,大阪市浪速区,下寺１丁目３－１６－４０６,,27,111,5560001,,,2025-04-17,清算の結了等,,,2022-04-15,1,,,,,アレス,0
1264,5130001050431,登記記録の閉鎖等,0,2025-04-21,2025-04-14,株式会社ＴＨＥ　ＮｅＯ,,株式会社,京都府,京都市中京区,寺町通竹屋町上る藤木町１８番地,,26,104,6040992,,,2025-04-14,清算の結了等,,,2015-10-05,1,,,,,ザネオ,0
1273,5180001013061,登記記録の閉鎖等,0,2025-04-21,2025-04-14,株式会社にしき会,,株式会社,愛知県,名古屋市北区,大杉１丁目５番１号コーポ大船１０１号室,,23,103,4620837,,,2025-04-14,清算の結了等,,,2015-10-05,1,,,,,ニシキカイ,0
1277,5180001159499,登記記録の閉鎖等,0,2025-04-21,2025-04-14,株式会社ＴＳＵＤＯＥ,,株式会社,愛知県,名古屋市中村区,名駅３丁目４番１０号アルティメイト名駅１ｓｔ２階,,23,105,4500002,,,2025-04-14,清算の結了等,,,2023-12-22,1,,,,,ツドエ,0
1301,5290001058302,登記記録の閉鎖等,0,2025-04-21,2025-04-04,株式会社住友,,株式会社,福岡県,久留米市,城島町内野４４３番地,,40,203,8300204,,,2025-04-04,清算の結了等,,,2015-10-05,1,,,,,スミトモ,0
1310,5310002002074,登記記録の閉鎖等,0,2025-04-21,2025-04-15,有限会社さとう,,有限会社,長崎県,長崎市,上小島２丁目１１番１３号,,42,201,8500834,,,2025-04-15,清算の結了等,,,2015-10-05,1,,,,,サトウ,0
1311,5310002014441,登記記録の閉鎖等,0,2025-04-21,2025-04-15,有限会社辻山商店,00096062,有限会社,長崎県,南松浦郡新上五島町,奈摩郷８番地,,42,411,8574402,,,2025-04-15,清算の結了等,,,2015-10-05,1,,,,,ツジヤマショウテン,0
1320,5350002005965,登記記録の閉鎖等,0,2025-04-21,2025-04-10,有限会社ジョインコ,,有限会社,宮崎県,宮崎市,大塚台東１丁目４２番地５１ル・グラン大塚台９０４号,00100759,45,201,8800952,,,2025-04-10,清算の結了等,,,2015-10-05,1,,,,,ジョインコ,0
1359,6010401111034,登記記録の閉鎖等,0,2025-04-21,2025-03-31,全日空商事キグナスリーシング株式会社,,株式会社,東京都,港区,東新橋１丁目５番２号,,13,103,1050021,,,2025-03-31,清算の結了等,,,2015-10-05,1,,,,,ゼンニックウショウジキグナスリーシング,0
1369,6010402036627,登記記録の閉鎖等,0,2025-04-21,2025-03-31,ロサンゼルストレーダー・リーシング有限会社,,有限会社,東京都,港区,虎ノ門１丁目２番６号,,13,103,1050001,,,2025-03-31,清算の結了等,,,2015-10-05,1,,,,,ロサンゼルストレーダーリーシング,0
1370,6010403024523,登記記録の閉鎖等,0,2025-04-21,2025-03-31,合同会社フラッグ,,合同会社,東京都,港区,虎ノ門３丁目２２番１０－２０１号,,13,103,1050001,,,2025-03-31,清算の結了等,,,2021-01-22,1,,,,,フラッグ,0
1381,6010801024785,登記記録の閉鎖等,0,2025-04-21,2025-04-01,株式会社ＣＨＲＯＭＡ,,株式会社,東京都,渋谷区,代々木１丁目１１番２号,,13,113,1510053,,,2025-04-01,合併による解散等,6010801022401,令和７年４月１日東京都渋谷区代々木一丁目１１番２号株式会社リペア（6010801022401）に合併し解散,2015-10-05,1,,,,,クロマ,0
1388,6011001152261,登記記録の閉鎖等,0,2025-04-21,2025-03-25,トイコーエステート株式会社,,株式会社,東京都,渋谷区,道玄坂２丁目１８－１１サンモール道玄坂２１８,,13,113,1500043,,,2025-03-25,清算の結了等,,,2023-01-31,1,,,,,トイコーエステート,0
1399,6011201011317,登記記録の閉鎖等,0,2025-04-21,2025-04-17,株式会社石野測量,,株式会社,東京都,中野区,中央１丁目９番５号,,13,114,1640011,,,2025-04-17,清算の結了等,,,2015-10-05,1,,,,,,0
1402,6011501012964,登記記録の閉鎖等,0,2025-04-21,2025-04-11,株式会社山川,,株式会社,東京都,荒川区,南千住７丁目４番８号,,13,118,1160003,,,2025-04-11,清算の結了等,,,2015-10-05,1,,,,,ヤマカワ,0
1413,6012403000842,登記記録の閉鎖等,0,2025-04-21,2025-04-03,合資会社ランコントル,,合資会社,東京都,三鷹市,牟礼６丁目２３番５－８０１号,,13,204,1810002,,,2025-04-03,清算の結了等,,,2015-10-05,1,,,,,ランコントル,0
1422,6020001127693,登記記録の閉鎖等,0,2025-04-21,2025-04-07,株式会社ＮＥＸＴ　ＭＯＶＥＭＥＮＴ,,株式会社,神奈川県,川崎市宮前区,野川本町２丁目５番２０号,,14,136,2160041,,,2025-04-07,清算の結了等,,,2018-08-24,1,,,,,ネクストムーブメント,0
1435,6030002084842,登記記録の閉鎖等,0,2025-04-21,2025-04-09,有限会社阿部電機製作所,,有限会社,新潟県,新潟市西区,板井２３４番地,,15,107,9501121,,,2025-04-09,清算の結了等,,,2015-10-05,1,,,,,アベデンキセイサクショ,0
1449,6050001014039,登記記録の閉鎖等,0,2025-04-21,2025-04-08,沓掛建興株式会社,,株式会社,茨城県,古河市,女沼１５２７番地１５,,08,204,3060226,,,2025-04-08,清算の結了等,,,2015-10-05,1,,,,,クツカケケンコウ,0
1451,6050001022660,登記記録の閉鎖等,0,2025-04-21,2025-04-07,株式会社鹿嶋エコプラント,,株式会社,茨城県,鹿嶋市,大字平井２２６３番地,,08,222,3140012,,,2025-04-07,清算の結了等,,,2015-10-05,1,,,,,カシマエコプラント,0
1452,6050001040043,登記記録の閉鎖等,0,2025-04-21,2025-04-01,株式会社スリージェイ,,株式会社,千葉県,我孫子市,湖北台１丁目１６番地の７,,12,222,2701132,,,2025-04-01,合併による解散等,6040001069703,令和７年４月１日千葉県我孫子市湖北台一丁目１６番地の７株式会社ＫＡＭ（6040001069703）に合併し解散,2015-11-04,1,,,,,スリージェイ,0
1472,6100001007904,登記記録の閉鎖等,0,2025-04-21,2025-04-16,株式会社吉田製作所,,株式会社,長野県,佐久市,長土呂１６８番地１,,20,217,3850021,,,2025-04-16,合併による解散等,6013301016880,令和７年４月１日東京都豊島区池袋二丁目７７番５号三和タジマ株式会社（6013301016880）に合併し解散,2015-10-05,1,,,,,ヨシダセイサクショ,0
1477,6120001239586,登記記録の閉鎖等,0,2025-04-21,2025-04-17,株式会社Ｓ・Ｓパートナー,,株式会社,大阪府,大阪市西区,西本町１丁目８番２号三晃ビル９階,,27,106,5500005,,,2025-04-17,清算の結了等,,,2021-08-11,1,,,,,エスエスパートナー,0
1478,6120001246731,登記記録の閉鎖等,0,2025-04-21,2025-04-01,株式会社ＰＧ‐Ｌｅａｆ,,株式会社,大阪府,大阪市福島区,福島６丁目９番１５号,,27,103,5530003,,,2025-04-01,合併による解散等,7120001247308,令和７年４月１日大阪市北区堂島浜一丁目１番２７号株式会社ヴィタファーマシーズ（7120001247308）に合併し解散,2022-06-15,1,,,,,ピージーリーフ,0
1481,6120001269682,登記記録の閉鎖等,0,2025-04-21,2025-04-17,新子金株式会社,,株式会社,大阪府,大阪市中央区,博労町１丁目６番１３－３０７号,,27,128,5410059,,,2025-04-17,清算の結了等,,,2024-10-25,1,,,,,シンコガネ,0
1489,6130001077837,登記記録の閉鎖等,0,2025-04-21,2025-04-11,ビックバイ株式会社,,株式会社,京都府,乙訓郡大山崎町,字大山崎小字上ノ田３１,,26,303,6180071,,,2025-04-11,清算の結了等,,,2024-09-02,1,,,,,ビックバイ,0
1491,6140001092777,登記記録の閉鎖等,0,2025-04-21,2025-04-15,株式会社祐貴,,株式会社,兵庫県,神戸市中央区,中山手通１丁目２３番１６－５０５号,,28,110,6500004,,,2025-04-15,清算の結了等,,,2015-10-05,1,,,,,,0
1501,6180001118140,登記記録の閉鎖等,0,2025-04-21,2025-04-09,株式会社アラジン,,株式会社,愛知県,名古屋市南区,豊田１丁目１４番１号,,23,112,4570841,,,2025-04-09,清算の結了等,,,2015-10-05,1,,,,,アラジン,0
1504,6180001151034,登記記録の閉鎖等,0,2025-04-21,2025-04-09,株式会社とこしば,,株式会社,愛知県,名古屋市港区,善進町４丁目４９番地Ｂ棟,,23,111,4550811,,,2025-04-09,清算の結了等,,,2022-04-21,1,,,,,トコシバ,0
1509,6180002056967,登記記録の閉鎖等,0,2025-04-21,2025-04-09,有限会社丹羽工作所,,有限会社,愛知県,西春日井郡豊山町,大字青山字江川１３５番地,,23,342,4800201,,,2025-04-09,清算の結了等,,,2015-10-05,1,,,,,ニワコウサクジョ,0
1514,6200002000848,登記記録の閉鎖等,0,2025-04-21,2025-04-16,有限会社オガワ観光,,有限会社,岐阜県,岐阜市,加納水野町１丁目３３番地,,21,201,5008477,,,2025-04-16,清算の結了等,,,2015-10-05,1,,,,,オガワカンコウ,0
1531,6240005002565,登記記録の閉鎖等,0,2025-04-21,2025-04-17,医療法人社団岡本眼科,,その他の設立登記法人,広島県,広島市安佐北区,可部５丁目１４番１６号,,34,106,7310221,,,2025-04-17,清算の結了等,,,2015-10-05,1,,,,,オカモトガンカ,0
1532,6250001003640,登記記録の閉鎖等,0,2025-04-21,2025-04-14,ムラタ工業株式会社,,株式会社,山口県,宇部市,大小路３丁目４番３９－５号,,35,202,7550076,,,2025-04-14,清算の結了等,,,2015-10-05,1,,,,,ムラタコウギョウ,0
1547,6310003001231,登記記録の閉鎖等,0,2025-04-21,2025-04-16,合資会社國松医療器械店,,合資会社,長崎県,佐世保市,光月町２番６号,,42,202,8570805,,,2025-04-16,清算の結了等,,,2015-10-05,1,,,,,クニマツイリョウキカイテン,0
1558,6350001000371,登記記録の閉鎖等,0,2025-04-21,2025-04-11,株式会社川越建設,,株式会社,宮崎県,宮崎市,田野町甲４５０８番地７,,45,201,8891701,,,2025-04-11,清算の結了等,,,2015-10-05,1,,,,,カワゴエケンセツ,0
1559,6360001013521,登記記録の閉鎖等,0,2025-04-21,2025-04-08,ドリームフーズ株式会社,,株式会社,沖縄県,石垣市,字真栄里３０７番地の１,,47,207,9070002,,,2025-04-08,合併による解散等,3360002021699,令和７年３月３１日沖縄県石垣市字真栄里３０７番地の１株式会社ドリームコーポレーション（3360002021699）に合併し解散,2015-10-05,1,,,,,ドリームフーズ,0
1579,6450001008909,登記記録の閉鎖等,0,2025-04-21,2025-04-08,ユニバーサル興産株式会社,,株式会社,北海道,留萌市,見晴町６丁目２１５番地の１６,,01,212,0770033,,,2025-04-08,清算の結了等,,,2015-10-05,1,,,,,ユニバーサルコウサン,0
1618,7010701030115,登記記録の閉鎖等,0,2025-04-21,2025-04-01,株式会社宙,,株式会社,東京都,品川区,南大井３丁目２０番１６号,,13,109,1400013,,,2025-04-01,清算の結了等,,,2015-10-05,1,,,,,ソラ,0
1653,7011401022807,登記記録の閉鎖等,0,2025-04-21,2025-04-04,万微科技株式会社,,株式会社,東京都,中央区,日本橋小伝馬町１７番１５号ＬＳＴビル１Ｆ,,13,102,1030001,,,2025-04-04,清算の結了等,,,2020-09-10,1,,,,,マンビカギ,0
1681,7020001022646,登記記録の閉鎖等,0,2025-04-21,2025-04-11,株式会社神奈川クッキングサービスセンター,,株式会社,神奈川県,横浜市神奈川区,神奈川本町２番地８,,14,102,2210046,,,2025-04-11,合併による解散等,3010001025934,令和７年４月１日東京都江東区新木場一丁目１８番６号株式会社ニッコクトラスト（3010001025934）に合併し解散,2015-10-05,1,,,,,カナガワクッキングセンター,0
1695,7030001026753,登記記録の閉鎖等,0,2025-04-21,2025-04-14,株式会社入間給食センター,,株式会社,埼玉県,入間市,宮寺２５７３番地,,11,225,3580014,,,2025-04-14,清算の結了等,,,2015-10-05,1,,,,,イルマキュウショクセンター,0
1707,7040001052518,登記記録の閉鎖等,0,2025-04-21,2025-04-03,木更津教育サービスＰＦＩ株式会社,,株式会社,千葉県,木更津市,清見台南１丁目６番６号,,12,206,2920042,,,2025-04-03,清算の結了等,,,2015-10-05,1,,,,,キサラヅキョウイクサービスピーエフアイ,0
1708,7040001070734,登記記録の閉鎖等,0,2025-04-21,2025-04-03,株式会社ワイズ,,株式会社,千葉県,柏市,東中新宿２丁目６－７－３０１,,12,217,2770061,,,2025-04-03,清算の結了等,,,2015-10-05,1,,,,,ワイズ,0
1725,7070001007106,登記記録の閉鎖等,0,2025-04-21,2025-04-01,上信エージェンシー株式会社,,株式会社,群馬県,高崎市,鶴見町５１番地,,10,202,3700848,,,2025-04-01,合併による解散等,5070001007099,令和７年３月３１日群馬県高崎市鶴見町５１番地上信電鉄株式会社（5070001007099）に合併し解散,2015-10-05,1,,,,,ジョウシンエージェンシー,0
1726,7070001020380,登記記録の閉鎖等,0,2025-04-21,2025-04-14,株式会社レステム,,株式会社,群馬県,太田市,石原町２７７番地１,,10,205,3730808,,,2025-04-14,合併による解散等,8370001003115,令和７年４月１日仙台市宮城野区福田町南二丁目３番５０号株式会社サン・ベンディング東北（8370001003115）に合併し解散,2015-10-05,1,,,,,レステム,0
1754,7120101049380,登記記録の閉鎖等,0,2025-04-21,2025-04-11,株式会社ＡＳＫベル,,株式会社,大阪府,堺市西区,津久野町１丁９番１１号,,27,144,5938322,,,2025-04-11,清算の結了等,,,2015-10-05,1,,,,,アスクベル,0
1766,7140001077752,登記記録の閉鎖等,0,2025-04-21,2025-04-15,株式会社食彩工房みかた,,株式会社,兵庫県,丹波市,氷上町三方３１３番地１,,28,223,6693624,,,2025-04-15,清算の結了等,,,2015-10-05,1,,,,,ショクサイコウボウミカタ,0
1771,7140002050923,登記記録の閉鎖等,0,2025-04-21,2025-04-09,有限会社松産業,,有限会社,兵庫県,姫路市,飾磨区中島９５０番地６,,28,201,6728035,,,2025-04-09,清算の結了等,,,2015-10-05,1,,,,,マツサンギョウ,0
1775,7140005015717,登記記録の閉鎖等,0,2025-04-21,2025-04-16,特定非営利活動法人ＮＰＯベストパートナー神戸,,その他の設立登記法人,兵庫県,神戸市中央区,磯辺通４丁目２－８田嶋ビル７階Ｆ号室,,28,110,6510084,,,2025-04-16,清算の結了等,,,2015-10-05,1,,,,,ベストパートナーコウベ,0
1784,7180005007363,登記記録の閉鎖等,0,2025-04-21,2025-04-08,医療法人土井歯科医院,,その他の設立登記法人,愛知県,日進市,蟹甲町浅間下７番地２,,23,230,4700122,,,2025-04-08,清算の結了等,,,2015-10-05,1,,,,,ドイシカイイン,0
1787,7180302006126,登記記録の閉鎖等,0,2025-04-21,2025-04-11,有限会社青山精工,,有限会社,愛知県,豊橋市,小島町字池ノ谷１５６番地の１,,23,201,4413122,,,2025-04-11,清算の結了等,,,2015-10-05,1,,,,,アオヤマセイコウ,0
1800,7230002011577,登記記録の閉鎖等,0,2025-04-21,2025-04-18,有限会社テイ・エス・エス,,有限会社,富山県,高岡市,北島４２９番地１２,,16,202,9330838,,,2025-04-18,清算の結了等,,,2015-10-05,1,,,,,テイエスエス,0
1806,7290001007620,登記記録の閉鎖等,0,2025-04-21,2025-04-03,三光印刷株式会社,,株式会社,福岡県,福岡市中央区,大宮１丁目７番２５号,,40,133,8100013,,,2025-04-03,清算の結了等,,,2015-10-05,1,,,,,サンコウインサツ,0
1816,7310002005232,登記記録の閉鎖等,0,2025-04-21,2025-04-16,有限会社松葉企画,,有限会社,長崎県,長崎市,高尾町６番４８号,,42,201,8528111,,,2025-04-16,清算の結了等,,,2015-10-05,1,,,,,マツバキカク,0
1819,7330001028026,登記記録の閉鎖等,0,2025-04-21,2025-04-08,ＲＥＶＥＳ　ＮＥＴ株式会社,,株式会社,熊本県,熊本市中央区,船場町２丁目４２ライオンズマンション熊本中央４１０,,43,101,8600019,,,2025-04-08,清算の結了等,,,2020-11-18,1,,,,,レーブスネット,0
1821,7330002017498,登記記録の閉鎖等,0,2025-04-21,2025-04-10,有限会社明由商会,,有限会社,熊本県,菊池郡菊陽町,大字久保田２８２１番地１,,43,404,8691103,,,2025-04-10,清算の結了等,,,2015-10-05,1,,,,,メイユウショウカイ,0
1842,7400002006700,登記記録の閉鎖等,0,2025-04-21,2025-04-03,有限会社中村屋,,有限会社,岩手県,岩手郡雫石町,中町１１番地２,,03,301,0200527,,,2025-04-03,清算の結了等,,,2015-10-05,1,,,,,ナカムラヤ,0
1843,7400002008151,登記記録の閉鎖等,0,2025-04-21,2025-03-28,有限会社サン・シーリング,,有限会社,岩手県,花巻市,諏訪１８２番地６,,03,205,0250033,,,2025-03-28,清算の結了等,,,2015-10-05,1,,,,,サンシーリング,0
1855,7490003001782,登記記録の閉鎖等,0,2025-04-21,2025-04-15,ＫＳＴ合同会社,,合同会社,高知県,高知市,本町１丁目３番１８号山崎ビル１Ｆ,,39,201,7800870,,,2025-04-15,清算の結了等,,,2023-05-22,1,,,,,ケイエスティー,0
1875,8010003036090,登記記録の閉鎖等,0,2025-04-21,2025-04-04,丸の内ソーラー合同会社,,合同会社,東京都,千代田区,麹町２丁目８番地ＭＬＣ麹町ビル４階フィンポート税理士法人内,,13,101,1020083,,,2025-04-04,清算の結了等,,,2021-10-22,1,,,,,マルノウチソーラー,0
1877,8010401116907,登記記録の閉鎖等,0,2025-04-21,2025-04-02,株式会社アクシア,,株式会社,神奈川県,横浜市西区,北幸２丁目１５番１０号,,14,103,2200004,,,2025-04-02,合併による解散等,6020001123370,令和７年４月１日神奈川県横浜市西区北幸二丁目１５番１０号トライアンフィールドホールディングス株式会社（6020001123370）に合併し解散,2015-10-05,1,,,,,アクシア,0
1879,8010401186009,登記記録の閉鎖等,0,2025-04-21,2025-03-27,日本テレスコム株式会社,,株式会社,東京都,港区,六本木７丁目１５番１４号塩業ビル内,,13,103,1060032,,,2025-03-27,清算の結了等,,,2024-12-12,1,,,,,,0
1882,8010402036344,登記記録の閉鎖等,0,2025-04-21,2025-03-31,インカンデセント・リーシング有限会社,,有限会社,東京都,港区,虎ノ門１丁目２番６号,,13,103,1050001,,,2025-03-31,清算の結了等,,,2015-10-05,1,,,,,インカンデセントリーシング,0
1883,8010403016642,登記記録の閉鎖等,0,2025-04-21,2025-04-04,マイケルマンジャパン合同会社,,合同会社,東京都,中央区,日本橋３丁目９番１号日本橋三丁目スクエア１１階,,13,102,1030027,,,2025-04-04,清算の結了等,,,2017-05-25,1,,,,,マイケルマンジャパン,0
1886,8010701017771,登記記録の閉鎖等,0,2025-04-21,2025-04-02,いすゞ保険サービス株式会社,,株式会社,神奈川県,横浜市西区,高島１丁目２番５号,,14,103,2200011,,,2025-04-02,合併による解散等,5010701018525,令和７年４月１日横浜市西区高島一丁目２番５号いすゞビルドライフ株式会社（5010701018525）に合併し解散,2015-10-05,1,,,,,イスズホケンサービス,0
1887,8010701037225,登記記録の閉鎖等,0,2025-04-21,2025-04-10,株式会社ＮＥＸＵＳ　ＤＩＮＩＮＧ,,株式会社,東京都,品川区,上大崎２丁目１５番１９号ＭＧ目黒駅前７１４,,13,109,1410021,,,2025-04-10,清算の結了等,,,2019-03-06,1,,,,,ネクサスダイニング,0
1892,8010901043700,登記記録の閉鎖等,0,2025-04-21,2025-04-16,ＳＬコンサルティング株式会社,,株式会社,東京都,世田谷区,上用賀５丁目２５番１７号,,13,112,1580098,,,2025-04-16,清算の結了等,,,2019-03-01,1,,,,,エスエルコンサルティング,0
1903,8011001157358,登記記録の閉鎖等,0,2025-04-21,2025-04-15,株式会社ＦＬＣ,,株式会社,東京都,目黒区,下目黒１丁目８番１号アルコタワー１２Ｆ,,13,110,1530064,,,2025-04-15,合併による解散等,7010501004293,令和７年４月１日東京都台東区台東二丁目７番３号株式会社コーディネート（7010501004293）に合併し解散,2023-10-04,1,,,,,エフエルシー,0
1915,8011502006328,登記記録の閉鎖等,0,2025-04-21,2025-04-14,有限会社吉葉紙工,,有限会社,東京都,北区,赤羽西６丁目３０番８号,,13,117,1150055,,,2025-04-14,清算の結了等,,,2015-10-05,1,,,,,ヨシバシコウ,0
1919,8011801020657,登記記録の閉鎖等,0,2025-04-21,2025-04-14,株式会社育志．,,株式会社,東京都,葛飾区,青戸３丁目３２番３号沼野ビル２Ｆ,,13,122,1250062,,,2025-04-14,清算の結了等,,,2015-10-05,1,,,,,イクシ,0
1936,8020002003487,登記記録の閉鎖等,0,2025-04-21,2025-04-14,有限会社マリンデンタル,,有限会社,神奈川県,横浜市瀬谷区,三ツ境１０７－１－３０１,,14,114,2460022,,,2025-04-14,合併による解散等,6011601002758,令和７年４月１日東京都練馬区中村北二丁目１８番８号株式会社サプライ（6011601002758）に合併し解散,2015-10-05,1,,,,,マリンデンタル,0
1955,8040001019111,登記記録の閉鎖等,0,2025-04-21,2025-04-03,株式会社リックフィル,,株式会社,千葉県,船橋市,習志野台６丁目１６番１５号,,12,204,2740063,,,2025-04-03,清算の結了等,,,2015-10-05,1,,,,,リックフィル,0
1959,8040001070279,登記記録の閉鎖等,0,2025-04-21,2025-04-17,ＭＯＮＫＥＥ　ＢＵＳＩＮＥＳＳ株式会社,,株式会社,茨城県,守谷市,中央２丁目１６番地８メゾンカルム１０１,,08,224,3020115,,,2025-04-17,合併による解散等,8040001088247,令和７年４月１日千葉県流山市江戸川台東四丁目３１９番地株式会社モンキーカンパニー（8040001088247）に合併し解散,2015-10-05,1,,,,,モンキービジネス,0
1974,8080002009470,登記記録の閉鎖等,0,2025-04-21,2025-04-14,有限会社大木モータース,,有限会社,静岡県,静岡市清水区,大内６９３番地の２,,22,103,4240061,,,2025-04-14,清算の結了等,,,2015-10-05,1,,,,,オオキモータース,0
1977,8080403004475,登記記録の閉鎖等,0,2025-04-21,2025-04-16,合同会社アリエス,,合同会社,静岡県,浜松市中央区,元城町２１６番地の４,,22,138,4300946,,,2025-04-16,合併による解散等,1180301038596,令和７年４月１日愛知県岡崎市大平町字天神前８番地１株式会社アース（1180301038596）に合併し解散,2022-02-21,1,,,,,アリエス,0
1984,8110001023493,登記記録の閉鎖等,0,2025-04-21,2025-04-09,丸新商事株式会社,,株式会社,新潟県,長岡市,殿町３丁目１番地１,,15,202,9400064,,,2025-04-09,清算の結了等,,,2015-10-05,1,,,,,マルシンショウジ,0
1985,8110002031909,登記記録の閉鎖等,0,2025-04-21,2025-04-09,有限会社飯浜電気工業,,有限会社,新潟県,見附市,葛巻１丁目２番１７号,,15,211,9540058,,,2025-04-09,清算の結了等,,,2015-10-05,1,,,,,イイハマデンキコウギョウ,0
1988,8120001037451,登記記録の閉鎖等,0,2025-04-21,2025-04-17,株式会社エスエルエス,,株式会社,東京都,中野区,東中野４丁目４番７号,,13,114,1640003,,,2025-04-17,合併による解散等,8010001112067,令和７年４月１日東京都中央区銀座七丁目１７番１号株式会社コンパス（8010001112067）に合併し解散,2015-10-05,1,,,,,エスエルエス,0
1990,8120001077902,登記記録の閉鎖等,0,2025-04-21,2025-04-18,株式会社木村陳列,,株式会社,大阪府,大阪市中央区,（大阪市南区難波千日前１３番１号）,,27,128,5390000,,,2025-04-18,清算の結了等,,,2015-10-05,1,,,,,キムラチンレツ,1
2002,8122001032886,登記記録の閉鎖等,0,2025-04-21,2025-04-04,株式会社ＳＨＡＲＰ　ＣＯＣＯＲＯ　ＬＩＦＥ,,株式会社,大阪府,八尾市,北亀井町３丁目１番７２号,,27,212,5810066,,,2025-04-04,合併による解散等,1040001008905,令和７年４月１日大阪府八尾市北亀井町三丁目１番７２号シャープマーケティングジャパン株式会社（1040001008905）に合併し解散,2019-08-23,1,,,,,,0
2013,8140005018909,登記記録の閉鎖等,0,2025-04-21,2025-04-16,医療法人社団明仁会小原ウイメンズクリニック,,その他の設立登記法人,兵庫県,宝塚市,山本東２丁目８番２５号,,28,214,6650881,,,2025-04-16,清算の結了等,,,2015-10-05,1,,,,,メイジンカイオハラウイメンズクリニック,0
2016,8160002009611,登記記録の閉鎖等,0,2025-04-21,2025-04-16,有限会社真和設備,,有限会社,滋賀県,東近江市,猪子町６６番地,,25,213,5211223,,,2025-04-16,清算の結了等,,,2015-10-05,1,,,,,シンワセツビ,0
2018,8180001104444,登記記録の閉鎖等,0,2025-04-21,2025-04-08,株式会社リアイズ,,株式会社,愛知県,名古屋市千種区,若水３丁目１３番５号,,23,101,4640071,,,2025-04-08,清算の結了等,,,2015-10-05,1,,,,,リアイズ,0
2024,8180002007233,登記記録の閉鎖等,0,2025-04-21,2025-04-11,有限会社宮本鉄工所,,有限会社,愛知県,名古屋市港区,東蟹田５１６番地,,23,111,4550886,,,2025-04-11,清算の結了等,,,2015-10-05,1,,,,,ミヤモトテッコウジョ,0
2025,8180002018536,登記記録の閉鎖等,0,2025-04-21,2025-04-08,有限会社大渡工業所,,有限会社,愛知県,名古屋市中川区,吉津４丁目３１０３番地,,23,110,4540981,,,2025-04-08,清算の結了等,,,2015-10-05,1,,,,,オオワタリコウギョウショ,0
2029,8180003014633,登記記録の閉鎖等,0,2025-04-21,2025-04-08,合同会社オーエフ,,合同会社,愛知県,知多市,八幡字杉山８５番地の１,,23,224,4780001,,,2025-04-08,清算の結了等,,,2015-10-05,1,,,,,オーエフ,0
2037,8210002008608,登記記録の閉鎖等,0,2025-04-21,2025-04-15,有限会社ホクヨ瓦工業,,有限会社,福井県,福井市,江端町第５号１１番地,,18,201,9188016,,,2025-04-15,清算の結了等,,,2015-10-05,1,,,,,ホクヨカワラコウギョウ,0
2038,8210002013426,登記記録の閉鎖等,0,2025-04-21,2025-04-15,有限会社前澤商会,,有限会社,福井県,鯖江市,上氏家町第１号８番地の２４,,18,207,9160066,,,2025-04-15,清算の結了等,,,2015-10-05,1,,,,,マエザワショウカイ,0
2063,8310002008548,登記記録の閉鎖等,0,2025-04-21,2025-04-16,有限会社寿陵・林田,,有限会社,長崎県,長崎市,岩屋町１７番２７号,,42,201,8528052,,,2025-04-16,清算の結了等,,,2015-10-05,1,,,,,,0
2074,8350002015466,登記記録の閉鎖等,0,2025-04-21,2025-04-11,有限会社新英測量設計,,有限会社,宮崎県,都城市,山田町中霧島３５５３番地１３,,45,202,8894602,,,2025-04-11,清算の結了等,,,2015-10-05,1,,,,,シンエイソクリョウセッケイ,0
2092,8440002008551,登記記録の閉鎖等,0,2025-04-21,2025-04-16,有限会社太平洋農場,,有限会社,北海道,二海郡八雲町,三杉町２０番地,,01,346,0493114,,,2025-04-16,合併による解散等,8010001021796,令和７年４月１日東京都千代田区神田小川町一丁目３番地１太平洋沿海汽船株式会社（8010001021796）に合併し解散,2015-10-05,1,,,,,タイヘイヨウノウジョウ,0
2108,9010001128376,登記記録の閉鎖等,0,2025-04-21,2025-04-07,株式会社ＩＲＩＳ,,株式会社,東京都,千代田区,二番町１１番地４,,13,101,1020084,,,2025-04-07,清算の結了等,,,2015-10-05,1,,,,,イーリス,0
2128,9010005000903,登記記録の閉鎖等,0,2025-04-21,2025-04-14,医療法人社団範慶会,,その他の設立登記法人,東京都,中央区,銀座４丁目１３番１８号医療ビル１階,,13,102,1040061,,,2025-04-14,清算の結了等,,,2015-10-05,1,,,,,ハンケイカイ,0
2137,9010402036351,登記記録の閉鎖等,0,2025-04-21,2025-03-31,ランセロット・リーシング有限会社,,有限会社,東京都,港区,虎ノ門１丁目２番６号,,13,103,1050001,,,2025-03-31,清算の結了等,,,2015-10-05,1,,,,,ランセロットリーシング,0
2145,9010701016293,登記記録の閉鎖等,0,2025-04-21,2025-04-01,株式会社近隣システム研究所,,株式会社,東京都,品川区,大井４丁目２９番２２号,,13,109,1400014,,,2025-04-01,清算の結了等,,,2015-10-05,1,,,,,キンリンシステムケンキュウジョ,0
2148,9010801030467,登記記録の閉鎖等,0,2025-04-21,2025-04-07,ｉ　Ｍａｒｋｅｔｉｎｇ　＆　Ａｓｓｅｔ　Ｍａｎａｇｅｍｅｎｔ　Ｈｏｌｄｉｎｇｓ株式会社,,株式会社,東京都,大田区,上池台２丁目３７番２０号,,13,111,1450064,,,2025-04-07,清算の結了等,,,2019-12-17,1,,,,,アイマーケティングアンドアセットマネジメントホールディングス,0
2177,9020001082606,登記記録の閉鎖等,0,2025-04-21,2025-04-01,ＳＫレンタルサービス株式会社,,株式会社,神奈川県,川崎市川崎区,殿町１丁目７番１号,,14,131,2100821,,,2025-04-01,合併による解散等,8020001078811,令和７年４月１日川崎市川崎区大川町１３番６号株式会社セルコ（8020001078811）に合併し解散,2015-10-05,1,,,,,エスケイレンタルサービス,0
2179,9020001131841,登記記録の閉鎖等,0,2025-04-21,2025-04-01,株式会社アロマビットシリコンセンサテクノロジー,,株式会社,東京都,中央区,銀座７丁目１３番６号サガミビル２階,,13,102,1040061,,,2025-04-01,合併による解散等,5010001158674,令和７年４月１日東京都中央区銀座七丁目１３番６号サガミビル２階株式会社アロマビット（5010001158674）に合併し解散,2019-07-02,1,,,,,アロマビットシリコンセンサテクノロジー,0
2184,9020002085252,登記記録の閉鎖等,0,2025-04-21,2025-04-04,有限会社マブチ電機商会,,有限会社,神奈川県,川崎市中原区,木月祗園町７番２４号,,14,133,2110033,,,2025-04-04,合併による解散等,1020001156251,令和７年４月１日川崎市中原区木月一丁目３２番３号内田マンション２階株式会社マツリカショウ（1020001156251）に合併し解散,2015-10-05,1,,,,,マブチ,0
2208,9030005002617,登記記録の閉鎖等,0,2025-04-21,2025-04-14,医療法人白帆会,,その他の設立登記法人,埼玉県,さいたま市岩槻区,本町３丁目１３番１０号,,11,110,3390057,,,2025-04-14,清算の結了等,,,2015-10-05,1,,,,,シラホカイ,0
2215,9040002016825,登記記録の閉鎖等,0,2025-04-21,2025-04-03,有限会社ＳＴ総合企画,,有限会社,千葉県,千葉市美浜区,真砂３丁目１番２号千都ビル,,12,106,2610011,,,2025-04-03,清算の結了等,,,2015-10-05,1,,,,,エスティソウゴウキカク,0
2216,9040002056565,登記記録の閉鎖等,0,2025-04-21,2025-04-04,有限会社宮崎商事,,有限会社,千葉県,印旛郡栄町,酒直３６１番地２４,,12,329,2701513,,,2025-04-04,清算の結了等,,,2015-10-05,1,,,,,ミヤザキショウジ,0
2222,9050001042326,登記記録の閉鎖等,0,2025-04-21,2025-04-07,株式会社新鮮工房芋の花,,株式会社,茨城県,日立市,金沢町１丁目１０番１０号,,08,202,3160015,,,2025-04-07,清算の結了等,,,2017-03-01,1,,,,,シンセンコウボウイモノハナ,0
2225,9050002038802,登記記録の閉鎖等,0,2025-04-21,2025-04-07,有限会社ペット医学機構,,有限会社,茨城県,牛久市,中央４丁目３番地８,,08,219,3001234,,,2025-04-07,清算の結了等,,,2015-10-05,1,,,,,ペットイガクキコウ,0
2233,9080002009734,登記記録の閉鎖等,0,2025-04-21,2025-04-15,有限会社クオーレ企画,,有限会社,静岡県,静岡市清水区,宝町１番５号,,22,103,4240813,,,2025-04-15,清算の結了等,,,2015-10-05,1,,,,,クオーレキカク,0
2236,9080102014535,登記記録の閉鎖等,0,2025-04-21,2025-03-31,東和テック有限会社,,有限会社,静岡県,富士市,比奈４１４番地,,22,210,4170847,,,2025-03-31,合併による解散等,1080101009155,令和７年３月３１日静岡県富士市今泉４７５番地の２東陽紙業株式会社（1080101009155）に合併し解散,2015-10-05,1,,,,,トウワテック,0
2249,9120001194408,登記記録の閉鎖等,0,2025-04-21,2025-04-15,株式会社紀文西日本,,株式会社,大阪府,大阪市西区,江戸堀１丁目１５番２７号,,27,106,5500002,,,2025-04-15,合併による解散等,4010001041880,令和７年４月１日東京都中央区銀座五丁目１５番１号株式会社紀文食品（4010001041880）に合併し解散,2015-11-11,1,,,,,キブンニシニホン,0
2267,9120905004587,登記記録の閉鎖等,0,2025-04-21,2025-03-31,一般財団法人大阪北摂霊園協力会,,その他の設立登記法人,大阪府,豊能郡豊能町,高山１０番,,27,321,5630216,,,2025-03-31,清算の結了等,,,2015-10-05,1,,,,,オオサカホクセツレイエンキョウリョクカイ,0
2280,9180301031230,登記記録の閉鎖等,0,2025-04-21,2025-04-02,株式会社ベル・ラヴィ,,株式会社,愛知県,豊川市,一宮町旭１０２番地,,23,207,4411231,,,2025-04-02,清算の結了等,,,2018-02-20,1,,,,,ベルラヴィ,0
2284,9230001015049,登記記録の閉鎖等,0,2025-04-21,2025-04-14,福田勘産業株式会社,,株式会社,富山県,富山市,宝町１丁目４番１号,,16,201,9300007,,,2025-04-14,清算の結了等,,,2024-09-30,1,,,,,フクダカンサンギョウ,0
2285,9230002011856,登記記録の閉鎖等,0,2025-04-21,2025-04-16,平能産業有限会社,,有限会社,富山県,高岡市,平米町６番４号,,16,202,9330919,,,2025-04-16,清算の結了等,,,2015-10-05,1,,,,,ヒラノウサンギョウ,0
2286,9240001046290,登記記録の閉鎖等,0,2025-04-21,2025-04-14,株式会社ビーオーエヌ,,株式会社,広島県,広島市佐伯区,観音台２丁目１８番８号,,34,108,7315157,,,2025-04-14,清算の結了等,,,2015-10-05,1,,,,,ビーオーエヌ,0
2305,9290002052317,登記記録の閉鎖等,0,2025-04-21,2025-04-17,有限会社田主丸アグリビジネス,,有限会社,福岡県,久留米市,田主丸町以真恵３０９番地の１,,40,203,8391223,,,2025-04-17,清算の結了等,,,2015-10-05,1,,,,,タヌシマルアグリビジネス,0
2310,9310002011286,登記記録の閉鎖等,0,2025-04-21,2025-04-11,有限会社美装建築,,有限会社,長崎県,佐世保市,棚方町３０３番地,,42,202,8580907,,,2025-04-11,清算の結了等,,,2015-10-05,1,,,,,ビソウケンチク,0
2318,9350001007331,登記記録の閉鎖等,0,2025-04-21,2025-04-15,旭化成福利サービス株式会社,,株式会社,宮崎県,延岡市,旭町２丁目１番地３,,45,203,8820847,,,2025-04-15,合併による解散等,3010001008922,令和７年４月１日東京都千代田区神田錦町三丁目２２番地旭化成アミダス株式会社（3010001008922）に合併し解散,2015-10-05,1,,,,,アサヒカセイフクリサービス,0
2319,9350001017280,登記記録の閉鎖等,0,2025-04-21,2025-04-11,株式会社創克,,株式会社,宮崎県,宮崎市,大字跡江９１４番地１,,45,201,8802101,,,2025-04-11,清算の結了等,,,2021-09-02,1,,,,,ソウカツ,0
2339,9430005015033,登記記録の閉鎖等,0,2025-04-21,2025-04-09,特定非営利活動法人あると,,その他の設立登記法人,北海道,札幌市中央区,北四条西１３丁目１番地,,01,101,0600004,,,2025-04-09,清算の結了等,,,2024-07-25,1,,,,,アルト,0
2342,9490002002846,登記記録の閉鎖等,0,2025-04-21,2025-04-16,有限会社サンワールド川村,,有限会社,高知県,高知市,みづき３丁目１００８番地,,39,201,7800976,,,2025-04-16,清算の結了等,,,2015-10-05,1,,,,,サンワールドカワムラ,0
