sequenceNumber,corporateNumber,process,correct,updateDate,changeDate,name,nameImageId,kind,prefectureName,cityName,streetNumber,addressImageId,prefectureCode,cityCode,postCode,addressOutside,addressOutsideImageId,closeDate,closeCause,successorCorporateNumber,changeCause,assignmentDate,latest,enName,enPrefectureName,enCityName,enAddressOutside,furigana,hihyoji
5,1010001235436,新規,0,2023-05-25,2023-05-25,株式会社ＴＳ,,株式会社,東京都,中央区,銀座７丁目３－７ブランエスパ銀座１１階ＣＤ区画,,13,102,1040061,,,,,,,2023-05-25,1,,,,,ティーエス,0
6,1010001235584,新規,0,2023-05-25,2023-05-25,株式会社企画座,,株式会社,東京都,中央区,銀座１丁目１２番４号Ｎ＆ＥＢＬＤ．６Ｆ,,13,102,1040061,,,,,,,2023-05-25,1,,,,,キカクザ,0
7,1010003040677,新規,0,2023-05-25,2023-05-25,１９２０合同会社,,合同会社,東京都,千代田区,神田須田町１丁目７番地１ウィン神田高橋ビル４Ｆ,,13,101,1010041,,,,,,,2023-05-25,1,,,,,トクニナシ,0
8,1010003040693,新規,0,2023-05-25,2023-05-25,ＣＧＩ背景日本合同会社,,合同会社,東京都,千代田区,神田三崎町３丁目５番９号天翔水道橋オフィス４０５－Ｂ,,13,101,1010061,,,,,,,2023-05-25,1,,,,,シージーアイハイケイニホン,0
17,1010401174580,新規,0,2023-05-25,2023-05-25,東西芸術株式会社,,株式会社,東京都,港区,西麻布１丁目１４番１６号ベルジュール麻布２０２号室,,13,103,1060031,,,,,,,2023-05-25,1,,,,,トウザイゲイジュツ,0
22,1010403030170,新規,0,2023-05-25,2023-05-25,合同会社上宝ＤＰソーラー,,合同会社,東京都,港区,新橋２丁目１２番７号,,13,103,1050004,,,,,,,2023-05-25,1,,,,,カミタカラディーピーソーラー,0
23,1010403030179,新規,0,2023-05-25,2023-05-25,鴻瑞合同会社,,合同会社,東京都,港区,赤坂３丁目１３番２号ＭＪビル４Ｆ,,13,103,1070052,,,,,,,2023-05-25,1,,,,,コウエイ,0
25,1010601063146,新規,0,2023-05-25,2023-05-25,株式会社Ｇｒｅｅｎｒｏｃｋ　Ｊａｐａｎ,,株式会社,東京都,墨田区,緑１丁目１４番６号シティポート両国３Ｆ,,13,107,1300021,,,,,,,2023-05-25,1,,,,,グリーンロックジャパン,0
26,1010601063154,新規,0,2023-05-25,2023-05-25,株式会社ＭｅｄＥｓｐｒｉｔ,,株式会社,東京都,江東区,住吉２丁目１０番１２号本宮ビル２Ｆ,,13,108,1350002,,,,,,,2023-05-25,1,,,,,メデスプリ,0
27,1010803004559,新規,0,2023-05-25,2023-05-25,合同会社さみどり,,合同会社,東京都,大田区,仲六郷３丁目７番８－１０６号,,13,111,1440055,,,,,,,2023-05-25,1,,,,,サミドリ,0
28,1010901053103,新規,0,2023-05-25,2023-05-25,株式会社チェンジ,,株式会社,東京都,世田谷区,下馬１丁目１９番１３号・Ｐａｒｋ・Ｈｉｌｌｓ・下馬・３０１,,13,112,1540002,,,,,,,2023-05-25,1,,,,,チェンジ,0
29,1010903008187,新規,0,2023-05-25,2023-05-25,合同会社ｆｏｒｍａｔ,,合同会社,東京都,世田谷区,等々力５丁目２０番３号６号室,,13,112,1580082,,,,,,,2023-05-25,1,,,,,フォーマット,0
51,1011603003932,新規,0,2023-05-25,2023-05-25,合同会社Ｎｉｎａ　Ｂｅａｕｔｙ,,合同会社,東京都,練馬区,関町南３丁目１５－３７,,13,120,1770053,,,,,,,2023-05-25,1,,,,,,0
59,1011801042468,新規,0,2023-05-25,2023-05-25,株式会社ＶＯＬＬＭＯＮＤ　ＩＬＬＵＳＩＯＮ,,株式会社,東京都,葛飾区,高砂６丁目１３番１２－１０２号アルタ・マール,,13,122,1250054,,,,,,,2023-05-25,1,,,,,ヴォルモンドイリュージョン,0
61,1011803005662,新規,0,2023-05-25,2023-05-25,ＢｌｕｅＨａｉｒ合同会社,,合同会社,東京都,足立区,入谷２丁目２５番１４号,,13,121,1210836,,,,,,,2023-05-25,1,,,,,ブルーヘアー,0
84,1020001151748,新規,0,2023-05-25,2023-05-25,ジョブホールディングス株式会社,,株式会社,神奈川県,横浜市港北区,新横浜３丁目２２番地４,,14,109,2220033,,,,,,,2023-05-25,1,,,,,ジョブホールディングス,0
93,1021001079129,新規,0,2023-05-25,2023-05-25,株式会社Ｈｏｇｇｅｔ,,株式会社,神奈川県,藤沢市,片瀬海岸２丁目１８番２１号,,14,205,2510035,,,,,,,2023-05-25,1,,,,,ホゲット,0
94,1021001079137,新規,0,2023-05-25,2023-05-25,株式会社ｌａ　ｊｅｎｎｅ,,株式会社,神奈川県,藤沢市,羽鳥１丁目１番１０～１０９号,,14,205,2510056,,,,,,,2023-05-25,1,,,,,ラジェンヌ,0
95,1021001079145,新規,0,2023-05-25,2023-05-25,株式会社ダンシングホーム,,株式会社,神奈川県,茅ヶ崎市,南湖３丁目１５番３号,,14,207,2530061,,,,,,,2023-05-25,1,,,,,ダンシングホーム,0
97,1021003013127,新規,0,2023-05-25,2023-05-25,合同会社和空,,合同会社,神奈川県,大和市,南林間２丁目１１－１８,,14,213,2420006,,,,,,,2023-05-25,1,,,,,ワクウ,0
113,1040001128406,新規,0,2023-05-25,2023-05-25,株式会社ＴＵＲＮＩＮＧ　ＧＬＯＢＡＬ,,株式会社,千葉県,流山市,向小金３丁目１３５番地の２ハイネス南柏４０６,,12,220,2700143,,,,,,,2023-05-25,1,,,,,ターニンググローバル,0
114,1040001128546,新規,0,2023-05-25,2023-05-25,株式会社Ｃｉｐ,,株式会社,千葉県,千葉市中央区,千葉港３番２１号,,12,101,2600026,,,,,,,2023-05-25,1,,,,,シーアイピー,0
118,1070001040483,新規,0,2023-05-25,2023-05-25,株式会社唯,,株式会社,群馬県,高崎市,本郷町１９１９番地１Ｆ,,10,202,3703334,,,,,,,2023-05-25,1,,,,,ユイ,0
122,1100001036437,新規,0,2023-05-25,2023-05-25,株式会社ＩＫＫ,,株式会社,長野県,松本市,中央１丁目２２番１２号,,20,202,3900811,,,,,,,2023-05-25,1,,,,,アイケイケイ,0
123,1100001036445,新規,0,2023-05-25,2023-05-25,株式会社ＭＫコーポレーション,,株式会社,長野県,長野市,大字南長野４７７番地１１サポートビル,,20,201,3810000,,,,,,,2023-05-25,1,,,,,エムケイコーポレーション,0
130,1120001255068,新規,0,2023-05-25,2023-05-25,森佳商事株式会社,,株式会社,大阪府,大阪市中央区,島之内１丁目１１番２９号,,27,128,5420082,,,,,,,2023-05-25,1,,,,,シンカショウジ,0
131,1120001255118,新規,0,2023-05-25,2023-05-25,秋子貿易株式会社,,株式会社,大阪府,大阪市城東区,鴫野西１丁目１３番７－３０３号,,27,118,5360014,,,,,,,2023-05-25,1,,,,,シュウコボウエキ,0
133,1120003024132,新規,0,2023-05-25,2023-05-25,合同会社タローズ,,合同会社,大阪府,大阪市旭区,高殿２丁目８番３８－１１０９号,,27,117,5350031,,,,,,,2023-05-25,1,,,,,タローズ,0
136,1120103005239,新規,0,2023-05-25,2023-05-25,合同会社中央工務店,,合同会社,大阪府,岸和田市,北町１０－９,,27,202,5960056,,,,,,,2023-05-25,1,,,,,チュウオウコウムテン,0
138,1120901047556,新規,0,2023-05-25,2023-05-25,金起源株式会社,,株式会社,大阪府,高槻市,郡家新町１番４３号２Ｂ室,,27,207,5691136,,,,,,,2023-05-25,1,,,,,キンキゲン,0
139,1120901047572,新規,0,2023-05-25,2023-05-25,村上土建株式会社,,株式会社,大阪府,茨木市,三島丘２丁目１１番２９号,,27,211,5670021,,,,,,,2023-05-25,1,,,,,ムラカミドケン,0
140,1120905006467,新規,0,2023-05-25,2023-05-25,一般社団法人日本地方創生支援協議会,,その他の設立登記法人,大阪府,高槻市,大手町３－３４,,27,207,5690078,,,,,,,2023-05-25,1,,,,,ニホンチホウソウセイシエンキョウギカイ,0
146,1130001074376,新規,0,2023-05-25,2023-05-25,永志株式会社,,株式会社,京都府,綾部市,志賀郷町馬場１１,,26,203,6230343,,,,,,,2023-05-25,1,,,,,エイシ,0
148,1130005016779,新規,0,2023-05-25,2023-05-25,特定非営利活動法人ＮｘＴＥＮＤ,,その他の設立登記法人,京都府,京都市下京区,中堂寺南町１３４京都リサーチパークＡＳＴＥＭ棟８ＦＳＴＣ３内８Ｄ１８,,26,106,6008813,,,,,,,2023-05-25,1,,,,,ネクステンド,0
153,1160003002877,新規,0,2023-05-25,2023-05-25,合同会社ＭａｒｋＳ,,合同会社,滋賀県,近江八幡市,鷹飼町３７４番地２６,,25,204,5230891,,,,,,,2023-05-25,1,,,,,マークス,0
162,1180001156302,新規,0,2023-05-25,2023-05-25,Ｆａｓｃｉｎａｔｅ　ｃｌａｓｓ株式会社,,株式会社,愛知県,名古屋市中村区,中島町１丁目３４番地（Ｒａｇｇｉｏ名駅前２０３号）,,23,105,4530022,,,,,,,2023-05-25,1,,,,,ファッシネイトクラス,0
163,1180001156401,新規,0,2023-05-25,2023-05-25,株式会社ＪＰマネジメントパートナーズ,,株式会社,愛知県,名古屋市緑区,神の倉４丁目１９２番地グラウィスＫ２０３号室,,23,114,4580812,,,,,,,2023-05-25,1,,,,,ジェーピーマネジメントパートナーズ,0
164,1180001156434,新規,0,2023-05-25,2023-05-25,株式会社Ａｓｔｒａｌ,,株式会社,愛知県,北名古屋市,片場八反７８番地スカイハウス２０１号,,23,234,4810002,,,,,,,2023-05-25,1,,,,,アストラル,0
170,1180005020231,新規,0,2023-05-25,2023-05-25,一般社団法人池山家財産管理,,その他の設立登記法人,愛知県,名古屋市瑞穂区,津賀田町２丁目６７番地１,,23,108,4670823,,,,,,,2023-05-25,1,,,,,イケヤマケザイサンカンリ,0
173,1200001041336,新規,0,2023-05-25,2023-05-25,ＳＵＪＡＮＩ株式会社,,株式会社,岐阜県,岐阜市,下鵜飼１５８９－３レグルス２０２,,21,201,5011172,,,,,,,2023-05-25,1,,,,,スジャニ,0
192,1290003013952,新規,0,2023-05-25,2023-05-25,合同会社ＢＡＢＤ,,合同会社,福岡県,福岡市博多区,住吉２丁目１３－１５－７０３号アネックス住乃江,,40,132,8120018,,,,,,,2023-05-25,1,,,,,ビーエイビーディー,0
199,1310001018430,新規,0,2023-05-25,2023-05-25,株式会社三宅不動産,,株式会社,長崎県,長崎市,宝町３番１－２０３号,,42,201,8500045,,,,,,,2023-05-25,1,,,,,ミヤケフドウサン,0
205,1320003004089,新規,0,2023-05-25,2023-05-25,合同会社結大,,合同会社,大分県,別府市,大字北石垣１３１－９,,44,202,8740000,,,,,,,2023-05-25,1,,,,,ユウダイ,0
207,1340001025597,新規,0,2023-05-25,2023-05-25,道路損害株式会社,,株式会社,鹿児島県,鹿児島市,武１丁目５番２８号琥珀ビル４０５,,46,201,8900045,,,,,,,2023-05-25,1,,,,,ドウロソンガイ,0
221,1410001013487,新規,0,2023-05-25,2023-05-25,株式会社元興業,,株式会社,秋田県,横手市,城南町１５番１０号,,05,203,0130013,,,,,,,2023-05-25,1,,,,,ハジメコウギョウ,0
228,1430001089170,新規,0,2023-05-25,2023-05-25,株式会社マリート,,株式会社,北海道,札幌市豊平区,西岡三条１３丁目１５番３号,,01,105,0620033,,,,,,,2023-05-25,1,,,,,マリート,0
232,1700150116004,新規,0,2023-05-25,2023-05-10,大阪大学歯学会,,その他,大阪府,吹田市,山田丘１番８号,,27,205,5650871,,,,,,,2023-05-10,1,,,,,オオサカダイガクシガクカイ,0
233,1700150116482,新規,0,2023-05-25,2023-05-25,ｃｈｅｎｇｄｕｙｕａｎｃｈｕｎｔｏｎｇｄａ　ｄｉａｎｚｉｓｈａｎｇｗｕｙｏｕｘｉａｎｇｏｎｇｓｉ,,外国会社等,,,,,,,,ｊｉｎｇｋａｎｇｌｕ３９９ｈａｏ　ｆｕ１ｈａｏｆｕ１０９１ｈａｏ　ｊｉｎｊｉａｎｇｑｕ　ｃｈｅｎｇｄｕｓｈｉ　ｓｉｃｈｕａｎｓｈｅｎｇ　Ｃｈｉｎａ,,,,,,2023-05-25,1,,,,,チェンジュユアンチュントンダデンシショウムユウゲンコウシ,0
234,1700150116490,新規,0,2023-05-25,2023-05-25,枚方映画製作委員会,,その他,大阪府,枚方市,須山町１０－１,,27,210,5731164,,,,,,,2023-05-25,1,,,,,ヒラカタエイガセイサクイインカイ,0
235,1700150116516,新規,0,2023-05-25,2023-05-25,Ｆｏｓｈａｎ　Ｌａｎｄｍａｒｋ　Ｔｒａｄｉｎｇ　Ｃｏ　Ｌｔｄ,,外国会社等,,,,,,,,Ｒｏｏｍ　２２０５，Ｂｕｉｌｄｉｎｇ　３，Ｊｉｎｙｕｃｈｅｎｇ　Ｅａｓｔ　Ｇａｒｄｅｎ，Ｎｏ．８，Ｂａｏｓｈｉ　Ｅａｓｔ　Ｒｏａｄ，Ｇｕｉｃｈｅｎｇ　Ｓｔｒｅｅｔ，Ｎａｎｈａｉ　Ｄｉｓｔｒｉｃｔ，Ｆｏｓｈａｎ　Ｃｉｔｙ，Ｃｈｉｎａ,,,,,,2023-05-25,1,,,,,フォシャンランドマークトレーディングカンパニーリミテッド,0
246,2010001235542,新規,0,2023-05-25,2023-05-25,株式会社Ｏｒｉｐｅ　Ｇｒｏｕｐ,,株式会社,東京都,千代田区,神田多町２丁目１番地,,13,101,1010046,,,,,,,2023-05-25,1,,,,,オリペグループ,0
247,2010001235583,新規,0,2023-05-25,2023-05-25,萩原プロパティマネジメント株式会社,,株式会社,東京都,中央区,東日本橋１丁目１１番１７－９０３号,,13,102,1030004,,,,,,,2023-05-25,1,,,,,ハギワラプロパティマネジメント,0
250,2010003040692,新規,0,2023-05-25,2023-05-25,ＪＡＭＥＳＯＮ　Ｐａｒｔｎｅｒｓ合同会社,,合同会社,東京都,千代田区,丸の内３丁目４番１号新国際ビル８階,,13,101,1000005,,,,,,,2023-05-25,1,,,,,ジェイムスンパートナーズ,0
261,2010501050499,新規,0,2023-05-25,2023-05-25,株式会社ザ・ブレス,,株式会社,東京都,台東区,千束３丁目２１番１２号キートスビル２０３号室,,13,106,1110031,,,,,,,2023-05-25,1,,,,,ザブレス,0
265,2010901053110,新規,0,2023-05-25,2023-05-25,株式会社Ａｐｐｒｏａｃｈ　Ｌｉｇｈｔ,,株式会社,東京都,世田谷区,北烏山９丁目１番２７号－６,,13,112,1570061,,,,,,,2023-05-25,1,,,,,アプローチライト,0
266,2010903008186,新規,0,2023-05-25,2023-05-25,合同会社ｂｒｉｇｈｔ,,合同会社,東京都,世田谷区,等々力５丁目２０番３号６号室,,13,112,1580082,,,,,,,2023-05-25,1,,,,,ブライト,0
273,2011001154617,新規,0,2023-05-25,2023-05-25,株式会社Ｍ＆Ｃｏ,,株式会社,東京都,目黒区,柿の木坂２丁目２１番１号,,13,110,1520022,,,,,,,2023-05-25,1,,,,,エムアンドコー,0
274,2011001154633,新規,0,2023-05-25,2023-05-25,株式会社エストゥエル,,株式会社,東京都,渋谷区,南平台町１６番２８号Ｄａｉｗａ渋谷スクエア６Ｆ,,13,113,1500036,,,,,,,2023-05-25,1,,,,,エストゥエル,0
275,2011001154658,新規,0,2023-05-25,2023-05-25,株式会社ＴＳＭ,,株式会社,東京都,渋谷区,東３丁目２６－１－３Ｆ,,13,113,1500011,,,,,,,2023-05-25,1,,,,,ティーエスエム,0
278,2011003016889,新規,0,2023-05-25,2023-05-25,合同会社ｇｅｎｔｓ,,合同会社,東京都,渋谷区,道玄坂１丁目１０番８号渋谷道玄坂東急ビル２Ｆ－Ｃ,,13,113,1500043,,,,,,,2023-05-25,1,,,,,ジェンツ,0
282,2011101102806,新規,0,2023-05-25,2023-05-25,株式会社Ｇｙｐｓｏｐｈｉｌａ,,株式会社,東京都,新宿区,西新宿３丁目５－１２,,13,104,1600023,,,,,,,2023-05-25,1,,,,,ジプソフィラ,0
283,2011101102987,新規,0,2023-05-25,2023-05-25,ステア株式会社,,株式会社,東京都,新宿区,高田馬場２丁目４番２１号－７０１,,13,104,1690075,,,,,,,2023-05-25,1,,,,,ステア,0
286,2011203004090,新規,0,2023-05-25,2023-05-25,夢再生ライフ合同会社,,合同会社,東京都,中野区,松が丘１丁目２２番２０号,,13,114,1650024,,,,,,,2023-05-25,1,,,,,ユメサイセイライフ,0
290,2011501029343,新規,0,2023-05-25,2023-05-25,株式会社確認検査ホールディングス,,株式会社,東京都,荒川区,西日暮里２丁目２２番１－３４０１号,,13,118,1160013,,,,,,,2023-05-25,1,,,,,カクニンケンサホールディンクス,0
300,2011801042459,新規,0,2023-05-25,2023-05-25,株式会社セントラルセイル,,株式会社,東京都,葛飾区,亀有１丁目１３番２５号,,13,122,1250061,,,,,,,2023-05-25,1,,,,,セントラルセイル,0
302,2012301013462,新規,0,2023-05-25,2023-05-25,ソーシャルアクト株式会社,,株式会社,東京都,町田市,森野１丁目３５番２号,,13,209,1940022,,,,,,,2023-05-25,1,,,,,ソーシャルアクト,0
307,2012801022376,新規,0,2023-05-25,2023-05-25,株式会社ｅ．ａ．ｔ．Ｆ,,株式会社,東京都,立川市,柴崎町３丁目１０番５号ＦＭビル１Ｆ,,13,202,1900023,,,,,,,2023-05-25,1,,,,,イートエフ,0
313,2020001151755,新規,0,2023-05-25,2023-05-25,株式会社フォーキャスト・ワン,,株式会社,神奈川県,横浜市中区,根岸旭台１０番地１藤和南山手ホームズ１０３号室,,14,104,2310854,,,,,,,2023-05-25,1,,,,,フォーキャストワン,0
319,2020003023944,新規,0,2023-05-25,2023-05-25,合同会社ペガサスにのって,,合同会社,神奈川県,横浜市西区,みなとみらい４丁目４番２号横浜ブルーアベニュー１２Ｆ,,14,103,2200012,,,,,,,2023-05-25,1,,,,,ペガサスニノッテ,0
320,2020003023960,新規,0,2023-05-25,2023-05-25,ＹＵＫＩＲＡ合同会社,,合同会社,神奈川県,横浜市西区,浅間町１丁目４番３号ウィザードビル４０２,,14,103,2200072,,,,,,,2023-05-25,1,,,,,ユキラ,0
324,2020005016013,新規,0,2023-05-25,2023-05-25,一般社団法人企業防衛リスク管理会,,その他の設立登記法人,神奈川県,横浜市中区,山下町２番地産業貿易センタービル９Ｆ,,14,104,2310023,,,,,,,2023-05-25,1,,,,,キギョウボウエイリスクカンリカイ,0
325,2021001079136,新規,0,2023-05-25,2023-05-25,株式会社達見興業,,株式会社,神奈川県,相模原市中央区,水郷田名３丁目５－３２,,14,152,2520246,,,,,,,2023-05-25,1,,,,,タツミコウギョウ,0
326,2021003013126,新規,0,2023-05-25,2023-05-25,合同会社ＳＩＴＡＲＡ,,合同会社,神奈川県,相模原市南区,松が枝町１８番１１号岡田ビル２階,,14,153,2520313,,,,,,,2023-05-25,1,,,,,シタラ,0
359,2100001036436,新規,0,2023-05-25,2023-05-25,やまのくにエナジー株式会社,,株式会社,長野県,北佐久郡軽井沢町,大字長倉２９１３番地５,,20,321,3890111,,,,,,,2023-05-25,1,,,,,ヤマノクニエナジー,0
370,2120003024131,新規,0,2023-05-25,2023-05-25,銀湖合同会社,,合同会社,大阪府,大阪市天王寺区,悲田院町４番３９号朝日プラザ天王寺パサージュ６０３号室,,27,109,5430055,,,,,,,2023-05-25,1,,,,,ギンコ,0
373,2120101067593,新規,0,2023-05-25,2023-05-25,株式会社１０ａｎｔｓ,,株式会社,大阪府,堺市北区,金岡町３０２７番地１４,,27,146,5918022,,,,,,,2023-05-25,1,,,,,テンアンツ,0
374,2120103005238,新規,0,2023-05-25,2023-05-25,合同会社アンデルセン,,合同会社,大阪府,岸和田市,山直中町１０３１－６,,27,202,5960102,,,,,,,2023-05-25,1,,,,,アンデルセン,0
376,2120901047571,新規,0,2023-05-25,2023-05-25,株式会社ｅｙｅｎ,,株式会社,大阪府,高槻市,緑が丘２丁目２３番３号,,27,207,5691026,,,,,,,2023-05-25,1,,,,,イーエン,0
378,2130001074367,新規,0,2023-05-25,2023-05-25,株式会社みやこ,,株式会社,京都府,長岡京市,久貝３丁目９番３号,,26,209,6170837,,,,,,,2023-05-25,1,,,,,ミヤコ,0
379,2130001074375,新規,0,2023-05-25,2023-05-25,福晋株式会社,,株式会社,京都府,京都市上京区,四番町１０６－３,,26,102,6028347,,,,,,,2023-05-25,1,,,,,フクシン,0
387,2170003001877,新規,0,2023-05-25,2023-05-25,合同会社ミッション５,,合同会社,和歌山県,田辺市,東陽２４－１４,,30,206,6460029,,,,,,,2023-05-25,1,,,,,ミッションファイブ,0
396,2180001156441,新規,0,2023-05-25,2023-05-25,株式会社Ｙ＆Ｋ,,株式会社,愛知県,名古屋市名東区,神里１丁目１００番地,,23,115,4650082,,,,,,,2023-05-25,1,,,,,ワイアンドケイ,0
399,2180301037416,新規,0,2023-05-25,2023-05-25,株式会社Ｔ．Ｔ,,株式会社,愛知県,豊田市,四郷町天道４５番地１１８,,23,211,4700373,,,,,,,2023-05-25,1,,,,,ティーティー,0
402,2240001061569,新規,0,2023-05-25,2023-05-25,ハロー石油株式会社,,株式会社,広島県,三原市,和田１丁目１１番１１号,,34,204,7230041,,,,,,,2023-05-25,1,,,,,ハローセキユ,0
420,2260003004318,新規,0,2023-05-25,2023-05-25,合同会社Ｈａｍｐｓｔｅａｄ,,合同会社,岡山県,岡山市北区,津島本町１７番６‐４号,,33,101,7000089,,,,,,,2023-05-25,1,,,,,ハムステッド,0
434,2350005006154,新規,0,2023-05-25,2023-05-25,一般社団法人宮崎サーフメディカルチーム,,その他の設立登記法人,宮崎県,都城市,中町１５街区２４号,,45,202,8850071,,,,,,,2023-05-25,1,,,,,ミヤザキサーフメディカルチーム,0
438,2360001032062,新規,0,2023-05-25,2023-05-25,株式会社ＳＫＹ不動産,,株式会社,沖縄県,名護市,字為又１９番地,,47,209,9050005,,,,,,,2023-05-25,1,,,,,スカイフドウサン,0
463,2430003015074,新規,0,2023-05-25,2023-05-25,木棉樹合同会社,,合同会社,北海道,札幌市白石区,東札幌四条４丁目５番１９号シャトーローリエ壱番館３０２号,,01,104,0030004,,,,,,,2023-05-25,1,,,,,カポク,0
468,2700150116481,新規,0,2023-05-25,2023-05-25,Ｇｕａｎｇｚｈｏｕ　Ｓａ　Ｗａｎ　Ｍａｏ　Ｙｉ　Ｙｏｕ　Ｘｉａｎ　Ｇｏｎｇ　Ｓｉ,,外国会社等,,,,,,,,ｈｕａ　ｄｕ　ｑｕ　Ｓｈａｎｇ　Ｘｉａｎｇ　Ｎａｎ　ｌｕ　１２　ｈａｏ　５０１　ｄａｎ　ｙｕａｎ　Ｇｕａｎｇｚｈｏｕ　Ｃｈｉｎａ,,,,,,2023-05-25,1,,,,,ゴンジョウサワンマオイユウゲンコウシ,0
469,2700150116515,新規,0,2023-05-25,2023-05-25,Ｇｕａｎｇｚｈｏｕ　ｚｉｘｉａｎ　ｓｈａｎｇｍａｏｙｏｕｘｉａｎｇｏｎｇｓｉ,,外国会社等,,,,,,,,Ｌｕｏｙｏｎｇｘｉｎｗｅｉ　２　ｒｏａｄ　Ａｐｔ　４０８　Ｓｏｎｇｚｈｏｕｊｉｅ　Ｇｕａｎｇｄｏｎｇ，Ｇｕａｎｇｚｈｏｕ，ｂａｉｙｕｎ，Ｃｈｉｎａ,,,,,,2023-05-25,1,,,,,ゴンジョウジクシャンシャンマオユウゲンコウシ,0
473,3010001235500,新規,0,2023-05-25,2023-05-25,株式会社隼翔設備,,株式会社,東京都,千代田区,神田和泉町一丁目６番１６－４０５号,,13,101,1010024,,,,,,,2023-05-25,1,,,,,ジュンショウセツビ,0
474,3010001235541,新規,0,2023-05-25,2023-05-25,Ｔ＆Ｄリスクソリューションズ株式会社,,株式会社,東京都,中央区,日本橋２丁目７番１号,,13,102,1030027,,,,,,,2023-05-25,1,,,,,ティーアンドディーリスクソリューションズ,0
475,3010001235558,新規,0,2023-05-25,2023-05-25,株式会社ＥＧ,,株式会社,東京都,千代田区,六番町６番地２０,,13,101,1020085,,,,,,,2023-05-25,1,,,,,イージー,0
476,3010001235599,新規,0,2023-05-25,2023-05-25,昇揚株式会社,,株式会社,東京都,中央区,日本橋人形町３丁目１番１６号ＪＰｈｏｕｓｅ日本橋ビルＢ１,,13,102,1030013,,,,,,,2023-05-25,1,,,,,ショウヨウ,0
477,3010001235608,新規,0,2023-05-25,2023-05-25,株式会社ｃｌｅａｒｌｙ,,株式会社,東京都,中央区,日本橋横山町１０番４,,13,102,1030003,,,,,,,2023-05-25,1,,,,,クリアリー,0
479,3010003040675,新規,0,2023-05-25,2023-05-25,サステナブルローンファンド１７号合同会社,,合同会社,東京都,中央区,八丁堀４丁目２番１０号ＡＯＪ税理士法人内,,13,102,1040032,,,,,,,2023-05-25,1,,,,,サステナブルローンファンドジュウナナゴウ,0
485,3010401174513,新規,0,2023-05-25,2023-05-25,株式会社ＵｒＮｅｘｕｓ,,株式会社,東京都,港区,南青山３丁目１番３６号青山丸竹ビル６階,,13,103,1070062,,,,,,,2023-05-25,1,,,,,ユアーネクサス,0
488,3010505003411,新規,0,2023-05-25,2023-05-25,一般社団法人精進料理協会,,その他の設立登記法人,東京都,台東区,西浅草１丁目８番５号,,13,106,1110035,,,,,,,2023-05-25,1,,,,,ショウジンリョウリキョウカイ,0
506,3011001154491,新規,0,2023-05-25,2023-05-25,株式会社ｍｅｔａｍｏｏｎ,,株式会社,東京都,渋谷区,神泉町１５番２号,,13,113,1500045,,,,,,,2023-05-25,1,,,,,メタムーン,0
507,3011001154632,新規,0,2023-05-25,2023-05-25,株式会社Ｈｅａｒｐ,,株式会社,東京都,渋谷区,道玄坂１丁目１０番８号渋谷道玄坂東急ビル,,13,113,1500043,,,,,,,2023-05-25,1,,,,,ハープ,0
509,3011003016888,新規,0,2023-05-25,2023-05-25,ヨシンファＥ・Ｍ合同会社,,合同会社,東京都,目黒区,祐天寺２丁目１１－３－１Ｆ,,13,110,1530052,,,,,,,2023-05-25,1,,,,,ヨシンファイーエム,0
518,3011603003930,新規,0,2023-05-25,2023-05-25,合同会社高橋清志,,合同会社,東京都,練馬区,大泉町５丁目６番１８号ダイユウコーポ２０３,,13,120,1780062,,,,,,,2023-05-25,1,,,,,タカハシキヨシ,0
520,3012701017665,新規,0,2023-05-25,2023-05-25,株式会社Ｃｈｅｒｉ,,株式会社,東京都,東村山市,廻田町１丁目３３番地７３,,13,213,1890025,,,,,,,2023-05-25,1,,,,,シェリ,0
521,3012703002715,新規,0,2023-05-25,2023-05-25,合同会社日本蹴球侍,,合同会社,東京都,小平市,花小金井２丁目１４番１４号ヴェルコリーヌＡ,,13,211,1870002,,,,,,,2023-05-25,1,,,,,ニホンシュウキュウサムライ,0
530,3013301050718,新規,0,2023-05-25,2023-05-25,株式会社ＨＹＲＲ,,株式会社,東京都,豊島区,東池袋４丁目５番１－２２０１号,,13,116,1700013,,,,,,,2023-05-25,1,,,,,ヘル,0
531,3013301050817,新規,0,2023-05-25,2023-05-25,ＭＯＳＯ株式会社,,株式会社,東京都,豊島区,目白５丁目３０番８号リバティパレス目白１０１号室,,13,116,1710031,,,,,,,2023-05-25,1,,,,,モソ,0
540,3020001151746,新規,0,2023-05-25,2023-05-25,ＫＳラズリ株式会社,,株式会社,神奈川県,横浜市鶴見区,駒岡４丁目１６番６７号Ａ棟１号室,,14,101,2300071,,,,,,,2023-05-25,1,,,,,ケーエスラズリ,0
550,3021001079127,新規,0,2023-05-25,2023-05-25,株式会社バズコネクト,,株式会社,神奈川県,足柄上郡開成町,金井島１１２７番地６,,14,366,2580028,,,,,,,2023-05-25,1,,,,,バズコネクト,0
551,3021001079135,新規,0,2023-05-25,2023-05-25,株式会社ｒｅｇｌａｇｅ,,株式会社,神奈川県,高座郡寒川町,一之宮１丁目８番１２号,,14,321,2530111,,,,,,,2023-05-25,1,,,,,レグラージュ,0
554,3021005012819,新規,0,2023-05-25,2023-05-25,一般社団法人えんど豆の会,,その他の設立登記法人,神奈川県,逗子市,桜山１丁目１３番１５号,,14,208,2490005,,,,,,,2023-05-25,1,,,,,エンドマメノカイ,0
584,3040003022670,新規,0,2023-05-25,2023-05-25,合同会社ＭＹ,,合同会社,千葉県,習志野市,谷津１丁目１７－２８,,12,216,2750026,,,,,,,2023-05-25,1,,,,,エムワイ,0
587,3060003004568,新規,0,2023-05-25,2023-05-25,合同会社那須よつば,,合同会社,栃木県,那須塩原市,東三島３丁目６７番地３０,,09,213,3292751,,,,,,,2023-05-25,1,,,,,ナスヨツバ,0
592,3090005007566,新規,0,2023-05-25,2023-05-25,一般社団法人大月市観光協会,,その他の設立登記法人,山梨県,大月市,猿橋町猿橋５５番地,,19,206,4090614,,,,,,,2023-05-25,1,,,,,オオツキシカンコウキョウカイ,0
593,3110001037564,新規,0,2023-05-25,2023-05-25,株式会社ＹＯＬＯ　ｊａｐａｎ,,株式会社,新潟県,新潟市東区,中山６丁目１９番５号ウェル新潟ビル２Ｆ,,15,102,9500861,,,,,,,2023-05-25,1,,,,,ヨーロージャパン,0
597,3110005016952,新規,0,2023-05-25,2023-05-25,一般社団法人長岡１００歳大学大学院,,その他の設立登記法人,新潟県,長岡市,蓮潟４丁目２番２５号,00130611,15,202,9402023,,,,,,,2023-05-25,1,,,,,ナガオカヒャクサイダイガクダイガクイン,0
601,3120001255124,新規,0,2023-05-25,2023-05-25,Ｓｔａｒｍａｎ　Ｔｅｃｈｎｏｌｏｇｙ株式会社,,株式会社,大阪府,大阪市大正区,三軒家西３丁目４番１６号中山ビル４０３Ｂ,,27,108,5510001,,,,,,,2023-05-25,1,,,,,スターマンテクノロジー,0
602,3120001255140,新規,0,2023-05-25,2023-05-25,大洋船舶サービス株式会社,,株式会社,大阪府,枚方市,渚西２丁目５－１２,,27,210,5731178,,,,,,,2023-05-25,1,,,,,タイヨウセンパクサービス,0
604,3120003024147,新規,0,2023-05-25,2023-05-25,エルフ合同会社,,合同会社,大阪府,大阪市港区,磯路３丁目１７番１７－２０２,,27,107,5520003,,,,,,,2023-05-25,1,,,,,エルフ,0
609,3120101067592,新規,0,2023-05-25,2023-05-25,株式会社Ｂ‐Ｆｌｏｗ,,株式会社,大阪府,和泉市,寺門町２丁目６番２号,,27,219,5940064,,,,,,,2023-05-25,1,,,,,ビーフロー,0
615,3122001037015,新規,0,2023-05-25,2023-05-25,株式会社ＴＲＵＳＴＥＱ,,株式会社,大阪府,八尾市,堤町３丁目１３番地の２,,27,212,5810832,,,,,,,2023-05-25,1,,,,,トラステック,0
619,3130001074366,新規,0,2023-05-25,2023-05-25,レイイリマラニ株式会社,,株式会社,京都府,京都市中京区,六角通柳馬場東入大黒町７２－１,,26,104,6048073,,,,,,,2023-05-25,1,,,,,レイイリマラニ,0
620,3130001074382,新規,0,2023-05-25,2023-05-25,株式会社藤,,株式会社,京都府,京都市東山区,下河原町４７６－２,,26,105,6050000,,,,,,,2023-05-25,1,,,,,フジ,0
622,3130003008751,新規,0,2023-05-25,2023-05-25,合同会社ハートラボ,,合同会社,京都府,京都市上京区,中立売通室町西入三丁町４７１番地室町スカイハイツ２０８,,26,102,6020915,,,,,,,2023-05-25,1,,,,,ハートラボ,0
625,3140001130275,新規,0,2023-05-25,2023-05-25,株式会社Ｐｉｅｃｅ,,株式会社,兵庫県,神戸市北区,長尾町上津５７４番地の２,,28,109,6511512,,,,,,,2023-05-25,1,,,,,ピース,0
632,3180001156440,新規,0,2023-05-25,2023-05-25,株式会社ＬＩＴ,,株式会社,愛知県,名古屋市中区,栄４丁目７番８号第一オーシャンビル３０５号,,23,106,4600008,,,,,,,2023-05-25,1,,,,,リット,0
647,3240001061551,新規,0,2023-05-25,2023-05-25,株式会社ケイビランド,,株式会社,広島県,福山市,藤江町３７７７番地,,34,207,7200543,,,,,,,2023-05-25,1,,,,,ケイビランド,0
652,3250001020110,新規,0,2023-05-25,2023-05-25,株式会社志塗装店,,株式会社,山口県,下関市,藤附町１６－３２,,35,201,7500052,,,,,,,2023-05-25,1,,,,,ココロトソウテン,0
653,3260001037979,新規,0,2023-05-25,2023-05-25,Ｒｅ’ｗｒｉｔｅ　Ｍａｒｋｅｔｉｎｇ株式会社,,株式会社,岡山県,岡山市南区,築港緑町２丁目６番２７号,,33,104,7028055,,,,,,,2023-05-25,1,,,,,リライトマーケティング,0
661,3290003002193,新規,0,2023-05-25,2023-05-25,合資会社内田家具店,,合資会社,福岡県,飯塚市,菰田西２丁目９番１９号,,40,205,8200017,,,,,,,2023-05-25,1,,,,,,0
670,3330001030885,新規,0,2023-05-25,2023-05-25,株式会社デライト,,株式会社,熊本県,熊本市中央区,京町２丁目１４番１５－１号,,43,101,8600078,,,,,,,2023-05-25,1,,,,,デライト,0
672,3340001025604,新規,0,2023-05-25,2023-05-25,株式会社さつまワークス,,株式会社,鹿児島県,鹿児島市,山田町６１５番地,,46,201,8910104,,,,,,,2023-05-25,1,,,,,サツマワークス,0
674,3360001032061,新規,0,2023-05-25,2023-05-25,株式会社リテック,,株式会社,沖縄県,那覇市,泊１丁目３番地８ミルコマンション泊リヴィエラ１００１,,47,201,9000012,,,,,,,2023-05-25,1,,,,,リテック,0
675,3370003006145,新規,0,2023-05-25,2023-05-25,合同会社ｌｉｋｅ,,合同会社,宮城県,仙台市青葉区,柏木１丁目３－３７ハートコート柏木２１０号,,04,101,9810933,,,,,,,2023-05-25,1,,,,,ライク,0
687,3430001089169,新規,0,2023-05-25,2023-05-25,株式会社ＭＡＳＡ,,株式会社,北海道,札幌市中央区,大通東１１丁目２２番地３２Ｌｉｂｅｒｔｉａ苗穂駅前３０１号室,,01,101,0600041,,,,,,,2023-05-25,1,,,,,マサ,0
688,3430001089185,新規,0,2023-05-25,2023-05-25,Ｃｏｍｐａｓｓ株式会社,,株式会社,北海道,室蘭市,入江町１番地１１５Ｂ－６,,01,205,0510023,,,,,,,2023-05-25,1,,,,,コンパス,0
693,3460103001532,新規,0,2023-05-25,2023-05-25,合同会社クリーンサービス,,合同会社,北海道,広尾郡大樹町,字日方４００番地１２,,01,641,0892124,,,,,,,2023-05-25,1,,,,,クリーンサービス,0
698,3700150116480,新規,0,2023-05-25,2023-05-25,ＨＵＩＺＨＯＵＳＨＩ　ＹＵＮＬＩＡＮＫＥＪＩ　ＹＯＵＸＩＡＮＧＯＮＧＳＩ,,外国会社等,,,,,,,,Ｈｕｉｚｈｏｕｓｈｉ　Ｈｕｉｃｈｅｎｇｑｕ　Ｘｉａｐｕｌｕ２３ｈａｏ　Ｊｉｎｒｏｎｇｄａｘｉａ　１５ｃｅｎｇ　０５ｈａｏ　Ｃｈｉｎａ,,,,,,2023-05-25,1,,,,,フイゾウシユンリャンケジユウゲンコウシ,0
699,3700150116489,新規,0,2023-05-25,2023-05-25,Ｆｕｊｉａｎ　Ｑｕａｎｚｈｏｕ　Ｍｉｎｔｉａｎ　Ｔｒａｄｉｎｇ　Ｃｏ．ＬＴＤ,,外国会社等,,,,,,,,Ｎａｎａｎｓｈｉ　ｌｕｎｃａｎｇｚｈｅｎ　ｇａｏｘｉｎｊｉｓｈｕｙｕａｎｑｕ　ｙｕａｎｘｉｌｕ　２５８ｈａｏ　ｊｉｅｇｕａｎｗｅｉｙｕ　Ｑｕａｎｚｈｏｕ　Ｆｕｊｉａｎ　Ｃｈｉｎａ,,,,,,2023-05-25,1,,,,,フジアンカンゾウミンティアントレーディングカンパニーリミテッド,0
700,3700150116514,新規,0,2023-05-25,2023-05-25,Ｚｕｎ　Ｓｈａｎｇ　Ｋｅ　Ｊｉ（Ｇｕａｎｇｚｈｏｕ）Ｙｏｕ　Ｘｉａｎ　Ｇｏｎｇ　Ｓｉ,,外国会社等,,,,,,,,ｌｖ　ｇａｎｇ　ｙｉ　ｊｉｅ　２　ｈａｏ　５２４（ｋｏｎｇｇａｎｇｈｕａｄｕ）Ｇｕａｎｇｚｈｏｕ　ｇｕａｎｇｄｏｎｇ　Ｃｈｉｎａ,,,,,,2023-05-25,1,,,,,ズンシャンケジゴンジョウユウゲンコウシ,0
712,4010001235549,新規,0,2023-05-25,2023-05-25,株式会社ＡＦＳ,,株式会社,東京都,千代田区,外神田６丁目５番９号ＴＯＫＹＯＭＩＲＡＩＩＩＩ１０１,00130608,13,101,1010021,,,,,,,2023-05-25,1,,,,,アキハバラフードサービス,0
716,4010003040674,新規,0,2023-05-25,2023-05-25,サステナブルローンファンド１６号合同会社,,合同会社,東京都,中央区,八丁堀４丁目２番１０号ＡＯＪ税理士法人内,,13,102,1040032,,,,,,,2023-05-25,1,,,,,サステナブルローンファンドジュウロクゴウ,0
717,4010003040690,新規,0,2023-05-25,2023-05-25,合同会社いちかわビーカー,,合同会社,東京都,中央区,日本橋室町１丁目１１番１２号日本橋水野ビル７階,,13,102,1030022,,,,,,,2023-05-25,1,,,,,イチカワビーカー,0
718,4010003040699,新規,0,2023-05-25,2023-05-25,合同会社うきうきわくわく,,合同会社,東京都,中央区,銀座１丁目１２番４号Ｎ＆ＥＢＬＤ．６Ｆ,,13,102,1040061,,,,,,,2023-05-25,1,,,,,ウキウキワクワク,0
725,4010401174529,新規,0,2023-05-25,2023-05-25,株式会社Ｋｏｂｏｏｋｓ,,株式会社,東京都,港区,南青山２丁目２番１５号ＷｉｎＡｏｙａｍａビルＵＣＦ６階,,13,103,1070062,,,,,,,2023-05-25,1,,,,,コブックス,0
726,4010401174578,新規,0,2023-05-25,2023-05-25,株式会社Ｓｗａｌｌｏｗ　Ｄｅｓｉｇｎ　Ｓｔｕｄｉｏ,,株式会社,東京都,港区,南青山３丁目１番３６号青山丸竹ビル６Ｆ,,13,103,1070062,,,,,,,2023-05-25,1,,,,,スワローデザインスタジオ,0
727,4010401174611,新規,0,2023-05-25,2023-05-25,株式会社アールマネジメント,,株式会社,東京都,港区,六本木５丁目１６番５号,,13,103,1060032,,,,,,,2023-05-25,1,,,,,アールマネジメント,0
735,4010703006710,新規,0,2023-05-25,2023-05-25,ＶＡＮＹ合同会社,,合同会社,東京都,品川区,南品川５丁目１６－７Ｕ－ｍａｋｅ南品川１Ｆ,,13,109,1400004,,,,,,,2023-05-25,1,,,,,ヴェニー,0
736,4010801033994,新規,0,2023-05-25,2023-05-25,ディオンインターナショナル株式会社,,株式会社,東京都,大田区,池上４丁目１５番１５－６０６号,,13,111,1460082,,,,,,,2023-05-25,1,,,,,ディオンインターナショナル,0
738,4010901053100,新規,0,2023-05-25,2023-05-25,株式会社２２,,株式会社,東京都,世田谷区,世田谷３丁目１番６号ラ・ポルテ世田谷２０１,,13,112,1540017,,,,,,,2023-05-25,1,,,,,ニーニー,0
739,4010903008192,新規,0,2023-05-25,2023-05-25,グッドスキル合同会社,,合同会社,東京都,世田谷区,三軒茶屋１丁目８番１５号,,13,112,1540024,,,,,,,2023-05-25,1,,,,,グッドスキル,0
741,4011001154598,新規,0,2023-05-25,2023-05-25,株式会社Ｒ．Ｅ．Ｄ,,株式会社,東京都,渋谷区,恵比寿南２丁目１番４号,,13,113,1500022,,,,,,,2023-05-25,1,,,,,,0
755,4011401025151,新規,0,2023-05-25,2023-05-25,株式会社エクセリエ,,株式会社,東京都,板橋区,赤塚２丁目２７番２号,,13,119,1750092,,,,,,,2023-05-25,1,,,,,エクセリエ,0
762,4011703003474,新規,0,2023-05-25,2023-05-25,益林合同会社,,合同会社,東京都,江戸川区,松本１丁目６番５号宮原方１Ｆ,,13,123,1330043,,,,,,,2023-05-25,1,,,,,イーリン,0
770,4013301050808,新規,0,2023-05-25,2023-05-25,ＫＯＵＹＡ株式会社,,株式会社,東京都,豊島区,南長崎３丁目１０－５メゾン・ド・ペルシュ４０７号,,13,116,1710052,,,,,,,2023-05-25,1,,,,,コウヤ,0
771,4013301050816,新規,0,2023-05-25,2023-05-25,株式会社ＢＩＬＬＩＯＮ観光,,株式会社,東京都,豊島区,南大塚１丁目６０－２０,,13,116,1700005,,,,,,,2023-05-25,1,,,,,ビリオンカンコウ,0
780,4020001151745,新規,0,2023-05-25,2023-05-25,株式会社キューバリュー,,株式会社,神奈川県,横浜市都筑区,北山田１丁目１０番５号ヴィ・ド・カンパーニュ港北ル・ソレイユ２Ｆ－６,,14,118,2240021,,,,,,,2023-05-25,1,,,,,キューバリュー,0
781,4020001151753,新規,0,2023-05-25,2023-05-25,Ｔ‐ＮＥＸＴ株式会社,,株式会社,神奈川県,横浜市港北区,新吉田町５３７番地,,14,109,2230056,,,,,,,2023-05-25,1,,,,,ティーネクスト,0
787,4020003023959,新規,0,2023-05-25,2023-05-25,合同会社ＢｒｉｇｈｔＮｏｗ,,合同会社,神奈川県,川崎市中原区,上丸子山王町２丁目１２１８番地５,,14,133,2110002,,,,,,,2023-05-25,1,,,,,ブライトナウ,0
791,4021001079126,新規,0,2023-05-25,2023-05-25,株式会社セールスイノベーションズ,,株式会社,神奈川県,相模原市南区,文京２丁目６番６号,,14,153,2520307,,,,,,,2023-05-25,1,,,,,セールスイノベーションズ,0
805,4030005021274,新規,0,2023-05-25,2023-05-25,一般社団法人埼玉県モリンガ協会,,その他の設立登記法人,埼玉県,所沢市,旭町５番１１号,,11,208,3590036,,,,,,,2023-05-25,1,,,,,サイタマケンモリンガキョウカイ,0
819,4080401026500,新規,0,2023-05-25,2023-05-25,株式会社五興不動産開発,,株式会社,静岡県,浜松市中区,中央２丁目８番２１号,,22,131,4300929,,,,,,,2023-05-25,1,,,,,ゴコウフドウサンカイハツ,0
821,4090001018137,新規,0,2023-05-25,2023-05-25,株式会社Ｍｏｔｔｏ,,株式会社,山梨県,甲斐市,玉川１５４２－３,,19,210,4000116,,,,,,,2023-05-25,1,,,,,モット,0
826,4120001255123,新規,0,2023-05-25,2023-05-25,億霊運株式会社,,株式会社,大阪府,大阪市大正区,三軒家西３丁目４番１６号中山ビル４０６Ｂ,,27,108,5510001,,,,,,,2023-05-25,1,,,,,イレイウン,0
827,4120001255164,新規,0,2023-05-25,2023-05-25,株式会社Ｈａｌｅｌｅａ,,株式会社,大阪府,大阪市東淀川区,菅原１丁目１３番４５号,,27,114,5330022,,,,,,,2023-05-25,1,,,,,ハレレア,0
828,4120001255189,新規,0,2023-05-25,2023-05-25,株式会社ＬｅＸＸ＆Ｃｏ．,,株式会社,大阪府,大阪市北区,曾根崎２丁目１番１２号国道ビル８０３,,27,127,5300057,,,,,,,2023-05-25,1,,,,,レックスアンドコー,0
834,4120003024146,新規,0,2023-05-25,2023-05-25,アウン国際ビジネス合同会社,,合同会社,大阪府,大阪市中央区,難波千日前４－２たつみ英祥堂ビル４Ｆ,,27,128,5420075,,,,,,,2023-05-25,1,,,,,アウンコクサイビジネス,0
843,4120901047561,新規,0,2023-05-25,2023-05-25,株式会社ＩｒＢｉｅｎ,,株式会社,大阪府,吹田市,南高浜町９番１２号,,27,205,5640025,,,,,,,2023-05-25,1,,,,,イルビエン,0
846,4130001074381,新規,0,2023-05-25,2023-05-25,株式会社ときわ,,株式会社,京都府,京都市中京区,西ノ京南原町３４－１０２号,,26,104,6048432,,,,,,,2023-05-25,1,,,,,トキワ,0
853,4160005011196,新規,0,2023-05-25,2023-05-25,一般社団法人ラストフォート,,その他の設立登記法人,滋賀県,大津市,秋葉台２３番７号,,25,201,5200822,,,,,,,2023-05-25,1,,,,,ラストフォート,0
854,4170003001875,新規,0,2023-05-25,2023-05-25,ＳＯＳＳＮＡ＆ＣＯ合同会社,,合同会社,和歌山県,西牟婁郡白浜町,２９９８番地の１３２白浜レバランス,,30,401,6492211,,,,,,,2023-05-25,1,,,,,ソスナアンドコ,0
864,4180001156423,新規,0,2023-05-25,2023-05-25,ＥＣＩ‐ＪＡＰＡＮ株式会社,,株式会社,愛知県,常滑市,鯉江本町５丁目１６１番地,,23,216,4790838,,,,,,,2023-05-25,1,,,,,イーシーアイジャパン,0
865,4180001156448,新規,0,2023-05-25,2023-05-25,株式会社ＳＡＬＶＡＴＯＲＥ・ＡＵＴＯ,,株式会社,愛知県,あま市,石作北浦５８番地３,,23,237,4901102,,,,,,,2023-05-25,1,,,,,サルバトーレオート,0
866,4180001156456,新規,0,2023-05-25,2023-05-25,株式会社プロジェクトエイト,,株式会社,愛知県,名古屋市東区,徳川町１０１２番地（徳川園シティハウス１２０１号）,,23,102,4610023,,,,,,,2023-05-25,1,,,,,プロジェクトエイト,0
868,4180003025254,新規,0,2023-05-25,2023-05-25,ＳＨＡＫＥＥＬ　ＴＲＡＤＩＮＧ合同会社,,合同会社,愛知県,春日井市,高森台６丁目８番地３,,23,206,4870032,,,,,,,2023-05-25,1,,,,,シャキールトレーディング,0
873,4200001041341,新規,0,2023-05-25,2023-05-25,株式会社ＢＯＲＤＥＲＬＥＳＳ　ＨＯＬＤＩＮＧＳ,,株式会社,岐阜県,岐阜市,徹明通５丁目２６番地,,21,201,5008879,,,,,,,2023-05-25,1,,,,,ボーダレスホールディングス,0
875,4240001061575,新規,0,2023-05-25,2023-05-25,株式会社のん,,株式会社,広島県,広島市安佐南区,八木９丁目２４番２６－２０１号,,34,105,7310101,,,,,,,2023-05-25,1,,,,,ノン,0
882,4290001101632,新規,0,2023-05-25,2023-05-25,株式会社ＵＣＬ　ＧＲＯＵＰ　ＪＡＰＡＮ,,株式会社,福岡県,福岡市中央区,赤坂１丁目１１番１３号,,40,133,8100042,,,,,,,2023-05-25,1,,,,,ユーシーエルグループジャパン,0
883,4290001101640,新規,0,2023-05-25,2023-05-25,株式会社エフガレージ,,株式会社,福岡県,福岡市中央区,天神２丁目２番１２号Ｔ＆Ｊビルディング７Ｆ,,40,133,8100001,,,,,,,2023-05-25,1,,,,,エフガレージ,0
889,4320001019788,新規,0,2023-05-25,2023-05-25,株式会社ジーズ,,株式会社,大分県,大分市,大字永興１４５４番地の１,,44,201,8700883,,,,,,,2023-05-25,1,,,,,ジーズ,0
902,4380001033718,新規,0,2023-05-25,2023-05-25,南株式会社,,株式会社,福島県,いわき市,泉町滝尻字高見坪２１番地の１８,,07,204,9718182,,,,,,,2023-05-25,1,,,,,ミナミ,0
919,4470003002430,新規,0,2023-05-25,2023-05-25,合同会社ゲーブルハウス,,合同会社,香川県,丸亀市,飯野町東二９６５番地３,,37,202,7630084,,,,,,,2023-05-25,1,,,,,ゲーブルハウス,0
924,4500001024943,新規,0,2023-05-25,2023-05-25,株式会社ＴＩＥ,,株式会社,愛媛県,宇和島市,吉田町奥浦乙２３９番地３,,38,203,7993772,,,,,,,2023-05-25,1,,,,,タイ,0
925,4700150111836,新規,0,2023-05-25,2022-09-26,Ｏｆｆｉｃｅ　ＢＵＲＥＡＵ,,その他,東京都,三鷹市,上連雀１丁目５－２２－１０６号,,13,204,1810012,,,,,,,2022-09-26,1,,,,,オフイスビユーロー,0
927,4700150116488,新規,0,2023-05-25,2023-05-25,Ｙｕｎ　Ｓｈａｎ　Ｔｒａｄｉｎｇ　Ｃｏ．，Ｌｉｍｉｔｅｄ,,外国会社等,,,,,,,,５０１ｆａｎｇ　４６ｄｏｎｇ　ｊｉｄａｂａｉｌｉａｎｌｕ１１３ｈａｏ　ｘｉａｎｇｚｈｏｕｑｕ　ｚｈｕｈａｉｓｈｉ　ｇｕａｎｇｄｏｎｇｓｈｅｎｇ　Ｃｈｉｎａ,,,,,,2023-05-25,1,,,,,ユンシャントレーディングカンパニーリミテッド,0
928,4700150116513,新規,0,2023-05-25,2023-05-25,Ｓｈｅｎｙａｎｇ　Ｙｉｂｏｔｕ　Ｓｈａｎｇ　Ｍａｏ　Ｙｏｕ　Ｘｉａｎ　Ｇｏｎｇ　Ｓｉ,,外国会社等,,,,,,,,ｙｕｈｏｎｇ　ｑｕ　ｎａｙａｎｇｈｕ　ｊｉｅ　１７０－８　ｈａｏ　１９３　ｍｅｎ，Ｓｈｅｎｙａｎｇ，Ｌｉａｏｎｉｎｇ，Ｃｈｉｎａ,,,,,,2023-05-25,1,,,,,シェンヤンイボツシャンマオユウゲンコウシ,0
932,5010001235556,新規,0,2023-05-25,2023-05-25,株式会社しろい,,株式会社,東京都,千代田区,丸の内１丁目１１番１号,,13,101,1000005,,,,,,,2023-05-25,1,,,,,シロイ,0
942,5010401174503,新規,0,2023-05-25,2023-05-25,株式会社ＴＳコンサルティング,,株式会社,東京都,港区,浜松町２丁目２番１５号浜松町ダイヤビル２Ｆ,,13,103,1050013,,,,,,,2023-05-25,1,,,,,ティーエスコンサルティング,0
943,5010401174577,新規,0,2023-05-25,2023-05-25,株式会社ＯＦＦＩＣＥ　ＪＩＭＢＡ,,株式会社,東京都,港区,赤坂８丁目１３番２４－３０９号,,13,103,1070052,,,,,,,2023-05-25,1,,,,,オフィスジンバ,0
954,5010801033993,新規,0,2023-05-25,2023-05-25,株式会社伝説の小松原,,株式会社,東京都,大田区,山王２丁目５番６号ＳＡＮＮＯＢＲＩＤＧＥ,,13,111,1430023,,,,,,,2023-05-25,1,,,,,デンセツノコマツバラ,0
955,5010901053099,新規,0,2023-05-25,2023-05-25,株式会社ＲＯＫＫＡＮ,,株式会社,東京都,世田谷区,池尻４丁目２番２２－２０３号,,13,112,1540001,,,,,,,2023-05-25,1,,,,,ロッカン,0
962,5011001154614,新規,0,2023-05-25,2023-05-25,ＲｉｈｉｔｏＡＩ株式会社,,株式会社,東京都,渋谷区,道玄坂１丁目１０番８号渋谷道玄坂東急ビル２Ｆ－Ｃ,,13,113,1500043,,,,,,,2023-05-25,1,,,,,リヒトエーアイ,0
964,5011005010086,新規,0,2023-05-25,2023-05-25,一般社団法人日本プロフェッショナルポーカー協会,,その他の設立登記法人,東京都,渋谷区,道玄坂１丁目１０番８号,,13,113,1500043,,,,,,,2023-05-25,1,,,,,ニホンプロフェッショナルポーカーキョウカイ,0
967,5011103013081,新規,0,2023-05-25,2023-05-25,合同会社Ｄｅｅｐ　Ｅｍｏｔｉｏｎ,,合同会社,東京都,新宿区,西新宿３丁目３番１３号西新宿水間ビル２Ｆ,,13,104,1600023,,,,,,,2023-05-25,1,,,,,ディープエモーション,0
968,5011201024658,新規,0,2023-05-25,2023-05-25,道之尊株式会社,,株式会社,東京都,中野区,中野５丁目２７番８号,,13,114,1640001,,,,,,,2023-05-25,1,,,,,ドウノソン,0
976,5011701026261,新規,0,2023-05-25,2023-05-25,株式会社ＬＳＡＴ,,株式会社,東京都,江戸川区,篠崎町４丁目１１番９号,,13,123,1330061,,,,,,,2023-05-25,1,,,,,エルエスエーティー,0
980,5011801042464,新規,0,2023-05-25,2023-05-25,テックハウス株式会社,,株式会社,東京都,葛飾区,東新小岩２丁目２０－１１,,13,122,1240023,,,,,,,2023-05-25,1,,,,,テックハウス,0
984,5012701017663,新規,0,2023-05-25,2023-05-25,株式会社ＨｃＭ,,株式会社,東京都,西東京市,向台町５丁目５－４７－１０,,13,229,1880013,,,,,,,2023-05-25,1,,,,,エイチシーエム,0
989,5013301050815,新規,0,2023-05-25,2023-05-25,株式会社ＦＦＫ田村,,株式会社,東京都,豊島区,駒込１丁目３５番１号,,13,116,1700003,,,,,,,2023-05-25,1,,,,,エフエフケータムラ,0
998,5020001151752,新規,0,2023-05-25,2023-05-25,株式会社ＰＳＡ,,株式会社,神奈川県,川崎市宮前区,神木本町１丁目３－８Ｂ３０１,,14,136,2160031,,,,,,,2023-05-25,1,,,,,ピーエスエー,0
1002,5021001079141,新規,0,2023-05-25,2023-05-25,株式会社ＮＥＸＴｏｎｅ,,株式会社,神奈川県,相模原市南区,相模大野２丁目１２番１２－３１２号,,14,153,2520303,,,,,,,2023-05-25,1,,,,,ネクストワン,0
1013,5040001128542,新規,0,2023-05-25,2023-05-25,ＥＸＣＥＬＴＥＣＨ株式会社,,株式会社,千葉県,鎌ケ谷市,初富１３７番地６７,,12,224,2730121,,,,,,,2023-05-25,1,,,,,エクセルテック,0
1014,5040005021982,新規,0,2023-05-25,2023-05-25,ＮＰＯ法人千葉地域ねこ活動の会,,その他の設立登記法人,千葉県,千葉市緑区,古市場町４７４番地２３２,,12,105,2660026,,,,,,,2023-05-25,1,,,,,,0
1016,5050003007529,新規,0,2023-05-25,2023-05-25,Ｋ．Ｍ．Ｍ．ＴＲＡＤＩＮＧ合同会社,,合同会社,茨城県,東茨城郡茨城町,大字奥谷１８２１番地３５－１０４,,08,302,3113156,,,,,,,2023-05-25,1,,,,,ケーエムエムトレーディング,0
1022,5080401026499,新規,0,2023-05-25,2023-05-25,株式会社Ｃｉｒｃｌｅｓ,,株式会社,静岡県,浜松市中区,板屋町６６３番地サーパス浜松駅前９０４号室,,22,131,4300928,,,,,,,2023-05-25,1,,,,,サークルズ,0
1023,5090005007564,新規,0,2023-05-25,2023-05-25,一般社団法人森羅,,その他の設立登記法人,山梨県,甲州市,塩山牛奥５５３２番地４９,,19,213,4040034,,,,,,,2023-05-25,1,,,,,シンラ,0
1024,5100001036441,新規,0,2023-05-25,2023-05-25,株式会社柳澤セメント工業,00130619,株式会社,長野県,千曲市,大字稲荷山６４７番地,,20,218,3870021,,,,,,,2023-05-25,1,,,,,ヤナギサワセメントコウギョウ,0
1040,5120001255080,新規,0,2023-05-25,2023-05-25,福圓株式会社,,株式会社,大阪府,大阪市中央区,島之内１丁目２０－１１深川ビル４０４号室,,27,128,5420082,,,,,,,2023-05-25,1,,,,,フクエン,0
1041,5120001255122,新規,0,2023-05-25,2023-05-25,仲栄株式会社,,株式会社,大阪府,大阪市大正区,三軒家西３丁目４番１６号中山ビル４０４Ａ,,27,108,5510001,,,,,,,2023-05-25,1,,,,,チュウエイ,0
1042,5120001255147,新規,0,2023-05-25,2023-05-25,株式会社アントフォー,,株式会社,大阪府,大阪市中央区,久太郎町１丁目９番７号,,27,128,5410056,,,,,,,2023-05-25,1,,,,,アントフォー,0
1043,5120001255163,新規,0,2023-05-25,2023-05-25,Ａｍｂｉｔｉｏｎ株式会社,,株式会社,大阪府,大阪市中央区,上本町西３丁目１番４１号,,27,128,5420062,,,,,,,2023-05-25,1,,,,,アンビション,0
1044,5120001255196,新規,0,2023-05-25,2023-05-25,株式会社ハレとケ,,株式会社,大阪府,大阪市北区,本庄東２丁目１０番１５号,,27,127,5310074,,,,,,,2023-05-25,1,,,,,ハレトケ,0
1050,5120101067590,新規,0,2023-05-25,2023-05-25,株式会社セブンコアファミリー,,株式会社,大阪府,堺市中区,平井５１７番地３,,27,142,5998251,,,,,,,2023-05-25,1,,,,,セブンコアファミリー,0
1053,5120901047569,新規,0,2023-05-25,2023-05-25,株式会社ゼルエス,,株式会社,大阪府,茨木市,沢良宜西１丁目５番Ｂ－１１０４号,,27,211,5670868,,,,,,,2023-05-25,1,,,,,ゼルエス,0
1056,5130001074389,新規,0,2023-05-25,2023-05-25,株式会社ＩＫ,,株式会社,京都府,京都市西京区,大原野上里南ノ町３６６番地７,,26,111,6101123,,,,,,,2023-05-25,1,,,,,アイケー,0
1064,5180001156439,新規,0,2023-05-25,2023-05-25,株式会社ＡＲＴ　ＦＡＣＴＯＲＹ,,株式会社,愛知県,名古屋市中区,栄４丁目７番８号第一オーシャンビル３０５号,,23,106,4600008,,,,,,,2023-05-25,1,,,,,アートファクトリー,0
1065,5180001156447,新規,0,2023-05-25,2023-05-25,株式会社パラダイス・ファクトリー,,株式会社,愛知県,名古屋市北区,志賀本通１丁目３８番地,,23,103,4620853,,,,,,,2023-05-25,1,,,,,パラダイスファクトリー,0
1067,5180003025253,新規,0,2023-05-25,2023-05-25,犬山アセット合同会社,,合同会社,愛知県,犬山市,大字木津字池ノ上４０２番地１,,23,215,4840079,,,,,,,2023-05-25,1,,,,,イヌヤマアセット,0
1071,5190001030428,新規,0,2023-05-25,2023-05-25,株式会社Ｇ．Ｙ．Ｅ,,株式会社,三重県,四日市市,西日野町５０３２－３,,24,202,5100943,,,,,,,2023-05-25,1,,,,,ジーワイイー,0
1074,5240001061566,新規,0,2023-05-25,2023-05-25,株式会社エヌエスホーム,,株式会社,広島県,広島市安佐北区,落合２丁目１６番１７号,,34,106,7391731,,,,,,,2023-05-25,1,,,,,エヌエスホーム,0
1077,5250003003276,新規,0,2023-05-25,2023-05-25,合同会社ｄａｎｒａｎ,,合同会社,山口県,宇部市,中村３丁目７－３４－３,,35,202,7550072,,,,,,,2023-05-25,1,,,,,ダンラン,0
1080,5280005007553,新規,0,2023-05-25,2023-05-25,農事組合法人豊穣の里中谷,,その他の設立登記法人,島根県,雲南市,木次町宇谷９０２番地６,,32,209,6991321,,,,,,,2023-05-25,1,,,,,,0
1086,5290003013949,新規,0,2023-05-25,2023-05-25,合同会社ｎ．ｕｎｉｔｅ,,合同会社,福岡県,福岡市中央区,大名２丁目１０－３９サンマリノビル７０３,,40,133,8100041,,,,,,,2023-05-25,1,,,,,エヌドットユナイト,0
1087,5290801029551,新規,0,2023-05-25,2023-05-25,未来ビジョンプランニング株式会社,,株式会社,福岡県,北九州市小倉北区,浅野３丁目８番１号ＡＩＭビル６階,,40,106,8020001,,,,,,,2023-05-25,1,,,,,ミライビジョンプランニング,0
1091,5320001019787,新規,0,2023-05-25,2023-05-25,株式会社ウインド九州,,株式会社,大分県,別府市,大字内竈１３３８番地の３,,44,202,8740011,,,,,,,2023-05-25,1,,,,,ウインドキュウシュウ,0
1114,5430001089191,新規,0,2023-05-25,2023-05-25,株式会社Ｗｏｒｋｓ　ｌａｂ,,株式会社,北海道,札幌市手稲区,手稲本町五条４丁目１－３,,01,109,0060025,,,,,,,2023-05-25,1,,,,,ワークスラボ,0
1116,5440001009264,新規,0,2023-05-25,2023-05-25,栄伸工業株式会社,,株式会社,北海道,函館市,石川町１３２番地１７,,01,202,0410802,,,,,,,2023-05-25,1,,,,,エイシンコウギョウ,0
1121,5500005008611,新規,0,2023-05-25,2023-05-25,一般社団法人河野氏ものがたり協会,,その他の設立登記法人,愛媛県,松山市,中村２丁目１番３号三福本社ビル内,,38,201,7900964,,,,,,,2023-05-25,1,,,,,コウノシモノガタリキョウカイ,0
1122,5700150115984,新規,0,2023-05-25,2023-05-10,宮井学童保育クラブ運営委員会,,その他,徳島県,徳島市,多家良町小路地１０（コミュニティセンター内）,,36,201,7714264,,,,,,,2023-05-10,1,,,,,ミヤイガクドウホイククラブウンエイイインカイ,0
1123,5700150116009,新規,0,2023-05-25,2023-05-10,黒沢まちづくり委員会,,その他,島根県,浜田市,三隅町下古和１５１８番地,,32,202,6993215,,,,,,,2023-05-10,1,,,,,クロサワマチヅクリイインカイ,0
1124,5700150116487,新規,0,2023-05-25,2023-05-25,Ｓｈｅｎｚｈｅｎｓｈｉ　ｘｉｌｅ　ｊｉｎｃｈｕｋｏｕｍａｏｙｉ　ｙｏｕｘｉａｎｇｏｎｇｓｉ,,外国会社等,,,,,,,,Ｒｏｏｍ　４０３－１０２，Ｎｏ．１　Ｓｈｅｎｈｕａ　ｊｉｅ，Ｌｉｕｙｕｅ　Ｃｏｍｍｕｎｉｔｙ，Ｈｅｎｇｇａｎｇ　Ｓｔｒｅｅｔ，Ｌｏｎｇｇａｎｇ　Ｄｉｓｔｒｉｃｔ，Ｓｈｅｎｚｈｅｎ，Ｇｕａｎｇｄｏｎｇ，Ｃｈｉｎａ,,,,,,2023-05-25,1,,,,,シンセンシシレジンチュウコウマオイユウゲンコウシ,0
1125,5700150116512,新規,0,2023-05-25,2023-05-25,Ｓｈｅｎｚｈｅｎｓｈｉ　Ｗｅｉｅｒｗｅｉ　Ｄｉａｎｚｉ　Ｍａｏｙｉ　ＹｏｕｘｉａｎＧｏｎｇｓｉ,,外国会社等,,,,,,,,Ｓｈｅｎｚｈｅｎｓｈｉ，ＬｏｎｇｈｕａＸｉｎｑｕ，ＬｏｎｇｈｕａＪｉｅｄａｏ，Ｍｅｉｌｏｎｇｌｕ，ＺｅｈｕａＤａｓｈａ，ＮＯ．１００８，Ｓｈｅｎｚｈｅｎ，Ｇｕａｎｇｄｏｎｇ，Ｃｈｉｎａ,,,,,,2023-05-25,1,,,,,シンセンシウェイアウェイデンシマオイユウゲンコウシ,0
1140,6010003040680,新規,0,2023-05-25,2023-05-25,合同会社東京産業医ウェルズ,,合同会社,東京都,中央区,銀座１丁目１２番４号Ｎ＆ＥＢＬＤ．６Ｆ,,13,102,1040061,,,,,,,2023-05-25,1,,,,,トウキョウサンギョウイウェルズ,0
1143,6010005036735,新規,0,2023-05-25,2023-05-25,一般社団法人聖結会,,その他の設立登記法人,東京都,中央区,銀座７丁目３番７号ブランエスパ銀座４Ｆ,,13,102,1040061,,,,,,,2023-05-25,1,,,,,セイユウカイ,0
1154,6010401174493,新規,0,2023-05-25,2023-05-25,株式会社０,,株式会社,東京都,港区,南青山２丁目２－１５,,13,103,1070062,,,,,,,2023-05-25,1,,,,,ゼロ,0
1155,6010401174502,新規,0,2023-05-25,2023-05-25,株式会社ＳＰＯＷＥＲＴＳ,,株式会社,東京都,港区,赤坂３丁目１－１６ＢＩビル１Ｆ,,13,103,1070052,,,,,,,2023-05-25,1,,,,,スポワーズ,0
1156,6010401174601,新規,0,2023-05-25,2023-05-25,株式会社ｔｏｙｂｏｘ,,株式会社,東京都,港区,海岸２丁目５番１－２２０３号,,13,103,1050022,,,,,,,2023-05-25,1,,,,,トイボックス,0
1160,6010403030158,新規,0,2023-05-25,2023-05-25,優有合同会社,,合同会社,東京都,港区,新橋４丁目２１番３号新橋東急ビル２階,,13,103,1050004,,,,,,,2023-05-25,1,,,,,ユウユウ,0
1169,6010603010166,新規,0,2023-05-25,2023-05-25,築聯合同会社,,合同会社,東京都,墨田区,横川３丁目６番７号３－Ｑ室,,13,107,1300003,,,,,,,2023-05-25,1,,,,,チクレン,0
1174,6010901053115,新規,0,2023-05-25,2023-05-25,株式会社七本槍,,株式会社,東京都,世田谷区,新町３丁目１７番１７号２０２号室,,13,112,1540014,,,,,,,2023-05-25,1,,,,,ナナホンヤリ,0
1183,6011001154605,新規,0,2023-05-25,2023-05-25,株式会社ニューロリペア,,株式会社,東京都,渋谷区,代々木２丁目２１－１１ベルテ代々木ＩＩ１０１,00130610,13,113,1510053,,,,,,,2023-05-25,1,,,,,ニューロリペア,0
1185,6011005010085,新規,0,2023-05-25,2023-05-25,一般社団法人日本テキサスホールデム協会,,その他の設立登記法人,東京都,渋谷区,道玄坂１丁目１０番８号,,13,113,1500043,,,,,,,2023-05-25,1,,,,,ニホンテキサスホールデムキョウカイ,0
1186,6011005010093,新規,0,2023-05-25,2023-05-25,一般社団法人コーポレートベンチャーキャピタル協会,,その他の設立登記法人,東京都,渋谷区,桜丘町１０番１１号,,13,113,1500031,,,,,,,2023-05-25,1,,,,,コーポレートベンチャーキャピタルキョウカイ,0
1199,6011801042430,新規,0,2023-05-25,2023-05-25,盛唐株式会社,,株式会社,東京都,足立区,堀之内１丁目１番４号３０２室,,13,121,1230874,,,,,,,2023-05-25,1,,,,,セイトウ,0
1200,6011801042463,新規,0,2023-05-25,2023-05-25,株式会社メロディートラベル,,株式会社,東京都,足立区,鹿浜８丁目６－１０ディアレスト鹿浜２０５,,13,121,1230864,,,,,,,2023-05-25,1,,,,,メロディートラベル,0
1208,6012801022364,新規,0,2023-05-25,2023-05-25,株式会社山久,,株式会社,東京都,立川市,幸町３丁目８番地の１０,,13,202,1900002,,,,,,,2023-05-25,1,,,,,ヤマキュウ,0
1220,6020003023957,新規,0,2023-05-25,2023-05-25,合同会社オーバーワーク,,合同会社,神奈川県,横浜市港北区,大倉山６丁目５番７ネオステージ大倉山Ａ２０２,,14,109,2220037,,,,,,,2023-05-25,1,,,,,オーバーワーク,0
1222,6021001079132,新規,0,2023-05-25,2023-05-25,株式会社冨田建築設計事務所,,株式会社,神奈川県,海老名市,上郷３丁目８番２６号,,14,215,2430434,,,,,,,2023-05-25,1,,,,,トミタケンチクセッケイジムショ,0
1228,6021003013122,新規,0,2023-05-25,2023-05-25,合同会社ＵＧクリーン,,合同会社,神奈川県,相模原市南区,当麻１１０６番地１７,,14,153,2520336,,,,,,,2023-05-25,1,,,,,ユージークリーン,0
1240,6040003022692,新規,0,2023-05-25,2023-05-25,合同会社ＭＡＮＡＳ,,合同会社,千葉県,千葉市中央区,生実町１８５３－３２サマーセット２０１号室,,12,101,2600813,,,,,,,2023-05-25,1,,,,,マナス,0
1241,6040005022006,新規,0,2023-05-25,2023-05-25,医療法人社団富士梨,,その他の設立登記法人,千葉県,市川市,大和田２丁目１３番２４号市川メディカルステーションＤ棟,,12,203,2720025,,,,,,,2023-05-25,1,,,,,フジリ,0
1254,6080001025636,新規,0,2023-05-25,2023-05-25,株式会社佐藤園インターナショナル,,株式会社,静岡県,静岡市葵区,大原１０５７番地,,22,101,4211314,,,,,,,2023-05-25,1,,,,,サトウエンインターナショナル,0
1261,6090001018135,新規,0,2023-05-25,2023-05-25,株式会社インヘリット,,株式会社,山梨県,南都留郡富士河口湖町,船津１３９９番地１,,19,430,4010301,,,,,,,2023-05-25,1,,,,,インヘリット,0
1271,6120001255063,新規,0,2023-05-25,2023-05-25,株式会社ＳＯ‐ＲＹＵ,,株式会社,大阪府,大阪市浪速区,日本橋５丁目７番２３号,,27,111,5560005,,,,,,,2023-05-25,1,,,,,ソウリュウ,0
1272,6120001255113,新規,0,2023-05-25,2023-05-25,永吉株式会社,,株式会社,大阪府,大阪市天王寺区,東高津町３－３１タケオレジデンス４０２号,,27,109,5430021,,,,,,,2023-05-25,1,,,,,エイキチ,0
1273,6120001255121,新規,0,2023-05-25,2023-05-25,松元株式会社,,株式会社,大阪府,大阪市大正区,三軒家西３丁目４番１６号中山ビル２１８Ｂ,,27,108,5510001,,,,,,,2023-05-25,1,,,,,マツモト,0
1274,6120001255162,新規,0,2023-05-25,2023-05-25,株式会社共栄,,株式会社,大阪府,大阪市東住吉区,北田辺３丁目１５番１０号,,27,121,5460044,,,,,,,2023-05-25,1,,,,,キョウエイ,0
1275,6120001255170,新規,0,2023-05-25,2023-05-25,株式会社サクラフォーラム,,株式会社,大阪府,大阪市中央区,博労町２丁目６番７号東邦ビル３０１Ａ,,27,128,5410059,,,,,,,2023-05-25,1,,,,,サクラフォーラム,0
1276,6120001255195,新規,0,2023-05-25,2023-05-25,株式会社ジャパンツーリズム大阪,,株式会社,大阪府,大阪市淀川区,宮原１丁目１－１,,27,123,5320003,,,,,,,2023-05-25,1,,,,,ジャパンツーリズムオオサカ,0
1279,6120003024144,新規,0,2023-05-25,2023-05-25,ＴＨＡＮＨ　ＢＩＮＨ合同会社,,合同会社,大阪府,大阪市東住吉区,桑津３丁目７番１５号,,27,121,5460041,,,,,,,2023-05-25,1,,,,,タインビン,0
1287,6130005016782,新規,0,2023-05-25,2023-05-25,税理士法人井戸,,その他の設立登記法人,京都府,京都市左京区,聖護院円頓美町１１番地１０,,26,103,6068323,,,,,,,2023-05-25,1,,,,,イド,0
1290,6140001130280,新規,0,2023-05-25,2023-05-25,株式会社ＬＡＢ,,株式会社,兵庫県,神戸市中央区,浪花町５６番地起業プラザひょうご内,,28,110,6500035,,,,,,,2023-05-25,1,,,,,ラボ,0
1291,6140001130289,新規,0,2023-05-25,2023-05-25,株式会社ＢＵＬＥ　ＨＡＴ　ＪＡＰＡＮ,,株式会社,兵庫県,加古郡稲美町,国岡１４２７－５,,28,381,6751115,,,,,,,2023-05-25,1,,,,,ブルーハートジャパン,0
1292,6140001130297,新規,0,2023-05-25,2023-05-25,株式会社セライナ,,株式会社,兵庫県,南あわじ市,津井２２８１－６－Ａ,,28,224,6560341,,,,,,,2023-05-25,1,,,,,セライナ,0
1306,6180001156405,新規,0,2023-05-25,2023-05-25,ＭＧトレーディング株式会社,,株式会社,愛知県,名古屋市緑区,乗鞍１丁目１８１１番地の５７,,23,114,4580004,,,,,,,2023-05-25,1,,,,,エムジートレーディング,0
1307,6180001156446,新規,0,2023-05-25,2023-05-25,株式会社デンタルラボＫ　ｎｅｘｔ,,株式会社,愛知県,名古屋市熱田区,波寄町１４番２０号,,23,109,4560003,,,,,,,2023-05-25,1,,,,,デンタルラボケイネクスト,0
1308,6180001156462,新規,0,2023-05-25,2023-05-25,株式会社Ｈａｕ’ｏｌｉ,,株式会社,愛知県,瀬戸市,東長根町４５番地,,23,204,4890871,,,,,,,2023-05-25,1,,,,,ハウオリ,0
1312,6190001030435,新規,0,2023-05-25,2023-05-25,ＳＡＫＵ　ＪＥＷＥＬＲＹ　ＪＡＰＡＮ株式会社,,株式会社,三重県,桑名市,新町８５番地,,24,205,5110048,,,,,,,2023-05-25,1,,,,,サクジュエリージャパン,0
1323,6240001061573,新規,0,2023-05-25,2023-05-25,株式会社Ａｔｔｉｃ,,株式会社,広島県,広島市安佐南区,長束５丁目２３番１２－８－１０３号,,34,105,7310135,,,,,,,2023-05-25,1,,,,,アティック,0
1332,6270001008786,新規,0,2023-05-25,2023-05-25,株式会社ヤマタ鳥取砂丘ステイション,,株式会社,鳥取県,鳥取市,千代水２丁目１３０番地,,31,201,6800911,,,,,,,2023-05-25,1,,,,,ヤマタトットリサキュウステイション,0
1333,6290001101622,新規,0,2023-05-25,2023-05-25,株式会社ＤＡＩＫＯＵ,,株式会社,福岡県,福岡市博多区,博多駅南３丁目１０番２号サヴォイ・ル・プルミエ・パリエ・１,,40,132,8120016,,,,,,,2023-05-25,1,,,,,ダイコウ,0
1334,6290001101630,新規,0,2023-05-25,2023-05-25,株式会社Ｆｕｇａｄｇｅｔ,,株式会社,福岡県,福岡市博多区,住吉５丁目６－１３アーサー住吉アーバン１２０３号,,40,132,8120018,,,,,,,2023-05-25,1,,,,,フューガジェット,0
1335,6290001101639,新規,0,2023-05-25,2023-05-25,株式会社キュービ,,株式会社,福岡県,福岡市博多区,古門戸町９番１９号,,40,132,8120029,,,,,,,2023-05-25,1,,,,,キュービ,0
1347,6330003009859,新規,0,2023-05-25,2023-05-25,合同会社光輝堂,,合同会社,熊本県,熊本市東区,錦ケ丘２０番２３号,,43,102,8620912,,,,,,,2023-05-25,1,,,,,コウキドウ,0
1357,6370001050002,新規,0,2023-05-25,2023-05-25,アニモ工房株式会社,,株式会社,宮城県,大崎市,古川大幡字道上１５番地１０,,04,215,9896114,,,,,,,2023-05-25,1,,,,,アニモコウボウ,0
1360,6380001033716,新規,0,2023-05-25,2023-05-25,株式会社アイ・エス,,株式会社,福島県,いわき市,遠野町上遠野字若宮８４番地の２３８,,07,204,9720161,,,,,,,2023-05-25,1,,,,,アイエス,0
1366,6410003003804,新規,0,2023-05-25,2023-05-25,合同会社ｂｅ　ｎａｎａｎ,,合同会社,秋田県,仙北市,田沢湖岡崎字鳥居野３３番地１,,05,215,0141111,,,,,,,2023-05-25,1,,,,,ビーナナン,0
1372,6430001089182,新規,0,2023-05-25,2023-05-25,株式会社ＢｅｓｔＰｌａｎ,,株式会社,北海道,札幌市北区,北十五条西４丁目２番２７号北１５条ビル２Ｆ,,01,102,0010015,,,,,,,2023-05-25,1,,,,,ベストプラン,0
1374,6430003015070,新規,0,2023-05-25,2023-05-25,樫田不動産リアルティ合同会社,,合同会社,北海道,虻田郡倶知安町,南四条東４丁目２番地１８,,01,400,0440014,,,,,,,2023-05-25,1,,,,,カシタフドウサンリアルティ,0
1375,6430003015079,新規,0,2023-05-25,2023-05-25,合同会社蕗ノトウ,,合同会社,北海道,苫小牧市,沼ノ端中央４丁目５番５号,,01,213,0591305,,,,,,,2023-05-25,1,,,,,フキノトウ,0
1379,6460301005150,新規,0,2023-05-25,2023-05-25,株式会社ＡＥＬＬ,,株式会社,北海道,北見市,双葉町１丁目１番１８号,,01,208,0900054,,,,,,,2023-05-25,1,,,,,アエル,0
1382,6470001019631,新規,0,2023-05-25,2023-05-25,株式会社ＲｕＦ,,株式会社,香川県,高松市,元山町１０５６番地１,,37,201,7610311,,,,,,,2023-05-25,1,,,,,ルーフ,0
1386,6700150116486,新規,0,2023-05-25,2023-05-25,ｓｈｅｎｚｈｅｎｓｈｉ　ｚｈｉｃｈｅｎｇｋｅｊｉ　ｙｏｕｘｉａｎｇｏｎｇｓｉ,,外国会社等,,,,,,,,ｊｉｎｇｌｏｎｇｓｈｅｑｕ　ｊｉｎｇｈｕａｘｉｎｃｕｎ　ｄｏｎｇｑｕ４９ｈａｏ５０１　ｌｏｎｇｈｕａｑｕ　ｌｏｎｇｈｕａｊｉｅｄａｏ　ｓｈｅｎｚｈｅｎ　ｇｕａｎｇｄｏｎｇ　Ｃｈｉｎａ,,,,,,2023-05-25,1,,,,,シンセンシジチェンケジユウゲンコウシ,0
1387,6700150116511,新規,0,2023-05-25,2023-05-25,ｓｈｅｎｚｈｅｎｓｈｉ　ｂｏｌｅｊｕｋｅｊｉ　ｙｏｕｘｉａｎｇｏｎｇｓｉ,,外国会社等,,,,,,,,ａｉｌｉａｎｓｈｅｑｕ，ｘｉｎｔｕｎｂｅｉｙｉｘｉａｎｇ，８ｈａｏ９０２ｓｈｉ，ｌｏｎｇｇａｎｇｑｕ，ｌｏｎｇｃｈｅｎｇｊｉｅｄａｏ，ｓｈｅｎｚｈｅｎｓｈｉ，ｇｕａｎｇｄｏｎｇｓｈｎｇ，ｃｈｉｎａ,,,,,,2023-05-25,1,,,,,シンセンシボレジュケジユウゲンコウシ,0
1395,7010001235546,新規,0,2023-05-25,2023-05-25,株式会社ＢＥＰＯ,,株式会社,東京都,中央区,晴海３丁目１３番１－４５２４号,,13,102,1040053,,,,,,,2023-05-25,1,,,,,ベポ,0
1396,7010001235570,新規,0,2023-05-25,2023-05-25,株式会社ｐｏｌａｒ　Ｋ,,株式会社,東京都,中央区,銀座１丁目２２番１１号銀座大竹ビジデンス２Ｆ,,13,102,1040061,,,,,,,2023-05-25,1,,,,,ポーラーケイ,0
1397,7010001235604,新規,0,2023-05-25,2023-05-25,株式会社むとう,,株式会社,東京都,中央区,日本橋２丁目１０番１１号Ｏｒｄｉｎ日本橋ビル９Ｆ,,13,102,1030027,,,,,,,2023-05-25,1,,,,,ムトウ,0
1398,7010003040663,新規,0,2023-05-25,2023-05-25,ＣｒｙｐｔｏＭａｎｇａ　Ｓｔｕｄｉｏｓ合同会社,,合同会社,東京都,千代田区,神田和泉町１番地６－１６ヤマトビル４０５,,13,101,1010024,,,,,,,2023-05-25,1,,,,,クリプトマンガスタジオ,0
1399,7010003040688,新規,0,2023-05-25,2023-05-25,合同会社原点回帰,,合同会社,東京都,中央区,銀座１丁目１２番４号Ｎ＆ＥＢＬＤ．６Ｆ,,13,102,1040061,,,,,,,2023-05-25,1,,,,,ゲンテンカイキ,0
1400,7010003040696,新規,0,2023-05-25,2023-05-25,合同会社星旅,,合同会社,東京都,文京区,千駄木３丁目３０番１１号,,13,105,1130022,,,,,,,2023-05-25,1,,,,,ホシタビ,0
1401,7010005036651,新規,0,2023-05-25,2023-05-25,行政書士法人トラスティ法務事務所,,その他の設立登記法人,東京都,中央区,日本橋兜町９番５号兜町平和ダイヤビル４１４,,13,102,1030026,,,,,,,2023-05-25,1,,,,,,0
1402,7010005036742,新規,0,2023-05-25,2023-05-25,ＮＩＨＯＮＢＡＳＨＩ５一般社団法人,,その他の設立登記法人,東京都,中央区,日本橋１丁目４番１号日本橋一丁目ビルディング,,13,102,1030027,,,,,,,2023-05-25,1,,,,,ニホンバシファイブ,0
1409,7010401174501,新規,0,2023-05-25,2023-05-25,株式会社トラスト東京建物,,株式会社,東京都,港区,南青山３丁目８番４０号青山センタービル２階,,13,103,1070062,,,,,,,2023-05-25,1,,,,,トラストトウキョウタテモノ,0
1410,7010401174526,新規,0,2023-05-25,2023-05-25,株式会社ＫａｒｅｔｉｌａＴＯＫＹＯ,,株式会社,東京都,港区,浜松町２丁目２－１５浜松町ダイヤビル２Ｆ,,13,103,1050013,,,,,,,2023-05-25,1,,,,,カレティラトウキョウ,0
1411,7010401174542,新規,0,2023-05-25,2023-05-25,株式会社ＩＰｕｌＵ,,株式会社,東京都,港区,六本木５丁目１６番５号インペリアル六本木１号館６００号室,,13,103,1060032,,,,,,,2023-05-25,1,,,,,イプル,0
1420,7010601063149,新規,0,2023-05-25,2023-05-25,株式会社ロッキーアンドメイ,,株式会社,東京都,江東区,有明１丁目５－２－１３１０,,13,108,1350063,,,,,,,2023-05-25,1,,,,,ロッキーアンドメイ,0
1425,7010701044296,新規,0,2023-05-25,2023-05-25,ウィーメックスヘルスケアシステムズ株式会社,,株式会社,東京都,品川区,西五反田１丁目３１番１号,,13,109,1410031,,,,,,,2023-05-25,1,,,,,ウィーメックスヘルスケアシステムズ,0
1426,7010701044305,新規,0,2023-05-25,2023-05-25,株式会社ｅｌｐｉｓ８,,株式会社,東京都,品川区,上大崎３丁目１番２－８１２号,,13,109,1410021,,,,,,,2023-05-25,1,,,,,エルピスエイト,0
1433,7010801033975,新規,0,2023-05-25,2023-05-25,明成株式会社,,株式会社,東京都,大田区,蒲田２丁目８番１０号,,13,111,1440052,,,,,,,2023-05-25,1,,,,,メイセイ,0
1434,7010801033991,新規,0,2023-05-25,2023-05-25,株式会社みつばち,,株式会社,東京都,大田区,東矢口２丁目１４番１９号,,13,111,1460094,,,,,,,2023-05-25,1,,,,,ミツバチ,0
1436,7010901053106,新規,0,2023-05-25,2023-05-25,ラ・サール株式会社,,株式会社,東京都,世田谷区,若林２丁目２３番２２号,,13,112,1540023,,,,,,,2023-05-25,1,,,,,ラサール,0
1437,7010901053114,新規,0,2023-05-25,2023-05-25,ミルデリ株式会社,,株式会社,東京都,世田谷区,北沢３丁目１９番１１号Ｋフラット２０１号室,,13,112,1550031,,,,,,,2023-05-25,1,,,,,ミルデリ,0
1452,7011101102982,新規,0,2023-05-25,2023-05-25,株式会社えんかつ堂,,株式会社,東京都,新宿区,高田馬場３丁目３番１号,,13,104,1690075,,,,,,,2023-05-25,1,,,,,エンカツドウ,0
1456,7011401025149,新規,0,2023-05-25,2023-05-25,株式会社ＨＲＰ,,株式会社,東京都,板橋区,上板橋２丁目３－３新井ビル２０１号,,13,119,1740076,,,,,,,2023-05-25,1,,,,,エイチアールピー,0
1463,7011801042462,新規,0,2023-05-25,2023-05-25,東旭国際株式会社,,株式会社,東京都,葛飾区,東新小岩１丁目４－４セルティ２０１室,,13,122,1240023,,,,,,,2023-05-25,1,,,,,トウキョクコクサイ,0
1464,7012301013458,新規,0,2023-05-25,2023-05-25,株式会社シーフードプラス,,株式会社,東京都,町田市,小野路町１３５７番地,,13,209,1950064,,,,,,,2023-05-25,1,,,,,シーフードプラス,0
1486,7020001151767,新規,0,2023-05-25,2023-05-25,株式会社Ｏｆｆｉｃｅ政,,株式会社,神奈川県,横浜市青葉区,新石川４丁目９番地２２,,14,117,2250003,,,,,,,2023-05-25,1,,,,,オフィスマサ,0
1492,7020003023956,新規,0,2023-05-25,2023-05-25,レインボー電気合同会社,,合同会社,神奈川県,横浜市磯子区,磯子２丁目１７番１０－１９号,,14,107,2350016,,,,,,,2023-05-25,1,,,,,レインボーデンキ,0
1494,7021001079131,新規,0,2023-05-25,2023-05-25,株式会社ツリービレッジ,,株式会社,神奈川県,三浦市,南下浦町毘沙門１１８０番地９,,14,210,2380105,,,,,,,2023-05-25,1,,,,,ツリービレッジ,0
1497,7021005012823,新規,0,2023-05-25,2023-05-25,特定非営利活動法人子育て応援団Ｗｉｔｈ,,その他の設立登記法人,神奈川県,相模原市南区,大野台１丁目１８番２３号,,14,153,2520331,,,,,,,2023-05-25,1,,,,,コソダテオウエンダンウィズ,0
1515,7080003002987,新規,0,2023-05-25,2023-05-25,合同会社ＴＦ,,合同会社,静岡県,静岡市葵区,城東町４２番１６号,,22,101,4200846,,,,,,,2023-05-25,1,,,,,ティーエフ,0
1525,7110003005061,新規,0,2023-05-25,2023-05-25,合同会社ＮＯＣＴ,,合同会社,新潟県,長岡市,小国町上谷内新田３３５番地１,,15,202,9495214,,,,,,,2023-05-25,1,,,,,ノクト,0
1535,7120001255079,新規,0,2023-05-25,2023-05-25,翰＿株式会社,00130620,株式会社,大阪府,大阪市平野区,平野市町１丁目１－１３申野オフィス２０３号室,,27,126,5470042,,,,,,,2023-05-25,1,,,,,カンセン,0
1536,7120001255120,新規,0,2023-05-25,2023-05-25,新美閣展覧株式会社,,株式会社,大阪府,大阪市大正区,三軒家西３丁目４番１６号中山ビル４０５Ａ,,27,108,5510001,,,,,,,2023-05-25,1,,,,,シンビカクテンラン,0
1537,7120001255137,新規,0,2023-05-25,2023-05-25,Ｃ＆Ｈ　Ｊａｐａｎ株式会社,,株式会社,大阪府,大阪市中央区,今橋１丁目１番３号９階,,27,128,5410042,,,,,,,2023-05-25,1,,,,,シーアンドエイチジャパン,0
1538,7120001255161,新規,0,2023-05-25,2023-05-25,株式会社ＴＯＢＥ,,株式会社,大阪府,大阪市西淀川区,柏里３丁目１番１２－２０２号,,27,113,5550022,,,,,,,2023-05-25,1,,,,,トゥービー,0
1539,7120001255178,新規,0,2023-05-25,2023-05-25,株式会社Ｉｍｐｏｓｓｉｂｌｅ,,株式会社,大阪府,大阪市住吉区,苅田７丁目３－１０,,27,120,5580011,,,,,,,2023-05-25,1,,,,,インポッシブル,0
1547,7120901047559,新規,0,2023-05-25,2023-05-25,保田興業株式会社,,株式会社,大阪府,箕面市,森町中１丁目２０番１号,,27,220,5630257,,,,,,,2023-05-25,1,,,,,ヤスダコウギョウ,0
1548,7120901047567,新規,0,2023-05-25,2023-05-25,ニューロンホールディングス株式会社,,株式会社,大阪府,摂津市,千里丘１丁目４番９号,,27,224,5660001,,,,,,,2023-05-25,1,,,,,ニューロンホールディングス,0
1553,7130001074370,新規,0,2023-05-25,2023-05-25,テンフィールズエナジー株式会社,,株式会社,京都府,相楽郡精華町,光台１丁目７けいはんなプラザ９階,,26,366,6190237,,,,,,,2023-05-25,1,,,,,テンフィールズエナジー,0
1556,7140001130296,新規,0,2023-05-25,2023-05-25,株式会社ＳｏｃｉａｌＡｒｋ,,株式会社,兵庫県,高砂市,伊保崎５丁目１番６号,,28,216,6760076,,,,,,,2023-05-25,1,,,,,ソーシャルアーク,0
1574,7180001156437,新規,0,2023-05-25,2023-05-25,株式会社Ｗ＆Ｂ,,株式会社,愛知県,大府市,吉田町６丁目３５１－２,,23,223,4740048,,,,,,,2023-05-25,1,,,,,ダブリューアンドバン,0
1575,7180001156445,新規,0,2023-05-25,2023-05-25,株式会社まめすぎ,,株式会社,愛知県,名古屋市千種区,山門町２丁目６２番地パークマノア３０１,,23,101,4640064,,,,,,,2023-05-25,1,,,,,マメスギ,0
1579,7180003025268,新規,0,2023-05-25,2023-05-25,合同会社なかの,,合同会社,愛知県,東海市,富木島町西才道３０エスペランタ東海１０４,,23,222,4760011,,,,,,,2023-05-25,1,,,,,ナカノ,0
1584,7200003005969,新規,0,2023-05-25,2023-05-25,ｅ‐Ｔｅｃｈ　Ｓｍａｒｔ　Ｓｏｌｕｔｉｏｎｓ合同会社,,合同会社,岐阜県,美濃加茂市,森山町５丁目１１－１５,,21,211,5050021,,,,,,,2023-05-25,1,,,,,イーテックスマートソリューション,0
1597,7290001101638,新規,0,2023-05-25,2023-05-25,株式会社Ｔｅａｍ　Ｗｉｎｄｙ,,株式会社,福岡県,福岡市中央区,天神２丁目５番２８号天神西通りセンタービル６Ｆ,,40,133,8100001,,,,,,,2023-05-25,1,,,,,チームウインディ,0
1598,7290001101646,新規,0,2023-05-25,2023-05-25,株式会社エムクリエイト,,株式会社,福岡県,筑紫野市,美しが丘南５丁目５－３５－１Ｆ,,40,217,8180034,,,,,,,2023-05-25,1,,,,,エムクリエイト,0
1606,7330001030881,新規,0,2023-05-25,2023-05-25,株式会社マースＸ,,株式会社,熊本県,熊本市北区,武蔵ケ丘９丁目２番５７－２１０号,,43,105,8618001,,,,,,,2023-05-25,1,,,,,マースエックス,0
1612,7380001033715,新規,0,2023-05-25,2023-05-25,株式会社美里興業,,株式会社,福島県,いわき市,内郷御台境町前田７番地の６,,07,204,9738409,,,,,,,2023-05-25,1,,,,,ミサトコウギョウ,0
1629,7700150026461,新規,0,2023-05-25,2015-10-09,守口民主商工会,,その他,大阪府,守口市,八雲東町２丁目４９－２,,27,209,5700021,,,,,,,2015-10-09,1,,,,,モリグチミンシユシヨウコウカイ,0
1632,7700150116485,新規,0,2023-05-25,2023-05-25,ｐｕｊｉａｎｇｘｉａｎ　ｘｉａｂｏｄｉａｎｚｉｓｈａｎｇｗｕ　ｙｏｕｘｉａｎｇｏｎｇｓｉ,,外国会社等,,,,,,,,ｐｕｊｉａｎｇｘｉａｎ　ｙａｎｔｏｕｚｈｅｎ　ｙａｎｓｈａｎｃｕｎ　２６ｈａｏ　ｊｉｎｈｕａｓｈｉ　ｚｈｅｊｉａｎｇｓｈｅｎｇ　Ｃｈｉｎａ,,,,,,2023-05-25,1,,,,,プジアンシャンシアボデンシショウムユウゲンコウシ,0
1633,7700150116510,新規,0,2023-05-25,2023-05-25,ＪＩＡＮＧ　ＭＥＮ　ＳＨＩ　ＺＨＵＯ　ＨＯＮＧ　ＭＡＯ　ＹＩ　ＹＯＵ　ＸＩＡＮ　ＧＯＮＧ　ＳＩ,,外国会社等,,,,,,,,Ｎｏ６（１１ｔｈ　Ｆｌｏｏｒ　ａｎｄ　Ｔｉａｎ　Ｍｉａｎ），Ｈｕｉ　Ｍｉｎ　Ｄｏｎｇ　Ｌｕ，Ｘｉｎ　Ｈｕｉ　Ｄｉｓｔｒｉｃｔ，Ｊｉａｎｇ　Ｍｅｎ　Ｃｉｔｙ，Ｇｕａｎｇｄｏｎｇ，Ｃｈｉｎａ,,,,,,2023-05-25,1,,,,,ジャンメンシズオホンマオイユウゲンコウシ,0
1639,8010001235396,新規,0,2023-05-25,2023-05-25,株式会社Ｓｍａｒｔ　Ｗａｖｅ,,株式会社,東京都,千代田区,飯田橋１丁目７番１０号山京ビル本館８０２,,13,101,1020072,,,,,,,2023-05-25,1,,,,,スマートウェーブ,0
1640,8010001235487,新規,0,2023-05-25,2023-05-25,ＤＣＣｏｎｎｅｃｔ　Ｊａｐａｎ株式会社,,株式会社,東京都,中央区,日本橋２丁目１番３号,,13,102,1030027,,,,,,,2023-05-25,1,,,,,ディーシーコネクトジャパン,0
1641,8010001235553,新規,0,2023-05-25,2023-05-25,バイオクリスト・ジャパン株式会社,,株式会社,東京都,中央区,京橋２丁目２番１号京橋エドグラン２６階,,13,102,1040031,,,,,,,2023-05-25,1,,,,,バイオクリストジャパン,0
1642,8010001235561,新規,0,2023-05-25,2023-05-25,株式会社桜石可,,株式会社,東京都,千代田区,神田三崎町２丁目１０番１１号Ｐｅｇビル５Ｂ－６,,13,101,1010061,,,,,,,2023-05-25,1,,,,,オウセキカ,0
1643,8010001235603,新規,0,2023-05-25,2023-05-25,ＪＰストレージマネジメント株式会社,,株式会社,東京都,千代田区,大手町１丁目５番１号大手町ファーストスクエアＥＡＳＴＴＯＷＥＲ４階,,13,101,1000004,,,,,,,2023-05-25,1,,,,,ジェイピーストレージマネジメント,0
1646,8010003040670,新規,0,2023-05-25,2023-05-25,ＨＬＢ１４号合同会社,,合同会社,東京都,千代田区,霞が関３丁目２番５号,,13,101,1000013,,,,,,,2023-05-25,1,,,,,エイチエルビージュウヨンゴウ,0
1647,8010003040687,新規,0,2023-05-25,2023-05-25,ＶＥＲＥＤ５合同会社,,合同会社,東京都,中央区,八丁堀４丁目２番１０号ＡＯＪ税理士法人内,,13,102,1040032,,,,,,,2023-05-25,1,,,,,ヴェレッドファイブ,0
1649,8010005036741,新規,0,2023-05-25,2023-05-25,税理士法人Ａｍａｔｒｉａ,,その他の設立登記法人,東京都,千代田区,飯田橋１丁目９番６号朝日飯田橋マンション８０２号室,,13,101,1020072,,,,,,,2023-05-25,1,,,,,アマトリア,0
1659,8010401174574,新規,0,2023-05-25,2023-05-25,株式会社アソマジ,,株式会社,東京都,港区,高輪４丁目１１－２２－１０１,,13,103,1080074,,,,,,,2023-05-25,1,,,,,アソマジ,0
1661,8010403030172,新規,0,2023-05-25,2023-05-25,合同会社グリーン,,合同会社,東京都,港区,南青山１丁目２４番１３－６０２号,,13,103,1070062,,,,,,,2023-05-25,1,,,,,グリーン,0
1665,8010601063156,新規,0,2023-05-25,2023-05-25,パワーテクノ株式会社,,株式会社,東京都,江東区,猿江１丁目２１番７－２０２,,13,108,1350003,,,,,,,2023-05-25,1,,,,,パワーテクノ,0
1666,8010701044312,新規,0,2023-05-25,2023-05-25,株式会社オーエーシー企画,,株式会社,東京都,品川区,上大崎３丁目９番２号,,13,109,1410021,,,,,,,2023-05-25,1,,,,,オーエーシーキカク,0
1674,8010901053096,新規,0,2023-05-25,2023-05-25,株式会社ホソアカ＆カンパニー,,株式会社,東京都,世田谷区,上馬５丁目１１番１５号,,13,112,1540011,,,,,,,2023-05-25,1,,,,,ホソアカアンドカンパニー,0
1676,8010903008189,新規,0,2023-05-25,2023-05-25,ＭＡＧ合同会社,,合同会社,東京都,世田谷区,大原１丁目１２番１８号,,13,112,1560041,,,,,,,2023-05-25,1,,,,,エムエージー,0
1683,8011001154628,新規,0,2023-05-25,2023-05-25,株式会社憧画工房,,株式会社,東京都,渋谷区,元代々木町４５番１－２０６号ヒューリックコート元代々木,,13,113,1510062,,,,,,,2023-05-25,1,,,,,ドウガコウボウ,0
1693,8011101102998,新規,0,2023-05-25,2023-05-25,株式会社イーライフ,,株式会社,東京都,新宿区,西新宿３丁目３番１３号西新宿水間ビル６階,,13,104,1600023,,,,,,,2023-05-25,1,,,,,イーライフ,0
1699,8011103013079,新規,0,2023-05-25,2023-05-25,合同会社Ｚｅｓｔ,,合同会社,東京都,新宿区,四谷４丁目３０番地２３ビルド吉田４０３,,13,104,1600004,,,,,,,2023-05-25,1,,,,,ゼスト,0
1701,8011201024663,新規,0,2023-05-25,2023-05-25,天樹映画株式会社,,株式会社,東京都,中野区,若宮２丁目５番２号コートハウス都立家政１０５,,13,114,1650033,,,,,,,2023-05-25,1,,,,,テンジュエイガ,0
1703,8011401025148,新規,0,2023-05-25,2023-05-25,金山ＪＡＰＡＮ株式会社,,株式会社,東京都,板橋区,蓮沼町３７番８号,,13,119,1740052,,,,,,,2023-05-25,1,,,,,カネヤマジャパン,0
1704,8011501029338,新規,0,2023-05-25,2023-05-25,日恒株式会社,,株式会社,東京都,荒川区,東尾久４丁目１５番８号,,13,118,1160012,,,,,,,2023-05-25,1,,,,,ニチコウ,0
1708,8011701026259,新規,0,2023-05-25,2023-05-25,株式会社青い鳥,,株式会社,東京都,江戸川区,鹿骨５丁目１８番３号,,13,123,1330073,,,,,,,2023-05-25,1,,,,,アオイトリ,0
1712,8011801042461,新規,0,2023-05-25,2023-05-25,株式会社ハルカナ,,株式会社,東京都,足立区,西新井本町５丁目４番６号,,13,121,1230845,,,,,,,2023-05-25,1,,,,,ハルカナ,0
1722,8020001151758,新規,0,2023-05-25,2023-05-25,株式会社三興ホールディングス,,株式会社,神奈川県,横浜市緑区,鴨居１丁目７番３号,,14,113,2260003,,,,,,,2023-05-25,1,,,,,サンコウホールディングス,0
1726,8020003023955,新規,0,2023-05-25,2023-05-25,合同会社小原事務所,,合同会社,神奈川県,横浜市港北区,岸根町５３２番地の３,,14,109,2220034,,,,,,,2023-05-25,1,,,,,オハラジムショ,0
1729,8021001079122,新規,0,2023-05-25,2023-05-25,株式会社８８０,,株式会社,神奈川県,三浦郡葉山町,堀内４４４―１―Ｃ,,14,301,2400112,,,,,,,2023-05-25,1,,,,,ハヤマ,0
1730,8021001079139,新規,0,2023-05-25,2023-05-25,株式会社デュマイロ,,株式会社,神奈川県,逗子市,逗子１丁目６番２７号４０２,,14,208,2490006,,,,,,,2023-05-25,1,,,,,デュマイロ,0
1731,8021001079147,新規,0,2023-05-25,2023-05-25,株式会社バーチャルパーティー,,株式会社,神奈川県,伊勢原市,板戸２６２－１,,14,214,2591145,,,,,,,2023-05-25,1,,,,,バーチャルパーティー,0
1749,8040001128465,新規,0,2023-05-25,2023-05-25,株式会社国際Ｗ＆Ｗ,,株式会社,千葉県,八街市,文違２０３,,12,230,2891104,,,,,,,2023-05-25,1,,,,,コクサイダブリューアンドダブリュー,0
1755,8040005022004,新規,0,2023-05-25,2023-05-25,医療法人社団スリースマイル,,その他の設立登記法人,千葉県,船橋市,行田３丁目２番２３号行田団地１－２３－１０２,,12,204,2730044,,,,,,,2023-05-25,1,,,,,スリースマイル,0
1757,8050001052879,新規,0,2023-05-25,2023-05-25,株式会社Ｕ・Ｓエコライン,,株式会社,茨城県,牛久市,女化町８５３番地１,,08,219,3001214,,,,,,,2023-05-25,1,,,,,ユーエスエコライン,0
1758,8060001036022,新規,0,2023-05-25,2023-05-25,株式会社ＡＲＫ　ＴＲＡＤＩＮＧ,,株式会社,栃木県,栃木市,今泉町２丁目６番４０号グリーンハイツＤ２０２,,09,203,3280027,,,,,,,2023-05-25,1,,,,,エアルケトレーディング,0
1768,8120001255094,新規,0,2023-05-25,2023-05-25,泰亞全球株式会社,,株式会社,大阪府,大阪市中央区,博労町１丁目１番２号,,27,128,5410059,,,,,,,2023-05-25,1,,,,,タイアゼンキュウ,0
1769,8120001255193,新規,0,2023-05-25,2023-05-25,株式会社Ｓ．Ａ．Ｐ．,,株式会社,大阪府,大阪市北区,天満２丁目１－６,,27,127,5300043,,,,,,,2023-05-25,1,,,,,エスエーピー,0
1770,8120001255202,新規,0,2023-05-25,2023-05-25,鶴盧文化株式会社,,株式会社,大阪府,大阪市中央区,東平２丁目２番１１－７０１号,,27,128,5420063,,,,,,,2023-05-25,1,,,,,カクロブンカ,0
1771,8120001255210,新規,0,2023-05-25,2023-05-25,ジェイ・エル・ソリューションズ株式会社,,株式会社,大阪府,大阪市西区,南堀江１丁目１１番１号９階,,27,106,5500015,,,,,,,2023-05-25,1,,,,,ジェイエルソリューションズ,0
1772,8120003024142,新規,0,2023-05-25,2023-05-25,光和合同会社,,合同会社,大阪府,大阪市淀川区,西宮原１丁目７番１５号ネオハイツ第３新大阪５０６号室,,27,123,5320004,,,,,,,2023-05-25,1,,,,,コウワ,0
1774,8120005023638,新規,0,2023-05-25,2023-05-25,一般社団法人ＫＡＴＡＲＡＩ,,その他の設立登記法人,大阪府,門真市,三ツ島５丁目１６番２９号,,27,223,5710015,,,,,,,2023-05-25,1,,,,,カタライ,0
1776,8120101067588,新規,0,2023-05-25,2023-05-25,株式会社オヤカワ,,株式会社,大阪府,松原市,高見の里４丁目１１番１７－２－２０４号,,27,217,5800021,,,,,,,2023-05-25,1,,,,,オヤカワ,0
1783,8130003008747,新規,0,2023-05-25,2023-05-25,合同会社ｗａｄａｃｈｉ,,合同会社,京都府,京都市下京区,七条通油小路東入大黒町２２７番地第２キョートビル４０２,,26,106,6008223,,,,,,,2023-05-25,1,,,,,ワダチ,0
1787,8150001026419,新規,0,2023-05-25,2023-05-25,株式会社増田工業,,株式会社,奈良県,磯城郡田原本町,大字千代５９７番地の１Ｍ’ｓコートＩＩＦ号室,00130618,29,363,6360246,,,,,,,2023-05-25,1,,,,,マスダコウギョウ,0
1791,8180001156444,新規,0,2023-05-25,2023-05-25,株式会社ビーコンフィデント,,株式会社,愛知県,名古屋市緑区,大高台２丁目４０３番地（プチタウン大高台２０３号）,,23,114,4598003,,,,,,,2023-05-25,1,,,,,ビーコンフィデント,0
1792,8180001156460,新規,0,2023-05-25,2023-05-25,ＭＳＢ　Ｉｎｔｅｒｎａｔｉｏｎａｌ株式会社,,株式会社,愛知県,岩倉市,石仏町たり１－１,,23,228,4820034,,,,,,,2023-05-25,1,,,,,エムエスビーインタナショナル,0
1796,8180003025259,新規,0,2023-05-25,2023-05-25,合同会社ＪＳＴＳ,,合同会社,愛知県,名古屋市港区,多加良浦町４丁目２４５番地,,23,111,4550825,,,,,,,2023-05-25,1,,,,,ジェイエスティーエス,0
1797,8180005020225,新規,0,2023-05-25,2023-05-25,一般社団法人いやさか,,その他の設立登記法人,愛知県,名古屋市中区,大須３丁目４２番２３号,,23,106,4600011,,,,,,,2023-05-25,1,,,,,イヤサカ,0
1798,8190001030433,新規,0,2023-05-25,2023-05-25,株式会社ウエジマナオキ,,株式会社,三重県,伊勢市,御薗町新開３４９番地,,24,203,5160802,,,,,,,2023-05-25,1,,,,,ウエジマナオキ,0
1801,8200003005968,新規,0,2023-05-25,2023-05-25,Ｎ‐ＴＲＡＤＩＮＧ合同会社,,合同会社,岐阜県,大垣市,静里町２７番地３リバーサイドパーク３０７号,,21,202,5030983,,,,,,,2023-05-25,1,,,,,エヌトレーディング,0
1808,8230001019851,新規,0,2023-05-25,2023-05-25,ＣＲＯＷＮ　ＭＯＴＯＲＳ株式会社,,株式会社,富山県,射水市,作道２１４０番地１グローバルマンション４０５,,16,211,9340042,,,,,,,2023-05-25,1,,,,,クラウンモータース,0
1821,8290001101629,新規,0,2023-05-25,2023-05-25,株式会社ｏｉｋｏｓ,,株式会社,福岡県,春日市,星見ヶ丘５丁目２２,,40,218,8160849,,,,,,,2023-05-25,1,,,,,オイコス,0
1826,8350001018370,新規,0,2023-05-25,2023-05-25,株式会社小々晴,,株式会社,宮崎県,宮崎市,大塚町権現前８９２番地１,,45,201,8800951,,,,,,,2023-05-25,1,,,,,ココハレ,0
1835,8370001050000,新規,0,2023-05-25,2023-05-25,インフィニット株式会社,,株式会社,宮城県,仙台市青葉区,中央４丁目８番１７号小林ビル１Ｆ,,04,101,9800021,,,,,,,2023-05-25,1,,,,,インフィニット,0
1846,8430001089172,新規,0,2023-05-25,2023-05-25,株式会社ＲＡＹＡＮ　ＧＲＯＵＰ,,株式会社,北海道,美唄市,字峰延２４３６番地７,,01,215,0720000,,,,,,,2023-05-25,1,,,,,ライアングループ,0
1847,8430001089197,新規,0,2023-05-25,2023-05-25,株式会社幸栄産業,,株式会社,北海道,札幌市北区,北七条西４丁目１番１号トーカン札幌第一キャステール６０７,,01,102,0600807,,,,,,,2023-05-25,1,,,,,コウエイサンギョウ,0
1853,8500001024948,新規,0,2023-05-25,2023-05-25,松山コンサルティング株式会社,,株式会社,愛媛県,松山市,浅海原甲４７５番地５,,38,201,7992401,,,,,,,2023-05-25,1,,,,,マツヤマコンサルティング,0
1854,8500003003041,新規,0,2023-05-25,2023-05-25,合同会社メリクル,,合同会社,愛媛県,松山市,東石井６丁目６番３４号,,38,201,7900932,,,,,,,2023-05-25,1,,,,,メリクル,0
1855,8700150114744,新規,0,2023-05-25,2023-03-28,島原雲仙農業協同組合女性部深江支部加工部会,,その他,長崎県,南島原市,深江町丁２０２１－３,,42,214,8591504,,,,,,,2023-03-28,1,,,,,シマバラウンゼンノウギヨウキヨウドウクミアイジヨセイブフカエシブカコウブカイ,0
1856,8700150116484,新規,0,2023-05-25,2023-05-25,ＧｕａｎｇＺｈｏｕ　Ｄｏｗｅ　ｍｏｍ　ａｎｄ　ｂａｂｙ　ｃａｒｅ　ｐｒｏｄｕｃｔｓ　ｃｏ．，ｌｔｄ,,外国会社等,,,,,,,,ｒｏｏｍ　３０２　ｎｏ．５　ｂｕｉｌｄｉｎｇ　ｎｏ．１２８　ｄｏｎｇｈｕａｎ　ｒｏａｄ，ｄｏｎｇｈｕａｎ　ｓｔｒｅｅｔ　Ｇｕａｎｇｚｈｏｕ　Ｇｕａｎｇｄｏｎｇ　Ｃｈｉｎａ,,,,,,2023-05-25,1,,,,,ゴンジョウドウェマムアンドベイビーケアプロダクツカンパニーリミテッド,0
1868,9010001235569,新規,0,2023-05-25,2023-05-25,株式会社Ｓｔａｒｔ　Ｏｖｅｒ,,株式会社,東京都,中央区,銀座１丁目１２番４号Ｎ＆ＥＢＬＤ．７階,,13,102,1040061,,,,,,,2023-05-25,1,,,,,スタートオーバー,0
1871,9010003040678,新規,0,2023-05-25,2023-05-25,合同会社ＪＰＲＯＵＤＩＡ,,合同会社,東京都,中央区,銀座１丁目２２番１１号銀座大竹ビジデンス２階ＪＰＲＯＵＤＩＡ,,13,102,1040061,,,,,,,2023-05-25,1,,,,,ジェイプラウディア,0
1872,9010005036740,新規,0,2023-05-25,2023-05-25,一般社団法人ＧＲＥＥＮ,,その他の設立登記法人,東京都,千代田区,丸の内３丁目１番１号東京共同会計事務所内,,13,101,1000005,,,,,,,2023-05-25,1,,,,,グリーン,0
1881,9010403030147,新規,0,2023-05-25,2023-05-25,合同会社Ｉｒｉｄｅｓ,,合同会社,東京都,港区,南青山３丁目１５番９号ＭＩＮＯＷＡ表参道３階,,13,103,1070062,,,,,,,2023-05-25,1,,,,,イリデス,0
1887,9010701044303,新規,0,2023-05-25,2023-05-25,ｃａＳＴＯＲＹ株式会社,,株式会社,東京都,品川区,北品川５丁目５番１５号大崎ブライトコア４階,,13,109,1410001,,,,,,,2023-05-25,1,,,,,キャストリー,0
1888,9010703006706,新規,0,2023-05-25,2023-05-25,ＬｉｔｔｌｅＡｇｅｎｃｙＧ・Ｋ合同会社,,合同会社,東京都,品川区,旗の台５丁目２１番１号２０５,,13,109,1420064,,,,,,,2023-05-25,1,,,,,リトルエージェンシージーケー,0
1899,9011001154593,新規,0,2023-05-25,2023-05-25,株式会社ＭＩ２Ｏ,,株式会社,東京都,目黒区,目黒本町１丁目５番１７号,,13,110,1520002,,,,,,,2023-05-25,1,,,,,ミツオ,0
1900,9011001154610,新規,0,2023-05-25,2023-05-25,シュポールシュルファス株式会社,,株式会社,東京都,目黒区,中目黒２丁目６－２３プライムフィット中目黒４０５号室,,13,110,1530061,,,,,,,2023-05-25,1,,,,,シュポールシュルファス,0
1901,9011001154619,新規,0,2023-05-25,2023-05-25,株式会社日本ＸＲセンター,,株式会社,東京都,渋谷区,桜丘町１６番１３号,,13,113,1500031,,,,,,,2023-05-25,1,,,,,ニホンエックスアールセンター,0
1902,9011001154627,新規,0,2023-05-25,2023-05-25,ＥＣＵ株式会社,,株式会社,東京都,渋谷区,渋谷２丁目１９番１５号宮益坂ビルディング６０９,,13,113,1500002,,,,,,,2023-05-25,1,,,,,イーシーユー,0
1903,9011001154635,新規,0,2023-05-25,2023-05-25,株式会社ＣｏＢｌｏｏｍ,,株式会社,東京都,渋谷区,道玄坂１丁目１０番８号渋谷道玄坂東急ビル２Ｆ－Ｃ,,13,113,1500043,,,,,,,2023-05-25,1,,,,,,0
1921,9011501029337,新規,0,2023-05-25,2023-05-25,株式会社東書システムマネジメント,,株式会社,東京都,北区,堀船２丁目１７番１号,,13,117,1140004,,,,,,,2023-05-25,1,,,,,トウショシステムマネジメント,0
1924,9011801042452,新規,0,2023-05-25,2023-05-25,株式会社ぷろっぷす,,株式会社,東京都,葛飾区,金町５丁目２４番２１－３０１号アクトヒルズ金町,,13,122,1250042,,,,,,,2023-05-25,1,,,,,,0
1925,9011801042460,新規,0,2023-05-25,2023-05-25,株式会社パラリズム,,株式会社,東京都,足立区,千住４丁目２３－１２－２０１号,,13,121,1200034,,,,,,,2023-05-25,1,,,,,パラリズム,0
1927,9012401040557,新規,0,2023-05-25,2023-05-25,株式会社ラポール,,株式会社,東京都,三鷹市,上連雀５丁目２５番２号,,13,204,1810012,,,,,,,2023-05-25,1,,,,,ラポール,0
1945,9020001151749,新規,0,2023-05-25,2023-05-25,冨田手芸株式会社,,株式会社,神奈川県,横浜市旭区,左近山１６番地の１左近山団地１街区３３号棟１０２号室,,14,112,2410831,,,,,,,2023-05-25,1,,,,,トミタシュゲイ,0
1946,9020001151757,新規,0,2023-05-25,2023-05-25,サダトモ株式会社,,株式会社,神奈川県,横浜市緑区,東本郷３丁目４５番５号,,14,113,2260002,,,,,,,2023-05-25,1,,,,,サダトモ,0
1954,9020003023954,新規,0,2023-05-25,2023-05-25,合同会社ＴＡＳＫ,,合同会社,神奈川県,川崎市宮前区,西野川２丁目３２番３５号,,14,136,2160044,,,,,,,2023-05-25,1,,,,,タスク,0
1957,9020005016015,新規,0,2023-05-25,2023-05-25,一般社団法人声楽家団体アンフィニ,,その他の設立登記法人,神奈川県,横浜市神奈川区,入江１丁目１４－３－１０４,,14,102,2210014,,,,,,,2023-05-25,1,,,,,セイガクカダンタイアンフィニ,0
1960,9021003013128,新規,0,2023-05-25,2023-05-25,合同会社あおはる,,合同会社,神奈川県,茅ヶ崎市,新栄町２番３０号茅ヶ崎ショッピングセンター１Ｆ１０２号,,14,207,2530044,,,,,,,2023-05-25,1,,,,,アオハル,0
1978,9040001128415,新規,0,2023-05-25,2023-05-25,株式会社８ｓｅＡｌｓ,,株式会社,千葉県,鎌ケ谷市,道野辺本町２丁目２６番１－６０２,,12,224,2730137,,,,,,,2023-05-25,1,,,,,エイトシールズ,0
1979,9040001128514,新規,0,2023-05-25,2023-05-25,パキラ株式会社,,株式会社,千葉県,市川市,末広１丁目９番１１号,,12,203,2720121,,,,,,,2023-05-25,1,,,,,パキラ,0
1984,9040003022698,新規,0,2023-05-25,2023-05-25,合同会社オフィスファルコン,,合同会社,千葉県,浦安市,美浜４丁目２０－８,,12,227,2790011,,,,,,,2023-05-25,1,,,,,オフィスファルコン,0
1991,9100001036438,新規,0,2023-05-25,2023-05-25,株式会社ＫＥＩＴＥＩ,,株式会社,長野県,松本市,大手４丁目１０番１６号,,20,202,3900874,,,,,,,2023-05-25,1,,,,,ケイテイ,0
2012,9120001255069,新規,0,2023-05-25,2023-05-25,浙桜株式会社,,株式会社,大阪府,大阪市中央区,島之内１丁目１１番２９号,,27,128,5420082,,,,,,,2023-05-25,1,,,,,セツオウ,0
2013,9120001255119,新規,0,2023-05-25,2023-05-25,ＮＯＥＹ株式会社,,株式会社,大阪府,大阪市大正区,三軒家西３丁目４番１６号中山ビル４０２Ａ,,27,108,5510001,,,,,,,2023-05-25,1,,,,,エンオーイーワイー,0
2014,9120001255192,新規,0,2023-05-25,2023-05-25,ＣＨＡＲＭＡＸ株式会社,,株式会社,大阪府,大阪市淀川区,西宮原２丁目６番１６－５４０号室,,27,123,5320004,,,,,,,2023-05-25,1,,,,,チャーマックス,0
2015,9120001255201,新規,0,2023-05-25,2023-05-25,Ｆｏｘ　Ｔａｖｅｒｎ株式会社,,株式会社,大阪府,大阪市淀川区,三津屋南２丁目５番１５号,,27,123,5320035,,,,,,,2023-05-25,1,,,,,フォックスタバーン,0
2017,9120901047565,新規,0,2023-05-25,2023-05-25,株式会社ネオワークス,,株式会社,大阪府,箕面市,牧落５丁目８番２－２１７号,,27,220,5620004,,,,,,,2023-05-25,1,,,,,ネオワークス,0
2018,9120903004655,新規,0,2023-05-25,2023-05-25,合同会社エールハイテック,,合同会社,大阪府,吹田市,江坂町１丁目１３番８号シャルム江坂２０１,,27,205,5640063,,,,,,,2023-05-25,1,,,,,エールハイテック,0
2020,9122001036993,新規,0,2023-05-25,2023-05-25,Ｔａｎｉｇａｗａ．Ｄ株式会社,,株式会社,大阪府,東大阪市,稲田上町１丁目５番４－４０４号,,27,227,5770002,,,,,,,2023-05-25,1,,,,,タニガワディ,0
2022,9140001130294,新規,0,2023-05-25,2023-05-25,喜楽総合塗装株式会社,,株式会社,兵庫県,神戸市西区,神出町宝勢１５０７番１,,28,111,6512321,,,,,,,2023-05-25,1,,,,,キラクソウゴウトソウ,0
2028,9160003002886,新規,0,2023-05-25,2023-05-25,水中合同会社,,合同会社,滋賀県,大津市,仰木の里４丁目３番４－５０２号,,25,201,5200246,,,,,,,2023-05-25,1,,,,,スイチュウ,0
2032,9180001156393,新規,0,2023-05-25,2023-05-25,株式会社ごんたくろう,,株式会社,愛知県,海部郡大治町,大字砂子字大宮崎２６６０番地の３,,23,424,4901143,,,,,,,2023-05-25,1,,,,,ゴンタクロウ,0
2033,9180001156443,新規,0,2023-05-25,2023-05-25,株式会社梅村工業,,株式会社,愛知県,名古屋市名東区,香南２丁目９０５番地の３,,23,115,4650004,,,,,,,2023-05-25,1,,,,,ウメムラコウギョウ,0
2036,9180003025258,新規,0,2023-05-25,2023-05-25,ルーデンス合同会社,,合同会社,愛知県,名古屋市中村区,名駅４丁目２４－５第２森ビル４０１,,23,105,4500002,,,,,,,2023-05-25,1,,,,,ルーデンス,0
2037,9180003025266,新規,0,2023-05-25,2023-05-25,合同会社ノービ,,合同会社,愛知県,江南市,高屋町花戸１８番地１,,23,217,4838046,,,,,,,2023-05-25,1,,,,,ノービ,0
2051,9260001037981,新規,0,2023-05-25,2023-05-25,株式会社ワタナベ,,株式会社,岡山県,岡山市南区,築港緑町２丁目７番２７号,,33,104,7028055,,,,,,,2023-05-25,1,,,,,ワタナベ,0
2060,9290001101636,新規,0,2023-05-25,2023-05-25,株式会社ＴＡＩＤＯＵ,,株式会社,福岡県,福岡市中央区,大名２丁目１番５１号３－Ａ,,40,133,8100041,,,,,,,2023-05-25,1,,,,,タイドウ,0
2084,9430001089196,新規,0,2023-05-25,2023-05-25,株式会社寺尾プロス工業,,株式会社,北海道,札幌市北区,新川二条１丁目２番５１号,,01,102,0010922,,,,,,,2023-05-25,1,,,,,テラオプロスコウギョウ,0
2089,9490001010486,新規,0,2023-05-25,2023-05-25,株式会社アグリファーム虹の夢,,株式会社,高知県,高知市,横浜新町４丁目２２０５番地,,39,201,7810241,,,,,,,2023-05-25,1,,,,,,0
2090,9500003003040,新規,0,2023-05-25,2023-05-25,合同会社Ｅａｒｔｈ　Ｆｉｅｌｄ,,合同会社,愛媛県,松山市,下伊台町４８９番地３５,,38,201,7910112,,,,,,,2023-05-25,1,,,,,アースフィールド,0
2091,9700150116112,新規,0,2023-05-25,2023-05-25,金沢市太陽ヶ丘土地区画整理組合,,その他,石川県,金沢市,太陽が丘２丁目１,,17,201,9201154,,,,,,,2023-05-25,1,,,,,カナザワシタイヨウガオカトチクカクセイリクミアイ,0
2092,9700150116483,新規,0,2023-05-25,2023-05-25,ｓｈｅｎｚｈｅｎ　ｌｅｄｅｓｅｎ　ｋｅｊｉｙｏｕｘｉａｎｇｏｎｇｓｉ,,外国会社等,,,,,,,,ｎａｎｙｕａｎｊｉｅｄａｏ　ｊｉｎｌｏｎｇｓｈｅｑｕ　ｎａｎｙｕａｎｌｕ　２５５ｈａｏ　Ｘｉａｂｕｍｉａｏｂｅｉｑｕ　６ｄｏｎｇ　ｌｉａｎｌａｎｇｚｈｉ　４　Ｆｕｔｉａｎｑｕ　Ｓｈｅｎｚｅｎ　Ｃｈｉｎａ,,,,,,2023-05-25,1,,,,,シンセンレデセンケジユウゲンコウシ,0
2093,9700150116517,新規,0,2023-05-25,2023-05-25,Ｌｕｏｙａｎｇ　ｈｅｎｇｓｈｕｓｈａｎｇｍａｏ　ｙｏｕｘｉａｎｇｏｎｇｓｉ,,外国会社等,,,,,,,,ｌｕｏｙａｎｇｓｈｉ　ｊｉａｎｘｉｑｕ　ｃｈａｎｇｃｈｕｎｌｕ３４ｈａｏ　ｊｉｅｆａｎｇ３ｈａｏｌｏｕ　３－２ｈａｏｓｈａｎｇｐ　ｌｕｏｙａｎｇ　ｈｅｎａｎ　Ｃｈｉｎａ,,,,,,2023-05-25,1,,,,,ルオヤンヘンシュシャンマオユウゲンコウシ,0
