sequenceNumber,corporateNumber,process,correct,updateDate,changeDate,name,nameImageId,kind,prefectureName,cityName,streetNumber,addressImageId,prefectureCode,cityCode,postCode,addressOutside,addressOutsideImageId,closeDate,closeCause,successorCorporateNumber,changeCause,assignmentDate,latest,enName,enPrefectureName,enCityName,enAddressOutside,furigana,hihyoji
6,1010001259906,新規,0,2025-11-04,2025-11-04,Ｗａｌｕｅｒ　Ｊａｐａｎ株式会社,,株式会社,東京都,文京区,本郷５丁目９番５号,,13,105,1130033,,,,,,,2025-11-04,1,,,,,ワルアージャパン,0
7,1010001259930,新規,0,2025-11-04,2025-11-04,株式会社ＳＳＧ,,株式会社,東京都,千代田区,神田和泉町１番地６－１６ヤマトビル４０５,,13,101,1010024,,,,,,,2025-11-04,1,,,,,エスエスジー,0
8,1010001259939,新規,0,2025-11-04,2025-11-04,株式会社ＳＡＫＵＲＡ　Ｃａｐｉｔａｌ,,株式会社,東京都,千代田区,大手町１丁目７番２号２７Ｆ,,13,101,1000004,,,,,,,2025-11-04,1,,,,,サクラキャピタル,0
12,1010003049280,新規,0,2025-11-04,2025-11-04,合同会社Ｒｏｕｔｅ５,,合同会社,東京都,千代田区,平河町１丁目６番１５号シルスフィア会計事務所内,,13,101,1020093,,,,,,,2025-11-04,1,,,,,ルートファイブ,0
23,1010401194257,新規,0,2025-11-04,2025-11-04,株式会社ＡＩＴＥＣＨ,,株式会社,東京都,港区,北青山１丁目３番１号アールキューブ青山３階,,13,103,1070061,,,,,,,2025-11-04,1,,,,,アイテック,0
24,1010401194273,新規,0,2025-11-04,2025-11-04,株式会社Ｙ・Ｏ,,株式会社,東京都,港区,六本木３丁目１番３０号Ａ・Ｂビル６階,,13,103,1060032,,,,,,,2025-11-04,1,,,,,ワイオー,0
26,1010403036440,新規,0,2025-11-04,2025-11-04,合同会社Ｆｌｏｒｉｎａ,,合同会社,東京都,港区,南青山３丁目１番３６号青山丸竹ビル６Ｆ,,13,103,1070062,,,,,,,2025-11-04,1,,,,,フロリーナ,0
27,1010403036481,新規,0,2025-11-04,2025-11-04,合同会社華,,合同会社,東京都,港区,麻布台２丁目１番２－５０８号,,13,103,1060041,,,,,,,2025-11-04,1,,,,,ハナ,0
31,1010601068211,新規,0,2025-11-04,2025-11-04,株式会社志学,,株式会社,東京都,墨田区,向島２丁目１８番５号,,13,107,1310033,,,,,,,2025-11-04,1,,,,,シガク,0
32,1010603011895,新規,0,2025-11-04,2025-11-04,合同会社ｍａｋｏｊｉ,,合同会社,東京都,墨田区,京島１丁目３６番地１号,,13,107,1310046,,,,,,,2025-11-04,1,,,,,マコジ,0
33,1010801036744,新規,0,2025-11-04,2025-11-04,株式会社Ｓｏｒａ　Ｂｌｏｏｍ,,株式会社,東京都,大田区,池上４丁目１５－１５－６０６,,13,111,1460082,,,,,,,2025-11-04,1,,,,,ソラブルーム,0
39,1011001172652,新規,0,2025-11-04,2025-11-04,株式会社Ｓ．ｍｏｖｅｍｅｎｔ,,株式会社,東京都,渋谷区,代々木１丁目４５番１３号３０５号室,,13,113,1510053,,,,,,,2025-11-04,1,,,,,エスムーブメント,0
40,1011001173196,新規,0,2025-11-04,2025-11-04,ＰＡＸ　ＴＯＰＯＬＯＧＹ株式会社,,株式会社,東京都,渋谷区,神南１丁目１１－４ＦＰＧリンクス神南５階,,13,113,1500041,,,,,,,2025-11-04,1,,,,,パックストポロジー,0
41,1011001173205,新規,0,2025-11-04,2025-11-04,ＣＬＥＶＩＯ株式会社,,株式会社,東京都,目黒区,下目黒１丁目１番１４号コノトラビル７Ｆ,,13,110,1530064,,,,,,,2025-11-04,1,,,,,クレビオ,0
42,1011001173469,新規,0,2025-11-04,2025-11-04,Ｌｅｖｅｌｕｐ株式会社,,株式会社,東京都,渋谷区,神南１丁目１１ー４ＦＰＧリンクス神南５階,,13,113,1500041,,,,,,,2025-11-04,1,,,,,レベルアップ,0
45,1011003022780,新規,0,2025-11-04,2025-11-04,ＡＴＣ合同会社,,合同会社,東京都,目黒区,上目黒２丁目３５番７号大石ハイツ１０２,,13,110,1530051,,,,,,,2025-11-04,1,,,,,エーティーシー,0
46,1011003022789,新規,0,2025-11-04,2025-11-04,ＡＩＭ合同会社,,合同会社,東京都,渋谷区,恵比寿西２丁目８番４号ＥＸ恵比寿西ビル５階,,13,113,1500021,,,,,,,2025-11-04,1,,,,,アイム,0
47,1011003022871,新規,0,2025-11-04,2025-11-04,合同会社Ｌｉｎｃｒｅａｔｅ,,合同会社,東京都,渋谷区,恵比寿西２丁目４番８号ウィンド恵比寿ビル８Ｆ,,13,113,1500021,,,,,,,2025-11-04,1,,,,,リンクリエイト,0
51,1011101113721,新規,0,2025-11-04,2025-11-04,Ｐｅａｃｅ　ａｎｄ　Ｇｒａｃｅ株式会社,,株式会社,東京都,新宿区,高田馬場２丁目１０番１３号,,13,104,1690075,,,,,,,2025-11-04,1,,,,,ピースアンドグレイス,0
52,1011101113770,新規,0,2025-11-04,2025-11-04,株式会社ＺＯＬＡ,,株式会社,東京都,新宿区,高田馬場１丁目３１番８号ダイカンプラザ１０２８,,13,104,1690075,,,,,,,2025-11-04,1,,,,,ゾラ,0
54,1011303005758,新規,0,2025-11-04,2025-11-04,合同会社エクスプレス,,合同会社,東京都,杉並区,西荻南３丁目８－１０中根ビル,,13,115,1670053,,,,,,,2025-11-04,1,,,,,エクスプレス,0
55,1011401027547,新規,0,2025-11-04,2025-11-04,四つ葉学園株式会社,,株式会社,東京都,板橋区,中台３丁目２７番Ｉ棟１０２号室,00141369,13,119,1740064,,,,,,,2025-11-04,1,,,,,ヨツバガクエン,0
59,1011603004906,新規,0,2025-11-04,2025-11-04,合同会社雅,,合同会社,東京都,練馬区,春日町３丁目１０番２号,,13,120,1790074,,,,,,,2025-11-04,1,,,,,ミヤビ,0
62,1012401043773,新規,0,2025-11-04,2025-11-04,株式会社ハツカ,,株式会社,東京都,武蔵野市,境１丁目２番２２－１４０６号,,13,203,1800022,,,,,,,2025-11-04,1,,,,,ハツカ,0
63,1012403007438,新規,0,2025-11-04,2025-11-04,合同会社Ｍｅｒｃｙ,,合同会社,東京都,多摩市,豊ヶ丘２丁目２６番地の２,,13,224,2060031,,,,,,,2025-11-04,1,,,,,メルシー,0
76,1020001165203,新規,0,2025-11-04,2025-11-04,株式会社ＷａｒｍＳｔａｇｅ,,株式会社,神奈川県,横浜市神奈川区,三枚町５８１番地８サントレス横浜Ｄ棟２０１号,,14,102,2210862,,,,,,,2025-11-04,1,,,,,ウォームステージ,0
77,1020001165533,新規,0,2025-11-04,2025-11-04,株式会社Ｔ’Ｓ,,株式会社,神奈川県,横浜市港北区,篠原町２７５５番地,,14,109,2220026,,,,,,,2025-11-04,1,,,,,ティーズ,0
80,1020003029728,新規,0,2025-11-04,2025-11-04,Ｋ５パートナーズ合同会社,,合同会社,神奈川県,横浜市西区,北幸２丁目１０番４８号むつみビル３階,,14,103,2200004,,,,,,,2025-11-04,1,,,,,ケーファイブパートナーズ,0
82,1021001086736,新規,0,2025-11-04,2025-11-04,株式会社Ｒｅ．隼,,株式会社,神奈川県,相模原市中央区,相模原５丁目１番２０号,,14,152,2520231,,,,,,,2025-11-04,1,,,,,リハヤブサ,0
88,1030001169319,新規,0,2025-11-04,2025-11-04,株式会社ＫＤホールディングス,,株式会社,埼玉県,春日部市,中央１丁目１４番地１２第３ＡＺビル２Ｆ,,11,214,3440067,,,,,,,2025-11-04,1,,,,,ケーディーホールディングス,0
89,1030001169442,新規,0,2025-11-04,2025-11-04,高橋工業株式会社,00141357,株式会社,埼玉県,新座市,野火止１丁目７番３９号,,11,230,3520011,,,,,,,2025-11-04,1,,,,,タカハシコウギョウ,0
90,1030001169491,新規,0,2025-11-04,2025-11-04,株式会社コーナーストーン,,株式会社,埼玉県,所沢市,大字山口７６２番地の３０,,11,208,3591145,,,,,,,2025-11-04,1,,,,,コーナーストーン,0
92,1030003027953,新規,0,2025-11-04,2025-11-04,春秋合同会社,,合同会社,埼玉県,川越市,大字砂１０７１番地３０,,11,201,3501133,,,,,,,2025-11-04,1,,,,,シュンジュウ,0
100,1040001141227,新規,0,2025-11-04,2025-11-04,株式会社ユーアイリンクス,,株式会社,千葉県,柏市,若柴１７８番地４柏の葉キャンパス１４８街区１パークシティ柏の葉キャンパスザ・ゲートタワーウェスト３階Ｖ１５４,00141366,12,217,2770871,,,,,,,2025-11-04,1,,,,,ユーアイリンクス,0
104,1040003028918,新規,0,2025-11-04,2025-11-04,合同会社ＬＩＭＮ,,合同会社,千葉県,流山市,駒木５８１番地の３,,12,220,2700132,,,,,,,2025-11-04,1,,,,,リムン,0
105,1040005022919,新規,0,2025-11-04,2025-11-04,医療法人社団向歯会,,その他の設立登記法人,千葉県,柏市,豊四季４９４番１３４,,12,217,2770863,,,,,,,2025-11-04,1,,,,,コウシカイ,0
106,1040005022927,新規,0,2025-11-04,2025-11-04,ＮＰＯ法人Ｔｅａｍ　Ｒｅｌａｔｉｏｎ,,その他の設立登記法人,千葉県,千葉市中央区,蘇我２丁目２５番１４号,,12,101,2600822,,,,,,,2025-11-04,1,,,,,チームリレーション,0
115,1070001043511,新規,0,2025-11-04,2025-11-04,株式会社Ｂｅｎｔｅｎ,,株式会社,群馬県,高崎市,八島町８２番地１１レジデンス高崎４０６号,,10,202,3700849,,,,,,,2025-11-04,1,,,,,ベンテン,0
142,1120001281634,新規,0,2025-11-04,2025-11-04,株式会社ワイズネクスト,,株式会社,大阪府,大阪市港区,八幡屋３丁目９番１８号,,27,107,5520014,,,,,,,2025-11-04,1,,,,,ワイズネクスト,0
143,1120001281642,新規,0,2025-11-04,2025-11-04,株式会社ＲＥＹ,,株式会社,大阪府,大阪市平野区,西脇３丁目７番８号,,27,126,5470035,,,,,,,2025-11-04,1,,,,,レイ,0
144,1120001281667,新規,0,2025-11-04,2025-11-04,株式会社ギミッククロージングジャパン,,株式会社,大阪府,大阪市中央区,上町１丁目１０番１５号,,27,128,5400005,,,,,,,2025-11-04,1,,,,,ギミッククロージングジャパン,0
150,1120903005925,新規,0,2025-11-04,2025-11-04,合同会社Ｈｗｙｌ,,合同会社,大阪府,箕面市,彩都粟生南２丁目６番３０号（１０５号）,,27,220,5620028,,,,,,,2025-11-04,1,,,,,ヒュイル,0
151,1120905006806,新規,0,2025-11-04,2025-11-04,一般社団法人あーりーすぷりんぐ,,その他の設立登記法人,大阪府,三島郡島本町,水無瀬１丁目２１番１－６０２号,,27,301,6180014,,,,,,,2025-11-04,1,,,,,,0
157,1130003010908,新規,0,2025-11-04,2025-11-04,Ｉｍｍｏｂｉｌｉｅｎ合同会社,,合同会社,京都府,京都市山科区,勧修寺福岡町２６７番地２,,26,110,6078232,,,,,,,2025-11-04,1,,,,,インモビリエン,0
158,1130005017496,新規,0,2025-11-04,2025-11-04,特定非営利活動法人Ｃｌｏｖｅｒ,,その他の設立登記法人,京都府,京都市中京区,西ノ京勧学院町２７番地１７,,26,104,6048413,,,,,,,2025-11-04,1,,,,,クローバー,0
159,1130005017505,新規,0,2025-11-04,2025-11-04,一般社団法人山なみ制作社,,その他の設立登記法人,京都府,京都市左京区,大原野村町４３８番地２,,26,103,6011247,,,,,,,2025-11-04,1,,,,,ヤマナミセイサクシャ,0
165,1140001140607,新規,0,2025-11-04,2025-11-04,株式会社ＴＡＫＥＳＴＹＬＥ,,株式会社,兵庫県,神戸市中央区,下山手通８丁目１５番２１号,,28,110,6500011,,,,,,,2025-11-04,1,,,,,テイクスタイル,0
174,1160005011463,新規,0,2025-11-04,2025-11-04,医療法人いろは会,,その他の設立登記法人,滋賀県,守山市,大門町１１１番地１,,25,207,5240052,,,,,,,2025-11-04,1,,,,,イロハカイ,0
197,1190001032659,新規,0,2025-11-04,2025-11-04,株式会社池田グループ,,株式会社,三重県,津市,広明町１１２番地の５,,24,201,5140006,,,,,,,2025-11-04,1,,,,,イケダグループ,0
207,1210001020371,新規,0,2025-11-04,2025-11-04,株式会社Ｃｉｒｃｌｅ　Ｈｕｂ,,株式会社,福井県,福井市,宝永２丁目９番１９号２,,18,201,9100004,,,,,,,2025-11-04,1,,,,,サークルハブ,0
208,1220005009014,新規,0,2025-11-04,2025-11-04,一般社団法人ねことひとｃｏｎｎｅｃｔｉｎｇ　ｃａｔ＆ｈｕｍａｎ,,その他の設立登記法人,石川県,金沢市,尾張町１丁目９番２２号,,17,201,9200902,,,,,,,2025-11-04,1,,,,,ネコトヒトコネクティングキャットアンドヒューマン,0
209,1240001065711,新規,0,2025-11-04,2025-11-04,株式会社匠屋,,株式会社,広島県,広島市安佐南区,川内６丁目１８番５号,,34,105,7310102,,,,,,,2025-11-04,1,,,,,ショウヤ,0
213,1280001009540,新規,0,2025-11-04,2025-11-04,永島青果株式会社,,株式会社,島根県,江津市,都野津町２３０７番地１８,,32,207,6950021,,,,,,,2025-11-04,1,,,,,ナガシマセイカ,0
220,1290001111865,新規,0,2025-11-04,2025-11-04,株式会社Ｙａｓｈｉｎ,,株式会社,福岡県,福岡市博多区,博多駅前１丁目２３番２号,,40,132,8120011,,,,,,,2025-11-04,1,,,,,ヤシン,0
221,1290001111956,新規,0,2025-11-04,2025-11-04,株式会社ＡＧＬ,,株式会社,福岡県,福岡市中央区,赤坂１丁目１１番１７号赤坂ウイングアネックス４階,,40,133,8100042,,,,,,,2025-11-04,1,,,,,エージーエル,0
224,1290003017631,新規,0,2025-11-04,2025-11-04,合同会社ＴＫＨ,,合同会社,福岡県,福岡市城南区,茶山２丁目２０番７号,,40,136,8140111,,,,,,,2025-11-04,1,,,,,ティーケーエイチ,0
225,1290003017648,新規,0,2025-11-04,2025-11-04,合同会社Ｉ,,合同会社,福岡県,福岡市博多区,博多駅前２丁目１２－１６ムーンリバー博多駅前２Ｆ,,40,132,8120011,,,,,,,2025-11-04,1,,,,,アイ,0
226,1290003017656,新規,0,2025-11-04,2025-11-04,ＹＳ建物管理合同会社,,合同会社,福岡県,福岡市博多区,博多駅前１丁目２３番２号ＰａｒｋＦｒｏｎｔ博多駅前１丁目５Ｆ－Ｂ,,40,132,8120011,,,,,,,2025-11-04,1,,,,,ワイエスタテモノカンリ,0
232,1320003004816,新規,0,2025-11-04,2025-11-04,ＨＭＥ　Ｎｅｘｕｓ合同会社,,合同会社,大分県,大分市,上野丘２丁目８番２３－３号,,44,201,8700835,,,,,,,2025-11-04,1,,,,,エイチエムイーネクサス,0
234,1330001033709,新規,0,2025-11-04,2025-11-04,田尻塗装工業株式会社,,株式会社,熊本県,熊本市北区,池田３丁目５番１８－Ｂ１０１号,,43,105,8600082,,,,,,,2025-11-04,1,,,,,タジリトソウコウギョウ,0
235,1330001033725,新規,0,2025-11-04,2025-11-04,株式会社ｙａｍａｔｏ,,株式会社,熊本県,玉名市,中１８３６番地６,,43,206,8650064,,,,,,,2025-11-04,1,,,,,ヤマト,0
236,1330003011290,新規,0,2025-11-04,2025-11-04,合同会社つながるアグリ,,合同会社,熊本県,熊本市中央区,新屋敷３丁目７番９－２Ｅｓｃａｚａ新屋敷１０１号,,43,101,8620975,,,,,,,2025-11-04,1,,,,,ツナガルアグリ,0
239,1380001035675,新規,0,2025-11-04,2025-11-04,株式会社紺野会計,,株式会社,福島県,福島市,八島田字琵琶渕４３番地,,07,201,9608056,,,,,,,2025-11-04,1,,,,,コンノカイケイ,0
242,1390003002458,新規,0,2025-11-04,2025-11-04,合同会社吉田商店,,合同会社,山形県,東置賜郡高畠町,大字一本柳９３番地,,06,381,9920334,,,,,,,2025-11-04,1,,,,,,0
243,1400005008526,新規,0,2025-11-04,2025-11-04,一般社団法人大船渡・森の再生,,その他の設立登記法人,岩手県,大船渡市,三陸町綾里字大明神６０番地１の２,,03,203,0220211,,,,,,,2025-11-04,1,,,,,オオフナトモリノサイセイ,0
245,1410001014312,新規,0,2025-11-04,2025-11-04,加賀屋工業株式会社,,株式会社,秋田県,秋田市,新屋南浜町１番２２号,,05,201,0101607,,,,,,,2025-11-04,1,,,,,カガヤコウギョウ,0
251,1430001095540,新規,0,2025-11-04,2025-11-04,株式会社サングリンホールディングス,,株式会社,北海道,札幌市白石区,流通センター６丁目１番１８号,,01,104,0030030,,,,,,,2025-11-04,1,,,,,サングリンホールディングス,0
255,1700150132760,新規,0,2025-11-04,2025-11-04,Ｓａｎｄｂｏｘ　Ｉｎｔｅｒａｃｔｉｖｅ　ＧｍｂＨ,,外国会社等,,,,,,,,Ｂｏｒｎｈｏｌｍｅｒ　Ｓｔｒａｓｓｅ　７１，１０４３９　Ｂｅｒｌｉｎ，Ｇｅｒｍａｎｙ,,,,,,2025-11-04,1,,,,,サンドボツクスインタラクテイブゲーエムベーハー,0
256,1700150132819,新規,0,2025-11-04,2025-11-04,ＦＩＢＯＮ　ＤＯＵＢＬＥ　ＯＮＥ　ＰＴＹ　ＬＴＤ,,外国会社等,神奈川県,川崎市麻生区,多摩美１丁目１９－２２,,14,137,2150002,ＦＬＩＮＤＥＲＳ　ＡＣＣＯＵＮＴＡＮＴＳ　ＬＥＶＥＬ　２，１７９　ＳＴ　ＧＥＯＲＧＥＳ　ＴＥＲＲＡＣＥ　ＰＥＲＴＨ　ＷＡ　６０００　Ａｕｓｔｒａｌｉａ,,,,,,2025-11-04,1,,,,,フイボンダブルワンリミテツド,0
272,2010001259814,新規,0,2025-11-04,2025-11-04,株式会社ＹＡＭＡＳＴＲＯ,,株式会社,東京都,千代田区,神田和泉町１番地６－１６ヤマトビル４０５,,13,101,1010024,,,,,,,2025-11-04,1,,,,,ヤマストロ,0
273,2010001259822,新規,0,2025-11-04,2025-11-04,上岡製薬株式会社,,株式会社,東京都,文京区,千石４丁目１４番９号,,13,105,1120011,,,,,,,2025-11-04,1,,,,,カミオカ,0
274,2010001259855,新規,0,2025-11-04,2025-11-04,ケーエス薬品株式会社,,株式会社,東京都,千代田区,岩本町２丁目１０番１号ＳＨＩＭＡＤＡビル５階,,13,101,1010032,,,,,,,2025-11-04,1,,,,,ケーエスヤクヒン,0
275,2010001259863,新規,0,2025-11-04,2025-11-04,未来リアルティ株式会社,,株式会社,東京都,千代田区,岩本町１丁目１３番５号ＴＲＵＳＴＶＡＬＵＥ岩本町３階,,13,101,1010032,,,,,,,2025-11-04,1,,,,,ミライリアルティ,0
276,2010001259954,新規,0,2025-11-04,2025-11-04,ＪＰｉＸ６号株式会社,,株式会社,東京都,千代田区,丸の内１丁目９番２号グラントウキョウサウスタワー８階,,13,101,1000005,,,,,,,2025-11-04,1,,,,,ジェイピックスロクゴウ,0
279,2010003049131,新規,0,2025-11-04,2025-11-04,淵キャピタル合同会社,,合同会社,東京都,中央区,勝どき６丁目３番１－１８１０号,,13,102,1040054,,,,,,,2025-11-04,1,,,,,,0
280,2010003049263,新規,0,2025-11-04,2025-11-04,スプーンフルズ合同会社,,合同会社,東京都,中央区,晴海５丁目５－７Ｔ１６０７,,13,102,1040053,,,,,,,2025-11-04,1,,,,,スプーンフルズ,0
281,2010003049271,新規,0,2025-11-04,2025-11-04,ＧＣＰ５合同会社,,合同会社,東京都,千代田区,丸の内１丁目１１番１号,,13,101,1000005,,,,,,,2025-11-04,1,,,,,ジーシーピーファイブ,0
292,2010401194256,新規,0,2025-11-04,2025-11-04,株式会社テラホールディングス,,株式会社,東京都,港区,北青山１丁目３番１号アールキューブ青山３階,,13,103,1070061,,,,,,,2025-11-04,1,,,,,テラホールディングス,0
294,2010403036506,新規,0,2025-11-04,2025-11-04,キキョウ１５合同会社,,合同会社,東京都,港区,西新橋１丁目２番９号メンターキャピタル税理士法人内,,13,103,1050003,,,,,,,2025-11-04,1,,,,,キキョウフィフティーン,0
309,2010803005597,新規,0,2025-11-04,2025-11-04,合同会社アドリクス,,合同会社,東京都,大田区,大森南２丁目２５番６－５０８号,,13,111,1430013,,,,,,,2025-11-04,1,,,,,アドリクス,0
315,2011001173261,新規,0,2025-11-04,2025-11-04,株式会社ファーストエッジ,,株式会社,東京都,渋谷区,代々木１丁目２５－５ＢＩＺ－ＳＭＡＲＴ代々木,,13,113,1510053,,,,,,,2025-11-04,1,,,,,ファーストエッジ,0
317,2011003022895,新規,0,2025-11-04,2025-11-04,合同会社ＫＭ,,合同会社,東京都,渋谷区,道玄坂１丁目１０番８号渋谷道玄坂東急ビル２Ｆ―Ｃ,,13,113,1500043,,,,,,,2025-11-04,1,,,,,ケイエム,0
319,2011005011228,新規,0,2025-11-04,2025-11-04,一般社団法人ＳＡＮ,,その他の設立登記法人,東京都,渋谷区,渋谷４丁目２－２２－４０２,,13,113,1500002,,,,,,,2025-11-04,1,,,,,サン,0
326,2011101113720,新規,0,2025-11-04,2025-11-04,Ｋｎｏｔｗｏｒｋｓ株式会社,,株式会社,東京都,新宿区,西新宿６丁目１５番１号セントラルパークタワーラ・トゥール新宿５０５,,13,104,1600023,,,,,,,2025-11-04,1,,,,,ノットワークス,0
327,2011101113778,新規,0,2025-11-04,2025-11-04,株式会社ＢＩＧ　ＦＬＡＴ　ＣＲＥＡＴＩＯＮ,,株式会社,東京都,新宿区,西新宿３丁目３番１３号西新宿水間ビル２Ｆ,,13,104,1600023,,,,,,,2025-11-04,1,,,,,ビッグフラットクリエイション,0
328,2011103016624,新規,0,2025-11-04,2025-11-04,合同会社ＦＵＴＵＲＥ　Ｘ,,合同会社,東京都,新宿区,西早稲田１丁目２３番１６－１９０１号,,13,104,1690051,,,,,,,2025-11-04,1,,,,,ヒューチャーエックス,0
341,2012801024331,新規,0,2025-11-04,2025-11-04,８パートナー株式会社,,株式会社,東京都,立川市,高松町１丁目２２番８号,,13,202,1900011,,,,,,,2025-11-04,1,,,,,エイトパートナー,0
348,2020001165648,新規,0,2025-11-04,2025-11-04,株式会社ＺＡＵＬＩＮ,,株式会社,神奈川県,川崎市中原区,小杉町２丁目２７６番地１Ｅ５３０９,,14,133,2110063,,,,,,,2025-11-04,1,,,,,ザウリン,0
354,2021001086735,新規,0,2025-11-04,2025-11-04,株式会社こむすび,,株式会社,神奈川県,三浦郡葉山町,下山口１９３６番地,,14,301,2400116,,,,,,,2025-11-04,1,,,,,コムスビ,0
364,2030001169482,新規,0,2025-11-04,2025-11-04,株式会社オータムラック,,株式会社,埼玉県,越谷市,登戸町３４番８号,,11,222,3430846,,,,,,,2025-11-04,1,,,,,オータムラック,0
365,2030001169490,新規,0,2025-11-04,2025-11-04,株式会社十七庵,,株式会社,埼玉県,桶川市,泉１丁目９番６号,,11,231,3630021,,,,,,,2025-11-04,1,,,,,ジュウナナアン,0
366,2030001169508,新規,0,2025-11-04,2025-11-04,株式会社ＪＶＢ　Ｇａｒａｇｅ,,株式会社,埼玉県,鴻巣市,笠原９６０番地２・２Ｆ,,11,217,3650023,,,,,,,2025-11-04,1,,,,,ジェイヴィビーガレージ,0
367,2030001169516,新規,0,2025-11-04,2025-11-04,瀛成食販株式会社,00141354,株式会社,埼玉県,越谷市,七左町４丁目８２,,11,222,3430851,,,,,,,2025-11-04,1,,,,,エイセイショクハン,0
389,2040005022918,新規,0,2025-11-04,2025-11-04,医療法人社団ベリススキンクリニック,,その他の設立登記法人,千葉県,柏市,柏１丁目１番１１号柏駅前第一ビル３階３－１号,,12,217,2770005,,,,,,,2025-11-04,1,,,,,ベリススキンクリニック,0
394,2050001057520,新規,0,2025-11-04,2025-11-04,ユウクニ株式会社,,株式会社,茨城県,常総市,菅生町字上野４４３６番地１,,08,211,3030044,,,,,,,2025-11-04,1,,,,,ユウクニ,0
400,2070001043510,新規,0,2025-11-04,2025-11-04,株式会社スダマネジメント,,株式会社,群馬県,前橋市,富士見町石井８７０番地,,10,201,3710105,,,,,,,2025-11-04,1,,,,,スダマネジメント,0
404,2070005010440,新規,0,2025-11-04,2025-11-04,行政書士法人スピカ,,その他の設立登記法人,群馬県,高崎市,中泉町６２９番地８,,10,202,3703524,,,,,,,2025-11-04,1,,,,,スピカ,0
418,2120001281633,新規,0,2025-11-04,2025-11-04,株式会社Ｂｉｎｇｏ,,株式会社,大阪府,大阪市中央区,南久宝寺町１丁目９番２号南久宝寺ビル５Ｆ,,27,128,5410058,,,,,,,2025-11-04,1,,,,,ビンゴ,0
419,2120001281666,新規,0,2025-11-04,2025-11-04,株式会社サンライズ大国,,株式会社,大阪府,大阪市港区,弁天４丁目１１番２０号オークＴＡＫＥＤＡ９階,,27,107,5520007,,,,,,,2025-11-04,1,,,,,サンライズダイコク,0
420,2120003031144,新規,0,2025-11-04,2025-11-04,合同会社ＬＣＢ,,合同会社,大阪府,大阪市北区,茶屋町１７番１号,,27,127,5300013,,,,,,,2025-11-04,1,,,,,エルシービー,0
422,2120101072718,新規,0,2025-11-04,2025-11-04,二喜商事株式会社,,株式会社,大阪府,堺市北区,常磐町３丁２１－８,,27,146,5918001,,,,,,,2025-11-04,1,,,,,ニキショウジ,0
423,2120901051730,新規,0,2025-11-04,2025-11-04,株式会社Ｒｅ‐Ｓｕｒｆａｃｅ,,株式会社,大阪府,豊中市,庄内栄町１丁目１９番５号,,27,203,5610834,,,,,,,2025-11-04,1,,,,,リサーフェス,0
425,2120903005916,新規,0,2025-11-04,2025-11-04,合同会社ＭＥＮ’Ｓ　ＦＬＥＸ,,合同会社,大阪府,吹田市,垂水町３丁目１６番３９号２Ｆ,,27,205,5640062,,,,,,,2025-11-04,1,,,,,メンズフレックス,0
436,2140001140597,新規,0,2025-11-04,2025-11-04,ｍａｕ株式会社,,株式会社,兵庫県,西宮市,青木町９番９号,,28,204,6620862,,,,,,,2025-11-04,1,,,,,マウ,0
437,2140001140606,新規,0,2025-11-04,2025-11-04,株式会社ＹＫ　Ｂａｓｅ,,株式会社,兵庫県,神戸市長田区,長楽町２丁目２番１４号,,28,106,6530054,,,,,,,2025-11-04,1,,,,,ワイケーベース,0
438,2140001140622,新規,0,2025-11-04,2025-11-04,Ｔ＆Ｅカンパニー株式会社,,株式会社,兵庫県,神戸市中央区,旭通４丁目１番３－２００５号,,28,110,6510095,,,,,,,2025-11-04,1,,,,,ティアンドイーカンパニー,0
439,2140001140630,新規,0,2025-11-04,2025-11-04,株式会社Ｎ警備保障,,株式会社,兵庫県,姫路市,白浜町甲２１０番地３,,28,201,6728023,,,,,,,2025-11-04,1,,,,,エヌケイビホショウ,0
442,2140005027683,新規,0,2025-11-04,2025-11-04,一般社団法人日本オルガン建造者協会,,その他の設立登記法人,兵庫県,西宮市,下葭原町１番３２－１０５号,,28,204,6620956,,,,,,,2025-11-04,1,,,,,ニホンオルガンケンゾウシャキョウカイ,0
452,2180001169360,新規,0,2025-11-04,2025-11-04,株式会社ウルトラＧホールディングス,,株式会社,愛知県,一宮市,緑４丁目１０番２５号,,23,203,4910862,,,,,,,2025-11-04,1,,,,,ウルトラジーホールディングス,0
483,2200001044387,新規,0,2025-11-04,2025-11-04,早川フィールズ株式会社,,株式会社,岐阜県,岐阜市,秋沢２２０番地,,21,201,5011182,,,,,,,2025-11-04,1,,,,,ハヤカワフィールズ,0
492,2230003002530,新規,0,2025-11-04,2025-11-04,合同会社Ａｓｏｂ,,合同会社,富山県,富山市,八尾町奥田１３４,,16,201,9392362,,,,,,,2025-11-04,1,,,,,アソブ,0
498,2260001040694,新規,0,2025-11-04,2025-11-04,ＤｉｏＲｉｓｅ株式会社,,株式会社,岡山県,岡山市北区,下石井１丁目１番１７号アクロスキューブビル２Ｆ,,33,101,7000907,,,,,,,2025-11-04,1,,,,,ディオライズ,0
505,2290001111939,新規,0,2025-11-04,2025-11-04,結研株式会社,,株式会社,福岡県,糟屋郡新宮町,美咲３丁目１－１新宮ＣｏＣｏスクエア,,40,345,8110121,,,,,,,2025-11-04,1,,,,,ユイケン,0
506,2290001111996,新規,0,2025-11-04,2025-11-04,沢＿株式会社,00141371,株式会社,福岡県,福岡市東区,香椎照葉４丁目４番２０－１３０３号パークフロント香椎照葉ＷＥＳＴ,,40,131,8130017,,,,,,,2025-11-04,1,,,,,サワギョク,0
507,2290001112004,新規,0,2025-11-04,2025-11-04,株式会社寿賀や,,株式会社,福岡県,福岡市博多区,上川端町１－１１,,40,132,8120026,,,,,,,2025-11-04,1,,,,,スガヤ,0
508,2290001112020,新規,0,2025-11-04,2025-11-04,株式会社カルボーシステム,,株式会社,福岡県,福岡市博多区,東光２丁目１番１３号,,40,132,8120008,,,,,,,2025-11-04,1,,,,,カルボーシステム,0
509,2290001112053,新規,0,2025-11-04,2025-11-04,株式会社ジェイプラス,,株式会社,福岡県,福岡市中央区,笹丘２丁目２４番３２号,,40,133,8100034,,,,,,,2025-11-04,1,,,,,ジェイプラス,0
512,2290003017655,新規,0,2025-11-04,2025-11-04,合同会社ミライの商事,,合同会社,福岡県,久留米市,津福今町５５３－１３,,40,203,8300061,,,,,,,2025-11-04,1,,,,,ミライノショウジ,0
514,2310003005120,新規,0,2025-11-04,2025-11-04,旅の和合同会社,,合同会社,長崎県,佐世保市,保立町５番１号,,42,202,8570031,,,,,,,2025-11-04,1,,,,,タビノワ,0
516,2320003004815,新規,0,2025-11-04,2025-11-04,合同会社ＢＵＣＨＩ,,合同会社,大分県,大分市,大字駄原２０８７番地の５５,,44,201,8700100,,,,,,,2025-11-04,1,,,,,ブチ,0
532,2390003002457,新規,0,2025-11-04,2025-11-04,合同会社ＮＥサービス,,合同会社,山形県,東置賜郡高畠町,大字下和田１０３０,,06,381,9920263,,,,,,,2025-11-04,1,,,,,,0
533,2400001017224,新規,0,2025-11-04,2025-11-04,株式会社葵楓,,株式会社,岩手県,陸前高田市,高田町字中和野５番地,,03,210,0292205,,,,,,,2025-11-04,1,,,,,アオカ,0
545,2430001095580,新規,0,2025-11-04,2025-11-04,株式会社ミッションクルー,,株式会社,北海道,札幌市中央区,大通東１１丁目２２－３２－４０１,,01,101,0600041,,,,,,,2025-11-04,1,,,,,ミッションクルー,0
553,2430003018291,新規,0,2025-11-04,2025-11-04,合同会社こたつ,,合同会社,北海道,札幌市中央区,南五条西１５丁目２番３－５０３号,,01,101,0640805,,,,,,,2025-11-04,1,,,,,コタツ,0
563,2700150132818,新規,0,2025-11-04,2025-11-04,寶群有限公司,,外国会社等,,,,,,,,中華人民共和国香港特別行政区尖沙咀チャタムロードサウス８７－１０５百利商業センター７階７２８室,,,,,,2025-11-04,1,,,,,ホウグンユウゲンコウシ,0
577,3010001259788,新規,0,2025-11-04,2025-11-04,株式会社ＡＩ‐Ｐａｔｈ,,株式会社,東京都,中央区,銀座６丁目１０番１,,13,102,1040061,,,,,,,2025-11-04,1,,,,,アイパス,0
578,3010001259805,新規,0,2025-11-04,2025-11-04,株式会社Ａｒｅｅｅｎｒ　Ｊａｐａｎ,,株式会社,東京都,千代田区,神田小川町３丁目１１－６Ｆ,,13,101,1010052,,,,,,,2025-11-04,1,,,,,アイリエヌアール,0
579,3010001259929,新規,0,2025-11-04,2025-11-04,株式会社ＡＫ,,株式会社,東京都,中央区,銀座２丁目１４番５号ＴＷＧ銀座イースト７Ｆ,,13,102,1040061,,,,,,,2025-11-04,1,,,,,エーケー,0
580,3010001259937,新規,0,2025-11-04,2025-11-04,ＥＬＡＣ　Ｊａｐａｎ株式会社,,株式会社,東京都,千代田区,四番町９番地１０パークコート四番町１１０３号,,13,101,1020081,,,,,,,2025-11-04,1,,,,,エラックジャパン,0
589,3010003049279,新規,0,2025-11-04,2025-11-04,ＩＮＦ蓄電所４号合同会社,,合同会社,東京都,千代田区,富士見２丁目１０番２号,,13,101,1020071,,,,,,,2025-11-04,1,,,,,アイエヌエフチクデンショヨンゴウ,0
600,3010401194107,新規,0,2025-11-04,2025-11-04,ＢＬＵＥ　ＲＩＳＩＮＧ株式会社,,株式会社,東京都,港区,三田１丁目６番３－１７１１号,,13,103,1080073,,,,,,,2025-11-04,1,,,,,ブルーライジング,0
601,3010401194123,新規,0,2025-11-04,2025-11-04,株式会社Ｏ．Ｒ．Ｎ,,株式会社,東京都,港区,六本木４丁目１０番５号地下１階,,13,103,1060032,,,,,,,2025-11-04,1,,,,,オリン,0
602,3010401194255,新規,0,2025-11-04,2025-11-04,日本就職支援センター株式会社,,株式会社,東京都,港区,北青山１丁目３番１号アールキューブ青山３階,,13,103,1070061,,,,,,,2025-11-04,1,,,,,ニホンシュウショクシエンセンター,0
606,3010403036372,新規,0,2025-11-04,2025-11-04,ミオレ合同会社,,合同会社,東京都,港区,三田１丁目３－２４サンウッド三田パークサイドタワー１３０３,,13,103,1080073,,,,,,,2025-11-04,1,,,,,,0
607,3010405024945,新規,0,2025-11-04,2025-11-04,一般社団法人エルインベストメント５,,その他の設立登記法人,東京都,港区,元赤坂１丁目１番７－１２０９号株式会社赤坂国際会計内,,13,103,1070051,,,,,,,2025-11-04,1,,,,,エルインベストメントファイブ,0
612,3010603011869,新規,0,2025-11-04,2025-11-04,ステイグッド合同会社,,合同会社,東京都,江東区,東雲１丁目９－３２－４４０３,,13,108,1350062,,,,,,,2025-11-04,1,,,,,,0
630,3011001173236,新規,0,2025-11-04,2025-11-04,株式会社Ｃｕｒｅｂａｓｅ,,株式会社,東京都,渋谷区,円山町５－３ＭＩＥＵＸ渋谷ビル８階,,13,113,1500044,,,,,,,2025-11-04,1,,,,,キュアベース,0
631,3011001173269,新規,0,2025-11-04,2025-11-04,株式会社ｎｅｕ,,株式会社,東京都,渋谷区,恵比寿西２丁目４番８号ウィンド恵比寿ビル８Ｆ,,13,113,1500021,,,,,,,2025-11-04,1,,,,,ノイ,0
633,3011003022671,新規,0,2025-11-04,2025-11-04,ＧｌｏｗＥｎｇｉｎｅ合同会社,,合同会社,東京都,渋谷区,道玄坂１丁目１０番８号渋谷道玄坂東急ビル２Ｆ－Ｃ,,13,113,1500043,,,,,,,2025-11-04,1,,,,,グロウエンジン,0
636,3011101113793,新規,0,2025-11-04,2025-11-04,株式会社平和,,株式会社,東京都,新宿区,歌舞伎町２丁目２１－６ハタノビル２Ｆ北号室,,13,104,1600021,,,,,,,2025-11-04,1,,,,,ヘイワ,0
637,3011101113810,新規,0,2025-11-04,2025-11-04,Ｌ＆Ｎ株式会社,,株式会社,東京都,新宿区,新宿７丁目２１番４号ＶＩＰ新宿３階２０１号室,,13,104,1600022,,,,,,,2025-11-04,1,,,,,エルアンドエヌ,0
638,3011401027537,新規,0,2025-11-04,2025-11-04,株式会社スリーブリッジホーム,,株式会社,東京都,板橋区,板橋４丁目４１ー１,,13,119,1730004,,,,,,,2025-11-04,1,,,,,スリーブリッジホーム,0
647,3011801047003,新規,0,2025-11-04,2025-11-04,株式会社ＨＭＳＫ,,株式会社,東京都,葛飾区,新小岩４丁目４３番６号,,13,122,1240024,,,,,,,2025-11-04,1,,,,,エイチエムエスケー,0
648,3012305002155,新規,0,2025-11-04,2025-11-04,一般社団法人町田ねこの手,,その他の設立登記法人,東京都,町田市,玉川学園１丁目１３番１４号,,13,209,1940041,,,,,,,2025-11-04,1,,,,,マチダネコノテ,0
649,3012403007436,新規,0,2025-11-04,2025-11-04,合同会社くくる,,合同会社,東京都,三鷹市,北野３丁目２番４８号,,13,204,1810003,,,,,,,2025-11-04,1,,,,,ククル,0
658,3020001165655,新規,0,2025-11-04,2025-11-04,株式会社奏,,株式会社,神奈川県,横浜市鶴見区,矢向３丁目２４番１７号ソノリテ１０１,,14,101,2300001,,,,,,,2025-11-04,1,,,,,カナデ,0
670,3021001086734,新規,0,2025-11-04,2025-11-04,コネクト・サービス株式会社,,株式会社,神奈川県,伊勢原市,高森１０２２番地３高森貸事務所２Ｆ,,14,214,2591114,,,,,,,2025-11-04,1,,,,,コネクトサービス,0
681,3030003027976,新規,0,2025-11-04,2025-11-04,合同会社Ｌｅｇｉｔ　Ｃｏｎｓｕｌｔｉｎｇ,,合同会社,埼玉県,さいたま市南区,四谷３丁目１２番１号ＮＯＣＥ－ＫＵＲＡ－Ｉ－１０１号室,00141373,11,108,3360032,,,,,,,2025-11-04,1,,,,,レジットコンサルティング,0
682,3030003027992,新規,0,2025-11-04,2025-11-04,ＭａｕｎａＶｅｒｔ合同会社,,合同会社,埼玉県,三郷市,新三郷ららシティ２丁目１番２号１８０１,,11,237,3410009,,,,,,,2025-11-04,1,,,,,マウナベール,0
683,3030003028009,新規,0,2025-11-04,2025-11-04,ＴＵＮＡＧＵ　ＰＬＵＳ合同会社,,合同会社,埼玉県,川越市,むさし野２９－５,,11,201,3501170,,,,,,,2025-11-04,1,,,,,ツナグプラス,0
692,3040001141209,新規,0,2025-11-04,2025-11-04,株式会社Ｃｅｎｔｅｒ　Ｖｉｌｌａｇｅ,,株式会社,千葉県,習志野市,谷津１丁目１７番７三愛谷津ビル１階,,12,216,2750026,,,,,,,2025-11-04,1,,,,,センターヴィレッジ,0
693,3040001141217,新規,0,2025-11-04,2025-11-04,株式会社真希,,株式会社,千葉県,流山市,南流山６丁目９番１０号,,12,220,2700163,,,,,,,2025-11-04,1,,,,,マキ,0
698,3040003028908,新規,0,2025-11-04,2025-11-04,合同会社ＭＩＴプランニング,,合同会社,千葉県,船橋市,印内１丁目９番コープ西船橋２－４０８,,12,204,2730039,,,,,,,2025-11-04,1,,,,,エムアイティプランニング,0
699,3040005022909,新規,0,2025-11-04,2025-11-04,医療法人社団豊愛会,,その他の設立登記法人,千葉県,流山市,南流山１丁目１５番地の７インプラントセンタービル３Ｆ,,12,220,2700163,,,,,,,2025-11-04,1,,,,,ホウアイカイ,0
700,3040005022925,新規,0,2025-11-04,2025-11-04,一般社団法人山のココロの相談所,,その他の設立登記法人,千葉県,佐倉市,ユーカリが丘３丁目１２番１号,,12,212,2850858,,,,,,,2025-11-04,1,,,,,ヤマノココロノソウダンジョ,0
705,3050005013725,新規,0,2025-11-04,2025-11-04,一般財団法人茨城自然科学振興財団,,その他の設立登記法人,茨城県,坂東市,大崎７００番地,,08,228,3060622,,,,,,,2025-11-04,1,,,,,イバラキシゼンカガクシンコウザイダン,0
712,3070001043501,新規,0,2025-11-04,2025-11-04,株式会社峠町,,株式会社,群馬県,渋川市,渋川２１１０番地３４,,10,208,3770008,,,,,,,2025-11-04,1,,,,,トウゲマチ,0
717,3080405007778,新規,0,2025-11-04,2025-11-04,特定非営利活動法人いぇる,,その他の設立登記法人,静岡県,浜松市中央区,馬郡町２０６５番地の１,,22,138,4310203,,,,,,,2025-11-04,1,,,,,イェル,0
731,3120001281632,新規,0,2025-11-04,2025-11-04,株式会社Ｌｉｂｅｒｔｅ,,株式会社,大阪府,枚方市,津田駅前１丁目３８番２１号Ｓ－ＢＡＳＥふたば１０１号室,,27,210,5730125,,,,,,,2025-11-04,1,,,,,リベルテ,0
732,3120001281665,新規,0,2025-11-04,2025-11-04,株式会社彩都,,株式会社,大阪府,大阪市中央区,西心斎橋２丁目１０番３３号１階,,27,128,5420086,,,,,,,2025-11-04,1,,,,,サイト,0
733,3120001281673,新規,0,2025-11-04,2025-11-04,ＪＥＩＬ株式会社,,株式会社,大阪府,大阪市東成区,東小橋３丁目１６番７号,,27,115,5370024,,,,,,,2025-11-04,1,,,,,ジェイル,0
737,3120005025218,新規,0,2025-11-04,2025-11-04,一般社団法人ＮＥＯ経営商工協会,,その他の設立登記法人,大阪府,大阪市北区,梅田１丁目２番２号大阪駅前第２ビル１２－１２,,27,127,5300001,,,,,,,2025-11-04,1,,,,,ネオケイエイショウコウキョウカイ,0
746,3130001080918,新規,0,2025-11-04,2025-11-04,株式会社Ｖｅｒｄｅｌａｂ,,株式会社,京都府,京都市北区,大北山原谷乾町４３－４３,,26,101,6038487,,,,,,,2025-11-04,1,,,,,ヴェルデラボ,0
747,3130001080934,新規,0,2025-11-04,2025-11-04,冷果株式会社,,株式会社,京都府,京都市中京区,松屋町４２－２０２,,26,104,6040831,,,,,,,2025-11-04,1,,,,,レイカ,0
757,3140001140605,新規,0,2025-11-04,2025-11-04,神戸溶材株式会社,,株式会社,兵庫県,神戸市中央区,八幡通１丁目１番１４号７０４号室,,28,110,6510085,,,,,,,2025-11-04,1,,,,,コウベヨウザイ,0
758,3140001140621,新規,0,2025-11-04,2025-11-04,株式会社さつき,,株式会社,兵庫県,三田市,けやき台６丁目２４番地５,,28,219,6691321,,,,,,,2025-11-04,1,,,,,サツキ,0
765,3160001027189,新規,0,2025-11-04,2025-11-04,株式会社ＭＲＹ,,株式会社,滋賀県,湖南市,下田２７４７番地４,,25,211,5203201,,,,,,,2025-11-04,1,,,,,エムアルワイ,0
774,3180001169244,新規,0,2025-11-04,2025-11-04,株式会社Ｐａｌｅｔｔｅ,,株式会社,愛知県,名古屋市中村区,名駅３丁目１３番２８号名駅セブンスタービル３０５,,23,105,4500002,,,,,,,2025-11-04,1,,,,,パレット,0
775,3180001169351,新規,0,2025-11-04,2025-11-04,株式会社ソラリス,,株式会社,愛知県,一宮市,萩原町花井方字柳原１４番地１,,23,203,4910351,,,,,,,2025-11-04,1,,,,,ソラリス,0
776,3180001169368,新規,0,2025-11-04,2025-11-04,Ｓ．ＬＩＮＫ株式会社,,株式会社,愛知県,名古屋市西区,山木１丁目４０番地,,23,104,4520833,,,,,,,2025-11-04,1,,,,,エスリンク,0
786,3200001044386,新規,0,2025-11-04,2025-11-04,株式会社長谷川設備,,株式会社,岐阜県,多治見市,姫町１丁目５８番地の１４,,21,204,5070061,,,,,,,2025-11-04,1,,,,,ハセガワセツビ,0
790,3240001065718,新規,0,2025-11-04,2025-11-04,Ｗａｇｙｕ　Ｇａｔｅ株式会社,,株式会社,広島県,広島市安佐南区,中筋３丁目８番１０号,,34,105,7310122,,,,,,,2025-11-04,1,,,,,ワギュウゲート,0
792,3250001021406,新規,0,2025-11-04,2025-11-04,株式会社ダイス建設,,株式会社,山口県,下関市,大字勝谷８８５番地１オークスＫ・Ａ－１０２号,,35,201,7510801,,,,,,,2025-11-04,1,,,,,ダイスケンセツ,0
796,3260001040702,新規,0,2025-11-04,2025-11-04,Ｒｅｂｏｒｎ．Ｔｅｃ株式会社,,株式会社,岡山県,瀬戸内市,牛窓町牛窓５３５２番地,,33,212,7014302,,,,,,,2025-11-04,1,,,,,リボーンテック,0
797,3260003005406,新規,0,2025-11-04,2025-11-04,合同会社うり,,合同会社,岡山県,和気郡和気町,益原１４１５－２,,33,346,7090452,,,,,,,2025-11-04,1,,,,,ウリ,0
800,3290001111987,新規,0,2025-11-04,2025-11-04,ブライトエナジー九州株式会社,,株式会社,福岡県,福岡市博多区,博多駅前１丁目２３番１号ＰａｒｋＦｒｏｎｔ博多駅前１丁目５Ｆ－Ｂ,,40,132,8120011,,,,,,,2025-11-04,1,,,,,ブライトエナジーキュウシュウ,0
801,3290001112003,新規,0,2025-11-04,2025-11-04,株式会社エイコー,,株式会社,福岡県,飯塚市,弁分５５６番地３０,,40,205,8200088,,,,,,,2025-11-04,1,,,,,,0
806,3320001021423,新規,0,2025-11-04,2025-11-04,株式会社インベステップ,,株式会社,大分県,大分市,王子南町１０番１６－２０３号,,44,201,8700007,,,,,,,2025-11-04,1,,,,,インベステップ,0
807,3320003004814,新規,0,2025-11-04,2025-11-04,合同会社千寿,,合同会社,大分県,大分市,明野東２丁目３３番１７号,,44,201,8700161,,,,,,,2025-11-04,1,,,,,センジュ,0
830,3460103001755,新規,0,2025-11-04,2025-11-04,合同会社ＲＥ　ＳＴＡＲＴ,,合同会社,北海道,帯広市,西十八条南３丁目２０‐１１木村宅阿部寿斗,,01,207,0800028,,,,,,,2025-11-04,1,,,,,リスタート,0
833,3700150132759,新規,0,2025-11-04,2025-11-04,ＤａｙＯｎｅ　Ｄａｔａ　Ｃｅｎｔｅｒｓ　Ｓｉｎｇａｐｏｒｅ　ＩＩＩ　Ｐｔｅ．Ｌｔｄ．,00141351,外国会社等,東京都,港区,虎ノ門３丁目２２番１０－２０１号,,13,103,1050001,１０１　Ｃｅｃｉｌ　Ｓｔｒｅｅｔ，＃１０－０１，Ｔｏｎｇ　Ｅｎｇ　Ｂｕｉｌｄｉｎｇ，Ｓｉｎｇａｐｏｒｅ　０６９５３３,,,,,,2025-11-04,1,,,,,デイワンデータセンターズシンガポールスリーピーテイーイーリミテツド,0
834,3700150132817,新規,0,2025-11-04,2025-11-04,Ｈｏｋｋａｉｄｏ　Ｄｒｅａｍ　Ｈｏｕｓｅ　Ｌｉｍｉｔｅｄ,,外国会社等,,,,,,,,中華人民共和国香港特別行政区ｃｅｎｔｒａｌ，１０ｉｃｅｈｏｕｓｅｓｔｒｅｅｔ，ＮｅｗＨｅｎｒｙＨｏｕｓｅ１２６Ａ,,,,,,2025-11-04,1,,,,,ホツカイドウドリームハウスリミテツド,0
844,4010001259853,新規,0,2025-11-04,2025-11-04,Ｍａｒｅｘ　Ｍａｒｋｅｔｓ　Ｊａｐａｎ株式会社,,株式会社,東京都,千代田区,霞が関３丁目２番６号東京倶楽部ビルディング１１階,,13,101,1000013,,,,,,,2025-11-04,1,,,,,マレックスマーケッツジャパン,0
845,4010001259861,新規,0,2025-11-04,2025-11-04,株式会社ＴｏｍＯｇａｗａ,,株式会社,東京都,千代田区,麹町１丁目８番地ＪＦＮセンター５階,,13,101,1020083,,,,,,,2025-11-04,1,,,,,トムオガワ,0
852,4010401194246,新規,0,2025-11-04,2025-11-04,株式会社ＡＧＳＰＣ４２,,株式会社,東京都,港区,赤坂２丁目２３番１号,,13,103,1070052,,,,,,,2025-11-04,1,,,,,エージーエスピーシーヨンニ,0
853,4010401194254,新規,0,2025-11-04,2025-11-04,株式会社Ｚ　Ｃｒｅａｔｉｖｅ　Ｐａｒｔｎｅｒｓ,,株式会社,東京都,港区,六本木３丁目１６番１２号六本木ＫＳビル５Ｆ,,13,103,1060032,,,,,,,2025-11-04,1,,,,,ゼットクリエイティブパートナーズ,0
856,4010403036479,新規,0,2025-11-04,2025-11-04,ＨＡグローバル合同会社,,合同会社,東京都,港区,浜松町２丁目２番１５号浜松町ダイヤビル２Ｆ,,13,103,1050013,,,,,,,2025-11-04,1,,,,,エイチエイグローバル,0
868,4010701048556,新規,0,2025-11-04,2025-11-04,株式会社ＥＶＡｔｅｃｈ,,株式会社,東京都,品川区,西五反田８丁目２－１３シティインデックス西五反田１３０３号室,,13,109,1410031,,,,,,,2025-11-04,1,,,,,エバテック,0
869,4010703007989,新規,0,2025-11-04,2025-11-04,ｋａｃｅ合同会社,,合同会社,東京都,品川区,上大崎４丁目５番３１号,,13,109,1410021,,,,,,,2025-11-04,1,,,,,ケース,0
870,4010801036741,新規,0,2025-11-04,2025-11-04,株式会社Ｒ．Ｓ．ＩＮＴＥＲＮＡＴＩＯＮＡＬ,,株式会社,東京都,大田区,田園調布南１３番９－７０２号,,13,111,1450076,,,,,,,2025-11-04,1,,,,,アールエスインターナショナル,0
877,4011001173474,新規,0,2025-11-04,2025-11-04,ＤＦＬＴ株式会社,,株式会社,東京都,渋谷区,神南１丁目１１番４号ＦＰＧリンクス神南５階,,13,113,1500041,,,,,,,2025-11-04,1,,,,,ディーエフエルティー,0
880,4011101113669,新規,0,2025-11-04,2025-11-04,リサーチジャパン株式会社,,株式会社,東京都,新宿区,西新宿３丁目３番１３号西新宿水間ビル２階,,13,104,1600023,,,,,,,2025-11-04,1,,,,,リサーチジャパン,0
883,4011105011654,新規,0,2025-11-04,2025-11-04,一般社団法人ひたち野うしく流動化研究会,,その他の設立登記法人,東京都,新宿区,四谷２丁目９番地１５東京ユナイテッド綜合事務所内,,13,104,1600004,,,,,,,2025-11-04,1,,,,,ヒタチノウシクリュウドウカケンキュウカイ,0
889,4012401043770,新規,0,2025-11-04,2025-11-04,株式会社Ｍａｓａ,,株式会社,東京都,府中市,宮町１丁目２４番地の１１ＰＵＲＥＣＯＵＲＴ７０２,,13,206,1830023,,,,,,,2025-11-04,1,,,,,マーサ,0
891,4012803003918,新規,0,2025-11-04,2025-11-04,ルミノア合同会社,,合同会社,東京都,立川市,富士見町１丁目９番７号ビバーチェ富士見２０５号,,13,202,1900013,,,,,,,2025-11-04,1,,,,,ルミノア,0
892,4013103001505,新規,0,2025-11-04,2025-11-04,Ｒｅ．ＢＬＡＣＫ不動産合同会社,,合同会社,東京都,福生市,本町１１８番地１ラルーチェ３０２号室,,13,218,1970022,,,,,,,2025-11-04,1,,,,,リブラックフドウサン,0
902,4020001165679,新規,0,2025-11-04,2025-11-04,ＡＯＤＥＯＮ株式会社,,株式会社,神奈川県,横浜市西区,浅間町１丁目４番３号ウィザードビル４０２,,14,103,2200072,,,,,,,2025-11-04,1,,,,,アオディオン,0
908,4020003029733,新規,0,2025-11-04,2025-11-04,Ａｕｒｅａｒｃ合同会社,,合同会社,神奈川県,横浜市中区,若葉町２丁目２０－１デュオステージ横濱伊勢佐木１００１,,14,104,2310056,,,,,,,2025-11-04,1,,,,,オーリアーク,0
909,4020005017018,新規,0,2025-11-04,2025-11-04,協同組合ウインリンク,,その他の設立登記法人,神奈川県,川崎市川崎区,南町２２番６ライオンズマンション川崎第３－８１５号室,,14,131,2100015,,,,,,,2025-11-04,1,,,,,ウインリンク,0
924,4030001169497,新規,0,2025-11-04,2025-11-04,株式会社ＩＣＨＩＫＡ,,株式会社,埼玉県,さいたま市南区,辻１丁目２６番５号,00141372,11,108,3360026,,,,,,,2025-11-04,1,,,,,イチカ,0
927,4030003027983,新規,0,2025-11-04,2025-11-04,合同会社Ａｚｕｒｅ,,合同会社,埼玉県,蕨市,塚越３丁目１３番１１号,,11,223,3350002,,,,,,,2025-11-04,1,,,,,アズール,0
936,4040001141240,新規,0,2025-11-04,2025-11-04,株式会社Ｌａｕｎａ,,株式会社,千葉県,千葉市中央区,浜野町二丁目２,,12,101,2600824,,,,,,,2025-11-04,1,,,,,ラウナ,0
940,4040003028907,新規,0,2025-11-04,2025-11-04,合同会社Ｓｕｓｔａｉｎａ　Ｌｉｎｋ,,合同会社,千葉県,千葉市緑区,おゆみ野中央７丁目８－４ドネモンターニュ２０３,,12,105,2660032,,,,,,,2025-11-04,1,,,,,サステナリンク,0
941,4040005022932,新規,0,2025-11-04,2025-11-04,医療法人社団リーヴォン,,その他の設立登記法人,千葉県,鎌ケ谷市,初富２６番１５,,12,224,2730121,,,,,,,2025-11-04,1,,,,,リーヴォン,0
946,4050001057551,新規,0,2025-11-04,2025-11-04,株式会社トルシーダ,,株式会社,茨城県,守谷市,中央２丁目１７番１号フィネストリーノ１Ｆ,,08,224,3020115,,,,,,,2025-11-04,1,,,,,トルシーダ,0
949,4060001038716,新規,0,2025-11-04,2025-11-04,株式会社ＪＯＹＴＥＣ,,株式会社,栃木県,小山市,大字喜沢６３６番地２さくら１０４号室,,09,208,3230014,,,,,,,2025-11-04,1,,,,,ジョイテック,0
950,4060001038724,新規,0,2025-11-04,2025-11-04,株式会社ケーオーライン,,株式会社,栃木県,河内郡上三川町,大字上蒲生３２４番地２４,,09,301,3290617,,,,,,,2025-11-04,1,,,,,ケーオーライン,0
982,4120001281607,新規,0,2025-11-04,2025-11-04,Ｌｅｅ　Ｏｚ株式会社,,株式会社,大阪府,大阪市浪速区,桜川４丁目１番２５号ドミール桜川２,,27,111,5560022,,,,,,,2025-11-04,1,,,,,リーオーズ,0
983,4120001281631,新規,0,2025-11-04,2025-11-04,株式会社大幸,,株式会社,大阪府,大阪市旭区,大宮２丁目２０番１３－２０５号,,27,117,5350002,,,,,,,2025-11-04,1,,,,,ダイコウ,0
984,4120001281722,新規,0,2025-11-04,2025-11-04,株式会社映芽堂,,株式会社,大阪府,大阪市北区,山崎町５番１２－４０３号,,27,127,5300024,,,,,,,2025-11-04,1,,,,,エイガドウ,0
988,4120003031159,新規,0,2025-11-04,2025-11-04,合同会社ＭＲＥＣ,,合同会社,大阪府,大阪市福島区,大開１丁目１０番８‐５０１号,,27,103,5530007,,,,,,,2025-11-04,1,,,,,エムレック,0
992,4120101072724,新規,0,2025-11-04,2025-11-04,ユニバーサルシステム株式会社,,株式会社,大阪府,堺市堺区,大仙中町１０番１－２０５,,27,141,5900801,,,,,,,2025-11-04,1,,,,,ユニバーサルシステム,0
993,4120103006829,新規,0,2025-11-04,2025-11-04,合同会社Ａｘｅｎ,,合同会社,大阪府,富田林市,寿町４丁目７番３７号（３０１）,,27,214,5840031,,,,,,,2025-11-04,1,,,,,アクセン,0
1002,4120901051720,新規,0,2025-11-04,2025-11-04,株式会社ＵＮＣＯＲＥ,,株式会社,大阪府,箕面市,船場西１丁目１３番１７号,,27,220,5620036,,,,,,,2025-11-04,1,,,,,アンコール,0
1003,4120901051729,新規,0,2025-11-04,2025-11-04,ＭＮ　Ｗｏｒｋｓ株式会社,,株式会社,大阪府,豊中市,山ノ上町８番４８号,,27,203,5610892,,,,,,,2025-11-04,1,,,,,エムエヌワークス,0
1005,4120903005922,新規,0,2025-11-04,2025-11-04,Ｍアシスト合同会社,,合同会社,大阪府,箕面市,今宮３丁目１１番８号（１０１号）,,27,220,5620033,,,,,,,2025-11-04,1,,,,,エムアシスト,0
1011,4140001140538,新規,0,2025-11-04,2025-11-04,株式会社テラマリス,,株式会社,兵庫県,西宮市,甲子園口１丁目１２番１－３０１号,,28,204,6638113,,,,,,,2025-11-04,1,,,,,テラマリス,0
1012,4140001140604,新規,0,2025-11-04,2025-11-04,王ホールディングス株式会社,,株式会社,兵庫県,神戸市中央区,東川崎町１丁目５－８,,28,110,6500044,,,,,,,2025-11-04,1,,,,,オウホールディングス,0
1016,4150003003733,新規,0,2025-11-04,2025-11-04,合同会社はちのき,,合同会社,奈良県,香芝市,旭ケ丘３丁目２０番地２３,,29,210,6390266,,,,,,,2025-11-04,1,,,,,ハチノキ,0
1018,4160001027188,新規,0,2025-11-04,2025-11-04,株式会社ＹＯＩＥ,,株式会社,滋賀県,湖南市,岩根４９９番地１０１,,25,211,5203252,,,,,,,2025-11-04,1,,,,,ヨイエ,0
1020,4160003003641,新規,0,2025-11-04,2025-11-04,合同会社双樹,,合同会社,滋賀県,湖南市,石部南４丁目５番２１号,,25,211,5203108,,,,,,,2025-11-04,1,,,,,ソウジュ,0
1030,4180001169251,新規,0,2025-11-04,2025-11-04,株式会社ＭｉＴｏＡ,,株式会社,愛知県,名古屋市千種区,猫洞通５丁目６番地ドムスモトヤマ４０１号,,23,101,4640032,,,,,,,2025-11-04,1,,,,,ミトア,0
1031,4180001169359,新規,0,2025-11-04,2025-11-04,株式会社Ｍ・Ｈホールディングス,,株式会社,愛知県,名古屋市港区,十一屋１丁目５７番地の３,,23,111,4550831,,,,,,,2025-11-04,1,,,,,エムエイチホールディングス,0
1032,4180001169367,新規,0,2025-11-04,2025-11-04,株式会社ＳＴＲ　ＳＹＳＴＥＭ,,株式会社,愛知県,名古屋市緑区,太子３丁目２４番地の２１,,23,114,4580823,,,,,,,2025-11-04,1,,,,,スタシステム,0
1033,4180001169375,新規,0,2025-11-04,2025-11-04,株式会社ＮＯＮＯシステム,,株式会社,愛知県,名古屋市中区,錦２丁目１１番１１号,,23,106,4600003,,,,,,,2025-11-04,1,,,,,ノノシステム,0
1034,4180001169391,新規,0,2025-11-04,2025-11-04,株式会社中央食糧,,株式会社,愛知県,稲沢市,大矢白山町１９番地,,23,220,4928416,,,,,,,2025-11-04,1,,,,,チュウオウショクリョウ,0
1040,4180003029305,新規,0,2025-11-04,2025-11-04,合同会社ミズカ,,合同会社,愛知県,北名古屋市,西之保青野６８番地サンラ　イズ２１４０１号,,23,234,4810033,,,,,,,2025-11-04,1,,,,,ミズカ,0
1061,4230001021159,新規,0,2025-11-04,2025-11-04,株式会社さくらもち,,株式会社,富山県,南砺市,安居２８３番地,,16,210,9391554,,,,,,,2025-11-04,1,,,,,サクラモチ,0
1071,4260003005405,新規,0,2025-11-04,2025-11-04,ＨＫＲアドバイザリー合同会社,,合同会社,岡山県,岡山市北区,中山下１丁目１１番１５号新田第一ビル３階,,33,101,7000821,,,,,,,2025-11-04,1,,,,,エイチケーアールアドバイザリー,0
1073,4280003002004,新規,0,2025-11-04,2025-11-04,匠の酒合同会社,,合同会社,島根県,松江市,八雲町平原４３６番地１,,32,201,6902105,,,,,,,2025-11-04,1,,,,,タクミノサケ,0
1083,4290803005196,新規,0,2025-11-04,2025-11-04,ｈａｚｉｍｅ合同会社,,合同会社,福岡県,田川郡川崎町,大字田原５５２,,40,605,8270004,,,,,,,2025-11-04,1,,,,,ハジメ,0
1096,4370001053188,新規,0,2025-11-04,2025-11-04,株式会社ｍｉｎｇｌｅｗｏｏｄ,,株式会社,宮城県,仙台市泉区,福岡字西上野原２８番地１０,,04,105,9813225,,,,,,,2025-11-04,1,,,,,ミングルウッド,0
1097,4370003007357,新規,0,2025-11-04,2025-11-04,合同会社トライアンネット,,合同会社,宮城県,仙台市青葉区,台原３丁目３８‐２‐１０５,,04,101,9810911,,,,,,,2025-11-04,1,,,,,トライアンネット,0
1102,4400001017222,新規,0,2025-11-04,2025-11-04,株式会社ぜろせんカンパニー,,株式会社,岩手県,一関市,千厩町千厩字古ケ口８８番地,00141358,03,209,0290803,,,,,,,2025-11-04,1,,,,,ゼロセンカンパニー,0
1113,4430001095562,新規,0,2025-11-04,2025-11-04,株式会社Ｎ．Ａ　ＴＲＡＤＩＮＧ,,株式会社,北海道,小樽市,塩谷４丁目９７－３４,,01,203,0482672,,,,,,,2025-11-04,1,,,,,エヌエートレーディング,0
1122,4700150132758,新規,0,2025-11-04,2025-11-04,Ｍｅｔａ　Ｐｌａｔｆｏｒｍｓ　Ｉｒｅｌａｎｄ　Ｌｉｍｉｔｅｄ,,外国会社等,,,,,,,,Ｍｅｒｒｉｏｎ　Ｒｏａｄ，Ｄｕｂｌｉｎ　４，ＤＯ４　Ｘ２Ｋ５，Ｉｒｅｌａｎｄ,,,,,,2025-11-04,1,,,,,メタプラツトフオームズアイルランドリミテツド,0
1123,4700150132816,新規,0,2025-11-04,2025-11-04,Ｂｉｔｄｅｆｅｎｄｅｒ　Ｉｎｃ．,,外国会社等,,,,,,,,６３０１　ＮＷ　５ｔｈ　Ｗａｙ，Ｓｕｉｔｅ　４３００，Ｆｏｒｔ　Ｌａｕｄｅｒｄａｌｅ，Ｆｌｏｒｉｄａ，３３３０９，ＵＳ,,,,,,2025-11-04,1,,,,,ビツトデイフエンダーインク,0
1133,5010001259893,新規,0,2025-11-04,2025-11-04,ＪＩＡＲＥ第７号株式会社,,株式会社,東京都,千代田区,霞が関３丁目２番１号,,13,101,1000013,,,,,,,2025-11-04,1,,,,,ジェイアイエーアールイーダイナナゴウ,0
1134,5010001259927,新規,0,2025-11-04,2025-11-04,株式会社Ａｔｈｌｅｔｅ　Ｃｏｍｐａｓｓ,,株式会社,東京都,中央区,銀座１丁目１２番４号Ｎ＆ＥＢＬＤ．６Ｆ,,13,102,1040061,,,,,,,2025-11-04,1,,,,,アスリートコンパス,0
1140,5010003049252,新規,0,2025-11-04,2025-11-04,合同会社白馬ホテルプロジェクト,,合同会社,東京都,千代田区,霞が関３丁目２番１号,,13,101,1000013,,,,,,,2025-11-04,1,,,,,ハクバホテルプロジェクト,0
1141,5010003049260,新規,0,2025-11-04,2025-11-04,ニッポン・ウエルス・インベストメント２合同会社,,合同会社,東京都,中央区,銀座１丁目２０番１４号,,13,102,1040061,,,,,,,2025-11-04,1,,,,,ニッポンウエルスインベストメントツー,0
1153,5010401194253,新規,0,2025-11-04,2025-11-04,株式会社ＢＡＣＫＥＲＳ,,株式会社,東京都,港区,六本木３丁目１６番１２号六本木ＫＳビル５Ｆ,,13,103,1060032,,,,,,,2025-11-04,1,,,,,バッカーズ,0
1154,5010401194261,新規,0,2025-11-04,2025-11-04,株式会社Ａｂｕｒｉ　Ｒｅｓｔａｕｒａｎｔｓ　Ｊａｐａｎ　Ｈｏｌｄｉｎｇｓ,,株式会社,東京都,港区,南青山１丁目１５番２号ＭＩＮＡＭＩＡＯＹＡＭＡ・ＳＴＵＤＩＯ・ＦＬＡＴ３０３,,13,103,1070062,,,,,,,2025-11-04,1,,,,,アブリレストランジャパンホールディングス,0
1156,5010403036123,新規,0,2025-11-04,2025-11-04,ＪＦ　Ｐａｒｔｎｅｒｓ合同会社,,合同会社,東京都,港区,南青山３丁目１番３６号青山丸竹ビル６Ｆ,,13,103,1070062,,,,,,,2025-11-04,1,,,,,ジェーエフパートナーズ,0
1157,5010403036478,新規,0,2025-11-04,2025-11-04,合同会社エルインベストメント５,,合同会社,東京都,港区,元赤坂１丁目１番７－１２０９号株式会社赤坂国際会計内,,13,103,1070051,,,,,,,2025-11-04,1,,,,,エルインベストメントファイブ,0
1165,5010601068224,新規,0,2025-11-04,2025-11-04,株式会社ＫＩＮ　Ｐｒｏ,,株式会社,東京都,江東区,青海２丁目７－４ｔｈｅＳＯＨＯ１３０８,,13,108,1350064,,,,,,,2025-11-04,1,,,,,キンプロ,0
1166,5010601068232,新規,0,2025-11-04,2025-11-04,Ｍａｃｈｉｎｉｓｅ株式会社,,株式会社,東京都,墨田区,東駒形４丁目１－７－７０２,,13,107,1300005,,,,,,,2025-11-04,1,,,,,マシナイズ,0
1178,5011001171634,新規,0,2025-11-04,2025-11-04,株式会社ＳｅｎＱ　ＡＩ,,株式会社,東京都,渋谷区,恵比寿４丁目２０番３号恵比寿ガーデンプレイスタワー１９階,,13,113,1500013,,,,,,,2025-11-04,1,,,,,センカイ,0
1179,5011001173250,新規,0,2025-11-04,2025-11-04,株式会社白鳥,,株式会社,東京都,渋谷区,千駄ヶ谷５丁目３３番１－４０２号,,13,113,1510051,,,,,,,2025-11-04,1,,,,,ハクチョウ,0
1180,5011001173399,新規,0,2025-11-04,2025-11-04,株式会社ＬＡＮＴＥＲＮ,,株式会社,東京都,目黒区,青葉台１丁目１４番４号,,13,110,1530042,,,,,,,2025-11-04,1,,,,,ランタン,0
1184,5011003022777,新規,0,2025-11-04,2025-11-04,合同会社Ｒｏｎｒｏｎｅｏ,,合同会社,東京都,渋谷区,広尾１丁目５番９号ミドルリバー広尾１０２号,,13,113,1500012,,,,,,,2025-11-04,1,,,,,ロンロネオ,0
1185,5011003022851,新規,0,2025-11-04,2025-11-04,Ｖ．ＢＡＣＫＳ合同会社,,合同会社,東京都,渋谷区,本町５丁目８番１１－２０５号コンポジット渋谷本町,,13,113,1510071,,,,,,,2025-11-04,1,,,,,ブイバックス,0
1186,5011003022901,新規,0,2025-11-04,2025-11-04,ＡｉｒＴｒｕｎｋ　Ｊａｐａｎ　Ｈｏｌｄｉｎｇ１０合同会社,,合同会社,東京都,渋谷区,円山町３番６号Ｅ・スペースタワー,,13,113,1500044,,,,,,,2025-11-04,1,,,,,エアトランクジャパンホールディングテン,0
1191,5011101113511,新規,0,2025-11-04,2025-11-04,株式会社トウコンホールディングス,,株式会社,東京都,新宿区,西新宿３丁目２番１１号,,13,104,1600023,,,,,,,2025-11-04,1,,,,,トウコンホールディングス,0
1192,5011101113775,新規,0,2025-11-04,2025-11-04,元通頻株式会社,,株式会社,東京都,新宿区,岩戸町１６－２メイジャー神楽坂９０１号室,,13,104,1620832,,,,,,,2025-11-04,1,,,,,ゲントウヒン,0
1193,5011101113858,新規,0,2025-11-04,2025-11-04,ＪＦＲ＆Ａｌｐｈａｗｉｎ　Ｐａｒｔｎｅｒｓ株式会社,,株式会社,東京都,新宿区,四谷１丁目１８番地５,,13,104,1600004,,,,,,,2025-11-04,1,,,,,ジェイエフアールアンドアルファウインパートナーズ,0
1195,5011103016605,新規,0,2025-11-04,2025-11-04,合同会社撫子雅,,合同会社,東京都,新宿区,西新宿３丁目９番２号イマス西新宿第一ビル３Ｆ－Ｂ,,13,104,1600023,,,,,,,2025-11-04,1,,,,,ナデシコミヤビ,0
1198,5011401027543,新規,0,2025-11-04,2025-11-04,ＥＮＪＯＩＮＴ株式会社,,株式会社,東京都,板橋区,前野町２丁目３０番８号,,13,119,1740063,,,,,,,2025-11-04,1,,,,,エンジョイント,0
1204,5011801046985,新規,0,2025-11-04,2025-11-04,株式会社ウインデザイン,,株式会社,東京都,葛飾区,お花茶屋３丁目１０番１２号,,13,122,1240003,,,,,,,2025-11-04,1,,,,,ウインデザイン,0
1206,5013301055211,新規,0,2025-11-04,2025-11-04,株式会社ＰＡＲＡＤＥ　ＷＯＲＫＳ,,株式会社,東京都,豊島区,南大塚２丁目４４番６号飯田ビル３階,,13,116,1700005,,,,,,,2025-11-04,1,,,,,パレードワークス,0
1207,5013301055236,新規,0,2025-11-04,2025-11-04,和睿株式会社,,株式会社,東京都,豊島区,高田３丁目４－１０－３０８号室,,13,116,1710033,,,,,,,2025-11-04,1,,,,,ワエイ,0
1217,5020001165604,新規,0,2025-11-04,2025-11-04,株式会社エスペランサ不動産,,株式会社,神奈川県,横浜市青葉区,恩田町２１４６番地,,14,117,2270065,,,,,,,2025-11-04,1,,,,,エスペランサフドウサン,0
1218,5020001165637,新規,0,2025-11-04,2025-11-04,株式会社ＳＩＤ,,株式会社,神奈川県,川崎市幸区,古市場１丁目５７番地,,14,132,2120052,,,,,,,2025-11-04,1,,,,,エスアイディー,0
1222,5020003029641,新規,0,2025-11-04,2025-11-04,合同会社ＧＡＴＡＮＧＯＴＯＮ,,合同会社,神奈川県,横浜市西区,北幸１丁目１－８エキニア５ＦＨａｍａＰｏｒｔ,,14,103,2200004,,,,,,,2025-11-04,1,,,,,ガタンゴトン,0
1223,5020003029708,新規,0,2025-11-04,2025-11-04,合同会社宇宙創造研究所,,合同会社,神奈川県,横浜市中区,桜木町１丁目１０１番地１クロスゲート７階,,14,104,2310062,,,,,,,2025-11-04,1,,,,,ウチュウソウゾウケンキュウショ,0
1224,5020003029724,新規,0,2025-11-04,2025-11-04,合同会社ＦＡＳＴ　ＴＲＡＮＳＰＯＲＴＥＲＳ,,合同会社,神奈川県,横浜市磯子区,洋光台６丁目１番１－４０１号,,14,107,2350045,,,,,,,2025-11-04,1,,,,,ファストトランスポーターズ,0
1234,5030001077732,新規,0,2025-11-04,2025-11-04,株式会社ヨコハン,,株式会社,埼玉県,川口市,大字芝５０４５番地,,11,203,3330866,,,,,,,2025-11-04,1,,,,,ヨコハン,0
1237,5030001169471,新規,0,2025-11-04,2025-11-04,株式会社埼玉モーター,,株式会社,埼玉県,吉川市,吉川団地５番１０号５０２,,11,243,3420054,,,,,,,2025-11-04,1,,,,,サイタマモーター,0
1245,5040001141198,新規,0,2025-11-04,2025-11-04,株式会社良心工房,,株式会社,千葉県,千葉市中央区,松波２丁目４番４号メゾン西千葉１Ｆ,,12,101,2600044,,,,,,,2025-11-04,1,,,,,リョウシンコウボウ,0
1247,5040005022915,新規,0,2025-11-04,2025-11-04,一般社団法人八田ファーマーズアソシエーション,,その他の設立登記法人,千葉県,山武市,松尾町松尾６１番地１,,12,237,2891514,,,,,,,2025-11-04,1,,,,,ハッタファーマーズアソシエーション,0
1257,5070005010438,新規,0,2025-11-04,2025-11-04,特定非営利活動法人ＡＴＥＬＩＥＲ　ＧＩＦＴ,,その他の設立登記法人,群馬県,北群馬郡吉岡町,大字大久保１４１３番地８,,10,345,3703602,,,,,,,2025-11-04,1,,,,,アトリエギフト,0
1261,5080403005377,新規,0,2025-11-04,2025-11-04,合同会社エンパシー,,合同会社,静岡県,袋井市,中５９０番地の１,,22,216,4371125,,,,,,,2025-11-04,1,,,,,エンパシー,0
1268,5110001039682,新規,0,2025-11-04,2025-11-04,ワンレックス株式会社,,株式会社,新潟県,新潟市北区,森下字木花６９６番地,,15,101,9503368,,,,,,,2025-11-04,1,,,,,ワンレックス,0
1273,5120001281408,新規,0,2025-11-04,2025-11-04,株式会社ＮＪ,,株式会社,大阪府,大阪市北区,長柄中１丁目５－７メゾンドスマーユ１０４号室,,27,127,5310062,,,,,,,2025-11-04,1,,,,,エヌジェイ,0
1274,5120001281515,新規,0,2025-11-04,2025-11-04,株式会社ＳＫパートナー,,株式会社,大阪府,大阪市中央区,内淡路町１丁目３番７号,,27,128,5400038,,,,,,,2025-11-04,1,,,,,エスケーパートナー,0
1275,5120001281630,新規,0,2025-11-04,2025-11-04,株式会社利宝,,株式会社,大阪府,大阪市浪速区,敷津西１丁目３番２４号－５１６,,27,111,5560015,,,,,,,2025-11-04,1,,,,,リホウ,0
1281,5120003031083,新規,0,2025-11-04,2025-11-04,合同会社ＥＪＩ,,合同会社,大阪府,枚方市,堂山３丁目２３番１２号,,27,210,5730007,,,,,,,2025-11-04,1,,,,,エジ,0
1286,5120901051711,新規,0,2025-11-04,2025-11-04,株式会社藤田屋薬局,,株式会社,大阪府,茨木市,元町２番２３号,,27,211,5670882,,,,,,,2025-11-04,1,,,,,フジタヤヤッキョク,0
1289,5130001080932,新規,0,2025-11-04,2025-11-04,株式会社Ｃｏｍｍｏｎｉｎｇ　Ｓｔｕｄｉｏ,,株式会社,京都府,京都市下京区,大黒町２２７番地第２キョートビル４０２,,26,106,6008043,,,,,,,2025-11-04,1,,,,,コモニングスタジオ,0
1296,5140001140603,新規,0,2025-11-04,2025-11-04,コスモキッズ株式会社,,株式会社,兵庫県,神戸市中央区,北長狭通１丁目８番１号コスモビル６階,,28,110,6500012,,,,,,,2025-11-04,1,,,,,コスモキッズ,0
1297,5140001140636,新規,0,2025-11-04,2025-11-04,遊びトレジャー株式会社,,株式会社,兵庫県,神戸市中央区,三宮町２丁目１１番１－２１４号,,28,110,6500021,,,,,,,2025-11-04,1,,,,,アソビトレジャー,0
1300,5150001028517,新規,0,2025-11-04,2025-11-04,ＫＡＬＩＭＡ株式会社,,株式会社,奈良県,奈良市,学園朝日元町１丁目６０５－２６,,29,201,6310015,,,,,,,2025-11-04,1,,,,,カリマ,0
1302,5160001027187,新規,0,2025-11-04,2025-11-04,株式会社ＴＫＦＡＭＩＬＹ,,株式会社,滋賀県,湖南市,下田２７４７番地４,,25,211,5203201,,,,,,,2025-11-04,1,,,,,テイケイファミリ,0
1303,5160003003640,新規,0,2025-11-04,2025-11-04,オデッセイ合同会社,,合同会社,滋賀県,草津市,草津２丁目１２番２７号,,25,206,5250034,,,,,,,2025-11-04,1,,,,,オデッセイ,0
1317,5180001169309,新規,0,2025-11-04,2025-11-04,株式会社インクステック,,株式会社,愛知県,名古屋市中村区,靖国町１丁目１０７－３,,23,105,4530065,,,,,,,2025-11-04,1,,,,,インクステック,0
1318,5180001169358,新規,0,2025-11-04,2025-11-04,株式会社レーブ,,株式会社,愛知県,江南市,飛高町夫見添７８番地５,,23,217,4838339,,,,,,,2025-11-04,1,,,,,レーブ,0
1319,5180001169366,新規,0,2025-11-04,2025-11-04,株式会社ＬＵＳ,,株式会社,愛知県,名古屋市中区,新栄１丁目４６番４号,,23,106,4600007,,,,,,,2025-11-04,1,,,,,エルユーエス,0
1326,5180003029329,新規,0,2025-11-04,2025-11-04,合同会社ＭａｒｋｅｔＨｕｂ,,合同会社,愛知県,名古屋市中村区,名駅３丁目４－１０アルティメイト名駅１ｓｔ２階,,23,105,4500002,,,,,,,2025-11-04,1,,,,,マーケットハブ,0
1339,5230003002528,新規,0,2025-11-04,2025-11-04,ウィングベイ合同会社,,合同会社,富山県,富山市,稲荷元町１丁目１番２４－６０５号,,16,201,9300010,,,,,,,2025-11-04,1,,,,,ウィングベイ,0
1342,5240001065708,新規,0,2025-11-04,2025-11-04,株式会社稲畑ファーム,,株式会社,広島県,広島市安佐南区,八木１丁目２５番１号,,34,105,7310101,,,,,,,2025-11-04,1,,,,,イナハタファーム,0
1343,5240001065716,新規,0,2025-11-04,2025-11-04,株式会社Ｎｅｘｕｓ,,株式会社,広島県,広島市東区,中山上２丁目３０番１０－１０１号ボービラージュ中山台Ｂ棟,,34,102,7320027,,,,,,,2025-11-04,1,,,,,ネクサス,0
1349,5260005011540,新規,0,2025-11-04,2025-11-04,ＮＰＯ法人アンド・ユー,,その他の設立登記法人,岡山県,倉敷市,酒津２５１２番地２,,33,202,7100801,,,,,,,2025-11-04,1,,,,,アンドユー,0
1366,5290001111795,新規,0,2025-11-04,2025-11-04,バックオフィスサポート株式会社,,株式会社,福岡県,福岡市博多区,那珂６丁目１番３７号,,40,132,8120893,,,,,,,2025-11-04,1,,,,,バックオフィスサポート,0
1367,5290001112001,新規,0,2025-11-04,2025-11-04,Ｂｏｕｓｓｏｌｅ　Ｐａｒｔｎｅｒｓ株式会社,,株式会社,福岡県,福岡市中央区,天神２丁目２番１２号Ｔ＆Ｊビルディング７Ｆ,,40,133,8100001,,,,,,,2025-11-04,1,,,,,,0
1368,5290001112018,新規,0,2025-11-04,2025-11-04,株式会社みなと建築事務所,,株式会社,福岡県,筑紫野市,二日市中央１丁目１０番１９号,,40,217,8180072,,,,,,,2025-11-04,1,,,,,ミナトケンチクジムショ,0
1377,5330001033721,新規,0,2025-11-04,2025-11-04,株式会社Ｕｎ．ＦＯＬＤ,,株式会社,熊本県,熊本市西区,二本木２丁目１番３３号（１号室）,,43,103,8600051,,,,,,,2025-11-04,1,,,,,アンフォード,0
1380,5330003011295,新規,0,2025-11-04,2025-11-04,合同会社Ｔｏｍｏｅｒｕ,,合同会社,熊本県,熊本市東区,尾ノ上４丁目２０番１６－９０３号サーパス尾ノ上,,43,102,8620913,,,,,,,2025-11-04,1,,,,,トモエル,0
1382,5340005009915,新規,0,2025-11-04,2025-11-04,無限責任牛根高野負債整理組合,00141364,その他の設立登記法人,鹿児島県,垂水市,（旧主たる事務所肝属郡牛根村）,,46,214,8912100,,,,,,,2025-11-04,1,,,,,ムゲンセキニンウシネタカノ,0
1383,5370001053187,新規,0,2025-11-04,2025-11-04,株式会社ＣＯＬＬＡＧＥ,,株式会社,宮城県,仙台市太白区,大谷地２番１号,,04,104,9820035,,,,,,,2025-11-04,1,,,,,コラージュ,0
1400,5440003001723,新規,0,2025-11-04,2025-11-04,合同会社音理アトリエ研究所,,合同会社,北海道,函館市,西桔梗町８２２番１号,,01,202,0410824,,,,,,,2025-11-04,1,,,,,オンリアトリエケンキュウジョ,0
1405,5700150132757,新規,0,2025-11-04,2025-11-04,Ａｍｂｕ　Ａ／Ｓ,,外国会社等,,,,,,,,Ｂａｌｔｏｒｐｂａｋｋｅｎ　１３　ＤＫ　２７５０　Ｂａｌｌｅｒｕｐ　Ｄｅｎｍａｒｋ,,,,,,2025-11-04,1,,,,,アンブアグシヤセルスガーツブ,0
1406,5700150132815,新規,0,2025-11-04,2025-11-04,ＪＧＣ　ＩＮＤＩＡ　ＥＰＣ　ＰＲＩＶＡＴＥ　ＬＩＭＩＴＥＤ,,外国会社等,,,,,,,,ＢＵＩＬＤＩＮＧ　３Ｂ－３ＲＤ　ＦＬＯＯＲ，ＭＩＬＬＥＮＩＡ　ＢＵＳＩＮＥＳＳ　ＰＡＲＫ，ＭＧＲ　ＭＡＩＮ　ＲＯＡＤ，ＫＯＤＡＮＤＡＲＡＭＡ　ＮＡＧＡＲ，,,,,,,2025-11-04,1,,,,,ジエージーシーインデイアエピツクプライベートリミテツド,0
1416,6010001259018,新規,0,2025-11-04,2025-11-04,株式会社ギークフォース,,株式会社,東京都,中央区,日本橋茅場町２丁目１４－５石川ビル２０２,,13,102,1030025,,,,,,,2025-11-04,1,,,,,ギークフォース,0
1417,6010001259587,新規,0,2025-11-04,2025-11-04,アイサンホールディングス株式会社,,株式会社,東京都,千代田区,麹町２丁目１４番地,,13,101,1020083,,,,,,,2025-11-04,1,,,,,アイサンホールディングス,0
1418,6010001259827,新規,0,2025-11-04,2025-11-04,アルテラ・キャピタル株式会社,,株式会社,東京都,中央区,日本橋１丁目１３番１号日鉄日本橋ビル３階,,13,102,1030027,,,,,,,2025-11-04,1,,,,,アルテラキャピタル,0
1419,6010001259851,新規,0,2025-11-04,2025-11-04,株式会社Ｌｕｃａ　Ｆｌｏｒａｉｓｏｎ,,株式会社,東京都,中央区,銀座１丁目１２番４号Ｎ＆ＥＢＬＤ．６Ｆ,,13,102,1040061,,,,,,,2025-11-04,1,,,,,ルカフロレゾン,0
1420,6010001259934,新規,0,2025-11-04,2025-11-04,株式会社ＯＫＡＹＵ,,株式会社,東京都,中央区,日本橋兜町１７－２兜町第６葉山ビル４Ｆ,,13,102,1030026,,,,,,,2025-11-04,1,,,,,オカユ,0
1433,6010403036502,新規,0,2025-11-04,2025-11-04,合同会社ＢＯＬ２,,合同会社,東京都,港区,虎ノ門５丁目３番２０号株式会社アカウンティング・マネジメント・サービス内,,13,103,1050001,,,,,,,2025-11-04,1,,,,,ビーオーエルツー,0
1460,6011001173209,新規,0,2025-11-04,2025-11-04,株式会社レグルス,,株式会社,東京都,渋谷区,神泉町１０番１５号アネックス神泉３０１,,13,113,1500045,,,,,,,2025-11-04,1,,,,,レグルス,0
1461,6011001173233,新規,0,2025-11-04,2025-11-04,株式会社ワイフィフティーン,,株式会社,東京都,渋谷区,元代々木町４４番地１,,13,113,1510062,,,,,,,2025-11-04,1,,,,,ワイフィフティーン,0
1462,6011001173266,新規,0,2025-11-04,2025-11-04,株式会社シンセリティパートナーズ,,株式会社,東京都,渋谷区,道玄坂１丁目１０番８号渋谷道玄坂東急ビル２Ｆ－Ｃ,,13,113,1500043,,,,,,,2025-11-04,1,,,,,シンセリティパートナーズ,0
1465,6011003022586,新規,0,2025-11-04,2025-11-04,ａｎｎｅｔｍｉｉ合同会社,,合同会社,東京都,渋谷区,道玄坂１丁目１０番８号渋谷道玄坂東急ビル２Ｆ－Ｃ,,13,113,1500043,,,,,,,2025-11-04,1,,,,,アントミー,0
1466,6011003022768,新規,0,2025-11-04,2025-11-04,ＭＡＹＳ　Ｓｏｌｕｔｉｏｎｓ合同会社,,合同会社,東京都,渋谷区,広尾４丁目１番５－１０８号,,13,113,1500012,,,,,,,2025-11-04,1,,,,,メイズソリューションズ,0
1467,6011003022850,新規,0,2025-11-04,2025-11-04,ｅｉＮＳ合同会社,,合同会社,東京都,渋谷区,神南１丁目１１番４号ＦＰＧリンクス神南５階,,13,113,1500041,,,,,,,2025-11-04,1,,,,,アインス,0
1473,6011101113717,新規,0,2025-11-04,2025-11-04,ＩＫＤ株式会社,,株式会社,東京都,新宿区,西新宿３丁目３番１３号西新宿水間ビル６階,,13,104,1600023,,,,,,,2025-11-04,1,,,,,アイケーディー,0
1474,6011101113782,新規,0,2025-11-04,2025-11-04,株式会社ポムベルト,,株式会社,東京都,新宿区,須賀町９番地,,13,104,1600018,,,,,,,2025-11-04,1,,,,,ポムベルト,0
1480,6011703004446,新規,0,2025-11-04,2025-11-04,合同会社ＨＩＴＳ,,合同会社,東京都,江戸川区,船堀４丁目８番２２－１０３号,,13,123,1340091,,,,,,,2025-11-04,1,,,,,ヒッツ,0
1483,6012303002237,新規,0,2025-11-04,2025-11-04,ＲＡＹ研究開発合同会社,,合同会社,東京都,町田市,小山ヶ丘５丁目７番地１グランレガーロ６３６,,13,209,1940215,,,,,,,2025-11-04,1,,,,,アールエーワイケンキュウカイハツ,0
1488,6012803003916,新規,0,2025-11-04,2025-11-04,合同会社久保屋エンタープライズ,,合同会社,東京都,昭島市,つつじが丘２丁目４番１６－１００７号,,13,207,1960012,,,,,,,2025-11-04,1,,,,,クボヤエンタープライズ,0
1507,6020003029574,新規,0,2025-11-04,2025-11-04,合同会社シュニー,,合同会社,神奈川県,横浜市瀬谷区,南瀬谷１丁目６７－４,,14,114,2460034,,,,,,,2025-11-04,1,,,,,シュニー,0
1508,6020003029632,新規,0,2025-11-04,2025-11-04,合同会社輝来,,合同会社,神奈川県,横浜市都筑区,荏田東２丁目５番１１号－１０３,,14,118,2240006,,,,,,,2025-11-04,1,,,,,キクル,0
1513,6021001086731,新規,0,2025-11-04,2025-11-04,株式会社凌謙會,,株式会社,神奈川県,相模原市南区,相模大野７丁目１８番９号スターハイツ相模大野駅前６０１号室,,14,153,2520303,,,,,,,2025-11-04,1,,,,,リョウケンカイ,0
1524,6030001169470,新規,0,2025-11-04,2025-11-04,春田株式会社,,株式会社,埼玉県,川口市,芝富士１丁目２２－２４－６,,11,203,3330854,,,,,,,2025-11-04,1,,,,,ハルダ,0
1525,6030001169479,新規,0,2025-11-04,2025-11-04,株式会社ＬＡＮＤ　ＰＲＩＳＭ,,株式会社,埼玉県,川口市,並木２丁目１８番１６号－３０２,,11,203,3320034,,,,,,,2025-11-04,1,,,,,ランドプリズム,0
1530,6030003028006,新規,0,2025-11-04,2025-11-04,合同会社マキエプロジェクト,,合同会社,埼玉県,さいたま市大宮区,桜木町２丁目３,,11,103,3300854,,,,,,,2025-11-04,1,,,,,マキエプロジェクト,0
1545,6040001141189,新規,0,2025-11-04,2025-11-04,長和商運株式会社,,株式会社,千葉県,鎌ケ谷市,初富８０６番地９３,,12,224,2730121,,,,,,,2025-11-04,1,,,,,ナガワショウウン,0
1552,6040003028913,新規,0,2025-11-04,2025-11-04,合同会社ＳＵＮ　ＶＩＥＷ,,合同会社,千葉県,八千代市,八千代台西２丁目４番１号八千代台創業センター３Ａ号室,,12,221,2760034,,,,,,,2025-11-04,1,,,,,サンビュー,0
1555,6050003009747,新規,0,2025-11-04,2025-11-04,合同会社アスモドア,,合同会社,茨城県,つくば市,二の宮２丁目７番２号,,08,220,3050051,,,,,,,2025-11-04,1,,,,,アスモドア,0
1560,6070001043507,新規,0,2025-11-04,2025-11-04,タウンカーズ株式会社,,株式会社,群馬県,伊勢崎市,下植木町５９６番地１２,,10,204,3720024,,,,,,,2025-11-04,1,,,,,タウンカーズ,0
1563,6080403005376,新規,0,2025-11-04,2025-11-04,合同会社ブルーオーシャン,,合同会社,静岡県,浜松市中央区,丸塚町１８３番地の４,,22,138,4350046,,,,,,,2025-11-04,1,,,,,ブルーオーシャン,0
1576,6120001281530,新規,0,2025-11-04,2025-11-04,リベルタ株式会社,,株式会社,大阪府,大阪市天王寺区,生玉町２－２９－７０２,,27,109,5430071,,,,,,,2025-11-04,1,,,,,リベルタ,0
1579,6120003031116,新規,0,2025-11-04,2025-11-04,アール・エフ・ジャパン合同会社,,合同会社,大阪府,大阪市東淀川区,淡路４丁目１０番３号新淡路ビルＩ６０２号室,00141370,27,114,5330032,,,,,,,2025-11-04,1,,,,,アールエフジャパン,0
1580,6120005025231,新規,0,2025-11-04,2025-11-04,一般社団法人三真会,,その他の設立登記法人,大阪府,大阪市東淀川区,西淡路２丁目４番地２０,,27,114,5330031,,,,,,,2025-11-04,1,,,,,サンシンカイ,0
1581,6120101072722,新規,0,2025-11-04,2025-11-04,ＬＩＮＱ株式会社,,株式会社,大阪府,堺市南区,竹城台３丁２１番２－１号,,27,145,5900105,,,,,,,2025-11-04,1,,,,,リンク,0
1595,6130001080923,新規,0,2025-11-04,2025-11-04,株式会社銀月,,株式会社,京都府,京都市伏見区,京町北８丁目８０番３－１０２,,26,109,6128086,,,,,,,2025-11-04,1,,,,,ギンゲツ,0
1600,6140001140651,新規,0,2025-11-04,2025-11-04,ペンギン出版株式会社,,株式会社,兵庫県,宍粟市,一宮町西深２７２－３,,28,227,6714125,,,,,,,2025-11-04,1,,,,,ペンギンシュッパン,0
1603,6150001028499,新規,0,2025-11-04,2025-11-04,株式会社ＢＡＬ,,株式会社,奈良県,生駒市,萩の台１丁目３番２号オーセント萩の台１０９号,,29,209,6300224,,,,,,,2025-11-04,1,,,,,バル,0
1605,6160001027186,新規,0,2025-11-04,2025-11-04,株式会社小西商事,,株式会社,滋賀県,湖南市,下田２７４７番地４,,25,211,5203201,,,,,,,2025-11-04,1,,,,,コニシショウジ,0
1606,6160001027194,新規,0,2025-11-04,2025-11-04,株式会社キタガワ内装,,株式会社,滋賀県,東近江市,五個荘奥町７３６番地３,,25,213,5291423,,,,,,,2025-11-04,1,,,,,キタガワナイソウ,0
1612,6180001169357,新規,0,2025-11-04,2025-11-04,株式会社ｃｒｅａｔｉｏｎ,,株式会社,愛知県,名古屋市中区,錦３丁目１８番６号,,23,106,4600003,,,,,,,2025-11-04,1,,,,,クリエイション,0
1619,6180003029311,新規,0,2025-11-04,2025-11-04,ＳＮＬＩＮＫ合同会社,,合同会社,愛知県,名古屋市東区,東桜２丁目５番６号シェリール東桜２０２,,23,102,4610005,,,,,,,2025-11-04,1,,,,,エスエヌリンク,0
1636,6240001065715,新規,0,2025-11-04,2025-11-04,株式会社ホンダ工房西日本,,株式会社,広島県,広島市中区,光南４丁目５番１９－１０２号,,34,101,7300825,,,,,,,2025-11-04,1,,,,,ホンダコウボウニシニホン,0
1640,6260003005403,新規,0,2025-11-04,2025-11-04,合同会社Ｏｋａｙａｍａ　Ｖｉｌｌａ,,合同会社,岡山県,岡山市中区,門田本町１丁目９番１７－２号,,33,102,7038274,,,,,,,2025-11-04,1,,,,,オカヤマヴィラ,0
1649,6290001111976,新規,0,2025-11-04,2025-11-04,株式会社黒舟,,株式会社,福岡県,福岡市南区,花畑２丁目１３－３－５０３,,40,134,8111356,,,,,,,2025-11-04,1,,,,,クロフネ,0
1650,6290001112017,新規,0,2025-11-04,2025-11-04,株式会社Ｐｏｌｅｓｔａｒ,,株式会社,福岡県,福岡市中央区,赤坂１丁目２番６号,,40,133,8100042,,,,,,,2025-11-04,1,,,,,ポールスター,0
1653,6290003017627,新規,0,2025-11-04,2025-11-04,合同会社オフィスさとう,,合同会社,福岡県,福岡市博多区,博多駅前１丁目１５番２０号ＮＭＦ博多駅前ビル２Ｆ,,40,132,8120011,,,,,,,2025-11-04,1,,,,,オフィスサトウ,0
1657,6290801031993,新規,0,2025-11-04,2025-11-04,株式会社結,,株式会社,福岡県,北九州市門司区,藤松３丁目１１番９号,,40,101,8000047,,,,,,,2025-11-04,1,,,,,ユイ,0
1664,6320001021420,新規,0,2025-11-04,2025-11-04,株式会社ｔｓｕｍｕｇｕ,,株式会社,大分県,大分市,荷揚町９番９号イワオビル１階,,44,201,8700046,,,,,,,2025-11-04,1,,,,,ツムグ,0
1667,6330001033720,新規,0,2025-11-04,2025-11-04,株式会社ミツフク,,株式会社,熊本県,菊池郡大津町,大字吹田１２３０番地１０３,,43,403,8691218,,,,,,,2025-11-04,1,,,,,ミツフク,0
1676,6380001035670,新規,0,2025-11-04,2025-11-04,株式会社屋船工務店,,株式会社,福島県,郡山市,並木２丁目１０番地の４、２０２号,,07,203,9638026,,,,,,,2025-11-04,1,,,,,ヤフネコウムテン,0
1685,6430001095577,新規,0,2025-11-04,2025-11-04,株式会社クオン,,株式会社,北海道,札幌市豊平区,豊平八条８丁目１－３０,,01,105,0620908,,,,,,,2025-11-04,1,,,,,クオン,0
1691,6430003018263,新規,0,2025-11-04,2025-11-04,合同会社かえで,,合同会社,北海道,札幌市白石区,北郷九条７丁目９番８号,,01,104,0030839,,,,,,,2025-11-04,1,,,,,カエデ,0
1700,6700150132756,新規,0,2025-11-04,2025-11-04,Ａｍｂｕ　Ｌｔｄ．,,外国会社等,,,,,,,,Ｃｏｍｐｌｅｘ　ＢＬＤ，Ｎｏ．Ｃ　Ｘｉａｎｇ　Ｙｕ　Ｆ．Ｔ．Ｚ．Ｘｉａｍｅｎ　３６１００６　Ｃｈｉｎａ,,,,,,2025-11-04,1,,,,,アンブエルテイーデイー,0
1701,6700150132764,新規,0,2025-11-04,2025-11-04,ＱｕｉｎｔＥｖｅｎｔｓ　Ｉｎｔｅｒｎａｔｉｏｎａｌ，ＬＬＣ,,外国会社等,,,,,,,,９３３５　Ｈａｒｒｉｓ　Ｃｏｒｎｅｒｓ　Ｐａｒｋｗａｙ　Ｓｕｉｔｅ　５００　Ｃｈａｒｌｏｔｔｅ　ＮＣ　２８２６９　Ｕｎｉｔｅｄ　Ｓｔａｔｅｓ,,,,,,2025-11-04,1,,,,,クイントイベンツインターナシヨナルエルエルシー,0
1702,6700150132814,新規,0,2025-11-04,2025-11-04,帆宣系統科技股斌有限公司,00141363,外国会社等,,,,,,,,６Ｆ，Ｎｏ．３－２，Ｐａｒｋ　Ｓｔ．，Ｎａｎｇａｎｇ　Ｄｉｓｔ．，Ｔａｉｐｅｉ　Ｃｉｔｙ　１１５６０３，Ｔａｉｗａｎ,,,,,,2025-11-04,1,,,,,フアンシユエンシートンクージーグーフエンヨウシエンゴンスー,0
1703,6700150132822,新規,0,2025-11-04,2025-11-04,Ｓｈｅｎｚｈｅｎ　Ｄｒａｕｐｎｉｒ　Ｔｅｃｈｎｏｌｏｇｙ　Ｃｏ．，Ｌｔｄ．,,外国会社等,,,,,,,,Ｒｏｏｍ　Ｄ１８０６，Ｂｕｉｌｄｉｎｇ　１，Ｋａｉｓａ　Ｊｕｎｈｕｉ　Ｍａｎｓｉｏｎ，Ｎｏ．４６３，Ｐｉｎｇｈｕ　Ａｖｅｎｕｅ，Ｘｉｎｎａｎ　Ｃｏｍｍｕｎｉｔｙ，Ｐｉｎｇｈｕ　Ｓｔｒｅｅｔ，Ｌｏｎｇｇａｎｇ　Ｄｉｓｔｒｉｃｔ，Ｓｈｅｎｚｈｅｎ，Ｃｈｉｎａ,,,,,,2025-11-04,1,,,,,シンセンドラウプニルテクノロジカンパニーリミテツド,0
1715,7010001259850,新規,0,2025-11-04,2025-11-04,株式会社ＶｉａＷｉｌｌ,,株式会社,東京都,中央区,銀座１丁目１２－４Ｎ＆ＥＢＬＤ．７階,,13,102,1040061,,,,,,,2025-11-04,1,,,,,ヴィアウィル,0
1716,7010001259917,新規,0,2025-11-04,2025-11-04,ＰＯＮＹ．ＡＩ株式会社,,株式会社,東京都,中央区,銀座１丁目２２番１１号銀座大竹ビジデンス２Ｆ,,13,102,1040061,,,,,,,2025-11-04,1,,,,,ポニーエーアイ,0
1717,7010001259925,新規,0,2025-11-04,2025-11-04,株式会社ＣＩＥ,,株式会社,東京都,中央区,銀座１丁目１２番４号Ｎ＆ＥＢＬＤ．６Ｆ,,13,102,1040061,,,,,,,2025-11-04,1,,,,,シーアイイー,0
1718,7010001259974,新規,0,2025-11-04,2025-11-04,株式会社ＵＭＫ,,株式会社,東京都,中央区,築地１丁目１３－１０,,13,102,1040045,,,,,,,2025-11-04,1,,,,,ユーエムケー,0
1722,7010003049242,新規,0,2025-11-04,2025-11-04,合同会社ｉｍｏｍａ,,合同会社,東京都,中央区,銀座１丁目１２番４号Ｎ＆ＥＢＬＤ．６Ｆ,,13,102,1040061,,,,,,,2025-11-04,1,,,,,イモマ,0
1732,7010401194227,新規,0,2025-11-04,2025-11-04,ＡＩ　Ｅｍｐｏｗｅｒｍｅｎｔ　Ｌａｂ株式会社,,株式会社,東京都,港区,麻布十番１丁目５番１０号アトラスビル４Ｆ,,13,103,1060045,,,,,,,2025-11-04,1,,,,,エーアイエンパワーメントラボ,0
1746,7010501054966,新規,0,2025-11-04,2025-11-04,株式会社ＢＥＩＬエンターテインメント,,株式会社,東京都,台東区,柳橋１丁目４番３号ツイントラスＩＩビル７階,00141368,13,106,1110052,,,,,,,2025-11-04,1,,,,,ベールエンターテインメント,0
1754,7011001173224,新規,0,2025-11-04,2025-11-04,株式会社ＮＩＭＯ．,,株式会社,東京都,渋谷区,神宮前４丁目３２－１３－７階,,13,113,1500001,,,,,,,2025-11-04,1,,,,,ニモ,0
1755,7011001173273,新規,0,2025-11-04,2025-11-04,アバンプランニング株式会社,,株式会社,東京都,渋谷区,神宮前３丁目１５番１９号神宮前マンション１０３号,,13,113,1500001,,,,,,,2025-11-04,1,,,,,アバンプランニング,0
1756,7011001173307,新規,0,2025-11-04,2025-11-04,株式会社モーント,,株式会社,東京都,渋谷区,渋谷２丁目１９番１５－５０１号宮益坂ビルディング,,13,113,1500002,,,,,,,2025-11-04,1,,,,,モーント,0
1759,7011003022791,新規,0,2025-11-04,2025-11-04,ＯＣＥＡＮ　ＩＮＣＵＢＡＴＥ合同会社,,合同会社,東京都,目黒区,自由が丘２丁目１６番１２号ＲＪ３,,13,110,1520035,,,,,,,2025-11-04,1,,,,,オーシャンインキュベイト,0
1764,7011103016561,新規,0,2025-11-04,2025-11-04,合同会社ＢｅｌｌｅＣｏｅｕｒ,,合同会社,東京都,新宿区,富久町１５－１富久クロスコンフォートタワー３７０９,,13,104,1620067,,,,,,,2025-11-04,1,,,,,ベルクール,0
1766,7011501032697,新規,0,2025-11-04,2025-11-04,もやい株式会社,,株式会社,東京都,荒川区,西日暮里６丁目３７－１,,13,118,1160013,,,,,,,2025-11-04,1,,,,,モヤイ,0
1768,7011801046983,新規,0,2025-11-04,2025-11-04,株式会社ＡＱＴ一級建築士事務所,,株式会社,東京都,葛飾区,奥戸５丁目９－１０,,13,122,1240022,,,,,,,2025-11-04,1,,,,,アクトイッキュウケンチクシジムショ,0
1786,7020003029680,新規,0,2025-11-04,2025-11-04,合同会社ハル,,合同会社,神奈川県,横浜市南区,井土ケ谷中町１番地３－５１２号,,14,105,2320052,,,,,,,2025-11-04,1,,,,,ハル,0
1787,7020003029722,新規,0,2025-11-04,2025-11-04,合同会社Ａｕｒｏ,,合同会社,神奈川県,横浜市南区,白妙町３丁目３４番地１８パークノヴァ横浜阪東橋弐番館２０４,,14,105,2320023,,,,,,,2025-11-04,1,,,,,アウロ,0
1802,7030001169412,新規,0,2025-11-04,2025-11-04,Ｎｅｓｔｅｒｉａ株式会社,,株式会社,埼玉県,所沢市,若狭４丁目２５２２番地の７,,11,208,3591151,,,,,,,2025-11-04,1,,,,,ネステリア,0
1803,7030001169437,新規,0,2025-11-04,2025-11-04,株式会社Ｙ’ｓＧａｒｄｅｎ,,株式会社,埼玉県,鴻巣市,屈巣２９４８－３,,11,217,3650014,,,,,,,2025-11-04,1,,,,,ワイズガーデン,0
1804,7030001169494,新規,0,2025-11-04,2025-11-04,株式会社ＧＲＯＶＥ,,株式会社,埼玉県,川越市,大字砂新田３７８番地４３,,11,201,3501137,,,,,,,2025-11-04,1,,,,,グローブ,0
1810,7040001141246,新規,0,2025-11-04,2025-11-04,株式会社えびのや氷菓,,株式会社,千葉県,長生郡長生村,小泉１９４－１,,12,423,2994347,,,,,,,2025-11-04,1,,,,,エビノヤヒョウカ,0
1811,7040001141262,新規,0,2025-11-04,2025-11-04,コードミー株式会社,,株式会社,千葉県,市川市,南大野１丁目４７－３２－１１３,,12,203,2720804,,,,,,,2025-11-04,1,,,,,コードミー,0
1816,7040003028870,新規,0,2025-11-04,2025-11-04,合同会社Ｂｅｎｅｆｉｔ　Ｌｉｎｅ,,合同会社,千葉県,千葉市若葉区,都賀３丁目９番１号都賀Ｍ３ビル,,12,104,2640025,,,,,,,2025-11-04,1,,,,,ベネフィットライン,0
1824,7070001043506,新規,0,2025-11-04,2025-11-04,株式会社ＤＡＩＺＵＡＵＴＯ,,株式会社,群馬県,前橋市,川曲町１１１番地２,,10,201,3710823,,,,,,,2025-11-04,1,,,,,ダイズオート,0
1834,7090001019594,新規,0,2025-11-04,2025-11-04,ＳＴＡＮＣＯ　ＴＲＡＤＩＮＧ株式会社,,株式会社,山梨県,笛吹市,石和町砂原２９３番地１,,19,211,4060044,,,,,,,2025-11-04,1,,,,,スタンコトレーディング,0
1836,7100003008453,新規,0,2025-11-04,2025-11-04,合同会社由良商会,,合同会社,長野県,下伊那郡豊丘村,大字神稲９２７７番地,,20,416,3993202,,,,,,,2025-11-04,1,,,,,ユラショウカイ,0
1838,7110003005953,新規,0,2025-11-04,2025-11-04,合同会社つむぎの杜,,合同会社,新潟県,新潟市東区,小金町３丁目３―１７,,15,102,9500026,,,,,,,2025-11-04,1,,,,,ツムギノモリ,0
1853,7120001281629,新規,0,2025-11-04,2025-11-04,株式会社ＲＩＴＯＡ,,株式会社,大阪府,大阪市北区,万歳町３－３９ロジュマンタワー梅田１４１３号,,27,127,5300028,,,,,,,2025-11-04,1,,,,,リトア,0
1854,7120001281653,新規,0,2025-11-04,2025-11-04,株式会社ＧＡＭ,,株式会社,大阪府,大阪市住之江区,柴谷１丁目１番４０号,,27,125,5590021,,,,,,,2025-11-04,1,,,,,ガム,0
1855,7120001281661,新規,0,2025-11-04,2025-11-04,株式会社ＮＧＳ,,株式会社,大阪府,大阪市此花区,春日出南３丁目２番３４－１３０８号,,27,104,5540023,,,,,,,2025-11-04,1,,,,,エヌジーエス,0
1858,7120101072713,新規,0,2025-11-04,2025-11-04,常笑株式会社,,株式会社,大阪府,泉佐野市,湊３丁目５２０番地２０の２階,,27,213,5980063,,,,,,,2025-11-04,1,,,,,ジョウショウ,0
1861,7122003003358,新規,0,2025-11-04,2025-11-04,合同会社サンクメゾン,,合同会社,大阪府,東大阪市,西岩田２丁目７番２５－３３７号,,27,227,5780947,,,,,,,2025-11-04,1,,,,,サンクメゾン,0
1868,7140001140568,新規,0,2025-11-04,2025-11-04,株式会社電創,,株式会社,兵庫県,尼崎市,南竹谷町３丁目３番地,,28,202,6600875,,,,,,,2025-11-04,1,,,,,デンソウ,0
1869,7140001140634,新規,0,2025-11-04,2025-11-04,株式会社ウェルグッド,,株式会社,兵庫県,加古郡稲美町,国安３１８－１０,,28,381,6751114,,,,,,,2025-11-04,1,,,,,ウェルグッド,0
1870,7140001140650,新規,0,2025-11-04,2025-11-04,キューテックモータース株式会社,,株式会社,兵庫県,宍粟市,一宮町西深２７２－３,,28,227,6714125,,,,,,,2025-11-04,1,,,,,キューテックモータース,0
1884,7160001027185,新規,0,2025-11-04,2025-11-04,株式会社岡林,,株式会社,滋賀県,湖南市,岩根４９９番地１０１,,25,211,5203252,,,,,,,2025-11-04,1,,,,,オカバヤシ,0
1897,7180001169356,新規,0,2025-11-04,2025-11-04,株式会社剛健,,株式会社,愛知県,一宮市,木曽川町玉ノ井字大縄場六ノ切３７番地２,,23,203,4930004,,,,,,,2025-11-04,1,,,,,ゴウケン,0
1898,7180001169364,新規,0,2025-11-04,2025-11-04,株式会社サンフラット,,株式会社,愛知県,名古屋市天白区,西入町８２番地エトワール西入１０２号室,,23,116,4680039,,,,,,,2025-11-04,1,,,,,サンフラット,0
1899,7180001169389,新規,0,2025-11-04,2025-11-04,株式会社ＳＨＩＮＳＯＫＵ,,株式会社,愛知県,小牧市,藤島町徳願寺７７,,23,219,4850064,,,,,,,2025-11-04,1,,,,,シンソク,0
1904,7180003029310,新規,0,2025-11-04,2025-11-04,ＳＮ合同会社,,合同会社,愛知県,名古屋市北区,生駒町７丁目１４５番地の４,,23,103,4620832,,,,,,,2025-11-04,1,,,,,エスエヌ,0
1905,7180003029319,新規,0,2025-11-04,2025-11-04,アジュールテック合同会社,,合同会社,愛知県,常滑市,字古道東割４６番の５,,23,216,4790029,,,,,,,2025-11-04,1,,,,,アジュールテック,0
1910,7180303006777,新規,0,2025-11-04,2025-11-04,合同会社カワラコーポレーション,,合同会社,愛知県,豊川市,川花町３丁目２番地の４,,23,207,4420837,,,,,,,2025-11-04,1,,,,,,0
1911,7180303006793,新規,0,2025-11-04,2025-11-04,ＴＯＢＩ合同会社,,合同会社,愛知県,豊川市,為当町仲上４番地の４リアルストーン２０３号,,23,207,4420845,,,,,,,2025-11-04,1,,,,,,0
1915,7200003007123,新規,0,2025-11-04,2025-11-04,合同会社暁,,合同会社,岐阜県,高山市,片野町１丁目２７４－１ファミール片野Ｂ２０１,,21,203,5060824,,,,,,,2025-11-04,1,,,,,アカツキ,0
1918,7210005010231,新規,0,2025-11-04,2025-11-04,一般社団法人あわらトリムクラブ,,その他の設立登記法人,福井県,あわら市,国影第２３号１番地（あわら市農業者トレーニングセンター内）,,18,208,9104115,,,,,,,2025-11-04,1,,,,,アワラトリムクラブ,0
1934,7270001009321,新規,0,2025-11-04,2025-11-04,株式会社ＦＡＩＲＹ,,株式会社,鳥取県,鳥取市,湖山町北４丁目７１５番地,,31,201,6800941,,,,,,,2025-11-04,1,,,,,フェアリー,0
1943,7290003017626,新規,0,2025-11-04,2025-11-04,合同会社カピリナ,,合同会社,福岡県,久留米市,津福今町４８０番地８８,,40,203,8300061,,,,,,,2025-11-04,1,,,,,カピリナ,0
1945,7290803005202,新規,0,2025-11-04,2025-11-04,合同会社さたラボ,,合同会社,福岡県,北九州市小倉北区,白銀１丁目９番２１－１０６号,,40,106,8020074,,,,,,,2025-11-04,1,,,,,サタラボ,0
1947,7330003011285,新規,0,2025-11-04,2025-11-04,合同会社夢咲,,合同会社,熊本県,熊本市中央区,中央街２－３－６０２,,43,101,8600802,,,,,,,2025-11-04,1,,,,,ユメサキ,0
1950,7340001027745,新規,0,2025-11-04,2025-11-04,株式会社ニューウェィブ,,株式会社,鹿児島県,肝属郡肝付町,後田１２８０番地,,46,492,8931203,,,,,,,2025-11-04,1,,,,,ニューウェィブ,0
1976,7430001095568,新規,0,2025-11-04,2025-11-04,株式会社ぴーす,,株式会社,北海道,札幌市清田区,里塚緑ケ丘１２丁目２４６番地７,,01,110,0040805,,,,,,,2025-11-04,1,,,,,ピース,0
1979,7480001012997,新規,0,2025-11-04,2025-11-04,株式会社Ｓｏｕｔｈｅｒｎ　Ｃｒｏｓｓ,,株式会社,徳島県,美馬郡つるぎ町,貞光字江ノ脇５０番地２,,36,468,7794103,,,,,,,2025-11-04,1,,,,,,0
1981,7700150132755,新規,0,2025-11-04,2025-11-04,Ａｍｂｕ　Ｓｄｎ．Ｂｈｄ．,,外国会社等,,,,,,,,Ｌｉｎｔａｎｇ　Ｂａｙａｎ　Ｌｅｐａｓ　６　Ｐｈａｓｅ　ＩＶ，１１９００　Ｐｉｎａｎｇ　Ｍａｌａｙｓｉａ,00141350,,,,,2025-11-04,1,,,,,アンブエスデイーエヌビーエイチデイー,0
1982,7700150132763,新規,0,2025-11-04,2025-11-04,Ｖｉｚｔａ　Ｐｔｅ．Ｌｔｄ．,,外国会社等,,,,,,,,９　Ｂａｔｔｅｒｙ　Ｒｏａｄ，＃２８－０１，ＭＹＰ　Ｃｅｎｔｒｅ，Ｓｉｎｇａｐｏｒｅ　０４９９１０,,,,,,2025-11-04,1,,,,,ヴイズタプライベートリミテツド,0
1983,7700150132821,新規,0,2025-11-04,2025-11-04,ＪｉｅｂａｎｇＥｌｅｃｔｒｏｎｉｃＬｉｍｉｔｅｄ,,外国会社等,,,,,,,,ＨＯＮＧ　ＫＯＮＧ，Ｎｅｗ　Ｔｅｒｒｉｔｏｒｉｅｓ，１／Ｆ，９４　Ｓｉｕ　Ｈａｎｇ　Ｖｉｌｌａｇｅ，Ｆａｎｌｉｎｇ,,,,,,2025-11-04,1,,,,,ジエバンエレクトロニクスリミテツド,0
2001,8010001259791,新規,0,2025-11-04,2025-11-04,株式会社海神,,株式会社,東京都,千代田区,東神田２丁目８番地９リバーレ秋葉原７０２,,13,101,1010031,,,,,,,2025-11-04,1,,,,,カイシン,0
2002,8010001259924,新規,0,2025-11-04,2025-11-04,株式会社Ｎａｏｍｉｒａ,,株式会社,東京都,中央区,銀座１丁目１２番４号Ｎ＆ＥＢＬＤ．６Ｆ,,13,102,1040061,,,,,,,2025-11-04,1,,,,,ナオミラ,0
2006,8010003049183,新規,0,2025-11-04,2025-11-04,合同会社リンク,,合同会社,東京都,中央区,勝どき１丁目３番１－６０８号,,13,102,1040054,,,,,,,2025-11-04,1,,,,,リンク,0
2007,8010003049200,新規,0,2025-11-04,2025-11-04,合同会社デザインオフィスユーホー,,合同会社,東京都,中央区,日本橋兜町９番５号,,13,102,1030026,,,,,,,2025-11-04,1,,,,,デザインオフィスユーホー,0
2008,8010003049258,新規,0,2025-11-04,2025-11-04,合同会社ピタゴラス,,合同会社,東京都,中央区,銀座１丁目１２番４号,,13,102,1040061,,,,,,,2025-11-04,1,,,,,ピタゴラス,0
2012,8010101016944,新規,0,2025-11-04,2025-11-04,株式会社メディアテック,,株式会社,東京都,八王子市,館町１０９０番地３レオパレストミーズ１０１号,,13,201,1930944,,,,,,,2025-11-04,1,,,,,メディアテック,0
2022,8010401194325,新規,0,2025-11-04,2025-11-04,株式会社ザイマックスアーキテックス,,株式会社,東京都,港区,赤坂１丁目１番１号,,13,103,1070052,,,,,,,2025-11-04,1,,,,,ザイマックスアーキテックス,0
2024,8010403036491,新規,0,2025-11-04,2025-11-04,合同会社嵐,,合同会社,東京都,港区,東京都港区北青山一丁目３番１号アールキューブ青山３階,,13,103,1050000,,,,,,,2025-11-04,1,,,,,アラシ,0
2030,8010603011897,新規,0,2025-11-04,2025-11-04,Ａｕｒａｊｅｓｔｙ合同会社,,合同会社,東京都,江東区,佐賀１丁目６‐７リージア門前仲町９０２,,13,108,1350031,,,,,,,2025-11-04,1,,,,,オーラジェスティ,0
2031,8010701048560,新規,0,2025-11-04,2025-11-04,株式会社Ｓｃｒａｔｃｈ,,株式会社,東京都,品川区,東中延１丁目９番１３号ザ・パークハビオ荏原中延駅前１階,,13,109,1420052,,,,,,,2025-11-04,1,,,,,スクラッチ,0
2037,8011001173231,新規,0,2025-11-04,2025-11-04,株式会社シナリオＸ,,株式会社,東京都,渋谷区,道玄坂１丁目１０番８号渋谷道玄坂東急ビル２Ｆ－Ｃ,,13,113,1500043,,,,,,,2025-11-04,1,,,,,シナリオエックス,0
2038,8011001173289,新規,0,2025-11-04,2025-11-04,株式会社Ｒｅｓｔ＆Ｒｅｃｒｅａｔｉｏｎ,,株式会社,東京都,渋谷区,神宮前６丁目２３番４号桑野ビル２階,,13,113,1500001,,,,,,,2025-11-04,1,,,,,レストアンドレクリエーション,0
2039,8011003022782,新規,0,2025-11-04,2025-11-04,ＨｕｕＨｕｂ合同会社,,合同会社,東京都,渋谷区,渋谷２丁目１９－１５宮益坂ビルディング６０９,,13,113,1500002,,,,,,,2025-11-04,1,,,,,フーハブ,0
2045,8011101113723,新規,0,2025-11-04,2025-11-04,株式会社ＴＯＷＡＬａｂ,,株式会社,東京都,新宿区,西新宿８丁目１７番１号住友不動産新宿グランドタワー３１階,,13,104,1600023,,,,,,,2025-11-04,1,,,,,トワラボ,0
2046,8011101113780,新規,0,2025-11-04,2025-11-04,株式会社７３,,株式会社,東京都,新宿区,歌舞伎町２丁目４６番８号日章ビル４階,,13,104,1600021,,,,,,,2025-11-04,1,,,,,セブンティスリー,0
2047,8011101113797,新規,0,2025-11-04,2025-11-04,株式会社ＴＢＫ　ＧＬＯＢＡＬ　ＴＡＢＬＥ,,株式会社,東京都,新宿区,市谷砂土原町３丁目５番地,,13,104,1620842,,,,,,,2025-11-04,1,,,,,ティービーケーグローバルテーブル,0
2050,8011401027540,新規,0,2025-11-04,2025-11-04,株式会社ネクスト・グリーン,,株式会社,東京都,板橋区,志村１丁目２５番２１号,,13,119,1740056,,,,,,,2025-11-04,1,,,,,ネクストグリーン,0
2073,8020001165576,新規,0,2025-11-04,2025-11-04,株式会社アルファ,,株式会社,神奈川県,横浜市神奈川区,羽沢町１２４１番地６,,14,102,2210863,,,,,,,2025-11-04,1,,,,,アルファ,0
2074,8020001165642,新規,0,2025-11-04,2025-11-04,株式会社ＤＫ,,株式会社,神奈川県,横浜市中区,寿町１丁目１番地１１,,14,104,2310026,,,,,,,2025-11-04,1,,,,,ディーケー,0
2086,8030001169287,新規,0,2025-11-04,2025-11-04,株式会社利益,,株式会社,埼玉県,南埼玉郡宮代町,東姫宮１丁目９番１６－４号,,11,442,3450813,,,,,,,2025-11-04,1,,,,,リエキ,0
2087,8030001169493,新規,0,2025-11-04,2025-11-04,株式会社カーサリコルド,,株式会社,埼玉県,越谷市,東越谷１０丁目１０３番地１７,,11,222,3430023,,,,,,,2025-11-04,1,,,,,カーサリコルド,0
2088,8030001169502,新規,0,2025-11-04,2025-11-04,株式会社リプラスタイヤ,,株式会社,埼玉県,さいたま市大宮区,櫛引町１丁目８００番地２,,11,103,3300851,,,,,,,2025-11-04,1,,,,,リプラスタイヤ,0
2089,8030001169510,新規,0,2025-11-04,2025-11-04,株式会社パラアクティブリンク,,株式会社,埼玉県,川越市,大字木野目４０８番地４,,11,201,3500016,,,,,,,2025-11-04,1,,,,,パラアクティブリンク,0
2093,8030003027996,新規,0,2025-11-04,2025-11-04,Ｔ＆Ｔ合同会社,,合同会社,埼玉県,さいたま市南区,別所２丁目３７－１５プラウド浦和別所７０２,,11,108,3360021,,,,,,,2025-11-04,1,,,,,ティーアンドティー,0
2094,8030005022327,新規,0,2025-11-04,2025-11-04,医療法人社団善光会,,その他の設立登記法人,埼玉県,朝霞市,本町２丁目４番１８号バモス４Ｆ－Ｂ,,11,227,3510011,,,,,,,2025-11-04,1,,,,,ゼンコウカイ,0
2102,8040001141245,新規,0,2025-11-04,2025-11-04,株式会社ＥＭＥ’ｓ　ＣＲＡＦＴ,,株式会社,千葉県,富津市,大堀１丁目７番地２１,,12,226,2930001,,,,,,,2025-11-04,1,,,,,エメズクラフト,0
2103,8040001141278,新規,0,2025-11-04,2025-11-04,株式会社Ａｌｐｈａｂａｓｅ,,株式会社,千葉県,君津市,南久保１丁目１３－１５,,12,225,2991154,,,,,,,2025-11-04,1,,,,,アルファベース,0
2113,8040005022920,新規,0,2025-11-04,2025-11-04,医療法人社団育援会,,その他の設立登記法人,千葉県,千葉市稲毛区,小仲台２丁目６番１号２階,,12,103,2630043,,,,,,,2025-11-04,1,,,,,イクエンカイ,0
2124,8060003005826,新規,0,2025-11-04,2025-11-04,合同会社あんじゅ産業医パートナーズ,,合同会社,栃木県,宇都宮市,南大通り１丁目１－３サーパス南大通りグランゲート８０４号室,,09,201,3210963,,,,,,,2025-11-04,1,,,,,アンジュサンギョウイパートナーズ,0
2139,8120001281636,新規,0,2025-11-04,2025-11-04,ｎｕｍｂｅｒｓｉｇｎ株式会社,,株式会社,大阪府,大阪市北区,芝田２丁目８番１１号共栄ビル３Ｆ,,27,127,5300012,,,,,,,2025-11-04,1,,,,,ナンバーサイン,0
2140,8120001281660,新規,0,2025-11-04,2025-11-04,瑪雅製薬設備株式会社,,株式会社,大阪府,大阪市旭区,太子橋１丁目２２番２－４０７号,,27,117,5350001,,,,,,,2025-11-04,1,,,,,マヤセイヤクセツビ,0
2141,8120001281669,新規,0,2025-11-04,2025-11-04,株式会社Ｒｉａｌｔｏ,,株式会社,大阪府,大阪市北区,西天満５丁目１４番７号１階,,27,127,5300047,,,,,,,2025-11-04,1,,,,,リアルト,0
2142,8120001281685,新規,0,2025-11-04,2025-11-04,株式会社ＡＲＫ,,株式会社,大阪府,大阪市中央区,常盤町２丁目３－８レオンコンフォート本町東７０２,,27,128,5400028,,,,,,,2025-11-04,1,,,,,アーク,0
2162,8180001169322,新規,0,2025-11-04,2025-11-04,株式会社アンスレーヴ,,株式会社,愛知県,名古屋市東区,東桜１丁目９番３５号大脇ビル４階,,23,102,4610005,,,,,,,2025-11-04,1,,,,,アンスレーヴ,0
2164,8180003029318,新規,0,2025-11-04,2025-11-04,合同会社Ｍ’ｓプランニング,,合同会社,愛知県,名古屋市東区,葵３丁目２５番５号,,23,102,4610004,,,,,,,2025-11-04,1,,,,,エムズプランニング,0
2168,8180301040372,新規,0,2025-11-04,2025-11-04,株式会社Ｏｈｉｓａｍａ　Ｈｅａｒｔ,,株式会社,愛知県,碧南市,鷲林町１丁目３番アン・ミルエル服部不動産１０１号室,,23,209,4470802,,,,,,,2025-11-04,1,,,,,オヒサマハート,0
2172,8200001044381,新規,0,2025-11-04,2025-11-04,株式会社アグリ・オノ,,株式会社,岐阜県,養老郡養老町,下笠９２２番地,,21,341,5031384,,,,,,,2025-11-04,1,,,,,アグリオノ,0
2179,8260001040689,新規,0,2025-11-04,2025-11-04,株式会社オートトレックジャパン,,株式会社,岡山県,岡山市北区,下伊福西町７番３２号いわいサンコーポ６１１号,,33,101,7000054,,,,,,,2025-11-04,1,,,,,オートトレックジャパン,0
2182,8270001009320,新規,0,2025-11-04,2025-11-04,株式会社ＬＩＶＴＯ,,株式会社,鳥取県,鳥取市,青葉町３丁目１０１番地,,31,201,6800802,,,,,,,2025-11-04,1,,,,,リヴト,0
2185,8290001111784,新規,0,2025-11-04,2025-11-04,株式会社福岡ファッション協会,,株式会社,福岡県,福岡市中央区,天神２丁目２番１２号,,40,133,8100001,,,,,,,2025-11-04,1,,,,,フクオカファッションキョウカイ,0
2186,8290001111958,新規,0,2025-11-04,2025-11-04,株式会社桃乃香,,株式会社,福岡県,みやま市,瀬高町本郷１８２３番地１,,40,229,8350021,,,,,,,2025-11-04,1,,,,,モモカ,0
2187,8290001111982,新規,0,2025-11-04,2025-11-04,長谷川鉄工株式会社,,株式会社,福岡県,福岡市西区,女原北１４番１７号,,40,135,8190377,,,,,,,2025-11-04,1,,,,,ハセガワテッコウ,0
2188,8290001111999,新規,0,2025-11-04,2025-11-04,株式会社ＹＯＵＴＯ,,株式会社,福岡県,福岡市博多区,中洲５丁目１番２２号博多人形会館松月堂ビル４階ＭＩＬＬ,,40,132,8100801,,,,,,,2025-11-04,1,,,,,ユート,0
2189,8290001112023,新規,0,2025-11-04,2025-11-04,株式会社豊田不動産,,株式会社,福岡県,福岡市博多区,美野島３丁目１３番５号上野ビル３０３号室,,40,132,8120017,,,,,,,2025-11-04,1,,,,,トヨタフドウサン,0
2191,8290003017633,新規,0,2025-11-04,2025-11-04,合同会社ｍｉｒａｙ,,合同会社,福岡県,福岡市博多区,対馬小路１３番２６－５０２号クレセントビル,,40,132,8120020,,,,,,,2025-11-04,1,,,,,ミレイ,0
2197,8330001033719,新規,0,2025-11-04,2025-11-04,株式会社Ｓｉｇｎｅ,,株式会社,熊本県,熊本市中央区,新屋敷３丁目８番６号,,43,101,8620975,,,,,,,2025-11-04,1,,,,,シグネ,0
2198,8330003011284,新規,0,2025-11-04,2025-11-04,合同会社ＹＡＭＡＫＩ,,合同会社,熊本県,荒尾市,荒尾４４５５－２２,,43,204,8640041,,,,,,,2025-11-04,1,,,,,ヤマキ,0
2199,8330003011292,新規,0,2025-11-04,2025-11-04,合同会社松永商店,,合同会社,熊本県,熊本市中央区,妙体寺町２番３号－８０１,,43,101,8600856,,,,,,,2025-11-04,1,,,,,マツナガショウテン,0
2204,8370001053192,新規,0,2025-11-04,2025-11-04,ルーパーツ株式会社,,株式会社,宮城県,仙台市青葉区,荒巻字青葉４６８－１東北大学マテリアル・イノベーション・センター青葉山ガレージ,,04,101,9800845,,,,,,,2025-11-04,1,,,,,ルーパーツ,0
2212,8430005015348,新規,0,2025-11-04,2025-11-04,ＩＧＮＩＱ税理士法人,,その他の設立登記法人,北海道,札幌市中央区,大通西７丁目１番地１井門札幌パークフロントビル９階,,01,101,0600042,,,,,,,2025-11-04,1,,,,,イグニック,0
2216,8470001020959,新規,0,2025-11-04,2025-11-04,株式会社Ｃｈｅｒｉ,,株式会社,香川県,高松市,福岡町３丁目２４番３号,,37,201,7600066,,,,,,,2025-11-04,1,,,,,シェリ,0
2220,8700150132754,新規,0,2025-11-04,2025-11-04,Ｕｎｉｖｅｒｓｉｔｙ　ｏｆ　Ｓｕｓｓｅｘ,,外国会社等,,,,,,,,Ｓｕｓｓｅｘ　Ｈｏｕｓｅ，Ｆａｌｍｅｒ，Ｂｒｉｇｈｔｏｎ，ＢＮ１　９ＲＨ，ＵＫ,,,,,,2025-11-04,1,,,,,ユーニバーシテイーオブサセクス,0
2221,8700150132762,新規,0,2025-11-04,2025-11-04,Ｐａｌｄｏ　Ｃｏｍｐａｎｙ　Ｌｉｍｉｔｅｄ,,外国会社等,東京都,千代田区,神田小川町１丁目１－２３　イルヴィアーレ神田小川町ビル１００１号室,,13,101,1010052,ソウル特別市瑞草区河南路５７７,,,,,,2025-11-04,1,,,,,パルドカンパニーリミテツド,0
2222,8700150132820,新規,0,2025-11-04,2025-11-04,比比托游戯有限公司,,外国会社等,,,,,,,,ＦＬＡＴ／ＲＭ　７０２　７／Ｆ　ＫＯＷＬＯＯＮ　ＢＵＩＬＤＩＮＧ　５５５　ＮＡＴＨＡＮ　ＲＯＡＤ　ＫＬ,,,,,,2025-11-04,1,,,,,ビビツトゲームス,0
2232,9010001259790,新規,0,2025-11-04,2025-11-04,株式会社ＤＳコンサルティング,,株式会社,東京都,中央区,銀座１丁目１２－４Ｎ＆ＥＢＬＤ．６Ｆ,,13,102,1040061,,,,,,,2025-11-04,1,,,,,ディーエス,0
2233,9010001259907,新規,0,2025-11-04,2025-11-04,株式会社オクタフォート,,株式会社,東京都,中央区,日本橋２丁目１６番４号ｒｅｍｉｘ日本橋６Ｆ,,13,102,1030027,,,,,,,2025-11-04,1,,,,,オクタフォート,0
2234,9010001259931,新規,0,2025-11-04,2025-11-04,Ｉｎｉｔｉａ　Ｒｏｏｔｓ株式会社,,株式会社,東京都,千代田区,岩本町３丁目８番１１号竹内ビル３階,,13,101,1010032,,,,,,,2025-11-04,1,,,,,イニシアルーツ,0
2235,9010001259948,新規,0,2025-11-04,2025-11-04,小林ハードウェア株式会社,,株式会社,東京都,中央区,日本橋茅場町２丁目６番１号日経茅場町別館３階,,13,102,1030025,,,,,,,2025-11-04,1,,,,,コバヤシハードウェア,0
2236,9010001259972,新規,0,2025-11-04,2025-11-04,株式会社レグルスインベスコ,,株式会社,東京都,中央区,日本橋茅場町３丁目２番２号ＥＫＫビル,,13,102,1030025,,,,,,,2025-11-04,1,,,,,レグルスインベスコ,0
2237,9010001259997,新規,0,2025-11-04,2025-11-04,Ｆａｂｉｏ株式会社,,株式会社,東京都,中央区,明石町１番７号,,13,102,1040044,,,,,,,2025-11-04,1,,,,,ファビオ,0
2243,9010003049166,新規,0,2025-11-04,2025-11-04,ＪＤＭ　ＨＥＲＩＴＡＧＥ合同会社,,合同会社,東京都,中央区,晴海４丁目７番４号,,13,102,1040053,,,,,,,2025-11-04,1,,,,,ジェイディーエムヘリテイジ,0
2244,9010003049174,新規,0,2025-11-04,2025-11-04,合同会社カルネア,,合同会社,東京都,千代田区,神田神保町３丁目１１番６号神保町ビル１０階,,13,101,1010051,,,,,,,2025-11-04,1,,,,,カルネア,0
2255,9010401193631,新規,0,2025-11-04,2025-11-04,株式会社ファーストラボ,,株式会社,東京都,港区,虎ノ門２丁目３番１７号虎ノ門二丁目タワー１９階,,13,103,1050001,,,,,,,2025-11-04,1,,,,,ファーストラボ,0
2256,9010401194076,新規,0,2025-11-04,2025-11-04,株式会社ＣＹＡＮＯＴＹＰＥ,,株式会社,東京都,港区,南青山３丁目１番３６号青山丸竹ビル６Ｆ,,13,103,1070062,,,,,,,2025-11-04,1,,,,,サイアノタイプ,0
2257,9010401194266,新規,0,2025-11-04,2025-11-04,マーケのまど株式会社,,株式会社,東京都,港区,北青山１丁目３番１号アールキューブ青山３階,,13,103,1070061,,,,,,,2025-11-04,1,,,,,マーケノマド,0
2261,9010403036276,新規,0,2025-11-04,2025-11-04,合同会社ねこねこカンパニー,,合同会社,東京都,港区,東新橋１丁目１０－２－１６０５,,13,103,1050021,,,,,,,2025-11-04,1,,,,,ネコネコカンパニー,0
2263,9010403036490,新規,0,2025-11-04,2025-11-04,ＢＡＳＥ　Ｍｋａｌｕｎｇ合同会社,,合同会社,東京都,港区,南青山３丁目１番３６号青山丸竹ビル６Ｆ,,13,103,1070062,,,,,,,2025-11-04,1,,,,,ベイスカルン,0
2267,9010501054964,新規,0,2025-11-04,2025-11-04,ＡＬＩＯＮ株式会社,,株式会社,東京都,台東区,上野１丁目１７番６号広小路ビル８Ｆ－Ｂ,,13,106,1100005,,,,,,,2025-11-04,1,,,,,アリオン,0
2271,9010601068229,新規,0,2025-11-04,2025-11-04,ワイズファクトリー株式会社,,株式会社,東京都,江東区,亀戸７丁目３９番１１号,,13,108,1360071,,,,,,,2025-11-04,1,,,,,ワイズファクトリー,0
2273,9010603011896,新規,0,2025-11-04,2025-11-04,合同会社クレインライト,,合同会社,東京都,江東区,南砂２丁目１１番１５号,,13,108,1360076,,,,,,,2025-11-04,1,,,,,クレインライト,0
2275,9010701048543,新規,0,2025-11-04,2025-11-04,株式会社ＫＡＧＥＨＩＲＯ,,株式会社,東京都,品川区,荏原５丁目７番１６号,,13,109,1420063,,,,,,,2025-11-04,1,,,,,カゲヒロ,0
2281,9011001173420,新規,0,2025-11-04,2025-11-04,株式会社ノーダス,,株式会社,東京都,目黒区,自由が丘１丁目１６－１８,,13,110,1520035,,,,,,,2025-11-04,1,,,,,ノーダス,0
2282,9011001173486,新規,0,2025-11-04,2025-11-04,株式会社ＦｉｒｓｔＵ,,株式会社,東京都,渋谷区,渋谷１丁目１９番１８号,,13,113,1500002,,,,,,,2025-11-04,1,,,,,ファーストユー,0
2283,9011003022773,新規,0,2025-11-04,2025-11-04,合同会社ＡＩＲｅ,,合同会社,東京都,渋谷区,道玄坂１丁目１０番８号渋谷道玄坂東急ビル２Ｆ－Ｃ,,13,113,1500043,,,,,,,2025-11-04,1,,,,,アイリ,0
2284,9011003022897,新規,0,2025-11-04,2025-11-04,Ｑｕａｎｔｕｍ　Ｃｏｎｓｕｌｔｉｎｇ合同会社,,合同会社,東京都,渋谷区,恵比寿西２丁目４番８号ウィンド恵比寿ビル８Ｆ,,13,113,1500021,,,,,,,2025-11-04,1,,,,,クォンタムコンサルティング,0
2285,9011101113763,新規,0,2025-11-04,2025-11-04,株式会社Ｍｙｎｉｎｋｕ新宿,,株式会社,東京都,新宿区,新宿１丁目２８番８号,,13,104,1600022,,,,,,,2025-11-04,1,,,,,マイニンクシンジュク,0
2290,9011503006763,新規,0,2025-11-04,2025-11-04,ｉｍｐｕｌｓｅ合同会社,,合同会社,東京都,北区,浮間３丁目１６番１２－１０４号,,13,117,1150051,,,,,,,2025-11-04,1,,,,,インパルス,0
2294,9011801046940,新規,0,2025-11-04,2025-11-04,Ｈｉｎｏｋｉ株式会社,,株式会社,東京都,足立区,足立１丁目９－３グリーンパーク第３五反野２０３,,13,121,1200015,,,,,,,2025-11-04,1,,,,,ヒノキ,0
2295,9011801046998,新規,0,2025-11-04,2025-11-04,株式会社よつはのて,,株式会社,東京都,足立区,本木１丁目２３番２１号,,13,121,1230853,,,,,,,2025-11-04,1,,,,,ヨツハノテ,0
2296,9011803007148,新規,0,2025-11-04,2025-11-04,合同会社Ａｎｃｈｏｒ,,合同会社,東京都,足立区,江北４丁目１９－９足立区江北戸建,,13,121,1230872,,,,,,,2025-11-04,1,,,,,アンカー,0
2299,9012701019169,新規,0,2025-11-04,2025-11-04,株式会社アンカー,,株式会社,東京都,東村山市,萩山町２丁目１６番地４－１０５,,13,213,1890012,,,,,,,2025-11-04,1,,,,,アンカー,0
2312,9020001165518,新規,0,2025-11-04,2025-11-04,株式会社Ｆ’ｓコーポレーション,,株式会社,神奈川県,横浜市港北区,新横浜２丁目５番１０号楓第２ビル９階Ｂ室,,14,109,2220033,,,,,,,2025-11-04,1,,,,,エフズコーポレーション,0
2313,9020001165575,新規,0,2025-11-04,2025-11-04,ＧＡコンサルティング株式会社,,株式会社,神奈川県,横浜市西区,みなとみらい２丁目２番１号横浜ランドマークタワー２１階,,14,103,2200012,,,,,,,2025-11-04,1,,,,,ジーエーコンサルティング,0
2314,9020001165633,新規,0,2025-11-04,2025-11-04,株式会社和魂,,株式会社,神奈川県,川崎市宮前区,東有馬４丁目１９番１－２０１号ルミエール鷺沼,,14,136,2160002,,,,,,,2025-11-04,1,,,,,ワコン,0
2315,9020001165641,新規,0,2025-11-04,2025-11-04,株式会社とみ,,株式会社,神奈川県,横浜市青葉区,たちばな台２丁目１７番地５,,14,117,2270046,,,,,,,2025-11-04,1,,,,,トミ,0
2320,9021001086737,新規,0,2025-11-04,2025-11-04,株式会社Ｓｅｒｅｎｉｔｙ　Ｗｏｒｋｓ,,株式会社,神奈川県,藤沢市,藤沢５４８番地の１,,14,205,2510052,,,,,,,2025-11-04,1,,,,,セレニティワークス,0
2331,9030003027979,新規,0,2025-11-04,2025-11-04,ＧＥＮＩＥ　ＰＬＡＮ合同会社,,合同会社,埼玉県,川越市,脇田町６番３号エストゥディオ尾高３０３号,,11,201,3501122,,,,,,,2025-11-04,1,,,,,ジニプラン,0
2332,9030003027995,新規,0,2025-11-04,2025-11-04,合同会社浜野商事,,合同会社,埼玉県,川口市,前川２丁目１０－３－１,,11,203,3330842,,,,,,,2025-11-04,1,,,,,ハマノショウジ,0
2339,9040001141236,新規,0,2025-11-04,2025-11-04,株式会社Ｖｉｓａｌａｍｍ,,株式会社,千葉県,千葉市稲毛区,園生町１３１２番地１ルネサンスアリーナ稲毛１０１２号,,12,103,2630051,,,,,,,2025-11-04,1,,,,,ヴィサラム,0
2340,9040001141244,新規,0,2025-11-04,2025-11-04,株式会社デルタ・アドバイザーズ,,株式会社,千葉県,千葉市中央区,松波３丁目７－４,,12,101,2600044,,,,,,,2025-11-04,1,,,,,デルタアドバイザーズ,0
2354,9070001043504,新規,0,2025-11-04,2025-11-04,株式会社Ｆｏｕｒ’Ｓ　ＨＤ,,株式会社,群馬県,前橋市,天川大島町１２１４番地,,10,201,3792154,,,,,,,2025-11-04,1,,,,,フォースホールディングス,0
2366,9090003002927,新規,0,2025-11-04,2025-11-04,合同会社ｐｏｌｅｐｏｌｅ,,合同会社,山梨県,甲府市,蓬沢町９５８－０－ｆｏｒｅｓｔ２２０１号室,,19,201,4000824,,,,,,,2025-11-04,1,,,,,ポレポレ,0
2368,9100001039069,新規,0,2025-11-04,2025-11-04,株式会社ルミナス,,株式会社,長野県,岡谷市,川岸上１丁目１３番１９号,,20,204,3940048,,,,,,,2025-11-04,1,,,,,ルミナス,0
2369,9100001039085,新規,0,2025-11-04,2025-11-04,株式会社Ｆｏｒｅｓｔ　Ｐａｒｔｎｅｒｓ,,株式会社,長野県,北佐久郡軽井沢町,大字長倉字東原６８１番地５８,,20,321,3890111,,,,,,,2025-11-04,1,,,,,フォレストパートナーズ,0
2376,9120001281635,新規,0,2025-11-04,2025-11-04,暢享奢品株式会社,,株式会社,大阪府,大阪市中央区,農人橋２丁目１番３１号－７７７,,27,128,5400011,,,,,,,2025-11-04,1,,,,,チョウキョウシャヒン,0
2377,9120001281643,新規,0,2025-11-04,2025-11-04,株式会社天麩羅まつやま,,株式会社,大阪府,大阪市中央区,千日前１丁目１番７号１Ｆ,,27,128,5420074,,,,,,,2025-11-04,1,,,,,テンプラマツヤマ,0
2378,9120001281651,新規,0,2025-11-04,2025-11-04,ムルーデル不動産販売株式会社,,株式会社,大阪府,大阪市中央区,南本町４丁目５番７号東亜ビル５階,,27,128,5410054,,,,,,,2025-11-04,1,,,,,ムルーデルフドウサンハンバイ,0
2379,9120001281676,新規,0,2025-11-04,2025-11-04,株式会社ＬＵＭＩＮＡ,,株式会社,大阪府,大阪市中央区,日本橋１丁目２２番２０号黒門レジデンス１０２,,27,128,5420073,,,,,,,2025-11-04,1,,,,,ルミナ,0
2380,9120001281684,新規,0,2025-11-04,2025-11-04,無限開拓株式会社,,株式会社,大阪府,大阪市鶴見区,浜２丁目２番４０号,,27,124,5380035,,,,,,,2025-11-04,1,,,,,ムゲンカイタク,0
2382,9120003031146,新規,0,2025-11-04,2025-11-04,合同会社ｖｅｔｉｖｅｔｙ,,合同会社,大阪府,大阪市中央区,本町２丁目３番４号アソルティ本町４Ｆ,,27,128,5410053,,,,,,,2025-11-04,1,,,,,ヴィテヴェティ,0
2388,9120101072678,新規,0,2025-11-04,2025-11-04,秋雨貿易株式会社,,株式会社,大阪府,堺市堺区,中安井町２丁１番１９号,,27,141,5900063,,,,,,,2025-11-04,1,,,,,シュウウボウエキ,0
2389,9120101072728,新規,0,2025-11-04,2025-11-04,株式会社ｇｒｏｗｂｉｔ,,株式会社,大阪府,松原市,阿保１丁目４番１２－１０１号,,27,217,5800043,,,,,,,2025-11-04,1,,,,,グロウビット,0
2393,9120901051749,新規,0,2025-11-04,2025-11-04,株式会社ＳＬホールディングス,,株式会社,大阪府,吹田市,豊津町９番１号,,27,205,5640051,,,,,,,2025-11-04,1,,,,,エスエルホールディングス,0
2407,9130001080904,新規,0,2025-11-04,2025-11-04,株式会社新譚舎,,株式会社,京都府,京都市下京区,小稲荷町８５－２Ｇｒａｎｄ－Ｋ京都駅前ビル２０１,,26,106,6008208,,,,,,,2025-11-04,1,,,,,シンタンシャ,0
2420,9160005011464,新規,0,2025-11-04,2025-11-04,特定非営利活動法人うごくずこうしつ,,その他の設立登記法人,滋賀県,草津市,新堂町１９２,,25,206,5250013,,,,,,,2025-11-04,1,,,,,ウゴクズコウシツ,0
2422,9170001018859,新規,0,2025-11-04,2025-11-04,株式会社ＰＡＴＨＦＩＮＤＥＲＳ,,株式会社,和歌山県,和歌山市,加納３８２番地１３,,30,201,6408391,,,,,,,2025-11-04,1,,,,,パスファインダース,0
2434,9180001169370,新規,0,2025-11-04,2025-11-04,株式会社アヴァンガーデン,,株式会社,愛知県,江南市,前飛保町栄１７６番地,,23,217,4838341,,,,,,,2025-11-04,1,,,,,アヴァンガーデン,0
2442,9180003029317,新規,0,2025-11-04,2025-11-04,合同会社Ａｉｍプランニング,,合同会社,愛知県,名古屋市東区,葵３丁目２５番５号,,23,102,4610004,,,,,,,2025-11-04,1,,,,,アイムプランニング,0
2443,9180003029325,新規,0,2025-11-04,2025-11-04,合同会社Ｏｋｋｅｙ,,合同会社,愛知県,名古屋市中村区,名駅４丁目２４番５号第２森ビル４０１,,23,105,4500002,,,,,,,2025-11-04,1,,,,,オッキー,0
2453,9220005009015,新規,0,2025-11-04,2025-11-04,一般社団法人金沢さくら,,その他の設立登記法人,石川県,金沢市,桜町１９番１９号,,17,201,9200923,,,,,,,2025-11-04,1,,,,,カナザワサクラ,0
2459,9240001065720,新規,0,2025-11-04,2025-11-04,株式会社あすなろ,,株式会社,広島県,山県郡北広島町,有田９３３番地４,,34,369,7311533,,,,,,,2025-11-04,1,,,,,アスナロ,0
2469,9290001111957,新規,0,2025-11-04,2025-11-04,ｏｒｉｇｉｎａｌｓ　ｃｏｍｐａｎｙ株式会社,,株式会社,福岡県,大牟田市,本町１丁目５番地６,,40,202,8360046,,,,,,,2025-11-04,1,,,,,オリジナルズカンパニー,0
2470,9290001111981,新規,0,2025-11-04,2025-11-04,株式会社ＭＥＧＵＲＩ,,株式会社,福岡県,朝倉市,三奈木１３４３番地１,,40,228,8380023,,,,,,,2025-11-04,1,,,,,メグリ,0
2471,9290001112022,新規,0,2025-11-04,2025-11-04,株式会社桃佳,,株式会社,福岡県,糸島市,志摩師吉１２００番地,,40,230,8191314,,,,,,,2025-11-04,1,,,,,モモヨシ,0
2485,9330003011283,新規,0,2025-11-04,2025-11-04,ＡＲＷ合同会社,,合同会社,熊本県,熊本市中央区,神水２丁目２０番８号,,43,101,8620954,,,,,,,2025-11-04,1,,,,,アロウ,0
2504,9430001095574,新規,0,2025-11-04,2025-11-04,株式会社飛翔,,株式会社,北海道,夕張郡栗山町,字中里７０番地２０,,01,429,0691522,,,,,,,2025-11-04,1,,,,,ヒショウ,0
2517,9700150132753,新規,0,2025-11-04,2025-11-04,ＡＭＩＴＡ　ＣＩＲＣＵＬＡＲ　ＤＥＳＩＧＮ　ＳＤＮ．ＢＨＤ．,,外国会社等,東京都,千代田区,神田駿河台４丁目３番地新お茶の水ビルディング１２階,,13,101,1010062,マレーシア、クアラルンプール連邦直轄領、タマン・トゥン・ドクター・イスマイル、ワン・カディル３通り、ＴＴＤＩプラザ、ユニットＡ－３－６,,,,,,2025-11-04,1,,,,,アミタサーキユラーデザイン,0
2518,9700150132761,新規,0,2025-11-04,2025-11-04,Ｒｉｖｅｓｓｅｎｃｅ　Ｃｏ．，Ｌｔｄ．,,外国会社等,,,,,,,,サモア独立国　アピア、ル・サナレレ・コンプレックス、インターショア、スイート,,,,,,2025-11-04,1,,,,,リヴエセンス,0
