sequenceNumber,corporateNumber,process,correct,updateDate,changeDate,name,nameImageId,kind,prefectureName,cityName,streetNumber,addressImageId,prefectureCode,cityCode,postCode,addressOutside,addressOutsideImageId,closeDate,closeCause,successorCorporateNumber,changeCause,assignmentDate,latest,enName,enPrefectureName,enCityName,enAddressOutside,furigana,hihyoji
10,1010001091680,登記記録の閉鎖等,0,2024-05-13,2024-05-01,株式会社ル・ミューゼハタ,,株式会社,東京都,中央区,銀座４丁目４番５号,,13,102,1040061,,,2024-05-01,合併による解散等,1010001054761,令和６年５月１日東京都中央区銀座四丁目４番５号籏保全株式会社（1010001054761）に合併し解散,2015-10-05,1,,,,,ルミューゼハタ,0
13,1010001144892,登記記録の閉鎖等,0,2024-05-13,2024-04-26,株式会社ステラ・テクノロジー,,株式会社,東京都,千代田区,九段北３丁目２番６号,,13,101,1020073,,,2024-04-26,清算の結了等,,,2015-10-05,1,,,,,ステラテクノロジー,0
20,1010002011729,登記記録の閉鎖等,0,2024-05-13,2024-04-16,有限会社静雅堂,,有限会社,東京都,千代田区,有楽町１丁目１０番１号有楽町ビル内,,13,101,1000006,,,2024-04-16,清算の結了等,,,2015-10-05,1,,,,,セイガドウ,0
21,1010005011486,登記記録の閉鎖等,0,2024-05-13,2024-05-10,多摩堤一般社団法人,,その他の設立登記法人,東京都,千代田区,丸の内３丁目１番１号東京共同会計事務所内,,13,101,1000005,,,2024-05-10,清算の結了等,,,2015-10-05,1,,,,,タマツツミ,0
28,1010401136325,登記記録の閉鎖等,0,2024-05-13,2024-04-19,株式会社レヴィア,,株式会社,東京都,渋谷区,神南１丁目１２番１４号渋谷宮田ビル６階,,13,113,1500041,,,2024-04-19,清算の結了等,,,2018-01-30,1,,,,,レヴィア,0
42,1010602013100,登記記録の閉鎖等,0,2024-05-13,2024-04-30,司商事有限会社,,有限会社,東京都,墨田区,両国３丁目２５番６号,,13,107,1300026,,,2024-04-30,清算の結了等,,,2015-10-05,1,,,,,ツカサショウジ,0
45,1010801031563,登記記録の閉鎖等,0,2024-05-13,2024-04-26,ＨＣ　Ｂｉｚ株式会社,,株式会社,東京都,大田区,西蒲田７丁目５１番３－５０４号,,13,111,1440051,,,2024-04-26,清算の結了等,,,2021-01-06,1,,,,,エイチシービズ,0
49,1010902014723,登記記録の閉鎖等,0,2024-05-13,2024-05-01,有限会社三嶽産業,,有限会社,東京都,世田谷区,成城４丁目１１番２１号,,13,112,1570066,,,2024-05-01,清算の結了等,,,2015-10-05,1,,,,,ミタケサンギョウ,0
57,1011101026898,登記記録の閉鎖等,0,2024-05-13,2024-04-24,株式会社三英,,株式会社,東京都,文京区,関口１丁目２１番２号安藤ビル,,13,105,1120014,,,2024-04-24,清算の結了等,,,2015-10-05,1,,,,,,0
58,1011101088055,登記記録の閉鎖等,0,2024-05-13,2024-05-08,株式会社コロンビーナ,,株式会社,埼玉県,八潮市,大字大瀬２４５番地２多田ハイツ２０１号,,11,234,3400822,,,2024-05-08,清算の結了等,,,2019-06-17,1,,,,,コロンビーナ,0
66,1011401002855,登記記録の閉鎖等,0,2024-05-13,2024-05-07,株式会社カイフィールドワーク,,株式会社,東京都,練馬区,練馬４丁目２４番３号,,13,120,1760001,,,2024-05-07,清算の結了等,,,2015-10-05,1,,,,,カイフィールドワーク,0
67,1011401019008,登記記録の閉鎖等,0,2024-05-13,2024-05-07,株式会社印刷機・製本機買取センター,,株式会社,東京都,板橋区,徳丸２丁目２７番１０号,,13,119,1750083,,,2024-05-07,清算の結了等,,,2015-11-06,1,,,,,インサツキセイホンキカイトリセンター,0
78,1012702007320,登記記録の閉鎖等,0,2024-05-13,2024-05-07,有限会社マドカル,,有限会社,東京都,西東京市,ひばりが丘４丁目６番Ｊ－３０４号,,13,229,2020001,,,2024-05-07,清算の結了等,,,2015-10-05,1,,,,,マドカル,0
85,1020001042220,登記記録の閉鎖等,0,2024-05-13,2024-05-01,福田建設株式会社,,株式会社,神奈川県,横浜市都筑区,茅ケ崎南２丁目１７番１５号,,14,118,2240037,,,2024-05-01,清算の結了等,,,2015-10-05,1,,,,,フクダケンセツ,0
98,1021002004309,登記記録の閉鎖等,0,2024-05-13,2024-05-07,有限会社富士見製作所,,有限会社,神奈川県,藤沢市,辻堂４丁目５番７号,,14,205,2510047,,,2024-05-07,清算の結了等,,,2015-10-05,1,,,,,,0
99,1021002026625,登記記録の閉鎖等,0,2024-05-13,2024-05-10,有限会社ツーエム,,有限会社,神奈川県,愛甲郡愛川町,中津２７１９番地,,14,401,2430303,,,2024-05-10,清算の結了等,,,2015-10-05,1,,,,,ツーエム,0
102,1030001060188,登記記録の閉鎖等,0,2024-05-13,2024-05-07,キサン商事株式会社,,株式会社,埼玉県,本庄市,小島６丁目３番１０号,,11,211,3670061,,,2024-05-07,清算の結了等,,,2015-10-05,1,,,,,キサンショウジ,0
108,1030002043332,登記記録の閉鎖等,0,2024-05-13,2024-05-07,有限会社稲垣左官工業所,,有限会社,埼玉県,草加市,青柳６丁目４４番６号,,11,221,3400002,,,2024-05-07,清算の結了等,,,2015-10-05,1,,,,,イナガキサカンコウギョウショ,0
109,1030002097378,登記記録の閉鎖等,0,2024-05-13,2024-05-08,有限会社きりどうし,,有限会社,埼玉県,比企郡小川町,大字腰越１０３３番地の１,,11,343,3550327,,,2024-05-08,清算の結了等,,,2015-10-05,1,,,,,キリドウシ,0
116,1040001110108,登記記録の閉鎖等,0,2024-05-13,2024-04-17,日本日進株式会社,,株式会社,千葉県,松戸市,栄町４丁目２０１番地４２,,12,207,2710062,,,2024-04-17,清算の結了等,,,2019-07-23,1,,,,,ニホンニッシン,0
117,1040002042804,登記記録の閉鎖等,0,2024-05-13,2024-04-30,有限会社シュリット,,有限会社,千葉県,市川市,鬼越１丁目２３番５号,,12,203,2720022,,,2024-04-30,清算の結了等,,,2015-10-05,1,,,,,シュリット,0
122,1050001008318,登記記録の閉鎖等,0,2024-05-13,2024-05-08,株式会社大忠,,株式会社,茨城県,笠間市,石井９２９番地６,,08,216,3091613,,,2024-05-08,清算の結了等,,,2015-10-05,1,,,,,ダイチュウ,0
150,1090002011077,登記記録の閉鎖等,0,2024-05-13,2024-05-07,有限会社イーシステム,,有限会社,山梨県,甲州市,塩山竹森１２３４番地２,,19,213,4040051,,,2024-05-07,清算の結了等,,,2015-10-05,1,,,,,,0
157,1110001014193,登記記録の閉鎖等,0,2024-05-13,2024-05-08,三高ダイカスト株式会社,,株式会社,新潟県,三条市,金子新田乙１７００番地１２,,15,204,9550814,,,2024-05-08,清算の結了等,,,2015-10-05,1,,,,,サンコウダイカスト,0
163,1120001215831,登記記録の閉鎖等,0,2024-05-13,2024-05-08,株式会社クロサキホールディングス,,株式会社,大阪府,大阪市中央区,今橋２丁目１番１０号,,27,128,5410042,,,2024-05-08,合併による解散等,9290801009921,令和６年５月１日北九州市八幡西区築地町２２番１号株式会社クロサキ（9290801009921）に合併し解散,2018-09-12,1,,,,,クロサキホールディングス,0
171,1120002015974,登記記録の閉鎖等,0,2024-05-13,2024-05-10,有限会社保木材木店,,有限会社,大阪府,大阪市港区,南市岡３丁目３番２３号,,27,107,5520011,,,2024-05-10,清算の結了等,,,2015-10-05,1,,,,,ヤスキザイモクテン,0
179,1130001011123,登記記録の閉鎖等,0,2024-05-13,2024-05-07,立花運送株式会社,,株式会社,京都府,京都市南区,吉祥院蒔絵町２番地１ダイアパレス京都蒔絵町７０７号室,,26,107,6018344,,,2024-05-07,清算の結了等,,,2015-10-05,1,,,,,タチバナウンソウ,0
205,1180002013618,登記記録の閉鎖等,0,2024-05-13,2024-04-30,有限会社綺麗インターナショナル,,有限会社,愛知県,名古屋市南区,豊３丁目３１番１２号,,23,112,4570863,,,2024-04-30,清算の結了等,,,2015-10-05,1,,,,,キレイインターナショナル,0
211,1180301026205,登記記録の閉鎖等,0,2024-05-13,2024-05-01,株式会社ミセスＡｌｉｃｅ,,株式会社,愛知県,豊田市,西町１丁目１１５番地,,23,211,4710025,,,2024-05-01,清算の結了等,,,2015-10-05,1,,,,,ミセスアリス,0
214,1180303004687,登記記録の閉鎖等,0,2024-05-13,2024-05-09,合同会社マーカス,,合同会社,愛知県,豊田市,水源町２丁目１０番地１ＥＳＰＯＩＲ水源Ｃ１０２号,,23,211,4710822,,,2024-05-09,清算の結了等,,,2020-07-13,1,,,,,マーカス,0
225,1210001008235,登記記録の閉鎖等,0,2024-05-13,2024-05-09,株式会社プラス・ファクター,,株式会社,福井県,福井市,木田２丁目１６１１番地,,18,201,9188105,,,2024-05-09,清算の結了等,,,2015-10-05,1,,,,,プラスファクター,0
226,1220001009364,登記記録の閉鎖等,0,2024-05-13,2024-04-30,株式会社ヒガシ,,株式会社,石川県,白山市,辰巳町７９番地,,17,210,9240875,,,2024-04-30,清算の結了等,,,2015-10-05,1,,,,,ヒガシ,0
230,1230001001782,登記記録の閉鎖等,0,2024-05-13,2024-05-01,デンカ生コン富山株式会社,,株式会社,富山県,富山市,下冨居２丁目１３番７６号,,16,201,9300814,,,2024-05-01,合併による解散等,8230001000621,令和６年５月１日富山市新桜町２番１０号上市建材株式会社（8230001000621）に合併し解散,2015-10-05,1,,,,,デンカナマコントヤマ,0
237,1240001034798,登記記録の閉鎖等,0,2024-05-13,2024-05-01,パル商事株式会社,,株式会社,広島県,福山市,春日町６丁目９番５号,,34,207,7210907,,,2024-05-01,合併による解散等,7240002044436,令和６年５月１日広島県福山市春日町六丁目６番２０号株式会社ホームガーデン（7240002044436）に合併し解散,2015-10-05,1,,,,,パルショウジ,0
247,1260001037444,登記記録の閉鎖等,0,2024-05-13,2024-05-01,株式会社リーフ,,株式会社,岡山県,総社市,門田１５２番地,,33,208,7191156,,,2024-05-01,清算の結了等,,,2022-11-30,1,,,,,リーフ,0
257,1260003004178,登記記録の閉鎖等,0,2024-05-13,2024-05-02,合同会社フォレスト１０号,,合同会社,岡山県,岡山市北区,西辛川５５０番地１９（１）,,33,101,7011213,,,2024-05-02,清算の結了等,,,2023-01-27,1,,,,,フォレストジュウゴウ,0
267,1290002028299,登記記録の閉鎖等,0,2024-05-13,2024-04-09,有限会社春住ランドリー,,有限会社,福岡県,福岡市南区,柳河内１丁目８番１５号,,40,134,8150063,,,2024-04-09,清算の結了等,,,2015-10-05,1,,,,,ハルズミランドリー,0
282,1360001022188,登記記録の閉鎖等,0,2024-05-13,2024-05-09,株式会社沖誠塗装工業,,株式会社,沖縄県,中頭郡西原町,字森川２３９番地２５,,47,329,9030128,,,2024-05-09,清算の結了等,,,2017-04-13,1,,,,,オキセイトソウコウギョウ,0
283,1360001028656,登記記録の閉鎖等,0,2024-05-13,2024-05-08,宇宙双子ゆっちまんなっちまん株式会社,,株式会社,沖縄県,那覇市,字安里３８８番地５,,47,201,9020067,,,2024-05-08,清算の結了等,,,2021-04-15,1,,,,,ウチュウフタゴユッチマンナッチマン,0
311,1430002065971,登記記録の閉鎖等,0,2024-05-13,2024-05-07,有限会社佐藤農機,,有限会社,北海道,伊達市,末永町１９８番地２４,,01,233,0520021,,,2024-05-07,清算の結了等,,,2015-10-05,1,,,,,サトウノウキ,0
321,1500001013073,登記記録の閉鎖等,0,2024-05-13,2024-05-08,株式会社伊予カットセンター,,株式会社,愛媛県,今治市,玉川町龍岡下字岩成丙１２１番１号,,38,202,7940123,,,2024-05-08,清算の結了等,,,2015-10-05,1,,,,,イヨカットセンター,0
336,2010001144297,登記記録の閉鎖等,0,2024-05-13,2024-04-24,株式会社タスコ,,株式会社,東京都,文京区,湯島３丁目１９番１１号湯島ファーストビル４階,,13,105,1130034,,,2024-04-24,合併による解散等,1010001144216,令和６年４月２３日東京都文京区湯島三丁目１９番１１号湯島ファーストビル４階株式会社エスピーアイ・インフォメーション（1010001144216）に合併し解散,2015-10-05,1,,,,,タスコ,0
353,2010501048972,登記記録の閉鎖等,0,2024-05-13,2024-05-07,Ｙａｇｉｓｈ　Ｃａｒｅｅｒ株式会社,,株式会社,東京都,台東区,上野３丁目１６番２号,,13,106,1100005,,,2024-05-07,清算の結了等,,,2022-06-14,1,,,,,ヤギッシュキャリア,0
366,2010803004855,登記記録の閉鎖等,0,2024-05-13,2024-05-08,Ｄａｉｓｙ　Ｂｌｕｅ合同会社,,合同会社,東京都,大田区,羽田６丁目１５番１９号,,13,111,1440043,,,2024-05-08,清算の結了等,,,2024-02-20,1,,,,,デイジーブルー,0
384,2011301000388,登記記録の閉鎖等,0,2024-05-13,2024-04-19,株式会社アンメック,,株式会社,東京都,港区,東新橋２丁目１８番３－１１０４号,,13,103,1050021,,,2024-04-19,清算の結了等,,,2015-10-05,1,,,,,アンメック,0
387,2011501005162,登記記録の閉鎖等,0,2024-05-13,2024-05-01,株式会社愛信,,株式会社,東京都,荒川区,東日暮里５丁目５２番６号折原ビル７階,,13,118,1160014,,,2024-05-01,清算の結了等,,,2015-10-05,1,,,,,アイシン,0
416,2020003022260,登記記録の閉鎖等,0,2024-05-13,2024-05-08,合同会社建明,,合同会社,神奈川県,横浜市旭区,鶴ケ峰１丁目４４－２６,,14,112,2410022,,,2024-05-08,清算の結了等,,,2022-08-19,1,,,,,ケンメイ,0
425,2030001060451,登記記録の閉鎖等,0,2024-05-13,2024-05-07,株式会社横尾工務店,,株式会社,埼玉県,本庄市,けや木１丁目１３番２３号,,11,211,3670042,,,2024-05-07,清算の結了等,,,2015-10-05,1,,,,,ヨコオコウムテン,0
447,2040001054122,登記記録の閉鎖等,0,2024-05-13,2024-04-30,西葉土地開発株式会社,,株式会社,千葉県,市原市,牛久５５５番地,,12,219,2900225,,,2024-04-30,清算の結了等,,,2015-10-05,1,,,,,セイヨウトチカイハツ,0
450,2040001101618,登記記録の閉鎖等,0,2024-05-13,2024-04-25,ホクエイ株式会社,,株式会社,千葉県,富里市,七栄３６３エスポワール富里１０１,,12,233,2860221,,,2024-04-25,清算の結了等,,,2017-08-30,1,,,,,ホクエイ,0
459,2040002021344,登記記録の閉鎖等,0,2024-05-13,2024-04-26,笠松建設有限会社,,有限会社,千葉県,船橋市,海神２丁目２３番４２号,,12,204,2730021,,,2024-04-26,清算の結了等,,,2015-10-05,1,,,,,カサマツケンセツ,0
479,2070001038782,登記記録の閉鎖等,0,2024-05-13,2024-05-08,株式会社ひさご,,株式会社,群馬県,沼田市,栄町８５番地２,,10,206,3780014,,,2024-05-08,清算の結了等,,,2022-01-06,1,,,,,ヒサゴ,0
481,2080002007645,登記記録の閉鎖等,0,2024-05-13,2024-05-02,有限会社防水センター静岡,,有限会社,静岡県,静岡市葵区,駒形通２丁目１番１７号,,22,101,4200042,,,2024-05-02,清算の結了等,,,2015-10-05,1,,,,,ボウスイセンターシズオカ,0
493,2110002002972,登記記録の閉鎖等,0,2024-05-13,2024-04-30,有限会社新エース車体,,有限会社,新潟県,新潟市江南区,山二ツ本村前３８２番２,,15,104,9500922,,,2024-04-30,清算の結了等,,,2015-10-05,1,,,,,シンエースシャタイ,0
497,2120001130105,登記記録の閉鎖等,0,2024-05-13,2024-05-01,株式会社久留美,,株式会社,大阪府,大阪市西淀川区,千舟２丁目１５番２－３０７号,,27,113,5550013,,,2024-05-01,合併による解散等,9120002052085,令和６年５月１日大阪市西淀川区千舟二丁目１５番２－３０７号株式会社ＮＩＫＫＡ（9120002052085）に合併し解散,2015-10-05,1,,,,,クルミ,0
512,2120003018703,登記記録の閉鎖等,0,2024-05-13,2024-05-02,ｅ－ｌｉｓｈ合同会社,,合同会社,大阪府,大阪市北区,扇町２丁目６－１１－８０３,,27,127,5300025,,,2024-05-02,清算の結了等,,,2021-01-12,1,,,,,イーリッシュ,0
514,2120102022176,登記記録の閉鎖等,0,2024-05-13,2024-05-01,有限会社山裾商店,00032956,有限会社,大阪府,貝塚市,王子２５の１,,27,208,5970051,,,2024-05-01,合併による解散等,8120101038894,令和６年５月１日大阪府貝塚市鳥羽１５８番１株式会社ヤマスソ（8120101038894）に合併し解散,2015-10-05,1,,,,,ヤマスソショウテン,0
517,2120902020008,登記記録の閉鎖等,0,2024-05-13,2024-05-02,有限会社モナ・フレンズ,,有限会社,大阪府,吹田市,桃山台１丁目２番３－２０２号,,27,205,5650854,,,2024-05-02,清算の結了等,,,2015-10-05,1,,,,,モナフレンズ,0
526,2140001014388,登記記録の閉鎖等,0,2024-05-13,2024-05-09,森賀電氣株式会社,,株式会社,兵庫県,神戸市兵庫区,島上町２丁目２番８号,,28,105,6520833,,,2024-05-09,清算の結了等,,,2015-10-05,1,,,,,モリガデンキ,0
536,2170001013726,登記記録の閉鎖等,0,2024-05-13,2024-05-10,アーキリファイン株式会社,,株式会社,和歌山県,和歌山市,黒田２丁目２番２２号ＳＫファーストビル９０１号,,30,201,6408341,,,2024-05-10,清算の結了等,,,2015-10-05,1,,,,,アーキリファイン,0
538,2180001082860,登記記録の閉鎖等,0,2024-05-13,2024-04-30,ジャパンフーズ株式会社,,株式会社,愛知県,一宮市,真清田１丁目３番１６号,,23,203,4910043,,,2024-04-30,清算の結了等,,,2015-10-05,1,,,,,ジャパンフーズ,0
558,2210001019314,登記記録の閉鎖等,0,2024-05-13,2024-05-01,伊豆の空株式会社,,株式会社,福井県,鯖江市,日の出町２－１－４０１,,18,207,9160053,,,2024-05-01,合併による解散等,5210001016572,令和６年５月１日福井県鯖江市日の出町２－１－４０１北陸の空株式会社（5210001016572）に合併し解散,2023-05-15,1,,,,,イズノソラ,0
559,2230005007585,登記記録の閉鎖等,0,2024-05-13,2024-04-15,天満宮,,その他の設立登記法人,富山県,射水市,塚越２２８番地,,16,211,9390313,,,2024-04-15,合併による解散等,3230005000770,令和６年４月１５日富山市呉羽町小竹１８１３番地姉倉比賣神社（3230005000770）に合併し解散,2015-10-05,1,,,,,テンマングウ,0
561,2240002033617,登記記録の閉鎖等,0,2024-05-13,2024-05-09,有限会社西垣内鉄工所,,有限会社,広島県,呉市,広町若宮２３５５番地,,34,202,7370115,,,2024-05-09,清算の結了等,,,2015-10-05,1,,,,,ニシガキウチテッコウショ,0
572,2280002004424,登記記録の閉鎖等,0,2024-05-13,2024-05-09,有限会社アークフォト,,有限会社,島根県,松江市,西嫁島２丁目７－９,,32,201,6900048,,,2024-05-09,清算の結了等,,,2015-10-05,1,,,,,アークフォト,0
581,2290005016333,登記記録の閉鎖等,0,2024-05-13,2024-04-16,特定非営利活動法人老匠支援機構,,その他の設立登記法人,福岡県,大川市,大字九網５２番地,,40,212,8310042,,,2024-04-16,清算の結了等,,,2017-03-17,1,,,,,,0
584,2290801009564,登記記録の閉鎖等,0,2024-05-13,2024-05-07,アルテック株式会社,,株式会社,福岡県,北九州市八幡西区,上上津役５丁目２３番１７号,,40,109,8070072,,,2024-05-07,清算の結了等,,,2015-10-05,1,,,,,アルテック,0
593,2340002022460,登記記録の閉鎖等,0,2024-05-13,2024-05-08,有限会社塩田建材店,,有限会社,鹿児島県,出水市,中央町４５５番地,,46,208,8990207,,,2024-05-08,清算の結了等,,,2015-10-05,1,,,,,シオタケンザイテン,0
604,2380001023464,登記記録の閉鎖等,0,2024-05-13,2024-05-07,株式会社シードエンジニア,,株式会社,北海道,上川郡美瑛町,幸町４丁目４番１９号,,01,459,0710214,,,2024-05-07,清算の結了等,,,2015-10-05,1,,,,,シードエンジニア,0
605,2380002012103,登記記録の閉鎖等,0,2024-05-13,2024-05-02,有限会社邦英,,有限会社,福島県,郡山市,本町２丁目２７番１３号,,07,203,9638871,,,2024-05-02,清算の結了等,,,2015-10-05,1,,,,,ホウエイ,0
608,2390003001780,登記記録の閉鎖等,0,2024-05-13,2024-04-24,合同会社村ムラ,,合同会社,山形県,酒田市,宮野浦３丁目３番６７号,,06,204,9980054,,,2024-04-24,清算の結了等,,,2020-11-24,1,,,,,ムラムラ,0
617,2430001048365,登記記録の閉鎖等,0,2024-05-13,2024-05-01,新興商事株式会社,,株式会社,愛知県,豊橋市,東脇４丁目１番地の２９,,23,201,4418083,,,2024-05-01,合併による解散等,4180301000933,令和６年５月１日愛知県岡崎市本宿町字平田２番地２株式会社新宿観光（4180301000933）に合併し解散,2015-10-05,1,,,,,シンコウショウジ,0
618,2430001055064,登記記録の閉鎖等,0,2024-05-13,2024-05-08,株式会社今,,株式会社,北海道,苫小牧市,三光町１丁目４番１３－５０１号,,01,213,0530042,,,2024-05-08,清算の結了等,,,2015-10-05,1,,,,,コン,0
624,2430002029926,登記記録の閉鎖等,0,2024-05-13,2024-05-01,有限会社丸喜ひかり,,有限会社,北海道,札幌市豊平区,月寒東五条１１丁目８番６号,,01,105,0620055,,,2024-05-01,合併による解散等,1430001044605,令和６年５月１日札幌市豊平区月寒東五条十一丁目８番６号株式会社ひかり（1430001044605）に合併し解散,2015-10-05,1,,,,,マルキヒカリ,0
625,2430002035800,登記記録の閉鎖等,0,2024-05-13,2024-05-01,有限会社フーゲット,,有限会社,北海道,札幌市豊平区,月寒東五条１１丁目８番６号,,01,105,0620055,,,2024-05-01,合併による解散等,1430001044605,令和６年５月１日札幌市豊平区月寒東五条十一丁目８番６号株式会社ひかり（1430001044605）に合併し解散,2015-10-05,1,,,,,フーゲット,0
628,2470001005593,登記記録の閉鎖等,0,2024-05-13,2024-05-02,株式会社アウトソーシング石井,,株式会社,香川県,高松市,高松町２５０６番地３,,37,201,7610104,,,2024-05-02,清算の結了等,,,2015-10-05,1,,,,,,0
650,3010001200710,登記記録の閉鎖等,0,2024-05-13,2024-04-24,株式会社ｎａｄａ　ｐｒｏｍｏｔｉｏｎ,,株式会社,東京都,中央区,銀座７丁目１２番５号,,13,102,1040061,,,2024-04-24,清算の結了等,,,2019-05-13,1,,,,,ナダプロモーション,0
657,3010002049040,登記記録の閉鎖等,0,2024-05-13,2024-04-24,有限会社ＦＪＴプランニング,,有限会社,東京都,文京区,本郷１丁目２５番２号明幸ビル,,13,105,1130033,,,2024-04-24,清算の結了等,,,2015-10-05,1,,,,,,0
662,3010401172104,登記記録の閉鎖等,0,2024-05-13,2024-04-19,株式会社レッドスターグローバル,,株式会社,東京都,港区,北青山２丁目１２番８号,,13,103,1070061,,,2024-04-19,清算の結了等,,,2023-01-26,1,,,,,レッドスターグローバル,0
668,3010403013495,登記記録の閉鎖等,0,2024-05-13,2024-04-19,ＲＡＩＮＢＯＷ合同会社,,合同会社,東京都,渋谷区,宇田川町３７番１５．２階,,13,113,1500042,,,2024-04-19,清算の結了等,,,2015-10-05,1,,,,,レインボー,0
669,3010403017760,登記記録の閉鎖等,0,2024-05-13,2024-04-19,合同会社Ｋ’ｓスタイル・インベストメント,,合同会社,東京都,港区,浜松町２丁目２－１５,,13,103,1050013,,,2024-04-19,清算の結了等,,,2017-12-14,1,,,,,ケーズスタイルインベストメント,0
672,3010403030202,登記記録の閉鎖等,0,2024-05-13,2024-04-17,合同会社ｂｌｕｅｂｌｏｏｍｓ,,合同会社,東京都,港区,南青山３丁目１－３６青山丸竹ビル６Ｆ,,13,103,1070062,,,2024-04-17,清算の結了等,,,2023-05-31,1,,,,,ブルーブルームズ,0
680,3010801001052,登記記録の閉鎖等,0,2024-05-13,2024-05-01,株式会社イタヤ,,株式会社,東京都,大田区,南蒲田１丁目２２番１５号,,13,111,1440035,,,2024-05-01,清算の結了等,,,2015-10-05,1,,,,,イタヤ,0
694,3011102016533,登記記録の閉鎖等,0,2024-05-13,2024-05-01,有限会社デリカネットワークサービス,,有限会社,東京都,新宿区,住吉町２番１８号ウイン四ツ谷６０８号室,,13,104,1620065,,,2024-05-01,合併による解散等,7011101089023,令和６年５月１日東京都新宿区住吉町２番１８号ウイン四谷６０８号室株式会社ＳＡＫＥマーケティングハウス（7011101089023）に合併し解散,2015-10-05,1,,,,,デリカネットワークサービス,0
702,3011401023899,登記記録の閉鎖等,0,2024-05-13,2024-04-03,株式会社ブリッジ,,株式会社,東京都,台東区,浅草橋５丁目１７番１号ＨＭビル６０１,,13,106,1110053,,,2024-04-03,清算の結了等,,,2021-12-10,1,,,,,ブリッジ,0
714,3012402020613,登記記録の閉鎖等,0,2024-05-13,2024-04-30,有限会社ケイケイシーインターナショナル,,有限会社,東京都,武蔵野市,境南町２丁目２７番５－２０７号プレジデント武蔵野,,13,203,1800023,,,2024-04-30,清算の結了等,,,2015-10-05,1,,,,,ケイケイシーインターナショナル,0
740,3030001148097,登記記録の閉鎖等,0,2024-05-13,2024-05-07,株式会社スリーワイズ,,株式会社,埼玉県,川口市,大字安行藤八３３９番地小櫃ビル,,11,203,3340051,,,2024-05-07,清算の結了等,,,2022-05-11,1,,,,,スリーワイズ,0
747,3030002050062,登記記録の閉鎖等,0,2024-05-13,2024-05-08,有限会社ヤマトハウス,,有限会社,埼玉県,三郷市,三郷３丁目４番地１０,,11,237,3410024,,,2024-05-08,清算の結了等,,,2015-10-05,1,,,,,ヤマトハウス,0
749,3030002091024,登記記録の閉鎖等,0,2024-05-13,2024-05-07,有限会社フジイ園芸,,有限会社,埼玉県,越谷市,大字小曽川４６９番地１,,11,222,3430802,,,2024-05-07,清算の結了等,,,2015-10-05,1,,,,,フジイエンゲイ,0
769,3070005004986,登記記録の閉鎖等,0,2024-05-13,2024-05-08,群馬県ダクト工事業協同組合,,その他の設立登記法人,群馬県,前橋市,堀之下町３０４番地,,10,201,3710005,,,2024-05-08,清算の結了等,,,2015-10-05,1,,,,,グンマケンダクトコウ,0
773,3080101015688,登記記録の閉鎖等,0,2024-05-13,2024-05-09,株式会社ＴＥＡＭ－１６,,株式会社,静岡県,三島市,大社町５番１１号,,22,206,4110853,,,2024-05-09,清算の結了等,,,2015-10-05,1,,,,,チームジュウロク,0
775,3080405001021,登記記録の閉鎖等,0,2024-05-13,2024-04-25,天理教駿府浜分教会,,その他の設立登記法人,静岡県,浜松市中央区,安松町８５番地の１８,,22,138,4350034,,,2024-04-25,合併による解散等,6080005000453,令和６年４月１２日静岡市葵区鷹匠三丁目１７番１９号天理教静岡大教会（6080005000453）に合併し解散,2015-10-05,1,,,,,テンリキョウスンプハマブンキョウカイ,0
776,3090001010301,登記記録の閉鎖等,0,2024-05-13,2024-05-02,ワーク興建株式会社,,株式会社,山梨県,富士吉田市,大明見５丁目１２番１４号,,19,202,4030003,,,2024-05-02,清算の結了等,,,2023-12-06,1,,,,,ワークコウケン,0
802,3120101037570,登記記録の閉鎖等,0,2024-05-13,2024-05-01,株式会社フランシー,,株式会社,大阪府,岸和田市,藤井町１丁目８番２７号,,27,202,5960046,,,2024-05-01,合併による解散等,2120101037571,令和６年５月１日大阪府岸和田市藤井町二丁目１６番３１号株式会社フランス屋本部（2120101037571）に合併し解散,2015-10-05,1,,,,,フランシー,0
813,3122003002611,登記記録の閉鎖等,0,2024-05-13,2024-05-09,合同会社織慶,,合同会社,大阪府,東大阪市,瓢箪山町４番９号,,27,227,5798051,,,2024-05-09,清算の結了等,,,2023-06-21,1,,,,,オリケイ,0
814,3130001000776,登記記録の閉鎖等,0,2024-05-13,2024-05-10,株式会社コマツハウジング,,株式会社,京都府,京都市右京区,梅津神田町５０番地８,,26,108,6150902,,,2024-05-10,清算の結了等,,,2015-10-05,1,,,,,コマツハウジング,0
842,3180301009158,登記記録の閉鎖等,0,2024-05-13,2024-05-02,アルコバレーノ株式会社,,株式会社,愛知県,豊橋市,富士見台２丁目２４番地の７,,23,201,4418135,,,2024-05-02,清算の結了等,,,2015-10-05,1,,,,,アルコバレーノ,0
864,3250001001779,登記記録の閉鎖等,0,2024-05-13,2024-04-26,スペースベアーエンターテイメント株式会社,,株式会社,山口県,山口市,黒川１９８７番地１３,,35,203,7530851,,,2024-04-26,清算の結了等,,,2015-10-05,1,,,,,,0
868,3260002020570,登記記録の閉鎖等,0,2024-05-13,2024-05-01,林電器有限会社,,有限会社,岡山県,都窪郡早島町,早島４０１３番地の１,,33,423,7010304,,,2024-05-01,清算の結了等,,,2015-10-05,1,,,,,ハヤシデンキ,0
872,3290001015148,登記記録の閉鎖等,0,2024-05-13,2024-04-12,楢崎産業株式会社,,株式会社,福岡県,福岡市博多区,中洲４丁目１番２８号,,40,132,8100801,,,2024-04-12,清算の結了等,,,2015-10-05,1,,,,,ナラザキサンギョウ,0
883,3290801016881,登記記録の閉鎖等,0,2024-05-13,2024-05-02,株式会社坪根工務店,,株式会社,福岡県,田川郡川崎町,大字安眞木２１１５番地,,40,605,8270001,,,2024-05-02,清算の結了等,,,2015-10-05,1,,,,,ツボネコウムテン,0
909,3400601000231,登記記録の閉鎖等,0,2024-05-13,2024-04-12,株式会社トータルシステム,,株式会社,岩手県,奥州市,江刺岩谷堂字袖山１１番地２８,,03,215,0231101,,,2024-04-12,合併による解散等,3410001012891,令和６年４月１日秋田県秋田市河辺戸島字七曲台１２０番地１０２第一電材エレクトロニクス株式会社（3410001012891）に合併し解散,2015-10-05,1,,,,,トータルシステム,0
919,3430002024661,登記記録の閉鎖等,0,2024-05-13,2024-05-07,まるあ相田製麺有限会社,,有限会社,北海道,札幌市北区,新琴似六条１１丁目５番１号,,01,102,0010906,,,2024-05-07,清算の結了等,,,2015-10-05,1,,,,,マルアアイダセイメン,0
923,3430003014554,登記記録の閉鎖等,0,2024-05-13,2024-05-07,合同会社エンジェルウイングケイ,,合同会社,北海道,札幌市南区,藤野三条９丁目４番３号,,01,106,0612283,,,2024-05-07,清算の結了等,,,2022-12-16,1,,,,,エンジェルウイングケイ,0
926,3450005000146,登記記録の閉鎖等,0,2024-05-13,2024-05-08,道北リサイクル協同組合,,その他の設立登記法人,北海道,旭川市,東光十四条１丁目３番６号株式会社安井組内,,01,204,0788354,,,2024-05-08,清算の結了等,,,2015-10-05,1,,,,,ドウホクリサイクル,0
950,4010003040575,登記記録の閉鎖等,0,2024-05-13,2024-04-24,合同会社ＩＲＳ２,,合同会社,東京都,千代田区,内幸町１丁目１番１号,,13,101,1000011,,,2024-04-24,清算の結了等,,,2023-05-12,1,,,,,アイアールエスツー,0
969,4010703006231,登記記録の閉鎖等,0,2024-05-13,2024-05-01,合同会社Ｊ‐ｏｎｅ,,合同会社,東京都,品川区,西五反田２丁目１８番３号グレイス五反田４１４号,,13,109,1410031,,,2024-05-01,清算の結了等,,,2022-05-12,1,,,,,ジェイワン,0
994,4011102024329,登記記録の閉鎖等,0,2024-05-13,2024-05-01,スタンダードリアルティ有限会社,,有限会社,東京都,新宿区,西新宿６丁目１２番６号,,13,104,1600023,,,2024-05-01,清算の結了等,,,2015-10-05,1,,,,,スタンダードリアルティ,0
997,4011105006761,登記記録の閉鎖等,0,2024-05-13,2024-05-07,一般社団法人武蔵小杉ホールディングス,,その他の設立登記法人,東京都,新宿区,西新宿８丁目５番１号,,13,104,1600023,,,2024-05-07,清算の結了等,,,2015-10-05,1,,,,,ムサシコスギホールディングス,0
1010,4012801002368,登記記録の閉鎖等,0,2024-05-13,2024-04-26,株式会社東興商会,,株式会社,東京都,昭島市,福島町２丁目２５番２０号,,13,207,1960031,,,2024-04-26,清算の結了等,,,2015-10-05,1,,,,,トウコウショウカイ,0
1019,4020002028141,登記記録の閉鎖等,0,2024-05-13,2024-04-30,有限会社マコト車輌,,有限会社,神奈川県,横浜市神奈川区,神大寺１丁目９番２８－３０６号,,14,102,2210801,,,2024-04-30,清算の結了等,,,2015-10-05,1,,,,,マコトシャリョウ,0
1031,4030001007351,登記記録の閉鎖等,0,2024-05-13,2024-05-07,株式会社フジ美装,,株式会社,埼玉県,さいたま市中央区,桜丘２丁目１番２号,,11,105,3380005,,,2024-05-07,清算の結了等,,,2015-10-05,1,,,,,フジビソウ,0
1032,4030001048172,登記記録の閉鎖等,0,2024-05-13,2024-05-01,株式会社彗人社,,株式会社,東京都,北区,赤羽２丁目９番５号－３０２,,13,117,1150045,,,2024-05-01,清算の結了等,,,2015-10-05,1,,,,,スイジンシャ,0
1042,4040001119179,登記記録の閉鎖等,0,2024-05-13,2024-04-30,Ｖｉｖａｃｅｉｓｈｉｎ株式会社,,株式会社,千葉県,船橋市,印内２丁目１１番１５号パレスオオハク２０１,,12,204,2730039,,,2024-04-30,清算の結了等,,,2021-07-07,1,,,,,ビバーチャイシン,0
1048,4040005008155,登記記録の閉鎖等,0,2024-05-13,2024-04-26,医療法人社団誠永会,,その他の設立登記法人,千葉県,袖ケ浦市,横田３６６９番地,,12,229,2990236,,,2024-04-26,清算の結了等,,,2015-10-05,1,,,,,セイエイカイ,0
1054,4050002020673,登記記録の閉鎖等,0,2024-05-13,2024-05-08,有限会社アラスカ,,有限会社,茨城県,つくば市,花室根古屋台４９３番地の１,,08,220,3050025,,,2024-05-08,清算の結了等,,,2015-10-05,1,,,,,アラスカ,0
1055,4050003003116,登記記録の閉鎖等,0,2024-05-13,2024-05-02,合同会社ＹＷ,,合同会社,茨城県,北茨城市,磯原町豊田２丁目２６番地,,08,215,3191543,,,2024-05-02,清算の結了等,,,2015-12-09,1,,,,,,0
1078,4110002029139,登記記録の閉鎖等,0,2024-05-13,2024-05-08,有限会社マジィー,,有限会社,新潟県,長岡市,千手２丁目２番１５号,,15,202,9400087,,,2024-05-08,清算の結了等,,,2015-10-05,1,,,,,マジィー,0
1079,4110002030550,登記記録の閉鎖等,0,2024-05-13,2024-05-07,有限会社ＡＢＣファーマシー,,有限会社,新潟県,新潟市中央区,湖南２４番地２,,15,103,9501151,,,2024-05-07,合併による解散等,4110001003029,令和６年５月１日新潟市中央区湖南２４番地２株式会社ダイチク（4110001003029）に合併し解散,2015-10-05,1,,,,,エービーシーファーマシー,0
1081,4120001018372,登記記録の閉鎖等,0,2024-05-13,2024-05-02,株式会社なにわ,,株式会社,大阪府,大阪市生野区,生野西４丁目１９番１１号,,27,116,5440024,,,2024-05-02,清算の結了等,,,2015-10-05,1,,,,,ナニワ,0
1086,4120001134434,登記記録の閉鎖等,0,2024-05-13,2024-05-10,株式会社灘勝商店,00029171,株式会社,大阪府,大阪市此花区,高見３丁目１番２３号,,27,104,5540001,,,2024-05-10,清算の結了等,,,2015-10-05,1,,,,,ナダカツショウテン,0
1087,4120001152171,登記記録の閉鎖等,0,2024-05-13,2024-05-01,コフジライン株式会社,,株式会社,大阪府,枚方市,春日西町３丁目４５番１号,,27,210,5730136,,,2024-05-01,合併による解散等,9120001149568,令和６年５月１日大阪府枚方市春日西町三丁目４５番１号コフジ物流株式会社（9120001149568）に合併し解散,2015-10-05,1,,,,,コフジライン,0
1088,4120001155166,登記記録の閉鎖等,0,2024-05-13,2024-05-10,株式会社アクティ,,株式会社,大阪府,守口市,大日町４丁目１６番２号,,27,209,5700003,,,2024-05-10,清算の結了等,,,2015-10-05,1,,,,,アクティ,0
1089,4120001170108,登記記録の閉鎖等,0,2024-05-13,2024-05-01,株式会社プログレス,,株式会社,大阪府,大阪市中央区,平野町２丁目２番１３号９階,,27,128,5410046,,,2024-05-01,合併による解散等,9120001182288,令和６年５月１日大阪市旭区新森三丁目３番２２号株式会社プログレス（9120001182288）に合併し解散,2015-10-05,1,,,,,プログレス,0
1134,4180002012807,登記記録の閉鎖等,0,2024-05-13,2024-04-30,有限会社名城断熱,,有限会社,愛知県,名古屋市北区,楠３丁目３１９番地,,23,103,4620012,,,2024-04-30,清算の結了等,,,2015-10-05,1,,,,,メイジョウダンネツ,0
1140,4180005019601,登記記録の閉鎖等,0,2024-05-13,2024-05-02,一般社団法人日本セラピストグロウアカデミー,,その他の設立登記法人,愛知県,名古屋市中区,丸の内３丁目１９番１４号,,23,106,4600002,,,2024-05-02,清算の結了等,,,2022-01-14,1,,,,,ニホンセラピストグロウアカデミー,0
1145,4180301025641,登記記録の閉鎖等,0,2024-05-13,2024-05-01,株式会社こぶみかん,,株式会社,愛知県,豊橋市,平川本町１丁目５番地の１,,23,201,4400038,,,2024-05-01,合併による解散等,4180301005461,令和６年５月１日愛知県豊橋市平川本町一丁目２番地の１２株式会社キャナリイ・ロウ（4180301005461）に合併し解散,2015-10-05,1,,,,,コブミカン,0
1151,4210002012836,登記記録の閉鎖等,0,2024-05-13,2024-05-10,有限会社エンジェル,,有限会社,福井県,鯖江市,幸町２丁目６番３７号,,18,207,9160018,,,2024-05-10,清算の結了等,,,2015-10-05,1,,,,,エンジェル,0
1156,4240002025488,登記記録の閉鎖等,0,2024-05-13,2024-05-09,有限会社キンダーランド,,有限会社,広島県,広島市中区,猫屋町３番８号,,34,101,7300852,,,2024-05-09,清算の結了等,,,2015-10-05,1,,,,,キンダーランド,0
1179,4330005010321,登記記録の閉鎖等,0,2024-05-13,2024-04-17,一般社団法人Ａｄｖａｎｃｅ,,その他の設立登記法人,熊本県,合志市,幾久富１７５８番地１５,,43,216,8611112,,,2024-04-17,合併による解散等,4330005010767,令和６年４月１７日熊本県合志市幾久富１７５８番地１５一般社団法人ＹｕｍｅＳａｐｏ（4330005010767）に合併し解散,2021-03-11,1,,,,,アドバンス,0
1197,4380001029253,登記記録の閉鎖等,0,2024-05-13,2024-05-02,インフィニティコード株式会社,,株式会社,福島県,郡山市,富久山町久保田字水神山１番地の１ビワビル３Ｆ,,07,203,9638071,,,2024-05-02,清算の結了等,,,2018-07-05,1,,,,,インフィニティコード,0
1202,4400001012842,登記記録の閉鎖等,0,2024-05-13,2024-04-24,株式会社ソレイユ,,株式会社,岩手県,盛岡市,加賀野２丁目１番２２号,,03,201,0200807,,,2024-04-24,清算の結了等,,,2015-10-05,1,,,,,ソレイユ,0
1203,4410001007296,登記記録の閉鎖等,0,2024-05-13,2024-04-30,株式会社陽光運輸,,株式会社,秋田県,能代市,浅内字出戸谷地１１番地の４,,05,202,0160179,,,2024-04-30,清算の結了等,,,2015-10-05,1,,,,,ヨウコウウンユ,0
1204,4410002008310,登記記録の閉鎖等,0,2024-05-13,2024-05-01,有限会社アドバンスライフ,,有限会社,秋田県,大館市,曲田字曲田３番地１,,05,204,0185603,,,2024-05-01,清算の結了等,,,2015-10-05,1,,,,,アドバンスライフ,0
1207,4430001014233,登記記録の閉鎖等,0,2024-05-13,2024-05-01,風月株式会社,,株式会社,北海道,札幌市豊平区,月寒東五条１１丁目８番６号,,01,105,0620055,,,2024-05-01,合併による解散等,1430001044605,令和６年５月１日札幌市豊平区月寒東五条十一丁目８番６号株式会社ひかり（1430001044605）に合併し解散,2015-10-05,1,,,,,フウゲツ,0
1214,4430002034577,登記記録の閉鎖等,0,2024-05-13,2024-05-07,有限会社奥山商店,,有限会社,北海道,札幌市中央区,北十二条西２０丁目１番２０号,,01,101,0600012,,,2024-05-07,清算の結了等,,,2015-10-05,1,,,,,オクヤマショウテン,0
1216,4430002060219,登記記録の閉鎖等,0,2024-05-13,2024-05-02,有限会社萠流通サービス,,有限会社,北海道,苫小牧市,明野新町２丁目１８番２号,,01,213,0530054,,,2024-05-02,清算の結了等,,,2015-10-05,1,,,,,モエリュウツウサービス,0
1225,4490001003338,登記記録の閉鎖等,0,2024-05-13,2024-05-09,株式会社高＿,00006383,株式会社,高知県,高知市,弘化台１３番１号,,39,201,7800811,,,2024-05-09,清算の結了等,,,2015-10-05,1,,,,,,0
1226,4490001010103,登記記録の閉鎖等,0,2024-05-13,2024-05-07,いえの助株式会社,,株式会社,高知県,高知市,はりまや町１丁目５－２９マンハッタンビル２階,,39,201,7800822,,,2024-05-07,清算の結了等,,,2022-02-10,1,,,,,イエノスケ,0
1243,5010001214114,登記記録の閉鎖等,0,2024-05-13,2024-04-26,メドクロス株式会社,,株式会社,東京都,中央区,築地１丁目１３番１号,,13,102,1040045,,,2024-04-26,清算の結了等,,,2020-12-02,1,,,,,メドクロス,0
1255,5010401141874,登記記録の閉鎖等,0,2024-05-13,2024-04-22,株式会社カンカク,,株式会社,東京都,渋谷区,神宮前５丁目２７番８号,,13,113,1500001,,,2024-04-22,清算の結了等,,,2018-11-09,1,,,,,カンカク,0
1267,5010601036585,登記記録の閉鎖等,0,2024-05-13,2024-05-02,ＦＷＰリサーチ株式会社,,株式会社,東京都,江東区,古石場３丁目１１番８号,,13,108,1350045,,,2024-05-02,清算の結了等,,,2015-10-05,1,,,,,エフダブリューピーリサーチ,0
1268,5010602007461,登記記録の閉鎖等,0,2024-05-13,2024-05-07,有限会社藤井商店,,有限会社,東京都,江東区,三好２丁目１１番１２号,,13,108,1350022,,,2024-05-07,清算の結了等,,,2015-10-05,1,,,,,フジイショウテン,0
1281,5011001130359,登記記録の閉鎖等,0,2024-05-13,2024-04-22,株式会社グッドイートカンパニー,,株式会社,東京都,渋谷区,神宮前５丁目２７番８号,,13,113,1500001,,,2024-04-22,清算の結了等,,,2019-10-10,1,,,,,グッドイートカンパニー,0
1291,5011101067154,登記記録の閉鎖等,0,2024-05-13,2024-05-01,株式会社ＧＴサポート,,株式会社,東京都,新宿区,高田馬場１丁目１３番８号,,13,104,1690075,,,2024-05-01,清算の結了等,,,2015-10-05,1,,,,,ジーティーサポート,0
1301,5011303004145,登記記録の閉鎖等,0,2024-05-13,2024-04-30,ＰＲプラス合同会社,,合同会社,東京都,杉並区,高井戸西２丁目１６番２８号,,13,115,1680071,,,2024-04-30,清算の結了等,,,2021-08-25,1,,,,,ピーアールプラス,0
1305,5011403003765,登記記録の閉鎖等,0,2024-05-13,2024-05-02,ＴＫ　Ｌａｎｄ　Ｄｏｏｒ合同会社,,合同会社,東京都,板橋区,蓮根２丁目１６番１６－５０３号,,13,119,1740046,,,2024-05-02,清算の結了等,,,2022-09-09,1,,,,,ティケイランドドア,0
1310,5011502011388,登記記録の閉鎖等,0,2024-05-13,2024-04-30,有限会社宮内印刷所,,有限会社,東京都,荒川区,西日暮里２丁目３４番４号,,13,118,1160013,,,2024-04-30,清算の結了等,,,2015-10-05,1,,,,,ミヤウチインサツジョ,0
1320,5011801038371,登記記録の閉鎖等,0,2024-05-13,2024-05-08,株式会社林商事,,株式会社,東京都,葛飾区,南水元３丁目４番２－１０４号,,13,122,1250035,,,2024-05-08,清算の結了等,,,2020-11-18,1,,,,,ハヤシショウジ,0
1330,5013301040304,登記記録の閉鎖等,0,2024-05-13,2024-04-26,ワールドアイ株式会社,,株式会社,東京都,豊島区,池袋本町１丁目１５－４－１０１号室,,13,116,1700011,,,2024-04-26,清算の結了等,,,2017-03-29,1,,,,,ワールドアイ,0
1336,5020001087559,登記記録の閉鎖等,0,2024-05-13,2024-04-30,株式会社トリプルシックス,,株式会社,神奈川県,横浜市緑区,北八朔町２０５４番地８,,14,113,2260021,,,2024-04-30,清算の結了等,,,2015-10-05,1,,,,,トリプルシックス,0
1344,5020002086551,登記記録の閉鎖等,0,2024-05-13,2024-04-30,有限会社シンワ薬品,,有限会社,神奈川県,川崎市宮前区,有馬３丁目２８番地の２０,,14,136,2160003,,,2024-04-30,清算の結了等,,,2015-10-05,1,,,,,シンワヤクヒン,0
1358,5030001073913,登記記録の閉鎖等,0,2024-05-13,2024-05-07,エース産業株式会社,,株式会社,埼玉県,川口市,江戸袋１丁目７番１７号,,11,203,3340075,,,2024-05-07,清算の結了等,,,2015-10-05,1,,,,,エースサンギョウ,0
1370,5030002117108,登記記録の閉鎖等,0,2024-05-13,2024-05-07,有限会社英商事,,有限会社,埼玉県,深谷市,萱場４６０番地,,11,218,3660818,,,2024-05-07,清算の結了等,,,2015-10-05,1,,,,,ハナブサショウジ,0
1391,5050002043995,登記記録の閉鎖等,0,2024-05-13,2024-05-01,有限会社角長,,有限会社,栃木県,真岡市,大根田８７番地２,,09,209,3214506,,,2024-05-01,清算の結了等,,,2015-10-05,1,,,,,カクチョウ,0
1429,5122001019993,登記記録の閉鎖等,0,2024-05-13,2024-05-10,株式会社弁慶,,株式会社,大阪府,八尾市,西高安町１丁目４８番地,,27,212,5810852,,,2024-05-10,清算の結了等,,,2015-10-05,1,,,,,ベンケイ,0
1450,5170005004173,登記記録の閉鎖等,0,2024-05-13,2024-05-10,特定非営利活動法人ほっとタウン有功,,その他の設立登記法人,和歌山県,和歌山市,六十谷７４８番地,,30,201,6408482,,,2024-05-10,清算の結了等,,,2015-10-05,1,,,,,ホットタウンイサオ,0
1454,5180001113068,登記記録の閉鎖等,0,2024-05-13,2024-05-01,シンワ株式会社,,株式会社,愛知県,名古屋市南区,豊田３丁目１０－７バンベールラフィネ道徳４１１,,23,112,4570841,,,2024-05-01,清算の結了等,,,2015-10-05,1,,,,,シンワ,0
1463,5180302024006,登記記録の閉鎖等,0,2024-05-13,2024-05-02,有限会社魚牧商店,,有限会社,愛知県,みよし市,三好町木之本２３番地,,23,236,4700224,,,2024-05-02,清算の結了等,,,2015-10-05,1,,,,,ウオマキショウテン,0
1464,5180302026679,登記記録の閉鎖等,0,2024-05-13,2024-05-02,有限会社加藤製粉所,,有限会社,愛知県,西尾市,吉良町上横須賀蔵屋敷８０番地,,23,213,4440521,,,2024-05-02,清算の結了等,,,2015-10-05,1,,,,,カトウセイフンショ,0
1468,5190002001262,登記記録の閉鎖等,0,2024-05-13,2024-05-09,有限会社林タタミ工業,,有限会社,三重県,津市,南中央２０番１６号,,24,201,5140832,,,2024-05-09,清算の結了等,,,2015-10-05,1,,,,,ハヤシタタミコウギョウ,0
1469,5190002017564,登記記録の閉鎖等,0,2024-05-13,2024-05-08,有限会社プロジェクト・ティ,,有限会社,三重県,桑名市,長島町松蔭１１５番地の１,,24,205,5111134,,,2024-05-08,清算の結了等,,,2015-10-05,1,,,,,プロジェクトティ,0
1473,5210001011425,登記記録の閉鎖等,0,2024-05-13,2024-05-09,福井バスサービス株式会社,,株式会社,福井県,福井市,大町２丁目１０７番地,,18,201,9188116,,,2024-05-09,清算の結了等,,,2015-10-05,1,,,,,フクイバスサービス,0
1476,5230001010012,登記記録の閉鎖等,0,2024-05-13,2024-05-01,高陵ブロンズ株式会社,00078917,株式会社,富山県,高岡市,長慶寺９１１番地,,16,202,9330951,,,2024-05-01,合併による解散等,1230001011154,令和６年５月１日富山県高岡市長慶寺９１０番地株式会社ヨネダアドキャスト（1230001011154）に合併し解散,2015-10-05,1,,,,,コウリョウブロンズ,0
1479,5260001011791,登記記録の閉鎖等,0,2024-05-13,2024-05-02,株式会社エステートミカサ,,株式会社,岡山県,岡山市北区,納所９１番地,,33,101,7010162,,,2024-05-02,清算の結了等,,,2015-10-05,1,,,,,エステートミカサ,0
1487,5260003004182,登記記録の閉鎖等,0,2024-05-13,2024-05-02,合同会社フォレスト１４号,,合同会社,岡山県,岡山市北区,西辛川５５０番地１９（１）,,33,101,7011213,,,2024-05-02,清算の結了等,,,2023-01-27,1,,,,,フォレストジュウヨンゴウ,0
1490,5280005005004,登記記録の閉鎖等,0,2024-05-13,2024-05-08,農事組合法人小松地営農倶楽部,,その他の設立登記法人,島根県,邑智郡美郷町,小松地２２２番地６,,32,448,6961135,,,2024-05-08,清算の結了等,,,2015-10-05,1,,,,,コマツジエイノウクラブ,0
1505,5320003002691,登記記録の閉鎖等,0,2024-05-13,2024-04-22,ＭＯＬＬＹ企画合同会社,,合同会社,大分県,中津市,中殿町３丁目２３番地３,,44,203,8710030,,,2024-04-22,清算の結了等,,,2017-10-24,1,,,,,,0
1506,5330001006339,登記記録の閉鎖等,0,2024-05-13,2024-05-08,株式会社コア・アルファ,,株式会社,熊本県,熊本市中央区,南坪井町７番地７ジーエスハイムチクシ３０６,,43,101,8600848,,,2024-05-08,清算の結了等,,,2015-10-05,1,,,,,コアアルファ,0
1507,5330002006908,登記記録の閉鎖等,0,2024-05-13,2024-05-09,有限会社津野鋼建,,有限会社,熊本県,熊本市北区,麻生田５丁目２９番８号,,43,105,8618081,,,2024-05-09,清算の結了等,,,2015-10-05,1,,,,,ツノコウケン,0
1522,5410002002915,登記記録の閉鎖等,0,2024-05-13,2024-04-25,有限会社日光商会,,有限会社,秋田県,秋田市,八橋田五郎１丁目３番１２号,,05,201,0100972,,,2024-04-25,清算の結了等,,,2015-10-05,1,,,,,,0
1523,5410002011164,登記記録の閉鎖等,0,2024-05-13,2024-05-01,有限会社ミヤコ管財,,有限会社,秋田県,湯沢市,愛宕町３丁目６番１８号,,05,207,0120855,,,2024-05-01,清算の結了等,,,2015-10-05,1,,,,,ミヤコカンザイ,0
1532,5430002004348,登記記録の閉鎖等,0,2024-05-13,2024-05-07,有限会社オフイスアンドゥ,,有限会社,北海道,札幌市白石区,本郷通７丁目北６番１－９０４号,,01,104,0030025,,,2024-05-07,清算の結了等,,,2015-10-05,1,,,,,オフイスアンドゥ,0
1543,5460001005278,登記記録の閉鎖等,0,2024-05-13,2024-05-08,チュウケイネクスト株式会社,,株式会社,北海道,釧路市,黒金町７丁目４番地１太平洋興発ビル２階,,01,206,0850018,,,2024-05-08,合併による解散等,9430001022297,令和６年５月１日札幌市中央区南一条西八丁目１０番３第２８桂和ビル７階チュウケイ株式会社（9430001022297）に合併し解散,2018-06-28,1,,,,,チュウケイネクスト,0
1547,5470002010251,登記記録の閉鎖等,0,2024-05-13,2024-05-01,有限会社外壁松下工業,,有限会社,香川県,高松市,出作町２４７番地２,,37,201,7618077,,,2024-05-01,清算の結了等,,,2015-10-05,1,,,,,ガイヘキマツシタコウギョウ,0
1559,6010001003722,登記記録の閉鎖等,0,2024-05-13,2024-04-24,株式会社衆設計,,株式会社,東京都,文京区,本郷１丁目２５番２号,,13,105,1130033,,,2024-04-24,清算の結了等,,,2015-10-05,1,,,,,シュウセッケイ,0
1608,6011401021826,登記記録の閉鎖等,0,2024-05-13,2024-05-01,ファブフォー株式会社,,株式会社,大阪府,箕面市,船場東２丁目４番１号ＦＵＬＥＳＤＥＳＩＧＮＢＬＤＧ．５０４,,27,220,5620035,,,2024-05-01,合併による解散等,8120901028780,令和６年５月１日大阪府箕面市船場東二丁目４番１号フレスデザインビルフレスデザイン株式会社（8120901028780）に合併し解散,2019-05-20,1,,,,,ファブフォー,0
1613,6011701009125,登記記録の閉鎖等,0,2024-05-13,2024-04-26,株式会社アイ・シー・ディー,,株式会社,東京都,豊島区,南大塚１丁目１番８号ウエストモアビル３階,,13,116,1700005,,,2024-04-26,清算の結了等,,,2015-10-05,1,,,,,アイシーディー,0
1620,6012702013454,登記記録の閉鎖等,0,2024-05-13,2024-05-08,有限会社あい,,有限会社,東京都,西東京市,芝久保町１丁目７番１３の１０７号,,13,229,1880014,,,2024-05-08,清算の結了等,,,2015-10-05,1,,,,,,0
1623,6013101008153,登記記録の閉鎖等,0,2024-05-13,2024-04-05,Ｓ．ＣＲＡＦＴ株式会社,,株式会社,東京都,あきる野市,原小宮２丁目５番地１２,,13,228,1970811,,,2024-04-05,合併による解散等,5013101005192,令和６年３月３１日東京都あきる野市秋留二丁目２番地１２株式会社シムラ（5013101005192）に合併して解散,2019-09-04,1,,,,,エスクラフト,0
1625,6013301005685,登記記録の閉鎖等,0,2024-05-13,2024-04-30,ジャネコ株式会社,,株式会社,東京都,豊島区,南大塚３丁目２４番５号,,13,116,1700005,,,2024-04-30,清算の結了等,,,2015-10-05,1,,,,,ジャネコ,0
1629,6020001004810,登記記録の閉鎖等,0,2024-05-13,2024-04-30,株式会社エン,,株式会社,神奈川県,横浜市瀬谷区,瀬谷４丁目２０番地３,,14,114,2460031,,,2024-04-30,清算の結了等,,,2015-10-05,1,,,,,エン,0
1631,6020001049244,登記記録の閉鎖等,0,2024-05-13,2024-04-30,株式会社アニメイト,,株式会社,神奈川県,横浜市保土ケ谷区,上星川２丁目１番５号,,14,106,2400042,,,2024-04-30,清算の結了等,,,2015-10-05,1,,,,,アニメイト,0
1632,6020001090594,登記記録の閉鎖等,0,2024-05-13,2024-05-01,株式会社サッカーノート,,株式会社,神奈川県,川崎市幸区,新川崎５番１－１２０１号,,14,132,2120032,,,2024-05-01,清算の結了等,,,2015-10-05,1,,,,,サッカーノート,0
1638,6021001006433,登記記録の閉鎖等,0,2024-05-13,2024-05-02,日本計装株式会社,,株式会社,神奈川県,高座郡寒川町,大曲１丁目９番４１号,,14,321,2530113,,,2024-05-02,清算の結了等,,,2015-10-05,1,,,,,ニホンケイソウ,0
1639,6021001070669,登記記録の閉鎖等,0,2024-05-13,2024-05-09,株式会社和み建設,,株式会社,静岡県,富士市,松岡１１３７－１－Ｂ１０１号,,22,210,4160909,,,2024-05-09,清算の結了等,,,2020-08-21,1,,,,,ナゴミケンセツ,0
1640,6021002013791,登記記録の閉鎖等,0,2024-05-13,2024-05-08,有限会社アルファー,,有限会社,神奈川県,鎌倉市,岩瀬５６０番地,,14,204,2470051,,,2024-05-08,清算の結了等,,,2015-10-05,1,,,,,アルファー,0
1651,6030002048806,登記記録の閉鎖等,0,2024-05-13,2024-05-02,有限会社小林工業,,有限会社,埼玉県,三郷市,上口１丁目１２９番地,,11,237,3410055,,,2024-05-02,清算の結了等,,,2015-10-05,1,,,,,コバヤシコウギョウ,0
1656,6030003018576,登記記録の閉鎖等,0,2024-05-13,2024-05-08,合同会社ＳＮＧ,,合同会社,埼玉県,川口市,芝下２丁目２０番３３号,,11,203,3330848,,,2024-05-08,清算の結了等,,,2022-01-05,1,,,,,エスエヌジー,0
1659,6040001049688,登記記録の閉鎖等,0,2024-05-13,2024-04-25,ＡＸＩＳ株式会社,,株式会社,千葉県,佐倉市,西志津４丁目１６番９号,,12,212,2850845,,,2024-04-25,清算の結了等,,,2015-10-05,1,,,,,アクシス,0
1662,6040002010269,登記記録の閉鎖等,0,2024-05-13,2024-04-30,有限会社元,,有限会社,千葉県,千葉市中央区,中央２丁目２番８号,,12,101,2600013,,,2024-04-30,清算の結了等,,,2015-10-05,1,,,,,,0
1677,6080001023623,登記記録の閉鎖等,0,2024-05-13,2024-05-01,株式会社トロワトレゾール,,株式会社,静岡県,静岡市葵区,北安東２丁目２番３１－４０２号,,22,101,4200881,,,2024-05-01,清算の結了等,,,2020-07-14,1,,,,,トロワトレゾール,0
1689,6110001030673,登記記録の閉鎖等,0,2024-05-13,2024-05-08,東泰株式会社,,株式会社,新潟県,上越市,浦川原区日向８６番地,,15,222,9420339,,,2024-05-08,清算の結了等,,,2015-10-05,1,,,,,トウタイ,0
1723,6140001112989,登記記録の閉鎖等,0,2024-05-13,2024-05-09,株式会社三真商事,,株式会社,大阪府,大阪市淀川区,三国本町１丁目５－３６ハイネスト新大阪３０８号室,,27,123,5320005,,,2024-05-09,清算の結了等,,,2019-03-11,1,,,,,サンシンショウジ,0
1728,6150001007222,登記記録の閉鎖等,0,2024-05-13,2024-05-10,ヨシダ住研株式会社,,株式会社,奈良県,生駒郡斑鳩町,服部１丁目１２番８号,,29,344,6360131,,,2024-05-10,清算の結了等,,,2015-10-05,1,,,,,ヨシダジュウケン,0
1739,6180001143898,登記記録の閉鎖等,0,2024-05-13,2024-04-26,株式会社名成産商,,株式会社,愛知県,名古屋市東区,泉３丁目１７番１０号泉ビル３Ｆ,,23,102,4610001,,,2024-04-26,清算の結了等,,,2020-12-08,1,,,,,メイセイサンショウ,0
1743,6180002005973,登記記録の閉鎖等,0,2024-05-13,2024-05-01,有限会社二紅葉,,有限会社,愛知県,名古屋市千種区,春岡２丁目１４番７号,,23,101,4640848,,,2024-05-01,清算の結了等,,,2015-10-05,1,,,,,ニモミジ,0
1753,6180003022860,登記記録の閉鎖等,0,2024-05-13,2024-04-30,フレックス・プランニング合同会社,,合同会社,愛知県,一宮市,北方町北方字高徳寺前４６番地,,23,203,4938001,,,2024-04-30,清算の結了等,,,2021-08-19,1,,,,,フレックスプランニング,0
1784,6260003004181,登記記録の閉鎖等,0,2024-05-13,2024-05-02,合同会社フォレスト１３号,,合同会社,岡山県,岡山市北区,西辛川５５０番地１９（１）,,33,101,7011213,,,2024-05-02,清算の結了等,,,2023-01-27,1,,,,,フォレストジュウサンゴウ,0
1806,6330002029742,登記記録の閉鎖等,0,2024-05-13,2024-05-09,有限会社肥後建設,,有限会社,熊本県,上天草市,大矢野町登立１１６８９番地,,43,212,8693601,,,2024-05-09,清算の結了等,,,2015-10-05,1,,,,,ヒゴケンセツ,0
1808,6330005005641,登記記録の閉鎖等,0,2024-05-13,2024-04-12,天理教熊輝分教会,,その他の設立登記法人,熊本県,下益城郡美里町,堅志田５４番地,,43,348,8614402,,,2024-04-12,合併による解散等,6330005003760,令和６年４月１２日熊本県上益城郡甲佐町大字岩下１４９番地天理教熊明分教会（6330005003760）に合併し解散,2015-10-05,1,,,,,テンリキョウユウキブンキョウカイ,0
1812,6350003002787,登記記録の閉鎖等,0,2024-05-13,2024-05-08,合同会社泉の杜,,合同会社,宮崎県,都城市,菖蒲原町１３街区３号,,45,202,8850034,,,2024-05-08,清算の結了等,,,2016-10-25,1,,,,,イズミノモリ,0
1824,6380003001241,登記記録の閉鎖等,0,2024-05-13,2024-05-08,合資会社松睦,,合資会社,福島県,いわき市,平字禰宜町５番地,00084252,07,204,9708026,,,2024-05-08,清算の結了等,,,2015-10-05,1,,,,,マツミ,0
1834,6470002009689,登記記録の閉鎖等,0,2024-05-13,2024-05-01,有限会社日進設計事務所,00005377,有限会社,香川県,高松市,香南町岡４８番地４,,37,201,7611401,,,2024-05-01,清算の結了等,,,2015-10-05,1,,,,,ニッシンセッケイジムショ,0
1856,7010001020907,登記記録の閉鎖等,0,2024-05-13,2024-05-01,株式会社エクラ・エステート,,株式会社,東京都,千代田区,紀尾井町４番１号ニューオータニガーデンコート８階エクラコンサルティング内,,13,101,1020094,,,2024-05-01,合併による解散等,9011001070642,令和６年５月１日東京都千代田区紀尾井町４番１号ニューオータニガーデンコート８階株式会社エクラコンサルティング（9011001070642）に合併し解散,2015-10-05,1,,,,,エクラエステート,0
1862,7010001135151,登記記録の閉鎖等,0,2024-05-13,2024-05-09,株式会社オフィス・ブランコ,,株式会社,東京都,江東区,有明１丁目４番２０－９０６号,,13,108,1350063,,,2024-05-09,合併による解散等,4010001004202,令和６年４月３０日茨城県下妻市下妻丁１０２番地瀬戸川商事株式会社（4010001004202）に合併し解散,2015-10-05,1,,,,,オフィスブランコ,0
1881,7010002040805,登記記録の閉鎖等,0,2024-05-13,2024-04-26,有限会社テラ医療研究室,,有限会社,東京都,千代田区,富士見２丁目１２番１７号,,13,101,1020071,,,2024-04-26,清算の結了等,,,2015-10-05,1,,,,,テライリョウケンキュウシツ,0
1887,7010005026462,登記記録の閉鎖等,0,2024-05-13,2024-04-30,一般社団法人日本チャットボット協会,,その他の設立登記法人,東京都,千代田区,飯田橋３丁目１０番１－２１０８号,,13,101,1020072,,,2024-04-30,清算の結了等,,,2017-02-22,1,,,,,ニホンチャットボットキョウカイ,0
1888,7010005034449,登記記録の閉鎖等,0,2024-05-13,2024-05-02,一般社団法人居心地研究所,,その他の設立登記法人,東京都,町田市,玉川学園７丁目１７番２４号,,13,209,1940041,,,2024-05-02,清算の結了等,,,2022-01-20,1,,,,,イゴコチケンキュウジョ,0
1890,7010102006103,登記記録の閉鎖等,0,2024-05-13,2024-04-22,有限会社ＭＳＣ,,有限会社,埼玉県,加須市,北辻１４１番地１,00116576,11,210,3470023,,,2024-04-22,合併による解散等,9030001033203,令和６年４月１日埼玉県加須市北辻１４１番地１株式会社エムエス物流（9030001033203）に合併し解散,2015-10-05,1,,,,,エムエスシー,0
1909,7010901003548,登記記録の閉鎖等,0,2024-05-13,2024-05-02,グランド商事株式会社,,株式会社,東京都,世田谷区,祖師谷１丁目６番１１号,,13,112,1570072,,,2024-05-02,清算の結了等,,,2015-10-05,1,,,,,グランドショウジ,0
1916,7011001137807,登記記録の閉鎖等,0,2024-05-13,2024-04-19,株式会社Ｗｉｔｈ　Ｃｏｄｅ,,株式会社,東京都,渋谷区,恵比寿２丁目２８番７号秀ビル２階,,13,113,1500013,,,2024-04-19,清算の結了等,,,2021-01-08,1,,,,,ウィズコード,0
1940,7011701024057,登記記録の閉鎖等,0,2024-05-13,2024-04-26,株式会社いきらぼ,,株式会社,東京都,江戸川区,中葛西５丁目２８番８,,13,123,1340083,,,2024-04-26,清算の結了等,,,2021-01-22,1,,,,,イキラボ,0
1947,7012702001581,登記記録の閉鎖等,0,2024-05-13,2024-05-08,有限会社フードランド・ヤマカワ,,有限会社,東京都,小平市,花小金井２丁目１８番１７号,,13,211,1870002,,,2024-05-08,清算の結了等,,,2015-10-05,1,,,,,フードランドヤマカワ,0
1959,7020001100823,登記記録の閉鎖等,0,2024-05-13,2024-04-30,株式会社横浜緑,,株式会社,神奈川県,横浜市緑区,中山４丁目１１番１０号,,14,113,2260019,,,2024-04-30,清算の結了等,,,2015-10-05,1,,,,,ヨコハマミドリ,0
1970,7020003019772,登記記録の閉鎖等,0,2024-05-13,2024-04-30,Ｅｎｔｒｙ　Ｐｏｉｎｔ合同会社,,合同会社,神奈川県,川崎市川崎区,大師駅前２丁目１番７－２２７号シティテラス川崎鈴木町ガーデンズ,,14,131,2100802,,,2024-04-30,清算の結了等,,,2021-05-11,1,,,,,エントリーポイント,0
1982,7021002055544,登記記録の閉鎖等,0,2024-05-13,2024-05-09,有限会社アオイ建築設計事務所,,有限会社,神奈川県,足柄上郡開成町,延沢５８８番地の１,,14,366,2580026,,,2024-05-09,清算の結了等,,,2015-10-05,1,,,,,,0
1987,7030001035416,登記記録の閉鎖等,0,2024-05-13,2024-05-07,日昭メルト株式会社,,株式会社,埼玉県,草加市,瀬崎５丁目５３番１７号,,11,221,3400022,,,2024-05-07,清算の結了等,,,2015-10-05,1,,,,,ニッショウメルト,0
2019,7070001032541,登記記録の閉鎖等,0,2024-05-13,2024-05-09,ＰＩＮＧ　ＦＡＦＡＨＥＥ株式会社,,株式会社,群馬県,高崎市,大八木町１１６番地９,,10,202,3700072,,,2024-05-09,清算の結了等,,,2016-08-12,1,,,,,ピングファファヒー,0
2040,7100005011728,登記記録の閉鎖等,0,2024-05-13,2024-04-23,一般社団法人軽井沢ソーシャルデザイン研究所,,その他の設立登記法人,長野県,北佐久郡軽井沢町,大字軽井沢字下古川４００番地１,,20,321,3890102,,,2024-04-23,清算の結了等,,,2015-11-05,1,,,,,カルイザワソーシャルデザインケンキュウショ,0
2043,7110002003041,登記記録の閉鎖等,0,2024-05-13,2024-05-09,有限会社シン空調テクノサービス,,有限会社,新潟県,新潟市東区,新岡山２丁目８番１０号,,15,102,9500822,,,2024-05-09,清算の結了等,,,2015-10-05,1,,,,,シンクウチョウテクノサービス,0
2078,7160002008993,登記記録の閉鎖等,0,2024-05-13,2024-05-02,有限会社オオタニ,,有限会社,滋賀県,犬上郡多賀町,大字多賀６６２番地,,25,443,5220341,,,2024-05-02,清算の結了等,,,2015-10-05,1,,,,,オオタニ,0
2113,7250002006757,登記記録の閉鎖等,0,2024-05-13,2024-05-09,有限会社山陽通信,,有限会社,山口県,山陽小野田市,大字津布田６８６番地の９,,35,216,7570011,,,2024-05-09,清算の結了等,,,2015-10-05,1,,,,,サンヨウツウシン,0
2116,7260001020171,登記記録の閉鎖等,0,2024-05-13,2024-05-02,平福物産株式会社,,株式会社,岡山県,津山市,津山口２５４番地の１０,,33,203,7080884,,,2024-05-02,清算の結了等,,,2015-10-05,1,,,,,ヒラフクブッサン,0
2118,7260001032365,登記記録の閉鎖等,0,2024-05-13,2024-04-26,株式会社シンクリエイト,,株式会社,岡山県,岡山市南区,箕島２０４２番地６,,33,104,7010206,,,2024-04-26,清算の結了等,,,2018-09-05,1,,,,,シンクリエイト,0
2121,7260003004180,登記記録の閉鎖等,0,2024-05-13,2024-05-02,合同会社フォレスト１２号,,合同会社,岡山県,岡山市北区,西辛川５５０番地１９（１）,,33,101,7011213,,,2024-05-02,清算の結了等,,,2023-01-27,1,,,,,フォレストジュウニゴウ,0
2125,7280002010673,登記記録の閉鎖等,0,2024-05-13,2024-05-09,有限会社ジュンメディカル,,有限会社,島根県,益田市,久城町９１９番地２,,32,204,6980001,,,2024-05-09,清算の結了等,,,2015-10-05,1,,,,,ジュンメディカル,0
2132,7290003008542,登記記録の閉鎖等,0,2024-05-13,2024-04-10,合同会社ミヤマ機工,,合同会社,福岡県,大牟田市,大字三池１３番地５,,40,202,8370921,,,2024-04-10,清算の結了等,,,2018-11-26,1,,,,,ミヤマキコウ,0
2137,7290801008776,登記記録の閉鎖等,0,2024-05-13,2024-05-02,株式会社きらめきの郷,,株式会社,福岡県,北九州市門司区,田野浦１丁目２１番１１号,,40,101,8010803,,,2024-05-02,清算の結了等,,,2015-10-05,1,,,,,キラメキノサト,0
2147,7350002012308,登記記録の閉鎖等,0,2024-05-13,2024-05-08,有限会社千葉瓦工業所,,有限会社,宮崎県,延岡市,古城町２丁目１３番地６,,45,203,8820837,,,2024-05-08,清算の結了等,,,2015-10-05,1,,,,,チバカワラコウギョウショ,0
2155,7380001009137,登記記録の閉鎖等,0,2024-05-13,2024-05-02,株式会社ロリアンドリーム,,株式会社,福島県,郡山市,鶴見坦３丁目１３番８号－３０２,,07,203,9638861,,,2024-05-02,清算の結了等,,,2015-10-05,1,,,,,ロリアンドリーム,0
2162,7430002023214,登記記録の閉鎖等,0,2024-05-13,2024-04-30,有限会社札幌かに工房,,有限会社,北海道,札幌市清田区,真栄二条１丁目３番１５号,,01,110,0040832,,,2024-04-30,清算の結了等,,,2015-10-05,1,,,,,サッポロカニコウボウ,0
2163,7430002061874,登記記録の閉鎖等,0,2024-05-13,2024-05-07,有限会社丸大おおたき,,有限会社,北海道,日高郡新ひだか町,静内吉野町１丁目１番１号,,01,610,0560018,,,2024-05-07,清算の結了等,,,2015-10-05,1,,,,,マルダイオオタキ,0
2171,7460102006090,登記記録の閉鎖等,0,2024-05-13,2024-05-07,有限会社上山産業,,有限会社,北海道,足寄郡足寄町,平和７８番地２,,01,647,0893725,,,2024-05-07,清算の結了等,,,2015-10-05,1,,,,,ウエヤマサンギョウ,0
2202,8010001158127,登記記録の閉鎖等,0,2024-05-13,2024-04-25,株式会社ジャパンマルチメディア放送,,株式会社,東京都,千代田区,麹町１丁目７番地,,13,101,1020083,,,2024-04-25,清算の結了等,,,2015-10-05,1,,,,,ジャパンマルチメディアホウソウ,0
2214,8010005014301,登記記録の閉鎖等,0,2024-05-13,2024-05-09,特定非営利活動法人都市まち研究体,,その他の設立登記法人,東京都,千代田区,飯田橋１丁目８番１０号,,13,101,1020072,,,2024-05-09,清算の結了等,,,2015-10-05,1,,,,,トシマチケンキュウタイ,0
2218,8010401138901,登記記録の閉鎖等,0,2024-05-13,2024-04-19,ＺＮＥＴ株式会社,,株式会社,東京都,港区,赤坂２丁目１６番６号,,13,103,1070052,,,2024-04-19,清算の結了等,,,2018-06-12,1,,,,,ジーネット,0
2225,8010402009837,登記記録の閉鎖等,0,2024-05-13,2024-05-10,有限会社アリカ,,有限会社,神奈川県,藤沢市,亀井野３１９４番地,,14,205,2520813,,,2024-05-10,清算の結了等,,,2015-10-05,1,,,,,アリカ,0
2240,8010801030352,登記記録の閉鎖等,0,2024-05-13,2024-04-30,株式会社ケーアイシー,,株式会社,東京都,大田区,羽田旭町８番１号,,13,111,1440042,,,2024-04-30,清算の結了等,,,2019-11-07,1,,,,,ケーアイシー,0
2252,8011001037337,登記記録の閉鎖等,0,2024-05-13,2024-05-08,サンケンインターナショナル株式会社,,株式会社,東京都,杉並区,荻窪３丁目１３番１７号,,13,115,1670051,,,2024-05-08,清算の結了等,,,2015-10-05,1,,,,,サンケンインターナショナル,0
2261,8011103008442,登記記録の閉鎖等,0,2024-05-13,2024-05-01,合同会社ジェイ・ヴイ・エー,,合同会社,東京都,新宿区,下宮比町１番４号,,13,104,1620822,,,2024-05-01,清算の結了等,,,2018-12-06,1,,,,,ジェイヴイエー,0
2262,8011103008987,登記記録の閉鎖等,0,2024-05-13,2024-05-01,合同会社ジェイ・ヴイ・アイ,,合同会社,東京都,新宿区,下宮比町１番４号,,13,104,1620822,,,2024-05-01,清算の結了等,,,2019-08-01,1,,,,,ジェイヴイアイ,0
2263,8011103012675,登記記録の閉鎖等,0,2024-05-13,2024-05-01,合同会社ＥＳ５１,,合同会社,東京都,新宿区,下宮比町１番４号,,13,104,1620822,,,2024-05-01,清算の結了等,,,2023-02-07,1,,,,,イーエスゴジュウイチ,0
2268,8011501007021,登記記録の閉鎖等,0,2024-05-13,2024-05-08,株式会社シャルク建築設計事務所,,株式会社,東京都,練馬区,谷原６丁目２３番９号,,13,120,1770032,,,2024-05-08,清算の結了等,,,2015-10-05,1,,,,,シャルクケンチクセッケイジムショ,0
2278,8012402013728,登記記録の閉鎖等,0,2024-05-13,2024-05-02,有限会社藤正,,有限会社,東京都,狛江市,東和泉３丁目１１番１６号,,13,219,2010014,,,2024-05-02,清算の結了等,,,2015-10-05,1,,,,,トウショウ,0
2285,8013302009535,登記記録の閉鎖等,0,2024-05-13,2024-04-30,有限会社三重商事,,有限会社,東京都,豊島区,長崎３丁目１８番５号,,13,116,1710051,,,2024-04-30,清算の結了等,,,2015-10-05,1,,,,,ミエショウジ,0
2300,8021001070626,登記記録の閉鎖等,0,2024-05-13,2024-05-10,株式会社ＬＡＲＡ　ＦＡＣＴＯＲＹ,,株式会社,神奈川県,相模原市中央区,鹿沼台２丁目２３番６号,,14,152,2520233,,,2024-05-10,清算の結了等,,,2020-08-19,1,,,,,ララファクトリー,0
2302,8021002015118,登記記録の閉鎖等,0,2024-05-13,2024-05-10,有限会社茶らく,,有限会社,神奈川県,鎌倉市,雪ノ下１丁目８番３６号津多屋ビル,,14,204,2480005,,,2024-05-10,清算の結了等,,,2015-10-05,1,,,,,チャラク,0
2305,8021003011743,登記記録の閉鎖等,0,2024-05-13,2024-05-02,合同会社フエフ・オッパショ,,合同会社,神奈川県,相模原市南区,豊町２番２６号メゾンアスカ２０２,,14,153,2520305,,,2024-05-02,清算の結了等,,,2022-05-27,1,,,,,フエフオッパショ,0
2308,8030001029301,登記記録の閉鎖等,0,2024-05-13,2024-05-07,株式会社エス・ティ・ディ,,株式会社,埼玉県,所沢市,大字荒幡４３２番地の３,,11,208,3591133,,,2024-05-07,清算の結了等,,,2015-10-05,1,,,,,エスティディ,0
2309,8030001033724,登記記録の閉鎖等,0,2024-05-13,2024-05-08,ＢＥＳＴ物流株式会社,,株式会社,埼玉県,幸手市,大字幸手２５３４番,,11,240,3400113,,,2024-05-08,清算の結了等,,,2015-10-05,1,,,,,ベストブツリュウ,0
2319,8030002122096,登記記録の閉鎖等,0,2024-05-13,2024-05-08,長瀞商業振興有限会社,,有限会社,埼玉県,秩父郡長瀞町,大字本野上１８９番地６,,11,363,3691304,,,2024-05-08,清算の結了等,,,2015-10-05,1,,,,,ナガトロショウギョウシンコウ,0
2320,8030003009136,登記記録の閉鎖等,0,2024-05-13,2024-05-08,合同会社ビジネスクリエイト,,合同会社,埼玉県,坂戸市,大字新堀１７４番地４,,11,239,3500262,,,2024-05-08,清算の結了等,,,2016-07-22,1,,,,,ビジネスクリエイト,0
2324,8030005020537,登記記録の閉鎖等,0,2024-05-13,2024-05-07,一般社団法人国際ジュニアサッカー協会,,その他の設立登記法人,埼玉県,朝霞市,溝沼２丁目１番４５号,,11,227,3510023,,,2024-05-07,清算の結了等,,,2021-10-04,1,,,,,コクサイジュニアサッカーキョウカイ,0
2327,8040001103170,登記記録の閉鎖等,0,2024-05-13,2024-04-30,株式会社ファイン・トータルキャリア,,株式会社,千葉県,四街道市,大日３５７番地１９号,,12,228,2840001,,,2024-04-30,清算の結了等,,,2018-01-15,1,,,,,ファイントータルキャリア,0
2331,8040002052986,登記記録の閉鎖等,0,2024-05-13,2024-04-26,有限会社グラァデン,,有限会社,千葉県,流山市,向小金２丁目４２３番地の１,,12,220,2700143,,,2024-04-26,清算の結了等,,,2015-10-05,1,,,,,グラァデン,0
2346,8080001021253,登記記録の閉鎖等,0,2024-05-13,2024-05-02,日本エンヨー販売株式会社,,株式会社,静岡県,島田市,中河１０８３番地の３６,,22,209,4270103,,,2024-05-02,清算の結了等,,,2016-11-21,1,,,,,ニホンエンヨーハンバイ,0
2348,8080101022192,登記記録の閉鎖等,0,2024-05-13,2024-04-30,株式会社ＴＲＥＥ,,株式会社,静岡県,三島市,長伏６６５番地の７コーポラス杉山ＩＩＩ１０１,00121527,22,206,4110824,,,2024-04-30,清算の結了等,,,2020-12-04,1,,,,,ツリー,0
2352,8080401024707,登記記録の閉鎖等,0,2024-05-13,2024-05-09,株式会社やまけん,,株式会社,静岡県,袋井市,久能１８４８番地の６,,22,216,4370061,,,2024-05-09,清算の結了等,,,2020-12-04,1,,,,,ヤマケン,0
2355,8100002022438,登記記録の閉鎖等,0,2024-05-13,2024-04-23,有限会社中野サッシ工業,,有限会社,長野県,松本市,波田５１７番地,,20,202,3901401,,,2024-04-23,清算の結了等,,,2015-10-05,1,,,,,ナカノサッシコウギョウ,0
2356,8110001008073,登記記録の閉鎖等,0,2024-05-13,2024-05-09,株式会社隆生生コン,,株式会社,新潟県,新潟市西蒲区,升潟５０５１番地,,15,108,9590413,,,2024-05-09,清算の結了等,,,2015-10-05,1,,,,,リュウセイナマコン,0
2361,8120001100886,登記記録の閉鎖等,0,2024-05-13,2024-05-02,株式会社ブライトン,,株式会社,大阪府,大阪市天王寺区,伶人町２番９号錦城ビル,,27,109,5430061,,,2024-05-02,清算の結了等,,,2015-10-05,1,,,,,,0
2364,8120001185267,登記記録の閉鎖等,0,2024-05-13,2024-04-30,株式会社オデッセイ,,株式会社,大阪府,大阪市旭区,赤川３丁目１番１９号,,27,117,5350005,,,2024-04-30,合併による解散等,1120001063272,令和６年４月３０日大阪市都島区大東町二丁目５番１５号近畿電設保障株式会社（1120001063272）に合併し解散,2015-10-05,1,,,,,オデッセイ,0
2376,8120005005512,登記記録の閉鎖等,0,2024-05-13,2024-05-09,医療法人林クリニック,,その他の設立登記法人,大阪府,大阪市北区,芝田２丁目７番１８号１階,,27,127,5300012,,,2024-05-09,清算の結了等,,,2015-10-05,1,,,,,ハヤシクリニック,0
2388,8122001015511,登記記録の閉鎖等,0,2024-05-13,2024-05-10,谷駒木材産業株式会社,,株式会社,大阪府,大東市,中垣内５丁目６番６号,,27,218,5740013,,,2024-05-10,清算の結了等,,,2015-10-05,1,,,,,,0
2390,8130001063711,登記記録の閉鎖等,0,2024-05-13,2024-05-08,株式会社瀬戸地質,,株式会社,京都府,京都市伏見区,下鳥羽中円面田町１７ハイツリーフラット２０１,,26,109,6128498,,,2024-05-08,清算の結了等,,,2019-01-16,1,,,,,セトチシツ,0
2407,8160001005941,登記記録の閉鎖等,0,2024-05-13,2024-05-10,株式会社レイクウイング,,株式会社,滋賀県,湖南市,石部南３丁目７番１２号,,25,211,5203108,,,2024-05-10,清算の結了等,,,2015-10-05,1,,,,,レイクウイング,0
2417,8180002000147,登記記録の閉鎖等,0,2024-05-13,2024-04-30,有限会社一休,,有限会社,愛知県,名古屋市守山区,廿軒家１０番１６号,,23,113,4630065,,,2024-04-30,清算の結了等,,,2015-10-05,1,,,,,イッキュウ,0
2421,8180002085824,登記記録の閉鎖等,0,2024-05-13,2024-05-01,有限会社竹部,,有限会社,愛知県,知多郡美浜町,大字奥田字海道田８８・８９合番地,,23,446,4703233,,,2024-05-01,清算の結了等,,,2015-10-05,1,,,,,タケベ,0
2433,8190002008321,登記記録の閉鎖等,0,2024-05-13,2024-05-09,伊勢物流有限会社,,有限会社,三重県,伊勢市,宮川１丁目１３番１５号,,24,203,5160061,,,2024-05-09,清算の結了等,,,2015-10-05,1,,,,,イセブツリュウ,0
2436,8200002023277,登記記録の閉鎖等,0,2024-05-13,2024-05-07,有限会社キ長亀井商店,,有限会社,岐阜県,中津川市,太田町３丁目５番１９号,,21,206,5080033,,,2024-05-07,清算の結了等,,,2015-10-05,1,,,,,キチョウカメイショウテン,0
2440,8240002039427,登記記録の閉鎖等,0,2024-05-13,2024-05-08,岩村電設有限会社,,有限会社,広島県,福山市,駅家町大字万能倉１４８番地,,34,207,7201131,,,2024-05-08,清算の結了等,,,2015-10-05,1,,,,,イワムラデンセツ,0
2447,8260002001649,登記記録の閉鎖等,0,2024-05-13,2024-05-02,有限会社岡山経済研究会,,有限会社,岡山県,岡山市北区,西古松２丁目１７番３号,,33,101,7000927,,,2024-05-02,清算の結了等,,,2015-10-05,1,,,,,オカヤマケイザイケンキュウカイ,0
2455,8290001015762,登記記録の閉鎖等,0,2024-05-13,2024-04-12,博栄砕石株式会社,,株式会社,福岡県,糟屋郡篠栗町,大字若杉５３８番地４,,40,342,8112411,,,2024-04-12,清算の結了等,,,2015-10-05,1,,,,,ハクエイサイセキ,0
2490,8370001013469,登記記録の閉鎖等,0,2024-05-13,2024-05-01,株式会社スタイルシップ,,株式会社,宮城県,仙台市泉区,市名坂字鳥井原５８番１号,,04,105,9813117,,,2024-05-01,合併による解散等,2370002001973,令和６年５月１日仙台市泉区市名坂字鳥井原５８番地の１株式会社ＶＩＺＥＮ（2370002001973）に合併し解散,2015-10-05,1,,,,,スタイルシップ,0
2503,8390002012484,登記記録の閉鎖等,0,2024-05-13,2024-04-30,有限会社ベガス,,有限会社,山形県,東田川郡庄内町,余目字猿田２０番地５７,,06,428,9997781,,,2024-04-30,清算の結了等,,,2015-10-05,1,,,,,ベガス,0
2504,8410001000462,登記記録の閉鎖等,0,2024-05-13,2024-04-25,秋田中央農材株式会社,,株式会社,秋田県,秋田市,寺内蛭根２丁目１７番１０号,,05,201,0110904,,,2024-04-25,清算の結了等,,,2015-10-05,1,,,,,アキタチュウオウノウザイ,0
2510,8430002032247,登記記録の閉鎖等,0,2024-05-13,2024-05-01,有限会社花鳥,,有限会社,北海道,札幌市豊平区,月寒東五条１１丁目８番６号,,01,105,0620055,,,2024-05-01,合併による解散等,1430001044605,令和６年５月１日札幌市豊平区月寒東五条十一丁目８番６号株式会社ひかり（1430001044605）に合併し解散,2015-10-05,1,,,,,,0
2547,9010401147307,登記記録の閉鎖等,0,2024-05-13,2024-05-08,株式会社井筒東京,,株式会社,東京都,港区,西麻布４丁目３番地３号,,13,103,1060031,,,2024-05-08,合併による解散等,8130001016529,令和６年５月１日京都市下京区烏丸通松原上る因幡堂町７１３番地株式会社井筒（8130001016529）に合併し解散,2019-08-09,1,,,,,イヅツトウキョウ,0
2562,9010701032464,登記記録の閉鎖等,0,2024-05-13,2024-05-01,ウィルシャー株式会社,,株式会社,東京都,大田区,北馬込２丁目４８番９号,,13,111,1430021,,,2024-05-01,合併による解散等,2010701034269,令和６年５月１日東京都大田区北馬込二丁目４８番９号トミーパートナーズ株式会社（2010701034269）に合併し解散,2016-05-24,1,,,,,ウィルシャー,0
2569,9010803001565,登記記録の閉鎖等,0,2024-05-13,2024-04-30,合同会社石川不動産企画,,合同会社,東京都,大田区,池上５丁目８番１４号,,13,111,1460082,,,2024-04-30,清算の結了等,,,2015-10-05,1,,,,,イシカワフドウサンキカク,0
2570,9010901017752,登記記録の閉鎖等,0,2024-05-13,2024-04-19,株式会社計画・設計工房,,株式会社,東京都,港区,赤坂２丁目１７番５０－１８０３号,,13,103,1070052,,,2024-04-19,清算の結了等,,,2015-10-05,1,,,,,ケイカクセッケイコウボウ,0
2589,9011102013062,登記記録の閉鎖等,0,2024-05-13,2024-05-01,薬局実践研究会有限会社,,有限会社,東京都,新宿区,百人町１丁目１５番１８号,,13,104,1690073,,,2024-05-01,合併による解散等,6011101020731,令和６年５月１日東京都新宿区百人町一丁目１５番１８号株式会社龍生堂本店（6011101020731）に合併し解散,2015-10-05,1,,,,,ヤッキョクジッセンケンキュウカイ,0
2590,9011201001422,登記記録の閉鎖等,0,2024-05-13,2024-05-10,株式会社キャラバン,,株式会社,東京都,中野区,中野５丁目５２番１５号ブロードウェイ地下１階,,13,114,1640001,,,2024-05-10,清算の結了等,,,2015-10-05,1,,,,,キャラバン,0
2600,9011502013694,登記記録の閉鎖等,0,2024-05-13,2024-05-01,有限会社涼花,,有限会社,東京都,北区,浮間１丁目７番４号,,13,117,1150051,,,2024-05-01,清算の結了等,,,2015-10-05,1,,,,,リョウカ,0
2617,9020001152193,登記記録の閉鎖等,0,2024-05-13,2024-05-02,株式会社ＬＳＩＮＧ,,株式会社,東京都,世田谷区,代沢２丁目４３番地７号池ノ上プラザ３０１号,,13,112,1550032,,,2024-05-02,清算の結了等,,,2023-06-23,1,,,,,エルシング,0
2656,9060002003177,登記記録の閉鎖等,0,2024-05-13,2024-05-01,きもの総合加工有限会社阿久津,,有限会社,栃木県,芳賀郡芳賀町,大字西高橋４３６０番地２,,09,345,3213315,,,2024-05-01,清算の結了等,,,2015-10-05,1,,,,,キモノソウゴウカコウアクツ,0
2657,9060002014208,登記記録の閉鎖等,0,2024-05-13,2024-05-01,弁天食品有限会社,,有限会社,栃木県,那須烏山市,滝田１９９０番地１,,09,215,3210605,,,2024-05-01,清算の結了等,,,2015-10-05,1,,,,,ベンテンショクヒン,0
2664,9080002013991,登記記録の閉鎖等,0,2024-05-13,2024-05-07,山宇製紐有限会社,,有限会社,静岡県,島田市,東町２０６８番地の１,,22,209,4270011,,,2024-05-07,清算の結了等,,,2015-10-05,1,,,,,ヤマウセイチュウ,0
2669,9080102012209,登記記録の閉鎖等,0,2024-05-13,2024-05-10,有限会社ハマシマナーセリー,,有限会社,静岡県,駿東郡長泉町,下長窪２９番地の２,,22,342,4110934,,,2024-05-10,清算の結了等,,,2015-10-05,1,,,,,ハマシマナーセリー,0
2673,9100001009278,登記記録の閉鎖等,0,2024-05-13,2024-04-23,株式会社グリーンロード,,株式会社,長野県,小諸市,大字八満２６番地１,,20,208,3840051,,,2024-04-23,清算の結了等,,,2015-10-05,1,,,,,グリーンロード,0
2675,9100002034787,登記記録の閉鎖等,0,2024-05-13,2024-04-23,有限会社こうじや酒店,,有限会社,長野県,上伊那郡箕輪町,大字中箕輪５６５３番地,,20,383,3994601,,,2024-04-23,清算の結了等,,,2015-10-05,1,,,,,コウジヤサケテン,0
2676,9100003005688,登記記録の閉鎖等,0,2024-05-13,2024-04-30,合同会社パワースパーク,,合同会社,東京都,豊島区,南池袋１丁目９－１８－１４３号室,,13,116,1710022,,,2024-04-30,清算の結了等,,,2020-05-18,1,,,,,パワースパーク,0
2721,9160001010866,登記記録の閉鎖等,0,2024-05-13,2024-05-02,株式会社中田設計,,株式会社,滋賀県,近江八幡市,桜宮町２１６番地の４,,25,204,5230893,,,2024-05-02,清算の結了等,,,2015-10-05,1,,,,,ナカタセッケイ,0
2730,9180001118765,登記記録の閉鎖等,0,2024-05-13,2024-05-08,イッティージャパンウエスト株式会社,,株式会社,愛知県,名古屋市名東区,社台３丁目２３０番地,,23,115,4650092,,,2024-05-08,合併による解散等,6180001054071,令和６年５月１日名古屋市名東区姫若町３番地の２イッティージャパン株式会社（6180001054071）に合併し解散,2015-10-05,1,,,,,イッティージャパンウエスト,0
2737,9180002064372,登記記録の閉鎖等,0,2024-05-13,2024-05-01,有限会社山田建築,,有限会社,愛知県,豊明市,新栄町４丁目１２９番地,,23,229,4701154,,,2024-05-01,清算の結了等,,,2015-10-05,1,,,,,ヤマダケンチク,0
2746,9180302006314,登記記録の閉鎖等,0,2024-05-13,2024-05-02,有限会社旭,,有限会社,愛知県,豊橋市,駅前大通１丁目３３番地,,23,201,4400888,,,2024-05-02,清算の結了等,,,2015-10-05,1,,,,,アサヒ,0
2755,9240002007787,登記記録の閉鎖等,0,2024-05-13,2024-05-09,有限会社清水インテリアサービス,,有限会社,広島県,広島市安佐北区,白木町大字志路４９７５番地の１,,34,106,7391303,,,2024-05-09,清算の結了等,,,2015-10-05,1,,,,,シミズインテリアサービス,0
2762,9260002000609,登記記録の閉鎖等,0,2024-05-13,2024-05-02,有限会社イービーエル,,有限会社,岡山県,岡山市東区,城東台西１丁目４番９号,,33,103,7090624,,,2024-05-02,清算の結了等,,,2015-10-05,1,,,,,イービーエル,0
2765,9260002027791,登記記録の閉鎖等,0,2024-05-13,2024-05-01,有限会社宇佐美電業社,,有限会社,岡山県,津山市,下横野６０２番地の５,,33,203,7080807,,,2024-05-01,清算の結了等,,,2015-10-05,1,,,,,ウサミデンギョウシャ,0
2766,9260003004179,登記記録の閉鎖等,0,2024-05-13,2024-05-02,合同会社フォレスト１１号,,合同会社,岡山県,岡山市北区,西辛川５５０番地１９（１）,,33,101,7011213,,,2024-05-02,清算の結了等,,,2023-01-27,1,,,,,フォレストジュウイチゴウ,0
2768,9280002000747,登記記録の閉鎖等,0,2024-05-13,2024-05-10,株式会社建成,,株式会社,島根県,松江市,外中原町１３６番地,,32,201,6900875,,,2024-05-10,清算の結了等,,,2015-10-05,1,,,,,ケンセイ,0
2770,9290001025356,登記記録の閉鎖等,0,2024-05-13,2024-04-12,東京サウンドプロデュース株式会社,,株式会社,福岡県,福岡市西区,愛宕２丁目１１番３４－８１８号,,40,135,8190015,,,2024-04-12,清算の結了等,,,2015-10-05,1,,,,,トウキョウサウンドプロデュース,0
2796,9360001019144,登記記録の閉鎖等,0,2024-05-13,2024-05-07,株式会社ファイン機能性素材研究所,,株式会社,沖縄県,浦添市,西洲２丁目１番５号,,47,208,9012123,,,2024-05-07,合併による解散等,5120001052809,令和６年３月３１日大阪市東淀川区下新庄五丁目７番８号株式会社ファイン（5120001052809）に合併し解散,2015-10-05,1,,,,,ファインキノウセイソザイケンキュウショ,0
2802,9370002009390,登記記録の閉鎖等,0,2024-05-13,2024-05-02,有限会社あずたいむ鈴信,,有限会社,宮城県,仙台市青葉区,一番町３丁目１番２１号,,04,101,9800811,,,2024-05-02,清算の結了等,,,2015-10-05,1,,,,,アズタイムスズシン,0
2813,9430001037568,登記記録の閉鎖等,0,2024-05-13,2024-05-10,株式会社セレモニーさくら,,株式会社,北海道,札幌市厚別区,厚別東三条３丁目１番３号,,01,108,0040003,,,2024-05-10,清算の結了等,,,2015-10-05,1,,,,,セレモニーサクラ,0
2822,9440001006811,登記記録の閉鎖等,0,2024-05-13,2024-05-08,株式会社にしざき事務所,,株式会社,北海道,函館市,榎本町１番２１号,,01,202,0420931,,,2024-05-08,清算の結了等,,,2015-10-05,1,,,,,ニシザキジムショ,0
