sequenceNumber,corporateNumber,process,correct,updateDate,changeDate,name,nameImageId,kind,prefectureName,cityName,streetNumber,addressImageId,prefectureCode,cityCode,postCode,addressOutside,addressOutsideImageId,closeDate,closeCause,successorCorporateNumber,changeCause,assignmentDate,latest,enName,enPrefectureName,enCityName,enAddressOutside,furigana,hihyoji
12,1010001261218,新規,0,2025-12-17,2025-12-17,株式会社シャイニング,,株式会社,東京都,中央区,日本橋１丁目２番１０号東洋ビルディング,,13,102,1030027,,,,,,,2025-12-17,1,,,,,シャイニング,0
13,1010001261234,新規,0,2025-12-17,2025-12-17,仮想ラボラトリー株式会社,,株式会社,東京都,千代田区,神田神保町２丁目１０番３１号ＩＷビル１Ｆ,,13,101,1010051,,,,,,,2025-12-17,1,,,,,カソウラボラトリー,0
14,1010001261259,新規,0,2025-12-17,2025-12-17,株式会社ＫＲＴＳ７,,株式会社,東京都,千代田区,内幸町２丁目１番６号,,13,101,1000011,,,,,,,2025-12-17,1,,,,,ケイアールティーエスセブン,0
17,1010005041087,新規,0,2025-12-17,2025-12-17,一般社団法人健全パチンコ・パチスロ推進フォーラム,,その他の設立登記法人,東京都,中央区,銀座８丁目１７番５号,,13,102,1040061,,,,,,,2025-12-17,1,,,,,ケンゼンパチンコパチスロスイシンフォーラム,0
22,1010401195040,新規,0,2025-12-17,2025-12-17,Ａｓｏｎａ　Ｊａｐａｎ株式会社,,株式会社,東京都,港区,南青山２丁目２番１５号,,13,103,1070062,,,,,,,2025-12-17,1,,,,,アソナジャパン,0
23,1010401195239,新規,0,2025-12-17,2025-12-17,チタン株式会社,,株式会社,東京都,港区,北青山１丁目３番１号アールキューブ青山３階,,13,103,1070061,,,,,,,2025-12-17,1,,,,,チタン,0
27,1010403036820,新規,0,2025-12-17,2025-12-17,合同会社ＬｉｂｒａＷｏｒｋｓ,,合同会社,東京都,港区,赤坂８丁目５－４１イースタン青山ビル４Ｆ,,13,103,1070052,,,,,,,2025-12-17,1,,,,,リブラワークス,0
28,1010403036829,新規,0,2025-12-17,2025-12-17,合同会社御来光,,合同会社,東京都,港区,六本木７丁目１６番５号六本木戸田ビルＢ１－Ｄ号室,,13,103,1060032,,,,,,,2025-12-17,1,,,,,ゴライコウ,0
29,1010501055177,新規,0,2025-12-17,2025-12-17,株式会社アキレスセキュリティ,,株式会社,東京都,台東区,上野１丁目１７番６号広小路ビル８Ｆ－Ｂ,,13,106,1100005,,,,,,,2025-12-17,1,,,,,アキレスセキュリティ,0
34,1010901058614,新規,0,2025-12-17,2025-12-17,株式会社セキュリティデザインプラス,,株式会社,東京都,世田谷区,弦巻４丁目２５番５号,,13,112,1540016,,,,,,,2025-12-17,1,,,,,セキュリティデザインプラス,0
35,1010901058647,新規,0,2025-12-17,2025-12-17,株式会社Ａｃｔ２,,株式会社,東京都,世田谷区,下馬４丁目２９番６号,,13,112,1540002,,,,,,,2025-12-17,1,,,,,アクトツー,0
36,1010903010498,新規,0,2025-12-17,2025-12-17,合同会社佐々木屋,,合同会社,東京都,世田谷区,大蔵５丁目５番１７号,,13,112,1570074,,,,,,,2025-12-17,1,,,,,ササキヤ,0
41,1011001174401,新規,0,2025-12-17,2025-12-17,株式会社ケイトオブ東京ホールディングス,,株式会社,東京都,渋谷区,神宮前６丁目１９番２０号プレファス神宮前７階,,13,113,1500001,,,,,,,2025-12-17,1,,,,,ケイトオブトウキョウホールディングス,0
42,1011001174442,新規,0,2025-12-17,2025-12-17,株式会社ＩＭＰ,,株式会社,東京都,目黒区,青葉台４丁目７番４号Ｉ．Ｗ．ＰｌａｃｅＡｏｂａｄａｉ１０２号室,,13,110,1530042,,,,,,,2025-12-17,1,,,,,インプ,0
55,1011403004973,新規,0,2025-12-17,2025-12-17,合同会社おーちゃん占いの館,,合同会社,東京都,板橋区,南常盤台２丁目２番１－３０１号,,13,119,1740072,,,,,,,2025-12-17,1,,,,,,0
56,1011701029020,新規,0,2025-12-17,2025-12-17,株式会社ガイアアセット,,株式会社,東京都,江戸川区,南篠崎町２丁目１１番６号ガイアシルヴァビル２０１号,,13,123,1330065,,,,,,,2025-12-17,1,,,,,ガイアアセット,0
59,1012301014635,新規,0,2025-12-17,2025-12-17,株式会社キャリバーセキュリティ,,株式会社,東京都,町田市,本町田３６７６番地６,,13,209,1940032,,,,,,,2025-12-17,1,,,,,キャリバーセキュリティ,0
60,1012301014651,新規,0,2025-12-17,2025-12-17,株式会社マップス,,株式会社,東京都,町田市,南大谷５丁目１２番３８号ヴェルデ２０５,,13,209,1940031,,,,,,,2025-12-17,1,,,,,マップス,0
63,1012703003426,新規,0,2025-12-17,2025-12-17,合同会社ぞんば,,合同会社,東京都,西東京市,ひばりが丘１丁目１１番２１号,,13,229,2020001,,,,,,,2025-12-17,1,,,,,ゾンバ,0
68,1013101009890,新規,0,2025-12-17,2025-12-17,株式会社Ａｌｏｈａ　Ａｃａｄｅｍｙ,,株式会社,東京都,羽村市,小作台３丁目２１－１、１階,,13,227,2050001,,,,,,,2025-12-17,1,,,,,アロハアカデミー,0
82,1020001166291,新規,0,2025-12-17,2025-12-17,株式会社ＬＭ,,株式会社,神奈川県,横浜市西区,浅間町１丁目４番３号ウィザードビル４０２,,14,103,2200072,,,,,,,2025-12-17,1,,,,,エルエム,0
83,1020001166325,新規,0,2025-12-17,2025-12-17,三富株式会社,,株式会社,神奈川県,横浜市中区,松影町２丁目６番地４森本ビル３階Ａ号室,,14,104,2310025,,,,,,,2025-12-17,1,,,,,,0
84,1020003029967,新規,0,2025-12-17,2025-12-17,Ｋｉｎｅｔｉｃ合同会社,,合同会社,神奈川県,横浜市中区,山下町１６１－１日神プラザ元町７０４,,14,104,2310023,,,,,,,2025-12-17,1,,,,,キネティック,0
85,1020003030000,新規,0,2025-12-17,2025-12-17,Ｌｏｏｐ　Ｗｏｒｋｓ合同会社,,合同会社,神奈川県,横浜市西区,西戸部町２丁目２１４番地,,14,103,2200046,,,,,,,2025-12-17,1,,,,,ループワークス,0
95,1030001170136,新規,0,2025-12-17,2025-12-17,株式会社フラット,,株式会社,埼玉県,川口市,領家１丁目１９番７号,,11,203,3320004,,,,,,,2025-12-17,1,,,,,フラット,0
96,1030001170152,新規,0,2025-12-17,2025-12-17,株式会社ｓｔａｒｏｚｙ,,株式会社,埼玉県,八潮市,大瀬５丁目７番地１２,,11,234,3400822,,,,,,,2025-12-17,1,,,,,スタロジ,0
97,1030001170169,新規,0,2025-12-17,2025-12-17,株式会社ｋ‐ｃｒａｆｔ,,株式会社,埼玉県,羽生市,東４丁目５番５号,,11,216,3480052,,,,,,,2025-12-17,1,,,,,ケークラフト,0
98,1030001170177,新規,0,2025-12-17,2025-12-17,株式会社ＴＭライズ,,株式会社,埼玉県,吉川市,大字富新田２８２番地３,,11,243,3420037,,,,,,,2025-12-17,1,,,,,ティーエムライズ,0
101,1030003028191,新規,0,2025-12-17,2025-12-17,合同会社ａｉｋｏ,,合同会社,埼玉県,児玉郡神川町,大字元阿保１３９２番地５,,11,383,3670247,,,,,,,2025-12-17,1,,,,,アイコ,0
102,1030003028282,新規,0,2025-12-17,2025-12-17,合同会社ケアパートナー,,合同会社,埼玉県,越谷市,神明町２丁目２３１番地１,,11,222,3430805,,,,,,,2025-12-17,1,,,,,ケアパートナー,0
103,1030003028290,新規,0,2025-12-17,2025-12-17,合同会社ひかり,,合同会社,埼玉県,朝霞市,北原２丁目１１番６号サンパルク朝霞台Ｃ２０１,,11,227,3510036,,,,,,,2025-12-17,1,,,,,ヒカリ,0
106,1040001141805,新規,0,2025-12-17,2025-12-17,株式会社ＮＡＲＭ電気通信,,株式会社,千葉県,白井市,根１９２０番地の６３,,12,232,2701431,,,,,,,2025-12-17,1,,,,,ナームデンキツウシン,0
117,1080401028326,新規,0,2025-12-17,2025-12-17,株式会社Ｍｏｒｉ‐Ｍａｔｃｈａ,,株式会社,静岡県,掛川市,南２丁目１５番２０号,,22,213,4360029,,,,,,,2025-12-17,1,,,,,モリマッチャ,0
120,1100003008525,新規,0,2025-12-17,2025-12-17,合同会社ディープスカイ,,合同会社,長野県,安曇野市,三郷明盛１５９０－１２,,20,220,3998101,,,,,,,2025-12-17,1,,,,,ディープスカイ,0
121,1110001039785,新規,0,2025-12-17,2025-12-17,株式会社妙高暮らし,,株式会社,新潟県,妙高市,下町４番１６号,,15,217,9440048,,,,,,,2025-12-17,1,,,,,ミョウコウグラシ,0
122,1110001039793,新規,0,2025-12-17,2025-12-17,海輝株式会社,,株式会社,新潟県,長岡市,三ツ郷屋町３１６番地,,15,202,9402111,,,,,,,2025-12-17,1,,,,,ミキ,0
138,1120003031450,新規,0,2025-12-17,2025-12-17,合同会社ファイアーループ,,合同会社,大阪府,大阪市天王寺区,大道４丁目１０－１７新井ビル地下１階,,27,109,5430052,,,,,,,2025-12-17,1,,,,,ファイアーループ,0
139,1120003031500,新規,0,2025-12-17,2025-12-17,合同会社ＮＯＧＡ,,合同会社,大阪府,大阪市城東区,鴫野東１丁目９－２６藤岡工務店鴫野マンション３０２号室,,27,118,5360013,,,,,,,2025-12-17,1,,,,,ノガ,0
141,1120005025310,新規,0,2025-12-17,2025-12-17,一般財団法人行田一典記念財団,,その他の設立登記法人,大阪府,大阪市城東区,古市１丁目２番１１号,,27,118,5360001,,,,,,,2025-12-17,1,,,,,ユキタカズノリキネンザイダン,0
144,1120901051995,新規,0,2025-12-17,2025-12-17,株式会社テラスエステート,,株式会社,大阪府,池田市,井口堂３丁目２番１６－１０６号,,27,204,5630023,,,,,,,2025-12-17,1,,,,,テラスエステート,0
151,1130001081208,新規,0,2025-12-17,2025-12-17,株式会社ＥＬＬＹ　ＴＡＮＧＯ,,株式会社,京都府,京丹後市,峰山町菅２６７－１,,26,212,6270041,,,,,,,2025-12-17,1,,,,,エリータンゴ,0
152,1130001081224,新規,0,2025-12-17,2025-12-17,株式会社ＭＩＥ,,株式会社,京都府,京都市下京区,西洞院通綾小路下る綾西洞院町７５１番地３０２,,26,106,6008474,,,,,,,2025-12-17,1,,,,,ミエ,0
161,1160003003685,新規,0,2025-12-17,2025-12-17,風温堂合同会社,,合同会社,滋賀県,栗東市,小柿９丁目７番３５号１０１室,,25,208,5203024,,,,,,,2025-12-17,1,,,,,フウオンドー,0
163,1170001018916,新規,0,2025-12-17,2025-12-17,喜士グッドワーク株式会社,,株式会社,和歌山県,和歌山市,松江北７丁目１番１１号,,30,201,6408425,,,,,,,2025-12-17,1,,,,,キシグッドワーク,0
166,1170003002356,新規,0,2025-12-17,2025-12-17,Ｅｓｓｎｏｖａ合同会社,,合同会社,和歌山県,和歌山市,堀止西１丁目２－２３,,30,201,6410045,,,,,,,2025-12-17,1,,,,,エスノバ,0
173,1180001169915,新規,0,2025-12-17,2025-12-17,株式会社オフェリア,,株式会社,愛知県,名古屋市西区,栄生１丁目１５番１３号ＡＬＥＸＩＡ１階,,23,104,4510052,,,,,,,2025-12-17,1,,,,,オフェリア,0
174,1180001169923,新規,0,2025-12-17,2025-12-17,株式会社龍太夫,,株式会社,愛知県,名古屋市昭和区,長戸町４丁目９番地,,23,107,4660848,,,,,,,2025-12-17,1,,,,,リュウダユウ,0
175,1180001169948,新規,0,2025-12-17,2025-12-17,株式会社Ｅｍｅｌｌａ,,株式会社,愛知県,名古屋市中区,栄２丁目２－１広小路伏見中駒ビル５Ｆ,,23,106,4600008,,,,,,,2025-12-17,1,,,,,エメラ,0
179,1180003029316,新規,0,2025-12-17,2025-12-17,合同会社ＡＩＶＩＳ,,合同会社,愛知県,名古屋市中村区,名駅南２丁目７番６７号パークアクシス名駅南１３０４号,,23,105,4500003,,,,,,,2025-12-17,1,,,,,アイビス,0
180,1180003029472,新規,0,2025-12-17,2025-12-17,合同会社ＳＨＩＲＯ,,合同会社,愛知県,名古屋市中村区,名駅３丁目４－１０アルティメイト名駅１ｓｔ２階,,23,105,4500002,,,,,,,2025-12-17,1,,,,,シロ,0
181,1180301040511,新規,0,2025-12-17,2025-12-17,株式会社ＳＴＥ,,株式会社,愛知県,岡崎市,米河内町字狐ヤゲ３５番地１,,23,202,4443167,,,,,,,2025-12-17,1,,,,,,0
182,1180303006849,新規,0,2025-12-17,2025-12-17,合同会社ｔｏｌｎａ,,合同会社,愛知県,豊田市,若宮町１番地２６セントラルビル２Ｂ,,23,211,4710000,,,,,,,2025-12-17,1,,,,,,0
184,1190001032758,新規,0,2025-12-17,2025-12-17,株式会社まつもと不動産,,株式会社,三重県,四日市市,浜田町４番１９号柴山ビル５階,,24,202,5100067,,,,,,,2025-12-17,1,,,,,マツモトフドウサン,0
188,1210001020421,新規,0,2025-12-17,2025-12-17,創運商事株式会社,,株式会社,福井県,坂井市,丸岡町城北６丁目６８番地２,,18,210,9100221,,,,,,,2025-12-17,1,,,,,ソウウンショウジ,0
190,1230001021211,新規,0,2025-12-17,2025-12-17,株式会社トモエ,,株式会社,富山県,高岡市,中田５１６５番地４,,16,202,9391275,,,,,,,2025-12-17,1,,,,,トモエ,0
192,1240001065934,新規,0,2025-12-17,2025-12-17,Ｃａｒａ　ｓａｆｅｔｙ株式会社,,株式会社,広島県,福山市,千田町大字藪路３１８番地１,,34,207,7200014,,,,,,,2025-12-17,1,,,,,カーラセーフティー,0
194,1250001005798,新規,0,2025-12-17,2025-12-17,曾根商工株式会社,,株式会社,山口県,下関市,田中町１０番２号,,35,201,7500008,,,,,,,2025-12-17,1,,,,,ソネショウコウ,0
203,1290003017838,新規,0,2025-12-17,2025-12-17,合同会社ＢＳＪ,,合同会社,福岡県,福岡市博多区,博多駅前３丁目７－３５,,40,132,8120011,,,,,,,2025-12-17,1,,,,,ビーエスジェイ,0
204,1290003017846,新規,0,2025-12-17,2025-12-17,合同会社ＧＥＮＫＩ　ＷＡＶＥ,,合同会社,福岡県,福岡市中央区,薬院１丁目６番２０号キソ・コーポ２０３号,,40,133,8100022,,,,,,,2025-12-17,1,,,,,ゲンキウェイブ,0
207,1290801032113,新規,0,2025-12-17,2025-12-17,株式会社ＢＯＡＲ空調,,株式会社,福岡県,遠賀郡遠賀町,大字今古賀１７８番地の８,,40,384,8114303,,,,,,,2025-12-17,1,,,,,ボアクウチョウ,0
212,1310003005146,新規,0,2025-12-17,2025-12-17,快互ケアよいひ合同会社,,合同会社,長崎県,長崎市,梁川町６番８号,,42,201,8528013,,,,,,,2025-12-17,1,,,,,カイゴケアヨイヒ,0
213,1320001021499,新規,0,2025-12-17,2025-12-17,株式会社Ｍ＆Ｃｏ．,,株式会社,大分県,大分市,大道町２丁目４番４号,,44,201,8700822,,,,,,,2025-12-17,1,,,,,エムアンドコー,0
215,1320003004857,新規,0,2025-12-17,2025-12-17,合同会社百花,,合同会社,大分県,日田市,大字高瀬２９２番地３,,44,204,8770000,,,,,,,2025-12-17,1,,,,,モモカ,0
219,1350001019846,新規,0,2025-12-17,2025-12-17,株式会社セレーニトゥス,,株式会社,宮崎県,宮崎市,清武町加納甲１４５０番地６,,45,201,8891605,,,,,,,2025-12-17,1,,,,,セレーニトゥス,0
222,1360001036147,新規,0,2025-12-17,2025-12-17,株式会社山城商店,,株式会社,沖縄県,八重山郡竹富町,字小浜３８番地,,47,381,9071221,,,,,,,2025-12-17,1,,,,,ヤマシロショウテン,0
229,1370003007426,新規,0,2025-12-17,2025-12-17,合同会社ＤＯＧＭＡＦＩＡ,,合同会社,宮城県,仙台市若林区,大和町２丁目６番１号,,04,103,9840042,,,,,,,2025-12-17,1,,,,,ドッグマフィア,0
230,1370005011046,新規,0,2025-12-17,2025-12-17,ネクスト東日本事業協同組合,,その他の設立登記法人,宮城県,塩竈市,本町２番４号徳酒ビル,,04,203,9850052,,,,,,,2025-12-17,1,,,,,ネクストヒガシニホン,0
234,1390003002474,新規,0,2025-12-17,2025-12-17,合同会社ＥＮＤＯ,,合同会社,山形県,鶴岡市,白山丁１８２番地,,06,203,9970841,,,,,,,2025-12-17,1,,,,,エンドウ,0
238,1420005007988,新規,0,2025-12-17,2025-12-17,医療法人鹿内歯科医院,,その他の設立登記法人,青森県,八戸市,大字根城字馬場頭３番地１９,,02,203,0391166,,,,,,,2025-12-17,1,,,,,シカナイシカイイン,0
244,1430001095870,新規,0,2025-12-17,2025-12-17,株式会社ＩＣＨＩＺ,,株式会社,北海道,江別市,野幌松並町２６番地の６,,01,217,0690814,,,,,,,2025-12-17,1,,,,,イチ,0
251,1430005015370,新規,0,2025-12-17,2025-12-17,一般社団法人一乗,,その他の設立登記法人,北海道,札幌市中央区,南二条西５丁目３１番地１ＲＭＢｌｄ．７０１,,01,101,0600062,,,,,,,2025-12-17,1,,,,,イチジョウ,0
254,1460301005329,新規,0,2025-12-17,2025-12-17,株式会社ＫＵＵ,,株式会社,北海道,北見市,端野町二区１番地５,,01,208,0992102,,,,,,,2025-12-17,1,,,,,クウ,0
260,1700150133528,新規,0,2025-12-17,2025-12-17,ＮＩＮＧＢＯ　ＢＩＭＥＩ　ＲＩＹＯＮＧＰＩＮ　ＹＯＵＸＩＡＮ　ＧＯＮＧＳＩ,,外国会社等,,,,,,,,ｚｈｅｊｉａｎｇｓｈｅｎｇ　ｎｉｎｇｂｏｓｈｉ　ｊｉａｎｇｂｅｉｑｕ　ｈｕｉｇｕｚｈｏｎｇｘｉｎ　５ｈａｏ　３１０ｓｈｉ,,,,,,2025-12-17,1,,,,,ニンボービーメイリーヨンピンヨウシエンゴンスー,0
261,1700150133569,新規,0,2025-12-17,2025-12-17,アイフル健康保険組合,,その他,京都府,京都市下京区,烏丸通五条上る高砂町３８１－１,,26,106,6000000,,,,,,,2025-12-17,1,,,,,アイフルケンコウホケンクミアイ,0
262,1700150133577,新規,0,2025-12-17,2025-12-17,第一三共グループ健康保険組合,,その他,東京都,中央区,日本橋本町３丁目５番１号,,13,102,1030023,,,,,,,2025-12-17,1,,,,,ダイイチサンキョウグループケンコウホケンクミアイ,0
263,1700150133585,新規,0,2025-12-17,2025-12-17,電源開発健康保険組合,,その他,東京都,中央区,銀座６丁目１５番１号,,13,102,1040061,,,,,,,2025-12-17,1,,,,,デンゲンカイハツケンコウホケンクミアイ,0
276,2010001261167,新規,0,2025-12-17,2025-12-17,株式会社ハピネスワールド,,株式会社,東京都,千代田区,神田神保町３丁目１１番６号神保町ビル１０階,,13,101,1010051,,,,,,,2025-12-17,1,,,,,ハピネスワールド,0
277,2010001261200,新規,0,2025-12-17,2025-12-17,株式会社ＥＭＲ＆Ｃｏ．,,株式会社,東京都,中央区,銀座１丁目１６番７号銀座大栄ビル５階,,13,102,1040061,,,,,,,2025-12-17,1,,,,,エミルアンドコー,0
278,2010001261209,新規,0,2025-12-17,2025-12-17,株式会社ＳＴＯＣＫ２０３,,株式会社,東京都,千代田区,永田町２丁目１２番４号,,13,101,1000014,,,,,,,2025-12-17,1,,,,,ストックニヒャクサン,0
279,2010001261266,新規,0,2025-12-17,2025-12-17,株式会社わんにゃん応援隊,,株式会社,東京都,千代田区,九段南３丁目８番３号Ｍ．Ｂａｌａｎｃｅ＋ＫＵＤＡＮ４階,,13,101,1020074,,,,,,,2025-12-17,1,,,,,ワンニャンオウエンタイ,0
280,2010001261316,新規,0,2025-12-17,2025-12-17,Ｓｌｅｅｐ　Ｗｅｌｌ　Ｌｉｆｅ株式会社,,株式会社,東京都,中央区,銀座１丁目２２番１１号,,13,102,1040061,,,,,,,2025-12-17,1,,,,,スリープウェルライフ,0
285,2010003049734,新規,0,2025-12-17,2025-12-17,ロタリタ合同会社,,合同会社,東京都,千代田区,外神田２丁目１７番６号,,13,101,1010021,,,,,,,2025-12-17,1,,,,,ロタリタ,0
286,2010003049742,新規,0,2025-12-17,2025-12-17,合同会社ＡｔｔａｃｋＢａｃｅ,,合同会社,東京都,中央区,佃２丁目１番１－４０５号,,13,102,1040051,,,,,,,2025-12-17,1,,,,,アタックベース,0
287,2010003049750,新規,0,2025-12-17,2025-12-17,舟橋蓄電所合同会社,,合同会社,東京都,中央区,京橋２丁目１２番６号ＡＯＪ税理士法人内,,13,102,1040031,,,,,,,2025-12-17,1,,,,,フナバシチクデンショ,0
289,2010005041086,新規,0,2025-12-17,2025-12-17,ＬＮ水道橋一般社団法人,,その他の設立登記法人,東京都,中央区,京橋２丁目１２番６号ＡＯＪ税理士法人内,,13,102,1040031,,,,,,,2025-12-17,1,,,,,エルエヌスイドウバシ,0
292,2010101017015,新規,0,2025-12-17,2025-12-17,株式会社ラフィーナ,,株式会社,東京都,八王子市,松が谷５２－６－４０４,,13,201,1920354,,,,,,,2025-12-17,1,,,,,ラフィーナ,0
303,2010403036852,新規,0,2025-12-17,2025-12-17,紅葉箱根合同会社,,合同会社,東京都,港区,六本木１丁目９番１０号アークヒルズ仙石山森タワー２８階ベーカー＆マッケンジー法律事務所（外国法共同事業）内,,13,103,1060032,,,,,,,2025-12-17,1,,,,,コウヨウハコネ,0
304,2010405025060,新規,0,2025-12-17,2025-12-17,一般社団法人未来社会デザイン機構,,その他の設立登記法人,東京都,港区,港南１丁目８番１５号,,13,103,1080075,,,,,,,2025-12-17,1,,,,,ミライシャカイデザインキコウ,0
305,2010405025069,新規,0,2025-12-17,2025-12-17,一般社団法人ＧＲＥＡ　ＪＡＰＡＮ,,その他の設立登記法人,東京都,港区,麻布十番１丁目５番１０号,,13,103,1060045,,,,,,,2025-12-17,1,,,,,グレアジャパン,0
313,2010603011969,新規,0,2025-12-17,2025-12-17,合同会社Ｎｅｘｕｓ,,合同会社,東京都,墨田区,堤通２丁目１３番１号コーシャハイム白髭東住宅１１２号室,,13,107,1310034,,,,,,,2025-12-17,1,,,,,ネクサス,0
317,2010901058613,新規,0,2025-12-17,2025-12-17,Ｐｉｎｏｒｕ株式会社,,株式会社,東京都,世田谷区,深沢７丁目１３－２３,,13,112,1580081,,,,,,,2025-12-17,1,,,,,ピノル,0
320,2011003023101,新規,0,2025-12-17,2025-12-17,ＭＳＥＬ合同会社,,合同会社,東京都,渋谷区,広尾１丁目２番１号ヒカリビル４階,,13,113,1500012,,,,,,,2025-12-17,1,,,,,エムセル,0
323,2011201026863,新規,0,2025-12-17,2025-12-17,株式会社有り,,株式会社,東京都,中野区,東中野３丁目１６‐２０セザール東中野１階Ｂ号室,,13,114,1640003,,,,,,,2025-12-17,1,,,,,アリ,0
326,2011301031128,新規,0,2025-12-17,2025-12-17,株式会社マツイビデオハウス,,株式会社,東京都,杉並区,本天沼３丁目１２番１３号,,13,115,1670031,,,,,,,2025-12-17,1,,,,,マツイビデオハウス,0
330,2011403004964,新規,0,2025-12-17,2025-12-17,Ａｓｋ’ｏｓ合同会社,,合同会社,東京都,板橋区,前野町３丁目２４番５号,,13,119,1740063,,,,,,,2025-12-17,1,,,,,アスコス,0
344,2013301055453,新規,0,2025-12-17,2025-12-17,百川株式会社,,株式会社,東京都,豊島区,東池袋５丁目４４番１１号ヨシダハイツ３０２号室,,13,116,1700013,,,,,,,2025-12-17,1,,,,,ヒャクカワ,0
345,2013301055461,新規,0,2025-12-17,2025-12-17,株式会社Ｓｋｅｔｔｏ,,株式会社,東京都,豊島区,高田１丁目３８番４号,,13,116,1710033,,,,,,,2025-12-17,1,,,,,スケット,0
351,2020001166349,新規,0,2025-12-17,2025-12-17,株式会社ノーチラス・コード,,株式会社,神奈川県,横浜市港北区,小机町１３４番地４,,14,109,2220036,,,,,,,2025-12-17,1,,,,,ノーチラスコード,0
364,2030001170110,新規,0,2025-12-17,2025-12-17,株式会社安架,,株式会社,埼玉県,所沢市,大字北秋津１５１番地の１エルメゾン１０５,,11,208,3590038,,,,,,,2025-12-17,1,,,,,アンカ,0
365,2030001170119,新規,0,2025-12-17,2025-12-17,株式会社一和,,株式会社,埼玉県,和光市,白子２丁目２６番３号,,11,229,3510101,,,,,,,2025-12-17,1,,,,,イチワ,0
366,2030001170135,新規,0,2025-12-17,2025-12-17,株式会社北辰産業,,株式会社,埼玉県,さいたま市岩槻区,東岩槻４丁目１１番地８－９号２０４,,11,110,3390005,,,,,,,2025-12-17,1,,,,,ホクシンサンギョウ,0
367,2030001170143,新規,0,2025-12-17,2025-12-17,株式会社ＳＡＮＤＢＯＸ,,株式会社,埼玉県,川口市,南鳩ヶ谷４丁目２６番１－７０５号ペンタエマーブル,,11,203,3340013,,,,,,,2025-12-17,1,,,,,サンドボックス,0
368,2030001170168,新規,0,2025-12-17,2025-12-17,株式会社蓮見,,株式会社,埼玉県,さいたま市南区,文蔵２丁目３番３号オロール南浦和７０１,,11,108,3360025,,,,,,,2025-12-17,1,,,,,ハスミ,0
369,2030001170176,新規,0,2025-12-17,2025-12-17,株式会社ｈｏｌｏＤｅｌｉｇｈｔ,,株式会社,埼玉県,川口市,大字東内野５６―４５,,11,203,3330821,,,,,,,2025-12-17,1,,,,,ホロディライト,0
370,2030001170184,新規,0,2025-12-17,2025-12-17,株式会社ａｖｅｃ,,株式会社,埼玉県,さいたま市緑区,美園３丁目２５番地２バンビーノ浦和美園１０１,,11,109,3360967,,,,,,,2025-12-17,1,,,,,アベック,0
376,2030003028273,新規,0,2025-12-17,2025-12-17,合同会社ＴＥＲＵＭＩ,,合同会社,埼玉県,さいたま市南区,白幡５丁目１４－１３プリンスパル２０１,,11,108,3360022,,,,,,,2025-12-17,1,,,,,テルミ,0
377,2030003028281,新規,0,2025-12-17,2025-12-17,合同会社Ｂｒａｖｏ,,合同会社,埼玉県,北葛飾郡杉戸町,大字並塚１７１７番地１,,11,464,3450015,,,,,,,2025-12-17,1,,,,,ブラボー,0
381,2040001141812,新規,0,2025-12-17,2025-12-17,株式会社水上哲也建築設計事務所,,株式会社,千葉県,柏市,中央町２番２９－４０３号,,12,217,2770021,,,,,,,2025-12-17,1,,,,,ミズカミテツヤケンチクセッケイジムショ,0
388,2050003009809,新規,0,2025-12-17,2025-12-17,ファームモリンガ合同会社,,合同会社,茨城県,下妻市,本城町２丁目１０４番地１コーポ萩原２０１号室,,08,210,3040064,,,,,,,2025-12-17,1,,,,,ファームモリンガ,0
389,2060001038866,新規,0,2025-12-17,2025-12-17,株式会社Ｎｏｉｑａ,,株式会社,栃木県,小山市,神鳥谷１丁目１０番２６号,,09,208,3230034,,,,,,,2025-12-17,1,,,,,ノイカ,0
391,2070001043642,新規,0,2025-12-17,2025-12-17,株式会社ＢＬＯＯＮＡ,,株式会社,群馬県,高崎市,上滝町４９８番地３,,10,202,3700027,,,,,,,2025-12-17,1,,,,,ブルーナ,0
393,2070003006226,新規,0,2025-12-17,2025-12-17,合同会社ロッジ岩鞍やまと,,合同会社,群馬県,利根郡片品村,大字土出２６０９番地,,10,443,3780412,,,,,,,2025-12-17,1,,,,,ロッジイワクラヤマト,0
395,2080001027339,新規,0,2025-12-17,2025-12-17,株式会社ＫＰ,,株式会社,静岡県,静岡市葵区,呉服町２丁目９番地の１０グリーンパールビル２Ａ,,22,101,4200031,,,,,,,2025-12-17,1,,,,,ケイピー,0
396,2080401028325,新規,0,2025-12-17,2025-12-17,Ｏｐｕｓｇｒｅｅｎ株式会社,,株式会社,静岡県,御前崎市,御前崎３１９０番地の２,,22,223,4371621,,,,,,,2025-12-17,1,,,,,オーパスグリーン,0
399,2100003008524,新規,0,2025-12-17,2025-12-17,合同会社ＹＯＵＲ,,合同会社,長野県,長野市,大字鶴賀西鶴賀町１４５７番地３３鶴賀別館３階,,20,201,3800814,,,,,,,2025-12-17,1,,,,,ユア,0
401,2110001039792,新規,0,2025-12-17,2025-12-17,株式会社デイライト,,株式会社,新潟県,長岡市,大手通２丁目２番地６,,15,202,9400062,,,,,,,2025-12-17,1,,,,,デイライト,0
417,2120001282796,新規,0,2025-12-17,2025-12-17,株式会社ＳＹＮＣ,,株式会社,大阪府,大阪市生野区,巽東３丁目７番６－５０８号,,27,116,5440014,,,,,,,2025-12-17,1,,,,,シンク,0
418,2120001282813,新規,0,2025-12-17,2025-12-17,Ｋ’ｓ　Ｏｆｆｉｃｅ株式会社,,株式会社,大阪府,大阪市中央区,難波５丁目１－６０なんばＳｋｙＯ２７Ｆ,,27,128,5420076,,,,,,,2025-12-17,1,,,,,ケーズオフィス,0
419,2120001282838,新規,0,2025-12-17,2025-12-17,カケル工務店株式会社,,株式会社,大阪府,枚方市,西禁野１丁目１１番１３－２号,,27,210,5731192,,,,,,,2025-12-17,1,,,,,カケルコウムテン,0
421,2120003031482,新規,0,2025-12-17,2025-12-17,合同会社ルクシア,,合同会社,大阪府,大阪市中央区,南船場４丁目１１－５－７０３,,27,128,5420081,,,,,,,2025-12-17,1,,,,,ルクシア,0
422,2120003031508,新規,0,2025-12-17,2025-12-17,Ｓｅｒａ合同会社,,合同会社,大阪府,門真市,舟田町３０－１０ＹＭＳビル３階,,27,223,5710021,,,,,,,2025-12-17,1,,,,,セラ,0
428,2120901051978,新規,0,2025-12-17,2025-12-17,ファーナウ株式会社,,株式会社,大阪府,池田市,城南３丁目１－１５－Ｉ－５０１,00141910,27,204,5630025,,,,,,,2025-12-17,1,,,,,ファーナウ,0
433,2122005003864,新規,0,2025-12-17,2025-12-17,特定非営利活動法人みんなのいばしょぴーぷす,,その他の設立登記法人,大阪府,大東市,北条１丁目２３番３２号,,27,218,5740011,,,,,,,2025-12-17,1,,,,,ミンナノイバショピープス,0
446,2140001141018,新規,0,2025-12-17,2025-12-17,ＦＥＥＲＡＬ株式会社,,株式会社,兵庫県,丹波篠山市,下原山６３３番地,,28,221,6692503,,,,,,,2025-12-17,1,,,,,フィーラル,0
447,2140001141083,新規,0,2025-12-17,2025-12-17,株式会社Ｐ‐ｓｔａｎｄａｒｄ,,株式会社,兵庫県,神戸市長田区,長田天神町２丁目３番３号,,28,106,6530882,,,,,,,2025-12-17,1,,,,,ピースタンダード,0
448,2140001141100,新規,0,2025-12-17,2025-12-17,株式会社ＫｎＴ技建,,株式会社,兵庫県,尼崎市,富松町２丁目１３番２３号,,28,202,6610003,,,,,,,2025-12-17,1,,,,,ケーエヌティーギケン,0
454,2140003022967,新規,0,2025-12-17,2025-12-17,ヨッシーｅｙｅランド合同会社,,合同会社,兵庫県,尼崎市,道意町４丁目４８番地３ラエタニテ１０１号,,28,202,6600083,,,,,,,2025-12-17,1,,,,,ヨッシーアイランド,0
455,2160001027297,新規,0,2025-12-17,2025-12-17,株式会社孫七企画,,株式会社,滋賀県,甲賀市,甲南町深川２－２１,,25,209,5203322,,,,,,,2025-12-17,1,,,,,マゴシチキカク,0
457,2160003003684,新規,0,2025-12-17,2025-12-17,優品良社合同会社,,合同会社,滋賀県,草津市,東草津２丁目６番１－７号,,25,206,5250033,,,,,,,2025-12-17,1,,,,,ユウヒンリョウシャ,0
458,2170001018915,新規,0,2025-12-17,2025-12-17,株式会社セカンドステージ,,株式会社,和歌山県,和歌山市,吹上４丁目２番５１号,,30,201,6408137,,,,,,,2025-12-17,1,,,,,セカンドステージ,0
459,2170003002355,新規,0,2025-12-17,2025-12-17,ｐｒｅｆｅｒｍａｎｙ合同会社,,合同会社,和歌山県,海南市,阪井１３００－３,,30,202,6420024,,,,,,,2025-12-17,1,,,,,プリファーメニー,0
471,2180001169848,新規,0,2025-12-17,2025-12-17,株式会社いろ葉に,,株式会社,愛知県,半田市,協和町２丁目９２番地,,23,205,4750854,,,,,,,2025-12-17,1,,,,,イロハニ,0
473,2180003029513,新規,0,2025-12-17,2025-12-17,合同会社Ｆ＆Ｒ,,合同会社,愛知県,瀬戸市,幡山町１７番地の４,,23,204,4890948,,,,,,,2025-12-17,1,,,,,エフアンドアール,0
474,2180005021352,新規,0,2025-12-17,2025-12-17,一般社団法人ライフサポート東海,,その他の設立登記法人,愛知県,大府市,横根町家下１１１番地の７,,23,223,4740011,,,,,,,2025-12-17,1,,,,,ライフサポートトウカイ,0
475,2180303006848,新規,0,2025-12-17,2025-12-17,合同会社まちゴト,,合同会社,愛知県,北設楽郡東栄町,大字西薗目字沢上３６番地３,,23,562,4490204,,,,,,,2025-12-17,1,,,,,マチゴト,0
476,2190001032765,新規,0,2025-12-17,2025-12-17,ＩＫＣホールディングス株式会社,,株式会社,三重県,四日市市,三ツ谷町１４番２０号,,24,202,5100802,,,,,,,2025-12-17,1,,,,,アイケーシホールディングス,0
484,2200001044536,新規,0,2025-12-17,2025-12-17,株式会社ＥＡＳＴ,,株式会社,岐阜県,可児市,広見１５７０番地２,,21,214,5090214,,,,,,,2025-12-17,1,,,,,イースト,0
485,2200003007177,新規,0,2025-12-17,2025-12-17,合同会社ながせ興業,,合同会社,岐阜県,多治見市,旭ケ丘９丁目５番地の１０２,,21,204,5070071,,,,,,,2025-12-17,1,,,,,ナガセコウギョウ,0
487,2210001020420,新規,0,2025-12-17,2025-12-17,株式会社ＧＬＯＢＡＬ　ＬＩＧＨＴ　ＨＯＵＳＥ,,株式会社,福井県,福井市,宝永２丁目８－９,,18,201,9100004,,,,,,,2025-12-17,1,,,,,グローバルライトハウス,0
491,2240001065933,新規,0,2025-12-17,2025-12-17,株式会社リライフクリエイション,,株式会社,広島県,府中市,上下町上下１４１１番地１４,,34,208,7293431,,,,,,,2025-12-17,1,,,,,リライフクリエイション,0
494,2240005016016,新規,0,2025-12-17,2025-12-17,一般社団法人きんようびのつばめ,,その他の設立登記法人,広島県,広島市佐伯区,五日市町大字昭和台３１番地１,,34,108,7315123,,,,,,,2025-12-17,1,,,,,,0
495,2250003003865,新規,0,2025-12-17,2025-12-17,合同会社石山建築,,合同会社,山口県,岩国市,室の木町５丁目１２番６号,,35,208,7400021,,,,,,,2025-12-17,1,,,,,イシヤマケンチク,0
497,2260001040827,新規,0,2025-12-17,2025-12-17,サングラウンド株式会社,,株式会社,岡山県,岡山市北区,島田本町２丁目２番８号ブランパレス１０２号室,,33,101,7000033,,,,,,,2025-12-17,1,,,,,サングラウンド,0
512,2290801032104,新規,0,2025-12-17,2025-12-17,株式会社Ｏｎｅ　Ｂｉｌｌｉｏｎ,,株式会社,福岡県,北九州市小倉北区,浅野２丁目９番２２号,,40,106,8020001,,,,,,,2025-12-17,1,,,,,ワンビリオン,0
513,2300003002390,新規,0,2025-12-17,2025-12-17,合同会社ラベンダー,,合同会社,佐賀県,小城市,小城町畑田２２２９番地５,,41,208,8450002,,,,,,,2025-12-17,1,,,,,ラベンダー,0
518,2330003011364,新規,0,2025-12-17,2025-12-17,合同会社ＢｅａｒＤｒｉｖｅ,,合同会社,熊本県,上益城郡益城町,大字辻の城１６２番地３,00141915,43,443,8612243,,,,,,,2025-12-17,1,,,,,ベアドライブ,0
521,2340001027849,新規,0,2025-12-17,2025-12-17,ＬＣＥ株式会社,,株式会社,鹿児島県,鹿児島市,西千石町１１番２１号鹿児島ＭＳビル６階,,46,201,8920847,,,,,,,2025-12-17,1,,,,,エルシーイー,0
528,2360001036154,新規,0,2025-12-17,2025-12-17,株式会社ＭＫ,,株式会社,沖縄県,浦添市,伊祖１丁目２１番２－２０１号,,47,208,9012132,,,,,,,2025-12-17,1,,,,,エムケイ,0
529,2360003015478,新規,0,2025-12-17,2025-12-17,合同会社ＫＯＵＫＩ　ＦＡＲＭ,,合同会社,沖縄県,国頭郡宜野座村,字松田２,,47,313,9041301,,,,,,,2025-12-17,1,,,,,コウキノウエン,0
530,2360003015486,新規,0,2025-12-17,2025-12-17,合同会社ＳＫＩ,,合同会社,沖縄県,那覇市,松尾１丁目１０－２４ホークシティ那覇ビル１階,,47,201,9000014,,,,,,,2025-12-17,1,,,,,エスケーアイ,0
531,2360003015494,新規,0,2025-12-17,2025-12-17,合同会社ＬＫ１０６,,合同会社,沖縄県,浦添市,牧港５丁目３番９－８０１号,,47,208,9012131,,,,,,,2025-12-17,1,,,,,エルケイイチマルロク,0
533,2370003007417,新規,0,2025-12-17,2025-12-17,合同会社ＬＵＮＡ　ＥＶＥＲ,,合同会社,宮城県,仙台市宮城野区,福室７丁目１２番７号,,04,102,9830005,,,,,,,2025-12-17,1,,,,,ルナエヴァー,0
545,2420001019367,新規,0,2025-12-17,2025-12-17,ＡＩｎｏｂｉ株式会社,,株式会社,青森県,弘前市,大字富田１丁目５番地３２,,02,202,0368186,,,,,,,2025-12-17,1,,,,,アイノビ,0
553,2430001095845,新規,0,2025-12-17,2025-12-17,株式会社Ｆｒｏｓｔ　ｎ’Ｆｌｏｒａ,,株式会社,北海道,札幌市中央区,北四条西２２丁目２番２２号ル・ヌアージュ北円山１０１号室,,01,101,0640824,,,,,,,2025-12-17,1,,,,,フロストアンドフロラ,0
554,2430001095886,新規,0,2025-12-17,2025-12-17,株式会社キーストーン,,株式会社,北海道,札幌市白石区,南郷通１２丁目南２番１号,,01,104,0030022,,,,,,,2025-12-17,1,,,,,キーストーン,0
557,2430003018432,新規,0,2025-12-17,2025-12-17,合同会社ＬＩＮＫ　ＦＩＲＳＴ,,合同会社,北海道,札幌市東区,北四十八条東８丁目１番１５号,,01,103,0070848,,,,,,,2025-12-17,1,,,,,リンクファースト,0
560,2460301005328,新規,0,2025-12-17,2025-12-17,株式会社ＩＬＫＡ,,株式会社,北海道,北見市,東相内町９番地６０,,01,208,0990878,,,,,,,2025-12-17,1,,,,,イルカ,0
564,2490003002075,新規,0,2025-12-17,2025-12-17,合同会社メリア,,合同会社,高知県,高知市,長浜５５４番地３,,39,201,7810270,,,,,,,2025-12-17,1,,,,,メリア,0
565,2500001026685,新規,0,2025-12-17,2025-12-17,株式会社ＸＩＬＬＩＡ,,株式会社,愛媛県,松山市,東石井５丁目５番１６号,,38,201,7900932,,,,,,,2025-12-17,1,,,,,エクシリア,0
568,2700150133527,新規,0,2025-12-17,2025-12-17,Ｆｏｓｈａｎｓｈｉｎａｎｈａｉｓｈａｎｇｑｉａｎｓｕｌｉａｏｚｈｉｐｉｎｙｏｕｘｉａｎｇｏｎｇｓｉ,,外国会社等,,,,,,,,Ｗｏｒｋｓｈｏｐ　Ｎｏ．２（Ｓｅｌｆ－ａｓｓｉｇｎｅｄ），Ｄａｆｏｔｏｕ　Ｄｅｖｅｌｏｐｍｅｎｔ　Ｚｏｎｅ，Ｈａｉｚｈｏｕ　Ｖｉｌｌａｇｅ，Ｘｉｑｉａｏ　Ｔｏｗｎ，Ｎａｎｈａｉ　Ｄｉｓｔｒｉｃｔ，Ｆｏｓｈａｎ　Ｃｉｔｙ,,,,,,2025-12-17,1,,,,,フォーシャンシーナンハイシャンチエンスーリャオジーピンヨウシエンゴンスー,0
569,2700150133535,新規,0,2025-12-17,2025-12-17,トップグループ健康保険組合,,その他,愛知県,名古屋市中村区,名駅４丁目２０番２号　ＮＳビル４Ｆ,,23,105,4500002,,,,,,,2025-12-17,1,,,,,トップグループケンコウホケンクミアイ,0
570,2700150133576,新規,0,2025-12-17,2025-12-17,文化学園健康保険組合,,その他,東京都,渋谷区,代々木３丁目２２番１号,,13,113,1510053,,,,,,,2025-12-17,1,,,,,ブンカガクエンケンコウホケンクミアイ,0
571,2700150133584,新規,0,2025-12-17,2025-12-17,時事通信社健康保険組合,,その他,東京都,中央区,銀座５丁目１５番８号　株式会社　時事通信社内,,13,102,1040061,,,,,,,2025-12-17,1,,,,,ジジツウシンシャケンコウホケンクミアイ,0
577,3010001261100,新規,0,2025-12-17,2025-12-17,株式会社ＫＩＮＯ　ＷＯＲＫＳ,,株式会社,東京都,中央区,日本橋室町１丁目１１番１２号日本橋水野ビル７階,,13,102,1030022,,,,,,,2025-12-17,1,,,,,キノワークス,0
578,3010001261166,新規,0,2025-12-17,2025-12-17,株式会社ＲＡＩＭＥＩ,,株式会社,東京都,中央区,銀座８丁目１０－５ＤＥＮＳＡＮビルＧ－１０１８２１,,13,102,1040061,,,,,,,2025-12-17,1,,,,,,0
579,3010001261208,新規,0,2025-12-17,2025-12-17,株式会社ＳＴＯＣＫ２０４,,株式会社,東京都,千代田区,永田町２丁目１２番４号,,13,101,1000014,,,,,,,2025-12-17,1,,,,,ストックニヒャクヨン,0
580,3010001261249,新規,0,2025-12-17,2025-12-17,株式会社かのん,,株式会社,東京都,中央区,銀座６丁目１３番１６号銀座ＷａｌｌビルＵＣＦ５０１,,13,102,1040061,,,,,,,2025-12-17,1,,,,,カノン,0
581,3010001261273,新規,0,2025-12-17,2025-12-17,Ｉｎｎｅｒ　Ｈａｒｍｏｎｙ株式会社,,株式会社,東京都,中央区,銀座１丁目１２番４Ｎ＆ＥＢＬＤ．７階,,13,102,1040061,,,,,,,2025-12-17,1,,,,,インナーハーモニー,0
595,3010401195237,新規,0,2025-12-17,2025-12-17,株式会社Ｔ＆Ｍ,,株式会社,東京都,港区,港南１丁目９番３６号,,13,103,1080075,,,,,,,2025-12-17,1,,,,,ティーアンドエム,0
600,3010503008115,新規,0,2025-12-17,2025-12-17,合同会社ピュアモード,,合同会社,東京都,台東区,小島２丁目１番１１号,,13,106,1110056,,,,,,,2025-12-17,1,,,,,ピュアモード,0
606,3010701048788,新規,0,2025-12-17,2025-12-17,株式会社アルファソリューションテクノロジーズ,,株式会社,東京都,品川区,西大井２丁目３番４号Ｋ・ビルヂング４０１,,13,109,1400015,,,,,,,2025-12-17,1,,,,,アルファソリューションテクノロジーズ,0
607,3010703008039,新規,0,2025-12-17,2025-12-17,合同会社ＬＯＸＵＳ,,合同会社,東京都,品川区,東品川５丁目９番１５－６０６号,,13,109,1400002,,,,,,,2025-12-17,1,,,,,ロクサス,0
611,3010901058653,新規,0,2025-12-17,2025-12-17,株式会社ＬＥＶＥＬ１６,,株式会社,東京都,世田谷区,北沢１丁目２８番９号,,13,112,1550031,,,,,,,2025-12-17,1,,,,,レベルシックスティーン,0
613,3010903010496,新規,0,2025-12-17,2025-12-17,サンクフルデザイン合同会社,,合同会社,東京都,世田谷区,下馬１丁目５２番１７号,,13,112,1540002,,,,,,,2025-12-17,1,,,,,サンクフルデザイン,0
616,3011001174416,新規,0,2025-12-17,2025-12-17,Ｌｉｏｒ株式会社,,株式会社,東京都,渋谷区,恵比寿西２丁目８番４号ＥＸ恵比寿西ビル５階,,13,113,1500021,,,,,,,2025-12-17,1,,,,,リオール,0
617,3011001174507,新規,0,2025-12-17,2025-12-17,日輪パートナーズ株式会社,,株式会社,東京都,渋谷区,宇田川町３－７ヒューリック渋谷公園通りビル５Ｆ－１３７,,13,113,1500042,,,,,,,2025-12-17,1,,,,,ニチリンパートナーズ,0
618,3011001174523,新規,0,2025-12-17,2025-12-17,株式会社ＣＯＳＭＯ　ＬＯＴＵＳ　ＰＲＯＪＥＣＴ,,株式会社,東京都,渋谷区,円山町５番３号ＭＩＥＵＸ渋谷ビル８階,,13,113,1500044,,,,,,,2025-12-17,1,,,,,コスモロータスプロジェクト,0
619,3011003023125,新規,0,2025-12-17,2025-12-17,合同会社Ｇｉｎｋｇｏ　ｂｉｌｏｂａ,,合同会社,東京都,渋谷区,神宮前６丁目２３番４号桑野ビル２階,,13,113,1500001,,,,,,,2025-12-17,1,,,,,ギンコビローバ,0
620,3011003023174,新規,0,2025-12-17,2025-12-17,合同会社セブンベース,,合同会社,東京都,目黒区,中目黒３丁目１７番３号,,13,110,1530061,,,,,,,2025-12-17,1,,,,,セブンベース,0
621,3011005011292,新規,0,2025-12-17,2025-12-17,特定非営利活動法人ＷＡＧＯＫＯＲＯ,,その他の設立登記法人,東京都,渋谷区,道玄坂１丁目１０番８号渋谷道玄坂東急ビル２Ｆ－Ｃ,,13,113,1500043,,,,,,,2025-12-17,1,,,,,ワゴコロ,0
624,3011101114081,新規,0,2025-12-17,2025-12-17,株式会社Ｔ．Ｙベローズ,,株式会社,東京都,新宿区,高田馬場１丁目２番１５号早稲田永谷マンション６０９,,13,104,1690075,,,,,,,2025-12-17,1,,,,,ティーワイベローズ,0
627,3011301031102,新規,0,2025-12-17,2025-12-17,サイバーステップ株式会社,,株式会社,東京都,杉並区,和泉１丁目２２番１９号,,13,115,1680063,,,,,,,2025-12-17,1,,,,,サイバーステップ,0
629,3011401027669,新規,0,2025-12-17,2025-12-17,ＤｏＡｃｔ株式会社,,株式会社,東京都,板橋区,蓮沼町４１番１２号,,13,119,1740052,,,,,,,2025-12-17,1,,,,,ドゥアクト,0
631,3011403004963,新規,0,2025-12-17,2025-12-17,アトリューム合同会社,,合同会社,東京都,板橋区,幸町６６－４ＨａｃｋｓＧａｒｄｅｎ２０２,,13,119,1730034,,,,,,,2025-12-17,1,,,,,アトリューム,0
645,3013301055452,新規,0,2025-12-17,2025-12-17,株式会社ａａｐ,,株式会社,東京都,豊島区,西池袋２丁目２５番１３号ベゼレ西池袋１Ｆ,,13,116,1710021,,,,,,,2025-12-17,1,,,,,エーエーピー,0
646,3013303007996,新規,0,2025-12-17,2025-12-17,Ｐｉｎｅ’ｓ合同会社,,合同会社,東京都,豊島区,東池袋１丁目１７番１１号パークハイツ池袋１１０５号,,13,116,1700013,,,,,,,2025-12-17,1,,,,,パインズ,0
654,3020001166257,新規,0,2025-12-17,2025-12-17,株式会社吉祥総建,,株式会社,神奈川県,横浜市西区,北幸２丁目１０番４８号むつみビル３階,,14,103,2200004,,,,,,,2025-12-17,1,,,,,キッショウソウケン,0
655,3020001166307,新規,0,2025-12-17,2025-12-17,株式会社エムズリンク,,株式会社,神奈川県,川崎市高津区,子母口４３９番地５,,14,134,2130023,,,,,,,2025-12-17,1,,,,,エムズリンク,0
656,3020001166348,新規,0,2025-12-17,2025-12-17,日本エンハンスドテクノロジー株式会社,,株式会社,神奈川県,横浜市保土ケ谷区,川辺町２－１６,,14,106,2400001,,,,,,,2025-12-17,1,,,,,ニホンエンハンスドテクノロジー,0
657,3020001166364,新規,0,2025-12-17,2025-12-17,株式会社ｃｏｅｕｒ　ｖｒａｉ,,株式会社,神奈川県,横浜市中区,山手町８４番地３コルティーレ山手町Ｇ４２９号室,,14,104,2310862,,,,,,,2025-12-17,1,,,,,クールヴィレ,0
661,3021005013494,新規,0,2025-12-17,2025-12-17,一般社団法人海老名クレッセル,,その他の設立登記法人,神奈川県,海老名市,社家３丁目１２－３９,,14,215,2430424,,,,,,,2025-12-17,1,,,,,エビナクレッセル,0
667,3030001170134,新規,0,2025-12-17,2025-12-17,株式会社ジョブクロス,,株式会社,埼玉県,草加市,北谷１丁目２２番１３号草加ビル３Ｆ,,11,221,3400046,,,,,,,2025-12-17,1,,,,,ジョブクロス,0
668,3030001170142,新規,0,2025-12-17,2025-12-17,株式会社ワンライン,,株式会社,埼玉県,加須市,上崎３８３番地１Ｆ１,,11,210,3470125,,,,,,,2025-12-17,1,,,,,ワンライン,0
669,3030001170150,新規,0,2025-12-17,2025-12-17,株式会社Ｏｎｅ’ｓＧａｔｅ,,株式会社,埼玉県,さいたま市緑区,大字大門７４０番地グリーンセント３０１,,11,109,3360963,,,,,,,2025-12-17,1,,,,,ワンズゲート,0
670,3030001170167,新規,0,2025-12-17,2025-12-17,Ｓｎｏｗ　Ｂｅａｒ　Ｌｉｖｉｎｇ株式会社,,株式会社,埼玉県,さいたま市西区,大字内野本郷４７１番地５,,11,101,3310045,,,,,,,2025-12-17,1,,,,,スノーベアーリビング,0
671,3030001170175,新規,0,2025-12-17,2025-12-17,株式会社リブートクリエイト,,株式会社,埼玉県,草加市,吉町５丁目１番４３－１号,,11,221,3400017,,,,,,,2025-12-17,1,,,,,リブートクリエイト,0
678,3040001141828,新規,0,2025-12-17,2025-12-17,ＳＳコンサルティング株式会社,,株式会社,千葉県,流山市,南流山３丁目１０番８号,,12,220,2700163,,,,,,,2025-12-17,1,,,,,エスエスコンサルティング,0
685,3060001038857,新規,0,2025-12-17,2025-12-17,株式会社グッドカーサービス,,株式会社,栃木県,河内郡上三川町,大字多功１４２５番地１,,09,301,3290524,,,,,,,2025-12-17,1,,,,,グッドカーサービス,0
687,3060003005888,新規,0,2025-12-17,2025-12-17,ル・リアン・グラヴィトン合同会社,,合同会社,栃木県,宇都宮市,中今泉４丁目２５番１５号,,09,201,3210968,,,,,,,2025-12-17,1,,,,,ルリアングラヴィトン,0
689,3070003006183,新規,0,2025-12-17,2025-12-17,合同会社エンスタイル,,合同会社,群馬県,安中市,安中１丁目２０番２８号,,10,211,3790116,,,,,,,2025-12-17,1,,,,,,0
690,3080001027338,新規,0,2025-12-17,2025-12-17,富士山静岡抹茶株式会社,,株式会社,静岡県,牧之原市,布引原７４３番地１,,22,226,4210407,,,,,,,2025-12-17,1,,,,,フジサンシズオカマッチャ,0
691,3080401028324,新規,0,2025-12-17,2025-12-17,フージー不動産株式会社,,株式会社,静岡県,掛川市,吉岡４９８番地,,22,213,4360115,,,,,,,2025-12-17,1,,,,,フージーフドウサン,0
698,3110001039791,新規,0,2025-12-17,2025-12-17,株式会社武藤農園,,株式会社,新潟県,魚沼市,吉水２０９２番地５,,15,225,9497421,,,,,,,2025-12-17,1,,,,,ブトウノウエン,0
717,3120001282878,新規,0,2025-12-17,2025-12-17,株式会社トリガー,,株式会社,大阪府,大阪市淀川区,宮原１丁目１９－２３－８２４,,27,123,5320003,,,,,,,2025-12-17,1,,,,,トリガー,0
721,3120003031498,新規,0,2025-12-17,2025-12-17,合同会社ｂｌｕｅｄｒｏｐＳＴＵＤＩＯ,,合同会社,大阪府,大阪市中央区,南船場３丁目２番２２号おおきに南船場ビル２０５,,27,128,5420081,,,,,,,2025-12-17,1,,,,,ブルードロップスタジオ,0
726,3120901051977,新規,0,2025-12-17,2025-12-17,株式会社グッドパルラボ,,株式会社,大阪府,茨木市,上穂積２丁目８番７号,,27,211,5670036,,,,,,,2025-12-17,1,,,,,グッドパルラボ,0
728,3120905006820,新規,0,2025-12-17,2025-12-17,一般社団法人国際教育英語試験協会,,その他の設立登記法人,大阪府,吹田市,桃山台２丁目５－１８－３０５,,27,205,5650854,,,,,,,2025-12-17,1,,,,,コクサイキョウイクエイゴシケンキョウカイ,0
738,3130003011012,新規,0,2025-12-17,2025-12-17,バベルソフト合同会社,,合同会社,京都府,京都市左京区,岩倉三宅町４２５－４五十川ビル２－Ａ号室,,26,103,6060022,,,,,,,2025-12-17,1,,,,,バベルソフト,0
739,3130003011020,新規,0,2025-12-17,2025-12-17,合同会社サンアイ,,合同会社,京都府,京都市北区,衣笠氷室町３７番地８衣笠ハイツ２１２,,26,101,6038484,,,,,,,2025-12-17,1,,,,,サンアイ,0
747,3140001141116,新規,0,2025-12-17,2025-12-17,株式会社こども未来育,,株式会社,兵庫県,尼崎市,長洲西通１丁目１３番１号,,28,202,6600807,,,,,,,2025-12-17,1,,,,,コドモミライク,0
748,3140001141157,新規,0,2025-12-17,2025-12-17,あおやまｏｆｆｉｃｅ株式会社,,株式会社,兵庫県,伊丹市,中央１丁目５番５号ボントンビル４Ｆ,,28,207,6640851,,,,,,,2025-12-17,1,,,,,アオヤマオフィス,0
752,3140005027732,新規,0,2025-12-17,2025-12-17,医療法人社団こづち眼科,,その他の設立登記法人,兵庫県,神戸市北区,鈴蘭台北町１丁目９番１号ベルスト鈴蘭台２階,,28,109,6511111,,,,,,,2025-12-17,1,,,,,コヅチガンカ,0
766,3180001169938,新規,0,2025-12-17,2025-12-17,株式会社ＰＤ,,株式会社,愛知県,名古屋市中村区,上米野町４丁目２０番地,,23,105,4530809,,,,,,,2025-12-17,1,,,,,ピーディー,0
767,3180001169970,新規,0,2025-12-17,2025-12-17,ｌａｐｉｓｌａｚｕｌｉ株式会社,,株式会社,愛知県,名古屋市中区,錦２丁目６番２１号,,23,106,4600003,,,,,,,2025-12-17,1,,,,,ラピスラズリ,0
771,3180303006847,新規,0,2025-12-17,2025-12-17,ストーンブラック合同会社,,合同会社,愛知県,豊川市,高見町４丁目１７－２,,23,207,4420883,,,,,,,2025-12-17,1,,,,,ストーンブラック,0
778,3240001065940,新規,0,2025-12-17,2025-12-17,株式会社ｒａｗ,,株式会社,広島県,広島市西区,井口３丁目８番３４号,,34,104,7330842,,,,,,,2025-12-17,1,,,,,ロウ,0
784,3260001040826,新規,0,2025-12-17,2025-12-17,鵜崎工業株式会社,00141923,株式会社,岡山県,赤磐市,桜が丘西７丁目１７番８号,,33,213,7090802,,,,,,,2025-12-17,1,,,,,ウザキコウギョウ,0
792,3290801032111,新規,0,2025-12-17,2025-12-17,株式会社すずき不動産,,株式会社,福岡県,田川市,大字猪国２５５９番地,,40,206,8260045,,,,,,,2025-12-17,1,,,,,スズキフドウサン,0
794,3310002014542,新規,0,2025-12-17,2025-12-17,有限会社面田組,,有限会社,長崎県,北松浦郡小値賀町,江迎町三浦免１番地,,42,383,8574700,,,,,,,2025-12-17,1,,,,,メンダグミ,0
800,3320001021497,新規,0,2025-12-17,2025-12-17,株式会社トライ,,株式会社,大分県,宇佐市,大字上田４１４番地の１,,44,211,8790453,,,,,,,2025-12-17,1,,,,,トライ,0
803,3350003005099,新規,0,2025-12-17,2025-12-17,合同会社ステラベース,,合同会社,宮崎県,西都市,右松１丁目２０シャルマン・ユミ２０２,,45,208,8810003,,,,,,,2025-12-17,1,,,,,ステラベース,0
804,3360003015485,新規,0,2025-12-17,2025-12-17,合同会社ＲＡＹＳ,,合同会社,沖縄県,那覇市,樋川２丁目１０番１４－１２０４号ル・サンク那覇開南,,47,201,9000022,,,,,,,2025-12-17,1,,,,,レイズ,0
810,3400001017256,新規,0,2025-12-17,2025-12-17,株式会社Ｚｅｒｏｇｒａｖｉｔｙ,,株式会社,岩手県,盛岡市,若園町７番３２号,,03,201,0200886,,,,,,,2025-12-17,1,,,,,ゼログラビティ,0
812,3410001014343,新規,0,2025-12-17,2025-12-17,株式会社毘沙門,,株式会社,秋田県,秋田市,川尻大川町１２‐４３,,05,201,0100942,,,,,,,2025-12-17,1,,,,,ビシャモン,0
814,3420005007986,新規,0,2025-12-17,2025-12-17,一般社団法人ｔｓｕｍｕｇｉ,,その他の設立登記法人,青森県,青森市,桂木３丁目１８番地２,,02,201,0300844,,,,,,,2025-12-17,1,,,,,ツムギ,0
815,3430001095869,新規,0,2025-12-17,2025-12-17,株式会社建工舎,,株式会社,北海道,札幌市南区,川沿一条５丁目１番７号,,01,106,0050801,,,,,,,2025-12-17,1,,,,,ケンコウシャ,0
819,3450001014810,新規,0,2025-12-17,2025-12-17,株式会社ＡＯＹＡ,,株式会社,北海道,旭川市,南八条通２６丁目５８１番地の４９,,01,204,0788338,,,,,,,2025-12-17,1,,,,,アオヤ,0
829,3500001026684,新規,0,2025-12-17,2025-12-17,ハマモト自動車株式会社,,株式会社,愛媛県,今治市,波方町波方甲２７８０番地２,,38,202,7992101,,,,,,,2025-12-17,1,,,,,ハマモトジドウシャ,0
830,3700150133526,新規,0,2025-12-17,2025-12-17,デイ・シイ健康保険組合,,その他,神奈川県,川崎市川崎区,東田町８番地　パレール三井ビルディング１７階,,14,131,2100005,,,,,,,2025-12-17,1,,,,,デイシイケンコウホケンクミアイ,0
831,3700150133534,新規,0,2025-12-17,2025-12-17,静岡中央銀行健康保険組合,,その他,静岡県,沼津市,大手町４丁目７６番地,,22,203,4100801,,,,,,,2025-12-17,1,,,,,シズオカチュウオウギンコウケンコウホケンクミアイ,0
832,3700150133575,新規,0,2025-12-17,2025-12-17,オカモト健康保険組合,,その他,東京都,江戸川区,平井７丁目１２番８号,,13,123,1320035,,,,,,,2025-12-17,1,,,,,オカモトケンコウホケンクミアイ,0
833,3700150133583,新規,0,2025-12-17,2025-12-17,帝人グループ健康保険組合,,その他,愛媛県,松山市,北吉田町７７番地,,38,201,7918041,,,,,,,2025-12-17,1,,,,,テイジングループケンコウホケンクミアイ,0
844,4010001261207,新規,0,2025-12-17,2025-12-17,株式会社ＳＴＯＣＫ２０２,,株式会社,東京都,千代田区,永田町２丁目１２番４号,,13,101,1000014,,,,,,,2025-12-17,1,,,,,ストックニヒャクニ,0
847,4010003049740,新規,0,2025-12-17,2025-12-17,合同会社颯橘,,合同会社,東京都,中央区,日本橋室町１丁目１１番１２号日本橋水野ビル７階,,13,102,1030022,,,,,,,2025-12-17,1,,,,,キッカ,0
848,4010003049749,新規,0,2025-12-17,2025-12-17,ＤＮＳ合同会社,,合同会社,東京都,中央区,日本橋１丁目４番１号,,13,102,1030027,,,,,,,2025-12-17,1,,,,,ディーエヌエス,0
849,4010101017013,新規,0,2025-12-17,2025-12-17,株式会社まごころふれんず,,株式会社,東京都,八王子市,犬目町１１０９番地１２,,13,201,1930802,,,,,,,2025-12-17,1,,,,,マゴコロフレンズ,0
859,4010401195260,新規,0,2025-12-17,2025-12-17,株式会社ＫＯＥｗｏｒｌｄ,,株式会社,東京都,港区,愛宕２丁目５番１号,,13,103,1050002,,,,,,,2025-12-17,1,,,,,コエワールド,0
863,4010403036669,新規,0,2025-12-17,2025-12-17,合同会社ＮＯＶＩＴＡＫＥ,,合同会社,東京都,港区,芝大門１丁目４番４号ノア芝大門６０９,,13,103,1050012,,,,,,,2025-12-17,1,,,,,ノビテイク,0
864,4010403036842,新規,0,2025-12-17,2025-12-17,合同会社憲和,,合同会社,東京都,港区,白金台２丁目２６番１２,,13,103,1080071,,,,,,,2025-12-17,1,,,,,ノリカズ,0
865,4010405025034,新規,0,2025-12-17,2025-12-17,一般社団法人コミュニケーションカード実践協会,,その他の設立登記法人,東京都,港区,北青山１丁目３番１号,,13,103,1070061,,,,,,,2025-12-17,1,,,,,コミュニケーションカードジッセンキョウカイ,0
866,4010405025117,新規,0,2025-12-17,2025-12-17,一般社団法人ノンフロン自然冷媒ＧＦ‐０８推進協議会,,その他の設立登記法人,東京都,港区,浜松町２丁目３番８号ＷＴＣａｎｎｅｘ１１－１２階,,13,103,1050013,,,,,,,2025-12-17,1,,,,,ノンフロンシゼンレイバイジーエフゼロハチスイシンキョウギカイ,0
871,4010701048779,新規,0,2025-12-17,2025-12-17,株式会社Ｓｍａｒｔ　Ｎｕｒｓｅ,,株式会社,東京都,品川区,西大井１丁目１－２Ｊタワー西大井イーストタワー２階品川区立西大井創業支援センターＰＯＲＴ２４０１,,13,109,1400015,,,,,,,2025-12-17,1,,,,,スマートナース,0
875,4010901058628,新規,0,2025-12-17,2025-12-17,株式会社シュエットワークス,,株式会社,東京都,世田谷区,宮坂１丁目３９－１１,,13,112,1560051,,,,,,,2025-12-17,1,,,,,シュエットワークス,0
876,4010901058677,新規,0,2025-12-17,2025-12-17,株式会社ハヤブサＳ．Ｃ．,,株式会社,東京都,世田谷区,瀬田１丁目１７番７号,,13,112,1580095,,,,,,,2025-12-17,1,,,,,ハヤブサエスシー,0
877,4010905004883,新規,0,2025-12-17,2025-12-17,一般社団法人セタプロ,,その他の設立登記法人,東京都,世田谷区,尾山台３丁目３３番１２号ノアマンション３階,,13,112,1580086,,,,,,,2025-12-17,1,,,,,セパタプロ,0
879,4011001174407,新規,0,2025-12-17,2025-12-17,株式会社Ｆｒｅｌｉｏ,,株式会社,東京都,渋谷区,円山町５番３号ＭＩＥＵＸ渋谷ビル８階,,13,113,1500044,,,,,,,2025-12-17,1,,,,,フレリオ,0
880,4011001174415,新規,0,2025-12-17,2025-12-17,株式会社洗濯機お掃除クリニック,,株式会社,東京都,渋谷区,道玄坂１丁目１０番８号渋谷道玄坂東急ビル２Ｆ－Ｃ,,13,113,1500043,,,,,,,2025-12-17,1,,,,,センタクキオソウジクリニック,0
881,4011001174464,新規,0,2025-12-17,2025-12-17,株式会社ＪＩＤＯＫＡ,,株式会社,東京都,渋谷区,道玄坂１丁目１０番８号渋谷道玄坂東急ビル２Ｆ－Ｃ,,13,113,1500043,,,,,,,2025-12-17,1,,,,,ジドーカ,0
883,4011003023173,新規,0,2025-12-17,2025-12-17,ＳＡＩＤＡＩＪＩ　ＪＡＰＡＮ合同会社,,合同会社,東京都,目黒区,中町２丁目８番８号,,13,110,1530065,,,,,,,2025-12-17,1,,,,,サイダイジジャパン,0
890,4011301031101,新規,0,2025-12-17,2025-12-17,ＣｒｙｐＴｅｃｈ　Ｃａｐｉｔａｌ株式会社,,株式会社,東京都,杉並区,和泉１丁目２２番１９号,,13,115,1680063,,,,,,,2025-12-17,1,,,,,クリプテックキャピタル,0
895,4011401027668,新規,0,2025-12-17,2025-12-17,株式会社丸義,,株式会社,東京都,板橋区,徳丸２丁目２７番１４号サンパレス徳丸３０１,,13,119,1750083,,,,,,,2025-12-17,1,,,,,マルヨシ,0
911,4012401043928,新規,0,2025-12-17,2025-12-17,Ｋａｖｏｎａ株式会社,,株式会社,東京都,調布市,西つつじケ丘４丁目４４番地１１,,13,208,1820006,,,,,,,2025-12-17,1,,,,,カヴォナ,0
912,4012403007518,新規,0,2025-12-17,2025-12-17,技広縁合同会社,,合同会社,東京都,府中市,四谷１丁目４６番地の４プレシェア中河原１０１,,13,206,1830035,,,,,,,2025-12-17,1,,,,,ギコウエン,0
914,4012701019231,新規,0,2025-12-17,2025-12-17,株式会社ＰＲＯＳＰＥＲ,,株式会社,東京都,小平市,鈴木町１丁目２６６番地の１５,,13,211,1870011,,,,,,,2025-12-17,1,,,,,プロスパー,0
920,4013303007995,新規,0,2025-12-17,2025-12-17,合同会社ＲｅＬｅａｓｅ,,合同会社,東京都,豊島区,千早１丁目９－１２エムティーハイツ２０２,,13,116,1710044,,,,,,,2025-12-17,1,,,,,リリース,0
926,4020001166289,新規,0,2025-12-17,2025-12-17,ＣＡＳＫ　ＢＡＳＥ株式会社,,株式会社,神奈川県,横浜市保土ケ谷区,川島町６８３番地６３,,14,106,2400045,,,,,,,2025-12-17,1,,,,,カスクベース,0
927,4020001166322,新規,0,2025-12-17,2025-12-17,ニチカリンク株式会社,,株式会社,神奈川県,横浜市旭区,川井宿町１２７－１４,,14,112,2410804,,,,,,,2025-12-17,1,,,,,ニチカリンク,0
928,4020003030006,新規,0,2025-12-17,2025-12-17,合同会社Ｚｅｏｔｏｎｉｘ,,合同会社,神奈川県,横浜市中区,海岸通４丁目２２番地,,14,104,2310002,,,,,,,2025-12-17,1,,,,,ジーオトニクス,0
946,4030001170133,新規,0,2025-12-17,2025-12-17,ＰＯＫＥＲ　ＳＰＡＣＥ株式会社,,株式会社,埼玉県,川越市,大字池辺３７５番地１,,11,201,3501171,,,,,,,2025-12-17,1,,,,,ポーカースペース,0
953,4040001141802,新規,0,2025-12-17,2025-12-17,株式会社七福屋,,株式会社,千葉県,松戸市,小金３０１－１グランスイート北小金２０９,,12,207,2700014,,,,,,,2025-12-17,1,,,,,シチフクヤ,0
954,4040001141810,新規,0,2025-12-17,2025-12-17,タイワシフト株式会社,,株式会社,千葉県,市川市,市川南４丁目８番２６号ラ・グリシーヌ３階,,12,203,2720033,,,,,,,2025-12-17,1,,,,,タイワシフト,0
955,4040001141827,新規,0,2025-12-17,2025-12-17,株式会社Ｕｂｕｎｔｕ,,株式会社,千葉県,成田市,並木町２２１番地１７１,,12,211,2860045,,,,,,,2025-12-17,1,,,,,ウブントゥ,0
958,4040005022940,新規,0,2025-12-17,2025-12-17,一般社団法人Ｉｍｏ　Ｌａｂｏ,,その他の設立登記法人,千葉県,君津市,泉３３６,,12,225,2991112,,,,,,,2025-12-17,1,,,,,イモラボ,0
959,4060001038856,新規,0,2025-12-17,2025-12-17,株式会社ＫＩＺＵＮＡ,,株式会社,栃木県,宇都宮市,野沢町５４番地３,,09,201,3200071,,,,,,,2025-12-17,1,,,,,キズナ,0
968,4080401028323,新規,0,2025-12-17,2025-12-17,株式会社ｕ‐ｈｏｍｅ,,株式会社,静岡県,袋井市,大門１０番地の４,,22,216,4370038,,,,,,,2025-12-17,1,,,,,ユウホーム,0
970,4090003002948,新規,0,2025-12-17,2025-12-17,合同会社ティエラファーム山梨,,合同会社,山梨県,笛吹市,八代町北５５２番地,,19,211,4060821,,,,,,,2025-12-17,1,,,,,ティエラファームヤマナシ,0
972,4100001039197,新規,0,2025-12-17,2025-12-17,ふくろうの宿株式会社,,株式会社,長野県,茅野市,北山４０３５番地２１６２,,20,214,3910301,,,,,,,2025-12-17,1,,,,,フクロウノヤド,0
974,4110001039790,新規,0,2025-12-17,2025-12-17,新潟とんべい株式会社,,株式会社,新潟県,新潟市中央区,古町通４番町６３２,,15,103,9518063,,,,,,,2025-12-17,1,,,,,ニイガタトンベイ,0
995,4120001282712,新規,0,2025-12-17,2025-12-17,Ｇｌｏｂａｌ　Ｉｎｖｅｓｔｍｅｎｔ株式会社,,株式会社,大阪府,大阪市淀川区,西宮原１丁目８番２４号,,27,123,5320004,,,,,,,2025-12-17,1,,,,,グローバルインベストメント,0
996,4120001282811,新規,0,2025-12-17,2025-12-17,株式会社アセットデザイン,,株式会社,大阪府,大阪市住吉区,南住吉２丁目８番２６－４０８号,,27,120,5580041,,,,,,,2025-12-17,1,,,,,アセットデザイン,0
1001,4120003031497,新規,0,2025-12-17,2025-12-17,合同会社ＡＮＣＨＯＲ,,合同会社,大阪府,大阪市天王寺区,東高津町５番１０－５０３号,,27,109,5430021,,,,,,,2025-12-17,1,,,,,アンカー,0
1003,4120005025308,新規,0,2025-12-17,2025-12-17,一般社団法人ＲＥＡＬ　ＱＵＥＳＴ　ＡＣＡＤＥＭＹ,,その他の設立登記法人,大阪府,大阪市北区,芝田２丁目８－１１共栄ビル３Ｆ,,27,127,5300012,,,,,,,2025-12-17,1,,,,,リアルクエストアカデミー,0
1009,4120901051976,新規,0,2025-12-17,2025-12-17,株式会社アトリエムー,,株式会社,大阪府,茨木市,真砂２丁目１１番２０号風の街１０１号,,27,211,5670851,,,,,,,2025-12-17,1,,,,,アトリエムー,0
1010,4120901051992,新規,0,2025-12-17,2025-12-17,株式会社Ｒｏｏｔｓ,,株式会社,大阪府,箕面市,西小路２丁目５番８号,,27,220,5620003,,,,,,,2025-12-17,1,,,,,ルーツ,0
1016,4130001081221,新規,0,2025-12-17,2025-12-17,Ｋ‐ＷＯＲＫＳ株式会社,,株式会社,京都府,宇治市,明星町３丁目６番地の１５０,,26,204,6110014,,,,,,,2025-12-17,1,,,,,ケイワークス,0
1024,4140001141123,新規,0,2025-12-17,2025-12-17,株式会社アイビーウッズ,,株式会社,兵庫県,明石市,大久保町駅前１丁目１８番地の６,,28,203,6740058,,,,,,,2025-12-17,1,,,,,アイビーウッズ,0
1028,4140003022981,新規,0,2025-12-17,2025-12-17,合同会社朱里,,合同会社,兵庫県,小野市,葉多町７３８,,28,218,6751377,,,,,,,2025-12-17,1,,,,,シュリ,0
1029,4140005027731,新規,0,2025-12-17,2025-12-17,医療法人社団石川ヒロ歯科クリニック,,その他の設立登記法人,兵庫県,明石市,大久保町駅前１丁目８番地８,,28,203,6740058,,,,,,,2025-12-17,1,,,,,イシカワヒロシカクリニック,0
1031,4150001028600,新規,0,2025-12-17,2025-12-17,株式会社ＮａｒａＴｉｖｅ,,株式会社,奈良県,橿原市,久米町６８２番地の２０１号,,29,205,6340063,,,,,,,2025-12-17,1,,,,,ナラティヴ,0
1033,4150003003782,新規,0,2025-12-17,2025-12-17,合同会社参景商事,,合同会社,奈良県,奈良市,小西町８－１ラフィーヌ東洋５Ｆ,,29,201,6308226,,,,,,,2025-12-17,1,,,,,サンケイショウジ,0
1036,4160001027304,新規,0,2025-12-17,2025-12-17,株式会社楓食堂,,株式会社,滋賀県,愛知郡愛荘町,野々目８１番地３,,25,425,5291227,,,,,,,2025-12-17,1,,,,,カエデショクドウ,0
1038,4170001018921,新規,0,2025-12-17,2025-12-17,株式会社フォーチュン,,株式会社,和歌山県,和歌山市,坂田２２番６号,,30,201,6410003,,,,,,,2025-12-17,1,,,,,フォーチュン,0
1039,4170003002353,新規,0,2025-12-17,2025-12-17,ＭＬ合同会社,,合同会社,和歌山県,田辺市,あけぼの２０番１－２０３号,,30,206,6460021,,,,,,,2025-12-17,1,,,,,エムエル,0
1041,4180001169912,新規,0,2025-12-17,2025-12-17,Ａｉｒａ株式会社,,株式会社,愛知県,名古屋市南区,宝生町１丁目４１番地宝生荘１８棟４０５号,,23,112,4570828,,,,,,,2025-12-17,1,,,,,アイラ,0
1042,4180001169920,新規,0,2025-12-17,2025-12-17,アオイテック株式会社,,株式会社,愛知県,名古屋市守山区,日の後９１３番地,,23,113,4630803,,,,,,,2025-12-17,1,,,,,アオイテック,0
1043,4180001169929,新規,0,2025-12-17,2025-12-17,株式会社ＮＥＤＡ,,株式会社,愛知県,名古屋市東区,葵３丁目２２番５号バンベール千種ザ・ファースト１７０３号,,23,102,4610004,,,,,,,2025-12-17,1,,,,,ネダ,0
1046,4180003029511,新規,0,2025-12-17,2025-12-17,アイウン合同会社,,合同会社,愛知県,名古屋市中区,正木２丁目３－５５プレサンスロジェ金山１１０６,,23,106,4600024,,,,,,,2025-12-17,1,,,,,アイウン,0
1049,4200003007175,新規,0,2025-12-17,2025-12-17,合同会社クロロオート,,合同会社,岐阜県,羽島市,上中町沖１６３１番地,,21,209,5016318,,,,,,,2025-12-17,1,,,,,クロロオート,0
1061,4240001065931,新規,0,2025-12-17,2025-12-17,株式会社アキラ,,株式会社,広島県,福山市,神辺町字上御領１８１番地１,,34,207,7202111,,,,,,,2025-12-17,1,,,,,アキラ,0
1062,4240001065948,新規,0,2025-12-17,2025-12-17,株式会社ＳＡＴＯＲＵＬＥ,,株式会社,広島県,広島市中区,土橋町２番３４－１２０３号,,34,101,7300854,,,,,,,2025-12-17,1,,,,,サトルール,0
1066,4250001021470,新規,0,2025-12-17,2025-12-17,株式会社ＭＯＮＲＯＥ,,株式会社,山口県,大島郡周防大島町,大字平野１２０７番地,,35,305,7422512,,,,,,,2025-12-17,1,,,,,モンロー,0
1069,4260001040817,新規,0,2025-12-17,2025-12-17,株式会社花舞,,株式会社,岡山県,新見市,哲西町畑木１０６４番地,,33,210,7193812,,,,,,,2025-12-17,1,,,,,ハナマイ,0
1077,4290001112588,新規,0,2025-12-17,2025-12-17,株式会社ＥＮ,,株式会社,福岡県,福岡市中央区,天神２丁目２番１２号Ｔ＆Ｊビルディング７Ｆ,,40,133,8100001,,,,,,,2025-12-17,1,,,,,エン,0
1078,4290003017835,新規,0,2025-12-17,2025-12-17,合同会社ＨＬＨ　Ｉｎｖｅｓｔｍｅｎｔ　Ｃｏｎｓｕｌｔａｎｔ,,合同会社,福岡県,小郡市,八坂１５０２番地３,,40,216,8380133,,,,,,,2025-12-17,1,,,,,エイチエルエイチインベストメントコンサルタント,0
1079,4310001019888,新規,0,2025-12-17,2025-12-17,株式会社ＳＡＷＡＭＯＴＯ,,株式会社,長崎県,西彼杵郡時津町,西時津郷４４９番地２,,42,308,8512101,,,,,,,2025-12-17,1,,,,,サワモト,0
1082,4330001033846,新規,0,2025-12-17,2025-12-17,熊本印刷株式会社,,株式会社,熊本県,菊池郡大津町,大字杉水６９９番地３,,43,403,8691236,,,,,,,2025-12-17,1,,,,,クマモトインサツ,0
1087,4350001019851,新規,0,2025-12-17,2025-12-17,株式会社エスライフサポート,,株式会社,宮崎県,宮崎市,高岡町五町２７８番地３,,45,201,8802322,,,,,,,2025-12-17,1,,,,,エスライフサポート,0
1089,4360001036152,新規,0,2025-12-17,2025-12-17,株式会社ミーハナ,,株式会社,沖縄県,島尻郡南風原町,字津嘉山２８５番地,,47,350,9011117,,,,,,,2025-12-17,1,,,,,ミーハナ,0
1090,4360001036160,新規,0,2025-12-17,2025-12-17,株式会社アプローズリンク,,株式会社,沖縄県,宜野湾市,喜友名２丁目２５番７号,,47,205,9012222,,,,,,,2025-12-17,1,,,,,アプローズリンク,0
1092,4370001053329,新規,0,2025-12-17,2025-12-17,株式会社ＴＡＣＫ,,株式会社,宮城県,仙台市泉区,市名坂字黒木川原１番地の８,,04,105,9813117,,,,,,,2025-12-17,1,,,,,タック,0
1094,4370003007423,新規,0,2025-12-17,2025-12-17,合同会社よつば,,合同会社,宮城県,宮城郡利府町,菅谷台２丁目２４番地１２,,04,406,9810135,,,,,,,2025-12-17,1,,,,,ヨツバ,0
1100,4400001017255,新規,0,2025-12-17,2025-12-17,株式会社あがらい,,株式会社,岩手県,西磐井郡平泉町,平泉字鈴沢３１番地３,,03,402,0294102,,,,,,,2025-12-17,1,,,,,アガライ,0
1109,4430001095876,新規,0,2025-12-17,2025-12-17,株式会社グロビア,,株式会社,北海道,恵庭市,北柏木町１丁目１６番５号,,01,231,0611433,,,,,,,2025-12-17,1,,,,,グロビア,0
1110,4430001095884,新規,0,2025-12-17,2025-12-17,株式会社Ｏｄｏｌｌ,,株式会社,北海道,札幌市中央区,南一条西８丁目１０番地,,01,101,0600061,,,,,,,2025-12-17,1,,,,,オドル,0
1112,4430003018422,新規,0,2025-12-17,2025-12-17,ゴーミートプライム合同会社,,合同会社,北海道,小樽市,銭函３丁目１８６番地３０,,01,203,0470261,,,,,,,2025-12-17,1,,,,,ゴーミートプライム,0
1119,4500001026683,新規,0,2025-12-17,2025-12-17,ハピネス株式会社,,株式会社,愛媛県,松山市,北条辻９７３番地１,00141912,38,201,7992430,,,,,,,2025-12-17,1,,,,,ハピネス,0
1124,4700150133525,新規,0,2025-12-17,2025-12-17,Ｆｏｓｈａｎｓｈｉｋａｉｌｅｄｅｋｅｊｉｙｏｕｘｉａｎｇｏｎｇｓｉ,,外国会社等,,,,,,,,Ｎｏ．１，Ｎｏ．２２，Ｑｉａｏｇａｏ　Ｒｏａｄ　Ｅａｓｔ，Ｈａｉｚｈｏｕ　Ｄｅｖｅｌｏｐｍｅｎｔ　Ｚｏｎｅ，Ｘｉｑｉａｏ　Ｔｏｗｎ，Ｎａｎｈａｉ　Ｄｉｓｔｒｉｃｔ，Ｆｏｓｈａｎ　Ｃｉｔｙ,,,,,,2025-12-17,1,,,,,フォーシャンシーカイラーダーコージーヨウシエンゴンスー,0
1125,4700150133533,新規,0,2025-12-17,2025-12-17,大和製罐健康保険組合,,その他,東京都,千代田区,丸の内２丁目７番２号,,13,101,1000005,,,,,,,2025-12-17,1,,,,,ダイワセイカンケンコウホケンクミアイ,0
1126,4700150133574,新規,0,2025-12-17,2025-12-17,百五銀行健康保険組合,,その他,三重県,津市,岩田２１番２７号,,24,201,5140838,,,,,,,2025-12-17,1,,,,,ヒャクゴギンコウケンコウホケンクミアイ,0
1127,4700150133582,新規,0,2025-12-17,2025-12-17,日本トランスシティ健康保険組合,,その他,三重県,四日市市,霞２丁目１２番地,,24,202,5100011,,,,,,,2025-12-17,1,,,,,ニホントランスシティケンコウホケンクミアイ,0
1138,5010001261222,新規,0,2025-12-17,2025-12-17,満点籠株式会社,,株式会社,東京都,千代田区,神田小川町３丁目１１番地２インペリアルお茶の水１階Ｂ－１０５,,13,101,1010052,,,,,,,2025-12-17,1,,,,,マンテンロウ,0
1139,5010001261263,新規,0,2025-12-17,2025-12-17,株式会社エリクシオン,,株式会社,東京都,中央区,銀座１丁目１４番４号プレリー銀座ビル,,13,102,1040061,,,,,,,2025-12-17,1,,,,,エリクシオン,0
1140,5010001261288,新規,0,2025-12-17,2025-12-17,東京外壁株式会社,,株式会社,東京都,中央区,八丁堀４丁目１番３号,,13,102,1040032,,,,,,,2025-12-17,1,,,,,トウキョウガイヘキ,0
1145,5010003049764,新規,0,2025-12-17,2025-12-17,ＫＫリアルエステート合同会社,,合同会社,東京都,文京区,本駒込４丁目４６－７,,13,105,1130021,,,,,,,2025-12-17,1,,,,,ケーケーリアルエステート,0
1155,5010401195128,新規,0,2025-12-17,2025-12-17,Ｓｗｅｅｔ　Ｎａｎａ株式会社,,株式会社,東京都,港区,赤坂４丁目８番１９号赤坂フロントタウン３階,,13,103,1070052,,,,,,,2025-12-17,1,,,,,スイートナナ,0
1156,5010401195235,新規,0,2025-12-17,2025-12-17,株式会社雪と花,,株式会社,東京都,港区,東新橋１丁目１０番１－９１５号,,13,103,1050021,,,,,,,2025-12-17,1,,,,,ユキトハナ,0
1159,5010403036825,新規,0,2025-12-17,2025-12-17,松本エンターテイメント合同会社,,合同会社,東京都,港区,芝４丁目３番１０－１１０２号,,13,103,1080014,,,,,,,2025-12-17,1,,,,,マツモトエンターテイメント,0
1168,5010601068430,新規,0,2025-12-17,2025-12-17,信源不動産リース株式会社,,株式会社,東京都,墨田区,緑１丁目１６番４－１１０２号,,13,107,1300021,,,,,,,2025-12-17,1,,,,,シンゲンフドウサンリース,0
1171,5010803005644,新規,0,2025-12-17,2025-12-17,合同会社ＵＮＥ　ＨＩＳＴＯＩＲＥ,,合同会社,東京都,大田区,仲池上１丁目２６－１－４０４,,13,111,1460081,,,,,,,2025-12-17,1,,,,,ウニストワ,0
1176,5010901058643,新規,0,2025-12-17,2025-12-17,株式会社スタジオブルーアーク,,株式会社,東京都,世田谷区,梅丘２丁目３０番１０アコードＡ号,,13,112,1540022,,,,,,,2025-12-17,1,,,,,スタジオブルーアーク,0
1177,5010901058676,新規,0,2025-12-17,2025-12-17,ウェルビレッジコンサルティング株式会社,,株式会社,東京都,世田谷区,玉川３丁目４番３号ＧｒａｎＤｕｏ二子玉川地下１階,,13,112,1580094,,,,,,,2025-12-17,1,,,,,ウェルビレッジコンサルティング,0
1185,5011001174190,新規,0,2025-12-17,2025-12-17,株式会社マーク,,株式会社,東京都,渋谷区,富ヶ谷１丁目３１－１２－１０２,,13,113,1510063,,,,,,,2025-12-17,1,,,,,マーク,0
1186,5011001174240,新規,0,2025-12-17,2025-12-17,株式会社Ｃｅｅ,,株式会社,東京都,渋谷区,幡ヶ谷１丁目１番２号,,13,113,1510072,,,,,,,2025-12-17,1,,,,,シー,0
1187,5011001174521,新規,0,2025-12-17,2025-12-17,Ｔａｉｚａｎ　Ｂｒｉｄｇｅ株式会社,,株式会社,東京都,渋谷区,道玄坂１丁目１０番８号渋谷道玄坂東急ビル２Ｆ－Ｃ,,13,113,1500043,,,,,,,2025-12-17,1,,,,,タイザンブリッジ,0
1190,5011003022950,新規,0,2025-12-17,2025-12-17,合同会社ＺＴＳ,,合同会社,東京都,渋谷区,神南１丁目１１番４号ＦＰＧリンクス神南５階,,13,113,1500041,,,,,,,2025-12-17,1,,,,,ゼットティエス,0
1191,5011003023131,新規,0,2025-12-17,2025-12-17,Ｇｏｔｔｃｈａ合同会社,,合同会社,東京都,目黒区,碑文谷５丁目２番５号ＴアンドＡビル５階,,13,110,1520003,,,,,,,2025-12-17,1,,,,,ガッチャ,0
1198,5011301031100,新規,0,2025-12-17,2025-12-17,トレバ株式会社,,株式会社,東京都,杉並区,和泉１丁目２２番１９号,,13,115,1680063,,,,,,,2025-12-17,1,,,,,トレバ,0
1199,5011303005804,新規,0,2025-12-17,2025-12-17,合同会社ＫＷＫＢ　Ａｃｃｏｕｎｔｉｎｇ,,合同会社,東京都,杉並区,荻窪２丁目８番８号,,13,115,1670051,,,,,,,2025-12-17,1,,,,,ケイダブリュケイビーアクカウンティング,0
1205,5011801047190,新規,0,2025-12-17,2025-12-17,株式会社ＡＳＳＨ,,株式会社,東京都,足立区,西保木間２丁目９番５－３０３号,,13,121,1210812,,,,,,,2025-12-17,1,,,,,アッシュ,0
1221,5013301055450,新規,0,2025-12-17,2025-12-17,接口北大西洋株式会社,,株式会社,東京都,豊島区,西巣鴨１丁目２番２２号ＷＡＮＤＡビル２階,,13,116,1700001,,,,,,,2025-12-17,1,,,,,セツグチキタタイセイヨウ,0
1225,5020001166296,新規,0,2025-12-17,2025-12-17,Ｃｏｎｔｅｘｔｕａｌ株式会社,,株式会社,神奈川県,川崎市川崎区,南町１１番地１３,,14,131,2100015,,,,,,,2025-12-17,1,,,,,コンテクスチュアル,0
1227,5020003029996,新規,0,2025-12-17,2025-12-17,ＭａｇｉｃＡｐｐ合同会社,,合同会社,神奈川県,横浜市神奈川区,金港町５番１４号クアドリフォリオ８階,,14,102,2210056,,,,,,,2025-12-17,1,,,,,マジックアップ,0
1228,5020003030021,新規,0,2025-12-17,2025-12-17,Ｋｓ　Ｇｅｅｋ合同会社,,合同会社,神奈川県,横浜市西区,北幸２丁目１０番４８号　むつみビル３階,,14,103,2200004,,,,,,,2025-12-17,1,,,,,ケーエスギーク,0
1240,5021003016935,新規,0,2025-12-17,2025-12-17,合同会社Ｓｃｈｅｍｅ　Ａｒｔ,,合同会社,神奈川県,平塚市,平塚３丁目１番４ー２号,,14,203,2540052,,,,,,,2025-12-17,1,,,,,スキームアート,0
1247,5030001170149,新規,0,2025-12-17,2025-12-17,ＡＤ　Ａｕｔｏ株式会社,,株式会社,埼玉県,さいたま市浦和区,本太３丁目２２－８,,11,107,3300052,,,,,,,2025-12-17,1,,,,,エーディーオート,0
1248,5030001170231,新規,0,2025-12-17,2025-12-17,株式会社Ｔ・Ｗ,,株式会社,埼玉県,さいたま市桜区,大字神田４４７番地７,,11,106,3380812,,,,,,,2025-12-17,1,,,,,ティーダブリュー,0
1249,5030002037999,新規,0,2025-12-17,2025-12-17,有限会社久喜鉄工所,,有限会社,埼玉県,久喜市,上清久５２７番地,,11,232,3460038,,,,,,,2025-12-17,1,,,,,クキテッコウショ,0
1256,5030005022370,新規,0,2025-12-17,2025-12-17,一般社団法人エイト・ツリーズ,,その他の設立登記法人,埼玉県,鴻巣市,滝馬室１０９４番地２,,11,217,3650044,,,,,,,2025-12-17,1,,,,,エイトツリーズ,0
1263,5040001141834,新規,0,2025-12-17,2025-12-17,株式会社大須賀企画,,株式会社,千葉県,大網白里市,季美の森南４丁目１０番地１０,,12,239,2993241,,,,,,,2025-12-17,1,,,,,オオスガキカク,0
1264,5040001141850,新規,0,2025-12-17,2025-12-17,株式会社創栄建設,,株式会社,千葉県,船橋市,本町６丁目１８番１９号,,12,204,2730005,,,,,,,2025-12-17,1,,,,,ソウエイケンセツ,0
1265,5040001141883,新規,0,2025-12-17,2025-12-17,株式会社ライナス,,株式会社,千葉県,市原市,五井中央西１丁目１４―２０マルエイ第９ビル２階Ｃ号室,,12,219,2900081,,,,,,,2025-12-17,1,,,,,ライナス,0
1269,5040005022972,新規,0,2025-12-17,2025-12-17,弁護士法人リフト,,その他の設立登記法人,千葉県,千葉市中央区,新町２２番地１新町５５ビル５０２号室,,12,101,2600028,,,,,,,2025-12-17,1,,,,,リフト,0
1271,5050001057740,新規,0,2025-12-17,2025-12-17,株式会社野田技研,,株式会社,茨城県,ひたちなか市,海門町１丁目９番１８号,,08,221,3111222,,,,,,,2025-12-17,1,,,,,ノダギケン,0
1272,5050002002316,新規,0,2025-12-17,2025-12-17,有限会社トキワセラミック,,有限会社,茨城県,水戸市,酒門町４３１２番地の３,,08,201,3100841,,,,,,,2025-12-17,1,,,,,トキワセラミック,0
1278,5060001038855,新規,0,2025-12-17,2025-12-17,株式会社毛塚製作所,,株式会社,栃木県,下野市,箕輪５７８番地５,,09,216,3290401,,,,,,,2025-12-17,1,,,,,ケヅカセイサクショ,0
1279,5060001038863,新規,0,2025-12-17,2025-12-17,株式会社ＬｕｍｉＮｅｎｃｅ,,株式会社,栃木県,宇都宮市,峰１丁目１５番６号渡辺ビル２階,,09,201,3210942,,,,,,,2025-12-17,1,,,,,ルミネンス,0
1280,5060001038871,新規,0,2025-12-17,2025-12-17,株式会社万商,,株式会社,栃木県,宇都宮市,岩原町６８８番地,,09,201,3212117,,,,,,,2025-12-17,1,,,,,バンショウ,0
1286,5080403005410,新規,0,2025-12-17,2025-12-17,ＭＩＮＤ　ＲＩＣＨ　ＷＯＲＫＳ合同会社,,合同会社,静岡県,磐田市,富丘１３５番地３,,22,211,4380803,,,,,,,2025-12-17,1,,,,,マインドリッチワークス,0
1303,5120001282711,新規,0,2025-12-17,2025-12-17,株式会社Ｒｅｂｒｏ,,株式会社,大阪府,門真市,三ツ島５丁目２番４号,,27,223,5710015,,,,,,,2025-12-17,1,,,,,リブロ,0
1304,5120001282785,新規,0,2025-12-17,2025-12-17,株式会社ＣＵケアファシリティーズ,,株式会社,大阪府,大阪市平野区,平野西６丁目６番６号,,27,126,5470033,,,,,,,2025-12-17,1,,,,,シーユーケアファシリティーズ,0
1305,5120001282810,新規,0,2025-12-17,2025-12-17,株式会社藏福,,株式会社,大阪府,門真市,大池町１５番２２号,,27,223,5710076,,,,,,,2025-12-17,1,,,,,クラフク,0
1306,5120001282835,新規,0,2025-12-17,2025-12-17,株式会社延田キャピタル,,株式会社,大阪府,大阪市中央区,心斎橋筋２丁目１番６号,,27,128,5420085,,,,,,,2025-12-17,1,,,,,ノブタキャピタル,0
1307,5120001282843,新規,0,2025-12-17,2025-12-17,株式会社Ｔｈｒｉｆｔ．,,株式会社,大阪府,大阪市天王寺区,松ケ鼻町１０番１６号,,27,109,5430034,,,,,,,2025-12-17,1,,,,,スリフト,0
1308,5120001282851,新規,0,2025-12-17,2025-12-17,ニコニコ株式会社,,株式会社,大阪府,大阪市東成区,東中本２丁目１番３－８０４号,,27,115,5370021,,,,,,,2025-12-17,1,,,,,ニコニコ,0
1309,5120001282876,新規,0,2025-12-17,2025-12-17,株式会社Ｈ＆Ｍ　Ｃｏｒｐｏｒａｔｉｏｎ,,株式会社,大阪府,大阪市北区,梅田１丁目２番２号大阪駅前第２ビル１２－１２,,27,127,5300001,,,,,,,2025-12-17,1,,,,,エイチアンドエムコーポレーション,0
1315,5120901051975,新規,0,2025-12-17,2025-12-17,株式会社アイオン,,株式会社,大阪府,吹田市,豊津町９番１５号,,27,205,5640051,,,,,,,2025-12-17,1,,,,,アイオン,0
1318,5122001040017,新規,0,2025-12-17,2025-12-17,株式会社Ｃｏａｄ,,株式会社,大阪府,八尾市,曙川東１丁目２２番地恩智駅前プラザビル,,27,212,5810020,,,,,,,2025-12-17,1,,,,,コード,0
1323,5130001081229,新規,0,2025-12-17,2025-12-17,株式会社Ｄ’ｓ　ＯＦＦＩＣＥ,,株式会社,京都府,京都市下京区,小稲荷町８５－２Ｇｒａｎｄ‐Ｋ京都駅前ビル２０１,,26,106,6008208,,,,,,,2025-12-17,1,,,,,ディーズオフィス,0
1324,5130001081245,新規,0,2025-12-17,2025-12-17,株式会社メタルワークス,,株式会社,京都府,京都市右京区,嵯峨広沢南野町５番地１０,,26,108,6168304,,,,,,,2025-12-17,1,,,,,メタルワークス,0
1336,5140001141097,新規,0,2025-12-17,2025-12-17,日本歐亜科技株式会社,,株式会社,兵庫県,明石市,日富美町２番１８号,,28,203,6730896,,,,,,,2025-12-17,1,,,,,ニホンオウアカギ,0
1337,5140001141147,新規,0,2025-12-17,2025-12-17,株式会社Ｒｅｖｏｌｉｆｅ,,株式会社,兵庫県,神戸市中央区,八幡通３丁目２番５号,,28,110,6510085,,,,,,,2025-12-17,1,,,,,レボライフ,0
1338,5140001141155,新規,0,2025-12-17,2025-12-17,サンエンス株式会社,,株式会社,兵庫県,神戸市須磨区,千歳町４丁目３－１４、２Ｆ,,28,107,6540027,,,,,,,2025-12-17,1,,,,,サンエンス,0
1341,5140003022980,新規,0,2025-12-17,2025-12-17,合同会社ここまる,,合同会社,兵庫県,伊丹市,稲野町１丁目６番地－６０４,,28,207,6640861,,,,,,,2025-12-17,1,,,,,ココマル,0
1344,5160001027294,新規,0,2025-12-17,2025-12-17,株式会社アイエス健器,,株式会社,滋賀県,守山市,赤野井町３０番地３,,25,207,5240061,,,,,,,2025-12-17,1,,,,,アイエスケンキ,0
1346,5170001018920,新規,0,2025-12-17,2025-12-17,株式会社ＡＯＩ,,株式会社,和歌山県,和歌山市,府中５５５－３,,30,201,6496338,,,,,,,2025-12-17,1,,,,,アオイ,0
1352,5180001169928,新規,0,2025-12-17,2025-12-17,株式会社ｅ‐ＫＯＹＯ,,株式会社,愛知県,名古屋市中区,富士見町１７番１１号富士見ロイヤルハイツ９０１号,,23,106,4600014,,,,,,,2025-12-17,1,,,,,イーコーヨー,0
1354,5180301040516,新規,0,2025-12-17,2025-12-17,株式会社Ｅｃｌａｔ　Ｃｈａｒｍ．,,株式会社,愛知県,豊橋市,大橋通１丁目１０２番地３,,23,201,4400076,,,,,,,2025-12-17,1,,,,,エクラチャーム,0
1359,5190005012100,新規,0,2025-12-17,2025-12-17,税理士法人会計事務所すばる,,その他の設立登記法人,三重県,桑名市,大央町１７番地２,,24,205,5110065,,,,,,,2025-12-17,1,,,,,カイケイジムショスバル,0
1363,5200003007174,新規,0,2025-12-17,2025-12-17,合同会社指圧梁山泊,,合同会社,岐阜県,岐阜市,神室町５丁目１４番地,,21,201,5008878,,,,,,,2025-12-17,1,,,,,シアツリョウザンパク,0
1364,5200005013831,新規,0,2025-12-17,2025-12-17,一般社団法人よはく助産院,,その他の設立登記法人,岐阜県,美濃加茂市,加茂野町鷹之巣３２０番地２,,21,211,5050051,,,,,,,2025-12-17,1,,,,,ヨハクジョサンイン,0
1368,5210005010241,新規,0,2025-12-17,2025-12-17,一般社団法人Ｓａｋｕｒａ　Ｎｅｘｕｓ,,その他の設立登記法人,福井県,福井市,板垣３丁目４２２,,18,201,9188104,,,,,,,2025-12-17,1,,,,,サクラネクサス,0
1371,5230005009513,新規,0,2025-12-17,2025-12-17,一般社団法人いきいきライフ協会富山中央,,その他の設立登記法人,富山県,射水市,戸破４０７１番地ＨＩＢＡＲＩＮＥＳＴ,,16,211,9390351,,,,,,,2025-12-17,1,,,,,イキイキライフキョウカイトヤマチュウオウ,0
1372,5240001065914,新規,0,2025-12-17,2025-12-17,株式会社エネルギア・パワートレーディング,,株式会社,広島県,広島市中区,小町４番３３号,,34,101,7300041,,,,,,,2025-12-17,1,,,,,エネルギアパワートレーディング,0
1373,5240001065939,新規,0,2025-12-17,2025-12-17,株式会社シトラス,,株式会社,広島県,広島市西区,山田新町１丁目１７番１２号,,34,104,7330853,,,,,,,2025-12-17,1,,,,,シトラス,0
1374,5240001065947,新規,0,2025-12-17,2025-12-17,株式会社友里,,株式会社,広島県,広島市西区,南観音３丁目２番１１号サンウォームニチダン１０４号室,,34,104,7330035,,,,,,,2025-12-17,1,,,,,ユウリ,0
1375,5240003007526,新規,0,2025-12-17,2025-12-17,合同会社ともに,,合同会社,広島県,福山市,川口町２丁目９番３７－１３０１号,,34,207,7200822,,,,,,,2025-12-17,1,,,,,トモニ,0
1382,5260001040824,新規,0,2025-12-17,2025-12-17,株式会社ハジメプランテック,,株式会社,岡山県,倉敷市,帯高５０１番地２３,,33,202,7100023,,,,,,,2025-12-17,1,,,,,ハジメプランテック,0
1394,5300003002388,新規,0,2025-12-17,2025-12-17,合同会社森山,,合同会社,佐賀県,佐賀市,新中町１－１９,,41,201,8490924,,,,,,,2025-12-17,1,,,,,モリヤマ,0
1395,5300005007286,新規,0,2025-12-17,2025-12-17,医療法人荒木眼科,,その他の設立登記法人,佐賀県,鳥栖市,本鳥栖町５３７番１フレスポ鳥栖２階,,41,203,8410026,,,,,,,2025-12-17,1,,,,,アラキガンカ,0
1396,5310001019887,新規,0,2025-12-17,2025-12-17,株式会社ｔｈｅｏｒｙ,,株式会社,長崎県,諫早市,金谷町１０番５号金谷貸ビル２Ｆ,,42,204,8540004,,,,,,,2025-12-17,1,,,,,セオリー,0
1398,5320001021495,新規,0,2025-12-17,2025-12-17,株式会社トライ,,株式会社,大分県,佐伯市,西谷町４番４２号,,44,205,8760836,,,,,,,2025-12-17,1,,,,,トライ,0
1399,5330001033845,新規,0,2025-12-17,2025-12-17,キャスタイム株式会社,,株式会社,熊本県,合志市,須屋２１９０番地１,,43,216,8611102,,,,,,,2025-12-17,1,,,,,キャスタイム,0
1400,5330005010997,新規,0,2025-12-17,2025-12-17,一般社団法人みつば会,,その他の設立登記法人,熊本県,上益城郡甲佐町,大字白旗７７５番地,,43,444,8613243,,,,,,,2025-12-17,1,,,,,ミツバカイ,0
1405,5340003005040,新規,0,2025-12-17,2025-12-17,合同会社恵風,,合同会社,鹿児島県,姶良郡湧水町,木場２５０番地２,,46,452,8996201,,,,,,,2025-12-17,1,,,,,ケイフウ,0
1407,5360003015483,新規,0,2025-12-17,2025-12-17,合同会社大樹企画,,合同会社,沖縄県,宮古島市,下地字上地４１２番地１,,47,214,9060304,,,,,,,2025-12-17,1,,,,,ダイジュキカク,0
1412,5380001035746,新規,0,2025-12-17,2025-12-17,株式会社マニー＆ウェルネス,,株式会社,福島県,福島市,仲間町３番２５号,,07,201,9608105,,,,,,,2025-12-17,1,,,,,マニーアンドウェルネス,0
1430,5430003018421,新規,0,2025-12-17,2025-12-17,ファイナンシャルアドバイザリー合同会社,,合同会社,北海道,札幌市北区,北十条西３丁目２３番地１,,01,102,0010010,,,,,,,2025-12-17,1,,,,,ファイナンシャルアドバイザリー,0
1433,5490001011240,新規,0,2025-12-17,2025-12-17,土佐設備工業株式会社,,株式会社,高知県,高知市,大津甲２００７番地８,,39,201,7815102,,,,,,,2025-12-17,1,,,,,トサセツビコウギョウ,0
1434,5490003002072,新規,0,2025-12-17,2025-12-17,大西開発合同会社,,合同会社,高知県,高知市,帯屋町１丁目１４番９号ゑり忠ビル２階オビヤギルド,,39,201,7800841,,,,,,,2025-12-17,1,,,,,オオニシカイハツ,0
1439,5700150133524,新規,0,2025-12-17,2025-12-17,ＡＵＴＯ　ＵＮＩＶＥＲＳＥ,,外国会社等,神奈川県,厚木市,関口１０１３－１,,14,212,2430804,スリランカ民主社会主義共和国、ゲリオヤ、デッランガ、モスクロード、２５７／Ｄ号,,,,,,2025-12-17,1,,,,,オートユニバース,0
1440,5700150133532,新規,0,2025-12-17,2025-12-17,住友精化健康保険組合,,その他,兵庫県,加古郡播磨町,宮西３４６番地の１,,28,382,6750145,,,,,,,2025-12-17,1,,,,,スミトモセイカケンコウホケンクミアイ,0
1441,5700150133573,新規,0,2025-12-17,2025-12-17,キユーピー・アヲハタ健康保険組合,,その他,東京都,調布市,仙川町２丁目５番地７,,13,208,1820002,,,,,,,2025-12-17,1,,,,,キユーピーアヲハタケンコウホケンクミアイ,0
1442,5700150133581,新規,0,2025-12-17,2025-12-17,神島化学健康保険組合,,その他,香川県,三豊市,詫間町香田８０番地,,37,208,7691103,,,,,,,2025-12-17,1,,,,,コウノシマカガクケンコウホケンクミアイ,0
1452,6010001260462,新規,0,2025-12-17,2025-12-17,株式会社ＶｅｒｓａＸ,,株式会社,東京都,中央区,銀座１丁目１２番４号Ｎ＆ＥＢＬＤ．６Ｆ,,13,102,1040061,,,,,,,2025-12-17,1,,,,,ヴァーサックス,0
1453,6010001261139,新規,0,2025-12-17,2025-12-17,株式会社テドリアップ,,株式会社,東京都,千代田区,神田須田町１丁目７番８号ＶＯＲＴ秋葉原ＩＶ２Ｆ,00141921,13,101,1010041,,,,,,,2025-12-17,1,,,,,テドリアップ,0
1454,6010001261205,新規,0,2025-12-17,2025-12-17,株式会社ＳＴＯＣＫ２０１,,株式会社,東京都,千代田区,永田町２丁目１２番４号,,13,101,1000014,,,,,,,2025-12-17,1,,,,,ストックニヒャクイチ,0
1457,6010003049730,新規,0,2025-12-17,2025-12-17,合同会社グレートシブヤ１,,合同会社,東京都,中央区,京橋２丁目１２番６号ＡＯＪ税理士法人内,,13,102,1040031,,,,,,,2025-12-17,1,,,,,グレートシブヤワン,0
1458,6010101017011,新規,0,2025-12-17,2025-12-17,株式会社ユーフォリウム,,株式会社,東京都,八王子市,絹ケ丘２丁目３１番１２号,,13,201,1920912,,,,,,,2025-12-17,1,,,,,ユーフォリウム,0
1459,6010103002713,新規,0,2025-12-17,2025-12-17,住まいプラス合同会社,,合同会社,東京都,八王子市,打越町３３－３－１０１,,13,201,1920911,,,,,,,2025-12-17,1,,,,,スマイプラス,0
1464,6010403036832,新規,0,2025-12-17,2025-12-17,ＡＹ合同会社,,合同会社,東京都,港区,虎ノ門５丁目１番４号,,13,103,1050001,,,,,,,2025-12-17,1,,,,,エーワイ,0
1467,6010405025115,新規,0,2025-12-17,2025-12-17,一般社団法人元麻布インターナショナルスクール,,その他の設立登記法人,東京都,港区,虎ノ門１丁目１番２０号虎ノ門実業会館８階合同会社ＷｉｓｄｏｍＡｒｂｏｒ内,,13,103,1050001,,,,,,,2025-12-17,1,,,,,モトアザブインターナショナルスクール,0
1483,6010701048777,新規,0,2025-12-17,2025-12-17,株式会社創勢アセットマネジメント,,株式会社,東京都,品川区,北品川６丁目７番２９号,,13,109,1410001,,,,,,,2025-12-17,1,,,,,ソウセイアセットマネジメント,0
1484,6010703008044,新規,0,2025-12-17,2025-12-17,合同会社スピードキャリー,,合同会社,東京都,品川区,西品川３丁目６番８号太田方３０３,,13,109,1410033,,,,,,,2025-12-17,1,,,,,スピードキャリー,0
1490,6010901058650,新規,0,2025-12-17,2025-12-17,ＣＴＩＣ株式会社,,株式会社,東京都,世田谷区,上北沢５丁目３３番１６号モン・シャトー上北沢２０４,,13,112,1560057,,,,,,,2025-12-17,1,,,,,シーティーアイシー,0
1491,6010905004881,新規,0,2025-12-17,2025-12-17,一般社団法人すくすく未来塾,,その他の設立登記法人,東京都,世田谷区,松原１丁目４３番４号リブスペース明大前２０２号室,,13,112,1560043,,,,,,,2025-12-17,1,,,,,スクスクミライジュク,0
1497,6011001174297,新規,0,2025-12-17,2025-12-17,Ｂｅｌｌｅｎｅｓｔ株式会社,,株式会社,東京都,渋谷区,円山町５番５号Ｎａｖｉ渋谷Ｖ３階,,13,113,1500044,,,,,,,2025-12-17,1,,,,,ベルネスト,0
1498,6011001174396,新規,0,2025-12-17,2025-12-17,和王株式会社,,株式会社,東京都,渋谷区,千駄ヶ谷３丁目２０番１２号,,13,113,1510051,,,,,,,2025-12-17,1,,,,,ワオウ,0
1499,6011001174413,新規,0,2025-12-17,2025-12-17,株式会社Ｎｕｄｅｓｋｉｎｌａｂｏ,,株式会社,東京都,渋谷区,神南１丁目１３番４号ＩＤＯビル２階Ｂ号室,,13,113,1500041,,,,,,,2025-12-17,1,,,,,ヌードスキンラボ,0
1500,6011001174520,新規,0,2025-12-17,2025-12-17,ビッグディール株式会社,,株式会社,東京都,渋谷区,神南１丁目１１－４ＦＰＧリンクス神南５階,,13,113,1500041,,,,,,,2025-12-17,1,,,,,ビッグディール,0
1505,6011003023213,新規,0,2025-12-17,2025-12-17,マツモトインターナショナル合同会社,,合同会社,東京都,渋谷区,西原３丁目３７－９（２階）,,13,113,1510066,,,,,,,2025-12-17,1,,,,,マツモトインターナショナル,0
1511,6011401027674,新規,0,2025-12-17,2025-12-17,ＴＫＣｏｎｎｅＣＴ株式会社,,株式会社,東京都,板橋区,新河岸１丁目１１番８号,,13,119,1750081,,,,,,,2025-12-17,1,,,,,ティーケーコネクト,0
1517,6012301014647,新規,0,2025-12-17,2025-12-17,株式会社桜花工業,,株式会社,東京都,町田市,矢部町１０番地８,,13,209,1940214,,,,,,,2025-12-17,1,,,,,オウカコウギョウ,0
1518,6012303002261,新規,0,2025-12-17,2025-12-17,ＧＲＥＥＮ合同会社,,合同会社,東京都,町田市,南成瀬２丁目３２番地１１、２‐１２,,13,209,1940045,,,,,,,2025-12-17,1,,,,,グリーン,0
1525,6013301055301,新規,0,2025-12-17,2025-12-17,シープマン株式会社,,株式会社,東京都,豊島区,池袋２丁目４７番７号２Ｆ,,13,116,1710014,,,,,,,2025-12-17,1,,,,,シープマン,0
1529,6020003029987,新規,0,2025-12-17,2025-12-17,ＫＺ　Ｃｏｎｓｕｌｔｉｎｇ合同会社,,合同会社,神奈川県,川崎市高津区,久本１丁目１５番１２－７０２号,,14,134,2130011,,,,,,,2025-12-17,1,,,,,ケイジーコンサルティング,0
1534,6021001087069,新規,0,2025-12-17,2025-12-17,ａｏｉｒｏ株式会社,,株式会社,神奈川県,鎌倉市,台５丁目３番２５号,,14,204,2470061,,,,,,,2025-12-17,1,,,,,アオイロ,0
1543,6030003028261,新規,0,2025-12-17,2025-12-17,合同会社ＬＩＥＲＡ,,合同会社,埼玉県,所沢市,東町１２番４０－１４０４号インプレスト所沢,,11,208,3591116,,,,,,,2025-12-17,1,,,,,リエラ,0
1544,6030003028286,新規,0,2025-12-17,2025-12-17,合同会社ＥＭＡＮＯＮ,,合同会社,埼玉県,さいたま市北区,宮原町３丁目２６０－６,,11,102,3310812,,,,,,,2025-12-17,1,,,,,エマノン,0
1547,6040001141817,新規,0,2025-12-17,2025-12-17,株式会社マツイ・メンテ,,株式会社,千葉県,千葉市緑区,あすみが丘東３丁目３０番地７,,12,105,2670067,,,,,,,2025-12-17,1,,,,,マツイメンテ,0
1548,6040001141825,新規,0,2025-12-17,2025-12-17,株式会社ア・ラブリエ,,株式会社,千葉県,長生郡白子町,牛込３９４０番地３,,12,424,2994202,,,,,,,2025-12-17,1,,,,,アラブリエ,0
1553,6060001038862,新規,0,2025-12-17,2025-12-17,ＥＫ‐ｗｏｒｋｓ株式会社,,株式会社,栃木県,栃木市,岩舟町小野寺２５６１番地４,,09,203,3294314,,,,,,,2025-12-17,1,,,,,イーケーワークス,0
1559,6080001027335,新規,0,2025-12-17,2025-12-17,株式会社駿河府中不動産,,株式会社,静岡県,静岡市駿河区,泉町９番１０－３０５号,,22,102,4228066,,,,,,,2025-12-17,1,,,,,スルガフチュウフドウサン,0
1565,6100001039195,新規,0,2025-12-17,2025-12-17,ＯＵＧＡＴＯＵ株式会社,,株式会社,長野県,松本市,開智１丁目４番９号,,20,202,3900876,,,,,,,2025-12-17,1,,,,,オウガトウ,0
1566,6100001039204,新規,0,2025-12-17,2025-12-17,株式会社ＳｐｒｉｎｇＶａｌｌｅｙＣｏｍｐａｎｙ,,株式会社,長野県,下伊那郡高森町,牛牧１９２０－１６,,20,403,3993105,,,,,,,2025-12-17,1,,,,,スプリングバレーカンパニー,0
1569,6110003006003,新規,0,2025-12-17,2025-12-17,Ｃｏｍｐａｎｙ合同会社,,合同会社,新潟県,新潟市中央区,上所上１丁目２－１,,15,103,9500992,,,,,,,2025-12-17,1,,,,,カンパニー,0
1576,6120001282784,新規,0,2025-12-17,2025-12-17,株式会社愛ＤＥひろがる,,株式会社,大阪府,大阪市北区,梅田１丁目１番３号大阪駅前第３ビル２９階１－１－１号室,,27,127,5300001,,,,,,,2025-12-17,1,,,,,アイデヒロガル,0
1577,6120001282801,新規,0,2025-12-17,2025-12-17,株式会社ＢＯＳＳ,,株式会社,大阪府,大阪市西成区,天下茶屋東１丁目６番７,,27,122,5570011,,,,,,,2025-12-17,1,,,,,ボス,0
1581,6120003031470,新規,0,2025-12-17,2025-12-17,合同会社ＢＨ,,合同会社,大阪府,大阪市福島区,福島１丁目４－１０１階,,27,103,5530003,,,,,,,2025-12-17,1,,,,,ビエイチ,0
1582,6120003031479,新規,0,2025-12-17,2025-12-17,合同会社スマイルプラス,,合同会社,大阪府,大阪市阿倍野区,共立通１丁目１番１３号,,27,119,5450041,,,,,,,2025-12-17,1,,,,,スマイルプラス,0
1583,6120003031487,新規,0,2025-12-17,2025-12-17,センティア合同会社,,合同会社,大阪府,大阪市北区,梅田１丁目２番２号大阪駅前第２ビル１２‐１２,,27,127,5300001,,,,,,,2025-12-17,1,,,,,センティア,0
1584,6120003031504,新規,0,2025-12-17,2025-12-17,合同会社結びの杜,,合同会社,大阪府,大阪市平野区,喜連１丁目１番３３号,,27,126,5470027,,,,,,,2025-12-17,1,,,,,ムスビノモリ,0
1587,6120901051974,新規,0,2025-12-17,2025-12-17,株式会社ＥＮＣＯＲＥ,,株式会社,大阪府,箕面市,船場西１丁目１３番１７号,,27,220,5620036,,,,,,,2025-12-17,1,,,,,アンコール,0
1588,6120901051982,新規,0,2025-12-17,2025-12-17,株式会社Ｔｒｕｓｔ　Ｓ,,株式会社,大阪府,茨木市,水尾２丁目９番１１号アーバン水尾２０３号,,27,211,5670891,,,,,,,2025-12-17,1,,,,,トラストエス,0
1593,6130001081236,新規,0,2025-12-17,2025-12-17,株式会社ＮＥＷ　ＮＥＸＴ．,,株式会社,京都府,京都市山科区,小山北溝町１５番地８,00141917,26,110,6078113,,,,,,,2025-12-17,1,,,,,ニューネクスト,0
1594,6130001081244,新規,0,2025-12-17,2025-12-17,株式会社Ｋ’ｓテクノ,,株式会社,京都府,京都市南区,東九条東御霊町５８番地１１,,26,107,6018028,,,,,,,2025-12-17,1,,,,,ケーズテクノ,0
1596,6130003011018,新規,0,2025-12-17,2025-12-17,合同会社祇園林,00141911,合同会社,京都府,京都市東山区,祇園町北側２８９番地２階,,26,105,6050073,,,,,,,2025-12-17,1,,,,,ギオンハヤシ,0
1600,6140001141105,新規,0,2025-12-17,2025-12-17,株式会社ランドロード,,株式会社,兵庫県,川西市,けやき坂４丁目１２番地の８,,28,217,6660145,,,,,,,2025-12-17,1,,,,,ランドロード,0
1601,6140001141146,新規,0,2025-12-17,2025-12-17,兵庫不動産株式会社,,株式会社,兵庫県,加古川市,新神野３丁目５番１５号,,28,210,6750008,,,,,,,2025-12-17,1,,,,,ヒョウゴフドウサン,0
1602,6140001141162,新規,0,2025-12-17,2025-12-17,ホワイトエレベーター株式会社,,株式会社,兵庫県,神戸市須磨区,竜が台２丁目１番地４２号棟５０５号,,28,107,6540141,,,,,,,2025-12-17,1,,,,,ホワイトエレベーター,0
1606,6140003022963,新規,0,2025-12-17,2025-12-17,まもるプラス合同会社,,合同会社,兵庫県,神戸市兵庫区,楠谷町１４番６号,,28,105,6520004,,,,,,,2025-12-17,1,,,,,マモルプラス,0
1607,6140003022971,新規,0,2025-12-17,2025-12-17,合同会社無限結,,合同会社,兵庫県,佐用郡佐用町,漆野２４５番地,,28,501,6795221,,,,,,,2025-12-17,1,,,,,ムゲンユイ,0
1608,6150001028598,新規,0,2025-12-17,2025-12-17,株式会社大和キンプ,,株式会社,奈良県,五條市,今井４丁目５番２２号,,29,207,6370004,,,,,,,2025-12-17,1,,,,,ヤマトキンプ,0
1609,6160003003680,新規,0,2025-12-17,2025-12-17,合同会社ゾウタガシガ,,合同会社,滋賀県,犬上郡多賀町,大字中川原１０１番地,,25,443,5220355,,,,,,,2025-12-17,1,,,,,ゾウタガシガ,0
1617,6180001169852,新規,0,2025-12-17,2025-12-17,株式会社Ｒａｉｍテクノロジーズ,,株式会社,愛知県,名古屋市中村区,名駅３丁目４－１０アルティメイト名駅１ｓｔ２階,,23,105,4500002,,,,,,,2025-12-17,1,,,,,ライムテクノロジーズ,0
1623,6180005021349,新規,0,2025-12-17,2025-12-17,一般社団法人日本バレエコア協会,,その他の設立登記法人,愛知県,名古屋市名東区,山の手２丁目４０８番地,,23,115,4650011,,,,,,,2025-12-17,1,,,,,ニホンバレエコアキョウカイ,0
1628,6180301040507,新規,0,2025-12-17,2025-12-17,株式会社きらら,,株式会社,愛知県,刈谷市,幸町２丁目５番地７ＣＡＭＣＯ刈谷ビル３階,,23,210,4480025,,,,,,,2025-12-17,1,,,,,キララ,0
1634,6200001044532,新規,0,2025-12-17,2025-12-17,株式会社ＭＯＶＥ,,株式会社,岐阜県,岐阜市,尼ケ崎町２丁目５番地２,,21,201,5008132,,,,,,,2025-12-17,1,,,,,ムーヴ,0
1640,6220001027080,新規,0,2025-12-17,2025-12-17,株式会社ＥＮＤＲＥＡＭ,,株式会社,石川県,野々市市,二日市３丁目６８番地,,17,212,9218809,,,,,,,2025-12-17,1,,,,,エンドリーム,0
1641,6240001065946,新規,0,2025-12-17,2025-12-17,株式会社アイティ,,株式会社,広島県,広島市南区,的場町１丁目３－４ＷアンドＰａｒｔｎｅｒｓビル５階,,34,103,7320824,,,,,,,2025-12-17,1,,,,,アイティ,0
1643,6250001021469,新規,0,2025-12-17,2025-12-17,エステートスター株式会社,,株式会社,山口県,下松市,潮音町２丁目１番３７号,,35,207,7440074,,,,,,,2025-12-17,1,,,,,エステートスター,0
1644,6270001009355,新規,0,2025-12-17,2025-12-17,株式会社きらく,,株式会社,鳥取県,西伯郡日吉津村,大字日吉津８４番地１Ｔ＆Ｙビル３階９号室,,31,384,6893553,,,,,,,2025-12-17,1,,,,,キラク,0
1649,6290001112529,新規,0,2025-12-17,2025-12-17,株式会社志久丸Ｐｌｕｓ,,株式会社,福岡県,柳川市,大和町明野４８９番地,,40,207,8390251,,,,,,,2025-12-17,1,,,,,シクマルプラス,0
1651,6300005007285,新規,0,2025-12-17,2025-12-17,医療法人古舘歯科医院,,その他の設立登記法人,佐賀県,唐津市,神田２６５１番地１,,41,202,8470824,,,,,,,2025-12-17,1,,,,,フルタチシカイイン,0
1652,6320001021503,新規,0,2025-12-17,2025-12-17,株式会社ＡＲＣＳ,,株式会社,大分県,大分市,大字東上野６１番地の１１,,44,201,8700306,,,,,,,2025-12-17,1,,,,,アークス,0
1653,6320003004860,新規,0,2025-12-17,2025-12-17,合同会社Ｌｉｎｋ,,合同会社,大分県,豊後高田市,美和１７９７番地,,44,209,8790604,,,,,,,2025-12-17,1,,,,,リンク,0
1654,6330001033836,新規,0,2025-12-17,2025-12-17,株式会社真匠,,株式会社,熊本県,玉名市,横島町横島１０３１７番地３,,43,206,8650072,,,,,,,2025-12-17,1,,,,,シンショウ,0
1656,6340001027837,新規,0,2025-12-17,2025-12-17,株式会社創幸,,株式会社,鹿児島県,鹿児島市,皇徳寺台３丁目４８番３号,,46,201,8910103,,,,,,,2025-12-17,1,,,,,ソウコウ,0
1657,6340001027845,新規,0,2025-12-17,2025-12-17,Ａ‐Ｇミニ１００株式会社,,株式会社,鹿児島県,南九州市,川辺町永田１４３４番地１,,46,223,8970222,,,,,,,2025-12-17,1,,,,,エイジーミニヒャク,0
1659,6350003005096,新規,0,2025-12-17,2025-12-17,合同会社ＩＮＯＵＴ,,合同会社,宮崎県,都城市,都北町５９５５－１Ｂ４０３,,45,202,8850004,,,,,,,2025-12-17,1,,,,,インナウト,0
1661,6360001036150,新規,0,2025-12-17,2025-12-17,３１５ホールディングス株式会社,,株式会社,沖縄県,豊見城市,字豊崎３番地６８,,47,212,9010225,,,,,,,2025-12-17,1,,,,,サンイチゴホールディングス,0
1662,6360003015441,新規,0,2025-12-17,2025-12-17,ブリッジ沖縄合同会社,,合同会社,沖縄県,那覇市,安里３丁目１４番１０号３階,,47,201,9020067,,,,,,,2025-12-17,1,,,,,ブリッジオキナワ,0
1663,6360003015466,新規,0,2025-12-17,2025-12-17,合同会社石垣ヒルズアセットマネジメント,,合同会社,沖縄県,石垣市,字真栄里３５４－５いちばんざぁ２階,,47,207,9070002,,,,,,,2025-12-17,1,,,,,イシガキヒルズアセットマネジメント,0
1664,6360003015490,新規,0,2025-12-17,2025-12-17,合同会社ＭＳＫ’ｏｈａｎａ,,合同会社,沖縄県,沖縄市,泡瀬４丁目２４番２２号７Ｆ,,47,211,9042172,,,,,,,2025-12-17,1,,,,,エムエスケーオハナ,0
1669,6420001019363,新規,0,2025-12-17,2025-12-17,株式会社ＳＵホールディングス,,株式会社,青森県,青森市,佃２丁目１９番７号,,02,201,0300962,,,,,,,2025-12-17,1,,,,,エスユーホールディングス,0
1674,6430001095874,新規,0,2025-12-17,2025-12-17,北海道マザーインベストメント株式会社,,株式会社,北海道,札幌市中央区,大通西７丁目１番地１,,01,101,0600042,,,,,,,2025-12-17,1,,,,,ホッカイドウマザーインベストメント,0
1675,6430001095899,新規,0,2025-12-17,2025-12-17,株式会社Ａｎｊｕ,,株式会社,北海道,札幌市豊平区,平岸一条１丁目４番２２－７０３号,,01,105,0620931,,,,,,,2025-12-17,1,,,,,アンジュ,0
1683,6500001026681,新規,0,2025-12-17,2025-12-17,株式会社藤本観光,,株式会社,愛媛県,今治市,宮窪町宮窪１９２４番地,,38,202,7942203,,,,,,,2025-12-17,1,,,,,フジモトカンコウ,0
1685,6700150133523,新規,0,2025-12-17,2025-12-17,ＳＨＡＮＴＨＡ　ＴＲＡＤＥＲＳ,,外国会社等,神奈川県,座間市,相模が丘３丁目４７番２号アーバンコーポラス２０３,,14,216,2520001,スリランカ民主社会主義共和国、ＮＯ．２４／１７、キャッスルレーン、キャンディ,,,,,,2025-12-17,1,,,,,シヤンタトレーデス,0
1686,6700150133531,新規,0,2025-12-17,2025-12-17,ライフコーポレーション健康保険組合,,その他,大阪府,大阪市淀川区,西宮原２丁目２番２２号,,27,123,5320004,,,,,,,2025-12-17,1,,,,,ライフコーポレーションケンコウホケンクミアイ,0
1687,6700150133572,新規,0,2025-12-17,2025-12-17,三重交通健康保険組合,,その他,三重県,津市,中央１番１号,,24,201,5140032,,,,,,,2025-12-17,1,,,,,ミエコウツウケンコウホケンクミアイ,0
1688,6700150133580,新規,0,2025-12-17,2025-12-17,愛知時計電機健康保険組合,,その他,愛知県,名古屋市熱田区,千年１丁目２番７０号,,23,109,4560054,,,,,,,2025-12-17,1,,,,,アイチトケイデンキケンコウホケンクミアイ,0
1696,7010001260924,新規,0,2025-12-17,2025-12-17,株式会社ユニゾンヘルスケア,,株式会社,東京都,千代田区,四番町４－６－６０１,,13,101,1020081,,,,,,,2025-12-17,1,,,,,ユニゾンヘルスケア,0
1697,7010001261204,新規,0,2025-12-17,2025-12-17,株式会社ＳＴＯＣＫ２００,,株式会社,東京都,千代田区,永田町２丁目１２番４号,,13,101,1000014,,,,,,,2025-12-17,1,,,,,ストックニヒャク,0
1698,7010001261212,新規,0,2025-12-17,2025-12-17,株式会社ＳＴＯＣＫ１９９,,株式会社,東京都,千代田区,永田町２丁目１２番４号,,13,101,1000014,,,,,,,2025-12-17,1,,,,,ストックヒャクキュウジュウキュウ,0
1703,7010003049688,新規,0,2025-12-17,2025-12-17,合同会社宮下良造,,合同会社,東京都,中央区,日本橋兜町１７－２兜町第６葉山ビル４階,,13,102,1030026,,,,,,,2025-12-17,1,,,,,ミヤシタリョウゾウ,0
1705,7010005041081,新規,0,2025-12-17,2025-12-17,ＤＮＳ一般社団法人,,その他の設立登記法人,東京都,中央区,日本橋１丁目４番１号,,13,102,1030027,,,,,,,2025-12-17,1,,,,,ディーエヌエス,0
1722,7010405025147,新規,0,2025-12-17,2025-12-17,一般社団法人Ｎａｐａ　Ｆｌｏｗ　Ｃａｐｉｔａｌ,,その他の設立登記法人,東京都,港区,虎ノ門３丁目２２番１０－２０１号,,13,103,1050001,,,,,,,2025-12-17,1,,,,,ナパフローキャピタル,0
1727,7010603011972,新規,0,2025-12-17,2025-12-17,合同会社フレンド住研,,合同会社,東京都,江東区,大島９丁目３番１－３０１号,,13,108,1360072,,,,,,,2025-12-17,1,,,,,フレンドジュウケン,0
1728,7010701048751,新規,0,2025-12-17,2025-12-17,株式会社Ａｎｃｈｏｒ　ＡＩ,,株式会社,東京都,品川区,東品川４丁目１２番８号品川シーサイドイーストタワー,,13,109,1400002,,,,,,,2025-12-17,1,,,,,アンカーエーアイ,0
1732,7010901058641,新規,0,2025-12-17,2025-12-17,ｙａｈｔａ株式会社,,株式会社,東京都,世田谷区,駒沢４丁目２３番１８号加瀬１６６ビル５０６,,13,112,1540012,,,,,,,2025-12-17,1,,,,,ヤータ,0
1733,7010901058666,新規,0,2025-12-17,2025-12-17,安可株式会社,,株式会社,東京都,世田谷区,野毛１丁目８番１６号,,13,112,1580092,,,,,,,2025-12-17,1,,,,,アンカ,0
1741,7011001174412,新規,0,2025-12-17,2025-12-17,株式会社Ｐｕｌｉｏ　ＪＡＰＡＮ,,株式会社,東京都,渋谷区,代々木４丁目３１番４号キャッスル新宿１１０２号室,,13,113,1510053,,,,,,,2025-12-17,1,,,,,プリオジャパン,0
1742,7011001174420,新規,0,2025-12-17,2025-12-17,株式会社ＭＴ　Ｓｙｎｃ．,,株式会社,東京都,渋谷区,東２丁目２４番３号渋谷ＴＨビル３Ｆ,,13,113,1500011,,,,,,,2025-12-17,1,,,,,エムティーシンク,0
1743,7011001174437,新規,0,2025-12-17,2025-12-17,株式会社ウィンター,,株式会社,東京都,渋谷区,上原２丁目２１番１８－２０１号グランドメゾン上原コート,,13,113,1510064,,,,,,,2025-12-17,1,,,,,ウィンター,0
1751,7011003023146,新規,0,2025-12-17,2025-12-17,ＨｉＡ合同会社,,合同会社,東京都,渋谷区,円山町５番３号ＭＩＥＵＸ渋谷ビル８階,,13,113,1500044,,,,,,,2025-12-17,1,,,,,エイチア,0
1758,7011303005802,新規,0,2025-12-17,2025-12-17,Ｊ‐Ｌａｔａｍ合同会社,,合同会社,東京都,杉並区,西荻北３丁目４４－２,,13,115,1670042,,,,,,,2025-12-17,1,,,,,ジェイラタム,0
1764,7011601029247,新規,0,2025-12-17,2025-12-17,日本ＩＤＴデジタル株式会社,,株式会社,東京都,練馬区,貫井２丁目１６番３０地下１階,,13,120,1760021,,,,,,,2025-12-17,1,,,,,ニホンアイディーティーデジタル,0
1767,7011603004958,新規,0,2025-12-17,2025-12-17,合同会社Ｂｅ　Ｈａｐｐｙ,,合同会社,東京都,練馬区,春日町５丁目３１－２２フロンテージ２０４,,13,120,1790074,,,,,,,2025-12-17,1,,,,,ビィハッピィ,0
1770,7011701029023,新規,0,2025-12-17,2025-12-17,株式会社真栄,,株式会社,東京都,江戸川区,東小岩１丁目８番７号,,13,123,1330052,,,,,,,2025-12-17,1,,,,,シンエイ,0
1775,7012301014646,新規,0,2025-12-17,2025-12-17,町田ファイナンス株式会社,,株式会社,東京都,町田市,金森１丁目１７番１３号,,13,209,1940012,,,,,,,2025-12-17,1,,,,,マチダファイナンス,0
1777,7012701019229,新規,0,2025-12-17,2025-12-17,株式会社市川,,株式会社,東京都,東村山市,野口町１丁目２２番地１,,13,213,1890022,,,,,,,2025-12-17,1,,,,,イチカワ,0
1778,7012703003429,新規,0,2025-12-17,2025-12-17,合同会社ＲＥＮＫＡＮ　ＣＯＦＦＥＥ,,合同会社,東京都,小平市,学園西町１丁目２０―１２,,13,211,1870045,,,,,,,2025-12-17,1,,,,,レンカンコーヒー,0
1779,7012801024418,新規,0,2025-12-17,2025-12-17,株式会社共和テクノ,,株式会社,東京都,国立市,東４丁目８番地の１０,,13,215,1860002,,,,,,,2025-12-17,1,,,,,キョウワテクノ,0
1783,7013301055457,新規,0,2025-12-17,2025-12-17,株式会社ｌａｎｉｑｕｅ,,株式会社,東京都,豊島区,西池袋３丁目２６－６サンサーラ西池袋６Ｆ,,13,116,1710021,,,,,,,2025-12-17,1,,,,,ラニーク,0
1790,7020001166278,新規,0,2025-12-17,2025-12-17,株式会社ＡＤＶＡＮＣＥ,,株式会社,神奈川県,横浜市西区,北幸２丁目１０番４８号むつみビル３Ｆ,,14,103,2200004,,,,,,,2025-12-17,1,,,,,アドバンス,0
1791,7020001166311,新規,0,2025-12-17,2025-12-17,株式会社Ｏｃｅａｎ,,株式会社,神奈川県,横浜市西区,みなとみらい３丁目３－１ＫＤＸみなとみらいタワー８Ｆ,,14,103,2200012,,,,,,,2025-12-17,1,,,,,オーシャン,0
1792,7020003029895,新規,0,2025-12-17,2025-12-17,合同会社セッター,,合同会社,神奈川県,横浜市緑区,中山６丁目２０番１０号,,14,113,2260019,,,,,,,2025-12-17,1,,,,,セッター,0
1793,7020003029994,新規,0,2025-12-17,2025-12-17,合同会社オルキスソフトウェア,,合同会社,神奈川県,横浜市港北区,高田西１丁目２番３９－６１３号,,14,109,2230066,,,,,,,2025-12-17,1,,,,,オルキスソフトウェア,0
1802,7030001170147,新規,0,2025-12-17,2025-12-17,株式会社グローバルビリヤードスポーツジャパン,,株式会社,埼玉県,川口市,川口２丁目１７番４８－７０４号,,11,203,3320015,,,,,,,2025-12-17,1,,,,,グローバルビリヤードスポーツジャパン,0
1803,7030001170163,新規,0,2025-12-17,2025-12-17,株式会社Ｔｐｌｕｓ,,株式会社,埼玉県,富士見市,鶴瀬西２丁目１３番５号,,11,235,3540026,,,,,,,2025-12-17,1,,,,,ティープラス,0
1804,7030001170213,新規,0,2025-12-17,2025-12-17,株式会社サンエール,,株式会社,埼玉県,戸田市,大字新曽２４７０番地,,11,224,3350021,,,,,,,2025-12-17,1,,,,,サンエール,0
1808,7030003028285,新規,0,2025-12-17,2025-12-17,合同会社フラット,,合同会社,埼玉県,狭山市,富士見１丁目２４番１１号,,11,215,3501306,,,,,,,2025-12-17,1,,,,,フラット,0
1818,7060005010395,新規,0,2025-12-17,2025-12-17,一般社団法人アップスポーツ,,その他の設立登記法人,栃木県,宇都宮市,宝木町２丁目８９６番地４６,,09,201,3200061,,,,,,,2025-12-17,1,,,,,アップスポーツ,0
1821,7080001027342,新規,0,2025-12-17,2025-12-17,株式会社ｈａｔｃｈ,,株式会社,静岡県,静岡市清水区,八坂東２丁目１番３１号,,22,103,4240024,,,,,,,2025-12-17,1,,,,,ハッチ,0
1826,7080401028320,新規,0,2025-12-17,2025-12-17,株式会社Ｔ＆Ｍ,,株式会社,静岡県,磐田市,豊岡６１１５番地の５,,22,211,4380231,,,,,,,2025-12-17,1,,,,,ティーアンドエム,0
1828,7090003002945,新規,0,2025-12-17,2025-12-17,リバーランドプロモーションズ合同会社,,合同会社,山梨県,都留市,つる２丁目１－２２,,19,204,4020056,,,,,,,2025-12-17,1,,,,,リバーランドプロモーションズ,0
1831,7110003006002,新規,0,2025-12-17,2025-12-17,えにわ合同会社,,合同会社,新潟県,長岡市,宮原３丁目３番２３号,,15,202,9400083,,,,,,,2025-12-17,1,,,,,エニワ,0
1851,7120001282775,新規,0,2025-12-17,2025-12-17,株式会社Ａｉｐａｔｈ,,株式会社,大阪府,大阪市中央区,今橋１丁目７番１９号,,27,128,5410042,,,,,,,2025-12-17,1,,,,,エーアイパス,0
1852,7120001282783,新規,0,2025-12-17,2025-12-17,ＣＨＩ　ＣＵＴＥ株式会社,,株式会社,大阪府,大阪市中央区,上町Ａ番２６号,,27,128,5400005,,,,,,,2025-12-17,1,,,,,チキュート,0
1853,7120001282809,新規,0,2025-12-17,2025-12-17,株式会社ＡＫＫ,,株式会社,大阪府,大阪市北区,梅田１丁目２番２号大阪駅前第２ビル１２－１２,,27,127,5300001,,,,,,,2025-12-17,1,,,,,エーケーケー,0
1854,7120001282874,新規,0,2025-12-17,2025-12-17,株式会社ＥＭ　ＣＬＯＵＤ,,株式会社,大阪府,大阪市淀川区,十三本町１丁目１８クリオプラザＰａｒｔＩＩ１１階ＢＤ号室,00141916,27,123,5320024,,,,,,,2025-12-17,1,,,,,エムクラウド,0
1856,7120003031478,新規,0,2025-12-17,2025-12-17,合同会社コノチカラ,,合同会社,大阪府,大阪市北区,野崎町６－８－８０５,,27,127,5300055,,,,,,,2025-12-17,1,,,,,コノチカラ,0
1857,7120005025313,新規,0,2025-12-17,2025-12-17,匠司法書士法人,,その他の設立登記法人,大阪府,大阪市北区,太融寺町３番２４号日本生命梅田第二ビル２階,,27,127,5300051,,,,,,,2025-12-17,1,,,,,タクミ,0
1861,7120901051940,新規,0,2025-12-17,2025-12-17,株式会社金メダル,,株式会社,大阪府,摂津市,千里丘東２丁目４－１７－４０３,,27,224,5660011,,,,,,,2025-12-17,1,,,,,キンメダル,0
1862,7120901051981,新規,0,2025-12-17,2025-12-17,ＭＡ株式会社,,株式会社,大阪府,豊中市,上新田２丁目９番５－８０９号,,27,203,5600085,,,,,,,2025-12-17,1,,,,,エムエー,0
1865,7130001081227,新規,0,2025-12-17,2025-12-17,エイセイ株式会社,,株式会社,京都府,京都市右京区,山ノ内大町１－１６,,26,108,6150097,,,,,,,2025-12-17,1,,,,,エイセイ,0
1870,7140001141104,新規,0,2025-12-17,2025-12-17,井上工業株式会社,,株式会社,兵庫県,神戸市垂水区,上高丸１丁目６番３－４０９号,,28,108,6550017,,,,,,,2025-12-17,1,,,,,イノウエコウギョウ,0
1871,7140001141145,新規,0,2025-12-17,2025-12-17,株式会社リエネス,,株式会社,兵庫県,神戸市西区,伊川谷町有瀬１０４６番地の１、１５０３号,,28,111,6512113,,,,,,,2025-12-17,1,,,,,リエネス,0
1872,7140001141161,新規,0,2025-12-17,2025-12-17,株式会社Ｇｏ　ｂｅｙｏｎｄ,,株式会社,兵庫県,姫路市,飾磨区下野田３丁目１６０番地５,,28,201,6728044,,,,,,,2025-12-17,1,,,,,ゴービヨンド,0
1877,7160001027301,新規,0,2025-12-17,2025-12-17,株式会社ＮＥＸＸＴ　Ｌｉｖ,,株式会社,滋賀県,大津市,池の里２４番１９号,,25,201,5200827,,,,,,,2025-12-17,1,,,,,ネクストリブ,0
1889,7180001169868,新規,0,2025-12-17,2025-12-17,ＳＯＷＡ株式会社,,株式会社,愛知県,名古屋市天白区,土原５丁目１３４番地,,23,116,4680026,,,,,,,2025-12-17,1,,,,,ソウワ,0
1890,7180001169967,新規,0,2025-12-17,2025-12-17,エヌケーホールディングス株式会社,,株式会社,愛知県,名古屋市昭和区,西畑町２番地の１,,23,107,4660806,,,,,,,2025-12-17,1,,,,,エヌケーホールディングス,0
1893,7180003029475,新規,0,2025-12-17,2025-12-17,合同会社オモシロニクス,,合同会社,愛知県,名古屋市中村区,名駅４丁目２４番５号第２森ビル４０１,,23,105,4500002,,,,,,,2025-12-17,1,,,,,オモシロニクス,0
1896,7180005021348,新規,0,2025-12-17,2025-12-17,一般社団法人安全連携機構,,その他の設立登記法人,愛知県,日進市,米野木町小廻間１５番地３,,23,230,4700111,,,,,,,2025-12-17,1,,,,,アンゼンレンケイキコウ,0
1897,7180301040506,新規,0,2025-12-17,2025-12-17,株式会社カクデン,,株式会社,愛知県,豊橋市,山田一番町１０６番地の１２,,23,201,4418102,,,,,,,2025-12-17,1,,,,,カクデン,0
1898,7190003005302,新規,0,2025-12-17,2025-12-17,ＲＫＫ合同会社,,合同会社,三重県,四日市市,堀木２丁目３番１－１００５号ローレルコート四日市,,24,202,5100076,,,,,,,2025-12-17,1,,,,,アールケーケー,0
1900,7190005012081,新規,0,2025-12-17,2025-12-17,一般社団法人文脈のカタチ研究会,,その他の設立登記法人,三重県,尾鷲市,九鬼町６８,,24,209,5193701,,,,,,,2025-12-17,1,,,,,ブンミャクノカタチケンキュウカイ,0
1903,7200001044531,新規,0,2025-12-17,2025-12-17,株式会社織ノ環,,株式会社,岐阜県,中津川市,阿木１４７７番地の１,,21,206,5097321,,,,,,,2025-12-17,1,,,,,シキノワ,0
1908,7240001065937,新規,0,2025-12-17,2025-12-17,株式会社一建,,株式会社,広島県,三原市,皆実１丁目５番２０－８０２号,,34,204,7230052,,,,,,,2025-12-17,1,,,,,イチケン,0
1909,7240001065945,新規,0,2025-12-17,2025-12-17,株式会社ＡＫＣ,,株式会社,広島県,廿日市市,宮内１９７９番地１,,34,213,7380034,,,,,,,2025-12-17,1,,,,,エーケーシー,0
1910,7240003007524,新規,0,2025-12-17,2025-12-17,クリーンエネルギー１号合同会社,,合同会社,広島県,広島市安佐南区,中筋１丁目１８番２５号２Ｆ,,34,105,7310122,,,,,,,2025-12-17,1,,,,,クリーンエネルギーイチゴウ,0
1917,7290001112544,新規,0,2025-12-17,2025-12-17,株式会社Ｔｒｙ　Ｆｉｅｌｄ,,株式会社,福岡県,久留米市,東町２５－２５マルシェビル２Ｆ,,40,203,8300032,,,,,,,2025-12-17,1,,,,,トライフィールド,0
1918,7290001112560,新規,0,2025-12-17,2025-12-17,スタックアップ株式会社,,株式会社,福岡県,福岡市中央区,大名１丁目３番２９号,,40,133,8100041,,,,,,,2025-12-17,1,,,,,スタックアップ,0
1925,7290801032116,新規,0,2025-12-17,2025-12-17,株式会社７７ＨＯＭＥ,,株式会社,福岡県,北九州市門司区,下二十町７番３５－１０２号,,40,101,8000028,,,,,,,2025-12-17,1,,,,,ナナホーム,0
1928,7320001021493,新規,0,2025-12-17,2025-12-17,株式会社ＡＫＡＮＥＫＯ,,株式会社,大分県,別府市,北浜１丁目１番１８号マキビル１Ｆ,,44,202,8740920,,,,,,,2025-12-17,1,,,,,アカネコ,0
1932,7350001019849,新規,0,2025-12-17,2025-12-17,ＢＲＡＳＳ株式会社,,株式会社,宮崎県,東臼杵郡門川町,大字門川尾末８５１９－１、２Ｆ,,45,421,8890611,,,,,,,2025-12-17,1,,,,,ブラス,0
1934,7360001036158,新規,0,2025-12-17,2025-12-17,Ｂａｓｉｃ　Ｂａｌａｎｃｅ　Ｗｏｒｋ株式会社,,株式会社,沖縄県,那覇市,与儀２丁目１８番１８号,,47,201,9020076,,,,,,,2025-12-17,1,,,,,ベーシックバランスワーク,0
1936,7370001053318,新規,0,2025-12-17,2025-12-17,株式会社ＳＡＫＵＲＡ　ＰＲＩＭＥ,,株式会社,宮城県,仙台市青葉区,国分町２丁目１３番１号セブンコートビル７０１,,04,101,9800803,,,,,,,2025-12-17,1,,,,,サクラプライム,0
1937,7370001053326,新規,0,2025-12-17,2025-12-17,株式会社青森ミライホールディングス,,株式会社,宮城県,仙台市青葉区,花京院１丁目４番１１号,,04,101,9800013,,,,,,,2025-12-17,1,,,,,アオモリミライホールディングス,0
1942,7390003002477,新規,0,2025-12-17,2025-12-17,合同会社デリとが,,合同会社,山形県,東田川郡庄内町,余目字上猿田１５番地１０,,06,428,9997781,,,,,,,2025-12-17,1,,,,,デリトガ,0
1944,7400003003580,新規,0,2025-12-17,2025-12-17,合同会社岩手セレナード,,合同会社,岩手県,盛岡市,西見前１２地割１５６番地１,,03,201,0200833,,,,,,,2025-12-17,1,,,,,イワテセレナード,0
1946,7410005006671,新規,0,2025-12-17,2025-12-17,一般社団法人サスティナ秋田,,その他の設立登記法人,秋田県,秋田市,保戸野原の町７番６８号,,05,201,0100904,,,,,,,2025-12-17,1,,,,,サスティナアキタ,0
1950,7430001095857,新規,0,2025-12-17,2025-12-17,あいけい工学株式会社,,株式会社,北海道,苫小牧市,北光町２丁目１５番７－３０５号,,01,213,0530852,,,,,,,2025-12-17,1,,,,,アイケイコウガク,0
1951,7430001095881,新規,0,2025-12-17,2025-12-17,株式会社マルチクリエイト,,株式会社,北海道,札幌市白石区,本通３丁目北６番１２号,,01,104,0030027,,,,,,,2025-12-17,1,,,,,マルチクリエイト,0
1954,7430003018428,新規,0,2025-12-17,2025-12-17,合同会社ＧＯＣＯ,,合同会社,北海道,札幌市清田区,里塚三条２丁目５番２０号,,01,110,0040803,,,,,,,2025-12-17,1,,,,,ゴコー,0
1958,7450001014807,新規,0,2025-12-17,2025-12-17,株式会社ＲＭＩ,,株式会社,北海道,上川郡和寒町,字三笠６番地,,01,464,0980111,,,,,,,2025-12-17,1,,,,,アールエムアイ,0
1963,7470001021025,新規,0,2025-12-17,2025-12-17,株式会社佃組,,株式会社,香川県,高松市,香西東町５３５番地２,,37,201,7618013,,,,,,,2025-12-17,1,,,,,ツクダグミ,0
1966,7700150133571,新規,0,2025-12-17,2025-12-17,メイテック健康保険組合,,その他,東京都,千代田区,神田佐久間町２丁目１９番地,,13,101,1010025,,,,,,,2025-12-17,1,,,,,メイテックケンコウホケンクミアイ,0
1974,8010001261211,新規,0,2025-12-17,2025-12-17,株式会社ＳＴＯＣＫ１９８,,株式会社,東京都,千代田区,永田町２丁目１２番４号,,13,101,1000014,,,,,,,2025-12-17,1,,,,,ストックヒャクキュウジュウハチ,0
1975,8010001261252,新規,0,2025-12-17,2025-12-17,株式会社タクティブ,,株式会社,東京都,千代田区,神田錦町３丁目２０番地錦町トラッドスクエア１２階,,13,101,1010054,,,,,,,2025-12-17,1,,,,,タクティブ,0
1976,8010001261277,新規,0,2025-12-17,2025-12-17,株式会社ウルスリンク,,株式会社,東京都,中央区,銀座１丁目２２番１１号銀座大竹ビジデンス２Ｆ,,13,102,1040061,,,,,,,2025-12-17,1,,,,,ウルスリンク,0
1977,8010001261302,新規,0,2025-12-17,2025-12-17,株式会社ＹＫアセントホールディングス,,株式会社,東京都,千代田区,内神田２丁目８番７号,,13,101,1010047,,,,,,,2025-12-17,1,,,,,ワイケーアセントホールディングス,0
1978,8010001261327,新規,0,2025-12-17,2025-12-17,ハビー株式会社,,株式会社,東京都,中央区,銀座２丁目３番６号,,13,102,1040061,,,,,,,2025-12-17,1,,,,,ハビー,0
1981,8010003049737,新規,0,2025-12-17,2025-12-17,合同会社Ｋｎｉｔ　ａ　Ｋｎｏｔ,,合同会社,東京都,千代田区,神田錦町３丁目２１番地１１９８,,13,101,1010054,,,,,,,2025-12-17,1,,,,,ニットアノット,0
1988,8010401195257,新規,0,2025-12-17,2025-12-17,株式会社あさひ,,株式会社,東京都,港区,虎ノ門１丁目１６番６号虎ノ門ＲＡＰＯ－ＴＯビルＵＣＦ７０３,,13,103,1050001,,,,,,,2025-12-17,1,,,,,アサヒ,0
1991,8010403036822,新規,0,2025-12-17,2025-12-17,合同会社Ｎａｐａ　Ｆｌｏｗ　Ｃａｐｉｔａｌ,,合同会社,東京都,港区,虎ノ門３丁目２２番１０－２０１号,,13,103,1050001,,,,,,,2025-12-17,1,,,,,ナパフローキャピタル,0
1992,8010403036830,新規,0,2025-12-17,2025-12-17,合同会社檀産業医・労働衛生コンサルタントオフィス,,合同会社,東京都,港区,北青山１丁目３番１号アールキューブ青山３階,,13,103,1070061,,,,,,,2025-12-17,1,,,,,マユミサンギョウイロウドウエイセイコンサルタントオフィス,0
1995,8010503008110,新規,0,2025-12-17,2025-12-17,ＭＫＳ合同会社,,合同会社,東京都,台東区,台東４丁目７番７号御徒町プレーンハイツ永谷７０２,,13,106,1100016,,,,,,,2025-12-17,1,,,,,エムケーエス,0
1996,8010601068444,新規,0,2025-12-17,2025-12-17,株式会社Ｈａｒｐｕｓ,,株式会社,東京都,江東区,南砂２丁目２番８－５１４号,,13,108,1360076,,,,,,,2025-12-17,1,,,,,ハープス,0
2000,8010701048775,新規,0,2025-12-17,2025-12-17,株式会社ＹＵアセットマネジメント,,株式会社,東京都,品川区,北品川６丁目７番２９号,,13,109,1410001,,,,,,,2025-12-17,1,,,,,ユウアセットマネジメント,0
2005,8010901058616,新規,0,2025-12-17,2025-12-17,株式会社Ｒｅｂｅｌｌｅ　Ｍｅｄｉｃａｌ,,株式会社,東京都,世田谷区,玉堤２丁目２－１６ジェイパーク尾山台ＩＩ４０７,00141918,13,112,1580087,,,,,,,2025-12-17,1,,,,,リベルメディカル,0
2006,8010901058624,新規,0,2025-12-17,2025-12-17,株式会社想作,,株式会社,東京都,世田谷区,奥沢３丁目３２番８号望月ビル１階,,13,112,1580083,,,,,,,2025-12-17,1,,,,,ソウサク,0
2007,8010901058649,新規,0,2025-12-17,2025-12-17,株式会社墨蓮,,株式会社,東京都,世田谷区,瀬田１丁目２８番７号,,13,112,1580095,,,,,,,2025-12-17,1,,,,,ボクレン,0
2008,8010903010491,新規,0,2025-12-17,2025-12-17,合同会社ＴｒａｖｅｌＪａｐａｎ,,合同会社,東京都,世田谷区,代田４丁目３３－３４－１０５,,13,112,1550033,,,,,,,2025-12-17,1,,,,,トラベルジャパン,0
2016,8011001174403,新規,0,2025-12-17,2025-12-17,株式会社ＰＩＥＣＥ,,株式会社,東京都,目黒区,自由が丘２丁目１番１９―７０２号自由が丘第５マンション,,13,110,1520035,,,,,,,2025-12-17,1,,,,,ピース,0
2021,8011003023194,新規,0,2025-12-17,2025-12-17,合同会社ＢＬＵＥ　ＧＯＬＦ,,合同会社,東京都,目黒区,青葉台１丁目２９－６－２０９,,13,110,1530042,,,,,,,2025-12-17,1,,,,,ブルーゴルフ,0
2028,8011201026858,新規,0,2025-12-17,2025-12-17,ユニプロマージャパン株式会社,,株式会社,東京都,中野区,本町３丁目９番３号,,13,114,1640012,,,,,,,2025-12-17,1,,,,,ユニプロマージャパン,0
2031,8011401027656,新規,0,2025-12-17,2025-12-17,株式会社トライアス,,株式会社,東京都,板橋区,蓮根３丁目４番２６号,,13,119,1740046,,,,,,,2025-12-17,1,,,,,トライアス,0
2032,8011401027672,新規,0,2025-12-17,2025-12-17,株式会社ＳＴＯ,,株式会社,東京都,板橋区,前野町２丁目４５番１５号,,13,119,1740063,,,,,,,2025-12-17,1,,,,,エスティーオー,0
2034,8011403004975,新規,0,2025-12-17,2025-12-17,ＣＹＡＮ合同会社,,合同会社,東京都,板橋区,南常盤台１丁目１１番６号レフア南常盤台１０２号室,,13,119,1740072,,,,,,,2025-12-17,1,,,,,シアン,0
2035,8011601029238,新規,0,2025-12-17,2025-12-17,株式会社ストックス,,株式会社,東京都,練馬区,関町南２丁目２８番１３号,,13,120,1770053,,,,,,,2025-12-17,1,,,,,ストックス,0
2039,8012301014645,新規,0,2025-12-17,2025-12-17,株式会社プロボックス,,株式会社,東京都,町田市,真光寺２丁目９番地１３レウィシア１０５,,13,209,1950057,,,,,,,2025-12-17,1,,,,,プロボックス,0
2040,8012403007514,新規,0,2025-12-17,2025-12-17,人衣企画合同会社,,合同会社,東京都,調布市,下石原２丁目４３番８号,,13,208,1820034,,,,,,,2025-12-17,1,,,,,トイプロジェクト,0
2044,8013301055456,新規,0,2025-12-17,2025-12-17,株式会社ＦＫＴ,,株式会社,東京都,豊島区,東池袋２丁目６２番８号ＢＩＧオフィスプラザ池袋１２０６,,13,116,1700013,,,,,,,2025-12-17,1,,,,,エフケーティー,0
2045,8013301055464,新規,0,2025-12-17,2025-12-17,株式会社フロンティア,,株式会社,東京都,豊島区,南池袋１丁目２１番５号第７野萩ビルＢ１Ｆ,,13,116,1710022,,,,,,,2025-12-17,1,,,,,フロンティア,0
2055,8020001166260,新規,0,2025-12-17,2025-12-17,株式会社希望創造,,株式会社,神奈川県,横浜市栄区,小菅ケ谷１丁目５番３－６１０号,,14,115,2470007,,,,,,,2025-12-17,1,,,,,キボウソウゾウ,0
2056,8020001166335,新規,0,2025-12-17,2025-12-17,ＲＨコンサルティング株式会社,,株式会社,神奈川県,川崎市中原区,苅宿２０番７号,,14,133,2110022,,,,,,,2025-12-17,1,,,,,アールエイチコンサルティング,0
2061,8020003029894,新規,0,2025-12-17,2025-12-17,合同会社Ｃｈｉｒｏ,,合同会社,神奈川県,横浜市泉区,下和泉３丁目２番８号,,14,116,2450021,,,,,,,2025-12-17,1,,,,,チロ,0
2074,8030001170146,新規,0,2025-12-17,2025-12-17,岡村住建株式会社,,株式会社,埼玉県,草加市,清門２丁目４４番地２４,,11,221,3400055,,,,,,,2025-12-17,1,,,,,オカムラジュウケン,0
2075,8030001170170,新規,0,2025-12-17,2025-12-17,株式会社Ｈｙｄｒａｎｇｅａ,,株式会社,埼玉県,川越市,東田町１６番地５－４０７号,,11,201,3501114,,,,,,,2025-12-17,1,,,,,ハイドランジア,0
2076,8030001170195,新規,0,2025-12-17,2025-12-17,株式会社勇者,,株式会社,埼玉県,越谷市,大字平方９９番地,,11,222,3430002,,,,,,,2025-12-17,1,,,,,ユウシャ,0
2077,8030001170204,新規,0,2025-12-17,2025-12-17,Ａ‐ＰＲＯＪＥＣＴ株式会社,,株式会社,埼玉県,川越市,大字藤間１６９番地５ＢＰＲＯビル,,11,201,3501142,,,,,,,2025-12-17,1,,,,,エープロジェクト,0
2082,8030005022368,新規,0,2025-12-17,2025-12-17,一般社団法人山フク風ヲＤｒｅａｍＦｏｒｅｓｔ,,その他の設立登記法人,埼玉県,秩父郡小鹿野町,伊豆沢１４２１番地２,,11,365,3680104,,,,,,,2025-12-17,1,,,,,ヤマフクカゼヲドリームフォレスト,0
2086,8040001141823,新規,0,2025-12-17,2025-12-17,株式会社Ｒａｎｓｐｏ,,株式会社,千葉県,市川市,中国分３丁目６番２２号,,12,203,2720835,,,,,,,2025-12-17,1,,,,,ランスポ,0
2088,8040003029158,新規,0,2025-12-17,2025-12-17,合同会社Ｌｅｖｉａアセット,,合同会社,千葉県,千葉市緑区,おゆみ野中央５丁目２９番地１４,,12,105,2660032,,,,,,,2025-12-17,1,,,,,レヴィアアセット,0
2090,8060001038860,新規,0,2025-12-17,2025-12-17,株式会社Ｏｒａｎｇｅ,,株式会社,栃木県,宇都宮市,中戸祭１丁目１番４９号ＫＳビル１Ｆ,,09,201,3200057,,,,,,,2025-12-17,1,,,,,オレンジ,0
2091,8060005010394,新規,0,2025-12-17,2025-12-17,一般社団法人栃木シティ足利ユナイテッド,,その他の設立登記法人,栃木県,足利市,本城１丁目１６２９番地１,,09,202,3260808,,,,,,,2025-12-17,1,,,,,トチギシティアシカガユナイテッド,0
2094,8080001027333,新規,0,2025-12-17,2025-12-17,株式会社そら,,株式会社,静岡県,焼津市,黒石２丁目２番地の１,,22,212,4250038,,,,,,,2025-12-17,1,,,,,ソラ,0
2096,8110001039688,新規,0,2025-12-17,2025-12-17,株式会社Ｋａｚｏｋｕｒａ,,株式会社,新潟県,上越市,大潟区潟町３４７番地１,,15,222,9493103,,,,,,,2025-12-17,1,,,,,カゾクラ,0
2106,8120001282782,新規,0,2025-12-17,2025-12-17,株式会社ｗａｃｕ,,株式会社,大阪府,大阪市福島区,福島１丁目６番７号,,27,103,5530003,,,,,,,2025-12-17,1,,,,,ワク,0
2107,8120001282808,新規,0,2025-12-17,2025-12-17,ファミリー株式会社,,株式会社,大阪府,大阪市旭区,千林２丁目９番５号,,27,117,5350012,,,,,,,2025-12-17,1,,,,,ファミリー,0
2108,8120001282849,新規,0,2025-12-17,2025-12-17,ＭＭＲ　ＬＯＧＩＳＴＩＣＳ株式会社,,株式会社,大阪府,大阪市中央区,本町４丁目８番１号ＳＤ本町ビル７０２号,,27,128,5410053,,,,,,,2025-12-17,1,,,,,エムツーアールロジスティクス,0
2112,8120003031493,新規,0,2025-12-17,2025-12-17,合同会社Ｍｕｓｉｃ　Ｊａｐａｎ,,合同会社,大阪府,大阪市北区,梅田１丁目２番２号大阪駅前第２ビル１２－１２,,27,127,5300001,,,,,,,2025-12-17,1,,,,,ミュージックジャパン,0
2113,8120003031510,新規,0,2025-12-17,2025-12-17,ＡｎｄＧｒｏｗ合同会社,,合同会社,大阪府,大阪市北区,梅田１丁目２番２号大阪駅前第２ビル１２－１２,,27,127,5300001,,,,,,,2025-12-17,1,,,,,アンドグロウ,0
2116,8120005025295,新規,0,2025-12-17,2025-12-17,一般社団法人ひだまり共済会,,その他の設立登記法人,大阪府,大阪市平野区,西脇１丁目９番１号,,27,126,5470035,,,,,,,2025-12-17,1,,,,,ヒダマリキョウサイカイ,0
2117,8120005025304,新規,0,2025-12-17,2025-12-17,一般社団法人スカイハイ,,その他の設立登記法人,大阪府,大阪市淀川区,加島１丁目３７番４１号,,27,123,5320031,,,,,,,2025-12-17,1,,,,,スカイハイ,0
2118,8120005025312,新規,0,2025-12-17,2025-12-17,土地家屋調査士法人松本総合事務所,,その他の設立登記法人,大阪府,大阪市城東区,東中浜３丁目１５番１０号,,27,118,5360023,,,,,,,2025-12-17,1,,,,,マツモトソウゴウジムショ,0
2120,8120903006000,新規,0,2025-12-17,2025-12-17,合同会社羅箏,,合同会社,大阪府,茨木市,沢良宜西２丁目１２番２０号,,27,211,5670868,,,,,,,2025-12-17,1,,,,,ラソウ,0
2131,8140001141111,新規,0,2025-12-17,2025-12-17,株式会社ブリング,,株式会社,兵庫県,尼崎市,杭瀬寺島１丁目４－３９－１０５リンクスタイルＶ,00141914,28,202,6600813,,,,,,,2025-12-17,1,,,,,ブリング,0
2132,8140001141144,新規,0,2025-12-17,2025-12-17,株式会社Ｓｈｕｕｔａ,,株式会社,兵庫県,芦屋市,海洋町５番２号,,28,206,6590035,,,,,,,2025-12-17,1,,,,,シュウタ,0
2135,8150001005521,新規,0,2025-12-17,2025-12-17,株式会社アウトテリアサンワ,,株式会社,奈良県,奈良市,法蓮町８０４番地,,29,201,6308113,,,,,,,2025-12-17,1,,,,,アウトテリアサンワ,0
2141,8160003003687,新規,0,2025-12-17,2025-12-17,創研合同会社,,合同会社,滋賀県,草津市,東草津２丁目６番１－７号,,25,206,5250033,,,,,,,2025-12-17,1,,,,,ソウケン,0
2143,8170001018918,新規,0,2025-12-17,2025-12-17,株式会社Ｒｉａｎ,,株式会社,和歌山県,新宮市,新宮２６７０番地２,,30,207,6470081,,,,,,,2025-12-17,1,,,,,リアン,0
2148,8180001169867,新規,0,2025-12-17,2025-12-17,株式会社翔,,株式会社,愛知県,名古屋市緑区,倉坂１５１５番地第２ＫＳビル２０３,,23,114,4598006,,,,,,,2025-12-17,1,,,,,ショウ,0
2149,8180001169909,新規,0,2025-12-17,2025-12-17,福源株式会社,,株式会社,愛知県,あま市,七宝町鷹居２丁目２７番地１,,23,237,4970014,,,,,,,2025-12-17,1,,,,,フクゲン,0
2150,8180001169925,新規,0,2025-12-17,2025-12-17,株式会社千勝,,株式会社,愛知県,名古屋市中区,栄４丁目１４番６号４０７号室,,23,106,4600008,,,,,,,2025-12-17,1,,,,,センカツ,0
2151,8180001169941,新規,0,2025-12-17,2025-12-17,株式会社てまひま,,株式会社,愛知県,名古屋市中村区,椿町８番７号２Ｆ,,23,105,4530015,,,,,,,2025-12-17,1,,,,,テマヒマ,0
2158,8180301040513,新規,0,2025-12-17,2025-12-17,株式会社こしワークス,,株式会社,愛知県,刈谷市,相生町２丁目２０番地パークホテル刈谷ＱＳ－２階,,23,210,4480027,,,,,,,2025-12-17,1,,,,,,0
2162,8190001032751,新規,0,2025-12-17,2025-12-17,アサヒエコ株式会社,,株式会社,三重県,三重郡朝日町,大字埋縄字丑ケ谷５５５番１０,,24,343,5108104,,,,,,,2025-12-17,1,,,,,アサヒエコ,0
2163,8190003005301,新規,0,2025-12-17,2025-12-17,ＫＲＫ合同会社,,合同会社,三重県,四日市市,堀木２丁目３番１－１００５号ローレルコート四日市,,24,202,5100076,,,,,,,2025-12-17,1,,,,,ケーアールケー,0
2165,8210001020415,新規,0,2025-12-17,2025-12-17,株式会社ＵＲＯＬ,,株式会社,福井県,福井市,中央１丁目３番７号２３０７,,18,201,9100006,,,,,,,2025-12-17,1,,,,,ウロル,0
2167,8220003004191,新規,0,2025-12-17,2025-12-17,合同会社Ｂｏｔｃｈａｎｓ　ｃｏｍｐａｎｙ,,合同会社,石川県,加賀市,上河崎町３７７番地１,,17,206,9220013,,,,,,,2025-12-17,1,,,,,ボッチャンズカンパニー,0
2174,8240001065936,新規,0,2025-12-17,2025-12-17,ｉｒｉａ株式会社,,株式会社,広島県,廿日市市,友田１０３８番地４,,34,213,7380203,,,,,,,2025-12-17,1,,,,,イリア,0
2175,8240001065944,新規,0,2025-12-17,2025-12-17,株式会社サンコウミライ,,株式会社,広島県,呉市,苗代町１２６番地の３０,,34,202,7370921,,,,,,,2025-12-17,1,,,,,サンコウミライ,0
2180,8260001040821,新規,0,2025-12-17,2025-12-17,株式会社祐誠,,株式会社,岡山県,倉敷市,平田３５３番地,,33,202,7100003,,,,,,,2025-12-17,1,,,,,ユウセイ,0
2186,8290001112535,新規,0,2025-12-17,2025-12-17,株式会社Ｎ‐Ｑｕｅｓｔ,,株式会社,福岡県,福岡市中央区,大手門２丁目２－３０,,40,133,8100074,,,,,,,2025-12-17,1,,,,,エヌクエスト,0
2187,8290001112551,新規,0,2025-12-17,2025-12-17,株式会社ＹＲＣ,,株式会社,福岡県,久留米市,西町５８３番地４津福ハイツ４０１号,,40,203,8300038,,,,,,,2025-12-17,1,,,,,ワイアールシー,0
2194,8290005019909,新規,0,2025-12-17,2025-12-17,一般社団法人おおむた認知症カフェ連絡協議会,,その他の設立登記法人,福岡県,大牟田市,古町１番地８－２階８号室,,40,202,8360044,,,,,,,2025-12-17,1,,,,,オオムタニンチショウカフェレンラクキョウギカイ,0
2197,8290803005226,新規,0,2025-12-17,2025-12-17,きよらか堂合同会社,,合同会社,福岡県,北九州市小倉南区,東貫２丁目１０番２６号,,40,107,8000224,,,,,,,2025-12-17,1,,,,,キヨラカドウ,0
2205,8350001019848,新規,0,2025-12-17,2025-12-17,株式会社ファイト,,株式会社,宮崎県,宮崎市,中央通２番２１号マジソンビル５階,,45,201,8800002,,,,,,,2025-12-17,1,,,,,ファイト,0
2214,8360001036157,新規,0,2025-12-17,2025-12-17,ＬＥＱＵＩＯ　ＩＭＥＸ株式会社,,株式会社,沖縄県,那覇市,松山１丁目５番１号ナムラプラザビル１Ｆ―Ｃ,,47,201,9000032,,,,,,,2025-12-17,1,,,,,レキオアイメックス,0
2215,8360003015489,新規,0,2025-12-17,2025-12-17,合同会社桃原興産,,合同会社,沖縄県,宮古島市,城辺字長間１４１６番地９,,47,214,9060105,,,,,,,2025-12-17,1,,,,,トウバルコウサン,0
2216,8370001053317,新規,0,2025-12-17,2025-12-17,株式会社ＡＮＤ　ＯＮＥ,,株式会社,宮城県,仙台市若林区,荒井７丁目３７番地の２,,04,103,9840032,,,,,,,2025-12-17,1,,,,,アンドワン,0
2227,8390003002476,新規,0,2025-12-17,2025-12-17,合同会社ＯＭＧ,,合同会社,山形県,東田川郡庄内町,余目字土堤下２８番５,,06,428,9997781,,,,,,,2025-12-17,1,,,,,オーエムジー,0
2229,8410005006670,新規,0,2025-12-17,2025-12-17,一般社団法人能代山本ともに医療ネットワーク,,その他の設立登記法人,秋田県,能代市,落合字下悪土１１５番地,,05,202,0160014,,,,,,,2025-12-17,1,,,,,ノシロヤマモトトモニイリョウネットワーク,0
2238,8430001095889,新規,0,2025-12-17,2025-12-17,株式会社オフィスデザイン札幌,,株式会社,北海道,札幌市中央区,南七条西３丁目７番地１６,,01,101,0640807,,,,,,,2025-12-17,1,,,,,オフィスデザインサッポロ,0
2241,8450001014806,新規,0,2025-12-17,2025-12-17,株式会社ピアスマイル旭川,,株式会社,北海道,旭川市,春光四条６丁目４番１８号,,01,204,0700874,,,,,,,2025-12-17,1,,,,,ピアスマイルアサヒカワ,0
2250,8700150133570,新規,0,2025-12-17,2025-12-17,東洋製罐健康保険組合,,その他,東京都,品川区,東五反田２丁目１８番１号,,13,109,1410022,,,,,,,2025-12-17,1,,,,,トウヨウセイカンケンコウホケンクミアイ,0
2251,8700150133579,新規,0,2025-12-17,2025-12-17,フジテック健康保険組合,,その他,滋賀県,彦根市,宮田町５９１番地の１,,25,202,5220003,,,,,,,2025-12-17,1,,,,,フジテックケンコウホケンクミアイ,0
2265,9010001261169,新規,0,2025-12-17,2025-12-17,富士時光株式会社,,株式会社,東京都,文京区,千石４丁目１４番９号,,13,105,1120011,,,,,,,2025-12-17,1,,,,,フジジコウ,0
2266,9010001261210,新規,0,2025-12-17,2025-12-17,株式会社ＳＴＯＣＫ２０５,,株式会社,東京都,千代田区,永田町２丁目１２番４号,,13,101,1000014,,,,,,,2025-12-17,1,,,,,ストックニヒャクゴ,0
2267,9010001261251,新規,0,2025-12-17,2025-12-17,ＸＸＷ株式会社,,株式会社,東京都,中央区,日本橋２丁目２番３号ＲＩＳＨＥビルＵＣＦ４階,,13,102,1030027,,,,,,,2025-12-17,1,,,,,エックスエックスダブル,0
2270,9010005041088,新規,0,2025-12-17,2025-12-17,日本橋１６一般社団法人,,その他の設立登記法人,東京都,中央区,日本橋１丁目４番１号日本橋一丁目ビルディング,,13,102,1030027,,,,,,,2025-12-17,1,,,,,ニホンバシシックスティーン,0
2276,9010401195248,新規,0,2025-12-17,2025-12-17,株式会社３３,,株式会社,東京都,港区,六本木７丁目１４番７号トリニティビル６階,,13,103,1060032,,,,,,,2025-12-17,1,,,,,サンジュウサン,0
2278,9010403036788,新規,0,2025-12-17,2025-12-17,ＣＥＤＥＲＡ合同会社,,合同会社,東京都,港区,三田２丁目４－９－４０４,,13,103,1080073,,,,,,,2025-12-17,1,,,,,セデラ,0
2281,9010405025120,新規,0,2025-12-17,2025-12-17,山鹿Ｃ一般社団法人,,その他の設立登記法人,東京都,港区,虎ノ門２丁目６番１号,,13,103,1050001,,,,,,,2025-12-17,1,,,,,ヤマガシー,0
2283,9010501055145,新規,0,2025-12-17,2025-12-17,株式会社オカオカ,,株式会社,東京都,台東区,花川戸１丁目１３番１３号,,13,106,1110033,,,,,,,2025-12-17,1,,,,,オカオカ,0
2284,9010501055178,新規,0,2025-12-17,2025-12-17,株式会社ＴＡＫＡＳＯ＆Ｖｉｎｅｆｒｕ,,株式会社,東京都,台東区,松が谷１丁目９番１３号,,13,106,1110036,,,,,,,2025-12-17,1,,,,,タカソーアンドビネフル,0
2286,9010601036053,新規,0,2025-12-17,2025-12-17,株式会社シスコ,,株式会社,東京都,墨田区,横川１丁目４番２号,,13,107,1300003,,,,,,,2025-12-17,1,,,,,シスコ,0
2288,9010601068435,新規,0,2025-12-17,2025-12-17,ＲｅｓｔａｒＴ株式会社,,株式会社,東京都,江東区,豊洲６丁目２番３１－３４２６号,,13,108,1350061,,,,,,,2025-12-17,1,,,,,リスタート,0
2289,9010603011970,新規,0,2025-12-17,2025-12-17,合同会社Ｃｒａｗｌ　ｕｐ,,合同会社,東京都,墨田区,江東橋３丁目５番８号Ｋビル１０階,,13,107,1300022,,,,,,,2025-12-17,1,,,,,クロールアップ,0
2290,9010701048766,新規,0,2025-12-17,2025-12-17,株式会社ＮＡＴＡＣ,,株式会社,東京都,品川区,北品川５丁目３番１－１５１６号,,13,109,1410001,,,,,,,2025-12-17,1,,,,,ナタック,0
2294,9010901058623,新規,0,2025-12-17,2025-12-17,株式会社ＧＳＫ,,株式会社,東京都,世田谷区,経堂５丁目２５番５号,,13,112,1560052,,,,,,,2025-12-17,1,,,,,ジーエスケー,0
2295,9010903010490,新規,0,2025-12-17,2025-12-17,合同会社Ｆｏｒｚａ　ｉｎｔｅｒｎａｚｉｏｎａｌｅ,,合同会社,東京都,世田谷区,船橋１丁目３７－７－２０２,,13,112,1560055,,,,,,,2025-12-17,1,,,,,フォルツァインターナショナーレ,0
2296,9010903010508,新規,0,2025-12-17,2025-12-17,合同会社大橋,,合同会社,東京都,世田谷区,千歳台５丁目６番３号,,13,112,1570071,,,,,,,2025-12-17,1,,,,,オオハシ,0
2301,9011001174377,新規,0,2025-12-17,2025-12-17,株式会社ＲｉｎｔｏＤｅｓｉｇｎ,,株式会社,東京都,渋谷区,宇田川町３－７ヒューリック渋谷公園通りビル５Ｆ－１３０,,13,113,1500042,,,,,,,2025-12-17,1,,,,,リントデザイン,0
2302,9011001174393,新規,0,2025-12-17,2025-12-17,株式会社ＢｕｚｚＭｕｓｅ,,株式会社,東京都,渋谷区,円山町５番３号ＭＩＷＵＸ渋谷ビル８階,,13,113,1500044,,,,,,,2025-12-17,1,,,,,バズミューズ,0
2303,9011001174427,新規,0,2025-12-17,2025-12-17,株式会社ＭｕＳｐｏ,,株式会社,東京都,渋谷区,神宮前２丁目２番２２号,,13,113,1500001,,,,,,,2025-12-17,1,,,,,ミュースポ,0
2304,9011001174435,新規,0,2025-12-17,2025-12-17,株式会社ＬＡＲＧＯ　ＳＵＮＹ,,株式会社,東京都,渋谷区,恵比寿西１丁目２９番５号カプリ代官山２０３,,13,113,1500021,,,,,,,2025-12-17,1,,,,,ラルゴサニー,0
2305,9011003023177,新規,0,2025-12-17,2025-12-17,合同会社Ｋ　ＶＩＳＩＯＮ,,合同会社,東京都,渋谷区,本町４丁目２１番２号エフビル５０３,,13,113,1510071,,,,,,,2025-12-17,1,,,,,ケイビジョン,0
2308,9011103016799,新規,0,2025-12-17,2025-12-17,合同会社ＦＯＲ　ＹＯＵ,,合同会社,東京都,新宿区,若松町３８番２２－４０８号,,13,104,1620056,,,,,,,2025-12-17,1,,,,,フォーユー,0
2310,9011203004910,新規,0,2025-12-17,2025-12-17,Ｍｅｍｏｒｙ　Ｄｅｓｉｇｎ＆Ｃｏｍｐａｎｙ合同会社,,合同会社,東京都,中野区,本町４丁目４４番１３号西京城西ビル２Ｆ－２４,,13,114,1640012,,,,,,,2025-12-17,1,,,,,メモリーデザインアンドカンパニー,0
2315,9011401027671,新規,0,2025-12-17,2025-12-17,株式会社東央技研,,株式会社,東京都,板橋区,中丸町２０番４号,,13,119,1730026,,,,,,,2025-12-17,1,,,,,トウオウギケン,0
2322,9011701029038,新規,0,2025-12-17,2025-12-17,東京Ｐ＆Ｍ株式会社,,株式会社,東京都,江戸川区,西一之江１丁目４番１２号丸忠レジデンス２０５,,13,123,1320023,,,,,,,2025-12-17,1,,,,,トウキョウピーアンドエム,0
2326,9011801047179,新規,0,2025-12-17,2025-12-17,株式会社トリネア,,株式会社,東京都,足立区,千住柳町４１番９号,,13,121,1200032,,,,,,,2025-12-17,1,,,,,トリネア,0
2339,9013305003807,新規,0,2025-12-17,2025-12-17,一般社団法人日本おもてなし美容協会,,その他の設立登記法人,東京都,豊島区,東池袋１丁目３５番１０号,,13,116,1700013,,,,,,,2025-12-17,1,,,,,ニホンオモテナシビヨウキョウカイ,0
2344,9020001163843,新規,0,2025-12-17,2025-12-17,株式会社ＳＢＯ,,株式会社,神奈川県,川崎市麻生区,はるひ野４丁目５－１－４０８,,14,137,2150036,,,,,,,2025-12-17,1,,,,,エスビーオー,0
2345,9020001166342,新規,0,2025-12-17,2025-12-17,株式会社ベースワン,,株式会社,神奈川県,川崎市宮前区,西野川３丁目１８番１３号ドリームヴィラＢ－１,,14,136,2160044,,,,,,,2025-12-17,1,,,,,ベースワン,0
2349,9020003029943,新規,0,2025-12-17,2025-12-17,合同会社ふう,,合同会社,神奈川県,横浜市旭区,川井本町９０番地３４,,14,112,2410803,,,,,,,2025-12-17,1,,,,,フウ,0
2350,9020003030001,新規,0,2025-12-17,2025-12-17,合同会社Ｄｏｔｓ,,合同会社,神奈川県,横浜市栄区,小菅ケ谷１丁目１番１－３１１号,,14,115,2470007,,,,,,,2025-12-17,1,,,,,ドッツ,0
2373,9030001170087,新規,0,2025-12-17,2025-12-17,Ｌｏｃａｌ　Ａｌｕｍｎｉ　Ｐｒｏｊｅｃｔ株式会社,,株式会社,埼玉県,さいたま市浦和区,高砂４丁目１番５号ふじビル２Ｆ,,11,107,3300063,,,,,,,2025-12-17,1,,,,,ローカルアルムナイプロジェクト,0
2374,9030001170120,新規,0,2025-12-17,2025-12-17,株式会社Ｋオフィス,,株式会社,埼玉県,さいたま市中央区,桜丘２丁目１番６号,,11,105,3380005,,,,,,,2025-12-17,1,,,,,ケイオフィス,0
2375,9030001170178,新規,0,2025-12-17,2025-12-17,株式会社ＳＹ,,株式会社,埼玉県,さいたま市緑区,宮本２丁目４番地２５,,11,109,3360916,,,,,,,2025-12-17,1,,,,,エスワイ,0
2378,9030003028283,新規,0,2025-12-17,2025-12-17,合同会社ＳＵ２,,合同会社,埼玉県,所沢市,松葉町２３－６イエローコーン１０１号室,,11,208,3590044,,,,,,,2025-12-17,1,,,,,エスユーツー,0
2379,9030005022367,新規,0,2025-12-17,2025-12-17,バイブルクリスチャンフェローシップ,,その他の設立登記法人,埼玉県,北葛飾郡杉戸町,大字下高野字熊之面８３３番地１,,11,464,3450043,,,,,,,2025-12-17,1,,,,,,0
2382,9040003029157,新規,0,2025-12-17,2025-12-17,合同会社ＬＩＢＲＡ,,合同会社,千葉県,松戸市,串崎新田１４５番地の６,,12,207,2702216,,,,,,,2025-12-17,1,,,,,リブラ,0
2388,9080001027340,新規,0,2025-12-17,2025-12-17,株式会社Ｐｉｅｃｅｓ　Ｗ．,,株式会社,静岡県,静岡市駿河区,高松２丁目７番１号,,22,102,4228034,,,,,,,2025-12-17,1,,,,,ピーシーズダブリュー,0
2389,9080401028327,新規,0,2025-12-17,2025-12-17,ホライズン株式会社,,株式会社,静岡県,浜松市中央区,砂山町１１０２番地ブライトタウン浜松ザ・フロント１４０１,,22,138,4300926,,,,,,,2025-12-17,1,,,,,ホライズン,0
2396,9110005017301,新規,0,2025-12-17,2025-12-17,医療法人社団よしぞえ歯科クリニック,,その他の設立登記法人,新潟県,新潟市江南区,元町１丁目３番２号,,15,104,9500143,,,,,,,2025-12-17,1,,,,,ヨシゾエシカクリニック,0
2410,9120001282765,新規,0,2025-12-17,2025-12-17,Ｖｉｓｔａ３Ｄ　Ｊａｐａｎ株式会社,,株式会社,大阪府,大阪市中央区,内平野町１丁目４番１号マーキュリー６０７室,,27,128,5400037,,,,,,,2025-12-17,1,,,,,ビスタスリーディージャパン,0
2411,9120001282856,新規,0,2025-12-17,2025-12-17,株式会社龍陽,,株式会社,大阪府,大阪市中央区,粉川町３－４アジュール粉川１０１号室,,27,128,5400018,,,,,,,2025-12-17,1,,,,,リュウヨウ,0
2412,9120001282897,新規,0,2025-12-17,2025-12-17,株式会社ゆき,,株式会社,大阪府,大阪市東成区,大今里南４丁目２‐１０,,27,115,5370013,,,,,,,2025-12-17,1,,,,,ユキ,0
2415,9120003031393,新規,0,2025-12-17,2025-12-17,合同会社ＬＣＤ,,合同会社,大阪府,大阪市西区,九条２丁目７番１７号,,27,106,5500027,,,,,,,2025-12-17,1,,,,,エルシーディー,0
2416,9120003031435,新規,0,2025-12-17,2025-12-17,合同会社Ｓ‐ｏｎｅ,,合同会社,大阪府,大阪市浪速区,稲荷１丁目１２番２９－８０２号,,27,111,5560023,,,,,,,2025-12-17,1,,,,,エスワン,0
2417,9120003031492,新規,0,2025-12-17,2025-12-17,ＫＵＲＡＮ合同会社,,合同会社,大阪府,大阪市平野区,瓜破西２丁目２－１９,,27,126,5470025,,,,,,,2025-12-17,1,,,,,クラン,0
2418,9120003031501,新規,0,2025-12-17,2025-12-17,合同会社ＧＡＭＩ,,合同会社,大阪府,大阪市城東区,鴫野東１丁目９－２６藤岡工務店鴫野マンション３０２号室,,27,118,5360013,,,,,,,2025-12-17,1,,,,,ガミ,0
2419,9120005025294,新規,0,2025-12-17,2025-12-17,一般社団法人ひだまり,,その他の設立登記法人,大阪府,大阪市東淀川区,大道南２丁目２３番２２号,,27,114,5330012,,,,,,,2025-12-17,1,,,,,ヒダマリ,0
2425,9120901051988,新規,0,2025-12-17,2025-12-17,株式会社クロダ,,株式会社,大阪府,豊中市,螢池西町２丁目１番１８号,,27,203,5600036,,,,,,,2025-12-17,1,,,,,クロダ,0
2432,9130001081233,新規,0,2025-12-17,2025-12-17,サザン株式会社,,株式会社,京都府,宇治市,大久保町上ノ山５３番地９アイル大久保スクエア３階１号室,,26,204,6110033,,,,,,,2025-12-17,1,,,,,サザン,0
2433,9130003010999,新規,0,2025-12-17,2025-12-17,Ｇｌｏｗｉｎｇ　Ｓｔａｒ　Ｓｔｕｄｉｏ合同会社,,合同会社,京都府,京都市上京区,寺之内通千本西入下る柏清盛町９７０番地２５,,26,102,6028311,,,,,,,2025-12-17,1,,,,,グローイングスタースタジオ,0
2441,9140001141093,新規,0,2025-12-17,2025-12-17,株式会社ｔｅａｍ　ｍｏｒｒｉｓ,,株式会社,兵庫県,芦屋市,三条南町８番１７号,,28,206,6590086,,,,,,,2025-12-17,1,,,,,チームモーリス,0
2443,9140003022977,新規,0,2025-12-17,2025-12-17,喜来楽合同会社,,合同会社,兵庫県,尼崎市,御園町２７番地の３－２１０４号,,28,202,6600861,,,,,,,2025-12-17,1,,,,,シライル,0
2445,9150003003778,新規,0,2025-12-17,2025-12-17,合同会社ｔｅｔｏｒａ,,合同会社,奈良県,生駒市,壱分町１６１番１友喜マンション１０１,,29,209,6300222,,,,,,,2025-12-17,1,,,,,テトラ,0
2448,9160003003686,新規,0,2025-12-17,2025-12-17,明輝合同会社,,合同会社,滋賀県,草津市,東草津２丁目６番１－７号,,25,206,5250033,,,,,,,2025-12-17,1,,,,,メイキ,0
2456,9180001169949,新規,0,2025-12-17,2025-12-17,ノベティカ株式会社,,株式会社,愛知県,名古屋市天白区,植田３丁目１２０５番地仁ビル２０２,,23,116,4680051,,,,,,,2025-12-17,1,,,,,ノベティカ,0
2462,9180301040512,新規,0,2025-12-17,2025-12-17,株式会社応華,,株式会社,愛知県,安城市,安城町天草７５番地,,23,212,4460026,,,,,,,2025-12-17,1,,,,,,0
2465,9190003005300,新規,0,2025-12-17,2025-12-17,合同会社エジソン休憩所,,合同会社,三重県,亀山市,亀田町４６９,,24,210,5190163,,,,,,,2025-12-17,1,,,,,エジソンキュウケイジョ,0
2474,9230001021212,新規,0,2025-12-17,2025-12-17,シマダイ商事株式会社,,株式会社,富山県,富山市,八尾町福島７８１番地１,,16,201,9392376,,,,,,,2025-12-17,1,,,,,シマダイショウジ,0
2477,9240001065927,新規,0,2025-12-17,2025-12-17,株式会社ＬＩＦＥ　ＴＩＭＥ,,株式会社,広島県,広島市中区,上八丁掘５番４－７０３号,,34,101,7300000,,,,,,,2025-12-17,1,,,,,ライフタイム,0
2478,9240001065943,新規,0,2025-12-17,2025-12-17,株式会社三工ホールディングス,,株式会社,広島県,呉市,苗代町１２６番地の３０,,34,202,7370921,,,,,,,2025-12-17,1,,,,,サンコウホールディングス,0
2482,9270001009352,新規,0,2025-12-17,2025-12-17,株式会社田子,,株式会社,鳥取県,米子市,両三柳５３５７番地,,31,202,6830853,,,,,,,2025-12-17,1,,,,,タゴ,0
2494,9290001112443,新規,0,2025-12-17,2025-12-17,株式会社Ｎａｇｏｍｉ．Ｒｉｎｇ,,株式会社,福岡県,みやま市,山川町立山８２２番地１,,40,229,8350101,,,,,,,2025-12-17,1,,,,,ナゴミリング,0
2495,9290001112550,新規,0,2025-12-17,2025-12-17,株式会社Ｂ‐ｂｅｉｎｇＨＤ,,株式会社,福岡県,福岡市博多区,博多駅南２丁目１４番８号サウスビル９階,,40,132,8120016,,,,,,,2025-12-17,1,,,,,ビービーイングホールディングス,0
2499,9290005019908,新規,0,2025-12-17,2025-12-17,特定非営利活動法人オルタナティブスクールＫＯＴＥＴＳＵ,,その他の設立登記法人,福岡県,小郡市,大板井１６７番地７,,40,216,8380142,,,,,,,2025-12-17,1,,,,,オルタナティブスクールコテツ,0
2502,9290803005225,新規,0,2025-12-17,2025-12-17,合同会社おおはた,,合同会社,福岡県,北九州市小倉北区,神岳２丁目７－１１－２０２,,40,106,8020045,,,,,,,2025-12-17,1,,,,,オオハタ,0
2510,9320003004858,新規,0,2025-12-17,2025-12-17,合同会社ＳＡＩＫＩ,,合同会社,大分県,臼杵市,大字野田２５１番地,,44,206,8750062,,,,,,,2025-12-17,1,,,,,サイキ,0
2511,9330001033825,新規,0,2025-12-17,2025-12-17,株式会社ＬＩＮＫＳ,,株式会社,熊本県,熊本市中央区,桜町３番３０－８０９号,,43,101,8600805,,,,,,,2025-12-17,1,,,,,リンクス,0
2512,9330001033841,新規,0,2025-12-17,2025-12-17,株式会社鳥将,,株式会社,熊本県,熊本市中央区,花畑町１１－３３蔵ビル１Ｆ,,43,101,8600806,,,,,,,2025-12-17,1,,,,,トリマサ,0
2515,9340001027842,新規,0,2025-12-17,2025-12-17,株式会社基歩測建,,株式会社,鹿児島県,鹿児島市,宇宿１丁目１４番２８－４０５号,,46,201,8900073,,,,,,,2025-12-17,1,,,,,キフソッケン,0
2518,9350001019847,新規,0,2025-12-17,2025-12-17,ヤマヨシグローバル株式会社,,株式会社,宮崎県,都城市,早水町３号１番地２,,45,202,8850016,,,,,,,2025-12-17,1,,,,,ヤマヨシグローバル,0
2523,9360001036148,新規,0,2025-12-17,2025-12-17,株式会社マルユウ鋼業,,株式会社,沖縄県,中頭郡中城村,字新垣１６８５番地１,,47,328,9012422,,,,,,,2025-12-17,1,,,,,マルユウコウギョウ,0
2524,9360003015496,新規,0,2025-12-17,2025-12-17,合同会社Ｃｏｔｏ’ｓ,,合同会社,沖縄県,那覇市,曙３丁目１１－２６,,47,201,9000002,,,,,,,2025-12-17,1,,,,,コトス,0
2526,9370003007427,新規,0,2025-12-17,2025-12-17,Ｊ＆Ｐ合同会社,,合同会社,宮城県,仙台市太白区,富沢３丁目２０番４６－３０７号,,04,104,9820032,,,,,,,2025-12-17,1,,,,,ジェイアンドピー,0
2528,9390003002475,新規,0,2025-12-17,2025-12-17,ライク合同会社,,合同会社,山形県,山形市,みはらしの丘１丁目３３番地４,,06,201,9902317,,,,,,,2025-12-17,1,,,,,ライク,0
2532,9400001017250,新規,0,2025-12-17,2025-12-17,株式会社招福ファーム,,株式会社,岩手県,九戸郡軽米町,大字上舘第２６地割２１番地３,,03,501,0286301,,,,,,,2025-12-17,1,,,,,ショウフクファーム,0
2534,9420001019369,新規,0,2025-12-17,2025-12-17,ＮＥＯ　ＨＯＫＵＳＥＩ株式会社,,株式会社,青森県,弘前市,大字新寺町６２番地１,,02,202,0368214,,,,,,,2025-12-17,1,,,,,ネオホクセイ,0
2540,9430003018426,新規,0,2025-12-17,2025-12-17,合同会社オキフ,,合同会社,北海道,札幌市南区,澄川四条１１丁目８番１２号,,01,106,0050004,,,,,,,2025-12-17,1,,,,,オキフ,0
2541,9430003018434,新規,0,2025-12-17,2025-12-17,合同会社広宣商事,,合同会社,北海道,札幌市手稲区,西宮の沢三条１丁目１０番１号,,01,109,0060003,,,,,,,2025-12-17,1,,,,,コウセンショウジ,0
2543,9460003001081,新規,0,2025-12-17,2025-12-17,合同会社ＡＮＩＳＥ,,合同会社,北海道,釧路市,大楽毛南５丁目６番２１０５号２号棟１０５号室,,01,206,0840915,,,,,,,2025-12-17,1,,,,,アニス,0
2546,9470003003036,新規,0,2025-12-17,2025-12-17,Ｇｏｌｄ　Ｒｏｏｓｔｅｒ合同会社,,合同会社,香川県,高松市,春日町１０３２番地１－２０２号,,37,201,7610101,,,,,,,2025-12-17,1,,,,,ゴールドルースター,0
2549,9500001026679,新規,0,2025-12-17,2025-12-17,株式会社ランバージャック,,株式会社,愛媛県,宇和島市,祝森甲１９７３番地,,38,203,7980078,,,,,,,2025-12-17,1,,,,,ランバージャック,0
2550,9700150133529,新規,0,2025-12-17,2025-12-17,Ｗｕｈａｎ　Ｎａ　Ｅｒ　Ｅｌｅｃｔｒｏｎｉｃ　Ｔｅｃｈｎｏｌｏｇｙ　Ｃｏ．，Ｌｔｄ．,,外国会社等,,,,,,,,Ｈｕｂｅｉｓｈｅｎｇ　Ｗｕｈａｎｓｈｉ　Ｈｏｎｇｓｈａｎｑｕ　Ｈｏｎｇｓｈａｎｊｉｅｄａｏ　Ｌｉｎｇｎａｎｌｕ９ｈａｏ　Ｘｉｎｊｉａｎｊｕｚｈｕｘｉａｎｇｍｕ（Ｚｈｕｏｄａｏｑｕａｎｃｕｎ　Ｃｈｅｎｇｚｈｏｎｇｃｕｎ　ＧａｉｚａｏｅｒｑｉＫ２ｄｉｋｕａｉ）２ｄｏｎｇ／ｄａｎｙｕａｎ４８ｃｅｎｇ２ｈａｏ,,,,,,2025-12-17,1,,,,,ウハンナンエイレクトゥロニックテクノロジーカンパニーリミテッド,0
2551,9700150133578,新規,0,2025-12-17,2025-12-17,ローソン健康保険組合,,その他,東京都,品川区,大崎１丁目１１番２号　ゲートシティ大崎イーストタワー３階,,13,109,1410032,,,,,,,2025-12-17,1,,,,,ローソンケンコウホケンクミアイ,0
