sequenceNumber,corporateNumber,process,correct,updateDate,changeDate,name,nameImageId,kind,prefectureName,cityName,streetNumber,addressImageId,prefectureCode,cityCode,postCode,addressOutside,addressOutsideImageId,closeDate,closeCause,successorCorporateNumber,changeCause,assignmentDate,latest,enName,enPrefectureName,enCityName,enAddressOutside,furigana,hihyoji
26,1010403026284,登記記録の閉鎖等,0,2025-08-01,2025-07-07,初台プロパティ１合同会社,,合同会社,東京都,港区,六本木１丁目６番１号泉ガーデンタワー,,13,103,1060032,,,2025-07-07,清算の結了等,,,2021-10-08,1,,,,,ハツダイプロパティワン,0
32,1010501034528,登記記録の閉鎖等,0,2025-08-01,2025-07-02,株式会社イベント・ハーツ,,株式会社,東京都,台東区,下谷１丁目５番６－６０９号クレストフォルム上野の杜,,13,106,1100004,,,2025-07-02,合併による解散等,1010501029890,令和７年６月３０日東京都台東区下谷一丁目５番６－６０９号クレストフォルム上野の杜株式会社ＦＶＣ（1010501029890）に合併し解散,2015-10-05,1,,,,,イベントハーツ,0
36,1010701030954,登記記録の閉鎖等,0,2025-08-01,2025-07-04,株式会社東京ポケット,,株式会社,東京都,港区,南麻布５丁目１０番２７－１００１号,,13,103,1060047,,,2025-07-04,清算の結了等,,,2015-10-05,1,,,,,トウキョウポケット,0
54,1011101084418,登記記録の閉鎖等,0,2025-08-01,2025-07-01,シー・オー株式会社,,株式会社,東京都,新宿区,新宿１丁目３１番１２号,,13,104,1600022,,,2025-07-01,合併による解散等,8011101077638,令和７年７月１日東京都新宿区新宿一丁目３１番１２号シー・オー投資株式会社（8011101077638）に合併し解散,2018-06-08,1,,,,,シーオー,0
75,1013101004842,登記記録の閉鎖等,0,2025-08-01,2025-07-25,株式会社ヤナギヤ,,株式会社,東京都,西多摩郡瑞穂町,大字箱根ケ崎字松原１４０１番地１,,13,303,1901221,,,2025-07-25,清算の結了等,,,2015-10-05,1,,,,,ヤナギヤ,0
84,1020003022591,登記記録の閉鎖等,0,2025-08-01,2025-07-14,ＧＴＭ合同会社,,合同会社,神奈川県,横浜市港北区,樽町１丁目２２－２０－２１３,,14,109,2220001,,,2025-07-14,清算の結了等,,,2022-10-25,1,,,,,ジーティエム,0
92,1030001118399,登記記録の閉鎖等,0,2025-08-01,2025-07-25,株式会社矢作内装,,株式会社,埼玉県,朝霞市,朝志ケ丘３丁目１１番２３号,,11,227,3510035,,,2025-07-25,清算の結了等,,,2017-02-03,1,,,,,ヤハギナイソウ,0
97,1030002006553,登記記録の閉鎖等,0,2025-08-01,2025-07-28,有限会社島根建材店,,有限会社,埼玉県,さいたま市緑区,大字三室１５６８番地,,11,109,3360911,,,2025-07-28,清算の結了等,,,2015-10-05,1,,,,,シマネケンザイテン,0
103,1040001099779,登記記録の閉鎖等,0,2025-08-01,2025-07-09,株式会社ゆずくる,,株式会社,千葉県,浦安市,美浜３丁目６番２１号,,12,227,2790011,,,2025-07-09,清算の結了等,,,2017-04-18,1,,,,,ユズクル,0
108,1040002090992,登記記録の閉鎖等,0,2025-08-01,2025-07-08,有限会社新屋商店,,有限会社,千葉県,柏市,あかね町１番３３号,,12,217,2770027,,,2025-07-08,清算の結了等,,,2015-10-05,1,,,,,シンヤショウテン,0
111,1060001021253,登記記録の閉鎖等,0,2025-08-01,2025-07-16,株式会社石川セイミツジグ,,株式会社,栃木県,佐野市,下彦間町７９４番地１,,09,204,3270325,,,2025-07-16,清算の結了等,,,2015-10-05,1,,,,,イシカワセイミツジグ,0
112,1060001024256,登記記録の閉鎖等,0,2025-08-01,2025-07-16,株式会社カワコー,,株式会社,栃木県,小山市,西城南１丁目５－９ソレイユ小山１０１,,09,208,3230820,,,2025-07-16,清算の結了等,,,2015-10-05,1,,,,,カワコー,0
117,1080405004323,登記記録の閉鎖等,0,2025-08-01,2025-07-28,一般社団法人梅橋報徳社,,その他の設立登記法人,静岡県,掛川市,梅橋１番地,,22,213,4360034,,,2025-07-28,清算の結了等,,,2015-10-05,1,,,,,ウメバシホウトクシャ,0
120,1090002012042,登記記録の閉鎖等,0,2025-08-01,2025-07-25,三協油業有限会社,,有限会社,山梨県,富士吉田市,下吉田８丁目１９番３０号,,19,202,4030004,,,2025-07-25,清算の結了等,,,2015-10-05,1,,,,,サンキョウユギョウ,0
146,1120101049122,登記記録の閉鎖等,0,2025-08-01,2025-07-18,泉州プリント株式会社,,株式会社,大阪府,和泉市,小田町２丁目３番４０号,,27,219,5940074,,,2025-07-18,清算の結了等,,,2015-10-05,1,,,,,センシュウプリント,0
183,1170001003595,登記記録の閉鎖等,0,2025-08-01,2025-07-31,株式会社ワイエム企画,,株式会社,和歌山県,和歌山市,作事丁１３番地,,30,201,6408276,,,2025-07-31,清算の結了等,,,2015-10-05,1,,,,,ワイエムキカク,0
187,1180001116768,登記記録の閉鎖等,0,2025-08-01,2025-07-09,株式会社ピーアイディ,,株式会社,愛知県,名古屋市東区,泉１丁目１４番２３号,,23,102,4610001,,,2025-07-09,清算の結了等,,,2015-10-05,1,,,,,ピーアイディ,0
188,1180001163629,登記記録の閉鎖等,0,2025-08-01,2025-07-09,ＺＡＤＤ株式会社,,株式会社,愛知県,名古屋市東区,東桜２丁目９番４号,,23,102,4610005,,,2025-07-09,清算の結了等,,,2024-10-15,1,,,,,ザッド,0
193,1180002079329,登記記録の閉鎖等,0,2025-08-01,2025-07-09,有限会社ファッション・バン,,有限会社,愛知県,一宮市,島村字更江８３番地,,23,203,4910121,,,2025-07-09,清算の結了等,,,2015-10-05,1,,,,,ファッションバン,0
200,1180301027649,登記記録の閉鎖等,0,2025-08-01,2025-07-22,鼎盛株式会社,,株式会社,愛知県,西尾市,吉良町吉田桐杭３５番地,,23,213,4440516,,,2025-07-22,清算の結了等,,,2015-10-05,1,,,,,ケンセイ,0
208,1210001014118,登記記録の閉鎖等,0,2025-08-01,2025-07-24,株式会社ハチマツ,,株式会社,福井県,大飯郡おおい町,本郷第１５１号２番地の１４,,18,483,9192111,,,2025-07-24,清算の結了等,,,2015-10-05,1,,,,,ハチマツ,0
209,1220001002757,登記記録の閉鎖等,0,2025-08-01,2025-07-25,株式会社越本鉄工,,株式会社,石川県,金沢市,畝田西２丁目８８番地,,17,201,9200342,,,2025-07-25,清算の結了等,,,2015-10-05,1,,,,,コシモトテッコウ,0
210,1220001004992,登記記録の閉鎖等,0,2025-08-01,2025-07-28,日新産業株式会社,,株式会社,石川県,金沢市,北町乙４５番地２,,17,201,9200055,,,2025-07-28,清算の結了等,,,2015-10-05,1,,,,,,0
213,1220001014851,登記記録の閉鎖等,0,2025-08-01,2025-07-28,株式会社ヤニスアートジャパン,,株式会社,石川県,河北郡津幡町,字太田ろ１７０番地８,,17,361,9290345,,,2025-07-28,清算の結了等,,,2015-10-05,1,,,,,ヤニスアートジャパン,0
220,1240002049325,登記記録の閉鎖等,0,2025-08-01,2025-07-28,有限会社カサミ工業,,有限会社,広島県,安芸郡海田町,栄町３番１４号,,34,304,7360043,,,2025-07-28,清算の結了等,,,2015-10-05,1,,,,,カサミコウギョウ,0
221,1240003002299,登記記録の閉鎖等,0,2025-08-01,2025-07-25,合同会社フレンド,,合同会社,広島県,山県郡安芸太田町,大字上殿２１３０－２,,34,368,7313664,,,2025-07-25,清算の結了等,,,2015-10-05,1,,,,,フレンド,0
223,1250002015144,登記記録の閉鎖等,0,2025-08-01,2025-07-16,有限会社ヌーボー倶楽部,,有限会社,山口県,周南市,大内町７番３０号,,35,215,7450824,,,2025-07-16,清算の結了等,,,2015-10-05,1,,,,,ヌーボークラブ,0
227,1280001001010,登記記録の閉鎖等,0,2025-08-01,2025-07-31,株式会社オダチ,,株式会社,島根県,松江市,矢田町２５０番地１０,,32,201,6900021,,,2025-07-31,清算の結了等,,,2015-10-05,1,,,,,オダチ,0
256,1380001034553,登記記録の閉鎖等,0,2025-08-01,2025-07-08,ＳＫ株式会社,,株式会社,福島県,いわき市,泉町５丁目６番地の１０フィオーレ・ド・メゾン１０１号室,,07,204,9718185,,,2025-07-08,清算の結了等,,,2024-05-22,1,,,,,エスケー,0
259,1400002006755,登記記録の閉鎖等,0,2025-08-01,2025-07-10,有限会社小田商事,,有限会社,岩手県,盛岡市,本宮２丁目３４番２９号,,03,201,0200866,,,2025-07-10,清算の結了等,,,2015-10-05,1,,,,,オダショウジ,0
263,1420001014699,登記記録の閉鎖等,0,2025-08-01,2025-07-17,株式会社坂本電気,,株式会社,青森県,青森市,幸畑４丁目１２番１１号,,02,201,0300943,,,2025-07-17,清算の結了等,,,2015-10-05,1,,,,,サカモトデンキ,0
273,1470001001841,登記記録の閉鎖等,0,2025-08-01,2025-07-30,四国コンピューターサービス株式会社,,株式会社,香川県,高松市,国分寺町新居１７６１番地,,37,201,7690101,,,2025-07-30,清算の結了等,,,2015-10-05,1,,,,,シコクコンピュータサービスー,0
274,1470001019124,登記記録の閉鎖等,0,2025-08-01,2025-07-28,株式会社東亜梱包,,株式会社,香川県,綾歌郡宇多津町,２６２８番地８９２サンハイツ宇多津８０６,,37,386,7690210,,,2025-07-28,清算の結了等,,,2022-06-21,1,,,,,トウアコンポウ,0
279,2010001143927,登記記録の閉鎖等,0,2025-08-01,2025-07-03,株式会社アイ・エム・ユー,,株式会社,東京都,中央区,京橋２丁目８番１号八重洲中央ビルディング３Ｆ,,13,102,1040031,,,2025-07-03,清算の結了等,,,2015-10-05,1,,,,,アイエムユー,0
285,2010002004269,登記記録の閉鎖等,0,2025-08-01,2025-06-24,有限会社栃木家政婦紹介所,,有限会社,東京都,文京区,本駒込３丁目１１番９号,,13,105,1130021,,,2025-06-24,清算の結了等,,,2015-10-05,1,,,,,トチギカセイフショウカイジョ,0
286,2010003034240,登記記録の閉鎖等,0,2025-08-01,2025-07-03,津軽ＡＨ合同会社,,合同会社,東京都,千代田区,大手町１丁目５番１号,,13,101,1000004,,,2025-07-03,清算の結了等,,,2021-02-22,1,,,,,ツガルエーエイチ,0
291,2010403022621,登記記録の閉鎖等,0,2025-08-01,2025-07-07,水天宮オフィス２合同会社,,合同会社,東京都,港区,六本木１丁目６番１号泉ガーデンタワー,,13,103,1060032,,,2025-07-07,清算の結了等,,,2020-03-11,1,,,,,スイテングウオフィスツー,0
292,2010405020227,登記記録の閉鎖等,0,2025-08-01,2025-07-04,ジャパンインフラホールディングス１４号一般社団法人,,その他の設立登記法人,東京都,港区,元赤坂１丁目１番７号,,13,103,1070051,,,2025-07-04,清算の結了等,,,2021-09-16,1,,,,,ジャパンインフラホールディングスジュウヨンゴウ,0
294,2010601056157,登記記録の閉鎖等,0,2025-08-01,2025-07-11,株式会社Ｔｈｒｅｅｗｅｌｌ　Ｉｎｎｏｖａｔｉｏｎ,,株式会社,東京都,港区,赤坂４丁目１３番５号赤坂オフィスハイツ１３５,,13,103,1070052,,,2025-07-11,清算の結了等,,,2019-09-26,1,,,,,スリーウェルイノベーション,0
315,2011101084417,登記記録の閉鎖等,0,2025-08-01,2025-07-01,ＡＢＣ株式会社,,株式会社,東京都,新宿区,新宿１丁目３１番１２号,,13,104,1600022,,,2025-07-01,合併による解散等,5011101077731,令和７年７月１日東京都新宿区新宿一丁目３１番１２号ＡＢＣ投資株式会社（5011101077731）に合併し解散,2018-06-08,1,,,,,エービーシー,0
331,2012302004114,登記記録の閉鎖等,0,2025-08-01,2025-07-31,有限会社プリメロ企画,,有限会社,東京都,町田市,忠生２丁目２番地５,,13,209,1940035,,,2025-07-31,清算の結了等,,,2015-10-05,1,,,,,プリメロキカク,0
356,2030001071093,登記記録の閉鎖等,0,2025-08-01,2025-07-28,ユニレーベル株式会社,,株式会社,埼玉県,東松山市,大字上唐子１４３５番地,,11,212,3550077,,,2025-07-28,清算の結了等,,,2015-10-05,1,,,,,ユニレーベル,0
370,2030002064063,登記記録の閉鎖等,0,2025-08-01,2025-07-25,有限会社片桐工務店,,有限会社,埼玉県,和光市,南２丁目１番１２号５０６,,11,229,3510104,,,2025-07-25,清算の結了等,,,2015-10-05,1,,,,,,0
380,2050003004818,登記記録の閉鎖等,0,2025-08-01,2025-07-17,合同会社ＦＤＫ,,合同会社,茨城県,つくば市,小野崎１４７－１,,08,220,3050034,,,2025-07-17,清算の結了等,,,2019-09-04,1,,,,,エフディーケイ,0
384,2060002000057,登記記録の閉鎖等,0,2025-08-01,2025-07-18,有限会社アースマネジメント,,有限会社,栃木県,宇都宮市,白沢町９２８番地６,,09,201,3291102,,,2025-07-18,清算の結了等,,,2015-10-05,1,,,,,アースマネジメント,0
386,2070001031960,登記記録の閉鎖等,0,2025-08-01,2025-07-25,中信国際ビジネス株式会社,,株式会社,群馬県,高崎市,井野町３０７－３,,10,202,3700004,,,2025-07-25,清算の結了等,,,2016-03-17,1,,,,,ナカノブコクサイビジネス,0
393,2090002006992,登記記録の閉鎖等,0,2025-08-01,2025-07-25,コタリダイヤモンド有限会社,,有限会社,山梨県,甲府市,住吉５丁目３番１７号ＪＩ甲府第一マンション２０２号,00068862,19,201,4000851,,,2025-07-25,清算の結了等,,,2015-10-05,1,,,,,コタリダイヤモンド,0
397,2120001203026,登記記録の閉鎖等,0,2025-08-01,2025-07-07,ＥＮＥＲＴＯＰＩＡ　ＪＡＰＡＮ株式会社,,株式会社,東京都,港区,東麻布１丁目２３番５号ＰＭＣビル２Ｆ,,13,103,1060044,,,2025-07-07,清算の結了等,,,2017-01-16,1,,,,,エネルトピアジャパン,0
398,2120001238823,登記記録の閉鎖等,0,2025-08-01,2025-07-24,西日本地域共創株式会社,,株式会社,大阪府,大阪市中央区,淡路町３丁目６番３号御堂筋ＭＴＲビル１２階,,27,128,5410047,,,2025-07-24,清算の結了等,,,2021-07-07,1,,,,,ニシニホンチイキキョウソウ,0
409,2120003022242,登記記録の閉鎖等,0,2025-08-01,2025-07-23,Ｔ＆Ｔ合同会社,,合同会社,大阪府,大阪市西成区,天下茶屋２丁目６番３６－２０９号,,27,122,5570014,,,2025-07-23,清算の結了等,,,2022-08-08,1,,,,,ティーアンドティー,0
421,2122002002984,登記記録の閉鎖等,0,2025-08-01,2025-07-24,有限会社タニツカプロセス,,有限会社,大阪府,東大阪市,新家１丁目２番２２号,,27,227,5770025,,,2025-07-24,清算の結了等,,,2015-10-05,1,,,,,タニツカプロセス,0
422,2130001010652,登記記録の閉鎖等,0,2025-08-01,2025-07-16,西京冷機株式会社,,株式会社,京都府,京都市南区,久世上久世町７２４番地２,,26,107,6018212,,,2025-07-16,清算の結了等,,,2015-10-05,1,,,,,サイキョウレイキ,0
431,2170001005640,登記記録の閉鎖等,0,2025-08-01,2025-07-31,株式会社岡垣内製作所,,株式会社,和歌山県,海南市,小野田１５６４番地２３,,30,202,6420014,,,2025-07-31,清算の結了等,,,2015-10-05,1,,,,,オカガイトセイサクショ,0
440,2180002042277,登記記録の閉鎖等,0,2025-08-01,2025-07-09,有限会社クラフト,,有限会社,愛知県,名古屋市南区,元塩町１丁目８番地の２０,,23,112,4570823,,,2025-07-09,清算の結了等,,,2015-10-05,1,,,,,クラフト,0
447,2190002015208,登記記録の閉鎖等,0,2025-08-01,2025-07-24,有限会社スペースクリエイト・トピア,,有限会社,三重県,松阪市,嬉野宮野町３２４番地１,,24,204,5152408,,,2025-07-24,清算の結了等,,,2015-10-05,1,,,,,スペースクリエイトトピア,0
452,2220005008601,登記記録の閉鎖等,0,2025-08-01,2025-07-29,一般社団法人加賀みどりの楽校,,その他の設立登記法人,石川県,加賀市,大聖寺瀬越町２３の１９４番地の１,,17,206,9220671,,,2025-07-29,清算の結了等,,,2021-09-30,1,,,,,カガミドリノガッコウ,0
457,2230003000286,登記記録の閉鎖等,0,2025-08-01,2025-07-30,合資会社森井農機,,合資会社,富山県,中新川郡立山町,榎１０番地,,16,323,9300235,,,2025-07-30,清算の結了等,,,2015-10-05,1,,,,,,0
465,2250001016217,登記記録の閉鎖等,0,2025-08-01,2025-07-30,株式会社山中塗装,,株式会社,山口県,下関市,彦島向井町１丁目１０番７号,,35,201,7500084,,,2025-07-30,清算の結了等,,,2016-10-07,1,,,,,,0
480,2290802018721,登記記録の閉鎖等,0,2025-08-01,2025-07-29,有限会社ＧＬＯＢＥ・Ｉ,,有限会社,福岡県,北九州市若松区,青葉台西３丁目２２番１１号,,40,103,8080143,,,2025-07-29,清算の結了等,,,2015-10-05,1,,,,,グローブアイ,0
481,2290802022839,登記記録の閉鎖等,0,2025-08-01,2025-07-29,有限会社協大電気設備商会,,有限会社,福岡県,京都郡苅田町,与原２丁目１番地の２２,,40,621,8000323,,,2025-07-29,清算の結了等,,,2015-10-05,1,,,,,キョウダイデンキセツビショウカイ,0
482,2310001006558,登記記録の閉鎖等,0,2025-08-01,2025-07-24,株式会社サンアート企画,,株式会社,長崎県,佐世保市,日宇町２５６６番地,,42,202,8571151,,,2025-07-24,清算の結了等,,,2025-07-16,1,,,,,サンアートキカク,0
492,2360001016651,登記記録の閉鎖等,0,2025-08-01,2025-07-24,株式会社アップマン,,株式会社,東京都,江戸川区,江戸川２丁目３３番１３号,,13,123,1320013,,,2025-07-24,清算の結了等,,,2015-10-05,1,,,,,アップマン,0
493,2360002016741,登記記録の閉鎖等,0,2025-08-01,2025-07-15,有限会社汎設計工房,,有限会社,沖縄県,浦添市,城間２丁目６番２号,,47,208,9012133,,,2025-07-15,清算の結了等,,,2015-10-05,1,,,,,ハンセッケイコウボウ,0
495,2360005006054,登記記録の閉鎖等,0,2025-08-01,2025-07-14,おきなわ中小企業アクティブ協同組合,,その他の設立登記法人,沖縄県,中頭郡北谷町,字桑江５７５番地５－２Ｆ,,47,326,9040103,,,2025-07-14,清算の結了等,,,2019-06-17,1,,,,,オキナワチュウショウキギョウアクティブ,0
498,2370001048966,登記記録の閉鎖等,0,2025-08-01,2025-07-10,株式会社えび屋,,株式会社,宮城県,石巻市,わかば１丁目７番地８,,04,202,9860867,,,2025-07-10,清算の結了等,,,2022-08-25,1,,,,,エビヤ,0
501,2380001026277,登記記録の閉鎖等,0,2025-08-01,2025-07-09,株式会社近藤サイディング,,株式会社,福島県,郡山市,鶴見坦１丁目７番２２号,,07,203,9638861,,,2025-07-09,清算の結了等,,,2015-12-22,1,,,,,コンドウサイディング,0
503,2380005005590,登記記録の閉鎖等,0,2025-08-01,2025-07-07,医療法人にほ小児科医院,,その他の設立登記法人,福島県,岩瀬郡鏡石町,鏡沼２１４番地,,07,342,9690401,,,2025-07-07,清算の結了等,,,2015-10-05,1,,,,,ニホショウニカイイン,0
507,2400002011036,登記記録の閉鎖等,0,2025-08-01,2025-07-08,有限会社ホテル峠,,有限会社,岩手県,下閉伊郡山田町,大沢第１３地割５９番地４３,,03,482,0281311,,,2025-07-08,清算の結了等,,,2015-10-05,1,,,,,トウゲ,0
511,2410002008774,登記記録の閉鎖等,0,2025-08-01,2025-07-28,有限会社ヒカリ設備工業,,有限会社,秋田県,大館市,池内字田中７４１番地,,05,204,0170836,,,2025-07-28,清算の結了等,,,2015-10-05,1,,,,,ヒカリセツビコウギョウ,0
536,3010003039024,登記記録の閉鎖等,0,2025-08-01,2025-07-22,合同会社無名,,合同会社,東京都,千代田区,九段南１丁目５番６号りそな九段ビル５階,,13,101,1020074,,,2025-07-22,合併による解散等,3010003021188,令和７年７月２０日東京都千代田区神田和泉町１番地６－１６ヤマトビル４０５梅本合同会社（3010003021188）に合併し解散,2022-11-10,1,mumyo llc,Tokyo,"1-5-6, Kudanminami, Resona Kudan Building 5F, Chiyoda ku",,ムミョウ,0
537,3010003039387,登記記録の閉鎖等,0,2025-08-01,2025-07-03,ＳＢＣＬ合同会社,,合同会社,東京都,中央区,日本橋本町１丁目８番８号,,13,102,1030023,,,2025-07-03,清算の結了等,,,2022-12-28,1,,,,,エスビーシーエル,0
542,3010403022620,登記記録の閉鎖等,0,2025-08-01,2025-07-07,水天宮マネジメント合同会社,,合同会社,東京都,港区,六本木１丁目６番１号泉ガーデンタワー,,13,103,1060032,,,2025-07-07,清算の結了等,,,2020-03-11,1,,,,,スイテングウマネジメント,0
566,3011301017217,登記記録の閉鎖等,0,2025-08-01,2025-07-24,スマイルバンク株式会社,,株式会社,東京都,杉並区,荻窪１丁目４７番７号,,13,115,1670051,,,2025-07-24,清算の結了等,,,2015-10-05,1,,,,,スマイルバンク,0
576,3011802018779,登記記録の閉鎖等,0,2025-08-01,2025-07-28,有限会社守建築,,有限会社,東京都,足立区,北加平町１２番５号,,13,121,1210056,,,2025-07-28,清算の結了等,,,2015-10-05,1,,,,,,0
578,3012403006644,登記記録の閉鎖等,0,2025-08-01,2025-07-17,ファクトリアル合同会社,,合同会社,東京都,調布市,国領町２丁目１６番地４２号,,13,208,1820022,,,2025-07-17,清算の結了等,,,2024-07-03,1,,,,,ファクトリアル,0
583,3013201018831,登記記録の閉鎖等,0,2025-08-01,2025-07-18,株式会社ブルフォンセ,,株式会社,東京都,大田区,田園調布南１番９－２０４号,,13,111,1450076,,,2025-07-18,清算の結了等,,,2015-10-05,1,,,,,ブルフォンセ,0
595,3020002015644,登記記録の閉鎖等,0,2025-08-01,2025-07-15,有限会社ヤギ技研,,有限会社,神奈川県,横浜市青葉区,柿の木台２８番地１０,,14,117,2270048,,,2025-07-15,清算の結了等,,,2015-10-05,1,,,,,ヤギギケン,0
600,3021001060342,登記記録の閉鎖等,0,2025-08-01,2025-07-23,株式会社ゆっくりおいしいねむたいな,,株式会社,神奈川県,三浦郡葉山町,一色１９４０番地の３４,,14,301,2400111,,,2025-07-23,清算の結了等,,,2016-09-29,1,,,,,ユックリオイシイネムタイナ,0
609,3030002073591,登記記録の閉鎖等,0,2025-08-01,2025-07-24,有限会社さわや,,有限会社,埼玉県,川越市,脇田本町１１番地２６,,11,201,3501123,,,2025-07-24,清算の結了等,,,2015-10-05,1,,,,,サワヤ,0
610,3030003021806,登記記録の閉鎖等,0,2025-08-01,2025-06-30,合同会社スズキカク,,合同会社,埼玉県,さいたま市南区,四谷１丁目２番２８－１号,,11,108,3360032,,,2025-06-30,清算の結了等,,,2023-05-24,1,,,,,スズキカク,0
625,3050001050516,登記記録の閉鎖等,0,2025-08-01,2025-07-16,株式会社宮井ホールディングス,,株式会社,茨城県,水戸市,南町１丁目３番３６号志村ビル３Ｆ,,08,201,3100021,,,2025-07-16,清算の結了等,,,2022-01-25,1,,,,,ミヤイホールディングス,0
627,3060001020212,登記記録の閉鎖等,0,2025-08-01,2025-07-17,株式会社アイ・ピー・エフ,,株式会社,栃木県,佐野市,黒袴町４９８番地１７,,09,204,3270813,,,2025-07-17,清算の結了等,,,2015-10-05,1,,,,,アイピーエフ,0
642,3090002000796,登記記録の閉鎖等,0,2025-08-01,2025-07-24,有限会社金座小林肉店,,有限会社,山梨県,甲府市,城東２丁目８番１４号,,19,201,4000861,,,2025-07-24,清算の結了等,,,2015-10-05,1,,,,,キンザコバヤシニクテン,0
643,3090002011380,登記記録の閉鎖等,0,2025-08-01,2025-07-25,有限会社勝沼レンタカー,,有限会社,山梨県,甲州市,勝沼町藤井１０１８番地,,19,213,4091314,,,2025-07-25,清算の結了等,,,2015-10-05,1,,,,,カツヌマレンタカー,0
647,3100002018837,登記記録の閉鎖等,0,2025-08-01,2025-07-29,有限会社ハウジングワークフジマキ,,有限会社,長野県,飯山市,大字照岡２９番地２,,20,213,3892601,,,2025-07-29,清算の結了等,,,2015-10-05,1,,,,,ハイジングワークフジマキ,0
650,3120001069409,登記記録の閉鎖等,0,2025-08-01,2025-07-18,株式会社美装,,株式会社,大阪府,大阪市北区,（大阪市大淀区中津二丁目４番２７－１１０号）,,27,127,5300000,,,2025-07-18,清算の結了等,,,2015-10-05,1,,,,,ミソウ,1
658,3120002008506,登記記録の閉鎖等,0,2025-08-01,2025-07-10,有限会社なかつじ,,有限会社,大阪府,大阪市城東区,野江３丁目１０番１１号,,27,118,5360006,,,2025-07-10,清算の結了等,,,2015-10-05,1,,,,,ナカツジ,0
671,3122002010499,登記記録の閉鎖等,0,2025-08-01,2025-07-14,有限会社キタオ,,有限会社,大阪府,東大阪市,稲葉１丁目１０番３８号,,27,227,5780925,,,2025-07-14,清算の結了等,,,2015-10-05,1,,,,,キタオ,0
676,3140001044624,登記記録の閉鎖等,0,2025-08-01,2025-07-17,株式会社フジタ,,株式会社,兵庫県,加古郡稲美町,草谷９２５番地,,28,381,6751102,,,2025-07-17,清算の結了等,,,2015-10-05,1,,,,,フジタ,0
699,3180003012360,登記記録の閉鎖等,0,2025-08-01,2025-07-09,合資会社重寿司,,合資会社,愛知県,江南市,古知野町本郷１１８番地,,23,217,4838273,,,2025-07-09,清算の結了等,,,2015-10-05,1,,,,,シゲズシ,0
709,3180301038933,登記記録の閉鎖等,0,2025-08-01,2025-07-25,株式会社太田,,株式会社,愛知県,西尾市,米津町種木１３番地１,,23,213,4450802,,,2025-07-25,清算の結了等,,,2024-08-05,1,,,,,オオタ,0
719,3200003004256,登記記録の閉鎖等,0,2025-08-01,2025-07-25,合同会社ヒトハリ,,合同会社,岐阜県,高山市,奥飛騨温泉郷一重ヶ根７８１番地,,21,203,5061432,,,2025-07-25,清算の結了等,,,2018-08-07,1,,,,,ヒトハリ,0
720,3210005010103,登記記録の閉鎖等,0,2025-08-01,2025-07-24,一般社団法人鯖江市一般廃棄物協会,,その他の設立登記法人,福井県,鯖江市,上鯖江１丁目１０番４３号,,18,207,9160055,,,2025-07-24,清算の結了等,,,2023-08-09,1,,,,,サバエシイッパンハイキブツキョウカイ,0
725,3240002010136,登記記録の閉鎖等,0,2025-08-01,2025-07-24,有限会社玉鋳産業,,有限会社,広島県,広島市佐伯区,五月が丘５丁目２１番１７号,,34,108,7315101,,,2025-07-24,清算の結了等,,,2015-10-05,1,,,,,タマチュウサンギョウ,0
750,3380001018595,登記記録の閉鎖等,0,2025-08-01,2025-07-08,株式会社エスケーシーツーリスト,,株式会社,福島県,喜多方市,塩川町字東栄町六丁目２番地１７,,07,208,9693512,,,2025-07-08,清算の結了等,,,2015-10-05,1,,,,,エスケーシーツーリスト,0
752,3380002035664,登記記録の閉鎖等,0,2025-08-01,2025-07-11,有限会社南屋書店,,有限会社,福島県,南会津郡南会津町,田島字中町甲３９４３番地,,07,368,9670004,,,2025-07-11,清算の結了等,,,2015-10-05,1,,,,,ミナミヤショテン,0
757,3420001001654,登記記録の閉鎖等,0,2025-08-01,2025-07-16,日勧輸送株式会社,,株式会社,青森県,青森市,大字八ツ役字上林６番地９,,02,201,0300112,,,2025-07-16,清算の結了等,,,2015-10-05,1,,,,,,0
758,3430001031881,登記記録の閉鎖等,0,2025-08-01,2025-07-11,ティー・ファクトリー株式会社,,株式会社,北海道,札幌市北区,新琴似十一条９丁目６番５号,,01,102,0010911,,,2025-07-11,清算の結了等,,,2015-10-05,1,,,,,ティーファクトリー,0
768,3470002002597,登記記録の閉鎖等,0,2025-08-01,2025-07-29,有限会社アサヒ,,有限会社,香川県,高松市,寺井町１９７番地１,,37,201,7618085,,,2025-07-29,清算の結了等,,,2015-10-05,1,,,,,アサヒ,0
772,3500002009069,登記記録の閉鎖等,0,2025-08-01,2025-07-29,有限会社アドアーク,,有限会社,愛媛県,松山市,北斎院町４３番地４,,38,201,7918031,,,2025-07-29,清算の結了等,,,2015-10-05,1,,,,,アドアーク,0
787,4010101013986,登記記録の閉鎖等,0,2025-08-01,2025-07-30,株式会社スタジオリセス,,株式会社,東京都,八王子市,中野上町４丁目４７番４３号,,13,201,1920041,,,2025-07-30,合併による解散等,6010001112291,令和７年７月１日東京都西東京市西原町一丁目４番１号株式会社デイヴィッドプロダクション（6010001112291）に合併し解散,2019-12-24,1,,,,,スタジオリセス,0
790,4010401112653,登記記録の閉鎖等,0,2025-08-01,2025-07-03,フォセオンテクノロジージャパン株式会社,,株式会社,東京都,文京区,大塚２丁目９番３号住友不動産音羽ビル２階,,13,105,1120012,,,2025-07-03,清算の結了等,,,2015-10-05,1,,,,,フォセオンテクノロジージャパン,0
796,4010405020547,登記記録の閉鎖等,0,2025-08-01,2025-07-04,ＴインフラホールディングスＡ一般社団法人,,その他の設立登記法人,東京都,港区,元赤坂１丁目１番７号,,13,103,1070051,,,2025-07-04,清算の結了等,,,2022-01-04,1,,,,,ティーインフラホールディングスエー,0
799,4010502011317,登記記録の閉鎖等,0,2025-08-01,2025-07-14,村田プロセス有限会社,,有限会社,東京都,台東区,浅草橋３丁目１６番４号,,13,106,1110053,,,2025-07-14,清算の結了等,,,2015-10-05,1,,,,,ムラタプロセス,0
807,4010802015265,登記記録の閉鎖等,0,2025-08-01,2025-07-22,有限会社ヨーコー化成,,有限会社,東京都,大田区,大森南３丁目３２番１５号,,13,111,1430013,,,2025-07-22,清算の結了等,,,2015-10-05,1,,,,,ヨーコーカセイ,0
809,4010901040783,登記記録の閉鎖等,0,2025-08-01,2025-06-30,株式会社ＡＫ,,株式会社,東京都,渋谷区,神宮前６丁目１６番６号高部ビル２Ｆ,,13,113,1500001,,,2025-06-30,清算の結了等,,,2017-09-13,1,,,,,,0
817,4011101077740,登記記録の閉鎖等,0,2025-08-01,2025-07-01,カテリーナ投資株式会社,,株式会社,東京都,新宿区,新宿１丁目３１番１２号,,13,104,1600022,,,2025-07-01,合併による解散等,8011101077638,令和７年７月１日東京都新宿区新宿一丁目３１番１２号シー・オー投資株式会社（8011101077638）に合併し解散,2016-07-26,1,,,,,カテリーナトウシ,0
851,4030001059343,登記記録の閉鎖等,0,2025-08-01,2025-07-24,株式会社住宅サポートシステム,,株式会社,埼玉県,川越市,大字大袋１６１番地３,,11,201,3501168,,,2025-07-24,清算の結了等,,,2015-10-05,1,,,,,ジュウタクサポートシステム,0
858,4030002042521,登記記録の閉鎖等,0,2025-08-01,2025-07-28,有限会社羽生福祉用具,,有限会社,埼玉県,羽生市,西４丁目１９番地４,,11,216,3480054,,,2025-07-28,清算の結了等,,,2015-10-05,1,,,,,ハニュウフクシヨウグ,0
885,4090001008559,登記記録の閉鎖等,0,2025-08-01,2025-07-28,株式会社山崎工業,,株式会社,山梨県,都留市,田野倉４１９番地,,19,204,4020001,,,2025-07-28,清算の結了等,,,2015-10-05,1,,,,,,0
896,4120001035310,登記記録の閉鎖等,0,2025-08-01,2025-07-22,新野田ビル株式会社,,株式会社,大阪府,大阪市福島区,海老江７丁目２番５号,,27,103,5530001,,,2025-07-22,清算の結了等,,,2015-10-05,1,,,,,シンノダビル,0
898,4120001182796,登記記録の閉鎖等,0,2025-08-01,2025-07-22,株式会社レーネ,,株式会社,大阪府,大阪市天王寺区,大道３丁目５番５号,,27,109,5430052,,,2025-07-22,合併による解散等,9120002047201,令和７年７月１４日大阪市中央区瓦屋町二丁目１７番１０号ベルベムラカミ１０１号室株式会社ティ・アンド・エム（9120002047201）に合併し解散,2015-10-05,1,,,,,レーネ,0
947,4180001145756,登記記録の閉鎖等,0,2025-08-01,2025-07-09,株式会社ひまわり,,株式会社,愛知県,名古屋市名東区,文教台２丁目５０１番地,,23,115,4650012,,,2025-07-09,清算の結了等,,,2021-04-20,1,,,,,ヒマワリ,0
961,4200005010532,登記記録の閉鎖等,0,2025-08-01,2025-07-24,下呂プレカット協同組合,,その他の設立登記法人,岐阜県,下呂市,乗政３８５３番地の６,,21,220,5092311,,,2025-07-24,清算の結了等,,,2015-10-05,1,,,,,ゲロプレカット,0
975,4240001043879,登記記録の閉鎖等,0,2025-08-01,2025-07-28,株式会社竹口総建,,株式会社,広島県,福山市,御幸町大字森脇３８９番地１０,,34,207,7200003,,,2025-07-28,清算の結了等,,,2015-10-05,1,,,,,,0
977,4240002043110,登記記録の閉鎖等,0,2025-08-01,2025-07-28,有限会社マチナカ,,有限会社,広島県,福山市,新涯町５丁目１８番３２号,,34,207,7210955,,,2025-07-28,清算の結了等,,,2015-10-05,1,,,,,,0
978,4240002048571,登記記録の閉鎖等,0,2025-08-01,2025-07-24,有限会社三宅管財,,有限会社,広島県,安芸郡海田町,稲荷町７番３２号,,34,304,7360067,,,2025-07-24,清算の結了等,,,2015-10-05,1,,,,,ミヤケカンザイ,0
985,4290001035269,登記記録の閉鎖等,0,2025-08-01,2025-07-02,Ｋ－Ｐｌｕｓ株式会社,,株式会社,福岡県,福岡市南区,大橋１丁目１７－１７,,40,134,8150033,,,2025-07-02,清算の結了等,,,2015-10-05,1,,,,,ケイプラス,0
995,4310002005771,登記記録の閉鎖等,0,2025-08-01,2025-07-25,有限会社山口業務店,,有限会社,長崎県,長崎市,平間町２８５番地９,,42,201,8510136,,,2025-07-25,清算の結了等,,,2015-10-05,1,,,,,ヤマグチギョウムテン,0
1000,4370002016292,登記記録の閉鎖等,0,2025-08-01,2025-07-10,有限会社スリーテック,,有限会社,宮城県,仙台市青葉区,中山吉成１丁目１５番４０号,,04,101,9893203,,,2025-07-10,清算の結了等,,,2015-10-05,1,,,,,スリーテック,0
1005,4390002013866,登記記録の閉鎖等,0,2025-08-01,2025-07-29,有限会社寄清堂印刷,,有限会社,山形県,東置賜郡高畠町,大字一本柳２５１９番地１,,06,381,9920334,,,2025-07-29,合併による解散等,7021001000765,令和７年６月３０日神奈川県藤沢市藤沢４６２番地ＭＥＦＵＬＬ藤沢７階株式会社さんこうどう（7021001000765）に合併し解散,2015-10-05,1,,,,,キセイドウインサツ,0
1037,5010102006947,登記記録の閉鎖等,0,2025-08-01,2025-07-31,有限会社山新,,有限会社,東京都,八王子市,加住町１丁目４１６番地の１,,13,201,1920004,,,2025-07-31,清算の結了等,,,2015-10-05,1,,,,,ヤマシン,0
1045,5010403023864,登記記録の閉鎖等,0,2025-08-01,2025-07-16,合同会社Ｉ－ｓｅｒｖｉｃｅ,,合同会社,茨城県,取手市,新町１丁目９番１リボンとりで５階,,08,217,3020024,,,2025-07-16,清算の結了等,,,2020-10-08,1,,,,,アイサービス,0
1050,5010501038491,登記記録の閉鎖等,0,2025-08-01,2025-07-02,株式会社エビス,,株式会社,東京都,台東区,根岸５丁目７番１０号ＧＴビル１階,,13,106,1100003,,,2025-07-02,清算の結了等,,,2015-10-05,1,,,,,エビス,0
1057,5010801022600,登記記録の閉鎖等,0,2025-08-01,2025-07-22,株式会社ＮＥＯＣＩＴＹ,,株式会社,東京都,大田区,大森北２丁目３番１５号,,13,111,1430016,,,2025-07-22,清算の結了等,,,2015-10-05,1,,,,,ネオシティー,0
1086,5012401012188,登記記録の閉鎖等,0,2025-08-01,2025-07-24,株式会社石井薬局,,株式会社,東京都,三鷹市,上連雀９丁目１番２０号,,13,204,1810012,,,2025-07-24,清算の結了等,,,2015-10-05,1,,,,,イシイヤッキョク,0
1090,5012801000370,登記記録の閉鎖等,0,2025-08-01,2025-07-11,菊屋ビルディング株式会社,,株式会社,東京都,立川市,曙町２丁目９番１号,00058594,13,202,1900012,,,2025-07-11,清算の結了等,,,2015-10-05,1,,,,,キクヤビルディング,0
1107,5020002102309,登記記録の閉鎖等,0,2025-08-01,2025-07-15,ウサくま有限会社,,有限会社,神奈川県,川崎市宮前区,小台１丁目７番地３,,14,136,2160007,,,2025-07-15,清算の結了等,,,2015-10-05,1,,,,,ウサクマ,0
1116,5021002060612,登記記録の閉鎖等,0,2025-08-01,2025-07-17,有限会社仲手川印刷,,有限会社,神奈川県,中郡大磯町,西小磯２２１番地の１,,14,341,2550005,,,2025-07-17,清算の結了等,,,2015-10-05,1,,,,,ナカテガワインサツ,0
1118,5030001072023,登記記録の閉鎖等,0,2025-08-01,2025-07-28,株式会社創電エンジニアリング,,株式会社,埼玉県,東松山市,大字田木８１９番地３,,11,212,3550053,,,2025-07-28,清算の結了等,,,2015-10-05,1,,,,,ソウデンエンジニアリング,0
1127,5040001004958,登記記録の閉鎖等,0,2025-08-01,2025-07-01,ツーシックスジャパン株式会社,,株式会社,東京都,渋谷区,代々木２丁目１番１号新宿マインズタワー２６階,,13,113,1510053,,,2025-07-01,合併による解散等,2010601024774,令和７年７月１日東京都渋谷区代々木二丁目１番１号コヒレント・ジャパン株式会社（2010601024774）に合併し解散,2015-10-05,1,,,,,ツーシックスジャパン,0
1130,5040001099949,登記記録の閉鎖等,0,2025-08-01,2025-07-09,株式会社たなのき,,株式会社,千葉県,千葉市緑区,誉田町２丁目１９番地１６,,12,105,2660005,,,2025-07-09,清算の結了等,,,2017-04-28,1,,,,,タナノキ,0
1149,5090001016767,登記記録の閉鎖等,0,2025-08-01,2025-07-25,株式会社ＧＥＮＥ,,株式会社,山梨県,甲斐市,龍地２２５４番地４,,19,210,4000104,,,2025-07-25,清算の結了等,,,2020-12-21,1,,,,,ジーン,0
1161,5120001218938,登記記録の閉鎖等,0,2025-08-01,2025-07-24,ディーエスイー株式会社,,株式会社,大阪府,大阪市西区,新町３丁目８番１８号８０１,,27,106,5500013,,,2025-07-24,清算の結了等,,,2019-02-12,1,,,,,ディーエスイー,0
1171,5120002056453,登記記録の閉鎖等,0,2025-08-01,2025-07-10,有限会社エフ・レコメンド,,有限会社,大阪府,大阪市浪速区,元町１丁目５番７号ナンバプラザビル４階,,27,111,5560016,,,2025-07-10,清算の結了等,,,2015-10-05,1,,,,,,0
1185,5122001006760,登記記録の閉鎖等,0,2025-08-01,2025-07-16,株式会社マサミデンキ,,株式会社,大阪府,東大阪市,森河内西２丁目２２番３号,,27,227,5770061,,,2025-07-16,清算の結了等,,,2015-10-05,1,,,,,マサミデンキ,0
1192,5130002007042,登記記録の閉鎖等,0,2025-08-01,2025-07-28,有限会社ゲイシャインターネット,,有限会社,京都府,京都市下京区,中堂寺粟田町９３番地京都リサーチパークサイエンスセンタービル４号館,,26,106,6008815,,,2025-07-28,合併による解散等,7130001018427,令和７年７月２２日京都市下京区中堂寺粟田町９３番地京都リサーチパークサイエンスセンタービル４号館ＧＭＯネットアイアールディー株式会社（7130001018427）に合併し解散,2015-10-05,1,,,,,ゲイシャインターネット,0
1203,5180001103382,登記記録の閉鎖等,0,2025-08-01,2025-07-28,株式会社シーオーグ,,株式会社,岐阜県,岐阜市,安良田町１丁目１８番地１,,21,201,5008401,,,2025-07-28,清算の結了等,,,2015-10-05,1,,,,,シーオーグ,0
1208,5180001143866,登記記録の閉鎖等,0,2025-08-01,2025-07-09,株式会社アド・マン仙台,,株式会社,愛知県,津島市,神守町字中田面７６番地１,,23,208,4960005,,,2025-07-09,清算の結了等,,,2020-12-04,1,,,,,アドマンセンダイ,0
1219,5190001003128,登記記録の閉鎖等,0,2025-08-01,2025-07-22,株式会社猪の倉,,株式会社,三重県,津市,白山町佐田２５６２番地１,,24,201,5152621,,,2025-07-22,清算の結了等,,,2015-10-05,1,,,,,,0
1224,5190002006451,登記記録の閉鎖等,0,2025-08-01,2025-07-24,有限会社新和工業,,有限会社,三重県,鈴鹿市,長太栄町４丁目２番２５号,,24,207,5130043,,,2025-07-24,清算の結了等,,,2015-10-05,1,,,,,シンワコウギョウ,0
1225,5190003003877,登記記録の閉鎖等,0,2025-08-01,2025-07-24,合同会社ＴＥＳＯＲＯ,,合同会社,三重県,四日市市,富田栄町６７‐１ローレルコートライオンズ四日市富田１４０１,,24,202,5108025,,,2025-07-24,清算の結了等,,,2022-01-19,1,,,,,テゾーロ,0
1226,5200001033362,登記記録の閉鎖等,0,2025-08-01,2025-07-28,飛騨東遠開発株式会社,,株式会社,岐阜県,飛騨市,古川町数河８０番地１,,21,217,5094201,,,2025-07-28,清算の結了等,,,2016-10-28,1,,,,,ヒダトウエンカイハツ,0
1235,5230002008773,登記記録の閉鎖等,0,2025-08-01,2025-07-29,有限会社つじむら,,有限会社,富山県,下新川郡入善町,八幡２５０番地,,16,342,9390615,,,2025-07-29,清算の結了等,,,2015-10-05,1,,,,,ツジムラ,0
1239,5240002039363,登記記録の閉鎖等,0,2025-08-01,2025-07-23,有限会社伊藤タイヤサービス,,有限会社,広島県,福山市,緑陽町１丁目３番１０号,,34,207,7200021,,,2025-07-23,清算の結了等,,,2015-10-05,1,,,,,,0
1261,5310002015687,登記記録の閉鎖等,0,2025-08-01,2025-07-25,有限会社山本解体,,有限会社,長崎県,諫早市,土師野尾町１６９５番地,,42,204,8540056,,,2025-07-25,清算の結了等,,,2015-10-05,1,,,,,ヤマモトカイタイ,0
1267,5340003002822,登記記録の閉鎖等,0,2025-08-01,2025-07-15,合同会社Ｓｔａｙｔｕｓ,,合同会社,鹿児島県,鹿児島市,下荒田１丁目７番８号,,46,201,8900056,,,2025-07-15,清算の結了等,,,2019-05-09,1,,,,,ステイタス,0
1273,5370102002720,登記記録の閉鎖等,0,2025-08-01,2025-07-10,オートスタートレーディングカンパニー有限会社,,有限会社,宮城県,白石市,越河平字中谷地１番地１,,04,206,9890112,,,2025-07-10,清算の結了等,,,2015-10-05,1,,,,,オートスタートレーディングカンパニー,0
1280,5420002000645,登記記録の閉鎖等,0,2025-08-01,2025-07-16,有限会社小笠原塗装,,有限会社,青森県,青森市,大字油川字浪返１２４番地２０,,02,201,0380059,,,2025-07-16,清算の結了等,,,2015-10-05,1,,,,,オガサワラトソウ,0
1310,6010005029557,登記記録の閉鎖等,0,2025-08-01,2025-07-02,特定非営利活動法人セミフレッシュアレンジメント協会,,その他の設立登記法人,東京都,新宿区,大京町３１－３ガーラ・プレシャス神宮外苑１００１号室,,13,104,1600015,,,2025-07-02,清算の結了等,,,2019-01-18,1,,,,,セミフレッシュアレンジメントキョウカイ,0
1320,6010405020529,登記記録の閉鎖等,0,2025-08-01,2025-07-04,Ｔインフラホールディングス６号一般社団法人,,その他の設立登記法人,東京都,港区,元赤坂１丁目１番７号,,13,103,1070051,,,2025-07-04,清算の結了等,,,2021-12-20,1,,,,,ティーインフラホールディングスロクゴウ,0
1333,6011001070629,登記記録の閉鎖等,0,2025-08-01,2025-07-28,株式会社ｅ‐ｒｉｚｅ,,株式会社,埼玉県,さいたま市南区,南浦和２丁目１－２－１０３室,,11,108,3360017,,,2025-07-28,清算の結了等,,,2015-10-05,1,,,,,イーライズ,0
1343,6011101090881,登記記録の閉鎖等,0,2025-08-01,2025-07-01,アットイージー株式会社,,株式会社,東京都,新宿区,新宿１丁目３１番１２号,,13,104,1600022,,,2025-07-01,合併による解散等,8011101077638,令和７年７月１日東京都新宿区新宿一丁目３１番１２号シー・オー投資株式会社（8011101077638）に合併し解散,2020-03-30,1,,,,,アットイージー,0
1382,6030001140860,登記記録の閉鎖等,0,2025-08-01,2025-07-28,株式会社ランジ・アディ,,株式会社,埼玉県,朝霞市,本町３丁目５番１３号エゼリア２０３号室,,11,227,3510011,,,2025-07-28,清算の結了等,,,2021-02-22,1,,,,,ランジアディ,0
1394,6040002028261,登記記録の閉鎖等,0,2025-08-01,2025-07-09,有限会社アーネスト,,有限会社,千葉県,船橋市,上山町３丁目５３６番地１０,,12,204,2730046,,,2025-07-09,清算の結了等,,,2015-10-05,1,,,,,アーネスト,0
1405,6080001015447,登記記録の閉鎖等,0,2025-08-01,2025-07-24,株式会社イワデン,,株式会社,静岡県,焼津市,利右衛門５１９番地の３,,22,212,4210212,,,2025-07-24,清算の結了等,,,2015-10-05,1,,,,,イワデン,0
1408,6080002010793,登記記録の閉鎖等,0,2025-08-01,2025-07-23,有限会社とん兵,,有限会社,静岡県,静岡市清水区,小芝町３番４６号,,22,103,4240812,,,2025-07-23,清算の結了等,,,2015-10-05,1,,,,,トンペイ,0
1419,6110005016066,登記記録の閉鎖等,0,2025-08-01,2025-07-09,一般社団法人紙おむつリサイクル推進支援機構佐渡,,その他の設立登記法人,新潟県,佐渡市,吉井本郷５１９番地,,15,224,9521202,,,2025-07-09,清算の結了等,,,2017-03-24,1,,,,,カミオムツリサイクルスイシンシエンキコウサド,0
1428,6120002024467,登記記録の閉鎖等,0,2025-08-01,2025-07-24,有限会社朝菊商事,,有限会社,大阪府,大阪市東淀川区,豊新３丁目２４番３号,,27,114,5330014,,,2025-07-24,清算の結了等,,,2015-10-05,1,,,,,アサギクショウジ,0
1438,6120902013858,登記記録の閉鎖等,0,2025-08-01,2025-07-14,有限会社さわい,,有限会社,大阪府,茨木市,大字泉原９１０番地,,27,211,5680097,,,2025-07-14,清算の結了等,,,2015-10-05,1,,,,,サワイ,0
1450,6160001006982,登記記録の閉鎖等,0,2025-08-01,2025-07-22,樋口株式会社,,株式会社,滋賀県,米原市,多和田１４５１番地,,25,214,5210081,,,2025-07-22,清算の結了等,,,2015-10-05,1,,,,,ヒグチ,0
1458,6180002045722,登記記録の閉鎖等,0,2025-08-01,2025-07-18,須崎サービス有限会社,,有限会社,愛知県,豊田市,太平町七曲１２番地６８３,,23,211,4710057,,,2025-07-18,清算の結了等,,,2015-10-05,1,,,,,スザキサービス,0
1459,6180002074705,登記記録の閉鎖等,0,2025-08-01,2025-07-08,有限会社ドラッグもみじや,,有限会社,愛知県,丹羽郡大口町,下小口３丁目４５番地,,23,361,4800144,,,2025-07-08,清算の結了等,,,2015-10-05,1,,,,,ドラッグモミジヤ,0
1471,6190002000180,登記記録の閉鎖等,0,2025-08-01,2025-07-24,有限会社いはや,,有限会社,三重県,津市,羽所町１１３番地,,24,201,5140009,,,2025-07-24,清算の結了等,,,2015-10-05,1,,,,,,0
1474,6210001019178,登記記録の閉鎖等,0,2025-08-01,2025-07-25,株式会社ＪＥＫ,,株式会社,福井県,福井市,月見４丁目３番２１号,,18,201,9188011,,,2025-07-25,清算の結了等,,,2022-12-08,1,,,,,ジェック,0
1476,6230002006867,登記記録の閉鎖等,0,2025-08-01,2025-07-30,有限会社畠山土木,,有限会社,富山県,富山市,藤の木台２丁目１０５番地,,16,201,9300934,,,2025-07-30,清算の結了等,,,2015-10-05,1,,,,,ハタケヤマドボク,0
1478,6230002012080,登記記録の閉鎖等,0,2025-08-01,2025-07-29,有限会社万葉物産,,有限会社,富山県,高岡市,下黒田８４５番地の９,,16,202,9330852,,,2025-07-29,清算の結了等,,,2015-10-05,1,,,,,マンヨウブッサン,0
1493,6300002008162,登記記録の閉鎖等,0,2025-08-01,2025-07-29,有限会社モータースマエダ,,有限会社,佐賀県,伊万里市,南波多町井手野２６９６番地,,41,205,8480007,,,2025-07-29,清算の結了等,,,2015-10-05,1,,,,,モータースマエダ,0
1494,6320001017831,登記記録の閉鎖等,0,2025-08-01,2025-07-22,株式会社ＫＩＺＵＮＡ大分,,株式会社,大分県,臼杵市,大字臼杵字本町２００番地,,44,206,8750041,,,2025-07-22,清算の結了等,,,2020-07-28,1,,,,,キズナオオイタ,0
1508,6360001020410,登記記録の閉鎖等,0,2025-08-01,2025-07-14,株式会社ＳＹステージ,,株式会社,沖縄県,那覇市,寄宮２丁目３４番２３号ＳＹシリーズ寄宮３階,,47,201,9020064,,,2025-07-14,清算の結了等,,,2016-01-28,1,,,,,エスワイステージ,0
1514,6380001004551,登記記録の閉鎖等,0,2025-08-01,2025-07-10,石橋印刷株式会社,,株式会社,福島県,郡山市,桑野３丁目１６番１１号,,07,203,9638025,,,2025-07-10,清算の結了等,,,2015-10-05,1,,,,,イシバシインサツ,0
1532,6462501000303,登記記録の閉鎖等,0,2025-08-01,2025-07-31,米持建設株式会社,,株式会社,北海道,標津郡標津町,南四条東１丁目４番１号,,01,693,0861654,,,2025-07-31,清算の結了等,,,2015-10-05,1,,,,,ヨネモチケンセツ,0
1533,6470002001794,登記記録の閉鎖等,0,2025-08-01,2025-07-31,有限会社香川こどものとも社,,有限会社,香川県,高松市,木太町３３７５番地１９,,37,201,7600080,,,2025-07-31,清算の結了等,,,2015-10-05,1,,,,,カガワコドモノトモシャ,0
1537,6480005006435,登記記録の閉鎖等,0,2025-08-01,2025-07-29,ＮＰＯ法人花見山心の手紙館,,その他の設立登記法人,徳島県,鳴門市,鳴門町土佐泊浦字大毛２３４番地３５,,36,202,7720053,,,2025-07-29,清算の結了等,,,2015-11-13,1,,,,,ハナミヤマココロノテガミカン,0
1538,6500001009769,登記記録の閉鎖等,0,2025-08-01,2025-07-28,河村産業株式会社,,株式会社,愛媛県,新居浜市,庄内町４丁目７番５２号,,38,205,7920811,,,2025-07-28,清算の結了等,,,2015-10-05,1,,,,,カワムラサンギョウ,0
1539,6500002021368,登記記録の閉鎖等,0,2025-08-01,2025-07-30,有限会社森食料品店,,有限会社,愛媛県,四国中央市,三島中央３丁目１４番１号,,38,213,7990405,,,2025-07-30,清算の結了等,,,2015-10-05,1,,,,,モリショクリョウヒンテン,0
1569,7010405019124,登記記録の閉鎖等,0,2025-08-01,2025-07-17,税理士法人エムズ・インターナショナル,,その他の設立登記法人,東京都,港区,六本木２丁目２番６号六本木福吉町ビル７Ｆ,,13,103,1060032,,,2025-07-17,清算の結了等,,,2020-09-28,1,,,,,エムズインターナショナル,0
1598,7012701011243,登記記録の閉鎖等,0,2025-08-01,2025-07-22,株式会社ひらと,,株式会社,東京都,小平市,美園町１丁目２３番９号,,13,211,1870041,,,2025-07-22,清算の結了等,,,2015-10-05,1,,,,,ヒラト,0
1609,7020001128550,登記記録の閉鎖等,0,2025-08-01,2025-07-15,株式会社ｗａｋｕ－ｒａｂａ,,株式会社,神奈川県,横浜市港南区,上永谷４丁目６番１８号,,14,111,2330012,,,2025-07-15,清算の結了等,,,2018-10-31,1,,,,,ワクラーバ,0
1617,7020002070363,登記記録の閉鎖等,0,2025-08-01,2025-07-15,セブンランド企画有限会社,,有限会社,神奈川県,横浜市青葉区,元石川町４０９４番地４,,14,117,2250004,,,2025-07-15,清算の結了等,,,2015-10-05,1,,,,,セブンランドキカク,0
1644,7040002099888,登記記録の閉鎖等,0,2025-08-01,2025-07-08,有限会社山崎設備工業,,有限会社,千葉県,館山市,高井３６７番地,,12,205,2940041,,,2025-07-08,清算の結了等,,,2015-10-05,1,,,,,ヤマザキセツビコウギョウ,0
1694,7122001033407,登記記録の閉鎖等,0,2025-08-01,2025-07-17,株式会社ＧＡＳＥＸＩＴ,,株式会社,大阪府,東大阪市,本庄２丁目３番７号,,27,227,5780953,,,2025-07-17,清算の結了等,,,2020-02-07,1,"GASEXIT CO.,LTD.",Osaka,"2-3-7, Honjyo, Higashiosaka shi",,ガスエグジット,0
1697,7122002002906,登記記録の閉鎖等,0,2025-08-01,2025-07-18,有限会社ダイアナディペ,,有限会社,大阪府,東大阪市,瓜生堂１丁目３番９号,,27,227,5780946,,,2025-07-18,清算の結了等,,,2015-10-05,1,,,,,ダイアナディペ,0
1702,7130005012054,登記記録の閉鎖等,0,2025-08-01,2025-07-10,特定非営利活動法人史料データ保存ネットワーク,,その他の設立登記法人,京都府,京都市右京区,太秦京ノ道町６番地の１５,,26,108,6168181,,,2025-07-10,清算の結了等,,,2015-10-05,1,,,,,シリョウデータホゾンネットワーク,0
1707,7140001050874,登記記録の閉鎖等,0,2025-08-01,2025-07-29,株式会社ビーライン,,株式会社,兵庫県,西宮市,山口町名来１２２５番地１,,28,204,6511411,,,2025-07-29,合併による解散等,8340001008694,令和７年７月１日鹿児島県薩摩川内市平佐町４８６０番地株式会社南九州自動車学校（8340001008694）に合併し解散,2015-10-05,1,,,,,ビーライン,0
1713,7140002003071,登記記録の閉鎖等,0,2025-08-01,2025-07-23,有限会社ケーアンドワイ,,有限会社,兵庫県,神戸市灘区,楠丘町６丁目５番１６号,,28,102,6570024,,,2025-07-23,清算の結了等,,,2015-10-05,1,,,,,ケーアンドワイ,0
1728,7180002071008,登記記録の閉鎖等,0,2025-08-01,2025-07-09,有限会社モリヤ,,有限会社,愛知県,小牧市,大字西之島８３８番地２,,23,219,4850077,,,2025-07-09,清算の結了等,,,2015-10-05,1,,,,,モリヤ,0
1740,7200002012223,登記記録の閉鎖等,0,2025-08-01,2025-07-25,有限会社秋山接骨院,,有限会社,岐阜県,大垣市,熊野町５丁目９２番地,,21,202,5030032,,,2025-07-25,清算の結了等,,,2015-10-05,1,,,,,アキヤマセッコツイン,0
1745,7230001020612,登記記録の閉鎖等,0,2025-08-01,2025-07-29,ＴＹＭアプライアンス株式会社,,株式会社,富山県,富山市,四方東野割町１２番地,,16,201,9302243,,,2025-07-29,清算の結了等,,,2024-11-15,1,,,,,,0
1756,7280002000955,登記記録の閉鎖等,0,2025-08-01,2025-07-29,株式会社東歯科商店松江,,株式会社,島根県,松江市,古志原１丁目９番３４号,,32,201,6900012,,,2025-07-29,合併による解散等,4240001009723,令和７年７月２１日広島市南区堀越三丁目４番２２号株式会社東歯科商店（4240001009723）に合併し解散,2015-10-05,1,,,,,,0
1764,7310001018433,登記記録の閉鎖等,0,2025-08-01,2025-07-25,株式会社大福,,株式会社,長崎県,大村市,諏訪２丁目５２１－１将ビル１Ｆ,,42,205,8560024,,,2025-07-25,清算の結了等,,,2023-05-30,1,,,,,,0
1766,7320001003839,登記記録の閉鎖等,0,2025-08-01,2025-07-22,株式会社ワールドオフィス,,株式会社,大分県,大分市,新栄町１番２６号,,44,201,8700919,,,2025-07-22,清算の結了等,,,2015-10-05,1,,,,,ワールドオフィス,0
1780,7390002002354,登記記録の閉鎖等,0,2025-08-01,2025-07-17,有限会社ファクト,,有限会社,山形県,山形市,薬師町２丁目３番７号,,06,201,9900053,,,2025-07-17,清算の結了等,,,2015-10-05,1,,,,,,0
1788,7450001001912,登記記録の閉鎖等,0,2025-08-01,2025-07-29,株式会社茶木,,株式会社,北海道,旭川市,豊岡三条６丁目６番９号,,01,204,0788233,,,2025-07-29,清算の結了等,,,2015-10-05,1,,,,,チャキ,0
1792,7470002007188,登記記録の閉鎖等,0,2025-08-01,2025-07-30,有限会社山根商店,,有限会社,香川県,高松市,兵庫町１番地１７,,37,201,7600024,,,2025-07-30,清算の結了等,,,2015-10-05,1,,,,,,0
1800,7500002008034,登記記録の閉鎖等,0,2025-08-01,2025-07-29,有限会社伊予会計,,有限会社,愛媛県,伊予市,下吾川３８０番地３９,,38,210,7993111,,,2025-07-29,清算の結了等,,,2015-10-05,1,,,,,イヨカイケイ,0
1823,8010002051347,登記記録の閉鎖等,0,2025-08-01,2025-07-03,有限会社ジスタス,,有限会社,東京都,中央区,勝どき６丁目３番１－１０２２号,,13,102,1040054,,,2025-07-03,清算の結了等,,,2015-10-05,1,,,,,ジスタス,0
1834,8010401139569,登記記録の閉鎖等,0,2025-08-01,2025-07-01,Ｍｅｍｂｒ　Ｆｉｔｎｅｓｓ　Ｊａｐａｎ株式会社,,株式会社,東京都,渋谷区,桜丘町２６－１セルリアンタワー１５階,,13,113,1500031,,,2025-07-01,清算の結了等,,,2018-07-11,1,,,,,メンバーフィットネスジャパン,0
1837,8010401155624,登記記録の閉鎖等,0,2025-08-01,2025-07-02,オリコンＮＥＸＴコミュニケーションズ株式会社,,株式会社,東京都,港区,六本木６丁目８番１０号,,13,103,1060032,,,2025-07-02,合併による解散等,4010401051141,令和７年７月１日東京都港区六本木六丁目８番１０号株式会社ｏｒｉｃｏｎ　ＭＥ（4010401051141）に合併し解散,2020-10-08,1,,,,,オリコンネクストコミュニケーションズ,0
1842,8010402004623,登記記録の閉鎖等,0,2025-08-01,2025-07-22,有限会社ケイワイ興産,,有限会社,東京都,大田区,中馬込３丁目１１番６号,,13,111,1430027,,,2025-07-22,清算の結了等,,,2015-10-05,1,,,,,ケイワイコウサン,0
1845,8010403025643,登記記録の閉鎖等,0,2025-08-01,2025-07-04,サンマリノ合同会社,,合同会社,東京都,港区,北青山１丁目３番１号アールキューブ青山３階,,13,103,1070061,,,2025-07-04,清算の結了等,,,2021-07-01,1,,,,,サンマリノ,0
1846,8010403026798,登記記録の閉鎖等,0,2025-08-01,2025-07-04,ＴインフラファンドＡ合同会社,,合同会社,東京都,港区,元赤坂１丁目１番７号,,13,103,1070051,,,2025-07-04,清算の結了等,,,2022-01-04,1,,,,,ティーインフラファンドエー,0
1848,8010702009891,登記記録の閉鎖等,0,2025-08-01,2025-07-24,株式会社ブレイン・ストーム,,株式会社,東京都,品川区,旗の台５丁目１２番４号,,13,109,1420064,,,2025-07-24,清算の結了等,,,2015-10-05,1,,,,,ブレインストーム,0
1871,8011201024291,登記記録の閉鎖等,0,2025-08-01,2025-07-18,芸臻服飾株式会社,,株式会社,東京都,大田区,東海３丁目７番３号,,13,111,1430001,,,2025-07-18,清算の結了等,,,2022-12-14,1,,,,,ゲイシンフクショク,0
1875,8011303001453,登記記録の閉鎖等,0,2025-08-01,2025-07-15,合同会社ＴＡＮＰＯＰＯ,,合同会社,東京都,杉並区,天沼１丁目１２番３号,,13,115,1670032,,,2025-07-15,清算の結了等,,,2015-10-05,1,,,,,タンポポ,0
1882,8011601001048,登記記録の閉鎖等,0,2025-08-01,2025-07-14,株式会社榎本製作所,,株式会社,東京都,練馬区,三原台３丁目１２番７号,,13,120,1770031,,,2025-07-14,清算の結了等,,,2015-10-05,1,,,,,,0
1884,8011602020740,登記記録の閉鎖等,0,2025-08-01,2025-07-30,有限会社３２０,,有限会社,東京都,中野区,江原町２丁目２９番１３号,,13,114,1650023,,,2025-07-30,清算の結了等,,,2015-10-05,1,,,,,サンニーマル,0
1899,8020002007439,登記記録の閉鎖等,0,2025-08-01,2025-07-15,有限会社青木ビルマネージメント,,有限会社,神奈川県,横浜市緑区,三保町１４６７番地６８,,14,113,2260015,,,2025-07-15,清算の結了等,,,2015-10-05,1,,,,,アオキビルマネージメント,0
1930,8050002044215,登記記録の閉鎖等,0,2025-08-01,2025-07-18,有限会社吉岡石材店,,有限会社,茨城県,桜川市,曽根４０３番地,,08,231,3091462,,,2025-07-18,清算の結了等,,,2015-10-05,1,,,,,ヨシオカセキザイテン,0
1942,8100001022827,登記記録の閉鎖等,0,2025-08-01,2025-07-29,よしわ産業株式会社,,株式会社,長野県,飯田市,箕瀬町１丁目２４１８番地１,,20,205,3950054,,,2025-07-29,清算の結了等,,,2015-10-05,1,,,,,ヨシワサンギョウ,0
1943,8110001032065,登記記録の閉鎖等,0,2025-08-01,2025-07-09,株式会社デザインデザイン,,株式会社,新潟県,新潟市中央区,水島町４番１７号興和ビル２階,,15,103,9500904,,,2025-07-09,清算の結了等,,,2017-01-12,1,,,,,デザインデザイン,0
1944,8120001111090,登記記録の閉鎖等,0,2025-08-01,2025-07-04,株式会社ジンブン２１,,株式会社,大阪府,大阪市西成区,南津守７丁目１５番１６号ＫＳＩ内,,27,122,5570063,,,2025-07-04,清算の結了等,,,2015-10-05,1,,,,,ジンブンニジュウイチ,0
1963,8120901044514,登記記録の閉鎖等,0,2025-08-01,2025-07-14,エシカルクリエイト株式会社,,株式会社,大阪府,箕面市,半町２丁目７番２－３,,27,220,5620044,,,2025-07-14,清算の結了等,,,2021-06-18,1,,,,,エシカルクリエイト,0
1976,8130002007592,登記記録の閉鎖等,0,2025-08-01,2025-07-15,有限会社中村光栄堂,,有限会社,京都府,京都市下京区,花屋町通西洞院東入西松屋町５６４番地,,26,106,6008326,,,2025-07-15,清算の結了等,,,2015-10-05,1,,,,,ナカムラコウエイドウ,0
1988,8150001006668,登記記録の閉鎖等,0,2025-08-01,2025-07-30,西田電機株式会社,00042774,株式会社,奈良県,天理市,櫟本町６２３番地,,29,204,6320004,,,2025-07-30,清算の結了等,,,2015-10-05,1,,,,,ニシダデンキ,0
1989,8160002006501,登記記録の閉鎖等,0,2025-08-01,2025-07-09,有限会社弘成,,有限会社,滋賀県,米原市,三吉１１３９番地,,25,214,5210023,,,2025-07-09,清算の結了等,,,2015-10-05,1,,,,,コウセイ,0
2014,8240001023365,登記記録の閉鎖等,0,2025-08-01,2025-07-28,株式会社とがわ,,株式会社,広島県,東広島市,高屋町中島６４１番地３,,34,212,7392125,,,2025-07-28,清算の結了等,,,2015-10-05,1,,,,,トガワ,0
2026,8240005002349,登記記録の閉鎖等,0,2025-08-01,2025-07-30,広島県情報サービス協同組合,,その他の設立登記法人,広島県,広島市東区,光町２丁目６番３１号,,34,102,7320052,,,2025-07-30,清算の結了等,,,2015-10-05,1,,,,,,0
2039,8290002043317,登記記録の閉鎖等,0,2025-08-01,2025-07-07,有限会社甘木自動車,,有限会社,福岡県,朝倉市,来春３６番地の１,,40,228,8380069,,,2025-07-07,清算の結了等,,,2015-10-05,1,,,,,アマギジドウシャ,0
2042,8310005001260,登記記録の閉鎖等,0,2025-08-01,2025-07-25,医療法人清和会塚本歯科医院,,その他の設立登記法人,長崎県,長崎市,銅座町５番７号サイノオビル４Ｆ,,42,201,8500841,,,2025-07-25,清算の結了等,,,2015-10-05,1,,,,,セイワカイツカモトシカイイン,0
2044,8340001022282,登記記録の閉鎖等,0,2025-08-01,2025-07-14,株式会社相互ハウス,,株式会社,鹿児島県,鹿児島市,東開町４番地２３,,46,201,8910115,,,2025-07-14,清算の結了等,,,2019-09-27,1,,,,,ソウゴハウス,0
2047,8340003000889,登記記録の閉鎖等,0,2025-08-01,2025-07-11,合同会社未夢,,合同会社,鹿児島県,指宿市,十町１９７８番地８,,46,210,8910402,,,2025-07-11,清算の結了等,,,2015-10-05,1,,,,,ミユ,0
2053,8370001012371,登記記録の閉鎖等,0,2025-08-01,2025-07-29,株式会社メイクランド東北,,株式会社,宮城県,仙台市若林区,卸町東３丁目３番２０号,,04,103,9840002,,,2025-07-29,合併による解散等,3011101028166,令和７年７月１日東京都新宿区四谷本塩町１４番１号株式会社メイク（3011101028166）に合併し解散,2015-10-05,1,,,,,メイクランドトウホク,0
2056,8370302002022,登記記録の閉鎖等,0,2025-08-01,2025-07-09,有限会社フジメディカル,,有限会社,宮城県,東松島市,矢本字大溜２５番地の１,,04,214,9810503,,,2025-07-09,清算の結了等,,,2015-10-05,1,,,,,フジメディカル,0
2060,8380002009044,登記記録の閉鎖等,0,2025-08-01,2025-07-10,有限会社蔵前リサーチ,,有限会社,福島県,郡山市,安積町笹川字北向２番地の２５,,07,203,9630102,,,2025-07-10,清算の結了等,,,2015-10-05,1,,,,,クラマエリサーチ,0
2062,8390002014712,登記記録の閉鎖等,0,2025-08-01,2025-07-17,ユーワ工業有限会社,,有限会社,山形県,東置賜郡川西町,大字吉田５８０１番地,,06,382,9990214,,,2025-07-17,清算の結了等,,,2015-10-05,1,,,,,ユーワコウギョウ,0
2069,8430001080404,登記記録の閉鎖等,0,2025-08-01,2025-07-11,株式会社エクセルコミュニケーションズ,,株式会社,北海道,登別市,鷲別町６丁目３８番地１,,01,230,0590034,,,2025-07-11,清算の結了等,,,2019-12-06,1,,,,,エクセルコミュニケーションズ,0
2073,8462502000663,登記記録の閉鎖等,0,2025-08-01,2025-07-31,有限会社ホテル楠,,有限会社,北海道,標津郡標津町,南八条西１丁目４番１号,,01,693,0861658,,,2025-07-31,清算の結了等,,,2015-10-05,1,,,,,ホテルクスノキ,0
2097,9010401167841,登記記録の閉鎖等,0,2025-08-01,2025-07-04,株式会社ｉｏ,,株式会社,東京都,港区,南青山５丁目１２番２４号シャトー東洋南青山Ｂ１,,13,103,1070062,,,2025-07-04,清算の結了等,,,2022-06-08,1,,,,,イオ,0
2101,9010403026285,登記記録の閉鎖等,0,2025-08-01,2025-07-07,初台プロパティ２合同会社,,合同会社,東京都,港区,六本木１丁目６番１号泉ガーデンタワー,,13,103,1060032,,,2025-07-07,清算の結了等,,,2021-10-08,1,,,,,ハツダイプロパティツー,0
2102,9010405020542,登記記録の閉鎖等,0,2025-08-01,2025-07-04,ジャパンインフラホールディングス１６号一般社団法人,,その他の設立登記法人,東京都,港区,元赤坂１丁目１番７号,,13,103,1070051,,,2025-07-04,清算の結了等,,,2021-12-28,1,,,,,ジャパンインフラホールディングスジュウロクゴウ,0
2109,9010701017845,登記記録の閉鎖等,0,2025-08-01,2025-07-16,株式会社奥山,,株式会社,東京都,品川区,南品川３丁目６番２５－３１０号,,13,109,1400004,,,2025-07-16,清算の結了等,,,2015-10-05,1,,,,,オクヤマ,0
2114,9010902012678,登記記録の閉鎖等,0,2025-08-01,2025-07-31,廣沢商事有限会社,,有限会社,東京都,世田谷区,若林３丁目３６番１号,,13,112,1540023,,,2025-07-31,清算の結了等,,,2015-10-05,1,,,,,ヒロサワショウジ,0
2121,9011003020455,登記記録の閉鎖等,0,2025-08-01,2025-07-02,ＷＸ　ＣＡＰＩＴＡＬ合同会社,,合同会社,東京都,渋谷区,恵比寿４丁目３番５号７０４号室アークアウトソーシング株式会社内,,13,113,1500013,,,2025-07-02,清算の結了等,,,2024-11-15,1,,,,,ダブリューエックスキャピタル,0
2126,9011101084419,登記記録の閉鎖等,0,2025-08-01,2025-07-01,カテリーナ株式会社,,株式会社,東京都,新宿区,新宿１丁目３１番１２号,,13,104,1600022,,,2025-07-01,合併による解散等,5011101077731,令和７年７月１日東京都新宿区新宿一丁目３１番１２号ＡＢＣ投資株式会社（5011101077731）に合併し解散,2018-06-08,1,,,,,カテリーナ,0
2129,9011201025116,登記記録の閉鎖等,0,2025-08-01,2025-07-30,株式会社あさひキャピタルパートナーズ,,株式会社,東京都,中野区,東中野２丁目１番６号東中野ＮＨビル,,13,114,1640003,,,2025-07-30,清算の結了等,,,2023-12-15,1,,,,,アサヒキャピタルパートナーズ,0
2137,9011801005384,登記記録の閉鎖等,0,2025-08-01,2025-07-28,旭食品株式会社,,株式会社,東京都,足立区,千住旭町４４番３号,,13,121,1200026,,,2025-07-28,清算の結了等,,,2015-10-05,1,,,,,アサヒショクヒン,0
2160,9030001135503,登記記録の閉鎖等,0,2025-08-01,2025-07-28,株式会社エイル・メディカル,,株式会社,埼玉県,比企郡川島町,大字新堀２９５番地５,,11,346,3500134,,,2025-07-28,清算の結了等,,,2020-03-09,1,,,,,エイルメディカル,0
2164,9030002068982,登記記録の閉鎖等,0,2025-08-01,2025-07-25,有限会社中田紙器,,有限会社,埼玉県,春日部市,六軒町１０６番地,,11,214,3440012,,,2025-07-25,清算の結了等,,,2015-10-05,1,,,,,ナカダシキ,0
2171,9040001053381,登記記録の閉鎖等,0,2025-08-01,2025-07-09,株式会社和,,株式会社,千葉県,富津市,青木３丁目５番地８,,12,226,2930012,,,2025-07-09,清算の結了等,,,2015-10-05,1,,,,,ナゴミ,0
2172,9040001139321,登記記録の閉鎖等,0,2025-08-01,2025-07-08,国土総業株式会社,,株式会社,千葉県,千葉市緑区,誉田町２丁目２番地１７１,,12,105,2660005,,,2025-07-08,清算の結了等,,,2025-06-23,1,,,,,コクドソウギョウ,0
2186,9070001011709,登記記録の閉鎖等,0,2025-08-01,2025-07-24,株式会社共栄,,株式会社,群馬県,甘楽郡甘楽町,大字白倉１６４６番地の１,,10,384,3702213,,,2025-07-24,清算の結了等,,,2015-10-05,1,,,,,キョウエイ,0
2187,9080105001134,登記記録の閉鎖等,0,2025-08-01,2025-07-30,特定非営利活動法人フリースクール沼津,,その他の設立登記法人,静岡県,沼津市,西椎路６０３番地の６,,22,203,4100303,,,2025-07-30,清算の結了等,,,2015-10-05,1,,,,,フリースクールヌマヅ,0
2192,9120001036477,登記記録の閉鎖等,0,2025-08-01,2025-07-24,万年繊維株式会社,,株式会社,大阪府,大阪市福島区,鷺洲４丁目２番１号,,27,103,5530002,,,2025-07-24,清算の結了等,,,2015-10-05,1,,,,,マンネンセンイ,0
2208,9120901017469,登記記録の閉鎖等,0,2025-08-01,2025-07-15,株式会社フェニックス,,株式会社,大阪府,高槻市,八丁西町６番１－１０６号,,27,207,5690095,,,2025-07-15,清算の結了等,,,2015-10-05,1,,,,,フェニックス,0
2214,9122002000536,登記記録の閉鎖等,0,2025-08-01,2025-07-17,有限会社井堂鉄工所,,有限会社,大阪府,東大阪市,池島町３丁目１番１２号,,27,227,5798064,,,2025-07-17,清算の結了等,,,2015-10-05,1,,,,,イドウテッコウショ,0
2221,9140001069194,登記記録の閉鎖等,0,2025-08-01,2025-07-25,株式会社聖和建設,,株式会社,兵庫県,西宮市,松籟荘２番３１号,,28,204,6620822,,,2025-07-25,清算の結了等,,,2015-10-05,1,,,,,セイワケンセツ,0
2230,9140002023266,登記記録の閉鎖等,0,2025-08-01,2025-07-22,有限会社タッチ・ミー,,有限会社,兵庫県,神戸市西区,玉津町田中５５０番地の４,,28,111,6512147,,,2025-07-22,清算の結了等,,,2015-10-05,1,,,,,タッチミー,0
2236,9160001008919,登記記録の閉鎖等,0,2025-08-01,2025-07-30,株式会社ユーイング,,株式会社,滋賀県,彦根市,西今町１番地,,25,202,5220054,,,2025-07-30,合併による解散等,4010801014318,令和７年７月１日東京都港区東新橋一丁目９番１号株式会社ＧＥＮＤＡ　ＧｉＧＯ　Ｅｎｔｅｒｔａｉｎｍｅｎｔ（4010801014318）に合併し解散,2015-10-05,1,,,,,ユーイング,0
2238,9160002007151,登記記録の閉鎖等,0,2025-08-01,2025-07-22,有限会社ライノ機械工具,,有限会社,滋賀県,長浜市,元浜町２４番１７号,,25,203,5260059,,,2025-07-22,清算の結了等,,,2015-10-05,1,,,,,ライノキカイコウグ,0
2242,9180001048987,登記記録の閉鎖等,0,2025-08-01,2025-07-29,ニュートラル株式会社,,株式会社,愛知県,名古屋市中区,錦２丁目９番２９号,,23,106,4600003,,,2025-07-29,合併による解散等,5011101093175,令和７年７月１日東京都新宿区西新宿二丁目７番１号株式会社オープンストリームホールディングス（5011101093175）に合併し解散,2015-10-05,1,,,,,ニュートラル,0
2246,9180002085542,登記記録の閉鎖等,0,2025-08-01,2025-07-10,有限会社水野,,有限会社,愛知県,知多郡東浦町,大字森岡字岡田川４８番地,,23,442,4702101,,,2025-07-10,清算の結了等,,,2015-10-05,1,,,,,ミズノ,0
2251,9180301010977,登記記録の閉鎖等,0,2025-08-01,2025-07-18,小林辰次株式会社,,株式会社,愛知県,蒲郡市,竹谷町横井２７番地,,23,214,4430046,,,2025-07-18,清算の結了等,,,2015-10-05,1,,,,,コバヤシタツジ,0
2264,9270001008949,登記記録の閉鎖等,0,2025-08-01,2025-07-30,株式会社ラルーチェ,,株式会社,鳥取県,鳥取市,湖山町北２丁目８３５番地,,31,201,6800941,,,2025-07-30,清算の結了等,,,2024-04-05,1,,,,,ラルーチェ,0
2267,9280003001496,登記記録の閉鎖等,0,2025-08-01,2025-07-04,合同会社天輝,,合同会社,島根県,出雲市,美野町１３０７番地,,32,203,6910073,,,2025-07-04,清算の結了等,,,2021-06-03,1,,,,,,0
2279,9310002009454,登記記録の閉鎖等,0,2025-08-01,2025-07-28,有限会社小栗洋服店,,有限会社,長崎県,佐世保市,上京町７番３号,,42,202,8570872,,,2025-07-28,清算の結了等,,,2015-10-05,1,,,,,オグリヨウフクテン,0
2307,9390001007749,登記記録の閉鎖等,0,2025-08-01,2025-07-17,株式会社二文字屋,,株式会社,山形県,鶴岡市,神明町３番４３号,,06,203,9970811,,,2025-07-17,清算の結了等,,,2015-10-05,1,,,,,ニモンジヤ,0
2326,9470001005323,登記記録の閉鎖等,0,2025-08-01,2025-07-30,株式会社宮西土建,,株式会社,香川県,高松市,香川町大野７９８番地４,,37,201,7611701,,,2025-07-30,清算の結了等,,,2015-10-05,1,,,,,ミヤニシドケン,0
