sequenceNumber,corporateNumber,process,correct,updateDate,changeDate,name,nameImageId,kind,prefectureName,cityName,streetNumber,addressImageId,prefectureCode,cityCode,postCode,addressOutside,addressOutsideImageId,closeDate,closeCause,successorCorporateNumber,changeCause,assignmentDate,latest,enName,enPrefectureName,enCityName,enAddressOutside,furigana,hihyoji
6,1010001255236,新規,0,2025-05-21,2025-05-21,株式会社ＲＮＡ,,株式会社,東京都,中央区,日本橋蛎殻町２丁目１１番２号,,13,102,1030014,,,,,,,2025-05-21,1,,,,,アールエヌエー,0
9,1010003047383,新規,0,2025-05-21,2025-05-21,霧島蓄電所合同会社,,合同会社,東京都,中央区,日本橋２丁目２番２１号スリーエス内,,13,102,1030027,,,,,,,2025-05-21,1,,,,,キリシマチクデンショ,0
14,1010401190405,新規,0,2025-05-21,2025-05-21,株式会社リュクス,,株式会社,東京都,港区,六本木６丁目１７番６号,,13,103,1060032,,,,,,,2025-05-21,1,,,,,リュクス,0
15,1010401190413,新規,0,2025-05-21,2025-05-21,株式会社メディヴァレーノ,,株式会社,東京都,港区,虎ノ門１丁目１番２１号５階,,13,103,1050001,,,,,,,2025-05-21,1,,,,,メディヴァレーノ,0
16,1010401190421,新規,0,2025-05-21,2025-05-21,株式会社ａｎｅｍｏｓ,,株式会社,東京都,港区,南青山４丁目６番５号,,13,103,1070062,,,,,,,2025-05-21,1,,,,,アネモス,0
18,1010403035153,新規,0,2025-05-21,2025-05-21,合同会社白金集団,,合同会社,東京都,港区,六本木３丁目７番１－２８１２号,,13,103,1060032,,,,,,,2025-05-21,1,,,,,プラチナグループ,0
20,1010405024419,新規,0,2025-05-21,2025-05-21,霧島山一般社団法人,,その他の設立登記法人,東京都,港区,六本木１丁目６番１号泉ガーデンタワーＫＰＭＧ税理士法人内,,13,103,1060032,,,,,,,2025-05-21,1,,,,,キリシマヤマ,0
21,1010501054088,新規,0,2025-05-21,2025-05-21,ＳＣＪ株式会社,,株式会社,東京都,台東区,蔵前４丁目１６－６ストーク蔵前Ｍ＆Ｋ４階４１０,,13,106,1110051,,,,,,,2025-05-21,1,,,,,エスシージェ,0
22,1010501054096,新規,0,2025-05-21,2025-05-21,ヨンセル株式会社,,株式会社,東京都,台東区,蔵前４丁目１６－６ストーク蔵前Ｍ＆Ｋ４階４０８,,13,106,1110051,,,,,,,2025-05-21,1,,,,,ヨンセル,0
23,1010501054105,新規,0,2025-05-21,2025-05-21,ＰＨＯＮＰＡＲＵＣＨＹＡ株式会社,,株式会社,東京都,台東区,三ノ輪１丁目９番４号久保木ビル１０１号室,,13,106,1100011,,,,,,,2025-05-21,1,,,,,ポンパラッチャヤ,0
25,1010503007845,新規,0,2025-05-21,2025-05-21,合同会社Ｊｕｍｐ　Ｆｏｒｗａｒｄ　Ｊａｐａｎ,,合同会社,東京都,台東区,浅草３丁目２８番３－６０２号オークマンション,,13,106,1110032,,,,,,,2025-05-21,1,,,,,ジャンプフォワードジャパン,0
26,1010601067320,新規,0,2025-05-21,2025-05-21,株式会社ＴＫＷ,,株式会社,東京都,江東区,塩浜２丁目７番５－２２８号,,13,108,1350043,,,,,,,2025-05-21,1,,,,,ティーケイダヴリュー,0
27,1010603011565,新規,0,2025-05-21,2025-05-21,ＹＨアセット合同会社,,合同会社,東京都,江東区,佐賀２丁目１０番２１－４１６号,,13,108,1350031,,,,,,,2025-05-21,1,,,,,ワイエイチアセット,0
28,1010603011573,新規,0,2025-05-21,2025-05-21,３Ａ合同会社,,合同会社,東京都,墨田区,緑２丁目２１番１７－６０４号,,13,107,1300021,,,,,,,2025-05-21,1,,,,,スリーエー,0
29,1010701047734,新規,0,2025-05-21,2025-05-21,Ｅｘｇｒｏｗｔｈ株式会社,,株式会社,東京都,品川区,西品川１丁目１番１号住友不動産大崎ガーデンタワー９階ＴＵＮＮＥＬＴＯＫＹＯ,,13,109,1410033,,,,,,,2025-05-21,1,,,,,エクスグロース,0
30,1010701047742,新規,0,2025-05-21,2025-05-21,株式会社ｅＰｉｄｅｎｃｅ　ｂａｓｅｄ,,株式会社,東京都,品川区,東品川４丁目５－８－１６１３,,13,109,1400002,,,,,,,2025-05-21,1,,,,,エピデンスベイスド,0
35,1010903009929,新規,0,2025-05-21,2025-05-21,合同会社ＫＵＲＡ,,合同会社,東京都,世田谷区,代田３丁目１６番１４号,,13,112,1550033,,,,,,,2025-05-21,1,,,,,クラ,0
39,1011001169962,新規,0,2025-05-21,2025-05-21,株式会社日本アプリ開発,,株式会社,東京都,渋谷区,道玄坂１丁目１０番８号渋谷道玄坂東急ビル２Ｆ－Ｃ,,13,113,1500043,,,,,,,2025-05-21,1,,,,,ニホンアプリカイハツ,0
47,1011103015866,新規,0,2025-05-21,2025-05-21,合同会社ＴＯＹ　Ｃｏｒｐｏｒａｔｉｏｎ,,合同会社,東京都,新宿区,西新宿３丁目３番１３号西新宿水間ビル２Ｆ,,13,104,1600023,,,,,,,2025-05-21,1,,,,,トイコーポレーション,0
48,1011103015908,新規,0,2025-05-21,2025-05-21,合同会社ＳＰＶ１２,,合同会社,東京都,新宿区,四谷２丁目９番地１５東京ユナイテッド綜合事務所内,,13,104,1600004,,,,,,,2025-05-21,1,,,,,エスピーブイジュウニ,0
49,1011105011450,新規,0,2025-05-21,2025-05-21,一般社団法人ＳＰＶ１２,,その他の設立登記法人,東京都,新宿区,四谷２丁目９番地１５東京ユナイテッド綜合事務所内,,13,104,1600004,,,,,,,2025-05-21,1,,,,,エスピーブイジュウニ,0
52,1011403004692,新規,0,2025-05-21,2025-05-21,合同会社ＴＡＭＥＹＯ,,合同会社,東京都,板橋区,成増４丁目２０－１１,,13,119,1750094,,,,,,,2025-05-21,1,,,,,タメヨ,0
57,1011601028650,新規,0,2025-05-21,2025-05-21,株式会社ＴＡＮＵＫＩ,,株式会社,東京都,練馬区,大泉町３丁目２６番１３号,,13,120,1780062,,,,,,,2025-05-21,1,,,,,タヌキ,0
58,1011803006867,新規,0,2025-05-21,2025-05-21,華誠合同会社,,合同会社,東京都,足立区,皿沼２丁目８番１５号ランドフォレスト足立皿沼Ｉ－２０２号,00139236,13,121,1230862,,,,,,,2025-05-21,1,,,,,カセイ,0
61,1012403007140,新規,0,2025-05-21,2025-05-21,合同会社カワムラ,,合同会社,東京都,小金井市,東町２丁目２０－１４,,13,210,1840011,,,,,,,2025-05-21,1,,,,,カワムラ,0
66,1013303007668,新規,0,2025-05-21,2025-05-21,Ｎｅｘｏｎｏｖａ合同会社,,合同会社,東京都,豊島区,池袋２丁目５６番１‐９０２号,,13,116,1710014,,,,,,,2025-05-21,1,,,,,ネクソノバ,0
67,1013303007676,新規,0,2025-05-21,2025-05-21,合同会社Ｗ,,合同会社,東京都,豊島区,西池袋２丁目３６番１０号,,13,116,1710021,,,,,,,2025-05-21,1,,,,,ダブリュー,0
75,1020001162803,新規,0,2025-05-21,2025-05-21,Ｐｕｂｌｉｃ　Ａｕｔｏ　Ｗｏｒｌｄ　Ｊａｐａｎ株式会社,,株式会社,神奈川県,横浜市都筑区,勝田南２丁目２０番２７号,,14,118,2240036,,,,,,,2025-05-21,1,,,,,パブリックオートワールドジャパン,0
76,1020001162976,新規,0,2025-05-21,2025-05-21,シンスター株式会社,,株式会社,神奈川県,横浜市中区,本牧町２丁目３０４加藤ビル３０２Ｂ,,14,104,2310806,,,,,,,2025-05-21,1,,,,,シンスター,0
80,1020003028523,新規,0,2025-05-21,2025-05-21,リンクスロジ合同会社,,合同会社,神奈川県,横浜市磯子区,中浜町１８―２９,,14,107,2350014,,,,,,,2025-05-21,1,,,,,リンクスロジ,0
89,1021001085283,新規,0,2025-05-21,2025-05-21,Ｙｅｌｌｏｗ　Ｔｉｇｅｒ株式会社,,株式会社,神奈川県,大和市,下鶴間２２８６番地１,,14,213,2420001,,,,,,,2025-05-21,1,,,,,イエロータイガー,0
90,1021003016039,新規,0,2025-05-21,2025-05-21,オクシオン合同会社,,合同会社,神奈川県,相模原市緑区,長竹４３７－４－１階,,14,151,2520154,,,,,,,2025-05-21,1,,,,,オクシオン,0
92,1021005013348,新規,0,2025-05-21,2025-05-21,ＮＰＯ法人ＲＡＩＭ　ＣＨＡＲＩＴＹ,,その他の設立登記法人,神奈川県,相模原市南区,松が枝町３番２１号,,14,153,2520313,,,,,,,2025-05-21,1,,,,,ライムチャリティ,0
93,1021005013372,新規,0,2025-05-21,2025-05-21,特定非営利活動法人ＣＵＲＡＳＣＯＰＩＵＭ,,その他の設立登記法人,神奈川県,足柄上郡大井町,金子４５番地５,,14,362,2580019,,,,,,,2025-05-21,1,,,,,キュラスコーピアム,0
99,1030003026807,新規,0,2025-05-21,2025-05-21,合同会社ブールバード,,合同会社,埼玉県,さいたま市緑区,大字中尾２４０６番地５,,11,109,3360932,,,,,,,2025-05-21,1,,,,,ブールバード,0
106,1040001138636,新規,0,2025-05-21,2025-05-21,株式会社若佐電工,,株式会社,千葉県,松戸市,殿平賀２８７－４,,12,207,2700004,,,,,,,2025-05-21,1,,,,,ワカサデンコウ,0
107,1040001138850,新規,0,2025-05-21,2025-05-21,株式会社テクノグリッド,,株式会社,千葉県,習志野市,谷津５丁目１２番１３号,,12,216,2750026,,,,,,,2025-05-21,1,,,,,テクノグリッド,0
108,1040001138859,新規,0,2025-05-21,2025-05-21,株式会社フカウラエンジニア,,株式会社,千葉県,袖ケ浦市,今井２２２１番地２,,12,229,2990264,,,,,,,2025-05-21,1,,,,,フカウラエンジニア,0
117,1040003027531,新規,0,2025-05-21,2025-05-21,合同会社サトーカンパニー,,合同会社,千葉県,松戸市,松戸新田５８７番地の１アンビシャス新八柱３０２号,,12,207,2702241,,,,,,,2025-05-21,1,,,,,サトーカンパニー,0
118,1040003027606,新規,0,2025-05-21,2025-05-21,合同会社エルストオール,,合同会社,千葉県,八千代市,勝田台１丁目１３－５小泉ビル２Ｆ,,12,221,2760023,,,,,,,2025-05-21,1,,,,,エルストオール,0
126,1050003009289,新規,0,2025-05-21,2025-05-21,合同会社大一大万大吉,,合同会社,茨城県,ひたちなか市,大字田彦６３３番地１,,08,221,3120063,,,,,,,2025-05-21,1,,,,,ダイイチダイマンダイキチ,0
127,1050005013636,新規,0,2025-05-21,2025-05-21,一般社団法人Ｆｕｔｕｒｅ　ｏｆ　Ｏｒｔｈｏｐｔｉｓｔ,,その他の設立登記法人,茨城県,水戸市,元吉田町１０７番地の２,,08,201,3100836,,,,,,,2025-05-21,1,,,,,フューチャーオブオルソプティスト,0
144,1100001038607,新規,0,2025-05-21,2025-05-21,株式会社パカーン,,株式会社,長野県,上水内郡飯綱町,大字牟礼２７３０,,20,590,3891211,,,,,,,2025-05-21,1,,,,,パカーン,0
145,1100003008079,新規,0,2025-05-21,2025-05-21,合同会社やつがね,,合同会社,長野県,茅野市,豊平５８４０番地１,,20,214,3910213,,,,,,,2025-05-21,1,,,,,ヤツガネ,0
146,1110001039273,新規,0,2025-05-21,2025-05-21,株式会社田辺電気,,株式会社,新潟県,燕市,燕２６６番地１,,15,213,9591288,,,,,,,2025-05-21,1,,,,,タナベデンキ,0
147,1110005017234,新規,0,2025-05-21,2025-05-21,医療法人社団ＮＡＳＫ,,その他の設立登記法人,新潟県,新潟市西区,寺尾西５丁目８番６２号,,15,107,9502064,,,,,,,2025-05-21,1,,,,,エヌエーエスケー,0
160,1120001275941,新規,0,2025-05-21,2025-05-21,株式会社Ａｕｖｅｒａ,,株式会社,大阪府,大阪市西区,北堀江２丁目８番１７号,,27,106,5500014,,,,,,,2025-05-21,1,,,,,オーヴェラ,0
161,1120001275958,新規,0,2025-05-21,2025-05-21,蕾吉株式会社,,株式会社,大阪府,大阪市西成区,天下茶屋北１丁目５－１１－２Ｆ８室,,27,122,5570003,,,,,,,2025-05-21,1,,,,,ツボミヨシ,0
162,1120001275974,新規,0,2025-05-21,2025-05-21,株式会社ｐｏｎｏ,,株式会社,大阪府,守口市,南寺方南通１丁目４番４３号,,27,209,5700044,,,,,,,2025-05-21,1,,,,,ポノ,0
163,1120001275982,新規,0,2025-05-21,2025-05-21,徳吉株式会社,00139234,株式会社,大阪府,大阪市平野区,加美北４丁目５番４８－２０１号,,27,126,5470001,,,,,,,2025-05-21,1,,,,,トクヨシ,0
170,1120101071720,新規,0,2025-05-21,2025-05-21,株式会社ＧＯＡＴ,,株式会社,大阪府,堺市西区,神野町２丁２１番２２号パルファン神野２０２,,27,144,5938308,,,,,,,2025-05-21,1,,,,,ゴート,0
172,1120103006468,新規,0,2025-05-21,2025-05-21,合同会社ネストデザイン,,合同会社,大阪府,泉南郡熊取町,小垣内２丁目４９９番地の５,,27,361,5900432,,,,,,,2025-05-21,1,,,,,ネストデザイン,0
181,1130001079680,新規,0,2025-05-21,2025-05-21,株式会社かめもく木工,,株式会社,京都府,京都市北区,衣笠天神森町３番地１,,26,101,6038375,,,,,,,2025-05-21,1,,,,,カメモクモッコウ,0
189,1140001138601,新規,0,2025-05-21,2025-05-21,株式会社ネクサス,,株式会社,兵庫県,丹波篠山市,西岡屋甲２７２番地シャンド・フルーレａｉ２０６,,28,221,6692346,,,,,,,2025-05-21,1,,,,,ネクサス,0
209,1180301039818,新規,0,2025-05-21,2025-05-21,株式会社Ｎｉｃｏ‐Ｙｅｌｌ,,株式会社,愛知県,岡崎市,六名１丁目５番地１４,,23,202,4440856,,,,,,,2025-05-21,1,,,,,ニコエール,0
217,1200003006840,新規,0,2025-05-21,2025-05-21,合同会社セント,,合同会社,岐阜県,高山市,冬頭町４５６番地５,,21,203,5060001,,,,,,,2025-05-21,1,,,,,セント,0
219,1220003004033,新規,0,2025-05-21,2025-05-21,合同会社ＮＥＸＴ金沢,,合同会社,石川県,金沢市,北安江１丁目１４番５号グランデ北安江,,17,201,9200022,,,,,,,2025-05-21,1,,,,,ネクストカナザワ,0
226,1230001020915,新規,0,2025-05-21,2025-05-21,株式会社ＡＭＵ‐Ｔｅｃｈｎｏｌｏｇｉｅｓ,,株式会社,富山県,砺波市,となみ町１４番４号,,16,208,9391387,,,,,,,2025-05-21,1,,,,,アムテクノロジーズ,0
229,1240001064952,新規,0,2025-05-21,2025-05-21,株式会社アシストアグリゲーション,,株式会社,広島県,福山市,駅家町大字万能倉１２９２番地１４,,34,207,7201131,,,,,,,2025-05-21,1,,,,,アシストアグリゲーション,0
233,1240003007216,新規,0,2025-05-21,2025-05-21,三澤合同会社,,合同会社,広島県,広島市西区,南観音７丁目１２番５号,,34,104,7330035,,,,,,,2025-05-21,1,,,,,ミサワ,0
252,1290001110074,新規,0,2025-05-21,2025-05-21,青山総業株式会社,,株式会社,福岡県,太宰府市,青山２丁目４番１１号２０１,,40,221,8180121,,,,,,,2025-05-21,1,,,,,アオヤマソウギョウ,0
253,1290003016872,新規,0,2025-05-21,2025-05-21,合同会社和楽,,合同会社,福岡県,糟屋郡篠栗町,大字乙犬９９７番地１門松駅前イーストサイド７０６号,,40,342,8112412,,,,,,,2025-05-21,1,,,,,ワガク,0
254,1290803005059,新規,0,2025-05-21,2025-05-21,ひかりホームズ合同会社,,合同会社,福岡県,北九州市小倉北区,大田町１番７号,,40,106,8020015,,,,,,,2025-05-21,1,,,,,ヒカリホームズ,0
259,1320001021103,新規,0,2025-05-21,2025-05-21,株式会社ＲＯＯＴＳ,,株式会社,大分県,宇佐市,大字法鏡寺２９０－１ＦＵＪＩＨＩＲＯ．ＢＬＤ．Ｕ２０５,,44,211,8790454,,,,,,,2025-05-21,1,,,,,ルーツ,0
264,1360003014927,新規,0,2025-05-21,2025-05-21,合同会社ＥｌｉｆｅＣ,,合同会社,沖縄県,浦添市,字大平５０４番地マンション長浜１階,,47,208,9012113,,,,,,,2025-05-21,1,,,,,イーライフシー,0
265,1360003014935,新規,0,2025-05-21,2025-05-21,ＡＳＡＨＩ合同会社,,合同会社,沖縄県,名護市,字為又１２１９番地２１４,,47,209,9050005,,,,,,,2025-05-21,1,,,,,アサヒ,0
266,1360005007235,新規,0,2025-05-21,2025-05-21,一般社団法人暁,,その他の設立登記法人,沖縄県,那覇市,おもろまち２丁目１１－３・３Ｆ－Ｂ,,47,201,9000006,,,,,,,2025-05-21,1,,,,,アカツキ,0
269,1370005010964,新規,0,2025-05-21,2025-05-21,行政書士法人森総合事務所,,その他の設立登記法人,宮城県,柴田郡大河原町,字住吉町９番地７,,04,321,9891213,,,,,,,2025-05-21,1,,,,,モリソウゴウジムショ,0
274,1380001035337,新規,0,2025-05-21,2025-05-21,株式会社Ｌｕｃｋｙ　Ｈｏｕｓｅ,,株式会社,福島県,二本松市,岳温泉２丁目６６－２,,07,210,9640074,,,,,,,2025-05-21,1,,,,,ラッキーハウス,0
285,1430001094443,新規,0,2025-05-21,2025-05-21,株式会社ＬＵＸ,,株式会社,北海道,札幌市中央区,南六条西１丁目５番地６・１ビル３Ｆ,,01,101,0640806,,,,,,,2025-05-21,1,,,,,ラックス,0
290,1430003017674,新規,0,2025-05-21,2025-05-21,合同会社アプローチ,,合同会社,北海道,岩見沢市,四条西６丁目８番地２,,01,210,0680024,,,,,,,2025-05-21,1,,,,,アプローチ,0
299,1700150130070,新規,0,2025-05-21,2025-05-21,Ｃｌｅｖｅｒｔｅｃｈ　Ｓ．ｐ．Ａ．,,外国会社等,,,,,,,,ｖｉａ　Ｇ．Ｂｒｏｄｏｌｉｎｉ，１８／Ａ　４２０２３　Ｃａｄｅｌｂｏｓｃｏ　Ｓ．（ＲＥ），Ｉｔａｌｙ,,,,,,2025-05-21,1,,,,,クレバーテツクエスピーエー,0
300,1700150130590,新規,0,2025-05-21,2025-05-21,Ｆｉｅｒａ　Ｃａｐｉｔａｌ　Ａｓｉａ　Ｊａｐａｎ　Ｌｉｍｉｔｅｄ,,外国会社等,東京都,千代田区,丸の内２丁目６番１号　丸の内パークビルｘＬＩＮＫ８階１８号室,,13,101,1000005,中華人民共和国香港特別行政区セントラル、クイーンズ・ロード・セントラル９、ナイン・クイーンズ・ロード・セントラル３２階３２０５－０８,,,,,,2025-05-21,1,,,,,フイエラキヤピタルアジアジヤパンリミテツド,0
305,2010001254823,新規,0,2025-05-21,2025-05-21,株式会社ｇｇｇ,,株式会社,東京都,千代田区,神田神保町２丁目２０番地１７城座ビル３階,,13,101,1010051,,,,,,,2025-05-21,1,,,,,ジージージー,0
306,2010001255152,新規,0,2025-05-21,2025-05-21,株式会社Ｉｎｃｏｕｒａｇｅ,,株式会社,東京都,中央区,銀座１丁目１２番４号Ｎ＆ＥＢＬＤ．６Ｆ,,13,102,1040061,,,,,,,2025-05-21,1,,,,,インカレッジ,0
307,2010001255210,新規,0,2025-05-21,2025-05-21,株式会社ＫＤＳ,,株式会社,東京都,中央区,日本橋室町１丁目１１番１２号日本橋水野ビル７階,,13,102,1030022,,,,,,,2025-05-21,1,,,,,ケーディーエス,0
311,2010005040063,新規,0,2025-05-21,2025-05-21,一般社団法人１７,,その他の設立登記法人,東京都,千代田区,丸の内１丁目４番１号東京共同会計事務所内,,13,101,1000005,,,,,,,2025-05-21,1,,,,,ジュウナナ,0
319,2010401190387,新規,0,2025-05-21,2025-05-21,Ｑｕａｎｔｕｍ　Ｂｒｉｌｌｉａｎｃｅ　Ｊａｐａｎ株式会社,,株式会社,東京都,港区,虎ノ門１丁目１７番１号虎ノ門ヒルズビジネスタワー１５階,,13,103,1050001,,,,,,,2025-05-21,1,,,,,クアンタムブリリアンスジャパン,0
320,2010401190429,新規,0,2025-05-21,2025-05-21,株式会社ＨＩＶＥＬＡＢ,,株式会社,東京都,港区,南青山３丁目１番３６号青山丸竹ビル６Ｆ,,13,103,1070062,,,,,,,2025-05-21,1,,,,,ハイブラボ,0
324,2010403035152,新規,0,2025-05-21,2025-05-21,塩見岳合同会社,,合同会社,東京都,港区,六本木１丁目６番１号泉ガーデンタワーＫＰＭＧ税理士法人内,,13,103,1060032,,,,,,,2025-05-21,1,,,,,シオミダケ,0
325,2010405024343,新規,0,2025-05-21,2025-05-21,一般社団法人地域ＫＹＯＵＳＯＵプロジェクト,,その他の設立登記法人,東京都,港区,北青山１丁目３－３三橋ビル３階,,13,103,1070061,,,,,,,2025-05-21,1,,,,,チイキキョウソウプロジェクト,0
327,2010601067336,新規,0,2025-05-21,2025-05-21,株式会社ＯＮＥ　ＴＥＡＭ　ＪＡＰＡＮ,,株式会社,東京都,墨田区,錦糸１丁目１０－１５－５０１,,13,107,1300013,,,,,,,2025-05-21,1,,,,,ワンチームジャパン,0
328,2010701047733,新規,0,2025-05-21,2025-05-21,ブライトストリームダイナミクス株式会社,,株式会社,東京都,品川区,大井３丁目２４番５号,,13,109,1400014,,,,,,,2025-05-21,1,,,,,ブライトストリームダイナミクス,0
331,2010901057400,新規,0,2025-05-21,2025-05-21,みんなのカメラ株式会社,,株式会社,東京都,世田谷区,瀬田４丁目１５－３６－４０８,,13,112,1580095,,,,,,,2025-05-21,1,,,,,ミンナノカメラ,0
333,2010903009928,新規,0,2025-05-21,2025-05-21,合同会社エールプロジェクト,,合同会社,東京都,世田谷区,成城８丁目２４番３－４０８号,,13,112,1570066,,,,,,,2025-05-21,1,,,,,エールプロジェクト,0
338,2011001169417,新規,0,2025-05-21,2025-05-21,株式会社Ｉｋｏｔａｓ　Ｌａｂｓ,,株式会社,東京都,渋谷区,渋谷２丁目１９－１５宮益坂ビルディング６０９,,13,113,1500002,,,,,,,2025-05-21,1,,,,,イコタスラボ,0
339,2011001169540,新規,0,2025-05-21,2025-05-21,株式会社ＥＴＵＤＥ,,株式会社,東京都,渋谷区,神宮前３丁目３１－１４，８８．ｊｉｎｇｕｍａｅ３０１,,13,113,1500001,,,,,,,2025-05-21,1,,,,,エチュード,0
341,2011003021550,新規,0,2025-05-21,2025-05-21,ＳＳＭソリューションズ合同会社,,合同会社,東京都,目黒区,青葉台３丁目５番４３－４０３号,,13,110,1530042,,,,,,,2025-05-21,1,,,,,,0
346,2011101111781,新規,0,2025-05-21,2025-05-21,株式会社グローオブレストラン,,株式会社,東京都,新宿区,荒木町６番地１荒木町ガーデンズ１０２,,13,104,1600007,,,,,,,2025-05-21,1,,,,,グローオブレストラン,0
348,2011203004702,新規,0,2025-05-21,2025-05-21,合同会社エース,,合同会社,東京都,中野区,中野６丁目３１番１９号,,13,114,1640001,,,,,,,2025-05-21,1,,,,,エース,0
354,2011503006522,新規,0,2025-05-21,2025-05-21,Ｊ＆Ｔ合同会社,,合同会社,東京都,北区,田端４丁目２０番地３号シャーメゾン田端４丁目３０５,,13,117,1140014,,,,,,,2025-05-21,1,,,,,ジェイアンドティ,0
360,2011703004251,新規,0,2025-05-21,2025-05-21,合同会社リヴェルナ,,合同会社,東京都,江戸川区,篠崎町２丁目８番３号,,13,123,1330061,,,,,,,2025-05-21,1,,,,,リヴェルナ,0
363,2011803006866,新規,0,2025-05-21,2025-05-21,合同会社Ｐｏｒｔｅ　Ｂｏｎｈｅｕｒ,,合同会社,東京都,葛飾区,堀切４丁目２７－４,,13,122,1240006,,,,,,,2025-05-21,1,,,,,ポルテボヌール,0
371,2012803003705,新規,0,2025-05-21,2025-05-21,Ｅｌａｎａｒｅ合同会社,,合同会社,東京都,立川市,曙町３丁目１７－３０アートアベニュー立川１－６０４,,13,202,1900012,,,,,,,2025-05-21,1,,,,,エラナーレ,0
380,2020001162802,新規,0,2025-05-21,2025-05-21,辰限株式会社,,株式会社,神奈川県,横浜市瀬谷区,東野４番地４,,14,114,2460012,,,,,,,2025-05-21,1,,,,,シンゲン,0
381,2020001162942,新規,0,2025-05-21,2025-05-21,株式会社Ｆｕｊｉｋｅｎ,,株式会社,神奈川県,横浜市泉区,岡津町３３９番地３,,14,116,2450003,,,,,,,2025-05-21,1,,,,,フジケン,0
383,2020003028464,新規,0,2025-05-21,2025-05-21,スターハウス合同会社,,合同会社,神奈川県,川崎市宮前区,水沢２丁目３番１６－１号,,14,136,2160012,,,,,,,2025-05-21,1,,,,,スターハウス,0
388,2021001085282,新規,0,2025-05-21,2025-05-21,株式会社拓海興業,,株式会社,神奈川県,大和市,上和田１番地４５,,14,213,2420014,,,,,,,2025-05-21,1,,,,,タクミコウギョウ,0
389,2021001085290,新規,0,2025-05-21,2025-05-21,湘南ＨＯＬＤＩＮＧＳ株式会社,,株式会社,神奈川県,平塚市,真田４丁目３１番４３－２０２号,,14,203,2591206,,,,,,,2025-05-21,1,,,,,ショウナンホールディングス,0
391,2021003016038,新規,0,2025-05-21,2025-05-21,ＨＡＮＡ　ＡＵＴＯ　ＴＲＡＤＩＮＧ合同会社,,合同会社,神奈川県,伊勢原市,下谷５１０番地－Ｄ,,14,214,2591123,,,,,,,2025-05-21,1,,,,,ハナオートトレーディング,0
394,2021005013371,新規,0,2025-05-21,2025-05-21,特定非営利活動法人フリースペース一語・一縁,,その他の設立登記法人,神奈川県,厚木市,上依知１５３２番地,,14,212,2430801,,,,,,,2025-05-21,1,,,,,フリースペースイチゴイチエン,0
400,2030001166637,新規,0,2025-05-21,2025-05-21,株式会社ＵＲＵ,,株式会社,埼玉県,越谷市,東越谷３丁目６－３１,,11,222,3430023,,,,,,,2025-05-21,1,,,,,ウル,0
402,2030003026814,新規,0,2025-05-21,2025-05-21,時計の針合同会社,,合同会社,埼玉県,所沢市,星の宮２丁目７―４―２,,11,208,3591127,,,,,,,2025-05-21,1,,,,,トケイノハリ,0
406,2040001138858,新規,0,2025-05-21,2025-05-21,株式会社松柘,,株式会社,千葉県,千葉市中央区,弁天１丁目１５番３号－Ｂ１,,12,101,2600045,,,,,,,2025-05-21,1,,,,,ショウシャ,0
407,2040001138866,新規,0,2025-05-21,2025-05-21,米澤工業株式会社,,株式会社,千葉県,千葉市稲毛区,山王町１２番地３０,,12,103,2630002,,,,,,,2025-05-21,1,,,,,ヨネザワコウギョウ,0
411,2040003027613,新規,0,2025-05-21,2025-05-21,合同会社ツーオンズ,,合同会社,千葉県,松戸市,古ケ崎１丁目３０３３番地の８,,12,207,2710068,,,,,,,2025-05-21,1,,,,,ツーオンズ,0
412,2040003027638,新規,0,2025-05-21,2025-05-21,合同会社ライズ,,合同会社,千葉県,市原市,五井中央東２丁目１５番地４マル新ビル１Ｆ,,12,219,2900054,,,,,,,2025-05-21,1,,,,,ライズ,0
416,2050003009263,新規,0,2025-05-21,2025-05-21,Ｆａｍｉｌｙ　Ｆｕｎｃｔｉｏｎ合同会社,,合同会社,茨城県,龍ケ崎市,松ケ丘１丁目１４番地１２,,08,208,3010853,,,,,,,2025-05-21,1,,,,,ファミリーファンクション,0
417,2050003009288,新規,0,2025-05-21,2025-05-21,＿＿貿易合同会社,00139248,合同会社,茨城県,潮来市,あやめ２丁目２３番９号セントラルコーポＢ２０１号室,,08,223,3112425,,,,,,,2025-05-21,1,,,,,,0
418,2050005013635,新規,0,2025-05-21,2025-05-21,一般社団法人Ｂｅｓｈａ茨城稲敷,,その他の設立登記法人,茨城県,稲敷市,桑山５１１番地,,08,229,3000513,,,,,,,2025-05-21,1,,,,,ビーシャイバラキイナシキ,0
422,2060001038222,新規,0,2025-05-21,2025-05-21,株式会社Ｌｉｌａｓ,,株式会社,栃木県,足利市,大沼田町１１３９番地３,,09,202,3260011,,,,,,,2025-05-21,1,,,,,リラ,0
423,2060003005550,新規,0,2025-05-21,2025-05-21,合同会社ＬＵＮＡ,,合同会社,栃木県,宇都宮市,双葉２丁目１１－２５ソフィアツインリーフ１０５,,09,201,3210164,,,,,,,2025-05-21,1,,,,,ルナ,0
431,2080101025507,新規,0,2025-05-21,2025-05-21,株式会社ＷｉｉＬｉｎｋｓ,,株式会社,静岡県,沼津市,西間門２３５番地の１６,,22,203,4100871,,,,,,,2025-05-21,1,,,,,ウィーリンクス,0
440,2110001039272,新規,0,2025-05-21,2025-05-21,ＴＢＢサポート株式会社,,株式会社,新潟県,上越市,大字土橋１１５４番地１,,15,222,9430821,,,,,,,2025-05-21,1,,,,,ティービービーサポート,0
450,2120001275429,新規,0,2025-05-21,2025-05-21,豊潤株式会社,,株式会社,大阪府,大阪市淀川区,野中北２丁目３番５－１００１号,,27,123,5320034,,,,,,,2025-05-21,1,,,,,ホウジュン,0
451,2120001275841,新規,0,2025-05-21,2025-05-21,ヒアゲ株式会社,,株式会社,大阪府,大阪市西淀川区,柏里２丁目７－２６ラ・ピース塚本５０６号室,,27,113,5550022,,,,,,,2025-05-21,1,,,,,ヒアゲ,0
452,2120001275949,新規,0,2025-05-21,2025-05-21,未来開花株式会社,,株式会社,大阪府,大阪市北区,梅田１丁目１－３大阪駅前第３ビル２９階１－１－１号室,,27,127,5300001,,,,,,,2025-05-21,1,,,,,ミライカイカ,0
453,2120001275957,新規,0,2025-05-21,2025-05-21,株式会社原動驛駅,,株式会社,大阪府,大阪市東成区,深江南２丁目８番８号メゾンホワイティー５０３号室,,27,115,5370002,,,,,,,2025-05-21,1,,,,,ゲンドウヤクエキ,0
454,2120001275965,新規,0,2025-05-21,2025-05-21,株式会社尽心社,,株式会社,大阪府,大阪市中央区,内久宝寺町４丁目４番１号ＭＳＣビル,,27,128,5400013,,,,,,,2025-05-21,1,,,,,ジンシンシャ,0
460,2120101071711,新規,0,2025-05-21,2025-05-21,株式会社ＯＢＴ,,株式会社,大阪府,泉佐野市,上瓦屋８６２番地の１,,27,213,5980001,,,,,,,2025-05-21,1,,,,,オービーティー,0
462,2122001039243,新規,0,2025-05-21,2025-05-21,Ｌ’ＯＩＳＥＡＵ　ＢＬＥＵ株式会社,,株式会社,大阪府,東大阪市,長堂２丁目１６番８号,,27,227,5770056,,,,,,,2025-05-21,1,,,,,ロワゾブルー,0
474,2140001138600,新規,0,2025-05-21,2025-05-21,株式会社ライズ＆プレイ,,株式会社,兵庫県,神戸市中央区,北長狭通３丁目５－１０北長狭通三丁目ビル,,28,110,6500012,,,,,,,2025-05-21,1,,,,,ライズアンドプレイ,0
475,2140001138609,新規,0,2025-05-21,2025-05-21,株式会社プロ・ガードＺ,,株式会社,兵庫県,神戸市中央区,元町通２丁目７番３号Ｙコーストビル７Ｆ,,28,110,6500022,,,,,,,2025-05-21,1,,,,,プロガードゼット,0
476,2140001138625,新規,0,2025-05-21,2025-05-21,株式会社ビオラボ,,株式会社,兵庫県,神戸市中央区,御幸通８丁目１番６号,,28,110,6510087,,,,,,,2025-05-21,1,,,,,ビオラボ,0
477,2140001138633,新規,0,2025-05-21,2025-05-21,株式会社Ｂ＆Ｄ建設,,株式会社,兵庫県,神戸市西区,押部谷町西盛６２２－１,,28,111,6512202,,,,,,,2025-05-21,1,,,,,ビーアンドディーケンセツ,0
479,2140003022091,新規,0,2025-05-21,2025-05-21,合同会社キセキノ,,合同会社,兵庫県,神崎郡神河町,越知１５２番地,,28,446,6792404,,,,,,,2025-05-21,1,,,,,キセキノ,0
481,2150003003611,新規,0,2025-05-21,2025-05-21,合同会社ＴａＹｕＵ,,合同会社,奈良県,北葛城郡広陵町,馬見北５丁目１番１４号,,29,426,6350831,,,,,,,2025-05-21,1,,,,,タユウ,0
482,2160001026761,新規,0,2025-05-21,2025-05-21,株式会社ホーク・ブリッジ,,株式会社,滋賀県,東近江市,春日町３番１５号,,25,213,5270032,,,,,,,2025-05-21,1,,,,,ホークブリッジ,0
524,2290001110081,新規,0,2025-05-21,2025-05-21,株式会社３４３４,,株式会社,福岡県,福岡市南区,大橋１丁目２０－２,,40,134,8150033,,,,,,,2025-05-21,1,,,,,ミホミホ,0
526,2290003016888,新規,0,2025-05-21,2025-05-21,合同会社ＴＯＶＡ,,合同会社,福岡県,福岡市城南区,長尾５丁目１９－２２－３０２,,40,136,8140123,,,,,,,2025-05-21,1,,,,,トーバ,0
535,2360001035239,新規,0,2025-05-21,2025-05-21,株式会社ＮＫデンタルラボ,,株式会社,沖縄県,うるま市,字前原１２３番地,,47,213,9042235,,,,,,,2025-05-21,1,,,,,エヌケイデンタルラボ,0
538,2370001052596,新規,0,2025-05-21,2025-05-21,株式会社アルトラホールディングス,,株式会社,宮城県,仙台市青葉区,本町１丁目９番２号,,04,101,9800014,,,,,,,2025-05-21,1,,,,,アルトラホールディングス,0
547,2380001035328,新規,0,2025-05-21,2025-05-21,株式会社エンドウホールディングス,,株式会社,福島県,郡山市,南１丁目２２番地,,07,203,9630115,,,,,,,2025-05-21,1,,,,,エンドウホールディングス,0
548,2380001035336,新規,0,2025-05-21,2025-05-21,株式会社縁,,株式会社,福島県,田村市,船引町船引字扇田１７０番地１,,07,211,9634312,,,,,,,2025-05-21,1,,,,,エニシ,0
550,2390003002390,新規,0,2025-05-21,2025-05-21,合同会社ＲＫＹ,,合同会社,山形県,米沢市,春日２丁目５番２０号,,06,202,9920044,,,,,,,2025-05-21,1,,,,,アールケイワイ,0
557,2430001094450,新規,0,2025-05-21,2025-05-21,株式会社ＮｏｒｔｈＳｔｒｅａｍ,,株式会社,北海道,樺戸郡新十津川町,字中央３３０－１,,01,432,0731103,,,,,,,2025-05-21,1,,,,,ノースストリーム,0
566,3010001254822,新規,0,2025-05-21,2025-05-21,Ｍ＆Ｒホールディングス株式会社,,株式会社,東京都,千代田区,神田司町２丁目１０番地８,,13,101,1010048,,,,,,,2025-05-21,1,,,,,エムアンドアールホールディングス,0
569,3010003047365,新規,0,2025-05-21,2025-05-21,ＹＯＯ合同会社,,合同会社,東京都,中央区,銀座１丁目１２番４号Ｎ＆Ｅ－ＢＬＤ．６階,,13,102,1040061,,,,,,,2025-05-21,1,,,,,ユー,0
573,3010105002342,新規,0,2025-05-21,2025-05-21,一般社団法人ＨＡＲＭＯＳ,,その他の設立登記法人,東京都,八王子市,大和田町５丁目１９番５号,,13,201,1920045,,,,,,,2025-05-21,1,,,,,ハーモス,0
579,3010401190329,新規,0,2025-05-21,2025-05-21,大鄭門株式会社,,株式会社,東京都,港区,南青山４丁目１６－１１Ｒ・Ｓｑｕａｒｅ南青山２１１,,13,103,1070062,,,,,,,2025-05-21,1,,,,,ダイテイモン,0
580,3010401190378,新規,0,2025-05-21,2025-05-21,株式会社ＲｅＢｅｌｌａ,,株式会社,東京都,港区,北青山１丁目３番１号アールキューブ青山３階,,13,103,1070061,,,,,,,2025-05-21,1,,,,,リベラ,0
581,3010401190394,新規,0,2025-05-21,2025-05-21,株式会社リトルジャイアントジャパン,,株式会社,東京都,港区,南青山１丁目２６番１３－１４０２号,,13,103,1070062,,,,,,,2025-05-21,1,,,,,リトルジャイアントジャパン,0
582,3010401190436,新規,0,2025-05-21,2025-05-21,株式会社Ａｆｆｉｎ,,株式会社,東京都,港区,南青山７丁目３－６南青山ＨＹビル７Ｆ,,13,103,1070062,,,,,,,2025-05-21,1,,,,,アフィン,0
585,3010403035151,新規,0,2025-05-21,2025-05-21,五竜岳合同会社,,合同会社,東京都,港区,六本木１丁目６番１号泉ガーデンタワーＫＰＭＧ税理士法人内,,13,103,1060032,,,,,,,2025-05-21,1,,,,,ゴリュウダケ,0
589,3010501053947,新規,0,2025-05-21,2025-05-21,株式会社鴻達シンクタンク,,株式会社,東京都,台東区,五丁目３番１号,,13,106,1100000,,,,,,,2025-05-21,1,,,,,,0
592,3010603011571,新規,0,2025-05-21,2025-05-21,合同会社修中,,合同会社,東京都,江東区,亀戸３丁目６１番２２－１００１号,,13,108,1360071,,,,,,,2025-05-21,1,,,,,シュウチュウ,0
594,3010703007718,新規,0,2025-05-21,2025-05-21,Ａｌｌｗａｙｓ　Ｃａｆｅｃｉｔｏ合同会社,,合同会社,東京都,品川区,東大井６丁目５番１号Ｈａｌｅｌｅａ．Ｍ１０２,,13,109,1400011,,,,,,,2025-05-21,1,,,,,オールウェイズカフェシート,0
597,3010901057382,新規,0,2025-05-21,2025-05-21,株式会社ｎａｇｏｋａｌａ,,株式会社,東京都,世田谷区,鎌田４丁目１４番２０号,,13,112,1570077,,,,,,,2025-05-21,1,,,,,ナゴカラ,0
598,3010903009844,新規,0,2025-05-21,2025-05-21,合同会社ＢＬＡＣＫＷＯＯＤ,,合同会社,東京都,世田谷区,代沢２丁目１２番１０－３０５号,,13,112,1550032,,,,,,,2025-05-21,1,,,,,ブラックウッド,0
603,3011001169531,新規,0,2025-05-21,2025-05-21,株式会社ｆｕｃｒｅ,,株式会社,東京都,渋谷区,神南１丁目１１－４ＦＰＧリンクス神南５階,,13,113,1500041,,,,,,,2025-05-21,1,,,,,フクレ,0
604,3011003021517,新規,0,2025-05-21,2025-05-21,ＡＧＸ合同会社,,合同会社,東京都,渋谷区,神宮前１丁目５番８号,,13,113,1500001,,,,,,,2025-05-21,1,,,,,エージーエックス,0
606,3011101111772,新規,0,2025-05-21,2025-05-21,暉澤株式会社,,株式会社,東京都,新宿区,北新宿２丁目２１番２－８１０号,,13,104,1690074,,,,,,,2025-05-21,1,,,,,キザワ,0
607,3011103015897,新規,0,2025-05-21,2025-05-21,木もれ陽の里合同会社,,合同会社,東京都,新宿区,西新宿３丁目３番１３号西新宿水間ビル２Ｆ,,13,104,1600023,,,,,,,2025-05-21,1,,,,,コモレビノサト,0
615,3011701028359,新規,0,2025-05-21,2025-05-21,ＩＭＫＥＲＮＥＬ株式会社,,株式会社,東京都,江戸川区,江戸川６丁目４０番１４－２２０号,,13,123,1340013,,,,,,,2025-05-21,1,,,,,インカーネル,0
617,3011803006857,新規,0,2025-05-21,2025-05-21,Ｔａｋｉｂｉ合同会社,,合同会社,東京都,足立区,南花畑３丁目２４－１１－３０４,,13,121,1210062,,,,,,,2025-05-21,1,,,,,タキビ,0
618,3011803006865,新規,0,2025-05-21,2025-05-21,足立放送合同会社,,合同会社,東京都,足立区,千住旭町１９番１号,,13,121,1200026,,,,,,,2025-05-21,1,,,,,アダチホウソウ,0
620,3012703003275,新規,0,2025-05-21,2025-05-21,合同会社チャイルドシート総合研究所,,合同会社,東京都,清瀬市,旭が丘６丁目９１１番地３０,,13,221,2040002,,,,,,,2025-05-21,1,,,,,チャイルドシートソウゴウケンキュウショ,0
633,3020001162933,新規,0,2025-05-21,2025-05-21,株式会社ＥＧＯＩＳＴ,,株式会社,神奈川県,横浜市保土ケ谷区,上星川２丁目５３番３６号エトワールＵ・ＩＩ－２０１号,00139239,14,106,2400042,,,,,,,2025-05-21,1,,,,,エゴイスト,0
638,3020003028538,新規,0,2025-05-21,2025-05-21,合同会社エディットライン,,合同会社,神奈川県,横浜市港北区,日吉本町６丁目３２－１５－１０６,,14,109,2230062,,,,,,,2025-05-21,1,,,,,エディットライン,0
640,3020005016862,新規,0,2025-05-21,2025-05-21,フォーリンクス税理士法人,,その他の設立登記法人,神奈川県,川崎市川崎区,榎町９番４号,,14,131,2100002,,,,,,,2025-05-21,1,,,,,フォーリンクス,0
642,3021001085208,新規,0,2025-05-21,2025-05-21,株式会社リトルレッカーサービス,,株式会社,神奈川県,横須賀市,武５丁目１３番４号,,14,201,2380313,,,,,,,2025-05-21,1,,,,,リトルレッカーサービス,0
643,3021001085273,新規,0,2025-05-21,2025-05-21,株式会社ソラゴ,,株式会社,神奈川県,鎌倉市,鎌倉山２丁目１番１０号,,14,204,2480031,,,,,,,2025-05-21,1,,,,,ソラゴ,0
644,3021001085281,新規,0,2025-05-21,2025-05-21,ＣＨＯＷＤＨＵＲＹ　ＧＲＯＵＰ株式会社,,株式会社,神奈川県,愛甲郡愛川町,中津３６１４番地の９,,14,401,2430303,,,,,,,2025-05-21,1,,,,,チャウドリグループ,0
650,3021003015897,新規,0,2025-05-21,2025-05-21,合同会社アジア企画,,合同会社,神奈川県,厚木市,戸室５丁目１２－１７シティーハイム戸室２０３,,14,212,2430031,,,,,,,2025-05-21,1,,,,,,0
651,3021003016029,新規,0,2025-05-21,2025-05-21,合同会社キジトラ舎,,合同会社,神奈川県,横須賀市,田戸台１０番地ハイツアベカワ１０１,,14,201,2380015,,,,,,,2025-05-21,1,,,,,キジトラシャ,0
652,3021003016037,新規,0,2025-05-21,2025-05-21,ＡＡＭＩＮＡ　ＡＵＴＯ　ＴＲＡＤＩＮＧ合同会社,,合同会社,神奈川県,愛甲郡清川村,煤ヶ谷４０４９番地２Ｂ,,14,402,2430112,,,,,,,2025-05-21,1,,,,,アーミナオートトレーディング,0
663,3030001166586,新規,0,2025-05-21,2025-05-21,株式会社アップス,,株式会社,埼玉県,さいたま市北区,盆栽町５０２番地,,11,102,3310805,,,,,,,2025-05-21,1,,,,,アップス,0
664,3030001166628,新規,0,2025-05-21,2025-05-21,株式会社ＥＢＥＬＩＳＴＡ,,株式会社,埼玉県,所沢市,小手指元町３丁目２６番地１１４,,11,208,3591147,,,,,,,2025-05-21,1,,,,,エベリスタ,0
667,3030003026821,新規,0,2025-05-21,2025-05-21,合同会社Ｍｏａｎａ,,合同会社,埼玉県,草加市,氷川町４９１番地１号,,11,221,3400034,,,,,,,2025-05-21,1,,,,,モアナ,0
673,3040001138865,新規,0,2025-05-21,2025-05-21,原田国際株式会社,,株式会社,千葉県,船橋市,二子町５４８番地１８,,12,204,2730034,,,,,,,2025-05-21,1,,,,,ハラダコクサイ,0
678,3040003027637,新規,0,2025-05-21,2025-05-21,合同会社ソラノワークス,,合同会社,千葉県,流山市,平和台５丁目１９番地の２２,,12,220,2700157,,,,,,,2025-05-21,1,,,,,ソラノワークス,0
679,3050001056711,新規,0,2025-05-21,2025-05-21,株式会社茨城インド会社,,株式会社,茨城県,つくば市,台町２丁目１０－４,,08,220,3050868,,,,,,,2025-05-21,1,,,,,イバラキインドガイシャ,0
691,3080103003328,新規,0,2025-05-21,2025-05-21,合同会社トラスト便,,合同会社,静岡県,駿東郡小山町,阿多野３９３－１,,22,344,4101321,,,,,,,2025-05-21,1,,,,,トラストビン,0
694,3110003005767,新規,0,2025-05-21,2025-05-21,合同会社ワンタウン,,合同会社,新潟県,南魚沼市,一村尾１５７６番地４,,15,226,9497316,,,,,,,2025-05-21,1,,,,,ワンタウン,0
708,3120001275799,新規,0,2025-05-21,2025-05-21,株式会社ブライトリー,,株式会社,大阪府,大阪市北区,大深町６番３８号グラングリーン大阪北館ＪＡＭＢＡＳＥ６階ＪＡＭ－ＤＥＳＫ,,27,127,5300011,,,,,,,2025-05-21,1,,,,,ブライトリー,0
709,3120001275840,新規,0,2025-05-21,2025-05-21,忍者熊猫株式会社,,株式会社,大阪府,大阪市住之江区,西加賀屋３丁目２０番１０号４０８号室,,27,125,5590016,,,,,,,2025-05-21,1,,,,,ニンジャクマネコ,0
710,3120001275915,新規,0,2025-05-21,2025-05-21,株式会社ＹＯＬＯ,,株式会社,大阪府,大阪市福島区,鷺洲１丁目９番１９号,,27,103,5530002,,,,,,,2025-05-21,1,,,,,ワイオーエルオー,0
711,3120001275923,新規,0,2025-05-21,2025-05-21,株式会社優買クリエーション,,株式会社,大阪府,大阪市淀川区,西中島６丁目２番３号,,27,123,5320011,,,,,,,2025-05-21,1,,,,,ユウバイクリエーション,0
712,3120001275964,新規,0,2025-05-21,2025-05-21,株式会社ワンショット,,株式会社,大阪府,大阪市淀川区,西中島７丁目７番３号,,27,123,5320011,,,,,,,2025-05-21,1,,,,,ワンショット,0
713,3120001276005,新規,0,2025-05-21,2025-05-21,ＲＪＨ株式会社,,株式会社,大阪府,大阪市浪速区,戎本町１丁目９－２４－１０１,,27,111,5560013,,,,,,,2025-05-21,1,,,,,アールジェイエイチ,0
716,3120005024921,新規,0,2025-05-21,2025-05-21,一般社団法人大阪府テコンドー協会,,その他の設立登記法人,大阪府,大阪市鶴見区,諸口５丁目５番１号,,27,124,5380051,,,,,,,2025-05-21,1,,,,,オオサカフテコンドーキョウカイ,0
717,3120005024946,新規,0,2025-05-21,2025-05-21,一般社団法人日本街道ガイド協会,,その他の設立登記法人,大阪府,大阪市北区,南森町２丁目１番２０号,,27,127,5300054,,,,,,,2025-05-21,1,,,,,ニホンカイドウガイドキョウカイ,0
723,3120101071644,新規,0,2025-05-21,2025-05-21,株式会社ＴＨＯＮＮＥＲＵ　ＩＮＴＥＲＮＡＴＩＯＮＡＬ,,株式会社,大阪府,阪南市,尾崎町７丁目１番１－４０１号,,27,232,5990201,,,,,,,2025-05-21,1,,,,,トンネルインターナショナル,0
724,3120101071677,新規,0,2025-05-21,2025-05-21,Ｄｉｅｎｔｅ　ｄｅ　Ｌｅｏｎ　Ｔｒａｄｉｎｇ株式会社,,株式会社,大阪府,堺市西区,上野芝町５丁３番５－７０４号,,27,144,5938301,,,,,,,2025-05-21,1,,,,,ディエンテデレオントレーディング,0
727,3120901050888,新規,0,2025-05-21,2025-05-21,ＥＧＮＩＴＥスポーツマネジメント株式会社,,株式会社,大阪府,豊中市,若竹町２丁目５番６－２０２号,,27,203,5610811,,,,,,,2025-05-21,1,,,,,イグナイトスポーツマネジメント,0
728,3122001039242,新規,0,2025-05-21,2025-05-21,株式会社ＦＫ’Ｓ,,株式会社,大阪府,東大阪市,加納８丁目２４番２号,,27,227,5780901,,,,,,,2025-05-21,1,,,,,エフケーズ,0
731,3130001079695,新規,0,2025-05-21,2025-05-21,株式会社ＧＲＡＮＤ　ＦＩＶＥ,,株式会社,京都府,京都市左京区,修学院馬場脇町１６番地３,,26,103,6068044,,,,,,,2025-05-21,1,,,,,グランファイブ,0
746,3140003022090,新規,0,2025-05-21,2025-05-21,合同会社Ｋｏｂｅもえぎ不動産,,合同会社,兵庫県,神戸市東灘区,住吉東町２丁目３番－２０－１００２号,,28,101,6580052,,,,,,,2025-05-21,1,,,,,コウベモエギフドウサン,0
749,3150003003610,新規,0,2025-05-21,2025-05-21,合同会社ＯＫＢＯＮＥ,,合同会社,奈良県,天理市,長柄町６９４番地２,,29,204,6320062,,,,,,,2025-05-21,1,,,,,オーケービーワン,0
754,3180001166852,新規,0,2025-05-21,2025-05-21,株式会社東海ホームデザイン,,株式会社,愛知県,名古屋市中区,千代田５丁目５番１１号リエス千代田３０３号,,23,106,4600012,,,,,,,2025-05-21,1,,,,,トウカイホームデザイン,0
758,3180005021087,新規,0,2025-05-21,2025-05-21,一般社団法人再生医療ネットワーク,,その他の設立登記法人,愛知県,尾張旭市,西大道町前田３７１１番地,,23,226,4880814,,,,,,,2025-05-21,1,,,,,サイセイイリョウネットワーク,0
762,3190001032228,新規,0,2025-05-21,2025-05-21,株式会社Ｄｏｎｄａ,,株式会社,三重県,桑名市,大字安永１２０８－３,,24,205,5110839,,,,,,,2025-05-21,1,,,,,ドンダ,0
766,3200003006839,新規,0,2025-05-21,2025-05-21,合同会社結和住宅,,合同会社,岐阜県,岐阜市,六条南１丁目１－１６,,21,201,5008358,,,,,,,2025-05-21,1,,,,,ユイワジュウタク,0
768,3230001020913,新規,0,2025-05-21,2025-05-21,株式会社ＯＣＴＡ,,株式会社,富山県,富山市,開５７５番地１,,16,201,9300944,,,,,,,2025-05-21,1,,,,,オクタ,0
769,3230003002422,新規,0,2025-05-21,2025-05-21,合同会社ＳｈａｒｐＲｉｓｅ,,合同会社,富山県,富山市,花園町１丁目２番３号,,16,201,9398201,,,,,,,2025-05-21,1,,,,,シャープライズ,0
783,3290001110089,新規,0,2025-05-21,2025-05-21,株式会社悍創スポーツ＆エンターテインメント,,株式会社,福岡県,福岡市中央区,天神２丁目９番９号新天町地下ＦＡＶＯ内ストーンパーク,,40,133,8100001,,,,,,,2025-05-21,1,,,,,ハンソウスポーツアンドエンターテイメント,0
793,3330003011017,新規,0,2025-05-21,2025-05-21,合同会社コタワーク,,合同会社,熊本県,熊本市東区,戸島１丁目３番３１号,,43,102,8618041,,,,,,,2025-05-21,1,,,,,コタワーク,0
802,3360001035147,新規,0,2025-05-21,2025-05-21,株式会社ＯＲＥＸ,,株式会社,沖縄県,那覇市,字安里３８１－１,,47,201,9020067,,,,,,,2025-05-21,1,,,,,オーレックス,0
806,3370001052587,新規,0,2025-05-21,2025-05-21,日本環境設備株式会社,,株式会社,宮城県,仙台市青葉区,花京院２丁目１番６１号オークツリー仙台１Ｆ,,04,101,9800013,,,,,,,2025-05-21,1,,,,,ニホンカンキョウセツビ,0
809,3370005010962,新規,0,2025-05-21,2025-05-21,一般社団法人ライフｔｏソーシャル,,その他の設立登記法人,宮城県,名取市,高舘吉田字前沖１５番地の２５,,04,207,9811242,,,,,,,2025-05-21,1,,,,,ライフトソーシャル,0
815,3430001094425,新規,0,2025-05-21,2025-05-21,株式会社ＨＯＵＲＳ　ＢＥＥＲ,,株式会社,北海道,千歳市,錦町３丁目３番地５,,01,224,0660064,,,,,,,2025-05-21,1,,,,,アワーズビア,0
820,3470001020641,新規,0,2025-05-21,2025-05-21,株式会社ＳＨトレーディング,,株式会社,香川県,仲多度郡多度津町,大字庄７６番地３グリーンハイツ２０２,,37,404,7640031,,,,,,,2025-05-21,1,,,,,,0
822,3700150130481,新規,0,2025-05-21,2025-05-21,ＥＶＥＲＧＲＥＥＮ　ＬＯＧＩＳＴＩＣＳ　ＣＯＲＰＯＲＡＴＩＯＮ,,外国会社等,,,,,,,,５Ｆ．，Ｎｏ．１７０，Ｓｅｃ．２，Ｍｉｎｓｈｅｎｇ　Ｅ．Ｒｄ．，Ｚｈｏｎｇｓｈａｎ　Ｄｉｓｔ．，Ｔａｉｐｅｉ　Ｃｉｔｙ　１０４０７３，Ｔａｉｗａｎ（Ｒ．Ｏ．Ｃ．）,,,,,,2025-05-21,1,,,,,エバーグリーンロジステイツクスコーポレーシヨン,0
823,3700150130589,新規,0,2025-05-21,2025-05-21,ＣＡＮＹＯＮ　ＢＩＣＹＣＬＥＳ　ＡＳＩＡ　ＰＡＣＩＦＩＣ　ＰＴＥ．ＬＴＤ．,,外国会社等,,,,,,,,１３８　Ｃｅｃｉｌ　Ｓｔｒｅｅｔ，＃１０－０１，Ｃｅｃｉｌ　Ｃｏｕｒｔ，Ｓｉｎｇａｐｏｒｅ,,,,,,2025-05-21,1,,,,,キヤニオンバイシクルズアジアパシフイツクプライベートリミテツド,0
834,4010001255209,新規,0,2025-05-21,2025-05-21,アクティヴホールディングス２株式会社,,株式会社,東京都,千代田区,平河町２丁目１６番９号永田町グラスゲート６階ＡＣＡ株式会社内,,13,101,1020093,,,,,,,2025-05-21,1,,,,,アクティヴホールディングスツー,0
837,4010003047397,新規,0,2025-05-21,2025-05-21,合同会社ＳａｎＲｅｚｏｎ,,合同会社,東京都,中央区,銀座１丁目２２番１１号銀座大竹ビジデンス２Ｆ,,13,102,1040061,,,,,,,2025-05-21,1,,,,,サンレゾン,0
838,4010003047414,新規,0,2025-05-21,2025-05-21,合同会社アン・シャトー,,合同会社,東京都,中央区,日本橋本町１丁目６－１４－１Ｆ,,13,102,1030023,,,,,,,2025-05-21,1,,,,,アンシャトー,0
840,4010005040020,新規,0,2025-05-21,2025-05-21,一般社団法人医農院,,その他の設立登記法人,東京都,中央区,銀座１丁目１４番１２号楠本第１７ビル１階,,13,102,1040061,,,,,,,2025-05-21,1,,,,,イノウイン,0
841,4010005040053,新規,0,2025-05-21,2025-05-21,一般財団法人社会福祉財団,,その他の設立登記法人,東京都,千代田区,霞が関３丁目３番２号,,13,101,1000013,,,,,,,2025-05-21,1,,,,,シャカイフクシザイダン,0
859,4010403035150,新規,0,2025-05-21,2025-05-21,蔵王山合同会社,,合同会社,東京都,港区,六本木１丁目６番１号泉ガーデンタワーＫＰＭＧ税理士法人内,,13,103,1060032,,,,,,,2025-05-21,1,,,,,ザオウサン,0
862,4010501054036,新規,0,2025-05-21,2025-05-21,ＡＰＭジャパンホールディングス株式会社,,株式会社,東京都,台東区,上野５丁目１５番１４号,,13,106,1100005,,,,,,,2025-05-21,1,,,,,エーピーエムジャパンホールディングス,0
866,4010603011570,新規,0,2025-05-21,2025-05-21,合同会社Ｖａｎｉｓｈ,,合同会社,東京都,墨田区,江東橋４丁目１０番１３号ベルグリーン錦糸町２０３号室,,13,107,1300022,,,,,,,2025-05-21,1,,,,,バニッシュ,0
873,4011001169530,新規,0,2025-05-21,2025-05-21,株式会社ＳＯＬＵＮＡ,,株式会社,東京都,渋谷区,桜丘町２６番地１号,,13,113,1500031,,,,,,,2025-05-21,1,,,,,ソルナ,0
874,4011001169852,新規,0,2025-05-21,2025-05-21,株式会社ＷＥＬＬＦＬＯ,,株式会社,東京都,渋谷区,恵比寿西２丁目８番４号ＥＸ恵比寿西ビル５階,,13,113,1500021,,,,,,,2025-05-21,1,,,,,ウェルフロ,0
876,4011003021581,新規,0,2025-05-21,2025-05-21,合同会社ＲＥＺＡＲＤ　ＦＩＬＭ,,合同会社,東京都,渋谷区,円山町５番３号ＭＩＥＵＸ渋谷ビル８階,,13,113,1500044,,,,,,,2025-05-21,1,,,,,リザードフィルム,0
887,4011105011423,新規,0,2025-05-21,2025-05-21,一般社団法人クラウディス,,その他の設立登記法人,東京都,新宿区,西新宿７丁目４－７イマス浜田ビル３Ｆ－Ｂ１号,,13,104,1600023,,,,,,,2025-05-21,1,,,,,クラウディス,0
888,4011201026358,新規,0,2025-05-21,2025-05-21,ヒューマンテック株式会社,,株式会社,東京都,中野区,中野５丁目５３番８号,,13,114,1640001,,,,,,,2025-05-21,1,,,,,ヒューマンテック,0
892,4011501032089,新規,0,2025-05-21,2025-05-21,株式会社東和,,株式会社,東京都,北区,岸町１丁目２番１１号,,13,117,1140021,,,,,,,2025-05-21,1,,,,,トウワ,0
894,4011601028664,新規,0,2025-05-21,2025-05-21,株式会社会計監査総合研究所,,株式会社,東京都,練馬区,石神井町７丁目１７番３４号,,13,120,1770041,,,,,,,2025-05-21,1,,,,,カイケイカンサソウゴウケンキュウジョ,0
895,4011701028358,新規,0,2025-05-21,2025-05-21,株式会社Ｌｕｍｉｓｙｓ,,株式会社,東京都,江戸川区,本一色１丁目３４番１６－８１０号,,13,123,1330044,,,,,,,2025-05-21,1,,,,,ルミシス,0
900,4012401043127,新規,0,2025-05-21,2025-05-21,株式会社ｇＥＥｎｔ,,株式会社,東京都,小金井市,前原町２丁目１４番２２号,,13,210,1840013,,,,,,,2025-05-21,1,,,,,ジーン,0
917,4020001162932,新規,0,2025-05-21,2025-05-21,株式会社Ａｉ‐Ｒｉｓ,,株式会社,神奈川県,横浜市西区,浅間町１丁目４番地３ウィザードビル４０２,,14,103,2200072,,,,,,,2025-05-21,1,,,,,アイリス,0
922,4020003028462,新規,0,2025-05-21,2025-05-21,合同会社Ｃｒｏｃｈｅｔ,,合同会社,神奈川県,川崎市宮前区,土橋１丁目２１番地１２ジオ宮前平３０１,,14,136,2160005,,,,,,,2025-05-21,1,,,,,クロシェ,0
931,4030001166643,新規,0,2025-05-21,2025-05-21,株式会社タニル,,株式会社,埼玉県,さいたま市岩槻区,東町２丁目８番１５号,,11,110,3390055,,,,,,,2025-05-21,1,,,,,タニル,0
936,4040003027586,新規,0,2025-05-21,2025-05-21,合同会社ＮＥＵＢＩＴ,,合同会社,千葉県,成田市,大袋３０６－６,,12,211,2860043,,,,,,,2025-05-21,1,,,,,ニュービット,0
937,4040003027636,新規,0,2025-05-21,2025-05-21,合同会社シンコウＣＨ商事,,合同会社,千葉県,柏市,篠籠田１５１０番地１１,,12,217,2770862,,,,,,,2025-05-21,1,,,,,シンコウシーエイチショウジ,0
938,4040005022775,新規,0,2025-05-21,2025-05-21,一般社団法人あんしん相続マネジメント,,その他の設立登記法人,千葉県,野田市,船形９１３番地２,,12,208,2700233,,,,,,,2025-05-21,1,,,,,アンシンソウゾクマネジメント,0
939,4050001056710,新規,0,2025-05-21,2025-05-21,京成建機株式会社,,株式会社,茨城県,結城郡八千代町,大字東原６６,,08,521,3003527,,,,,,,2025-05-21,1,,,,,ケイセイケンキ,0
953,4090003002824,新規,0,2025-05-21,2025-05-21,合同会社カワサキショップ玄坂,,合同会社,山梨県,山梨市,牧丘町窪平１４９５番地,,19,205,4040013,,,,,,,2025-05-21,1,,,,,カワサキショップゲンサカ,0
955,4100003008159,新規,0,2025-05-21,2025-05-21,ＴＨＥ　ＦＯＲＭＥ合同会社,,合同会社,長野県,大町市,大町４０２０番地２,,20,212,3980002,,,,,,,2025-05-21,1,,,,,ザフォルム,0
960,4110003005766,新規,0,2025-05-21,2025-05-21,合同会社Ｌｕｃｅ,,合同会社,新潟県,新潟市中央区,南笹口１丁目１番３８号コープオリンピア笹口８０８,,15,103,9500912,,,,,,,2025-05-21,1,,,,,ルーチェ,0
967,4120001275798,新規,0,2025-05-21,2025-05-21,兆和株式会社,,株式会社,大阪府,大阪市住吉区,南住吉１丁目２５－９,,27,120,5580041,,,,,,,2025-05-21,1,,,,,チョウワ,0
968,4120001275930,新規,0,2025-05-21,2025-05-21,株式会社Ｂｒｅｅｚｅ,,株式会社,大阪府,大阪市中央区,谷町２丁目３番１号５階,,27,128,5400012,,,,,,,2025-05-21,1,,,,,ブリーズ,0
969,4120001275947,新規,0,2025-05-21,2025-05-21,株式会社ｍａｕｖｅ,,株式会社,大阪府,大阪市中央区,今橋１丁目７番１４号,,27,128,5410042,,,,,,,2025-05-21,1,,,,,マルバ,0
970,4120001275963,新規,0,2025-05-21,2025-05-21,株式会社新興物産,,株式会社,大阪府,大阪市中央区,南船場２丁目６－３第２ＢＳビル６０１号室,,27,128,5420081,,,,,,,2025-05-21,1,,,,,シンコウブッサン,0
971,4120001275996,新規,0,2025-05-21,2025-05-21,ＪＫＢ株式会社,,株式会社,大阪府,守口市,平代町６番１２号,,27,209,5700078,,,,,,,2025-05-21,1,,,,,ジェイケービー,0
975,4120003029483,新規,0,2025-05-21,2025-05-21,合同会社インフィニティ,,合同会社,大阪府,大阪市東成区,中本４丁目５番３号,,27,115,5370022,,,,,,,2025-05-21,1,,,,,インフィニティ,0
976,4120003029500,新規,0,2025-05-21,2025-05-21,合同会社蓮心,,合同会社,大阪府,大阪市城東区,古市１丁目１１番１６号,,27,118,5360001,,,,,,,2025-05-21,1,,,,,レンシン,0
977,4120003029525,新規,0,2025-05-21,2025-05-21,青禾合同会社,,合同会社,大阪府,大阪市西成区,荻之茶屋二丁目６番４号ニューかめや１７３号室,,27,122,5570000,,,,,,,2025-05-21,1,,,,,セイカ,0
980,4120005024937,新規,0,2025-05-21,2025-05-21,ＩＦ行政書士法人,,その他の設立登記法人,大阪府,大阪市中央区,島之内１丁目２１番２３－５０５号,,27,128,5420082,,,,,,,2025-05-21,1,,,,,アイエフ,0
982,4120101071676,新規,0,2025-05-21,2025-05-21,Ｄａｎｄｅｌｉｏｎ　Ｌｏｃｏ株式会社,,株式会社,大阪府,堺市西区,上野芝町５丁３番５－７０４号,,27,144,5938301,,,,,,,2025-05-21,1,,,,,ダンデライオンロコ,0
983,4120101071701,新規,0,2025-05-21,2025-05-21,インティグリー株式会社,,株式会社,大阪府,堺市中区,深井水池町３０１４番地,,27,142,5998237,,,,,,,2025-05-21,1,,,,,インティグリー,0
990,4130001079694,新規,0,2025-05-21,2025-05-21,株式会社ソラシドステイ,,株式会社,京都府,京田辺市,山手東２丁目５番地１Ａ－１３０２号,,26,211,6100357,,,,,,,2025-05-21,1,,,,,ソラシドステイ,0
991,4130001079711,新規,0,2025-05-21,2025-05-21,株式会社ＫＯＨ,,株式会社,京都府,綾部市,西町２丁目５２－１５,,26,203,6230016,,,,,,,2025-05-21,1,,,,,コウ,0
997,4140001138607,新規,0,2025-05-21,2025-05-21,Ｍａｒｅ株式会社,,株式会社,兵庫県,加古川市,野口町古大内４９９番地の１４,,28,210,6750014,,,,,,,2025-05-21,1,,,,,マーレ,0
998,4140001138623,新規,0,2025-05-21,2025-05-21,ジーエス株式会社,,株式会社,兵庫県,尼崎市,南塚口町２丁目１３番１２号２Ｆ,,28,202,6610012,,,,,,,2025-05-21,1,,,,,ジーエス,0
999,4140001138631,新規,0,2025-05-21,2025-05-21,ミヨシエンジニアリング株式会社,,株式会社,兵庫県,多可郡多可町,加美区三谷２２６番地,,28,365,6791333,,,,,,,2025-05-21,1,,,,,ミヨシエンジニアリング,0
1007,4160005011411,新規,0,2025-05-21,2025-05-21,一般社団法人末永事務所,,その他の設立登記法人,滋賀県,彦根市,原町８０８－３０,,25,202,5220023,,,,,,,2025-05-21,1,,,,,スエナガジムショ,0
1016,4180001166851,新規,0,2025-05-21,2025-05-21,株式会社ＧＡＲＤＥＮＬＡＮＤ,,株式会社,愛知県,尾張旭市,東山町１丁目４番地５,,23,226,4880825,,,,,,,2025-05-21,1,,,,,ガーデンランド,0
1017,4180001166901,新規,0,2025-05-21,2025-05-21,株式会社ｓｕｎｎｙ　ｓｐｏｔ,,株式会社,愛知県,名古屋市西区,香呑町３丁目７４番地,,23,104,4510015,,,,,,,2025-05-21,1,,,,,サニースポット,0
1021,4180003028414,新規,0,2025-05-21,2025-05-21,合同会社ＧｌｏｄＧｅ,,合同会社,愛知県,小牧市,大字久保一色１３５８グリーンコーポ１０１,,23,219,4850003,,,,,,,2025-05-21,1,,,,,グロッジ,0
1022,4180003028496,新規,0,2025-05-21,2025-05-21,ピースフル合同会社,,合同会社,愛知県,清須市,寺野美鈴１０ＥＳＰＲＥＳＳＯ清須１Ａ,,23,233,4520908,,,,,,,2025-05-21,1,,,,,ピースフル,0
1023,4180003028505,新規,0,2025-05-21,2025-05-21,合同会社ケネヴィル,,合同会社,愛知県,春日井市,熊野町９１２－１４,,23,206,4860822,,,,,,,2025-05-21,1,,,,,ケネヴィル,0
1029,4190003005040,新規,0,2025-05-21,2025-05-21,合同会社リエゾンサポート,,合同会社,三重県,熊野市,久生屋町７２２番地３,,24,212,5194326,,,,,,,2025-05-21,1,,,,,リエゾンサポート,0
1059,4290803005056,新規,0,2025-05-21,2025-05-21,合同会社オレンジ,,合同会社,福岡県,遠賀郡水巻町,猪熊５丁目２－１０,,40,382,8070001,,,,,,,2025-05-21,1,,,,,オレンジ,0
1064,4350001019538,新規,0,2025-05-21,2025-05-21,株式会社染工,,株式会社,宮崎県,都城市,都島町１３２３番地７,,45,202,8850083,,,,,,,2025-05-21,1,,,,,ソメコウ,0
1068,4360001035229,新規,0,2025-05-21,2025-05-21,奥原スチール株式会社,,株式会社,沖縄県,島尻郡与那原町,字与那原４９４番地ルピナス１０１,,47,348,9011303,,,,,,,2025-05-21,1,,,,,オクハラスチール,0
1072,4360003014890,新規,0,2025-05-21,2025-05-21,合同会社ＯＫＩＮＥＴ,,合同会社,沖縄県,名護市,宮里１丁目２８－８南西ビル２Ｆ,,47,209,9050011,,,,,,,2025-05-21,1,,,,,オキネット,0
1077,4370005010953,新規,0,2025-05-21,2025-05-21,労働者協同組合気仙沼未来,,その他の設立登記法人,宮城県,気仙沼市,三作浜８１番地１,,04,205,9880631,,,,,,,2025-05-21,1,,,,,ケセンヌマミライ,0
1081,4390001017991,新規,0,2025-05-21,2025-05-21,株式会社ＥｖｅｒＯｎｅ,,株式会社,山形県,山形市,香澄町１丁目１５番２８号ホテルニュー最上屋ビルＢ１Ｆ,,06,201,9900039,,,,,,,2025-05-21,1,,,,,エバーワン,0
1085,4430001094432,新規,0,2025-05-21,2025-05-21,株式会社ＢＬＵＥ　ＰＯＮＤ,,株式会社,北海道,札幌市中央区,北二条西３丁目１番１２号,,01,101,0600002,,,,,,,2025-05-21,1,,,,,ブルーポンド,0
1086,4430001094465,新規,0,2025-05-21,2025-05-21,ＮＤ株式会社,,株式会社,北海道,札幌市東区,北三十二条東１７丁目２番１８号,,01,103,0650032,,,,,,,2025-05-21,1,,,,,エヌディー,0
1093,4700150130588,新規,0,2025-05-21,2025-05-21,Ｇｒｅｅｎ　Ｐｏｗｅｒ　Ｃｏｎｆｅｒｅｎｃｅｓ　Ｌｔｄ．,,外国会社等,,,,,,,,４ｔｈ　Ｆｌｏｏｒ　Ｒｏｐｅｍａｋｅｒ　Ｐｌａｃｅ，２５　Ｒｏｐｅｍａｋｅｒ　Ｓｔｒｅｅｔ，Ｌｏｎｄｏｎ，Ｕｎｉｔｅｄ　ｋｉｎｇｄｏｍ，ＥＣ２Ｙ　９ＬＹ,,,,,,2025-05-21,1,,,,,グリーンパワーカンフアレンスリミテツド,0
1100,5010001255208,新規,0,2025-05-21,2025-05-21,友和グループ株式会社,,株式会社,東京都,千代田区,東神田３丁目１番１０号－２０２,,13,101,1010031,,,,,,,2025-05-21,1,,,,,ユウワグループ,0
1107,5010005040060,新規,0,2025-05-21,2025-05-21,一般社団法人資産運用業協会設立準備法人,,その他の設立登記法人,東京都,中央区,日本橋茅場町１丁目５番８号,,13,102,1030025,,,,,,,2025-05-21,1,,,,,シサンウンヨウギョウキョウカイセツリツジュンビホウジン,0
1121,5010401190442,新規,0,2025-05-21,2025-05-21,ナラダエネルギージャパン株式会社,,株式会社,東京都,港区,赤坂５丁目２番３３号ＩｓａＩ・ＡｋａｓａｋＡ１２階１２０５号室,,13,103,1070052,,,,,,,2025-05-21,1,,,,,ナラダエネルギージャパン,0
1122,5010401190450,新規,0,2025-05-21,2025-05-21,株式会社Ｌ．Ｆｏｒｅｓｔ,,株式会社,東京都,港区,東麻布１丁目１７番１３号エスファイン３階,,13,103,1060044,,,,,,,2025-05-21,1,,,,,エルフォレスト,0
1126,5010403035141,新規,0,2025-05-21,2025-05-21,合同会社ＫＡＴＥ　ＰＬＵＳ,,合同会社,東京都,港区,海岸１丁目１番１号,,13,103,1050022,,,,,,,2025-05-21,1,,,,,カテプラス,0
1130,5010501054084,新規,0,2025-05-21,2025-05-21,東金国際株式会社,,株式会社,東京都,台東区,台東１丁目１９－３－５０１号,,13,106,1100016,,,,,,,2025-05-21,1,,,,,トウキンコクサイ,0
1133,5010601067333,新規,0,2025-05-21,2025-05-21,株式会社Ｅｎｏｗａ,,株式会社,東京都,江東区,亀戸５丁目２９－２１－１０２,,13,108,1360071,,,,,,,2025-05-21,1,,,,,エノワ,0
1148,5011001169488,新規,0,2025-05-21,2025-05-21,株式会社カイロス住宅サービス,,株式会社,東京都,目黒区,中根１丁目１９番４号,,13,110,1520031,,,,,,,2025-05-21,1,,,,,カイロスジュウタクサービス,0
1151,5011003021424,新規,0,2025-05-21,2025-05-21,合同会社ＤＸＺ,,合同会社,東京都,渋谷区,神南１丁目１１－４ＦＰＧリンクス神南５階,,13,113,1500041,,,,,,,2025-05-21,1,,,,,ディーエックスズィー,0
1171,5013303007680,新規,0,2025-05-21,2025-05-21,東元商事合同会社,,合同会社,東京都,豊島区,池袋本町１丁目２４－１０コープオリンピアＩＩＩ２０５,00139235,13,116,1700011,,,,,,,2025-05-21,1,,,,,トウゲンショウジ,0
1182,5020001162931,新規,0,2025-05-21,2025-05-21,株式会社ダイシン,,株式会社,神奈川県,横浜市都筑区,富士見が丘２番１６号エナール牧野Ａ１０１,,14,118,2240051,,,,,,,2025-05-21,1,,,,,ダイシン,0
1206,5040001138715,新規,0,2025-05-21,2025-05-21,株式会社Ｃａｒｒｙ　ｄｏｇ,,株式会社,千葉県,松戸市,吉井町７番地の１９,,12,207,2710066,,,,,,,2025-05-21,1,,,,,キャリードッグ,0
1207,5040001138855,新規,0,2025-05-21,2025-05-21,株式会社Ｒａｉｎｂｏｗ,,株式会社,千葉県,市原市,五井西６丁目３３番地１０,,12,219,2900038,,,,,,,2025-05-21,1,,,,,レインボー,0
1212,5040003027635,新規,0,2025-05-21,2025-05-21,永信合同会社,,合同会社,千葉県,柏市,泉２１８０番地１,,12,217,2701456,,,,,,,2025-05-21,1,,,,,エイシン,0
1213,5040005022774,新規,0,2025-05-21,2025-05-21,一般社団法人千葉県保険医協会,,その他の設立登記法人,千葉県,千葉市中央区,新千葉２丁目７番２号大宗センタービルヂング４階,,12,101,2600031,,,,,,,2025-05-21,1,,,,,チバケンホケンイキョウカイ,0
1215,5060003005564,新規,0,2025-05-21,2025-05-21,合同会社ＳＵＮ,,合同会社,栃木県,宇都宮市,西川田６丁目５－３０ＤＯＭＵＳマンションＡ－５,,09,201,3210152,,,,,,,2025-05-21,1,,,,,サン,0
1217,5070001042947,新規,0,2025-05-21,2025-05-21,株式会社ＮＳＫ販売,,株式会社,群馬県,伊勢崎市,福島町１７３番地,,10,204,3720826,,,,,,,2025-05-21,1,,,,,エヌエスケイハンバイ,0
1222,5090001019282,新規,0,2025-05-21,2025-05-21,株式会社ＴｏｍｏＮｉ‐Ａｒｕ,,株式会社,山梨県,北杜市,長坂町大八田６１５６番地１メゾンドアムール２０３号,,19,209,4080034,,,,,,,2025-05-21,1,,,,,トモニアル,0
1225,5110003005765,新規,0,2025-05-21,2025-05-21,Ｇｅｎｔｌｅ．ａ．ｓ合同会社,,合同会社,新潟県,新潟市中央区,東大通１丁目１１番１２号パルコミニオンビル４－Ｆ号室,,15,103,9500087,,,,,,,2025-05-21,1,,,,,ジェントルエーエス,0
1244,5120003029441,新規,0,2025-05-21,2025-05-21,合同会社福リコ,,合同会社,大阪府,大阪市住之江区,新北島１丁目２－１オスカードリーム８階,,27,125,5590024,,,,,,,2025-05-21,1,,,,,フクリコ,0
1247,5120101071717,新規,0,2025-05-21,2025-05-21,株式会社プラスワン,,株式会社,大阪府,泉佐野市,中庄８４９番地の１８,,27,213,5980002,,,,,,,2025-05-21,1,,,,,プラスワン,0
1248,5120101071725,新規,0,2025-05-21,2025-05-21,株式会社西日本車輌,,株式会社,大阪府,岸和田市,河合町２５１番１,,27,202,5960113,,,,,,,2025-05-21,1,,,,,ニシニホンシャリョウ,0
1251,5120103006448,新規,0,2025-05-21,2025-05-21,合同会社ユメアレ,,合同会社,大阪府,堺市東区,菩提町４丁１１番地２２,,27,143,5998103,,,,,,,2025-05-21,1,,,,,ユメアレ,0
1254,5120901050894,新規,0,2025-05-21,2025-05-21,株式会社Ｌｉｂｅｌｌｅ,,株式会社,大阪府,高槻市,大字唐崎１２０７－１,,27,207,5690834,,,,,,,2025-05-21,1,,,,,リベレ,0
1255,5120903005665,新規,0,2025-05-21,2025-05-21,合同会社ソニア,,合同会社,大阪府,吹田市,藤白台４丁目２６番１１号,,27,205,5650873,,,,,,,2025-05-21,1,,,,,ソニア,0
1256,5122001039199,新規,0,2025-05-21,2025-05-21,ゼノヴィス株式会社,,株式会社,大阪府,四條畷市,江瀬美町３番４号,,27,229,5750034,,,,,,,2025-05-21,1,,,,,ゼノヴィス,0
1264,5140001138606,新規,0,2025-05-21,2025-05-21,Ｂｉ‐ｅａｒｔｈ株式会社,,株式会社,兵庫県,伊丹市,行基町２丁目６番地,,28,207,6640857,,,,,,,2025-05-21,1,,,,,ビアース,0
1265,5140001138639,新規,0,2025-05-21,2025-05-21,Ｓ．企画株式会社,,株式会社,兵庫県,姫路市,土山４丁目６番１０号,,28,201,6700996,,,,,,,2025-05-21,1,,,,,エスキカク,0
1268,5140003021958,新規,0,2025-05-21,2025-05-21,オカテク合同会社,,合同会社,兵庫県,神戸市灘区,篠原中町５丁目４－４－３０６,,28,102,6570066,,,,,,,2025-05-21,1,,,,,オカテク,0
1270,5150003003609,新規,0,2025-05-21,2025-05-21,三つの風合同会社,,合同会社,奈良県,奈良市,北京終町３６番地６,,29,201,6308322,,,,,,,2025-05-21,1,,,,,ミツノカゼ,0
1278,5180001166875,新規,0,2025-05-21,2025-05-21,株式会社ＧＡＩＮ,,株式会社,愛知県,北名古屋市,野崎城屋敷１６Ｐｒｏｓ．Ｋ１０１,,23,234,4810042,,,,,,,2025-05-21,1,,,,,ゲイン,0
1283,5180303006580,新規,0,2025-05-21,2025-05-21,ＨＯＡＮＧ　ＶＵ合同会社,,合同会社,愛知県,西尾市,一色町治明通縄１３番地ビレッジハウス治明４号棟１０５号室,,23,213,4440426,,,,,,,2025-05-21,1,,,,,ホアンヴ,0
1285,5190003005048,新規,0,2025-05-21,2025-05-21,ＡｂｅａＭ合同会社,,合同会社,三重県,四日市市,小杉町１２９４番地,,24,202,5120902,,,,,,,2025-05-21,1,,,,,アビーム,0
1286,5200001043808,新規,0,2025-05-21,2025-05-21,株式会社コミュニティベイス,,株式会社,岐阜県,関市,鋳物師屋５丁目４番２５号,,21,205,5013914,,,,,,,2025-05-21,1,,,,,コミュニティベイス,0
1288,5200003006837,新規,0,2025-05-21,2025-05-21,合同会社ｋｏｔｏｎｏｈａ,,合同会社,岐阜県,岐阜市,宇佐１丁目３番５号,,21,201,5008368,,,,,,,2025-05-21,1,,,,,コトノハ,0
1296,5230001020911,新規,0,2025-05-21,2025-05-21,株式会社富山タイヤ商事,,株式会社,富山県,高岡市,内免４丁目１０７番１,,16,202,9330941,,,,,,,2025-05-21,1,,,,,トヤマタイヤショウジ,0
1304,5260001040205,新規,0,2025-05-21,2025-05-21,清音地所株式会社,,株式会社,岡山県,総社市,清音上中島３６１番地７,,33,208,7191175,,,,,,,2025-05-21,1,,,,,キヨネジショ,0
1326,5360001035228,新規,0,2025-05-21,2025-05-21,株式会社リブマックス沖縄,,株式会社,沖縄県,那覇市,久米２丁目２番７号,,47,201,9000033,,,,,,,2025-05-21,1,,,,,リブマックスオキナワ,0
1328,5370001052585,新規,0,2025-05-21,2025-05-21,株式会社サウザンドリーフ,,株式会社,宮城県,仙台市太白区,西多賀３丁目１３番４０号,,04,104,9820034,,,,,,,2025-05-21,1,,,,,サウザンドリーフ,0
1334,5380001035333,新規,0,2025-05-21,2025-05-21,ブルーアンドグリーンイノベーション株式会社,,株式会社,福島県,双葉郡大熊町,大字熊字旭台２８１番地,,07,545,9791305,,,,,,,2025-05-21,1,,,,,ブルーアンドグリーンイノベーション,0
1335,5380003006051,新規,0,2025-05-21,2025-05-21,Ｎ‐Ｃ合同会社,,合同会社,福島県,会津若松市,飯盛１丁目３番地３８号,,07,202,9650007,,,,,,,2025-05-21,1,,,,,エヌシー,0
1340,5430001094448,新規,0,2025-05-21,2025-05-21,ＡＴ　ｓｔａｙ株式会社,,株式会社,北海道,札幌市中央区,北十条西１８丁目３６－２２７,,01,101,0600010,,,,,,,2025-05-21,1,,,,,エィティステイ,0
1342,5430003017679,新規,0,2025-05-21,2025-05-21,合同会社ウィステリア・ウェル,,合同会社,北海道,札幌市東区,苗穂町３丁目２番１号,,01,103,0650043,,,,,,,2025-05-21,1,,,,,ウィステリアウェル,0
1344,5450003002662,新規,0,2025-05-21,2025-05-21,合同会社旭川リウマチ骨免疫研究所,,合同会社,北海道,旭川市,豊岡十三条４丁目５番１７号,,01,204,0788243,,,,,,,2025-05-21,1,,,,,アサヒカワリウマチコツメンエキケンキュウジョ,0
1349,5700150120670,新規,0,2025-05-21,2025-05-21,ＧＬ　Ｔｅｃｈｎｏｌｏｇｉｅｓ（Ｈｏｎｇ　Ｋｏｎｇ）Ｌｉｍｉｔｅｄ,,外国会社等,,,,,,,,ＦＬＡＴ／ＲＭ　６０１　ＢＵＩＬＤＩＮＧ　５Ｗ　ＨＯＮＧ　ＫＯＮＧ　ＳＣＩＥＮＣＥ　ＰＡＲＫ　ＳＨＡＴＩＮ　ＮＴ,,,,,,2025-05-21,1,,,,,コウレンチツウカギホンコンユウゲンコウシ,0
1350,5700150130587,新規,0,2025-05-21,2025-05-21,ＮＩＢＡＹ　ＩＮＴＥＲＮＡＴＩＯＮＡＬ（ＳＩＮＧＡＰＯＲＥ）ＭＡＮＡＧＥＭＥＮＴ　ＰＴＥ．ＬＴＤ．,,外国会社等,東京都,目黒区,柿の木坂２丁目２６－１７,,13,110,1520022,１１２　ＲＯＢＩＮＳＯＮ　ＲＯＡＤ，＃０３－０１　ＲＯＢＩＮＳＯＮ　１１２，ＳＩＮＧＡＰＯＲＥ　０６８９０２,,,,,,2025-05-21,1,,,,,ニイベイインターナシヨナルマネジメント,0
1351,5700150130620,新規,0,2025-05-21,2025-05-21,ＪＰ　ＥＮＴＥＲＰＲＩＳＥＳ　ＳＭＣ－ＰＲＩＶＡＴＥ　ＬＩＭＩＴＥＤ,,外国会社等,埼玉県,鴻巣市,境４２５－３,,11,217,3650013,パキスタン・イスラム共和国、パンジャーブ州ラホール市、メイン、ジー・ティー通り、ビスミッラー住宅計画地区、キャディーア区域、３２２番地,,,,,,2025-05-21,1,,,,,ジエーピーエンタープライゼスエスエムシープライベートリミテツド,0
1361,6010001255215,新規,0,2025-05-21,2025-05-21,株式会社ＥＭＣ,,株式会社,東京都,中央区,銀座１丁目１２番４号Ｎ＆Ｅ・ＢＬＤ．６Ｆ,,13,102,1040061,,,,,,,2025-05-21,1,,,,,イーエムシー,0
1362,6010001255231,新規,0,2025-05-21,2025-05-21,ＡＲＴ　ＣＯＮＮＥＣＴ株式会社,,株式会社,東京都,千代田区,神田須田町２丁目２３番１号天翔秋葉原万世橋ビル７０８号室,,13,101,1010041,,,,,,,2025-05-21,1,,,,,アートコネクト,0
1364,6010003047395,新規,0,2025-05-21,2025-05-21,ＭｅＴｉｍｅ合同会社,,合同会社,東京都,中央区,日本橋１丁目２番１０号東洋ビル６Ｆ,,13,102,1030027,,,,,,,2025-05-21,1,,,,,ミータイム,0
1371,6010401190202,新規,0,2025-05-21,2025-05-21,株式会社ＭＩＣ,,株式会社,東京都,港区,麻布台３丁目５番３号２６０２,,13,103,1060041,,,,,,,2025-05-21,1,,,,,エムアイシー,0
1372,6010401190391,新規,0,2025-05-21,2025-05-21,株式会社ｆｅｌｌｏｗ,,株式会社,東京都,港区,東麻布２丁目２９番１２号ピア麻布５階,,13,103,1060044,,,,,,,2025-05-21,1,,,,,フェロー,0
1374,6010403035149,新規,0,2025-05-21,2025-05-21,霧島山合同会社,,合同会社,東京都,港区,六本木１丁目６番１号泉ガーデンタワーＫＰＭＧ税理士法人内,,13,103,1060032,,,,,,,2025-05-21,1,,,,,キリシマヤマ,0
1381,6010603011569,新規,0,2025-05-21,2025-05-21,ＬａｐｉｓＲｅｓｏｎａｎｃｅ合同会社,,合同会社,東京都,江東区,東雲１丁目９番４－３６１５,,13,108,1350062,,,,,,,2025-05-21,1,,,,,ラピスレゾナンス,0
1389,6010901057388,新規,0,2025-05-21,2025-05-21,株式会社アイナ,,株式会社,東京都,世田谷区,瀬田２丁目２９番８号,,13,112,1580095,,,,,,,2025-05-21,1,,,,,アイナ,0
1393,6011001169487,新規,0,2025-05-21,2025-05-21,株式会社ＢＹＵＳ,,株式会社,東京都,渋谷区,恵比寿西２丁目４番８号ウィンド恵比寿ビル８Ｆ,,13,113,1500021,,,,,,,2025-05-21,1,,,,,バイアス,0
1394,6011001169529,新規,0,2025-05-21,2025-05-21,イータ株式会社,,株式会社,東京都,渋谷区,渋谷２丁目１９－１５宮益坂ビルディング６０９,,13,113,1500002,,,,,,,2025-05-21,1,,,,,イータ,0
1395,6011001169644,新規,0,2025-05-21,2025-05-21,株式会社Ｖｉａ　Ｖｉｃｏ,,株式会社,東京都,渋谷区,渋谷２丁目１９－１５宮益坂ビルディング６０９,,13,113,1500002,,,,,,,2025-05-21,1,,,,,ビアビコ,0
1399,6011003021588,新規,0,2025-05-21,2025-05-21,トライエンゲージ合同会社,,合同会社,東京都,渋谷区,神南１丁目１１－４ＦＰＧリンクス神南５階,,13,113,1500041,,,,,,,2025-05-21,1,,,,,トライエンゲージ,0
1400,6011005010993,新規,0,2025-05-21,2025-05-21,ＡＧＸ一般社団法人,,その他の設立登記法人,東京都,渋谷区,神宮前１丁目５番８号,,13,113,1500001,,,,,,,2025-05-21,1,,,,,エージーエックス,0
1414,6011801046150,新規,0,2025-05-21,2025-05-21,株式会社ＹＵＴＥＣＴ,,株式会社,東京都,足立区,綾瀬２丁目１６番９号,,13,121,1200005,,,,,,,2025-05-21,1,,,,,ユーテクト,0
1419,6012401043117,新規,0,2025-05-21,2025-05-21,株式会社ＲＥＳＴＡＱ,,株式会社,東京都,調布市,深大寺東町５丁目２０番地３エゼヴィラージュ１０１,,13,208,1820012,,,,,,,2025-05-21,1,,,,,レスタック,0
1426,6013301054294,新規,0,2025-05-21,2025-05-21,株式会社ＴＯ,,株式会社,東京都,豊島区,池袋２丁目３６番１号,,13,116,1710014,,,,,,,2025-05-21,1,,,,,トゥー,0
1431,6020001162897,新規,0,2025-05-21,2025-05-21,株式会社リッジリンクス,,株式会社,神奈川県,川崎市麻生区,王禅寺東２丁目３８番１６号,,14,137,2150018,,,,,,,2025-05-21,1,,,,,リッジリンクス,0
1432,6020001162939,新規,0,2025-05-21,2025-05-21,株式会社大高圧送,00139241,株式会社,神奈川県,川崎市多摩区,菅馬場２丁目４番２７号ユンヌメゾン１０２,,14,135,2140004,,,,,,,2025-05-21,1,,,,,オオタカアッソウ,0
1436,6020003028527,新規,0,2025-05-21,2025-05-21,合同会社トワリス,,合同会社,神奈川県,横浜市瀬谷区,阿久和東４丁目１４番地１,,14,114,2460023,,,,,,,2025-05-21,1,,,,,トワリス,0
1439,6021001085287,新規,0,2025-05-21,2025-05-21,ＦＥＭ株式会社,,株式会社,神奈川県,相模原市中央区,青葉１丁目５番１１号,,14,152,2520224,,,,,,,2025-05-21,1,,,,,エフイーエム,0
1440,6021003015977,新規,0,2025-05-21,2025-05-21,合同会社Ｈｋ建設,,合同会社,神奈川県,座間市,四ツ谷６２９番地の５ゆずりは２０１号,,14,216,2520025,,,,,,,2025-05-21,1,,,,,エイチケーケンセツ,0
1443,6021005013368,新規,0,2025-05-21,2025-05-21,一般社団法人ペインケア,,その他の設立登記法人,神奈川県,藤沢市,鵠沼橘１丁目１５番４号３０１,,14,205,2510024,,,,,,,2025-05-21,1,,,,,ペインケア,0
1444,6021005013376,新規,0,2025-05-21,2025-05-21,一般社団法人ピーアールエフ,,その他の設立登記法人,神奈川県,大和市,西鶴間６丁目１４番２０号,,14,213,2420005,,,,,,,2025-05-21,1,,,,,ピーアールエフ,0
1452,6030003026810,新規,0,2025-05-21,2025-05-21,ＨＡＮＡ　Ｓｕｃｃｅｓｓ　Ｍａｒｔ合同会社,,合同会社,埼玉県,蕨市,南町３丁目５５６７－１２－３０３号室,,11,223,3350003,,,,,,,2025-05-21,1,,,,,ハナサクセスマート,0
1456,6040001138854,新規,0,2025-05-21,2025-05-21,株式会社Ｎｅｘｔ　Ｐｌｕｓ,,株式会社,千葉県,千葉市美浜区,真砂２丁目１番１２号プラザ真砂１階,,12,106,2610011,,,,,,,2025-05-21,1,,,,,ネクストプラス,0
1457,6040001138862,新規,0,2025-05-21,2025-05-21,株式会社隼人,,株式会社,千葉県,市川市,国府台３丁目８番１９号,,12,203,2720827,,,,,,,2025-05-21,1,,,,,ハヤト,0
1458,6040001138879,新規,0,2025-05-21,2025-05-21,株式会社ＫＥＮ・コーポレーション,,株式会社,千葉県,八千代市,勝田台４丁目９番地１３,,12,221,2760023,,,,,,,2025-05-21,1,,,,,ケンコーポレーション,0
1460,6040003027634,新規,0,2025-05-21,2025-05-21,合同会社第五,,合同会社,千葉県,習志野市,鷺沼５丁目１７－８サンリット幕張２０７号室,,12,216,2750014,,,,,,,2025-05-21,1,,,,,ダイゴ,0
1466,6060001038219,新規,0,2025-05-21,2025-05-21,ＡＨＲＡＡＭ　ＴＲＡＤＩＮＧ株式会社,,株式会社,栃木県,栃木市,大平町富田３９２番地１１セゾン・ド・クープ２０５,,09,203,3294404,,,,,,,2025-05-21,1,,,,,アフラームトレーディング,0
1479,6110001039285,新規,0,2025-05-21,2025-05-21,株式会社ＡＬＬＡＮＤＡ,,株式会社,新潟県,十日町市,犬伏７４３－１,,15,210,9421504,,,,,,,2025-05-21,1,,,,,アランドア,0
1481,6110003005764,新規,0,2025-05-21,2025-05-21,Ｂｌｕｂｉｒｄ　Ｓｐｏｒｔｓ合同会社,,合同会社,新潟県,妙高市,大字樽本１１０１－１１,,15,217,9492223,,,,,,,2025-05-21,1,,,,,ブルーバードスポーツ,0
1491,6120001275490,新規,0,2025-05-21,2025-05-21,ホシミ株式会社,,株式会社,大阪府,大阪市阿倍野区,昭和町５丁目１０番２４－３０３号,,27,119,5450011,,,,,,,2025-05-21,1,,,,,ホシミ,0
1492,6120001275615,新規,0,2025-05-21,2025-05-21,株式会社ヤマシタ,,株式会社,大阪府,大阪市西区,北堀江１丁目８番１４号,,27,106,5500014,,,,,,,2025-05-21,1,,,,,ヤマシタ,0
1493,6120001275945,新規,0,2025-05-21,2025-05-21,未來電智株式会社,,株式会社,大阪府,大阪市港区,弁天３丁目１０番２０号港ＯＧＩビル３０５号室,,27,107,5520007,,,,,,,2025-05-21,1,,,,,ミライデンチ,0
1494,6120001275953,新規,0,2025-05-21,2025-05-21,株式会社ＮＯＶＡ　ＲＩＳＥ,,株式会社,大阪府,大阪市浪速区,桜川４丁目５番１２号ステラ桜川６０３号,,27,111,5560022,,,,,,,2025-05-21,1,,,,,ノヴァライズ,0
1503,6120003029481,新規,0,2025-05-21,2025-05-21,合同会社ＴＡＤＫＳ　Ｊａｐａｎ　Ｍｅｄｉｃａｌ　Ｉｍａｇｉｎｇ　ＬＬＣ,,合同会社,大阪府,大阪市淀川区,西中島３丁目１１番２４－３Ｄ号,,27,123,5320011,,,,,,,2025-05-21,1,,,,,タドックスジャパンメディカルイメージングエルエルシー,0
1504,6120003029498,新規,0,2025-05-21,2025-05-21,合同会社アドワン,,合同会社,大阪府,大阪市中央区,北浜東四丁目３３番地北浜ネクスビルディングＢ１,,27,128,5400031,,,,,,,2025-05-21,1,,,,,アドワン,0
1505,6120003029507,新規,0,2025-05-21,2025-05-21,小谷合同会社,,合同会社,大阪府,大阪市西淀川区,歌島２丁目９番１５－１０６号,,27,113,5550021,,,,,,,2025-05-21,1,,,,,コタニ,0
1509,6120101071682,新規,0,2025-05-21,2025-05-21,Ｓ＆Ｚ　Ｓｍａｒｔｅｃｈ株式会社,,株式会社,大阪府,泉佐野市,りんくう往来南２番地２りんくうエルガビル９Ｆ,,27,213,5980047,,,,,,,2025-05-21,1,,,,,エスアンドゼットスマーテック,0
1517,6122001039181,新規,0,2025-05-21,2025-05-21,鶴八商事株式会社,,株式会社,大阪府,東大阪市,鴻池徳庵町８番８号,,27,227,5780977,,,,,,,2025-05-21,1,,,,,ツルハチショウジ,0
1526,6140001138605,新規,0,2025-05-21,2025-05-21,西山電気株式会社,,株式会社,兵庫県,養父市,薮崎１０７５番地４,,28,222,6670113,,,,,,,2025-05-21,1,,,,,ニシヤマデンキ,0
1527,6140001138638,新規,0,2025-05-21,2025-05-21,ＬＩＮＫＳ株式会社,,株式会社,兵庫県,三田市,駅前町３番１０号,,28,219,6691528,,,,,,,2025-05-21,1,,,,,リンクス,0
1546,6180001166882,新規,0,2025-05-21,2025-05-21,晶盟株式会社,,株式会社,愛知県,名古屋市東区,東桜２丁目３番７号９５１室,,23,102,4610005,,,,,,,2025-05-21,1,,,,,ショウメイ,0
1547,6180001166890,新規,0,2025-05-21,2025-05-21,株式会社ペンギンテック,,株式会社,愛知県,愛西市,大野町未１８６番地,,23,232,4960922,,,,,,,2025-05-21,1,,,,,ペンギンテック,0
1550,6180003028494,新規,0,2025-05-21,2025-05-21,ＧｒｅｅｎＰｉｘｅｌ合同会社,,合同会社,愛知県,名古屋市中区,錦２丁目１６番４号リアライズ伏見ビル８０８,,23,106,4600003,,,,,,,2025-05-21,1,,,,,グリーンピクセル,0
1555,6190003005039,新規,0,2025-05-21,2025-05-21,合同会社ＳＴＳ,,合同会社,三重県,四日市市,坂部が丘１丁目１６６７番地６８,,24,202,5120905,,,,,,,2025-05-21,1,,,,,,0
1559,6200003006836,新規,0,2025-05-21,2025-05-21,合同会社ＪＡＬｉＬ　ＴＲＡＤＩＮＧ,,合同会社,岐阜県,羽島市,正木町新井１１６２番地１,,21,209,5016225,,,,,,,2025-05-21,1,,,,,ジャリーリトレーディング,0
1560,6210001020169,新規,0,2025-05-21,2025-05-21,盛翔産業株式会社,,株式会社,福井県,あわら市,田中々第４２号１番地１,,18,208,9104124,,,,,,,2025-05-21,1,,,,,セイショウサンギョウ,0
1571,6260005011481,新規,0,2025-05-21,2025-05-21,一般社団法人はじめての学び研究所,,その他の設立登記法人,岡山県,岡山市北区,駅元町２５番１４号,,33,101,7000024,,,,,,,2025-05-21,1,,,,,ハジメテノマナビケンキュウジョ,0
1577,6290001110086,新規,0,2025-05-21,2025-05-21,株式会社セルノフィル,,株式会社,福岡県,福岡市南区,大橋１丁目１３番１５号大黒ビル,,40,134,8150033,,,,,,,2025-05-21,1,,,,,セルノフィル,0
1578,6290003016868,新規,0,2025-05-21,2025-05-21,合同会社ｓａｇｉｔｔａｒｉｕｓ,,合同会社,福岡県,福岡市早良区,田村３丁目７番１８－１０１号,,40,137,8140175,,,,,,,2025-05-21,1,,,,,サジタリウス,0
1587,6340003004859,新規,0,2025-05-21,2025-05-21,ＳＫＹｅＬＡＢＯ合同会社,,合同会社,鹿児島県,鹿児島市,東谷山２丁目１６番３号,,46,201,8910113,,,,,,,2025-05-21,1,,,,,スカイラボ,0
1596,6360001035210,新規,0,2025-05-21,2025-05-21,株式会社宮空調,,株式会社,沖縄県,うるま市,字宮里１１５番地,,47,213,9042243,,,,,,,2025-05-21,1,,,,,ミヤクウチョウ,0
1601,6370001052592,新規,0,2025-05-21,2025-05-21,株式会社仙台ライフサービス,,株式会社,宮城県,仙台市太白区,秋保町長袋字菅刈山１５‐１９,,04,104,9820243,,,,,,,2025-05-21,1,,,,,センダイライフサービス,0
1603,6370003007099,新規,0,2025-05-21,2025-05-21,合同会社Ｆｕｗａ‐Ｆｕｗａ工作室,,合同会社,宮城県,仙台市宮城野区,榴岡２丁目３－１５花本ビル５０２,,04,102,9830852,,,,,,,2025-05-21,1,,,,,フワフワコウサクシツ,0
1616,6430001094414,新規,0,2025-05-21,2025-05-21,株式会社エヌトレース,,株式会社,北海道,札幌市中央区,大通西１５丁目３番２２－７０３号,,01,101,0600042,,,,,,,2025-05-21,1,,,,,エヌトレース,0
1625,6700150130314,新規,0,2025-05-21,2025-05-21,ＢＡＩ　ＪＩＮ　ＨＡＮ　ＨＯＴＥＬ　ＣＯ．，ＬＴＤ．,,外国会社等,,,,,,,,１４－１Ｆ，Ｎｏ．１２９，Ｓｅｃ．２，Ｚｈｏｎｇｓｈａｎ　Ｎ．Ｒｄ．，Ｚｈｏｎｇｓｈａｎ　Ｄｉｓｔ．，Ｔａｉｐｅｉ　Ｃｉｔｙ，１０４，Ｔａｉｗａｎ,,,,,,2025-05-21,1,,,,,バイキンハンダイハンテンコブンユウゲンコウシ,0
1626,6700150130586,新規,0,2025-05-21,2025-05-21,ベジャール・バレエ・ローザンヌ財団,,外国会社等,,,,,,,,Ｃｈｅｍｉｎ　ｄｕ　Ｐｒｅｓｂｙｔｅｒｅ　１２，Ｐ．Ｏ．Ｂｏｘ３６０　１０００Ｌａｕｓａｎｎｅ２２－Ｓｗｉｚｅｒｌａｎｄ,,,,,,2025-05-21,1,,,,,ベジヤールバレエローザンヌザイダン,0
1627,6700150130628,新規,0,2025-05-21,2025-05-21,ｓｈｅｎｚｈｅｎｓｈｉｐｉｎｇａｏｚｈｉｘｉｎｇｋｅｊｉｙｏｕｘｉａｎｇｏｎｇｓｉ,,外国会社等,,,,,,,,Ｒｏｏｍ　４Ａ４３０，Ｂｕｉｌｄｉｎｇ　１，Ｎｏ．３０９　Ｐｉｎｇ’ａｎ　Ａｖｅｎｕｅ，Ｌｉａｎｇ＿ａｎｔｉａｎ　Ｃｏｍｍｕｎｉｔｙ，Ｐｉｎｇｈｕ　Ｓｔｒｅｅｔ，Ｌｏｎｇｇａｎｇ　Ｄｉｓｔｒｉｃｔ，Ｓｈｅｎｚｈｅｎ，Ｃｈｉｎａ,00139233,,,,,2025-05-21,1,,,,,シンセンシピンガオジシンカギユウゲンコウシ,0
1635,7010001255065,新規,0,2025-05-21,2025-05-21,株式会社ナギサコネクト,,株式会社,東京都,千代田区,神田和泉町１番地６－１６ヤマトビル４０５,,13,101,1010024,,,,,,,2025-05-21,1,,,,,ナギサコネクト,0
1636,7010001255239,新規,0,2025-05-21,2025-05-21,株式会社美容総研,,株式会社,東京都,中央区,銀座７丁目１３番２１号銀座新六洲ビル２階,,13,102,1040061,,,,,,,2025-05-21,1,,,,,ビヨウソウケン,0
1637,7010005040059,新規,0,2025-05-21,2025-05-21,一般社団法人ＭＰＯＭＴ,,その他の設立登記法人,東京都,千代田区,内幸町２丁目１番６号,,13,101,1000011,,,,,,,2025-05-21,1,,,,,エムピーオーエムティー,0
1645,7010401190309,新規,0,2025-05-21,2025-05-21,ＡＩ　ｃｈｅｃｋ株式会社,,株式会社,東京都,港区,南青山３丁目１番３６号青山丸竹ビル６Ｆ,,13,103,1070062,,,,,,,2025-05-21,1,,,,,エーアイチェック,0
1646,7010401190408,新規,0,2025-05-21,2025-05-21,株式会社ぶるず,,株式会社,東京都,港区,東麻布１丁目２９番１５号東麻布２９６ビル２階,,13,103,1060044,,,,,,,2025-05-21,1,,,,,ブルズ,0
1649,7010403035156,新規,0,2025-05-21,2025-05-21,合同会社ｋｏｍｏｒｅｂｉ,,合同会社,東京都,港区,芝大門２丁目４番４号中根ビル６階,,13,103,1050012,,,,,,,2025-05-21,1,,,,,コモレビ,0
1652,7010601067331,新規,0,2025-05-21,2025-05-21,神風ソリューション株式会社,,株式会社,東京都,江東区,大島６丁目１４番２－１０７号,,13,108,1360072,,,,,,,2025-05-21,1,,,,,カミカゼソリューション,0
1657,7010701047729,新規,0,2025-05-21,2025-05-21,ｓｙａｔａｓｕｋｕ株式会社,,株式会社,東京都,品川区,西五反田３丁目７－３プレール目黒リバーサイド８０２,,13,109,1410031,,,,,,,2025-05-21,1,,,,,シャタスク,0
1658,7010801036160,新規,0,2025-05-21,2025-05-21,紅葉国際株式会社,,株式会社,東京都,大田区,中央１丁目１番１号白いビル２階,,13,111,1430024,,,,,,,2025-05-21,1,,,,,コウヨウコクサイ,0
1659,7010803005386,新規,0,2025-05-21,2025-05-21,合同会社ＪＵＮ,,合同会社,東京都,大田区,羽田４丁目３番１７号,,13,111,1440043,,,,,,,2025-05-21,1,,,,,ジュン,0
1665,7011001169478,新規,0,2025-05-21,2025-05-21,株式会社アマランサステックアンドガジェット,,株式会社,東京都,渋谷区,代々木１丁目３７－４,,13,113,1510053,,,,,,,2025-05-21,1,,,,,アマランサステックアンドガジェット,0
1666,7011001169668,新規,0,2025-05-21,2025-05-21,株式会社ＢＯＷＷＯＷ,,株式会社,東京都,渋谷区,東１丁目２２番１１号東京セントラル渋谷１階,,13,113,1500011,,,,,,,2025-05-21,1,,,,,バウワウ,0
1667,7011003021744,新規,0,2025-05-21,2025-05-21,クリートリンク合同会社,,合同会社,東京都,目黒区,三田１丁目２番２１号シャンブル三田１０３,,13,110,1530062,,,,,,,2025-05-21,1,,,,,クリートリンク,0
1678,7011203004697,新規,0,2025-05-21,2025-05-21,合同会社ｆｏｒｔｕｎａ,,合同会社,東京都,中野区,中野５丁目１９番地１０号茜ロッジ２０５号室,,13,114,1640001,,,,,,,2025-05-21,1,,,,,フォルトゥナ,0
1679,7011401027104,新規,0,2025-05-21,2025-05-21,日智進株式会社,,株式会社,東京都,板橋区,大和町６番１２号板橋本町ビル５０２号,,13,119,1730012,,,,,,,2025-05-21,1,,,,,ニッチシン,0
1680,7011501032086,新規,0,2025-05-21,2025-05-21,漢騰株式会社,,株式会社,東京都,北区,浮間１丁目１番１４号リムジンビル３２４,,13,117,1150051,,,,,,,2025-05-21,1,,,,,カントウ,0
1681,7011503006542,新規,0,2025-05-21,2025-05-21,合同会社プルスウルトラ,,合同会社,東京都,北区,上中里２丁目１４番７号,,13,117,1140016,,,,,,,2025-05-21,1,,,,,プルスウルトラ,0
1683,7011603004710,新規,0,2025-05-21,2025-05-21,ミレ合同会社,,合同会社,東京都,練馬区,豊玉中２丁目１０番８－３０８号,,13,120,1760013,,,,,,,2025-05-21,1,,,,,ミレ,0
1695,7013301054277,新規,0,2025-05-21,2025-05-21,株式会社山岸モータース,,株式会社,東京都,豊島区,東池袋２丁目４番１１号,,13,116,1700013,,,,,,,2025-05-21,1,,,,,ヤマギシモータース,0
1702,7020001162954,新規,0,2025-05-21,2025-05-21,株式会社ＭＭＭ,,株式会社,神奈川県,川崎市幸区,中幸町３丁目２６番地２４クレッセント川崎タワー１０１０,,14,132,2120012,,,,,,,2025-05-21,1,,,,,エムスリー,0
1703,7020003028402,新規,0,2025-05-21,2025-05-21,Ｌｉｇｈｔｈｏｕｓｅ合同会社,,合同会社,神奈川県,横浜市旭区,南希望が丘１２１番地６,,14,112,2410824,,,,,,,2025-05-21,1,,,,,ライトハウス,0
1704,7020003028501,新規,0,2025-05-21,2025-05-21,合同会社ＣＩＲ,,合同会社,神奈川県,川崎市多摩区,長沢３丁目１５番３６号,,14,135,2140035,,,,,,,2025-05-21,1,,,,,シーアイアール,0
1706,7020005016842,新規,0,2025-05-21,2025-05-21,一般社団法人未確認異常現象問題研究所,,その他の設立登記法人,神奈川県,横浜市金沢区,柴町３６７番地１金沢シーサイドタウン柴３－２０７,,14,108,2360012,,,,,,,2025-05-21,1,,,,,ミカクニンイジョウゲンショウモンダイケンキュウジョ,0
1714,7030001166558,新規,0,2025-05-21,2025-05-21,株式会社Ｒｅｂｏｏｔ　ｏｎｅ,,株式会社,埼玉県,川越市,仲町１１番地１１,,11,201,3500065,,,,,,,2025-05-21,1,,,,,リブートワン,0
1715,7030001166608,新規,0,2025-05-21,2025-05-21,株式会社ティーワイス,,株式会社,埼玉県,川口市,南鳩ヶ谷７丁目３３番１９号エクセランス南七丁目１０２号,,11,203,3340013,,,,,,,2025-05-21,1,,,,,ティーワイス,0
1723,7040001138861,新規,0,2025-05-21,2025-05-21,億橋通商株式会社,,株式会社,千葉県,松戸市,本町１番地の２３Ｗ松戸７０３号,,12,207,2710091,,,,,,,2025-05-21,1,,,,,イッショツウショウ,0
1726,7040003027526,新規,0,2025-05-21,2025-05-21,合同会社Ｆｒｅｄｅｒｉｃｋ,,合同会社,千葉県,市川市,八幡２丁目１３番１０号２Ｆ,,12,203,2720021,,,,,,,2025-05-21,1,,,,,フレデリック,0
1727,7040003027633,新規,0,2025-05-21,2025-05-21,ゼニス合同会社,,合同会社,千葉県,八街市,文違３０１番地４０３９,,12,230,2891104,,,,,,,2025-05-21,1,,,,,ゼニス,0
1729,7040005022772,新規,0,2025-05-21,2025-05-21,医療法人社団Ｄｅａｒ　ＦＡＭＩＬＹ,,その他の設立登記法人,千葉県,印西市,中央南２丁目２番１フォルテ千葉ニュータウン２階,,12,231,2701340,,,,,,,2025-05-21,1,,,,,ディアファミリー,0
1730,7050001056682,新規,0,2025-05-21,2025-05-21,株式会社キズナリンク,,株式会社,茨城県,下妻市,北大宝１１０４番地１,,08,210,3040021,,,,,,,2025-05-21,1,,,,,キズナリンク,0
1731,7050003009242,新規,0,2025-05-21,2025-05-21,合同会社とことこらぼ,,合同会社,茨城県,つくば市,並木３丁目２１番地３ミックスガーデンつくば６０６,,08,220,3050044,,,,,,,2025-05-21,1,,,,,トコトコラボ,0
1732,7050003009275,新規,0,2025-05-21,2025-05-21,合同会社フレンドリング,,合同会社,茨城県,龍ケ崎市,松ケ丘１丁目２２－１セレス２０２号室,,08,208,3010853,,,,,,,2025-05-21,1,,,,,フレンドリング,0
1734,7060003005562,新規,0,2025-05-21,2025-05-21,ＦＥＮＩＸ　ＣＯＲＰＯＲＡＴＩＯＮ合同会社,,合同会社,栃木県,小山市,東城南２丁目２４番地４ラウンディッドヒル１０３号室,,09,208,3230829,,,,,,,2025-05-21,1,,,,,フェニックスコーポレーション,0
1739,7080001026947,新規,0,2025-05-21,2025-05-21,株式会社サンワークス,,株式会社,静岡県,静岡市駿河区,広野２丁目７番３号,,22,102,4210121,,,,,,,2025-05-21,1,,,,,サンワークス,0
1753,7110001039276,新規,0,2025-05-21,2025-05-21,株式会社ももたろう,,株式会社,新潟県,十日町市,西本町１丁目３９９番地２,,15,210,9480072,,,,,,,2025-05-21,1,,,,,モモタロウ,0
1756,7110003005763,新規,0,2025-05-21,2025-05-21,３ｔｉｖｅ．ｄｅｓｉｇｎ合同会社,,合同会社,新潟県,長岡市,上前島２丁目２００５番地,,15,202,9401140,,,,,,,2025-05-21,1,,,,,スリーティブデザイン,0
1772,7120001275944,新規,0,2025-05-21,2025-05-21,新豊澤株式会社,,株式会社,大阪府,大阪市平野区,平野馬場１丁目５番２５－２０３号,,27,126,5470048,,,,,,,2025-05-21,1,,,,,シンホウタク,0
1777,7120003029497,新規,0,2025-05-21,2025-05-21,ＴＶＡ合同会社,,合同会社,大阪府,大阪市生野区,中川４丁目１４－１６－３０１号,,27,116,5440005,,,,,,,2025-05-21,1,,,,,ティーヴィエイ,0
1778,7120003029530,新規,0,2025-05-21,2025-05-21,新幹線ＫＨＤ合同会社,,合同会社,大阪府,大阪市西区,本田２丁目４番７、１階,,27,106,5500022,,,,,,,2025-05-21,1,,,,,シンカンセンケイエイチディー,0
1780,7120101071624,新規,0,2025-05-21,2025-05-21,五葉電工株式会社,,株式会社,大阪府,岸和田市,磯上町３丁目２０番１２号,,27,202,5960001,,,,,,,2025-05-21,1,,,,,イツバデンコウ,0
1781,7120101071707,新規,0,2025-05-21,2025-05-21,株式会社Ｑｏｏｐ．１３７,,株式会社,大阪府,堺市西区,草部８０３番地４,,27,144,5938312,,,,,,,2025-05-21,1,,,,,クープイチサンナナ,0
1782,7120101071715,新規,0,2025-05-21,2025-05-21,株式会社かわな,,株式会社,大阪府,羽曳野市,島泉７丁目４番１５号,,27,222,5830881,,,,,,,2025-05-21,1,,,,,カワナ,0
1786,7130001079709,新規,0,2025-05-21,2025-05-21,株式会社Ｄｅｌｔａ９ｔｒａｄｉｎｇ,,株式会社,京都府,京都市伏見区,淀樋爪町２２９番地,,26,109,6130901,,,,,,,2025-05-21,1,,,,,デルタナイントレーディング,0
1791,7140001138620,新規,0,2025-05-21,2025-05-21,Ｗ‐ｋｅｙ株式会社,,株式会社,兵庫県,加古川市,加古川町本町３３５番地の１１,,28,210,6750037,,,,,,,2025-05-21,1,,,,,ダブリューキー,0
1792,7140001138629,新規,0,2025-05-21,2025-05-21,株式会社京都西村屋,,株式会社,兵庫県,豊岡市,城崎町湯島４６９番地,,28,209,6696101,,,,,,,2025-05-21,1,,,,,キョウトニシムラヤ,0
1795,7150001028119,新規,0,2025-05-21,2025-05-21,株式会社Ｒｅｆｒａｉｎ,,株式会社,奈良県,大和郡山市,城南町５番６５号,,29,203,6391016,,,,,,,2025-05-21,1,,,,,リフレイン,0
1796,7160001026765,新規,0,2025-05-21,2025-05-21,株式会社トラストフィールド,,株式会社,滋賀県,草津市,若竹町１番３１号ひばりビル２階Ｂ号室,,25,206,5250031,,,,,,,2025-05-21,1,,,,,トラストフィールド,0
1798,7160003003481,新規,0,2025-05-21,2025-05-21,合同会社ウエスト工業,,合同会社,滋賀県,草津市,片岡町１８０番地５,,25,206,5250011,,,,,,,2025-05-21,1,,,,,ウエストコウギョウ,0
1807,7180001166898,新規,0,2025-05-21,2025-05-21,株式会社Ｄａｉｓｙ,,株式会社,愛知県,春日井市,東野町西１丁目１６番地１９,,23,206,4860818,,,,,,,2025-05-21,1,,,,,デイジー,0
1808,7180001166907,新規,0,2025-05-21,2025-05-21,Ｑ・Ｆ・Ａ株式会社,,株式会社,愛知県,名古屋市中川区,澄池町６番１８号,,23,110,4540806,,,,,,,2025-05-21,1,,,,,キューエフエー,0
1812,7180003028493,新規,0,2025-05-21,2025-05-21,合同会社ＦＩＶＥＳＴＡＲ　ＡＧＥＮＴ,,合同会社,愛知県,名古屋市西区,中小田井３丁目２４９,,23,104,4520822,,,,,,,2025-05-21,1,,,,,ファイブスターエージェント,0
1813,7180003028510,新規,0,2025-05-21,2025-05-21,Ｍｏｎｔｅｒｏ　Ｌａｎｋａ　Ｅｎｔｅｒｐｒｉｓｅｓ合同会社,,合同会社,愛知県,名古屋市港区,宝神町字西屋敷１１１３番地司マンション宝神３０３,,23,111,4550833,,,,,,,2025-05-21,1,,,,,モンテロランカエンタープライズ,0
1815,7180301039820,新規,0,2025-05-21,2025-05-21,株式会社アイ日本モータース,,株式会社,愛知県,安城市,根崎町北根１１３－１,,23,212,4441212,,,,,,,2025-05-21,1,,,,,アイニホンモータース,0
1817,7190001032232,新規,0,2025-05-21,2025-05-21,株式会社あおのわ,,株式会社,三重県,四日市市,桜町１３５７番地１,,24,202,5121211,,,,,,,2025-05-21,1,,,,,アオノワ,0
1819,7190003005038,新規,0,2025-05-21,2025-05-21,合同会社ＹＡＥ,,合同会社,三重県,四日市市,西新地６番４号,,24,202,5100087,,,,,,,2025-05-21,1,,,,,ヤエ,0
1846,7330001033208,新規,0,2025-05-21,2025-05-21,株式会社Ｌｕｃｅｎｔ　Ｇｌｏｗ,,株式会社,熊本県,熊本市中央区,出水６丁目４番２３号,,43,101,8620941,,,,,,,2025-05-21,1,,,,,ルーセントグロウ,0
1848,7340001027340,新規,0,2025-05-21,2025-05-21,株式会社日向,,株式会社,鹿児島県,姶良市,平松５５０８番地５,,46,225,8995652,,,,,,,2025-05-21,1,,,,,ヒムカ,0
1858,7370003007073,新規,0,2025-05-21,2025-05-21,合同会社櫻庭コンサルタント,,合同会社,宮城県,仙台市青葉区,立町２１－５－７０１,,04,101,9800822,,,,,,,2025-05-21,1,,,,,サクラバコンサルタント,0
1859,7370003007098,新規,0,2025-05-21,2025-05-21,合同会社Ｐｒｉｓｍ,,合同会社,宮城県,大崎市,古川鶴ケ埣字漆谷地３６番地９,,04,215,9896111,,,,,,,2025-05-21,1,,,,,プリズム,0
1864,7380001035331,新規,0,2025-05-21,2025-05-21,三鈴商事株式会社,,株式会社,福島県,いわき市,東田町塩田２番地の１１,,07,204,9748212,,,,,,,2025-05-21,1,,,,,ミスズショウジ,0
1875,7450003002660,新規,0,2025-05-21,2025-05-21,合同会社ネクストワークス,,合同会社,北海道,旭川市,大雪通１丁目９７８番地の２２５,,01,204,0700010,,,,,,,2025-05-21,1,,,,,ネクストワークス,0
1876,7480001012840,新規,0,2025-05-21,2025-05-21,株式会社ｅｎｊｉｎｅ,,株式会社,徳島県,徳島市,国府町観音寺３０３番地６,,36,201,7793123,,,,,,,2025-05-21,1,,,,,エンジン,0
1877,7480005007093,新規,0,2025-05-21,2025-05-21,吉野川人材育成支援協同組合,,その他の設立登記法人,徳島県,吉野川市,山川町前川２１６番地６,,36,205,7793403,,,,,,,2025-05-21,1,,,,,ヨシノガワジンザイイクセイシエン,0
1881,7490001011049,新規,0,2025-05-21,2025-05-21,株式会社共栄,,株式会社,高知県,南国市,岡豊町常通寺島５３５番地,,39,204,7830047,,,,,,,2025-05-21,1,,,,,キョウエイ,0
1885,7700150130478,新規,0,2025-05-21,2025-05-21,ｚｈｅｊｉａｎｇｓｈｅｎｇｋｅｘｕｅｑｉｃａｉｊｉｎｃｈｕｋｏｕｙｏｕｘｉａｎｚｅｒｅｎｇｏｎｇｓｉ,,外国会社等,,,,,,,,Ｎｏ．９７　Ｔｉａｎｍｕｓｈａｎ　Ｒｏａｄ，Ｘｉｈｕ　Ｄｉｓｔｒｉｃｔ，Ｈａｎｇｚｈｏｕ，Ｚｈｅｊｉａｎｇ　Ｐｒｏｖｉｎｃｅ，Ｃｈａｉｎａ　Ｅｘｐｏｒｔ　Ｄｅｐａｒｔｍｅｎｔ，２／Ｆ，Ｓｃｉｅｎｃｅ　ａｎｄ　Ｔｒａｄｅ　Ｂｕｉｌｄｉｎｇ　Ｈａｎｇｚｈｏｕ，Ｚｈｅｊｉａｎｇ　Ｐｒｏｖｉｎｃｅ．Ｃｈｉｎａ,,,,,,2025-05-21,1,,,,,セツコウシヨウカガクキザイシンシユツコウユウゲンセキニンコウシ,0
1886,7700150130619,新規,0,2025-05-21,2025-05-21,北京中京美佳人力資源管理有限公司,,外国会社等,東京都,渋谷区,東３丁目１７番１１－１００１号,,13,113,1500011,中華人民共和国北京市朝陽区双橋東路５幢一階３２号,,,,,,2025-05-21,1,,,,,ペキンチユウキヨウミカジンリキシゲンカンリユウゲンコウシ,0
1887,7700150130627,新規,0,2025-05-21,2025-05-21,Ｓｈａｎｔｏｕｓｈｉｓｉｆａｎｇｆｕｚｈｕａｎｇ　Ｃｏ．，Ｌｔｄ．,,外国会社等,,,,,,,,Ｓｈａｎ　Ｔｏｕ　Ｃｈｅｎｇｈａｉ　Ｄｉｓｔｒｉｃｔ　６ｔｈ　Ｆｌｏｏｒ，Ｎｏ．６，１１ｔｈ　Ｌａｎｅ，Ｗｅｓｔ　Ｓｅｃｔｉｏｎ，Ｗｅｉｓｈａｇａｎｇ　Ｒｏａｄ，Ｄｅｚｈｅｎｇ　Ｒｏａｄ，Ｌｏｎｇｔｉａｎ　Ｃｏｍｍｕｎｉｔｙ，Ｇｕａｎｇｙｉ　Ｓｕｂｄｉｓｔｒｉｃｔ,,,,,,2025-05-21,1,,,,,シャントウシシファンフズゥアンカンパニーリミテッド,0
1893,8010003047419,新規,0,2025-05-21,2025-05-21,エスティ１７合同会社,,合同会社,東京都,千代田区,丸の内１丁目４番１号東京共同会計事務所内,,13,101,1000005,,,,,,,2025-05-21,1,,,,,エスティジュウナナ,0
1894,8010005040058,新規,0,2025-05-21,2025-05-21,一般社団法人政経共栄法人会,,その他の設立登記法人,東京都,千代田区,神田猿楽町２丁目１－１６シエルブルー３Ｆ,,13,101,1010064,,,,,,,2025-05-21,1,,,,,セイケイキョウエイホウジンカイ,0
1908,8010403035139,新規,0,2025-05-21,2025-05-21,Ｐｌｅａｓｕｒｅ　Ｏｒｃｈｅｓｔｒａ合同会社,,合同会社,東京都,港区,麻布十番１丁目３番９号ＴＢＣ麻布７階７０１号室,,13,103,1060045,,,,,,,2025-05-21,1,,,,,プレジャーオーケストラ,0
1912,8010601067322,新規,0,2025-05-21,2025-05-21,東涵株式会社,,株式会社,東京都,墨田区,向島４丁目１番１－２０８号,,13,107,1310033,,,,,,,2025-05-21,1,,,,,トウカン,0
1913,8010601067339,新規,0,2025-05-21,2025-05-21,株式会社森語,,株式会社,東京都,墨田区,両国４丁目３０番１６号ストーク両国２０２号室,,13,107,1300026,,,,,,,2025-05-21,1,,,,,モリカタリ,0
1914,8010603011567,新規,0,2025-05-21,2025-05-21,合同会社ゴーリキ,,合同会社,東京都,墨田区,東向島２丁目４番１号１０１,,13,107,1310032,,,,,,,2025-05-21,1,,,,,ゴーリキ,0
1917,8010703007713,新規,0,2025-05-21,2025-05-21,合同会社ＤｒａｃｏＢａｍｂｏｏ,,合同会社,東京都,品川区,南大井５丁目１番６号,,13,109,1400013,,,,,,,2025-05-21,1,,,,,ドラコバンブー,0
1925,8011001169510,新規,0,2025-05-21,2025-05-21,株式会社ＡｓｓｉｓＴ,,株式会社,東京都,渋谷区,恵比寿西２丁目８番４号ＥＸ恵比寿西ビル５階,,13,113,1500021,,,,,,,2025-05-21,1,,,,,アシスト,0
1926,8011003021520,新規,0,2025-05-21,2025-05-21,合同会社ＦＵＮ,,合同会社,東京都,渋谷区,神泉町１０番１５号アネックス神泉３０１,,13,113,1500045,,,,,,,2025-05-21,1,,,,,ファン,0
1927,8011003021553,新規,0,2025-05-21,2025-05-21,合同会社ｍｒｅｐ,,合同会社,東京都,渋谷区,円山町５番３号ＭＩＥＵＸ渋谷ビル８階,,13,113,1500044,,,,,,,2025-05-21,1,,,,,エムレップ,0
1928,8011003021660,新規,0,2025-05-21,2025-05-21,合同会社ＫＵＲＯＭ,,合同会社,東京都,目黒区,目黒２丁目１１－１５シティハウス目黒ザグランド８０３号室,,13,110,1530063,,,,,,,2025-05-21,1,,,,,クロム,0
1931,8011201026362,新規,0,2025-05-21,2025-05-21,株式会社ＡＪＳペイント,,株式会社,東京都,中野区,鷲宮一丁目２３番地５,,13,114,1640000,,,,,,,2025-05-21,1,,,,,エージェイエスペイント,0
1934,8011303005561,新規,0,2025-05-21,2025-05-21,ＮＳＹ合同会社,,合同会社,東京都,杉並区,高円寺北２丁目１６番７号,,13,115,1660002,,,,,,,2025-05-21,1,,,,,エヌエスワイ,0
1941,8012403007142,新規,0,2025-05-21,2025-05-21,源沐合同会社,,合同会社,東京都,多摩市,山王下１丁目１２－５タウンライフ多摩センターＩＩ４０４号室,00139247,13,224,2060042,,,,,,,2025-05-21,1,,,,,,0
1946,8013301054268,新規,0,2025-05-21,2025-05-21,森羅商事株式会社,,株式会社,東京都,豊島区,東池袋２丁目６２番８号ＢＩＧオフィスプラザ池袋１２０６,,13,116,1700013,,,,,,,2025-05-21,1,,,,,シンラショウジ,0
1947,8013301054292,新規,0,2025-05-21,2025-05-21,株式会社ＵＫＩＹＯ,,株式会社,東京都,豊島区,南長崎４丁目７－１１,,13,116,1710052,,,,,,,2025-05-21,1,,,,,ウキヨ,0
1948,8013301054301,新規,0,2025-05-21,2025-05-21,株式会社Ａｃｅｓｏ,,株式会社,東京都,豊島区,東池袋１丁目２－２東池ビル７Ｆ,,13,116,1700013,,,,,,,2025-05-21,1,,,,,アケソ,0
1949,8013303007661,新規,0,2025-05-21,2025-05-21,合同会社アンジュ,,合同会社,東京都,豊島区,目白３丁目１３番２号,,13,116,1710031,,,,,,,2025-05-21,1,,,,,アンジュ,0
1962,8020001162953,新規,0,2025-05-21,2025-05-21,ギャクテン株式会社,,株式会社,神奈川県,川崎市幸区,中幸町３丁目２６番地２４クレッセント川崎タワー１０１０,,14,132,2120012,,,,,,,2025-05-21,1,,,,,ギャクテン,0
1966,8020003028517,新規,0,2025-05-21,2025-05-21,ＩＳＤＫＯＧＹＯ合同会社,,合同会社,神奈川県,横浜市神奈川区,子安通２丁目２３７番地４ビックヴァン横浜アクティブシティ３０４号,,14,102,2210021,,,,,,,2025-05-21,1,,,,,アイエスディーコウギョウ,0
1975,8030003026800,新規,0,2025-05-21,2025-05-21,ＤＵＹ　ＡＮＨ　ＭＯＢＩＬＥ合同会社,,合同会社,埼玉県,蕨市,南町３丁目５番９号ＢＯＡ２番館２０３号室,,11,223,3350003,,,,,,,2025-05-21,1,,,,,ズイアインモバイル,0
1984,8040003027574,新規,0,2025-05-21,2025-05-21,錦国際貿易合同会社,,合同会社,千葉県,松戸市,古ケ崎４丁目３４５６番地の１,,12,207,2710068,,,,,,,2025-05-21,1,,,,,ニシキコクサイボウエキ,0
1985,8040003027608,新規,0,2025-05-21,2025-05-21,ＨＳ　ＴＲＡＤＩＮＧ合同会社,,合同会社,千葉県,野田市,中戸６３番地３６,,12,208,2700215,,,,,,,2025-05-21,1,,,,,エイチエストレーディング,0
1986,8040003027640,新規,0,2025-05-21,2025-05-21,ＪＡＶＮ合同会社,,合同会社,千葉県,柏市,柏３丁目８番５号３Ｆ,,12,217,2770005,,,,,,,2025-05-21,1,,,,,ジャブン,0
1991,8050003009282,新規,0,2025-05-21,2025-05-21,合同会社セイワコーポレーション,,合同会社,茨城県,ひたちなか市,大字馬渡３８２７番地の１３,,08,221,3120012,,,,,,,2025-05-21,1,,,,,セイワコーポレーション,0
1992,8060001038217,新規,0,2025-05-21,2025-05-21,株式会社ＨＡＳＳＡＮ　ＴＲＡＤＩＮＧ,,株式会社,栃木県,栃木市,大塚町８５４番地２５,,09,203,3280007,,,,,,,2025-05-21,1,,,,,ハッサントレーディング,0
1995,8070001042952,新規,0,2025-05-21,2025-05-21,株式会社Ｍｏｍｏｎｏ,,株式会社,群馬県,利根郡みなかみ町,石倉３４３番地２,,10,449,3791311,,,,,,,2025-05-21,1,,,,,,0
1997,8070005010393,新規,0,2025-05-21,2025-05-21,一般社団法人ＳＵＮＦＬＯＷＥＲＳ,,その他の設立登記法人,群馬県,高崎市,宮沢町９１番地,,10,202,3703338,,,,,,,2025-05-21,1,,,,,サンフラワーズ,0
2008,8100001038625,新規,0,2025-05-21,2025-05-21,株式会社プルス,,株式会社,長野県,諏訪市,大字中洲２５０７番地４,,20,206,3920015,,,,,,,2025-05-21,1,,,,,プルス,0
2012,8110003005762,新規,0,2025-05-21,2025-05-21,合同会社匠建築,,合同会社,新潟県,上越市,上昭和町２番８号,,15,222,9430894,,,,,,,2025-05-21,1,,,,,タクミケンチク,0
2022,8120001275852,新規,0,2025-05-21,2025-05-21,伊洋国際株式会社,,株式会社,大阪府,大阪市中央区,内本町２丁目３－１１内本町グリーンビル７Ｆ,,27,128,5400026,,,,,,,2025-05-21,1,,,,,イヨウコクサイ,0
2023,8120001275869,新規,0,2025-05-21,2025-05-21,株式会社令和商事,,株式会社,大阪府,大阪市西成区,花園南２丁目６番１４－３０６号,,27,122,5570015,,,,,,,2025-05-21,1,,,,,レイワショウジ,0
2024,8120001275877,新規,0,2025-05-21,2025-05-21,株式会社ＳＵＮＲＩＳＥ,,株式会社,大阪府,大阪市東淀川区,豊新１丁目１５番１１号,,27,114,5330014,,,,,,,2025-05-21,1,,,,,サンライズ,0
2025,8120001275910,新規,0,2025-05-21,2025-05-21,アンベスティール株式会社,,株式会社,大阪府,大阪市城東区,今福西１丁目７番２３号,,27,118,5360004,,,,,,,2025-05-21,1,,,,,アンベスティール,0
2026,8120001275927,新規,0,2025-05-21,2025-05-21,株式会社ルフィア,,株式会社,大阪府,大阪市東淀川区,菅原１丁目１番２９－７０４号,,27,114,5330022,,,,,,,2025-05-21,1,,,,,ルフィア,0
2027,8120001275951,新規,0,2025-05-21,2025-05-21,株式会社泉菓,,株式会社,大阪府,大阪市中央区,南船場４丁目１０番５号南船場ＳＯＨＯビル７０２,,27,128,5420081,,,,,,,2025-05-21,1,,,,,センカ,0
2028,8120001275968,新規,0,2025-05-21,2025-05-21,株式会社戎創,,株式会社,大阪府,大阪市中央区,南船場１丁目１６番２３号パレロワイヤル順慶町９０６号,,27,128,5420081,,,,,,,2025-05-21,1,,,,,エビスソウ,0
2029,8120001276025,新規,0,2025-05-21,2025-05-21,宇＿株式会社,00139246,株式会社,大阪府,大阪市東淀川区,大桐１丁目３番８号１階１Ｅ,,27,114,5330011,,,,,,,2025-05-21,1,,,,,ウキン,0
2047,8122001039238,新規,0,2025-05-21,2025-05-21,株式会社ＬＩＭＥ,,株式会社,大阪府,大東市,御領１丁目２番５号,,27,218,5740064,,,,,,,2025-05-21,1,,,,,ライム,0
2052,8130001079690,新規,0,2025-05-21,2025-05-21,株式会社矢田電装,,株式会社,京都府,宇治市,小倉町西畑４０番地の５,,26,204,6110042,,,,,,,2025-05-21,1,,,,,ヤダデンソウ,0
2055,8130003010471,新規,0,2025-05-21,2025-05-21,ａｃｕｔ　Ｄｅｓｉｇｎ合同会社,,合同会社,京都府,京都市山科区,勧修寺縄手町２９番地ロイヤルハイツ和田４０Ｂ,,26,110,6078215,,,,,,,2025-05-21,1,,,,,アクトデザイン,0
2059,8140001138586,新規,0,2025-05-21,2025-05-21,Ｂａｓｅ株式会社,,株式会社,兵庫県,高砂市,高砂町朝日町２丁目７番３－１００４号デュオプレステージ高砂駅前スカイテラス,,28,216,6760021,,,,,,,2025-05-21,1,,,,,ベイス,0
2060,8140001138611,新規,0,2025-05-21,2025-05-21,ＨＵ貿易株式会社,,株式会社,兵庫県,神戸市中央区,生田町１丁目１番２２号ニッシンビル,,28,110,6510092,,,,,,,2025-05-21,1,,,,,エイチユーボウエキ,0
2061,8140001138628,新規,0,2025-05-21,2025-05-21,株式会社ケフィガータ,,株式会社,兵庫県,西宮市,戸田町３番２５号,,28,204,6620916,,,,,,,2025-05-21,1,,,,,ケフィガータ,0
2064,8140003022094,新規,0,2025-05-21,2025-05-21,吉丸合同会社,,合同会社,兵庫県,加古郡播磨町,北野添３丁目５番１５号,,28,382,6750158,,,,,,,2025-05-21,1,,,,,ヨシマル,0
2065,8150001028118,新規,0,2025-05-21,2025-05-21,株式会社だるま,,株式会社,奈良県,香芝市,下田西２丁目５番１８号,,29,210,6390231,,,,,,,2025-05-21,1,,,,,ダルマ,0
2066,8150001028142,新規,0,2025-05-21,2025-05-21,株式会社ＤｏＴｅｃｈ,,株式会社,奈良県,橿原市,中曽司町１３２－６,,29,205,6340845,,,,,,,2025-05-21,1,,,,,ドットテック,0
2069,8160005011408,新規,0,2025-05-21,2025-05-21,特定非営利活動法人Ｓｕｎ　Ｓｕｎ,,その他の設立登記法人,滋賀県,大津市,和邇南浜３９－１,,25,201,5200523,,,,,,,2025-05-21,1,,,,,サンサン,0
2072,8170001018612,新規,0,2025-05-21,2025-05-21,株式会社アグリスプリング,,株式会社,和歌山県,有田郡広川町,大字西広１２３７番地,,30,362,6430074,,,,,,,2025-05-21,1,,,,,アグリスプリング,0
2078,8180001166897,新規,0,2025-05-21,2025-05-21,株式会社ＬＩＮＸ,,株式会社,愛知県,小牧市,大字三ツ渕１５１８番地１ｅ‐ｓｐａｃｅＢ,,23,219,4850075,,,,,,,2025-05-21,1,,,,,リンクス,0
2083,8180003028492,新規,0,2025-05-21,2025-05-21,合同会社プライム,,合同会社,愛知県,名古屋市中川区,中郷４丁目１１１－１,,23,110,4540921,,,,,,,2025-05-21,1,,,,,プライム,0
2086,8190001032223,新規,0,2025-05-21,2025-05-21,Ｐｒｏｘｉｍｏ　Ｄｅｓｉｇｎ株式会社,,株式会社,三重県,鈴鹿市,郡山町２００２番地の１２５,,24,207,5100263,,,,,,,2025-05-21,1,,,,,プロッシモデザイン,0
2087,8190001032231,新規,0,2025-05-21,2025-05-21,株式会社伊勢おかげステイ＆リゾーツ,,株式会社,三重県,伊勢市,中村町６０７番地２８号,,24,203,5160028,,,,,,,2025-05-21,1,,,,,,0
2099,8240001064962,新規,0,2025-05-21,2025-05-21,廿日市さくら電力株式会社,,株式会社,広島県,廿日市市,木材港南１２番２０号,,34,213,7380022,,,,,,,2025-05-21,1,,,,,ハツカイチサクラデンリョク,0
2105,8250003003728,新規,0,2025-05-21,2025-05-21,ＴＥＳＡ　ＷＯＲＫＳ合同会社,,合同会社,山口県,下関市,神田町２丁目７番３号,,35,201,7500044,,,,,,,2025-05-21,1,,,,,テサワークス,0
2107,8260003005161,新規,0,2025-05-21,2025-05-21,合同会社アステラッセ,,合同会社,岡山県,岡山市北区,加茂２６０番地３８,,33,101,7011342,,,,,,,2025-05-21,1,,,,,アステラッセ,0
2114,8290001110084,新規,0,2025-05-21,2025-05-21,株式会社ブラックハーツ,,株式会社,福岡県,福岡市博多区,那珂２丁目３－１４Ｄ－ｒｏｏｍ竹下Ｂ棟１０１,,40,132,8120893,,,,,,,2025-05-21,1,,,,,ブラックハーツ,0
2118,8290005019751,新規,0,2025-05-21,2025-05-21,一般社団法人ワイワイ作業所,,その他の設立登記法人,福岡県,福岡市早良区,大字石釜１２１４番地１,,40,137,8111132,,,,,,,2025-05-21,1,,,,,ワイワイサギョウショ,0
2124,8320003004669,新規,0,2025-05-21,2025-05-21,合同会社Ｖｉｓｉｏｎ　Ｓｔｏｒｙ,,合同会社,大分県,中津市,大字大貞３４５番地５０,,44,203,8710153,,,,,,,2025-05-21,1,,,,,ビジョンストーリー,0
2129,8340001027348,新規,0,2025-05-21,2025-05-21,菅原団地管理株式会社,,株式会社,鹿児島県,鹿児島市,本城町２５６９番地１,,46,201,8911303,,,,,,,2025-05-21,1,,,,,スガワラダンチカンリ,0
2133,8360001035200,新規,0,2025-05-21,2025-05-21,株式会社べた凪,,株式会社,沖縄県,石垣市,字登野城８２番地１オーシャンパレス登野城３０２号,,47,207,9070004,,,,,,,2025-05-21,1,,,,,ベタナギ,0
2134,8360001035233,新規,0,2025-05-21,2025-05-21,株式会社沖縄福祉創業社,,株式会社,沖縄県,南城市,知念字山里２１４番地３,,47,215,9011515,,,,,,,2025-05-21,1,,,,,オキナワフクシソウギョウシャ,0
2146,8410003004107,新規,0,2025-05-21,2025-05-21,アオイテラス合同会社,,合同会社,秋田県,大館市,上代野字上代野８番地１,,05,204,0170031,,,,,,,2025-05-21,1,,,,,アオイテラス,0
2156,8700150130477,新規,0,2025-05-21,2025-05-21,Ｈｕａ　Ｎａｎ　Ｎａｏ　Ｋｏｎｇ　Ｇｕａｎｇｄｏｎｇ　Ｚｈｉ　Ｎｅｎｇ　Ｋｅ　Ｊｉ　Ｃｏ．，Ｌｔｄ,,外国会社等,,,,,,,,Ｕｎｉｔ　０３－０４，６ｔｈ　Ｆｌｏｏｒ，Ｂｕｉｌｄｉｎｇ　Ａ，Ｎｏ．６８　Ｓｐｉｒａｌ　Ａｖｅｎｕｅ，Ｇｕａｎｇｚｈｏｕ　Ｉｎｔｅｒｎａｔｉｏｎａｌ　Ｂｉｏ－Ｉｓｌａｎｄ，Ｈｕａｎｇｐｕ　Ｄｉｓｔｒｉｃｔ，Ｇｕａｎｇｚｈｏｕ,,,,,,2025-05-21,1,,,,,カナンノウコンカントンチノウカギユウゲンコウシ,0
2157,8700150130592,新規,0,2025-05-21,2025-05-21,佳敏企業有限公司,,外国会社等,,,,,,,,高雄市前金区新田路２９９號,,,,,,2025-05-21,1,,,,,カビンキギヨウユウゲンコウシ,0
2158,8700150130618,新規,0,2025-05-21,2025-05-21,中国聯合航空有限公司,,外国会社等,東京都,品川区,南大井６丁目２７番２０号７０６室,,13,109,1400013,中華人民共和国北京市大興区楡＿鎮楡順路１２号１－７７７室,00137698,,,,,2025-05-21,1,,,,,チユウゴクレンゴウコウクウユウゲンコウシ,0
2159,8700150130626,新規,0,2025-05-21,2025-05-21,宮崎市住吉土地改良区,,その他,宮崎県,宮崎市,橘通西１丁目１番１号,,45,201,8800001,,,,,,,2025-05-21,1,,,,,ミヤザキシスミヨシトチカイリヨウク,0
2170,9010003047376,新規,0,2025-05-21,2025-05-21,合同会社近野会計,,合同会社,東京都,中央区,晴海５丁目６番３－１３０２号,,13,102,1040053,,,,,,,2025-05-21,1,,,,,コンノカイケイ,0
2171,9010003047401,新規,0,2025-05-21,2025-05-21,住吉プロパティー合同会社,,合同会社,東京都,千代田区,丸の内１丁目１１番１号,,13,101,1000005,,,,,,,2025-05-21,1,,,,,スミヨシプロパティー,0
2179,9010401190380,新規,0,2025-05-21,2025-05-21,株式会社オグゼマ,,株式会社,東京都,港区,南麻布４丁目１１番１７号,,13,103,1060047,,,,,,,2025-05-21,1,,,,,オグゼマ,0
2180,9010401190430,新規,0,2025-05-21,2025-05-21,株式会社ＭＤＲＥＸ　ＪＡＰＡＮ,,株式会社,東京都,港区,虎ノ門２丁目３番１７号虎ノ門２丁目タワー１９階,,13,103,1050001,,,,,,,2025-05-21,1,,,,,エムディレックスジャパン,0
2183,9010405024337,新規,0,2025-05-21,2025-05-21,一般社団法人生活ニュースコモンズ,,その他の設立登記法人,東京都,港区,芝公園２丁目６番８号日本女子会館５階,,13,103,1050011,,,,,,,2025-05-21,1,,,,,セイカツニュースコモンズ,0
2184,9010503007846,新規,0,2025-05-21,2025-05-21,君清合同会社,,合同会社,東京都,台東区,上野６丁目７番１６号５０４,,13,106,1100005,,,,,,,2025-05-21,1,,,,,クンセイ,0
2187,9010701047743,新規,0,2025-05-21,2025-05-21,明日香株式会社,,株式会社,東京都,品川区,西五反田８丁目１－１３ＧＢＳ－Ｄ－９号,,13,109,1410031,,,,,,,2025-05-21,1,,,,,アスカ,0
2189,9010703007720,新規,0,2025-05-21,2025-05-21,合同会社ハルカナ,,合同会社,東京都,品川区,大井４丁目５番２－４０３号,,13,109,1400014,,,,,,,2025-05-21,1,,,,,ハルカナ,0
2197,9011001169419,新規,0,2025-05-21,2025-05-21,株式会社Ｈｅｌｌｏ　Ｆｉｔ,,株式会社,東京都,目黒区,青葉台１丁目１４－４ＣＯＮＴＲＡＬｎａｋａｍｅｇｕｒｏＷＬ－０４,,13,110,1530042,,,,,,,2025-05-21,1,,,,,ハローフィット,0
2198,9011001169451,新規,0,2025-05-21,2025-05-21,株式会社プラウド,,株式会社,東京都,渋谷区,道玄坂１丁目１０番８号渋谷道玄坂東急ビル２Ｆ－Ｃ,,13,113,1500043,,,,,,,2025-05-21,1,,,,,プラウド,0
2199,9011001169518,新規,0,2025-05-21,2025-05-21,株式会社剣,,株式会社,東京都,渋谷区,渋谷１丁目８－６ＶＯＲＴ渋谷宮益坂４Ｆ,,13,113,1500002,,,,,,,2025-05-21,1,,,,,ツルギ,0
2200,9011003021577,新規,0,2025-05-21,2025-05-21,合同会社１８番地,,合同会社,東京都,渋谷区,道玄坂１丁目１０番８号渋谷道玄坂東急ビル２Ｆ－Ｃ,,13,113,1500043,,,,,,,2025-05-21,1,,,,,ジュウハチバンチ,0
2201,9011003021593,新規,0,2025-05-21,2025-05-21,Ｂｌｕｅｆｉｎ　Ｐａｒｔｎｅｒｓ合同会社,,合同会社,東京都,渋谷区,神宮前６丁目２３番４号桑野ビル２階,,13,113,1500001,,,,,,,2025-05-21,1,,,,,ブルーフィンパートナーズ,0
2205,9011103015917,新規,0,2025-05-21,2025-05-21,ＴＨＥ　ＪＫＬ合同会社,,合同会社,東京都,新宿区,若葉１丁目６番１－３０８号,,13,104,1600011,,,,,,,2025-05-21,1,,,,,ザジェーケーエル,0
2211,9011301030593,新規,0,2025-05-21,2025-05-21,Ｃ‐ｂｏｏｓｔ株式会社,,株式会社,東京都,杉並区,西荻北３丁目４５番１号,,13,115,1670042,,,,,,,2025-05-21,1,,,,,シーブースト,0
2213,9011303005560,新規,0,2025-05-21,2025-05-21,ＰＫＰ合同会社,,合同会社,東京都,杉並区,高井戸西１丁目２７番５号,,13,115,1680071,,,,,,,2025-05-21,1,,,,,ピーケーピー,0
2214,9011403004702,新規,0,2025-05-21,2025-05-21,木子合同会社,,合同会社,東京都,板橋区,仲町６３番７号ＯＥＯｆｆｉｃｅＢｌｄｇ．２１０号,,13,119,1730022,,,,,,,2025-05-21,1,,,,,キノコ,0
2218,9011501032092,新規,0,2025-05-21,2025-05-21,ＤＵＴＳ　ｄｅｓｉｇｎ株式会社,,株式会社,東京都,荒川区,南千住２丁目１６－９マッスルビル５０２号室,,13,118,1160003,,,,,,,2025-05-21,1,,,,,ダッツデザイン,0
2222,9011601028668,新規,0,2025-05-21,2025-05-21,株式会社ＫＹサービス,,株式会社,東京都,練馬区,平和台１丁目３６番１５－４０７号,,13,120,1790083,,,,,,,2025-05-21,1,,,,,ケーワイサービス,0
2223,9011603004709,新規,0,2025-05-21,2025-05-21,Ｐｏｌａｒｉｓ　Ｈｏｌｄｉｎｇｓ合同会社,,合同会社,東京都,練馬区,高松５丁目２０番１号プラウド光が丘２０１,,13,120,1790075,,,,,,,2025-05-21,1,,,,,ポラリスホールディングス,0
2228,9012401043122,新規,0,2025-05-21,2025-05-21,株式会社Ａｂｉｔａｓ　Ｈｏｍｅ’ｓ,,株式会社,東京都,三鷹市,上連雀７丁目１２番９号リヒテンシュタイン１階,,13,204,1810012,,,,,,,2025-05-21,1,,,,,アビタスホームズ,0
2237,9020001162936,新規,0,2025-05-21,2025-05-21,株式会社Ａ　ｄｏｔ　ｗａｌｋ,,株式会社,神奈川県,川崎市多摩区,登戸新町３６０番地２,,14,135,2140013,,,,,,,2025-05-21,1,,,,,エードットウォーク,0
2240,9020003028524,新規,0,2025-05-21,2025-05-21,合同会社エレメンツの環,,合同会社,神奈川県,横浜市都筑区,中川中央１丁目２１－３ドゥーエセンター北２０１,,14,118,2240003,,,,,,,2025-05-21,1,,,,,エレメンツノワ,0
2242,9021001085276,新規,0,2025-05-21,2025-05-21,日本翼力特鵬株式会社,,株式会社,神奈川県,藤沢市,朝日町１３番１６－２０６号,,14,205,2510054,,,,,,,2025-05-21,1,,,,,ニホンヨクリョクトクホウ,0
2243,9021001085284,新規,0,2025-05-21,2025-05-21,株式会社トラストスタイル,,株式会社,神奈川県,横須賀市,森崎３丁目９番１７号,,14,201,2380023,,,,,,,2025-05-21,1,,,,,トラストスタイル,0
2244,9021001085292,新規,0,2025-05-21,2025-05-21,株式会社五十嵐商事,,株式会社,神奈川県,相模原市南区,上鶴間本町７丁目６番２６号,,14,153,2520318,,,,,,,2025-05-21,1,,,,,イガラシショウジ,0
2249,9030001166580,新規,0,2025-05-21,2025-05-21,匠株式会社,,株式会社,埼玉県,川口市,幸町３丁目９番２８－２０６号ビジネスハイツ川口,,11,203,3320016,,,,,,,2025-05-21,1,,,,,タクミ,0
2251,9030003026808,新規,0,2025-05-21,2025-05-21,合同会社ＳＳＵ,,合同会社,埼玉県,戸田市,笹目５丁目２７番地の６（萩原ビル３０３号室）,,11,224,3350034,,,,,,,2025-05-21,1,,,,,エスエスユウ,0
2253,9040001138604,新規,0,2025-05-21,2025-05-21,ＥＮ　ＢＬＡＳＴ株式会社,,株式会社,千葉県,市川市,八幡２丁目１４番１４号２階,,12,203,2720021,,,,,,,2025-05-21,1,,,,,エンブラスト,0
2262,9050003009273,新規,0,2025-05-21,2025-05-21,合同会社いい感じ,,合同会社,茨城県,結城市,大字結城８７７７番地３,,08,207,3070001,,,,,,,2025-05-21,1,,,,,イイカンジ,0
2280,9090001019279,新規,0,2025-05-21,2025-05-21,株式会社ｔｏｋｅｌｕ,,株式会社,山梨県,富士吉田市,下吉田３丁目４１－１０,,19,202,4030004,,,,,,,2025-05-21,1,,,,,トケル,0
2284,9100001038624,新規,0,2025-05-21,2025-05-21,麗花株式会社,,株式会社,長野県,松本市,大字寿豊丘７７１番地３,,20,202,3990021,,,,,,,2025-05-21,1,,,,,レイカ,0
2289,9110001039274,新規,0,2025-05-21,2025-05-21,やまめ不動産管理株式会社,,株式会社,新潟県,見附市,葛巻１丁目６番２０号,,15,211,9540058,,,,,,,2025-05-21,1,,,,,ヤマメフドウサンカンリ,0
2301,9120001275901,新規,0,2025-05-21,2025-05-21,日本光触媒工業株式会社,,株式会社,大阪府,大阪市西区,北堀江１丁目２０番１５号,,27,106,5500014,,,,,,,2025-05-21,1,,,,,ニホンヒカリショクバイコウギョウ,0
2302,9120001275926,新規,0,2025-05-21,2025-05-21,株式会社ＢｕｙＲｉｃｈ,,株式会社,大阪府,大阪市平野区,平野本町３丁目２番１７号エム・ステージ平野本町ＩＩＩ１０３号,00139238,27,126,5470044,,,,,,,2025-05-21,1,,,,,バイリッチ,0
2303,9120001275942,新規,0,2025-05-21,2025-05-21,株式会社ＭｅｔａＢｌｏｏｍ,,株式会社,大阪府,大阪市北区,梅田１丁目１－３大阪駅前第３ビル２９階１－１－１号室,,27,127,5300001,,,,,,,2025-05-21,1,,,,,メタブルーム,0
2310,9120003029487,新規,0,2025-05-21,2025-05-21,Ｅ‐ｆｏｒｅｓｔ合同会社,,合同会社,大阪府,門真市,栄町１３－８大宝門真ＣＴスクエア２－２１０号室,,27,223,5710047,,,,,,,2025-05-21,1,,,,,イーフォレスト,0
2314,9120101071696,新規,0,2025-05-21,2025-05-21,株式会社ＥＴＫ,,株式会社,大阪府,堺市北区,南花田町２４０－１,,27,146,5918011,,,,,,,2025-05-21,1,,,,,イーティーケー,0
2315,9120101071721,新規,0,2025-05-21,2025-05-21,株式会社ジェネラルモータースインターナショナル,,株式会社,大阪府,泉南市,幡代２丁目１８番２７号,,27,228,5900524,,,,,,,2025-05-21,1,,,,,ジェネラルモータースインターナショナル,0
2317,9120103006469,新規,0,2025-05-21,2025-05-21,合同会社ＭＤ,,合同会社,大阪府,和泉市,室堂町２８８－６、２０４号,,27,219,5941101,,,,,,,2025-05-21,1,,,,,エムディ,0
2320,9120903005661,新規,0,2025-05-21,2025-05-21,合同会社福井,,合同会社,大阪府,茨木市,北春日丘１丁目６番４３号,,27,211,5670048,,,,,,,2025-05-21,1,,,,,フクイ,0
2328,9130001079707,新規,0,2025-05-21,2025-05-21,ＡＴＥＬＩＥＲ　ＨＩＶＥ株式会社,,株式会社,京都府,京都市中京区,壬生相合町６７－１ＵＮ３０２,,26,104,6048812,,,,,,,2025-05-21,1,,,,,アトリエハイブ,0
2335,9140001138503,新規,0,2025-05-21,2025-05-21,株式会社オアフ,,株式会社,兵庫県,神戸市須磨区,天神町３丁目２番１３号,,28,107,6540053,,,,,,,2025-05-21,1,,,,,オアフ,0
2336,9140001138569,新規,0,2025-05-21,2025-05-21,株式会社ｍｅｒｉＢＵＮ,,株式会社,兵庫県,姫路市,西八代町２番１０号,,28,201,6700876,,,,,,,2025-05-21,1,,,,,メリブン,0
2337,9140001138619,新規,0,2025-05-21,2025-05-21,久保田電設工業株式会社,,株式会社,兵庫県,尼崎市,武庫元町２丁目６番７号,,28,202,6610043,,,,,,,2025-05-21,1,,,,,クボタデンセツコウギョウ,0
2338,9140001138627,新規,0,2025-05-21,2025-05-21,株式会社６ＤＥ　ＪＡＰＡＮ,,株式会社,兵庫県,神戸市中央区,元町通１丁目８番４－７０２号,,28,110,6500022,,,,,,,2025-05-21,1,,,,,シックスディーエクステンションジャパン,0
2341,9160001026763,新規,0,2025-05-21,2025-05-21,株式会社レイクビワ土地建物,,株式会社,滋賀県,近江八幡市,浅小井町６６２番地,,25,204,5230817,,,,,,,2025-05-21,1,,,,,レイクビワトチタテモノ,0
2344,9180001166707,新規,0,2025-05-21,2025-05-21,嘉和株式会社,,株式会社,愛知県,名古屋市東区,東桜２丁目３－７東カン名古屋キャステール６３３号室,,23,102,4610005,,,,,,,2025-05-21,1,,,,,カワ,0
2360,9200001043787,新規,0,2025-05-21,2025-05-21,ＡＢＢＡＳ　ＳＨＯＪＩ株式会社,,株式会社,岐阜県,土岐市,泉町河合２２３番地の１,,21,212,5095101,,,,,,,2025-05-21,1,,,,,アッバスショウジ,0
2370,9230003002433,新規,0,2025-05-21,2025-05-21,合同会社メイゾン,,合同会社,富山県,高岡市,吉久２丁目６番１‐１０１号エルフタウン吉久Ｆ棟,,16,202,9330002,,,,,,,2025-05-21,1,,,,,メイゾン,0
2375,9240001064953,新規,0,2025-05-21,2025-05-21,株式会社瀬戸ＲＣ,,株式会社,広島県,福山市,東桜町１２番９号,,34,207,7200065,,,,,,,2025-05-21,1,,,,,セトアールシー,0
2376,9240001064961,新規,0,2025-05-21,2025-05-21,株式会社ＭＴ　ｗｈｉｔｅ,,株式会社,広島県,広島市中区,本通１番２９号ファイブスタービル４Ｆ,,34,101,7300035,,,,,,,2025-05-21,1,,,,,エムティホワイト,0
2386,9280001009426,新規,0,2025-05-21,2025-05-21,株式会社ＡＳＯＢＵ　ＧＲＯＵＰ,,株式会社,島根県,益田市,横田町１３３番地８,,32,204,6995132,,,,,,,2025-05-21,1,,,,,アソブグループ,0
2405,9320001021104,新規,0,2025-05-21,2025-05-21,株式会社真砂,,株式会社,大分県,大分市,東春日町７番１３－１００６号,,44,201,8700037,,,,,,,2025-05-21,1,,,,,マサゴ,0
2406,9320003004668,新規,0,2025-05-21,2025-05-21,合同会社７Ｉｎｃ．,,合同会社,大分県,大分市,大字皆春１１０番地の２４メゾン・ピサロ３０１,,44,201,8700131,,,,,,,2025-05-21,1,,,,,セブンインク,0
2409,9340001027330,新規,0,2025-05-21,2025-05-21,株式会社エコナス,,株式会社,鹿児島県,大島郡龍郷町,浦５７４番地２,,46,527,8940104,,,,,,,2025-05-21,1,,,,,エコナス,0
2410,9340001027347,新規,0,2025-05-21,2025-05-21,梅ヶ丸団地管理株式会社,,株式会社,鹿児島県,鹿児島市,本城町２５６９番地１,,46,201,8911303,,,,,,,2025-05-21,1,,,,,ウメガマルダンチカンリ,0
2417,9360001035240,新規,0,2025-05-21,2025-05-21,株式会社ユニオン・ワークスＡ,,株式会社,沖縄県,南城市,大里字平良２４８０番地７サンテラス１０１,,47,215,9011208,,,,,,,2025-05-21,1,,,,,ユニオンワークスエー,0
2428,9410003004106,新規,0,2025-05-21,2025-05-21,合同会社Ｅｓｔ,,合同会社,秋田県,南秋田郡井川町,浜井川字家ノ東４２８番地,,05,366,0181516,,,,,,,2025-05-21,1,,,,,エスト,0
2436,9430001094444,新規,0,2025-05-21,2025-05-21,株式会社石塚興業,,株式会社,北海道,千歳市,あずさ２丁目７番１１号,,01,224,0660076,,,,,,,2025-05-21,1,,,,,イシヅカコウギョウ,0
2440,9460001006009,新規,0,2025-05-21,2025-05-21,株式会社愛心会,,株式会社,北海道,釧路市,武佐２丁目２５番１２号,,01,206,0850806,,,,,,,2025-05-21,1,,,,,アイシンカイ,0
2444,9480001012839,新規,0,2025-05-21,2025-05-21,トラストリンク株式会社,,株式会社,徳島県,徳島市,渋野町岩鼻８２番地の８０,,36,201,7714267,,,,,,,2025-05-21,1,,,,,,0
2447,9700150130476,新規,0,2025-05-21,2025-05-21,Ｄｏｎｇｇｕａｎｓｈｉ　ｚｈｉｂａｉ　ｄｉａｎｚｉ　ｓｈａｎｇｗｕ　ｙｏｕｘｉａｎｇｏｎｇｓｉ,,外国会社等,,,,,,,,ｆｅｎｇｇｇａｎｇｚｈｅｎｙａｎｔｉａｎｃｕｎ　ｄｏｎｇｓｈｅｎ２ｌｕ６６＃　ｆｅｎｇｇａｎｇ　ｔｉａｎａｎｓｈｕｍａｃｈｅｎｇＳ２　１００４Ａ　Ｄｏｎｇｇｕａｎｓｈｉ　Ｇｕａｎｇｄｏｎｇ　ＣＮ,,,,,,2025-05-21,1,,,,,トウカンシシハクデンシシヨウムユウゲンコウシ,0
2448,9700150130591,新規,0,2025-05-21,2025-05-21,ＨｅｉｋｏＣｏｎｔａｉｎｅｒＳｅｒｖｉｃｅｓＣＯ．，Ｌｔｄ日本駐在員事務所,,外国会社等,東京都,足立区,西新井２丁目４番６号ＡｎｄＰｌｕｓ西新井ビル１０２,,13,121,1230841,ＴｒｕｓｔＣｏｍｐａｎｙＣｏｍｐｌｅｘ，ＡｊｅｌｔａｋｅＲｏａｄ，ＡｊｅｌｔａｋｅＩｓｌａｎｄ，Ｍａｊｕｒｏ，ＭａｒｓｈａｌｌＩｓｌａｎｄ，ＭＨ,,,,,,2025-05-21,1,,,,,ヘイココンテナサービセスニホンチユウザイインジムシヨ,0
