sequenceNumber,corporateNumber,process,correct,updateDate,changeDate,name,nameImageId,kind,prefectureName,cityName,streetNumber,addressImageId,prefectureCode,cityCode,postCode,addressOutside,addressOutsideImageId,closeDate,closeCause,successorCorporateNumber,changeCause,assignmentDate,latest,enName,enPrefectureName,enCityName,enAddressOutside,furigana,hihyoji
8,1010001243983,新規,0,2024-04-26,2024-04-26,株式会社Ｋｅｙｎｅｘｉｏｎ　Ｊａｐａｎ,,株式会社,東京都,中央区,日本橋茅場町１丁目３－７千代田ビル５階,,13,102,1030025,,,,,,,2024-04-26,1,,,,,キネクションジャパン,0
9,1010001244271,新規,0,2024-04-26,2024-04-26,ＦＤＲ株式会社,,株式会社,東京都,千代田区,神田須田町１丁目５番１０号,,13,101,1010041,,,,,,,2024-04-26,1,,,,,エフディーアール,0
10,1010001244338,新規,0,2024-04-26,2024-04-26,Ｓ＆Ｇアセット株式会社,,株式会社,東京都,中央区,銀座４丁目１３番８号岩藤ビル５階,,13,102,1040061,,,,,,,2024-04-26,1,,,,,エスアンドジーアセット,0
11,1010001244354,新規,0,2024-04-26,2024-04-26,ＫＹ　Ｓｏｌｕｔｉｏｎｓ株式会社,,株式会社,東京都,千代田区,九段南１丁目５番６号りそな九段ビル５階ＫＳフロア,,13,101,1020074,,,,,,,2024-04-26,1,,,,,ケーワイソリューションズ,0
12,1010001244379,新規,0,2024-04-26,2024-04-26,株式会社ＬＡＢ　ＳＴＡＣＫＳ,,株式会社,東京都,中央区,日本橋室町１丁目１１番１２号日本橋水野ビル７階,,13,102,1030022,,,,,,,2024-04-26,1,,,,,ラボスタックス,0
21,1010403032431,新規,0,2024-04-26,2024-04-26,ｅパートナーズ合同会社,,合同会社,東京都,港区,北青山２丁目７－２０猪瀬ビル２階,,13,103,1070061,,,,,,,2024-04-26,1,,,,,イーパートナーズ,0
22,1010403032497,新規,0,2024-04-26,2024-04-26,からくり国際貿易合同会社,,合同会社,東京都,港区,芝４丁目７番６号芝ビルディング７０４,,13,103,1080014,,,,,,,2024-04-26,1,,,,,カラクリコクサイボウエキ,0
28,1010601065068,新規,0,2024-04-26,2024-04-26,株式会社パインズクルー,,株式会社,東京都,江東区,森下１丁目１６－１０河田ビル２階,,13,108,1350004,,,,,,,2024-04-26,1,,,,,パインズクルー,0
39,1010903008996,新規,0,2024-04-26,2024-04-26,合同会社ｅｘｐｒｅｓｓ　ｐａｓｓ,,合同会社,東京都,世田谷区,大蔵１丁目２番１－５０４号,,13,112,1570074,,,,,,,2024-04-26,1,,,,,エクスプレスパス,0
41,1010905004614,新規,0,2024-04-26,2024-04-26,一般社団法人世田谷すみればネット,,その他の設立登記法人,東京都,世田谷区,桜丘１丁目３番１９号,,13,112,1560054,,,,,,,2024-04-26,1,,,,,セタガヤスミレバネット,0
46,1011001161589,新規,0,2024-04-26,2024-04-26,Ｐｅｅｒ　Ｓｔｕｄｉｏ株式会社,,株式会社,東京都,渋谷区,神宮前６丁目２３番４号桑野ビル２階,,13,113,1500001,,,,,,,2024-04-26,1,,,,,ピアスタジオ,0
53,1011101107095,新規,0,2024-04-26,2024-04-26,株式会社ブイライバープラス,,株式会社,東京都,新宿区,新宿１丁目６番８号,,13,104,1600022,,,,,,,2024-04-26,1,,,,,ブイライバープラス,0
54,1011101107137,新規,0,2024-04-26,2024-04-26,株式会社アリカインターナショナル,,株式会社,東京都,新宿区,西新宿４丁目１２番地７－６０１号,,13,104,1600023,,,,,,,2024-04-26,1,,,,,アリカインターナショナル,0
57,1011103014315,新規,0,2024-04-26,2024-04-26,合同会社Ｌｉｎｅｋｅ,,合同会社,東京都,新宿区,西新宿３丁目３番１３号西新宿水間ビル２Ｆ,,13,104,1600023,,,,,,,2024-04-26,1,,,,,リネーク,0
58,1011103014364,新規,0,2024-04-26,2024-04-26,合同会社Ｔｈｅ　Ｌｏｎｅｌｉｅｓｔ,,合同会社,東京都,新宿区,中落合２丁目１１番３－２０２号,,13,104,1610032,,,,,,,2024-04-26,1,,,,,ザロンリエスト,0
65,1011503006044,新規,0,2024-04-26,2024-04-26,合同会社Ｂｌｕｅ　Ｅｓｔａｔｅ,,合同会社,東京都,北区,志茂４丁目２５－３,,13,117,1150042,,,,,,,2024-04-26,1,,,,,ブルーエステート,0
69,1011801044150,新規,0,2024-04-26,2024-04-26,株式会社ＯＹＡＭＡ,,株式会社,東京都,足立区,花畑２丁目１４番１８号,,13,121,1210061,,,,,,,2024-04-26,1,,,,,オヤマ,0
73,1012403006539,新規,0,2024-04-26,2024-04-26,合同会社アルナ,,合同会社,東京都,稲城市,平尾３丁目１番地の１平尾住宅３棟５０３号,,13,225,2060823,,,,,,,2024-04-26,1,,,,,アルナ,0
89,1020001156929,新規,0,2024-04-26,2024-04-26,株式会社ｆｏｕｒ　ｄｅｎｔａｌｓ,,株式会社,神奈川県,川崎市中原区,井田杉山町３１－３－４０４ファミール元住吉,,14,133,2110036,,,,,,,2024-04-26,1,,,,,フォーデンタルズ,0
99,1020005016393,新規,0,2024-04-26,2024-04-26,医療法人山腰会,,その他の設立登記法人,神奈川県,横浜市都筑区,中川８丁目１１番１５号,,14,118,2240001,,,,,,,2024-04-26,1,,,,,ヤマコシカイ,0
115,1030001160005,新規,0,2024-04-26,2024-04-26,株式会社ヤジ建,,株式会社,埼玉県,川口市,大字安行吉蔵４０５番地の２,,11,203,3340053,,,,,,,2024-04-26,1,,,,,ヤジケン,0
116,1030001160046,新規,0,2024-04-26,2024-04-26,野口ホールディングス株式会社,,株式会社,埼玉県,東松山市,大字新郷５７６番１,,11,212,3550071,,,,,,,2024-04-26,1,,,,,ノグチホールディングス,0
117,1030001160070,新規,0,2024-04-26,2024-04-26,和永株式会社,,株式会社,埼玉県,さいたま市中央区,大戸１丁目２３－１１,,11,105,3380012,,,,,,,2024-04-26,1,,,,,ワエイ,0
121,1030005021681,新規,0,2024-04-26,2024-04-26,土地家屋調査士法人藤田登記測量事務所,,その他の設立登記法人,埼玉県,久喜市,八甫１０２６番地１,,11,232,3400201,,,,,,,2024-04-26,1,,,,,フジタトウキソクリョウジムショ,0
125,1040001133356,新規,0,2024-04-26,2024-04-26,株式会社Ａｚｅｎａ　Ｌａｂ．,,株式会社,千葉県,市川市,大和田５丁目１３番１１号,,12,203,2720025,,,,,,,2024-04-26,1,,,,,アゼナラボ,0
128,1050001054675,新規,0,2024-04-26,2024-04-26,株式会社杉昇荷役,,株式会社,茨城県,筑西市,藤ケ谷１１８０番地５,,08,227,3080112,,,,,,,2024-04-26,1,,,,,,0
129,1050001054683,新規,0,2024-04-26,2024-04-26,前澤建設工業株式会社,,株式会社,茨城県,鉾田市,汲上５３９番地,,08,234,3112103,,,,,,,2024-04-26,1,,,,,マエザワケンセツコウギョウ,0
130,1050001054691,新規,0,2024-04-26,2024-04-26,株式会社れお不動産,,株式会社,茨城県,稲敷郡阿見町,大字阿見字山崎１７１９番地１５,,08,443,3000331,,,,,,,2024-04-26,1,,,,,レオフドウサン,0
133,1070003005385,新規,0,2024-04-26,2024-04-26,ＬＴＴ合同会社,,合同会社,群馬県,伊勢崎市,連取町１３６９番地９,,10,204,3720812,,,,,,,2024-04-26,1,,,,,エルテテ,0
134,1070003005393,新規,0,2024-04-26,2024-04-26,グローリー合同会社,,合同会社,群馬県,伊勢崎市,三光町２番１２ナスキー２０２,,10,204,3720046,,,,,,,2024-04-26,1,,,,,グローリー,0
135,1080103003049,新規,0,2024-04-26,2024-04-26,合同会社バスコワークス,,合同会社,静岡県,賀茂郡西伊豆町,安良里６７５番地フジイハイツ１０１,,22,306,4103502,,,,,,,2024-04-26,1,,,,,バスコワークス,0
141,1100001037393,新規,0,2024-04-26,2024-04-26,Ｐｌｅｃｔｉｏｎ株式会社,,株式会社,長野県,塩尻市,大字洗馬上小曽部３７８７－１,,20,215,3996462,,,,,,,2024-04-26,1,,,,,プレクション,0
152,1120001264333,新規,0,2024-04-26,2024-04-26,株式会社４‐ＲＭ,,株式会社,大阪府,大阪市北区,中之島３丁目３番３号,,27,127,5300005,,,,,,,2024-04-26,1,,,,,フォーラム,0
153,1120001264366,新規,0,2024-04-26,2024-04-26,株式会社ＥＬＬｎｅｓｓ,,株式会社,大阪府,大阪市北区,大淀南２丁目２－９グランドメゾン新梅田タワーＴＨＥＣＬＵＢＲＥＳＩＤＥＮＣＥ１２１４,,27,127,5310075,,,,,,,2024-04-26,1,,,,,エルネス,0
154,1120001264382,新規,0,2024-04-26,2024-04-26,株式会社コム,,株式会社,大阪府,大阪市北区,西天満３丁目１３番２０号ＡＳビル６階,,27,127,5300047,,,,,,,2024-04-26,1,,,,,コム,0
155,1120001264399,新規,0,2024-04-26,2024-04-26,Ｂａｒｂａｔｏｓ株式会社,,株式会社,大阪府,大阪市北区,梅田１丁目１－３大阪駅前第３ビル２９階１－１－１号室,,27,127,5300001,,,,,,,2024-04-26,1,,,,,バルバトス,0
156,1120001264465,新規,0,2024-04-26,2024-04-26,東吉株式会社,,株式会社,大阪府,大阪市生野区,勝山北４丁目１０番５号,,27,116,5440033,,,,,,,2024-04-26,1,,,,,トウキチ,0
157,1120001264481,新規,0,2024-04-26,2024-04-26,株式会社十彩ホーム,,株式会社,大阪府,大阪市城東区,関目５丁目５番７号３Ｆ,,27,118,5360008,,,,,,,2024-04-26,1,,,,,トイロホーム,0
161,1120003026450,新規,0,2024-04-26,2024-04-26,合同会社ツリーパイン,,合同会社,大阪府,大阪市北区,西天満４丁目１１番４号,,27,127,5300047,,,,,,,2024-04-26,1,,,,,ツリーパイン,0
163,1120101069475,新規,0,2024-04-26,2024-04-26,株式会社Ｓｅｃｒｅｔ　Ｂａｓｅ,,株式会社,大阪府,南河内郡太子町,大字春日１１８６番地の１５,,27,381,5830991,,,,,,,2024-04-26,1,,,,,シークレットベース,0
164,1120101069491,新規,0,2024-04-26,2024-04-26,株式会社寺田マンション,,株式会社,大阪府,和泉市,太町２７９番地,,27,219,5940003,,,,,,,2024-04-26,1,,,,,テラダマンション,0
165,1120103005800,新規,0,2024-04-26,2024-04-26,ｙｏｓｈｉｍｉｋａｎｏｕ合同会社,,合同会社,大阪府,堺市堺区,中安井町１丁４―１１―４０１,,27,141,5900063,,,,,,,2024-04-26,1,,,,,ヨシミカノウ,0
167,1120903005149,新規,0,2024-04-26,2024-04-26,Ａｎｎ’ｓ語学スクール合同会社,,合同会社,大阪府,高槻市,天王町１３番１９号,,27,207,5690088,,,,,,,2024-04-26,1,,,,,アンズゴガクスクール,0
169,1122003002869,新規,0,2024-04-26,2024-04-26,合同会社といろ,,合同会社,大阪府,東大阪市,新庄３丁目４番７号,,27,227,5780963,,,,,,,2024-04-26,1,,,,,トイロ,0
173,1130005017083,新規,0,2024-04-26,2024-04-26,一般社団法人京都未来芸術アカデミー,,その他の設立登記法人,京都府,京都市左京区,一乗寺樋ノ口町３５番地２,,26,103,6068167,,,,,,,2024-04-26,1,,,,,キョウトミライゲイジュツアカデミー,0
177,1140001134220,新規,0,2024-04-26,2024-04-26,株式会社ブリングウォーター,,株式会社,兵庫県,神戸市中央区,磯辺通４丁目１－５ワコーレ神戸三宮トラッドタワー１８１０,,28,110,6510084,,,,,,,2024-04-26,1,,,,,ブリングウォーター,0
178,1140001134245,新規,0,2024-04-26,2024-04-26,株式会社Ｌｏｕｉｓ　Ｗｉｎ,,株式会社,兵庫県,神戸市北区,松宮台１丁目１６番地の１５,,28,109,6511147,,,,,,,2024-04-26,1,,,,,ルイン,0
199,1180001161137,新規,0,2024-04-26,2024-04-26,株式会社ｍｏｒｉ　ｍｏｒｉ,,株式会社,愛知県,名古屋市北区,中丸町３丁目１３番地の１,,23,103,4620056,,,,,,,2024-04-26,1,,,,,モリモリ,0
204,1180003026668,新規,0,2024-04-26,2024-04-26,徳希合同会社,00134560,合同会社,愛知県,名古屋市瑞穂区,白羽根町２丁目６８番地の２,,23,108,4670014,,,,,,,2024-04-26,1,,,,,トクマレ,0
208,1190003004656,新規,0,2024-04-26,2024-04-26,ＭＥＴＡＲＥ合同会社,,合同会社,三重県,四日市市,智積町５９４５番地,,24,202,5121212,,,,,,,2024-04-26,1,,,,,メタリ,0
213,1220003003737,新規,0,2024-04-26,2024-04-26,合同会社金沢リサイクルショップ,,合同会社,石川県,金沢市,東力町ニ１８０番地,,17,201,9218016,,,,,,,2024-04-26,1,,,,,カナザワリサイクルショップ,0
216,1230001020320,新規,0,2024-04-26,2024-04-26,株式会社ＳＨＯＷ　ＲＥＣＯＲＤＳ,,株式会社,富山県,砺波市,庄川町金屋２９４０番地１,,16,208,9320305,,,,,,,2024-04-26,1,,,,,ショーレコーズ,0
222,1240001063129,新規,0,2024-04-26,2024-04-26,永亜株式会社,,株式会社,広島県,福山市,三之丸町８番１８号アークビル４０５,,34,207,7200066,,,,,,,2024-04-26,1,,,,,エイア,0
223,1240002004189,新規,0,2024-04-26,2024-04-26,有限会社川口兼人屋,,有限会社,広島県,広島市中区,舟入本町１７番６号,,34,101,7300843,,,,,,,2024-04-26,1,,,,,カワグチカネトヤ,0
230,1260001038995,新規,0,2024-04-26,2024-04-26,株式会社瀬戸内ジビエサプライ,,株式会社,岡山県,倉敷市,児島小川４丁目８‐７１０,,33,202,7110911,,,,,,,2024-04-26,1,,,,,セトウチジビエサプライ,0
231,1260001039003,新規,0,2024-04-26,2024-04-26,株式会社アウラ,,株式会社,岡山県,岡山市北区,谷万成２丁目６－５０,,33,101,7000071,,,,,,,2024-04-26,1,,,,,アウラ,0
237,1290001105495,新規,0,2024-04-26,2024-04-26,株式会社Ｙ　Ｌｉｆｅ　ｐａｒｔｎｅｒ,,株式会社,福岡県,福岡市西区,野方６丁目１０番７号,,40,135,8190043,,,,,,,2024-04-26,1,,,,,ワイライフパートナー,0
238,1290001105628,新規,0,2024-04-26,2024-04-26,株式会社エコネクト,,株式会社,福岡県,春日市,大和町２丁目２番地７,,40,218,8160874,,,,,,,2024-04-26,1,,,,,エコネクト,0
239,1290001105644,新規,0,2024-04-26,2024-04-26,株式会社プラス商事,,株式会社,福岡県,福岡市東区,三苫５丁目４番３０号,,40,131,8110201,,,,,,,2024-04-26,1,,,,,プラスショウジ,0
241,1290003015206,新規,0,2024-04-26,2024-04-26,合同会社ＨＡＮＡ設計,,合同会社,福岡県,福岡市南区,多賀１丁目１２－８,,40,134,8150072,,,,,,,2024-04-26,1,,,,,ハナセッケイ,0
243,1290801030521,新規,0,2024-04-26,2024-04-26,ハーバーサポート株式会社,,株式会社,福岡県,北九州市小倉北区,篠崎１丁目１０番２７号,,40,106,8030861,,,,,,,2024-04-26,1,,,,,ハーバーサポート,0
244,1290803004705,新規,0,2024-04-26,2024-04-26,合同会社清水登記測量設計事務所,,合同会社,福岡県,北九州市小倉北区,田町３番７－１号,,40,106,8030817,,,,,,,2024-04-26,1,,,,,シミズトウキソクリョウセッケイジムショ,0
247,1310001018983,新規,0,2024-04-26,2024-04-26,ヒアートゥー株式会社,,株式会社,長崎県,長崎市,元船町９－１８長崎ＢｉｚＰＯＲＴ２階,,42,201,8500035,,,,,,,2024-04-26,1,,,,,ヒアートゥー,0
248,1310003004783,新規,0,2024-04-26,2024-04-26,ＯＨＡＲＩＣＯ　ｅａｒｔｈ合同会社,,合同会社,長崎県,大村市,西三城町２１２番地,,42,205,8560825,,,,,,,2024-04-26,1,,,,,オハリコアース,0
250,1320003004345,新規,0,2024-04-26,2024-04-26,フルテラキカク合同会社,,合同会社,大分県,宇佐市,大字赤尾３９２０番地の３,,44,211,8790233,,,,,,,2024-04-26,1,,,,,フルテラキカク,0
251,1320005010151,新規,0,2024-04-26,2024-04-26,医療法人ｔｗｉｎｋｌｅ,,その他の設立登記法人,大分県,大分市,金池町２丁目１番１９号大分駅前ビル５Ｆ,,44,201,8700026,,,,,,,2024-04-26,1,,,,,トゥインクル,0
253,1330001032009,新規,0,2024-04-26,2024-04-26,株式会社ＫＳ不動産,,株式会社,熊本県,八代市,鏡町内田１５７２－２１,,43,202,8694202,,,,,,,2024-04-26,1,,,,,ケイエスフドウサン,0
258,1330003010342,新規,0,2024-04-26,2024-04-26,サンデーソフト合同会社,,合同会社,熊本県,菊池市,七城町砂田４６２番地,,43,210,8611351,,,,,,,2024-04-26,1,,,,,サンデーソフト,0
260,1360001033557,新規,0,2024-04-26,2024-04-26,株式会社ティーダ・プロモーション,,株式会社,沖縄県,那覇市,曙２丁目２６番６号タカダ曙マンション２０９号室,,47,201,9000002,,,,,,,2024-04-26,1,,,,,ティーダプロモーション,0
261,1360001033565,新規,0,2024-04-26,2024-04-26,株式会社Ｃａｍｅｌ　Ｃｒｅａｔｉｏｎ,,株式会社,沖縄県,中頭郡北谷町,桑江１丁目５－１４－１０１,,47,326,9040103,,,,,,,2024-04-26,1,,,,,キャメルクリエーション,0
262,1360001033573,新規,0,2024-04-26,2024-04-26,株式会社７３０クリエイト,,株式会社,沖縄県,石垣市,字大川２４５番地,,47,207,9070022,,,,,,,2024-04-26,1,,,,,ナナサンマルクリエイト,0
266,1370003006584,新規,0,2024-04-26,2024-04-26,アゴニスティココロ合同会社,,合同会社,宮城県,仙台市青葉区,山手町１５番１８号メゾン杜２０１,,04,101,9810967,,,,,,,2024-04-26,1,,,,,アゴニスティココロ,0
273,1380003005742,新規,0,2024-04-26,2024-04-26,合同会社ＲＥＢＯＯＴ,,合同会社,福島県,会津若松市,真宮新町南２丁目１１１－２,,07,202,9650103,,,,,,,2024-04-26,1,,,,,リブート,0
277,1440003001586,新規,0,2024-04-26,2024-04-26,合同会社ＭＥＲＲＹ　ＧＯ　ＬＡＮＤ,,合同会社,北海道,函館市,日吉町２丁目１１番７号,,01,202,0410841,,,,,,,2024-04-26,1,,,,,メリーゴーランド,0
279,1450003002476,新規,0,2024-04-26,2024-04-26,合同会社ＲＹＸ,,合同会社,北海道,旭川市,東光四条３丁目２番１３号小林ビル１階,,01,204,0788344,,,,,,,2024-04-26,1,,,,,,0
282,1500001025580,新規,0,2024-04-26,2024-04-26,株式会社ＡＬＥＸ,,株式会社,愛媛県,松山市,南江戸２丁目１１番２５号,,38,201,7900062,,,,,,,2024-04-26,1,,,,,アレックス,0
285,1700150115823,新規,0,2024-04-26,2024-04-26,ｓｈａｎｄｏｎｇ　ｍｅｉｓｈｕｊｉａｊｕｙｏｎｇｐｉｎ　ｙｏｕｘｉａｎｇｏｎｇｓｉ,,外国会社等,,,,,,,,ｃａｏｘｉａｎｚｈｅｎｇｚｈｕａｎｇｊｉｅｄａｏ，ｓｕｎｚｈｕａｎｇｃｕｎｃｕｎｂｅｉ，ｈｅｚｅｓｈｉ，ｓｈａｎｄｏｎｇｓｈｅｎｇ,,,,,,2024-04-26,1,,,,,シャンドンメイシュジアジュヨンピンヨウシエンゴンス,0
288,1700150125145,新規,0,2024-04-26,2024-04-26,高梨乳業労働組合,,その他,神奈川県,横浜市旭区,本宿町５番地,,14,112,2410023,,,,,,,2024-04-26,1,,,,,タカナシニュウギョウロウドウクミアイ,0
291,2010001244254,新規,0,2024-04-26,2024-04-26,アニソフィア株式会社,,株式会社,東京都,中央区,晴海１丁目８－１０晴海アイランドトリトンスクエアオフィスタワーＸ２７階,,13,102,1040053,,,,,,,2024-04-26,1,,,,,アニソフィア,0
292,2010001244329,新規,0,2024-04-26,2024-04-26,株式会社温故創新ｃｏｍｐａｎｙ,,株式会社,東京都,中央区,銀座３丁目３番８号,,13,102,1040061,,,,,,,2024-04-26,1,,,,,オンコソウシンカンパニー,0
293,2010001244345,新規,0,2024-04-26,2024-04-26,株式会社ＵＬＵトラスト,,株式会社,東京都,中央区,日本橋箱崎町１５番６号,,13,102,1030015,,,,,,,2024-04-26,1,,,,,ウルトラスト,0
294,2010001244444,新規,0,2024-04-26,2024-04-26,株式会社あいメディカルライティングオフィス,,株式会社,東京都,中央区,銀座７丁目１３番２０号銀座ＴＨビル９階,,13,102,1040061,,,,,,,2024-04-26,1,,,,,アイメディカルライティングオフィス,0
296,2010003043596,新規,0,2024-04-26,2024-04-26,野尻合同会社,,合同会社,東京都,中央区,銀座１丁目６番１１号土志田ビルディング３Ｆ,,13,102,1040061,,,,,,,2024-04-26,1,,,,,ノジリ,0
297,2010003043605,新規,0,2024-04-26,2024-04-26,合同会社アクトリアライズ,,合同会社,東京都,中央区,新川２丁目７番１１－１１０５号,,13,102,1040033,,,,,,,2024-04-26,1,,,,,アクトリアライズ,0
302,2010501052181,新規,0,2024-04-26,2024-04-26,株式会社総合Ｆサービス,,株式会社,東京都,台東区,日本堤２丁目３８番１０号,,13,106,1110021,,,,,,,2024-04-26,1,,,,,ソウゴウエフサービス,0
306,2010601065067,新規,0,2024-04-26,2024-04-26,ネオノヴァ株式会社,,株式会社,東京都,墨田区,横川３丁目６番７号３－Ｂ室,,13,107,1300003,,,,,,,2024-04-26,1,,,,,ネオノヴァ,0
307,2010601065075,新規,0,2024-04-26,2024-04-26,Ｏｒｉｅｎｔａｌ　Ｃｏｎｓｕｌｔｉｎｇ株式会社,,株式会社,東京都,江東区,北砂３丁目２８番１号不動コーポ１０７号室,,13,108,1360073,,,,,,,2024-04-26,1,,,,,オリエンタルコンサルティング,0
320,2011003019009,新規,0,2024-04-26,2024-04-26,合同会社丸縁,,合同会社,東京都,渋谷区,渋谷２丁目１９－１５宮益坂ビルディング６０９,,13,113,1500002,,,,,,,2024-04-26,1,,,,,マルエン,0
321,2011003019025,新規,0,2024-04-26,2024-04-26,合同会社ボンド,,合同会社,東京都,渋谷区,笹塚３丁目９－１０ツワイザ４０１,,13,113,1510073,,,,,,,2024-04-26,1,,,,,ボンド,0
322,2011003019033,新規,0,2024-04-26,2024-04-26,合同会社ＴＥＥＮＡＧＥＲ,,合同会社,東京都,渋谷区,神宮前６丁目３２番５号ドルミ原宿２０３,,13,113,1500001,,,,,,,2024-04-26,1,,,,,ティーンエイジャー,0
326,2011101107136,新規,0,2024-04-26,2024-04-26,株式会社グローバルワークス,,株式会社,東京都,新宿区,歌舞伎町１丁目３－１５ザ・カタリーナビル地上８階Ｅ室,,13,104,1600021,,,,,,,2024-04-26,1,,,,,グローバルワークス,0
328,2011103014363,新規,0,2024-04-26,2024-04-26,合同会社Ｏｚｚｈｅａｄ　Ｔｏｋｙｏ,,合同会社,東京都,新宿区,歌舞伎町２丁目２－２１ライオンズマンション歌舞伎町１２６,,13,104,1600021,,,,,,,2024-04-26,1,,,,,オズヘッドトーキョー,0
330,2011201025428,新規,0,2024-04-26,2024-04-26,株式会社国際ビジネスコンサルティング,,株式会社,東京都,中野区,中央１丁目４番７号,,13,114,1640011,,,,,,,2024-04-26,1,,,,,コクサイビジネスコンサルティング,0
332,2011301029601,新規,0,2024-04-26,2024-04-26,株式会社Ｑｕａｎｔｕｍ　Ｃｏｖｅ,,株式会社,東京都,杉並区,今川３丁目２番１２号,,13,115,1670035,,,,,,,2024-04-26,1,,,,,クオンタムコーブ,0
335,2011501030598,新規,0,2024-04-26,2024-04-26,株式会社丸勝,,株式会社,東京都,北区,豊島４丁目１番１６号１階,,13,117,1140003,,,,,,,2024-04-26,1,,,,,マルショウ,0
340,2011801044141,新規,0,2024-04-26,2024-04-26,株式会社Ｍａｉｓｏｎ,,株式会社,東京都,足立区,足立３丁目１５番８号,,13,121,1200015,,,,,,,2024-04-26,1,,,,,メゾン,0
341,2012301013883,新規,0,2024-04-26,2024-04-26,恒日ジャパン株式会社,,株式会社,東京都,町田市,三輪緑山３丁目４番地１,,13,209,1950055,,,,,,,2024-04-26,1,,,,,コウニチジャパン,0
343,2012403006538,新規,0,2024-04-26,2024-04-26,ｋｕｓ合同会社,,合同会社,東京都,調布市,緑ケ丘１丁目２９－４１,,13,208,1820001,,,,,,,2024-04-26,1,,,,,クス,0
346,2013103001333,新規,0,2024-04-26,2024-04-26,ＬＴ合同会社,,合同会社,東京都,福生市,北田園２丁目２３番１号,,13,218,1970005,,,,,,,2024-04-26,1,,,,,,0
349,2013303007114,新規,0,2024-04-26,2024-04-26,合同会社Ｓｉｕｍ,,合同会社,東京都,豊島区,東池袋３丁目１番１号サンシャイン６０－４５階,,13,116,1700013,,,,,,,2024-04-26,1,,,,,シウム,0
363,2020001156903,新規,0,2024-04-26,2024-04-26,株式会社ＫＮＴ,,株式会社,神奈川県,横浜市都筑区,中川１丁目２番Ｂ－８０２号,,14,118,2240001,,,,,,,2024-04-26,1,,,,,ケーエヌティー,0
368,2020003025998,新規,0,2024-04-26,2024-04-26,Ｃｏｕｒａｇｅ合同会社,,合同会社,神奈川県,横浜市緑区,いぶき野８番地１リヴェールいぶき野４０３号,,14,113,2260028,,,,,,,2024-04-26,1,,,,,クラージュ,0
369,2020003026006,新規,0,2024-04-26,2024-04-26,ＷＪ　ｉｎｔｅｒｎａｔｉｏｎａｌ合同会社,,合同会社,神奈川県,横浜市中区,福富町西通５１番地２,,14,104,2310042,,,,,,,2024-04-26,1,,,,,ダブリュージェーインターナショナル,0
372,2021001082098,新規,0,2024-04-26,2024-04-26,株式会社ＣＲＥＥＴＥ,,株式会社,神奈川県,高座郡寒川町,小谷４丁目２番１４号スズランＢ号棟５号室,,14,321,2530103,,,,,,,2024-04-26,1,,,,,クリート,0
373,2021001082107,新規,0,2024-04-26,2024-04-26,株式会社柳川メイヴファーム,,株式会社,神奈川県,藤沢市,遠藤２００８番地５－１０２号,,14,205,2520816,,,,,,,2024-04-26,1,,,,,ヤナガワメイヴファーム,0
380,2030001160037,新規,0,2024-04-26,2024-04-26,株式会社Ｐｉｅｒ,,株式会社,埼玉県,久喜市,菖蒲町下栢間９３番地４１,,11,232,3460113,,,,,,,2024-04-26,1,,,,,ピア,0
381,2030001160061,新規,0,2024-04-26,2024-04-26,株式会社信電,,株式会社,埼玉県,加須市,久下４丁目８番地４,,11,210,3470063,,,,,,,2024-04-26,1,,,,,シンデン,0
383,2030003024165,新規,0,2024-04-26,2024-04-26,オキナヤ合同会社,,合同会社,埼玉県,春日部市,中央１丁目１０番地１２オキナヤビル４階,,11,214,3440067,,,,,,,2024-04-26,1,,,,,オキナヤ,0
388,2040001133347,新規,0,2024-04-26,2024-04-26,株式会社ｉｄｒｏｏｍ,,株式会社,千葉県,松戸市,南花島３丁目４６番１２－２０２,,12,207,2710065,,,,,,,2024-04-26,1,,,,,アイディールーム,0
389,2040001133355,新規,0,2024-04-26,2024-04-26,株式会社恵比寿,,株式会社,千葉県,柏市,大津ケ丘２丁目３１番地,,12,217,2770921,,,,,,,2024-04-26,1,,,,,エビス,0
390,2040001133363,新規,0,2024-04-26,2024-04-26,株式会社ペイントクラス,,株式会社,千葉県,君津市,南子安８丁目２０番５号,,12,225,2991162,,,,,,,2024-04-26,1,,,,,ペイントクラス,0
395,2040003024874,新規,0,2024-04-26,2024-04-26,合同会社アオキ,,合同会社,千葉県,千葉市中央区,登戸３丁目５番２２号,,12,101,2600032,,,,,,,2024-04-26,1,,,,,アオキ,0
396,2040005022372,新規,0,2024-04-26,2024-04-26,一般社団法人ディーセントワーク推進会,,その他の設立登記法人,千葉県,浦安市,北栄２丁目１９番１６号,,12,227,2790002,,,,,,,2024-04-26,1,,,,,ディーセントワークスイシンカイ,0
400,2060001037042,新規,0,2024-04-26,2024-04-26,株式会社ガジェットフィクサー,,株式会社,栃木県,宇都宮市,東戸祭１丁目２番１２号,,09,201,3200054,,,,,,,2024-04-26,1,,,,,ガジェットフィクサー,0
401,2060003005055,新規,0,2024-04-26,2024-04-26,合同会社マンナンクリエイト,,合同会社,栃木県,河内郡上三川町,大字西汗１７４４番地２２３,,09,301,3290607,,,,,,,2024-04-26,1,,,,,マンナンクリエイト,0
402,2070001041679,新規,0,2024-04-26,2024-04-26,ＡＭＳ株式会社,,株式会社,群馬県,邑楽郡邑楽町,大字篠塚２００９番地１号,,10,525,3700615,,,,,,,2024-04-26,1,,,,,エイエムエス,0
403,2070003005392,新規,0,2024-04-26,2024-04-26,合同会社ＭＡＴＴ,,合同会社,群馬県,前橋市,表町２丁目３０番３号駅前ハーモニービル４ＦＡ－１１号室,,10,201,3710024,,,,,,,2024-04-26,1,,,,,マット,0
404,2080001026266,新規,0,2024-04-26,2024-04-26,株式会社ＳＰＬＥＮＤＯＵＲ,,株式会社,静岡県,静岡市葵区,紺屋町１７－１葵タワー１Ｆ,,22,101,4200852,,,,,,,2024-04-26,1,,,,,,0
408,2080103003048,新規,0,2024-04-26,2024-04-26,合同会社ＲＡＮＡ　ＴＲＡＤＥＲ,,合同会社,静岡県,富士市,西船津３２３番地の４,,22,210,4170814,,,,,,,2024-04-26,1,,,,,,0
411,2100001037401,新規,0,2024-04-26,2024-04-26,株式会社デザインプラス,,株式会社,長野県,北佐久郡軽井沢町,軽井沢東１１番地３３,,20,321,3890104,,,,,,,2024-04-26,1,,,,,デザインプラス,0
434,2120001264349,新規,0,2024-04-26,2024-04-26,得譯株式会社,,株式会社,大阪府,大阪市大正区,三軒家西３丁目４番１６号中山ビル３０５Ａ,,27,108,5510001,,,,,,,2024-04-26,1,,,,,トクヤク,0
435,2120001264415,新規,0,2024-04-26,2024-04-26,辰月株式会社,,株式会社,大阪府,大阪市住之江区,東加賀屋１丁目１１番２４－１２０４号,,27,125,5590012,,,,,,,2024-04-26,1,,,,,タツキ,0
444,2120901049106,新規,0,2024-04-26,2024-04-26,株式会社ワイドキャピタル,,株式会社,大阪府,豊中市,服部本町４丁目２番７－４０１号,,27,203,5610852,,,,,,,2024-04-26,1,,,,,ワイドキャピタル,0
457,2140001134203,新規,0,2024-04-26,2024-04-26,株式会社レルカ,,株式会社,兵庫県,姫路市,城見町８０番地,,28,201,6700831,,,,,,,2024-04-26,1,,,,,レルカ,0
458,2140001134228,新規,0,2024-04-26,2024-04-26,株式会社クラマサ,,株式会社,兵庫県,加古郡播磨町,北野添１丁目１２－１４,,28,382,6750158,,,,,,,2024-04-26,1,,,,,クラマサ,0
459,2140001134244,新規,0,2024-04-26,2024-04-26,いついエージェント株式会社,,株式会社,兵庫県,神戸市西区,前開南町２丁目１０－８サンヴェール学園１０７,,28,111,6512109,,,,,,,2024-04-26,1,,,,,イツイエージェント,0
477,2180301038562,新規,0,2024-04-26,2024-04-26,株式会社ハートアロー,,株式会社,愛知県,岡崎市,上六名３丁目９番地１Ａ９０８,,23,202,4440858,,,,,,,2024-04-26,1,,,,,ハートアロー,0
478,2190003004663,新規,0,2024-04-26,2024-04-26,ＭＫＳｅ．工業合同会社,,合同会社,三重県,鈴鹿市,国府町３２８２番地の１,,24,207,5130836,,,,,,,2024-04-26,1,,,,,エムケイエスイコウギョウ,0
483,2200001042440,新規,0,2024-04-26,2024-04-26,下地工業株式会社,,株式会社,岐阜県,岐阜市,柳津町下佐波５丁目１３９番地５,,21,201,5016121,,,,,,,2024-04-26,1,,,,,シモジコウギョウ,0
487,2240001063144,新規,0,2024-04-26,2024-04-26,株式会社Ｒｏａｄ　Ｊａｃｋ,,株式会社,広島県,広島市安佐南区,緑井１丁目５番１－１６０５号,,34,105,7310103,,,,,,,2024-04-26,1,,,,,ロードジャック,0
489,2250001020631,新規,0,2024-04-26,2024-04-26,ＩＯＴ‐ＡＩ株式会社,,株式会社,山口県,周南市,住崎町１番１１号ＡＺＵＲＥ徳山７Ｃ,,35,215,7450026,,,,,,,2024-04-26,1,,,,,アイオーティエーアイ,0
494,2250003003485,新規,0,2024-04-26,2024-04-26,合同会社十人十色,,合同会社,山口県,岩国市,海土路町２丁目７３番５号,,35,208,7400035,,,,,,,2024-04-26,1,,,,,ジュウニントイロ,0
506,2290001105511,新規,0,2024-04-26,2024-04-26,株式会社マイルトレゾール,,株式会社,福岡県,福岡市東区,若宮３丁目１番３０号,,40,131,8130036,,,,,,,2024-04-26,1,,,,,マイルトレゾール,0
509,2290801030520,新規,0,2024-04-26,2024-04-26,株式会社Ｃｈａｌｋａｓｐｉｄｅｓ,,株式会社,福岡県,北九州市八幡西区,力丸町３番１５－１０２号,,40,109,8070802,,,,,,,2024-04-26,1,,,,,カルカスピデス,0
512,2320003004344,新規,0,2024-04-26,2024-04-26,合同会社ＫＡＮＡＧＯＥ,,合同会社,大分県,速見郡日出町,２４６５番地,,44,341,8791506,,,,,,,2024-04-26,1,,,,,,0
521,2360001033580,新規,0,2024-04-26,2024-04-26,株式会社ノイムコーポレーション,,株式会社,沖縄県,豊見城市,字与根３２６番地６,,47,212,9010224,,,,,,,2024-04-26,1,,,,,ノイムコーポレーション,0
523,2360003013928,新規,0,2024-04-26,2024-04-26,合同会社輝大開発,,合同会社,沖縄県,沖縄市,登川１丁目２番３号１Ｆ,,47,211,9042142,,,,,,,2024-04-26,1,,,,,キダイカイハツ,0
525,2370001051227,新規,0,2024-04-26,2024-04-26,株式会社橋本エナジー,,株式会社,宮城県,東松島市,大曲字寺沼３番地５,,04,214,9810502,,,,,,,2024-04-26,1,,,,,ハシモトエナジー,0
526,2370001051235,新規,0,2024-04-26,2024-04-26,株式会社ｉｎｎｏ　Ｃｅｎｃｅ,,株式会社,宮城県,仙台市太白区,柳生６丁目６番地の１０ティエラ・ルージュＢ―１０８,,04,104,9811106,,,,,,,2024-04-26,1,,,,,イノセンス,0
531,2380003005741,新規,0,2024-04-26,2024-04-26,合同会社ｅ‐ｆｌａｔ,,合同会社,福島県,福島市,渡利字金山下８－２,,07,201,9608141,,,,,,,2024-04-26,1,,,,,イーフラット,0
534,2400003003255,新規,0,2024-04-26,2024-04-26,合同会社ＲＡＫＵＳＵＫＥ,,合同会社,岩手県,盛岡市,加賀野１丁目１２－１３コーポクドウＤ棟１０１,,03,201,0200807,,,,,,,2024-04-26,1,,,,,ラクスケ,0
545,2460101007540,新規,0,2024-04-26,2024-04-26,株式会社アカツキ,,株式会社,北海道,中川郡幕別町,札内新北町６番地の１,,01,643,0890533,,,,,,,2024-04-26,1,,,,,アカツキ,0
548,2470001020171,新規,0,2024-04-26,2024-04-26,株式会社ＮＩＳＨＩＯＫＡ,,株式会社,香川県,綾歌郡宇多津町,大字東分甲２３番地１,,37,386,7690213,,,,,,,2024-04-26,1,,,,,ニシオカ,0
550,2480001012457,新規,0,2024-04-26,2024-04-26,株式会社スマートシティ,,株式会社,徳島県,板野郡松茂町,中喜来字群恵３９番地１,,36,401,7710212,,,,,,,2024-04-26,1,,,,,スマートシティ,0
552,2500003003229,新規,0,2024-04-26,2024-04-26,ＮＨＵＮＧ　ＢＵＩ合同会社,,合同会社,愛媛県,伊予郡松前町,大字浜７３７番地２サンライズビル１階１０１号室,,38,401,7913110,,,,,,,2024-04-26,1,,,,,,0
553,2700150124897,新規,0,2024-04-26,2024-04-17,富山県元警察署長親睦会,,その他,富山県,富山市,丸の内１丁目８－１５余川ビル３階,,16,201,9300085,,,,,,,2024-04-17,1,,,,,トヤマケンモトケイサツシヨチヨウシンボクカイ,0
562,3010003043595,新規,0,2024-04-26,2024-04-26,合同会社ｂｌａｎｄ　ｎｅｗ　ｍｅ,,合同会社,東京都,中央区,勝どき５丁目５番１４－１３２８号,,13,102,1040054,,,,,,,2024-04-26,1,,,,,,0
563,3010003043612,新規,0,2024-04-26,2024-04-26,Ｓｅｖｅｎ・Ｓｅｖｅｎｔｙ合同会社,,合同会社,東京都,中央区,銀座１丁目１２－４Ｎ＆ＥＢＬＤ．７階,,13,102,1040061,,,,,,,2024-04-26,1,,,,,セブンセブンティー,0
568,3010103002352,新規,0,2024-04-26,2024-04-26,ＳＨＯＡＬ合同会社,,合同会社,東京都,八王子市,中野上町５丁目１８－８菊井中野コーポ１Ｆ,,13,201,1920041,,,,,,,2024-04-26,1,,,,,ショウル,0
576,3010401181922,新規,0,2024-04-26,2024-04-26,株式会社Ｔｈｅ　Ｒａｙ,,株式会社,東京都,港区,虎ノ門２丁目２番１号,,13,103,1050001,,,,,,,2024-04-26,1,,,,,ザレイ,0
577,3010403032388,新規,0,2024-04-26,2024-04-26,ひとつなぎ合同会社,,合同会社,東京都,港区,北青山１丁目３番１号アールキューブ青山３階,,13,103,1070061,,,,,,,2024-04-26,1,,,,,ヒトツナギ,0
582,3010503007430,新規,0,2024-04-26,2024-04-26,維敏合同会社,,合同会社,東京都,台東区,東上野４丁目６－７,,13,106,1100015,,,,,,,2024-04-26,1,,,,,イミン,0
584,3010601065074,新規,0,2024-04-26,2024-04-26,博楽株式会社,,株式会社,東京都,江東区,北砂３丁目２８番１号不動コーポ２０５号室,,13,108,1360073,,,,,,,2024-04-26,1,,,,,ハクラク,0
586,3010901055155,新規,0,2024-04-26,2024-04-26,株式会社ＳＨＩＲＡＮＥ,,株式会社,東京都,世田谷区,駒沢２丁目１８番８号,,13,112,1540012,,,,,,,2024-04-26,1,,,,,シラネ,0
591,3011001161587,新規,0,2024-04-26,2024-04-26,株式会社ＤＥＰＡＲＴ　ＰＲＯＤＵＣＴＩＯＮ,,株式会社,東京都,渋谷区,渋谷２丁目１９－１５宮益坂ビルディング６０９,,13,113,1500002,,,,,,,2024-04-26,1,,,,,デパートプロダクション,0
594,3011003018975,新規,0,2024-04-26,2024-04-26,合同会社エーデルワイス,,合同会社,東京都,渋谷区,神宮前３丁目１６番１７号,,13,113,1500001,,,,,,,2024-04-26,1,,,,,エーデルワイス,0
595,3011003019024,新規,0,2024-04-26,2024-04-26,合同会社グッドアイン,,合同会社,東京都,目黒区,自由が丘２丁目１６番１２号ＲＪ３,,13,110,1520035,,,,,,,2024-04-26,1,,,,,グッドアイン,0
599,3011101107102,新規,0,2024-04-26,2024-04-26,Ｅｆｕｎ　Ｐｉｏｎｅｅｒ株式会社,,株式会社,東京都,新宿区,西新宿６丁目１０番１号日土地西新宿ビル８階,,13,104,1600023,,,,,,,2024-04-26,1,,,,,イーファンパイオニア,0
600,3011101107127,新規,0,2024-04-26,2024-04-26,株式会社ベリタスヒューマンテクノロジー,,株式会社,東京都,新宿区,西新宿６丁目５－１新宿アイランドタワー２３階,,13,104,1600023,,,,,,,2024-04-26,1,,,,,ベリタスヒューマンテクノロジー,0
604,3011103014362,新規,0,2024-04-26,2024-04-26,合同会社ミックシティ,,合同会社,東京都,新宿区,西新宿３丁目３番１３号西新宿水間ビル２Ｆ,,13,104,1600023,,,,,,,2024-04-26,1,,,,,ミックシティ,0
605,3011103014370,新規,0,2024-04-26,2024-04-26,合同会社イーシン,,合同会社,東京都,新宿区,西新宿３丁目９番３－８０１号,,13,104,1600023,,,,,,,2024-04-26,1,,,,,イーシン,0
608,3011201025427,新規,0,2024-04-26,2024-04-26,株式会社ＫＫ,,株式会社,東京都,中野区,江原町１丁目９番１８号,,13,114,1650023,,,,,,,2024-04-26,1,,,,,ケーケー,0
610,3011301029609,新規,0,2024-04-26,2024-04-26,株式会社ＳＲＡ,,株式会社,東京都,杉並区,西荻北１丁目４番地３号リリエンハイム３０６,,13,115,1670042,,,,,,,2024-04-26,1,,,,,エスアールエー,0
612,3011401026043,新規,0,2024-04-26,2024-04-26,株式会社松龍,,株式会社,東京都,板橋区,成増１丁目１６番１９号,,13,119,1750094,,,,,,,2024-04-26,1,,,,,マツリュウ,0
613,3011405002296,新規,0,2024-04-26,2024-04-26,医療法人社団花昌美会,,その他の設立登記法人,東京都,板橋区,蓮沼町２３番３号,,13,119,1740052,,,,,,,2024-04-26,1,,,,,ハナショウビカイ,0
623,3011803006205,新規,0,2024-04-26,2024-04-26,ＢＭスクエア合同会社,,合同会社,東京都,足立区,加平２丁目１９番５－７１１号,,13,121,1210055,,,,,,,2024-04-26,1,,,,,ビーエムスクエア,0
624,3012303001984,新規,0,2024-04-26,2024-04-26,Ｄｅｎ合同会社,,合同会社,東京都,町田市,原町田４丁目１１－１３天野ビル４Ｆ,,13,209,1940013,,,,,,,2024-04-26,1,,,,,デン,0
625,3012403006537,新規,0,2024-04-26,2024-04-26,合同会社トーケン,,合同会社,東京都,三鷹市,中原４丁目３４番８号,,13,204,1810005,,,,,,,2024-04-26,1,,,,,トーケン,0
627,3012701018226,新規,0,2024-04-26,2024-04-26,繁花株式会社,,株式会社,東京都,小平市,学園東町３丁目１５番１０－１０３号,,13,211,1870043,,,,,,,2024-04-26,1,,,,,ハンハナ,0
628,3013103001332,新規,0,2024-04-26,2024-04-26,モリロン通商合同会社,,合同会社,東京都,あきる野市,雨間１９３７番地８９,,13,228,1970825,,,,,,,2024-04-26,1,,,,,モリロンツウショウ,0
630,3013301052425,新規,0,2024-04-26,2024-04-26,株式会社メディカルコネクト,,株式会社,東京都,豊島区,南池袋１丁目１６番１５号ダイヤゲート池袋５階,,13,116,1710022,,,,,,,2024-04-26,1,,,,,メディカルコネクト,0
631,3013301052433,新規,0,2024-04-26,2024-04-26,株式会社ＡＹＳモバイル,,株式会社,東京都,豊島区,池袋２丁目７３－３－５０２,,13,116,1710014,,,,,,,2024-04-26,1,,,,,エーワイエスモバイル,0
646,3020003026005,新規,0,2024-04-26,2024-04-26,ＣＨＩＫＡＩ合同会社,,合同会社,神奈川県,横浜市戸塚区,平戸町２０２番地１２,,14,110,2440803,,,,,,,2024-04-26,1,,,,,チカイ,0
652,3021001082089,新規,0,2024-04-26,2024-04-26,株式会社ノナゴン,,株式会社,神奈川県,鎌倉市,山ノ内１１１９番地５,,14,204,2470062,,,,,,,2024-04-26,1,,,,,ノナゴン,0
666,3030001160011,新規,0,2024-04-26,2024-04-26,株式会社亀山商事,,株式会社,埼玉県,越谷市,赤山町３丁目３井上ビル６０１,,11,222,3430807,,,,,,,2024-04-26,1,,,,,,0
667,3030001160036,新規,0,2024-04-26,2024-04-26,株式会社Ａ．Ｏ,,株式会社,埼玉県,入間市,鍵山２丁目１３番１７号２,,11,225,3580004,,,,,,,2024-04-26,1,,,,,エードットオー,0
668,3030001160052,新規,0,2024-04-26,2024-04-26,株式会社フォレストｆｉｘ,,株式会社,埼玉県,所沢市,小手指南５丁目１０番２９号,,11,208,3591146,,,,,,,2024-04-26,1,,,,,フォレストフィックス,0
669,3030001160085,新規,0,2024-04-26,2024-04-26,伊芸商事株式会社,,株式会社,埼玉県,さいたま市浦和区,東岸町７番２号,,11,107,3300054,,,,,,,2024-04-26,1,,,,,イゲイショウジ,0
671,3030005021671,新規,0,2024-04-26,2024-04-26,一般社団法人ほわいとしるく,,その他の設立登記法人,埼玉県,富士見市,西みずほ台３丁目１３番地みずほ台団地１３－１－２０３,,11,235,3540018,,,,,,,2024-04-26,1,,,,,ホワイトシルク,0
678,3040001133354,新規,0,2024-04-26,2024-04-26,株式会社ＳＡＫＵＲＡ,,株式会社,千葉県,八千代市,吉橋１０６３番地７シティハイムエリーハイツ１０４号,,12,221,2760047,,,,,,,2024-04-26,1,,,,,サクラ,0
679,3040003024865,新規,0,2024-04-26,2024-04-26,合同会社Ｏ２,,合同会社,千葉県,我孫子市,高野山４５９番地の１－２０２号,,12,222,2701145,,,,,,,2024-04-26,1,,,,,オーツー,0
680,3040003024873,新規,0,2024-04-26,2024-04-26,合同会社四畳半の企画室,,合同会社,千葉県,千葉市美浜区,真砂２丁目１５番２棟１３１９号,,12,106,2610011,,,,,,,2024-04-26,1,,,,,ヨジョウハンノキカクシツ,0
682,3040005022371,新規,0,2024-04-26,2024-04-26,社会福祉法人栄ゆうわ会,,その他の設立登記法人,千葉県,八街市,八街ほ７２８番地９７,,12,230,2891115,,,,,,,2024-04-26,1,,,,,エイユウワカイ,0
686,3050001054698,新規,0,2024-04-26,2024-04-26,株式会社リバーサイドガレージ,,株式会社,茨城県,つくばみらい市,山王新田５５５番地２,,08,235,3002332,,,,,,,2024-04-26,1,,,,,リバーサイドガレージ,0
687,3050003008322,新規,0,2024-04-26,2024-04-26,ＢＪＰ　ＩＮＴＥＲＮＡＴＩＯＮＡＬ合同会社,,合同会社,茨城県,下妻市,本城町２丁目３９番地１０３号室,,08,210,3040064,,,,,,,2024-04-26,1,,,,,ビージェイピーインターナショナル,0
690,3060001037041,新規,0,2024-04-26,2024-04-26,輝電工業株式会社,,株式会社,栃木県,宇都宮市,下栗町２７７７番地１３,,09,201,3210923,,,,,,,2024-04-26,1,,,,,キデンコウギョウ,0
692,3070001041678,新規,0,2024-04-26,2024-04-26,ハンディオネット株式会社,,株式会社,群馬県,佐波郡玉村町,大字福島５０９番地２小林ビル１０４号室,,10,464,3701105,,,,,,,2024-04-26,1,,,,,ハンディオネット,0
694,3070003005391,新規,0,2024-04-26,2024-04-26,合同会社ワイプランニング,,合同会社,群馬県,高崎市,筑縄町３０番地６,,10,202,3700075,,,,,,,2024-04-26,1,,,,,ワイプランニング,0
695,3080103003047,新規,0,2024-04-26,2024-04-26,合同会社風まち,,合同会社,静岡県,下田市,武ガ浜３－３,,22,219,4150015,,,,,,,2024-04-26,1,,,,,カゼマチ,0
705,3100001037400,新規,0,2024-04-26,2024-04-26,株式会社ハーツ,,株式会社,長野県,長野市,青木島町綱島４０４番地２,,20,201,3812206,,,,,,,2024-04-26,1,,,,,ハーツ,0
708,3100003007509,新規,0,2024-04-26,2024-04-26,万屋合同会社,,合同会社,長野県,上水内郡信濃町,大字野尻７３６番地９,,20,583,3891303,,,,,,,2024-04-26,1,,,,,ヨロズヤ,0
720,3120001264348,新規,0,2024-04-26,2024-04-26,大西企画株式会社,,株式会社,大阪府,大阪市中央区,淡路町１丁目４番１０号,,27,128,5410047,,,,,,,2024-04-26,1,,,,,オオニシキカク,0
721,3120001264372,新規,0,2024-04-26,2024-04-26,ＫＭＴパートナーズ株式会社,,株式会社,大阪府,大阪市中央区,北浜３丁目５番１９号,,27,128,5410041,,,,,,,2024-04-26,1,,,,,ケーエムティーパートナーズ,0
722,3120001264389,新規,0,2024-04-26,2024-04-26,株式会社ＴａｋａｄＡ　ｏｆｆｉｃｅ,,株式会社,大阪府,大阪市北区,梅田１丁目１－３大阪駅前第３ビル２９階１－１－１号室,,27,127,5300001,,,,,,,2024-04-26,1,,,,,タカダオフィス,0
723,3120001264422,新規,0,2024-04-26,2024-04-26,福畑商事株式会社,,株式会社,大阪府,大阪市生野区,中川３丁目４番１７号,,27,116,5440005,,,,,,,2024-04-26,1,,,,,フクハタショウジ,0
727,3120101069481,新規,0,2024-04-26,2024-04-26,株式会社東茂,,株式会社,大阪府,和泉市,和気町４丁目１０番７号,,27,219,5940073,,,,,,,2024-04-26,1,,,,,トウモ,0
728,3120103005798,新規,0,2024-04-26,2024-04-26,合同会社いちまる,,合同会社,大阪府,岸和田市,土生町５丁目３番２９号,,27,202,5960825,,,,,,,2024-04-26,1,,,,,イチマル,0
730,3122001016852,新規,0,2024-04-26,2024-04-26,株式会社満電,,株式会社,大阪府,大東市,諸福８丁目１番３０号,,27,218,5740044,,,,,,,2024-04-26,1,,,,,マンデン,0
734,3130001076924,新規,0,2024-04-26,2024-04-26,株式会社ポレジョイング,,株式会社,京都府,宇治市,小倉町神楽田４７番地３９,,26,204,6110042,,,,,,,2024-04-26,1,,,,,ポレジョイング,0
743,3160001025878,新規,0,2024-04-26,2024-04-26,株式会社プログレス,,株式会社,滋賀県,大津市,稲葉台１７番２号,,25,201,5200065,,,,,,,2024-04-26,1,,,,,プログレス,0
747,3170003002032,新規,0,2024-04-26,2024-04-26,合同会社ＩＮＥ,,合同会社,和歌山県,田辺市,高雄１丁目２番５１号３０１,,30,206,6460028,,,,,,,2024-04-26,1,,,,,アイエヌイー,0
755,3180003026682,新規,0,2024-04-26,2024-04-26,ＬＡＭＡ　ＣＯＲＰＯＲＡＴＩＯＮ合同会社,,合同会社,愛知県,名古屋市中区,栄１丁目１４番２１号ピアキャステールＳＫビル４階Ｂ号室,,23,106,4600008,,,,,,,2024-04-26,1,,,,,ラマコーポレーション,0
760,3180303006104,新規,0,2024-04-26,2024-04-26,寿商事合同会社,,合同会社,愛知県,豊川市,御津町広石御津山１１番地２３,,23,207,4410321,,,,,,,2024-04-26,1,,,,,コトブキショウジ,0
775,3250003003484,新規,0,2024-04-26,2024-04-26,合同会社ＨＡＧＩ　ｆｉｓｈ　ｗｏｒｋｓ,,合同会社,山口県,萩市,大字瓦町４６番地１,,35,204,7580071,,,,,,,2024-04-26,1,,,,,ハギフィッシュワークス,0
784,3290001105452,新規,0,2024-04-26,2024-04-26,株式会社ｂａｓｅ　ａｓｓｅｔ,,株式会社,福岡県,福岡市早良区,野芥７丁目４８番２号２階,,40,137,8140171,,,,,,,2024-04-26,1,,,,,ベースアセット,0
785,3290001105477,新規,0,2024-04-26,2024-04-26,株式会社ｃｈｏｉｃｅ九州,,株式会社,福岡県,福岡市東区,香椎照葉７丁目５番３－１２０６号照葉ザ・タワー,,40,131,8130017,,,,,,,2024-04-26,1,,,,,チョイスキュウシュウ,0
786,3290001105527,新規,0,2024-04-26,2024-04-26,株式会社ＧＡＲＡＧＥ４８,,株式会社,福岡県,那珂川市,大字山田８２７番地１,,40,231,8111244,,,,,,,2024-04-26,1,,,,,ガレージヨンハチ,0
794,3310001018981,新規,0,2024-04-26,2024-04-26,株式会社梓,,株式会社,長崎県,長崎市,青山町３５２番地３,,42,201,8528036,,,,,,,2024-04-26,1,,,,,アズサ,0
797,3320003004343,新規,0,2024-04-26,2024-04-26,合同会社ＩｓｈｉＭａｔｓｕ,,合同会社,大分県,速見郡日出町,大字豊岡４９３５番地１豊岡ハイツ２０５号室,,44,341,8791507,,,,,,,2024-04-26,1,,,,,,0
800,3340001026461,新規,0,2024-04-26,2024-04-26,株式会社Ｔ．ＩＣ,,株式会社,鹿児島県,鹿児島市,大明丘１丁目８番５号,,46,201,8920872,,,,,,,2024-04-26,1,,,,,ティードットアイシー,0
805,3350001018937,新規,0,2024-04-26,2024-04-26,株式会社ｇｅｒｍｅ,,株式会社,宮崎県,宮崎市,柳丸町１０８番地１－１Ｆ,,45,201,8800844,,,,,,,2024-04-26,1,,,,,ジェルム,0
807,3360001033563,新規,0,2024-04-26,2024-04-26,ロックテラ株式会社,,株式会社,沖縄県,石垣市,字大川２７８番地ＴＡＭＡビルＩＩ２Ｆ２０１号,00134561,47,207,9070022,,,,,,,2024-04-26,1,,,,,ロックテラ,0
812,3370001051234,新規,0,2024-04-26,2024-04-26,清和建材株式会社,,株式会社,宮城県,仙台市泉区,明石南１丁目２０番地の１,,04,105,9813101,,,,,,,2024-04-26,1,,,,,セイワケンザイ,0
813,3370001051242,新規,0,2024-04-26,2024-04-26,株式会社幸輝,,株式会社,宮城県,仙台市若林区,沖野６丁目３４番１０号,,04,103,9840831,,,,,,,2024-04-26,1,,,,,コウキ,0
820,3400001016638,新規,0,2024-04-26,2024-04-26,株式会社ドゥグリーン,,株式会社,岩手県,奥州市,前沢字沖田７８番地１,,03,215,0294205,,,,,,,2024-04-26,1,,,,,ドゥグリーン,0
838,3470003002638,新規,0,2024-04-26,2024-04-26,サビメス合同会社,,合同会社,香川県,仲多度郡まんのう町,四條７４１－４,,37,406,7660021,,,,,,,2024-04-26,1,,,,,サビメス,0
846,3700150125143,新規,0,2024-04-26,2024-04-26,Ｘｉａｍｅｎ　Ｘｉｎｇｂｅｉｌｉ　Ｔｒａｄｉｎｇ　Ｃｏ．，Ｌｔｄ,,外国会社等,,,,,,,,Ｒｏｏｍ　５，Ｕｎｉｔ　６０２，Ｆｌｏｏｒ　６，Ｂｕｉｌｄｉｎｇ　２，１７０７　Ｗｕｌｖ　Ｒｏａｄ，Ｔｏｎｇａｎ　Ｄｉｓｔｒｉｃｔ，Ｘｉａｍｅｎ　Ｃｉｔｙ，３６１１００,,,,,,2024-04-26,1,,,,,シャーメンシンベイリーマオイーヨウシエンゴンスー,0
852,4010001244343,新規,0,2024-04-26,2024-04-26,株式会社三正総研,,株式会社,東京都,中央区,日本橋室町１丁目１１番１２号日本橋水野ビル７階,,13,102,1030022,,,,,,,2024-04-26,1,,,,,サンセイソウケン,0
853,4010001244392,新規,0,2024-04-26,2024-04-26,株式会社インクル,,株式会社,東京都,千代田区,九段南３丁目５－５グレース和平ビル２Ｆ,,13,101,1020074,,,,,,,2024-04-26,1,,,,,インクル,0
854,4010001244442,新規,0,2024-04-26,2024-04-26,株式会社ペトリコウェル,,株式会社,東京都,中央区,銀座１丁目２２番１１号銀座大竹ビジデンス２Ｆ,,13,102,1040061,,,,,,,2024-04-26,1,,,,,ペトリコウェル,0
856,4010003043611,新規,0,2024-04-26,2024-04-26,スマートペイメント合同会社,,合同会社,東京都,千代田区,神田和泉町１番地６－１６ヤマトビル４０５,,13,101,1010024,,,,,,,2024-04-26,1,,,,,スマートペイメント,0
861,4010103002351,新規,0,2024-04-26,2024-04-26,合同会社ＬｏｃａＬｉｎｋ,,合同会社,東京都,八王子市,片倉町６１５－１,,13,201,1920914,,,,,,,2024-04-26,1,,,,,ローカリンク,0
871,4010403032478,新規,0,2024-04-26,2024-04-26,Ｒｅｓｉｌｉｏｕｓ合同会社,,合同会社,東京都,港区,南青山２丁目２番１５号,,13,103,1070062,,,,,,,2024-04-26,1,,,,,レジリアス,0
872,4010405023211,新規,0,2024-04-26,2024-04-26,一般社団法人コンバース,,その他の設立登記法人,東京都,港区,元赤坂１丁目１番７－８０７号,,13,103,1070051,,,,,,,2024-04-26,1,,,,,コンバース,0
874,4010601065073,新規,0,2024-04-26,2024-04-26,Ｃｏｍｐｉｔ株式会社,,株式会社,東京都,江東区,深川１丁目１番２号協和ビル２階２７号室,,13,108,1350033,,,,,,,2024-04-26,1,,,,,コンピト,0
875,4010603010762,新規,0,2024-04-26,2024-04-26,ＪＢＣＡ合同会社,,合同会社,東京都,墨田区,錦糸１丁目６－９－２０３,,13,107,1300013,,,,,,,2024-04-26,1,,,,,ジェイビーシーエー,0
878,4010805003110,新規,0,2024-04-26,2024-04-26,シンシアリー行政書士法人,,その他の設立登記法人,東京都,大田区,鵜の木１丁目１６番１６号プラティーク鵜の木３０１,,13,111,1460091,,,,,,,2024-04-26,1,,,,,シンシアリー,0
880,4010901055146,新規,0,2024-04-26,2024-04-26,株式会社ＴＭＫ,,株式会社,東京都,世田谷区,野毛２丁目２１番１０号,,13,112,1580092,,,,,,,2024-04-26,1,,,,,ティーエムケー,0
890,4011001161495,新規,0,2024-04-26,2024-04-26,グリーングローブイノベーションズ株式会社,,株式会社,東京都,渋谷区,渋谷２丁目１９－１５宮益坂ビルディング６０９,,13,113,1500002,,,,,,,2024-04-26,1,,,,,グリーングローブイノベーションズ,0
891,4011001161586,新規,0,2024-04-26,2024-04-26,株式会社ＦｉｒｓｔＦｏｒｃｅ,,株式会社,東京都,渋谷区,上原２丁目４７－４ＦＲＥＳＣＡ代々木上原３０５,,13,113,1510064,,,,,,,2024-04-26,1,,,,,ファストフォース,0
892,4011001161628,新規,0,2024-04-26,2024-04-26,株式会社国際人材紹介センター,,株式会社,東京都,目黒区,目黒４丁目１７－１６,,13,110,1530063,,,,,,,2024-04-26,1,,,,,コクサイジンザイショウカイセンター,0
893,4011001161693,新規,0,2024-04-26,2024-04-26,株式会社Ｒｅｉｎｃａ,,株式会社,東京都,渋谷区,恵比寿西２丁目４番８号ウィンド恵比寿ビル８Ｆ,,13,113,1500021,,,,,,,2024-04-26,1,,,,,リインカ,0
894,4011003018636,新規,0,2024-04-26,2024-04-26,合同会社ＵＬＩＵＬＩ,,合同会社,東京都,渋谷区,道玄坂１丁目１０－８渋谷道玄坂東急ビル２Ｆ－Ｃ,,13,113,1500043,,,,,,,2024-04-26,1,,,,,ウリウリ,0
895,4011003019031,新規,0,2024-04-26,2024-04-26,合同会社麻布台Ｍｅｄｉｃａｌ　Ｍｉｄｎｉｇｈｔ,,合同会社,東京都,渋谷区,恵比寿４丁目２８－２ライオンズシティ恵比寿４０４,,13,113,1500013,,,,,,,2024-04-26,1,,,,,アザブダイメディカルミッドナイト,0
896,4011003019048,新規,0,2024-04-26,2024-04-26,合同会社Ｂｌｕｅ　Ａｐｐｌｅ,,合同会社,東京都,目黒区,目黒２丁目９番１０号ＳＯＵ目黒１０３,,13,110,1530063,,,,,,,2024-04-26,1,,,,,ブルーアップル,0
902,4011101107118,新規,0,2024-04-26,2024-04-26,株式会社だるま,,株式会社,東京都,新宿区,西新宿３丁目３番１３号西新宿水間ビル６階,,13,104,1600023,,,,,,,2024-04-26,1,,,,,ダルマ,0
904,4011303005144,新規,0,2024-04-26,2024-04-26,ＢｌｕｅＲｏｏｍ合同会社,,合同会社,東京都,杉並区,成田東４丁目３９番地１０号プラウド南阿佐ヶ谷８０２号,,13,115,1660015,,,,,,,2024-04-26,1,,,,,,0
905,4011401026034,新規,0,2024-04-26,2024-04-26,株式会社Ｓｉｎｇｌｅ,,株式会社,東京都,板橋区,徳丸１丁目２８－５－３０１,,13,119,1750083,,,,,,,2024-04-26,1,,,,,シングル,0
906,4011401026050,新規,0,2024-04-26,2024-04-26,株式会社技研,,株式会社,東京都,板橋区,西台２丁目２２－１２コルテ西台４０１,,13,119,1750045,,,,,,,2024-04-26,1,,,,,ギケン,0
920,4013301052424,新規,0,2024-04-26,2024-04-26,龍一株式会社,,株式会社,東京都,豊島区,池袋２丁目４番１号越路ビル２Ｆ,,13,116,1710014,,,,,,,2024-04-26,1,,,,,リュウイチ,0
929,4020001156728,新規,0,2024-04-26,2024-04-26,ＰｉＬｉｎｋ株式会社,,株式会社,神奈川県,川崎市川崎区,港町１３番１－１００２号,,14,131,2100807,,,,,,,2024-04-26,1,,,,,パイリンク,0
930,4020001156918,新規,0,2024-04-26,2024-04-26,株式会社ＪＯＹ,,株式会社,神奈川県,横浜市西区,浅間町１丁目４番地３ウィザードビル４０２,,14,103,2200072,,,,,,,2024-04-26,1,,,,,ジョイ,0
931,4020001156942,新規,0,2024-04-26,2024-04-26,株式会社一井商事,,株式会社,神奈川県,横浜市戸塚区,戸塚町９４９番地４リバーサイドシモゴー２０３号,,14,110,2440003,,,,,,,2024-04-26,1,,,,,,0
933,4020003026004,新規,0,2024-04-26,2024-04-26,合同会社Ｒｅ　Ｌｉｆｅ　Ｍａｎａｇｅｍｅｎｔ,,合同会社,神奈川県,横浜市緑区,霧が丘５丁目２７番地霧が丘グリーンタウン８棟３０２号,,14,113,2260016,,,,,,,2024-04-26,1,,,,,リライフマネジメント,0
940,4021001082088,新規,0,2024-04-26,2024-04-26,株式会社草建,,株式会社,神奈川県,横須賀市,池上７丁目６番６号,,14,201,2380035,,,,,,,2024-04-26,1,,,,,ソウケン,0
942,4021003014444,新規,0,2024-04-26,2024-04-26,合同会社Ｓｗｉｍｍｙ,,合同会社,神奈川県,大和市,深見西４丁目１番１０号,,14,213,2420018,,,,,,,2024-04-26,1,,,,,スイミー,0
943,4021005013097,新規,0,2024-04-26,2024-04-26,ＮＰＯ法人ｐｅｎａ,,その他の設立登記法人,神奈川県,平塚市,明石町２１番３１－１７０２号,,14,203,2540042,,,,,,,2024-04-26,1,,,,,ペナ,0
950,4030001160035,新規,0,2024-04-26,2024-04-26,株式会社鷲宮工業,,株式会社,埼玉県,川口市,芝下２丁目２番２８号,,11,203,3330848,,,,,,,2024-04-26,1,,,,,ワシミヤコウギョウ,0
961,4040001133345,新規,0,2024-04-26,2024-04-26,株式会社Ｏｎｅ　Ｐｌｕｓ　Ｏｎｅ,,株式会社,千葉県,白井市,根１８３０番地の２４,,12,232,2701431,,,,,,,2024-04-26,1,,,,,ワンプラスワン,0
962,4040001133361,新規,0,2024-04-26,2024-04-26,株式会社ＴＲＩＢＥ,,株式会社,千葉県,船橋市,本郷町６５１番地４レオパレスＰｒｏｔｏｎＩＩＩ－４０１号,00134564,12,204,2730033,,,,,,,2024-04-26,1,,,,,トライブ,0
964,4040003024864,新規,0,2024-04-26,2024-04-26,合同会社Ｗｉｓｅ　Ｅａｇｌｅ,,合同会社,千葉県,館山市,上真倉２３６５番地,,12,205,2940038,,,,,,,2024-04-26,1,,,,,ワイズイーグル,0
966,4060001037040,新規,0,2024-04-26,2024-04-26,株式会社正榮電気,,株式会社,栃木県,真岡市,大谷台町３８番地１２,,09,209,3214338,,,,,,,2024-04-26,1,,,,,ショウエイデンキ,0
967,4060003005053,新規,0,2024-04-26,2024-04-26,ＲＡＨ　Ｔｒａｄｉｎｇ合同会社,,合同会社,栃木県,小山市,大字中久喜３５６番地１,,09,208,3230806,,,,,,,2024-04-26,1,,,,,ラートレーディング,0
968,4070001041685,新規,0,2024-04-26,2024-04-26,株式会社ｍａｒｕｔａ,,株式会社,群馬県,高崎市,常盤町５８番地１ウイング高崎２０４号,,10,202,3700816,,,,,,,2024-04-26,1,,,,,マルタ,0
970,4070003005382,新規,0,2024-04-26,2024-04-26,合同会社ＣＡＭＩＮＯ,,合同会社,群馬県,前橋市,城東町４丁目２２番１３号,,10,201,3710016,,,,,,,2024-04-26,1,,,,,カミーノ,0
988,4120001264322,新規,0,2024-04-26,2024-04-26,Ｎ＆Ｎ株式会社,,株式会社,大阪府,大阪市北区,大淀中１丁目１２番２０号,,27,127,5310076,,,,,,,2024-04-26,1,,,,,エヌアンドエヌ,0
989,4120001264355,新規,0,2024-04-26,2024-04-26,株式会社水匠,,株式会社,大阪府,大阪市生野区,巽北１丁目１６番２８号,00134556,27,116,5440004,,,,,,,2024-04-26,1,,,,,スイショウ,0
990,4120001264371,新規,0,2024-04-26,2024-04-26,株式会社昼アゲ,,株式会社,大阪府,大阪市北区,鶴野町４番１１号朝日プラザ梅田２Ｆ－５６,,27,127,5300014,,,,,,,2024-04-26,1,,,,,ヒルアゲ,0
991,4120001264388,新規,0,2024-04-26,2024-04-26,株式会社三匹の猫,,株式会社,大阪府,大阪市阿倍野区,桃ケ池町１丁目２番１６号ディアコート桃ケ池５０１室,,27,119,5450012,,,,,,,2024-04-26,1,,,,,サンビキノネコ,0
992,4120001264396,新規,0,2024-04-26,2024-04-26,株式会社ピットレ,,株式会社,大阪府,大阪市中央区,南久宝寺町２丁目５－３,,27,128,5410058,,,,,,,2024-04-26,1,,,,,ピットレ,0
993,4120001264413,新規,0,2024-04-26,2024-04-26,株式会社スリーオン,,株式会社,大阪府,大阪市浪速区,幸町２丁目４番１２号,,27,111,5560021,,,,,,,2024-04-26,1,,,,,スリーオン,0
994,4120001264438,新規,0,2024-04-26,2024-04-26,株式会社Ｇｏｌｄｅｒ,,株式会社,大阪府,大阪市港区,波除５丁目７－１９ＬａＢｅｎｔｅｎ１０２,,27,107,5520001,,,,,,,2024-04-26,1,,,,,ゴルダー,0
995,4120001264446,新規,0,2024-04-26,2024-04-26,東誠株式会社,,株式会社,大阪府,大阪市都島区,都島北通１丁目１番４－４０６号,,27,102,5340014,,,,,,,2024-04-26,1,,,,,トウセイ,0
999,4120003026340,新規,0,2024-04-26,2024-04-26,合同会社ＤＩＳＣＯＬＯＲ,,合同会社,大阪府,寝屋川市,打上新町１８番７号,,27,215,5720859,,,,,,,2024-04-26,1,,,,,ディスカラー,0
1000,4120101069472,新規,0,2024-04-26,2024-04-26,株式会社昇建装,,株式会社,大阪府,泉佐野市,市場西２丁目５番１４号,,27,213,5980006,,,,,,,2024-04-26,1,,,,,ノボルケンソウ,0
1002,4120103005780,新規,0,2024-04-26,2024-04-26,建宇合同会社,,合同会社,大阪府,岸和田市,天神山町２丁目９－６－１０４室,,27,202,5960834,,,,,,,2024-04-26,1,,,,,ケンウ,0
1016,4130003009501,新規,0,2024-04-26,2024-04-26,合同会社りょうスペース二級建築士事務所,,合同会社,京都府,京都市伏見区,羽束師志水町３２番地１３,,26,109,6128485,,,,,,,2024-04-26,1,,,,,リョウスペースニキュウケンチクシジムショ,0
1019,4130005017072,新規,0,2024-04-26,2024-04-26,労働者協同組合ワーカーズコープれもん,,その他の設立登記法人,京都府,久世郡久御山町,市田新珠城９,,26,322,6130022,,,,,,,2024-04-26,1,,,,,ワーカーズコープレモン,0
1022,4140001134234,新規,0,2024-04-26,2024-04-26,株式会社ペコ,,株式会社,兵庫県,尼崎市,道意町６丁目１－４０５,,28,202,6600083,,,,,,,2024-04-26,1,,,,,ペコ,0
1023,4140001134242,新規,0,2024-04-26,2024-04-26,株式会社ｒａｉｓｅｂｅｌｌ,,株式会社,兵庫県,神戸市西区,玉津町小山５６８番地の４,,28,111,6512144,,,,,,,2024-04-26,1,,,,,ライズベル,0
1024,4140005027062,新規,0,2024-04-26,2024-04-26,一般社団法人つなぐ,,その他の設立登記法人,兵庫県,小野市,王子町７１９番地,,28,218,6751378,,,,,,,2024-04-26,1,,,,,ツナグ,0
1037,4180001161183,新規,0,2024-04-26,2024-04-26,株式会社ラフサム,,株式会社,愛知県,名古屋市中区,伊勢山１丁目９番１２号リヴシティ金山７０３号,,23,106,4600026,,,,,,,2024-04-26,1,,,,,ラフサム,0
1045,4180303006103,新規,0,2024-04-26,2024-04-26,合同会社カトウ産業,,合同会社,愛知県,みよし市,莇生町鳥居前３１番地,,23,236,4700206,,,,,,,2024-04-26,1,,,,,カトウサンギョウ,0
1047,4190001031303,新規,0,2024-04-26,2024-04-26,株式会社ＫＣライセ,,株式会社,三重県,津市,藤方１２３８番地ゴールドオルカサウス２０１,,24,201,5140815,,,,,,,2024-04-26,1,,,,,ケイシライセ,0
1049,4190005011937,新規,0,2024-04-26,2024-04-26,一般社団法人住まいのトータルサポートセンター,,その他の設立登記法人,三重県,鈴鹿市,磯山１丁目８番４０号,,24,207,5100256,,,,,,,2024-04-26,1,,,,,スマイノトータルサポートセンター,0
1050,4200001042447,新規,0,2024-04-26,2024-04-26,Ｍｅｄｉｃａｌ　Ｇａｒｄｅｎ株式会社,,株式会社,岐阜県,羽島郡岐南町,八剣５丁目１１１番地の１,,21,302,5016012,,,,,,,2024-04-26,1,,,,,メディカルガーデン,0
1067,4260001038984,新規,0,2024-04-26,2024-04-26,株式会社優勝インターナショナル,,株式会社,岡山県,岡山市北区,大内田１２０１番地の１,,33,101,7010165,,,,,,,2024-04-26,1,,,,,ユウショウインターナショナル,0
1070,4290001105492,新規,0,2024-04-26,2024-04-26,株式会社Ｂｅｒｒｙ　Ｂｒｉｄａｌ,,株式会社,福岡県,福岡市西区,福重４丁目２０番１２－３０５号,,40,135,8190022,,,,,,,2024-04-26,1,,,,,ベリーブライダル,0
1072,4290003015203,新規,0,2024-04-26,2024-04-26,合同会社ギフト,,合同会社,福岡県,福岡市博多区,山王１丁目８－７アルファディオ山王２０２,,40,132,8120015,,,,,,,2024-04-26,1,,,,,ギフト,0
1081,4350001018936,新規,0,2024-04-26,2024-04-26,株式会社ＲＩＺＥ,,株式会社,宮崎県,宮崎市,清武町木原３５９９番地７,,45,201,8891601,,,,,,,2024-04-26,1,,,,,ライズ,0
1082,4360001033570,新規,0,2024-04-26,2024-04-26,エムテック株式会社,,株式会社,沖縄県,石垣市,字平得３０３番地２階,,47,207,9070003,,,,,,,2024-04-26,1,,,,,エムテック,0
1083,4360001033579,新規,0,2024-04-26,2024-04-26,株式会社Ｌｉｇｈｔ,,株式会社,沖縄県,沖縄市,泡瀬４丁目３９番２号ＶｉｌｌａｄｅｌＭａｒ２－Ｄ,,47,211,9042172,,,,,,,2024-04-26,1,,,,,ライト,0
1086,4370001051225,新規,0,2024-04-26,2024-04-26,株式会社セカンドエージェント,,株式会社,宮城県,加美郡加美町,字下原９番地１６,,04,445,9814321,,,,,,,2024-04-26,1,,,,,セカンドエージェント,0
1100,4380005012825,新規,0,2024-04-26,2024-04-26,ＮＰＯ法人スマイルライフふくしま,,その他の設立登記法人,福島県,須賀川市,森宿字鍛治山１９番地７,,07,207,9620001,,,,,,,2024-04-26,1,,,,,スマイルライフフクシマ,0
1109,4450001014306,新規,0,2024-04-26,2024-04-26,株式会社ＴＪ　ＡＧＲＩ,,株式会社,北海道,上川郡当麻町,宇園別１区６１５５番１,,01,454,0781332,,,,,,,2024-04-26,1,,,,,,0
1112,4460103001614,新規,0,2024-04-26,2024-04-26,合同会社クラッチ,,合同会社,北海道,河東郡音更町,木野大通東１７丁目２番地７７,,01,631,0800111,,,,,,,2024-04-26,1,,,,,クラッチ,0
1117,4490001010755,新規,0,2024-04-26,2024-04-26,高知ウイスキー株式会社,,株式会社,高知県,吾川郡仁淀川町,名野川４５０番地,,39,387,7811741,,,,,,,2024-04-26,1,,,,,コウチウイスキー,0
1119,4500001025586,新規,0,2024-04-26,2024-04-26,株式会社竹総開発,,株式会社,愛媛県,今治市,常盤町６丁目６番１８号,,38,202,7940015,,,,,,,2024-04-26,1,,,,,タケソウカイハツ,0
1125,4700150114459,新規,0,2024-04-26,2024-04-26,ｎｉｎｇｂｏｍｅｎｇｙｕａｎｚｈｉｎｅｎｇｋｅｊｉｙｏｕｘｉａｎｇｏｎｇｓｉ,,外国会社等,,,,,,,,ｇａｏｘｉｎｑｕ　ｑｉｎｇｙｉｌｕ　２１８ｎｏｎｇ２ｚｈｕａｎｇ２ｈａｏｓａｎｌｏｕ３０７，ｎｉｎｇｂｏ，ｚｈｅｊｉａｎｇ，３１５０００，ＣＮ,,,,,,2024-04-26,1,,,,,ニンポーモウゲンチノウカギユウゲンコウシ,0
1126,4700150125142,新規,0,2024-04-26,2024-04-26,Ｈａｒａ　Ａｒｃｈｉｔｅｃｔｓ　Ｌｉｍｉｔｅｄ,,外国会社等,北海道,虻田郡倶知安町,北四条西２丁目４－１,,01,400,0440054,Ｒｍ　１５０４，１５／Ｆ　Ｊｕｂｉｌｅｅ　Ｃｔｒ，１８　Ｆｅｎｗｉｃｋ　Ｓｔ，Ｗａｎ　Ｃｈａｉ，Ｈｏｎｇ　Ｋｏｎｇ,,,,,,2024-04-26,1,,,,,ハラアーキテクトリミティド,0
1138,5010001244284,新規,0,2024-04-26,2024-04-26,ＭｏｖｏＭｉｎｄ株式会社,,株式会社,東京都,文京区,本郷１丁目２８番１０号本郷ＴＫビル６Ｆ,,13,105,1130033,,,,,,,2024-04-26,1,,,,,モボマインド,0
1139,5010001244375,新規,0,2024-04-26,2024-04-26,株式会社ＮＥＣＲＯＳ,,株式会社,東京都,千代田区,神田和泉町１番地６－１６ヤマトビル４０５,,13,101,1010024,,,,,,,2024-04-26,1,,,,,ネクロス,0
1140,5010001244391,新規,0,2024-04-26,2024-04-26,株式会社ＡＱＵＡＬＯＴ,,株式会社,東京都,中央区,銀座１丁目２２番１１号銀座大竹ビジデンス２階,,13,102,1040061,,,,,,,2024-04-26,1,,,,,アクアロット,0
1144,5010003043577,新規,0,2024-04-26,2024-04-26,合同会社ＦＡＶ　ＰＲＦ２号,,合同会社,東京都,千代田区,永田町２丁目１７番５号,,13,101,1000014,,,,,,,2024-04-26,1,,,,,ファブプレリートファンドニゴウ,0
1145,5010103002350,新規,0,2024-04-26,2024-04-26,合同会社ヒロＩＪソリューションズ,,合同会社,東京都,八王子市,鑓水２丁目７５番地７,,13,201,1920375,,,,,,,2024-04-26,1,,,,,ヒロアイジェイソリューションズ,0
1149,5010401182027,新規,0,2024-04-26,2024-04-26,ＡＲＩＥＳ‐ＡＲＩＥＳ株式会社,,株式会社,東京都,港区,浜松町２丁目７番１７号イーグル浜松町５階５２７号室,,13,103,1050013,,,,,,,2024-04-26,1,,,,,アリエスアリエス,0
1151,5010403032485,新規,0,2024-04-26,2024-04-26,ＩＬＬ合同会社,,合同会社,東京都,港区,南青山２丁目２番１５号,,13,103,1070062,,,,,,,2024-04-26,1,,,,,イル,0
1152,5010501052179,新規,0,2024-04-26,2024-04-26,ＨＭ　ＣＯＲＰＯＲＡＴＩＯＮ株式会社,,株式会社,東京都,台東区,千束４丁目４０番１４号マンション観月３０３号室,,13,106,1110031,,,,,,,2024-04-26,1,,,,,エイチエムコーポレーション,0
1155,5010603010786,新規,0,2024-04-26,2024-04-26,合同会社ＢＡＳＩＣ,,合同会社,東京都,墨田区,両国４丁目３７－２ＴＫＦ会館２Ｆ,,13,107,1300026,,,,,,,2024-04-26,1,,,,,ベーシック,0
1157,5010701045908,新規,0,2024-04-26,2024-04-26,株式会社Ｔｈｒｅｅ　Ｅｓ,,株式会社,東京都,品川区,戸越１丁目２９番１０号３０４,,13,109,1420041,,,,,,,2024-04-26,1,,,,,スリーイース,0
1163,5010901055161,新規,0,2024-04-26,2024-04-26,株式会社ＥＩ,,株式会社,東京都,世田谷区,玉川１丁目１５番２号,,13,112,1580094,,,,,,,2024-04-26,1,,,,,エイ,0
1164,5010903009009,新規,0,2024-04-26,2024-04-26,ハンズオン・アカウンティング合同会社,,合同会社,東京都,世田谷区,池尻２丁目９番１３号エクセルシア池尻２０５,,13,112,1540001,,,,,,,2024-04-26,1,,,,,ハンズオンアカウンティング,0
1180,5011001161429,新規,0,2024-04-26,2024-04-26,株式会社ティアーズプロダクション,,株式会社,東京都,渋谷区,道玄坂１丁目１０番８号渋谷道玄坂東急ビル２Ｆ－Ｃ,,13,113,1500043,,,,,,,2024-04-26,1,,,,,ティアーズプロダクション,0
1181,5011001161486,新規,0,2024-04-26,2024-04-26,株式会社オーバーエックス,,株式会社,東京都,渋谷区,恵比寿西２丁目８番４号ＥＸ恵比寿西ビル５階,,13,113,1500021,,,,,,,2024-04-26,1,,,,,オーバーエックス,0
1182,5011001161643,新規,0,2024-04-26,2024-04-26,株式会社未来の牛,,株式会社,東京都,渋谷区,東１丁目２７番７号渋谷東ＫＭビル１０階,,13,113,1500011,,,,,,,2024-04-26,1,,,,,ミライノウシ,0
1194,5011201025425,新規,0,2024-04-26,2024-04-26,ＭａａａａＲｕホールディングス株式会社,,株式会社,東京都,中野区,若宮３丁目１２番２号,,13,114,1650033,,,,,,,2024-04-26,1,,,,,マールホールディングス,0
1195,5011201025433,新規,0,2024-04-26,2024-04-26,株式会社増渕おもいで館,,株式会社,東京都,中野区,弥生町３丁目２５番６号,,13,114,1640013,,,,,,,2024-04-26,1,,,,,マスブチオモイデカン,0
1198,5011301029615,新規,0,2024-04-26,2024-04-26,株式会社ａｎｙｔｈｉｎｇ,,株式会社,東京都,杉並区,高円寺南３丁目２１番２１号小田ビル１階,,13,115,1660003,,,,,,,2024-04-26,1,,,,,エニシング,0
1199,5011403004359,新規,0,2024-04-26,2024-04-26,合同会社シェアレジ東京,,合同会社,東京都,板橋区,成増１丁目２８番１５号,,13,119,1750094,,,,,,,2024-04-26,1,,,,,シェアレジトウキョウ,0
1201,5011605002581,新規,0,2024-04-26,2024-04-26,一般社団法人医療福祉教育協会,,その他の設立登記法人,東京都,練馬区,平和台１丁目２７番２０－２０５号,,13,120,1790083,,,,,,,2024-04-26,1,,,,,イリョウフクシキョウイクキョウカイ,0
1203,5011701027227,新規,0,2024-04-26,2024-04-26,株式会社ブルーシーコンサルティング,,株式会社,東京都,江戸川区,西葛西８丁目４番１３号,,13,123,1340088,,,,,,,2024-04-26,1,,,,,ブルーシーコンサルティング,0
1205,5011803006203,新規,0,2024-04-26,2024-04-26,合同会社ＨＣＣ,,合同会社,東京都,足立区,一ツ家１丁目２０番１２－６０４号,,13,121,1210075,,,,,,,2024-04-26,1,,,,,エイチシーシー,0
1209,5012401041807,新規,0,2024-04-26,2024-04-26,デンボウ不動産株式会社,,株式会社,東京都,三鷹市,上連雀８丁目１８番１５号,,13,204,1810012,,,,,,,2024-04-26,1,,,,,デンボウフドウサン,0
1211,5013101009400,新規,0,2024-04-26,2024-04-26,株式会社ロワゾブルー不動産,,株式会社,東京都,あきる野市,切欠１９４０番地,,13,228,1970824,,,,,,,2024-04-26,1,,,,,ロワゾブルーフドウサン,0
1221,5020001156883,新規,0,2024-04-26,2024-04-26,株式会社ＡＲＡＢＩＣＡ,,株式会社,神奈川県,横浜市都筑区,早渕１丁目６番１６号,,14,118,2240025,,,,,,,2024-04-26,1,,,,,アラビカ,0
1222,5020001156909,新規,0,2024-04-26,2024-04-26,株式会社Ｌｅｏｎｓａｎａ,,株式会社,神奈川県,横浜市栄区,野七里２丁目４番１７号,,14,115,2470024,,,,,,,2024-04-26,1,,,,,レオンサナ,0
1223,5020001156933,新規,0,2024-04-26,2024-04-26,高電株式会社,,株式会社,神奈川県,横浜市旭区,中白根２丁目４５番１８号,,14,112,2410004,,,,,,,2024-04-26,1,,,,,タカデン,0
1234,5021001082087,新規,0,2024-04-26,2024-04-26,株式会社櫓木断熱,,株式会社,神奈川県,足柄上郡大井町,西大井１３６番地８,,14,362,2580017,,,,,,,2024-04-26,1,,,,,ロギダンネツ,0
1235,5021001082095,新規,0,2024-04-26,2024-04-26,株式会社カナコーｄｏ‐ｋａ,,株式会社,神奈川県,相模原市南区,麻溝台８丁目１２番５号,,14,153,2520328,,,,,,,2024-04-26,1,,,,,カナコードゥーカ,0
1239,5021005013096,新規,0,2024-04-26,2024-04-26,一般社団法人アントレ教員ラボ,,その他の設立登記法人,神奈川県,足柄上郡松田町,松田惣領３０７番地２,,14,363,2580003,,,,,,,2024-04-26,1,,,,,アントレキョウインラボ,0
1248,5030001160050,新規,0,2024-04-26,2024-04-26,株式会社埼京マサル,,株式会社,埼玉県,三郷市,三郷３丁目１番地２ライオンズマンション三郷５０７号,,11,237,3410024,,,,,,,2024-04-26,1,,,,,サイキョウマサル,0
1249,5030001160091,新規,0,2024-04-26,2024-04-26,株式会社マルベリーソーシャルコントリビューション,,株式会社,埼玉県,春日部市,梅田１丁目１‐８‐２１０,,11,214,3440052,,,,,,,2024-04-26,1,,,,,マルベリーソーシャルコントリビューション,0
1260,5040001133328,新規,0,2024-04-26,2024-04-26,株式会社大福堂,,株式会社,千葉県,千葉市稲毛区,小仲台８丁目４－１３カネナカ第一ビル３０５,,12,103,2630043,,,,,,,2024-04-26,1,,,,,ダイフクドウ,0
1261,5040001133360,新規,0,2024-04-26,2024-04-26,株式会社ｆｅｅｌ　ｕｐ,,株式会社,千葉県,船橋市,二和西５丁目１１番１９号,,12,204,2740806,,,,,,,2024-04-26,1,,,,,フィールアップ,0
1266,5040003024863,新規,0,2024-04-26,2024-04-26,ＢＥＬＬ　ＳＴＹＬＥ合同会社,,合同会社,千葉県,山武市,埴谷２３１５番地２４,,12,237,2891223,,,,,,,2024-04-26,1,,,,,ベルスタイル,0
1268,5050001054688,新規,0,2024-04-26,2024-04-26,株式会社令和,,株式会社,茨城県,古河市,常盤町８番１５号サンクレイドル古河５０８号室,,08,204,3060007,,,,,,,2024-04-26,1,,,,,レイワ,0
1280,5080401027150,新規,0,2024-04-26,2024-04-26,株式会社グローステン,,株式会社,静岡県,浜松市中央区,海老塚１丁目３番８号３Ｆ,,22,138,4328033,,,,,,,2024-04-26,1,,,,,グローステン,0
1283,5100001037398,新規,0,2024-04-26,2024-04-26,株式会社トータル技術工房,,株式会社,長野県,北安曇郡小谷村,大字北小谷９９２２番地１５,,20,486,3999601,,,,,,,2024-04-26,1,,,,,トータルギジュツコウボウ,0
1285,5110001038354,新規,0,2024-04-26,2024-04-26,株式会社ノウマン,,株式会社,新潟県,長岡市,西蔵王１丁目６番１０‐２号,,15,202,9400027,,,,,,,2024-04-26,1,,,,,ノウマン,0
1293,5120001264370,新規,0,2024-04-26,2024-04-26,友亮株式会社,,株式会社,大阪府,大阪市平野区,背戸口２丁目１１番２５号,,27,126,5470034,,,,,,,2024-04-26,1,,,,,トモリョウ,0
1294,5120001264387,新規,0,2024-04-26,2024-04-26,株式会社エスアイ,,株式会社,大阪府,大阪市西淀川区,野里１丁目１０番１２号,,27,113,5550024,,,,,,,2024-04-26,1,,,,,エスアイ,0
1295,5120001264395,新規,0,2024-04-26,2024-04-26,株式会社Ｂｅｎｏｉｔ,,株式会社,大阪府,大阪市北区,曾根崎新地１丁目６番２９号宝ビル４階,,27,127,5300002,,,,,,,2024-04-26,1,,,,,ベノア,0
1296,5120001264404,新規,0,2024-04-26,2024-04-26,株式会社スカイライトマーケティング,,株式会社,大阪府,大阪市北区,梅田２丁目５番１３号桜橋第一ビル３０４号,,27,127,5300001,,,,,,,2024-04-26,1,,,,,スカイライトマーケティング,0
1297,5120001264420,新規,0,2024-04-26,2024-04-26,株式会社シュトローム,,株式会社,大阪府,守口市,佐太中町４丁目１９番１３－２０２号,,27,209,5700002,,,,,,,2024-04-26,1,,,,,シュトローム,0
1298,5120001264445,新規,0,2024-04-26,2024-04-26,株式会社粛和商事,,株式会社,大阪府,門真市,大池町５番１－２０１号,,27,223,5710076,,,,,,,2024-04-26,1,,,,,シュクワショウジ,0
1303,5120003026439,新規,0,2024-04-26,2024-04-26,徳従合同会社,,合同会社,大阪府,大阪市天王寺区,生玉町１１－２４－４０１号室,,27,109,5430071,,,,,,,2024-04-26,1,,,,,トクジュウ,0
1306,5120101069488,新規,0,2024-04-26,2024-04-26,株式会社ＬＩＣ,,株式会社,大阪府,大阪狭山市,大野台１丁目１３番１８号,,27,231,5890023,,,,,,,2024-04-26,1,,,,,エルアイシー,0
1307,5120101069496,新規,0,2024-04-26,2024-04-26,シスコム株式会社,,株式会社,大阪府,富田林市,津々山台１丁目１番３－４１６,,27,214,5840086,,,,,,,2024-04-26,1,,,,,シスコム,0
1308,5120103005796,新規,0,2024-04-26,2024-04-26,合同会社ＳＡＮＯ．ｃｏ,,合同会社,大阪府,和泉市,はつが野３丁目３２番１１号,,27,219,5941106,,,,,,,2024-04-26,1,,,,,サノドットシーオー,0
1312,5120905006604,新規,0,2024-04-26,2024-04-26,一般社団法人美肌会,,その他の設立登記法人,大阪府,茨木市,西駅前町６番２号,,27,211,5670032,,,,,,,2024-04-26,1,,,,,ビハダカイ,0
1313,5122001038036,新規,0,2024-04-26,2024-04-26,株式会社ＫＲＴ,,株式会社,大阪府,東大阪市,長堂１丁目２番９号ロフティ１番館２Ａ,,27,227,5770056,,,,,,,2024-04-26,1,,,,,ケーアールティー,0
1325,5130001076939,新規,0,2024-04-26,2024-04-26,ＫＹＯＤＡＩ株式会社,,株式会社,京都府,京都市下京区,七条通油小路東入大黒町２２７番地第２キョートビル４０２,,26,106,6008223,,,,,,,2024-04-26,1,,,,,キョダイ,0
1326,5140001134200,新規,0,2024-04-26,2024-04-26,ＺＫＢ　ＴＲＡＤＩＮＧ株式会社,,株式会社,兵庫県,神戸市長田区,雲雀ヶ丘３丁目６－３ヴィラナリー雲雀ケ丘３号棟３０７号,,28,106,6530879,,,,,,,2024-04-26,1,,,,,ゼットケイビートレーディング,0
1327,5140001134209,新規,0,2024-04-26,2024-04-26,株式会社ＧＥＮ　ＤＲＯＮＥ,,株式会社,兵庫県,西宮市,笠屋町１２番１２号,,28,204,6638136,,,,,,,2024-04-26,1,,,,,ゲンドローン,0
1328,5140001134217,新規,0,2024-04-26,2024-04-26,Ａ＆Ｙ株式会社,,株式会社,兵庫県,芦屋市,岩園町３５番２９号,,28,206,6590013,,,,,,,2024-04-26,1,,,,,エーアンドワイ,0
1333,5160001025843,新規,0,2024-04-26,2024-04-26,株式会社ＫＡＷＡＨＡＲＡ,,株式会社,滋賀県,栗東市,小平井１丁目９番１６－１０５号,,25,208,5203034,,,,,,,2024-04-26,1,,,,,カワハラ,0
1344,5180001161182,新規,0,2024-04-26,2024-04-26,株式会社Ｓｈｉｎｅ　Ｕｎｉｔｙ,,株式会社,愛知県,一宮市,起字下町１８６,,23,203,4940006,,,,,,,2024-04-26,1,,,,,シャインユニティ,0
1348,5180003026689,新規,0,2024-04-26,2024-04-26,合同会社保険ワーク,,合同会社,愛知県,名古屋市熱田区,二番２丁目１番３５号,,23,109,4560052,,,,,,,2024-04-26,1,,,,,ホケンワーク,0
1352,5180301038584,新規,0,2024-04-26,2024-04-26,株式会社ＫＲＳＴ,,株式会社,愛知県,安城市,根崎町西根８９番地１,,23,212,4441211,,,,,,,2024-04-26,1,,,,,ケイアールエスティー,0
1354,5180303006102,新規,0,2024-04-26,2024-04-26,合同会社Ｂ　ｔｏｐ,,合同会社,愛知県,西尾市,吉良町津平文道郷３８番地,,23,213,4440503,,,,,,,2024-04-26,1,,,,,ビートップ,0
1357,5210001019740,新規,0,2024-04-26,2024-04-26,株式会社祥永工業,,株式会社,福井県,大飯郡おおい町,名田庄久坂２８－５,,18,483,9170382,,,,,,,2024-04-26,1,,,,,ショウエイコウギョウ,0
1360,5220001025960,新規,0,2024-04-26,2024-04-26,ひとときリタス株式会社,,株式会社,石川県,金沢市,観法寺町ホ３９番地,,17,201,9203112,,,,,,,2024-04-26,1,,,,,ヒトトキリタス,0
1362,5220005008838,新規,0,2024-04-26,2024-04-26,一般社団法人ＮＯＴＯＴＯ．,,その他の設立登記法人,石川県,金沢市,駅西本町２丁目１０番６号,,17,201,9200025,,,,,,,2024-04-26,1,,,,,ノトト,0
1363,5220005008846,新規,0,2024-04-26,2024-04-26,医療法人インクル,,その他の設立登記法人,石川県,金沢市,窪６丁目２５７番地１,,17,201,9218151,,,,,,,2024-04-26,1,,,,,インクル,0
1366,5240001063141,新規,0,2024-04-26,2024-04-26,鴻運不動産株式会社,,株式会社,広島県,東広島市,福富町上戸野３９３３－１,,34,212,7392304,,,,,,,2024-04-26,1,,,,,コウウンフドウサン,0
1373,5260003004661,新規,0,2024-04-26,2024-04-26,合同会社ｔｒｉｐｌｅ．Ｒ,,合同会社,岡山県,倉敷市,二子１５１２番地,,33,202,7010115,,,,,,,2024-04-26,1,,,,,トリプルアール,0
1374,5280001009165,新規,0,2024-04-26,2024-04-26,プロミウム株式会社,,株式会社,島根県,邑智郡邑南町,山田４９５,,32,449,6960313,,,,,,,2024-04-26,1,,,,,プロミウム,0
1375,5280003001839,新規,0,2024-04-26,2024-04-26,合同会社スギナリ醸造所,,合同会社,島根県,仁多郡奥出雲町,三成８２２－４,,32,343,6991511,,,,,,,2024-04-26,1,,,,,スギナリジョウゾウショ,0
1378,5290001105632,新規,0,2024-04-26,2024-04-26,株式会社樹,,株式会社,福岡県,福岡市中央区,薬院４丁目１３番６２号,,40,133,8100022,,,,,,,2024-04-26,1,,,,,イツキ,0
1379,5290003015202,新規,0,2024-04-26,2024-04-26,合同会社フラットエイド,,合同会社,福岡県,朝倉市,杷木町久喜宮１１１６番地２,,40,228,8380000,,,,,,,2024-04-26,1,,,,,フラットエイド,0
1380,5290003015227,新規,0,2024-04-26,2024-04-26,合同会社大樹,,合同会社,福岡県,大野城市,錦町２丁目２－１１,,40,219,8160935,,,,,,,2024-04-26,1,,,,,タイジュ,0
1381,5290005019374,新規,0,2024-04-26,2024-04-26,一般社団法人ひまわり,,その他の設立登記法人,福岡県,福岡市南区,井尻５丁目２０－１５,,40,134,8111302,,,,,,,2024-04-26,1,,,,,ヒマワリ,0
1389,5330001032005,新規,0,2024-04-26,2024-04-26,株式会社アキラ,,株式会社,熊本県,熊本市中央区,帯山２丁目３番１５号帯山テナント,,43,101,8620924,,,,,,,2024-04-26,1,,,,,アキラ,0
1392,5330003010330,新規,0,2024-04-26,2024-04-26,ａｎｄ．Ｍ合同会社,,合同会社,熊本県,熊本市東区,八反田２丁目７番２８号,,43,102,8618034,,,,,,,2024-04-26,1,,,,,アンドエム,0
1393,5330003010339,新規,0,2024-04-26,2024-04-26,合同会社ａｂｏｕｔ‐ｒｙ,,合同会社,熊本県,熊本市中央区,出水８丁目３４番２７号,,43,101,8620941,,,,,,,2024-04-26,1,,,,,アバウトリイ,0
1397,5350001018935,新規,0,2024-04-26,2024-04-26,株式会社ちゃんどーる,,株式会社,宮崎県,宮崎市,大字浮田４５９番地２,,45,201,8802104,,,,,,,2024-04-26,1,,,,,チャンドール,0
1399,5360003013933,新規,0,2024-04-26,2024-04-26,ＣＨＹ合同会社,,合同会社,沖縄県,中頭郡北中城村,字喜舎場２３０番地１,,47,327,9012311,,,,,,,2024-04-26,1,,,,,シーエッチワイ,0
1432,5480001012454,新規,0,2024-04-26,2024-04-26,株式会社ＫＫパートナーズ,,株式会社,徳島県,徳島市,庄町１丁目２８番地８,,36,201,7700044,,,,,,,2024-04-26,1,,,,,ケイケイパートナーズ,0
1434,5490001010754,新規,0,2024-04-26,2024-04-26,株式会社ＩＲＩＮＯ,,株式会社,高知県,高知市,鴨部２丁目９番２１号,,39,201,7808052,,,,,,,2024-04-26,1,,,,,イリノ,0
1438,5700150114409,新規,0,2024-04-26,2024-04-26,ｎｉｎｇｂｏｙｉｍｉｎｔｅｇｕｏｊｉｍａｏｙｉｙｏｕｘｉａｎｇｏｎｇｓｉ,,外国会社等,,,,,,,,ｂｅｉｌｕｎｑｕ　ｘｉｎｑｉｊｉｅｄａｏ　ｍｉｎｇｚｈｏｕｌｕ１１２ｈａｏｗｕｃｅｎｇ５２１ｓｈｉ，ｎｉｎｇｂｏ，ｚｈｅｊｉａｎｇ，３１５８００，ＣＮ,,,,,,2024-04-26,1,,,,,ニンポーイビントクコクサイボウエキユウゲンコウシ,0
1439,5700150125141,新規,0,2024-04-26,2024-04-26,Ｑｉｎｇ　Ｙｉｎｇ　Ｔｒａｄｉｎｇ　Ｓｈａｎｇｈａｉ　Ｌｔｄ,,外国会社等,,,,,,,,Ｒｏｏｍ　４１１６，Ｂ，Ｆｌｏｏｒ　４ｔｈ，Ｎｏ．２１９－２２９，Ｍｉｄｄｌｅ　Ｚｈｏｎｇｓｈａｎ　Ｒｄ，Ｓｏｎｇ　ｊｉａｎｇ　Ａｒｅａ，Ｓｈａｎｇｈａｉ,,,,,,2024-04-26,1,,,,,チンインシャンマオシャンハイヨウシエンゴンスー,0
1456,6010001244077,新規,0,2024-04-26,2024-04-26,ビヨンドＴＴ株式会社,,株式会社,東京都,千代田区,神田佐久間町２丁目１８番地１秋葉原ＳＴＮフロント１０階,,13,101,1010025,,,,,,,2024-04-26,1,,,,,ビヨンドティーティー,0
1457,6010001244358,新規,0,2024-04-26,2024-04-26,クラウドファンド株式会社,,株式会社,東京都,中央区,日本橋堀留町１丁目４番１３－３０１号,,13,102,1030012,,,,,,,2024-04-26,1,,,,,クラウドファンド,0
1458,6010001244374,新規,0,2024-04-26,2024-04-26,株式会社Ｏｆｆｉｃｅ　Ａｃｈｉｅｖｅ,,株式会社,東京都,中央区,銀座７丁目１５番８号タウンハイツ銀座４０６,,13,102,1040061,,,,,,,2024-04-26,1,,,,,オフィスアチーブ,0
1459,6010001244382,新規,0,2024-04-26,2024-04-26,株式会社スカイ,,株式会社,東京都,中央区,銀座１丁目１２番４号Ｎ＆ＥＢＬＤ．６Ｆ,,13,102,1040061,,,,,,,2024-04-26,1,,,,,スカイ,0
1465,6010003043576,新規,0,2024-04-26,2024-04-26,合同会社雲雀,,合同会社,東京都,中央区,銀座７丁目１３番６号サガミビル２階,,13,102,1040061,,,,,,,2024-04-26,1,,,,,ヒバリ,0
1468,6010005038211,新規,0,2024-04-26,2024-04-26,一般社団法人日本終活サポート協会,,その他の設立登記法人,東京都,中央区,銀座１丁目２２番１１号銀座大竹ビジデンス２階,,13,102,1040061,,,,,,,2024-04-26,1,,,,,ニホンシュウカツサポートキョウカイ,0
1469,6010005038244,新規,0,2024-04-26,2024-04-26,一般社団法人学び支援協会,,その他の設立登記法人,東京都,中央区,新川１丁目３番２１号,,13,102,1040033,,,,,,,2024-04-26,1,,,,,マナビシエンキョウカイ,0
1472,6010101016112,新規,0,2024-04-26,2024-04-26,株式会社Ａｒｃｏ　ｉｄｅａ,,株式会社,東京都,八王子市,館町１４４７番地５,,13,201,1930944,,,,,,,2024-04-26,1,,,,,アルコイデア,0
1478,6010401181515,新規,0,2024-04-26,2024-04-26,株式会社ＣＯＭＭＵＮＩＴＹ,,株式会社,東京都,港区,芝４丁目７番１号西山ビル４階,,13,103,1080014,,,,,,,2024-04-26,1,,,,,コミュニティ,0
1490,6010501052178,新規,0,2024-04-26,2024-04-26,七福貿易株式会社,,株式会社,東京都,台東区,浅草橋１丁目９－１５－１階,,13,106,1110053,,,,,,,2024-04-26,1,,,,,シチフクボウエキ,0
1493,6010601065088,新規,0,2024-04-26,2024-04-26,株式会社ツリーピース,,株式会社,東京都,墨田区,江東橋１丁目１０番９－１５０２号,,13,107,1300022,,,,,,,2024-04-26,1,,,,,ツリーピース,0
1494,6010603010785,新規,0,2024-04-26,2024-04-26,合同会社Ｖｅｒｓｏ,,合同会社,東京都,江東区,南砂７丁目１０－９リビオシティ南砂町ステーションサイト２２８号室,,13,108,1360076,,,,,,,2024-04-26,1,,,,,バーソ,0
1496,6010703007153,新規,0,2024-04-26,2024-04-26,合同会社ＧＯＯＤ　ＴＩＭＥ　ＷＯＲＫＳ,,合同会社,東京都,品川区,南品川３丁目６番１８号サントテール南品川１階店舗,,13,109,1400004,,,,,,,2024-04-26,1,,,,,グッドタイムワークス,0
1498,6010705003621,新規,0,2024-04-26,2024-04-26,一般社団法人みんなの笑顔と幸せ,,その他の設立登記法人,東京都,品川区,南品川４丁目４番１７号品川サウスタワー,,13,109,1400004,,,,,,,2024-04-26,1,,,,,ミンナノエガオトシアワセ,0
1501,6010803004934,新規,0,2024-04-26,2024-04-26,Ｄｒｅａｍ　Ｌｉｆｅ　Ｃｏｐｏｒａｔｅ合同会社,,合同会社,東京都,大田区,下丸子２丁目１４番２３－４０１号,,13,111,1460092,,,,,,,2024-04-26,1,,,,,ドリームライフコーポレイト,0
1502,6010901055160,新規,0,2024-04-26,2024-04-26,株式会社ＡＩ,,株式会社,東京都,世田谷区,玉川１丁目１５番２号,,13,112,1580094,,,,,,,2024-04-26,1,,,,,アイ,0
1505,6011001161411,新規,0,2024-04-26,2024-04-26,Ｌｉｆｅ　Ａｃｈｉｅｖｅｍｅｎｔ株式会社,,株式会社,東京都,目黒区,八雲２丁目５番９－４０４号リビオメゾン都立大学,,13,110,1520023,,,,,,,2024-04-26,1,,,,,ライフアチーブメント,0
1506,6011001161584,新規,0,2024-04-26,2024-04-26,Ｓｔｒａｔｅｇｉｃ　Ｆｕｎｎｅｌ株式会社,,株式会社,東京都,渋谷区,渋谷２丁目１９－１５宮益坂ビルディング６０９,,13,113,1500002,,,,,,,2024-04-26,1,,,,,ストラテジックファネル,0
1507,6011001161659,新規,0,2024-04-26,2024-04-26,株式会社ＤｃＦ,,株式会社,東京都,渋谷区,道玄坂１丁目１０番８号渋谷道玄坂東急ビル２Ｆ－Ｃ,,13,113,1500043,,,,,,,2024-04-26,1,,,,,ディーシーエフ,0
1510,6011003018824,新規,0,2024-04-26,2024-04-26,トラストリフト合同会社,,合同会社,東京都,渋谷区,円山町５番５号Ｎａｖｉ渋谷Ｖ３階,,13,113,1500044,,,,,,,2024-04-26,1,,,,,トラストリフト,0
1511,6011003019021,新規,0,2024-04-26,2024-04-26,合同会社ＮＯＶＵＳ,,合同会社,東京都,渋谷区,神宮前６丁目２３番４号桑野ビル２階,,13,113,1500001,,,,,,,2024-04-26,1,,,,,ノーヴァス,0
1517,6011101107124,新規,0,2024-04-26,2024-04-26,株式会社エトワル,,株式会社,東京都,新宿区,西新宿３丁目３番１３号西新宿水間ビル２Ｆ,,13,104,1600023,,,,,,,2024-04-26,1,,,,,エトワル,0
1518,6011101107140,新規,0,2024-04-26,2024-04-26,株式会社クリエク,,株式会社,東京都,新宿区,高田馬場１丁目９番２０号ＣＥＲＥＺＯ１０３,,13,104,1690075,,,,,,,2024-04-26,1,,,,,クリエク,0
1520,6011301029614,新規,0,2024-04-26,2024-04-26,株式会社Ｏｒｔｈｏｆｉｔ,,株式会社,東京都,杉並区,荻窪５丁目１６番１２号荻窪ＮＫビル７階,,13,115,1670051,,,,,,,2024-04-26,1,,,,,オースフィット,0
1522,6011605002580,新規,0,2024-04-26,2024-04-26,一般社団法人パフォーミングアーツ協会,,その他の設立登記法人,東京都,練馬区,貫井３丁目４０番１３号,,13,120,1760021,,,,,,,2024-04-26,1,,,,,パフォーミングアーツキョウカイ,0
1524,6011801044138,新規,0,2024-04-26,2024-04-26,株式会社Ｋａｈｕ　Ｊａｐａｎ,,株式会社,東京都,葛飾区,亀有２丁目２番２－１０２号,,13,122,1250061,,,,,,,2024-04-26,1,,,,,カフジャパン,0
1525,6011803006202,新規,0,2024-04-26,2024-04-26,陽光合同会社,,合同会社,東京都,葛飾区,細田１丁目４番７号,,13,122,1240021,,,,,,,2024-04-26,1,,,,,ヨウコウ,0
1529,6012801023131,新規,0,2024-04-26,2024-04-26,株式会社ＲＥＮＥＳＳ,,株式会社,東京都,武蔵村山市,学園１丁目４１番地の１５パレ・ドール武蔵野台ＩＩ１０４,00134565,13,223,2080011,,,,,,,2024-04-26,1,,,,,リーネス,0
1530,6013101009399,新規,0,2024-04-26,2024-04-26,株式会社ワイズエレク,,株式会社,東京都,あきる野市,伊奈１５１７番地１,,13,228,1900142,,,,,,,2024-04-26,1,,,,,ワイズエレク,0
1542,6020001156890,新規,0,2024-04-26,2024-04-26,株式会社誠嘉商事,,株式会社,神奈川県,横浜市港北区,大曽根１丁目１４番１２号,,14,109,2220003,,,,,,,2024-04-26,1,,,,,セイカショウジ,0
1544,6020003026002,新規,0,2024-04-26,2024-04-26,めだか教育デザイン合同会社,,合同会社,神奈川県,横浜市神奈川区,沢渡３０－１,,14,102,2210844,,,,,,,2024-04-26,1,,,,,メダカキョウイクデザイン,0
1545,6020005016364,新規,0,2024-04-26,2024-04-26,一般社団法人日本ドッグラン協会,,その他の設立登記法人,神奈川県,横浜市西区,北軽井沢６３番地１,,14,103,2200001,,,,,,,2024-04-26,1,,,,,ニホンドッグランキョウカイ,0
1550,6021001082086,新規,0,2024-04-26,2024-04-26,株式会社ＲＥＧＡＬＩＯ,,株式会社,神奈川県,相模原市中央区,横山２丁目１５番８号,,14,152,2520242,,,,,,,2024-04-26,1,,,,,レガリオ,0
1551,6021001082094,新規,0,2024-04-26,2024-04-26,株式会社ＳＵＮＸ,,株式会社,神奈川県,相模原市緑区,上九沢１４７番地２,,14,151,2520136,,,,,,,2024-04-26,1,,,,,サンクス,0
1552,6021001082111,新規,0,2024-04-26,2024-04-26,ゼロサイト株式会社,,株式会社,神奈川県,鎌倉市,由比ガ浜４丁目４番３７号,,14,204,2480014,,,,,,,2024-04-26,1,,,,,ゼロサイト,0
1556,6021003014442,新規,0,2024-04-26,2024-04-26,Ｂｕｄｄｙ・Ｂｏｎ・Ｂｏｎ合同会社,,合同会社,神奈川県,相模原市中央区,上溝３丁目２０－２３ライオンズマンション１０１,,14,152,2520243,,,,,,,2024-04-26,1,,,,,バディボンボン,0
1557,6021005013095,新規,0,2024-04-26,2024-04-26,一般社団法人マタニティ期から絵本読みきかせ推進協会,,その他の設立登記法人,神奈川県,伊勢原市,岡崎６７１７番地の７,,14,214,2591135,,,,,,,2024-04-26,1,,,,,マタニティキカラエホンヨミキカセスイシンキョウカイ,0
1562,6030003024186,新規,0,2024-04-26,2024-04-26,合同会社ブリッツ,,合同会社,埼玉県,所沢市,星の宮２丁目５番１９号,,11,208,3591127,,,,,,,2024-04-26,1,,,,,ブリッツ,0
1566,6040001133327,新規,0,2024-04-26,2024-04-26,株式会社稲建,,株式会社,千葉県,野田市,桐ケ作９６５番地２,,12,208,2700213,,,,,,,2024-04-26,1,,,,,イナケン,0
1567,6040001133343,新規,0,2024-04-26,2024-04-26,ＶＩＬＬＡＲＳマネジメント株式会社,,株式会社,千葉県,長生郡一宮町,東浪見３４７,,12,421,2994303,,,,,,,2024-04-26,1,,,,,ヴィラーズマネジメント,0
1570,6050001054695,新規,0,2024-04-26,2024-04-26,株式会社トラスト,,株式会社,茨城県,牛久市,岡見町１０６６番地６,,08,219,3001204,,,,,,,2024-04-26,1,,,,,トラスト,0
1578,6060001037039,新規,0,2024-04-26,2024-04-26,株式会社アールトベイ,,株式会社,栃木県,佐野市,黒袴町４９８－３,,09,204,3270813,,,,,,,2024-04-26,1,,,,,アールトベイ,0
1586,6100003007514,新規,0,2024-04-26,2024-04-26,Ｍｙｏｋｏ　Ｋｏｇｅｎ　Ｒｅａｌｔｙ合同会社,,合同会社,長野県,上水内郡信濃町,大字野尻１６番地,,20,583,3891303,,,,,,,2024-04-26,1,,,,,ミョウコウコウゲンリアルティ,0
1609,6120001264304,新規,0,2024-04-26,2024-04-26,株式会社ＴｅｒｒａＰｌａｓ,,株式会社,大阪府,大阪市中央区,南船場４丁目１０番５号南船場ＳＯＨＯビル７０２,,27,128,5420081,,,,,,,2024-04-26,1,,,,,テラプラス,0
1610,6120001264312,新規,0,2024-04-26,2024-04-26,道子株式会社,,株式会社,大阪府,大阪市淀川区,西宮原３丁目２番１号新大阪ビジネス第２ニッケンマンション７２０号,,27,123,5320004,,,,,,,2024-04-26,1,,,,,ミチコ,0
1611,6120001264337,新規,0,2024-04-26,2024-04-26,株式会社ｙ’ｓ　ＣＯＭＰＡＮＹ,,株式会社,大阪府,大阪市中央区,南船場４丁目１３番８号エステート心斎橋６０３,,27,128,5420081,,,,,,,2024-04-26,1,,,,,ワイズカンパニー,0
1612,6120001264353,新規,0,2024-04-26,2024-04-26,株式会社ＳＩＧＮ　ＨＵＢ,,株式会社,大阪府,大阪市住吉区,長居西１丁目４番４７－４号,,27,120,5580002,,,,,,,2024-04-26,1,,,,,サインハブ,0
1613,6120001264378,新規,0,2024-04-26,2024-04-26,株式会社スクラムキャピタル,,株式会社,大阪府,大阪市東淀川区,東中島１丁目１７番５号,,27,114,5330033,,,,,,,2024-04-26,1,,,,,スクラムキャピタル,0
1614,6120001264394,新規,0,2024-04-26,2024-04-26,ｊｈｏｕｓｅ株式会社,,株式会社,大阪府,大阪市天王寺区,味原町１番１７号プラスパーハイツ４０２号,,27,109,5430023,,,,,,,2024-04-26,1,,,,,ジェイハウス,0
1615,6120001264403,新規,0,2024-04-26,2024-04-26,株式会社Ｂａｃｋｐｅｄａｌ,,株式会社,大阪府,大阪市北区,梅田１丁目２番２号大阪駅前第２ビル１２－１２,,27,127,5300001,,,,,,,2024-04-26,1,,,,,バックペダル,0
1616,6120001264428,新規,0,2024-04-26,2024-04-26,株式会社ケイコネクション,,株式会社,大阪府,大阪市淀川区,宮原１丁目３番２０号新大阪ステーションビル２０６号,,27,123,5320003,,,,,,,2024-04-26,1,,,,,ケイコネクション,0
1620,6120003026438,新規,0,2024-04-26,2024-04-26,明美合同会社,,合同会社,大阪府,大阪市中央区,久太郎町２丁目６－８鈍色の風７０２号室,,27,128,5410056,,,,,,,2024-04-26,1,,,,,アケミ,0
1621,6120003026470,新規,0,2024-04-26,2024-04-26,ＳｎｋＴ合同会社,,合同会社,大阪府,大阪市生野区,田島１丁目７番３号Ａ室,,27,116,5440011,,,,,,,2024-04-26,1,,,,,エスエヌケイティ,0
1622,6120101069479,新規,0,2024-04-26,2024-04-26,株式会社エンスカー,,株式会社,大阪府,堺市南区,晴美台２丁１１番６号,,27,145,5900113,,,,,,,2024-04-26,1,,,,,エンスカー,0
1623,6120101069487,新規,0,2024-04-26,2024-04-26,株式会社鐵心,,株式会社,大阪府,和泉市,池田下町２８７２番地の４３,,27,219,5940032,,,,,,,2024-04-26,1,,,,,テッシン,0
1624,6120103005779,新規,0,2024-04-26,2024-04-26,雲勝商事合同会社,,合同会社,大阪府,岸和田市,天神山町２丁目９－６－１０７室,,27,202,5960834,,,,,,,2024-04-26,1,,,,,ウンショウショウジ,0
1625,6120103005795,新規,0,2024-04-26,2024-04-26,Ａ＆Ｓ合同会社,,合同会社,大阪府,貝塚市,畠中１丁目９番２６号,,27,208,5970072,,,,,,,2024-04-26,1,,,,,エーアンドエス,0
1636,6130003009499,新規,0,2024-04-26,2024-04-26,合同会社バンブー,,合同会社,京都府,京田辺市,東古森１２番地５,,26,211,6100362,,,,,,,2024-04-26,1,,,,,バンブー,0
1640,6170001018110,新規,0,2024-04-26,2024-04-26,星辰水産貿易株式会社,,株式会社,和歌山県,和歌山市,頭陀寺１１番地,,30,201,6400314,,,,,,,2024-04-26,1,,,,,セイシンスイサンボウエキ,0
1645,6180001161099,新規,0,2024-04-26,2024-04-26,株式会社五徳,,株式会社,愛知県,名古屋市中区,錦３丁目１２番１５号,,23,106,4600003,,,,,,,2024-04-26,1,,,,,ゴトク,0
1646,6180001161124,新規,0,2024-04-26,2024-04-26,株式会社ウェルシス,,株式会社,愛知県,名古屋市中村区,竹橋町３３番１４号プラセシオン名古屋駅２０３号,,23,105,4530016,,,,,,,2024-04-26,1,,,,,ウェルシス,0
1647,6180001161165,新規,0,2024-04-26,2024-04-26,株式会社雅工房,,株式会社,愛知県,知多郡武豊町,字北中根１丁目７番地１,,23,447,4702385,,,,,,,2024-04-26,1,,,,,ミヤビコウボウ,0
1650,6180003026688,新規,0,2024-04-26,2024-04-26,合同会社ライフプロテクト,,合同会社,愛知県,愛知郡東郷町,北山台５丁目１０番地５・１０１号,,23,302,4700152,,,,,,,2024-04-26,1,,,,,ライフプロテクト,0
1652,6180301038591,新規,0,2024-04-26,2024-04-26,株式会社Ｌｅａｐ,,株式会社,愛知県,西尾市,住崎５丁目８７,,23,213,4450879,,,,,,,2024-04-26,1,,,,,リープ,0
1654,6180303006076,新規,0,2024-04-26,2024-04-26,合同会社ＨＡＲＥＹＡ,,合同会社,愛知県,豊田市,御船町大釜７０番地９,,23,211,4700371,,,,,,,2024-04-26,1,,,,,ハレヤ,0
1655,6190001031301,新規,0,2024-04-26,2024-04-26,株式会社ＧＹＸＵＳ大阪,,株式会社,三重県,四日市市,住吉町５番１０号,,24,202,5108003,,,,,,,2024-04-26,1,,,,,ジグサスオオサカ,0
1656,6200001042437,新規,0,2024-04-26,2024-04-26,株式会社ＭＡＭＯＲＩＡ,,株式会社,岐阜県,羽島市,正木町大浦３６０３番地１７,,21,209,5016224,,,,,,,2024-04-26,1,,,,,マモリア,0
1661,6230003002196,新規,0,2024-04-26,2024-04-26,ＩＥＯ　Ｊａｐａｎ合同会社,,合同会社,富山県,富山市,水橋町４７０番地,,16,201,9390509,,,,,,,2024-04-26,1,,,,,,0
1669,6260001038999,新規,0,2024-04-26,2024-04-26,株式会社Ｋ‐Ｗｏｒｋｓ,,株式会社,岡山県,倉敷市,福田町浦田２１６８番地２１石原マンション１０６,,33,202,7128031,,,,,,,2024-04-26,1,,,,,ケイワークス,0
1677,6280003001838,新規,0,2024-04-26,2024-04-26,合同会社ワゥ,,合同会社,島根県,松江市,伊勢宮町５４８番地,,32,201,6900006,,,,,,,2024-04-26,1,,,,,ワゥ,0
1678,6290001105508,新規,0,2024-04-26,2024-04-26,株式会社ことのは,,株式会社,福岡県,福岡市城南区,友丘２丁目１０番３号,,40,136,8140112,,,,,,,2024-04-26,1,,,,,コトノハ,0
1679,6290001105615,新規,0,2024-04-26,2024-04-26,プライムタイムトラベル株式会社,,株式会社,福岡県,福岡市中央区,渡辺通５丁目３番１５号モダンパラッツォ天神プレシャス１０３号,,40,133,8100004,,,,,,,2024-04-26,1,,,,,プライムタイムトラベル,0
1686,6290805009739,新規,0,2024-04-26,2024-04-26,特定非営利活動法人あぐさ館,,その他の設立登記法人,福岡県,北九州市小倉北区,泉台４丁目４番２９号,,40,106,8030842,,,,,,,2024-04-26,1,,,,,アグサカン,0
1687,6300003002115,新規,0,2024-04-26,2024-04-26,合同会社軸屋,,合同会社,佐賀県,神埼市,神埼町的２６６－３,,41,210,8420123,,,,,,,2024-04-26,1,,,,,ジクヤ,0
1691,6320001020430,新規,0,2024-04-26,2024-04-26,株式会社Ｓｔｕｒｄｙ,,株式会社,大分県,別府市,大字南立石２１５５番地の７,,44,202,8740000,,,,,,,2024-04-26,1,,,,,,0
1692,6330001032004,新規,0,2024-04-26,2024-04-26,株式会社ＨＩ重機,,株式会社,熊本県,熊本市西区,花園６丁目８番２４号,,43,103,8600072,,,,,,,2024-04-26,1,,,,,ハイジュウキ,0
1695,6340001026459,新規,0,2024-04-26,2024-04-26,株式会社天陽,,株式会社,鹿児島県,奄美市,名瀬金久町２番１１号２階,,46,222,8940031,,,,,,,2024-04-26,1,,,,,テンヨウ,0
1696,6340003004454,新規,0,2024-04-26,2024-04-26,合同会社馬込屋,,合同会社,鹿児島県,肝属郡錦江町,田代麓２８１４,,46,490,8932401,,,,,,,2024-04-26,1,,,,,マゴメヤ,0
1698,6360001033577,新規,0,2024-04-26,2024-04-26,株式会社Ｎ’ｓ‐ＵＰ,,株式会社,沖縄県,石垣市,字真栄里３０９番地２４,,47,207,9070002,,,,,,,2024-04-26,1,,,,,エヌズアップ,0
1699,6360003013924,新規,0,2024-04-26,2024-04-26,合同会社大希,,合同会社,沖縄県,宮古島市,平良字下里１１７１番地５ｃｌｏｖｅｒコンフォール１－１０３,,47,214,9060013,,,,,,,2024-04-26,1,,,,,タイキ,0
1708,6370001051231,新規,0,2024-04-26,2024-04-26,株式会社アセットバランス,,株式会社,宮城県,白石市,沢端町５番２４号,,04,206,9890277,,,,,,,2024-04-26,1,,,,,アセットバランス,0
1709,6370003006588,新規,0,2024-04-26,2024-04-26,合同会社ＴＫ不動産,,合同会社,宮城県,多賀城市,下馬３丁目３３番３５号,,04,209,9850835,,,,,,,2024-04-26,1,,,,,ティーケーフドウサン,0
1714,6380003005746,新規,0,2024-04-26,2024-04-26,ＭＩＮＡＭＩＳＯＭＡ５号合同会社,,合同会社,福島県,南相馬市,原町区小木迫字堂西５４番地の１,,07,212,9750055,,,,,,,2024-04-26,1,,,,,ミナミソウマゴゴウ,0
1719,6390005009067,新規,0,2024-04-26,2024-04-26,医療法人花沢アイクリニック,,その他の設立登記法人,山形県,米沢市,花沢町２６９５－１,,06,202,9920022,,,,,,,2024-04-26,1,,,,,ハナザワアイクリニック,0
1720,6400001016635,新規,0,2024-04-26,2024-04-26,釜石製網株式会社,,株式会社,岩手県,釜石市,大字平田第２地割３番地２３,,03,211,0260001,,,,,,,2024-04-26,1,,,,,カマイシセイモウ,0
1729,6440001009429,新規,0,2024-04-26,2024-04-26,株式会社小野寺設備工業,,株式会社,北海道,松前郡松前町,字館浜５０７番地４,,01,331,0491641,,,,,,,2024-04-26,1,,,,,オノデラセツビコウギョウ,0
1740,6500001025584,新規,0,2024-04-26,2024-04-26,株式会社ＩＧＮＡＣＴ,,株式会社,愛媛県,松山市,西石井５丁目１４－７,,38,201,7900931,,,,,,,2024-04-26,1,,,,,イグナクト,0
1743,6700150124893,新規,0,2024-04-26,2024-04-17,富山県警友会,,その他,富山県,富山市,丸の内１丁目８－１５余川ビル３階,,16,201,9300085,,,,,,,2024-04-17,1,,,,,トヤマケンケイユウカイ,0
1744,6700150125140,新規,0,2024-04-26,2024-04-26,ＡＳＩＡ　ＳＹＳＴＥＭ　ＬＩＭＩＴＥＤ,,外国会社等,,,,,,,,ＵＮＩＴ　７０８Ａ，７／Ｆ，ＡＲＩＯＮ　ＣＯＭＭＥＲＣＩＡＬ　ＣＥＮＴＲＥ，ＮＯ．２－１２　ＱＵＥＥＮ’Ｓ　ＲＯＡＤ　ＷＥＳＴ，ＳＨＥＵＮＧ　ＷＡＮ，ＨＯＮＧ　ＫＯＮＧ,,,,,,2024-04-26,1,,,,,アジアシステムリミテッド,0
1756,7010001244167,新規,0,2024-04-26,2024-04-26,ｔｏｇｏＦａｒｍ株式会社,,株式会社,東京都,中央区,新川１丁目２６－１６、８０３,,13,102,1040033,,,,,,,2024-04-26,1,,,,,トゥーゴーファーム,0
1757,7010001244357,新規,0,2024-04-26,2024-04-26,株式会社Ｖｅｒｂｓ,,株式会社,東京都,中央区,銀座１丁目１２－４Ｎ＆ＥＢＬＤ．７階,,13,102,1040061,,,,,,,2024-04-26,1,,,,,バーブス,0
1758,7010001244407,新規,0,2024-04-26,2024-04-26,ＴＨＥ　ＢＲＩＤＧＥ株式会社,,株式会社,東京都,中央区,銀座５丁目１１番１２号,,13,102,1040061,,,,,,,2024-04-26,1,,,,,ザブリッジ,0
1765,7010103002349,新規,0,2024-04-26,2024-04-26,トランジット八王子合同会社,,合同会社,東京都,八王子市,東町１２－８長澤ビル４Ｆ,,13,201,1920082,,,,,,,2024-04-26,1,,,,,トランジットハチオウジ,0
1772,7010401182025,新規,0,2024-04-26,2024-04-26,アセンディング株式会社,,株式会社,東京都,港区,浜松町２丁目２番１５号浜松町ダイヤビル２Ｆ,,13,103,1050013,,,,,,,2024-04-26,1,,,,,アセンディング,0
1775,7010403032442,新規,0,2024-04-26,2024-04-26,合同会社Ａｌｃｈｅグループ,,合同会社,東京都,港区,南青山３丁目８－１３ＦＳ南青山３０５,,13,103,1070062,,,,,,,2024-04-26,1,,,,,アルチェグループ,0
1776,7010403032450,新規,0,2024-04-26,2024-04-26,Ｄ２Ｙ合同会社,,合同会社,東京都,港区,南青山５丁目１７番２号シドニービル５０２,,13,103,1070062,,,,,,,2024-04-26,1,,,,,ディーツーワイ,0
1777,7010403032483,新規,0,2024-04-26,2024-04-26,合同会社ブリエＧ．Ｏ．Ｉ東京,,合同会社,東京都,港区,赤坂４丁目８番１９号３階,,13,103,1070052,,,,,,,2024-04-26,1,,,,,ブリエジーオーアイトウキョウ,0
1785,7010603010792,新規,0,2024-04-26,2024-04-26,合同会社ｌａｋｉ’ｓ　ｄｅｓｉｇｎ,,合同会社,東京都,江東区,猿江１丁目１１番４号１０１,,13,108,1350003,,,,,,,2024-04-26,1,,,,,ラキズデザイン,0
1798,7010901055127,新規,0,2024-04-26,2024-04-26,株式会社源創希,,株式会社,東京都,世田谷区,等々力７丁目２３－２７メイツ等々力１０５,,13,112,1580082,,,,,,,2024-04-26,1,,,,,ゲンソウキ,0
1800,7010903008990,新規,0,2024-04-26,2024-04-26,合同会社ＴＯＲＯ,,合同会社,東京都,世田谷区,玉川台２丁目１０番１５号ルピナス用賀４１４号室,,13,112,1580096,,,,,,,2024-04-26,1,,,,,トロ,0
1801,7010903008999,新規,0,2024-04-26,2024-04-26,合同会社ＨＲデザインスタジオ,,合同会社,東京都,世田谷区,経堂４丁目９番２０号,,13,112,1560052,,,,,,,2024-04-26,1,,,,,エイチアールデザインスタジオ,0
1803,7011001161583,新規,0,2024-04-26,2024-04-26,株式会社ｉＲｅＬｕ,,株式会社,東京都,渋谷区,道玄坂１丁目１０番８号渋谷道玄坂東急ビル２Ｆ－Ｃ,,13,113,1500043,,,,,,,2024-04-26,1,,,,,イレル,0
1804,7011001161666,新規,0,2024-04-26,2024-04-26,株式会社ＳｐｉｎＦｌｏｗ,,株式会社,東京都,渋谷区,千駄ヶ谷１丁目５番７号,,13,113,1510051,,,,,,,2024-04-26,1,,,,,スピンフロー,0
1807,7011003019029,新規,0,2024-04-26,2024-04-26,合同会社Ｎｙａｇｓｉｃ,,合同会社,東京都,渋谷区,渋谷２丁目１９―１５宮益坂ビルディング６０９,,13,113,1500002,,,,,,,2024-04-26,1,,,,,ニャゴシック,0
1808,7011003019037,新規,0,2024-04-26,2024-04-26,合同会社ＣＯＶＥ,,合同会社,東京都,目黒区,中町２丁目１３番１２号,,13,110,1530065,,,,,,,2024-04-26,1,,,,,コーヴ,0
1810,7011101107115,新規,0,2024-04-26,2024-04-26,株式会社ＶＥＲＬｉＳ,,株式会社,東京都,新宿区,西新宿６丁目５番１号新宿アイランドタワー２階,,13,104,1600023,,,,,,,2024-04-26,1,,,,,ヴェルリス,0
1811,7011101107123,新規,0,2024-04-26,2024-04-26,株式会社ＩＳ　Ｐｒｏｍｏｔｉｏｎ,,株式会社,東京都,新宿区,西新宿３丁目３番１３号西新宿水間ビル２Ｆ,,13,104,1600023,,,,,,,2024-04-26,1,,,,,アイエスプロモーション,0
1816,7011105010959,新規,0,2024-04-26,2024-04-26,医療法人社団たまゆら,,その他の設立登記法人,東京都,新宿区,天神町七番地４神楽坂メディカルセンタービル２階,,13,104,1620808,,,,,,,2024-04-26,1,,,,,タマユラ,0
1819,7011203004375,新規,0,2024-04-26,2024-04-26,合同会社Ａｏｉ,,合同会社,東京都,中野区,中野１丁目３３‐１,,13,114,1640001,,,,,,,2024-04-26,1,,,,,アオイ,0
1820,7011301029596,新規,0,2024-04-26,2024-04-26,嘉宝株式会社,,株式会社,東京都,杉並区,高円寺北２丁目２９番１５号匯金・高円寺ビル６０９号室,,13,115,1660002,,,,,,,2024-04-26,1,,,,,カホウ,0
1823,7011701027225,新規,0,2024-04-26,2024-04-26,株式会社金山建装,,株式会社,東京都,江戸川区,本一色２丁目５番１５号,,13,123,1330044,,,,,,,2024-04-26,1,,,,,カナヤマケンソウ,0
1830,7012705002404,新規,0,2024-04-26,2024-04-26,医療法人社団エンパシー,,その他の設立登記法人,東京都,西東京市,保谷町４丁目６番９号ウィルテラス保谷１０２,,13,229,2020015,,,,,,,2024-04-26,1,,,,,エンパシー,0
1831,7012803003378,新規,0,2024-04-26,2024-04-26,合同会社漫画工房じゅん,,合同会社,東京都,日野市,万願寺２丁目３７番地の１２コーポベスト万願寺３０２,,13,212,1910024,,,,,,,2024-04-26,1,,,,,マンガコウボウジュン,0
1835,7013301052413,新規,0,2024-04-26,2024-04-26,株式会社こじゃらんど,,株式会社,東京都,豊島区,西池袋４丁目８番１６号,,13,116,1710021,,,,,,,2024-04-26,1,,,,,コジャランド,0
1836,7013301052421,新規,0,2024-04-26,2024-04-26,Ｇエネルギーホールディングス株式会社,,株式会社,東京都,豊島区,西池袋３丁目２５番１５号ＩＢ第１ビル４階Ａ,,13,116,1710021,,,,,,,2024-04-26,1,,,,,ジーエネルギーホールディングス,0
1840,7020001156931,新規,0,2024-04-26,2024-04-26,株式会社Ｇｏｌｄｅｎ　Ｂａｂｙｌｏｎ,,株式会社,神奈川県,横浜市中区,北仲通５丁目５７－２,,14,104,2310003,,,,,,,2024-04-26,1,,,,,ゴールデンバビロン,0
1846,7020003026001,新規,0,2024-04-26,2024-04-26,合同会社クロワッサン,,合同会社,神奈川県,横浜市西区,戸部町６丁目２１３番地２リブゼ横浜ベイスクエア１００２号,,14,103,2200042,,,,,,,2024-04-26,1,,,,,クロワッサン,0
1850,7021001082085,新規,0,2024-04-26,2024-04-26,株式会社Ｋ・Ｓクラフト,,株式会社,神奈川県,茅ヶ崎市,芹沢１４２１番地,,14,207,2530008,,,,,,,2024-04-26,1,,,,,ケイエスクラフト,0
1851,7021001082110,新規,0,2024-04-26,2024-04-26,ファイン・ネクスト株式会社,,株式会社,神奈川県,藤沢市,葛原２１８８番地の１１,,14,205,2520822,,,,,,,2024-04-26,1,,,,,ファインネクスト,0
1857,7021005013094,新規,0,2024-04-26,2024-04-26,一般社団法人みんなのまち,,その他の設立登記法人,神奈川県,三浦郡葉山町,上山口１２７８番地の３,,14,301,2400115,,,,,,,2024-04-26,1,,,,,ミンナノマチ,0
1862,7030001160032,新規,0,2024-04-26,2024-04-26,株式会社Ｔ‐Ｐｌｕｓ１,,株式会社,埼玉県,狭山市,大字北入曽８４３番地の６,,11,215,3501315,,,,,,,2024-04-26,1,,,,,ティープラスワン,0
1863,7030001160040,新規,0,2024-04-26,2024-04-26,株式会社トレカリ,,株式会社,埼玉県,和光市,本町１８番３号ボナールコート２０３,,11,229,3510114,,,,,,,2024-04-26,1,,,,,トレカリ,0
1864,7030001160057,新規,0,2024-04-26,2024-04-26,株式会社ヨザクラ,,株式会社,埼玉県,比企郡滑川町,大字羽尾２３４２番地５,,11,341,3550811,,,,,,,2024-04-26,1,,,,,ヨザクラ,0
1865,7030001160073,新規,0,2024-04-26,2024-04-26,株式会社Ｒｅｆｏｒｃｅ,,株式会社,埼玉県,川口市,元郷２丁目１５番１－３２０９号エルザタワー５５,,11,203,3320011,,,,,,,2024-04-26,1,,,,,リフォース,0
1868,7030003024185,新規,0,2024-04-26,2024-04-26,合同会社アレーズ,,合同会社,埼玉県,越谷市,大字砂原１４８０－３,,11,222,3430803,,,,,,,2024-04-26,1,,,,,アレーズ,0
1871,7040001133301,新規,0,2024-04-26,2024-04-26,福盛株式会社,,株式会社,千葉県,松戸市,古ケ崎４丁目３４５６番地の１,,12,207,2710068,,,,,,,2024-04-26,1,,,,,フクモリ,0
1872,7040001133326,新規,0,2024-04-26,2024-04-26,株式会社Ｋ　Ｃｏｍｐａｎｙ,,株式会社,千葉県,柏市,戸張９６８番地６７,,12,217,2770008,,,,,,,2024-04-26,1,,,,,ケーカンパニー,0
1873,7040001133334,新規,0,2024-04-26,2024-04-26,ＫＯＫＵＳＡＩ貿易株式会社,,株式会社,千葉県,松戸市,本町１７番地の１１芹澤ビル６Ｆ,,12,207,2710091,,,,,,,2024-04-26,1,,,,,コクサイボウエキ,0
1874,7040001133359,新規,0,2024-04-26,2024-04-26,株式会社Ｔａｃａｍａｈａｃ,,株式会社,千葉県,南房総市,千倉町瀬戸１９８７番地５,,12,234,2950004,,,,,,,2024-04-26,1,,,,,タカマハック,0
1878,7050001054686,新規,0,2024-04-26,2024-04-26,ＭＣ株式会社,,株式会社,茨城県,守谷市,ひがし野２丁目１番地ブランズシティ守谷１３１４号室,,08,224,3020131,,,,,,,2024-04-26,1,,,,,エムシー,0
1881,7070001041682,新規,0,2024-04-26,2024-04-26,株式会社アシスト環境サービス,,株式会社,群馬県,伊勢崎市,太田町１０４１－２セゾン・ド・サン２Ｆ－Ｃ,,10,204,3720006,,,,,,,2024-04-26,1,,,,,アシストカンキョウサービス,0
1887,7100001037396,新規,0,2024-04-26,2024-04-26,株式会社フューチャー・ワークス・アンリミテッド,,株式会社,長野県,北佐久郡軽井沢町,大字長倉５９５６番地９４,,20,321,3890111,,,,,,,2024-04-26,1,,,,,フューチャーワークスアンリミテッド,0
1907,7120001264344,新規,0,2024-04-26,2024-04-26,芸玄株式会社,,株式会社,大阪府,大阪市大正区,三軒家西３丁目４番１６号中山ビル２１７Ｂ,,27,108,5510001,,,,,,,2024-04-26,1,,,,,ゲイゲン,0
1908,7120001264377,新規,0,2024-04-26,2024-04-26,株式会社Ａｒｔｆｕｌ耀,,株式会社,大阪府,大阪市中央区,日本橋２丁目１２番２１号,,27,128,5420073,,,,,,,2024-04-26,1,,,,,アートフルヨウ,0
1909,7120001264427,新規,0,2024-04-26,2024-04-26,株式会社ＰＣＨ,,株式会社,大阪府,大阪市中央区,東心斎橋２丁目４番２９号,,27,128,5420083,,,,,,,2024-04-26,1,,,,,ピーシーエイチ,0
1910,7120001264435,新規,0,2024-04-26,2024-04-26,株式会社フジセツ,,株式会社,大阪府,大阪市城東区,関目５丁目２１番２２号,,27,118,5360008,,,,,,,2024-04-26,1,,,,,フジセツ,0
1918,7120005024298,新規,0,2024-04-26,2024-04-26,一般社団法人クリエイティブギルド,,その他の設立登記法人,大阪府,大阪市中央区,南船場４丁目９番６－４０２号,,27,128,5420081,,,,,,,2024-04-26,1,,,,,クリエイティブギルド,0
1921,7120101069478,新規,0,2024-04-26,2024-04-26,株式会社タカテク,,株式会社,大阪府,高石市,綾園１丁目３－１４高石ＤＳビル３０１,,27,225,5920014,,,,,,,2024-04-26,1,,,,,タカテク,0
1922,7120101069486,新規,0,2024-04-26,2024-04-26,ＫＯＨカンパニー株式会社,,株式会社,大阪府,阪南市,尾崎町８丁目３１番５号,,27,232,5990201,,,,,,,2024-04-26,1,,,,,コーカンパニー,0
1927,7120903005143,新規,0,2024-04-26,2024-04-26,合同会社ＺＩＵ,,合同会社,大阪府,豊中市,宝山町１７番７号,,27,203,5610893,,,,,,,2024-04-26,1,,,,,ジユウ,0
1931,7122005003744,新規,0,2024-04-26,2024-04-26,一般社団法人ＴｅｎｉＴｅｏ,,その他の設立登記法人,大阪府,東大阪市,御幸町６番１６号,,27,227,5798057,,,,,,,2024-04-26,1,,,,,テニテオ,0
1939,7140001134223,新規,0,2024-04-26,2024-04-26,株式会社杉建,,株式会社,兵庫県,姫路市,四郷町上鈴２８１番地１,,28,201,6710241,,,,,,,2024-04-26,1,,,,,スギケン,0
1947,7180001161156,新規,0,2024-04-26,2024-04-26,株式会社ソシアノッター,,株式会社,愛知県,名古屋市昭和区,御器所町字木市２９番,,23,107,4660061,,,,,,,2024-04-26,1,,,,,ソシアノッター,0
1951,7180003026695,新規,0,2024-04-26,2024-04-26,合同会社クロスチェイン,,合同会社,愛知県,名古屋市北区,長喜町３丁目９番地の２,,23,103,4620036,,,,,,,2024-04-26,1,,,,,クロスチェイン,0
1956,7180301038590,新規,0,2024-04-26,2024-04-26,株式会社ＲＩＳＩＮＧ‐ＳＴＡＲ,,株式会社,愛知県,西尾市,羽塚町北側４５番地１,,23,213,4440316,,,,,,,2024-04-26,1,,,,,ライジングスター,0
1957,7190001031300,新規,0,2024-04-26,2024-04-26,株式会社はばたく,,株式会社,三重県,津市,あのつ台５丁目７８０番地１０,,24,201,5140131,,,,,,,2024-04-26,1,,,,,ハバタク,0
1960,7200001042436,新規,0,2024-04-26,2024-04-26,株式会社ウシロの仲介,,株式会社,岐阜県,羽島市,江吉良町江西１丁目２９番地２,,21,209,5016237,,,,,,,2024-04-26,1,,,,,ウシロノチュウカイ,0
1963,7200005013615,新規,0,2024-04-26,2024-04-26,医療法人スマイルアーク,,その他の設立登記法人,岐阜県,岐阜市,加納竜興町２丁目２０番地,,21,201,5008469,,,,,,,2024-04-26,1,,,,,スマイルアーク,0
1967,7220001025926,新規,0,2024-04-26,2024-04-26,株式会社松本里穂建築設計研究所,,株式会社,石川県,加賀市,松が丘４丁目６‐３３,,17,206,9220436,,,,,,,2024-04-26,1,,,,,マツモトリホケンチクセッケイケンキュウショ,0
1971,7230001020323,新規,0,2024-04-26,2024-04-26,株式会社辻テクノ,00134557,株式会社,富山県,黒部市,三日市２３４１番地１,,16,207,9380031,,,,,,,2024-04-26,1,,,,,ツジテクノ,0
1981,7290001105498,新規,0,2024-04-26,2024-04-26,株式会社リーリンクＣ,,株式会社,福岡県,福岡市中央区,高砂１丁目１番２５号－５０１号室,,40,133,8100011,,,,,,,2024-04-26,1,,,,,リーリンクコンサルタント,0
1982,7290001105515,新規,0,2024-04-26,2024-04-26,３ｅｓｔ株式会社,,株式会社,福岡県,福岡市博多区,祇園町８番１３号第一プリンスビルＴｈｅＣｏｍｐａｎｙ内,,40,132,8120038,,,,,,,2024-04-26,1,,,,,スリースト,0
1983,7290001105523,新規,0,2024-04-26,2024-04-26,株式会社ｂｒａｖｅ,,株式会社,福岡県,福岡市博多区,中洲１丁目３番１５号オンリーワンビル２Ｆ,,40,132,8100801,,,,,,,2024-04-26,1,,,,,ブレイブ,0
1984,7290001105614,新規,0,2024-04-26,2024-04-26,株式会社Ｃｒｅａｔｅ・Ｐｌｕｓ,,株式会社,福岡県,福岡市西区,愛宕３丁目２番２８－１０５号,,40,135,8190015,,,,,,,2024-04-26,1,,,,,クリエートプラス,0
1985,7290003015209,新規,0,2024-04-26,2024-04-26,合同会社ＥＲＳ,,合同会社,福岡県,福岡市博多区,博多駅前１丁目２３番２号ＰａｒｋＦｒｏｎｔ博多駅前１丁目５Ｆ－Ｂ,,40,132,8120011,,,,,,,2024-04-26,1,,,,,イーアールエス,0
1986,7290003015217,新規,0,2024-04-26,2024-04-26,ＢＮＳ合同会社,,合同会社,福岡県,福岡市中央区,天神２丁目２番１２号Ｔ＆Ｊビルディング７Ｆ,,40,133,8100001,,,,,,,2024-04-26,1,,,,,ビーエヌエス,0
1993,7330003010337,新規,0,2024-04-26,2024-04-26,合同会社八代研修センター,,合同会社,熊本県,天草市,新和町小宮地１１７３０番地,,43,215,8630101,,,,,,,2024-04-26,1,,,,,ヤツシロケンシュウセンター,0
1999,7360001033568,新規,0,2024-04-26,2024-04-26,ＰＡＲＡＭＯＵＮＴ　ＥＮＴＥＲＴＡＩＮＭＥＮＴ　ＰＲＯＤＵＣＴＩＯＮ　ＪＡＰＡＮ株式会社,,株式会社,沖縄県,国頭郡金武町,字金武４２４５番地２・下地店舗１－Ａ,,47,314,9041201,,,,,,,2024-04-26,1,,,,,パラマウントエンターテインメントプロダクションジャパン,0
2000,7360001033576,新規,0,2024-04-26,2024-04-26,株式会社ＢＬＵＥ　ＬＥＡＦ,,株式会社,沖縄県,那覇市,牧志２丁目１７－２７－４０１,,47,201,9000013,,,,,,,2024-04-26,1,,,,,ブルーリーフ,0
2001,7360003013915,新規,0,2024-04-26,2024-04-26,合同会社子育てナビ,,合同会社,沖縄県,名護市,字屋部２３番地６,,47,209,9050007,,,,,,,2024-04-26,1,,,,,コソダテナビ,0
2002,7360003013931,新規,0,2024-04-26,2024-04-26,合同会社宮城産業,,合同会社,沖縄県,那覇市,松尾２丁目５番２５号,,47,201,9000014,,,,,,,2024-04-26,1,,,,,ミヤギサンギョウ,0
2013,7380003005745,新規,0,2024-04-26,2024-04-26,ＭＩＮＡＭＩＳＯＭＡ４号合同会社,,合同会社,福島県,南相馬市,原町区小木迫字堂西５４番地の１,,07,212,9750055,,,,,,,2024-04-26,1,,,,,ミナミソウマヨンゴウ,0
2014,7390005009066,新規,0,2024-04-26,2024-04-26,一般財団法人井上ひさし記念財団,,その他の設立登記法人,山形県,東置賜郡川西町,大字上小松１０３７番地１,,06,382,9990121,,,,,,,2024-04-26,1,,,,,,0
2016,7420001018703,新規,0,2024-04-26,2024-04-26,株式会社駒込環境保全,,株式会社,青森県,青森市,大字駒込字深沢１１１６番地２８,,02,201,0300955,,,,,,,2024-04-26,1,,,,,コマゴメカンキョウホゼン,0
2028,7460301005216,新規,0,2024-04-26,2024-04-26,誠秀工業株式会社,,株式会社,北海道,北見市,西三輪７丁目７１９番地２２,,01,208,0900838,,,,,,,2024-04-26,1,,,,,セイシュウコウギョウ,0
2036,7700150116915,新規,0,2024-04-26,2024-04-26,Ｎｉｎｇｂｏ　Ｍｉｎｎｏｗ　ｉｎｔｅｒｎａｔｉｏｎａｌ　ｔｒａｄｉｎｇ　ｌｔｄ,,外国会社等,,,,,,,,Ｃｈｉｎａ，Ｚｈｅｊｉａｎｇｓｈｅｎｇ，Ｎｉｎｇｂｏｓｈｉ，Ｂｅｉｌｕｎｑｕ，Ｘｉａｏｇａｎｇｊｉｅｄａｏ，Ｐｕｓｈｕｎｌｕ１２ｈａｏ，７Ｚｈｕａｎｇ　１Ｈａｏ，２Ｃｅｎｇ２５３,,,,,,2024-04-26,1,,,,,ニンポーメイダクコクサイボウエキユウゲンコウシ,0
2037,7700150120685,新規,0,2024-04-26,2024-04-26,拓康貿易有限公司,,外国会社等,,,,,,,,ＦＬＡＴ／ＲＭ　１３０３　１３／Ｆ　ＣＨＥＯＮＧ　ＴＡＩ　ＢＵＩＬＤＩＮＧ　ＮＯ．２８７－２８９　ＲＥＣＬＡＭＡＴＩＯＮ　ＳＴＲＥＥＴ　ＫＯＷＬＯＯＮ，ＨＯＮＧＫＯＮＧ,,,,,,2024-04-26,1,,,,,タクコウボウエキユウゲンコウシ,0
2044,8010001244331,新規,0,2024-04-26,2024-04-26,株式会社ＰｌａｎｅｔＤＡＯ００１,,株式会社,東京都,千代田区,平河町２丁目５番３号,,13,101,1020093,,,,,,,2024-04-26,1,,,,,,0
2045,8010001244364,新規,0,2024-04-26,2024-04-26,株式会社２ストローク,,株式会社,東京都,千代田区,六番町６番地,,13,101,1020085,,,,,,,2024-04-26,1,,,,,ツーストローク,0
2046,8010001244406,新規,0,2024-04-26,2024-04-26,株式会社フィールソーグッドアグリフード,,株式会社,東京都,中央区,室町１－２－６日本橋大栄ビル７階,,13,102,1030000,,,,,,,2024-04-26,1,,,,,フィールソーグッドアグリフード,0
2047,8010003043582,新規,0,2024-04-26,2024-04-26,ＡＧＯ合同会社,,合同会社,東京都,中央区,日本橋小伝馬町１６－６,,13,102,1030001,,,,,,,2024-04-26,1,,,,,アゴー,0
2050,8010103002348,新規,0,2024-04-26,2024-04-26,合同会社ｍｉｌｌｉ,,合同会社,東京都,八王子市,横山町９番２２号ＯＫ３ビル１階,,13,201,1920081,,,,,,,2024-04-26,1,,,,,ミリ,0
2057,8010401182032,新規,0,2024-04-26,2024-04-26,株式会社クラリティアン,,株式会社,東京都,港区,南青山３丁目１番３６号青山丸竹ビル６Ｆ,,13,103,1070062,,,,,,,2024-04-26,1,,,,,クラリティアン,0
2059,8010501052176,新規,0,2024-04-26,2024-04-26,株式会社アクビクション,,株式会社,東京都,台東区,上野６丁目１番６号御徒町グリーンハイツ１００５号,,13,106,1100005,,,,,,,2024-04-26,1,,,,,アクビクション,0
2070,8010803004940,新規,0,2024-04-26,2024-04-26,合同会社マキノＨＤ,,合同会社,東京都,大田区,大森北６丁目４番２４号,,13,111,1430016,,,,,,,2024-04-26,1,,,,,マキノホールディングス,0
2073,8010901055159,新規,0,2024-04-26,2024-04-26,株式会社ＤＤＭ,,株式会社,東京都,世田谷区,成城６丁目８番８号,,13,112,1570066,,,,,,,2024-04-26,1,,,,,ディーディーエム,0
2074,8010903008998,新規,0,2024-04-26,2024-04-26,ＭＣＭＪ合同会社,,合同会社,東京都,世田谷区,三軒茶屋２丁目４８番８－４１１号,,13,112,1540024,,,,,,,2024-04-26,1,,,,,エムシーエムジェー,0
2084,8011001161599,新規,0,2024-04-26,2024-04-26,ペンギニア株式会社,,株式会社,東京都,渋谷区,渋谷２丁目１９‐１５宮益坂ビルディング６０９,,13,113,1500002,,,,,,,2024-04-26,1,,,,,ペンギニア,0
2085,8011001161632,新規,0,2024-04-26,2024-04-26,ｍｏｎｏｌｙｓｔ株式会社,,株式会社,東京都,渋谷区,円山町５番５号Ｎａｖｉ渋谷Ｖ３階,,13,113,1500044,,,,,,,2024-04-26,1,,,,,モノリスト,0
2087,8011003018995,新規,0,2024-04-26,2024-04-26,ＴＭＴ合同会社,,合同会社,東京都,目黒区,目黒１丁目９番４－２１３号オーベル目黒,,13,110,1530063,,,,,,,2024-04-26,1,,,,,ティーエムティー,0
2088,8011003019044,新規,0,2024-04-26,2024-04-26,合同会社ＭＵＳＴ　ＯＮＥ,,合同会社,東京都,渋谷区,神宮前６丁目２３番４号桑野ビル２階,,13,113,1500001,,,,,,,2024-04-26,1,,,,,マストワン,0
2095,8011101107114,新規,0,2024-04-26,2024-04-26,ＹＯＵＯＮ　ＪＡＰＡＮ株式会社,,株式会社,東京都,新宿区,西新宿７丁目４番６号,,13,104,1600023,,,,,,,2024-04-26,1,,,,,ユーオンジャパン,0
2099,8011105011015,新規,0,2024-04-26,2024-04-26,一般社団法人エンジョイスポーツ,,その他の設立登記法人,東京都,新宿区,南元町９番地９,,13,104,1600012,,,,,,,2024-04-26,1,,,,,エンジョイスポーツ,0
2101,8011303005140,新規,0,2024-04-26,2024-04-26,合同会社和洋エステート,,合同会社,東京都,杉並区,下井草２丁目１６番４号,,13,115,1670022,,,,,,,2024-04-26,1,,,,,ワヨウエステート,0
2102,8011401026022,新規,0,2024-04-26,2024-04-26,株式会社壱市コンサルティング,,株式会社,東京都,板橋区,幸町２１番１０－３０１号,,13,119,1730034,,,,,,,2024-04-26,1,,,,,イチイチコンサルティング,0
2108,8011605002579,新規,0,2024-04-26,2024-04-26,一般社団法人ｃａｆｅ　ｂｌｏｏｍ３８,,その他の設立登記法人,東京都,練馬区,豊玉南３丁目２０番１５－１０４号,,13,120,1760014,,,,,,,2024-04-26,1,,,,,カフェブルームサヤ,0
2112,8012301013886,新規,0,2024-04-26,2024-04-26,株式会社Ｒｓｐａｃｅ,,株式会社,東京都,町田市,森野１丁目３５番地７町田北口ビル３Ｂ,,13,209,1940022,,,,,,,2024-04-26,1,,,,,アールスペース,0
2116,8012401041804,新規,0,2024-04-26,2024-04-26,株式会社リカステ,,株式会社,東京都,調布市,多摩川１丁目３２番地２５,,13,208,1820025,,,,,,,2024-04-26,1,,,,,リカステ,0
2119,8012403006516,新規,0,2024-04-26,2024-04-26,合同会社田園都市出版社,,合同会社,東京都,狛江市,西和泉１丁目３番２０８,,13,219,2010011,,,,,,,2024-04-26,1,,,,,デンエントシシュッパンシャ,0
2122,8012703002974,新規,0,2024-04-26,2024-04-26,合同会社デジタルネットワーク,,合同会社,東京都,東村山市,秋津町５丁目１５番地６センチュリーＮｏ１新秋津２０２,,13,213,1890001,,,,,,,2024-04-26,1,,,,,デジタルネットワーク,0
2137,8020001156930,新規,0,2024-04-26,2024-04-26,株式会社ＤＡＥＮ　Ｔｅｃｈｎｏｌｏｇｙ,,株式会社,神奈川県,横浜市西区,北幸１丁目１１番５号相鉄ＫＳビル９階,,14,103,2200004,,,,,,,2024-04-26,1,,,,,ダエンテクノロジー,0
2140,8020003025984,新規,0,2024-04-26,2024-04-26,エーエスケーアシスティング合同会社,,合同会社,神奈川県,横浜市南区,南太田１丁目４７－２２－５０４,,14,105,2320006,,,,,,,2024-04-26,1,,,,,エーエスケーアシスティング,0
2141,8020003026000,新規,0,2024-04-26,2024-04-26,合同会社ＦＧＬ,,合同会社,神奈川県,横浜市港南区,港南台６丁目４番１１号２号室,,14,111,2340054,,,,,,,2024-04-26,1,,,,,エフジーエル,0
2144,8021001082084,新規,0,2024-04-26,2024-04-26,株式会社ミタ家,,株式会社,神奈川県,相模原市南区,下溝３０９５番地４,,14,153,2520335,,,,,,,2024-04-26,1,,,,,ミタケ,0
2146,8021003014449,新規,0,2024-04-26,2024-04-26,ＳｔｒａＲｅａｌｅ合同会社,,合同会社,神奈川県,平塚市,菫平１５番１‐３‐５０３号パレ平塚すみれ平,,14,203,2540822,,,,,,,2024-04-26,1,,,,,ストラレアーレ,0
2147,8021005013093,新規,0,2024-04-26,2024-04-26,宗教法人妙覚院,,その他の設立登記法人,神奈川県,茅ヶ崎市,赤羽根３０８１番地７０,,14,207,2530001,,,,,,,2024-04-26,1,,,,,ミョウカクイン,0
2151,8030001160023,新規,0,2024-04-26,2024-04-26,株式会社外山タイル,,株式会社,埼玉県,戸田市,本町５丁目９番１７－３０２号,,11,224,3350023,,,,,,,2024-04-26,1,,,,,トヤマタイル,0
2152,8030001160031,新規,0,2024-04-26,2024-04-26,ニシテクノサービス株式会社,,株式会社,埼玉県,八潮市,八潮２丁目２０番地３８,,11,234,3400815,,,,,,,2024-04-26,1,,,,,ニシテクノサービス,0
2155,8030003024168,新規,0,2024-04-26,2024-04-26,合同会社ませと,,合同会社,埼玉県,ふじみ野市,北野１丁目３番２５号８,,11,245,3560007,,,,,,,2024-04-26,1,,,,,マセト,0
2156,8030003024184,新規,0,2024-04-26,2024-04-26,合同会社ちょいむ,,合同会社,埼玉県,久喜市,桜田２丁目６番２－８０５,,11,232,3400203,,,,,,,2024-04-26,1,,,,,チョイム,0
2159,8040001133309,新規,0,2024-04-26,2024-04-26,株式会社ユアサポート,,株式会社,千葉県,船橋市,本郷町６４９ー１,,12,204,2730033,,,,,,,2024-04-26,1,,,,,ユアサポート,0
2160,8040001133333,新規,0,2024-04-26,2024-04-26,株式会社通田技研,,株式会社,千葉県,浦安市,北栄１丁目１２－７ＡｑｕｉｌａＵｒａｙａｓｕＵｎｏ１００６,,12,227,2790002,,,,,,,2024-04-26,1,,,,,ツウダギケン,0
2161,8040001133358,新規,0,2024-04-26,2024-04-26,株式会社ｍａｆｕ,,株式会社,千葉県,船橋市,松が丘２丁目２８－１１,,12,204,2740064,,,,,,,2024-04-26,1,,,,,マフ,0
2164,8040003024869,新規,0,2024-04-26,2024-04-26,合同会社Ｏｐｐｉａ,,合同会社,千葉県,印西市,木刈２丁目１６番地５棟３０１号,,12,231,2701359,,,,,,,2024-04-26,1,,,,,オピア,0
2172,8060001037037,新規,0,2024-04-26,2024-04-26,株式会社ＶＯＬＴＡＧＥ,,株式会社,栃木県,栃木市,都賀町平川４３７番地７,,09,203,3280112,,,,,,,2024-04-26,1,,,,,ボルテージ,0
2173,8070001041673,新規,0,2024-04-26,2024-04-26,株式会社マイファーム,,株式会社,群馬県,安中市,松井田町高梨子３２１番地,,10,211,3790215,,,,,,,2024-04-26,1,,,,,マイファーム,0
2174,8070001041681,新規,0,2024-04-26,2024-04-26,株式会社Ｘｅｎｏｎ,,株式会社,群馬県,太田市,鳥山中町１５９８番地１,,10,205,3730062,,,,,,,2024-04-26,1,,,,,ゼノン,0
2176,8070003005379,新規,0,2024-04-26,2024-04-26,合同会社ｔｒｕｎｋ,,合同会社,群馬県,太田市,龍舞町５４６７－２,,10,205,3730806,,,,,,,2024-04-26,1,,,,,トランク,0
2177,8080003003183,新規,0,2024-04-26,2024-04-26,合同会社Ｎｅｘｔ　Ｌｅｖｅｌ　Ａｔｈｌｅｔｅ,,合同会社,静岡県,静岡市葵区,安東２丁目１０番６号,,22,101,4200882,,,,,,,2024-04-26,1,,,,,,0
2178,8080401027148,新規,0,2024-04-26,2024-04-26,ＵＳＡＨＡ　ＮＯＢＩ株式会社,,株式会社,静岡県,磐田市,下万能２５３番地５,,22,211,4380818,,,,,,,2024-04-26,1,,,,,ウサハノビ,0
2181,8100001037395,新規,0,2024-04-26,2024-04-26,株式会社ＲＡＮＡ,,株式会社,長野県,安曇野市,穂高牧１１７０番地２,,20,220,3998305,,,,,,,2024-04-26,1,,,,,ラーナ,0
2194,8120001264343,新規,0,2024-04-26,2024-04-26,株式会社ＳＴＥＬＬＡ,,株式会社,大阪府,大阪市此花区,西九条３丁目１３番１３号,,27,104,5540012,,,,,,,2024-04-26,1,,,,,ステラ,0
2195,8120001264351,新規,0,2024-04-26,2024-04-26,マナカマナ株式会社,,株式会社,大阪府,大阪市生野区,中川２丁目６番１３号,,27,116,5440005,,,,,,,2024-04-26,1,,,,,マナカマナ,0
2196,8120001264368,新規,0,2024-04-26,2024-04-26,株式会社バックオフィス,,株式会社,大阪府,大阪市中央区,内本町１丁目３番６号－６Ｆ,,27,128,5400026,,,,,,,2024-04-26,1,,,,,バックオフィス,0
2197,8120001264376,新規,0,2024-04-26,2024-04-26,Ｈ２マネジメント株式会社,,株式会社,大阪府,大阪市中央区,内平野町１丁目３番１２号ａｊディナスティ大手前ビル６０１号,,27,128,5400037,,,,,,,2024-04-26,1,,,,,エイチツーマネジメント,0
2198,8120001264384,新規,0,2024-04-26,2024-04-26,株式会社アルデバラン,,株式会社,大阪府,大阪市浪速区,元町１丁目５－１５オカダウィーンビル４０２号室,,27,111,5560016,,,,,,,2024-04-26,1,,,,,アルデバラン,0
2199,8120001264401,新規,0,2024-04-26,2024-04-26,サカエカイキ株式会社,,株式会社,大阪府,大阪市生野区,勝山北４丁目１番１９号,,27,116,5440033,,,,,,,2024-04-26,1,,,,,サカエカイキ,0
2200,8120001264434,新規,0,2024-04-26,2024-04-26,株式会社Ｂｅｌｌ＆Ｄｏｏｒ,,株式会社,大阪府,大阪市西成区,旭１丁目１１番１２－１２０３号,,27,122,5570032,,,,,,,2024-04-26,1,,,,,ベルアンドドア,0
2201,8120001264500,新規,0,2024-04-26,2024-04-26,株式会社わくわく,,株式会社,大阪府,大阪市西区,北堀江１丁目１３番２０－６０３号,,27,106,5500014,,,,,,,2024-04-26,1,,,,,ワクワク,0
2204,8120003026452,新規,0,2024-04-26,2024-04-26,合同会社ＬＩＧＨＴ　ＨＥＡＲＴ,,合同会社,大阪府,大阪市旭区,中宮３丁目１２番１５号,,27,117,5350003,,,,,,,2024-04-26,1,,,,,ライトハート,0
2205,8120003026460,新規,0,2024-04-26,2024-04-26,合同会社さんた,,合同会社,大阪府,大阪市西区,西本町２丁目５番２３号,,27,106,5500005,,,,,,,2024-04-26,1,,,,,サンタ,0
2207,8120101069485,新規,0,2024-04-26,2024-04-26,株式会社セルウェイズ,,株式会社,大阪府,堺市北区,奥本町１丁２５７－３０３,,27,146,5918007,,,,,,,2024-04-26,1,,,,,セルウェイズ,0
2208,8120103005793,新規,0,2024-04-26,2024-04-26,ＧＡＩフレンド合同会社,,合同会社,大阪府,松原市,高見の里３丁目１２－１１高見パンション１２号室,,27,217,5800021,,,,,,,2024-04-26,1,,,,,ジーエーアイフレンド,0
2210,8120903005150,新規,0,2024-04-26,2024-04-26,合同会社ＮＣＡ箕面,,合同会社,大阪府,箕面市,桜４丁目１５番４号,,27,220,5620041,,,,,,,2024-04-26,1,,,,,エヌシーエーミノオ,0
2211,8122001038033,新規,0,2024-04-26,2024-04-26,株式会社フジ工務店,,株式会社,大阪府,八尾市,宮町５丁目６番３０号,,27,212,5810815,,,,,,,2024-04-26,1,,,,,フジコウムテン,0
2212,8122001038041,新規,0,2024-04-26,2024-04-26,株式会社ＫＡＷＡＫＡＭＩ,,株式会社,大阪府,東大阪市,高井田西４丁目５番３５号,,27,227,5770067,,,,,,,2024-04-26,1,,,,,カワカミ,0
2216,8130001076944,新規,0,2024-04-26,2024-04-26,株式会社ｕｎｋｎｏｗｎ,,株式会社,京都府,舞鶴市,字下安久９８７,,26,202,6240914,,,,,,,2024-04-26,1,,,,,アンノウン,0
2219,8130003009506,新規,0,2024-04-26,2024-04-26,合同会社りた,,合同会社,京都府,京都市伏見区,竹田久保町１２番地２６,,26,109,6128411,,,,,,,2024-04-26,1,,,,,リタ,0
2223,8140001134222,新規,0,2024-04-26,2024-04-26,福昌商事株式会社,,株式会社,兵庫県,神戸市中央区,二宮町１丁目１０番１－５０１号,,28,110,6510093,,,,,,,2024-04-26,1,,,,,フクショウショウジ,0
2225,8140003020486,新規,0,2024-04-26,2024-04-26,ＭＩＮＴ合同会社,,合同会社,兵庫県,芦屋市,浜風町２０番６号,,28,206,6590032,,,,,,,2024-04-26,1,,,,,ミント,0
2228,8160001025873,新規,0,2024-04-26,2024-04-26,株式会社佐竹建材,,株式会社,滋賀県,大津市,稲津２丁目３番１５号,,25,201,5202271,,,,,,,2024-04-26,1,,,,,サタケケンザイ,0
2233,8170001018109,新規,0,2024-04-26,2024-04-26,株式会社前島,,株式会社,和歌山県,和歌山市,松島８０番地,,30,201,6408304,,,,,,,2024-04-26,1,,,,,マエシマ,0
2240,8180001161188,新規,0,2024-04-26,2024-04-26,株式会社日本ケミテック,,株式会社,愛知県,名古屋市守山区,桜坂１丁目１３０９番地,,23,113,4630018,,,,,,,2024-04-26,1,,,,,ニホンケミテック,0
2246,8180301038573,新規,0,2024-04-26,2024-04-26,Ｌｉｖｅｓｔｏｃｋメンテナンス株式会社,,株式会社,愛知県,豊橋市,藤並町字天王２５番地の９,,23,201,4418114,,,,,,,2024-04-26,1,,,,,ライブストックメンテナンス,0
2247,8180301038581,新規,0,2024-04-26,2024-04-26,Ｘｅｓｓ株式会社,,株式会社,愛知県,蒲郡市,港町１６番４号イル・ラ・フォルジュ２０３,,23,214,4430034,,,,,,,2024-04-26,1,,,,,セス,0
2257,8220001025966,新規,0,2024-04-26,2024-04-26,株式会社新風土社,,株式会社,石川県,金沢市,金石西４丁目８番２７号,,17,201,9200337,,,,,,,2024-04-26,1,,,,,シンフウドシャ,0
2259,8230001020322,新規,0,2024-04-26,2024-04-26,株式会社川口クレーン,,株式会社,富山県,下新川郡入善町,上野１１３７９番地,,16,342,9390642,,,,,,,2024-04-26,1,,,,,カワグチクレーン,0
2261,8240001063130,新規,0,2024-04-26,2024-04-26,株式会社福山デニックス,,株式会社,広島県,福山市,木之庄町５丁目１８番３７号,,34,207,7200082,,,,,,,2024-04-26,1,,,,,フクヤマデニックス,0
2272,8290001105497,新規,0,2024-04-26,2024-04-26,株式会社野上華園,,株式会社,福岡県,久留米市,北野町高良１３３６番地１,,40,203,8301114,,,,,,,2024-04-26,1,,,,,ノガミハナエン,0
2273,8290001105514,新規,0,2024-04-26,2024-04-26,星光株式会社,,株式会社,福岡県,春日市,昇町３丁目２１０タウンライズ１階Ａ号室,,40,218,8160851,,,,,,,2024-04-26,1,,,,,セイコウ,0
2274,8290001105530,新規,0,2024-04-26,2024-04-26,株式会社ＡＤＶＡＮＣＥ,,株式会社,福岡県,飯塚市,吉原町７番２３号東洋ビル,,40,205,8200040,,,,,,,2024-04-26,1,,,,,アドバンス,0
2275,8290001105646,新規,0,2024-04-26,2024-04-26,株式会社ＦＯＮＴＥ,,株式会社,福岡県,福岡市中央区,六本松２丁目１２番８－４０２号,,40,133,8100044,,,,,,,2024-04-26,1,,,,,フォンテ,0
2280,8290801030523,新規,0,2024-04-26,2024-04-26,株式会社Ｌｏａ‐Ｈｏｍｅ,,株式会社,福岡県,遠賀郡水巻町,二西４丁目１１番７号,,40,382,8070055,,,,,,,2024-04-26,1,,,,,ロアホーム,0
2289,8350005006231,新規,0,2024-04-26,2024-04-26,医療法人永豊会,,その他の設立登記法人,宮崎県,宮崎市,大字郡司分甲１５７６番地１,,45,201,8800924,,,,,,,2024-04-26,1,,,,,エイホウカイ,0
2291,8360001033559,新規,0,2024-04-26,2024-04-26,株式会社ユンスル,,株式会社,沖縄県,那覇市,字国場１０００番地３カンセイホーム国場２－Ａ,,47,201,9020075,,,,,,,2024-04-26,1,,,,,ユンスル,0
2292,8360003013930,新規,0,2024-04-26,2024-04-26,ＭＥＧ合同会社,,合同会社,沖縄県,那覇市,古波蔵４丁目１２番６号宮城アパート３０２,,47,201,9000024,,,,,,,2024-04-26,1,,,,,メグ,0
2298,8380003005744,新規,0,2024-04-26,2024-04-26,ＭＩＮＡＭＩＳＯＭＡ３号合同会社,,合同会社,福島県,南相馬市,原町区小木迫字堂西５４番地の１,,07,212,9750055,,,,,,,2024-04-26,1,,,,,ミナミソウマサンゴウ,0
2309,8430003016273,新規,0,2024-04-26,2024-04-26,合同会社ＳＦ,,合同会社,北海道,札幌市中央区,南二条西３丁目１２－５,,01,101,0600062,,,,,,,2024-04-26,1,,,,,エスエフ,0
2319,8700150116138,新規,0,2024-04-26,2024-04-26,ｚｈｏｎｇｘｉａｎｇｌｉａｎｈｅｂｅｉｊｉｎｇｇｏｎｇｃｈｅｎｇｊｉｓｈｕｙａｎｊｉｕｙｕａｎｙｏｕｘｉａｎｇｏｎｇｓｉ,,外国会社等,,,,,,,,Ｎｏ．１００５，１０Ｆｌｏｏｒ，１６Ｂｕｉｌｄｉｎｇ，Ｓｉｑｕ，Ａｎｈｕｉｌｉ，Ｃｈａｏｙａｎｇ　Ｄｉｓｔｒｉｃｔ，Ｂｅｉｊｉｎｇ，Ｃｈｉｎａ,,,,,,2024-04-26,1,,,,,チョンシアンリエンフベイジンコンチェンジシュアンジウユアンヨウシエンコンス,0
2320,8700150116352,新規,0,2024-04-26,2024-04-26,Ｗｏｏｄｅｒｆｕｌ　Ｌｉｆｅ　Ｃｏ．，Ｌｔｄ,,外国会社等,,,,,,,,Ｘｕｅｚｈｕａｎｇ　ｃｕｎ，Ｈａｎｊｉ　ｚｈｅｎ，Ｃａｏｘｉａｎ,,,,,,2024-04-26,1,,,,,ウーダフルライフカンパニーリミテッド,0
2321,8700150125139,新規,0,2024-04-26,2024-04-26,ｓｈｅｎｚｈｅｎｓｈｉ　ｋｕｘｉｕ　ｔｏｎｇｘｕｎ　ｙｏｕｘｉａｎ　ｇｏｎｇｓｉ,,外国会社等,,,,,,,,ｓｈｅｎｚｈｅｎｓｈｉ　ｌｏｎｇｈｕａｑｕ　ｍｉｎｚｈｉｊｉｅｄａｏ　ｍｉｎｌｅｓｈｅｑｕ　ｍｉｎｌｅｇｏｎｇｙｅｑｕ　８　ｄｏｎｇ　３０１,,,,,,2024-04-26,1,,,,,シェンジェンシクシュートンシュンヨウシエンゴンスー,0
2332,9010003043482,新規,0,2024-04-26,2024-04-26,ＴｏｋｙｏＷＰ３合同会社,,合同会社,東京都,千代田区,霞が関３丁目２番５号,,13,101,1000013,,,,,,,2024-04-26,1,,,,,トキョウダブリューピースリー,0
2333,9010003043607,新規,0,2024-04-26,2024-04-26,合同会社ウインダム,,合同会社,東京都,千代田区,内神田３丁目２１番８号神田駅北口合同ビル３０１,,13,101,1010047,,,,,,,2024-04-26,1,,,,,ウインダム,0
2345,9010401182114,新規,0,2024-04-26,2024-04-26,株式会社エテックスソリューション,,株式会社,東京都,港区,芝４丁目７番６号芝ビルディング７０４,,13,103,1080014,,,,,,,2024-04-26,1,,,,,エテックスソリューション,0
2347,9010503007425,新規,0,2024-04-26,2024-04-26,ブロックチェーンネットワーク合同会社,,合同会社,東京都,台東区,上野６丁目８番１９号小野田ビル３Ｆ３０１,,13,106,1100005,,,,,,,2024-04-26,1,,,,,ブロックチェーンネットワーク,0
2350,9010601065069,新規,0,2024-04-26,2024-04-26,雲遊株式会社,,株式会社,東京都,江東区,有明１丁目４番１１号,,13,108,1350063,,,,,,,2024-04-26,1,,,,,ウンユウ,0
2351,9010601065077,新規,0,2024-04-26,2024-04-26,ふむ株式会社,,株式会社,東京都,江東区,平野１丁目１２番７号ＴＹビル深川２階,,13,108,1350023,,,,,,,2024-04-26,1,,,,,フム,0
2352,9010601065085,新規,0,2024-04-26,2024-04-26,株式会社暁,,株式会社,東京都,江東区,東陽１丁目８番１６－１０２号,,13,108,1350016,,,,,,,2024-04-26,1,,,,,アカツキ,0
2354,9010603010790,新規,0,2024-04-26,2024-04-26,合同会社Ｒｉｔｚ,,合同会社,東京都,江東区,佐賀１丁目６－２－１１０２,,13,108,1350031,,,,,,,2024-04-26,1,,,,,リッツ,0
2372,9011001161573,新規,0,2024-04-26,2024-04-26,株式会社ＫＯＫＵＡＳ,,株式会社,東京都,渋谷区,桜丘町１３番３号,,13,113,1500031,,,,,,,2024-04-26,1,,,,,コクアス,0
2373,9011001161672,新規,0,2024-04-26,2024-04-26,株式会社シュールヴァン,,株式会社,東京都,渋谷区,西原１丁目２６番７号,,13,113,1510066,,,,,,,2024-04-26,1,,,,,シュールヴァン,0
2374,9011005010504,新規,0,2024-04-26,2024-04-26,一般社団法人三明会,,その他の設立登記法人,東京都,目黒区,東山１丁目６－５シティハウス中目黒ステーションコート,,13,110,1530043,,,,,,,2024-04-26,1,,,,,サンメイカイ,0
2379,9011101107121,新規,0,2024-04-26,2024-04-26,アシスト株式会社,,株式会社,東京都,新宿区,西新宿３丁目３番１３号西新宿水間ビル６階,,13,104,1600023,,,,,,,2024-04-26,1,,,,,アシスト,0
2382,9011103014357,新規,0,2024-04-26,2024-04-26,Ｓｅｖｅｎ　Ｉｎｔｅｒｎａｔｉｏｎａｌ合同会社,,合同会社,東京都,新宿区,新宿７丁目１３番１６号長谷川マンション２０１,,13,104,1600022,,,,,,,2024-04-26,1,,,,,セブンインターナショナル,0
2383,9011203004373,新規,0,2024-04-26,2024-04-26,ＳｕｇａｒＡｎｄＳｐｉｃｅ合同会社,,合同会社,東京都,中野区,新井１丁目１７番９号,,13,114,1650026,,,,,,,2024-04-26,1,,,,,シュガーアンドスパイス,0
2402,9012801023129,新規,0,2024-04-26,2024-04-26,株式会社オクトミー,,株式会社,東京都,立川市,若葉町４丁目１番１－１０１,,13,202,1900001,,,,,,,2024-04-26,1,,,,,オクトミー,0
2412,9020001156913,新規,0,2024-04-26,2024-04-26,ＭＹホールディングス株式会社,,株式会社,神奈川県,横浜市西区,浅間町４丁目３５１番地２２－１階,,14,103,2200072,,,,,,,2024-04-26,1,,,,,エムワイホールディングス,0
2413,9020001156921,新規,0,2024-04-26,2024-04-26,株式会社ブルーシーカーズ,,株式会社,神奈川県,横浜市青葉区,あざみ野３丁目２５番地２１,,14,117,2250011,,,,,,,2024-04-26,1,,,,,ブルーシーカーズ,0
2421,9021001082083,新規,0,2024-04-26,2024-04-26,株式会社ダブルボランチ,,株式会社,神奈川県,平塚市,桃浜町２７番２１号,,14,203,2540815,,,,,,,2024-04-26,1,,,,,ダブルボランチ,0
2422,9021001082091,新規,0,2024-04-26,2024-04-26,株式会社ＳＥＲｉＤＥＮ,,株式会社,神奈川県,厚木市,上依知２６７番地９,,14,212,2430801,,,,,,,2024-04-26,1,,,,,セリデン,0
2423,9021001082100,新規,0,2024-04-26,2024-04-26,株式会社ベルクト,,株式会社,神奈川県,厚木市,松枝１丁目３番１６号,,14,212,2430005,,,,,,,2024-04-26,1,,,,,ベルクト,0
2425,9021003014431,新規,0,2024-04-26,2024-04-26,ＲＡＫＬ４合同会社,,合同会社,神奈川県,茅ヶ崎市,松が丘２丁目５番３号,,14,207,2530025,,,,,,,2024-04-26,1,,,,,ラクルフォー,0
2429,9030001160030,新規,0,2024-04-26,2024-04-26,Ｋ２マネジメント株式会社,,株式会社,埼玉県,上尾市,仲町１丁目７番８号,,11,219,3620035,,,,,,,2024-04-26,1,,,,,ケーツーマネジメント,0
2430,9030001160039,新規,0,2024-04-26,2024-04-26,インテックス株式会社,,株式会社,埼玉県,狭山市,広瀬３丁目３番１５号,,11,215,3501319,,,,,,,2024-04-26,1,,,,,インテックス,0
2431,9030001160055,新規,0,2024-04-26,2024-04-26,株式会社メディクル,,株式会社,埼玉県,和光市,白子２丁目９番２２－８０５号,,11,229,3510101,,,,,,,2024-04-26,1,,,,,メディクル,0
2438,9030005021682,新規,0,2024-04-26,2024-04-26,農事組合法人ＫＳＫファーム,,その他の設立登記法人,埼玉県,さいたま市岩槻区,西原台２丁目３－５６ＴＹ岩槻１－１０２,,11,110,3390082,,,,,,,2024-04-26,1,,,,,ケーエスケーファーム,0
2445,9040001133266,新規,0,2024-04-26,2024-04-26,株式会社大勢,,株式会社,千葉県,柏市,篠籠田６７９番地２,,12,217,2770862,,,,,,,2024-04-26,1,,,,,タイセ,0
2446,9040001133308,新規,0,2024-04-26,2024-04-26,株式会社興弘産業,,株式会社,千葉県,八街市,沖３６５－１,,12,230,2891126,,,,,,,2024-04-26,1,,,,,コウコウサンギョウ,0
2447,9040001133324,新規,0,2024-04-26,2024-04-26,Ｂｙａｋｋｏ　Ｈｏｌｄｉｎｇｓ株式会社,,株式会社,千葉県,佐倉市,宮前３丁目２２番地４ＧＡＲＤＥＮＥＬＥＧＡＮ３２１号室,,12,212,2850005,,,,,,,2024-04-26,1,,,,,ビャッコホールディングス,0
2448,9040001133332,新規,0,2024-04-26,2024-04-26,株式会社里山れんこん,,株式会社,千葉県,佐倉市,小篠塚７７０,,12,212,2850805,,,,,,,2024-04-26,1,,,,,サトヤマレンコン,0
2449,9040001133340,新規,0,2024-04-26,2024-04-26,Ｐｌｕｍ　Ｐａｒｔｎｅｒｓ株式会社,,株式会社,千葉県,流山市,おおたかの森東２丁目１３－３オーベルグランディオおおたかの森１０５,,12,220,2700138,,,,,,,2024-04-26,1,,,,,プラムパートナーズ,0
2450,9040001133357,新規,0,2024-04-26,2024-04-26,株式会社Ｅｔｅｒｎａｌ　ｐｉｎｅ,,株式会社,千葉県,野田市,山崎２７０２番地の１６７,,12,208,2780022,,,,,,,2024-04-26,1,,,,,エターナルパイン,0
2457,9050001054676,新規,0,2024-04-26,2024-04-26,日航国際株式会社,,株式会社,茨城県,古河市,大山５６１番地７,,08,204,3060052,,,,,,,2024-04-26,1,,,,,ニッコウコクサイ,0
2458,9050001054684,新規,0,2024-04-26,2024-04-26,株式会社ＮＯＢＬＥ　ＣＲＡＦＴ,,株式会社,茨城県,ひたちなか市,小砂町１丁目３－５－Ｃ棟,,08,221,3120015,,,,,,,2024-04-26,1,,,,,ノーブルクラフト,0
2459,9050001054692,新規,0,2024-04-26,2024-04-26,株式会社ＲＥｃｏｌｏｇｙ,,株式会社,茨城県,水戸市,白梅２丁目６番６－１０３,,08,201,3100804,,,,,,,2024-04-26,1,,,,,リコロジー,0
2464,9050003008325,新規,0,2024-04-26,2024-04-26,合同会社湖海,,合同会社,茨城県,神栖市,大野原２丁目２５番２２号,,08,232,3140144,,,,,,,2024-04-26,1,,,,,コカイ,0
2466,9070001041680,新規,0,2024-04-26,2024-04-26,スマートグリーンエネルギー片品株式会社,,株式会社,群馬県,利根郡片品村,大字花咲２７９７－２,,10,443,3780408,,,,,,,2024-04-26,1,,,,,スマートグリーンエネルギーカタシナ,0
2467,9080401027139,新規,0,2024-04-26,2024-04-26,株式会社愛ノ宮トラベル,,株式会社,静岡県,袋井市,国本２４６３番地の６,,22,216,4370012,,,,,,,2024-04-26,1,,,,,アイノミヤトラベル,0
2468,9080401027147,新規,0,2024-04-26,2024-04-26,株式会社ＮＥＸＴＯＮＥ,,株式会社,静岡県,袋井市,浅岡２５５番地の１,,22,216,4371122,,,,,,,2024-04-26,1,,,,,ネクストワン,0
2472,9090005007627,新規,0,2024-04-26,2024-04-26,甲府北口プラザビル管理組合法人,,その他の設立登記法人,山梨県,甲府市,北口１丁目２番１４号甲府北口プラザビル内,,19,201,4000024,,,,,,,2024-04-26,1,,,,,コウフキタグチプラザビル,0
2473,9100001037394,新規,0,2024-04-26,2024-04-26,株式会社ＷＫ．ＷＡＬＬ,,株式会社,長野県,塩尻市,大字広丘吉田１０５５番地３６,,20,215,3990701,,,,,,,2024-04-26,1,,,,,ダブリューケーウォール,0
2477,9110001038359,新規,0,2024-04-26,2024-04-26,株式会社斉藤広告,,株式会社,新潟県,新潟市東区,海老ケ瀬１００３番地,,15,102,9500806,,,,,,,2024-04-26,1,,,,,サイトウコウコク,0
2492,9120001264350,新規,0,2024-04-26,2024-04-26,偶得時代株式会社,,株式会社,大阪府,大阪市中央区,松屋町９番２０号ローレルステート松屋町１２０５Ａ,,27,128,5420067,,,,,,,2024-04-26,1,,,,,グウトクジダイ,0
2493,9120001264359,新規,0,2024-04-26,2024-04-26,株式会社ＭＯＲＩＧＵＣＨＩ,,株式会社,大阪府,大阪市北区,曾根崎新地１丁目１番１５号ｇｏｔｓビル２号館２階,,27,127,5300002,,,,,,,2024-04-26,1,,,,,モリグチ,0
2494,9120001264433,新規,0,2024-04-26,2024-04-26,東聖株式会社,,株式会社,大阪府,大阪市西成区,天下茶屋１丁目３番１２号,,27,122,5570014,,,,,,,2024-04-26,1,,,,,トウセイ,0
2495,9120001264458,新規,0,2024-04-26,2024-04-26,夢想家園株式会社,,株式会社,大阪府,大阪市中央区,南船場４丁目９－１２朝日プラザ心斎橋北６０５号室,,27,128,5420081,,,,,,,2024-04-26,1,,,,,ムソウカエン,0
2501,9120101069492,新規,0,2024-04-26,2024-04-26,株式会社嘉騰,,株式会社,大阪府,堺市堺区,旭通２番１８－１号,,27,141,5900055,,,,,,,2024-04-26,1,,,,,カトウ,0
2503,9120901049099,新規,0,2024-04-26,2024-04-26,株式会社ＩＮＮＥＲ　ＭＯＮＳＴＥＲ,,株式会社,大阪府,吹田市,千里山西６丁目１０番２２号,,27,205,5650851,,,,,,,2024-04-26,1,,,,,インナーモンスター,0
2508,9130001076910,新規,0,2024-04-26,2024-04-26,株式会社ｉｔｏｍａ,,株式会社,京都府,京都市東山区,常盤町４７０－４,,26,105,6050079,,,,,,,2024-04-26,1,,,,,イトマ,0
2509,9130001076919,新規,0,2024-04-26,2024-04-26,株式会社大文字エステート,,株式会社,京都府,京都市伏見区,竹田中川原町３９９番地竹田駅東３－１階,,26,109,6128412,,,,,,,2024-04-26,1,,,,,ダイモンジエステート,0
2510,9130003009505,新規,0,2024-04-26,2024-04-26,メディカイロ合同会社,,合同会社,京都府,京都市南区,東九条下殿田町７０番地京都テルサ東館１階京都府女性チャレンジオフィス,,26,107,6018047,,,,,,,2024-04-26,1,,,,,メディカイロ,0
2519,9140003020452,新規,0,2024-04-26,2024-04-26,合同会社こもれびヘルパーステーション,,合同会社,兵庫県,神戸市垂水区,塩屋町６丁目１６番地９号,,28,108,6550872,,,,,,,2024-04-26,1,,,,,コモレビヘルパーステーション,0
2520,9140005027058,新規,0,2024-04-26,2024-04-26,バードシャー事業協同組合,,その他の設立登記法人,兵庫県,神戸市中央区,下山手通２丁目１３番３号,,28,110,6500011,,,,,,,2024-04-26,1,,,,,バードシャー,0
2524,9160001025880,新規,0,2024-04-26,2024-04-26,株式会社Ｐａｌ５０,,株式会社,滋賀県,野洲市,木部８６３番地,,25,210,5202431,,,,,,,2024-04-26,1,,,,,パルフィフティ,0
2528,9170005007081,新規,0,2024-04-26,2024-04-26,一般社団法人ビーチ陸上競技連盟,,その他の設立登記法人,和歌山県,和歌山市,東長町９丁目５１番２号,,30,201,6408235,,,,,,,2024-04-26,1,,,,,ビーチリクジョウキョウギレンメイ,0
2543,9180301038572,新規,0,2024-04-26,2024-04-26,株式会社みやこグループ資産管理準備会社,,株式会社,愛知県,豊田市,清水町２丁目７９番地１,,23,211,4710843,,,,,,,2024-04-26,1,,,,,ミヤコグループシサンカンリジュンビガイシャ,0
2544,9180301038580,新規,0,2024-04-26,2024-04-26,株式会社アールゴッド,,株式会社,愛知県,豊田市,東新町６丁目１２番地５元町ハイツ２０５号,,23,211,4710045,,,,,,,2024-04-26,1,,,,,アールゴッド,0
2545,9180301038589,新規,0,2024-04-26,2024-04-26,株式会社Ｋ．Ｒ,,株式会社,愛知県,岡崎市,稲熊町字海深５９番地１,,23,202,4440071,,,,,,,2024-04-26,1,,,,,ケイアール,0
2550,9190001031298,新規,0,2024-04-26,2024-04-26,株式会社ＥＦＦＯＲＴ．Ｍ,,株式会社,三重県,四日市市,西浦１丁目６番４号,,24,202,5100071,,,,,,,2024-04-26,1,,,,,エフォートエム,0
2557,9200001042434,新規,0,2024-04-26,2024-04-26,株式会社ｍｏｔｉｖａｔｏ,,株式会社,岐阜県,加茂郡富加町,羽生１４６０番地１,,21,502,5013303,,,,,,,2024-04-26,1,,,,,モチベーション,0
2558,9200001042442,新規,0,2024-04-26,2024-04-26,株式会社ＺＥＲＯ,,株式会社,岐阜県,羽島市,正木町須賀小松５８８,,21,209,5016217,,,,,,,2024-04-26,1,,,,,ゼロ,0
2563,9220005008842,新規,0,2024-04-26,2024-04-26,医療法人社団つじ小児科医院,,その他の設立登記法人,石川県,金沢市,窪５丁目６３０番地,,17,201,9218151,,,,,,,2024-04-26,1,,,,,ツジショウニカイイン,0
2570,9260001038996,新規,0,2024-04-26,2024-04-26,株式会社廣野工業,,株式会社,岡山県,倉敷市,中畝８丁目８番１９号クレスメントＢ２０１,,33,202,7128051,,,,,,,2024-04-26,1,,,,,ヒロノコウギョウ,0
2572,9290001105397,新規,0,2024-04-26,2024-04-26,ウィズアット株式会社,,株式会社,福岡県,糸島市,曽根７４４番地１,,40,230,8191561,,,,,,,2024-04-26,1,,,,,ウィズアット,0
2573,9290001105488,新規,0,2024-04-26,2024-04-26,株式会社一樹万葉,,株式会社,福岡県,小郡市,小郡４５２番地５１,,40,216,8380141,,,,,,,2024-04-26,1,,,,,イッキマンヨウ,0
2574,9290001105513,新規,0,2024-04-26,2024-04-26,株式会社ＮｉＫＡホールディングス,,株式会社,福岡県,福岡市東区,多の津４丁目９番１号,,40,131,8130034,,,,,,,2024-04-26,1,,,,,ニカホールディングス,0
2581,9290801030522,新規,0,2024-04-26,2024-04-26,株式会社ＬＣマネジメント,,株式会社,福岡県,北九州市小倉北区,香春口１丁目２番１１－９０５号,,40,106,8020084,,,,,,,2024-04-26,1,,,,,エルシーマネジメント,0
2594,9370001051220,新規,0,2024-04-26,2024-04-26,株式会社一縷,,株式会社,宮城県,仙台市青葉区,桜ケ丘５丁目２９番８号,,04,101,9810961,,,,,,,2024-04-26,1,,,,,イチル,0
2595,9370001051237,新規,0,2024-04-26,2024-04-26,株式会社Ｌｉｖｅｌｙ　Ｔａｉｌｓ,,株式会社,宮城県,仙台市青葉区,台原５丁目５番５号,,04,101,9810911,,,,,,,2024-04-26,1,,,,,ライブリーテイルズ,0
2596,9370003006577,新規,0,2024-04-26,2024-04-26,合同会社佐々木自動車鈑金塗装工場,,合同会社,宮城県,遠田郡美里町,北浦字新大崎１２番地１,,04,505,9870005,,,,,,,2024-04-26,1,,,,,ササキジドウシャバンキントソウコウジョウ,0
2599,9400003003257,新規,0,2024-04-26,2024-04-26,合同会社テクニカル,,合同会社,岩手県,盛岡市,大沢川原３丁目６―７,,03,201,0200025,,,,,,,2024-04-26,1,,,,,テクニカル,0
2608,9440003001587,新規,0,2024-04-26,2024-04-26,合同会社Ｄｏｕｂｌｅ　ＵＰ,,合同会社,北海道,函館市,富岡町２丁目８番３号,,01,202,0410811,,,,,,,2024-04-26,1,,,,,ダブルアップ,0
2609,9450003002477,新規,0,2024-04-26,2024-04-26,Ｌｉｆ合同会社,,合同会社,北海道,旭川市,新富二条１丁目１１番５号,,01,204,0700002,,,,,,,2024-04-26,1,,,,,リフ,0
2610,9460301005214,新規,0,2024-04-26,2024-04-26,株式会社ＴＭＴ‐Ｒｅ・ｓｔａ,,株式会社,北海道,北見市,東相内町４５番地１７,,01,208,0990878,,,,,,,2024-04-26,1,,,,,ティエムティリスタ,0
2612,9470003002590,新規,0,2024-04-26,2024-04-26,合同会社ＡＰＰ,,合同会社,香川県,丸亀市,綾歌町富熊１５９８‐８,,37,202,7612407,,,,,,,2024-04-26,1,,,,,アップ,0
2621,9700150125146,新規,0,2024-04-26,2024-04-26,くにびきマラソン大会実行委員会,,その他,島根県,出雲市,今市町７０番地,,32,203,6930001,,,,,,,2024-04-26,1,,,,,クニビキマラソンタイカイジッコウイインカイ,0
