sequenceNumber,corporateNumber,process,correct,updateDate,changeDate,name,nameImageId,kind,prefectureName,cityName,streetNumber,addressImageId,prefectureCode,cityCode,postCode,addressOutside,addressOutsideImageId,closeDate,closeCause,successorCorporateNumber,changeCause,assignmentDate,latest,enName,enPrefectureName,enCityName,enAddressOutside,furigana,hihyoji
5,1010001253099,新規,0,2025-03-14,2025-03-14,株式会社１Ｍ,,株式会社,東京都,中央区,銀座１丁目１２番４号Ｎ＆ＥＢＬＤ．７階,,13,102,1040061,,,,,,,2025-03-14,1,,,,,ワンエム,0
6,1010001253116,新規,0,2025-03-14,2025-03-14,株式会社ワラテラス,,株式会社,東京都,文京区,湯島２丁目１番１５号ヒキタカ湯島ビル,,13,105,1130034,,,,,,,2025-03-14,1,,,,,ワラテラス,0
7,1010001253157,新規,0,2025-03-14,2025-03-14,紀尾井キャピタル株式会社,,株式会社,東京都,千代田区,丸の内２丁目３番２号,,13,101,1000005,,,,,,,2025-03-14,1,,,,,キオイキャピタル,0
8,1010003046732,新規,0,2025-03-14,2025-03-14,Ｓｅｒｉｎ３合同会社,,合同会社,東京都,千代田区,霞が関３丁目２番５号霞が関ビルディング３１階,,13,101,1000013,,,,,,,2025-03-14,1,,,,,セリンスリー,0
9,1010003046740,新規,0,2025-03-14,2025-03-14,合同会社のりしお,,合同会社,東京都,中央区,日本橋室町１丁目１１番１２号日本橋水野ビル７階,,13,102,1030022,,,,,,,2025-03-14,1,,,,,ノリシオ,0
10,1010003046749,新規,0,2025-03-14,2025-03-14,合同会社Ｘ　Ｂｅａｔ,,合同会社,東京都,中央区,日本橋久松町２番１２号ザ・パークハビオ人形町レジデンス６０４,,13,102,1030005,,,,,,,2025-03-14,1,,,,,エックスビート,0
13,1010005039734,新規,0,2025-03-14,2025-03-14,一般社団法人ＬＶＣ２７号,,その他の設立登記法人,東京都,千代田区,紀尾井町３－８第２紀尾井町ビル９０１アクシス綜合会計事務所内,,13,101,1020094,,,,,,,2025-03-14,1,,,,,エルブイシーニジュウナナゴウ,0
15,1010101016562,新規,0,2025-03-14,2025-03-14,Ｇｏｌｄｅｎ　Ｂａｎｙａｎ株式会社,,株式会社,東京都,八王子市,七国３丁目２０番１号,,13,201,1920919,,,,,,,2025-03-14,1,,,,,ゴールデンバンヤン,0
26,1010401188358,新規,0,2025-03-14,2025-03-14,株式会社アシストファーム,,株式会社,東京都,港区,赤坂２丁目２２－２０,,13,103,1070052,,,,,,,2025-03-14,1,,,,,アシストファーム,0
27,1010401188787,新規,0,2025-03-14,2025-03-14,株式会社Ｋ,,株式会社,東京都,港区,六本木４丁目８番７号－Ｂ１,,13,103,1060032,,,,,,,2025-03-14,1,,,,,ケイ,0
28,1010401188829,新規,0,2025-03-14,2025-03-14,ＢＡＩＯＸ株式会社,,株式会社,東京都,港区,芝浦１丁目６番４１号,,13,103,1050023,,,,,,,2025-03-14,1,,,,,バイオクロス,0
29,1010401188837,新規,0,2025-03-14,2025-03-14,株式会社Ｊａｐａｎ　Ｇｌｏｂａｌ　Ｈｕｂ,,株式会社,東京都,港区,西麻布１丁目７番２－６１１号,,13,103,1060031,,,,,,,2025-03-14,1,,,,,ジャパングローバルハブ,0
30,1010401188878,新規,0,2025-03-14,2025-03-14,株式会社ポラリス,,株式会社,東京都,港区,北青山１丁目３番１号アールキューブ青山３階,,13,103,1070061,,,,,,,2025-03-14,1,,,,,ポラリス,0
31,1010401188886,新規,0,2025-03-14,2025-03-14,株式会社金天道,,株式会社,東京都,港区,高輪２丁目１３番１号,,13,103,1080074,,,,,,,2025-03-14,1,,,,,キンテンドウ,0
34,1010403034618,新規,0,2025-03-14,2025-03-14,ＳＢエクイティパートナーズ合同会社,,合同会社,東京都,港区,南青山２丁目２番１５号,,13,103,1070062,,,,,,,2025-03-14,1,,,,,エスビーエクイティパートナーズ,0
35,1010403034626,新規,0,2025-03-14,2025-03-14,合同会社ＨｅａｒｔｙＷｏｒｌｄ,,合同会社,東京都,港区,港南２丁目１５番１号品川インターシティＡ棟２８階,,13,103,1080075,,,,,,,2025-03-14,1,,,,,ハーティワールド,0
36,1010403034642,新規,0,2025-03-14,2025-03-14,久勝合同会社,,合同会社,東京都,港区,虎ノ門４丁目１－２０－９０１,,13,103,1050001,,,,,,,2025-03-14,1,,,,,キュウショウ,0
37,1010403034659,新規,0,2025-03-14,2025-03-14,合同会社Ｖｅｒｚａ　Ａ．Ｃ．,,合同会社,東京都,港区,北青山１丁目３番１号アールキューブ青山３階,,13,103,1070061,,,,,,,2025-03-14,1,,,,,ヴェルツァエーシー,0
45,1010603011441,新規,0,2025-03-14,2025-03-14,Ｄｉｖｅ　Ｄｅｅｐ合同会社,,合同会社,東京都,江東区,東雲１丁目９番５０－３８０８号,,13,108,1350062,,,,,,,2025-03-14,1,,,,,ダイブディープ,0
47,1010701047387,新規,0,2025-03-14,2025-03-14,株式会社ミルフォード・ホールディングス,,株式会社,東京都,品川区,東大井５丁目７番９号,,13,109,1400011,,,,,,,2025-03-14,1,,,,,ミルフォードホールディングス,0
48,1010701047395,新規,0,2025-03-14,2025-03-14,リコネスト株式会社,,株式会社,東京都,品川区,南品川５丁目１６－７Ｕ－ｍａｋｅ南品川１Ｆ,,13,109,1400004,,,,,,,2025-03-14,1,,,,,リコネスト,0
49,1010701047404,新規,0,2025-03-14,2025-03-14,株式会社ＫＡＷＡＮＯ,,株式会社,東京都,品川区,小山１丁目７番１４号,,13,109,1420062,,,,,,,2025-03-14,1,,,,,カワノ,0
51,1010703007620,新規,0,2025-03-14,2025-03-14,ＶＩＶＥＲＥ合同会社,,合同会社,東京都,品川区,南大井５丁目１番１１号,,13,109,1400013,,,,,,,2025-03-14,1,,,,,ヴィーバレ,0
54,1010803005318,新規,0,2025-03-14,2025-03-14,合同会社わか,,合同会社,東京都,大田区,蒲田５丁目２８番４号ＥＣＳ第２７ビル３階,,13,111,1440052,,,,,,,2025-03-14,1,,,,,ワカ,0
55,1010901056948,新規,0,2025-03-14,2025-03-14,株式会社Ａｌｌｉｎ,,株式会社,東京都,世田谷区,上野毛２丁目２３番７号グランボワ二子玉川２０５,,13,112,1580093,,,,,,,2025-03-14,1,,,,,オールイン,0
56,1010901056989,新規,0,2025-03-14,2025-03-14,株式会社ブーストラーダ,,株式会社,東京都,世田谷区,太子堂４丁目１８番１５号マガザン三軒茶屋２・３Ｆ－３,,13,112,1540004,,,,,,,2025-03-14,1,,,,,ブーストラーダ,0
62,1011003021139,新規,0,2025-03-14,2025-03-14,合同会社ｙｕｒａ,,合同会社,東京都,渋谷区,渋谷２丁目１９番１５号宮益坂ビルディング６０９,,13,113,1500002,,,,,,,2025-03-14,1,,,,,ユラ,0
73,1011101110958,新規,0,2025-03-14,2025-03-14,株式会社Ａｓｒｅａ,,株式会社,東京都,新宿区,西新宿１丁目２０番３号西新宿高木ビル７Ｆ・８Ｆ,,13,104,1600023,,,,,,,2025-03-14,1,,,,,アスレア,0
74,1011101110990,新規,0,2025-03-14,2025-03-14,エムズホールディングス株式会社,,株式会社,東京都,新宿区,新宿６丁目２７番４８号コンフォリア東新宿９０１,,13,104,1600022,,,,,,,2025-03-14,1,,,,,エムズホールディングス,0
75,1011101110999,新規,0,2025-03-14,2025-03-14,エンパワーメントファーム株式会社,,株式会社,東京都,新宿区,西新宿５丁目８番２号惠徳ビル,,13,104,1600023,,,,,,,2025-03-14,1,,,,,エンパワーメントファーム,0
78,1011105011368,新規,0,2025-03-14,2025-03-14,医療法人社団麓翠会,,その他の設立登記法人,東京都,新宿区,高田馬場１丁目５番１０号,,13,104,1690075,,,,,,,2025-03-14,1,,,,,ロクスイカイ,0
81,1011401026912,新規,0,2025-03-14,2025-03-14,株式会社追川第一,,株式会社,東京都,板橋区,徳丸１丁目５３番３号,,13,119,1750083,,,,,,,2025-03-14,1,,,,,オイカワダイイチ,0
83,1011701028154,新規,0,2025-03-14,2025-03-14,株式会社一晃,,株式会社,東京都,江戸川区,東葛西４丁目１７番１１－１０３号,,13,123,1340084,,,,,,,2025-03-14,1,,,,,イッコウ,0
86,1012301014296,新規,0,2025-03-14,2025-03-14,株式会社Ｒｏｏｔ　ＡＩ,,株式会社,東京都,町田市,つくし野３丁目２－３,,13,209,1940001,,,,,,,2025-03-14,1,,,,,ルートエーアイ,0
91,1012803003664,新規,0,2025-03-14,2025-03-14,合同会社春はあけぼの,,合同会社,東京都,日野市,栄町１丁目２番地の１七和ビル１０１,,13,212,1910001,,,,,,,2025-03-14,1,,,,,ハルハアケボノ,0
95,1020001161854,新規,0,2025-03-14,2025-03-14,株式会社Ｂｅ　Ｍｅ,,株式会社,神奈川県,横浜市西区,北幸２丁目１０番４８号むつみビル３階,,14,103,2200004,,,,,,,2025-03-14,1,,,,,ビーミー,0
96,1020001161887,新規,0,2025-03-14,2025-03-14,株式会社フェニックス,,株式会社,神奈川県,横浜市南区,浦舟町１丁目２番地９パテラ阪東橋２０２,,14,105,2320024,,,,,,,2025-03-14,1,,,,,フェニックス,0
99,1020003028052,新規,0,2025-03-14,2025-03-14,合同会社ｋｏｗｌ　ｄｅｓｉｇｎ,,合同会社,神奈川県,川崎市多摩区,登戸３４１４番地１０ディアナルーチェ４０１,,14,135,2140014,,,,,,,2025-03-14,1,,,,,カウルデザイン,0
102,1021001084698,新規,0,2025-03-14,2025-03-14,株式会社ＫＪ企画,,株式会社,神奈川県,平塚市,万田１丁目２０番２１号２階,,14,203,2540913,,,,,,,2025-03-14,1,,,,,ケージェイキカク,0
103,1021001084731,新規,0,2025-03-14,2025-03-14,三栄株式会社,,株式会社,神奈川県,海老名市,本郷２３４８番地の２,,14,215,2430417,,,,,,,2025-03-14,1,,,,,サンエイ,0
104,1021003015734,新規,0,2025-03-14,2025-03-14,モスラズ合同会社,,合同会社,神奈川県,足柄下郡箱根町,宮城野１３４５番地の５９,,14,382,2500401,,,,,,,2025-03-14,1,,,,,モスラズ,0
105,1021005013307,新規,0,2025-03-14,2025-03-14,医療法人太平会,,その他の設立登記法人,神奈川県,藤沢市,辻堂太平台１丁目３番２号１階,,14,205,2510044,,,,,,,2025-03-14,1,,,,,タイヘイカイ,0
110,1030001165318,新規,0,2025-03-14,2025-03-14,株式会社ＴＲＣ　Ｌａｂ．,,株式会社,埼玉県,上尾市,大字上尾村１３０４番地１２,,11,219,3620013,,,,,,,2025-03-14,1,,,,,ティーアールシーラボ,0
111,1030001165342,新規,0,2025-03-14,2025-03-14,株式会社イージェイ,,株式会社,埼玉県,加須市,中央２丁目６番１８号,,11,210,3470055,,,,,,,2025-03-14,1,,,,,イージェイ,0
113,1030003026303,新規,0,2025-03-14,2025-03-14,合同会社Ｋ２Ｍ,,合同会社,埼玉県,川口市,元郷１丁目１番２１－４０１号,,11,203,3320011,,,,,,,2025-03-14,1,,,,,ケーツーエム,0
118,1040001137803,新規,0,2025-03-14,2025-03-14,株式会社ＹＯＳＨＩＵＣＨＩ,,株式会社,千葉県,印西市,中央南２丁目１番地８１０号,,12,231,2701340,,,,,,,2025-03-14,1,,,,,ヨシウチ,0
119,1040001137811,新規,0,2025-03-14,2025-03-14,株式会社ＭＡＲＧＡＲＥＴ,,株式会社,千葉県,流山市,南流山３丁目１０番地の８ダイヤモンドクレスト南流山１Ｆ,,12,220,2700163,,,,,,,2025-03-14,1,,,,,マーガレット,0
130,1050001056309,新規,0,2025-03-14,2025-03-14,株式会社ＡＩ,,株式会社,茨城県,筑西市,小栗１９５９番地３,,08,227,3091101,,,,,,,2025-03-14,1,,,,,エーアイ,0
131,1050001056333,新規,0,2025-03-14,2025-03-14,株式会社Ｓｉｍ　ｔｅｃｈ,,株式会社,茨城県,水戸市,笠原町１１８９番地の２グリーンヒル西野,,08,201,3100852,,,,,,,2025-03-14,1,,,,,シムテック,0
133,1060001038000,新規,0,2025-03-14,2025-03-14,株式会社ＰＨ　ＡＳＩＡ,,株式会社,栃木県,佐野市,高萩町１３２２番地９,,09,204,3270821,,,,,,,2025-03-14,1,,,,,ピーエイチアジア,0
134,1060001038025,新規,0,2025-03-14,2025-03-14,株式会社ホウジン,,株式会社,栃木県,宇都宮市,鶴田町２５２番地４,,09,201,3200851,,,,,,,2025-03-14,1,,,,,ホウジン,0
139,1070001042711,新規,0,2025-03-14,2025-03-14,株式会社ゴカンコンサルタント,,株式会社,群馬県,高崎市,下之城町５８４番地７０高崎市産業創造館２Ｆ,,10,202,3700854,,,,,,,2025-03-14,1,,,,,ゴカンコンサルタント,0
143,1080401027807,新規,0,2025-03-14,2025-03-14,株式会社共栄商事,,株式会社,静岡県,浜松市中央区,入野町８８６５番地の９,,22,138,4328061,,,,,,,2025-03-14,1,,,,,キョウエイショウジ,0
148,1100001038383,新規,0,2025-03-14,2025-03-14,株式会社ｉｉｎｅ,,株式会社,長野県,飯山市,大字瑞穂豊３４８８番地１,,20,213,3892321,,,,,,,2025-03-14,1,,,,,イイネ,0
149,1110001039117,新規,0,2025-03-14,2025-03-14,株式会社Ｇｒｅｍ,,株式会社,新潟県,南魚沼郡湯沢町,大字土樽２４４番地４８,00138347,15,461,9496103,,,,,,,2025-03-14,1,,,,,グリン,0
160,1120001273375,新規,0,2025-03-14,2025-03-14,ＤＤＵ株式会社,,株式会社,大阪府,大阪市西区,西本町２丁目３－６山岡ビル８階,,27,106,5500005,,,,,,,2025-03-14,1,,,,,ディーディーユ,0
161,1120001273409,新規,0,2025-03-14,2025-03-14,株式会社摩耶１号,,株式会社,大阪府,大阪市中央区,西心斎橋１丁目１２番８号,,27,128,5420086,,,,,,,2025-03-14,1,,,,,マヤイチゴウ,0
162,1120001273524,新規,0,2025-03-14,2025-03-14,株式会社マル優建設,,株式会社,大阪府,大阪市都島区,大東町１丁目１４の１５,,27,102,5340002,,,,,,,2025-03-14,1,,,,,,0
163,1120001273672,新規,0,2025-03-14,2025-03-14,万融通商株式会社,,株式会社,大阪府,大阪市東淀川区,下新庄４丁目２０番７号３０５号室,,27,114,5330021,,,,,,,2025-03-14,1,,,,,マンユウツウショウ,0
164,1120001273689,新規,0,2025-03-14,2025-03-14,ハグム株式会社,,株式会社,大阪府,大阪市中央区,安土町２丁目３番１３号大阪国際ビルディング３１階,,27,128,5410052,,,,,,,2025-03-14,1,,,,,ハグム,0
167,1120005024840,新規,0,2025-03-14,2025-03-14,南港東住宅管理組合法人,,その他の設立登記法人,大阪府,大阪市住之江区,南港東１丁目７番２２号南港東住宅管理組合事務所,,27,125,5590031,,,,,,,2025-03-14,1,,,,,ナンコウヒガシジュウタクカンリクミアイ,0
170,1120101071241,新規,0,2025-03-14,2025-03-14,株式会社三勇電工,,株式会社,大阪府,堺市中区,堀上町４６４番地１,,27,142,5998261,,,,,,,2025-03-14,1,,,,,サンユウデンコウ,0
171,1120103006328,新規,0,2025-03-14,2025-03-14,Ｄｅ　Ｈａｋｓｏｎ’ｓ　Ｔｒａｄｉｎｇ合同会社,,合同会社,大阪府,和泉市,仏並町２０２番地の７,,27,219,5941136,,,,,,,2025-03-14,1,,,,,デハクソンズトレーディング,0
172,1120105009980,新規,0,2025-03-14,2025-03-14,ＮＰＯ法人夢の郷,,その他の設立登記法人,大阪府,泉南市,樽井２丁目２２番１０号町谷ビル２０２号室,,27,228,5900521,,,,,,,2025-03-14,1,,,,,ユメノサト,0
177,1120901050576,新規,0,2025-03-14,2025-03-14,希昂株式会社,,株式会社,大阪府,茨木市,園田町１０番５号,,27,211,5670825,,,,,,,2025-03-14,1,,,,,キコウ,0
179,1120903005578,新規,0,2025-03-14,2025-03-14,合同会社小林組,,合同会社,大阪府,茨木市,小柳町１１番１９号,,27,211,5670852,,,,,,,2025-03-14,1,,,,,コバヤシグミ,0
182,1122001038989,新規,0,2025-03-14,2025-03-14,株式会社田中善,,株式会社,大阪府,東大阪市,金物町２番１０号,,27,227,5770815,,,,,,,2025-03-14,1,,,,,タナカゼン,0
193,1130001079202,新規,0,2025-03-14,2025-03-14,株式会社京和住建,,株式会社,京都府,京都市山科区,四ノ宮小金塚８番地５４１,,26,110,6078022,,,,,,,2025-03-14,1,,,,,キョウワジュウケン,0
194,1130001079210,新規,0,2025-03-14,2025-03-14,株式会社ジャルダン,,株式会社,京都府,京都市山科区,西野山射庭ノ上町１２５番地１,,26,110,6078307,,,,,,,2025-03-14,1,,,,,ジャルダン,0
197,1140001137710,新規,0,2025-03-14,2025-03-14,セーフ・モード株式会社,,株式会社,兵庫県,姫路市,大津区天神町２丁目７４番地１,,28,201,6711131,,,,,,,2025-03-14,1,,,,,セーフモード,0
198,1140001137719,新規,0,2025-03-14,2025-03-14,株式会社キャピタルグリット,,株式会社,兵庫県,加古川市,平岡町新在家１３８８番地の１,,28,210,6750101,,,,,,,2025-03-14,1,,,,,キャピタルグリット,0
199,1140001137751,新規,0,2025-03-14,2025-03-14,株式会社ＨＩＴＯＣＡ,,株式会社,兵庫県,神戸市中央区,脇浜町２丁目８番１号,,28,110,6510072,,,,,,,2025-03-14,1,,,,,ヒトカ,0
201,1140003021788,新規,0,2025-03-14,2025-03-14,合同会社スマートカンパニー,,合同会社,兵庫県,西宮市,東鳴尾町２丁目１４－７アプロビル１Ｆ,,28,204,6638132,,,,,,,2025-03-14,1,,,,,スマートカンパニー,0
212,1180001165922,新規,0,2025-03-14,2025-03-14,株式会社ＫＭ建設,,株式会社,愛知県,江南市,飛高町夫見添１１６番地,,23,217,4838339,,,,,,,2025-03-14,1,,,,,ケーエムケンセツ,0
218,1190001032072,新規,0,2025-03-14,2025-03-14,Ｒｏｃｃａ　Ｗｏｒｌｄ　Ｄｅｓｉｇｎ　Ｈｏｌｄｉｎｇｓ株式会社,,株式会社,三重県,桑名市,大字桑名６６３番地,,24,205,5110009,,,,,,,2025-03-14,1,,,,,ロッカワールドデザインホールディングス,0
219,1190001032080,新規,0,2025-03-14,2025-03-14,株式会社祥源,,株式会社,三重県,津市,栗真町屋町４８７番地１２上杉マンション三重大学前１０５号,,24,201,5140102,,,,,,,2025-03-14,1,,,,,ショウゲン,0
222,1210001020099,新規,0,2025-03-14,2025-03-14,株式会社ＡＲＴ　ＡＧＥ　ＡＩ,,株式会社,福井県,坂井市,坂井町下新庄第１６号８番地,,18,210,9190521,,,,,,,2025-03-14,1,,,,,アートエイジエーアイ,0
225,1240001064639,新規,0,2025-03-14,2025-03-14,株式会社オフィスシンシア,,株式会社,広島県,三次市,吉舎町矢井２１４,,34,209,7294206,,,,,,,2025-03-14,1,,,,,オフィスシンシア,0
226,1250001021052,新規,0,2025-03-14,2025-03-14,株式会社サゴヲ,,株式会社,山口県,岩国市,麻里布町３丁目１０番５－４０４号,,35,208,7400018,,,,,,,2025-03-14,1,,,,,サゴヲ,0
231,1290001109298,新規,0,2025-03-14,2025-03-14,河嵜塗装株式会社,,株式会社,福岡県,福岡市博多区,博多駅南６丁目１５番２１号第５よしみビル６０２号,,40,132,8120016,,,,,,,2025-03-14,1,,,,,カワサキトソウ,0
232,1290001109323,新規,0,2025-03-14,2025-03-14,株式会社丙寅,,株式会社,福岡県,福岡市東区,筥松３丁目８番１２－２０２号,,40,131,8120061,,,,,,,2025-03-14,1,,,,,ヘイトラ,0
233,1290001109331,新規,0,2025-03-14,2025-03-14,株式会社ｆｆ,,株式会社,福岡県,福岡市博多区,住吉２丁目１７番２１－８０１号アプロ住吉レジデンス,,40,132,8120018,,,,,,,2025-03-14,1,,,,,フォルテッシモ,0
235,1290801031362,新規,0,2025-03-14,2025-03-14,株式会社ＫｅｎＫｅｎ,,株式会社,福岡県,北九州市八幡西区,相生町１５番１８号,,40,109,8060044,,,,,,,2025-03-14,1,,,,,ケンケン,0
238,1310001019494,新規,0,2025-03-14,2025-03-14,株式会社Ｒライン,,株式会社,長崎県,長崎市,毛井首町１番地１１４,,42,201,8500976,,,,,,,2025-03-14,1,,,,,アールライン,0
239,1310001019503,新規,0,2025-03-14,2025-03-14,株式会社Ｋｉｎｇ　Ｆｉｅｌｄ,,株式会社,長崎県,長崎市,油屋町１番４号２階,,42,201,8500832,,,,,,,2025-03-14,1,,,,,キングフィールド,0
243,1330001032966,新規,0,2025-03-14,2025-03-14,ルーラルネクスト株式会社,,株式会社,熊本県,山鹿市,山鹿１３６４番地３,,43,208,8610501,,,,,,,2025-03-14,1,,,,,ルーラルネクスト,0
245,1350003004870,新規,0,2025-03-14,2025-03-14,合同会社ヒビラボ,,合同会社,宮崎県,宮崎市,大字新名爪２１３２番地１,,45,201,8800124,,,,,,,2025-03-14,1,,,,,ヒビラボ,0
247,1360001034919,新規,0,2025-03-14,2025-03-14,株式会社八重瀬ＲＥＬＩＦＥ,,株式会社,沖縄県,島尻郡八重瀬町,字仲座１０７４番地２,,47,362,9010516,,,,,,,2025-03-14,1,,,,,ヤエセリライフ,0
253,1420003003080,新規,0,2025-03-14,2025-03-14,合同会社ＡＤＳ,,合同会社,青森県,上北郡おいらせ町,上久保６２－１１２,,02,412,0392185,,,,,,,2025-03-14,1,,,,,エーディーエス,0
263,1700150129567,新規,0,2025-03-14,2025-03-14,ＢＥＳＴ　ＡＵＴＯ　ＤＥＡＬＳ,,外国会社等,千葉県,山武市,木原２０３１番地１５－Ｂ－７,,12,237,2891212,スリランカ民主社会主義共和国、キャンディ、バムンポラ、プージャピティヤロ―ド、Ｎｏ．４２０／Ａ,,,,,,2025-03-14,1,,,,,ベストオートデイールス,0
269,2010001253098,新規,0,2025-03-14,2025-03-14,Ｎｉｐｐｏｎ　ＧＩＳ　Ｔｅｃｈ株式会社,,株式会社,東京都,千代田区,神田須田町２丁目１９－２３Ｄａｉｗａ秋葉原ビル２Ｆリージャス秋葉原万世橋ビジネスセンター２１５,,13,101,1010041,,,,,,,2025-03-14,1,,,,,ニッポンジーアイエステク,0
270,2010001253115,新規,0,2025-03-14,2025-03-14,ラストマイル株式会社,,株式会社,東京都,中央区,銀座１丁目１２－４Ｎ＆ＥＢＬＤ．７階,,13,102,1040061,,,,,,,2025-03-14,1,,,,,ラストマイル,0
271,2010001253123,新規,0,2025-03-14,2025-03-14,ワークアンドピープル株式会社,,株式会社,東京都,中央区,銀座１丁目１５－４ヒューリック銀座一丁目昭和通りビル７階,,13,102,1040061,,,,,,,2025-03-14,1,,,,,ワークアンドピープル,0
272,2010001253156,新規,0,2025-03-14,2025-03-14,株式会社ＩＮＤＩＡＮＣＥ,,株式会社,東京都,文京区,根津２丁目１５番８号アンリーシュ５０２,,13,105,1130031,,,,,,,2025-03-14,1,,,,,インディエンス,0
273,2010001253180,新規,0,2025-03-14,2025-03-14,株式会社ＮＯＬＩ,,株式会社,東京都,文京区,目白台２丁目６番２０号,,13,105,1120015,,,,,,,2025-03-14,1,,,,,ノリ,0
275,2010003046764,新規,0,2025-03-14,2025-03-14,智之商事合同会社,,合同会社,東京都,文京区,千駄木３丁目４８番８－２０４号,,13,105,1130022,,,,,,,2025-03-14,1,,,,,トモユキショウジ,0
276,2010003046772,新規,0,2025-03-14,2025-03-14,Ｗｏｒｋ　Ｌｉｔｅｒａｃｙ　Ｃｏｌｌｅｇｅ合同会社,,合同会社,東京都,中央区,銀座７丁目１５番１８銀ビル３Ｆ,,13,102,1040061,,,,,,,2025-03-14,1,,,,,ワークリテラシーカレッジ,0
277,2010003046780,新規,0,2025-03-14,2025-03-14,ＥＶＥＮ合同会社,,合同会社,東京都,中央区,銀座７丁目１３番２０号銀座ＴＨビル９階,,13,102,1040061,,,,,,,2025-03-14,1,,,,,イーブン,0
278,2010005039733,新規,0,2025-03-14,2025-03-14,一般社団法人ＬＶＣ２６号,,その他の設立登記法人,東京都,千代田区,紀尾井町３－８第２紀尾井町ビル９０１アクシス綜合会計事務所内,,13,101,1020094,,,,,,,2025-03-14,1,,,,,エルブイシーニジュウロクゴウ,0
279,2010101016553,新規,0,2025-03-14,2025-03-14,ＨＯＴＡ株式会社,,株式会社,東京都,八王子市,上恩方町１６８,,13,201,1920156,,,,,,,2025-03-14,1,,,,,ホタ,0
284,2010401188852,新規,0,2025-03-14,2025-03-14,Ｃａｎａｌ　Ｆｉｅｌｄ株式会社,,株式会社,東京都,港区,北青山１丁目３番１号アールキューブ青山３階,,13,103,1070061,,,,,,,2025-03-14,1,,,,,キャナルフィールド,0
285,2010401188869,新規,0,2025-03-14,2025-03-14,ｓ．ｆ．ｃ株式会社,,株式会社,東京都,港区,虎ノ門５丁目３番３号神谷町プレイス１階空花,,13,103,1050001,,,,,,,2025-03-14,1,,,,,エスエフシー,0
286,2010401188877,新規,0,2025-03-14,2025-03-14,巧プロジェクト株式会社,,株式会社,東京都,港区,赤坂３丁目４番３号,,13,103,1070052,,,,,,,2025-03-14,1,,,,,タクミプロジェクト,0
287,2010401188927,新規,0,2025-03-14,2025-03-14,株式会社マスターズインベストメント,,株式会社,東京都,港区,赤坂６丁目１０番８号,,13,103,1070052,,,,,,,2025-03-14,1,,,,,マスターズインベストメント,0
288,2010401188951,新規,0,2025-03-14,2025-03-14,株式会社ＳｉｌｖｅｒＢｌｕｅ　Ｊａｐａｎ,,株式会社,東京都,港区,虎ノ門４丁目１番９号アセット虎ノ門８階,,13,103,1050001,,,,,,,2025-03-14,1,,,,,シルバーブルージャパン,0
292,2010403034526,新規,0,2025-03-14,2025-03-14,合同会社ｆｕｃｔ,,合同会社,東京都,港区,南青山２丁目２番１５号,,13,103,1070062,,,,,,,2025-03-14,1,,,,,ファクト,0
293,2010403034550,新規,0,2025-03-14,2025-03-14,桜ブルーミナス合同会社,,合同会社,東京都,港区,北青山１丁目３－３三橋ビル３階,,13,103,1070061,,,,,,,2025-03-14,1,,,,,サクラブルーミナス,0
294,2010403034633,新規,0,2025-03-14,2025-03-14,ＭＯＭＯｚ　ＴＯＫＹＯ合同会社,,合同会社,東京都,港区,虎ノ門４丁目１番３４－１１０５号,,13,103,1050001,,,,,,,2025-03-14,1,,,,,モモズトーキョー,0
296,2010405024145,新規,0,2025-03-14,2025-03-14,一般社団法人Ｉｎｔｅｒｎａｔｉｏｎａｌ　ＨＡＤＯ　Ｆｅｄｅｒａｔｉｏｎ,,その他の設立登記法人,東京都,港区,台場１丁目７番１号,,13,103,1350091,,,,,,,2025-03-14,1,,,,,インターナショナルハドーフェデレーション,0
298,2010501053741,新規,0,2025-03-14,2025-03-14,Ｋ＆Ｔ　Ｃｏｍｐａｎｙ株式会社,,株式会社,東京都,台東区,浅草橋４丁目２０番７山畑ビル１階,,13,106,1110053,,,,,,,2025-03-14,1,,,,,ケイアンドティーカンパニー,0
300,2010603011432,新規,0,2025-03-14,2025-03-14,ＲＩＣＯＬＯＮ合同会社,,合同会社,東京都,江東区,塩浜２丁目１８番地,,13,108,1350043,,,,,,,2025-03-14,1,,,,,リコロン,0
305,2010801035902,新規,0,2025-03-14,2025-03-14,ジャパンテクニカルネットワーク株式会社,,株式会社,東京都,大田区,大森北１丁目３０番５号５０２,,13,111,1430016,,,,,,,2025-03-14,1,,,,,ジャパンテクニカルネットワーク,0
306,2010801035927,新規,0,2025-03-14,2025-03-14,株式会社ＡＩｄｉａ,,株式会社,東京都,大田区,中央７丁目３番１号カバヤビル４０３,,13,111,1430024,,,,,,,2025-03-14,1,,,,,アイデア,0
308,2010901056988,新規,0,2025-03-14,2025-03-14,東洋器材ホールディングス株式会社,,株式会社,東京都,世田谷区,奥沢２丁目２６番３号,,13,112,1580083,,,,,,,2025-03-14,1,,,,,トウヨウキザイホールディングス,0
322,2011101110957,新規,0,2025-03-14,2025-03-14,株式会社エースター,,株式会社,東京都,新宿区,荒木町１６番２６号,,13,104,1600007,,,,,,,2025-03-14,1,,,,,エースター,0
325,2011105011367,新規,0,2025-03-14,2025-03-14,ひろがる世界かがやく未来一般社団法人,,その他の設立登記法人,東京都,新宿区,市谷長延寺町６,,13,104,1620847,,,,,,,2025-03-14,1,,,,,ヒロガルセカイカガヤクミライ,0
328,2011301030427,新規,0,2025-03-14,2025-03-14,株式会社喜奏堂,,株式会社,東京都,杉並区,天沼３丁目３０番２６号コーラルパレス１０１,,13,115,1670032,,,,,,,2025-03-14,1,,,,,キソウドウ,0
329,2011401026911,新規,0,2025-03-14,2025-03-14,株式会社ネバーホールディングス,,株式会社,東京都,板橋区,高島平１丁目３８番１１号Ｋ２高島平ビル２階,,13,119,1750082,,,,,,,2025-03-14,1,,,,,ネバーホールディングス,0
332,2011601028492,新規,0,2025-03-14,2025-03-14,ｐｏｓｓｉミュージック株式会社,,株式会社,東京都,練馬区,桜台１丁目４４番８号シャンテ・カザマ４０２号室,,13,120,1760002,,,,,,,2025-03-14,1,,,,,ポッシミュージック,0
334,2011701028161,新規,0,2025-03-14,2025-03-14,妍頌真珠株式会社,,株式会社,東京都,江戸川区,西小岩５丁目１３－１３小出マンション１３２号室,,13,123,1330057,,,,,,,2025-03-14,1,,,,,ケンショウシンジュ,0
336,2011801045783,新規,0,2025-03-14,2025-03-14,株式会社アークスインクラフト,,株式会社,東京都,足立区,西新井２丁目５番３－７０５号,,13,121,1230841,,,,,,,2025-03-14,1,,,,,アークスインクラフト,0
337,2011803006734,新規,0,2025-03-14,2025-03-14,ＰＥＧＡＳＴＡＲＳ合同会社,,合同会社,東京都,足立区,東和３丁目１３－１トーキョーガーデンスイート１０９号,,13,121,1200003,,,,,,,2025-03-14,1,,,,,ペガスターズ,0
340,2012301014295,新規,0,2025-03-14,2025-03-14,株式会社豊見山,,株式会社,東京都,町田市,森野４丁目１４番２７号,,13,209,1940022,,,,,,,2025-03-14,1,,,,,トミヤマ,0
345,2012801023829,新規,0,2025-03-14,2025-03-14,ＲＳＪ株式会社,,株式会社,東京都,日野市,旭が丘６丁目３番地の３６,,13,212,1910065,,,,,,,2025-03-14,1,,,,,アールエスジェイ,0
346,2012803003663,新規,0,2025-03-14,2025-03-14,シンプソンアセットコンサルティング合同会社,,合同会社,東京都,国分寺市,西町２丁目７番地２３,,13,214,1850035,,,,,,,2025-03-14,1,,,,,シンプソンアセットコンサルティング,0
351,2020003028051,新規,0,2025-03-14,2025-03-14,合同会社Ｍｙ　Ｓｔｏｎｅ,,合同会社,神奈川県,川崎市幸区,中幸町３丁目２６番地２４クレッセント川崎タワー３００８,,14,132,2120012,,,,,,,2025-03-14,1,,,,,マイストーン,0
352,2020003028076,新規,0,2025-03-14,2025-03-14,合同会社神奈川モータース,,合同会社,神奈川県,横浜市泉区,中田町３４６２－５７,,14,116,2450011,,,,,,,2025-03-14,1,,,,,カナガワモータース,0
354,2021001084689,新規,0,2025-03-14,2025-03-14,東進株式会社,,株式会社,神奈川県,相模原市南区,若松５丁目１３－１７－２,,14,153,2520334,,,,,,,2025-03-14,1,,,,,トウシン,0
357,2021003015741,新規,0,2025-03-14,2025-03-14,合同会社クリエイト,,合同会社,神奈川県,綾瀬市,上土棚北３丁目１８番３３号ハイツサンライズ２０１,,14,218,2521111,,,,,,,2025-03-14,1,,,,,クリエイト,0
358,2021005013306,新規,0,2025-03-14,2025-03-14,一般社団法人Ｋｏｒｕ　Ｎａｔｕｒｅ　Ｄｅｓｉｇｎ,,その他の設立登記法人,神奈川県,足柄上郡山北町,岸１８７９番地４,,14,364,2580112,,,,,,,2025-03-14,1,,,,,コルネイチャーデザイン,0
359,2030001165333,新規,0,2025-03-14,2025-03-14,株式会社アルクス,,株式会社,埼玉県,本庄市,児玉町児玉１６６４番地１,,11,211,3670212,,,,,,,2025-03-14,1,,,,,アルクス,0
360,2030001165374,新規,0,2025-03-14,2025-03-14,両馬株式会社,,株式会社,埼玉県,所沢市,西所沢１丁目１６番１７号,,11,208,3591144,,,,,,,2025-03-14,1,,,,,リョウバ,0
361,2030001165399,新規,0,2025-03-14,2025-03-14,英和イレクション株式会社,,株式会社,埼玉県,新座市,栗原３丁目６－９,,11,230,3520035,,,,,,,2025-03-14,1,,,,,エイワイレクション,0
372,2030003026335,新規,0,2025-03-14,2025-03-14,加藤ファシリティデザイン合同会社,,合同会社,埼玉県,所沢市,西所沢２丁目９番１２号,,11,208,3591144,,,,,,,2025-03-14,1,,,,,カトウファシリティデザイン,0
373,2030003026343,新規,0,2025-03-14,2025-03-14,ＡＭＡＴＥＲＡＳ合同会社,,合同会社,埼玉県,児玉郡上里町,大字七本木３０８１番地５３（２０１号室）,,11,385,3690306,,,,,,,2025-03-14,1,,,,,アマテラス,0
377,2040001137810,新規,0,2025-03-14,2025-03-14,株式会社Ｎｏｗ　ｏｒ　Ｎｅｖｅｒ,,株式会社,千葉県,船橋市,夏見２丁目１０－１０－４０３,,12,204,2730865,,,,,,,2025-03-14,1,,,,,ナウオアネバー,0
382,2050001056324,新規,0,2025-03-14,2025-03-14,Ｄｏｕｄｏｕ株式会社,,株式会社,茨城県,牛久市,栄町６丁目１９３番地,,08,219,3001233,,,,,,,2025-03-14,1,,,,,ドゥードゥ,0
383,2050003009115,新規,0,2025-03-14,2025-03-14,合同会社ジョニー・デップ,,合同会社,茨城県,日立市,小木津町１丁目１４－１１,,08,202,3191413,,,,,,,2025-03-14,1,,,,,ジョニーデップ,0
385,2060001038016,新規,0,2025-03-14,2025-03-14,有伸機工株式会社,,株式会社,栃木県,芳賀郡益子町,大字益子３７１４番地３,,09,342,3214217,,,,,,,2025-03-14,1,,,,,ユウシンキコウ,0
389,2070001042735,新規,0,2025-03-14,2025-03-14,株式会社ワイズクリエイト,,株式会社,群馬県,館林市,赤土町７８番地４,,10,207,3740053,,,,,,,2025-03-14,1,,,,,ワイズクリエイト,0
391,2070003005806,新規,0,2025-03-14,2025-03-14,ＭＭＦ合同会社,,合同会社,群馬県,館林市,西高根町２６－１５,,10,207,3740075,,,,,,,2025-03-14,1,,,,,エムエムエフ,0
393,2080001026811,新規,0,2025-03-14,2025-03-14,株式会社ＮＳＣ,,株式会社,静岡県,静岡市駿河区,緑が丘町１番２８－３号,,22,102,4228052,,,,,,,2025-03-14,1,,,,,エヌエスシー,0
397,2100001038382,新規,0,2025-03-14,2025-03-14,株式会社ａ　ｐｏｉｎｔ,,株式会社,長野県,上田市,諏訪形７０－７,,20,203,3860032,,,,,,,2025-03-14,1,,,,,アポワン,0
412,2120001273647,新規,0,2025-03-14,2025-03-14,大阪古珍オークション株式会社,,株式会社,大阪府,大阪市西区,靭本町３－１０－２４兆豊阿波座ビル,,27,106,5500000,,,,,,,2025-03-14,1,,,,,オオサカコチンオークション,0
413,2120001273671,新規,0,2025-03-14,2025-03-14,Ｊｏｙｂｕｎｄ株式会社,,株式会社,大阪府,大阪市西成区,萩之茶屋１丁目１２番７号,,27,122,5570004,,,,,,,2025-03-14,1,,,,,ジョイブンド,0
414,2120001273688,新規,0,2025-03-14,2025-03-14,株式会社藤葉,,株式会社,大阪府,大阪市港区,夕凪２丁目１８番４１－７０３号,,27,107,5520004,,,,,,,2025-03-14,1,,,,,フジノハ,0
415,2120001273696,新規,0,2025-03-14,2025-03-14,ｆｌｏｒａｓＫＩＮ株式会社,,株式会社,大阪府,大阪市浪速区,難波中３丁目９番３－３０３号,,27,111,5560011,,,,,,,2025-03-14,1,,,,,フロラスキン,0
416,2120001273705,新規,0,2025-03-14,2025-03-14,株式会社ワンダーライト,,株式会社,大阪府,大阪市北区,西天満１丁目７番１３－９０３号,,27,127,5300047,,,,,,,2025-03-14,1,,,,,ワンダーライト,0
417,2120001273746,新規,0,2025-03-14,2025-03-14,株式会社ＳＨＡＮＴＩ,,株式会社,大阪府,大阪市北区,梅田１丁目２番２号大阪駅前第２ビル２階６－１－１,,27,127,5300001,,,,,,,2025-03-14,1,,,,,シャンティ,0
418,2120003028834,新規,0,2025-03-14,2025-03-14,合同会社Ｎｅｘｔ　Ｌｉｆｅ,,合同会社,大阪府,大阪市中央区,南船場４丁目１０番１８ナサプライムハウス本館７０７号,,27,128,5420081,,,,,,,2025-03-14,1,,,,,ネクストライフ,0
419,2120003028850,新規,0,2025-03-14,2025-03-14,森茂合同会社,,合同会社,大阪府,大阪市西成区,萩之茶屋１丁目１２番７号,,27,122,5570004,,,,,,,2025-03-14,1,,,,,モリシゲ,0
421,2120101071249,新規,0,2025-03-14,2025-03-14,株式会社Ｋ．ネクスト,,株式会社,大阪府,堺市西区,鳳西町３丁５８８番地,,27,144,5938326,,,,,,,2025-03-14,1,,,,,ケイネクスト,0
422,2120101071265,新規,0,2025-03-14,2025-03-14,株式会社加守田,,株式会社,大阪府,岸和田市,春木大国町８番６号,,27,202,5960026,,,,,,,2025-03-14,1,,,,,カモダ,0
423,2120103006327,新規,0,2025-03-14,2025-03-14,合同会社大黒屋,,合同会社,大阪府,岸和田市,西之内町３１番１２号,,27,202,5960044,,,,,,,2025-03-14,1,,,,,ダイコクヤ,0
426,2120901050600,新規,0,2025-03-14,2025-03-14,奉天交通株式会社,,株式会社,大阪府,豊中市,曽根南町３丁目９－１,,27,203,5610804,,,,,,,2025-03-14,1,,,,,ホウテンコウツウ,0
427,2122005003815,新規,0,2025-03-14,2025-03-14,一般社団法人香里園,,その他の設立登記法人,大阪府,八尾市,志紀町１丁目１１８番地,,27,212,5810031,,,,,,,2025-03-14,1,,,,,コウリエン,0
429,2130001079176,新規,0,2025-03-14,2025-03-14,株式会社南友興業,,株式会社,京都府,城陽市,寺田南中芝２０番地３,,26,207,6100121,,,,,,,2025-03-14,1,,,,,ナンユウコウギョウ,0
440,2140001137718,新規,0,2025-03-14,2025-03-14,株式会社ネクサス,,株式会社,兵庫県,西宮市,大屋町１７番１０－７０７号,,28,204,6638106,,,,,,,2025-03-14,1,,,,,ネクサス,0
442,2140003021770,新規,0,2025-03-14,2025-03-14,Ｔｉｇｅｒ　Ｃａｔ合同会社,,合同会社,兵庫県,神戸市中央区,加納町６丁目３番１－２９０７号,,28,110,6500001,,,,,,,2025-03-14,1,,,,,タイガーキャット,0
443,2140003021779,新規,0,2025-03-14,2025-03-14,合同会社ｋｏｈｕｎｋａｎ,,合同会社,兵庫県,丹波市,柏原町柏原３６１５番地１０,,28,223,6693309,,,,,,,2025-03-14,1,,,,,コウウンカン,0
444,2160001026605,新規,0,2025-03-14,2025-03-14,株式会社Ａｃｏｍｐａｎｙ,,株式会社,滋賀県,長浜市,名越町１０１６番地１０,,25,203,5260824,,,,,,,2025-03-14,1,,,,,エーカンパニー,0
447,2170001018535,新規,0,2025-03-14,2025-03-14,株式会社ＲＩＺＥ,,株式会社,和歌山県,田辺市,文里１丁目１－２９,,30,206,6460023,,,,,,,2025-03-14,1,,,,,ライズ,0
454,2180001165888,新規,0,2025-03-14,2025-03-14,イチエ株式会社,,株式会社,愛知県,名古屋市中村区,名駅３丁目４－１０アルティメイト名駅１ｓｔ２Ｆ,,23,105,4500002,,,,,,,2025-03-14,1,,,,,イチエ,0
457,2180003028151,新規,0,2025-03-14,2025-03-14,合同会社ＳＯＵＮＤ　ＯＦ　ＨＥＡＲＴＳ,,合同会社,愛知県,名古屋市西区,南川町２３８―２プレシオール２０１,,23,104,4520814,,,,,,,2025-03-14,1,,,,,サウンドオフハーツ,0
460,2200001043513,新規,0,2025-03-14,2025-03-14,ピッコラルーチェ株式会社,,株式会社,岐阜県,大垣市,外渕２丁目１５７番地２セジュール近藤１０７,,21,202,5030934,,,,,,,2025-03-14,1,,,,,ピッコラルーチェ,0
462,2220001026549,新規,0,2025-03-14,2025-03-14,Ｐｏｓｅｉｄｏｎ株式会社,,株式会社,石川県,加賀市,河南町カ９２番地１,,17,206,9220277,,,,,,,2025-03-14,1,,,,,ポセイドン,0
470,2260005011452,新規,0,2025-03-14,2025-03-14,医療法人社団悠希会,,その他の設立登記法人,岡山県,岡山市北区,大元１丁目１１－１,,33,101,7000924,,,,,,,2025-03-14,1,,,,,ユウキカイ,0
475,2290001109272,新規,0,2025-03-14,2025-03-14,株式会社ヘアドレ,,株式会社,福岡県,福岡市中央区,今泉１丁目７番１９－３０３号,,40,133,8100021,,,,,,,2025-03-14,1,,,,,ヘアドレ,0
476,2290001109322,新規,0,2025-03-14,2025-03-14,株式会社ＥＶＥＲＳＥＡ,,株式会社,福岡県,福岡市中央区,今泉２丁目２番８－５０３号,,40,133,8100021,,,,,,,2025-03-14,1,,,,,エバーシー,0
477,2290001109330,新規,0,2025-03-14,2025-03-14,株式会社大栄機工,,株式会社,福岡県,みやま市,山川町立山１５７５番地４,,40,229,8350101,,,,,,,2025-03-14,1,,,,,ダイエイキコウ,0
479,2290801031353,新規,0,2025-03-14,2025-03-14,株式会社Ｉｄｅｃ　Ｆｏｒｃｅ,,株式会社,福岡県,遠賀郡岡垣町,野間南５番６－５０５号プレステージ岡垣,,40,383,8114239,,,,,,,2025-03-14,1,,,,,アイディックフォース,0
480,2290801031361,新規,0,2025-03-14,2025-03-14,ＳＯＬＵＴＩＯＮ　ＣＯＭＰＡＮＹ　ＬＩＦＥ　ＣＡＭＰ株式会社,,株式会社,福岡県,北九州市八幡西区,引野３丁目９番３１－４０１号,,40,109,8060067,,,,,,,2025-03-14,1,,,,,ソリューションカンパニーライフキャンプ,0
488,2310001019502,新規,0,2025-03-14,2025-03-14,株式会社岩本商店,,株式会社,長崎県,長崎市,大黒町８番９号,,42,201,8500057,,,,,,,2025-03-14,1,,,,,イワモトショウテン,0
489,2330001032965,新規,0,2025-03-14,2025-03-14,株式会社ＬＩＳ,,株式会社,熊本県,熊本市南区,並建町１４２０番地４,,43,104,8615263,,,,,,,2025-03-14,1,,,,,リズ,0
490,2330001032981,新規,0,2025-03-14,2025-03-14,株式会社アーキ・プロ熊本,,株式会社,熊本県,熊本市南区,富合町木原２１６６番１,,43,104,8614153,,,,,,,2025-03-14,1,,,,,アーキプロクマモト,0
494,2340001027188,新規,0,2025-03-14,2025-03-14,株式会社Ｎｅｃｏｂｉｚ　ｇｒｏｕｐ,,株式会社,鹿児島県,薩摩川内市,横馬場町２番１０号アパートメントホテルサンシャイン１Ｆ,,46,215,8950023,,,,,,,2025-03-14,1,,,,,ネコビズグループ,0
497,2350001019432,新規,0,2025-03-14,2025-03-14,株式会社ＫＩＫＫＡＷＡ,,株式会社,宮崎県,日向市,大字財光寺字沖ノ原１０５５番地１,,45,206,8830021,,,,,,,2025-03-14,1,,,,,キッカワ,0
498,2350001019440,新規,0,2025-03-14,2025-03-14,株式会社平川建装,,株式会社,宮崎県,都城市,金田町２４２６番地５,,45,202,8850001,,,,,,,2025-03-14,1,,,,,ヒラカワケンソウ,0
504,2370003006988,新規,0,2025-03-14,2025-03-14,合同会社マイライツ,,合同会社,宮城県,栗原市,瀬峰清水山１５番地１５,,04,213,9894584,,,,,,,2025-03-14,1,,,,,マイライツ,0
507,2400001016977,新規,0,2025-03-14,2025-03-14,株式会社メタルテクノ,,株式会社,岩手県,紫波郡矢巾町,大字南矢幅第９地割２９２番地５サウザンクロス１０２,,03,322,0283615,,,,,,,2025-03-14,1,,,,,メタルテクノ,0
508,2400003003412,新規,0,2025-03-14,2025-03-14,合同会社ハナトケイ,,合同会社,岩手県,盛岡市,山岸１丁目４－２４ハウス山岸３１２号室,,03,201,0200004,,,,,,,2025-03-14,1,,,,,ハナトケイ,0
513,2430001093931,新規,0,2025-03-14,2025-03-14,株式会社ロジップ,,株式会社,北海道,札幌市北区,南あいの里６丁目６番１８号,,01,102,0028091,,,,,,,2025-03-14,1,,,,,ロジップ,0
517,2450001014563,新規,0,2025-03-14,2025-03-14,株式会社ＬＩＯＬＡＬ,,株式会社,北海道,旭川市,末広二条９丁目１番１３号,,01,204,0718132,,,,,,,2025-03-14,1,,,,,リオラル,0
520,2450003002616,新規,0,2025-03-14,2025-03-14,合同会社ＣＯＹＡ,,合同会社,北海道,勇払郡占冠村,字占冠６３５‐１,,01,463,0792202,,,,,,,2025-03-14,1,,,,,コヤ,0
526,2700150129558,新規,0,2025-03-14,2025-03-14,西海市土地改良区,,その他,長崎県,西海市,西海町川内郷１１０６番地１３,,42,212,8513502,,,,,,,2025-03-14,1,,,,,サイカイシトチカイリヨウク,0
527,2700150129566,新規,0,2025-03-14,2025-03-14,有限責任会社ＨＵＭＡＮ　ＯＦＦＳＨＯＲＥ　ＰＡＲＴＮＥＲＳソフトウェアサービス,,外国会社等,東京都,新宿区,下落合３丁目１－１５　目白ジュネス１０１,,13,104,1610033,ベトナム国ハノイ市ハドン区ズオンノイ街区アンフン都市圏ＴＴＤＶ０１区分Ｖ１－Ａ０２号,,,,,,2025-03-14,1,,,,,ユウゲンセキニンガイシヤヒユーマンオフシヨアパートナーズソフトウエアサービス,0
535,3010001253089,新規,0,2025-03-14,2025-03-14,Ｙ２Ｄ２株式会社,,株式会社,東京都,中央区,日本橋茅場町１丁目８番１号茅場町一丁目平和ビル７階,,13,102,1030025,,,,,,,2025-03-14,1,,,,,ワイツーディーツー,0
536,3010001253114,新規,0,2025-03-14,2025-03-14,株式会社ミタスミライ,,株式会社,東京都,千代田区,九段南１丁目５番６号りそな九段ビル５ＦＫＳフロア,,13,101,1020074,,,,,,,2025-03-14,1,,,,,ミタスミライ,0
537,3010001253139,新規,0,2025-03-14,2025-03-14,株式会社ｍｏｄｉｓｈ,,株式会社,東京都,千代田区,内神田１丁目１８番１１号,,13,101,1010047,,,,,,,2025-03-14,1,,,,,,0
538,3010001253147,新規,0,2025-03-14,2025-03-14,株式会社アーカムホールディングス,,株式会社,東京都,千代田区,丸の内１丁目１１番１号,,13,101,1000005,,,,,,,2025-03-14,1,,,,,アーカムホールディングス,0
539,3010001253188,新規,0,2025-03-14,2025-03-14,ソクラテス株式会社,,株式会社,東京都,中央区,銀座１丁目１６番７号銀座大栄ビル５階,,13,102,1040061,,,,,,,2025-03-14,1,,,,,ソクラテス,0
540,3010001253221,新規,0,2025-03-14,2025-03-14,ＣＨＩＳＨＩＫＩ株式会社,,株式会社,東京都,中央区,日本橋室町１丁目１１番１２号日本橋水野ビル７階,,13,102,1030022,,,,,,,2025-03-14,1,,,,,チシキ,0
543,3010003046755,新規,0,2025-03-14,2025-03-14,合同会社Ｆｒｅｅｓｉａ,,合同会社,東京都,千代田区,神田須田町１丁目７－８ＶＯＲＴ秋葉原ＩＶ２階,00138348,13,101,1010041,,,,,,,2025-03-14,1,,,,,フリージア,0
544,3010003046763,新規,0,2025-03-14,2025-03-14,ｄｅｓｔｉｎｏ合同会社,,合同会社,東京都,中央区,日本橋室町１丁目１１番１２号日本橋水野ビル７階,,13,102,1030022,,,,,,,2025-03-14,1,,,,,デスティーノ,0
548,3010005039732,新規,0,2025-03-14,2025-03-14,一般社団法人ＬＶＣ２５号,,その他の設立登記法人,東京都,千代田区,紀尾井町３－８第２紀尾井町ビル９０１アクシス綜合会計事務所内,,13,101,1020094,,,,,,,2025-03-14,1,,,,,エルブイシーニジュウゴゴウ,0
549,3010005039740,新規,0,2025-03-14,2025-03-14,一般社団法人ジュニアゴルフサポート協会,,その他の設立登記法人,東京都,千代田区,二番町９番地３ＴＨＥＢＡＳＥ麹町,,13,101,1020084,,,,,,,2025-03-14,1,,,,,ジュニアゴルフサポートキョウカイ,0
550,3010005039749,新規,0,2025-03-14,2025-03-14,麒麟４ホールディング一般社団法人,,その他の設立登記法人,東京都,中央区,京橋２丁目１２番６号ＡＯＪ税理士法人内,,13,102,1040031,,,,,,,2025-03-14,1,,,,,キリンフォーホールディング,0
559,3010401188868,新規,0,2025-03-14,2025-03-14,株式会社Ｒａｔｔｅ,,株式会社,東京都,港区,北青山２丁目７番１３号,,13,103,1070061,,,,,,,2025-03-14,1,,,,,ラテ,0
560,3010401188884,新規,0,2025-03-14,2025-03-14,株式会社幸來社,,株式会社,東京都,港区,北青山１丁目３－１アールキューブ青山３階,,13,103,1070061,,,,,,,2025-03-14,1,,,,,サクラシャ,0
561,3010401188892,新規,0,2025-03-14,2025-03-14,株式会社ＧＯＷＥＬＬ,,株式会社,東京都,港区,南青山３丁目１番３６号青山丸竹ビル６Ｆ,,13,103,1070062,,,,,,,2025-03-14,1,,,,,ゴーウェル,0
562,3010401188926,新規,0,2025-03-14,2025-03-14,株式会社アクセルトレーナー,,株式会社,東京都,港区,浜松町１丁目３０番５号,,13,103,1050013,,,,,,,2025-03-14,1,,,,,アクセルトレーナー,0
563,3010401188950,新規,0,2025-03-14,2025-03-14,Ａｕｘｉａ　Ｊａｐａｎ株式会社,,株式会社,東京都,港区,虎ノ門１丁目１０番５号ＫＤＸ虎ノ門一丁目ビル,,13,103,1050001,,,,,,,2025-03-14,1,,,,,オクシアジャパン,0
567,3010403034624,新規,0,2025-03-14,2025-03-14,ティアラ合同会社,,合同会社,東京都,港区,海岸１丁目９番１５－１５０４号,,13,103,1050022,,,,,,,2025-03-14,1,,,,,ティアラ,0
570,3010701047427,新規,0,2025-03-14,2025-03-14,株式会社ネクストスウェル,,株式会社,東京都,品川区,東五反田１丁目２番４５－１１０１号,,13,109,1410022,,,,,,,2025-03-14,1,,,,,ネクストスウェル,0
571,3010703007610,新規,0,2025-03-14,2025-03-14,ｆａｗｎｓ合同会社,,合同会社,東京都,品川区,東五反田１丁目９番２号ダイアパレス五反田５０４,,13,109,1410022,,,,,,,2025-03-14,1,,,,,ファウンズ,0
573,3010801035918,新規,0,2025-03-14,2025-03-14,株式会社ｍｏｒｅ　ｌｏｎｇ　ｌｌａｎ,,株式会社,東京都,大田区,南千束３丁目１７番１２号,,13,111,1450063,,,,,,,2025-03-14,1,,,,,モアロングラン,0
574,3010801035926,新規,0,2025-03-14,2025-03-14,株式会社ＴＭ商会,,株式会社,東京都,大田区,池上７丁目２番７号,,13,111,1460082,,,,,,,2025-03-14,1,,,,,ティーエムショウカイ,0
575,3010803005316,新規,0,2025-03-14,2025-03-14,プラネット合同会社,,合同会社,東京都,大田区,新蒲田２丁目２１番１７号コーポＮＳ１０３,,13,111,1440054,,,,,,,2025-03-14,1,,,,,プラネット,0
576,3010901056987,新規,0,2025-03-14,2025-03-14,株式会社メイク・ハーモニー,,株式会社,東京都,世田谷区,船橋７丁目６番６号,,13,112,1560055,,,,,,,2025-03-14,1,,,,,メイクハーモニー,0
577,3010903009778,新規,0,2025-03-14,2025-03-14,合同会社ｆｏｒ　ｈ,,合同会社,東京都,世田谷区,北沢３丁目２番１１号２階,,13,112,1550031,,,,,,,2025-03-14,1,,,,,フォーアッシュ,0
579,3011001168384,新規,0,2025-03-14,2025-03-14,株式会社ＳＥＲＡＰＨＩＭ,,株式会社,東京都,渋谷区,本町１丁目７番１６－８０９号,,13,113,1510071,,,,,,,2025-03-14,1,,,,,セラフィム,0
584,3011003021153,新規,0,2025-03-14,2025-03-14,合同会社ＴＭ,,合同会社,東京都,渋谷区,道玄坂１丁目１０番８号渋谷道玄坂東急ビル２Ｆ－Ｃ,,13,113,1500043,,,,,,,2025-03-14,1,,,,,ティーエム,0
590,3011101110873,新規,0,2025-03-14,2025-03-14,株式会社Ｆａｍｐ,,株式会社,東京都,新宿区,西新宿７丁目１０－１７新宿ダイカンプラザＢ館６０５号室,,13,104,1600023,,,,,,,2025-03-14,1,,,,,ファンプ,0
591,3011101110980,新規,0,2025-03-14,2025-03-14,Ｇ・Ａ株式会社,,株式会社,東京都,新宿区,西新宿７丁目５番９号,,13,104,1600023,,,,,,,2025-03-14,1,,,,,ジーエー,0
592,3011101110989,新規,0,2025-03-14,2025-03-14,株式会社Ｌｏｇｉｃ　ｉｎｎｏｖａｔｉｏｎ,,株式会社,東京都,新宿区,西新宿８丁目５番３号アクセス西新宿７０１号,,13,104,1600023,,,,,,,2025-03-14,1,,,,,ロジックイノベーション,0
593,3011101111005,新規,0,2025-03-14,2025-03-14,三共アドマーケティング株式会社,,株式会社,東京都,新宿区,新宿１丁目３６番２号,,13,104,1600022,,,,,,,2025-03-14,1,,,,,サンキョウアドマーケティング,0
594,3011103015658,新規,0,2025-03-14,2025-03-14,滝野商事合同会社,,合同会社,東京都,新宿区,西新宿３丁目３番１３号西新宿水間ビル６階,,13,104,1600023,,,,,,,2025-03-14,1,,,,,タキノショウジ,0
595,3011105011382,新規,0,2025-03-14,2025-03-14,司法書士法人平野事務所,,その他の設立登記法人,東京都,新宿区,西新宿４丁目３２番１２号西新宿フォレストビル４階,,13,104,1600023,,,,,,,2025-03-14,1,,,,,ヒラノジムショ,0
596,3011301030434,新規,0,2025-03-14,2025-03-14,ＴＭＧ株式会社,,株式会社,東京都,杉並区,方南１丁目５０番２０号ハイツ方南２１７号室,,13,115,1680062,,,,,,,2025-03-14,1,,,,,ティーエムジー,0
598,3011401026893,新規,0,2025-03-14,2025-03-14,株式会社Ｋ’ｓ企画,,株式会社,東京都,板橋区,赤塚２丁目３９－１２,,13,119,1750092,,,,,,,2025-03-14,1,,,,,ケイズキカク,0
599,3011401026902,新規,0,2025-03-14,2025-03-14,株式会社ＴＫ　ＰＡＹＦＯＲＷＡＲＤ,,株式会社,東京都,板橋区,舟渡２丁目２３番１５号,,13,119,1740041,,,,,,,2025-03-14,1,,,,,ティーケーペイフォワード,0
604,3011701028160,新規,0,2025-03-14,2025-03-14,株式会社ＩＳＫ,,株式会社,東京都,江戸川区,北篠崎２丁目２番１２号,,13,123,1330053,,,,,,,2025-03-14,1,,,,,アイエスケイ,0
606,3012301014294,新規,0,2025-03-14,2025-03-14,株式会社ＲｅＣＳ,,株式会社,東京都,町田市,相原町１８０９番地１６７,,13,209,1940211,,,,,,,2025-03-14,1,,,,,レックス,0
608,3012401042889,新規,0,2025-03-14,2025-03-14,株式会社ＦＵＫＵＭＯＮ,,株式会社,東京都,三鷹市,大沢１丁目２番７号,,13,204,1810015,,,,,,,2025-03-14,1,,,,,フクモン,0
609,3012803003662,新規,0,2025-03-14,2025-03-14,ＰＯＷＥＲ　ＫＡＲＡＴＥ　ＪＡＰＡＮ合同会社,,合同会社,東京都,立川市,羽衣町１丁目１９番２９号Ｎ－ｓｔａｇｅＮｉｓｈｉｋｕｎｉｔａｃｈｉ６０３号室,,13,202,1900021,,,,,,,2025-03-14,1,,,,,パワーカラテジャパン,0
611,3013105001867,新規,0,2025-03-14,2025-03-14,一般社団法人Ｍｉｎｅｒａｌｓ,,その他の設立登記法人,東京都,青梅市,二俣尾３丁目８４４番地,,13,205,1980171,,,,,,,2025-03-14,1,,,,,ミネラルズ,0
614,3013301053919,新規,0,2025-03-14,2025-03-14,株式会社ゆるゆる,,株式会社,東京都,豊島区,東池袋２丁目６２番８号ＢＩＧオフィスプラザ池袋１２０６,,13,116,1700013,,,,,,,2025-03-14,1,,,,,ユルユル,0
621,3020001161729,新規,0,2025-03-14,2025-03-14,株式会社テックラッシュ,,株式会社,神奈川県,横浜市鶴見区,向井町３丁目７４番地９,,14,101,2300037,,,,,,,2025-03-14,1,,,,,テックラッシュ,0
622,3020001161844,新規,0,2025-03-14,2025-03-14,株式会社ｍｋ,,株式会社,神奈川県,横浜市南区,大岡１丁目３６番２５号,,14,105,2320061,,,,,,,2025-03-14,1,,,,,エムケイ,0
623,3020001161869,新規,0,2025-03-14,2025-03-14,株式会社Ｋａｉｎａｌｕ,,株式会社,神奈川県,川崎市川崎区,大師駅前２丁目１番７－１０８号,,14,131,2100802,,,,,,,2025-03-14,1,,,,,カイナル,0
624,3020001161885,新規,0,2025-03-14,2025-03-14,株式会社ＮｅｏＷｅｌｌ　Ａｒｋｉｔｅｋ,,株式会社,神奈川県,横浜市都筑区,早渕１丁目２番７－７０５号,,14,118,2240025,,,,,,,2025-03-14,1,,,,,ネオウェルアーキテック,0
629,3020003028067,新規,0,2025-03-14,2025-03-14,合同会社ベティのアトリエ,,合同会社,神奈川県,横浜市金沢区,釜利谷東７丁目１２番２６－２号,,14,108,2360042,,,,,,,2025-03-14,1,,,,,ベティノアトリエ,0
630,3020003028075,新規,0,2025-03-14,2025-03-14,合同会社来喜,,合同会社,神奈川県,川崎市川崎区,砂子２丁目８番地１シャンボール川崎砂子７１１,,14,131,2100006,,,,,,,2025-03-14,1,,,,,ライキ,0
634,3021003015699,新規,0,2025-03-14,2025-03-14,合同会社ｐｈｙｓｉｃａｌ,,合同会社,神奈川県,厚木市,中町２丁目７番１８号１Ｆ,,14,212,2430018,,,,,,,2025-03-14,1,,,,,フィジカル,0
635,3021003015740,新規,0,2025-03-14,2025-03-14,民泊ＪＡＰＡＮ合同会社,,合同会社,神奈川県,平塚市,四之宮４丁目６番１５号,,14,203,2540014,,,,,,,2025-03-14,1,,,,,ミンパクジャパン,0
639,3030001165316,新規,0,2025-03-14,2025-03-14,株式会社細沼工務店,,株式会社,埼玉県,富士見市,東みずほ台１丁目２番地８－４０３,,11,235,3540015,,,,,,,2025-03-14,1,,,,,ホソヌマコウムテン,0
640,3030001165340,新規,0,2025-03-14,2025-03-14,株式会社ルチェンテ,,株式会社,埼玉県,川口市,戸塚２丁目１番１－１６０２号,,11,203,3330811,,,,,,,2025-03-14,1,,,,,ルチェンテ,0
641,3030001165456,新規,0,2025-03-14,2025-03-14,ネオパス株式会社,,株式会社,埼玉県,さいたま市南区,大字大谷口５４５０番地７,,11,108,3360042,,,,,,,2025-03-14,1,,,,,ネオパス,0
642,3030005022075,新規,0,2025-03-14,2025-03-14,一般社団法人埼玉県野球協議会,,その他の設立登記法人,埼玉県,所沢市,大字上山口２１３５,,11,208,3591153,,,,,,,2025-03-14,1,,,,,サイタマケンヤキュウキョウギカイ,0
649,3040003027059,新規,0,2025-03-14,2025-03-14,合同会社一心,,合同会社,千葉県,柏市,高柳６３０番地,,12,217,2770941,,,,,,,2025-03-14,1,,,,,イッシン,0
650,3040003027067,新規,0,2025-03-14,2025-03-14,ＧＩＡ　ＫＨＡＮＨ合同会社,,合同会社,千葉県,香取郡東庄町,笹川い４８番地２,,12,349,2890601,,,,,,,2025-03-14,1,,,,,ジャカイン,0
656,3060001038007,新規,0,2025-03-14,2025-03-14,Ｈａｚｕｋｉコーポレーション株式会社,,株式会社,栃木県,足利市,瑞穂野町６８２番地３,,09,202,3260323,,,,,,,2025-03-14,1,,,,,ハヅキコーポレーション,0
657,3060001038031,新規,0,2025-03-14,2025-03-14,株式会社ｙｃｐホールディングス,,株式会社,栃木県,小山市,城東１丁目１２番２５号ヤエスビル５階,,09,208,3230807,,,,,,,2025-03-14,1,,,,,ワイシーピーホールディングス,0
660,3060003005467,新規,0,2025-03-14,2025-03-14,ＳＨＩＮＲＡＩ　ＡＵＴＯ合同会社,,合同会社,栃木県,足利市,山下町２１９７番地,,09,202,3260846,,,,,,,2025-03-14,1,,,,,シンライオート,0
666,3100001038365,新規,0,2025-03-14,2025-03-14,株式会社安曇野ストーブ,,株式会社,長野県,北安曇郡池田町,大字会染９００４番地９,,20,481,3998602,,,,,,,2025-03-14,1,,,,,アズミノストーブ,0
667,3100001038415,新規,0,2025-03-14,2025-03-14,株式会社ＩＡＴ朝日,,株式会社,長野県,東筑摩郡朝日村,大字古見字柳久保２８６９番地５,,20,451,3901104,,,,,,,2025-03-14,1,,,,,アイエイティーアサヒ,0
670,3100005013307,新規,0,2025-03-14,2025-03-14,医療法人岩段会,,その他の設立登記法人,長野県,伊那市,日影３８０番１,,20,209,3960009,,,,,,,2025-03-14,1,,,,,イワダンカイ,0
673,3110003005692,新規,0,2025-03-14,2025-03-14,合同会社ＫＩＢＯ,,合同会社,新潟県,新潟市秋葉区,矢代田１９７２,,15,105,9560113,,,,,,,2025-03-14,1,,,,,キーボ,0
693,3120001273299,新規,0,2025-03-14,2025-03-14,東潤株式会社,,株式会社,大阪府,大阪市都島区,中野町４丁目３番６号Ｈ２Ｈ大阪桜之宮２Ｃ－３,,27,102,5340027,,,,,,,2025-03-14,1,,,,,トウジュン,0
694,3120001273638,新規,0,2025-03-14,2025-03-14,鉄熱工業株式会社,,株式会社,大阪府,大阪市中央区,南新町２丁目４－１２－７０１,,27,128,5400024,,,,,,,2025-03-14,1,,,,,テツネツコウギョウ,0
695,3120001273646,新規,0,2025-03-14,2025-03-14,株式会社ＭＳカンパニー,,株式会社,大阪府,大阪市生野区,巽中２丁目１５－３,,27,116,5440013,,,,,,,2025-03-14,1,,,,,エムエスカンパニー,0
696,3120001273654,新規,0,2025-03-14,2025-03-14,株式会社飛躍教育,,株式会社,大阪府,守口市,高瀬町１丁目１０－１４中尾ハイツ１０１号室,,27,209,5700053,,,,,,,2025-03-14,1,,,,,ヒヤクキョウイク,0
697,3120001273670,新規,0,2025-03-14,2025-03-14,Ｓｉｎｃｅ　Ｅｎｔｅｒｔａｉｎｍｅｎｔ株式会社,,株式会社,大阪府,大阪市中央区,西心斎橋１丁目１番１３－１３０１号,,27,128,5420086,,,,,,,2025-03-14,1,,,,,シンスエンターテイメント,0
698,3120001273687,新規,0,2025-03-14,2025-03-14,株式会社ＢＵＤＤＹ,,株式会社,大阪府,大阪市西淀川区,佃１丁目９番５号,,27,113,5550001,,,,,,,2025-03-14,1,,,,,バディ,0
699,3120001273695,新規,0,2025-03-14,2025-03-14,Ｃａｃｔｕｓ　Ｈｏｌｄｉｎｇｓ株式会社,,株式会社,大阪府,大阪市北区,堂島２丁目１番２５－７０２号,,27,127,5300003,,,,,,,2025-03-14,1,,,,,キャクタスホールディングス,0
700,3120001273720,新規,0,2025-03-14,2025-03-14,株式会社ＭＵＧＥＮ,,株式会社,大阪府,大阪市東淀川区,柴島３丁目７番３８号,,27,114,5330024,,,,,,,2025-03-14,1,,,,,ムゲン,0
703,3120003028858,新規,0,2025-03-14,2025-03-14,合同会社マシュマロ,,合同会社,大阪府,守口市,八雲東町２丁目７４番１７号,,27,209,5700021,,,,,,,2025-03-14,1,,,,,マシュマロ,0
704,3120005024847,新規,0,2025-03-14,2025-03-14,一般社団法人脳血管内治療技術と機器研究会,,その他の設立登記法人,大阪府,大阪市中央区,法円坂２丁目１番１４号,,27,128,5400006,,,,,,,2025-03-14,1,,,,,ノウケッカンナイチリョウギジュツトキキケンキュウカイ,0
708,3120101071256,新規,0,2025-03-14,2025-03-14,株式会社Ｖｉｔａｌ　Ｓｐａｒｋ,,株式会社,大阪府,堺市北区,新金岡町２丁５番１６－８０４号,,27,146,5918021,,,,,,,2025-03-14,1,,,,,バイタルスパーク,0
710,3120901050558,新規,0,2025-03-14,2025-03-14,株式会社海洋技術研究所,,株式会社,大阪府,箕面市,今宮３丁目１１番３１－３０４号,,27,220,5620033,,,,,,,2025-03-14,1,,,,,カイヨウギジュツケンキュウジョ,0
711,3120901050599,新規,0,2025-03-14,2025-03-14,株式会社ＭＳＫ,,株式会社,大阪府,豊中市,庄内東町６丁目１０番１１号,,27,203,5610831,,,,,,,2025-03-14,1,,,,,エムエスケー,0
712,3122001038954,新規,0,2025-03-14,2025-03-14,株式会社ＳＥＩＥＩ,,株式会社,大阪府,八尾市,跡部本町２丁目２番３号,,27,212,5810064,,,,,,,2025-03-14,1,,,,,セイエイ,0
713,3122001038979,新規,0,2025-03-14,2025-03-14,株式会社Ｗｏｒｌｄ　Ｃｏｎｎｅｃｔ,,株式会社,大阪府,八尾市,南本町２丁目５番５３号,,27,212,5810081,,,,,,,2025-03-14,1,,,,,ワールドコネクト,0
719,3130001079167,新規,0,2025-03-14,2025-03-14,亀井商事株式会社,,株式会社,京都府,京都市右京区,花園巽南町１７番地,00138272,26,108,6168051,,,,,,,2025-03-14,1,,,,,カメイショウジ,0
720,3130001079191,新規,0,2025-03-14,2025-03-14,株式会社ウィルメイク,,株式会社,京都府,京都市伏見区,深草西浦町７丁目６番地ラマプリーヌ桂２０Ａ,,26,109,6120029,,,,,,,2025-03-14,1,,,,,ウィルメイク,0
727,3140001137700,新規,0,2025-03-14,2025-03-14,株式会社ｍｕｓｉｃ２．０,,株式会社,兵庫県,神戸市中央区,山本通１丁目５－１６,,28,110,6500003,,,,,,,2025-03-14,1,,,,,ミュージックニイテンゼロ,0
728,3140001137709,新規,0,2025-03-14,2025-03-14,ＮＡ経営労務コンサルティング株式会社,,株式会社,兵庫県,神戸市灘区,篠原南町５丁目３番１１号,,28,102,6570059,,,,,,,2025-03-14,1,,,,,エヌエーケイエイロウムコンサルティング,0
729,3140001137717,新規,0,2025-03-14,2025-03-14,株式会社Ｖｉｓｔａ　Ｒａｙ,,株式会社,兵庫県,神戸市灘区,城内通１丁目４－１,,28,102,6570836,,,,,,,2025-03-14,1,,,,,ヴィスタレイ,0
730,3140001137758,新規,0,2025-03-14,2025-03-14,株式会社トライスターエージェント,,株式会社,兵庫県,神戸市中央区,中山手通３丁目２番１－１８０７号,,28,110,6500004,,,,,,,2025-03-14,1,,,,,トライスターエージェント,0
731,3140001137766,新規,0,2025-03-14,2025-03-14,株式会社ステージチェンジ,,株式会社,兵庫県,神戸市東灘区,向洋町中６丁目９神戸ファッションマート６Ｃ－０２,,28,101,6580032,,,,,,,2025-03-14,1,,,,,ステージチェンジ,0
734,3140003021778,新規,0,2025-03-14,2025-03-14,合同会社ｄｕｃｅｒａｓｕｓ,,合同会社,兵庫県,加古川市,野口町古大内１３０番地の１７,,28,210,6750014,,,,,,,2025-03-14,1,,,,,デュケラサス,0
736,3150001027966,新規,0,2025-03-14,2025-03-14,株式会社山本総合開発,,株式会社,奈良県,生駒郡平群町,大字若井３１８番地の５,,29,342,6360916,,,,,,,2025-03-14,1,,,,,ヤマモトソウゴウカイハツ,0
739,3160001026604,新規,0,2025-03-14,2025-03-14,株式会社灰一ホールディングス,,株式会社,滋賀県,草津市,下笠町６９８番地,,25,206,5250029,,,,,,,2025-03-14,1,,,,,ハイイチホールディングス,0
741,3170001018534,新規,0,2025-03-14,2025-03-14,ニューレジェンドジャパン株式会社,,株式会社,和歌山県,和歌山市,梅原５７９番地８,,30,201,6408452,,,,,,,2025-03-14,1,,,,,ニューレジェンドジャパン,0
742,3180001165879,新規,0,2025-03-14,2025-03-14,株式会社ＰＬＵＳ　ＷＯＲＫ,,株式会社,愛知県,犬山市,大字五郎丸字二タ俣３０番地１０,,23,215,4840966,,,,,,,2025-03-14,1,,,,,プラスワーク,0
743,3180001165929,新規,0,2025-03-14,2025-03-14,株式会社Ｓｉｍｐｌｅ　Ｅｓｔａｔｅ,,株式会社,愛知県,名古屋市中区,千代田１丁目１０番１６号ネスパルドイブ５０３号室,,23,106,4600012,,,,,,,2025-03-14,1,,,,,シンプルエステート,0
744,3180001165945,新規,0,2025-03-14,2025-03-14,株式会社Ｍｉｌｌｉｏｎ　Ｇａｍｅｓ,,株式会社,愛知県,名古屋市中区,栄３丁目１１番１４号,,23,106,4600008,,,,,,,2025-03-14,1,,,,,ミリオンゲームズ,0
756,3220001026556,新規,0,2025-03-14,2025-03-14,株式会社フロム金沢,,株式会社,石川県,金沢市,彦三町２丁目８番３号,,17,201,9200901,,,,,,,2025-03-14,1,,,,,フロムカナザワ,0
759,3240003007098,新規,0,2025-03-14,2025-03-14,合同会社Ａ,,合同会社,広島県,福山市,三吉町１丁目８番２７－６号,,34,207,7200031,,,,,,,2025-03-14,1,,,,,エー,0
763,3290001109189,新規,0,2025-03-14,2025-03-14,株式会社Ｆｒｅｙａ　Ａｇｒｉ　Ｔｅｃｈ,,株式会社,福岡県,三潴郡大木町,大字大藪３１９番地１,,40,522,8300423,,,,,,,2025-03-14,1,,,,,フレイアアグリテック,0
766,3310001019501,新規,0,2025-03-14,2025-03-14,株式会社ｎｕｎｏ,,株式会社,長崎県,南松浦郡新上五島町,宿ノ浦郷１１０５番地１０,,42,411,8532303,,,,,,,2025-03-14,1,,,,,ヌーノ,0
772,3350001019431,新規,0,2025-03-14,2025-03-14,中原板金株式会社,,株式会社,宮崎県,北諸県郡三股町,大字樺山４７１８番地８,,45,341,8891901,,,,,,,2025-03-14,1,,,,,ナカハラバンキン,0
775,3360001034883,新規,0,2025-03-14,2025-03-14,株式会社ｗｉｎｄ　ｗａｙ,,株式会社,沖縄県,豊見城市,字与根１９７番地テラス凛２０４号室,,47,212,9010224,,,,,,,2025-03-14,1,,,,,ウィンドウェイ,0
778,3370001052364,新規,0,2025-03-14,2025-03-14,株式会社ＡＣＭ,,株式会社,宮城県,仙台市若林区,連坊小路１３０番地の４,,04,103,9840053,,,,,,,2025-03-14,1,,,,,エーシーエム,0
780,3380001035153,新規,0,2025-03-14,2025-03-14,株式会社拓興業,,株式会社,福島県,いわき市,小名浜上神白字加瀬前８３番地の６０,,07,204,9700317,,,,,,,2025-03-14,1,,,,,タクコウギョウ,0
781,3380001035161,新規,0,2025-03-14,2025-03-14,株式会社Ｇａｌｌｏｐｉｎｔｏ,,株式会社,福島県,田村市,滝根町神俣字和貢３２２番地３,,07,211,9633602,,,,,,,2025-03-14,1,,,,,ガジョピント,0
784,3380005012933,新規,0,2025-03-14,2025-03-14,一般社団法人羊飼いのともしび,,その他の設立登記法人,福島県,相馬市,尾浜字札ノ沢５８番地の３１,,07,209,9760022,,,,,,,2025-03-14,1,,,,,ヒツジカイノトモシビ,0
786,3400001016976,新規,0,2025-03-14,2025-03-14,株式会社西根物流サービス,,株式会社,岩手県,八幡平市,大更第３４地割１４９番地２,,03,214,0287111,,,,,,,2025-03-14,1,,,,,ニシネブツリュウサービス,0
787,3420001019052,新規,0,2025-03-14,2025-03-14,株式会社Ｒｏｕｇｈ,,株式会社,青森県,八戸市,小中野２丁目６番１号,,02,203,0310802,,,,,,,2025-03-14,1,,,,,ラフ,0
792,3430001093914,新規,0,2025-03-14,2025-03-14,株式会社大匠,,株式会社,北海道,室蘭市,柏木町２番８号,,01,205,0500064,,,,,,,2025-03-14,1,,,,,タイショウ,0
793,3430001093930,新規,0,2025-03-14,2025-03-14,株式会社フルチッタ,,株式会社,北海道,古平郡古平町,大字本町３７番地３,,01,406,0460103,,,,,,,2025-03-14,1,,,,,フルチッタ,0
799,3430003017391,新規,0,2025-03-14,2025-03-14,合同会社フォワードスピリット,,合同会社,北海道,札幌市中央区,南二十四条西１１丁目２番３３－２０３号,,01,101,0640924,,,,,,,2025-03-14,1,,,,,フォワードスピリット,0
801,3450001014562,新規,0,2025-03-14,2025-03-14,株式会社北海道バレル,,株式会社,北海道,旭川市,永山北三条６丁目１番地の７８,,01,204,0798453,,,,,,,2025-03-14,1,,,,,ホッカイドウバレル,0
813,4010001253113,新規,0,2025-03-14,2025-03-14,喜友食品株式会社,,株式会社,東京都,中央区,入船１丁目１番１７－３０４号,,13,102,1040042,,,,,,,2025-03-14,1,,,,,キユウショクヒン,0
814,4010001253138,新規,0,2025-03-14,2025-03-14,株式会社ＮＥＷ　ＥＲＡビルメンテナンス,,株式会社,東京都,中央区,銀座１丁目１２番４号Ｎ＆ＥＢＬＤ．６Ｆ,,13,102,1040061,,,,,,,2025-03-14,1,,,,,ニューエラビルメンテナンス,0
815,4010001253146,新規,0,2025-03-14,2025-03-14,株式会社Ｖｉｔａ　Ｅｓｓｅｎｃｅ,,株式会社,東京都,中央区,銀座１丁目１２－４Ｎ＆ＥＢＬＤ．６Ｆ,,13,102,1040061,,,,,,,2025-03-14,1,,,,,ヴィータエッセンス,0
816,4010001253154,新規,0,2025-03-14,2025-03-14,エスエスパートナーズ株式会社,,株式会社,東京都,中央区,佃３丁目２番１２－１２０７号,,13,102,1040051,,,,,,,2025-03-14,1,,,,,エスエスパートナーズ,0
817,4010001253179,新規,0,2025-03-14,2025-03-14,株式会社ＩＣＥ,,株式会社,東京都,中央区,八重洲１丁目３番１８号,,13,102,1030028,,,,,,,2025-03-14,1,,,,,アイス,0
818,4010001253187,新規,0,2025-03-14,2025-03-14,株式会社Ｎｏａｒｋ　Ｅｐｏｃｈ,,株式会社,東京都,千代田区,平河町２丁目５番５号,,13,101,1020093,,,,,,,2025-03-14,1,,,,,ノアークエポック,0
819,4010001253204,新規,0,2025-03-14,2025-03-14,明心人財株式会社,,株式会社,東京都,千代田区,神田鍛冶町３丁目７番２１号天翔神田駅前ビル６０５号,,13,101,1010045,,,,,,,2025-03-14,1,,,,,メイシンジンザイ,0
821,4010003046705,新規,0,2025-03-14,2025-03-14,合同会社ＴＡＰ,,合同会社,東京都,中央区,銀座１丁目１２番４号Ｍ＆ＥＢＬＤ．６Ｆ,,13,102,1040061,,,,,,,2025-03-14,1,,,,,タップ,0
822,4010003046746,新規,0,2025-03-14,2025-03-14,合同会社ワンダフルジャーニー,,合同会社,東京都,中央区,築地７丁目１６番６,,13,102,1040045,,,,,,,2025-03-14,1,,,,,ワンダフルジャーニー,0
823,4010003046754,新規,0,2025-03-14,2025-03-14,合同会社ツナグ,,合同会社,東京都,中央区,日本橋室町１丁目１１番１２号日本橋水野ビル７階,,13,102,1030022,,,,,,,2025-03-14,1,,,,,ツナグ,0
824,4010003046762,新規,0,2025-03-14,2025-03-14,合同会社ＷＡＺ,,合同会社,東京都,千代田区,神田須田町１丁目７番地８ＶＯＲＴ秋葉原ＩＶ２Ｆ,00138361,13,101,1010041,,,,,,,2025-03-14,1,,,,,ワズ,0
825,4010003046779,新規,0,2025-03-14,2025-03-14,ＰＡＣＩＦＩＣ合同会社,,合同会社,東京都,千代田区,神田佐久間町２丁目１８番地１秋葉原ＳＴＮフロント１０階,,13,101,1010025,,,,,,,2025-03-14,1,,,,,パシフィック,0
826,4010005039731,新規,0,2025-03-14,2025-03-14,一般社団法人ＬＶＣ２４号,,その他の設立登記法人,東京都,千代田区,紀尾井町３－８第２紀尾井町ビル９０１アクシス綜合会計事務所内,,13,101,1020094,,,,,,,2025-03-14,1,,,,,エルブイシーニジュウヨンゴウ,0
839,4010401188693,新規,0,2025-03-14,2025-03-14,株式会社楽笑,,株式会社,東京都,港区,芝２丁目２７－１１－５０１,,13,103,1050014,,,,,,,2025-03-14,1,,,,,ラクショー,0
840,4010401188867,新規,0,2025-03-14,2025-03-14,株式会社ｕｂｅｒ　ｃａｒｅｓ,,株式会社,東京都,港区,南青山５丁目４番２７号ＢＡＲＢＩＺＯＮ１０４・５階,,13,103,1070062,,,,,,,2025-03-14,1,,,,,ウーバーケアーズ,0
841,4010401188875,新規,0,2025-03-14,2025-03-14,株式会社ｒｅｄｅｓｉｇｎ,,株式会社,東京都,港区,北青山２丁目７番１３号,,13,103,1070061,,,,,,,2025-03-14,1,,,,,リデザイン,0
842,4010401188883,新規,0,2025-03-14,2025-03-14,株式会社ＤＲＳ,,株式会社,東京都,港区,北青山１丁目３番１号アールキューブ青山３階,,13,103,1070061,,,,,,,2025-03-14,1,,,,,ディーアールエス,0
843,4010401188891,新規,0,2025-03-14,2025-03-14,株式会社ＢＵＬＫＵＬ,,株式会社,東京都,港区,南青山３丁目３番２４号第一竹野ビル,,13,103,1070062,,,,,,,2025-03-14,1,,,,,バルクル,0
849,4010403034615,新規,0,2025-03-14,2025-03-14,Ｌｉｎｋｂｅｙｏｎｄ合同会社,,合同会社,東京都,港区,南青山３丁目１番３６号青山丸竹ビル６Ｆ,,13,103,1070062,,,,,,,2025-03-14,1,,,,,リンクビヨンド,0
850,4010403034648,新規,0,2025-03-14,2025-03-14,せとうち企業投資合同会社,,合同会社,東京都,港区,元赤坂１丁目１番７号,,13,103,1070051,,,,,,,2025-03-14,1,,,,,セトウチキギョウトウシ,0
851,4010405024143,新規,0,2025-03-14,2025-03-14,一般社団法人分子情報解析技術機構,,その他の設立登記法人,東京都,港区,南青山３丁目１番３６号青山丸竹ビル６Ｆ,,13,103,1070062,,,,,,,2025-03-14,1,,,,,ブンシジョウホウカイセキギジュツキコウ,0
852,4010603011447,新規,0,2025-03-14,2025-03-14,合同会社喜成,,合同会社,東京都,墨田区,江東橋２丁目６番１４号,,13,107,1300022,,,,,,,2025-03-14,1,,,,,キナリ,0
856,4010801035917,新規,0,2025-03-14,2025-03-14,株式会社オーストリッチ,,株式会社,東京都,大田区,東雪谷２丁目１８－１７ＳＰＥＣＲＥＳＩＤＥＮＣＥ東雪谷１０２,,13,111,1450065,,,,,,,2025-03-14,1,,,,,オーストリッチ,0
857,4010801035925,新規,0,2025-03-14,2025-03-14,株式会社英典,,株式会社,東京都,大田区,南雪谷２丁目１８番１０号,,13,111,1450066,,,,,,,2025-03-14,1,,,,,エイテン,0
859,4010803005315,新規,0,2025-03-14,2025-03-14,スパーラ合同会社,,合同会社,東京都,大田区,鵜の木３丁目２９番９号,,13,111,1460091,,,,,,,2025-03-14,1,,,,,スパーラ,0
860,4010901056986,新規,0,2025-03-14,2025-03-14,株式会社ＬＡＮＧＵＡＧＥ　ＡＲＴＳ　ＴＯＫＹＯ,,株式会社,東京都,世田谷区,等々力１丁目３番１３－６０１号,,13,112,1580082,,,,,,,2025-03-14,1,,,,,ランゲージアーツトーキョー,0
861,4010901057010,新規,0,2025-03-14,2025-03-14,株式会社アベニールプロテクト,,株式会社,東京都,世田谷区,世田谷３丁目２１番１２号,,13,112,1540017,,,,,,,2025-03-14,1,,,,,アベニールプロテクト,0
862,4010903009777,新規,0,2025-03-14,2025-03-14,合同会社ＳｔａｒｔｕｐＣｏｎｓｕｌｔｉｎｇ,,合同会社,東京都,世田谷区,玉川台２丁目１５番１号,,13,112,1580096,,,,,,,2025-03-14,1,,,,,スタートアップコンサルティング,0
866,4011003021152,新規,0,2025-03-14,2025-03-14,合同会社陽月,,合同会社,東京都,渋谷区,道玄坂１丁目１０番８号渋谷道玄坂東急ビル２Ｆ－Ｃ,,13,113,1500043,,,,,,,2025-03-14,1,,,,,ハヅキ,0
867,4011003021169,新規,0,2025-03-14,2025-03-14,合同会社ＳＯＵＮＤＳ,,合同会社,東京都,目黒区,八雲３丁目８－２１,,13,110,1520023,,,,,,,2025-03-14,1,,,,,サウンズ,0
873,4011301030433,新規,0,2025-03-14,2025-03-14,株式会社メロンタトウ,,株式会社,東京都,杉並区,宮前１丁目１４番１６号アートイン杉並４０７,,13,115,1680081,,,,,,,2025-03-14,1,,,,,メロンタトウ,0
878,4011601028482,新規,0,2025-03-14,2025-03-14,株式会社Ｌｕｐｉｎｉａ,,株式会社,東京都,練馬区,光が丘３丁目９番１－２４０７号,,13,120,1790072,,,,,,,2025-03-14,1,,,,,ルパニア,0
879,4011701028151,新規,0,2025-03-14,2025-03-14,株式会社ＧＯ,,株式会社,東京都,江戸川区,江戸川３丁目１５番地３ラファール江戸川３０４,,13,123,1320013,,,,,,,2025-03-14,1,,,,,ゴー,0
883,4011801045781,新規,0,2025-03-14,2025-03-14,五輪ホールディングス株式会社,,株式会社,東京都,葛飾区,東新小岩６丁目２１番１－５０９号トミンハイム東新小岩六丁目,,13,122,1240023,,,,,,,2025-03-14,1,,,,,ゴリンホールディングス,0
884,4011801045807,新規,0,2025-03-14,2025-03-14,株式会社Ｕｍａｋｕｃｈｉ,,株式会社,東京都,足立区,西新井１丁目５－９Ｎ,,13,121,1230841,,,,,,,2025-03-14,1,,,,,ウマクチ,0
886,4011803006740,新規,0,2025-03-14,2025-03-14,合同会社ハッピーベジフル,,合同会社,東京都,葛飾区,白鳥１丁目２－１３,,13,122,1250063,,,,,,,2025-03-14,1,,,,,ハッピーベジフル,0
890,4012801023819,新規,0,2025-03-14,2025-03-14,株式会社三浦設計,,株式会社,東京都,昭島市,玉川町３丁目１６番１４号三浦ビル,,13,207,1960034,,,,,,,2025-03-14,1,,,,,ミウラセッケイ,0
891,4012801023827,新規,0,2025-03-14,2025-03-14,株式会社アクセレス,,株式会社,東京都,日野市,南平１丁目２６番地の４８,,13,212,1910041,,,,,,,2025-03-14,1,,,,,アクセレス,0
892,4013103001414,新規,0,2025-03-14,2025-03-14,合同会社マスターマインド,,合同会社,東京都,あきる野市,野辺３６７番地２,,13,228,1970823,,,,,,,2025-03-14,1,,,,,マスターマインド,0
894,4013301053918,新規,0,2025-03-14,2025-03-14,株式会社ジェイエム,,株式会社,東京都,豊島区,南池袋２丁目２９番１０号９Ｆ,,13,116,1710022,,,,,,,2025-03-14,1,,,,,ジェイエム,0
898,4020001161827,新規,0,2025-03-14,2025-03-14,Ｃｒｏｓｓｗｉｄｅ株式会社,,株式会社,神奈川県,横浜市青葉区,荏田北１丁目１２番地６８,,14,117,2250015,,,,,,,2025-03-14,1,,,,,クロスワイド,0
899,4020001161876,新規,0,2025-03-14,2025-03-14,株式会社ＲｅＬＩＦＥ住設,,株式会社,神奈川県,横浜市青葉区,しらとり台２２番地１０ドゥフォルトゥーナ１１２号室,,14,117,2270054,,,,,,,2025-03-14,1,,,,,リライフジュウセツ,0
900,4020001161884,新規,0,2025-03-14,2025-03-14,株式会社磯目鉄筋工業,,株式会社,神奈川県,川崎市宮前区,宮崎６４９番地の１,,14,136,2160033,,,,,,,2025-03-14,1,,,,,イソメテッキンコウギョウ,0
917,4030001165315,新規,0,2025-03-14,2025-03-14,東寧株式会社,,株式会社,埼玉県,川越市,大字的場５３８－５,,11,201,3501101,,,,,,,2025-03-14,1,,,,,トウネイ,0
918,4030001165356,新規,0,2025-03-14,2025-03-14,ウエダヤ株式会社,,株式会社,埼玉県,上尾市,仲町１丁目７番１４号２０２,,11,219,3620035,,,,,,,2025-03-14,1,,,,,ウエダヤ,0
919,4030001165397,新規,0,2025-03-14,2025-03-14,ＧＬＤＢＳ株式会社,,株式会社,埼玉県,所沢市,緑町４丁目３２番１５号トリートウェルマンション２０４号,,11,208,3591111,,,,,,,2025-03-14,1,,,,,ジエルデビエス,0
926,4040001137767,新規,0,2025-03-14,2025-03-14,株式会社ケアプロダクト,,株式会社,千葉県,千葉市美浜区,幸町２丁目１５番７棟２０２号,,12,106,2610001,,,,,,,2025-03-14,1,,,,,ケアプロダクト,0
932,4040003027074,新規,0,2025-03-14,2025-03-14,Ａｒｔｉｓｔｉｃ合同会社,,合同会社,千葉県,浦安市,入船３丁目３４番２０４号,,12,227,2790012,,,,,,,2025-03-14,1,,,,,アーティスティック,0
933,4040003027116,新規,0,2025-03-14,2025-03-14,合同会社ｖｉｓｉｂｌｅ,,合同会社,千葉県,流山市,後平井１７０番地（運Ｂ１０２街区１）７２３,,12,220,2700151,,,,,,,2025-03-14,1,,,,,ビジブル,0
935,4040005022684,新規,0,2025-03-14,2025-03-14,特定非営利活動法人クレスコ,,その他の設立登記法人,千葉県,市川市,堀之内３丁目２３番１３号メルベーユ堀之内３Ｂ,,12,203,2720837,,,,,,,2025-03-14,1,,,,,クレスコ,0
937,4050001056339,新規,0,2025-03-14,2025-03-14,株式会社アズＯＮＥ飯田屋,,株式会社,茨城県,水戸市,見川町２５６３番地１２３３,,08,201,3100913,,,,,,,2025-03-14,1,,,,,アズワンイイダヤ,0
939,4060001038030,新規,0,2025-03-14,2025-03-14,株式会社リケン,,株式会社,栃木県,小山市,大字島田４５４－２,,09,208,3230004,,,,,,,2025-03-14,1,,,,,リケン,0
942,4070001042709,新規,0,2025-03-14,2025-03-14,株式会社かねぶん,,株式会社,群馬県,高崎市,保渡田町１６１６番地２,,10,202,3703533,,,,,,,2025-03-14,1,,,,,カネブン,0
943,4070001042717,新規,0,2025-03-14,2025-03-14,株式会社エフォートプラン,,株式会社,群馬県,伊勢崎市,宮子町３２３８番地１ステーブル宮子,,10,204,3720801,,,,,,,2025-03-14,1,,,,,エフォートプラン,0
944,4070001042733,新規,0,2025-03-14,2025-03-14,こころ村株式会社,,株式会社,群馬県,高崎市,片岡町１丁目１３番地２１,,10,202,3700862,,,,,,,2025-03-14,1,,,,,ココロムラ,0
947,4080003003410,新規,0,2025-03-14,2025-03-14,合同会社ＮＥＣＲ,,合同会社,静岡県,静岡市葵区,紺屋町４番地の１０旅館会館ビル２階,,22,101,4200852,,,,,,,2025-03-14,1,,,,,エヌイーシーアール,0
952,4110003005700,新規,0,2025-03-14,2025-03-14,リブレード合同会社,,合同会社,新潟県,小千谷市,大字小粟田７０９番地１,,15,208,9470041,,,,,,,2025-03-14,1,,,,,リブレード,0
964,4120001273620,新規,0,2025-03-14,2025-03-14,株式会社凪,,株式会社,大阪府,大阪市北区,西天満３丁目６番２２号,,27,127,5300047,,,,,,,2025-03-14,1,,,,,ナギ,0
965,4120001273645,新規,0,2025-03-14,2025-03-14,Ｇｏｌｄｍｏｏｎ株式会社,,株式会社,大阪府,大阪市中央区,南船場１丁目１３番１５長堀三栄プラザ３１５号,,27,128,5420081,,,,,,,2025-03-14,1,,,,,ゴールドムーン,0
966,4120001273884,新規,0,2025-03-14,2025-03-14,株式会社白樺,,株式会社,大阪府,大阪市中央区,道頓堀１丁目東５番１９号花昭ビル,,27,128,5420071,,,,,,,2025-03-14,1,,,,,シラカバ,0
968,4120005024838,新規,0,2025-03-14,2025-03-14,一般社団法人ＲＥＳＣＵＥ‐１,,その他の設立登記法人,大阪府,大阪市北区,梅田１丁目１－３大阪駅前第３ビル２９階１－１－１号室,,27,127,5300001,,,,,,,2025-03-14,1,,,,,レスキューワン,0
969,4120101071172,新規,0,2025-03-14,2025-03-14,泉州ベジファーム株式会社,,株式会社,大阪府,泉南市,樽井２丁目２２番１０号町谷ビル２０２号室,,27,228,5900521,,,,,,,2025-03-14,1,,,,,センシュウベジファーム,0
970,4120101071239,新規,0,2025-03-14,2025-03-14,株式会社円直刃物,,株式会社,大阪府,堺市堺区,戎島町２丁６２番地１（５１８号）,,27,141,5900985,,,,,,,2025-03-14,1,,,,,エンジキハモノ,0
972,4120103006309,新規,0,2025-03-14,2025-03-14,航豊合同会社,,合同会社,大阪府,岸和田市,下野町２丁目６番１２号,,27,202,5960041,,,,,,,2025-03-14,1,,,,,コウホウ,0
975,4120901050598,新規,0,2025-03-14,2025-03-14,株式会社ジン,,株式会社,大阪府,茨木市,学園町５番５－３０７号,,27,211,5670833,,,,,,,2025-03-14,1,,,,,ジン,0
978,4122001038986,新規,0,2025-03-14,2025-03-14,株式会社彩り塗装,,株式会社,大阪府,八尾市,太田新町４丁目１３２番地,,27,212,5810039,,,,,,,2025-03-14,1,,,,,イロドリトソウ,0
979,4122001038994,新規,0,2025-03-14,2025-03-14,株式会社石徳,,株式会社,大阪府,東大阪市,西岩田３丁目５番３９－１８１５号,,27,227,5780947,,,,,,,2025-03-14,1,,,,,イシトク,0
984,4130001079174,新規,0,2025-03-14,2025-03-14,株式会社Ｍ’Ｇｌｏｉｒｅ,,株式会社,京都府,相楽郡南山城村,大字田山小字割尾坂３０番地８,,26,367,6191421,,,,,,,2025-03-14,1,,,,,エムグロワール,0
985,4130001079216,新規,0,2025-03-14,2025-03-14,株式会社バブルバレー,,株式会社,京都府,京都市上京区,一条通大宮西入鏡石町３０・３１・３２・３４番地合地,,26,102,6028203,,,,,,,2025-03-14,1,,,,,バブルバレー,0
994,4140001137757,新規,0,2025-03-14,2025-03-14,株式会社ＭｅｘＹｏｕ．,,株式会社,兵庫県,尼崎市,南塚口町７丁目１６番１７号,,28,202,6610012,,,,,,,2025-03-14,1,,,,,ミーユー,0
995,4140001137765,新規,0,2025-03-14,2025-03-14,株式会社日本ＥＭＣ,,株式会社,兵庫県,西宮市,上葭原町１番３０－５０１号,,28,204,6620954,,,,,,,2025-03-14,1,,,,,ニホンイーエムシー,0
996,4140001137773,新規,0,2025-03-14,2025-03-14,株式会社阪神化工製作所,,株式会社,兵庫県,尼崎市,潮江４丁目１番１０号,,28,202,6610976,,,,,,,2025-03-14,1,,,,,ハンシンカコウセイサクショ,0
997,4140001137781,新規,0,2025-03-14,2025-03-14,株式会社Ａｓｃｒｅａｔｅ,,株式会社,兵庫県,芦屋市,船戸町５番２６号,,28,206,6590093,,,,,,,2025-03-14,1,,,,,アスクリエイト,0
999,4140003021769,新規,0,2025-03-14,2025-03-14,ケンジロウ建装合同会社,,合同会社,兵庫県,神戸市灘区,大石東町２丁目６番１５－４０６号,,28,102,6570043,,,,,,,2025-03-14,1,,,,,ケンジロウケンソウ,0
1000,4140003021785,新規,0,2025-03-14,2025-03-14,合同会社Ｒｉｔａ,,合同会社,兵庫県,姫路市,白浜町乙９番地８,,28,201,6728023,,,,,,,2025-03-14,1,,,,,リタ,0
1002,4150003003485,新規,0,2025-03-14,2025-03-14,合同会社ティーマイナス,,合同会社,奈良県,香芝市,関屋２９番地,,29,210,6390255,,,,,,,2025-03-14,1,,,,,ティーマイナス,0
1009,4180001165837,新規,0,2025-03-14,2025-03-14,株式会社ＦａｍｉＳｐｈｅｒｅ,,株式会社,愛知県,尾張旭市,東本地ケ原町３丁目７４－１,,23,226,4880033,,,,,,,2025-03-14,1,,,,,ファミスフィア,0
1010,4180001165903,新規,0,2025-03-14,2025-03-14,株式会社第一商会,,株式会社,愛知県,名古屋市天白区,向が丘１丁目７０３番地,,23,116,4680012,,,,,,,2025-03-14,1,,,,,ダイイチショウカイ,0
1011,4180001165928,新規,0,2025-03-14,2025-03-14,東海インターナショナルトレーディングジャパン株式会社,,株式会社,愛知県,小牧市,掛割町５０番地１,,23,219,4850032,,,,,,,2025-03-14,1,,,,,トウカイインターナショナルトレーディングジャパン,0
1012,4180001165944,新規,0,2025-03-14,2025-03-14,株式会社ＭＡＫＥ　ＯＮＥ,,株式会社,愛知県,名古屋市中区,松原２丁目２番３３号,,23,106,4600017,,,,,,,2025-03-14,1,,,,,メイクワン,0
1013,4180005020988,新規,0,2025-03-14,2025-03-14,医療法人肩とひざの匠,,その他の設立登記法人,愛知県,名古屋市中川区,中野新町５丁目３９,,23,110,4540837,,,,,,,2025-03-14,1,,,,,カタトヒザノタクミ,0
1014,4180301039625,新規,0,2025-03-14,2025-03-14,株式会社エスクリプト,,株式会社,愛知県,西尾市,上矢田町五反田３１番地６,,23,213,4440313,,,,,,,2025-03-14,1,,,,,エスクリプト,0
1018,4190001032053,新規,0,2025-03-14,2025-03-14,株式会社福春工業,,株式会社,三重県,桑名郡木曽岬町,大字和泉２６６番地１,,24,303,4980803,,,,,,,2025-03-14,1,,,,,フクハルコウギョウ,0
1019,4190003004967,新規,0,2025-03-14,2025-03-14,合同会社Ｓｐｒｉｎｇ,,合同会社,三重県,伊賀市,上野池町１２９５番地の３,,24,216,5180853,,,,,,,2025-03-14,1,,,,,スプリング,0
1022,4200001043536,新規,0,2025-03-14,2025-03-14,株式会社ＧＩＦＴ,,株式会社,岐阜県,大垣市,南若森町２１８番地１,,21,202,5030976,,,,,,,2025-03-14,1,,,,,ギフト,0
1025,4220001026555,新規,0,2025-03-14,2025-03-14,株式会社ＯＭＩＳＯ,,株式会社,石川県,金沢市,東山２丁目６番２－２号,,17,201,9200831,,,,,,,2025-03-14,1,,,,,オミソ,0
1030,4250003003673,新規,0,2025-03-14,2025-03-14,合同会社望見ヶ丘,,合同会社,山口県,山陽小野田市,大字丸河内１３４１番地１４,,35,216,7560821,,,,,,,2025-03-14,1,,,,,ノゾミガオカ,0
1031,4250005008992,新規,0,2025-03-14,2025-03-14,企業組合ｍａｎｎａ,,その他の設立登記法人,山口県,周南市,本町２丁目１４番地,,35,215,7450036,,,,,,,2025-03-14,1,,,,,マンナ,0
1033,4260001039990,新規,0,2025-03-14,2025-03-14,株式会社吉田寝具店,,株式会社,岡山県,倉敷市,阿知２丁目３番１３号,,33,202,7100055,,,,,,,2025-03-14,1,,,,,ヨシダシングテン,0
1039,4290001109270,新規,0,2025-03-14,2025-03-14,株式会社ツバメの巣,,株式会社,福岡県,福岡市早良区,西新５丁目４番１７号,,40,137,8140002,,,,,,,2025-03-14,1,,,,,ツバメノス,0
1040,4290001109279,新規,0,2025-03-14,2025-03-14,株式会社ＡＳＵＮＡＲＯ不動産,,株式会社,福岡県,福岡市中央区,高砂１丁目１番２５号６Ｆ,,40,133,8100011,,,,,,,2025-03-14,1,,,,,アスナロフドウサン,0
1044,4290801031351,新規,0,2025-03-14,2025-03-14,株式会社ｅ‐ｔａｃ,,株式会社,福岡県,行橋市,中央３丁目５番２５号,,40,213,8240005,,,,,,,2025-03-14,1,,,,,イータック,0
1046,4300001014114,新規,0,2025-03-14,2025-03-14,株式会社スポーツバウンディア,,株式会社,佐賀県,鳥栖市,酒井西町８１７番地１,,41,203,8410042,,,,,,,2025-03-14,1,,,,,スポーツバウンディア,0
1047,4310001019500,新規,0,2025-03-14,2025-03-14,株式会社ヒナハナホリディ,,株式会社,長崎県,佐世保市,湊町４番１４号,,42,202,8570055,,,,,,,2025-03-14,1,,,,,ヒナハナホリディ,0
1048,4320001020977,新規,0,2025-03-14,2025-03-14,株式会社高橋建設,00138351,株式会社,大分県,別府市,荘園８組１,,44,202,8740838,,,,,,,2025-03-14,1,,,,,タカハシケンセツ,0
1054,4350003004868,新規,0,2025-03-14,2025-03-14,合同会社楽市楽座,,合同会社,宮崎県,宮崎市,太田４丁目２－１５Ｆステージ南宮崎５０３,,45,201,8800903,,,,,,,2025-03-14,1,,,,,ラクイチラクザ,0
1060,4370001052363,新規,0,2025-03-14,2025-03-14,株式会社慧陽社,,株式会社,宮城県,仙台市青葉区,中央２丁目２番地の３０,,04,101,9800021,,,,,,,2025-03-14,1,,,,,ケイヨウシャ,0
1062,4380001035169,新規,0,2025-03-14,2025-03-14,株式会社モクティ,,株式会社,福島県,田村市,常葉町西向字堂ケ入６２番地７,,07,211,9634603,,,,,,,2025-03-14,1,,,,,モクティ,0
1074,4430001093855,新規,0,2025-03-14,2025-03-14,ウイング・アパートニセコ株式会社,,株式会社,北海道,札幌市中央区,南九条西２丁目２番２５号,,01,101,0640809,,,,,,,2025-03-14,1,,,,,ウイングアパートニセコ,0
1075,4430001093863,新規,0,2025-03-14,2025-03-14,Ｓｕｂｔｉｔｌｅ株式会社,,株式会社,北海道,札幌市豊平区,西岡四条５丁目８番１号,,01,105,0620034,,,,,,,2025-03-14,1,,,,,サブタイトル,0
1077,4430003017382,新規,0,2025-03-14,2025-03-14,合同会社コスモス,,合同会社,北海道,滝川市,空知町２丁目５番２１号,,01,225,0730034,,,,,,,2025-03-14,1,,,,,コスモス,0
1078,4430005015178,新規,0,2025-03-14,2025-03-14,一般社団法人ソリスメディカル,,その他の設立登記法人,北海道,札幌市東区,北六条東３丁目１番地１ダ・ヴィンチモール２階,,01,103,0600906,,,,,,,2025-03-14,1,,,,,ソリスメディカル,0
1082,4450001014561,新規,0,2025-03-14,2025-03-14,株式会社ナクティブ,,株式会社,北海道,稚内市,富岡３丁目２６番３号,,01,214,0970012,,,,,,,2025-03-14,1,,,,,ナクティブ,0
1096,5010001253120,新規,0,2025-03-14,2025-03-14,ＰｏｃｋｅｔＲｅａｌ株式会社,,株式会社,東京都,千代田区,神田和泉町１番地６－１６ヤマトビル４０５,,13,101,1010024,,,,,,,2025-03-14,1,,,,,ポケットリアル,0
1097,5010001253129,新規,0,2025-03-14,2025-03-14,株式会社誠心誠意,,株式会社,東京都,中央区,日本橋茅場町１丁目９－２,,13,102,1030025,,,,,,,2025-03-14,1,,,,,セイシンセイイ,0
1098,5010001253137,新規,0,2025-03-14,2025-03-14,ｏｔｔｏ．ｏｔｔｏ株式会社,,株式会社,東京都,中央区,銀座１丁目１２番４号Ｎ＆ＥＢＬＤ．６Ｆ,,13,102,1040061,,,,,,,2025-03-14,1,,,,,オットオット,0
1099,5010001253161,新規,0,2025-03-14,2025-03-14,株式会社パラティウム,,株式会社,東京都,千代田区,神田須田町１丁目７番８号ＶＯＲＴ秋葉原ＩＶ２Ｆ,00138349,13,101,1010041,,,,,,,2025-03-14,1,,,,,パラティウム,0
1100,5010001253178,新規,0,2025-03-14,2025-03-14,ニチメ株式会社,,株式会社,東京都,千代田区,神田佐久間町３丁目３８－２０１,,13,101,1010025,,,,,,,2025-03-14,1,,,,,ニチメ,0
1101,5010001253194,新規,0,2025-03-14,2025-03-14,東一興産株式会社,,株式会社,東京都,小笠原村,母島字元地,,13,421,1002211,,,,,,,2025-03-14,1,,,,,トウイチコウサン,0
1102,5010001253211,新規,0,2025-03-14,2025-03-14,株式会社Ｋｉｆｆｙ,,株式会社,東京都,千代田区,丸の内１丁目１１番１号,,13,101,1000005,,,,,,,2025-03-14,1,,,,,キッフィー,0
1103,5010003046745,新規,0,2025-03-14,2025-03-14,Ｔｏｋｙｏ　Ｇａｌｅ合同会社,,合同会社,東京都,千代田区,大手町１丁目７番２号東京サンケイビル２７階,,13,101,1000004,,,,,,,2025-03-14,1,,,,,トウキョウゲイル,0
1104,5010003046753,新規,0,2025-03-14,2025-03-14,合同会社ｓｃｅｎｔｍｏｏｎ,,合同会社,東京都,文京区,湯島３丁目４２番３号桂昇上野湯島ビル８階,,13,105,1130034,,,,,,,2025-03-14,1,,,,,セントムーン,0
1105,5010003046761,新規,0,2025-03-14,2025-03-14,合同会社ティーエヌシー,,合同会社,東京都,中央区,銀座１丁目２２番１１号銀座大竹ビジデンス２Ｆ,,13,102,1040061,,,,,,,2025-03-14,1,,,,,ティーエヌシー,0
1107,5010005039755,新規,0,2025-03-14,2025-03-14,一般社団法人日本梁山泊,,その他の設立登記法人,東京都,文京区,湯島２丁目１番１１号サンビル２０１号室,,13,105,1130034,,,,,,,2025-03-14,1,,,,,ニホンリョウザンパク,0
1108,5010005039763,新規,0,2025-03-14,2025-03-14,一般社団法人流星,,その他の設立登記法人,東京都,千代田区,内神田１丁目３番７号４０１あすな会計事務所内,,13,101,1010047,,,,,,,2025-03-14,1,,,,,リュウセイ,0
1114,5010401188668,新規,0,2025-03-14,2025-03-14,株式会社ＥＸＯファクター,,株式会社,東京都,港区,南青山１丁目１０番３号,,13,103,1070062,,,,,,,2025-03-14,1,,,,,エクソファクター,0
1115,5010401188791,新規,0,2025-03-14,2025-03-14,株式会社Ｓｔｕｄｉｏ　ＫＯＭ,,株式会社,東京都,港区,赤坂７丁目５番２７－９０４号,,13,103,1070052,,,,,,,2025-03-14,1,,,,,スタジオコム,0
1116,5010401188858,新規,0,2025-03-14,2025-03-14,株式会社からんころん,,株式会社,東京都,港区,元麻布３丁目１０番４号,,13,103,1060046,,,,,,,2025-03-14,1,,,,,カランコロン,0
1117,5010401188866,新規,0,2025-03-14,2025-03-14,株式会社サンライズ,,株式会社,東京都,港区,麻布台２丁目３－２３、６階,,13,103,1060041,,,,,,,2025-03-14,1,,,,,サンライズ,0
1118,5010401188882,新規,0,2025-03-14,2025-03-14,株式会社ＺＡＫＵＲＯ,,株式会社,東京都,港区,北青山１丁目３番１号アールキューブ青山３階,,13,103,1070061,,,,,,,2025-03-14,1,,,,,ザクロ,0
1119,5010401188899,新規,0,2025-03-14,2025-03-14,株式会社たまおじ,,株式会社,東京都,港区,芝浦４丁目１０番１号キャピタルマークタワー３７０３,,13,103,1080023,,,,,,,2025-03-14,1,,,,,タマオジ,0
1120,5010401188924,新規,0,2025-03-14,2025-03-14,ロイハーベスト株式会社,,株式会社,東京都,港区,南青山２丁目２番１５号ＷｉｎＡｏｙａｍａビルＵＦＣ６階,,13,103,1070062,,,,,,,2025-03-14,1,,,,,ロイハーベスト,0
1121,5010401188957,新規,0,2025-03-14,2025-03-14,株式会社ウェヌシス,,株式会社,東京都,港区,北青山１丁目３－３三橋ビル３階,,13,103,1070061,,,,,,,2025-03-14,1,,,,,ウェヌシス,0
1123,5010402039127,新規,0,2025-03-14,2025-03-14,有限会社アニューミュージック,,有限会社,東京都,港区,麻布十番４丁目３番１号,,13,103,1060045,,,,,,,2025-03-14,1,,,,,アニューミュージック,0
1124,5010403034614,新規,0,2025-03-14,2025-03-14,Ｇｏｄｄｅｓｓ合同会社,,合同会社,東京都,港区,芝公園３丁目５番１５号,,13,103,1050011,,,,,,,2025-03-14,1,,,,,ゴッデス,0
1126,5010503007759,新規,0,2025-03-14,2025-03-14,金瑞合同会社,,合同会社,東京都,台東区,上野５丁目１３－４,,13,106,1100005,,,,,,,2025-03-14,1,,,,,キンズイ,0
1129,5010701047383,新規,0,2025-03-14,2025-03-14,株式会社ＳＶＣ　Ｇａｍｅｓ,,株式会社,東京都,品川区,西五反田７丁目１３番６号,,13,109,1410031,,,,,,,2025-03-14,1,,,,,エスブイシーゲームス,0
1130,5010801035916,新規,0,2025-03-14,2025-03-14,一＿株式会社,00138346,株式会社,東京都,大田区,東海３丁目７番３号東海ビル３０７室,,13,111,1430001,,,,,,,2025-03-14,1,,,,,イチゼイ,0
1131,5010801035924,新規,0,2025-03-14,2025-03-14,株式会社ＫＩＭＯＮＯ　ＴＯＤＡＹ,,株式会社,東京都,大田区,北千束３丁目３０－７ＳＫハウス１０２,,13,111,1450062,,,,,,,2025-03-14,1,,,,,キモノトゥデイ,0
1132,5010803005322,新規,0,2025-03-14,2025-03-14,合同会社ＥＩＺＯ,,合同会社,東京都,大田区,西馬込１丁目３３番１３号,,13,111,1430026,,,,,,,2025-03-14,1,,,,,エイゾー,0
1135,5010901056993,新規,0,2025-03-14,2025-03-14,ＤＦ株式会社,,株式会社,東京都,世田谷区,下馬２丁目２７番１３－６０１号,,13,112,1540002,,,,,,,2025-03-14,1,,,,,ディーエフ,0
1136,5010901057018,新規,0,2025-03-14,2025-03-14,株式会社スリーバイナイン,,株式会社,東京都,世田谷区,用賀１丁目４番８号,,13,112,1580097,,,,,,,2025-03-14,1,,,,,スリーバイナイン,0
1139,5011003021110,新規,0,2025-03-14,2025-03-14,ドットＢＵＬＬ合同会社,,合同会社,東京都,渋谷区,道玄坂１丁目１０番８号渋谷道玄坂東急ビル２階－Ｃ,,13,113,1500043,,,,,,,2025-03-14,1,,,,,ドットブル,0
1140,5011003021151,新規,0,2025-03-14,2025-03-14,合同会社藤野,,合同会社,東京都,渋谷区,道玄坂１丁目１０番８号渋谷道玄坂東急ビル２Ｆ－Ｃ,,13,113,1500043,,,,,,,2025-03-14,1,,,,,フジノ,0
1146,5011101110987,新規,0,2025-03-14,2025-03-14,ＢＩＶＡＬＥ株式会社,,株式会社,東京都,新宿区,西落合４丁目２５番１６－１１０１号,,13,104,1610031,,,,,,,2025-03-14,1,,,,,ビヴァーレ,0
1149,5011403004648,新規,0,2025-03-14,2025-03-14,合星雲合同会社,,合同会社,東京都,板橋区,小豆沢４丁目２７－１１兆豊小豆沢ビル４１６号室,,13,119,1740051,,,,,,,2025-03-14,1,,,,,ゴウセイウン,0
1154,5011601028498,新規,0,2025-03-14,2025-03-14,ＡＳＣ商事株式会社,,株式会社,東京都,練馬区,田柄４丁目３８番７－６０３号,,13,120,1790073,,,,,,,2025-03-14,1,,,,,エーエスシーショウジ,0
1158,5011801045806,新規,0,2025-03-14,2025-03-14,株式会社城北みらい住研,,株式会社,東京都,足立区,江北４丁目３番８号,,13,121,1230872,,,,,,,2025-03-14,1,,,,,ジョウホクミライジュウケン,0
1164,5012801023818,新規,0,2025-03-14,2025-03-14,株式会社ＳＬＡＳＨ,,株式会社,東京都,立川市,曙町２丁目１５番１１号第七グリーンビル３階,00138353,13,202,1900012,,,,,,,2025-03-14,1,,,,,スラッシュ,0
1165,5012803003660,新規,0,2025-03-14,2025-03-14,合同会社テクノデベロップメント,,合同会社,東京都,国分寺市,光町１丁目１８番地４,,13,214,1850034,,,,,,,2025-03-14,1,,,,,テクノデベロップメント,0
1176,5020001161850,新規,0,2025-03-14,2025-03-14,株式会社ＺＯＵ,,株式会社,神奈川県,横浜市西区,北幸２丁目１０番４８号むつみビル３階,,14,103,2200004,,,,,,,2025-03-14,1,,,,,ゾウ,0
1178,5020003028049,新規,0,2025-03-14,2025-03-14,合同会社ＬＯＴＵＳ,,合同会社,神奈川県,横浜市都筑区,茅ケ崎東３丁目１６番８号,,14,118,2240033,,,,,,,2025-03-14,1,,,,,ロータス,0
1179,5021001084736,新規,0,2025-03-14,2025-03-14,株式会社ＭＥＡＮＳ,,株式会社,神奈川県,愛甲郡愛川町,中津２０９８－６,,14,401,2430303,,,,,,,2025-03-14,1,,,,,ミーンズ,0
1182,5021003015697,新規,0,2025-03-14,2025-03-14,合同会社Ｈｙｐｅｒｉｏｎ,,合同会社,神奈川県,厚木市,中町２丁目７番１８号２Ｆ,,14,212,2430018,,,,,,,2025-03-14,1,,,,,ハイピリオン,0
1183,5021003015739,新規,0,2025-03-14,2025-03-14,合同会社ＢＲＩＧＨＩＤ,,合同会社,神奈川県,大和市,深見１５５番地,,14,213,2420011,,,,,,,2025-03-14,1,,,,,ブリジッド,0
1198,5030001165339,新規,0,2025-03-14,2025-03-14,フィクシー株式会社,,株式会社,埼玉県,川口市,大字差間３４６番地１,,11,203,3330816,,,,,,,2025-03-14,1,,,,,フィクシー,0
1199,5030001165438,新規,0,2025-03-14,2025-03-14,株式会社白川ホールディングス,,株式会社,埼玉県,戸田市,中町２丁目２１番１９号,,11,224,3350012,,,,,,,2025-03-14,1,,,,,シラカワホールディングス,0
1200,5030001165454,新規,0,2025-03-14,2025-03-14,Ａｒｃｕｓ　Ｖｉｓｉｏｎ　Ｗｏｒｋｓ株式会社,,株式会社,埼玉県,所沢市,東所沢和田１丁目３‐５ホウエイパレス３０５,,11,208,3590023,,,,,,,2025-03-14,1,,,,,アルクスヴィジョンワークス,0
1206,5030003026324,新規,0,2025-03-14,2025-03-14,合同会社ＨＢ,,合同会社,埼玉県,さいたま市中央区,上落合２丁目６番１－１６０６号,,11,105,3380001,,,,,,,2025-03-14,1,,,,,エイチビー,0
1210,5040001137741,新規,0,2025-03-14,2025-03-14,株式会社吉光,,株式会社,千葉県,野田市,なみき３丁目１１番地２,,12,208,2700229,,,,,,,2025-03-14,1,,,,,ヨシミツ,0
1211,5040001137808,新規,0,2025-03-14,2025-03-14,株式会社ＶＩＬＬＥＴＡ,,株式会社,千葉県,柏市,南柏中央２番地１７,,12,217,2770075,,,,,,,2025-03-14,1,,,,,ヴィレッタ,0
1217,5040003027065,新規,0,2025-03-14,2025-03-14,合同会社ＹＡＭＡＴＯ,,合同会社,千葉県,市原市,西五所２８－８リバーストーン２－１０１,,12,219,2900065,,,,,,,2025-03-14,1,,,,,ヤマト,0
1225,5070001042724,新規,0,2025-03-14,2025-03-14,ｍ株式会社,,株式会社,群馬県,吾妻郡草津町,大字草津４６４－３２０,,10,426,3771711,,,,,,,2025-03-14,1,,,,,エム,0
1227,5070005010363,新規,0,2025-03-14,2025-03-14,一般社団法人バンソー,,その他の設立登記法人,群馬県,前橋市,上大屋町３９２番地３,,10,201,3710222,,,,,,,2025-03-14,1,,,,,バンソー,0
1228,5080101025363,新規,0,2025-03-14,2025-03-14,株式会社Ｃａｔｉｏｎ,,株式会社,静岡県,三島市,東本町１丁目１４番２０号,,22,206,4110831,,,,,,,2025-03-14,1,,,,,カチオン,0
1235,5110001039113,新規,0,2025-03-14,2025-03-14,株式会社Ｌｉｎｋ　ｉｎｎｏｖａｔｉｏｎ,,株式会社,新潟県,燕市,秋葉町４丁目５番５６号,,15,213,9591261,,,,,,,2025-03-14,1,,,,,リンクイノベーション,0
1245,5120001273652,新規,0,2025-03-14,2025-03-14,株式会社ＬＩＧＨＴ９,,株式会社,大阪府,大阪市西区,千代崎１丁目７番６号３Ｆ,,27,106,5500023,,,,,,,2025-03-14,1,,,,,ライトナイン,0
1246,5120001273669,新規,0,2025-03-14,2025-03-14,硅基智能株式会社,,株式会社,大阪府,大阪市阿倍野区,播磨町１丁目２３番２２号１０１号室,,27,119,5450022,,,,,,,2025-03-14,1,,,,,ケイキチノウ,0
1247,5120001273677,新規,0,2025-03-14,2025-03-14,株式会社東京屋,,株式会社,大阪府,大阪市中央区,本町４丁目８番１号,,27,128,5410053,,,,,,,2025-03-14,1,,,,,トウキョウヤ,0
1248,5120003028864,新規,0,2025-03-14,2025-03-14,エコ・システム合同会社,,合同会社,大阪府,大阪市住吉区,大領２丁目６番３０－２０３号,,27,120,5580001,,,,,,,2025-03-14,1,,,,,エコシステム,0
1249,5120003028914,新規,0,2025-03-14,2025-03-14,ｈａｍｍｏｃｋ合同会社,,合同会社,大阪府,大阪市北区,梅田大阪駅前第２ビル１２‐１２,,27,127,5300000,,,,,,,2025-03-14,1,,,,,ハモック,0
1250,5120003028930,新規,0,2025-03-14,2025-03-14,合同会社ＳｍｉｌｅＦｏｒｅｖｅｒＳｔｕｄｉｏ,,合同会社,大阪府,大阪市北区,梅田１丁目２番２号大阪駅前第２ビル１２‐１２,,27,127,5300001,,,,,,,2025-03-14,1,,,,,スマイルフォーエバースタジオ,0
1252,5120101071262,新規,0,2025-03-14,2025-03-14,株式会社まるよし左官工業,,株式会社,大阪府,高石市,千代田２丁目８番１７号,,27,225,5920005,,,,,,,2025-03-14,1,,,,,マルヨシサカンコウギョウ,0
1253,5120101071270,新規,0,2025-03-14,2025-03-14,株式会社ＲＭエンタープライズ,,株式会社,大阪府,堺市堺区,大浜南町１丁３番１０号,,27,141,5900976,,,,,,,2025-03-14,1,,,,,アールエムエンタープライズ,0
1256,5120103006324,新規,0,2025-03-14,2025-03-14,合同会社８ｅｄ　Ｓｔｕｄｉｏ,,合同会社,大阪府,岸和田市,下松町９９９番地,,27,202,5960823,,,,,,,2025-03-14,1,,,,,エイティッドスタジオ,0
1265,5130001079223,新規,0,2025-03-14,2025-03-14,株式会社木麗屋,,株式会社,京都府,京都市南区,唐橋芦辺町１３番地３,00138352,26,107,6018455,,,,,,,2025-03-14,1,,,,,キレイヤ,0
1271,5140001137698,新規,0,2025-03-14,2025-03-14,株式会社勝巳建設,,株式会社,兵庫県,姫路市,白国２丁目３２５番地１,,28,201,6700808,,,,,,,2025-03-14,1,,,,,カツミケンセツ,0
1272,5140001137707,新規,0,2025-03-14,2025-03-14,Ａｋａｒｉ株式会社,,株式会社,兵庫県,西宮市,平松町７番１６－２０１号,,28,204,6620044,,,,,,,2025-03-14,1,,,,,アカリ,0
1273,5140001137756,新規,0,2025-03-14,2025-03-14,株式会社龍野発酵食企画,,株式会社,兵庫県,たつの市,龍野町中霞城３６番地,,28,229,6794170,,,,,,,2025-03-14,1,,,,,タツノハッコウショクキカク,0
1274,5140001137764,新規,0,2025-03-14,2025-03-14,株式会社グランエステート,,株式会社,兵庫県,神戸市中央区,北長狭通５丁目１番２１号,,28,110,6500012,,,,,,,2025-03-14,1,,,,,グランエステート,0
1275,5140003021776,新規,0,2025-03-14,2025-03-14,廣新祥合同会社,,合同会社,兵庫県,神戸市中央区,野崎通１丁目３－１,,28,110,6510054,,,,,,,2025-03-14,1,,,,,コウシンショウ,0
1276,5140003021784,新規,0,2025-03-14,2025-03-14,ＢＥ　ｃｕｌｔｉｖａｔｅ合同会社,,合同会社,兵庫県,神戸市須磨区,永楽町２丁目２番１１号シャーメゾン須磨永楽町１０１,,28,107,6540004,,,,,,,2025-03-14,1,,,,,ビーカルティベイト,0
1283,5160003003418,新規,0,2025-03-14,2025-03-14,合同会社ＳＭＩＬＥＹ,,合同会社,滋賀県,野洲市,比留田９５７番地,,25,210,5202422,,,,,,,2025-03-14,1,,,,,スマイリー,0
1290,5180005020987,新規,0,2025-03-14,2025-03-14,医療法人七彦会,,その他の設立登記法人,愛知県,名古屋市港区,七反野１丁目９０１番地,,23,111,4550884,,,,,,,2025-03-14,1,,,,,ナナヒコカイ,0
1291,5180301039624,新規,0,2025-03-14,2025-03-14,ＨＹホールディングス株式会社,,株式会社,愛知県,豊川市,小田渕町２丁目４３番地,,23,207,4420844,,,,,,,2025-03-14,1,,,,,エイチワイホールディングス,0
1292,5190005012026,新規,0,2025-03-14,2025-03-14,医療法人進愛会,,その他の設立登記法人,三重県,津市,鳥居町２７８番地６,,24,201,5140005,,,,,,,2025-03-14,1,,,,,シンアイカイ,0
1293,5200001043535,新規,0,2025-03-14,2025-03-14,株式会社ＯＫＢＣ１,,株式会社,岐阜県,大垣市,郭町２丁目２５番地,,21,202,5030887,,,,,,,2025-03-14,1,,,,,オオケイビイシイワン,0
1296,5210003001894,新規,0,2025-03-14,2025-03-14,合同会社波,,合同会社,福井県,福井市,福町３６－１０７－１,,18,201,9188027,,,,,,,2025-03-14,1,,,,,ナミ,0
1298,5220001026546,新規,0,2025-03-14,2025-03-14,アイエ株式会社,,株式会社,石川県,鹿島郡中能登町,能登部下５６部１９番地,,17,407,9291604,,,,,,,2025-03-14,1,,,,,アイエ,0
1299,5220003003972,新規,0,2025-03-14,2025-03-14,合同会社ＪＩＮＤＯＵ　ＣＲＥＡＴＩＯＮ,,合同会社,石川県,鳳珠郡能登町,字瑞穂１８字院内８３番地,,17,463,9270311,,,,,,,2025-03-14,1,,,,,ジンドウクリエイション,0
1300,5240001064668,新規,0,2025-03-14,2025-03-14,株式会社ｍａｈａｌｏ,,株式会社,広島県,福山市,新涯町４丁目７番１１－２０２号,,34,207,7210955,,,,,,,2025-03-14,1,,,,,マハロ,0
1302,5240003007113,新規,0,2025-03-14,2025-03-14,合同会社飛翔,,合同会社,広島県,福山市,千田町１丁目５番１３号,,34,207,7200017,,,,,,,2025-03-14,1,,,,,ヒショウ,0
1303,5250001021049,新規,0,2025-03-14,2025-03-14,ＬＩＦＥ　ＲｅＣＡＲＥ株式会社,,株式会社,山口県,光市,虹ケ丘１丁目７番３号,,35,210,7430031,,,,,,,2025-03-14,1,,,,,ライフリケア,0
1304,5250003003672,新規,0,2025-03-14,2025-03-14,合同会社ＨＡＲＵ,,合同会社,山口県,萩市,大字平安古町２８７番地の３,,35,204,7580074,,,,,,,2025-03-14,1,,,,,ハル,0
1314,5290003016514,新規,0,2025-03-14,2025-03-14,９６ｓｔｙｌｅ合同会社,,合同会社,福岡県,福岡市城南区,友丘４丁目１９番３号,,40,136,8140112,,,,,,,2025-03-14,1,,,,,クロスタイル,0
1315,5290801031367,新規,0,2025-03-14,2025-03-14,盛友株式会社,,株式会社,福岡県,北九州市小倉北区,中井１丁目５－１２雪下ビル１Ｆ－３,,40,106,8030836,,,,,,,2025-03-14,1,,,,,セイユウ,0
1322,5350003004867,新規,0,2025-03-14,2025-03-14,きくらげ堂産業合同会社,,合同会社,宮崎県,西都市,大字三納９５４１番地１,,45,208,8810101,,,,,,,2025-03-14,1,,,,,キクラゲドウサンギョウ,0
1323,5350003004875,新規,0,2025-03-14,2025-03-14,合同会社ｅｑｕａｌｉｔｙ,,合同会社,宮崎県,西都市,大字清水１５８番地,,45,208,8810004,,,,,,,2025-03-14,1,,,,,イクオリティ,0
1324,5360001034923,新規,0,2025-03-14,2025-03-14,株式会社ＩＲＯＤＯＲＩ．,,株式会社,沖縄県,南城市,知念字海野７９番地,,47,215,9011504,,,,,,,2025-03-14,1,,,,,イロドリ,0
1326,5370001052354,新規,0,2025-03-14,2025-03-14,株式会社アイキューシステム,,株式会社,宮城県,仙台市若林区,卸町５丁目５番１号仙台団地倉庫協同組合会館１０１,,04,103,9840015,,,,,,,2025-03-14,1,,,,,アイキューシステム,0
1328,5400001016974,新規,0,2025-03-14,2025-03-14,株式会社悟天吉,,株式会社,岩手県,盛岡市,仙北２丁目８－１山善ビル１－Ａ号室,,03,201,0200861,,,,,,,2025-03-14,1,,,,,ゴテンキチ,0
1338,5430001093895,新規,0,2025-03-14,2025-03-14,株式会社Ｃｒａｌｉａ,,株式会社,北海道,札幌市豊平区,豊平三条７丁目１番１０号,,01,105,0620903,,,,,,,2025-03-14,1,,,,,クレリア,0
1339,5430001093904,新規,0,2025-03-14,2025-03-14,土門コンサルタント株式会社,,株式会社,北海道,札幌市豊平区,平岸三条１８丁目３番１―２２０号,,01,105,0620933,,,,,,,2025-03-14,1,,,,,ドモンコンサルタント,0
1340,5430003017398,新規,0,2025-03-14,2025-03-14,マジェスティック合同会社,,合同会社,北海道,札幌市中央区,南二条西５丁目３１－１ＲＭＢｌｄ．７０１,,01,101,0600062,,,,,,,2025-03-14,1,,,,,マジェスティック,0
1341,5430005015177,新規,0,2025-03-14,2025-03-14,医療法人大口眼科クリニック,,その他の設立登記法人,北海道,札幌市中央区,北二条西２８丁目１番２６号エストラーダ円山２Ｆ,,01,101,0640822,,,,,,,2025-03-14,1,,,,,オオグチガンカクリニック,0
1344,5470003002834,新規,0,2025-03-14,2025-03-14,Ａｎｅｌａ合同会社,,合同会社,香川県,高松市,東ハゼ町１８番５,,37,201,7618054,,,,,,,2025-03-14,1,,,,,,0
1348,5500001026195,新規,0,2025-03-14,2025-03-14,株式会社エクシード,,株式会社,愛媛県,新居浜市,垣生６丁目４番１９号,,38,205,7920872,,,,,,,2025-03-14,1,,,,,エクシード,0
1356,6010001253136,新規,0,2025-03-14,2025-03-14,株式会社介護・福祉はたらきがいラボ,,株式会社,東京都,中央区,築地４丁目４番１５号東銀座ロイアルハイツ４０４,,13,102,1040045,,,,,,,2025-03-14,1,,,,,カイゴフクシハタラキガイラボ,0
1357,6010001253144,新規,0,2025-03-14,2025-03-14,株式会社ソフトブリッジクリエイションズ,,株式会社,東京都,千代田区,外神田２丁目１８番２１号楽器会館１０１,,13,101,1010021,,,,,,,2025-03-14,1,,,,,ソフトブリッジクリエイションズ,0
1358,6010001253152,新規,0,2025-03-14,2025-03-14,株式会社Ｉｎａｈｏ　Ｗｏｒｋｓ,,株式会社,東京都,中央区,銀座１丁目１２番４号Ｎ＆ＥＢＬＤ．６Ｆ,,13,102,1040061,,,,,,,2025-03-14,1,,,,,イナホワークス,0
1359,6010001253177,新規,0,2025-03-14,2025-03-14,ＳｔａｎｄａｒｄＦＦ株式会社,,株式会社,東京都,中央区,日本橋小舟町９番３号,,13,102,1030024,,,,,,,2025-03-14,1,,,,,スタンダードエフエフ,0
1360,6010001253202,新規,0,2025-03-14,2025-03-14,株式会社ＲＵＴＩＬＥ,,株式会社,東京都,中央区,日本橋浜町１丁目１０番５号プレール・ドゥーク日本橋浜町,,13,102,1030007,,,,,,,2025-03-14,1,,,,,ルチル,0
1361,6010001253210,新規,0,2025-03-14,2025-03-14,村崎製薬株式会社,00138350,株式会社,東京都,文京区,千石４丁目１４番９号,,13,105,1120011,,,,,,,2025-03-14,1,,,,,ムラサキセイヤク,0
1365,6010005039754,新規,0,2025-03-14,2025-03-14,ＴＬＣもりみず小水力調査一般社団法人,,その他の設立登記法人,東京都,中央区,京橋２丁目１２番６号ＡＯＪ税理士法人内,,13,102,1040031,,,,,,,2025-03-14,1,,,,,ティーエルシーモリミズショウスイリョクチョウサ,0
1366,6010101016566,新規,0,2025-03-14,2025-03-14,株式会社ＲＫ,,株式会社,東京都,八王子市,上柚木４１５番地３,,13,201,1920373,,,,,,,2025-03-14,1,,,,,アールケー,0
1368,6010103002531,新規,0,2025-03-14,2025-03-14,合同会社ＩＣ　ＲｅＨＯＭＥ,,合同会社,東京都,八王子市,西寺方町３３０－１スパーブＡ１０４,,13,201,1920153,,,,,,,2025-03-14,1,,,,,アイシーリフォーム,0
1375,6010401188758,新規,0,2025-03-14,2025-03-14,株式会社投資情報システムズ,,株式会社,東京都,港区,南青山２丁目２番１５号,,13,103,1070062,,,,,,,2025-03-14,1,,,,,トウシジョウホウシステムズ,0
1376,6010401188782,新規,0,2025-03-14,2025-03-14,株式会社ＢＥＬＮＡＣＥ,,株式会社,東京都,港区,白金台５丁目１３－３１,,13,103,1080071,,,,,,,2025-03-14,1,,,,,ベルナス,0
1377,6010401188898,新規,0,2025-03-14,2025-03-14,ＬＯＶＥ＆ＰＥＡＣＨ株式会社,,株式会社,東京都,港区,南青山３丁目１番３６号青山丸竹ビル６Ｆ,,13,103,1070062,,,,,,,2025-03-14,1,,,,,ラブアンドピーチ,0
1378,6010401188931,新規,0,2025-03-14,2025-03-14,ＮＯ．７株式会社,,株式会社,東京都,港区,新橋２丁目１１番１０号,,13,103,1050004,,,,,,,2025-03-14,1,,,,,ナンバーセブン,0
1381,6010403034613,新規,0,2025-03-14,2025-03-14,合同会社Ｔｈｅ　Ｑｕａｒｔｚ　Ｇｒｏｕｐ,,合同会社,東京都,港区,虎ノ門１丁目１６番６号虎ノ門ＲＡＰＯ－ＴＯビルＵＣＦ７階,,13,103,1050001,,,,,,,2025-03-14,1,,,,,ザクウォーツグループ,0
1382,6010403034646,新規,0,2025-03-14,2025-03-14,合同会社Ｓｏｉｅ,,合同会社,東京都,港区,元麻布２丁目５番３３－４０１号,,13,103,1060046,,,,,,,2025-03-14,1,,,,,ソワ,0
1387,6010601066945,新規,0,2025-03-14,2025-03-14,株式会社Ｃａｎａｅ,,株式会社,東京都,江東区,東砂８丁目５番７－９０９号,,13,108,1360074,,,,,,,2025-03-14,1,,,,,カナエ,0
1388,6010603011437,新規,0,2025-03-14,2025-03-14,Ｅｔｉｅｒ　Ｊａｐａｎ合同会社,,合同会社,東京都,江東区,豊洲６丁目２番３１－２３１５号,,13,108,1350061,,,,,,,2025-03-14,1,,,,,エティアジャパン,0
1389,6010801035915,新規,0,2025-03-14,2025-03-14,株式会社ＰｒａｉｓｅＡｒｔ,,株式会社,東京都,大田区,山王２丁目１番８号,,13,111,1430023,,,,,,,2025-03-14,1,,,,,プレイズアート,0
1390,6010801035923,新規,0,2025-03-14,2025-03-14,株式会社ワイドクロス,,株式会社,東京都,大田区,南馬込１丁目４９－２－２Ｆ,,13,111,1430025,,,,,,,2025-03-14,1,,,,,ワイドクロス,0
1393,6010803005321,新規,0,2025-03-14,2025-03-14,合同会社２４ＤＡＹｓ,,合同会社,東京都,大田区,久が原４丁目３６番９号,,13,111,1460085,,,,,,,2025-03-14,1,,,,,トゥエンティフォーデイズ,0
1394,6010901057009,新規,0,2025-03-14,2025-03-14,ＮＡＧＡＬＵＬＵ株式会社,,株式会社,東京都,世田谷区,桜３丁目２１番３号デュエット世田谷３０１,,13,112,1560053,,,,,,,2025-03-14,1,,,,,ナガルル,0
1399,6011001168381,新規,0,2025-03-14,2025-03-14,株式会社ワンモアゲーム,,株式会社,東京都,渋谷区,神泉町１０番１５号アネックス神泉３０１,,13,113,1500045,,,,,,,2025-03-14,1,,,,,ワンモアゲーム,0
1406,6011101110945,新規,0,2025-03-14,2025-03-14,日本Ｔ７株式会社,,株式会社,東京都,新宿区,東五軒町１番９号ＳＢＳ・Ｃ－８,,13,104,1620813,,,,,,,2025-03-14,1,,,,,ニホンティーセブン,0
1407,6011101110986,新規,0,2025-03-14,2025-03-14,株式会社Ｊａｐａｔｏｎ,,株式会社,東京都,新宿区,四谷４丁目１０番２号カサ・デ・セレサ２０２号室,,13,104,1600004,,,,,,,2025-03-14,1,,,,,ジャパトン,0
1408,6011103015655,新規,0,2025-03-14,2025-03-14,ステラ・フィールド合同会社,,合同会社,東京都,新宿区,西新宿３丁目３番１３号西新宿水間ビル６階,,13,104,1600023,,,,,,,2025-03-14,1,,,,,ステラフィールド,0
1412,6011701028174,新規,0,2025-03-14,2025-03-14,Ｓグループホールディングス株式会社,,株式会社,東京都,江戸川区,一之江４丁目１番３１号,,13,123,1320024,,,,,,,2025-03-14,1,,,,,エスグループホールディングス,0
1414,6011801045805,新規,0,2025-03-14,2025-03-14,株式会社Ｒｏｋｕｄａｎ,,株式会社,東京都,足立区,綾瀬３丁目１５番１０号,,13,121,1200005,,,,,,,2025-03-14,1,,,,,ロクダン,0
1419,6012801023825,新規,0,2025-03-14,2025-03-14,株式会社ＢＥＧＩＮＮＥＲＳ絆,,株式会社,東京都,立川市,柏町４丁目２４番地の１９,,13,202,1900004,,,,,,,2025-03-14,1,,,,,ビギナーズキズナ,0
1420,6012803003651,新規,0,2025-03-14,2025-03-14,合同会社イノベーションラボ,,合同会社,東京都,日野市,日野本町４丁目６番５号,,13,212,1910011,,,,,,,2025-03-14,1,,,,,イノベーションラボ,0
1421,6013101009647,新規,0,2025-03-14,2025-03-14,株式会社Ｚｅｎｉｔｈ,,株式会社,東京都,羽村市,神明台１丁目２８－４,,13,227,2050023,,,,,,,2025-03-14,1,,,,,ゼニス,0
1432,6020001161858,新規,0,2025-03-14,2025-03-14,Ｓｑｕａｒｅ　Ｎｅｘｕｓ株式会社,,株式会社,神奈川県,横浜市鶴見区,豊岡町１７－１９,,14,101,2300062,,,,,,,2025-03-14,1,,,,,スクエアネクサス,0
1433,6020001161899,新規,0,2025-03-14,2025-03-14,株式会社トップエイト,,株式会社,神奈川県,横浜市南区,六ツ川１丁目２８７番地２８,,14,105,2320066,,,,,,,2025-03-14,1,,,,,トップエイト,0
1438,6020003028064,新規,0,2025-03-14,2025-03-14,ＹＯＵＮＧ　ＧＩＶＥ　ＢＩＲＴＨ合同会社,,合同会社,神奈川県,横浜市港北区,大豆戸町５１６番地１藤和大倉山コープ６０４,,14,109,2220032,,,,,,,2025-03-14,1,,,,,ヤングギブバース,0
1440,6020005016744,新規,0,2025-03-14,2025-03-14,一般社団法人オペラワーク機構,,その他の設立登記法人,神奈川県,横浜市緑区,長津田４丁目１７番４９号,,14,113,2260027,,,,,,,2025-03-14,1,,,,,オペラワークキコウ,0
1441,6021001084727,新規,0,2025-03-14,2025-03-14,アバカス・アカウンティング株式会社,,株式会社,神奈川県,鎌倉市,津５９６番地,,14,204,2480032,,,,,,,2025-03-14,1,,,,,アバカスアカウンティング,0
1448,6030001165338,新規,0,2025-03-14,2025-03-14,株式会社ＧｏＴｒｕｓｔ．,,株式会社,埼玉県,川越市,菅原町１９番地１伊勢原六番館,,11,201,3500046,,,,,,,2025-03-14,1,,,,,ゴートラスト,0
1449,6030001165346,新規,0,2025-03-14,2025-03-14,株式会社ＵＮＩＴＹ,,株式会社,埼玉県,所沢市,林１丁目１８９番地１,,11,208,3591167,,,,,,,2025-03-14,1,,,,,ユニティー,0
1450,6030001165379,新規,0,2025-03-14,2025-03-14,株式会社Ｕ‐ＡＲＫ,,株式会社,埼玉県,草加市,遊馬町１１９番地５,,11,221,3400032,,,,,,,2025-03-14,1,,,,,ユーアーク,0
1451,6030001165404,新規,0,2025-03-14,2025-03-14,株式会社ＯＴ防水,,株式会社,埼玉県,さいたま市桜区,道場３丁目１１番１１号リュバン１０１,,11,106,3380835,,,,,,,2025-03-14,1,,,,,オーティーボウスイ,0
1461,6040001137807,新規,0,2025-03-14,2025-03-14,株式会社ＭＯ．ａｔ,,株式会社,千葉県,千葉市中央区,中央２丁目５－１千葉中央ツインビル２号館７階,,12,101,2600013,,,,,,,2025-03-14,1,,,,,エムオーアット,0
1471,6050001056312,新規,0,2025-03-14,2025-03-14,株式会社ＲＥＧＲＡ　ＨＤ,,株式会社,茨城県,ひたちなか市,大字稲田１４７６番地,,08,221,3120061,,,,,,,2025-03-14,1,,,,,リグラホールディングス,0
1473,6050003009111,新規,0,2025-03-14,2025-03-14,合同会社ぺんごん,,合同会社,茨城県,ひたちなか市,栄町１丁目９－３４シャルマンハイツ２０１,,08,221,3111223,,,,,,,2025-03-14,1,,,,,ペンゴン,0
1474,6060001038020,新規,0,2025-03-14,2025-03-14,株式会社イーサーワークス,,株式会社,栃木県,宇都宮市,清原台５丁目３０番１８号,,09,201,3213223,,,,,,,2025-03-14,1,,,,,イーサーワークス,0
1477,6080101025379,新規,0,2025-03-14,2025-03-14,株式会社ノミトツチ,,株式会社,静岡県,駿東郡長泉町,元長窪１７７番地,,22,342,4110936,,,,,,,2025-03-14,1,,,,,ノミトツチ,0
1478,6080103003275,新規,0,2025-03-14,2025-03-14,合同会社ＸＲＯＳＦＯＲＧＥ,,合同会社,静岡県,沼津市,東熊堂４００番地の１菜の花ハイツ１０１,,22,203,4100013,,,,,,,2025-03-14,1,,,,,クロスフォージ,0
1480,6080403005228,新規,0,2025-03-14,2025-03-14,三光合同会社,,合同会社,静岡県,磐田市,東小島２１４番地,,22,211,4371208,,,,,,,2025-03-14,1,,,,,サンコウ,0
1485,6100001038387,新規,0,2025-03-14,2025-03-14,株式会社Ｓｔｒｅｌｉｔｚｉａ‐ＬＣ,,株式会社,長野県,諏訪市,大字豊田３６０２番地１,,20,206,3920016,,,,,,,2025-03-14,1,,,,,ストレリチアエルシー,0
1486,6100001038412,新規,0,2025-03-14,2025-03-14,株式会社ＭｉｒａｉＬｉｎｋｓ,,株式会社,長野県,塩尻市,大門八番町１－２塩尻インキュベーションプラザ１０３,,20,215,3990737,,,,,,,2025-03-14,1,,,,,ミライリンクス,0
1488,6110001039112,新規,0,2025-03-14,2025-03-14,株式会社ｇ．ｍ．ｃ,,株式会社,新潟県,長岡市,与板町与板甲２４５番地,,15,202,9402402,,,,,,,2025-03-14,1,,,,,ジーエムシー,0
1489,6110003005698,新規,0,2025-03-14,2025-03-14,合同会社シュクレ,,合同会社,新潟県,新潟市西区,五十嵐２の町８０５０産学連携共同研究棟１号棟ＮＯＴＴＨＥＵＮＩＶＥＲＳＩＴＹ,,15,107,9502102,,,,,,,2025-03-14,1,,,,,シュクレ,0
1491,6110005017196,新規,0,2025-03-14,2025-03-14,一般社団法人そらの木,,その他の設立登記法人,新潟県,新発田市,本町２丁目１番２号,,15,206,9570054,,,,,,,2025-03-14,1,,,,,ソラノキ,0
1496,6120001273610,新規,0,2025-03-14,2025-03-14,吉永商事株式会社,,株式会社,大阪府,大阪市天王寺区,東高津町１２番７－１８０２号,,27,109,5430021,,,,,,,2025-03-14,1,,,,,ヨシナガショウジ,0
1497,6120001273643,新規,0,2025-03-14,2025-03-14,ＳＵＮＲＩＳＥ　ＧＡＲＭＥＮＴＳ株式会社,,株式会社,大阪府,大阪市中央区,道修町１丁目３番８－２０２号,,27,128,5410045,,,,,,,2025-03-14,1,,,,,サンライズガーメント,0
1498,6120001273676,新規,0,2025-03-14,2025-03-14,株式会社ＩＳＡＭＩ,,株式会社,大阪府,大阪市生野区,巽南２丁目５番２３号,00138354,27,116,5440015,,,,,,,2025-03-14,1,,,,,イサミ,0
1499,6120001273701,新規,0,2025-03-14,2025-03-14,株式会社Ｍａｉｓｏｅｕｒ,,株式会社,大阪府,大阪市東淀川区,下新庄５丁目１７番１９－１０２号,,27,114,5330021,,,,,,,2025-03-14,1,,,,,メズール,0
1500,6120001273890,新規,0,2025-03-14,2025-03-14,株式会社オキナワ,,株式会社,大阪府,大阪市淀川区,宮原１丁目１番１号,,27,123,5320003,,,,,,,2025-03-14,1,,,,,オキナワ,0
1503,6120003028855,新規,0,2025-03-14,2025-03-14,合同会社Ｓｂｌｏｏｍ,,合同会社,大阪府,大阪市北区,大淀中２丁目２－１８ＧＲＡＮＤＳＴＥＡＤＹ４０１,,27,127,5310076,,,,,,,2025-03-14,1,,,,,エスブルーム,0
1506,6120005024844,新規,0,2025-03-14,2025-03-14,一般社団法人あかり,,その他の設立登記法人,大阪府,大阪市此花区,高見３丁目１８番１８号,,27,104,5540001,,,,,,,2025-03-14,1,,,,,アカリ,0
1508,6120101071286,新規,0,2025-03-14,2025-03-14,株式会社ＮｅｘＰａｔｈ,,株式会社,大阪府,堺市中区,深阪２丁４番４８号,,27,142,5998253,,,,,,,2025-03-14,1,,,,,ネクスパス,0
1511,6120103006315,新規,0,2025-03-14,2025-03-14,ＨＨＨ合同会社,,合同会社,大阪府,富田林市,錦織東１丁目６番５号－１０４号室,,27,214,5840069,,,,,,,2025-03-14,1,,,,,エイチエイチエイチ,0
1519,6130001079057,新規,0,2025-03-14,2025-03-14,株式会社ＳＯＲＡ,,株式会社,京都府,京都市下京区,七条通油小路東入大黒町２２７番地第２キョートビル４０２,,26,106,6008223,,,,,,,2025-03-14,1,,,,,ソラ,0
1520,6130001079214,新規,0,2025-03-14,2025-03-14,株式会社Ｋｙｏｔｏ　Ｆｅｒｍｅｎｔａｔｉｏｎ　Ｌａｂ,,株式会社,京都府,京都市左京区,高野清水町２３番地１０,,26,103,6068102,,,,,,,2025-03-14,1,,,,,キョウトファーメンテーションラボ,0
1521,6130003010267,新規,0,2025-03-14,2025-03-14,合同会社メルシー,,合同会社,京都府,与謝郡与謝野町,字幾地５３３－７,,26,465,6292311,,,,,,,2025-03-14,1,,,,,メルシー,0
1522,6130003010275,新規,0,2025-03-14,2025-03-14,合同会社Ｓｅａｒｃｈ　Ｌｉｇｈｔ,,合同会社,京都府,宇治市,六地蔵奈良町６７－１クラッシィハウス京都六地蔵Ａ棟５０３,,26,204,6110001,,,,,,,2025-03-14,1,,,,,サーチライト,0
1531,6140001137689,新規,0,2025-03-14,2025-03-14,吉川株式会社,,株式会社,兵庫県,神戸市長田区,大丸町１丁目１４番１１号,,28,106,6530806,,,,,,,2025-03-14,1,,,,,ヨシカワ,0
1532,6140001137697,新規,0,2025-03-14,2025-03-14,株式会社オアシスフレンズ,,株式会社,兵庫県,西宮市,馬場町１－５－１０２,,28,204,6620915,,,,,,,2025-03-14,1,,,,,オアシスフレンズ,0
1533,6140001137706,新規,0,2025-03-14,2025-03-14,株式会社フジイ,,株式会社,兵庫県,神戸市垂水区,美山台２丁目３番１５号,,28,108,6550874,,,,,,,2025-03-14,1,,,,,フジイ,0
1534,6140001137747,新規,0,2025-03-14,2025-03-14,株式会社信,,株式会社,兵庫県,宝塚市,すみれガ丘２丁目３番１－１０１２号,,28,214,6650847,,,,,,,2025-03-14,1,,,,,シン,0
1535,6140001137796,新規,0,2025-03-14,2025-03-14,ＷＩＺＣＡＲ　ＩＮＴＥＲＮＡＴＩＯＮＡＬ株式会社,,株式会社,兵庫県,神戸市北区,淡河町淡河６８３番地の２,,28,109,6511603,,,,,,,2025-03-14,1,,,,,ウィズカーインターナショナル,0
1538,6140003021783,新規,0,2025-03-14,2025-03-14,合同会社とっかーた,,合同会社,兵庫県,明石市,明南町１丁目１－１１,,28,203,6730001,,,,,,,2025-03-14,1,,,,,トッカータ,0
1546,6180001165835,新規,0,2025-03-14,2025-03-14,株式会社輝華,,株式会社,愛知県,名古屋市中村区,名駅３丁目４－１０アルティメイト名駅１ｓｔ２階,,23,105,4500002,,,,,,,2025-03-14,1,,,,,コウカ,0
1547,6180001165851,新規,0,2025-03-14,2025-03-14,株式会社ＢｒｉｇｈｔＬｉｎｋ,,株式会社,愛知県,名古屋市中村区,名駅４丁目２４番５号第２森ビル４０１,,23,105,4500002,,,,,,,2025-03-14,1,,,,,ブライトリンク,0
1548,6180301039565,新規,0,2025-03-14,2025-03-14,株式会社衣浦グランドホテル,,株式会社,愛知県,碧南市,半崎町５丁目５８番地３,,23,209,4470015,,,,,,,2025-03-14,1,,,,,キヌウラグランドホテル,0
1555,6200001043534,新規,0,2025-03-14,2025-03-14,ｔ’ｓ　ｉｎｓｕｒａｎｃｅ株式会社,,株式会社,岐阜県,多治見市,平和町５丁目５９番地フラットオルハ３０１号,,21,204,5070827,,,,,,,2025-03-14,1,,,,,ティーズインシュアランス,0
1556,6200003006720,新規,0,2025-03-14,2025-03-14,合同会社Ｋ＆Ａ,,合同会社,岐阜県,飛騨市,神岡町殿１０８１番地２,,21,217,5061121,,,,,,,2025-03-14,1,,,,,ケーアンドエー,0
1557,6200003006737,新規,0,2025-03-14,2025-03-14,合同会社まるかり,,合同会社,岐阜県,下呂市,久野川１２６３番地,,21,220,5092131,,,,,,,2025-03-14,1,,,,,マルカリ,0
1559,6220003003971,新規,0,2025-03-14,2025-03-14,空のココロ合同会社,,合同会社,石川県,河北郡内灘町,字千鳥台２丁目２００番地,,17,365,9200277,,,,,,,2025-03-14,1,,,,,ソラノココロ,0
1560,6230005009446,新規,0,2025-03-14,2025-03-14,一般社団法人ＳＵＰＯＰＯ　ＣＵＬＴＵＲＥ　ＨＡＰＰＩＮＥＳＳ,,その他の設立登記法人,富山県,砺波市,大門４８０番地,,16,208,9391316,,,,,,,2025-03-14,1,,,,,スポポカルチャーハピネス,0
1561,6240001064667,新規,0,2025-03-14,2025-03-14,株式会社ＭＩＺＵＹＡ設備,,株式会社,広島県,広島市佐伯区,河内南２丁目６０番１０号,,34,108,7315153,,,,,,,2025-03-14,1,,,,,ミズヤセツビ,0
1564,6250003003671,新規,0,2025-03-14,2025-03-14,幸せな職場エバンジェリスト合同会社,,合同会社,山口県,山陽小野田市,大字有帆７２３番地,,35,216,7560038,,,,,,,2025-03-14,1,,,,,シアワセナショクバエバンジェリスト,0
1566,6260001040014,新規,0,2025-03-14,2025-03-14,株式会社プロバイエフ,,株式会社,岡山県,岡山市北区,東古松４丁目５番３２号,,33,101,7000921,,,,,,,2025-03-14,1,,,,,プロバイエフ,0
1569,6260003005097,新規,0,2025-03-14,2025-03-14,合同会社ｕｎｅ,,合同会社,岡山県,小田郡矢掛町,小林１２６番地,,33,461,7141202,,,,,,,2025-03-14,1,,,,,ウネ,0
1575,6290801031366,新規,0,2025-03-14,2025-03-14,サン株式会社,,株式会社,福岡県,北九州市八幡西区,浅川町１４番１５号,,40,109,8070879,,,,,,,2025-03-14,1,,,,,サン,0
1583,6330001032961,新規,0,2025-03-14,2025-03-14,株式会社楓,,株式会社,熊本県,八代市,古閑上町１２５番地１０オレス古閑上町Ｃ棟,,43,202,8660897,,,,,,,2025-03-14,1,,,,,カエデ,0
1584,6340003004776,新規,0,2025-03-14,2025-03-14,農業いぶすき合同会社,,合同会社,鹿児島県,指宿市,山川浜児ケ水２４５番地,,46,210,8910512,,,,,,,2025-03-14,1,,,,,ノウギョウイブスキ,0
1587,6350001019437,新規,0,2025-03-14,2025-03-14,株式会社ミライト,,株式会社,宮崎県,宮崎市,恒久２丁目１８番地１１長友コーポ１０２号室,,45,201,8800913,,,,,,,2025-03-14,1,,,,,ミライト,0
1593,6370003006984,新規,0,2025-03-14,2025-03-14,合同会社青葉医科歯科コンサルティング,,合同会社,宮城県,仙台市青葉区,滝道３７番１号,,04,101,9810951,,,,,,,2025-03-14,1,,,,,アオバイカシカコンサルティング,0
1596,6400001016973,新規,0,2025-03-14,2025-03-14,株式会社グランプラス測量設計,,株式会社,岩手県,盛岡市,津志田１４地割１２６番地,,03,201,0200835,,,,,,,2025-03-14,1,,,,,グランプラスソクリョウセッケイ,0
1597,6400003003409,新規,0,2025-03-14,2025-03-14,合同会社結担人,,合同会社,岩手県,盛岡市,渋民字岩鼻６９番地１６６,,03,201,0284132,,,,,,,2025-03-14,1,,,,,ユナイト,0
1608,6430003017406,新規,0,2025-03-14,2025-03-14,合同会社Ｔｒｉｐ　Ｄｅｓｉｇｎ,,合同会社,北海道,札幌市中央区,南十二条西１４丁目１番２０号,,01,101,0640912,,,,,,,2025-03-14,1,,,,,トリップデザイン,0
1612,6470003002833,新規,0,2025-03-14,2025-03-14,合同会社尾上コンサルティング,,合同会社,香川県,高松市,今里町４０１番地１Ｉ・Ｓ・ＳＱＵＡＲＥ２階１号室,,37,201,7600078,,,,,,,2025-03-14,1,,,,,,0
1617,6700150129570,新規,0,2025-03-14,2025-03-14,ＰＲＥＳＴＩＧＥ　ＭＯＴＯＲＳ,,外国会社等,千葉県,山武市,木原２０３１番地１５－Ｄ－１０,,12,237,2891212,スリランカ民主社会主義共和国、キャンディ、アクラナ、ブルゴハテンナ、Ｎｏ．５７／Ａ,,,,,,2025-03-14,1,,,,,プレステージモータース,0
1629,7010001253028,新規,0,2025-03-14,2025-03-14,株式会社ＳＨＯＲＹＵＫＥＮ,,株式会社,東京都,中央区,佃１丁目１１番７－３００４号スカイライトタワー,,13,102,1040051,,,,,,,2025-03-14,1,,,,,ショウリュウケン,0
1630,7010001253135,新規,0,2025-03-14,2025-03-14,株式会社レイリーヴズ,,株式会社,東京都,千代田区,二番町１番地２番町ハイム７２３,,13,101,1020084,,,,,,,2025-03-14,1,,,,,レイリーヴズ,0
1631,7010001253143,新規,0,2025-03-14,2025-03-14,ｉｌｉｇｈｔ　Ｊａｐａｎ株式会社,,株式会社,東京都,中央区,銀座１丁目１６番７号銀座大栄ビル５Ｆ,,13,102,1040061,,,,,,,2025-03-14,1,,,,,アイライトジャパン,0
1632,7010001253168,新規,0,2025-03-14,2025-03-14,株式会社イーエムアイエー,,株式会社,東京都,中央区,銀座８丁目２－１,,13,102,1040061,,,,,,,2025-03-14,1,,,,,イーエムアイエー,0
1633,7010001253176,新規,0,2025-03-14,2025-03-14,Ｓｔａｎｄａｒｄ綜合研究所株式会社,,株式会社,東京都,中央区,日本橋小舟町９番３号,,13,102,1030024,,,,,,,2025-03-14,1,,,,,スタンダードソウゴウケンキュウジョ,0
1634,7010001253184,新規,0,2025-03-14,2025-03-14,株式会社ＥＭＭＡ,,株式会社,東京都,中央区,銀座１丁目２２－１１銀座大竹ビジデンス２Ｆ,,13,102,1040061,,,,,,,2025-03-14,1,,,,,エマ,0
1635,7010001253192,新規,0,2025-03-14,2025-03-14,株式会社きんゆう女子,,株式会社,東京都,中央区,日本橋茅場町１丁目５－８,,13,102,1030025,,,,,,,2025-03-14,1,,,,,キンユウジョシ,0
1636,7010001253201,新規,0,2025-03-14,2025-03-14,株式会社ハルモニエ,,株式会社,東京都,中央区,日本橋兜町５番１号兜町第一平和ビル１階,,13,102,1030026,,,,,,,2025-03-14,1,,,,,ハルモニエ,0
1637,7010001253226,新規,0,2025-03-14,2025-03-14,株式会社Ｕｐ　Ｌｉｎｋ,,株式会社,東京都,千代田区,神田須田町２丁目１９番２３号Ｄａｉｗａ秋葉原ビル２階,,13,101,1010041,,,,,,,2025-03-14,1,,,,,アップリンク,0
1639,7010003046751,新規,0,2025-03-14,2025-03-14,ドラゴンクラーウド合同会社,,合同会社,東京都,中央区,銀座１丁目１２－４Ｎ＆ＥＢＬＤ７Ｆ,,13,102,1040061,,,,,,,2025-03-14,1,,,,,ドラゴンクラーウド,0
1641,7010005039737,新規,0,2025-03-14,2025-03-14,一般社団法人ベンガル・ワン,,その他の設立登記法人,東京都,千代田区,内幸町２丁目１番６号,,13,101,1000011,,,,,,,2025-03-14,1,,,,,ベンガルワン,0
1642,7010005039753,新規,0,2025-03-14,2025-03-14,一般社団法人健康共生連,,その他の設立登記法人,東京都,千代田区,神田和泉町１番地６－１６ヤマトビル４０５,,13,101,1010024,,,,,,,2025-03-14,1,,,,,ケンコウキョウセイレン,0
1656,7010401188781,新規,0,2025-03-14,2025-03-14,中山研究所株式会社,,株式会社,東京都,港区,南青山３丁目１番３６号青山丸竹ビル６Ｆ,,13,103,1070062,,,,,,,2025-03-14,1,,,,,ナカヤマケンキュウジョ,0
1657,7010401188864,新規,0,2025-03-14,2025-03-14,ネオサンライズ株式会社,,株式会社,東京都,港区,虎ノ門２丁目６番１号虎ノ門ヒルズステーションタワー１９階,,13,103,1050001,,,,,,,2025-03-14,1,,,,,ネオサンライズ,0
1658,7010401188897,新規,0,2025-03-14,2025-03-14,株式会社Ｍｅ　ｕｓ,,株式会社,東京都,港区,南青山４丁目１８番１１号フォレストヒルズイーストウィング２Ｆ,,13,103,1070062,,,,,,,2025-03-14,1,,,,,ミーアス,0
1659,7010401188906,新規,0,2025-03-14,2025-03-14,ＢＡＣＫＦＩＥＬＤ株式会社,,株式会社,東京都,港区,三田４丁目２番１６号,,13,103,1080073,,,,,,,2025-03-14,1,,,,,バックフィールド,0
1660,7010401188914,新規,0,2025-03-14,2025-03-14,株式会社栄翔,,株式会社,東京都,港区,白金台２丁目９番１５－６０１号,,13,103,1080071,,,,,,,2025-03-14,1,,,,,エイト,0
1661,7010401188922,新規,0,2025-03-14,2025-03-14,株式会社マスターズアクシス,,株式会社,東京都,港区,赤坂６丁目１０番８号,,13,103,1070052,,,,,,,2025-03-14,1,,,,,マスターズアクシス,0
1662,7010403034620,新規,0,2025-03-14,2025-03-14,フェザーストーンワールドツアー合同会社,,合同会社,東京都,港区,浜松町２丁目７番１７号イーグル浜松町ビル５６４,,13,103,1050013,,,,,,,2025-03-14,1,,,,,フェザーストーンワールドツアー,0
1666,7010601066960,新規,0,2025-03-14,2025-03-14,すみだ電気土木株式会社,,株式会社,東京都,墨田区,緑４丁目１３－４－２０１,,13,107,1300021,,,,,,,2025-03-14,1,,,,,スミダデンキドボク,0
1669,7010701047398,新規,0,2025-03-14,2025-03-14,株式会社ｈｕｍａｎ　ｒｅｓｏｕｒｃｅ　ｓｔｕｄｉｏ,,株式会社,東京都,品川区,西五反田３丁目２－１３目黒さつきビル３０１,,13,109,1410031,,,,,,,2025-03-14,1,,,,,ヒューマンリソースストゥディオ,0
1670,7010701047415,新規,0,2025-03-14,2025-03-14,株式会社ＡＢＣ　Ｐａｒｔｎｅｒｓ,,株式会社,東京都,品川区,西五反田７丁目９－５ＳＧテラス６階,,13,109,1410031,,,,,,,2025-03-14,1,,,,,エービーシーパートナーズ,0
1671,7010703007615,新規,0,2025-03-14,2025-03-14,合同会社福堂産,,合同会社,東京都,品川区,東品川４丁目５－８－８１０,,13,109,1400002,,,,,,,2025-03-14,1,,,,,フクドウサン,0
1672,7010703007623,新規,0,2025-03-14,2025-03-14,合同会社モテモテ,,合同会社,東京都,品川区,豊町６丁目２番４号,,13,109,1420042,,,,,,,2025-03-14,1,,,,,モテモテ,0
1673,7010705003736,新規,0,2025-03-14,2025-03-14,医療法人社団ＦＵ‐ＷＡ,,その他の設立登記法人,東京都,品川区,上大崎２丁目１３番２６号メイプルトップビル３階,,13,109,1410021,,,,,,,2025-03-14,1,,,,,フーワ,0
1675,7010801035914,新規,0,2025-03-14,2025-03-14,カネン株式会社,,株式会社,東京都,大田区,平和島３丁目１－１１－３０５,,13,111,1430006,,,,,,,2025-03-14,1,,,,,カネン,0
1676,7010801035922,新規,0,2025-03-14,2025-03-14,株式会社人間,,株式会社,東京都,大田区,池上６丁目２９番８号,,13,111,1460082,,,,,,,2025-03-14,1,,,,,ニンゲン,0
1677,7010801035930,新規,0,2025-03-14,2025-03-14,株式会社ＴＲＵＦＦＬＥ　ＤＯＮＵＴ,,株式会社,東京都,大田区,東海１丁目３番６号プロロジスパーク東京大田６階,,13,111,1430001,,,,,,,2025-03-14,1,,,,,トリュフドーナツ,0
1680,7010901056991,新規,0,2025-03-14,2025-03-14,株式会社ＫＩＭＲＡ,,株式会社,東京都,世田谷区,代田３丁目２６番６号代田レジデンスＡ１,,13,112,1550033,,,,,,,2025-03-14,1,,,,,キムラ,0
1681,7010901057016,新規,0,2025-03-14,2025-03-14,株式会社ＹｕｒｉＹｕｉ,,株式会社,東京都,世田谷区,八幡山３丁目１０番１０号明翠荘１０１,,13,112,1560056,,,,,,,2025-03-14,1,,,,,ユリユイ,0
1682,7010903009782,新規,0,2025-03-14,2025-03-14,合同会社晴耕,,合同会社,東京都,世田谷区,喜多見７丁目６―３,,13,112,1570067,,,,,,,2025-03-14,1,,,,,セイコウ,0
1685,7011001168430,新規,0,2025-03-14,2025-03-14,株式会社高野コーポレーション,,株式会社,東京都,渋谷区,代官山町１４番２４号,,13,113,1500034,,,,,,,2025-03-14,1,,,,,タカノコーポレーション,0
1687,7011005010910,新規,0,2025-03-14,2025-03-14,一般社団法人日本糸リフト協会,,その他の設立登記法人,東京都,渋谷区,恵比寿西２丁目２１番４号,,13,113,1500021,,,,,,,2025-03-14,1,,,,,ニホンイトリフトキョウカイ,0
1690,7011101110787,新規,0,2025-03-14,2025-03-14,モニングライト株式会社,,株式会社,東京都,新宿区,高田馬場１丁目２６番１２号高田馬場ビル５０３号,,13,104,1690075,,,,,,,2025-03-14,1,,,,,モニングライト,0
1691,7011101110985,新規,0,2025-03-14,2025-03-14,ヴィアッジ株式会社,,株式会社,東京都,新宿区,西新宿６丁目５番１号新宿アイランドタワー２階,,13,104,1600023,,,,,,,2025-03-14,1,,,,,ヴィアッジ,0
1692,7011101111001,新規,0,2025-03-14,2025-03-14,シンクロマネジメント株式会社,,株式会社,東京都,新宿区,西新宿３丁目９番３号,,13,104,1600023,,,,,,,2025-03-14,1,,,,,シンクロマネジメント,0
1695,7011103015654,新規,0,2025-03-14,2025-03-14,合同会社アンビシャス,,合同会社,東京都,新宿区,四谷坂町１２番１５－１２０１号,,13,104,1600002,,,,,,,2025-03-14,1,,,,,アンビシャス,0
1696,7011103015662,新規,0,2025-03-14,2025-03-14,合同会社ＲＯＶＥＲＳ＆ＣＯ．,,合同会社,東京都,新宿区,歌舞伎町１丁目１１番１１号杉山ビル地下１階,,13,104,1600021,,,,,,,2025-03-14,1,,,,,ローバーズアンドカンパニー,0
1698,7011401026907,新規,0,2025-03-14,2025-03-14,株式会社ＳｕＰｉｔａ,,株式会社,東京都,板橋区,三園１丁目１５番６号,,13,119,1750091,,,,,,,2025-03-14,1,,,,,スピタ,0
1702,7011701028108,新規,0,2025-03-14,2025-03-14,一合株式会社,,株式会社,東京都,江戸川区,本一色１丁目２４－２１,,13,123,1330044,,,,,,,2025-03-14,1,,,,,イチゴウ,0
1703,7011701028157,新規,0,2025-03-14,2025-03-14,ヘリテージシンフォニア株式会社,,株式会社,東京都,江戸川区,松島３丁目４５番９号,,13,123,1320031,,,,,,,2025-03-14,1,,,,,ヘリテージシンフォニア,0
1712,7011803006738,新規,0,2025-03-14,2025-03-14,ＬＬＭ　ＪＡＰＡＮ合同会社,,合同会社,東京都,足立区,伊興３丁目２３－３３、１９号室,,13,121,1210823,,,,,,,2025-03-14,1,,,,,エルエルエムジャパン,0
1713,7012401042893,新規,0,2025-03-14,2025-03-14,株式会社ＮＥＷＯＮ,,株式会社,東京都,三鷹市,下連雀３丁目２６番６－３０１号,,13,204,1810013,,,,,,,2025-03-14,1,,,,,ネオン,0
1714,7012701018750,新規,0,2025-03-14,2025-03-14,株式会社Ｒｅ．ＬＩＦＥ,,株式会社,東京都,清瀬市,竹丘３丁目１６番１５号ミルサンクＢ１０２号室,,13,221,2040023,,,,,,,2025-03-14,1,,,,,リライフ,0
1726,7020001161840,新規,0,2025-03-14,2025-03-14,Ｌ＆Ｍトラストパートナーズ株式会社,,株式会社,神奈川県,横浜市都筑区,南山田２丁目２８番６７号,,14,118,2240029,,,,,,,2025-03-14,1,,,,,エルアンドエムトラストパートナーズ,0
1727,7020001161849,新規,0,2025-03-14,2025-03-14,ライフヴァーチュ株式会社,,株式会社,神奈川県,川崎市多摩区,登戸２番地３,,14,135,2140014,,,,,,,2025-03-14,1,,,,,ライフヴァーチュ,0
1731,7020003028071,新規,0,2025-03-14,2025-03-14,合同会社フリージア,,合同会社,神奈川県,横浜市神奈川区,金港町５番地１４クアドリフォリオ８階,,14,102,2210056,,,,,,,2025-03-14,1,,,,,フリージア,0
1732,7020005016719,新規,0,2025-03-14,2025-03-14,グラスコート向ヶ丘管理組合法人,,その他の設立登記法人,神奈川県,川崎市多摩区,枡形３丁目５番３号,,14,135,2140032,,,,,,,2025-03-14,1,,,,,グラスコートムコウガオカ,0
1736,7021003015737,新規,0,2025-03-14,2025-03-14,合同会社ＰＲＰ,,合同会社,神奈川県,大和市,下鶴間３０１８番地５１,,14,213,2420001,,,,,,,2025-03-14,1,,,,,ピーアールピー,0
1741,7030001165329,新規,0,2025-03-14,2025-03-14,株式会社祥成,,株式会社,埼玉県,三郷市,彦成２丁目３７５番地２,,11,237,3410003,,,,,,,2025-03-14,1,,,,,ショウセイ,0
1742,7030001165345,新規,0,2025-03-14,2025-03-14,株式会社ｍｉｎａｋｕｒｕ,,株式会社,埼玉県,さいたま市桜区,田島１丁目１２番１０号賢雄第２ビル１階１０１号室,,11,106,3380837,,,,,,,2025-03-14,1,,,,,ミナクル,0
1743,7030001165378,新規,0,2025-03-14,2025-03-14,株式会社ｌｏｖｅ　ａｎｄ　ｇｒａｃｅ,,株式会社,埼玉県,入間市,下藤沢４丁目１７番地４８,,11,225,3580011,,,,,,,2025-03-14,1,,,,,ラブアンドグレイス,0
1744,7030001165411,新規,0,2025-03-14,2025-03-14,ＨＡＲＵＹＡ貿易株式会社,,株式会社,埼玉県,川口市,大字道合６１－１,,11,203,3330835,,,,,,,2025-03-14,1,,,,,ハルヤボウエキ,0
1747,7030003026322,新規,0,2025-03-14,2025-03-14,ＫＯＯＴＯ設計合同会社,,合同会社,埼玉県,深谷市,上野台２１９６‐１５,,11,218,3660801,,,,,,,2025-03-14,1,,,,,コオトセッケイ,0
1748,7030003026330,新規,0,2025-03-14,2025-03-14,ソフィア合同会社,,合同会社,埼玉県,川口市,戸塚６丁目３－１７,,11,203,3330811,,,,,,,2025-03-14,1,,,,,ソフィア,0
1754,7040001137797,新規,0,2025-03-14,2025-03-14,株式会社ＦＹｆｉｒｏ,,株式会社,千葉県,市川市,相之川１丁目２１番１５号,,12,203,2720143,,,,,,,2025-03-14,1,,,,,エフワイフィーロ,0
1762,7060001038028,新規,0,2025-03-14,2025-03-14,坪野谷商事株式会社,,株式会社,栃木県,小山市,三峯１丁目１０番２７号,,09,208,3230821,,,,,,,2025-03-14,1,,,,,ツボノヤショウジ,0
1764,7070003005818,新規,0,2025-03-14,2025-03-14,合同会社Ｍ’ｓ,,合同会社,群馬県,高崎市,緑町２丁目１３番地１１,,10,202,3700073,,,,,,,2025-03-14,1,,,,,エムズ,0
1766,7080003003416,新規,0,2025-03-14,2025-03-14,ＡＳＫ合同会社,,合同会社,静岡県,静岡市葵区,柳町１５３－１７－Ｃ,,22,101,4200007,,,,,,,2025-03-14,1,,,,,アスク,0
1770,7090001019173,新規,0,2025-03-14,2025-03-14,株式会社すずき,,株式会社,山梨県,北杜市,武川町牧原２２９３番地１,,19,209,4080302,,,,,,,2025-03-14,1,,,,,スズキ,0
1774,7100003008049,新規,0,2025-03-14,2025-03-14,アメニティあいかむ合同会社,,合同会社,長野県,長野市,大字高田１３６４番地,,20,201,3810034,,,,,,,2025-03-14,1,,,,,アメニティアイカム,0
1778,7110005017195,新規,0,2025-03-14,2025-03-14,一般社団法人Ｂａｌｌｅｒｓ　Ｌａｂ,,その他の設立登記法人,新潟県,新潟市東区,浜谷町１丁目１番７４号,,15,102,9500034,,,,,,,2025-03-14,1,,,,,ボーラーズラボ,0
1788,7120001273510,新規,0,2025-03-14,2025-03-14,富士興株式会社,,株式会社,大阪府,大阪市城東区,鴫野西５丁目１５番７－３０９号,,27,118,5360014,,,,,,,2025-03-14,1,,,,,フジコウ,0
1789,7120001273642,新規,0,2025-03-14,2025-03-14,株式会社Ｓｔｅｌｌａ　Ｅｓｔａｔｅ,,株式会社,大阪府,大阪市西区,新町１丁目１４番２１－２２１５号,,27,106,5500013,,,,,,,2025-03-14,1,,,,,ステラエステイト,0
1790,7120001273667,新規,0,2025-03-14,2025-03-14,株式会社ＳＨＥＲＯ,,株式会社,大阪府,大阪市住吉区,長居２丁目１２番９号,,27,120,5580003,,,,,,,2025-03-14,1,,,,,シーロー,0
1791,7120001273683,新規,0,2025-03-14,2025-03-14,株式会社ＷＡＫＵＮＡＳＨＩ,,株式会社,大阪府,大阪市北区,梅田１丁目１－３大阪駅前第３ビル２９階１－１－１号室,,27,127,5300001,,,,,,,2025-03-14,1,,,,,ワクナシ,0
1792,7120001273700,新規,0,2025-03-14,2025-03-14,株式会社味眞畜産,,株式会社,大阪府,大阪市西区,北堀江１丁目１６－１３,,27,106,5500014,,,,,,,2025-03-14,1,,,,,ミジンチクサン,0
1793,7120001273782,新規,0,2025-03-14,2025-03-14,株式会社ＦＡＳＴ．ＩＮＮＯＶＡＴＩＯＮ．,,株式会社,大阪府,大阪市中央区,南船場１丁目１８番２４－５０３号,,27,128,5420081,,,,,,,2025-03-14,1,,,,,ファストイノベーション,0
1794,7120001273790,新規,0,2025-03-14,2025-03-14,株式会社ワンイノベーション,,株式会社,大阪府,大阪市中央区,平野町２丁目５番８号,,27,128,5410046,,,,,,,2025-03-14,1,,,,,ワンイノベーション,0
1795,7120001273849,新規,0,2025-03-14,2025-03-14,株式会社ＳＡＫＡＩ,,株式会社,大阪府,門真市,寿町２１番１号,,27,223,5710032,,,,,,,2025-03-14,1,,,,,サカイ,0
1796,7120003028739,新規,0,2025-03-14,2025-03-14,合同会社ＺＥＮＩＧＭＡ　ＪＰ,,合同会社,大阪府,大阪市北区,梅田１丁目２番２号大阪駅前第２ビル１２－１２,,27,127,5300001,,,,,,,2025-03-14,1,,,,,ゼニグマジェイピー,0
1797,7120003028821,新規,0,2025-03-14,2025-03-14,合同会社ＨＱ　Ｃｏｓｍｅｔｉｃ,,合同会社,大阪府,大阪市西成区,天神ノ森１丁目８－１１ＮＴＨＯＵＳＥ２０１号,,27,122,5570013,,,,,,,2025-03-14,1,,,,,エイチキューコスメティック,0
1798,7120003028846,新規,0,2025-03-14,2025-03-14,合同会社ゼンシン貿易,,合同会社,大阪府,大阪市淀川区,宮原２丁目１４番１９号酒井文化２０３室,,27,123,5320003,,,,,,,2025-03-14,1,,,,,ゼンシンボウエキ,0
1799,7120005024835,新規,0,2025-03-14,2025-03-14,一般社団法人日本民間救急支援機構,,その他の設立登記法人,大阪府,大阪市淀川区,西中島６丁目３番２４号Ｋ４０９,,27,123,5320011,,,,,,,2025-03-14,1,,,,,ニホンミンカンキュウキュウシエンキコウ,0
1800,7120005024843,新規,0,2025-03-14,2025-03-14,特定非営利活動法人えがおの花,,その他の設立登記法人,大阪府,大阪市中央区,西心斎橋１丁目１０番１７号ポポロビル４階Ｓ号,,27,128,5420086,,,,,,,2025-03-14,1,,,,,エガオノハナ,0
1804,7120101071244,新規,0,2025-03-14,2025-03-14,株式会社ＢｒｉｓＣａｒｓ,,株式会社,大阪府,泉南市,新家１３１５番地の２０９,,27,228,5900503,,,,,,,2025-03-14,1,,,,,ブリスカーズ,0
1805,7120101071260,新規,0,2025-03-14,2025-03-14,株式会社オリジンクラシック,,株式会社,大阪府,河内長野市,中片添町３７－１,,27,216,5860046,,,,,,,2025-03-14,1,,,,,オリジンクラシック,0
1807,7120903005589,新規,0,2025-03-14,2025-03-14,合同会社マーラ・アンジュ,,合同会社,大阪府,吹田市,江の木町２番３２,,27,205,5640053,,,,,,,2025-03-14,1,,,,,マーラアンジュ,0
1808,7122001038983,新規,0,2025-03-14,2025-03-14,ショクサイ株式会社,,株式会社,大阪府,八尾市,清水町１丁目１番６号八尾商工会議所２Ｆインキュベートルーム,,27,212,5810006,,,,,,,2025-03-14,1,,,,,ショクサイ,0
1812,7130001079205,新規,0,2025-03-14,2025-03-14,株式会社メドシフト,,株式会社,京都府,京都市下京区,七条通油小路東入大黒町２２７番地第２キョートビル４０２,,26,106,6008223,,,,,,,2025-03-14,1,,,,,メドシフト,0
1815,7130003010274,新規,0,2025-03-14,2025-03-14,ＤＩＭＥＮＳＩＯＮ８合同会社,,合同会社,京都府,木津川市,梅美台４丁目１６番地１４,,26,214,6190215,,,,,,,2025-03-14,1,,,,,ディメンションエイト,0
1818,7140001137696,新規,0,2025-03-14,2025-03-14,株式会社ａｏｎａ　ｊａｐａｎ,,株式会社,兵庫県,西宮市,甑岩町１０番５号,,28,204,6620092,,,,,,,2025-03-14,1,,,,,アオナジャパン,0
1819,7140001137705,新規,0,2025-03-14,2025-03-14,株式会社杏華,,株式会社,兵庫県,揖保郡太子町,松ケ下２７５番地３,,28,464,6711574,,,,,,,2025-03-14,1,,,,,キョウカ,0
1820,7140001137754,新規,0,2025-03-14,2025-03-14,株式会社ビバンツコンセプト,,株式会社,兵庫県,西宮市,中須佐町５番３２号,,28,204,6620851,,,,,,,2025-03-14,1,,,,,ビバンツコンセプト,0
1821,7140001137762,新規,0,2025-03-14,2025-03-14,株式会社ふれあいサポート,,株式会社,兵庫県,姫路市,夢前町菅生澗９１２番地の８,,28,201,6712134,,,,,,,2025-03-14,1,,,,,フレアイサポート,0
1829,7140003021782,新規,0,2025-03-14,2025-03-14,合同会社１３５ｏ,,合同会社,兵庫県,明石市,魚住町西岡４７４番地の１１,,28,203,6740084,,,,,,,2025-03-14,1,,,,,ヒャクサンジュウゴド,0
1834,7170003002177,新規,0,2025-03-14,2025-03-14,法信合同会社,,合同会社,和歌山県,海南市,下津町下津８１０番地３,,30,202,6490101,,,,,,,2025-03-14,1,,,,,ホウシン,0
1842,7180001165925,新規,0,2025-03-14,2025-03-14,株式会社ノイアカンパニー,,株式会社,愛知県,名古屋市熱田区,四番１丁目３番１１号,,23,109,4560051,,,,,,,2025-03-14,1,,,,,ノイアカンパニー,0
1843,7180001165958,新規,0,2025-03-14,2025-03-14,名東造園株式会社,,株式会社,愛知県,名古屋市天白区,島田１丁目３０４番地,,23,116,4680056,,,,,,,2025-03-14,1,,,,,メイトウゾウエン,0
1851,7180301039622,新規,0,2025-03-14,2025-03-14,株式会社ＭＯＮＯ　ＨＩＬＬＳ,,株式会社,愛知県,豊橋市,菰口町５丁目９２番地,,23,201,4418011,,,,,,,2025-03-14,1,,,,,モノヒルズ,0
1855,7190003004956,新規,0,2025-03-14,2025-03-14,合同会社優彩グループＹＳＧ,,合同会社,三重県,桑名市,大字赤須賀２１３２番地,,24,205,5110033,,,,,,,2025-03-14,1,,,,,ユウサイグループワイエスジー,0
1858,7200003006736,新規,0,2025-03-14,2025-03-14,合同会社ＴＡＣＴ,,合同会社,岐阜県,多治見市,広小路１丁目４番地,,21,204,5070833,,,,,,,2025-03-14,1,,,,,タクト,0
1863,7230003002393,新規,0,2025-03-14,2025-03-14,Ｌｉｆｅｌｅｅｋ合同会社,,合同会社,富山県,富山市,今市２６６５,,16,201,9302221,,,,,,,2025-03-14,1,,,,,ライフリーク,0
1865,7240001064658,新規,0,2025-03-14,2025-03-14,ＷＩＴＨＤＯＭ　Ｈｉｒｏｓｈｉｍａ株式会社,,株式会社,広島県,福山市,南蔵王町５丁目１７番３６号,,34,207,7210973,,,,,,,2025-03-14,1,,,,,ウイズダムヒロシマ,0
1868,7250003003670,新規,0,2025-03-14,2025-03-14,合同会社エイムハイ,,合同会社,山口県,山口市,道場門前１丁目３番８号グレイステラス道場門前１階,,35,203,7530047,,,,,,,2025-03-14,1,,,,,エイムハイ,0
1878,7290801031365,新規,0,2025-03-14,2025-03-14,株式会社宏健,,株式会社,福岡県,京都郡苅田町,大字集２５４２番地（町営住宅１１２号）,,40,621,8000354,,,,,,,2025-03-14,1,,,,,コウケン,0
1880,7300003002246,新規,0,2025-03-14,2025-03-14,合同会社エコグラム,,合同会社,佐賀県,三養基郡みやき町,大字白壁４１５２－１,,41,346,8490111,,,,,,,2025-03-14,1,,,,,エコグラム,0
1881,7310001019497,新規,0,2025-03-14,2025-03-14,ＷＩＮＷＡＹ株式会社,,株式会社,長崎県,東彼杵郡波佐見町,折敷瀬郷１７４２番地１２,,42,323,8593701,,,,,,,2025-03-14,1,,,,,ウィンウェイ,0
1884,7310005008835,新規,0,2025-03-14,2025-03-14,医療法人一心会,,その他の設立登記法人,長崎県,佐世保市,陣の内町３７６番地１,,42,202,8593203,,,,,,,2025-03-14,1,,,,,イッシンカイ,0
1894,7370001052336,新規,0,2025-03-14,2025-03-14,株式会社ナイスハビット,,株式会社,宮城県,仙台市宮城野区,原町３丁目８番７号,,04,102,9830841,,,,,,,2025-03-14,1,,,,,ナイスハビット,0
1895,7370001052344,新規,0,2025-03-14,2025-03-14,鳴子ホテルホールディングス株式会社,,株式会社,宮城県,大崎市,鳴子温泉字湯元３６番地,,04,215,9896823,,,,,,,2025-03-14,1,,,,,ナルコホテルホールディングス,0
1896,7370001052360,新規,0,2025-03-14,2025-03-14,ＳＫＣライフ設計株式会社,,株式会社,宮城県,仙台市泉区,松森字八沢２１番地の７,,04,105,9813111,,,,,,,2025-03-14,1,,,,,エスケーシーライフセッケイ,0
1902,7380003005984,新規,0,2025-03-14,2025-03-14,合同会社Ｌｅ　Ｌｉｅｎ,,合同会社,福島県,福島市,野田町３丁目３‐４１アネックス野田２０３,,07,201,9608055,,,,,,,2025-03-14,1,,,,,ルリアン,0
1912,7430001093935,新規,0,2025-03-14,2025-03-14,株式会社グランカ,,株式会社,北海道,札幌市中央区,北十条西１４丁目１番２号,,01,101,0600010,,,,,,,2025-03-14,1,,,,,グランカ,0
1914,7430003017405,新規,0,2025-03-14,2025-03-14,合同会社Ｎａｌｕ,,合同会社,北海道,札幌市中央区,南十二条西１４丁目１番２０号,,01,101,0640912,,,,,,,2025-03-14,1,,,,,ナル,0
1916,7450001014559,新規,0,2025-03-14,2025-03-14,株式会社ｆ３．０,,株式会社,北海道,上川郡東川町,南町３丁目１７番２号,,01,458,0711424,,,,,,,2025-03-14,1,,,,,エフサンテンゼロ,0
1918,7470001020621,新規,0,2025-03-14,2025-03-14,株式会社ＷＥＮＯ,,株式会社,香川県,高松市,木太町１１４３番地１,,37,201,7600080,,,,,,,2025-03-14,1,,,,,ウエノ,0
1920,7500001026202,新規,0,2025-03-14,2025-03-14,ＡｂｃＦｏｏｄ株式会社,,株式会社,愛媛県,松山市,堀江町甲１３５８番地１,,38,201,7992651,,,,,,,2025-03-14,1,,,,,エービーシーフード,0
1928,8010001252920,新規,0,2025-03-14,2025-03-14,株式会社バズライフ,,株式会社,東京都,中央区,日本橋本石町４丁目５番１１号伊藤ビル２階,,13,102,1030021,,,,,,,2025-03-14,1,,,,,バズライフ,0
1929,8010001252953,新規,0,2025-03-14,2025-03-14,ＦＩＴＴＲＩＸ　ＪＡＰＡＮ株式会社,,株式会社,東京都,千代田区,霞が関３丁目２番５号霞が関ビル５階,,13,101,1000013,,,,,,,2025-03-14,1,,,,,フィトリクスジャパン,0
1930,8010001253118,新規,0,2025-03-14,2025-03-14,株式会社バース,,株式会社,東京都,中央区,銀座１丁目２０番５号,,13,102,1040061,,,,,,,2025-03-14,1,,,,,バース,0
1931,8010001253126,新規,0,2025-03-14,2025-03-14,株式会社ＧＮＪ,,株式会社,東京都,文京区,本郷６丁目７番１２号,,13,105,1130033,,,,,,,2025-03-14,1,,,,,ジーエヌジェイ,0
1932,8010001253142,新規,0,2025-03-14,2025-03-14,株式会社Ｌａ　ｖｉｅ,,株式会社,東京都,中央区,銀座１丁目２２番１１号銀座大竹ビジデンス２Ｆ,,13,102,1040061,,,,,,,2025-03-14,1,,,,,ラヴィ,0
1933,8010001253150,新規,0,2025-03-14,2025-03-14,株式会社ＲＥＬＥＡＳＥ,,株式会社,東京都,中央区,銀座１丁目１２－４Ｎ＆ＥＢＬＤ．７階,,13,102,1040061,,,,,,,2025-03-14,1,,,,,リリース,0
1934,8010001253159,新規,0,2025-03-14,2025-03-14,株式会社ＹｕｎｉＴ,,株式会社,東京都,中央区,佃２丁目２２番７－１００２号,,13,102,1040051,,,,,,,2025-03-14,1,,,,,ユナイト,0
1935,8010001253175,新規,0,2025-03-14,2025-03-14,ＳｔａｎｄａｒｄＪＩ株式会社,,株式会社,東京都,中央区,日本橋小舟町９番３号,,13,102,1030024,,,,,,,2025-03-14,1,,,,,スタンダードジェイアイ,0
1936,8010001253183,新規,0,2025-03-14,2025-03-14,エボルバーズ株式会社,,株式会社,東京都,中央区,銀座１丁目１２－４Ｎ＆ＥＢＬＤ．７階,,13,102,1040061,,,,,,,2025-03-14,1,,,,,エボルバーズ,0
1937,8010001253209,新規,0,2025-03-14,2025-03-14,ｅＮｉｓｈｉ　Ｃａｐｉｔａｌ株式会社,,株式会社,東京都,中央区,日本橋浜町２丁目５５番１－１００３号,,13,102,1030007,,,,,,,2025-03-14,1,,,,,エニシキャピタル,0
1938,8010003046734,新規,0,2025-03-14,2025-03-14,ＪＡＰＡＮ　ＥＬＥＣＴＲＩＣＡＬ　ＤＥＳＩＧＮ　ＥＮＧＩＮＥＥＲＩＮＧ合同会社,,合同会社,東京都,千代田区,丸の内３丁目２番２号丸の内二重橋ビル３階サーブコープジャパン株式会社内,,13,101,1000005,,,,,,,2025-03-14,1,,,,,ジャパンエレクトリカルデザインエンジニアリング,0
1939,8010003046750,新規,0,2025-03-14,2025-03-14,ＬａｌＧ合同会社,,合同会社,東京都,中央区,銀座１丁目１２番４号Ｎ＆Ｅ・ＢＬＤ．７階,,13,102,1040061,,,,,,,2025-03-14,1,,,,,エルエーエルジー,0
1940,8010003046759,新規,0,2025-03-14,2025-03-14,Ｌｕｂａｔｏ合同会社,,合同会社,東京都,千代田区,麹町２丁目２番２２号（Ｃ／ＯＪｏｏ－ｒｅａｌｅｓｔａｔｅ－ｏｆｆｉｃｅ）,,13,101,1020083,,,,,,,2025-03-14,1,,,,,ルバト,0
1941,8010003046767,新規,0,2025-03-14,2025-03-14,フード・アンド・テック合同会社,,合同会社,東京都,中央区,日本橋室町１丁目１１番１２号日本橋水野ビル７階,,13,102,1030022,,,,,,,2025-03-14,1,,,,,フードアンドテック,0
1942,8010003046783,新規,0,2025-03-14,2025-03-14,禾子合同会社,,合同会社,東京都,文京区,湯島４丁目６番１１号湯島ハイタウンＡ棟２０９,,13,105,1130034,,,,,,,2025-03-14,1,,,,,イネコ,0
1945,8010005039728,新規,0,2025-03-14,2025-03-14,医療法人社団おはぎ,,その他の設立登記法人,東京都,文京区,千駄木２丁目８番５号１階,,13,105,1130022,,,,,,,2025-03-14,1,,,,,オハギ,0
1946,8010005039752,新規,0,2025-03-14,2025-03-14,一般社団法人ミドルシニア・セルフ・エンパワメント協会,,その他の設立登記法人,東京都,千代田区,内神田１丁目９番１３号,,13,101,1010047,,,,,,,2025-03-14,1,,,,,ミドルシニアセルフエンパワメントキョウカイ,0
1948,8010101016556,新規,0,2025-03-14,2025-03-14,ＬｉｆｅＬｉｎｋ株式会社,,株式会社,東京都,八王子市,追分町７－１２コスモ八王子５０２号室,,13,201,1920056,,,,,,,2025-03-14,1,,,,,ライフリンク,0
1957,8010401188640,新規,0,2025-03-14,2025-03-14,株式会社ＷＴＭ．,,株式会社,東京都,港区,南青山３丁目１４－２７,,13,103,1070062,,,,,,,2025-03-14,1,,,,,ダブリューティーエム,0
1958,8010401188863,新規,0,2025-03-14,2025-03-14,株式会社ファイナビオン,,株式会社,東京都,港区,六本木７丁目７－７Ｔｒｉ－ＳｅｖｅｎＲｏｐｐｏｎｇｉ８階,,13,103,1060032,,,,,,,2025-03-14,1,,,,,ファイナビオン,0
1959,8010401188871,新規,0,2025-03-14,2025-03-14,ｉＷＯＲＫＺ　Ｔｅｃｈｎｏｌｏｇｉｅｓ株式会社,,株式会社,東京都,港区,南青山３丁目１番３６号青山丸竹ビル６Ｆ,,13,103,1070062,,,,,,,2025-03-14,1,,,,,アイワークステクノロジーズ,0
1960,8010401188913,新規,0,2025-03-14,2025-03-14,ＬａｂＶａｎｔａｇｅ　Ｓｏｌｕｔｉｏｎｓ　Ｊａｐａｎ株式会社,,株式会社,東京都,港区,六本木７丁目１２番２号Ｒ７ビルディング,,13,103,1060032,,,,,,,2025-03-14,1,,,,,ラボバンテージソリューションズジャパン,0
1961,8010401188921,新規,0,2025-03-14,2025-03-14,株式会社Ｆｌｏｗｅｒ,,株式会社,東京都,港区,南青山３丁目１番３６号青山丸竹ビル６Ｆ,,13,103,1070062,,,,,,,2025-03-14,1,,,,,フラワー,0
1962,8010403034628,新規,0,2025-03-14,2025-03-14,合同会社ミライ樹スタイル,,合同会社,東京都,港区,南青山３丁目１番３６号青山丸竹ビル６Ｆ,,13,103,1070062,,,,,,,2025-03-14,1,,,,,ミライジュスタイル,0
1970,8010701047397,新規,0,2025-03-14,2025-03-14,株式会社ユーアム,,株式会社,東京都,品川区,豊町１丁目２番２０号舘野マンション３０１号室,,13,109,1420042,,,,,,,2025-03-14,1,,,,,ユーアム,0
1971,8010703007614,新規,0,2025-03-14,2025-03-14,ＡｕＲｏｓｅ合同会社,,合同会社,東京都,品川区,小山３丁目２４番７号,,13,109,1420062,,,,,,,2025-03-14,1,,,,,オウローズ,0
1982,8011003021082,新規,0,2025-03-14,2025-03-14,合同会社ＮＯＷ,,合同会社,東京都,渋谷区,幡ヶ谷２丁目６番６号幡ヶ谷北村ビル４階,,13,113,1510072,,,,,,,2025-03-14,1,,,,,ナウ,0
1983,8011003021198,新規,0,2025-03-14,2025-03-14,合同会社ちょこほぐ,,合同会社,東京都,渋谷区,代々木２丁目３８番３号,,13,113,1510053,,,,,,,2025-03-14,1,,,,,チョコホグ,0
1987,8011101110984,新規,0,2025-03-14,2025-03-14,株式会社ＶＥＣＴ　ＩＮＮＯＶＡＴＩＯＮ,,株式会社,東京都,新宿区,西新宿５丁目１番１号,,13,104,1600023,,,,,,,2025-03-14,1,,,,,ベクトイノベーション,0
1988,8011101111000,新規,0,2025-03-14,2025-03-14,株式会社ＳＡＩ,,株式会社,東京都,新宿区,市谷仲之町４番８号ＡＲＫＨＯＵＳＥ２０１,,13,104,1620064,,,,,,,2025-03-14,1,,,,,サイ,0
1996,8011401026897,新規,0,2025-03-14,2025-03-14,四方城株式会社,,株式会社,東京都,板橋区,大山町２２番９号,,13,119,1730023,,,,,,,2025-03-14,1,,,,,シホウジョウ,0
1997,8011401026914,新規,0,2025-03-14,2025-03-14,リードアセット株式会社,,株式会社,東京都,板橋区,南常盤台１丁目２３番６－５１２号,,13,119,1740072,,,,,,,2025-03-14,1,,,,,リードアセット,0
2005,8011601028495,新規,0,2025-03-14,2025-03-14,富仕株式会社,,株式会社,東京都,練馬区,富士見台２丁目４番１４－２０２号,,13,120,1770034,,,,,,,2025-03-14,1,,,,,フジ,0
2006,8011603004635,新規,0,2025-03-14,2025-03-14,合同会社フジ,,合同会社,東京都,練馬区,立野町１０番１号早川ビル１階,,13,120,1770054,,,,,,,2025-03-14,1,,,,,フジ,0
2007,8011701028156,新規,0,2025-03-14,2025-03-14,あおぞら賃貸株式会社,,株式会社,東京都,江戸川区,東小岩１丁目２０番１５号,,13,123,1330052,,,,,,,2025-03-14,1,,,,,アオゾラチンタイ,0
2010,8011703004155,新規,0,2025-03-14,2025-03-14,ひまわり合同会社,,合同会社,東京都,江戸川区,平井６丁目３８番７号,,13,123,1320035,,,,,,,2025-03-14,1,,,,,ヒマワリ,0
2012,8011801045786,新規,0,2025-03-14,2025-03-14,株式会社マインドブルーム,,株式会社,東京都,足立区,千住元町２８番地１１－３０１号,,13,121,1200041,,,,,,,2025-03-14,1,,,,,マインドブルーム,0
2013,8011803006737,新規,0,2025-03-14,2025-03-14,シリコン猫合同会社,,合同会社,東京都,足立区,足立４丁目３３番１号ＺＫＹビル１０１号室,,13,121,1200015,,,,,,,2025-03-14,1,,,,,シリコンネコ,0
2016,8012401042884,新規,0,2025-03-14,2025-03-14,株式会社ｆｏｔｏｎ　ｖｆｘ,,株式会社,東京都,府中市,宮西町２丁目４番地の４,,13,206,1830022,,,,,,,2025-03-14,1,,,,,フォトンブイエフエックス,0
2020,8012801023823,新規,0,2025-03-14,2025-03-14,株式会社Ｈａｒａｓｈｉ,,株式会社,東京都,立川市,幸町３丁目３３番地の２,,13,202,1900002,,,,,,,2025-03-14,1,,,,,ハラシ,0
2021,8012805003326,新規,0,2025-03-14,2025-03-14,医療法人社団瑞珠会,,その他の設立登記法人,東京都,国立市,東１丁目８番地の６国立メディカルセンター２０２号室,,13,215,1860002,,,,,,,2025-03-14,1,,,,,ズイジュカイ,0
2030,8020001161848,新規,0,2025-03-14,2025-03-14,株式会社ファンキャッツ,,株式会社,神奈川県,横浜市西区,浅間町１丁目４番３号ウィザードビル４０２,,14,103,2200072,,,,,,,2025-03-14,1,,,,,ファンキャッツ,0
2031,8020001161856,新規,0,2025-03-14,2025-03-14,ＨｉＦｕｔｕｒｅ株式会社,,株式会社,神奈川県,横浜市戸塚区,前田町５１５番地４２,,14,110,2440804,,,,,,,2025-03-14,1,,,,,ハイフューチャー,0
2032,8020001161880,新規,0,2025-03-14,2025-03-14,株式会社ＡＳＴＥＲＡ,,株式会社,神奈川県,横浜市港北区,綱島東１丁目１３番３７－１０７号,,14,109,2230052,,,,,,,2025-03-14,1,,,,,アステラ,0
2039,8020005016742,新規,0,2025-03-14,2025-03-14,医療法人社団輝晟会,,その他の設立登記法人,神奈川県,横浜市神奈川区,大口通３０番地の３,,14,102,2210002,,,,,,,2025-03-14,1,,,,,コウセイカイ,0
2042,8021003015736,新規,0,2025-03-14,2025-03-14,合同会社ＭＵＨＡＭＭＡＤ　ＩＮＴＥＲＮＡＴＩＯＮＡＬ,,合同会社,神奈川県,相模原市南区,磯部１６６番地１,,14,153,2520327,,,,,,,2025-03-14,1,,,,,ムハンマドインターナショナル,0
2046,8030001165328,新規,0,2025-03-14,2025-03-14,株式会社Ｄ‐ａｒｔ,,株式会社,埼玉県,川越市,大字久下戸３４３６番地４,,11,201,3500011,,,,,,,2025-03-14,1,,,,,ディーアート,0
2047,8030001165336,新規,0,2025-03-14,2025-03-14,株式会社リライフアカデミア,,株式会社,埼玉県,加須市,正能８番地１１,,11,210,3470107,,,,,,,2025-03-14,1,,,,,リライフアカデミア,0
2048,8030001165360,新規,0,2025-03-14,2025-03-14,株式会社ＡＳＰ,,株式会社,埼玉県,秩父市,山田７５４番地,,11,207,3680004,,,,,,,2025-03-14,1,,,,,エーエスピー,0
2049,8030001165402,新規,0,2025-03-14,2025-03-14,株式会社ＭＡＳＡＨＩＲＯ,,株式会社,埼玉県,入間郡三芳町,大字竹間沢９７４番地３,,11,324,3540043,,,,,,,2025-03-14,1,,,,,マサヒロ,0
2050,8030001165410,新規,0,2025-03-14,2025-03-14,株式会社ウィクトフリーク,,株式会社,埼玉県,大里郡寄居町,大字桜沢１１９３番地５,,11,408,3691202,,,,,,,2025-03-14,1,,,,,ウィクトフリーク,0
2061,8040001137771,新規,0,2025-03-14,2025-03-14,株式会社マイクロパートナーシップ,,株式会社,千葉県,市川市,日之出１８番１６－６０３号（ソフトタウン行徳Ａ棟）,,12,203,2720135,,,,,,,2025-03-14,1,,,,,マイクロパートナーシップ,0
2062,8040001137788,新規,0,2025-03-14,2025-03-14,ＵＳロイヤル株式会社,,株式会社,千葉県,千葉市中央区,中央３丁目８番８号,,12,101,2600013,,,,,,,2025-03-14,1,,,,,ユーエスロイヤルロイヤル,0
2063,8040001137796,新規,0,2025-03-14,2025-03-14,大成工業株式会社,,株式会社,千葉県,四街道市,みそら１丁目２９番１６号,,12,228,2840023,,,,,,,2025-03-14,1,,,,,タイセイコウギョウ,0
2064,8040001137805,新規,0,2025-03-14,2025-03-14,サジオンネーラ株式会社,,株式会社,千葉県,千葉市花見川区,南花園１丁目４４－１０南花園ビル２Ｆ,,12,102,2620022,,,,,,,2025-03-14,1,,,,,サジオンネーラ,0
2077,8050001056335,新規,0,2025-03-14,2025-03-14,株式会社ＡＲＭ　ＴＲＵＳＴ,,株式会社,茨城県,つくば市,吾妻１丁目７－５ＬＥＪＡＤＥＴＳＵＫＵＢＡ１４０６,,08,220,3050031,,,,,,,2025-03-14,1,,,,,アームトラスト,0
2079,8050003009118,新規,0,2025-03-14,2025-03-14,合同会社Ｍ’ｓ　Ｐａｉｎｔ,,合同会社,茨城県,鹿嶋市,旭ケ丘１丁目２２番地１２ジュネス玉村１０１,,08,222,3140017,,,,,,,2025-03-14,1,,,,,エムズペイント,0
2081,8060001038027,新規,0,2025-03-14,2025-03-14,株式会社サポイル,,株式会社,栃木県,佐野市,浅沼町８３９番地,,09,204,3270831,,,,,,,2025-03-14,1,,,,,サポイル,0
2083,8060003005462,新規,0,2025-03-14,2025-03-14,合同会社Ｓｗｅｅｐｅｒ,,合同会社,栃木県,小山市,駅東通り３丁目１番地８,,09,208,3230022,,,,,,,2025-03-14,1,,,,,スイーパー,0
2085,8070001042713,新規,0,2025-03-14,2025-03-14,株式会社佐藤塗装,,株式会社,群馬県,安中市,安中４０１５番地５,,10,211,3790116,,,,,,,2025-03-14,1,,,,,サトウトソウ,0
2086,8080003003398,新規,0,2025-03-14,2025-03-14,合同会社Ｄｒ．Ｓｈｕ　Ｏｆｆｉｃｅ,,合同会社,静岡県,静岡市清水区,殿沢１丁目１番７－２号,,22,103,4240912,,,,,,,2025-03-14,1,,,,,ドクターシューオフィス,0
2087,8080003003415,新規,0,2025-03-14,2025-03-14,合同会社星団,,合同会社,静岡県,島田市,中河９９８番地の１,,22,209,4270103,,,,,,,2025-03-14,1,,,,,セイダン,0
2092,8110001039119,新規,0,2025-03-14,2025-03-14,株式会社まもり屋,,株式会社,新潟県,新潟市秋葉区,程島２０４０番地８,,15,105,9560035,,,,,,,2025-03-14,1,,,,,マモリヤ,0
2104,8120001273666,新規,0,2025-03-14,2025-03-14,株式会社ＳＳＭＲ,,株式会社,大阪府,大阪市北区,鶴野町４番１１号朝日プラザ梅田２Ｆ２５２号室,,27,127,5300014,,,,,,,2025-03-14,1,,,,,エスエスエムアール,0
2105,8120001273674,新規,0,2025-03-14,2025-03-14,株式会社ＦＩＮＥ,,株式会社,大阪府,大阪市北区,同心１丁目１番２６号,,27,127,5300035,,,,,,,2025-03-14,1,,,,,ファイン,0
2106,8120001273699,新規,0,2025-03-14,2025-03-14,Ｄａｉｋｉｎ　Ｂｏｓｈｉ株式会社,,株式会社,大阪府,大阪市平野区,長吉川辺１丁目北２－３８－１Ｆ,,27,126,5470014,,,,,,,2025-03-14,1,,,,,ダイキンボシ,0
2107,8120001273708,新規,0,2025-03-14,2025-03-14,ＤＬ株式会社,,株式会社,大阪府,大阪市住之江区,中加賀屋２丁目１５番７号１Ｆ,,27,125,5590017,,,,,,,2025-03-14,1,,,,,ディーエル,0
2108,8120001273724,新規,0,2025-03-14,2025-03-14,トレスファン株式会社,,株式会社,大阪府,大阪市中央区,北浜３丁目５番２２号,,27,128,5410041,,,,,,,2025-03-14,1,,,,,トレスファン,0
2110,8120003028820,新規,0,2025-03-14,2025-03-14,合同会社Ａｍａｒｙｌｌｉｓ,,合同会社,大阪府,大阪市浪速区,難波中１丁目１６－１１レック難波ビル８０１,,27,111,5560011,,,,,,,2025-03-14,1,,,,,アマリリス,0
2112,8120101071227,新規,0,2025-03-14,2025-03-14,株式会社ＫＮＯＣＫ　ＫＮＯＣＫ,,株式会社,大阪府,羽曳野市,誉田６丁目５番４３号,,27,222,5830857,,,,,,,2025-03-14,1,,,,,ノックノック,0
2113,8120103006321,新規,0,2025-03-14,2025-03-14,合同会社サヴィ総研,,合同会社,大阪府,藤井寺市,岡１丁目７番１０－８０７号,,27,226,5830027,,,,,,,2025-03-14,1,,,,,サヴィソウケン,0
2119,8120903005588,新規,0,2025-03-14,2025-03-14,合同会社レインリリー,,合同会社,大阪府,豊中市,東寺内町２番２４‐９０２号,,27,203,5610871,,,,,,,2025-03-14,1,,,,,レインリリー,0
2127,8130001079179,新規,0,2025-03-14,2025-03-14,株式会社コネクト警備,,株式会社,京都府,京都市右京区,太秦北路町８番地３シャンポール松室１１１号,,26,108,6168182,,,,,,,2025-03-14,1,,,,,コネクトケイビ,0
2128,8130001079195,新規,0,2025-03-14,2025-03-14,株式会社天赦屋,,株式会社,京都府,京都市伏見区,三栖町２丁目８１３番地,,26,109,6128233,,,,,,,2025-03-14,1,,,,,テンシャヤ,0
2129,8130001079204,新規,0,2025-03-14,2025-03-14,株式会社本村工業,,株式会社,京都府,綾部市,井倉新町横縄手１４－７スタジオーネ綾部１０２,,26,203,6230051,,,,,,,2025-03-14,1,,,,,モトムラコウギョウ,0
2130,8130001079220,新規,0,2025-03-14,2025-03-14,株式会社Ｓ１,,株式会社,京都府,京都市伏見区,深草西浦町８丁目３９番地,,26,109,6120029,,,,,,,2025-03-14,1,,,,,エスワン,0
2133,8130005017309,新規,0,2025-03-14,2025-03-14,一般社団法人関西臨床動作学研究会,,その他の設立登記法人,京都府,京都市西京区,松室吾田神町１１７ＡＲＲＩＢＡ４０６,,26,111,6158202,,,,,,,2025-03-14,1,,,,,カンサイリンショウドウサガクケンキュウカイ,0
2138,8140001137720,新規,0,2025-03-14,2025-03-14,葵アセットマネジメント株式会社,,株式会社,兵庫県,尼崎市,武庫之荘７丁目３３番５号,,28,202,6610035,,,,,,,2025-03-14,1,,,,,アオイアセットマネジメント,0
2139,8140001137729,新規,0,2025-03-14,2025-03-14,梛陽株式会社,,株式会社,兵庫県,明石市,魚住町清水１６３８番地の２１,,28,203,6740074,,,,,,,2025-03-14,1,,,,,ナギハ,0
2140,8140001137745,新規,0,2025-03-14,2025-03-14,株式会社月と羽,,株式会社,兵庫県,神戸市東灘区,魚崎浜町２７番３５号,,28,101,6580024,,,,,,,2025-03-14,1,,,,,ツキトハネ,0
2143,8140003021765,新規,0,2025-03-14,2025-03-14,Ｒｏｃｋｅｔ　Ｂｏｕｎｄ合同会社,,合同会社,兵庫県,豊岡市,日高町栗栖野９５６－１,,28,209,6695372,,,,,,,2025-03-14,1,,,,,ロケットバウンド,0
2144,8140003021781,新規,0,2025-03-14,2025-03-14,合同会社ＡＸＥＬ,,合同会社,兵庫県,神戸市中央区,磯辺通１丁目１番１８号カサベラ国際プラザビル７０７号室,,28,110,6510084,,,,,,,2025-03-14,1,,,,,アクセル,0
2152,8180001165916,新規,0,2025-03-14,2025-03-14,株式会社ＳＧ８,,株式会社,愛知県,名古屋市西区,市場木町４０３番地ストロベリー１０３号,,23,104,4520805,,,,,,,2025-03-14,1,,,,,エスジーエイト,0
2153,8180005020976,新規,0,2025-03-14,2025-03-14,一般社団法人学びあいｋｉｄｓ舎設立基金,,その他の設立登記法人,愛知県,一宮市,木曽川町黒田二ノ通り５３番地,,23,203,4930001,,,,,,,2025-03-14,1,,,,,マナビアイキッズシャセツリツキキン,0
2155,8180301039613,新規,0,2025-03-14,2025-03-14,株式会社Ｌｉｖ　ｓｕｒｆ,,株式会社,愛知県,岡崎市,井ノ口町字楼１３番地１,,23,202,4442133,,,,,,,2025-03-14,1,,,,,リブサーフ,0
2157,8180303006479,新規,0,2025-03-14,2025-03-14,合同会社ＭＯＶＥ,,合同会社,愛知県,豊川市,美和通１丁目１５番地の３,,23,207,4420825,,,,,,,2025-03-14,1,,,,,ムーブ,0
2158,8190003004963,新規,0,2025-03-14,2025-03-14,もりや農園合同会社,,合同会社,三重県,津市,河芸町赤部７５３,,24,201,5100313,,,,,,,2025-03-14,1,,,,,モリヤノウエン,0
2160,8200001043540,新規,0,2025-03-14,2025-03-14,株式会社ＲｏＺｕＴｏ,,株式会社,岐阜県,海津市,海津町福江字上組２９３番地,,21,221,5030628,,,,,,,2025-03-14,1,,,,,ロズト,0
2164,8220001026551,新規,0,2025-03-14,2025-03-14,株式会社ＢｏｏｏＭ　Ｊａｐａｎ,,株式会社,石川県,金沢市,駅西本町３丁目１１番３号,,17,201,9200025,,,,,,,2025-03-14,1,,,,,ブームジャパン,0
2166,8230003002392,新規,0,2025-03-14,2025-03-14,合同会社睦,,合同会社,富山県,射水市,大門２６９番地,,16,211,9390232,,,,,,,2025-03-14,1,,,,,ムツ,0
2168,8240001064665,新規,0,2025-03-14,2025-03-14,ライフサポートコネクト株式会社,,株式会社,広島県,三次市,南畑敷町５５７番地２,,34,209,7280017,,,,,,,2025-03-14,1,,,,,ライフサポートコネクト,0
2170,8250001021038,新規,0,2025-03-14,2025-03-14,株式会社協和,,株式会社,山口県,周南市,大字呼坂１１００番地の８５,,35,215,7450612,,,,,,,2025-03-14,1,,,,,キョウワ,0
2171,8250001021046,新規,0,2025-03-14,2025-03-14,株式会社瑞商店,,株式会社,山口県,美祢市,秋芳町岩永下郷３０３０,,35,213,7540513,,,,,,,2025-03-14,1,,,,,ズイショウテン,0
2173,8250005008989,新規,0,2025-03-14,2025-03-14,医療法人ありた眼科,,その他の設立登記法人,山口県,下関市,長府中土居北町４番７号,,35,201,7520963,,,,,,,2025-03-14,1,,,,,アリタガンカ,0
2184,8290001109291,新規,0,2025-03-14,2025-03-14,ＩＴＥホールディングス株式会社,,株式会社,福岡県,朝倉市,屋形原７１６番地１１,,40,228,8380028,,,,,,,2025-03-14,1,,,,,アイティーイーホールディングス,0
2185,8290001109309,新規,0,2025-03-14,2025-03-14,株式会社宮内,,株式会社,福岡県,福岡市西区,野方５丁目１１番８号,,40,135,8190043,,,,,,,2025-03-14,1,,,,,ミヤウチ,0
2186,8290003016494,新規,0,2025-03-14,2025-03-14,シールーム合同会社,,合同会社,福岡県,糟屋郡粕屋町,大字仲原２５０９番地１,,40,349,8112304,,,,,,,2025-03-14,1,,,,,シールーム,0
2188,8290801031356,新規,0,2025-03-14,2025-03-14,株式会社ブリコ,,株式会社,福岡県,京都郡みやこ町,犀川上高屋１６５９番地１,,40,625,8240202,,,,,,,2025-03-14,1,,,,,ブリコ,0
2193,8310005008834,新規,0,2025-03-14,2025-03-14,特定非営利活動法人ＮＰＯ長崎の鐘,,その他の設立登記法人,長崎県,長崎市,竹の久保町１４番１０号,,42,201,8528014,,,,,,,2025-03-14,1,,,,,エヌピーオーナガサキノカネ,0
2195,8360003014771,新規,0,2025-03-14,2025-03-14,合同会社唯ｋｉｔｃｈｅｎ,,合同会社,沖縄県,島尻郡北大東村,字港１６番地の５,,47,358,9013903,,,,,,,2025-03-14,1,,,,,ユイキッチン,0
2196,8370003006982,新規,0,2025-03-14,2025-03-14,オールケア環境サービス合同会社,,合同会社,宮城県,登米市,迫町北方字大洞１２９番地３５スカイハイツＥ号,,04,212,9870513,,,,,,,2025-03-14,1,,,,,オールケアカンキョウサービス,0
2197,8370005010925,新規,0,2025-03-14,2025-03-14,社会保険労務士法人エリクス,,その他の設立登記法人,宮城県,仙台市青葉区,本町１丁目５番２８号カーニープレイス仙台駅前通６０３号室,,04,101,9800014,,,,,,,2025-03-14,1,,,,,エリクス,0
2202,8420005007949,新規,0,2025-03-14,2025-03-14,一般社団法人フリースクールサルドゥ,,その他の設立登記法人,青森県,青森市,安方２丁目１６番１３号Ｙスポットビル４階Ｂ,,02,201,0300803,,,,,,,2025-03-14,1,,,,,フリースクールサルドゥ,0
2206,8430001093918,新規,0,2025-03-14,2025-03-14,株式会社アプリコット,,株式会社,北海道,札幌市東区,本町一条５丁目７番７号,,01,103,0650041,,,,,,,2025-03-14,1,,,,,アプリコット,0
2207,8430001093926,新規,0,2025-03-14,2025-03-14,株式会社ＡＭＥ,,株式会社,北海道,札幌市東区,北二十条東７丁目１番１号,,01,103,0650020,,,,,,,2025-03-14,1,,,,,エーエムイー,0
2209,8440001009583,新規,0,2025-03-14,2025-03-14,株式会社幸紡ぎ,,株式会社,北海道,亀田郡七飯町,大川５丁目２番３９号,,01,337,0411122,,,,,,,2025-03-14,1,,,,,シアワセツムギ,0
2212,8450003002619,新規,0,2025-03-14,2025-03-14,合同会社フォーキッズマネジメント,,合同会社,北海道,旭川市,八条通１１丁目２１９１番地の３８５,,01,204,0700038,,,,,,,2025-03-14,1,,,,,フォーキッズマネジメント,0
2213,8460103001692,新規,0,2025-03-14,2025-03-14,ＳＴＡＲＦＩＳＨ　ＩＮＦＩＮＩＴＹ合同会社,,合同会社,北海道,上川郡新得町,字上佐幌西２線３７番地１７,,01,635,0810035,,,,,,,2025-03-14,1,,,,,スターフィッシュインフィニティ,0
2214,8470001020620,新規,0,2025-03-14,2025-03-14,ＢＬＵＥＲｏｓｅ株式会社,,株式会社,香川県,高松市,番町５丁目６番１１号,,37,201,7600017,,,,,,,2025-03-14,1,,,,,ブルーローズ,0
2215,8490001010990,新規,0,2025-03-14,2025-03-14,株式会社ジェイアイホールディングス,,株式会社,高知県,高知市,介良丙７１５番地,,39,201,7815107,,,,,,,2025-03-14,1,,,,,ジェイアイホールディングス,0
2216,8500001026201,新規,0,2025-03-14,2025-03-14,ふらわー株式会社,,株式会社,愛媛県,今治市,黄金町６丁目１番２５号,,38,202,7940037,,,,,,,2025-03-14,1,,,,,フラワー,0
2217,8500003003454,新規,0,2025-03-14,2025-03-14,ウィンドウイチゴ合同会社,,合同会社,愛媛県,松山市,竹原４丁目５番１７号,,38,201,7900053,,,,,,,2025-03-14,1,,,,,ウィンドウイチゴ,0
2218,8700150129569,新規,0,2025-03-14,2025-03-14,ＬＡＮＫＡ　ＡＵＴＯ　ＳＯＬＵＴＩＯＮ,,外国会社等,千葉県,山武市,森１５０７番地３０オフィス１号,,12,237,2891214,スリランカ民主社会主義共和国、クルネガラ、マワトゥガマロード、Ｎｏ．３３／Ａ,,,,,,2025-03-14,1,,,,,ランカオートソリユーシヨン,0
2223,9010001253133,新規,0,2025-03-14,2025-03-14,株式会社ＫＲＡＺＹ　ＢＥＥ,,株式会社,東京都,中央区,日本橋茅場町１丁目１３番１３号七宝ビルディング２Ｆ,,13,102,1030025,,,,,,,2025-03-14,1,,,,,クレイジービー,0
2224,9010001253158,新規,0,2025-03-14,2025-03-14,株式会社ＨＯＫＩＰＡ,,株式会社,東京都,文京区,湯島１丁目２番７号パークアクシス御茶ノ水３０３,,13,105,1130034,,,,,,,2025-03-14,1,,,,,ホキパ,0
2225,9010001253166,新規,0,2025-03-14,2025-03-14,オルタナトラスト株式会社,,株式会社,東京都,中央区,日本橋堀留町１丁目９番８号,,13,102,1030012,,,,,,,2025-03-14,1,,,,,オルタナトラスト,0
2226,9010001253174,新規,0,2025-03-14,2025-03-14,瀾石株式会社,,株式会社,東京都,中央区,晴海３丁目１６番１－５１０号,,13,102,1040053,,,,,,,2025-03-14,1,,,,,ランシ,0
2227,9010001253182,新規,0,2025-03-14,2025-03-14,株式会社Ｓｅａｒｃｈ＆Ｓｅａｒｃｈ,,株式会社,東京都,中央区,日本橋３丁目７番７号日本橋アーバンビルヂング４階,,13,102,1030027,,,,,,,2025-03-14,1,,,,,サーチアンドサーチ,0
2228,9010001253190,新規,0,2025-03-14,2025-03-14,株式会社ＤｉＮＯＶＡ,,株式会社,東京都,中央区,勝どき４丁目６番２－３７０２号,,13,102,1040054,,,,,,,2025-03-14,1,,,,,ディノバ,0
2229,9010001253208,新規,0,2025-03-14,2025-03-14,株式会社卜部,,株式会社,東京都,中央区,銀座１丁目１２番４号Ｎ＆Ｅ．ＢＬＤ．６Ｆ,,13,102,1040061,,,,,,,2025-03-14,1,,,,,ウラベ,0
2230,9010001253216,新規,0,2025-03-14,2025-03-14,瑞創芸株式会社,,株式会社,東京都,千代田区,神田佐久間町３丁目２８星野ビル５０９号,,13,101,1010025,,,,,,,2025-03-14,1,,,,,ズイソウゲイ,0
2231,9010003046717,新規,0,2025-03-14,2025-03-14,合同会社Ｗｏｏｄｓｔｏｃｋ　Ｊａｐａｎ,,合同会社,東京都,中央区,銀座１丁目１２番４号Ｎ＆ＥＢＬＤ．６Ｆ,,13,102,1040061,,,,,,,2025-03-14,1,,,,,ウッドストックジャパン,0
2232,9010003046725,新規,0,2025-03-14,2025-03-14,合同会社フォレストチャージ,,合同会社,東京都,千代田区,二番町５番地２５,,13,101,1020084,,,,,,,2025-03-14,1,,,,,フォレストチャージ,0
2233,9010003046733,新規,0,2025-03-14,2025-03-14,ＭＫＥ合同会社,,合同会社,東京都,中央区,京橋２丁目１２番６号ＡＯＪ税理士法人内,,13,102,1040031,,,,,,,2025-03-14,1,,,,,エムケーイー,0
2234,9010003046758,新規,0,2025-03-14,2025-03-14,合同会社まごのて,,合同会社,東京都,千代田区,神田和泉町一丁目６番１６号ヤマトビル４０５,,13,101,1010024,,,,,,,2025-03-14,1,,,,,マゴノテ,0
2235,9010003046766,新規,0,2025-03-14,2025-03-14,合同会社Ｆａｒｍｏｔ,,合同会社,東京都,中央区,銀座１丁目２２番１１号銀座大竹ビジデンス２Ｆ,,13,102,1040061,,,,,,,2025-03-14,1,,,,,ファーモット,0
2237,9010005039735,新規,0,2025-03-14,2025-03-14,一般社団法人ＬＶＣ２８号,,その他の設立登記法人,東京都,千代田区,紀尾井町３－８第２紀尾井町ビル９０１アクシス綜合会計事務所内,,13,101,1020094,,,,,,,2025-03-14,1,,,,,エルブイシーニジュウハチゴウ,0
2238,9010005039751,新規,0,2025-03-14,2025-03-14,一般社団法人２７メディカルプラス,,その他の設立登記法人,東京都,中央区,銀座７丁目１６番１５号清月堂本店ビル７０２,,13,102,1040061,,,,,,,2025-03-14,1,,,,,トゥエンティーセブンメディカルプラス,0
2243,9010401188854,新規,0,2025-03-14,2025-03-14,株式会社Ｅｎｃｙｐｈｅｒ,,株式会社,東京都,港区,南青山３丁目１－３６青山丸竹ビル６Ｆ,,13,103,1070062,,,,,,,2025-03-14,1,,,,,エンサイファー,0
2244,9010401188870,新規,0,2025-03-14,2025-03-14,株式会社Ｂ＆Ｐ,,株式会社,東京都,港区,六本木２丁目２番６号福吉町ビル６階,,13,103,1060032,,,,,,,2025-03-14,1,,,,,ビーアンドピー,0
2245,9010401188887,新規,0,2025-03-14,2025-03-14,ｅｖｅｎｔｃａｔｃｈ株式会社,,株式会社,東京都,港区,西麻布１丁目２番１７－４０１号,,13,103,1060031,,,,,,,2025-03-14,1,,,,,イベントキャッチ,0
2246,9010401188895,新規,0,2025-03-14,2025-03-14,株式会社Ｐｏｔｅｓａｌａ,,株式会社,東京都,港区,南青山３丁目１－３６青山丸竹ビル６階,,13,103,1070062,,,,,,,2025-03-14,1,,,,,ポテサラ,0
2247,9010401188929,新規,0,2025-03-14,2025-03-14,株式会社ペリメトロン,,株式会社,東京都,港区,六本木５丁目２番４号朝日生命ビル８Ｆ,,13,103,1060032,,,,,,,2025-03-14,1,,,,,ペリメトロン,0
2250,9010403034602,新規,0,2025-03-14,2025-03-14,Ｍａｃｈｉ　Ｓｔｏｒｙ合同会社,,合同会社,東京都,港区,南青山３丁目１番３６号青山丸竹ビル６Ｆ,,13,103,1070062,,,,,,,2025-03-14,1,,,,,マチストーリー,0
2251,9010403034619,新規,0,2025-03-14,2025-03-14,合同会社メノジム,,合同会社,東京都,港区,南青山１丁目１７番１６号１０２,,13,103,1070062,,,,,,,2025-03-14,1,,,,,メノジム,0
2252,9010403034627,新規,0,2025-03-14,2025-03-14,合同会社Ｃｙａｅｇｉｓ,,合同会社,東京都,港区,北青山１丁目３－３三橋ビル３階,,13,103,1070061,,,,,,,2025-03-14,1,,,,,サイージス,0
2258,9010703007588,新規,0,2025-03-14,2025-03-14,合同会社サザンビーチ・キャピタル,,合同会社,東京都,品川区,上大崎３丁目１２番１４号,,13,109,1410021,,,,,,,2025-03-14,1,,,,,サザンビーチキャピタル,0
2260,9010801035920,新規,0,2025-03-14,2025-03-14,株式会社Ｆｒｏｉｓ,,株式会社,東京都,大田区,田園調布２丁目４５番１３号,,13,111,1450071,,,,,,,2025-03-14,1,,,,,フロイス,0
2263,9010903009780,新規,0,2025-03-14,2025-03-14,Ｔｅｍｐｅｓｔａ合同会社,,合同会社,東京都,世田谷区,松原２丁目２番１７号,,13,112,1560043,,,,,,,2025-03-14,1,,,,,テンペスタ,0
2272,9011001168255,新規,0,2025-03-14,2025-03-14,Ｋ’ｓ株式会社,,株式会社,東京都,渋谷区,恵比寿１丁目８番３号５階,,13,113,1500013,,,,,,,2025-03-14,1,,,,,ケーズ,0
2273,9011001168370,新規,0,2025-03-14,2025-03-14,株式会社ＦＪＹＭ,,株式会社,東京都,渋谷区,千駄ヶ谷１丁目１９番１２－３０７号,,13,113,1510051,,,,,,,2025-03-14,1,,,,,,0
2274,9011001168379,新規,0,2025-03-14,2025-03-14,株式会社ＯＦＣ,,株式会社,東京都,目黒区,上目黒３丁目６番２４号ＡＫＴＩＳ上目黒１階,,13,110,1530051,,,,,,,2025-03-14,1,,,,,オーエフシー,0
2276,9011005010909,新規,0,2025-03-14,2025-03-14,一般社団法人ＥＡＲＴＨＬＩＮＧ,,その他の設立登記法人,東京都,渋谷区,道玄坂２丁目１８番１１－６０３号,,13,113,1500043,,,,,,,2025-03-14,1,,,,,アースリング,0
2279,9011101110975,新規,0,2025-03-14,2025-03-14,Ｒａｄｉａｎｔ　Ｔｅｃｈｎｏｌｏｇｉｅｓ株式会社,,株式会社,東京都,新宿区,西新宿２丁目６番１号,,13,104,1600023,,,,,,,2025-03-14,1,,,,,ラディアントテクノロジーズ,0
2283,9011301030429,新規,0,2025-03-14,2025-03-14,リングスオン株式会社,,株式会社,東京都,杉並区,荻窪３丁目７番５２号シティテラス荻窪ブリーズコート１０４,,13,115,1670051,,,,,,,2025-03-14,1,,,,,リングスオン,0
2287,9011501031805,新規,0,2025-03-14,2025-03-14,信企画株式会社,,株式会社,東京都,荒川区,東日暮里４丁目８番６－６０２号,,13,118,1160014,,,,,,,2025-03-14,1,,,,,シンキカク,0
2289,9011603004634,新規,0,2025-03-14,2025-03-14,アマネラビューティー合同会社,,合同会社,東京都,練馬区,大泉学園町４丁目１番２８号,,13,120,1780061,,,,,,,2025-03-14,1,,,,,アマネラビューティー,0
2290,9011701028163,新規,0,2025-03-14,2025-03-14,株式会社息吹ＴＲＵＳＴ,,株式会社,東京都,江戸川区,南小岩５丁目１７番２０号,,13,123,1330056,,,,,,,2025-03-14,1,,,,,イブキトラスト,0
2292,9011801045810,新規,0,2025-03-14,2025-03-14,株式会社メ組,,株式会社,東京都,足立区,西伊興１丁目１番２３号,,13,121,1210824,,,,,,,2025-03-14,1,,,,,メグミ,0
2293,9012303002127,新規,0,2025-03-14,2025-03-14,Ｋｉｎｓ合同会社,,合同会社,東京都,町田市,木曽東３丁目１６番２６－４１２号,,13,209,1940036,,,,,,,2025-03-14,1,,,,,キンズ,0
2295,9012403007018,新規,0,2025-03-14,2025-03-14,ＡＫ　Ｃｏｍｐａｎｙ合同会社,,合同会社,東京都,小金井市,中町１丁目１３番１８－１０８号パークコート小金井,,13,210,1840012,,,,,,,2025-03-14,1,,,,,エーケーカンパニー,0
2296,9012403007026,新規,0,2025-03-14,2025-03-14,合同会社ＢＲＡＨ,,合同会社,東京都,三鷹市,上連雀２丁目７番２１号,,13,204,1810012,,,,,,,2025-03-14,1,,,,,ブラハ,0
2297,9012703003220,新規,0,2025-03-14,2025-03-14,合同会社Ｒ＆Ｙ　ＡＳＳＯＣＩＡＴＥＳ,,合同会社,東京都,清瀬市,上清戸１丁目５番１号,,13,221,2040013,,,,,,,2025-03-14,1,,,,,アールアンドワイアソシエイツ,0
2300,9012801023797,新規,0,2025-03-14,2025-03-14,帰心株式会社,,株式会社,東京都,日野市,日野本町３丁目１４－１８谷井ビル４階４１４室,,13,212,1910011,,,,,,,2025-03-14,1,,,,,キシン,0
2301,9012801023822,新規,0,2025-03-14,2025-03-14,株式会社整理家,,株式会社,東京都,昭島市,郷地町２丁目３２番１１号,,13,207,1960032,,,,,,,2025-03-14,1,,,,,セリカ,0
2302,9012803003665,新規,0,2025-03-14,2025-03-14,イベントフォース合同会社,,合同会社,東京都,国分寺市,西恋ヶ窪２丁目２３番地１５　バイブリーハウス２０６,,13,214,1850013,,,,,,,2025-03-14,1,,,,,イベントフォース,0
2316,9020001161847,新規,0,2025-03-14,2025-03-14,興南不動産株式会社,,株式会社,神奈川県,横浜市保土ケ谷区,岩井町２５番地ＳＴビル３０１,,14,106,2400023,,,,,,,2025-03-14,1,,,,,コウナンフドウサン,0
2317,9020001161905,新規,0,2025-03-14,2025-03-14,ＥＰＪ株式会社,,株式会社,神奈川県,横浜市金沢区,福浦１丁目１３番地３,,14,108,2360004,,,,,,,2025-03-14,1,,,,,イーピージェイ,0
2335,9030001165376,新規,0,2025-03-14,2025-03-14,株式会社フォレストフィールド,,株式会社,埼玉県,新座市,片山３丁目９番７－１４号,,11,230,3520025,,,,,,,2025-03-14,1,,,,,フォレストフィールド,0
2340,9040001137770,新規,0,2025-03-14,2025-03-14,株式会社ＡＮＴＨＯＳ,,株式会社,千葉県,松戸市,河原塚３５４番地の３４エクセラン東松戸２０６号,,12,207,2702254,,,,,,,2025-03-14,1,,,,,アントス,0
2341,9040001137853,新規,0,2025-03-14,2025-03-14,株式会社Ｐａｔｈ　Ｌｉｎｋ,,株式会社,千葉県,佐倉市,大蛇町５８２番地８,,12,212,2850043,,,,,,,2025-03-14,1,,,,,パスリンク,0
2353,9040003027078,新規,0,2025-03-14,2025-03-14,合同会社タカノ,,合同会社,千葉県,市川市,南行徳１丁目１６番２５号,,12,203,2720138,,,,,,,2025-03-14,1,,,,,タカノ,0
2354,9040003027086,新規,0,2025-03-14,2025-03-14,Ｈ　ＨＩＬＬＳ　ＨＯＭＥ合同会社,,合同会社,千葉県,千葉市稲毛区,轟町１丁目１４－４,,12,103,2630021,,,,,,,2025-03-14,1,,,,,エイチヒルズホーム,0
2360,9050001056342,新規,0,2025-03-14,2025-03-14,株式会社ヒルビリーキャンピング,,株式会社,茨城県,東茨城郡茨城町,大字中石崎不動下１７８－１,,08,302,3113124,,,,,,,2025-03-14,1,,,,,ヒルビリーキャンピング,0
2361,9050003009091,新規,0,2025-03-14,2025-03-14,ＮＨ　ＡＵＴＯ　ＴＲＡＤＥＲＳ合同会社,,合同会社,茨城県,取手市,配松４７８番地１－２０５号室,,08,217,3001541,,,,,,,2025-03-14,1,,,,,エヌエイチオートトレーダーズ,0
2362,9050003009100,新規,0,2025-03-14,2025-03-14,下館通信合同会社,,合同会社,茨城県,筑西市,玉戸１３３６番地１４６,,08,227,3080847,,,,,,,2025-03-14,1,,,,,シモダテツウシン,0
2364,9060001038018,新規,0,2025-03-14,2025-03-14,株式会社ｅ．ｃｏｎｎｅｃｔｉｏｎ,,株式会社,栃木県,さくら市,馬場４０９番地１,,09,214,3291321,,,,,,,2025-03-14,1,,,,,イコネクション,0
2366,9070001042720,新規,0,2025-03-14,2025-03-14,株式会社スルタンモータース,,株式会社,群馬県,太田市,粕川町４１０番地４,,10,205,3700421,,,,,,,2025-03-14,1,,,,,スルタンモータース,0
2367,9070001042729,新規,0,2025-03-14,2025-03-14,株式会社Ｗｉｎｄ＆Ｃｏ．,,株式会社,群馬県,伊勢崎市,波志江町４４３１番地４スカイピュア１０３,,10,204,3720001,,,,,,,2025-03-14,1,,,,,ウインドアンドコー,0
2377,9100003008047,新規,0,2025-03-14,2025-03-14,エフアイ合同会社,,合同会社,長野県,下高井郡山ノ内町,大字平穏１０７６番地３,,20,561,3810401,,,,,,,2025-03-14,1,,,,,エフアイ,0
2378,9110003005695,新規,0,2025-03-14,2025-03-14,合同会社ＳＫＴ,,合同会社,新潟県,新潟市北区,木崎２９６０番地７,,15,101,9503304,,,,,,,2025-03-14,1,,,,,エスケイティ,0
2385,9120001273624,新規,0,2025-03-14,2025-03-14,大成トラスト株式会社,,株式会社,大阪府,大阪市中央区,瓦屋町２丁目５－２０－３０４,,27,128,5420066,,,,,,,2025-03-14,1,,,,,タイセイトラスト,0
2386,9120001273665,新規,0,2025-03-14,2025-03-14,Ｐ　ｌｉｆｅ株式会社,,株式会社,大阪府,大阪市港区,港晴３丁目２番１号,,27,107,5520023,,,,,,,2025-03-14,1,,,,,ピーライフ,0
2387,9120001273673,新規,0,2025-03-14,2025-03-14,株式会社ｍｉｎｅ,,株式会社,大阪府,大阪市北区,曾根崎２丁目１１番１９号サンプラザ曽根崎２Ｂ１,,27,127,5300057,,,,,,,2025-03-14,1,,,,,マイン,0
2388,9120001273707,新規,0,2025-03-14,2025-03-14,株式会社ＮＵＷＡ,,株式会社,大阪府,大阪市中央区,北浜東２番１７号ＡＲＴＡＧＩＴＯ１９６１－３階,,27,128,5400031,,,,,,,2025-03-14,1,,,,,ヌワ,0
2391,9120003028828,新規,0,2025-03-14,2025-03-14,ＳＡＧＡＲＤＥＥＰ合同会社,,合同会社,大阪府,大阪市中央区,南本町１丁目５番２２号２Ｂ,,27,128,5410054,,,,,,,2025-03-14,1,,,,,サガーディープ,0
2394,9120101071234,新規,0,2025-03-14,2025-03-14,株式会社ＪＥＡＳ,,株式会社,大阪府,和泉市,いぶき野３丁目１９番２号,,27,219,5940041,,,,,,,2025-03-14,1,,,,,ジース,0
2395,9120101071259,新規,0,2025-03-14,2025-03-14,株式会社かなうよ,,株式会社,大阪府,堺市美原区,丹上４１４番地－４,,27,147,5870011,,,,,,,2025-03-14,1,,,,,カナウヨ,0
2396,9120103006320,新規,0,2025-03-14,2025-03-14,合同会社ＡＳＫ,,合同会社,大阪府,和泉市,いぶき野４丁目５番９－１２０９号,,27,219,5940041,,,,,,,2025-03-14,1,,,,,エーエスケー,0
2400,9120901050577,新規,0,2025-03-14,2025-03-14,株式会社昴憧夢,,株式会社,大阪府,茨木市,園田町１０番５号,,27,211,5670825,,,,,,,2025-03-14,1,,,,,スバルドウム,0
2406,9130001079178,新規,0,2025-03-14,2025-03-14,株式会社Ｅｃｏテック,,株式会社,京都府,木津川市,山城町上狛西下３９番地,,26,214,6190204,,,,,,,2025-03-14,1,,,,,エコテック,0
2413,9140001137736,新規,0,2025-03-14,2025-03-14,株式会社ホーリズム,,株式会社,兵庫県,三田市,すずかけ台３丁目４番地１Ｃ棟３０４号,,28,219,6691322,,,,,,,2025-03-14,1,,,,,ホーリズム,0
2414,9140001137752,新規,0,2025-03-14,2025-03-14,株式会社ｄｏｔ,,株式会社,兵庫県,神戸市東灘区,向洋町中１丁目１番地１４１号棟３０７号室,,28,101,6580032,,,,,,,2025-03-14,1,,,,,ドット,0
2415,9140001137769,新規,0,2025-03-14,2025-03-14,ＰＰ　ＭＯＢＬＥＲ　ＪＡＰＡＮ株式会社,,株式会社,兵庫県,神戸市中央区,磯上通４丁目１番１４号三宮スカイビル６階,,28,110,6510086,,,,,,,2025-03-14,1,,,,,ピーピーモブラージャパン,0
2416,9150005009674,新規,0,2025-03-14,2025-03-14,一般財団法人ウイルス感染予防研究所,,その他の設立登記法人,奈良県,橿原市,東坊城町５０５番地,,29,205,6340835,,,,,,,2025-03-14,1,,,,,ウイルスカンセンヨボウケンキュウジョ,0
2424,9180001165923,新規,0,2025-03-14,2025-03-14,株式会社Ｇ．Ｏ．Ａ．Ｔ,,株式会社,愛知県,名古屋市中川区,烏森町字四反畑１２１丸八ビル４０５号,,23,110,4540819,,,,,,,2025-03-14,1,,,,,ゴート,0
2434,9200003006734,新規,0,2025-03-14,2025-03-14,けありーど合同会社,,合同会社,岐阜県,岐阜市,東鶉３丁目１１７番地２,,21,201,5008281,,,,,,,2025-03-14,1,,,,,ケアリード,0
2436,9220003003960,新規,0,2025-03-14,2025-03-14,白山商事合同会社,,合同会社,石川県,金沢市,観音堂町ヲ１４６番地２,,17,201,9200352,,,,,,,2025-03-14,1,,,,,ハクサンショウジ,0
2437,9220003003969,新規,0,2025-03-14,2025-03-14,合同会社リンクス,,合同会社,石川県,鳳珠郡能登町,字姫７字１７番地,,17,463,9270563,,,,,,,2025-03-14,1,,,,,リンクス,0
2439,9240001064656,新規,0,2025-03-14,2025-03-14,ゆめケアＷＥＳＴ株式会社,,株式会社,広島県,安芸郡府中町,瀬戸ハイム２丁目１０番１３号,,34,302,7350011,,,,,,,2025-03-14,1,,,,,ユメケアウエスト,0
2440,9240001064664,新規,0,2025-03-14,2025-03-14,シャルマン株式会社,,株式会社,広島県,広島市安佐南区,八木２丁目６番３７－１０２号,,34,105,7310101,,,,,,,2025-03-14,1,,,,,シャルマン,0
2442,9250003003677,新規,0,2025-03-14,2025-03-14,合同会社ＭＯＭＯＨＡＮＡ,,合同会社,山口県,下関市,みもすそ川町３番１８号,,35,201,7510813,,,,,,,2025-03-14,1,,,,,モモハナ,0
2451,9290803004994,新規,0,2025-03-14,2025-03-14,合同会社ぷれあ,,合同会社,福岡県,北九州市八幡西区,則松１丁目３番１１号プラゾオリジンＡ１０２号室,,40,109,8070831,,,,,,,2025-03-14,1,,,,,プレア,0
2457,9330001032959,新規,0,2025-03-14,2025-03-14,ＪＣ　Ｇｒｏｕｐ株式会社,,株式会社,熊本県,熊本市中央区,辛島町４－３５ラ・シック辛島１０階１０１０号室,,43,101,8600804,,,,,,,2025-03-14,1,,,,,ジェーシーグループ,0
2463,9350001019434,新規,0,2025-03-14,2025-03-14,株式会社Ｂ‐ｔｒｕｓｔ,,株式会社,宮崎県,日向市,大王町１丁目２６番地,,45,206,8830061,,,,,,,2025-03-14,1,,,,,ビートラスト,0
2470,9370003006973,新規,0,2025-03-14,2025-03-14,合同会社ＳＥＨ,,合同会社,宮城県,仙台市太白区,泉崎２丁目１０番１０号,,04,104,9820031,,,,,,,2025-03-14,1,,,,,エスイーエイチ,0
2478,9430001093941,新規,0,2025-03-14,2025-03-14,パワーリフト株式会社,,株式会社,北海道,札幌市南区,藤野二条５丁目８番６号スイートＣ,,01,106,0612282,,,,,,,2025-03-14,1,,,,,パワーリフト,0
2481,9460101007682,新規,0,2025-03-14,2025-03-14,株式会社ＴｒｉＭｉｅｕｘ,,株式会社,北海道,帯広市,西二条南２９丁目２番地１,,01,207,0800012,,,,,,,2025-03-14,1,,,,,トリミュー,0
2484,9480001012780,新規,0,2025-03-14,2025-03-14,四国メディカルトリートメントセンター株式会社,,株式会社,徳島県,徳島市,不動東町３丁目９０２番地の２,,36,201,7700062,,,,,,,2025-03-14,1,,,,,シコクメディカルトリートメントセンター,0
2487,9700150129568,新規,0,2025-03-14,2025-03-14,ＢＡＤＵＲＩＹＡ　ＭＯＴＯＲＳ,,外国会社等,千葉県,山武郡九十九里町,宿２１３３番地Ｃ,,12,403,2830106,スリランカ民主社会主義共和国、キャンディ、カトゥゴデッラレーン、Ｎｏ．４５０／Ａ,,,,,,2025-03-14,1,,,,,バドウリヤモータース,0
