sequenceNumber,corporateNumber,process,correct,updateDate,changeDate,name,nameImageId,kind,prefectureName,cityName,streetNumber,addressImageId,prefectureCode,cityCode,postCode,addressOutside,addressOutsideImageId,closeDate,closeCause,successorCorporateNumber,changeCause,assignmentDate,latest,enName,enPrefectureName,enCityName,enAddressOutside,furigana,hihyoji
2,1010001019070,登記記録の閉鎖等,0,2025-09-01,2025-08-27,株式会社庄司,,株式会社,埼玉県,戸田市,早瀬１丁目１３番２２号,,11,224,3350036,,,2025-08-27,合併による解散等,1180001045546,令和７年８月１日愛知県清須市西須ケ口９３番地株式会社宮崎（1180001045546）に合併し解散,2015-10-05,1,,,,,ショウジ,0
13,1010002012371,登記記録の閉鎖等,0,2025-09-01,2025-08-08,有限会社つぼや蒲団店,,有限会社,東京都,千代田区,九段南４丁目７番１９号,,13,101,1020074,,,2025-08-08,清算の結了等,,,2015-10-05,1,,,,,ツボヤフトンテン,0
25,1010401119817,登記記録の閉鎖等,0,2025-09-01,2025-08-04,株式会社リバランスコンサルティング,,株式会社,東京都,港区,芝２丁目１０－６－５階,,13,103,1050014,,,2025-08-04,清算の結了等,,,2015-10-05,1,,,,,リバランスコンサルティング,0
42,1011001039224,登記記録の閉鎖等,0,2025-09-01,2025-08-01,株式会社はあと・くりにっく,,株式会社,東京都,渋谷区,宇田川町６番１１号,,13,113,1500042,,,2025-08-01,合併による解散等,8011003003023,令和７年８月１日東京都渋谷区宇田川町６－１１合同会社ＤＳＳ（8011003003023）に合併し解散,2015-10-05,1,,,,,ハアトクリニック,0
54,1011101084392,登記記録の閉鎖等,0,2025-09-01,2025-08-04,株式会社ＪＯＹフード,,株式会社,東京都,新宿区,大久保２丁目２２番１３号,,13,104,1690072,,,2025-08-04,清算の結了等,,,2018-06-08,1,,,,,ジョイフード,0
58,1011301016798,登記記録の閉鎖等,0,2025-09-01,2025-07-31,ＲＳＫ　Ａｄｖｉｓｅｒｓ株式会社,,株式会社,東京都,渋谷区,千駄ヶ谷３丁目３番３号エグゼクティブ原宿６０３号室,,13,113,1510051,,,2025-07-31,清算の結了等,,,2015-10-05,1,,,,,アールエスケーアドバイザーズ,0
66,1012402013882,登記記録の閉鎖等,0,2025-09-01,2025-08-18,有限会社リンガ・サービス・センター,,有限会社,東京都,狛江市,和泉本町１丁目３６番３－４１７号,,13,219,2010003,,,2025-08-18,清算の結了等,,,2015-10-05,1,,,,,リンガサービスセンター,0
108,1050003008506,登記記録の閉鎖等,0,2025-09-01,2025-08-20,合同会社Ｓｐａｒｔａｎ　Ｅｎｅｒｇｙ,,合同会社,茨城県,つくば市,吾妻１丁目１６番地２,,08,220,3050031,,,2025-08-20,清算の結了等,,,2024-07-09,1,,,,,スパルタンエナジー,0
115,1070002036737,登記記録の閉鎖等,0,2025-09-01,2025-08-20,有限会社林建設,,有限会社,群馬県,吾妻郡高山村,大字中山４８番地,,10,428,3770702,,,2025-08-20,清算の結了等,,,2015-10-05,1,,,,,ハヤシケンセツ,0
121,1100001027725,登記記録の閉鎖等,0,2025-09-01,2025-08-27,株式会社アプロ２１,,株式会社,長野県,松本市,深志２丁目５番１３号大東レジデンス深志１０９,,20,202,3900815,,,2025-08-27,清算の結了等,,,2015-10-05,1,,,,,アプロニジュウイチ,0
132,1120001024456,登記記録の閉鎖等,0,2025-09-01,2025-08-20,天王寺漢方ビルデイング株式会社,,株式会社,大阪府,大阪市平野区,流町１丁目７番８号,,27,126,5470032,,,2025-08-20,清算の結了等,,,2015-10-05,1,,,,,テンノウジカンポウビルデイング,0
156,1122001029146,登記記録の閉鎖等,0,2025-09-01,2025-08-05,Ｙ．Ｃ．Ｌ．Ｊａｐａｎ株式会社,,株式会社,大阪府,八尾市,西木の本２丁目１１４番４号,,27,212,5810045,,,2025-08-05,清算の結了等,,,2015-12-25,1,,,,,ワイシーエルジャパン,0
166,1180001139967,登記記録の閉鎖等,0,2025-09-01,2025-08-27,株式会社キルシュメディカ,,株式会社,大阪府,豊中市,上津島２丁目５番１９号,,27,203,5610843,,,2025-08-27,清算の結了等,,,2020-02-06,1,,,,,キルシュメディカ,0
174,1180002084139,登記記録の閉鎖等,0,2025-09-01,2025-07-24,有限会社リバー,,有限会社,愛知県,半田市,花園町４丁目１０番地の１０,,23,205,4750833,,,2025-07-24,清算の結了等,,,2015-10-05,1,,,,,リバー,0
177,1180302000753,登記記録の閉鎖等,0,2025-09-01,2025-08-26,有限会社カットスタジオふくた,,有限会社,愛知県,岡崎市,鴨田町字田起６４番地鴨田ビル２階,,23,202,4442121,,,2025-08-26,清算の結了等,,,2015-10-05,1,,,,,カットスタジオフクタ,0
178,1180302012113,登記記録の閉鎖等,0,2025-09-01,2025-08-25,有限会社ライフパートナー,,有限会社,愛知県,豊橋市,上伝馬町９８番地（７０４）,,23,201,4400074,,,2025-08-25,清算の結了等,,,2015-10-05,1,,,,,ライフパートナー,0
185,1240002006879,登記記録の閉鎖等,0,2025-09-01,2025-08-28,ササキ建設有限会社,,有限会社,広島県,広島市安佐南区,川内５丁目２９番１８号,,34,105,7310102,,,2025-08-28,清算の結了等,,,2015-10-05,1,,,,,ササキケンセツ,0
186,1250002014526,登記記録の閉鎖等,0,2025-09-01,2025-08-25,有限会社環創作工房,,有限会社,山口県,周南市,大字栗屋１５６番地の１０,,35,215,7450802,,,2025-08-25,清算の結了等,,,2015-10-05,1,,,,,,0
230,1420003001712,登記記録の閉鎖等,0,2025-09-01,2025-08-22,合同会社湘南ファーム青森,,合同会社,青森県,三戸郡五戸町,大字倉石又重字上川原１１０－１,,02,442,0391703,,,2025-08-22,清算の結了等,,,2017-03-30,1,,,,,,0
234,1430001091440,登記記録の閉鎖等,0,2025-09-01,2025-08-01,室蘭産業株式会社,,株式会社,北海道,室蘭市,香川町２４番地１８,,01,205,0500052,,,2025-08-01,清算の結了等,,,2024-04-01,1,,,,,ムロランサンギョウ,0
242,2010001141732,登記記録の閉鎖等,0,2025-09-01,2025-08-27,ＴＡＣＨＩ株式会社,,株式会社,東京都,渋谷区,円山町５－５,,13,113,1500044,,,2025-08-27,合併による解散等,4130001048955,令和７年８月１日大阪市北区梅田二丁目５番６号株式会社さくらインベスト（4130001048955）に合併し解散,2015-10-05,1,,,,,タチ,0
254,2010401130194,登記記録の閉鎖等,0,2025-09-01,2025-08-01,株式会社マリタイムハンズ,,株式会社,東京都,港区,新橋１丁目１番１号,,13,103,1050004,,,2025-08-01,合併による解散等,9010401067835,令和７年６月１５日東京都港区新橋一丁目１番１号ＲＩＴＡ　ＳＨＩＰＰＩＮＧ株式会社（9010401067835）に合併し解散,2017-03-14,1,,,,,マリタイムハンズ,0
265,2010505002298,登記記録の閉鎖等,0,2025-09-01,2025-08-01,一般社団法人遊技場自動サービス機工業会,,その他の設立登記法人,東京都,台東区,東上野１丁目１７番２号第２江口ビル４階,,13,106,1100015,,,2025-08-01,清算の結了等,,,2015-10-05,1,,,,,ユウギジョウジドウサービスキコウギョウカイ,0
275,2010802014302,登記記録の閉鎖等,0,2025-09-01,2025-08-20,有限会社ミリオン精密,,有限会社,東京都,大田区,中央３丁目２０番３号,,13,111,1430024,,,2025-08-20,清算の結了等,,,2015-10-05,1,,,,,,0
301,2011802006132,登記記録の閉鎖等,0,2025-09-01,2025-08-28,有限会社ハープインテリア,,有限会社,東京都,葛飾区,東四つ木３丁目２２番８号,,13,122,1240014,,,2025-08-28,清算の結了等,,,2015-10-05,1,,,,,ハープインテリア,0
315,2020002049560,登記記録の閉鎖等,0,2025-09-01,2025-08-13,有限会社ウエストポイント,,有限会社,神奈川県,横浜市泉区,中田南４丁目２５番５１号,,14,116,2450014,,,2025-08-13,清算の結了等,,,2015-10-05,1,,,,,ウエストポイント,0
329,2030005017217,登記記録の閉鎖等,0,2025-09-01,2025-08-26,特定非営利活動法人再生エネルギーファームくまがや,,その他の設立登記法人,埼玉県,熊谷市,村岡５１７番地４,,11,202,3600162,,,2025-08-26,清算の結了等,,,2015-10-05,1,,,,,サイセイエネルギーファームクマガヤ,0
335,2050002003614,登記記録の閉鎖等,0,2025-09-01,2025-08-21,有限会社サンクリエート,,有限会社,茨城県,水戸市,南町３丁目３番３５号コワーキングスペース水戸,,08,201,3100021,,,2025-08-21,清算の結了等,,,2015-10-05,1,,,,,サンクリエート,0
342,2090001010797,登記記録の閉鎖等,0,2025-09-01,2025-08-01,株式会社ケケレ,,株式会社,東京都,渋谷区,宇田川町６番１１号,,13,113,1500042,,,2025-08-01,合併による解散等,8011003003023,令和７年８月１日東京都渋谷区宇田川町６－１１合同会社ＤＳＳ（8011003003023）に合併し解散,2015-10-05,1,,,,,ケケレ,0
354,2120001246801,登記記録の閉鎖等,0,2025-09-01,2025-08-18,株式会社Ｋ＆Ｍ,,株式会社,大阪府,大阪市中央区,上本町西２丁目５番５２号コーポシャルム１０２号,,27,128,5420062,,,2025-08-18,清算の結了等,,,2022-06-20,1,,,,,ケーアンドエム,0
367,2120901017112,登記記録の閉鎖等,0,2025-09-01,2025-08-25,株式会社アクト・ケア,,株式会社,大阪府,高槻市,芝谷町３０番１９号,,27,207,5691025,,,2025-08-25,清算の結了等,,,2015-10-05,1,,,,,アクトケア,0
376,2130002005206,登記記録の閉鎖等,0,2025-09-01,2025-08-25,有限会社ケー・エヌ・シー,,有限会社,京都府,京都市左京区,聖護院山王町９番地,,26,103,6068392,,,2025-08-25,清算の結了等,,,2015-10-05,1,,,,,ケーエヌシー,0
386,2180001098659,登記記録の閉鎖等,0,2025-09-01,2025-08-07,株式会社中部ペイント工業,,株式会社,愛知県,愛西市,北一色町北田面１７８番地３,,23,232,4960905,,,2025-08-07,清算の結了等,,,2015-10-05,1,,,,,チュウブペイントコウギョウ,0
392,2180002067794,登記記録の閉鎖等,0,2025-09-01,2025-08-06,有限会社リョービ商会,,有限会社,愛知県,春日井市,高蔵寺町２丁目１番地アピエス高蔵寺３０３号,,23,206,4870013,,,2025-08-06,清算の結了等,,,2015-10-05,1,,,,,リョービショウカイ,0
399,2180301023102,登記記録の閉鎖等,0,2025-09-01,2025-08-26,岡田製綱株式会社,,株式会社,愛知県,西尾市,東幡豆町船付９番地２,,23,213,4440701,,,2025-08-26,清算の結了等,,,2015-10-05,1,,,,,オカダセイコウ,0
403,2200001008318,登記記録の閉鎖等,0,2025-09-01,2025-08-25,株式会社ＢＫブレインズ,,株式会社,岐阜県,岐阜市,長良２４３５番地２４,,21,201,5020071,,,2025-08-25,清算の結了等,,,2015-10-05,1,,,,,ビーケイブレインズ,0
419,2260001012545,登記記録の閉鎖等,0,2025-09-01,2025-08-20,今城石油株式会社,,株式会社,岡山県,倉敷市,中庄３２０６番地の１６７,,33,202,7100016,,,2025-08-20,清算の結了等,,,2015-10-05,1,,,,,イマジョウセキユ,0
420,2260002020010,登記記録の閉鎖等,0,2025-09-01,2025-08-22,有限会社ナカ工業,,有限会社,岡山県,倉敷市,大内９９４番地の８,,33,202,7100817,,,2025-08-22,清算の結了等,,,2015-10-05,1,,,,,ナカコウギョウ,0
427,2290002057826,登記記録の閉鎖等,0,2025-09-01,2025-07-28,有限会社一心亭,,有限会社,福岡県,福岡市中央区,長浜１丁目４番２２号,,40,133,8100072,,,2025-07-28,清算の結了等,,,2025-03-26,1,,,,,イッシンテイ,0
428,2290003009966,登記記録の閉鎖等,0,2025-09-01,2025-08-25,合同会社ＳＰＹ,,合同会社,福岡県,福岡市中央区,大名２丁目６番３１号,,40,133,8100041,,,2025-08-25,清算の結了等,,,2020-05-26,1,,,,,エスピーワイ,0
435,2320005004301,登記記録の閉鎖等,0,2025-09-01,2025-08-27,農事組合法人くなわ郷雲林,,その他の設立登記法人,大分県,豊後高田市,来縄１１７７番地,,44,209,8790614,,,2025-08-27,清算の結了等,,,2015-10-05,1,,,,,クナワゴウクモバヤシ,0
447,2370002015189,登記記録の閉鎖等,0,2025-09-01,2025-08-07,有限会社菅谷不動産鑑定,,有限会社,宮城県,仙台市青葉区,上杉３丁目４番７号,,04,101,9800011,,,2025-08-07,合併による解散等,7370001018709,令和７年８月１日仙台市青葉区上杉三丁目４番７号株式会社菅谷税務コンサルタント（7370001018709）に合併し解散,2015-10-05,1,,,,,スガヤフドウサンカンテイ,0
450,2420002011694,登記記録の閉鎖等,0,2025-09-01,2025-08-19,有限会社藤田石油店,,有限会社,青森県,つがる市,稲垣町豊川宮川１番地２８,,02,209,0370104,,,2025-08-19,清算の結了等,,,2015-10-05,1,,,,,フジタセキユテン,0
464,3010001186545,登記記録の閉鎖等,0,2025-09-01,2025-08-08,ＴＥＫ　Ａｕｔｏｍｏｔｉｖｅ　Ｊａｐａｎ株式会社,,株式会社,東京都,千代田区,神田鍛冶町３丁目７番２１号天翔神田駅前ビル７階７０５号室,,13,101,1010045,,,2025-08-08,清算の結了等,,,2017-09-27,1,,,,,ティーイーケーオートモーティブジャパン,0
499,3010701033708,登記記録の閉鎖等,0,2025-09-01,2025-08-04,ロボコム株式会社,,株式会社,東京都,港区,新橋５丁目３５番１０号,,13,103,1050004,,,2025-08-04,清算の結了等,,,2017-02-09,1,,,,,ロボコム,0
505,3010902007774,登記記録の閉鎖等,0,2025-09-01,2025-08-28,有限会社秀プランニングアソシエイツ,,有限会社,東京都,世田谷区,深沢１丁目２６番５号,,13,112,1580081,,,2025-08-28,清算の結了等,,,2015-10-05,1,,,,,シュウプランニングアソシエイツ,0
518,3011101062413,登記記録の閉鎖等,0,2025-09-01,2025-08-01,ノベル株式会社,,株式会社,東京都,千代田区,丸の内１丁目８－３、丸の内トラストタワー本館１８階,,13,101,1000005,,,2025-08-01,合併による解散等,8010601050583,令和７年８月１日東京都千代田区丸の内一丁目８番３号マイクロフォーカスエンタープライズ株式会社（8010601050583）に合併し解散,2015-10-05,1,,,,,ノベル,0
525,3011502003115,登記記録の閉鎖等,0,2025-09-01,2025-08-27,有限会社杉浦マンション,,有限会社,東京都,北区,田端１丁目２１番２－１０１号,,13,117,1140014,,,2025-08-27,清算の結了等,,,2015-10-05,1,,,,,スギウラマンション,0
540,3013301028581,登記記録の閉鎖等,0,2025-09-01,2025-08-13,株式会社上池,,株式会社,東京都,豊島区,上池袋１丁目３８番９号,,13,116,1700012,,,2025-08-13,清算の結了等,,,2015-10-05,1,,,,,カミイケ,0
541,3013301041568,登記記録の閉鎖等,0,2025-09-01,2025-08-04,株式会社ＰＬＡＳ,,株式会社,東京都,新宿区,新宿２丁目１番１４－４０１号,,13,104,1600022,,,2025-08-04,清算の結了等,,,2017-12-25,1,,,,,プラス,0
568,3030002091602,登記記録の閉鎖等,0,2025-09-01,2025-08-26,有限会社ワールドエッグ,,有限会社,埼玉県,越谷市,大字増森２２６番地,,11,222,3430012,,,2025-08-26,清算の結了等,,,2015-10-05,1,,,,,ワールドエッグ,0
579,3050002008678,登記記録の閉鎖等,0,2025-09-01,2025-08-22,有限会社データネット,,有限会社,茨城県,ひたちなか市,小砂町１丁目４番地の１２,,08,221,3120015,,,2025-08-22,清算の結了等,,,2015-10-05,1,,,,,データネット,0
582,3050002038485,登記記録の閉鎖等,0,2025-09-01,2025-08-20,有限会社石の三宝,,有限会社,茨城県,牛久市,栄町５丁目６２番地３,,08,219,3001233,,,2025-08-20,清算の結了等,,,2015-10-05,1,,,,,イシノサンポウ,0
585,3060001028387,登記記録の閉鎖等,0,2025-09-01,2025-08-27,株式会社しあわせ,,株式会社,栃木県,宇都宮市,西原町６００番地３３,,09,201,3200826,,,2025-08-27,清算の結了等,,,2016-06-22,1,,,,,シアワセ,0
593,3080401028035,登記記録の閉鎖等,0,2025-09-01,2025-08-27,株式会社渡辺化学澱粉製造所,,株式会社,静岡県,湖西市,新所５８４０番地の１,,22,221,4310421,,,2025-08-27,清算の結了等,,,2025-08-07,1,,,,,ワタナベカガクデンプンセイゾウショ,0
605,3120001235596,登記記録の閉鎖等,0,2025-09-01,2025-08-20,リアライズ株式会社,,株式会社,大阪府,大阪市東成区,神路１丁目７番４号,,27,115,5370003,,,2025-08-20,清算の結了等,,,2021-03-02,1,,,,,リアライズ,0
606,3120001248400,登記記録の閉鎖等,0,2025-09-01,2025-08-20,参参慢株式会社,,株式会社,大阪府,大阪市城東区,中浜１丁目１７－１４センチュリー中浜１Ｄ,,27,118,5360024,,,2025-08-20,清算の結了等,,,2022-08-31,1,,,,,ジンジンマン,0
614,3120003026102,登記記録の閉鎖等,0,2025-09-01,2025-08-26,リヤンプラス合同会社,,合同会社,大阪府,枚方市,岡本町７番１号,,27,210,5730031,,,2025-08-26,清算の結了等,,,2024-03-06,1,,,,,リヤンプラス,0
627,3122001038863,登記記録の閉鎖等,0,2025-09-01,2025-08-26,株式会社ミマス,,株式会社,大阪府,東大阪市,足代１丁目１４番２１号,,27,227,5770841,,,2025-08-26,清算の結了等,,,2025-02-03,1,,,,,ミマス,0
636,3140001055869,登記記録の閉鎖等,0,2025-09-01,2025-08-28,株式会社佐藤商店,,株式会社,兵庫県,豊岡市,瀬戸７７番地の２３,,28,209,6696122,,,2025-08-28,清算の結了等,,,2015-10-05,1,,,,,サトウショウテン,0
638,3140002022249,登記記録の閉鎖等,0,2025-09-01,2025-08-27,有限会社ミルキーウェイ,,有限会社,兵庫県,神戸市西区,伊川谷町有瀬１２６９番地の４,,28,111,6512113,,,2025-08-27,清算の結了等,,,2015-10-05,1,,,,,ミルキーウェイ,0
639,3140002050811,登記記録の閉鎖等,0,2025-09-01,2025-08-28,本庄水産有限会社,,有限会社,兵庫県,姫路市,延末２９５番地,,28,201,6700966,,,2025-08-28,清算の結了等,,,2015-10-05,1,,,,,ホンショウスイサン,0
644,3150003002488,登記記録の閉鎖等,0,2025-09-01,2025-08-28,芝口商事合同会社,,合同会社,奈良県,桜井市,大字吉備６３８番地の１,,29,206,6330065,,,2025-08-28,清算の結了等,,,2021-09-16,1,,,,,シバグチショウジ,0
659,3210002010171,登記記録の閉鎖等,0,2025-09-01,2025-08-26,有限会社小川酒の店,,有限会社,福井県,敦賀市,松葉町２４番２号,,18,202,9140807,,,2025-08-26,清算の結了等,,,2015-10-05,1,,,,,オガワサケノミセ,0
689,3290002042678,登記記録の閉鎖等,0,2025-09-01,2025-08-05,有限会社ミヤモト工房,,有限会社,福岡県,太宰府市,坂本２丁目１１番２８号,,40,221,8180133,,,2025-08-05,清算の結了等,,,2015-10-05,1,,,,,ミヤモトコウボウ,0
709,3340001017279,登記記録の閉鎖等,0,2025-09-01,2025-08-21,株式会社マルニシ青果,,株式会社,鹿児島県,肝属郡東串良町,岩弘２００４番地２,,46,482,8931611,,,2025-08-21,合併による解散等,9340002027098,令和７年８月２０日鹿児島県肝属郡東串良町岩弘２５番地１株式会社オオスミ物産（9340002027098）に合併し解散,2015-10-05,1,,,,,マルニシセイカ,0
775,4010603010754,登記記録の閉鎖等,0,2025-09-01,2025-08-25,合同会社ＡＫ　ｐｒｏｍｏｔｉｏｎ,,合同会社,東京都,江東区,南砂３丁目１４番２３号,,13,108,1360076,,,2025-08-25,清算の結了等,,,2024-04-05,1,,,,,エーケープロモーシ,0
778,4010703003344,登記記録の閉鎖等,0,2025-09-01,2025-07-31,ＡＫＡＭ合同会社,,合同会社,東京都,目黒区,下目黒３丁目５番１６号,,13,110,1530064,,,2025-07-31,清算の結了等,,,2016-11-18,1,,,,,エーケーエーエム,0
783,4011001164572,登記記録の閉鎖等,0,2025-09-01,2025-07-31,株式会社Ｄｉｏｓａ,,株式会社,東京都,渋谷区,神南１丁目１２－１４渋谷宮田ビル６Ｆ,,13,113,1500041,,,2025-07-31,清算の結了等,,,2024-09-10,1,,,,,ディオッサ,0
807,4013401005109,登記記録の閉鎖等,0,2025-09-01,2025-08-18,株式会社ミラキュア,,株式会社,東京都,日野市,新町３丁目８番地の３８,,13,212,1910002,,,2025-08-18,清算の結了等,,,2015-10-05,1,,,,,ミラキュア,0
808,4020001021320,登記記録の閉鎖等,0,2025-09-01,2025-08-15,日新化工株式会社,,株式会社,神奈川県,横浜市港北区,新吉田町１８０番地の２,,14,109,2230056,,,2025-08-15,清算の結了等,,,2015-10-05,1,,,,,ニッシンカコウ,0
818,4030002030360,登記記録の閉鎖等,0,2025-09-01,2025-08-26,有限会社東光,,有限会社,埼玉県,所沢市,緑町３丁目６番７号,,11,208,3591111,,,2025-08-26,清算の結了等,,,2015-10-05,1,,,,,トウコウ,0
819,4030002071719,登記記録の閉鎖等,0,2025-09-01,2025-08-25,有限会社プライム,,有限会社,埼玉県,春日部市,米島１１８６番地３０,,11,214,3440115,,,2025-08-25,清算の結了等,,,2015-10-05,1,,,,,プライム,0
821,4030003022555,登記記録の閉鎖等,0,2025-09-01,2025-08-27,合同会社ＮＫ,,合同会社,埼玉県,さいたま市桜区,中島４丁目８番８号ドリームハイツ１０３号室,,11,106,3380822,,,2025-08-27,清算の結了等,,,2023-09-29,1,,,,,エヌケイ,0
823,4030005015532,登記記録の閉鎖等,0,2025-09-01,2025-08-25,一般財団法人順天堂精神医学研究所,,その他の設立登記法人,埼玉県,越谷市,大字袋山７００番地１,,11,222,3430032,,,2025-08-25,清算の結了等,,,2015-10-05,1,,,,,ジュンテンドウセイシンイガクケンキュウショ,0
837,4050001029121,登記記録の閉鎖等,0,2025-09-01,2025-08-19,株式会社染谷造園,,株式会社,茨城県,取手市,野々井１３６０番地,,08,217,3020032,,,2025-08-19,清算の結了等,,,2015-10-05,1,,,,,ソメヤゾウエン,0
849,4060002006894,登記記録の閉鎖等,0,2025-09-01,2025-08-26,有限会社ナック,,有限会社,栃木県,宇都宮市,上桑島町１４６５番地,,09,201,3210913,,,2025-08-26,清算の結了等,,,2015-10-05,1,,,,,ナック,0
853,4080401002575,登記記録の閉鎖等,0,2025-09-01,2025-08-29,株式会社鈴や紙器製作所,,株式会社,静岡県,浜松市中央区,北島町４３１番地,,22,138,4350041,,,2025-08-29,清算の結了等,,,2015-10-05,1,,,,,,0
858,4100001008508,登記記録の閉鎖等,0,2025-09-01,2025-08-25,株式会社マルキサイン,,株式会社,長野県,小諸市,大字御影新田２２６９番地１０,,20,208,3840808,,,2025-08-25,清算の結了等,,,2015-10-05,1,,,,,マルキサイン,0
859,4100001013870,登記記録の閉鎖等,0,2025-09-01,2025-08-22,株式会社ハイスメロンジャパン,,株式会社,長野県,松本市,大字島立９２１番地,,20,202,3900852,,,2025-08-22,清算の結了等,,,2015-10-05,1,,,,,ハイスメロンジャパン,0
896,4150001015053,登記記録の閉鎖等,0,2025-09-01,2025-08-22,株式会社ＰＡＳユー,,株式会社,奈良県,大和高田市,春日町２丁目１番６号,,29,202,6350067,,,2025-08-22,清算の結了等,,,2015-10-05,1,,,,,パスユー,0
904,4180001126392,登記記録の閉鎖等,0,2025-09-01,2025-08-07,株式会社ロイヤリティ・サービス,,株式会社,愛知県,名古屋市中区,丸の内２丁目１９番２５号ＭＳ桜通ビル２階Ｄ,,23,106,4600002,,,2025-08-07,清算の結了等,,,2017-02-02,1,,,,,ロイヤリティサービス,0
914,4180002004374,登記記録の閉鎖等,0,2025-09-01,2025-08-07,有限会社シティー・プランニング,,有限会社,愛知県,名古屋市千種区,姫池通３丁目１６番地,,23,101,4640055,,,2025-08-07,清算の結了等,,,2015-10-05,1,,,,,シティープランニング,0
915,4180002020875,登記記録の閉鎖等,0,2025-09-01,2025-08-06,有限会社村中鉄工所,,有限会社,愛知県,名古屋市熱田区,古新町１丁目１０７番地,,23,109,4560064,,,2025-08-06,清算の結了等,,,2015-10-05,1,,,,,ムラナカテッコウショ,0
917,4180002053677,登記記録の閉鎖等,0,2025-09-01,2025-08-05,有限会社アルベック・マネージメント,,有限会社,愛知県,名古屋市天白区,井の森町１０９番地,,23,116,4680047,,,2025-08-05,清算の結了等,,,2015-10-05,1,,,,,アルベックマネージメント,0
921,4180301029452,登記記録の閉鎖等,0,2025-09-01,2025-08-29,Ｔｈｅ　Ｗｈｏｌｅ　Ｎｅｔ株式会社,,株式会社,愛知県,豊橋市,浜道町字南側１２５番地,,23,201,4418117,,,2025-08-29,清算の結了等,,,2016-07-27,1,,,,,ザホールネット,0
936,4260002010232,登記記録の閉鎖等,0,2025-09-01,2025-08-21,有限会社山一青果,,有限会社,岡山県,岡山市南区,市場１丁目１番地,,33,104,7028052,,,2025-08-21,清算の結了等,,,2015-10-05,1,,,,,ヤマイチセイカ,0
958,4330002009052,登記記録の閉鎖等,0,2025-09-01,2025-08-19,有限会社フジエンジニアリング,,有限会社,熊本県,熊本市南区,合志町１０７番地１,,43,104,8610000,,,2025-08-19,清算の結了等,,,2015-10-05,1,,,,,フジエンジニアリング,0
960,4330005002137,登記記録の閉鎖等,0,2025-09-01,2025-08-19,特定非営利活動法人江津福祉会,,その他の設立登記法人,熊本県,熊本市中央区,出水８丁目２９番１２号,,43,101,8620941,,,2025-08-19,清算の結了等,,,2015-10-05,1,,,,,エヅフクシカイ,0
966,4340002005067,登記記録の閉鎖等,0,2025-09-01,2025-08-18,ジャパンコミュニケーション有限会社,,有限会社,鹿児島県,鹿児島市,堀江町３番３－７０６号,,46,201,8920824,,,2025-08-18,清算の結了等,,,2015-10-05,1,,,,,ジャパンコミュニケーション,0
987,4430003005098,登記記録の閉鎖等,0,2025-09-01,2025-08-01,合同会社日本トラストデザイン,,合同会社,東京都,港区,赤坂２丁目１７番５０－２８０９号,,13,103,1070052,,,2025-08-01,合併による解散等,2011001117441,令和７年８月１日東京都港区赤坂一丁目１４番１４号第３５興和ビル４０５ＡＣＧホールディング株式会社（2011001117441）に合併し解散,2015-10-05,1,,,,,ニホントラストデザイン,0
1009,5010402003628,登記記録の閉鎖等,0,2025-09-01,2025-07-31,有限会社かなめ音楽出版,,有限会社,東京都,港区,赤坂６丁目６番２８－２Ｃ号,,13,103,1070052,,,2025-07-31,清算の結了等,,,2015-10-05,1,,,,,カナメオンガクシュッパン,0
1037,5011102026340,登記記録の閉鎖等,0,2025-09-01,2025-08-04,有限会社大進,,有限会社,東京都,新宿区,新宿３丁目９番１号,,13,104,1600022,,,2025-08-04,清算の結了等,,,2015-10-05,1,,,,,ダイシン,0
1043,5011601017600,登記記録の閉鎖等,0,2025-09-01,2025-07-22,ＥＤＥＮＺＦＥＥＬ株式会社,,株式会社,東京都,港区,麻布十番１丁目５－１０アトラスビル５階,,13,103,1060045,,,2025-07-22,清算の結了等,,,2015-10-05,1,,,,,エデンズフィール,0
1048,5011702005990,登記記録の閉鎖等,0,2025-09-01,2025-08-26,親和電機有限会社,,有限会社,東京都,江戸川区,鹿骨５丁目１番１６号,,13,123,1330073,,,2025-08-26,清算の結了等,,,2015-10-05,1,,,,,シンワデンキ,0
1089,5040001032240,登記記録の閉鎖等,0,2025-09-01,2025-08-05,株式会社丸東工務店,,株式会社,千葉県,市川市,市川南３丁目１４番１６号,,12,203,2720033,,,2025-08-05,清算の結了等,,,2016-05-18,1,,,,,マルトウコウムテン,0
1092,5040001062064,登記記録の閉鎖等,0,2025-09-01,2025-08-04,株式会社嘉平屋設備,,株式会社,千葉県,銚子市,芦崎町１１６番地,00019321,12,202,2880861,,,2025-08-04,清算の結了等,,,2015-10-05,1,,,,,カヘイヤセツビ,0
1095,5040001119640,登記記録の閉鎖等,0,2025-09-01,2025-08-01,株式会社ｊｅｃｔ,,株式会社,千葉県,柏市,十余二３１３番地７３５,,12,217,2770872,,,2025-08-01,合併による解散等,8040003011462,令和７年８月１日千葉県柏市十余二３１３番地７３５合同会社ｏｔｏｎａｐｒｏ（8040003011462）に合併し解散,2021-08-10,1,,,,,ジェーイーシーティー,0
1099,5040002071997,登記記録の閉鎖等,0,2025-09-01,2025-08-05,有限会社青柳自動車工業,,有限会社,千葉県,市原市,青柳２０４２番地１,,12,219,2990102,,,2025-08-05,清算の結了等,,,2015-10-05,1,,,,,アオヤギジドウシャコウギョウ,0
1102,5050001050027,登記記録の閉鎖等,0,2025-09-01,2025-08-21,株式会社常磐木,,株式会社,茨城県,水戸市,田野町７８８番地の４,,08,201,3100901,,,2025-08-21,清算の結了等,,,2021-10-26,1,,,,,トキワギ,0
1111,5080001015976,登記記録の閉鎖等,0,2025-09-01,2025-08-26,株式会社村上フーズ,,株式会社,静岡県,焼津市,惣右衛門１３６４番地,,22,212,4250065,,,2025-08-26,清算の結了等,,,2015-10-05,1,,,,,ムラカミフーズ,0
1115,5080103000455,登記記録の閉鎖等,0,2025-09-01,2025-08-28,合資会社福よし旅舘,,合資会社,静岡県,三島市,寿町８番５号,,22,206,4110039,,,2025-08-28,清算の結了等,,,2015-10-05,1,,,,,フクヨシリョカン,0
1119,5110002027736,登記記録の閉鎖等,0,2025-09-01,2025-08-20,有限会社サンデー工業,,有限会社,新潟県,長岡市,深沢町６９０番地,,15,202,9402135,,,2025-08-20,清算の結了等,,,2015-10-05,1,,,,,サンデーコウギョウ,0
1123,5120001137717,登記記録の閉鎖等,0,2025-09-01,2025-08-22,株式会社日本未来科学技術応用発展研究所,,株式会社,大阪府,大阪市西区,江之子島１丁目７番３号,,27,106,5500006,,,2025-08-22,清算の結了等,,,2015-10-05,1,,,,,ニホンミライカガクギジュツオウヨウハッテンケンキュウショ,0
1150,5120903003009,登記記録の閉鎖等,0,2025-09-01,2025-08-25,合同会社ＭｉｗａｎＧｏ．Ｊａｐａｎ,,合同会社,大阪府,八尾市,安中町６丁目８番１３号,,27,212,5810085,,,2025-08-25,清算の結了等,,,2019-10-28,1,,,,,ミワンゴジャパン,0
1157,5130001066898,登記記録の閉鎖等,0,2025-09-01,2025-08-25,株式会社Ｄシステム,,株式会社,京都府,京都市中京区,壬生森町１２番地６,,26,104,6048862,,,2025-08-25,清算の結了等,,,2020-05-13,1,,,,,ディーシステム,0
1166,5180001064385,登記記録の閉鎖等,0,2025-09-01,2025-08-06,アシステック株式会社,,株式会社,愛知県,名古屋市中区,橘１丁目１９番１０号,,23,106,4600016,,,2025-08-06,清算の結了等,,,2015-10-05,1,,,,,アシステック,0
1167,5180001089481,登記記録の閉鎖等,0,2025-09-01,2025-08-05,株式会社アクア,,株式会社,愛知県,一宮市,光明寺字神明前１８番地,,23,203,4910135,,,2025-08-05,清算の結了等,,,2015-10-05,1,,,,,アクア,0
1181,5180005019261,登記記録の閉鎖等,0,2025-09-01,2025-07-28,一般社団法人静暮安生の会,,その他の設立登記法人,愛知県,小牧市,中央２丁目１４８番地小牧ステーションビル６０４号室,,23,219,4850029,,,2025-07-28,清算の結了等,,,2021-04-26,1,,,,,セイボアンセイノカイ,0
1187,5200001019279,登記記録の閉鎖等,0,2025-09-01,2025-08-27,関刃物相互福祉株式会社,,株式会社,岐阜県,関市,平和通４丁目１２番地６,,21,205,5013874,,,2025-08-27,清算の結了等,,,2015-10-05,1,,,,,セキハモノソウゴフクシ,0
1194,5220001019070,登記記録の閉鎖等,0,2025-09-01,2025-08-27,村上保温株式会社,,株式会社,石川県,白山市,相川町２２６４番地１,,17,210,9240027,,,2025-08-27,清算の結了等,,,2015-10-05,1,,,,,ムラカミホオン,0
1195,5220002015614,登記記録の閉鎖等,0,2025-09-01,2025-08-29,有限会社清進運輸,,有限会社,石川県,輪島市,鳳至町下町１４３番地,,17,204,9280075,,,2025-08-29,清算の結了等,,,2015-10-05,1,,,,,セイシンウンユ,0
1205,5290001048880,登記記録の閉鎖等,0,2025-09-01,2025-08-06,株式会社サンジェール,,株式会社,福岡県,久留米市,合川町１１０１番地４,,40,203,8390861,,,2025-08-06,清算の結了等,,,2015-10-05,1,,,,,サンジェール,0
1224,5330005010353,登記記録の閉鎖等,0,2025-09-01,2025-08-18,一般社団法人つむぐはぐくむ,,その他の設立登記法人,熊本県,熊本市東区,戸島西４丁目５－４５,,43,102,8618043,,,2025-08-18,清算の結了等,,,2021-05-31,1,,,,,ツムグハグクム,0
1233,5410001009754,登記記録の閉鎖等,0,2025-09-01,2025-08-29,株式会社ベジメイク,,株式会社,秋田県,秋田市,川元山下町６番５号－Ｂ２０５,,05,201,0100931,,,2025-08-29,清算の結了等,,,2015-10-05,1,,,,,,0
1236,5430001071959,登記記録の閉鎖等,0,2025-09-01,2025-08-08,株式会社三友保険企画,,株式会社,北海道,砂川市,空知太西四条６丁目１番１８号,,01,226,0730174,,,2025-08-08,清算の結了等,,,2016-07-13,1,,,,,サンユウホケンキカク,0
1242,5430003005147,登記記録の閉鎖等,0,2025-09-01,2025-08-01,合同会社日本アセットバンク,,合同会社,東京都,港区,赤坂２丁目１７番５０－２８０９号,,13,103,1070052,,,2025-08-01,合併による解散等,2011001117441,令和７年８月１日東京都港区赤坂一丁目１４番１４号第３５興和ビル４０５ＡＣＧホールディング株式会社（2011001117441）に合併し解散,2015-10-05,1,,,,,ニホンアセットバンク,0
1246,6010001048651,登記記録の閉鎖等,0,2025-09-01,2025-08-08,株式会社ソリューション,,株式会社,東京都,中央区,築地７丁目４番４号,,13,102,1040045,,,2025-08-08,清算の結了等,,,2015-10-05,1,,,,,ソリューション,0
1258,6010101010874,登記記録の閉鎖等,0,2025-09-01,2025-08-29,エフ・オー・ビー株式会社,,株式会社,東京都,八王子市,子安町１丁目３０番１５号１０１号室,,13,201,1920904,,,2025-08-29,清算の結了等,,,2015-10-05,1,,,,,エフオービー,0
1281,6010601039463,登記記録の閉鎖等,0,2025-09-01,2025-07-29,株式会社カプラス,,株式会社,東京都,江東区,扇橋２丁目５番７号,,13,108,1350011,,,2025-07-29,合併による解散等,8010801035756,令和７年７月１日東京都江東区扇橋二丁目５番７号株式会社サロンド魔ギ（8010801035756）に合併し解散,2015-10-05,1,,,,,カプラス,0
1296,6011102012307,登記記録の閉鎖等,0,2025-09-01,2025-08-04,有限会社丸淀一番,,有限会社,東京都,新宿区,北新宿４丁目２番１号東京都中央卸売市場淀橋市場内,,13,104,1690074,,,2025-08-04,清算の結了等,,,2015-10-05,1,,,,,マルヨドイチバン,0
1299,6011201006878,登記記録の閉鎖等,0,2025-09-01,2025-08-18,株式会社ハウジングメッツ,,株式会社,東京都,中野区,弥生町５丁目２７番１号,,13,114,1640013,,,2025-08-18,清算の結了等,,,2024-04-25,1,,,,,ハウジングメッツ,0
1306,6011501006479,登記記録の閉鎖等,0,2025-09-01,2025-08-27,株式会社コルボ,,株式会社,東京都,荒川区,東日暮里６丁目１６番５号,,13,118,1160014,,,2025-08-27,清算の結了等,,,2015-10-05,1,,,,,コルボ,0
1316,6012701010758,登記記録の閉鎖等,0,2025-09-01,2025-08-27,株式会社アイテクノス,,株式会社,東京都,東久留米市,下里１丁目１２番５号,,13,222,2030043,,,2025-08-27,清算の結了等,,,2015-10-05,1,,,,,アイテクノス,0
1327,6020002040227,登記記録の閉鎖等,0,2025-09-01,2025-08-18,有限会社マノメ空調設備,,有限会社,神奈川県,横浜市鶴見区,獅子ケ谷２丁目３５番２０号,,14,101,2300073,,,2025-08-18,清算の結了等,,,2015-10-05,1,,,,,マノメクウチョウセツビ,0
1342,6030002030953,登記記録の閉鎖等,0,2025-09-01,2025-08-26,有限会社フクダオート,,有限会社,埼玉県,所沢市,大字荒幡４１２番地の４,,11,208,3591133,,,2025-08-26,清算の結了等,,,2015-10-05,1,,,,,フクダオート,0
1356,6040005017055,登記記録の閉鎖等,0,2025-09-01,2025-08-04,ＮＰＯ法人かぜのこようちえん,,その他の設立登記法人,千葉県,流山市,南流山３丁目１６番地２３,,12,220,2700163,,,2025-08-04,清算の結了等,,,2015-10-05,1,,,,,カゼノコヨウチエン,0
1359,6050002044662,登記記録の閉鎖等,0,2025-09-01,2025-08-21,有限会社しのざき,,有限会社,茨城県,結城市,大字田間１４６１番地,,08,207,3070044,,,2025-08-21,清算の結了等,,,2015-10-05,1,,,,,シノザキ,0
1360,6050003002859,登記記録の閉鎖等,0,2025-09-01,2025-08-12,アハハ合同会社,,合同会社,茨城県,つくば市,緑が丘１５番地５,,08,220,3050863,,,2025-08-12,清算の結了等,,,2015-10-05,1,,,,,アハハ,0
1378,6120001091756,登記記録の閉鎖等,0,2025-09-01,2025-08-21,洋進株式会社,,株式会社,大阪府,大阪市中央区,鎗屋町２丁目２番１１号,,27,128,5400027,,,2025-08-21,清算の結了等,,,2015-10-05,1,,,,,ヨウシン,0
1381,6120001251582,登記記録の閉鎖等,0,2025-09-01,2025-08-20,東旭株式会社,,株式会社,大阪府,大阪市城東区,中浜１丁目１７－１４－２Ｄ,,27,118,5360024,,,2025-08-20,清算の結了等,,,2023-01-12,1,,,,,トウキョク,0
1423,6150005006641,登記記録の閉鎖等,0,2025-09-01,2025-08-27,特定非営利活動法人グリーンピープル,,その他の設立登記法人,奈良県,香芝市,旭ケ丘１丁目３１番地の１,,29,210,6390266,,,2025-08-27,清算の結了等,,,2015-10-05,1,,,,,グリーンピープル,0
1426,6180001003978,登記記録の閉鎖等,0,2025-09-01,2025-08-05,株式会社小南製作所,,株式会社,愛知県,名古屋市千種区,神田町２０番６号,,23,101,4640077,,,2025-08-05,清算の結了等,,,2015-10-05,1,,,,,コミナミセイサクショ,0
1429,6180001061695,登記記録の閉鎖等,0,2025-09-01,2025-08-05,株式会社ＮＥＴ－ＨＩ,,株式会社,愛知県,名古屋市港区,福田１丁目１４０７番地,,23,111,4550887,,,2025-08-05,清算の結了等,,,2015-10-05,1,,,,,ネットハイ,0
1447,6220002005151,登記記録の閉鎖等,0,2025-09-01,2025-08-29,有限会社翔龍,,有限会社,石川県,金沢市,大浦町ハ７番地５,,17,201,9200205,,,2025-08-29,清算の結了等,,,2015-10-05,1,,,,,ショウリュウ,0
1448,6220002008848,登記記録の閉鎖等,0,2025-09-01,2025-08-28,有限会社北陸印章,,有限会社,石川県,白山市,湊町レ３７番地６８,,17,210,9290217,,,2025-08-28,清算の結了等,,,2015-10-05,1,,,,,ホクリクインショウ,0
1449,6220002011174,登記記録の閉鎖等,0,2025-09-01,2025-08-28,有限会社ホクリク宣伝,,有限会社,石川県,小松市,林町キ１番地,,17,203,9230344,,,2025-08-28,清算の結了等,,,2015-10-05,1,,,,,ホクリクセンデン,0
1451,6250002016278,登記記録の閉鎖等,0,2025-09-01,2025-08-27,有限会社山城屋,,有限会社,山口県,周南市,久米中央１丁目１３番３６号メゾンドソレイユ１０１号,,35,215,7450809,,,2025-08-27,清算の結了等,,,2015-10-05,1,,,,,ヤマシロヤ,0
1458,6260002034270,登記記録の閉鎖等,0,2025-09-01,2025-08-18,有限会社藤井電機,,有限会社,岡山県,井原市,下出部町１丁目１４番１５号,,33,207,7150022,,,2025-08-18,清算の結了等,,,2015-10-05,1,,,,,フジイデンキ,0
1473,6290005019423,登記記録の閉鎖等,0,2025-09-01,2025-08-08,サンハイツ大楠住宅管理組合法人,,その他の設立登記法人,福岡県,福岡市南区,大楠１丁目６番,,40,134,8150082,,,2025-08-08,清算の結了等,,,2024-06-04,1,,,,,サンハイツオオグス,0
1501,6430003005146,登記記録の閉鎖等,0,2025-09-01,2025-08-01,合同会社日本トラストバンク,,合同会社,東京都,港区,赤坂２丁目１７番５０－２８０９号,,13,103,1070052,,,2025-08-01,合併による解散等,2011001117441,令和７年８月１日東京都港区赤坂一丁目１４番１４号第３５興和ビル４０５ＡＣＧホールディング株式会社（2011001117441）に合併し解散,2015-10-05,1,,,,,ニホントラストバンク,0
1505,6470002002982,登記記録の閉鎖等,0,2025-09-01,2025-08-29,山光開発四国ミシンセンター有限会社,,有限会社,香川県,高松市,木太町３８１９番地３,,37,201,7600080,,,2025-08-29,清算の結了等,,,2015-10-05,1,,,,,サンコウカイハツシコクミシンセンター,0
1510,7010001181303,登記記録の閉鎖等,0,2025-09-01,2025-08-01,スマートスキャン株式会社,,株式会社,東京都,千代田区,霞が関３丁目２番５号,,13,101,1000013,,,2025-08-01,合併による解散等,8010401056616,令和７年８月１日東京都千代田区霞が関三丁目２番５号株式会社ユカリア（8010401056616）に合併し解散,2017-02-07,1,,,,,スマートスキャン,0
1520,7010103001152,登記記録の閉鎖等,0,2025-09-01,2025-08-29,合同会社アフルエント,,合同会社,東京都,八王子市,別所１丁目４１番１号３－５０４,,13,201,1920363,,,2025-08-29,清算の結了等,,,2017-07-05,1,,,,,,0
1523,7010401156268,登記記録の閉鎖等,0,2025-09-01,2025-08-01,株式会社Ｎｏ．１８,,株式会社,東京都,港区,浜松町２丁目２－１５浜松町ダイヤモンドビル２Ｆ,,13,103,1050013,,,2025-08-01,清算の結了等,,,2020-11-06,1,,,,,エイティーン,0
1528,7010403022014,登記記録の閉鎖等,0,2025-09-01,2025-07-31,利尻ＩＢＬＰ合同会社,,合同会社,東京都,港区,西新橋１丁目１番１号ＥＰコンサルティングサービス内,,13,103,1050003,,,2025-07-31,清算の結了等,,,2019-12-17,1,,,,,リシリアイビーエルピー,0
1545,7010603010982,登記記録の閉鎖等,0,2025-09-01,2025-08-22,合同会社Ｌｉｖｅｌｙ　Ｃｏｌｏｒｓ,,合同会社,東京都,江東区,門前仲町１丁目１９番１１プラウド門前仲町８０５号,,13,108,1350048,,,2025-08-22,清算の結了等,,,2024-07-26,1,,,,,ライブリーカラーズ,0
1546,7010701022038,登記記録の閉鎖等,0,2025-09-01,2025-08-01,日本セレナソフトウェア合同会社,,合同会社,東京都,千代田区,丸の内１丁目８番３号丸の内トラストタワー本館１８階,,13,101,1000005,,,2025-08-01,合併による解散等,8010601050583,令和７年８月１日東京都千代田区丸の内一丁目８番３号マイクロフォーカスエンタープライズ株式会社（8010601050583）に合併し解散,2015-10-05,1,,,,,ニホンセレナソフトウェア,0
1560,7011003016991,登記記録の閉鎖等,0,2025-09-01,2025-08-01,グレースメディカル合同会社,,合同会社,東京都,渋谷区,道玄坂１丁目１０番８号渋谷道玄坂東急ビル２Ｆ－Ｃ,,13,113,1500043,,,2025-08-01,清算の結了等,,,2023-06-09,1,,,,,グレースメディカル,0
1572,7011401001389,登記記録の閉鎖等,0,2025-09-01,2025-08-26,株式会社カツエンタープライズ,,株式会社,東京都,板橋区,小豆沢２丁目１２番１１号,,13,119,1740051,,,2025-08-26,清算の結了等,,,2015-10-05,1,,,,,カツエンタープライズ,0
1576,7011801046034,登記記録の閉鎖等,0,2025-09-01,2025-08-28,株式会社ＯＷ,,株式会社,東京都,葛飾区,細田１丁目４番７号,,13,122,1240021,,,2025-08-28,合併による解散等,7410001007343,令和７年７月３１日東京都千代田区神田駿河台二丁目３番１１号株式会社ＯＮＥ　ＷＥＤＧＥ（7410001007343）に合併し解散,2025-04-25,1,,,,,オーダブリュ,0
1583,7012801009113,登記記録の閉鎖等,0,2025-09-01,2025-08-15,日本和楽器製造株式会社,,株式会社,東京都,立川市,錦町１丁目１２番１８号,,13,202,1900022,,,2025-08-15,清算の結了等,,,2015-10-05,1,,,,,ニホンワガッキセイゾウ,0
1586,7013303006508,登記記録の閉鎖等,0,2025-09-01,2025-08-21,合同会社ＴＫＤ,,合同会社,東京都,豊島区,雑司が谷３丁目３―２５―１０１,,13,116,1710032,,,2025-08-21,清算の結了等,,,2023-02-24,1,,,,,ティーケーディー,0
1587,7020001028429,登記記録の閉鎖等,0,2025-09-01,2025-08-15,株式会社花のあとりゑエム・ケイ,,株式会社,神奈川県,横浜市中区,石川町２丁目８７番地,,14,104,2310868,,,2025-08-15,清算の結了等,,,2015-10-05,1,,,,,ハナノアトリエエムケイ,0
1607,7030001139761,登記記録の閉鎖等,0,2025-09-01,2025-08-27,株式会社ＧｏＬＤ・ＳＨｉＰ,,株式会社,埼玉県,川口市,飯塚１丁目２番１６号川口ホームズ１Ｆ,,11,203,3320023,,,2025-08-27,清算の結了等,,,2020-12-15,1,,,,,ゴールドシップ,0
1615,7040002048226,登記記録の閉鎖等,0,2025-09-01,2025-08-05,有限会社フードショップゆたか,,有限会社,千葉県,松戸市,稔台２丁目４０番地の１,,12,207,2702231,,,2025-08-05,清算の結了等,,,2015-10-05,1,,,,,フードショップユタカ,0
1643,7110005016370,登記記録の閉鎖等,0,2025-09-01,2025-08-20,特定非営利活動法人地域医療を守る住民ネットワーク,,その他の設立登記法人,新潟県,十日町市,川治８２０番地５,,15,210,9480036,,,2025-08-20,清算の結了等,,,2019-02-26,1,,,,,チイキイリョウヲマモルジュウミンネットワーク,0
1651,7120002032048,登記記録の閉鎖等,0,2025-09-01,2025-08-19,有限会社ニッキサービス,,有限会社,大阪府,大阪市北区,中津２丁目８番Ｄ－１１０４号,,27,127,5310071,,,2025-08-19,清算の結了等,,,2015-10-05,1,,,,,ニッキサービス,0
1652,7120002057466,登記記録の閉鎖等,0,2025-09-01,2025-08-18,有限会社美庵,,有限会社,大阪府,大阪市中央区,東心斎橋１丁目８－１１,,27,128,5420083,,,2025-08-18,清算の結了等,,,2015-10-05,1,,,,,ビアン,0
1663,7140001068611,登記記録の閉鎖等,0,2025-09-01,2025-08-26,ケンポ製薬株式会社,,株式会社,兵庫県,西宮市,津門西口町７番６号,,28,204,6638231,,,2025-08-26,清算の結了等,,,2015-10-05,1,,,,,ケンポセイヤク,0
1675,7140002026741,登記記録の閉鎖等,0,2025-09-01,2025-08-13,株式会社レッツ,,株式会社,大阪府,大阪市中央区,瓦町３丁目４番１０号,,27,128,5410048,,,2025-08-13,清算の結了等,,,2015-10-05,1,,,,,レッツ,0
1693,7180002023215,登記記録の閉鎖等,0,2025-09-01,2025-08-06,有限会社幸菊,,有限会社,愛知県,名古屋市西区,新道１丁目２６番１１号,,23,104,4510043,,,2025-08-06,合併による解散等,4180001027293,令和７年７月３１日名古屋市西区新道一丁目２６番１１号株式会社みのこう（4180001027293）に合併し解散,2015-10-05,1,,,,,コウギク,0
1695,7180002067030,登記記録の閉鎖等,0,2025-09-01,2025-08-06,有限会社林工業所,,有限会社,愛知県,春日井市,西尾町２８７番地２,,23,206,4800302,,,2025-08-06,清算の結了等,,,2015-10-05,1,,,,,ハヤシコウギョウショ,0
1702,7180302007231,登記記録の閉鎖等,0,2025-09-01,2025-08-25,有限会社靴のシライ,,有限会社,愛知県,豊橋市,駅前大通３丁目６５番地,,23,201,4400888,,,2025-08-25,清算の結了等,,,2015-10-05,1,,,,,クツノシライ,0
1717,7250002018117,登記記録の閉鎖等,0,2025-09-01,2025-08-26,有限会社伸協板金工業所,,有限会社,山口県,岩国市,装束町５丁目８番３０号,,35,208,7400001,,,2025-08-26,清算の結了等,,,2015-10-05,1,,,,,シンキョウバンキンコウギョウショ,0
1733,7320002022887,登記記録の閉鎖等,0,2025-09-01,2025-08-01,有限会社ホルン石田,,有限会社,大分県,大分市,大字勢家１４０２番地の５,,44,201,8700100,,,2025-08-01,清算の結了等,,,2025-05-15,1,,,,,ホルンイシダ,0
1737,7370002007834,登記記録の閉鎖等,0,2025-09-01,2025-08-14,有限会社スペース・デコ,,有限会社,宮城県,仙台市若林区,大和町１丁目３番１号－１Ｆ,,04,103,9840042,,,2025-08-14,清算の結了等,,,2015-10-05,1,,,,,スペースデコ,0
1759,8010001209383,登記記録の閉鎖等,0,2025-09-01,2025-08-04,ワン・リゾート株式会社,,株式会社,東京都,港区,六本木４丁目８番７号,,13,103,1060032,,,2025-08-04,清算の結了等,,,2020-05-08,1,,,,,ワンリゾート,0
1771,8010401044042,登記記録の閉鎖等,0,2025-09-01,2025-08-26,株式会社コンピュータ・アンド・インフォメーション・オープン・スタジオ,,株式会社,東京都,墨田区,緑２丁目１０番１１号,,13,107,1300021,,,2025-08-26,清算の結了等,,,2015-10-05,1,,,,,コンピュータアンドインフォメーションオープンスタジオ,0
1775,8010401160302,登記記録の閉鎖等,0,2025-09-01,2025-08-05,ＤＥＮＢＡ　ＷＥＬＦＡＲＥ株式会社,,株式会社,東京都,港区,赤坂２丁目１７番５５号,,13,103,1070052,,,2025-08-05,清算の結了等,,,2021-05-24,1,,,,,デンバウェルフェア,0
1778,8010403022013,登記記録の閉鎖等,0,2025-09-01,2025-07-31,礼文ホールディングス合同会社,,合同会社,東京都,港区,西新橋１丁目１番１号ＥＰコンサルティングサービス内,,13,103,1050003,,,2025-07-31,清算の結了等,,,2019-12-17,1,,,,,レブンホールディングス,0
1795,8010701006329,登記記録の閉鎖等,0,2025-09-01,2025-08-28,株式会社テトラポットフィルムズ,,株式会社,東京都,港区,西麻布４丁目１４番２４号,,13,103,1060031,,,2025-08-28,合併による解散等,6010701036014,令和７年８月１日東京都渋谷区恵比寿南二丁目７番１号株式会社ＴＨＲｅｅｅ　ｅｎｔｅｒｔａｉｎｍｅｎｔ（6010701036014）に合併し解散,2015-10-05,1,,,,,テトラポットフィルムズ,0
1807,8011001136238,登記記録の閉鎖等,0,2025-09-01,2025-07-31,株式会社ＫＹＵ,,株式会社,東京都,渋谷区,神南１丁目１１番３号ＰＯＲＴＡＬＰＯＩＮＴＳＨＩＢＵＹＡ２Ｆ,,13,113,1500041,,,2025-07-31,合併による解散等,9010401126772,令和７年７月３１日東京都渋谷区神南一丁目１１番３号ＰＯＲＴＡＬＰＯＩＮＴＳＨＩＢＵＹＡ２Ｆ株式会社ＫＯＳ（9010401126772）に合併し解散,2020-10-09,1,,,,,キュウ,0
1815,8011101020291,登記記録の閉鎖等,0,2025-09-01,2025-08-12,マルソ建材株式会社,,株式会社,東京都,新宿区,高田馬場１丁目２番１５－５０６号,,13,104,1690075,,,2025-08-12,清算の結了等,,,2015-10-05,1,,,,,マルソケンザイ,0
1818,8011101086969,登記記録の閉鎖等,0,2025-09-01,2025-08-04,株式会社１Ｘ１ＩＮＮＯＶＡＴＩＯＮＳ,,株式会社,東京都,新宿区,西新宿３丁目７番地１号新宿パークタワーＮ３０階,,13,104,1600023,,,2025-08-04,清算の結了等,,,2019-02-26,1,,,,,ワンバイワンイノベーションズ,0
1857,8030002033731,登記記録の閉鎖等,0,2025-09-01,2025-08-25,有限会社サンメイ工業,,有限会社,埼玉県,狭山市,狭山台２丁目１４番地４,,11,215,3501304,,,2025-08-25,清算の結了等,,,2015-10-05,1,,,,,サンメイコウギョウ,0
1859,8030003013352,登記記録の閉鎖等,0,2025-09-01,2025-08-26,合同会社藤井建築事務所,,合同会社,埼玉県,さいたま市南区,文蔵４丁目２０番２１号浦和南パークホームズ弐番館６０８,,11,108,3360025,,,2025-08-26,清算の結了等,,,2019-04-08,1,,,,,フジイケンチクジムショ,0
1863,8040002073982,登記記録の閉鎖等,0,2025-09-01,2025-08-12,有限会社大繕工務店,,有限会社,千葉県,市原市,町田３１９番地の１,,12,219,2900267,,,2025-08-12,清算の結了等,,,2015-10-05,1,,,,,ダイゼンコウムテン,0
1866,8040005005801,登記記録の閉鎖等,0,2025-09-01,2025-08-05,税理士法人トゥルーアイ,,その他の設立登記法人,千葉県,松戸市,松戸新田５９７番地の１アドグランデ松戸みのり台レジデンス１０６号,,12,207,2702241,,,2025-08-05,清算の結了等,,,2015-10-05,1,,,,,トゥルーアイ,0
1873,8060001002940,登記記録の閉鎖等,0,2025-09-01,2025-08-08,栃木環境メンテナンス株式会社,,株式会社,東京都,千代田区,西神田１丁目４番５号,,13,101,1010065,,,2025-08-08,清算の結了等,,,2015-10-05,1,,,,,トチギカンキョウメンテナンス,0
1875,8060001006867,登記記録の閉鎖等,0,2025-09-01,2025-08-26,株式会社東興ソリューション,,株式会社,栃木県,宇都宮市,中今泉３丁目２８番１０号,,09,201,3210968,,,2025-08-26,清算の結了等,,,2015-10-05,1,,,,,トウコウソリューション,0
1883,8120001042385,登記記録の閉鎖等,0,2025-09-01,2025-08-25,株式会社川しげ,,株式会社,大阪府,大阪市西区,新町１丁目３３番１１－５０２号,,27,106,5500013,,,2025-08-25,清算の結了等,,,2015-10-05,1,,,,,カワシゲ,0
1885,8120001079642,登記記録の閉鎖等,0,2025-09-01,2025-08-18,コロナマルダイ株式会社,,株式会社,大阪府,大阪市中央区,本町１丁目５番６号,,27,128,5410053,,,2025-08-18,清算の結了等,,,2015-10-05,1,,,,,コロナマルダイ,0
1887,8120001131808,登記記録の閉鎖等,0,2025-09-01,2025-08-18,モアセレクト株式会社,,株式会社,大阪府,大阪市中央区,久太郎町３丁目２番１５号,,27,128,5410056,,,2025-08-18,清算の結了等,,,2015-10-05,1,,,,,モアセレクト,0
1895,8120001275778,登記記録の閉鎖等,0,2025-09-01,2025-08-20,＿岸貿易株式会社,00139193,株式会社,大阪府,大阪市東住吉区,北田辺４丁目６番８号,,27,121,5460044,,,2025-08-20,清算の結了等,,,2025-05-16,1,,,,,イクガンボウエキ,0
1927,8180301028970,登記記録の閉鎖等,0,2025-09-01,2025-08-25,Ｎｅｘｕｓ　Ｃｒｅａｔｉｏｎ株式会社,,株式会社,愛知県,豊田市,広久手町３丁目１４番地１,,23,211,4710036,,,2025-08-25,合併による解散等,8180301025019,令和７年８月１５日愛知県豊田市若林東町雁股８番地１株式会社酒井設備（8180301025019）に合併し解散,2016-03-03,1,,,,,ネクサスクリエイション,0
1935,8210001016719,登記記録の閉鎖等,0,2025-09-01,2025-08-25,モノづくりパートナー福井株式会社,,株式会社,福井県,福井市,江守中２丁目１３１２番地,,18,201,9188025,,,2025-08-25,清算の結了等,,,2017-04-18,1,,,,,モノヅクリパートナーフクイ,0
1938,8220002011817,登記記録の閉鎖等,0,2025-09-01,2025-08-28,有限会社光輝建設,,有限会社,石川県,小松市,西俣町ハ１９４番地,,17,203,9230176,,,2025-08-28,清算の結了等,,,2015-10-05,1,,,,,コウキケンセツ,0
1942,8260003005260,登記記録の閉鎖等,0,2025-09-01,2025-08-06,ＳｍａｒｔＣｌａｓｓ合同会社,,合同会社,岡山県,岡山市北区,大安寺南町１丁目８番３６号,,33,101,7000064,,,2025-08-06,清算の結了等,,,2025-07-18,1,,,,,スマートクラス,0
1956,8320005002836,登記記録の閉鎖等,0,2025-09-01,2025-08-22,宗教法人世親山得生寺,,その他の設立登記法人,大分県,別府市,大字鶴見３１７６番地,,44,202,8740840,,,2025-08-22,清算の結了等,,,2015-10-05,1,,,,,セシンザントクショウジ,0
1957,8330001013712,登記記録の閉鎖等,0,2025-09-01,2025-08-20,松岡機工株式会社,,株式会社,熊本県,八代市,日置町３８３８番地の１,,43,202,8660896,,,2025-08-20,清算の結了等,,,2015-10-05,1,,,,,マツオカキコウ,0
1969,8370001012660,登記記録の閉鎖等,0,2025-09-01,2025-08-12,株式会社ＩＫＤ,,株式会社,宮城県,仙台市宮城野区,出花２丁目３番地の１８,,04,102,9830012,,,2025-08-12,清算の結了等,,,2015-10-05,1,,,,,アイケーディー,0
1971,8370402001551,登記記録の閉鎖等,0,2025-09-01,2025-08-12,有限会社大澤新聞店,,有限会社,宮城県,登米市,中田町上沼字籠壇４１番地の２,,04,212,9870602,,,2025-08-12,清算の結了等,,,2015-10-05,1,,,,,オオサワシンブンテン,0
1975,8420005002297,登記記録の閉鎖等,0,2025-09-01,2025-08-20,一般社団法人青森県朝日会,,その他の設立登記法人,青森県,青森市,浜館３丁目６番地６,,02,201,0300947,,,2025-08-20,清算の結了等,,,2015-10-05,1,,,,,アオモリケンアサヒカイ,0
1980,8470002012088,登記記録の閉鎖等,0,2025-09-01,2025-08-28,橋本設備工業有限会社,,有限会社,香川県,丸亀市,津森町２０番地の１,,37,202,7630052,,,2025-08-28,清算の結了等,,,2015-10-05,1,,,,,ハシモトセツビコウギョウ,0
1994,9010003025497,登記記録の閉鎖等,0,2025-09-01,2025-08-04,合同会社ＩＲＩＳ・Ｑ,,合同会社,東京都,中央区,日本橋本町３丁目３－６ワカ末ビル７階,,13,102,1030023,,,2025-08-04,清算の結了等,,,2017-06-13,1,,,,,アイリスキュー,0
1995,9010003032007,登記記録の閉鎖等,0,2025-09-01,2025-08-08,Ｓｅｌｅｃｔｉｖｅ　Ｔｒａｄｅｍａｒｋ　Ｕｎｉｏｎ　Ｊａｐａｎ合同会社,,合同会社,東京都,千代田区,平河町１丁目５番１５号ＶＯＲＴ平河町２０１,,13,101,1020093,,,2025-08-08,清算の結了等,,,2020-04-01,1,,,,,セレクティブトレードマークユニオンジャパン,0
1998,9010401049759,登記記録の閉鎖等,0,2025-09-01,2025-07-31,株式会社みつプロダクション,,株式会社,東京都,港区,白金１丁目１２番１４－４０６号,,13,103,1080072,,,2025-07-31,清算の結了等,,,2015-10-05,1,,,,,ミツプロダクション,0
2009,9010405016961,登記記録の閉鎖等,0,2025-09-01,2025-07-31,利尻特定目的会社,,その他の設立登記法人,東京都,港区,西新橋１丁目１番１号ＥＰコンサルティングサービス内,,13,103,1050003,,,2025-07-31,清算の結了等,,,2018-08-03,1,,,,,リシリ,0
2032,9011101063100,登記記録の閉鎖等,0,2025-09-01,2025-08-25,ＨＡＲＥ株式会社,,株式会社,埼玉県,入間市,東町１丁目６番６号,,11,225,3580002,,,2025-08-25,清算の結了等,,,2015-10-05,1,,,,,ハレ,0
2033,9011101072803,登記記録の閉鎖等,0,2025-09-01,2025-08-01,株式会社旭システムテクノロジ,,株式会社,東京都,新宿区,高田馬場３丁目３１番１５号,,13,104,1690075,,,2025-08-01,合併による解散等,6011101095328,令和７年８月１日東京都新宿区高田馬場三丁目３１番１５号株式会社リンクスサポート（6011101095328）に合併し解散,2015-10-05,1,,,,,アサヒシステムテクノロジ,0
2054,9020002024870,登記記録の閉鎖等,0,2025-09-01,2025-08-15,有限会社マザーグース,,有限会社,神奈川県,横浜市旭区,白根８丁目９番３－５０３号,,14,112,2410005,,,2025-08-15,清算の結了等,,,2015-10-05,1,,,,,マザーグース,0
2067,9040002000663,登記記録の閉鎖等,0,2025-09-01,2025-08-07,有限会社アポロテクノ,,有限会社,千葉県,千葉市中央区,都町７丁目１番１号,,12,101,2600001,,,2025-08-07,清算の結了等,,,2015-10-05,1,,,,,アポロテクノ,0
2069,9040002042870,登記記録の閉鎖等,0,2025-09-01,2025-08-05,有限会社伊知地,,有限会社,千葉県,市川市,平田３丁目５番２－７０５号,,12,203,2720031,,,2025-08-05,清算の結了等,,,2015-10-05,1,,,,,イジチ,0
2070,9040002052977,登記記録の閉鎖等,0,2025-09-01,2025-07-31,有限会社イーライス,,有限会社,千葉県,松戸市,新松戸１丁目３３４番地５,,12,207,2700034,,,2025-07-31,清算の結了等,,,2015-10-05,1,,,,,イーライス,0
2071,9040002089441,登記記録の閉鎖等,0,2025-09-01,2025-08-04,柏設備工業有限会社,,有限会社,千葉県,柏市,亀甲台町１丁目１２番２号,,12,217,2770031,,,2025-08-04,清算の結了等,,,2015-10-05,1,,,,,カシワセツビコウギョウ,0
2075,9050001053190,登記記録の閉鎖等,0,2025-09-01,2025-08-22,株式会社ともみ経営,,株式会社,茨城県,水戸市,笠原町１７５０番地９,,08,201,3100852,,,2025-08-22,清算の結了等,,,2023-07-20,1,,,,,トモミケイエイ,0
2079,9080001012549,登記記録の閉鎖等,0,2025-09-01,2025-08-27,株式会社オキ装飾,,株式会社,静岡県,静岡市駿河区,登呂６丁目９番３７号,,22,102,4228033,,,2025-08-27,清算の結了等,,,2015-10-05,1,,,,,オキソウショク,0
2102,9120001242901,登記記録の閉鎖等,0,2025-09-01,2025-08-18,Ｒ－ＬＩＦＥ株式会社,,株式会社,大阪府,大阪市浪速区,日本橋西１丁目２番２５号ＳＴ難波ビル２階,,27,111,5560004,,,2025-08-18,清算の結了等,,,2022-01-06,1,,,,,アールライフ,0
2103,9120001247859,登記記録の閉鎖等,0,2025-09-01,2025-08-20,傑領株式会社,,株式会社,大阪府,大阪市天王寺区,空清町４－１１杉野ビル本館２０４号室,,27,109,5430018,,,2025-08-20,清算の結了等,,,2022-08-09,1,,,,,ケツリョウ,0
2122,9130001065541,登記記録の閉鎖等,0,2025-09-01,2025-08-18,株式会社バリューライフ,,株式会社,京都府,京都市南区,上鳥羽堀子町１２１番地１０２号,,26,107,6018181,,,2025-08-18,清算の結了等,,,2019-10-23,1,,,,,バリューライフ,0
2128,9140001055624,登記記録の閉鎖等,0,2025-09-01,2025-08-22,株式会社一ノ瀬ロボット研究所,,株式会社,兵庫県,尼崎市,南武庫之荘９丁目１１番３６号,,28,202,6610033,,,2025-08-22,清算の結了等,,,2015-10-05,1,,,,,イチノセロボットケンキュウショ,0
2129,9140001058478,登記記録の閉鎖等,0,2025-09-01,2025-08-26,株式会社キタブンコーポレーション,,株式会社,兵庫県,姫路市,飾磨区野田町１２７番地,,28,201,6728040,,,2025-08-26,清算の結了等,,,2017-03-21,1,,,,,キタブンコーポレーション,0
2156,9180301023830,登記記録の閉鎖等,0,2025-09-01,2025-08-22,ニューアドニス株式会社,,株式会社,愛知県,西尾市,戸ケ崎１丁目２番地１８,,23,213,4450075,,,2025-08-22,清算の結了等,,,2015-10-05,1,,,,,ニューアドニス,0
2159,9190002007470,登記記録の閉鎖等,0,2025-09-01,2025-08-26,有限会社拓己工業,,有限会社,三重県,鈴鹿市,三日市２丁目５番１７号,,24,207,5130807,,,2025-08-26,清算の結了等,,,2015-10-05,1,,,,,タクミコウギョウ,0
2168,9230001012748,登記記録の閉鎖等,0,2025-09-01,2025-08-26,株式会社大信自動車,,株式会社,富山県,射水市,大江１２３０番地,,16,211,9390302,,,2025-08-26,合併による解散等,4180001097758,令和７年８月１日愛知県津島市埋田町一丁目８番地株式会社西日本宇佐美（4180001097758）に合併し解散,2015-10-05,1,,,,,ダイシンジドウシャ,0
2172,9240002052908,登記記録の閉鎖等,0,2025-09-01,2025-08-26,アサヒ建設有限会社,,有限会社,広島県,三原市,宮浦３丁目９番９号,,34,204,7230051,,,2025-08-26,清算の結了等,,,2015-10-05,1,,,,,アサヒケンセツ,0
2177,9260002030457,登記記録の閉鎖等,0,2025-09-01,2025-08-18,有限会社作東機械リース,,有限会社,岡山県,勝田郡勝央町,勝間田７００番地,,33,622,7094316,,,2025-08-18,清算の結了等,,,2015-10-05,1,,,,,サクトウキカイリース,0
2187,9290002054602,登記記録の閉鎖等,0,2025-09-01,2025-08-06,有限会社ケイ工業,,有限会社,福岡県,大川市,大字津１６０番地１,,40,212,8310035,,,2025-08-06,清算の結了等,,,2015-10-05,1,,,,,ケイコウギョウ,0
2190,9290801003973,登記記録の閉鎖等,0,2025-09-01,2025-08-26,株式会社柳雪九州研究所,,株式会社,福岡県,北九州市戸畑区,浅生３丁目４番２４号,,40,105,8040062,,,2025-08-26,清算の結了等,,,2015-10-05,1,,,,,リュウセツキュウシュウケンキュウジョ,0
2197,9330002000361,登記記録の閉鎖等,0,2025-09-01,2025-08-20,有限会社あさひ屋,,有限会社,熊本県,熊本市東区,画図町大字下無田１０１番地,,43,102,8620945,,,2025-08-20,清算の結了等,,,2015-10-05,1,,,,,アサヒヤ,0
2199,9350002004022,登記記録の閉鎖等,0,2025-09-01,2025-08-29,有限会社プロシード・エンタープライズ,,有限会社,宮崎県,宮崎市,清武町池田台北２９番地３２１,,45,201,8891608,,,2025-08-29,清算の結了等,,,2015-10-05,1,,,,,プロシードエンタープライズ,0
2214,9490002010741,登記記録の閉鎖等,0,2025-09-01,2025-08-28,有限会社双名食品,,有限会社,高知県,高岡郡中土佐町,久礼６５１５番地,,39,401,7891301,,,2025-08-28,清算の結了等,,,2015-10-05,1,,,,,,0
