sequenceNumber,corporateNumber,process,correct,updateDate,changeDate,name,nameImageId,kind,prefectureName,cityName,streetNumber,addressImageId,prefectureCode,cityCode,postCode,addressOutside,addressOutsideImageId,closeDate,closeCause,successorCorporateNumber,changeCause,assignmentDate,latest,enName,enPrefectureName,enCityName,enAddressOutside,furigana,hihyoji
3,1010001063192,登記記録の閉鎖等,0,2025-12-12,2025-11-27,ジェイ・シー・サポート株式会社,,株式会社,東京都,千代田区,一ツ橋２丁目５番５号岩波書店一ツ橋ビル４階,,13,101,1010003,,,2025-11-27,清算の結了等,,,2015-10-05,1,,,,,ジェイシーサポート,0
22,1010403022886,登記記録の閉鎖等,0,2025-12-12,2025-11-20,新大阪ホスピタリティ合同会社,,合同会社,東京都,港区,赤坂４丁目１番３１号,,13,103,1070052,,,2025-11-20,清算の結了等,,,2020-04-27,1,,,,,シンオオサカホスピタリティ,0
25,1010501036020,登記記録の閉鎖等,0,2025-12-12,2025-11-21,株式会社アイルホーム,,株式会社,千葉県,習志野市,茜浜１丁目１１番４号,,12,216,2750024,,,2025-11-21,清算の結了等,,,2015-10-05,1,,,,,アイルホーム,0
33,1010602015435,登記記録の閉鎖等,0,2025-12-12,2025-12-08,有限会社ヤマキ,,有限会社,東京都,墨田区,墨田２丁目２番１０号,,13,107,1310031,,,2025-12-08,清算の結了等,,,2015-10-05,1,,,,,ヤマキ,0
53,1011401019453,登記記録の閉鎖等,0,2025-12-12,2025-12-09,株式会社英信建設工業,,株式会社,東京都,板橋区,高島平８丁目９番１３号,,13,119,1750082,,,2025-12-09,清算の結了等,,,2016-05-23,1,,,,,,0
54,1011405000211,登記記録の閉鎖等,0,2025-12-12,2025-12-08,学校法人成増学園,,その他の設立登記法人,東京都,板橋区,成増１丁目５番７号,,13,119,1750094,,,2025-12-08,清算の結了等,,,2015-10-05,1,,,,,ナリマスガクエン,0
57,1011802011298,登記記録の閉鎖等,0,2025-12-12,2025-12-09,有限会社柏崎,00057371,有限会社,東京都,足立区,千住寿町８番１８号,,13,121,1200033,,,2025-12-09,清算の結了等,,,2015-10-05,1,,,,,カシワザキ,0
70,1013402007222,登記記録の閉鎖等,0,2025-12-12,2025-12-04,有限会社プロム,,有限会社,東京都,多摩市,一ノ宮１丁目２４番１－３１５号,,13,224,2060002,,,2025-12-04,清算の結了等,,,2015-10-05,1,,,,,プロム,0
71,1020001146491,登記記録の閉鎖等,0,2025-12-12,2025-12-09,株式会社アフィットホーム,,株式会社,神奈川県,横浜市中区,山下町７０番地１５,,14,104,2310023,,,2025-12-09,清算の結了等,,,2022-05-12,1,,,,,アフィットホーム,0
76,1020002008468,登記記録の閉鎖等,0,2025-12-12,2025-12-09,有限会社テクセル,,有限会社,神奈川県,横浜市金沢区,富岡西４丁目５２番７号,,14,108,2360052,,,2025-12-09,清算の結了等,,,2025-10-31,1,,,,,テクセル,0
77,1020002020035,登記記録の閉鎖等,0,2025-12-12,2025-12-08,有限会社明峰電機,,有限会社,神奈川県,横浜市港南区,芹が谷５丁目２６番３３号,,14,111,2330006,,,2025-12-08,清算の結了等,,,2015-10-05,1,,,,,メイホウデンキ,0
115,1090002001672,登記記録の閉鎖等,0,2025-12-12,2025-12-08,株式会社ジェーリンクス,,株式会社,山梨県,富士吉田市,松山１５９５番地,,19,202,4030016,,,2025-12-08,清算の結了等,,,2015-10-05,1,,,,,ジェーリンクス,0
116,1100001000467,登記記録の閉鎖等,0,2025-12-12,2025-12-01,長野リンデンホールディングス株式会社,,株式会社,東京都,千代田区,有楽町１丁目２番２号,,13,101,1000006,,,2025-12-01,合併による解散等,2010001170145,令和７年１２月１日東京都千代田区有楽町一丁目２番２号サンフロンティアホテルマネジメント株式会社（2010001170145）に合併し解散,2015-10-05,1,,,,,ナガノリンデンホールディングス,0
117,1100002019812,登記記録の閉鎖等,0,2025-12-12,2025-12-10,有限会社クリーニング昭和・石芝,,有限会社,長野県,松本市,元町１丁目１番２８号,,20,202,3900803,,,2025-12-10,清算の結了等,,,2015-10-05,1,,,,,クリーニングショウワイシシバ,0
122,1110002030438,登記記録の閉鎖等,0,2025-12-12,2025-12-08,有限会社クラフテック,,有限会社,新潟県,長岡市,新産東町３８番地,,15,202,9402128,,,2025-12-08,清算の結了等,,,2015-10-05,1,,,,,,0
131,1120002006577,登記記録の閉鎖等,0,2025-12-12,2025-12-10,有限会社おがわ,,有限会社,大阪府,大阪市東成区,深江北１丁目５番１２号,,27,115,5370001,,,2025-12-10,清算の結了等,,,2015-10-05,1,,,,,,0
134,1120005005898,登記記録の閉鎖等,0,2025-12-12,2025-12-10,コーセツ千林事業協同組合,,その他の設立登記法人,大阪府,大阪市旭区,千林２丁目１２番７号コーセツ千林内,,27,117,5350012,,,2025-12-10,清算の結了等,,,2015-10-05,1,,,,,コーセツセンバヤシ,0
144,1130002032390,登記記録の閉鎖等,0,2025-12-12,2025-12-10,有限会社中央モータース,,有限会社,京都府,宮津市,字魚屋９２９番地の１,,26,205,6260015,,,2025-12-10,清算の結了等,,,2015-10-05,1,,,,,チュウオウモータース,0
160,1170001005773,登記記録の閉鎖等,0,2025-12-12,2025-12-11,株式会社東洋化成品製作所,,株式会社,和歌山県,和歌山市,小雑賀６９０番地１２,,30,201,6410007,,,2025-12-11,清算の結了等,,,2015-10-05,1,,,,,トウヨウカセイヒンセイサクショ,0
170,1180002008601,登記記録の閉鎖等,0,2025-12-12,2025-12-09,有限会社ハンディクラフト・コンサルタント,,有限会社,愛知県,名古屋市昭和区,五軒家町２３番地,,23,107,4660838,,,2025-12-09,清算の結了等,,,2015-10-05,1,,,,,ハンディクラフトコンサルタント,0
171,1180002060734,登記記録の閉鎖等,0,2025-12-12,2025-12-05,有限会社つきおか,,有限会社,愛知県,岡崎市,竜美南１丁目７番地１,,23,202,4440874,,,2025-12-05,清算の結了等,,,2015-10-05,1,,,,,ツキオカ,0
177,1180303006691,登記記録の閉鎖等,0,2025-12-12,2025-12-01,合同会社アグリ,,合同会社,愛知県,豊田市,若林東町東山４０番地８,,23,211,4730914,,,2025-12-01,合併による解散等,8180301036370,令和７年１２月１日愛知県豊田市若林東町東山４０番地８株式会社高岡ヤンマーホールディングス（8180301036370）に合併し解散,2025-08-15,1,,,,,アグリ,0
181,1210002012310,登記記録の閉鎖等,0,2025-12-12,2025-12-08,有限会社渡辺製材所,,有限会社,福井県,丹生郡越前町,細野第２号１２番地,,18,423,9160202,,,2025-12-08,清算の結了等,,,2015-10-05,1,,,,,ワタナベセイザイショ,0
198,1250001005864,登記記録の閉鎖等,0,2025-12-12,2025-12-08,田中産業株式会社,,株式会社,山口県,下関市,大字冨任１２８番地の３,,35,201,7596615,,,2025-12-08,清算の結了等,,,2015-10-05,1,,,,,タナカサンギョウ,0
214,1310001004892,登記記録の閉鎖等,0,2025-12-12,2025-12-11,株式会社シノダ不動産,,株式会社,長崎県,大村市,古賀島町５２５番４,,42,205,8560817,,,2025-12-11,清算の結了等,,,2015-10-05,1,,,,,シノダフドウサン,0
232,1360005002104,登記記録の閉鎖等,0,2025-12-12,2025-12-08,医療法人トキオ会,,その他の設立登記法人,沖縄県,沖縄市,美里５丁目２４番１５号,,47,211,9042153,,,2025-12-08,清算の結了等,,,2015-10-05,1,,,,,トキオカイ,0
236,1370201004101,登記記録の閉鎖等,0,2025-12-12,2025-12-08,株式会社戸部測量,,株式会社,宮城県,大崎市,田尻北小牛田字宅地一５９番地,,04,215,9894304,,,2025-12-08,清算の結了等,,,2015-10-05,1,,,,,トベソクリョウ,0
240,1410001003819,登記記録の閉鎖等,0,2025-12-12,2025-11-28,ムラタ電設株式会社,,株式会社,秋田県,秋田市,大平台３丁目５番地４,,05,201,0101428,,,2025-11-28,清算の結了等,,,2015-10-05,1,,,,,ムラタデンセツ,0
245,1430001089889,登記記録の閉鎖等,0,2025-12-12,2025-12-05,株式会社オーシャン,,株式会社,北海道,札幌市東区,北八条東６丁目１２番７６号プレサント北八条Ａ４１２号室,,01,103,0600908,,,2025-12-05,清算の結了等,,,2023-09-04,1,,,,,オーシャン,0
247,1430003007205,登記記録の閉鎖等,0,2025-12-12,2025-12-09,合同会社コーキ,,合同会社,北海道,札幌市厚別区,厚別東三条２丁目１番１０－６０１号,,01,108,0040003,,,2025-12-09,清算の結了等,,,2015-12-03,1,,,,,コーキ,0
250,1440001006001,登記記録の閉鎖等,0,2025-12-12,2025-12-10,田村建設株式会社,,株式会社,北海道,山越郡長万部町,字長万部４３４番地,,01,347,0493521,,,2025-12-10,清算の結了等,,,2015-10-05,1,,,,,タムラケンセツ,0
257,2010001011225,登記記録の閉鎖等,0,2025-12-12,2025-12-01,株式会社インターナショナル・ビジネス・サービス,,株式会社,東京都,千代田区,神田錦町３丁目５番地１,,13,101,1010054,,,2025-12-01,合併による解散等,9010001186085,令和７年１２月１日東京都千代田区神田錦町三丁目５番地１株式会社徳田商事（9010001186085）に合併し解散,2015-10-05,1,,,,,インターナショナルビジネスサービス,0
261,2010001081251,登記記録の閉鎖等,0,2025-12-12,2025-11-27,株式会社しんび,,株式会社,東京都,中央区,銀座７丁目７番６号アスタープラザビル５階,,13,102,1040061,,,2025-11-27,清算の結了等,,,2015-10-05,1,,,,,シンビ,0
262,2010001081417,登記記録の閉鎖等,0,2025-12-12,2025-12-01,デロイトトーマツリスクアドバイザリー合同会社,,合同会社,東京都,千代田区,丸の内３丁目２番３号丸の内二重橋ビルディング,,13,101,1000005,,,2025-12-01,合併による解散等,3010001076738,令和７年１２月１日東京都千代田区丸の内三丁目２番３号丸の内二重橋ビルディングデロイトトーマツファイナンシャルアドバイザリー合同会社（3010001076738）に合併し解散,2015-10-05,1,,,,,デロイトトーマツリスクアドバイザリー,0
264,2010001130140,登記記録の閉鎖等,0,2025-12-12,2025-11-28,株式会社Ｓ．Ｐ．ＲＯＥ,,株式会社,東京都,中央区,築地４丁目１１番１０号,,13,102,1040045,,,2025-11-28,清算の結了等,,,2015-10-05,1,,,,,,0
281,2010002005787,登記記録の閉鎖等,0,2025-12-12,2025-11-26,有限会社丸八本店,,有限会社,東京都,文京区,西片２丁目６番２号,,13,105,1130024,,,2025-11-26,清算の結了等,,,2015-10-05,1,,,,,マルハチホンテン,0
284,2010003024324,登記記録の閉鎖等,0,2025-12-12,2025-11-27,ＩＮＶＥＣＨ合同会社,,合同会社,東京都,中央区,日本橋小舟町２番２号ウィルレーナ日本橋三越前５０２号,,13,102,1030024,,,2025-11-27,清算の結了等,,,2016-10-31,1,,,,,インウィチ,0
292,2010401002253,登記記録の閉鎖等,0,2025-12-12,2025-11-21,株式会社粟野善治建築都市設計事務所,,株式会社,東京都,港区,高輪４丁目２１番３０－５０３号,,13,103,1080074,,,2025-11-21,清算の結了等,,,2015-10-05,1,,,,,アワノゼンジケンチクトシセッケイジムショ,0
297,2010402009074,登記記録の閉鎖等,0,2025-12-12,2025-11-18,有限会社東伸産業,,有限会社,東京都,港区,白金２丁目２番９号,,13,103,1080072,,,2025-11-18,清算の結了等,,,2015-10-05,1,,,,,トウシンサンギョウ,0
303,2010701005385,登記記録の閉鎖等,0,2025-12-12,2025-12-08,そふと工房株式会社,,株式会社,東京都,品川区,西五反田７丁目２３番１１号,,13,109,1410031,,,2025-12-08,清算の結了等,,,2015-10-05,1,,,,,,0
309,2011001136128,登記記録の閉鎖等,0,2025-12-12,2025-12-01,ニューラルトランス株式会社,,株式会社,東京都,港区,西麻布３丁目１７番１５号,,13,103,1060031,,,2025-12-01,合併による解散等,7011001118476,令和７年１２月１日東京都港区西麻布三丁目１７番１５号シナジオン株式会社（7011001118476）に合併し解散,2020-10-05,1,,,,,ニューラルトランス,0
333,2011801021339,登記記録の閉鎖等,0,2025-12-12,2025-12-01,小里トレーディング株式会社,,株式会社,東京都,葛飾区,鎌倉１丁目３９番７号,,13,122,1250053,,,2025-12-01,清算の結了等,,,2015-10-05,1,,,,,コザトトレーディング,0
337,2012801017351,登記記録の閉鎖等,0,2025-12-12,2025-12-10,株式会社Ｇ－ＢＲＩＧＨＴ,,株式会社,東京都,国分寺市,西恋ヶ窪４丁目２４番地１,,13,214,1850013,,,2025-12-10,清算の結了等,,,2016-07-05,1,,,,,ジーブライト,0
342,2013301004798,登記記録の閉鎖等,0,2025-12-12,2025-12-02,山友商事株式会社,,株式会社,東京都,豊島区,巣鴨１丁目７番６号東邦アネックス,,13,116,1700002,,,2025-12-02,清算の結了等,,,2015-10-05,1,,,,,サンユウショウジ,0
353,2021001061093,登記記録の閉鎖等,0,2025-12-12,2025-11-20,株式会社トップストーン,,株式会社,神奈川県,厚木市,関口７８８番地１ビューテラス平井Ａ２０１,,14,212,2430804,,,2025-11-20,清算の結了等,,,2017-01-16,1,,,,,,0
360,2021002035170,登記記録の閉鎖等,0,2025-12-12,2025-11-26,有限会社総合建設高橋,,有限会社,神奈川県,伊勢原市,板戸５２１番地,,14,214,2591145,,,2025-11-26,清算の結了等,,,2015-10-05,1,,,,,ソウゴウケンセツタカハシ,0
363,2021005008140,登記記録の閉鎖等,0,2025-12-12,2025-11-20,医療法人青龍会,,その他の設立登記法人,神奈川県,逗子市,小坪６丁目７番１８号,,14,208,2490008,,,2025-11-20,清算の結了等,,,2015-10-05,1,,,,,,0
366,2030001136391,登記記録の閉鎖等,0,2025-12-12,2025-12-05,株式会社ワイエヌエス,,株式会社,埼玉県,さいたま市中央区,下落合４丁目１１番９号,,11,105,3380002,,,2025-12-05,清算の結了等,,,2020-05-11,1,,,,,ワイエヌエス,0
372,2030002066555,登記記録の閉鎖等,0,2025-12-12,2025-12-01,有限会社招誠コンサルタント,,有限会社,埼玉県,新座市,野寺４丁目１２番３５号,,11,230,3520034,,,2025-12-01,清算の結了等,,,2015-10-05,1,,,,,ショウセイコンサルタント,0
390,2060001031086,登記記録の閉鎖等,0,2025-12-12,2025-12-10,株式会社クラウド企画,,株式会社,栃木県,真岡市,島７６５番地１０,,09,209,3214326,,,2025-12-10,清算の結了等,,,2018-11-15,1,,,,,クラウドキカク,0
393,2070002034153,登記記録の閉鎖等,0,2025-12-12,2025-12-09,有限会社小曽根工務店,,有限会社,群馬県,館林市,堀工町９８０番地の１２,,10,207,3740033,,,2025-12-09,清算の結了等,,,2015-10-05,1,,,,,オゾネコウムテン,0
404,2110003001503,登記記録の閉鎖等,0,2025-12-12,2025-12-04,株式会社越田屋よしこし,,株式会社,新潟県,妙高市,小出雲１丁目２番１０号,,15,217,9440032,,,2025-12-04,清算の結了等,,,2015-10-05,1,,,,,コシダヤヨシコシ,0
425,2120901017574,登記記録の閉鎖等,0,2025-12-12,2025-12-05,株式会社コデックス,,株式会社,大阪府,高槻市,別所本町５０－１－１１０,,27,207,5691112,,,2025-12-05,清算の結了等,,,2015-10-05,1,,,,,コデックス,0
428,2130002014272,登記記録の閉鎖等,0,2025-12-12,2025-12-10,有限会社たけなか,,有限会社,京都府,京都市伏見区,深草越後屋敷町８番地,,26,109,6128431,,,2025-12-10,清算の結了等,,,2015-10-05,1,,,,,タケナカ,0
448,2180001130025,登記記録の閉鎖等,0,2025-12-12,2025-12-08,ＩＮＤＥＰＥＮＤＥＮＣＥ株式会社,,株式会社,愛知県,名古屋市緑区,曽根２丁目１６０番地,,23,114,4580035,,,2025-12-08,清算の結了等,,,2017-11-07,1,,,,,,0
472,2230002000824,登記記録の閉鎖等,0,2025-12-12,2025-12-10,有限会社かね久食品,,有限会社,富山県,富山市,二俣１７２番地,,16,201,9398185,,,2025-12-10,清算の結了等,,,2015-10-05,1,,,,,カネキュウショクヒン,0
490,2290001080944,登記記録の閉鎖等,0,2025-12-12,2025-11-28,株式会社ＹＦプロジェクト,,株式会社,福岡県,福岡市博多区,博多駅前３丁目２７番２５－８階,,40,132,8120011,,,2025-11-28,清算の結了等,,,2018-03-28,1,,,,,ワイエフプロジェクト,0
527,2390002009288,登記記録の閉鎖等,0,2025-12-12,2025-12-10,有限会社工藤自動車,,有限会社,山形県,鶴岡市,西茅原町１３番１５号,,06,203,9970039,,,2025-12-10,清算の結了等,,,2015-10-05,1,,,,,クドウジドウシャ,0
533,2420002019671,登記記録の閉鎖等,0,2025-12-12,2025-12-03,有限会社スタジオセブン,,有限会社,青森県,むつ市,新町３番２号,,02,208,0350051,,,2025-12-03,清算の結了等,,,2015-10-05,1,,,,,スタジオセブン,0
534,2430001063430,登記記録の閉鎖等,0,2025-12-12,2025-12-09,株式会社ｉＷｉｎｇ,,株式会社,東京都,八王子市,明神町２丁目２６番９号,,13,201,1920046,,,2025-12-09,清算の結了等,,,2015-10-05,1,,,,,アイウィング,0
538,2430003012237,登記記録の閉鎖等,0,2025-12-12,2025-12-08,合同会社くろいぬ,,合同会社,北海道,北広島市,三島１－５,,01,234,0611266,,,2025-12-08,清算の結了等,,,2020-12-17,1,,,,,クロイヌ,0
544,2500003002172,登記記録の閉鎖等,0,2025-12-12,2025-12-10,合同会社そら,,合同会社,愛媛県,松山市,山越１丁目１番３９号,,38,201,7918013,,,2025-12-10,清算の結了等,,,2018-10-25,1,,,,,ソラ,0
552,3010001143001,登記記録の閉鎖等,0,2025-12-12,2025-12-05,株式会社至文堂,,株式会社,東京都,中央区,銀座７丁目４番１２号,,13,102,1040061,,,2025-12-05,合併による解散等,8010001011533,令和７年１２月１日東京都江東区新木場一丁目１８番１１号株式会社ＷＡＶＥ出版（8010001011533）に合併し解散,2015-10-05,1,,,,,シブンドウ,0
576,3010401155216,登記記録の閉鎖等,0,2025-12-12,2025-10-27,株式会社ステッカー,,株式会社,東京都,世田谷区,池尻１丁目７番１９号三宿タイニーテラス,,13,112,1540001,,,2025-10-27,合併による解散等,4011001114445,令和７年１０月１９日東京都世田谷区池尻一丁目７番１９号三宿タイニーテラス株式会社ＭＥＲＣＩＨＯＭＭＥ（4011001114445）に合併し解散,2020-09-17,1,,,,,ステッカー,0
581,3010602030168,登記記録の閉鎖等,0,2025-12-12,2025-12-08,有限会社三晴玲,,有限会社,東京都,江東区,北砂５丁目１９番３１号,,13,108,1360073,,,2025-12-08,清算の結了等,,,2015-10-05,1,,,,,サンセイレイ,0
586,3010901046914,登記記録の閉鎖等,0,2025-12-12,2025-11-18,株式会社ａｓｐｉｒｉｎｇ,,株式会社,東京都,新宿区,大久保１丁目２番１号天翔東新宿ビル２１２号室,,13,104,1690072,,,2025-11-18,清算の結了等,,,2020-09-01,1,,,,,アスパイアリング,0
592,3011001132398,登記記録の閉鎖等,0,2025-12-12,2025-11-27,アンカーインターネット株式会社,,株式会社,東京都,文京区,水道２丁目３番１７号グラングスト文京５０３,,13,105,1120005,,,2025-11-27,清算の結了等,,,2020-02-13,1,,,,,アンカーインターネット,0
599,3011101036219,登記記録の閉鎖等,0,2025-12-12,2025-12-02,株式会社インターピア,,株式会社,東京都,豊島区,目白３丁目１２番３０号,,13,116,1710031,,,2025-12-02,清算の結了等,,,2015-10-05,1,,,,,インターピア,0
617,3011701012263,登記記録の閉鎖等,0,2025-12-12,2025-12-08,株式会社ＫＦＳ,,株式会社,東京都,江戸川区,瑞江２丁目２５番４号,,13,123,1320011,,,2025-12-08,清算の結了等,,,2015-10-05,1,,,,,ケイエフエス,0
619,3012401014731,登記記録の閉鎖等,0,2025-12-12,2025-12-11,株式会社アールイー,,株式会社,東京都,府中市,片町３丁目１６番地６,,13,206,1830021,,,2025-12-11,清算の結了等,,,2015-10-05,1,,,,,アールイー,0
623,3012702008473,登記記録の閉鎖等,0,2025-12-12,2025-12-03,有限会社新宿メールサービス,,有限会社,東京都,東久留米市,下里３丁目８番１３号,,13,222,2030043,,,2025-12-03,清算の結了等,,,2015-10-05,1,,,,,シンジュクメールサービス,0
662,3030002011972,登記記録の閉鎖等,0,2025-12-12,2025-12-08,有限会社プラザハウス,,有限会社,埼玉県,さいたま市西区,プラザ４５番４号,,11,101,3310063,,,2025-12-08,清算の結了等,,,2015-10-05,1,,,,,プラザハウス,0
679,3060002017983,登記記録の閉鎖等,0,2025-12-12,2025-12-10,有限会社やなぎたハウジング,,有限会社,栃木県,真岡市,阿部品５７２番地１,,09,209,3214517,,,2025-12-10,清算の結了等,,,2015-10-05,1,,,,,ヤナギタハウジング,0
694,3090001006885,登記記録の閉鎖等,0,2025-12-12,2025-12-02,株式会社Ｌｉｖｅ,,株式会社,静岡県,掛川市,満水１２番地の１９,,22,213,4360011,,,2025-12-02,合併による解散等,1080401018525,令和７年１２月１日静岡県掛川市千羽４０３番地の２株式会社アイム（1080401018525）に合併し解散,2015-10-05,1,,,,,ライブ,0
699,3110001037052,登記記録の閉鎖等,0,2025-12-12,2025-12-05,株式会社ｓｏｕｍｅｉ,,株式会社,新潟県,新潟市江南区,江口２１５６番地１,,15,104,9500101,,,2025-12-05,清算の結了等,,,2022-10-20,1,,,,,ソウメイ,0
704,3120001113190,登記記録の閉鎖等,0,2025-12-12,2025-12-05,株式会社バイオソーシング,,株式会社,大阪府,大阪狭山市,池尻北２丁目１０番１８号,,27,231,5890009,,,2025-12-05,清算の結了等,,,2015-10-05,1,,,,,バイオソーシング,0
706,3120001182681,登記記録の閉鎖等,0,2025-12-12,2025-12-10,ＡＤＭ株式会社,,株式会社,大阪府,大阪市福島区,大開１丁目５－１５,,27,103,5530007,,,2025-12-10,清算の結了等,,,2015-10-05,1,,,,,エーディーエム,0
720,3120102023297,登記記録の閉鎖等,0,2025-12-12,2025-12-05,有限会社Ｎ・Ｇ・Ｒ,,有限会社,大阪府,岸和田市,荒木町１丁目１２番８号,,27,202,5960004,,,2025-12-05,清算の結了等,,,2015-10-05,1,,,,,エヌジーアール,0
737,3130002012283,登記記録の閉鎖等,0,2025-12-12,2025-12-05,有限会社シーラバス,,有限会社,京都府,京都市山科区,御陵進藤町１５番地３,,26,110,6078416,,,2025-12-05,清算の結了等,,,2015-10-05,1,,,,,シーラバス,0
771,3200002018521,登記記録の閉鎖等,0,2025-12-12,2025-12-09,有限会社小関金属工業所,,有限会社,岐阜県,関市,関口町１丁目１番１７号,,21,205,5013826,,,2025-12-09,清算の結了等,,,2015-10-05,1,,,,,オゼキキンゾクコウギョウショ,0
772,3200003003076,登記記録の閉鎖等,0,2025-12-12,2025-12-08,グリーンサービス羽島合同会社,,合同会社,岐阜県,羽島市,竹鼻町丸の内２丁目２７番地１,,21,209,5016244,,,2025-12-08,清算の結了等,,,2015-10-05,1,,,,,グリーンサービスハシマ,0
775,3230002012059,登記記録の閉鎖等,0,2025-12-12,2025-12-04,有限会社松沢不動産,,有限会社,富山県,高岡市,中川本町１５番３１号,,16,202,9330046,,,2025-12-04,清算の結了等,,,2015-10-05,1,,,,,マツザワフドウサン,0
778,3250002015902,登記記録の閉鎖等,0,2025-12-12,2025-12-10,有限会社福栄工業,,有限会社,山口県,下松市,大字末武上１１６８番地,,35,207,7440024,,,2025-12-10,清算の結了等,,,2015-10-05,1,,,,,フクエイコウギョウ,0
788,3320001009609,登記記録の閉鎖等,0,2025-12-12,2025-12-08,株式会社東海総合保険事務所,,株式会社,大分県,豊後大野市,三重町市場５５９番地,,44,212,8797131,,,2025-12-08,清算の結了等,,,2015-10-05,1,,,,,トウカイソウゴウホケンジムショ,0
790,3320002013989,登記記録の閉鎖等,0,2025-12-12,2025-12-08,有限会社中央精密,,有限会社,大分県,宇佐市,大字上拝田９６７番地１,,44,211,8790466,,,2025-12-08,清算の結了等,,,2015-10-05,1,,,,,チュウオウセイミツ,0
792,3320002018105,登記記録の閉鎖等,0,2025-12-12,2025-12-08,有限会社栄翠産業,,有限会社,大分県,竹田市,大字中角１３００番地,,44,208,8780573,,,2025-12-08,清算の結了等,,,2015-10-05,1,,,,,エイスイ,0
818,3420001017972,登記記録の閉鎖等,0,2025-12-12,2025-12-05,福の倉株式会社,,株式会社,青森県,五所川原市,十三羽黒崎１３３番地１８,,02,205,0370403,,,2025-12-05,清算の結了等,,,2022-08-19,1,,,,,フクノクラ,0
833,3470002006945,登記記録の閉鎖等,0,2025-12-12,2025-12-09,有限会社元好ビル,,有限会社,香川県,高松市,宮脇町２丁目１８番２３号,,37,201,7600005,,,2025-12-09,清算の結了等,,,2015-10-05,1,,,,,モトヨシビル,0
852,4010003047414,登記記録の閉鎖等,0,2025-12-12,2025-11-27,合同会社アン・シャトー,,合同会社,東京都,中央区,日本橋本町１丁目６－１４－１Ｆ,,13,102,1030023,,,2025-11-27,清算の結了等,,,2025-05-21,1,,,,,アンシャトー,0
857,4010005000949,登記記録の閉鎖等,0,2025-12-12,2025-12-08,医療法人社団嵐城会,,その他の設立登記法人,東京都,千代田区,神田紺屋町４３番地３,,13,101,1010035,,,2025-12-08,清算の結了等,,,2015-10-05,1,,,,,ランジョウカイ,0
860,4010401074480,登記記録の閉鎖等,0,2025-12-12,2025-11-21,株式会社ワイエムエムインターナショナル,,株式会社,東京都,港区,南麻布５丁目１６番８－Ｂ１号,,13,103,1060047,,,2025-11-21,清算の結了等,,,2015-10-05,1,,,,,ワイエムエムインターナショナル,0
872,4010701044860,登記記録の閉鎖等,0,2025-12-12,2025-12-08,株式会社グランクレア,,株式会社,東京都,品川区,東品川４丁目１１番３６－２７１６号,,13,109,1400002,,,2025-12-08,清算の結了等,,,2023-09-20,1,,,,,グランクレア,0
891,4011101040178,登記記録の閉鎖等,0,2025-12-12,2025-12-01,株式会社コスモスエンジニアリング,,株式会社,東京都,千代田区,神田司町２丁目７番地２,,13,101,1010048,,,2025-12-01,合併による解散等,5011501017287,令和７年１２月１日東京都千代田区神田司町二丁目７番地２アーチエンジニアリング株式会社（5011501017287）に合併し解散,2015-10-05,1,,,,,コスモスエンジニアリング,0
902,4011702008037,登記記録の閉鎖等,0,2025-12-12,2025-12-08,有限会社トーセキ,,有限会社,東京都,江戸川区,東小松川２丁目３２番１９号,,13,123,1320033,,,2025-12-08,清算の結了等,,,2015-10-05,1,,,,,,0
948,4030002108545,登記記録の閉鎖等,0,2025-12-12,2025-12-05,有限会社ローズ,,有限会社,埼玉県,川口市,大字安行領家８４４番地の２,,11,203,3340058,,,2025-12-05,清算の結了等,,,2015-10-05,1,,,,,ローズ,0
960,4040002001303,登記記録の閉鎖等,0,2025-12-12,2025-11-25,有限会社今関ストアー,,有限会社,千葉県,千葉市若葉区,高根町９１４番地の６４,,12,104,2650061,,,2025-11-25,清算の結了等,,,2015-10-05,1,,,,,イマゼキストアー,0
962,4040003016911,登記記録の閉鎖等,0,2025-12-12,2025-11-11,ビーチヒル合同会社,,合同会社,千葉県,船橋市,三山３丁目２番１７号,,12,204,2740072,,,2025-11-11,清算の結了等,,,2021-01-26,1,,,,,ビーチヒル,0
967,4050001052214,登記記録の閉鎖等,0,2025-12-12,2025-12-05,コスフル株式会社,,株式会社,茨城県,つくば市,島名３０８５番地２,,08,220,3002655,,,2025-12-05,清算の結了等,,,2023-01-11,1,,,,,コスフル,0
969,4050002035416,登記記録の閉鎖等,0,2025-12-12,2025-12-04,有限会社市村設備工業,,有限会社,茨城県,常陸太田市,大森町１４２７番地の１３０,,08,212,3130021,,,2025-12-04,清算の結了等,,,2015-10-05,1,,,,,イチムラセツビコウギョウ,0
972,4060002021976,登記記録の閉鎖等,0,2025-12-12,2025-12-09,有限会社エムアンドエヌ,,有限会社,栃木県,那須塩原市,若葉町７番６号,,09,213,3250047,,,2025-12-09,清算の結了等,,,2015-10-05,1,,,,,エムアンドエヌ,0
977,4080001026545,登記記録の閉鎖等,0,2025-12-12,2025-12-01,よりごころ株式会社,,株式会社,静岡県,静岡市駿河区,北丸子２丁目２９－７マウントテラス１０１号室,,22,102,4210106,,,2025-12-01,合併による解散等,4080001026925,令和７年１２月１日静岡県静岡市駿河区丸子６２９０－２９株式会社ネオリックス（4080001026925）に合併し解散,2024-10-11,1,,,,,ヨリゴコロ,0
980,4100001015982,登記記録の閉鎖等,0,2025-12-12,2025-12-09,株式会社テクノス,,株式会社,長野県,松本市,大字内田６２番地７,,20,202,3990023,,,2025-12-09,清算の結了等,,,2015-10-05,1,,,,,テクノス,0
988,4120001183902,登記記録の閉鎖等,0,2025-12-12,2025-12-09,株式会社スマイル工房,,株式会社,大阪府,大阪市福島区,吉野４丁目２５番５号,,27,103,5530006,,,2025-12-09,清算の結了等,,,2015-10-05,1,,,,,スマイルコウボウ,0
1005,4120102016143,登記記録の閉鎖等,0,2025-12-12,2025-12-01,有限会社アワーズ・コーポレーション,,有限会社,大阪府,大阪狭山市,東池尻１丁目２１４７番地の１（１－７０４号）,,27,231,5890004,,,2025-12-01,清算の結了等,,,2015-10-05,1,,,,,アワーズコーポレーション,0
1009,4122001032733,登記記録の閉鎖等,0,2025-12-12,2025-12-09,徳原化学工業株式会社,,株式会社,大阪府,八尾市,泉町１丁目７４番地の１,,27,212,5810813,,,2025-12-09,清算の結了等,,,2019-07-04,1,,,,,トクハラカガクコウギョウ,0
1028,4160001000459,登記記録の閉鎖等,0,2025-12-12,2025-12-09,株式会社かね辰商店,,株式会社,滋賀県,大津市,瀬田大江町５９番地１,,25,201,5202123,,,2025-12-09,合併による解散等,1011301000819,令和７年１２月１日東京都杉並区上荻一丁目１４番１２号株式会社魚耕（1011301000819）に合併し解散,2015-10-05,1,,,,,カネタツショウテン,0
1031,4180001002461,登記記録の閉鎖等,0,2025-12-12,2025-12-09,株式会社電紘,,株式会社,愛知県,名古屋市名東区,一社３丁目４５番地の２,,23,115,4650093,,,2025-12-09,清算の結了等,,,2015-10-05,1,,,,,デンコウ,0
1033,4180001036740,登記記録の閉鎖等,0,2025-12-12,2025-11-28,株式会社信州伊那國際ゴルフクラブ,,株式会社,東京都,千代田区,大手町１丁目７番２号,,13,101,1000004,,,2025-11-28,清算の結了等,,,2015-10-05,1,,,,,シンシュウイナコクサイゴルフクラブ,0
1040,4180001162520,登記記録の閉鎖等,0,2025-12-12,2025-12-09,ＣＯＭＰＡＳＳＩＯＮＡＴＥ株式会社,,株式会社,愛知県,名古屋市中村区,名駅４丁目８番２６号エニシオ名駅１６階,,23,105,4500002,,,2025-12-09,清算の結了等,,,2024-07-31,1,,,,,コムパショネート,0
1052,4200002009965,登記記録の閉鎖等,0,2025-12-12,2025-12-08,有限会社ジェイエム,,有限会社,岐阜県,岐阜市,門屋２６９番地１１,,21,201,5012521,,,2025-12-08,合併による解散等,5200001035771,令和７年１１月３０日岐阜市門屋２６９番地１１株式会社エムクロス（5200001035771）に合併し解散,2015-10-05,1,,,,,ジェイエム,0
1069,4270001000794,登記記録の閉鎖等,0,2025-12-12,2025-12-10,株式会社ヤマキ,,株式会社,鳥取県,鳥取市,富安１丁目１２３番地グランマスト富安９０１号,,31,201,6800845,,,2025-12-10,清算の結了等,,,2015-10-05,1,,,,,ヤマキ,0
1073,4290001049822,登記記録の閉鎖等,0,2025-12-12,2025-12-05,株式会社堀下材木店,,株式会社,福岡県,久留米市,三潴町西牟田４０２３番地の１,,40,203,8300111,,,2025-12-05,清算の結了等,,,2015-10-05,1,,,,,ホリシタザイモクテン,0
1082,4300002007694,登記記録の閉鎖等,0,2025-12-12,2025-12-10,有限会社おぐま,,有限会社,佐賀県,伊万里市,二里町大里乙７３７番地,,41,205,8480035,,,2025-12-10,清算の結了等,,,2015-10-05,1,,,,,オグマ,0
1092,4340002004886,登記記録の閉鎖等,0,2025-12-12,2025-12-05,有限会社下野工業,,有限会社,鹿児島県,鹿児島市,犬迫町１５１４番地,,46,201,8911205,,,2025-12-05,清算の結了等,,,2015-10-05,1,,,,,シモノコウギョウ,0
1097,4390002008296,登記記録の閉鎖等,0,2025-12-12,2025-12-10,有限会社池田重機,,有限会社,山形県,酒田市,麓字上川原３３番１,,06,204,9998231,,,2025-12-10,清算の結了等,,,2015-10-05,1,,,,,イケダジュウキ,0
1101,4400002013162,登記記録の閉鎖等,0,2025-12-12,2025-12-05,有限会社瀧屋,,有限会社,岩手県,九戸郡洋野町,大野第６４地割４５番地２,,03,507,0288802,,,2025-12-05,清算の結了等,,,2015-10-05,1,,,,,タキヤ,0
1102,4400601000486,登記記録の閉鎖等,0,2025-12-12,2025-12-05,株式会社田口商店,,株式会社,岩手県,胆沢郡金ケ崎町,六原東町３６０番地,,03,381,0294501,,,2025-12-05,清算の結了等,,,2015-10-05,1,,,,,タグチショウテン,0
1110,4430002012145,登記記録の閉鎖等,0,2025-12-12,2025-12-08,有限会社タカノ,,有限会社,北海道,札幌市南区,簾舞四条６丁目８番８号,,01,106,0612264,,,2025-12-08,清算の結了等,,,2015-10-05,1,,,,,タカノ,0
1112,4450001007895,登記記録の閉鎖等,0,2025-12-12,2025-12-02,株式会社ヨシミ調剤薬局,,株式会社,北海道,名寄市,西二条南６丁目２７番地２,,01,221,0960012,,,2025-12-02,清算の結了等,,,2015-10-05,1,,,,,ヨシミチョウザイヤッキョク,0
1114,4470001013776,登記記録の閉鎖等,0,2025-12-12,2025-12-09,まると商事株式会社,,株式会社,香川県,坂出市,江尻町９７４番地１,,37,203,7620011,,,2025-12-09,清算の結了等,,,2015-10-05,1,,,,,マルトショウジ,0
1117,4500001016701,登記記録の閉鎖等,0,2025-12-12,2025-12-11,株式会社東徳建設工業,,株式会社,愛媛県,松山市,森松町２３５番地３,,38,201,7911113,,,2025-12-11,清算の結了等,,,2015-10-05,1,,,,,トウトクケンセツコウギョウ,0
1135,5010002030130,登記記録の閉鎖等,0,2025-12-12,2025-11-27,株式会社ジュネーブ,,株式会社,東京都,文京区,本駒込４丁目４０番６号,,13,105,1130021,,,2025-11-27,清算の結了等,,,2015-10-05,1,,,,,ジュネーブ,0
1137,5010003031846,登記記録の閉鎖等,0,2025-12-12,2025-11-28,ヘルスケアプロパティーズ合同会社,,合同会社,東京都,千代田区,丸の内１丁目４番１号東京共同会計事務所内,,13,101,1000005,,,2025-11-28,清算の結了等,,,2020-03-10,1,,,,,ヘルスケアプロパティーズ,0
1159,5010405013995,登記記録の閉鎖等,0,2025-12-12,2025-11-21,一般社団法人Ｆｕｊｉ,,その他の設立登記法人,東京都,港区,虎ノ門２丁目６番１号,,13,103,1050001,,,2025-11-21,清算の結了等,,,2015-10-05,1,,,,,フジ,0
1164,5010701015118,登記記録の閉鎖等,0,2025-12-12,2025-12-08,日本浄水工業株式会社,,株式会社,東京都,品川区,大崎５丁目４番８号,,13,109,1410032,,,2025-12-08,清算の結了等,,,2015-10-05,1,,,,,ニホンジョウスイコウギョウ,0
1169,5010802004110,登記記録の閉鎖等,0,2025-12-12,2025-12-04,有限会社木上運輸商会,,有限会社,東京都,大田区,鵜の木３丁目７番１０号,,13,111,1460091,,,2025-12-04,清算の結了等,,,2015-10-05,1,,,,,キガミウンユショウカイ,0
1216,5020003022068,登記記録の閉鎖等,0,2025-12-12,2025-12-09,合同会社ＳＡＷＡＮＤＯ,,合同会社,神奈川県,川崎市中原区,今井西町１７番３９－５０４号,,14,133,2110066,,,2025-12-09,清算の結了等,,,2022-07-07,1,,,,,サワンド,0
1257,5060001028848,登記記録の閉鎖等,0,2025-12-12,2025-12-11,株式会社みぶのやおやさん,,株式会社,栃木県,下都賀郡壬生町,至宝１丁目４番２７号,,09,361,3210217,,,2025-12-11,清算の結了等,,,2016-11-28,1,,,,,ミブノヤオヤサン,0
1259,5060003004632,登記記録の閉鎖等,0,2025-12-12,2025-12-10,合同会社Ｕｎｉｃｏ,,合同会社,栃木県,小山市,大字乙女１１１９番地３,,09,208,3290214,,,2025-12-10,清算の結了等,,,2023-07-10,1,,,,,ウニコ,0
1264,5080102010034,登記記録の閉鎖等,0,2025-12-12,2025-12-05,有限会社共和金型製作所,,有限会社,静岡県,三島市,長伏１５５番地の３６,,22,206,4110824,,,2025-12-05,合併による解散等,9080101005898,令和７年１２月１日静岡県駿東郡清水町伏見５番地田中産業株式会社（9080101005898）に合併し解散,2015-10-05,1,,,,,キョウワカナガタセイサクショ,0
1269,5110001023892,登記記録の閉鎖等,0,2025-12-12,2025-12-08,株式会社エム・エス・ディー,,株式会社,新潟県,長岡市,喜多町１１０５番地１,,15,202,9402121,,,2025-12-08,清算の結了等,,,2015-10-05,1,,,,,エムエスディー,0
1279,5120001220415,登記記録の閉鎖等,0,2025-12-12,2025-12-09,株式会社Ｅｘｃｅｅｄ．Ｓ,,株式会社,大阪府,大阪市北区,梅田１丁目１番３号大阪駅前第３ビル２３０７,,27,127,5300001,,,2025-12-09,清算の結了等,,,2019-04-17,1,,,,,エクシードエス,0
1301,5130001047238,登記記録の閉鎖等,0,2025-12-12,2025-12-03,株式会社瑞芽,,株式会社,京都府,京都市東山区,末吉町９８－３サ・バレル祇園井みねビル１階１０２号,,26,105,6050085,,,2025-12-03,合併による解散等,1140001041532,令和７年１２月３日京都市南区上鳥羽南鉾立町１９番地１株式会社泰和（1140001041532）に合併し解散,2015-10-05,1,,,,,ミズメ,0
1305,5140001044655,登記記録の閉鎖等,0,2025-12-12,2025-12-09,株式会社友協組,,株式会社,兵庫県,加古郡稲美町,印南６４６番地の５３,,28,381,6751111,,,2025-12-09,清算の結了等,,,2015-10-05,1,,,,,ユウキョウグミ,0
1307,5140001049670,登記記録の閉鎖等,0,2025-12-12,2025-12-05,大昌興業株式会社,,株式会社,兵庫県,尼崎市,南武庫之荘１１丁目９番８号,,28,202,6610033,,,2025-12-05,清算の結了等,,,2015-10-05,1,,,,,ダイショウコウギョウ,0
1312,5150001004716,登記記録の閉鎖等,0,2025-12-12,2025-12-11,ウタカ工業株式会社,,株式会社,奈良県,生駒市,あすか野南１丁目３番１１号,,29,209,6300133,,,2025-12-11,清算の結了等,,,2015-10-05,1,,,,,ウタカコウギョウ,0
1320,5170003000950,登記記録の閉鎖等,0,2025-12-12,2025-11-17,コヤマ合同会社,,合同会社,東京都,新宿区,新宿１丁目３６番２号新宿第七葉山ビル３階,,13,104,1600022,,,2025-11-17,清算の結了等,,,2015-10-05,1,,,,,コヤマ,0
1322,5180001095892,登記記録の閉鎖等,0,2025-12-12,2025-12-08,株式会社新生興業,,株式会社,愛知県,大府市,横根町坊主山１番地７５４,,23,223,4740011,,,2025-12-08,清算の結了等,,,2015-10-05,1,,,,,,0
1341,5180303003314,登記記録の閉鎖等,0,2025-12-12,2025-12-03,合同会社ＡＲＴ　ＬＩＦＥ,,合同会社,愛知県,豊田市,新生町２丁目３番地５,,23,211,4710837,,,2025-12-03,清算の結了等,,,2015-10-05,1,,,,,アートライフ,0
1346,5180303003710,登記記録の閉鎖等,0,2025-12-12,2025-12-08,合同会社ＷＯＲＬＤ　ＭＯＮＫＥＹ,,合同会社,愛知県,名古屋市中区,栄５丁目２６番３９号ＧＳ栄ビル３Ｆ,,23,106,4600008,,,2025-12-08,清算の結了等,,,2016-10-17,1,,,,,,0
1348,5190002010395,登記記録の閉鎖等,0,2025-12-12,2025-12-09,今浦観光有限会社,,有限会社,三重県,鳥羽市,鳥羽１丁目１３番１号,,24,211,5170011,,,2025-12-09,清算の結了等,,,2015-10-05,1,,,,,イマウラカンコウ,0
1349,5190003000049,登記記録の閉鎖等,0,2025-12-12,2025-12-10,合資会社カンケン,,合資会社,三重県,津市,一身田上津部田１３８４番地の５３,,24,201,5140061,,,2025-12-10,清算の結了等,,,2015-10-05,1,,,,,,0
1355,5240001064412,登記記録の閉鎖等,0,2025-12-12,2025-12-04,株式会社テクニカル和奨,,株式会社,広島県,広島市西区,観音本町１丁目１３－３,,34,104,7330033,,,2025-12-04,清算の結了等,,,2025-01-20,1,,,,,テクニカルワショウ,0
1363,5260001017087,登記記録の閉鎖等,0,2025-12-12,2025-12-09,株式会社ＳＳＳ東中国,,株式会社,岡山県,倉敷市,老松町３丁目１５番２２号,,33,202,7100826,,,2025-12-09,清算の結了等,,,2015-10-05,1,,,,,スリーエスヒガシチュウゴク,0
1375,5270002007152,登記記録の閉鎖等,0,2025-12-12,2025-12-09,株式会社みどり薬局,,株式会社,鳥取県,米子市,両三柳３２８８番地５,,31,202,6830853,,,2025-12-09,合併による解散等,6030001066965,令和７年１１月１日大阪府茨木市西駅前町１３番２５号株式会社ウィーズ（6030001066965）に合併し解散,2015-10-05,1,,,,,ミドリヤッキョク,0
1382,5290001103792,登記記録の閉鎖等,0,2025-12-12,2025-11-26,株式会社デモタイプ,,株式会社,福岡県,福岡市博多区,博多駅前１丁目２３番２号ＰａｒｋＦｒｏｎｔ博多駅前１丁目５Ｆ－Ｂ,,40,132,8120011,,,2025-11-26,清算の結了等,,,2023-11-21,1,,,,,デモタイプ,0
1390,5290803004882,登記記録の閉鎖等,0,2025-12-12,2025-12-08,合同会社百屋,,合同会社,福岡県,田川郡福智町,金田８７７番地３,,40,610,8221201,,,2025-12-08,清算の結了等,,,2024-11-05,1,,,,,モモヤ,0
1410,5380005006834,登記記録の閉鎖等,0,2025-12-12,2025-12-05,医療法人悠泉会,,その他の設立登記法人,福島県,いわき市,泉滝尻１丁目１番地の１１,,07,204,9718189,,,2025-12-05,清算の結了等,,,2015-10-05,1,,,,,ユウセンカイ,0
1411,5390002009962,登記記録の閉鎖等,0,2025-12-12,2025-12-10,有限会社鈴木建築,,有限会社,山形県,鶴岡市,熊出字長表１９番地５,,06,203,9970411,,,2025-12-10,清算の結了等,,,2015-10-05,1,,,,,スズキケンチク,0
1414,5420001016592,登記記録の閉鎖等,0,2025-12-12,2025-12-03,株式会社令和建設,,株式会社,青森県,北津軽郡中泊町,大字田茂木字若宮６番地,,02,387,0370318,,,2025-12-03,清算の結了等,,,2019-05-09,1,,,,,レイワケンセツ,0
1430,5430002049153,登記記録の閉鎖等,0,2025-12-12,2025-12-01,有限会社エー・アンド・ブイ・シヨツプ井上でんき,,有限会社,北海道,岩見沢市,七条西６丁目２０番地,,01,210,0680027,,,2025-12-01,清算の結了等,,,2015-10-05,1,,,,,,0
1431,5430002066181,登記記録の閉鎖等,0,2025-12-12,2025-12-04,有限会社野呂商会,,有限会社,北海道,登別市,幸町５丁目１１番地４,,01,230,0590002,,,2025-12-04,清算の結了等,,,2015-10-05,1,,,,,ノロショウカイ,0
1432,5440001008051,登記記録の閉鎖等,0,2025-12-12,2025-12-01,株式会社ＳＹＳ,,株式会社,北海道,函館市,日吉町１丁目２１番１２号,,01,202,0410841,,,2025-12-01,合併による解散等,8440001009641,令和７年１２月１日北海道函館市日吉町一丁目２１番１２号ＳＹＳ株式会社（8440001009641）に合併し解散,2017-03-03,1,,,,,エスワイエス,0
1440,5500002020379,登記記録の閉鎖等,0,2025-12-12,2025-12-11,有限会社村蘇石材,00008192,有限会社,愛媛県,今治市,蔵敷町２丁目１１番地１２シャーメゾンワンピース２０２,,38,202,7940044,,,2025-12-11,清算の結了等,,,2015-10-05,1,,,,,ムラソセキザイ,0
1477,6010405019851,登記記録の閉鎖等,0,2025-12-12,2025-11-25,ＲＢソーラーセレナホールディングス一般社団法人,,その他の設立登記法人,東京都,港区,虎ノ門３丁目２２番１０－２０１号,,13,103,1050001,,,2025-11-25,清算の結了等,,,2021-05-28,1,,,,,アールビーソーラーセレナホールディングス,0
1489,6011002035696,登記記録の閉鎖等,0,2025-12-12,2025-11-18,有限会社光雲荘,,有限会社,東京都,渋谷区,神宮前２丁目２番３９－６２７号,,13,113,1500001,,,2025-11-18,清算の結了等,,,2015-10-05,1,,,,,コウウンソウ,0
1506,6011701024974,登記記録の閉鎖等,0,2025-12-12,2025-12-03,総合建株式会社,,株式会社,東京都,江戸川区,西葛西１丁目１２番１－１０２号,,13,123,1340088,,,2025-12-03,清算の結了等,,,2022-01-18,1,,,,,ソウゴウケン,0
1524,6020002030310,登記記録の閉鎖等,0,2025-12-12,2025-12-09,有限会社集英館,,有限会社,神奈川県,横浜市南区,井土ケ谷上町３６番１１号,,14,105,2320051,,,2025-12-09,清算の結了等,,,2015-10-05,1,,,,,シュウエイカン,0
1532,6021001012877,登記記録の閉鎖等,0,2025-12-12,2025-11-25,株式会社ソレイユ,,株式会社,神奈川県,相模原市中央区,相模原３丁目３番３号,,14,152,2520231,,,2025-11-25,清算の結了等,,,2015-10-05,1,,,,,,0
1538,6021002044523,登記記録の閉鎖等,0,2025-12-12,2025-11-26,有限会社安藤商店,,有限会社,神奈川県,海老名市,社家２丁目１１番１号,,14,215,2430424,,,2025-11-26,清算の結了等,,,2015-10-05,1,,,,,アンドウショウテン,0
1541,6030001057972,登記記録の閉鎖等,0,2025-12-12,2025-12-05,株式会社ココナッツパーム,,株式会社,埼玉県,ふじみ野市,ふじみ野１丁目４番２０－１０１号,,11,245,3560050,,,2025-12-05,清算の結了等,,,2015-10-05,1,,,,,ココナッツパーム,0
1544,6030001072740,登記記録の閉鎖等,0,2025-12-12,2025-12-04,株式会社サンファースト,,株式会社,埼玉県,蓮田市,大字根金１８０７番地４,,11,238,3490131,,,2025-12-04,清算の結了等,,,2015-10-05,1,,,,,サンファースト,0
1552,6030001125705,登記記録の閉鎖等,0,2025-12-12,2025-12-03,株式会社ハッピーワンダフル,,株式会社,埼玉県,川口市,大字里１１７番地,,11,203,3340005,,,2025-12-03,清算の結了等,,,2018-05-18,1,,,,,ハッピーワンダフル,0
1562,6040001073408,登記記録の閉鎖等,0,2025-12-12,2025-11-21,株式会社楽食工房,,株式会社,千葉県,市原市,君塚１丁目８番地７,,12,219,2900051,,,2025-11-21,清算の結了等,,,2015-10-05,1,,,,,ラクショクコウボウ,0
1565,6040002044878,登記記録の閉鎖等,0,2025-12-12,2025-11-19,有限会社岡田電器,,有限会社,千葉県,柏市,大室１４２５．１４２７の１合併の２,,12,217,2770813,,,2025-11-19,清算の結了等,,,2015-10-05,1,,,,,オカダデンキ,0
1568,6080002013169,登記記録の閉鎖等,0,2025-12-12,2025-12-08,有限会社ナカノ総合建築,,有限会社,静岡県,静岡市駿河区,小鹿１丁目２６番４号,,22,102,4228021,,,2025-12-08,清算の結了等,,,2015-10-05,1,,,,,ナカノソウゴウケンチク,0
1582,6110001038337,登記記録の閉鎖等,0,2025-12-12,2025-12-01,株式会社ＮＴホールディングス,,株式会社,東京都,千代田区,霞が関３丁目２番５号,,13,101,1000013,,,2025-12-01,合併による解散等,8110001037007,令和７年１２月１日東京都千代田区霞が関三丁目２番５号ネクストジェネレーション株式会社（8110001037007）に合併し解散,2024-04-16,1,,,,,エヌティーホールディングス,0
1603,6120901026893,登記記録の閉鎖等,0,2025-12-12,2025-12-04,岡田硝子株式会社,,株式会社,大阪府,豊中市,北桜塚４丁目７番１０号,,27,203,5600022,,,2025-12-04,清算の結了等,,,2015-10-05,1,,,,,オカダガラス,0
1626,6180001023679,登記記録の閉鎖等,0,2025-12-12,2025-12-09,島田浅井株式会社,,株式会社,愛知県,名古屋市天白区,土原３丁目９１５番地,,23,116,4680026,,,2025-12-09,清算の結了等,,,2015-10-05,1,,,,,シマダアサイ,0
1632,6180001132208,登記記録の閉鎖等,0,2025-12-12,2025-12-08,東海リノベーション株式会社,,株式会社,愛知県,名古屋市名東区,野間町１１番地アメニティ伸和４１１号,,23,115,4650056,,,2025-12-08,清算の結了等,,,2018-05-09,1,,,,,トウカイリノベーション,0
1635,6180002061182,登記記録の閉鎖等,0,2025-12-12,2025-12-08,有限会社クローバーテック,,有限会社,愛知県,名古屋市瑞穂区,白砂町３丁目２４番地１,,23,108,4670056,,,2025-12-08,清算の結了等,,,2015-10-05,1,,,,,,0
1647,6220001015936,登記記録の閉鎖等,0,2025-12-12,2025-12-10,山本織物株式会社,,株式会社,石川県,羽咋郡志賀町,高浜町レ５０番地,,17,384,9250141,,,2025-12-10,清算の結了等,,,2015-10-05,1,,,,,ヤマモトオリモノ,0
1650,6230001016743,登記記録の閉鎖等,0,2025-12-12,2025-12-08,株式会社ｃａｎａｄｅｌｌｂｅｒｒｙ,,株式会社,富山県,富山市,塩３０１１番地,,16,201,9392242,,,2025-12-08,清算の結了等,,,2016-12-14,1,,,,,カナデルベリー,0
1652,6230002011735,登記記録の閉鎖等,0,2025-12-12,2025-12-09,有限会社新田機工,,有限会社,富山県,高岡市,二上字山崎１６４番地の５,,16,202,9330981,,,2025-12-09,清算の結了等,,,2015-10-05,1,,,,,ニッタキコウ,0
1660,6240002051747,登記記録の閉鎖等,0,2025-12-12,2025-12-05,有限会社横山金物,,有限会社,広島県,尾道市,美ノ郷町三成２７４７番地,,34,205,7220215,,,2025-12-05,清算の結了等,,,2015-10-05,1,,,,,ヨコヤマカナモノ,0
1664,6250001008219,登記記録の閉鎖等,0,2025-12-12,2025-12-11,株式会社長谷川サービスステーション,,株式会社,山口県,長門市,東深川１４９番地の１,,35,211,7594101,,,2025-12-11,清算の結了等,,,2015-10-05,1,,,,,ハセガワサービスステーション,0
1668,6290001016738,登記記録の閉鎖等,0,2025-12-12,2025-12-05,株式会社丸松,,株式会社,福岡県,福岡市博多区,東雲町４丁目２番７号,,40,132,8120871,,,2025-12-05,清算の結了等,,,2015-10-05,1,,,,,マルマツ,0
1674,6290005017336,登記記録の閉鎖等,0,2025-12-12,2025-11-25,一般社団法人ワク食プロジェクト,,その他の設立登記法人,福岡県,三井郡大刀洗町,大字鵜木１４０４番地の２,,40,503,8301224,,,2025-11-25,清算の結了等,,,2019-06-05,1,,,,,ワクショクプロジェクト,0
1689,6340002008068,登記記録の閉鎖等,0,2025-12-12,2025-12-09,有限会社平松建設,,有限会社,鹿児島県,鹿児島市,吉野１丁目３０番５号,,46,201,8920877,,,2025-12-09,清算の結了等,,,2015-10-05,1,,,,,ヒラマツケンセツ,0
1705,6420002007202,登記記録の閉鎖等,0,2025-12-12,2025-12-05,有限会社ささもり自販,,有限会社,青森県,八戸市,大字河原木字高館前４１番地,,02,203,0391161,,,2025-12-05,清算の結了等,,,2015-10-05,1,,,,,ササモリジハン,0
1714,6470002010985,登記記録の閉鎖等,0,2025-12-12,2025-12-09,津村建設有限会社,,有限会社,香川県,綾歌郡綾川町,羽床上３３０番地の４,,37,387,7612207,,,2025-12-09,清算の結了等,,,2015-10-05,1,,,,,ツムラケンセツ,0
1715,6470005001825,登記記録の閉鎖等,0,2025-12-12,2025-12-08,医療法人社団康和会,,その他の設立登記法人,香川県,高松市,香川町浅野１０３５番地１,,37,201,7611703,,,2025-12-08,清算の結了等,,,2015-10-05,1,,,,,コウワカイ,0
1716,6490001009647,登記記録の閉鎖等,0,2025-12-12,2025-12-09,株式会社ＵＴ,,株式会社,東京都,港区,南青山３丁目１番３６号青山丸竹ビル６Ｆ,,13,103,1070062,,,2025-12-09,合併による解散等,3010401155050,令和７年１２月１日滋賀県高島市今津町桜町二丁目１番地の３フランチャイズビジネスインキュベーション株式会社（3010401155050）に合併し解散,2020-09-01,1,,,,,ユーティー,0
1725,7010001088960,登記記録の閉鎖等,0,2025-12-12,2025-12-01,デロイトトーマツコンサルティング合同会社,,合同会社,東京都,千代田区,丸の内３丁目２番３号丸の内二重橋ビルディング,,13,101,1000005,,,2025-12-01,合併による解散等,3010001076738,令和７年１２月１日東京都千代田区丸の内三丁目２番３号丸の内二重橋ビルディングデロイトトーマツファイナンシャルアドバイザリー合同会社（3010001076738）に合併し解散,2015-10-05,1,,,,,デロイトトーマツコンサルティング,0
1732,7010001135671,登記記録の閉鎖等,0,2025-12-12,2025-11-27,株式会社スタンダードスタジオ,,株式会社,東京都,中央区,日本橋横山町７番１９号イチオクビル３－０９,,13,102,1030003,,,2025-11-27,清算の結了等,,,2015-10-05,1,,,,,スタンダードスタジオ,0
1757,7010401170260,登記記録の閉鎖等,0,2025-12-12,2025-11-20,株式会社アルゲス,,株式会社,東京都,港区,六本木３丁目１３番８号ｚｏｎａｎビル６Ｆ,,13,103,1060032,,,2025-11-20,清算の結了等,,,2022-10-18,1,,,,,アルゲス,0
1759,7010401183213,登記記録の閉鎖等,0,2025-12-12,2025-11-20,株式会社ＧＩＶＥ,,株式会社,東京都,港区,芝３丁目６－１０芝ＮＡビル５階,,13,103,1050014,,,2025-11-20,清算の結了等,,,2024-06-18,1,,,,,ギブ,0
1819,7012801022594,登記記録の閉鎖等,0,2025-12-12,2025-12-09,ＭＩＴＳＵＫＩホールディングス株式会社,,株式会社,東京都,立川市,高松町３丁目２９番１７号,,13,202,1900011,,,2025-12-09,清算の結了等,,,2023-08-31,1,,,,,ミツキホールディングス,0
1828,7013401002276,登記記録の閉鎖等,0,2025-12-12,2025-12-11,株式会社ジャックスインク,,株式会社,東京都,稲城市,矢野口１６９０番地の４,,13,225,2060812,,,2025-12-11,清算の結了等,,,2015-10-05,1,,,,,,0
1839,7021001043434,登記記録の閉鎖等,0,2025-12-12,2025-12-09,株式会社シフト,,株式会社,神奈川県,横浜市港北区,新横浜２丁目５番１０号楓第２ビル５階Ｂ室,,14,109,2220033,,,2025-12-09,合併による解散等,6030001066965,令和７年１１月１日大阪府茨木市西駅前町１３番２５号株式会社ウィーズ（6030001066965）に合併し解散,2015-10-05,1,,,,,シフト,0
1845,7021002061906,登記記録の閉鎖等,0,2025-12-12,2025-11-19,有限会社Ｓｔｕｄｉｏ　Ｍｉｒａ,,有限会社,神奈川県,中郡二宮町,二宮１１３０番地の３,,14,342,2590123,,,2025-11-19,清算の結了等,,,2015-10-05,1,,,,,スタジオミラ,0
1846,7021003006934,登記記録の閉鎖等,0,2025-12-12,2025-12-08,合同会社サンウエスト,,合同会社,神奈川県,横浜市西区,北幸１丁目１１番１号水信ビル７階,,14,103,2200004,,,2025-12-08,清算の結了等,,,2017-09-06,1,,,,,サンウエスト,0
1871,7050001013857,登記記録の閉鎖等,0,2025-12-12,2025-12-04,株式会社茨城ブロイラー鈴音,,株式会社,茨城県,猿島郡境町,大字伏木２２３９番地,,08,546,3060416,,,2025-12-04,清算の結了等,,,2015-10-05,1,,,,,イバラキブロイラースズオト,0
1877,7080001000010,登記記録の閉鎖等,0,2025-12-12,2025-12-08,アイ・エヌ・エー株式会社,,株式会社,静岡県,静岡市駿河区,中島７７７番地の１,,22,102,4228046,,,2025-12-08,清算の結了等,,,2015-10-05,1,,,,,アイエヌエー,0
1879,7080001001859,登記記録の閉鎖等,0,2025-12-12,2025-12-08,株式会社清水起業,,株式会社,静岡県,静岡市葵区,水道町１５９番地,,22,101,4200008,,,2025-12-08,清算の結了等,,,2015-10-05,1,,,,,シミズキギョウ,0
1885,7110001031027,登記記録の閉鎖等,0,2025-12-12,2025-12-10,株式会社ＳｎｕｇＬｉｆｅ,,株式会社,新潟県,新潟市南区,小坂４７番１号,,15,106,9501231,,,2025-12-10,清算の結了等,,,2015-10-20,1,,,,,スナッグライフ,0
1888,7120001046924,登記記録の閉鎖等,0,2025-12-12,2025-12-08,フェルメール株式会社,,株式会社,大阪府,大阪市西区,北堀江１丁目９番１０－１０１号,,27,106,5500014,,,2025-12-08,清算の結了等,,,2015-10-05,1,,,,,フェルメール,0
1892,7120001147961,登記記録の閉鎖等,0,2025-12-12,2025-12-09,株式会社白内総業,,株式会社,大阪府,寝屋川市,下木田町１２番６号,,27,215,5720823,,,2025-12-09,清算の結了等,,,2015-10-05,1,,,,,シラウチソウギョウ,0
1896,7120001250658,登記記録の閉鎖等,0,2025-12-12,2025-12-09,楽土株式会社,,株式会社,大阪府,大阪市東淀川区,東中島１丁目２０－１２ユニゾーン新大阪８１３号室,,27,114,5330033,,,2025-12-09,清算の結了等,,,2022-12-01,1,,,,,ラクド,0
1906,7120101003759,登記記録の閉鎖等,0,2025-12-12,2025-12-05,株式会社泉州トラツクサービスセンター,,株式会社,大阪府,堺市西区,浜寺石津町中１丁９番１９号,,27,144,5928334,,,2025-12-05,清算の結了等,,,2015-10-05,1,,,,,センシュウトラツクサービスセンター,0
1923,7150001001538,登記記録の閉鎖等,0,2025-12-12,2025-12-10,ナラサンライズ株式会社,,株式会社,奈良県,奈良市,東登美ヶ丘１丁目５番７号,,29,201,6310002,,,2025-12-10,清算の結了等,,,2015-10-05,1,,,,,ナラサンライズ,0
1924,7150001013211,登記記録の閉鎖等,0,2025-12-12,2025-12-10,日生ゴム株式会社,,株式会社,奈良県,大和高田市,大東町８番３号,,29,202,6350016,,,2025-12-10,清算の結了等,,,2015-10-05,1,,,,,ニッセイゴム,0
1931,7180001153855,登記記録の閉鎖等,0,2025-12-12,2025-11-25,株式会社佰吉食品,,株式会社,愛知県,名古屋市西区,上小田井１丁目２３９番地の２,,23,104,4520821,,,2025-11-25,清算の結了等,,,2022-11-15,1,,,,,ヒャッキチショクヒン,0
1934,7180002056859,登記記録の閉鎖等,0,2025-12-12,2025-12-08,有限会社エルカコーポレーション,,有限会社,愛知県,常滑市,多屋字十部１１番１,,23,216,4790843,,,2025-12-08,清算の結了等,,,2015-10-05,1,,,,,エルカコーポレーション,0
1942,7200001006135,登記記録の閉鎖等,0,2025-12-12,2025-12-10,井上不動産株式会社,,株式会社,岐阜県,岐阜市,薮田中２丁目１１番８号,,21,201,5008387,,,2025-12-10,清算の結了等,,,2015-10-05,1,,,,,イノウエフドウサン,0
1965,7290802009360,登記記録の閉鎖等,0,2025-12-12,2025-12-05,有限会社光陽社電機店,,有限会社,福岡県,北九州市門司区,栄町５番１４号,,40,101,8010863,,,2025-12-05,清算の結了等,,,2015-10-05,1,,,,,コウヨウシャデンキテン,0
1974,7310001010720,登記記録の閉鎖等,0,2025-12-12,2025-12-09,鈴商株式会社,,株式会社,長崎県,対馬市,厳原町宮谷１５０番地２,,42,209,8170011,,,2025-12-09,清算の結了等,,,2015-10-05,1,,,,,スズショウ,0
1981,7340002000908,登記記録の閉鎖等,0,2025-12-12,2025-12-01,有限会社アスカム・ヨネックス,,有限会社,鹿児島県,鹿児島市,草牟田２丁目２番７号,,46,201,8900014,,,2025-12-01,合併による解散等,3340002008806,令和７年１２月１日鹿児島市東開町４番地４８株式会社まこと謝恩会（3340002008806）に合併し解散,2015-10-05,1,,,,,アスカムヨネックス,0
1984,7360001001310,登記記録の閉鎖等,0,2025-12-12,2025-12-05,第一印刷株式会社,,株式会社,沖縄県,豊見城市,字嘉数５０２番地３,,47,212,9010202,,,2025-12-05,清算の結了等,,,2015-10-05,1,,,,,,0
1991,7370301003575,登記記録の閉鎖等,0,2025-12-12,2025-12-08,株式会社アベ住建サービス,,株式会社,宮城県,牡鹿郡女川町,鷲神浜字堀切１９番地の２,,04,581,9862243,,,2025-12-08,清算の結了等,,,2015-10-05,1,,,,,アベジュウケンサービス,0
2002,7430001068623,登記記録の閉鎖等,0,2025-12-12,2025-12-08,株式会社オカザキ,,株式会社,北海道,伊達市,弄月町２４５番地１,,01,233,0520013,,,2025-12-08,清算の結了等,,,2015-10-05,1,,,,,オカザキ,0
2003,7430001084967,登記記録の閉鎖等,0,2025-12-12,2025-12-09,株式会社みのり薬局,,株式会社,北海道,札幌市北区,北二十七条西３丁目３番２７号ＭＳ２７３・３Ｆ,,01,102,0010027,,,2025-12-09,合併による解散等,6030001066965,令和７年１１月１日大阪府茨木市西駅前町１３番２５号株式会社ウィーズ（6030001066965）に合併し解散,2021-09-15,1,,,,,ミノリヤッキョク,0
2011,7490005006508,登記記録の閉鎖等,0,2025-12-12,2025-12-08,特定非営利活動法人きらめき,,その他の設立登記法人,高知県,高知市,土居町１４番地３,,39,201,7808001,,,2025-12-08,清算の結了等,,,2017-02-21,1,,,,,キラメキ,0
2068,8011003018822,登記記録の閉鎖等,0,2025-12-12,2025-12-04,スエズ商会合同会社,,合同会社,東京都,渋谷区,恵比寿西２丁目８番４号ＥＸ恵比寿西ビル５階,,13,113,1500021,,,2025-12-04,清算の結了等,,,2024-03-29,1,,,,,スエズショウカイ,0
2097,8011801045415,登記記録の閉鎖等,0,2025-12-12,2025-12-05,釧桀株式会社,,株式会社,東京都,足立区,新田１丁目８－２３－８１５号,,13,121,1230865,,,2025-12-05,清算の結了等,,,2025-01-24,1,,,,,センケツ,0
2105,8012702004708,登記記録の閉鎖等,0,2025-12-12,2025-12-04,有限会社パークデンタルラボラトリー,,有限会社,東京都,西東京市,保谷町６丁目１０番２８号,,13,229,2020015,,,2025-12-04,清算の結了等,,,2015-10-05,1,,,,,パークデンタルラボラトリー,0
2113,8013303007810,登記記録の閉鎖等,0,2025-12-12,2025-12-04,合同会社ＮＣＫビル管理,,合同会社,東京都,豊島区,目白３丁目４番１１号ＮＣＫビル,,13,116,1710031,,,2025-12-04,清算の結了等,,,2025-08-19,1,,,,,エヌシーケービルカンリ,0
2114,8020001082573,登記記録の閉鎖等,0,2025-12-12,2025-12-09,株式会社ゼラスリーワークス,,株式会社,神奈川県,川崎市多摩区,中野島６丁目２９番２,,14,135,2140012,,,2025-12-09,清算の結了等,,,2015-10-05,1,,,,,ゼラスリーワークス,0
2118,8020002053953,登記記録の閉鎖等,0,2025-12-12,2025-12-08,有限会社ベルグインターナショナル,,有限会社,神奈川県,横浜市青葉区,大場町６９８番地１０,,14,117,2250023,,,2025-12-08,清算の結了等,,,2015-10-05,1,,,,,ベルグインターナショナル,0
2119,8020002103758,登記記録の閉鎖等,0,2025-12-12,2025-12-08,有限会社ヒラマ,,有限会社,神奈川県,川崎市麻生区,万福寺４丁目１９番１－４３５号,,14,137,2150004,,,2025-12-08,清算の結了等,,,2015-10-05,1,,,,,ヒラマ,0
2129,8021001064198,登記記録の閉鎖等,0,2025-12-12,2025-11-25,株式会社ａｎ　ｋｏｏｌ,,株式会社,神奈川県,平塚市,代官町５－１２エピロア１Ｆ,,14,203,2540807,,,2025-11-25,清算の結了等,,,2018-02-20,1,,,,,,0
2130,8021001071434,登記記録の閉鎖等,0,2025-12-12,2025-11-25,株式会社アフロディーテ,,株式会社,神奈川県,相模原市中央区,弥栄１丁目１８番１１号,,14,152,2520229,,,2025-11-25,清算の結了等,,,2020-11-24,1,,,,,アフロディーテ,0
2141,8030001062938,登記記録の閉鎖等,0,2025-12-12,2025-12-04,全栄物産株式会社,,株式会社,埼玉県,草加市,清門２丁目４２番地１４,,11,221,3400055,,,2025-12-04,清算の結了等,,,2015-10-05,1,,,,,ゼンエイブッサン,0
2149,8040001003404,登記記録の閉鎖等,0,2025-12-12,2025-11-21,株式会社ジャパン・エステート,,株式会社,千葉県,千葉市中央区,祐光４丁目７番５号,,12,101,2600007,,,2025-11-21,清算の結了等,,,2015-10-05,1,,,,,ジャパンエステート,0
2150,8040001046824,登記記録の閉鎖等,0,2025-12-12,2025-11-21,株式会社齋藤商事,,株式会社,千葉県,佐倉市,江原台１丁目１６番地３５,,12,212,2850825,,,2025-11-21,清算の結了等,,,2015-10-05,1,,,,,サイトウショウジ,0
2161,8040002015233,登記記録の閉鎖等,0,2025-12-12,2025-11-21,有限会社エイテック,,有限会社,千葉県,船橋市,北本町２丁目６番１－７０５号,,12,204,2730864,,,2025-11-21,清算の結了等,,,2015-10-05,1,,,,,エイテック,0
2169,8070001004507,登記記録の閉鎖等,0,2025-12-12,2025-12-08,株式会社日本インパック,,株式会社,群馬県,前橋市,若宮町２丁目１１番１２号,,10,201,3710032,,,2025-12-08,清算の結了等,,,2015-10-05,1,,,,,ニホンインパック,0
2172,8090001002698,登記記録の閉鎖等,0,2025-12-12,2025-12-09,株式会社ピープル,,株式会社,山梨県,甲斐市,富竹新田１６３５番地５,,19,210,4000113,,,2025-12-09,清算の結了等,,,2015-10-05,1,,,,,ピープル,0
2182,8120001160039,登記記録の閉鎖等,0,2025-12-12,2025-12-10,関西中央旅客守口株式会社,,株式会社,大阪府,守口市,金田町３丁目４７番１５号,,27,209,5700011,,,2025-12-10,清算の結了等,,,2015-10-05,1,,,,,カンサイチュウオウリョキャクモリグチ,0
2185,8120001223679,登記記録の閉鎖等,0,2025-12-12,2025-12-10,積水ハウスノイエ株式会社,,株式会社,大阪府,大阪市北区,大淀中１丁目１番９０号,,27,127,5310076,,,2025-12-10,清算の結了等,,,2019-09-10,1,,,,,セキスイハウスノイエ,0
2187,8120001259021,登記記録の閉鎖等,0,2025-12-12,2025-12-09,安心株式会社,,株式会社,大阪府,大阪市中央区,森ノ宮中央２丁目１０番７号ロイヤル難波宮５０３号室,,27,128,5400003,,,2025-12-09,清算の結了等,,,2023-10-24,1,,,,,アンシン,0
2201,8120901049851,登記記録の閉鎖等,0,2025-12-12,2025-12-04,株式会社ライナック,,株式会社,大阪府,高槻市,高槻町７番２８号,,27,207,5690803,,,2025-12-04,清算の結了等,,,2024-10-08,1,,,,,ライナック,0
2209,8140001088658,登記記録の閉鎖等,0,2025-12-12,2025-12-05,株式会社三田コンポーネント,,株式会社,兵庫県,三田市,四ツ辻１３９９番地,00040192,28,219,6691342,,,2025-12-05,清算の結了等,,,2015-10-05,1,,,,,サンダコンポーネント,0
2219,8160002006419,登記記録の閉鎖等,0,2025-12-12,2025-12-01,株式会社近交運輸,,株式会社,滋賀県,米原市,西円寺４２７番地,,25,214,5210092,,,2025-12-01,合併による解散等,2160001007415,令和７年１２月１日滋賀県長浜市山階町１３８番地滋賀近交運輸倉庫株式会社（2160001007415）に合併し解散,2015-10-05,1,,,,,キンコウウンユ,0
2243,8180302027724,登記記録の閉鎖等,0,2025-12-12,2025-12-05,有限会社電設,,有限会社,愛知県,新城市,字西新町７２番地の８,,23,221,4411373,,,2025-12-05,清算の結了等,,,2015-10-05,1,,,,,デンセツ,0
2245,8190001022414,登記記録の閉鎖等,0,2025-12-12,2025-12-09,株式会社Ａｘｃｉｓ,,株式会社,三重県,鈴鹿市,安塚町１５１６番地,,24,207,5130818,,,2025-12-09,清算の結了等,,,2015-10-05,1,,,,,アクシス,0
2250,8220002004044,登記記録の閉鎖等,0,2025-12-12,2025-12-10,有限会社堂井鮮魚店,,有限会社,石川県,金沢市,寺町３丁目１３番２２号,,17,201,9218033,,,2025-12-10,清算の結了等,,,2015-10-05,1,,,,,ドウイセンギョテン,0
2261,8280002006522,登記記録の閉鎖等,0,2025-12-12,2025-12-08,有限会社岡田忠市商店,,有限会社,島根県,出雲市,大社町杵築南１２７７番地,,32,203,6990711,,,2025-12-08,清算の結了等,,,2015-10-05,1,,,,,オカダチュウイチショウテン,0
2282,8360001021464,登記記録の閉鎖等,0,2025-12-12,2025-12-04,株式会社プロスパー,,株式会社,沖縄県,浦添市,字経塚９０１番地１　１Ｆ,,47,208,9012111,,,2025-12-04,清算の結了等,,,2016-10-25,1,,,,,プロスパー,0
2287,8370001013502,登記記録の閉鎖等,0,2025-12-12,2025-12-09,株式会社ＳＴＯＲＹ　ＩＮ　ＳＴＯＮＥ,,株式会社,宮城県,仙台市泉区,朴沢字石田４番地の１,,04,105,9813226,,,2025-12-09,合併による解散等,7380001007850,令和７年１２月１日福島県田村市船引町堀越字堰下１９５番地株式会社フクイシ（7380001007850）に合併し解散,2015-10-05,1,,,,,ストーリーインストーン,0
2290,8370002010754,登記記録の閉鎖等,0,2025-12-12,2025-11-21,有限会社グローバル会計,,有限会社,宮城県,仙台市宮城野区,榴岡４丁目１３番１３号,,04,102,9830852,,,2025-11-21,清算の結了等,,,2015-10-05,1,,,,,グローバルカイケイ,0
2301,8420002015599,登記記録の閉鎖等,0,2025-12-12,2025-12-05,有限会社サンオート,,有限会社,青森県,黒石市,富田１３７番地,,02,204,0360514,,,2025-12-05,清算の結了等,,,2015-10-05,1,,,,,サンオート,0
2303,8430001020517,登記記録の閉鎖等,0,2025-12-12,2025-12-08,大和鉱業株式会社,,株式会社,北海道,札幌市南区,澄川三条１丁目２－１－５１３号,,01,106,0050003,,,2025-12-08,清算の結了等,,,2015-10-05,1,,,,,ダイワコウギョウ,0
2307,8430001072599,登記記録の閉鎖等,0,2025-12-12,2025-12-05,ママンクッキングサービス株式会社,,株式会社,北海道,札幌市中央区,南一条東７丁目１番地７,,01,101,0600051,,,2025-12-05,清算の結了等,,,2016-10-26,1,,,,,ママンクッキングサービス,0
2315,8500003001045,登記記録の閉鎖等,0,2025-12-12,2025-12-09,合同会社ミジョン,,合同会社,愛媛県,宇和島市,築地町１丁目４番２４号,,38,203,7980005,,,2025-12-09,清算の結了等,,,2015-10-05,1,,,,,ミジョン,0
2331,9010001194939,登記記録の閉鎖等,0,2025-12-12,2025-12-10,株式会社ＫＥＩＲＡＫＵ　ｉｎｃ．,,株式会社,東京都,台東区,浅草５丁目７１－１,,13,106,1110032,,,2025-12-10,合併による解散等,6010401142376,令和７年１１月２０日名古屋市中区富士見町５－１９Ｂ１Ｆ株式会社ＫＩＲＥＩｖｅ（6010401142376）に合併し解散,2018-09-20,1,,,,,ケイラクアイエヌシー,0
2333,9010001224092,登記記録の閉鎖等,0,2025-12-12,2025-12-01,株式会社イーグルインベスコ,,株式会社,東京都,港区,六本木３丁目２番１号,,13,103,1060032,,,2025-12-01,合併による解散等,6010401187355,令和７年１１月３０日東京都港区六本木三丁目２番１号株式会社ホビーリンク・ジャパン（6010401187355）に合併し解散,2022-01-25,1,,,,,イーグルインベスコ,0
2344,9010003014054,登記記録の閉鎖等,0,2025-12-12,2025-11-27,合同会社スペードハウス,,合同会社,東京都,中央区,日本橋１丁目４番１号日本橋一丁目ビルディング,,13,102,1030027,,,2025-11-27,清算の結了等,,,2015-10-05,1,,,,,スペードハウス,0
2346,9010103000994,登記記録の閉鎖等,0,2025-12-12,2025-12-08,合同会社アキナイ,,合同会社,東京都,国立市,東１丁目１５－１１，４４８ビル３Ｆ,,13,215,1860002,,,2025-12-08,清算の結了等,,,2016-07-26,1,,,,,,0
2376,9011002036312,登記記録の閉鎖等,0,2025-12-12,2025-12-08,有限会社誠真,,有限会社,東京都,港区,六本木１丁目４番５号アークヒルズサウスタワー１４階,,13,103,1060032,,,2025-12-08,合併による解散等,3010901037590,令和７年１２月８日東京都港区六本木一丁目４番５号アークヒルズサウスタワー１４階Ｓｏｒａ・Ｉｎｖｅｓｔｍｅｎｔ株式会社（3010901037590）に合併し解散,2015-10-05,1,,,,,セイシン,0
2378,9011101060650,登記記録の閉鎖等,0,2025-12-12,2025-11-18,株式会社ｌａｐ＆ｃｏ．,,株式会社,東京都,新宿区,新宿５丁目１８番２０号ルックハイツ新宿８０３号,,13,104,1600022,,,2025-11-18,清算の結了等,,,2015-10-05,1,,,,,,0
2380,9011101072068,登記記録の閉鎖等,0,2025-12-12,2025-12-09,株式会社猿＆ＣＯ．,,株式会社,東京都,新宿区,神楽坂５丁目３０番地,,13,104,1620825,,,2025-12-09,合併による解散等,8012401017498,令和７年１２月１日東京都国分寺市本町四丁目１番１０号シティハイツＢ１株式会社猿屋一家（8012401017498）に合併し解散,2015-10-05,1,,,,,サルアンドコードット,0
2381,9011101094979,登記記録の閉鎖等,0,2025-12-12,2025-11-28,株式会社シーバイティ,,株式会社,東京都,千代田区,紀尾井町３番３３号,,13,101,1020094,,,2025-11-28,清算の結了等,,,2021-05-11,1,,,,,シーバイティ,0
2384,9011205000230,登記記録の閉鎖等,0,2025-12-12,2025-12-08,一尊教中野教会慈尊庵,,その他の設立登記法人,東京都,中野区,丸山１丁目１番６号,,13,114,1650021,,,2025-12-08,清算の結了等,,,2015-10-05,1,,,,,,0
2391,9011701011251,登記記録の閉鎖等,0,2025-12-12,2025-12-08,株式会社デコル,,株式会社,東京都,江戸川区,南葛西１丁目８番１４号,,13,123,1340085,,,2025-12-08,清算の結了等,,,2015-10-05,1,,,,,デコル,0
2403,9012801024011,登記記録の閉鎖等,0,2025-12-12,2025-12-08,宮川アセットマネージメント株式会社,,株式会社,東京都,昭島市,拝島町４丁目４番１９号ガーデンハウス拝島Ｂ１０３号,,13,207,1960002,,,2025-12-08,清算の結了等,,,2025-06-04,1,,,,,ミヤガワアセットマネージメント,0
2415,9020001070081,登記記録の閉鎖等,0,2025-12-12,2025-12-08,二子屋畜産株式会社,,株式会社,神奈川県,川崎市中原区,木月４丁目１１番３３号,,14,133,2110025,,,2025-12-08,清算の結了等,,,2015-10-05,1,,,,,フタゴヤチクサン,0
2420,9020001132237,登記記録の閉鎖等,0,2025-12-12,2025-12-08,株式会社ななみらい,,株式会社,神奈川県,横浜市中区,山下町１６３番地,,14,104,2310023,,,2025-12-08,清算の結了等,,,2019-08-02,1,,,,,ナナミライ,0
2441,9030002020299,登記記録の閉鎖等,0,2025-12-12,2025-12-04,有限会社Ｍセレクション,,有限会社,埼玉県,さいたま市岩槻区,宮町１丁目２番３１号,,11,110,3390065,,,2025-12-04,清算の結了等,,,2015-10-05,1,,,,,エムセレクション,0
2442,9030002055601,登記記録の閉鎖等,0,2025-12-12,2025-12-05,有限会社柿の木屋クリーニング店,,有限会社,埼玉県,桶川市,東２丁目４番２６号,,11,231,3630013,,,2025-12-05,清算の結了等,,,2015-10-05,1,,,,,カキノキヤクリーニングテン,0
2455,9060001027020,登記記録の閉鎖等,0,2025-12-12,2025-12-04,ミノル産業株式会社,,株式会社,埼玉県,さいたま市西区,大字佐知川１２４９番地２７,,11,101,3310064,,,2025-12-04,清算の結了等,,,2015-10-05,1,,,,,ミノルサンギョウ,0
2457,9070002008407,登記記録の閉鎖等,0,2025-12-12,2025-12-09,有限会社アーバンライフシステム,,有限会社,群馬県,高崎市,問屋町１丁目２番地１,,10,202,3700006,,,2025-12-09,清算の結了等,,,2015-10-05,1,,,,,アーバンライフシステム,0
2463,9080002003613,登記記録の閉鎖等,0,2025-12-12,2025-12-08,有限会社滝栄産業,,有限会社,静岡県,静岡市葵区,東１丁目２５番１号,,22,101,4200962,,,2025-12-08,清算の結了等,,,2015-10-05,1,,,,,タキエイサンギョウ,0
2477,9110002020349,登記記録の閉鎖等,0,2025-12-12,2025-12-05,有限会社大山精工商会,,有限会社,新潟県,柏崎市,春日２丁目１番１４号,,15,205,9450074,,,2025-12-05,清算の結了等,,,2015-10-05,1,,,,,オオヤマセイコウショウカイ,0
2478,9120001041329,登記記録の閉鎖等,0,2025-12-12,2025-12-10,株式会社一路,,株式会社,大阪府,大阪市中央区,安土町１丁目７番１３号,,27,128,5410052,,,2025-12-10,清算の結了等,,,2015-10-05,1,,,,,イチロ,0
2483,9120001190349,登記記録の閉鎖等,0,2025-12-12,2025-12-10,株式会社サイトサポート,,株式会社,大阪府,大阪市淀川区,西中島５丁目１３－２４アンシャンテ新大阪５０２,,27,123,5320011,,,2025-12-10,清算の結了等,,,2015-10-05,1,,,,,サイトサポート,0
2502,9130001062737,登記記録の閉鎖等,0,2025-12-12,2025-12-08,株式会社ネコラボ,,株式会社,京都府,京都市東山区,祇園町南側５７０番地１１８,,26,105,6050074,,,2025-12-08,清算の結了等,,,2018-08-14,1,,,,,ネコラボ,0
2515,9140003020774,登記記録の閉鎖等,0,2025-12-12,2025-12-10,合同会社エムズサービス,,合同会社,兵庫県,川西市,清和台東４丁目３－２－３－５０６,,28,217,6660142,,,2025-12-10,清算の結了等,,,2024-07-04,1,,,,,エムズサービス,0
2517,9140005023965,登記記録の閉鎖等,0,2025-12-12,2025-12-08,一般社団法人戎不動産,,その他の設立登記法人,兵庫県,伊丹市,伊丹１丁目１３番５号,,28,207,6640846,,,2025-12-08,清算の結了等,,,2018-02-15,1,,,,,エビスフドウサン,0
2522,9180001033279,登記記録の閉鎖等,0,2025-12-12,2025-12-09,株式会社遊技機会館,,株式会社,愛知県,名古屋市中村区,畑江通２丁目１７番地,,23,105,4530851,,,2025-12-09,合併による解散等,7011501002650,令和７年１２月１日東京都台東区東上野一丁目１番１４号株式会社大都製作所（7011501002650）に合併し解散,2015-10-05,1,,,,,ユウギキカイカン,0
2527,9180001078407,登記記録の閉鎖等,0,2025-12-12,2025-12-04,株式会社ＯＳＳ福祉ほうむ,,株式会社,愛知県,春日井市,上野町４０９番地４,,23,206,4800306,,,2025-12-04,清算の結了等,,,2015-10-05,1,,,,,オーエスエスフクシホウム,0
2529,9180001111514,登記記録の閉鎖等,0,2025-12-12,2025-12-08,ファウスト株式会社,,株式会社,愛知県,名古屋市北区,楠味鋺４丁目１０１番地,,23,103,4620014,,,2025-12-08,清算の結了等,,,2015-10-05,1,,,,,ファウスト,0
2538,9180002006069,登記記録の閉鎖等,0,2025-12-12,2025-12-09,有限会社ビットリオ,,有限会社,愛知県,名古屋市中区,上前津２丁目７番２４号上前津グランドハイツ９０４,,23,106,4600013,,,2025-12-09,合併による解散等,6180002033470,令和７年１２月１日名古屋市中区上前津二丁目７番２４号上前津グランドハイツ９０４株式会社ラ・セゾン（6180002033470）に合併し解散,2015-10-05,1,,,,,ビットリオ,0
2544,9180002073340,登記記録の閉鎖等,0,2025-12-12,2025-12-08,有限会社ヴォイス,,有限会社,愛知県,尾張旭市,城山町城山２３番７,,23,226,4880884,,,2025-12-08,清算の結了等,,,2015-10-05,1,,,,,ヴォイス,0
2550,9200001012073,登記記録の閉鎖等,0,2025-12-12,2025-12-10,株式会社リサイクルあさがお,,株式会社,岐阜県,各務原市,那加新加納町３７３９番地,,21,213,5040958,,,2025-12-10,清算の結了等,,,2015-10-05,1,,,,,リサイクルアサガオ,0
2553,9200001031073,登記記録の閉鎖等,0,2025-12-12,2025-12-09,株式会社くリニア企画,,株式会社,岐阜県,中津川市,茄子川１５９５番地の５,,21,206,5099132,,,2025-12-09,清算の結了等,,,2015-10-05,1,,,,,クリニアキカク,0
2557,9220002004142,登記記録の閉鎖等,0,2025-12-12,2025-12-10,有限会社トナミ工業,,有限会社,石川県,金沢市,糸田新町１９番８号,,17,201,9218026,,,2025-12-10,清算の結了等,,,2015-10-05,1,,,,,トナミコウギョウ,0
2558,9220002006254,登記記録の閉鎖等,0,2025-12-12,2025-12-11,有限会社米泉電気商会,,有限会社,石川県,金沢市,神野３丁目１６番地,,17,201,9200368,,,2025-12-11,清算の結了等,,,2015-10-05,1,,,,,ヨネイズミデンキショウカイ,0
2562,9240003003091,登記記録の閉鎖等,0,2025-12-12,2025-12-08,ｒｅｓｈｅｌｌ合同会社,,合同会社,広島県,広島市安佐南区,高取南１丁目２番９号,,34,105,7310142,,,2025-12-08,清算の結了等,,,2015-10-05,1,,,,,リシェル,0
2567,9260002003330,登記記録の閉鎖等,0,2025-12-12,2025-12-01,有限会社クロサキ,,有限会社,岡山県,岡山市南区,福富東２丁目３番２７－２号,,33,104,7028033,,,2025-12-01,合併による解散等,5260001002205,令和７年１２月１日岡山市北区今一丁目１番３２号株式会社黒崎塗装店（5260001002205）に合併し解散,2015-10-05,1,,,,,クロサキ,0
2576,9290801001531,登記記録の閉鎖等,0,2025-12-12,2025-12-11,西海通産株式会社,,株式会社,福岡県,北九州市小倉南区,若園２丁目２４番５号,,40,107,8020816,,,2025-12-11,清算の結了等,,,2015-10-05,1,,,,,サイカイツウサン,0
2584,9330001019221,登記記録の閉鎖等,0,2025-12-12,2025-12-05,天草権現ファーム株式会社,,株式会社,熊本県,天草市,亀場町亀川１３２番地１,,43,215,8630043,,,2025-12-05,清算の結了等,,,2015-10-05,1,,,,,アマクサゴンゲンファーム,0
2587,9330001027604,登記記録の閉鎖等,0,2025-12-12,2025-12-05,富永農産株式会社,,株式会社,熊本県,菊池郡大津町,大字真木１８７番地２,,43,403,8691212,,,2025-12-05,清算の結了等,,,2020-07-03,1,,,,,トミナガノウサン,0
2591,9340002025977,登記記録の閉鎖等,0,2025-12-12,2025-12-04,有限会社東洋浄水,,有限会社,鹿児島県,鹿屋市,打馬１丁目３番１５号,,46,203,8930011,,,2025-12-04,清算の結了等,,,2015-10-05,1,,,,,トウヨウジョウスイ,0
2602,9370001049545,登記記録の閉鎖等,0,2025-12-12,2025-12-01,株式会社Ｐａ‐ｓｕ　ｆａｒｍ,,株式会社,宮城県,岩沼市,三色吉字山神６４番地,,04,211,9892464,,,2025-12-01,合併による解散等,6370001046314,令和７年１２月１日宮城県仙台市青葉区本町二丁目１０番３３号株式会社ファイブピット（6370001046314）に合併し解散,2023-01-30,1,,,,,パースファーム,0
2610,9390002013028,登記記録の閉鎖等,0,2025-12-12,2025-12-10,有限会社税経サービス,,有限会社,山形県,米沢市,本町１丁目５番２１号,,06,202,9920037,,,2025-12-10,清算の結了等,,,2015-10-05,1,,,,,ゼイケイサービス,0
2611,9390003001790,登記記録の閉鎖等,0,2025-12-12,2025-12-04,合同会社ティーゴー,,合同会社,山形県,米沢市,東３丁目９番１９号,,06,202,9920026,,,2025-12-04,合併による解散等,2390002012614,令和７年１２月１日山形県米沢市東三丁目９番１９号株式会社ティアライズ（2390002012614）に合併し解散,2020-12-23,1,,,,,ティーゴー,0
2621,9470002004539,登記記録の閉鎖等,0,2025-12-12,2025-12-09,有限会社玉木水象堂,,有限会社,香川県,高松市,田町４番地２６,,37,201,7600053,,,2025-12-09,清算の結了等,,,2015-10-05,1,,,,,タマキスイショウドウ,0
2625,9470002019181,登記記録の閉鎖等,0,2025-12-12,2025-12-05,有限会社小豆島オリーブ糖本舗,,有限会社,香川県,小豆郡小豆島町,安田甲６２３番地の２,,37,324,7614411,,,2025-12-05,清算の結了等,,,2015-10-05,1,,,,,ショウドシマオリーブトウホンポ,0
2627,9490001009603,登記記録の閉鎖等,0,2025-12-12,2025-11-28,株式会社エイチワークス,,株式会社,高知県,南国市,岡豊町小篭４５番地,,39,204,7830048,,,2025-11-28,合併による解散等,5490001006496,令和７年１１月１日高知県南国市岡豊町小篭４４番地株式会社エイチワークス（5490001006496）に合併し解散,2020-07-03,1,,,,,エイチワークス,0
