sequenceNumber,corporateNumber,process,correct,updateDate,changeDate,name,nameImageId,kind,prefectureName,cityName,streetNumber,addressImageId,prefectureCode,cityCode,postCode,addressOutside,addressOutsideImageId,closeDate,closeCause,successorCorporateNumber,changeCause,assignmentDate,latest,enName,enPrefectureName,enCityName,enAddressOutside,furigana,hihyoji
5,1010001225544,新規,0,2022-04-05,2022-04-05,株式会社シンファード,,株式会社,東京都,千代田区,神田三崎町２丁目１９番４号矢嶋ビル６Ｆ,,13,101,1010061,,,,,,,2022-04-05,1,,,,,,0
6,1010001225610,新規,0,2022-04-05,2022-04-05,Ｔｒｉｌａｔｏ　Ｐｌｕｓ　Ｂａｒｃａ株式会社,,株式会社,東京都,千代田区,九段北４丁目３番３２号７Ｆ,,13,101,1020073,,,,,,,2022-04-05,1,,,,,トリラトプラスバルカ,0
7,1010003037129,新規,0,2022-04-05,2022-04-05,合同会社ザ・ワールド,,合同会社,東京都,文京区,水道２丁目３番２４－５０５号,,13,105,1120005,,,,,,,2022-04-05,1,,,,,ザワールド,0
8,1010003037368,新規,0,2022-04-05,2022-04-05,Ｋｉａｉ　Ｓｏｆｔ　Ｊａｐａｎ合同会社,,合同会社,東京都,千代田区,九段南１丁目５－６,,13,101,1020074,,,,,,,2022-04-05,1,,,,,キアイソフトジャパン,0
10,1010005034801,新規,0,2022-04-05,2022-04-05,一般社団法人ＤＣ投資教育協会,,その他の設立登記法人,東京都,千代田区,九段南１丁目５番６号りそな九段ビル５階,,13,101,1020074,,,,,,,2022-04-05,1,,,,,ディシートウシキョウイクキョウカイ,0
12,1010101015127,新規,0,2022-04-05,2022-04-05,株式会社カクド,,株式会社,東京都,八王子市,めじろ台２丁目５１－５,,13,201,1930833,,,,,,,2022-04-05,1,,,,,カクド,0
19,1010401166545,新規,0,2022-04-05,2022-04-05,株式会社ジョインジャパン,,株式会社,東京都,港区,赤坂２丁目１２番２１号ディアシティ赤坂西館２０６号室,,13,103,1070052,,,,,,,2022-04-05,1,,,,,ジョインジャパン,0
20,1010401166594,新規,0,2022-04-05,2022-04-05,ＪＸ金属コーポレートサービス株式会社,,株式会社,東京都,港区,虎ノ門２丁目１０番４号,,13,103,1050001,,,,,,,2022-04-05,1,,,,,ジェイエックスキンゾクコーポレートサービス,0
21,1010401166652,新規,0,2022-04-05,2022-04-05,Ａｍｍｏｎ　Ｆｉｅｌｄｓ株式会社,,株式会社,東京都,港区,赤坂１丁目１２番３２号アーク森ビル３階,,13,103,1070052,,,,,,,2022-04-05,1,,,,,アモンフィールズ,0
23,1010601060878,新規,0,2022-04-05,2022-04-05,株式会社ｍｉｍｏｎａｌ,,株式会社,東京都,墨田区,石原３丁目２６番５号,,13,107,1300011,,,,,,,2022-04-05,1,,,,,ミモナル,0
26,1010703006176,新規,0,2022-04-05,2022-04-05,ＢＥＹＯＮＤ　ＢＡＳＫＥＴＢＡＬＬ合同会社,,合同会社,東京都,品川区,北品川５丁目３番１号,,13,109,1410001,,,,,,,2022-04-05,1,,,,,ビヨンドバスケットボール,0
31,1010901050645,新規,0,2022-04-05,2022-04-05,株式会社今川エージェンシー,,株式会社,東京都,世田谷区,中町２丁目８番１０号,,13,112,1580091,,,,,,,2022-04-05,1,,,,,イマガワエージェンシー,0
40,1011001146664,新規,0,2022-04-05,2022-04-05,カリシア株式会社,,株式会社,東京都,渋谷区,神宮前６丁目２３番４号桑野ビル２Ｆ,,13,113,1500001,,,,,,,2022-04-05,1,,,,,カリシア,0
42,1011003014489,新規,0,2022-04-05,2022-04-05,Ｓａｌｔａｔｅ合同会社,,合同会社,東京都,渋谷区,宇田川町２－１渋谷ホームズ１０２１,,13,113,1500042,,,,,,,2022-04-05,1,,,,,サルターテ,0
48,1011203003787,新規,0,2022-04-05,2022-04-05,合同会社ネオシャトー,,合同会社,東京都,中野区,本町１丁目１番５号３０８,,13,114,1640012,,,,,,,2022-04-05,1,,,,,ネオシャトー,0
57,1011601025846,新規,0,2022-04-05,2022-04-05,デスクトップエデュケーション株式会社,,株式会社,東京都,練馬区,豊玉北２丁目１４番１２－４０３号,,13,120,1760012,,,,,,,2022-04-05,1,,,,,デスクトップエデュケーション,0
58,1011701025176,新規,0,2022-04-05,2022-04-05,Ｄ‐ＬＩＮＫ株式会社,,株式会社,東京都,江戸川区,船堀３丁目７－１３－４Ｄ,,13,123,1340091,,,,,,,2022-04-05,1,,,,,ディーリンク,0
59,1011701025184,新規,0,2022-04-05,2022-04-05,エムエムエス株式会社,,株式会社,東京都,江戸川区,小松川３丁目１１番１８－６０７号,,13,123,1320034,,,,,,,2022-04-05,1,,,,,エムエムエス,0
60,1011801040513,新規,0,2022-04-05,2022-04-05,双欣株式会社,,株式会社,東京都,葛飾区,新宿６丁目２番１号,,13,122,1250051,,,,,,,2022-04-05,1,,,,,ソウキン,0
61,1011801040521,新規,0,2022-04-05,2022-04-05,株式会社Ａｓｕｍｅｅｔ,,株式会社,東京都,葛飾区,南水元４丁目１４番１８号,,13,122,1250035,,,,,,,2022-04-05,1,,,,,アスミート,0
62,1011801040538,新規,0,2022-04-05,2022-04-05,株式会社ゴールデンモーメント,,株式会社,東京都,葛飾区,東立石１丁目１番３号フカサワコーポ１Ｆ,,13,122,1240013,,,,,,,2022-04-05,1,,,,,ゴールデンモーメント,0
64,1012301012936,新規,0,2022-04-05,2022-04-05,株式会社ｖｒｏｏｍ,,株式会社,東京都,町田市,原町田６丁目９番８号４Ｆ,,13,209,1940013,,,,,,,2022-04-05,1,,,,,ブルーム,0
65,1012401039020,新規,0,2022-04-05,2022-04-05,株式会社上松牧場,,株式会社,東京都,府中市,白糸台４丁目２８番地の１１,,13,206,1830011,,,,,,,2022-04-05,1,,,,,ウエマツボクジョウ,0
66,1012401039053,新規,0,2022-04-05,2022-04-05,メディカルリンク株式会社,,株式会社,東京都,調布市,布田１丁目３２番地５,,13,208,1820024,,,,,,,2022-04-05,1,,,,,メディカルリンク,0
69,1012801021486,新規,0,2022-04-05,2022-04-05,株式会社ＨｉｒａｋＵ,,株式会社,東京都,国分寺市,南町２丁目１３番１１号,,13,214,1850021,,,,,,,2022-04-05,1,,,,,ヒラク,0
70,1013301048895,新規,0,2022-04-05,2022-04-05,株式会社ヴィルカス,,株式会社,東京都,豊島区,北大塚３丁目１６番１号,,13,116,1700004,,,,,,,2022-04-05,1,,,,,ヴィルカス,0
74,1020001145956,新規,0,2022-04-05,2022-04-05,ベイブルー株式会社,,株式会社,神奈川県,横浜市西区,高島１丁目２番５号横濱ゲートタワー３Ｆ,,14,103,2200011,,,,,,,2022-04-05,1,,,,,ベイブルー,0
80,1021003011543,新規,0,2022-04-05,2022-04-05,合同会社Ｓｅｃｒｅｔ　Ｆａｃｔｏｒｙ湘南,,合同会社,神奈川県,伊勢原市,下谷７３４番地の７,,14,214,2591123,,,,,,,2022-04-05,1,,,,,シークレットファクトリーショウナン,0
81,1021003011551,新規,0,2022-04-05,2022-04-05,合同会社Ｋ’ｓＧＡＲＤＥＮ,,合同会社,神奈川県,藤沢市,辻堂東海岸４丁目１０番２４～１号,,14,205,2510045,,,,,,,2022-04-05,1,,,,,ケーズガーデン,0
85,1030001147539,新規,0,2022-04-05,2022-04-05,株式会社ＳＴＥＰ,,株式会社,埼玉県,さいたま市見沼区,大字中川６４９番地１４,,11,104,3370043,,,,,,,2022-04-05,1,,,,,ステップ,0
93,1040001122813,新規,0,2022-04-05,2022-04-05,アジアトレーディング株式会社,,株式会社,千葉県,木更津市,伊豆島字田高作１１１４－２－４,,12,206,2920034,,,,,,,2022-04-05,1,,,,,アジアトレーディング,0
94,1040001122862,新規,0,2022-04-05,2022-04-05,株式会社エーアールティー,,株式会社,千葉県,千葉市稲毛区,天台４丁目４番３号,,12,103,2630016,,,,,,,2022-04-05,1,,,,,エーアールティー,0
95,1040001122870,新規,0,2022-04-05,2022-04-05,株式会社オフィス誉田,,株式会社,千葉県,千葉市緑区,誉田町１丁目１３９番地７２,,12,105,2660005,,,,,,,2022-04-05,1,,,,,オフィスホンダ,0
98,1050003006468,新規,0,2022-04-05,2022-04-05,合同会社ＫＧＹサポート,,合同会社,茨城県,古河市,雷電町１３番２６号,,08,204,3060004,,,,,,,2022-04-05,1,,,,,ケイジーワイサポート,0
99,1050003006476,新規,0,2022-04-05,2022-04-05,合同会社フィディウス,,合同会社,茨城県,水戸市,藤が原３丁目２１番地の７,,08,201,3114208,,,,,,,2022-04-05,1,,,,,フィディウス,0
101,1080001024849,新規,0,2022-04-05,2022-04-05,株式会社吉川農園,,株式会社,静岡県,静岡市駿河区,向敷地６２０番地フレグランス川口２０３号,,22,102,4210101,,,,,,,2022-04-05,1,,,,,キッカワノウエン,0
103,1080101023189,新規,0,2022-04-05,2022-04-05,株式会社ＫＡＧＩＹＡ,,株式会社,静岡県,三島市,中央町４番２９号,,22,206,4110858,,,,,,,2022-04-05,1,,,,,カギヤ,0
106,1100001035232,新規,0,2022-04-05,2022-04-05,株式会社オペレーター長野,,株式会社,長野県,長野市,青木島１丁目１８番地１３,,20,201,3812247,,,,,,,2022-04-05,1,,,,,オペレーターナガノ,0
108,1100003006487,新規,0,2022-04-05,2022-04-05,合同会社ＪＯＩＮＴ,,合同会社,長野県,上伊那郡宮田村,６６１０番地８,,20,388,3994301,,,,,,,2022-04-05,1,,,,,ジョイント,0
109,1110001036551,新規,0,2022-04-05,2022-04-05,株式会社ゼロイチ,,株式会社,新潟県,新潟市中央区,菅根町４４７３－６,,15,103,9518088,,,,,,,2022-04-05,1,,,,,ゼロイチ,0
116,1120001244797,新規,0,2022-04-05,2022-04-05,モトミテック株式会社,,株式会社,大阪府,大阪市中央区,道頓堀２丁目２番２０－４０３号,,27,128,5420071,,,,,,,2022-04-05,1,,,,,モトミテック,0
117,1120001244847,新規,0,2022-04-05,2022-04-05,株式会社ｕｌｕ　ｃｒｅａｔｅ,,株式会社,大阪府,大阪市中央区,内淡路町２丁目３－１４日宝グリーンビル４Ｆ４号室,,27,128,5400038,,,,,,,2022-04-05,1,,,,,ウルクリエイト,0
118,1120001244863,新規,0,2022-04-05,2022-04-05,広隆商事株式会社,,株式会社,大阪府,寝屋川市,池田北町１４番１２号,,27,215,5720073,,,,,,,2022-04-05,1,,,,,ヒロタカショウジ,0
119,1120001244913,新規,0,2022-04-05,2022-04-05,帝人フロンティアクオーレ株式会社,,株式会社,大阪府,大阪市北区,中之島３丁目２番４号,,27,127,5300005,,,,,,,2022-04-05,1,,,,,テイジンフロンティアクオーレ,0
120,1120001244938,新規,0,2022-04-05,2022-04-05,株式会社ＮＥＸＣＥＮＴ,,株式会社,大阪府,大阪市福島区,福島２丁目１０－１９メガロコープ福島６０３,,27,103,5530003,,,,,,,2022-04-05,1,,,,,ネクセント,0
121,1120001244979,新規,0,2022-04-05,2022-04-05,株式会社０１ＳＴＡＲＴ,,株式会社,大阪府,大阪市旭区,新森２丁目１６番６号,,27,117,5350022,,,,,,,2022-04-05,1,,,,,ゼロイチスタート,0
124,1120003021402,新規,0,2022-04-05,2022-04-05,合同会社こどもの発達相談カスタネット,,合同会社,大阪府,大阪市東成区,大今里西１丁目１７番５号,,27,115,5370014,,,,,,,2022-04-05,1,,,,,コドモノハッタツソウダンカスタネット,0
126,1120101065334,新規,0,2022-04-05,2022-04-05,株式会社アドウイング・エス,,株式会社,大阪府,堺市西区,鳳南町３丁１９９番地１ライトウイング７０３号,,27,144,5938325,,,,,,,2022-04-05,1,,,,,アドウイングエス,0
130,1120103004637,新規,0,2022-04-05,2022-04-05,合同会社ポルテ,,合同会社,大阪府,堺市堺区,永代町６丁１－１８,,27,141,5900065,,,,,,,2022-04-05,1,,,,,ポルテ,0
138,1140001125475,新規,0,2022-04-05,2022-04-05,フードサプライマネジメント株式会社,,株式会社,兵庫県,明石市,藤江２０２８番地の１８,,28,203,6730044,,,,,,,2022-04-05,1,,,,,フードサプライマネジメント,0
139,1140001125500,新規,0,2022-04-05,2022-04-05,ファクトリー株式会社,,株式会社,兵庫県,芦屋市,呉川町１９番３－１０５号,,28,206,6590051,,,,,,,2022-04-05,1,,,,,ファクトリー,0
140,1140001125509,新規,0,2022-04-05,2022-04-05,株式会社計算科学研究所,,株式会社,兵庫県,神戸市中央区,港島南町７丁目１番地の２８,,28,110,6500047,,,,,,,2022-04-05,1,,,,,ケイサンカガクケンキュウショ,0
147,1140003017547,新規,0,2022-04-05,2022-04-05,合同会社谷口事務所,,合同会社,兵庫県,神戸市中央区,海岸通３番地シップ神戸海岸ビル７階,,28,110,6500024,,,,,,,2022-04-05,1,,,,,タニグチジムショ,0
149,1140005026109,新規,0,2022-04-05,2022-04-05,弁護士法人たじま法律事務所,,その他の設立登記法人,兵庫県,豊岡市,桜町１１番１９号,,28,209,6680043,,,,,,,2022-04-05,1,,,,,タジマホウリツジムショ,0
150,1140005026117,新規,0,2022-04-05,2022-04-05,学校法人みそらの園,,その他の設立登記法人,兵庫県,西宮市,若松町１番１号,,28,204,6620035,,,,,,,2022-04-05,1,,,,,ミソラノソノ,0
151,1140005026125,新規,0,2022-04-05,2022-04-05,弁護士法人生駒法律事務所,,その他の設立登記法人,兵庫県,豊岡市,弥栄町１番１０号,,28,209,6680057,,,,,,,2022-04-05,1,,,,,イコマホウリツジムショ,0
154,1160001024080,新規,0,2022-04-05,2022-04-05,株式会社きたそう住宅,,株式会社,滋賀県,甲賀市,水口町綾野３番５９号,,25,209,5280033,,,,,,,2022-04-05,1,,,,,キタソウジュウタク,0
155,1170001017042,新規,0,2022-04-05,2022-04-05,株式会社高田自動車,00126140,株式会社,和歌山県,橋本市,高野口町伏原８２２番地の１,,30,203,6497202,,,,,,,2022-04-05,1,,,,,タカダジドウシャ,0
156,1170003001705,新規,0,2022-04-05,2022-04-05,ＫＩＳＨＵ　Ｐｌｕｓ合同会社,,合同会社,和歌山県,海南市,岡田６６３番地１,,30,202,6420012,,,,,,,2022-04-05,1,,,,,キシュウプラス,0
161,1180001150692,新規,0,2022-04-05,2022-04-05,株式会社Ｇ．Ｐ,,株式会社,愛知県,名古屋市北区,成願寺１丁目６,,23,103,4620021,,,,,,,2022-04-05,1,,,,,ジーピー,0
162,1180001150726,新規,0,2022-04-05,2022-04-05,株式会社Ｇ．Ａ．Ｔ,,株式会社,愛知県,名古屋市中区,栄５丁目２６番３６号ＧＳ栄ＩＩビル７Ｆ,00126143,23,106,4600008,,,,,,,2022-04-05,1,,,,,ジーエーティー,0
163,1180001150734,新規,0,2022-04-05,2022-04-05,株式会社松田設計,,株式会社,愛知県,犬山市,大字犬山字西古券７００番地４,,23,215,4840085,,,,,,,2022-04-05,1,,,,,マツダセッケイ,0
164,1180001150742,新規,0,2022-04-05,2022-04-05,竹田印刷分割準備株式会社,,株式会社,愛知県,名古屋市昭和区,白金１丁目１１番１０号,,23,107,4660058,,,,,,,2022-04-05,1,,,,,タケダインサツブンカツジュンビ,0
165,1180001150767,新規,0,2022-04-05,2022-04-05,株式会社Ａ　ｍｏｒｅ,,株式会社,愛知県,名古屋市中区,丸の内３丁目６番１７号Ｋ’ｓ　Ｂｅｅ２０７,,23,106,4600002,,,,,,,2022-04-05,1,,,,,エーモア,0
166,1180001150775,新規,0,2022-04-05,2022-04-05,株式会社エルアール,,株式会社,愛知県,名古屋市昭和区,川名本町６丁目２２番地の３,,23,107,4660855,,,,,,,2022-04-05,1,,,,,エルアール,0
167,1180001150791,新規,0,2022-04-05,2022-04-05,アジサイ株式会社,,株式会社,愛知県,名古屋市千種区,日岡町３丁目５番,,23,101,4640834,,,,,,,2022-04-05,1,,,,,アジサイ,0
174,1180003023673,新規,0,2022-04-05,2022-04-05,合同会社ＱＯＬ,,合同会社,愛知県,名古屋市天白区,御幸山１５０７番１Ｆ,,23,116,4680075,,,,,,,2022-04-05,1,,,,,キューオーエル,0
175,1180005019703,新規,0,2022-04-05,2022-04-05,特定非営利活動法人ＷｉｔｈＹｏｕ,,その他の設立登記法人,愛知県,名古屋市北区,楠味鋺３丁目１６４６番地サニーコート板屋１０３号,,23,103,4620014,,,,,,,2022-04-05,1,,,,,ウィズユー,0
178,1180301036063,新規,0,2022-04-05,2022-04-05,株式会社ＯＫ,,株式会社,愛知県,豊橋市,西岩田５丁目９番地７,,23,201,4400831,,,,,,,2022-04-05,1,,,,,オーケー,0
182,1200001039909,新規,0,2022-04-05,2022-04-05,株式会社ＳＴＡＹ　ＧＯＬＤ,,株式会社,岐阜県,瑞穂市,別府２７７番地２,,21,216,5010222,,,,,,,2022-04-05,1,,,,,ステイゴールド,0
183,1200001039917,新規,0,2022-04-05,2022-04-05,株式会社ライフベース,,株式会社,岐阜県,大垣市,築捨町２丁目４８番地２,,21,202,5030854,,,,,,,2022-04-05,1,,,,,ライフベース,0
186,1220001024768,新規,0,2022-04-05,2022-04-05,株式会社Ａ．Ｒ．Ｋ,,株式会社,石川県,金沢市,保古３丁目１３２番地,,17,201,9218052,,,,,,,2022-04-05,1,,,,,アーク,0
187,1220001024776,新規,0,2022-04-05,2022-04-05,株式会社前田工業,,株式会社,石川県,白山市,木津町６５８番地７,,17,210,9240821,,,,,,,2022-04-05,1,,,,,マエダコウギョウ,0
188,1220001024784,新規,0,2022-04-05,2022-04-05,株式会社ＯＮＥ　ＭＩＳＳＩＯＮ,,株式会社,石川県,金沢市,桜田町１丁目１番地,,17,201,9200057,,,,,,,2022-04-05,1,,,,,ワンミッション,0
189,1220001024792,新規,0,2022-04-05,2022-04-05,株式会社金沢日和,,株式会社,石川県,金沢市,伏見新町２５５番地サンピア泉ヶ丘５１１号室,,17,201,9218172,,,,,,,2022-04-05,1,,,,,カナザワビヨリ,0
190,1220003003258,新規,0,2022-04-05,2022-04-05,Ｈ＆Ｋ合同会社,,合同会社,石川県,金沢市,西泉２丁目１５５番地１－３０３号,,17,201,9218043,,,,,,,2022-04-05,1,,,,,エイチアンドケイ,0
196,1240001059556,新規,0,2022-04-05,2022-04-05,株式会社ＣａＬｉｎ,,株式会社,広島県,広島市中区,堺町１丁目６番２５号２Ｆ,,34,101,7300853,,,,,,,2022-04-05,1,,,,,カラン,0
197,1240001059572,新規,0,2022-04-05,2022-04-05,株式会社日本緑地建設,,株式会社,広島県,広島市安佐南区,東野２丁目１８番２９号,,34,105,7310111,,,,,,,2022-04-05,1,,,,,ニホンリョクチケンセツ,0
198,1240003005574,新規,0,2022-04-05,2022-04-05,合同会社リアクト,,合同会社,広島県,広島市南区,丹那新町９番１４－２０１号,,34,103,7340033,,,,,,,2022-04-05,1,,,,,リアクト,0
201,1250001019476,新規,0,2022-04-05,2022-04-05,宝星株式会社,,株式会社,山口県,宇部市,北条２丁目２番５０－３号,,35,202,7550802,,,,,,,2022-04-05,1,,,,,ホウセイ,0
203,1250003003032,新規,0,2022-04-05,2022-04-05,合同会社Ｒ＆Ｋ,,合同会社,山口県,柳井市,神代４１４６番地１６,,35,212,7490101,,,,,,,2022-04-05,1,,,,,アールアンドケイ,0
206,1260001036685,新規,0,2022-04-05,2022-04-05,ＳＴＥＬＬＡ　ＨＯＵＳＥ　ＮＥＴ株式会社,,株式会社,岡山県,岡山市北区,寿町１番３号,,33,101,7000025,,,,,,,2022-04-05,1,,,,,ステラハウスネット,0
207,1260001036702,新規,0,2022-04-05,2022-04-05,株式会社ａｉｄ,,株式会社,岡山県,倉敷市,福島７８６番地,,33,202,7100048,,,,,,,2022-04-05,1,,,,,エイド,0
216,1290001096999,新規,0,2022-04-05,2022-04-05,株式会社ＳＵＮＴＥＣ,,株式会社,福岡県,糟屋郡須惠町,大字植木１２６５番４２号,,40,344,8112112,,,,,,,2022-04-05,1,,,,,サンテック,0
217,1290001097064,新規,0,2022-04-05,2022-04-05,株式会社オオムラ,,株式会社,福岡県,嘉穂郡桂川町,大字吉隈２４４番地３６,,40,421,8200609,,,,,,,2022-04-05,1,,,,,オオムラ,0
218,1290001097072,新規,0,2022-04-05,2022-04-05,株式会社ＳＥＮＺＡ,,株式会社,福岡県,福岡市中央区,長浜３丁目１４番２号,,40,133,8100072,,,,,,,2022-04-05,1,,,,,センザ,0
219,1290001097097,新規,0,2022-04-05,2022-04-05,株式会社ＨＡＺＥ,,株式会社,福岡県,糟屋郡粕屋町,大字江辻４０７,,40,349,8112313,,,,,,,2022-04-05,1,,,,,ヘイズ,0
221,1290801028391,新規,0,2022-04-05,2022-04-05,株式会社ウィンヒット,,株式会社,福岡県,遠賀郡芦屋町,大字芦屋１４４４番地,,40,381,8070133,,,,,,,2022-04-05,1,,,,,ウィンヒット,0
222,1290801028409,新規,0,2022-04-05,2022-04-05,ＳＵＮＴＡＫＡ株式会社,,株式会社,福岡県,北九州市小倉南区,上貫３丁目１０番１１号,,40,107,8000244,,,,,,,2022-04-05,1,,,,,サンタカ,0
225,1300001012863,新規,0,2022-04-05,2022-04-05,株式会社ｅｎｌｉｇｈｔ,,株式会社,佐賀県,佐賀市,大財６丁目８番６号,,41,201,8400811,,,,,,,2022-04-05,1,,,,,エンライト,0
226,1310001017795,新規,0,2022-04-05,2022-04-05,株式会社ＲＥＳＴＡＲＴ,,株式会社,長崎県,長崎市,田中町２８０番地２４,,42,201,8510134,,,,,,,2022-04-05,1,,,,,レスタート,0
230,1330001029599,新規,0,2022-04-05,2022-04-05,株式会社ｃｏｃｏｒｏ笑,,株式会社,熊本県,熊本市東区,錦ケ丘１５番３号サングリーンＣ棟２０５号,,43,102,8620912,,,,,,,2022-04-05,1,,,,,ココロエ,0
233,1340001024608,新規,0,2022-04-05,2022-04-05,株式会社徳光モータース,,株式会社,鹿児島県,指宿市,山川岡児ケ水１１０７番地２,,46,210,8910513,,,,,,,2022-04-05,1,,,,,トッコウモータース,0
234,1340001024632,新規,0,2022-04-05,2022-04-05,株式会社パソライズ,,株式会社,鹿児島県,鹿児島市,西千石町８番１号能勢ビル２Ｆ,,46,201,8920847,,,,,,,2022-04-05,1,,,,,パソライズ,0
235,1350001017668,新規,0,2022-04-05,2022-04-05,株式会社フォレスト,,株式会社,宮崎県,東臼杵郡門川町,大字門川尾末６４７２番地３,,45,421,8890611,,,,,,,2022-04-05,1,,,,,フォレスト,0
237,1350003004053,新規,0,2022-04-05,2022-04-05,合同会社太陽と月,,合同会社,宮崎県,日向市,大字塩見１０５０番地１,,45,206,8830033,,,,,,,2022-04-05,1,,,,,タイヨウトツキ,0
240,1370001048389,新規,0,2022-04-05,2022-04-05,株式会社草冠フィルム,,株式会社,宮城県,塩竈市,大日向町１１番１２号Ｄ－１０２号,,04,203,9850046,,,,,,,2022-04-05,1,,,,,クサカンムリフィルム,0
242,1380001032706,新規,0,2022-04-05,2022-04-05,株式会社ユタカ林業,,株式会社,福島県,石川郡浅川町,大字浅川字本町６０番地,,07,504,9636204,,,,,,,2022-04-05,1,,,,,ユタカリンギョウ,0
243,1380001032714,新規,0,2022-04-05,2022-04-05,株式会社大地設計,,株式会社,福島県,郡山市,富田町字大十内８５番地の２０６,,07,203,9638041,,,,,,,2022-04-05,1,,,,,ダイチセッケイ,0
252,1420001017784,新規,0,2022-04-05,2022-04-05,株式会社ラフト設備,,株式会社,青森県,三戸郡南部町,大字福田字あかね５番地１３１,,02,445,0390815,,,,,,,2022-04-05,1,,,,,ラフトセツビ,0
254,1430001086333,新規,0,2022-04-05,2022-04-05,株式会社共成,,株式会社,北海道,札幌市清田区,平岡七条３丁目１５番７号,,01,110,0040877,,,,,,,2022-04-05,1,,,,,キョウセイ,0
256,1430003013748,新規,0,2022-04-05,2022-04-05,ＢｉｏＢｒｏｓ合同会社,,合同会社,北海道,勇払郡厚真町,新町１０５番地,,01,581,0591623,,,,,,,2022-04-05,1,,,,,ビオブロス,0
258,1450003002195,新規,0,2022-04-05,2022-04-05,合同会社ＭＫＯ,,合同会社,北海道,留萌郡小平町,字本郷１２６番地１２,,01,482,0783304,,,,,,,2022-04-05,1,,,,,エムケーオー,0
263,1490005006835,新規,0,2022-04-05,2022-04-05,一般社団法人医工協創拠点ＭＥＤｉＴｅｃｈ,,その他の設立登記法人,高知県,高知市,追手筋１丁目６番３号３階,,39,201,7800842,,,,,,,2022-04-05,1,,,,,イコウキョウソウキョテンメディテック,0
264,1500001024112,新規,0,2022-04-05,2022-04-05,株式会社渡部純鈑金塗装,,株式会社,愛媛県,今治市,常盤町７丁目３番３４号,,38,202,7940015,,,,,,,2022-04-05,1,,,,,ワタナベジュンバンキントソウ,0
265,1500005008474,新規,0,2022-04-05,2022-04-05,一般財団法人松山市学校給食会,,その他の設立登記法人,愛媛県,松山市,三番町６丁目６番地１,,38,201,7900003,,,,,,,2022-04-05,1,,,,,マツヤマシガッコウキュウショクカイ,0
271,2010001225634,新規,0,2022-04-05,2022-04-05,株式会社白波,,株式会社,東京都,千代田区,神田和泉町１番地１２－３,,13,101,1010024,,,,,,,2022-04-05,1,,,,,,0
272,2010003037383,新規,0,2022-04-05,2022-04-05,合同会社ＮＯＳＴＡＬ　ＴＨＥ　ｉ‐ＲＩＳ,,合同会社,東京都,中央区,銀座１丁目２２番１１号銀座大竹ビジデンス２階,,13,102,1040061,,,,,,,2022-04-05,1,,,,,ノスタルジアイリス,0
276,2010005034800,新規,0,2022-04-05,2022-04-05,特定非営利活動法人イノベーション創薬研究所,,その他の設立登記法人,東京都,文京区,本郷６丁目４番７本郷ウッドフィールド４０５号,,13,105,1130033,,,,,,,2022-04-05,1,,,,,イノベーションソウヤクケンキュウジョ,0
277,2010005034809,新規,0,2022-04-05,2022-04-05,一般社団法人東京医科歯科大学歯科同窓会,,その他の設立登記法人,東京都,文京区,湯島１丁目５番４５号,,13,105,1130034,,,,,,,2022-04-05,1,,,,,トウキョウイカシカダイガクシカドウソウカイ,0
279,2010101015126,新規,0,2022-04-05,2022-04-05,株式会社和気,,株式会社,東京都,八王子市,北野町５６７－６第２サンライズマンション４０５号,,13,201,1920906,,,,,,,2022-04-05,1,,,,,ワキ,0
286,2010401166544,新規,0,2022-04-05,2022-04-05,株式会社ｓｐｌｅｎｄｉｄｅ,,株式会社,東京都,港区,浜松町２丁目２－１５,,13,103,1050013,,,,,,,2022-04-05,1,,,,,スプランディッド,0
287,2010401166593,新規,0,2022-04-05,2022-04-05,株式会社アノテンド,,株式会社,東京都,港区,六本木４丁目３番１１号六本木ユニハウス２２３,,13,103,1060032,,,,,,,2022-04-05,1,,,,,アノテンド,0
292,2010501048667,新規,0,2022-04-05,2022-04-05,りそなデジタルハブ株式会社,,株式会社,東京都,台東区,上野５丁目２５番１１号,,13,106,1100005,,,,,,,2022-04-05,1,,,,,リソナデジタルハブ,0
302,2011001146606,新規,0,2022-04-05,2022-04-05,ぴあネクストスコープ株式会社,,株式会社,東京都,渋谷区,東１丁目２番２０号,,13,113,1500011,,,,,,,2022-04-05,1,,,,,ピアネクストスコープ,0
303,2011001146671,新規,0,2022-04-05,2022-04-05,株式会社ａｋｉｎｏ,,株式会社,東京都,目黒区,青葉台３丁目１番１２号,,13,110,1530042,,,,,,,2022-04-05,1,,,,,アキノ,0
304,2011001146779,新規,0,2022-04-05,2022-04-05,株式会社エクラタント,,株式会社,東京都,目黒区,上目黒１丁目１２番１２号,,13,110,1530051,,,,,,,2022-04-05,1,,,,,エクラタント,0
305,2011003014471,新規,0,2022-04-05,2022-04-05,合同会社ＫＡＺＡ２ＮＡ,,合同会社,東京都,渋谷区,桜丘町２３番１７号シティコート桜丘４０８,,13,113,1500031,,,,,,,2022-04-05,1,,,,,カザアナ,0
307,2011101098375,新規,0,2022-04-05,2022-04-05,株式会社ＥＰＳ　ＥＸＰＲＥＳＳ　ＪＡＰＡＮ,,株式会社,東京都,新宿区,北新宿１丁目２８番１５号,,13,104,1690074,,,,,,,2022-04-05,1,,,,,イーピーエスエクスプレスジャパン,0
308,2011101098391,新規,0,2022-04-05,2022-04-05,株式会社シークユー,,株式会社,東京都,新宿区,高田馬場１丁目３２－１０,,13,104,1690075,,,,,,,2022-04-05,1,,,,,シークユー,0
317,2011401024139,新規,0,2022-04-05,2022-04-05,株式会社イチカワ,,株式会社,東京都,板橋区,坂下１丁目６番２４－５０２号,,13,119,1740043,,,,,,,2022-04-05,1,,,,,イチカワ,0
321,2011601025853,新規,0,2022-04-05,2022-04-05,株式会社テリー,,株式会社,東京都,練馬区,練馬４丁目１２番４号,,13,120,1760001,,,,,,,2022-04-05,1,,,,,テリー,0
322,2011601025861,新規,0,2022-04-05,2022-04-05,スカイラディッシュ株式会社,,株式会社,東京都,練馬区,富士見台２丁目３３番４号グランドステータス・ラピュタ１０３,,13,120,1770034,,,,,,,2022-04-05,1,,,,,スカイラディッシュ,0
324,2011801040553,新規,0,2022-04-05,2022-04-05,株式会社嘉凜,,株式会社,東京都,葛飾区,南水元１丁目１９番２号優和レジデンス３０１号,,13,122,1250035,,,,,,,2022-04-05,1,,,,,カリン,0
326,2012401039052,新規,0,2022-04-05,2022-04-05,株式会社ＤＩＧ,,株式会社,東京都,武蔵野市,吉祥寺南町３丁目２７番２２号,,13,203,1800003,,,,,,,2022-04-05,1,,,,,ディグ,0
328,2012701017006,新規,0,2022-04-05,2022-04-05,株式会社ｆｕｎｔｓ,,株式会社,東京都,西東京市,富士町２丁目７番７号,,13,229,2020014,,,,,,,2022-04-05,1,,,,,ファンツ,0
329,2012703002435,新規,0,2022-04-05,2022-04-05,先行採用サポート合同会社,,合同会社,東京都,小平市,花小金井８丁目８番１９－５号,,13,211,1870002,,,,,,,2022-04-05,1,,,,,センコウサイヨウサポート,0
330,2012705002301,新規,0,2022-04-05,2022-04-05,学校法人マリヤ・Ｊ記念学園,,その他の設立登記法人,東京都,西東京市,保谷町３丁目１７番５号,,13,229,2020015,,,,,,,2022-04-05,1,,,,,マリヤジェイキネンガクエン,0
331,2012801021485,新規,0,2022-04-05,2022-04-05,株式会社ルービックキューブ,,株式会社,東京都,昭島市,緑町２丁目２１番７－２０５号,,13,207,1960004,,,,,,,2022-04-05,1,,,,,ルービックキューブ,0
332,2012801021493,新規,0,2022-04-05,2022-04-05,株式会社ＮＳＫ,,株式会社,東京都,武蔵村山市,学園１丁目７０番地の１,,13,223,2080011,,,,,,,2022-04-05,1,,,,,エヌエスケー,0
339,2020001145880,新規,0,2022-04-05,2022-04-05,株式会社丸昌,,株式会社,神奈川県,横浜市神奈川区,神奈川２丁目１４番地１－４０８,,14,102,2210045,,,,,,,2022-04-05,1,,,,,マルショウ,0
340,2020001145922,新規,0,2022-04-05,2022-04-05,株式会社サンデーリビング,,株式会社,神奈川県,川崎市高津区,千年７３４番地,,14,134,2130022,,,,,,,2022-04-05,1,,,,,サンデーリビング,0
341,2020001146004,新規,0,2022-04-05,2022-04-05,株式会社Ｓｍｉ,,株式会社,神奈川県,川崎市中原区,丸子通２丁目６８２番地ジャルダンプラザ１０３,,14,133,2110006,,,,,,,2022-04-05,1,,,,,エスエムアイ,0
343,2021001075606,新規,0,2022-04-05,2022-04-05,株式会社Ｋベースボールアーチ,,株式会社,神奈川県,藤沢市,善行１丁目１６番地の４,,14,205,2510871,,,,,,,2022-04-05,1,,,,,ケーベースボールアーチ,0
344,2021001075614,新規,0,2022-04-05,2022-04-05,株式会社Ｒｅｇｏｌｉｔｈ,,株式会社,神奈川県,大和市,上草柳９丁目１５番１１号,,14,213,2420029,,,,,,,2022-04-05,1,,,,,レゴリス,0
345,2021001075639,新規,0,2022-04-05,2022-04-05,湘南ローカルウェーブ株式会社,,株式会社,神奈川県,藤沢市,片瀬海岸１丁目１２番１６～４０２号,,14,205,2510035,,,,,,,2022-04-05,1,,,,,ショウナンローカルウェーブ,0
347,2021003011550,新規,0,2022-04-05,2022-04-05,合同会社スタジオ小町,,合同会社,神奈川県,鎌倉市,小町２丁目１９番１７号,,14,204,2480006,,,,,,,2022-04-05,1,,,,,スタジオコマチ,0
353,2030001147496,新規,0,2022-04-05,2022-04-05,アトリエＤｄｍ株式会社,,株式会社,埼玉県,さいたま市西区,三橋６丁目１２２４番地３,,11,101,3310052,,,,,,,2022-04-05,1,,,,,アトリエディーディーエム,0
354,2030001147513,新規,0,2022-04-05,2022-04-05,ＡＤＡＭ　ＴＲＡＤＩＮＧ株式会社,,株式会社,埼玉県,熊谷市,榎町１１５番地１,,11,202,3600823,,,,,,,2022-04-05,1,,,,,アダムトレーディング,0
355,2030001147612,新規,0,2022-04-05,2022-04-05,株式会社Ｓａｎｉｂｅｒ,,株式会社,埼玉県,飯能市,大字赤沢５８７番地１ガーデンパーク飯能５０２号室,,11,209,3570128,,,,,,,2022-04-05,1,,,,,サニバー,0
357,2030003019132,新規,0,2022-04-05,2022-04-05,合同会社２２Ａ,,合同会社,埼玉県,志木市,幸町１丁目１２番１６号,,11,228,3530005,,,,,,,2022-04-05,1,,,,,ニーニーエイ,0
358,2030003019149,新規,0,2022-04-05,2022-04-05,合同会社アングラフィカ,,合同会社,埼玉県,朝霞市,東弁財３丁目１５－３,,11,227,3510022,,,,,,,2022-04-05,1,,,,,アングラフィカ,0
359,2030003019165,新規,0,2022-04-05,2022-04-05,ＧＳ工業合同会社,,合同会社,埼玉県,久喜市,葛梅３丁目５番地１,,11,232,3400214,,,,,,,2022-04-05,1,,,,,ジーエスコウギョウ,0
361,2040001122837,新規,0,2022-04-05,2022-04-05,株式会社石渡木材,,株式会社,千葉県,佐倉市,岩富町５０２番地１,,12,212,2850072,,,,,,,2022-04-05,1,,,,,イシワタモクザイ,0
362,2040001122886,新規,0,2022-04-05,2022-04-05,ｔｉｄｙ株式会社,,株式会社,千葉県,流山市,市野谷２４１番地の２（運Ａ１－４街区６－１）１,,12,220,2700137,,,,,,,2022-04-05,1,,,,,タイディ,0
363,2040003019817,新規,0,2022-04-05,2022-04-05,合同会社レーヴ,,合同会社,千葉県,印西市,大森４４０５番地６鈴木ハイツ１０１号,,12,231,2701327,,,,,,,2022-04-05,1,,,,,レーヴ,0
364,2040003019825,新規,0,2022-04-05,2022-04-05,エンワン合同会社,,合同会社,千葉県,成田市,加良部４丁目２６－４０,,12,211,2860036,,,,,,,2022-04-05,1,,,,,エンワン,0
368,2050001050913,新規,0,2022-04-05,2022-04-05,ステップアップ株式会社,,株式会社,茨城県,つくば市,稲荷前３０番地１１,,08,220,3050061,,,,,,,2022-04-05,1,,,,,ステップアップ,0
370,2060001034717,新規,0,2022-04-05,2022-04-05,株式会社蕪木不動産,,株式会社,栃木県,宇都宮市,駅前通り２丁目３番１２号ザ・ミレニアムタワー１２０２号室,,09,201,3210964,,,,,,,2022-04-05,1,,,,,カブラギフドウサン,0
372,2060003004008,新規,0,2022-04-05,2022-04-05,ペンギンフリッパーズ合同会社,,合同会社,栃木県,日光市,鬼怒川温泉大原３６９番地１,,09,206,3212522,,,,,,,2022-04-05,1,,,,,ペンギンフリッパーズ,0
373,2060005009962,新規,0,2022-04-05,2022-04-05,医療法人尾之内外科,,その他の設立登記法人,栃木県,足利市,大前町４６０番地４,,09,202,3260845,,,,,,,2022-04-05,1,,,,,オノウチゲカ,0
379,2080001024856,新規,0,2022-04-05,2022-04-05,株式会社Ａｌｅｅｚａ,,株式会社,静岡県,静岡市葵区,呉服町２丁目３番地の１１,,22,101,4200031,,,,,,,2022-04-05,1,,,,,アリーザ,0
380,2080101023188,新規,0,2022-04-05,2022-04-05,株式会社ＴＥＡＭ　ＯＣＥＡＮ,,株式会社,静岡県,下田市,白浜２６３１番,,22,219,4150012,,,,,,,2022-04-05,1,,,,,チームオーシャン,0
384,2100001035231,新規,0,2022-04-05,2022-04-05,株式会社雅秋園,,株式会社,長野県,上伊那郡箕輪町,大字福与３１６番地１,,20,383,3994604,,,,,,,2022-04-05,1,,,,,ガシュウエン,0
385,2100003006478,新規,0,2022-04-05,2022-04-05,かんたんトラベル合同会社,,合同会社,長野県,下高井郡野沢温泉村,大字豊郷４４０８番地３,,20,563,3892502,,,,,,,2022-04-05,1,,,,,カンタントラベル,0
386,2110001036534,新規,0,2022-04-05,2022-04-05,株式会社一成,,株式会社,新潟県,見附市,芝野町２０３番地２,,15,211,9540087,,,,,,,2022-04-05,1,,,,,イッセイ,0
398,2120001244813,新規,0,2022-04-05,2022-04-05,株式会社ＫＲＡＦＴ　ＡＧＥＮＣＹ,,株式会社,大阪府,枚方市,中宮北町２番２６号ポーラ枚方マンション２階,,27,210,5731194,,,,,,,2022-04-05,1,,,,,クラフトエージェンシー,0
399,2120001244846,新規,0,2022-04-05,2022-04-05,株式会社Ｔ．ｆａｍｉｌｙ,,株式会社,大阪府,大阪市天王寺区,空堀町１３番２５号,,27,109,5430012,,,,,,,2022-04-05,1,,,,,ティーファミリー,0
400,2120001244862,新規,0,2022-04-05,2022-04-05,株式会社トルクーヘン,,株式会社,大阪府,大阪市城東区,鴫野西１丁目１４番４号,,27,118,5360014,,,,,,,2022-04-05,1,,,,,トルクーヘン,0
401,2120001244879,新規,0,2022-04-05,2022-04-05,株式会社ＯＵＳ　ｓａｎｍｉ,,株式会社,大阪府,大阪市旭区,赤川１丁目１１番８号,,27,117,5350005,,,,,,,2022-04-05,1,,,,,オーユーエスサンミ,0
402,2120001244929,新規,0,2022-04-05,2022-04-05,株式会社ＹＪ　ｔｒａｄｉｎｇ　ｃｏｍｐａｎｙ,,株式会社,大阪府,大阪市天王寺区,下寺町１丁目３番４６号,,27,109,5430076,,,,,,,2022-04-05,1,,,,,ワイジェイトレーディングカンパニー,0
403,2120001244953,新規,0,2022-04-05,2022-04-05,株式会社ＹｏｕｒＰａｃｅ,,株式会社,大阪府,大阪市住吉区,我孫子東１丁目３番３２号,,27,120,5580013,,,,,,,2022-04-05,1,,,,,ユアペース,0
406,2120003021384,新規,0,2022-04-05,2022-04-05,合同会社空彩,,合同会社,大阪府,大阪市住之江区,北島３丁目１番３４－３０１号,,27,125,5590014,,,,,,,2022-04-05,1,,,,,ソライロ,0
407,2120003021401,新規,0,2022-04-05,2022-04-05,合同会社ＳＵＳ,,合同会社,大阪府,寝屋川市,初町１－１３－１階西,,27,215,5720833,,,,,,,2022-04-05,1,,,,,エスユーエス,0
409,2120005022892,新規,0,2022-04-05,2022-04-05,弁理士法人蔦田特許事務所,,その他の設立登記法人,大阪府,大阪市中央区,備後町１丁目７番１０号ニッセイ備後町ビル９階,,27,128,5410051,,,,,,,2022-04-05,1,,,,,ツタダトッキョジムショ,0
410,2120101065317,新規,0,2022-04-05,2022-04-05,株式会社ＵＬＵＡ,,株式会社,大阪府,松原市,岡２丁目４番２２号,,27,217,5800014,,,,,,,2022-04-05,1,,,,,ウルア,0
411,2120901045798,新規,0,2022-04-05,2022-04-05,株式会社Ａ‐ＬＩＮＥ,,株式会社,大阪府,摂津市,南別府町１番４０－２０５号,,27,224,5660045,,,,,,,2022-04-05,1,,,,,エーライン,0
412,2120901045807,新規,0,2022-04-05,2022-04-05,ヒカリ株式会社,,株式会社,大阪府,茨木市,西田中町７番２３号,,27,211,5670027,,,,,,,2022-04-05,1,,,,,ヒカリ,0
413,2120901045823,新規,0,2022-04-05,2022-04-05,株式会社Ｒ・Ｔ・Ｋ,,株式会社,大阪府,豊中市,東泉丘４丁目３番４－８０５号,,27,203,5610861,,,,,,,2022-04-05,1,,,,,アールティーケー,0
414,2120903004091,新規,0,2022-04-05,2022-04-05,合同会社５０１,,合同会社,大阪府,摂津市,鳥飼下３丁目３１番７号,,27,224,5660071,,,,,,,2022-04-05,1,,,,,ゴーゼロイチ,0
416,2122001035738,新規,0,2022-04-05,2022-04-05,株式会社ユーシン機設,,株式会社,大阪府,八尾市,緑ヶ丘４丁目６番地の２７,,27,212,5810837,,,,,,,2022-04-05,1,,,,,ユーシンキセツ,0
422,2140001125466,新規,0,2022-04-05,2022-04-05,株式会社ＦＫ,,株式会社,兵庫県,尼崎市,尾浜町２丁目２５番１６－１号,,28,202,6610022,,,,,,,2022-04-05,1,,,,,エフケー,0
423,2140003017538,新規,0,2022-04-05,2022-04-05,合同会社ＳＨＥ．,,合同会社,兵庫県,尼崎市,南武庫之荘１丁目１４－８－３０２,,28,202,6610033,,,,,,,2022-04-05,1,,,,,シー,0
424,2140005026124,新規,0,2022-04-05,2022-04-05,おはよう税理士法人,,その他の設立登記法人,兵庫県,加古川市,尾上町安田１１２番地１,,28,210,6750021,,,,,,,2022-04-05,1,,,,,オハヨウ,0
429,2180001150642,新規,0,2022-04-05,2022-04-05,株式会社ＲＥＲＩＳＥ,,株式会社,愛知県,常滑市,飛香台７丁目１４番地の１６,,23,216,4790868,,,,,,,2022-04-05,1,,,,,レライズ,0
430,2180001150691,新規,0,2022-04-05,2022-04-05,株式会社鍼灸ＴＡＫＡ,,株式会社,愛知県,名古屋市緑区,有松３４０８番地,,23,114,4580924,,,,,,,2022-04-05,1,,,,,シンキュウタカ,0
432,2180003023689,新規,0,2022-04-05,2022-04-05,合同会社アルプス,,合同会社,愛知県,名古屋市中区,錦３丁目１３番１３号アロン錦Ａビル７Ｆ,,23,106,4600003,,,,,,,2022-04-05,1,,,,,アルプス,0
434,2180301036070,新規,0,2022-04-05,2022-04-05,株式会社トヨタ電設,,株式会社,愛知県,豊田市,平山町４丁目２５番地２０,,23,211,4710827,,,,,,,2022-04-05,1,,,,,トヨタデンセツ,0
437,2190001029274,新規,0,2022-04-05,2022-04-05,株式会社ハヤタ・エンジニアリング,,株式会社,三重県,伊勢市,有滝町９６１番地,,24,203,5150501,,,,,,,2022-04-05,1,,,,,ハヤタエンジニアリング,0
438,2190005011682,新規,0,2022-04-05,2022-04-05,一般社団法人きらく,,その他の設立登記法人,三重県,伊勢市,一之木４丁目１２－１６,,24,203,5160071,,,,,,,2022-04-05,1,,,,,キラク,0
443,2200001039908,新規,0,2022-04-05,2022-04-05,大志不動産株式会社,,株式会社,岐阜県,各務原市,鵜沼羽場町５丁目１４６番地グリーンヒルズアサノ２階東,,21,213,5090135,,,,,,,2022-04-05,1,,,,,タイシフドウサン,0
446,2210001018869,新規,0,2022-04-05,2022-04-05,株式会社Ｆ　ｕｍｉｄａｓｕ,,株式会社,福井県,福井市,宝永１丁目３番１５号,,18,201,9100004,,,,,,,2022-04-05,1,,,,,フミダス,0
449,2230001019295,新規,0,2022-04-05,2022-04-05,株式会社リライオン,,株式会社,富山県,砺波市,豊町１丁目１５番１８号,,16,208,9391364,,,,,,,2022-04-05,1,,,,,リライオン,0
451,2240001059555,新規,0,2022-04-05,2022-04-05,株式会社ＬＭＦ,,株式会社,広島県,三原市,小泉町５６６２番地９,,34,204,7292361,,,,,,,2022-04-05,1,,,,,エルエムエフ,0
452,2240001059563,新規,0,2022-04-05,2022-04-05,Ａｓｓｅｔ　Ｏｆｆｅｒ株式会社,,株式会社,広島県,東広島市,高屋台１丁目７番４０号,,34,212,7392117,,,,,,,2022-04-05,1,,,,,アセットオファー,0
453,2240001059571,新規,0,2022-04-05,2022-04-05,西村工業株式会社,,株式会社,広島県,広島市佐伯区,八幡３丁目１４番１２－６号,,34,108,7315116,,,,,,,2022-04-05,1,,,,,ニシムラコウギョウ,0
467,2280005007473,新規,0,2022-04-05,2022-04-05,一般社団法人ＮＩＯ‐ＭＯＮ,,その他の設立登記法人,島根県,仁多郡奥出雲町,横田１１５９－１,,32,343,6991832,,,,,,,2022-04-05,1,,,,,,0
474,2290001097096,新規,0,2022-04-05,2022-04-05,株式会社倉掛設計事務所,,株式会社,福岡県,朝倉市,甘木１６９１番地１１,,40,228,8380068,,,,,,,2022-04-05,1,,,,,クラカケセッケイジムショ,0
475,2290001097105,新規,0,2022-04-05,2022-04-05,株式会社平城,,株式会社,福岡県,福岡市早良区,内野１丁目１番１４号,,40,137,8111123,,,,,,,2022-04-05,1,,,,,ヒラジョウ,0
476,2290003012350,新規,0,2022-04-05,2022-04-05,合同会社グローリー,,合同会社,福岡県,三井郡大刀洗町,大字高樋１９８８－４,00126152,40,503,8301221,,,,,,,2022-04-05,1,,,,,グローリー,0
478,2290801028399,新規,0,2022-04-05,2022-04-05,株式会社ジャンピエール,,株式会社,福岡県,北九州市小倉北区,鍛冶町１丁目３番４号２０１,,40,106,8020004,,,,,,,2022-04-05,1,,,,,ジャンピエール,0
481,2310001017794,新規,0,2022-04-05,2022-04-05,橋本建設工業株式会社,,株式会社,長崎県,長崎市,東町１２１７番地１,,42,201,8510116,,,,,,,2022-04-05,1,,,,,ハシモトケンセツコウギョウ,0
484,2310003004320,新規,0,2022-04-05,2022-04-05,合同会社ＲｅＬｅａｆ,,合同会社,長崎県,長崎市,けやき台町１番３号,,42,201,8528146,,,,,,,2022-04-05,1,,,,,リリーフ,0
492,2320003003767,新規,0,2022-04-05,2022-04-05,合同会社ありんこ,,合同会社,大分県,杵築市,大字本庄１４１１番地,,44,210,8730014,,,,,,,2022-04-05,1,,,,,アリンコ,0
496,2340001024615,新規,0,2022-04-05,2022-04-05,千布工業株式会社,,株式会社,鹿児島県,鹿児島市,中山町２１７３番地２,,46,201,8910105,,,,,,,2022-04-05,1,,,,,チフコウギョウ,0
497,2340001024631,新規,0,2022-04-05,2022-04-05,株式会社Ｈａｉｒ　ｒｅ　ｍａｋｅ　ＯＵＲＳ,,株式会社,鹿児島県,鹿児島市,新屋敷町２０番２７号,,46,201,8920838,,,,,,,2022-04-05,1,,,,,ヘアリメイクアワーズ,0
498,2340005009439,新規,0,2022-04-05,2022-04-05,一般社団法人寺院経営興隆協会,,その他の設立登記法人,鹿児島県,鹿児島市,東坂元２丁目４５番５号,,46,201,8920861,,,,,,,2022-04-05,1,,,,,ジインケイエイコウリュウキョウカイ,0
499,2350001017683,新規,0,2022-04-05,2022-04-05,株式会社ＴＲＵＳＴ,,株式会社,宮崎県,宮崎市,大王町７５番地３,,45,201,8800871,,,,,,,2022-04-05,1,,,,,トラスト,0
510,2380001032713,新規,0,2022-04-05,2022-04-05,株式会社ほほえみの間,,株式会社,福島県,郡山市,富田町字下小次郎木２２番地の７アイゼン３番館,,07,203,9638041,,,,,,,2022-04-05,1,,,,,ホホエミノマ,0
511,2390001016847,新規,0,2022-04-05,2022-04-05,いいでバイオマス株式会社,,株式会社,山形県,西置賜郡飯豊町,大字中７５６番地,,06,403,9990601,,,,,,,2022-04-05,1,,,,,イイデバイオマス,0
512,2390001016855,新規,0,2022-04-05,2022-04-05,アベ塗装株式会社,,株式会社,山形県,西置賜郡飯豊町,大字椿１９９番地,,06,403,9990604,,,,,,,2022-04-05,1,,,,,アベトソウ,0
515,2420001017783,新規,0,2022-04-05,2022-04-05,株式会社栄和電設,,株式会社,青森県,八戸市,湊高台４丁目１５番１５号,,02,203,0310823,,,,,,,2022-04-05,1,,,,,エイワデンセツ,0
520,2450001013648,新規,0,2022-04-05,2022-04-05,株式会社Ｍ＆Ｍ知能ラボ,,株式会社,北海道,旭川市,末広東一条１２丁目４番５号,,01,204,0718121,,,,,,,2022-04-05,1,,,,,エムアンドエムチノウラボ,0
522,2450003002194,新規,0,2022-04-05,2022-04-05,合同会社藤田建設,,合同会社,北海道,旭川市,忠和二条４丁目６番１７号,,01,204,0708042,,,,,,,2022-04-05,1,,,,,フジタケンセツ,0
524,2460305001975,新規,0,2022-04-05,2022-04-05,えんがるサンキュー協同組合,,その他の設立登記法人,北海道,紋別郡遠軽町,大通南２丁目５番地１９,,01,555,0990416,,,,,,,2022-04-05,1,,,,,エンガルサンキュー,0
530,3010001225542,新規,0,2022-04-05,2022-04-05,株式会社Ａｋｉｎｄｏ,,株式会社,東京都,中央区,銀座１丁目２２番１１号銀座大竹ビジデンス２階,,13,102,1040061,,,,,,,2022-04-05,1,,,,,アキンド,0
531,3010003037366,新規,0,2022-04-05,2022-04-05,ＣＯＹＡ合同会社,,合同会社,東京都,中央区,銀座１丁目２２番１１号銀座大竹ビジデンス２階,,13,102,1040061,,,,,,,2022-04-05,1,,,,,コヤ,0
535,3010101015125,新規,0,2022-04-05,2022-04-05,株式会社ＴＳウイング,,株式会社,東京都,八王子市,横川町９０５番地６７,,13,201,1930823,,,,,,,2022-04-05,1,,,,,ティーエスウイング,0
542,3010401166304,新規,0,2022-04-05,2022-04-05,株式会社Ｃａｒｖｉｎｇ　ｔｕｒｎ,,株式会社,東京都,港区,新橋６丁目４番３号メインステージ東京新橋１４０３,,13,103,1050004,,,,,,,2022-04-05,1,,,,,カービングターン,0
543,3010401166568,新規,0,2022-04-05,2022-04-05,ＭＣＰ７株式会社,,株式会社,東京都,港区,元赤坂１丁目１番８号株式会社赤坂国際会計内,,13,103,1070051,,,,,,,2022-04-05,1,,,,,エムシーピーセブン,0
544,3010401166592,新規,0,2022-04-05,2022-04-05,株式会社ＴＲＵＥ　ＬＩＦＥ　ＭＩＳＳＩＯＮ,,株式会社,東京都,港区,赤坂６丁目６番２５号,,13,103,1070052,,,,,,,2022-04-05,1,,,,,トゥルーライフミッション,0
545,3010401166601,新規,0,2022-04-05,2022-04-05,株式会社グランセレモ東京,,株式会社,東京都,港区,芝浦１丁目２番３号シーバンスＳ館１３階,,13,103,1050023,,,,,,,2022-04-05,1,,,,,グランセレモトウキョウ,0
550,3010501048666,新規,0,2022-04-05,2022-04-05,株式会社からあげ,,株式会社,東京都,台東区,下谷３丁目１４番６－３０３号上野北ビューハイツ,,13,106,1100004,,,,,,,2022-04-05,1,,,,,カラアゲ,0
551,3010501048674,新規,0,2022-04-05,2022-04-05,株式会社ブレインコープ,,株式会社,東京都,台東区,谷中２丁目８番１号,,13,106,1100001,,,,,,,2022-04-05,1,,,,,ブレインコープ,0
552,3010601060892,新規,0,2022-04-05,2022-04-05,株式会社山翔,,株式会社,東京都,墨田区,太平２丁目１番６号,,13,107,1300012,,,,,,,2022-04-05,1,,,,,ヤマショウ,0
559,3010901050635,新規,0,2022-04-05,2022-04-05,ニシキ株式会社,,株式会社,東京都,世田谷区,南烏山５丁目７番２０号,,13,112,1570062,,,,,,,2022-04-05,1,,,,,ニシキ,0
564,3011001146778,新規,0,2022-04-05,2022-04-05,株式会社Ｃｒｅｖａｌｕｅ,,株式会社,東京都,渋谷区,神宮前６丁目２３番４号,,13,113,1500001,,,,,,,2022-04-05,1,,,,,クレバリュー,0
568,3011103011632,新規,0,2022-04-05,2022-04-05,合同会社入澤商店,,合同会社,東京都,新宿区,西新宿３丁目３番１３号西新宿水間ビル６階,,13,104,1600023,,,,,,,2022-04-05,1,,,,,イリサワショウテン,0
573,3011601025852,新規,0,2022-04-05,2022-04-05,株式会社ＭＡＲＫコーポレーション,,株式会社,東京都,練馬区,上石神井４丁目１６番４号,,13,120,1770044,,,,,,,2022-04-05,1,,,,,マークコーポレーション,0
574,3011601025860,新規,0,2022-04-05,2022-04-05,バンハオフーズ株式会社,,株式会社,東京都,練馬区,平和台３丁目６－１４みつるマンション１０２,,13,120,1790083,,,,,,,2022-04-05,1,,,,,バンハオフーズ,0
576,3011801040536,新規,0,2022-04-05,2022-04-05,株式会社サイバー東京,,株式会社,東京都,足立区,東六月町１１－３,,13,121,1210071,,,,,,,2022-04-05,1,,,,,サイバートウキョウ,0
581,3012403005308,新規,0,2022-04-05,2022-04-05,合同会社大久保園,,合同会社,東京都,小金井市,本町２丁目４番１５号,,13,210,1840004,,,,,,,2022-04-05,1,,,,,オオクボエン,0
582,3012405004720,新規,0,2022-04-05,2022-04-05,医療法人社団奏和会,,その他の設立登記法人,東京都,調布市,上石原２丁目４０番地１モン・ロジュマン１階,,13,208,1820035,,,,,,,2022-04-05,1,,,,,ソウワカイ,0
585,3013301048893,新規,0,2022-04-05,2022-04-05,株式会社マギアコネクト,,株式会社,東京都,豊島区,上池袋４丁目４３番１４号,,13,116,1700012,,,,,,,2022-04-05,1,,,,,マギアコネクト,0
589,3020001145896,新規,0,2022-04-05,2022-04-05,株式会社ＰＯＶ,,株式会社,神奈川県,横浜市保土ケ谷区,岩井町１１番ダイアナプラザ保土ケ谷９０９号,,14,106,2400023,,,,,,,2022-04-05,1,,,,,,0
590,3020001145905,新規,0,2022-04-05,2022-04-05,株式会社ｉｎｆｉｎｉｔｙ,,株式会社,神奈川県,横浜市栄区,庄戸３丁目１６番１７号,,14,115,2470022,,,,,,,2022-04-05,1,,,,,インフィニティ,0
591,3020001146003,新規,0,2022-04-05,2022-04-05,株式会社ｂｅｅ　ｌａｂ,,株式会社,神奈川県,横浜市港南区,最戸１丁目１７番１４号ワイズヴィラ上大岡３０２,,14,111,2330008,,,,,,,2022-04-05,1,,,,,ビーラボ,0
597,3021001075539,新規,0,2022-04-05,2022-04-05,株式会社Ｔｒｅａｓｕｒｅ　Ｂｏｘ,,株式会社,神奈川県,藤沢市,弥勒寺１丁目１９番１号,,14,205,2510016,,,,,,,2022-04-05,1,,,,,トレジャーボックス,0
600,3030001147561,新規,0,2022-04-05,2022-04-05,アンナファクトリー株式会社,,株式会社,埼玉県,川口市,北園町４７－２０,,11,203,3330862,,,,,,,2022-04-05,1,,,,,アンナファクトリー,0
601,3030001147603,新規,0,2022-04-05,2022-04-05,株式会社ＩＧ,,株式会社,埼玉県,ふじみ野市,福岡中央１丁目１番１３号,,11,245,3560031,,,,,,,2022-04-05,1,,,,,アイジー,0
616,3040001122852,新規,0,2022-04-05,2022-04-05,スマイルホームズ株式会社,,株式会社,千葉県,習志野市,鷺沼４丁目５番１９号,,12,216,2750014,,,,,,,2022-04-05,1,,,,,スマイルホームズ,0
622,3060001034716,新規,0,2022-04-05,2022-04-05,株式会社ｙａｇｉｓａｗａ,,株式会社,栃木県,宇都宮市,江野町６番６号三樹ビル１Ｆ,,09,201,3200802,,,,,,,2022-04-05,1,,,,,ヤギサワ,0
632,3080001024839,新規,0,2022-04-05,2022-04-05,株式会社リブレイク,,株式会社,静岡県,静岡市駿河区,下川原５丁目３１番７－１号,,22,102,4210113,,,,,,,2022-04-05,1,,,,,リブレイク,0
633,3080005007443,新規,0,2022-04-05,2022-04-05,医療法人社団ＣＯＣ,,その他の設立登記法人,静岡県,静岡市葵区,呉服町１丁目１番地の１４呉服町圭田ビル５階,,22,101,4200031,,,,,,,2022-04-05,1,,,,,シーオーシー,0
634,3080101023195,新規,0,2022-04-05,2022-04-05,株式会社神子元マリンサービス,,株式会社,静岡県,賀茂郡南伊豆町,手石９４９番地,,22,304,4150153,,,,,,,2022-04-05,1,,,,,ミコモトマリンサービス,0
638,3100001035230,新規,0,2022-04-05,2022-04-05,フジマキ・マネジメントサポート株式会社,,株式会社,長野県,長野市,豊野町豊野４５４番地１４,,20,201,3891105,,,,,,,2022-04-05,1,,,,,フジマキマネジメントサポート,0
641,3110001036533,新規,0,2022-04-05,2022-04-05,株式会社ＲＥＡＬＩＺＥ,,株式会社,新潟県,南蒲原郡田上町,大字川船河１６９０番地,,15,361,9591513,,,,,,,2022-04-05,1,,,,,リアライズ,0
647,3120001244812,新規,0,2022-04-05,2022-04-05,株式会社Ｔ．Ｉ,,株式会社,大阪府,大阪市天王寺区,寺田町２丁目４番１２号,,27,109,5430045,,,,,,,2022-04-05,1,,,,,ティーアイ,0
648,3120001244820,新規,0,2022-04-05,2022-04-05,メリーユウホールディングス株式会社,,株式会社,大阪府,大阪市東成区,大今里１丁目１０番７号,,27,115,5370012,,,,,,,2022-04-05,1,,,,,メリーユウホールディングス,0
649,3120001244853,新規,0,2022-04-05,2022-04-05,株式会社リンドラ,,株式会社,大阪府,大阪市北区,梅田２丁目５番１３号桜橋第一ビル３０４号,,27,127,5300001,,,,,,,2022-04-05,1,,,,,リンドラ,0
650,3120001244878,新規,0,2022-04-05,2022-04-05,株式会社ＧｏｌｄＳｔａｒ,,株式会社,大阪府,大阪市浪速区,湊町２丁目２番５号なんばセントラルプラザリバーガーデンＣ棟２４０４号室,,27,111,5560017,,,,,,,2022-04-05,1,,,,,ゴールドスター,0
651,3120001244886,新規,0,2022-04-05,2022-04-05,株式会社なまえギフト,,株式会社,大阪府,大阪市北区,国分寺１丁目７番７号,,27,127,5310064,,,,,,,2022-04-05,1,,,,,ナマエギフト,0
652,3120001244894,新規,0,2022-04-05,2022-04-05,株式会社ｐｌｕｍ,,株式会社,大阪府,大阪市平野区,長吉川辺４丁目１番１９号,,27,126,5470014,,,,,,,2022-04-05,1,,,,,プラム,0
654,3120003021400,新規,0,2022-04-05,2022-04-05,合同会社良温,,合同会社,大阪府,寝屋川市,高宮新町３番２１号,,27,215,5720847,,,,,,,2022-04-05,1,,,,,ヨシハル,0
655,3120005022883,新規,0,2022-04-05,2022-04-05,社会保険労務士法人ＫＡＪＩグループ,,その他の設立登記法人,大阪府,大阪市中央区,大手前１丁目７番３１号,,27,128,5400008,,,,,,,2022-04-05,1,,,,,カジグループ,0
657,3120101065316,新規,0,2022-04-05,2022-04-05,株式会社ＯＫＵＮＯ,,株式会社,大阪府,泉佐野市,長滝１０５２番地,,27,213,5980034,,,,,,,2022-04-05,1,,,,,オクノ,0
658,3120101065332,新規,0,2022-04-05,2022-04-05,ＷＳＫトレーディング株式会社,,株式会社,大阪府,堺市堺区,山本町２丁６５番９号,,27,141,5900983,,,,,,,2022-04-05,1,,,,,ダブリューエスケートレーディング,0
659,3120103004619,新規,0,2022-04-05,2022-04-05,合同会社ビーネクスト,,合同会社,大阪府,堺市北区,新金岡町２丁４番７－１０７号,,27,146,5918021,,,,,,,2022-04-05,1,,,,,ビーネクスト,0
663,3130003007828,新規,0,2022-04-05,2022-04-05,ＮｅｗＢｅａｔ合同会社,,合同会社,京都府,京都市下京区,二ノ宮町通上ノ口上る早尾町３１４番地,,26,106,6008114,,,,,,,2022-04-05,1,,,,,ニュービート,0
670,3140001125416,新規,0,2022-04-05,2022-04-05,株式会社ハル建設,,株式会社,兵庫県,丹波市,柏原町柏原４１６番地１,,28,223,6693309,,,,,,,2022-04-05,1,,,,,ハルケンセツ,0
671,3140001125457,新規,0,2022-04-05,2022-04-05,株式会社ＢＥＬＬＰＬＡＮ,,株式会社,兵庫県,神戸市中央区,加納町３丁目１２番７号,,28,110,6500001,,,,,,,2022-04-05,1,,,,,ベルプラン,0
672,3140001125465,新規,0,2022-04-05,2022-04-05,株式会社ＯＣＥＡＮ,,株式会社,兵庫県,尼崎市,杭瀬南新町４丁目５番６号,,28,202,6600822,,,,,,,2022-04-05,1,,,,,オーシャン,0
673,3140001125481,新規,0,2022-04-05,2022-04-05,松本管工株式会社,,株式会社,兵庫県,神戸市須磨区,鷹取町２丁目１番１４号,,28,107,6540039,,,,,,,2022-04-05,1,,,,,マツモトカンコウ,0
676,3140005026123,新規,0,2022-04-05,2022-04-05,一般社団法人サービスサイエンス研究推進機構,,その他の設立登記法人,兵庫県,宝塚市,野上３丁目２番５号,,28,214,6650022,,,,,,,2022-04-05,1,,,,,サービスサイエンスケンキュウスイシンキコウ,0
677,3150001025433,新規,0,2022-04-05,2022-04-05,株式会社イトウサービスコンサルタンツ,,株式会社,奈良県,天理市,川原城町２６７番地１東田マンション１０１,,29,204,6320016,,,,,,,2022-04-05,1,,,,,イトウサービスコンサルタンツ,0
690,3180001150641,新規,0,2022-04-05,2022-04-05,株式会社ＡＢＲＵＮＣＨ,,株式会社,愛知県,名古屋市東区,泉１丁目７番３８号星和泉コーポラス１００４号,,23,102,4610001,,,,,,,2022-04-05,1,,,,,エーブランチ,0
691,3180001150682,新規,0,2022-04-05,2022-04-05,株式会社ビレッジワン,,株式会社,愛知県,日進市,赤池１丁目２８１２番地,,23,230,4700125,,,,,,,2022-04-05,1,,,,,ビレッジワン,0
692,3180001150749,新規,0,2022-04-05,2022-04-05,株式会社ＭＥＤＩＵＳ,,株式会社,愛知県,名古屋市守山区,西川原町２２８番地,,23,113,4630089,,,,,,,2022-04-05,1,,,,,メディウス,0
703,3180303005295,新規,0,2022-04-05,2022-04-05,合同会社住建ニッポン,,合同会社,愛知県,刈谷市,泉田町池之浦５６番地２,,23,210,4480004,,,,,,,2022-04-05,1,,,,,ジュウケンニッポン,0
705,3200001039915,新規,0,2022-04-05,2022-04-05,カンダまちおこし株式会社,,株式会社,岐阜県,岐阜市,神田町６丁目１１番地１,,21,201,5008833,,,,,,,2022-04-05,1,,,,,カンダマチオコシ,0
706,3200001039948,新規,0,2022-04-05,2022-04-05,株式会社如水,,株式会社,岐阜県,土岐市,妻木町６７６番地の２,,21,212,5095301,,,,,,,2022-04-05,1,,,,,ジョスイ,0
709,3200003005527,新規,0,2022-04-05,2022-04-05,合同会社ユイマール,,合同会社,岐阜県,可児郡御嵩町,伏見１８６２番地４５,,21,521,5050125,,,,,,,2022-04-05,1,,,,,ユイマール,0
711,3210003001475,新規,0,2022-04-05,2022-04-05,合同会社カメレオン企画,,合同会社,福井県,敦賀市,堂５７号１００２番地,,18,202,9140036,,,,,,,2022-04-05,1,,,,,カメレオンキカク,0
712,3220001024774,新規,0,2022-04-05,2022-04-05,株式会社パレット,,株式会社,石川県,野々市市,押野５丁目２１７番地,,17,212,9218802,,,,,,,2022-04-05,1,,,,,パレット,0
713,3220001024790,新規,0,2022-04-05,2022-04-05,イシカワズカン株式会社,,株式会社,石川県,金沢市,幸町１５番２号,,17,201,9200968,,,,,,,2022-04-05,1,,,,,イシカワズカン,0
716,3220003003256,新規,0,2022-04-05,2022-04-05,合同会社別所商店,,合同会社,石川県,能美市,大長野町へ１０７番地２,,17,211,9231115,,,,,,,2022-04-05,1,,,,,ベッショショウテン,0
721,3240001059546,新規,0,2022-04-05,2022-04-05,株式会社エムエス,,株式会社,広島県,広島市安佐南区,伴南５丁目２７番１号,,34,105,7313168,,,,,,,2022-04-05,1,,,,,エムエス,0
722,3240001059562,新規,0,2022-04-05,2022-04-05,株式会社ＮＭＳプランニング,,株式会社,広島県,広島市東区,福田７丁目３１－８,,34,102,7320029,,,,,,,2022-04-05,1,,,,,エヌエムエスプランニング,0
731,3260001036691,新規,0,2022-04-05,2022-04-05,株式会社古庄化学,,株式会社,岡山県,岡山市南区,藤田４１７番地６５,,33,104,7010221,,,,,,,2022-04-05,1,,,,,フルショウカガク,0
732,3260001036717,新規,0,2022-04-05,2022-04-05,ホホ株式会社,,株式会社,岡山県,倉敷市,真備町岡田６３４番地８,,33,202,7101311,,,,,,,2022-04-05,1,,,,,ホホ,0
735,3270003001395,新規,0,2022-04-05,2022-04-05,合同会社ふれ愛車,,合同会社,鳥取県,鳥取市,西品治２８２番地２５,,31,201,6800811,,,,,,,2022-04-05,1,,,,,,0
741,3290001097095,新規,0,2022-04-05,2022-04-05,株式会社ラフ,,株式会社,福岡県,福岡市中央区,渡辺通２丁目６－１２八千代ビル５０３,,40,133,8100004,,,,,,,2022-04-05,1,,,,,ラフ,0
743,3290003012333,新規,0,2022-04-05,2022-04-05,合同会社Ｓ．Ｏ．Ｌ,,合同会社,福岡県,大野城市,平野台４丁目８番２６号,,40,219,8160972,,,,,,,2022-04-05,1,,,,,エスオーエル,0
749,3300001012861,新規,0,2022-04-05,2022-04-05,株式会社サニー建設商事,,株式会社,佐賀県,佐賀市,南佐賀２丁目１５番１０号,,41,201,8400016,,,,,,,2022-04-05,1,,,,,サニーケンセツショウジ,0
752,3310001017793,新規,0,2022-04-05,2022-04-05,ムカイ株式会社,,株式会社,長崎県,長崎市,つつじが丘３丁目８番３０号,,42,201,8510102,,,,,,,2022-04-05,1,,,,,ムカイ,0
753,3310001017810,新規,0,2022-04-05,2022-04-05,株式会社海陽,,株式会社,長崎県,長崎市,かき道１丁目３６番地１,,42,201,8510115,,,,,,,2022-04-05,1,,,,,カイヨウ,0
756,3320003003766,新規,0,2022-04-05,2022-04-05,合同会社スキニヤル,,合同会社,大分県,別府市,大字内成２８０６番地,,44,202,8795551,,,,,,,2022-04-05,1,,,,,スキニヤル,0
757,3330001029606,新規,0,2022-04-05,2022-04-05,株式会社ＤＲＥＡＭ８,,株式会社,熊本県,熊本市中央区,迎町１丁目７番１８－３０６号,,43,101,8600817,,,,,,,2022-04-05,1,,,,,ドリームエイト,0
759,3340001024630,新規,0,2022-04-05,2022-04-05,株式会社ＴＫ,,株式会社,鹿児島県,鹿児島市,西千石町１６番２５号,,46,201,8920847,,,,,,,2022-04-05,1,,,,,ティーケー,0
761,3340005009438,新規,0,2022-04-05,2022-04-05,一般社団法人ｔｏｉｔｏｉｔｏｉ,,その他の設立登記法人,鹿児島県,伊佐市,大口宮人１９２３番地,,46,224,8952526,,,,,,,2022-04-05,1,,,,,トイトイトイ,0
763,3370001048379,新規,0,2022-04-05,2022-04-05,株式会社村上左官店,,株式会社,宮城県,柴田郡村田町,大字村田字東５２番地１,,04,322,9891305,,,,,,,2022-04-05,1,,,,,ムラカミサカンテン,0
764,3370001048395,新規,0,2022-04-05,2022-04-05,株式会社ＳＫトラスト,,株式会社,宮城県,仙台市青葉区,国分町１丁目６－１３,,04,101,9800803,,,,,,,2022-04-05,1,,,,,エスケートラスト,0
769,3380001032695,新規,0,2022-04-05,2022-04-05,株式会社浦島ホールディングス,,株式会社,福島県,西白河郡矢吹町,北町１８３番地１,,07,466,9690211,,,,,,,2022-04-05,1,,,,,ウラシマホールディングス,0
771,3390001016846,新規,0,2022-04-05,2022-04-05,おきたま林業株式会社,,株式会社,山形県,西置賜郡白鷹町,大字滝野７６４番地１,,06,402,9920812,,,,,,,2022-04-05,1,,,,,オキタマリンギョウ,0
772,3390001016854,新規,0,2022-04-05,2022-04-05,株式会社ａｎｄ．ｇ,,株式会社,山形県,鶴岡市,羽黒町赤川字地蔵俣２９６番地３１,,06,203,9970167,,,,,,,2022-04-05,1,,,,,アンドジー,0
773,3400001015838,新規,0,2022-04-05,2022-04-05,株式会社Ｓホースカンパニー,,株式会社,岩手県,遠野市,新穀町３番１１号,,03,208,0280522,,,,,,,2022-04-05,1,,,,,エスホースカンパニー,0
774,3410001013139,新規,0,2022-04-05,2022-04-05,株式会社妃,,株式会社,秋田県,秋田市,大町６丁目３番４７－９０１号,,05,201,0100921,,,,,,,2022-04-05,1,,,,,キサキ,0
775,3420001017782,新規,0,2022-04-05,2022-04-05,株式会社ＨＩＴ,,株式会社,青森県,八戸市,下長５丁目６番１０号,,02,203,0391164,,,,,,,2022-04-05,1,,,,,エイチアイティー,0
779,3430001086307,新規,0,2022-04-05,2022-04-05,株式会社Ｋ．Ｆ企画,,株式会社,北海道,滝川市,東町７丁目２１９番地６,,01,225,0730024,,,,,,,2022-04-05,1,,,,,ケイエフキカク,0
785,3450003002193,新規,0,2022-04-05,2022-04-05,合同会社歌們,,合同会社,北海道,枝幸郡枝幸町,歌登西町１２１番地６７,,01,514,0985206,,,,,,,2022-04-05,1,,,,,カモン,0
788,3470005006430,新規,0,2022-04-05,2022-04-05,一般社団法人ＮＰＯおたすけネットワーククラブ,,その他の設立登記法人,香川県,丸亀市,中津町７５６番地５,,37,202,7630054,,,,,,,2022-04-05,1,,,,,エヌピオーオタスケネットワーククラブ,0
790,3500001024093,新規,0,2022-04-05,2022-04-05,株式会社ｇｌｏｂｅ,,株式会社,愛媛県,今治市,東村３丁目９－３６ＥＡＳＴ－ＶＩＬＬＡＧＥ５０１,,38,202,7991506,,,,,,,2022-04-05,1,,,,,グローブ,0
791,3500001024102,新規,0,2022-04-05,2022-04-05,株式会社雅総建,,株式会社,愛媛県,西条市,朔日市７９２番地３,,38,206,7930027,,,,,,,2022-04-05,1,,,,,ミヤビソウケン,0
801,4010003037381,新規,0,2022-04-05,2022-04-05,本郷２丁目プロジェクト合同会社,,合同会社,東京都,千代田区,丸の内２丁目３番２号,,13,101,1000005,,,,,,,2022-04-05,1,,,,,ホンゴウニチョウメプロジェクト,0
805,4010401166567,新規,0,2022-04-05,2022-04-05,ＭＣＰ６株式会社,,株式会社,東京都,港区,元赤坂１丁目１番８号株式会社赤坂国際会計内,,13,103,1070051,,,,,,,2022-04-05,1,,,,,エムシーピーシックス,0
806,4010401166600,新規,0,2022-04-05,2022-04-05,株式会社ＬＩＮＫ,,株式会社,東京都,港区,麻布十番２丁目２０番５号,,13,103,1060045,,,,,,,2022-04-05,1,,,,,リンク,0
807,4010401166609,新規,0,2022-04-05,2022-04-05,株式会社ＹｕＲｕＲｉ,,株式会社,東京都,港区,港南３丁目７の２３ヴィーダ・スカイコート３１３号,,13,103,1080075,,,,,,,2022-04-05,1,,,,,ユルリ,0
809,4010403027395,新規,0,2022-04-05,2022-04-05,ＡＰ　Ａｒｒｏｗ合同会社,,合同会社,東京都,港区,虎ノ門１丁目１６番６号虎ノ門ラポートビルＵＣＦ７階,,13,103,1050001,,,,,,,2022-04-05,1,,,,,エーピーアロー,0
810,4010403027404,新規,0,2022-04-05,2022-04-05,合同会社Ｎｅａｒｃｏ,,合同会社,東京都,港区,新橋１丁目１２―９,,13,103,1050004,,,,,,,2022-04-05,1,,,,,ネアルコ,0
811,4010405020885,新規,0,2022-04-05,2022-04-05,一般社団法人高輪ゲートウェイエリアマネジメント,,その他の設立登記法人,東京都,港区,高輪２丁目２１番４２号,,13,103,1080074,,,,,,,2022-04-05,1,,,,,タカナワゲートウェイエリアマネジメント,0
813,4010501048673,新規,0,2022-04-05,2022-04-05,Ｍｅｄｖｉｃｅ株式会社,,株式会社,東京都,台東区,上野１丁目１１－９イマスサニービル７階,,13,106,1100005,,,,,,,2022-04-05,1,,,,,メドビス,0
826,4010801032864,新規,0,2022-04-05,2022-04-05,ハロウ株式会社,,株式会社,東京都,大田区,千鳥３丁目１３－１１ヴォーガコルテ千鳥町６０１,,13,111,1460083,,,,,,,2022-04-05,1,,,,,ハロウ,0
831,4010901050634,新規,0,2022-04-05,2022-04-05,株式会社ＰＩＮ,,株式会社,東京都,世田谷区,宮坂１丁目４５番１号,,13,112,1560051,,,,,,,2022-04-05,1,,,,,ピン,0
832,4010902027631,新規,0,2022-04-05,2022-04-05,有限会社みどり商会,,有限会社,東京都,世田谷区,三宿２丁目１３番１２号,,13,112,1540005,,,,,,,2022-04-05,1,,,,,ミドリショウカイ,0
835,4011001146694,新規,0,2022-04-05,2022-04-05,富士フィリックス株式会社,,株式会社,東京都,渋谷区,広尾１丁目１番３５－６１０号,,13,113,1500012,,,,,,,2022-04-05,1,,,,,フジフィリックス,0
836,4011003014453,新規,0,2022-04-05,2022-04-05,合同会社ダイコクミロク,,合同会社,東京都,目黒区,自由が丘２丁目１６番１２号ＬＣ１Ｆ,,13,110,1520035,,,,,,,2022-04-05,1,,,,,ダイコクミロク,0
839,4011005009484,新規,0,2022-04-05,2022-04-05,特定非営利活動法人ＰｅｎＸ,,その他の設立登記法人,東京都,目黒区,洗足２丁目１８番７号,,13,110,1520012,,,,,,,2022-04-05,1,,,,,ペネックス,0
848,4011101098340,新規,0,2022-04-05,2022-04-05,株式会社スタイル・エッジ・グループ,,株式会社,東京都,新宿区,新宿４丁目１番６号ＪＲ新宿ミライナタワー１７Ｆ,,13,104,1600022,,,,,,,2022-04-05,1,,,,,スタイルエッジグループ,0
849,4011101098398,新規,0,2022-04-05,2022-04-05,株式会社ＳａｎＣｏｉｎｓ,,株式会社,東京都,新宿区,西新宿３丁目３番１３号西新宿水間ビル６階,,13,104,1600023,,,,,,,2022-04-05,1,,,,,サンコインズ,0
851,4011105010210,新規,0,2022-04-05,2022-04-05,ＣＯＭＢＡＬＡＮＣＥ税理士法人,,その他の設立登記法人,東京都,新宿区,西新宿８丁目４番１４－２０１号,,13,104,1600023,,,,,,,2022-04-05,1,,,,,コンバランス,0
854,4011501007272,新規,0,2022-04-05,2022-04-05,大栄プラスチック工業株式会社,,株式会社,東京都,荒川区,町屋１丁目３５番９号,,13,118,1160001,,,,,,,2022-04-05,1,,,,,,0
857,4011501027881,新規,0,2022-04-05,2022-04-05,株式会社ヨセミテ,,株式会社,東京都,北区,王子本町１丁目３番１号,,13,117,1140022,,,,,,,2022-04-05,1,,,,,ヨセミテ,0
858,4011503005126,新規,0,2022-04-05,2022-04-05,合同会社モノ好キ,,合同会社,東京都,北区,王子２丁目２８番４号,,13,117,1140002,,,,,,,2022-04-05,1,,,,,モノズキ,0
865,4012305001998,新規,0,2022-04-05,2022-04-05,一般社団法人南瓜会,,その他の設立登記法人,東京都,町田市,中町１丁目９番２２号,,13,209,1940021,,,,,,,2022-04-05,1,,,,,カボチャカイ,0
866,4012401039034,新規,0,2022-04-05,2022-04-05,株式会社インタービジョン,,株式会社,東京都,調布市,佐須町２丁目７番地５リオ・セレッソ２０１,,13,208,1820016,,,,,,,2022-04-05,1,,,,,インタービジョン,0
867,4012401039050,新規,0,2022-04-05,2022-04-05,株式会社エイディーエス,,株式会社,東京都,三鷹市,下連雀１丁目２９番８号,,13,204,1810013,,,,,,,2022-04-05,1,,,,,エイディーエス,0
869,4012701017012,新規,0,2022-04-05,2022-04-05,ニューツリー株式会社,,株式会社,東京都,西東京市,谷戸町２丁目１番７５号コスモひばりが丘ザ・ガーデンズフォート６１２号,,13,229,1880001,,,,,,,2022-04-05,1,,,,,ニューツリー,0
871,4012703002433,新規,0,2022-04-05,2022-04-05,合同会社ＪｕｓｔＰｌａｎｄｉｎｇ,,合同会社,東京都,西東京市,東町５丁目９－１１,,13,229,2020012,,,,,,,2022-04-05,1,,,,,ジャストプランディング,0
872,4012801021491,新規,0,2022-04-05,2022-04-05,株式会社ＳＫＹＷＡＬＫＥＲ,,株式会社,東京都,日野市,旭が丘１丁目１４番地の２２,,13,212,1910065,,,,,,,2022-04-05,1,,,,,スカイウォーカー,0
881,4020001145895,新規,0,2022-04-05,2022-04-05,株式会社デコールアンジュ,,株式会社,神奈川県,横浜市青葉区,桂台１丁目１１番地４４,,14,117,2270034,,,,,,,2022-04-05,1,,,,,デコールアンジュ,0
882,4020003021533,新規,0,2022-04-05,2022-04-05,合同会社ｅｖｅｒ　ｆｒｅｅ,,合同会社,神奈川県,川崎市幸区,新小倉２－２、１１１７,,14,132,2120031,,,,,,,2022-04-05,1,,,,,エバーフリー,0
883,4020005015459,新規,0,2022-04-05,2022-04-05,特定非営利活動法人クリエイティブ・シェアド・バリュー,,その他の設立登記法人,神奈川県,横浜市西区,みなとみらい３丁目７番１号株式会社エスプリ内,,14,103,2200012,,,,,,,2022-04-05,1,,,,,クリエイティブシェアドバリュー,0
884,4030001147544,新規,0,2022-04-05,2022-04-05,株式会社リストア産業,,株式会社,埼玉県,川口市,八幡木２丁目２８番地の４６,,11,203,3340012,,,,,,,2022-04-05,1,,,,,リストアサンギョウ,0
887,4030002125144,新規,0,2022-04-05,2022-04-05,有限会社タムラ,,有限会社,埼玉県,秩父市,大字田村４０番地,,11,207,3680000,,,,,,,2022-04-05,1,,,,,タムラ,0
892,4040001122835,新規,0,2022-04-05,2022-04-05,ランドマーク株式会社,,株式会社,千葉県,船橋市,印内２丁目１２－８トモヨシフラット１階Ａ－１号室,,12,204,2730039,,,,,,,2022-04-05,1,,,,,ランドマーク,0
893,4040001122876,新規,0,2022-04-05,2022-04-05,株式会社サクライ,,株式会社,千葉県,千葉市稲毛区,天台１丁目９番１号サンクレイドル千葉天台５１３号,,12,103,2630016,,,,,,,2022-04-05,1,,,,,サクライ,0
894,4040001122892,新規,0,2022-04-05,2022-04-05,株式会社ＭＩＨＡＲＵＷＡ,,株式会社,千葉県,山武郡横芝光町,篠本１６８２番地,,12,410,2891701,,,,,,,2022-04-05,1,,,,,ミハルワ,0
895,4040001122901,新規,0,2022-04-05,2022-04-05,Ｆｒｅｅ　ｗｏｒｋｓ株式会社,,株式会社,千葉県,四街道市,大日２５７－３３,,12,228,2840001,,,,,,,2022-04-05,1,,,,,フリーワークス,0
903,4040003019798,新規,0,2022-04-05,2022-04-05,合同会社桜ｐｒｏｊｅｃｔ,,合同会社,千葉県,茂原市,本納３２４番地８５,,12,210,2994114,,,,,,,2022-04-05,1,,,,,サクラプロジェクト,0
904,4050001050903,新規,0,2022-04-05,2022-04-05,株式会社Ｓｖａｈａ,,株式会社,茨城県,つくばみらい市,紫峰ヶ丘２丁目１７番地２,,08,235,3002359,,,,,,,2022-04-05,1,,,,,スヴァーハ,0
909,4080001024838,新規,0,2022-04-05,2022-04-05,株式会社アイビー川根本町,,株式会社,静岡県,榛原郡川根本町,上長尾４２１番地の４,,22,429,4280313,,,,,,,2022-04-05,1,,,,,アイビーカワネホンチョウ,0
910,4080001024854,新規,0,2022-04-05,2022-04-05,ＡＤＤＩＴＩＯＮ株式会社,,株式会社,静岡県,静岡市駿河区,馬渕３丁目１１番６号,,22,102,4228063,,,,,,,2022-04-05,1,,,,,アディション,0
911,4080001024862,新規,0,2022-04-05,2022-04-05,株式会社百千建設,,株式会社,静岡県,焼津市,下小田４２５番地の６,,22,212,4250057,,,,,,,2022-04-05,1,,,,,ヒャクセンケンセツ,0
913,4080005007442,新規,0,2022-04-05,2022-04-05,医療法人社団成航会,,その他の設立登記法人,静岡県,静岡市清水区,袖師町１１００番地の２,,22,103,4240037,,,,,,,2022-04-05,1,,,,,セイコウカイ,0
917,4080401025717,新規,0,2022-04-05,2022-04-05,株式会社ＩＲＩＳ,,株式会社,静岡県,浜松市北区,三方原町４３３番地の８,,22,135,4338105,,,,,,,2022-04-05,1,,,,,アイリス,0
918,4090001017502,新規,0,2022-04-05,2022-04-05,株式会社ＪＣＰＹ,,株式会社,山梨県,山梨市,小原東６７６番地４,,19,205,4050005,,,,,,,2022-04-05,1,,,,,ジェイシーピーワイ,0
921,4100003006484,新規,0,2022-04-05,2022-04-05,合同会社Ｕｎｏ　ａ　Ｚｅｒｏ,,合同会社,長野県,北佐久郡軽井沢町,大字追分６１１４番地,,20,321,3890115,,,,,,,2022-04-05,1,,,,,ウーノアゼロ,0
922,4110001036557,新規,0,2022-04-05,2022-04-05,株式会社梅川建機コーポレーション,,株式会社,新潟県,新潟市中央区,鵜ノ子字新田８９９番地１,,15,103,9500157,,,,,,,2022-04-05,1,,,,,ウメカワケンキコーポレーション,0
934,4120001244852,新規,0,2022-04-05,2022-04-05,株式会社フードカルチャーラボ,,株式会社,大阪府,大阪市北区,梅田１丁目１番１号大阪駅前第３ビル１－１－１号室,,27,127,5300001,,,,,,,2022-04-05,1,,,,,フードカルチャーラボ,0
935,4120001244860,新規,0,2022-04-05,2022-04-05,株式会社ＲＯＮＤＩＮＥ,,株式会社,大阪府,大阪市中央区,内本町２丁目１番１９号内本町松屋ビル１０－７５０号,,27,128,5400026,,,,,,,2022-04-05,1,,,,,ロンディネ,0
936,4120001244910,新規,0,2022-04-05,2022-04-05,株式会社作事いろは,,株式会社,大阪府,枚方市,東香里新町７番１８号,,27,210,5730077,,,,,,,2022-04-05,1,,,,,サクジイロハ,0
938,4120101065315,新規,0,2022-04-05,2022-04-05,株式会社おはな,,株式会社,大阪府,河内長野市,大矢船西町２番５－５０６号,,27,216,5860073,,,,,,,2022-04-05,1,,,,,オハナ,0
943,4120903004098,新規,0,2022-04-05,2022-04-05,アームテック合同会社,,合同会社,大阪府,吹田市,山田東３丁目１８番３０号７０２号室,,27,205,5650821,,,,,,,2022-04-05,1,,,,,アームテック,0
944,4130001071445,新規,0,2022-04-05,2022-04-05,ＤｅｅｐＦｏｒｅｓｔ　Ｔｅｃｈｎｏｌｏｇｉｅｓ株式会社,,株式会社,京都府,京都市上京区,出町通桝形上る青龍町２１８番地グランコスモ鴨川８０９号室,,26,102,6020822,,,,,,,2022-04-05,1,,,,,ディープフォレストテクノロジーズ,0
950,4140001125448,新規,0,2022-04-05,2022-04-05,株式会社グッドラフ,,株式会社,兵庫県,神戸市東灘区,深江本町３丁目９－１深江駅前ビル７０２,,28,101,6580021,,,,,,,2022-04-05,1,,,,,グッドラフ,0
951,4140001125506,新規,0,2022-04-05,2022-04-05,株式会社吉松,00126153,株式会社,兵庫県,姫路市,夢前町置本８２－３１,,28,201,6712122,,,,,,,2022-04-05,1,,,,,ヨシマツ,0
952,4140001125539,新規,0,2022-04-05,2022-04-05,株式会社ＲＡＩＪＩＮ,,株式会社,兵庫県,神戸市中央区,加納町３丁目１－２０ロイヤルヒル神戸三宮３０１,,28,110,6500001,,,,,,,2022-04-05,1,,,,,ライジン,0
956,4140003017544,新規,0,2022-04-05,2022-04-05,合同会社ゼロ,,合同会社,兵庫県,加古川市,新神野７丁目２番２－５０６号,,28,210,6750008,,,,,,,2022-04-05,1,,,,,ゼロ,0
965,4180001150649,新規,0,2022-04-05,2022-04-05,株式会社ＮＧＰトラスト,,株式会社,愛知県,名古屋市中区,丸の内３丁目２３番２８号,,23,106,4600002,,,,,,,2022-04-05,1,,,,,エヌジーピートラスト,0
966,4180001150657,新規,0,2022-04-05,2022-04-05,株式会社インヴィテーションファーム,,株式会社,愛知県,常滑市,小倉町１丁目３６番地の３,,23,216,4790862,,,,,,,2022-04-05,1,,,,,インヴィテーションファーム,0
967,4180001150665,新規,0,2022-04-05,2022-04-05,株式会社ブラスト,,株式会社,愛知県,豊明市,沓掛町小廻間３４番地２１,,23,229,4701103,,,,,,,2022-04-05,1,,,,,ブラスト,0
968,4180001150707,新規,0,2022-04-05,2022-04-05,ジャパンリサイクル株式会社,,株式会社,愛知県,海部郡飛島村,大字渚８丁目５４番地１,,23,427,4901433,,,,,,,2022-04-05,1,,,,,ジャパンリサイクル,0
970,4180301036052,新規,0,2022-04-05,2022-04-05,ＫＥＮ　Ｄｅｓｉｇｎ株式会社,,株式会社,愛知県,豊田市,美里５丁目１８番地８,,23,211,4710805,,,,,,,2022-04-05,1,,,,,ケンデザイン,0
975,4200001039914,新規,0,2022-04-05,2022-04-05,株式会社ＢＯＷＥＮ,,株式会社,岐阜県,瑞浪市,益見町２丁目７７番地,,21,208,5096108,,,,,,,2022-04-05,1,,,,,ボーエン,0
976,4200001039922,新規,0,2022-04-05,2022-04-05,株式会社ＬＩＮＯＵＳ　ＰＬＵＳ,,株式会社,岐阜県,岐阜市,茜部大野２丁目６７番地,,21,201,5008261,,,,,,,2022-04-05,1,,,,,リノアスプラス,0
977,4200001039939,新規,0,2022-04-05,2022-04-05,株式会社小池組,,株式会社,岐阜県,羽島郡岐南町,徳田５丁目４１番地の１（ロイヤルマンション岐阜南２０５号室）,,21,302,5016016,,,,,,,2022-04-05,1,,,,,コイケグミ,0
982,4220001024773,新規,0,2022-04-05,2022-04-05,株式会社フォース建設,,株式会社,石川県,白山市,新成４丁目１０番地,,17,210,9240020,,,,,,,2022-04-05,1,,,,,フォースケンセツ,0
983,4220001024781,新規,0,2022-04-05,2022-04-05,株式会社松愛,,株式会社,石川県,金沢市,元菊町１６番３号,,17,201,9200036,,,,,,,2022-04-05,1,,,,,マツアイ,0
989,4240001059545,新規,0,2022-04-05,2022-04-05,株式会社ｍａｒｉｏ,,株式会社,広島県,大竹市,元町２丁目４番２１号,,34,211,7390615,,,,,,,2022-04-05,1,,,,,マリオ,0
990,4240001059553,新規,0,2022-04-05,2022-04-05,葉畑印刷株式会社,,株式会社,広島県,広島市安佐北区,狩留家町３５４３番地１,,34,106,7391753,,,,,,,2022-04-05,1,,,,,ハバタインサツ,0
991,4240001059578,新規,0,2022-04-05,2022-04-05,テイル株式会社,,株式会社,広島県,広島市東区,牛田新町３丁目５０番１１号,,34,102,7320068,,,,,,,2022-04-05,1,,,,,テイル,0
995,4250003003038,新規,0,2022-04-05,2022-04-05,合同会社Ｌｉｖｅｌｙ　ｌｉｆｅ,,合同会社,山口県,山陽小野田市,南竜王町７番６０号,,35,216,7560832,,,,,,,2022-04-05,1,,,,,ライブリーライフ,0
998,4260001036708,新規,0,2022-04-05,2022-04-05,株式会社ダンデ設備,,株式会社,岡山県,倉敷市,呼松１丁目１０番６号,,33,202,7128053,,,,,,,2022-04-05,1,,,,,ダンデセツビ,0
1003,4260003003862,新規,0,2022-04-05,2022-04-05,合同会社ＳＴエンジニアサービス,,合同会社,岡山県,赤磐市,桜が丘西６丁目３２番１１号,,33,213,7090802,,,,,,,2022-04-05,1,,,,,エスティーエンジニアサービス,0
1008,4290001097029,新規,0,2022-04-05,2022-04-05,ＬＵＰ株式会社,,株式会社,福岡県,久留米市,日吉町１３番３２号,,40,203,8300017,,,,,,,2022-04-05,1,,,,,エルユーピー,0
1009,4290001097045,新規,0,2022-04-05,2022-04-05,株式会社Ｇｌｏｗｔｈ,,株式会社,福岡県,福岡市城南区,片江２丁目２番１５号,,40,136,8140142,,,,,,,2022-04-05,1,,,,,グロウス,0
1010,4290001097053,新規,0,2022-04-05,2022-04-05,株式会社エアルーク,,株式会社,福岡県,福岡市城南区,樋井川２丁目２５番３３－２０１号,,40,136,8140153,,,,,,,2022-04-05,1,,,,,エアルーク,0
1011,4290001097078,新規,0,2022-04-05,2022-04-05,株式会社アイマーケット,,株式会社,福岡県,糟屋郡新宮町,三代西１丁目１１番１２号,,40,345,8110125,,,,,,,2022-04-05,1,,,,,アイマーケット,0
1015,4290003012349,新規,0,2022-04-05,2022-04-05,ｓｏｅｌ合同会社,,合同会社,福岡県,福岡市中央区,平尾４丁目１８番１７号平尾アパートメント３０２号,,40,133,8100014,,,,,,,2022-04-05,1,,,,,ソエル,0
1016,4290003012357,新規,0,2022-04-05,2022-04-05,合同会社Ｗｅ‐ｄ,,合同会社,福岡県,福岡市中央区,今泉１丁目７番２１号,,40,133,8100021,,,,,,,2022-04-05,1,,,,,ウィディ,0
1017,4290003012365,新規,0,2022-04-05,2022-04-05,合同会社新,,合同会社,福岡県,太宰府市,国分１丁目１８番５０号,,40,221,8180132,,,,,,,2022-04-05,1,,,,,アラタ,0
1020,4290801028389,新規,0,2022-04-05,2022-04-05,株式会社ＨＲＳＣ,,株式会社,福岡県,北九州市八幡西区,穴生４丁目１５番７号,,40,109,8060049,,,,,,,2022-04-05,1,,,,,エイチアールエスシー,0
1027,4310001017801,新規,0,2022-04-05,2022-04-05,株式会社ニシンホールディングス,,株式会社,長崎県,長崎市,赤迫２丁目９番１４号,,42,201,8528156,,,,,,,2022-04-05,1,,,,,ニシンホールディングス,0
1029,4320003003765,新規,0,2022-04-05,2022-04-05,合同会社Ｈｕｌｌ,,合同会社,大分県,大分市,萩原２丁目１番２３号,,44,201,8700921,,,,,,,2022-04-05,1,,,,,ハル,0
1033,4330001029605,新規,0,2022-04-05,2022-04-05,株式会社ＮＹ　ＨＩＬＬＳ　ＬＩＦＥ,,株式会社,熊本県,熊本市東区,健軍１丁目３７番６号,,43,102,8620911,,,,,,,2022-04-05,1,,,,,エヌワイヒルズライフ,0
1034,4330003009316,新規,0,2022-04-05,2022-04-05,合同会社Ｂｉｒｔｈ,,合同会社,熊本県,宇土市,松山町１４４番地１,,43,211,8690416,,,,,,,2022-04-05,1,,,,,バース,0
1036,4340001024605,新規,0,2022-04-05,2022-04-05,小正ホールディングス株式会社,,株式会社,鹿児島県,日置市,日吉町日置３３０９番地,,46,216,8993101,,,,,,,2022-04-05,1,,,,,コマサホールディングス,0
1038,4350001017673,新規,0,2022-04-05,2022-04-05,株式会社Ｄｏ　ｆａｒｍ,,株式会社,宮崎県,宮崎市,西池町２－２９,,45,201,8800027,,,,,,,2022-04-05,1,,,,,ドゥファーム,0
1041,4370001048378,新規,0,2022-04-05,2022-04-05,閖上ワークス株式会社,,株式会社,宮城県,名取市,閖上中央１丁目６番地,,04,207,9811203,,,,,,,2022-04-05,1,,,,,ユリアゲワークス,0
1047,4380003005145,新規,0,2022-04-05,2022-04-05,合同会社ｄｒｅａｍ,,合同会社,福島県,郡山市,大槻町字室ノ木北３４番地の２０,,07,203,9630201,,,,,,,2022-04-05,1,,,,,ドリーム,0
1049,4400001015845,新規,0,2022-04-05,2022-04-05,株式会社及川無線商会,,株式会社,岩手県,一関市,藤沢町藤沢字町１８番地,,03,209,0293405,,,,,,,2022-04-05,1,,,,,オイカワムセンショウカイ,0
1051,4400005008234,新規,0,2022-04-05,2022-04-05,一般社団法人ＢＥＥＣＯＲＰＳ,,その他の設立登記法人,岩手県,一関市,赤荻字豊科１０番地,,03,209,0210041,,,,,,,2022-04-05,1,,,,,ビーコープス,0
1056,4430001086297,新規,0,2022-04-05,2022-04-05,株式会社ＦＳＧ,,株式会社,北海道,札幌市中央区,南八条西１０丁目１２７７番地７ワールドパレス札幌中央１０１号,,01,101,0640808,,,,,,,2022-04-05,1,,,,,エフエスジー,0
1057,4430001086322,新規,0,2022-04-05,2022-04-05,株式会社キコージー,,株式会社,北海道,札幌市中央区,南四条東２丁目１８－１,,01,101,0600054,,,,,,,2022-04-05,1,,,,,キコージー,0
1058,4430001086330,新規,0,2022-04-05,2022-04-05,株式会社Ａｃｃｏｒｄｅｎｔ　Ｌａｂ,,株式会社,北海道,札幌市東区,北十九条東５丁目３番１２号,,01,103,0650019,,,,,,,2022-04-05,1,,,,,アコーデントラボ,0
1059,4430001086339,新規,0,2022-04-05,2022-04-05,株式会社ｂｌｏｏｍ,,株式会社,北海道,札幌市白石区,菊水三条４丁目３－１－１００５,,01,104,0030803,,,,,,,2022-04-05,1,,,,,ブルーム,0
1060,4450003002192,新規,0,2022-04-05,2022-04-05,合同会社青塚工業,,合同会社,北海道,旭川市,永山十二条２丁目１番６号,,01,204,0798422,,,,,,,2022-04-05,1,,,,,アオツカコウギョウ,0
1073,5010001225615,新規,0,2022-04-05,2022-04-05,株式会社Ｆａｉｒ　Ｐｅｒｆｅｃｔｉｏｎ,,株式会社,東京都,中央区,築地６丁目１１番１号,,13,102,1040045,,,,,,,2022-04-05,1,,,,,フェアーパーフェクション,0
1074,5010003037397,新規,0,2022-04-05,2022-04-05,合同会社３Ｙ,,合同会社,東京都,中央区,築地７丁目１４－１４－３０１,,13,102,1040045,,,,,,,2022-04-05,1,,,,,スリーワイ,0
1078,5010101015123,新規,0,2022-04-05,2022-04-05,株式会社アシスト,,株式会社,東京都,八王子市,下柚木２１３８番地４,,13,201,1920372,,,,,,,2022-04-05,1,,,,,アシスト,0
1086,5010401166541,新規,0,2022-04-05,2022-04-05,株式会社ｓｓａｙ．ｃｏｓｍｅ,,株式会社,東京都,港区,六本木７丁目１８番８号第ＩＩＩ大栄ビル７階,00126142,13,103,1060032,,,,,,,2022-04-05,1,,,,,エスセイコスメ,0
1087,5010401166608,新規,0,2022-04-05,2022-04-05,株式会社Ｒｅｓｔａｒ,,株式会社,東京都,港区,北青山３丁目６－１９バイナリー北青山９Ｆ,,13,103,1070061,,,,,,,2022-04-05,1,,,,,リスター,0
1088,5010401166624,新規,0,2022-04-05,2022-04-05,株式会社Ｐｒｏｓｉｔ,,株式会社,東京都,港区,芝浦１丁目１５－１６パレステュディオ田町７０６,,13,103,1050023,,,,,,,2022-04-05,1,,,,,プロージット,0
1089,5010401166673,新規,0,2022-04-05,2022-04-05,株式会社西政,,株式会社,東京都,港区,新橋６丁目８番６号,,13,103,1050004,,,,,,,2022-04-05,1,,,,,ニシマサ,0
1090,5010401166681,新規,0,2022-04-05,2022-04-05,株式会社リペアン・リフォーム,,株式会社,東京都,港区,六本木５丁目１３番１２号,,13,103,1060032,,,,,,,2022-04-05,1,,,,,リペアンリフォーム,0
1091,5010403027386,新規,0,2022-04-05,2022-04-05,合同会社ロータス,,合同会社,東京都,港区,赤坂８丁目４番１０－９０３号,,13,103,1070052,,,,,,,2022-04-05,1,,,,,ロータス,0
1092,5010403027394,新規,0,2022-04-05,2022-04-05,合同会社ジーエスエスジャパン,,合同会社,東京都,港区,西新橋１丁目２番９号日比谷セントラルビル１４階,,13,103,1050003,,,,,,,2022-04-05,1,,,,,ジーエスエスジャパン,0
1104,5010901050625,新規,0,2022-04-05,2022-04-05,株式会社Ｗｉｓｔｅｒｉａ,,株式会社,東京都,世田谷区,池尻２丁目７番６－２０５号,,13,112,1540001,,,,,,,2022-04-05,1,,,,,ウィステリア,0
1105,5010901050633,新規,0,2022-04-05,2022-04-05,株式会社ドタバタ,,株式会社,東京都,世田谷区,太子堂２丁目１７－５佐藤ビル３階,,13,112,1540004,,,,,,,2022-04-05,1,,,,,ドタバタ,0
1107,5010903007284,新規,0,2022-04-05,2022-04-05,エクセイルトレーディング合同会社,,合同会社,東京都,世田谷区,上北沢１丁目３５番８号,,13,112,1560057,,,,,,,2022-04-05,1,,,,,エクセイルトレーディング,0
1114,5011001146669,新規,0,2022-04-05,2022-04-05,Ｔａｐｅｓｔｒｙ株式会社,,株式会社,東京都,渋谷区,恵比寿２丁目２０番１２号ｌａｎｉ恵比寿３Ｆ,,13,113,1500013,,,,,,,2022-04-05,1,,,,,タペストリー,0
1115,5011001146685,新規,0,2022-04-05,2022-04-05,株式会社ｅｈ．,,株式会社,東京都,目黒区,大橋２丁目１９番６－４１０号プラウド駒場,,13,110,1530044,,,,,,,2022-04-05,1,,,,,イーエイチ,0
1116,5011001146702,新規,0,2022-04-05,2022-04-05,株式会社バズラセ,,株式会社,東京都,渋谷区,神宮前４丁目３２番１２号ニューウェイブ原宿２Ｆ,,13,113,1500001,,,,,,,2022-04-05,1,,,,,バズラセ,0
1117,5011001146768,新規,0,2022-04-05,2022-04-05,株式会社めんまる,,株式会社,東京都,渋谷区,神宮前１丁目４番２０－９０４号,,13,113,1500001,,,,,,,2022-04-05,1,,,,,メンマル,0
1118,5011001146784,新規,0,2022-04-05,2022-04-05,株式会社桜丘町コンサルティング,,株式会社,東京都,渋谷区,東１丁目１３番３号カイトーハイツ２０１,,13,113,1500011,,,,,,,2022-04-05,1,,,,,サクラガオカチョウコンサルティング,0
1119,5011003014452,新規,0,2022-04-05,2022-04-05,んだテック合同会社,,合同会社,東京都,渋谷区,渋谷２丁目１９番１５号宮益坂ビルディング６０９,,13,113,1500002,,,,,,,2022-04-05,1,,,,,ンダテック,0
1120,5011003014460,新規,0,2022-04-05,2022-04-05,アンバー合同会社,,合同会社,東京都,目黒区,自由が丘３丁目１７番１８－４０２号第２自由が丘ハイム,,13,110,1520035,,,,,,,2022-04-05,1,,,,,アンバー,0
1121,5011005009525,新規,0,2022-04-05,2022-04-05,一般社団法人言語教育開発機構,,その他の設立登記法人,東京都,渋谷区,西原３丁目２番２号,,13,113,1510066,,,,,,,2022-04-05,1,,,,,ゲンゴキョウイクカイハツキコウ,0
1128,5011403003617,新規,0,2022-04-05,2022-04-05,合同会社ヒルクリエイティブ,,合同会社,東京都,板橋区,三園１丁目４９番８号ルミエール西高島平１０９,,13,119,1750091,,,,,,,2022-04-05,1,,,,,ヒルクリエイティブ,0
1134,5011503005125,新規,0,2022-04-05,2022-04-05,Ｈｏｗ　ｔｏ　ｌｉｖｅ合同会社,,合同会社,東京都,北区,田端１丁目５番２号,,13,117,1140014,,,,,,,2022-04-05,1,,,,,ハウトゥーリブ,0
1138,5011601025850,新規,0,2022-04-05,2022-04-05,株式会社ＤＡＢＵＬＬ,,株式会社,東京都,練馬区,石神井町３丁目２７番５号,,13,120,1770041,,,,,,,2022-04-05,1,,,,,ダブル,0
1142,5011603003565,新規,0,2022-04-05,2022-04-05,ミテック合同会社,,合同会社,東京都,練馬区,大泉学園町８丁目７番１１号,,13,120,1780061,,,,,,,2022-04-05,1,,,,,ミテック,0
1147,5011803005031,新規,0,2022-04-05,2022-04-05,合同会社Ｔ　Ｔｅｃｈ　Ａｄｖａｎｃｅ,,合同会社,東京都,足立区,綾瀬４丁目５－１６－１０１,,13,121,1200005,,,,,,,2022-04-05,1,,,,,ティーテックアドバンス,0
1154,5012701017011,新規,0,2022-04-05,2022-04-05,株式会社カラーズ,,株式会社,東京都,西東京市,緑町２丁目１０番１０号,,13,229,1880002,,,,,,,2022-04-05,1,,,,,カラーズ,0
1155,5012801021490,新規,0,2022-04-05,2022-04-05,株式会社かいえん,,株式会社,東京都,日野市,東豊田４丁目１７番地の３,,13,212,1910052,,,,,,,2022-04-05,1,,,,,カイエン,0
1159,5020001145878,新規,0,2022-04-05,2022-04-05,株式会社Ｈｏｕｓｅ　ＲｅＣｒｅａｔｅ,,株式会社,神奈川県,横浜市南区,平楽１５５番地２エクレール横浜三番館３０４,,14,105,2320035,,,,,,,2022-04-05,1,,,,,ハウスリクリエイト,0
1160,5020001146001,新規,0,2022-04-05,2022-04-05,エリトラ株式会社,,株式会社,神奈川県,横浜市中区,本町２丁目２２番地,,14,104,2310005,,,,,,,2022-04-05,1,,,,,エリトラ,0
1164,5020003021540,新規,0,2022-04-05,2022-04-05,小売ＤＸ合同会社,,合同会社,神奈川県,川崎市高津区,久本１丁目６番８号,,14,134,2130011,,,,,,,2022-04-05,1,,,,,コウリディーエックス,0
1165,5021001075586,新規,0,2022-04-05,2022-04-05,株式会社すみここち,,株式会社,神奈川県,逗子市,逗子２丁目６番２０号,,14,208,2490006,,,,,,,2022-04-05,1,,,,,スミココチ,0
1166,5021001075603,新規,0,2022-04-05,2022-04-05,エムコネクト株式会社,,株式会社,神奈川県,大和市,中央林間西６丁目５番９号,,14,213,2420008,,,,,,,2022-04-05,1,,,,,エムコネクト,0
1168,5030001147527,新規,0,2022-04-05,2022-04-05,日本ロジック株式会社,,株式会社,埼玉県,川口市,南町１丁目１１番３０号,,11,203,3320026,,,,,,,2022-04-05,1,,,,,ニホンロジック,0
1169,5030001147576,新規,0,2022-04-05,2022-04-05,ＴＯＰＡＺ株式会社,,株式会社,埼玉県,さいたま市桜区,田島９丁目２１番６号,,11,106,3380837,,,,,,,2022-04-05,1,,,,,,0
1170,5030001147592,新規,0,2022-04-05,2022-04-05,株式会社ＥＶＥ,,株式会社,埼玉県,さいたま市岩槻区,本町４丁目７番１２号,,11,110,3390057,,,,,,,2022-04-05,1,,,,,イブ,0
1175,5030005020795,新規,0,2022-04-05,2022-04-05,医療法人社団ＰＳ　ｓｑｕａｄ,,その他の設立登記法人,埼玉県,さいたま市見沼区,大字南中野４２２番地１,,11,104,3370042,,,,,,,2022-04-05,1,,,,,ピーエススクワッド,0
1178,5040001122842,新規,0,2022-04-05,2022-04-05,株式会社リードメディカル,,株式会社,千葉県,柏市,松ケ崎３６５番地１エステ・コート北柏１－３０３号,,12,217,2770835,,,,,,,2022-04-05,1,,,,,リードメディカル,0
1182,5040003019814,新規,0,2022-04-05,2022-04-05,Ｊａｐａｎｉｃｅ合同会社,,合同会社,千葉県,千葉市美浜区,稲毛海岸１丁目２－１７－１０６,,12,106,2610005,,,,,,,2022-04-05,1,,,,,ジャパナイス,0
1183,5050001050885,新規,0,2022-04-05,2022-04-05,百合株式会社,,株式会社,茨城県,鉾田市,安房１４０７番地２１,,08,234,3111504,,,,,,,2022-04-05,1,,,,,ユリ,0
1187,5060001034714,新規,0,2022-04-05,2022-04-05,株式会社ａｏｉ,,株式会社,栃木県,宇都宮市,鶴田町２１２６番地６,,09,201,3200851,,,,,,,2022-04-05,1,,,,,アオイ,0
1192,5080001024853,新規,0,2022-04-05,2022-04-05,株式会社Ｗｅｓｔ　Ｐｌａｎ,,株式会社,静岡県,島田市,旭２丁目２番６の２号,,22,209,4270018,,,,,,,2022-04-05,1,,,,,ウエストプラン,0
1195,5080003002774,新規,0,2022-04-05,2022-04-05,ＧＯＮＴＡ　ＷＯＲＫＳ合同会社,,合同会社,静岡県,静岡市清水区,宮加三４３６番地,,22,103,4240911,,,,,,,2022-04-05,1,,,,,ゴンタワークス,0
1197,5080101023185,新規,0,2022-04-05,2022-04-05,宮株式会社,,株式会社,静岡県,富士宮市,小泉２４９４番地の８,,22,207,4180022,,,,,,,2022-04-05,1,,,,,ミヤ,0
1198,5080401025732,新規,0,2022-04-05,2022-04-05,オンドクラフト株式会社,,株式会社,静岡県,袋井市,川井８７３番地の４,,22,216,4370064,,,,,,,2022-04-05,1,,,,,オンドクラフト,0
1199,5090001017501,新規,0,2022-04-05,2022-04-05,株式会社綾部建工,,株式会社,山梨県,甲府市,大津町２０番地１,,19,201,4000055,,,,,,,2022-04-05,1,,,,,アヤベケンコウ,0
1204,5110001036548,新規,0,2022-04-05,2022-04-05,株式会社ワンワード,,株式会社,新潟県,新潟市中央区,東出来島１０番１号,,15,103,9500961,,,,,,,2022-04-05,1,,,,,ワンワード,0
1216,5120001244802,新規,0,2022-04-05,2022-04-05,株式会社ネクストキャリア,,株式会社,大阪府,大阪市大正区,北村３丁目６番２－６０４号,,27,108,5510032,,,,,,,2022-04-05,1,,,,,ネクストキャリア,0
1217,5120001244851,新規,0,2022-04-05,2022-04-05,株式会社フクダ写真,,株式会社,大阪府,大阪市住吉区,墨江４丁目４番８号,,27,120,5580043,,,,,,,2022-04-05,1,,,,,フクダシャシン,0
1218,5120001244876,新規,0,2022-04-05,2022-04-05,株式会社Ｓｈｉｎｍｕｒａ,,株式会社,大阪府,大阪市東淀川区,北江口１丁目１番５８－１３５号,,27,114,5330002,,,,,,,2022-04-05,1,,,,,シンムラ,0
1219,5120001244959,新規,0,2022-04-05,2022-04-05,株式会社Ｋ．Ｒ．Ｓ,,株式会社,大阪府,大阪市住吉区,清水丘２丁目２１番８－３０２号,,27,120,5580033,,,,,,,2022-04-05,1,,,,,ケーアールエス,0
1222,5120003021398,新規,0,2022-04-05,2022-04-05,合同会社東西リーガルサービス,,合同会社,大阪府,大阪市北区,西天満４丁目６番１８号,,27,127,5300047,,,,,,,2022-04-05,1,,,,,トウザイリーガルサービス,0
1223,5120003021407,新規,0,2022-04-05,2022-04-05,合同会社ＣＬＥＶＥＲ,,合同会社,大阪府,大阪市西成区,太子１丁目１２番１４号１０１号室,,27,122,5570002,,,,,,,2022-04-05,1,,,,,クレバー,0
1226,5120101065314,新規,0,2022-04-05,2022-04-05,株式会社河村設備,,株式会社,大阪府,堺市堺区,大仙中町４－６,,27,141,5900801,,,,,,,2022-04-05,1,,,,,カワムラセツビ,0
1228,5120901045787,新規,0,2022-04-05,2022-04-05,株式会社翔陽,,株式会社,大阪府,高槻市,唐崎中１丁目１番１号,,27,207,5690832,,,,,,,2022-04-05,1,,,,,ショウヨウ,0
1231,5120903004097,新規,0,2022-04-05,2022-04-05,合同会社ｎａｌｕ,,合同会社,大阪府,高槻市,弥生が丘町１２番５号,,27,207,5691021,,,,,,,2022-04-05,1,,,,,ナル,0
1232,5120905006307,新規,0,2022-04-05,2022-04-05,一般社団法人福祉サービスよってんか,,その他の設立登記法人,大阪府,箕面市,萱野１丁目８番２０号,,27,220,5620014,,,,,,,2022-04-05,1,,,,,フクシサービスヨッテンカ,0
1234,5130001071452,新規,0,2022-04-05,2022-04-05,Ｏ’ｓ電気工事株式会社,,株式会社,京都府,京都市右京区,梅津南上田町１１番地,,26,108,6150913,,,,,,,2022-04-05,1,,,,,オズデンキコウジ,0
1242,5140001125521,新規,0,2022-04-05,2022-04-05,株式会社エコマーケット,,株式会社,兵庫県,神戸市中央区,元町通４丁目１番１０号光明ビル２Ｆ,,28,110,6500022,,,,,,,2022-04-05,1,,,,,エコマーケット,0
1249,5140003017543,新規,0,2022-04-05,2022-04-05,合同会社みずいろ不動産,,合同会社,兵庫県,南あわじ市,榎列小榎列２３８番地５,,28,224,6560425,,,,,,,2022-04-05,1,,,,,ミズイロフドウサン,0
1250,5140005026113,新規,0,2022-04-05,2022-04-05,一般社団法人ＰＩＥＣＥ　ＯＦ　ＷＯＯＤ,,その他の設立登記法人,兵庫県,丹波市,春日町黒井１８２５番地１,,28,223,6694141,,,,,,,2022-04-05,1,,,,,ピースオブウッド,0
1253,5170001017047,新規,0,2022-04-05,2022-04-05,株式会社松下アグリアクト,,株式会社,和歌山県,岩出市,高塚９３番地,,30,209,6496223,,,,,,,2022-04-05,1,,,,,マツシタアグリアクト,0
1259,5180001150631,新規,0,2022-04-05,2022-04-05,株式会社ＯＦＦＩＣＥ　ＯＮＥ,,株式会社,愛知県,名古屋市中区,丸の内ニ丁目１４番４号エグゼ丸の内８階,,23,106,4600000,,,,,,,2022-04-05,1,,,,,オフィスワン,0
1260,5180001150672,新規,0,2022-04-05,2022-04-05,株式会社ＡＤＯ,,株式会社,愛知県,名古屋市中区,錦３丁目１３番１５号,,23,106,4600003,,,,,,,2022-04-05,1,,,,,アド,0
1261,5180001150680,新規,0,2022-04-05,2022-04-05,ＴｒａｎｓＦｕｔｕｒｅｓ株式会社,,株式会社,愛知県,名古屋市東区,葵１丁目１６番３８号,,23,102,4610004,,,,,,,2022-04-05,1,,,,,トランスフューチャーズ,0
1262,5180001150706,新規,0,2022-04-05,2022-04-05,株式会社ジャスト・アップ,,株式会社,愛知県,名古屋市西区,天塚町４丁目６１番地の２,,23,104,4510021,,,,,,,2022-04-05,1,,,,,ジャストアップ,0
1263,5180001150771,新規,0,2022-04-05,2022-04-05,ハチドリエンヂニアリング株式会社,,株式会社,愛知県,名古屋市瑞穂区,柳ケ枝町１丁目２３番地の６,,23,108,4670825,,,,,,,2022-04-05,1,,,,,ハチドリエンヂニアリング,0
1266,5180003023678,新規,0,2022-04-05,2022-04-05,合同会社Ｏｎｌｙ１,,合同会社,愛知県,名古屋市天白区,中平５丁目１３０６番地（サンファミールうさみ２０２号）,,23,116,4680014,,,,,,,2022-04-05,1,,,,,オンリーワン,0
1267,5180003023686,新規,0,2022-04-05,2022-04-05,キヨクリ合同会社,,合同会社,愛知県,小牧市,常普請３丁目１１５番地,,23,219,4850044,,,,,,,2022-04-05,1,,,,,キヨクリ,0
1268,5180005019724,新規,0,2022-04-05,2022-04-05,ＳＢＮ社会保険労務士法人,,その他の設立登記法人,愛知県,名古屋市熱田区,三本松町７番１号,,23,109,4560032,,,,,,,2022-04-05,1,,,,,エスビーエヌ,0
1269,5180301036068,新規,0,2022-04-05,2022-04-05,株式会社Ｆ‐ＷＯＲＫＳ,,株式会社,愛知県,豊田市,東山町５丁目１３１０番地１５,,23,211,4710014,,,,,,,2022-04-05,1,,,,,エフワークス,0
1271,5190001029271,新規,0,2022-04-05,2022-04-05,ケーアカウント株式会社,,株式会社,三重県,四日市市,諏訪栄町５番４号,,24,202,5100086,,,,,,,2022-04-05,1,,,,,ケーアカウント,0
1274,5200001039905,新規,0,2022-04-05,2022-04-05,株式会社宮本ユニット設備,,株式会社,岐阜県,羽島市,竹鼻町蜂尻５１０番地,,21,209,5016235,,,,,,,2022-04-05,1,,,,,ミヤモトユニットセツビ,0
1275,5200001039921,新規,0,2022-04-05,2022-04-05,ｙｏｌｉｔａｓホールディングス株式会社,,株式会社,岐阜県,羽島郡岐南町,伏屋１丁目３５番地,,21,302,5016006,,,,,,,2022-04-05,1,,,,,ヨリタスホールディングス,0
1278,5220001024780,新規,0,2022-04-05,2022-04-05,株式会社人形の堀川,,株式会社,石川県,金沢市,問屋町１丁目３４番地,,17,201,9200061,,,,,,,2022-04-05,1,,,,,ニンギョウノホリカワ,0
1279,5220003003254,新規,0,2022-04-05,2022-04-05,合同会社金谷緑舎,,合同会社,石川県,金沢市,昭和町２１番１０－１５０２号,,17,201,9200856,,,,,,,2022-04-05,1,,,,,カナヤリョクシャ,0
1283,5240001059577,新規,0,2022-04-05,2022-04-05,株式会社ＯＥコーポレーション,,株式会社,広島県,広島市安佐北区,口田南３丁目２０番１８号,,34,106,7391733,,,,,,,2022-04-05,1,,,,,オーエコーポレーション,0
1285,5240003005579,新規,0,2022-04-05,2022-04-05,合同会社ＡＩＭ　Ｂｅｅ,,合同会社,広島県,広島市安佐北区,口田南９丁目１番２４号,,34,106,7391733,,,,,,,2022-04-05,1,,,,,エイムビー,0
1291,5260001036707,新規,0,2022-04-05,2022-04-05,株式会社さとう紅商店,,株式会社,岡山県,高梁市,成羽町吹屋１１０８,,33,209,7192341,,,,,,,2022-04-05,1,,,,,サトウベニショウテン,0
1292,5260001036715,新規,0,2022-04-05,2022-04-05,株式会社ＢＥＲＩＯＮ,,株式会社,岡山県,岡山市北区,下石井１丁目１－１７アクロスキューブビル２Ｆ／３Ｆ,,33,101,7000907,,,,,,,2022-04-05,1,,,,,ベリオン,0
1303,5290003012364,新規,0,2022-04-05,2022-04-05,合同会社ＤｅｎｔＬａｂ,,合同会社,福岡県,大牟田市,大字吉野６１９－１６,,40,202,8370904,,,,,,,2022-04-05,1,,,,,デントラボ,0
1309,5310001017800,新規,0,2022-04-05,2022-04-05,株式会社Ｔｏ　ａ　Ｂｒｉｇｈｔ　Ｆｕｔｕｒｅ,,株式会社,長崎県,大村市,植松２丁目４３７番地２３,,42,205,8560027,,,,,,,2022-04-05,1,,,,,トゥーアブライトフューチャー,0
1310,5310003004318,新規,0,2022-04-05,2022-04-05,合同会社Ｚ．ｉ．ｃｏｍｐａｎｙ,,合同会社,長崎県,長崎市,蚊焼町１９４番地３,,42,201,8510401,,,,,,,2022-04-05,1,,,,,ジアイカンパニー,0
1317,5340003003746,新規,0,2022-04-05,2022-04-05,ヘッジホッグ．ｅｘｅ合同会社,,合同会社,鹿児島県,鹿児島市,東千石町２―１３山王ビル２０１Ｓｗｉｔｃｈ,,46,201,8920842,,,,,,,2022-04-05,1,,,,,ヘッジホッグエグゼ,0
1325,5370001048410,新規,0,2022-04-05,2022-04-05,ＨＫ株式会社,,株式会社,宮城県,仙台市太白区,長町７丁目２０－３ザ・モール仙台長町３Ｆ,,04,104,9820011,,,,,,,2022-04-05,1,,,,,エイチケー,0
1330,5380001032719,新規,0,2022-04-05,2022-04-05,株式会社あぶくま物流,,株式会社,福島県,郡山市,安積町日出山字大洲河原１２０番２,,07,203,9630101,,,,,,,2022-04-05,1,,,,,アブクマブツリュウ,0
1333,5390001016844,新規,0,2022-04-05,2022-04-05,株式会社ＫＵＭＩＨＩＭＯ,,株式会社,山形県,東村山郡山辺町,緑ケ丘６丁目８番地１１,,06,301,9900302,,,,,,,2022-04-05,1,,,,,クミヒモ,0
1334,5390001016852,新規,0,2022-04-05,2022-04-05,株式会社ＢＵＩＬＤ　ＲＩＳＥ,,株式会社,山形県,最上郡金山町,大字金山字荒屋３２３番地６,,06,361,9995402,,,,,,,2022-04-05,1,,,,,ビルドライズ,0
1342,5430001086338,新規,0,2022-04-05,2022-04-05,株式会社カバラット,,株式会社,北海道,札幌市北区,北七条西４丁目１－１東カン札幌駅前ビル７０７,,01,102,0600807,,,,,,,2022-04-05,1,,,,,カバラット,0
1343,5430001086346,新規,0,2022-04-05,2022-04-05,株式会社ｈｏｌｏｍｕａ,,株式会社,北海道,札幌市白石区,菊水三条４丁目３－１－１００５,,01,104,0030803,,,,,,,2022-04-05,1,,,,,ホロムア,0
1346,5450003002191,新規,0,2022-04-05,2022-04-05,合同会社モビリティ,,合同会社,北海道,旭川市,北門町１９丁目２１７１番地の１６１Ｈ・Ｋ北門２０５号室,,01,204,0700825,,,,,,,2022-04-05,1,,,,,モビリティ,0
1348,5460101007174,新規,0,2022-04-05,2022-04-05,株式会社ファームパートナー,,株式会社,北海道,帯広市,緑ケ丘一条通５丁目３番地５,,01,207,0800841,,,,,,,2022-04-05,1,,,,,ファームパートナー,0
1354,5480003001810,新規,0,2022-04-05,2022-04-05,ＴＳＫフーズ合同会社,,合同会社,徳島県,美馬郡つるぎ町,貞光字小山北１１５番地３,,36,468,7794104,,,,,,,2022-04-05,1,,,,,ティーエスケーフーズ,0
1355,5500001024100,新規,0,2022-04-05,2022-04-05,株式会社桧垣設備,,株式会社,愛媛県,今治市,国分６丁目４番２６号,,38,202,7991533,,,,,,,2022-04-05,1,,,,,ヒガキセツビ,0
1366,6010001225589,新規,0,2022-04-05,2022-04-05,Ｄｒｏｎｅ　Ｅｄｕ　Ｇａｒｄｅｎ株式会社,,株式会社,東京都,中央区,銀座１丁目２２番１１号銀座大竹ビジデンス２階,,13,102,1040061,,,,,,,2022-04-05,1,,,,,ドローンエデュガーデン,0
1369,6010101015130,新規,0,2022-04-05,2022-04-05,アークザプラス株式会社,,株式会社,東京都,八王子市,東町１２－８長澤ビル４階,,13,201,1920082,,,,,,,2022-04-05,1,,,,,,0
1375,6010401166549,新規,0,2022-04-05,2022-04-05,株式会社Ｑ＆Ｄ　ｄａｔａ,,株式会社,東京都,港区,東麻布１丁目９番１１号,,13,103,1060044,,,,,,,2022-04-05,1,,,,,キューアンドディーデータ,0
1376,6010401166573,新規,0,2022-04-05,2022-04-05,株式会社Ｈ２,,株式会社,東京都,港区,愛宕１丁目３番２－１６０２号,,13,103,1050002,,,,,,,2022-04-05,1,,,,,エイチツー,0
1377,6010401166607,新規,0,2022-04-05,2022-04-05,株式会社ＬＤＣ,,株式会社,東京都,港区,芝大門２丁目２番１号ＡＣＮ芝大門ビルディング６階,,13,103,1050012,,,,,,,2022-04-05,1,,,,,エルディーシー,0
1378,6010401166623,新規,0,2022-04-05,2022-04-05,ソニーモビリティ株式会社,,株式会社,東京都,港区,港南１丁目７番１号,,13,103,1080075,,,,,,,2022-04-05,1,,,,,ソニーモビリティ,0
1379,6010401166672,新規,0,2022-04-05,2022-04-05,株式会社Ｂｅｙｏｎｄ　Ｒｅｓｅａｒｃｈ,,株式会社,東京都,港区,六本木７丁目２１番２４号ＴＨＥＭＯＤＵＬＥｒｏｐｐｏｎｎｇｉ４階,,13,103,1060032,,,,,,,2022-04-05,1,,,,,ビヨンドリサーチ,0
1380,6010401166680,新規,0,2022-04-05,2022-04-05,ナノプロテクト株式会社,,株式会社,東京都,港区,六本木５丁目１３番１２号,,13,103,1060032,,,,,,,2022-04-05,1,,,,,ナノプロテクト,0
1393,6010901050640,新規,0,2022-04-05,2022-04-05,株式会社サンサイド,,株式会社,東京都,世田谷区,代田４丁目３５番８号,,13,112,1550033,,,,,,,2022-04-05,1,,,,,サンサイド,0
1395,6011001146668,新規,0,2022-04-05,2022-04-05,株式会社Ｂｉｉｍｅ,,株式会社,東京都,渋谷区,道玄坂１丁目１０－８渋谷道玄坂東急ビル２Ｆ－Ｃ,,13,113,1500043,,,,,,,2022-04-05,1,,,,,ビーミー,0
1396,6011001146701,新規,0,2022-04-05,2022-04-05,株式会社歩,,株式会社,東京都,目黒区,柿の木坂１丁目４番３号パームヒルズ柿の木坂３Ａ,,13,110,1520022,,,,,,,2022-04-05,1,,,,,フ,0
1397,6011001146718,新規,0,2022-04-05,2022-04-05,株式会社ホロズ,,株式会社,東京都,渋谷区,道玄坂１丁目１０番８号渋谷道玄坂東急ビル２Ｆ‐Ｃ,,13,113,1500043,,,,,,,2022-04-05,1,,,,,ホロズ,0
1398,6011001146726,新規,0,2022-04-05,2022-04-05,株式会社Ｇｌｉｔｚ　Ｖｉｓｕａｌｓ,,株式会社,東京都,渋谷区,道玄坂１丁目１０番８号渋谷道玄坂東急ビル２Ｆ－Ｃ,,13,113,1500043,,,,,,,2022-04-05,1,,,,,グリッツビジュアルズ,0
1407,6011101098339,新規,0,2022-04-05,2022-04-05,株式会社月影堂,,株式会社,東京都,新宿区,西早稲田１丁目１１－５山田ビル３０５,,13,104,1690051,,,,,,,2022-04-05,1,,,,,ゲツエイドウ,0
1409,6011105010209,新規,0,2022-04-05,2022-04-05,一般社団法人Ｍｅｔａ　Ｃｏｍｍｕｎｉｃａｔｉｏｎ　Ｃｏｌｌｅｇｅ,,その他の設立登記法人,東京都,新宿区,新宿１丁目３６番２号新宿第七葉山ビル３階,,13,104,1600022,,,,,,,2022-04-05,1,,,,,メタコミュニケーションカレッジ,0
1412,6011301027691,新規,0,2022-04-05,2022-04-05,株式会社美術刀剣みらい,,株式会社,東京都,杉並区,高円寺北２丁目３番１０号ボヌール高円寺１０１,,13,115,1660002,,,,,,,2022-04-05,1,,,,,ビジュツトウケンミライ,0
1414,6011601025825,新規,0,2022-04-05,2022-04-05,株式会社本吉商事,,株式会社,東京都,練馬区,南大泉４丁目５１番３号,,13,120,1780064,,,,,,,2022-04-05,1,,,,,モトヨシショウジ,0
1415,6011601025858,新規,0,2022-04-05,2022-04-05,株式会社エフォート,,株式会社,東京都,練馬区,平和台１丁目２９番１９号,,13,120,1790083,,,,,,,2022-04-05,1,,,,,エフォート,0
1417,6011701025188,新規,0,2022-04-05,2022-04-05,ＭＪＧＡ株式会社,,株式会社,東京都,江戸川区,東葛西１丁目４番１１号東葛西グリーンホームズ７０３号,,13,123,1340084,,,,,,,2022-04-05,1,,,,,エムジェージーエー,0
1419,6011802031052,新規,0,2022-04-05,2022-04-05,日賀野金属工業有限会社,,有限会社,東京都,葛飾区,柴又４丁目２１番１２号,,13,122,1250052,,,,,,,2022-04-05,1,,,,,ヒガノキンゾクコウギョウ,0
1420,6011803005030,新規,0,2022-04-05,2022-04-05,Ａべすとあぐり合同会社,,合同会社,東京都,足立区,中央本町５丁目９番８－３０６号,,13,121,1210011,,,,,,,2022-04-05,1,,,,,エイベストアグリ,0
1431,6020001145877,新規,0,2022-04-05,2022-04-05,株式会社Ｔｒｉｎｉｔｙ　Ｄｉｎｉｎｇ,,株式会社,神奈川県,横浜市磯子区,滝頭２丁目２番４号,,14,107,2350012,,,,,,,2022-04-05,1,,,,,トリニティーダイニング,0
1432,6020001145893,新規,0,2022-04-05,2022-04-05,株式会社イレストジャパン,,株式会社,神奈川県,横浜市泉区,和泉町９６３番地３,,14,116,2450016,,,,,,,2022-04-05,1,,,,,イレストジャパン,0
1434,6020003021523,新規,0,2022-04-05,2022-04-05,合同会社ＬＩＦＩＡ,,合同会社,神奈川県,横浜市港北区,綱島東２丁目１番１０－６０３号,,14,109,2230052,,,,,,,2022-04-05,1,,,,,リフィア,0
1437,6021003011555,新規,0,2022-04-05,2022-04-05,合同会社安全安心防災,,合同会社,神奈川県,藤沢市,本町２丁目７番６号,,14,205,2510053,,,,,,,2022-04-05,1,,,,,アンゼンアンシンボウサイ,0
1439,6030001147518,新規,0,2022-04-05,2022-04-05,株式会社岳屋,,株式会社,埼玉県,朝霞市,浜崎４丁目３番３号エクセル浜崎３０５号,,11,227,3510033,,,,,,,2022-04-05,1,,,,,タケヤ,0
1440,6030001147534,新規,0,2022-04-05,2022-04-05,株式会社モテギ電器,,株式会社,埼玉県,熊谷市,妻沼１７２０－８,,11,202,3600201,,,,,,,2022-04-05,1,,,,,モテギデンキ,0
1444,6030005020778,新規,0,2022-04-05,2022-04-05,一般社団法人ごきげんらいふ協会,,その他の設立登記法人,埼玉県,さいたま市大宮区,桜木町４丁目７０８渋谷ビル２階,,11,103,3300854,,,,,,,2022-04-05,1,,,,,ゴキゲンライフキョウカイ,0
1445,6030005020786,新規,0,2022-04-05,2022-04-05,医療法人陽悠会,,その他の設立登記法人,埼玉県,八潮市,大瀬５丁目１番地１５さいゆう３ｒｄヴィレッジ１階,,11,234,3400822,,,,,,,2022-04-05,1,,,,,ヨウユウカイ,0
1448,6040001122858,新規,0,2022-04-05,2022-04-05,ＣＡＰ株式会社,,株式会社,千葉県,千葉市中央区,道場南２丁目１番２６－２号,,12,101,2600005,,,,,,,2022-04-05,1,,,,,シーエーピー,0
1449,6040001122890,新規,0,2022-04-05,2022-04-05,株式会社ＹＢＭ,,株式会社,千葉県,市川市,南行徳１丁目２２番２９－２０１号,,12,203,2720138,,,,,,,2022-04-05,1,,,,,ワイビイエム,0
1450,6040003019821,新規,0,2022-04-05,2022-04-05,合同会社ホスタロジャパン,,合同会社,千葉県,千葉市中央区,富士見２丁目７番９号富士見ビル６０９号,,12,101,2600015,,,,,,,2022-04-05,1,,,,,ホスタロジャパン,0
1453,6060001034713,新規,0,2022-04-05,2022-04-05,株式会社ＫＫＫ,,株式会社,栃木県,宇都宮市,西原町１６５番地２ヒルズＭ１－７０４号室,,09,201,3200826,,,,,,,2022-04-05,1,,,,,ケーケーケー,0
1455,6080001024836,新規,0,2022-04-05,2022-04-05,株式会社さいとう動物病院,,株式会社,静岡県,藤枝市,上藪田７６番地の９,,22,214,4260202,,,,,,,2022-04-05,1,,,,,サイトウドウブツビョウイン,0
1458,6080101023201,新規,0,2022-04-05,2022-04-05,株式会社フジコー,,株式会社,静岡県,富士市,比奈２３４８番地の７,,22,210,4170847,,,,,,,2022-04-05,1,,,,,フジコー,0
1461,6080103002566,新規,0,2022-04-05,2022-04-05,合同会社パシビア,,合同会社,静岡県,伊東市,川奈１２２８‐２２３,,22,208,4140044,,,,,,,2022-04-05,1,,,,,パシビア,0
1462,6080401025715,新規,0,2022-04-05,2022-04-05,株式会社ウッドベル,,株式会社,静岡県,浜松市東区,有玉南町５６５番地の３,,22,132,4313122,,,,,,,2022-04-05,1,,,,,ウッドベル,0
1465,6090001017500,新規,0,2022-04-05,2022-04-05,株式会社小林Ｗｅｌｄｉｎｇ,,株式会社,山梨県,甲府市,大和町２番７号３０３,,19,201,4000072,,,,,,,2022-04-05,1,,,,,コバヤシウェルディング,0
1469,6100001035194,新規,0,2022-04-05,2022-04-05,株式会社エルピック,,株式会社,長野県,飯田市,松尾明７５２１番地１,,20,205,3950823,,,,,,,2022-04-05,1,,,,,エルピック,0
1470,6100001035211,新規,0,2022-04-05,2022-04-05,信州くだもの村富永農園株式会社,,株式会社,長野県,上伊那郡中川村,葛島２６０１番地,,20,386,3993803,,,,,,,2022-04-05,1,,,,,シンシュウクダモノムラトミナガノウエン,0
1471,6100001035228,新規,0,2022-04-05,2022-04-05,株式会社マルシン建設興業,,株式会社,長野県,諏訪郡富士見町,落合９９８４番地８０,,20,362,3990214,,,,,,,2022-04-05,1,,,,,マルシンケンセツコウギョウ,0
1472,6100001035236,新規,0,2022-04-05,2022-04-05,株式会社ハレトケト,,株式会社,長野県,上伊那郡箕輪町,大字東箕輪３２９５番地２夢まちＬａｂｏ半個室１,,20,383,3994602,,,,,,,2022-04-05,1,,,,,ハレトケト,0
1475,6110001036563,新規,0,2022-04-05,2022-04-05,株式会社ナカショク・フードリサイクル,,株式会社,新潟県,胎内市,清水９番地１１８,,15,227,9592600,,,,,,,2022-04-05,1,,,,,ナカショクフードリサイクル,0
1487,6120001244818,新規,0,2022-04-05,2022-04-05,智通株式会社,,株式会社,大阪府,大阪市住吉区,清水丘２丁目１番１３号,,27,120,5580033,,,,,,,2022-04-05,1,,,,,チツウ,0
1488,6120001244842,新規,0,2022-04-05,2022-04-05,株式会社中村建装,,株式会社,大阪府,大阪市城東区,関目６丁目１４番Ｂ－４１０号,,27,118,5360008,,,,,,,2022-04-05,1,,,,,ナカムラケンソウ,0
1489,6120001244900,新規,0,2022-04-05,2022-04-05,株式会社ｐａｃｅｂｏｘ,,株式会社,大阪府,大阪市淀川区,西中島５丁目１１番８号,,27,123,5320011,,,,,,,2022-04-05,1,,,,,ペースボックス,0
1490,6120001244933,新規,0,2022-04-05,2022-04-05,株式会社ラグレス,,株式会社,大阪府,寝屋川市,萱島南町１３番３０号,,27,215,5720825,,,,,,,2022-04-05,1,,,,,ラグレス,0
1491,6120001244941,新規,0,2022-04-05,2022-04-05,株式会社Ｃａｍｂｉｏ,,株式会社,大阪府,大阪市生野区,巽中２丁目５－１４クリエオーレ巽中ＩＩ３０１,00126151,27,116,5440013,,,,,,,2022-04-05,1,,,,,カンビオ,0
1492,6120003021397,新規,0,2022-04-05,2022-04-05,合同会社ダブルデザインワーク,,合同会社,大阪府,大阪市中央区,北浜東１番２９号３階,,27,128,5400031,,,,,,,2022-04-05,1,,,,,ダブルデザインワーク,0
1494,6120101065271,新規,0,2022-04-05,2022-04-05,ｍｕｋｏ　ａｎｄ株式会社,,株式会社,大阪府,泉佐野市,中庄２８９番地の２,,27,213,5980002,,,,,,,2022-04-05,1,,,,,ムコアンド,0
1495,6120101065313,新規,0,2022-04-05,2022-04-05,清明株式会社,,株式会社,大阪府,羽曳野市,高鷲１０丁目１６番－１０１号,,27,222,5830882,,,,,,,2022-04-05,1,,,,,セイメイ,0
1496,6120102029069,新規,0,2022-04-05,2022-04-05,鶴紋織物有限会社,,有限会社,大阪府,泉佐野市,日根野６７２番地,,27,213,5980021,,,,,,,2022-04-05,1,,,,,ツルモンオリモノ,0
1498,6120901045786,新規,0,2022-04-05,2022-04-05,株式会社Ａｃｈｉｅｖｅ,,株式会社,大阪府,豊中市,庄内幸町２丁目２０番７－１０１号,,27,203,5610833,,,,,,,2022-04-05,1,,,,,アチーブ,0
1499,6120901045811,新規,0,2022-04-05,2022-04-05,株式会社シークス,,株式会社,大阪府,吹田市,南金田２丁目２３番地２号クレヴィア江坂１０２号,,27,205,5640044,,,,,,,2022-04-05,1,,,,,シークス,0
1501,6120903004096,新規,0,2022-04-05,2022-04-05,合同会社ＴＭコンサル,,合同会社,大阪府,箕面市,小野原東２丁目５番４８号,,27,220,5620031,,,,,,,2022-04-05,1,,,,,ティーエムコンサル,0
1502,6120905006306,新規,0,2022-04-05,2022-04-05,一般社団法人オタクは地球を救う,,その他の設立登記法人,大阪府,高槻市,日吉台六番町５７番１４号,,27,207,5691022,,,,,,,2022-04-05,1,,,,,オタクハチキュウヲスクウ,0
1513,6140001125396,新規,0,2022-04-05,2022-04-05,株式会社ＯＮＥ淡路,,株式会社,兵庫県,洲本市,大野４６番地１東側,,28,205,6560055,,,,,,,2022-04-05,1,,,,,ワンアワジ,0
1515,6140003017526,新規,0,2022-04-05,2022-04-05,合同会社明石ＳＳＴラボ,,合同会社,兵庫県,明石市,大久保町大窪２１４－５,,28,203,6740051,,,,,,,2022-04-05,1,,,,,アカシエスエスティーラボ,0
1517,6150003002659,新規,0,2022-04-05,2022-04-05,合同会社植西総合研究所,,合同会社,奈良県,奈良市,西大寺新町１丁目７番８号,,29,201,6310815,,,,,,,2022-04-05,1,,,,,ウエニシソウゴウケンキュウショ,0
1519,6160003002526,新規,0,2022-04-05,2022-04-05,合同会社ＫＩ,,合同会社,滋賀県,東近江市,五個荘石塚町２３番地,00126146,25,213,5291444,,,,,,,2022-04-05,1,,,,,ケイアイ,0
1521,6170001017046,新規,0,2022-04-05,2022-04-05,株式会社ＲＡＭＹ,,株式会社,和歌山県,岩出市,中迫５１５番地,,30,209,6496215,,,,,,,2022-04-05,1,,,,,ラミー,0
1524,6180001150630,新規,0,2022-04-05,2022-04-05,スマイル株式会社,,株式会社,愛知県,名古屋市港区,川西通３丁目１１番地,,23,111,4550073,,,,,,,2022-04-05,1,,,,,スマイル,0
1525,6180001150705,新規,0,2022-04-05,2022-04-05,株式会社アサモ,,株式会社,愛知県,名古屋市守山区,中新１０番８号,,23,113,4630057,,,,,,,2022-04-05,1,,,,,アサモ,0
1526,6180001150754,新規,0,2022-04-05,2022-04-05,株式会社ＡＫＥＣＨＩ,,株式会社,愛知県,名古屋市中村区,名駅３丁目１８番５号,,23,105,4500002,,,,,,,2022-04-05,1,,,,,アケチ,0
1527,6180001150779,新規,0,2022-04-05,2022-04-05,株式会社ダイキワークス,,株式会社,愛知県,大府市,長根町２丁目３０９番地コーポ井村Ａ２０３号,,23,223,4740021,,,,,,,2022-04-05,1,,,,,ダイキワークス,0
1531,6180003023677,新規,0,2022-04-05,2022-04-05,合同会社ｆｉｇ,,合同会社,愛知県,春日井市,上条町３丁目２４４プラウドタワー春日井９０６,,23,206,4860833,,,,,,,2022-04-05,1,,,,,エフアイジー,0
1532,6180301036067,新規,0,2022-04-05,2022-04-05,株式会社アイシン・アフターサービス,,株式会社,愛知県,刈谷市,朝日町２丁目１番地,,23,210,4480032,,,,,,,2022-04-05,1,,,,,アイシンアフターサービス,0
1536,6200001039920,新規,0,2022-04-05,2022-04-05,株式会社河本屋,,株式会社,岐阜県,大垣市,池尻町９３７番地３,,21,202,5032204,,,,,,,2022-04-05,1,,,,,カワモトヤ,0
1537,6200001039929,新規,0,2022-04-05,2022-04-05,株式会社ライスアイランド,,株式会社,岐阜県,岐阜市,香取町３丁目３６番地,,21,201,5008322,,,,,,,2022-04-05,1,,,,,ライスアイランド,0
1545,6220001024771,新規,0,2022-04-05,2022-04-05,株式会社アール,,株式会社,石川県,金沢市,松島２丁目５８番地（イーハトーブ宙・１０２号）,,17,201,9200364,,,,,,,2022-04-05,1,,,,,アール,0
1547,6240001059576,新規,0,2022-04-05,2022-04-05,ＵＮＩＶＥＲＳＥ株式会社,,株式会社,広島県,福山市,御幸町中津原１８８８番地１３,,34,207,7210000,,,,,,,2022-04-05,1,,,,,ユニバース,0
1550,6240003005578,新規,0,2022-04-05,2022-04-05,合同会社ｆｌａｗｌｅｓｓ,,合同会社,広島県,広島市中区,竹屋町７番２０－１０３号,,34,101,7300048,,,,,,,2022-04-05,1,,,,,フローレス,0
1564,6290001097043,新規,0,2022-04-05,2022-04-05,株式会社プロテック,,株式会社,福岡県,福岡市中央区,天神３丁目９番１０号,,40,133,8100001,,,,,,,2022-04-05,1,,,,,プロテック,0
1565,6290001097101,新規,0,2022-04-05,2022-04-05,株式会社Ｋｓ,,株式会社,福岡県,筑後市,大字一条５８０番地２,,40,211,8330001,,,,,,,2022-04-05,1,,,,,ケーエス,0
1570,6290003012363,新規,0,2022-04-05,2022-04-05,合同会社マイマイＳＵＮ,,合同会社,福岡県,福岡市城南区,友丘１丁目１２番４号,,40,136,8140112,,,,,,,2022-04-05,1,,,,,マイマイサン,0
1571,6290003012371,新規,0,2022-04-05,2022-04-05,合同会社せんば,,合同会社,福岡県,宗像市,東郷５丁目１４番１８号,,40,220,8113436,,,,,,,2022-04-05,1,,,,,センバ,0
1574,6290801028395,新規,0,2022-04-05,2022-04-05,株式会社ＳＴＥＥＬ．ＯＮＥ,,株式会社,福岡県,北九州市若松区,大字安瀬６４－２８,,40,103,8080022,,,,,,,2022-04-05,1,,,,,スティールワン,0
1575,6300001012867,新規,0,2022-04-05,2022-04-05,株式会社山口畜産,,株式会社,佐賀県,唐津市,肥前町大浦９８番地,,41,202,8471506,,,,,,,2022-04-05,1,,,,,ヤマグチチクサン,0
1577,6310001017808,新規,0,2022-04-05,2022-04-05,ｓｉｎｕｓ　ｒｈｙｔｈｍ株式会社,,株式会社,長崎県,佐世保市,小佐々町臼ノ浦５３９番地５１,,42,202,8570403,,,,,,,2022-04-05,1,,,,,サイナスリズム,0
1578,6310003004317,新規,0,2022-04-05,2022-04-05,合同会社Ｋ．Ｋ．Ｃｏｍｐａｎｙ,,合同会社,長崎県,長崎市,西海町１７２６番地９,,42,201,8513101,,,,,,,2022-04-05,1,,,,,ケイケイカンパニー,0
1581,6310005008605,新規,0,2022-04-05,2022-04-05,一般社団法人長崎みんな総研,,その他の設立登記法人,長崎県,長崎市,浜町１１番１９号ＯＩＤＥＯＩＤＥビル３Ｆ,,42,201,8500853,,,,,,,2022-04-05,1,,,,,ナガサキミンナソウケン,0
1589,6340001024628,新規,0,2022-04-05,2022-04-05,株式会社ＳＡＣ,,株式会社,鹿児島県,鹿児島市,紫原５丁目２番１号,,46,201,8900082,,,,,,,2022-04-05,1,,,,,エスエーシー,0
1590,6340005009443,新規,0,2022-04-05,2022-04-05,一般社団法人天文館みらいマネジメント,,その他の設立登記法人,鹿児島県,鹿児島市,中町３番１０号,,46,201,8920827,,,,,,,2022-04-05,1,,,,,テンモンカンミライマネジメント,0
1594,6350001017671,新規,0,2022-04-05,2022-04-05,株式会社土居電気工事,,株式会社,宮崎県,日南市,北郷町郷之原甲２５５番地１,,45,204,8892402,,,,,,,2022-04-05,1,,,,,ドイデンキコウジ,0
1606,6390001016851,新規,0,2022-04-05,2022-04-05,株式会社西山空調,,株式会社,山形県,上山市,東町９番６号,,06,207,9993121,,,,,,,2022-04-05,1,,,,,ニシヤマクウチョウ,0
1608,6390003001942,新規,0,2022-04-05,2022-04-05,未来を創る合同会社,,合同会社,山形県,山形市,みはらしの丘１丁目５番地４,,06,201,9902317,,,,,,,2022-04-05,1,,,,,ミライヲツクル,0
1612,6400001015843,新規,0,2022-04-05,2022-04-05,株式会社サン,,株式会社,岩手県,大船渡市,盛町字権現堂２２番地３,,03,203,0220003,,,,,,,2022-04-05,1,,,,,サン,0
1621,6410001013136,新規,0,2022-04-05,2022-04-05,株式会社ＡＢｉＬｉＴＹ,,株式会社,秋田県,秋田市,大住３丁目１２番１０号,,05,201,0101436,,,,,,,2022-04-05,1,,,,,アビリティ,0
1626,6450001013652,新規,0,2022-04-05,2022-04-05,株式会社徳田ヤーマン漁業,,株式会社,北海道,稚内市,宗谷岬５番１４号,,01,214,0986758,,,,,,,2022-04-05,1,,,,,トクタヤーマンギョギョウ,0
1631,6460103001439,新規,0,2022-04-05,2022-04-05,グッドみらい合同会社,,合同会社,北海道,帯広市,西十六条南２９丁目３番７,,01,207,0800026,,,,,,,2022-04-05,1,,,,,グッドミライ,0
1635,6500001024099,新規,0,2022-04-05,2022-04-05,株式会社たんぽぽ不動産,,株式会社,愛媛県,喜多郡内子町,内子１６２４番地,,38,422,7913301,,,,,,,2022-04-05,1,,,,,タンポポフドウサン,0
1636,6500001024116,新規,0,2022-04-05,2022-04-05,株式会社永新,,株式会社,愛媛県,新居浜市,八雲町４番５号,,38,205,7920805,,,,,,,2022-04-05,1,,,,,エイシン,0
1637,6500001024124,新規,0,2022-04-05,2022-04-05,株式会社清中測量,,株式会社,愛媛県,大洲市,八多喜町甲１３９５番地１,,38,207,7950041,,,,,,,2022-04-05,1,,,,,キヨナカソクリョウ,0
1638,6500005008478,新規,0,2022-04-05,2022-04-05,一般社団法人中四国地域経済協議会,,その他の設立登記法人,愛媛県,今治市,中浜町４丁目１１６番地,,38,202,7940016,,,,,,,2022-04-05,1,,,,,チュウシコクチイキケイザイキョウギカイ,0
1640,7010001225596,新規,0,2022-04-05,2022-04-05,株式会社サイバープレイ,,株式会社,東京都,千代田区,神田三崎町３丁目１番３号榎本一輝ビル３Ｆ・ＭＩＸＥＲ,,13,101,1010061,,,,,,,2022-04-05,1,,,,,サイバープレイ,0
1641,7010003037395,新規,0,2022-04-05,2022-04-05,マイクロファーム合同会社,,合同会社,東京都,文京区,本駒込２丁目９番３号ハイツサンエイ３０２,,13,105,1130021,,,,,,,2022-04-05,1,,,,,マイクロファーム,0
1642,7010005034795,新規,0,2022-04-05,2022-04-05,一般社団法人ＡＭＡ　ｔｅｒｒａｃｅ,,その他の設立登記法人,東京都,中央区,京橋２丁目２番１号京橋エドグラン１９階,,13,102,1040031,,,,,,,2022-04-05,1,,,,,アマテラス,0
1645,7010105002157,新規,0,2022-04-05,2022-04-05,特定非営利活動法人ゼロフジゼロ,,その他の設立登記法人,東京都,八王子市,元八王子町１丁目３４７番地２,,13,201,1930826,,,,,,,2022-04-05,1,,,,,ゼロフジゼロ,0
1651,7010401166498,新規,0,2022-04-05,2022-04-05,株式会社ＣＨＥＥＲ　ＯＮＥ,,株式会社,東京都,港区,高輪４丁目２３番６号ハイホーム高輪７０８,,13,103,1080074,,,,,,,2022-04-05,1,,,,,チアーワン,0
1652,7010401166564,新規,0,2022-04-05,2022-04-05,株式会社海,,株式会社,東京都,港区,高輪４丁目８番１１号,,13,103,1080074,,,,,,,2022-04-05,1,,,,,ウミ,0
1653,7010401166580,新規,0,2022-04-05,2022-04-05,株式会社品川デザイン,,株式会社,東京都,港区,港南２丁目１８番１号,,13,103,1080075,,,,,,,2022-04-05,1,,,,,シナガワデザイン,0
1656,7010403027401,新規,0,2022-04-05,2022-04-05,パシフィコ・エナジー白山合同会社,,合同会社,東京都,港区,六本木３丁目２番１号六本木グランドタワー,,13,103,1060032,,,,,,,2022-04-05,1,,,,,パシフィコエナジーハクサン,0
1659,7010501048679,新規,0,2022-04-05,2022-04-05,株式会社ＭＡＳＴ　Ｓｏｌｕｔｉｏｎｓ,,株式会社,東京都,台東区,蔵前４丁目１６番４号,,13,106,1110051,,,,,,,2022-04-05,1,,,,,マストソリューションズ,0
1660,7010503006552,新規,0,2022-04-05,2022-04-05,合同会社ＭＩＮＥ,,合同会社,東京都,台東区,下谷３丁目１番３３－７０２号プレシス入谷,,13,106,1100004,,,,,,,2022-04-05,1,,,,,マイン,0
1661,7010601060906,新規,0,2022-04-05,2022-04-05,株式会社レジョイス,,株式会社,東京都,江東区,森下３丁目１番１５号,,13,108,1350004,,,,,,,2022-04-05,1,,,,,レジョイス,0
1664,7010801032853,新規,0,2022-04-05,2022-04-05,ｙｏｇａＭｉｃ株式会社,,株式会社,東京都,大田区,山王３丁目４４番９号,,13,111,1430023,,,,,,,2022-04-05,1,,,,,ヨーガミック,0
1665,7010803004116,新規,0,2022-04-05,2022-04-05,源茂建装合同会社,,合同会社,東京都,大田区,萩中１丁目６番７号第３山田ビル４０７,,13,111,1440047,,,,,,,2022-04-05,1,,,,,ゲンシケンソウ,0
1676,7011001146758,新規,0,2022-04-05,2022-04-05,株式会社３６０ｐｉｃｔ,,株式会社,東京都,渋谷区,渋谷３丁目８番１２号渋谷第一生命ビルディング５階,,13,113,1500002,,,,,,,2022-04-05,1,,,,,サブロクピクト,0
1677,7011003014450,新規,0,2022-04-05,2022-04-05,ＭＵ合同会社,,合同会社,東京都,渋谷区,渋谷２丁目１９番１５号宮益坂ビルディング６０９,,13,113,1500002,,,,,,,2022-04-05,1,,,,,ム,0
1678,7011005009531,新規,0,2022-04-05,2022-04-05,島中司法書士法人,,その他の設立登記法人,東京都,渋谷区,代々木２丁目１５番４号新宿スクエアビル４０２号,,13,113,1510053,,,,,,,2022-04-05,1,,,,,シマナカ,0
1680,7011101098370,新規,0,2022-04-05,2022-04-05,銘智教育株式会社,,株式会社,東京都,新宿区,大久保３丁目１０－１ニュータウンオークボ３２３号室,,13,104,1690072,,,,,,,2022-04-05,1,,,,,メイチキョウイク,0
1681,7011101098395,新規,0,2022-04-05,2022-04-05,株式会社ｆｆ,,株式会社,東京都,新宿区,歌舞伎町２丁目１１番４号,,13,104,1600021,,,,,,,2022-04-05,1,,,,,フォルテッシモ,0
1692,7011601025857,新規,0,2022-04-05,2022-04-05,株式会社アンゼン,,株式会社,東京都,練馬区,上石神井４丁目２番５－１０７号,,13,120,1770044,,,,,,,2022-04-05,1,,,,,アンゼン,0
1693,7011601025865,新規,0,2022-04-05,2022-04-05,株式会社プロスパートナーズコンサルティング,,株式会社,東京都,練馬区,東大泉６丁目８番２号,,13,120,1780063,,,,,,,2022-04-05,1,,,,,プロスパートナーズコンサルティング,0
1694,7011603003563,新規,0,2022-04-05,2022-04-05,合同会社イーアンドシー,,合同会社,東京都,練馬区,桜台３丁目４４番７号,,13,120,1760002,,,,,,,2022-04-05,1,,,,,イーアンドシー,0
1700,7012303001650,新規,0,2022-04-05,2022-04-05,合同会社ＣＴＩＡ,,合同会社,東京都,町田市,成瀬台２丁目３４－１９,,13,209,1940043,,,,,,,2022-04-05,1,,,,,シーティーアイエー,0
1705,7012803002743,新規,0,2022-04-05,2022-04-05,合同会社Ｒｕ　ａｐ,,合同会社,東京都,国立市,東３丁目１０番地の８コンフィデンス高垣１０２,,13,215,1860002,,,,,,,2022-04-05,1,,,,,ルアプ,0
1707,7013101008879,新規,0,2022-04-05,2022-04-05,ブライト株式会社,,株式会社,東京都,福生市,牛浜１３３番地１,,13,218,1970024,,,,,,,2022-04-05,1,,,,,ブライト,0
1711,7020001145934,新規,0,2022-04-05,2022-04-05,株式会社３ｓ,,株式会社,神奈川県,横浜市港北区,小机町１５３８番地２ユナイト小机ステーションクロスビー２０１,,14,109,2220036,,,,,,,2022-04-05,1,,,,,サンズ,0
1712,7020001145950,新規,0,2022-04-05,2022-04-05,株式会社ＭＭＴ,,株式会社,神奈川県,横浜市瀬谷区,本郷３丁目４番地の６,,14,114,2460015,,,,,,,2022-04-05,1,,,,,エムエムティ,0
1713,7020001145967,新規,0,2022-04-05,2022-04-05,株式会社本田商店,,株式会社,神奈川県,川崎市多摩区,南生田２丁目１９番３号,,14,135,2140036,,,,,,,2022-04-05,1,,,,,ホンダショウテン,0
1714,7020001145983,新規,0,2022-04-05,2022-04-05,ＰＢ＆Ｊソリューションズ株式会社,,株式会社,神奈川県,横浜市都筑区,中川中央１丁目３０番１号,,14,118,2240003,,,,,,,2022-04-05,1,,,,,ピービーアンドジェイソリューションズ,0
1715,7020001146008,新規,0,2022-04-05,2022-04-05,五光・Ｇホールディングス株式会社,,株式会社,神奈川県,横浜市瀬谷区,五貫目町２５番１６号,,14,114,2460008,,,,,,,2022-04-05,1,,,,,ゴコウジーホールディングス,0
1722,7021001075618,新規,0,2022-04-05,2022-04-05,株式会社Ｌｉｎｋ,,株式会社,神奈川県,茅ヶ崎市,浜之郷２４５－５,,14,207,2530086,,,,,,,2022-04-05,1,,,,,リンク,0
1733,7030001147525,新規,0,2022-04-05,2022-04-05,株式会社アイフレーム,,株式会社,埼玉県,ふじみ野市,ふじみ野１丁目９番１１－５０８号,,11,245,3560050,,,,,,,2022-04-05,1,,,,,アイフレーム,0
1734,7030001147541,新規,0,2022-04-05,2022-04-05,株式会社Ｏｒｉｖｅｒ,,株式会社,埼玉県,さいたま市大宮区,桜木町２丁目３番地大宮マルイ７階,,11,103,3300854,,,,,,,2022-04-05,1,,,,,オリバー,0
1735,7030001147599,新規,0,2022-04-05,2022-04-05,株式会社やさしいビジネスラボ,,株式会社,埼玉県,上尾市,大字南８番地５,,11,219,3620002,,,,,,,2022-04-05,1,,,,,ヤサシイビジネスラボ,0
1737,7030003019152,新規,0,2022-04-05,2022-04-05,合同会社スタジオ時雨,,合同会社,埼玉県,新座市,野寺４丁目６番地３５,,11,230,3520034,,,,,,,2022-04-05,1,,,,,スタジオシグレ,0
1738,7030003019160,新規,0,2022-04-05,2022-04-05,ウミユリ合同会社,,合同会社,埼玉県,所沢市,松葉町１３番８－１０５号新所沢壱番館,,11,208,3590044,,,,,,,2022-04-05,1,,,,,ウミユリ,0
1741,7040001122816,新規,0,2022-04-05,2022-04-05,株式会社梅谷工業,,株式会社,千葉県,袖ケ浦市,野里１８３５番地１０,,12,229,2990211,,,,,,,2022-04-05,1,,,,,ウメタニコウギョウ,0
1742,7040001122832,新規,0,2022-04-05,2022-04-05,株式会社Ａｎｉ,,株式会社,千葉県,市川市,真間１丁目１５番３号,,12,203,2720826,,,,,,,2022-04-05,1,,,,,アニ,0
1743,7040001122873,新規,0,2022-04-05,2022-04-05,ＡＴＧ　ＪＡＰＡＮ株式会社,,株式会社,千葉県,四街道市,大日５３９番地２７第一大川ハイツ１０１,,12,228,2840001,,,,,,,2022-04-05,1,,,,,エイティージージャパン,0
1744,7040003019820,新規,0,2022-04-05,2022-04-05,楽幸暮合同会社,,合同会社,千葉県,木更津市,新宿１１番１４号,,12,206,2920066,,,,,,,2022-04-05,1,,,,,ラシク,0
1749,7050003006479,新規,0,2022-04-05,2022-04-05,合同会社プレスエイト,,合同会社,茨城県,水戸市,見川町２１３１番地の１６９０,,08,201,3100913,,,,,,,2022-04-05,1,,,,,プレスエイト,0
1753,7060001034720,新規,0,2022-04-05,2022-04-05,株式会社前林林産,,株式会社,栃木県,鹿沼市,千渡１３３１番地,,09,205,3220002,,,,,,,2022-04-05,1,,,,,マエバヤシリンサン,0
1758,7080001024835,新規,0,2022-04-05,2022-04-05,株式会社自然農法杉山農園,,株式会社,静岡県,静岡市清水区,茂畑３２４番地,,22,103,4240101,,,,,,,2022-04-05,1,,,,,シゼンノウホウスギヤマノウエン,0
1760,7080101023191,新規,0,2022-04-05,2022-04-05,株式会社タイシライズ,,株式会社,静岡県,富士市,岩淵２９４番地,,22,210,4213305,,,,,,,2022-04-05,1,,,,,タイシライズ,0
1761,7080101023200,新規,0,2022-04-05,2022-04-05,梅鉢不動産株式会社,,株式会社,静岡県,伊豆の国市,南條８４９番地の２,,22,225,4102114,,,,,,,2022-04-05,1,,,,,ウメバチフドウサン,0
1763,7080103002565,新規,0,2022-04-05,2022-04-05,エミナ合同会社,,合同会社,静岡県,富士市,米之宮町２０８番地,,22,210,4160951,,,,,,,2022-04-05,1,,,,,エミナ,0
1765,7090001017499,新規,0,2022-04-05,2022-04-05,株式会社ウエストバレー,,株式会社,山梨県,甲府市,塩部４丁目５番３６号,,19,201,4000026,,,,,,,2022-04-05,1,,,,,ウエストバレー,0
1774,7110001036546,新規,0,2022-04-05,2022-04-05,株式会社サトウ,,株式会社,新潟県,新潟市秋葉区,秋葉１丁目２３番２３号,,15,105,9560832,,,,,,,2022-04-05,1,,,,,サトウ,0
1782,7120001244825,新規,0,2022-04-05,2022-04-05,北浜ホールディングス株式会社,,株式会社,大阪府,大阪市中央区,高麗橋３丁目３番１１号,,27,128,5410043,,,,,,,2022-04-05,1,,,,,キタハマホールディングス,0
1783,7120001244858,新規,0,2022-04-05,2022-04-05,小野薬品ユーディ株式会社,,株式会社,大阪府,大阪市中央区,久太郎町１丁目８番２号,,27,128,5410056,,,,,,,2022-04-05,1,,,,,オノヤクヒンユーディ,0
1784,7120001244932,新規,0,2022-04-05,2022-04-05,株式会社プラリス関西,,株式会社,大阪府,大阪市北区,天神橋２丁目５番２８号,,27,127,5300041,,,,,,,2022-04-05,1,,,,,プラリスカンサイ,0
1786,7120101065329,新規,0,2022-04-05,2022-04-05,株式会社ＬＩＡ,,株式会社,大阪府,堺市西区,菱木２丁２１２１番地８,,27,144,5938315,,,,,,,2022-04-05,1,,,,,ライア,0
1790,7130001071467,新規,0,2022-04-05,2022-04-05,株式会社折橋電工,,株式会社,京都府,京都市南区,吉祥院蒔絵南町１番地の１塔南蒔絵ハイツ５０８号,,26,107,6018345,,,,,,,2022-04-05,1,,,,,オリハシデンコウ,0
1795,7140001125429,新規,0,2022-04-05,2022-04-05,株式会社ＭＩＹＵＫＩ,,株式会社,兵庫県,姫路市,幸町１３１番地,,28,201,6700835,,,,,,,2022-04-05,1,,,,,ミユキ,0
1796,7140001125461,新規,0,2022-04-05,2022-04-05,イワネ産業株式会社,,株式会社,兵庫県,尼崎市,次屋１丁目７番１２号,,28,202,6610965,,,,,,,2022-04-05,1,,,,,イワネサンギョウ,0
1797,7140001125511,新規,0,2022-04-05,2022-04-05,株式会社千縁,,株式会社,兵庫県,神戸市東灘区,魚崎南町５丁目７番３－１０１号,,28,101,6580025,,,,,,,2022-04-05,1,,,,,チヨリ,0
1802,7140003017335,新規,0,2022-04-05,2022-04-05,レッツフライト合同会社,,合同会社,兵庫県,西宮市,高木西町２２番１６号,,28,204,6638032,,,,,,,2022-04-05,1,,,,,レッツフライト,0
1806,7140005026111,新規,0,2022-04-05,2022-04-05,一般社団法人ネイチャーパークかさがた交流協会,,その他の設立登記法人,兵庫県,多可郡多可町,八千代区大屋３７８番地１,,28,365,6770101,,,,,,,2022-04-05,1,,,,,ネイチャーパークカサガタコウリュウキョウカイ,0
1807,7140005026128,新規,0,2022-04-05,2022-04-05,税理士法人生駒,,その他の設立登記法人,兵庫県,豊岡市,弥栄町１番１０号,,28,209,6680057,,,,,,,2022-04-05,1,,,,,イコマ,0
1811,7180001150646,新規,0,2022-04-05,2022-04-05,株式会社ＰＰＤＥＶＯ,,株式会社,愛知県,小牧市,若草町２２３番地,,23,219,4850031,,,,,,,2022-04-05,1,,,,,ピーピーデボ,0
1812,7180001150712,新規,0,2022-04-05,2022-04-05,株式会社メロディホールディングス,,株式会社,愛知県,名古屋市千種区,月ケ丘２丁目２番６６号,,23,101,4640043,,,,,,,2022-04-05,1,,,,,メロディホールディングス,0
1814,7180301036066,新規,0,2022-04-05,2022-04-05,株式会社大澤設備,,株式会社,愛知県,安城市,横山町寺下１３番地１０,,23,212,4460045,,,,,,,2022-04-05,1,,,,,オオサワセツビ,0
1817,7190005011686,新規,0,2022-04-05,2022-04-05,社会福祉法人松阪清泉福祉会,,その他の設立登記法人,三重県,松阪市,大黒田町６０９番地,,24,204,5150063,,,,,,,2022-04-05,1,,,,,マツサカセイセンフクシカイ,0
1823,7220001024779,新規,0,2022-04-05,2022-04-05,株式会社アスラッシュ,,株式会社,石川県,小松市,上荒屋町ニ１番地５,,17,203,9230331,,,,,,,2022-04-05,1,,,,,アスラッシュ,0
1824,7220001024795,新規,0,2022-04-05,2022-04-05,ＤａＢａＤｅｅ株式会社,,株式会社,石川県,河北郡津幡町,字太田は２２１番地９,,17,361,9290345,,,,,,,2022-04-05,1,,,,,ダバディ,0
1830,7240001059526,新規,0,2022-04-05,2022-04-05,株式会社ルク・ルクホーム,,株式会社,広島県,広島市東区,若草町２番１６号若草ビル１Ｆ,,34,102,7320053,,,,,,,2022-04-05,1,,,,,ルクルクホーム,0
1831,7240001059534,新規,0,2022-04-05,2022-04-05,ジャパンエレベーターサービス中四国株式会社,,株式会社,広島県,広島市中区,東白島町１０番１７号,,34,101,7300004,,,,,,,2022-04-05,1,,,,,ジャパンエレベーターサービスチュウシコク,0
1834,7250001019479,新規,0,2022-04-05,2022-04-05,株式会社濱口工業,00126149,株式会社,山口県,山口市,大内氷上６丁目３３番５０号,,35,203,7530231,,,,,,,2022-04-05,1,,,,,ハマグチコウギョウ,0
1845,7290001097050,新規,0,2022-04-05,2022-04-05,さくらホールディングス株式会社,,株式会社,福岡県,福岡市中央区,警固１丁目１３番１５－２０１号,,40,133,8100023,,,,,,,2022-04-05,1,,,,,サクラホールディングス,0
1846,7290001097083,新規,0,2022-04-05,2022-04-05,ウチダエクスプレス株式会社,,株式会社,福岡県,福岡市博多区,博多駅前２丁目１９番２７号九勧博多駅前ビル５階,,40,132,8120011,,,,,,,2022-04-05,1,,,,,ウチダエクスプレス,0
1858,7320003003770,新規,0,2022-04-05,2022-04-05,合同会社朝地牛,,合同会社,大分県,豊後大野市,朝地町梨小８５－２,,44,212,8796334,,,,,,,2022-04-05,1,,,,,アサジギュウ,0
1863,7330003009313,新規,0,2022-04-05,2022-04-05,合同会社大遥,,合同会社,熊本県,合志市,須屋１４８６－７,,43,216,8611102,,,,,,,2022-04-05,1,,,,,タイヨウ,0
1864,7340003003744,新規,0,2022-04-05,2022-04-05,合同会社福還舎,00126144,合同会社,鹿児島県,奄美市,名瀬浦上町４２番地１２,,46,222,8940068,,,,,,,2022-04-05,1,,,,,フクゲンシャ,0
1865,7340003003752,新規,0,2022-04-05,2022-04-05,合同会社Ｎｅｅｄｓ,,合同会社,鹿児島県,曽於市,末吉町諏訪方７９１９番地３,,46,217,8998604,,,,,,,2022-04-05,1,,,,,ニーズ,0
1866,7350001017670,新規,0,2022-04-05,2022-04-05,高木建築株式会社,00126154,株式会社,宮崎県,延岡市,山下町３丁目４０１５－８,,45,203,8820055,,,,,,,2022-04-05,1,,,,,タカキケンチク,0
1877,7380001032700,新規,0,2022-04-05,2022-04-05,株式会社Ｃ．Ｍ．Ｓ,,株式会社,福島県,岩瀬郡鏡石町,本町２３３番地１,,07,342,9690401,,,,,,,2022-04-05,1,,,,,シーエムエス,0
1878,7380001032709,新規,0,2022-04-05,2022-04-05,株式会社マルゼン商店,,株式会社,福島県,双葉郡富岡町,中央２丁目１２２番地２，３号,,07,543,9791112,,,,,,,2022-04-05,1,,,,,マルゼンショウテン,0
1879,7380001032717,新規,0,2022-04-05,2022-04-05,株式会社Ｍファーム,,株式会社,福島県,田村市,船引町上移字曲山７２番地,,07,211,9634541,,,,,,,2022-04-05,1,,,,,エムファーム,0
1881,7390001016850,新規,0,2022-04-05,2022-04-05,株式会社ＬＤファーム,,株式会社,山形県,西村山郡朝日町,大字松程２４３番地,,06,323,9901561,,,,,,,2022-04-05,1,,,,,エルディーファーム,0
1883,7390003001941,新規,0,2022-04-05,2022-04-05,合同会社池田塗装,,合同会社,山形県,酒田市,小泉字前田３６番地の２,,06,204,9998234,,,,,,,2022-04-05,1,,,,,イケダトソウ,0
1884,7400001015850,新規,0,2022-04-05,2022-04-05,株式会社いろり,,株式会社,岩手県,盛岡市,中央通２丁目１－７３０１号,,03,201,0200021,,,,,,,2022-04-05,1,,,,,イロリ,0
1888,7430003013767,新規,0,2022-04-05,2022-04-05,大井土地開発合同会社,,合同会社,北海道,北広島市,輪厚中央４丁目２番地２５,,01,234,0611268,,,,,,,2022-04-05,1,,,,,オオイトチカイハツ,0
1892,7450001013651,新規,0,2022-04-05,2022-04-05,株式会社エミエル不動産,,株式会社,北海道,旭川市,三条通２２丁目１９７３番地１４,,01,204,0788213,,,,,,,2022-04-05,1,,,,,エミエルフドウサン,0
1900,7500001024115,新規,0,2022-04-05,2022-04-05,大佳セミテック株式会社,,株式会社,愛媛県,新居浜市,八幡２丁目３番３９号,,38,205,7920871,,,,,,,2022-04-05,1,,,,,ダイカセミック,0
1902,7500005008477,新規,0,2022-04-05,2022-04-05,一般社団法人愛媛県介護支援専門員協会,,その他の設立登記法人,愛媛県,松山市,水泥町９０番地１,,38,201,7910244,,,,,,,2022-04-05,1,,,,,エヒメケンカイゴシエンセンモンインキョウカイ,0
1903,8010001225587,新規,0,2022-04-05,2022-04-05,株式会社エルエフケー,,株式会社,東京都,千代田区,九段南１丁目５番６号りそな九段ビル５階ＫＳフロア,,13,101,1020074,,,,,,,2022-04-05,1,,,,,エルエフケー,0
1904,8010001225595,新規,0,2022-04-05,2022-04-05,株式会社Ｔｒａｘ　Ｈｏｌｄｉｎｇｓ,,株式会社,東京都,中央区,銀座７丁目１３番４号田辺ビル３階,,13,102,1040061,,,,,,,2022-04-05,1,,,,,トラックスホールディングス,0
1905,8010003037386,新規,0,2022-04-05,2022-04-05,ＨＴＴ合同会社,,合同会社,東京都,千代田区,飯田橋１丁目１０番３号,,13,101,1020072,,,,,,,2022-04-05,1,,,,,エイチティーティー,0
1908,8010101015120,新規,0,2022-04-05,2022-04-05,株式会社Ｆｉｄｏ　Ｓｙｓｔｅｍ,,株式会社,東京都,八王子市,下柚木２丁目２７番地１０,,13,201,1920372,,,,,,,2022-04-05,1,,,,,フィードシステム,0
1909,8010101015129,新規,0,2022-04-05,2022-04-05,株式会社サンポウヨシ,,株式会社,東京都,八王子市,堀之内６３６－３３東山５４－３,,13,201,1920355,,,,,,,2022-04-05,1,,,,,サンポウヨシ,0
1913,8010105002156,新規,0,2022-04-05,2022-04-05,特定非営利活動法人ならはらの森なかの学舎,,その他の設立登記法人,東京都,八王子市,楢原町１３７８番地１６,,13,201,1930803,,,,,,,2022-04-05,1,,,,,ナラハラノモリノナカノガクシャ,0
1916,8010401166539,新規,0,2022-04-05,2022-04-05,株式会社Ｖａｌｕｅ　ｏｆ　Ｌｉｆｅ,,株式会社,東京都,港区,北青山２丁目７番１３号プラセオ青山ビル３階,,13,103,1070061,,,,,,,2022-04-05,1,,,,,バリューオブライフ,0
1917,8010401166563,新規,0,2022-04-05,2022-04-05,株式会社グラノラ,,株式会社,東京都,港区,南麻布１丁目１－１０－２０１,,13,103,1060047,,,,,,,2022-04-05,1,,,,,グラノラ,0
1918,8010401166588,新規,0,2022-04-05,2022-04-05,株式会社ｄｕａｌｉｘ,,株式会社,東京都,港区,西麻布１丁目２番９号,,13,103,1060031,,,,,,,2022-04-05,1,,,,,デュアリックス,0
1919,8010401166605,新規,0,2022-04-05,2022-04-05,株式会社Ｈｅｒｏ　ｓｔｏｒｉｅｓ,,株式会社,東京都,港区,六本木２丁目１番９号,,13,103,1060032,,,,,,,2022-04-05,1,,,,,ヒーローストーリーズ,0
1924,8010403027409,新規,0,2022-04-05,2022-04-05,そら合同会社,,合同会社,東京都,港区,西麻布４丁目１２番１９号ウッドヴィル麻布２０５,,13,103,1060031,,,,,,,2022-04-05,1,,,,,ソラ,0
1933,8010801032852,新規,0,2022-04-05,2022-04-05,株式会社ＬＩＶＥ,,株式会社,東京都,大田区,西糀谷１丁目８番３－４０２号,,13,111,1440034,,,,,,,2022-04-05,1,,,,,リブ,0
1934,8010801032860,新規,0,2022-04-05,2022-04-05,株式会社あかつき,,株式会社,東京都,大田区,南馬込２丁目８番１号,,13,111,1430025,,,,,,,2022-04-05,1,,,,,アカツキ,0
1935,8010901050639,新規,0,2022-04-05,2022-04-05,株式会社ｊａ‐ｄｅｓｉｇｎ,,株式会社,東京都,世田谷区,弦巻３丁目９番２号,,13,112,1540016,,,,,,,2022-04-05,1,,,,,ジェイエーデザイン,0
1941,8011001146666,新規,0,2022-04-05,2022-04-05,株式会社ＴＯＫＹＯ　ＫＡＫＥＲＵ,,株式会社,東京都,渋谷区,広尾３丁目１２番１７号,,13,113,1500012,,,,,,,2022-04-05,1,,,,,トウキョウカケル,0
1950,8011101098403,新規,0,2022-04-05,2022-04-05,株式会社ｓｏｌａ,,株式会社,東京都,新宿区,西新宿７丁目５番１２号岡田ビルＢ１Ｆ,,13,104,1600023,,,,,,,2022-04-05,1,,,,,ソラ,0
1952,8011103011628,新規,0,2022-04-05,2022-04-05,ＢＥＳ合同会社,,合同会社,東京都,新宿区,西新宿３丁目５番３－１４０２号,,13,104,1600023,,,,,,,2022-04-05,1,,,,,ビーイーエス,0
1958,8011601025848,新規,0,2022-04-05,2022-04-05,株式会社ＢＩＲＩＥＴ,,株式会社,東京都,練馬区,春日町４丁目８番１２号,,13,120,1790074,,,,,,,2022-04-05,1,,,,,ビリート,0
1959,8011601025864,新規,0,2022-04-05,2022-04-05,株式会社美味しい・メンタルビタミン研究所,,株式会社,東京都,練馬区,旭丘２丁目３３番７号,,13,120,1760005,,,,,,,2022-04-05,1,,,,,オイシイメンタルビタミンケンキュウショ,0
1960,8011701025186,新規,0,2022-04-05,2022-04-05,ＲＳ工業株式会社,,株式会社,東京都,江戸川区,中葛西８丁目１３番１６号,,13,123,1340083,,,,,,,2022-04-05,1,,,,,アールエスコウギョウ,0
1967,8011801040531,新規,0,2022-04-05,2022-04-05,株式会社ナガオカ,,株式会社,東京都,足立区,花畑５丁目１１番８０－４０３号,,13,121,1210061,,,,,,,2022-04-05,1,,,,,ナガオカ,0
1972,8012803002742,新規,0,2022-04-05,2022-04-05,合同会社ＩＶＹ,,合同会社,東京都,立川市,曙町２丁目１５番１１号,,13,202,1900012,,,,,,,2022-04-05,1,,,,,アイビー,0
1974,8013105001796,新規,0,2022-04-05,2022-04-05,特定非営利活動法人ＣＯＬＬＥＣＴＩＶＥ,,その他の設立登記法人,東京都,青梅市,河辺町４丁目１８番地の１３,,13,205,1980036,,,,,,,2022-04-05,1,,,,,コレクティブ,0
1982,8020001145958,新規,0,2022-04-05,2022-04-05,株式会社タガミ企画,,株式会社,神奈川県,横浜市泉区,新橋町１２５８番地３,,14,116,2450009,,,,,,,2022-04-05,1,,,,,タガミキカク,0
1983,8020001145974,新規,0,2022-04-05,2022-04-05,信友商事株式会社,,株式会社,神奈川県,横浜市旭区,下川井町２１９３番地１３,,14,112,2410806,,,,,,,2022-04-05,1,,,,,シンユウショウジ,0
1986,8021001075583,新規,0,2022-04-05,2022-04-05,株式会社厚木仮設,,株式会社,神奈川県,厚木市,飯山３３３１番地１,,14,212,2430213,,,,,,,2022-04-05,1,,,,,アツギカセツ,0
1987,8021001075591,新規,0,2022-04-05,2022-04-05,株式会社ＴＩＫコーポレーション,,株式会社,神奈川県,秦野市,平沢４１５番地５,,14,211,2570015,,,,,,,2022-04-05,1,,,,,ティーアイケーコーポレーション,0
1992,8021003011553,新規,0,2022-04-05,2022-04-05,湘南やま屋合同会社,,合同会社,神奈川県,藤沢市,本町２丁目３番１０号,,14,205,2510053,,,,,,,2022-04-05,1,,,,,ショウナンヤマヤ,0
2003,8030001147508,新規,0,2022-04-05,2022-04-05,株式会社廣瀬協力建築設計事務所,,株式会社,埼玉県,さいたま市大宮区,天沼町１丁目５２３番地１ドルミ大宮天沼３１２号,,11,103,3300834,,,,,,,2022-04-05,1,,,,,ヒロセキョウリョクケンチクセッケイジムショ,0
2004,8030001147524,新規,0,2022-04-05,2022-04-05,一沢商事株式会社,,株式会社,埼玉県,川口市,栄町２丁目６番４号,,11,203,3320017,,,,,,,2022-04-05,1,,,,,イチザワショウジ,0
2005,8030001147540,新規,0,2022-04-05,2022-04-05,ＩＳＫマテリアル株式会社,,株式会社,埼玉県,さいたま市岩槻区,諏訪５丁目１番地６,,11,110,3390007,,,,,,,2022-04-05,1,,,,,アイエスケイマテリアル,0
2009,8030005020784,新規,0,2022-04-05,2022-04-05,医療法人村山皮フ科,,その他の設立登記法人,埼玉県,東松山市,大字高坂８９７番地１５,,11,212,3550047,,,,,,,2022-04-05,1,,,,,ムラヤマヒフカ,0
2012,8040001122856,新規,0,2022-04-05,2022-04-05,株式会社Ｍａｘｉｍｕｍ　Ｓｉｇｎ,,株式会社,千葉県,茂原市,道表８番地１９道表プラザ１０２号,,12,210,2970028,,,,,,,2022-04-05,1,,,,,マキシマムサイン,0
2013,8040001122922,新規,0,2022-04-05,2022-04-05,株式会社ＢＥＥ　ＭＥＩＳＴＥＲ,,株式会社,千葉県,浦安市,堀江６丁目１６番２９－３０３号ローズガーデン浦安テリオス,,12,227,2790041,,,,,,,2022-04-05,1,,,,,ビーマイスター,0
2017,8050001050908,新規,0,2022-04-05,2022-04-05,オキソニウムラボラトリー株式会社,,株式会社,茨城県,水戸市,城南２丁目１２－４９－９０４,,08,201,3100803,,,,,,,2022-04-05,1,,,,,オキソニウムラボラトリー,0
2018,8060001034744,新規,0,2022-04-05,2022-04-05,株式会社Ｄａｎｃｅ　Ｓ　Ｃｏｍｐａｎｙ,,株式会社,栃木県,宇都宮市,雀の宮１丁目１９番１９号,,09,201,3210132,,,,,,,2022-04-05,1,,,,,ダンスエスカンパニー,0
2024,8080003002771,新規,0,2022-04-05,2022-04-05,合同会社ＩＷＡＯ,,合同会社,静岡県,焼津市,保福島６１９番地の１,,22,212,4250087,,,,,,,2022-04-05,1,,,,,イワオ,0
2030,8100001035226,新規,0,2022-04-05,2022-04-05,株式会社インターワークス,,株式会社,長野県,北佐久郡軽井沢町,軽井沢東２５３番地,,20,321,3890104,,,,,,,2022-04-05,1,,,,,インターワークス,0
2035,8100003006489,新規,0,2022-04-05,2022-04-05,創造あしるや合同会社,,合同会社,長野県,伊那市,美篶８９１８番地３,,20,209,3960111,,,,,,,2022-04-05,1,,,,,ソウゾウアシルヤ,0
2036,8110001036561,新規,0,2022-04-05,2022-04-05,株式会社グリーンアース,,株式会社,新潟県,五泉市,太田２丁目５番１２号,,15,218,9591825,,,,,,,2022-04-05,1,,,,,グリーンアース,0
2048,8120001244808,新規,0,2022-04-05,2022-04-05,株式会社ＷＩＮＤ’Ｚ,,株式会社,大阪府,大阪市鶴見区,茨田大宮２丁目２番４４号,,27,124,5380031,,,,,,,2022-04-05,1,,,,,ウインズ,0
2049,8120001244832,新規,0,2022-04-05,2022-04-05,株式会社ＳＯ　ＳＯ,,株式会社,大阪府,大阪市北区,大淀南２丁目２番４３号ローレルタワーサンクタス梅田１７０５号,,27,127,5310075,,,,,,,2022-04-05,1,,,,,ソーソー,0
2050,8120001244849,新規,0,2022-04-05,2022-04-05,ジャスト建築積算株式会社,,株式会社,大阪府,大阪市中央区,谷町３丁目２番１１号,,27,128,5400012,,,,,,,2022-04-05,1,,,,,ジャストケンチクセキサン,0
2051,8120001244857,新規,0,2022-04-05,2022-04-05,株式会社Ｐｌｕｓ,,株式会社,大阪府,大阪市西淀川区,御幣島１丁目１１番１４号,,27,113,5550012,,,,,,,2022-04-05,1,,,,,プラス,0
2052,8120001244865,新規,0,2022-04-05,2022-04-05,株式会社不動産ドットコム,,株式会社,大阪府,大阪市天王寺区,上汐６丁目３番２４－４０２号,,27,109,5430002,,,,,,,2022-04-05,1,,,,,フドウサンドットコム,0
2053,8120001244980,新規,0,2022-04-05,2022-04-05,ＡＳＵＩＲＯ株式会社,,株式会社,大阪府,大阪市北区,西天満５丁目９番３号アールビル本館,,27,127,5300047,,,,,,,2022-04-05,1,,,,,アスイロ,0
2055,8120005022879,新規,0,2022-04-05,2022-04-05,一般社団法人介護予防レクリエーション協会,,その他の設立登記法人,大阪府,大阪市中央区,南久宝寺町２丁目６番１５号中川ビル４Ｆ,,27,128,5410058,,,,,,,2022-04-05,1,,,,,カイゴヨボウレクリエーションキョウカイ,0
2058,8120101065311,新規,0,2022-04-05,2022-04-05,株式会社Ｓ・Ｉ・Ａ,,株式会社,大阪府,堺市北区,長曽根町６５２番地３０,,27,146,5918025,,,,,,,2022-04-05,1,,,,,エスアイエー,0
2059,8120101065336,新規,0,2022-04-05,2022-04-05,株式会社天和,,株式会社,大阪府,堺市西区,堀上緑町１丁１－７,,27,144,5938305,,,,,,,2022-04-05,1,,,,,テンホウ,0
2061,8120901045818,新規,0,2022-04-05,2022-04-05,株式会社ヴェリダス,,株式会社,大阪府,吹田市,片山町２丁目５－１大和大学社会学部棟Ｅ棟,,27,205,5640082,,,,,,,2022-04-05,1,,,,,ヴェリダス,0
2064,8120903004094,新規,0,2022-04-05,2022-04-05,合同会社ＰＲＡＳＥ,,合同会社,大阪府,摂津市,三島２丁目１３－１３クレールミシマＩ１０４号室,00126141,27,224,5660022,,,,,,,2022-04-05,1,,,,,プレイズ,0
2065,8130003007831,新規,0,2022-04-05,2022-04-05,合同会社ブルーウェーブ,,合同会社,京都府,京丹後市,網野町郷９９１番地,,26,212,6293133,,,,,,,2022-04-05,1,,,,,ブルーウェーブ,0
2071,8140001125477,新規,0,2022-04-05,2022-04-05,株式会社クリアスカイ,,株式会社,兵庫県,明石市,東仲ノ町６番１号アスピア明石北館５Ｆ,,28,203,6730886,,,,,,,2022-04-05,1,,,,,クリアスカイ,0
2072,8140001125510,新規,0,2022-04-05,2022-04-05,株式会社ジグヘッド,,株式会社,兵庫県,川西市,けやき坂２丁目１７番地の３,,28,217,6660145,,,,,,,2022-04-05,1,,,,,ジグヘッド,0
2073,8140001125543,新規,0,2022-04-05,2022-04-05,株式会社ＦＣ・プラン,,株式会社,兵庫県,姫路市,飾磨区清水１２６番地の２,,28,201,6728051,,,,,,,2022-04-05,1,,,,,エフシイプラン,0
2075,8140003017516,新規,0,2022-04-05,2022-04-05,合同会社ＴＹｅｄｇｅ,,合同会社,兵庫県,神戸市灘区,大和町３丁目１－１３大和町ビル２階,,28,102,6570031,,,,,,,2022-04-05,1,,,,,ティーワイエッジ,0
2076,8140005026119,新規,0,2022-04-05,2022-04-05,医療法人社団健樹会,,その他の設立登記法人,兵庫県,揖保郡太子町,東南３４５番地,,28,464,6711523,,,,,,,2022-04-05,1,,,,,ケンジュカイ,0
2077,8150001025437,新規,0,2022-04-05,2022-04-05,株式会社ウエスト,,株式会社,奈良県,五條市,本町２丁目５番５号,,29,207,6370041,,,,,,,2022-04-05,1,,,,,ウエスト,0
2079,8170001017044,新規,0,2022-04-05,2022-04-05,株式会社ＦＵＫＵＳＡＮ,,株式会社,和歌山県,岩出市,山５９４番地の１,,30,209,6496258,,,,,,,2022-04-05,1,,,,,フクサン,0
2086,8180001150752,新規,0,2022-04-05,2022-04-05,株式会社ＬＣＥ,,株式会社,愛知県,春日井市,大手町３丁目１５番地３,,23,206,4860807,,,,,,,2022-04-05,1,,,,,エルシィー,0
2087,8180001150769,新規,0,2022-04-05,2022-04-05,株式会社ｐｒｅｓｉａ,,株式会社,愛知県,名古屋市港区,油屋町２丁目６３番地,,23,111,4550815,,,,,,,2022-04-05,1,,,,,プレシア,0
2093,8180003023700,新規,0,2022-04-05,2022-04-05,合同会社アドレフォト,,合同会社,愛知県,春日井市,八幡町１３６番地,,23,206,4860915,,,,,,,2022-04-05,1,,,,,アドレフォト,0
2095,8190001029269,新規,0,2022-04-05,2022-04-05,株式会社鳥羽湾カーフェリー安盛丸,,株式会社,三重県,鳥羽市,小浜町２９９番地１２１,,24,211,5170015,,,,,,,2022-04-05,1,,,,,トバワンカーフェリーアンセイマル,0
2096,8190005011685,新規,0,2022-04-05,2022-04-05,特定非営利活動法人Ｆｏｒｅｓｔ,,その他の設立登記法人,三重県,尾鷲市,新田町９番５号,,24,209,5193638,,,,,,,2022-04-05,1,,,,,フォレスト,0
2097,8200001039943,新規,0,2022-04-05,2022-04-05,株式会社橋梁保全,,株式会社,岐阜県,本巣市,早野９６－３０,,21,218,5010419,,,,,,,2022-04-05,1,,,,,キョウリョウホゼン,0
2099,8220001024778,新規,0,2022-04-05,2022-04-05,株式会社ニサホールディングス,,株式会社,石川県,金沢市,小金町１６番１０号,,17,201,9200805,,,,,,,2022-04-05,1,,,,,ニサホールディングス,0
2100,8220001024786,新規,0,2022-04-05,2022-04-05,株式会社新日開発,,株式会社,石川県,金沢市,矢木１丁目２８番地１階,,17,201,9218066,,,,,,,2022-04-05,1,,,,,シンニチカイハツ,0
2102,8220005008645,新規,0,2022-04-05,2022-04-05,一般社団法人金澤レディース経政会,,その他の設立登記法人,石川県,金沢市,森戸２丁目１番地１株式会社箔一内,,17,201,9218061,,,,,,,2022-04-05,1,,,,,カナザワレディースケイセイカイ,0
2104,8240001059517,新規,0,2022-04-05,2022-04-05,株式会社空実,,株式会社,広島県,尾道市,古浜町２番１１－７号,,34,205,7220002,,,,,,,2022-04-05,1,,,,,ソラミ,0
2105,8240001059541,新規,0,2022-04-05,2022-04-05,ロードアークス株式会社,,株式会社,広島県,東広島市,西条中央７丁目３番７号,,34,212,7390025,,,,,,,2022-04-05,1,,,,,ロードアークス,0
2106,8240001059558,新規,0,2022-04-05,2022-04-05,株式会社Ｒ＆Ｓ,,株式会社,広島県,広島市安佐南区,安東４丁目１０番２４号,,34,105,7310153,,,,,,,2022-04-05,1,,,,,アールアンドエス,0
2107,8240001059566,新規,0,2022-04-05,2022-04-05,ヨシカワ工業株式会社,,株式会社,広島県,安芸郡海田町,寺迫２丁目１４番４０－１１号,,34,304,7360011,,,,,,,2022-04-05,1,,,,,ヨシカワコウギョウ,0
2108,8240001059574,新規,0,2022-04-05,2022-04-05,株式会社がちまやぁ,,株式会社,広島県,福山市,引野町５８１０番地９,,34,207,7210942,,,,,,,2022-04-05,1,,,,,ガチマヤァ,0
2109,8240005015367,新規,0,2022-04-05,2022-04-05,一般財団法人広島アクセラレーションラボ,,その他の設立登記法人,広島県,広島市中区,銀山町３番１号,,34,101,7300022,,,,,,,2022-04-05,1,,,,,ヒロシマアクセラレーションラボ,0
2115,8250003003034,新規,0,2022-04-05,2022-04-05,合同会社シルクン,,合同会社,山口県,下松市,南花岡６丁目７番１２－２０２号,,35,207,7440027,,,,,,,2022-04-05,1,,,,,シルクン,0
2120,8260003003867,新規,0,2022-04-05,2022-04-05,テクノイーグル合同会社,,合同会社,岡山県,岡山市北区,下中野１２１５番地１３,,33,101,7000973,,,,,,,2022-04-05,1,,,,,テクノイーグル,0
2128,8290801028393,新規,0,2022-04-05,2022-04-05,株式会社リオカーラ,,株式会社,福岡県,京都郡苅田町,大字尾倉４０２２番地１３,,40,621,8000353,,,,,,,2022-04-05,1,,,,,リオカーラ,0
2129,8300001012865,新規,0,2022-04-05,2022-04-05,株式会社増田建設,,株式会社,佐賀県,神埼市,神埼町尾崎４１６９番地１０３,,41,210,8420015,,,,,,,2022-04-05,1,,,,,マスダケンセツ,0
2131,8320001019000,新規,0,2022-04-05,2022-04-05,株式会社小さな林業,,株式会社,大分県,玖珠郡玖珠町,大字塚脇５１３番地塚脇矢野アパート１,,44,462,8794413,,,,,,,2022-04-05,1,,,,,チイサナリンギョウ,0
2132,8330001029618,新規,0,2022-04-05,2022-04-05,株式会社学び舎,,株式会社,熊本県,天草市,本渡町広瀬１６１番地１,,43,215,8630001,,,,,,,2022-04-05,1,,,,,マナビヤ,0
2134,8340005009441,新規,0,2022-04-05,2022-04-05,特定非営利活動法人たがやす,,その他の設立登記法人,鹿児島県,肝属郡錦江町,神川３３０６番地４,,46,490,8932301,,,,,,,2022-04-05,1,,,,,タガヤス,0
2138,8350001017678,新規,0,2022-04-05,2022-04-05,株式会社ＬａＢｏｏｍ,,株式会社,宮崎県,都城市,天神町１８街区８号Ｎｏａｈ天神１Ｆ,,45,202,8850031,,,,,,,2022-04-05,1,,,,,ラブーム,0
2139,8360005006619,新規,0,2022-04-05,2022-04-05,特定非営利活動法人ラッピースマイル,,その他の設立登記法人,沖縄県,国頭郡金武町,字屋嘉２８６３番地３,,47,314,9041203,,,,,,,2022-04-05,1,,,,,ラッピースマイル,0
2140,8370001048374,新規,0,2022-04-05,2022-04-05,庄子建材株式会社,,株式会社,宮城県,仙台市青葉区,愛子東１丁目９番４０号,,04,101,9893127,,,,,,,2022-04-05,1,,,,,ショウジケンザイ,0
2141,8370001048399,新規,0,2022-04-05,2022-04-05,株式会社花園電器,,株式会社,宮城県,宮城郡利府町,花園２丁目２３番地８,,04,406,9810132,,,,,,,2022-04-05,1,,,,,ハナゾノデンキ,0
2149,8380003005141,新規,0,2022-04-05,2022-04-05,合同会社森の人,,合同会社,福島県,田村市,都路町古道字白石１７５番地１,,07,211,9634701,,,,,,,2022-04-05,1,,,,,モリノヒト,0
2161,8430001086293,新規,0,2022-04-05,2022-04-05,株式会社アシストＨＯＬＤＩＮＧＳ,,株式会社,北海道,札幌市中央区,大通西９丁目３番地３３,,01,101,0600042,,,,,,,2022-04-05,1,,,,,アシストホールディングス,0
2162,8430001086310,新規,0,2022-04-05,2022-04-05,１６８優農株式会社,,株式会社,北海道,日高郡新ひだか町,東静内２７０番１１,,01,610,0592561,,,,,,,2022-04-05,1,,,,,イロハユウノウ,0
2163,8430001086319,新規,0,2022-04-05,2022-04-05,株式会社ｗｅｌｌｖｉｅ,,株式会社,北海道,札幌市清田区,平岡公園東８丁目８番１８号,,01,110,0040882,,,,,,,2022-04-05,1,,,,,ウェルヴィ,0
2164,8450001013650,新規,0,2022-04-05,2022-04-05,アサヒワークセキュリティ株式会社,,株式会社,北海道,旭川市,末広東一条４丁目１番５号川島第１ビル２階Ｄ号室,,01,204,0718121,,,,,,,2022-04-05,1,,,,,アサヒワークセキュリティ,0
2174,8460305001978,新規,0,2022-04-05,2022-04-05,一般社団法人シマエナガ,,その他の設立登記法人,北海道,北見市,並木町５５５番地２８,,01,208,0900012,,,,,,,2022-04-05,1,,,,,シマエナガ,0
2185,9010001225578,新規,0,2022-04-05,2022-04-05,株式会社ＭＳＫ,,株式会社,東京都,文京区,本郷１丁目２８番８－７０５号,,13,105,1130033,,,,,,,2022-04-05,1,,,,,エムエスケイ,0
2186,9010001225586,新規,0,2022-04-05,2022-04-05,株式会社ｉｎｆｕｌｌｅｎｃｅ,,株式会社,東京都,中央区,銀座１丁目２２号１１号銀座大竹ビジデンス２階,,13,102,1040061,,,,,,,2022-04-05,1,,,,,インフルエンス,0
2187,9010001225603,新規,0,2022-04-05,2022-04-05,株式会社ゼクサバース,,株式会社,東京都,千代田区,麹町３丁目５番２号ビュレックス麹町２０５,,13,101,1020083,,,,,,,2022-04-05,1,,,,,ゼクサバース,0
2188,9010001225611,新規,0,2022-04-05,2022-04-05,ＤＡＣ‐ＮＯＴＥ株式会社,,株式会社,東京都,千代田区,一番町６相模屋本社ビル７Ｆ一番町インキュベーションセンター内,,13,101,1020082,,,,,,,2022-04-05,1,,,,,ダックノート,0
2190,9010003037385,新規,0,2022-04-05,2022-04-05,合同会社フールフー,,合同会社,東京都,中央区,日本橋蛎殻町１丁目２５番７号澤田ビル３階,,13,102,1030014,,,,,,,2022-04-05,1,,,,,フールフー,0
2194,9010101015128,新規,0,2022-04-05,2022-04-05,株式会社ＳＵＮ　ＲＩＤＥ　ＣＯＭＰＡＮＹ,,株式会社,東京都,八王子市,弐分方町４７３番地,,13,201,1930822,,,,,,,2022-04-05,1,,,,,サンライドカンパニー,0
2196,9010401166488,新規,0,2022-04-05,2022-04-05,ＢＡＲＧＡＴＯＲ株式会社,,株式会社,東京都,港区,三田２丁目２番１８－３０４号,,13,103,1080073,,,,,,,2022-04-05,1,,,,,ビージー,0
2197,9010401166546,新規,0,2022-04-05,2022-04-05,株式会社ブラックリンズ,,株式会社,東京都,港区,芝公園１丁目３番１２号クローバー芝公園２Ｆ,,13,103,1050011,,,,,,,2022-04-05,1,,,,,ブラックリンズ,0
2198,9010401166612,新規,0,2022-04-05,2022-04-05,ＳＫＹ不動産株式会社,,株式会社,東京都,港区,虎ノ門５丁目１１番１号オランダヒルズ森タワー１３階,,13,103,1050001,,,,,,,2022-04-05,1,,,,,スカイフドウサン,0
2200,9010403027399,新規,0,2022-04-05,2022-04-05,Ｓｏｎｄｅｒ合同会社,,合同会社,東京都,港区,六本木５丁目１３－３－５０６,,13,103,1060032,,,,,,,2022-04-05,1,,,,,ソンダー,0
2201,9010403027408,新規,0,2022-04-05,2022-04-05,合同会社Ｈｅｓｔｉａ,,合同会社,東京都,港区,南青山２丁目２番１５号ＷｉｎＡｏｙａｍａＵＣＦ６３５,,13,103,1070062,,,,,,,2022-04-05,1,,,,,ヘスティア,0
2202,9010501001818,新規,0,2022-04-05,2022-04-05,株式会社エムケイクラフト,,株式会社,東京都,台東区,上野１丁目１１番１号藤田ビル,,13,106,1100005,,,,,,,2022-04-05,1,,,,,,0
2205,9010703006177,新規,0,2022-04-05,2022-04-05,ＡＲＫ合同会社,,合同会社,東京都,品川区,西大井３丁目５－４,,13,109,1400015,,,,,,,2022-04-05,1,,,,,アーク,0
2215,9010901050621,新規,0,2022-04-05,2022-04-05,株式会社ＰＳ　ｏｎｅ,,株式会社,東京都,世田谷区,船橋１丁目２９番２号１Ｆ,,13,112,1560055,,,,,,,2022-04-05,1,,,,,ピーエスワン,0
2219,9011001146673,新規,0,2022-04-05,2022-04-05,株式会社ｃｒｅａｔｉｖｅ　ａｉｄ,,株式会社,東京都,渋谷区,桜丘町２９番３５号ヴィラ桜ヶ丘２０４,,13,113,1500031,,,,,,,2022-04-05,1,,,,,クリエイティブエイド,0
2222,9011003014449,新規,0,2022-04-05,2022-04-05,合同会社ＢｅｙｏｎｄＸ,,合同会社,東京都,渋谷区,道玄坂１丁目１０番８号渋谷道玄坂東急ビル２Ｆ－Ｃ,,13,113,1500043,,,,,,,2022-04-05,1,,,,,ビヨンドエックス,0
2229,9011101098402,新規,0,2022-04-05,2022-04-05,株式会社ムクＳ,,株式会社,東京都,新宿区,新宿６丁目２５－５－２０２号,,13,104,1600022,,,,,,,2022-04-05,1,,,,,ムクス,0
2232,9011301027697,新規,0,2022-04-05,2022-04-05,株式会社オールトレック,,株式会社,東京都,杉並区,上高井戸２丁目２番２８－８０３号シェルゼ杉並高井戸,,13,115,1680074,,,,,,,2022-04-05,1,,,,,オールトレック,0
2236,9011603003561,新規,0,2022-04-05,2022-04-05,ＺＯＯＳ合同会社,,合同会社,東京都,練馬区,関町北４丁目１５番９号,,13,120,1770051,,,,,,,2022-04-05,1,,,,,ズーズ,0
2237,9011701025185,新規,0,2022-04-05,2022-04-05,尚徳智広株式会社,,株式会社,東京都,江戸川区,平井３丁目２１番３号セザール平井３０１,,13,123,1320035,,,,,,,2022-04-05,1,,,,,ショウトクチコウ,0
2238,9011801040539,新規,0,2022-04-05,2022-04-05,中島工業株式会社,,株式会社,東京都,足立区,青井１丁目７番３３号,,13,121,1200012,,,,,,,2022-04-05,1,,,,,ナカジマコウギョウ,0
2241,9012801021487,新規,0,2022-04-05,2022-04-05,ファロス株式会社,,株式会社,東京都,国立市,青柳２丁目２番地の２４シャトル国立３０１,,13,215,1860013,,,,,,,2022-04-05,1,,,,,ファロス,0
2248,9020001145981,新規,0,2022-04-05,2022-04-05,株式会社ＭＯＡＮＡＶＩ,,株式会社,神奈川県,横浜市西区,平沼２丁目４番６号１Ｆ,,14,103,2200023,,,,,,,2022-04-05,1,,,,,モアナビ,0
2251,9020003021537,新規,0,2022-04-05,2022-04-05,合同会社コーラボ,,合同会社,神奈川県,横浜市中区,本牧町２丁目３２３番地６,,14,104,2310806,,,,,,,2022-04-05,1,,,,,コーラボ,0
2254,9021001075599,新規,0,2022-04-05,2022-04-05,Ｍａｋａｎａ株式会社,,株式会社,神奈川県,藤沢市,湘南台７丁目２番地の２コンフォートプレイス３０７号室,,14,205,2520804,,,,,,,2022-04-05,1,,,,,マカナ,0
2258,9030001147515,新規,0,2022-04-05,2022-04-05,株式会社川口工務店,,株式会社,埼玉県,蕨市,中央１丁目２５番１号マキヤビル４階,,11,223,3350004,,,,,,,2022-04-05,1,,,,,カワグチコウムテン,0
2259,9030001147531,新規,0,2022-04-05,2022-04-05,全国コインランドリー販売株式会社,,株式会社,埼玉県,所沢市,大字神米金２８２番地１,,11,208,3590005,,,,,,,2022-04-05,1,,,,,ゼンコクコインランドリーハンバイ,0
2260,9030001147589,新規,0,2022-04-05,2022-04-05,株式会社フェニックス,,株式会社,埼玉県,川口市,大字安行藤八２６６番地の８,,11,203,3340051,,,,,,,2022-04-05,1,,,,,フェニックス,0
2263,9030003019159,新規,0,2022-04-05,2022-04-05,合同会社Ｋ‐Ｓｅａｓ,,合同会社,埼玉県,川口市,芝１丁目２６－２－２０３,,11,203,3330866,,,,,,,2022-04-05,1,,,,,ケーシーズ,0
2268,9040001122814,新規,0,2022-04-05,2022-04-05,株式会社アチーブ,,株式会社,千葉県,松戸市,新松戸７丁目１５５番地の２,,12,207,2700034,,,,,,,2022-04-05,1,,,,,アチーブ,0
2269,9040001122905,新規,0,2022-04-05,2022-04-05,株式会社Ａｃｌｅｒ,,株式会社,千葉県,鴨川市,二子４２番５号,,12,223,2992852,,,,,,,2022-04-05,1,,,,,アクラー,0
2270,9040001122921,新規,0,2022-04-05,2022-04-05,株式会社ツインバード,,株式会社,千葉県,八千代市,村上南３丁目３番地１,,12,221,2760029,,,,,,,2022-04-05,1,,,,,ツインバード,0
2276,9050003006477,新規,0,2022-04-05,2022-04-05,合同会社君島,,合同会社,茨城県,小美玉市,栗又四ケ字木ノ内１７６８番１５,,08,236,3113434,,,,,,,2022-04-05,1,,,,,キミシマ,0
2277,9060001034719,新規,0,2022-04-05,2022-04-05,株式会社アゼック,,株式会社,栃木県,足利市,常見町３丁目１３番地２５,,09,202,3260022,,,,,,,2022-04-05,1,,,,,アゼック,0
2282,9080003002770,新規,0,2022-04-05,2022-04-05,合同会社フォーセンス,,合同会社,静岡県,静岡市駿河区,国吉田６丁目８番２６号,,22,102,4228004,,,,,,,2022-04-05,1,,,,,フォーセンス,0
2283,9080101023198,新規,0,2022-04-05,2022-04-05,Ｕｎｎｏ　Ｋｏｇｙｏ株式会社,,株式会社,静岡県,田方郡函南町,肥田９４９番地の２,,22,325,4190125,,,,,,,2022-04-05,1,,,,,ウンノコウギョウ,0
2284,9080401025712,新規,0,2022-04-05,2022-04-05,株式会社遊人,,株式会社,静岡県,浜松市北区,三ヶ日町大崎１９８０番地,,22,135,4311403,,,,,,,2022-04-05,1,,,,,ユウリ,0
2285,9090001017514,新規,0,2022-04-05,2022-04-05,末広つちきゼネラル株式会社,,株式会社,山梨県,甲府市,国玉町８１１番地３,,19,201,4000815,,,,,,,2022-04-05,1,,,,,スエヒロツチキゼネラル,0
2292,9110001036536,新規,0,2022-04-05,2022-04-05,クロスメディア・ピクチャーズ株式会社,,株式会社,新潟県,新潟市中央区,神道寺南２丁目１番２７号,,15,103,9500986,,,,,,,2022-04-05,1,,,,,クロスメディアピクチャーズ,0
2293,9110001036552,新規,0,2022-04-05,2022-04-05,株式会社Ｈｉｎａｔａ,,株式会社,新潟県,新潟市北区,太田甲４０６３番地１,,15,101,9503313,,,,,,,2022-04-05,1,,,,,ヒナタ,0
2304,9120001244823,新規,0,2022-04-05,2022-04-05,三共ホールディングス株式会社,,株式会社,大阪府,大阪市東成区,中道３丁目１０番５号,,27,115,5370025,,,,,,,2022-04-05,1,,,,,サンキョウホールディングス,0
2305,9120001244848,新規,0,2022-04-05,2022-04-05,株式会社シャノワールプラス,,株式会社,大阪府,大阪市淀川区,西中島５丁目６番２４号,,27,123,5320011,,,,,,,2022-04-05,1,,,,,シャノワールプラス,0
2306,9120001244880,新規,0,2022-04-05,2022-04-05,株式会社三宝金属,,株式会社,大阪府,大阪市東成区,東今里３丁目１５番１４号,,27,115,5370011,,,,,,,2022-04-05,1,,,,,サンポウキンゾク,0
2307,9120001244906,新規,0,2022-04-05,2022-04-05,株式会社すまいる,,株式会社,大阪府,大阪市平野区,長吉出戸６丁目１４番３０号,,27,126,5470011,,,,,,,2022-04-05,1,,,,,スマイル,0
2309,9120003021386,新規,0,2022-04-05,2022-04-05,龜岡合同会社,00126150,合同会社,大阪府,寝屋川市,美井町１番１８号,,27,215,5720007,,,,,,,2022-04-05,1,,,,,カメオカ,0
2310,9120003021403,新規,0,2022-04-05,2022-04-05,合同会社アール,,合同会社,大阪府,門真市,島頭３丁目２２－１３,,27,223,5710016,,,,,,,2022-04-05,1,,,,,アール,0
2311,9120003021436,新規,0,2022-04-05,2022-04-05,エムシエン合同会社,,合同会社,大阪府,大阪市東淀川区,西淡路１丁目１番９号ビジネス新大阪６０９号,,27,114,5330031,,,,,,,2022-04-05,1,,,,,エムシエン,0
2312,9120005022878,新規,0,2022-04-05,2022-04-05,一般社団法人大阪府遺族連合会,,その他の設立登記法人,大阪府,大阪市天王寺区,四天王寺１丁目１１番９３号,,27,109,5430051,,,,,,,2022-04-05,1,,,,,オオサカフイゾクレンゴウカイ,0
2313,9120005022894,新規,0,2022-04-05,2022-04-05,行政書士法人宇良法務事務所,,その他の設立登記法人,大阪府,大阪市中央区,農人橋１丁目４番３１号,,27,128,5400011,,,,,,,2022-04-05,1,,,,,ウラホウムジムショ,0
2316,9120101065327,新規,0,2022-04-05,2022-04-05,株式会社庄商店,,株式会社,大阪府,羽曳野市,羽曳が丘西５丁目５番３４号,,27,222,5830865,,,,,,,2022-04-05,1,,,,,ショウショウテン,0
2317,9120101065335,新規,0,2022-04-05,2022-04-05,株式会社ゴープラス,,株式会社,大阪府,泉佐野市,下瓦屋６３６アイドリーム１０２号室,,27,213,5980062,,,,,,,2022-04-05,1,,,,,ゴープラス,0
2319,9120103004621,新規,0,2022-04-05,2022-04-05,禅友院合同会社,,合同会社,大阪府,岸和田市,八幡町１１番１７号,,27,202,5960023,,,,,,,2022-04-05,1,,,,,ゼンユウイン,0
2320,9120901045809,新規,0,2022-04-05,2022-04-05,株式会社ギルド,,株式会社,大阪府,池田市,石橋４丁目１４番６号,,27,204,5630032,,,,,,,2022-04-05,1,,,,,ギルド,0
2321,9120903004093,新規,0,2022-04-05,2022-04-05,合同会社ＤＡＺ,,合同会社,大阪府,吹田市,垂水町１丁目５６番２６－２０３号,,27,205,5640062,,,,,,,2022-04-05,1,,,,,ダズ,0
2325,9122001035723,新規,0,2022-04-05,2022-04-05,株式会社翔信メディカル,,株式会社,大阪府,東大阪市,神田町３番１２号,,27,227,5798058,,,,,,,2022-04-05,1,,,,,ショウシンメディカル,0
2335,9140001125451,新規,0,2022-04-05,2022-04-05,ＫＯＢＥコンサルティングファーム株式会社,,株式会社,兵庫県,神戸市北区,泉台１丁目１番地の１－１１０２号,,28,109,6511141,,,,,,,2022-04-05,1,,,,,コウベコンサルティングファーム,0
2336,9140001125476,新規,0,2022-04-05,2022-04-05,そうざいマルシェ株式会社,,株式会社,兵庫県,明石市,藤江２０２９番地の１,,28,203,6730044,,,,,,,2022-04-05,1,,,,,ソウザイマルシェ,0
2341,9140003017523,新規,0,2022-04-05,2022-04-05,四月一日合同会社,,合同会社,兵庫県,西宮市,上甲東園１丁目８番１９号,,28,204,6620813,,,,,,,2022-04-05,1,,,,,ワタヌキ,0
2342,9140003017531,新規,0,2022-04-05,2022-04-05,宮内珈琲合同会社,,合同会社,兵庫県,神戸市灘区,原田通３丁目２番１５号シャンテ王子公園北側店舗,,28,102,6570837,,,,,,,2022-04-05,1,,,,,ミヤウチコーヒー,0
2344,9140005026118,新規,0,2022-04-05,2022-04-05,特定非営利活動法人ＨＩＫＩＤＡＳＨＩ,,その他の設立登記法人,兵庫県,明石市,朝霧山手町１番６号,,28,203,6730853,,,,,,,2022-04-05,1,,,,,ヒキダシ,0
2349,9160003002531,新規,0,2022-04-05,2022-04-05,合同会社カラフルキャリアＬａｂ,,合同会社,滋賀県,草津市,川原３丁目１番３１号,,25,206,5250021,,,,,,,2022-04-05,1,,,,,カラフルキャリアラボ,0
2358,9180001150702,新規,0,2022-04-05,2022-04-05,株式会社ＦＯＲＣＥ,,株式会社,愛知県,名古屋市西区,南川町３０１番地,,23,104,4520814,,,,,,,2022-04-05,1,,,,,フォース,0
2359,9180001150735,新規,0,2022-04-05,2022-04-05,株式会社ハイブリッジ,,株式会社,愛知県,名古屋市天白区,保呂町３０６番地,,23,116,4680041,,,,,,,2022-04-05,1,,,,,ハイブリッジ,0
2364,9180003023674,新規,0,2022-04-05,2022-04-05,合同会社大黒,,合同会社,愛知県,名古屋市中村区,名駅４丁目２６番２２号,,23,105,4500002,,,,,,,2022-04-05,1,,,,,ダイコク,0
2365,9180003023690,新規,0,2022-04-05,2022-04-05,合同会社ホワイト,,合同会社,愛知県,名古屋市中区,錦３丁目１４番４号シャインアルファ錦ビル８０１号室,,23,106,4600003,,,,,,,2022-04-05,1,,,,,ホワイト,0
2367,9180301036072,新規,0,2022-04-05,2022-04-05,ケーズテック株式会社,,株式会社,愛知県,安城市,三河安城南町１丁目１５番地８サンテラス三河安城６階,,23,212,4460058,,,,,,,2022-04-05,1,,,,,ケーズテック,0
2368,9180301036080,新規,0,2022-04-05,2022-04-05,ＧＲＡＮＤ．ＤＥＳＩＧＮ　ＯＦＦＩＣＥ株式会社,,株式会社,愛知県,岡崎市,明大寺町字大圦６３番地２,,23,202,4440865,,,,,,,2022-04-05,1,,,,,グランドデザインオフィス,0
2372,9200001039926,新規,0,2022-04-05,2022-04-05,株式会社ＨＥＲＯＵ,,株式会社,岐阜県,大垣市,本町２丁目２６番地,,21,202,5030885,,,,,,,2022-04-05,1,,,,,ヒーロー,0
2373,9200001039934,新規,0,2022-04-05,2022-04-05,株式会社Ｍ・Ｎ・Ｔ,,株式会社,岐阜県,羽島市,正木町大浦１４３６番地１,,21,209,5016224,,,,,,,2022-04-05,1,,,,,エムエヌティ,0
2374,9200001039950,新規,0,2022-04-05,2022-04-05,アグリテック羽島株式会社,,株式会社,岐阜県,羽島市,桑原町八神１９８６番地,,21,209,5016321,,,,,,,2022-04-05,1,,,,,アグリテックハシマ,0
2378,9200003005521,新規,0,2022-04-05,2022-04-05,合同会社ＣＯ　ｄｅｓｉｇｎ,,合同会社,岐阜県,岐阜市,近島５丁目２番１５号（ＭＯＭＯ１Ｆ号室）,,21,201,5020908,,,,,,,2022-04-05,1,,,,,コーデザイン,0
2380,9230001019289,新規,0,2022-04-05,2022-04-05,まめまき株式会社,,株式会社,富山県,高岡市,守山２８２番地,,16,202,9330984,,,,,,,2022-04-05,1,,,,,マメマキ,0
2392,9240001059516,新規,0,2022-04-05,2022-04-05,株式会社ツカサ,,株式会社,広島県,福山市,東深津町２丁目７番４６号,,34,207,7210974,,,,,,,2022-04-05,1,,,,,ツカサ,0
2393,9240001059573,新規,0,2022-04-05,2022-04-05,住田ビジネスエキスパート株式会社,,株式会社,広島県,広島市中区,東平塚町１番９号,,34,101,7300025,,,,,,,2022-04-05,1,,,,,スミダビジネスエキスパート,0
2394,9240003005575,新規,0,2022-04-05,2022-04-05,ミヤビ合同会社,,合同会社,広島県,広島市西区,井口１丁目６番１７号,,34,104,7330842,,,,,,,2022-04-05,1,,,,,ミヤビ,0
2396,9250001019477,新規,0,2022-04-05,2022-04-05,株式会社ｓｉｏｎ,,株式会社,山口県,光市,虹ケ浜３丁目１７番１８号Ｃ－２０１号,,35,210,7430022,,,,,,,2022-04-05,1,,,,,シオン,0
2397,9250001019485,新規,0,2022-04-05,2022-04-05,株式会社ハートコープやまぐち,,株式会社,山口県,山口市,朝田１０６０１－３９,,35,203,7530871,,,,,,,2022-04-05,1,,,,,ハートコープヤマグチ,0
2398,9250003003033,新規,0,2022-04-05,2022-04-05,トラスター合同会社,,合同会社,山口県,山口市,米屋町２－７,,35,203,7530087,,,,,,,2022-04-05,1,,,,,トラスター,0
2399,9260001036711,新規,0,2022-04-05,2022-04-05,株式会社ＳｅａＷｏｒｋｓ,,株式会社,岡山県,岡山市北区,国体町４番３０号１９１１,,33,101,7000021,,,,,,,2022-04-05,1,,,,,,0
2408,9290001097008,新規,0,2022-04-05,2022-04-05,オールインマーケティング株式会社,,株式会社,福岡県,福岡市中央区,大宮１丁目１番２６号,,40,133,8100013,,,,,,,2022-04-05,1,,,,,オールインマーケティング,0
2409,9290001097065,新規,0,2022-04-05,2022-04-05,株式会社住・Ｃｒａｆｔ,,株式会社,福岡県,福岡市西区,下山門４丁目８番３０－６０８号,,40,135,8190052,,,,,,,2022-04-05,1,,,,,ジュウクラフト,0
2412,9290003012204,新規,0,2022-04-05,2022-04-05,ＲＥＬＡ合同会社,,合同会社,福岡県,朝倉郡東峰村,大字福井２７２２－１,,40,448,8381702,,,,,,,2022-04-05,1,,,,,レラ,0
2413,9290003012352,新規,0,2022-04-05,2022-04-05,合同会社クローバー,,合同会社,福岡県,福岡市東区,八田１丁目２番２２－７０１号,,40,131,8130031,,,,,,,2022-04-05,1,,,,,クローバー,0
2414,9290005018612,新規,0,2022-04-05,2022-04-05,一般社団法人ワーカーズ・コレクティブ連合虹色かけはし,,その他の設立登記法人,福岡県,福岡市博多区,博多駅前１丁目５番１号,,40,132,8120011,,,,,,,2022-04-05,1,,,,,ワーカーズコレクティブレンゴウニジイロカケハシ,0
2415,9290005018620,新規,0,2022-04-05,2022-04-05,医療法人ひぐち内科クリニック,,その他の設立登記法人,福岡県,糟屋郡新宮町,緑ケ浜４丁目１０番５号,,40,345,8110119,,,,,,,2022-04-05,1,,,,,ヒグチナイカクリニック,0
2417,9290801028392,新規,0,2022-04-05,2022-04-05,築上シビル株式会社,,株式会社,福岡県,築上郡築上町,大字築城９４５番地１,,40,647,8290102,,,,,,,2022-04-05,1,,,,,チクジョウシビル,0
2421,9290803004094,新規,0,2022-04-05,2022-04-05,大庭建設合同会社,,合同会社,福岡県,北九州市若松区,大字小竹６９４,,40,103,8080108,,,,,,,2022-04-05,1,,,,,オオバサンギョウ,0
2423,9310001017788,新規,0,2022-04-05,2022-04-05,株式会社ミライステラス,,株式会社,長崎県,佐世保市,鹿町町口ノ里４９１番地１,,42,202,8596203,,,,,,,2022-04-05,1,,,,,ミライステラス,0
2424,9310001017796,新規,0,2022-04-05,2022-04-05,株式会社太賀,,株式会社,長崎県,長崎市,琴海村松町７１７番地６,,42,201,8513102,,,,,,,2022-04-05,1,,,,,タイカ,0
2430,9340001024633,新規,0,2022-04-05,2022-04-05,株式会社ポークランド,,株式会社,鹿児島県,曽於市,財部町南俣１００４１番地２,,46,217,8994101,,,,,,,2022-04-05,1,,,,,ポークランド,0
2431,9340003003750,新規,0,2022-04-05,2022-04-05,合同会社Ｊｉｎ．Ｈｅａｒｔ,,合同会社,鹿児島県,鹿児島市,薬師２丁目１７番２４号３Ｆ,,46,201,8900042,,,,,,,2022-04-05,1,,,,,ジンハート,0
2432,9340005009432,新規,0,2022-04-05,2022-04-05,一般財団法人霧島神宮霧島講社,,その他の設立登記法人,鹿児島県,霧島市,霧島田口２６０８番地５,,46,218,8994201,,,,,,,2022-04-05,1,,,,,キリシマジングウキリシマコウシャ,0
2433,9340005009440,新規,0,2022-04-05,2022-04-05,一般社団法人屋久島,,その他の設立登記法人,鹿児島県,熊毛郡屋久島町,宮之浦７９９番地,,46,505,8914205,,,,,,,2022-04-05,1,,,,,ヤクシマ,0
2435,9350005006057,新規,0,2022-04-05,2022-04-05,一般社団法人都城市スポーツコミッション,,その他の設立登記法人,宮崎県,都城市,姫城町６街区２１号,,45,202,8850073,,,,,,,2022-04-05,1,,,,,ミヤコノジョウシスポーツコミッション,0
2441,9380001032707,新規,0,2022-04-05,2022-04-05,株式会社彩みどり,,株式会社,福島県,双葉郡富岡町,大字上手岡字上千里２５番地,,07,543,9791141,,,,,,,2022-04-05,1,,,,,イロドリミドリ,0
2443,9380003005140,新規,0,2022-04-05,2022-04-05,圭隆土木合同会社,,合同会社,福島県,福島市,岡部字東町２２番地の１Ｋ・ＩアパートＡ２０２号,,07,201,9608204,,,,,,,2022-04-05,1,,,,,ケイリュウドボク,0
2444,9380003005149,新規,0,2022-04-05,2022-04-05,よろずや本舗合同会社,,合同会社,福島県,伊達市,根田１５番地９,,07,213,9600472,,,,,,,2022-04-05,1,,,,,ヨロズヤホンポ,0
2445,9390001016849,新規,0,2022-04-05,2022-04-05,三友設備株式会社,,株式会社,山形県,米沢市,東３丁目９番３１号,,06,202,9920026,,,,,,,2022-04-05,1,,,,,サンユウセツビ,0
2452,9430001086375,新規,0,2022-04-05,2022-04-05,株式会社Ａｐｒｉｃｏｔ,,株式会社,北海道,札幌市中央区,南十二条西１丁目１番１５－８０２号,,01,101,0640912,,,,,,,2022-04-05,1,,,,,アプリコット,0
2456,9480005006894,新規,0,2022-04-05,2022-04-05,一般社団法人ボランティアジャパン,,その他の設立登記法人,徳島県,阿南市,那賀川町豊香野１２０番地,,36,204,7791118,,,,,,,2022-04-05,1,,,,,ボランティアジャパン,0
