sequenceNumber,corporateNumber,process,correct,updateDate,changeDate,name,nameImageId,kind,prefectureName,cityName,streetNumber,addressImageId,prefectureCode,cityCode,postCode,addressOutside,addressOutsideImageId,closeDate,closeCause,successorCorporateNumber,changeCause,assignmentDate,latest,enName,enPrefectureName,enCityName,enAddressOutside,furigana,hihyoji
7,1010001224042,新規,0,2022-01-24,2022-01-24,株式会社データストラテジー,,株式会社,東京都,中央区,銀座１丁目１２－４Ｎ＆ＥＢＬＤ．７階,,13,102,1040061,,,,,,,2022-01-24,1,,,,,データストラテジー,0
9,1010003036808,新規,0,2022-01-24,2022-01-24,合同会社Ｂｉｒｉｂｉ,,合同会社,東京都,中央区,銀座１丁目６番１１号土志田ビルディング３Ｆ,,13,102,1040061,,,,,,,2022-01-24,1,,,,,ビリビ,0
21,1010403026945,新規,0,2022-01-24,2022-01-24,合同会社ＡＱＵＡＲＩＵＳ,,合同会社,東京都,港区,赤坂１丁目１２番３２号アーク森ビル１３階ＧＣＭアセットマネジメント株式会社内,,13,103,1070052,,,,,,,2022-01-24,1,,,,,アクエリアス,0
25,1010503006483,新規,0,2022-01-24,2022-01-24,合同会社荒井事務所,,合同会社,東京都,台東区,浅草橋３丁目２２番８号,,13,106,1110053,,,,,,,2022-01-24,1,,,,,アライジムショ,0
26,1010805002908,新規,0,2022-01-24,2022-01-24,行政書士法人羽田国際リーガルファーム,,その他の設立登記法人,東京都,大田区,蒲田５丁目３２番８－３０３号,,13,111,1440052,,,,,,,2022-01-24,1,,,,,ハネダコクサイリーガルファーム,0
29,1010901050216,新規,0,2022-01-24,2022-01-24,Ｒａｉｎｂｏｗ　ｒａｉｎ株式会社,,株式会社,東京都,世田谷区,成城４丁目９番１９号,,13,112,1570066,,,,,,,2022-01-24,1,,,,,レインボーレイン,0
30,1010903007098,新規,0,2022-01-24,2022-01-24,チェリーテラス合同会社,,合同会社,東京都,世田谷区,喜多見７丁目１５番２３号,,13,112,1570067,,,,,,,2022-01-24,1,,,,,チェリーテラス,0
48,1011101097568,新規,0,2022-01-24,2022-01-24,株式会社ＴｅａｌＴｒｕｓｔ,,株式会社,東京都,新宿区,下落合１丁目１１番４－３０４号,,13,104,1610033,,,,,,,2022-01-24,1,,,,,ティールトラスト,0
49,1011201023572,新規,0,2022-01-24,2022-01-24,ＪＥＳＣＯ　ＣＲＥ株式会社,,株式会社,東京都,中野区,中央４丁目３番４号,,13,114,1640011,,,,,,,2022-01-24,1,,,,,ジェスコシーアールイー,0
53,1011301027507,新規,0,2022-01-24,2022-01-24,株式会社ウインワークス,,株式会社,東京都,杉並区,下井草２丁目３６番９号,,13,115,1670022,,,,,,,2022-01-24,1,,,,,ウインワークス,0
54,1011301027515,新規,0,2022-01-24,2022-01-24,株式会社ＭＣジャパン,,株式会社,東京都,杉並区,高井戸西１丁目１０番３２号,,13,115,1680071,,,,,,,2022-01-24,1,,,,,エムシージャパン,0
64,1012701016900,新規,0,2022-01-24,2022-01-24,株式会社ココパレ,,株式会社,東京都,小平市,学園西町３丁目１６番２号,,13,211,1870045,,,,,,,2022-01-24,1,,,,,ココパレ,0
65,1012801021354,新規,0,2022-01-24,2022-01-24,株式会社ＬＩＬＹＬＡＳＨグループ,,株式会社,東京都,立川市,曙町１丁目１６番１号第３鐙坂ハウス３階,00125498,13,202,1900012,,,,,,,2022-01-24,1,,,,,リリーラッシュグループ,0
67,1012803002682,新規,0,2022-01-24,2022-01-24,合同会社スギヤマコンサルティング,,合同会社,東京都,立川市,曙町１丁目３７番２４号５Ｆ,00125489,13,202,1900012,,,,,,,2022-01-24,1,,,,,スギヤマコンサルティング,0
80,1020001144933,新規,0,2022-01-24,2022-01-24,株式会社ヒラノワークス,,株式会社,神奈川県,横浜市旭区,川井本町１４４番地３２,,14,112,2410803,,,,,,,2022-01-24,1,,,,,ヒラノワークス,0
81,1020001144941,新規,0,2022-01-24,2022-01-24,エンタコネクト株式会社,,株式会社,神奈川県,横浜市港南区,上大岡西２丁目８番１８号ＪＰビル４階Ａ－３,,14,111,2330002,,,,,,,2022-01-24,1,,,,,エンタコネクト,0
85,1021001075020,新規,0,2022-01-24,2022-01-24,株式会社ＴＡＭＡＳＨＩＲＯ,,株式会社,神奈川県,愛甲郡愛川町,中津３４４１番地の３,,14,401,2430303,,,,,,,2022-01-24,1,,,,,タマシロ,0
87,1021005012424,新規,0,2022-01-24,2022-01-24,一般財団法人逗子市渡邉利三奨学金財団,,その他の設立登記法人,神奈川県,逗子市,逗子５丁目２番１６号,,14,208,2490006,,,,,,,2022-01-24,1,,,,,ズシシワタナベトシゾウショウガクキンザイダン,0
93,1030001146466,新規,0,2022-01-24,2022-01-24,海納コンサルティング株式会社,,株式会社,埼玉県,蕨市,塚越７丁目３番１６号－１０２室,,11,223,3350002,,,,,,,2022-01-24,1,,,,,カイノウコンサルティング,0
96,1030003018688,新規,0,2022-01-24,2022-01-24,ケーシーエイチトレーディング合同会社,,合同会社,埼玉県,川越市,新宿町６丁目２１－２０－１０１,,11,201,3501124,,,,,,,2022-01-24,1,,,,,ケーシーエイチトレーディング,0
97,1030003018713,新規,0,2022-01-24,2022-01-24,合同会社アシストプラン,,合同会社,埼玉県,さいたま市見沼区,東大宮４丁目２６番地３鯨井ビル３０２号室,,11,104,3370051,,,,,,,2022-01-24,1,,,,,アシストプラン,0
102,1040001121848,新規,0,2022-01-24,2022-01-24,リヤン株式会社,,株式会社,千葉県,八千代市,八千代台北１丁目１０番地１８,,12,221,2760031,,,,,,,2022-01-24,1,,,,,リヤン,0
103,1040001121856,新規,0,2022-01-24,2022-01-24,吉野貿易株式会社,,株式会社,千葉県,野田市,尾崎２９７番地の２,,12,208,2700235,,,,,,,2022-01-24,1,,,,,ヨシノボウエキ,0
104,1040001121897,新規,0,2022-01-24,2022-01-24,八重建築株式会社,,株式会社,千葉県,千葉市若葉区,千城台東３丁目２１番１２号,,12,104,2640002,,,,,,,2022-01-24,1,,,,,ヤエケンチク,0
105,1040001121906,新規,0,2022-01-24,2022-01-24,億新株式会社,,株式会社,千葉県,市川市,若宮３丁目３７番１１号,,12,203,2720812,,,,,,,2022-01-24,1,,,,,オクシン,0
108,1040003019355,新規,0,2022-01-24,2022-01-24,合同会社Ｈｏｐｅｔｕｒｅ,,合同会社,千葉県,千葉市若葉区,小倉町７３０－３,,12,104,2640007,,,,,,,2022-01-24,1,,,,,ホープチュア,0
111,1050001050501,新規,0,2022-01-24,2022-01-24,株式会社大洗ダイカツ,,株式会社,茨城県,東茨城郡大洗町,五反田４５４番地１,,08,309,3111306,,,,,,,2022-01-24,1,,,,,オオアライダイカツ,0
112,1050001050518,新規,0,2022-01-24,2022-01-24,株式会社光防水工業,,株式会社,茨城県,水戸市,牛伏町２４０番地,,08,201,3190311,,,,,,,2022-01-24,1,,,,,ヒカルボウスイコウギョウ,0
113,1050002032399,新規,0,2022-01-24,2022-01-24,有限会社小林製作所,,有限会社,茨城県,北茨城市,大津町北町１１１０番地１５,,08,215,3191704,,,,,,,2022-01-24,1,,,,,,0
116,1060001034511,新規,0,2022-01-24,2022-01-24,余技アトリエ株式会社,,株式会社,栃木県,宇都宮市,上田原町１４１３番地１,,09,201,3291112,,,,,,,2022-01-24,1,,,,,ヨギアトリエ,0
128,1100001034993,新規,0,2022-01-24,2022-01-24,株式会社エルモ,,株式会社,長野県,諏訪郡下諏訪町,１１２番地１０,,20,361,3930000,,,,,,,2022-01-24,1,,,,,エルモ,0
129,1100001035001,新規,0,2022-01-24,2022-01-24,株式会社さくら薬品,,株式会社,長野県,岡谷市,神明町４丁目４番３２号,,20,204,3940004,,,,,,,2022-01-24,1,,,,,サクラヤクヒン,0
139,1120001243345,新規,0,2022-01-24,2022-01-24,リブジョイ株式会社,,株式会社,大阪府,交野市,倉治４丁目１７番１５号,,27,230,5760051,,,,,,,2022-01-24,1,,,,,リブジョイ,0
140,1120001243353,新規,0,2022-01-24,2022-01-24,株式会社古賀経営プランニング,,株式会社,大阪府,大阪市住之江区,中加賀屋１丁目１５番１４－４０９号,,27,125,5590017,,,,,,,2022-01-24,1,,,,,コガケイエイプランニング,0
141,1120001243361,新規,0,2022-01-24,2022-01-24,ジャパンキャスト株式会社,,株式会社,大阪府,大阪市北区,中之島２丁目３番３３号大阪三井物産ビル１３階,,27,127,5300005,,,,,,,2022-01-24,1,,,,,ジャパンキャスト,0
143,1120005022737,新規,0,2022-01-24,2022-01-24,かどや税理士法人,,その他の設立登記法人,大阪府,枚方市,楠葉並木１丁目３７番５号柴野ハイツＢ１０１,,27,210,5731118,,,,,,,2022-01-24,1,,,,,カドヤ,0
146,1120101064988,新規,0,2022-01-24,2022-01-24,株式会社Ａｏｉ,,株式会社,大阪府,松原市,天美東７丁目６番６号,,27,217,5800032,,,,,,,2022-01-24,1,,,,,アオイ,0
147,1120103004538,新規,0,2022-01-24,2022-01-24,堀八合同会社,,合同会社,大阪府,松原市,天美北５丁目３－１０,,27,217,5800031,,,,,,,2022-01-24,1,,,,,ホリハチ,0
149,1120901045493,新規,0,2022-01-24,2022-01-24,株式会社アンディス,,株式会社,大阪府,高槻市,富田町１丁目３１番２－３１０号,,27,207,5690814,,,,,,,2022-01-24,1,,,,,アンディス,0
157,1122005003601,新規,0,2022-01-24,2022-01-24,医療法人佳徳会,,その他の設立登記法人,大阪府,東大阪市,瓜生堂３丁目１番１１号瓜生堂クリニックビル３階,,27,227,5780946,,,,,,,2022-01-24,1,,,,,ケイトクカイ,0
162,1130001070961,新規,0,2022-01-24,2022-01-24,Ｂｅｓｐｏｋｅ　Ｊａｐａｎ　Ｔｒａｖｅｌ株式会社,,株式会社,京都府,京都市上京区,寺之内通智恵光院西入中猪熊町２９８番地,,26,102,6028493,,,,,,,2022-01-24,1,,,,,ビスポークジャパントラベル,0
163,1130001070986,新規,0,2022-01-24,2022-01-24,三恵リアルティ株式会社,,株式会社,京都府,福知山市,駅前町１９５番地の９,,26,201,6200045,,,,,,,2022-01-24,1,,,,,サンケイリアルティ,0
164,1130001070994,新規,0,2022-01-24,2022-01-24,株式会社ＫＹＯＢＩＳＨＩ,,株式会社,京都府,長岡京市,神足七ノ坪６番地,,26,209,6170833,,,,,,,2022-01-24,1,,,,,キョウビシ,0
171,1140001124642,新規,0,2022-01-24,2022-01-24,株式会社ティスラム,,株式会社,兵庫県,姫路市,田寺東４丁目１４番２７号,,28,201,6700081,,,,,,,2022-01-24,1,,,,,ティスラム,0
172,1140001124650,新規,0,2022-01-24,2022-01-24,株式会社Ｍ・ＳＴＹＬＥ,,株式会社,兵庫県,神戸市中央区,北長狭通２丁目３１番４７号ＭＥＩ,,28,110,6500012,,,,,,,2022-01-24,1,,,,,エムスタイル,0
176,1140003017258,新規,0,2022-01-24,2022-01-24,このみのクリエーション合同会社,,合同会社,兵庫県,川辺郡猪名川町,白金１丁目１番地７－３－５０２,,28,301,6660257,,,,,,,2022-01-24,1,,,,,コノミノクリエーション,0
178,1150001025278,新規,0,2022-01-24,2022-01-24,株式会社ＫＣＮなんたん,,株式会社,奈良県,生駒市,東生駒１丁目７０番地１,,29,209,6300213,,,,,,,2022-01-24,1,,,,,ケイシイエヌナンタン,0
183,1180001149652,新規,0,2022-01-24,2022-01-24,パートナーシップで社会課題を解決する株式会社,,株式会社,愛知県,名古屋市中区,丸の内２丁目１５番１２号－２,,23,106,4600002,,,,,,,2022-01-24,1,,,,,パートナーシップデシャカイカダイヲカイケツスル,0
184,1180001149693,新規,0,2022-01-24,2022-01-24,株式会社エレコン,,株式会社,愛知県,愛西市,草平町開田名５７番地１,,23,232,4968015,,,,,,,2022-01-24,1,,,,,エレコン,0
188,1190001029052,新規,0,2022-01-24,2022-01-24,三面六臂株式会社,,株式会社,三重県,津市,大門２１番２３号,,24,201,5140027,,,,,,,2022-01-24,1,,,,,サンメンロッピ,0
193,1200001039685,新規,0,2022-01-24,2022-01-24,株式会社ｓｕｐｅｒ　ｎｏｖａ,,株式会社,岐阜県,多治見市,平井町４丁目３１番地の６,,21,204,5070058,,,,,,,2022-01-24,1,,,,,スーパーノヴァ,0
201,1230005009194,新規,0,2022-01-24,2022-01-24,農事組合法人風野ファーム,,その他の設立登記法人,富山県,黒部市,宇奈月町愛本新６５０番地,,16,207,9380177,,,,,,,2022-01-24,1,,,,,カザノファーム,0
204,1240001059234,新規,0,2022-01-24,2022-01-24,株式会社きたじま,,株式会社,広島県,広島市安佐南区,毘沙門台１丁目１０番１－５０８号,,34,105,7310152,,,,,,,2022-01-24,1,,,,,キタジマ,0
205,1240003005467,新規,0,2022-01-24,2022-01-24,合同会社Ｄ＆Ｗ,,合同会社,広島県,府中市,用土町４５６番地１ツインクレストＢ－１０３,,34,208,7260022,,,,,,,2022-01-24,1,,,,,ディーアンドダブリュー,0
207,1250002015334,新規,0,2022-01-24,2022-01-24,有限会社丸木商会,,有限会社,山口県,周南市,糀町１丁目４８番地,,35,215,7450027,,,,,,,2022-01-24,1,,,,,マルキショウカイ,0
208,1260005011024,新規,0,2022-01-24,2022-01-24,ＮＰＯ法人おかやま地域福祉研究所ＣＯＭ,,その他の設立登記法人,岡山県,津山市,北園町５０番地,,33,203,7080003,,,,,,,2022-01-24,1,,,,,オカヤマチイキフクシケンキュウジョコム,0
212,1290001096181,新規,0,2022-01-24,2022-01-24,株式会社ｔａｇｓｔａ,,株式会社,福岡県,福岡市中央区,春吉１丁目７番１１号スペースキューブビル１Ｆ,,40,133,8100003,,,,,,,2022-01-24,1,,,,,タグスタ,0
219,1290803004044,新規,0,2022-01-24,2022-01-24,合同会社源,,合同会社,福岡県,京都郡苅田町,与原１丁目７番地４,,40,621,8000323,,,,,,,2022-01-24,1,,,,,ミナモト,0
230,1350003004012,新規,0,2022-01-24,2022-01-24,合同会社継,,合同会社,宮崎県,児湯郡木城町,大字椎木１１５番地１４,,45,404,8840102,,,,,,,2022-01-24,1,,,,,ケイ,0
233,1370001048109,新規,0,2022-01-24,2022-01-24,株式会社黒川商事,,株式会社,宮城県,石巻市,吉野町２丁目１番１４号,,04,202,9860015,,,,,,,2022-01-24,1,,,,,クロカワショウジ,0
247,1420003002438,新規,0,2022-01-24,2022-01-24,アップルプロデユース合同会社,,合同会社,青森県,黒石市,角田９０－４,,02,204,0360337,,,,,,,2022-01-24,1,,,,,アップルプロデユース,0
253,1430001085855,新規,0,2022-01-24,2022-01-24,大可工業株式会社,,株式会社,北海道,札幌市東区,東苗穂六条３丁目４番２２号フローラルハウス１０３号,,01,103,0070806,,,,,,,2022-01-24,1,,,,,オオカコウギョウ,0
254,1430001085863,新規,0,2022-01-24,2022-01-24,株式会社ＨＩＲＯＧＡＲＩ,,株式会社,北海道,札幌市中央区,大通西３丁目６番地北海道新聞本社ビル２階,,01,101,0600042,,,,,,,2022-01-24,1,,,,,ヒロガリ,0
264,1470005006408,新規,0,2022-01-24,2022-01-24,一般社団法人スクエアマイクロ,,その他の設立登記法人,香川県,木田郡三木町,大字池戸２４９１番地２,,37,341,7610701,,,,,,,2022-01-24,1,,,,,スクエアマイクロ,0
275,2010001223852,新規,0,2022-01-24,2022-01-24,株式会社Ｖｉｃｔｈｅｒ,,株式会社,東京都,千代田区,内神田１丁目５番６号小山第二ビル６階,,13,101,1010047,,,,,,,2022-01-24,1,,,,,ビクサー,0
276,2010001224017,新規,0,2022-01-24,2022-01-24,Ｔｅｅｌ株式会社,,株式会社,東京都,文京区,弥生２丁目６番５号Ｆｅｌｉｃｉｔｅ２０６,,13,105,1130032,,,,,,,2022-01-24,1,,,,,ティール,0
277,2010001224082,新規,0,2022-01-24,2022-01-24,サンライズ・ベンチャー・サポート株式会社,,株式会社,東京都,中央区,晴海１丁目８番１１号,,13,102,1040053,,,,,,,2022-01-24,1,,,,,サンライズベンチャーサポート,0
289,2010403026944,新規,0,2022-01-24,2022-01-24,合同会社キズク,,合同会社,東京都,港区,芝浦４丁目２２番１号芝浦アイランドエアタワー１５０２,,13,103,1080023,,,,,,,2022-01-24,1,,,,,キズク,0
290,2010405020623,新規,0,2022-01-24,2022-01-24,葛飾特定目的会社,,その他の設立登記法人,東京都,港区,元赤坂１丁目１番８号株式会社赤坂国際会計内,,13,103,1070051,,,,,,,2022-01-24,1,,,,,カツシカ,0
295,2010501048353,新規,0,2022-01-24,2022-01-24,株式会社台東ゴム,,株式会社,東京都,台東区,東上野１丁目２２番５号,,13,106,1100015,,,,,,,2022-01-24,1,,,,,タイトウゴム,0
303,2010701042081,新規,0,2022-01-24,2022-01-24,ヤクモホールディングス株式会社,,株式会社,東京都,品川区,大崎５丁目４番１８号,,13,109,1410032,,,,,,,2022-01-24,1,,,,,ヤクモホールディングス,0
307,2010801032668,新規,0,2022-01-24,2022-01-24,リンクコイン株式会社,,株式会社,東京都,大田区,蒲田５丁目７番８号９階,,13,111,1440052,,,,,,,2022-01-24,1,,,,,リンクコイン,0
309,2010901050215,新規,0,2022-01-24,2022-01-24,株式会社ＭＯＪＩＴＯＥＴＯ,,株式会社,東京都,世田谷区,宮坂３丁目３２－１０ミドルハイム２０１,,13,112,1560051,,,,,,,2022-01-24,1,,,,,モジトエト,0
310,2010901050223,新規,0,2022-01-24,2022-01-24,株式会社タイムタイズ,,株式会社,東京都,世田谷区,船橋１丁目３８－１６,,13,112,1560055,,,,,,,2022-01-24,1,,,,,タイムタイズ,0
311,2010901050231,新規,0,2022-01-24,2022-01-24,株式会社モチズキ,,株式会社,東京都,世田谷区,玉川台２丁目３７番４号,,13,112,1580096,,,,,,,2022-01-24,1,,,,,モチズキ,0
313,2010903007097,新規,0,2022-01-24,2022-01-24,Ｕｎｉ　Ｑｕｅｅｎ　Ｓｕｎ合同会社,,合同会社,東京都,世田谷区,駒沢公園１番１号Ｔｏｔｅ駒沢公園３Ｆ,,13,112,1540013,,,,,,,2022-01-24,1,,,,,ユニクイーンサン,0
320,2011101097641,新規,0,2022-01-24,2022-01-24,株式会社きぼうのみらい,,株式会社,東京都,新宿区,河田町６番３２号ＧＲＡＮＰＡＳＥＯ新宿河田町３０５,,13,104,1620054,,,,,,,2022-01-24,1,,,,,キボウノミライ,0
322,2011103011385,新規,0,2022-01-24,2022-01-24,早稲田メンタルカウンセリング合同会社,,合同会社,東京都,新宿区,早稲田町６９番地４ウエステール早稲田６階,,13,104,1620042,,,,,,,2022-01-24,1,,,,,ワセダメンタルカウンセリング,0
324,2011201023563,新規,0,2022-01-24,2022-01-24,ＣＲＯＳＳ株式会社,,株式会社,東京都,中野区,白鷺１丁目２５番６号,,13,114,1650035,,,,,,,2022-01-24,1,,,,,クロス,0
325,2011205002472,新規,0,2022-01-24,2022-01-24,特定非営利活動法人水夢王国,,その他の設立登記法人,東京都,中野区,江古田３丁目４番３号山本荘１０１,,13,114,1650022,,,,,,,2022-01-24,1,,,,,スイムオウコク,0
331,2011503005037,新規,0,2022-01-24,2022-01-24,合同会社Ｃｏｎｔｒｉｂｕｔｉｏｎ,,合同会社,東京都,北区,赤羽１丁目６０番１－３０３号グランディール,,13,117,1150045,,,,,,,2022-01-24,1,,,,,コントリビューション,0
334,2011601025688,新規,0,2022-01-24,2022-01-24,株式会社オンワードリモデリング,,株式会社,東京都,練馬区,谷原６丁目１８番２９号,,13,120,1770032,,,,,,,2022-01-24,1,,,,,オンワードリモデリング,0
337,2011801040223,新規,0,2022-01-24,2022-01-24,大可金属リサイクル株式会社,,株式会社,東京都,足立区,神明３丁目１１番１６号,,13,121,1210051,,,,,,,2022-01-24,1,,,,,ダイカキンゾクリサイクル,0
339,2011803004911,新規,0,2022-01-24,2022-01-24,合同会社ＣｉＰ,,合同会社,東京都,足立区,谷在家２丁目１１番１１号,,13,121,1230863,,,,,,,2022-01-24,1,,,,,チップ,0
340,2012301012844,新規,0,2022-01-24,2022-01-24,株式会社ｆｒｏｇｍａｎ’ｓ　ｄｅｓｉｇｎ．,,株式会社,東京都,町田市,野津田町２６１１－１６,,13,209,1950063,,,,,,,2022-01-24,1,,,,,フロッグマンズデザイン,0
353,2020001144866,新規,0,2022-01-24,2022-01-24,Ｍｏｖｉｎｇ株式会社,,株式会社,神奈川県,横浜市中区,北仲通５丁目５７番地２ザ・タワー横浜北仲２９２４号室,,14,104,2310003,,,,,,,2022-01-24,1,,,,,ムーヴィング,0
354,2020001144932,新規,0,2022-01-24,2022-01-24,株式会社ユキ・コーポレーション,,株式会社,神奈川県,横浜市港北区,新羽町３７４６番地,,14,109,2230057,,,,,,,2022-01-24,1,,,,,ユキコーポレーション,0
359,2021001075028,新規,0,2022-01-24,2022-01-24,三東産業株式会社,,株式会社,神奈川県,綾瀬市,深谷上６丁目４番２６号,,14,218,2521108,,,,,,,2022-01-24,1,,,,,サントウサンギョウ,0
367,2030001146457,新規,0,2022-01-24,2022-01-24,株式会社タイガー,,株式会社,埼玉県,春日部市,赤崎１０１番地２,,11,214,3440126,,,,,,,2022-01-24,1,,,,,タイガー,0
370,2030003018704,新規,0,2022-01-24,2022-01-24,合同会社鴻盛商社,,合同会社,埼玉県,さいたま市浦和区,常盤１丁目１番７－１２０３号,,11,107,3300061,,,,,,,2022-01-24,1,,,,,コウセイショウシャ,0
371,2030003018712,新規,0,2022-01-24,2022-01-24,ダウンタウン合同会社,,合同会社,埼玉県,川越市,並木西町１８－５０,,11,201,3500025,,,,,,,2022-01-24,1,,,,,ダウンタウン,0
372,2030005020699,新規,0,2022-01-24,2022-01-24,一般社団法人ここはな,,その他の設立登記法人,埼玉県,児玉郡神川町,大字植竹７９５番地,,11,383,3670245,,,,,,,2022-01-24,1,,,,,ココハナ,0
377,2040001121871,新規,0,2022-01-24,2022-01-24,三日月シーパーク鴨川株式会社,,株式会社,千葉県,鴨川市,内浦２７８１番地１,,12,223,2995502,,,,,,,2022-01-24,1,,,,,ミカヅキシーパークカモガワ,0
383,2040003019362,新規,0,2022-01-24,2022-01-24,合同会社はぴねす,,合同会社,千葉県,市川市,平田３丁目８－１９市川遠山ビル１階,,12,203,2720031,,,,,,,2022-01-24,1,,,,,ハピネス,0
398,2100003006379,新規,0,2022-01-24,2022-01-24,合同会社和心,,合同会社,長野県,木曽郡上松町,本町通り２丁目１０１番地,,20,422,3995602,,,,,,,2022-01-24,1,,,,,ワシン,0
400,2110001036385,新規,0,2022-01-24,2022-01-24,株式会社ｋｏｕ,,株式会社,新潟県,新潟市東区,下場新町６番２７号,,15,102,9500832,,,,,,,2022-01-24,1,,,,,コウ,0
410,2120001243344,新規,0,2022-01-24,2022-01-24,ホウエイ株式会社,,株式会社,大阪府,大阪市阿倍野区,阪南町５丁目４番２８号,,27,119,5450021,,,,,,,2022-01-24,1,,,,,ホウエイ,0
411,2120001243385,新規,0,2022-01-24,2022-01-24,株式会社Ｆｉｘ,,株式会社,大阪府,大阪市北区,黒崎町２番６号光荘３階,,27,127,5300023,,,,,,,2022-01-24,1,,,,,フィックス,0
418,2120003021005,新規,0,2022-01-24,2022-01-24,合同会社ＡＩ－ＬＩＮＫ,,合同会社,大阪府,大阪市淀川区,西宮原１丁目７番３９号６０３号室,,27,123,5320004,,,,,,,2022-01-24,1,,,,,アイリンク,0
422,2120103004537,新規,0,2022-01-24,2022-01-24,合同会社ＣｕｅＴａｎｎｅｒ,,合同会社,大阪府,堺市東区,丈六９６番地８,,27,143,5998122,,,,,,,2022-01-24,1,,,,,キュータナー,0
425,2122005003600,新規,0,2022-01-24,2022-01-24,医療法人清菜会,,その他の設立登記法人,大阪府,東大阪市,鴻池本町２番５号,,27,227,5780971,,,,,,,2022-01-24,1,,,,,セイナカイ,0
432,2130001070993,新規,0,2022-01-24,2022-01-24,株式会社北村冷機工業,,株式会社,京都府,京都市西京区,大原野灰方町１８２番地の５,,26,111,6101132,,,,,,,2022-01-24,1,,,,,キタムラレイキコウギョウ,0
433,2130001071001,新規,0,2022-01-24,2022-01-24,株式会社ポケット,,株式会社,京都府,京都市中京区,押小路通西洞院東入ル二条西洞院町６３２番地３－３階,,26,104,6040000,,,,,,,2022-01-24,1,,,,,ポケット,0
439,2140001124625,新規,0,2022-01-24,2022-01-24,株式会社７ｔｅｒｒａｃｅ,,株式会社,兵庫県,洲本市,本町７丁目３番７号,,28,205,6560025,,,,,,,2022-01-24,1,,,,,ナナテラス,0
443,2150001025277,新規,0,2022-01-24,2022-01-24,株式会社Ｐｌｕｓ．Ｓ,,株式会社,奈良県,奈良市,朝日町１丁目４１０番地の６８,,29,201,6310014,,,,,,,2022-01-24,1,,,,,プラスエス,0
444,2160005011033,新規,0,2022-01-24,2022-01-24,一般社団法人百町物語,,その他の設立登記法人,滋賀県,大津市,長等２丁目１０番２号今堀ビル２階,,25,201,5200046,,,,,,,2022-01-24,1,,,,,ヒャクチョウモノガタリ,0
449,2180001149684,新規,0,2022-01-24,2022-01-24,株式会社ＧＩＦＴ,,株式会社,愛知県,名古屋市中区,栄３丁目１５番３３号栄ガスビル１３階,,23,106,4600008,,,,,,,2022-01-24,1,,,,,ギフト,0
450,2180001149692,新規,0,2022-01-24,2022-01-24,株式会社ヒビキ福祉農園,,株式会社,愛知県,豊明市,沓掛町東門２２番地１,,23,229,4701101,,,,,,,2022-01-24,1,,,,,ヒビキフクシノウエン,0
451,2180001149701,新規,0,2022-01-24,2022-01-24,ＯＳ・ＴＲＡＦＦＩＣＳ株式会社,,株式会社,愛知県,江南市,小杁町長者毛東８６番地,,23,217,4838408,,,,,,,2022-01-24,1,,,,,オーエストラフィックス,0
453,2180003023400,新規,0,2022-01-24,2022-01-24,合同会社輝,,合同会社,愛知県,一宮市,浅井町江森字堀田３番地７,,23,203,4910114,,,,,,,2022-01-24,1,,,,,カガヤキ,0
454,2180003023417,新規,0,2022-01-24,2022-01-24,合同会社ながせ企画,,合同会社,愛知県,春日井市,勝川新町３丁目２３番地,,23,206,4860941,,,,,,,2022-01-24,1,,,,,ナガセキカク,0
455,2180005019611,新規,0,2022-01-24,2022-01-24,特定非営利活動法人イロドリ,,その他の設立登記法人,愛知県,名古屋市守山区,吉根３丁目１２１６番地の２,,23,113,4630004,,,,,,,2022-01-24,1,,,,,イロドリ,0
463,2200001039684,新規,0,2022-01-24,2022-01-24,株式会社ＲＥＧＯＬＩＴＨ,,株式会社,岐阜県,可児市,下恵土３４３３番地６４４,,21,214,5090203,,,,,,,2022-01-24,1,,,,,レゴリス,0
469,2240003005474,新規,0,2022-01-24,2022-01-24,合同会社国際芸術プロデュース栄,,合同会社,広島県,広島市中区,千田町１丁目１２番５－２０２号,,34,101,7300052,,,,,,,2022-01-24,1,,,,,コクサイプロデュースサカエ,0
487,2290001096180,新規,0,2022-01-24,2022-01-24,株式会社ＫＭ．ＯＦＦＩＣＥ,,株式会社,福岡県,福岡市中央区,渡辺通１丁目１番１号サンセルコビル１２１号,,40,133,8100004,,,,,,,2022-01-24,1,,,,,ケイエムオフィス,0
488,2290001096197,新規,0,2022-01-24,2022-01-24,株式会社ヤスコウチ電器,,株式会社,福岡県,糟屋郡志免町,南里３丁目１２番２５号,,40,343,8112207,,,,,,,2022-01-24,1,,,,,ヤスコウチデンキ,0
489,2290001096214,新規,0,2022-01-24,2022-01-24,Ｈ．Ａ．Ａ．Ｐ株式会社,,株式会社,福岡県,福岡市博多区,博多駅南６丁目５番１１号,,40,132,8120016,,,,,,,2022-01-24,1,,,,,ハープ,0
497,2310003004262,新規,0,2022-01-24,2022-01-24,合同会社配工センター,,合同会社,長崎県,佐世保市,大潟町１０６６－８,,42,202,8580926,,,,,,,2022-01-24,1,,,,,ハイコウセンター,0
505,2350003004011,新規,0,2022-01-24,2022-01-24,合同会社ｍｏｂ,,合同会社,宮崎県,宮崎市,大坪東３丁目９番６号,,45,201,8800934,,,,,,,2022-01-24,1,,,,,モブ,0
534,2430003013565,新規,0,2022-01-24,2022-01-24,合同会社Ｐｏｗｅｒ　Ｌｉｆｅ,,合同会社,北海道,札幌市中央区,北四条西２３丁目２番２８号ｇｏｏｄ　ｍａｉｓｏｎ１０５号室,,01,101,0640824,,,,,,,2022-01-24,1,,,,,パワーライフ,0
541,2460101007128,新規,0,2022-01-24,2022-01-24,株式会社島貫農機メンテナンス,,株式会社,北海道,河西郡芽室町,東十一条９丁目１番地５,,01,637,0820021,,,,,,,2022-01-24,1,,,,,シマヌキノウキメンテナンス,0
565,3010001223983,新規,0,2022-01-24,2022-01-24,エミージョリー株式会社,,株式会社,東京都,中央区,銀座５丁目１４番１７号,,13,102,1040061,,,,,,,2022-01-24,1,,,,,エミージョリー,0
566,3010001224016,新規,0,2022-01-24,2022-01-24,株式会社ＭＩＲＡＩ,,株式会社,東京都,文京区,湯島３丁目３８番１５号伸協ビル２階Ｂ号室,,13,105,1130034,,,,,,,2022-01-24,1,,,,,ミライ,0
567,3010001224040,新規,0,2022-01-24,2022-01-24,株式会社神保町サービス,,株式会社,東京都,千代田区,西神田２丁目２番地６号２０２号室,,13,101,1010065,,,,,,,2022-01-24,1,,,,,ジンボウチョウサービス,0
568,3010001224073,新規,0,2022-01-24,2022-01-24,株式会社アペルト,,株式会社,東京都,千代田区,岩本町１丁目１３番５号,,13,101,1010032,,,,,,,2022-01-24,1,,,,,アペルト,0
572,3010003036822,新規,0,2022-01-24,2022-01-24,合同会社ファースト,,合同会社,東京都,千代田区,内神田３丁目１９番７号神田北口駅前ビル地上３階,,13,101,1010047,,,,,,,2022-01-24,1,,,,,ファースト,0
573,3010003036847,新規,0,2022-01-24,2022-01-24,合同会社ＣＯＮＴＲＡＩＬ,,合同会社,東京都,文京区,湯島２丁目７－１０桜井ビル１Ｆ,,13,105,1130034,,,,,,,2022-01-24,1,,,,,コントレール,0
583,3010401164951,新規,0,2022-01-24,2022-01-24,株式会社クラフトコンサルティング,,株式会社,東京都,港区,元赤坂１丁目１番７号,,13,103,1070051,,,,,,,2022-01-24,1,,,,,クラフトコンサルティング,0
584,3010401165099,新規,0,2022-01-24,2022-01-24,株式会社深海,,株式会社,東京都,港区,六本木６丁目７番７号ラ・レンヌ六本木３階,,13,103,1060032,,,,,,,2022-01-24,1,,,,,シンカイ,0
590,3010601060463,新規,0,2022-01-24,2022-01-24,ＵＩＧＲＥＥＮ株式会社,,株式会社,東京都,墨田区,文花１丁目３４番１１号,,13,107,1310044,,,,,,,2022-01-24,1,,,,,ユーアイグリーン,0
595,3010701042122,新規,0,2022-01-24,2022-01-24,ＷＳＤ株式会社,,株式会社,東京都,品川区,西五反田１丁目２６番２号五反田サンハイツ９１１,,13,109,1410031,,,,,,,2022-01-24,1,,,,,ダブリューエスディー,0
597,3010803004037,新規,0,2022-01-24,2022-01-24,合同会社ユニオンデザイン,,合同会社,東京都,大田区,西糀谷１丁目１５番１３号カーサ・シエスタ１０１,,13,111,1440034,,,,,,,2022-01-24,1,,,,,ユニオンデザイン,0
599,3010901050230,新規,0,2022-01-24,2022-01-24,株式会社フォーチュン,,株式会社,東京都,世田谷区,桜２丁目９番３０号,,13,112,1560053,,,,,,,2022-01-24,1,,,,,フォーチュン,0
603,3011001145251,新規,0,2022-01-24,2022-01-24,株式会社レイズ,,株式会社,東京都,渋谷区,恵比寿南１丁目１０番７－８０６号,,13,113,1500022,,,,,,,2022-01-24,1,,,,,レイズ,0
606,3011003014017,新規,0,2022-01-24,2022-01-24,合同会社ｅｘｉｔ,,合同会社,東京都,目黒区,目黒４丁目２０－２２レジオン祐天寺２０２,,13,110,1530063,,,,,,,2022-01-24,1,,,,,,0
607,3011003014041,新規,0,2022-01-24,2022-01-24,ガジェットレシピ合同会社,,合同会社,東京都,渋谷区,千駄ヶ谷３丁目４番１８号,,13,113,1510051,,,,,,,2022-01-24,1,,,,,ガジェットレシピ,0
611,3011101097566,新規,0,2022-01-24,2022-01-24,ノルテクラフト株式会社,,株式会社,東京都,新宿区,新宿１丁目３６番２号新宿第七葉山ビル３階,,13,104,1600022,,,,,,,2022-01-24,1,,,,,ノルテクラフト,0
613,3011103011392,新規,0,2022-01-24,2022-01-24,合同会社藤丸葬祭,,合同会社,東京都,新宿区,西新宿３丁目３番１３号西新宿水間ビル６階,,13,104,1600023,,,,,,,2022-01-24,1,,,,,フジマルソウサイ,0
616,3011203003736,新規,0,2022-01-24,2022-01-24,コモンズセンス合同会社,,合同会社,東京都,中野区,新井３丁目４－４－１０１,,13,114,1650026,,,,,,,2022-01-24,1,,,,,コモンズセンス,0
617,3011301027513,新規,0,2022-01-24,2022-01-24,株式会社ＪＡＭＳ,,株式会社,東京都,杉並区,高円寺北３丁目４５番２号Ｔ・リモージュ１０７号室,,13,115,1660002,,,,,,,2022-01-24,1,,,,,ジャムス,0
623,3011801040230,新規,0,2022-01-24,2022-01-24,株式会社共栄土木,,株式会社,東京都,足立区,大谷田５丁目６番１６号,,13,121,1200001,,,,,,,2022-01-24,1,,,,,キョウエイドボク,0
624,3011801040239,新規,0,2022-01-24,2022-01-24,株式会社ＡＳＩＴＡＮＯ,,株式会社,東京都,足立区,伊興２丁目１９番２１－６０２号,,13,121,1210823,,,,,,,2022-01-24,1,,,,,アシタノ,0
629,3012703002392,新規,0,2022-01-24,2022-01-24,Ｃｈｅｍｉｎ　Ｃｏｎｓｕｌｔｉｎｇ合同会社,,合同会社,東京都,東久留米市,ひばりが丘団地７番８０号,,13,222,2030022,,,,,,,2022-01-24,1,,,,,シュマンコンサルティング,0
631,3012801021352,新規,0,2022-01-24,2022-01-24,株式会社藤和建設,,株式会社,東京都,昭島市,田中町１丁目２７番３号ソレアード２０１号,,13,207,1960014,,,,,,,2022-01-24,1,,,,,トウワケンセツ,0
637,3020001144907,新規,0,2022-01-24,2022-01-24,株式会社ブルーオーシャン,,株式会社,神奈川県,横浜市港北区,日吉本町１丁目４番２４号,,14,109,2230062,,,,,,,2022-01-24,1,,,,,ブルーオーシャン,0
648,3030001146448,新規,0,2022-01-24,2022-01-24,株式会社翔英,,株式会社,埼玉県,本庄市,日の出３丁目８番２４号ワコーレ本庄１０３,,11,211,3670022,,,,,,,2022-01-24,1,,,,,ショウエイ,0
649,3030001146472,新規,0,2022-01-24,2022-01-24,株式会社タナカ,,株式会社,埼玉県,三郷市,彦川戸１丁目１２７番地,,11,237,3410005,,,,,,,2022-01-24,1,,,,,タナカ,0
650,3030001146480,新規,0,2022-01-24,2022-01-24,株式会社フォーフィールド,,株式会社,埼玉県,朝霞市,朝志ケ丘１丁目１番１０号,,11,227,3510035,,,,,,,2022-01-24,1,,,,,フォーフィールド,0
659,3040001121838,新規,0,2022-01-24,2022-01-24,株式会社ガーデン,,株式会社,千葉県,成田市,郷部１５０番地,,12,211,2860014,,,,,,,2022-01-24,1,,,,,ガーデン,0
660,3040001121870,新規,0,2022-01-24,2022-01-24,三日月シーパーク勝浦株式会社,,株式会社,千葉県,勝浦市,墨名８２０番地,,12,218,2995225,,,,,,,2022-01-24,1,,,,,ミカヅキシーパークカツウラ,0
661,3040001121895,新規,0,2022-01-24,2022-01-24,株式会社ほすぴマ,,株式会社,千葉県,市川市,原木２５２６番地３２,,12,203,2720004,,,,,,,2022-01-24,1,,,,,ホスピマ,0
662,3040001121904,新規,0,2022-01-24,2022-01-24,Ｄ＆Ａ株式会社,,株式会社,千葉県,八街市,東吉田５６７－２グリーンハイツ１０２,,12,230,2891114,,,,,,,2022-01-24,1,,,,,ディーアンドエー,0
664,3040003019361,新規,0,2022-01-24,2022-01-24,合同会社Ｍｉｇｈｔｙ１,,合同会社,千葉県,松戸市,大金平１丁目４３－２レトロビルｓＡｎｋＡｋｕ４Ｆ,,12,207,2700006,,,,,,,2022-01-24,1,,,,,マイティーワン,0
674,3070001038872,新規,0,2022-01-24,2022-01-24,株式会社ライフメイク,,株式会社,群馬県,みどり市,大間々町大間々１３７５番地,,10,212,3760101,,,,,,,2022-01-24,1,,,,,ライフメイク,0
682,3080101023063,新規,0,2022-01-24,2022-01-24,株式会社ヨシヒロ,,株式会社,静岡県,沼津市,西条町９９番地,,22,203,4100804,,,,,,,2022-01-24,1,,,,,ヨシヒロ,0
683,3080403004455,新規,0,2022-01-24,2022-01-24,合同会社ＹＧＰソーラーＡ,,合同会社,静岡県,御前崎市,新野２番地,,22,223,4371611,,,,,,,2022-01-24,1,,,,,ワイジーピーソーラーエー,0
694,3110001036384,新規,0,2022-01-24,2022-01-24,株式会社ＮＥＣＫＴＩＥ,,株式会社,新潟県,上越市,春日山町１丁目２４番４６号コーポ瑞１０１号,,15,222,9430807,,,,,,,2022-01-24,1,,,,,ネクタイ,0
699,3120001243252,新規,0,2022-01-24,2022-01-24,株式会社セカンドライフ,,株式会社,大阪府,寝屋川市,池田本町２０番３７号,,27,215,5720030,,,,,,,2022-01-24,1,,,,,セカンドライフ,0
700,3120001243335,新規,0,2022-01-24,2022-01-24,前沿株式会社,,株式会社,大阪府,大阪市中央区,北久宝寺町４丁目３番８－３０３号,,27,128,5410057,,,,,,,2022-01-24,1,,,,,ゼンエン,0
701,3120001243384,新規,0,2022-01-24,2022-01-24,株式会社ゼニス,,株式会社,大阪府,大阪市港区,三先１丁目１１番２５号,,27,107,5520016,,,,,,,2022-01-24,1,,,,,ゼニス,0
702,3120001243401,新規,0,2022-01-24,2022-01-24,デジタル革新株式会社,,株式会社,大阪府,大阪市阿倍野区,相生通２丁目１４番２７号,,27,119,5450033,,,,,,,2022-01-24,1,,,,,デジタルカクシン,0
717,3120103004536,新規,0,2022-01-24,2022-01-24,合同会社ＥＡＳＴ,,合同会社,大阪府,河内長野市,小塩町４０７番地の４,,27,216,5860035,,,,,,,2022-01-24,1,,,,,イースト,0
722,3122001035530,新規,0,2022-01-24,2022-01-24,株式会社ミッドエイト,,株式会社,大阪府,東大阪市,稲葉１丁目１３番９号,,27,227,5780925,,,,,,,2022-01-24,1,,,,,ミッドエイト,0
729,3130001070984,新規,0,2022-01-24,2022-01-24,株式会社ナックス,,株式会社,京都府,京都市伏見区,深草直違橋８丁目２４０,,26,109,6120889,,,,,,,2022-01-24,1,,,,,ナックス,0
730,3130001070992,新規,0,2022-01-24,2022-01-24,株式会社自侑自財,,株式会社,京都府,京都市右京区,嵯峨野東田町３番地９,,26,108,6168326,,,,,,,2022-01-24,1,,,,,ジユウジザイ,0
731,3130001071000,新規,0,2022-01-24,2022-01-24,株式会社コウエイ電気,,株式会社,京都府,城陽市,久世里ノ西２３１番地の１,,26,207,6100102,,,,,,,2022-01-24,1,,,,,コウエイデンキ,0
737,3140001124632,新規,0,2022-01-24,2022-01-24,アライホールディングス株式会社,,株式会社,兵庫県,神戸市垂水区,下畑町字雲星４９８番地４８,,28,108,6550861,,,,,,,2022-01-24,1,,,,,アライホールディングス,0
740,3150001025276,新規,0,2022-01-24,2022-01-24,株式会社プラスサム,,株式会社,奈良県,香芝市,良福寺１９７番地１４２,,29,210,6390235,,,,,,,2022-01-24,1,,,,,プラスサム,0
741,3160001023956,新規,0,2022-01-24,2022-01-24,株式会社明和トレース,,株式会社,滋賀県,近江八幡市,桜宮町２０７―６、１Ｆ,,25,204,5230893,,,,,,,2022-01-24,1,,,,,メイワトレース,0
743,3160003002479,新規,0,2022-01-24,2022-01-24,合同会社長宗我部製作所,,合同会社,滋賀県,大津市,木下町５番４－３０７号,,25,201,5200812,,,,,,,2022-01-24,1,,,,,チョウソカベセイサクショ,0
746,3170003001678,新規,0,2022-01-24,2022-01-24,合同会社俵,,合同会社,和歌山県,和歌山市,松江北７丁目８番３号,,30,201,6408425,,,,,,,2022-01-24,1,,,,,タワラ,0
753,3180001149634,新規,0,2022-01-24,2022-01-24,株式会社みんと,,株式会社,愛知県,小牧市,大字北外山字城島１１４０番地７,,23,219,4850023,,,,,,,2022-01-24,1,,,,,ミント,0
754,3180001149683,新規,0,2022-01-24,2022-01-24,株式会社カノア,,株式会社,愛知県,津島市,東愛宕町３丁目３９番地１１,,23,208,4960035,,,,,,,2022-01-24,1,,,,,カノア,0
755,3180001149691,新規,0,2022-01-24,2022-01-24,株式会社野口工業,,株式会社,愛知県,名古屋市東区,葵１丁目２番６号ＰＲＥＭＩＵＭＣＯＵＲＴ葵８０５号,,23,102,4610004,,,,,,,2022-01-24,1,,,,,ノグチコウギョウ,0
756,3180001149709,新規,0,2022-01-24,2022-01-24,サンクエスト株式会社,,株式会社,愛知県,清須市,東須ケ口３２番地,,23,233,4520904,,,,,,,2022-01-24,1,,,,,サンクエスト,0
758,3180003023390,新規,0,2022-01-24,2022-01-24,油圧ホース修理サポート合同会社,,合同会社,愛知県,名古屋市千種区,千種通７丁目２５番地１号,,23,101,4640855,,,,,,,2022-01-24,1,,,,,ユアツホースシュウリサポート,0
759,3180003023416,新規,0,2022-01-24,2022-01-24,ＩｎｄｉｅＢｏｘ合同会社,,合同会社,愛知県,名古屋市中区,錦３丁目１番１４号,,23,106,4600003,,,,,,,2022-01-24,1,,,,,インディーボックス,0
762,3180005019610,新規,0,2022-01-24,2022-01-24,特定非営利活動法人教協,,その他の設立登記法人,愛知県,名古屋市北区,上飯田南町４丁目１番地の３市営上飯田南荘１棟６１５号,,23,103,4620804,,,,,,,2022-01-24,1,,,,,キョウキョウ,0
779,3260003003780,新規,0,2022-01-24,2022-01-24,イチカム合同会社,,合同会社,岡山県,岡山市中区,門田本町２丁目２番５４－３号,,33,102,7038274,,,,,,,2022-01-24,1,,,,,イチカム,0
785,3290001096205,新規,0,2022-01-24,2022-01-24,株式会社カンサイテックデザイン,,株式会社,福岡県,福岡市博多区,住吉５丁目３１番１４号,,40,132,8120018,,,,,,,2022-01-24,1,,,,,カンサイテックデザイン,0
788,3310001017686,新規,0,2022-01-24,2022-01-24,株式会社ヌライズ,,株式会社,長崎県,長崎市,弥生町１０－６６,,42,201,8500823,,,,,,,2022-01-24,1,,,,,ヌライズ,0
798,3350001017550,新規,0,2022-01-24,2022-01-24,株式会社アクトインターナショナルフード,,株式会社,宮崎県,都城市,都原町３６番地７,,45,202,8850094,,,,,,,2022-01-24,1,,,,,アクトインターナショナルフード,0
800,3350003004010,新規,0,2022-01-24,2022-01-24,合同会社ｊｏｙ,,合同会社,宮崎県,宮崎市,佐土原町下田島９３８３番地１,,45,201,8800211,,,,,,,2022-01-24,1,,,,,ジョイ,0
803,3360001029925,新規,0,2022-01-24,2022-01-24,株式会社оｆｆｉｃｅ双葉,,株式会社,沖縄県,浦添市,宮城１丁目１番１７号、１Ｆ,,47,208,9012126,,,,,,,2022-01-24,1,,,,,オフィスフタバ,0
808,3380001032514,新規,0,2022-01-24,2022-01-24,株式会社赤坂プランニング,,株式会社,福島県,福島市,森合町１３番３０号,,07,201,9608002,,,,,,,2022-01-24,1,,,,,アカサカプランニング,0
809,3380001032522,新規,0,2022-01-24,2022-01-24,株式会社ＪＡＭ,,株式会社,福島県,須賀川市,東町６２番地１４,,07,207,9620844,,,,,,,2022-01-24,1,,,,,,0
832,3420001017717,新規,0,2022-01-24,2022-01-24,株式会社なるみ農場,,株式会社,青森県,五所川原市,金木町嘉瀬端山崎２番地５,,02,205,0370204,,,,,,,2022-01-24,1,,,,,ナルミノウジョウ,0
837,3440001009019,新規,0,2022-01-24,2022-01-24,株式会社奈良農場,,株式会社,北海道,檜山郡厚沢部町,鶉町７０６番地２,,01,363,0431237,,,,,,,2022-01-24,1,,,,,ナラノウジョウ,0
840,3460101007127,新規,0,2022-01-24,2022-01-24,株式会社石山ホールディングス,,株式会社,北海道,中川郡本別町,栄町１１８番地１６,,01,646,0893322,,,,,,,2022-01-24,1,,,,,イシヤマホールディングス,0
842,3460103001417,新規,0,2022-01-24,2022-01-24,合同会社ＳＫ．ＳＴＹＬＥ,,合同会社,北海道,帯広市,西六条南１３丁目１番地２ピュア６条Ｄ号室,,01,207,0800016,,,,,,,2022-01-24,1,,,,,エスケースタイル,0
848,3500001023954,新規,0,2022-01-24,2022-01-24,エクル株式会社,,株式会社,愛媛県,松山市,道後湯之町１２番２３号クレアホームズ道後湯之町１３０１号,,38,201,7900842,,,,,,,2022-01-24,1,,,,,エクル,0
852,3700150106507,新規,0,2022-01-24,2022-01-05,ＣｈａｌＣｈａｌ,,その他,東京都,杉並区,西荻北３丁目２５－１３レジェンシア西荻２０３,,13,115,1670042,,,,,,,2022-01-05,1,,,,,チヤルチヤル,0
869,4010001224015,新規,0,2022-01-24,2022-01-24,株式会社ソメヤ・オーガナイゼーション,,株式会社,東京都,中央区,銀座３丁目４番１号大倉別館５Ｆ,,13,102,1040061,,,,,,,2022-01-24,1,,,,,ソメヤオーガナイゼーション,0
870,4010001224048,新規,0,2022-01-24,2022-01-24,株式会社コイルシステムズ,,株式会社,東京都,千代田区,神田司町２丁目１０番４号オリゾンテ１２０１,,13,101,1010048,,,,,,,2022-01-24,1,,,,,コイルシステムズ,0
871,4010001224072,新規,0,2022-01-24,2022-01-24,パシコＨＤ株式会社,,株式会社,東京都,文京区,本駒込６丁目１番２１号,,13,105,1130021,,,,,,,2022-01-24,1,,,,,パシコホールディングス,0
880,4010401164711,新規,0,2022-01-24,2022-01-24,株式会社ＭＡＴＳＵ,,株式会社,東京都,港区,芝浦３丁目１５番地５－７０７号,,13,103,1080023,,,,,,,2022-01-24,1,,,,,マツ,0
896,4010901050205,新規,0,2022-01-24,2022-01-24,株式会社Ｈｅｎｊｉｎ,,株式会社,東京都,世田谷区,松原２丁目３６－５アローネ明大前２０５号室,,13,112,1560043,,,,,,,2022-01-24,1,,,,,ヘンジン,0
903,4011001145044,新規,0,2022-01-24,2022-01-24,株式会社アクト・エイド,,株式会社,東京都,渋谷区,千駄ヶ谷５丁目１６番５号ＤＯＢＬＥＣＯＵＲＴ４Ｓ,,13,113,1510051,,,,,,,2022-01-24,1,,,,,アクトエイド,0
904,4011001145060,新規,0,2022-01-24,2022-01-24,株式会社ＡＤＹＯＮＥ,,株式会社,東京都,渋谷区,恵比寿西２丁目８－１３ＦＬＥＧ恵比寿ｓｅｃｏｎｄ３０１,,13,113,1500021,,,,,,,2022-01-24,1,,,,,エーディーワン,0
905,4011001145176,新規,0,2022-01-24,2022-01-24,ＡＱ　ＧＯＬＤ株式会社,,株式会社,東京都,渋谷区,渋谷２丁目１９番１５号宮益坂ビルディング６０９,,13,113,1500002,,,,,,,2022-01-24,1,,,,,エーキューゴールド,0
906,4011001145250,新規,0,2022-01-24,2022-01-24,ＤＯＵＧＬＡＳ　ＢＵＳＩＮＥＳＳ　ＳＣＨＯＯＬ株式会社,,株式会社,東京都,渋谷区,代々木１丁目３０番１５号天翔代々木ビル５１５号室,,13,113,1510053,,,,,,,2022-01-24,1,,,,,ダグラスビジネススクール,0
907,4011001145267,新規,0,2022-01-24,2022-01-24,株式会社オウンシード,,株式会社,東京都,目黒区,自由が丘１丁目２６番８号キクモトビル３０５,,13,110,1520035,,,,,,,2022-01-24,1,,,,,オウンシード,0
908,4011001145283,新規,0,2022-01-24,2022-01-24,Ｃｏｍｍｕｎｉｔｙ　Ｍｏｂｉｌｉｔｙ株式会社,,株式会社,東京都,目黒区,下目黒１丁目８番１号,,13,110,1530064,,,,,,,2022-01-24,1,,,,,コミュニティモビリティ,0
909,4011001145341,新規,0,2022-01-24,2022-01-24,ＴＨアセット株式会社,,株式会社,東京都,目黒区,目黒４丁目２３番９号,,13,110,1530063,,,,,,,2022-01-24,1,,,,,ティーエイチアセット,0
910,4011003013983,新規,0,2022-01-24,2022-01-24,合同会社ＤＵＶＥＲ,,合同会社,東京都,渋谷区,神宮前６丁目２３番４号桑野ビル２Ｆ,,13,113,1500001,,,,,,,2022-01-24,1,,,,,デューバー,0
911,4011003014057,新規,0,2022-01-24,2022-01-24,合同会社ＧＯ　ＷＥＬＬ,,合同会社,東京都,目黒区,中町１丁目１１－１０,,13,110,1530065,,,,,,,2022-01-24,1,,,,,ゴーウェル,0
913,4011101097490,新規,0,2022-01-24,2022-01-24,ＧＥＳＡ　ＪＡＰＡＮ株式会社,,株式会社,東京都,新宿区,北新宿１丁目１２－１２サンエツビル４階,,13,104,1690074,,,,,,,2022-01-24,1,,,,,ゲイサジャパン,0
914,4011103011383,新規,0,2022-01-24,2022-01-24,合同会社Ｙｆｏｕｒｔａｉｎｍｅｎｔ,,合同会社,東京都,新宿区,新宿６丁目２０番８－２０１号,,13,104,1600022,,,,,,,2022-01-24,1,,,,,ワイフォーテインメント,0
915,4011103011391,新規,0,2022-01-24,2022-01-24,合同会社キャリー,,合同会社,東京都,新宿区,西新宿６丁目２１番１－２０２号,,13,104,1600023,,,,,,,2022-01-24,1,,,,,キャリー,0
917,4011203003735,新規,0,2022-01-24,2022-01-24,合同会社アカリコンサルティング,,合同会社,東京都,中野区,中野１丁目１９番３号,,13,114,1640001,,,,,,,2022-01-24,1,,,,,アカリコンサルティング,0
921,4011303004286,新規,0,2022-01-24,2022-01-24,合同会社コロンディー,,合同会社,東京都,杉並区,宮前３丁目３１－１７、１０１,,13,115,1680081,,,,,,,2022-01-24,1,,,,,コロンディー,0
925,4011401023972,新規,0,2022-01-24,2022-01-24,田中国際株式会社,,株式会社,東京都,板橋区,小豆沢２丁目３－９－４０６,,13,119,1740051,,,,,,,2022-01-24,1,,,,,タナカコクサイ,0
926,4011501027683,新規,0,2022-01-24,2022-01-24,ガンバト株式会社,,株式会社,東京都,荒川区,東日暮里４丁目１９番１０－４０１号,,13,118,1160014,,,,,,,2022-01-24,1,,,,,ガンバト,0
928,4011601025686,新規,0,2022-01-24,2022-01-24,株式会社Ｇースタイル,,株式会社,東京都,練馬区,北町２丁目２８番９号,,13,120,1790081,,,,,,,2022-01-24,1,,,,,ジースタイル,0
929,4011803004934,新規,0,2022-01-24,2022-01-24,合同会社プライム,,合同会社,東京都,葛飾区,東四つ木４丁目３９番９号,,13,122,1240014,,,,,,,2022-01-24,1,,,,,プライム,0
932,4012801021351,新規,0,2022-01-24,2022-01-24,株式会社ＳＯＭＡＳＯＮＨＯ,,株式会社,東京都,武蔵村山市,大南１丁目１１６番地の１５,,13,223,2080013,,,,,,,2022-01-24,1,,,,,ソマソーノ,0
933,4012805003081,新規,0,2022-01-24,2022-01-24,一般社団法人シネマ・サポーターズ・アライアンス,,その他の設立登記法人,東京都,国分寺市,本町４丁目６番９－８０４号,,13,214,1850012,,,,,,,2022-01-24,1,,,,,シネマサポーターズアライアンス,0
946,4020001144906,新規,0,2022-01-24,2022-01-24,株式会社レッドスカイ,,株式会社,神奈川県,横浜市港北区,日吉本町１丁目４番２４号,,14,109,2230062,,,,,,,2022-01-24,1,,,,,レッドスカイ,0
951,4020003021194,新規,0,2022-01-24,2022-01-24,合同会社ＴＩＮＡ,,合同会社,神奈川県,横浜市磯子区,久木町３番４８－５号,,14,107,2350015,,,,,,,2022-01-24,1,,,,,,0
959,4030001146463,新規,0,2022-01-24,2022-01-24,株式会社Ａ－１,,株式会社,埼玉県,幸手市,大字高須賀５８１番地１,,11,240,3400102,,,,,,,2022-01-24,1,,,,,エイワン,0
960,4030001146471,新規,0,2022-01-24,2022-01-24,株式会社栄喜堂,,株式会社,埼玉県,入間郡三芳町,大字北永井２６５番地１,,11,324,3540044,,,,,,,2022-01-24,1,,,,,エイキドウ,0
961,4030001146488,新規,0,2022-01-24,2022-01-24,Ｂ－ＣＲＡＦＴ株式会社,,株式会社,埼玉県,蓮田市,大字閏戸８４４－５,,11,238,3490133,,,,,,,2022-01-24,1,,,,,ビークラフト,0
970,4040001121928,新規,0,2022-01-24,2022-01-24,株式会社ＳＴＵＤＩＯ　ＭＷ,,株式会社,千葉県,印西市,草深２３８０－１０,,12,231,2701337,,,,,,,2022-01-24,1,,,,,スタジオムウ,0
981,4070001038871,新規,0,2022-01-24,2022-01-24,株式会社もろ事務所,,株式会社,群馬県,太田市,新田大根町１１００番地８,,10,205,3700347,,,,,,,2022-01-24,1,,,,,モロジムショ,0
984,4080105006212,新規,0,2022-01-24,2022-01-24,一般社団法人メディカルデバイス開発支援センター,,その他の設立登記法人,静岡県,富士市,原田１０７３番地の１６,,22,210,4170852,,,,,,,2022-01-24,1,,,,,メディカルデバイスカイハツシエンセンター,0
986,4080401025584,新規,0,2022-01-24,2022-01-24,ＥＮＩ株式会社,,株式会社,静岡県,磐田市,向笠新屋７４１番地５,,22,211,4380012,,,,,,,2022-01-24,1,,,,,エニィ,0
988,4100001034999,新規,0,2022-01-24,2022-01-24,ＲｅＫＡＬＬ株式会社,,株式会社,長野県,上田市,前山２０５－２,,20,203,3861436,,,,,,,2022-01-24,1,,,,,リコール,0
990,4110001036391,新規,0,2022-01-24,2022-01-24,株式会社ｇｌｉｎ,,株式会社,新潟県,新潟市中央区,上近江２丁目５番１６号,,15,103,9500973,,,,,,,2022-01-24,1,,,,,グリン,0
1000,4120001243334,新規,0,2022-01-24,2022-01-24,戸幸商貿株式会社,,株式会社,大阪府,大阪市東成区,東小橋１丁目１７－３１グランドハイツ東小橋３０１号室,,27,115,5370024,,,,,,,2022-01-24,1,,,,,ココウショウボウ,0
1001,4120001243400,新規,0,2022-01-24,2022-01-24,楽一株式会社,,株式会社,大阪府,大阪市平野区,加美鞍作２丁目１６－１６,,27,126,5470004,,,,,,,2022-01-24,1,,,,,ラクイチ,0
1007,4120903004008,新規,0,2022-01-24,2022-01-24,合同会社ファボル,,合同会社,大阪府,豊中市,東寺内町１０番１５－３０３号,,27,203,5610871,,,,,,,2022-01-24,1,,,,,ファボル,0
1014,4140001124615,新規,0,2022-01-24,2022-01-24,株式会社アグロエージェンシー,,株式会社,兵庫県,神戸市長田区,南駒栄町１－７,,28,106,6530044,,,,,,,2022-01-24,1,,,,,アグロエージェンシー,0
1015,4140001124648,新規,0,2022-01-24,2022-01-24,株式会社Ｒｅｖｅ＆Ｅｓｐｏｉｒ,,株式会社,兵庫県,神戸市垂水区,舞多聞西３丁目８番７号,,28,108,6550051,,,,,,,2022-01-24,1,,,,,レーヴアンドエスポワール,0
1019,4140003017247,新規,0,2022-01-24,2022-01-24,合同会社ＳＡＷＡＤＡ,,合同会社,兵庫県,加古郡稲美町,国岡６４９番地,,28,381,6751115,,,,,,,2022-01-24,1,,,,,サワダ,0
1023,4150001025275,新規,0,2022-01-24,2022-01-24,株式会社ＫＴＮ,,株式会社,奈良県,生駒市,辻町１９６番地７,00125485,29,209,6300212,,,,,,,2022-01-24,1,,,,,ケーティーエヌ,0
1028,4180001149690,新規,0,2022-01-24,2022-01-24,株式会社エンカプセル,,株式会社,愛知県,名古屋市千種区,汁谷町１１番地,,23,101,4640013,,,,,,,2022-01-24,1,,,,,エンカプセル,0
1029,4180001149699,新規,0,2022-01-24,2022-01-24,エーピーエルホールディングス株式会社,,株式会社,愛知県,大府市,共和町４丁目２９３番地の１,,23,223,4740061,,,,,,,2022-01-24,1,,,,,エーピーエルホールディングス,0
1033,4180003023423,新規,0,2022-01-24,2022-01-24,ＡＴＳ合同会社,,合同会社,愛知県,名古屋市昭和区,川名本町２丁目１３番地の２,,23,107,4660855,,,,,,,2022-01-24,1,,,,,エーティーエス,0
1034,4180301035863,新規,0,2022-01-24,2022-01-24,株式会社Ｖａｓｔ　Ｐｌａｉｎ,,株式会社,愛知県,豊橋市,三本木町字新三本木３１番地,,23,201,4418152,,,,,,,2022-01-24,1,,,,,ヴァストプレイン,0
1037,4200001039682,新規,0,2022-01-24,2022-01-24,株式会社サンサンホームズ,,株式会社,岐阜県,岐阜市,旦島６丁目３番１２号,,21,201,5020926,,,,,,,2022-01-24,1,,,,,サンサンホームズ,0
1048,4220005008632,新規,0,2022-01-24,2022-01-24,一般社団法人いしかわ自然・環境・農林業センター,,その他の設立登記法人,石川県,金沢市,長坂３丁目４番１号グリーンハイツ長坂台ＩＩ・Ｄ号,00125484,17,201,9218112,,,,,,,2022-01-24,1,,,,,イシカワシゼンカンキョウノウリンギョウセンター,0
1053,4240003005472,新規,0,2022-01-24,2022-01-24,合同会社Ｆｉｋａｔｉｄ,,合同会社,広島県,広島市中区,大手町１丁目１番２６号,,34,101,7300051,,,,,,,2022-01-24,1,,,,,フィーカティード,0
1061,4290001096187,新規,0,2022-01-24,2022-01-24,ピース株式会社,,株式会社,福岡県,福岡市南区,大橋３丁目３０番１４号,,40,134,8150033,,,,,,,2022-01-24,1,,,,,ピース,0
1062,4290001096204,新規,0,2022-01-24,2022-01-24,株式会社ｐａｐｉｃｏ,,株式会社,福岡県,久留米市,諏訪野町１６６０番地６３,,40,203,8300037,,,,,,,2022-01-24,1,,,,,パピコ,0
1067,4290003012068,新規,0,2022-01-24,2022-01-24,安東商事合同会社,,合同会社,福岡県,福岡市南区,西長住３丁目２６番５号,,40,134,8111361,,,,,,,2022-01-24,1,,,,,アンドウショウジ,0
1075,4340001024448,新規,0,2022-01-24,2022-01-24,株式会社Ｌｉｇ,,株式会社,鹿児島県,鹿児島市,下伊敷２丁目２９番２号,,46,201,8900005,,,,,,,2022-01-24,1,,,,,リグ,0
1077,4350005006045,新規,0,2022-01-24,2022-01-24,弁護士法人新井法律事務所,,その他の設立登記法人,宮崎県,宮崎市,旭１丁目６番３０号,,45,201,8800803,,,,,,,2022-01-24,1,,,,,アライホウリツジムショ,0
1078,4360003011756,新規,0,2022-01-24,2022-01-24,ウェイク沖縄合同会社,,合同会社,沖縄県,浦添市,安波茶１丁目３６番２号,,47,208,9012114,,,,,,,2022-01-24,1,,,,,ウェイクオキナワ,0
1080,4370001048106,新規,0,2022-01-24,2022-01-24,株式会社シアンホーム,,株式会社,宮城県,仙台市青葉区,郷六字龍沢６３番地の３,,04,101,9893121,,,,,,,2022-01-24,1,,,,,シアンホーム,0
1081,4370001048114,新規,0,2022-01-24,2022-01-24,株式会社ｈａｎｄｓｍａｄｅ,,株式会社,宮城県,仙台市宮城野区,岩切字三所北５４番地の１０,,04,102,9830821,,,,,,,2022-01-24,1,,,,,ハンズメイド,0
1087,4380001032521,新規,0,2022-01-24,2022-01-24,株式会社アーキトリップ,,株式会社,福島県,福島市,泉字清水が丘１１５番地,,07,201,9608253,,,,,,,2022-01-24,1,,,,,アーキトリップ,0
1107,4410003003608,新規,0,2022-01-24,2022-01-24,あきえい合同会社,,合同会社,秋田県,秋田市,広面字釣瓶町７番地１,,05,201,0100041,,,,,,,2022-01-24,1,,,,,アキエイ,0
1112,4430001085852,新規,0,2022-01-24,2022-01-24,株式会社田中商事,,株式会社,北海道,札幌市豊平区,中の島一条１丁目５番２３－９０２号,,01,105,0620921,,,,,,,2022-01-24,1,,,,,タナカショウジ,0
1113,4430003013555,新規,0,2022-01-24,2022-01-24,合同会社Ａ企画,,合同会社,北海道,札幌市手稲区,前田六条１４丁目１２－２０前田ビレッジ１－１０２,,01,109,0060816,,,,,,,2022-01-24,1,,,,,エーキカク,0
1122,4500001023953,新規,0,2022-01-24,2022-01-24,株式会社大本鉄筋,,株式会社,愛媛県,大洲市,長浜町櫛生乙８９９番地,00125495,38,207,7993453,,,,,,,2022-01-24,1,,,,,オオモトテッキン,0
1123,4700150106571,新規,0,2022-01-24,2022-01-12,新田区,,その他,滋賀県,高島市,今津町深清水１９６１番地,,25,212,5201601,,,,,,,2022-01-12,1,,,,,シンデンク,0
1132,5010001223998,新規,0,2022-01-24,2022-01-24,Ｇｅｍｉｎｉ　Ｄａｔａ株式会社,,株式会社,東京都,中央区,銀座３丁目１０番９号ＫＥＣ銀座ビル８階,,13,102,1040061,,,,,,,2022-01-24,1,,,,,ジェミニデータ,0
1133,5010001224039,新規,0,2022-01-24,2022-01-24,株式会社六光社,,株式会社,東京都,千代田区,神田神保町１丁目３２番地大湯ビル３０１号室,,13,101,1010051,,,,,,,2022-01-24,1,,,,,,0
1136,5010003036804,新規,0,2022-01-24,2022-01-24,ナチュラルエナジーパートナーズ太陽光発電ａ合同会社,,合同会社,東京都,中央区,日本橋１丁目４番１号,,13,102,1030027,,,,,,,2022-01-24,1,,,,,ナチュラルエナジーパートナーズタイヨウコウハツデンエー,0
1138,5010005034491,新規,0,2022-01-24,2022-01-24,オカボシ一般社団法人,,その他の設立登記法人,東京都,千代田区,丸の内３丁目１番１号東京共同会計事務所内,,13,101,1000005,,,,,,,2022-01-24,1,,,,,オカボシ,0
1144,5010401165089,新規,0,2022-01-24,2022-01-24,株式会社ソマリ,,株式会社,東京都,港区,赤坂２丁目２１番４号天翔オフィス赤坂ＡＮＮＥＸ,,13,103,1070052,,,,,,,2022-01-24,1,,,,,ソマリ,0
1146,5010403026933,新規,0,2022-01-24,2022-01-24,ＭＩＲＡ合同会社,,合同会社,東京都,港区,南青山７丁目１２番１６－５０９号,,13,103,1070062,,,,,,,2022-01-24,1,,,,,ミラ,0
1147,5010405020620,新規,0,2022-01-24,2022-01-24,一般社団法人日本ラテアート協会,,その他の設立登記法人,東京都,港区,芝大門２丁目３番１５号,,13,103,1050012,,,,,,,2022-01-24,1,,,,,ニホンラテアートキョウカイ,0
1150,5010601060560,新規,0,2022-01-24,2022-01-24,株式会社ｓｈｙｕｍ,,株式会社,東京都,江東区,門前仲町１丁目１３番１０号,,13,108,1350048,,,,,,,2022-01-24,1,,,,,シューム,0
1161,5011001145035,新規,0,2022-01-24,2022-01-24,株式会社みどりのしまうま,,株式会社,東京都,渋谷区,千駄ヶ谷１丁目１９－１２千駄ヶ谷第２スカイハイツ２０６,,13,113,1510051,,,,,,,2022-01-24,1,,,,,ミドリノシマウマ,0
1162,5011001145233,新規,0,2022-01-24,2022-01-24,株式会社ｅｉｇｈｔ,,株式会社,東京都,渋谷区,西原３丁目３８番１２号ボカージュ代々木上原２０４号,,13,113,1510066,,,,,,,2022-01-24,1,,,,,エイト,0
1163,5011001145282,新規,0,2022-01-24,2022-01-24,株式会社Ｅ－ＳＴＡＲＴ,,株式会社,東京都,目黒区,碑文谷４丁目１５番１７号グランボナール碑文谷,,13,110,1520003,,,,,,,2022-01-24,1,,,,,イースタート,0
1164,5011003014015,新規,0,2022-01-24,2022-01-24,ＤＩＡＭＯＮＤ　ＨＥＡＤ　ＪＡＰＡＮ合同会社,,合同会社,東京都,渋谷区,神宮前６丁目２３－４桑野ビル２Ｆ,,13,113,1500001,,,,,,,2022-01-24,1,,,,,ダイヤモンドヘッドジャパン,0
1166,5011101097465,新規,0,2022-01-24,2022-01-24,四谷ジートルンク株式会社,,株式会社,東京都,新宿区,荒木町２１番地１タワーレジデンス四谷７０１,,13,104,1600007,,,,,,,2022-01-24,1,,,,,ヨツヤジートルンク,0
1167,5011101097589,新規,0,2022-01-24,2022-01-24,株式会社ソレッラ,,株式会社,東京都,新宿区,新宿２丁目１２番８号ＡＣＮ新宿ビル６Ｆ,,13,104,1600022,,,,,,,2022-01-24,1,,,,,ソレッラ,0
1168,5011101097597,新規,0,2022-01-24,2022-01-24,株式会社Ｒａｎｇｅｒｓ　Ｇｒｏｕｐ,,株式会社,東京都,新宿区,大久保２丁目６番１６号平安ビル８Ｂ,,13,104,1690072,,,,,,,2022-01-24,1,,,,,レンジャーズグループ,0
1175,5011801040237,新規,0,2022-01-24,2022-01-24,株式会社岩井殖産,,株式会社,東京都,葛飾区,立石１丁目２２番２号,,13,122,1240012,,,,,,,2022-01-24,1,,,,,イワイショクサン,0
1187,5020001144913,新規,0,2022-01-24,2022-01-24,ＹＭＲＲＡ株式会社,,株式会社,神奈川県,横浜市戸塚区,上倉田町９０８番地,,14,110,2440816,,,,,,,2022-01-24,1,,,,,ワイエムアールアールエイ,0
1195,5021003011325,新規,0,2022-01-24,2022-01-24,合同会社ジュニア,,合同会社,神奈川県,平塚市,真田２丁目１４－１９,,14,203,2591206,,,,,,,2022-01-24,1,,,,,ジュニア,0
1205,5030001146462,新規,0,2022-01-24,2022-01-24,株式会社八木架設,,株式会社,埼玉県,川口市,大字赤井６４６番地の８７,,11,203,3340073,,,,,,,2022-01-24,1,,,,,ヤギカセツ,0
1206,5030001146479,新規,0,2022-01-24,2022-01-24,株式会社Ｂｅｇｉｎｎｉｎｇ,,株式会社,埼玉県,所沢市,大字久米５０１番地の５グランメゾンコスモ１０１,,11,208,3591131,,,,,,,2022-01-24,1,,,,,ビギニング,0
1207,5030001146487,新規,0,2022-01-24,2022-01-24,株式会社ＳＵＺＵＫＩ興業,,株式会社,埼玉県,川口市,柳崎５丁目９番９号コーポフラワーＡ－１０１,,11,203,3330861,,,,,,,2022-01-24,1,,,,,スズキコウギョウ,0
1217,5040001121885,新規,0,2022-01-24,2022-01-24,ＦｕＴｅｃｈ商事株式会社,,株式会社,千葉県,我孫子市,湖北台７丁目２番３号,,12,222,2701132,,,,,,,2022-01-24,1,,,,,フーテックショウジ,0
1218,5040001121935,新規,0,2022-01-24,2022-01-24,株式会社冨田農場,,株式会社,千葉県,旭市,大間手３７１番地,,12,215,2892603,,,,,,,2022-01-24,1,,,,,トミタノウジョウ,0
1226,5050001050514,新規,0,2022-01-24,2022-01-24,ＲＯＹＡＬ　ＧＬＯＢＡＬ　ＴＲＡＤＩＮＧ株式会社,,株式会社,茨城県,坂東市,逆井３５３６大都ビル１０２,,08,228,3060501,,,,,,,2022-01-24,1,,,,,ロイヤルグローバルトレーディング,0
1227,5050003006324,新規,0,2022-01-24,2022-01-24,ＫＥＮＯ　ＴＲＡＤＩＮＧ合同会社,,合同会社,茨城県,結城郡八千代町,大字菅谷５１５番地３７,,08,521,3003572,,,,,,,2022-01-24,1,,,,,ケノトレーディング,0
1233,5070002008600,新規,0,2022-01-24,2022-01-24,有限会社新井板金,,有限会社,群馬県,高崎市,倉賀野町４６４５番地６,,10,202,3701201,,,,,,,2022-01-24,1,,,,,アライバンキン,0
1238,5080101023061,新規,0,2022-01-24,2022-01-24,秀幸株式会社,,株式会社,静岡県,富士市,蓼原７８番地の２,,22,210,4160931,,,,,,,2022-01-24,1,,,,,ヒデコウ,0
1256,5120001243333,新規,0,2022-01-24,2022-01-24,優品株式会社,,株式会社,大阪府,大阪市東成区,東小橋１丁目１７－３１グランドハイツ東小橋３０５号室,,27,115,5370024,,,,,,,2022-01-24,1,,,,,ユウヒン,0
1257,5120001243341,新規,0,2022-01-24,2022-01-24,株式会社わのえ,,株式会社,大阪府,大阪市都島区,友渕町１丁目５番７－９１０号,,27,102,5340016,,,,,,,2022-01-24,1,,,,,ワノエ,0
1258,5120001243374,新規,0,2022-01-24,2022-01-24,岡崎産業ホールディングス株式会社,,株式会社,大阪府,大阪市西区,南堀江４丁目２３番３４号,,27,106,5500015,,,,,,,2022-01-24,1,,,,,オカザキサンギョウホールディングス,0
1263,5120005022700,新規,0,2022-01-24,2022-01-24,一般社団法人生前整理支援協会,,その他の設立登記法人,大阪府,大阪市北区,西天満２丁目１０番９号,,27,127,5300047,,,,,,,2022-01-24,1,,,,,セイゼンセイリシエンキョウカイ,0
1264,5120005022733,新規,0,2022-01-24,2022-01-24,医療法人輝白会,,その他の設立登記法人,大阪府,大阪市西淀川区,大和田４丁目８番５号,,27,113,5550032,,,,,,,2022-01-24,1,,,,,キハクカイ,0
1267,5120101064984,新規,0,2022-01-24,2022-01-24,さかいタクシー株式会社,,株式会社,大阪府,堺市南区,原山台１丁１４番７号,,27,145,5900132,,,,,,,2022-01-24,1,,,,,サカイタクシー,0
1268,5120903004007,新規,0,2022-01-24,2022-01-24,２１６Ｚ合同会社,,合同会社,大阪府,高槻市,真上町１丁目１番１４号,,27,207,5691121,,,,,,,2022-01-24,1,,,,,ニイイチロクジー,0
1269,5122001035529,新規,0,2022-01-24,2022-01-24,株式会社エム・アカウンティング,,株式会社,大阪府,東大阪市,西堤本通東１丁目１番１号東大阪大発ビル,,27,227,5770045,,,,,,,2022-01-24,1,,,,,エムアカウンティング,0
1273,5130001070990,新規,0,2022-01-24,2022-01-24,Ａｎｙｔｈｉｎｇ　Ａｌｌ株式会社,,株式会社,京都府,京都市山科区,勧修寺閑林寺４７番地１シベール勧修寺６０３,,26,110,6078217,,,,,,,2022-01-24,1,,,,,エニシィングオール,0
1274,5130001070999,新規,0,2022-01-24,2022-01-24,株式会社古都梅,,株式会社,京都府,京都市東山区,祇園町南側５０６番地の１,,26,105,6050074,,,,,,,2022-01-24,1,,,,,コトウメ,0
1281,5130005016370,新規,0,2022-01-24,2022-01-24,一般社団法人絆,,その他の設立登記法人,京都府,京都市伏見区,桃山町三河５７番地の１１,,26,109,6128029,,,,,,,2022-01-24,1,,,,,ツナガリ,0
1292,5140001124639,新規,0,2022-01-24,2022-01-24,株式会社Ｒｅｕｎａ,,株式会社,兵庫県,伊丹市,西台３丁目９番２２－２０８号,,28,207,6640858,,,,,,,2022-01-24,1,,,,,レウーナ,0
1293,5140001124647,新規,0,2022-01-24,2022-01-24,株式会社ＳＯＲＡ,,株式会社,兵庫県,神戸市中央区,三宮町２丁目７番８号,,28,110,6500021,,,,,,,2022-01-24,1,,,,,ソラ,0
1298,5150005009364,新規,0,2022-01-24,2022-01-24,特定非営利活動法人Ｆｏｏｔｂａｌｌ　Ｐａｒｋ　Ｅｖｅｒｙ,,その他の設立登記法人,奈良県,奈良市,学園南２丁目８番６号,,29,201,6310034,,,,,,,2022-01-24,1,,,,,フットボールパークエブリイ,0
1301,5160001023954,新規,0,2022-01-24,2022-01-24,株式会社はないろ,,株式会社,滋賀県,蒲生郡竜王町,大字綾戸５３９番地,,25,384,5202524,,,,,,,2022-01-24,1,,,,,ハナイロ,0
1302,5160003002477,新規,0,2022-01-24,2022-01-24,合同会社ＭＴＣ,,合同会社,滋賀県,近江八幡市,西本郷町西７番地１,,25,204,5230819,,,,,,,2022-01-24,1,,,,,エムティーシー,0
1308,5180001149649,新規,0,2022-01-24,2022-01-24,株式会社ＩＬホールディングス,,株式会社,愛知県,一宮市,三ツ井５丁目１５番１８号,,23,203,4910827,,,,,,,2022-01-24,1,,,,,アイエルホールディングス,0
1309,5180001149673,新規,0,2022-01-24,2022-01-24,株式会社Ｔｅａｍ　Ｍａｋｅ,,株式会社,愛知県,名古屋市中村区,名駅５丁目４－１４花車ビル北館１階,,23,105,4500002,,,,,,,2022-01-24,1,,,,,チームメイク,0
1310,5180001149681,新規,0,2022-01-24,2022-01-24,株式会社ＩＷＳ,,株式会社,愛知県,東海市,加木屋町高見５０番地２９,,23,222,4770032,,,,,,,2022-01-24,1,,,,,アイダブリュエス,0
1311,5180001149698,新規,0,2022-01-24,2022-01-24,株式会社コジマエステイト,,株式会社,愛知県,東海市,名和町新屋敷２番地,,23,222,4760002,,,,,,,2022-01-24,1,,,,,コジマエステイト,0
1313,5180301035862,新規,0,2022-01-24,2022-01-24,株式会社一樂,,株式会社,愛知県,岡崎市,鉢地町字十五卜２１番地５,,23,202,4443512,,,,,,,2022-01-24,1,,,,,イチラク,0
1316,5180303005236,新規,0,2022-01-24,2022-01-24,合同会社ホワイトガレージ,,合同会社,愛知県,豊川市,東曙町２４１番地,00125488,23,207,4420011,,,,,,,2022-01-24,1,,,,,ホワイトガレージ,0
1322,5220005008631,新規,0,2022-01-24,2022-01-24,珠洲市特定地域づくり事業協同組合,,その他の設立登記法人,石川県,珠洲市,折戸町ホ部２５番１,,17,205,9271446,,,,,,,2022-01-24,1,,,,,スズシトクテイチイキヅクリジギョウ,0
1332,5240005015320,新規,0,2022-01-24,2022-01-24,農事組合法人にじいろファーム,,その他の設立登記法人,広島県,世羅郡世羅町,大字安田１０７５９－１,,34,462,7221202,,,,,,,2022-01-24,1,,,,,ニジイロファーム,0
1338,5280005007462,新規,0,2022-01-24,2022-01-24,企業組合井田屋,,その他の設立登記法人,島根県,大田市,温泉津町井田ロ２５５,,32,205,6992507,,,,,,,2022-01-24,1,,,,,イダヤ,0
1342,5290001096178,新規,0,2022-01-24,2022-01-24,株式会社あすひと,,株式会社,福岡県,八女市,室岡１０７９番地３,,40,210,8340066,,,,,,,2022-01-24,1,,,,,アスヒト,0
1343,5290001096186,新規,0,2022-01-24,2022-01-24,エムレガート株式会社,,株式会社,福岡県,福岡市南区,三宅１丁目１３番７号,,40,134,8111344,,,,,,,2022-01-24,1,,,,,エムレガート,0
1347,5290801028198,新規,0,2022-01-24,2022-01-24,株式会社ワイエムプラス,,株式会社,福岡県,北九州市小倉北区,船頭町３番３３号,,40,106,8020008,,,,,,,2022-01-24,1,,,,,ワイエムプラス,0
1349,5310001017684,新規,0,2022-01-24,2022-01-24,株式会社酒井建築,,株式会社,長崎県,雲仙市,南串山町乙１６５５番地１,,42,213,8540702,,,,,,,2022-01-24,1,,,,,サカイケンチク,0
1351,5320001018855,新規,0,2022-01-24,2022-01-24,株式会社ＫａｂｏｓｕＣｏｍｐａｎｙ,,株式会社,大分県,豊後大野市,緒方町小原１９９５番地,,44,212,8796861,,,,,,,2022-01-24,1,,,,,カボスカンパニー,0
1355,5330003009216,新規,0,2022-01-24,2022-01-24,合同会社Ｔｏｃ,,合同会社,熊本県,玉名市,中１７７８－２０２号,,43,206,8650064,,,,,,,2022-01-24,1,,,,,ティーオーシー,0
1356,5340001024447,新規,0,2022-01-24,2022-01-24,株式会社エムズ・エージェンシー,,株式会社,鹿児島県,伊佐市,大口大島８５１番地,,46,224,8952522,,,,,,,2022-01-24,1,,,,,エムズエージェンシー,0
1358,5360003011755,新規,0,2022-01-24,2022-01-24,合同会社沖縄糖質制限倶楽部,,合同会社,沖縄県,那覇市,前島３丁目２５番２号,,47,201,9000016,,,,,,,2022-01-24,1,,,,,,0
1359,5370003005566,新規,0,2022-01-24,2022-01-24,シェ・ササキ合同会社,,合同会社,宮城県,気仙沼市,松崎柳沢１０３番地８,,04,205,9880141,,,,,,,2022-01-24,1,,,,,シェササキ,0
1374,5400001015753,新規,0,2022-01-24,2022-01-24,アレス株式会社,,株式会社,岩手県,紫波郡矢巾町,大字又兵エ新田第５地割３１１番地,,03,322,0283614,,,,,,,2022-01-24,1,,,,,アレス,0
1376,5410005006450,新規,0,2022-01-24,2022-01-24,農事組合法人谷地中,,その他の設立登記法人,秋田県,雄勝郡羽後町,足田字野際１１８番地２,,05,463,0121115,,,,,,,2022-01-24,1,,,,,ヤチナカ,0
1387,5430003013562,新規,0,2022-01-24,2022-01-24,どれみファーム合同会社,,合同会社,北海道,恵庭市,漁太１７６番地４,,01,231,0611401,,,,,,,2022-01-24,1,,,,,ドレミファーム,0
1395,5500001023960,新規,0,2022-01-24,2022-01-24,京屋リゾート株式会社,,株式会社,愛媛県,西条市,西之川甲１０６番地,,38,206,7930215,,,,,,,2022-01-24,1,,,,,キョウヤリゾート,0
1397,5700150106389,新規,0,2022-01-24,2021-12-24,六本木シローマンション管理組合,,その他,東京都,港区,六本木６丁目８－２９,,13,103,1060032,,,,,,,2021-12-24,1,,,,,ロツポンギシローマンシヨンカンリクミアイ,0
1402,6010001223989,新規,0,2022-01-24,2022-01-24,株式会社フローバ,,株式会社,東京都,千代田区,九段南１丁目５番６号りそな九段ビル５階ＫＳフロア,,13,101,1020074,,,,,,,2022-01-24,1,,,,,フローバ,0
1403,6010001224013,新規,0,2022-01-24,2022-01-24,株式会社Ｒｉｃｏ　Ｐｒｏｍｏｔｉｏｎ,,株式会社,東京都,中央区,銀座４丁目１３番８号岩藤ビル５Ｆ,,13,102,1040061,,,,,,,2022-01-24,1,,,,,リコプロモーション,0
1406,6010005034490,新規,0,2022-01-24,2022-01-24,カイバラ一般社団法人,,その他の設立登記法人,東京都,千代田区,丸の内３丁目１番１号東京共同会計事務所内,,13,101,1000005,,,,,,,2022-01-24,1,,,,,カイバラ,0
1408,6010401165121,新規,0,2022-01-24,2022-01-24,フォーチュンクラウド株式会社,,株式会社,東京都,港区,三田１丁目３番４０号麻布十番ＢＵＳＩＮＥＳＳ・ＣＵＢＥ－Ｓ天翔オフィス麻布十番６階６１０号室,,13,103,1080073,,,,,,,2022-01-24,1,,,,,フォーチュンクラウド,0
1412,6010501048358,新規,0,2022-01-24,2022-01-24,アドールジュエリー株式会社,,株式会社,東京都,台東区,上野５丁目８番１０－１００３号,,13,106,1100005,,,,,,,2022-01-24,1,,,,,アドールジュエリー,0
1418,6010801032656,新規,0,2022-01-24,2022-01-24,株式会社ｍｉｌｌｅ,,株式会社,東京都,大田区,蒲田１丁目１２－１９－３０６,,13,111,1440052,,,,,,,2022-01-24,1,,,,,ミル,0
1419,6010803004018,新規,0,2022-01-24,2022-01-24,プレザントン合同会社,,合同会社,東京都,大田区,中馬込２丁目１８番９号春風館１０１,,13,111,1430027,,,,,,,2022-01-24,1,,,,,プレザントン,0
1425,6010901050211,新規,0,2022-01-24,2022-01-24,株式会社ＧＬＡＤ８,,株式会社,東京都,世田谷区,松原５丁目１０番５号,,13,112,1560043,,,,,,,2022-01-24,1,,,,,グラッドエイト,0
1432,6011001145174,新規,0,2022-01-24,2022-01-24,株式会社プロスパー,,株式会社,東京都,渋谷区,神宮前１丁目４番２０号,,13,113,1500001,,,,,,,2022-01-24,1,,,,,プロスパー,0
1433,6011003013998,新規,0,2022-01-24,2022-01-24,ｋｗ５ｋ合同会社,,合同会社,東京都,渋谷区,渋谷２丁目１９－１５宮益坂ビルディング６０９,,13,113,1500002,,,,,,,2022-01-24,1,,,,,カワサキ,0
1434,6011003014063,新規,0,2022-01-24,2022-01-24,Ｅｒｍｅｎｔ合同会社,,合同会社,東京都,渋谷区,幡ヶ谷３丁目３３－１－４０３,,13,113,1510072,,,,,,,2022-01-24,1,,,,,アーメント,0
1438,6011101097555,新規,0,2022-01-24,2022-01-24,株式会社アイランドモバイルコンテンツ,,株式会社,東京都,新宿区,西新宿１丁目２６番２号,,13,104,1600023,,,,,,,2022-01-24,1,,,,,アイランドモバイルコンテンツ,0
1441,6011301027510,新規,0,2022-01-24,2022-01-24,株式会社Ｇｌｏｂａｌ　Ｒｅ,,株式会社,東京都,杉並区,和泉４丁目４４番２７－１０１号ＲＥＬＵＸＩＡ方南町,,13,115,1680063,,,,,,,2022-01-24,1,,,,,グローバルリー,0
1449,6011701024999,新規,0,2022-01-24,2022-01-24,株式会社中澤,,株式会社,東京都,江戸川区,平井７丁目１番１４号,,13,123,1320035,,,,,,,2022-01-24,1,,,,,ナカザワ,0
1451,6011801040145,新規,0,2022-01-24,2022-01-24,株式会社ＯＬＯＫＥＬＥ,,株式会社,東京都,足立区,西竹の塚１丁目１７番１５号,,13,121,1210822,,,,,,,2022-01-24,1,,,,,オロケレ,0
1452,6011801040236,新規,0,2022-01-24,2022-01-24,義共工業株式会社,,株式会社,東京都,足立区,花畑６丁目２番１２号,,13,121,1210061,,,,,,,2022-01-24,1,,,,,ヨシトモコウギョウ,0
1455,6012401038785,新規,0,2022-01-24,2022-01-24,株式会社Ａｄｄ　Ｃｏｌｏｒ,,株式会社,東京都,狛江市,岩戸北４丁目１０番地６号パレドールＴＹ１０１号室,,13,219,2010004,,,,,,,2022-01-24,1,,,,,アッドカラー,0
1471,6020001144912,新規,0,2022-01-24,2022-01-24,ＮＯＬエンターテイメント株式会社,,株式会社,神奈川県,横浜市戸塚区,戸塚町１５７番地,,14,110,2440003,,,,,,,2022-01-24,1,,,,,エヌオーエルエンターテイメント,0
1473,6021001075024,新規,0,2022-01-24,2022-01-24,株式会社イチカク,,株式会社,神奈川県,藤沢市,鵠沼海岸２丁目６番５～１０８号,00125499,14,205,2510037,,,,,,,2022-01-24,1,,,,,イチカク,0
1480,6030001146445,新規,0,2022-01-24,2022-01-24,富田工業株式会社,,株式会社,埼玉県,ふじみ野市,緑ケ丘１丁目６番６８号,,11,245,3560043,,,,,,,2022-01-24,1,,,,,トミタコウギョウ,0
1481,6030001146461,新規,0,2022-01-24,2022-01-24,株式会社カルモ,,株式会社,埼玉県,志木市,柏町１丁目９番７７－４１４号,,11,228,3530007,,,,,,,2022-01-24,1,,,,,カルモ,0
1482,6030001146478,新規,0,2022-01-24,2022-01-24,株式会社Ｇｒｏｗｓ,,株式会社,埼玉県,川口市,南前川１丁目５番１８号,,11,203,3330846,,,,,,,2022-01-24,1,,,,,グロース,0
1484,6030003018700,新規,0,2022-01-24,2022-01-24,合同会社大城通信,,合同会社,埼玉県,三郷市,彦糸１丁目７１番地２,,11,237,3410001,,,,,,,2022-01-24,1,,,,,オオシロツウシン,0
1493,6040001121918,新規,0,2022-01-24,2022-01-24,株式会社ＳＡＶＯ,,株式会社,千葉県,市原市,瀬又８８９番地１１,,12,219,2900151,,,,,,,2022-01-24,1,,,,,サボ,0
1499,6050001050496,新規,0,2022-01-24,2022-01-24,株式会社結城麦酒,,株式会社,茨城県,結城市,中央町１丁目７番地１,,08,207,3070052,,,,,,,2022-01-24,1,,,,,ユウキビール,0
1501,6050003006323,新規,0,2022-01-24,2022-01-24,つくばマルタ合同会社,,合同会社,茨城県,つくば市,研究学園７丁目３０番地１,,08,220,3050817,,,,,,,2022-01-24,1,,,,,ツクバマルタ,0
1503,6060001034515,新規,0,2022-01-24,2022-01-24,株式会社Ｓ．Ａ　ＴＲＡＤＩＮＧ,,株式会社,栃木県,栃木市,岩舟町新里１３０４番地Ｂ号,,09,203,3294316,,,,,,,2022-01-24,1,,,,,エスェトレーディング,0
1509,6080101023060,新規,0,2022-01-24,2022-01-24,株式会社ＬＥＡＰＬＵＳ,,株式会社,静岡県,沼津市,日の出町１番地１１号,,22,203,4100032,,,,,,,2022-01-24,1,,,,,レアプラス,0
1512,6080401025582,新規,0,2022-01-24,2022-01-24,なつ梅株式会社,,株式会社,静岡県,浜松市東区,小池町１３６４番地の１,,22,132,4350056,,,,,,,2022-01-24,1,,,,,ナツメ,0
1522,6120001243340,新規,0,2022-01-24,2022-01-24,株式会社スタジアム,,株式会社,大阪府,大阪市中央区,宗右衛門町３番３号,,27,128,5420084,,,,,,,2022-01-24,1,,,,,スタジアム,0
1523,6120001243357,新規,0,2022-01-24,2022-01-24,株式会社荒井商店,,株式会社,大阪府,大阪市西区,南堀江１丁目３番１２－３３０６号,,27,106,5500015,,,,,,,2022-01-24,1,,,,,アライショウテン,0
1526,6120005022732,新規,0,2022-01-24,2022-01-24,一般社団法人日本住生活支援協会,,その他の設立登記法人,大阪府,大阪市北区,大淀中２丁目１１番８号プレジャーズコーポレーションビル４階,,27,127,5310076,,,,,,,2022-01-24,1,,,,,ニホンジュウセイカツシエンキョウカイ,0
1527,6120105009506,新規,0,2022-01-24,2022-01-24,医療法人匡美会,,その他の設立登記法人,大阪府,堺市南区,鴨谷台２丁１番３号光明池アクト３Ｆ,,27,145,5900138,,,,,,,2022-01-24,1,,,,,マサミカイ,0
1533,6120903004006,新規,0,2022-01-24,2022-01-24,合同会社オール・イン,,合同会社,大阪府,箕面市,石丸３丁目２６番Ｗ－５０３号,,27,220,5620027,,,,,,,2022-01-24,1,,,,,オールイン,0
1543,6140001124646,新規,0,2022-01-24,2022-01-24,株式会社Ｔ’ｓ－ｓｔｙｌｅ,,株式会社,兵庫県,神戸市灘区,大石東町４丁目７番２号,,28,102,6570043,,,,,,,2022-01-24,1,,,,,ティーズスタイル,0
1545,6140003017253,新規,0,2022-01-24,2022-01-24,合同会社ファミリー,,合同会社,兵庫県,尼崎市,杭瀬寺島１丁目３番２７号,,28,202,6600813,,,,,,,2022-01-24,1,,,,,ファミリー,0
1547,6150001025273,新規,0,2022-01-24,2022-01-24,ｎｅｇｉｉ株式会社,,株式会社,奈良県,奈良市,三松４丁目９１０番地の７,,29,201,6310074,,,,,,,2022-01-24,1,,,,,ネギー,0
1548,6150005009363,新規,0,2022-01-24,2022-01-24,一般社団法人未病医学研究所,,その他の設立登記法人,奈良県,葛城市,西辻２４６番地３,00125486,29,211,6392125,,,,,,,2022-01-24,1,,,,,ミビョウイガクケンキュウショ,0
1549,6160001023953,新規,0,2022-01-24,2022-01-24,株式会社栄治,,株式会社,滋賀県,草津市,野村７丁目９番３２号,,25,206,5250027,,,,,,,2022-01-24,1,,,,,エイジ,0
1552,6160003002476,新規,0,2022-01-24,2022-01-24,合同会社ＬＡＮＤ,,合同会社,滋賀県,草津市,渋川１丁目２番２６－２０５号ザ・草津タワー,,25,206,5250026,,,,,,,2022-01-24,1,,,,,ランド,0
1561,6180001149697,新規,0,2022-01-24,2022-01-24,株式会社山田組,,株式会社,愛知県,一宮市,大和町妙興寺字二反割４４番地５,,23,203,4910922,,,,,,,2022-01-24,1,,,,,ヤマダグミ,0
1565,6180003023421,新規,0,2022-01-24,2022-01-24,合同会社廣瀬屋,,合同会社,愛知県,名古屋市中区,千代田１丁目１０番１９号サンクレーア矢場町１４０２号,,23,106,4600012,,,,,,,2022-01-24,1,,,,,ヒロセヤ,0
1568,6180303005235,新規,0,2022-01-24,2022-01-24,合同会社かみや,,合同会社,愛知県,知立市,東上重原３丁目３３番地,,23,225,4720054,,,,,,,2022-01-24,1,,,,,カミヤ,0
1574,6200001039680,新規,0,2022-01-24,2022-01-24,株式会社彩花の森,,株式会社,岐阜県,岐阜市,鷺山北町７番７号,,21,201,5020872,,,,,,,2022-01-24,1,,,,,アヤカノモリ,0
1575,6200001039689,新規,0,2022-01-24,2022-01-24,株式会社ブレイブラ,,株式会社,岐阜県,岐阜市,野一色２丁目５番地１５,,21,201,5008226,,,,,,,2022-01-24,1,,,,,ブレイブラ,0
1579,6210001018790,新規,0,2022-01-24,2022-01-24,株式会社タウンホーム,,株式会社,福井県,坂井市,丸岡町新九頭竜２丁目１８０番地１,,18,210,9100369,,,,,,,2022-01-24,1,,,,,タウンホーム,0
1585,6230003001792,新規,0,2022-01-24,2022-01-24,第三十三倉庫合同会社,,合同会社,富山県,高岡市,石瀬３３番地１２,,16,202,9330011,,,,,,,2022-01-24,1,,,,,ダイサンジュウサンソウコ,0
1604,6290001096177,新規,0,2022-01-24,2022-01-24,株式会社ｔｅｎ,,株式会社,福岡県,福津市,津屋崎７丁目９－１５,,40,224,8113304,,,,,,,2022-01-24,1,,,,,テン,0
1605,6290001096202,新規,0,2022-01-24,2022-01-24,ＳＲＮ株式会社,,株式会社,福岡県,福岡市東区,筥松新町３番２３号,,40,131,8120067,,,,,,,2022-01-24,1,,,,,エスアールエヌ,0
1606,6290001096210,新規,0,2022-01-24,2022-01-24,株式会社杉村構造設計,,株式会社,福岡県,福岡市中央区,渡辺通５丁目２３番２号東急ドエルアルス５０４号室,,40,133,8100004,,,,,,,2022-01-24,1,,,,,スギムラコウゾウセッケイ,0
1610,6290801028197,新規,0,2022-01-24,2022-01-24,株式会社コントラクター,,株式会社,福岡県,北九州市八幡西区,馬場山東３丁目３番１０号（Ｂ２０２）,,40,109,8071131,,,,,,,2022-01-24,1,,,,,コントラクター,0
1612,6310001017683,新規,0,2022-01-24,2022-01-24,株式会社西部ガードサービス,,株式会社,長崎県,佐世保市,棚方町２０８番地１１,,42,202,8580907,,,,,,,2022-01-24,1,,,,,セイブガードサービス,0
1625,6370001048112,新規,0,2022-01-24,2022-01-24,広瀬電気株式会社,,株式会社,宮城県,仙台市青葉区,上愛子字雷神３番地の１４,,04,101,9893124,,,,,,,2022-01-24,1,,,,,ヒロセデンキ,0
1644,6400001015752,新規,0,2022-01-24,2022-01-24,株式会社飯田弘道厩舎,,株式会社,岩手県,盛岡市,新庄字上八木田１０番地１号厩舎,,03,201,0200803,,,,,,,2022-01-24,1,,,,,イイダヒロミチキュウシャ,0
1661,6470001018939,新規,0,2022-01-24,2022-01-24,ＰｅａｃｅＭａｋｅｒ株式会社,,株式会社,香川県,丸亀市,富士見町５丁目１９番１１号,,37,202,7630011,,,,,,,2022-01-24,1,,,,,ピースメーカー,0
1664,6700150106231,新規,0,2022-01-24,2021-12-13,地下水適正管理協議会,,その他,東京都,中央区,日本橋横山町４番５号,,13,102,1030003,,,,,,,2021-12-13,1,,,,,チカスイテキセイカンリキヨウギカイ,0
1676,7010001223930,新規,0,2022-01-24,2022-01-24,株式会社ＴＲＥＥ　ＦＩＥＬＤ,,株式会社,東京都,中央区,京橋３丁目１番１号東京スクエアガーデン,,13,102,1040031,,,,,,,2022-01-24,1,,,,,ツリーフィールド,0
1677,7010001224037,新規,0,2022-01-24,2022-01-24,株式会社クラフトスタディ,,株式会社,東京都,千代田区,飯田橋１丁目５番６号協和西ビル４Ｆ,,13,101,1020072,,,,,,,2022-01-24,1,,,,,クラフトスタディ,0
1678,7010001224045,新規,0,2022-01-24,2022-01-24,Ｄｅｌｌｏｗｓ株式会社,,株式会社,東京都,千代田区,神田須田町２丁目２３番１号,,13,101,1010041,,,,,,,2022-01-24,1,,,,,デロウズ,0
1679,7010001224061,新規,0,2022-01-24,2022-01-24,株式会社Ｊ＆Ｃｏｍｐａｎｙ,,株式会社,東京都,文京区,小石川５丁目２８番１４－５０２号,,13,105,1120002,,,,,,,2022-01-24,1,,,,,ジェイアンドカンパニー,0
1680,7010001224078,新規,0,2022-01-24,2022-01-24,株式会社ファーストクラス,,株式会社,東京都,中央区,銀座１丁目５番２号銀座ファーストビル５階,,13,102,1040061,,,,,,,2022-01-24,1,,,,,ファーストクラス,0
1684,7010003036793,新規,0,2022-01-24,2022-01-24,クレジット・ギャランティ６号合同会社,,合同会社,東京都,千代田区,内神田２丁目２番６号５階あすな会計事務所内,,13,101,1010047,,,,,,,2022-01-24,1,,,,,クレジットギャランティロクゴウ,0
1685,7010003036827,新規,0,2022-01-24,2022-01-24,合同会社ＹＹ,,合同会社,東京都,千代田区,平河町２丁目７番１０号平河町レジデンス１２０２号,,13,101,1020093,,,,,,,2022-01-24,1,,,,,ワイワイ,0
1693,7010601060567,新規,0,2022-01-24,2022-01-24,株式会社Ａ１８,,株式会社,東京都,墨田区,八広３丁目１１番８号,,13,107,1310041,,,,,,,2022-01-24,1,,,,,エーイチハチ,0
1704,7010901050227,新規,0,2022-01-24,2022-01-24,株式会社キニナル,,株式会社,東京都,世田谷区,給田２丁目８－６,,13,112,1570064,,,,,,,2022-01-24,1,,,,,キニナル,0
1705,7010903007101,新規,0,2022-01-24,2022-01-24,合同会社ｍｕ,,合同会社,東京都,世田谷区,世田谷４丁目１５番１２号カサ・ベルデ１０５,,13,112,1540017,,,,,,,2022-01-24,1,,,,,ムー,0
1711,7011001145041,新規,0,2022-01-24,2022-01-24,株式会社ログノート,,株式会社,東京都,渋谷区,広尾１丁目３番１８号広尾オフィスビル１１階,,13,113,1500012,,,,,,,2022-01-24,1,,,,,ログノート,0
1714,7011003014013,新規,0,2022-01-24,2022-01-24,合同会社モナデット,,合同会社,東京都,目黒区,八雲５丁目７番１９号,,13,110,1520023,,,,,,,2022-01-24,1,,,,,モナデット,0
1718,7011101097521,新規,0,2022-01-24,2022-01-24,ＴｅａｍＷｉｓｅ株式会社,,株式会社,東京都,新宿区,榎町３４－３榎町ビル５Ｆ,,13,104,1620806,,,,,,,2022-01-24,1,,,,,チームワイズ,0
1719,7011101097579,新規,0,2022-01-24,2022-01-24,倍思科技日本株式会社,,株式会社,東京都,新宿区,歌舞伎町２丁目２５番８号,,13,104,1600021,,,,,,,2022-01-24,1,,,,,ベースアステクノロジージャパン,0
1723,7011201023567,新規,0,2022-01-24,2022-01-24,株式会社ｔｗｏ．,,株式会社,東京都,中野区,本町３丁目３１番２号,,13,114,1640012,,,,,,,2022-01-24,1,,,,,トゥードット,0
1726,7011601025691,新規,0,2022-01-24,2022-01-24,ＳＨＣ株式会社,,株式会社,東京都,練馬区,高松１丁目３５番８号,,13,120,1790075,,,,,,,2022-01-24,1,,,,,エスエイチシー,0
1730,7011801040235,新規,0,2022-01-24,2022-01-24,ディエスソリューション株式会社,,株式会社,東京都,葛飾区,西新小岩５丁目５番２４号,,13,122,1240025,,,,,,,2022-01-24,1,,,,,ディエスソリューション,0
1736,7012801021357,新規,0,2022-01-24,2022-01-24,玉澤設備工業株式会社,,株式会社,東京都,東大和市,立野１丁目１番地の３５イワデンビル４階,,13,220,2070021,,,,,,,2022-01-24,1,,,,,タマザワセツビコウギョウ,0
1742,7020001144911,新規,0,2022-01-24,2022-01-24,株式会社リースハウスアセット,,株式会社,神奈川県,川崎市幸区,幸町３丁目５５５番地４イトーピア多摩川グランビュー１３０９,,14,132,2120011,,,,,,,2022-01-24,1,,,,,リースハウスアセット,0
1747,7020003021175,新規,0,2022-01-24,2022-01-24,合資会社トラスト,,合資会社,神奈川県,横浜市戸塚区,上倉田町２０４４番地５４,,14,110,2440816,,,,,,,2022-01-24,1,,,,,トラスト,0
1753,7021001074974,新規,0,2022-01-24,2022-01-24,ＡＲ　ＴＲＡＤＩＮＧ株式会社,,株式会社,神奈川県,相模原市南区,南台５丁目１４番２号スカーレットシード２Ｆ２０２,,14,153,2520314,,,,,,,2022-01-24,1,,,,,エーアールトゥレイディング,0
1754,7021001075007,新規,0,2022-01-24,2022-01-24,株式会社ＷＯＯＤＳ,,株式会社,神奈川県,小田原市,久野４４８番地の１,,14,206,2500055,,,,,,,2022-01-24,1,,,,,ウッズ,0
1755,7021001075015,新規,0,2022-01-24,2022-01-24,株式会社ＲＩＳＥコンディショニング,,株式会社,神奈川県,厚木市,鳶尾５丁目２１番２４号,,14,212,2430204,,,,,,,2022-01-24,1,,,,,ライズコンディショニング,0
1756,7021001075023,新規,0,2022-01-24,2022-01-24,株式会社ＭＩＫＵＲＵＢＥ,,株式会社,神奈川県,海老名市,大谷南３丁目２８番２８－２０２号,,14,215,2430418,,,,,,,2022-01-24,1,,,,,ミクルベ,0
1759,7021005012427,新規,0,2022-01-24,2022-01-24,一般社団法人Ｓｔｅｐ－ｂｙ－Ｓｔｅｐ,,その他の設立登記法人,神奈川県,秦野市,鶴巻南４丁目２７番７号,,14,211,2570002,,,,,,,2022-01-24,1,,,,,ステップバイステップ,0
1764,7030001146444,新規,0,2022-01-24,2022-01-24,株式会社大心,,株式会社,埼玉県,白岡市,西１０丁目１６番１４－２０１,,11,246,3490205,,,,,,,2022-01-24,1,,,,,ダイシン,0
1765,7030001146452,新規,0,2022-01-24,2022-01-24,ケイ・エスワン株式会社,,株式会社,埼玉県,深谷市,武蔵野３６８４番地４,,11,218,3691241,,,,,,,2022-01-24,1,,,,,,0
1766,7030001146460,新規,0,2022-01-24,2022-01-24,五葉福祉株式会社,,株式会社,埼玉県,行田市,緑町１番２７号,,11,206,3610031,,,,,,,2022-01-24,1,,,,,ゴヨウフクシ,0
1767,7030001146469,新規,0,2022-01-24,2022-01-24,昇栄建設株式会社,,株式会社,埼玉県,所沢市,大字下安松５０番地の１４２,,11,208,3590024,,,,,,,2022-01-24,1,,,,,ショウエイケンセツ,0
1770,7030003018699,新規,0,2022-01-24,2022-01-24,吉田住宅設備合同会社,,合同会社,埼玉県,草加市,新里町９５番地１グランヴィラージュ２０１号,,11,221,3400031,,,,,,,2022-01-24,1,,,,,ヨシダジュウタクセツビ,0
1771,7030003018708,新規,0,2022-01-24,2022-01-24,ＫＡＭＢＯＨ　ＴＲＡＤＩＮＧ合同会社,,合同会社,埼玉県,狭山市,大字堀兼２４１１番地の２,,11,215,3501312,,,,,,,2022-01-24,1,,,,,カンボウトレーディング,0
1772,7030003018716,新規,0,2022-01-24,2022-01-24,合同会社芳武,,合同会社,埼玉県,草加市,谷塚町５８０番地１,,11,221,3400023,,,,,,,2022-01-24,1,,,,,ヨシタケ,0
1775,7040001121933,新規,0,2022-01-24,2022-01-24,大海金属株式会社,,株式会社,千葉県,野田市,大殿井中坪２６３－１番地,,12,208,2780017,,,,,,,2022-01-24,1,,,,,オオウミキンゾク,0
1776,7040003019325,新規,0,2022-01-24,2022-01-24,合同会社凜の国,,合同会社,千葉県,我孫子市,並木５丁目２番４２号,,12,222,2701165,,,,,,,2022-01-24,1,,,,,リンノクニ,0
1777,7040003019341,新規,0,2022-01-24,2022-01-24,ａｊｏｏｌ合同会社,,合同会社,千葉県,船橋市,夏見５丁目５番４号,,12,204,2730865,,,,,,,2022-01-24,1,,,,,アジュール,0
1785,7070001038869,新規,0,2022-01-24,2022-01-24,株式会社エフテック,,株式会社,群馬県,高崎市,吉井町多胡３５６番地,,10,202,3702116,,,,,,,2022-01-24,1,,,,,エフテック,0
1787,7070005009940,新規,0,2022-01-24,2022-01-24,産業協同組合,,その他の設立登記法人,群馬県,渋川市,北橘町八崎３９４番地の２,,10,208,3770064,,,,,,,2022-01-24,1,,,,,サンギョウ,0
1789,7100001034996,新規,0,2022-01-24,2022-01-24,フォレストリゾート株式会社,,株式会社,長野県,茅野市,玉川１１４００番,,20,214,3910011,,,,,,,2022-01-24,1,,,,,フォレストリゾート,0
1790,7100003006374,新規,0,2022-01-24,2022-01-24,合同会社ｓｔａｒＳ,,合同会社,長野県,上伊那郡箕輪町,大字中箕輪１４６１３番地５０６,,20,383,3994601,,,,,,,2022-01-24,1,,,,,スターエス,0
1801,7120001243315,新規,0,2022-01-24,2022-01-24,インフィニ株式会社,,株式会社,大阪府,大阪市東成区,中本５丁目２２番１１号ウエストハイツ４０２号,,27,115,5370022,,,,,,,2022-01-24,1,,,,,インフィニ,0
1802,7120001243372,新規,0,2022-01-24,2022-01-24,株式会社アーバン開発,,株式会社,大阪府,大阪市中央区,淡路町２丁目１番１号,,27,128,5410047,,,,,,,2022-01-24,1,,,,,アーバンカイハツ,0
1803,7120001243380,新規,0,2022-01-24,2022-01-24,株式会社金谷,,株式会社,大阪府,大阪市生野区,田島４丁目３番９号,,27,116,5440011,,,,,,,2022-01-24,1,,,,,カナヤ,0
1804,7120001243389,新規,0,2022-01-24,2022-01-24,株式会社Ｃｏａｔｔ,,株式会社,大阪府,大阪市中央区,船場中央３丁目２番８号船場センタービル８号館,,27,128,5410055,,,,,,,2022-01-24,1,,,,,コアット,0
1805,7120001243397,新規,0,2022-01-24,2022-01-24,株式会社ＶＡＬＵＥ　ＥＮＣＯＵＮＴ,,株式会社,大阪府,大阪市北区,梅田１丁目１－３大阪駅前第３ビル２９階１－１－１号室,,27,127,5300001,,,,,,,2022-01-24,1,,,,,バリューエンカウント,0
1824,7130001070980,新規,0,2022-01-24,2022-01-24,株式会社ＢＯＷ,,株式会社,京都府,京都市北区,衣笠北高橋町１５番地１,,26,101,6038373,,,,,,,2022-01-24,1,,,,,ボウ,0
1831,7140001124629,新規,0,2022-01-24,2022-01-24,ハクエイビルド株式会社,,株式会社,兵庫県,川西市,清和台東２丁目４番地の１４、２１０,,28,217,6660142,,,,,,,2022-01-24,1,,,,,ハクエイビルド,0
1833,7140003017260,新規,0,2022-01-24,2022-01-24,Ｍｅｄｉｏｃｒｅ合同会社,,合同会社,兵庫県,西宮市,高木東町１５－３３・２０１,,28,204,6638033,,,,,,,2022-01-24,1,,,,,メディオクリ,0
1834,7140005026004,新規,0,2022-01-24,2022-01-24,一般社団法人明石西安全衛生協会,,その他の設立登記法人,兵庫県,明石市,二見町西二見１５７番地の１１８,,28,203,6740094,,,,,,,2022-01-24,1,,,,,アカシニシアンゼンエイセイキョウカイ,0
1835,7150001025248,新規,0,2022-01-24,2022-01-24,アーキヒューマンガス株式会社,,株式会社,奈良県,桜井市,大字川合１２８番地の９,,29,206,6330063,,,,,,,2022-01-24,1,,,,,アーキヒューマンガス,0
1836,7150001025272,新規,0,2022-01-24,2022-01-24,株式会社ヒィラー,,株式会社,奈良県,香芝市,五位堂５丁目１５０番地２パラッツォ春崎２０１号,,29,210,6390226,,,,,,,2022-01-24,1,,,,,ヒィラー,0
1837,7160001023952,新規,0,2022-01-24,2022-01-24,株式会社Ｏ’ｓ　ｍａｎａｇｅｍｅｎｔ,,株式会社,滋賀県,守山市,下之郷２丁目１３番８号,,25,207,5240013,,,,,,,2022-01-24,1,,,,,オーズマネジメント,0
1843,7180001149688,新規,0,2022-01-24,2022-01-24,株式会社ＧＮＥＴ,,株式会社,愛知県,一宮市,今伊勢町宮後字郷東２１番地１キャッスルハイツ今伊勢６０２号,,23,203,4910057,,,,,,,2022-01-24,1,,,,,ジーネット,0
1852,7180005019607,新規,0,2022-01-24,2022-01-24,一般社団法人名古屋大学農学部・生命農学研究科同窓会,,その他の設立登記法人,愛知県,名古屋市千種区,不老町１番地,,23,101,4640814,,,,,,,2022-01-24,1,,,,,ナゴヤダイガクノウガクブセイメイノウガクケンキュウカドウソウカイ,0
1854,7180301035869,新規,0,2022-01-24,2022-01-24,株式会社藤正,,株式会社,愛知県,豊川市,大崎町下金居場１６０番地,,23,207,4420007,,,,,,,2022-01-24,1,,,,,フジショウ,0
1857,7200001039688,新規,0,2022-01-24,2022-01-24,株式会社Ｗｈｉｔｅ　Ａｃｅ,,株式会社,岐阜県,各務原市,川島松原町４５３番地２,,21,213,5016026,,,,,,,2022-01-24,1,,,,,ホワイトエース,0
1860,7200005013301,新規,0,2022-01-24,2022-01-24,一般社団法人ＩＶＹ,,その他の設立登記法人,岐阜県,岐阜市,青柳町２丁目１０番地,,21,201,5008881,,,,,,,2022-01-24,1,,,,,アイビー,0
1861,7220001024663,新規,0,2022-01-24,2022-01-24,株式会社カズン,,株式会社,石川県,金沢市,泉本町２丁目１４５番地３,,17,201,9218042,,,,,,,2022-01-24,1,,,,,カズン,0
1866,7240001059229,新規,0,2022-01-24,2022-01-24,株式会社Ｈｌｉｃ,,株式会社,広島県,広島市安佐南区,大町東１丁目１８番２０－１０－４号,,34,105,7310124,,,,,,,2022-01-24,1,,,,,ヒリック,0
1871,7260001036457,新規,0,2022-01-24,2022-01-24,株式会社丸亀町郡屋,,株式会社,岡山県,岡山市北区,富田町２丁目１番１５号,,33,101,7000816,,,,,,,2022-01-24,1,,,,,マルガメチョウコオリヤ,0
1881,7290001096192,新規,0,2022-01-24,2022-01-24,ミツキ工業株式会社,,株式会社,福岡県,大野城市,畑ケ坂１丁目２番２７号,,40,219,8160982,,,,,,,2022-01-24,1,,,,,ミツキコウギョウ,0
1882,7290003012065,新規,0,2022-01-24,2022-01-24,合同会社アイディール博多,,合同会社,福岡県,福岡市西区,愛宕４丁目２番４５－６１４号,,40,135,8190015,,,,,,,2022-01-24,1,,,,,アイディールハカタ,0
1886,7290801028196,新規,0,2022-01-24,2022-01-24,株式会社ＦＬＡＴ,,株式会社,福岡県,北九州市小倉北区,馬借２丁目２番３号,,40,106,8020077,,,,,,,2022-01-24,1,,,,,フラット,0
1887,7300001012783,新規,0,2022-01-24,2022-01-24,株式会社利光テクノ,,株式会社,佐賀県,唐津市,鏡７９２番地５,,41,202,8470022,,,,,,,2022-01-24,1,,,,,リコウテクノ,0
1895,7360003011753,新規,0,2022-01-24,2022-01-24,宮里鉄筋合同会社,,合同会社,沖縄県,那覇市,字安里５７番地９,,47,201,9020067,,,,,,,2022-01-24,1,,,,,ミヤザトテッキン,0
1896,7360003011761,新規,0,2022-01-24,2022-01-24,合同会社メディカルＢＯＸ,,合同会社,沖縄県,宜野湾市,普天間１丁目１１番９号３Ｆ,,47,205,9012202,,,,,,,2022-01-24,1,,,,,メディカルボックス,0
1899,7370001048111,新規,0,2022-01-24,2022-01-24,株式会社ウィステリア,,株式会社,宮城県,仙台市青葉区,国分町２丁目１２番３２号,,04,101,9800803,,,,,,,2022-01-24,1,,,,,ウィステリア,0
1905,7380001032519,新規,0,2022-01-24,2022-01-24,株式会社グローバルサポート,,株式会社,福島県,郡山市,字菜根屋敷２３番地の４,,07,203,9638863,,,,,,,2022-01-24,1,,,,,グローバルサポート,0
1922,7400001015751,新規,0,2022-01-24,2022-01-24,株式会社たかむら商店,,株式会社,岩手県,盛岡市,好摩字中塚６６７番地２,,03,201,0284125,,,,,,,2022-01-24,1,,,,,タカムラショウテン,0
1931,7450003002173,新規,0,2022-01-24,2022-01-24,合同会社Ｈ．Ｔコーポレーション,,合同会社,北海道,旭川市,豊岡十一条３丁目６番２号ステラ１１３・２０３号,,01,204,0788241,,,,,,,2022-01-24,1,,,,,エイチティーコーポレーション,0
1936,7500001023959,新規,0,2022-01-24,2022-01-24,株式会社Ｋプランニング,,株式会社,愛媛県,西条市,丹原町徳能出作１３９番地,,38,206,7910501,,,,,,,2022-01-24,1,,,,,ケープランニング,0
1938,7700150105455,新規,0,2022-01-24,2021-10-21,Ｔ＆Ｉ,,その他,東京都,目黒区,中目黒５丁目７－３３－１０４,,13,110,1530061,,,,,,,2021-10-21,1,,,,,テイーアンドアイ,0
1943,8010001224044,新規,0,2022-01-24,2022-01-24,株式会社Ｇｒｏｗｖａｌ　ｃｏｍｐａｎｙ,,株式会社,東京都,中央区,銀座１丁目２２番１１号銀座大竹ビジデンス２階,,13,102,1040061,,,,,,,2022-01-24,1,,,,,,0
1944,8010001224085,新規,0,2022-01-24,2022-01-24,株式会社ＴＲＩ　Ｅｘｐｒｅｓｓ,,株式会社,東京都,中央区,東日本橋１丁目９番２号,,13,102,1030004,,,,,,,2022-01-24,1,,,,,ティーアールアイエクスプレス,0
1947,8010003036801,新規,0,2022-01-24,2022-01-24,合同会社とんぼ,,合同会社,東京都,中央区,銀座４丁目１４番７－６０５号,,13,102,1040061,,,,,,,2022-01-24,1,,,,,トンボ,0
1948,8010101015038,新規,0,2022-01-24,2022-01-24,丸万不動産株式会社,,株式会社,東京都,八王子市,子安町４丁目７番１－２７０４号,,13,201,1920904,,,,,,,2022-01-24,1,,,,,マルマンフドウサン,0
1960,8010503006485,新規,0,2022-01-24,2022-01-24,ｄｅａｒｌｙ　ａｂｏｖｅ合同会社,,合同会社,東京都,台東区,北上野２丁目１４番９号,,13,106,1100014,,,,,,,2022-01-24,1,,,,,,0
1965,8010703006079,新規,0,2022-01-24,2022-01-24,合同会社チルシェ,,合同会社,東京都,品川区,東品川３丁目２１番１０号,,13,109,1400002,,,,,,,2022-01-24,1,,,,,チルシェ,0
1969,8010901050201,新規,0,2022-01-24,2022-01-24,株式会社Ｓｔｕｄｉｏ　Ｐｅｒ,,株式会社,東京都,世田谷区,下馬１丁目２７－１３－５０１,,13,112,1540002,,,,,,,2022-01-24,1,,,,,スタジオパー,0
1970,8010901050218,新規,0,2022-01-24,2022-01-24,株式会社ＣＫＢ,,株式会社,東京都,世田谷区,用賀３丁目２６番７号コリーヌ用賀１０２,,13,112,1580097,,,,,,,2022-01-24,1,,,,,シーケービー,0
1973,8010903007100,新規,0,2022-01-24,2022-01-24,合同会社ＩＳＩＳ,,合同会社,東京都,世田谷区,給田３丁目１７番１９－１０２号,,13,112,1570064,,,,,,,2022-01-24,1,,,,,イズイズ,0
1981,8011001145040,新規,0,2022-01-24,2022-01-24,株式会社アンドディファレンス,,株式会社,東京都,渋谷区,広尾１丁目３番１８号広尾オフィスビル１１階,,13,113,1500012,,,,,,,2022-01-24,1,,,,,アンドディファレンス,0
1983,8011003014029,新規,0,2022-01-24,2022-01-24,合同会社Ｍｉｍｅ　Ｍａｃｈｉｎｅ,,合同会社,東京都,渋谷区,神宮前６丁目２３番４号桑野ビル２階,,13,113,1500001,,,,,,,2022-01-24,1,,,,,マイムマシーン,0
1989,8011201023574,新規,0,2022-01-24,2022-01-24,應時商事株式会社,,株式会社,東京都,中野区,中野２丁目２８－１,,13,114,1640001,,,,,,,2022-01-24,1,,,,,オウジショウジ,0
1990,8011203003731,新規,0,2022-01-24,2022-01-24,合同会社ＷＡＶＥ,,合同会社,東京都,中野区,本町２丁目４２番１５号ウェーブツツミ１０１,,13,114,1640012,,,,,,,2022-01-24,1,,,,,ウェーブ,0
1992,8011301027509,新規,0,2022-01-24,2022-01-24,Ｒ＆Ｉ株式会社,,株式会社,東京都,杉並区,大宮１丁目１８番１７号,,13,115,1680061,,,,,,,2022-01-24,1,,,,,アールアンドアイ,0
1997,8011503005048,新規,0,2022-01-24,2022-01-24,Ｔｈｕｙ　Ａｎｈ　ｂｅａｕｔｙ合同会社,,合同会社,東京都,北区,赤羽西１丁目１６番１２号赤羽ＴＰビルＡ棟１１３号,,13,117,1150055,,,,,,,2022-01-24,1,,,,,テユイアンビューティ,0
1998,8011603003505,新規,0,2022-01-24,2022-01-24,ＬｅｙＬｉｎｅ合同会社,,合同会社,東京都,練馬区,石神井台８丁目３番６号,,13,120,1770045,,,,,,,2022-01-24,1,,,,,レイライン,0
2012,8012403005204,新規,0,2022-01-24,2022-01-24,合同会社ＳＯＲＯ,,合同会社,東京都,調布市,西つつじケ丘４丁目３０番地２８フロレスタ・ヒルズ１０３,,13,208,1820006,,,,,,,2022-01-24,1,,,,,ソロ,0
2014,8012705002287,新規,0,2022-01-24,2022-01-24,一般社団法人ＳＲＥ　ＮＥＸＴ,,その他の設立登記法人,東京都,清瀬市,竹丘２丁目２番３８号清瀬パークハウス２０５号,,13,221,2040023,,,,,,,2022-01-24,1,,,,,エスアールイーネクスト,0
2015,8012803002684,新規,0,2022-01-24,2022-01-24,合同会社ｋ．ｐ．ｃ,,合同会社,東京都,立川市,曙町２丁目３２－３サンパレス立川２０１,00125490,13,202,1900012,,,,,,,2022-01-24,1,,,,,カーペーセー,0
2023,8020003021190,新規,0,2022-01-24,2022-01-24,ヒューテック合同会社,,合同会社,神奈川県,横浜市戸塚区,川上町６８５番地１Ｄ．Ｙ．東戸塚４０５号,,14,110,2440805,,,,,,,2022-01-24,1,,,,,ヒューテック,0
2027,8021001075006,新規,0,2022-01-24,2022-01-24,株式会社ｗｉｎ－ｘ,,株式会社,神奈川県,平塚市,長持２３３番地,,14,203,2591217,,,,,,,2022-01-24,1,,,,,ウィンクス,0
2028,8021001075014,新規,0,2022-01-24,2022-01-24,チャレンジャーホールディングス株式会社,,株式会社,神奈川県,小田原市,鴨宮１６２番地の１,,14,206,2500874,,,,,,,2022-01-24,1,,,,,チャレンジャーホールディングス,0
2030,8021003011272,新規,0,2022-01-24,2022-01-24,ハートフルライフ合同会社,,合同会社,神奈川県,横須賀市,浦賀４丁目５－６,,14,201,2390822,,,,,,,2022-01-24,1,,,,,ハートフルライフ,0
2031,8021003011322,新規,0,2022-01-24,2022-01-24,合同会社Ｂｅｌｌｅ．Ｖｉｔａ,,合同会社,神奈川県,相模原市南区,東林間２丁目１５番７号,,14,153,2520311,,,,,,,2022-01-24,1,,,,,ベルビータ,0
2034,8030001146451,新規,0,2022-01-24,2022-01-24,株式会社ＳＨＩＮＡＫＩ,,株式会社,埼玉県,朝霞市,三原５丁目１０番７０－２０２号,,11,227,3510025,,,,,,,2022-01-24,1,,,,,シナキ,0
2036,8030003018491,新規,0,2022-01-24,2022-01-24,Ｓｕａｉ　ｃｏｎｎｅｃＴ合同会社,,合同会社,埼玉県,川口市,上青木１丁目１４－３９ウインザーハイム西川口１１０号,,11,203,3330844,,,,,,,2022-01-24,1,,,,,スアイコネクト,0
2037,8030003018707,新規,0,2022-01-24,2022-01-24,合同会社グルーミングらぼ,,合同会社,埼玉県,さいたま市見沼区,深作２丁目２０－３３,,11,104,3370003,,,,,,,2022-01-24,1,,,,,グルーミングラボ,0
2038,8030003018715,新規,0,2022-01-24,2022-01-24,ＡＧアキテク合同会社,,合同会社,埼玉県,上尾市,中妻４丁目２番地３０,,11,219,3620072,,,,,,,2022-01-24,1,,,,,エイジーアキテク,0
2053,8050005013002,新規,0,2022-01-24,2022-01-24,一般社団法人オリナス,,その他の設立登記法人,茨城県,つくばみらい市,紫峰ヶ丘３丁目５番地１,,08,235,3002359,,,,,,,2022-01-24,1,,,,,オリナス,0
2065,8110001036388,新規,0,2022-01-24,2022-01-24,株式会社セブン,,株式会社,新潟県,新潟市中央区,神道寺２丁目２番２５号,,15,103,9500983,,,,,,,2022-01-24,1,,,,,セブン,0
2071,8120001243322,新規,0,2022-01-24,2022-01-24,株式会社Ｓ５５,,株式会社,大阪府,大阪市天王寺区,生玉町２－３１－２１６号,,27,109,5430071,,,,,,,2022-01-24,1,,,,,エスフィフティーファイブ,0
2072,8120001243355,新規,0,2022-01-24,2022-01-24,株式会社松天,,株式会社,大阪府,大阪市西成区,鶴見橋１丁目１０番１３号,,27,122,5570031,,,,,,,2022-01-24,1,,,,,ショウテン,0
2073,8120001243363,新規,0,2022-01-24,2022-01-24,株式会社ＢＯＮＤ,,株式会社,大阪府,枚方市,北山１丁目２５番２４号,,27,210,5730171,,,,,,,2022-01-24,1,,,,,ボンド,0
2074,8120001243371,新規,0,2022-01-24,2022-01-24,ＬＡＵＴ株式会社,,株式会社,大阪府,大阪市中央区,難波４丁目１番１５号近鉄難波ビル１．２．３Ｆ,,27,128,5420076,,,,,,,2022-01-24,1,,,,,ラウト,0
2075,8120001243388,新規,0,2022-01-24,2022-01-24,長運株式会社,,株式会社,大阪府,大阪市阿倍野区,桃ケ池町１丁目１１－１６,,27,119,5450012,,,,,,,2022-01-24,1,,,,,チョウウン,0
2076,8120003020959,新規,0,2022-01-24,2022-01-24,ＳＩＡＭＯＰＬＵＳ合同会社,,合同会社,大阪府,大阪市中央区,南久宝寺町１丁目９－１ルート船場ビル５０２号室,,27,128,5410058,,,,,,,2022-01-24,1,,,,,シアモプラス,0
2077,8120003021008,新規,0,2022-01-24,2022-01-24,グローバルランドールジャパン合同会社,,合同会社,大阪府,大阪市西区,江戸堀２丁目１－１江戸堀センタービル９階,,27,106,5500002,,,,,,,2022-01-24,1,,,,,グローバルランドールジャパン,0
2080,8120005022714,新規,0,2022-01-24,2022-01-24,ＮＰＯ法人ベリーフィールド,,その他の設立登記法人,大阪府,大阪市生野区,勝山南１丁目１２番８号,,27,116,5440021,,,,,,,2022-01-24,1,,,,,ベリーフィールド,0
2090,8120901045504,新規,0,2022-01-24,2022-01-24,株式会社ｗｈａｔｅｖｅｒ,,株式会社,大阪府,豊中市,西緑丘３丁目７番１号,,27,203,5600005,,,,,,,2022-01-24,1,,,,,ファットエバー,0
2094,8130001070988,新規,0,2022-01-24,2022-01-24,株式会社ＫＡＷＡＭＯ,,株式会社,京都府,京都市右京区,嵯峨天龍寺油掛町１－１６,,26,108,6168346,,,,,,,2022-01-24,1,,,,,カワモ,0
2100,8140001124628,新規,0,2022-01-24,2022-01-24,播磨ＳＴドローン株式会社,,株式会社,兵庫県,加古郡播磨町,西野添５丁目１９番３号,,28,382,6750160,,,,,,,2022-01-24,1,,,,,ハリマエスティドローン,0
2101,8140001124644,新規,0,2022-01-24,2022-01-24,ＦＯＨＬＡ　ＪＡＰＡＮ株式会社,,株式会社,兵庫県,神戸市灘区,城内通４丁目７番２０－３０７号,,28,102,6570836,,,,,,,2022-01-24,1,,,,,フォーラジャパン,0
2116,8180001149662,新規,0,2022-01-24,2022-01-24,株式会社裕コーポレーション,,株式会社,愛知県,名古屋市南区,呼続５丁目３番１７号,,23,112,4570014,,,,,,,2022-01-24,1,,,,,ヒロシコーポレーション,0
2117,8180001149695,新規,0,2022-01-24,2022-01-24,株式会社和工務店,,株式会社,愛知県,一宮市,開明字大橋西３１番地１,,23,203,4940001,,,,,,,2022-01-24,1,,,,,ナゴミコクムテン,0
2124,8190003003874,新規,0,2022-01-24,2022-01-24,三浦林商合同会社,,合同会社,三重県,津市,美杉町丹生俣３９７,,24,201,5153313,,,,,,,2022-01-24,1,,,,,ミウラリンショウ,0
2126,8200001039679,新規,0,2022-01-24,2022-01-24,株式会社プリモ,,株式会社,岐阜県,瑞穂市,稲里７６９番地１,,21,216,5010224,,,,,,,2022-01-24,1,,,,,プリモ,0
2128,8220001024662,新規,0,2022-01-24,2022-01-24,株式会社ブランド金沢,,株式会社,石川県,金沢市,泉野町３丁目１３番２５号,,17,201,9218034,,,,,,,2022-01-24,1,,,,,ブランドカナザワ,0
2129,8220003003193,新規,0,2022-01-24,2022-01-24,合同会社ツナギメ,,合同会社,石川県,金沢市,泉野出町１丁目４番２２号,,17,201,9218116,,,,,,,2022-01-24,1,,,,,ツナギメ,0
2135,8240001059228,新規,0,2022-01-24,2022-01-24,株式会社石崎ホールディングス,00125497,株式会社,広島県,広島市安芸区,矢野新町１丁目２番１５号,,34,107,7360084,,,,,,,2022-01-24,1,,,,,イシザキホールディングス,0
2137,8250005008717,新規,0,2022-01-24,2022-01-24,ＮＰＯ法人あにまるらいふ猫丸,,その他の設立登記法人,山口県,宇部市,大字際波１８９１番地７,,35,202,7590207,,,,,,,2022-01-24,1,,,,,アニマルライフネコマル,0
2143,8290001096200,新規,0,2022-01-24,2022-01-24,株式会社一輝工業,,株式会社,福岡県,飯塚市,下三緒３５番地４１９,,40,205,8200012,,,,,,,2022-01-24,1,,,,,イツキコウギョウ,0
2151,8290003012064,新規,0,2022-01-24,2022-01-24,フューチャーイメージファクトリー合同会社,,合同会社,福岡県,福岡市南区,長住４丁目８番９号,,40,134,8111362,,,,,,,2022-01-24,1,,,,,フューチャーイメージファクトリー,0
2153,8310001017681,新規,0,2022-01-24,2022-01-24,諫早環境機材株式会社,,株式会社,長崎県,諫早市,栗面町７７３番地１,,42,204,8540055,,,,,,,2022-01-24,1,,,,,イサハヤカンキョウキザイ,0
2165,8330005010458,新規,0,2022-01-24,2022-01-24,一般社団法人ＮＴ更生企画,,その他の設立登記法人,熊本県,上天草市,大矢野町上６９７番地１,,43,212,8693602,,,,,,,2022-01-24,1,,,,,エヌティコウセイキカク,0
2167,8340001024444,新規,0,2022-01-24,2022-01-24,リテールワークス株式会社,,株式会社,鹿児島県,鹿児島市,千日町１番１号,,46,201,8920843,,,,,,,2022-01-24,1,,,,,リテールワークス,0
2170,8360001029920,新規,0,2022-01-24,2022-01-24,株式会社未来通信システム,,株式会社,沖縄県,糸満市,字新垣１６７番地,,47,210,9010323,,,,,,,2022-01-24,1,,,,,ミライツウシンシステム,0
2171,8360001029929,新規,0,2022-01-24,2022-01-24,株式会社上地工房,,株式会社,沖縄県,糸満市,字糸満１５２番地,,47,210,9010361,,,,,,,2022-01-24,1,,,,,ウエチコウボウ,0
2172,8360003011752,新規,0,2022-01-24,2022-01-24,ＯＣＰ合同会社,,合同会社,沖縄県,宜野湾市,字宇地泊６７３番地ベイサイドアリーナ６０４,,47,205,9012227,,,,,,,2022-01-24,1,,,,,オーシーピー,0
2190,8390001016759,新規,0,2022-01-24,2022-01-24,山寺陶芸株式会社,,株式会社,山形県,山形市,大字漆山字野地９０８番地,,06,201,9902161,,,,,,,2022-01-24,1,,,,,,0
2205,8430005014366,新規,0,2022-01-24,2022-01-24,ＮＰＯ法人ｍａｒｇｅ,,その他の設立登記法人,北海道,勇払郡むかわ町,田浦１４１番地,,01,586,0540004,,,,,,,2022-01-24,1,,,,,マージュ,0
2206,8430005014374,新規,0,2022-01-24,2022-01-24,社会保険労務士法人とよひら,,その他の設立登記法人,北海道,札幌市豊平区,平岸二条９丁目５番１号,,01,105,0620932,,,,,,,2022-01-24,1,,,,,トヨヒラ,0
2210,8470001018937,新規,0,2022-01-24,2022-01-24,株式会社人生百年サポート,,株式会社,香川県,高松市,丸の内９番８号ダイアパレス丸の内２１２号,,37,201,7600033,,,,,,,2022-01-24,1,,,,,ジンセイヒャクネンサポート,0
2223,9010001224019,新規,0,2022-01-24,2022-01-24,株式会社ＲｏｃｋＢｏｔｔｏｍ,,株式会社,東京都,千代田区,岩本町２丁目１６番４号シルヴァーアウル４０１,,13,101,1010032,,,,,,,2022-01-24,1,,,,,ロックボトム,0
2224,9010001224043,新規,0,2022-01-24,2022-01-24,神野コーポレーション株式会社,,株式会社,東京都,千代田区,麹町１丁目１２－９,,13,101,1020083,,,,,,,2022-01-24,1,,,,,カミノコーポレーション,0
2225,9010001224051,新規,0,2022-01-24,2022-01-24,メルセネール株式会社,,株式会社,東京都,中央区,日本橋堀留町１丁目３番２１－１２０１号,,13,102,1030012,,,,,,,2022-01-24,1,,,,,メルセネール,0
2233,9010003036817,新規,0,2022-01-24,2022-01-24,合同会社ｊａｇａ,,合同会社,東京都,千代田区,東神田３丁目４番１２号,,13,101,1010031,,,,,,,2022-01-24,1,,,,,ジャガ,0
2242,9010401165052,新規,0,2022-01-24,2022-01-24,Ｄｏｃｏｄｅｍｏ株式会社,,株式会社,東京都,港区,元麻布２丁目９番１０号,,13,103,1060046,,,,,,,2022-01-24,1,,,,,ドコデモ,0
2243,9010401165151,新規,0,2022-01-24,2022-01-24,株式会社Ｓｍａｒｔ　Ｍｏｂｉｌｉｔｙ,,株式会社,東京都,港区,芝大門２丁目２－１ＡＣＮ芝大門ビルディング６Ｆ,,13,103,1050012,,,,,,,2022-01-24,1,,,,,スマートモビリティ,0
2245,9010403026863,新規,0,2022-01-24,2022-01-24,ヤシヌ合同会社,,合同会社,東京都,港区,六本木４丁目１番１６－８０５Ｄ,,13,103,1060032,,,,,,,2022-01-24,1,,,,,ヤシヌ,0
2246,9010403026888,新規,0,2022-01-24,2022-01-24,ＡＧルネサンス合同会社,,合同会社,東京都,港区,南青山４丁目１番１－４０６号,,13,103,1070062,,,,,,,2022-01-24,1,,,,,エージールネサンス,0
2247,9010403026946,新規,0,2022-01-24,2022-01-24,オフィス・クボタ合同会社,,合同会社,東京都,港区,三田４丁目７番３２－４０８号,,13,103,1080073,,,,,,,2022-01-24,1,,,,,オフィスクボタ,0
2252,9010501048355,新規,0,2022-01-24,2022-01-24,株式会社グロコン・エイト,,株式会社,東京都,台東区,竜泉２丁目２０番９号丸和エコービル５Ｆ,,13,106,1100012,,,,,,,2022-01-24,1,,,,,グロコンエイト,0
2260,9010703006078,新規,0,2022-01-24,2022-01-24,合同会社ロングラン,,合同会社,東京都,品川区,西五反田２丁目１６番６号,,13,109,1410031,,,,,,,2022-01-24,1,,,,,ロングラン,0
2263,9010901050217,新規,0,2022-01-24,2022-01-24,株式会社ＮＥＣＣＯ,,株式会社,東京都,世田谷区,駒沢３丁目１番３－５０５号,,13,112,1540012,,,,,,,2022-01-24,1,,,,,ネッコ,0
2269,9011003014069,新規,0,2022-01-24,2022-01-24,目黒興産合同会社,,合同会社,東京都,目黒区,下目黒１丁目４番４号,,13,110,1530064,,,,,,,2022-01-24,1,,,,,メグロコウサン,0
2270,9011005009397,新規,0,2022-01-24,2022-01-24,一般社団法人ゼロイチマーケティング協会,,その他の設立登記法人,東京都,渋谷区,上原１丁目３８番１１号シャトー代々木上原１０４,,13,113,1510064,,,,,,,2022-01-24,1,,,,,ゼロイチマーケティングキョウカイ,0
2273,9011103011395,新規,0,2022-01-24,2022-01-24,Ｐｌｕｍｅ　Ｄｅｓｉｇｎ　Ｊａｐａｎ合同会社,,合同会社,東京都,新宿区,袋町５番地１,,13,104,1620828,,,,,,,2022-01-24,1,,,,,プルームデザインジャパン,0
2277,9011603003504,新規,0,2022-01-24,2022-01-24,豊玉社中合同会社,,合同会社,東京都,練馬区,練馬１丁目２０番８号日建練馬ビル２Ｆ,,13,120,1760001,,,,,,,2022-01-24,1,,,,,トヨタマシャチュウ,0
2279,9011801040233,新規,0,2022-01-24,2022-01-24,株式会社ＫＥＮＺＩ,,株式会社,東京都,足立区,西新井４丁目４５番１４号,,13,121,1230841,,,,,,,2022-01-24,1,,,,,ケンジ,0
2285,9012401038782,新規,0,2022-01-24,2022-01-24,株式会社ＨＯＵＳ,,株式会社,東京都,調布市,小島町３丁目５番地２５,,13,208,1820026,,,,,,,2022-01-24,1,,,,,ハオス,0
2288,9012701016901,新規,0,2022-01-24,2022-01-24,株式会社ＦＩＬＣ,,株式会社,東京都,東久留米市,上の原１丁目２番１０～１１２号,,13,222,2030001,,,,,,,2022-01-24,1,,,,,フィルク,0
2299,9021005012425,新規,0,2022-01-24,2022-01-24,一般社団法人湘南ドリームプロジェクト,,その他の設立登記法人,神奈川県,藤沢市,鵠沼海岸１丁目３－２０シーサイドヴィラ湘南１階,,14,205,2510037,,,,,,,2022-01-24,1,,,,,,0
2306,9030003018672,新規,0,2022-01-24,2022-01-24,合同会社ウィズアス,,合同会社,埼玉県,さいたま市岩槻区,西原台１丁目３－９６－１,,11,110,3390082,,,,,,,2022-01-24,1,,,,,ウィズアス,0
2318,9040003019356,新規,0,2022-01-24,2022-01-24,ＨＹＴ総合コンサルティング合同会社,,合同会社,千葉県,市川市,宮久保６丁目１８番８号,,12,203,2720822,,,,,,,2022-01-24,1,,,,,エイチワイティーソウゴウコンサルティング,0
2319,9040003019364,新規,0,2022-01-24,2022-01-24,合同会社Ｔｏｉｒｏ,,合同会社,千葉県,柏市,船戸１７０５－６,,12,217,2770802,,,,,,,2022-01-24,1,,,,,トイロ,0
2338,9100001034994,新規,0,2022-01-24,2022-01-24,表設備工業株式会社,,株式会社,長野県,長野市,大字徳間３３１４番地、２Ｆ,,20,201,3810041,,,,,,,2022-01-24,1,,,,,オモテセツビコウギョウ,0
2340,9100003006380,新規,0,2022-01-24,2022-01-24,合同会社リズ,,合同会社,長野県,松本市,並柳３丁目１６－１１－１,,20,202,3900825,,,,,,,2022-01-24,1,,,,,リズ,0
2357,9120901045503,新規,0,2022-01-24,2022-01-24,株式会社トゥモローウォーター,,株式会社,大阪府,吹田市,朝日が丘町４８番９号,,27,205,5640083,,,,,,,2022-01-24,1,,,,,トゥモローウォーター,0
2360,9122005003602,新規,0,2022-01-24,2022-01-24,一般社団法人東大阪地域連携推進アソシエーション,,その他の設立登記法人,大阪府,東大阪市,小阪１丁目１４番１６－２０２号,,27,227,5770801,,,,,,,2022-01-24,1,,,,,ヒガシオオサカチイキレンケイスイシンアソシエーション,0
2366,9130001070896,新規,0,2022-01-24,2022-01-24,株式会社Ｌａｓｉｋｕ,,株式会社,京都府,宇治市,五ヶ庄一里塚２５番地の４８,00125443,26,204,,,,,,,,2022-01-24,1,,,,,ラシク,0
2367,9130001070987,新規,0,2022-01-24,2022-01-24,Ｆａｒｍｅｒ’ｓ都季株式会社,,株式会社,京都府,乙訓郡大山崎町,字円明寺小字西法寺１番地１３、３－１０４,,26,303,6180091,,,,,,,2022-01-24,1,,,,,ファーマーズトキ,0
2368,9130001070995,新規,0,2022-01-24,2022-01-24,ＳＲＵ精密工業株式会社,,株式会社,京都府,京都市伏見区,深草石峰寺山町３４番地２０,,26,109,6120883,,,,,,,2022-01-24,1,,,,,エスアールユーセイミツコウギョウ,0
2378,9140001124560,新規,0,2022-01-24,2022-01-24,株式会社ＹＵＴＵＳ,,株式会社,兵庫県,神戸市東灘区,御影山手４丁目２４－２７,,28,101,6580065,,,,,,,2022-01-24,1,,,,,ユータス,0
2379,9140001124643,新規,0,2022-01-24,2022-01-24,株式会社ＡｉＬＵＳ,,株式会社,兵庫県,加古川市,加古川町寺家町３６２番地の１ビアンテじけまち３Ｆ,,28,210,6750066,,,,,,,2022-01-24,1,,,,,アイラス,0
2380,9140001124651,新規,0,2022-01-24,2022-01-24,杠株式会社,,株式会社,兵庫県,西宮市,寿町１番２４号,,28,204,6620047,,,,,,,2022-01-24,1,,,,,ユズリハ,0
2381,9140001124684,新規,0,2022-01-24,2022-01-24,株式会社オーエイワイ,,株式会社,兵庫県,神戸市東灘区,渦森台３丁目２番１０号,,28,101,6580066,,,,,,,2022-01-24,1,,,,,オーエイワイ,0
2413,9180301035859,新規,0,2022-01-24,2022-01-24,セントラル運送株式会社,,株式会社,愛知県,豊橋市,高洲町字高洲１００番地１,,23,201,4418006,,,,,,,2022-01-24,1,,,,,セントラルウンソウ,0
2414,9180301035867,新規,0,2022-01-24,2022-01-24,株式会社ＮＯＭ,,株式会社,愛知県,岡崎市,大和町字塗御堂５３番地１,,23,202,4440931,,,,,,,2022-01-24,1,,,,,ノム,0
2421,9200001039686,新規,0,2022-01-24,2022-01-24,吉田株式会社,,株式会社,岐阜県,中津川市,千旦林１６４５番地の５,,21,206,5099131,,,,,,,2022-01-24,1,,,,,ヨシダ,0
2424,9220001024661,新規,0,2022-01-24,2022-01-24,株式会社ＰＬＵＳ　ＣＯＮＮＥＣＴ,,株式会社,石川県,白山市,馬場１丁目１２７番地,,17,210,9240864,,,,,,,2022-01-24,1,,,,,プラスコネクト,0
2425,9220003003192,新規,0,2022-01-24,2022-01-24,ひろまる合同会社,,合同会社,石川県,金沢市,畝田東３丁目５１２番地畝田イーストＢ号,,17,201,9200344,,,,,,,2022-01-24,1,,,,,ヒロマル,0
2434,9240001059227,新規,0,2022-01-24,2022-01-24,株式会社ＲＥ‐Ｉ‐ＷＡ,,株式会社,広島県,東広島市,西条昭和町８番１６号,,34,212,7390014,,,,,,,2022-01-24,1,,,,,レイワ,0
2435,9240003005468,新規,0,2022-01-24,2022-01-24,サムレスレコード合同会社,,合同会社,広島県,広島市安佐南区,緑井１丁目１５番２９－１３０３,,34,105,7310103,,,,,,,2022-01-24,1,,,,,サムレスレコード,0
2454,9290003012063,新規,0,2022-01-24,2022-01-24,ｅｙｅ合同会社,,合同会社,福岡県,福岡市中央区,薬院１丁目１２番１０－１２０７号,,40,133,8100022,,,,,,,2022-01-24,1,,,,,アイ,0
2469,9340005009399,新規,0,2022-01-24,2022-01-24,特定非営利活動法人あいら未来会議プラス,,その他の設立登記法人,鹿児島県,姶良市,平松５７７６番地,,46,225,8995652,,,,,,,2022-01-24,1,,,,,アイラミライカイギプラス,0
2470,9360003011751,新規,0,2022-01-24,2022-01-24,合同会社ブルーステージ沖縄,,合同会社,沖縄県,宜野湾市,真志喜２丁目１１番１１号,,47,205,9012224,,,,,,,2022-01-24,1,,,,,ブルーステージオキナワ,0
2499,9430001085856,新規,0,2022-01-24,2022-01-24,株式会社Ｌａｓｏ,,株式会社,北海道,札幌市清田区,平岡八条３丁目９番１０号,,01,110,0040878,,,,,,,2022-01-24,1,,,,,ラソ,0
2505,9430003013559,新規,0,2022-01-24,2022-01-24,合同会社Ｒ．Ｃ．Ｓ,,合同会社,北海道,岩内郡岩内町,字野束２７３番地４４,,01,402,0450024,,,,,,,2022-01-24,1,,,,,アールシーエス,0
2508,9490001010098,新規,0,2022-01-24,2022-01-24,株式会社特装高知,,株式会社,高知県,高知市,春野町内ノ谷２２４０番地,,39,201,7810313,,,,,,,2022-01-24,1,,,,,トクソウコウチ,0
2510,9500001023957,新規,0,2022-01-24,2022-01-24,株式会社常翔工業,,株式会社,愛媛県,今治市,拝志１２番５号,,38,202,7991504,,,,,,,2022-01-24,1,,,,,ジョウショウコウギョウ,0
2513,9700150090324,新規,0,2022-01-24,2018-08-15,第１９回ＦＩＮＡ世界水泳選手権２０２２福岡大会組織委員会,,その他,福岡県,福岡市中央区,天神１丁目８－１,,40,133,8100001,,,,,,,2018-08-15,1,,,,,ダイジユウキユウカイフイナセカイスイエイセンシユケンニセンニジユウニフクオカタイカイソシキイインカイ,0
