sequenceNumber,corporateNumber,process,correct,updateDate,changeDate,name,nameImageId,kind,prefectureName,cityName,streetNumber,addressImageId,prefectureCode,cityCode,postCode,addressOutside,addressOutsideImageId,closeDate,closeCause,successorCorporateNumber,changeCause,assignmentDate,latest,enName,enPrefectureName,enCityName,enAddressOutside,furigana,hihyoji
12,1010001239973,新規,0,2023-11-10,2023-11-10,株式会社ＮＩＣＯ,,株式会社,東京都,中央区,銀座１丁目１２－４Ｎ＆ＥＢＬＤ．７階,,13,102,1040061,,,,,,,2023-11-10,1,,,,,ニコ,0
13,1010003042186,新規,0,2023-11-10,2023-11-10,ＪＤ２合同会社,,合同会社,東京都,千代田区,丸の内３丁目１番１号東京共同会計事務所内,,13,101,1000005,,,,,,,2023-11-10,1,,,,,ジェイディーツー,0
17,1010103002247,新規,0,2023-11-10,2023-11-10,ＨＫＩ合同会社,,合同会社,東京都,八王子市,館町１６５８番地,,13,201,1930944,,,,,,,2023-11-10,1,,,,,エイチケーアイ,0
24,1010401178417,新規,0,2023-11-10,2023-11-10,Ｔａｉｙａｋｉ　Ｓｔｕｄｉｏｓ株式会社,,株式会社,東京都,港区,元麻布３丁目１番６号,,13,103,1060046,,,,,,,2023-11-10,1,,,,,タイヤキスタジオズ,0
31,1010501051309,新規,0,2023-11-10,2023-11-10,株式会社ＭＫＴ,,株式会社,東京都,台東区,下谷１丁目５番２２号,,13,106,1100004,,,,,,,2023-11-10,1,,,,,エムケイティ,0
32,1010501051333,新規,0,2023-11-10,2023-11-10,欣沢商事株式会社,,株式会社,東京都,台東区,駒形１丁目６番６号,,13,106,1110043,,,,,,,2023-11-10,1,,,,,キンタクショウジ,0
35,1010601064103,新規,0,2023-11-10,2023-11-10,常順株式会社,,株式会社,東京都,江東区,佐賀１丁目１６番３号２０１－Ｆ,,13,108,1350031,,,,,,,2023-11-10,1,,,,,ジョウジュン,0
42,1010703006936,新規,0,2023-11-10,2023-11-10,Ｉｎｔｅｇｒｉｔｙ合同会社,,合同会社,東京都,品川区,上大崎２丁目２番３号ＥＭハイツ２０１,,13,109,1410021,,,,,,,2023-11-10,1,,,,,インテグリティ,0
43,1010703006944,新規,0,2023-11-10,2023-11-10,メッツアソーラー合同会社,,合同会社,東京都,品川区,上大崎３丁目１番１号目黒セントラルスクエア１５階,,13,109,1410021,,,,,,,2023-11-10,1,,,,,メッツアソーラー,0
45,1010901014518,新規,0,2023-11-10,2023-11-10,アルバ株式会社,,株式会社,東京都,世田谷区,赤堤１丁目３５番２２号,,13,112,1560044,,,,,,,2023-11-10,1,,,,,アルバ,0
48,1010903008575,新規,0,2023-11-10,2023-11-10,合同会社ｓｅｒｅｎａｃｒｅｓｔ,,合同会社,東京都,世田谷区,北沢２丁目２１番７号,,13,112,1550031,,,,,,,2023-11-10,1,,,,,セレナクレスト,0
52,1011005010263,新規,0,2023-11-10,2023-11-10,一般社団法人ノーコード推進協会,,その他の設立登記法人,東京都,渋谷区,広尾１丁目１－３９恵比寿プライムスクエアタワー１９階（アステリア内）,,13,113,1500012,,,,,,,2023-11-10,1,,,,,ノーコードスイシンキョウカイ,0
58,1011301029156,新規,0,2023-11-10,2023-11-10,株式会社ＧＥＡＬ,,株式会社,東京都,杉並区,下井草２丁目３５番７号,,13,115,1670022,,,,,,,2023-11-10,1,,,,,ジール,0
59,1011301029164,新規,0,2023-11-10,2023-11-10,株式会社Ｉｎｔｅｇｒｉｔｙ,,株式会社,東京都,杉並区,高円寺南５丁目１０番１３号,,13,115,1660003,,,,,,,2023-11-10,1,,,,,インテグリティ,0
60,1011303004958,新規,0,2023-11-10,2023-11-10,合同会社ホールアンドコーヒー,,合同会社,東京都,杉並区,上荻４丁目３０番３－９０１号,,13,115,1670043,,,,,,,2023-11-10,1,,,,,ホールアンドコーヒー,0
62,1011401025600,新規,0,2023-11-10,2023-11-10,鴻城株式会社,,株式会社,東京都,板橋区,赤塚３丁目２１－８－１０３,,13,119,1750092,,,,,,,2023-11-10,1,,,,,コウジョウ,0
63,1011503005839,新規,0,2023-11-10,2023-11-10,合同会社Ｙａｍａｍｏｔｏ,,合同会社,東京都,荒川区,町屋１丁目１７番１０－２０２号,,13,118,1160001,,,,,,,2023-11-10,1,,,,,ヤマモト,0
65,1011601027256,新規,0,2023-11-10,2023-11-10,株式会社茶柱日和,,株式会社,東京都,練馬区,谷原５丁目５番８号ローンヒルズヤハラ２１２号室,,13,120,1770032,,,,,,,2023-11-10,1,,,,,チャバシラビヨリ,0
69,1011701026736,新規,0,2023-11-10,2023-11-10,株式会社ＶＩＶＡＮＴ,,株式会社,東京都,江戸川区,北篠崎１丁目５番８号キャナルシティ１０５,,13,123,1330053,,,,,,,2023-11-10,1,,,,,ヴィヴァン,0
70,1011701026752,新規,0,2023-11-10,2023-11-10,株式会社Ｇｏｏｄ　Ｓｍｉｌｅ,,株式会社,東京都,江戸川区,東葛西２丁目３番１８号芝ビル２０２,,13,123,1340084,,,,,,,2023-11-10,1,,,,,グッドスマイル,0
90,1020001154420,新規,0,2023-11-10,2023-11-10,株式会社レボルッカ,,株式会社,神奈川県,横浜市戸塚区,品濃町５６２番１０,,14,110,2440801,,,,,,,2023-11-10,1,,,,,レボルッカ,0
100,1021001080706,新規,0,2023-11-10,2023-11-10,丸秀株式会社,,株式会社,神奈川県,座間市,相模が丘３丁目５１番１０号,,14,216,2520001,,,,,,,2023-11-10,1,,,,,マルシュウ,0
116,1030001157100,新規,0,2023-11-10,2023-11-10,ＨＦ　ＴＲＡＤＩＮＧ株式会社,,株式会社,埼玉県,羽生市,東７丁目１０番地１コーポ千尋１０１号室,,11,216,3480052,,,,,,,2023-11-10,1,,,,,エイチエフトレーディング,0
125,1030003022970,新規,0,2023-11-10,2023-11-10,安泰合同会社,,合同会社,埼玉県,越谷市,赤山町１丁目１８８番地ドレミファ荘１０２号室,,11,222,3430807,,,,,,,2023-11-10,1,,,,,アンタイ,0
131,1040001130857,新規,0,2023-11-10,2023-11-10,株式会社リン,,株式会社,千葉県,千葉市美浜区,真砂２丁目１２番９号,,12,106,2610011,,,,,,,2023-11-10,1,,,,,リン,0
132,1040001130873,新規,0,2023-11-10,2023-11-10,株式会社ＴＡＮＥＧＡＳＩＭＡ,,株式会社,千葉県,流山市,東初石１丁目１３２番地の３,,12,220,2700114,,,,,,,2023-11-10,1,,,,,タネガシマ,0
140,1040003023720,新規,0,2023-11-10,2023-11-10,合同会社竹,,合同会社,千葉県,流山市,平和台３丁目４番地２７号,,12,220,2700157,,,,,,,2023-11-10,1,,,,,タケ,0
141,1040005022191,新規,0,2023-11-10,2023-11-10,特定非営利活動法人塗魂ペインターズ,,その他の設立登記法人,千葉県,柏市,青葉台１丁目２８番２２号,,12,217,2770055,,,,,,,2023-11-10,1,,,,,トウコンペインターズ,0
144,1060003004801,新規,0,2023-11-10,2023-11-10,合同会社小太刀,,合同会社,栃木県,鹿沼市,府所町４８番地２３,,09,205,3220033,,,,,,,2023-11-10,1,,,,,コダチ,0
145,1070003005162,新規,0,2023-11-10,2023-11-10,合同会社ＫＡＳＡＫ,,合同会社,群馬県,伊勢崎市,田中島町１４６１番地１,,10,204,3720802,,,,,,,2023-11-10,1,,,,,カサック,0
150,1080001025970,新規,0,2023-11-10,2023-11-10,株式会社ｃｈｉｍ,,株式会社,静岡県,静岡市葵区,牧ケ谷２３００番地の２,,22,101,4211221,,,,,,,2023-11-10,1,,,,,チム,0
188,1120001259358,新規,0,2023-11-10,2023-11-10,福海佳木株式会社,,株式会社,大阪府,大阪市此花区,春日出中１丁目９－１３－３０３室,,27,104,5540022,,,,,,,2023-11-10,1,,,,,フクカイヨシキ,0
189,1120001259671,新規,0,2023-11-10,2023-11-10,株式会社九尾狐,,株式会社,大阪府,大阪市西区,江戸堀２丁目１番１号江戸堀センタービル９階,,27,106,5500002,,,,,,,2023-11-10,1,,,,,クミホ,0
190,1120001259688,新規,0,2023-11-10,2023-11-10,東拓株式会社,,株式会社,大阪府,大阪市北区,同心２丁目１１番１－６０１号,,27,127,5300035,,,,,,,2023-11-10,1,,,,,ヒガシタク,0
191,1120001259696,新規,0,2023-11-10,2023-11-10,Ｂａｎａｎａｒｏｏｍ株式会社,,株式会社,大阪府,大阪市淀川区,西中島７丁目１－３チサンマンション第８新大阪５０９号室,,27,123,5320011,,,,,,,2023-11-10,1,,,,,バナナルーム,0
192,1120001259705,新規,0,2023-11-10,2023-11-10,株式会社ｔｒｕｓｔ　Ｅｓｔａｔｅ,,株式会社,大阪府,大阪市淀川区,西中島７丁目１２番５号日宝北２号館１０５,,27,123,5320011,,,,,,,2023-11-10,1,,,,,トラストエステート,0
195,1120003025312,新規,0,2023-11-10,2023-11-10,ティープライス合同会社,,合同会社,大阪府,大阪市西区,江之子島１丁目６番５号,,27,106,5500006,,,,,,,2023-11-10,1,,,,,ティープライス,0
210,1140001132199,新規,0,2023-11-10,2023-11-10,株式会社Ｆ‐ＢＡＳＥ,,株式会社,兵庫県,神戸市兵庫区,福原町１１番１６号豊村ビル３階,,28,105,6520036,,,,,,,2023-11-10,1,,,,,エフベース,0
211,1140001132240,新規,0,2023-11-10,2023-11-10,株式会社ステキな画と音,,株式会社,兵庫県,西宮市,市庭町１－２７,,28,204,6620975,,,,,,,2023-11-10,1,,,,,ステキナエトオト,0
212,1140001132281,新規,0,2023-11-10,2023-11-10,株式会社ヒロエンタープライズ,,株式会社,兵庫県,尼崎市,名神町１丁目３番５号,,28,202,6610021,,,,,,,2023-11-10,1,,,,,ヒロエンタープライズ,0
213,1140001132298,新規,0,2023-11-10,2023-11-10,株式会社ラウンドラクーン,,株式会社,兵庫県,芦屋市,朝日ケ丘町２８番２３号,,28,206,6590012,,,,,,,2023-11-10,1,,,,,ラウンドラクーン,0
215,1140003019782,新規,0,2023-11-10,2023-11-10,合同会社ＫｏｓＬｏｎｇ,,合同会社,兵庫県,神戸市垂水区,大町３丁目５－１３リッツハイツ大町１０２号,,28,108,6550014,,,,,,,2023-11-10,1,,,,,コスロング,0
216,1140003019799,新規,0,2023-11-10,2023-11-10,合同会社Ｂｌａｃｋ　Ｃｏｎｖｏｙ,,合同会社,兵庫県,姫路市,田寺東４丁目２６番３号,,28,201,6700081,,,,,,,2023-11-10,1,,,,,ブラックコンボイ,0
218,1160003003033,新規,0,2023-11-10,2023-11-10,合同会社ＺＥＰＨＹＲ００１５,,合同会社,滋賀県,草津市,平井５丁目６番１０号,,25,206,5250023,,,,,,,2023-11-10,1,,,,,ゼファーゼロゼロイチゴ,0
224,1180001158876,新規,0,2023-11-10,2023-11-10,株式会社Ｄｉａｍｏｎｄ　Ｓｔａｇｅ,,株式会社,愛知県,名古屋市中区,栄５丁目２６番３６号ＧＳ栄ＩＩ１Ｆ,00132602,23,106,4600008,,,,,,,2023-11-10,1,,,,,ダイヤモンドステージ,0
225,1180003025967,新規,0,2023-11-10,2023-11-10,合同会社ＯＮＥ　ＮＡＴＩＯＮ,,合同会社,愛知県,名古屋市中村区,横前町１３６,,23,105,4530864,,,,,,,2023-11-10,1,,,,,ワンネーション,0
226,1180005020405,新規,0,2023-11-10,2023-11-10,特定非営利活動法人ＩＫＵＳＥＩ　ＦＩＲＳＴ,,その他の設立登記法人,愛知県,尾張旭市,吉岡町３丁目１０番地２１ナビタウン吉岡町Ｉ―１０２,00132599,23,226,4880827,,,,,,,2023-11-10,1,,,,,イクセイファースト,0
228,1180301038002,新規,0,2023-11-10,2023-11-10,勁好株式会社,,株式会社,愛知県,みよし市,三好町中鯰ヶ池８８－１,,23,236,4700224,,,,,,,2023-11-10,1,,,,,ケイコウ,0
229,1190001030877,新規,0,2023-11-10,2023-11-10,株式会社ウェルテック,,株式会社,三重県,津市,芸濃町椋本２６８５－９,,24,201,5142211,,,,,,,2023-11-10,1,,,,,ウェルテック,0
235,1220001025683,新規,0,2023-11-10,2023-11-10,株式会社ＲＩＣＨ,,株式会社,石川県,能美市,旭台２丁目１３番地いしかわクリエイトラボ２０７号室,,17,211,9231211,,,,,,,2023-11-10,1,,,,,リッチ,0
261,1290001103722,新規,0,2023-11-10,2023-11-10,ＳＤ’ｓ株式会社,,株式会社,福岡県,春日市,松ヶ丘４丁目３番地,,40,218,8160843,,,,,,,2023-11-10,1,,,,,エスディーズ,0
266,1310001018703,新規,0,2023-11-10,2023-11-10,株式会社一輝,,株式会社,長崎県,佐世保市,大宮町２８－２９,,42,202,8570841,,,,,,,2023-11-10,1,,,,,イッキ,0
270,1330001031456,新規,0,2023-11-10,2023-11-10,日本経営支援株式会社,,株式会社,熊本県,熊本市東区,尾ノ上１丁目８番２７号,,43,102,8620913,,,,,,,2023-11-10,1,,,,,ニホンケイエイシエン,0
272,1340001026075,新規,0,2023-11-10,2023-11-10,株式会社ｍ．ｓ．ｒ,,株式会社,鹿児島県,指宿市,岩本５５６番地１,,46,210,8910315,,,,,,,2023-11-10,1,,,,,エムエスアール,0
277,1360001032798,新規,0,2023-11-10,2023-11-10,株式会社ＰＬＡＣＥ．,,株式会社,沖縄県,中頭郡北中城村,字屋宜原７３４番地８コーポうら３０２,,47,327,9012304,,,,,,,2023-11-10,1,,,,,プレイス,0
297,1430001090335,新規,0,2023-11-10,2023-11-10,ｆｕｎ‐ｐｌｕｓホールディングス株式会社,,株式会社,北海道,札幌市中央区,北二条西１８丁目１番地５,,01,101,0600002,,,,,,,2023-11-10,1,,,,,ファンプラスホールディングス,0
298,1430001090351,新規,0,2023-11-10,2023-11-10,株式会社ライブリースクエア,,株式会社,北海道,札幌市豊平区,月寒西一条１０丁目５番５－６０３号,,01,105,0620021,,,,,,,2023-11-10,1,,,,,ライブリースクエア,0
299,1430003015612,新規,0,2023-11-10,2023-11-10,合同会社おおぞら,,合同会社,北海道,苫小牧市,新中野町２丁目９番１６号中野アパート,,01,213,0530006,,,,,,,2023-11-10,1,,,,,オオゾラ,0
310,2010001239923,新規,0,2023-11-10,2023-11-10,株式会社フェイクファー,,株式会社,東京都,千代田区,神田和泉町１番地６－１６ヤマトビル４０５,,13,101,1010024,,,,,,,2023-11-10,1,,,,,フェイクファー,0
316,2010003042128,新規,0,2023-11-10,2023-11-10,ｅｌｉｔｅ　ｔｅｃｈ合同会社,,合同会社,東京都,中央区,晴海３丁目１３番１－４４２２号,,13,102,1040053,,,,,,,2023-11-10,1,,,,,エリートテック,0
318,2010005037489,新規,0,2023-11-10,2023-11-10,一般社団法人しらゆり,,その他の設立登記法人,東京都,千代田区,丸の内３丁目１番１号東京共同会計事務所内,,13,101,1000005,,,,,,,2023-11-10,1,,,,,シラユリ,0
334,2010401178044,新規,0,2023-11-10,2023-11-10,富達株式会社,,株式会社,東京都,港区,新橋５丁目１６番１号,,13,103,1050004,,,,,,,2023-11-10,1,,,,,トミタツ,0
335,2010401178300,新規,0,2023-11-10,2023-11-10,株式会社Ｈ＆Ｆ　Ｉｎｖｅｓｔｍｅｎｔ,,株式会社,東京都,港区,白金６丁目１６番２５－１５０８号,,13,103,1080072,,,,,,,2023-11-10,1,,,,,アイチアンドエフインベストメント,0
336,2010401178416,新規,0,2023-11-10,2023-11-10,ＩＭＰＥＲＩＡＬ　ＴＲＥＡＳＵＲＥ　ＪＡＰＡＮ株式会社,,株式会社,東京都,港区,元麻布３丁目１番６号,,13,103,1060046,,,,,,,2023-11-10,1,,,,,インペリアルトレジャージャパン,0
337,2010401178432,新規,0,2023-11-10,2023-11-10,株式会社雷,,株式会社,東京都,港区,西麻布２丁目１８番１３号,,13,103,1060031,,,,,,,2023-11-10,1,,,,,カミナリ,0
338,2010401178465,新規,0,2023-11-10,2023-11-10,株式会社ＴＯＵ,,株式会社,東京都,港区,芝浦２丁目１６番７号中野第三ビル４Ｆ,,13,103,1080023,,,,,,,2023-11-10,1,,,,,トウ,0
341,2010403031309,新規,0,2023-11-10,2023-11-10,Ｍａｘ　Ｓｏｌｕｔｉｏｎｓ合同会社,,合同会社,東京都,港区,浜松町２丁目２番１５号浜松町ダイヤビル２Ｆ,,13,103,1050013,,,,,,,2023-11-10,1,,,,,マックスソリューションズ,0
349,2010601064085,新規,0,2023-11-10,2023-11-10,ＮＥＲＯ　Ｅ　ＡＺＺＵＲＲＯ株式会社,,株式会社,東京都,江東区,深川１丁目１０番６－９０３号,,13,108,1350033,,,,,,,2023-11-10,1,,,,,ネロエアズーロ,0
357,2010703006943,新規,0,2023-11-10,2023-11-10,合同会社ＴＯＰ　ＣＯＮＳＵＬＴＩＮＧ,,合同会社,東京都,品川区,八潮５丁目１０－５２－５０３,,13,109,1400003,,,,,,,2023-11-10,1,,,,,トップコンサルティング,0
358,2010705003559,新規,0,2023-11-10,2023-11-10,藤原行政書士法人,,その他の設立登記法人,東京都,品川区,大崎３丁目５－２エステージ大崎ビル６階,,13,109,1410032,,,,,,,2023-11-10,1,,,,,,0
366,2011001157990,新規,0,2023-11-10,2023-11-10,株式会社Ｓｉｄｅ．ｍｔ,,株式会社,東京都,渋谷区,東１丁目２６番３０号,,13,113,1500011,,,,,,,2023-11-10,1,,,,,サイドマウント,0
367,2011001158072,新規,0,2023-11-10,2023-11-10,株式会社コアストーリー,,株式会社,東京都,渋谷区,道玄坂１丁目１０番８号渋谷道玄坂東急ビル２Ｆ－Ｃ,,13,113,1500043,,,,,,,2023-11-10,1,,,,,コアストーリー,0
368,2011001158089,新規,0,2023-11-10,2023-11-10,株式会社ＨＳ　Ｊａｐａｎ,,株式会社,東京都,渋谷区,神宮前６丁目２３番４号桑野ビル２階,,13,113,1500001,,,,,,,2023-11-10,1,,,,,エイチエスジャパン,0
369,2011001158114,新規,0,2023-11-10,2023-11-10,ＡＤＤＩＸＹ株式会社,,株式会社,東京都,渋谷区,代官山町２０番２３号,,13,113,1500034,,,,,,,2023-11-10,1,,,,,アディクシィ,0
370,2011003017912,新規,0,2023-11-10,2023-11-10,ＴＥＣＨ　ＷＯＲＫ　ＳＴＵＤＩＯ合同会社,,合同会社,東京都,渋谷区,道玄坂１丁目１０番８号渋谷道玄坂東急ビル２Ｆ－Ｃ,,13,113,1500043,,,,,,,2023-11-10,1,,,,,テックワークスタジオ,0
377,2011103013729,新規,0,2023-11-10,2023-11-10,合同会社Ｇｒｏｗ　Ｕｐ,,合同会社,東京都,新宿区,歌舞伎町２丁目１０番１号石黒商事ビル３階,,13,104,1600021,,,,,,,2023-11-10,1,,,,,グローアップ,0
379,2011301029163,新規,0,2023-11-10,2023-11-10,株式会社Ｕｎｉｔａｓ,,株式会社,東京都,杉並区,阿佐谷南１丁目１４番地５号第一栄ビル３階,,13,115,1660004,,,,,,,2023-11-10,1,,,,,ユニタス,0
381,2011503005838,新規,0,2023-11-10,2023-11-10,合同会社ラグドール,,合同会社,東京都,北区,田端新町１丁目２７番１３号アドバンスクレール田端新町５０１,,13,117,1140012,,,,,,,2023-11-10,1,,,,,ラグドール,0
382,2011601027255,新規,0,2023-11-10,2023-11-10,日本サイクン株式会社,,株式会社,東京都,練馬区,大泉町１丁目２８番５１号,,13,120,1780062,,,,,,,2023-11-10,1,,,,,ニホンサイクン,0
384,2011701026735,新規,0,2023-11-10,2023-11-10,Ｚ＆Ｗ株式会社,,株式会社,東京都,江戸川区,平井３丁目１２番７号１Ｆ,,13,123,1320035,,,,,,,2023-11-10,1,,,,,ゼットアンドダブリュー,0
386,2011801043333,新規,0,2023-11-10,2023-11-10,株式会社琴屋商事,,株式会社,東京都,足立区,本木東町１０番９号,,13,121,1230854,,,,,,,2023-11-10,1,,,,,コトヤショウジ,0
387,2011803005918,新規,0,2023-11-10,2023-11-10,合同会社Ｖｏｙａｇｅｒ,,合同会社,東京都,足立区,入谷４丁目１９―１０,,13,121,1210836,,,,,,,2023-11-10,1,,,,,ボイジャー,0
402,2012803003234,新規,0,2023-11-10,2023-11-10,合同会社はにわ不動産,,合同会社,東京都,立川市,錦町１丁目１１番９号アンジェリークＭ４０１号室,,13,202,1900022,,,,,,,2023-11-10,1,,,,,ハニワフドウサン,0
406,2013303006875,新規,0,2023-11-10,2023-11-10,合同会社ヒラオカ,,合同会社,東京都,豊島区,池袋本町２丁目４番３号１０１,,13,116,1700011,,,,,,,2023-11-10,1,,,,,ヒラオカ,0
407,2013305003540,新規,0,2023-11-10,2023-11-10,税理士法人松本川口パートナーズ,,その他の設立登記法人,東京都,豊島区,南池袋１丁目１６番１５号ダイヤゲート池袋５階,,13,116,1710022,,,,,,,2023-11-10,1,,,,,マツモトカワグチパートナーズ,0
414,2020001154320,新規,0,2023-11-10,2023-11-10,ＩＥＳＩＥ株式会社,,株式会社,神奈川県,横浜市南区,大岡３丁目１１番１７－２号,,14,105,2320061,,,,,,,2023-11-10,1,,,,,イエシエ,0
415,2020001154428,新規,0,2023-11-10,2023-11-10,Ｓｏ　Ｂｅａｕｔｙ株式会社,,株式会社,神奈川県,横浜市港南区,日限山１丁目４番７号,,14,111,2330015,,,,,,,2023-11-10,1,,,,,ソービューティー,0
417,2020003024967,新規,0,2023-11-10,2023-11-10,ＧＳＦ合同会社,,合同会社,神奈川県,横浜市青葉区,荏田町５０番地２プレディアあざみ野１０５号,,14,117,2250013,,,,,,,2023-11-10,1,,,,,ジーエスエフ,0
419,2021001004944,新規,0,2023-11-10,2023-11-10,三伸建設株式会社,,株式会社,神奈川県,藤沢市,大鋸２丁目４番１９号,,14,205,2510002,,,,,,,2023-11-10,1,,,,,サンシンケンセツ,0
422,2021001080705,新規,0,2023-11-10,2023-11-10,株式会社Ｇｒａｃｅｆｕｌ,,株式会社,神奈川県,相模原市緑区,二本松４丁目２６番９号,,14,151,2520137,,,,,,,2023-11-10,1,,,,,グレイスフル,0
433,2030001157017,新規,0,2023-11-10,2023-11-10,株式会社Ｎｅｗ　Ｒｅｓｈ,,株式会社,埼玉県,坂戸市,三光町３番２７号ホワイトハウス１０１号室,,11,239,3500235,,,,,,,2023-11-10,1,,,,,ニューレッシュ,0
434,2030001157090,新規,0,2023-11-10,2023-11-10,株式会社秀蘭,,株式会社,埼玉県,鴻巣市,榎戸５１６番地７,,11,217,3690123,,,,,,,2023-11-10,1,,,,,シュウラン,0
440,2030003022879,新規,0,2023-11-10,2023-11-10,合同会社Ｄｏ　ｉｔ,,合同会社,埼玉県,さいたま市緑区,太田窪３丁目４番地６－２０１,,11,109,3360936,,,,,,,2023-11-10,1,,,,,ドゥーイット,0
442,2030005021466,新規,0,2023-11-10,2023-11-10,医療法人ＭＯＣ,,その他の設立登記法人,埼玉県,越谷市,千間台西３丁目２番地１２イオンスタイルせんげん台２階,,11,222,3430041,,,,,,,2023-11-10,1,,,,,エムオーシー,0
446,2040001130864,新規,0,2023-11-10,2023-11-10,株式会社六花サービス,,株式会社,千葉県,船橋市,高野台５丁目１９番２３号,,12,204,2740801,,,,,,,2023-11-10,1,,,,,リッカサービス,0
447,2040001130872,新規,0,2023-11-10,2023-11-10,株式会社Ｐｉｎｎａｃｌｅ,,株式会社,千葉県,東金市,福俵５１０－２福俵倉庫１－１０２号室,,12,213,2830812,,,,,,,2023-11-10,1,,,,,ピナクル,0
448,2040001130880,新規,0,2023-11-10,2023-11-10,株式会社湊,,株式会社,千葉県,市川市,柏井町３丁目６１２番地７,,12,203,2720802,,,,,,,2023-11-10,1,,,,,ミナト,0
454,2040003023728,新規,0,2023-11-10,2023-11-10,ＩＮ合同会社,,合同会社,千葉県,浦安市,富岡３丁目３番－Ｂ棟６０６号,,12,227,2790021,,,,,,,2023-11-10,1,,,,,アイエヌ,0
462,2050003007928,新規,0,2023-11-10,2023-11-10,ＭＵＧＨＡＬ　ＴＲＡＤＩＮＧ合同会社,,合同会社,茨城県,坂東市,幸田１９１６番地１－１０２,,08,228,3060606,,,,,,,2023-11-10,1,,,,,ムガルトレーディング,0
487,2120001259621,新規,0,2023-11-10,2023-11-10,株式会社Ｒｏｏｔｓ,,株式会社,大阪府,大阪市城東区,関目４丁目１番５号,,27,118,5360008,,,,,,,2023-11-10,1,,,,,ルーツ,0
488,2120001259704,新規,0,2023-11-10,2023-11-10,株式会社ｋｎｏｗｌｅｄｇｅ　Ａｃｔ,,株式会社,大阪府,大阪市中央区,谷町２丁目３番１号第２ターネンビルディング５Ｆ,,27,128,5400012,,,,,,,2023-11-10,1,,,,,ナレッジアクト,0
489,2120001259720,新規,0,2023-11-10,2023-11-10,ＫＥＩＡＩ　Ｘ株式会社,,株式会社,大阪府,大阪市西成区,千本中１丁目９番１７号,,27,122,5570054,,,,,,,2023-11-10,1,,,,,ケイアイエックス,0
490,2120001259753,新規,0,2023-11-10,2023-11-10,株式会社ＩＮ‐Ｂ,,株式会社,大阪府,大阪市北区,梅田１丁目２番２号大阪駅前第２ビル１２－１２,,27,127,5300001,,,,,,,2023-11-10,1,,,,,インビー,0
493,2120101068518,新規,0,2023-11-10,2023-11-10,株式会社ＨＯＰＥ,,株式会社,大阪府,松原市,別所８丁目１番７－２０３号,,27,217,5800005,,,,,,,2023-11-10,1,,,,,ホープ,0
494,2120901048280,新規,0,2023-11-10,2023-11-10,サンリバービジネスサービス株式会社,,株式会社,大阪府,吹田市,広芝町１０番８号,,27,205,5640052,,,,,,,2023-11-10,1,,,,,サンリバービジネスサービス,0
502,2130001075662,新規,0,2023-11-10,2023-11-10,株式会社オフィサブ,,株式会社,京都府,城陽市,寺田深谷６４番地の１４８,,26,207,6100121,,,,,,,2023-11-10,1,,,,,オフィサブ,0
503,2130001075712,新規,0,2023-11-10,2023-11-10,盛源株式会社,,株式会社,京都府,京都市左京区,田中樋ノ口町５番地２０６,,26,103,6068222,,,,,,,2023-11-10,1,,,,,セイゲン,0
505,2130005016927,新規,0,2023-11-10,2023-11-10,清友税理士法人,,その他の設立登記法人,京都府,京都市上京区,今出川通小川西入飛鳥井町２６８番地,,26,102,6020054,,,,,,,2023-11-10,1,,,,,セイユウ,0
510,2140001132256,新規,0,2023-11-10,2023-11-10,トップキンメタル株式会社,,株式会社,兵庫県,姫路市,飾東町唐端新８８番地１,,28,201,6710214,,,,,,,2023-11-10,1,,,,,トップキンメタル,0
511,2140001132264,新規,0,2023-11-10,2023-11-10,株式会社ＨＫサービス,,株式会社,兵庫県,加西市,小印南町７３,,28,220,6752403,,,,,,,2023-11-10,1,,,,,エイチケイサービス,0
512,2140001132280,新規,0,2023-11-10,2023-11-10,株式会社Ｌａ　ｎａｔｕｒａ,,株式会社,兵庫県,神戸市中央区,御幸通６丁目１番２０号ＧＥＥＴＥＸ・ＡＳＣＥＮＴ・ＢＬＤＧ４０２,,28,110,6510087,,,,,,,2023-11-10,1,,,,,ラナチュラ,0
515,2150001026878,新規,0,2023-11-10,2023-11-10,株式会社ＥＭＯＴＩＯＮ,,株式会社,奈良県,大和高田市,蔵之宮町６番１７号,,29,202,6350044,,,,,,,2023-11-10,1,,,,,エモーション,0
531,2190001030876,新規,0,2023-11-10,2023-11-10,株式会社わかば事務所,,株式会社,三重県,四日市市,川島町１６８４番地４,,24,202,5120934,,,,,,,2023-11-10,1,,,,,ワカバジムショ,0
532,2190003004498,新規,0,2023-11-10,2023-11-10,ＡＭＨ合同会社,,合同会社,三重県,四日市市,西富田町１７２,,24,202,5108024,,,,,,,2023-11-10,1,,,,,エイエムエイチ,0
549,2250003003378,新規,0,2023-11-10,2023-11-10,合同会社加来工務店,,合同会社,山口県,山口市,黒川９３５－２宮田ミートハウス１０６号,,35,203,7530851,,,,,,,2023-11-10,1,,,,,カクコウムテン,0
552,2280001009069,新規,0,2023-11-10,2023-11-10,ｓ．ｇｒａｃｅ株式会社,,株式会社,島根県,鹿足郡吉賀町,六日市９６５番地３,,32,505,6995513,,,,,,,2023-11-10,1,,,,,エスグレイス,0
557,2290001103688,新規,0,2023-11-10,2023-11-10,株式会社ＲＯＬ,,株式会社,福岡県,大野城市,南ケ丘３丁目１７番２５号,,40,219,8160964,,,,,,,2023-11-10,1,,,,,ロール,0
561,2290003014594,新規,0,2023-11-10,2023-11-10,合同会社Ｌｕ‐ＰＥ,,合同会社,福岡県,大牟田市,大字三池３４２番地１,,40,202,8370921,,,,,,,2023-11-10,1,,,,,ループ,0
562,2290003014603,新規,0,2023-11-10,2023-11-10,合同会社ライフプリント,,合同会社,福岡県,福岡市城南区,樋井川１丁目１３番１８号,,40,136,8140153,,,,,,,2023-11-10,1,,,,,,0
566,2320001020137,新規,0,2023-11-10,2023-11-10,株式会社ｃｌａｓｓｉｃ　Ｒｅ,,株式会社,大分県,大分市,大字中戸次５１９５番地の８グレイスいたいＩ－２１,,44,201,8797761,,,,,,,2023-11-10,1,,,,,クラシックリフォーム,0
569,2330001031463,新規,0,2023-11-10,2023-11-10,株式会社ＳＭＪ,,株式会社,熊本県,上益城郡御船町,大字滝尾６５２３番地４３,,43,441,8613208,,,,,,,2023-11-10,1,,,,,エスエムジェイ,0
588,2380001034115,新規,0,2023-11-10,2023-11-10,株式会社ヤマテック,,株式会社,福島県,いわき市,常磐西郷町金山１５５番地の２,,07,204,9728316,,,,,,,2023-11-10,1,,,,,ヤマテック,0
594,2430001090359,新規,0,2023-11-10,2023-11-10,ＡＢＡＳ　ＴＲＡＤＩＮＧ株式会社,,株式会社,北海道,苫小牧市,字沼ノ端２５５番地２２,,01,213,0591364,,,,,,,2023-11-10,1,,,,,アバストレーディング,0
595,2430001090417,新規,0,2023-11-10,2023-11-10,サンテック株式会社,,株式会社,北海道,札幌市白石区,菊水元町一条５丁目１番２号,,01,104,0030821,,,,,,,2023-11-10,1,,,,,サンテック,0
604,2490001010633,新規,0,2023-11-10,2023-11-10,株式会社Ｎ．Ｈ．,,株式会社,高知県,南国市,大＿乙１８５１番地１,00132604,39,204,7830005,,,,,,,2023-11-10,1,,,,,エヌエイチ,0
616,3010001239947,新規,0,2023-11-10,2023-11-10,ＪＰＡ第３０７号株式会社,,株式会社,東京都,千代田区,霞が関３丁目２番１号,,13,101,1000013,,,,,,,2023-11-10,1,,,,,ジェイピーエーダイサンビャクナナゴウ,0
617,3010001239963,新規,0,2023-11-10,2023-11-10,Ｄｓｍａｒｔ株式会社,,株式会社,東京都,千代田区,麹町４丁目５番２０号ＫＳビル,,13,101,1020083,,,,,,,2023-11-10,1,,,,,ディースマート,0
620,3010003042110,新規,0,2023-11-10,2023-11-10,合同会社ＢｌｕｅＳｅｅｄ．,,合同会社,東京都,中央区,銀座１丁目２２番１１号,,13,102,1040061,,,,,,,2023-11-10,1,,,,,ブルーシードット,0
621,3010003042184,新規,0,2023-11-10,2023-11-10,Ｗａｔｅｒｄｒｏｐ　Ｊａｐａｎ合同会社,,合同会社,東京都,千代田区,麹町４丁目５－２０ＫＳビル４Ｆ,,13,101,1020083,,,,,,,2023-11-10,1,,,,,ウォータードロップジャパン,0
632,3010401178415,新規,0,2023-11-10,2023-11-10,Ｋｏｎｔｏｓ株式会社,,株式会社,東京都,港区,三田３丁目２番１－５１０号弓和三田ビジデンス,,13,103,1080073,,,,,,,2023-11-10,1,,,,,コントス,0
633,3010401178472,新規,0,2023-11-10,2023-11-10,株式会社ＦＩＧＮＩＳ,,株式会社,東京都,港区,港南２丁目１５番１号品川インターシティＡ棟２８階,,13,103,1080075,,,,,,,2023-11-10,1,,,,,フィグニス,0
636,3010403031332,新規,0,2023-11-10,2023-11-10,合同会社ＫＰＬＯＶＥ,,合同会社,東京都,港区,西麻布２丁目２番２－１０２号,,13,103,1060031,,,,,,,2023-11-10,1,,,,,ケーピーラブ,0
637,3010405022635,新規,0,2023-11-10,2023-11-10,一般財団法人木村潤記念財団,,その他の設立登記法人,東京都,港区,南青山２丁目２番１５号,,13,103,1070062,,,,,,,2023-11-10,1,,,,,キムラジュンキネンザイダン,0
638,3010405022651,新規,0,2023-11-10,2023-11-10,弁理士法人匠,,その他の設立登記法人,東京都,港区,虎ノ門１丁目１７番１号虎ノ門ヒルズビジネスタワー１５階,,13,103,1050001,,,,,,,2023-11-10,1,,,,,タクミ,0
643,3010503007190,新規,0,2023-11-10,2023-11-10,１０ｏｕｔ　ｏｆ１０合同会社,,合同会社,東京都,台東区,根岸１丁目１番３２―１２０１号ルフォン上野公園ザ・レジデンス,,13,106,1100003,,,,,,,2023-11-10,1,,,,,テンアウトオブテン,0
647,3010601064126,新規,0,2023-11-10,2023-11-10,株式会社セカンド,,株式会社,東京都,墨田区,亀沢１丁目２０－８－２階,,13,107,1300014,,,,,,,2023-11-10,1,,,,,セカンド,0
658,3010901054140,新規,0,2023-11-10,2023-11-10,株式会社生活クラブすまい・る,,株式会社,東京都,世田谷区,赤堤４丁目１番６号生活クラブ赤堤館２Ｆ,,13,112,1560044,,,,,,,2023-11-10,1,,,,,セイカツクラブスマイル,0
659,3010901054165,新規,0,2023-11-10,2023-11-10,株式会社ＦｉｎｏＳｉｇｈｔ　ａｎａｌｙｔｉｃｓ,,株式会社,東京都,世田谷区,代沢４丁目４０番１０号Ｅ,,13,112,1550032,,,,,,,2023-11-10,1,,,,,フィノサイトアナリティクス,0
668,3011001158088,新規,0,2023-11-10,2023-11-10,株式会社Ｏｎｌｙ,,株式会社,東京都,渋谷区,宇田川町２番１号渋谷ホームズ５０４号室,,13,113,1500042,,,,,,,2023-11-10,1,,,,,オンリー,0
669,3011001158204,新規,0,2023-11-10,2023-11-10,株式会社乙一,,株式会社,東京都,渋谷区,恵比寿１丁目２６番１６号,,13,113,1500013,,,,,,,2023-11-10,1,,,,,オトイチ,0
671,3011005010253,新規,0,2023-11-10,2023-11-10,一般社団法人Ｈｏｌｌｙｗｏｏｄ　ｎｕｔｒｉｔｉｏｎ,,その他の設立登記法人,東京都,渋谷区,代々木３丁目４６番１６号小野木ビル４０２,,13,113,1510053,,,,,,,2023-11-10,1,,,,,ハリウッドニュートリション,0
672,3011005010261,新規,0,2023-11-10,2023-11-10,一般社団法人ＴＯＫＩＨＡＤＡＬＡＢＯ,,その他の設立登記法人,東京都,渋谷区,神宮前２丁目３４番１０－２０６号,,13,113,1500001,,,,,,,2023-11-10,1,,,,,トウキハダラボ,0
677,3011101105072,新規,0,2023-11-10,2023-11-10,株式会社ＫＨＫコンサルティング,,株式会社,東京都,新宿区,新宿５丁目４番１号新宿Ｑフラットビル３０２号,,13,104,1600022,,,,,,,2023-11-10,1,,,,,ケイエイチケイコンサルティング,0
678,3011101105080,新規,0,2023-11-10,2023-11-10,株式会社ＩｚｕＬｉｎｋ,,株式会社,東京都,新宿区,西新宿５丁目８番２号惠徳ビル,,13,104,1600023,,,,,,,2023-11-10,1,,,,,イズリンク,0
682,3011301029162,新規,0,2023-11-10,2023-11-10,株式会社キアロスクロ,,株式会社,東京都,杉並区,大宮１丁目１４番７号Ｎ棟３０５号室,,13,115,1680061,,,,,,,2023-11-10,1,,,,,キアロスクロ,0
686,3011601027262,新規,0,2023-11-10,2023-11-10,株式会社ｎ,,株式会社,東京都,練馬区,東大泉２丁目１５－１０,,13,120,1780063,,,,,,,2023-11-10,1,,,,,ナノ,0
688,3011701026742,新規,0,2023-11-10,2023-11-10,株式会社Ｋ３,,株式会社,東京都,江戸川区,中葛西６丁目１２番１６号,,13,123,1340083,,,,,,,2023-11-10,1,,,,,ケースリー,0
691,3011801043340,新規,0,2023-11-10,2023-11-10,株式会社宮古,,株式会社,東京都,足立区,足立４丁目１３番３号ライオンズマンション梅島第五７０１号室,,13,121,1200015,,,,,,,2023-11-10,1,,,,,ミヤコ,0
694,3012403006264,新規,0,2023-11-10,2023-11-10,けいたい開運ショップ合同会社,,合同会社,東京都,三鷹市,上連雀６丁目３２－３５,,13,204,1810012,,,,,,,2023-11-10,1,,,,,ケイタイカイウンショップ,0
704,3013303006874,新規,0,2023-11-10,2023-11-10,推しシェリ合同会社,,合同会社,東京都,豊島区,南大塚１丁目６０番２０号天翔大塚駅前ビルＳ８１４号室,,13,116,1700005,,,,,,,2023-11-10,1,,,,,オシシェリ,0
708,3020001154402,新規,0,2023-11-10,2023-11-10,株式会社ＧＥＮＮＡＩ,,株式会社,神奈川県,横浜市西区,北幸１丁目１１番５号ＫＳビル９階,,14,103,2200004,,,,,,,2023-11-10,1,,,,,ゲンナイ,0
717,3021001080687,新規,0,2023-11-10,2023-11-10,ＨＡＹＡＭＡ　ＴＲＡＤＩＮＧ株式会社,,株式会社,神奈川県,愛甲郡愛川町,中津１２７０番地９－Ｂ,,14,401,2430303,,,,,,,2023-11-10,1,,,,,ハヤマトレーディング,0
718,3021001080695,新規,0,2023-11-10,2023-11-10,ＴＮＫ株式会社,,株式会社,神奈川県,小田原市,栄町３丁目１５番２０号,,14,206,2500011,,,,,,,2023-11-10,1,,,,,ティーエヌケイ,0
719,3021001080704,新規,0,2023-11-10,2023-11-10,株式会社季の華,,株式会社,神奈川県,鎌倉市,笛田６丁目２番１３号,,14,204,2480027,,,,,,,2023-11-10,1,,,,,キノカ,0
722,3021003013785,新規,0,2023-11-10,2023-11-10,合同会社てつじん,,合同会社,神奈川県,鎌倉市,鎌倉山２丁目２２－３５,,14,204,2480031,,,,,,,2023-11-10,1,,,,,テツジン,0
727,3030001157098,新規,0,2023-11-10,2023-11-10,株式会社グローバル総研,,株式会社,埼玉県,川口市,芝中田１丁目３９番９号ＲＯＮＤＯ－ＰＡＲＫビル２Ｆ,,11,203,3330847,,,,,,,2023-11-10,1,,,,,グローバルソウケン,0
731,3030003022911,新規,0,2023-11-10,2023-11-10,合同会社ヒマワリソリューションズ,,合同会社,埼玉県,熊谷市,新堀１２３０番地１４,,11,202,3600841,,,,,,,2023-11-10,1,,,,,ヒマワリソリューソンズ,0
732,3030003022969,新規,0,2023-11-10,2023-11-10,東景商事合同会社,,合同会社,埼玉県,入間市,大字仏子１４７１番地４０グリーンバレー２０３,,11,225,3580053,,,,,,,2023-11-10,1,,,,,トウケイショウジ,0
738,3040001130896,新規,0,2023-11-10,2023-11-10,株式会社Ｍ’Ｓ　ＯＮＥ,,株式会社,千葉県,茂原市,早野２９０３番地８,,12,210,2970037,,,,,,,2023-11-10,1,,,,,エムズワン,0
739,3040001130905,新規,0,2023-11-10,2023-11-10,ＪＨＣ株式会社,,株式会社,千葉県,千葉市稲毛区,宮野木町１０１２番地１３,,12,103,2630054,,,,,,,2023-11-10,1,,,,,ジェーエーチシー,0
744,3040003023693,新規,0,2023-11-10,2023-11-10,合同会社ＴＱＣエンジニアリング,,合同会社,千葉県,船橋市,金杉７丁目４３番９号,,12,204,2730853,,,,,,,2023-11-10,1,,,,,ティキューシーエンジニアリング,0
746,3050003007927,新規,0,2023-11-10,2023-11-10,Ｋ．Ｈ　ＴＲＡＤＩＮＧ合同会社,,合同会社,茨城県,結城市,大字小田林２４９７番地６７,,08,207,3070007,,,,,,,2023-11-10,1,,,,,ケーエイチトレーディング,0
754,3070001041059,新規,0,2023-11-10,2023-11-10,株式会社Ｗ‐ＷＡＬＬ,,株式会社,群馬県,高崎市,下小鳥町５７番地３,,10,202,3700074,,,,,,,2023-11-10,1,,,,,ダブルウォール,0
782,3120001259570,新規,0,2023-11-10,2023-11-10,株式会社Ｍａｎｄｙ,,株式会社,大阪府,大阪市生野区,林寺２丁目８番２号Ａ１０２号室,,27,116,5440023,,,,,,,2023-11-10,1,,,,,マンディ,0
783,3120001259612,新規,0,2023-11-10,2023-11-10,株式会社Ｗａｎｎａ　Ｂｅ,,株式会社,大阪府,大阪市北区,梅田１丁目２番２号大阪駅前第２ビル１２－１２,,27,127,5300001,,,,,,,2023-11-10,1,,,,,ワナビー,0
784,3120001259629,新規,0,2023-11-10,2023-11-10,株式会社ＣＡＮ,,株式会社,大阪府,大阪市中央区,南久宝寺町２丁目１番８号フォーリアライズ本町レクス８０４号,,27,128,5410058,,,,,,,2023-11-10,1,,,,,シーエーエヌ,0
785,3120001259653,新規,0,2023-11-10,2023-11-10,株式会社といろ,,株式会社,大阪府,大阪市中央区,南本町３丁目６番７号,,27,128,5410054,,,,,,,2023-11-10,1,,,,,トイロ,0
786,3120001259694,新規,0,2023-11-10,2023-11-10,株式会社ＪＥＳＳＩＣＡ,,株式会社,大阪府,大阪市浪速区,難波中２丁目６番１９号,,27,111,5560011,,,,,,,2023-11-10,1,,,,,ジェシカ,0
787,3120001259703,新規,0,2023-11-10,2023-11-10,株式会社ＭＩＹＡＢＩ,,株式会社,大阪府,大阪市西淀川区,姫島６丁目４番１６号,,27,113,5550033,,,,,,,2023-11-10,1,,,,,ミヤビ,0
788,3120001259744,新規,0,2023-11-10,2023-11-10,鉄建塗装工業株式会社,,株式会社,大阪府,大阪市北区,中津６丁目７番１３号うめきたザ・レジデンス６０２,,27,127,5310071,,,,,,,2023-11-10,1,,,,,テッケントソウコウギョウ,0
789,3120001259752,新規,0,2023-11-10,2023-11-10,株式会社ＲＡＮＫ　ＵＰ,,株式会社,大阪府,大阪市浪速区,元町３丁目３番４号２Ｆ,,27,111,5560016,,,,,,,2023-11-10,1,,,,,ランクアップ,0
790,3120001259793,新規,0,2023-11-10,2023-11-10,バッドカンパニー株式会社,,株式会社,大阪府,大阪市城東区,今福西２丁目１３番８号,,27,118,5360004,,,,,,,2023-11-10,1,,,,,バッドカンパニー,0
795,3120003025269,新規,0,2023-11-10,2023-11-10,ＧＺＩ合同会社,,合同会社,大阪府,大阪市北区,天神橋１丁目１１番７号（８０１）,,27,127,5300041,,,,,,,2023-11-10,1,,,,,ジーゼットアイ,0
796,3120003025310,新規,0,2023-11-10,2023-11-10,杭凌合同会社,,合同会社,大阪府,大阪市淀川区,西中島７丁目１番３－１１０８号,,27,123,5320011,,,,,,,2023-11-10,1,,,,,ハンリン,0
804,3130001075653,新規,0,2023-11-10,2023-11-10,株式会社ｍａｈｉｎａ,,株式会社,京都府,京都市伏見区,淀本町１７３番地６６グレース伏見１階１Ａ号室,,26,109,6130903,,,,,,,2023-11-10,1,,,,,マヒナ,0
805,3130001075661,新規,0,2023-11-10,2023-11-10,株式会社ｎｏａｈ,,株式会社,京都府,京都市下京区,新町通北小路下る辰巳町７５６番地の１,,26,106,6008307,,,,,,,2023-11-10,1,,,,,ノア,0
806,3130001075678,新規,0,2023-11-10,2023-11-10,株式会社Ｋ‐ｓｙｓｔｅｍ．,,株式会社,京都府,京都市西京区,川島滑樋町２,,26,111,6158106,,,,,,,2023-11-10,1,,,,,ケイシステム,0
807,3130001075686,新規,0,2023-11-10,2023-11-10,株式会社光雅,,株式会社,京都府,向日市,寺戸町西野辺１９番地の２,,26,208,6170002,,,,,,,2023-11-10,1,,,,,コウガ,0
808,3130003009122,新規,0,2023-11-10,2023-11-10,合同会社市村商店,,合同会社,京都府,相楽郡精華町,光台４丁目４０番地１３,,26,366,6190237,,,,,,,2023-11-10,1,,,,,イチムラショウテン,0
809,3130005016926,新規,0,2023-11-10,2023-11-10,医療法人秋桜会,,その他の設立登記法人,京都府,八幡市,男山石城８番地１９,,26,210,6148374,,,,,,,2023-11-10,1,,,,,コスモスカイ,0
811,3140001132197,新規,0,2023-11-10,2023-11-10,株式会社オークスホールディングス,,株式会社,兵庫県,神戸市中央区,生田町１丁目２番３６－５０１号,,28,110,6510092,,,,,,,2023-11-10,1,,,,,オークスホールディングス,0
812,3140001132288,新規,0,2023-11-10,2023-11-10,Ｉｃｈｉｋａ株式会社,,株式会社,兵庫県,西宮市,高須町２丁目１番３１号,,28,204,6638141,,,,,,,2023-11-10,1,,,,,イチカ,0
813,3140001132296,新規,0,2023-11-10,2023-11-10,株式会社ＫＩＲＡＲＩＴＯ,,株式会社,兵庫県,尼崎市,南塚口町４丁目１番１９－１０７号,,28,202,6610012,,,,,,,2023-11-10,1,,,,,キラリト,0
814,3140001132305,新規,0,2023-11-10,2023-11-10,ｆｕｓｉｏｎ株式会社,,株式会社,兵庫県,三木市,本町１丁目４番７号,,28,215,6730431,,,,,,,2023-11-10,1,,,,,フュージョン,0
819,3150001026869,新規,0,2023-11-10,2023-11-10,ＸＭＡＲＴ株式会社,,株式会社,奈良県,北葛城郡上牧町,片岡台２丁目１３番地１－２０１,,29,424,6390201,,,,,,,2023-11-10,1,,,,,エックスマート,0
820,3150001026877,新規,0,2023-11-10,2023-11-10,Ｆａｎ　ａｎｄ　Ｒｉｃｏ株式会社,,株式会社,奈良県,大和高田市,大字有井７２－１,,29,202,6350072,,,,,,,2023-11-10,1,,,,,ファンリコ,0
824,3160001025465,新規,0,2023-11-10,2023-11-10,グッドブライト株式会社,,株式会社,滋賀県,大津市,坂本１丁目１２番３９号,,25,201,5200113,,,,,,,2023-11-10,1,,,,,グッドブライト,0
835,3200001041887,新規,0,2023-11-10,2023-11-10,株式会社未来コンシェルジュ,,株式会社,岐阜県,羽島郡笠松町,北及１９６３番地２,,21,303,5016064,,,,,,,2023-11-10,1,,,,,ミライコンシェルジュ,0
837,3210001019544,新規,0,2023-11-10,2023-11-10,株式会社いい宿ねっと,,株式会社,福井県,福井市,大町１丁目７１５番地,,18,201,9188116,,,,,,,2023-11-10,1,,,,,イイヤドネット,0
849,3250001020390,新規,0,2023-11-10,2023-11-10,ｅａｃｈｖｉｓｔａ株式会社,,株式会社,山口県,光市,丸山町７番１５号,,35,210,7430041,,,,,,,2023-11-10,1,,,,,イーチビスタ,0
863,3290001103621,新規,0,2023-11-10,2023-11-10,株式会社Ｓｏｕｎｄｓ,,株式会社,福岡県,福岡市中央区,六本松２丁目２番３０－６０３号,,40,133,8100044,,,,,,,2023-11-10,1,,,,,サウンズ,0
874,3290801030016,新規,0,2023-11-10,2023-11-10,三原スチール株式会社,,株式会社,福岡県,京都郡苅田町,幸町８番地１,,40,621,8000314,,,,,,,2023-11-10,1,,,,,ミハラスチール,0
875,3290801030032,新規,0,2023-11-10,2023-11-10,株式会社ＨＡＲＵ,,株式会社,福岡県,田川郡香春町,大字中津原２０７９番地１,,40,601,8221405,,,,,,,2023-11-10,1,,,,,ハル,0
881,3330001031454,新規,0,2023-11-10,2023-11-10,株式会社クラフトマン,,株式会社,熊本県,宇城市,小川町南新田２６９,,43,213,8690632,,,,,,,2023-11-10,1,,,,,クラフトマン,0
882,3330003010076,新規,0,2023-11-10,2023-11-10,合同会社ＣＭＦ,,合同会社,熊本県,熊本市中央区,水道町１５番２０－８０５号,,43,101,8600844,,,,,,,2023-11-10,1,,,,,シーエムエフ,0
884,3330005010719,新規,0,2023-11-10,2023-11-10,一般社団法人三益式,,その他の設立登記法人,熊本県,熊本市中央区,下通１丁目６番４号武蔵ビル３Ｆ,,43,101,8600807,,,,,,,2023-11-10,1,,,,,ミマスシキ,0
902,3430001090408,新規,0,2023-11-10,2023-11-10,青麟株式会社,,株式会社,北海道,札幌市北区,北十五条西４丁目２番２０号,,01,102,0010015,,,,,,,2023-11-10,1,,,,,セイリン,0
905,3470003002514,新規,0,2023-11-10,2023-11-10,ハムテル合同会社,,合同会社,香川県,東かがわ市,白鳥１６番地１,,37,207,7692705,,,,,,,2023-11-10,1,,,,,ハムテル,0
912,3700150121522,新規,0,2023-11-10,2023-11-10,ＦＯＲＭＵＬＡ　Ｅ　ＲＡＣＥ　ＯＰＥＲＡＴＩＯＮＳ　ＬＩＭＩＴＥＤ,,外国会社等,東京都,渋谷区,恵比寿４丁目３番５号７０４　アークアウトソーシング株式会社内,,13,113,1500013,英国ロンドンハマースミス、ショートランズ３、９階,,,,,,2023-11-10,1,,,,,フオーミユライーレースオペレーシヨンズリミテツド,0
913,3700150121976,新規,0,2023-11-10,2023-11-10,金ケ崎町観光協会,,その他,岩手県,胆沢郡金ケ崎町,西根伊勢分２３番地５,,03,381,0294503,,,,,,,2023-11-10,1,,,,,カネガサキチョウカンコウキョウカイ,0
919,4010001239888,新規,0,2023-11-10,2023-11-10,株式会社レオン,,株式会社,東京都,中央区,銀座１丁目１２番４号Ｎ＆ＥＢＬＤ．６Ｆ,,13,102,1040061,,,,,,,2023-11-10,1,,,,,レオン,0
920,4010001239946,新規,0,2023-11-10,2023-11-10,ＪＰＡ第３０６号株式会社,,株式会社,東京都,千代田区,霞が関３丁目２番１号,,13,101,1000013,,,,,,,2023-11-10,1,,,,,ジェイピーエーダイサンビャクロクゴウ,0
921,4010001239970,新規,0,2023-11-10,2023-11-10,株式会社ＡＩＡ,,株式会社,東京都,千代田区,平河町１丁目６番１５号ＵＳビル８Ｆ,,13,101,1020093,,,,,,,2023-11-10,1,,,,,エーアイエー,0
928,4010003042159,新規,0,2023-11-10,2023-11-10,合同会社国友ＳＥＯ対策東京事務所,,合同会社,東京都,中央区,銀座１丁目１５番４号銀座１丁目ビル７階,,13,102,1040061,,,,,,,2023-11-10,1,,,,,クニトモエスイーオータイサクトウキョウジムショ,0
929,4010003042183,新規,0,2023-11-10,2023-11-10,ｉｄｅａｌ合同会社,,合同会社,東京都,千代田区,鍛冶町１丁目５番４号７階,,13,101,1010044,,,,,,,2023-11-10,1,,,,,アイディール,0
939,4010401178414,新規,0,2023-11-10,2023-11-10,株式会社Ｔｏｋｙｏ　Ｎｅｃｔａｒ　Ｏｄｅ,,株式会社,東京都,港区,麻布台１丁目９番１４号麻布台ｃｏｒｐ２Ｆ,,13,103,1060041,,,,,,,2023-11-10,1,,,,,トウキョウネクターオード,0
940,4010401178430,新規,0,2023-11-10,2023-11-10,株式会社ＰｒｏｇｒｅｓｓＳ,,株式会社,東京都,港区,北青山２丁目７番１３号プラセオ青山ビル３階青山アラマンダワークコート１２０号室,,13,103,1070061,,,,,,,2023-11-10,1,,,,,プログレスエス,0
943,4010501051322,新規,0,2023-11-10,2023-11-10,雨と緑と株式会社,,株式会社,東京都,台東区,東上野４丁目２６番８－９０２号アーバンステージ上野,,13,106,1100015,,,,,,,2023-11-10,1,,,,,アメトミドリト,0
949,4010605004259,新規,0,2023-11-10,2023-11-10,一般社団法人ことば・みらい・スカラシップ,,その他の設立登記法人,東京都,江東区,南砂２丁目４番２４－１００４号,,13,108,1360076,,,,,,,2023-11-10,1,,,,,コトバミライスカラシップ,0
951,4010801034497,新規,0,2023-11-10,2023-11-10,株式会社ブリジング,,株式会社,東京都,大田区,矢口３丁目１４－２,,13,111,1460093,,,,,,,2023-11-10,1,,,,,ブリジング,0
961,4010901054131,新規,0,2023-11-10,2023-11-10,株式会社ＲＥＬＡＰＡ,,株式会社,東京都,世田谷区,世田谷４丁目６－１高橋ビル１０２,,13,112,1540017,,,,,,,2023-11-10,1,,,,,リラパ,0
962,4010903008572,新規,0,2023-11-10,2023-11-10,合同会社青鷹,,合同会社,東京都,世田谷区,下馬６丁目１９番１５号,,13,112,1540002,,,,,,,2023-11-10,1,,,,,アオタカ,0
965,4011001157948,新規,0,2023-11-10,2023-11-10,クワイラー株式会社,,株式会社,東京都,目黒区,鷹番２丁目１０番９－５０２号ジェイパーク学芸大学,,13,110,1520004,,,,,,,2023-11-10,1,,,,,クワイラー,0
966,4011003017869,新規,0,2023-11-10,2023-11-10,合同会社セサル,,合同会社,東京都,渋谷区,渋谷２丁目１９－１５宮益坂ビルディング６０９,,13,113,1500002,,,,,,,2023-11-10,1,,,,,セサル,0
967,4011005010260,新規,0,2023-11-10,2023-11-10,一般社団法人ミングル東京,,その他の設立登記法人,東京都,渋谷区,代々木５丁目５６番３号,,13,113,1510053,,,,,,,2023-11-10,1,,,,,ミングルトウキョウ,0
973,4011103013727,新規,0,2023-11-10,2023-11-10,合同会社ソレスタル,,合同会社,東京都,新宿区,西新宿６丁目１１番３－２４０２号,,13,104,1600023,,,,,,,2023-11-10,1,,,,,ソレスタル,0
975,4011201025038,新規,0,2023-11-10,2023-11-10,株式会社ＯＮＥ　ＬＯＯＰ,,株式会社,東京都,中野区,野方２丁目１４番２６号２０３号室,,13,114,1650027,,,,,,,2023-11-10,1,,,,,ワンループ,0
977,4011301029161,新規,0,2023-11-10,2023-11-10,アルバテラ株式会社,,株式会社,東京都,杉並区,久我山３丁目２３番９号,,13,115,1680082,,,,,,,2023-11-10,1,,,,,アルバテラ,0
979,4011803005932,新規,0,2023-11-10,2023-11-10,Ｈａｃｈｉ　Ｇｒｏｕｐ合同会社,,合同会社,東京都,足立区,綾瀬２丁目２４番８号日興パレス綾瀬２０３号,,13,121,1200005,,,,,,,2023-11-10,1,,,,,ハチグループ,0
980,4012301013659,新規,0,2023-11-10,2023-11-10,株式会社Ｆａｉｔｈｆｕｌ,,株式会社,東京都,町田市,忠生１丁目２７番地１１,,13,209,1940035,,,,,,,2023-11-10,1,,,,,フェイスフル,0
992,4013303006873,新規,0,2023-11-10,2023-11-10,合同会社みやび,,合同会社,東京都,豊島区,長崎１丁目１番１８号,,13,116,1710051,,,,,,,2023-11-10,1,,,,,ミヤビ,0
999,4020003024965,新規,0,2023-11-10,2023-11-10,Ｌｏｔｕｓ　Ｗａｙ合同会社,,合同会社,神奈川県,横浜市保土ケ谷区,初音ケ丘１９－２１,,14,106,2400016,,,,,,,2023-11-10,1,,,,,ロータスウェイ,0
1005,4021001080703,新規,0,2023-11-10,2023-11-10,株式会社シルバーバック,,株式会社,神奈川県,鎌倉市,津西２丁目１８番８号,,14,204,2480034,,,,,,,2023-11-10,1,,,,,シルバーバック,0
1013,4030001157056,新規,0,2023-11-10,2023-11-10,株式会社ソウカブンカ,,株式会社,埼玉県,草加市,氷川町４０番地１・Ａ棟１０２,,11,221,3400034,,,,,,,2023-11-10,1,,,,,ソウカブンカ,0
1020,4030003022968,新規,0,2023-11-10,2023-11-10,ＴＲＵＳＴ合同会社,,合同会社,埼玉県,所沢市,東所沢３丁目３８番地の６,,11,208,3590021,,,,,,,2023-11-10,1,,,,,トラスト,0
1023,4030005021464,新規,0,2023-11-10,2023-11-10,医療法人石関医院,,その他の設立登記法人,埼玉県,草加市,吉町３丁目２番５１号,,11,221,3400017,,,,,,,2023-11-10,1,,,,,イシゼキイイン,0
1034,4040001130846,新規,0,2023-11-10,2023-11-10,六合株式会社,,株式会社,千葉県,印西市,東の原１丁目５番４２号,,12,231,2701336,,,,,,,2023-11-10,1,,,,,ロクゴウ,0
1035,4040001130862,新規,0,2023-11-10,2023-11-10,株式会社みのり訪問薬局,,株式会社,千葉県,千葉市美浜区,磯辺５丁目１番２号ザ・レジデンス検見川浜ガーデンズ４２７号,,12,106,2610012,,,,,,,2023-11-10,1,,,,,ミノリホウモンヤッキョク,0
1036,4040001130879,新規,0,2023-11-10,2023-11-10,株式会社アミダス,,株式会社,千葉県,八千代市,八千代台北５丁目６番地３,,12,221,2760031,,,,,,,2023-11-10,1,,,,,アミダス,0
1043,4040003023692,新規,0,2023-11-10,2023-11-10,合同会社７Ｆｉｅｌｄｓ,,合同会社,千葉県,市川市,八幡５丁目７番２７号,,12,203,2720021,,,,,,,2023-11-10,1,,,,,セブンフィールズ,0
1044,4040003023726,新規,0,2023-11-10,2023-11-10,リシェス合同会社,,合同会社,千葉県,流山市,西初石２丁目４５番地の９,,12,220,2700121,,,,,,,2023-11-10,1,,,,,リシェス,0
1048,4070001041058,新規,0,2023-11-10,2023-11-10,株式会社ユーエス,,株式会社,群馬県,太田市,東金井町１３０９番地,,10,205,3730022,,,,,,,2023-11-10,1,,,,,ユーエス,0
1069,4120001259652,新規,0,2023-11-10,2023-11-10,遠方世界株式会社,,株式会社,大阪府,大阪市北区,万歳町３番地１２，５０１号室,,27,127,5300028,,,,,,,2023-11-10,1,,,,,エンポウセカイ,0
1070,4120001259727,新規,0,2023-11-10,2023-11-10,株式会社プラスリンクス,,株式会社,大阪府,大阪市中央区,瓦町１丁目４番１号ノダマビル３Ｆ,,27,128,5410048,,,,,,,2023-11-10,1,,,,,プラスリンクス,0
1071,4120001259735,新規,0,2023-11-10,2023-11-10,アート産業株式会社,,株式会社,大阪府,大阪市北区,天神橋１丁目１８番２７号,,27,127,5300041,,,,,,,2023-11-10,1,,,,,アートサンギョウ,0
1073,4120005023971,新規,0,2023-11-10,2023-11-10,一般社団法人南北親友会,,その他の設立登記法人,大阪府,大阪市西成区,津守２丁目５番７号,,27,122,5570062,,,,,,,2023-11-10,1,,,,,ナンボクシンユウカイ,0
1078,4120901048345,新規,0,2023-11-10,2023-11-10,株式会社ＵＹＣＦ,,株式会社,大阪府,豊中市,新千里西町２丁目２４番３０－８０７号,,27,203,5600083,,,,,,,2023-11-10,1,,,,,ユーワイシーエフ,0
1079,4120901048353,新規,0,2023-11-10,2023-11-10,株式会社ＴＡＴＡ,,株式会社,大阪府,茨木市,三島丘２丁目１５番２４号,,27,211,5670021,,,,,,,2023-11-10,1,,,,,テイター,0
1088,4130001075669,新規,0,2023-11-10,2023-11-10,株式会社ＣＯＭＰＬＥＸ,,株式会社,京都府,京都市伏見区,桃山町中島町３３番地１－１０６号,,26,109,6128005,,,,,,,2023-11-10,1,,,,,コンプレックス,0
1089,4130005016925,新規,0,2023-11-10,2023-11-10,一般社団法人ダイバーシティ能力検定協会,,その他の設立登記法人,京都府,京都市上京区,室町通今出川下る北小路室町３９８番地１－６０２,,26,102,6020901,,,,,,,2023-11-10,1,,,,,ダイバーシティノウリョクケンテイキョウカイ,0
1096,4140001132295,新規,0,2023-11-10,2023-11-10,ＡＮＰＩＮＧ株式会社,,株式会社,兵庫県,神戸市兵庫区,荒田町３丁目３５番５号,,28,105,6520032,,,,,,,2023-11-10,1,,,,,アンピン,0
1101,4140003019796,新規,0,2023-11-10,2023-11-10,合同会社楽,,合同会社,兵庫県,神戸市中央区,三宮町３丁目９番６号,,28,110,6500021,,,,,,,2023-11-10,1,,,,,ラク,0
1109,4180001158857,新規,0,2023-11-10,2023-11-10,株式会社プロサ,,株式会社,愛知県,名古屋市西区,則武新町３丁目６番７号（グランアビタシオンノリタケ６０５号）,,23,104,4510051,,,,,,,2023-11-10,1,,,,,プロサ,0
1110,4180001158907,新規,0,2023-11-10,2023-11-10,株式会社Ｄ,,株式会社,愛知県,名古屋市西区,名駅２丁目３４番１７号セントラル名古屋１１０１号,,23,104,4510045,,,,,,,2023-11-10,1,,,,,ディ,0
1112,4180003025972,新規,0,2023-11-10,2023-11-10,合同会社ＲｉＬｉ,,合同会社,愛知県,あま市,坂牧向江８３メゾン静ＩＩ２０３,00132601,23,237,4901115,,,,,,,2023-11-10,1,,,,,リリ,0
1114,4180301038016,新規,0,2023-11-10,2023-11-10,株式会社ノーティスト,,株式会社,愛知県,豊田市,坂上町本郷５２番地,,23,211,4442201,,,,,,,2023-11-10,1,,,,,ノーティスト,0
1119,4210001019543,新規,0,2023-11-10,2023-11-10,うみんぴあおおいパートナーズ株式会社,,株式会社,福井県,大飯郡おおい町,成海１号８番地,,18,483,9192107,,,,,,,2023-11-10,1,,,,,ウミンピアオオイパートナーズ,0
1124,4220003003619,新規,0,2023-11-10,2023-11-10,合同会社ＥＬＥＧＡＮＣＥ,,合同会社,石川県,金沢市,玉鉾３丁目２７１番地（ファミーユオカザキ・３０５号）,,17,201,9218002,,,,,,,2023-11-10,1,,,,,エレガンス,0
1127,4230001020103,新規,0,2023-11-10,2023-11-10,株式会社ぶっ飛びホールディングス,,株式会社,富山県,小矢部市,八和町６番９号,,16,209,9320048,,,,,,,2023-11-10,1,,,,,ブットビホールディングス,0
1138,4270001008870,新規,0,2023-11-10,2023-11-10,株式会社隼輝,,株式会社,鳥取県,鳥取市,吉成南町２丁目１番４３号,,31,201,6800871,,,,,,,2023-11-10,1,,,,,シュンキ,0
1145,4290001103686,新規,0,2023-11-10,2023-11-10,株式会社山師屋,,株式会社,福岡県,福岡市西区,今宿上ノ原２０２番地３８,,40,135,8190163,,,,,,,2023-11-10,1,,,,,ヤマシヤ,0
1146,4290003014576,新規,0,2023-11-10,2023-11-10,合同会社矢永,,合同会社,福岡県,久留米市,寺町３番地２シティマンション久留米５－６０６号,,40,203,8300014,,,,,,,2023-11-10,1,,,,,ヤナガ,0
1157,4330003010067,新規,0,2023-11-10,2023-11-10,合同会社ｔｒｅｃｅ,,合同会社,熊本県,熊本市中央区,内坪井町１０番１０号,,43,101,8600077,,,,,,,2023-11-10,1,,,,,トレセ,0
1159,4350001018655,新規,0,2023-11-10,2023-11-10,宮崎車体技術株式会社,,株式会社,宮崎県,宮崎市,高岡町浦之名３９０１番地１,,45,201,8802323,,,,,,,2023-11-10,1,,,,,ミヤザキシャタイギジュツ,0
1171,4420003002831,新規,0,2023-11-10,2023-11-10,合同会社Ａ‐ＷＩＤＥ,,合同会社,青森県,五所川原市,金木町朝日山８５番地４,,02,205,0370202,,,,,,,2023-11-10,1,,,,,エーワイド,0
1172,4430001090407,新規,0,2023-11-10,2023-11-10,株式会社Ａ’ｚエステート,,株式会社,北海道,札幌市北区,北三十一条西５丁目１番１０－２０２号,,01,102,0010031,,,,,,,2023-11-10,1,,,,,アズエステート,0
1173,4430001090415,新規,0,2023-11-10,2023-11-10,株式会社みらいフーズ,,株式会社,北海道,札幌市豊平区,平岸四条７丁目１０番１７－１４０１号,,01,105,0620934,,,,,,,2023-11-10,1,,,,,ミライフーズ,0
1184,4700150114839,新規,0,2023-11-10,2023-11-10,ＲＵＹＩ　ＴＲＡＤＥ（ＳｈｅｎＺｈｅｎ）Ｃｏ．，ＬＴＤ,,外国会社等,,,,,,,,２０１Ａ－Ｂ６　Ｂｕｉｌｄｉｎｇ　１，Ｙｕｊｉｎｇｗａｎ，Ｚｏｎｅ　Ｎ１６　Ｈａｉｙｕ　Ｃｏｍｍｕｎｉｔｙ，Ｘｉｎ’ａｎ　Ｓｕｂｄｉｓｔｒｉｃｔ，Ｂａｏ’ａｎ　Ｄｉｓｔｒｉｃｔ，Ｓｈｅｎｚｈｅｎ，Ｇｕａｎｇｄｏｎｇ，Ｃｈｉｎａ　５１８１００,,,,,,2023-11-10,1,,,,,ルーイートレードシェンジェンカンパニーリミテッド,0
1185,4700150121975,新規,0,2023-11-10,2023-11-10,ｗｕｈａｎ　ｑｉ　ｃｈｕａｎ　ｗｅｉ　ｈｕｉ　ｋｅｊｉ　ｙｏｕｘｉａｎ　ｇｏｎｇｓｉ,,外国会社等,,,,,,,,ｗｕ　ｈａｎ　ｄｏｎｇ　ｈｕ　ｘｉｎ　ｊｉ　ｓｈｕ　ｋａｉ　ｆａ　ｑｕ　ｆｏ　ｚｕ　ｌｉｎｇ　ｊｉｅ　ｄａｏ　ｈｕａｎｇ　ｌｏｎｇ　ｓｈａｎ　ｎａｎ　ｌｕ　２　ｈａｏ　ｇｏｎｇ　ｙｅ　ｘｉａｎｇ　ｍｕ（ｇｕａｎｇ　ｇｕ　ｇｕａｎｇ　ｄｉａｎ　ｘｉｎ　ｘｉ　ｃｈａｎ　ｙｅ　ｃｈｕａｎｇ　ｘｉｎ　ｃｈｕａｎｇ　ｙｅ　ｊｉ　ｄｉ）ｅｒ　ｑｉ　１　ｄｏｎｇ　１２　ｃｅｎｇ　０３　ｘｉｎ　ｘｉｎｇ　ｃｈａｎｇ　ｆａｎｇ　ｈａｏ　１４（ｚｉ　ｍａｏ　ｑｕ　ｗｕ　ｈａｎ　ｐｉａｎ　ｑｕ）,,,,,,2023-11-10,1,,,,,ウーハンチーチュワンウェイフイコージーヨウシエンゴンスー,0
1186,4700150122008,新規,0,2023-11-10,2023-11-10,Ｍ＆Ｃ　Ｓａｋｕｒａ　Ｈｏｔｅｌ　Ｐｔｅ．Ｌｔｄ．,,外国会社等,東京都,中央区,銀座１丁目６番１１号土志田ビルディング３Ｆ,,13,102,1040061,シンガポール共和国ラッフルズ・プレイス９リパブリック・プラザ＃１２－０１,,,,,,2023-11-10,1,,,,,エムアンドシーサクラホテルプライベートリミテツド,0
1194,5010001239895,新規,0,2023-11-10,2023-11-10,株式会社ＭＱｕｅ,,株式会社,東京都,中央区,日本橋室町１丁目１１番１２号日本橋水野ビル７階,,13,102,1030022,,,,,,,2023-11-10,1,,,,,エムキュー,0
1195,5010001239945,新規,0,2023-11-10,2023-11-10,ＪＰＡ第３０５号株式会社,,株式会社,東京都,千代田区,霞が関３丁目２番１号,,13,101,1000013,,,,,,,2023-11-10,1,,,,,ジェイピーエーダイサンビャクゴゴウ,0
1196,5010001239953,新規,0,2023-11-10,2023-11-10,株式会社媒,,株式会社,東京都,中央区,日本橋室町１丁目１１番１２号日本橋水野ビル７階,,13,102,1030022,,,,,,,2023-11-10,1,,,,,ナカダチ,0
1201,5010005037494,新規,0,2023-11-10,2023-11-10,ＪＤ２一般社団法人,,その他の設立登記法人,東京都,千代田区,丸の内３丁目１番１号東京共同会計事務所内,,13,101,1000005,,,,,,,2023-11-10,1,,,,,ジェイディーツー,0
1210,5010401178355,新規,0,2023-11-10,2023-11-10,ＳｈｉｒｏＭａｒｂｌｅ株式会社,,株式会社,東京都,港区,赤坂４丁目１３番５号,,13,103,1070052,,,,,,,2023-11-10,1,,,,,シロマーブル,0
1211,5010401178438,新規,0,2023-11-10,2023-11-10,株式会社Ａｍｅｌｉｅ,,株式会社,東京都,港区,南青山２丁目２番１５号,,13,103,1070062,,,,,,,2023-11-10,1,,,,,アメリー,0
1212,5010401178470,新規,0,2023-11-10,2023-11-10,株式会社ウエストロック,,株式会社,東京都,港区,南麻布４丁目１３－７－８０１,,13,103,1060047,,,,,,,2023-11-10,1,,,,,ウエストロック,0
1217,5010405022690,新規,0,2023-11-10,2023-11-10,一般社団法人キューインベストメント,,その他の設立登記法人,東京都,港区,元赤坂１丁目１番８号株式会社赤坂国際会計内,,13,103,1070051,,,,,,,2023-11-10,1,,,,,キューインベストメント,0
1218,5010501051305,新規,0,2023-11-10,2023-11-10,三盛源電子株式会社,,株式会社,東京都,台東区,上野３丁目２番１号エクセレント２Ｆ,,13,106,1100005,,,,,,,2023-11-10,1,,,,,サンセイゲンデンシ,0
1220,5010503007214,新規,0,2023-11-10,2023-11-10,合同会社ＳｐａｃｅＭａｒｃｈｅ,,合同会社,東京都,台東区,入谷２丁目２９番５－６０１号リヴシティ上野入谷,,13,106,1100013,,,,,,,2023-11-10,1,,,,,スペースマルシェ,0
1226,5010603010472,新規,0,2023-11-10,2023-11-10,合同会社ＰＷＦ,,合同会社,東京都,墨田区,立花１丁目３２番１２号,,13,107,1310043,,,,,,,2023-11-10,1,,,,,ピーダビュルエフ,0
1231,5010703006940,新規,0,2023-11-10,2023-11-10,合同会社Ａｌｌ‐ｉｎ,,合同会社,東京都,品川区,西品川１丁目１９番１１号星野コーポ３０１,,13,109,1410033,,,,,,,2023-11-10,1,,,,,オールイン,0
1250,5011001158004,新規,0,2023-11-10,2023-11-10,株式会社Ｃａｇｅ　Ｗｉｎｅ,,株式会社,東京都,渋谷区,神泉町２０番１７－３０２号,,13,113,1500045,,,,,,,2023-11-10,1,,,,,ケージワイン,0
1259,5011101105087,新規,0,2023-11-10,2023-11-10,株式会社ＨｅａｌｔｈｃａｒｅＪａｐａｎ,,株式会社,東京都,新宿区,新宿１丁目３６－２新宿第七葉山ビル３Ｆ,,13,104,1600022,,,,,,,2023-11-10,1,,,,,ヘルスケアジャパン,0
1260,5011101105095,新規,0,2023-11-10,2023-11-10,インテグラルモーゲージバンク株式会社,,株式会社,東京都,新宿区,西新宿１丁目２６番２号新宿野村ビル１４Ｆ,,13,104,1600023,,,,,,,2023-11-10,1,,,,,インテグラルモーゲージバンク,0
1269,5011503005843,新規,0,2023-11-10,2023-11-10,合同会社Ｅ‐ＢＡＳＥ,,合同会社,東京都,荒川区,西尾久４丁目９番５号,,13,118,1160011,,,,,,,2023-11-10,1,,,,,イーベース,0
1271,5011603004126,新規,0,2023-11-10,2023-11-10,合同会社荒木リーガルコンサルティング,,合同会社,東京都,練馬区,田柄４丁目３３番３０号,,13,120,1790073,,,,,,,2023-11-10,1,,,,,アラキリーガルコンサルティング,0
1273,5011701026757,新規,0,2023-11-10,2023-11-10,株式会社Ａｉｒｐｏｒｔ　Ｐｒｅｓｅｎｔｓ,,株式会社,東京都,江戸川区,一之江８丁目１３－９アポロ１１０１,,13,123,1320024,,,,,,,2023-11-10,1,,,,,エアポートプレゼンツ,0
1275,5011801043314,新規,0,2023-11-10,2023-11-10,エデン株式会社,,株式会社,東京都,足立区,綾瀬５丁目１１－１１,,13,121,1200005,,,,,,,2023-11-10,1,,,,,,0
1276,5011803005931,新規,0,2023-11-10,2023-11-10,Ｍｕｓｅ合同会社,,合同会社,東京都,葛飾区,金町５丁目２３番８号６０２号室,,13,122,1250042,,,,,,,2023-11-10,1,,,,,ミューズ,0
1277,5011805003314,新規,0,2023-11-10,2023-11-10,一般社団法人サポートルームあだち,,その他の設立登記法人,東京都,足立区,小台２丁目４３番３号２Ｆ,,13,121,1200046,,,,,,,2023-11-10,1,,,,,サポートルームアダチ,0
1278,5012301013658,新規,0,2023-11-10,2023-11-10,株式会社ＤＰＣ,,株式会社,東京都,町田市,旭町１丁目６番５号クライネベルク２０２,,13,209,1940023,,,,,,,2023-11-10,1,,,,,ディーピーシー,0
1279,5012303001900,新規,0,2023-11-10,2023-11-10,Ｄｓｉｃｓ合同会社,,合同会社,東京都,町田市,小山町１２１６－１－１０３,,13,209,1940212,,,,,,,2023-11-10,1,,,,,ディーシックス,0
1296,5020003024964,新規,0,2023-11-10,2023-11-10,合同会社ＡｉＬＥ会計事務所,,合同会社,神奈川県,横浜市西区,宮崎町５６番地１プレシス横濱紅葉坂６０７号,,14,103,2200031,,,,,,,2023-11-10,1,,,,,エールカイケイジムショ,0
1297,5020003024980,新規,0,2023-11-10,2023-11-10,合同会社ララパルーザ,,合同会社,神奈川県,川崎市多摩区,布田３０番１１―４号,,14,135,2140011,,,,,,,2023-11-10,1,,,,,ララパルーザ,0
1301,5021001080702,新規,0,2023-11-10,2023-11-10,株式会社ＳＯＬＬＪＵＳ,,株式会社,神奈川県,三浦郡葉山町,堀内１９９６番地の７ロイヤルガーデン葉山Ａ,,14,301,2400112,,,,,,,2023-11-10,1,,,,,ソリュース,0
1315,5030001157006,新規,0,2023-11-10,2023-11-10,株式会社ＣｒｏｓｓＴｉｄｅｓ,,株式会社,埼玉県,さいたま市中央区,鈴谷５丁目６－２６－１,,11,105,3380013,,,,,,,2023-11-10,1,,,,,クロスタイズ,0
1316,5030001157088,新規,0,2023-11-10,2023-11-10,株式会社ＯＳＩ,,株式会社,埼玉県,朝霞市,溝沼４丁目６番３０－１０３号,,11,227,3510023,,,,,,,2023-11-10,1,,,,,オーエスアイ,0
1323,5030003022967,新規,0,2023-11-10,2023-11-10,合同会社ハイゴールズ,,合同会社,埼玉県,和光市,下新倉３丁目３番６７号志幸４０ワルツ２０３,,11,229,3510111,,,,,,,2023-11-10,1,,,,,ハイゴールズ,0
1326,5030005021463,新規,0,2023-11-10,2023-11-10,医療法人社団Ｔｒａｎｓｐａｒｅｎｔ　Ｂｌｕｅ,,その他の設立登記法人,埼玉県,川越市,新富町２丁目３０番地３サンスプレンダー新富１０６,,11,201,3500043,,,,,,,2023-11-10,1,,,,,トランスペアレントブルー,0
1330,5040001130845,新規,0,2023-11-10,2023-11-10,株式会社ＡＸＩＡ　ＲＥＡＬ　ＥＳＴＡＴＥ,,株式会社,千葉県,柏市,旭町１丁目４番１１号,,12,217,2770852,,,,,,,2023-11-10,1,,,,,アクシアリアルエステート,0
1331,5040001130911,新規,0,2023-11-10,2023-11-10,関東テクノ株式会社,,株式会社,千葉県,八千代市,高津１１７１番地６,,12,221,2760036,,,,,,,2023-11-10,1,,,,,,0
1335,5040003023717,新規,0,2023-11-10,2023-11-10,合同会社Ｖ．Ｉ．Ｐ,,合同会社,千葉県,千葉市中央区,院内１丁目２－１０セントラルレジデンス８０１,,12,101,2600018,,,,,,,2023-11-10,1,,,,,ブイアイピー,0
1336,5040003023725,新規,0,2023-11-10,2023-11-10,合同会社早坂商店,,合同会社,千葉県,袖ケ浦市,のぞみ野１０７番地１４,,12,229,2990251,,,,,,,2023-11-10,1,,,,,ハヤサカショウテン,0
1339,5050001053806,新規,0,2023-11-10,2023-11-10,ＢＡＬＯＣＨ　ＧＲＯＵＰ株式会社,,株式会社,茨城県,古河市,尾崎１２４３番地１－Ａ,,08,204,3060101,,,,,,,2023-11-10,1,,,,,バロスグループ,0
1340,5050003007933,新規,0,2023-11-10,2023-11-10,ＳＤＫ合同会社,,合同会社,茨城県,北茨城市,大津町北町５９７番地２,,08,215,3191704,,,,,,,2023-11-10,1,,,,,エスディケイ,0
1368,5120001259668,新規,0,2023-11-10,2023-11-10,株式会社ＬＥＣＥＭ,,株式会社,大阪府,大阪市北区,梅田１丁目２番２号大阪駅前第２ビル１２－１２,,27,127,5300001,,,,,,,2023-11-10,1,,,,,レシーム,0
1369,5120001259701,新規,0,2023-11-10,2023-11-10,豊実株式会社,,株式会社,大阪府,大阪市旭区,赤川１丁目５番１３号天理マンション３０５,,27,117,5350005,,,,,,,2023-11-10,1,,,,,トヨミ,0
1370,5120001259734,新規,0,2023-11-10,2023-11-10,Ｓ＆Ｔ　ＧＲＡＮＤ　ＳＨＩＭＡ　ＣＯＲＰＯＲＡＴＩＯＮ株式会社,,株式会社,大阪府,大阪市淀川区,西宮原３丁目２番１－３０３号,,27,123,5320004,,,,,,,2023-11-10,1,,,,,エスアンドティグランドシマコーポレーション,0
1371,5120001259742,新規,0,2023-11-10,2023-11-10,株式会社ｚｅｒｏ．,,株式会社,大阪府,大阪市西区,北堀江１丁目１７番１０－７０１号,,27,106,5500014,,,,,,,2023-11-10,1,,,,,ゼロドット,0
1372,5120001259775,新規,0,2023-11-10,2023-11-10,株式会社エール,,株式会社,大阪府,守口市,東町１丁目１７番１０－１０１号,,27,209,5700013,,,,,,,2023-11-10,1,,,,,エール,0
1374,5120003025275,新規,0,2023-11-10,2023-11-10,ＡＳＳＯＣＩＥ大阪合同会社,,合同会社,大阪府,大阪市生野区,巽西２丁目７番８号,,27,116,5440012,,,,,,,2023-11-10,1,,,,,アソシエオオサカ,0
1375,5120003025300,新規,0,2023-11-10,2023-11-10,合同会社日本地学協会,,合同会社,大阪府,大阪市東住吉区,田辺５丁目１－３７－２Ｆ,,27,121,5460031,,,,,,,2023-11-10,1,,,,,ニホンチガクキョウカイ,0
1377,5120101068498,新規,0,2023-11-10,2023-11-10,新秋堂株式会社,,株式会社,大阪府,和泉市,緑ケ丘２丁目２番１１号,,27,219,5941155,,,,,,,2023-11-10,1,,,,,シンシュウドウ,0
1378,5120103005524,新規,0,2023-11-10,2023-11-10,合同会社ＴＷＳ,,合同会社,大阪府,松原市,天美東８丁目１５番１０－３０３号,,27,217,5800032,,,,,,,2023-11-10,1,,,,,ティーダブリューエス,0
1395,5150001026875,新規,0,2023-11-10,2023-11-10,Ｍ’ｓホールディングス株式会社,,株式会社,奈良県,奈良市,紀寺町４３５番地の４,,29,201,6308306,,,,,,,2023-11-10,1,,,,,エムズホールディングス,0
1396,5150005009521,新規,0,2023-11-10,2023-11-10,田部農事實行組合,,その他の設立登記法人,奈良県,宇陀市,大字上笠間,,29,212,6330200,,,,,,,2023-11-10,1,,,,,,0
1403,5180001158757,新規,0,2023-11-10,2023-11-10,株式会社フレイルフリー,,株式会社,愛知県,名古屋市中区,栄３丁目２番３号名古屋日興證券ビル４階,,23,106,4600008,,,,,,,2023-11-10,1,,,,,フレイルフリー,0
1404,5180001158856,新規,0,2023-11-10,2023-11-10,ふらみんご株式会社,,株式会社,愛知県,名古屋市瑞穂区,上坂町１丁目１２番地,,23,108,4670821,,,,,,,2023-11-10,1,,,,,フラミンゴ,0
1408,5180005020418,新規,0,2023-11-10,2023-11-10,一般社団法人ワールド絞りネットワークジャパン,,その他の設立登記法人,愛知県,名古屋市緑区,有松１８０３番地,,23,114,4580924,,,,,,,2023-11-10,1,,,,,ワールドシボリネットワークジャパン,0
1442,5290001103685,新規,0,2023-11-10,2023-11-10,Ｂｌｅｓｓ　Ｈｏｌｄｉｎｇｓ株式会社,,株式会社,福岡県,福岡市中央区,平尾３丁目７番２１号,,40,133,8100014,,,,,,,2023-11-10,1,,,,,ブレスホールディングス,0
1443,5290001103727,新規,0,2023-11-10,2023-11-10,株式会社ｃｏｚｙ　ｓｉｔｅ,,株式会社,福岡県,福岡市南区,大橋団地６番１－１２０５号,,40,134,8150038,,,,,,,2023-11-10,1,,,,,コージーサイト,0
1449,5330003010074,新規,0,2023-11-10,2023-11-10,合同会社優良縁和,,合同会社,熊本県,八代市,永碇町７３１番地５,,43,202,8660885,,,,,,,2023-11-10,1,,,,,ユウリョウエンワ,0
1451,5340003004307,新規,0,2023-11-10,2023-11-10,合同会社ゼファー,,合同会社,鹿児島県,鹿屋市,川東町８６８６番地,,46,203,8930031,,,,,,,2023-11-10,1,,,,,ゼファー,0
1455,5360001032786,新規,0,2023-11-10,2023-11-10,仲本工業ホールディングス株式会社,,株式会社,沖縄県,沖縄市,美里６丁目５番１号,,47,211,9042153,,,,,,,2023-11-10,1,,,,,ナカモトコウギョウホールディングス,0
1456,5360003013405,新規,0,2023-11-10,2023-11-10,Ｉｓｈｉｇａｋｉｊｉｍａ合同会社,,合同会社,沖縄県,石垣市,浜崎町２丁目６番６号,,47,207,9070013,,,,,,,2023-11-10,1,,,,,イシガキジマ,0
1458,5370001050614,新規,0,2023-11-10,2023-11-10,株式会社ｏｚａｋｉ,,株式会社,宮城県,石巻市,蛇田字新下浦１００番地２,,04,202,9860861,,,,,,,2023-11-10,1,,,,,オザキ,0
1470,5430003015625,新規,0,2023-11-10,2023-11-10,合同会社ＦＲＵＯＲ,,合同会社,北海道,札幌市中央区,南二条西１９丁目２９１－５５ブレサント南２西１９－２０３,,01,101,0600062,,,,,,,2023-11-10,1,,,,,フルオール,0
1471,5430003015641,新規,0,2023-11-10,2023-11-10,Ｋｙｏｋｕｓｅｉ合同会社,,合同会社,北海道,札幌市厚別区,厚別西１０６３番１２９,,01,108,0040068,,,,,,,2023-11-10,1,,,,,キョクセイ,0
1476,5700150121974,新規,0,2023-11-10,2023-11-10,ｄｏｎｇｇｕａｎｓｈｉｋａｉｃｈｅｎｇｔｏｎｇｇｕｏｊｉｈｕｏｄａｉｙｏｕｘｉａｎｇｏｎｇｓｉ,,外国会社等,,,,,,,,ｄｏｎｇｇｕａｎｓｈｉｆｅｎｇｇａｎｇｚｈｅｎｚｈｕｔａｎｇｃｕｎｗｏｌｏｎｇｓｈａｎｇｚｈｕｘｉａｏｑｕＡ４ｄｏｎｇ２ｈａｏｄｏｎｇｇｕａｎｓｈｉｆｅｎｇｇａｎｇｚｈｅｎｇｕａｎｇｄｏｎｇｓｈｅｎｇ５２３６８１ＣＮ,,,,,,2023-11-10,1,,,,,ドングワンシーカイチョントングオジーフオインヨウシエンゴンスー,0
1477,5700150122007,新規,0,2023-11-10,2023-11-10,ブーゴル・オーバーシーズ・プライベート・リミテッド,,外国会社等,東京都,八王子市,子安町２丁目１３番１８号パーソナルビル３０２,,13,201,1920904,ネパール連邦民主共和国トーカ市第１０区カトマンズ,,,,,,2023-11-10,1,,,,,ブーゴルオーバーシーズプライベートリミテツド,0
1493,6010001239969,新規,0,2023-11-10,2023-11-10,ＯＪ　ＪＡＰＡＮ株式会社,,株式会社,東京都,千代田区,神田鍛冶町３丁目４番地ｏａｋ神田鍛冶町７Ｆ,,13,101,1010045,,,,,,,2023-11-10,1,,,,,オージェイジャパン,0
1494,6010001239977,新規,0,2023-11-10,2023-11-10,小富不動産株式会社,,株式会社,東京都,中央区,日本橋浜町１丁目４番１５号昭和西川ビル７階,,13,102,1030007,,,,,,,2023-11-10,1,,,,,コトミフドウサン,0
1495,6010001239985,新規,0,2023-11-10,2023-11-10,株式会社ジゲート,,株式会社,東京都,中央区,銀座４丁目１３－８ソフィアスクエア銀座８０２号,,13,102,1040061,,,,,,,2023-11-10,1,,,,,ジゲート,0
1496,6010001239993,新規,0,2023-11-10,2023-11-10,ＮＸＧホールディングス株式会社,,株式会社,東京都,中央区,日本橋室町２丁目４番３号,,13,102,1030022,,,,,,,2023-11-10,1,,,,,エヌエックスジーホールディングス,0
1498,6010003042132,新規,0,2023-11-10,2023-11-10,流山ロジスティクス合同会社,,合同会社,東京都,千代田区,九段南３丁目７番７号成和綜合会計事務所内,,13,101,1020074,,,,,,,2023-11-10,1,,,,,ナガレヤマロジスティクス,0
1499,6010003042181,新規,0,2023-11-10,2023-11-10,合同会社アセット投資事業１１号,,合同会社,東京都,中央区,日本橋１丁目４番１号,,13,102,1030027,,,,,,,2023-11-10,1,,,,,アセットトウシジギョウジュウイチゴウ,0
1501,6010005037502,新規,0,2023-11-10,2023-11-10,Ｇｒａｓｓ　Ｇｒｅｅｎ特定目的会社,,その他の設立登記法人,東京都,千代田区,丸の内１丁目８番２号鉄鋼ビルディング４階,,13,101,1000005,,,,,,,2023-11-10,1,,,,,グラスグリーン,0
1510,6010401178321,新規,0,2023-11-10,2023-11-10,株式会社ＥＣＸグループ,,株式会社,東京都,港区,新橋１丁目１６－４りそな新橋ビル８階,,13,103,1050004,,,,,,,2023-11-10,1,,,,,イーシーエックスグループ,0
1516,6010603010471,新規,0,2023-11-10,2023-11-10,合同会社ｕｎｆｏｒｍｅｄ,,合同会社,東京都,墨田区,東向島５丁目５番８号,,13,107,1310032,,,,,,,2023-11-10,1,,,,,アンフォームド,0
1538,6011001158044,新規,0,2023-11-10,2023-11-10,株式会社Ｄ４,,株式会社,東京都,渋谷区,神宮前３丁目１－３０ソフトタウン青山３１５,,13,113,1500001,,,,,,,2023-11-10,1,,,,,ディーフォー,0
1539,6011001158052,新規,0,2023-11-10,2023-11-10,Ｃｈｅａｒ株式会社,,株式会社,東京都,渋谷区,道玄坂１丁目１０番８号渋谷道玄坂東急ビル２Ｆ－Ｃ,,13,113,1500043,,,,,,,2023-11-10,1,,,,,チーア,0
1540,6011001158060,新規,0,2023-11-10,2023-11-10,株式会社ＮＫ　Ｐｒｏ,,株式会社,東京都,渋谷区,道玄坂１丁目１６番６号二葉ビル８ｂ,,13,113,1500043,,,,,,,2023-11-10,1,,,,,エヌケープロ,0
1541,6011003017867,新規,0,2023-11-10,2023-11-10,合同会社アニス,,合同会社,東京都,渋谷区,代々木１丁目３０番１４号天翔オフィス代々木ＡＮＮＥＸ０１４号室,,13,113,1510053,,,,,,,2023-11-10,1,,,,,アニス,0
1552,6011103013717,新規,0,2023-11-10,2023-11-10,合同会社三保,,合同会社,東京都,新宿区,北新宿１丁目３５－１５,,13,104,1690074,,,,,,,2023-11-10,1,,,,,ミホ,0
1561,6011603004125,新規,0,2023-11-10,2023-11-10,合同会社まるよし商事,,合同会社,東京都,練馬区,豊玉北５丁目３２番１号ゴールド１９ビル２階,,13,120,1760012,,,,,,,2023-11-10,1,,,,,マルヨシショウジ,0
1565,6011801043321,新規,0,2023-11-10,2023-11-10,株式会社小丸子,,株式会社,東京都,足立区,小台１丁目２２－２－１０２４室,,13,121,1200046,,,,,,,2023-11-10,1,,,,,ショウマルコ,0
1580,6020001154416,新規,0,2023-11-10,2023-11-10,株式会社ｕｍｂｒｅｌｌａ,,株式会社,神奈川県,横浜市中区,吉田町７２番地サリュートビル６階,,14,104,2310041,,,,,,,2023-11-10,1,,,,,アンブレラ,0
1581,6020001154424,新規,0,2023-11-10,2023-11-10,Ｗｒｉｓｅ　Ｊａｐａｎ株式会社,,株式会社,神奈川県,横浜市青葉区,すすき野３丁目６番地２・６－３号棟４０２号室,,14,117,2250021,,,,,,,2023-11-10,1,,,,,ライズジャパン,0
1586,6020003024963,新規,0,2023-11-10,2023-11-10,合同会社チームサポ,,合同会社,神奈川県,横浜市港北区,綱島上町１番地１－５－３２９,,14,109,2230055,,,,,,,2023-11-10,1,,,,,チームサポ,0
1610,6040001130613,新規,0,2023-11-10,2023-11-10,宏興産業株式会社,,株式会社,千葉県,八千代市,勝田１２６０番地の１１,,12,221,2760024,,,,,,,2023-11-10,1,,,,,コウキョウサンギョウ,0
1611,6040001130877,新規,0,2023-11-10,2023-11-10,株式会社Ｐａｔｒｉｙａ,,株式会社,千葉県,木更津市,東太田２丁目１４番２２号東太田ビル２Ｆ,,12,206,2920043,,,,,,,2023-11-10,1,,,,,パトリア,0
1616,6040003023699,新規,0,2023-11-10,2023-11-10,合同会社ＴＩＥＳ,,合同会社,千葉県,長生郡長生村,本郷７３２３－１３,,12,423,2994345,,,,,,,2023-11-10,1,,,,,タイズ,0
1617,6040003023724,新規,0,2023-11-10,2023-11-10,合同会社結家ファーム,,合同会社,千葉県,市原市,草刈８４０番地２,,12,219,2900001,,,,,,,2023-11-10,1,,,,,ユイファーム,0
1621,6050003007940,新規,0,2023-11-10,2023-11-10,渡里合同会社,,合同会社,茨城県,水戸市,渡里町２６５８番地の２,,08,201,3100902,,,,,,,2023-11-10,1,,,,,ワタリ,0
1646,6120001259642,新規,0,2023-11-10,2023-11-10,ＹＫＴ商事株式会社,,株式会社,大阪府,大阪市港区,夕凪２丁目１５番５号ＮＡＯＢＬＤ．,,27,107,5520004,,,,,,,2023-11-10,1,,,,,ワイケイティショウジ,0
1647,6120001259700,新規,0,2023-11-10,2023-11-10,福井アーキテック株式会社,,株式会社,大阪府,大阪市淀川区,西中島６丁目２番３号４２２,,27,123,5320011,,,,,,,2023-11-10,1,,,,,フクイアーキテック,0
1648,6120001259725,新規,0,2023-11-10,2023-11-10,王三株式会社,,株式会社,大阪府,大阪市港区,南市岡１丁目６番２４号,,27,107,5520011,,,,,,,2023-11-10,1,,,,,オウサン,0
1649,6120001259733,新規,0,2023-11-10,2023-11-10,ＧＯＯＤＡＹ株式会社,,株式会社,大阪府,大阪市旭区,赤川１丁目５番１３号天理マンション２０７,,27,117,5350005,,,,,,,2023-11-10,1,,,,,グッディ,0
1650,6120001259766,新規,0,2023-11-10,2023-11-10,Ｔパネルエンジニアリング株式会社,,株式会社,大阪府,大阪市北区,南森町２丁目２番１０号,,27,127,5300054,,,,,,,2023-11-10,1,,,,,ティーパネルエンジニアリング,0
1654,6120003025233,新規,0,2023-11-10,2023-11-10,ＦＵＫＵ合同会社,,合同会社,大阪府,大阪市福島区,吉野１丁目１１番１８号,,27,103,5530006,,,,,,,2023-11-10,1,,,,,フク,0
1671,6140001132236,新規,0,2023-11-10,2023-11-10,株式会社指吸建設,,株式会社,兵庫県,三木市,別所町朝日ケ丘３５番地の６７,,28,215,6730441,,,,,,,2023-11-10,1,,,,,ユビスイケンセツ,0
1672,6140001132277,新規,0,2023-11-10,2023-11-10,株式会社Ｍ・ｔａｇ,,株式会社,兵庫県,神戸市中央区,若菜通４丁目２番４号,,28,110,6510091,,,,,,,2023-11-10,1,,,,,エムタグ,0
1673,6140001132285,新規,0,2023-11-10,2023-11-10,株式会社ＩＭＫＳ．,,株式会社,兵庫県,尼崎市,田能１丁目１４番５－３号,,28,202,6610951,,,,,,,2023-11-10,1,,,,,インクスドット,0
1678,6150001026874,新規,0,2023-11-10,2023-11-10,株式会社ＳＴＯＲＹ　Ｊａｐａｎ,,株式会社,奈良県,桜井市,大字箸中９２１番地の３,00132598,29,206,6330072,,,,,,,2023-11-10,1,,,,,ストーリージャパン,0
1683,6180001158896,新規,0,2023-11-10,2023-11-10,株式会社ＭＹ‐ＭＥＤＩＣ,,株式会社,愛知県,名古屋市北区,三軒町１６番地の５,,23,103,4620004,,,,,,,2023-11-10,1,,,,,マイメディック,0
1687,6180003025970,新規,0,2023-11-10,2023-11-10,ＦＰ石原合同会社,,合同会社,愛知県,名古屋市中区,大須３丁目１４番５５号,,23,106,4600011,,,,,,,2023-11-10,1,,,,,エフピーイシハラ,0
1694,6240001062407,新規,0,2023-11-10,2023-11-10,株式会社ｐａｂｉｔ,,株式会社,広島県,広島市中区,八丁堀９番１１号３階,,34,101,7300013,,,,,,,2023-11-10,1,,,,,パビット,0
1698,6240003006411,新規,0,2023-11-10,2023-11-10,ＡＸＩＳ　ＳＡ合同会社,,合同会社,広島県,広島市中区,上八丁堀８番２６－１００２号,,34,101,7300012,,,,,,,2023-11-10,1,,,,,アクシスエスエー,0
1699,6250001020388,新規,0,2023-11-10,2023-11-10,株式会社星都,,株式会社,山口県,下関市,筋川町７番３－３０１号,,35,201,7500057,,,,,,,2023-11-10,1,,,,,セイト,0
1705,6260003004495,新規,0,2023-11-10,2023-11-10,合同会社ＣＨＩＬＬＡ’Ｓ,,合同会社,岡山県,岡山市北区,中仙道５６番地１０３,,33,101,7000964,,,,,,,2023-11-10,1,,,,,チラズ,0
1709,6290001103585,新規,0,2023-11-10,2023-11-10,和永住宅株式会社,,株式会社,福岡県,福岡市南区,大楠２丁目３番２号,,40,134,8150082,,,,,,,2023-11-10,1,,,,,ワエイジュウタク,0
1726,6330001031451,新規,0,2023-11-10,2023-11-10,株式会社ＮＭ,,株式会社,熊本県,熊本市北区,高平２丁目１０番３１号ヴェルデコリーナエストＩ１０１,00132605,43,105,8600085,,,,,,,2023-11-10,1,,,,,エヌエム,0
1731,6340002004711,新規,0,2023-11-10,2023-11-10,有限会社新建築,,有限会社,鹿児島県,鹿児島市,新照院町９番９号,,46,201,8900016,,,,,,,2023-11-10,1,,,,,シンケンチク,0
1736,6340003004297,新規,0,2023-11-10,2023-11-10,合同会社吉田写真事務所,,合同会社,鹿児島県,鹿児島市,南林寺町７－１２　１Ｆ,,46,201,8920834,,,,,,,2023-11-10,1,,,,,ヨシダシャシンジムショ,0
1743,6360005006934,新規,0,2023-11-10,2023-11-10,一般社団法人みやこじまいきいきシニアライフ,,その他の設立登記法人,沖縄県,宮古島市,平良字西原４１０番地,,47,214,9060005,,,,,,,2023-11-10,1,,,,,ミヤコジマイキイキシニアライフ,0
1760,6430001090363,新規,0,2023-11-10,2023-11-10,株式会社Ｋコネクション,,株式会社,北海道,札幌市北区,北十三条西２丁目１番１７－８０１号,,01,102,0010013,,,,,,,2023-11-10,1,,,,,ケイコネクション,0
1761,6430001090405,新規,0,2023-11-10,2023-11-10,株式会社平取ファーム,,株式会社,北海道,沙流郡平取町,字旭１４８番５,,01,602,0550322,,,,,,,2023-11-10,1,,,,,ヒラトリファーム,0
1764,6430003015608,新規,0,2023-11-10,2023-11-10,合同会社柏原農園,,合同会社,北海道,日高郡新ひだか町,三石歌笛７９０番地の２,,01,610,0593351,,,,,,,2023-11-10,1,,,,,カシハラノウエン,0
1765,6430003015640,新規,0,2023-11-10,2023-11-10,合同会社ＳＥＡ　ＴＲＹ,,合同会社,北海道,札幌市中央区,南五条西１５丁目２‐３リズム医大前５０３号室,,01,101,0640805,,,,,,,2023-11-10,1,,,,,シートライ,0
1773,6700150121511,新規,0,2023-11-10,2023-10-27,道央地区未利用バイオマス供給協議会,,その他,北海道,石狩市,厚田区厚田１８番地１,,01,235,0613601,,,,,,,2023-10-27,1,,,,,ドウオウチクミリヨウバイオマスキヨウキユウキヨウギカイ,0
1791,7010001239927,新規,0,2023-11-10,2023-11-10,Ｄａｓ　Ｓｏｌａｒ　Ｊａｐａｎ株式会社,,株式会社,東京都,千代田区,丸の内３丁目２番２号丸の内二重橋ビル２階,,13,101,1000005,,,,,,,2023-11-10,1,,,,,ダスソーラージャパン,0
1792,7010001239984,新規,0,2023-11-10,2023-11-10,ＲＥＧＡＺＥ株式会社,,株式会社,東京都,中央区,日本橋堀留町１丁目６番３号,,13,102,1030012,,,,,,,2023-11-10,1,,,,,リゲイズ,0
1793,7010003042156,新規,0,2023-11-10,2023-11-10,合同会社ナノ,,合同会社,東京都,千代田区,丸の内３丁目１番１号東京共同会計事務所内,,13,101,1000005,,,,,,,2023-11-10,1,,,,,ナノ,0
1807,7010401178403,新規,0,2023-11-10,2023-11-10,エムホールディングス株式会社,,株式会社,東京都,港区,南青山３丁目１番３６号青山丸竹ビル６Ｆ,,13,103,1070062,,,,,,,2023-11-10,1,,,,,エムホールディングス,0
1808,7010401178428,新規,0,2023-11-10,2023-11-10,株式会社Ａｔｔｒａｃｔ　Ａｔｔｅｎｔｉｏｎ,,株式会社,東京都,港区,白金台２丁目２５番５号,,13,103,1080071,,,,,,,2023-11-10,1,,,,,アトラクトアテンション,0
1809,7010401178469,新規,0,2023-11-10,2023-11-10,株式会社クマさんホールディングス,,株式会社,東京都,港区,高輪３丁目１２番８号,,13,103,1080074,,,,,,,2023-11-10,1,,,,,クマサンホールディングス,0
1814,7010403031320,新規,0,2023-11-10,2023-11-10,合同会社Ｍｉｌｌｅ　ａｒｔｅ,,合同会社,東京都,港区,海岸３丁目８番１７－８０５号,,13,103,1080022,,,,,,,2023-11-10,1,,,,,ミッレアルテ,0
1815,7010403031345,新規,0,2023-11-10,2023-11-10,合同会社キューインベストメント,,合同会社,東京都,港区,元赤坂１丁目１番８号株式会社赤坂国際会計内,,13,103,1070051,,,,,,,2023-11-10,1,,,,,キューインベストメント,0
1822,7010601064114,新規,0,2023-11-10,2023-11-10,みらいま株式会社,,株式会社,東京都,江東区,亀戸３丁目１９番６号三本木コーポ２０２,,13,108,1360071,,,,,,,2023-11-10,1,,,,,ミライマ,0
1850,7011001158043,新規,0,2023-11-10,2023-11-10,株式会社麦田商事,,株式会社,東京都,渋谷区,富ヶ谷１丁目１４番１４号３階,,13,113,1510063,,,,,,,2023-11-10,1,,,,,ムギタショウジ,0
1851,7011001158068,新規,0,2023-11-10,2023-11-10,株式会社キャリーブーケ,,株式会社,東京都,目黒区,碑文谷５丁目２番５号Ｔ＆Ａビル５階,,13,110,1520003,,,,,,,2023-11-10,1,,,,,キャリーブーケ,0
1852,7011001158092,新規,0,2023-11-10,2023-11-10,株式会社Ｒ’ｓ　ＰＨＡＲＭＡＣＹ,,株式会社,東京都,目黒区,祐天寺２丁目１６番１号倉方ビル１０１,,13,110,1530052,,,,,,,2023-11-10,1,,,,,アールズファーマシー,0
1855,7011003017866,新規,0,2023-11-10,2023-11-10,合同会社ＷＡｎ’Ｃ,,合同会社,東京都,渋谷区,渋谷２丁目１９－１５宮益坂ビルディング６０９,,13,113,1500002,,,,,,,2023-11-10,1,,,,,ワンク,0
1857,7011101105085,新規,0,2023-11-10,2023-11-10,株式会社ＮＡＲＵＭＩ,,株式会社,東京都,新宿区,西新宿３丁目２－９,,13,104,1600023,,,,,,,2023-11-10,1,,,,,ナルミ,0
1862,7011503005841,新規,0,2023-11-10,2023-11-10,ＢＲＯジャパン合同会社,,合同会社,東京都,北区,上中里３丁目１８番５－２０４号ホワイトプラザ加瀬,,13,117,1140016,,,,,,,2023-11-10,1,,,,,ブロジャパン,0
1865,7011601027259,新規,0,2023-11-10,2023-11-10,株式会社ＳＢＴテクノアクセル,,株式会社,東京都,練馬区,春日町４丁目３６－１１サンライズ春日２０３号室,,13,120,1790074,,,,,,,2023-11-10,1,,,,,エスビーティーテクノアクセル,0
1869,7011703003645,新規,0,2023-11-10,2023-11-10,合同会社つむぎ運輸,,合同会社,東京都,江戸川区,北篠崎１丁目４－１６アベニール１０６,,13,123,1330053,,,,,,,2023-11-10,1,,,,,ツムギウンユ,0
1870,7011703003653,新規,0,2023-11-10,2023-11-10,合同会社白,,合同会社,東京都,江戸川区,東葛西５丁目１２番６号カワマンビル２階,,13,123,1340084,,,,,,,2023-11-10,1,,,,,シロ,0
1871,7011801043320,新規,0,2023-11-10,2023-11-10,林産業株式会社,,株式会社,東京都,葛飾区,金町５丁目２３番８号８０１号室,,13,122,1250042,,,,,,,2023-11-10,1,,,,,ハヤシサンギョウ,0
1872,7011801043337,新規,0,2023-11-10,2023-11-10,株式会社ＭＥ,,株式会社,東京都,足立区,花畑２丁目１７番７号マスターピース２０２,,13,121,1210061,,,,,,,2023-11-10,1,,,,,エムイー,0
1877,7012401041202,新規,0,2023-11-10,2023-11-10,ＮＳＤ株式会社,,株式会社,東京都,調布市,深大寺東町２丁目１８番地５－２Ｆ,,13,208,1820012,,,,,,,2023-11-10,1,,,,,エヌエスディー,0
1880,7012701017942,新規,0,2023-11-10,2023-11-10,株式会社ｏｎ‐ｃｉｔｅ,,株式会社,東京都,小平市,学園西町１丁目２９番１号Ｂ－４１５号,,13,211,1870045,,,,,,,2023-11-10,1,,,,,オンサイト,0
1885,7013301051605,新規,0,2023-11-10,2023-11-10,Ａｒｔｓ　ｍｏｄｅｌ株式会社,,株式会社,東京都,豊島区,東池袋１丁目１７番１１号パークハイツ池袋１１０５号,,13,116,1700013,,,,,,,2023-11-10,1,,,,,アーツモデル,0
1894,7020001154357,新規,0,2023-11-10,2023-11-10,ＯｒｉｇｉｎＴｅｃｈ株式会社,,株式会社,神奈川県,横浜市西区,浅間町１丁目１３－４共益ビル７Ｆ,,14,103,2200072,,,,,,,2023-11-10,1,,,,,オリジンテック,0
1895,7020001154415,新規,0,2023-11-10,2023-11-10,株式会社マイスペース,,株式会社,神奈川県,川崎市幸区,戸手２丁目１１番１４号,,14,132,2120005,,,,,,,2023-11-10,1,,,,,マイスペース,0
1896,7020001154431,新規,0,2023-11-10,2023-11-10,株式会社ｍａｔｓｕｒｉｋａ,,株式会社,神奈川県,横浜市磯子区,岡村８丁目２番６号,,14,107,2350021,,,,,,,2023-11-10,1,,,,,マツリカ,0
1897,7020003024913,新規,0,2023-11-10,2023-11-10,合同会社Ｍｉｎｅ．,,合同会社,神奈川県,横浜市都筑区,川和台３３－２７アンビエラＢ１０１,,14,118,2240056,,,,,,,2023-11-10,1,,,,,マインドット,0
1899,7020005016173,新規,0,2023-11-10,2023-11-10,一般社団法人秀,,その他の設立登記法人,神奈川県,横浜市旭区,中白根４丁目２８番１号,,14,112,2410004,,,,,,,2023-11-10,1,,,,,シュウ,0
1903,7021001080725,新規,0,2023-11-10,2023-11-10,湘南アセット株式会社,,株式会社,神奈川県,平塚市,錦町２番１６号,,14,203,2540044,,,,,,,2023-11-10,1,,,,,ショウナンアセット,0
1905,7021003013781,新規,0,2023-11-10,2023-11-10,合同会社ＧＯＯＤ,,合同会社,神奈川県,藤沢市,用田５９３―１１,,14,205,2520821,,,,,,,2023-11-10,1,,,,,グッド,0
1913,7030001157094,新規,0,2023-11-10,2023-11-10,株式会社ハーベストワン,,株式会社,埼玉県,朝霞市,三原４丁目１３番２２－５０３号,,11,227,3510025,,,,,,,2023-11-10,1,,,,,ハーベストワン,0
1925,7030003022965,新規,0,2023-11-10,2023-11-10,三洋合同会社,,合同会社,埼玉県,川口市,西川口１丁目３０番２０号１Ｆ,,11,203,3320021,,,,,,,2023-11-10,1,,,,,サンヨウ,0
1926,7030003022973,新規,0,2023-11-10,2023-11-10,ｓｅａｃｓ合同会社,,合同会社,埼玉県,川越市,砂新田１丁目１３番地４６（アヴァンセ２０１号室）,,11,201,3501137,,,,,,,2023-11-10,1,,,,,シークス,0
1936,7040001130835,新規,0,2023-11-10,2023-11-10,株式会社仲里興業,,株式会社,千葉県,松戸市,二十世紀が丘美野里町５８番地の６,,12,207,2710081,,,,,,,2023-11-10,1,,,,,ナカザトコウギョウ,0
1937,7040001130868,新規,0,2023-11-10,2023-11-10,株式会社ケーティーコネクト,,株式会社,千葉県,松戸市,松戸新田３９６番地の３１,,12,207,2702241,,,,,,,2023-11-10,1,,,,,ケーティーコネクト,0
1938,7040001130892,新規,0,2023-11-10,2023-11-10,株式会社パシックケアサービス,,株式会社,千葉県,市原市,千種２丁目１６番地４８,,12,219,2990109,,,,,,,2023-11-10,1,,,,,パシックケアサービス,0
1941,7040003023698,新規,0,2023-11-10,2023-11-10,合同会社紬,,合同会社,千葉県,習志野市,実籾５丁目３４番１５号,,12,216,2750002,,,,,,,2023-11-10,1,,,,,ツムグ,0
1942,7040003023715,新規,0,2023-11-10,2023-11-10,合同会社スマートアカウンティング,,合同会社,千葉県,松戸市,上本郷４１２９番地,,12,207,2710064,,,,,,,2023-11-10,1,,,,,スマートアカウンティング,0
1943,7040003023723,新規,0,2023-11-10,2023-11-10,合同会社イーストアップ,,合同会社,千葉県,銚子市,愛宕町３３９０番地,,12,202,2880007,,,,,,,2023-11-10,1,,,,,イーストアップ,0
1945,7050001053770,新規,0,2023-11-10,2023-11-10,株式会社水橋塗装,,株式会社,茨城県,土浦市,上高津１７２０番地１０,,08,203,3000811,,,,,,,2023-11-10,1,,,,,ミズハシトソウ,0
1946,7050001053812,新規,0,2023-11-10,2023-11-10,株式会社リード,,株式会社,茨城県,筑西市,伊讃美７７９番地１,,08,227,3080853,,,,,,,2023-11-10,1,,,,,リード,0
1963,7100003007257,新規,0,2023-11-10,2023-11-10,ＡＵＴＯＣＡＲＬ＆Ｄ合同会社,,合同会社,長野県,上伊那郡箕輪町,大字中箕輪１２５１４番地,,20,383,3994601,,,,,,,2023-11-10,1,,,,,アウトカーエルアンドディ,0
1980,7120001259286,新規,0,2023-11-10,2023-11-10,株式会社Ｌａ　Ｂｒｉｌｌｅｒ　Ｃｈｅｖａｌ,,株式会社,大阪府,門真市,巣本町６番５号,,27,223,5710001,,,,,,,2023-11-10,1,,,,,ラブリエシュバル,0
1981,7120001259492,新規,0,2023-11-10,2023-11-10,株式会社洸,,株式会社,大阪府,大阪市東成区,東中本２丁目６番２０号,,27,115,5370021,,,,,,,2023-11-10,1,,,,,コウ,0
1982,7120001259550,新規,0,2023-11-10,2023-11-10,株式会社ＩＳＳＡ‐ＡＮ,,株式会社,大阪府,大阪市中央区,大手通１丁目１番１号,,27,128,5400021,,,,,,,2023-11-10,1,,,,,イッサアン,0
1983,7120001259699,新規,0,2023-11-10,2023-11-10,Ｌｕｋｅ株式会社,,株式会社,大阪府,大阪市北区,梅田１丁目１－３大阪駅前第３ビル２９階１－１－１号室,,27,127,5300001,,,,,,,2023-11-10,1,,,,,ルーク,0
1984,7120001259724,新規,0,2023-11-10,2023-11-10,株式会社ｏｎｅ‐ｗｉｔｈ,,株式会社,大阪府,大阪市東成区,大今里１丁目１０番２４号アプローズ大今里６０１号室,,27,115,5370012,,,,,,,2023-11-10,1,,,,,ワンウィズ,0
1989,7120003025298,新規,0,2023-11-10,2023-11-10,合同会社Ｔｕｍｕｇｉ,,合同会社,大阪府,大阪市東住吉区,桑津４丁目１３番２１－３０３号,,27,121,5460041,,,,,,,2023-11-10,1,,,,,ツムギ,0
1990,7120003025307,新規,0,2023-11-10,2023-11-10,合同会社Ｙ’ｓコントラプンクト,,合同会社,大阪府,大阪市鶴見区,諸口６丁目２番２９－３０１号室,,27,124,5380051,,,,,,,2023-11-10,1,,,,,ワイズコントラプンクト,0
1991,7120003025323,新規,0,2023-11-10,2023-11-10,リビエール合同会社,,合同会社,大阪府,大阪市淀川区,西三国３丁目１７番２号,,27,123,5320006,,,,,,,2023-11-10,1,,,,,リビエール,0
2002,7122003002723,新規,0,2023-11-10,2023-11-10,合同会社倉根金属製作所,,合同会社,大阪府,大東市,新田中町３番４０号,,27,218,5740056,,,,,,,2023-11-10,1,,,,,クラネキンゾクセイサクショ,0
2005,7130001075666,新規,0,2023-11-10,2023-11-10,株式会社ライフケア園部,,株式会社,京都府,南丹市,園部町木崎町正尺１３番地２アーク参番館１０４,,26,213,6220015,,,,,,,2023-11-10,1,,,,,ライフケアソノベ,0
2008,7130003009119,新規,0,2023-11-10,2023-11-10,合同会社コスモス,,合同会社,京都府,京都市右京区,西院西三蔵町２８番地９ウエストハイツ３０１号,,26,108,6150027,,,,,,,2023-11-10,1,,,,,コスモス,0
2010,7140001132210,新規,0,2023-11-10,2023-11-10,株式会社ｓｗｅｌｌ,,株式会社,兵庫県,川西市,東久代２丁目８番３号,,28,217,6660023,,,,,,,2023-11-10,1,,,,,スウェル,0
2011,7140001132301,新規,0,2023-11-10,2023-11-10,榮川住設株式会社,,株式会社,兵庫県,明石市,二見町西二見駅前３丁目６２－１,,28,203,6740095,,,,,,,2023-11-10,1,,,,,エイカワジュウセツ,0
2012,7140003019793,新規,0,2023-11-10,2023-11-10,合同会社美心,,合同会社,兵庫県,三木市,志染町中自由が丘２丁目４０５番地の３,,28,215,6730552,,,,,,,2023-11-10,1,,,,,ビシン,0
2024,7180001158887,新規,0,2023-11-10,2023-11-10,株式会社ウェルネスター,,株式会社,愛知県,名古屋市中区,大須４丁目１番９号菱水ビル２階,,23,106,4600011,,,,,,,2023-11-10,1,,,,,ウェルネスター,0
2028,7180005020416,新規,0,2023-11-10,2023-11-10,一般社団法人レガーメとこなめ,,その他の設立登記法人,愛知県,常滑市,末広町１丁目９８番地の４,,23,216,4790846,,,,,,,2023-11-10,1,,,,,レガーメトコナメ,0
2034,7200001041891,新規,0,2023-11-10,2023-11-10,株式会社ＮＥＷ　ＢＩＲＤ．,,株式会社,岐阜県,岐阜市,西河渡２丁目４７番地９,,21,201,5010106,,,,,,,2023-11-10,1,,,,,ニューバード,0
2054,7290001103709,新規,0,2023-11-10,2023-11-10,株式会社レッドピーチジャパン,,株式会社,福岡県,福岡市博多区,博多駅前２丁目１７番１号,,40,132,8120011,,,,,,,2023-11-10,1,,,,,レッドピーチジャパン,0
2055,7290001103717,新規,0,2023-11-10,2023-11-10,株式会社ＢＩＡＮＣＯ　ＳＯＮＡＲＥ,,株式会社,福岡県,柳川市,三橋町柳河４２６－２,,40,207,8320806,,,,,,,2023-11-10,1,,,,,ビアンコソナーレ,0
2059,7290003014598,新規,0,2023-11-10,2023-11-10,合同会社ちなそ,,合同会社,福岡県,宗像市,城西ヶ丘３丁目２３番地５５,,40,220,8113404,,,,,,,2023-11-10,1,,,,,チナソ,0
2081,7360001032768,新規,0,2023-11-10,2023-11-10,株式会社沖縄ベンダース,,株式会社,沖縄県,浦添市,宮城２丁目１５番３－１０１号,,47,208,9012126,,,,,,,2023-11-10,1,,,,,オキナワベンダース,0
2095,7380003005613,新規,0,2023-11-10,2023-11-10,合同会社ねこのてっく,,合同会社,福島県,二本松市,油井字大窪１０９番地３２,,07,210,9691404,,,,,,,2023-11-10,1,,,,,ネコノテック,0
2102,7430001090379,新規,0,2023-11-10,2023-11-10,Ｍｔ．Ｔｏｍｍｙ株式会社,,株式会社,北海道,札幌市東区,北八条東４丁目１番２０号,,01,103,0600908,,,,,,,2023-11-10,1,,,,,マウントトミー,0
2103,7430001090412,新規,0,2023-11-10,2023-11-10,小笠原フローリング株式会社,,株式会社,北海道,夕張市,紅葉山２４９番地１０,,01,209,0680755,,,,,,,2023-11-10,1,,,,,オガサワラフローリング,0
2104,7430003015549,新規,0,2023-11-10,2023-11-10,合同会社ＳＭＫ電装,,合同会社,北海道,札幌市西区,西野八条５丁目９番１０号,,01,107,0630038,,,,,,,2023-11-10,1,,,,,エスエムケーデンソウ,0
2105,7430003015581,新規,0,2023-11-10,2023-11-10,パワフル合同会社,,合同会社,北海道,札幌市中央区,北二条西２丁目３２番地,,01,101,0600002,,,,,,,2023-11-10,1,,,,,パワフル,0
2106,7430003015607,新規,0,2023-11-10,2023-11-10,テムズ合同会社,,合同会社,北海道,札幌市中央区,北四条西１１丁目７５番地,,01,101,0600004,,,,,,,2023-11-10,1,,,,,テムズ,0
2121,8010001239926,新規,0,2023-11-10,2023-11-10,株式会社Ｊ‐ＦＵＮ１２,,株式会社,東京都,千代田区,丸の内１丁目８番２号,,13,101,1000005,,,,,,,2023-11-10,1,,,,,ジェイファントゥエルブ,0
2122,8010001239950,新規,0,2023-11-10,2023-11-10,株式会社ＴＩＭＥＬＥＦＴ,,株式会社,東京都,千代田区,丸の内１丁目８－３丸の内トラストタワー本館２０階,,13,101,1000005,,,,,,,2023-11-10,1,,,,,タイムレフト,0
2123,8010001240000,新規,0,2023-11-10,2023-11-10,株式会社ｎｏ　ｓｕｉｔ,,株式会社,東京都,中央区,日本橋室町１丁目１１番１２号日本橋水野ビル７階,,13,102,1030022,,,,,,,2023-11-10,1,,,,,ノースーツ,0
2127,8010003042114,新規,0,2023-11-10,2023-11-10,グローバルインテグレートソーシング合同会社,,合同会社,東京都,千代田区,有楽町１丁目５番２号東宝日比谷プロムナードビル１１階,,13,101,1000006,,,,,,,2023-11-10,1,,,,,グローバルインテグレートソーシング,0
2128,8010003042155,新規,0,2023-11-10,2023-11-10,合同会社ＩＳＴレジデンス３,,合同会社,東京都,千代田区,丸の内３丁目１番１号東京共同会計事務所内,,13,101,1000005,,,,,,,2023-11-10,1,,,,,アイエスティレジデンススリー,0
2129,8010003042188,新規,0,2023-11-10,2023-11-10,合同会社Ａｎｙｆｉｎｅ,,合同会社,東京都,中央区,日本橋浜町３丁目３９－１０－１００４号,,13,102,1030007,,,,,,,2023-11-10,1,,,,,エニーファイン,0
2130,8010005037475,新規,0,2023-11-10,2023-11-10,一般社団法人展示会評価鑑定協会,,その他の設立登記法人,東京都,中央区,新富１丁目１７番６号,,13,102,1040041,,,,,,,2023-11-10,1,,,,,テンジカイヒョウカカンテイキョウカイ,0
2131,8010005037483,新規,0,2023-11-10,2023-11-10,一般社団法人ＩＳＴレジデンス３,,その他の設立登記法人,東京都,千代田区,丸の内３丁目１番１号東京共同会計事務所内,,13,101,1000005,,,,,,,2023-11-10,1,,,,,アイエスティレジデンススリー,0
2132,8010005037491,新規,0,2023-11-10,2023-11-10,一般社団法人ＫＥＬＬＹ　ＣＬＵＢ　ＪＡＰＯＮ,,その他の設立登記法人,東京都,中央区,銀座１丁目２７番８号セントラルビル７０３号,,13,102,1040061,,,,,,,2023-11-10,1,,,,,ケリークラブジャポン,0
2134,8010101015888,新規,0,2023-11-10,2023-11-10,株式会社メルシーホールディングス,,株式会社,東京都,八王子市,館町４９６番地,,13,201,1930944,,,,,,,2023-11-10,1,,,,,メルシーホールディングス,0
2138,8010401029084,新規,0,2023-11-10,2023-11-10,株式会社武蔵総合スポーツランド,,株式会社,東京都,港区,南青山７丁目８番４号,,13,103,1070062,,,,,,,2023-11-10,1,,,,,ムサシソウゴウスポーツランド,0
2145,8010401178385,新規,0,2023-11-10,2023-11-10,株式会社セキュライ,,株式会社,東京都,港区,虎ノ門３丁目８－２１虎ノ門３３森ビル６階,,13,103,1050001,,,,,,,2023-11-10,1,,,,,セキュライ,0
2146,8010401178393,新規,0,2023-11-10,2023-11-10,ＳＫＹＧＲＡＮＥ株式会社,,株式会社,東京都,港区,北青山１丁目３番１号アールキューブ青山３階,,13,103,1070061,,,,,,,2023-11-10,1,,,,,スカイグレイン,0
2148,8010403031344,新規,0,2023-11-10,2023-11-10,グーニーズ合同会社,,合同会社,東京都,港区,南麻布３丁目２０番１号５階,,13,103,1060047,,,,,,,2023-11-10,1,,,,,グーニーズ,0
2168,8011001157754,新規,0,2023-11-10,2023-11-10,ナビキッズケア株式会社,,株式会社,東京都,渋谷区,桜丘町３１番１４号岡三桜丘ビル南館,,13,113,1500031,,,,,,,2023-11-10,1,,,,,ナビキッズケア,0
2169,8011001158091,新規,0,2023-11-10,2023-11-10,ＫＩＲＩＫＯ．ｔｅｃｈ株式会社,,株式会社,東京都,渋谷区,円山町５番５号Ｎａｖｉ渋谷Ｖ３階,,13,113,1500044,,,,,,,2023-11-10,1,,,,,キリコドットテック,0
2170,8011003017865,新規,0,2023-11-10,2023-11-10,マークライズ合同会社,,合同会社,東京都,渋谷区,道玄坂１丁目１０番８号渋谷道玄坂東急ビル２Ｆ－Ｃ,,13,113,1500043,,,,,,,2023-11-10,1,,,,,マークライズ,0
2171,8011003017907,新規,0,2023-11-10,2023-11-10,合同会社フィルムボーイ,,合同会社,東京都,渋谷区,道玄坂２丁目１５番１号,,13,113,1500043,,,,,,,2023-11-10,1,,,,,フィルムボーイ,0
2173,8011101105068,新規,0,2023-11-10,2023-11-10,株式会社リユースアソシエーション,,株式会社,東京都,新宿区,西新宿１丁目２－７,,13,104,1600023,,,,,,,2023-11-10,1,,,,,リユースアソシエーション,0
2174,8011101105084,新規,0,2023-11-10,2023-11-10,Ｆａｒｏ株式会社,,株式会社,東京都,新宿区,百人町４丁目５番２号,,13,104,1690073,,,,,,,2023-11-10,1,,,,,ファロ,0
2177,8011201025042,新規,0,2023-11-10,2023-11-10,ＳＨＩエンジニアリング株式会社,,株式会社,東京都,中野区,南台３丁目４６番３３号グレースストーン２０３,,13,114,1640014,,,,,,,2023-11-10,1,,,,,エスエイチアイエンジニアリング,0
2186,8011601027258,新規,0,2023-11-10,2023-11-10,株式会社ＮＥＸＵＳ,,株式会社,東京都,練馬区,氷川台４丁目４７番１８号,,13,120,1790084,,,,,,,2023-11-10,1,,,,,ネクサス,0
2190,8011801043328,新規,0,2023-11-10,2023-11-10,懐内貿易株式会社,,株式会社,東京都,葛飾区,四つ木４丁目１３－１６－１０５室,,13,122,1240011,,,,,,,2023-11-10,1,,,,,カイナイボウエキ,0
2199,8013301051612,新規,0,2023-11-10,2023-11-10,株式会社Ｒｅｇｏｌｉｔｈ,,株式会社,東京都,豊島区,西池袋５丁目２６－１６,,13,116,1710021,,,,,,,2023-11-10,1,,,,,レゴリス,0
2209,8020001154414,新規,0,2023-11-10,2023-11-10,株式会社カナデ企画,,株式会社,神奈川県,横浜市南区,中里１丁目２番２３号－４０２,,14,105,2320063,,,,,,,2023-11-10,1,,,,,カナデキカク,0
2219,8020003024937,新規,0,2023-11-10,2023-11-10,タレス合同会社,,合同会社,神奈川県,横浜市港北区,新吉田東４丁目１４番３１号,,14,109,2230058,,,,,,,2023-11-10,1,,,,,タレス,0
2220,8021001080716,新規,0,2023-11-10,2023-11-10,株式会社Ｚ‐ＮＥＸＴ,,株式会社,神奈川県,大和市,南林間１丁目１１番１２号,,14,213,2420006,,,,,,,2023-11-10,1,,,,,ジーネクスト,0
2225,8021003013780,新規,0,2023-11-10,2023-11-10,Ｓ‐ＧＲＯＵＰ　ＰＲＯＧＲＥＳＳ合同会社,,合同会社,神奈川県,海老名市,柏ケ谷１１７番６号,,14,215,2430402,,,,,,,2023-11-10,1,,,,,エスグループプログレス,0
2226,8021003013797,新規,0,2023-11-10,2023-11-10,合同会社Ｋ２ａｕｔｏ　ｆａｃｔｏｒｙ,,合同会社,神奈川県,相模原市中央区,並木３丁目１０番２号,,14,152,2520228,,,,,,,2023-11-10,1,,,,,ケーツーオートファクトリー,0
2235,8030001157093,新規,0,2023-11-10,2023-11-10,瀚嘉国際株式会社,,株式会社,埼玉県,川口市,上青木西１丁目１８番１２号,,11,203,3330845,,,,,,,2023-11-10,1,,,,,ヒロカコクサイ,0
2236,8030001157102,新規,0,2023-11-10,2023-11-10,株式会社渡辺板金,,株式会社,埼玉県,新座市,石神３丁目８番３号,,11,230,3520033,,,,,,,2023-11-10,1,,,,,ワタナベバンキン,0
2237,8030001157119,新規,0,2023-11-10,2023-11-10,株式会社ゆめあす,,株式会社,埼玉県,坂戸市,薬師町２３３９番地１９,,11,239,3500229,,,,,,,2023-11-10,1,,,,,ユメアス,0
2246,8030003022972,新規,0,2023-11-10,2023-11-10,ＹＪ　Ｂｕｓｉｎｅｓｓ合同会社,,合同会社,埼玉県,蕨市,塚越７丁目３７番１６号,,11,223,3350002,,,,,,,2023-11-10,1,,,,,ワイジェイビジネス,0
2250,8040001130875,新規,0,2023-11-10,2023-11-10,株式会社エムエムプランニング,,株式会社,千葉県,市川市,市川南１丁目７番１４号,,12,203,2720033,,,,,,,2023-11-10,1,,,,,エムエムプランニング,0
2251,8040001130883,新規,0,2023-11-10,2023-11-10,株式会社マカミヴァレー,,株式会社,千葉県,船橋市,本郷町７１９番地６,,12,204,2730033,,,,,,,2023-11-10,1,,,,,マカミヴァレー,0
2257,8040003023714,新規,0,2023-11-10,2023-11-10,ネイビー合同会社,,合同会社,千葉県,船橋市,葛飾町２丁目３４０番地,,12,204,2730032,,,,,,,2023-11-10,1,,,,,ネイビー,0
2259,8040005022193,新規,0,2023-11-10,2023-11-10,医療法人社団明潮会,,その他の設立登記法人,千葉県,銚子市,双葉町６番地２５おうち診療所ビル２階,,12,202,2880048,,,,,,,2023-11-10,1,,,,,メイチョウカイ,0
2260,8040005022202,新規,0,2023-11-10,2023-11-10,一般社団法人ＨＩＴ,,その他の設立登記法人,千葉県,浦安市,堀江１丁目２９番９号,,12,227,2790041,,,,,,,2023-11-10,1,,,,,エイチアイティ,0
2263,8080003003092,新規,0,2023-11-10,2023-11-10,Ｃｅｙｌｏｎ　Ｔｒａｄｉｎｇ合同会社,,合同会社,静岡県,静岡市清水区,由比町屋原５２,,22,103,4213105,,,,,,,2023-11-10,1,,,,,セイロントレーディング,0
2286,8120001259525,新規,0,2023-11-10,2023-11-10,株式会社ＫＡＭＩＩ　ＷＡＴＣＨ,,株式会社,大阪府,大阪市中央区,心斎橋筋１丁目３番４号,,27,128,5420085,,,,,,,2023-11-10,1,,,,,カミイウォッチ,0
2287,8120001259673,新規,0,2023-11-10,2023-11-10,株式会社Ｈｙｄｅ　ｏｕｔ,,株式会社,大阪府,大阪市天王寺区,悲田院町１番３８－１６１４号,,27,109,5430055,,,,,,,2023-11-10,1,,,,,ハイドアウト,0
2288,8120001259707,新規,0,2023-11-10,2023-11-10,株式会社アクアグループ,,株式会社,大阪府,大阪市生野区,新今里４丁目１番３号ステーションハイツ今里２０２,,27,116,5440001,,,,,,,2023-11-10,1,,,,,アクアグループ,0
2289,8120001259715,新規,0,2023-11-10,2023-11-10,株式会社一商事,,株式会社,大阪府,大阪市福島区,吉野４丁目７－１７,,27,103,5530006,,,,,,,2023-11-10,1,,,,,ハジメショウジ,0
2290,8120001259723,新規,0,2023-11-10,2023-11-10,株式会社中位,,株式会社,大阪府,大阪市中央区,玉造２丁目２番５－２０２号,,27,128,5400004,,,,,,,2023-11-10,1,,,,,ナカイ,0
2291,8120001259748,新規,0,2023-11-10,2023-11-10,株式会社レイケース,,株式会社,大阪府,大阪市北区,梅田１丁目２－２大阪駅前第２ビル１２－１２,,27,127,5300001,,,,,,,2023-11-10,1,,,,,レイケース,0
2293,8120003025223,新規,0,2023-11-10,2023-11-10,合同会社ＣＵＯＲＥ,,合同会社,大阪府,大阪市中央区,宗右衛門町４番９号キャナルプラザ２階,,27,128,5420084,,,,,,,2023-11-10,1,,,,,クオーレ,0
2295,8120005023984,新規,0,2023-11-10,2023-11-10,一般社団法人ＣＫ‐ＩＳＨ,,その他の設立登記法人,大阪府,大阪市北区,中之島３丁目６番１６号,,27,127,5300005,,,,,,,2023-11-10,1,,,,,シーケーアイエスエイチ,0
2300,8120101068512,新規,0,2023-11-10,2023-11-10,株式会社エナミ,,株式会社,大阪府,堺市堺区,北向陽町１丁３番１４号,,27,141,5900071,,,,,,,2023-11-10,1,,,,,エナミ,0
2308,8130001075657,新規,0,2023-11-10,2023-11-10,株式会社Ａｏｉベストサービス,,株式会社,京都府,京都市右京区,太秦安井西沢町５番地１グリーンズタウン２１、１０５号,,26,108,6168083,,,,,,,2023-11-10,1,,,,,アオイベストサービス,0
2314,8140001132168,新規,0,2023-11-10,2023-11-10,Ｇｌｏｒｉｏｕｓ　Ｉｎｖｅｓｔｍｅｎｔ株式会社,,株式会社,兵庫県,姫路市,五軒邸３丁目１７番地,,28,201,6700854,,,,,,,2023-11-10,1,,,,,グロリアスインベストメント,0
2315,8140001132259,新規,0,2023-11-10,2023-11-10,株式会社オーセンティック,,株式会社,兵庫県,姫路市,手柄４番地４,,28,201,6700972,,,,,,,2023-11-10,1,,,,,オーセンティック,0
2316,8140001132291,新規,0,2023-11-10,2023-11-10,株式会社Ｂａｂｙ　ｔｏｕｃｈ,,株式会社,兵庫県,尼崎市,西長洲町３丁目３番１０号,,28,202,6600805,,,,,,,2023-11-10,1,,,,,ベイビータッチ,0
2317,8140001132300,新規,0,2023-11-10,2023-11-10,ＣＡＲＴＳ　ｍｏｂｉｌｉｔｙ株式会社,,株式会社,兵庫県,神戸市兵庫区,新開地４丁目４－１５－３Ｆ,,28,105,6520811,,,,,,,2023-11-10,1,,,,,カーツモビリティ,0
2325,8180001158886,新規,0,2023-11-10,2023-11-10,株式会社知多教映,,株式会社,愛知県,常滑市,新田町１丁目３８番地,,23,216,4790855,,,,,,,2023-11-10,1,,,,,チタキョウエイ,0
2330,8180301038012,新規,0,2023-11-10,2023-11-10,マスト株式会社,,株式会社,愛知県,額田郡幸田町,大字芦谷字福田１０９番地,00132597,23,501,4440116,,,,,,,2023-11-10,1,,,,,マスト,0
2334,8200003006140,新規,0,2023-11-10,2023-11-10,合同会社ヒューマンズ飛騨,,合同会社,岐阜県,飛騨市,宮川町林字石原４６７番地,,21,217,5094423,,,,,,,2023-11-10,1,,,,,ヒューマンズヒダ,0
2336,8210003001719,新規,0,2023-11-10,2023-11-10,合同会社好日企画,,合同会社,福井県,南条郡南越前町,脇本第１７号３番地の２,,18,404,9190227,,,,,,,2023-11-10,1,,,,,コウニチキカク,0
2340,8220001025685,新規,0,2023-11-10,2023-11-10,株式会社一忠建築設計工務店,,株式会社,石川県,能美市,福島町ソ２０番地,,17,211,9290112,,,,,,,2023-11-10,1,,,,,イッチュウケンチクセッケイコウムテン,0
2351,8290003014597,新規,0,2023-11-10,2023-11-10,Ｇｌｏｂａｌ　Ｙｏｇｉｓ合同会社,,合同会社,福岡県,福岡市中央区,天神４丁目６番２８号天神ファーストビル７階,,40,133,8100001,,,,,,,2023-11-10,1,,,,,グローバルヨギーズ,0
2355,8330001031458,新規,0,2023-11-10,2023-11-10,ワークバランス株式会社,,株式会社,熊本県,熊本市東区,八反田３丁目２２番６６号,,43,102,8618034,,,,,,,2023-11-10,1,,,,,ワークバランス,0
2361,8360001032800,新規,0,2023-11-10,2023-11-10,株式会社リゾートクリエイトＷｅｓｔ,,株式会社,沖縄県,宮古島市,平良字久貝１０６７－１３丸吉ハイツ３０５,,47,214,9060015,,,,,,,2023-11-10,1,,,,,リゾートクリエイトウエスト,0
2363,8360005006932,新規,0,2023-11-10,2023-11-10,ｎｅｏ社会保険労務士法人,,その他の設立登記法人,沖縄県,浦添市,西原１丁目４番１号新里事務所２０３号室,,47,208,9012101,,,,,,,2023-11-10,1,,,,,ネオ,0
2372,8370003006371,新規,0,2023-11-10,2023-11-10,合同会社オフィスアユーラ,,合同会社,宮城県,仙台市泉区,南光台２丁目５番８号,,04,105,9818003,,,,,,,2023-11-10,1,,,,,オフィスアユーラ,0
2376,8390001017419,新規,0,2023-11-10,2023-11-10,ワイヤ株式会社,,株式会社,山形県,東置賜郡川西町,大字上小松３３２９番地,,06,382,9990121,,,,,,,2023-11-10,1,,,,,ワイヤ,0
2391,8430003015580,新規,0,2023-11-10,2023-11-10,マイルド合同会社,,合同会社,北海道,札幌市中央区,北二条西２丁目３２番地,,01,101,0600002,,,,,,,2023-11-10,1,,,,,マイルド,0
2392,8430003015622,新規,0,2023-11-10,2023-11-10,合同会社エターナルフューチャー,,合同会社,北海道,札幌市中央区,南七条西２３丁目１－２０－２１１,,01,101,0640807,,,,,,,2023-11-10,1,,,,,エターナルフューチャー,0
2393,8430003015630,新規,0,2023-11-10,2023-11-10,合同会社Ｌｉｅｎ　ｄｕ　Ｃｏｃｏ,,合同会社,北海道,札幌市東区,北十一条東１０丁目５－１１舘内方,,01,103,0650011,,,,,,,2023-11-10,1,,,,,リアンドココ,0
2423,9010003042096,新規,0,2023-11-10,2023-11-10,秋葉原合同会社,,合同会社,東京都,千代田区,神田和泉町１番地６－１６ヤマトビル４０５,,13,101,1010024,,,,,,,2023-11-10,1,,,,,アキハバラ,0
2424,9010003042170,新規,0,2023-11-10,2023-11-10,タクミオ合同会社,,合同会社,東京都,中央区,銀座１丁目２２番１１号銀座大竹ビジデンス２Ｆ,,13,102,1040061,,,,,,,2023-11-10,1,,,,,タクミオ,0
2425,9010005037499,新規,0,2023-11-10,2023-11-10,ＺＥＣ２一般社団法人,,その他の設立登記法人,東京都,千代田区,霞が関３丁目２番５号,,13,101,1000013,,,,,,,2023-11-10,1,,,,,ゼックニ,0
2430,9010401178401,新規,0,2023-11-10,2023-11-10,Ｓｔｕｄｉｏ　Ｎｉｎ株式会社,,株式会社,東京都,港区,北青山２丁目１２番３７号,,13,103,1070061,,,,,,,2023-11-10,1,,,,,スタジオニン,0
2434,9010501051301,新規,0,2023-11-10,2023-11-10,株式会社瑞盈,,株式会社,東京都,台東区,台東２丁目２０番１３号,,13,106,1100016,,,,,,,2023-11-10,1,,,,,ズイエイ,0
2451,9011001157753,新規,0,2023-11-10,2023-11-10,ＹｎＤ株式会社,,株式会社,東京都,渋谷区,東１丁目２３番５号,,13,113,1500011,,,,,,,2023-11-10,1,,,,,ワイアンドディー,0
2452,9011001157976,新規,0,2023-11-10,2023-11-10,株式会社ＫＧ　Ｆ＆Ｂ　ＪＡＰＡＮ,,株式会社,東京都,渋谷区,富ヶ谷１丁目１４－１４スタンフォードアネックスビル４階,,13,113,1510063,,,,,,,2023-11-10,1,,,,,ケージーエフアンドビージャパン,0
2453,9011001158074,新規,0,2023-11-10,2023-11-10,株式会社Ａｈａ‐ｎａｎａ,,株式会社,東京都,渋谷区,初台１丁目５１－１初台センタービル３Ｆ,,13,113,1510061,,,,,,,2023-11-10,1,,,,,アハナナ,0
2454,9011001158090,新規,0,2023-11-10,2023-11-10,株式会社Ｌｏｏｋ　ａｔ　Ｐｅｏｐｌｅ,,株式会社,東京都,渋谷区,円山町５番５号Ｎａｖｉ渋谷Ｖ３階,,13,113,1500044,,,,,,,2023-11-10,1,,,,,ルックアットピープル,0
2465,9011101105075,新規,0,2023-11-10,2023-11-10,ＭＩＲＡＩ小顔株式会社,,株式会社,東京都,新宿区,新宿１丁目２４番１号大塚ビル２Ｆ,00132596,13,104,1600022,,,,,,,2023-11-10,1,,,,,ミライコガオ,0
2468,9011201025041,新規,0,2023-11-10,2023-11-10,ラファリア株式会社,,株式会社,東京都,中野区,弥生町３丁目１－９フェリスシャンテ２０４,,13,114,1640013,,,,,,,2023-11-10,1,,,,,ラファリア,0
2470,9011203004225,新規,0,2023-11-10,2023-11-10,合同会社ａｔｍｅ,,合同会社,東京都,中野区,江古田２丁目１０番２３号ブライズ中野江古田２１６,,13,114,1650022,,,,,,,2023-11-10,1,,,,,アットミー,0
2473,9011601027257,新規,0,2023-11-10,2023-11-10,株式会社ラウンジプラス,,株式会社,東京都,練馬区,中村北４丁目７番９号,,13,120,1760023,,,,,,,2023-11-10,1,,,,,ラウンジプラス,0
2475,9011701026737,新規,0,2023-11-10,2023-11-10,株式会社星彩,,株式会社,東京都,江戸川区,東葛西５丁目１３番１３号フローラル東葛西ＩＩ１０１号室,00132603,13,123,1340084,,,,,,,2023-11-10,1,,,,,ホシイロ,0
2476,9011801043319,新規,0,2023-11-10,2023-11-10,株式会社古橋工業,,株式会社,東京都,葛飾区,細田４丁目２５番６号,,13,122,1240021,,,,,,,2023-11-10,1,,,,,フルハシコウギョウ,0
2479,9013103001277,新規,0,2023-11-10,2023-11-10,合同会社パートナー,,合同会社,東京都,西多摩郡瑞穂町,大字殿ケ谷６０２番地１１レイクマンション瑞穂４０５号,,13,303,1901212,,,,,,,2023-11-10,1,,,,,パートナー,0
2483,9013301051603,新規,0,2023-11-10,2023-11-10,株式会社レーザーキング,,株式会社,東京都,豊島区,東池袋１丁目２７番８号池袋原ビル９階,,13,116,1700013,,,,,,,2023-11-10,1,,,,,レーザーキング,0
2491,9020001154413,新規,0,2023-11-10,2023-11-10,Ａｌｏｈａ　Ｒｅａｌｔｙ株式会社,,株式会社,神奈川県,横浜市旭区,今宿１丁目２５番１号,,14,112,2410817,,,,,,,2023-11-10,1,,,,,アロハリアリティ,0
2492,9020001154421,新規,0,2023-11-10,2023-11-10,株式会社ラビトルステラ,,株式会社,神奈川県,横浜市西区,北幸２丁目１０番地４８むつみビル３Ｆ,,14,103,2200004,,,,,,,2023-11-10,1,,,,,ラビトルステラ,0
2493,9020001154438,新規,0,2023-11-10,2023-11-10,株式会社Ａｉｒ．ｃｏｍ,,株式会社,神奈川県,横浜市中区,小港町１丁目６番地３アール・ケープラザ本牧１０２,,14,104,2310802,,,,,,,2023-11-10,1,,,,,エアコム,0
2497,9021001080698,新規,0,2023-11-10,2023-11-10,株式会社ＨＩＲＡＹＡＭＡ,,株式会社,神奈川県,小田原市,鴨宮１６４－１７,,14,206,2500874,,,,,,,2023-11-10,1,,,,,ヒラヤマ,0
2505,9030001157118,新規,0,2023-11-10,2023-11-10,株式会社ガーデンプレイス,,株式会社,埼玉県,川口市,三ツ和１丁目１－６レクセルマンション鳩ヶ谷６０３,,11,203,3340011,,,,,,,2023-11-10,1,,,,,ガーデンプレイス,0
2512,9030003022963,新規,0,2023-11-10,2023-11-10,合同会社Ｘｃｒａｆｔ,,合同会社,埼玉県,新座市,新堀１丁目１６―１０メゾンＳ―１０２,,11,230,3520032,,,,,,,2023-11-10,1,,,,,エックスクラフト,0
2513,9030003022971,新規,0,2023-11-10,2023-11-10,ＳＵＫＩ合同会社,,合同会社,埼玉県,鴻巣市,箕田３８９４－７,,11,217,3650062,,,,,,,2023-11-10,1,,,,,スキ,0
2519,9040001130858,新規,0,2023-11-10,2023-11-10,株式会社明志建設,,株式会社,千葉県,木更津市,ほたる野４丁目３７番地６,,12,206,2920038,,,,,,,2023-11-10,1,,,,,アカシケンセツ,0
2520,9040001130874,新規,0,2023-11-10,2023-11-10,創成プランニング株式会社,,株式会社,千葉県,千葉市花見川区,幕張本郷４丁目５番２５号,,12,102,2620033,,,,,,,2023-11-10,1,,,,,ソウセイプランニング,0
2523,9040003023721,新規,0,2023-11-10,2023-11-10,Ｈｕｌｕｂｉｎｇ合同会社,,合同会社,千葉県,木更津市,清見台２丁目２６番１号,,12,206,2920045,,,,,,,2023-11-10,1,,,,,フルビング,0
2531,9050001053810,新規,0,2023-11-10,2023-11-10,株式会社Ｒ’ｓ,,株式会社,茨城県,つくば市,研究学園６丁目３８番地１サイエンスヒルズ２Ａ号室,,08,220,3050817,,,,,,,2023-11-10,1,,,,,アールズ,0
2533,9050003007921,新規,0,2023-11-10,2023-11-10,合同会社優志,,合同会社,茨城県,筑西市,玉戸１３２７番地５５,,08,227,3080847,,,,,,,2023-11-10,1,,,,,ユウシ,0
2554,9100001036958,新規,0,2023-11-10,2023-11-10,株式会社岩下精密,,株式会社,長野県,小県郡青木村,大字当郷９１５番地１,,20,349,3861603,,,,,,,2023-11-10,1,,,,,イワシタセイミツ,0
2594,9130001075648,新規,0,2023-11-10,2023-11-10,株式会社ｋｒｏｓｓｐｏｉｎｔ,,株式会社,京都府,長岡京市,天神１丁目１１－１１,,26,209,6170824,,,,,,,2023-11-10,1,,,,,クロスポイント,0
2595,9130001075664,新規,0,2023-11-10,2023-11-10,株式会社トライネクスト,,株式会社,京都府,宇治市,宇治矢落１４番地ライオンズマンション宇治第２－７１３号,,26,204,6110021,,,,,,,2023-11-10,1,,,,,トライネクスト,0
2596,9130001075672,新規,0,2023-11-10,2023-11-10,株式会社奥村板金,,株式会社,京都府,京都市北区,紫野南舟岡町６９－７８,,26,101,6038225,,,,,,,2023-11-10,1,,,,,オクムラバンキン,0
2597,9130003009125,新規,0,2023-11-10,2023-11-10,合同会社ＲＡＶＥＮ,,合同会社,京都府,宇治市,木幡南山畑３１番地の１４,,26,204,6110002,,,,,,,2023-11-10,1,,,,,レイヴン,0
2598,9130003009133,新規,0,2023-11-10,2023-11-10,合同会社ダイチ,,合同会社,京都府,京都市北区,紫野下柳町４８－３,,26,101,6038174,,,,,,,2023-11-10,1,,,,,ダイチ,0
2600,9140001132217,新規,0,2023-11-10,2023-11-10,株式会社アイルシップ,,株式会社,兵庫県,神戸市中央区,加納町２丁目８－１６ベルデ北野１Ｆ２０号,,28,110,6500001,,,,,,,2023-11-10,1,,,,,アイルシップ,0
2601,9140001132290,新規,0,2023-11-10,2023-11-10,株式会社ワンアシスト,,株式会社,兵庫県,宝塚市,山本中１丁目１９番６号,,28,214,6650883,,,,,,,2023-11-10,1,,,,,ワンアシスト,0
2602,9140001132299,新規,0,2023-11-10,2023-11-10,株式会社慶音,,株式会社,兵庫県,神戸市北区,惣山町４丁目１７番地の５,,28,109,6511145,,,,,,,2023-11-10,1,,,,,ケイオン,0
2603,9140003019791,新規,0,2023-11-10,2023-11-10,合同会社ＩＣＨＩ,,合同会社,兵庫県,明石市,大久保町松陰１７８９番地,,28,203,6740053,,,,,,,2023-11-10,1,,,,,イチ,0
2604,9140003019800,新規,0,2023-11-10,2023-11-10,合同会社ＳＡＭＵＲＡＩ　ＢＬＯＣＫ,,合同会社,兵庫県,姫路市,田寺東４丁目２６番３号,,28,201,6700081,,,,,,,2023-11-10,1,,,,,サムライブロック,0
2609,9180001158869,新規,0,2023-11-10,2023-11-10,株式会社ＤＥＮＺＯ,,株式会社,愛知県,名古屋市中村区,平池町４丁目６０番地１２,,23,105,4530872,,,,,,,2023-11-10,1,,,,,デンゾウ,0
2621,9190003004500,新規,0,2023-11-10,2023-11-10,合同会社だんらんみはま,,合同会社,三重県,南牟婁郡御浜町,大字阿田和４９１１番地２８,,24,561,5195204,,,,,,,2023-11-10,1,,,,,ダンランミハマ,0
2643,9290001103707,新規,0,2023-11-10,2023-11-10,株式会社うつわや古季,,株式会社,福岡県,福岡市城南区,干隈２丁目５５－２１,,40,136,8140132,,,,,,,2023-11-10,1,,,,,ウツワヤコキ,0
2644,9290001103731,新規,0,2023-11-10,2023-11-10,株式会社サイダーストーリー,,株式会社,福岡県,福岡市中央区,赤坂１丁目８番２３号,,40,133,8100042,,,,,,,2023-11-10,1,,,,,サイダーストーリー,0
2648,9290003014588,新規,0,2023-11-10,2023-11-10,竹豊合同会社,,合同会社,福岡県,飯塚市,伊川５３９番地１,,40,205,8200054,,,,,,,2023-11-10,1,,,,,,0
2649,9290003014605,新規,0,2023-11-10,2023-11-10,合同会社ＭＪ,,合同会社,福岡県,福岡市西区,愛宕浜１丁目５番３号,,40,135,8190013,,,,,,,2023-11-10,1,,,,,,0
2657,9330001031449,新規,0,2023-11-10,2023-11-10,クリーンＫ＆Ｋ株式会社,,株式会社,熊本県,山鹿市,鹿本町来民８８９番地１,,43,208,8610331,,,,,,,2023-11-10,1,,,,,クリーンケイアンドケイ,0
2679,9430001090377,新規,0,2023-11-10,2023-11-10,株式会社ＨＧＦ,,株式会社,北海道,札幌市中央区,北四条西４丁目１番地７ＭＭＳ札幌駅前ビル１Ｆ,,01,101,0600004,,,,,,,2023-11-10,1,,,,,エイチジーエフ,0
