sequenceNumber,corporateNumber,process,correct,updateDate,changeDate,name,nameImageId,kind,prefectureName,cityName,streetNumber,addressImageId,prefectureCode,cityCode,postCode,addressOutside,addressOutsideImageId,closeDate,closeCause,successorCorporateNumber,changeCause,assignmentDate,latest,enName,enPrefectureName,enCityName,enAddressOutside,furigana,hihyoji
12,1010001234529,新規,0,2023-04-17,2023-04-17,シマーズネクスト株式会社,,株式会社,東京都,中央区,新富２丁目５番１０号新富ビル５Ｆ,,13,102,1040041,,,,,,,2023-04-17,1,,,,,シマーズネクスト,0
13,1010001234545,新規,0,2023-04-17,2023-04-17,ＭＡＭＡｄｏｎｎａ株式会社,,株式会社,東京都,千代田区,永田町２丁目４－１１フレンドビル３Ｆ,,13,101,1000014,,,,,,,2023-04-17,1,,,,,ママドンナ,0
14,1010001234553,新規,0,2023-04-17,2023-04-17,株式会社カンパイン,,株式会社,東京都,中央区,新川２丁目１０番１－１６０１号,,13,102,1040033,,,,,,,2023-04-17,1,,,,,カンパイン,0
15,1010001234561,新規,0,2023-04-17,2023-04-17,株式会社キタイステクノロジーズ,,株式会社,東京都,中央区,日本橋兜町１７番２号兜町第６葉山ビル４階,,13,102,1030026,,,,,,,2023-04-17,1,,,,,キタイステクノロジーズ,0
16,1010001234578,新規,0,2023-04-17,2023-04-17,株式会社オプティマワークス,,株式会社,東京都,中央区,日本橋１丁目１３番１号日鉄日本橋ビル３階,,13,102,1030027,,,,,,,2023-04-17,1,,,,,オプティマワークス,0
17,1010001234586,新規,0,2023-04-17,2023-04-17,株式会社インフォテク,,株式会社,東京都,千代田区,岩本町３丁目１番９号リブラ岩本町Ｉ４Ｆ,,13,101,1010032,,,,,,,2023-04-17,1,,,,,インフォテク,0
20,1010003040339,新規,0,2023-04-17,2023-04-17,ＰＲＯＥＳ合同会社,,合同会社,東京都,中央区,日本橋室町１丁目１１番１２号日本橋水野ビル７階,,13,102,1030022,,,,,,,2023-04-17,1,,,,,プロズ,0
25,1010005036517,新規,0,2023-04-17,2023-04-17,ＯＫＡ税理士法人,,その他の設立登記法人,東京都,千代田区,神田猿楽町２丁目１番８号三恵ビル５Ｆ,,13,101,1010064,,,,,,,2023-04-17,1,,,,,オーケーエー,0
32,1010401173797,新規,0,2023-04-17,2023-04-17,株式会社ＨＥＲＩＴＡＧＥ　Ｇｒｏｕｐ,,株式会社,東京都,港区,白金台５丁目１０番１６号,,13,103,1080071,,,,,,,2023-04-17,1,,,,,ヘリテイジグループ,0
33,1010401173814,新規,0,2023-04-17,2023-04-17,株式会社Ａｈｅａｄ　Ｓｔｙｌｅ,,株式会社,東京都,港区,浜松町２丁目２番１５号浜松町ダイヤビル２Ｆ,,13,103,1050013,,,,,,,2023-04-17,1,,,,,アヘッドスタイル,0
39,1010403029923,新規,0,2023-04-17,2023-04-17,合同会社Ａｎｙｗｈｅｒｅ　Ｄｏｏｒ　Ｉｎｔｅｒｎａｔｉｏｎａｌ,,合同会社,東京都,港区,南青山３丁目１番３６号青山丸竹ビル６Ｆ,,13,103,1070062,,,,,,,2023-04-17,1,,,,,エニーウェアドアインターナショナル,0
43,1010601062916,新規,0,2023-04-17,2023-04-17,株式会社ＬＸ,,株式会社,東京都,江東区,木場５丁目１番５号メイプルハイム木場Ｂ１２８,,13,108,1350042,,,,,,,2023-04-17,1,,,,,エルエックス,0
44,1010601062940,新規,0,2023-04-17,2023-04-17,株式会社宝ホームズ,,株式会社,東京都,墨田区,東向島３丁目１７番９号１Ｆ,,13,107,1310032,,,,,,,2023-04-17,1,,,,,タカラホームズ,0
45,1010603010105,新規,0,2023-04-17,2023-04-17,合同会社Ａｒｑｕｅｂｕｓ,,合同会社,東京都,江東区,亀戸５丁目３３番１７－４０９号,,13,108,1360071,,,,,,,2023-04-17,1,,,,,アーキバス,0
59,1010903008105,新規,0,2023-04-17,2023-04-17,フェリキタス合同会社,,合同会社,東京都,世田谷区,中町２丁目１５番１号,,13,112,1580091,,,,,,,2023-04-17,1,,,,,フェリキタス,0
63,1011001153768,新規,0,2023-04-17,2023-04-17,株式会社ＴＯＡ,,株式会社,東京都,渋谷区,渋谷１丁目２３番２６号４０１,,13,113,1500002,,,,,,,2023-04-17,1,,,,,ティーオーエー,0
64,1011001153792,新規,0,2023-04-17,2023-04-17,株式会社ｎａｉｓｅ,,株式会社,東京都,渋谷区,上原１丁目３番９号,,13,113,1510064,,,,,,,2023-04-17,1,,,,,ネイズ,0
65,1011001153818,新規,0,2023-04-17,2023-04-17,株式会社ＬＩＢＥＲＴＹＤＥＳＩＧＮ,,株式会社,東京都,目黒区,青葉台３丁目６－２８住友不動産青葉台タワー８Ｆ,,13,110,1530042,,,,,,,2023-04-17,1,,,,,リバティデザイン,0
66,1011001153826,新規,0,2023-04-17,2023-04-17,Ｃｒｏｐ＆Ｋｅｒｎ株式会社,,株式会社,東京都,渋谷区,道玄坂１丁目１０番８号渋谷道玄坂東急ビル２Ｆ－Ｃ,,13,113,1500043,,,,,,,2023-04-17,1,,,,,クロップアンドカーン,0
67,1011001153842,新規,0,2023-04-17,2023-04-17,株式会社辻Ｑ,,株式会社,東京都,渋谷区,神宮前２丁目１９番１２号,,13,113,1500001,,,,,,,2023-04-17,1,,,,,ツジキュー,0
68,1011001153850,新規,0,2023-04-17,2023-04-17,株式会社Ｍｏｄｅｒａｔｅ,,株式会社,東京都,渋谷区,神宮前６丁目２３－４桑野ビル２階,,13,113,1500001,,,,,,,2023-04-17,1,,,,,モデレート,0
70,1011003016626,新規,0,2023-04-17,2023-04-17,ユナイテッドアライアンス合同会社,,合同会社,東京都,渋谷区,神宮前６丁目２３番４号桑野ビル２Ｆ,,13,113,1500001,,,,,,,2023-04-17,1,,,,,ユナイテッドアライアンス,0
71,1011003016650,新規,0,2023-04-17,2023-04-17,代々木コンサルティング合同会社,,合同会社,東京都,渋谷区,代々木２丁目２３番１－９５０号,,13,113,1510053,,,,,,,2023-04-17,1,,,,,ヨヨギコンサルティング,0
72,1011003016667,新規,0,2023-04-17,2023-04-17,Ａｎｄｔｈｅｍ合同会社,,合同会社,東京都,渋谷区,富ヶ谷２丁目４５番１９－４０５号,,13,113,1510063,,,,,,,2023-04-17,1,,,,,アンセム,0
77,1011101102542,新規,0,2023-04-17,2023-04-17,株式会社日本ライフサイエンスサービス,,株式会社,東京都,新宿区,西新宿７丁目２２番３４号,,13,104,1600023,,,,,,,2023-04-17,1,,,,,ニホンライフサイエンスサービス,0
78,1011101102550,新規,0,2023-04-17,2023-04-17,株式会社埼玉協栄,,株式会社,東京都,新宿区,下落合２丁目１４番１９号,,13,104,1610033,,,,,,,2023-04-17,1,,,,,サイタマキョウエイ,0
79,1011101102559,新規,0,2023-04-17,2023-04-17,株式会社東京レジャラース,,株式会社,東京都,新宿区,歌舞伎町２丁目１３番６号メトロプラザ・１ビル１階,,13,104,1600021,,,,,,,2023-04-17,1,,,,,トウキョウレジャラース,0
80,1011101102567,新規,0,2023-04-17,2023-04-17,株式会社ＳＥＳＯＮ,,株式会社,東京都,新宿区,百人町２丁目３番２５号,,13,104,1690073,,,,,,,2023-04-17,1,,,,,セソン,0
86,1011301028629,新規,0,2023-04-17,2023-04-17,株式会社ｓｔｕｄｉｏＢＬＴ,,株式会社,東京都,杉並区,和田１丁目６４番１５号コーポ香川１階,,13,115,1660012,,,,,,,2023-04-17,1,,,,,スタジオビーエルティー,0
87,1011301028637,新規,0,2023-04-17,2023-04-17,株式会社ｒｕｒａｌ,,株式会社,東京都,杉並区,本天沼１丁目２４番９号,,13,115,1670031,,,,,,,2023-04-17,1,,,,,ルーラル,0
90,1011401025055,新規,0,2023-04-17,2023-04-17,Ｇｏｏｄ　Ｌｕｃｋ　Ｈｕｂ　ｆｕｎ株式会社,,株式会社,東京都,板橋区,前野町５丁目２８－１６,,13,119,1740063,,,,,,,2023-04-17,1,,,,,グットラックハブファン,0
100,1011601026712,新規,0,2023-04-17,2023-04-17,くすり未来株式会社,,株式会社,東京都,練馬区,氷川台３丁目２６番１７号,,13,120,1790084,,,,,,,2023-04-17,1,,,,,クスリミライ,0
101,1011601026745,新規,0,2023-04-17,2023-04-17,新東辰株式会社,,株式会社,東京都,練馬区,高野台４丁目７番２０号,,13,120,1770033,,,,,,,2023-04-17,1,,,,,シントウシン,0
103,1011603003890,新規,0,2023-04-17,2023-04-17,リーチ合同会社,,合同会社,東京都,練馬区,北町２丁目３６番８号,,13,120,1790081,,,,,,,2023-04-17,1,,,,,リーチ,0
104,1011801042229,新規,0,2023-04-17,2023-04-17,Ｎａｂｂｅ貿易株式会社,,株式会社,東京都,葛飾区,立石７丁目４番１６－２０５号,,13,122,1240012,,,,,,,2023-04-17,1,,,,,ナッビボウエキ,0
105,1011801042237,新規,0,2023-04-17,2023-04-17,株式会社東設エレクトリック,,株式会社,東京都,葛飾区,奥戸２丁目２３番９号,,13,122,1240022,,,,,,,2023-04-17,1,,,,,トウセツエレクトリック,0
107,1012301013406,新規,0,2023-04-17,2023-04-17,小笠原住設株式会社,,株式会社,東京都,町田市,山崎町１４２７番地６９,,13,209,1950074,,,,,,,2023-04-17,1,,,,,オガサワラジュウセツ,0
110,1012401040408,新規,0,2023-04-17,2023-04-17,株式会社ラビット,,株式会社,東京都,狛江市,和泉本町２丁目３３番１０号,,13,219,2010003,,,,,,,2023-04-17,1,,,,,ラビット,0
111,1012401040416,新規,0,2023-04-17,2023-04-17,フルムーン・ソリューション株式会社,,株式会社,東京都,多摩市,鶴牧６丁目１６番地６－４０２,,13,224,2060034,,,,,,,2023-04-17,1,,,,,フルムーンソリューション,0
113,1012701017601,新規,0,2023-04-17,2023-04-17,株式会社シバムジーク,,株式会社,東京都,西東京市,田無町７丁目３番６号,,13,229,1880011,,,,,,,2023-04-17,1,,,,,シバムジーク,0
116,1012703002683,新規,0,2023-04-17,2023-04-17,合同会社廣瀬経営研究所,00130131,合同会社,東京都,西東京市,向台町１丁目１５番１７号１０１,,13,229,1880013,,,,,,,2023-04-17,1,,,,,ヒロセケイエイケンキュウジョ,0
128,1020001151137,新規,0,2023-04-17,2023-04-17,株式会社Ｌ＆Ｔ,,株式会社,神奈川県,横浜市戸塚区,戸塚町４４２８番地３４,,14,110,2440003,,,,,,,2023-04-17,1,,,,,エルアンドティー,0
129,1020001151178,新規,0,2023-04-17,2023-04-17,株式会社ＪＢＨＲ横浜,,株式会社,神奈川県,横浜市西区,南幸２丁目１７番９号島田ビル３階,,14,103,2200005,,,,,,,2023-04-17,1,,,,,ジェービーエイチアールヨコハマ,0
147,1030001153280,新規,0,2023-04-17,2023-04-17,ＳｐｅｅｄｙＧｌｏｂａｌ株式会社,,株式会社,埼玉県,川口市,並木２丁目４０－１５ライオンズマンション川口並木二丁目３０５号室,,11,203,3320034,,,,,,,2023-04-17,1,,,,,スピーディグローバル,0
154,1030005021203,新規,0,2023-04-17,2023-04-17,一般社団法人コーシェリ,,その他の設立登記法人,埼玉県,熊谷市,妻沼５６３番地３,,11,202,3600201,,,,,,,2023-04-17,1,,,,,コーシェリ,0
156,1040001128001,新規,0,2023-04-17,2023-04-17,株式会社悠楓,,株式会社,千葉県,旭市,西足洗７４２番地２２,,12,215,2892515,,,,,,,2023-04-17,1,,,,,ユウカ,0
159,1040003022400,新規,0,2023-04-17,2023-04-17,海外不動産取引透明化フォーラム合同会社,,合同会社,千葉県,船橋市,飯山満町１丁目７１９番地２,,12,204,2740822,,,,,,,2023-04-17,1,,,,,カイガイフドウサントリヒキトウメイカフォーラム,0
160,1040003022409,新規,0,2023-04-17,2023-04-17,合同会社長谷川自動車,,合同会社,千葉県,香取郡神崎町,郡１７１３番地２,,12,342,2890202,,,,,,,2023-04-17,1,,,,,ハセガワジドウシャ,0
166,1050001052704,新規,0,2023-04-17,2023-04-17,株式会社リソカラ,,株式会社,茨城県,つくば市,梅園２丁目１４番地７,,08,220,3050045,,,,,,,2023-04-17,1,,,,,リソカラ,0
167,1060001035906,新規,0,2023-04-17,2023-04-17,株式会社しらさぎ建物管理サービス,,株式会社,栃木県,宇都宮市,若松原１丁目２６番９号,,09,201,3210139,,,,,,,2023-04-17,1,,,,,シラサギタテモノカンリサービス,0
172,1080001025574,新規,0,2023-04-17,2023-04-17,株式会社紀工部品,,株式会社,静岡県,島田市,旭１丁目１４の２９,,22,209,4270018,,,,,,,2023-04-17,1,,,,,キコウブヒン,0
181,1100003006974,新規,0,2023-04-17,2023-04-17,ＮＩＳＭＯ　ＡＵＴＯ　ＷＩＮＧＳ合同会社,,合同会社,長野県,飯田市,鼎切石４３８９－２,,20,205,3950807,,,,,,,2023-04-17,1,,,,,ニスモオートウィングス,0
184,1110001037459,新規,0,2023-04-17,2023-04-17,株式会社Ｋ＆Ｓ,,株式会社,新潟県,新潟市東区,山木戸６丁目３７２番地１,,15,102,9500871,,,,,,,2023-04-17,1,,,,,ケーアンドエス,0
201,1120001253872,新規,0,2023-04-17,2023-04-17,株式会社カラットフードサービス,,株式会社,大阪府,大阪市浪速区,稲荷１丁目９番２号,,27,111,5560023,,,,,,,2023-04-17,1,,,,,カラットフードサービス,0
202,1120001253971,新規,0,2023-04-17,2023-04-17,瑞斯汀株式会社,,株式会社,大阪府,大阪市大正区,三軒家西３丁目４番１６号中山ビル２１３Ａ,,27,108,5510001,,,,,,,2023-04-17,1,,,,,ズイシテイ,0
203,1120001254045,新規,0,2023-04-17,2023-04-17,株式会社３５ストリート,,株式会社,大阪府,大阪市東淀川区,東中島１丁目１８番５号７０６,,27,114,5330033,,,,,,,2023-04-17,1,,,,,サンゴストリート,0
204,1120001254061,新規,0,2023-04-17,2023-04-17,蔵石株式会社,,株式会社,大阪府,大阪市都島区,高倉町２丁目９番３１－４０１号,,27,102,5340011,,,,,,,2023-04-17,1,,,,,クライシ,0
208,1120003023844,新規,0,2023-04-17,2023-04-17,合同会社ＣＲＥＡＴＩＶＥ　ＯＦＦＩＣＥ　Ｔ２,,合同会社,大阪府,大阪市東淀川区,東中島１丁目１７－５ステュディオ新大阪３２２号,,27,114,5330033,,,,,,,2023-04-17,1,,,,,クリエイティブオフィスティーツー,0
209,1120101067355,新規,0,2023-04-17,2023-04-17,株式会社田中自動車,,株式会社,大阪府,羽曳野市,伊賀４丁目１番２１号,,27,222,5830876,,,,,,,2023-04-17,1,,,,,タナカジドウシャ,0
210,1120101067363,新規,0,2023-04-17,2023-04-17,株式会社パスモール,,株式会社,大阪府,堺市堺区,南田出井町４丁５番５号,,27,141,5900015,,,,,,,2023-04-17,1,,,,,パスモール,0
211,1120103005172,新規,0,2023-04-17,2023-04-17,合同会社ＳＢＹＳ,,合同会社,大阪府,藤井寺市,岡１丁目１５－６昌五ビル２０１,,27,226,5830027,,,,,,,2023-04-17,1,,,,,エスバイエス,0
217,1120901047416,新規,0,2023-04-17,2023-04-17,株式会社満腹コンサルタント,,株式会社,大阪府,高槻市,弥生が丘町２番１１号,,27,207,5691021,,,,,,,2023-04-17,1,,,,,マンプクコンサルタント,0
220,1122003002563,新規,0,2023-04-17,2023-04-17,合同会社スエヒロガリ,,合同会社,大阪府,東大阪市,足代２丁目３番２１－７０６号,,27,227,5770841,,,,,,,2023-04-17,1,,,,,スエヒロガリ,0
231,1130001074070,新規,0,2023-04-17,2023-04-17,Ｇｉｏｎ　ＨＡＮＮＡ　ＳＴＡＹ株式会社,,株式会社,京都府,京都市東山区,三条通大橋東二町目５０番地３,,26,105,6050001,,,,,,,2023-04-17,1,,,,,ギオンハンナステイ,0
232,1130001074104,新規,0,2023-04-17,2023-04-17,株式会社Ｐｏｒｔａｂｌｅ,,株式会社,京都府,京都市中京区,下丸屋町３９０－２,,26,104,6040084,,,,,,,2023-04-17,1,,,,,ポータブル,0
251,1140001129823,新規,0,2023-04-17,2023-04-17,株式会社ＰｌｏｗＰｌｏｗ,,株式会社,兵庫県,神戸市西区,櫨谷町福谷８３－２,,28,111,6512233,,,,,,,2023-04-17,1,,,,,プラウプラウ,0
252,1140001129848,新規,0,2023-04-17,2023-04-17,株式会社エイト,,株式会社,兵庫県,丹波市,氷上町賀茂１３６９番地１,,28,223,6693631,,,,,,,2023-04-17,1,,,,,エイト,0
255,1140003018974,新規,0,2023-04-17,2023-04-17,ケアステーションおひさま合同会社,,合同会社,兵庫県,明石市,二見町西二見２０３１番地の１シャーロン１階,,28,203,6740094,,,,,,,2023-04-17,1,,,,,ケアステーションオヒサマ,0
256,1150003002936,新規,0,2023-04-17,2023-04-17,スリーエスホールディングス合同会社,,合同会社,奈良県,奈良市,菅野台１番３３－４号,,29,201,6310043,,,,,,,2023-04-17,1,,,,,スリーエスホールディングス,0
262,1180001155865,新規,0,2023-04-17,2023-04-17,ノリタケ不動産株式会社,,株式会社,愛知県,名古屋市西区,則武新町２丁目１５番２３号,,23,104,4510051,,,,,,,2023-04-17,1,,,,,ノリタケフドウサン,0
263,1180001155915,新規,0,2023-04-17,2023-04-17,株式会社Ｌｉｅｎ,,株式会社,愛知県,長久手市,岩作高山６３番地９,,23,238,4801103,,,,,,,2023-04-17,1,,,,,リアン,0
265,1180003025109,新規,0,2023-04-17,2023-04-17,合同会社ユーデン,,合同会社,愛知県,名古屋市緑区,赤松５１３番地の２,,23,114,4580837,,,,,,,2023-04-17,1,,,,,ユーデン,0
266,1180003025117,新規,0,2023-04-17,2023-04-17,合同会社ＩＲＩＳＥ,,合同会社,愛知県,一宮市,木曽川町黒田字東町南７番地,,23,203,4930001,,,,,,,2023-04-17,1,,,,,イリゼ,0
287,1230003002003,新規,0,2023-04-17,2023-04-17,カモミール合同会社,,合同会社,富山県,氷見市,朝日丘７番１５号,,16,205,9350023,,,,,,,2023-04-17,1,,,,,カモミール,0
302,1280003001719,新規,0,2023-04-17,2023-04-17,合同会社アグリムーン,,合同会社,島根県,邑智郡川本町,大字三原６４５番地,,32,441,6961224,,,,,,,2023-04-17,1,,,,,アグリムーン,0
311,1290001101206,新規,0,2023-04-17,2023-04-17,株式会社山口,,株式会社,福岡県,福岡市早良区,西新５丁目８番１６号,,40,137,8140002,,,,,,,2023-04-17,1,,,,,ヤマグチ,0
316,1300001013267,新規,0,2023-04-17,2023-04-17,株式会社美桜,,株式会社,佐賀県,三養基郡みやき町,大字白壁２２７３番地２,,41,346,8490111,,,,,,,2023-04-17,1,,,,,ビオウ,0
321,1330001030771,新規,0,2023-04-17,2023-04-17,Ｒｅクリラ株式会社,,株式会社,熊本県,荒尾市,水野７１９番地,,43,204,8640023,,,,,,,2023-04-17,1,,,,,レクリラ,0
323,1340001025515,新規,0,2023-04-17,2023-04-17,株式会社粧建,,株式会社,鹿児島県,薩摩川内市,五代町１９４０番地１,,46,215,8950066,,,,,,,2023-04-17,1,,,,,ショウケン,0
329,1360001031874,新規,0,2023-04-17,2023-04-17,株式会社ｍｏｎｉｃａ,,株式会社,沖縄県,那覇市,首里寒川町２丁目１９番地,,47,201,9030826,,,,,,,2023-04-17,1,,,,,モニカ,0
330,1360001031890,新規,0,2023-04-17,2023-04-17,モアットカム株式会社,,株式会社,沖縄県,宮古島市,平良字下里５６６番地２－１・２階,,47,214,9060013,,,,,,,2023-04-17,1,,,,,モアットカム,0
331,1360001031899,新規,0,2023-04-17,2023-04-17,誠謙株式会社,,株式会社,沖縄県,中頭郡中城村,字南上原１０４０番地１４サン・ステージ２０１号,,47,328,9012424,,,,,,,2023-04-17,1,,,,,セイケン,0
333,1360003012880,新規,0,2023-04-17,2023-04-17,合同会社ＭＧ企画,,合同会社,沖縄県,島尻郡南風原町,字兼城４１６番地１２,,47,350,9011111,,,,,,,2023-04-17,1,,,,,エムジーキカク,0
341,1380001033613,新規,0,2023-04-17,2023-04-17,株式会社ＥＮＯＧＵ,,株式会社,福島県,郡山市,虎丸町６番１８号虎丸ビル２０３,,07,203,9638014,,,,,,,2023-04-17,1,,,,,エノグ,0
348,1420001018221,新規,0,2023-04-17,2023-04-17,株式会社ＴＡＩＹＯ,,株式会社,青森県,下北郡大間町,大字大間字大間平２８番地４２,,02,423,0394601,,,,,,,2023-04-17,1,,,,,タイヨウ,0
358,1460103001526,新規,0,2023-04-17,2023-04-17,祐裕生産ファーム合同会社,,合同会社,北海道,上川郡清水町,字旭山１７８番地,,01,636,0890355,,,,,,,2023-04-17,1,,,,,ユウユウセイサンファーム,0
360,1462501000951,新規,0,2023-04-17,2023-04-17,株式会社ケイコーポレーション,,株式会社,北海道,標津郡中標津町,川西６丁目２番地１,,01,692,0861151,,,,,,,2023-04-17,1,,,,,ケイコーポレーション,0
361,1470003002400,新規,0,2023-04-17,2023-04-17,合同会社ＭＭＣ．ＣＯＭ,,合同会社,香川県,高松市,牟礼町大町１５７５番地８,,37,201,7610122,,,,,,,2023-04-17,1,,,,,エムエムシードットコム,0
365,1700150115476,新規,0,2023-04-17,2023-04-17,ｄｏｎｇｇｕａｎｓｈｉｙｕｓｕｄａｗａｎｇｌｕｏｋｅｊｉｙｏｕｘｉａｎｇｏｎｇｓｉ,,外国会社等,,,,,,,,ｈｕｍｅｎｘｉｎｌｉａｎ　ｓｈｉｙｉｘｉａｎｇ　２１ｈａｏ２０１ｆａｎｇ　ｄｏｎｇｇｕａｎｓｈｉ　ｈｕｍｅｎｚｈｅｎ　ｇｕａｎｇｄｏｎｇｓｈｅｎｇ,,,,,,2023-04-17,1,,,,,ドングワンシーイースーダーワンルオコージーヨウシエンゴンスー,0
366,1700150115501,新規,0,2023-04-17,2023-04-17,Ｚｈｕｈａｉ　ｆｅｉｐａｅｒｄｉａｎｚｉｋｅｊｉ　ｙｏｕｘｉａｎｇｏｎｇｓｉ,,外国会社等,,,,,,,,ｚｈｕｈａｉｓｈｉ　ｘｉａｎｇｚｈｏｕｑｕ　ｊｉｕｚｈｏｕｄａｄａｏｘｉ　２０２１ｈａｏｚｈｉｆｕｈｕａｌｉｚｈｏｎｇｘｉｎｘｉｅｚｉｌｏｕＢｚｕｏ６ｃｅｎｇ４Ａｄａｎｙｕａｎ,,,,,,2023-04-17,1,,,,,ズゥハィフィパエルデンシケジユウゲンコウシ,0
380,2010001234528,新規,0,2023-04-17,2023-04-17,株式会社ＷＯＲＬＤ　ＯＦ　ＳＴＡＲ・千,,株式会社,東京都,中央区,日本橋２丁目２番５号日本橋アルガビル９階,,13,102,1030027,,,,,,,2023-04-17,1,,,,,ワールドオブスターセン,0
381,2010001234585,新規,0,2023-04-17,2023-04-17,株式会社Ｂｕｈｎｅ,,株式会社,東京都,中央区,銀座１丁目１２番４号Ｎ＆ＥＢＬＤ．６Ｆ,,13,102,1040061,,,,,,,2023-04-17,1,,,,,ビューネ,0
383,2010003040296,新規,0,2023-04-17,2023-04-17,合同会社２８４,,合同会社,東京都,中央区,佃２丁目５－１５プラティーク月島３０２,,13,102,1040051,,,,,,,2023-04-17,1,,,,,ニイハチヨン,0
384,2010003040346,新規,0,2023-04-17,2023-04-17,エシカリージャパン合同会社,,合同会社,東京都,中央区,銀座１丁目１２－４Ｎ＆ＥＢＬＤ．７階,,13,102,1040061,,,,,,,2023-04-17,1,,,,,エシカリージャパン,0
385,2010003040354,新規,0,2023-04-17,2023-04-17,ＫＮ合同会社,,合同会社,東京都,中央区,銀座１丁目１２－４Ｎ＆Ｅ．ＢＬＤ．７階,,13,102,1040061,,,,,,,2023-04-17,1,,,,,ケーエヌ,0
389,2010005036482,新規,0,2023-04-17,2023-04-17,一般社団法人再生医療抗加齢学会,,その他の設立登記法人,東京都,千代田区,紀尾井町４番１号ニューオータニガーデンタワービジネスコート９Ｆ２９１７号,,13,101,1020094,,,,,,,2023-04-17,1,,,,,サイセイイリョウコウカレイガッカイ,0
390,2010005036516,新規,0,2023-04-17,2023-04-17,一般社団法人ライフコーチ協会,,その他の設立登記法人,東京都,中央区,銀座１丁目２２番１１号銀座大竹ビジデンス２Ｆ,,13,102,1040061,,,,,,,2023-04-17,1,,,,,ライフコーチキョウカイ,0
398,2010401173821,新規,0,2023-04-17,2023-04-17,ＡＫＳテクノサービス株式会社,,株式会社,東京都,港区,芝３丁目２７番３号,,13,103,1050014,,,,,,,2023-04-17,1,,,,,エーケーエステクノサービス,0
403,2010403029922,新規,0,2023-04-17,2023-04-17,Ａｌ　Ａｋｒａｂ合同会社,,合同会社,東京都,港区,北青山２丁目１０番１６号ザ・レジデンシャル北青山２０３,,13,103,1070061,,,,,,,2023-04-17,1,,,,,アルアクラブ,0
408,2010601062898,新規,0,2023-04-17,2023-04-17,株式会社コトフル,,株式会社,東京都,墨田区,押上１丁目５２番９号,,13,107,1310045,,,,,,,2023-04-17,1,,,,,コトフル,0
409,2010601062915,新規,0,2023-04-17,2023-04-17,株式会社ｗｏｒｋｓｎｏｗ,,株式会社,東京都,江東区,清澄１丁目６番２０号,,13,108,1350024,,,,,,,2023-04-17,1,,,,,ワークスノー,0
430,2011001153833,新規,0,2023-04-17,2023-04-17,株式会社Ａｏ,,株式会社,東京都,渋谷区,神宮前６丁目２３番４号桑野ビル２階,,13,113,1500001,,,,,,,2023-04-17,1,,,,,アオ,0
431,2011001153841,新規,0,2023-04-17,2023-04-17,株式会社ＴＷＩＳＴ,,株式会社,東京都,渋谷区,渋谷３丁目７番６号,,13,113,1500002,,,,,,,2023-04-17,1,,,,,ツイスト,0
432,2011003016591,新規,0,2023-04-17,2023-04-17,合同会社テンスリー,,合同会社,東京都,渋谷区,道玄坂１丁目１０番８号渋谷道玄坂東急ビル２Ｆ－Ｃ,,13,113,1500043,,,,,,,2023-04-17,1,,,,,テンスリー,0
435,2011101102541,新規,0,2023-04-17,2023-04-17,合一株式会社,,株式会社,東京都,新宿区,歌舞伎町２丁目２５番８号エコプレイス新宿３３２,,13,104,1600021,,,,,,,2023-04-17,1,,,,,ゴウイツ,0
436,2011101102566,新規,0,2023-04-17,2023-04-17,株式会社森越,,株式会社,東京都,新宿区,高田馬場１丁目２番１５－４０１,,13,104,1690075,,,,,,,2023-04-17,1,,,,,モリコシ,0
442,2011301028628,新規,0,2023-04-17,2023-04-17,株式会社ＭａｎａＢｅラボ,,株式会社,東京都,杉並区,西荻南４丁目３１－１１サークルキューブ西荻南３０９,,13,115,1670053,,,,,,,2023-04-17,1,,,,,マナビーラボ,0
443,2011501029161,新規,0,2023-04-17,2023-04-17,ＺＥＮＥＳＴ株式会社,,株式会社,東京都,荒川区,東日暮里４丁目２６番１３号２階Ａ号室,,13,118,1160014,,,,,,,2023-04-17,1,,,,,ゼンイスト,0
449,2011803005612,新規,0,2023-04-17,2023-04-17,合同会社エヌイー,,合同会社,東京都,足立区,扇１丁目４６番２３号,,13,121,1230873,,,,,,,2023-04-17,1,,,,,エヌイー,0
450,2012301013396,新規,0,2023-04-17,2023-04-17,株式会社ライトブライト,,株式会社,東京都,町田市,原町田２丁目４番７－９０５号,,13,209,1940013,,,,,,,2023-04-17,1,,,,,ライトブライト,0
451,2012301013405,新規,0,2023-04-17,2023-04-17,株式会社シードフォルクス,,株式会社,東京都,町田市,三輪町２０３－１ペルシーモ１０２,,13,209,1950054,,,,,,,2023-04-17,1,,,,,シードフォルクス,0
454,2012401040407,新規,0,2023-04-17,2023-04-17,株式会社ＫＩＣＨＩＢＡ,,株式会社,東京都,武蔵野市,吉祥寺本町３丁目１３番２０号,,13,203,1800004,,,,,,,2023-04-17,1,,,,,キチバ,0
455,2012401040423,新規,0,2023-04-17,2023-04-17,株式会社ＨＲ‐Ｃｈａｉｎ,,株式会社,東京都,武蔵野市,吉祥寺本町１丁目３１番１１－７０２号,,13,203,1800004,,,,,,,2023-04-17,1,,,,,エイチアールチェイン,0
456,2012701017609,新規,0,2023-04-17,2023-04-17,株式会社ＫＥＴ　ＮＯＩ,,株式会社,東京都,清瀬市,中里１丁目７１０番地２０,,13,221,2040003,,,,,,,2023-04-17,1,,,,,ケッノイ,0
459,2012805003190,新規,0,2023-04-17,2023-04-17,行政書士法人橋立事務所,,その他の設立登記法人,東京都,立川市,曙町２丁目３２番３号立川三和ビル,00130128,13,202,1900012,,,,,,,2023-04-17,1,,,,,ハシダテジムショ,0
468,2020001151078,新規,0,2023-04-17,2023-04-17,株式会社ブルーストック,,株式会社,神奈川県,横浜市緑区,長津田みなみ台６丁目１３－１８－１０２,,14,113,2260018,,,,,,,2023-04-17,1,,,,,ブルーストック,0
469,2020001151144,新規,0,2023-04-17,2023-04-17,リラの会株式会社,,株式会社,神奈川県,横浜市中区,本町４丁目４３番地Ａ－ＰＬＡＣＥ馬車道３階,,14,104,2310005,,,,,,,2023-04-17,1,,,,,リラノカイ,0
470,2020001151152,新規,0,2023-04-17,2023-04-17,株式会社蒼天,,株式会社,神奈川県,川崎市麻生区,はるひ野５丁目２番１６号,,14,137,2150036,,,,,,,2023-04-17,1,,,,,ソウテン,0
471,2020001151160,新規,0,2023-04-17,2023-04-17,株式会社ポンテ,,株式会社,神奈川県,横浜市保土ケ谷区,帷子町１丁目３０番地１クボタビル４０２号,,14,106,2400013,,,,,,,2023-04-17,1,,,,,ポンテ,0
476,2021001078724,新規,0,2023-04-17,2023-04-17,株式会社Ｒｅ　ＲＩＳＥ,,株式会社,神奈川県,秦野市,名古木２９１番地の６,,14,211,2570024,,,,,,,2023-04-17,1,,,,,リライズ,0
488,2030005021210,新規,0,2023-04-17,2023-04-17,医療法人越魂会,,その他の設立登記法人,埼玉県,川越市,新宿町３丁目７番地１５,,11,201,3501124,,,,,,,2023-04-17,1,,,,,エッコンカイ,0
496,2040001127968,新規,0,2023-04-17,2023-04-17,株式会社スイゴウナウ,,株式会社,千葉県,香取市,佐原イ１９１１番地１,,12,236,2870003,,,,,,,2023-04-17,1,,,,,スイゴウナウ,0
497,2040001127984,新規,0,2023-04-17,2023-04-17,株式会社渦巻,,株式会社,千葉県,千葉市中央区,中央２丁目５番１号千葉中央ツインビル２号館７階チバラボ,,12,101,2600013,,,,,,,2023-04-17,1,,,,,ウズマキ,0
498,2040001128000,新規,0,2023-04-17,2023-04-17,株式会社ＡＬＴＲＡＳ,,株式会社,千葉県,木更津市,中島１１１４番地（金田西９１街区３画地）,,12,206,2920008,,,,,,,2023-04-17,1,,,,,オルトラス,0
500,2040003022390,新規,0,2023-04-17,2023-04-17,Ｆ．Ｓ．Ｗ合同会社,,合同会社,千葉県,船橋市,二和東１丁目９番２号,,12,204,2740805,,,,,,,2023-04-17,1,,,,,フリースタイルワーク,0
502,2040005021952,新規,0,2023-04-17,2023-04-17,一般社団法人ブルーサンダース,,その他の設立登記法人,千葉県,市川市,南大野１丁目４７番５６号クレストフォルム市川ウィングステージ３１３号室,,12,203,2720804,,,,,,,2023-04-17,1,,,,,ブルーサンダース,0
503,2040005021969,新規,0,2023-04-17,2023-04-17,一般社団法人千葉県住宅塗装機構,,その他の設立登記法人,千葉県,千葉市中央区,富士見１丁目１４番１３号千葉大栄ビル８階,,12,101,2600015,,,,,,,2023-04-17,1,,,,,チバケンジュウタクトソウキコウ,0
504,2050001052703,新規,0,2023-04-17,2023-04-17,株式会社ビルドオート,,株式会社,茨城県,笠間市,笠間１６３２番地２,,08,216,3091611,,,,,,,2023-04-17,1,,,,,ビルドオート,0
506,2060001035888,新規,0,2023-04-17,2023-04-17,株式会社松島電機,,株式会社,栃木県,足利市,下渋垂町１３７５番地１,,09,202,3260334,,,,,,,2023-04-17,1,,,,,マツシマデンキ,0
509,2070001040326,新規,0,2023-04-17,2023-04-17,岩野株式会社,,株式会社,群馬県,桐生市,仲町１丁目４番２７号,,10,203,3760035,,,,,,,2023-04-17,1,,,,,イワノ,0
510,2080001025573,新規,0,2023-04-17,2023-04-17,株式会社ＲＥＸＩＡ,,株式会社,静岡県,静岡市葵区,駿府町１番地の１９佐野ビル２Ｆ,,22,101,4200856,,,,,,,2023-04-17,1,,,,,レクシア,0
511,2080001025581,新規,0,2023-04-17,2023-04-17,株式会社ｙｕ’ｓ,,株式会社,静岡県,藤枝市,平島７３７,,22,214,4260011,,,,,,,2023-04-17,1,,,,,ユーズ,0
514,2080401026436,新規,0,2023-04-17,2023-04-17,株式会社ＭＯＦＭＯＦ,,株式会社,静岡県,掛川市,成滝２５１番地の１,,22,213,4360085,,,,,,,2023-04-17,1,,,,,モフモフ,0
515,2090001018080,新規,0,2023-04-17,2023-04-17,Ｃｒｏｓｓ　Ｗｏｒｌｄ株式会社,,株式会社,山梨県,南巨摩郡身延町,常葉１０９８,,19,365,4092936,,,,,,,2023-04-17,1,,,,,クロスワールド,0
524,2100005012986,新規,0,2023-04-17,2023-04-17,社会福祉法人織りなす,,その他の設立登記法人,長野県,諏訪郡原村,字向平３９０９番１４,,20,363,3910100,,,,,,,2023-04-17,1,,,,,オリナス,0
527,2110001037458,新規,0,2023-04-17,2023-04-17,株式会社エコＱ,,株式会社,新潟県,柏崎市,大字上田尻４３９４番地,,15,205,9451351,,,,,,,2023-04-17,1,,,,,エコキュー,0
545,2120001253748,新規,0,2023-04-17,2023-04-17,ヒューマンステージホールディングス株式会社,,株式会社,大阪府,大阪市中央区,安土町２丁目３番１３号,,27,128,5410052,,,,,,,2023-04-17,1,,,,,ヒューマンステージホールディングス,0
546,2120001253970,新規,0,2023-04-17,2023-04-17,丸順国際貿易株式会社,,株式会社,大阪府,大阪市東成区,深江北３丁目４番２１号エクラ深江橋２０２Ｂ,,27,115,5370001,,,,,,,2023-04-17,1,,,,,マルジュンコクサイボウエキ,0
547,2120001254036,新規,0,2023-04-17,2023-04-17,Ｅ‐ｓｅｒｖｉｃｅ株式会社,,株式会社,大阪府,大阪市淀川区,宮原１丁目１９番１０号新大阪エクセルビル４０３号,,27,123,5320003,,,,,,,2023-04-17,1,,,,,イーサービス,0
548,2120001254069,新規,0,2023-04-17,2023-04-17,株式会社ファンシーファブリック,,株式会社,大阪府,大阪市中央区,久太郎町１丁目２番１６号三星中央別館,,27,128,5410056,,,,,,,2023-04-17,1,,,,,ファンシーファブリック,0
551,2120003023819,新規,0,2023-04-17,2023-04-17,８９９８合同会社,,合同会社,大阪府,大阪市中央区,上汐２丁目６番２０号ナイスワンビル５階５Ａ,,27,128,5420064,,,,,,,2023-04-17,1,,,,,ハチキュウキュウハチ,0
552,2120003023843,新規,0,2023-04-17,2023-04-17,合同会社ほまれ,,合同会社,大阪府,大阪市北区,梅田１丁目２番２号大阪駅前第２ビル１２－１２,,27,127,5300001,,,,,,,2023-04-17,1,,,,,ホマレ,0
553,2120003023851,新規,0,2023-04-17,2023-04-17,ケアセンターＳｉｎｃｅｒｉｔｙ合同会社,,合同会社,大阪府,大阪市生野区,田島２丁目６番１２号,,27,116,5440011,,,,,,,2023-04-17,1,,,,,ケアセンターシンシアティ,0
555,2120005023569,新規,0,2023-04-17,2023-04-17,ＮＰＯ法人福祉キャリアデザインラボ,,その他の設立登記法人,大阪府,大阪市淀川区,宮原２丁目１１番１１号シャネルハイツ新大阪８３，３０７,,27,123,5320003,,,,,,,2023-04-17,1,,,,,フクシキャリアデザインラボ,0
560,2120101067370,新規,0,2023-04-17,2023-04-17,株式会社アーステックス,,株式会社,大阪府,堺市西区,上野芝向ヶ丘町６丁１番３４－５０２号,,27,144,5938303,,,,,,,2023-04-17,1,,,,,アーステックス,0
562,2120901047415,新規,0,2023-04-17,2023-04-17,株式会社ｍｋサービス,,株式会社,大阪府,豊能郡能勢町,平野１２９番地５,,27,322,5630364,,,,,,,2023-04-17,1,,,,,エムケーサービス,0
564,2120903004579,新規,0,2023-04-17,2023-04-17,合同会社リアン,,合同会社,大阪府,豊中市,長興寺南４丁目１１番８号,,27,203,5610874,,,,,,,2023-04-17,1,,,,,リアン,0
565,2120903004595,新規,0,2023-04-17,2023-04-17,合同会社かおりと,,合同会社,大阪府,豊中市,上野西２丁目１４番２７号,,27,203,5600011,,,,,,,2023-04-17,1,,,,,カオリト,0
567,2122001036892,新規,0,2023-04-17,2023-04-17,Ｍ’ｓ‐ｗｏｒｋｓ株式会社,,株式会社,大阪府,八尾市,福万寺町５丁目３８番地の２,,27,212,5810842,,,,,,,2023-04-17,1,,,,,エムズワークス,0
570,2130001074086,新規,0,2023-04-17,2023-04-17,株式会社ブルーム,,株式会社,京都府,京都市北区,小山上総町１０番地８,,26,101,6038143,,,,,,,2023-04-17,1,,,,,ブルーム,0
571,2130001074094,新規,0,2023-04-17,2023-04-17,株式会社ＩＤＥ,,株式会社,京都府,京都市東山区,花見小路通三条下る若竹町４１４番地１３棟３０１号,,26,105,6050003,,,,,,,2023-04-17,1,,,,,アイディーイー,0
578,2140001129797,新規,0,2023-04-17,2023-04-17,株式会社Ｔ,,株式会社,兵庫県,西脇市,小坂町７４番地,,28,213,6770017,,,,,,,2023-04-17,1,,,,,ティー,0
579,2140001129814,新規,0,2023-04-17,2023-04-17,株式会社フェニックスファクトリー,,株式会社,兵庫県,神戸市中央区,中山手通２丁目１３番地１２号ランドマークビル神戸４ＦＣ号,,28,110,6500004,,,,,,,2023-04-17,1,,,,,フェニックスファクトリー,0
585,2140003018981,新規,0,2023-04-17,2023-04-17,南郷合同会社,,合同会社,兵庫県,芦屋市,山芦屋町２５番７号,00130138,28,206,6590082,,,,,,,2023-04-17,1,,,,,ナンゴウ,0
587,2150001026317,新規,0,2023-04-17,2023-04-17,創和造園土木株式会社,,株式会社,奈良県,吉野郡大淀町,大字桧垣本１８６７番地の４,,29,442,6380812,,,,,,,2023-04-17,1,,,,,ソウワゾウエンドボク,0
588,2150003002935,新規,0,2023-04-17,2023-04-17,合同会社ちとせなら,,合同会社,奈良県,奈良市,学園中３丁目１５４２－２９１,,29,201,6310035,,,,,,,2023-04-17,1,,,,,チトセナラ,0
589,2170001017553,新規,0,2023-04-17,2023-04-17,株式会社日向,,株式会社,和歌山県,日高郡日高町,大字高家３５３番地の３,,30,382,6491213,,,,,,,2023-04-17,1,,,,,ヒナタ,0
591,2170005007006,新規,0,2023-04-17,2023-04-17,一般財団法人紀ノ郷,,その他の設立登記法人,和歌山県,日高郡印南町,大字島田３２１１番地２６７,,30,390,6491527,,,,,,,2023-04-17,1,,,,,キノサト,0
603,2180001155897,新規,0,2023-04-17,2023-04-17,株式会社Ｍ４,,株式会社,愛知県,名古屋市昭和区,萩原町６丁目４番地の１,,23,107,4660852,,,,,,,2023-04-17,1,,,,,エムフォー,0
613,2180003025132,新規,0,2023-04-17,2023-04-17,合同会社Ｖｕｎｃｔｉｏｎ,,合同会社,愛知県,名古屋市昭和区,御器所町字木市２９番,,23,107,4660061,,,,,,,2023-04-17,1,,,,,バンクション,0
617,2180301037317,新規,0,2023-04-17,2023-04-17,株式会社ＣＯＮＮＥＣＴ,,株式会社,愛知県,豊田市,永覚町宮西３９番地８,,23,211,4701205,,,,,,,2023-04-17,1,,,,,コネクト,0
618,2180301037325,新規,0,2023-04-17,2023-04-17,株式会社ＯＫｋｉ,,株式会社,愛知県,岡崎市,小呂町字ミタライ９番地８,,23,202,4440009,,,,,,,2023-04-17,1,,,,,オッキー,0
621,2190001030323,新規,0,2023-04-17,2023-04-17,株式会社価値づくり,,株式会社,三重県,伊賀市,広瀬９９２番地,,24,216,5181426,,,,,,,2023-04-17,1,,,,,カチヅクリ,0
622,2190001030331,新規,0,2023-04-17,2023-04-17,株式会社ＣＮＣ,,株式会社,三重県,桑名市,大字和泉５１５番地１,,24,205,5110838,,,,,,,2023-04-17,1,,,,,シーエヌシー,0
623,2190003004300,新規,0,2023-04-17,2023-04-17,合同会社ＹＫ‐ＷＥＬＤ,,合同会社,三重県,伊賀市,上野愛宕町１８２２番地の１５,,24,216,5180846,,,,,,,2023-04-17,1,,,,,ワイケーウェルド,0
625,2200001041203,新規,0,2023-04-17,2023-04-17,株式会社文建,,株式会社,岐阜県,中津川市,高山１６１７番地３,,21,206,5080204,,,,,,,2023-04-17,1,,,,,ブンケン,0
631,2210001019280,新規,0,2023-04-17,2023-04-17,株式会社マネジメントミオ,,株式会社,福井県,鯖江市,横越町第３０号７番１,,18,207,9160036,,,,,,,2023-04-17,1,,,,,マネジメントミオ,0
634,2210003001633,新規,0,2023-04-17,2023-04-17,ＡＫｉＭｉ合同会社,,合同会社,福井県,越前市,府中３丁目２番２６号２階,,18,209,9150071,,,,,,,2023-04-17,1,,,,,アキミ,0
641,2240001061379,新規,0,2023-04-17,2023-04-17,株式会社うりずん,,株式会社,広島県,広島市安佐南区,伴東４丁目２番３６－４号,,34,105,7313164,,,,,,,2023-04-17,1,,,,,ウリズン,0
648,2260001037864,新規,0,2023-04-17,2023-04-17,ノーエン株式会社,,株式会社,岡山県,岡山市北区,富町２丁目５番２７号,,33,101,7000031,,,,,,,2023-04-17,1,,,,,ノーエン,0
652,2280005007548,新規,0,2023-04-17,2023-04-17,特定非営利活動法人ＳＱ５推進協会,,その他の設立登記法人,島根県,浜田市,日脚町１８５番地１２（３）,,32,202,6971322,,,,,,,2023-04-17,1,,,,,エスキューファイブスイシンキョウカイ,0
654,2290001101122,新規,0,2023-04-17,2023-04-17,株式会社Ｌｅａｆ　ｉｎｎｏｖａｔｉｏｎ,,株式会社,福岡県,福岡市博多区,住吉４丁目２５番２０－４０３号,,40,132,8120018,,,,,,,2023-04-17,1,,,,,リーフイノベーション,0
655,2290001101188,新規,0,2023-04-17,2023-04-17,株式会社Ｍｙセレクト,,株式会社,福岡県,福岡市東区,若宮４丁目１２－３１－３,,40,131,8130036,,,,,,,2023-04-17,1,,,,,,0
661,2290003013794,新規,0,2023-04-17,2023-04-17,合同会社ＮＡＧＯＭＩ,,合同会社,福岡県,糟屋郡久山町,大字久原１１６６番地３２,,40,348,8112501,,,,,,,2023-04-17,1,,,,,ナゴミ,0
665,2300001013266,新規,0,2023-04-17,2023-04-17,マルト商会株式会社,,株式会社,佐賀県,佐賀市,本庄町大字鹿子５１４番地２,,41,201,8400025,,,,,,,2023-04-17,1,,,,,マルトショウカイ,0
677,2360001031873,新規,0,2023-04-17,2023-04-17,株式会社沖縄大好,,株式会社,沖縄県,浦添市,宮城４丁目１番５号,,47,208,9012126,,,,,,,2023-04-17,1,,,,,オキナワダイコウ,0
683,2380001033620,新規,0,2023-04-17,2023-04-17,株式会社三浦農林,,株式会社,福島県,田村市,船引町北移字田外山４６３番地,,07,211,9634545,,,,,,,2023-04-17,1,,,,,ミウラノウリン,0
693,2410001013461,新規,0,2023-04-17,2023-04-17,株式会社縁繋,,株式会社,秋田県,鹿角市,十和田毛馬内字上陣場３４番地３ララけまない１Ｂ,,05,209,0185334,,,,,,,2023-04-17,1,,,,,エン,0
705,2470001019569,新規,0,2023-04-17,2023-04-17,株式会社ＬＥＣ,,株式会社,香川県,坂出市,旭町１丁目１番３－２号,,37,203,7620006,,,,,,,2023-04-17,1,,,,,,0
709,2490003001762,新規,0,2023-04-17,2023-04-17,合同会社ファーム,,合同会社,高知県,高知市,廿代町１番３号リフージュ・Ｎ７０２,,39,201,7800843,,,,,,,2023-04-17,1,,,,,ファーム,0
711,2700150115475,新規,0,2023-04-17,2023-04-17,ＤｏｎｇＧｕａｎＳｈｉＹｕｅＬｉＪｉｎＤｉａｎＺｉＳｈａｎｇＷｕＹｏｕＸｉａｎＧｏｎｇＳｉ,,外国会社等,,,,,,,,ＧｕａｎｇＤｏｎｇＳｈｅｎｇＤｏｎｇＧｕａｎＳｈｉＨｕＭｅｎＺｈｅｎＬｏｎｇＹａｎＤｏｎｇＷｕＬｕＳａｎＸｉａｎｇ２８Ｈａｏ３０２Ｆａｎｇ,,,,,,2023-04-17,1,,,,,ドングワンシーユエリージンディエンズーシャンウーヨウシエンゴンスー,0
712,2700150115491,新規,0,2023-04-17,2023-04-17,白山市番匠町土地区画整理組合,,その他,石川県,白山市,番匠町２３１－３,,17,210,9240013,,,,,,,2023-04-17,1,,,,,ハクサンシバンシヨウマチトチクカクセイリクミアイ,0
713,2700150115500,新規,0,2023-04-17,2023-04-17,ｊｉｎｇｄｅｚｈｅｎ　ｘｉａｏｍｉｎｍｉｄｉａｎｚｉｋｅｊｉ　ｙｏｕｘｉａｎｇｏｎｇｓｉ,,外国会社等,,,,,,,,ｚｈａｎｑｉａｎｓｉｌｕｔａｏｃｉｋｕａｊｉｎｇｄｉａｎｓｈａｎｇｃｈａｎｙｅｙｕａｎ　Ｃｑｕ０８ｓｈｉ　ｊｉｎｇｄｅｚｈｅｎｓｈｉ　ｚｈｕｓｈａｎｑｕ　ｊｉａｎｇｘｉｓｈｅｎｇ,,,,,,2023-04-17,1,,,,,ジンデゼンシャオミンミデェジケジユウゲンコウシ,0
725,3010001234519,新規,0,2023-04-17,2023-04-17,Ｕｍｍ株式会社,,株式会社,東京都,中央区,月島１丁目２２番１－２４０７号,,13,102,1040052,,,,,,,2023-04-17,1,,,,,ウーム,0
726,3010001234535,新規,0,2023-04-17,2023-04-17,１株式会社,,株式会社,東京都,千代田区,平河町１丁目３番地２平河町リリエンハイム２０２号,,13,101,1020093,,,,,,,2023-04-17,1,,,,,ワン,0
727,3010001234543,新規,0,2023-04-17,2023-04-17,株式会社八百野,,株式会社,東京都,中央区,晴海２丁目２番４２号,,13,102,1040053,,,,,,,2023-04-17,1,,,,,ヤオノ,0
728,3010001234551,新規,0,2023-04-17,2023-04-17,３ｖｉｓｔａ株式会社,,株式会社,東京都,中央区,銀座１丁目１２－４Ｎ＆ＥＢＬＤ．７階,,13,102,1040061,,,,,,,2023-04-17,1,,,,,サンビスタ,0
729,3010001234576,新規,0,2023-04-17,2023-04-17,株式会社ｇｒａｎｄ　ａｉｒ,,株式会社,東京都,中央区,勝どき６丁目３番２－４２１６号,,13,102,1040054,,,,,,,2023-04-17,1,,,,,グランテール,0
731,3010003040353,新規,0,2023-04-17,2023-04-17,合同会社Ｕｐｂｕｍｐｓ,,合同会社,東京都,中央区,銀座１丁目１２番４号Ｎ＆ＥＢＬＤ．７階,,13,102,1040061,,,,,,,2023-04-17,1,,,,,アップバンプス,0
736,3010005036523,新規,0,2023-04-17,2023-04-17,一般社団法人ローズマリー,,その他の設立登記法人,東京都,千代田区,平河町１丁目３番１３号平河町フロントビル７階株式会社シリウス・アドバイザリー内,,13,101,1020093,,,,,,,2023-04-17,1,,,,,ローズマリー,0
737,3010103002121,新規,0,2023-04-17,2023-04-17,カラカ・フードファクトリー合同会社,,合同会社,東京都,八王子市,別所１丁目３２番地７－３０３,,13,201,1920363,,,,,,,2023-04-17,1,,,,,カラカフードファクトリー,0
749,3010401173795,新規,0,2023-04-17,2023-04-17,株式会社ｂｒｉｄｅｎｃｅ,,株式会社,東京都,港区,浜松町２丁目２－１５浜松町ダイヤビル２Ｆ,,13,103,1050013,,,,,,,2023-04-17,1,,,,,ブライデンス,0
755,3010601062939,新規,0,2023-04-17,2023-04-17,和典株式会社,,株式会社,東京都,墨田区,文花１丁目３４番１１－４０９号,,13,107,1310044,,,,,,,2023-04-17,1,,,,,カズノリ,0
772,3010901052870,新規,0,2023-04-17,2023-04-17,シムチェンジャパン株式会社,,株式会社,東京都,世田谷区,等々力５丁目１３番１２号,,13,112,1580082,,,,,,,2023-04-17,1,,,,,シムチェンジャパン,0
785,3011001153709,新規,0,2023-04-17,2023-04-17,Ｉｎｔｅｌｌｉｇｅｎｃｅ　Ｉｎｄｅｅｄ　Ｒｅｃｏｍｍ株式会社,,株式会社,東京都,渋谷区,代々木３丁目２５番３号,,13,113,1510053,,,,,,,2023-04-17,1,,,,,インテリジェンスインディードレカム,0
786,3011001153733,新規,0,2023-04-17,2023-04-17,株式会社Ａｎａｐａｎａ,,株式会社,東京都,渋谷区,渋谷１丁目２４番地６号マトリクス・ツービル９Ｆ,,13,113,1500002,,,,,,,2023-04-17,1,,,,,アナパナ,0
787,3011001153790,新規,0,2023-04-17,2023-04-17,株式会社ステレーション,,株式会社,東京都,渋谷区,神宮前６丁目３５番３号コープオリンピア,,13,113,1500001,,,,,,,2023-04-17,1,,,,,ステレーション,0
788,3011001153799,新規,0,2023-04-17,2023-04-17,ブルーラグーン株式会社,,株式会社,東京都,渋谷区,恵比寿西１丁目１０番６号,,13,113,1500021,,,,,,,2023-04-17,1,,,,,ブルーラグーン,0
789,3011001153824,新規,0,2023-04-17,2023-04-17,株式会社ヴァートアーキテクト,,株式会社,東京都,渋谷区,恵比寿南１丁目１２番２号５階,,13,113,1500022,,,,,,,2023-04-17,1,,,,,,0
790,3011001153840,新規,0,2023-04-17,2023-04-17,株式会社Ｈａｃｈｉ,,株式会社,東京都,渋谷区,大山町２７－２１,,13,113,1510065,,,,,,,2023-04-17,1,,,,,ハチ,0
793,3011101102532,新規,0,2023-04-17,2023-04-17,ＬＵ株式会社,,株式会社,東京都,新宿区,西新宿３丁目３番１３号西新宿水間ビル２Ｆ,,13,104,1600023,,,,,,,2023-04-17,1,,,,,エルユー,0
794,3011101102557,新規,0,2023-04-17,2023-04-17,ＧＰＴインベストメント株式会社,,株式会社,東京都,新宿区,北新宿４丁目２１番３－２０２号,,13,104,1690074,,,,,,,2023-04-17,1,,,,,ジーピーティーインベストメント,0
796,3011201024585,新規,0,2023-04-17,2023-04-17,株式会社リソルジメント,,株式会社,東京都,中野区,新井２丁目３０番１－１００２号,,13,114,1650026,,,,,,,2023-04-17,1,,,,,リソルジメント,0
807,3011601026743,新規,0,2023-04-17,2023-04-17,路吉晟株式会社,,株式会社,東京都,練馬区,桜台１丁目７番７－４１１号,,13,120,1760002,,,,,,,2023-04-17,1,,,,,ロキチジョウ,0
810,3011603003897,新規,0,2023-04-17,2023-04-17,合同会社花Ｓａｋｉ,,合同会社,東京都,練馬区,西大泉４丁目５－３７－２０１,,13,120,1780065,,,,,,,2023-04-17,1,,,,,ハナサキ,0
814,3011801042251,新規,0,2023-04-17,2023-04-17,株式会社勇樹建設,,株式会社,東京都,葛飾区,亀有３丁目４０番５号,,13,122,1250061,,,,,,,2023-04-17,1,,,,,ユウキケンセツ,0
815,3012301013404,新規,0,2023-04-17,2023-04-17,株式会社ｃｏｃｏＲｅ,,株式会社,東京都,町田市,鶴川４丁目１３－２８,,13,209,1950061,,,,,,,2023-04-17,1,,,,,ココリ,0
818,3012403005919,新規,0,2023-04-17,2023-04-17,合同会社ＳＫネットショップ,,合同会社,東京都,府中市,美好町１丁目１５番地の４リガーレ美好町５０１,,13,206,1830045,,,,,,,2023-04-17,1,,,,,エスケーネットショップ,0
819,3012403005943,新規,0,2023-04-17,2023-04-17,合同会社ＫＡＫＡＮ,,合同会社,東京都,調布市,上石原３丁目３７番地１０,,13,208,1820035,,,,,,,2023-04-17,1,,,,,カカン,0
821,3012701017599,新規,0,2023-04-17,2023-04-17,株式会社Ｋチーム,,株式会社,東京都,西東京市,田無町７丁目３番２８号ファミーユ・Ｎ２０２号,,13,229,1880011,,,,,,,2023-04-17,1,,,,,ケーチーム,0
830,3020001151176,新規,0,2023-04-17,2023-04-17,株式会社Ｂｕｄｇｅｔ,,株式会社,神奈川県,横浜市港北区,岸根町３４３番地－４０１号室,,14,109,2220034,,,,,,,2023-04-17,1,,,,,バジェット,0
833,3020003023745,新規,0,2023-04-17,2023-04-17,合同会社エンフォルマ,,合同会社,神奈川県,横浜市西区,みなとみらい５丁目３番３－２５０３号,,14,103,2200012,,,,,,,2023-04-17,1,,,,,エンフォルマ,0
837,3021001078715,新規,0,2023-04-17,2023-04-17,ＡＬＬ‐ｔｅｃ株式会社,,株式会社,神奈川県,厚木市,三田２４８８番地６,,14,212,2430211,,,,,,,2023-04-17,1,,,,,オールテック,0
838,3021003012985,新規,0,2023-04-17,2023-04-17,Ｔ＆Ｍ　Ｅｎｔｅｒｐｒｉｓｅｓ合同会社,,合同会社,神奈川県,横須賀市,富士見町１丁目５番地９レジデンスＺ１０１,,14,201,2380021,,,,,,,2023-04-17,1,,,,,ティアンドエムエンタープライゼズ,0
857,3040001127810,新規,0,2023-04-17,2023-04-17,株式会社古西組,,株式会社,千葉県,柏市,松ケ崎３２９番地２２,,12,217,2770835,,,,,,,2023-04-17,1,,,,,コニシグミ,0
858,3040001127967,新規,0,2023-04-17,2023-04-17,株式会社ｋｕｔａｋｕｔａ,,株式会社,千葉県,八千代市,八千代台北１７丁目６－１６,,12,221,2760031,,,,,,,2023-04-17,1,,,,,クタクタ,0
868,3050003007415,新規,0,2023-04-17,2023-04-17,ＨＵＭＡＮ合同会社,,合同会社,茨城県,筑西市,門井１９８５番地３コーポひまわりＡ－１号,,08,227,3091107,,,,,,,2023-04-17,1,,,,,ヒュマン,0
869,3060001035887,新規,0,2023-04-17,2023-04-17,株式会社ルクスナイト,,株式会社,栃木県,栃木市,今泉町２丁目１３－２８ふくろう接骨院,,09,203,3280027,,,,,,,2023-04-17,1,,,,,ルクスナイト,0
874,3080001025572,新規,0,2023-04-17,2023-04-17,株式会社ＲＣ,,株式会社,静岡県,静岡市駿河区,丸子４丁目２０番２号,,22,102,4210103,,,,,,,2023-04-17,1,,,,,アールシー,0
886,3100001036328,新規,0,2023-04-17,2023-04-17,株式会社中山住宅資材,,株式会社,長野県,東御市,加沢７８７番地,,20,219,3890514,,,,,,,2023-04-17,1,,,,,ナカヤマジュウタクシザイ,0
888,3100003006980,新規,0,2023-04-17,2023-04-17,合同会社マルヤ,,合同会社,長野県,長野市,吉田４丁目５－１６－７０５,,20,201,3810043,,,,,,,2023-04-17,1,,,,,マルヤ,0
889,3110001037457,新規,0,2023-04-17,2023-04-17,株式会社ハッピースマイル,,株式会社,新潟県,長岡市,表町１丁目１０番地３５,,15,202,9400071,,,,,,,2023-04-17,1,,,,,ハッピースマイル,0
899,3120001254019,新規,0,2023-04-17,2023-04-17,株式会社クローバーコンチェルト,,株式会社,大阪府,大阪市住之江区,粉浜３丁目１３番２７号,,27,125,5590001,,,,,,,2023-04-17,1,,,,,クローバーコンチェルト,0
900,3120001254043,新規,0,2023-04-17,2023-04-17,株式会社グローリア,,株式会社,大阪府,大阪市此花区,梅香３丁目３２番１５号１Ｆ,,27,104,5540013,,,,,,,2023-04-17,1,,,,,グローリア,0
901,3120001254068,新規,0,2023-04-17,2023-04-17,Ｔｈｒｅｅ　Ｌｉｎｋｓ株式会社,,株式会社,大阪府,大阪市中央区,久太郎町３丁目１番１５号,,27,128,5410056,,,,,,,2023-04-17,1,,,,,スリーリンクス,0
908,3120101067361,新規,0,2023-04-17,2023-04-17,株式会社笑顔,,株式会社,大阪府,泉南郡熊取町,紺屋２丁目１９番１－１０７号,,27,361,5900412,,,,,,,2023-04-17,1,,,,,エガオ,0
911,3120103005170,新規,0,2023-04-17,2023-04-17,藤田産業合同会社,,合同会社,大阪府,羽曳野市,野６８１番地,,27,222,5830884,,,,,,,2023-04-17,1,,,,,フジタサンギョウ,0
912,3120901047422,新規,0,2023-04-17,2023-04-17,株式会社６６,,株式会社,大阪府,豊中市,新千里南町３丁目３番１－１００３号,,27,203,5600084,,,,,,,2023-04-17,1,,,,,ロックス,0
913,3120901047430,新規,0,2023-04-17,2023-04-17,株式会社ＦＦ,,株式会社,大阪府,茨木市,大池２丁目２０番４号,,27,211,5670826,,,,,,,2023-04-17,1,,,,,エフエフ,0
915,3122001036891,新規,0,2023-04-17,2023-04-17,株式会社ＦＲＥＥＷＡＮ,,株式会社,大阪府,八尾市,神武町１番地の１５,,27,212,5810067,,,,,,,2023-04-17,1,,,,,フリーワン,0
916,3130001074102,新規,0,2023-04-17,2023-04-17,株式会社惠良染工,,株式会社,京都府,京都市右京区,山ノ内大町２－１,,26,108,6150097,,,,,,,2023-04-17,1,,,,,エラセンコウ,0
925,3140001129813,新規,0,2023-04-17,2023-04-17,株式会社シャトレブラン,,株式会社,兵庫県,神戸市長田区,庄田町３丁目４番８号庄田町文化８号室,,28,106,6530035,,,,,,,2023-04-17,1,,,,,シャトレブラン,0
926,3140001129821,新規,0,2023-04-17,2023-04-17,奥村左官店株式会社,,株式会社,兵庫県,丹波篠山市,沢田４７６番地,,28,221,6692300,,,,,,,2023-04-17,1,,,,,オクムラサカンテン,0
927,3140001129846,新規,0,2023-04-17,2023-04-17,ｋａｋａ株式会社,,株式会社,兵庫県,神戸市中央区,中山手通２丁目４番１５－６０６号,,28,110,6500004,,,,,,,2023-04-17,1,,,,,カカ,0
928,3140001129854,新規,0,2023-04-17,2023-04-17,株式会社ＮＭＳ,,株式会社,兵庫県,明石市,林１丁目２番１７号,,28,203,6730034,,,,,,,2023-04-17,1,,,,,エヌエムエス,0
936,3140003018989,新規,0,2023-04-17,2023-04-17,合同会社ＴＨＮ　ＩＭＰＯＲＴ　ＥＸＰＯＲＴ　ＧＲＯＵＰ,,合同会社,兵庫県,神戸市灘区,鹿ノ下通２丁目３番８号１Ｆ,,28,102,6570044,,,,,,,2023-04-17,1,,,,,ティーエイチエヌインポートエクスポートグループ,0
938,3140005026577,新規,0,2023-04-17,2023-04-17,グッドプラン事業協同組合,,その他の設立登記法人,兵庫県,神戸市北区,南五葉２丁目１－３６,,28,109,6511132,,,,,,,2023-04-17,1,,,,,グッドプラン,0
939,3150001026316,新規,0,2023-04-17,2023-04-17,加納塗装株式会社,,株式会社,奈良県,生駒郡安堵町,大字東安堵９２８番地の５,,29,345,6391061,,,,,,,2023-04-17,1,,,,,カノウトソウ,0
940,3150003002934,新規,0,2023-04-17,2023-04-17,合同会社あい,,合同会社,奈良県,北葛城郡広陵町,大字平尾６４１番地１,,29,426,6350822,,,,,,,2023-04-17,1,,,,,アイ,0
942,3170001017552,新規,0,2023-04-17,2023-04-17,株式会社ｍｏｕｎｔａｉｎ　ｒｅｃｏｒｄｓ,,株式会社,和歌山県,和歌山市,黒田１９３番地３１,,30,201,6408341,,,,,,,2023-04-17,1,,,,,マウンテンレコーズ,0
954,3180001155715,新規,0,2023-04-17,2023-04-17,エム・ディーサプライ株式会社,,株式会社,愛知県,名古屋市中村区,亀島２丁目２０番２号,,23,105,4530013,,,,,,,2023-04-17,1,,,,,エムディーサプライ,0
955,3180001155855,新規,0,2023-04-17,2023-04-17,株式会社ルピナス,,株式会社,愛知県,稲沢市,大塚南２丁目５１番地,00130125,23,220,4928214,,,,,,,2023-04-17,1,,,,,ルピナス,0
956,3180001155871,新規,0,2023-04-17,2023-04-17,株式会社リフォーション,,株式会社,愛知県,名古屋市西区,花の木２丁目９番１７号,,23,104,4510062,,,,,,,2023-04-17,1,,,,,リフォーション,0
957,3180001155896,新規,0,2023-04-17,2023-04-17,株式会社尾州設備,,株式会社,愛知県,一宮市,東五城字西大堀１２番地１,,23,203,4940008,,,,,,,2023-04-17,1,,,,,ビシュウセツビ,0
968,3190003004299,新規,0,2023-04-17,2023-04-17,エムケーストリングス合同会社,,合同会社,三重県,四日市市,諏訪栄町４番１０号アピカビル３階,,24,202,5100086,,,,,,,2023-04-17,1,,,,,エムケーストリングス,0
970,3200001041202,新規,0,2023-04-17,2023-04-17,株式会社ミライズ,,株式会社,岐阜県,岐阜市,三輪９６２番地１１,,21,201,5012513,,,,,,,2023-04-17,1,,,,,ミライズ,0
975,3200003005931,新規,0,2023-04-17,2023-04-17,合同会社Ｆｏｕｒ’ｓＬｉｆｅ,,合同会社,岐阜県,不破郡垂井町,綾戸８９７番地１２７,,21,361,5032112,,,,,,,2023-04-17,1,,,,,フォーズライフ,0
976,3200005013478,新規,0,2023-04-17,2023-04-17,医療法人颯杉会,,その他の設立登記法人,岐阜県,大垣市,木戸町２丁目８０番地,,21,202,5030973,,,,,,,2023-04-17,1,,,,,ソウサンカイ,0
981,3230001019798,新規,0,2023-04-17,2023-04-17,エスエーロジ株式会社,,株式会社,富山県,富山市,三上１３４番地４,,16,201,9318434,,,,,,,2023-04-17,1,,,,,エスエーロジ,0
994,3250003003245,新規,0,2023-04-17,2023-04-17,スマイルサービス合同会社,,合同会社,山口県,光市,浅江７丁目３３番５号,,35,210,7430021,,,,,,,2023-04-17,1,,,,,スマイルサービス,0
1000,3260001037871,新規,0,2023-04-17,2023-04-17,株式会社小喜,,株式会社,岡山県,岡山市中区,平井４丁目７番１５号,,33,102,7038282,,,,,,,2023-04-17,1,,,,,ショウキ,0
1002,3270001008764,新規,0,2023-04-17,2023-04-17,株式会社ＴＡＳ,,株式会社,鳥取県,鳥取市,美萩野５丁目５２７番地８９,,31,201,6890202,,,,,,,2023-04-17,1,,,,,ティーエーエス,0
1005,3280005007547,新規,0,2023-04-17,2023-04-17,農事組合法人久利営農組合,,その他の設立登記法人,島根県,大田市,久利町久利７９０番地１,,32,205,6940024,,,,,,,2023-04-17,1,,,,,クリエイノウクミアイ,0
1013,3290001100965,新規,0,2023-04-17,2023-04-17,株式会社ＬＩＦＩＸ,,株式会社,福岡県,大川市,大字津４１－３,,40,212,8310035,,,,,,,2023-04-17,1,,,,,リフィックス,0
1014,3290001101187,新規,0,2023-04-17,2023-04-17,西和地所株式会社,,株式会社,福岡県,筑紫野市,光が丘５丁目１８番地５,,40,217,8180036,,,,,,,2023-04-17,1,,,,,セイワジショ,0
1015,3290001101237,新規,0,2023-04-17,2023-04-17,株式会社胤,,株式会社,福岡県,春日市,須玖南７丁目３４－２号,,40,218,8160863,,,,,,,2023-04-17,1,,,,,タネ,0
1023,3290803004389,新規,0,2023-04-17,2023-04-17,合同会社ワールドエイト,,合同会社,福岡県,北九州市小倉南区,中曽根東２丁目４番１号,,40,107,8000213,,,,,,,2023-04-17,1,,,,,ワールドエイト,0
1044,3330001030778,新規,0,2023-04-17,2023-04-17,Ｋ・Ｔ　ＳＥＣＵＲＩＴＹ　ＳＥＲＶＩＣＥ株式会社,,株式会社,熊本県,下益城郡美里町,安部２４３番地１,,43,348,8614714,,,,,,,2023-04-17,1,,,,,ケイティセキュリティサービス,0
1050,3360001031864,新規,0,2023-04-17,2023-04-17,株式会社セイト工商,,株式会社,沖縄県,那覇市,字仲井真２０１番地２６,,47,201,9020074,,,,,,,2023-04-17,1,,,,,セイトコウショウ,0
1051,3360001031872,新規,0,2023-04-17,2023-04-17,株式会社Ｂｅａｃｈ　ｏｎ,,株式会社,沖縄県,浦添市,大平１丁目２９番５号２階,,47,208,9012113,,,,,,,2023-04-17,1,,,,,ビーチオン,0
1052,3360001031880,新規,0,2023-04-17,2023-04-17,株式会社ＫＣＳ,,株式会社,沖縄県,那覇市,三原１丁目２６番４０号比嘉アパート３１１号室,,47,201,9020063,,,,,,,2023-04-17,1,,,,,ケーシーエス,0
1053,3360001031889,新規,0,2023-04-17,2023-04-17,みやぎ運送株式会社,,株式会社,沖縄県,名護市,城１丁目１１番１４号,,47,209,9050013,,,,,,,2023-04-17,1,,,,,ミヤギウンソウ,0
1056,3360003012895,新規,0,2023-04-17,2023-04-17,合同会社コム・コンサルタント,,合同会社,沖縄県,中頭郡嘉手納町,字嘉手納２７番地,,47,325,9040203,,,,,,,2023-04-17,1,,,,,コムコンサルタント,0
1069,3400003003064,新規,0,2023-04-17,2023-04-17,平泉クレーン合同会社,,合同会社,岩手県,西磐井郡平泉町,長島字竜ケ坂９１番地,,03,402,0294101,,,,,,,2023-04-17,1,,,,,ヒライズミクレーン,0
1070,3410001013460,新規,0,2023-04-17,2023-04-17,株式会社鷲谷工業,,株式会社,秋田県,南秋田郡五城目町,高崎字田中２２０番地１,,05,361,0181711,,,,,,,2023-04-17,1,,,,,ワシヤコウギョウ,0
1087,3450001013960,新規,0,2023-04-17,2023-04-17,株式会社リムズ,,株式会社,北海道,旭川市,台場三条１丁目１１番９号,,01,204,0708073,,,,,,,2023-04-17,1,,,,,リムズ,0
1090,3700150115474,新規,0,2023-04-17,2023-04-17,ＣＨＡＮＧＤＥＡＯＳＩＤＥＤＩＡＮＺＩＳＨＡＮＧＭＡＯＹＯＵＸＩＡＮＧＯＮＧＳＩ,,外国会社等,,,,,,,,ＣｈａｎｇｄｅＬｉｕｙｅｈｕｌｖｙｏｕｄｕｊｉａｑｕＱｉｌｉｑｉａｏｊｉｅｄａｏｔｕｏｇｕｄｉｓｈｅｑｕｙｉｚｕ,,,,,,2023-04-17,1,,,,,チャンダーアオスーダーディエンズーシャンマオヨウシエンゴンスー,0
1091,3700150115490,新規,0,2023-04-17,2023-04-17,Ｇｕａｎｇｚｈｏｕｓｈｉｂｏｐａｉｐｉｊｕｆｕｓｈｉ有限公司,,外国会社等,,,,,,,,３ｒｄ　Ｆｌｏｏｒ，Ｎｏ．５　Ｌｉｎｇｎａｎ　２ｎｄ　Ｃｏｍｍｅｒｃｉａｌ　Ｓｔｒｅｅｔ，Ｇｕａｎｇｚｈｏｕ　Ｃｉｔｙ，Ｃｈｉｎａ,,,,,,2023-04-17,1,,,,,グワンジヨウシボパイピジユイフウシヨウシエンゴンス,0
1101,4010001234534,新規,0,2023-04-17,2023-04-17,ヒカリ・ジャパン株式会社,,株式会社,東京都,中央区,日本橋２丁目１番１７号,,13,102,1030027,,,,,,,2023-04-17,1,,,,,ヒカリジャパン,0
1102,4010001234542,新規,0,2023-04-17,2023-04-17,東京宝潤達新材株式会社,,株式会社,東京都,中央区,日本橋小伝馬町１４－１０アソルティ小伝馬町Ｌｉｅｎｓ１２階,,13,102,1030001,,,,,,,2023-04-17,1,,,,,トウキョウホウジュンタツシンザイ,0
1103,4010001234550,新規,0,2023-04-17,2023-04-17,ＷｅｌｌＢｅ株式会社,,株式会社,東京都,中央区,日本橋室町１丁目１１－１２日本橋水野ビル７階,,13,102,1030022,,,,,,,2023-04-17,1,,,,,ウェルビー,0
1104,4010001234575,新規,0,2023-04-17,2023-04-17,株式会社トップデータ,,株式会社,東京都,千代田区,神田猿楽町２丁目１番２号鎌形ビル４階,,13,101,1010064,,,,,,,2023-04-17,1,,,,,トップデータ,0
1105,4010001234583,新規,0,2023-04-17,2023-04-17,株式会社ＢＵＬＬＳＥＣＵＲＩＴＹ,,株式会社,東京都,千代田区,神田佐久間町１丁目１４番地第２東ビル７０１,,13,101,1010025,,,,,,,2023-04-17,1,,,,,ブルセキュリティー,0
1106,4010001234617,新規,0,2023-04-17,2023-04-17,フォレクルー・ジャパン株式会社,,株式会社,東京都,中央区,日本橋本町２丁目２番２号日本橋本町ＹＳビル２階在日フランス商工会議所内,,13,102,1030023,,,,,,,2023-04-17,1,,,,,フォレクルージャパン,0
1107,4010001234658,新規,0,2023-04-17,2023-04-17,株式会社ドットレイズ,,株式会社,東京都,中央区,銀座６丁目１３番１６号銀座ＷａｌｌビルＵＣＦ５階,,13,102,1040061,,,,,,,2023-04-17,1,,,,,ドットレイズ,0
1113,4010003040352,新規,0,2023-04-17,2023-04-17,ブライソネスティ合同会社,,合同会社,東京都,中央区,銀座１丁目１２－４Ｎ＆ＥＢＬＤ．７階,,13,102,1040061,,,,,,,2023-04-17,1,,,,,ブライソネスティ,0
1120,4010005036522,新規,0,2023-04-17,2023-04-17,一般社団法人ＭＥＥＬＤ,,その他の設立登記法人,東京都,中央区,日本橋室町１丁目１１番１２号日本橋水野ビル７階,,13,102,1030022,,,,,,,2023-04-17,1,,,,,ミールド,0
1131,4010401173811,新規,0,2023-04-17,2023-04-17,Ｌｉｌｌｙ株式会社,,株式会社,東京都,港区,浜松町１丁目１８番１３号高桑ビル３階,,13,103,1050013,,,,,,,2023-04-17,1,,,,,リリイ,0
1135,4010501050308,新規,0,2023-04-17,2023-04-17,株式会社旭コンサルティング,,株式会社,東京都,台東区,東上野２丁目２０－１１日産ビル,,13,106,1100015,,,,,,,2023-04-17,1,,,,,アサヒコンサルティング,0
1138,4010603010102,新規,0,2023-04-17,2023-04-17,合同会社あべ電気,,合同会社,東京都,江東区,塩浜２丁目１４番９－１０１号,,13,108,1350043,,,,,,,2023-04-17,1,,,,,アベデンキ,0
1153,4010901052878,新規,0,2023-04-17,2023-04-17,株式会社東京マイホーム情報プラス,,株式会社,東京都,世田谷区,宇奈根２丁目２７番９号,,13,112,1570068,,,,,,,2023-04-17,1,,,,,トウキョウマイホームジョウホウプラス,0
1156,4011001153690,新規,0,2023-04-17,2023-04-17,株式会社ＴＫ　ＦＵＮＤ,,株式会社,東京都,渋谷区,本町１丁目７番１６－１３０６号,,13,113,1510071,,,,,,,2023-04-17,1,,,,,ティーケーファンド,0
1157,4011001153699,新規,0,2023-04-17,2023-04-17,東京カーニバル株式会社,,株式会社,東京都,渋谷区,桜丘町１７－１０ＭＣＤＢＬＤ・Ｂ２Ｆ,,13,113,1500031,,,,,,,2023-04-17,1,,,,,トウキョウカーニバル,0
1158,4011001153765,新規,0,2023-04-17,2023-04-17,株式会社ＡＵ　ＬＩＶＥＲ　ＯＦＦＩＣＥ,,株式会社,東京都,渋谷区,恵比寿西２丁目１７番１７号代官山眺めのいい家５０３,,13,113,1500021,,,,,,,2023-04-17,1,,,,,アウライバーオフィス,0
1159,4011001153815,新規,0,2023-04-17,2023-04-17,株式会社Ａｒｕ,,株式会社,東京都,渋谷区,千駄ヶ谷５丁目８－６エスポワール千駄ヶ谷１０１,,13,113,1510051,,,,,,,2023-04-17,1,,,,,,0
1160,4011001153856,新規,0,2023-04-17,2023-04-17,株式会社Ｗｉｔｈｂｅ,,株式会社,東京都,渋谷区,神宮前６丁目２３番４号桑野ビル２Ｆ,,13,113,1500001,,,,,,,2023-04-17,1,,,,,ウィズビー,0
1163,4011003016656,新規,0,2023-04-17,2023-04-17,ｓｅｓａｍｅ合同会社,,合同会社,東京都,渋谷区,道玄坂１丁目１０番８号渋谷道玄坂東急ビル２Ｆ‐Ｃ,,13,113,1500043,,,,,,,2023-04-17,1,,,,,セサミ,0
1165,4011005010038,新規,0,2023-04-17,2023-04-17,一般財団法人藤山一郎音楽文化振興財団,,その他の設立登記法人,東京都,目黒区,中町１丁目１番１５号,,13,110,1530065,,,,,,,2023-04-17,1,,,,,フジヤマイチロウオンガクブンカシンコウザイダン,0
1170,4011101102531,新規,0,2023-04-17,2023-04-17,株式会社Ｂｕｉｌｄ‐ｕｐ,,株式会社,東京都,新宿区,中落合１丁目１７番３号,,13,104,1610032,,,,,,,2023-04-17,1,,,,,ビルドアップ,0
1171,4011101102548,新規,0,2023-04-17,2023-04-17,エターナルプラネット・エナジー・ジャパン株式会社,,株式会社,東京都,新宿区,新宿５丁目１７番５号ラウンドクロス新宿五丁目８階,,13,104,1600022,,,,,,,2023-04-17,1,,,,,エターナルプラネットエナジージャパン,0
1172,4011101102564,新規,0,2023-04-17,2023-04-17,株式会社ＳＨＩＯＤＥ,,株式会社,東京都,新宿区,北山伏町１番３０号フィース神楽坂４０７,,13,104,1620853,,,,,,,2023-04-17,1,,,,,シオデ,0
1176,4011403003972,新規,0,2023-04-17,2023-04-17,合同会社オーケストラ・トリプティーク,,合同会社,東京都,板橋区,舟渡１丁目１２の１１ベルガーデン３０１,,13,119,1740041,,,,,,,2023-04-17,1,,,,,オーケストラトリプティーク,0
1181,4011801042234,新規,0,2023-04-17,2023-04-17,株式会社スマイル・おきの,,株式会社,東京都,足立区,興野２丁目２２番２６号,,13,121,1230844,,,,,,,2023-04-17,1,,,,,スマイルオキノ,0
1182,4012301013403,新規,0,2023-04-17,2023-04-17,Ｕｉｌａ株式会社,,株式会社,東京都,町田市,南町田３丁目２１番１７号,,13,209,1940005,,,,,,,2023-04-17,1,,,,,ウィラ,0
1187,4012403005926,新規,0,2023-04-17,2023-04-17,はすねこ合同会社,,合同会社,東京都,調布市,小島町３丁目４０－７,,13,208,1820026,,,,,,,2023-04-17,1,,,,,ハスネコ,0
1197,4012801022234,新規,0,2023-04-17,2023-04-17,株式会社ＮＯ　ＢＬａｎｄ,,株式会社,東京都,武蔵村山市,学園５丁目１５番地の１６,,13,223,2080011,,,,,,,2023-04-17,1,,,,,ノーブランド,0
1198,4012801022275,新規,0,2023-04-17,2023-04-17,株式会社ＷＩＴＨ　ＭＥＤＩＣＡＬ　Ｌａｂ．,,株式会社,東京都,日野市,万願寺２丁目３４番地の１クリオ高幡不動壱番館５０６,,13,212,1910024,,,,,,,2023-04-17,1,,,,,ウィズメディカルラボ,0
1210,4020001151150,新規,0,2023-04-17,2023-04-17,株式会社Ｓｔｅｌｌａ,,株式会社,神奈川県,横浜市西区,みなとみらい４丁目９番２－Ｄ２８０８号,,14,103,2200012,,,,,,,2023-04-17,1,,,,,ステラ,0
1213,4020005015954,新規,0,2023-04-17,2023-04-17,一般社団法人プラント・インフラ腐食相談ネットワーク,,その他の設立登記法人,神奈川県,横浜市西区,北幸２丁目１０番２８号むつみビル３Ｆ,,14,103,2200004,,,,,,,2023-04-17,1,,,,,プラントインフラフショクソウダンネットワーク,0
1237,4040001127974,新規,0,2023-04-17,2023-04-17,フォーチュンアップ株式会社,,株式会社,千葉県,長生郡白子町,牛込６５０番１,,12,424,2994202,,,,,,,2023-04-17,1,,,,,フォーチュンアップ,0
1238,4040001127999,新規,0,2023-04-17,2023-04-17,株式会社ｂｏＬｅｒｏ,,株式会社,千葉県,市川市,湊１２番４号,,12,203,2720131,,,,,,,2023-04-17,1,,,,,ボレロ,0
1239,4040001128007,新規,0,2023-04-17,2023-04-17,創環株式会社,,株式会社,千葉県,流山市,流山１丁目２７４番地の２,,12,220,2700164,,,,,,,2023-04-17,1,,,,,ソウカン,0
1242,4040003022397,新規,0,2023-04-17,2023-04-17,合同会社水鹿エクスプレス,,合同会社,千葉県,市川市,新井３丁目１０－１２Ｓａｒｉｔｅｓ壱番館２０１,,12,203,2720144,,,,,,,2023-04-17,1,,,,,スイロクエクスプレス,0
1244,4040005021959,新規,0,2023-04-17,2023-04-17,一般社団法人市川スポーツ文化推進協会,,その他の設立登記法人,千葉県,市川市,市川２丁目８番１８号Ｍビル１０１号室,,12,203,2720034,,,,,,,2023-04-17,1,,,,,イチカワスポーツブンカスイシンキョウカイ,0
1257,4050003007414,新規,0,2023-04-17,2023-04-17,モノコト創り．ｃｏｍ合同会社,,合同会社,茨城県,ひたちなか市,笹野町３丁目１６－３４,,08,221,3120018,,,,,,,2023-04-17,1,,,,,モノコトヅクリドットコム,0
1265,4080005007533,新規,0,2023-04-17,2023-04-17,一般社団法人ラランジャ・リマ,,その他の設立登記法人,静岡県,藤枝市,藤岡４丁目４８８番地の８５,,22,214,4260006,,,,,,,2023-04-17,1,,,,,ラランジャリマ,0
1271,4100001036327,新規,0,2023-04-17,2023-04-17,株式会社信濃建業,,株式会社,長野県,上水内郡小川村,大字瀬戸川１０９６１,,20,588,3813304,,,,,,,2023-04-17,1,,,,,シナノケンギョウ,0
1276,4110001037448,新規,0,2023-04-17,2023-04-17,株式会社ＬＩＫＥ７,,株式会社,新潟県,加茂市,桜沢６５４番地１,,15,209,9591357,,,,,,,2023-04-17,1,,,,,ライクセブン,0
1285,4120001253969,新規,0,2023-04-17,2023-04-17,エキスプレス株式会社,,株式会社,大阪府,大阪市東成区,深江北３丁目４番２１号エクラ深江橋６１５Ｄ,,27,115,5370001,,,,,,,2023-04-17,1,,,,,エキスプレス,0
1286,4120001254067,新規,0,2023-04-17,2023-04-17,見山創意文化貿易株式会社,,株式会社,大阪府,大阪市中央区,東心斎橋１丁目３番３－８０１号,,27,128,5420083,,,,,,,2023-04-17,1,,,,,ミヤマソウイブンカボウエキ,0
1296,4120101067360,新規,0,2023-04-17,2023-04-17,株式会社大阪コンストラクションマネジメント,,株式会社,大阪府,堺市南区,城山台４丁２番３号,,27,145,5900137,,,,,,,2023-04-17,1,,,,,オオサカコンストラクションマネジメント,0
1297,4120101067369,新規,0,2023-04-17,2023-04-17,川口商事株式会社,,株式会社,大阪府,岸和田市,土生町１３丁目３番１５号,,27,202,5960825,,,,,,,2023-04-17,1,,,,,カワグチショウジ,0
1301,4120901047421,新規,0,2023-04-17,2023-04-17,株式会社マーク,,株式会社,大阪府,豊中市,庄内幸町１丁目３番７号,,27,203,5610833,,,,,,,2023-04-17,1,,,,,マーク,0
1307,4130001074101,新規,0,2023-04-17,2023-04-17,株式会社ｓｙｏｕｗａ．ＤＳＣ,,株式会社,京都府,京都市上京区,寺之内通大宮西入二丁目中猪熊町２９０番地の１,,26,102,6020000,,,,,,,2023-04-17,1,,,,,ショウワディーエスシー,0
1318,4140001129779,新規,0,2023-04-17,2023-04-17,株式会社ウエカドスポーツ,,株式会社,兵庫県,尼崎市,南武庫之荘３丁目３６番１２号,,28,202,6610033,,,,,,,2023-04-17,1,,,,,ウエカドスポーツ,0
1319,4140001129837,新規,0,2023-04-17,2023-04-17,バレヌエシエル株式会社,,株式会社,兵庫県,神戸市西区,平野町中津２６１４番地,,28,111,6512257,,,,,,,2023-04-17,1,,,,,バレヌエシエル,0
1320,4140001129845,新規,0,2023-04-17,2023-04-17,株式会社サービスシステムズ,,株式会社,兵庫県,姫路市,呉服町５８番地２Ｆ,,28,201,6700923,,,,,,,2023-04-17,1,,,,,サービスシステムズ,0
1321,4140001129853,新規,0,2023-04-17,2023-04-17,株式会社ヒロ,,株式会社,兵庫県,尼崎市,水堂町１丁目１２番１号,,28,202,6610026,,,,,,,2023-04-17,1,,,,,ヒロ,0
1324,4140003018971,新規,0,2023-04-17,2023-04-17,合同会社サンパワー東阿保,,合同会社,兵庫県,姫路市,飾磨区三宅３丁目３０３番地５,,28,201,6728048,,,,,,,2023-04-17,1,,,,,サンパワーヒガシアボ,0
1325,4140003018988,新規,0,2023-04-17,2023-04-17,オーパスワンオフィス合同会社,,合同会社,兵庫県,神戸市東灘区,住吉東町５丁目２番２－８０２号,,28,101,6580052,,,,,,,2023-04-17,1,,,,,オーパスワンオフィス,0
1327,4150001026315,新規,0,2023-04-17,2023-04-17,ジクシール株式会社,,株式会社,奈良県,橿原市,十市町４５３番地の５,,29,205,6340008,,,,,,,2023-04-17,1,,,,,ジクシール,0
1331,4170003001859,新規,0,2023-04-17,2023-04-17,合同会社Ｃ・Ｂサービス,,合同会社,和歌山県,田辺市,新庄町５５２番地の８,,30,206,6460011,,,,,,,2023-04-17,1,,,,,シービーサービス,0
1339,4180001155912,新規,0,2023-04-17,2023-04-17,株式会社バンザイサービス名西,,株式会社,愛知県,一宮市,浅野字上土池５１番地６,,23,203,4910871,,,,,,,2023-04-17,1,,,,,バンザイサービスメイセイ,0
1340,4180001155937,新規,0,2023-04-17,2023-04-17,株式会社オッパ,,株式会社,愛知県,名古屋市港区,名港１丁目１４番２３号コーラルまるさんビル１ＦＢ号,,23,111,4550037,,,,,,,2023-04-17,1,,,,,オッパ,0
1353,4180003025106,新規,0,2023-04-17,2023-04-17,Ａｒｃｈａｎｇｅ合同会社,,合同会社,愛知県,名古屋市守山区,中新３番４０号フリーデンサトー３０１,,23,113,4630057,,,,,,,2023-04-17,1,,,,,アルカンジュ,0
1356,4180005020179,新規,0,2023-04-17,2023-04-17,特定非営利活動法人ＭＩＮＤ,,その他の設立登記法人,愛知県,名古屋市西区,栄生１丁目３２番２５号マルベリー上更１０１号,,23,104,4510052,,,,,,,2023-04-17,1,,,,,マインド,0
1361,4180301037315,新規,0,2023-04-17,2023-04-17,Ｂ‐ＦＡＲＭ株式会社,,株式会社,愛知県,安城市,百石町２丁目１５番地５,,23,212,4460044,,,,,,,2023-04-17,1,,,,,ビーファーム,0
1369,4190003004298,新規,0,2023-04-17,2023-04-17,合同会社ボヌール,,合同会社,三重県,桑名市,大字江場１９番地１,,24,205,5110836,,,,,,,2023-04-17,1,,,,,ボヌール,0
1372,4200001041201,新規,0,2023-04-17,2023-04-17,Ｅ＆Ａ　ＢＵＲＧＯＳ株式会社,,株式会社,岐阜県,各務原市,那加土山町２丁目１３６番地１,,21,213,5040041,,,,,,,2023-04-17,1,,,,,イーアンドエーブルゴス,0
1374,4220001025359,新規,0,2023-04-17,2023-04-17,株式会社加賀米野菜基地,,株式会社,石川県,金沢市,赤土町ヘ２４０番地,,17,201,9200353,,,,,,,2023-04-17,1,,,,,カガコメヤサイキチ,0
1375,4220003003494,新規,0,2023-04-17,2023-04-17,アリブラ合同会社,,合同会社,石川県,加賀市,大聖寺京町３０,,17,206,9220055,,,,,,,2023-04-17,1,,,,,アリブラ,0
1380,4240001061369,新規,0,2023-04-17,2023-04-17,株式会社あかつき,,株式会社,広島県,安芸郡府中町,本町４丁目３番１５号,,34,302,7350006,,,,,,,2023-04-17,1,,,,,アカツキ,0
1381,4240001061385,新規,0,2023-04-17,2023-04-17,株式会社ファーストナイン,,株式会社,広島県,廿日市市,佐方２丁目７番４２－２０１号,,34,213,7380001,,,,,,,2023-04-17,1,,,,,ファーストナイン,0
1384,4240003006099,新規,0,2023-04-17,2023-04-17,合同会社福益家,,合同会社,広島県,山県郡北広島町,阿坂８４７番地,,34,369,7311222,,,,,,,2023-04-17,1,,,,,フクマスヤ,0
1385,4240003006108,新規,0,2023-04-17,2023-04-17,合同会社Ｏｆｆｉｃｅ鞆の浦,,合同会社,広島県,福山市,鞆町鞆８３４―１,,34,207,7200201,,,,,,,2023-04-17,1,,,,,オフィストモノウラ,0
1386,4240005015552,新規,0,2023-04-17,2023-04-17,一般社団法人栗の会,,その他の設立登記法人,広島県,広島市西区,南観音７丁目１４番２０号,,34,104,7330035,,,,,,,2023-04-17,1,,,,,クリノカイ,0
1389,4260001037862,新規,0,2023-04-17,2023-04-17,株式会社ＭＥ,,株式会社,岡山県,岡山市北区,大元１丁目１番７号カクサンビル５０７号,,33,101,7000924,,,,,,,2023-04-17,1,,,,,エムイー,0
1391,4270001008763,新規,0,2023-04-17,2023-04-17,株式会社リブファニチャー,,株式会社,鳥取県,鳥取市,国府町高岡７８０番地２,,31,201,6800131,,,,,,,2023-04-17,1,,,,,リブファニチャー,0
1396,4290001101244,新規,0,2023-04-17,2023-04-17,Ｕｔｅｒｕｓ株式会社,,株式会社,福岡県,久留米市,福本町１６８８番地７３,,40,203,8390000,,,,,,,2023-04-17,1,,,,,ユーテラス,0
1416,4330001030752,新規,0,2023-04-17,2023-04-17,株式会社ビープラス,,株式会社,熊本県,荒尾市,高浜１２４番地１,,43,204,8640025,,,,,,,2023-04-17,1,,,,,ビープラス,0
1418,4330003009811,新規,0,2023-04-17,2023-04-17,Ｚｏｈ　Ｄｅｓｉｇｎ合同会社,,合同会社,熊本県,熊本市中央区,九品寺５丁目４番１３九品寺Ａ－２－４０１号,,43,101,8620976,,,,,,,2023-04-17,1,,,,,ゾウデザイン,0
1419,4330005010643,新規,0,2023-04-17,2023-04-17,一般社団法人日本ドローンレスキュー災害支援協会,,その他の設立登記法人,熊本県,菊池郡大津町,大字高尾野７８４番地,,43,403,8691232,,,,,,,2023-04-17,1,,,,,ニホンドローンレスキューサイガイシエンキョウカイ,0
1420,4330005010651,新規,0,2023-04-17,2023-04-17,ＮＰＯ法人いだてん玉名ＳＣ,,その他の設立登記法人,熊本県,玉名市,中１９３５番地の１号,,43,206,8650064,,,,,,,2023-04-17,1,,,,,イダテンタマナエスシー,0
1426,4360003012845,新規,0,2023-04-17,2023-04-17,合同会社ファロ,,合同会社,沖縄県,那覇市,おもろまち１丁目１－２５リュークスタワーＷＥＳＴ２９０１,,47,201,9000006,,,,,,,2023-04-17,1,,,,,ファロ,0
1427,4360003012894,新規,0,2023-04-17,2023-04-17,合同会社仲里ペイント,,合同会社,沖縄県,宮古島市,下地字洲鎌２５４番地１５,,47,214,9060303,,,,,,,2023-04-17,1,,,,,ナカザトペイント,0
1433,4380001033619,新規,0,2023-04-17,2023-04-17,一凛の花株式会社,,株式会社,福島県,いわき市,田人町黒田字唐沢３５番地,,07,204,9740151,,,,,,,2023-04-17,1,,,,,イチリンノハナ,0
1444,4420001018227,新規,0,2023-04-17,2023-04-17,株式会社青森計装,,株式会社,青森県,三沢市,松園町３丁目９番６－２０２号,,02,207,0330037,,,,,,,2023-04-17,1,,,,,アオモリケイソウ,0
1451,4430001088863,新規,0,2023-04-17,2023-04-17,株式会社任田金属,,株式会社,北海道,札幌市北区,新琴似六条５丁目５番７号,,01,102,0010906,,,,,,,2023-04-17,1,,,,,トウダキンゾク,0
1469,4500005008604,新規,0,2023-04-17,2023-04-17,一般社団法人愛媛県晴活,,その他の設立登記法人,愛媛県,松山市,和気町２丁目８５４番地４６,,38,201,7992656,,,,,,,2023-04-17,1,,,,,エヒメケンセイカツ,0
1471,4700150115060,新規,0,2023-04-17,2023-03-29,新宿御苑森の薪能実行委員会,,その他,東京都,新宿区,西新宿６丁目８－２ＢＩＺ新宿３階,,13,104,1600023,,,,,,,2023-03-29,1,,,,,シンジユクギヨエンモリノタキギノウジツコウイインカイ,0
1472,4700150115507,新規,0,2023-04-17,2023-04-17,ｓｈｅｎｚｈｅｎｓｈｉ　ｚｈｕｏｈａｎｍａｏｙｉ　ｙｏｕｘｉａｎｇｏｎｇｓｉ,,外国会社等,,,,,,,,Ａ１５０７　Ｙａｎｔｉａｎ　Ｓｔｒｅｅｔ，Ｍｉｎｇｚｈｕ　Ｒｏａｄ　Ｈｅｈｅｎｇ　Ｃｅｎｔｒａｌ　Ｓｑｕａｒｅ　Ｙａｎｔｉａｎ　ｄｉｓｔｒｉｃｔ　Ｇｕａｎｇｄｏｎｇ　ｐｒｏｖｉｎｃｅ，ｓｈｅｎｚｈｅｎ　ｃｉｔｙ,,,,,,2023-04-17,1,,,,,シンセンシズォハンマォイユウゲンコウシ,0
1483,5010001234525,新規,0,2023-04-17,2023-04-17,ＳＵＰＥＲ　ＥＤＧＥ株式会社,,株式会社,東京都,中央区,銀座１丁目２２番１１号銀座大竹ビジデンス２Ｆ,,13,102,1040061,,,,,,,2023-04-17,1,,,,,スーパーエッジ,0
1484,5010001234533,新規,0,2023-04-17,2023-04-17,株式会社タイガーマネジメント,,株式会社,東京都,中央区,銀座１丁目２２番１１号銀座大竹ビジデンス２Ｆ,,13,102,1040061,,,,,,,2023-04-17,1,,,,,タイガーマネジメント,0
1485,5010001234541,新規,0,2023-04-17,2023-04-17,ＲＥ縁堂株式会社,,株式会社,東京都,中央区,銀座１丁目１２番４号Ｎ＆Ｅ．ＢＬＤ．６Ｆ,,13,102,1040061,,,,,,,2023-04-17,1,,,,,リエンドウ,0
1486,5010001234566,新規,0,2023-04-17,2023-04-17,株式会社ＥＮＯＬＡ,,株式会社,東京都,千代田区,平河町２丁目５番３号,,13,101,1020093,,,,,,,2023-04-17,1,,,,,エノラ,0
1487,5010001234608,新規,0,2023-04-17,2023-04-17,株式会社海と山のあいだ,,株式会社,東京都,中央区,銀座１丁目１２－４Ｎ＆ＥＢＬＤ．７階,,13,102,1040061,,,,,,,2023-04-17,1,,,,,ウミトヤマノアイダ,0
1491,5010003040335,新規,0,2023-04-17,2023-04-17,合同会社Ｓ＆Ｋ,,合同会社,東京都,中央区,銀座１丁目２２番１１号,,13,102,1040061,,,,,,,2023-04-17,1,,,,,エスアンドケイ,0
1496,5010005036521,新規,0,2023-04-17,2023-04-17,一般社団法人ＬＥＶＥＣＨＹ２号,,その他の設立登記法人,東京都,千代田区,紀尾井町３－８第２紀尾井町ビル９０１アクシス綜合会計事務所内,,13,101,1020094,,,,,,,2023-04-17,1,,,,,レベチーニゴウ,0
1497,5010101015602,新規,0,2023-04-17,2023-04-17,株式会社ＩＮＫ,,株式会社,東京都,八王子市,館町１２７３番地３,,13,201,1930944,,,,,,,2023-04-17,1,,,,,インク,0
1501,5010401173620,新規,0,2023-04-17,2023-04-17,株式会社パートナーズコネクト,,株式会社,東京都,港区,南青山２丁目２－１５ｗｉｎ青山ビル,,13,103,1070062,,,,,,,2023-04-17,1,,,,,パートナーズコネクト,0
1502,5010401173777,新規,0,2023-04-17,2023-04-17,株式会社Ｋｕｒａｓａｋｕ,,株式会社,東京都,港区,元赤坂１丁目６－２安全ビルレジデンス２００４,,13,103,1070051,,,,,,,2023-04-17,1,,,,,クラサク,0
1503,5010401173810,新規,0,2023-04-17,2023-04-17,株式会社ＪＳ‐ＭＩＫ,,株式会社,東京都,港区,北青山３丁目２番２号ＡＹビル７階,,13,103,1070061,,,,,,,2023-04-17,1,,,,,ジェイエスミク,0
1510,5010501050298,新規,0,2023-04-17,2023-04-17,株式会社フューチャークラフト,,株式会社,東京都,台東区,寿２丁目８番１４号第二近藤ビル,,13,106,1110042,,,,,,,2023-04-17,1,,,,,フューチャークラフト,0
1512,5010503006959,新規,0,2023-04-17,2023-04-17,合同会社スガワラ,,合同会社,東京都,台東区,雷門２丁目１４番２号雷門ＢＬＤ．２０２,,13,106,1110034,,,,,,,2023-04-17,1,,,,,スガワラ,0
1515,5010601062945,新規,0,2023-04-17,2023-04-17,株式会社勝どき,,株式会社,東京都,江東区,東雲１丁目９番１６号,,13,108,1350062,,,,,,,2023-04-17,1,,,,,カチドキ,0
1516,5010603010101,新規,0,2023-04-17,2023-04-17,ｓｃｉｎＴｉｌｌｅｒ合同会社,,合同会社,東京都,江東区,千石３丁目１番２４－１６１４号,,13,108,1350015,,,,,,,2023-04-17,1,,,,,サンティエ,0
1517,5010605004191,新規,0,2023-04-17,2023-04-17,ｃｏｓｍｏｓ２１ザ・ガーデンズフォート管理組合法人,,その他の設立登記法人,東京都,江東区,東砂４丁目２４番３号ｃｏｓｍｏｓ２１ザ・ガーデンズフォート管理事務所,,13,108,1360074,,,,,,,2023-04-17,1,,,,,コスモニジュウイチザガーデンズフォート,0
1526,5010701044100,新規,0,2023-04-17,2023-04-17,ＴＳＫＴ株式会社,,株式会社,東京都,品川区,小山台１丁目２５番１２号Ｂ棟,,13,109,1420061,,,,,,,2023-04-17,1,,,,,ティーエスケーティー,0
1534,5010903008084,新規,0,2023-04-17,2023-04-17,合同会社２０７７,,合同会社,東京都,世田谷区,太子堂３丁目３０－２マストライフ太子堂２０２号,,13,112,1540004,,,,,,,2023-04-17,1,,,,,,0
1541,5011001153558,新規,0,2023-04-17,2023-04-17,株式会社ウェルネストスタッフィング,,株式会社,東京都,渋谷区,広尾１丁目１番３９号恵比寿プライムスクエアタワー１９階,,13,113,1500012,,,,,,,2023-04-17,1,,,,,ウェルネストスタッフィング,0
1542,5011001153797,新規,0,2023-04-17,2023-04-17,トライザ株式会社,,株式会社,東京都,渋谷区,西原１丁目２０番７号,,13,113,1510066,,,,,,,2023-04-17,1,,,,,トライザ,0
1543,5011001153822,新規,0,2023-04-17,2023-04-17,クレコンゲノミクス株式会社,,株式会社,東京都,渋谷区,渋谷２丁目１９番１５号宮益坂ビルディング４０５,,13,113,1500002,,,,,,,2023-04-17,1,,,,,クレコンゲノミクス,0
1544,5011001153839,新規,0,2023-04-17,2023-04-17,株式会社Ｒｅｄ　Ａｎｄ　Ｐｕｒｐｌｅ,,株式会社,東京都,渋谷区,神宮前６丁目２３番４号桑野ビル２階,,13,113,1500001,,,,,,,2023-04-17,1,,,,,レッドアンドパープル,0
1545,5011003016655,新規,0,2023-04-17,2023-04-17,合同会社ＡＳ不動産戦略研究所,,合同会社,東京都,渋谷区,道玄坂１丁目１０番８号渋谷道玄坂東急ビル２Ｆ－Ｃ,,13,113,1500043,,,,,,,2023-04-17,1,,,,,エイエスフドウサンセンリャクケンキュウショ,0
1555,5011101102539,新規,0,2023-04-17,2023-04-17,株式会社マイトジェニック,,株式会社,東京都,新宿区,高田馬場３丁目１番５号サンパティオ高田馬場３０９号室,,13,104,1690075,,,,,,,2023-04-17,1,,,,,マイトジェニック,0
1558,5011103012942,新規,0,2023-04-17,2023-04-17,合同会社ＮＥＸＴ,,合同会社,東京都,新宿区,西新宿３丁目３番１３号西新宿水間ビル６階,,13,104,1600023,,,,,,,2023-04-17,1,,,,,ネクスト,0
1559,5011105010630,新規,0,2023-04-17,2023-04-17,公認心理師労働者協同組合,,その他の設立登記法人,東京都,新宿区,四谷１丁目２－６アーバンサカス５－４Ａ,,13,104,1600004,,,,,,,2023-04-17,1,,,,,コウニンシンリシロウドウシャ,0
1567,5011401025051,新規,0,2023-04-17,2023-04-17,株式会社パブリックヒストリー,,株式会社,東京都,板橋区,大山町５２番２号,,13,119,1730023,,,,,,,2023-04-17,1,,,,,パブリックヒストリー,0
1569,5011601006826,新規,0,2023-04-17,2023-04-17,室町薬品株式会社,,株式会社,東京都,練馬区,栄町９番７－６０３号,,13,120,1760006,,,,,,,2023-04-17,1,,,,,ムロマチヤクヒン,0
1573,5011801042233,新規,0,2023-04-17,2023-04-17,株式会社彩桜堂,,株式会社,東京都,足立区,梅島３丁目１３番１７号,,13,121,1210816,,,,,,,2023-04-17,1,,,,,サイオウドウ,0
1574,5011803005618,新規,0,2023-04-17,2023-04-17,ＬｉｆｅＣｒｅａｔｅ合同会社,,合同会社,東京都,足立区,青井３丁目２－３,,13,121,1200012,,,,,,,2023-04-17,1,,,,,ライフクリエイト,0
1575,5012301013402,新規,0,2023-04-17,2023-04-17,ＦＡｇｅｎｔ株式会社,,株式会社,東京都,町田市,中町１丁目４番２号町田新産業創造センター,,13,209,1940021,,,,,,,2023-04-17,1,,,,,エフエージェント,0
1577,5012401040412,新規,0,2023-04-17,2023-04-17,株式会社ｅｎｉｇｍａ,,株式会社,東京都,調布市,小島町１丁目３６番地１６,,13,208,1820026,,,,,,,2023-04-17,1,,,,,エニグマ,0
1580,5012701017606,新規,0,2023-04-17,2023-04-17,株式会社一生遊んで暮らしたい,,株式会社,東京都,東久留米市,下里７丁目６番１号,,13,222,2030043,,,,,,,2023-04-17,1,,,,,イッショウアソンデクラシタイ,0
1592,5020001151133,新規,0,2023-04-17,2023-04-17,株式会社シニョーレ,,株式会社,神奈川県,横浜市南区,永田山王台２４番１２号スピカテラス山王台１０１,,14,105,2320074,,,,,,,2023-04-17,1,,,,,シニョーレ,0
1593,5020001151141,新規,0,2023-04-17,2023-04-17,株式会社ツルヒメＬａｂｏ,,株式会社,神奈川県,川崎市川崎区,昭和２丁目７番１１－３号,,14,131,2100813,,,,,,,2023-04-17,1,,,,,ツルヒメラボ,0
1595,5020003023743,新規,0,2023-04-17,2023-04-17,合同会社ｍａｓｔ,,合同会社,神奈川県,横浜市港北区,高田西２丁目１９番１０号太陽ビル３０３,,14,109,2230066,,,,,,,2023-04-17,1,,,,,マスト,0
1601,5021001078713,新規,0,2023-04-17,2023-04-17,株式会社ｓｕｂｚｅｒｏ,,株式会社,神奈川県,茅ヶ崎市,小和田１丁目１５－１４－１,,14,207,2530012,,,,,,,2023-04-17,1,,,,,サブゼロ,0
1602,5021001078746,新規,0,2023-04-17,2023-04-17,株式会社成瀬建築,,株式会社,神奈川県,厚木市,三田南３丁目２７番２６号,,14,212,2430217,,,,,,,2023-04-17,1,,,,,ナルセケンチク,0
1610,5030005021232,新規,0,2023-04-17,2023-04-17,医療法人社団紡,,その他の設立登記法人,埼玉県,越谷市,レイクタウン２丁目２番地６,,11,222,3430828,,,,,,,2023-04-17,1,,,,,ツムギ,0
1618,5040001127965,新規,0,2023-04-17,2023-04-17,株式会社Ｏｃｔａｇｒａｍ,,株式会社,千葉県,市川市,市川南２丁目９番５号大信ビルＮｏ．１－１０３号室,,12,203,2720033,,,,,,,2023-04-17,1,,,,,オクタグラム,0
1619,5040001127981,新規,0,2023-04-17,2023-04-17,Ｗｉｌｌｉｎｇ株式会社,,株式会社,千葉県,松戸市,西馬橋１丁目１８－３ＦＯＳＴＥＲ・ＣＯＵＲＴ３０３,,12,207,2710044,,,,,,,2023-04-17,1,,,,,ウィリング,0
1620,5040001128014,新規,0,2023-04-17,2023-04-17,株式会社心,,株式会社,千葉県,船橋市,前原西６丁目６番４６号,,12,204,2740825,,,,,,,2023-04-17,1,,,,,ココロ,0
1650,5080001025579,新規,0,2023-04-17,2023-04-17,ＦＯＸＦＯＵＮＤ株式会社,,株式会社,静岡県,静岡市駿河区,北丸子２丁目３８番５号,,22,102,4210106,,,,,,,2023-04-17,1,,,,,フォックスファウンド,0
1653,5080401026441,新規,0,2023-04-17,2023-04-17,株式会社サファイアエステート,,株式会社,静岡県,磐田市,富士見町３丁目７番地１－３０５号,,22,211,4380083,,,,,,,2023-04-17,1,,,,,サファイアエステート,0
1658,5100001036326,新規,0,2023-04-17,2023-04-17,株式会社エヌ・イー・オー・コーポレーション,,株式会社,長野県,上田市,御所１３４番地３,,20,203,3860033,,,,,,,2023-04-17,1,,,,,エヌイーオーコーポレーション,0
1659,5100001036334,新規,0,2023-04-17,2023-04-17,株式会社ハルナウォーター,,株式会社,長野県,安曇野市,穂高有明７３７８番地６,,20,220,3998301,,,,,,,2023-04-17,1,,,,,ハルナウォーター,0
1663,5110001037455,新規,0,2023-04-17,2023-04-17,株式会社夢プロジェクト,,株式会社,新潟県,新潟市西区,青山６丁目１４番８号,,15,107,9502002,,,,,,,2023-04-17,1,,,,,ユメプロジェクト,0
1674,5120001253927,新規,0,2023-04-17,2023-04-17,株式会社Ｎ‐ｍｅｔａｌ,,株式会社,大阪府,枚方市,北中振１丁目３５番１９号,,27,210,5730064,,,,,,,2023-04-17,1,,,,,エヌメタル,0
1675,5120001253976,新規,0,2023-04-17,2023-04-17,無間株式会社,,株式会社,大阪府,大阪市大正区,三軒家西３丁目４番１６号中山ビル２１６Ａ,,27,108,5510001,,,,,,,2023-04-17,1,,,,,ムマ,0
1676,5120001254017,新規,0,2023-04-17,2023-04-17,アイリートレード株式会社,,株式会社,大阪府,大阪市東淀川区,東淡路１丁目５番５１号ショッピングタウンエバーレＤ－１－２,,27,114,5330023,,,,,,,2023-04-17,1,,,,,アイリートレード,0
1677,5120001254165,新規,0,2023-04-17,2023-04-17,株式会社ＭＩＮＴ　ＨＯＵＳＥ,,株式会社,大阪府,大阪市中央区,島之内２丁目７番３０号,,27,128,5420082,,,,,,,2023-04-17,1,,,,,ミントハウス,0
1688,5120101067368,新規,0,2023-04-17,2023-04-17,株式会社剛生,,株式会社,大阪府,岸和田市,上松町３０３７番地の２,,27,202,5960827,,,,,,,2023-04-17,1,,,,,ゴウ,0
1689,5120103005177,新規,0,2023-04-17,2023-04-17,合同会社ＳＮＲプロジェクト,,合同会社,大阪府,藤井寺市,岡２丁目１２番２０号ロイヤルパレス藤井寺２０３,,27,226,5830027,,,,,,,2023-04-17,1,,,,,エスエヌアールプロジェクト,0
1693,5120901047404,新規,0,2023-04-17,2023-04-17,株式会社ソーシャル・デザイナーズ・ベース,,株式会社,大阪府,高槻市,塚原６丁目３０番１９号,,27,207,5691046,,,,,,,2023-04-17,1,,,,,ソーシャルデザイナーズベース,0
1694,5120901047429,新規,0,2023-04-17,2023-04-17,株式会社ディンゴ,,株式会社,大阪府,吹田市,千里山高塚１９番８号,,27,205,5650848,,,,,,,2023-04-17,1,,,,,ディンゴ,0
1695,5120903004592,新規,0,2023-04-17,2023-04-17,光のいえ合同会社,,合同会社,大阪府,豊中市,玉井町２丁目９番２７号,,27,203,5600026,,,,,,,2023-04-17,1,,,,,ヒカリノイエ,0
1720,5140001129803,新規,0,2023-04-17,2023-04-17,株式会社Ｂｏｎｄ　Ｈｏｕｓｉｎｇ,,株式会社,兵庫県,明石市,大道町２丁目８番２８号,,28,203,6730029,,,,,,,2023-04-17,1,,,,,ボンドハウジング,0
1721,5140001129836,新規,0,2023-04-17,2023-04-17,大安株式会社,,株式会社,兵庫県,小野市,王子町６６９番地の３,,28,218,6751378,,,,,,,2023-04-17,1,,,,,タイアン,0
1722,5140001129852,新規,0,2023-04-17,2023-04-17,株式会社ＡＭＣ,,株式会社,兵庫県,尼崎市,常光寺２丁目３番１０号,,28,202,6600811,,,,,,,2023-04-17,1,,,,,エーエムシー,0
1723,5140001129869,新規,0,2023-04-17,2023-04-17,株式会社プランＫ,,株式会社,兵庫県,神戸市兵庫区,中道通８丁目３番１６－３０３号,,28,105,6520801,,,,,,,2023-04-17,1,,,,,プランケー,0
1728,5140003018970,新規,0,2023-04-17,2023-04-17,合同会社響,,合同会社,兵庫県,明石市,二見町西二見７２９番地の３－１０１,,28,203,6740094,,,,,,,2023-04-17,1,,,,,ヒビキ,0
1730,5150003002916,新規,0,2023-04-17,2023-04-17,順和合同会社,,合同会社,奈良県,桜井市,大字忍阪６７－６,,29,206,6330005,,,,,,,2023-04-17,1,,,,,ジュンワ,0
1733,5170003001858,新規,0,2023-04-17,2023-04-17,Ｔ２クルークハイト合同会社,,合同会社,和歌山県,橋本市,三石台１丁目５番地の２－３－７０５,,30,203,6480094,,,,,,,2023-04-17,1,,,,,ティーツークルークハイト,0
1746,5180001155886,新規,0,2023-04-17,2023-04-17,株式会社ＫＯＨＡＫＵ,,株式会社,愛知県,名古屋市緑区,徳重３丁目６１６番地リュークスイレブン徳重Ｄ棟１０３号,,23,114,4580815,,,,,,,2023-04-17,1,,,,,コハク,0
1747,5180001155911,新規,0,2023-04-17,2023-04-17,名和テックス株式会社,,株式会社,愛知県,名古屋市千種区,鹿子町５丁目２６番地の４,,23,101,4640033,,,,,,,2023-04-17,1,,,,,メイワテックス,0
1748,5180001155928,新規,0,2023-04-17,2023-04-17,株式会社クアドリ,,株式会社,愛知県,あま市,甚目寺乾出６７番地,,23,237,4901111,,,,,,,2023-04-17,1,,,,,クアドリ,0
1750,5180003025121,新規,0,2023-04-17,2023-04-17,合同会社名古屋伏見こころケアオフィス,,合同会社,愛知県,名古屋市昭和区,阿由知通３丁目３番地の１（プラウド御器所１２０１号）,,23,107,4660027,,,,,,,2023-04-17,1,,,,,ナゴヤフシミココロケアオフィス,0
1759,5190001030329,新規,0,2023-04-17,2023-04-17,株式会社ＤＲＥＡＭ　ＫＩＴＣＨＥＮ,,株式会社,三重県,松阪市,垣鼻町５０３番地,,24,204,5150033,,,,,,,2023-04-17,1,,,,,ドリームキッチン,0
1760,5190001030337,新規,0,2023-04-17,2023-04-17,青海株式会社,,株式会社,三重県,桑名市,大字額田１５４１番地３,,24,205,5110911,,,,,,,2023-04-17,1,,,,,アオウミ,0
1761,5200001041200,新規,0,2023-04-17,2023-04-17,アイランドホッパーズフィルム株式会社,,株式会社,岐阜県,岐阜市,菅生１丁目１番２７号,,21,201,5020914,,,,,,,2023-04-17,1,,,,,アイランドホッパーズフィルム,0
1762,5200005013468,新規,0,2023-04-17,2023-04-17,一般社団法人おだやか,,その他の設立登記法人,岐阜県,各務原市,鵜沼古市場町４丁目１６７番地１,,21,213,5090133,,,,,,,2023-04-17,1,,,,,オダヤカ,0
1765,5220001025366,新規,0,2023-04-17,2023-04-17,ＳＳＣＬ‐ｄｅｓｉｇｎ‐ｌａｂ株式会社,,株式会社,石川県,金沢市,高尾南２丁目６５番地１６,,17,201,9218154,,,,,,,2023-04-17,1,,,,,エスエスシーエルデザインラボ,0
1767,5230001019796,新規,0,2023-04-17,2023-04-17,株式会社ヤマザキコーポレーション,,株式会社,富山県,高岡市,野村１５３６番地１３,,16,202,9330014,,,,,,,2023-04-17,1,,,,,ヤマザキコーポレーション,0
1769,5240001061351,新規,0,2023-04-17,2023-04-17,株式会社ＢＨＲ,,株式会社,広島県,広島市南区,旭２丁目８番１－３０３号,,34,103,7340036,,,,,,,2023-04-17,1,,,,,ビーエイチアール,0
1776,5260003004281,新規,0,2023-04-17,2023-04-17,合同会社サン・Ｍコーポレーション,,合同会社,岡山県,岡山市中区,＿東町１丁目２番３８－１号,00130139,33,102,7038247,,,,,,,2023-04-17,1,,,,,サンエムコーポレーション,0
1779,5290001101202,新規,0,2023-04-17,2023-04-17,株式会社めんたいバース企画,,株式会社,福岡県,福岡市博多区,博多駅前１丁目１５番２０号ＮＭＦ博多駅前ビル２階,,40,132,8120011,,,,,,,2023-04-17,1,,,,,メンタイバースキカク,0
1780,5290001101210,新規,0,2023-04-17,2023-04-17,株式会社しん,,株式会社,福岡県,福岡市博多区,博多駅前４丁目３４番５－２０１号ダイナコート博多,,40,132,8120011,,,,,,,2023-04-17,1,,,,,シン,0
1781,5290001101219,新規,0,2023-04-17,2023-04-17,株式会社ＳＭＥＫＫ,,株式会社,福岡県,福岡市東区,大字名子２１６番地１,,40,131,8130024,,,,,,,2023-04-17,1,,,,,スメック,0
1784,5290002057732,新規,0,2023-04-17,2023-04-17,有限会社北栄産業,,有限会社,福岡県,飯塚市,大字相田１３５番地の１,,40,205,8200000,,,,,,,2023-04-17,1,,,,,ホクエイサンギョウ,0
1785,5290003013800,新規,0,2023-04-17,2023-04-17,合同会社Ｄｅｌｉｇｈｔ,,合同会社,福岡県,福岡市東区,箱崎１丁目３４番５－７０３号,,40,131,8120053,,,,,,,2023-04-17,1,,,,,ディライト,0
1786,5290005019003,新規,0,2023-04-17,2023-04-17,ＮＰＯ法人福岡絆プロジェクト,,その他の設立登記法人,福岡県,福岡市西区,姪浜一丁目２４番１号マリンコート１０２号,,40,135,8190000,,,,,,,2023-04-17,1,,,,,フクオカキズナプロジェクト,0
1787,5290801029460,新規,0,2023-04-17,2023-04-17,株式会社光建,,株式会社,福岡県,遠賀郡岡垣町,松ケ台２丁目９番１１号,,40,383,8114214,,,,,,,2023-04-17,1,,,,,コウケン,0
1788,5290801029469,新規,0,2023-04-17,2023-04-17,ＣＭＧスポーツマーケティング株式会社,,株式会社,福岡県,宮若市,倉久１番地３,,40,226,8230017,,,,,,,2023-04-17,1,,,,,シーエムジースポーツマーケティング,0
1790,5290805009640,新規,0,2023-04-17,2023-04-17,ＮＰＯ法人病院前救護と健康管理研究会,,その他の設立登記法人,福岡県,北九州市八幡西区,則松７丁目１番１５号,,40,109,8070831,,,,,,,2023-04-17,1,,,,,ビョウインゼンキュウゴトケンコウカンリケンキュウカイ,0
1800,5310003004549,新規,0,2023-04-17,2023-04-17,合同会社嘉の花ビル,,合同会社,長崎県,長崎市,桶屋町５０番地３,,42,201,8500027,,,,,,,2023-04-17,1,,,,,カノカビル,0
1803,5330001030784,新規,0,2023-04-17,2023-04-17,株式会社九州クリーン,,株式会社,熊本県,菊池市,隈府１１１０番地６,,43,210,8611331,,,,,,,2023-04-17,1,,,,,キュウシュウクリーン,0
1807,5350001018299,新規,0,2023-04-17,2023-04-17,株式会社相馬農園,,株式会社,宮崎県,えびの市,大字島内１４６５番地６,,45,209,8894152,,,,,,,2023-04-17,1,,,,,ソウマノウエン,0
1810,5360001031854,新規,0,2023-04-17,2023-04-17,Ｃｏｎｎｅｃｔ　Ｎ．Ｔ株式会社,,株式会社,沖縄県,那覇市,寄宮３丁目１６番３０号ナカムラ住宅Ｂ棟１１号,,47,201,9020064,,,,,,,2023-04-17,1,,,,,コネクトエヌティー,0
1815,5360005006828,新規,0,2023-04-17,2023-04-17,医療法人一の新,,その他の設立登記法人,沖縄県,沖縄市,美里１丁目２６番３３号,,47,211,9042153,,,,,,,2023-04-17,1,,,,,イチノシン,0
1820,5380001033618,新規,0,2023-04-17,2023-04-17,株式会社翔誠,,株式会社,福島県,いわき市,平泉崎字砂田１１番地の１２,,07,204,9700112,,,,,,,2023-04-17,1,,,,,ショウセイ,0
1821,5390001017223,新規,0,2023-04-17,2023-04-17,株式会社ファーストコミュニケーションズ,,株式会社,山形県,山形市,十日町２丁目４番地２７号,,06,201,9900031,,,,,,,2023-04-17,1,,,,,ファーストコミュニケーションズ,0
1826,5410001013459,新規,0,2023-04-17,2023-04-17,さくら工業株式会社,,株式会社,秋田県,大仙市,四ツ屋字下前村２番地２,,05,212,0140102,,,,,,,2023-04-17,1,,,,,サクラコウギョウ,0
1839,5440001009248,新規,0,2023-04-17,2023-04-17,ルデマレ株式会社,,株式会社,北海道,函館市,銭亀町２１０番地１,,01,202,0420922,,,,,,,2023-04-17,1,,,,,,0
1844,5700150114879,新規,0,2023-04-17,2023-03-23,印西農産物直売所,,その他,千葉県,印西市,草深１０８８番地２,,12,231,2701337,,,,,,,2023-03-23,1,,,,,インザイノウサンブツチヨクバイシヨ,0
1845,5700150115489,新規,0,2023-04-17,2023-04-17,Ｓｈｅｎｚｈｅｎ　Ｈｏｎｇｌｉ　Ｔｅｃｈｎｏｌｏｇｙ　Ｃｏ．，Ｌｔｄ．,,外国会社等,,,,,,,,７ｔｈ　ｆｌｏｏｒ　５１２，５ｔｈ　Ｆｌｏｏｒ，Ｙｕｎｌｉ　Ｉｎｔｅｌｌｉｇｅｎｔ　Ｐａｒｋ，Ｙａｎｇｍｅｉ　Ｃｏｍｍｕｎｉｔｙ，Ｂａｎｔｉａｎ　Ｓｔｒｅｅｔ，Ｌｏｎｇｇａｎｇ　Ｄｉｓｔｒｉｃｔ，Ｓｈｅｎｚｈｅｎ,,,,,,2023-04-17,1,,,,,シェンジェンシーホンリーコージーヨウシエンゴンスー,0
1846,5700150115506,新規,0,2023-04-17,2023-04-17,Ｓｈｅｎｚｈｅｎ　Ｐａｎｘｉ　Ｔｅｃｈｎｏｌｏｇｙ　Ｃｏ，．Ｌｔｄ,,外国会社等,,,,,,,,ｓｏｎｇｇａｎｇｊｉｅｄａｏ　ｈｏｎｇｘｉｎｇｓｈｅｑｕ　ｓｏｎｇｙｕｌｕ　１４２ｈａｏ　５２１　Ｂａｏａｎ　Ｓｈｅｎｚｈｅｎ,,,,,,2023-04-17,1,,,,,シンセンパンシテクノロジーカンパニーリミテッド,0
1864,6010001234524,新規,0,2023-04-17,2023-04-17,粟津株式会社,,株式会社,東京都,千代田区,神田佐久間町３丁目３７番地,,13,101,1010025,,,,,,,2023-04-17,1,,,,,アワヅ,0
1865,6010001234549,新規,0,2023-04-17,2023-04-17,株式会社Ｅｌｅｖｅｎ　Ｅｌｅｖｅｎ,,株式会社,東京都,中央区,日本橋茅場町２丁目１７番５号,,13,102,1030025,,,,,,,2023-04-17,1,,,,,イレブンイレブン,0
1866,6010001234565,新規,0,2023-04-17,2023-04-17,株式会社ＹｕｕＢａａ,,株式会社,東京都,文京区,根津２丁目４番３号根津フラッツ１０１号室,,13,105,1130031,,,,,,,2023-04-17,1,,,,,ユーバー,0
1870,6010003040334,新規,0,2023-04-17,2023-04-17,合同会社Ａｒｐ　Ｓｔｕｄｉｏ,,合同会社,東京都,千代田区,五番町５－６ビラカーサ五番町１０６,,13,101,1020076,,,,,,,2023-04-17,1,,,,,アルプスタジオ,0
1871,6010003040359,新規,0,2023-04-17,2023-04-17,合同会社ＧＬＯＢＡＬ　ＹＳ　ＣＯＮＳＵＬＴＩＮＧ,,合同会社,東京都,中央区,銀座７丁目１３番２０号銀座ＴＨビル９階,,13,102,1040061,,,,,,,2023-04-17,1,,,,,グローバルワイエスコンサルティング,0
1875,6010005036479,新規,0,2023-04-17,2023-04-17,行政書士法人ユカヅキ,,その他の設立登記法人,東京都,中央区,日本橋小舟町８番１３号,,13,102,1030024,,,,,,,2023-04-17,1,,,,,ユカヅキ,0
1876,6010005036520,新規,0,2023-04-17,2023-04-17,ＨＫＲＪ　Ｒｅｓｏｒｔ一般社団法人,,その他の設立登記法人,東京都,千代田区,平河町１丁目６番１５号シルスフィア会計事務所内,,13,101,1020093,,,,,,,2023-04-17,1,,,,,エイチケーアールジェイリゾート,0
1877,6010101015592,新規,0,2023-04-17,2023-04-17,三及第日本株式会社,,株式会社,東京都,八王子市,追分町７番地１０号,,13,201,1920056,,,,,,,2023-04-17,1,,,,,サンキュウダイニホン,0
1878,6010101015601,新規,0,2023-04-17,2023-04-17,株式会社クレアライズ,,株式会社,東京都,八王子市,久保山町２丁目３８番地１９,,13,201,1920023,,,,,,,2023-04-17,1,,,,,クレアライズ,0
1886,6010401173636,新規,0,2023-04-17,2023-04-17,株式会社サークルチェンジ,,株式会社,東京都,港区,南青山３丁目１番３６号青山丸竹ビル６Ｆ,,13,103,1070062,,,,,,,2023-04-17,1,,,,,サークルチェンジ,0
1887,6010401173768,新規,0,2023-04-17,2023-04-17,株式会社オーガナイザー,,株式会社,東京都,港区,赤坂３丁目２１番１５号,,13,103,1070052,,,,,,,2023-04-17,1,,,,,オーガナイザー,0
1888,6010401173784,新規,0,2023-04-17,2023-04-17,ＡＺＢＡＳＥ株式会社,,株式会社,東京都,港区,浜松町２丁目２番１５号浜松町ダイヤビル２Ｆ,,13,103,1050013,,,,,,,2023-04-17,1,,,,,アズベース,0
1889,6010401173801,新規,0,2023-04-17,2023-04-17,ＡｕｔｏＳｙｓｔｅｍｓ株式会社,,株式会社,東京都,港区,南青山２丁目２番１５号,,13,103,1070062,,,,,,,2023-04-17,1,,,,,オートシステムズ,0
1914,6010901052892,新規,0,2023-04-17,2023-04-17,株式会社ラルズアセット,,株式会社,東京都,世田谷区,奥沢５丁目２８番１－９０４号,,13,112,1580083,,,,,,,2023-04-17,1,,,,,ラルズアセット,0
1915,6011001153664,新規,0,2023-04-17,2023-04-17,株式会社ＧＷ　Ｓｕｐｐｏｒｔ,,株式会社,東京都,渋谷区,南平台町１５番１－６０１号,,13,113,1500036,,,,,,,2023-04-17,1,,,,,ジーダブリューサポート,0
1916,6011001153763,新規,0,2023-04-17,2023-04-17,株式会社ＭａｒｕＳｙｕ,,株式会社,東京都,渋谷区,円山町５－５Ｎａｖｉ渋谷Ｖ３階,,13,113,1500044,,,,,,,2023-04-17,1,,,,,マルシュウ,0
1917,6011001153771,新規,0,2023-04-17,2023-04-17,ＲＥ　ＬＥＧＩＴ株式会社,,株式会社,東京都,目黒区,目黒３丁目９番９号,,13,110,1530063,,,,,,,2023-04-17,1,,,,,アールイーレジット,0
1918,6011001153805,新規,0,2023-04-17,2023-04-17,株式会社ショウリ,,株式会社,東京都,渋谷区,代々木２丁目７番６－３０１号ＧＳハイム佐藤ビル,,13,113,1510053,,,,,,,2023-04-17,1,,,,,ショウリ,0
1919,6011001153821,新規,0,2023-04-17,2023-04-17,ＴＲＩＭ株式会社,,株式会社,東京都,渋谷区,宇田川町１４番１３号６Ｆ,,13,113,1500042,,,,,,,2023-04-17,1,,,,,トリム,0
1920,6011001153838,新規,0,2023-04-17,2023-04-17,ＪＢエンタテインメント株式会社,,株式会社,東京都,目黒区,上目黒３丁目６番５号,,13,110,1530051,,,,,,,2023-04-17,1,,,,,ジェイビーエンタテインメント,0
1922,6011003016679,新規,0,2023-04-17,2023-04-17,ＭＡＹＯＳＨ　ＥＳＴＡＴＥＳ合同会社,,合同会社,東京都,渋谷区,神宮前６丁目２３番４号桑野ビル２階,,13,113,1500001,,,,,,,2023-04-17,1,,,,,マーヨシエステーツ,0
1927,6011101102546,新規,0,2023-04-17,2023-04-17,株式会社ＬＵＤＩＳ,,株式会社,東京都,新宿区,西新宿３丁目３番１３号西新宿水間ビル２Ｆ,,13,104,1600023,,,,,,,2023-04-17,1,,,,,ルディス,0
1930,6011103012941,新規,0,2023-04-17,2023-04-17,合同会社Ｒｅｇａｎｚｏ,,合同会社,東京都,新宿区,西五軒町１２番１－２１０１号,,13,104,1620812,,,,,,,2023-04-17,1,,,,,レガンゾ,0
1935,6011301028632,新規,0,2023-04-17,2023-04-17,株式会社Ａｔｅｌｉｅｒ　Ｙ’ｓ,,株式会社,東京都,杉並区,荻窪２丁目４番２７号,,13,115,1670051,,,,,,,2023-04-17,1,,,,,アトリエワイズ,0
1939,6011503005561,新規,0,2023-04-17,2023-04-17,合同会社ＤＸエンジニアリング,,合同会社,東京都,北区,王子２丁目２６－１０－９０２,,13,117,1140002,,,,,,,2023-04-17,1,,,,,ディエックスエンジニアリング,0
1948,6012301013401,新規,0,2023-04-17,2023-04-17,株式会社光進メンテナンス,,株式会社,東京都,町田市,金森６丁目１８番２８号,,13,209,1940012,,,,,,,2023-04-17,1,,,,,コウシンメンテナンス,0
1953,6012703002679,新規,0,2023-04-17,2023-04-17,合同会社はりはり,,合同会社,東京都,西東京市,栄町２丁目１－２８ＪＵＮさかえ１０３号,,13,229,2020006,,,,,,,2023-04-17,1,,,,,ハリハリ,0
1955,6012801022281,新規,0,2023-04-17,2023-04-17,ＫＤＡトレーディング株式会社,,株式会社,東京都,日野市,大坂上３丁目２１番地の３２,,13,212,1910061,,,,,,,2023-04-17,1,,,,,ケーディーエートレーディング,0
1963,6020001151140,新規,0,2023-04-17,2023-04-17,株式会社Ｓｋｙ　Ｓｕｃｃｅｓｓ,,株式会社,神奈川県,川崎市中原区,下小田中４丁目２２番２号Ａ２,,14,133,2110041,,,,,,,2023-04-17,1,,,,,スカイサクセス,0
1964,6020001151149,新規,0,2023-04-17,2023-04-17,株式会社Ｆｕｎｎｙ　Ｖｉｌｌａ　Ｓｅｒｖｉｃｅ,,株式会社,神奈川県,横浜市中区,元町２丁目８３番地ブルームーンビル２Ｆ,,14,104,2310861,,,,,,,2023-04-17,1,,,,,ファニーヴィラサービス,0
1969,6021003012982,新規,0,2023-04-17,2023-04-17,合同会社ＧＯＡＴ,,合同会社,神奈川県,厚木市,元町８番１６号,,14,212,2430002,,,,,,,2023-04-17,1,,,,,ゴート,0
1974,6021005012790,新規,0,2023-04-17,2023-04-17,医療法人社団温心会,,その他の設立登記法人,神奈川県,逗子市,逗子４丁目３番４３号,,14,208,2490006,,,,,,,2023-04-17,1,,,,,オンシンカイ,0
1998,6040003022404,新規,0,2023-04-17,2023-04-17,ａｎｄ　ｙｏｕ合同会社,,合同会社,千葉県,佐倉市,城８１０番地６,,12,212,2850815,,,,,,,2023-04-17,1,,,,,アンドユー,0
1999,6040003022412,新規,0,2023-04-17,2023-04-17,ＴＨＥＯＮ　ＩＮＴＥＲＮＡＴＩＯＮＡＬ合同会社,,合同会社,千葉県,佐倉市,長熊４４９番地１の４,,12,212,2850051,,,,,,,2023-04-17,1,,,,,セオンインターナショナル,0
2001,6040005021957,新規,0,2023-04-17,2023-04-17,一般社団法人ＷＷＡ,,その他の設立登記法人,千葉県,八街市,沖渡５７８番地１４,,12,230,2891102,,,,,,,2023-04-17,1,,,,,ダブリュダブリュエー,0
2005,6050001052708,新規,0,2023-04-17,2023-04-17,株式会社エシカルファーム,,株式会社,茨城県,猿島郡境町,大字塚崎２９４６番地,,08,546,3060405,,,,,,,2023-04-17,1,,,,,エシカルファーム,0
2006,6050003007429,新規,0,2023-04-17,2023-04-17,合同会社ＫａｗａｉｉＧａｍｉｎｇ．ＴＯＫＹＯ,,合同会社,茨城県,坂東市,岩井２８９６番地９,,08,228,3060631,,,,,,,2023-04-17,1,,,,,カワイイゲーミングトウキョウ,0
2008,6060001035827,新規,0,2023-04-17,2023-04-17,ＨＵＺＡＩＦＡ　ＴＲＡＤＩＮＧ株式会社,,株式会社,栃木県,栃木市,岩舟町新里１３０４番地－１７号室,,09,203,3294316,,,,,,,2023-04-17,1,,,,,フゼファトレーディング,0
2009,6060001035884,新規,0,2023-04-17,2023-04-17,株式会社エメラルド,,株式会社,栃木県,宇都宮市,東原町１番３号,,09,201,3210168,,,,,,,2023-04-17,1,,,,,エメラルド,0
2025,6100001036325,新規,0,2023-04-17,2023-04-17,岳都建商株式会社,,株式会社,長野県,松本市,大字里山辺９７１番地３,,20,202,3900221,,,,,,,2023-04-17,1,,,,,ガクトケンショウ,0
2036,6120001065735,新規,0,2023-04-17,2023-04-17,新星自動車株式会社,,株式会社,大阪府,大阪市北区,兎我野町３番５号新東洋ビル４０５号,00130091,27,127,5300056,,,,,,,2023-04-17,1,,,,,シンセイジドウシャ,0
2045,6120005023581,新規,0,2023-04-17,2023-04-17,司法書士法人紀州法務綜合,,その他の設立登記法人,大阪府,大阪市淀川区,宮原２丁目１番１７号新大阪第２ＹＳビル７０５号,,27,123,5320003,,,,,,,2023-04-17,1,,,,,キシュウホウムソウゴウ,0
2051,6120101067350,新規,0,2023-04-17,2023-04-17,株式会社ティーガレージ,,株式会社,大阪府,泉佐野市,上瓦屋５１７番地の１,,27,213,5980001,,,,,,,2023-04-17,1,,,,,ティーガレージ,0
2052,6120101067359,新規,0,2023-04-17,2023-04-17,Ｂｅ　Ｃｌｉｎｅ株式会社,,株式会社,大阪府,泉南市,信達市場３４５番地の１３,,27,228,5900504,,,,,,,2023-04-17,1,,,,,ビクライン,0
2053,6120101067367,新規,0,2023-04-17,2023-04-17,恭和株式会社,,株式会社,大阪府,堺市堺区,向陵中町４丁５番２７号,,27,141,5900024,,,,,,,2023-04-17,1,,,,,キョウワ,0
2054,6120101067375,新規,0,2023-04-17,2023-04-17,株式会社キズナホールディングス,,株式会社,大阪府,堺市南区,竹城台１丁４番５－２０２号,,27,145,5900105,,,,,,,2023-04-17,1,,,,,キズナホールディングス,0
2055,6120101067383,新規,0,2023-04-17,2023-04-17,株式会社ＹＫ,,株式会社,大阪府,堺市堺区,北瓦町２丁３番８号堺東北條第二ビル７階Ａ号室,,27,141,5900076,,,,,,,2023-04-17,1,,,,,ワイケイ,0
2058,6120103005176,新規,0,2023-04-17,2023-04-17,合同会社Ｃｏｍｅ　Ｙａｒｄ,,合同会社,大阪府,貝塚市,三ツ松１３８８番地１２,,27,208,5970105,,,,,,,2023-04-17,1,,,,,カムヤード,0
2062,6120901047403,新規,0,2023-04-17,2023-04-17,ＳＴＹＬＥＯＮＥ株式会社,,株式会社,大阪府,豊中市,蛍池東町二丁目６番２１－３０３号,,27,203,5600000,,,,,,,2023-04-17,1,,,,,スタイルワン,0
2072,6130001074090,新規,0,2023-04-17,2023-04-17,とわ循環経済開発１号株式会社,,株式会社,京都府,京都市中京区,烏丸通錦小路上る手洗水町６５９番地烏丸中央ビル,,26,104,6048152,,,,,,,2023-04-17,1,,,,,トワジュンカンケイザイカイハツイチゴウ,0
2073,6130001074099,新規,0,2023-04-17,2023-04-17,株式会社京都ヘルスケアＩＴ,,株式会社,京都府,京都市中京区,西ノ京北壺井町６７番地,,26,104,6048472,,,,,,,2023-04-17,1,,,,,キョウトヘルスケアアイティ,0
2076,6130003008658,新規,0,2023-04-17,2023-04-17,合同会社Ｍサービス,,合同会社,京都府,京都市中京区,壬生土居ノ内町９ー２,,26,104,6048842,,,,,,,2023-04-17,1,,,,,エムサービス,0
2086,6140001129785,新規,0,2023-04-17,2023-04-17,株式会社ストロークス,,株式会社,兵庫県,神戸市灘区,千旦通４丁目１番６号,,28,102,6570056,,,,,,,2023-04-17,1,,,,,ストロークス,0
2087,6140001129802,新規,0,2023-04-17,2023-04-17,株式会社ｎａｎｏｈａｎａ,,株式会社,兵庫県,神戸市東灘区,御影塚町２丁目２５番２号,,28,101,6580044,,,,,,,2023-04-17,1,,,,,ナノハナ,0
2088,6140001129835,新規,0,2023-04-17,2023-04-17,株式会社春日園,,株式会社,兵庫県,伊丹市,荒牧３丁目９番１３号,,28,207,6640001,,,,,,,2023-04-17,1,,,,,カスガエン,0
2089,6140001129851,新規,0,2023-04-17,2023-04-17,グッドシンフォニー株式会社,,株式会社,兵庫県,丹波篠山市,泉８９９番地,,28,221,6692406,,,,,,,2023-04-17,1,,,,,グッドシンフォニー,0
2093,6140003018978,新規,0,2023-04-17,2023-04-17,合同会社ネネ,,合同会社,兵庫県,芦屋市,浜町１２番１２号,,28,206,6590025,,,,,,,2023-04-17,1,,,,,ネネ,0
2094,6140003018986,新規,0,2023-04-17,2023-04-17,リョウテック合同会社,,合同会社,兵庫県,尼崎市,若王寺３丁目２番１７号,,28,202,6610974,,,,,,,2023-04-17,1,,,,,リョウテック,0
2112,6180001155893,新規,0,2023-04-17,2023-04-17,ＢＥＳＴ　ＡＩＤ株式会社,,株式会社,愛知県,名古屋市千種区,揚羽町２丁目２０番地の１,,23,101,4640019,,,,,,,2023-04-17,1,,,,,ベストエイド,0
2113,6180001155902,新規,0,2023-04-17,2023-04-17,ａｎｄＳＫＹ株式会社,,株式会社,愛知県,一宮市,萩原町串作字荒神浦５２番地１,,23,203,4910376,,,,,,,2023-04-17,1,,,,,アンドスカイ,0
2114,6180001155927,新規,0,2023-04-17,2023-04-17,ケイパビルド株式会社,,株式会社,愛知県,名古屋市中区,松原１丁目１５番９ナビシティ大須ＩＩ５０４,00130132,23,106,4600017,,,,,,,2023-04-17,1,,,,,ケイパビルド,0
2115,6180001155935,新規,0,2023-04-17,2023-04-17,株式会社新日本工務店,,株式会社,愛知県,海部郡大治町,大字花常字伊勢田３４番地ラ・ルチア１０２号,,23,424,4901136,,,,,,,2023-04-17,1,,,,,シンニホンコウムテン,0
2124,6180003025112,新規,0,2023-04-17,2023-04-17,スタジオレコード合同会社,,合同会社,愛知県,名古屋市守山区,川東山９１２番地の２,,23,113,4630006,,,,,,,2023-04-17,1,,,,,スタジオレコード,0
2126,6180301037313,新規,0,2023-04-17,2023-04-17,株式会社トルス,,株式会社,愛知県,豊川市,御油町行力４番地の３０,,23,207,4410211,,,,,,,2023-04-17,1,,,,,トルス,0
2127,6180303005680,新規,0,2023-04-17,2023-04-17,合同会社Ｏｕｔ　Ｒｉｖｅｒ,,合同会社,愛知県,岡崎市,美合町字老婆懐２９番地１５,,23,202,4440802,,,,,,,2023-04-17,1,,,,,アウトリバー,0
2132,6210005010091,新規,0,2023-04-17,2023-04-17,一般社団法人はれのひ,,その他の設立登記法人,福井県,敦賀市,野坂４６号１番地の２５,,18,202,9140145,,,,,,,2023-04-17,1,,,,,ハレノヒ,0
2133,6220001025365,新規,0,2023-04-17,2023-04-17,株式会社ジオサポートカタヤ,,株式会社,石川県,金沢市,畝田東３丁目２番地１,,17,201,9200344,,,,,,,2023-04-17,1,,,,,ジオサポートカタヤ,0
2137,6240001061367,新規,0,2023-04-17,2023-04-17,株式会社だるま塗装,,株式会社,広島県,東広島市,八本松町正力２２２番地１,,34,212,7390132,,,,,,,2023-04-17,1,,,,,ダルマトソウ,0
2144,6280003001722,新規,0,2023-04-17,2023-04-17,ＴａｋｅＳｉｇｎａｌ合同会社,,合同会社,島根県,松江市,上乃木３丁目１３番３号,,32,201,6900015,,,,,,,2023-04-17,1,,,,,タケシグナル,0
2155,6290001101226,新規,0,2023-04-17,2023-04-17,株式会社アストス,,株式会社,福岡県,糟屋郡志免町,桜丘３丁目１６番９号,,40,343,8112201,,,,,,,2023-04-17,1,,,,,アストス,0
2161,6290803004386,新規,0,2023-04-17,2023-04-17,合同会社ファインズｗｒｅａｔｈ,,合同会社,福岡県,北九州市小倉北区,白銀２丁目１０番２‐２０３号,,40,106,8020074,,,,,,,2023-04-17,1,,,,,ファインズリース,0
2167,6340005009591,新規,0,2023-04-17,2023-04-17,一般社団法人馬毛島関連事業協会,,その他の設立登記法人,鹿児島県,西之表市,栄町２番地,,46,213,8913112,,,,,,,2023-04-17,1,,,,,マゲシマカンレンジギョウキョウカイ,0
2169,6360001031886,新規,0,2023-04-17,2023-04-17,株式会社ＨＡＩ,,株式会社,沖縄県,うるま市,字赤道７１０番地５,,47,213,9042245,,,,,,,2023-04-17,1,,,,,エイチエーアイ,0
2173,6360003012884,新規,0,2023-04-17,2023-04-17,合同会社Ｂｅｉｎｇ,,合同会社,沖縄県,名護市,宇茂佐の森４丁目１１番地２,,47,209,9050009,,,,,,,2023-04-17,1,,,,,ビーイング,0
2174,6360003012901,新規,0,2023-04-17,2023-04-17,Ａｎｙｓｔａｃｋ合同会社,,合同会社,沖縄県,名護市,大北１丁目２７番１２号,,47,209,9050019,,,,,,,2023-04-17,1,,,,,エニースタック,0
2180,6390003002081,新規,0,2023-04-17,2023-04-17,合同会社グレインフィールド山辺,,合同会社,山形県,東村山郡山辺町,大字大寺１７７２番地１０,,06,301,9900331,,,,,,,2023-04-17,1,,,,,グレインフィールドヤマノベ,0
2184,6410001013458,新規,0,2023-04-17,2023-04-17,そしきのコーチ株式会社,,株式会社,秋田県,秋田市,中通２丁目２番３２号山二ビル７階チャレンジオフィスあきた,,05,201,0100001,,,,,,,2023-04-17,1,,,,,ソシキノコーチ,0
2186,6410003003787,新規,0,2023-04-17,2023-04-17,合同会社Ｂ．Ｃｒｅａｔｅ,,合同会社,秋田県,大館市,大茂内字諏訪下６３番地１０,,05,204,0170024,,,,,,,2023-04-17,1,,,,,ビークリエイト,0
2196,6430003014964,新規,0,2023-04-17,2023-04-17,合同会社ｃｈｉｌｌ　ｌｉｇｈｔ,,合同会社,北海道,札幌市西区,西野八条４丁目１４番６号,,01,107,0630038,,,,,,,2023-04-17,1,,,,,チルライト,0
2200,6470001019573,新規,0,2023-04-17,2023-04-17,興盛産業株式会社,,株式会社,香川県,善通寺市,原田町１４５４番地１,,37,204,7650032,,,,,,,2023-04-17,1,,,,,コウセイサンギョウ,0
2203,6490001010456,新規,0,2023-04-17,2023-04-17,Ｒａｙ．Ｒ．株式会社,,株式会社,高知県,高岡郡津野町,永野４８８番地１,,39,411,7850201,,,,,,,2023-04-17,1,,,,,レイル,0
2204,6700150115488,新規,0,2023-04-17,2023-04-17,Ｓｈｅｎｚｈｅｎ　Ｚｈｉｄｅ　Ｎｅｔｗｏｒｋ　Ｔｅｃｈｎｏｌｏｇｙ　Ｃｏ．，Ｌｔｄ．,,外国会社等,,,,,,,,Ｌｏｎｇｈｕａｑｕ　Ｍｉｎｚｈｉｊｉｅｄａｏ　Ｍｉｎｚｈｉｓｈｅｑｕ　Ｍｉｎｚｈｉｄａｄａｏ３９８ｈａｏ　ＨｕｉｂａｏｊｉａｎｇｄａｓｈａＢ７０１　Ｓｈｅｎｚｈｅｎ　Ｇｕａｎｇｄｏｎｇ　５１８０００　ＣＮ,,,,,,2023-04-17,1,,,,,シェンジェンシージーダーワンルオコージーヨウシエンゴンスー,0
2205,6700150115505,新規,0,2023-04-17,2023-04-17,Ｆｕｚｈｏｕ　Ｊｉｎｇｃｈｅｎ　Ｔｒａｄｉｎｇ　Ｃｏ．，Ｌｔｄ．,,外国会社等,,,,,,,,Ｊｕｎｚｈｕ　Ｒｏａｄ　Ｎｏ．８３　Ｍａｗｅｉ　Ｄｉｓｔｒｉｃｔ　Ｓｃｉｅｎｃｅ　ａｎｄ　Ｔｅｃｈｎｏｌｏｇｙ　Ｄｅｖｅｌｏｐｍｅｎｔ　Ｃｅｎｔｅｒ　４－Ｅ４１８　Ｆｕｚｈｏｕ　Ｆｕｊｉａｎ,,,,,,2023-04-17,1,,,,,フゾォウジンチェントレーディングカブシキカイシャ,0
2228,7010001234523,新規,0,2023-04-17,2023-04-17,株式会社プロテクトスタンスコンサルティング,,株式会社,東京都,千代田区,有楽町２丁目１０番１号,,13,101,1000006,,,,,,,2023-04-17,1,,,,,プロテクトスタンスコンサルティング,0
2229,7010001234564,新規,0,2023-04-17,2023-04-17,株式会社ラウンドプラス,,株式会社,東京都,中央区,日本橋室町１丁目１１番１２号日本橋水野ビル７階,,13,102,1030022,,,,,,,2023-04-17,1,,,,,ラウンドプラス,0
2230,7010001234622,新規,0,2023-04-17,2023-04-17,サテライトラボ株式会社,,株式会社,東京都,文京区,千駄木４丁目２４番７号,,13,105,1130022,,,,,,,2023-04-17,1,,,,,サテライトラボ,0
2231,7010003040275,新規,0,2023-04-17,2023-04-17,合同会社悠路,,合同会社,東京都,千代田区,神田和泉町一番地６－１６ヤマトビル４０５,,13,101,1010024,,,,,,,2023-04-17,1,,,,,ユウロ,0
2232,7010003040358,新規,0,2023-04-17,2023-04-17,合同会社フリーケンシー,,合同会社,東京都,文京区,水道２丁目１５番６－３０２号,,13,105,1120005,,,,,,,2023-04-17,1,,,,,フリーケンシー,0
2243,7010401173800,新規,0,2023-04-17,2023-04-17,株式会社エスジーエー,,株式会社,東京都,港区,赤坂３丁目１４－７赤坂ステラビル５階,,13,103,1070052,,,,,,,2023-04-17,1,,,,,エスジーエー,0
2244,7010401173809,新規,0,2023-04-17,2023-04-17,株式会社メシカ,,株式会社,東京都,港区,東新橋２丁目１８番４－１０１１号,,13,103,1050021,,,,,,,2023-04-17,1,,,,,メシカ,0
2247,7010403029934,新規,0,2023-04-17,2023-04-17,合同会社Ｍｉｔｈｒａｓ,,合同会社,東京都,港区,浜松町１丁目２－３コンパル汐留１２０４,,13,103,1050013,,,,,,,2023-04-17,1,,,,,ミトラス,0
2248,7010405021996,新規,0,2023-04-17,2023-04-17,一般社団法人日本栄養・嚥下理学療法学会,,その他の設立登記法人,東京都,港区,六本木７丁目１１番１０号,,13,103,1060032,,,,,,,2023-04-17,1,,,,,ニホンエイヨウエンゲリガクリョウホウガッカイ,0
2253,7010601062935,新規,0,2023-04-17,2023-04-17,株式会社レジッドイン,,株式会社,東京都,墨田区,八広６丁目１１－２,,13,107,1310041,,,,,,,2023-04-17,1,,,,,レジッドイン,0
2266,7010703006658,新規,0,2023-04-17,2023-04-17,合同会社Ｔｅａｌ,,合同会社,東京都,品川区,豊町３丁目１２番１４－１０１号,,13,109,1420042,,,,,,,2023-04-17,1,,,,,ティール,0
2280,7011001153548,新規,0,2023-04-17,2023-04-17,株式会社ＡＳＨＩＢＥ,,株式会社,東京都,目黒区,南１丁目２１－１０,,13,110,1520013,,,,,,,2023-04-17,1,,,,,アシベ,0
2281,7011001153787,新規,0,2023-04-17,2023-04-17,株式会社ＷＥＢＬＯＯＭＩＥ,,株式会社,東京都,渋谷区,桜丘町２６番１号１５Ｆ,,13,113,1500031,,,,,,,2023-04-17,1,,,,,ウェブルーミー,0
2282,7011001153804,新規,0,2023-04-17,2023-04-17,シエス株式会社,,株式会社,東京都,渋谷区,笹塚２丁目２３番６号比留間ビル２Ｆ,,13,113,1510073,,,,,,,2023-04-17,1,,,,,シエス,0
2283,7011001153820,新規,0,2023-04-17,2023-04-17,株式会社ＨＩＰ,,株式会社,東京都,渋谷区,恵比寿１丁目２０番２２号三富ビル４階,,13,113,1500013,,,,,,,2023-04-17,1,,,,,ヒップ,0
2284,7011001153829,新規,0,2023-04-17,2023-04-17,株式会社Ｓｏｕｎｄ‐Ｕ,,株式会社,東京都,渋谷区,道玄坂１丁目１０番８号渋谷道玄坂東急ビル２Ｆ－Ｃ,,13,113,1500043,,,,,,,2023-04-17,1,,,,,サウンドユー,0
2285,7011001153845,新規,0,2023-04-17,2023-04-17,株式会社ＫＮＯＲＫ　ＥＮＴＥＲＴＡＩＮＭＥＮＴ,,株式会社,東京都,渋谷区,神宮前６丁目２３番４号桑野ビル２階,,13,113,1500001,,,,,,,2023-04-17,1,,,,,ノークエンターテインメント,0
2286,7011001153853,新規,0,2023-04-17,2023-04-17,株式会社ワンセブン,,株式会社,東京都,渋谷区,渋谷３丁目１番１号ＰМО渋谷ＩＩ４０８号,00130126,13,113,1500002,,,,,,,2023-04-17,1,,,,,ワンセブン,0
2287,7011003016629,新規,0,2023-04-17,2023-04-17,ＳＳＥ合同会社,,合同会社,東京都,渋谷区,神宮前６丁目２３番４号,,13,113,1500001,,,,,,,2023-04-17,1,,,,,エスエスイー,0
2288,7011003016637,新規,0,2023-04-17,2023-04-17,Ｏｖｅｒｌａｎｄ　Ｐａｒｔｎｅｒｓ　Ｊａｐａｎ合同会社,,合同会社,東京都,渋谷区,渋谷１丁目２３番２１号,,13,113,1500002,,,,,,,2023-04-17,1,,,,,オーバーランドパートナーズジャパン,0
2289,7011003016653,新規,0,2023-04-17,2023-04-17,Ｍａｒｋ’ｓ　Ｋｉｔｃｈｅｎ合同会社,,合同会社,東京都,目黒区,目黒１丁目２３番１４号三宅ホーム１０１,,13,110,1530063,,,,,,,2023-04-17,1,,,,,マークスキッチン,0
2290,7011003016678,新規,0,2023-04-17,2023-04-17,合同会社ごきげん,,合同会社,東京都,渋谷区,渋谷２丁目１９－１５,,13,113,1500002,,,,,,,2023-04-17,1,,,,,ゴキゲン,0
2292,7011101102537,新規,0,2023-04-17,2023-04-17,株式会社ｆａｎｔａｓｉｓｔａ,,株式会社,東京都,新宿区,西新宿３丁目３番１３号西新宿水間ビル６階,,13,104,1600023,,,,,,,2023-04-17,1,,,,,ファンタジスタ,0
2293,7011101102545,新規,0,2023-04-17,2023-04-17,株式会社ｔｏｗｉｎｇ,,株式会社,東京都,新宿区,市谷砂土原一丁目２番３４,,13,104,1600000,,,,,,,2023-04-17,1,,,,,トーイング,0
2294,7011105010629,新規,0,2023-04-17,2023-04-17,一般社団法人ＨＩＪ,,その他の設立登記法人,東京都,新宿区,河田町８番１号,,13,104,1620054,,,,,,,2023-04-17,1,,,,,エイチアイジェイ,0
2297,7011201024581,新規,0,2023-04-17,2023-04-17,株式会社ｅｎｎｏｓｈｉｔａ,,株式会社,東京都,中野区,東中野４丁目３０番９号リオイルハ７０２,,13,114,1640003,,,,,,,2023-04-17,1,,,,,エンノシタ,0
2304,7011601026748,新規,0,2023-04-17,2023-04-17,株式会社ＦＴＳ,,株式会社,東京都,練馬区,大泉学園町６丁目１５番３７号,,13,120,1780061,,,,,,,2023-04-17,1,,,,,エフティーエス,0
2312,7012701017604,新規,0,2023-04-17,2023-04-17,株式会社産業技能センター,,株式会社,東京都,清瀬市,野塩５丁目２０８番地１６つくばハイツ２０１,,13,221,2040004,,,,,,,2023-04-17,1,,,,,サンギョウギノウセンター,0
2313,7012703002686,新規,0,2023-04-17,2023-04-17,合同会社ミューソフトウェア,,合同会社,東京都,東村山市,栄町１丁目１番地９,,13,213,1890013,,,,,,,2023-04-17,1,,,,,ミューソフトウェア,0
2321,7020001151115,新規,0,2023-04-17,2023-04-17,アルバートアンティーク株式会社,,株式会社,神奈川県,横浜市港北区,日吉２丁目６番２０号ビーハイヴ２０３,,14,109,2230061,,,,,,,2023-04-17,1,,,,,アルバートアンティーク,0
2322,7020001151148,新規,0,2023-04-17,2023-04-17,株式会社オオモリインフィニティ,,株式会社,神奈川県,川崎市幸区,幸町１丁目７４９番地２,,14,132,2120011,,,,,,,2023-04-17,1,,,,,オオモリインフィニティ,0
2323,7020005015951,新規,0,2023-04-17,2023-04-17,医療法人社団宏純会,,その他の設立登記法人,神奈川県,横浜市戸塚区,品濃町５４９番地６ドムス常盤１－Ｂ,,14,110,2440801,,,,,,,2023-04-17,1,,,,,コウジュンカイ,0
2334,7021003012981,新規,0,2023-04-17,2023-04-17,ＹＡＨＹＡ　ＡＵＴＯ商会合同会社,,合同会社,神奈川県,綾瀬市,深谷上６丁目４９番８ひかり荘１０１,,14,218,2521108,,,,,,,2023-04-17,1,,,,,ヤヒヤオートショウカイ,0
2344,7030003021587,新規,0,2023-04-17,2023-04-17,マイサポ合同会社,,合同会社,埼玉県,狭山市,つつじ野２番１６―３０１号,,11,215,3501326,,,,,,,2023-04-17,1,,,,,マイサポ,0
2346,7040001127939,新規,0,2023-04-17,2023-04-17,株式会社リライターズ,,株式会社,千葉県,柏市,松ケ崎１１０７番地の１８,,12,217,2770835,,,,,,,2023-04-17,1,,,,,リライターズ,0
2347,7040001127955,新規,0,2023-04-17,2023-04-17,株式会社サイキ,,株式会社,千葉県,船橋市,本町６丁目１０番１８－３０２号,,12,204,2730005,,,,,,,2023-04-17,1,,,,,サイキ,0
2349,7040003022411,新規,0,2023-04-17,2023-04-17,Ｍａｈａｌｏ合同会社,,合同会社,千葉県,千葉市花見川区,幕張本郷７丁目８番２１号,,12,102,2620033,,,,,,,2023-04-17,1,,,,,マハロ,0
2350,7040005021956,新規,0,2023-04-17,2023-04-17,一般社団法人日本チャイルド・ライフ・スペシャリスト協会,,その他の設立登記法人,千葉県,千葉市緑区,おゆみ野中央１丁目１２番地２９７,,12,105,2660032,,,,,,,2023-04-17,1,,,,,ニホンチャイルドライフスペシャリストキョウカイ,0
2354,7050001052698,新規,0,2023-04-17,2023-04-17,株式会社ＩＰＳ,,株式会社,茨城県,つくば市,二の宮３丁目８番２号雅ビル３０１,,08,220,3050051,,,,,,,2023-04-17,1,,,,,アイピーエス,0
2355,7050001052707,新規,0,2023-04-17,2023-04-17,株式会社世界のいとが,,株式会社,茨城県,稲敷郡美浦村,大字土屋１９７６番地３６,,08,442,3000426,,,,,,,2023-04-17,1,,,,,セカイノイトガ,0
2358,7050005013242,新規,0,2023-04-17,2023-04-17,医療法人社団いいはに,,その他の設立登記法人,茨城県,水戸市,見和３丁目１３９３番地２,,08,201,3100911,,,,,,,2023-04-17,1,,,,,イイハニ,0
2360,7060001035891,新規,0,2023-04-17,2023-04-17,Ｐ‐スタイル株式会社,,株式会社,栃木県,下野市,下長田３１１番地３,,09,216,3290503,,,,,,,2023-04-17,1,,,,,ピースタイル,0
2362,7060005010081,新規,0,2023-04-17,2023-04-17,一般社団法人ふれワーク,,その他の設立登記法人,栃木県,佐野市,天神町７２６番地５,,09,204,3270847,,,,,,,2023-04-17,1,,,,,フレワーク,0
2371,7080001025577,新規,0,2023-04-17,2023-04-17,株式会社謳歌,,株式会社,静岡県,静岡市葵区,二番町９番地の３,,22,101,4200072,,,,,,,2023-04-17,1,,,,,オウカ,0
2373,7080101023919,新規,0,2023-04-17,2023-04-17,ランシード株式会社,,株式会社,静岡県,沼津市,大手町５丁目９番２１号,,22,203,4100801,,,,,,,2023-04-17,1,,,,,ランシード,0
2375,7080403004773,新規,0,2023-04-17,2023-04-17,合同会社ＭＯＮＤＡＹ,,合同会社,静岡県,浜松市中区,富塚町４６３７番地,,22,131,4328002,,,,,,,2023-04-17,1,,,,,マンデー,0
2381,7100001036324,新規,0,2023-04-17,2023-04-17,株式会社ティーケーディー,,株式会社,長野県,岡谷市,田中町１丁目７番２号,,20,204,3940031,,,,,,,2023-04-17,1,,,,,ティーケーディー,0
2393,7120001253909,新規,0,2023-04-17,2023-04-17,マスカエンジニアリング株式会社,,株式会社,大阪府,大阪市西成区,旭２丁目１番３号,,27,122,5570032,,,,,,,2023-04-17,1,,,,,マスカエンジニアリング,0
2394,7120001253958,新規,0,2023-04-17,2023-04-17,株式会社Ｈａｔｃｈ　ＰＬＡＮＮＩＮＧ,,株式会社,大阪府,大阪市住吉区,上住吉２丁目７－１３,,27,120,5580046,,,,,,,2023-04-17,1,,,,,ハッチプランニング,0
2395,7120001253974,新規,0,2023-04-17,2023-04-17,宇光株式会社,,株式会社,大阪府,大阪市城東区,蒲生３丁目１５番１２号セザンヌ藤４０３Ｂ,,27,118,5360016,,,,,,,2023-04-17,1,,,,,ウコウ,0
2396,7120001253982,新規,0,2023-04-17,2023-04-17,Ｂａｒｂａｒｏｓｓａ株式会社,,株式会社,大阪府,大阪市西区,立売堀４丁目３番１６号５階,,27,106,5500012,,,,,,,2023-04-17,1,,,,,バルバロッサ,0
2397,7120001254031,新規,0,2023-04-17,2023-04-17,株式会社アイラ,,株式会社,大阪府,大阪市浪速区,浪速東１丁目２番１０号,,27,111,5560025,,,,,,,2023-04-17,1,,,,,アイラ,0
2398,7120001254064,新規,0,2023-04-17,2023-04-17,華盛商貿株式会社,,株式会社,大阪府,大阪市西成区,長橋２丁目６番３号,,27,122,5570025,,,,,,,2023-04-17,1,,,,,カセイショウボウ,0
2399,7120001254122,新規,0,2023-04-17,2023-04-17,株式会社オモシゴ,,株式会社,大阪府,大阪市鶴見区,放出東３丁目２１－４０ローレルコート放出２０５,,27,124,5380044,,,,,,,2023-04-17,1,,,,,オモシゴ,0
2400,7120001254139,新規,0,2023-04-17,2023-04-17,グラフワン株式会社,,株式会社,大阪府,大阪市北区,西天満１丁目９番１２号西天満ＵＳＵＩビル９０２号,,27,127,5300047,,,,,,,2023-04-17,1,,,,,グラフワン,0
2405,7120003023822,新規,0,2023-04-17,2023-04-17,ＪＲ　Ｐｒｉｍｅ　Ｔｅｃｈ合同会社,,合同会社,大阪府,大阪市北区,天神橋１丁目１５番１５－８０１号,,27,127,5300041,,,,,,,2023-04-17,1,,,,,ジェイアールプライムテック,0
2411,7120101067366,新規,0,2023-04-17,2023-04-17,小野美容株式会社,,株式会社,大阪府,大阪狭山市,半田２丁目３６４番地の１,,27,231,5890011,,,,,,,2023-04-17,1,,,,,オノビヨウ,0
2412,7120101067374,新規,0,2023-04-17,2023-04-17,株式会社Ｈｉｒｏｎｏ,,株式会社,大阪府,岸和田市,真上町３４２番地の２,,27,202,5960842,,,,,,,2023-04-17,1,,,,,ヒロノ,0
2413,7120103005175,新規,0,2023-04-17,2023-04-17,合同会社アールイグズ,,合同会社,大阪府,藤井寺市,藤井寺３丁目５番１４号,,27,226,5830024,,,,,,,2023-04-17,1,,,,,アールイグズ,0
2414,7120901047410,新規,0,2023-04-17,2023-04-17,株式会社エールスペースシバタ,,株式会社,大阪府,茨木市,上穂積１丁目４番３３－１０６号,,27,211,5670036,,,,,,,2023-04-17,1,,,,,エールスペースシバタ,0
2415,7120901047419,新規,0,2023-04-17,2023-04-17,Ｓｍｉｌａｘ株式会社,,株式会社,大阪府,高槻市,真上町５丁目４４番１４号,,27,207,5691121,,,,,,,2023-04-17,1,,,,,スマイラックス,0
2423,7130001074081,新規,0,2023-04-17,2023-04-17,株式会社Ａｎｓｅｌｍｏ　Ｒｅｙｅｓ,,株式会社,京都府,京都市左京区,聖護院川原町２５番地２２,,26,103,6068397,,,,,,,2023-04-17,1,,,,,アンセルモレイエス,0
2424,7130001074107,新規,0,2023-04-17,2023-04-17,株式会社ラテラル,,株式会社,京都府,京都市伏見区,桃山筒井伊賀西町４０シコービル１階,,26,109,6120073,,,,,,,2023-04-17,1,,,,,ラテラル,0
2426,7130003008657,新規,0,2023-04-17,2023-04-17,合同会社ＧＭＴ,,合同会社,京都府,京都市左京区,吉田上大路町１番地１３,,26,103,6068312,,,,,,,2023-04-17,1,,,,,ジーエムティー,0
2434,7140001129801,新規,0,2023-04-17,2023-04-17,株式会社ＣＡＮＹＬ,,株式会社,兵庫県,神戸市東灘区,向洋町中６丁目９番地,,28,101,6580032,,,,,,,2023-04-17,1,,,,,カナエル,0
2435,7140001129826,新規,0,2023-04-17,2023-04-17,Ｅｎｌｉｖｅｎ　Ｓｙｓｔｅｍ株式会社,,株式会社,兵庫県,宝塚市,雲雀丘山手２丁目１９番１０号,,28,214,6650804,,,,,,,2023-04-17,1,,,,,インライブンシステム,0
2436,7140001129842,新規,0,2023-04-17,2023-04-17,株式会社ＥＮ,,株式会社,兵庫県,伊丹市,西野４丁目５３－４リバーサイド武庫川１５０２号,,28,207,6640028,,,,,,,2023-04-17,1,,,,,エン,0
2437,7140001129859,新規,0,2023-04-17,2023-04-17,株式会社ＭＲＴ,,株式会社,兵庫県,神戸市長田区,北町１丁目５０－８０１,,28,106,6530016,,,,,,,2023-04-17,1,,,,,エムアールティ,0
2440,7140003018985,新規,0,2023-04-17,2023-04-17,ＫＫ　Ｃｏｎｓｕｌｔａｎｃｙ合同会社,,合同会社,兵庫県,明石市,大久保町ゆりのき通２丁目５０番地の６、Ａ棟４０２号,,28,203,6740068,,,,,,,2023-04-17,1,,,,,ケーケーコンサルタンシー,0
2441,7140003018993,新規,0,2023-04-17,2023-04-17,合同会社Ｓｔａｙ　Ａｌｉｖｅ,,合同会社,兵庫県,神戸市東灘区,青木５丁目１８番２５号ＬｏｆｔＯＧ１０１号,,28,101,6580027,,,,,,,2023-04-17,1,,,,,ステイアライブ,0
2442,7140005026565,新規,0,2023-04-17,2023-04-17,特定非営利活動法人尼崎市国際交流協会,,その他の設立登記法人,兵庫県,尼崎市,開明町２丁目１番地１,,28,202,6600862,,,,,,,2023-04-17,1,,,,,アマガサキシコクサイコウリュウキョウカイ,0
2445,7150001026320,新規,0,2023-04-17,2023-04-17,ＮｉＣＡ　ＮｉＣＣＯ株式会社,,株式会社,奈良県,五條市,なつみ台１丁目１１番地の１２,,29,207,6370078,,,,,,,2023-04-17,1,,,,,ニカニッコ,0
2447,7160001024983,新規,0,2023-04-17,2023-04-17,株式会社リヒチ,,株式会社,滋賀県,栗東市,出庭１５２番地,,25,208,5203041,,,,,,,2023-04-17,1,,,,,リヒチ,0
2459,7180001155851,新規,0,2023-04-17,2023-04-17,株式会社ギャザー,,株式会社,愛知県,春日井市,勝川町５丁目４７番地シャトルキタヤマＩ・３０２号室,00130124,23,206,4860945,,,,,,,2023-04-17,1,,,,,ギャザー,0
2460,7180001155876,新規,0,2023-04-17,2023-04-17,ＳＣ株式会社,,株式会社,愛知県,小牧市,中央１丁目１７０番地プラウランド小牧９０４号,,23,219,4850029,,,,,,,2023-04-17,1,,,,,エスシー,0
2461,7180001155884,新規,0,2023-04-17,2023-04-17,株式会社ＫＮＰ,,株式会社,愛知県,名古屋市西区,西原町４０番地エーレＡ号,,23,104,4520848,,,,,,,2023-04-17,1,,,,,ケイエヌピー,0
2469,7180301037320,新規,0,2023-04-17,2023-04-17,インターエックス・コメルシオ・エ・セルビソス株式会社,,株式会社,愛知県,豊田市,久保町４丁目１２番地,,23,211,4710076,,,,,,,2023-04-17,1,,,,,インターエックスコメルシオエセルビソス,0
2476,7200003005928,新規,0,2023-04-17,2023-04-17,Ｌｉｍ　Ｎｅｘｔ合同会社,,合同会社,岐阜県,羽島市,堀津町東山３０番地１,,21,209,5016333,,,,,,,2023-04-17,1,,,,,リムネクスト,0
2479,7220005008745,新規,0,2023-04-17,2023-04-17,医療法人社団なかむら歯科クリニック,,その他の設立登記法人,石川県,加賀市,湖城町２丁目３３７番地,,17,206,9220413,,,,,,,2023-04-17,1,,,,,ナカムラシカクリニック,0
2481,7230005009296,新規,0,2023-04-17,2023-04-17,医療法人社団藤井整形外科医院,,その他の設立登記法人,富山県,砺波市,栄町６１３番地,,16,208,9391371,,,,,,,2023-04-17,1,,,,,シャダンフジイセイケイゲカイイン,0
2491,7280003001721,新規,0,2023-04-17,2023-04-17,合同会社ピースメイク,,合同会社,島根県,松江市,美保関町森山２８７番地２,,32,201,6901312,,,,,,,2023-04-17,1,,,,,ピースメイク,0
2500,7290003013765,新規,0,2023-04-17,2023-04-17,合同会社ＬｉｆｅＬｉｎｋ,,合同会社,福岡県,福岡市博多区,中洲４丁目１番２６号中洲人形町ビル４－Ｆ,,40,132,8100801,,,,,,,2023-04-17,1,,,,,ライフリンク,0
2501,7290003013773,新規,0,2023-04-17,2023-04-17,合同会社ＰＲＳ　ＪＡＰＡＮ,,合同会社,福岡県,福岡市南区,南大橋１丁目１９番１７号,,40,134,8150034,,,,,,,2023-04-17,1,,,,,ピーアルエスジャパン,0
2502,7290003013781,新規,0,2023-04-17,2023-04-17,ＡＫＩ　Ｐｈａｒｍａｃｅｕｔｉｃａｌ合同会社,,合同会社,福岡県,福岡市東区,香椎駅東４丁目２４－４,,40,131,8130012,,,,,,,2023-04-17,1,,,,,アキファーマシューティカル,0
2503,7290003013807,新規,0,2023-04-17,2023-04-17,プレシェンスジャパン合同会社,,合同会社,福岡県,福岡市南区,桧原３丁目２５番１５号,,40,134,8111355,,,,,,,2023-04-17,1,,,,,プレシェンスジャパン,0
2506,7290805009647,新規,0,2023-04-17,2023-04-17,梶原税理士法人,,その他の設立登記法人,福岡県,北九州市小倉北区,片野新町３丁目１番１６号城野駅前ビル２０７号,,40,106,8020062,,,,,,,2023-04-17,1,,,,,カジワラ,0
2515,7330005010649,新規,0,2023-04-17,2023-04-17,一般社団法人日本看護統合医療協会,,その他の設立登記法人,熊本県,熊本市南区,城南町坂野２０６８番地,,43,104,8614201,,,,,,,2023-04-17,1,,,,,,0
2519,7360001031844,新規,0,2023-04-17,2023-04-17,グッドティック株式会社,,株式会社,沖縄県,浦添市,宮城２丁目３５番２号１階,,47,208,9012126,,,,,,,2023-04-17,1,,,,,グッドティック,0
2520,7360001031885,新規,0,2023-04-17,2023-04-17,株式会社ＯＭＯＩＨＯＬＤＥＲＳ,,株式会社,沖縄県,那覇市,赤嶺１丁目１１－８,,47,201,9010154,,,,,,,2023-04-17,1,,,,,オモイホルダーズ,0
2521,7360001031893,新規,0,2023-04-17,2023-04-17,株式会社ＫＵ‐ＫＯファーム,,株式会社,沖縄県,糸満市,字米須１７７９番地,,47,210,9010335,,,,,,,2023-04-17,1,,,,,クーコファーム,0
2523,7360003012883,新規,0,2023-04-17,2023-04-17,ＯＲＳサービス合同会社,,合同会社,沖縄県,中頭郡読谷村,字高志保１４１９番地１,,47,324,9040323,,,,,,,2023-04-17,1,,,,,オーアールエスサービス,0
2527,7380001033616,新規,0,2023-04-17,2023-04-17,株式会社ＥＬＬＭ,,株式会社,福島県,郡山市,富久山町福原字陣場７７Ｂ棟,,07,203,9638061,,,,,,,2023-04-17,1,,,,,エルム,0
2528,7380001033624,新規,0,2023-04-17,2023-04-17,株式会社ＧＨＡＭＰ,,株式会社,福島県,福島市,南沢又字上並松３－９,,07,201,9608254,,,,,,,2023-04-17,1,,,,,ガンプ,0
2533,7400001016213,新規,0,2023-04-17,2023-04-17,株式会社ＲｉｃｈＣｕｅ,,株式会社,岩手県,一関市,山目字境６１番地７号ドルチェ１階１Ｂ号室,,03,209,0210054,,,,,,,2023-04-17,1,,,,,リッチキュー,0
2538,7430001088844,新規,0,2023-04-17,2023-04-17,株式会社Ｎｄａｙｔｒｉｐ,,株式会社,北海道,札幌市中央区,南四条東２丁目６番地３まさくらビル２０３号室,,01,101,0600054,,,,,,,2023-04-17,1,,,,,エヌデイトリップ,0
2539,7430001088885,新規,0,2023-04-17,2023-04-17,佐藤重機株式会社,,株式会社,北海道,滝川市,中島町５丁目４番１７号,,01,225,0730035,,,,,,,2023-04-17,1,,,,,サトウジュウキ,0
2542,7460101007370,新規,0,2023-04-17,2023-04-17,株式会社ＳＡＷＡＹＡＭＡ　ＦＡＲＭ,,株式会社,北海道,上川郡清水町,字御影南４線７０番地,,01,636,0890357,,,,,,,2023-04-17,1,,,,,サワヤマファーム,0
2553,7700150115181,新規,0,2023-04-17,2023-04-07,豊田川豊西用水組合,,その他,静岡県,浜松市東区,豊西町１５６５番地,,22,132,4313102,,,,,,,2023-04-07,1,,,,,トヨダガワトヨニシヨウスイクミアイ,0
2554,7700150115495,新規,0,2023-04-17,2023-04-17,新義成実宗　大秀山　明石寺,,その他,東京都,港区,新橋４丁目２６－４,,13,103,1050004,,,,,,,2023-04-17,1,,,,,シンギジョウジツシュウダイシュウザンメイセキジ,0
2555,7700150115504,新規,0,2023-04-17,2023-04-17,ｓｈｅｎ　ｚｈｅｎ　ｓｈｉ　ｊｉｎ　ｒｕｎ　ｍａｏ　ｙｉ　ｙｏｕ　ｘｉａｎ　ｇｏｎｇ　ｓｉ,,外国会社等,,,,,,,,ｇｕａｎｇｄｏｎｇｓｈｅｎｇ　ｓｈｅｎｚｈｅｎｓｈｉ　ｌｏｎｇｃｈｅｎｇｊｉｅｄａｏ　ｎａｎｌｉａｎｚｈｅｎ　ｐｕｌｉｎｇｘｉｎｅｒｑｕ　ｑｉｘｉａｎｇｂａｈａｏ,,,,,,2023-04-17,1,,,,,シンセンシジンルンマォイユウゲンコウシ,0
2564,8010001234381,新規,0,2023-04-17,2023-04-17,飛図株式会社,,株式会社,東京都,中央区,築地２丁目１１番９号７階,,13,102,1040045,,,,,,,2023-04-17,1,,,,,ヒズ,0
2565,8010001234539,新規,0,2023-04-17,2023-04-17,株式会社Ｍ’ｓ　Ｅｆｆｅｃｔ,,株式会社,東京都,中央区,東日本橋２丁目２－９－１１０３,,13,102,1030004,,,,,,,2023-04-17,1,,,,,エムズエフェクト,0
2566,8010001234563,新規,0,2023-04-17,2023-04-17,株式会社スクーデリア,,株式会社,東京都,千代田区,富士見１丁目３番１１号富士見デュープレックスＢ’ｓ４Ｆ,,13,101,1020071,,,,,,,2023-04-17,1,,,,,スクーデリア,0
2567,8010001234621,新規,0,2023-04-17,2023-04-17,株式会社エスケー,,株式会社,東京都,文京区,本郷６丁目７－１原コーポ１０２,,13,105,1130033,,,,,,,2023-04-17,1,,,,,エスケー,0
2571,8010003040340,新規,0,2023-04-17,2023-04-17,合同会社大信玄,,合同会社,東京都,中央区,銀座１丁目２２番１号銀座タワー１２０５,,13,102,1040061,,,,,,,2023-04-17,1,,,,,ダイシンゲン,0
2574,8010005036519,新規,0,2023-04-17,2023-04-17,一般社団法人ホテルコンシェルジュアカデミー,,その他の設立登記法人,東京都,中央区,八丁堀３丁目１１番１１号,,13,102,1040032,,,,,,,2023-04-17,1,,,,,ホテルコンシェルジュアカデミー,0
2585,8010401173626,新規,0,2023-04-17,2023-04-17,Ｐｒｏｏｆ　ｏｆ　Ｊａｐａｎ株式会社,,株式会社,東京都,港区,虎ノ門１丁目１７番１号,,13,103,1050001,,,,,,,2023-04-17,1,,,,,プルーフオブジャパン,0
2586,8010401173766,新規,0,2023-04-17,2023-04-17,株式会社内定くん,,株式会社,東京都,港区,南青山３丁目１番３６号青山丸竹ビル６Ｆ,,13,103,1070062,,,,,,,2023-04-17,1,,,,,ナイテイクン,0
2587,8010401173824,新規,0,2023-04-17,2023-04-17,株式会社Ｃｈｉｎａ　Ｂｒａｎｄ,,株式会社,東京都,港区,赤坂４丁目１５番１号,,13,103,1070052,,,,,,,2023-04-17,1,,,,,チャイナブランド,0
2595,8010601062918,新規,0,2023-04-17,2023-04-17,株式会社ＰＬＵＶＡ,,株式会社,東京都,江東区,清澄１丁目３番９－５１７号,,13,108,1350024,,,,,,,2023-04-17,1,,,,,プルーバ,0
2596,8010601062926,新規,0,2023-04-17,2023-04-17,株式会社Ｌｉｂｅｒｔｙ＆ｃｏ．,,株式会社,東京都,墨田区,石原３丁目１１番４－５０９号,,13,107,1300011,,,,,,,2023-04-17,1,,,,,リバティーアンドコー,0
2606,8010903008098,新規,0,2023-04-17,2023-04-17,合同会社ＰＩＬＡＦ,,合同会社,東京都,世田谷区,代田６丁目１８番１３号下北沢ブロックス１,,13,112,1550033,,,,,,,2023-04-17,1,,,,,,0
2615,8011001153778,新規,0,2023-04-17,2023-04-17,株式会社ＰＩＶＯＴ,,株式会社,東京都,渋谷区,渋谷２丁目７－１３大一ビルＢ１Ｆ,,13,113,1500002,,,,,,,2023-04-17,1,,,,,ピボット,0
2616,8011001153794,新規,0,2023-04-17,2023-04-17,株式会社Ｔｗｉｎｋｌｅ,,株式会社,東京都,渋谷区,西原３丁目３６番３号,,13,113,1510066,,,,,,,2023-04-17,1,,,,,トウィンクル,0
2617,8011001153803,新規,0,2023-04-17,2023-04-17,株式会社ＭＡＴＲＩＸ　ＧＡＲＤＥＮ,,株式会社,東京都,渋谷区,道玄坂１丁目１０番８号渋谷道玄坂東急ビル２Ｆ－Ｃ,,13,113,1500043,,,,,,,2023-04-17,1,,,,,マトリクスガーデン,0
2618,8011001153811,新規,0,2023-04-17,2023-04-17,株式会社Ｅｐｉｃ＆Ｅａｓｙ,,株式会社,東京都,渋谷区,神宮前２丁目３２番１１号３Ｆ,,13,113,1500001,,,,,,,2023-04-17,1,,,,,エピックアンドイージー,0
2619,8011001153844,新規,0,2023-04-17,2023-04-17,株式会社ＳＥＱＵＥＮＣＥ,,株式会社,東京都,渋谷区,恵比寿１丁目７番８号,,13,113,1500013,,,,,,,2023-04-17,1,,,,,シークエンス,0
2621,8011003016636,新規,0,2023-04-17,2023-04-17,合同会社ＴＯＪ　Ｃｏｍｐａｎｙ,,合同会社,東京都,渋谷区,恵比寿２丁目３１番５号アクシア広尾１１０５,,13,113,1500013,,,,,,,2023-04-17,1,,,,,ティーオーージェーカンパニー,0
2625,8011101102536,新規,0,2023-04-17,2023-04-17,株式会社ｆｕｔｕｒｅｆｌｕｘ,,株式会社,東京都,新宿区,新宿１丁目１１－１５岡本ビル３Ａ,,13,104,1600022,,,,,,,2023-04-17,1,,,,,フューチャーフラックス,0
2626,8011103012948,新規,0,2023-04-17,2023-04-17,ＡＧＥＮＴ合同会社,,合同会社,東京都,新宿区,西新宿３丁目３番１３号西新宿水間ビル６階,,13,104,1600023,,,,,,,2023-04-17,1,,,,,エージェント,0
2627,8011105010628,新規,0,2023-04-17,2023-04-17,特定非営利活動法人光免疫療法研究支援会,,その他の設立登記法人,東京都,新宿区,西新宿３丁目２番８号,,13,104,1600023,,,,,,,2023-04-17,1,,,,,ヒカリメンエキリョウホウケンキュウシエンカイ,0
2633,8011801042239,新規,0,2023-04-17,2023-04-17,七番車庫株式会社,,株式会社,東京都,足立区,栗原３丁目２６番１号２Ｆ,,13,121,1230842,,,,,,,2023-04-17,1,,,,,ナナバンシャコ,0
2635,8012301013399,新規,0,2023-04-17,2023-04-17,株式会社Ｂ＆Ｈ　Ｍａｎａｇｅｍｅｎｔ,,株式会社,東京都,町田市,南町田３丁目２５－１アドグランデ南町田２０２,,13,209,1940005,,,,,,,2023-04-17,1,,,,,ビーアンドエイチマネジメント,0
2640,8012803003063,新規,0,2023-04-17,2023-04-17,合同会社シトラス,,合同会社,東京都,武蔵村山市,中央２丁目９１－１４,,13,223,2080003,,,,,,,2023-04-17,1,,,,,シトラス,0
2643,8013301050614,新規,0,2023-04-17,2023-04-17,Ｓ＆Ｙ不動産株式会社,,株式会社,東京都,豊島区,東池袋１丁目２８番１号,,13,116,1700013,,,,,,,2023-04-17,1,,,,,,0
2649,8020001151106,新規,0,2023-04-17,2023-04-17,株式会社メゼババＬＡＢＯ,,株式会社,神奈川県,川崎市幸区,北加瀬３丁目１１番２２－１号,,14,132,2120057,,,,,,,2023-04-17,1,,,,,メゼババラボ,0
2653,8020003023724,新規,0,2023-04-17,2023-04-17,シーダー合同会社,,合同会社,神奈川県,川崎市宮前区,西野川２丁目１５番６０号,,14,136,2160044,,,,,,,2023-04-17,1,,,,,シーダー,0
2654,8020003023740,新規,0,2023-04-17,2023-04-17,合同会社ＡＲＡＴＡＳ,,合同会社,神奈川県,横浜市都筑区,中川１丁目２０番１８－５０８号,,14,118,2240001,,,,,,,2023-04-17,1,,,,,アラタス,0
2670,8030005021213,新規,0,2023-04-17,2023-04-17,一般社団法人こどもの居場所,,その他の設立登記法人,埼玉県,秩父郡小鹿野町,両神薄２３６４,,11,365,3680201,,,,,,,2023-04-17,1,,,,,コドモノイバショ,0
2674,8040001127871,新規,0,2023-04-17,2023-04-17,株式会社ｅｍｍａ．,,株式会社,千葉県,松戸市,稔台７丁目７番地の７,,12,207,2702231,,,,,,,2023-04-17,1,,,,,エマドット,0
2675,8040001127954,新規,0,2023-04-17,2023-04-17,株式会社フェララ,,株式会社,千葉県,市川市,塩焼４丁目１２－２６ローズガーデン３８号,,12,203,2720114,,,,,,,2023-04-17,1,,,,,フェララ,0
2676,8040001127979,新規,0,2023-04-17,2023-04-17,株式会社ジーディージェイ,,株式会社,千葉県,浦安市,日の出６丁目１９－１６,,12,227,2790013,,,,,,,2023-04-17,1,,,,,ジーディージェイ,0
2677,8040001127995,新規,0,2023-04-17,2023-04-17,株式会社誠信工業,,株式会社,千葉県,松戸市,高塚新田５６８番地の５４,,12,207,2702222,,,,,,,2023-04-17,1,,,,,セイシンコウギョウ,0
2678,8040001128011,新規,0,2023-04-17,2023-04-17,株式会社Ｇｅｔ　Ｏｎ,,株式会社,千葉県,浦安市,猫実３丁目２０番２７号グランドソレイユ２０３,,12,227,2790004,,,,,,,2023-04-17,1,,,,,ゲットオン,0
2680,8040003022385,新規,0,2023-04-17,2023-04-17,合同会社Ｖｉａｊｅ,,合同会社,千葉県,松戸市,二十世紀が丘梨元町３０番地ブランボヌール松戸５０１号,,12,207,2710083,,,,,,,2023-04-17,1,,,,,ヴィアージェ,0
2681,8040003022402,新規,0,2023-04-17,2023-04-17,Ｍｅａｄｏｗ　Ｐｏｎｙ合同会社,,合同会社,千葉県,流山市,美原１丁目１７９－３８,,12,220,2700103,,,,,,,2023-04-17,1,,,,,メドウポニー,0
2682,8040003022410,新規,0,2023-04-17,2023-04-17,柏商事合同会社,,合同会社,千葉県,我孫子市,台田２丁目５番１５号（１０１号）第２コーポ岩立,,12,222,2701167,,,,,,,2023-04-17,1,,,,,カシワショウジ,0
2690,8050001052697,新規,0,2023-04-17,2023-04-17,株式会社ｔｃ‐ｓｔｙｌｅ,,株式会社,茨城県,つくば市,台町２丁目４番地５,,08,220,3050868,,,,,,,2023-04-17,1,,,,,ティーシースタイル,0
2691,8050001052706,新規,0,2023-04-17,2023-04-17,株式会社常陸野起業,,株式会社,茨城県,那珂市,中台７２１番地５,,08,226,3110113,,,,,,,2023-04-17,1,,,,,ヒタチノキギョウ,0
2693,8050003007410,新規,0,2023-04-17,2023-04-17,合同会社ヒロホーム,,合同会社,茨城県,つくば市,高野台３丁目１１番地２モアリッシェルつくば高野台Ｉ棟５０７号,,08,220,3050074,,,,,,,2023-04-17,1,,,,,ヒロホーム,0
2696,8060005010080,新規,0,2023-04-17,2023-04-17,医療法人あんずの森,,その他の設立登記法人,栃木県,下野市,仁良川１５１８番地１,,09,216,3290432,,,,,,,2023-04-17,1,,,,,アンズノモリ,0
2706,8080105006324,新規,0,2023-04-17,2023-04-17,一般社団法人まるごと富士山,,その他の設立登記法人,静岡県,富士宮市,大宮町１２番１０号,,22,207,4180066,,,,,,,2023-04-17,1,,,,,マルゴトフジサン,0
2707,8080401026430,新規,0,2023-04-17,2023-04-17,株式会社ピグット,,株式会社,静岡県,浜松市中区,佐鳴台２丁目３番１９号、２０３,,22,131,4328021,,,,,,,2023-04-17,1,,,,,ピグット,0
2709,8100001036323,新規,0,2023-04-17,2023-04-17,岡澤外装株式会社,,株式会社,長野県,茅野市,米沢４７８０番地１８,,20,214,3910216,,,,,,,2023-04-17,1,,,,,オカザワガイソウ,0
2710,8100001036331,新規,0,2023-04-17,2023-04-17,株式会社Ｋ．ＡＤＶＡＮＣＥ,,株式会社,長野県,埴科郡坂城町,大字中之条１１４９番地２,,20,521,3890602,,,,,,,2023-04-17,1,,,,,ケーアドバンス,0
2713,8100003006976,新規,0,2023-04-17,2023-04-17,合同会社くう,,合同会社,長野県,北佐久郡軽井沢町,大字長倉２１１５番地１２３０,,20,321,3890111,,,,,,,2023-04-17,1,,,,,クウ,0
2738,8120001253973,新規,0,2023-04-17,2023-04-17,華倩株式会社,,株式会社,大阪府,大阪市大正区,三軒家西３丁目４番１６号中山ビル２１２Ｂ,,27,108,5510001,,,,,,,2023-04-17,1,,,,,カセイ,0
2742,8120003023838,新規,0,2023-04-17,2023-04-17,合同会社雅,,合同会社,大阪府,大阪市東淀川区,瑞光１丁目１２番１２号至誠ビル６０２,,27,114,5330005,,,,,,,2023-04-17,1,,,,,ミヤビ,0
2747,8120101067357,新規,0,2023-04-17,2023-04-17,ＭＳ工業株式会社,,株式会社,大阪府,堺市東区,草尾４０７番地７,,27,143,5998127,,,,,,,2023-04-17,1,,,,,エムエスコウギョウ,0
2748,8120101067365,新規,0,2023-04-17,2023-04-17,大谷物産株式会社,,株式会社,大阪府,堺市中区,深井中町３３７番地１１,,27,142,5998272,,,,,,,2023-04-17,1,,,,,オオタニブッサン,0
2749,8120101067373,新規,0,2023-04-17,2023-04-17,株式会社ネクストワン,,株式会社,大阪府,羽曳野市,古市１６０２番地の１,,27,222,5830852,,,,,,,2023-04-17,1,,,,,ネクストワン,0
2751,8120103005166,新規,0,2023-04-17,2023-04-17,ＨＶＡ合同会社,,合同会社,大阪府,堺市堺区,中安井町１丁４番２３号１階,,27,141,5900063,,,,,,,2023-04-17,1,,,,,エイチブイエー,0
2752,8120103005174,新規,0,2023-04-17,2023-04-17,合同会社ｇｒａｃｅ,,合同会社,大阪府,岸和田市,西之内町５５－３７セントラルコート１０３号,,27,202,5960044,,,,,,,2023-04-17,1,,,,,グレイス,0
2753,8120901047418,新規,0,2023-04-17,2023-04-17,株式会社住健,,株式会社,大阪府,摂津市,千里丘５丁目１番２５－１０７号,,27,224,5660001,,,,,,,2023-04-17,1,,,,,ジュウケン,0
2754,8120901047426,新規,0,2023-04-17,2023-04-17,株式会社Ｔ‐ＦＩＥＬＤ,,株式会社,大阪府,箕面市,今宮３丁目２８番４号,,27,220,5620033,,,,,,,2023-04-17,1,,,,,ティーフィールド,0
2760,8122003002565,新規,0,2023-04-17,2023-04-17,合同会社ジャパン・エース・クリエイト,,合同会社,大阪府,柏原市,法善寺３丁目８０３マンション平次１１１号,,27,221,5820005,,,,,,,2023-04-17,1,,,,,ジャパンエースクリエイト,0
2763,8130003008631,新規,0,2023-04-17,2023-04-17,合同会社山本コーポレーション,,合同会社,京都府,向日市,寺戸町八ノ坪１番地の２７,,26,208,6170002,,,,,,,2023-04-17,1,,,,,ヤマモトコーポレーション,0
2764,8130003008656,新規,0,2023-04-17,2023-04-17,合同会社Ｋ．Ｒ,,合同会社,京都府,福知山市,字堀４９４番地の２,,26,201,6200000,,,,,,,2023-04-17,1,,,,,ケーアール,0
2770,8140001129783,新規,0,2023-04-17,2023-04-17,株式会社ＬＡＵＮＤＲＩＳＴ,,株式会社,兵庫県,神戸市中央区,加納町３丁目１１番１４号,,28,110,6500001,,,,,,,2023-04-17,1,,,,,ランドリスト,0
2771,8140001129791,新規,0,2023-04-17,2023-04-17,盛和商事株式会社,,株式会社,兵庫県,加東市,山国２０１４番地１５０嬉野エデン西－１０４号,,28,228,6731421,,,,,,,2023-04-17,1,,,,,セイワショウジ,0
2772,8140001129800,新規,0,2023-04-17,2023-04-17,株式会社Ｋ＆Ｋ電機,,株式会社,兵庫県,神戸市西区,伊川谷町有瀬１５５５番地の７エフコート神戸西６０１号,,28,111,6512113,,,,,,,2023-04-17,1,,,,,ケイアンドケイデンキ,0
2773,8140001129825,新規,0,2023-04-17,2023-04-17,株式会社ＬＥＡＰ　ＴＲＡＮＳ,,株式会社,兵庫県,西宮市,薬師町３番３３－４０２号,,28,204,6638024,,,,,,,2023-04-17,1,,,,,リープトランス,0
2774,8140001129833,新規,0,2023-04-17,2023-04-17,株式会社Ｒ．Ｐ．Ｇ,,株式会社,兵庫県,神戸市中央区,二宮町１丁目４番７号リーガル三宮東ビル７０１号室,,28,110,6510093,,,,,,,2023-04-17,1,,,,,アールピージー,0
2780,8140003018919,新規,0,2023-04-17,2023-04-17,Ｈｉ‐Ｔｅｃ兵庫合同会社,,合同会社,兵庫県,姫路市,青山西２丁目２３番９－２０４号,,28,201,6712224,,,,,,,2023-04-17,1,,,,,ハイテックヒョウゴ,0
2781,8140003018968,新規,0,2023-04-17,2023-04-17,合同会社レゾナンス,,合同会社,兵庫県,神戸市長田区,若松町４丁目２番１５－１８０１号,,28,106,6530038,,,,,,,2023-04-17,1,,,,,レゾナンス,0
2782,8140003018992,新規,0,2023-04-17,2023-04-17,合同会社百科,,合同会社,兵庫県,川辺郡猪名川町,伏見台５丁目６番地２１,,28,301,6660262,,,,,,,2023-04-17,1,,,,,ヒャッカ,0
2784,8150001026311,新規,0,2023-04-17,2023-04-17,株式会社ｎｉｃｏｔｔｏ．,,株式会社,奈良県,橿原市,内膳町４丁目４番８号,,29,205,6340804,,,,,,,2023-04-17,1,,,,,ニコット,0
2794,8180001155859,新規,0,2023-04-17,2023-04-17,青嵐株式会社,,株式会社,愛知県,名古屋市中区,栄１丁目１６番１６号チサンマンション栄３０７号,,23,106,4600008,,,,,,,2023-04-17,1,,,,,セイラン,0
2795,8180001155875,新規,0,2023-04-17,2023-04-17,株式会社シーエスエム,,株式会社,愛知県,小牧市,中央１丁目１７０番地プラウランド小牧９０４号,,23,219,4850029,,,,,,,2023-04-17,1,,,,,シーエスエム,0
2796,8180001155900,新規,0,2023-04-17,2023-04-17,株式会社エムサポート,,株式会社,愛知県,一宮市,伝法寺５丁目１４番地１１,,23,203,4910828,,,,,,,2023-04-17,1,,,,,エムサポート,0
2797,8180001155909,新規,0,2023-04-17,2023-04-17,株式会社エスプラウト,,株式会社,愛知県,名古屋市名東区,赤松台３０７番地,,23,115,4650016,,,,,,,2023-04-17,1,,,,,エスプラウト,0
2803,8180003025119,新規,0,2023-04-17,2023-04-17,合同会社レイハンツ,,合同会社,愛知県,名古屋市中村区,名駅３丁目４－１０アルティメイト名駅１ｓｔ２階,,23,105,4500002,,,,,,,2023-04-17,1,,,,,レイハンツ,0
2804,8180003025127,新規,0,2023-04-17,2023-04-17,合同会社智将,,合同会社,愛知県,名古屋市東区,赤塚町３番１２号,,23,102,4610026,,,,,,,2023-04-17,1,,,,,トモショウ,0
2808,8190001030326,新規,0,2023-04-17,2023-04-17,株式会社伊勢濱,,株式会社,三重県,鳥羽市,答志町３０２番地２,,24,211,5170002,,,,,,,2023-04-17,1,,,,,イセハマ,0
2812,8200001041189,新規,0,2023-04-17,2023-04-17,株式会社グリーン・リース,,株式会社,岐阜県,岐阜市,東鶉３丁目８４－３カームシティＮｏ．３‐１０２号室,,21,201,5008281,,,,,,,2023-04-17,1,,,,,グリーンリース,0
2813,8200001041206,新規,0,2023-04-17,2023-04-17,ナカシマ電研株式会社,,株式会社,岐阜県,大垣市,青柳町４丁目１０１番地,,21,202,5030961,,,,,,,2023-04-17,1,,,,,ナカシマデンケン,0
2821,8230001019802,新規,0,2023-04-17,2023-04-17,株式会社クレール,,株式会社,富山県,富山市,下赤江町１丁目１２番２１号,,16,201,9300813,,,,,,,2023-04-17,1,,,,,クレール,0
2822,8230005009295,新規,0,2023-04-17,2023-04-17,医療法人社団北林クリニック,,その他の設立登記法人,富山県,射水市,戸破字加茂１７０４番地１,,16,211,9390351,,,,,,,2023-04-17,1,,,,,キタバヤシクリニック,0
2823,8240001061357,新規,0,2023-04-17,2023-04-17,株式会社ＡＶＡＮＣＥ,,株式会社,広島県,福山市,芦田町福田１２１６番地７,,34,207,7210000,,,,,,,2023-04-17,1,,,,,アバンス,0
2824,8240003006104,新規,0,2023-04-17,2023-04-17,龍神木材合同会社,,合同会社,広島県,東広島市,西条町御薗宇２３３５番地友則ハイツ２０３号,,34,212,7390024,,,,,,,2023-04-17,1,,,,,リュウジンモクザイ,0
2827,8290001101240,新規,0,2023-04-17,2023-04-17,株式会社ＴＥＮＺＩＮＧ　ＥＸＰＬＯＲＥＲ,,株式会社,福岡県,福岡市中央区,天神４丁目６－２８天神ファーストビル７階,,40,133,8100001,,,,,,,2023-04-17,1,,,,,テンジンエクスプローラー,0
2828,8290001101249,新規,0,2023-04-17,2023-04-17,株式会社カーニバル,,株式会社,福岡県,福岡市西区,北原１丁目１１番４号,,40,135,8190379,,,,,,,2023-04-17,1,,,,,カーニバル,0
2833,8290003013806,新規,0,2023-04-17,2023-04-17,オフィス晃合同会社,,合同会社,福岡県,福岡市博多区,博多駅前１丁目２３番１号ＰａｒｋＦｒｏｎｔ博多駅前１丁目５Ｆ－Ｂ,,40,132,8120011,,,,,,,2023-04-17,1,,,,,オフィスアキラ,0
2835,8290801029466,新規,0,2023-04-17,2023-04-17,株式会社ＲＩＳＥ,,株式会社,福岡県,田川市,新町２０番８号,,40,206,8250016,,,,,,,2023-04-17,1,,,,,ライズ,0
2841,8310003004546,新規,0,2023-04-17,2023-04-17,キラク合同会社,,合同会社,長崎県,佐世保市,ハウステンボス町１８番地１２ウィルヘンフラット６－３０３,,42,202,8593243,,,,,,,2023-04-17,1,,,,,キラク,0
2846,8330003009808,新規,0,2023-04-17,2023-04-17,合同会社ディライト機工,,合同会社,熊本県,熊本市中央区,花畑町１番１４号Ａ＆Ｍ　ＨＡＮＡＢＡＴＡ３０１号,,43,101,8600806,,,,,,,2023-04-17,1,,,,,ディライトキコウ,0
2847,8340001025509,新規,0,2023-04-17,2023-04-17,株式会社砂坂,,株式会社,鹿児島県,熊毛郡南種子町,中之上３０５５番地,,46,502,8913701,,,,,,,2023-04-17,1,,,,,スナサカ,0
2848,8340003004106,新規,0,2023-04-17,2023-04-17,合同会社ＰｌｕｓＯｎｅ,,合同会社,鹿児島県,曽於市,財部町下財部１５７０番地４,,46,217,8994103,,,,,,,2023-04-17,1,,,,,プラスワン,0
2854,8360001031868,新規,0,2023-04-17,2023-04-17,株式会社玉那覇シーリング,,株式会社,沖縄県,浦添市,港川２丁目２１－３,,47,208,9012134,,,,,,,2023-04-17,1,,,,,タマナハシーリング,0
2855,8360001031876,新規,0,2023-04-17,2023-04-17,株式会社ＢＵＲＮＩＮＧ　ＭＡＮ,,株式会社,沖縄県,国頭郡恩納村,字瀬良垣４９６番地,,47,311,9040404,,,,,,,2023-04-17,1,,,,,バーニングマン,0
2856,8360001031884,新規,0,2023-04-17,2023-04-17,株式会社ライヴス沖縄,,株式会社,沖縄県,那覇市,字小禄１８３１番地１沖縄産業支援センター３１１号室,,47,201,9010152,,,,,,,2023-04-17,1,,,,,ライヴスオキナワ,0
2857,8360001031901,新規,0,2023-04-17,2023-04-17,株式会社Ｃ’ＬＤ　ＩＮＤＵＳＴＲＩＥＳ,,株式会社,沖縄県,那覇市,おもろまち４丁目６番２２号おもろまちＴ－ＭＡＸビル３Ｆ,,47,201,9000006,,,,,,,2023-04-17,1,,,,,シールドインダストリーズ,0
2858,8360003012890,新規,0,2023-04-17,2023-04-17,合同会社ＦＲＡＮＫ,,合同会社,沖縄県,豊見城市,字座安２７２番地３－１０１,,47,212,9010221,,,,,,,2023-04-17,1,,,,,フランク,0
2859,8360003012899,新規,0,2023-04-17,2023-04-17,合同会社Ｔｒｕｓｔ,,合同会社,沖縄県,那覇市,字小禄１４３６番地９プランドール３－Ｂ,,47,201,9010152,,,,,,,2023-04-17,1,,,,,トラスト,0
2860,8370003006074,新規,0,2023-04-17,2023-04-17,合同会社ＷＳＫ,,合同会社,宮城県,仙台市若林区,卸町２丁目９―１,,04,103,9840015,,,,,,,2023-04-17,1,,,,,ダブルエスケー,0
2867,8420003002704,新規,0,2023-04-17,2023-04-17,合同会社みちのく舗装,,合同会社,青森県,黒石市,追子野木１丁目２４７番地１７,,02,204,0360357,,,,,,,2023-04-17,1,,,,,,0
2874,8430003014970,新規,0,2023-04-17,2023-04-17,合同会社Ｎコンサル,,合同会社,北海道,札幌市北区,太平八条４丁目７番８号,,01,102,0028008,,,,,,,2023-04-17,1,,,,,エヌコンサル,0
2875,8462501000953,新規,0,2023-04-17,2023-04-17,株式会社Ｌｙｎｘ,,株式会社,北海道,野付郡別海町,尾岱沼４番地１０３,,01,691,0861641,,,,,,,2023-04-17,1,,,,,リンクス,0
2878,8480005006953,新規,0,2023-04-17,2023-04-17,医療法人西川内科クリニック,,その他の設立登記法人,徳島県,阿波市,阿波町南柴生７８番地１,,36,206,7711703,,,,,,,2023-04-17,1,,,,,ニシカワナイカクリニック,0
2884,8700150115478,新規,0,2023-04-17,2023-04-17,ｈａｎｇｚｈｏｕｓｉｆｕｂａｏｚｈｕａｎｇｙｏｕｘｉａｎｇｏｎｇｓｉ,,外国会社等,,,,,,,,ｊｉｎｂｅｉｊｉｅｄａｏｊｉｎｍａｃｕｎｚｈｕｙｕａｎｌｉ１６ｈａｏ，ｌｉｎａｎｑｕ，ｈａｎｇｚｈｏｕｓｈｉ，ｚｈｅｊｉａｎｇｓｈｅｎｇ,,,,,,2023-04-17,1,,,,,ハンジョウスーフーバオジュワンヨウシエンゴンスー,0
2885,8700150115494,新規,0,2023-04-17,2023-04-17,北春日部駅周辺地区土地区画整理組合,,その他,埼玉県,春日部市,梅田本町２丁目２４番地１,,11,214,3440053,,,,,,,2023-04-17,1,,,,,キタカスカベエキシユウヘンチクトチクカクセイリクミアイ,0
2886,8700150115503,新規,0,2023-04-17,2023-04-17,ＱＩＮＧＤＡＯ　ＲＩＥＳＬＩＮＧ　ＳＰＩＲＩＴＳ　ＣＯ．，ＬＴＤ,,外国会社等,,,,,,,,ＮＯ．５９　ＳＨＵＩＬＩＮＧＳＨＡＮ　ＲＯＡＤ　ＨＵＡＮＧＤＡＯ　ＺＯＮＥ　ＱＩＮＧＤＡＯ　ＳＨＡＮＤＯＮＧ　ＣＨＩＮＡ,,,,,,2023-04-17,1,,,,,チンダォルイスリンスビリッズカブシキカイシャ,0
2898,9010001234521,新規,0,2023-04-17,2023-04-17,ディアワンダー株式会社,,株式会社,東京都,千代田区,有楽町１丁目６番３号,,13,101,1000006,,,,,,,2023-04-17,1,,,,,ディアワンダー,0
2904,9010003040331,新規,0,2023-04-17,2023-04-17,合同会社大日本日乃丸食品,,合同会社,東京都,中央区,日本橋室町１丁目１－３紅花ビル１Ｆ,,13,102,1030022,,,,,,,2023-04-17,1,,,,,ダイニッポンヒノマルショクヒン,0
2906,9010005036518,新規,0,2023-04-17,2023-04-17,一般社団法人ＳＡＫＥ　ＯＦ　ＰＥＡＣＥ,,その他の設立登記法人,東京都,中央区,銀座１丁目２２番１１号銀座大竹ビジデンス２Ｆ,,13,102,1040061,,,,,,,2023-04-17,1,,,,,セイクオブピース,0
2915,9010401173666,新規,0,2023-04-17,2023-04-17,株式会社ＥＮＩＬＩＳ,,株式会社,東京都,港区,芝４丁目１番２８号ＰＭＯ田町ＩＩＩ７Ｆ,00130133,13,103,1080014,,,,,,,2023-04-17,1,,,,,エニリス,0
2916,9010401173781,新規,0,2023-04-17,2023-04-17,株式会社スリールーム,,株式会社,東京都,港区,西新橋２丁目３４番８,,13,103,1050003,,,,,,,2023-04-17,1,,,,,スリールーム,0
2917,9010401173798,新規,0,2023-04-17,2023-04-17,株式会社Ｃｏｏｐｕｓ,,株式会社,東京都,港区,芝５丁目３２－１２シャーメゾンステージ田町,,13,103,1080014,,,,,,,2023-04-17,1,,,,,コーパス,0
2918,9010403029932,新規,0,2023-04-17,2023-04-17,合同会社上尾,,合同会社,東京都,港区,虎ノ門３丁目２２番１０－２０１号,,13,103,1050001,,,,,,,2023-04-17,1,,,,,アゲオ,0
2919,9010403029940,新規,0,2023-04-17,2023-04-17,グローバルバイアウトホールディングス合同会社,,合同会社,東京都,港区,六本木６丁目１０番１号六本木ヒルズ森タワー,,13,103,1060032,,,,,,,2023-04-17,1,,,,,グローバルバイアウトホールディングス,0
2925,9010601062933,新規,0,2023-04-17,2023-04-17,株式会社ＳｅａＰｉｇ,,株式会社,東京都,墨田区,墨田１丁目１９番６号,,13,107,1310031,,,,,,,2023-04-17,1,,,,,シーピッグ,0
2936,9010701044113,新規,0,2023-04-17,2023-04-17,株式会社ＡｓＩｓ,,株式会社,東京都,品川区,東品川３丁目２３番２１号,,13,109,1400002,,,,,,,2023-04-17,1,,,,,アズイズ,0
2947,9010903008097,新規,0,2023-04-17,2023-04-17,Ｇｒａｂ　Ｂａｇ合同会社,,合同会社,東京都,世田谷区,松原５丁目２３番地３号,,13,112,1560043,,,,,,,2023-04-17,1,,,,,,0
2955,9011001153703,新規,0,2023-04-17,2023-04-17,ｄａｐａｌｌｅｘ株式会社,,株式会社,東京都,渋谷区,神泉町１０番１５号,,13,113,1500045,,,,,,,2023-04-17,1,,,,,ダパレックス,0
2956,9011001153810,新規,0,2023-04-17,2023-04-17,株式会社Ｔｈｅａｔｒｅ,,株式会社,東京都,目黒区,碑文谷４丁目２４番２号,,13,110,1520003,,,,,,,2023-04-17,1,,,,,シアター,0
2957,9011001153819,新規,0,2023-04-17,2023-04-17,株式会社プロンプトデザイン,,株式会社,東京都,渋谷区,東１丁目２５番２号丸橋ビル２階,,13,113,1500011,,,,,,,2023-04-17,1,,,,,プロンプトデザイン,0
2958,9011001153827,新規,0,2023-04-17,2023-04-17,ＧｅｅｋＲｙｄｅ株式会社,,株式会社,東京都,渋谷区,上原１丁目３番９号,,13,113,1510064,,,,,,,2023-04-17,1,,,,,ギークライド,0
2959,9011001153835,新規,0,2023-04-17,2023-04-17,株式会社ＹＥＳＴＥＰ,,株式会社,東京都,目黒区,目黒本町３丁目１１番１号,,13,110,1520002,,,,,,,2023-04-17,1,,,,,イエステップ,0
2960,9011001153851,新規,0,2023-04-17,2023-04-17,株式会社ＭＩＯＩ,,株式会社,東京都,渋谷区,恵比寿１丁目２０番２７号Ｅｓｔ．ＥＢＩＳＵ５０４,,13,113,1500013,,,,,,,2023-04-17,1,,,,,ミオイ,0
2966,9011101102535,新規,0,2023-04-17,2023-04-17,株式会社ＪＧ　Ｔｅｃｈ,,株式会社,東京都,新宿区,西落合２丁目１９番１６号,,13,104,1610031,,,,,,,2023-04-17,1,,,,,ジェージーテック,0
2967,9011101102543,新規,0,2023-04-17,2023-04-17,アテナＨＲＯＤ株式会社,,株式会社,東京都,新宿区,西早稲田１丁目２２番３－４０１号,,13,104,1690051,,,,,,,2023-04-17,1,,,,,アテナエイチアールオーディー,0
2968,9011101102568,新規,0,2023-04-17,2023-04-17,ＬＪＫ株式会社,,株式会社,東京都,新宿区,荒木町２１－１タワーレジデンス四谷２１０１,,13,104,1600007,,,,,,,2023-04-17,1,,,,,エルジェイケー,0
2969,9011103012947,新規,0,2023-04-17,2023-04-17,Ｍａｙ’ｓＣｏｌｌｅｃｔ合同会社,,合同会社,東京都,新宿区,西新宿３丁目３番１３号西新宿水間ビル２Ｆ,,13,104,1600023,,,,,,,2023-04-17,1,,,,,メイズコレクト,0
2970,9011103012955,新規,0,2023-04-17,2023-04-17,ＢＬＰ合同会社,,合同会社,東京都,新宿区,西新宿３丁目３番１３号西新宿水間ビル６階,,13,104,1600023,,,,,,,2023-04-17,1,,,,,ビーエルピー,0
2976,9011601026746,新規,0,2023-04-17,2023-04-17,株式会社ファンシェイプ,,株式会社,東京都,練馬区,練馬１丁目７番３号,,13,120,1760001,,,,,,,2023-04-17,1,,,,,ファンシェイプ,0
2978,9011603003883,新規,0,2023-04-17,2023-04-17,ネイチャーグレース合同会社,,合同会社,東京都,練馬区,石神井町１丁目６番１０号エスポワール２０１,,13,120,1770041,,,,,,,2023-04-17,1,,,,,ネイチャーグレース,0
2981,9011801042238,新規,0,2023-04-17,2023-04-17,株式会社Ｘ　Ａｎｃｈｏｒ,,株式会社,東京都,葛飾区,高砂３丁目１番２０号,,13,122,1250054,,,,,,,2023-04-17,1,,,,,クロスアンカー,0
2985,9012401040417,新規,0,2023-04-17,2023-04-17,ユーロマット株式会社,,株式会社,東京都,三鷹市,井の頭２丁目１６番９号,,13,204,1810001,,,,,,,2023-04-17,1,,,,,ユーロマット,0
2989,9012701017602,新規,0,2023-04-17,2023-04-17,株式会社ＴＨＥ　ＮＩＧＨＴ　ＯＷＬ,,株式会社,東京都,東村山市,栄町１丁目１１番地１,,13,213,1890013,,,,,,,2023-04-17,1,,,,,ザナイトアウル,0
2990,9012703002684,新規,0,2023-04-17,2023-04-17,合同会社イーヘン,,合同会社,東京都,小平市,花小金井６丁目１９番１１－２０５号,,13,211,1870002,,,,,,,2023-04-17,1,,,,,イーヘン,0
2991,9012705002352,新規,0,2023-04-17,2023-04-17,医療法人社団ＮＡＫ‐１,,その他の設立登記法人,東京都,小平市,鈴木町２丁目８６５番地の９７・２階,,13,211,1870011,,,,,,,2023-04-17,1,,,,,エヌエーケーワン,0
3004,9020001151154,新規,0,2023-04-17,2023-04-17,株式会社Ｔルディック,,株式会社,神奈川県,横浜市西区,みなとみらい５丁目３番２－９０７号,,14,103,2200012,,,,,,,2023-04-17,1,,,,,ティールディック,0
3005,9020001151162,新規,0,2023-04-17,2023-04-17,株式会社ＡＳ電設,,株式会社,神奈川県,横浜市瀬谷区,宮沢２丁目２６番地７アルブルＤ２０１,,14,114,2460038,,,,,,,2023-04-17,1,,,,,エーエスデンセツ,0
3006,9020001151170,新規,0,2023-04-17,2023-04-17,東邦２１株式会社,,株式会社,神奈川県,横浜市南区,睦町２丁目１８０番地８－３０２号,,14,105,2320041,,,,,,,2023-04-17,1,,,,,トウホウニジュウイチ,0
3007,9020001151195,新規,0,2023-04-17,2023-04-17,株式会社ＮＯＵＲ,,株式会社,神奈川県,横浜市都筑区,勝田町３６８番地１,,14,118,2240034,,,,,,,2023-04-17,1,,,,,ヌール,0
3020,9030001153463,新規,0,2023-04-17,2023-04-17,トレードブリッジ株式会社,,株式会社,埼玉県,本庄市,寿３丁目２－１,,11,211,3670023,,,,,,,2023-04-17,1,,,,,トレードブリッジ,0
3035,9040001127945,新規,0,2023-04-17,2023-04-17,株式会社クリアランド．,,株式会社,千葉県,船橋市,芝山５丁目２９番１５号サンライズ芝山１０１号室,,12,204,2740816,,,,,,,2023-04-17,1,,,,,クリアランド,0
3036,9040001127986,新規,0,2023-04-17,2023-04-17,株式会社ヨシモト興業,,株式会社,千葉県,船橋市,宮本２丁目１５番１２号,,12,204,2730003,,,,,,,2023-04-17,1,,,,,ヨシモトコウギョウ,0
3037,9040001128002,新規,0,2023-04-17,2023-04-17,株式会社ＳＥＶＥＮ　ＳＥＡＳ,,株式会社,千葉県,市川市,宮久保２丁目１３番１８号,,12,203,2720822,,,,,,,2023-04-17,1,,,,,セブンシーズ,0
3038,9040001128010,新規,0,2023-04-17,2023-04-17,ＴＹＢ株式会社,,株式会社,千葉県,茂原市,早野１１９９番地１２,,12,210,2970037,,,,,,,2023-04-17,1,,,,,ティーワイビー,0
3044,9040005021954,新規,0,2023-04-17,2023-04-17,一般社団法人ｍａｍａ’ｓふらっと,,その他の設立登記法人,千葉県,市原市,山田橋１丁目７番地１２,,12,219,2900021,,,,,,,2023-04-17,1,,,,,ママズフラット,0
3045,9040005021962,新規,0,2023-04-17,2023-04-17,一般社団法人日本リハビリテーション医療デジタルトランスフォーメーション学会,,その他の設立登記法人,千葉県,習志野市,谷津４丁目１番１号,,12,216,2750026,,,,,,,2023-04-17,1,,,,,ニホンリハビリテーションイリョウデジタルトランスフォーメーションガッカイ,0
3049,9050001052696,新規,0,2023-04-17,2023-04-17,株式会社ＢＥＮＴＥＮ,,株式会社,茨城県,つくば市,玉取２３１５番地１,,08,220,3003255,,,,,,,2023-04-17,1,,,,,ベンテン,0
3051,9050003007418,新規,0,2023-04-17,2023-04-17,愛の森合同会社,,合同会社,茨城県,つくば市,富士見台３３番地５７,,08,220,3001263,,,,,,,2023-04-17,1,,,,,アイノモリ,0
3056,9070001040328,新規,0,2023-04-17,2023-04-17,赤城エンジニアリング株式会社,,株式会社,群馬県,前橋市,三夜沢町５９０番地８２,,10,201,3710247,,,,,,,2023-04-17,1,,,,,アカギエンジニアリング,0
3059,9080103002778,新規,0,2023-04-17,2023-04-17,合同会社カカフカカ企画,,合同会社,静岡県,下田市,柿崎１１２８番地の７,,22,219,4150013,,,,,,,2023-04-17,1,,,,,カカフカカキカク,0
3068,9100001036330,新規,0,2023-04-17,2023-04-17,未来空間株式会社,,株式会社,長野県,上田市,大屋２９６番地１－Ａ１０１,,20,203,3860152,,,,,,,2023-04-17,1,,,,,ミライクウカン,0
3083,9120001254046,新規,0,2023-04-17,2023-04-17,株式会社ＺＥＮ,,株式会社,大阪府,大阪市此花区,常吉２丁目６番４４号,,27,104,5540052,,,,,,,2023-04-17,1,,,,,ゼン,0
3084,9120001254120,新規,0,2023-04-17,2023-04-17,株式会社ＷＨＯＲＵ,,株式会社,大阪府,大阪市中央区,南船場１丁目１６番１２－３０２号,,27,128,5420081,,,,,,,2023-04-17,1,,,,,フーアーユー,0
3087,9120003023829,新規,0,2023-04-17,2023-04-17,ＤＲＥＡＭ合同会社,,合同会社,大阪府,大阪市生野区,新今里３丁目２番１２－２０２号,,27,116,5440001,,,,,,,2023-04-17,1,,,,,ドリーム,0
3088,9120003023837,新規,0,2023-04-17,2023-04-17,合同会社ＲｅｎｅｗＨｉｇｈｓ,,合同会社,大阪府,大阪市淀川区,新北野２丁目４－２６新北野第２コーポ１４０２,,27,123,5320025,,,,,,,2023-04-17,1,,,,,リニューハイズ,0
3089,9120003023845,新規,0,2023-04-17,2023-04-17,合同会社ＴＩ,,合同会社,大阪府,大阪市淀川区,東三国２丁目９番２４号,,27,123,5320002,,,,,,,2023-04-17,1,,,,,ティーアイ,0
3092,9120101067331,新規,0,2023-04-17,2023-04-17,ＭＫＹスポーツエンターテイメント株式会社,,株式会社,大阪府,和泉市,唐国町２丁目１番９号,,27,219,5941151,,,,,,,2023-04-17,1,,,,,エムケイワイスポーツエンターテイメント,0
3093,9120101067348,新規,0,2023-04-17,2023-04-17,株式会社岸商店,,株式会社,大阪府,富田林市,中野町３丁目３０９９番地３,,27,214,5840021,,,,,,,2023-04-17,1,,,,,キシショウテン,0
3094,9120101067356,新規,0,2023-04-17,2023-04-17,株式会社ＭＫＴ,,株式会社,大阪府,羽曳野市,はびきの４丁目６番４号,,27,222,5830872,,,,,,,2023-04-17,1,,,,,エムケーティー,0
3095,9120101067372,新規,0,2023-04-17,2023-04-17,株式会社新栄,,株式会社,大阪府,泉南郡田尻町,嘉祥寺８６７番地６,,27,362,5980091,,,,,,,2023-04-17,1,,,,,シンエイ,0
3096,9120101067380,新規,0,2023-04-17,2023-04-17,株式会社豊工業,,株式会社,大阪府,和泉市,王子町２丁目１１番３９号,,27,219,5940004,,,,,,,2023-04-17,1,,,,,ユタカコウギョウ,0
3104,9120901047409,新規,0,2023-04-17,2023-04-17,株式会社アンク,,株式会社,大阪府,高槻市,高槻町１３番４号,,27,207,5690803,,,,,,,2023-04-17,1,,,,,アンク,0
3105,9120901047417,新規,0,2023-04-17,2023-04-17,株式会社エアストーリー,,株式会社,大阪府,茨木市,真砂１丁目１番３５号,,27,211,5670851,,,,,,,2023-04-17,1,,,,,エアストーリー,0
3107,9120903004597,新規,0,2023-04-17,2023-04-17,合同会社ＴＫＬ,,合同会社,大阪府,吹田市,日の出町２６番１５号,,27,205,5640023,,,,,,,2023-04-17,1,,,,,ティーケーエル,0
3111,9122001036894,新規,0,2023-04-17,2023-04-17,株式会社栄正,,株式会社,大阪府,八尾市,竹渕西２丁目５７番地サンシティ八尾２１３号,,27,212,5810051,,,,,,,2023-04-17,1,,,,,エイショウ,0
3113,9122003002564,新規,0,2023-04-17,2023-04-17,合同会社卯,,合同会社,大阪府,東大阪市,衣摺４丁目５番３号,,27,227,5770827,,,,,,,2023-04-17,1,,,,,ウヅ,0
3119,9130003008655,新規,0,2023-04-17,2023-04-17,オンリーリブワンス合同会社,,合同会社,京都府,京都市西京区,桂坤町５０番地７,,26,111,6158084,,,,,,,2023-04-17,1,,,,,オンリーリブワンス,0
3120,9130003008663,新規,0,2023-04-17,2023-04-17,合同会社ｒｔａｍｎ,,合同会社,京都府,京都市西京区,大枝沓掛町１３－４ＦｉｒｓｔｈｉｌｌｓＴａｈａｒａ２０１,,26,111,6101106,,,,,,,2023-04-17,1,,,,,ルタ,0
3123,9140001129808,新規,0,2023-04-17,2023-04-17,株式会社ＯＰ＆Ｂ,,株式会社,兵庫県,神戸市西区,伊川谷町前開１０３７、１Ｆ,,28,111,6512108,,,,,,,2023-04-17,1,,,,,オーピーアンドビー,0
3124,9140001129816,新規,0,2023-04-17,2023-04-17,ＩＧＡ．ＨＤ株式会社,,株式会社,兵庫県,姫路市,下手野３丁目１番１号,,28,201,6700063,,,,,,,2023-04-17,1,,,,,アイジーエーエイチディ,0
3125,9140001129824,新規,0,2023-04-17,2023-04-17,株式会社ＵＭＩ,,株式会社,兵庫県,芦屋市,山芦屋町１０番１１号,00130140,28,206,6590082,,,,,,,2023-04-17,1,,,,,ユーエムアイ,0
3126,9140001129832,新規,0,2023-04-17,2023-04-17,株式会社Ｏ・Ｈ・Ｅサービス,,株式会社,兵庫県,伊丹市,寺本４丁目６４番地１６－３０７号,,28,207,6640026,,,,,,,2023-04-17,1,,,,,オーエイチイーサービス,0
3127,9140001129840,新規,0,2023-04-17,2023-04-17,株式会社Ｅ．Ｓ　ｐｌｕｓ,,株式会社,兵庫県,伊丹市,中央１丁目４－４塩井ビル２階,,28,207,6640851,,,,,,,2023-04-17,1,,,,,イーエスプラス,0
3128,9140001129849,新規,0,2023-04-17,2023-04-17,アスシア不動産販売株式会社,,株式会社,兵庫県,明石市,大道町１丁目５番５号,,28,203,6730029,,,,,,,2023-04-17,1,,,,,アスシアフドウサンハンバイ,0
3129,9140001129865,新規,0,2023-04-17,2023-04-17,株式会社Ｓｐｒｉｎｇ　Ｓｅａ,,株式会社,兵庫県,神戸市垂水区,東舞子町１番１７－３０１号,,28,108,6550047,,,,,,,2023-04-17,1,,,,,スプリングシー,0
3130,9140001129881,新規,0,2023-04-17,2023-04-17,ＣＨＡＮＴＯ株式会社,,株式会社,兵庫県,明石市,桜町１４－１９ＫＵＫＩビル４Ｆ,,28,203,6730885,,,,,,,2023-04-17,1,,,,,チャント,0
3135,9140003018959,新規,0,2023-04-17,2023-04-17,合同会社イイノ研究所,,合同会社,兵庫県,川西市,萩原台西２丁目２１３番地,,28,217,6660006,,,,,,,2023-04-17,1,,,,,,0
3136,9140003018975,新規,0,2023-04-17,2023-04-17,合同会社Ｌｏｔｕｓ,,合同会社,兵庫県,高砂市,荒井町蓮池２丁目１１番１１号,,28,216,6760013,,,,,,,2023-04-17,1,,,,,ロータス,0
3144,9150001026310,新規,0,2023-04-17,2023-04-17,株式会社たまきはる,,株式会社,奈良県,御所市,大字名柄３５１番地の２,,29,208,6392321,,,,,,,2023-04-17,1,,,,,タマキハル,0
3165,9180001155585,新規,0,2023-04-17,2023-04-17,株式会社ＲＴＣ,,株式会社,愛知県,名古屋市守山区,四軒家２丁目６番地の２２コンセール藤ヶ丘参番館５０２号,,23,113,4630034,,,,,,,2023-04-17,1,,,,,アールティーシー,0
3166,9180001155800,新規,0,2023-04-17,2023-04-17,株式会社大三ホールディングス,,株式会社,愛知県,名古屋市港区,砂美町５０番地の１,,23,111,4550056,,,,,,,2023-04-17,1,,,,,ダイサンホールディングス,0
3167,9180001155866,新規,0,2023-04-17,2023-04-17,株式会社８ＳＴＹＬＥ,,株式会社,愛知県,一宮市,玉野字可海道１４番地,,23,203,4940013,,,,,,,2023-04-17,1,,,,,エイトスタイル,0
3168,9180001155874,新規,0,2023-04-17,2023-04-17,レオン不動産株式会社,,株式会社,愛知県,名古屋市中区,栄１丁目６番１５号,,23,106,4600008,,,,,,,2023-04-17,1,,,,,レオンフドウサン,0
3169,9180001155890,新規,0,2023-04-17,2023-04-17,株式会社ｆｉｒｓｔ,,株式会社,愛知県,名古屋市東区,東桜２丁目９番３４号成田ビル１Ｆ,,23,102,4610005,,,,,,,2023-04-17,1,,,,,ファースト,0
3170,9180001155916,新規,0,2023-04-17,2023-04-17,株式会社エンジェライト,,株式会社,愛知県,名古屋市中村区,亀島２丁目１６番８号,,23,105,4530013,,,,,,,2023-04-17,1,,,,,エンジェライト,0
3174,9180003025092,新規,0,2023-04-17,2023-04-17,ＤＥＫＩＲＵＣＯ合同会社,,合同会社,愛知県,一宮市,丹羽字北屋敷１４２７番地３,,23,203,4910083,,,,,,,2023-04-17,1,,,,,デキルコ,0
3175,9180003025118,新規,0,2023-04-17,2023-04-17,合同会社ネクストスタイル,,合同会社,愛知県,名古屋市中区,栄２丁目１５番２７号シャンボール白川公園５０１号,,23,106,4600008,,,,,,,2023-04-17,1,,,,,ネクストスタイル,0
3178,9180301037310,新規,0,2023-04-17,2023-04-17,株式会社基,,株式会社,愛知県,蒲郡市,中央本町１４番１５号,,23,214,4430057,,,,,,,2023-04-17,1,,,,,モトイ,0
3179,9180301037319,新規,0,2023-04-17,2023-04-17,株式会社Ｌｕｃｉａ,,株式会社,愛知県,豊橋市,松葉町１丁目１２番地１（２Ｆ）,,23,201,4400897,,,,,,,2023-04-17,1,,,,,ルシア,0
3184,9200001041188,新規,0,2023-04-17,2023-04-17,ＰＯＣＯ　Ｂｅａｕｔｙ株式会社,,株式会社,岐阜県,大垣市,田町２丁目２,,21,202,5030875,,,,,,,2023-04-17,1,,,,,ポコビューティー,0
3190,9220001025362,新規,0,2023-04-17,2023-04-17,株式会社山田工務店,,株式会社,石川県,珠洲市,正院町小路と部３８番地,,17,205,9271207,,,,,,,2023-04-17,1,,,,,ヤマダコウムテン,0
3197,9240003006103,新規,0,2023-04-17,2023-04-17,合同会社アウル,,合同会社,広島県,広島市東区,福田１丁目８８４番地２５,,34,102,7320029,,,,,,,2023-04-17,1,,,,,アウル,0
3201,9250005008807,新規,0,2023-04-17,2023-04-17,特定非営利活動法人ひらちゅうスポーツ振興,,その他の設立登記法人,山口県,周南市,羽島３丁目５－１２,,35,215,7460056,,,,,,,2023-04-17,1,,,,,ヒラチュウスポーツシンコウ,0
3214,9290801029473,新規,0,2023-04-17,2023-04-17,株式会社スリービズ,,株式会社,福岡県,北九州市小倉北区,浅野３丁目８番１号ＡＩＭ６階,,40,106,8020001,,,,,,,2023-04-17,1,,,,,スリービズ,0
3217,9300001013268,新規,0,2023-04-17,2023-04-17,株式会社早絆,,株式会社,佐賀県,小城市,三日月町久米５５７番地,,41,208,8450022,,,,,,,2023-04-17,1,,,,,サキ,0
3225,9340001025508,新規,0,2023-04-17,2023-04-17,株式会社松本電気,,株式会社,鹿児島県,鹿児島市,川上町２５４１番地１マーベラスコートＩ　２０１号,00130127,46,201,8920875,,,,,,,2023-04-17,1,,,,,マツモトデンキ,0
3234,9360001031883,新規,0,2023-04-17,2023-04-17,琉球アースプロテクト株式会社,,株式会社,沖縄県,那覇市,長田２丁目２６番２５号,,47,201,9020077,,,,,,,2023-04-17,1,,,,,リュウキュウアースプロテクト,0
3237,9360003012898,新規,0,2023-04-17,2023-04-17,合同会社オフィス三城,,合同会社,沖縄県,浦添市,港川１丁目５番１１－３０１号コーポ高江洲,,47,208,9012134,,,,,,,2023-04-17,1,,,,,オフィスサンジョウ,0
3239,9360005006832,新規,0,2023-04-17,2023-04-17,ｕｅＨａＲａ社会保険労務士法人,,その他の設立登記法人,沖縄県,那覇市,おもろまち４丁目７番７号ＵＲビル２階,,47,201,9000006,,,,,,,2023-04-17,1,,,,,ウエハラ,0
3241,9380001033614,新規,0,2023-04-17,2023-04-17,株式会社丸徹住建,,株式会社,福島県,いわき市,永崎字川畑５２番地の１,,07,204,9700315,,,,,,,2023-04-17,1,,,,,マルテツジュウケン,0
3244,9410001013463,新規,0,2023-04-17,2023-04-17,武田設計株式会社,,株式会社,秋田県,南秋田郡八郎潟町,字一日市１７８番地,,05,363,0181622,,,,,,,2023-04-17,1,,,,,タケダセッケイ,0
3245,9420001018222,新規,0,2023-04-17,2023-04-17,株式会社ひばり福祉会,,株式会社,青森県,青森市,勝田２丁目７番３号,,02,201,0300821,,,,,,,2023-04-17,1,,,,,ヒバリフクシカイ,0
3246,9420001018230,新規,0,2023-04-17,2023-04-17,株式会社大樹ファーム,,株式会社,青森県,むつ市,金曲２丁目７番９号,,02,208,0350041,,,,,,,2023-04-17,1,,,,,タイジュファーム,0
3250,9430001088875,新規,0,2023-04-17,2023-04-17,株式会社サイクロプス,,株式会社,北海道,苫小牧市,明野元町２丁目１９番３号,,01,213,0530051,,,,,,,2023-04-17,1,,,,,サイクロプス,0
3255,9460103001527,新規,0,2023-04-17,2023-04-17,合同会社ｂｏｎｅｌｌ,,合同会社,北海道,帯広市,西四条南２丁目１２番地１ベルトピア帯広Ｉ３０１,,01,207,0800014,,,,,,,2023-04-17,1,,,,,ボネル,0
3256,9462501000952,新規,0,2023-04-17,2023-04-17,ゆこう株式会社,,株式会社,北海道,標津郡標津町,字川北６３番地７,,01,693,0861451,,,,,,,2023-04-17,1,,,,,ユコウ,0
3257,9470001019579,新規,0,2023-04-17,2023-04-17,株式会社プレディング,,株式会社,香川県,高松市,仏生山町甲１６７６番地１,,37,201,7618078,,,,,,,2023-04-17,1,,,,,プレディング,0
3259,9490003001764,新規,0,2023-04-17,2023-04-17,合同会社Ｇｒａｃｅ,,合同会社,高知県,高知市,廿代町１－２９トレジャービルＩＩＩ４Ｆ南,00130130,39,201,7800843,,,,,,,2023-04-17,1,,,,,グレイス,0
3260,9700150115477,新規,0,2023-04-17,2023-04-17,ｈａｎｇｚｈｏｕｘｉｎｘｉｎｇｔｉｙｕｙｏｎｇｐｉｎｙｏｕｘｉａｎｇｏｎｇｓｉ,,外国会社等,,,,,,,,Ｒｏｏｍ　７１０，Ｂｕｉｌｄｉｎｇ　４，ＯＵＭＥＩＪｌＮＲＯＮＧＣＨＥＮＧ　Ｈａｎｇｚｈｏｕ　Ｃｉｔｙ　Ｚｈｅｊｉａｎｇ　Ｐｒｏｖｉｎｃｅ　Ｙｕｈａｎｇ　Ｄｉｓｔｒｉｃｔ,,,,,,2023-04-17,1,,,,,ハンジョウシンシンティーイーヨンピンヨウシエンゴンスー,0
3261,9700150115502,新規,0,2023-04-17,2023-04-17,ＳｈｅｎＺｈｅｎＳｈｉ　ＤｉＦｕＤｉａｎＺｉＳｈａｎｇＷｕ　ＹｏｕＸｉａｎＧｏｎｇＳｉ,,外国会社等,,,,,,,,ｓｈｅｎｚｈｅｎｓｈｉ　ｌｏｎｇｈｕａｑｕ　ｌｏｎｇｈｕａｊｉｅｄａｏ　ｑｉｎｇｈｕａｓｈｅｑｕ　ｑｉｎｇｈｕｌｕ　ｓｈａｎｇｍｅｉｚｈｏｎｇｘｉｎｄａｓｈａ　２５ｃｅｎｇ　２５０３Ａ,,,,,,2023-04-17,1,,,,,シンセンシディフデンシシャンウユウゲンコウシ,0
