sequenceNumber,corporateNumber,process,correct,updateDate,changeDate,name,nameImageId,kind,prefectureName,cityName,streetNumber,addressImageId,prefectureCode,cityCode,postCode,addressOutside,addressOutsideImageId,closeDate,closeCause,successorCorporateNumber,changeCause,assignmentDate,latest,enName,enPrefectureName,enCityName,enAddressOutside,furigana,hihyoji
3,1010001029326,登記記録の閉鎖等,0,2023-07-26,2023-07-12,松菱殖産株式会社,,株式会社,東京都,千代田区,飯田橋２丁目１７番９－１９０４号,,13,101,1020072,,,2023-07-12,清算の結了等,,,2015-10-05,1,,,,,マツビシショクサン,0
10,1010001168479,登記記録の閉鎖等,0,2023-07-26,2023-07-11,株式会社ナビアス,,株式会社,東京都,千代田区,麹町１丁目５番地３麹町ＭＣＭ６０１号,,13,101,1020083,,,2023-07-11,清算の結了等,,,2015-10-05,1,,,,,ナビアス,0
23,1010401093459,登記記録の閉鎖等,0,2023-07-26,2023-07-04,株式会社トレードサポート,,株式会社,東京都,港区,高輪２丁目１２番３８－１０１号,,13,103,1080074,,,2023-07-04,清算の結了等,,,2015-10-05,1,,,,,,0
55,1011501016086,登記記録の閉鎖等,0,2023-07-26,2023-07-10,株式会社アシステック,,株式会社,宮城県,栗原市,若柳字川北中文字９５番１,,04,213,9895501,,,2023-07-10,合併による解散等,9370201003302,令和５年７月１日宮城県栗原市若柳字川北中文字９５番１株式会社富士フイルムテクノサービス（9370201003302）に合併し解散,2015-10-05,1,,,,,アシステック,0
65,1013303003691,登記記録の閉鎖等,0,2023-07-26,2023-07-11,株式会社トレビス,,株式会社,東京都,文京区,白山２丁目６番８号,,13,105,1120001,,,2023-07-11,清算の結了等,,,2017-05-12,1,,,,,トレビス,0
79,1020002079055,登記記録の閉鎖等,0,2023-07-26,2023-07-03,有限会社奥出事務所,,有限会社,東京都,港区,西麻布４丁目１８番４号,,13,103,1060031,,,2023-07-03,合併による解散等,4010401042933,令和５年７月１日東京都港区西麻布四丁目１８番４号株式会社オプティマ（4010401042933）に合併し解散,2015-10-05,1,,,,,オクデジムショ,0
82,1021001052300,登記記録の閉鎖等,0,2023-07-26,2023-07-18,株式会社ジャストｊｐ,,株式会社,神奈川県,秦野市,戸川６４５番地の１,,14,211,2591306,,,2023-07-18,清算の結了等,,,2015-10-05,1,,,,,,0
83,1021001074245,登記記録の閉鎖等,0,2023-07-26,2023-07-20,株式会社トレドアップ,,株式会社,神奈川県,相模原市中央区,相模原３丁目７番３号,,14,152,2520231,,,2023-07-20,清算の結了等,,,2021-10-19,1,,,,,トレドアップ,0
86,1021005004405,登記記録の閉鎖等,0,2023-07-26,2023-07-20,農事組合法人秦野共栄牧場,,その他の設立登記法人,神奈川県,秦野市,今泉５４３番地,,14,211,2570014,,,2023-07-20,清算の結了等,,,2015-10-05,1,,,,,ハタノキョウエイボクジョウ,0
89,1030001062275,登記記録の閉鎖等,0,2023-07-26,2023-07-03,株式会社ワカバヤシ,,株式会社,埼玉県,北本市,中丸７丁目１５３番地,,11,233,3640013,,,2023-07-03,清算の結了等,,,2015-10-05,1,,,,,ワカバヤシ,0
92,1030001129322,登記記録の閉鎖等,0,2023-07-26,2023-06-30,株式会社ピースジャパン保険センター,,株式会社,埼玉県,さいたま市浦和区,前地３丁目１４番１２号第２スミダビル,,11,107,3300053,,,2023-06-30,合併による解散等,7030002055883,令和５年６月３０日埼玉県桶川市大字川田谷６７９１番地の３株式会社このまちサポート（7030002055883）に合併し解散,2019-02-01,1,,,,,ピースジャパンホケンセンター,0
99,1040001061375,登記記録の閉鎖等,0,2023-07-26,2023-07-03,小川建設株式会社,,株式会社,千葉県,香取郡多古町,染井３１８番地,,12,347,2892242,,,2023-07-03,清算の結了等,,,2015-10-05,1,,,,,,0
100,1040001077371,登記記録の閉鎖等,0,2023-07-26,2023-06-30,株式会社月也工業,,株式会社,千葉県,千葉市花見川区,花園町２４４３番地３,,12,102,2620021,,,2023-06-30,清算の結了等,,,2015-10-05,1,,,,,ツキヤコウギョウ,0
103,1040002016080,登記記録の閉鎖等,0,2023-07-26,2023-07-03,有限会社ビッグウィズ,,有限会社,千葉県,千葉市若葉区,西都賀３丁目９番１号,,12,104,2640026,,,2023-07-03,合併による解散等,9040001012098,令和５年７月１日千葉市若葉区西都賀三丁目９番１号株式会社加持野商事大野屋（9040001012098）に合併し解散,2015-10-05,1,,,,,ビッグウィズ,0
110,1050002033059,登記記録の閉鎖等,0,2023-07-26,2023-07-18,有限会社大橋フィルター工業,,有限会社,茨城県,龍ケ崎市,貝原塚町２９９９番地１,,08,208,3010856,,,2023-07-18,清算の結了等,,,2015-10-05,1,,,,,オオハシフィルターコウギョウ,0
120,1080401018731,登記記録の閉鎖等,0,2023-07-26,2023-07-24,キュクロプス株式会社,,株式会社,静岡県,浜松市中区,南浅田２丁目７番１０号,,22,131,4328044,,,2023-07-24,清算の結了等,,,2015-10-05,1,,,,,キュクロプス,0
130,1110002026345,登記記録の閉鎖等,0,2023-07-26,2023-07-13,有限会社松木商会,,有限会社,新潟県,糸魚川市,大町１丁目５番１０号,,15,216,9410061,,,2023-07-13,清算の結了等,,,2015-10-05,1,,,,,マツキショウカイ,0
142,1120002058222,登記記録の閉鎖等,0,2023-07-26,2023-07-14,有限会社無徒新聞舖,,有限会社,大阪府,大阪市城東区,成育１丁目３番２７号,,27,118,5360007,,,2023-07-14,清算の結了等,,,2015-10-05,1,,,,,ムトシンブンホ,0
158,1140001023266,登記記録の閉鎖等,0,2023-07-26,2023-07-24,株式会社レイスヘルスケア,,株式会社,兵庫県,神戸市東灘区,向洋町中６丁目９番地,,28,101,6580032,,,2023-07-24,清算の結了等,,,2015-10-05,1,,,,,レイスヘルスケア,0
159,1140001076966,登記記録の閉鎖等,0,2023-07-26,2023-07-20,株式会社マークスファクトリー,,株式会社,兵庫県,西脇市,西脇７１２番９４,,28,213,6770015,,,2023-07-20,合併による解散等,3180001115628,令和５年７月１日名古屋市中村区名駅南一丁目２４番３０号株式会社ＰＥＯ（3180001115628）に合併し解散,2015-10-05,1,,,,,マークスファクトリー,0
166,1160005010564,登記記録の閉鎖等,0,2023-07-26,2023-07-21,一般社団法人誠光会,,その他の設立登記法人,滋賀県,草津市,矢橋町１６６０番,,25,206,5250066,,,2023-07-21,清算の結了等,,,2018-04-09,1,,,,,セイコウカイ,0
176,1200001028309,登記記録の閉鎖等,0,2023-07-26,2023-07-25,株式会社テック羽島,,株式会社,岐阜県,羽島市,桑原町西小薮２丁目２６番地,,21,209,5016327,,,2023-07-25,清算の結了等,,,2015-10-05,1,,,,,テックハシマ,0
178,1200002000828,登記記録の閉鎖等,0,2023-07-26,2023-07-19,有限会社オクダ国際保険事務所,,有限会社,岐阜県,岐阜市,市橋３丁目１１番３号,,21,201,5008381,,,2023-07-19,清算の結了等,,,2015-10-05,1,,,,,オクダコクサイホケンジムショ,0
179,1210002001809,登記記録の閉鎖等,0,2023-07-26,2023-07-18,有限会社シャノン,,有限会社,福井県,福井市,豊岡１丁目８番１５号,,18,201,9100027,,,2023-07-18,清算の結了等,,,2015-10-05,1,,,,,シャノン,0
181,1220002015155,登記記録の閉鎖等,0,2023-07-26,2023-07-19,有限会社大進産業,,有限会社,石川県,羽咋市,柳田町ウ８０番地,,17,207,9250018,,,2023-07-19,清算の結了等,,,2015-10-05,1,,,,,タイシンサンギョウ,0
187,1240002003083,登記記録の閉鎖等,0,2023-07-26,2023-07-18,有限会社オール印刷所,,有限会社,広島県,広島市中区,光南１丁目１４番１７号,,34,101,7300825,,,2023-07-18,清算の結了等,,,2015-10-05,1,,,,,オールインサツ,0
228,1370002002056,登記記録の閉鎖等,0,2023-07-26,2023-07-18,有限会社若生酒店,,有限会社,宮城県,仙台市泉区,野村字新平山２番地の１,,04,105,9813124,,,2023-07-18,清算の結了等,,,2015-10-05,1,,,,,,0
230,1370002019612,登記記録の閉鎖等,0,2023-07-26,2023-07-14,有限会社エルム,,有限会社,宮城県,仙台市青葉区,台原２丁目１０番３１号,,04,101,9810911,,,2023-07-14,清算の結了等,,,2015-10-05,1,,,,,エルム,0
232,1370302001897,登記記録の閉鎖等,0,2023-07-26,2023-07-10,有限会社パイオニア,,有限会社,宮城県,登米市,豊里町新田町２５８番地１,,04,212,9870361,,,2023-07-10,清算の結了等,,,2015-10-05,1,,,,,パイオニア,0
253,1430003010274,登記記録の閉鎖等,0,2023-07-26,2023-07-05,合同会社コスモ,,合同会社,北海道,札幌市豊平区,平岸四条１丁目１－２－１０３,,01,105,0620934,,,2023-07-05,清算の結了等,,,2019-03-26,1,,,,,コスモ,0
263,1490002000725,登記記録の閉鎖等,0,2023-07-26,2023-07-12,有限会社エビス商事,,有限会社,高知県,高知市,追手筋１丁目６番２３号,,39,201,7800842,,,2023-07-12,清算の結了等,,,2015-10-05,1,,,,,エビスショウジ,0
285,2010401168342,登記記録の閉鎖等,0,2023-07-26,2023-07-03,株式会社プロジェクトパートナーズ,,株式会社,東京都,港区,六本木１丁目６番１号,,13,103,1060032,,,2023-07-03,合併による解散等,8010401122459,令和５年７月１日東京都港区六本木一丁目６番１号株式会社プロジェクトカンパニー（8010401122459）に合併し解散,2022-07-05,1,,,,,プロジェクトパートナーズ,0
286,2010401174415,登記記録の閉鎖等,0,2023-07-26,2023-07-03,株式会社ＫＡＩＸＩＡホールディングス,,株式会社,東京都,港区,西新橋２丁目８番６号,,13,103,1050003,,,2023-07-03,合併による解散等,3010401172384,令和５年７月１日東京都港区西新橋二丁目８番６号ニューブリッジ１株式会社（3010401172384）に合併し解散,2023-05-22,1,,,,,カイシアホールディングス,0
289,2010501044212,登記記録の閉鎖等,0,2023-07-26,2023-07-20,株式会社楓,,株式会社,東京都,渋谷区,恵比寿４丁目２０番３号恵比寿ガーデンプレイスタワー３４階,,13,113,1500013,,,2023-07-20,清算の結了等,,,2019-06-11,1,,,,,カエデ,0
295,2010702000154,登記記録の閉鎖等,0,2023-07-26,2023-07-14,有限会社相原印刷所,,有限会社,東京都,品川区,平塚３丁目１５番１０号,,13,109,1420051,,,2023-07-14,清算の結了等,,,2015-10-05,1,,,,,アイハラインサツジョ,0
320,2011602023195,登記記録の閉鎖等,0,2023-07-26,2023-07-21,有限会社塚田サッシ工業,,有限会社,東京都,練馬区,大泉学園町７丁目２３番５号,,13,120,1780061,,,2023-07-21,清算の結了等,,,2015-10-05,1,,,,,ツカダサッシコウギョウ,0
323,2011701022916,登記記録の閉鎖等,0,2023-07-26,2023-07-24,ボアプラス株式会社,,株式会社,東京都,江戸川区,松島４丁目２０番４号,,13,123,1320031,,,2023-07-24,合併による解散等,2013301034878,令和５年７月１日東京都豊島区南大塚二丁目４５－４三栄ビル３階株式会社スリアロプロダクツ（2013301034878）に合併し解散,2019-09-02,1,,,,,ボアプラス,0
324,2011702011876,登記記録の閉鎖等,0,2023-07-26,2023-07-25,有限会社山加,,有限会社,東京都,江戸川区,中葛西８丁目６番１１号,,13,123,1340083,,,2023-07-25,清算の結了等,,,2015-10-05,1,,,,,ヤマカ,0
331,2012403000029,登記記録の閉鎖等,0,2023-07-26,2023-07-13,合同会社遠藤商店,,合同会社,東京都,国立市,谷保７１８２番地,,13,215,1860011,,,2023-07-13,清算の結了等,,,2015-10-05,1,,,,,エンドウショウテン,0
335,2012702007237,登記記録の閉鎖等,0,2023-07-26,2023-07-19,有限会社藤小西,,有限会社,東京都,東久留米市,八幡町２丁目１２番５号,,13,222,2030042,,,2023-07-19,清算の結了等,,,2015-10-05,1,,,,,フジコニシ,0
342,2020001065393,登記記録の閉鎖等,0,2023-07-26,2023-07-12,ティー・エイ・ケー株式会社,,株式会社,神奈川県,川崎市麻生区,百合丘３丁目２０番地７,,14,137,2150011,,,2023-07-12,清算の結了等,,,2015-10-05,1,,,,,ティーエイケー,0
351,2021002018877,登記記録の閉鎖等,0,2023-07-26,2023-07-19,有限会社押切製作所,,有限会社,神奈川県,相模原市緑区,下九沢２９６８番地８,,14,151,2520134,,,2023-07-19,清算の結了等,,,2015-10-05,1,,,,,オシキリセイサクジョ,0
356,2030001021453,登記記録の閉鎖等,0,2023-07-26,2023-07-03,株式会社笹目観光バス,,株式会社,埼玉県,戸田市,美女木２丁目２番地の２１－３０６号,,11,224,3350031,,,2023-07-03,清算の結了等,,,2015-10-05,1,,,,,ササメカンコウバス,0
364,2040001012922,登記記録の閉鎖等,0,2023-07-26,2023-07-03,シェイクハンズ株式会社,,株式会社,千葉県,千葉市中央区,中央１丁目７番８号シグマビル９階,,12,101,2600013,,,2023-07-03,清算の結了等,,,2015-10-05,1,,,,,シェイクハンズ,0
368,2040001043216,登記記録の閉鎖等,0,2023-07-26,2023-07-03,マルイチ商事株式会社,,株式会社,千葉県,成田市,並木町４７番地の１０,,12,211,2860045,,,2023-07-03,清算の結了等,,,2015-10-05,1,,,,,マルイチショウジ,0
370,2040002057355,登記記録の閉鎖等,0,2023-07-26,2023-06-30,有限会社サンケイ工業,,有限会社,千葉県,印西市,牧の原４丁目６番地１,,12,231,2701331,,,2023-06-30,清算の結了等,,,2015-10-05,1,,,,,サンケイコウギョウ,0
371,2040003014719,登記記録の閉鎖等,0,2023-07-26,2023-07-03,ＨＡＲＵ合同会社,,合同会社,千葉県,松戸市,西馬橋蔵元町１５５あいちビル３０２,,12,207,2710046,,,2023-07-03,清算の結了等,,,2020-01-21,1,,,,,ハル,0
378,2050003003869,登記記録の閉鎖等,0,2023-07-26,2023-07-20,合同会社筋膜メディカル整体院,,合同会社,茨城県,つくば市,竹園１丁目６番１号つくば三井ビルディング１８階,,08,220,3050032,,,2023-07-20,合併による解散等,5010401114590,令和５年７月１日東京都港区愛宕二丁目５番１号愛宕グリーンヒルズＭＯＲＩタワー３７階株式会社ＡＫＪメディカルサービス（5010401114590）に合併し解散,2017-08-14,1,,,,,,0
383,2070001002210,登記記録の閉鎖等,0,2023-07-26,2023-07-07,株式会社トーグン倉庫,,株式会社,群馬県,佐波郡玉村町,大字上福島７３１番地３,,10,464,3701104,,,2023-07-07,合併による解散等,9070001005000,令和５年７月１日群馬県佐波郡玉村町大字上福島７３１番地３東群運送株式会社（9070001005000）に合併し解散,2015-10-05,1,,,,,トーグンソウコ,0
390,2080401020851,登記記録の閉鎖等,0,2023-07-26,2023-07-24,株式会社ｐｌｕｓ　Ａ,,株式会社,静岡県,浜松市西区,雄踏町宇布見９２２９番地の３,,22,133,4310102,,,2023-07-24,清算の結了等,,,2015-10-05,1,,,,,プラスエー,0
422,2130001055796,登記記録の閉鎖等,0,2023-07-26,2023-07-10,株式会社ネクストプラス,,株式会社,京都府,亀岡市,篠町王子下上牧５９番地１,,26,206,6210827,,,2023-07-10,清算の結了等,,,2015-10-05,1,,,,,ネクストプラス,0
437,2140002035128,登記記録の閉鎖等,0,2023-07-26,2023-07-21,有限会社一寸ぼうし,,有限会社,兵庫県,丹波篠山市,八上下２６２番地,,28,221,6692431,,,2023-07-21,清算の結了等,,,2015-10-05,1,,,,,イッスンボウシ,0
438,2160001006474,登記記録の閉鎖等,0,2023-07-26,2023-07-20,株式会社エース,,株式会社,滋賀県,米原市,坂口１２３番地の１,,25,214,5210232,,,2023-07-20,清算の結了等,,,2015-10-05,1,,,,,エース,0
450,2180302002914,登記記録の閉鎖等,0,2023-07-26,2023-07-18,有限会社吉田織布工場,,有限会社,愛知県,岡崎市,柱町字東荒子２１０番地,,23,202,4440834,,,2023-07-18,清算の結了等,,,2015-10-05,1,,,,,ヨシダオリフコウジョウ,0
451,2180302010850,登記記録の閉鎖等,0,2023-07-26,2023-07-19,有限会社フラワーショップ林,,有限会社,愛知県,田原市,田原町松下１３番地,,23,231,4413421,,,2023-07-19,清算の結了等,,,2015-10-05,1,,,,,フラワーショップハヤシ,0
454,2200001010091,登記記録の閉鎖等,0,2023-07-26,2023-07-24,徳倉運輸株式会社,,株式会社,岐阜県,本巣市,下真桑３５６番地,,21,218,5010466,,,2023-07-24,清算の結了等,,,2015-10-05,1,,,,,,0
456,2200001037589,登記記録の閉鎖等,0,2023-07-26,2023-07-24,株式会社ＩＢＣネットワーク,,株式会社,岐阜県,瑞浪市,稲津町小里１２２０番地,,21,208,5096103,,,2023-07-24,清算の結了等,,,2020-07-06,1,,,,,アイビーシーネットワーク,0
481,2310005004491,登記記録の閉鎖等,0,2023-07-26,2023-07-19,医療法人社団鬼塚内科医院,00096410,その他の設立登記法人,長崎県,諫早市,飯盛町里１７９番地２,,42,204,8541123,,,2023-07-19,清算の結了等,,,2015-10-05,1,,,,,オニヅカナイカイイン,0
505,2390002011582,登記記録の閉鎖等,0,2023-07-26,2023-07-18,有限会社油屋,,有限会社,山形県,村山市,楯岡晦日町２番７号,,06,208,9950016,,,2023-07-18,清算の結了等,,,2015-10-05,1,,,,,アブラヤ,0
514,2430003011040,登記記録の閉鎖等,0,2023-07-26,2023-07-04,合同会社ＴＷＲ,,合同会社,北海道,札幌市西区,発寒六条１４丁目２２番１１号,,01,107,0630826,,,2023-07-04,合併による解散等,1430001070394,令和５年７月１日札幌市西区西町南十八丁目１番４０号株式会社タワラ（1430001070394）に合併し解散,2019-12-10,1,,,,,ティーダブリュアール,0
522,2500002003527,登記記録の閉鎖等,0,2023-07-26,2023-07-25,有限会社正和ビルメンテナンス,,有限会社,愛媛県,松山市,今在家４丁目１１番２３号,,38,201,7911106,,,2023-07-25,清算の結了等,,,2015-10-05,1,,,,,ショウワビルメンテナンス,0
527,3010001192832,登記記録の閉鎖等,0,2023-07-26,2023-07-11,株式会社ビークリエイト,,株式会社,東京都,中央区,築地３丁目１７番１０号,,13,102,1040045,,,2023-07-11,清算の結了等,,,2018-06-25,1,,,,,ビークリエイト,0
544,3010401161610,登記記録の閉鎖等,0,2023-07-26,2023-07-03,株式会社ＨＷＪコンサルティング,,株式会社,東京都,港区,六本木３丁目４－３３マルマン六本木ビル３Ｆ,,13,103,1060032,,,2023-07-03,合併による解散等,1010401170514,令和５年７月１日東京都港区六本木三丁目４番３３号マルマン六本木ビル３Ｆ株式会社ＨＷＪ（1010401170514）に合併し解散,2021-07-21,1,,,,,エイチダブリュージェイコンサルティング,0
553,3010405014302,登記記録の閉鎖等,0,2023-07-26,2023-07-18,一般社団法人地方創生ブランドジャパン,,その他の設立登記法人,東京都,千代田区,神田駿河台２丁目５番地１御茶ノ水ファーストビル１４Ｆ,,13,101,1010062,,,2023-07-18,清算の結了等,,,2015-11-06,1,,,,,チホウソウセイブランドジャパン,0
557,3010603009095,登記記録の閉鎖等,0,2023-07-26,2023-07-20,合同会社ゆうるまーる,,合同会社,東京都,江東区,大島６丁目１番３－３１５号,,13,108,1360072,,,2023-07-20,清算の結了等,,,2021-08-18,1,,,,,ユウルマール,0
590,3011502014228,登記記録の閉鎖等,0,2023-07-26,2023-07-24,有限会社クレッセント,,有限会社,東京都,台東区,東上野１丁目２０番１号,,13,106,1100015,,,2023-07-24,清算の結了等,,,2015-10-05,1,,,,,クレッセント,0
597,3012301007562,登記記録の閉鎖等,0,2023-07-26,2023-07-19,ＴＯＫＹＯ企業経営株式会社,,株式会社,東京都,町田市,金井２丁目３５番地１１,,13,209,1950072,,,2023-07-19,清算の結了等,,,2015-10-05,1,,,,,トウキョウキギョウケイエイ,0
601,3012405002492,登記記録の閉鎖等,0,2023-07-26,2023-07-24,一般社団法人ハートフル夢サポート,,その他の設立登記法人,東京都,武蔵野市,西久保２丁目２４番７号,,13,203,1800013,,,2023-07-24,清算の結了等,,,2015-10-05,1,,,,,ハートフルユメサポート,0
606,3020001016362,登記記録の閉鎖等,0,2023-07-26,2023-07-12,横浜貿易運輸株式会社,,株式会社,神奈川県,横浜市都筑区,池辺町４２６１番地１３,,14,118,2240053,,,2023-07-12,清算の結了等,,,2015-10-05,1,,,,,ヨコハマボウエキウンユ,0
611,3021001013696,登記記録の閉鎖等,0,2023-07-26,2023-07-20,株式会社びけん,,株式会社,神奈川県,相模原市緑区,東橋本１丁目１２番１号,,14,151,2520144,,,2023-07-20,清算の結了等,,,2015-10-05,1,,,,,ビケン,0
614,3021001051119,登記記録の閉鎖等,0,2023-07-26,2023-07-18,株式会社Ｒ．Ｍ．ｔ,,株式会社,神奈川県,三浦郡葉山町,一色４２８番地,,14,301,2400111,,,2023-07-18,清算の結了等,,,2015-10-05,1,,,,,,0
632,3030002121656,登記記録の閉鎖等,0,2023-07-26,2023-06-30,有限会社野口商店,,有限会社,埼玉県,秩父市,黒谷１２０５番地１,,11,207,3680001,,,2023-06-30,清算の結了等,,,2015-10-05,1,,,,,ノグチショウテン,0
653,3080401020479,登記記録の閉鎖等,0,2023-07-26,2023-07-24,株式会社はまかぜ相続センター,,株式会社,静岡県,浜松市中区,萩丘４丁目１０番３３号,,22,131,4338121,,,2023-07-24,清算の結了等,,,2015-10-05,1,,,,,ハマカゼソウゾクセンター,0
658,3100001022492,登記記録の閉鎖等,0,2023-07-26,2023-07-21,株式会社情報,,株式会社,長野県,飯田市,丸山町１丁目３番地１,,20,205,3950077,,,2023-07-21,清算の結了等,,,2015-10-05,1,,,,,ジョウホウ,0
660,3100002006040,登記記録の閉鎖等,0,2023-07-26,2023-07-21,有限会社フジマ測量設計,,有限会社,長野県,上水内郡信濃町,大字野尻１６５０番地,,20,583,3891303,,,2023-07-21,清算の結了等,,,2015-10-05,1,,,,,フジマソクリョウセッケイ,0
661,3100002017483,登記記録の閉鎖等,0,2023-07-26,2023-07-21,有限会社タンネンホッフ,,有限会社,長野県,下高井郡野沢温泉村,大字豊郷８１５３番地２,,20,563,3892502,,,2023-07-21,清算の結了等,,,2015-10-05,1,,,,,タンネンホッフ,0
667,3110005008999,登記記録の閉鎖等,0,2023-07-26,2023-07-12,医療法人社団さとう医院,,その他の設立登記法人,新潟県,上越市,柿崎区柿崎４１１番地１号,,15,222,9493216,,,2023-07-12,清算の結了等,,,2015-10-05,1,,,,,サトウイイン,0
668,3110005012563,登記記録の閉鎖等,0,2023-07-26,2023-07-11,見附織物工業協同組合,,その他の設立登記法人,新潟県,見附市,本町１丁目４番４１号,,15,211,9540053,,,2023-07-11,清算の結了等,,,2015-10-05,1,,,,,ミツケオリモノ,0
670,3120001011923,登記記録の閉鎖等,0,2023-07-26,2023-07-12,株式会社大森刺しゅう,,株式会社,大阪府,大阪市東成区,東今里１丁目２番１２号,,27,115,5370011,,,2023-07-12,清算の結了等,,,2015-10-05,1,,,,,オオモリシシュウ,0
671,3120001066505,登記記録の閉鎖等,0,2023-07-26,2023-07-25,株式会社大進ビル,,株式会社,大阪府,大阪市淀川区,新高１丁目１５番３４－１００８号,,27,123,5320033,,,2023-07-25,清算の結了等,,,2015-10-05,1,,,,,ダイシンビル,0
703,3140002021812,登記記録の閉鎖等,0,2023-07-26,2023-07-21,有限会社ウィーヴィー,,有限会社,兵庫県,神戸市須磨区,飛松町３丁目５番１８号,,28,107,6540012,,,2023-07-21,清算の結了等,,,2015-10-05,1,,,,,ウィーヴィー,0
704,3150005007964,登記記録の閉鎖等,0,2023-07-26,2023-07-21,学校法人天理よろづ相談所学園,,その他の設立登記法人,奈良県,天理市,別所町８０番地の１,,29,204,6320018,,,2023-07-21,清算の結了等,,,2015-10-05,1,,,,,テンリヨロヅソウダンショガクエン,0
709,3160005004275,登記記録の閉鎖等,0,2023-07-26,2023-07-20,圓照寺,,その他の設立登記法人,滋賀県,長浜市,高月町馬上１２１９番地,,25,203,5290223,,,2023-07-20,清算の結了等,,,2015-10-05,1,,,,,エンショウジ,0
710,3180001065138,登記記録の閉鎖等,0,2023-07-26,2023-07-24,株式会社オーサワフォトプロダクション,,株式会社,愛知県,名古屋市中区,新栄１丁目３１番１７号,,23,106,4600007,,,2023-07-24,清算の結了等,,,2015-10-05,1,,,,,オーサワフォトプロダクション,0
723,3180302025518,登記記録の閉鎖等,0,2023-07-26,2023-07-19,有限会社アルプイージー,,有限会社,愛知県,豊田市,美里３丁目９番地２,,23,211,4710805,,,2023-07-19,清算の結了等,,,2015-10-05,1,,,,,アルプイージー,0
735,3260001001662,登記記録の閉鎖等,0,2023-07-26,2023-07-19,株式会社小原塗装店,,株式会社,岡山県,岡山市北区,十日市中町８番６号,,33,101,7000855,,,2023-07-19,清算の結了等,,,2015-10-05,1,,,,,オハラトソウテン,0
752,3310003001515,登記記録の閉鎖等,0,2023-07-26,2023-07-14,アスコム合同会社,,合同会社,長崎県,佐世保市,塩浜町７－１１,,42,202,8570876,,,2023-07-14,清算の結了等,,,2015-10-05,1,,,,,アスコム,0
768,3370101002013,登記記録の閉鎖等,0,2023-07-26,2023-07-13,株式会社ジブン,,株式会社,宮城県,伊具郡丸森町,字町東６２番地,,04,341,9812164,,,2023-07-13,清算の結了等,,,2015-10-05,1,,,,,ジブン,0
771,3380002007952,登記記録の閉鎖等,0,2023-07-26,2023-07-18,有限会社稲場オフイス,,有限会社,福島県,郡山市,安積町南長久保２丁目６１番地,,07,203,9630104,,,2023-07-18,清算の結了等,,,2015-10-05,1,,,,,イナバオフィス,0
778,3390002012844,登記記録の閉鎖等,0,2023-07-26,2023-07-20,有限会社コンコープレス,,有限会社,山形県,米沢市,大町４丁目５番９号,,06,202,9920031,,,2023-07-20,清算の結了等,,,2015-10-05,1,,,,,コンコープレス,0
779,3420001012718,登記記録の閉鎖等,0,2023-07-26,2023-07-11,車輌ガス販売株式会社,,株式会社,青森県,むつ市,大字田名部字女舘２９番地９,,02,208,0350021,,,2023-07-11,清算の結了等,,,2015-10-05,1,,,,,シャリョウガスハンバイ,0
785,3430001075755,登記記録の閉鎖等,0,2023-07-26,2023-07-05,株式会社アタカ,,株式会社,北海道,札幌市東区,北二十条東１３丁目３番１６－１号,,01,103,0650020,,,2023-07-05,清算の結了等,,,2018-01-22,1,,,,,アタカ,0
790,3430002057975,登記記録の閉鎖等,0,2023-07-26,2023-07-18,イーグル観光企画有限会社,,有限会社,北海道,苫小牧市,字沼ノ端５番地１８,,01,213,0591364,,,2023-07-18,清算の結了等,,,2015-10-05,1,,,,,,0
843,4011103000741,登記記録の閉鎖等,0,2023-07-26,2023-07-25,合資会社新宿ランドリー,,合資会社,東京都,新宿区,西新宿７丁目１４番１１号,,13,104,1600023,,,2023-07-25,清算の結了等,,,2015-10-05,1,,,,,シンジュクランドリー,0
853,4011603001124,登記記録の閉鎖等,0,2023-07-26,2023-07-20,合同会社石川電気商会,,合同会社,東京都,練馬区,小竹町２丁目６０番１号,,13,120,1760004,,,2023-07-20,清算の結了等,,,2015-10-05,1,,,,,イシカワデンキショウカイ,0
864,4012703001055,登記記録の閉鎖等,0,2023-07-26,2023-07-18,合同会社ウォーク,,合同会社,東京都,東村山市,萩山町１丁目２２番地１－１０１号,,13,213,1890012,,,2023-07-18,清算の結了等,,,2015-10-05,1,,,,,,0
881,4021001013175,登記記録の閉鎖等,0,2023-07-26,2023-07-20,株式会社データーデュオ,,株式会社,神奈川県,相模原市南区,新磯野３丁目３７番９号,,14,153,2520325,,,2023-07-20,清算の結了等,,,2015-10-05,1,,,,,データーデュオ,0
895,4030002013324,登記記録の閉鎖等,0,2023-07-26,2023-07-03,有限会社三善警備保障,,有限会社,埼玉県,さいたま市見沼区,島町９６７番地の１,,11,104,3370006,,,2023-07-03,清算の結了等,,,2015-10-05,1,,,,,サンゼンケイビホショウ,0
905,4040001118651,登記記録の閉鎖等,0,2023-07-26,2023-07-03,株式会社梅ひと花,,株式会社,千葉県,千葉市花見川区,大日町１２６９,,12,102,2620004,,,2023-07-03,清算の結了等,,,2021-05-28,1,,,,,ウメヒトハナ,0
915,4050001019898,登記記録の閉鎖等,0,2023-07-26,2023-07-18,株式会社さわやか朝日,,株式会社,茨城県,日立市,東大沼町２丁目１０番２３号,,08,202,3160023,,,2023-07-18,清算の結了等,,,2015-10-05,1,,,,,サワヤカアサヒ,0
916,4050001023025,登記記録の閉鎖等,0,2023-07-26,2023-07-20,株式会社大村工業所,,株式会社,東京都,千代田区,丸の内１丁目８番３号,,13,101,1000005,,,2023-07-20,合併による解散等,3180001115628,令和５年７月１日名古屋市中村区名駅南一丁目２４番３０号株式会社ＰＥＯ（3180001115628）に合併し解散,2015-10-05,1,,,,,オオムラコウギョウショ,0
918,4050001040540,登記記録の閉鎖等,0,2023-07-26,2023-07-20,株式会社ＩＳＣ就職支援センター,,株式会社,茨城県,水戸市,笠原町１７５０番地９,,08,201,3100852,,,2023-07-20,合併による解散等,3180001115628,令和５年７月１日名古屋市中村区名駅南一丁目２４番３０号株式会社ＰＥＯ（3180001115628）に合併し解散,2016-02-24,1,,,,,,0
924,4050002043955,登記記録の閉鎖等,0,2023-07-26,2023-07-20,有限会社岩利石材興業,,有限会社,茨城県,桜川市,西小塙４８０番地１,,08,231,3091451,,,2023-07-20,清算の結了等,,,2015-10-05,1,,,,,イワトセキザイコウギョウ,0
930,4080402008489,登記記録の閉鎖等,0,2023-07-26,2023-07-24,有限会社ヤマザキ総合計画,,有限会社,静岡県,浜松市西区,桜台２丁目２０番８号,,22,133,4311104,,,2023-07-24,清算の結了等,,,2015-10-05,1,,,,,ヤマザキソウゴウケイカク,0
934,4110002003762,登記記録の閉鎖等,0,2023-07-26,2023-07-13,有限会社大乗運送,,有限会社,新潟県,新潟市東区,中木戸３５２番地２,,15,102,9500886,,,2023-07-13,清算の結了等,,,2015-10-05,1,,,,,ダイジョウウンソウ,0
957,4140001018404,登記記録の閉鎖等,0,2023-07-26,2023-07-20,三協株式会社,,株式会社,兵庫県,神戸市垂水区,本多聞２丁目７番８号,,28,108,6550006,,,2023-07-20,清算の結了等,,,2015-10-05,1,,,,,サンキョウ,0
962,4140002042023,登記記録の閉鎖等,0,2023-07-26,2023-07-19,有限会社日宣製作所,,有限会社,兵庫県,尼崎市,東園田町５丁目９１番地１,,28,202,6610953,,,2023-07-19,清算の結了等,,,2015-10-05,1,,,,,ニッセンセイサクジョ,0
963,4140002051032,登記記録の閉鎖等,0,2023-07-26,2023-07-20,圓山呉服有限会社,00041219,有限会社,兵庫県,姫路市,呉服町４番地,,28,201,6700923,,,2023-07-20,清算の結了等,,,2015-10-05,1,,,,,マルヤマゴフク,0
977,4180003018555,登記記録の閉鎖等,0,2023-07-26,2023-07-12,合同会社ヴィクトリア,,合同会社,愛知県,名古屋市天白区,西入町９４番地,,23,116,4680039,,,2023-07-12,合併による解散等,9290801023212,令和５年６月２８日福岡市中央区大濠二丁目２番２１－３０３号株式会社ピーエーティ（9290801023212）に合併し解散,2017-12-21,1,,,,,ヴィクトリア,0
981,4190002007681,登記記録の閉鎖等,0,2023-07-26,2023-07-12,有限会社ＫアンドＳ,,有限会社,三重県,鈴鹿市,南若松町３５５４番地,,24,207,5100227,,,2023-07-12,清算の結了等,,,2015-10-05,1,,,,,ケイアンドエス,0
983,4200002000528,登記記録の閉鎖等,0,2023-07-26,2023-07-19,有限会社梅田商店,,有限会社,岐阜県,岐阜市,加納梅田町２２番地,,21,201,5008279,,,2023-07-19,清算の結了等,,,2015-10-05,1,,,,,ウメダショウテン,0
997,4250005001510,登記記録の閉鎖等,0,2023-07-26,2023-07-18,準学校法人山田学園,,その他の設立登記法人,山口県,防府市,戎町２丁目４番４２号,,35,206,7470036,,,2023-07-18,清算の結了等,,,2015-10-05,1,,,,,ヤマダガクエン,0
1005,4280002009446,登記記録の閉鎖等,0,2023-07-26,2023-07-18,有限会社大石水産,,有限会社,島根県,浜田市,熱田町１３４番地,,32,202,6970062,,,2023-07-18,清算の結了等,,,2015-10-05,1,,,,,オオイシスイサン,0
1007,4290001030889,登記記録の閉鎖等,0,2023-07-26,2023-07-10,株式会社エムアイシー,,株式会社,福岡県,福岡市西区,西の丘２丁目３番１－３６号,,40,135,8190046,,,2023-07-10,清算の結了等,,,2015-10-05,1,,,,,エムアイシー,0
1022,4310002020663,登記記録の閉鎖等,0,2023-07-26,2023-07-19,有限会社寺坂工務店,,有限会社,長崎県,五島市,三井楽町濱ノ畔３０７５番地２,,42,211,8530601,,,2023-07-19,清算の結了等,,,2015-10-05,1,,,,,テラサカコウムテン,0
1027,4330002007254,登記記録の閉鎖等,0,2023-07-26,2023-07-24,有限会社東洋ネオン,,有限会社,熊本県,熊本市西区,横手３丁目７番２８号,,43,103,8600046,,,2023-07-24,清算の結了等,,,2015-10-05,1,,,,,トウヨウネオン,0
1038,4370001039724,登記記録の閉鎖等,0,2023-07-26,2023-07-13,株式会社翔栄建設,,株式会社,宮城県,仙台市青葉区,川平４丁目１３番１３号,,04,101,9810954,,,2023-07-13,清算の結了等,,,2016-06-01,1,,,,,ショウエイケンセツ,0
1042,4380001028544,登記記録の閉鎖等,0,2023-07-26,2023-07-14,株式会社福島環境整備機構,,株式会社,福島県,郡山市,大町１丁目９番１３号,,07,203,9638001,,,2023-07-14,清算の結了等,,,2017-10-16,1,,,,,フクシマカンキョウセイビキコウ,0
1053,4420003001890,登記記録の閉鎖等,0,2023-07-26,2023-07-11,三八工業合同会社,,合同会社,青森県,八戸市,大字大久保字大山３番地１０２,,02,203,0310833,,,2023-07-11,清算の結了等,,,2018-07-31,1,,,,,サンパチコウギョウ,0
1060,4430003001205,登記記録の閉鎖等,0,2023-07-26,2023-07-18,合資会社ダイニングフード・えりも,,合資会社,北海道,札幌市中央区,南十条西８丁目２－３６,,01,101,0640810,,,2023-07-18,清算の結了等,,,2015-10-05,1,,,,,ダイニングフードエリモ,0
1064,4460002002812,登記記録の閉鎖等,0,2023-07-26,2023-07-24,有限会社マルダイ大森水産,,有限会社,北海道,白糠郡白糠町,東三条南２丁目１番地２８,,01,668,0880303,,,2023-07-24,清算の結了等,,,2015-10-05,1,,,,,マルダイオオモリスイサン,0
1065,4460102006060,登記記録の閉鎖等,0,2023-07-26,2023-07-21,有限会社相澤組,,有限会社,北海道,足寄郡足寄町,南六条６丁目５９番地,,01,647,0893716,,,2023-07-21,清算の結了等,,,2015-10-05,1,,,,,アイザワグミ,0
1067,4470002009815,登記記録の閉鎖等,0,2023-07-26,2023-07-20,有限会社モリカワ,,有限会社,香川県,高松市,寺井町１１４９番地１,,37,201,7618085,,,2023-07-20,清算の結了等,,,2015-10-05,1,,,,,モリカワ,0
1068,4480002014161,登記記録の閉鎖等,0,2023-07-26,2023-07-25,有限会社ダイハチ,,有限会社,徳島県,海部郡牟岐町,大字川長字関２４番地の１,,36,383,7750004,,,2023-07-25,清算の結了等,,,2015-10-05,1,,,,,ダイハチ,0
1091,5010601015985,登記記録の閉鎖等,0,2023-07-26,2023-07-20,株式会社三富士製作所,,株式会社,東京都,墨田区,業平２丁目２番１３号,,13,107,1300002,,,2023-07-20,清算の結了等,,,2015-10-05,1,,,,,ミツフジセイサクショ,0
1103,5011101004826,登記記録の閉鎖等,0,2023-07-26,2023-07-14,カヤジマ電業株式会社,,株式会社,東京都,新宿区,西新宿７丁目２２番４２号,,13,104,1600023,,,2023-07-14,清算の結了等,,,2015-10-05,1,,,,,,0
1133,5011801017598,登記記録の閉鎖等,0,2023-07-26,2023-07-24,株式会社素直,,株式会社,東京都,足立区,東綾瀬１丁目２５番５号メゾン誠綾４０３,,13,121,1200004,,,2023-07-24,清算の結了等,,,2015-10-05,1,,,,,スナオ,0
1150,5020001131572,登記記録の閉鎖等,0,2023-07-26,2023-07-19,株式会社メディプレカ,,株式会社,神奈川県,座間市,栗原９９４－３,,14,216,2520013,,,2023-07-19,清算の結了等,,,2019-06-11,1,,,,,メディプレカ,0
1175,5040002016580,登記記録の閉鎖等,0,2023-07-26,2023-07-03,有限会社ビッグメガ,,有限会社,千葉県,千葉市若葉区,西都賀３丁目９番１号,,12,104,2640026,,,2023-07-03,合併による解散等,9040001012098,令和５年７月１日千葉市若葉区西都賀三丁目９番１号株式会社加持野商事大野屋（9040001012098）に合併し解散,2015-10-05,1,,,,,ビッグメガ,0
1190,5080002001604,登記記録の閉鎖等,0,2023-07-26,2023-07-24,有限会社金昌舎,,有限会社,静岡県,静岡市駿河区,高松２丁目２８番４９号,,22,102,4228034,,,2023-07-24,清算の結了等,,,2015-10-05,1,,,,,,0
1212,5120001214383,登記記録の閉鎖等,0,2023-07-26,2023-07-24,株式会社エコノフィルド,,株式会社,大阪府,大阪市北区,中之島２丁目３番３３号大阪三井物産ビル１３階,,27,127,5300005,,,2023-07-24,合併による解散等,9120001236647,令和５年７月１日大阪市北区中之島二丁目３番３３号大阪三井物産ビル１３階アヴァランチ株式会社（9120001236647）に合併し解散,2018-07-03,1,,,,,エコノフィルド,0
1223,5120002073110,登記記録の閉鎖等,0,2023-07-26,2023-07-19,有限会社前田電気工事,,有限会社,大阪府,寝屋川市,萱島南町６番１７号,,27,215,5720825,,,2023-07-19,清算の結了等,,,2015-10-05,1,,,,,マエダデンキコウジ,0
1244,5140001122551,登記記録の閉鎖等,0,2023-07-26,2023-07-19,株式会社スプレッドスペース,,株式会社,兵庫県,加古川市,加古川町篠原町１３番地３,,28,210,6750065,,,2023-07-19,清算の結了等,,,2021-08-05,1,,,,,スプレッドスペース,0
1260,5180001038645,登記記録の閉鎖等,0,2023-07-26,2023-07-21,株式会社東郷エステート,,株式会社,愛知県,名古屋市中区,丸の内１丁目８番３２号,,23,106,4600002,,,2023-07-21,清算の結了等,,,2015-10-05,1,,,,,トウゴウエステート,0
1261,5180001072264,登記記録の閉鎖等,0,2023-07-26,2023-07-20,株式会社伯楽舎,,株式会社,愛知県,名古屋市守山区,八反７番９号,,23,113,4630063,,,2023-07-20,清算の結了等,,,2015-10-05,1,,,,,ハクラクシャ,0
1272,5190003002879,登記記録の閉鎖等,0,2023-07-26,2023-07-10,オフィスリング合同会社,,合同会社,三重県,松阪市,駅部田町９８８番地サンハイム駅部田５０９号室,,24,204,5150045,,,2023-07-10,清算の結了等,,,2018-04-03,1,,,,,オフィスリング,0
1288,5260001016320,登記記録の閉鎖等,0,2023-07-26,2023-07-14,株式会社石幸,,株式会社,岡山県,倉敷市,玉島中央町３丁目１３番２７号,,33,202,7138122,,,2023-07-14,清算の結了等,,,2015-10-05,1,,,,,イシコウ,0
1292,5290001079942,登記記録の閉鎖等,0,2023-07-26,2023-07-10,株式会社ジー・リード,,株式会社,福岡県,福岡市博多区,博多駅前４丁目１８番１９号,,40,132,8120011,,,2023-07-10,清算の結了等,,,2017-12-14,1,,,,,ジーリード,0
1296,5290002035531,登記記録の閉鎖等,0,2023-07-26,2023-06-30,有限会社ユニット安全サービス,,有限会社,福岡県,宗像市,日の里２丁目２６番５号,,40,220,8113425,,,2023-06-30,清算の結了等,,,2015-10-05,1,,,,,ユニットアンゼンサービス,0
1300,5290002043006,登記記録の閉鎖等,0,2023-07-26,2023-07-07,有限会社Ｋコーポレーション,,有限会社,福岡県,大野城市,南ケ丘４丁目１１番５号,,40,219,8160964,,,2023-07-07,清算の結了等,,,2015-10-05,1,,,,,ケイコーポレーション,0
1304,5310001018402,登記記録の閉鎖等,0,2023-07-26,2023-07-18,株式会社瑞晃園,,株式会社,長崎県,南島原市,南有馬町甲５３９３番地,,42,214,8592411,,,2023-07-18,清算の結了等,,,2023-05-02,1,,,,,ズイコウエン,0
1355,5500002021575,登記記録の閉鎖等,0,2023-07-26,2023-07-24,有限会社木内コンタクトレンズ研究所,,有限会社,愛媛県,四国中央市,上分町３７６番地の１４,,38,213,7990121,,,2023-07-24,清算の結了等,,,2015-10-05,1,,,,,キウチコンタクトレンズケンキュウショ,0
1363,6010003020658,登記記録の閉鎖等,0,2023-07-26,2023-07-12,自然電力第十四合同会社,,合同会社,東京都,千代田区,丸の内３丁目１番１号東京共同会計事務所内,,13,101,1000005,,,2023-07-12,清算の結了等,,,2015-10-05,1,,,,,シゼンデンリョクダイジュウヨン,0
1385,6010502012362,登記記録の閉鎖等,0,2023-07-26,2023-07-24,有限会社渡辺,,有限会社,東京都,台東区,竜泉２丁目１９番１５号ドムール三ノ輪１０１,,13,106,1100012,,,2023-07-24,清算の結了等,,,2015-10-05,1,,,,,ワタナベ,0
1415,6011801007755,登記記録の閉鎖等,0,2023-07-26,2023-07-21,株式会社小玉建築設計事務所,,株式会社,東京都,足立区,梅田７丁目２９番１４－１０４号,,13,121,1230851,,,2023-07-21,清算の結了等,,,2015-10-05,1,,,,,コダマケンチクセッケイジムショ,0
1417,6012302000951,登記記録の閉鎖等,0,2023-07-26,2023-07-20,有限会社榎本商店,,有限会社,東京都,町田市,中町１丁目３番５号,,13,209,1940021,,,2023-07-20,清算の結了等,,,2015-10-05,1,,,,,エノモトショウテン,0
1429,6020001085529,登記記録の閉鎖等,0,2023-07-26,2023-07-20,株式会社ヤマモト,,株式会社,神奈川県,横須賀市,吉井１丁目１２番１０号,,14,201,2390804,,,2023-07-20,清算の結了等,,,2015-10-05,1,,,,,ヤマモト,0
1436,6020002095196,登記記録の閉鎖等,0,2023-07-26,2023-07-11,有限会社ユーアイ,,有限会社,神奈川県,川崎市麻生区,王禅寺７４７番地２９,,14,137,2150013,,,2023-07-11,清算の結了等,,,2015-10-05,1,,,,,ユーアイ,0
1438,6021001023148,登記記録の閉鎖等,0,2023-07-26,2023-07-18,株式会社サムライズ,,株式会社,神奈川県,厚木市,妻田西１丁目２０番１０号グランディアイレブンビル１Ｆ,,14,212,2430815,,,2023-07-18,清算の結了等,,,2015-10-05,1,,,,,,0
1442,6030001043584,登記記録の閉鎖等,0,2023-07-26,2023-07-03,株式会社介プランニング,,株式会社,埼玉県,上尾市,大字小敷谷８８０番地７８,,11,219,3620064,,,2023-07-03,清算の結了等,,,2015-10-05,1,,,,,カイプランニング,0
1467,6050001000699,登記記録の閉鎖等,0,2023-07-26,2023-07-21,関東創建株式会社,,株式会社,茨城県,笠間市,柏井５７０番地５１,,08,216,3091713,,,2023-07-21,合併による解散等,9080401017775,令和５年７月１日静岡県周智郡森町草ヶ谷４５８番地ＣＮｅｘｓｕｓ株式会社（9080401017775）に合併し解散,2015-10-05,1,,,,,,0
1485,6080401012944,登記記録の閉鎖等,0,2023-07-26,2023-07-20,ＯＭ建築工房株式会社,,株式会社,静岡県,浜松市西区,村櫛町４６０１番地,00068290,22,133,4311207,,,2023-07-20,合併による解散等,2080401000960,令和５年７月１日静岡県浜松市西区村櫛町４６０１番地ＯＭソーラー株式会社（2080401000960）に合併し解散,2015-10-05,1,,,,,オーエムケンチクコウボウ,0
1489,6120001041918,登記記録の閉鎖等,0,2023-07-26,2023-07-20,エムディエー株式会社,,株式会社,大阪府,大阪市西区,京町堀１丁目１５番７号,,27,106,5500003,,,2023-07-20,清算の結了等,,,2015-10-05,1,,,,,,0
1505,6120002065916,登記記録の閉鎖等,0,2023-07-26,2023-07-14,有限会社鈴川経営コンサルティング,,有限会社,大阪府,大阪市中央区,備後町１丁目２－１４ディオレ備後町９０２号,,27,128,5410051,,,2023-07-14,清算の結了等,,,2015-10-05,1,,,,,スズカワケイエイコンサルティング,0
1512,6120901027966,登記記録の閉鎖等,0,2023-07-26,2023-07-19,株式会社ロックウェルサービス,,株式会社,大阪府,豊中市,庄内宝町３丁目２番２号,,27,203,5610836,,,2023-07-19,清算の結了等,,,2015-10-05,1,,,,,ロックウェルサービス,0
1515,6130001064356,登記記録の閉鎖等,0,2023-07-26,2023-07-19,株式会社ＧＭＳＣｏｒｐｏｒａｔｉｏｎ,,株式会社,兵庫県,神戸市東灘区,西岡本７丁目７番２号,,28,101,6580073,,,2023-07-19,清算の結了等,,,2019-04-24,1,,,,,ジーエムエスコーポレーション,0
1536,6140002056632,登記記録の閉鎖等,0,2023-07-26,2023-07-24,有限会社サンポー,,有限会社,兵庫県,西宮市,甲子園口３丁目７番１９号,,28,204,6638113,,,2023-07-24,清算の結了等,,,2015-10-05,1,,,,,サンポー,0
1539,6140005025312,登記記録の閉鎖等,0,2023-07-26,2023-07-18,特定非営利活動法人風の谷,,その他の設立登記法人,兵庫県,丹波市,青垣町山垣１１６７番地,,28,223,6693833,,,2023-07-18,清算の結了等,,,2020-10-01,1,,,,,カゼノタニ,0
1540,6150001000020,登記記録の閉鎖等,0,2023-07-26,2023-07-24,株式会社アキクニテック,,株式会社,奈良県,奈良市,菅原町３９１番地の７,,29,201,6310842,,,2023-07-24,清算の結了等,,,2015-10-05,1,,,,,アキクニテック,0
1545,6160005009858,登記記録の閉鎖等,0,2023-07-26,2023-07-21,特定非営利活動法人たいほう腎臓病患者友の会,,その他の設立登記法人,滋賀県,守山市,今宿２丁目１３番１０号,,25,207,5240046,,,2023-07-21,清算の結了等,,,2015-10-05,1,,,,,タイホウジンゾウビョウカンジャトモノカイ,0
1547,6180001107705,登記記録の閉鎖等,0,2023-07-26,2023-07-20,株式会社ケミストファルマシア,,株式会社,愛知県,春日井市,出川町５丁目２６番地８,,23,206,4870025,,,2023-07-20,清算の結了等,,,2015-10-05,1,,,,,ケミストファルマシア,0
1549,6180001144095,登記記録の閉鎖等,0,2023-07-26,2023-07-18,株式会社俺豚,,株式会社,愛知県,名古屋市東区,東桜２丁目１７番２５号レジディア東桜ＩＩ３０６,00123959,23,102,4610005,,,2023-07-18,清算の結了等,,,2020-12-21,1,,,,,オレブタ,0
1553,6180002076032,登記記録の閉鎖等,0,2023-07-26,2023-07-20,有限会社カケヒ,,有限会社,愛知県,一宮市,西出町５３番地の２,,23,203,4910907,,,2023-07-20,清算の結了等,,,2015-10-05,1,,,,,カケヒ,0
1565,6200002005649,登記記録の閉鎖等,0,2023-07-26,2023-07-21,有限会社イ・カ・スライン,,有限会社,岐阜県,岐阜市,西改田字米野９８番地２,,21,201,5011163,,,2023-07-21,清算の結了等,,,2015-10-05,1,,,,,イカスライン,0
1578,6260002001048,登記記録の閉鎖等,0,2023-07-26,2023-07-20,有限会社ウィット,,有限会社,岡山県,岡山市北区,表町１丁目１０番１０号,,33,101,7000822,,,2023-07-20,清算の結了等,,,2015-10-05,1,,,,,ウィット,0
1609,6370001049052,登記記録の閉鎖等,0,2023-07-26,2023-07-18,株式会社ニューヤマダ,,株式会社,宮城県,白石市,緑が丘２番１－１０１号,,04,206,9890221,,,2023-07-18,清算の結了等,,,2022-09-20,1,,,,,ニューヤマダ,0
1612,6370302001901,登記記録の閉鎖等,0,2023-07-26,2023-07-18,有限会社橋浦運送,,有限会社,宮城県,石巻市,北上町橋浦字上大須１２６番地,,04,202,9860202,,,2023-07-18,清算の結了等,,,2015-10-05,1,,,,,ハシウラウンソウ,0
1614,6380002017239,登記記録の閉鎖等,0,2023-07-26,2023-07-18,有限会社マルヨシ商事,,有限会社,福島県,本宮市,仁井田字村山１２番地２,,07,214,9691103,,,2023-07-18,清算の結了等,,,2015-10-05,1,,,,,マルヨシショウジ,0
1639,6500002015551,登記記録の閉鎖等,0,2023-07-26,2023-07-24,有限会社アイワ,,有限会社,愛媛県,新居浜市,庄内町５丁目１１－１３４,,38,205,7920811,,,2023-07-24,清算の結了等,,,2015-10-05,1,,,,,,0
1649,7010001174050,登記記録の閉鎖等,0,2023-07-26,2023-07-11,株式会社エコシティグループ,,株式会社,神奈川県,横浜市都筑区,茅ケ崎中央８番３３号,,14,118,2240032,,,2023-07-11,合併による解散等,9020001057426,令和５年７月１日横浜市都筑区茅ケ崎中央８番３３号サウスコア２０５号室株式会社エコシティサービス（9020001057426）に合併し解散,2016-03-08,1,,,,,エコシティグループ,0
1652,7010001197893,登記記録の閉鎖等,0,2023-07-26,2023-07-04,サレプタ・セラピューティックス株式会社,,株式会社,東京都,港区,元麻布３丁目１番６号,,13,103,1060046,,,2023-07-04,清算の結了等,,,2019-01-18,1,,,,,サレプタセラピューティックス,0
1656,7010002026903,登記記録の閉鎖等,0,2023-07-26,2023-07-12,有限会社日本グラフ,,有限会社,東京都,中央区,八重洲２丁目６番５号５の５ビル,,13,102,1040028,,,2023-07-12,清算の結了等,,,2015-10-05,1,,,,,ニホングラフ,0
1661,7010401158330,登記記録の閉鎖等,0,2023-07-26,2023-07-03,株式会社ママスクエアｗｉｔｈ,,株式会社,東京都,港区,芝２丁目２２番１５号,,13,103,1050014,,,2023-07-03,合併による解散等,5010401115820,令和５年５月１日東京都港区芝二丁目２２番１５号株式会社ママスクエア（5010401115820）に合併し解散,2021-02-22,1,,,,,ママスクエアウイズ,0
1672,7010802010718,登記記録の閉鎖等,0,2023-07-26,2023-07-20,長原島長有限会社,,有限会社,東京都,大田区,上池台１丁目１３番６号,,13,111,1450064,,,2023-07-20,清算の結了等,,,2015-10-05,1,,,,,ナガハラシマチョウ,0
1683,7011001147161,登記記録の閉鎖等,0,2023-07-26,2023-07-13,Ｔｒａｉｌｂｌａｚｅｒ株式会社,,株式会社,東京都,渋谷区,道玄坂１丁目１０－８渋谷道玄坂東急ビル２Ｆ－Ｃ,,13,113,1500043,,,2023-07-13,清算の結了等,,,2022-05-17,1,,,,,トレイルブレイザー,0
1735,7040001104780,登記記録の閉鎖等,0,2023-07-26,2023-07-03,ＭＳＭ株式会社,,株式会社,千葉県,市原市,五井中央西２丁目１３番地１６－２階,,12,219,2900081,,,2023-07-03,清算の結了等,,,2018-05-24,1,,,,,エムエスエム,0
1750,7070001022732,登記記録の閉鎖等,0,2023-07-26,2023-07-21,ホクエイ流通株式会社,,株式会社,群馬県,館林市,富士見町４番２６号日栄ビル１５－２０１,,10,207,3740027,,,2023-07-21,清算の結了等,,,2015-10-05,1,,,,,ホクエイリュウツウ,0
1755,7110001009857,登記記録の閉鎖等,0,2023-07-26,2023-07-13,株式会社アシストワン,,株式会社,新潟県,新潟市中央区,長潟１丁目９番３３号,,15,103,9500932,,,2023-07-13,清算の結了等,,,2015-10-05,1,,,,,アシストワン,0
1756,7110001017620,登記記録の閉鎖等,0,2023-07-26,2023-07-12,株式会社みやこや,,株式会社,新潟県,柏崎市,西山町黒部字カケナシ５番地１,,15,205,9494142,,,2023-07-12,清算の結了等,,,2015-10-05,1,,,,,ミヤコヤ,0
1778,7122001005620,登記記録の閉鎖等,0,2023-07-26,2023-07-20,株式会社西上建設,,株式会社,大阪府,東大阪市,長田西１丁目１番１７号,,27,227,5770016,,,2023-07-20,清算の結了等,,,2015-10-05,1,,,,,ニシガミケンセツ,0
1793,7140002052572,登記記録の閉鎖等,0,2023-07-26,2023-07-20,あずまメンテナンス有限会社,,有限会社,兵庫県,姫路市,飾磨区中島２３９９番地の１,,28,201,6728035,,,2023-07-20,清算の結了等,,,2015-10-05,1,,,,,アズマメンテナンス,0
1796,7150001009473,登記記録の閉鎖等,0,2023-07-26,2023-07-24,株式会社日文,,株式会社,奈良県,桜井市,大字外山１２８７番地の１１,,29,206,6330007,,,2023-07-24,清算の結了等,,,2015-10-05,1,,,,,ニチブン,0
1818,7240005009279,登記記録の閉鎖等,0,2023-07-26,2023-07-14,農事組合法人花済機械利用組合,,その他の設立登記法人,広島県,神石郡神石高原町,花済３５０番地,,34,545,7201623,,,2023-07-14,清算の結了等,,,2015-10-05,1,,,,,ハナスミキカイリヨウクミアイ,0
1822,7250005002860,登記記録の閉鎖等,0,2023-07-26,2023-07-12,特定非営利活動法人ＮＰＯ有帆会,,その他の設立登記法人,山口県,山陽小野田市,大字有帆９２６番地－５,,35,216,7560038,,,2023-07-12,清算の結了等,,,2015-10-05,1,,,,,エヌピーオーアリホカイ,0
1823,7260001016723,登記記録の閉鎖等,0,2023-07-26,2023-07-18,株式会社ジェイズ,,株式会社,岡山県,倉敷市,児島下の町１０丁目８番４号,,33,202,7110906,,,2023-07-18,清算の結了等,,,2015-10-05,1,,,,,ジェイズ,0
1825,7260005010722,登記記録の閉鎖等,0,2023-07-26,2023-07-19,一般社団法人まちづくりパートナーズ,,その他の設立登記法人,岡山県,岡山市北区,弓之町１０－２５,,33,101,7000817,,,2023-07-19,清算の結了等,,,2020-02-26,1,,,,,マチヅクリパートナーズ,0
1839,7310001006330,登記記録の閉鎖等,0,2023-07-26,2023-07-19,株式会社共立電業社,,株式会社,長崎県,佐世保市,上相浦町９番３号,,42,202,8580915,,,2023-07-19,清算の結了等,,,2015-10-05,1,,,,,キョウリツデンギョウシャ,0
1854,7380002032096,登記記録の閉鎖等,0,2023-07-26,2023-07-11,有限会社昭和製作所,,有限会社,福島県,会津若松市,神指町橋本１２５番地,,07,202,9650080,,,2023-07-11,清算の結了等,,,2015-10-05,1,,,,,ショウワセイサクショ,0
1858,7420001001535,登記記録の閉鎖等,0,2023-07-26,2023-07-11,東洋シルバーサービス株式会社,,株式会社,青森県,青森市,中佃３丁目７番２３号,,02,201,0300963,,,2023-07-11,清算の結了等,,,2015-10-05,1,,,,,,0
1860,7430001049169,登記記録の閉鎖等,0,2023-07-26,2023-07-05,株式会社北海道エムエス保険サービス,,株式会社,北海道,砂川市,豊沼町１番地,,01,226,0730138,,,2023-07-05,清算の結了等,,,2015-10-05,1,,,,,ホッカイドウエムエスホケンサービス,0
1897,8010501008178,登記記録の閉鎖等,0,2023-07-26,2023-07-21,株式会社椿厨房具製作所,,株式会社,東京都,台東区,三ノ輪１丁目１番５号,,13,106,1100011,,,2023-07-21,清算の結了等,,,2015-10-05,1,,,,,ツバキチュウボウグセイサクジョ,0
1902,8010602009430,登記記録の閉鎖等,0,2023-07-26,2023-07-24,有限会社兼松商事,,有限会社,東京都,墨田区,墨田２丁目１２番９号,,13,107,1310031,,,2023-07-24,清算の結了等,,,2015-10-05,1,,,,,カネマツショウジ,0
1905,8010702006014,登記記録の閉鎖等,0,2023-07-26,2023-07-13,有限会社南雲雄一級建築士事務所,,有限会社,東京都,品川区,西五反田５丁目７番４号,,13,109,1410031,,,2023-07-13,清算の結了等,,,2015-10-05,1,,,,,ナグモユウイッキュウケンチクシジムショ,0
1919,8011002014582,登記記録の閉鎖等,0,2023-07-26,2023-07-20,有限会社シー・アンド・ワイビジネスサービス,,有限会社,東京都,渋谷区,恵比寿西２丁目１番７号,,13,113,1500021,,,2023-07-20,清算の結了等,,,2015-10-05,1,,,,,シーアンドワイビジネスサービス,0
1941,8011502009306,登記記録の閉鎖等,0,2023-07-26,2023-07-03,有限会社誠建技工,,有限会社,千葉県,流山市,大字鰭ケ崎１４７５番地の１６９,,12,220,2700161,,,2023-07-03,清算の結了等,,,2015-10-05,1,,,,,,0
1954,8012801022197,登記記録の閉鎖等,0,2023-07-26,2023-07-03,株式会社エコワスホールディングス,,株式会社,東京都,立川市,柴崎町３丁目１３番１９号,,13,202,1900023,,,2023-07-03,合併による解散等,4012801006740,令和５年７月１日東京都立川市柴崎町三丁目１３番１９号株式会社大岳カンパニー（4012801006740）に合併し解散,2023-03-15,1,,,,,エコワスホールディングス,0
1973,8021001040950,登記記録の閉鎖等,0,2023-07-26,2023-07-18,浜勇商事株式会社,,株式会社,神奈川県,横須賀市,安浦町２丁目６番地,,14,201,2380012,,,2023-07-18,清算の結了等,,,2015-10-05,1,,,,,,0
2001,8080402007009,登記記録の閉鎖等,0,2023-07-26,2023-07-21,有限会社ブルーグラス,,有限会社,静岡県,浜松市南区,米津町７５５番地の２,,22,134,4328056,,,2023-07-21,清算の結了等,,,2015-10-05,1,,,,,ブルーグラス,0
2006,8110003000813,登記記録の閉鎖等,0,2023-07-26,2023-07-13,株式会社多奈可や,,株式会社,新潟県,新発田市,稲荷岡２０６６番地,,15,206,9570204,,,2023-07-13,清算の結了等,,,2015-10-05,1,,,,,,0
2009,8120001052748,登記記録の閉鎖等,0,2023-07-26,2023-07-13,船場化工株式会社,,株式会社,大阪府,大阪市東淀川区,下新庄５丁目５番６号,,27,114,5330021,,,2023-07-13,清算の結了等,,,2015-10-05,1,,,,,センバカコウ,0
2018,8120001182264,登記記録の閉鎖等,0,2023-07-26,2023-07-25,株式会社レイマーレ,,株式会社,大阪府,大阪市東淀川区,柴島２丁目２１番１７号,,27,114,5330024,,,2023-07-25,清算の結了等,,,2015-10-05,1,,,,,レイマーレ,0
2030,8120102021916,登記記録の閉鎖等,0,2023-07-26,2023-07-24,富田工業有限会社,,有限会社,大阪府,堺市北区,金岡町１４２３番地３なかもずオールズ１３９号,,27,146,5918022,,,2023-07-24,清算の結了等,,,2015-10-05,1,,,,,トミタコウギョウ,0
2062,8180301024301,登記記録の閉鎖等,0,2023-07-26,2023-07-18,株式会社ＪＯＹＢＯＸ新城,,株式会社,愛知県,新城市,字西入船９４番地４,,23,221,4411384,,,2023-07-18,清算の結了等,,,2015-10-05,1,,,,,ジョイボックスシンシロ,0
2063,8180302002719,登記記録の閉鎖等,0,2023-07-26,2023-07-19,有限会社ホタルヤ,,有限会社,愛知県,岡崎市,美合新町１６番地１７,,23,202,4440801,,,2023-07-19,清算の結了等,,,2015-10-05,1,,,,,ホタルヤ,0
2066,8200001011547,登記記録の閉鎖等,0,2023-07-26,2023-07-24,株式会社マルヨシ,,株式会社,岐阜県,羽島郡岐南町,野中５丁目１２８番地,,21,302,5016004,,,2023-07-24,清算の結了等,,,2015-10-05,1,,,,,マルヨシ,0
2095,8290801011960,登記記録の閉鎖等,0,2023-07-26,2023-07-18,平和運輸産業株式会社,,株式会社,福岡県,北九州市若松区,響町１丁目２２番地,,40,103,8080021,,,2023-07-18,清算の結了等,,,2015-10-05,1,,,,,ヘイワウンユサンギョウ,0
2104,8310003001758,登記記録の閉鎖等,0,2023-07-26,2023-07-19,合資会社辻田商事,,合資会社,長崎県,大村市,植松３丁目８９６番地１,,42,205,8560027,,,2023-07-19,清算の結了等,,,2015-10-05,1,,,,,ツジタショウジ,0
2117,8370002013897,登記記録の閉鎖等,0,2023-07-26,2023-07-14,有限会社やつなみ,,有限会社,宮城県,仙台市青葉区,台原２丁目１２番１７号,,04,101,9810911,,,2023-07-14,清算の結了等,,,2015-10-05,1,,,,,ヤツナミ,0
2118,8370003002437,登記記録の閉鎖等,0,2023-07-26,2023-07-14,ＹＨ合同会社,,合同会社,宮城県,仙台市青葉区,東照宮１丁目８番１５－１０２号,,04,101,9810908,,,2023-07-14,清算の結了等,,,2015-10-05,1,,,,,ワイエイチ,0
2122,8380002000829,登記記録の閉鎖等,0,2023-07-26,2023-07-18,有限会社笠原木工所,,有限会社,福島県,福島市,新浜町６番１８号,,07,201,9608022,,,2023-07-18,清算の結了等,,,2015-10-05,1,,,,,カサハラモッコウショ,0
2124,8380002029158,登記記録の閉鎖等,0,2023-07-26,2023-07-18,有限会社かしま測量設計社,,有限会社,福島県,南相馬市,鹿島区北海老字大森１７８番地,,07,212,9792311,,,2023-07-18,清算の結了等,,,2015-10-05,1,,,,,カシマソクリョウセッケイシャ,0
2128,8380005007994,登記記録の閉鎖等,0,2023-07-26,2023-07-13,会津地区青果物商業協同組合,,その他の設立登記法人,福島県,会津若松市,一箕町大字鶴賀字船ケ森東４７０番地,,07,202,9650006,,,2023-07-13,清算の結了等,,,2015-10-05,1,,,,,アイヅチクセイカブツショウギョウ,0
2148,8480001002502,登記記録の閉鎖等,0,2023-07-26,2023-07-24,株式会社未来,,株式会社,徳島県,徳島市,南昭和町１丁目１８番地４,,36,201,7700944,,,2023-07-24,清算の結了等,,,2015-10-05,1,,,,,ミライ,0
2173,9010401060757,登記記録の閉鎖等,0,2023-07-26,2023-07-13,株式会社ＡＫ電子,,株式会社,東京都,品川区,北品川５丁目６番２４号パークシティ大崎ザレジデンス１４０３号室,,13,109,1410001,,,2023-07-13,清算の結了等,,,2015-10-05,1,,,,,エーケイデンシ,0
2183,9010601000463,登記記録の閉鎖等,0,2023-07-26,2023-07-19,井出不動産株式会社,,株式会社,東京都,江東区,古石場１丁目１３番１４号,,13,108,1350045,,,2023-07-19,清算の結了等,,,2015-10-05,1,,,,,イデフドウサン,0
2199,9010905003914,登記記録の閉鎖等,0,2023-07-26,2023-06-12,一般社団法人世田谷アジア協会,,その他の設立登記法人,東京都,世田谷区,太子堂１丁目１２番２７コンフォートテラス１００５号,,13,112,1540004,,,2023-06-12,清算の結了等,,,2020-03-06,1,,,,,セタガヤアジアキョウカイ,0
2243,9021001074246,登記記録の閉鎖等,0,2023-07-26,2023-07-20,株式会社リアスロー,,株式会社,神奈川県,相模原市中央区,相模原３丁目７番３号,,14,152,2520231,,,2023-07-20,清算の結了等,,,2021-10-19,1,,,,,リアスロー,0
2249,9030001135305,登記記録の閉鎖等,0,2023-07-26,2023-07-03,博楽株式会社,,株式会社,埼玉県,川口市,飯塚３丁目１６番１号飯塚コーポサンヨー２０２,,11,203,3320023,,,2023-07-03,清算の結了等,,,2020-02-26,1,,,,,ハクラク,0
2281,9100005006387,登記記録の閉鎖等,0,2023-07-26,2023-07-11,医療法人小林医院,,その他の設立登記法人,長野県,安曇野市,豊科４２７５番地７,,20,220,3998205,,,2023-07-11,清算の結了等,,,2015-10-05,1,,,,,コバヤシイイン,0
2284,9120001048010,登記記録の閉鎖等,0,2023-07-26,2023-07-20,八坂リビングサービス株式会社,,株式会社,大阪府,大阪市中央区,西心斎橋２丁目１２－２２－６２０号,,27,128,5420086,,,2023-07-20,清算の結了等,,,2015-10-05,1,,,,,,0
2286,9120001168493,登記記録の閉鎖等,0,2023-07-26,2023-07-14,株式会社友信工芸,,株式会社,大阪府,枚方市,春日野１丁目１番３５号,,27,210,5730131,,,2023-07-14,清算の結了等,,,2015-10-05,1,,,,,ユウシンコウゲイ,0
2293,9120001213316,登記記録の閉鎖等,0,2023-07-26,2023-07-14,株式会社Ｆｕｎｎｙ　Ｃａｔ,,株式会社,大阪府,大阪市中央区,高津３丁目１番６号シャリエ日本橋高津９０６,,27,128,5420072,,,2023-07-14,清算の結了等,,,2018-05-10,1,,,,,ファニーキャット,0
2297,9120001233256,登記記録の閉鎖等,0,2023-07-26,2023-07-20,株式会社ココスペース,,株式会社,大阪府,大阪市北区,梅田２丁目５－４千代田ビル西館６Ｆ－Ｇ,,27,127,5300001,,,2023-07-20,清算の結了等,,,2020-11-19,1,,,,,ココスペース,0
2315,9122001016335,登記記録の閉鎖等,0,2023-07-26,2023-07-24,阪奈測機株式会社,,株式会社,大阪府,四條畷市,中野新町１２番１３号,,27,229,5750054,,,2023-07-24,清算の結了等,,,2015-10-05,1,,,,,ハンナソッキ,0
2327,9160001006798,登記記録の閉鎖等,0,2023-07-26,2023-07-20,株式会社太進測量設計,,株式会社,滋賀県,米原市,坂口１２３番地の１,,25,214,5210232,,,2023-07-20,清算の結了等,,,2015-10-05,1,,,,,タイシンソクリョウセッケイ,0
2343,9180002059414,登記記録の閉鎖等,0,2023-07-26,2023-07-24,有限会社中村畳店,,有限会社,愛知県,名古屋市南区,観音町５丁目１１５番地,,23,112,4570845,,,2023-07-24,清算の結了等,,,2015-10-05,1,,,,,ナカムラタタミテン,0
2344,9180002072920,登記記録の閉鎖等,0,2023-07-26,2023-07-06,トータルインテリア愛眞有限会社,,有限会社,愛知県,尾張旭市,西大道町六兵衛前３９２０番地６,,23,226,4880815,,,2023-07-06,清算の結了等,,,2015-10-05,1,,,,,トータルインテリア,0
2346,9180002078397,登記記録の閉鎖等,0,2023-07-26,2023-07-18,三善産業有限会社,,有限会社,愛知県,一宮市,乾町６０番地,,23,203,4910061,,,2023-07-18,清算の結了等,,,2015-10-05,1,,,,,ミヨシサンギョウ,0
2347,9180002086458,登記記録の閉鎖等,0,2023-07-26,2023-07-14,有限会社ムツミ産業,,有限会社,愛知県,大府市,共栄町３丁目４番地の４,,23,223,4740074,,,2023-07-14,清算の結了等,,,2015-10-05,1,,,,,ムツミサンギョウ,0
2359,9210002007294,登記記録の閉鎖等,0,2023-07-26,2023-07-13,有限会社ケイエムエル,,有限会社,福井県,あわら市,春宮２丁目２９番１２号,,18,208,9190632,,,2023-07-13,清算の結了等,,,2015-10-05,1,,,,,ケイエムエル,0
2364,9240005005045,登記記録の閉鎖等,0,2023-07-26,2023-07-11,協同組合甲田ショッピングセンター,,その他の設立登記法人,広島県,安芸高田市,甲田町高田原１４３３番地の１,,34,214,7391101,,,2023-07-11,清算の結了等,,,2015-10-05,1,,,,,コウダショッピングセンター,0
2366,9250005008096,登記記録の閉鎖等,0,2023-07-26,2023-07-05,特定非営利活動法人まちの情報発信局,,その他の設立登記法人,山口県,防府市,大字新田９０５番地の５,,35,206,7470825,,,2023-07-05,清算の結了等,,,2015-10-05,1,,,,,マチノジョウホウハッシンキョク,0
2371,9260002033311,登記記録の閉鎖等,0,2023-07-26,2023-07-11,有限会社プラントシステム技研,,有限会社,岡山県,玉野市,深井町５番３号,,33,204,7060023,,,2023-07-11,清算の結了等,,,2015-10-05,1,,,,,プラントシステムギケン,0
2383,9310002013101,登記記録の閉鎖等,0,2023-07-26,2023-07-19,有限会社福田鉄工所,,有限会社,長崎県,北松浦郡佐々町,市瀬免４５７番地１,,42,391,8570321,,,2023-07-19,清算の結了等,,,2015-10-05,1,,,,,フクダテッコウショ,0
2384,9310005001227,登記記録の閉鎖等,0,2023-07-26,2023-07-19,医療法人小森内科クリニック,,その他の設立登記法人,長崎県,長崎市,上小島４丁目１６番１号,,42,201,8500834,,,2023-07-19,清算の結了等,,,2015-10-05,1,,,,,コモリナイカクリニック,0
2390,9340002012364,登記記録の閉鎖等,0,2023-07-26,2023-07-21,有限会社玖子貴,,有限会社,鹿児島県,日置市,日吉町神之川８５３番地２,,46,216,8992421,,,2023-07-21,清算の結了等,,,2015-10-05,1,,,,,キュウジキ,0
2391,9350003003502,登記記録の閉鎖等,0,2023-07-26,2023-07-13,合同会社豊大,,合同会社,宮崎県,都城市,梅北町６８３９番地１,,45,202,8850063,,,2023-07-13,清算の結了等,,,2020-01-27,1,,,,,ホウダイ,0
2408,9370202004209,登記記録の閉鎖等,0,2023-07-26,2023-07-13,有限会社たじりエコベジタブル,,有限会社,宮城県,大崎市,田尻通木字山崎１０２番地,,04,215,9894413,,,2023-07-13,清算の結了等,,,2015-10-05,1,,,,,タジリエコベジタブル,0
2409,9370601000089,登記記録の閉鎖等,0,2023-07-26,2023-07-18,株式会社エスケイ,,株式会社,宮城県,塩竈市,新浜町１丁目１７番２５号,,04,203,9850001,,,2023-07-18,清算の結了等,,,2015-10-05,1,,,,,エスケイ,0
