sequenceNumber,corporateNumber,process,correct,updateDate,changeDate,name,nameImageId,kind,prefectureName,cityName,streetNumber,addressImageId,prefectureCode,cityCode,postCode,addressOutside,addressOutsideImageId,closeDate,closeCause,successorCorporateNumber,changeCause,assignmentDate,latest,enName,enPrefectureName,enCityName,enAddressOutside,furigana,hihyoji
9,1010001237052,新規,0,2023-07-28,2023-07-28,清水酒蔵製造株式会社,,株式会社,東京都,文京区,本郷５丁目３番１号,,13,105,1130033,,,,,,,2023-07-28,1,,,,,シミズシュゾウセイゾウ,0
10,1010001237119,新規,0,2023-07-28,2023-07-28,株式会社キャリアビルディング,,株式会社,東京都,千代田区,平河町１丁目７－２２万代半蔵門ビル６０１号,,13,101,1020093,,,,,,,2023-07-28,1,,,,,キャリアビルディング,0
11,1010001237168,新規,0,2023-07-28,2023-07-28,ステラートダイニング株式会社,,株式会社,東京都,文京区,小石川５丁目１６番１０号,,13,105,1120002,,,,,,,2023-07-28,1,,,,,ステラートダイニング,0
12,1010001237242,新規,0,2023-07-28,2023-07-28,株式会社ＪＰＭＳ,,株式会社,東京都,中央区,八重洲２丁目１番１号ＹＡＮＭＡＲＴＯＫＹＯ,,13,102,1040028,,,,,,,2023-07-28,1,,,,,ジェイピーエムエス,0
13,1010001237250,新規,0,2023-07-28,2023-07-28,プレゼンスジャパン株式会社,,株式会社,東京都,中央区,銀座１丁目１２－４Ｎ＆ＥＢＬＤ．７階,,13,102,1040061,,,,,,,2023-07-28,1,,,,,プレゼンスジャパン,0
19,1010003041213,新規,0,2023-07-28,2023-07-28,ＰＯＲ合同会社,,合同会社,東京都,中央区,銀座１丁目２２番１１号銀座大竹ビジデンス２Ｆ,,13,102,1040061,,,,,,,2023-07-28,1,,,,,ピーオーアール,0
27,1010403030591,新規,0,2023-07-28,2023-07-28,合同会社ＭＩ　Ｊａｐａｎ,,合同会社,東京都,港区,南青山５丁目１３番２号南青山池田ビル７階,,13,103,1070062,,,,,,,2023-07-28,1,,,,,メイドインジャパン,0
28,1010403030600,新規,0,2023-07-28,2023-07-28,枇杷合同会社,,合同会社,東京都,港区,西新橋１丁目１番１号ＥＰコンサルティングサービス内,,13,103,1050003,,,,,,,2023-07-28,1,,,,,ビワ,0
35,1010701044632,新規,0,2023-07-28,2023-07-28,あまのかわ東京株式会社,,株式会社,東京都,品川区,大井３丁目１７番２号ＡＭＡＴＥＲＲＡＣＥ大井町２０４,,13,109,1400014,,,,,,,2023-07-28,1,,,,,アマノカワトーキョー,0
42,1010901053490,新規,0,2023-07-28,2023-07-28,光裕株式会社,,株式会社,東京都,世田谷区,用賀３丁目２２番４号,,13,112,1580097,,,,,,,2023-07-28,1,,,,,ミユ,0
48,1011001155921,新規,0,2023-07-28,2023-07-28,ラランセ株式会社,,株式会社,東京都,渋谷区,渋谷１丁目８番５号,,13,113,1500002,,,,,,,2023-07-28,1,,,,,ラランセ,0
49,1011001155938,新規,0,2023-07-28,2023-07-28,株式会社ＬＥＳＳＡＮＤ,,株式会社,東京都,渋谷区,道玄坂１丁目１０番８号渋谷道玄坂東急ビル２Ｆ－Ｃ,,13,113,1500043,,,,,,,2023-07-28,1,,,,,レセンド,0
50,1011001155954,新規,0,2023-07-28,2023-07-28,Ｓａｋ‐Ｚｅｎ株式会社,,株式会社,東京都,渋谷区,神宮前６丁目２３番４号桑野ビル２階,,13,113,1500001,,,,,,,2023-07-28,1,,,,,サクゼン,0
57,1011101103755,新規,0,2023-07-28,2023-07-28,株式会社ＪＡＡ,,株式会社,東京都,新宿区,若松町１７番６,,13,104,1620056,,,,,,,2023-07-28,1,,,,,ジェイエーエー,0
58,1011101103796,新規,0,2023-07-28,2023-07-28,株式会社Ｅｌｉａｎａ,,株式会社,東京都,新宿区,下宮比町２－２８飯田橋ハイタウン３１８,,13,104,1620822,,,,,,,2023-07-28,1,,,,,エリアナ,0
59,1011101103805,新規,0,2023-07-28,2023-07-28,株式会社Ｓｔａｒｔ　ＩＴ,,株式会社,東京都,新宿区,新宿１丁目３６番２号新宿第七葉山ビル３Ｆ,,13,104,1600022,,,,,,,2023-07-28,1,,,,,スタートイット,0
67,1011701026463,新規,0,2023-07-28,2023-07-28,株式会社Ｎａｍｉｋｕｊｉｒａ,,株式会社,東京都,江戸川区,西小岩１丁目２０－８丸昌西ビル５Ｂ,,13,123,1330057,,,,,,,2023-07-28,1,,,,,ナミクジラ,0
85,1013303006728,新規,0,2023-07-28,2023-07-28,ＪＡＰＡＮ　ＡＵＴＯ　ＳＵＰＰＬＹ合同会社,,合同会社,東京都,豊島区,駒込３丁目１－３－Ａ２０２,,13,116,1700003,,,,,,,2023-07-28,1,,,,,ジャパンオートサプライ,0
90,1020001152705,新規,0,2023-07-28,2023-07-28,株式会社リバーフィールド,,株式会社,神奈川県,川崎市宮前区,犬蔵２丁目３８番１２号,,14,136,2160011,,,,,,,2023-07-28,1,,,,,リバーフィールド,0
91,1020001152713,新規,0,2023-07-28,2023-07-28,株式会社ランカ,,株式会社,神奈川県,横浜市港南区,大久保３丁目３５番１－２０９号,,14,111,2330007,,,,,,,2023-07-28,1,,,,,ランカ,0
92,1020001152738,新規,0,2023-07-28,2023-07-28,株式会社ｅｍ,,株式会社,神奈川県,横浜市中区,山下町１番地シルクセンタービル１０２４号室,,14,104,2310023,,,,,,,2023-07-28,1,,,,,エム,0
93,1020001152754,新規,0,2023-07-28,2023-07-28,アイビー株式会社,,株式会社,神奈川県,横浜市中区,初音町１丁目２番地８フェニックス横濱初音町５０４,,14,104,2310053,,,,,,,2023-07-28,1,,,,,アイビー,0
96,1020003024258,新規,0,2023-07-28,2023-07-28,合同会社システムラボ,,合同会社,神奈川県,川崎市高津区,新作５丁目１４番１－４１４号,,14,134,2130014,,,,,,,2023-07-28,1,,,,,システムラボ,0
97,1021001079707,新規,0,2023-07-28,2023-07-28,株式会社住まいるズ,,株式会社,神奈川県,横須賀市,野比１丁目１１番９号,,14,201,2390841,,,,,,,2023-07-28,1,,,,,スマイルズ,0
98,1021001079731,新規,0,2023-07-28,2023-07-28,湘ＫＥＮ　ＷＯＲＫＳ株式会社,,株式会社,神奈川県,茅ヶ崎市,中海岸３丁目４番１０－９号,,14,207,2530055,,,,,,,2023-07-28,1,,,,,ショウケンワークス,0
100,1021003013374,新規,0,2023-07-28,2023-07-28,ＫＬＳ合同会社,,合同会社,神奈川県,相模原市南区,下溝７５―３,,14,153,2520335,,,,,,,2023-07-28,1,,,,,ケイエルエス,0
106,1030001155013,新規,0,2023-07-28,2023-07-28,株式会社ＭＥＴＡＬ　ＷＯＲＫＳ,,株式会社,埼玉県,さいたま市岩槻区,大字鹿室７４９番地２,,11,110,3390001,,,,,,,2023-07-28,1,,,,,メタルワークス,0
107,1030001155038,新規,0,2023-07-28,2023-07-28,株式会社ＳＨｉＮＳＴＹＬＥ,,株式会社,埼玉県,越谷市,越ヶ谷１丁目１６番２４号春日ビル１階,,11,222,3430813,,,,,,,2023-07-28,1,,,,,シンスタイル,0
108,1030001155087,新規,0,2023-07-28,2023-07-28,株式会社アールコーポレーション,,株式会社,埼玉県,桶川市,大字川田谷８８３番地,,11,231,3630027,,,,,,,2023-07-28,1,,,,,アールコーポレーション,0
109,1030001155095,新規,0,2023-07-28,2023-07-28,株式会社ＴＡＮＩＺＡＷＡ,,株式会社,埼玉県,川越市,大字下赤坂６６５番地,,11,201,3501155,,,,,,,2023-07-28,1,,,,,タニザワ,0
110,1030001155145,新規,0,2023-07-28,2023-07-28,株式会社アルテミス,,株式会社,埼玉県,川越市,砂新田１丁目１４番地１５－２１１号室,,11,201,3501137,,,,,,,2023-07-28,1,,,,,アルテミス,0
118,1040001129412,新規,0,2023-07-28,2023-07-28,株式会社桑野鋼業,,株式会社,千葉県,市川市,宮久保２丁目７番１号,,12,203,2720822,,,,,,,2023-07-28,1,,,,,クワノコウギョウ,0
122,1040003023027,新規,0,2023-07-28,2023-07-28,モンタナトレーディングカンパニー合同会社,,合同会社,千葉県,白井市,復３番地の１,,12,232,2701422,,,,,,,2023-07-28,1,,,,,モンタナトレーディングカンパニー,0
134,1080001025756,新規,0,2023-07-28,2023-07-28,株式会社ＭＯＡＮＡ,,株式会社,静岡県,静岡市葵区,川越町１番１３号,,22,101,4200052,,,,,,,2023-07-28,1,,,,,モアナ,0
149,1110003005125,新規,0,2023-07-28,2023-07-28,合同会社ヘアーイーダッシュ,,合同会社,新潟県,上越市,板倉区山部１２３番地,,15,222,9440121,,,,,,,2023-07-28,1,,,,,ヘアーイーダッシュ,0
156,1120001256603,新規,0,2023-07-28,2023-07-28,Ｊ＆Ｍ株式会社,,株式会社,大阪府,大阪市北区,天満３丁目１－５南天満ビル１０２,,27,127,5300043,,,,,,,2023-07-28,1,,,,,ジェイアンドエム,0
157,1120001256826,新規,0,2023-07-28,2023-07-28,株式会社エス工業,,株式会社,大阪府,大阪市淀川区,宮原１丁目８番１１－６０２号,,27,123,5320003,,,,,,,2023-07-28,1,,,,,エスコウギョウ,0
158,1120001256875,新規,0,2023-07-28,2023-07-28,日本振興アセットマネジメント株式会社,,株式会社,大阪府,大阪市中央区,難波５丁目１番６０号,,27,128,5420076,,,,,,,2023-07-28,1,,,,,ニホンシンコウアセットマネジメント,0
161,1120003024529,新規,0,2023-07-28,2023-07-28,合同会社フードパラダイス,,合同会社,大阪府,枚方市,長尾元町７丁目５５番１号,,27,210,5730163,,,,,,,2023-07-28,1,,,,,フードパラダイス,0
162,1120003024586,新規,0,2023-07-28,2023-07-28,合同会社Ｏｐｌｉｇｅｎｃｅ,,合同会社,大阪府,大阪市北区,梅田１丁目２番２号大阪駅前第２ビル１２‐１２,,27,127,5300001,,,,,,,2023-07-28,1,,,,,オプリジェンス,0
170,1122001037198,新規,0,2023-07-28,2023-07-28,ＢＥ　ＳＰＡＣＩＥＳ株式会社,,株式会社,大阪府,東大阪市,長田中１丁目４番１７号長田センタービル１階１０３号,,27,227,5770013,,,,,,,2023-07-28,1,,,,,ビースペイシーズ,0
172,1130003008869,新規,0,2023-07-28,2023-07-28,合同会社ひととき・らぼ,,合同会社,京都府,京都市下京区,中堂寺前田町１０番地９,,26,106,6008804,,,,,,,2023-07-28,1,,,,,ヒトトキラボ,0
177,1140003019353,新規,0,2023-07-28,2023-07-28,合同会社フローリッシュ,,合同会社,兵庫県,たつの市,神岡町寄井１４４番地５,,28,229,6794114,,,,,,,2023-07-28,1,,,,,フローリッシュ,0
178,1140003019361,新規,0,2023-07-28,2023-07-28,合同会社青空,,合同会社,兵庫県,姫路市,城東町竹之門１２番地京口ハイツ２０５,,28,201,6700848,,,,,,,2023-07-28,1,,,,,アオゾラ,0
183,1160003002943,新規,0,2023-07-28,2023-07-28,合同会社グラテス,,合同会社,滋賀県,大津市,一里山４丁目２０番６号,,25,201,5202153,,,,,,,2023-07-28,1,,,,,グラテス,0
187,1180001157325,新規,0,2023-07-28,2023-07-28,株式会社八事リンカネット,,株式会社,愛知県,名古屋市昭和区,八事本町７８番地八事山興正寺普照殿内,,23,107,4660825,,,,,,,2023-07-28,1,,,,,ヤゴトリンカネット,0
188,1180001157333,新規,0,2023-07-28,2023-07-28,株式会社タケヒロマテリアル,,株式会社,愛知県,名古屋市中区,松原２丁目２番２５号,,23,106,4600017,,,,,,,2023-07-28,1,,,,,タケヒロマテリアル,0
200,1200001041534,新規,0,2023-07-28,2023-07-28,株式会社立涛,,株式会社,岐阜県,羽島市,福寿町平方２丁目２３番地,,21,209,5016257,,,,,,,2023-07-28,1,,,,,タツナミ,0
209,1230001019932,新規,0,2023-07-28,2023-07-28,広進産業株式会社,,株式会社,富山県,富山市,婦中町河原町２５３,,16,201,9392605,,,,,,,2023-07-28,1,,,,,コウシンサンギョウ,0
219,1290001102427,新規,0,2023-07-28,2023-07-28,ｅ‐ＪＡＰＡＮ株式会社,,株式会社,福岡県,久留米市,東合川７丁目４番地１６,,40,203,8390809,,,,,,,2023-07-28,1,,,,,イージャパン,0
222,1290003014166,新規,0,2023-07-28,2023-07-28,Ｓ．Ｈ．Ｕ合同会社,,合同会社,福岡県,太宰府市,観世音寺１丁目１８番２７号,,40,221,8180101,,,,,,,2023-07-28,1,,,,,エスエイチユー,0
225,1340001025754,新規,0,2023-07-28,2023-07-28,株式会社はえのリゾートインターナショナル,,株式会社,鹿児島県,西之表市,安納３７８２番地,,46,213,8913202,,,,,,,2023-07-28,1,,,,,ハエノリゾートインターナショナル,0
229,1350001018468,新規,0,2023-07-28,2023-07-28,株式会社ＴＯＫＩ電工,,株式会社,宮崎県,宮崎市,大字鏡洲３１４１番地,,45,201,8892156,,,,,,,2023-07-28,1,,,,,トキデンコウ,0
233,1360001032344,新規,0,2023-07-28,2023-07-28,沖縄銀嶺株式会社,,株式会社,沖縄県,島尻郡与那原町,字与那原８２１番地２階,,47,348,9011303,,,,,,,2023-07-28,1,,,,,オキナワギンレイ,0
235,1370001050221,新規,0,2023-07-28,2023-07-28,株式会社ＰＣＣ,,株式会社,宮城県,仙台市宮城野区,原町３丁目３番３１号,,04,102,9830841,,,,,,,2023-07-28,1,,,,,ピーシーシー,0
256,1430001089559,新規,0,2023-07-28,2023-07-28,株式会社門馬設備,,株式会社,北海道,札幌市厚別区,厚別中央三条５丁目３番９号,,01,108,0040053,,,,,,,2023-07-28,1,,,,,モンマセツビ,0
268,1700150118644,新規,0,2023-07-28,2023-07-28,ＨＩＤＩＺＳ　ＴＥＣＨＮＯＬＯＧＹ　ＣＯＭＰＡＮＹ　ＬＩＭＩＴＥＤ,,外国会社等,,,,,,,,ＦＬＡＴ／ＲＭ　２３０６　２３／Ｆ　ＰＲＯＳＰＥＲ　ＣＯＭＭＥＲＣＩＡＬ　ＢＵＩＬＤＩＮＧ　９　ＹＩＮ　ＣＨＯＮＧ　ＳＴＲＥＥＴ　ＣＯＷＬＯＯＮ　ＭＯＮＧＫＯＫ　ＨＫ　９９９０７７,,,,,,2023-07-28,1,,,,,ヒディズテクノロジーカンパニーリミテッド,0
269,1700150118652,新規,0,2023-07-28,2023-07-28,Ｓｈｅｎｚｈｅｎ　Ｎｅｗ　Ｌａｎｄ　Ｔｒａｄｉｎｇ　Ｃｏ．，Ｌｔｄ．,,外国会社等,,,,,,,,Ｒｏｏｍ　１０１－０５，Ｂｕｉｌｄｉｎｇ　１，Ｇａｏｌｉｔｅ　Ｚｅｒｏ　Ｃａｒｂｏｎ　Ｓｍａｒｔ　Ｐａｒｋ　Ｎｏ．９　Ｈｕａｎｃｈｅｎｇ　Ｓｏｕｔｈ　Ｒｄ．Ｍａ’ａｎｔａｎｇ　Ｃｏｍｍｕｎｉｔｙ，Ｂａｎｔｉａｎ　Ｓｔ．Ｌｏｎｇｇａｎｇ　Ｄｉｓｔｒｉｃｔ，Ｓｈｅｎｚｈｅｎ　ｇｕａｎｇｄｏｎｇ　５１８１２９　ＣＮ,,,,,,2023-07-28,1,,,,,シェンジェンシシンルマオイーヨウシェンゴンスー,0
270,1700150118660,新規,0,2023-07-28,2023-07-28,Ｓｈｅｎｚｈｅｎ　Ｊｉｎｇａｎｄａ　Ｔｅｃｈｎｏｌｏｇｙ　Ｃｏ．，Ｌｔｄ．,,外国会社等,,,,,,,,７２１，Ｆｅｎｇｔａｉｌｏｕ，Ｈｕａｍｅｉｊｕ　Ｄｑｕ，Ｈａｉｙｕｓｈｅｑｕ　８２，Ｘｉｎａｎ　Ｓｔｒｅｅｔ，Ｂａｏａｎ　Ｄｉｓｔｒｉｃｔ　Ｓｈｅｎｚｈｅｎ　Ｇｕａｎｇｄｏｎｇ　５１８１００ＣＮ,,,,,,2023-07-28,1,,,,,シンセンジンアンダテクノロジーカンパニーリミテッド,0
271,1700150118669,新規,0,2023-07-28,2023-07-28,Ｂｈｏｌｅ　Ｂａｂａ　Ｔｒａｄｅｒｓ,,外国会社等,東京都,豊島区,上池袋２丁目３５番５号仙山荘１０２号,,13,116,1700012,ネパール、チトワン、バラトプル副都心の４,,,,,,2023-07-28,1,,,,,ボレババトレーダーズ,0
282,2010001236961,新規,0,2023-07-28,2023-07-28,インフォメット株式会社,,株式会社,東京都,中央区,日本橋兜町１７番１号日本橋ロイヤルプラザ７０６,,13,102,1030026,,,,,,,2023-07-28,1,,,,,インフォメット,0
283,2010001237167,新規,0,2023-07-28,2023-07-28,株式会社Ｙｕコーポレーション,,株式会社,東京都,千代田区,神田三崎町３丁目３番３号太陽ビル４０４号,,13,101,1010061,,,,,,,2023-07-28,1,,,,,ワイユーコーポレーション,0
284,2010001237191,新規,0,2023-07-28,2023-07-28,株式会社きゅうりトマトなすび,,株式会社,東京都,文京区,本郷５丁目１番１１号ＫＩＩＨＯＵＳＥ２０２,,13,105,1130033,,,,,,,2023-07-28,1,,,,,キュウリトマトナスビ,0
285,2010001237200,新規,0,2023-07-28,2023-07-28,株式会社ＢＯＤ,,株式会社,東京都,八丈島八丈町,三根７０１０番地２,,13,401,1001511,,,,,,,2023-07-28,1,,,,,ビーオーディー,0
286,2010001237225,新規,0,2023-07-28,2023-07-28,ゲンセイ科学株式会社,,株式会社,東京都,中央区,銀座８丁目１５番１０号８１２号,,13,102,1040061,,,,,,,2023-07-28,1,,,,,ゲンセイカガク,0
293,2010003041138,新規,0,2023-07-28,2023-07-28,ＣＲＹＳＴＡＬ　ＢＵＬＬＳ合同会社,,合同会社,東京都,中央区,勝どき３丁目１３番２－１００８号,,13,102,1040054,,,,,,,2023-07-28,1,,,,,クリスタルブルズ,0
297,2010005036994,新規,0,2023-07-28,2023-07-28,一般社団法人オークパートナーズ,,その他の設立登記法人,東京都,千代田区,紀尾井町４番１号ニューオータニガーデンコート８階エクラコンサルティング内,,13,101,1020094,,,,,,,2023-07-28,1,,,,,オークパートナーズ,0
298,2010005037010,新規,0,2023-07-28,2023-07-28,Ａｃａｃｉａ特定目的会社,,その他の設立登記法人,東京都,中央区,日本橋１丁目４番１号,,13,102,1030027,,,,,,,2023-07-28,1,,,,,アカシア,0
299,2010005037019,新規,0,2023-07-28,2023-07-28,高槻ロジスティクス特定目的会社,,その他の設立登記法人,東京都,中央区,日本橋１丁目４番１号,,13,102,1030027,,,,,,,2023-07-28,1,,,,,タカツキロジスティクス,0
307,2010403030599,新規,0,2023-07-28,2023-07-28,唐花合同会社,,合同会社,東京都,港区,西新橋１丁目１番１号ＥＰコンサルティングサービス内,,13,103,1050003,,,,,,,2023-07-28,1,,,,,カラハナ,0
311,2010601063500,新規,0,2023-07-28,2023-07-28,泰礼株式会社,,株式会社,東京都,墨田区,横川３丁目６番７号３－Ｆ室,,13,107,1300003,,,,,,,2023-07-28,1,,,,,タイレイ,0
315,2010801034185,新規,0,2023-07-28,2023-07-28,長谷川電設株式会社,,株式会社,東京都,大田区,東糀谷４丁目２番４－４０６号,,13,111,1440033,,,,,,,2023-07-28,1,,,,,ハセガワデンセツ,0
325,2011001155929,新規,0,2023-07-28,2023-07-28,おいしいホールディングス株式会社,,株式会社,東京都,渋谷区,上原１丁目３５番３号２－Ｃ,,13,113,1510064,,,,,,,2023-07-28,1,,,,,オイシイホールディングス,0
326,2011001155937,新規,0,2023-07-28,2023-07-28,株式会社ＲａｙＬｉｎｅ,,株式会社,東京都,目黒区,駒場１丁目１８番４号ドルチェ駒場２０１,,13,110,1530041,,,,,,,2023-07-28,1,,,,,レイライン,0
327,2011001155945,新規,0,2023-07-28,2023-07-28,株式会社Ｍｉｓｔｙ　Ｆｉｌｍ,,株式会社,東京都,渋谷区,神宮前６丁目２３番４号桑野ビル２階,,13,113,1500001,,,,,,,2023-07-28,1,,,,,ミスティーフィルム,0
328,2011001155953,新規,0,2023-07-28,2023-07-28,株式会社Ｂｉｔｒｕｓｔ,,株式会社,東京都,渋谷区,道玄坂１丁目１６－６二葉ビル８ｂ,,13,113,1500043,,,,,,,2023-07-28,1,,,,,ビットラスト,0
330,2011003017103,新規,0,2023-07-28,2023-07-28,合同会社ｊｉｙｕｇａｏｋａ　ｒｏａｓｔｅｒｙ,,合同会社,東京都,目黒区,自由が丘１丁目２６番１４号オクズミビル４Ｆ,,13,110,1520035,,,,,,,2023-07-28,1,,,,,ジユウガオカロースタリー,0
331,2011003017210,新規,0,2023-07-28,2023-07-28,合同会社Ｃｏｇｉｔａｓ,,合同会社,東京都,目黒区,碑文谷５丁目２番５号,,13,110,1520003,,,,,,,2023-07-28,1,,,,,コギタス,0
334,2011101103779,新規,0,2023-07-28,2023-07-28,しんくう株式会社,,株式会社,東京都,新宿区,西新宿３丁目３番１３号西新宿水間ビル６階,,13,104,1600023,,,,,,,2023-07-28,1,,,,,シンクウ,0
335,2011101103787,新規,0,2023-07-28,2023-07-28,株式会社ＲＥＮコーポレーション,,株式会社,東京都,新宿区,西新宿６丁目１５番１－３０１３号,,13,104,1600023,,,,,,,2023-07-28,1,,,,,レンコーポレーション,0
339,2011403004064,新規,0,2023-07-28,2023-07-28,合同会社邦光商事,,合同会社,東京都,板橋区,前野町２丁目３６－６Ｂｒｉｌｌｉａときわ台ソライエレジデンス１２０１号,,13,119,1740063,,,,,,,2023-07-28,1,,,,,クニミツショウジ,0
352,2013301051114,新規,0,2023-07-28,2023-07-28,株式会社Ｇｒｅｅｎ　ｔｅａ,,株式会社,東京都,豊島区,東池袋１丁目３３番４号,,13,116,1700013,,,,,,,2023-07-28,1,,,,,,0
359,2020001152547,新規,0,2023-07-28,2023-07-28,Ａｌｐａｎａ株式会社,,株式会社,神奈川県,横浜市中区,日本大通７,,14,104,2310021,,,,,,,2023-07-28,1,,,,,アルパーナ,0
360,2020001152712,新規,0,2023-07-28,2023-07-28,株式会社ａプラス,,株式会社,神奈川県,横浜市旭区,今宿西町１５７番地１０,,14,112,2410031,,,,,,,2023-07-28,1,,,,,エープラス,0
361,2020001152720,新規,0,2023-07-28,2023-07-28,株式会社丸山博之,,株式会社,神奈川県,横浜市南区,中島町１丁目１８番地１,,14,105,2320055,,,,,,,2023-07-28,1,,,,,マルヤマヒロユキ,0
365,2020003024265,新規,0,2023-07-28,2023-07-28,合同会社ＭＤＰ,,合同会社,神奈川県,横浜市青葉区,大場町２３１－８５,,14,117,2250023,,,,,,,2023-07-28,1,,,,,エムディピィ,0
373,2030001155020,新規,0,2023-07-28,2023-07-28,株式会社鳥酒,,株式会社,埼玉県,さいたま市大宮区,宮町１丁目９９番地３Ｌ．Ｈ大宮ビル７階,,11,103,3300802,,,,,,,2023-07-28,1,,,,,トリシュ,0
374,2030001155078,新規,0,2023-07-28,2023-07-28,株式会社ｍｉｉｒｅ,,株式会社,埼玉県,所沢市,大字山口１０４３番地の７,,11,208,3591145,,,,,,,2023-07-28,1,,,,,ミーレ,0
375,2030001155111,新規,0,2023-07-28,2023-07-28,株式会社つむぎ積算,,株式会社,埼玉県,八潮市,大瀬３丁目５番地２３,,11,234,3400822,,,,,,,2023-07-28,1,,,,,ツムギセキサン,0
381,2030003022152,新規,0,2023-07-28,2023-07-28,合同会社ＳＫＩ,,合同会社,埼玉県,さいたま市桜区,栄和６丁目３番２７号,,11,106,3380823,,,,,,,2023-07-28,1,,,,,スカイ,0
382,2030003022227,新規,0,2023-07-28,2023-07-28,合同会社ＨＩＫＡＲＩ,,合同会社,埼玉県,坂戸市,南町３４番７号ＫＩＶオフィス南町Ｅ号室,,11,239,3500233,,,,,,,2023-07-28,1,,,,,ヒカリ,0
390,2040001129403,新規,0,2023-07-28,2023-07-28,言和株式会社,,株式会社,千葉県,東金市,堀之内５２７番地５－１０１,,12,213,2830027,,,,,,,2023-07-28,1,,,,,ゲンワ,0
396,2040003023018,新規,0,2023-07-28,2023-07-28,合同会社感謝,,合同会社,千葉県,船橋市,二子町６２７番地１９ジュネパレス船橋第１９－１０３号,,12,204,2730034,,,,,,,2023-07-28,1,,,,,カンシャ,0
397,2040005022091,新規,0,2023-07-28,2023-07-28,土地家屋調査士法人松本中村事務所,,その他の設立登記法人,千葉県,松戸市,幸田３丁目１４２番地３,,12,207,2700001,,,,,,,2023-07-28,1,,,,,マツモトナカムラジムショ,0
400,2050001053206,新規,0,2023-07-28,2023-07-28,株式会社針谷,,株式会社,茨城県,坂東市,沓掛６０３７番地２,,08,228,3060515,,,,,,,2023-07-28,1,,,,,ハリヤ,0
402,2050003007671,新規,0,2023-07-28,2023-07-28,ＵＳ　ｉｎｔｅｒｎａｔｉｏｎａｌ合同会社,,合同会社,茨城県,坂東市,岩井４４０８－１ベルハイムＩＩ２０６,00131306,08,228,3060631,,,,,,,2023-07-28,1,,,,,ユーエスインターナショナル,0
403,2050005013305,新規,0,2023-07-28,2023-07-28,一般社団法人プロムランシー,,その他の設立登記法人,茨城県,鹿嶋市,大字林５３５番地３サニーハウス１０２号,,08,222,3112223,,,,,,,2023-07-28,1,,,,,,0
412,2080401026618,新規,0,2023-07-28,2023-07-28,株式会社Ｋ‐ＮＥＸＴ,,株式会社,静岡県,浜松市北区,引佐町奥山３０６番地の１,,22,135,4312224,,,,,,,2023-07-28,1,,,,,ケーネクスト,0
433,2120001256718,新規,0,2023-07-28,2023-07-28,大喜設計株式会社,,株式会社,大阪府,守口市,高瀬町３丁目１番４号,,27,209,5700053,,,,,,,2023-07-28,1,,,,,ダイキセッケイ,0
434,2120001256817,新規,0,2023-07-28,2023-07-28,株式会社Ｍｕｅｌｌ,,株式会社,大阪府,交野市,倉治８丁目５８番６号,,27,230,5760051,,,,,,,2023-07-28,1,,,,,ムエル,0
435,2120001256841,新規,0,2023-07-28,2023-07-28,株式会社エムアンドエムケア,,株式会社,大阪府,大阪市生野区,巽西３丁目４番１６号サンモール巽西１０２号室,00131314,27,116,5440012,,,,,,,2023-07-28,1,,,,,エムアンドエムケア,0
440,2120003024577,新規,0,2023-07-28,2023-07-28,合同会社ＳＫＤ,,合同会社,大阪府,大阪市西成区,南津守４丁目１－６９－４,,27,122,5570063,,,,,,,2023-07-28,1,,,,,エスケイディ,0
441,2120003024585,新規,0,2023-07-28,2023-07-28,合同会社Ｍ,,合同会社,大阪府,大阪市北区,梅田１丁目２番２号大阪駅前第２ビル１２－１２,,27,127,5300001,,,,,,,2023-07-28,1,,,,,エム,0
445,2120005023783,新規,0,2023-07-28,2023-07-28,医療法人ポピー,,その他の設立登記法人,大阪府,大阪市北区,芝田２丁目７番１８号ルーシッドスクエア梅田８０６号,,27,127,5300012,,,,,,,2023-07-28,1,,,,,ポピー,0
454,2122001037189,新規,0,2023-07-28,2023-07-28,株式会社Ｅｎｄｌｅｓｓ　Ｌｕｘｅ,,株式会社,大阪府,八尾市,安中町３丁目２番６７－１２０２号,,27,212,5810085,,,,,,,2023-07-28,1,,,,,エンドレスリュクス,0
458,2130001074805,新規,0,2023-07-28,2023-07-28,株式会社エバーグリーン京都,,株式会社,京都府,京都市南区,東九条南河原町１４,,26,107,6018013,,,,,,,2023-07-28,1,,,,,エバーグリーンキョウト,0
461,2130003008884,新規,0,2023-07-28,2023-07-28,ＣＨＥＬＥＴ合同会社,,合同会社,京都府,京都市中京区,二条通富小路東入晴明町６７３番地１,,26,104,6040951,,,,,,,2023-07-28,1,,,,,チェレット,0
467,2140001130978,新規,0,2023-07-28,2023-07-28,株式会社Ｏ・Ｇ・Ｗ,,株式会社,兵庫県,神戸市西区,伊川谷町有瀬１５１２番地６,,28,111,6512113,,,,,,,2023-07-28,1,,,,,オージーダブリュ,0
474,2140003019360,新規,0,2023-07-28,2023-07-28,合同会社Ａｒｕ,,合同会社,兵庫県,西宮市,城山６番１７－２０２号,,28,204,6620023,,,,,,,2023-07-28,1,,,,,エーアールユー,0
482,2180001157316,新規,0,2023-07-28,2023-07-28,株式会社ＲＥＩ,,株式会社,愛知県,岩倉市,大地町西町畑１－１－７０２,,23,228,4820026,,,,,,,2023-07-28,1,,,,,レイ,0
483,2180001157324,新規,0,2023-07-28,2023-07-28,株式会社オーシャンインベストメント,,株式会社,愛知県,春日井市,押沢台７丁目１２番地２１,,23,206,4870005,,,,,,,2023-07-28,1,,,,,オーシャンインベストメント,0
491,2200001041533,新規,0,2023-07-28,2023-07-28,株式会社ＬｉｅｍＰｉａ,,株式会社,岐阜県,岐阜市,福光東２丁目３番２－３０１号,,21,201,5020813,,,,,,,2023-07-28,1,,,,,リエンピア,0
498,2240001061874,新規,0,2023-07-28,2023-07-28,株式会社まあせん,,株式会社,広島県,福山市,東川口町４丁目５番２８－２０４号,,34,207,7200821,,,,,,,2023-07-28,1,,,,,マアセン,0
501,2240003006241,新規,0,2023-07-28,2023-07-28,合同会社瀬川,,合同会社,広島県,広島市安佐南区,伴南１丁目５番３０－１４－４０３号,,34,105,7313168,,,,,,,2023-07-28,1,,,,,セガワ,0
502,2240005015620,新規,0,2023-07-28,2023-07-28,一般社団法人美容医療技術研究学会,,その他の設立登記法人,広島県,広島市中区,大手町２丁目１番６号,,34,101,7300051,,,,,,,2023-07-28,1,,,,,ビヨウイリョウギジュツケンキュウガッカイ,0
507,2250003003312,新規,0,2023-07-28,2023-07-28,合同会社坂本印刷,,合同会社,山口県,熊毛郡田布施町,大字波野３３４番地１,,35,343,7421502,,,,,,,2023-07-28,1,,,,,サカモトインサツ,0
515,2290005019096,新規,0,2023-07-28,2023-07-28,一般社団法人センスオブネイチャー,,その他の設立登記法人,福岡県,糸島市,二丈上深江９０番地,,40,230,8191621,,,,,,,2023-07-28,1,,,,,センスオブネイチャー,0
519,2300001013398,新規,0,2023-07-28,2023-07-28,株式会社山崎金物店,00131308,株式会社,佐賀県,西松浦郡有田町,本町丙１０３９番地,,41,401,8440018,,,,,,,2023-07-28,1,,,,,ヤマサキカナモノテン,0
523,2330005010678,新規,0,2023-07-28,2023-07-28,一般社団法人しえのす,,その他の設立登記法人,熊本県,熊本市中央区,花畑町１番１４号Ａ＆Ｍ　ＨＡＮＡＢＡＴＡ３０１号,,43,101,8600806,,,,,,,2023-07-28,1,,,,,シエノス,0
535,2370003006220,新規,0,2023-07-28,2023-07-28,ランドレント合同会社,,合同会社,宮城県,石巻市,鹿又字内田１５１番地１,,04,202,9861111,,,,,,,2023-07-28,1,,,,,ランドレント,0
559,2700150118651,新規,0,2023-07-28,2023-07-28,Ｓｈｅｎｚｈｅｎ　ｓｉｔａｄｅ　Ｔｅｃｈｎｏｌｏｇｙ　Ｃｏ．，Ｌｔｄ,,外国会社等,,,,,,,,Ｒｏｗ　１，Ｘｉｎｗｅｉ　Ｎｅｗ　Ｖｉｌｌａｇｅ，Ｘｉｎｚｈｕａｎｇ　Ｃｏｍｍｕｎｉｔｙ，Ｍａｔｉａｎ　Ｓｔｒｅｅｔ，Ｇｕａｎｇｍｉｎｇ　Ｄｉｓｔｒｉｃｔ，Ｓｈｅｎｚｈｅｎ　Ｓｈｅｎｚｈｅｎ　Ｇｕａｎｇｄｏｎｇ　Ｐｒｏｖｉｎｃｅ　５１８０００　ＣＮ,,,,,,2023-07-28,1,,,,,シェンジェンスーダーダカージヨウシェンゴンスー,0
565,3010001237158,新規,0,2023-07-28,2023-07-28,株式会社Ｍｉｒａｃｈ,,株式会社,東京都,文京区,小日向１丁目１０－１０ルマ小日向２０１,,13,105,1120006,,,,,,,2023-07-28,1,,,,,ミラク,0
566,3010001237182,新規,0,2023-07-28,2023-07-28,株式会社Ｅ＆Ｊ,,株式会社,東京都,中央区,月島２丁目１０番１－３４１１号,,13,102,1040052,,,,,,,2023-07-28,1,,,,,イーアンドジェイ,0
567,3010001237208,新規,0,2023-07-28,2023-07-28,ともいきｅ‐ｆｕｅｌ株式会社,,株式会社,東京都,千代田区,麹町５丁目３番地,,13,101,1020083,,,,,,,2023-07-28,1,,,,,トモイキイーフューエル,0
568,3010001237257,新規,0,2023-07-28,2023-07-28,晴海コンサルティング株式会社,,株式会社,東京都,中央区,晴海２丁目３－２－４５１６,,13,102,1040053,,,,,,,2023-07-28,1,,,,,ハルミコンサルティング,0
570,3010003041211,新規,0,2023-07-28,2023-07-28,ＧＡＭＥ　ＣＨＡＮＧＥＲＳ合同会社,,合同会社,東京都,中央区,銀座５丁目１５番１号南海東京ビルディングＢ１Ｆ,,13,102,1040061,,,,,,,2023-07-28,1,,,,,ゲームチェンジャーズ,0
571,3010101015744,新規,0,2023-07-28,2023-07-28,株式会社ＳＴＡＲＴ,,株式会社,東京都,八王子市,東町１２番８号長澤ビル,,13,201,1920082,,,,,,,2023-07-28,1,,,,,スタート,0
575,3010401175775,新規,0,2023-07-28,2023-07-28,Ｐａｒｑｕｅ　ｔｉｍｅ株式会社,,株式会社,東京都,港区,南青山１丁目２４番３号１Ｆ,,13,103,1070062,,,,,,,2023-07-28,1,,,,,パルケタイム,0
576,3010401176022,新規,0,2023-07-28,2023-07-28,株式会社エンタメイク,,株式会社,東京都,港区,白金３丁目１番１３号日恵ビル２階,,13,103,1080072,,,,,,,2023-07-28,1,,,,,エンタメイク,0
598,3010901053522,新規,0,2023-07-28,2023-07-28,株式会社Ｆ４０１,,株式会社,東京都,世田谷区,上野毛４丁目４番１７－３２１号,,13,112,1580093,,,,,,,2023-07-28,1,,,,,エフヨンマルイチ,0
603,3011001155928,新規,0,2023-07-28,2023-07-28,株式会社ｕｓｅｆｕｌ,,株式会社,東京都,渋谷区,恵比寿西２丁目６番１１号川上ビル５階,,13,113,1500021,,,,,,,2023-07-28,1,,,,,ユースフル,0
604,3011001155944,新規,0,2023-07-28,2023-07-28,株式会社ＴＡＳ,,株式会社,東京都,渋谷区,神宮前６丁目２８番９号東武ビル６Ｆ,,13,113,1500001,,,,,,,2023-07-28,1,,,,,タス,0
605,3011001155960,新規,0,2023-07-28,2023-07-28,株式会社ファブランス,,株式会社,東京都,目黒区,緑が丘２丁目２－２０,,13,110,1520034,,,,,,,2023-07-28,1,,,,,ファブランス,0
606,3011003017259,新規,0,2023-07-28,2023-07-28,Ｎｅｋａ合同会社,,合同会社,東京都,渋谷区,幡ヶ谷３丁目３９番１２号渋谷ウェストビル１階,,13,113,1510072,,,,,,,2023-07-28,1,,,,,ネカ,0
613,3011401025318,新規,0,2023-07-28,2023-07-28,新日本塗装株式会社,,株式会社,東京都,板橋区,中台１丁目４７番２８－１０２号,,13,119,1740064,,,,,,,2023-07-28,1,,,,,シンニホントソウ,0
619,3011503005696,新規,0,2023-07-28,2023-07-28,ＨＭＴ合同会社,,合同会社,東京都,北区,東田端１丁目７番７－３０２号安居ビル,,13,117,1140013,,,,,,,2023-07-28,1,,,,,エイチエムティー,0
623,3012301013536,新規,0,2023-07-28,2023-07-28,株式会社Ｙ・Ｓプランニング,,株式会社,東京都,町田市,下小山田町２９０４番地１,,13,209,1940202,,,,,,,2023-07-28,1,,,,,ワイエスプランニング,0
624,3012303001852,新規,0,2023-07-28,2023-07-28,合同会社ＬａＯｈａｎａ,,合同会社,東京都,町田市,西成瀬１丁目１７－３２－１０３,,13,209,1940046,,,,,,,2023-07-28,1,,,,,ラオハナ,0
630,3013301051096,新規,0,2023-07-28,2023-07-28,至善国際株式会社,,株式会社,東京都,豊島区,池袋１丁目１６番２０号ユニーブル池袋リ・ノヴァス８０２号,,13,116,1700014,,,,,,,2023-07-28,1,,,,,シゼンコクサイ,0
631,3013301051113,新規,0,2023-07-28,2023-07-28,株式会社ＴＨＥ．ＭＡＸ,,株式会社,東京都,豊島区,東池袋２丁目６３番１,,13,116,1700013,,,,,,,2023-07-28,1,,,,,ザマックス,0
636,3020001152604,新規,0,2023-07-28,2023-07-28,株式会社スミック,,株式会社,神奈川県,横浜市保土ケ谷区,峰岡町３丁目４０６番地９９,,14,106,2400064,,,,,,,2023-07-28,1,,,,,スミック,0
637,3020001152637,新規,0,2023-07-28,2023-07-28,株式会社ＨＢＣ,,株式会社,神奈川県,横浜市神奈川区,神奈川２丁目１１番地２１マーベラスビュー東神奈川７０２号,,14,102,2210045,,,,,,,2023-07-28,1,,,,,エイチビーシー,0
638,3020001152728,新規,0,2023-07-28,2023-07-28,株式会社ＫＲ商会,,株式会社,神奈川県,横浜市中区,福富町西通３－１３,,14,104,2310042,,,,,,,2023-07-28,1,,,,,ケーアールショウカイ,0
639,3020003024297,新規,0,2023-07-28,2023-07-28,合同会社ＵＲＡＲＡ,,合同会社,神奈川県,横浜市戸塚区,名瀬町５２―１ＮＩＣライブステイツ戸塚ガーデン１０２号,,14,110,2450051,,,,,,,2023-07-28,1,,,,,ウララ,0
640,3021001079696,新規,0,2023-07-28,2023-07-28,新東方技術株式会社,,株式会社,神奈川県,相模原市南区,上鶴間本町９丁目４３番１０－１号,,14,153,2520318,,,,,,,2023-07-28,1,,,,,シントウホウギジュツ,0
641,3021001079713,新規,0,2023-07-28,2023-07-28,株式会社エルマイ・ジャパン,,株式会社,神奈川県,鎌倉市,扇ガ谷１丁目６番３号,,14,204,2480011,,,,,,,2023-07-28,1,,,,,エルマイジャパン,0
642,3021003013356,新規,0,2023-07-28,2023-07-28,よしふみ工房合同会社,,合同会社,神奈川県,逗子市,小坪１丁目１２番３６号リバティ逗子１０２号,,14,208,2490008,,,,,,,2023-07-28,1,,,,,ヨシフミコウボウ,0
650,3030001155011,新規,0,2023-07-28,2023-07-28,石田不動産株式会社,,株式会社,埼玉県,新座市,栗原２丁目４番１５－３０９号,,11,230,3520035,,,,,,,2023-07-28,1,,,,,イシダフドウサン,0
651,3030001155044,新規,0,2023-07-28,2023-07-28,株式会社ＳａｋａｍｏｔｏＰｌａｎｎｉｎｇ,,株式会社,埼玉県,入間市,東藤沢８丁目３７番５号,,11,225,3580012,,,,,,,2023-07-28,1,,,,,サカモトプランニング,0
652,3030001155077,新規,0,2023-07-28,2023-07-28,株式会社Ｓ‐ｃｏｍｐａｎｙ,,株式会社,埼玉県,八潮市,大字二丁目２３２番地２－２０１,,11,234,3400811,,,,,,,2023-07-28,1,,,,,エスカンパニー,0
653,3030001155093,新規,0,2023-07-28,2023-07-28,株式会社ケイユ,,株式会社,埼玉県,八潮市,大字伊勢野３９０番地,,11,234,3400821,,,,,,,2023-07-28,1,,,,,ケイユ,0
654,3030001155135,新規,0,2023-07-28,2023-07-28,株式会社ＰＲＩＤＥ,,株式会社,埼玉県,春日部市,大枝５０６番地２－２０２,,11,214,3440023,,,,,,,2023-07-28,1,,,,,プライド,0
667,3040005022074,新規,0,2023-07-28,2023-07-28,一般社団法人東京湾北部協議会,,その他の設立登記法人,千葉県,船橋市,湊町３丁目１６番１号（東京湾船橋北部底曳組合内）,,12,204,2730011,,,,,,,2023-07-28,1,,,,,トウキョウワンホクブキョウギカイ,0
672,3050001053213,新規,0,2023-07-28,2023-07-28,株式会社ＮＧＭＹ,,株式会社,茨城県,守谷市,立沢２０４７番地４,,08,224,3020118,,,,,,,2023-07-28,1,,,,,エヌジーエムワイ,0
691,3110001037663,新規,0,2023-07-28,2023-07-28,株式会社ナガイホールディングス,,株式会社,新潟県,長岡市,浦６３６４番地第５,,15,202,9495406,,,,,,,2023-07-28,1,,,,,ナガイホールディングス,0
699,3120001256824,新規,0,2023-07-28,2023-07-28,ＹＯＪＩＧＥＮ株式会社,,株式会社,大阪府,大阪市福島区,福島７丁目１－１０ＷｉＺｆｕｋｕｓｈｉｍａ２階,,27,103,5530003,,,,,,,2023-07-28,1,,,,,ヨジゲン,0
703,3120003024584,新規,0,2023-07-28,2023-07-28,ＢｉｒｄＣｒｏｓｓＯｖｅｒ合同会社,,合同会社,大阪府,大阪市東淀川区,東中島１丁目１７番５号ステュディオ新大阪８０６号,,27,114,5330033,,,,,,,2023-07-28,1,,,,,バードクロスオーバー,0
705,3120005023782,新規,0,2023-07-28,2023-07-28,一般社団法人美弥香会,,その他の設立登記法人,大阪府,大阪市中央区,南船場４丁目５番８号ラスターオン心斎橋２階,,27,128,5420081,,,,,,,2023-07-28,1,,,,,ミヤカカイ,0
711,3130001074820,新規,0,2023-07-28,2023-07-28,株式会社ＥＳＳＥ,,株式会社,京都府,宇治市,小倉町南浦６－２１,,26,204,6110042,,,,,,,2023-07-28,1,,,,,エッセ,0
712,3140001131042,新規,0,2023-07-28,2023-07-28,バイオメディカラー株式会社,,株式会社,兵庫県,南あわじ市,神代國衙１５７１番地１,,28,224,6560455,,,,,,,2023-07-28,1,,,,,バイオメディカラー,0
720,3160001025218,新規,0,2023-07-28,2023-07-28,株式会社ＭＪ滋賀,,株式会社,滋賀県,犬上郡多賀町,大字四手字諏訪５１０番の１０,,25,443,5220314,,,,,,,2023-07-28,1,,,,,エムジェイシガ,0
728,3180001157224,新規,0,2023-07-28,2023-07-28,株式会社岸プロ,,株式会社,愛知県,名古屋市中村区,名駅４丁目２４番５号第２森ビル４０１,,23,105,4500002,,,,,,,2023-07-28,1,,,,,キシプロ,0
729,3180001157331,新規,0,2023-07-28,2023-07-28,株式会社ＣＪＳ＆Ｓ　ＪＡＰＡＮ,,株式会社,愛知県,名古屋市中区,栄５丁目６－１１ヴィラウエストＢ１,,23,106,4600008,,,,,,,2023-07-28,1,,,,,シージェイエスアンドエスジャパン,0
730,3180001157348,新規,0,2023-07-28,2023-07-28,株式会社ＡＭＩ,,株式会社,愛知県,名古屋市北区,桐畑町２番地,,23,103,4620003,,,,,,,2023-07-28,1,,,,,エーエムアイ,0
738,3200001041532,新規,0,2023-07-28,2023-07-28,株式会社Ｈ＆Ｄ,,株式会社,岐阜県,可児市,下恵土５７６３－１,,21,214,5090203,,,,,,,2023-07-28,1,,,,,エイチアンドディ,0
750,3250003003311,新規,0,2023-07-28,2023-07-28,合同会社ＬＩＮＫ,,合同会社,山口県,下関市,大字蒲生野９５８‐４,,35,201,7596602,,,,,,,2023-07-28,1,,,,,リンク,0
764,3290001102433,新規,0,2023-07-28,2023-07-28,株式会社松野工務店,,株式会社,福岡県,福岡市博多区,吉塚１丁目３６番１０－３０３号,,40,132,8120041,,,,,,,2023-07-28,1,,,,,マツノコウムテン,0
765,3290801029735,新規,0,2023-07-28,2023-07-28,ＳＥＣＯＮＤ　ＲＯＵＴＥ株式会社,,株式会社,福岡県,北九州市八幡西区,本城１丁目１８番１２号,,40,109,8070801,,,,,,,2023-07-28,1,,,,,セカンドルート,0
766,3290805009667,新規,0,2023-07-28,2023-07-28,一般社団法人Ｋｆａ,,その他の設立登記法人,福岡県,北九州市小倉北区,船場町５番１６号,,40,106,8020007,,,,,,,2023-07-28,1,,,,,ケイファ,0
767,3300001013397,新規,0,2023-07-28,2023-07-28,株式会社ゼファー,,株式会社,佐賀県,佐賀市,大和町大字久留間３２７０番地３３,,41,201,8400213,,,,,,,2023-07-28,1,,,,,ゼファー,0
776,3340001025752,新規,0,2023-07-28,2023-07-28,株式会社折田建設,,株式会社,鹿児島県,肝属郡南大隅町,根占川北１１１０９番地１,,46,491,8932501,,,,,,,2023-07-28,1,,,,,オリタケンセツ,0
778,3360001032342,新規,0,2023-07-28,2023-07-28,株式会社セレクト,,株式会社,沖縄県,浦添市,伊祖１丁目１２番２号田店舗１階,,47,208,9012132,,,,,,,2023-07-28,1,,,,,セレクト,0
782,3360003013150,新規,0,2023-07-28,2023-07-28,Ｊｖｅｘ　Ｉｎｔｅｒｎａｔｉｏｎａｌ合同会社,,合同会社,沖縄県,那覇市,牧志２丁目１７番２７－４０１号,,47,201,9000013,,,,,,,2023-07-28,1,,,,,ジェイベックスインターナショナル,0
811,3430001089557,新規,0,2023-07-28,2023-07-28,株式会社サニム,,株式会社,北海道,札幌市白石区,菊水三条２丁目１番２５－７０４号,,01,104,0030803,,,,,,,2023-07-28,1,,,,,サニム,0
823,3700150118650,新規,0,2023-07-28,2023-07-28,ｙｉｗｕｎｕｏｌａｎｍａｏｙｉｙｏｕｘｉａｎｇｏｎｇｓｉ,,外国会社等,,,,,,,,ｂｅｉｙｕａｎｊｉｅｄａｏｈｅｐａｎｊｉａｙｕａｎ２０ｄｏｎｇ１ｄａｎｙｕａｎ４０１ｓｈｉ　ｙｉｗｕ　ｚｈｅｊｉａｎｇ　３２２０００　ＣＮ,,,,,,2023-07-28,1,,,,,イーウーヌオランマオイーヨウシェンゴンスー,0
824,3700150118659,新規,0,2023-07-28,2023-07-28,ＪｉＬｅＭｅｉＺｈｕａｎｇ　ＧｕａｎｇＺｈｏｕ　ＹｏｕＸｉａｎＧｏｎｇＳｉ,,外国会社等,,,,,,,,ＧｕａｎｇＣｈａｎｇ　ＣｈｕａｎｇＹｉＹｕａｎＱｕ　ＢＤｏｎｇ２Ｃｅｎｇ　ＺｉＪｉａｎＦａｎｇＷｕ　Ｂ１０７Ｈａｏ　ＢａｉＹｕｎｑｕ　ＴｏｎｇＨｅＪｉｅ　ＴｏｎｇＳｈａＬｕ２８３Ｈａｏ　ＧｕａｎｇＤｏｎｇＴｉａｎＪｉａｎＳｈａｎｇＹｅ　Ｇｕａｎｇｚｈｏｕ　Ｇｕａｎｇｄｏｎｇ　５１００００ＣＮ,,,,,,2023-07-28,1,,,,,ジレメイズゥアングゥアンゾォウユウゲンコウシ,0
825,3700150118667,新規,0,2023-07-28,2023-07-28,Ｂｌｕｅ　Ｏｗｌ　Ｃａｐｉｔａｌ　Ｊａｐａｎ,,外国会社等,東京都,千代田区,麹町４丁目１番地麹町ダイヤモンドビル,,13,101,1020083,英領ケイマン諸島、グランド・ケイマン、アグランド・ハウス、ピーオー・ボックス３０９、メープルズ・コーポレート・サービシズ・リミテッド内　　,,,,,,2023-07-28,1,,,,,ブルーオウルキヤピタルジヤパン,0
832,4010001237248,新規,0,2023-07-28,2023-07-28,株式会社ＥｄｇｅＸ,,株式会社,東京都,中央区,日本橋室町１丁目１１番１２号日本橋水野ビル７階,,13,102,1030022,,,,,,,2023-07-28,1,,,,,エッジエックス,0
833,4010001237256,新規,0,2023-07-28,2023-07-28,株式会社アストラゲイト,,株式会社,東京都,千代田区,外神田１丁目６番３号,,13,101,1010021,,,,,,,2023-07-28,1,,,,,アストラゲイト,0
839,4010003041185,新規,0,2023-07-28,2023-07-28,インディビジュアルｅ‐ＬＩＦＥ合同会社,,合同会社,東京都,中央区,銀座１丁目２２番１１号銀座大竹ビジデンス２Ｆ,,13,102,1040061,,,,,,,2023-07-28,1,,,,,インディビジュアルイーライフ,0
840,4010003041227,新規,0,2023-07-28,2023-07-28,合同会社中野晴啓事務所,,合同会社,東京都,中央区,新川１丁目２８番７－１１０２号,,13,102,1040033,,,,,,,2023-07-28,1,,,,,ナカノハルヒロジムショ,0
847,4010403030580,新規,0,2023-07-28,2023-07-28,合同会社ＭｏＬ,,合同会社,東京都,港区,西麻布４丁目６番２号,,13,103,1060031,,,,,,,2023-07-28,1,,,,,エムオーエル,0
848,4010403030589,新規,0,2023-07-28,2023-07-28,ｈａｔｃｈ合同会社,,合同会社,東京都,港区,浜松町２丁目２番１５号浜松町ダイヤビル２階,,13,103,1050013,,,,,,,2023-07-28,1,,,,,ハッチ,0
854,4010903008333,新規,0,2023-07-28,2023-07-28,ＢＩＣＨ　ＣＨＩ合同会社,,合同会社,東京都,世田谷区,桜上水４丁目２１番１０号ジュネス鈴木１０１,,13,112,1560045,,,,,,,2023-07-28,1,,,,,ビックチー,0
861,4011001155803,新規,0,2023-07-28,2023-07-28,ＦＲＯＭＮ株式会社,,株式会社,東京都,渋谷区,渋谷２丁目１９－１５宮益坂ビルディング６０９,,13,113,1500002,,,,,,,2023-07-28,1,,,,,,0
870,4011101103793,新規,0,2023-07-28,2023-07-28,株式会社ＭＤＸ,,株式会社,東京都,新宿区,高田馬場２丁目１４番９号明芳ビル７０１,,13,104,1690075,,,,,,,2023-07-28,1,,,,,エムディーエックス,0
871,4011101103802,新規,0,2023-07-28,2023-07-28,株式会社Ｆａｒｉｈａ,,株式会社,東京都,新宿区,四谷三栄町１５番３８号ロイヤル四谷２０２号,,13,104,1600008,,,,,,,2023-07-28,1,,,,,ファリファ,0
873,4011103013306,新規,0,2023-07-28,2023-07-28,合同会社Ｓｅｇｎｏ,,合同会社,東京都,新宿区,西新宿３丁目３番１３号西新宿水間ビル６階,,13,104,1600023,,,,,,,2023-07-28,1,,,,,セーニョ,0
874,4011103013314,新規,0,2023-07-28,2023-07-28,合同会社ヒルフィールド,,合同会社,東京都,新宿区,西新宿３丁目３番１３号西新宿水間ビル２Ｆ,,13,104,1600023,,,,,,,2023-07-28,1,,,,,ヒルフィールド,0
875,4011401025317,新規,0,2023-07-28,2023-07-28,ＰＥＧＡＳＵＳ株式会社,,株式会社,東京都,板橋区,前野町３丁目７番６号１０４室,,13,119,1740063,,,,,,,2023-07-28,1,,,,,ペガサス,0
876,4011403004062,新規,0,2023-07-28,2023-07-28,フォーナイン合同会社,,合同会社,東京都,板橋区,前野町２丁目２４番１２－１２７号,,13,119,1740063,,,,,,,2023-07-28,1,,,,,フォーナイン,0
878,4011801042787,新規,0,2023-07-28,2023-07-28,株式会社らくだ薬局,,株式会社,東京都,足立区,千住５丁目４番７号,,13,121,1200034,,,,,,,2023-07-28,1,,,,,ラクダヤッキョク,0
882,4012701017755,新規,0,2023-07-28,2023-07-28,株式会社絆．ｔｅｃｈ,,株式会社,東京都,小平市,花小金井南町１丁目３番１６号,,13,211,1870003,,,,,,,2023-07-28,1,,,,,キズナテック,0
887,4013301051087,新規,0,2023-07-28,2023-07-28,株式会社ゲームクリエイターズギルド,,株式会社,東京都,豊島区,南大塚１丁目６０－２０,,13,116,1700005,,,,,,,2023-07-28,1,,,,,ゲームクリエイターズギルド,0
896,4020001152611,新規,0,2023-07-28,2023-07-28,株式会社Ｗｏｒｌｄ．Ｎ,,株式会社,神奈川県,横浜市港北区,樽町２丁目２－４１常和綱島サンハイツ３０４,,14,109,2220001,,,,,,,2023-07-28,1,,,,,ワールドエヌ,0
897,4020001152677,新規,0,2023-07-28,2023-07-28,ＸＷジャパン株式会社,,株式会社,神奈川県,横浜市旭区,川島町２０６３番地１０,,14,112,2410011,,,,,,,2023-07-28,1,,,,,エックスダブリュージャパン,0
898,4020001152693,新規,0,2023-07-28,2023-07-28,株式会社アラモト,,株式会社,神奈川県,川崎市宮前区,野川本町１丁目１３番９号,,14,136,2160041,,,,,,,2023-07-28,1,,,,,アラモト,0
899,4020001152727,新規,0,2023-07-28,2023-07-28,株式会社マルイチ,,株式会社,神奈川県,横浜市旭区,若葉台１丁目２番４０３号,,14,112,2410801,,,,,,,2023-07-28,1,,,,,マルイチ,0
903,4020003024255,新規,0,2023-07-28,2023-07-28,Ｗｕｐｅｅ合同会社,,合同会社,神奈川県,横浜市神奈川区,三枚町５７３―１４ジョイム新横浜弐番館１０１,,14,102,2210862,,,,,,,2023-07-28,1,,,,,ウーピー,0
904,4020003024288,新規,0,2023-07-28,2023-07-28,合同会社ＳＥＡＷＡＹＳ,,合同会社,神奈川県,横浜市戸塚区,矢部町１５３０－１－３－５０７,,14,110,2440002,,,,,,,2023-07-28,1,,,,,シーウェイズ,0
914,4030001155043,新規,0,2023-07-28,2023-07-28,株式会社ジェイサーストラテジー,,株式会社,埼玉県,富士見市,鶴瀬西２丁目９番６８号,,11,235,3540026,,,,,,,2023-07-28,1,,,,,ジェイサーストラテジー,0
915,4030001155092,新規,0,2023-07-28,2023-07-28,株式会社ファームス,,株式会社,埼玉県,さいたま市大宮区,大成町２丁目１０７番地エスポワールＩＩ大宮２０Ｄ,00131302,11,103,3300852,,,,,,,2023-07-28,1,,,,,ファームス,0
916,4030001155126,新規,0,2023-07-28,2023-07-28,株式会社清藍,,株式会社,埼玉県,草加市,谷塚１丁目４番２５－１０２号,,11,221,3400028,,,,,,,2023-07-28,1,,,,,キヨアイ,0
927,4040001129418,新規,0,2023-07-28,2023-07-28,株式会社太陽興産,,株式会社,千葉県,市川市,幸１丁目２３番９号,,12,203,2720123,,,,,,,2023-07-28,1,,,,,タイヨウコウサン,0
932,4040003022983,新規,0,2023-07-28,2023-07-28,合同会社ＴＯＢＣ,,合同会社,千葉県,四街道市,もねの里５丁目５－３４,,12,228,2840016,,,,,,,2023-07-28,1,,,,,トゥービーシー,0
933,4040003023016,新規,0,2023-07-28,2023-07-28,合同会社サンユウ,,合同会社,千葉県,市原市,白金町３丁目１６番地１３,,12,219,2900059,,,,,,,2023-07-28,1,,,,,サンユウ,0
934,4040003023024,新規,0,2023-07-28,2023-07-28,合同会社マサシ,,合同会社,千葉県,市川市,真間１丁目６番３号真間レジデンスＩＩ１０１号室,00131313,12,203,2720826,,,,,,,2023-07-28,1,,,,,マサシ,0
946,4050005013303,新規,0,2023-07-28,2023-07-28,一般社団法人ＳＨＲＥＥ　ＲＡＭ　ＨＩＮＤＵ　ＴＥＭＰＬＥ＆ＩＮＤＩＡＮ　ＣＯＭＭＵＮＩＴＹ　ＣＥＮＴＥＲ‐ＩＢＡＲＡＫＩ,,その他の設立登記法人,茨城県,下妻市,宗道１７７番地２,,08,210,3040814,,,,,,,2023-07-28,1,,,,,シリーラムヒンドゥテンプルアンドインディアンコミュニティセンターイバラキ,0
953,4080401026624,新規,0,2023-07-28,2023-07-28,株式会社ＩＮＣＬＵＳＩＯＮ,,株式会社,静岡県,浜松市東区,積志町６９３コモドコーワ３０３,,22,132,4313114,,,,,,,2023-07-28,1,,,,,インクルージョン,0
955,4090001018236,新規,0,2023-07-28,2023-07-28,株式会社ＣＩＥＣＭ＆Ａ,,株式会社,山梨県,甲府市,高畑１丁目５番１１号,,19,201,4000042,,,,,,,2023-07-28,1,,,,,シークマ,0
956,4090003002353,新規,0,2023-07-28,2023-07-28,ＨＡＹＡＳＨＩ合同会社,,合同会社,山梨県,甲府市,武田４丁目２番１７号,,19,201,4000016,,,,,,,2023-07-28,1,,,,,ハヤシ,0
959,4100001036566,新規,0,2023-07-28,2023-07-28,株式会社ＡＬＬ　ＲＯＵＮＤＥＲ,,株式会社,長野県,下伊那郡阿智村,伍和２０６７番地１,,20,407,3950302,,,,,,,2023-07-28,1,,,,,オールラウンダー,0
970,4120001256724,新規,0,2023-07-28,2023-07-28,久源国際株式会社,,株式会社,大阪府,大阪市西成区,天下茶屋３丁目２４番１５号メゾン・ドゥ・アルシオン１０２号,,27,122,5570014,,,,,,,2023-07-28,1,,,,,ヒサゲンコクサイ,0
971,4120001256856,新規,0,2023-07-28,2023-07-28,株式会社ごきげんさん,,株式会社,大阪府,寝屋川市,萱島東３丁目１６番１０号ヴィラ赤とんぼ５０１,,27,215,5720824,,,,,,,2023-07-28,1,,,,,ゴキゲンサン,0
972,4120001256864,新規,0,2023-07-28,2023-07-28,プロスペリティ株式会社,,株式会社,大阪府,大阪市淀川区,西三国１丁目２番３５号－５１１号,,27,123,5320006,,,,,,,2023-07-28,1,,,,,プロスペリティ,0
989,4140001131017,新規,0,2023-07-28,2023-07-28,株式会社律緑会,,株式会社,兵庫県,相生市,矢野町小河８５４番地,,28,208,6780092,,,,,,,2023-07-28,1,,,,,リツリョクカイ,0
993,4160001025217,新規,0,2023-07-28,2023-07-28,株式会社ＫＭＳ,,株式会社,滋賀県,長浜市,元浜町３５番１１号,,25,203,5260059,,,,,,,2023-07-28,1,,,,,ケーエムエス,0
994,4160005011213,新規,0,2023-07-28,2023-07-28,一般社団法人ＢＡＮＤ,,その他の設立登記法人,滋賀県,大津市,長等２丁目３番２９号,,25,201,5200046,,,,,,,2023-07-28,1,,,,,,0
1000,4180001157264,新規,0,2023-07-28,2023-07-28,株式会社リフアクト,,株式会社,愛知県,名古屋市中区,新栄２丁目４６番１号（グランルクレ新栄イースト１１０５号）,,23,106,4600007,,,,,,,2023-07-28,1,,,,,リフアクト,0
1001,4180001157314,新規,0,2023-07-28,2023-07-28,株式会社３Ｐ,,株式会社,愛知県,あま市,甚目寺飛殿５０番地２,,23,237,4901111,,,,,,,2023-07-28,1,,,,,スリーピース,0
1002,4180001157322,新規,0,2023-07-28,2023-07-28,中日エレベーター株式会社,,株式会社,愛知県,名古屋市熱田区,幡野町１８番１１号,,23,109,4560077,,,,,,,2023-07-28,1,,,,,チュウニチエレベーター,0
1019,4260003004373,新規,0,2023-07-28,2023-07-28,隼人運送合同会社,,合同会社,岡山県,岡山市中区,藤崎５２８－２６,,33,102,7028006,,,,,,,2023-07-28,1,,,,,ハヤトウンソウ,0
1027,4290001102432,新規,0,2023-07-28,2023-07-28,フェルナ株式会社,,株式会社,福岡県,福岡市中央区,天神２丁目３番１０－３１６号,,40,133,8100001,,,,,,,2023-07-28,1,,,,,フェルナ,0
1036,4290801029734,新規,0,2023-07-28,2023-07-28,株式会社キッズ,,株式会社,福岡県,北九州市小倉北区,熊本１丁目２番８号,,40,106,8020044,,,,,,,2023-07-28,1,,,,,キッズ,0
1039,4290805009666,新規,0,2023-07-28,2023-07-28,一般社団法人やまなみグループ,,その他の設立登記法人,福岡県,北九州市八幡西区,陣原５丁目２番６号ワタナベビル２Ｆ,,40,109,8070821,,,,,,,2023-07-28,1,,,,,ヤマナミグループ,0
1049,4360003013117,新規,0,2023-07-28,2023-07-28,合同会社いんあっちゃー,,合同会社,沖縄県,石垣市,字新川２４７０番地１,,47,207,9070024,,,,,,,2023-07-28,1,,,,,インアッチャー,0
1052,4380001033874,新規,0,2023-07-28,2023-07-28,水野株式会社,,株式会社,福島県,郡山市,安積荒井本町４５番地アンソレイユＣ棟,,07,203,9630116,,,,,,,2023-07-28,1,,,,,ミズノ,0
1060,4400003003121,新規,0,2023-07-28,2023-07-28,合同会社タカタネ,,合同会社,岩手県,一関市,花泉町永井字三本木７７番地１,,03,209,0293206,,,,,,,2023-07-28,1,,,,,タカタネ,0
1065,4470001019724,新規,0,2023-07-28,2023-07-28,株式会社リトリート,,株式会社,香川県,高松市,香川町大野３６４番地１３,,37,201,7611701,,,,,,,2023-07-28,1,,,,,リトリート,0
1066,4470003002463,新規,0,2023-07-28,2023-07-28,合同会社熊川,,合同会社,香川県,高松市,香川町川東上９１９番地１,,37,201,7611706,,,,,,,2023-07-28,1,,,,,クマガワ,0
1070,4700150118658,新規,0,2023-07-28,2023-07-28,Ｇｕｏｊｉ　Ｔｅｃｈｎｏｌｏｇｙ　Ｃｏ．，Ｌｉｍｉｔｅｄ,,外国会社等,,,,,,,,Ｒｏｏｍ／Ｂ，５／Ｆ，Ｇａｙｌｏｒｄ　Ｃｏｍｍｅｒｃｉａｌ　Ｂｕｉｌｄｉｎｇ　１１４－１１８　Ｌｏｃｋｈａｒｔ　Ｒｏａｄ　Ｗａｎ　Ｃｈａｉ　９９９０７７ＨＫ,,,,,,2023-07-28,1,,,,,ゴオジテクノロジーカンパニーリミテッド,0
1071,4700150118666,新規,0,2023-07-28,2023-07-28,ＮＥＷ　ＡＧＥ　ＦＩＲＥ,,外国会社等,栃木県,小山市,大字大行寺１０６７－５,,09,208,3230041,パキスタン、カラチセントラル、ＦＢ産業エリア、ブロック２１、Ｃ２、プロットＬ１６／２,,,,,,2023-07-28,1,,,,,ニユーエイジフアイア,0
1081,5010001237148,新規,0,2023-07-28,2023-07-28,株式会社ＷＯＲＲＩＯＲ　Ｊａｐａｎ,,株式会社,東京都,中央区,銀座１丁目１２－４Ｎ＆ＥＢＬＤ．７階,,13,102,1040061,,,,,,,2023-07-28,1,,,,,ウォーリアジャパン,0
1082,5010001237214,新規,0,2023-07-28,2023-07-28,スターマース貿易株式会社,,株式会社,東京都,千代田区,神田須田町１丁目１４－１ヒューリック神田須田町ビル２階,,13,101,1010041,,,,,,,2023-07-28,1,,,,,スターマースボウエキ,0
1086,5010003041226,新規,0,2023-07-28,2023-07-28,Ｓ＆Ｋマネジメント合同会社,,合同会社,東京都,中央区,銀座８丁目１２番６号,,13,102,1040061,,,,,,,2023-07-28,1,,,,,エスアンドケーマネジメント,0
1095,5010401176053,新規,0,2023-07-28,2023-07-28,Ｈａｒｍｏｎｙ　Ｈｏｒｉｚｏｎｓ株式会社,,株式会社,東京都,港区,南青山２丁目２番１５号ウィン青山９４２,,13,103,1070062,,,,,,,2023-07-28,1,,,,,ハーモニーホライゾンズ,0
1113,5011001155868,新規,0,2023-07-28,2023-07-28,株式会社晶軟ソリューションズ,,株式会社,東京都,渋谷区,渋谷２丁目６番１２号ベルデ青山ビル３Ｆ,,13,113,1500002,,,,,,,2023-07-28,1,,,,,クリスタルソフトソリューションズ,0
1114,5011001155934,新規,0,2023-07-28,2023-07-28,三橋株式会社,,株式会社,東京都,渋谷区,道玄坂１丁目１０番８号渋谷道玄坂東急ビル２Ｆ－Ｃ,,13,113,1500043,,,,,,,2023-07-28,1,,,,,ミツハシ,0
1115,5011003017257,新規,0,2023-07-28,2023-07-28,合同会社ペペロンチーノ,,合同会社,東京都,目黒区,三田２丁目４番７号はいむおかもと１０５,,13,110,1530062,,,,,,,2023-07-28,1,,,,,ペペロンチーノ,0
1121,5011103013305,新規,0,2023-07-28,2023-07-28,ＣＩＲＩ合同会社,,合同会社,東京都,新宿区,新宿７丁目２０番６号,,13,104,1600022,,,,,,,2023-07-28,1,,,,,シリィー,0
1129,5011801042786,新規,0,2023-07-28,2023-07-28,株式会社ＧＲＯＷ,,株式会社,東京都,足立区,綾瀬２丁目２４番１１号桂昇綾瀬ビル３０３,,13,121,1200005,,,,,,,2023-07-28,1,,,,,グロウ,0
1133,5013303006724,新規,0,2023-07-28,2023-07-28,合同会社カラダノート,,合同会社,東京都,豊島区,東池袋４丁目２１番１－１００１号,,13,116,1700013,,,,,,,2023-07-28,1,,,,,カラダノート,0
1137,5020001152585,新規,0,2023-07-28,2023-07-28,株式会社ＨＯＴＳＩＮ　ＣＡＲＧＯ　ＪＡＰＡＮ,,株式会社,神奈川県,横浜市緑区,東本郷６丁目２２－１スタンレーヒルズ横浜小机４０７,,14,113,2260002,,,,,,,2023-07-28,1,,,,,ホシンカーゴジャパン,0
1138,5020001152619,新規,0,2023-07-28,2023-07-28,株式会社ｌｉｆｌｅｘ,,株式会社,神奈川県,横浜市中区,羽衣町１丁目２番地１０,,14,104,2310047,,,,,,,2023-07-28,1,,,,,リフレックス,0
1139,5020001152692,新規,0,2023-07-28,2023-07-28,株式会社あんばい,,株式会社,神奈川県,川崎市宮前区,土橋１丁目８番地１宮前平アネックスＡ－５０２,,14,136,2160005,,,,,,,2023-07-28,1,,,,,アンバイ,0
1140,5020001152701,新規,0,2023-07-28,2023-07-28,株式会社アサクル,,株式会社,神奈川県,川崎市幸区,新川崎５番１－１０１１号,,14,132,2120032,,,,,,,2023-07-28,1,,,,,アサクル,0
1141,5020001152750,新規,0,2023-07-28,2023-07-28,株式会社友栄,,株式会社,神奈川県,横浜市旭区,今宿東町６４７番地１エスポワール今宿２０３,,14,112,2410032,,,,,,,2023-07-28,1,,,,,ユウエイ,0
1144,5020003024287,新規,0,2023-07-28,2023-07-28,合同会社小池デザイン,,合同会社,神奈川県,横浜市港北区,綱島西２丁目４番１０－３０６号,,14,109,2230053,,,,,,,2023-07-28,1,,,,,コイケデザイン,0
1146,5021001079703,新規,0,2023-07-28,2023-07-28,株式会社七空団,,株式会社,神奈川県,大和市,福田１丁目１０－４桜ヶ丘総合ビル２０２,,14,213,2420024,,,,,,,2023-07-28,1,,,,,ナナクウダン,0
1147,5021001079728,新規,0,2023-07-28,2023-07-28,株式会社ＯＮＥ,,株式会社,神奈川県,海老名市,上今泉１丁目１番１０号,,14,215,2430431,,,,,,,2023-07-28,1,,,,,ワン,0
1148,5021003013362,新規,0,2023-07-28,2023-07-28,合同会社レイルロードスイッチ,,合同会社,神奈川県,藤沢市,城南１丁目１７番３５～７号,,14,205,2510057,,,,,,,2023-07-28,1,,,,,レイルロードスイッチ,0
1158,5030001155100,新規,0,2023-07-28,2023-07-28,株式会社バーニングエコステーション,,株式会社,埼玉県,春日部市,備後東５丁目１２番３３号メゾン・ド・キャッスル１０２号,,11,214,3440032,,,,,,,2023-07-28,1,,,,,バーニングエコステーション,0
1163,5030003022190,新規,0,2023-07-28,2023-07-28,合同会社ルシール,,合同会社,埼玉県,志木市,本町６丁目８番１９－１０４号,,11,228,3530004,,,,,,,2023-07-28,1,,,,,ルシール,0
1164,5030003022199,新規,0,2023-07-28,2023-07-28,合同会社ＮＯＢＵＴＯ,,合同会社,埼玉県,さいたま市浦和区,高砂４丁目１３番５号Ｊ＆Ｆハウス武蔵浦和９０２号室,,11,107,3300063,,,,,,,2023-07-28,1,,,,,ノブト,0
1171,5040001129400,新規,0,2023-07-28,2023-07-28,ＪＰ　ＳＴＡＲ　ＧＲＯＵＰ株式会社,,株式会社,千葉県,成田市,取香５６０,,12,211,2860106,,,,,,,2023-07-28,1,,,,,ジャイピースターグループ,0
1172,5040001129425,新規,0,2023-07-28,2023-07-28,株式会社Ｂｒｏｓｅ,,株式会社,千葉県,柏市,南柏１丁目１０番４－３０７号,,12,217,2770855,,,,,,,2023-07-28,1,,,,,ブローゼ,0
1175,5040003023015,新規,0,2023-07-28,2023-07-28,むきょう合同会社,,合同会社,千葉県,柏市,若柴１７８－４－１４８－１ウエスト３Ｆ,,12,217,2770871,,,,,,,2023-07-28,1,,,,,ムキョウ,0
1184,5050001053194,新規,0,2023-07-28,2023-07-28,ＨＡＢＩＢ　ＴＲＡＤＩＮＧ株式会社,,株式会社,茨城県,結城郡八千代町,大字平塚４８２４番地１３（Ａ）,,08,521,3003561,,,,,,,2023-07-28,1,,,,,ハビブトレーディング,0
1189,5070001040678,新規,0,2023-07-28,2023-07-28,株式会社Ｃａｔｍ,,株式会社,群馬県,邑楽郡邑楽町,大字明野２６番地４,,10,525,3700602,,,,,,,2023-07-28,1,,,,,,0
1190,5070003005043,新規,0,2023-07-28,2023-07-28,合同会社ＧＯＲＯ　ＷＡＳＨ＆ＤＲＹ　Ｃｏ．,,合同会社,群馬県,太田市,大原町２２１１－３５,,10,205,3792304,,,,,,,2023-07-28,1,,,,,,0
1198,5080103002856,新規,0,2023-07-28,2023-07-28,合同会社Ｓｔｕｄｉｏ．Ｄ,,合同会社,静岡県,沼津市,我入道東町１８４番地の１,,22,203,4100823,,,,,,,2023-07-28,1,,,,,スタジオディー,0
1200,5090001018235,新規,0,2023-07-28,2023-07-28,株式会社ブラウン・ジェムス・ジャパン,,株式会社,山梨県,甲府市,住吉１丁目１６番６号－２０１,,19,201,4000851,,,,,,,2023-07-28,1,,,,,ブラウンジェムスジャパン,0
1216,5120001256789,新規,0,2023-07-28,2023-07-28,同盛株式会社,,株式会社,大阪府,大阪市東成区,深江北３丁目４番２１号エクラ深江橋７１２Ｄ,,27,115,5370001,,,,,,,2023-07-28,1,,,,,ドウセイ,0
1217,5120001256863,新規,0,2023-07-28,2023-07-28,株式会社翔住宅設備,,株式会社,大阪府,門真市,桑才新町２８番２号,,27,223,5710043,,,,,,,2023-07-28,1,,,,,カケルジュウタクセツビ,0
1221,5120003024608,新規,0,2023-07-28,2023-07-28,合同会社ＡＴＲＵＳＴ,,合同会社,大阪府,大阪市北区,紅梅町１‐１８‐４０５,,27,127,5300038,,,,,,,2023-07-28,1,,,,,アトラスト,0
1226,5120101067954,新規,0,2023-07-28,2023-07-28,金盛株式会社,,株式会社,大阪府,堺市中区,東山７６０－２,,27,142,5998247,,,,,,,2023-07-28,1,,,,,カネモリ,0
1234,5130001074802,新規,0,2023-07-28,2023-07-28,ＰｒａＸｉｓ株式会社,,株式会社,京都府,京都市北区,新町通鞍馬口上る上清蔵口町１５８番地,,26,101,6038155,,,,,,,2023-07-28,1,,,,,プラクシス,0
1236,5130005016825,新規,0,2023-07-28,2023-07-28,医療法人ひわたし耳鼻咽喉科クリニック,,その他の設立登記法人,京都府,亀岡市,篠町浄法寺中村３９番地１,,26,206,6210835,,,,,,,2023-07-28,1,,,,,ヒワタシジビインコウカクリニック,0
1247,5170001017708,新規,0,2023-07-28,2023-07-28,四十八瀬西山青果株式会社,,株式会社,和歌山県,紀の川市,名手上１番地,,30,208,6496601,,,,,,,2023-07-28,1,,,,,シジュウハッセニシヤマセイカ,0
1251,5180001157346,新規,0,2023-07-28,2023-07-28,株式会社クイーンズランド,,株式会社,愛知県,名古屋市緑区,鳴海町字三高根３５番地の６,,23,114,4580801,,,,,,,2023-07-28,1,,,,,クイーンズランド,0
1254,5190003004388,新規,0,2023-07-28,2023-07-28,リーバラボ合同会社,,合同会社,三重県,桑名市,大字安永８５４番地５,,24,205,5110839,,,,,,,2023-07-28,1,,,,,リーバラボ,0
1264,5230005009323,新規,0,2023-07-28,2023-07-28,一般社団法人ｆｏｒｋ,,その他の設立登記法人,富山県,中新川郡舟橋村,竹内３２５番地,,16,321,9300289,,,,,,,2023-07-28,1,,,,,フォーク,0
1267,5240001061871,新規,0,2023-07-28,2023-07-28,ＲＥＤ　ＲＯＣＫ株式会社,,株式会社,広島県,広島市佐伯区,美鈴が丘緑３丁目１１番２号,,34,108,7315113,,,,,,,2023-07-28,1,,,,,レッドロック,0
1268,5240003006239,新規,0,2023-07-28,2023-07-28,合同会社Ｌｅｏｎｅ,,合同会社,広島県,広島市南区,宇品御幸１丁目９番３－３０２号,,34,103,7340015,,,,,,,2023-07-28,1,,,,,,0
1271,5260003004364,新規,0,2023-07-28,2023-07-28,エステラ合同会社,,合同会社,岡山県,津山市,上河原４６６―１サンライズマンション１０１,,33,203,7080002,,,,,,,2023-07-28,1,,,,,エステラ,0
1279,5290801029733,新規,0,2023-07-28,2023-07-28,株式会社アルバライズ,,株式会社,福岡県,北九州市小倉北区,東篠崎１丁目２番２６号山内グリーンパレス６０３号,,40,106,8020072,,,,,,,2023-07-28,1,,,,,アルバライズ,0
1289,5350003004396,新規,0,2023-07-28,2023-07-28,合同会社ネオス,,合同会社,宮崎県,宮崎市,橘通東４丁目１－４　１Ｆ,,45,201,8800805,,,,,,,2023-07-28,1,,,,,ネオス,0
1311,5430001089571,新規,0,2023-07-28,2023-07-28,株式会社ＥＺＯＮ,,株式会社,北海道,札幌市中央区,南九条西９丁目１番３２号,,01,101,0640809,,,,,,,2023-07-28,1,,,,,エゾン,0
1312,5430003015303,新規,0,2023-07-28,2023-07-28,合同会社ＦＲＥＥ　ＧＲＯＵＰ,,合同会社,北海道,札幌市白石区,中央一条５丁目４‐３８　２Ｆ,,01,104,0030011,,,,,,,2023-07-28,1,,,,,フリーグループ,0
1316,5470001019723,新規,0,2023-07-28,2023-07-28,株式会社あはごん,,株式会社,香川県,高松市,多肥上町２１３５番地１ラ・ヴィーダＴＥＴＩＩＩ－Ｖ,00131315,37,201,7618076,,,,,,,2023-07-28,1,,,,,アハゴン,0
1317,5470003002462,新規,0,2023-07-28,2023-07-28,合同会社ＰＩＮＯ,,合同会社,香川県,高松市,亀岡町２番１８号,,37,201,7600006,,,,,,,2023-07-28,1,,,,,ピノ,0
1322,5700150118649,新規,0,2023-07-28,2023-07-28,Ｓｈｅｎｚｈｅｎ　Ｈｏｎｇｇｕａｎ　Ｍｅｃｈａｔｒｏｎｉｃｓ　ＣＯ．，Ｌｔｄ．,,外国会社等,,,,,,,,Ｇｕａｎｌａｎ　Ｓｏｕｔｈ　Ｄａｆｕｈｅ　Ｎｅｗ　Ｖｉｌｌａｇｅ　ＮＯ．２１６　Ｂｕｉｌｄｉｎｇ　２ｎｄ～３ｒｄ　Ｆｌｏｏｒ，Ｌｏｎｇｈｕａ　Ｄｉｓｔｒｉｃｔ　Ｓｈｅｎｚｈｅｎ　Ｇｕａｎｇｄｏｎｇ　５１８０００　ＣＮ,,,,,,2023-07-28,1,,,,,シェンジェンシホングァンディエンジーヨウシェンゴンスー,0
1323,5700150118657,新規,0,2023-07-28,2023-07-28,ｃｈａｎｇｓｈａｓｈｉ　ｒｕｉｋａｅｎｘｉａｎｇｂａｏｍａｏｙｉ　ｙｏｕｘｉａｎｇｏｎｇｓｉ,,外国会社等,,,,,,,,ｋａｉｆｕｑｕ　ｈｏｎｇｓｈａｎｊｉｅｄａｏ　ｈｏｎｇｓｈａｎｌｕ１８８ｈａｏ　ｃａｎｇｌｏｎｇｈｕｓｈａｎｇｇｏｕｊｉｈｕａｙｕａｎ３－７ｄｏｎｇ　２９０２ｆａｎｇ　ｃｈａｎｇｓｈａｓｈｉ　ｈｕｎａｎｓｈｅｎｇ　４１００００ＣＮ,,,,,,2023-07-28,1,,,,,チャンサシルイカエンシャンバオマオイユウゲンコウシ,0
1339,6010001237163,新規,0,2023-07-28,2023-07-28,株式会社キャリアシップパートナー,,株式会社,東京都,千代田区,神田和泉町１番地６－１６ヤマトビル４０５,,13,101,1010024,,,,,,,2023-07-28,1,,,,,キャリアシップパートナー,0
1340,6010001237205,新規,0,2023-07-28,2023-07-28,株式会社トビカニ,,株式会社,東京都,中央区,八丁堀２丁目４－１ダイヤモンドレジデンス八丁堀００１号室,,13,102,1040032,,,,,,,2023-07-28,1,,,,,トビカニ,0
1341,6010001237213,新規,0,2023-07-28,2023-07-28,株式会社明邦グループ,,株式会社,東京都,中央区,銀座１丁目１３番１２号,,13,102,1040061,,,,,,,2023-07-28,1,,,,,メイホウグループ,0
1350,6010003041209,新規,0,2023-07-28,2023-07-28,合同会社Ｔ＆Ａ　ＢＲＯＴＨＥＲＳ,,合同会社,東京都,文京区,大塚３丁目８－４,,13,105,1120012,,,,,,,2023-07-28,1,,,,,ティーアンドエーブラザーズ,0
1351,6010003041233,新規,0,2023-07-28,2023-07-28,ワンビーク合同会社,,合同会社,東京都,中央区,日本橋室町１丁目１１番１２号日本橋水野ビル７階,,13,102,1030022,,,,,,,2023-07-28,1,,,,,ワンビーク,0
1365,6010405022310,新規,0,2023-07-28,2023-07-28,Ｃｒｅｄｏｓ一般社団法人,,その他の設立登記法人,東京都,港区,虎ノ門４丁目１番２８号,,13,103,1050001,,,,,,,2023-07-28,1,,,,,クレドス,0
1366,6010501050818,新規,0,2023-07-28,2023-07-28,株式会社ワーコンズ,,株式会社,東京都,台東区,下谷１丁目４番１１号ヴェルデ上野ビル２Ｆ,,13,106,1100004,,,,,,,2023-07-28,1,,,,,ワーコンズ,0
1367,6010503007097,新規,0,2023-07-28,2023-07-28,合同会社籐華,,合同会社,東京都,台東区,浅草橋２丁目２８番１７－１００３号サンメゾン浅草橋,,13,106,1110053,,,,,,,2023-07-28,1,,,,,トウガ,0
1369,6010601063505,新規,0,2023-07-28,2023-07-28,株式会社スタジオノヴァークス,,株式会社,東京都,江東区,牡丹１丁目１２番１号,,13,108,1350046,,,,,,,2023-07-28,1,,,,,スタジオノヴァークス,0
1372,6010801034198,新規,0,2023-07-28,2023-07-28,アウソカ株式会社,,株式会社,東京都,大田区,南馬込４丁目１７番１７号,,13,111,1430025,,,,,,,2023-07-28,1,,,,,アウソカ,0
1385,6011001155941,新規,0,2023-07-28,2023-07-28,ＡＲＩＮ株式会社,,株式会社,東京都,渋谷区,渋谷２丁目１２番１１号,,13,113,1500002,,,,,,,2023-07-28,1,,,,,アリン,0
1387,6011003017256,新規,0,2023-07-28,2023-07-28,合同会社永,,合同会社,東京都,渋谷区,宇田川町２番１号,,13,113,1500042,,,,,,,2023-07-28,1,,,,,エイ,0
1393,6011101103775,新規,0,2023-07-28,2023-07-28,株式会社フラットコア,,株式会社,東京都,新宿区,高田馬場１丁目１６－３７グレイス池田１０７,,13,104,1690075,,,,,,,2023-07-28,1,,,,,フラットコア,0
1394,6011101103800,新規,0,2023-07-28,2023-07-28,株式会社とんぼ,,株式会社,東京都,新宿区,原町３丁目１５番地１プラウド新宿牛込柳町６０１,,13,104,1620053,,,,,,,2023-07-28,1,,,,,,0
1395,6011101103809,新規,0,2023-07-28,2023-07-28,株式会社ＫＤＷ,,株式会社,東京都,新宿区,西新宿３丁目３番１３号西新宿水間ビル２Ｆ,,13,104,1600023,,,,,,,2023-07-28,1,,,,,ケイディダブリュ,0
1397,6011103013304,新規,0,2023-07-28,2023-07-28,Ｙａｒｕｌａ　Ｊａｐａｎ合同会社,,合同会社,東京都,新宿区,西新宿３丁目３番１３号西新宿水間ビル６階,,13,104,1600023,,,,,,,2023-07-28,1,,,,,ヤルラジャパン,0
1405,6011701026459,新規,0,2023-07-28,2023-07-28,株式会社ＵＮＩＴＥＤ　ＣＩＴＹ,,株式会社,東京都,江戸川区,本一色３丁目１１番１９号Ｇ・ＭＨＡＲＵ１０２,,13,123,1330044,,,,,,,2023-07-28,1,,,,,ユナイテッドシティ,0
1419,6020001152683,新規,0,2023-07-28,2023-07-28,株式会社アクティブ,,株式会社,神奈川県,横浜市西区,北幸２丁目１０番２８号むつみビル３Ｆ,,14,103,2200004,,,,,,,2023-07-28,1,,,,,アクティブ,0
1420,6020001152717,新規,0,2023-07-28,2023-07-28,株式会社ミウラ,,株式会社,神奈川県,横浜市鶴見区,東寺尾６丁目５番１３－３号,,14,101,2300077,,,,,,,2023-07-28,1,,,,,ミウラ,0
1421,6020001152741,新規,0,2023-07-28,2023-07-28,同致電子企業日本株式会社,,株式会社,神奈川県,横浜市港北区,新横浜２丁目５番地２ＵＵビル８階８０１室,,14,109,2220033,,,,,,,2023-07-28,1,,,,,トンツデンシキギョウニホン,0
1424,6020003024261,新規,0,2023-07-28,2023-07-28,合同会社グリーン・ホーネット,,合同会社,神奈川県,川崎市宮前区,菅生６丁目２－８－１０４,,14,136,2160015,,,,,,,2023-07-28,1,,,,,グリーンホーネット,0
1426,6021001079719,新規,0,2023-07-28,2023-07-28,株式会社Ｉｎｔｅｒｌｉｚｅ　Ｄｅｓｉｇｎ　Ｃｏ．,,株式会社,神奈川県,厚木市,中町２丁目１３番１４－３０２号,,14,212,2430018,,,,,,,2023-07-28,1,,,,,インターライズデザインカンパニー,0
1427,6021003013345,新規,0,2023-07-28,2023-07-28,合同会社ＺＯＲＲＯ,,合同会社,神奈川県,平塚市,田村１丁目３番４７号,,14,203,2540013,,,,,,,2023-07-28,1,,,,,ゾロ,0
1428,6021003013361,新規,0,2023-07-28,2023-07-28,Ｋ’ｓ　ｃｏｍｐａｎｙ合同会社,,合同会社,神奈川県,相模原市南区,若松１丁目１７番１８号,,14,153,2520334,,,,,,,2023-07-28,1,,,,,ケーズカンパニー,0
1429,6021005012865,新規,0,2023-07-28,2023-07-28,一般社団法人ＨＲ　Ｂｕｄｄｙ研究所,,その他の設立登記法人,神奈川県,鎌倉市,御成町１１－２ヤノヤビル２Ｆ,,14,204,2480012,,,,,,,2023-07-28,1,,,,,エイチアールバディケンキュウジョ,0
1436,6030005021339,新規,0,2023-07-28,2023-07-28,一般社団法人ファーム＆ガーデン白岡,,その他の設立登記法人,埼玉県,白岡市,下野田１１１２番地１,,11,246,3490223,,,,,,,2023-07-28,1,,,,,ファームアンドガーデンシラオカ,0
1437,6030005021355,新規,0,2023-07-28,2023-07-28,一般社団法人ほほえみ,,その他の設立登記法人,埼玉県,熊谷市,押切２５４６番地１５,,11,202,3600111,,,,,,,2023-07-28,1,,,,,ホホエミ,0
1441,6040001129408,新規,0,2023-07-28,2023-07-28,株式会社ｍｏｒｅ,,株式会社,千葉県,鎌ケ谷市,東初富３丁目６番４－１０３号,,12,224,2730122,,,,,,,2023-07-28,1,,,,,モア,0
1444,6040003022998,新規,0,2023-07-28,2023-07-28,合同会社ＹＲＭ,,合同会社,千葉県,松戸市,上本郷８５８－４北松戸西口ビル５階,,12,207,2710064,,,,,,,2023-07-28,1,,,,,ワイアールエム,0
1447,6050001053202,新規,0,2023-07-28,2023-07-28,株式会社ムトウ商事,,株式会社,茨城県,下妻市,石の宮２番地５,,08,210,3040057,,,,,,,2023-07-28,1,,,,,ムトウショウジ,0
1448,6050001053210,新規,0,2023-07-28,2023-07-28,株式会社京鶴ナノ研究所,,株式会社,茨城県,ひたちなか市,大字枝川２２８番５号２Ｆ,,08,221,3120035,,,,,,,2023-07-28,1,,,,,キョウヅルナノケンキュウジョ,0
1452,6050005013301,新規,0,2023-07-28,2023-07-28,一般社団法人日本シェルター協会,,その他の設立登記法人,茨城県,つくば市,竹園２丁目１３番３０号,,08,220,3050032,,,,,,,2023-07-28,1,,,,,ニホンシェルターキョウカイ,0
1454,6080005007548,新規,0,2023-07-28,2023-07-28,一般社団法人やさいバス倶楽部,,その他の設立登記法人,静岡県,牧之原市,布引原１０７６番地２,,22,226,4210407,,,,,,,2023-07-28,1,,,,,ヤサイバスクラブ,0
1458,6080401026597,新規,0,2023-07-28,2023-07-28,株式会社ＳＲＦＪ,,株式会社,静岡県,浜松市西区,雄踏１丁目２８番２１号,,22,133,4310103,,,,,,,2023-07-28,1,,,,,エスアールエフジェイ,0
1460,6090001018201,新規,0,2023-07-28,2023-07-28,株式会社東華,,株式会社,山梨県,南都留郡富士河口湖町,船津１６４４－３,,19,430,4010301,,,,,,,2023-07-28,1,,,,,トウカ,0
1476,6120001256078,新規,0,2023-07-28,2023-07-28,株式会社ワイエムエスホールディングス,,株式会社,大阪府,大阪市浪速区,幸町２丁目４番６号フェニックス日本橋高津３２３,,27,111,5560021,,,,,,,2023-07-28,1,,,,,ワイエムエスホールディングス,0
1477,6120001256689,新規,0,2023-07-28,2023-07-28,吉晨株式会社,,株式会社,大阪府,大阪市中央区,島之内２丁目５番５－７０３号,,27,128,5420082,,,,,,,2023-07-28,1,,,,,ヨシアキ,0
1478,6120001256706,新規,0,2023-07-28,2023-07-28,株式会社アドバンス,,株式会社,大阪府,大阪市東淀川区,東中島２丁目１番２１,,27,114,5330033,,,,,,,2023-07-28,1,,,,,アドバンス,0
1479,6120003024524,新規,0,2023-07-28,2023-07-28,永恵商貿合同会社,,合同会社,大阪府,大阪市港区,市岡元町１丁目６－１１フレンドリー一番館５０５号室,,27,107,5520002,,,,,,,2023-07-28,1,,,,,ナガエショウボウ,0
1480,6120005023788,新規,0,2023-07-28,2023-07-28,一般社団法人モオリオ,,その他の設立登記法人,大阪府,大阪市東成区,深江北３丁目１０番１７号,,27,115,5370001,,,,,,,2023-07-28,1,,,,,モオリオ,0
1488,6122001037177,新規,0,2023-07-28,2023-07-28,株式会社ベネラボ,,株式会社,大阪府,東大阪市,稲田上町１丁目１６番８号,,27,227,5770002,,,,,,,2023-07-28,1,,,,,ベネラボ,0
1489,6122003002633,新規,0,2023-07-28,2023-07-28,ＬＩＦＥ　ＰＬＡＮ青空合同会社,,合同会社,大阪府,東大阪市,足代北１丁目２番４号プレジオ布施ＥＵＲＯ７０５号室,,27,227,5770058,,,,,,,2023-07-28,1,,,,,ライフプランアオゾラ,0
1492,6130001074792,新規,0,2023-07-28,2023-07-28,株式会社鞍馬温泉,,株式会社,京都府,京都市北区,上賀茂西上之段町１８番地１２,,26,101,6038028,,,,,,,2023-07-28,1,,,,,クラマオンセン,0
1501,6170001017707,新規,0,2023-07-28,2023-07-28,株式会社ナカハラ,,株式会社,和歌山県,和歌山市,西浜２丁目３番５号,,30,201,6410036,,,,,,,2023-07-28,1,,,,,ナカハラ,0
1504,6180001157246,新規,0,2023-07-28,2023-07-28,Ｅｘｃｅｌｌｅｎｔ株式会社,,株式会社,愛知県,知多郡南知多町,大字片名字浜山１－４０,,23,445,4703502,,,,,,,2023-07-28,1,,,,,エクセレント,0
1505,6180001157312,新規,0,2023-07-28,2023-07-28,メイシン電気株式会社,,株式会社,愛知県,日進市,野方町後口４７番地６,,23,230,4700123,,,,,,,2023-07-28,1,,,,,メイシンデンキ,0
1506,6180001157320,新規,0,2023-07-28,2023-07-28,株式会社Ｇｒｏｗｔｈ,,株式会社,愛知県,一宮市,浅井町尾関字長田１番地,,23,203,4910102,,,,,,,2023-07-28,1,,,,,グロース,0
1509,6180003025541,新規,0,2023-07-28,2023-07-28,合同会社高齢社会の未来,,合同会社,愛知県,名古屋市中村区,佐古前町１番２６号サンライン第６０ビル６０５号,,23,105,4530018,,,,,,,2023-07-28,1,,,,,コウレイシャカイノミライ,0
1518,6200001041538,新規,0,2023-07-28,2023-07-28,株式会社ａｓｏｂｉｂａ,,株式会社,岐阜県,関市,板取５８７７番地１,,21,205,5012901,,,,,,,2023-07-28,1,,,,,アソビバ,0
1523,6220001025522,新規,0,2023-07-28,2023-07-28,アップツリー株式会社,,株式会社,石川県,金沢市,山王町１丁目１１０番地８,,17,201,9200821,,,,,,,2023-07-28,1,,,,,アップツリー,0
1530,6240001061879,新規,0,2023-07-28,2023-07-28,株式会社タカラ工房,,株式会社,広島県,広島市中区,竹屋町７番１０号,,34,101,7300048,,,,,,,2023-07-28,1,,,,,タカラコウボウ,0
1531,6240003006238,新規,0,2023-07-28,2023-07-28,合同会社ミヤタホルモン,,合同会社,広島県,広島市南区,宇品御幸３丁目１４－２２－２０２,,34,103,7340015,,,,,,,2023-07-28,1,,,,,ミヤタホルモン,0
1540,6290001102422,新規,0,2023-07-28,2023-07-28,ＳＫＹＬｉｎｅ株式会社,,株式会社,福岡県,福津市,上西郷２１６５番地１,,40,224,8113207,,,,,,,2023-07-28,1,,,,,スカイライン,0
1541,6290001102430,新規,0,2023-07-28,2023-07-28,株式会社ＴＨＥ　ＳＴＯＲＹ,,株式会社,福岡県,福岡市中央区,清川３丁目４番１１－１２１０号エンクレスト天神南ＰＵＲＥ,,40,133,8100005,,,,,,,2023-07-28,1,,,,,,0
1544,6290801029732,新規,0,2023-07-28,2023-07-28,株式会社ハクスイフィールド,,株式会社,福岡県,北九州市八幡西区,星ケ丘６丁目４番１３号,,40,109,8071264,,,,,,,2023-07-28,1,,,,,ハクスイフィールド,0
1546,6290803004469,新規,0,2023-07-28,2023-07-28,合同会社ｔｒｉｇｇｅｒ,,合同会社,福岡県,北九州市八幡西区,木屋瀬東２丁目１－１３タウンコートＩＩＩ,00131304,40,109,8071266,,,,,,,2023-07-28,1,,,,,トリガー,0
1551,6320001019910,新規,0,2023-07-28,2023-07-28,株式会社Ｗｅｌｌｓ　Ｂｅ,,株式会社,大分県,別府市,駅前町７番１５号,,44,202,8740935,,,,,,,2023-07-28,1,,,,,ウェルズビー,0
1555,6330003009917,新規,0,2023-07-28,2023-07-28,合同会社日本料理紗陶,,合同会社,熊本県,上益城郡山都町,浜町１７２番地１２,,43,447,8613518,,,,,,,2023-07-28,1,,,,,ニホンリョウリシャトウ,0
1564,6360003013156,新規,0,2023-07-28,2023-07-28,合同会社ＳＯＲＡ,,合同会社,沖縄県,宜野湾市,上原１丁目１８番１３－３０１号ハーモニーマンション,,47,205,9012204,,,,,,,2023-07-28,1,,,,,ソラ,0
1580,6430001089562,新規,0,2023-07-28,2023-07-28,株式会社色紙,,株式会社,北海道,札幌市東区,北十七条東８丁目１－５,,01,103,0650017,,,,,,,2023-07-28,1,,,,,イロカミ,0
1582,6430003015269,新規,0,2023-07-28,2023-07-28,アリフレ合同会社,,合同会社,北海道,札幌市豊平区,月寒東二条１９丁目１２番１１号,,01,105,0620052,,,,,,,2023-07-28,1,,,,,アリフレ,0
1583,6450003002364,新規,0,2023-07-28,2023-07-28,合同会社リベラール,,合同会社,北海道,旭川市,十条通１３丁目２４番地２６童里夢１Ｆ,,01,204,0700040,,,,,,,2023-07-28,1,,,,,リベラール,0
1585,6480001012156,新規,0,2023-07-28,2023-07-28,株式会社ＫＩＳＨＩＯＫＡ,,株式会社,徳島県,鳴門市,撫養町斎田字北浜１０６番地,,36,202,7720002,,,,,,,2023-07-28,1,,,,,キシオカ,0
1590,6700150118648,新規,0,2023-07-28,2023-07-28,ＰＵＴＩＡＮ　ＯＲＴＨＯＭＥＮ　ＲＥＨＡＢＩＬＩＴＡＴＩＯＮ　ＣＯ．，ＬＴＤ．,,外国会社等,,,,,,,,７＃３－２０５　ＱＩＡＮＳＨＵＩＷＡＮ　ＢＵＩＬＤＩＮＧ，８１＃ＸＩＮＧＦＵ　ＲＤ．ＯＦ　ＧＯＮＧＣＨＥＮ　ＳＴ．ＬＩＣＨＥＮＧＦＵＪＩＡＮ　ＰＵＴＩＡＮ　３５１１００ＣＮ,,,,,,2023-07-28,1,,,,,プーティェンアオシーマンカンフゥチーツァイヨウシェンゴンスー,0
1591,6700150118656,新規,0,2023-07-28,2023-07-28,ｙｉｗｕｓｈｉ　ｓｏｎｇｂｅｉｄｉａｎｚｉｓｈａｎｇｗｕ　ｙｏｕｘｉａｎｇｏｎｇｓｉ,,外国会社等,,,,,,,,５ｔｈ　ｆｌｏｏｒ，Ｎｏ．６０９　Ａｉｒｐｏｒｔ　Ｒｏａｄ，Ｂｅｉｙｕａｎ　Ｓｔｒｅｅｔ　ｙｉｗｕ　Ｚｈｅｊｉａｎｇ　Ｐｒｏｖｉｎｃｅ　３２２０００ＣＮ,,,,,,2023-07-28,1,,,,,イウシソンベイデェンジシャンウユウゲンコウシ,0
1592,6700150118664,新規,0,2023-07-28,2023-07-28,ｓｈｅｎｚｈｅｎｓｈｉ　ｙｏｕｂａｉｊｉａｄｉａｎｚｉ　ｙｏｕｘｉａｎｇｏｎｇｓｉ,,外国会社等,,,,,,,,ｂａｏａｎｑｕ　ｘｉｘｉａｎｇｊｉｅｄａｏ　ｙｕｙｅｓｈｅｑｕ　ｍｉｎｇｙｏｕｃａｉｇｏｕｚｈｏｎｇｘｉｎ　Ａ７４２　ｓｈｅｎｚｈｅｎ　ｇｕａｎｇｄｏｎｇ　Ｃｈｉｎａ,,,,,,2023-07-28,1,,,,,シンセンシヨバイジャデンシユウゲンコウシ,0
1600,7010001236503,新規,0,2023-07-28,2023-07-28,株式会社ＣＨＥＭＥＸＰＲＥＳＳ　ＪＡＰＡＮ,,株式会社,東京都,千代田区,九段南１丁目５番６号りそな九段ビル５ＦＫＳフロア,,13,101,1020074,,,,,,,2023-07-28,1,,,,,ケムエクスプレスジャパン,0
1601,7010001237204,新規,0,2023-07-28,2023-07-28,ウェルネスプロ株式会社,,株式会社,東京都,中央区,銀座８丁目８番１７号,,13,102,1040061,,,,,,,2023-07-28,1,,,,,ウェルネスプロ,0
1602,7010001237237,新規,0,2023-07-28,2023-07-28,Ｕｎｉｖｅｒｓａｌ　Ｈａｒｍｏｎｙ株式会社,,株式会社,東京都,中央区,湊１丁目７番１１号,,13,102,1040043,,,,,,,2023-07-28,1,,,,,ユニバーサルハーモニー,0
1603,7010001237245,新規,0,2023-07-28,2023-07-28,ボタニーバイオテクノロジージャパン株式会社,,株式会社,東京都,中央区,銀座１丁目１５番４号,,13,102,1040061,,,,,,,2023-07-28,1,,,,,ボタニーバイオテクノロジージャパン,0
1610,7010003041174,新規,0,2023-07-28,2023-07-28,合同会社イノズアセット,,合同会社,東京都,千代田区,飯田橋４丁目４番１号,,13,101,1020072,,,,,,,2023-07-28,1,,,,,イノズアセット,0
1611,7010003041182,新規,0,2023-07-28,2023-07-28,合同会社シュークリア,,合同会社,東京都,中央区,晴海２丁目２番４２－３４２３号,,13,102,1040053,,,,,,,2023-07-28,1,,,,,シュークリア,0
1612,7010003041216,新規,0,2023-07-28,2023-07-28,合同会社齊藤,,合同会社,東京都,文京区,本郷１丁目２５番９号,,13,105,1130033,,,,,,,2023-07-28,1,,,,,サイトウ,0
1613,7010003041232,新規,0,2023-07-28,2023-07-28,Ｙａｔｓｕｙａｋｕ　Ｔａｘ　ａｎｄ　Ｃｏｎｓｕｌｔｉｎｇ合同会社,,合同会社,東京都,中央区,日本橋室町１丁目１１番１２号,,13,102,1030022,,,,,,,2023-07-28,1,,,,,ヤツヤクタックスアンドコンサルティング,0
1622,7010401176019,新規,0,2023-07-28,2023-07-28,株式会社そら,,株式会社,東京都,港区,西麻布３丁目８番１１－２０４号西麻布コンド,,13,103,1060031,,,,,,,2023-07-28,1,,,,,ソラ,0
1623,7010403030586,新規,0,2023-07-28,2023-07-28,合同会社ＳＹマネジメント,,合同会社,東京都,港区,赤坂１丁目１１番４０号１７０１号室,,13,103,1070052,,,,,,,2023-07-28,1,,,,,エスワイマネジメント,0
1625,7010501050817,新規,0,2023-07-28,2023-07-28,株式会社Ｔ‐ＧｉＫ,,株式会社,東京都,台東区,鳥越１丁目１６番８号,,13,106,1110054,,,,,,,2023-07-28,1,,,,,ティージック,0
1639,7011001155882,新規,0,2023-07-28,2023-07-28,賃貸住宅情報管理機構株式会社,,株式会社,東京都,渋谷区,渋谷２丁目２４番１２号,,13,113,1500002,,,,,,,2023-07-28,1,,,,,チンタイジュウタクジョウホウカンリキコウ,0
1640,7011001155957,新規,0,2023-07-28,2023-07-28,Ｃｒａｆｔ　Ｓｐｉｒｉｔｓ　Ｄｉｓｔｒｉｂｕｔｏｒ株式会社,,株式会社,東京都,渋谷区,代官山町１２番１８号ＩＮＯＩＩビル２Ｆ,00131307,13,113,1500034,,,,,,,2023-07-28,1,,,,,クラフトスピリッツディストリビューター,0
1641,7011001155973,新規,0,2023-07-28,2023-07-28,株式会社ＭｅＬｅｓｓ,,株式会社,東京都,目黒区,下目黒３丁目１番５－８０２号パラスト下目黒,,13,110,1530064,,,,,,,2023-07-28,1,,,,,ミイレス,0
1643,7011003017263,新規,0,2023-07-28,2023-07-28,コロン合同会社,,合同会社,東京都,渋谷区,代々木２丁目３８番１号,,13,113,1510053,,,,,,,2023-07-28,1,,,,,コロン,0
1645,7011101103808,新規,0,2023-07-28,2023-07-28,株式会社フラットケア,,株式会社,東京都,新宿区,新宿６丁目１２番７号,,13,104,1600022,,,,,,,2023-07-28,1,,,,,フラットケア,0
1646,7011103013303,新規,0,2023-07-28,2023-07-28,Ｐｒｏｇｒａｍｍｉｎｇ　ｓｕｉｔｅ合同会社,,合同会社,東京都,新宿区,西新宿３丁目３番１３号西新宿水間ビル２Ｆ,,13,104,1600023,,,,,,,2023-07-28,1,,,,,プログラミングスイート,0
1652,7011305002921,新規,0,2023-07-28,2023-07-28,一般社団法人チーム基町,,その他の設立登記法人,東京都,杉並区,善福寺３丁目２１番８号,,13,115,1670041,,,,,,,2023-07-28,1,,,,,チームモトマチ,0
1654,7011405002251,新規,0,2023-07-28,2023-07-28,一般財団法人Ｎａｋａ　Ｍｕｓｉｃ,,その他の設立登記法人,東京都,板橋区,小茂根４丁目８番１６－３０２号,,13,119,1730037,,,,,,,2023-07-28,1,,,,,ナカミュージック,0
1665,7013301051134,新規,0,2023-07-28,2023-07-28,金誠株式会社,,株式会社,東京都,豊島区,北大塚３丁目２９番９号ハイネス北大塚１０１,,13,116,1700004,,,,,,,2023-07-28,1,,,,,キンジョウ,0
1669,7020001152625,新規,0,2023-07-28,2023-07-28,株式会社ＳｋｙＣｒａｆｔ,,株式会社,神奈川県,横浜市磯子区,滝頭２丁目３２番６－２号,,14,107,2350012,,,,,,,2023-07-28,1,,,,,スカイクラフト,0
1670,7020001152641,新規,0,2023-07-28,2023-07-28,株式会社Ｔ‐ｓｔｙｌｅ,,株式会社,神奈川県,横浜市鶴見区,馬場２丁目３－２０－３,,14,101,2300076,,,,,,,2023-07-28,1,,,,,ティースタイル,0
1672,7020003024260,新規,0,2023-07-28,2023-07-28,合同会社あさＳＯＬＵＴＩＯＮＳ,,合同会社,神奈川県,横浜市鶴見区,鶴見中央２丁目２１番１７号宮本荘１０号,,14,101,2300051,,,,,,,2023-07-28,1,,,,,アサソルソン,0
1673,7021003013352,新規,0,2023-07-28,2023-07-28,ＮＯＣＯＮ合同会社,,合同会社,神奈川県,茅ヶ崎市,中海岸１丁目２－７－５０７,,14,207,2530055,,,,,,,2023-07-28,1,,,,,ノーコン,0
1674,7021003013369,新規,0,2023-07-28,2023-07-28,みちくさプランニング合同会社,,合同会社,神奈川県,相模原市緑区,鳥屋２５１番地２,,14,151,2520155,,,,,,,2023-07-28,1,,,,,ミチクサプランニング,0
1679,7030001155065,新規,0,2023-07-28,2023-07-28,株式会社Ａ・Ｇ・Ｍ　ＴＲＡＤＩＮＧ,,株式会社,埼玉県,三郷市,上口８３８番地,,11,237,3410055,,,,,,,2023-07-28,1,,,,,エージーエムトレーディング,0
1685,7030003022197,新規,0,2023-07-28,2023-07-28,合同会社正信義肢サービス,,合同会社,埼玉県,草加市,弁天１丁目３１番２２－２０３号,,11,221,3400004,,,,,,,2023-07-28,1,,,,,ショウシンギシサービス,0
1686,7030003022222,新規,0,2023-07-28,2023-07-28,Ｍａｇｎｅｔ．ｃｏｍ　ｉｎｔｅｒｎａｔｉｏｎａｌ合同会社,,合同会社,埼玉県,越谷市,蒲生１丁目１１番４号カーサベルデ２０３,,11,222,3430838,,,,,,,2023-07-28,1,,,,,マグネットドットコムインターナショナル,0
1687,7030003022263,新規,0,2023-07-28,2023-07-28,Ｉｎｔｅｇｒｉｔｙ合同会社,,合同会社,埼玉県,さいたま市中央区,大戸６丁目８番６号,,11,105,3380012,,,,,,,2023-07-28,1,,,,,インテグリティ,0
1695,7040001129266,新規,0,2023-07-28,2023-07-28,株式会社フェニックススタッフサービス,,株式会社,千葉県,船橋市,本町５丁目８番３号コスモ船橋１０１－１号室,,12,204,2730005,,,,,,,2023-07-28,1,,,,,フェニックススタッフサービス,0
1696,7040001129407,新規,0,2023-07-28,2023-07-28,株式会社オーテクノフィールド,,株式会社,千葉県,柏市,南逆井６丁目２番２号,,12,217,2770043,,,,,,,2023-07-28,1,,,,,オーテクノフィールド,0
1697,7040001129415,新規,0,2023-07-28,2023-07-28,株式会社ｎｏｕｖｅｌｌｅ　ｐｅａｕ,,株式会社,千葉県,市川市,八幡３丁目３番２－１３０１号,,12,203,2720021,,,,,,,2023-07-28,1,,,,,ヌーベルポー,0
1701,7040003023021,新規,0,2023-07-28,2023-07-28,合同会社あゆみや,,合同会社,千葉県,長生郡一宮町,東浪見４８０７番地,,12,421,2994303,,,,,,,2023-07-28,1,,,,,アユミヤ,0
1711,7060003004655,新規,0,2023-07-28,2023-07-28,ＳＨＡＨＺＡＤＡ　ＴＲＡＤＩＮＧ合同会社,,合同会社,栃木県,栃木市,岩舟町新里１３０４番地３号室,,09,203,3294316,,,,,,,2023-07-28,1,,,,,シャザダトレーディング,0
1715,7070003005041,新規,0,2023-07-28,2023-07-28,合同会社タルデ,,合同会社,群馬県,高崎市,箕郷町東明屋３５１番地１サニーガーデン１０４号,,10,202,3703106,,,,,,,2023-07-28,1,,,,,タルデ,0
1728,7120001256787,新規,0,2023-07-28,2023-07-28,株式会社ＮＩＣＡ,,株式会社,大阪府,大阪市福島区,福島７丁目１番１０号,,27,103,5530003,,,,,,,2023-07-28,1,,,,,ニカ,0
1729,7120001256829,新規,0,2023-07-28,2023-07-28,株式会社ワイエーコンサルタント,,株式会社,大阪府,大阪市中央区,本町２丁目２番５号本町第２ビル,,27,128,5410053,,,,,,,2023-07-28,1,,,,,ワイエーコンサルタント,0
1732,7120003024515,新規,0,2023-07-28,2023-07-28,博豊商事合同会社,,合同会社,大阪府,大阪市港区,市岡元町１丁目６－１１フレンドリー一番館５０１号室,,27,107,5520002,,,,,,,2023-07-28,1,,,,,ハクホウショウジ,0
1733,7120003024589,新規,0,2023-07-28,2023-07-28,ニマル合同会社,,合同会社,大阪府,大阪市浪速区,恵美須東２丁目６－１８,,27,111,5560002,,,,,,,2023-07-28,1,,,,,ニマル,0
1734,7120005023770,新規,0,2023-07-28,2023-07-28,特定非営利活動法人ハシルトン,,その他の設立登記法人,大阪府,大阪市城東区,新喜多東２丁目５－２１,,27,118,5360017,,,,,,,2023-07-28,1,,,,,ハシルトン,0
1737,7120101067952,新規,0,2023-07-28,2023-07-28,株式会社カヌカード,,株式会社,大阪府,岸和田市,畑町３丁目３番３号,,27,202,5960831,,,,,,,2023-07-28,1,,,,,カヌカード,0
1740,7130001074809,新規,0,2023-07-28,2023-07-28,つばめ商事株式会社,,株式会社,京都府,京都市伏見区,深草小久保町２３９番地,,26,109,6128437,,,,,,,2023-07-28,1,,,,,ツバメショウジ,0
1750,7150001026576,新規,0,2023-07-28,2023-07-28,松本商事株式会社,,株式会社,奈良県,磯城郡田原本町,大字三笠１８５番地２,,29,363,6360342,,,,,,,2023-07-28,1,,,,,マツモトショウジ,0
1751,7150003003012,新規,0,2023-07-28,2023-07-28,合同会社Ｋｅｎ企画,,合同会社,奈良県,生駒市,東菜畑２丁目８８６番地４サニークレスト２０５,,29,209,6300215,,,,,,,2023-07-28,1,,,,,ケンキカク,0
1755,7170005007026,新規,0,2023-07-28,2023-07-28,宗教法人三石不動尊,,その他の設立登記法人,和歌山県,橋本市,山田８１２番地１,,30,203,6480081,,,,,,,2023-07-28,1,,,,,ミツイシフドウソン,0
1775,7250003003308,新規,0,2023-07-28,2023-07-28,Ｋ・Ｄ・Ｋ合同会社,,合同会社,山口県,防府市,大字牟礼８５６番地の３８,,35,206,7470004,,,,,,,2023-07-28,1,,,,,ケイディケイ,0
1777,7260001038148,新規,0,2023-07-28,2023-07-28,株式会社Ｂｅａｍｉｎｇ　Ａｇｅｎｃｙ,,株式会社,岡山県,岡山市中区,高島新屋敷１０３番地３,,33,102,7038241,,,,,,,2023-07-28,1,,,,,ビーミングエージェンシー,0
1783,7290001102413,新規,0,2023-07-28,2023-07-28,株式会社ｉ　Ｃｏｌｌｅｃｔｉｏｎ,,株式会社,福岡県,春日市,一の谷２丁目２８番地,,40,218,8160852,,,,,,,2023-07-28,1,,,,,アイコレクション,0
1784,7290001102421,新規,0,2023-07-28,2023-07-28,株式会社ＴＮＦ,,株式会社,福岡県,小郡市,三沢４１２１番地１,,40,216,8380106,,,,,,,2023-07-28,1,,,,,ティーエヌエフ,0
1791,7290801029731,新規,0,2023-07-28,2023-07-28,株式会社岩崎建興,00131305,株式会社,福岡県,北九州市小倉南区,守恒本町２丁目６番６号,,40,107,8020971,,,,,,,2023-07-28,1,,,,,イワサキケンコウ,0
1792,7300003001999,新規,0,2023-07-28,2023-07-28,合同会社ローカルダイニング,,合同会社,佐賀県,唐津市,浜玉町東山田２１０１番地１,,41,202,8495123,,,,,,,2023-07-28,1,,,,,ローカルダイニング,0
1822,7400001016329,新規,0,2023-07-28,2023-07-28,株式会社葵興業,,株式会社,岩手県,北上市,相去町滝の沢１１番地３,,03,206,0240051,,,,,,,2023-07-28,1,,,,,アオイコウギョウ,0
1834,7430001089561,新規,0,2023-07-28,2023-07-28,株式会社ノイエ,,株式会社,北海道,札幌市厚別区,厚別東二条７丁目１０番２０号,,01,108,0040002,,,,,,,2023-07-28,1,,,,,ノイエ,0
1837,7450003002363,新規,0,2023-07-28,2023-07-28,合同会社理安,,合同会社,北海道,旭川市,六条通４丁目２４７４番地７,,01,204,0700036,,,,,,,2023-07-28,1,,,,,,0
1841,7470001019721,新規,0,2023-07-28,2023-07-28,株式会社瀬戸富士,,株式会社,香川県,仲多度郡多度津町,大字東白方９７９番地１,,37,404,7640038,,,,,,,2023-07-28,1,,,,,セトフジ,0
1842,7480001012155,新規,0,2023-07-28,2023-07-28,株式会社アンドリープ,,株式会社,徳島県,板野郡藍住町,奥野字原１番地１,,36,403,7711201,,,,,,,2023-07-28,1,,,,,アンドリープ,0
1845,7700150118647,新規,0,2023-07-28,2023-07-28,Ｑｕａｎｚｈｏｕｓｈｉｙｕｃｈｅｎｑｉｙｅｇｕａｎｌｉｚｉｘｕｎｙｏｕｘｉａｎｇｏｎｇｓｉ,,外国会社等,,,,,,,,Ｖａｎｋｅ　Ｃｉｔｙ，Ｎｏ．１０１　Ｂｅｉｑｉｎｇ　Ｗｅｓｔ　Ｒｏａｄ，Ｖａｎｋｅ　Ｃｉｔｙ　Ｃｏｍｍｕｎｉｔｙ，Ｂｅｉｆｅｎｇ　Ｓｔｒｅｅｔ　Ｒｏｏｍ　Ａ２５０３，Ｂｕｉｌｄｉｎｇ　３　Ｑｕａｎｚｈｏｕ　Ｆｅｎｇｚｅ　Ｄｉｓｔｒｉｃｔ　Ｆｕｊｉａｎ　３６２００８　ＣＮ,,,,,,2023-07-28,1,,,,,チュェンジョウシユィチェンチーイエグァンリーズーシュンヨウシェンゴンスー,0
1846,7700150118655,新規,0,2023-07-28,2023-07-28,Ｓｈｅｎｚｈｅｎ　Ｃｉｔｙ　Ｙｕｎｘｉｎｊｉａ　Ｔｅｃｈｎｏｌｏｇｙ　Ｃｏ．，Ｌｔｄ,,外国会社等,,,,,,,,Ｎａｎｓｈｅｎ　Ｉｎｄｕｓｔｒｙ　５　Ｂｕｉｌｄｉｎｇ　４０８，Ｎｏ．１１００　Ｈｏｎｇｇａｎｇ　Ｒｏａｄ，Ｑｉｎｇｓｈｕｉｈｅ　Ｃｏｍｍｕｎｉｔｙ，Ｑｉｎｇｓｈｕｉｈｅ　Ｓｔｒｅｅｔ　Ｓｈｅｎｚｈｅｎ　Ｌｏ　Ｗｕ　Ｇｕａｎｇｄｏｎｇ　５１８０００ＣＮ,,,,,,2023-07-28,1,,,,,シンセンシティーユンシンジャテクノロジーカンパニーリミテッド,0
1847,7700150118663,新規,0,2023-07-28,2023-07-28,ｓｈａｎｇｈａｉ　ｌｕｏｓｉｂａｏ　ｚｈｉｎｅｎｇｋｅｊｉ　ｙｏｕｘｉａｎｇｏｎｇｓｉ,,外国会社等,,,,,,,,Ｂｕｉｌｄｉｎｇ　１，Ｎｏ．５５００　Ｙｕａｎｊｉａｎｇ　Ｒｏａｄ，Ｍｉｎｈａｎｇ　Ｄｉｓｔｒｉｃｔ，Ｓｈａｎｇｈａｉ，Ｃｈｉｎａ,,,,,,2023-07-28,1,,,,,シャンハイルオスバオジネンケジユウゲンコウシ,0
1856,8010001237236,新規,0,2023-07-28,2023-07-28,東京ハーモニー海洋技術株式会社,,株式会社,東京都,中央区,築地７丁目８番３－１１０１号,,13,102,1040045,,,,,,,2023-07-28,1,,,,,トウキョウハーモニーカイヨウギジュツ,0
1857,8010001237269,新規,0,2023-07-28,2023-07-28,株式会社プチニコラ,,株式会社,東京都,文京区,本駒込１丁目２０番１５号,,13,105,1130021,,,,,,,2023-07-28,1,,,,,プチニコラ,0
1858,8010001237277,新規,0,2023-07-28,2023-07-28,大和ハウスホテルマネジメント大阪城株式会社,,株式会社,東京都,千代田区,飯田橋３丁目１３番１号,,13,101,1020072,,,,,,,2023-07-28,1,,,,,ダイワハウスホテルマネジメントオオサカジョウ,0
1867,8010003041198,新規,0,2023-07-28,2023-07-28,ｈ．ｒ．合同会社,,合同会社,東京都,千代田区,神田駿河台２丁目１番地,,13,101,1010062,,,,,,,2023-07-28,1,,,,,エイチアール,0
1869,8010005036972,新規,0,2023-07-28,2023-07-28,一般社団法人高強度繊維技術開発機構,,その他の設立登記法人,東京都,千代田区,九段南３丁目８番１０号ＡＣＮ九段南ビル３Ｆ,,13,101,1020074,,,,,,,2023-07-28,1,,,,,コウキョウドセンイギジュツカイハツキコウ,0
1870,8010005036997,新規,0,2023-07-28,2023-07-28,ＦＡＬ　Ｎｏ．３ＴＭＫ特定目的会社,,その他の設立登記法人,東京都,千代田区,丸の内２丁目３番２号郵船ビルアルタードムス・ジャパン株式会社内,,13,101,1000005,,,,,,,2023-07-28,1,,,,,エフエーエルナンバースリーティーエムケー,0
1877,8010401176026,新規,0,2023-07-28,2023-07-28,株式会社ＢＡＲＯ　Ｆ＆Ｂ,,株式会社,東京都,港区,新橋３丁目１８－４,,13,103,1050004,,,,,,,2023-07-28,1,,,,,バロエフアンドビー,0
1879,8010405022309,新規,0,2023-07-28,2023-07-28,一般社団法人日中投資貿易振興機構,,その他の設立登記法人,東京都,港区,東新橋２丁目１０番１０－４０６号東新橋ビル,,13,103,1050021,,,,,,,2023-07-28,1,,,,,ニッチュウトウシボウエキシンコウキコウ,0
1882,8010503007095,新規,0,2023-07-28,2023-07-28,合同会社Ｒｉｎｋｓ,,合同会社,東京都,台東区,蔵前２丁目１６番４－１６０４号,,13,106,1110051,,,,,,,2023-07-28,1,,,,,リンクス,0
1885,8010601063511,新規,0,2023-07-28,2023-07-28,Ｒ東京メディカルサポート株式会社,,株式会社,東京都,江東区,豊洲５丁目１番１３－１４０５号,,13,108,1350061,,,,,,,2023-07-28,1,,,,,アールトウキョウメディカルサポート,0
1890,8010605004222,新規,0,2023-07-28,2023-07-28,一般社団法人Ｃｈｏｉｘ,,その他の設立登記法人,東京都,江東区,新大橋３丁目１８番１２－６０１号,,13,108,1350007,,,,,,,2023-07-28,1,,,,,ショワ,0
1902,8011001155948,新規,0,2023-07-28,2023-07-28,Ｑ．Ｗ．Ｅ．Ｒ株式会社,,株式会社,東京都,目黒区,碑文谷１丁目２７番２４号ＨＧＨ８１－Ｄ,,13,110,1520003,,,,,,,2023-07-28,1,,,,,キュウダブリュウイーアール,0
1911,8011101103781,新規,0,2023-07-28,2023-07-28,ハイアーズアイランド株式会社,,株式会社,東京都,新宿区,西新宿６丁目２０番７号,,13,104,1600023,,,,,,,2023-07-28,1,,,,,ハイアーズアイランド,0
1912,8011101103798,新規,0,2023-07-28,2023-07-28,株式会社ＧＤＸ,,株式会社,東京都,新宿区,新宿２丁目１２番１３号新宿アントレサロンビル,,13,104,1600022,,,,,,,2023-07-28,1,,,,,ジーディーエックス,0
1918,8011803005755,新規,0,2023-07-28,2023-07-28,合同会社ＹＨＳ,,合同会社,東京都,足立区,中央本町１丁目１９－２,,13,121,1200011,,,,,,,2023-07-28,1,,,,,ワイエイチエス,0
1923,8012801022528,新規,0,2023-07-28,2023-07-28,株式会社岡部組,,株式会社,東京都,国分寺市,西町２丁目２４番地１１,,13,214,1850035,,,,,,,2023-07-28,1,,,,,オカベグミ,0
1924,8013301051075,新規,0,2023-07-28,2023-07-28,株式会社ＪＮＣ,,株式会社,東京都,豊島区,池袋４丁目１２番２０号,,13,116,1710014,,,,,,,2023-07-28,1,,,,,ジャパンネットワークコーポレーション,0
1925,8013301051109,新規,0,2023-07-28,2023-07-28,四勝株式会社,,株式会社,東京都,豊島区,南池袋１丁目９番１８号ＧＯＧＯオフィス池袋２２３号,,13,116,1710022,,,,,,,2023-07-28,1,,,,,シカツ,0
1926,8013301051117,新規,0,2023-07-28,2023-07-28,株式会社Ｌｕｃｋｙ　Ｃａｒｄ,,株式会社,東京都,豊島区,目白３丁目１９－１３,,13,116,1710031,,,,,,,2023-07-28,1,,,,,ラッキーカード,0
1932,8020001152608,新規,0,2023-07-28,2023-07-28,株式会社ＮＵＮＵ,,株式会社,神奈川県,川崎市川崎区,本町２丁目６－５ノバ川崎本町６０４,,14,131,2100001,,,,,,,2023-07-28,1,,,,,ヌヌ,0
1933,8020001152624,新規,0,2023-07-28,2023-07-28,株式会社ＣｒａｆｔＶｉｃｔｏｒ,,株式会社,神奈川県,横浜市磯子区,滝頭２丁目３２番６－２号,,14,107,2350012,,,,,,,2023-07-28,1,,,,,クラフトビクター,0
1936,8020003024251,新規,0,2023-07-28,2023-07-28,合同会社ゴットハンド,,合同会社,神奈川県,横浜市中区,本牧原１５番６号,,14,104,2310821,,,,,,,2023-07-28,1,,,,,ゴットハンド,0
1937,8020003024284,新規,0,2023-07-28,2023-07-28,合同会社天神,,合同会社,神奈川県,川崎市中原区,上丸子天神町３７４番地２２,,14,133,2110007,,,,,,,2023-07-28,1,,,,,テンジン,0
1943,8030003022147,新規,0,2023-07-28,2023-07-28,合同会社半空,,合同会社,埼玉県,川口市,八幡木３丁目１２番地の４２,,11,203,3340012,,,,,,,2023-07-28,1,,,,,ナカゾラ,0
1944,8030003022188,新規,0,2023-07-28,2023-07-28,合同会社高田理美容,00131303,合同会社,埼玉県,川口市,芝３丁目１番２０号,,11,203,3330866,,,,,,,2023-07-28,1,,,,,タカダリビヨウ,0
1945,8030003022205,新規,0,2023-07-28,2023-07-28,キヨウ合同会社,,合同会社,埼玉県,加須市,内田ケ谷１５７番地１,,11,210,3470122,,,,,,,2023-07-28,1,,,,,キヨウ,0
1946,8030003022213,新規,0,2023-07-28,2023-07-28,合同会社ハソ,,合同会社,埼玉県,川口市,前川３丁目５９番１５号グリッター５０５号,,11,203,3330842,,,,,,,2023-07-28,1,,,,,ハソ,0
1947,8030003022238,新規,0,2023-07-28,2023-07-28,ＭＭＦ合同会社,,合同会社,埼玉県,熊谷市,銀座４丁目７３０番地７８熊谷団地１８号棟４０１,,11,202,3600032,,,,,,,2023-07-28,1,,,,,エムエムエフ,0
1954,8040001129249,新規,0,2023-07-28,2023-07-28,メディカルＣＫ株式会社,,株式会社,千葉県,八千代市,勝田台南２丁目２６－１３,,12,221,2760025,,,,,,,2023-07-28,1,,,,,メディカルシーケ,0
1955,8040001129364,新規,0,2023-07-28,2023-07-28,株式会社Ｂｌｕｅ　Ｏｃｅａｎ,,株式会社,千葉県,船橋市,芝山５丁目１７番１０号,,12,204,2740816,,,,,,,2023-07-28,1,,,,,ブルーオーシャン,0
1956,8040001129422,新規,0,2023-07-28,2023-07-28,株式会社サガワ,,株式会社,千葉県,木更津市,真舟５丁目１９番２２号,,12,206,2920802,,,,,,,2023-07-28,1,,,,,サガワ,0
1963,8050001053200,新規,0,2023-07-28,2023-07-28,株式会社マハロタウン・境,,株式会社,茨城県,猿島郡境町,大字長井戸１６８３番地,,08,546,3060404,,,,,,,2023-07-28,1,,,,,マハロタウンサカイ,0
1968,8060001036195,新規,0,2023-07-28,2023-07-28,株式会社ＪＹＴ　ＥＸＣＥＬＬＥＮＣＥ,,株式会社,栃木県,小山市,駅南町３丁目３０番１１号,,09,208,3230822,,,,,,,2023-07-28,1,,,,,ジェイワイティエクセレンス,0
1969,8070001040675,新規,0,2023-07-28,2023-07-28,ラブルエステート株式会社,,株式会社,群馬県,伊勢崎市,太田町５２８番地１－Ｃ号,,10,204,3720006,,,,,,,2023-07-28,1,,,,,ラブルエステート,0
1973,8080403004839,新規,0,2023-07-28,2023-07-28,ミカヒロ合同会社,,合同会社,静岡県,浜松市南区,都盛町２９番１号１０５号室,,22,134,4300815,,,,,,,2023-07-28,1,,,,,ミカヒロ,0
1978,8090001018232,新規,0,2023-07-28,2023-07-28,株式会社プロム,,株式会社,山梨県,南都留郡富士河口湖町,河口４４６番地１,,19,430,4010304,,,,,,,2023-07-28,1,,,,,プロム,0
1981,8100001036629,新規,0,2023-07-28,2023-07-28,株式会社ＳＢＭ,,株式会社,長野県,長野市,篠ノ井杵淵１９番地２,,20,201,3888019,,,,,,,2023-07-28,1,,,,,エスビーエム,0
1992,8120001256670,新規,0,2023-07-28,2023-07-28,株式会社センス,,株式会社,大阪府,大阪市中央区,島之内２丁目９－２０道頓堀ロイヤル１階,,27,128,5420082,,,,,,,2023-07-28,1,,,,,センス,0
1993,8120001256836,新規,0,2023-07-28,2023-07-28,株式会社イーグレット,,株式会社,大阪府,大阪市東住吉区,駒川２丁目２番１１号,,27,121,5460043,,,,,,,2023-07-28,1,,,,,イーグレット,0
1994,8120003024514,新規,0,2023-07-28,2023-07-28,金田合同会社,,合同会社,大阪府,大阪市中央区,島之内２丁目２－２０白扇ビル３０１,,27,128,5420082,,,,,,,2023-07-28,1,,,,,カンダ,0
2000,8130001074790,新規,0,2023-07-28,2023-07-28,ＡＺ株式会社,,株式会社,京都府,京都市北区,大北山原谷乾町４７番地１０－２０２号室,,26,101,6038487,,,,,,,2023-07-28,1,,,,,エーゼット,0
2004,8140001131021,新規,0,2023-07-28,2023-07-28,株式会社ＲＪＴ,,株式会社,兵庫県,姫路市,八代宮前町１５番１号,,28,201,6700885,,,,,,,2023-07-28,1,,,,,アールジェイティー,0
2007,8140003019347,新規,0,2023-07-28,2023-07-28,合同会社ＵＬＹＳＳＥＳ,,合同会社,兵庫県,神戸市東灘区,深江北町１丁目９番１７号アメニティコートＡ号,,28,101,6580013,,,,,,,2023-07-28,1,,,,,ユリシス,0
2013,8180001157335,新規,0,2023-07-28,2023-07-28,ｏｈａｎａ株式会社,,株式会社,愛知県,名古屋市港区,当知町字堤外６６１番地の３,,23,111,4550805,,,,,,,2023-07-28,1,,,,,オハナ,0
2014,8180001157343,新規,0,2023-07-28,2023-07-28,株式会社ＷＥＢＲＯＰＥＳ,,株式会社,愛知県,名古屋市中区,栄５丁目２６番３９号ＧＳ栄ビル３Ｆ,,23,106,4600008,,,,,,,2023-07-28,1,,,,,ウェブロープス,0
2019,8190001030607,新規,0,2023-07-28,2023-07-28,株式会社ティーアール,,株式会社,三重県,鈴鹿市,寺家１丁目１４番２号,,24,207,5100254,,,,,,,2023-07-28,1,,,,,ティーアール,0
2025,8200001041536,新規,0,2023-07-28,2023-07-28,株式会社Ｗｉｍｐｓ,,株式会社,岐阜県,岐阜市,粟野西３丁目２８番地１クレストールＫｉＫｉＢ２０２,,21,201,5020006,,,,,,,2023-07-28,1,,,,,ウィンプス,0
2029,8200003006033,新規,0,2023-07-28,2023-07-28,ＡＯＴＥＮコンサルティング合同会社,,合同会社,岐阜県,多治見市,滝呂町１２丁目１４８番地の１２６,,21,204,5070813,,,,,,,2023-07-28,1,,,,,アオテンコンサルティング,0
2049,8300003001998,新規,0,2023-07-28,2023-07-28,合同会社Ｌｉｅｎ,,合同会社,佐賀県,佐賀市,兵庫南２丁目２番１号,,41,201,8490918,,,,,,,2023-07-28,1,,,,,リアン,0
2051,8310001018531,新規,0,2023-07-28,2023-07-28,株式会社グッドフィットネス,,株式会社,長崎県,佐世保市,梅田町６－３,,42,202,8570017,,,,,,,2023-07-28,1,,,,,グッドフィットネス,0
2066,8370003006215,新規,0,2023-07-28,2023-07-28,合同会社マーベラス,,合同会社,宮城県,仙台市宮城野区,五輪２丁目９番５２号,,04,102,9830842,,,,,,,2023-07-28,1,,,,,マーベラス,0
2071,8400001016328,新規,0,2023-07-28,2023-07-28,株式会社プロテクター,,株式会社,岩手県,盛岡市,上田４丁目４番地２１,,03,201,0200066,,,,,,,2023-07-28,1,,,,,プロテクター,0
2077,8430001089560,新規,0,2023-07-28,2023-07-28,住研デザイン株式会社,,株式会社,北海道,札幌市豊平区,中の島一条８丁目１番１３号,,01,105,0620921,,,,,,,2023-07-28,1,,,,,ジュウケンデザイン,0
2079,8460001005812,新規,0,2023-07-28,2023-07-28,株式会社ルーム,,株式会社,北海道,釧路郡釧路町,東陽大通西３丁目２番地７,,01,661,0880628,,,,,,,2023-07-28,1,,,,,ルーム,0
2086,8480003002005,新規,0,2023-07-28,2023-07-28,合同会社Ｒ＆Ｍ,,合同会社,徳島県,徳島市,庄町５丁目８１番地の６４カーサフレア５号棟,,36,201,7700044,,,,,,,2023-07-28,1,,,,,アールアンドエム,0
2091,8700150118646,新規,0,2023-07-28,2023-07-28,ｚｈｉ　ｙｉｎｇ　ｓｈａｎｇ　ｍａｏ　ｓｈｅｎｚｈｅｎ　ｙｏｕ　ｘｉａｎ　ｇｏｎｇ　ｓｉ,,外国会社等,,,,,,,,ＬｏｎｇＧａｎｇ　ｑｕ　ｂａｎｔｉａｎ　ｊｉｅｄａｏ　ｗａｎｋｅｄｉｗｕｙｕａｎ　ｓｉ　ｑｉ　１３ｄｏｎｇ　４Ｆ　４０５ｓｈｉ　ＳｈｅｎｇＺｈｅｎ　ＧｕａｎｇＤｏｎｇ　５１８１２９　ＣＮ,,,,,,2023-07-28,1,,,,,ジーインシャンマオシェンジェンヨウシェンゴンスー,0
2092,8700150118654,新規,0,2023-07-28,2023-07-28,ｓｈｅｎｚｈｅｎｓｈｉｔｕｂｉｗａｎｋｅｊｉｙｏｕｘｉａｎｇｏｎｇｓｉ,,外国会社等,,,,,,,,ＪＩ　ＨＵＡ　ＪＩＥ　ＤＡＯ　ＳＡＮ　ＬＩＡＮ　ＳＨＥ　ＱＵ　ＳＡＮ　ＬＩＡＮ　ＺＨＵ　ＢＡＯ　ＣＨＥＮＧ　Ｇ　ＤＯＮＧ　６０３　ＳＨＥＮ　ＺＨＥＮ　ＳＨＩ　ＬＯＮＧ　ＧＡＮＧ　ＱＵ　ＧＵＡＮＧ　ＤＯＮＧ　ＳＨＥＮＧ　５１８０００　ＣＮ,,,,,,2023-07-28,1,,,,,シェンジェンシトゥービーワンカージヨウシェンゴンスー,0
2093,8700150118662,新規,0,2023-07-28,2023-07-28,Ｅａｓｙｐｌａｙ　Ｓｈｅｎｚｈｅｎ　Ｔｅｃｈｎｏｌｏｇｙ　Ｃｅｎｔｅｒ,,外国会社等,,,,,,,,Ｄ８０３，Ｂａｎｗｅｉ　ｙｕａｎ，Ｎｏ．１７　Ｙｏｎｇｘｉａｎｇ　Ｅａｓｔ　ＲｏａｄＢａｎｔｉａｎ　Ｓｔｒｅｅｔ，Ｌｏｎｇｇａｎｇ　Ｄｉｓｔｒｉｃｔ，Ｓｈｅｎｚｈｅｎ　Ｇｕａｎｇｄｏｎｇ　５１８０１２　ＣＮ,,,,,,2023-07-28,1,,,,,スイワンシェンジェンジシュウジョンシン,0
2094,8700150118670,新規,0,2023-07-28,2023-07-28,ＳＵＭＩＭＯＴＯ　ＴＲＡＤＥＲＳ　ＰＲＩＶＡＴＥ　ＬＩＭＩＴＥＤ．,,外国会社等,神奈川県,愛甲郡愛川町,角田３６６９,,14,401,2430301,スリランカ民主社会主義共和国ベヤンゴダ、ウダムミタ、コーラワッタ、５レーン,,,,,,2023-07-28,1,,,,,スミモトトレーダースプライベートリミテツド,0
2104,9010001237210,新規,0,2023-07-28,2023-07-28,Ｓｕｎ　ｓｅｅｄ株式会社,,株式会社,東京都,中央区,日本橋室町１丁目１１番１２号日本橋水野ビル７階,,13,102,1030022,,,,,,,2023-07-28,1,,,,,サンシード,0
2105,9010001237227,新規,0,2023-07-28,2023-07-28,株式会社Ｑｕａｌｉｔｅｇ,,株式会社,東京都,千代田区,鍛冶町１丁目１０番６号,,13,101,1010044,,,,,,,2023-07-28,1,,,,,クオリテグ,0
2114,9010003041214,新規,0,2023-07-28,2023-07-28,ライフテクノロジー合同会社,,合同会社,東京都,中央区,銀座１丁目２２番１１号銀座大竹ビジデンス２Ｆ,,13,102,1040061,,,,,,,2023-07-28,1,,,,,ライフテクノロジー,0
2115,9010003041230,新規,0,2023-07-28,2023-07-28,ＡＮ　Ｖｅｎｔｕｒｅ合同会社,,合同会社,東京都,千代田区,永田町２丁目１１番１号山王パークタワー４階永峰・三島コンサルティング内,,13,101,1000014,,,,,,,2023-07-28,1,,,,,エーエヌベンチャー,0
2117,9010005036996,新規,0,2023-07-28,2023-07-28,一般社団法人日本睡眠協会,,その他の設立登記法人,東京都,文京区,本郷６丁目２５番１４号,,13,105,1130033,,,,,,,2023-07-28,1,,,,,ニホンスイミンキョウカイ,0
2124,9010401176033,新規,0,2023-07-28,2023-07-28,ＵｐｌｏａｄｅｄＭｉｎｄ株式会社,,株式会社,東京都,港区,麻布台２丁目１番２－１１１３号,,13,103,1060041,,,,,,,2023-07-28,1,,,,,アップローデッドマインド,0
2131,9010403030576,新規,0,2023-07-28,2023-07-28,Ｙ＆Ｙ合同会社,,合同会社,東京都,港区,高輪１丁目２３番２３号,,13,103,1080074,,,,,,,2023-07-28,1,,,,,ワイアンドワイ,0
2132,9010403030601,新規,0,2023-07-28,2023-07-28,夕顔合同会社,,合同会社,東京都,港区,西新橋１丁目１番１号ＥＰコンサルティングサービス内,,13,103,1050003,,,,,,,2023-07-28,1,,,,,ユウガオ,0
2137,9010501050815,新規,0,2023-07-28,2023-07-28,Ｉ．Ｆ　ＪＡＰＡＮ株式会社,,株式会社,東京都,台東区,花川戸１丁目２番８コーポ花川戸８０５号,,13,106,1110033,,,,,,,2023-07-28,1,,,,,アイエフジャパン,0
2139,9010703006796,新規,0,2023-07-28,2023-07-28,合同会社Ｂｉｇｂｌｕｅ,,合同会社,東京都,品川区,戸越２丁目２番１６号第２山崎ビル２０１,,13,109,1420041,,,,,,,2023-07-28,1,,,,,ビックブルー,0
2151,9011001155939,新規,0,2023-07-28,2023-07-28,株式会社ＣＢＤｅｌｕｘ,,株式会社,東京都,渋谷区,恵比寿４丁目５－５,,13,113,1500013,,,,,,,2023-07-28,1,,,,,,0
2152,9011001155947,新規,0,2023-07-28,2023-07-28,Ｙａｔｓｅｎ　Ｂｅａｕｔｙ　Ｊａｐａｎ株式会社,,株式会社,東京都,渋谷区,渋谷３丁目５番５号,,13,113,1500002,,,,,,,2023-07-28,1,,,,,ヤッセンビューティージャパン,0
2158,9011101103797,新規,0,2023-07-28,2023-07-28,株式会社ＳＩＳＴＥＲＳ,,株式会社,東京都,新宿区,市谷田町２丁目１７番地,,13,104,1620843,,,,,,,2023-07-28,1,,,,,シスターズ,0
2159,9011101103806,新規,0,2023-07-28,2023-07-28,株式会社ＭＡＲＣＲＵＺＥ　ｉｎｖｅｓｔｍｅｎｔ,,株式会社,東京都,新宿区,西新宿１丁目２６－２野村ビル３２階,,13,104,1600023,,,,,,,2023-07-28,1,,,,,マークルズインベストメント,0
2166,9011801042799,新規,0,2023-07-28,2023-07-28,株式会社おいもや,,株式会社,東京都,葛飾区,高砂２丁目３８－６神谷第３ビル３０３,,13,122,1250054,,,,,,,2023-07-28,1,,,,,オイモヤ,0
2189,9020001152615,新規,0,2023-07-28,2023-07-28,株式会社滝沢工業,,株式会社,神奈川県,横浜市磯子区,洋光台２丁目３番９－４０４号,,14,107,2350045,,,,,,,2023-07-28,1,,,,,タキザワコウギョウ,0
2190,9020001152706,新規,0,2023-07-28,2023-07-28,ニンベン不動産管理株式会社,,株式会社,神奈川県,横浜市都筑区,折本町１４６８番地,,14,118,2240043,,,,,,,2023-07-28,1,,,,,ニンベンフドウサンカンリ,0
2191,9020001152714,新規,0,2023-07-28,2023-07-28,株式会社つゆはれま,,株式会社,神奈川県,横浜市青葉区,あざみ野２丁目３６番地５０,,14,117,2250011,,,,,,,2023-07-28,1,,,,,ツユハレマ,0
2197,9020003024259,新規,0,2023-07-28,2023-07-28,合同会社Ｃｏｃｃｏ,,合同会社,神奈川県,横浜市都筑区,新栄町７番１３号サンワハイツ１０１,,14,118,2240035,,,,,,,2023-07-28,1,,,,,コッコ,0
2201,9021001079740,新規,0,2023-07-28,2023-07-28,株式会社ＳＡＩＪＵＮ,,株式会社,神奈川県,高座郡寒川町,宮山３９４番地６,,14,321,2530106,,,,,,,2023-07-28,1,,,,,サイジュン,0
2206,9030001155030,新規,0,2023-07-28,2023-07-28,株式会社シルフィー,,株式会社,埼玉県,さいたま市北区,土呂町１丁目２５番４号ＮＫビル・ドミニオン３０２,,11,102,3310804,,,,,,,2023-07-28,1,,,,,シルフィー,0
2207,9030001155071,新規,0,2023-07-28,2023-07-28,株式会社ＳＳＬ不動産,,株式会社,埼玉県,さいたま市緑区,大字三室２６０４番地６,,11,109,3360911,,,,,,,2023-07-28,1,,,,,エスエスエルフドウサン,0
2208,9030001155096,新規,0,2023-07-28,2023-07-28,株式会社Ｌ　ｆｏｒ　Ｌ　ｗｉｚ　ＹＢＫ,,株式会社,埼玉県,戸田市,笹目４丁目１８番地１０,,11,224,3350034,,,,,,,2023-07-28,1,,,,,,0
2212,9030003022187,新規,0,2023-07-28,2023-07-28,合同会社ＴＭＳＫ,,合同会社,埼玉県,入間郡三芳町,大字藤久保５４４番地１ビルディング・ブックセンター第１２倉庫４階,,11,324,3540041,,,,,,,2023-07-28,1,,,,,ティーエムエスケイ,0
2213,9030003022220,新規,0,2023-07-28,2023-07-28,ＦＫ　ＴＲＡＤＩＮＧ合同会社,,合同会社,埼玉県,越谷市,神明町３丁目２２４番地１－（２）,,11,222,3430805,,,,,,,2023-07-28,1,,,,,エフケートレーディング,0
2214,9030003022237,新規,0,2023-07-28,2023-07-28,合同会社ここ・ここ,,合同会社,埼玉県,志木市,幸町２丁目３番２２号,,11,228,3530005,,,,,,,2023-07-28,1,,,,,ココココ,0
2223,9040001129421,新規,0,2023-07-28,2023-07-28,株式会社ＳＡＫＩ,,株式会社,千葉県,松戸市,松戸２２９６番地の１４,,12,207,2710092,,,,,,,2023-07-28,1,,,,,サキ,0
2226,9040003023003,新規,0,2023-07-28,2023-07-28,合同会社小高,,合同会社,千葉県,市川市,大和田３丁目２１番１５号,,12,203,2720025,,,,,,,2023-07-28,1,,,,,オダカ,0
2235,9050001053208,新規,0,2023-07-28,2023-07-28,ＡＳＵＲＥ‐Ｔｅｃｈ株式会社,,株式会社,茨城県,土浦市,永国台３番地２４,,08,203,3000810,,,,,,,2023-07-28,1,,,,,アシュオラテック,0
2236,9050001053216,新規,0,2023-07-28,2023-07-28,株式会社Ｈ．Ｊ,,株式会社,茨城県,那珂市,下江戸１１０４番地１,,08,226,3110126,,,,,,,2023-07-28,1,,,,,エイチジェイ,0
2255,9110001037716,新規,0,2023-07-28,2023-07-28,株式会社トイズ,,株式会社,新潟県,柏崎市,三和町４番２０－２号,,15,205,9450034,,,,,,,2023-07-28,1,,,,,トイズ,0
2265,9120001256752,新規,0,2023-07-28,2023-07-28,青豊株式会社,,株式会社,大阪府,大阪市阿倍野区,阿倍野元町１４－５パシフィックアベノ７０５号室,,27,119,5450034,,,,,,,2023-07-28,1,,,,,アオユタカ,0
2275,9120901047838,新規,0,2023-07-28,2023-07-28,アドアリンク株式会社,,株式会社,大阪府,高槻市,南松原町１０番１２－８０３号,,27,207,5690085,,,,,,,2023-07-28,1,,,,,アドアリンク,0
2295,9180001157326,新規,0,2023-07-28,2023-07-28,株式会社Ｔｒｙ＆Ｇｏ,,株式会社,愛知県,名古屋市西区,万代町２丁目５０－８,,23,104,4510074,,,,,,,2023-07-28,1,,,,,トライアンドゴー,0
2296,9180001157334,新規,0,2023-07-28,2023-07-28,ＭＣＳＩ株式会社,,株式会社,愛知県,名古屋市守山区,守山１丁目１０番６号,,23,113,4630067,,,,,,,2023-07-28,1,,,,,エムシーエスアイ,0
2307,9200001041535,新規,0,2023-07-28,2023-07-28,株式会社クアランタ,,株式会社,岐阜県,岐阜市,大福町５丁目４１番地１,,21,201,5020934,,,,,,,2023-07-28,1,,,,,クアランタ,0
2313,9240001061868,新規,0,2023-07-28,2023-07-28,株式会社下井,,株式会社,広島県,福山市,山手町６丁目５番９号,,34,207,7200092,,,,,,,2023-07-28,1,,,,,シモイ,0
2315,9240005015622,新規,0,2023-07-28,2023-07-28,一般社団法人こころもち学習ネットワーク,,その他の設立登記法人,広島県,東広島市,高屋町白市８８８番地１２１,,34,212,7392114,,,,,,,2023-07-28,1,,,,,ココロモチガクシュウネットワーク,0
2322,9270001008817,新規,0,2023-07-28,2023-07-28,株式会社ＧＯＯＤ　ＳＥＳＳＩＯＮ,,株式会社,鳥取県,西伯郡伯耆町,坂長２２２番地１４,,31,390,6894122,,,,,,,2023-07-28,1,,,,,グッドセッション,0
2327,9290001102428,新規,0,2023-07-28,2023-07-28,株式会社サダカリ,,株式会社,福岡県,大川市,大字向島７０１－７,,40,212,8310005,,,,,,,2023-07-28,1,,,,,サダカリ,0
2329,9290003014126,新規,0,2023-07-28,2023-07-28,合同会社アイディーイー,,合同会社,福岡県,糟屋郡宇美町,ひばりが丘３丁目２７番２１号,,40,341,8112106,,,,,,,2023-07-28,1,,,,,アイディーイー,0
2332,9290005019098,新規,0,2023-07-28,2023-07-28,一般社団法人永俊,,その他の設立登記法人,福岡県,福岡市早良区,野芥４丁目１５番２５号,,40,137,8140171,,,,,,,2023-07-28,1,,,,,エイシュン,0
2336,9300001013400,新規,0,2023-07-28,2023-07-28,株式会社ワイズカンパニー,,株式会社,佐賀県,唐津市,材木町２２０３番地１－２階,,41,202,8470061,,,,,,,2023-07-28,1,,,,,ワイズカンパニー,0
2344,9340001025739,新規,0,2023-07-28,2023-07-28,株式会社ＵＲＡＦＵＲＵ,,株式会社,鹿児島県,鹿児島市,紫原５丁目４４－１８Ｄｏｍｕｓ　ｓｔｙｌｅ　３階３０２号室,,46,201,8900082,,,,,,,2023-07-28,1,,,,,ウラフル,0
2352,9370001050222,新規,0,2023-07-28,2023-07-28,眞工業株式会社,,株式会社,宮城県,名取市,植松字入生３５４番地の１３,,04,207,9811226,,,,,,,2023-07-28,1,,,,,マコトコウギョウ,0
2354,9370003006222,新規,0,2023-07-28,2023-07-28,ＹＭＲアセットマネジメント合同会社,,合同会社,宮城県,仙台市太白区,若葉町２０番２７号,,04,104,9820822,,,,,,,2023-07-28,1,,,,,ワイエムアールアセットマネジメント,0
2365,9410003003826,新規,0,2023-07-28,2023-07-28,合同会社ファインテック秋田,,合同会社,秋田県,由利本荘市,三条字三条谷地２６０番地,,05,210,0150067,,,,,,,2023-07-28,1,,,,,ファインテックアキタ,0
2369,9430003015274,新規,0,2023-07-28,2023-07-28,ビーコンシステム合同会社,,合同会社,北海道,札幌市北区,北十八条西３丁目１番３０－２０３号,,01,102,0010018,,,,,,,2023-07-28,1,,,,,ビーコンシステム,0
2376,9490005006902,新規,0,2023-07-28,2023-07-28,行政書士法人鳳,,その他の設立登記法人,高知県,高知市,長浜３１０７番地２,,39,201,7810270,,,,,,,2023-07-28,1,,,,,,0
2378,9500001025086,新規,0,2023-07-28,2023-07-28,株式会社すてむ,,株式会社,愛媛県,四国中央市,土居町津根３８０４番地７,,38,213,7990704,,,,,,,2023-07-28,1,,,,,ステム,0
2380,9700150118645,新規,0,2023-07-28,2023-07-28,Ｓｈａｎｇｈａｉ　ｘｉｓｈａｎｇｔｉｙｕｙｏｎｇｐｉｎ　ｙｏｕｘｉａｎｇｏｎｇｓｉ,,外国会社等,,,,,,,,ｔｉｎｇｌｉｎｚｈｅｎ　ｓｏｎｇｙｉｎ　ｎａｎｘｉｎｇｃｕｎ　３１０６ｈａｏ　２ｌｏｕ　８５ｓｈｉ　ｊｉｎｓｈａｎｇｑｕ　ｓｈａｎｇｈａｉ　２０１５０４　ＣＮ,,,,,,2023-07-28,1,,,,,シャンハイシーシャンティーユィヨンピンヨウシェンゴンスー,0
2381,9700150118653,新規,0,2023-07-28,2023-07-28,ＮＩＮＧＢＯ　ＡＦＦＯＯ　ＣＲＥＡＴＩＶＥ　ＴＥＣＨＮＯＬＯＧＹ　ＣＯ．，ＬＴＤ．,,外国会社等,,,,,,,,Ｙｉｎｚｈｏｕｑｕ　Ｊｉｎｇｕｚｈｏｎｇｌｕｄｏｎｇ　２８８ｈａｏ　ｎｉｎｇｂｏｓｈｉ　ｚｈｅｎｇｊｉａｎｇｓｈｅｎｇ　３１５１２１ＣＮ,,,,,,2023-07-28,1,,,,,ニンボーアイフゥチュァンイーカージヨウシェンゴンスー,0
2382,9700150118661,新規,0,2023-07-28,2023-07-28,Ｓｈｅｎｚｈｅｎ　ｗｏｓｈｉｄａ　ｋｅｊｉ　ｙｏｕｘｉａｎ　ｇｏｎｇｓｉ,,外国会社等,,,,,,,,８－Ａ，Ｂｌｏｃｋ　Ａ，Ｇｕａｎｇｈａｏ　Ｉｎｔｅｒｎａｔｉｏｎａｌ　Ｃｅｎｔｅｒ，Ｄａｌｉｎｇ　Ｃｏｍｍｕｎｉｔｙ，Ｍｉｎｚｈｉ　Ｓｔｒｅｅｔ，Ｌｏｎｇｈｕａ　Ｄｉｓｔｒｉｃｔ　Ｓｈｅｎｚｈｅｎ　Ｇｕａｎｇｄｏｎｇ　Ｃｈｉｎａ,,,,,,2023-07-28,1,,,,,シンセンウォシダケジユウゲンコウシ,0
