sequenceNumber,corporateNumber,process,correct,updateDate,changeDate,name,nameImageId,kind,prefectureName,cityName,streetNumber,addressImageId,prefectureCode,cityCode,postCode,addressOutside,addressOutsideImageId,closeDate,closeCause,successorCorporateNumber,changeCause,assignmentDate,latest,enName,enPrefectureName,enCityName,enAddressOutside,furigana,hihyoji
65,1012405003022,登記記録の閉鎖等,0,2021-08-26,2021-08-23,特定非営利活動法人聖心介護サポート協会,,その他の設立登記法人,東京都,三鷹市,北野２丁目４番３２号,,13,204,1810003,,,2021-08-23,清算の結了等,,,2015-10-05,1,,,,,セイシンカイゴサポートキョウカイ,0
67,1013102001640,登記記録の閉鎖等,0,2021-08-26,2021-08-24,有限会社アルファアンドオメガ,,有限会社,東京都,あきる野市,雨間７２９番地,,13,228,1970825,,,2021-08-24,清算の結了等,,,2015-10-05,1,,,,,アルファアンドオメガ,0
79,1020002026065,登記記録の閉鎖等,0,2021-08-26,2021-08-10,有限会社木村海運,,有限会社,神奈川県,横浜市神奈川区,西寺尾１丁目２１番９号,,14,102,2210001,,,2021-08-10,合併による解散等,4020001022434,令和３年８月１０日横浜市神奈川区西寺尾一丁目２１番９号内路建設株式会社（4020001022434）に合併し解散,2015-10-05,1,,,,,キムラカイウン,0
81,1021001000804,登記記録の閉鎖等,0,2021-08-26,2021-08-20,三共商事株式会社,,株式会社,神奈川県,藤沢市,西富５３０番地,,14,205,2510001,,,2021-08-20,清算の結了等,,,2015-10-05,1,,,,,,0
97,1030002122268,登記記録の閉鎖等,0,2021-08-26,2021-08-12,有限会社皆野梱包,,有限会社,埼玉県,秩父郡皆野町,大字大渕５５３番地１,,11,362,3691623,,,2021-08-12,清算の結了等,,,2015-10-05,1,,,,,ミナノコンポウ,0
111,1040005014817,登記記録の閉鎖等,0,2021-08-26,2021-08-17,一般社団法人日中医療・看護交流協会,,その他の設立登記法人,千葉県,野田市,三ツ堀１０８９番地の２１,,12,208,2780011,,,2021-08-17,清算の結了等,,,2015-10-05,1,,,,,ニッチュウイリョウカンゴコウリュウキョウカイ,0
135,1120001143470,登記記録の閉鎖等,0,2021-08-26,2021-08-19,日宣アートプレス株式会社,,株式会社,大阪府,大阪市天王寺区,清水谷町７番２０号,,27,109,5430011,,,2021-08-19,清算の結了等,,,2015-10-05,1,,,,,ニッセンアートプレス,0
181,1190001008337,登記記録の閉鎖等,0,2021-08-26,2021-08-24,株式会社イナウラ,,株式会社,三重県,伊賀市,岩倉５４６番地の１,,24,216,5180026,,,2021-08-24,清算の結了等,,,2015-10-05,1,,,,,イナウラ,0
193,1230001016384,登記記録の閉鎖等,0,2021-08-26,2021-08-23,アソビズ株式会社,,株式会社,富山県,富山市,婦中町希望ケ丘７６４番地,,16,201,9392703,,,2021-08-23,清算の結了等,,,2016-04-08,1,,,,,アソビズ,0
196,1240001039434,登記記録の閉鎖等,0,2021-08-26,2021-08-16,心石ホーム塗装株式会社,,株式会社,広島県,尾道市,美ノ郷町三成２６９４番地２,,34,205,7220215,,,2021-08-16,清算の結了等,,,2015-10-05,1,,,,,ココロイシホームトソウ,0
206,1280005007177,登記記録の閉鎖等,0,2021-08-26,2021-08-24,一般社団法人健康長寿研究機構,,その他の設立登記法人,島根県,出雲市,今市町５１０番地,,32,203,6930001,,,2021-08-24,清算の結了等,,,2017-05-19,1,,,,,ケンコウチョウジュケンキュウキコウ,0
208,1290001039314,登記記録の閉鎖等,0,2021-08-26,2021-08-12,ＲＡＣＳＡ株式会社,,株式会社,福岡県,福岡市南区,桧原２丁目１０番２３－４０５号,,40,134,8111355,,,2021-08-12,清算の結了等,,,2015-10-05,1,,,,,ラクサ,0
220,1290005015963,登記記録の閉鎖等,0,2021-08-26,2021-08-11,一般社団法人在宅医療支援センター,,その他の設立登記法人,福岡県,福岡市西区,野方５丁目９番４号,,40,135,8190043,,,2021-08-11,清算の結了等,,,2016-06-09,1,,,,,ザイタクイリョウシエンセンター,0
223,1310001005239,登記記録の閉鎖等,0,2021-08-26,2021-08-25,株式会社加藤漁具,,株式会社,長崎県,佐世保市,大塔町２０１９番地４,,42,202,8571161,,,2021-08-25,清算の結了等,,,2015-10-05,1,,,,,カトウギョグ,0
239,1370001043514,登記記録の閉鎖等,0,2021-08-26,2021-08-16,株式会社Ｆｅｌｌｏｗ　Ｃｏｕｎｔｒｙ,,株式会社,宮城県,仙台市青葉区,藤松１８－１１,,04,101,9810921,,,2021-08-16,清算の結了等,,,2018-09-12,1,,,,,,0
261,1490002012282,登記記録の閉鎖等,0,2021-08-26,2021-08-24,有限会社浜田,,有限会社,高知県,香南市,野市町西野６３３番地,,39,211,7815232,,,2021-08-24,清算の結了等,,,2015-10-05,1,,,,,ハマダ,0
262,1500002003486,登記記録の閉鎖等,0,2021-08-26,2021-08-23,有限会社城南農機商会,,有限会社,愛媛県,松山市,浄瑠璃町１５６番地,,38,201,7911133,,,2021-08-23,清算の結了等,,,2015-10-05,1,,,,,ジョウナンノウキショウカイ,0
269,2010001046097,登記記録の閉鎖等,0,2021-08-26,2021-08-19,株式会社正光磯銀,,株式会社,東京都,中央区,銀座８丁目７番１０号植松ビルＢ１,,13,102,1040061,,,2021-08-19,清算の結了等,,,2015-10-05,1,,,,,マサミツイソギン,0
305,2011001004490,登記記録の閉鎖等,0,2021-08-26,2021-08-24,株式会社エル・アンド・エイ,,株式会社,東京都,渋谷区,千駄ヶ谷３丁目２１番１０号,,13,113,1510051,,,2021-08-24,清算の結了等,,,2015-10-05,1,,,,,,0
313,2011301018678,登記記録の閉鎖等,0,2021-08-26,2021-08-19,ルナビスタ株式会社,,株式会社,東京都,杉並区,永福２丁目２９番１３号,,13,115,1680064,,,2021-08-19,清算の結了等,,,2015-10-05,1,,,,,ルナビスタ,0
322,2011503002595,登記記録の閉鎖等,0,2021-08-26,2021-08-12,合同会社不動プランニング,,合同会社,埼玉県,川口市,上青木２丁目４３番２２号,,11,203,3330844,,,2021-08-12,清算の結了等,,,2015-10-05,1,,,,,フドウプランニング,0
326,2011602023550,登記記録の閉鎖等,0,2021-08-26,2021-08-24,有限会社新栄エンジニアリング,,有限会社,東京都,練馬区,豊玉北３丁目２２番９－３０３号,,13,120,1760012,,,2021-08-24,清算の結了等,,,2015-10-05,1,,,,,シンエイエンジニアリング,0
328,2011801019639,登記記録の閉鎖等,0,2021-08-26,2021-08-24,株式会社栗三工業,,株式会社,東京都,葛飾区,東新小岩８丁目３４番１１号,,13,122,1240023,,,2021-08-24,清算の結了等,,,2015-10-05,1,,,,,クリサンコウギョウ,0
336,2013301032287,登記記録の閉鎖等,0,2021-08-26,2021-08-23,株式会社リンクユー,,株式会社,東京都,練馬区,豊玉北４丁目２６番１３号,,13,120,1760012,,,2021-08-23,清算の結了等,,,2015-10-05,1,,,,,,0
340,2020001002669,登記記録の閉鎖等,0,2021-08-26,2021-08-23,インターコンチネンタル株式会社,,株式会社,神奈川県,横浜市磯子区,東町１５番３２号,,14,107,2350005,,,2021-08-23,清算の結了等,,,2015-10-05,1,,,,,インターコンチネンタル,0
341,2020001070559,登記記録の閉鎖等,0,2021-08-26,2021-08-23,株式会社泉屋,,株式会社,神奈川県,川崎市幸区,南加瀬３丁目３番４４号,,14,132,2120055,,,2021-08-23,清算の結了等,,,2015-10-05,1,,,,,イズミヤ,0
346,2020001117095,登記記録の閉鎖等,0,2021-08-26,2021-08-20,ＥＣＭＯＨＯ株式会社,,株式会社,神奈川県,川崎市川崎区,港町５番３－２７２５号,,14,131,2100807,,,2021-08-20,清算の結了等,,,2016-07-21,1,,,,,イークモホ,0
351,2020002087552,登記記録の閉鎖等,0,2021-08-26,2021-08-23,有限会社山本電機,,有限会社,神奈川県,川崎市宮前区,平１丁目４番２５号,,14,136,2160022,,,2021-08-23,清算の結了等,,,2015-10-05,1,,,,,ヤマモトデンキ,0
369,2040002092435,登記記録の閉鎖等,0,2021-08-26,2021-08-17,有限会社大阪屋,,有限会社,千葉県,我孫子市,下ケ戸４３９番地,,12,222,2701138,,,2021-08-17,清算の結了等,,,2015-10-05,1,,,,,オオサカヤ,0
377,2050005011218,登記記録の閉鎖等,0,2021-08-26,2021-08-12,特定非営利活動法人パルチーダＦＣ,,その他の設立登記法人,茨城県,龍ケ崎市,川原代町１０４１番地の１７,,08,208,3010005,,,2021-08-12,清算の結了等,,,2015-10-05,1,,,,,パルチーダエフシー,0
385,2070001020344,登記記録の閉鎖等,0,2021-08-26,2021-08-23,株式会社ワカキヤ,,株式会社,群馬県,邑楽郡大泉町,西小泉３丁目７番１２号,,10,524,3700517,,,2021-08-23,合併による解散等,2070001020303,令和３年８月１日群馬県邑楽郡大泉町坂田一丁目１番１号洋泉興業株式会社（2070001020303）に合併し解散,2015-10-05,1,,,,,ワカキヤ,0
386,2070002017918,登記記録の閉鎖等,0,2021-08-26,2021-08-23,有限会社アライ技建,,有限会社,群馬県,藤岡市,三波川２０番地１,,10,209,3701405,,,2021-08-23,清算の結了等,,,2015-10-05,1,,,,,アライギケン,0
388,2080001001946,登記記録の閉鎖等,0,2021-08-26,2021-08-25,自校産業株式会社,,株式会社,静岡県,静岡市葵区,大岩本町２３番１号,,22,101,4200884,,,2021-08-25,清算の結了等,,,2019-10-17,1,,,,,ジコウサンギョウ,0
391,2080001021936,登記記録の閉鎖等,0,2021-08-26,2021-08-23,株式会社白井ホールディングス,,株式会社,静岡県,島田市,御請４５番地の１,,22,209,4270013,,,2021-08-23,合併による解散等,5080001021958,令和３年８月２３日静岡県島田市御請４５番地の１株式会社白井産業（5080001021958）に合併し解散,2017-12-01,1,,,,,シライホールディングス,0
399,2100001002198,登記記録の閉鎖等,0,2021-08-26,2021-08-24,株式会社トヤ・ジムキ,,株式会社,長野県,長野市,三輪６丁目９番１７号,,20,201,3800803,,,2021-08-24,清算の結了等,,,2015-10-05,1,,,,,トヤジムキ,0
401,2100002033052,登記記録の閉鎖等,0,2021-08-26,2021-08-24,有限会社テクノマシン,,有限会社,長野県,上伊那郡南箕輪村,字北原１６３０番地３８２,,20,385,3994511,,,2021-08-24,清算の結了等,,,2015-10-05,1,,,,,テクノマシン,0
434,2140001096872,登記記録の閉鎖等,0,2021-08-26,2021-08-23,株式会社ハートリンク,,株式会社,兵庫県,明石市,二見町東二見５１５番地の１－４０６号,,28,203,6740092,,,2021-08-23,清算の結了等,,,2015-10-05,1,,,,,ハートリンク,0
457,2220002007507,登記記録の閉鎖等,0,2021-08-26,2021-08-20,有限会社ピノ,,有限会社,石川県,金沢市,小立野１丁目１４番８号,,17,201,9200942,,,2021-08-20,清算の結了等,,,2015-10-05,1,,,,,ピノ,0
483,2290802012600,登記記録の閉鎖等,0,2021-08-26,2021-08-16,有限会社小松原計算センター,,有限会社,福岡県,北九州市八幡東区,枝光本町８番２３号,,40,108,8050008,,,2021-08-16,清算の結了等,,,2015-10-05,1,,,,,コマツバラケイサンセンター,0
484,2290802023052,登記記録の閉鎖等,0,2021-08-26,2021-08-11,有限会社吉松,,有限会社,福岡県,京都郡苅田町,富久町２丁目９番地２,,40,621,8000352,,,2021-08-11,清算の結了等,,,2015-10-05,1,,,,,キッショウ,0
489,2330001027560,登記記録の閉鎖等,0,2021-08-26,2021-08-23,株式会社リード創薬研究所,,株式会社,岡山県,岡山市中区,東川原１０番地３,,33,102,7038255,,,2021-08-23,清算の結了等,,,2020-06-16,1,,,,,リードソウヤクケンキュウショ,0
542,3010401128618,登記記録の閉鎖等,0,2021-08-26,2021-08-13,株式会社ＲＯＯＬ　ＷＯＲＫＯＵＴ,,株式会社,東京都,港区,南青山６丁目１２番３号,,13,103,1070062,,,2021-08-13,清算の結了等,,,2016-12-19,1,,,,,ルールワークアウト,0
568,3011101002831,登記記録の閉鎖等,0,2021-08-26,2021-08-11,株式会社英和設計事務所,,株式会社,東京都,新宿区,新宿１丁目２番１１号,,13,104,1600022,,,2021-08-11,清算の結了等,,,2015-10-05,1,,,,,エイワセッケイジムショ,0
587,3012402027856,登記記録の閉鎖等,0,2021-08-26,2021-08-25,有限会社見上厩舎,00122818,有限会社,東京都,府中市,八幡町１丁目１８番地２５,,13,206,1830016,,,2021-08-25,清算の結了等,,,2021-06-23,1,,,,,ミカミキュウシャ,0
588,3013101005178,登記記録の閉鎖等,0,2021-08-26,2021-08-23,共同企業株式会社,,株式会社,東京都,世田谷区,上野毛４丁目２７番２１号,,13,112,1580093,,,2021-08-23,清算の結了等,,,2015-10-05,1,,,,,キョウドウキギョウ,0
609,3030002066240,登記記録の閉鎖等,0,2021-08-26,2021-08-12,有限会社佐藤鉄網工事,,有限会社,埼玉県,新座市,片山３丁目３番３号,,11,230,3520025,,,2021-08-12,清算の結了等,,,2015-10-05,1,,,,,サトウテツモウ,0
615,3040001076917,登記記録の閉鎖等,0,2021-08-26,2021-08-18,芦崎工務店株式会社,,株式会社,千葉県,松戸市,胡録台２１１番地の７,,12,207,2710075,,,2021-08-18,清算の結了等,,,2015-10-05,1,,,,,,0
634,3060002025598,登記記録の閉鎖等,0,2021-08-26,2021-08-12,有限会社藤田金物店,,有限会社,栃木県,大田原市,野崎２丁目１１番地６,,09,210,3240038,,,2021-08-12,清算の結了等,,,2015-10-05,1,,,,,,0
643,3110002028232,登記記録の閉鎖等,0,2021-08-26,2021-08-18,有限会社高頭仏壇店,,有限会社,新潟県,長岡市,信濃１丁目４番２２号,,15,202,9400098,,,2021-08-18,清算の結了等,,,2015-10-05,1,,,,,タカトウブツダンテン,0
670,3130002012110,登記記録の閉鎖等,0,2021-08-26,2021-08-23,有限会社協調,,有限会社,京都府,京都市山科区,椥辻池尻町６１番地,00037324,26,110,6078168,,,2021-08-23,合併による解散等,7130002005102,令和３年８月２１日京都市左京区東大路仁王門東入北門前町４９１番地株式会社協調（7130002005102）に合併し解散,2015-10-05,1,,,,,キョウチョウ,0
687,3180001122228,登記記録の閉鎖等,0,2021-08-26,2021-08-25,株式会社銘正,,株式会社,愛知県,名古屋市中川区,小本２丁目１２番２号,,23,110,4540828,,,2021-08-25,清算の結了等,,,2016-02-23,1,,,,,メイショウ,0
697,3190002022946,登記記録の閉鎖等,0,2021-08-26,2021-08-23,有限会社とのさん,,有限会社,三重県,四日市市,大宮西町１５番８号,,24,202,5100004,,,2021-08-23,清算の結了等,,,2015-10-05,1,,,,,トノサン,0
702,3210002003233,登記記録の閉鎖等,0,2021-08-26,2021-08-24,有限会社福井新聞つくし野販売店,,有限会社,福井県,福井市,つくし野１丁目１１０番地,,18,201,9100101,,,2021-08-24,清算の結了等,,,2015-10-05,1,,,,,フクイシンブンツクシノハンバイテン,0
705,3220001020542,登記記録の閉鎖等,0,2021-08-26,2021-08-19,株式会社ｉ－Ｓｐｒｅａｄ,,株式会社,石川県,金沢市,鞍月３丁目２７番地,,17,201,9208203,,,2021-08-19,清算の結了等,,,2015-10-05,1,,,,,アイスプレッド,0
707,3220002005848,登記記録の閉鎖等,0,2021-08-26,2021-08-20,有限会社むらやまくん,,有限会社,石川県,金沢市,菊川２丁目５番７号,,17,201,9200967,,,2021-08-20,清算の結了等,,,2015-10-05,1,,,,,ムラヤマクン,0
708,3220002010740,登記記録の閉鎖等,0,2021-08-26,2021-08-20,有限会社スタジオ・ヴィアンドエム,,有限会社,石川県,小松市,若杉町ワ８４番地,,17,203,9230832,,,2021-08-20,清算の結了等,,,2015-10-05,1,,,,,スタジオヴィアンドエム,0
717,3290001086247,登記記録の閉鎖等,0,2021-08-26,2021-08-02,ｒｅ．ＰＯＲＴ株式会社,,株式会社,福岡県,福岡市中央区,大名２丁目６番１１号ＦｕｋｕｏｋａＧｒｏｗｔｈＮｅｘｔ３１３,,40,133,8100041,,,2021-08-02,清算の結了等,,,2019-08-16,1,,,,,リポート,0
741,3340002010729,登記記録の閉鎖等,0,2021-08-26,2021-08-20,有限会社錦江カークリニック,,有限会社,鹿児島県,鹿児島市,小原町１８番２０号,,46,201,8910111,,,2021-08-20,清算の結了等,,,2015-10-05,1,,,,,キンコウカークリニック,0
745,3360001012864,登記記録の閉鎖等,0,2021-08-26,2021-08-18,農業生産法人株式会社あいあいファーム,,株式会社,沖縄県,国頭郡今帰仁村,字湧川３６９番地,,47,306,9050412,,,2021-08-18,清算の結了等,,,2015-10-05,1,,,,,アイアイファーム,0
753,3370301003455,登記記録の閉鎖等,0,2021-08-26,2021-08-18,株式会社安藤商店,,株式会社,宮城県,石巻市,門脇字青葉東５８番地１１,,04,202,9860853,,,2021-08-18,清算の結了等,,,2015-10-05,1,,,,,アンドウショウテン,0
784,3500005002905,登記記録の閉鎖等,0,2021-08-26,2021-08-24,医療法人菊地内科,,その他の設立登記法人,愛媛県,大洲市,長浜甲７６０番地,,38,207,7993401,,,2021-08-24,清算の結了等,,,2015-10-05,1,,,,,キクチナイカ,0
792,4010001206772,登記記録の閉鎖等,0,2021-08-26,2021-08-20,信華ＪＡＰＡＮ株式会社,,株式会社,東京都,中央区,日本橋小伝馬町１６番８号,,13,102,1030001,,,2021-08-20,清算の結了等,,,2020-01-17,1,,,,,シンカジャパン,0
801,4010102005925,登記記録の閉鎖等,0,2021-08-26,2021-08-25,有限会社ファルコン電子,,有限会社,東京都,八王子市,大和田町４丁目１０番６号,,13,201,1920045,,,2021-08-25,清算の結了等,,,2015-10-05,1,,,,,ファルコンデンシ,0
811,4010402001145,登記記録の閉鎖等,0,2021-08-26,2021-08-13,有限会社池川商事,,有限会社,東京都,港区,赤坂３丁目１５番３号,,13,103,1070052,,,2021-08-13,清算の結了等,,,2015-10-05,1,,,,,イケガワショウジ,0
850,4011101013051,登記記録の閉鎖等,0,2021-08-26,2021-08-12,千代田アド・パック株式会社,,株式会社,東京都,新宿区,西五軒町１２番１０号,,13,104,1620812,,,2021-08-12,清算の結了等,,,2015-10-05,1,,,,,チヨダアドパック,0
867,4012705000261,登記記録の閉鎖等,0,2021-08-26,2021-08-23,医療法人社団皐月会,,その他の設立登記法人,東京都,西東京市,田無町４丁目１７番１８号ドミール田無１階１号,,13,229,1880011,,,2021-08-23,清算の結了等,,,2015-10-05,1,,,,,サツキカイ,0
870,4012802006401,登記記録の閉鎖等,0,2021-08-26,2021-08-12,有限会社未来工房,,有限会社,東京都,昭島市,緑町５丁目１番８号,,13,207,1960004,,,2021-08-12,合併による解散等,5012801002094,令和３年８月１日東京都昭島市緑町五丁目１番８号株式会社斎藤建築設計事務所（5012801002094）に合併し解散,2015-10-05,1,,,,,ミライコウボウ,0
883,4020002026054,登記記録の閉鎖等,0,2021-08-26,2021-08-10,有限会社木村材木店,,有限会社,神奈川県,横浜市神奈川区,西寺尾１丁目２１番９号,,14,102,2210001,,,2021-08-10,合併による解散等,4020001022434,令和３年８月１０日横浜市神奈川区西寺尾一丁目２１番９号内路建設株式会社（4020001022434）に合併し解散,2015-10-05,1,,,,,キムラザイモクテン,0
884,4021001002921,登記記録の閉鎖等,0,2021-08-26,2021-08-20,株式会社荘美,,株式会社,神奈川県,藤沢市,羽鳥３丁目１８番６号,,14,205,2510056,,,2021-08-20,清算の結了等,,,2015-10-05,1,,,,,ソウビ,0
897,4030002005156,登記記録の閉鎖等,0,2021-08-26,2021-08-12,有限会社国分寺メガネ,,有限会社,埼玉県,さいたま市大宮区,吉敷町４丁目２０６番地,,11,103,3300843,,,2021-08-12,清算の結了等,,,2015-10-05,1,,,,,コクブンジメガネ,0
913,4040002074539,登記記録の閉鎖等,0,2021-08-26,2021-08-17,有限会社中野住宅設備,,有限会社,千葉県,市原市,山木１２４９番地１,,12,219,2900005,,,2021-08-17,清算の結了等,,,2015-10-05,1,,,,,ナカノジュウタクセツビ,0
931,4080002003832,登記記録の閉鎖等,0,2021-08-26,2021-08-25,有限会社中部マネキン紹介所,,有限会社,静岡県,静岡市葵区,鷹匠１丁目１４番３０号,,22,101,4200839,,,2021-08-25,清算の結了等,,,2015-10-05,1,,,,,チュウブマネキンショウカイジョ,0
932,4080102002247,登記記録の閉鎖等,0,2021-08-26,2021-08-24,有限会社たじま,,有限会社,静岡県,沼津市,高島町１５番７号,,22,203,4100056,,,2021-08-24,清算の結了等,,,2015-10-05,1,,,,,タジマ,0
938,4110001032787,登記記録の閉鎖等,0,2021-08-26,2021-08-23,新潟建物解体株式会社,,株式会社,新潟県,新潟市中央区,東入船町３７７５番地２２,,15,103,9518012,,,2021-08-23,清算の結了等,,,2017-10-30,1,,,,,ニイガタタテモノカイタイ,0
992,4210002014428,登記記録の閉鎖等,0,2021-08-26,2021-08-24,有限会社大勝総業,,有限会社,福井県,大野市,新町１番２号,,18,205,9120027,,,2021-08-24,清算の結了等,,,2021-08-05,1,,,,,ダイカツソウギョウ,0
1000,4260001028291,登記記録の閉鎖等,0,2021-08-26,2021-08-23,株式会社あさくち会計,,株式会社,岡山県,浅口郡里庄町,大字里見４１９９番地１,,33,445,7190301,,,2021-08-23,清算の結了等,,,2015-10-05,1,,,,,アサクチカイケイ,0
1014,4290002011871,登記記録の閉鎖等,0,2021-08-26,2021-08-12,有限会社ティ・マップ,,有限会社,福岡県,福岡市中央区,地行１丁目１５番６号,,40,133,8100064,,,2021-08-12,清算の結了等,,,2015-10-05,1,,,,,ティマップ,0
1031,4380002016507,登記記録の閉鎖等,0,2021-08-26,2021-08-20,有限会社半沢設計,,有限会社,福島県,二本松市,若宮１丁目１３２番地,,07,210,9640906,,,2021-08-20,清算の結了等,,,2015-10-05,1,,,,,ハンザワセッケイ,0
1040,4430002031418,登記記録の閉鎖等,0,2021-08-26,2021-08-16,有限会社プライム・キャスト,,有限会社,北海道,札幌市手稲区,新発寒六条１丁目３番８号,,01,109,0060806,,,2021-08-16,清算の結了等,,,2015-10-05,1,,,,,プライムキャスト,0
1046,4450002010683,登記記録の閉鎖等,0,2021-08-26,2021-08-24,有限会社菅原佃煮工場,,有限会社,北海道,枝幸郡浜頓別町,字頓別,,01,512,0985701,,,2021-08-24,清算の結了等,,,2015-10-05,1,,,,,スガワラツクダニコウジョウ,0
1066,5010002023803,登記記録の閉鎖等,0,2021-08-26,2021-08-23,有限会社はくせん印刷所,,有限会社,東京都,中央区,八丁堀２丁目１番７号神鋼ビル２Ｆ,,13,102,1040032,,,2021-08-23,清算の結了等,,,2015-10-05,1,,,,,,0
1091,5011001010478,登記記録の閉鎖等,0,2021-08-26,2021-08-06,株式会社新都市研究開発,,株式会社,東京都,渋谷区,猿楽町３０番８号ツインビル代官山Ｂ－３０２,,13,113,1500033,,,2021-08-06,清算の結了等,,,2015-10-05,1,,,,,シントシケンキュウカイハツ,0
1112,5012702003654,登記記録の閉鎖等,0,2021-08-26,2021-08-25,有限会社明治堂,,有限会社,東京都,清瀬市,元町２丁目１４番１４号,,13,221,2040021,,,2021-08-25,清算の結了等,,,2015-10-05,1,,,,,メイジドウ,0
1118,5020001082378,登記記録の閉鎖等,0,2021-08-26,2021-08-23,株式会社バハティーアイザワ,,株式会社,神奈川県,川崎市川崎区,川中島２丁目９番１号,,14,131,2100803,,,2021-08-23,清算の結了等,,,2015-10-05,1,,,,,バハティーアイザワ,0
1119,5020001091437,登記記録の閉鎖等,0,2021-08-26,2021-08-24,株式会社レジデンス並木,,株式会社,神奈川県,横浜市神奈川区,松見町１丁目６番地６三栄ビル３０２号,,14,102,2210005,,,2021-08-24,清算の結了等,,,2015-10-05,1,,,,,レジデンスナミキ,0
1121,5020002020428,登記記録の閉鎖等,0,2021-08-26,2021-08-23,有限会社旭フォーラム,,有限会社,神奈川県,横浜市旭区,都岡町７番地,,14,112,2410805,,,2021-08-23,清算の結了等,,,2015-10-05,1,,,,,アサヒフォーラム,0
1124,5021003009146,登記記録の閉鎖等,0,2021-08-26,2021-08-12,合同会社Ｙａｎｔｉｓｔ,,合同会社,神奈川県,大和市,中央林間５丁目１４番１９号ヴィラ・ローザ中央林間１０１,,14,213,2420007,,,2021-08-12,清算の結了等,,,2020-02-20,1,,,,,ヤンティスト,0
1125,5030001064004,登記記録の閉鎖等,0,2021-08-26,2021-08-13,株式会社サンエム,,株式会社,埼玉県,越谷市,七左町７丁目２０３番地１,,11,222,3430851,,,2021-08-13,清算の結了等,,,2015-10-05,1,,,,,サンエム,0
1126,5030001082245,登記記録の閉鎖等,0,2021-08-26,2021-08-13,株式会社創光,,株式会社,埼玉県,川口市,大字安行原２３９８番１号Ｃ号室,,11,203,3340057,,,2021-08-13,清算の結了等,,,2015-10-05,1,,,,,,0
1140,5030002121381,登記記録の閉鎖等,0,2021-08-26,2021-08-12,有限会社坂倉工務店,,有限会社,埼玉県,秩父市,上野町２３番１０号,,11,207,3680031,,,2021-08-12,清算の結了等,,,2015-10-05,1,,,,,サカクラコウムテン,0
1141,5040001018520,登記記録の閉鎖等,0,2021-08-26,2021-08-17,株式会社美鳳企画事務所,,株式会社,千葉県,船橋市,浜町１丁目１２番８号,,12,204,2730012,,,2021-08-17,清算の結了等,,,2015-10-05,1,,,,,ビホウキカクジムショ,0
1152,5040003015334,登記記録の閉鎖等,0,2021-08-26,2021-08-17,合同会社Ｙ・Ｂ・Ｓ,,合同会社,千葉県,我孫子市,船戸３丁目９番６号,,12,222,2701158,,,2021-08-17,清算の結了等,,,2020-05-12,1,,,,,ワイビーエス,0
1158,5050001034509,登記記録の閉鎖等,0,2021-08-26,2021-08-23,株式会社ＭＫＮ通商,,株式会社,茨城県,ひたちなか市,笹野町３丁目１５番２１号,,08,221,3120018,,,2021-08-23,清算の結了等,,,2015-10-05,1,,,,,エムケーエヌツウショウ,0
1164,5060001028047,登記記録の閉鎖等,0,2021-08-26,2021-08-17,株式会社レプランシュ,,株式会社,栃木県,栃木市,大平町富田３８２番地２,,09,203,3294404,,,2021-08-17,清算の結了等,,,2016-03-07,1,,,,,レプランシュ,0
1167,5070002024382,登記記録の閉鎖等,0,2021-08-26,2021-08-23,有限会社丹羽物産,,有限会社,群馬県,桐生市,広沢町２丁目乙３２３０番地,,10,203,3760013,,,2021-08-23,清算の結了等,,,2015-10-05,1,,,,,ニワブッサン,0
1172,5080102004226,登記記録の閉鎖等,0,2021-08-26,2021-08-24,有限会社健栄商会,,有限会社,静岡県,裾野市,御宿１４８１番地,,22,220,4101107,,,2021-08-24,清算の結了等,,,2015-10-05,1,,,,,ケンエイショウカイ,0
1220,5240002017864,登記記録の閉鎖等,0,2021-08-26,2021-08-17,有限会社ワイエス環境設計,,有限会社,広島県,広島市中区,鶴見町１４番３号,,34,101,7300045,,,2021-08-17,清算の結了等,,,2015-10-05,1,,,,,ワイエスカンキョウセッケイ,0
1254,5290802002516,登記記録の閉鎖等,0,2021-08-26,2021-08-11,有限会社大豊プラント,,有限会社,福岡県,北九州市門司区,下二十町９番２２号,,40,101,8000028,,,2021-08-11,清算の結了等,,,2015-10-05,1,,,,,タイホウプラント,0
1268,5360001015766,登記記録の閉鎖等,0,2021-08-26,2021-08-18,宮平組株式会社,,株式会社,沖縄県,那覇市,具志２丁目２２番１３号,,47,201,9010146,,,2021-08-18,清算の結了等,,,2015-10-05,1,,,,,ミヤヒラグミ,0
1285,5390002000368,登記記録の閉鎖等,0,2021-08-26,2021-08-23,宇野工機有限会社,,有限会社,山形県,山形市,瀬波３丁目３番２３号,,06,201,9900881,,,2021-08-23,清算の結了等,,,2015-10-05,1,,,,,ウノコウキ,0
1288,5400602000105,登記記録の閉鎖等,0,2021-08-26,2021-08-25,有限会社ウォールテック,,有限会社,岩手県,奥州市,水沢姉体町字水ノ口前２０８番地,,03,215,0230831,,,2021-08-25,清算の結了等,,,2015-10-05,1,,,,,ウォールテック,0
1293,5430001050483,登記記録の閉鎖等,0,2021-08-26,2021-08-16,株式会社丸市後藤商店,,株式会社,北海道,小樽市,富岡１丁目２３番１７号,,01,203,0470033,,,2021-08-16,清算の結了等,,,2015-10-05,1,,,,,マルイチゴトウショウテン,0
1303,5450002005708,登記記録の閉鎖等,0,2021-08-26,2021-08-25,有限会社ムカイグチ,,有限会社,北海道,旭川市,五条通８丁目１２５３番地３,,01,204,0700035,,,2021-08-25,清算の結了等,,,2015-10-05,1,,,,,ムカイグチ,0
1309,5470005006222,登記記録の閉鎖等,0,2021-08-26,2021-08-20,特定非営利活動法人三豊市学習支援教室てくてく,,その他の設立登記法人,香川県,三豊市,豊中町本山甲７５１番地,,37,208,7691506,,,2021-08-20,清算の結了等,,,2019-10-15,1,,,,,ミトヨシガクシュウシエンキョウシツテクテク,0
1339,6010401117626,登記記録の閉鎖等,0,2021-08-26,2021-08-13,株式会社エドライト,,株式会社,東京都,港区,西麻布１丁目４番４８号,,13,103,1060031,,,2021-08-13,清算の結了等,,,2015-10-05,1,,,,,エドライト,0
1400,6020002004900,登記記録の閉鎖等,0,2021-08-26,2021-08-23,有限会社松浦興業,,有限会社,神奈川県,横浜市緑区,長津田みなみ台６丁目１７番地１３,,14,113,2260018,,,2021-08-23,清算の結了等,,,2015-10-05,1,,,,,,0
1416,6040001042643,登記記録の閉鎖等,0,2021-08-26,2021-08-18,株式会社開成,,株式会社,千葉県,千葉市若葉区,谷当町１０４５番地,,12,104,2650072,,,2021-08-18,清算の結了等,,,2015-10-05,1,,,,,,0
1442,6100002021466,登記記録の閉鎖等,0,2021-08-26,2021-08-24,有限会社ホンダ村田モータース,,有限会社,長野県,松本市,大字寿豊丘１０７３番地６,,20,202,3990021,,,2021-08-24,清算の結了等,,,2015-10-05,1,,,,,ホンダムラタモータース,0
1452,6120001208335,登記記録の閉鎖等,0,2021-08-26,2021-08-20,株式会社ムービンピック,,株式会社,大阪府,大阪市東住吉区,田辺２丁目１番１７－６０２号,,27,121,5460031,,,2021-08-20,清算の結了等,,,2017-09-27,1,,,,,ムービンピック,0
1465,6130002026289,登記記録の閉鎖等,0,2021-08-26,2021-08-23,近畿日本アイデイア有限会社,,有限会社,京都府,宇治市,広野町丸山４１番地の２２,,26,204,6110031,,,2021-08-23,清算の結了等,,,2015-10-05,1,,,,,キンキニッポンアイディア,0
1498,6220002009607,登記記録の閉鎖等,0,2021-08-26,2021-08-19,有限会社ヨイショ,,有限会社,石川県,金沢市,西念１丁目３番２０号,,17,201,9200024,,,2021-08-19,清算の結了等,,,2015-10-05,1,,,,,ヨイショ,0
1500,6240001024720,登記記録の閉鎖等,0,2021-08-26,2021-08-10,いろは家旅館株式会社,,株式会社,広島県,安芸高田市,吉田町吉田１３３１番地,,34,214,7310501,,,2021-08-10,清算の結了等,,,2015-10-05,1,,,,,イロハヤリョカン,0
1519,6290801014619,登記記録の閉鎖等,0,2021-08-26,2021-08-11,株式会社オサキ,,株式会社,福岡県,直方市,大字頓野３６０２番地１７,,40,204,8220002,,,2021-08-11,清算の結了等,,,2015-10-05,1,,,,,オサキ,0
1568,6500001014769,登記記録の閉鎖等,0,2021-08-26,2021-08-24,株式会社プリカネットライン,,株式会社,香川県,観音寺市,柞田町甲１２０８番地,,37,205,7680040,,,2021-08-24,清算の結了等,,,2015-10-05,1,,,,,プリカネットライン,0
1626,7011003007801,登記記録の閉鎖等,0,2021-08-26,2021-08-13,リトルテーブル合同会社,,合同会社,東京都,渋谷区,上原１丁目３番９号,,13,113,1510064,,,2021-08-13,清算の結了等,,,2017-06-22,1,,,,,リトルテーブル,0
1632,7011101076475,登記記録の閉鎖等,0,2021-08-26,2021-08-11,株式会社東京ＴＲＹ,,株式会社,東京都,新宿区,四谷坂町７番２号,,13,104,1600002,,,2021-08-11,清算の結了等,,,2016-03-30,1,,,,,トウキョウトライ,0
1637,7011103009557,登記記録の閉鎖等,0,2021-08-26,2021-08-11,合同会社レダンタートル,,合同会社,東京都,新宿区,四谷４丁目１小島ビル４０１,,13,104,1600004,,,2021-08-11,清算の結了等,,,2020-03-17,1,,,,,レダンタートル,0
1654,7020001012977,登記記録の閉鎖等,0,2021-08-26,2021-08-24,山王設備工業株式会社,,株式会社,神奈川県,横浜市南区,六ツ川２丁目１３６番地の１,,14,105,2320066,,,2021-08-24,清算の結了等,,,2015-10-05,1,,,,,サンノウセツビコウギョウ,0
1674,7030001122874,登記記録の閉鎖等,0,2021-08-26,2021-08-13,株式会社ＭＯＥ,,株式会社,埼玉県,川口市,幸町２丁目７番２１号２０１号室,,11,203,3320016,,,2021-08-13,清算の結了等,,,2017-11-02,1,,,,,,0
1675,7030001133590,登記記録の閉鎖等,0,2021-08-26,2021-08-20,株式会社ｓｔｏｒｙ,,株式会社,東京都,豊島区,池袋３丁目３４－７ビジネスパーク池袋２階,,13,116,1710014,,,2021-08-20,清算の結了等,,,2019-11-07,1,,,,,ストーリー,0
1686,7040002022817,登記記録の閉鎖等,0,2021-08-26,2021-08-18,有限会社常匠建設,,有限会社,千葉県,船橋市,松が丘２丁目３５番６号,,12,204,2740064,,,2021-08-18,清算の結了等,,,2015-10-05,1,,,,,ツネショウケンセツ,0
1697,7060001028862,登記記録の閉鎖等,0,2021-08-26,2021-08-11,ＲＰＰ株式会社,,株式会社,栃木県,栃木市,旭町２３番１２号,,09,203,3280035,,,2021-08-11,清算の結了等,,,2016-12-01,1,,,,,,0
1700,7070002016056,登記記録の閉鎖等,0,2021-08-26,2021-08-24,有限会社エムズプラス,,有限会社,群馬県,富岡市,上高瀬１６７番地,,10,210,3702334,,,2021-08-24,清算の結了等,,,2015-10-05,1,,,,,,0
1701,7070002017599,登記記録の閉鎖等,0,2021-08-26,2021-08-24,有限会社藤新工業,,有限会社,群馬県,藤岡市,下戸塚１７２番地の１１,,10,209,3750012,,,2021-08-24,清算の結了等,,,2015-10-05,1,,,,,トウシンコウギョウ,0
1704,7080001020982,登記記録の閉鎖等,0,2021-08-26,2021-08-24,株式会社春日商会,,株式会社,静岡県,藤枝市,駅前１丁目２番１号,,22,214,4260034,,,2021-08-24,清算の結了等,,,2016-06-10,1,,,,,カスガショウカイ,0
1715,7100002005328,登記記録の閉鎖等,0,2021-08-26,2021-08-25,有限会社八幡,,有限会社,長野県,長野市,篠ノ井布施高田臼女２４５番地,,20,201,3888007,,,2021-08-25,清算の結了等,,,2015-10-05,1,,,,,ハチマン,0
1717,7110001007555,登記記録の閉鎖等,0,2021-08-26,2021-08-24,株式会社西村重機,,株式会社,新潟県,新潟市南区,浦梨２１６番地１,,15,106,9501472,,,2021-08-24,清算の結了等,,,2015-10-05,1,,,,,ニシムラジュウキ,0
1731,7130001011357,登記記録の閉鎖等,0,2021-08-26,2021-08-19,株式会社なだ水産,,株式会社,京都府,京都市南区,壬生通八条下る東寺町５４７番地の１０,,26,107,6018478,,,2021-08-19,清算の結了等,,,2015-10-05,1,,,,,ナダスイサン,0
1755,7200001005178,登記記録の閉鎖等,0,2021-08-26,2021-08-24,株式会社丸和,,株式会社,岐阜県,岐阜市,鹿島町６丁目１４番地,,21,201,5008323,,,2021-08-24,清算の結了等,,,2015-10-05,1,,,,,マルワ,0
1765,7240002047851,登記記録の閉鎖等,0,2021-08-26,2021-08-12,有限会社大下,,有限会社,広島県,安芸郡府中町,本町３丁目２番８号,,34,302,7350006,,,2021-08-12,清算の結了等,,,2015-10-05,1,,,,,オオシタ,0
1770,7260002017290,登記記録の閉鎖等,0,2021-08-26,2021-08-24,カンコウ建設有限会社,,有限会社,岡山県,倉敷市,尾原２２７６番地の１,,33,202,7100144,,,2021-08-24,清算の結了等,,,2015-10-05,1,,,,,カンコウケンセツ,0
1772,7280001006846,登記記録の閉鎖等,0,2021-08-26,2021-08-25,株式会社まちづくり湖都組,,株式会社,島根県,松江市,千鳥町２６番地１湖北ビル３０１号,,32,201,6900852,,,2021-08-25,清算の結了等,,,2015-10-05,1,,,,,マチヅクリコトグミ,0
1782,7320002009199,登記記録の閉鎖等,0,2021-08-26,2021-08-25,有限会社三重野建設,,有限会社,大分県,由布市,庄内町柿原１４２５番地,,44,213,8795421,,,2021-08-25,清算の結了等,,,2015-10-05,1,,,,,ミエノケンセツ,0
1793,7380002023236,登記記録の閉鎖等,0,2021-08-26,2021-08-20,有限会社久星江戸屋,,有限会社,福島県,いわき市,遠野町上遠野字本町３８番地,,07,204,9720161,,,2021-08-20,清算の結了等,,,2015-10-05,1,,,,,キュウボシエドヤ,0
1830,8010001139622,登記記録の閉鎖等,0,2021-08-26,2021-08-20,日新サービス株式会社,,株式会社,東京都,豊島区,南池袋２丁目３０番１７号,,13,116,1710022,,,2021-08-20,清算の結了等,,,2015-10-05,1,,,,,ニッシンサービス,0
1850,8010403020074,登記記録の閉鎖等,0,2021-08-26,2021-08-13,オレンジオーシャン合同会社,,合同会社,東京都,港区,南青山３丁目８番４０号青山センタービル２Ｆ,,13,103,1070062,,,2021-08-13,清算の結了等,,,2019-01-30,1,,,,,オレンジオーシャン,0
1866,8011001049844,登記記録の閉鎖等,0,2021-08-26,2021-08-24,株式会社ケイ・アンド・エム,,株式会社,東京都,渋谷区,神宮前２丁目１９番５号,,13,113,1500001,,,2021-08-24,清算の結了等,,,2015-10-05,1,,,,,ケイアンドエム,0
1887,8011803001465,登記記録の閉鎖等,0,2021-08-26,2021-08-25,合資会社夕涼み,,合資会社,東京都,葛飾区,堀切１丁目３４番１７号,,13,122,1240006,,,2021-08-25,清算の結了等,,,2015-10-05,1,,,,,,0
1895,8020001057798,登記記録の閉鎖等,0,2021-08-26,2021-08-24,Ｄシスネット株式会社,,株式会社,神奈川県,横浜市南区,永田東２丁目８番１７号,,14,105,2320072,,,2021-08-24,清算の結了等,,,2015-10-05,1,,,,,ディーシスネット,0
1914,8021001063992,登記記録の閉鎖等,0,2021-08-26,2021-08-12,株式会社Ｓ３ジャパン,,株式会社,埼玉県,さいたま市北区,日進町１丁目８００－１３０,,11,102,3310823,,,2021-08-12,清算の結了等,,,2018-01-23,1,,,,,エススリージャパン,0
1918,8021002051187,登記記録の閉鎖等,0,2021-08-26,2021-08-20,有限会社小田原工芸,,有限会社,神奈川県,小田原市,酒匂５丁目４番１７号,,14,206,2560816,,,2021-08-20,清算の結了等,,,2021-05-24,1,,,,,オダワラコウゲイ,0
1919,8030001014039,登記記録の閉鎖等,0,2021-08-26,2021-08-06,華豊商事株式会社,,株式会社,埼玉県,さいたま市大宮区,大成町１丁目４９９番１,,11,103,3300852,,,2021-08-06,清算の結了等,,,2015-10-05,1,,,,,カホウショウジ,0
1922,8030001023543,登記記録の閉鎖等,0,2021-08-26,2021-08-23,株式会社ユービーソフトウェア,,株式会社,埼玉県,所沢市,元町１６番９号,,11,208,3591121,,,2021-08-23,合併による解散等,2010003033985,令和３年７月３１日東京都中央区日本橋本町三丁目３番６号合同会社ＬＯＶＥ　ＡＬＬ（2010003033985）に合併し解散,2015-10-05,1,,,,,ユービーソフトウェア,0
1936,8030002114218,登記記録の閉鎖等,0,2021-08-26,2021-08-11,有限会社松本建築設計事務所,,有限会社,埼玉県,熊谷市,美土里町２丁目１６０番地,,11,202,3600845,,,2021-08-11,清算の結了等,,,2015-10-05,1,,,,,マツモトケンチクセッケイジムショ,0
1941,8040002061211,登記記録の閉鎖等,0,2021-08-26,2021-08-18,有限会社でーた工房,,有限会社,千葉県,佐倉市,千成３丁目７番２号,,12,212,2850034,,,2021-08-18,清算の結了等,,,2015-10-05,1,,,,,データコウボウ,0
1944,8040005017061,登記記録の閉鎖等,0,2021-08-26,2021-08-13,特定非営利活動法人松戸ホタルの古里,,その他の設立登記法人,千葉県,松戸市,常盤平５丁目２０番地１,,12,207,2702261,,,2021-08-13,清算の結了等,,,2015-10-05,1,,,,,マツドホタルノフルサト,0
1955,8060001023994,登記記録の閉鎖等,0,2021-08-26,2021-08-11,株式会社ムーブワン,,株式会社,栃木県,宇都宮市,宝木町１丁目２５７７番地６４,,09,201,3200061,,,2021-08-11,清算の結了等,,,2015-10-05,1,,,,,,0
1970,8080401015549,登記記録の閉鎖等,0,2021-08-26,2021-08-25,株式会社チェリッシュ,,株式会社,東京都,東村山市,恩多町５丁目５２番地９,,13,213,1890011,,,2021-08-25,清算の結了等,,,2015-10-05,1,,,,,チェリッシュ,0
1993,8130002003195,登記記録の閉鎖等,0,2021-08-26,2021-08-23,京都ビジネスセンター有限会社,00036913,有限会社,京都府,京都市上京区,寺町通鞍馬口下る高徳寺町３５５番地,,26,102,6020801,,,2021-08-23,清算の結了等,,,2015-10-05,1,,,,,キョウトビジネスセンター,0
2005,8150003002112,登記記録の閉鎖等,0,2021-08-26,2021-08-13,合同会社奈良スコーレ,,合同会社,奈良県,吉野郡吉野町,大字吉野山２３２８－２,,29,441,6393115,,,2021-08-13,清算の結了等,,,2020-03-17,1,,,,,ナラスコーレ,0
2017,8180002034129,登記記録の閉鎖等,0,2021-08-26,2021-08-23,有限会社寿総商,,有限会社,愛知県,東海市,冨木島町山中１８７番地の１,,23,222,4760000,,,2021-08-23,清算の結了等,,,2015-10-05,1,,,,,コトブキソウショウ,0
2019,8180005000771,登記記録の閉鎖等,0,2021-08-26,2021-08-24,大悲閣天照寺,,その他の設立登記法人,愛知県,名古屋市千種区,鏡池通４丁目８番地,,23,101,4640816,,,2021-08-24,清算の結了等,,,2015-10-05,1,,,,,ダイヒカクテンショウジ,0
2022,8180301020077,登記記録の閉鎖等,0,2021-08-26,2021-08-25,株式会社娘娘,,株式会社,愛知県,みよし市,三好町湯ノ前４６番地の３,,23,236,4700224,,,2021-08-25,清算の結了等,,,2015-10-05,1,,,,,ニャンニャン,0
2040,8240001029882,登記記録の閉鎖等,0,2021-08-26,2021-08-16,株式会社井上商事,,株式会社,広島県,福山市,野上町２丁目１１番１５号,,34,207,7200815,,,2021-08-16,清算の結了等,,,2015-10-05,1,,,,,イノウエショウジ,0
2044,8240002038668,登記記録の閉鎖等,0,2021-08-26,2021-08-16,有限会社ジョイクリーンサービス,,有限会社,広島県,福山市,神辺町大字川南１７７番地の１４,,34,207,7202124,,,2021-08-16,清算の結了等,,,2015-10-05,1,,,,,ジョイクリーンサービス,0
2082,8380001015167,登記記録の閉鎖等,0,2021-08-26,2021-08-23,株式会社リップスウェイ,,株式会社,福島県,いわき市,平字五色町１０番地,,07,204,9708026,,,2021-08-23,清算の結了等,,,2015-10-05,1,,,,,リップスウェイ,0
2083,8380001016883,登記記録の閉鎖等,0,2021-08-26,2021-08-20,株式会社いまむら,,株式会社,福島県,双葉郡浪江町,大字井手字下原１１１番地４,,07,547,9791535,,,2021-08-20,清算の結了等,,,2015-10-05,1,,,,,イマムラ,0
2086,8390002008012,登記記録の閉鎖等,0,2021-08-26,2021-08-23,有限会社三州塗建,,有限会社,山形県,酒田市,緑町２番４６号,,06,204,9980858,,,2021-08-23,清算の結了等,,,2015-10-05,1,,,,,ミシマトケン,0
2097,8460101004499,登記記録の閉鎖等,0,2021-08-26,2021-08-25,株式会社アースクリエイト,,株式会社,北海道,上川郡清水町,字清水第３線８３番地１５,,01,636,0890103,,,2021-08-25,清算の結了等,,,2015-10-05,1,,,,,,0
2105,9010001019369,登記記録の閉鎖等,0,2021-08-26,2021-08-16,株式会社シーエムシーフォーラム,,株式会社,東京都,千代田区,神田神保町２丁目１４番地,,13,101,1010051,,,2021-08-16,清算の結了等,,,2015-10-05,1,,,,,シーエムシーフォーラム,0
2130,9010401062786,登記記録の閉鎖等,0,2021-08-26,2021-08-13,株式会社まるや,,株式会社,東京都,港区,芝浦３丁目１４番１５号,,13,103,1080023,,,2021-08-13,清算の結了等,,,2015-10-05,1,,,,,マルヤ,0
2139,9010405015105,登記記録の閉鎖等,0,2021-08-26,2021-08-12,一般社団法人創業支援推進機構,,その他の設立登記法人,東京都,港区,芝公園３丁目５番８号機械振興会館３階,,13,103,1050011,,,2021-08-12,清算の結了等,,,2016-09-09,1,,,,,ソウギョウシエンスイシンキコウ,0
2163,9011101018707,登記記録の閉鎖等,0,2021-08-26,2021-08-11,株式会社文陽堂,,株式会社,東京都,新宿区,早稲田町７７番地,,13,104,1620042,,,2021-08-11,清算の結了等,,,2015-10-05,1,,,,,ブンヨウドウ,0
2175,9011805001396,登記記録の閉鎖等,0,2021-08-26,2021-08-17,税理士法人木田会計事務所,,その他の設立登記法人,千葉県,柏市,十余二２５４番地の１６９,,12,217,2770872,,,2021-08-17,清算の結了等,,,2015-10-05,1,,,,,キダカイケイジムショ,0
2189,9020001005293,登記記録の閉鎖等,0,2021-08-26,2021-08-24,株式会社高千穂工務店,,株式会社,神奈川県,横浜市旭区,川島町１９７７番地の６,,14,112,2410011,,,2021-08-24,清算の結了等,,,2015-10-05,1,,,,,タカチホコウムテン,0
2201,9030001023633,登記記録の閉鎖等,0,2021-08-26,2021-08-13,株式会社アルファジエム,,株式会社,埼玉県,所沢市,緑町４丁目４１番２１号,,11,208,3591111,,,2021-08-13,清算の結了等,,,2015-10-05,1,,,,,アルファジエム,0
2222,9040001096397,登記記録の閉鎖等,0,2021-08-26,2021-08-18,自立の看護株式会社,,株式会社,千葉県,船橋市,藤原２丁目９番１３号,,12,204,2730047,,,2021-08-18,清算の結了等,,,2016-08-04,1,,,,,ジリツノカンゴ,0
2227,9040005009801,登記記録の閉鎖等,0,2021-08-26,2021-08-17,市原緑地整備協同組合,,その他の設立登記法人,千葉県,市原市,山田橋４３４番地２１,,12,219,2900021,,,2021-08-17,清算の結了等,,,2015-10-05,1,,,,,イチハラリョクチセイビ,0
2248,9110001015829,登記記録の閉鎖等,0,2021-08-26,2021-08-24,株式会社小林電気,,株式会社,新潟県,燕市,吉田東町８番５号,,15,213,9590265,,,2021-08-24,清算の結了等,,,2015-10-05,1,,,,,コバヤシデンキ,0
2298,9180005013566,登記記録の閉鎖等,0,2021-08-26,2021-08-24,特定非営利活動法人共生会,,その他の設立登記法人,愛知県,津島市,壽町４１番地の３,,23,208,4960000,,,2021-08-24,清算の結了等,,,2015-10-05,1,,,,,キョウセイカイ,0
2306,9200005000173,登記記録の閉鎖等,0,2021-08-26,2021-08-25,一般財団法人岐阜産業会館,,その他の設立登記法人,岐阜県,岐阜市,六条南２丁目１１番１号,,21,201,5008358,,,2021-08-25,清算の結了等,,,2015-10-05,1,,,,,ギフサンギョウカイカン,0
2309,9220002017094,登記記録の閉鎖等,0,2021-08-26,2021-08-20,有限会社ホクヨウ繊維,,有限会社,石川県,かほく市,高松ナ７１番地,,17,209,9291215,,,2021-08-20,清算の結了等,,,2015-10-05,1,,,,,ホクヨウセンイ,0
2312,9240005009459,登記記録の閉鎖等,0,2021-08-26,2021-08-06,特定非営利活動法人自由の森,,その他の設立登記法人,広島県,福山市,西町３丁目１４番１８号の９０４,,34,207,7200067,,,2021-08-06,清算の結了等,,,2015-10-05,1,,,,,ジユウノモリ,0
2321,9260002023196,登記記録の閉鎖等,0,2021-08-26,2021-08-24,有限会社テクノ吉備路,,有限会社,岡山県,倉敷市,真備町上二万３２４７番地の３,,33,202,7101315,,,2021-08-24,清算の結了等,,,2015-10-05,1,,,,,テクノキビジ,0
2357,9380002032103,登記記録の閉鎖等,0,2021-08-26,2021-08-20,有限会社白岩建匠,,有限会社,福島県,会津若松市,門田町大字飯寺字村東５２５番地３７,,07,202,9650846,,,2021-08-20,清算の結了等,,,2015-10-05,1,,,,,シライワケンショウ,0
2372,9470002000629,登記記録の閉鎖等,0,2021-08-26,2021-08-26,有限会社飛島運輸,,有限会社,香川県,高松市,六条町９９２番地６,,37,201,7610303,,,2021-08-26,清算の結了等,,,2015-10-05,1,,,,,トビシマウンユ,0
