sequenceNumber,corporateNumber,process,correct,updateDate,changeDate,name,nameImageId,kind,prefectureName,cityName,streetNumber,addressImageId,prefectureCode,cityCode,postCode,addressOutside,addressOutsideImageId,closeDate,closeCause,successorCorporateNumber,changeCause,assignmentDate,latest,enName,enPrefectureName,enCityName,enAddressOutside,furigana,hihyoji
21,1010003035834,新規,0,2021-09-15,2021-09-15,合同会社Ｚｕｋｋｅｙ,,合同会社,東京都,中央区,銀座８丁目１５－１１・８０２号室,,13,102,1040061,,,,,,,2021-09-15,1,,,,,ズッキー,0
28,1010401162684,新規,0,2021-09-15,2021-09-15,株式会社オータスケット,,株式会社,東京都,港区,浜松町２丁目２番１５号浜松町ダイヤビル２Ｆ,,13,103,1050013,,,,,,,2021-09-15,1,,,,,オータスケット,0
29,1010401162734,新規,0,2021-09-15,2021-09-15,ＵＭエナジー株式会社,,株式会社,東京都,港区,元赤坂１丁目１番８号赤坂コミュニティビル４Ｆ,,13,103,1070051,,,,,,,2021-09-15,1,,,,,ユーエムエナジー,0
32,1010601059945,新規,0,2021-09-15,2021-09-15,株式会社ＮａｕｔｉｌｕＳ,,株式会社,東京都,墨田区,八広３丁目２２番３号,,13,107,1310041,,,,,,,2021-09-15,1,,,,,ノーチラス,0
36,1010803003882,新規,0,2021-09-15,2021-09-15,合同会社ＬＥＩ,,合同会社,東京都,大田区,千鳥２丁目３０番１号,,13,111,1460083,,,,,,,2021-09-15,1,,,,,レイ,0
38,1010903006802,新規,0,2021-09-15,2021-09-15,キャントップ東京合同会社,,合同会社,東京都,世田谷区,玉堤２丁目３番８－２０１号,,13,112,1580087,,,,,,,2021-09-15,1,,,,,キャントップトウキョウ,0
47,1011001142688,新規,0,2021-09-15,2021-09-15,株式会社アクシス,,株式会社,東京都,渋谷区,渋谷３丁目９番１０号,,13,113,1500002,,,,,,,2021-09-15,1,,,,,アクシス,0
51,1011003013367,新規,0,2021-09-15,2021-09-15,エルキャスティング合同会社,,合同会社,東京都,渋谷区,神宮前６丁目２３番４号桑野ビル２階,,13,113,1500001,,,,,,,2021-09-15,1,,,,,エルキャスティング,0
52,1011003013375,新規,0,2021-09-15,2021-09-15,合同会社サクヤ,,合同会社,東京都,目黒区,東山３丁目１５番４号,,13,110,1530043,,,,,,,2021-09-15,1,,,,,サクヤ,0
53,1011005009165,新規,0,2021-09-15,2021-09-15,一般社団法人ＧＬＯＢＡＬ　ＢＥＡＵＴＹ　ＣＯＬＬＥＧＥ,,その他の設立登記法人,東京都,目黒区,上目黒１丁目５－１０,,13,110,1530051,,,,,,,2021-09-15,1,,,,,グローバルビューティーカレッジ,0
61,1011701024715,新規,0,2021-09-15,2021-09-15,株式会社ＪＵＳＴ　ＣＨＩＬＬＩＮＧ,,株式会社,東京都,江戸川区,南葛西３丁目９番９－５０４号,,13,123,1340085,,,,,,,2021-09-15,1,,,,,ジャストチリング,0
62,1011703002941,新規,0,2021-09-15,2021-09-15,エピック合同会社,,合同会社,東京都,江戸川区,上篠崎４丁目２７番１２号,,13,123,1330054,,,,,,,2021-09-15,1,,,,,エピック,0
70,1012703002312,新規,0,2021-09-15,2021-09-15,合同会社ｂａｊｏｏ,,合同会社,東京都,東村山市,久米川町２丁目６番地１ボナール３０１,,13,213,1890003,,,,,,,2021-09-15,1,,,,,バジュ,0
76,1013305003260,新規,0,2021-09-15,2021-09-15,一般社団法人労働環境改善協会,,その他の設立登記法人,東京都,豊島区,西池袋３丁目２２番１５号大林ビル４ＦＢ,,13,116,1710021,,,,,,,2021-09-15,1,,,,,ロウドウカンキョウカイゼンキョウカイ,0
84,1020003020488,新規,0,2021-09-15,2021-09-15,ＣＳ．Ｃ合同会社,,合同会社,神奈川県,横浜市港北区,大倉山３丁目４６番８号,,14,109,2220037,,,,,,,2021-09-15,1,,,,,シーエスドットシー,0
91,1021001073957,新規,0,2021-09-15,2021-09-15,株式会社ＡＭＯＴＥＮ,,株式会社,神奈川県,藤沢市,鵠沼海岸１丁目１４番１号,,14,205,2510037,,,,,,,2021-09-15,1,,,,,アモテン,0
95,1030001144321,新規,0,2021-09-15,2021-09-15,株式会社ブルーノートホーム,,株式会社,埼玉県,所沢市,和ケ原１丁目１８５番地１０１号室,,11,208,3591162,,,,,,,2021-09-15,1,,,,,ブルーノートホーム,0
96,1030001144338,新規,0,2021-09-15,2021-09-15,株式会社ワイズ・ワン,,株式会社,埼玉県,春日部市,大枝８２８番地３,,11,214,3440023,,,,,,,2021-09-15,1,,,,,ワイズワン,0
97,1030001144346,新規,0,2021-09-15,2021-09-15,株式会社ＯＮＥ．ＳＴＥＰ,,株式会社,埼玉県,熊谷市,四方寺７番地２,,11,202,3600006,,,,,,,2021-09-15,1,,,,,ワンステップ,0
98,1030001144362,新規,0,2021-09-15,2021-09-15,おおみやカカオ株式会社,,株式会社,埼玉県,さいたま市大宮区,桜木町２丁目４９１番地２,,11,103,3300854,,,,,,,2021-09-15,1,,,,,オオミヤカカオ,0
103,1030003017954,新規,0,2021-09-15,2021-09-15,合同会社笑福,,合同会社,埼玉県,川口市,鳩ヶ谷緑町１丁目３番地２,,11,203,3340015,,,,,,,2021-09-15,1,,,,,エフ,0
112,1040001120172,新規,0,2021-09-15,2021-09-15,株式会社縁屋,,株式会社,千葉県,千葉市中央区,今井１丁目５番１０号セントラルコートそが１０２号,,12,101,2600834,,,,,,,2021-09-15,1,,,,,ヨスガヤ,0
113,1040001120189,新規,0,2021-09-15,2021-09-15,ミヨシ防災設備株式会社,,株式会社,千葉県,市原市,五井東１丁目８番地４,,12,219,2900055,,,,,,,2021-09-15,1,,,,,ミヨシボウサイセツビ,0
120,1040003018514,新規,0,2021-09-15,2021-09-15,合同会社大拓,,合同会社,千葉県,松戸市,新作１３４番地の５プロムナード北松戸１－２１３,,12,207,2710052,,,,,,,2021-09-15,1,,,,,ダイタク,0
139,1110003004572,新規,0,2021-09-15,2021-09-15,ユニドア合同会社,,合同会社,新潟県,南魚沼郡湯沢町,湯沢４丁目２番地１３,,15,461,9496101,,,,,,,2021-09-15,1,,,,,ユニドア,0
153,1120001240391,新規,0,2021-09-15,2021-09-15,株式会社日本蕎麦研究所,,株式会社,大阪府,枚方市,牧野阪１丁目８番１３号,,27,210,5731146,,,,,,,2021-09-15,1,,,,,ニホンソバケンキュウジョ,0
154,1120001240400,新規,0,2021-09-15,2021-09-15,株式会社資,,株式会社,大阪府,枚方市,北中振４丁目１１番３号,,27,210,5730064,,,,,,,2021-09-15,1,,,,,タカラ,0
155,1120001240409,新規,0,2021-09-15,2021-09-15,株式会社ＡＲＩＯＮＳ,,株式会社,大阪府,大阪市西区,新町１丁目２１番８－１４０２号,,27,106,5500013,,,,,,,2021-09-15,1,,,,,アリオンズ,0
156,1120001240441,新規,0,2021-09-15,2021-09-15,株式会社ファイブポケッツカンパニー,,株式会社,大阪府,大阪市中央区,南船場４丁目９番１４号,,27,128,5420081,,,,,,,2021-09-15,1,,,,,ファイブポケッツカンパニー,0
161,1120003020222,新規,0,2021-09-15,2021-09-15,合同会社ココロアイノカゼ,,合同会社,大阪府,枚方市,渚東町２４番１７号,,27,210,5731176,,,,,,,2021-09-15,1,,,,,ココロアイノカゼ,0
164,1120005022497,新規,0,2021-09-15,2021-09-15,一般財団法人山岡トロイメライ音楽財団,,その他の設立登記法人,大阪府,大阪市北区,茶屋町１番３２号ＹＡＮＭＡＲ・ＦＬＹＩＮＧ－Ｙ・ＢＵＩＬＤＩＮＧ,,27,127,5300013,,,,,,,2021-09-15,1,,,,,ヤマオカトロイメライオンガクザイダン,0
169,1120101064303,新規,0,2021-09-15,2021-09-15,株式会社芝建,,株式会社,大阪府,松原市,岡５丁目９番７－３Ｃ号,,27,217,5800014,,,,,,,2021-09-15,1,,,,,シバケン,0
171,1120901044826,新規,0,2021-09-15,2021-09-15,グランデ物流株式会社,,株式会社,大阪府,高槻市,栄町２丁目４０番４号,,27,207,5690825,,,,,,,2021-09-15,1,,,,,グランデブツリュウ,0
172,1120901044891,新規,0,2021-09-15,2021-09-15,株式会社ショウホーム,,株式会社,大阪府,高槻市,天王町１番１号,,27,207,5690088,,,,,,,2021-09-15,1,,,,,ショウホーム,0
178,1130001070103,新規,0,2021-09-15,2021-09-15,株式会社まるにあん,,株式会社,京都府,京都市中京区,東洞院通四条上る阪東屋町６６４番地,,26,104,6048143,,,,,,,2021-09-15,1,,,,,マルニアン,0
179,1130003007482,新規,0,2021-09-15,2021-09-15,ＴＡＴＯ合同会社,,合同会社,京都府,京都市上京区,信富町３１７－２,,26,102,6020875,,,,,,,2021-09-15,1,,,,,タト,0
180,1130003007490,新規,0,2021-09-15,2021-09-15,専建合同会社,,合同会社,京都府,京都市右京区,太秦馬塚町２６番地２０５,,26,108,6168177,,,,,,,2021-09-15,1,,,,,センケン,0
181,1130005016259,新規,0,2021-09-15,2021-09-15,一般社団法人みんなの制御塾,,その他の設立登記法人,京都府,京都市南区,久世高田町３７３番地１,,26,107,6018211,,,,,,,2021-09-15,1,,,,,ミンナノセイギョジュク,0
187,1140001123033,新規,0,2021-09-15,2021-09-15,株式会社Ｔａｋ－Ｍｅ,,株式会社,兵庫県,神戸市北区,緑町２丁目１１番２４号,,28,109,6511221,,,,,,,2021-09-15,1,,,,,タックミー,0
188,1140001123041,新規,0,2021-09-15,2021-09-15,株式会社オーネスト,,株式会社,兵庫県,三木市,口吉川町東中８３０番地の９８,,28,215,6730731,,,,,,,2021-09-15,1,,,,,オーネスト,0
194,1140003016747,新規,0,2021-09-15,2021-09-15,合同会社ＯｎｅＨａｎａ,,合同会社,兵庫県,神戸市灘区,船寺通１丁目１番１６号,,28,102,6570842,,,,,,,2021-09-15,1,,,,,ワンハナ,0
197,1150001012458,新規,0,2021-09-15,2021-09-15,岡本住販株式会社,,株式会社,奈良県,大和高田市,大字市場２１０番地,,29,202,6350074,,,,,,,2021-09-15,1,,,,,オカモトジュウハン,0
198,1150001024924,新規,0,2021-09-15,2021-09-15,株式会社エリーナ,,株式会社,奈良県,生駒市,上町１１１７番地１,,29,209,6300131,,,,,,,2021-09-15,1,,,,,エリーナ,0
202,1170001016779,新規,0,2021-09-15,2021-09-15,株式会社振華商事,,株式会社,和歌山県,西牟婁郡白浜町,２３０３番地コーポみずほ３０５号,,30,401,6492211,,,,,,,2021-09-15,1,,,,,シンカショウジ,0
209,1180001147821,新規,0,2021-09-15,2021-09-15,株式会社ＳＯＲＡ,,株式会社,愛知県,名古屋市千種区,末盛通１丁目２０番地の１（プラウドタワー覚王山１５０２号）,,23,101,4640821,,,,,,,2021-09-15,1,,,,,ソラ,0
212,1180003022956,新規,0,2021-09-15,2021-09-15,ＡＵＴＯ　ＧＬＯＢＡＬ　ＳＥＲＶＩＣＥ合同会社,,合同会社,愛知県,一宮市,笹野字宮西北５４番地１,,23,203,4910131,,,,,,,2021-09-15,1,,,,,オートグローバルサービス,0
213,1180005019439,新規,0,2021-09-15,2021-09-15,一般社団法人ＧＡＫＵ　ｓａｌｏｎナゴヤ・アップデーターズ,,その他の設立登記法人,愛知県,名古屋市千種区,猫洞通５丁目１３番地若山ビル１Ｆ,,23,101,4640032,,,,,,,2021-09-15,1,,,,,ガクサロンナゴヤアップデーターズ,0
217,1200001039140,新規,0,2021-09-15,2021-09-15,株式会社マーチャント,,株式会社,岐阜県,中津川市,落合１００番地の８,,21,206,5080006,,,,,,,2021-09-15,1,,,,,マーチャント,0
224,1220003003118,新規,0,2021-09-15,2021-09-15,合同会社ｆｒｅｅ,,合同会社,石川県,白山市,相木町９３３番地１,,17,210,9240022,,,,,,,2021-09-15,1,,,,,フリー,0
228,1230001018983,新規,0,2021-09-15,2021-09-15,株式会社山城工業,,株式会社,富山県,富山市,岩瀬天神町１８２番地,,16,201,9318378,,,,,,,2021-09-15,1,,,,,ヤマシロコウギョウ,0
247,1290001094623,新規,0,2021-09-15,2021-09-15,株式会社ｅｔｅｒｎａｌ,,株式会社,福岡県,福岡市東区,香椎照葉２丁目５－２－６０１号照葉テラスマリナコート２番館,,40,131,8130017,,,,,,,2021-09-15,1,,,,,エターナル,0
248,1290001094656,新規,0,2021-09-15,2021-09-15,株式会社マイスタープラス,,株式会社,福岡県,福岡市博多区,博多駅東２丁目５番１９号サンライフ第３ビル６Ｆ,,40,132,8120013,,,,,,,2021-09-15,1,,,,,マイスタープラス,0
249,1290001094664,新規,0,2021-09-15,2021-09-15,ギリ株式会社,,株式会社,福岡県,福岡市中央区,清川２丁目１番２６－２１１号,,40,133,8100005,,,,,,,2021-09-15,1,,,,,ギリ,0
255,1290003011634,新規,0,2021-09-15,2021-09-15,合同会社ミチクサ,,合同会社,福岡県,福津市,津屋崎４丁目１－１３,,40,224,8113304,,,,,,,2021-09-15,1,,,,,ミチクサ,0
259,1290801027798,新規,0,2021-09-15,2021-09-15,株式会社キフネエステートサービス,,株式会社,福岡県,北九州市若松区,大字安瀬５７番地の１,,40,103,8080022,,,,,,,2021-09-15,1,,,,,キフネエステートサービス,0
273,1340005009340,新規,0,2021-09-15,2021-09-15,医療法人諒優会,,その他の設立登記法人,鹿児島県,鹿児島市,中央町２４番１２号,,46,201,8900053,,,,,,,2021-09-15,1,,,,,リョウユウカイ,0
278,1370001047597,新規,0,2021-09-15,2021-09-15,株式会社縁,,株式会社,宮城県,仙台市太白区,八木山弥生町１６－１７コーポサツキ１０７号,,04,104,9820833,,,,,,,2021-09-15,1,,,,,エニシ,0
282,1380001032193,新規,0,2021-09-15,2021-09-15,株式会社陽光,,株式会社,福島県,西白河郡矢吹町,中畑南８７番地,,07,466,9690265,,,,,,,2021-09-15,1,,,,,ハル,0
293,1430001084956,新規,0,2021-09-15,2021-09-15,創謙建設株式会社,,株式会社,北海道,苫小牧市,本町１丁目１番４号,,01,213,0530025,,,,,,,2021-09-15,1,,,,,ソウケンケンセツ,0
294,1430001084980,新規,0,2021-09-15,2021-09-15,株式会社ＦＩＲＳＴ　ＧＬＡＮＺ,,株式会社,北海道,札幌市東区,東苗穂十条３丁目１１番３４号,,01,103,0070810,,,,,,,2021-09-15,1,,,,,ファーストグランツ,0
299,1430005014273,新規,0,2021-09-15,2021-09-15,医療法人社団北友会,,その他の設立登記法人,北海道,札幌市西区,発寒十三条３丁目７番２６号パサージュ発寒１階,,01,107,0630833,,,,,,,2021-09-15,1,,,,,ホクユウカイ,0
300,1430005014281,新規,0,2021-09-15,2021-09-15,医療法人育心会,,その他の設立登記法人,北海道,砂川市,東七条南５丁目１９番,,01,226,0730137,,,,,,,2021-09-15,1,,,,,イクシンカイ,0
313,1500001023683,新規,0,2021-09-15,2021-09-15,株式会社ｇａｒｄｅｎ,,株式会社,愛媛県,松山市,衣山１丁目２４４番地１ラフィネタウン衣山Ｄ棟,,38,201,7918025,,,,,,,2021-09-15,1,,,,,ガーデン,0
317,1500003002693,新規,0,2021-09-15,2021-09-15,シンシア合同会社,,合同会社,愛媛県,東温市,横河原１３７３－１,,38,215,7910203,,,,,,,2021-09-15,1,,,,,シンシア,0
319,1500005008417,新規,0,2021-09-15,2021-09-15,一般社団法人保育ＩＣＴ推進協会,,その他の設立登記法人,愛媛県,西予市,宇和町郷内１４０４番１,,38,214,7970025,,,,,,,2021-09-15,1,,,,,ホイクアイシーティースイシンキョウカイ,0
326,2010001221187,新規,0,2021-09-15,2021-09-15,株式会社Ｆｕｔｕｒｅ　Ｃｏｏｋｉｎｇ　Ｋｕｒｉｙａｍａ,,株式会社,東京都,中央区,銀座１丁目２２番１１号銀座大竹ビジデンス２階,,13,102,1040061,,,,,,,2021-09-15,1,,,,,フューチャークッキングクリヤマ,0
329,2010003035825,新規,0,2021-09-15,2021-09-15,Ｖａｎｅｓｔｉ　Ｖｅｎｔｕｒｅｓ合同会社,,合同会社,東京都,千代田区,平河町１丁目６番１５号,,13,101,1020093,,,,,,,2021-09-15,1,,,,,,0
330,2010003035841,新規,0,2021-09-15,2021-09-15,合同会社サクセス・プロエアー,,合同会社,東京都,千代田区,麹町３丁目４番地,,13,101,1020083,,,,,,,2021-09-15,1,,,,,サクセスプロエアー,0
331,2010005033983,新規,0,2021-09-15,2021-09-15,医療法人社団アイタワー歯科クリニック,,その他の設立登記法人,東京都,中央区,銀座２丁目９番４号銀座アイタワービル１階,,13,102,1040061,,,,,,,2021-09-15,1,,,,,アイタワーシカクリニック,0
332,2010101014862,新規,0,2021-09-15,2021-09-15,株式会社ＴＯＰ　ＳＴＡＮＤＡＲＤ,,株式会社,東京都,八王子市,打越町１１２７番地１２,,13,201,1920911,,,,,,,2021-09-15,1,,,,,トップスタンダード,0
337,2010401162700,新規,0,2021-09-15,2021-09-15,株式会社Ｎｕｒｓｅ　Ｓａｌｏｎ,,株式会社,東京都,港区,麻布十番２丁目１３番９－４０１号,,13,103,1060045,,,,,,,2021-09-15,1,,,,,ナースサロン,0
342,2010501047834,新規,0,2021-09-15,2021-09-15,株式会社声ぷろ,,株式会社,東京都,台東区,台東２丁目６番６号陽輪台みかみビル７０３号室,,13,106,1100016,,,,,,,2021-09-15,1,,,,,コエプロ,0
345,2010601059952,新規,0,2021-09-15,2021-09-15,シータステクノロジー株式会社,,株式会社,東京都,墨田区,緑４丁目２１番１０－６０３号,,13,107,1300021,,,,,,,2021-09-15,1,,,,,シータステクノロジー,0
348,2010603009146,新規,0,2021-09-15,2021-09-15,合同会社ルミテック,,合同会社,東京都,江東区,豊洲２丁目５番１－５０５号,,13,108,1350061,,,,,,,2021-09-15,1,,,,,ルミテック,0
349,2010603009154,新規,0,2021-09-15,2021-09-15,ドラゴンコーチング合同会社,,合同会社,東京都,墨田区,両国４丁目３８番１２号,,13,107,1300026,,,,,,,2021-09-15,1,,,,,ドラゴンコーチング,0
351,2010901049439,新規,0,2021-09-15,2021-09-15,株式会社Ｔｗｏ－Ｗａｙ,,株式会社,東京都,世田谷区,三軒茶屋２丁目３４番１号２Ｆ,,13,112,1540024,,,,,,,2021-09-15,1,,,,,トゥーウェイ,0
354,2011001142836,新規,0,2021-09-15,2021-09-15,株式会社ＬＩＦ,,株式会社,東京都,目黒区,青葉台４丁目７番７号青葉台マンション６０２,,13,110,1530042,,,,,,,2021-09-15,1,,,,,リフ,0
355,2011001142869,新規,0,2021-09-15,2021-09-15,株式会社ｔｗｏ　ｓａｎｄ　ｃｏｎｎｅｃｔ,,株式会社,東京都,渋谷区,元代々木町２番９号,,13,113,1510062,,,,,,,2021-09-15,1,,,,,トゥーサンドコネクト,0
361,2011105009964,新規,0,2021-09-15,2021-09-15,ファイブグッド税理士法人,,その他の設立登記法人,東京都,新宿区,新宿４丁目３番１７号,,13,104,1600022,,,,,,,2021-09-15,1,,,,,ファイブグッド,0
362,2011105009972,新規,0,2021-09-15,2021-09-15,医療法人社団桜恵会,,その他の設立登記法人,東京都,新宿区,神楽坂６丁目８番３１号ＤｅＬＣＣＳ神楽坂３階,,13,104,1620825,,,,,,,2021-09-15,1,,,,,オウケイカイ,0
366,2011201023241,新規,0,2021-09-15,2021-09-15,株式会社バッテリー,,株式会社,東京都,中野区,本町６丁目２２番１１号ニコラビル１０１号,,13,114,1640012,,,,,,,2021-09-15,1,,,,,バッテリー,0
368,2011301027175,新規,0,2021-09-15,2021-09-15,アストロボックス株式会社,,株式会社,東京都,杉並区,上荻２丁目２０－１２メゾンド上荻１０１,,13,115,1670043,,,,,,,2021-09-15,1,,,,,アストロボックス,0
370,2011503004889,新規,0,2021-09-15,2021-09-15,合同会社グルービーウェル,,合同会社,東京都,北区,上十条１丁目９番２３号,,13,117,1140034,,,,,,,2021-09-15,1,,,,,グルービーウェル,0
380,2011701024714,新規,0,2021-09-15,2021-09-15,株式会社アシスト,,株式会社,東京都,江戸川区,南葛西３丁目９番９－５０４号,,13,123,1340085,,,,,,,2021-09-15,1,,,,,アシスト,0
383,2011801039703,新規,0,2021-09-15,2021-09-15,エイチスタークコンサルティング株式会社,,株式会社,東京都,足立区,千住仲町１９－７森本ビル４Ｆ,,13,121,1200036,,,,,,,2021-09-15,1,,,,,エイチスタークコンサルティング,0
385,2011803004779,新規,0,2021-09-15,2021-09-15,合同会社希,,合同会社,東京都,足立区,加平２丁目２０番１２号,,13,121,1210055,,,,,,,2021-09-15,1,,,,,ノゾミ,0
386,2012301012712,新規,0,2021-09-15,2021-09-15,株式会社掃除職人,,株式会社,東京都,町田市,南大谷７８７番地,,13,209,1940031,,,,,,,2021-09-15,1,,,,,ソウジショクニン,0
388,2012401038302,新規,0,2021-09-15,2021-09-15,株式会社Ｌｉｖｏｔ,,株式会社,東京都,府中市,府中町１丁目１６－１－３０１,,13,206,1830055,,,,,,,2021-09-15,1,,,,,リボット,0
394,2013101008727,新規,0,2021-09-15,2021-09-15,株式会社ＡＫＩ工業,,株式会社,東京都,青梅市,富岡１丁目１９０番地,,13,205,1980002,,,,,,,2021-09-15,1,,,,,アキコウギョウ,0
396,2013301048003,新規,0,2021-09-15,2021-09-15,ＩＣＨＩＭＡＴＳＵ国際株式会社,,株式会社,東京都,豊島区,東池袋２丁目６０番２号８０３室,,13,116,1700013,,,,,,,2021-09-15,1,,,,,イチマツコクサイ,0
412,2021001073956,新規,0,2021-09-15,2021-09-15,株式会社ＰＤ,,株式会社,神奈川県,伊勢原市,高森台２丁目３番３号,,14,214,2591115,,,,,,,2021-09-15,1,,,,,ピーディー,0
413,2021001073972,新規,0,2021-09-15,2021-09-15,株式会社ＳＡＴ,,株式会社,神奈川県,厚木市,中町３丁目５番２号三木ビル１０２号室,,14,212,2430018,,,,,,,2021-09-15,1,,,,,サット,0
422,2030001144337,新規,0,2021-09-15,2021-09-15,株式会社ＦＩＳ,,株式会社,埼玉県,さいたま市大宮区,桜木町２丁目３番地,,11,103,3300854,,,,,,,2021-09-15,1,,,,,エフアイエス,0
423,2030001144345,新規,0,2021-09-15,2021-09-15,株式会社シンフォニー,,株式会社,埼玉県,川越市,大字的場２０１２番地１５－Ｈ１０１,,11,201,3501101,,,,,,,2021-09-15,1,,,,,シンフォニー,0
424,2030001144361,新規,0,2021-09-15,2021-09-15,株式会社ミライ,,株式会社,埼玉県,所沢市,大字久米３９１－１ハイネス所沢１０２,,11,208,3591131,,,,,,,2021-09-15,1,,,,,ミライ,0
432,2040001120171,新規,0,2021-09-15,2021-09-15,清新創業株式会社,,株式会社,千葉県,柏市,塚崎１０２１番地２２,,12,217,2770923,,,,,,,2021-09-15,1,,,,,セイシンソウギョウ,0
433,2040001120188,新規,0,2021-09-15,2021-09-15,アグラン株式会社,,株式会社,千葉県,市原市,潤井戸２２９５番地１５,,12,219,2900171,,,,,,,2021-09-15,1,,,,,アグラン,0
441,2040003018505,新規,0,2021-09-15,2021-09-15,合同会社ブレイン・アドベンチャー,,合同会社,千葉県,浦安市,高洲３丁目１５番２９号,,12,227,2790023,,,,,,,2021-09-15,1,,,,,ブレインアドベンチャー,0
452,2060001034089,新規,0,2021-09-15,2021-09-15,株式会社卒寿,,株式会社,栃木県,佐野市,馬門町９５７番地,,09,204,3270824,,,,,,,2021-09-15,1,,,,,ソツジュ,0
455,2070001038428,新規,0,2021-09-15,2021-09-15,株式会社三和未来,,株式会社,群馬県,藤岡市,中大塚５２６番地,,10,209,3750053,,,,,,,2021-09-15,1,,,,,サンワミライ,0
456,2070001038436,新規,0,2021-09-15,2021-09-15,株式会社笑い魂,,株式会社,群馬県,高崎市,上小鳥町４４１番地６,,10,202,3700078,,,,,,,2021-09-15,1,,,,,ワライダマシイ,0
462,2080101022776,新規,0,2021-09-15,2021-09-15,株式会社風夢,,株式会社,静岡県,富士市,松岡７０３番地の１,,22,210,4160909,,,,,,,2021-09-15,1,,,,,カザム,0
482,2120001240333,新規,0,2021-09-15,2021-09-15,ＳＡＫＵＲＡ　ＧＬＯＢＡＬ株式会社,,株式会社,大阪府,大阪市生野区,巽北１丁目２１番２９－２１１号,00124242,27,116,5440004,,,,,,,2021-09-15,1,,,,,サクラグローバル,0
483,2120001240358,新規,0,2021-09-15,2021-09-15,株式会社パシフィック・ルーツ,,株式会社,大阪府,大阪市中央区,北新町３番１１号,,27,128,5400023,,,,,,,2021-09-15,1,,,,,パシフィックルーツ,0
484,2120001240399,新規,0,2021-09-15,2021-09-15,株式会社五十君,,株式会社,大阪府,大阪市港区,三先２丁目１３番２５号,,27,107,5520016,,,,,,,2021-09-15,1,,,,,イソギミ,0
489,2120101064310,新規,0,2021-09-15,2021-09-15,株式会社未来,,株式会社,大阪府,岸和田市,紙屋町９番１２号,,27,202,5960064,,,,,,,2021-09-15,1,,,,,ミライ,0
491,2120901044882,新規,0,2021-09-15,2021-09-15,健康サポート農園株式会社,,株式会社,大阪府,箕面市,船場東２丁目１－２０ＡＢＣビル２Ｆ,,27,220,5620035,,,,,,,2021-09-15,1,,,,,ケンコウサポートノウエン,0
492,2120901044890,新規,0,2021-09-15,2021-09-15,株式会社オフィスケイエム,,株式会社,大阪府,豊中市,東豊中町２丁目９番２８号,,27,203,5600003,,,,,,,2021-09-15,1,,,,,オフィスケイエム,0
497,2130001070102,新規,0,2021-09-15,2021-09-15,株式会社ファインセキュリティ,,株式会社,京都府,京都市南区,東九条下殿田町１３九条ＣＩＤビル５階,,26,107,6018047,,,,,,,2021-09-15,1,,,,,ファインセキュリティ,0
502,2140001123024,新規,0,2021-09-15,2021-09-15,株式会社ＡＢＣ　ｂｙ　Ｄ,,株式会社,兵庫県,芦屋市,東芦屋町１番２０号セラヴィ芦屋ビル１Ｆ,00124235,28,206,6590095,,,,,,,2021-09-15,1,,,,,エービーシーバイディー,0
503,2140001123040,新規,0,2021-09-15,2021-09-15,株式会社ＳＦＢ,,株式会社,兵庫県,神戸市灘区,岩屋北町５丁目２番２１号１Ｆ,,28,102,6570846,,,,,,,2021-09-15,1,,,,,エスエフビー,0
517,2180001147820,新規,0,2021-09-15,2021-09-15,株式会社ＭＩＲＡＩＥ,,株式会社,愛知県,名古屋市中区,丸の内１丁目１７番１９号キリックス丸の内ビル２Ｆ,,23,106,4600002,,,,,,,2021-09-15,1,,,,,ミライエ,0
518,2180001147853,新規,0,2021-09-15,2021-09-15,グレー株式会社,,株式会社,愛知県,名古屋市港区,正保町８丁目５４番地,,23,111,4550074,,,,,,,2021-09-15,1,,,,,グレー,0
522,2180003022955,新規,0,2021-09-15,2021-09-15,合同会社清水事務所,,合同会社,愛知県,小牧市,中央２丁目８０番地,,23,219,4850029,,,,,,,2021-09-15,1,,,,,シミズジムショ,0
529,2220001024429,新規,0,2021-09-15,2021-09-15,株式会社インターネットプロモーション,,株式会社,石川県,金沢市,八日市５丁目３５０‐２,,17,201,9218064,,,,,,,2021-09-15,1,,,,,インターネットプロモーション,0
537,2240001058598,新規,0,2021-09-15,2021-09-15,株式会社ＰＲＯＫＡＴＥ,,株式会社,広島県,呉市,中央１丁目３番１－３０１号,,34,202,7370051,,,,,,,2021-09-15,1,,,,,プロカテ,0
544,2250001019129,新規,0,2021-09-15,2021-09-15,株式会社元文電工,,株式会社,山口県,防府市,大字下右田７２２番地の９,,35,206,7470063,,,,,,,2021-09-15,1,,,,,ゲンモンデンコウ,0
549,2270001008352,新規,0,2021-09-15,2021-09-15,株式会社山装,,株式会社,鳥取県,鳥取市,緑ケ丘１丁目８３５番地１３,,31,201,6800915,,,,,,,2021-09-15,1,,,,,ヤマソウ,0
558,2290001094597,新規,0,2021-09-15,2021-09-15,株式会社タートル保険事務所,,株式会社,福岡県,福岡市博多区,祇園町２－２２－２０２,,40,132,8120038,,,,,,,2021-09-15,1,,,,,タートルホケンジムショ,0
559,2290001094622,新規,0,2021-09-15,2021-09-15,株式会社スター総合サポート,,株式会社,福岡県,福岡市中央区,荒戸２丁目４－２０ブラントン大濠公園６０３号,,40,133,8100062,,,,,,,2021-09-15,1,,,,,スターソウゴウサポート,0
560,2290001094647,新規,0,2021-09-15,2021-09-15,エイドケアキャリア株式会社,,株式会社,福岡県,福岡市西区,姪の浜６丁目４番４号,,40,135,8190002,,,,,,,2021-09-15,1,,,,,エイドケアキャリア,0
564,2310001017480,新規,0,2021-09-15,2021-09-15,株式会社直山,,株式会社,長崎県,大村市,玖島２丁目６８２番地７,,42,205,8560834,,,,,,,2021-09-15,1,,,,,ナオヤマ,0
566,2310005008542,新規,0,2021-09-15,2021-09-15,特定非営利活動法人たすけあい上五島,,その他の設立登記法人,長崎県,南松浦郡新上五島町,浦桑郷６９９番地１５,,42,411,8574511,,,,,,,2021-09-15,1,,,,,タスケアイカミゴトウ,0
573,2350001017304,新規,0,2021-09-15,2021-09-15,株式会社高岡環境開発,,株式会社,宮崎県,宮崎市,山崎町四郎房９３１番地,,45,201,8800836,,,,,,,2021-09-15,1,,,,,タカオカカンキョウカイハツ,0
575,2350003003921,新規,0,2021-09-15,2021-09-15,港カフェ合同会社,,合同会社,宮崎県,宮崎市,高松町４番１９号７０１号,,45,201,8800003,,,,,,,2021-09-15,1,,,,,ミナトカフェ,0
576,2360001029348,新規,0,2021-09-15,2021-09-15,株式会社ＹＡＭＡＴＯ　ＯＫＩＮＡＷＡ,,株式会社,沖縄県,那覇市,松山２丁目９－７クリスタルビル２Ａ,,47,201,9000032,,,,,,,2021-09-15,1,,,,,ヤマトオキナワ,0
581,2380001032192,新規,0,2021-09-15,2021-09-15,株式会社浦住不動産,,株式会社,福島県,福島市,八木田字川原内５６番地１リバーインⅠ１０１号,00124241,07,201,9608164,,,,,,,2021-09-15,1,,,,,ウラズミフドウサン,0
593,2430001084955,新規,0,2021-09-15,2021-09-15,外山板金工業株式会社,,株式会社,北海道,日高郡新ひだか町,静内神森２６０番地の４,,01,610,0560002,,,,,,,2021-09-15,1,,,,,トヤマバンキンコウギョウ,0
594,2430001084963,新規,0,2021-09-15,2021-09-15,テクラ株式会社,,株式会社,北海道,札幌市北区,新琴似十二条１丁目１番１１号,,01,102,0010912,,,,,,,2021-09-15,1,,,,,テクラ,0
598,2430003013152,新規,0,2021-09-15,2021-09-15,北村管財合同会社,,合同会社,北海道,札幌市中央区,北十四条西１８丁目１番１８号,,01,101,0600014,,,,,,,2021-09-15,1,,,,,キタムラカンザイ,0
599,2430005014272,新規,0,2021-09-15,2021-09-15,医療法人社団札幌北円山内科・内視鏡クリニック,,その他の設立登記法人,北海道,札幌市西区,二十四軒一条５丁目１番３４メディカルスクエア北円山２階,,01,107,0630801,,,,,,,2021-09-15,1,,,,,サッポロキタマルヤマナイカナイシキョウクリニック,0
616,3010001221153,新規,0,2021-09-15,2021-09-15,株式会社人材開発グループ,,株式会社,東京都,千代田区,飯田橋２丁目１１番５号人材開発ビル,,13,101,1020072,,,,,,,2021-09-15,1,,,,,ジンザイカイハツグループ,0
633,3010403026134,新規,0,2021-09-15,2021-09-15,ＤＣ　Ｕｎｉｔ０合同会社,,合同会社,東京都,港区,元赤坂１丁目２番１７号赤坂Ｋタワーレジデンス３００４,,13,103,1070051,,,,,,,2021-09-15,1,,,,,ディーシーユニットゼロ,0
638,3010405020201,新規,0,2021-09-15,2021-09-15,一般社団法人日本遺伝子細胞治療学会,,その他の設立登記法人,東京都,港区,麻布台１丁目１１番９号株式会社コンベックス内,,13,103,1060041,,,,,,,2021-09-15,1,,,,,ニホンイデンシサイボウチリョウガッカイ,0
639,3010405020218,新規,0,2021-09-15,2021-09-15,新御堂筋キャピタル一般社団法人,,その他の設立登記法人,東京都,港区,六本木１丁目６番１号泉ガーデンタワー,,13,103,1060032,,,,,,,2021-09-15,1,,,,,シンミドウスジキャピタル,0
640,3010501047833,新規,0,2021-09-15,2021-09-15,株式会社ＯＲＣＨＩＳ,,株式会社,東京都,台東区,松が谷３丁目１６番８号,,13,106,1110036,,,,,,,2021-09-15,1,,,,,オルキス,0
642,3010601059943,新規,0,2021-09-15,2021-09-15,株式会社ＨｅＩｓｅ,,株式会社,東京都,墨田区,亀沢３丁目１４番１３号,,13,107,1300014,,,,,,,2021-09-15,1,,,,,ハイセ,0
643,3010603009153,新規,0,2021-09-15,2021-09-15,ＨＡＮＡＬ合同会社,,合同会社,東京都,墨田区,江東橋３丁目１２番５号,,13,107,1300022,,,,,,,2021-09-15,1,,,,,ハナル,0
646,3010703005936,新規,0,2021-09-15,2021-09-15,合同会社ＶＥＮＵＳ,,合同会社,東京都,品川区,上大崎２丁目４番７号,,13,109,1410021,,,,,,,2021-09-15,1,,,,,ヴィーナス,0
653,3010901049438,新規,0,2021-09-15,2021-09-15,株式会社Ｃ３Ｐ,,株式会社,東京都,世田谷区,代沢５丁目３０番１０号アール下北沢,,13,112,1550032,,,,,,,2021-09-15,1,,,,,シースリーピー,0
664,3011003013365,新規,0,2021-09-15,2021-09-15,合同会社ｍｏｎ．Ｋｕｒｏ,,合同会社,東京都,目黒区,中町２丁目３７番－８,,13,110,1530065,,,,,,,2021-09-15,1,,,,,モンクロ,0
673,3011503004888,新規,0,2021-09-15,2021-09-15,合同会社たまご,,合同会社,東京都,荒川区,西日暮里２丁目２６－５,,13,118,1160013,,,,,,,2021-09-15,1,,,,,タマゴ,0
680,3011803004778,新規,0,2021-09-15,2021-09-15,合同会社一言之信,,合同会社,東京都,足立区,西保木間３丁目２３番１４号,,13,121,1210812,,,,,,,2021-09-15,1,,,,,イチゲンノシン,0
688,3013301048002,新規,0,2021-09-15,2021-09-15,病院インフラ株式会社,,株式会社,東京都,豊島区,目白３丁目５番１３号,,13,116,1710031,,,,,,,2021-09-15,1,,,,,ビョウインインフラ,0
699,3021001073955,新規,0,2021-09-15,2021-09-15,株式会社Ａ－ｇｅｎｃｙ,,株式会社,神奈川県,茅ヶ崎市,柳島２丁目４番５５－２号,,14,207,2530064,,,,,,,2021-09-15,1,,,,,エージェンシー,0
700,3021001073963,新規,0,2021-09-15,2021-09-15,株式会社Ｂａｎｋｓ,,株式会社,神奈川県,横須賀市,本町３丁目１１番地本町今井ビル３階,,14,201,2380041,,,,,,,2021-09-15,1,,,,,バンクス,0
710,3030001144336,新規,0,2021-09-15,2021-09-15,株式会社フューチャーエンジニアリング,,株式会社,埼玉県,羽生市,大字下岩瀬２６５番地１,,11,216,3480045,,,,,,,2021-09-15,1,,,,,フューチャーエンジニアリング,0
711,3030001144360,新規,0,2021-09-15,2021-09-15,株式会社小山,,株式会社,埼玉県,さいたま市緑区,松木３丁目２番地７,,11,109,3360918,,,,,,,2021-09-15,1,,,,,コヤマ,0
728,3040001120187,新規,0,2021-09-15,2021-09-15,だいえい株式会社,,株式会社,千葉県,佐倉市,新臼井田２４番９号,,12,212,2850862,,,,,,,2021-09-15,1,,,,,ダイエイ,0
731,3050001049830,新規,0,2021-09-15,2021-09-15,ＧＵＪＪＡＲ　ＴＲＡＤＩＮＧ株式会社,,株式会社,茨城県,猿島郡境町,１８０６番地１、Ａ－１,,08,546,3060433,,,,,,,2021-09-15,1,,,,,グジャートレーディング,0
732,3050001049839,新規,0,2021-09-15,2021-09-15,株式会社栗物語,,株式会社,茨城県,土浦市,荒川沖東１丁目６番６号,,08,203,3000871,,,,,,,2021-09-15,1,,,,,クリモノガタリ,0
733,3050001049847,新規,0,2021-09-15,2021-09-15,タカノバイオ株式会社,,株式会社,茨城県,小美玉市,野田１５４２番地,,08,236,3113411,,,,,,,2021-09-15,1,,,,,タカノバイオ,0
734,3050003006078,新規,0,2021-09-15,2021-09-15,合同会社エヌ・ケー,,合同会社,茨城県,鹿嶋市,大字平井１１７７番地１,,08,222,3140012,,,,,,,2021-09-15,1,,,,,エヌケー,0
741,3060001034088,新規,0,2021-09-15,2021-09-15,株式会社米,,株式会社,栃木県,佐野市,馬門町９５７番地,,09,204,3270824,,,,,,,2021-09-15,1,,,,,コメ,0
742,3060001034096,新規,0,2021-09-15,2021-09-15,株式会社アリア・プランニング,,株式会社,栃木県,日光市,豊田３１９番地,,09,206,3212414,,,,,,,2021-09-15,1,,,,,アリアプランニング,0
746,3070001038435,新規,0,2021-09-15,2021-09-15,株式会社Ｅ－ＰＬＡＮ,,株式会社,群馬県,伊勢崎市,太田町４４１番地１グランスクエアＣ２０３,,10,204,3720006,,,,,,,2021-09-15,1,,,,,イープラン,0
751,3100001034604,新規,0,2021-09-15,2021-09-15,株式会社Ａ－ＬＩＦＥ,,株式会社,長野県,塩尻市,大門幸町８－８,,20,215,3990741,,,,,,,2021-09-15,1,,,,,エーライフ,0
756,3110001036038,新規,0,2021-09-15,2021-09-15,達美シール工業株式会社,,株式会社,新潟県,長岡市,美園２丁目３番９号,,15,202,9400866,,,,,,,2021-09-15,1,,,,,タツミシールコウギョウ,0
770,3120001240365,新規,0,2021-09-15,2021-09-15,株式会社ＡＴＨＥＮＡ,,株式会社,大阪府,大阪市淀川区,東三国４丁目９番７号,,27,123,5320002,,,,,,,2021-09-15,1,,,,,アテナ,0
771,3120001240398,新規,0,2021-09-15,2021-09-15,株式会社Ｂｕｒｎｉｎｇ　Ｈｅａｒｔ,,株式会社,大阪府,大阪市西区,北堀江１丁目２２番１４号なにわ筋三幸ビル１Ｆ,,27,106,5500014,,,,,,,2021-09-15,1,,,,,バーニングハート,0
772,3120001240407,新規,0,2021-09-15,2021-09-15,株式会社リミテート,,株式会社,大阪府,大阪市中央区,本町４丁目５番１５号,,27,128,5410053,,,,,,,2021-09-15,1,,,,,リミテート,0
773,3120001240423,新規,0,2021-09-15,2021-09-15,ＫＵＭＰＥＬ　ＨＯＭＥ株式会社,,株式会社,大阪府,枚方市,町楠葉１丁目１番１７－２０２号,,27,210,5731106,,,,,,,2021-09-15,1,,,,,クンペルホーム,0
774,3120001240431,新規,0,2021-09-15,2021-09-15,株式会社プレジール,,株式会社,大阪府,大阪市中央区,東心斎橋１丁目３番３－１９０６号,,27,128,5420083,,,,,,,2021-09-15,1,,,,,プレジール,0
775,3120001240448,新規,0,2021-09-15,2021-09-15,株式会社レイジング,,株式会社,大阪府,大阪市中央区,瓦町１丁目１番３号セナドーラ瓦町１０１号,,27,128,5410048,,,,,,,2021-09-15,1,,,,,レイジング,0
777,3120003020220,新規,0,2021-09-15,2021-09-15,合同会社マルキ商会,,合同会社,大阪府,大阪市淀川区,東三国４丁目６番１１号,,27,123,5320002,,,,,,,2021-09-15,1,,,,,マルキショウカイ,0
778,3120003020229,新規,0,2021-09-15,2021-09-15,合同会社こうゆう,,合同会社,大阪府,大阪市阿倍野区,共立通１丁目１１番３号,,27,119,5450041,,,,,,,2021-09-15,1,,,,,コウユウ,0
787,3130003007489,新規,0,2021-09-15,2021-09-15,合同会社ＹＯＬＣ,,合同会社,京都府,京都市中京区,御幸町通御池上る亀屋町３７９番地１コンフォール御幸町御池フェルテ７０３号,,26,104,6040941,,,,,,,2021-09-15,1,,,,,ヨル,0
792,3140001123048,新規,0,2021-09-15,2021-09-15,株式会社庭ファン,,株式会社,兵庫県,神戸市西区,桜が丘東町６丁目３番地の３,,28,111,6512225,,,,,,,2021-09-15,1,,,,,ニワファン,0
794,3140003016745,新規,0,2021-09-15,2021-09-15,Ｆ．Ｋ．Ｃ合同会社,,合同会社,兵庫県,姫路市,別所町別所６５９番地,,28,201,6710221,,,,,,,2021-09-15,1,,,,,エフケイシー,0
797,3150001024922,新規,0,2021-09-15,2021-09-15,株式会社ＭＳＫ,,株式会社,奈良県,奈良市,中町２４５１番地の１,,29,201,6310052,,,,,,,2021-09-15,1,,,,,エムエスケー,0
808,3180001147828,新規,0,2021-09-15,2021-09-15,犬山ガスホールディングス株式会社,,株式会社,愛知県,犬山市,天神町１丁目１７番地,,23,215,4840073,,,,,,,2021-09-15,1,,,,,イヌヤマガスホールディングス,0
811,3180003022954,新規,0,2021-09-15,2021-09-15,合同会社山内整骨院,,合同会社,愛知県,春日井市,柏原町３丁目２４２番地,,23,206,4860913,,,,,,,2021-09-15,1,,,,,ヤマウチセイコツイン,0
812,3180003022962,新規,0,2021-09-15,2021-09-15,合同会社ＭＡＳＨＩＲＯ　ＥＳＴＡＴＥ,,合同会社,愛知県,名古屋市千種区,松竹町２丁目２２番地,,23,101,4640823,,,,,,,2021-09-15,1,,,,,マシロエステート,0
813,3180005019437,新規,0,2021-09-15,2021-09-15,一般社団法人自動車ガラス施工会,,その他の設立登記法人,愛知県,名古屋市昭和区,御器所２丁目５番１号,,23,107,4660051,,,,,,,2021-09-15,1,,,,,ジドウシャガラスセコウカイ,0
820,3180305009237,新規,0,2021-09-15,2021-09-15,一般社団法人ユウカ,,その他の設立登記法人,愛知県,西尾市,寺津町白山２４番地,,23,213,4440324,,,,,,,2021-09-15,1,,,,,ユウカ,0
827,3220001024428,新規,0,2021-09-15,2021-09-15,株式会社イーエムハウス,,株式会社,石川県,七尾市,大田町１１１部１５番地,,17,202,9260006,,,,,,,2021-09-15,1,,,,,イーエムハウス,0
833,3230005009168,新規,0,2021-09-15,2021-09-15,一般社団法人たびのひと,,その他の設立登記法人,富山県,高岡市,二上町１８０番地,,16,202,9330981,,,,,,,2021-09-15,1,,,,,タビノヒト,0
839,3240001058597,新規,0,2021-09-15,2021-09-15,株式会社広島スタイル,,株式会社,広島県,広島市佐伯区,五日市中央２丁目１番３５号,,34,108,7315128,,,,,,,2021-09-15,1,,,,,ヒロシマスタイル,0
840,3240001058614,新規,0,2021-09-15,2021-09-15,株式会社鵬泰,,株式会社,広島県,東広島市,志和町七条椛坂字尾歳１０番地,,34,212,7390264,,,,,,,2021-09-15,1,,,,,ホウタイ,0
843,3240003005275,新規,0,2021-09-15,2021-09-15,合同会社ｈａｎｄｌｉｆｅ,,合同会社,広島県,広島市東区,戸坂南２丁目７番１２号,,34,102,7320013,,,,,,,2021-09-15,1,,,,,ハンドライフ,0
848,3250001019128,新規,0,2021-09-15,2021-09-15,株式会社アイレ,,株式会社,山口県,周南市,飯島町１丁目５１番地サカヤビル３Ｆ,,35,215,7450014,,,,,,,2021-09-15,1,,,,,アイレ,0
849,3250001019136,新規,0,2021-09-15,2021-09-15,株式会社田中土木工業,,株式会社,山口県,周南市,大字徳山１１０１２番地の３７,,35,215,7450851,,,,,,,2021-09-15,1,,,,,タナカドボクコウギョウ,0
852,3260001035958,新規,0,2021-09-15,2021-09-15,Ｔｈｅ　Ｆｉｒｓｔ　Ｃｏｎｓｕｌｔａｎｔ株式会社,,株式会社,岡山県,岡山市中区,藤原光町１丁目６番１２号,,33,102,7038246,,,,,,,2021-09-15,1,,,,,ザファーストコンサルタント,0
863,3290001094638,新規,0,2021-09-15,2021-09-15,株式会社イトケン,,株式会社,福岡県,糟屋郡須惠町,大字植木１８５番地４７,,40,344,8112112,,,,,,,2021-09-15,1,,,,,イトケン,0
864,3290001094654,新規,0,2021-09-15,2021-09-15,株式会社ＥＭ＆Ａ,,株式会社,福岡県,福岡市南区,老司２丁目１８番５９号,,40,134,8111346,,,,,,,2021-09-15,1,,,,,イーエムアンドエー,0
867,3290003011599,新規,0,2021-09-15,2021-09-15,合同会社ＩＯＴＡ,,合同会社,福岡県,福岡市博多区,大博町４－３２,,40,132,8120033,,,,,,,2021-09-15,1,,,,,イオタ,0
868,3290003011624,新規,0,2021-09-15,2021-09-15,合同会社サポトレ,,合同会社,福岡県,福岡市中央区,大手門３丁目１－３０－４０５,,40,133,8100074,,,,,,,2021-09-15,1,,,,,サポトレ,0
870,3290005018361,新規,0,2021-09-15,2021-09-15,ＮＰＯ法人障がい者就労支援センターアフェクション,,その他の設立登記法人,福岡県,飯塚市,伊川５４３番地１,,40,205,8200054,,,,,,,2021-09-15,1,,,,,ショウガイシャシュウロウシエンセンターアフェクション,0
878,3330001028995,新規,0,2021-09-15,2021-09-15,株式会社ＮｅＸＴ４,,株式会社,熊本県,八代市,郡築二番町１１７番地１,,43,202,8660023,,,,,,,2021-09-15,1,,,,,ネクストフォ,0
883,3340005009339,新規,0,2021-09-15,2021-09-15,医療法人桃花会,,その他の設立登記法人,鹿児島県,鹿児島市,紫原５丁目６番２０号,,46,201,8900082,,,,,,,2021-09-15,1,,,,,モモハナカイ,0
886,3360001029347,新規,0,2021-09-15,2021-09-15,株式会社フィクシー沖縄,,株式会社,沖縄県,島尻郡南風原町,字宮平１８プランドール岳１０１,,47,350,9011104,,,,,,,2021-09-15,1,,,,,フィクシーオキナワ,0
889,3360003011435,新規,0,2021-09-15,2021-09-15,合同会社イレイ左官興業,,合同会社,沖縄県,中頭郡中城村,字南上原７５５－１セントラルハウス３０３,,47,328,9012424,,,,,,,2021-09-15,1,,,,,イレイサカンコウギョウ,0
890,3370001047604,新規,0,2021-09-15,2021-09-15,株式会社ニチデＬａｂ,,株式会社,宮城県,仙台市若林区,新寺３丁目２番１号,,04,103,9840051,,,,,,,2021-09-15,1,,,,,ニチデラブ,0
893,3380001032191,新規,0,2021-09-15,2021-09-15,株式会社ワンライズ,,株式会社,福島県,いわき市,平谷川瀬字吉野作８０番地３,,07,204,9708036,,,,,,,2021-09-15,1,,,,,ワンライズ,0
894,3380001032200,新規,0,2021-09-15,2021-09-15,株式会社ＶＯＬＯＮＴＥ,,株式会社,福島県,会津若松市,栄町８番２７号,,07,202,9650871,,,,,,,2021-09-15,1,,,,,ヴォロンテ,0
900,3420001017584,新規,0,2021-09-15,2021-09-15,株式会社Ｆ‐Ｐｌｕｓ,,株式会社,青森県,青森市,卸町６番６号,,02,201,0300137,,,,,,,2021-09-15,1,,,,,エフプラス,0
907,3430001084954,新規,0,2021-09-15,2021-09-15,株式会社ＦＰＭＡ,,株式会社,北海道,北広島市,大曲２８２番地２,,01,234,0611270,,,,,,,2021-09-15,1,,,,,エフピーエムエー,0
910,3430003013151,新規,0,2021-09-15,2021-09-15,合同会社サラドマーニ,,合同会社,北海道,札幌市西区,平和二条４丁目１番７号,,01,107,0630022,,,,,,,2021-09-15,1,,,,,サラドマーニ,0
914,3470001018710,新規,0,2021-09-15,2021-09-15,株式会社みかん,,株式会社,香川県,高松市,扇町１丁目２３－７,,37,201,7600013,,,,,,,2021-09-15,1,,,,,ミカン,0
915,3470003002035,新規,0,2021-09-15,2021-09-15,つみきえーる合同会社,,合同会社,香川県,高松市,成合町７１８番地３,,37,201,7618081,,,,,,,2021-09-15,1,,,,,ツミキエール,0
916,3480001011490,新規,0,2021-09-15,2021-09-15,株式会社天羽興業,,株式会社,徳島県,勝浦郡勝浦町,大字沼江字天川３８番地,,36,301,7714301,,,,,,,2021-09-15,1,,,,,アモウコウギョウ,0
918,3480003001721,新規,0,2021-09-15,2021-09-15,合同会社まこみかじゅん,,合同会社,徳島県,阿南市,宝田町平岡９０２番地１８４,,36,204,7740045,,,,,,,2021-09-15,1,,,,,マコミカジュン,0
934,4010001221128,新規,0,2021-09-15,2021-09-15,株式会社エンバイオＣ・エナジー,,株式会社,東京都,千代田区,鍛冶町２丁目２番２号,,13,101,1010044,,,,,,,2021-09-15,1,,,,,エンバイオシーエナジー,0
935,4010001221152,新規,0,2021-09-15,2021-09-15,株式会社Ｐｒｅｍｏ　Ｒ＆Ｄ,,株式会社,東京都,中央区,日本橋小舟町３番１号,,13,102,1030024,,,,,,,2021-09-15,1,,,,,プレモアールアンドディー,0
938,4010003035831,新規,0,2021-09-15,2021-09-15,Ｕ＆ＦＡＳ合同会社,,合同会社,東京都,中央区,日本橋本町１丁目５－２,,13,102,1030023,,,,,,,2021-09-15,1,,,,,ユーアンドエフエーエス,0
940,4010005033973,新規,0,2021-09-15,2021-09-15,特定非営利活動法人Ａｌｏｐｅｃｉａ　Ｓｔｙｌｅ　Ｐｒｏｊｅｃｔ　Ｊａｐａｎ,,その他の設立登記法人,東京都,中央区,銀座１丁目２２番１１号銀座大竹ビジデンス２階,,13,102,1040061,,,,,,,2021-09-15,1,,,,,アルペシアスタイルプロジェクトジャパン,0
947,4010401162673,新規,0,2021-09-15,2021-09-15,株式会社ユナイテッドウィズダム,,株式会社,東京都,港区,六本木６丁目２番３１号六本木ヒルズノースタワー９階,,13,103,1060032,,,,,,,2021-09-15,1,,,,,ユナイテッドウィズダム,0
948,4010401162731,新規,0,2021-09-15,2021-09-15,ｉＫａｌａ　Ｊａｐａｎ株式会社,,株式会社,東京都,港区,虎ノ門５丁目１３番１号虎ノ門４０ＭＴビル７階,,13,103,1050001,,,,,,,2021-09-15,1,,,,,アイカラジャパン,0
952,4010601059950,新規,0,2021-09-15,2021-09-15,株式会社セオサイクル砂町,,株式会社,東京都,江東区,北砂６丁目６番１７号,,13,108,1360073,,,,,,,2021-09-15,1,,,,,,0
953,4010603009152,新規,0,2021-09-15,2021-09-15,エスエフ合同会社,,合同会社,東京都,江東区,東陽５丁目１８番８号,,13,108,1350016,,,,,,,2021-09-15,1,,,,,エスエフ,0
956,4010901049437,新規,0,2021-09-15,2021-09-15,株式会社ＭＫオート,,株式会社,東京都,世田谷区,上用賀６丁目２３番３号,,13,112,1580098,,,,,,,2021-09-15,1,,,,,エムケイオート,0
957,4010901049445,新規,0,2021-09-15,2021-09-15,株式会社Ｅａｓｔ　Ｓｈｉｐ,,株式会社,東京都,世田谷区,新町２丁目３０番１号秀峰マンション４０１,,13,112,1540014,,,,,,,2021-09-15,1,,,,,イーストシップ,0
965,4011001142826,新規,0,2021-09-15,2021-09-15,ＴＨＡＴ’Ｓ　ＦＡＳＨＩＯＮ　ＷＥＥＫＥＮＤ株式会社,,株式会社,東京都,渋谷区,代官山町２番７号シャトレ代官山５０３,,13,113,1500034,,,,,,,2021-09-15,1,,,,,ザッツファッションウィークエンド,0
968,4011005009212,新規,0,2021-09-15,2021-09-15,一般社団法人ママぷらキッズ＆ベビー協会,,その他の設立登記法人,東京都,渋谷区,初台２丁目３１番９－１４０４号,,13,113,1510061,,,,,,,2021-09-15,1,,,,,ママプラキッズアンドベビーキョウカイ,0
973,4011403003444,新規,0,2021-09-15,2021-09-15,ＪＣＢ合同会社,,合同会社,東京都,板橋区,小茂根１丁目２５番１６号,,13,119,1730037,,,,,,,2021-09-15,1,,,,,ジェイシービー,0
978,4011605002401,新規,0,2021-09-15,2021-09-15,医療法人社団ユリイカ,,その他の設立登記法人,東京都,練馬区,石神井町３丁目２４番７号岩田ビル２階,,13,120,1770041,,,,,,,2021-09-15,1,,,,,ユリイカ,0
980,4011701024712,新規,0,2021-09-15,2021-09-15,株式会社ディレット,,株式会社,東京都,江戸川区,松島３丁目１５番９号,,13,123,1320031,,,,,,,2021-09-15,1,,,,,ディレット,0
985,4012401038300,新規,0,2021-09-15,2021-09-15,株式会社壁屋ＰＷＰ,,株式会社,東京都,多摩市,永山６丁目１４番地の３０,,13,224,2060025,,,,,,,2021-09-15,1,,,,,カベヤピーダブリューピー,0
987,4012403005026,新規,0,2021-09-15,2021-09-15,豊国荘クリエイティブ合同会社,,合同会社,東京都,三鷹市,井の頭１丁目３１－１６フラットソフィーネ,,13,204,1810001,,,,,,,2021-09-15,1,,,,,トヨクニソウクリエイティブ,0
1003,4020001142926,新規,0,2021-09-15,2021-09-15,高田興業株式会社,00124256,株式会社,神奈川県,川崎市川崎区,追分町１０番９－７０４号,,14,131,2100835,,,,,,,2021-09-15,1,,,,,タカダコウギョウ,0
1010,4021001073962,新規,0,2021-09-15,2021-09-15,株式会社ＺＥＲＯ,,株式会社,神奈川県,小田原市,成田２２７－３ＬＳＹ４７－１０１号室,,14,206,2500862,,,,,,,2021-09-15,1,,,,,ゼロ,0
1015,4021003010897,新規,0,2021-09-15,2021-09-15,合同会社ＳｏｕｎｄＷｏｒｋｓＫ　Ｍａｒｋｅｔｉｎｇ,,合同会社,神奈川県,相模原市南区,若松１丁目１７－４－６,,14,153,2520334,,,,,,,2021-09-15,1,,,,,サウンドワークスケーマーケティング,0
1019,4030001144319,新規,0,2021-09-15,2021-09-15,バンノ不動産株式会社,,株式会社,埼玉県,飯能市,大字飯能１２８７番地１４,,11,209,3570063,,,,,,,2021-09-15,1,,,,,バンノフドウサン,0
1020,4030001144327,新規,0,2021-09-15,2021-09-15,ヌベールジャパン株式会社,,株式会社,埼玉県,ふじみ野市,駒林元町３丁目２番６号,,11,245,3560038,,,,,,,2021-09-15,1,,,,,ヌベールジャパン,0
1021,4030001144343,新規,0,2021-09-15,2021-09-15,株式会社けーあい設備,,株式会社,埼玉県,所沢市,北中３丁目３３番地の１,,11,208,3591101,,,,,,,2021-09-15,1,,,,,ケーアイセツビ,0
1038,4050001049838,新規,0,2021-09-15,2021-09-15,株式会社くばるん,,株式会社,茨城県,筑西市,桑山１６２０番地６,,08,227,3091127,,,,,,,2021-09-15,1,,,,,クバルン,0
1039,4050001049846,新規,0,2021-09-15,2021-09-15,株式会社ヒカリノ木,,株式会社,茨城県,常陸大宮市,鷹巣１００４番地,,08,225,3192214,,,,,,,2021-09-15,1,,,,,ヒカリノキ,0
1045,4060001034087,新規,0,2021-09-15,2021-09-15,株式会社クボサ,,株式会社,栃木県,佐野市,馬門町９５７番地,,09,204,3270824,,,,,,,2021-09-15,1,,,,,クボサ,0
1059,4100001034603,新規,0,2021-09-15,2021-09-15,株式会社悠久の里,,株式会社,長野県,松本市,大字岡田町４４９番地１,,20,202,3900315,,,,,,,2021-09-15,1,,,,,ユウキュウノサト,0
1061,4110001036037,新規,0,2021-09-15,2021-09-15,ＲＳＩサービス株式会社,,株式会社,新潟県,燕市,物流センター２丁目３４番地,,15,213,9591277,,,,,,,2021-09-15,1,,,,,アールエスアイサービス,0
1074,4120001240380,新規,0,2021-09-15,2021-09-15,株式会社ＦＢｅｎｔ,,株式会社,大阪府,大阪市西淀川区,花川２丁目４－４３－１０３,,27,113,5550023,,,,,,,2021-09-15,1,,,,,エフビーエント,0
1075,4120001240397,新規,0,2021-09-15,2021-09-15,株式会社Ｒａｌｐｈ　Ｓｔｒｅｅｔ,,株式会社,大阪府,門真市,御堂町９番１４号,,27,223,5710064,,,,,,,2021-09-15,1,,,,,ラルフストリート,0
1076,4120001240406,新規,0,2021-09-15,2021-09-15,株式会社健診ソリューションズ,,株式会社,大阪府,大阪市都島区,善源寺町２丁目２番８－２５０６号,,27,102,5340015,,,,,,,2021-09-15,1,,,,,ケンシンソリューションズ,0
1077,4120001240447,新規,0,2021-09-15,2021-09-15,株式会社プリンセス・メゾン,,株式会社,大阪府,大阪市此花区,西九条４丁目２番９号,,27,104,5540012,,,,,,,2021-09-15,1,,,,,プリンセスメゾン,0
1080,4120003020228,新規,0,2021-09-15,2021-09-15,アヴォロンテ合同会社,,合同会社,大阪府,大阪市東淀川区,東淡路４丁目１７番１５号２０５,,27,114,5330023,,,,,,,2021-09-15,1,,,,,アヴォロンテ,0
1083,4120005022503,新規,0,2021-09-15,2021-09-15,一般社団法人ＦＦＧ・３Ｈ,,その他の設立登記法人,大阪府,大阪市天王寺区,北河堀町７番１６－５０１３号,,27,109,5430053,,,,,,,2021-09-15,1,,,,,エフエフジースリーエイチ,0
1100,4140001123030,新規,0,2021-09-15,2021-09-15,株式会社川崎トレーディング,,株式会社,兵庫県,加古川市,加古川町溝之口７６４番地ＹＡＮＡＧＡＷＡ・ＢＬＤＧ．Ⅱ２－Ｂ,00124236,28,210,6750064,,,,,,,2021-09-15,1,,,,,カワサキトレーディング,0
1101,4140001123039,新規,0,2021-09-15,2021-09-15,株式会社活キ瀬戸内コーポレーション,,株式会社,兵庫県,たつの市,御津町室津１３３６番地,,28,229,6711332,,,,,,,2021-09-15,1,,,,,イキセトウチコーポレーション,0
1102,4140001123047,新規,0,2021-09-15,2021-09-15,株式会社ＳＥＩＫＥＮ,,株式会社,兵庫県,神戸市長田区,神楽町３丁目４番２４－１０１号,,28,106,6530836,,,,,,,2021-09-15,1,,,,,セイケン,0
1104,4140003016744,新規,0,2021-09-15,2021-09-15,合同会社Ｒｉｓｉｎｇ－ｋ,,合同会社,兵庫県,尼崎市,潮江５丁目４番１９－１１０１号,,28,202,6610976,,,,,,,2021-09-15,1,,,,,ライジングケー,0
1110,4170003001628,新規,0,2021-09-15,2021-09-15,合同会社ケルトの笛屋さん,,合同会社,和歌山県,田辺市,本宮町久保野５６４番地３,,30,206,6471736,,,,,,,2021-09-15,1,,,,,ケルトノフエヤサン,0
1115,4180001147810,新規,0,2021-09-15,2021-09-15,森泉株式会社,,株式会社,愛知県,名古屋市中区,栄２丁目６－１ＲＴ白川ビル,,23,106,4600008,,,,,,,2021-09-15,1,,,,,モリイズミ,0
1116,4180001147827,新規,0,2021-09-15,2021-09-15,株式会社Ｋ’ｓ　ＬＩＮＫ,,株式会社,愛知県,名古屋市中村区,栄生町２７番１３号,,23,105,4530033,,,,,,,2021-09-15,1,,,,,ケーズリンク,0
1130,4200001039121,新規,0,2021-09-15,2021-09-15,林田産業株式会社,,株式会社,岐阜県,安八郡安八町,森部２４６９番地,,21,383,5030114,,,,,,,2021-09-15,1,,,,,,0
1131,4200001039138,新規,0,2021-09-15,2021-09-15,アークグロー株式会社,,株式会社,岐阜県,多治見市,北丘町８丁目１番地の２４６,,21,204,5070064,,,,,,,2021-09-15,1,,,,,アークグロー,0
1132,4200003005311,新規,0,2021-09-15,2021-09-15,合同会社アトラクト,,合同会社,岐阜県,岐阜市,東鶉３丁目７０番地１,,21,201,5008281,,,,,,,2021-09-15,1,,,,,アトラクト,0
1133,4210001018603,新規,0,2021-09-15,2021-09-15,株式会社光己工業,,株式会社,福井県,敦賀市,野神１号３２番地の７,,18,202,9140121,,,,,,,2021-09-15,1,,,,,コウキコウギョウ,0
1140,4240001058588,新規,0,2021-09-15,2021-09-15,株式会社らくだ,,株式会社,広島県,広島市安佐南区,祇園６丁目２０番１号,,34,105,7310138,,,,,,,2021-09-15,1,,,,,ラクダ,0
1141,4240001058605,新規,0,2021-09-15,2021-09-15,株式会社ネクストムーブ尾道,,株式会社,広島県,尾道市,東尾道１０番地９,,34,205,7220051,,,,,,,2021-09-15,1,,,,,ネクストムーブオノミチ,0
1142,4240001058613,新規,0,2021-09-15,2021-09-15,株式会社ｏｆｆｉｃｅ　ａｚ,,株式会社,広島県,広島市南区,京橋町１番７号アスティ広島京橋ビルディング１階ｆａｂｂｉｔ,,34,103,7320828,,,,,,,2021-09-15,1,,,,,オフィスアヅ,0
1146,4250001019135,新規,0,2021-09-15,2021-09-15,株式会社サードチャレンジ,,株式会社,山口県,下関市,伊倉新町３丁目６番４１号,,35,201,7510869,,,,,,,2021-09-15,1,,,,,サードチャレンジ,0
1154,4270001008359,新規,0,2021-09-15,2021-09-15,株式会社ｗｅｌｌ　ｂｅｉｎｇ,,株式会社,鳥取県,鳥取市,桜谷１１番地１１,,31,201,6800853,,,,,,,2021-09-15,1,,,,,ウェルビーイング,0
1159,4290001094562,新規,0,2021-09-15,2021-09-15,株式会社吉浦ＨＤ,,株式会社,福岡県,福岡市早良区,百道浜４丁目２番２－３１３号,,40,137,8140001,,,,,,,2021-09-15,1,,,,,ヨシウラホールディングス,0
1160,4290001094620,新規,0,2021-09-15,2021-09-15,株式会社Ｓｔｅｍ,,株式会社,福岡県,福岡市早良区,田村２丁目１０－２６,,40,137,8140175,,,,,,,2021-09-15,1,,,,,ステム,0
1161,4290001094637,新規,0,2021-09-15,2021-09-15,株式会社Ｃ４ｃｏｍｐａｎｙ,,株式会社,福岡県,大牟田市,船津町２６９番地１,,40,202,8360073,,,,,,,2021-09-15,1,,,,,シーフォーカンパニー,0
1162,4290001094661,新規,0,2021-09-15,2021-09-15,株式会社ｆｒ,,株式会社,福岡県,福岡市博多区,上川端町５－１１３ＴＡＣメディカルビル４Ｆ,,40,132,8120026,,,,,,,2021-09-15,1,,,,,エフアール,0
1166,4290003011623,新規,0,2021-09-15,2021-09-15,合同会社労務の相談窓口,,合同会社,福岡県,福岡市早良区,飯倉２丁目２８番４号,,40,137,8140161,,,,,,,2021-09-15,1,,,,,ロウムノソウダンマドグチ,0
1167,4290005018360,新規,0,2021-09-15,2021-09-15,一般社団法人日本オーダースーツ技能認定協会,,その他の設立登記法人,福岡県,福岡市博多区,那珂４丁目２７番１０－４０４号,,40,132,8120893,,,,,,,2021-09-15,1,,,,,ニホンオーダースーツギノウニンテイキョウカイ,0
1168,4290801027795,新規,0,2021-09-15,2021-09-15,株式会社リベラルハーツ,,株式会社,福岡県,北九州市小倉北区,中津口２丁目２－１０－１１０２,,40,106,8020018,,,,,,,2021-09-15,1,,,,,リベラルハーツ,0
1169,4290803003927,新規,0,2021-09-15,2021-09-15,合同会社ＴＡＭＳ,,合同会社,福岡県,北九州市小倉北区,下富野３丁目４番５４号,,40,106,8020023,,,,,,,2021-09-15,1,,,,,タムス,0
1170,4300005007031,新規,0,2021-09-15,2021-09-15,一般社団法人日本名前音協会,,その他の設立登記法人,佐賀県,佐賀市,鍋島６丁目７番３－３２１号,,41,201,8490937,,,,,,,2021-09-15,1,,,,,ニホンナマエオトキョウカイ,0
1171,4310001017479,新規,0,2021-09-15,2021-09-15,ためになる株式会社,,株式会社,長崎県,佐世保市,万津町５－５シーガーデン２０１,,42,202,8570877,,,,,,,2021-09-15,1,,,,,タメニナル,0
1183,4340005009338,新規,0,2021-09-15,2021-09-15,一般社団法人環境エネルギー革新協会,,その他の設立登記法人,鹿児島県,大島郡伊仙町,大字目手久１７４３番地３,,46,532,8918113,,,,,,,2021-09-15,1,,,,,カンキョウエネルギーカクシンキョウカイ,0
1192,4360005006507,新規,0,2021-09-15,2021-09-15,一般社団法人わたしとちきゅう,,その他の設立登記法人,沖縄県,沖縄市,与儀３丁目１番７号プレミアムコート与儀パークヒルズ７Ｃ,,47,211,9042174,,,,,,,2021-09-15,1,,,,,ワタシトチキュウ,0
1193,4370001047594,新規,0,2021-09-15,2021-09-15,株式会社ロードアンダー,,株式会社,宮城県,石巻市,あゆみ野５丁目５番地１キューブⅡＢ棟,00124238,04,202,9860850,,,,,,,2021-09-15,1,,,,,ロードアンダー,0
1194,4370002000560,新規,0,2021-09-15,2021-09-15,有限会社カワシマコーポレーション,,有限会社,宮城県,仙台市泉区,八乙女中央１丁目４番２０号,,04,105,9813135,,,,,,,2021-09-15,1,,,,,カワシマコーポレーション,0
1195,4380001032190,新規,0,2021-09-15,2021-09-15,三喜建匠株式会社,,株式会社,福島県,石川郡古殿町,大字松川字古内４番地,,07,505,9638304,,,,,,,2021-09-15,1,,,,,ミヨシケンショウ,0
1196,4380001032208,新規,0,2021-09-15,2021-09-15,ＥＫ株式会社,,株式会社,福島県,福島市,南沢又字桜内１１番地の１６シティハイムエントピア１０１号,,07,201,9608254,,,,,,,2021-09-15,1,,,,,,0
1197,4390001016597,新規,0,2021-09-15,2021-09-15,株式会社ＳＨＧ．山形グランド,,株式会社,山形県,山形市,本町１丁目７番４２号,,06,201,9900043,,,,,,,2021-09-15,1,,,,,エスエイチジーヤマガタグランド,0
1199,4400005008184,新規,0,2021-09-15,2021-09-15,一般社団法人大野もっこりの郷,,その他の設立登記法人,岩手県,和賀郡西和賀町,沢内字大野６地割３４番地１,,03,366,0295612,,,,,,,2021-09-15,1,,,,,オオノモッコリノサト,0
1207,4430001084961,新規,0,2021-09-15,2021-09-15,株式会社ＨＩＴＯＴＳＵ,,株式会社,北海道,札幌市豊平区,平岸五条１０丁目７番４－２０８号,,01,105,0620935,,,,,,,2021-09-15,1,,,,,ヒトツ,0
1209,4430003013150,新規,0,2021-09-15,2021-09-15,合同会社ＡＥＣＳ’ｈｏｍｅ,,合同会社,北海道,札幌市北区,新琴似十一条１２丁目６番１５号,,01,102,0010911,,,,,,,2021-09-15,1,,,,,エーシーズホーム,0
1223,5010001221119,新規,0,2021-09-15,2021-09-15,株式会社ＡＧＥＮＣＩＡ,,株式会社,東京都,中央区,京橋３丁目１番１号,,13,102,1040031,,,,,,,2021-09-15,1,,,,,アジェンシア,0
1229,5010005033980,新規,0,2021-09-15,2021-09-15,一般社団法人ＭＹＭラボラトリーズ,,その他の設立登記法人,東京都,中央区,銀座３丁目５番１２号,,13,102,1040061,,,,,,,2021-09-15,1,,,,,エムワイエムラボラトリーズ,0
1230,5010105002126,新規,0,2021-09-15,2021-09-15,医療法人社団メリア,,その他の設立登記法人,東京都,八王子市,旭町９番１号八王子スクエアビル１０階,,13,201,1920083,,,,,,,2021-09-15,1,,,,,メリア,0
1238,5010401162672,新規,0,2021-09-15,2021-09-15,株式会社Ｂｕｐｐｙ,,株式会社,東京都,港区,赤坂３丁目１９番２号,,13,103,1070052,,,,,,,2021-09-15,1,,,,,ブッピー,0
1239,5010401162689,新規,0,2021-09-15,2021-09-15,ＭＵＬＴＩ　ＬＩＮＫ　ＩＮＴＥＲＮＡＴＩＯＮ株式会社,,株式会社,東京都,港区,六本木１丁目９番４号ザ・レジデンス六本木１２０２号室,,13,103,1060032,,,,,,,2021-09-15,1,,,,,マルチリンクインターナショナル,0
1240,5010401162697,新規,0,2021-09-15,2021-09-15,株式会社ＨＲ　Ａｓｓｅｓｓｍｅｎｔ,,株式会社,東京都,港区,芝５丁目１番１３号,,13,103,1080014,,,,,,,2021-09-15,1,,,,,エイチアールアセスメント,0
1241,5010403026124,新規,0,2021-09-15,2021-09-15,ＳＮコンサルタント合同会社,,合同会社,東京都,港区,海岸２丁目５番１５－１３０４号,,13,103,1050022,,,,,,,2021-09-15,1,,,,,エスエヌコンサルタント,0
1242,5010403026140,新規,0,2021-09-15,2021-09-15,ヴァンテアン合同会社,,合同会社,東京都,港区,赤坂６丁目６番２２号,,13,103,1070052,,,,,,,2021-09-15,1,,,,,ヴァンテアン,0
1247,5010601059941,新規,0,2021-09-15,2021-09-15,株式会社エイトサードファクトリー,,株式会社,東京都,江東区,亀戸６丁目１番８号トーセイビルⅡ８階,00124239,13,108,1360071,,,,,,,2021-09-15,1,,,,,エイトサードファクトリー,0
1248,5010603009151,新規,0,2021-09-15,2021-09-15,合同会社ワールドグルーヴ,,合同会社,東京都,江東区,塩浜２丁目７番５－５０１号半谷方,,13,108,1350043,,,,,,,2021-09-15,1,,,,,ワールドグルーヴ,0
1251,5010701041519,新規,0,2021-09-15,2021-09-15,トーラスブライト株式会社,,株式会社,東京都,品川区,東品川３丁目１１－５パークキューブ東品川７１１,,13,109,1400002,,,,,,,2021-09-15,1,,,,,トーラスブライト,0
1252,5010801032319,新規,0,2021-09-15,2021-09-15,株式会社麦壮建設,,株式会社,東京都,大田区,南六郷１丁目２５－２,,13,111,1440045,,,,,,,2021-09-15,1,,,,,ムギソウケンセツ,0
1253,5010901049436,新規,0,2021-09-15,2021-09-15,株式会社ＴＵＮＥＳ,,株式会社,東京都,世田谷区,上馬３丁目６番２号,,13,112,1540011,,,,,,,2021-09-15,1,,,,,チューンズ,0
1254,5010901049452,新規,0,2021-09-15,2021-09-15,株式会社大和ワールド,,株式会社,東京都,世田谷区,奥沢８丁目３２番９－２０７号,,13,112,1580083,,,,,,,2021-09-15,1,,,,,ヤマトワールド,0
1261,5011001142395,新規,0,2021-09-15,2021-09-15,ＤＥＳＴＩＮＹ　ＬＩＧＨＴ株式会社,,株式会社,東京都,渋谷区,渋谷２丁目１９番１５号宮益坂ビルディング６０９,,13,113,1500002,,,,,,,2021-09-15,1,,,,,デスティニーライト,0
1262,5011001142791,新規,0,2021-09-15,2021-09-15,株式会社それでも,,株式会社,東京都,渋谷区,桜丘町２３番１７号シティコート桜丘４０８,,13,113,1500031,,,,,,,2021-09-15,1,,,,,ソレデモ,0
1271,5011403003443,新規,0,2021-09-15,2021-09-15,合同会社ＣｒｏｓｓＳｅｃｔｉｏｎ,,合同会社,東京都,板橋区,南常盤台１丁目１１－６レフア南常盤台１０１号室,,13,119,1740072,,,,,,,2021-09-15,1,,,,,クロスセクション,0
1272,5011603003391,新規,0,2021-09-15,2021-09-15,合同会社Ｐｅｒｉ．,,合同会社,東京都,練馬区,大泉学園町２丁目１６番１号,,13,120,1780061,,,,,,,2021-09-15,1,,,,,ペリドット,0
1276,5011801039709,新規,0,2021-09-15,2021-09-15,株式会社藤亀商事,,株式会社,東京都,足立区,伊興３丁目２３番２０号,,13,121,1210823,,,,,,,2021-09-15,1,,,,,フジカメショウジ,0
1278,5011803004776,新規,0,2021-09-15,2021-09-15,合同会社ＬＥＯ,,合同会社,東京都,葛飾区,小菅３丁目５－１２アイリスＫ２０１,,13,122,1240001,,,,,,,2021-09-15,1,,,,,レオ,0
1299,5021001073945,新規,0,2021-09-15,2021-09-15,株式会社愛樹開発,,株式会社,神奈川県,厚木市,戸田２１９０番地１クローバーハイツ１０３,,14,212,2430023,,,,,,,2021-09-15,1,,,,,アイキカイハツ,0
1300,5021001073953,新規,0,2021-09-15,2021-09-15,株式会社ヤマボウシ,,株式会社,神奈川県,綾瀬市,大上３丁目２９番２１号,,14,218,2521104,,,,,,,2021-09-15,1,,,,,ヤマボウシ,0
1301,5021001073961,新規,0,2021-09-15,2021-09-15,株式会社ＴＫカンパニー,,株式会社,神奈川県,相模原市中央区,陽光台３丁目１８番２６号,,14,152,2520226,,,,,,,2021-09-15,1,,,,,ティーケーカンパニー,0
1307,5021003010896,新規,0,2021-09-15,2021-09-15,くらげ合同会社,,合同会社,神奈川県,藤沢市,辻堂西海岸３丁目１番２７－１４０号,,14,205,2510046,,,,,,,2021-09-15,1,,,,,クラゲ,0
1310,5030001144334,新規,0,2021-09-15,2021-09-15,株式会社Ｊａｐａｎ　Ｌｉｅｂｅ,,株式会社,埼玉県,川口市,栄町３丁目１１番４号６０５号室,,11,203,3320017,,,,,,,2021-09-15,1,,,,,ジャパンリーベ,0
1319,5040001120210,新規,0,2021-09-15,2021-09-15,株式会社報恩講,,株式会社,千葉県,千葉市緑区,おゆみ野南２丁目１２番地３,,12,105,2660033,,,,,,,2021-09-15,1,,,,,ホウオンコウ,0
1321,5050001049837,新規,0,2021-09-15,2021-09-15,株式会社明野環境,,株式会社,茨城県,筑西市,宮後２２７７番地１,,08,227,3004503,,,,,,,2021-09-15,1,,,,,アケノカンキョウ,0
1322,5050001049845,新規,0,2021-09-15,2021-09-15,ＣｏｃｏｍｅｄｉＱ株式会社,,株式会社,茨城県,日立市,中丸町１丁目２３番１１号,,08,202,3160007,,,,,,,2021-09-15,1,,,,,ココメディック,0
1324,5050003006076,新規,0,2021-09-15,2021-09-15,アドボジャパン合同会社,,合同会社,茨城県,守谷市,薬師台３丁目１８－６,,08,224,3020105,,,,,,,2021-09-15,1,,,,,アドボジャパン,0
1328,5060003003808,新規,0,2021-09-15,2021-09-15,合同会社Ｈｅａｌｔｈ　Ｒｉｎｇ,,合同会社,栃木県,那須塩原市,阿波町１１７番地７４,,09,213,3250073,,,,,,,2021-09-15,1,,,,,ヘルスリング,0
1331,5070001038433,新規,0,2021-09-15,2021-09-15,株式会社松田プロパティマネジメント,,株式会社,群馬県,前橋市,総社町総社１１１８番地,,10,201,3710852,,,,,,,2021-09-15,1,,,,,マツダプロパティマネジメント,0
1337,5080101022773,新規,0,2021-09-15,2021-09-15,株式会社りらはるせ,,株式会社,静岡県,熱海市,伊豆山２０４－１０,,22,205,4130002,,,,,,,2021-09-15,1,,,,,リラハルセ,0
1348,5110005016711,新規,0,2021-09-15,2021-09-15,一般社団法人キッチントレーラー協会,,その他の設立登記法人,新潟県,新潟市江南区,丸潟新田２３７番地１,,15,104,9501132,,,,,,,2021-09-15,1,,,,,キッチントレーラーキョウカイ,0
1359,5120001240322,新規,0,2021-09-15,2021-09-15,株式会社ＣＡＢＯ　ＤＡ　ＲＯＣＡ,,株式会社,大阪府,大阪市北区,鶴野町４番１１－９０６号,,27,127,5300014,,,,,,,2021-09-15,1,,,,,カボダロカ,0
1360,5120001240388,新規,0,2021-09-15,2021-09-15,萬隆国際貿易株式会社,,株式会社,大阪府,大阪市西成区,萩之茶屋３丁目１番１８－１０４号,,27,122,5570004,,,,,,,2021-09-15,1,,,,,マンリュウコクサイボウエキ,0
1361,5120001240405,新規,0,2021-09-15,2021-09-15,株式会社ｐａ　ｈａｌｅ,,株式会社,大阪府,枚方市,長尾北町１丁目１７９４番地５,,27,210,5730161,,,,,,,2021-09-15,1,,,,,パーハレ,0
1362,5120001240421,新規,0,2021-09-15,2021-09-15,株式会社ＡＳＰＩＲＩＮＧ,,株式会社,大阪府,枚方市,楠葉並木２丁目２番３エルベ楠葉コート１０１号,,27,210,5731118,,,,,,,2021-09-15,1,,,,,アスパイアリング,0
1363,5120001240462,新規,0,2021-09-15,2021-09-15,株式会社ストーリーテラーズ,,株式会社,大阪府,大阪市中央区,北浜１丁目１番２８号,,27,128,5410041,,,,,,,2021-09-15,1,,,,,ストーリーテラーズ,0
1365,5120003020219,新規,0,2021-09-15,2021-09-15,合同会社ＭＯ,,合同会社,大阪府,大阪市都島区,都島本通３丁目２２番５号,,27,102,5340021,,,,,,,2021-09-15,1,,,,,エムオー,0
1366,5120003020235,新規,0,2021-09-15,2021-09-15,合同会社ＱＵＥＥＲ,,合同会社,大阪府,大阪市北区,梅田１丁目１番３号大阪駅前第３ビル２３０７,,27,127,5300001,,,,,,,2021-09-15,1,,,,,クィア,0
1367,5120003020243,新規,0,2021-09-15,2021-09-15,合同会社モンキーポッド,,合同会社,大阪府,大阪市平野区,西脇３丁目１番１号１階Ａ,,27,126,5470035,,,,,,,2021-09-15,1,,,,,モンキーポッド,0
1369,5120005022502,新規,0,2021-09-15,2021-09-15,ファイブ税理士法人,,その他の設立登記法人,大阪府,大阪市西区,西本町１丁目８番２号三晃ビル３階,,27,106,5500005,,,,,,,2021-09-15,1,,,,,ファイブ,0
1376,5120901044896,新規,0,2021-09-15,2021-09-15,株式会社クレアール,,株式会社,大阪府,高槻市,白梅町５番１５号ジオタワー高槻ミューズガーデン５０３号,,27,207,5691116,,,,,,,2021-09-15,1,,,,,クレアール,0
1385,5130003007487,新規,0,2021-09-15,2021-09-15,合同会社京都Ｇｌｏｃａｌ　Ｓｐｅｃｉａｌｉｔｙ,,合同会社,京都府,宮津市,字文珠４６８番地の１,,26,205,6260001,,,,,,,2021-09-15,1,,,,,キョウトグローカルスペシャリティ,0
1390,5140001123021,新規,0,2021-09-15,2021-09-15,株式会社アールポート,,株式会社,兵庫県,神戸市中央区,東川崎町１丁目５番９－１００２号,,28,110,6500044,,,,,,,2021-09-15,1,,,,,アールポート,0
1391,5140001123046,新規,0,2021-09-15,2021-09-15,株式会社ｄａｎ,,株式会社,兵庫県,神戸市北区,桂木２丁目３５番地Ｃ－２０６号,,28,109,6511223,,,,,,,2021-09-15,1,,,,,ダン,0
1395,5150003002486,新規,0,2021-09-15,2021-09-15,合同会社ＷＩＬＤ－ＢＵＬＬＥＴ,,合同会社,奈良県,御所市,大字蛇穴１６番地の２,,29,208,6392272,,,,,,,2021-09-15,1,,,,,ワイルドバレット,0
1407,5180001147784,新規,0,2021-09-15,2021-09-15,株式会社イグッド,,株式会社,愛知県,名古屋市西区,稲生町４丁目２０番地,,23,104,4510012,,,,,,,2021-09-15,1,,,,,イグッド,0
1408,5180001147818,新規,0,2021-09-15,2021-09-15,拓海株式会社,,株式会社,愛知県,江南市,大間町南大間１０１番地１８,,23,217,4838252,,,,,,,2021-09-15,1,,,,,タクミ,0
1409,5180001147826,新規,0,2021-09-15,2021-09-15,ＤＣ．ＧＲＯＵＰ株式会社,,株式会社,愛知県,名古屋市中区,栄３丁目２０番１４号（住吉ビル３０９号）,,23,106,4600008,,,,,,,2021-09-15,1,,,,,ディーシーグループ,0
1410,5180001147842,新規,0,2021-09-15,2021-09-15,ＳＫＧホールディングス株式会社,,株式会社,愛知県,津島市,唐臼町柳原７７番地,,23,208,4960026,,,,,,,2021-09-15,1,,,,,エスケージーホールディングス,0
1411,5180001147850,新規,0,2021-09-15,2021-09-15,株式会社ＭＫＫ,,株式会社,愛知県,小牧市,常普請１丁目１９０番地,,23,219,4850044,,,,,,,2021-09-15,1,,,,,エムケイケイ,0
1414,5180003022952,新規,0,2021-09-15,2021-09-15,ＩＤＥＡＢＯＸ　ＩＴ合同会社,,合同会社,愛知県,北名古屋市,中之郷四辻６番地シャトーピア四辻Ｂ３０１号,,23,234,4810045,,,,,,,2021-09-15,1,,,,,アイディアボクスアイティ,0
1415,5180003022969,新規,0,2021-09-15,2021-09-15,合同会社ＲＡＣＣＯＯＮ,,合同会社,愛知県,名古屋市中川区,高畑２丁目３９１番地,,23,110,4540911,,,,,,,2021-09-15,1,,,,,ラクーン,0
1416,5180005019435,新規,0,2021-09-15,2021-09-15,一般財団法人愛知県立昭和高等学校同窓会,,その他の設立登記法人,愛知県,名古屋市瑞穂区,玉水町１丁目１８番地愛知県立昭和高等学校内,,23,108,4670046,,,,,,,2021-09-15,1,,,,,アイチケンリツショウワコウトウガッコウドウソウカイ,0
1423,5190003003761,新規,0,2021-09-15,2021-09-15,合同会社トゥーフォーワン,,合同会社,三重県,伊勢市,竹ケ鼻町４０,,24,203,5160005,,,,,,,2021-09-15,1,,,,,トゥーフォーワン,0
1424,5200001039129,新規,0,2021-09-15,2021-09-15,ＴＫ株式会社,,株式会社,岐阜県,本巣市,見延１３９９番地２,,21,218,5010413,,,,,,,2021-09-15,1,,,,,ティーケー,0
1426,5200005013245,新規,0,2021-09-15,2021-09-15,一般社団法人オンラインプレゼンテーション協会,,その他の設立登記法人,岐阜県,関市,大杉１４３番地１,,21,205,5013922,,,,,,,2021-09-15,1,,,,,オンラインプレゼンテーションキョウカイ,0
1428,5210001018602,新規,0,2021-09-15,2021-09-15,株式会社ＦＫＳ,,株式会社,福井県,三方上中郡若狭町,気山第２３１号６８番地の４,,18,501,9191301,,,,,,,2021-09-15,1,,,,,エフケイエス,0
1440,5250001019126,新規,0,2021-09-15,2021-09-15,豊北産業株式会社,,株式会社,山口県,下関市,豊北町大字田耕４３２２番地,,35,201,7595512,,,,,,,2021-09-15,1,,,,,,0
1441,5250001019134,新規,0,2021-09-15,2021-09-15,株式会社ジリオン,,株式会社,山口県,宇部市,大字小串１９８番地,,35,202,7550067,,,,,,,2021-09-15,1,,,,,ジリオン,0
1444,5270001008358,新規,0,2021-09-15,2021-09-15,株式会社バンビ,,株式会社,鳥取県,米子市,明治町１３２角田ビル２Ｆ,,31,202,6830053,,,,,,,2021-09-15,1,,,,,バンビ,0
1459,5290001094561,新規,0,2021-09-15,2021-09-15,株式会社福岡フードテックラボ,,株式会社,福岡県,福岡市中央区,大名１丁目１５番２７号,,40,133,8100041,,,,,,,2021-09-15,1,,,,,フクオカフードテックラボ,0
1460,5290001094628,新規,0,2021-09-15,2021-09-15,株式会社クリエイト,,株式会社,福岡県,宗像市,土穴１丁目９番１９号,,40,220,8114183,,,,,,,2021-09-15,1,,,,,クリエイト,0
1461,5290001094636,新規,0,2021-09-15,2021-09-15,株式会社フェイス・アクト,,株式会社,福岡県,太宰府市,五条１丁目７番２２－３０１号,,40,221,8180125,,,,,,,2021-09-15,1,,,,,フェイスアクト,0
1462,5290001094644,新規,0,2021-09-15,2021-09-15,エーエスジャパン株式会社,,株式会社,福岡県,福岡市東区,香住ヶ丘６丁目１１番３０号,,40,131,8130003,,,,,,,2021-09-15,1,,,,,エーエスジャパン,0
1463,5290001094669,新規,0,2021-09-15,2021-09-15,株式会社ＺＥＮＫＡＩ,,株式会社,福岡県,福岡市東区,香椎駅前２丁目１９番１号,,40,131,8130013,,,,,,,2021-09-15,1,,,,,ゼンカイ,0
1466,5290003011589,新規,0,2021-09-15,2021-09-15,合同会社エバーグリーン,,合同会社,福岡県,福岡市早良区,四箇田団地１３棟２０３号,,40,137,8140176,,,,,,,2021-09-15,1,,,,,エバーグリーン,0
1467,5290003011614,新規,0,2021-09-15,2021-09-15,合同会社隆,,合同会社,福岡県,福岡市中央区,笹丘３丁目２－６,,40,133,8100034,,,,,,,2021-09-15,1,,,,,リュウ,0
1477,5340001024042,新規,0,2021-09-15,2021-09-15,株式会社サンタウンエナジー,,株式会社,鹿児島県,薩摩川内市,中郷５丁目９３番,,46,215,8950072,,,,,,,2021-09-15,1,,,,,サンタウンエナジー,0
1478,5340001024100,新規,0,2021-09-15,2021-09-15,網代鼻漁業株式会社,,株式会社,鹿児島県,南さつま市,坊津町秋目２０８番地１,,46,220,8980212,,,,,,,2021-09-15,1,,,,,アジロバナギョギョウ,0
1479,5340003003556,新規,0,2021-09-15,2021-09-15,合同会社Ｓｔｕｄｉｏ３８１,,合同会社,鹿児島県,鹿児島市,東千石町３‐４１キャパルボ５０１,,46,201,8920842,,,,,,,2021-09-15,1,,,,,スタジオミヤイ,0
1481,5340005009329,新規,0,2021-09-15,2021-09-15,特定非営利活動法人徳之島グローバルＫＩＤＳ,,その他の設立登記法人,鹿児島県,大島郡徳之島町,亀津７７２８,,46,530,8917101,,,,,,,2021-09-15,1,,,,,トクノシマグローバルキッズ,0
1489,5360003011433,新規,0,2021-09-15,2021-09-15,ＷＯＮＤＥＲ　ＯＫＩＮＡＷＡ合同会社,,合同会社,沖縄県,中頭郡西原町,字小橋川５７番地の１ヴィラコート新城１０１号,,47,329,9030122,,,,,,,2021-09-15,1,,,,,ワンダーオキナワ,0
1490,5360003011441,新規,0,2021-09-15,2021-09-15,Ｅａｓｔ　Ｂａｙ　Ｈｏｌｄｉｎｇｓ合同会社,,合同会社,沖縄県,中頭郡北谷町,字宮城１番地４９３,,47,326,9040113,,,,,,,2021-09-15,1,,,,,イーストベイホールディングス,0
1491,5370001047593,新規,0,2021-09-15,2021-09-15,ＴＭカーリサイクル株式会社,,株式会社,宮城県,登米市,石越町北郷字九輪堂３４番地５,,04,212,9894701,,,,,,,2021-09-15,1,,,,,ティーエムカーリサイクル,0
1492,5370001047602,新規,0,2021-09-15,2021-09-15,株式会社リンクワークス,,株式会社,宮城県,仙台市宮城野区,榴岡４丁目１番８号,,04,102,9830852,,,,,,,2021-09-15,1,,,,,リンクワークス,0
1493,5370003005384,新規,0,2021-09-15,2021-09-15,合同会社ドリームチーム,,合同会社,宮城県,仙台市青葉区,立町１４－３パリスビルＢ１,,04,101,9800822,,,,,,,2021-09-15,1,,,,,,0
1499,5380001032181,新規,0,2021-09-15,2021-09-15,株式会社ふくびとライフ,,株式会社,福島県,郡山市,土瓜１丁目１８番地,,07,203,9630204,,,,,,,2021-09-15,1,,,,,フクビトライフ,0
1500,5380001032207,新規,0,2021-09-15,2021-09-15,株式会社Ｇエージェント,,株式会社,福島県,会津若松市,飯寺北３丁目２番１０号,,07,202,9650848,,,,,,,2021-09-15,1,,,,,,0
1503,5410005006426,新規,0,2021-09-15,2021-09-15,農事組合法人野荒町ファーム,,その他の設立登記法人,秋田県,仙北郡美郷町,野荒町字町ノ内１４９番地１,,05,434,0191301,,,,,,,2021-09-15,1,,,,,ノアラマチファーム,0
1510,5430001084960,新規,0,2021-09-15,2021-09-15,株式会社加藤常松工商,,株式会社,北海道,江別市,東光町１６番地の１３,,01,217,0670023,,,,,,,2021-09-15,1,,,,,カトウツネマツコウショウ,0
1511,5430001084969,新規,0,2021-09-15,2021-09-15,株式会社太陽と菜の花,,株式会社,北海道,札幌市南区,常盤四条２丁目８０番,,01,106,0050854,,,,,,,2021-09-15,1,,,,,タイヨウトナノハナ,0
1517,5460101007059,新規,0,2021-09-15,2021-09-15,キタラ株式会社,,株式会社,北海道,上川郡清水町,字旭山１番地１３,,01,636,0890355,,,,,,,2021-09-15,1,,,,,キタラ,0
1518,5470001018709,新規,0,2021-09-15,2021-09-15,株式会社サンファースト,,株式会社,香川県,仲多度郡多度津町,大字庄６８３番地２,,37,404,7640031,,,,,,,2021-09-15,1,,,,,サンファースト,0
1529,6010001221076,新規,0,2021-09-15,2021-09-15,株式会社レディニズム,,株式会社,東京都,千代田区,神田松永町１７－３秋葉原妙見屋ビル２階,,13,101,1010023,,,,,,,2021-09-15,1,,,,,レディニズム,0
1530,6010001221183,新規,0,2021-09-15,2021-09-15,スペリス株式会社,,株式会社,東京都,中央区,日本橋蛎殻町１丁目３７番９－２０２号ライオンズマンション日本橋第二２０２,,13,102,1030014,,,,,,,2021-09-15,1,,,,,スペリス,0
1532,6010005033939,新規,0,2021-09-15,2021-09-15,医療法人社団将恵会,,その他の設立登記法人,東京都,中央区,銀座３丁目７番１６号銀座ＮＳビル４階,,13,102,1040061,,,,,,,2021-09-15,1,,,,,ショウケイカイ,0
1540,6010403026115,新規,0,2021-09-15,2021-09-15,合同会社アール３９,,合同会社,東京都,港区,南青山７丁目１３番２－１０５号,,13,103,1070062,,,,,,,2021-09-15,1,,,,,アールサンジュウキュウ,0
1541,6010403026123,新規,0,2021-09-15,2021-09-15,ＶｏｌｖｏｒｄＷｏｒｋｓ合同会社,,合同会社,東京都,港区,海岸１丁目２番２０号汐留ビルディング３階,,13,103,1050022,,,,,,,2021-09-15,1,,,,,ボルボードワークス,0
1545,6010601059932,新規,0,2021-09-15,2021-09-15,株式会社ＴＯＳＨＩＮ,,株式会社,東京都,江東区,豊洲３丁目５番３号,,13,108,1350061,,,,,,,2021-09-15,1,,,,,,0
1546,6010601059940,新規,0,2021-09-15,2021-09-15,村樫エステート株式会社,,株式会社,東京都,墨田区,業平１丁目１８番５号,,13,107,1300002,,,,,,,2021-09-15,1,,,,,ムラカシエステート,0
1548,6010603009150,新規,0,2021-09-15,2021-09-15,合同会社シグナル,,合同会社,東京都,江東区,豊洲４丁目９番１３－５４７号,,13,108,1350061,,,,,,,2021-09-15,1,,,,,シグナル,0
1551,6010801032318,新規,0,2021-09-15,2021-09-15,株式会社紅谷,,株式会社,東京都,大田区,仲六郷２丁目３４番４号,,13,111,1440055,,,,,,,2021-09-15,1,,,,,クレヤ,0
1552,6010805002878,新規,0,2021-09-15,2021-09-15,医療法人社団百稔会,,その他の設立登記法人,東京都,大田区,大森北１丁目２６番３号Ｋビル２階,,13,111,1430016,,,,,,,2021-09-15,1,,,,,ヒャクネンカイ,0
1570,6011603003390,新規,0,2021-09-15,2021-09-15,合同会社エフォート,,合同会社,東京都,練馬区,南大泉３丁目３１番２０号井口ビル６０１,,13,120,1780064,,,,,,,2021-09-15,1,,,,,エフォート,0
1580,6012801021085,新規,0,2021-09-15,2021-09-15,株式会社なでこあーと,,株式会社,東京都,国分寺市,南町３丁目４番１９号京美ビル１Ｆ,,13,214,1850021,,,,,,,2021-09-15,1,,,,,ナデコアート,0
1595,6021001073936,新規,0,2021-09-15,2021-09-15,株式会社ウィングウェイブ,,株式会社,神奈川県,大和市,下鶴間２２番地２４,,14,213,2420001,,,,,,,2021-09-15,1,,,,,ウィングウェイブ,0
1596,6021001073952,新規,0,2021-09-15,2021-09-15,株式会社ＤＯＧＦＵＬ,,株式会社,神奈川県,茅ヶ崎市,室田１丁目１５番７２号,,14,207,2530018,,,,,,,2021-09-15,1,,,,,ドッグフル,0
1597,6021001073960,新規,0,2021-09-15,2021-09-15,株式会社ＫＴＲ,,株式会社,神奈川県,小田原市,蓮正寺１３４番地の２３,00124254,14,206,2500865,,,,,,,2021-09-15,1,,,,,ケーティーアール,0
1600,6021003010895,新規,0,2021-09-15,2021-09-15,Ｂｕｌｅ合同会社,,合同会社,神奈川県,平塚市,桃浜町２５番６号,,14,203,2540815,,,,,,,2021-09-15,1,,,,,ブル,0
1606,6030001144317,新規,0,2021-09-15,2021-09-15,株式会社友佳設備,,株式会社,埼玉県,越谷市,大字南荻島１００５番地６,,11,222,3430804,,,,,,,2021-09-15,1,,,,,ユウカセツビ,0
1607,6030001144325,新規,0,2021-09-15,2021-09-15,株式会社菱和工業,,株式会社,埼玉県,鴻巣市,新宿１丁目１０番地２,,11,217,3690111,,,,,,,2021-09-15,1,,,,,リョウワコウギョウ,0
1608,6030001144333,新規,0,2021-09-15,2021-09-15,株式会社ＬＩＦＡＣＴ,,株式会社,埼玉県,所沢市,東住吉１１番１－２８１１号シティタワー所沢クラッシィ,,11,208,3591124,,,,,,,2021-09-15,1,,,,,リフアクト,0
1617,6040001120135,新規,0,2021-09-15,2021-09-15,株式会社北神急送,,株式会社,千葉県,流山市,西初石３丁目９６－２,,12,220,2700121,,,,,,,2021-09-15,1,,,,,ホクシンキュウソウ,0
1628,6060003003807,新規,0,2021-09-15,2021-09-15,合同会社Ｃｅｎｔｒａｌ　Ｖｉｌｌａｇｅ,,合同会社,栃木県,小山市,西城南２丁目１１番地１２,,09,208,3230820,,,,,,,2021-09-15,1,,,,,セントラルヴィレッジ,0
1632,6070001038432,新規,0,2021-09-15,2021-09-15,株式会社とちのき電力,,株式会社,群馬県,吾妻郡東吾妻町,大字原町３８２５番地３,,10,429,3770801,,,,,,,2021-09-15,1,,,,,トチノキデンリョク,0
1635,6080401025343,新規,0,2021-09-15,2021-09-15,株式会社クレベルコイケ,,株式会社,静岡県,磐田市,富士見台９番地３プロムナードＭ－３０１,,22,211,4380088,,,,,,,2021-09-15,1,,,,,クレベルコイケ,0
1637,6090003001948,新規,0,2021-09-15,2021-09-15,合同会社ＫＫＲ,,合同会社,山梨県,甲府市,北口１丁目４－４ポレスター甲府駅前プレミア２０２,,19,201,4000024,,,,,,,2021-09-15,1,,,,,ケーケーアール,0
1656,6120001240354,新規,0,2021-09-15,2021-09-15,株式会社新日本電気,,株式会社,大阪府,大阪市中央区,難波２丁目３－１１ナンバ八千代ビル５Ｆ,,27,128,5420076,,,,,,,2021-09-15,1,,,,,シンニッポンデンキ,0
1657,6120001240387,新規,0,2021-09-15,2021-09-15,株式会社ＵＬＴＩＭＡ,,株式会社,大阪府,大阪市北区,鶴野町３番９－３５０４号,,27,127,5300014,,,,,,,2021-09-15,1,,,,,アルティマ,0
1658,6120001240395,新規,0,2021-09-15,2021-09-15,株式会社日昇エンジニアリング,,株式会社,大阪府,大阪市旭区,中宮５丁目６番２５号,,27,117,5350003,,,,,,,2021-09-15,1,,,,,ニッショウエンジニアリング,0
1659,6120001240420,新規,0,2021-09-15,2021-09-15,株式会社ｍｉａ,,株式会社,大阪府,大阪市北区,梅田１丁目１番３号大阪駅前第３ビル２３０７,,27,127,5300001,,,,,,,2021-09-15,1,,,,,ミア,0
1663,6120003020234,新規,0,2021-09-15,2021-09-15,合同会社美潤,,合同会社,大阪府,大阪市城東区,古市１丁目２３番１７－４０１号,,27,118,5360001,,,,,,,2021-09-15,1,,,,,ビジュン,0
1664,6120003020250,新規,0,2021-09-15,2021-09-15,ＨＯＭＥ　ＧＲＯＵＰ合同会社,,合同会社,大阪府,大阪市西成区,花園南２丁目７番２６号,,27,122,5570015,,,,,,,2021-09-15,1,,,,,ホームグループ,0
1665,6120101064298,新規,0,2021-09-15,2021-09-15,株式会社Ｋｏｋｕｆｕ,,株式会社,大阪府,泉佐野市,日根野３４６５番地の１０,,27,213,5980021,,,,,,,2021-09-15,1,,,,,コクフ,0
1673,6120903003825,新規,0,2021-09-15,2021-09-15,イグザルト合同会社,,合同会社,大阪府,豊中市,中桜塚３丁目１０番１２－３０６号,,27,203,5610881,,,,,,,2021-09-15,1,,,,,イグザルト,0
1677,6130001070107,新規,0,2021-09-15,2021-09-15,株式会社明生,,株式会社,京都府,城陽市,長池北清水３４－１,,26,207,6100112,,,,,,,2021-09-15,1,,,,,メイセイ,0
1680,6130003007486,新規,0,2021-09-15,2021-09-15,合同会社大橋組,,合同会社,京都府,舞鶴市,字余部上１９７番地,,26,202,6250083,,,,,,,2021-09-15,1,,,,,オオハシグミ,0
1686,6140001123037,新規,0,2021-09-15,2021-09-15,株式会社山岡哲哉建築設計事務所,,株式会社,兵庫県,神戸市中央区,栄町通３丁目１番７号４０３号室,,28,110,6500023,,,,,,,2021-09-15,1,,,,,ヤマオカテツヤケンチクセッケイジムショ,0
1688,6150003002485,新規,0,2021-09-15,2021-09-15,合同会社ならビズ,,合同会社,奈良県,奈良市,東城戸町３２番地,,29,201,6308344,,,,,,,2021-09-15,1,,,,,ナラビズ,0
1696,6180001147809,新規,0,2021-09-15,2021-09-15,株式会社ライカン,,株式会社,愛知県,名古屋市中区,新栄２丁目２番１号イノフィス５－５Ａ,,23,106,4600007,,,,,,,2021-09-15,1,,,,,ライカン,0
1697,6180001147817,新規,0,2021-09-15,2021-09-15,Ｄ＆Ｄ株式会社,,株式会社,愛知県,名古屋市中区,門前町１番６０号（アーバニア大須８０５号）,,23,106,4600018,,,,,,,2021-09-15,1,,,,,ディーアンドディー,0
1698,6180001147825,新規,0,2021-09-15,2021-09-15,ＳＡＯ・ＶＩＥＴ株式会社,,株式会社,愛知県,名古屋市中区,栄４丁目８番３３号,,23,106,4600008,,,,,,,2021-09-15,1,,,,,サオヴィエット,0
1701,6180005019434,新規,0,2021-09-15,2021-09-15,医療法人かわい内科＆皮ふ科,,その他の設立登記法人,愛知県,名古屋市西区,中小田井３丁目３８４番地１,,23,104,4520822,,,,,,,2021-09-15,1,,,,,カワイナイカアンドヒフカ,0
1705,6180301035374,新規,0,2021-09-15,2021-09-15,株式会社無限,,株式会社,愛知県,岡崎市,中島町字遂分６番地１,,23,202,4440226,,,,,,,2021-09-15,1,,,,,ムゲン,0
1708,6190001028685,新規,0,2021-09-15,2021-09-15,株式会社塗替え本舗,,株式会社,三重県,伊勢市,朝熊町１５４９番地,,24,203,5160021,,,,,,,2021-09-15,1,,,,,ヌリカエホンポ,0
1718,6240001058594,新規,0,2021-09-15,2021-09-15,株式会社ＵＺＵＳＨＩＯ,,株式会社,広島県,尾道市,瀬戸田町中野１２９０番地,,34,205,7222415,,,,,,,2021-09-15,1,,,,,ウズシオ,0
1725,6250001019133,新規,0,2021-09-15,2021-09-15,株式会社トリマス舎,,株式会社,山口県,周南市,大字下上７１３番地の５,,35,215,7460082,,,,,,,2021-09-15,1,,,,,トリマスシャ,0
1731,6280003001532,新規,0,2021-09-15,2021-09-15,合同会社Ｒｅ,,合同会社,島根県,雲南市,掛合町掛合９３９番地１,,32,209,6902701,,,,,,,2021-09-15,1,,,,,,0
1736,6290001094627,新規,0,2021-09-15,2021-09-15,株式会社ＩＭＰＡＣＴ,,株式会社,福岡県,久留米市,津福本町２２５番地１,,40,203,8300047,,,,,,,2021-09-15,1,,,,,インパクト,0
1750,6330003009041,新規,0,2021-09-15,2021-09-15,合同会社ティー・エヌ・コーポレーション,,合同会社,熊本県,熊本市中央区,城東町５番４２－５０９号,,43,101,8600846,,,,,,,2021-09-15,1,,,,,ティーエヌコーポレーション,0
1753,6340003003555,新規,0,2021-09-15,2021-09-15,合同会社あいこ,,合同会社,鹿児島県,鹿児島市,吉野町９１６２番地５,,46,201,8920871,,,,,,,2021-09-15,1,,,,,アイコ,0
1756,6350001017309,新規,0,2021-09-15,2021-09-15,つなぐ本舗株式会社,,株式会社,宮崎県,延岡市,三須町１１４３番地,,45,203,8820881,,,,,,,2021-09-15,1,,,,,ツナグホンポ,0
1759,6370001047592,新規,0,2021-09-15,2021-09-15,株式会社ユーフォリア,,株式会社,宮城県,宮城郡利府町,葉山１丁目４９番地１６,,04,406,9810105,,,,,,,2021-09-15,1,,,,,ユーフォリア,0
1760,6370001047601,新規,0,2021-09-15,2021-09-15,株式会社宮環農園,,株式会社,宮城県,仙台市青葉区,熊ケ根字野川２６番地の６,,04,101,9893432,,,,,,,2021-09-15,1,,,,,ミヤカンノウエン,0
1762,6370003005391,新規,0,2021-09-15,2021-09-15,合同会社アイグリット,,合同会社,宮城県,石巻市,湊字御所入山１３番地４,,04,202,9860011,,,,,,,2021-09-15,1,,,,,アイグリット,0
1763,6370101001508,新規,0,2021-09-15,2021-09-15,株式会社星野製作所,,株式会社,宮城県,白石市,大平森合字寺前１５番地,,04,206,9890217,,,,,,,2021-09-15,1,,,,,ホシノセイサクショ,0
1768,6380001032206,新規,0,2021-09-15,2021-09-15,株式会社ＳＨＧ．セレクトン福島,,株式会社,福島県,福島市,太田町１３番７３号,,07,201,9608068,,,,,,,2021-09-15,1,,,,,エスエイチジーセレクトンフクシマ,0
1772,6410001012963,新規,0,2021-09-15,2021-09-15,日本海ポリマー株式会社,,株式会社,秋田県,由利本荘市,土谷字海老ノ口８４番地４秋田県立大学本荘キャンパス内,,05,210,0150055,,,,,,,2021-09-15,1,,,,,ニホンカイポリマー,0
1784,6430001084968,新規,0,2021-09-15,2021-09-15,株式会社エフトランスポート,,株式会社,北海道,苫小牧市,字沼ノ端２番４９号,,01,213,0591364,,,,,,,2021-09-15,1,,,,,エフトランスポート,0
1797,6490003001585,新規,0,2021-09-15,2021-09-15,合同会社壮建工業,,合同会社,高知県,須崎市,押岡２６９５番地５３,,39,206,7850052,,,,,,,2021-09-15,1,,,,,ソウケンコウギョウ,0
1807,7010001221100,新規,0,2021-09-15,2021-09-15,株式会社ＬＩＵ,,株式会社,東京都,千代田区,外神田２丁目１３番５号,,13,101,1010021,,,,,,,2021-09-15,1,,,,,リウ,0
1808,7010001221125,新規,0,2021-09-15,2021-09-15,株式会社台北光村,,株式会社,東京都,千代田区,神田三崎町２丁目１９番９号,,13,101,1010061,,,,,,,2021-09-15,1,,,,,タイペイミツムラ,0
1809,7010001221174,新規,0,2021-09-15,2021-09-15,株式会社ＭＭＡＧ,,株式会社,東京都,中央区,京橋２丁目４番１６号,,13,102,1040031,,,,,,,2021-09-15,1,,,,,エムエムエージー,0
1811,7010003035820,新規,0,2021-09-15,2021-09-15,Ａｂｌｏｏｍ合同会社,,合同会社,東京都,中央区,銀座１丁目２２番１１号銀座大竹ビジデンス２階,,13,102,1040061,,,,,,,2021-09-15,1,,,,,アブルーム,0
1812,7010003035853,新規,0,2021-09-15,2021-09-15,合同会社みちる,,合同会社,東京都,文京区,目白台３丁目１８番１１号,,13,105,1120015,,,,,,,2021-09-15,1,,,,,ミチル,0
1814,7010005033979,新規,0,2021-09-15,2021-09-15,一般社団法人ウッド,,その他の設立登記法人,東京都,文京区,白山２丁目２３番７号,,13,105,1120001,,,,,,,2021-09-15,1,,,,,ウッド,0
1816,7010103001771,新規,0,2021-09-15,2021-09-15,合同会社ＴＡＣＨＩＢＡＮＡ,,合同会社,東京都,八王子市,左入町１５５番地１,,13,201,1920012,,,,,,,2021-09-15,1,,,,,,0
1830,7010601059915,新規,0,2021-09-15,2021-09-15,株式会社Ｗｈｉｔｅ　Ｃａｎｖａｓ,,株式会社,東京都,江東区,亀戸５丁目２７番２６号,,13,108,1360071,,,,,,,2021-09-15,1,,,,,ホワイトキャンバス,0
1841,7010801032309,新規,0,2021-09-15,2021-09-15,株式会社ソレイユ,,株式会社,東京都,大田区,南蒲田１丁目７番３０号ホワイトアゼリア１０８,,13,111,1440035,,,,,,,2021-09-15,1,,,,,ソレイユ,0
1845,7010903006805,新規,0,2021-09-15,2021-09-15,Ｒｅｇｉｔ合同会社,,合同会社,東京都,世田谷区,成城８丁目４番４号,,13,112,1570066,,,,,,,2021-09-15,1,,,,,リジット,0
1849,7011001142699,新規,0,2021-09-15,2021-09-15,株式会社Ｓｈｉｉｉｒｏ,,株式会社,東京都,渋谷区,神宮前６丁目２３番４号桑野ビル２階,,13,113,1500001,,,,,,,2021-09-15,1,,,,,シーロ,0
1850,7011001142823,新規,0,2021-09-15,2021-09-15,株式会社ととなう,,株式会社,東京都,渋谷区,笹塚２丁目７番９号ライブイン笹塚７０３,,13,113,1510073,,,,,,,2021-09-15,1,,,,,トトナウ,0
1861,7011201023245,新規,0,2021-09-15,2021-09-15,株式会社ＴＥＴＳＵＪＩＮリフォーム,,株式会社,東京都,中野区,若宮２丁目９番２号,,13,114,1650033,,,,,,,2021-09-15,1,,,,,テツジンリフォーム,0
1868,7011401023672,新規,0,2021-09-15,2021-09-15,株式会社Ｒｅｍｉｌｌｉｏｎ,,株式会社,東京都,板橋区,舟渡１丁目１３番１０－１９０６号,,13,119,1740041,,,,,,,2021-09-15,1,,,,,リミリオン,0
1887,7020001143005,新規,0,2021-09-15,2021-09-15,サンライズテックス株式会社,,株式会社,神奈川県,横浜市港北区,菊名６丁目３０番２９－３０６号,,14,109,2220011,,,,,,,2021-09-15,1,,,,,サンライズテックス,0
1897,7021001073951,新規,0,2021-09-15,2021-09-15,株式会社ノリ企画,,株式会社,神奈川県,小田原市,鴨宮６６４番地の１堀口ビル１階,,14,206,2500874,,,,,,,2021-09-15,1,,,,,ノリキカク,0
1898,7021001073968,新規,0,2021-09-15,2021-09-15,Ｙ・Ｒ・Ｙ株式会社,,株式会社,神奈川県,大和市,代官１丁目１７番地２,,14,213,2420025,,,,,,,2021-09-15,1,,,,,ワイアールワイ,0
1903,7021003010894,新規,0,2021-09-15,2021-09-15,合同会社ベーカリーアスラン,,合同会社,神奈川県,足柄上郡開成町,延沢８５４番地プラザ開成１０８,,14,366,2580026,,,,,,,2021-09-15,1,,,,,ベーカリーアスラン,0
1908,7030001144316,新規,0,2021-09-15,2021-09-15,株式会社ＴｅＴ,,株式会社,埼玉県,白岡市,白岡１４８４番地３リバーサイド白岡３０１,,11,246,3490218,,,,,,,2021-09-15,1,,,,,テト,0
1909,7030001144324,新規,0,2021-09-15,2021-09-15,株式会社Ｒｉｉ,,株式会社,埼玉県,飯能市,大字青木１５６番地９,,11,209,3570003,,,,,,,2021-09-15,1,,,,,リー,0
1910,7030001144365,新規,0,2021-09-15,2021-09-15,株式会社昇龍物流,,株式会社,埼玉県,草加市,金明町２４６番地１２菊池荘２０２号,,11,221,3400052,,,,,,,2021-09-15,1,,,,,ショウリュウブツリュウ,0
1913,7030003017949,新規,0,2021-09-15,2021-09-15,合同会社Ｇａｙ,,合同会社,埼玉県,さいたま市大宮区,桜木町２丁目３大宮マルイ７階,,11,103,3300854,,,,,,,2021-09-15,1,,,,,ジーエーワイ,0
1922,7040001120167,新規,0,2021-09-15,2021-09-15,株式会社ＲＩＳＵＳ,,株式会社,千葉県,松戸市,稔台８丁目３５番地の１４,,12,207,2702231,,,,,,,2021-09-15,1,,,,,リーゾス,0
1923,7040001120175,新規,0,2021-09-15,2021-09-15,株式会社ＣＯＬＯＲＦＵＬ,,株式会社,千葉県,千葉市花見川区,花園町２４７３番地２２,,12,102,2620021,,,,,,,2021-09-15,1,,,,,カラフル,0
1924,7040001120191,新規,0,2021-09-15,2021-09-15,要株式会社,,株式会社,千葉県,市原市,姉崎東１丁目１２番４,,12,219,2990110,,,,,,,2021-09-15,1,,,,,カナメ,0
1928,7050001049843,新規,0,2021-09-15,2021-09-15,株式会社３１０－ＡＳ,,株式会社,茨城県,龍ケ崎市,八代町字南台２３５０番１,,08,208,3010842,,,,,,,2021-09-15,1,,,,,サトウオートサービス,0
1929,7060001034092,新規,0,2021-09-15,2021-09-15,シンヨウメタルビー株式会社,,株式会社,栃木県,宇都宮市,清原工業団地２１番地４,,09,201,3213231,,,,,,,2021-09-15,1,,,,,シンヨウメタルビー,0
1939,7070001038431,新規,0,2021-09-15,2021-09-15,株式会社シャングリラ,,株式会社,群馬県,吾妻郡東吾妻町,大字原町３８２７番地,,10,429,3770801,,,,,,,2021-09-15,1,,,,,シャングリラ,0
1941,7070003004225,新規,0,2021-09-15,2021-09-15,合同会社ＰＡＬ,,合同会社,群馬県,前橋市,東片貝町６番地７,,10,201,3710012,,,,,,,2021-09-15,1,,,,,パル,0
1947,7090003001947,新規,0,2021-09-15,2021-09-15,マナニ合同会社,,合同会社,山梨県,富士吉田市,上吉田５４９８番地の５,,19,202,4030005,,,,,,,2021-09-15,1,,,,,マナニ,0
1966,7120001240378,新規,0,2021-09-15,2021-09-15,株式会社ＩＮＴＥＧＲＡＴＥ,,株式会社,大阪府,大阪市福島区,海老江２丁目３番４号ｎｅｓｔ９５－４０１号,,27,103,5530001,,,,,,,2021-09-15,1,,,,,インテグレート,0
1967,7120001240394,新規,0,2021-09-15,2021-09-15,ブルースライム株式会社,,株式会社,大阪府,大阪市北区,天神橋３丁目８番９号,,27,127,5300041,,,,,,,2021-09-15,1,,,,,ブルースライム,0
1968,7120001240436,新規,0,2021-09-15,2021-09-15,株式会社吉武工務店,,株式会社,大阪府,大阪市生野区,田島５丁目８番２４号,,27,116,5440011,,,,,,,2021-09-15,1,,,,,ヨシタケコウムテン,0
1970,7120003020241,新規,0,2021-09-15,2021-09-15,南都ファシリティーズ合同会社,,合同会社,大阪府,大阪市浪速区,湊町１丁目２番１７－３８０５号,,27,111,5560017,,,,,,,2021-09-15,1,,,,,ナントファシリティーズ,0
1971,7120005022500,新規,0,2021-09-15,2021-09-15,一般社団法人花咲く社会づくり支援機構,,その他の設立登記法人,大阪府,大阪市中央区,伏見町２丁目２番１０号,,27,128,5410044,,,,,,,2021-09-15,1,,,,,ハナサクシャカイヅクリシエンキコウ,0
1979,7120901044894,新規,0,2021-09-15,2021-09-15,株式会社Ｌｉｆｅ・Ｇｏｅｓ・Ｏｎ,,株式会社,大阪府,茨木市,真砂３丁目１７番１３号１０１号室,,27,211,5670851,,,,,,,2021-09-15,1,,,,,ライフゴーズオン,0
1980,7120903003824,新規,0,2021-09-15,2021-09-15,インプレス合同会社,,合同会社,大阪府,豊中市,中桜塚３丁目１０番１２－３０６号,,27,203,5610881,,,,,,,2021-09-15,1,,,,,インプレス,0
1985,7130001070106,新規,0,2021-09-15,2021-09-15,株式会社ＡＮＳＥＩ,,株式会社,京都府,城陽市,市辺南垣内２番地４５,,26,207,6100114,,,,,,,2021-09-15,1,,,,,アンセイ,0
1986,7130001070122,新規,0,2021-09-15,2021-09-15,株式会社ＴＯＫＩＳＡＤＡ,,株式会社,京都府,京都市左京区,下鴨膳部町１５番地３２シャルマン葵の森ハイツＥ４,,26,103,6060815,,,,,,,2021-09-15,1,,,,,トキサダ,0
1994,7140001123044,新規,0,2021-09-15,2021-09-15,株式会社高砂技建,,株式会社,兵庫県,姫路市,四郷町見野１３９番地１,,28,201,6710244,,,,,,,2021-09-15,1,,,,,タカサゴギケン,0
1999,7140003016741,新規,0,2021-09-15,2021-09-15,ＫＩＺＵＮＡ　Ｔｅｃｈ合同会社,,合同会社,兵庫県,芦屋市,楠町１６番１８－１０３号,,28,206,6590015,,,,,,,2021-09-15,1,,,,,キズナテック,0
2001,7150001024919,新規,0,2021-09-15,2021-09-15,テアモアンドカンパニー株式会社,,株式会社,奈良県,香芝市,畑５丁目１８８０番地４,,29,210,6390245,,,,,,,2021-09-15,1,,,,,テアモアンドカンパニー,0
2003,7150003002484,新規,0,2021-09-15,2021-09-15,合同会社Ｋｏｍｉｎｋａアート,,合同会社,奈良県,天理市,佐保庄町２２７番地,,29,204,6320043,,,,,,,2021-09-15,1,,,,,コミンカアート,0
2012,7180001147824,新規,0,2021-09-15,2021-09-15,ＳＡＦＥＳ　ＨＯＭＥ株式会社,,株式会社,愛知県,名古屋市中区,千代田３丁目１１番１１号,,23,106,4600012,,,,,,,2021-09-15,1,,,,,セーフズホーム,0
2013,7180001147832,新規,0,2021-09-15,2021-09-15,Ｊ＆Ｂｅｌｌｅ株式会社,,株式会社,愛知県,名古屋市天白区,高島２丁目１８１２番地の１,,23,116,4680022,,,,,,,2021-09-15,1,,,,,ジェイアンドベル,0
2014,7180001147849,新規,0,2021-09-15,2021-09-15,泉屋食品株式会社,,株式会社,愛知県,あま市,七宝町遠島十坪９０番地,,23,237,4970002,,,,,,,2021-09-15,1,,,,,イズミヤショクヒン,0
2034,7250001019132,新規,0,2021-09-15,2021-09-15,株式会社貴舩屋,,株式会社,山口県,岩国市,玖珂町４７６７番地１,,35,208,7420344,,,,,,,2021-09-15,1,,,,,キフネヤ,0
2048,7290001094618,新規,0,2021-09-15,2021-09-15,株式会社ＰＬＡＮＩＴ,,株式会社,福岡県,福岡市西区,西都１丁目１４番４,,40,135,8190367,,,,,,,2021-09-15,1,,,,,プレンイッツ,0
2049,7290001094626,新規,0,2021-09-15,2021-09-15,株式会社ＣＲＡＦＩＴ,,株式会社,福岡県,福岡市南区,高宮１丁目５番１４号,,40,134,8150083,,,,,,,2021-09-15,1,,,,,クラフィット,0
2050,7290001094650,新規,0,2021-09-15,2021-09-15,株式会社Ｎｕｍｂｅｒ,,株式会社,福岡県,福岡市中央区,六本松２丁目６番６号ＨＩＬＬＴＯＰ・ＢＵＩＬＤＩＮＧ２Ｆ,,40,133,8100044,,,,,,,2021-09-15,1,,,,,ナンバー,0
2051,7290001094667,新規,0,2021-09-15,2021-09-15,株式会社ＦＯＯＤ　ＬＩＮＥ,,株式会社,福岡県,福岡市中央区,渡辺通５丁目３番１５号,,40,133,8100004,,,,,,,2021-09-15,1,,,,,フードライン,0
2059,7300001012627,新規,0,2021-09-15,2021-09-15,株式会社ＨＯＭＩＥ,,株式会社,佐賀県,三養基郡基山町,大字長野７４０番地５,,41,341,8410202,,,,,,,2021-09-15,1,,,,,ホーミー,0
2075,7350001017308,新規,0,2021-09-15,2021-09-15,株式会社ａｏｈａｌスタジオ,,株式会社,宮崎県,宮崎市,大字跡江３５４２番地,,45,201,8802101,,,,,,,2021-09-15,1,,,,,アオハルスタジオ,0
2077,7360001029376,新規,0,2021-09-15,2021-09-15,興城電工株式会社,,株式会社,沖縄県,南城市,玉城字親慶原１５０－１,,47,215,9010608,,,,,,,2021-09-15,1,,,,,コウジョウデンコウ,0
2088,7400003002830,新規,0,2021-09-15,2021-09-15,合同会社くのへこんすとらくしょん,,合同会社,岩手県,九戸郡九戸村,大字伊保内第２５地割２３番地３,,03,506,0286502,,,,,,,2021-09-15,1,,,,,クノヘコンストラクション,0
2093,7430001084959,新規,0,2021-09-15,2021-09-15,ｏｆｆｉｃｅ　ＩＫＥＤＡ株式会社,,株式会社,北海道,札幌市北区,篠路町太平２４７番地３,,01,102,0028051,,,,,,,2021-09-15,1,,,,,オフィスイケダ,0
2094,7430001084967,新規,0,2021-09-15,2021-09-15,株式会社みのり薬局,,株式会社,北海道,札幌市北区,北二十七条西３丁目３番２７号ＭＳ２７３・３Ｆ,,01,102,0010027,,,,,,,2021-09-15,1,,,,,ミノリヤッキョク,0
2095,7430001084983,新規,0,2021-09-15,2021-09-15,株式会社戊,,株式会社,北海道,札幌市中央区,北一条西２６丁目５番８－８０１号,,01,101,0640821,,,,,,,2021-09-15,1,,,,,ツチノエ,0
2099,7430003013148,新規,0,2021-09-15,2021-09-15,フムフムカムイ合同会社,,合同会社,北海道,虻田郡倶知安町,北四条東１０丁目１６番地１１,,01,400,0440004,,,,,,,2021-09-15,1,,,,,フムフムカムイ,0
2115,8010001221108,新規,0,2021-09-15,2021-09-15,株式会社Ｇｕｇａ,,株式会社,東京都,千代田区,麹町１丁目４番地ラトゥール半蔵門１３０１号,,13,101,1020083,,,,,,,2021-09-15,1,,,,,グーガ,0
2116,8010001221157,新規,0,2021-09-15,2021-09-15,フライゲート株式会社,,株式会社,東京都,中央区,銀座１丁目２２番１１号銀座大竹ビジデンス２階,,13,102,1040061,,,,,,,2021-09-15,1,,,,,フライゲート,0
2119,8010005033978,新規,0,2021-09-15,2021-09-15,一般社団法人コーセーマネジメント,,その他の設立登記法人,東京都,中央区,銀座３丁目５番１２号,,13,102,1040061,,,,,,,2021-09-15,1,,,,,コーセーマネジメント,0
2134,8010401162637,新規,0,2021-09-15,2021-09-15,株式会社アイ・ティー・ピー,,株式会社,東京都,港区,西新橋２丁目８番１号ワカサビル４階,,13,103,1050003,,,,,,,2021-09-15,1,,,,,アイティーピー,0
2135,8010401162678,新規,0,2021-09-15,2021-09-15,株式会社ＮＸ　ｒｅｓｏｒｔ,,株式会社,東京都,港区,六本木６丁目２－３１六本木ヒルズノースタワー１７Ｆ,,13,103,1060032,,,,,,,2021-09-15,1,,,,,エヌエックスリゾート,0
2136,8010401162703,新規,0,2021-09-15,2021-09-15,アセットオーシャン株式会社,,株式会社,東京都,港区,虎ノ門３丁目１８番６号,,13,103,1050001,,,,,,,2021-09-15,1,,,,,アセットオーシャン,0
2140,8010403026121,新規,0,2021-09-15,2021-09-15,ワールドカオス合同会社,,合同会社,東京都,港区,南青山２丁目２番１５号,,13,103,1070062,,,,,,,2021-09-15,1,,,,,ワールドカオス,0
2141,8010405020221,新規,0,2021-09-15,2021-09-15,一般社団法人花霞会,,その他の設立登記法人,東京都,港区,六本木７丁目１２番２号,,13,103,1060032,,,,,,,2021-09-15,1,,,,,カスミカイ,0
2146,8010601059930,新規,0,2021-09-15,2021-09-15,株式会社Ｚｅｎｙｕｍ　Ｊａｐａｎ,,株式会社,東京都,江東区,有明３丁目７番１１号有明パークビル２０階,,13,108,1350063,,,,,,,2021-09-15,1,,,,,ゼニュムジャパン,0
2147,8010601059939,新規,0,2021-09-15,2021-09-15,株式会社Ｂｉｇ　ｆｉｅｌｄ,,株式会社,東京都,江東区,豊洲４丁目１１番２０－４４９号,,13,108,1350061,,,,,,,2021-09-15,1,,,,,ビッグフィールド,0
2148,8010603009157,新規,0,2021-09-15,2021-09-15,合同会社かつらた,,合同会社,東京都,墨田区,押上２丁目１６－２－１０６エスタガーデン,,13,107,1310045,,,,,,,2021-09-15,1,,,,,カツラタ,0
2151,8010701041508,新規,0,2021-09-15,2021-09-15,株式会社ＤＩＬＬＡＣＴ,,株式会社,東京都,品川区,東品川５丁目９番６,,13,109,1400002,,,,,,,2021-09-15,1,,,,,ディラクト,0
2153,8010801032316,新規,0,2021-09-15,2021-09-15,株式会社クラスハウストーキョー,,株式会社,東京都,大田区,南馬込１丁目２５番１３号,,13,111,1430025,,,,,,,2021-09-15,1,,,,,クラスハウストーキョー,0
2156,8010901049433,新規,0,2021-09-15,2021-09-15,株式会社ｙｅｌｌｏｗｔａｉｌ,,株式会社,東京都,世田谷区,成城２丁目３４番２号,,13,112,1570066,,,,,,,2021-09-15,1,,,,,イエローテイル,0
2157,8010903006804,新規,0,2021-09-15,2021-09-15,ＳｏｗＣｒｕｉｓｅ合同会社,,合同会社,東京都,世田谷区,瀬田５丁目１３－２０－１０１,,13,112,1580095,,,,,,,2021-09-15,1,,,,,ソウクルーズ,0
2177,8011201023244,新規,0,2021-09-15,2021-09-15,株式会社Ｍｅｔｒｏｂｅｒｒｙ,,株式会社,東京都,中野区,野方５丁目３０番７号,,13,114,1650027,,,,,,,2021-09-15,1,,,,,メトロベリー,0
2179,8011401023671,新規,0,2021-09-15,2021-09-15,株式会社Ａ－ＳＴＹＬＥ,,株式会社,東京都,板橋区,小豆沢１丁目１３番地１２号,,13,119,1740051,,,,,,,2021-09-15,1,,,,,エースタイル,0
2182,8011803004773,新規,0,2021-09-15,2021-09-15,ＩＦＣ合同会社,,合同会社,東京都,葛飾区,白鳥３丁目１１番１８号,,13,122,1250063,,,,,,,2021-09-15,1,,,,,アイエフシー,0
2183,8012405004641,新規,0,2021-09-15,2021-09-15,医療法人社団和じょう,,その他の設立登記法人,東京都,武蔵野市,吉祥寺本町１丁目３３番３号イトウビル１階,,13,203,1800004,,,,,,,2021-09-15,1,,,,,ワジョウ,0
2198,8021001073942,新規,0,2021-09-15,2021-09-15,株式会社ＪＡＮ,,株式会社,神奈川県,小田原市,東町２丁目１番８号,,14,206,2500003,,,,,,,2021-09-15,1,,,,,ジャン,0
2199,8021001073950,新規,0,2021-09-15,2021-09-15,株式会社Ｖｅｒａ　ｙｏｕｎ,,株式会社,神奈川県,小田原市,本町３丁目１２番２５－７０５号サンクレイドル小田原本町,,14,206,2500012,,,,,,,2021-09-15,1,,,,,ヴェラユーン,0
2200,8021001073959,新規,0,2021-09-15,2021-09-15,柳瀬構造計画株式会社,,株式会社,神奈川県,高座郡寒川町,小谷１丁目１２番１７号,,14,321,2530103,,,,,,,2021-09-15,1,,,,,ヤナセコウゾウケイカク,0
2204,8021003010885,新規,0,2021-09-15,2021-09-15,合同会社ｌｉｖｅ　ａ　ｌｉｔｔｌｅ,,合同会社,神奈川県,藤沢市,羽鳥１丁目１番１０号～８０４,,14,205,2510056,,,,,,,2021-09-15,1,,,,,リブアリトル,0
2205,8030001144281,新規,0,2021-09-15,2021-09-15,株式会社クエストシステムズ,,株式会社,埼玉県,所沢市,西所沢１丁目１４番４－２０２号オーク・ヴィラージュ・１４１,,11,208,3591144,,,,,,,2021-09-15,1,,,,,クエストシステムズ,0
2206,8030001144298,新規,0,2021-09-15,2021-09-15,株式会社メディカルアライアンス,,株式会社,埼玉県,熊谷市,筑波２丁目２０番地・木村ビル３階,,11,202,3600037,,,,,,,2021-09-15,1,,,,,メディカルアライアンス,0
2207,8030001144323,新規,0,2021-09-15,2021-09-15,株式会社麗装寿,,株式会社,埼玉県,川口市,弥平２丁目７番７号,,11,203,3320002,,,,,,,2021-09-15,1,,,,,レイショウコトブキ,0
2208,8030001144331,新規,0,2021-09-15,2021-09-15,株式会社セットザディレクション,,株式会社,埼玉県,さいたま市中央区,新中里５丁目１２番４号,,11,105,3380011,,,,,,,2021-09-15,1,,,,,セットザディレクション,0
2209,8030001144356,新規,0,2021-09-15,2021-09-15,株式会社サンクチュアリ,,株式会社,埼玉県,八潮市,大字南川崎８８４番地,,11,234,3400814,,,,,,,2021-09-15,1,,,,,サンクチュアリ,0
2217,8040001120158,新規,0,2021-09-15,2021-09-15,株式会社リブワイズ,,株式会社,千葉県,茂原市,七渡２２０３番地６,,12,210,2970001,,,,,,,2021-09-15,1,,,,,リブワイズ,0
2218,8040001120208,新規,0,2021-09-15,2021-09-15,みなと開発株式会社,,株式会社,千葉県,千葉市中央区,新宿１丁目２０番８－９０６号,,12,101,2600021,,,,,,,2021-09-15,1,,,,,ミナトカイハツ,0
2221,8050001049818,新規,0,2021-09-15,2021-09-15,株式会社増田建材,,株式会社,茨城県,つくば市,野畑７１７番地１,,08,220,3002643,,,,,,,2021-09-15,1,,,,,マスダケンザイ,0
2222,8050001049850,新規,0,2021-09-15,2021-09-15,株式会社ジェイエスメタル,,株式会社,茨城県,石岡市,石岡２９９５番地３,,08,205,3150001,,,,,,,2021-09-15,1,,,,,ジェイエスメタル,0
2226,8060001034091,新規,0,2021-09-15,2021-09-15,株式会社シーキューアール,,株式会社,栃木県,佐野市,馬門町９５７番地,,09,204,3270824,,,,,,,2021-09-15,1,,,,,シーキューアール,0
2237,8070003004232,新規,0,2021-09-15,2021-09-15,合同会社ＳＴ,,合同会社,群馬県,前橋市,三俣町１丁目４５番地３８,,10,201,3710018,,,,,,,2021-09-15,1,,,,,エスティ,0
2245,8090003001946,新規,0,2021-09-15,2021-09-15,合同会社ＪＭコーポレーション,,合同会社,山梨県,中巨摩郡昭和町,西条５２９０番地,,19,384,4093866,,,,,,,2021-09-15,1,,,,,ジェイエムコーポレーション,0
2246,8100001034608,新規,0,2021-09-15,2021-09-15,株式会社グロワール,,株式会社,長野県,北安曇郡白馬村,大字北城１０５３０番地１,,20,485,3999301,,,,,,,2021-09-15,1,,,,,グロワール,0
2247,8110001036033,新規,0,2021-09-15,2021-09-15,株式会社Ｈａｉｒ　Ｍａｋｅ　Ｎｉｃｏ,,株式会社,新潟県,三条市,直江町４丁目１２番３２号,,15,204,9550832,,,,,,,2021-09-15,1,,,,,ヘアメイクニコ,0
2261,8120001240360,新規,0,2021-09-15,2021-09-15,アリズム株式会社,,株式会社,大阪府,寝屋川市,萱島本町２０番１４号,,27,215,5720827,,,,,,,2021-09-15,1,,,,,アリズム,0
2262,8120001240385,新規,0,2021-09-15,2021-09-15,株式会社アントワーク,,株式会社,大阪府,大阪市中央区,谷町５丁目７－５,,27,128,5400012,,,,,,,2021-09-15,1,,,,,アントワーク,0
2263,8120001240402,新規,0,2021-09-15,2021-09-15,株式会社ＨＩＴＯ　ｃｏｍｐａｎｙ,,株式会社,大阪府,大阪市北区,本庄東２丁目５番２７号,,27,127,5310074,,,,,,,2021-09-15,1,,,,,ヒトカンパニー,0
2264,8120001240427,新規,0,2021-09-15,2021-09-15,株式会社ＣＲＥＥＤ　ＰＲＯ,,株式会社,大阪府,大阪市中央区,平野町１丁目５番１１号エルギャラン平野町３０１,,27,128,5410046,,,,,,,2021-09-15,1,,,,,クリードプロ,0
2265,8120001240435,新規,0,2021-09-15,2021-09-15,株式会社ＨｉＴＳ　Ａｇｅｎｔ,,株式会社,大阪府,大阪市北区,豊崎３丁目１５番５号ＴＫビル２Ｆ,,27,127,5310072,,,,,,,2021-09-15,1,,,,,ヒッツエージェント,0
2267,8120003020232,新規,0,2021-09-15,2021-09-15,合同会社ドロシー,,合同会社,大阪府,大阪市平野区,加美西２丁目９－２１－１０２,,27,126,5470005,,,,,,,2021-09-15,1,,,,,ドロシー,0
2268,8120003020240,新規,0,2021-09-15,2021-09-15,ＣＩＰ合同会社,,合同会社,大阪府,大阪市北区,西天満３丁目７番１７号ラムール西天満２０５,,27,127,5300047,,,,,,,2021-09-15,1,,,,,シーアイピー,0
2271,8120005022499,新規,0,2021-09-15,2021-09-15,ＥＭＰ税理士法人,,その他の設立登記法人,大阪府,大阪市北区,西天満５丁目６番１０号,,27,127,5300047,,,,,,,2021-09-15,1,,,,,イーエムピー,0
2273,8120105009446,新規,0,2021-09-15,2021-09-15,一般社団法人ｓｉｇｎ,,その他の設立登記法人,大阪府,堺市西区,浜寺船尾町西３丁２９５番地２４,,27,144,5928342,,,,,,,2021-09-15,1,,,,,サイン,0
2275,8120903003823,新規,0,2021-09-15,2021-09-15,オベーション合同会社,,合同会社,大阪府,豊中市,中桜塚３丁目１０番１２－３０６号,,27,203,5610881,,,,,,,2021-09-15,1,,,,,オベーション,0
2278,8130001070105,新規,0,2021-09-15,2021-09-15,株式会社ＯＮＥ,,株式会社,京都府,京都市伏見区,横大路天王前１－１伏見日光ハイツ２－４２２,,26,109,6128294,,,,,,,2021-09-15,1,,,,,ワン,0
2279,8130001070113,新規,0,2021-09-15,2021-09-15,株式会社Ｅ－ＲＡＳ,,株式会社,京都府,京都市山科区,大宅辻脇町３５番地２５,00124240,26,110,6078183,,,,,,,2021-09-15,1,,,,,イーラス,0
2286,8140001123035,新規,0,2021-09-15,2021-09-15,株式会社クリエイト,,株式会社,兵庫県,宝塚市,青葉台１丁目２番９号,,28,214,6650014,,,,,,,2021-09-15,1,,,,,クリエイト,0
2287,8140001123051,新規,0,2021-09-15,2021-09-15,株式会社ＣＬＯＵＤ,,株式会社,兵庫県,神戸市中央区,浪花町５６起業プラザひょうご内,,28,110,6500035,,,,,,,2021-09-15,1,,,,,クラウド,0
2290,8140003016740,新規,0,2021-09-15,2021-09-15,合同会社ＴＯＭＯＸ,,合同会社,兵庫県,神戸市中央区,脇浜海岸通４丁目１番２－５０３号,,28,110,6510073,,,,,,,2021-09-15,1,,,,,トモックス,0
2291,8140003016749,新規,0,2021-09-15,2021-09-15,合同会社人事経営,,合同会社,兵庫県,川西市,鴬が丘１番地の１６,,28,217,6660007,,,,,,,2021-09-15,1,,,,,ジンジケイエイ,0
2292,8140005025814,新規,0,2021-09-15,2021-09-15,特定非営利活動法人ＬＤ,,その他の設立登記法人,兵庫県,小野市,育ケ丘町１４８０番地の４１２,,28,218,6751324,,,,,,,2021-09-15,1,,,,,エルディ,0
2297,8170001016780,新規,0,2021-09-15,2021-09-15,株式会社秦農園,,株式会社,和歌山県,有田市,野３２６番地,,30,204,6490314,,,,,,,2021-09-15,1,,,,,ハタノウエン,0
2304,8180001147856,新規,0,2021-09-15,2021-09-15,ダイヤプラン株式会社,,株式会社,愛知県,北名古屋市,沖村天花寺６９番地１,,23,234,4810043,,,,,,,2021-09-15,1,,,,,ダイヤプラン,0
2305,8180001147872,新規,0,2021-09-15,2021-09-15,株式会社モアリンクス,,株式会社,愛知県,一宮市,朝日１丁目９番１３号,,23,203,4910028,,,,,,,2021-09-15,1,,,,,モアリンクス,0
2308,8180003022966,新規,0,2021-09-15,2021-09-15,合同会社アシスト,,合同会社,愛知県,名古屋市瑞穂区,亀城町５丁目３２番地の５・７号室,,23,108,4670876,,,,,,,2021-09-15,1,,,,,アシスト,0
2312,8200001039142,新規,0,2021-09-15,2021-09-15,ＧＭコンサルタント株式会社,,株式会社,岐阜県,羽島市,竹鼻町５６番地５０,,21,209,5016241,,,,,,,2021-09-15,1,,,,,ジーエムコンサルタント,0
2330,8240003005279,新規,0,2021-09-15,2021-09-15,合同会社信商,,合同会社,広島県,広島市佐伯区,倉重２丁目５４７番地,,34,108,7315156,,,,,,,2021-09-15,1,,,,,シンショウ,0
2332,8250001019131,新規,0,2021-09-15,2021-09-15,エジオシステム株式会社,,株式会社,山口県,山陽小野田市,大字東高泊１４２０番地３若新ハイツ２０５,,35,216,7560088,,,,,,,2021-09-15,1,,,,,エジオシステム,0
2340,8290001094526,新規,0,2021-09-15,2021-09-15,Ａ‐ＴＲＵＳＴ　ＰＬＡＮＮＩＮＧ株式会社,,株式会社,福岡県,久留米市,善導寺町木塚１０７－２,,40,203,8390822,,,,,,,2021-09-15,1,,,,,エートラストプランニング,0
2341,8290001094633,新規,0,2021-09-15,2021-09-15,株式会社Ｓｏｕｒｉａｎｔ,,株式会社,福岡県,福岡市中央区,赤坂３丁目３番１－２０１号グランドキャッスル赤坂,,40,133,8100042,,,,,,,2021-09-15,1,,,,,スリアン,0
2342,8290001094641,新規,0,2021-09-15,2021-09-15,株式会社ｌｉｌａｂｒｏｎｃｈｅ,,株式会社,福岡県,久留米市,六ツ門町１０番地２４,,40,203,8300031,,,,,,,2021-09-15,1,,,,,リラブロンシュ,0
2343,8290001094658,新規,0,2021-09-15,2021-09-15,株式会社Ｍ‐ＯＮＥ,,株式会社,福岡県,福岡市南区,長丘２丁目２７番３号,,40,134,8150075,,,,,,,2021-09-15,1,,,,,エムワン,0
2350,8290801027800,新規,0,2021-09-15,2021-09-15,株式会社プライムレーベン,,株式会社,福岡県,北九州市小倉南区,蜷田若園３丁目７番３６号（ルネス若園Ａ２０３）,,40,107,8020814,,,,,,,2021-09-15,1,,,,,プライムレーベン,0
2361,8340003003553,新規,0,2021-09-15,2021-09-15,合同会社エスファム,,合同会社,鹿児島県,鹿児島市,田上２丁目３９番２０号,,46,201,8900034,,,,,,,2021-09-15,1,,,,,エスファム,0
2362,8340005009334,新規,0,2021-09-15,2021-09-15,一般社団法人西郷どん労支連合,,その他の設立登記法人,鹿児島県,曽於市,大隅町荒谷１２９９－５,,46,217,8998311,,,,,,,2021-09-15,1,,,,,サイゴウドンロウシレンゴウ,0
2364,8350001017307,新規,0,2021-09-15,2021-09-15,Ａ　ＪＡＮ　ＭＯＴＯＲＳ株式会社,,株式会社,宮崎県,都城市,高崎町縄瀬３７４６番地４,,45,202,8894503,,,,,,,2021-09-15,1,,,,,エージャンモータース,0
2366,8360001029367,新規,0,2021-09-15,2021-09-15,株式会社ＴＪ　ＴＡＫＡＮＯ　ＪＡＰＡＮ,,株式会社,沖縄県,那覇市,久茂地２丁目１６番３号ＫＭくもじビル２０１号室,,47,201,9000015,,,,,,,2021-09-15,1,,,,,ティージェイタカノジャパン,0
2367,8360003011439,新規,0,2021-09-15,2021-09-15,合同会社ＧＡＭ,,合同会社,沖縄県,那覇市,首里久場川町１丁目２３番地,,47,201,9030807,,,,,,,2021-09-15,1,,,,,ジーエーエム,0
2368,8360005006503,新規,0,2021-09-15,2021-09-15,国際人材ネット事業協同組合,,その他の設立登記法人,沖縄県,那覇市,上之屋１丁目１８番１５号,,47,201,9000011,,,,,,,2021-09-15,1,,,,,,0
2371,8370001047599,新規,0,2021-09-15,2021-09-15,株式会社ＳＲＧ,,株式会社,宮城県,仙台市青葉区,国分町２丁目１５番１６号ＤＡＩＳＹＢＵＩＬＤＩＮＧ４０２,,04,101,9800803,,,,,,,2021-09-15,1,,,,,エスアールジー,0
2374,8380001032195,新規,0,2021-09-15,2021-09-15,株式会社リベルタ,,株式会社,福島県,相馬市,中村字泉町６番地の２,,07,209,9760042,,,,,,,2021-09-15,1,,,,,リベルタ,0
2375,8380001032204,新規,0,2021-09-15,2021-09-15,大和田総業株式会社,,株式会社,福島県,郡山市,田村町桜ケ丘２丁目２７３番地,,07,203,9630723,,,,,,,2021-09-15,1,,,,,オオワダソウギョウ,0
2382,8400001015602,新規,0,2021-09-15,2021-09-15,株式会社松川瓦店,,株式会社,岩手県,紫波郡矢巾町,大字広宮沢第８地割９３番地３,,03,322,0283621,,,,,,,2021-09-15,1,,,,,マツカワカワラテン,0
2383,8420001017588,新規,0,2021-09-15,2021-09-15,セキエンタープライズ株式会社,,株式会社,青森県,弘前市,大字泉野３丁目８番地３,,02,202,0368164,,,,,,,2021-09-15,1,,,,,セキエンタープライズ,0
2391,8430001084966,新規,0,2021-09-15,2021-09-15,株式会社ＣＡＬＤＩＮＡ,,株式会社,北海道,札幌市北区,北二十条西５丁目２番５０号ＣＲＯＳＳＰＯＩＮＴ８０４,,01,102,0010020,,,,,,,2021-09-15,1,,,,,カルディナ,0
2392,8430001084982,新規,0,2021-09-15,2021-09-15,株式会社ＲＥ．,,株式会社,北海道,札幌市東区,東苗穂十一条２丁目１３番１５号,,01,103,0070811,,,,,,,2021-09-15,1,,,,,リー,0
2395,8430003013130,新規,0,2021-09-15,2021-09-15,合同会社ポラリス,,合同会社,北海道,沙流郡日高町,字緑町２８番地の７,,01,601,0592122,,,,,,,2021-09-15,1,,,,,ポラリス,0
2397,8470001018714,新規,0,2021-09-15,2021-09-15,株式会社千福,,株式会社,香川県,高松市,屋島西町１１１９番地２８,,37,201,7610113,,,,,,,2021-09-15,1,,,,,センプク,0
2403,8700150104753,新規,0,2021-09-15,2021-09-15,Ｋｅｅｔｏ　Ｌａｎｋａ　Ｐｖｔ　Ｌｔｄ,,外国会社等,千葉県,東金市,関内５７７番地１,,12,213,2830014,スリランカ民主社会主義共和国、キャンディ、アンバテンナ、カハワッタ、６６,,,,,,2021-09-15,1,,,,,キートランカプライベートリミテツド,0
2416,9010003035843,新規,0,2021-09-15,2021-09-15,合同会社ＨｉＪｏＪｏ．ｃｏｍ３,,合同会社,東京都,千代田区,霞が関３丁目２番５号,,13,101,1000013,,,,,,,2021-09-15,1,,,,,ヒジョージョードットコムスリー,0
2418,9010005033977,新規,0,2021-09-15,2021-09-15,一般社団法人Ｓｔｒａｉｔｓ　Ｈｉｍａｗａｒｉ　ＧＫＩＳＨ　Ｔｗｏ,,その他の設立登記法人,東京都,中央区,新富１丁目１５番３号ジパングアウトソーシングサービス内,,13,102,1040041,,,,,,,2021-09-15,1,,,,,ストレイツヒマワリジーケーアイエスエイチツー,0
2419,9010101014864,新規,0,2021-09-15,2021-09-15,株式会社えびす,,株式会社,東京都,八王子市,丸山町３３番７号,,13,201,1920021,,,,,,,2021-09-15,1,,,,,エビス,0
2428,9010401162652,新規,0,2021-09-15,2021-09-15,Ｍｅｄｉａ　Ｂｒａｉｎ株式会社,,株式会社,東京都,港区,南青山２丁目２番１５号,,13,103,1070062,,,,,,,2021-09-15,1,,,,,メディアブレイン,0
2429,9010401162677,新規,0,2021-09-15,2021-09-15,株式会社ソラプラ,,株式会社,東京都,港区,虎ノ門４丁目１番１号,,13,103,1050001,,,,,,,2021-09-15,1,,,,,ソラプラ,0
2431,9010403026120,新規,0,2021-09-15,2021-09-15,合同会社セレクション,,合同会社,東京都,港区,赤坂２丁目８番１８号妙和ビル２Ｆ,,13,103,1070052,,,,,,,2021-09-15,1,,,,,セレクション,0
2436,9010601059946,新規,0,2021-09-15,2021-09-15,グリーン総合住宅株式会社,,株式会社,東京都,江東区,北砂６丁目２７番５号,,13,108,1360073,,,,,,,2021-09-15,1,,,,,グリーンソウゴウジュウタク,0
2438,9010603009148,新規,0,2021-09-15,2021-09-15,合同会社ダヴィンチ,,合同会社,東京都,墨田区,錦糸４丁目１２番６－３０１号岡田ビル,,13,107,1300013,,,,,,,2021-09-15,1,,,,,ダヴィンチ,0
2439,9010603009156,新規,0,2021-09-15,2021-09-15,合同会社ｔａｋａｎｉ,,合同会社,東京都,墨田区,八広４丁目１１番２１号,,13,107,1310041,,,,,,,2021-09-15,1,,,,,タカニ,0
2443,9010701041507,新規,0,2021-09-15,2021-09-15,株式会社ラフスタイル,,株式会社,東京都,品川区,北品川５丁目９番３１－１７０５号,,13,109,1410001,,,,,,,2021-09-15,1,,,,,ラフスタイル,0
2445,9010803003883,新規,0,2021-09-15,2021-09-15,合同会社ＺＮＣＨＯＲ,,合同会社,東京都,大田区,西蒲田１丁目１４番７号,,13,111,1440051,,,,,,,2021-09-15,1,,,,,ズンカー,0
2456,9011001142788,新規,0,2021-09-15,2021-09-15,株式会社ＲＯＪＩ,,株式会社,東京都,目黒区,東山２丁目３番５号ビラアペックスタワー区画１Ｂ,,13,110,1530043,,,,,,,2021-09-15,1,,,,,ロジ,0
2457,9011001142846,新規,0,2021-09-15,2021-09-15,株式会社ＮＥＷＯＮ,,株式会社,東京都,渋谷区,神山町１番３－３０２号アマーブル神山町,,13,113,1500047,,,,,,,2021-09-15,1,,,,,,0
2460,9011003013368,新規,0,2021-09-15,2021-09-15,合同会社原賀組,,合同会社,東京都,渋谷区,代々木４丁目１番５号,,13,113,1510053,,,,,,,2021-09-15,1,,,,,ハラガグミ,0
2467,9011703002942,新規,0,2021-09-15,2021-09-15,ｈｏｌｉｄａｙｚ　ｓｕｎ合同会社,,合同会社,東京都,江戸川区,北小岩１丁目１３－１３,,13,123,1330051,,,,,,,2021-09-15,1,,,,,ホリデイズサン,0
2468,9011705001694,新規,0,2021-09-15,2021-09-15,特定非営利活動法人ＣａＮａＬ－Ｐ,,その他の設立登記法人,東京都,江戸川区,平井２丁目５番２１号,,13,123,1320035,,,,,,,2021-09-15,1,,,,,カナエル,0
2480,9020001142938,新規,0,2021-09-15,2021-09-15,株式会社リハケアテック,,株式会社,神奈川県,横浜市港北区,日吉７丁目１６番地２８号・ロイヤルコート日吉３０７,,14,109,2230061,,,,,,,2021-09-15,1,,,,,リハケアテック,0
2491,9021001073958,新規,0,2021-09-15,2021-09-15,株式会社ＦＫハウスメイク,,株式会社,神奈川県,小田原市,永塚２１１番地の１１,,14,206,2500214,,,,,,,2021-09-15,1,,,,,エフケーハウスメイク,0
2495,9030001144330,新規,0,2021-09-15,2021-09-15,株式会社ｍｉｇｎｏｎ,,株式会社,埼玉県,川口市,南鳩ヶ谷６丁目１３番５号,,11,203,3340013,,,,,,,2021-09-15,1,,,,,ミニョン,0
2496,9030001144347,新規,0,2021-09-15,2021-09-15,株式会社旱天慈雨,,株式会社,埼玉県,さいたま市見沼区,東大宮３丁目１番地１小林ビル３０１,,11,104,3370051,,,,,,,2021-09-15,1,,,,,カンテンジウ,0
2511,9050001049833,新規,0,2021-09-15,2021-09-15,株式会社ワイエスメンテナンス,,株式会社,茨城県,猿島郡境町,２１９４番地１５,,08,546,3060433,,,,,,,2021-09-15,1,,,,,ワイエスメンテナンス,0
2512,9050001049841,新規,0,2021-09-15,2021-09-15,ＳＵＭＡＩ　ｐｌｕｓ　ＲＥ株式会社,,株式会社,茨城県,鉾田市,串挽５７７番地１,,08,234,3111523,,,,,,,2021-09-15,1,,,,,スマイプラスアールイー,0
2519,9060001034090,新規,0,2021-09-15,2021-09-15,株式会社秀郷鉄馬,,株式会社,栃木県,佐野市,馬門町９５７番地,,09,204,3270824,,,,,,,2021-09-15,1,,,,,ヒデサトテツバ,0
2521,9060003003804,新規,0,2021-09-15,2021-09-15,合同会社ＳＩ　ＮＩＨＯＮ　ＬＡＮＫＡ,,合同会社,栃木県,宇都宮市,東岡本町７４０番地４,,09,201,3291103,,,,,,,2021-09-15,1,,,,,エスアイニホンランカ,0
2534,9090001017191,新規,0,2021-09-15,2021-09-15,株式会社セカンドベース,,株式会社,山梨県,北杜市,大泉町西井出８２４０番地１７８７,,19,209,4091501,,,,,,,2021-09-15,1,,,,,セカンドベース,0
2539,9110001036040,新規,0,2021-09-15,2021-09-15,株式会社朋建創業,,株式会社,新潟県,新潟市江南区,荻曽根２丁目４番２２号,,15,104,9500154,,,,,,,2021-09-15,1,,,,,トモケンソウギョウ,0
2542,9120001240351,新規,0,2021-09-15,2021-09-15,株式会社ファイブヒバリーヒルズ,,株式会社,大阪府,大阪市西区,土佐堀１丁目３番７号肥後橋シミズビル３階,,27,106,5500001,,,,,,,2021-09-15,1,,,,,ファイブヒバリーヒルズ,0
2543,9120001240368,新規,0,2021-09-15,2021-09-15,株式会社Ｉ－ＤＥＡＬ,,株式会社,大阪府,大阪市中央区,上汐２丁目１－１０－７０１,,27,128,5420064,,,,,,,2021-09-15,1,,,,,アイディル,0
2544,9120001240426,新規,0,2021-09-15,2021-09-15,株式会社ウィルフードプランニング,,株式会社,大阪府,枚方市,都丘町２２番１０－１０１号,,27,210,5731165,,,,,,,2021-09-15,1,,,,,ウィルフードプランニング,0
2547,9120003020231,新規,0,2021-09-15,2021-09-15,秘書代行合同会社,,合同会社,大阪府,大阪市北区,梅田１丁目２番２号大阪駅前第２ビル２階５－６号室,,27,127,5300001,,,,,,,2021-09-15,1,,,,,ヒショダイコウ,0
2548,9120005022498,新規,0,2021-09-15,2021-09-15,一般社団法人ＤＥＳＩＧＮ　ＯＦ　ＱＯＬ　ＡＳＳＯＣＩＡＴＩＯＮ,,その他の設立登記法人,大阪府,大阪市福島区,福島１丁目１番４８号堂島クロスウォーク１Ｆ,,27,103,5530003,,,,,,,2021-09-15,1,,,,,デザインオブキューオーエルアソシエイション,0
2553,9120901044892,新規,0,2021-09-15,2021-09-15,アイアカウンティングサービス株式会社,,株式会社,大阪府,豊中市,新千里西町２丁目２４番３０－４０６号,,27,203,5600083,,,,,,,2021-09-15,1,,,,,アイアカウンティングサービス,0
2554,9120903003822,新規,0,2021-09-15,2021-09-15,ゼニス合同会社,,合同会社,大阪府,豊中市,中桜塚３丁目１０番１２－３０６号,,27,203,5610881,,,,,,,2021-09-15,1,,,,,ゼニス,0
2569,9140001123018,新規,0,2021-09-15,2021-09-15,株式会社ＲｕｎｗａＹ,,株式会社,兵庫県,神戸市中央区,元町通１丁目１３番１２号,,28,110,6500022,,,,,,,2021-09-15,1,,,,,ランウェイ,0
2570,9140001123026,新規,0,2021-09-15,2021-09-15,株式会社ＭＥＸＣＥＥＤ,,株式会社,兵庫県,加東市,新町８１番地,,28,228,6790204,,,,,,,2021-09-15,1,,,,,メクシード,0
2571,9140001123050,新規,0,2021-09-15,2021-09-15,株式会社坂福笑店,,株式会社,兵庫県,神戸市中央区,磯上通８丁目１番２９号カサベラビルＣ＆Ｍ４０３号室,,28,110,6510086,,,,,,,2021-09-15,1,,,,,サカフクショウテン,0
2572,9140003016748,新規,0,2021-09-15,2021-09-15,ＩＮＦＴＥＸ合同会社,,合同会社,兵庫県,神戸市中央区,下山手通２丁目１３－３建創ビル９階６８号,,28,110,6500011,,,,,,,2021-09-15,1,,,,,インフテックス,0
2573,9140005025805,新規,0,2021-09-15,2021-09-15,一般社団法人ため池みらい研究所,,その他の設立登記法人,兵庫県,加古川市,神野町神野６９０番地１号,,28,210,6750003,,,,,,,2021-09-15,1,,,,,タメイケミライケンキュウジョ,0
2576,9150005009328,新規,0,2021-09-15,2021-09-15,一般社団法人千,,その他の設立登記法人,奈良県,生駒市,門前町５番６３号,,29,209,6300266,,,,,,,2021-09-15,1,,,,,セン,0
2589,9180001147814,新規,0,2021-09-15,2021-09-15,ＹｕＭａＨ株式会社,,株式会社,愛知県,名古屋市千種区,山門町２丁目８０番地の１覚王山テラス４０４,,23,101,4640064,,,,,,,2021-09-15,1,,,,,ユマエイチ,0
2590,9180001147839,新規,0,2021-09-15,2021-09-15,株式会社ＣＦ　ＷＯＲＬＤ　ＩＲＯＮ,,株式会社,愛知県,名古屋市天白区,植田３丁目１５０１番地,,23,116,4680051,,,,,,,2021-09-15,1,,,,,シーエフワールドアイアン,0
2591,9180001147847,新規,0,2021-09-15,2021-09-15,チャージクラブ株式会社,,株式会社,愛知県,名古屋市中区,丸の内２丁目１番３７号,,23,106,4600002,,,,,,,2021-09-15,1,,,,,チャージクラブ,0
2592,9180001147863,新規,0,2021-09-15,2021-09-15,株式会社間瀬,,株式会社,愛知県,名古屋市熱田区,一番３丁目６番１１号,,23,109,4560053,,,,,,,2021-09-15,1,,,,,マセ,0
2593,9180001147871,新規,0,2021-09-15,2021-09-15,株式会社松門,,株式会社,愛知県,海部郡大治町,大字西條字大辻１００番地の１,,23,424,4901144,,,,,,,2021-09-15,1,,,,,マツカド,0
2598,9190001028682,新規,0,2021-09-15,2021-09-15,株式会社Ｈｕｍａｎ　Ｇｏｌｄｅｎ　ａｃａｄｅｍｙ,,株式会社,三重県,津市,阿漕町津興２４８９番地マイプレイスⅡ２０２,00124237,24,201,5140811,,,,,,,2021-09-15,1,,,,,ヒューマンゴールデンアカデミー,0
2603,9220001024430,新規,0,2021-09-15,2021-09-15,株式会社夢が叶うぞっ,,株式会社,石川県,金沢市,笠市町８番１号,,17,201,9200851,,,,,,,2021-09-15,1,,,,,ユメガカナウゾッ,0
2619,9240001058591,新規,0,2021-09-15,2021-09-15,株式会社エンプロイーズワン,,株式会社,広島県,広島市安佐南区,伴東７丁目５５番６－２０３号,,34,105,7313164,,,,,,,2021-09-15,1,,,,,エンプロイーズワン,0
2620,9240001058609,新規,0,2021-09-15,2021-09-15,株式会社アイアル,,株式会社,広島県,尾道市,向島町５５５７番地３０,,34,205,7220073,,,,,,,2021-09-15,1,,,,,アイアル,0
2625,9250001019130,新規,0,2021-09-15,2021-09-15,株式会社ハル・システム,,株式会社,山口県,下関市,豊浦町大字黒井６３４番地３７,,35,201,7596312,,,,,,,2021-09-15,1,,,,,ハルシステム,0
2627,9270001008354,新規,0,2021-09-15,2021-09-15,源吉兆庵乳業株式会社,,株式会社,鳥取県,米子市,流通町４３０番地２８,,31,202,6893547,,,,,,,2021-09-15,1,,,,,ミナモトキッチョウアンニュウギョウ,0
2634,9290001094533,新規,0,2021-09-15,2021-09-15,株式会社ＲＹＵＧＥＲ,,株式会社,福岡県,福岡市西区,今津４７９８番地４５５,,40,135,8190165,,,,,,,2021-09-15,1,,,,,リューガー,0
2635,9290001094582,新規,0,2021-09-15,2021-09-15,株式会社加藤造園建設,,株式会社,福岡県,春日市,大和町３丁目２３番地１プレア大和２０２,,40,218,8160874,,,,,,,2021-09-15,1,,,,,カトウゾウエンケンセツ,0
2636,9290001094632,新規,0,2021-09-15,2021-09-15,株式会社ＳＰＥＥＤ　ｓｐｒｉｎｇ,,株式会社,福岡県,福岡市東区,香椎駅前２丁目１５－５０橋口ビル２０１,,40,131,8130013,,,,,,,2021-09-15,1,,,,,スピードスプリング,0
2637,9290001094657,新規,0,2021-09-15,2021-09-15,株式会社Ｃｒｅａｒｓ,,株式会社,福岡県,福岡市東区,三苫７丁目１６番１５号,,40,131,8110201,,,,,,,2021-09-15,1,,,,,クリアース,0
2641,9290005018364,新規,0,2021-09-15,2021-09-15,一般社団法人糸島デーリィサポート,,その他の設立登記法人,福岡県,福岡市西区,周船寺１丁目１３番４号,,40,135,8190373,,,,,,,2021-09-15,1,,,,,イトシマデーリィサポート,0
2643,9290801027799,新規,0,2021-09-15,2021-09-15,株式会社ＡＣＥ物流,,株式会社,福岡県,豊前市,大字八屋４９１番地１,,40,214,8280021,,,,,,,2021-09-15,1,,,,,エースブツリュウ,0
2646,9310001017474,新規,0,2021-09-15,2021-09-15,佐世保食品科学工房株式会社,,株式会社,長崎県,佐世保市,権常寺町５８０番地２,,42,202,8593213,,,,,,,2021-09-15,1,,,,,サセボショクヒンカガクコウボウ,0
2654,9350001017306,新規,0,2021-09-15,2021-09-15,株式会社Ｆ－ＴＲＵＳＴ,,株式会社,宮崎県,小林市,堤２７８９番地４,,45,205,8860003,,,,,,,2021-09-15,1,,,,,エフトラスト,0
2658,9370001047598,新規,0,2021-09-15,2021-09-15,株式会社ＭＹ　ＴＯＷＮ,,株式会社,宮城県,塩竈市,清水沢１丁目２１番１１号,,04,203,9850061,,,,,,,2021-09-15,1,,,,,マイタウン,0
2661,9370003005389,新規,0,2021-09-15,2021-09-15,合同会社ｔｏｔｔｙ,,合同会社,宮城県,仙台市宮城野区,新田３丁目１７番５号,,04,102,9830038,,,,,,,2021-09-15,1,,,,,トッティ,0
2663,9380001032194,新規,0,2021-09-15,2021-09-15,株式会社Ｐ＆Ｅ,,株式会社,福島県,河沼郡会津坂下町,大字牛川字村中甲２３６６番地,,07,421,9696576,,,,,,,2021-09-15,1,,,,,ピーアンドイー,0
2664,9380001032203,新規,0,2021-09-15,2021-09-15,ＮＰＯネットワーク株式会社,,株式会社,福島県,いわき市,中央台鹿島１丁目２４番地の７,,07,204,9708043,,,,,,,2021-09-15,1,,,,,エヌピーオーネットワーク,0
2666,9400001015601,新規,0,2021-09-15,2021-09-15,株式会社ＳＨＧ．シティプラザ北上,,株式会社,岩手県,北上市,川岸１丁目１４番１号,,03,206,0240032,,,,,,,2021-09-15,1,,,,,エスエイチジーシティプラザキタカミ,0
2669,9420001017587,新規,0,2021-09-15,2021-09-15,株式会社大山水産,,株式会社,青森県,八戸市,新湊１丁目９番６号,,02,203,0310811,,,,,,,2021-09-15,1,,,,,オオヤマスイサン,0
2676,9430001084940,新規,0,2021-09-15,2021-09-15,株式会社Ｒｉｓｅｆｏｒｃｅ,,株式会社,北海道,苫小牧市,錦町１丁目４番１０号錦町プラザ１Ｆ,,01,213,0530023,,,,,,,2021-09-15,1,,,,,ライズフォース,0
2677,9430001084973,新規,0,2021-09-15,2021-09-15,ＣＨＡＣＨＡＣＯ管理株式会社,,株式会社,北海道,札幌市中央区,大通東３丁目４番地１,,01,101,0600041,,,,,,,2021-09-15,1,,,,,チャチャコカンリ,0
2678,9430001084981,新規,0,2021-09-15,2021-09-15,株式会社リュクレア,,株式会社,北海道,札幌市北区,麻生町５丁目５番１１号,,01,102,0010045,,,,,,,2021-09-15,1,,,,,リュクレア,0
2679,9430003013146,新規,0,2021-09-15,2021-09-15,合同会社大誠,,合同会社,北海道,札幌市中央区,南二条東１丁目１－１３,,01,101,0600052,,,,,,,2021-09-15,1,,,,,タイセイ,0
2680,9430003013154,新規,0,2021-09-15,2021-09-15,平和医療合同会社,,合同会社,北海道,札幌市西区,平和一条６丁目７番１６号,,01,107,0630021,,,,,,,2021-09-15,1,,,,,ヘイワイリョウ,0
2681,9430005014282,新規,0,2021-09-15,2021-09-15,医療法人寧和会,,その他の設立登記法人,北海道,札幌市西区,二十四軒三条１丁目１番１８号メディカルスクエア二十四軒　２階,,01,107,0630803,,,,,,,2021-09-15,1,,,,,ネイワカイ,0
2684,9460001005596,新規,0,2021-09-15,2021-09-15,株式会社Ｋｉｌｉｇ　ｇｒｅｅｎ,,株式会社,北海道,釧路市,文苑４丁目４９番１２号,,01,206,0850063,,,,,,,2021-09-15,1,,,,,キリググリーン,0
2686,9470001018713,新規,0,2021-09-15,2021-09-15,株式会社野村自動車,,株式会社,香川県,善通寺市,吉原町１６０番地１,,37,204,7650061,,,,,,,2021-09-15,1,,,,,ノムラジドウシャ,0
