sequenceNumber,corporateNumber,process,correct,updateDate,changeDate,name,nameImageId,kind,prefectureName,cityName,streetNumber,addressImageId,prefectureCode,cityCode,postCode,addressOutside,addressOutsideImageId,closeDate,closeCause,successorCorporateNumber,changeCause,assignmentDate,latest,enName,enPrefectureName,enCityName,enAddressOutside,furigana,hihyoji
6,1010001227771,新規,0,2022-07-08,2022-07-08,株式会社リム,,株式会社,東京都,中央区,勝どき２丁目１０番１６－１００７号,,13,102,1040054,,,,,,,2022-07-08,1,,,,,リム,0
7,1010001227887,新規,0,2022-07-08,2022-07-08,株式会社エンガワコミュニケーション,,株式会社,東京都,中央区,新富１丁目４番３号レプレビル４階,,13,102,1040041,,,,,,,2022-07-08,1,,,,,エンガワコミュニケーション,0
8,1010001227895,新規,0,2022-07-08,2022-07-08,株式会社ふかまる,,株式会社,東京都,中央区,銀座６丁目１４番８銀座石井ビル,,13,102,1040061,,,,,,,2022-07-08,1,,,,,フカマル,0
9,1010001227912,新規,0,2022-07-08,2022-07-08,ａｉ‐ｋｅｎ株式会社,,株式会社,東京都,中央区,銀座１丁目１２番４号Ｎ＆ＥＢＬＤ．６Ｆ,,13,102,1040061,,,,,,,2022-07-08,1,,,,,アイケン,0
10,1010001227920,新規,0,2022-07-08,2022-07-08,株式会社ＢＰＦ,,株式会社,東京都,中央区,京橋１丁目１番５号セントラルビル２Ｆ、ｆａｂｂｉｔ京橋,,13,102,1040031,,,,,,,2022-07-08,1,,,,,ビーピーエフ,0
11,1010001227929,新規,0,2022-07-08,2022-07-08,インタージス日本株式会社,,株式会社,東京都,中央区,日本橋兜町５番１号兜町第一平和ビル３階,,13,102,1030026,,,,,,,2022-07-08,1,,,,,インタージスニホン,0
14,1010003038069,新規,0,2022-07-08,2022-07-08,合同会社Ｃｅｐｈｅｕｓ,,合同会社,東京都,千代田区,丸の内３丁目１番１号東京共同会計事務所内,,13,101,1000005,,,,,,,2022-07-08,1,,,,,ケペウス,0
21,1010401168368,新規,0,2022-07-08,2022-07-08,株式会社花梨堂,,株式会社,東京都,港区,海岸１丁目２番２０号汐留ビルディング３階,,13,103,1050022,,,,,,,2022-07-08,1,,,,,カリンドウ,0
24,1010403028033,新規,0,2022-07-08,2022-07-08,合同会社まくり,,合同会社,東京都,港区,赤坂９丁目１番７号,,13,103,1070052,,,,,,,2022-07-08,1,,,,,マクリ,0
27,1010501049096,新規,0,2022-07-08,2022-07-08,株式会社Ｒａｖｙ,,株式会社,東京都,台東区,三筋１丁目１２－６赤木屋ビル３階,,13,106,1110055,,,,,,,2022-07-08,1,,,,,ラヴィ,0
29,1010601061455,新規,0,2022-07-08,2022-07-08,コンポートホールディングス株式会社,,株式会社,東京都,江東区,東雲２丁目１４番４号マルサダビル２階,,13,108,1350062,,,,,,,2022-07-08,1,,,,,コンポートホールディングス,0
32,1010701042933,新規,0,2022-07-08,2022-07-08,株式会社オールフォアワン,,株式会社,東京都,品川区,西五反田８丁目２－１２アール五反田７Ａ,,13,109,1410031,,,,,,,2022-07-08,1,,,,,オールフォアワン,0
42,1010901051156,新規,0,2022-07-08,2022-07-08,株式会社ｚａｇｕｅｉｒｏ,,株式会社,東京都,世田谷区,野毛２丁目２０番２３－３１２号,,13,112,1580092,,,,,,,2022-07-08,1,,,,,ザゲーロ,0
43,1010901051197,新規,0,2022-07-08,2022-07-08,ペチカ株式会社,,株式会社,東京都,世田谷区,池尻２丁目３２番１１号ラ・カーサ・セレナータ３０２号室,,13,112,1540001,,,,,,,2022-07-08,1,,,,,ペチカ,0
44,1010901051214,新規,0,2022-07-08,2022-07-08,株式会社シンチレート,,株式会社,東京都,世田谷区,大原１丁目１９－１２サンハイム笹塚２０１,,13,112,1560041,,,,,,,2022-07-08,1,,,,,シンチレート,0
45,1010903007511,新規,0,2022-07-08,2022-07-08,合同会社石倉テクノロジー,,合同会社,東京都,世田谷区,上野毛４丁目１３－１５,,13,112,1580093,,,,,,,2022-07-08,1,,,,,イシクラテクノロジー,0
54,1011001148504,新規,0,2022-07-08,2022-07-08,ｎｏｗｈｅｒｅ株式会社,,株式会社,東京都,渋谷区,桜丘町６－６シティベース桜丘４０１,,13,113,1500031,,,,,,,2022-07-08,1,,,,,ノーウェア,0
55,1011001148512,新規,0,2022-07-08,2022-07-08,オーエス株式会社,,株式会社,東京都,渋谷区,渋谷１丁目１５－１２レイドアウト渋谷２０４,,13,113,1500002,,,,,,,2022-07-08,1,,,,,オーエス,0
56,1011001148537,新規,0,2022-07-08,2022-07-08,株式会社ＯＮＳｅｅ,,株式会社,東京都,渋谷区,神宮前６丁目２３番４号桑野ビル２階,,13,113,1500001,,,,,,,2022-07-08,1,,,,,オンシー,0
57,1011001148545,新規,0,2022-07-08,2022-07-08,株式会社ＥＬＫＳ,,株式会社,東京都,渋谷区,恵比寿１丁目１５－９日宝恵比寿ビル４０３,,13,113,1500013,,,,,,,2022-07-08,1,,,,,エルクス,0
58,1011001148553,新規,0,2022-07-08,2022-07-08,Ｔｒｙｃｅ　ｔｅｃｈ株式会社,,株式会社,東京都,渋谷区,代々木１丁目３０番１４号,,13,113,1510053,,,,,,,2022-07-08,1,,,,,トライステック,0
59,1011001148561,新規,0,2022-07-08,2022-07-08,インディソフトウェア株式会社,,株式会社,東京都,渋谷区,神宮前６丁目２３番４号,,13,113,1500001,,,,,,,2022-07-08,1,,,,,インディソフトウェア,0
65,1011101099416,新規,0,2022-07-08,2022-07-08,株式会社ＢＬＵＮＴ,,株式会社,東京都,新宿区,四谷坂町１０－１２,,13,104,1600002,,,,,,,2022-07-08,1,,,,,ブラント,0
66,1011101099481,新規,0,2022-07-08,2022-07-08,株式会社ＰＯＴＥ,,株式会社,東京都,新宿区,西新宿３丁目３番１３号西新宿水間ビル６階,,13,104,1600023,,,,,,,2022-07-08,1,,,,,ポテ,0
77,1011703003188,新規,0,2022-07-08,2022-07-08,合同会社ＭＫｚ　ｓｑｕａｒｅ,,合同会社,東京都,江戸川区,北葛西１丁目２５番３号,,13,123,1340081,,,,,,,2022-07-08,1,,,,,エムケーズスクエア,0
82,1011801040959,新規,0,2022-07-08,2022-07-08,呈禾株式会社,,株式会社,東京都,足立区,竹の塚２丁目２９番１３－２０４号,,13,121,1210813,,,,,,,2022-07-08,1,,,,,テイカ,0
83,1011801040967,新規,0,2022-07-08,2022-07-08,株式会社レベラ,,株式会社,東京都,葛飾区,東金町５丁目１３番１６号２０６,,13,122,1250041,,,,,,,2022-07-08,1,,,,,レベラ,0
91,1012703002493,新規,0,2022-07-08,2022-07-08,合同会社すばる,,合同会社,東京都,清瀬市,松山２丁目１５番２号すばるハイツ３０２号,,13,221,2040022,,,,,,,2022-07-08,1,,,,,スバル,0
104,1020003022039,新規,0,2022-07-08,2022-07-08,杉村トラスト合同会社,,合同会社,神奈川県,川崎市中原区,小杉町３丁目１５０１番地２、９１１,,14,133,2110063,,,,,,,2022-07-08,1,,,,,スギムラトラスト,0
105,1020003022063,新規,0,2022-07-08,2022-07-08,合同会社Ｐａｒａｌｅ,,合同会社,神奈川県,横浜市旭区,今宿町２５７２番地３,,14,112,2410813,,,,,,,2022-07-08,1,,,,,パラリ,0
106,1020005015593,新規,0,2022-07-08,2022-07-08,税理士法人ゼム,,その他の設立登記法人,神奈川県,横浜市金沢区,谷津町３４７番地２第２オオサワビル３０２号,,14,108,2360016,,,,,,,2022-07-08,1,,,,,ゼム,0
111,1030001149064,新規,0,2022-07-08,2022-07-08,株式会社はうす建設,,株式会社,埼玉県,川越市,上野田町８番地２７レジデンス上野田２０５号室,,11,201,3501112,,,,,,,2022-07-08,1,,,,,ハウスケンセツ,0
112,1030001149114,新規,0,2022-07-08,2022-07-08,株式会社ステージワン,,株式会社,埼玉県,朝霞市,栄町１丁目５番１０－４０４号,,11,227,3510012,,,,,,,2022-07-08,1,,,,,ステージワン,0
113,1030001149130,新規,0,2022-07-08,2022-07-08,株式会社ＬＩＮＯＣＡＰＩＴＡＬ,,株式会社,埼玉県,さいたま市大宮区,櫛引町１丁目２８６番地５,,11,103,3300851,,,,,,,2022-07-08,1,,,,,リノキャピタル,0
114,1030001149147,新規,0,2022-07-08,2022-07-08,株式会社嵐山エッグファクトリー,,株式会社,埼玉県,比企郡嵐山町,大字川島１７４１番地２,,11,342,3550213,,,,,,,2022-07-08,1,,,,,ランザンエッグファクトリー,0
115,1030001149155,新規,0,2022-07-08,2022-07-08,ｆａｋｅ株式会社,,株式会社,埼玉県,北葛飾郡杉戸町,内田１丁目４番３５号,,11,464,3450035,,,,,,,2022-07-08,1,,,,,フェイク,0
118,1030003019703,新規,0,2022-07-08,2022-07-08,＿源合同会社,00127147,合同会社,埼玉県,ふじみ野市,駒西２丁目９番２７号,,11,245,3560029,,,,,,,2022-07-08,1,,,,,シンゲン,0
119,1030003019736,新規,0,2022-07-08,2022-07-08,合同会社イズミ,,合同会社,埼玉県,和光市,新倉３丁目１番６３－５０６号,,11,229,3510115,,,,,,,2022-07-08,1,,,,,イズミ,0
120,1030003019752,新規,0,2022-07-08,2022-07-08,ｎｒｃ合同会社,,合同会社,埼玉県,さいたま市桜区,田島１丁目３番２２号,,11,106,3380837,,,,,,,2022-07-08,1,,,,,エヌアールシー,0
121,1030003019769,新規,0,2022-07-08,2022-07-08,合同会社ベジワーク,,合同会社,埼玉県,川越市,大字今福５３５,,11,201,3501151,,,,,,,2022-07-08,1,,,,,ベジワーク,0
124,1040001124124,新規,0,2022-07-08,2022-07-08,キヨノ塗装工業株式会社,,株式会社,千葉県,千葉市花見川区,作新台６丁目１９番５号,,12,102,2620045,,,,,,,2022-07-08,1,,,,,キヨノトソウコウギョウ,0
125,1040001124140,新規,0,2022-07-08,2022-07-08,株式会社スギコーポレーション,,株式会社,千葉県,松戸市,東平賀２４０番地,,12,207,2700003,,,,,,,2022-07-08,1,,,,,スギコーポレーション,0
126,1040001124149,新規,0,2022-07-08,2022-07-08,ＭＹ　ＷＯＲＬＤ株式会社,,株式会社,千葉県,銚子市,三軒町１３番地の４,,12,202,2880045,,,,,,,2022-07-08,1,,,,,マイワールド,0
127,1040001124165,新規,0,2022-07-08,2022-07-08,株式会社タバタメタルワークス,,株式会社,千葉県,四街道市,鹿渡１０２２番地１,,12,228,2840003,,,,,,,2022-07-08,1,,,,,タバタメタルワークス,0
128,1040001124181,新規,0,2022-07-08,2022-07-08,株式会社ＥＸＡ,,株式会社,千葉県,船橋市,二和西５丁目９番４８号,,12,204,2740806,,,,,,,2022-07-08,1,,,,,エクサ,0
131,1040003020379,新規,0,2022-07-08,2022-07-08,別館合同会社,,合同会社,千葉県,船橋市,前原西２丁目１２番１３号３階,,12,204,2740825,,,,,,,2022-07-08,1,,,,,ベッカン,0
132,1040003020387,新規,0,2022-07-08,2022-07-08,合同会社アットｋｎｏｔ,,合同会社,千葉県,八千代市,村上１１１３番地１－１街区１２棟１０４号,,12,221,2760028,,,,,,,2022-07-08,1,,,,,アットノット,0
133,1040005021672,新規,0,2022-07-08,2022-07-08,一般社団法人猫の森,,その他の設立登記法人,千葉県,船橋市,習志野台２丁目７２番１４号,,12,204,2740063,,,,,,,2022-07-08,1,,,,,ネコノモリ,0
139,1070001039410,新規,0,2022-07-08,2022-07-08,株式会社グリンアス,,株式会社,群馬県,前橋市,敷島町２４０番地８２,,10,201,3710036,,,,,,,2022-07-08,1,,,,,グリンアス,0
140,1070001039419,新規,0,2022-07-08,2022-07-08,ニャジィー株式会社,,株式会社,群馬県,館林市,成島町１５６３番地の８,,10,207,3740055,,,,,,,2022-07-08,1,,,,,ニャジィー,0
142,1070003004536,新規,0,2022-07-08,2022-07-08,Ａｎｄ　Ｓｍｉｌｅ合同会社,,合同会社,群馬県,高崎市,連雀町１２番地１－７０１号,,10,202,3700826,,,,,,,2022-07-08,1,,,,,アンドスマイル,0
146,1080003002828,新規,0,2022-07-08,2022-07-08,合同会社ＫＡＮＤＯ,,合同会社,静岡県,静岡市清水区,中之郷１丁目１－６ＫＳビル１－Ｂ,,22,103,4240888,,,,,,,2022-07-08,1,,,,,カンドウ,0
152,1100001035488,新規,0,2022-07-08,2022-07-08,株式会社オカニワ建工,,株式会社,長野県,塩尻市,大字広丘郷原１５９９番地１,,20,215,3990704,,,,,,,2022-07-08,1,,,,,オカニワケンコウ,0
153,1100001035496,新規,0,2022-07-08,2022-07-08,株式会社瀧建築,,株式会社,長野県,東御市,県１９２番地３,,20,219,3890517,,,,,,,2022-07-08,1,,,,,タキケンチク,0
154,1100001035505,新規,0,2022-07-08,2022-07-08,株式会社宮澤悠維教育研究所,,株式会社,長野県,諏訪郡原村,１７２１７番地１１４丸山の森Ｃ－３６,,20,363,3910100,,,,,,,2022-07-08,1,,,,,ミヤザワユウイキョウイクケンキュウジョ,0
155,1100001035513,新規,0,2022-07-08,2022-07-08,株式会社ドゥモンターニュタテシナ,,株式会社,長野県,北佐久郡立科町,大字牛鹿２３５６番地１,,20,324,3842308,,,,,,,2022-07-08,1,,,,,ドゥモンターニュタテシナ,0
171,1120001247115,新規,0,2022-07-08,2022-07-08,日本直販株式会社,,株式会社,大阪府,大阪市北区,梅田１丁目２番２号,,27,127,5300001,,,,,,,2022-07-08,1,,,,,ニホンチョクハン,0
172,1120001247164,新規,0,2022-07-08,2022-07-08,大阪本町コンサルティング株式会社,,株式会社,大阪府,大阪市中央区,淡路町３丁目２番８号トーア紡第２ビル（５０３号）,,27,128,5410047,,,,,,,2022-07-08,1,,,,,オオサカホンマチコンサルティング,0
173,1120001247206,新規,0,2022-07-08,2022-07-08,株式会社３Ｂｒａｎｃｈ,,株式会社,大阪府,大阪市阿倍野区,天王寺町北１丁目３番３号,,27,119,5450001,,,,,,,2022-07-08,1,,,,,スリーブランチ,0
179,1120101065870,新規,0,2022-07-08,2022-07-08,株式会社ＮＡＳＥＬ,,株式会社,大阪府,貝塚市,清児６６５番地３サンシティ貝塚１番館１１０９号室,,27,208,5970041,,,,,,,2022-07-08,1,,,,,ナセル,0
186,1120901046211,新規,0,2022-07-08,2022-07-08,株式会社プラスと,,株式会社,大阪府,豊中市,浜３丁目５番２８号,,27,203,5610817,,,,,,,2022-07-08,1,,,,,プラスト,0
190,1122001036043,新規,0,2022-07-08,2022-07-08,株式会社ＧＯｎＴＡ,,株式会社,大阪府,四條畷市,大字下田原１２３０番地の１,,27,229,5750012,,,,,,,2022-07-08,1,,,,,ゴンタ,0
191,1122001036051,新規,0,2022-07-08,2022-07-08,株式会社カラフル,,株式会社,大阪府,八尾市,田井中４丁目１７４番地の１,,27,212,5810095,,,,,,,2022-07-08,1,,,,,カラフル,0
195,1140001126589,新規,0,2022-07-08,2022-07-08,Ａｂｏｖｅ　Ｌｉｂｅｒｔｙ株式会社,,株式会社,兵庫県,三木市,志染町青山６丁目２１番地の１０,,28,215,6730521,,,,,,,2022-07-08,1,,,,,アバヴリバティ,0
196,1140001126688,新規,0,2022-07-08,2022-07-08,株式会社バリューサプリ,,株式会社,兵庫県,川西市,萩原台西２丁目３１１番地,,28,217,6660006,,,,,,,2022-07-08,1,,,,,バリューサプリ,0
197,1140001126754,新規,0,2022-07-08,2022-07-08,株式会社大和テック,,株式会社,兵庫県,明石市,沢野南町１丁目５番４号,,28,203,6730019,,,,,,,2022-07-08,1,,,,,ダイワテック,0
199,1140003017877,新規,0,2022-07-08,2022-07-08,合同会社ＭＡＳＹ２,,合同会社,兵庫県,神戸市東灘区,本山中町４丁目９番２３－１号,,28,101,6580016,,,,,,,2022-07-08,1,,,,,マーシーツー,0
200,1140003017885,新規,0,2022-07-08,2022-07-08,合同会社ＳＨＩＮＳＡＫＵ,,合同会社,兵庫県,三木市,別所町興治６２８番地,,28,215,6730442,,,,,,,2022-07-08,1,,,,,シンサク,0
204,1170001017166,新規,0,2022-07-08,2022-07-08,株式会社Ｋ＆Ｃｏ．,,株式会社,和歌山県,和歌山市,手平２丁目５－４７フレグランス手平１０３号室,,30,201,6408319,,,,,,,2022-07-08,1,,,,,ケイアンドコー,0
212,1180001151906,新規,0,2022-07-08,2022-07-08,株式会社シキナ,,株式会社,愛知県,名古屋市西区,花の木３丁目１９番２号,,23,104,4510062,,,,,,,2022-07-08,1,,,,,シキナ,0
213,1180001152103,新規,0,2022-07-08,2022-07-08,株式会社雄飛,,株式会社,愛知県,名古屋市北区,上飯田南町５丁目３番地－３０３,,23,103,4620804,,,,,,,2022-07-08,1,,,,,ユウヒ,0
214,1180001152111,新規,0,2022-07-08,2022-07-08,ＯＮＥ　ＧＬＯＢＡＬ　ＩＮＳＵＲＡＮＣＥ株式会社,,株式会社,愛知県,名古屋市西区,牛島町６－１名古屋ル－セントタワ－４０Ｆ　Ｓｅｒｖｃｏｒｐ,,23,104,4510046,,,,,,,2022-07-08,1,,,,,ワングローバルインシュランス,0
215,1180001152136,新規,0,2022-07-08,2022-07-08,株式会社ＷＡ　ｃｏｎｎｅｃｔ,,株式会社,愛知県,名古屋市東区,東桜２丁目３３８東桜マンション７０１,,23,102,4610005,,,,,,,2022-07-08,1,,,,,ワコネクト,0
220,1180301036393,新規,0,2022-07-08,2022-07-08,株式会社甲斐工業,,株式会社,愛知県,碧南市,照光町４丁目４８番地,,23,209,4470027,,,,,,,2022-07-08,1,,,,,カイコウギョウ,0
221,1180301036410,新規,0,2022-07-08,2022-07-08,株式会社リユニオン,,株式会社,愛知県,蒲郡市,竹谷町油井２９番の９,,23,214,4430046,,,,,,,2022-07-08,1,,,,,リユニオン,0
222,1180303005388,新規,0,2022-07-08,2022-07-08,合同会社ＡＳＭＲ　Ｃｒｅａｔｅ,,合同会社,愛知県,豊田市,西岡町保ケ山６番地９,,23,211,4730936,,,,,,,2022-07-08,1,,,,,エーエスエムアールクリエイト,0
225,1190001029606,新規,0,2022-07-08,2022-07-08,青山設備株式会社,,株式会社,三重県,松阪市,殿村町６７０番地,,24,204,5150843,,,,,,,2022-07-08,1,,,,,アオヤマセツビ,0
227,1190003004012,新規,0,2022-07-08,2022-07-08,合同会社ｋｅｗ,,合同会社,三重県,桑名市,駅元町９―１５０２,,24,205,5110071,,,,,,,2022-07-08,1,,,,,キュー,0
243,1240001060076,新規,0,2022-07-08,2022-07-08,株式会社ナガマツ,,株式会社,広島県,広島市西区,古江西町９番４７－１８号,,34,104,7330874,,,,,,,2022-07-08,1,,,,,ナガマツ,0
256,1290001098153,新規,0,2022-07-08,2022-07-08,株式会社ＯＮＳ,,株式会社,福岡県,柳川市,三橋町垂見１６９１番地１,,40,207,8320814,,,,,,,2022-07-08,1,,,,,オンス,0
257,1290001098211,新規,0,2022-07-08,2022-07-08,セムフクオカ株式会社,,株式会社,福岡県,福岡市東区,多の津１丁目１０番８号,,40,131,8130034,,,,,,,2022-07-08,1,,,,,セムフクオカ,0
258,1290001098228,新規,0,2022-07-08,2022-07-08,株式会社ＨＡＰＰＹ　ＩＮＮＯＶＡＴＥ,,株式会社,福岡県,那珂川市,松木３丁目１６,,40,231,8111251,,,,,,,2022-07-08,1,,,,,ハッピーイノベイト,0
259,1290005018743,新規,0,2022-07-08,2022-07-08,一般社団法人デモクラティック・スクール・マネジメント,,その他の設立登記法人,福岡県,福岡市早良区,東入部１丁目４１番３号,,40,137,8111102,,,,,,,2022-07-08,1,,,,,デモクラティックスクールマネジメント,0
266,1340001024855,新規,0,2022-07-08,2022-07-08,株式会社上山養豚,,株式会社,鹿児島県,鹿屋市,祓川町５６２０番地３,,46,203,8930026,,,,,,,2022-07-08,1,,,,,ウエヤマヨウトン,0
269,1360001030661,新規,0,2022-07-08,2022-07-08,株式会社ＲＣ　ＨＯＰＥ,,株式会社,沖縄県,中頭郡北谷町,字桑江４７３番地５国体マンション１０２,,47,326,9040103,,,,,,,2022-07-08,1,,,,,アールシーホープ,0
270,1360001030678,新規,0,2022-07-08,2022-07-08,株式会社伊集組,,株式会社,沖縄県,島尻郡八重瀬町,字東風平７７番地,,47,362,9010401,,,,,,,2022-07-08,1,,,,,イジュグミ,0
271,1360001030686,新規,0,2022-07-08,2022-07-08,株式会社石垣マーケット,,株式会社,沖縄県,石垣市,字伊原間２３１番地１２,,47,207,9070332,,,,,,,2022-07-08,1,,,,,イシガキマーケット,0
274,1370001048777,新規,0,2022-07-08,2022-07-08,株式会社天野工務店,,株式会社,宮城県,石巻市,不動町２丁目１２番７号,,04,202,9860017,,,,,,,2022-07-08,1,,,,,アマノコウムテン,0
281,1390001016963,新規,0,2022-07-08,2022-07-08,まちづくりきらりいいで株式会社,,株式会社,山形県,西置賜郡飯豊町,大字椿４４９４番地,,06,403,9990604,,,,,,,2022-07-08,1,,,,,マチヅクリキラリイイデ,0
283,1400005008253,新規,0,2022-07-08,2022-07-08,一般社団法人人生まるごと支援センター,,その他の設立登記法人,岩手県,久慈市,川崎町１２番３号８０１,,03,207,0280051,,,,,,,2022-07-08,1,,,,,ジンセイマルゴトシエンセンター,0
286,1420001017917,新規,0,2022-07-08,2022-07-08,株式会社アグリーンハートプラス,,株式会社,青森県,黒石市,馬場尻東６１－１５,,02,204,0360504,,,,,,,2022-07-08,1,,,,,アグリーンハートプラス,0
308,2010001227829,新規,0,2022-07-08,2022-07-08,ＰＬＡＮＥＴ　ＢＬＵＥ株式会社,,株式会社,東京都,千代田区,丸の内１丁目１番３号,,13,101,1000005,,,,,,,2022-07-08,1,,,,,プラネットブルー,0
309,2010001227894,新規,0,2022-07-08,2022-07-08,株式会社ｃａｓｉｎ,,株式会社,東京都,中央区,八重洲２丁目５番８号日宝八重洲ビル２階,,13,102,1040028,,,,,,,2022-07-08,1,,,,,カシン,0
310,2010001227952,新規,0,2022-07-08,2022-07-08,株式会社ナナゴウクラス,,株式会社,東京都,中央区,晴海３丁目１０－１Ｄａｉｗａ晴海ビル２Ｆ,,13,102,1040053,,,,,,,2022-07-08,1,,,,,ナナゴウクラス,0
311,2010001228001,新規,0,2022-07-08,2022-07-08,株式会社ＨＴＳ,,株式会社,東京都,中央区,銀座７丁目１５番８号タウンハイツ銀座４０６,,13,102,1040061,,,,,,,2022-07-08,1,,,,,エイチティエス,0
312,2010003038068,新規,0,2022-07-08,2022-07-08,合同会社Ｃｏｍｕｓ,,合同会社,東京都,千代田区,丸の内３丁目１番１号東京共同会計事務所内,,13,101,1000005,,,,,,,2022-07-08,1,,,,,コーマス,0
315,2010005035245,新規,0,2022-07-08,2022-07-08,一般社団法人大洗ホテルプロジェクト,,その他の設立登記法人,東京都,中央区,日本橋１丁目４番１号,,13,102,1030027,,,,,,,2022-07-08,1,,,,,オオアライホテルプロジェクト,0
327,2010401168202,新規,0,2022-07-08,2022-07-08,株式会社ワイズキャリア,,株式会社,東京都,港区,赤坂１丁目１１番４４号,,13,103,1070052,,,,,,,2022-07-08,1,,,,,ワイズキャリア,0
328,2010401168292,新規,0,2022-07-08,2022-07-08,株式会社Ｄｅａ　ｅｓ,,株式会社,東京都,港区,赤坂６丁目１９番４６号フロムファースト六本木３０３,,13,103,1070052,,,,,,,2022-07-08,1,,,,,ディアエス,0
329,2010401168391,新規,0,2022-07-08,2022-07-08,株式会社Ｋ＆Ｔ　ｈｅｒｉｔａｇｅ,,株式会社,東京都,港区,海岸３丁目１８番２６号ペガソ２１海岸ビル５階,,13,103,1080022,,,,,,,2022-07-08,1,,,,,ケイアアンドティーヘリテイジ,0
330,2010401168400,新規,0,2022-07-08,2022-07-08,ＬＵＦ株式会社,,株式会社,東京都,港区,東麻布１丁目９番１５号,,13,103,1060044,,,,,,,2022-07-08,1,,,,,ラフ,0
331,2010401168409,新規,0,2022-07-08,2022-07-08,ＣＩＧアセットマネジメント株式会社,,株式会社,東京都,港区,白金１丁目６番２号,,13,103,1080072,,,,,,,2022-07-08,1,,,,,シーアイジーアセットマネジメント,0
332,2010401168433,新規,0,2022-07-08,2022-07-08,株式会社Ｓｈｉｎｙ　Ｒａｙ　Ｈｏｌｄｉｎｇｓ,,株式会社,東京都,港区,北青山２丁目７番２０号猪瀬ビル２階,,13,103,1070061,,,,,,,2022-07-08,1,,,,,シャイニーレイホールディングス,0
333,2010501049070,新規,0,2022-07-08,2022-07-08,株式会社メドコマース,,株式会社,東京都,台東区,浅草７丁目３番８号,,13,106,1110032,,,,,,,2022-07-08,1,,,,,メドコマース,0
334,2010503006631,新規,0,2022-07-08,2022-07-08,ＴＥＹ合同会社,,合同会社,東京都,台東区,浅草５丁目４６－９三浦商事ビル２階,,13,106,1110032,,,,,,,2022-07-08,1,,,,,テイ,0
335,2010503006648,新規,0,2022-07-08,2022-07-08,合同会社ＢＲＯＫＥＲＡＧＥ,,合同会社,東京都,台東区,上野桜木２丁目１番５号,,13,106,1100002,,,,,,,2022-07-08,1,,,,,ブローカレッジ,0
338,2010801033105,新規,0,2022-07-08,2022-07-08,アーキクラフト株式会社,,株式会社,東京都,大田区,田園調布本町１８番１８号,,13,111,1450072,,,,,,,2022-07-08,1,,,,,,0
340,2010803004228,新規,0,2022-07-08,2022-07-08,Ｍｉｔｏｃｈｏｎｄｒｉａ合同会社,,合同会社,東京都,大田区,蒲田４丁目２５番５号プラウドフラット蒲田ＩＩ－１３０１,00127142,13,111,1440052,,,,,,,2022-07-08,1,,,,,ミトコンドリア,0
342,2010901051188,新規,0,2022-07-08,2022-07-08,株式会社ＭＡＮＡＫＡＢＵＲＡ,,株式会社,東京都,世田谷区,玉川２丁目１８番２号メゾンドグラティア２０１,,13,112,1580094,,,,,,,2022-07-08,1,,,,,マナカブラ,0
343,2010903007510,新規,0,2022-07-08,2022-07-08,合同会社梅田商事,,合同会社,東京都,世田谷区,野毛２丁目２２－２１,,13,112,1580092,,,,,,,2022-07-08,1,,,,,ウメダショウジ,0
347,2011001148478,新規,0,2022-07-08,2022-07-08,株式会社プラウドリーベル,,株式会社,東京都,目黒区,下目黒１丁目２－２１,,13,110,1530064,,,,,,,2022-07-08,1,,,,,プラウドリーベル,0
348,2011003014934,新規,0,2022-07-08,2022-07-08,ｍｏｎｏ．合同会社,,合同会社,東京都,渋谷区,桜丘町２９番１７,,13,113,1500031,,,,,,,2022-07-08,1,,,,,モノ,0
349,2011005009643,新規,0,2022-07-08,2022-07-08,一般社団法人つなげる３０人,,その他の設立登記法人,東京都,渋谷区,宇田川町１６番８号,,13,113,1500042,,,,,,,2022-07-08,1,,,,,ツナゲルサンジュウニン,0
355,2011101099464,新規,0,2022-07-08,2022-07-08,瀛州株式会社,,株式会社,東京都,新宿区,榎町３４－３榎町ビル５階,,13,104,1620806,,,,,,,2022-07-08,1,,,,,エイシュウ,0
359,2011301027927,新規,0,2022-07-08,2022-07-08,株式会社サークル・バレー,,株式会社,東京都,杉並区,阿佐谷北３丁目２４番１９号,,13,115,1660001,,,,,,,2022-07-08,1,,,,,サークルバレー,0
363,2011601026075,新規,0,2022-07-08,2022-07-08,株式会社アースウェイ,,株式会社,東京都,練馬区,練馬１丁目２０番８号日建練馬ビル２Ｆ,,13,120,1760001,,,,,,,2022-07-08,1,,,,,アースウェイ,0
365,2011801040966,新規,0,2022-07-08,2022-07-08,株式会社かとりあん,,株式会社,東京都,葛飾区,白鳥１丁目１番１０号,,13,122,1250063,,,,,,,2022-07-08,1,,,,,カトリアン,0
366,2011801040982,新規,0,2022-07-08,2022-07-08,ＺＥＳＴ株式会社,,株式会社,東京都,葛飾区,東新小岩２丁目２０－１６ＥＥＲＦ８号,,13,122,1240023,,,,,,,2022-07-08,1,,,,,ゼイスター,0
369,2012401039382,新規,0,2022-07-08,2022-07-08,株式会社佐伯薬品,,株式会社,東京都,多摩市,東寺方５４４番地の７,,13,224,2060003,,,,,,,2022-07-08,1,,,,,サエキヤクヒン,0
371,2012703002492,新規,0,2022-07-08,2022-07-08,合同会社Ｃ＆Ｙ,,合同会社,東京都,西東京市,新町１丁目４番５－１１１０号,,13,229,2020023,,,,,,,2022-07-08,1,,,,,シーアンドワイ,0
374,2013101008974,新規,0,2022-07-08,2022-07-08,株式会社咲楽,,株式会社,東京都,青梅市,東青梅１丁目４番地の１１,,13,205,1980042,,,,,,,2022-07-08,1,,,,,サクラ,0
388,2020001147209,新規,0,2022-07-08,2022-07-08,ＬＡＧＵＮＡ株式会社,,株式会社,神奈川県,川崎市中原区,宮内１丁目８番５号,,14,133,2110051,,,,,,,2022-07-08,1,,,,,ラグナ,0
390,2020003022062,新規,0,2022-07-08,2022-07-08,サンシャインコンサルティングオフィス合同会社,,合同会社,神奈川県,川崎市高津区,久本２丁目４－１３－５０２,,14,134,2130011,,,,,,,2022-07-08,1,,,,,サンシャインコンサルティングオフィス,0
391,2020005015592,新規,0,2022-07-08,2022-07-08,社会保険労務士法人かもい事務所,,その他の設立登記法人,神奈川県,横浜市緑区,鴨居１丁目１５番２号ベルウッド鴨居３０１号室,,14,113,2260003,,,,,,,2022-07-08,1,,,,,カモイジムショ,0
394,2021001076439,新規,0,2022-07-08,2022-07-08,株式会社アペロ,,株式会社,神奈川県,鎌倉市,大町５丁目１８番３４号,,14,204,2480007,,,,,,,2022-07-08,1,,,,,アペロ,0
397,2021003011897,新規,0,2022-07-08,2022-07-08,合同会社外濱企画,,合同会社,神奈川県,厚木市,戸室４丁目１番地３０号ウィンドプラザ３０９,,14,212,2430031,,,,,,,2022-07-08,1,,,,,,0
398,2021003011922,新規,0,2022-07-08,2022-07-08,合同会社鎌倉塗装工芸,,合同会社,神奈川県,鎌倉市,笛田３丁目３７番９号,,14,204,2480027,,,,,,,2022-07-08,1,,,,,カマクラトソウコウゲイ,0
399,2021005012555,新規,0,2022-07-08,2022-07-08,特定非営利活動法人ごちゃまぜ,,その他の設立登記法人,神奈川県,厚木市,松枝１丁目１番２４号メゾン３ブリッジ２０１,,14,212,2430005,,,,,,,2022-07-08,1,,,,,ゴチャマゼ,0
405,2030001149030,新規,0,2022-07-08,2022-07-08,日精テクマ株式会社,,株式会社,埼玉県,川口市,朝日２丁目２２番３号,,11,203,3320001,,,,,,,2022-07-08,1,,,,,ニッセイテクマ,0
406,2030001149063,新規,0,2022-07-08,2022-07-08,ミュージックユニバース株式会社,,株式会社,埼玉県,川口市,坂下町２丁目７番１５号,,11,203,3340003,,,,,,,2022-07-08,1,,,,,ミュージックユニバース,0
407,2030001149096,新規,0,2022-07-08,2022-07-08,株式会社ファームＭＫ,,株式会社,埼玉県,さいたま市南区,白幡２丁目１１番２号,,11,108,3360022,,,,,,,2022-07-08,1,,,,,ファームエムケイ,0
408,2030001149105,新規,0,2022-07-08,2022-07-08,株式会社ＢＥＳＴ　ＳＭＩＬＥ,,株式会社,埼玉県,新座市,栗原３丁目３番１号,,11,230,3520035,,,,,,,2022-07-08,1,,,,,ベストスマイル,0
409,2030001149138,新規,0,2022-07-08,2022-07-08,株式会社よつは,,株式会社,埼玉県,春日部市,本田町２丁目５９番地４,,11,214,3440016,,,,,,,2022-07-08,1,,,,,ヨツハ,0
410,2030001149146,新規,0,2022-07-08,2022-07-08,株式会社Ｂｌｏｏｍ,,株式会社,埼玉県,さいたま市浦和区,神明２丁目２０番８号,,11,107,3300065,,,,,,,2022-07-08,1,,,,,ブルーム,0
417,2030003019751,新規,0,2022-07-08,2022-07-08,ＢＲＯＴＨＥＲＳ　ＴＲＡＤＩＮＧ合同会社,,合同会社,埼玉県,八潮市,緑町１丁目３９番地２３マインドハイツ３０１,,11,234,3400808,,,,,,,2022-07-08,1,,,,,ブラザーズトレイディング,0
421,2040001124148,新規,0,2022-07-08,2022-07-08,Ｒｉｎ工房株式会社,,株式会社,千葉県,我孫子市,新木３０７６番地の３,,12,222,2701112,,,,,,,2022-07-08,1,,,,,アールインコウボウ,0
422,2040001124156,新規,0,2022-07-08,2022-07-08,株式会社ＴＡ・ＫＥ・ＳＨＩ,,株式会社,千葉県,柏市,旭町１丁目２番８号ネモト第三ビル４０１号,,12,217,2770852,,,,,,,2022-07-08,1,,,,,タケシ,0
423,2040001124164,新規,0,2022-07-08,2022-07-08,株式会社スタジオアサネ,,株式会社,千葉県,松戸市,上本郷４１３２番地の５,,12,207,2710064,,,,,,,2022-07-08,1,,,,,スタジオアサネ,0
424,2040001124172,新規,0,2022-07-08,2022-07-08,ＯＮＥ・ＬＩＦＥ株式会社,,株式会社,千葉県,柏市,名戸ケ谷５０２番地,,12,217,2770032,,,,,,,2022-07-08,1,,,,,ワンライフ,0
425,2040001124180,新規,0,2022-07-08,2022-07-08,株式会社ケイエンジニアリング,,株式会社,千葉県,船橋市,前原東５丁目３６番９号,,12,204,2740824,,,,,,,2022-07-08,1,,,,,ケイエンジニアリング,0
426,2040001124247,新規,0,2022-07-08,2022-07-08,株式会社寺田塗装,,株式会社,千葉県,千葉市花見川区,朝日ケ丘３丁目２７番６－２０１号,,12,102,2620019,,,,,,,2022-07-08,1,,,,,テラダトソウ,0
431,2050001051341,新規,0,2022-07-08,2022-07-08,株式会社ｅｆ．ｍａｋｅｒ,,株式会社,茨城県,つくば市,西大井１７１０番地３３２,,08,220,3001260,,,,,,,2022-07-08,1,,,,,イーエフメーカー,0
432,2050001051358,新規,0,2022-07-08,2022-07-08,株式会社煌羅,,株式会社,茨城県,鹿嶋市,大字宮中２３３３番地１５０,,08,222,3140031,,,,,,,2022-07-08,1,,,,,コウラ,0
433,2050001051366,新規,0,2022-07-08,2022-07-08,株式会社クオリア,,株式会社,茨城県,つくば市,研究学園５丁目５－３、１階２号室,,08,220,3050817,,,,,,,2022-07-08,1,,,,,クオリア,0
436,2060001035062,新規,0,2022-07-08,2022-07-08,株式会社アイフォレスト,,株式会社,栃木県,宇都宮市,城東１丁目３番２０号,,09,201,3210935,,,,,,,2022-07-08,1,,,,,アイフォレスト,0
439,2070001039418,新規,0,2022-07-08,2022-07-08,株式会社谷屋,,株式会社,群馬県,太田市,飯塚町７０７番地２６,,10,205,3730817,,,,,,,2022-07-08,1,,,,,タニヤ,0
451,2090003002124,新規,0,2022-07-08,2022-07-08,合同会社境川自然農園,,合同会社,山梨県,中央市,木原１３６８番地,,19,214,4001511,,,,,,,2022-07-08,1,,,,,,0
454,2100001035512,新規,0,2022-07-08,2022-07-08,ｋａｕｒｉ株式会社,,株式会社,長野県,北安曇郡白馬村,大字北城３０２０番地５０４,,20,485,3999301,,,,,,,2022-07-08,1,,,,,カウリ,0
456,2110001036815,新規,0,2022-07-08,2022-07-08,株式会社Ｊｉａ,,株式会社,新潟県,新潟市中央区,春日町１１番１０号グランパレ２０１,,15,103,9500903,,,,,,,2022-07-08,1,,,,,ジア,0
467,2120001246685,新規,0,2022-07-08,2022-07-08,株式会社ＷＡＹ,,株式会社,大阪府,大阪市西区,江戸堀１丁目２５番２５－２０５号,,27,106,5500002,,,,,,,2022-07-08,1,,,,,ウェイ,0
468,2120001246776,新規,0,2022-07-08,2022-07-08,Ａｃｔｉｖｅ　Ｃｏｍｐｏｎｅｎｔｓ　Ｊａｐａｎ株式会社,,株式会社,大阪府,大阪市住之江区,南港東４丁目２番５号大阪南港配送センター３０５号室,,27,125,5590031,,,,,,,2022-07-08,1,,,,,アクティブコンポーネンツジャパン,0
469,2120001247114,新規,0,2022-07-08,2022-07-08,株式会社ＰＯＰ　ＧＲＡＰＨＹ,,株式会社,大阪府,大阪市西区,南堀江４丁目３３番２１瀬戸内第一ビル３＆５Ｆ,,27,106,5500015,,,,,,,2022-07-08,1,,,,,ポップグラフィー,0
470,2120001247147,新規,0,2022-07-08,2022-07-08,株式会社ＳＴＡＲＴ,,株式会社,大阪府,門真市,下島町２１番１７号,,27,223,5710075,,,,,,,2022-07-08,1,,,,,スタート,0
471,2120001247163,新規,0,2022-07-08,2022-07-08,株式会社ＦＹＢ,,株式会社,大阪府,大阪市淀川区,宮原１丁目１９番２３号ステュディオ新御堂４２７号室,,27,123,5320003,,,,,,,2022-07-08,1,,,,,エフワイビー,0
472,2120001247196,新規,0,2022-07-08,2022-07-08,株式会社Ｔａｍａｇｏ　ｆｏｏｄｓ　ｅｎｔｅｒｔａｉｎｍｅｎｔ,,株式会社,大阪府,大阪市都島区,片町２丁目５番７号５階,,27,102,5340025,,,,,,,2022-07-08,1,,,,,タマゴフーズエンターテインメント,0
473,2120001247205,新規,0,2022-07-08,2022-07-08,株式会社Ｊｉｎｇｕ,,株式会社,大阪府,寝屋川市,高柳１丁目１２番２５号,,27,215,5720051,,,,,,,2022-07-08,1,,,,,ジングウ,0
474,2120001247221,新規,0,2022-07-08,2022-07-08,都市油田商事株式会社,,株式会社,大阪府,大阪市中央区,瓦町４丁目３－７ＶＯＲＴ御堂筋本町５０２号,,27,128,5410048,,,,,,,2022-07-08,1,,,,,トシユデンショウジ,0
475,2120001247254,新規,0,2022-07-08,2022-07-08,株式会社エヌケー,,株式会社,大阪府,大阪市西区,本田１丁目４番４３－４０２号,,27,106,5500022,,,,,,,2022-07-08,1,,,,,エヌケー,0
479,2120003022044,新規,0,2022-07-08,2022-07-08,エアレンデル合同会社,,合同会社,大阪府,門真市,岸和田４丁目８番２９号,,27,223,5710002,,,,,,,2022-07-08,1,,,,,エアレンデル,0
483,2120101065894,新規,0,2022-07-08,2022-07-08,ココスム株式会社,,株式会社,大阪府,堺市東区,白鷺町１丁２番９号,,27,143,5998107,,,,,,,2022-07-08,1,,,,,ココスム,0
490,2122001036034,新規,0,2022-07-08,2022-07-08,株式会社アドビリティー,,株式会社,大阪府,四條畷市,田原台８丁目１５番４６号,,27,229,5750013,,,,,,,2022-07-08,1,,,,,アドビリティー,0
493,2140001126596,新規,0,2022-07-08,2022-07-08,株式会社源平寿司,,株式会社,兵庫県,神戸市中央区,山本通４丁目２４番１１号,,28,110,6500003,,,,,,,2022-07-08,1,,,,,ゲンペイズシ,0
494,2140001126605,新規,0,2022-07-08,2022-07-08,ＴＵＫＩＺＯＲＡ株式会社,,株式会社,兵庫県,西宮市,北名次町１０番２３号,,28,204,6620025,,,,,,,2022-07-08,1,,,,,ツキゾラ,0
495,2140001126613,新規,0,2022-07-08,2022-07-08,株式会社和みファーム,,株式会社,兵庫県,丹波市,山南町坂尻２５６番地,,28,223,6693162,,,,,,,2022-07-08,1,,,,,ナゴミファーム,0
496,2140001126670,新規,0,2022-07-08,2022-07-08,株式会社丸宮,,株式会社,兵庫県,尼崎市,武庫之荘本町３丁目７番１０－２０３号,,28,202,6610031,,,,,,,2022-07-08,1,,,,,マルミヤ,0
497,2140001126679,新規,0,2022-07-08,2022-07-08,株式会社ＡＷＡＪＩ　ＷＯＯＤ,,株式会社,兵庫県,淡路市,楠本５８２番地３,,28,226,6562301,,,,,,,2022-07-08,1,,,,,アワジウッド,0
498,2140001126720,新規,0,2022-07-08,2022-07-08,株式会社勇潜,,株式会社,兵庫県,西宮市,堤町１番２１－１０１号,,28,204,6638012,,,,,,,2022-07-08,1,,,,,ユウセン,0
499,2140003017884,新規,0,2022-07-08,2022-07-08,リブラコンサルタント合同会社,,合同会社,兵庫県,神戸市中央区,京町７９番地,,28,110,6500034,,,,,,,2022-07-08,1,,,,,リブラコンサルタント,0
509,2180001152003,新規,0,2022-07-08,2022-07-08,株式会社リペアガレージ,,株式会社,愛知県,丹羽郡大口町,高橋２丁目２３番地３,,23,361,4800131,,,,,,,2022-07-08,1,,,,,リペアガレージ,0
510,2180001152044,新規,0,2022-07-08,2022-07-08,株式会社五常,,株式会社,愛知県,一宮市,今伊勢町馬寄字山島１８番地１,,23,203,4910051,,,,,,,2022-07-08,1,,,,,ゴジョウ,0
511,2180001152093,新規,0,2022-07-08,2022-07-08,株式会社アドバホールディングス,,株式会社,愛知県,名古屋市中村区,名駅１丁目１番１号,,23,105,4500002,,,,,,,2022-07-08,1,,,,,アドバホールディングス,0
512,2180001152102,新規,0,2022-07-08,2022-07-08,株式会社アップ,,株式会社,愛知県,小牧市,小牧原３丁目１１６番地,,23,219,4850829,,,,,,,2022-07-08,1,,,,,アップ,0
513,2180001152119,新規,0,2022-07-08,2022-07-08,株式会社ミライ,,株式会社,愛知県,半田市,相賀町１番地の１レインボー相賀８０２号,,23,205,4750801,,,,,,,2022-07-08,1,,,,,ミライ,0
514,2180005019842,新規,0,2022-07-08,2022-07-08,医療法人花の木会,,その他の設立登記法人,愛知県,名古屋市北区,水切町６丁目８９番地,,23,103,4620833,,,,,,,2022-07-08,1,,,,,ハナノキカイ,0
516,2180301036392,新規,0,2022-07-08,2022-07-08,ひかり不動産株式会社,,株式会社,愛知県,岡崎市,竜美新町３９番地１アリア三二レジデンス５０６,,23,202,4440872,,,,,,,2022-07-08,1,,,,,ヒカリフドウサン,0
517,2180305009361,新規,0,2022-07-08,2022-07-08,アルファ行政書士法人,,その他の設立登記法人,愛知県,豊田市,十塚町２丁目１番地,,23,211,4710869,,,,,,,2022-07-08,1,,,,,アルファ,0
522,2190001029596,新規,0,2022-07-08,2022-07-08,株式会社ハマグチ板金,,株式会社,三重県,四日市市,上海老町１０４番地７,,24,202,5121201,,,,,,,2022-07-08,1,,,,,ハマグチバンキン,0
523,2190001029605,新規,0,2022-07-08,2022-07-08,志基テクノ株式会社,,株式会社,三重県,四日市市,西浦２丁目３番３－１２０３号プレイズ西浦,,24,202,5100071,,,,,,,2022-07-08,1,,,,,シキテクノ,0
543,2250001019649,新規,0,2022-07-08,2022-07-08,株式会社三四六,,株式会社,山口県,宇部市,南小羽山町２丁目１９－１６－１０７,,35,202,7550083,,,,,,,2022-07-08,1,,,,,サンシロク,0
551,2290001098152,新規,0,2022-07-08,2022-07-08,株式会社マノホア,,株式会社,福岡県,久留米市,大橋町合楽１６３番地２,,40,203,8390832,,,,,,,2022-07-08,1,,,,,マノホア,0
555,2290005018742,新規,0,2022-07-08,2022-07-08,一般社団法人カラフルライフ,,その他の設立登記法人,福岡県,福岡市中央区,六本松４丁目１１番３号新六本松ビル３０３号,,40,133,8100044,,,,,,,2022-07-08,1,,,,,カラフルライフ,0
556,2290803004150,新規,0,2022-07-08,2022-07-08,合同会社イチ,,合同会社,福岡県,築上郡上毛町,大字吉岡１９４番地,,40,646,8710912,,,,,,,2022-07-08,1,,,,,イチ,0
559,2330001029912,新規,0,2022-07-08,2022-07-08,株式会社ｎｉｃｏ,,株式会社,熊本県,熊本市中央区,渡鹿７丁目１５番４８号,,43,101,8620970,,,,,,,2022-07-08,1,,,,,ニコ,0
565,2340001024879,新規,0,2022-07-08,2022-07-08,株式会社林業美土里,,株式会社,鹿児島県,肝属郡南大隅町,根占川北８２３１番地,,46,491,8932501,,,,,,,2022-07-08,1,,,,,リンギョウミドリ,0
566,2340001024895,新規,0,2022-07-08,2022-07-08,株式会社わ,,株式会社,鹿児島県,鹿児島市,宮之浦町９６０番地１,,46,201,8911305,,,,,,,2022-07-08,1,,,,,ワ,0
572,2350003004119,新規,0,2022-07-08,2022-07-08,合同会社ココリース,,合同会社,宮崎県,西都市,聖陵町２丁目３６番地２,,45,208,8810015,,,,,,,2022-07-08,1,,,,,ココリース,0
576,2360003012129,新規,0,2022-07-08,2022-07-08,合同会社Ｐｒａｃａｒｔｓ,,合同会社,沖縄県,中頭郡読谷村,字宇座１８６１,,47,324,9040328,,,,,,,2022-07-08,1,,,,,プラクアーツ,0
577,2360003012145,新規,0,2022-07-08,2022-07-08,合同会社Ａｔｔｒａｃｔ,,合同会社,沖縄県,島尻郡南風原町,字津嘉山１７２６,,47,350,9011117,,,,,,,2022-07-08,1,,,,,アトラクト,0
579,2370001048743,新規,0,2022-07-08,2022-07-08,株式会社みらいほけんサービス,,株式会社,宮城県,石巻市,大瓜字瀬戸山５１番地１,,04,202,9860005,,,,,,,2022-07-08,1,,,,,ミライホケンサービス,0
580,2370001048776,新規,0,2022-07-08,2022-07-08,株式会社ワードオブライツ,,株式会社,宮城県,仙台市青葉区,五橋２丁目７番８号朝日プラザ五橋ＩＩＩ１００３号室,00127141,04,101,9800022,,,,,,,2022-07-08,1,,,,,ワードオブライツ,0
587,2450001013739,新規,0,2022-07-08,2022-07-08,株式会社ａｎｃ,,株式会社,北海道,旭川市,豊岡十条１１丁目２番３号,,01,204,0788240,,,,,,,2022-07-08,1,,,,,アンク,0
590,2470001019156,新規,0,2022-07-08,2022-07-08,株式会社おぎた,,株式会社,香川県,観音寺市,観音寺町甲２８８５－１,,37,205,7680060,,,,,,,2022-07-08,1,,,,,オギタ,0
598,2500001024334,新規,0,2022-07-08,2022-07-08,ＴＳ　ｔｅｃ株式会社,,株式会社,愛媛県,四国中央市,土居町蕪崎９５８番地１,,38,213,7990724,,,,,,,2022-07-08,1,,,,,,0
599,2500001024342,新規,0,2022-07-08,2022-07-08,株式会社エス・クリエイト,,株式会社,愛媛県,今治市,中堀３丁目７番１１号,,38,202,7992115,,,,,,,2022-07-08,1,,,,,エスクリエイト,0
614,3010001227893,新規,0,2022-07-08,2022-07-08,Ｓｃｈｏｌｌ’ｓ　Ｗｅｌｌｎｅｓｓ　Ｃｏｍｐａｎｙ株式会社,,株式会社,東京都,千代田区,霞が関３丁目２番６号東京倶楽部ビルディング１１階,,13,101,1000013,,,,,,,2022-07-08,1,,,,,ショールズウェルネスカンパニー,0
615,3010001227919,新規,0,2022-07-08,2022-07-08,株式会社タカハシ,,株式会社,東京都,中央区,銀座６丁目７番４号,,13,102,1040061,,,,,,,2022-07-08,1,,,,,タカハシ,0
616,3010001227935,新規,0,2022-07-08,2022-07-08,クラス・マカン東京株式会社,,株式会社,東京都,千代田区,神田神保町１丁目５０番地,,13,101,1010051,,,,,,,2022-07-08,1,,,,,クラスマカントウキョウ,0
619,3010003038050,新規,0,2022-07-08,2022-07-08,合同会社Ｐｙｘｉｓ,,合同会社,東京都,中央区,日本橋人形町２丁目３３－１０,,13,102,1030013,,,,,,,2022-07-08,1,,,,,ピクシス,0
620,3010003038059,新規,0,2022-07-08,2022-07-08,合同会社ＧＯＯＤＴＩＭＥ,,合同会社,東京都,文京区,本郷３丁目４１番９号,,13,105,1130033,,,,,,,2022-07-08,1,,,,,グッドタイム,0
621,3010003038067,新規,0,2022-07-08,2022-07-08,合同会社Ｅｐｓｉｌｏｎ,,合同会社,東京都,千代田区,丸の内３丁目１番１号東京共同会計事務所内,,13,101,1000005,,,,,,,2022-07-08,1,,,,,エプシロン,0
622,3010003038083,新規,0,2022-07-08,2022-07-08,合同会社千葉商事,,合同会社,東京都,中央区,銀座１丁目１２番４号Ｎ＆Ｅ．ＢＬＤ．６Ｆ,,13,102,1040061,,,,,,,2022-07-08,1,,,,,チバショウジ,0
623,3010003038091,新規,0,2022-07-08,2022-07-08,合同会社Ｔｏｐｐａ,,合同会社,東京都,文京区,湯島３丁目２－１４－１５０４,,13,105,1130034,,,,,,,2022-07-08,1,,,,,トッパ,0
628,3010005035236,新規,0,2022-07-08,2022-07-08,一般社団法人銀座リアルティ・ワン,,その他の設立登記法人,東京都,千代田区,丸の内２丁目１番１号,,13,101,1000005,,,,,,,2022-07-08,1,,,,,ギンザリアルティワン,0
635,3010401168291,新規,0,2022-07-08,2022-07-08,株式会社ＳａｌｔｙＣａｔ,,株式会社,東京都,港区,南麻布５丁目１４番４－３０９号,,13,103,1060047,,,,,,,2022-07-08,1,,,,,ソルティキャット,0
636,3010401168341,新規,0,2022-07-08,2022-07-08,株式会社ＭＡＳＴ企画,,株式会社,東京都,港区,赤坂７丁目１０番１７号フォンテ赤坂ビル２Ｆ,,13,103,1070052,,,,,,,2022-07-08,1,,,,,マストキカク,0
637,3010401168358,新規,0,2022-07-08,2022-07-08,株式会社ＡＬＶＡＮＩＳＴＡ,,株式会社,東京都,港区,南青山２丁目２番１５号,,13,103,1070062,,,,,,,2022-07-08,1,,,,,アルヴァニスタ,0
638,3010401168399,新規,0,2022-07-08,2022-07-08,ＭＥＧ　Ｊａｐａｎ株式会社,,株式会社,東京都,港区,白金２丁目５番２０－１２０７号,,13,103,1080072,,,,,,,2022-07-08,1,,,,,エムイージージャパン,0
639,3010401168408,新規,0,2022-07-08,2022-07-08,株式会社Ｍａｒｋ　Ａ＆Ｂ,,株式会社,東京都,港区,芝浦４丁目２０番２－４０１４号,,13,103,1080023,,,,,,,2022-07-08,1,,,,,マークエーアンドビー,0
643,3010501049078,新規,0,2022-07-08,2022-07-08,株式会社ｎａｎｃｏ,,株式会社,東京都,台東区,上野１丁目３番７号,,13,106,1100005,,,,,,,2022-07-08,1,,,,,,0
644,3010501049094,新規,0,2022-07-08,2022-07-08,株式会社すまーとろっくおん,,株式会社,東京都,台東区,三ノ輪１丁目２４番１０－７０１号,,13,106,1100011,,,,,,,2022-07-08,1,,,,,スマートロックオン,0
648,3010801033104,新規,0,2022-07-08,2022-07-08,株式会社Ｒｉｎ,,株式会社,東京都,大田区,北千束１丁目４番２０号Ｇ－ＦＬＡＴ２０２号,,13,111,1450062,,,,,,,2022-07-08,1,,,,,リン,0
654,3010901051195,新規,0,2022-07-08,2022-07-08,株式会社ヴィオラ,,株式会社,東京都,世田谷区,宮坂３丁目２番１３－３０２号,,13,112,1560051,,,,,,,2022-07-08,1,,,,,ヴィオラ,0
655,3010901051204,新規,0,2022-07-08,2022-07-08,多田琢事務所株式会社,00127153,株式会社,東京都,世田谷区,深沢１丁目２４番１２号,,13,112,1580081,,,,,,,2022-07-08,1,,,,,タダタクジムショ,0
663,3011001148361,新規,0,2022-07-08,2022-07-08,Ｌｙｃｈｅｅ株式会社,,株式会社,東京都,渋谷区,道玄坂１丁目１０番８号渋谷道玄坂東急ビル２Ｆ－Ｃ,,13,113,1500043,,,,,,,2022-07-08,1,,,,,ライチー,0
664,3011001148519,新規,0,2022-07-08,2022-07-08,株式会社Ｔｈｉｎｋ　Ａｐｐ,,株式会社,東京都,渋谷区,神宮前６丁目２３番４号桑野ビル２階,,13,113,1500001,,,,,,,2022-07-08,1,,,,,シンクアップ,0
666,3011003014990,新規,0,2022-07-08,2022-07-08,合同会社トーラス,,合同会社,東京都,渋谷区,広尾３丁目４番１号１－４０１号室,,13,113,1500012,,,,,,,2022-07-08,1,,,,,トーラス,0
671,3011101099463,新規,0,2022-07-08,2022-07-08,上語株式会社,,株式会社,東京都,新宿区,榎町３４－３榎町ビル５階,,13,104,1620806,,,,,,,2022-07-08,1,,,,,ジョウゴ,0
672,3011101099471,新規,0,2022-07-08,2022-07-08,株式会社日の出エステート,,株式会社,東京都,新宿区,新宿１丁目３６番２号新宿第七葉山ビル３０５号,,13,104,1600022,,,,,,,2022-07-08,1,,,,,ヒノデエステート,0
675,3011105010319,新規,0,2022-07-08,2022-07-08,一般社団法人べレシート,,その他の設立登記法人,東京都,新宿区,四谷坂町１２－１２－２０１号,,13,104,1600002,,,,,,,2022-07-08,1,,,,,ベレシート,0
681,3011601026090,新規,0,2022-07-08,2022-07-08,株式会社リジェネレーション,,株式会社,東京都,練馬区,東大泉５丁目４３番１－２４０１号,,13,120,1780063,,,,,,,2022-07-08,1,,,,,リジェネレーション,0
683,3011603003641,新規,0,2022-07-08,2022-07-08,合同会社たばた,,合同会社,東京都,練馬区,大泉学園町２丁目１９番４号,,13,120,1780061,,,,,,,2022-07-08,1,,,,,タバタ,0
694,3011801040965,新規,0,2022-07-08,2022-07-08,株式会社ＲＩＳＥ,,株式会社,東京都,葛飾区,亀有１丁目１５番３５号２階,,13,122,1250061,,,,,,,2022-07-08,1,,,,,ライズ,0
695,3011801040981,新規,0,2022-07-08,2022-07-08,新会国際株式会社,,株式会社,東京都,葛飾区,東新小岩２丁目２０－１６ＥＥＲＦ９号,,13,122,1240023,,,,,,,2022-07-08,1,,,,,シンカイコクサイ,0
696,3011803005165,新規,0,2022-07-08,2022-07-08,合同会社シークヴィジョン,,合同会社,東京都,足立区,堀之内１丁目１－４,,13,121,1230874,,,,,,,2022-07-08,1,,,,,シークヴィジョン,0
703,3012703002491,新規,0,2022-07-08,2022-07-08,合同会社ＫＲＦノブレスオブリージュ,,合同会社,東京都,東久留米市,八幡町３丁目２－３５フィールドヴィレッヂ３０２,,13,222,2030042,,,,,,,2022-07-08,1,,,,,ケーアールエフノブレスオブリージュ,0
704,3012801021716,新規,0,2022-07-08,2022-07-08,ＦＵＮＬＡＢＯ株式会社,,株式会社,東京都,国分寺市,内藤２丁目１７番地２２,,13,214,1850033,,,,,,,2022-07-08,1,,,,,ファンラボ,0
705,3013103001150,新規,0,2022-07-08,2022-07-08,合同会社ソレイルコンタクト,,合同会社,東京都,西多摩郡日の出町,大字平井４０５番地５,,13,305,1900182,,,,,,,2022-07-08,1,,,,,ソレイルコンタクト,0
710,3020001147240,新規,0,2022-07-08,2022-07-08,ＪＴＭインターナショナル株式会社,,株式会社,神奈川県,川崎市高津区,坂戸３丁目２－１ＫＳＰ西２階,,14,134,2130012,,,,,,,2022-07-08,1,,,,,ジェイティーエムインターナショナル,0
713,3020003022061,新規,0,2022-07-08,2022-07-08,合同会社Ｇ＆Ｇ　Ｃｏ．，Ｌｔｄ．,,合同会社,神奈川県,横浜市中区,弁天通２丁目２８番,,14,104,2310007,,,,,,,2022-07-08,1,,,,,,0
715,3021003011896,新規,0,2022-07-08,2022-07-08,合同会社Ｒｅｎｈａｎｃｅ,,合同会社,神奈川県,厚木市,戸室４丁目１番地３０号ウィンドプラザ３０９,,14,212,2430031,,,,,,,2022-07-08,1,,,,,,0
716,3021003011913,新規,0,2022-07-08,2022-07-08,合同会社フィデイン,,合同会社,神奈川県,厚木市,上依知１７０番地３,,14,212,2430801,,,,,,,2022-07-08,1,,,,,フィデイン,0
719,3030001148997,新規,0,2022-07-08,2022-07-08,栄意株式会社,,株式会社,埼玉県,志木市,柏町６丁目１番２９号レジデンス志木１０１号,,11,228,3530007,,,,,,,2022-07-08,1,,,,,,0
720,3030001149046,新規,0,2022-07-08,2022-07-08,株式会社ＶＯＬＫ　ＡＲＴ,,株式会社,埼玉県,志木市,幸町３丁目４番１０－１０３号,,11,228,3530005,,,,,,,2022-07-08,1,,,,,フォルクアート,0
721,3030001149054,新規,0,2022-07-08,2022-07-08,株式会社佐藤設備,,株式会社,埼玉県,川口市,大字安行原１０３９番地の３,,11,203,3340057,,,,,,,2022-07-08,1,,,,,サトウセツビ,0
722,3030001149104,新規,0,2022-07-08,2022-07-08,株式会社昌テクノロジー,,株式会社,埼玉県,越谷市,大字大林３８１番地２,,11,222,3430021,,,,,,,2022-07-08,1,,,,,マサテクノロジー,0
723,3030001149112,新規,0,2022-07-08,2022-07-08,株式会社リファイン,,株式会社,埼玉県,北葛飾郡杉戸町,大字本島６１２番地９,,11,464,3450037,,,,,,,2022-07-08,1,,,,,リファイン,0
724,3030001149137,新規,0,2022-07-08,2022-07-08,株式会社Ｒａｍｉｅ,,株式会社,埼玉県,川口市,南鳩ヶ谷２丁目２番１６号,,11,203,3340013,,,,,,,2022-07-08,1,,,,,ラミー,0
728,3030003019759,新規,0,2022-07-08,2022-07-08,新創合同会社,,合同会社,埼玉県,越谷市,神明町１丁目１３２－１ラ・ルミエールＡ２０１号室,,11,222,3430805,,,,,,,2022-07-08,1,,,,,シンソウ,0
729,3030003019767,新規,0,2022-07-08,2022-07-08,スイング合同会社,,合同会社,埼玉県,川口市,芝中田２丁目３１－２４プレンディ川口芝公園Ｉ３０７号,00127150,11,203,3330847,,,,,,,2022-07-08,1,,,,,スイング,0
733,3040001124007,新規,0,2022-07-08,2022-07-08,株式会社Ｙ＆Ｃ,,株式会社,千葉県,八街市,八街ほ６７８番地１８,,12,230,2891115,,,,,,,2022-07-08,1,,,,,ワイアンドシー,0
734,3040001124089,新規,0,2022-07-08,2022-07-08,株式会社ＳＥＥＤ,,株式会社,千葉県,習志野市,大久保２丁目１３番７号ウィングスター００１号室,,12,216,2750011,,,,,,,2022-07-08,1,,,,,シード,0
735,3040001124147,新規,0,2022-07-08,2022-07-08,株式会社朝日森成田,,株式会社,千葉県,山武郡芝山町,香山新田３３番地１,,12,409,2891601,,,,,,,2022-07-08,1,,,,,アサヒモリナリタ,0
736,3040001124163,新規,0,2022-07-08,2022-07-08,株式会社ＫＯＭＯＲＩ,,株式会社,千葉県,市原市,光風台５丁目１０８番地,,12,219,2900255,,,,,,,2022-07-08,1,,,,,コモリ,0
737,3040001124171,新規,0,2022-07-08,2022-07-08,株式会社ＪＳ‐ＭｕｓｉｃＡｇｅｎｃｙ,,株式会社,千葉県,千葉市中央区,仁戸名町６３５番地１,,12,101,2600801,,,,,,,2022-07-08,1,,,,,ジェイエスミュージックエイジェンシー,0
738,3040001124196,新規,0,2022-07-08,2022-07-08,株式会社ペルテ,,株式会社,千葉県,習志野市,津田沼７丁目３番２７号,,12,216,2750016,,,,,,,2022-07-08,1,,,,,ペルテ,0
742,3040003020377,新規,0,2022-07-08,2022-07-08,合同会社レオグリーン,,合同会社,千葉県,匝瑳市,飯塚４６４番地,,12,235,2892106,,,,,,,2022-07-08,1,,,,,レオグリーン,0
743,3040003020385,新規,0,2022-07-08,2022-07-08,合同会社やさしいきのこ,,合同会社,千葉県,八街市,上砂３２７番地,,12,230,2891125,,,,,,,2022-07-08,1,,,,,ヤサシイキノコ,0
744,3050001051357,新規,0,2022-07-08,2022-07-08,株式会社Ｔ＆Ｃ,,株式会社,茨城県,つくば市,学園南３丁目３０番地２、ＣＡＳＡ、Ｂ棟２,,08,220,3050818,,,,,,,2022-07-08,1,,,,,ティーアンドシー,0
745,3050001051373,新規,0,2022-07-08,2022-07-08,東栄国際株式会社,,株式会社,茨城県,つくば市,吾妻３丁目１５番地４,,08,220,3050031,,,,,,,2022-07-08,1,,,,,トウエイコクサイ,0
746,3050003006672,新規,0,2022-07-08,2022-07-08,算命学経営活用合同会社,,合同会社,茨城県,古河市,東本町１丁目２２番２６－７０４号友愛コーポ,,08,204,3060013,,,,,,,2022-07-08,1,,,,,サンメイガクケイエイカツヨウ,0
748,3060001035061,新規,0,2022-07-08,2022-07-08,小平工業株式会社,,株式会社,栃木県,栃木市,大宮町１９４２番地８,,09,203,3280011,,,,,,,2022-07-08,1,,,,,コダイラコウギョウ,0
749,3070001039409,新規,0,2022-07-08,2022-07-08,株式会社ホスピタルクリーン,,株式会社,群馬県,桐生市,東４丁目９番６号,,10,203,3760034,,,,,,,2022-07-08,1,,,,,ホスピタルクリーン,0
750,3070003004534,新規,0,2022-07-08,2022-07-08,ＳＵＳＨＡＮ　ＥＮＴＥＲＰＲＩＳＥＳ合同会社,,合同会社,群馬県,北群馬郡榛東村,大字山子田９４０番地,,10,344,3703502,,,,,,,2022-07-08,1,,,,,スシャンエンタープライセス,0
755,3080401025949,新規,0,2022-07-08,2022-07-08,株式会社坪井厨房企画,,株式会社,静岡県,磐田市,平間１５１９－４６,,22,211,4380203,,,,,,,2022-07-08,1,,,,,ツボイチュウボウキカク,0
758,3090003002123,新規,0,2022-07-08,2022-07-08,合同会社信英,,合同会社,山梨県,北杜市,長坂町大井ヶ森１１８５番地１５,,19,209,4080032,,,,,,,2022-07-08,1,,,,,シンエイ,0
761,3100001035511,新規,0,2022-07-08,2022-07-08,株式会社ＳＡＨＩＭＯＴＯＲＳ,,株式会社,長野県,長野市,信更町赤田８４３番地,,20,201,3812352,,,,,,,2022-07-08,1,,,,,サヒモータース,0
777,3120001247154,新規,0,2022-07-08,2022-07-08,株式会社岩崎溶接工業,00127145,株式会社,大阪府,大阪市住吉区,苅田９丁目３番１１号,,27,120,5580011,,,,,,,2022-07-08,1,,,,,イワサキヨウセツコウギョウ,0
778,3120001247170,新規,0,2022-07-08,2022-07-08,株式会社クローバー,,株式会社,大阪府,守口市,南寺方北通１丁目７番３号,,27,209,5700046,,,,,,,2022-07-08,1,,,,,クローバー,0
779,3120001247245,新規,0,2022-07-08,2022-07-08,株式会社Ｅｓｓｅｎｓｙ,,株式会社,大阪府,大阪市中央区,大手通３丁目３番３号日宝東本町ビル２階２Ｆ２号室,,27,128,5400021,,,,,,,2022-07-08,1,,,,,エッセンシー,0
780,3120001247253,新規,0,2022-07-08,2022-07-08,株式会社マグノリア,,株式会社,大阪府,大阪市東淀川区,豊里３丁目９番２０号,,27,114,5330013,,,,,,,2022-07-08,1,,,,,マグノリア,0
783,3120003022010,新規,0,2022-07-08,2022-07-08,木名合同会社,,合同会社,大阪府,大阪市城東区,今福南４丁目６番５９号Ｊａｃ．’ｓＨｏｕｓｅ２Ｆ－Ａ号室,,27,118,5360003,,,,,,,2022-07-08,1,,,,,モクメイ,0
784,3120003022027,新規,0,2022-07-08,2022-07-08,合同会社パティスリーデコ,,合同会社,大阪府,大阪市東住吉区,山坂４丁目５番１号,,27,121,5460035,,,,,,,2022-07-08,1,,,,,パティスリーデコ,0
785,3120003022035,新規,0,2022-07-08,2022-07-08,ＰＬＥＩＫＵ合同会社,,合同会社,大阪府,大阪市生野区,新今里５丁目１２－９,,27,116,5440001,,,,,,,2022-07-08,1,,,,,プレイク,0
786,3120005023031,新規,0,2022-07-08,2022-07-08,一般社団法人日本介護福祉理美容協会,,その他の設立登記法人,大阪府,大阪市都島区,東野田町２丁目２番１０号２階,,27,102,5340024,,,,,,,2022-07-08,1,,,,,ニホンカイゴフクシリビヨウキョウカイ,0
789,3120101065877,新規,0,2022-07-08,2022-07-08,株式会社Ｐコネクト,,株式会社,大阪府,堺市北区,中百舌鳥町５丁１０番地,,27,146,5918023,,,,,,,2022-07-08,1,,,,,ピーコネクト,0
790,3120101065885,新規,0,2022-07-08,2022-07-08,株式会社Ｍａｋｅ　Ｃａｒｅ,,株式会社,大阪府,高石市,高師浜２丁目１３番１８号,,27,225,5920004,,,,,,,2022-07-08,1,,,,,メイクケア,0
791,3120103004775,新規,0,2022-07-08,2022-07-08,合同会社ＳＥＷ,,合同会社,大阪府,岸和田市,土生町４丁目６－１７,,27,202,5960825,,,,,,,2022-07-08,1,,,,,ソウ,0
792,3122001036033,新規,0,2022-07-08,2022-07-08,株式会社ケーエー社,,株式会社,大阪府,東大阪市,長田東１丁目３番１４－８０５号,,27,227,5770012,,,,,,,2022-07-08,1,,,,,ケーエーシャ,0
794,3122005003624,新規,0,2022-07-08,2022-07-08,一般社団法人次世代設計研究所,,その他の設立登記法人,大阪府,東大阪市,高井田元町１丁目４番２１号２階,,27,227,5770054,,,,,,,2022-07-08,1,,,,,ジセダイセッケイケンキュウジョ,0
798,3130001072188,新規,0,2022-07-08,2022-07-08,株式会社鈴木建装,,株式会社,京都府,京都市伏見区,桃山南大島町１０１番地３８,,26,109,6128017,,,,,,,2022-07-08,1,,,,,スズキケンソウ,0
803,3140001126595,新規,0,2022-07-08,2022-07-08,Ｃｉｒｃｌｅ株式会社,,株式会社,兵庫県,尼崎市,武庫之荘２丁目２番２－３０６号,,28,202,6610035,,,,,,,2022-07-08,1,,,,,サークル,0
804,3140001126612,新規,0,2022-07-08,2022-07-08,ＹＢ株式会社,,株式会社,兵庫県,尼崎市,大庄西町４丁目３番１－２０２号,,28,202,6600077,,,,,,,2022-07-08,1,,,,,ワイビー,0
805,3140001126629,新規,0,2022-07-08,2022-07-08,株式会社モダンタイムス太子,,株式会社,兵庫県,揖保郡太子町,東保１３番地７,,28,464,6711524,,,,,,,2022-07-08,1,,,,,モダンタイムスタイシ,0
806,3140001126637,新規,0,2022-07-08,2022-07-08,株式会社ＩＳＨＩＭＯ,,株式会社,兵庫県,尼崎市,大庄中通１丁目７３－２,,28,202,6600075,,,,,,,2022-07-08,1,,,,,イシモ,0
807,3140001126653,新規,0,2022-07-08,2022-07-08,株式会社繁商,,株式会社,兵庫県,加古郡稲美町,国岡１丁目１４０番地,,28,381,6751115,,,,,,,2022-07-08,1,,,,,シゲショウ,0
808,3140001126661,新規,0,2022-07-08,2022-07-08,株式会社スーマク,,株式会社,兵庫県,神戸市中央区,雲井通３丁目１番１－６０１号,,28,110,6510096,,,,,,,2022-07-08,1,,,,,スーマク,0
809,3140001126678,新規,0,2022-07-08,2022-07-08,株式会社木心ファーム,,株式会社,兵庫県,加東市,天神３４１番地,,28,228,6731311,,,,,,,2022-07-08,1,,,,,キゴコロファーム,0
811,3150001025680,新規,0,2022-07-08,2022-07-08,株式会社Ｔ．Ｎコーポレーション,,株式会社,奈良県,奈良市,百楽園５丁目１４番１－３１９号,,29,201,6310024,,,,,,,2022-07-08,1,,,,,ティエヌコーポレーション,0
816,3170001017189,新規,0,2022-07-08,2022-07-08,株式会社リジョンフォース,,株式会社,和歌山県,田辺市,新屋敷町９番地の８近産第２ビル２３号室,,30,206,6460033,,,,,,,2022-07-08,1,,,,,リジョンフォース,0
825,3180001152035,新規,0,2022-07-08,2022-07-08,ＳＯＬ株式会社,,株式会社,愛知県,稲沢市,小沢４丁目１４番８号白山ビル１０２,,23,220,4928212,,,,,,,2022-07-08,1,,,,,ソル,0
826,3180001152084,新規,0,2022-07-08,2022-07-08,株式会社藤原工務店,,株式会社,愛知県,北名古屋市,熊之庄東出５１番地１,,23,234,4810006,,,,,,,2022-07-08,1,,,,,フジワラコウムテン,0
827,3180001152092,新規,0,2022-07-08,2022-07-08,なごや不動産株式会社,,株式会社,愛知県,あま市,木折十六１５番地,,23,237,4901203,,,,,,,2022-07-08,1,,,,,ナゴヤフドウサン,0
828,3180001152126,新規,0,2022-07-08,2022-07-08,ハートスマイル株式会社,,株式会社,愛知県,名古屋市千種区,若水３丁目２４番１９号－１,,23,101,4640071,,,,,,,2022-07-08,1,,,,,ハートスマイル,0
831,3180003024026,新規,0,2022-07-08,2022-07-08,合同会社スマイル,,合同会社,愛知県,名古屋市守山区,白山３丁目１２０６番地グリーンハイツ藤ケ丘北４０５号,,23,113,4630032,,,,,,,2022-07-08,1,,,,,スマイル,0
832,3180005019825,新規,0,2022-07-08,2022-07-08,特定非営利活動法人屋久島いきもの調査隊,,その他の設立登記法人,愛知県,犬山市,大字善師野字伏屋７番地１,,23,215,4840003,,,,,,,2022-07-08,1,,,,,ヤクシマイキモノチョウサタイ,0
833,3180005019841,新規,0,2022-07-08,2022-07-08,一般社団法人日本海上交通安全協会,,その他の設立登記法人,愛知県,名古屋市中区,栄３丁目２番３号（名古屋日興證券ビル４階）,,23,106,4600008,,,,,,,2022-07-08,1,,,,,ニホンカイジョウコウツウアンゼンキョウカイ,0
836,3180301036400,新規,0,2022-07-08,2022-07-08,株式会社アウトマウンテン,,株式会社,愛知県,安城市,桜井町蓮台６０番地,,23,212,4441154,,,,,,,2022-07-08,1,,,,,アウトマウンテン,0
837,3180301036409,新規,0,2022-07-08,2022-07-08,株式会社たけなか,,株式会社,愛知県,豊橋市,江島町５３番地２７,,23,201,4418111,,,,,,,2022-07-08,1,,,,,タケナカ,0
838,3180303005386,新規,0,2022-07-08,2022-07-08,合同会社ＳＴＵＤＥＯ　Ｌｏｃａｌ　Ａｃｔｉｖａｔｏｒｓ,,合同会社,愛知県,豊田市,稲武町タヒラ１‐４,,23,211,4412513,,,,,,,2022-07-08,1,,,,,ステューディオローカルアクティベーターズ,0
839,3180305009360,新規,0,2022-07-08,2022-07-08,一般社団法人レトロカルチャー,,その他の設立登記法人,愛知県,岡崎市,美合町字生田１２５番地,,23,202,4440804,,,,,,,2022-07-08,1,,,,,レトロカルチャー,0
840,3190001029579,新規,0,2022-07-08,2022-07-08,株式会社ＢＡＲＧＥＮ,,株式会社,三重県,いなべ市,北勢町瀬木字宮東３２９番地,,24,214,5110417,,,,,,,2022-07-08,1,,,,,バーゲン,0
841,3190001029604,新規,0,2022-07-08,2022-07-08,株式会社山村土建,,株式会社,三重県,伊賀市,東条１１５番地の３,,24,216,5180013,,,,,,,2022-07-08,1,,,,,ヤマムラドケン,0
842,3190001029612,新規,0,2022-07-08,2022-07-08,株式会社ＷＯＯＤ　ＳＴＡＲ,,株式会社,三重県,桑名市,大字安永字八区割１２３４番地,,24,205,5110839,,,,,,,2022-07-08,1,,,,,ウッドスター,0
851,3210003001533,新規,0,2022-07-08,2022-07-08,合同会社エスエス・インテラス,,合同会社,福井県,福井市,灯明寺４丁目２１０２番地,,18,201,9100063,,,,,,,2022-07-08,1,,,,,エスエスインテラス,0
855,3220003003322,新規,0,2022-07-08,2022-07-08,アモリ合同会社,,合同会社,石川県,金沢市,才田町乙２２番地,,17,201,9203101,,,,,,,2022-07-08,1,,,,,アモリ,0
856,3230001019443,新規,0,2022-07-08,2022-07-08,株式会社アジャイル．ＣＯＭ,,株式会社,富山県,高岡市,東海老坂４３７番地２,,16,202,9330987,,,,,,,2022-07-08,1,,,,,アジャイルドットコム,0
858,3240001060066,新規,0,2022-07-08,2022-07-08,株式会社ＫＦサービス,,株式会社,広島県,広島市佐伯区,皆賀１丁目３番２６－３０４号,,34,108,7315124,,,,,,,2022-07-08,1,,,,,ケイエフサービス,0
862,3240003005696,新規,0,2022-07-08,2022-07-08,合同会社アベリア,,合同会社,広島県,福山市,神辺町字上御領１７０番地２,,34,207,7202111,,,,,,,2022-07-08,1,,,,,アベリア,0
870,3270001008582,新規,0,2022-07-08,2022-07-08,株式会社ＡＲＫ,,株式会社,鳥取県,倉吉市,上井町１丁目９番地１９,,31,203,6820022,,,,,,,2022-07-08,1,,,,,アーク,0
874,3280005007489,新規,0,2022-07-08,2022-07-08,ベルハーモニー浜田管理組合法人,,その他の設立登記法人,島根県,浜田市,琵琶町１４０番地,,32,202,6970025,,,,,,,2022-07-08,1,,,,,ベルハーモニーハマダ,0
878,3290001098143,新規,0,2022-07-08,2022-07-08,株式会社クエスト,,株式会社,福岡県,春日市,春日原北町４丁目５０番地６８,,40,218,8160802,,,,,,,2022-07-08,1,,,,,クエスト,0
879,3290001098168,新規,0,2022-07-08,2022-07-08,ＪＨ　ＴＲＡＤＥ株式会社,,株式会社,福岡県,糟屋郡新宮町,花立花１丁目２－８,,40,345,8110103,,,,,,,2022-07-08,1,,,,,ジェイエイチトレード,0
880,3290001098201,新規,0,2022-07-08,2022-07-08,株式会社ＴＮＴ,,株式会社,福岡県,柳川市,大和町鷹ノ尾１２８２番地２,,40,207,8390253,,,,,,,2022-07-08,1,,,,,ティーエヌティー,0
881,3290003012713,新規,0,2022-07-08,2022-07-08,ＨＭカンパニー合同会社,,合同会社,福岡県,福岡市東区,青葉７丁目４６－７０－１０２号,,40,131,8130025,,,,,,,2022-07-08,1,,,,,エイチエムカンパニー,0
883,3310001017950,新規,0,2022-07-08,2022-07-08,Ｆｒｅｅｗｏｒｋｓｔｙｌｅ株式会社,,株式会社,長崎県,大村市,鬼橋町３番地３,,42,205,8560021,,,,,,,2022-07-08,1,,,,,フリーワークスタイル,0
885,3310003004410,新規,0,2022-07-08,2022-07-08,合同会社ＤＩＡＭＯＮＤＳＴＯＲＹ,,合同会社,長崎県,諫早市,目代町１１１番地１,,42,204,8540007,,,,,,,2022-07-08,1,,,,,ダイヤモンドストーリー,0
886,3320001019194,新規,0,2022-07-08,2022-07-08,株式会社西田農園,,株式会社,大分県,国東市,安岐町成久１２５１番地２,,44,214,8730204,,,,,,,2022-07-08,1,,,,,ニシダノウエン,0
887,3320003003849,新規,0,2022-07-08,2022-07-08,フリッカ・キャラバン合同会社,,合同会社,大分県,中津市,本耶馬渓町西谷３７６番地１,,44,203,8710314,,,,,,,2022-07-08,1,,,,,フリッカキャラバン,0
898,3360001030651,新規,0,2022-07-08,2022-07-08,株式会社オキビュー,,株式会社,沖縄県,那覇市,首里平良町２丁目１１３番地１,,47,201,9030803,,,,,,,2022-07-08,1,,,,,オキビュー,0
899,3360001030676,新規,0,2022-07-08,2022-07-08,株式会社ＰＧＭ　ＯＫＩＮＡＷＡ,,株式会社,沖縄県,中頭郡読谷村,字宇座２７８番地、１階,,47,324,9040328,,,,,,,2022-07-08,1,,,,,ピージーエムオキナワ,0
904,3370001048759,新規,0,2022-07-08,2022-07-08,株式会社エヌエスケア仙台,,株式会社,宮城県,仙台市青葉区,本町１丁目１番８号第一日本オフィスビル７階,,04,101,9800014,,,,,,,2022-07-08,1,,,,,エヌエスケアセンダイ,0
905,3370001048767,新規,0,2022-07-08,2022-07-08,株式会社ａｍｂｅｒ,,株式会社,宮城県,塩竈市,杉の入２丁目１６番６号,,04,203,9850005,,,,,,,2022-07-08,1,,,,,アンバー,0
909,3400001015945,新規,0,2022-07-08,2022-07-08,株式会社花巻レッカーサービス,,株式会社,岩手県,花巻市,高木第２０地割２５１番地６,,03,205,0250016,,,,,,,2022-07-08,1,,,,,ハナマキレッカーサービス,0
912,3410005006477,新規,0,2022-07-08,2022-07-08,一般社団法人コラップ,,その他の設立登記法人,秋田県,秋田市,千秋明徳町１番５６号,,05,201,0100875,,,,,,,2022-07-08,1,,,,,コラップ,0
924,3470001019147,新規,0,2022-07-08,2022-07-08,株式会社Ｍ２Ａｕｔｏ,,株式会社,香川県,木田郡三木町,大字氷上２７４８番地２,,37,341,7610612,,,,,,,2022-07-08,1,,,,,エムツーオート,0
925,3470001019155,新規,0,2022-07-08,2022-07-08,株式会社エスプラネード,,株式会社,香川県,高松市,前田東町７４３番地５,,37,201,7610322,,,,,,,2022-07-08,1,,,,,エスプラネード,0
929,3500001024333,新規,0,2022-07-08,2022-07-08,株式会社マルカワ,,株式会社,愛媛県,新居浜市,垣生２丁目５番４７号,,38,205,7920872,,,,,,,2022-07-08,1,,,,,マルカワ,0
942,4010001227785,新規,0,2022-07-08,2022-07-08,ＳＡＬＥＳ　ＧＯ株式会社,,株式会社,東京都,中央区,晴海３丁目１２番１号,,13,102,1040053,,,,,,,2022-07-08,1,,,,,セールスゴー,0
943,4010001227876,新規,0,2022-07-08,2022-07-08,株式会社ワウコンサルティング,,株式会社,東京都,中央区,東日本橋３丁目７番７－１４０１号,,13,102,1030004,,,,,,,2022-07-08,1,,,,,ワウコンサルティング,0
945,4010003038066,新規,0,2022-07-08,2022-07-08,合同会社Ａｐｕｓ,,合同会社,東京都,千代田区,丸の内３丁目１番１号東京共同会計事務所内,,13,101,1000005,,,,,,,2022-07-08,1,,,,,アプス,0
946,4010003038082,新規,0,2022-07-08,2022-07-08,合同会社７４,,合同会社,東京都,中央区,銀座６丁目１３番１６号銀座ＷａｌｌビルＵＣＦ５０１,,13,102,1040061,,,,,,,2022-07-08,1,,,,,ナナヨン,0
948,4010005035210,新規,0,2022-07-08,2022-07-08,一般社団法人日本医療ＤＸ協会,,その他の設立登記法人,東京都,中央区,銀座２丁目４－１８ＡＬＢＯＲＥＧＩＮＺＡ４階ＴＨＩＲＤＣＬＩＮＩＣＧＩＮＺＡ内,,13,102,1040061,,,,,,,2022-07-08,1,,,,,ニホンイリョウディーエックスキョウカイ,0
949,4010005035227,新規,0,2022-07-08,2022-07-08,一般社団法人新富町ホールディングス,,その他の設立登記法人,東京都,千代田区,丸の内１丁目６番５号,,13,101,1000005,,,,,,,2022-07-08,1,,,,,シントミチョウホールディングス,0
960,4010401168290,新規,0,2022-07-08,2022-07-08,株式会社ロケット,,株式会社,東京都,港区,南青山１丁目１２番３号,,13,103,1070062,,,,,,,2022-07-08,1,,,,,ロケット,0
961,4010401168381,新規,0,2022-07-08,2022-07-08,トパーズ・リージョナル・パートナーズ株式会社,,株式会社,東京都,港区,愛宕２丁目５番１号愛宕グリーンヒルズＭＯＲＩタワー３９階,,13,103,1050002,,,,,,,2022-07-08,1,,,,,トパーズリージョナルパートナーズ,0
965,4010703006306,新規,0,2022-07-08,2022-07-08,合同会社ｅｉｇｈｔｇｏ,,合同会社,東京都,品川区,北品川６丁目５番２６号坂の上テラスＵ－７号室,,13,109,1410001,,,,,,,2022-07-08,1,,,,,エイトゴー,0
967,4010901051186,新規,0,2022-07-08,2022-07-08,株式会社ＧＹＡＫＵＳＡＮ　ＧＹＭ,,株式会社,東京都,世田谷区,粕谷４丁目２３番１９号スカイコーポ１Ｆ,,13,112,1570063,,,,,,,2022-07-08,1,,,,,ギャクサンジム,0
968,4010901051194,新規,0,2022-07-08,2022-07-08,株式会社ＳＲＫ,,株式会社,東京都,世田谷区,宮坂３丁目２番１３－３０２号,,13,112,1560051,,,,,,,2022-07-08,1,,,,,エスアールケイ,0
969,4010903007509,新規,0,2022-07-08,2022-07-08,合同会社横田貿易,,合同会社,東京都,世田谷区,野毛２丁目２２－２１,,13,112,1580092,,,,,,,2022-07-08,1,,,,,ヨコタボウエキ,0
973,4011001148146,新規,0,2022-07-08,2022-07-08,株式会社ＴＨＥ　ＴＯＫＹＯ,,株式会社,東京都,目黒区,駒場２丁目４番５号ジュネス駒場１０１,,13,110,1530041,,,,,,,2022-07-08,1,,,,,ザトウキョウ,0
974,4011001148476,新規,0,2022-07-08,2022-07-08,株式会社プラウドエタニティ,,株式会社,東京都,目黒区,下目黒１丁目２－２１,,13,110,1530064,,,,,,,2022-07-08,1,,,,,プラウドエタニティ,0
975,4011001148567,新規,0,2022-07-08,2022-07-08,株式会社Ｕ‐ＣＲＯＳＳ,,株式会社,東京都,渋谷区,道玄坂１丁目１０番８号渋谷道玄坂東急ビル２Ｆ－Ｃ,,13,113,1500043,,,,,,,2022-07-08,1,,,,,ユークロス,0
976,4011001148575,新規,0,2022-07-08,2022-07-08,株式会社ａ‐ｐｒｏ．,,株式会社,東京都,渋谷区,千駄ヶ谷２丁目２９番２号２０１号室,,13,113,1510051,,,,,,,2022-07-08,1,,,,,アプロ,0
977,4011003014965,新規,0,2022-07-08,2022-07-08,Ｇｙｍｄｅｓｋ合同会社,,合同会社,東京都,渋谷区,代々木１丁目３０番１５号天翔代々木ビル４階Ｓ４０４号室,,13,113,1510053,,,,,,,2022-07-08,1,,,,,ジムデスク,0
988,4011105010318,新規,0,2022-07-08,2022-07-08,行政書士法人Ｄｅｅ,,その他の設立登記法人,東京都,新宿区,早稲田鶴巻町５１９早稲田ＫＭビル６０１,,13,104,1620041,,,,,,,2022-07-08,1,,,,,ディー,0
1002,4012401039380,新規,0,2022-07-08,2022-07-08,株式会社Ｓ‐ｓｅａ企画,,株式会社,東京都,調布市,国領町７丁目２３番地１６,,13,208,1820022,,,,,,,2022-07-08,1,,,,,エスシーキカク,0
1003,4012701017144,新規,0,2022-07-08,2022-07-08,株式会社モノクローム,,株式会社,東京都,東村山市,恩多町５丁目１４－２６,,13,213,1890011,,,,,,,2022-07-08,1,,,,,モノクローム,0
1008,4012801021715,新規,0,2022-07-08,2022-07-08,株式会社ＭＷ,,株式会社,東京都,立川市,羽衣町２丁目６番４－１０１号,,13,202,1900021,,,,,,,2022-07-08,1,,,,,エムダブリュー,0
1021,4021001076338,新規,0,2022-07-08,2022-07-08,ＢＣＣ株式会社,,株式会社,神奈川県,横須賀市,大滝町１丁目３１セシル大滝壱番館２０４号室,,14,201,2380008,,,,,,,2022-07-08,1,,,,,ビシーシー,0
1026,4030001149012,新規,0,2022-07-08,2022-07-08,株式会社ヤマカデュアルエネルギー,,株式会社,埼玉県,川口市,中青木１丁目９番２０号,,11,203,3320032,,,,,,,2022-07-08,1,,,,,ヤマカデュアルエネルギー,0
1027,4030001149103,新規,0,2022-07-08,2022-07-08,株式会社ケイエンジニアリング,,株式会社,埼玉県,越谷市,南町３丁目９番６号,,11,222,3430832,,,,,,,2022-07-08,1,,,,,,0
1028,4030001149111,新規,0,2022-07-08,2022-07-08,株式会社テック・トラベルアンドビジネス,,株式会社,埼玉県,ふじみ野市,亀久保１２１７番地１９,,11,245,3560051,,,,,,,2022-07-08,1,,,,,テックトラベルアンドビジネス,0
1029,4030001149128,新規,0,2022-07-08,2022-07-08,アドバンス株式会社,,株式会社,埼玉県,蕨市,塚越１丁目８番２６号,,11,223,3350002,,,,,,,2022-07-08,1,,,,,アドバンス,0
1037,4040001124071,新規,0,2022-07-08,2022-07-08,株式会社ＷＨＥＬＭ,,株式会社,千葉県,船橋市,大穴北４丁目１９番３号,,12,204,2740068,,,,,,,2022-07-08,1,,,,,ウェルム,0
1038,4040001124113,新規,0,2022-07-08,2022-07-08,ＭＭシナジー株式会社,,株式会社,千葉県,千葉市緑区,おゆみ野２丁目３４番地８ライブ・アート春の道４棟４０１号,,12,105,2660031,,,,,,,2022-07-08,1,,,,,エムエムシナジー,0
1039,4040001124146,新規,0,2022-07-08,2022-07-08,株式会社ＣＲＡＦＴ　ＺＥＲＯ,,株式会社,千葉県,船橋市,芝山３丁目１２番１５号,,12,204,2740816,,,,,,,2022-07-08,1,,,,,クラフトゼロ,0
1040,4040001124162,新規,0,2022-07-08,2022-07-08,株式会社シーエイチエス,,株式会社,千葉県,船橋市,金杉９丁目１９番３号,,12,204,2730853,,,,,,,2022-07-08,1,,,,,シーエイチエス,0
1041,4040001124170,新規,0,2022-07-08,2022-07-08,株式会社ＶＩＲＩＳＥ,,株式会社,千葉県,成田市,並木町１７５番地３４,,12,211,2860045,,,,,,,2022-07-08,1,,,,,ヴィライズ,0
1042,4040001124195,新規,0,2022-07-08,2022-07-08,ＭＯＨＡＭＭＡＤ　ＴＲＡＤＩＮＧ株式会社,,株式会社,千葉県,印旛郡酒々井町,馬橋４２１番地４,,12,322,2850914,,,,,,,2022-07-08,1,,,,,モハマドトレーディング,0
1050,4060001035060,新規,0,2022-07-08,2022-07-08,株式会社インバイトフィーリングス,,株式会社,栃木県,宇都宮市,東谷町３６８番地２,,09,201,3210123,,,,,,,2022-07-08,1,,,,,インバイトフィーリングス,0
1052,4070001039408,新規,0,2022-07-08,2022-07-08,株式会社ナランハ,,株式会社,群馬県,伊勢崎市,戸谷塚町７６番地,,10,204,3720825,,,,,,,2022-07-08,1,,,,,ナランハ,0
1053,4070001039416,新規,0,2022-07-08,2022-07-08,クレセルサポート株式会社,,株式会社,群馬県,邑楽郡邑楽町,大字中野３５６２番地１,,10,525,3700603,,,,,,,2022-07-08,1,,,,,クレセルサポート,0
1055,4070003004533,新規,0,2022-07-08,2022-07-08,合同会社ＵＮＩＶＥＲＳＡＬ　ＴＲＡＶＥＬ　ＤＥＳＩＧＮ,,合同会社,群馬県,太田市,新井町２５６番地１スターマンション１－１１６号,,10,205,3730852,,,,,,,2022-07-08,1,,,,,ユニバーサルトラベルデザイン,0
1058,4080001025076,新規,0,2022-07-08,2022-07-08,竜南自動車株式会社,,株式会社,静岡県,静岡市葵区,瀬名中央１丁目７番４８号,,22,101,4200916,,,,,,,2022-07-08,1,,,,,リュウナンジドウシャ,0
1064,4090001017650,新規,0,2022-07-08,2022-07-08,株式会社山田フルーツ,,株式会社,山梨県,甲府市,相生１丁目３番２０号ポレスター甲府相生テラス５０５号,,19,201,4000858,,,,,,,2022-07-08,1,,,,,,0
1067,4100001035510,新規,0,2022-07-08,2022-07-08,株式会社ＴＯＫＵ,,株式会社,長野県,長野市,戸隠３２１７番地６,,20,201,3814101,,,,,,,2022-07-08,1,,,,,トク,0
1068,4100001035519,新規,0,2022-07-08,2022-07-08,株式会社ＨＩＪＩＲＩ,,株式会社,長野県,長野市,篠ノ井会１８８番地メゾン・ド・やまＮ棟２０２,,20,201,3888004,,,,,,,2022-07-08,1,,,,,ヒジリ,0
1072,4110001036813,新規,0,2022-07-08,2022-07-08,Ｃａｔ＆Ｂａｌｌｏｏｎ株式会社,,株式会社,新潟県,新潟市中央区,笹口１丁目１０番地２０メゾン南の風１Ｆ,,15,103,9500911,,,,,,,2022-07-08,1,,,,,キャットアンドバルーン,0
1083,4120001247120,新規,0,2022-07-08,2022-07-08,株式会社藏堂,,株式会社,大阪府,大阪市住吉区,遠里小野５丁目３番９号,,27,120,5580032,,,,,,,2022-07-08,1,,,,,クラドウ,0
1084,4120001247161,新規,0,2022-07-08,2022-07-08,株式会社岡田重量機工,,株式会社,大阪府,大阪市淀川区,十八条２丁目１６番４６－９１４号,,27,123,5320001,,,,,,,2022-07-08,1,,,,,オカダジュウリョウキコウ,0
1085,4120001247203,新規,0,2022-07-08,2022-07-08,川上ホールディングス株式会社,,株式会社,大阪府,大阪市大正区,三軒家東２丁目２番１８号岩本ビル,,27,108,5510002,,,,,,,2022-07-08,1,,,,,カワカミホールディングス,0
1086,4120001247244,新規,0,2022-07-08,2022-07-08,株式会社落合トラスト不動産,,株式会社,大阪府,大阪市旭区,高殿１丁目７番１８号,,27,117,5350031,,,,,,,2022-07-08,1,,,,,オチアイトラストフドウサン,0
1087,4120001247252,新規,0,2022-07-08,2022-07-08,株式会社ＳＴＡ,,株式会社,大阪府,大阪市北区,南森町１丁目３番９号柏尾ビル２１１号室,,27,127,5300054,,,,,,,2022-07-08,1,,,,,エスティーエー,0
1090,4120003022018,新規,0,2022-07-08,2022-07-08,合同会社Ｍｕｕ,,合同会社,大阪府,大阪市西区,千代崎１丁目２７番１０号サングラン千代崎１Ｆ,,27,106,5500023,,,,,,,2022-07-08,1,,,,,ムー,0
1091,4120003022034,新規,0,2022-07-08,2022-07-08,合同会社ＴＳＵＭＵＧＩ,,合同会社,大阪府,大阪市西区,西本町３丁目１番７号,,27,106,5500005,,,,,,,2022-07-08,1,,,,,ツムギ,0
1092,4120005023039,新規,0,2022-07-08,2022-07-08,医療法人継桜会,,その他の設立登記法人,大阪府,大阪市中央区,西心斎橋１丁目５番２７号福太郎心斎橋ビルディング７階,,27,128,5420086,,,,,,,2022-07-08,1,,,,,ケイオウカイ,0
1098,4120103004774,新規,0,2022-07-08,2022-07-08,ジャムセッション合同会社,,合同会社,大阪府,堺市北区,北花田町２丁１２番地１（４０４号）,,27,146,5918002,,,,,,,2022-07-08,1,,,,,ジャムセッション,0
1100,4120903004222,新規,0,2022-07-08,2022-07-08,合同会社フェリーチェ,,合同会社,大阪府,箕面市,彩都粟生南５丁目１８番１２号,,27,220,5620028,,,,,,,2022-07-08,1,,,,,フェリーチェ,0
1101,4120905006340,新規,0,2022-07-08,2022-07-08,特定非営利活動法人まーる,,その他の設立登記法人,大阪府,高槻市,芝生町２丁目６４番４６号,,27,207,5690823,,,,,,,2022-07-08,1,,,,,マール,0
1106,4140001126603,新規,0,2022-07-08,2022-07-08,株式会社ｈａｂｉｔ,,株式会社,兵庫県,神戸市長田区,北町１丁目１１番地,,28,106,6530016,,,,,,,2022-07-08,1,,,,,ハビット,0
1107,4140001126628,新規,0,2022-07-08,2022-07-08,グローコンサルティング株式会社,,株式会社,兵庫県,西宮市,名次町４番２７号,,28,204,6620024,,,,,,,2022-07-08,1,,,,,グローコンサルティング,0
1108,4140001126652,新規,0,2022-07-08,2022-07-08,株式会社パンデムズ,,株式会社,兵庫県,神戸市須磨区,道正台１丁目１番１－７０８号,,28,107,6540122,,,,,,,2022-07-08,1,,,,,パンデムズ,0
1109,4140001126669,新規,0,2022-07-08,2022-07-08,株式会社猪名川加勢,,株式会社,兵庫県,川辺郡猪名川町,北野字道東４０番地の１,,28,301,6660234,,,,,,,2022-07-08,1,,,,,イナガワカセイ,0
1110,4140001126677,新規,0,2022-07-08,2022-07-08,株式会社ＥＳヒラオ,,株式会社,兵庫県,加東市,天神３４１番地,,28,228,6731311,,,,,,,2022-07-08,1,,,,,イーエスーヒラオ,0
1111,4140001126776,新規,0,2022-07-08,2022-07-08,株式会社リーチ,,株式会社,兵庫県,神戸市西区,井吹台西町５丁目２３番地の１,,28,111,6512243,,,,,,,2022-07-08,1,,,,,リーチ,0
1112,4140003017908,新規,0,2022-07-08,2022-07-08,合同会社クリエイティブスリット,,合同会社,兵庫県,宝塚市,武庫川町２番２号,,28,214,6650844,,,,,,,2022-07-08,1,,,,,クリエイティブスリット,0
1124,4180001152050,新規,0,2022-07-08,2022-07-08,名鉄グループバスホールディングス株式会社,,株式会社,愛知県,名古屋市中村区,名駅４丁目２６番２５号,,23,105,4500002,,,,,,,2022-07-08,1,,,,,メイテツグループバスホールディングス,0
1125,4180001152075,新規,0,2022-07-08,2022-07-08,株式会社ＯＲＡＬ　ＭＯＵＮＴＡＩＮ,,株式会社,愛知県,一宮市,今伊勢町馬寄字西切戸１２番地１,,23,203,4910051,,,,,,,2022-07-08,1,,,,,オーラルマウンテン,0
1126,4180001152083,新規,0,2022-07-08,2022-07-08,株式会社ボルメックス,,株式会社,愛知県,名古屋市中区,新栄２丁目３５番１５号,,23,106,4600007,,,,,,,2022-07-08,1,,,,,ボルメックス,0
1127,4180001152109,新規,0,2022-07-08,2022-07-08,株式会社ＴＳＫホールディングス,,株式会社,愛知県,小牧市,小木東１丁目２３７番地,,23,219,4850059,,,,,,,2022-07-08,1,,,,,テイエスケイホールディングス,0
1128,4180001152125,新規,0,2022-07-08,2022-07-08,株式会社ポンズ,,株式会社,愛知県,名古屋市千種区,東山通４丁目１０番地５,,23,101,4640807,,,,,,,2022-07-08,1,,,,,ポンズ,0
1129,4180001152141,新規,0,2022-07-08,2022-07-08,ＮＥＥＫＯ　ＲＭ株式会社,,株式会社,愛知県,名古屋市千種区,仲田２丁目１９番１１号,,23,101,4640074,,,,,,,2022-07-08,1,,,,,ネコアールエム,0
1132,4180003024017,新規,0,2022-07-08,2022-07-08,Ｎ＆Ｎ合同会社,,合同会社,愛知県,春日井市,勝川町７番３７号ネクシティパレッタ１Ｆ,,23,206,4860945,,,,,,,2022-07-08,1,,,,,エヌアンドエヌ,0
1135,4180301036382,新規,0,2022-07-08,2022-07-08,Ｓｚｋ‐５Ｇｅｎ株式会社,,株式会社,愛知県,刈谷市,大手町５丁目５６番地,,23,210,4480857,,,,,,,2022-07-08,1,,,,,エスゼットケイゴゲン,0
1136,4180301036399,新規,0,2022-07-08,2022-07-08,株式会社ＪＭＸ,,株式会社,愛知県,西尾市,西幡豆町柳田２２番地,,23,213,4440703,,,,,,,2022-07-08,1,,,,,ジェイエムエックス,0
1137,4180301036408,新規,0,2022-07-08,2022-07-08,株式会社ＩＰＥＣ,,株式会社,愛知県,豊橋市,高師町字小野３番地の２９,,23,201,4418156,,,,,,,2022-07-08,1,,,,,アイペック,0
1139,4180303005385,新規,0,2022-07-08,2022-07-08,Ｄｉａｇｒａｍ合同会社,,合同会社,愛知県,安城市,三河安城町２丁目７番地２ハイスペクトル三河安城１階Ａ号,,23,212,4460056,,,,,,,2022-07-08,1,,,,,ダイアグラム,0
1142,4190001029603,新規,0,2022-07-08,2022-07-08,株式会社グッドスリー,,株式会社,三重県,津市,白塚町３３８０番地１,,24,201,5140101,,,,,,,2022-07-08,1,,,,,グッドスリー,0
1144,4200001040269,新規,0,2022-07-08,2022-07-08,株式会社ＣＡ．,,株式会社,岐阜県,羽島郡笠松町,字柳原町５０番地１,,21,303,5016100,,,,,,,2022-07-08,1,,,,,シーエー,0
1145,4210001018982,新規,0,2022-07-08,2022-07-08,株式会社ハーバーブリッジ,,株式会社,福井県,敦賀市,櫛林２５号３番地の１５,,18,202,9140138,,,,,,,2022-07-08,1,,,,,ハーバーブリッジ,0
1147,4230001019442,新規,0,2022-07-08,2022-07-08,株式会社三杢,,株式会社,富山県,下新川郡入善町,八幡２５０番地,,16,342,9390615,,,,,,,2022-07-08,1,,,,,ミツモク,0
1148,4230003001885,新規,0,2022-07-08,2022-07-08,合同会社平野屋,,合同会社,富山県,滑川市,柳原１７番地５,,16,206,9360023,,,,,,,2022-07-08,1,,,,,ヒラノヤ,0
1151,4240001060040,新規,0,2022-07-08,2022-07-08,Ｋ．Ｍ．Ｔ株式会社,,株式会社,広島県,福山市,新市町大字相方１０４番地,,34,207,7293102,,,,,,,2022-07-08,1,,,,,ケイエムティ,0
1152,4240001060065,新規,0,2022-07-08,2022-07-08,株式会社ウエストプラス,,株式会社,広島県,広島市安佐南区,伴中央２丁目４番１５号,,34,105,7313165,,,,,,,2022-07-08,1,,,,,ウエストプラス,0
1153,4240001060073,新規,0,2022-07-08,2022-07-08,株式会社ティーケイ,,株式会社,広島県,広島市西区,南観音８丁目９番１４号,,34,104,7330035,,,,,,,2022-07-08,1,,,,,ティーケイ,0
1154,4240001060081,新規,0,2022-07-08,2022-07-08,株式会社アイアンプレイ,,株式会社,広島県,広島市安佐南区,伴東４丁目３番１５－６号,,34,105,7313164,,,,,,,2022-07-08,1,,,,,アイアンプレイ,0
1158,4240003005704,新規,0,2022-07-08,2022-07-08,合同会社Ｈ＆ＪＷＯＲＫ,,合同会社,広島県,広島市安佐南区,長束６丁目７番５－２号,,34,105,7310135,,,,,,,2022-07-08,1,,,,,エイチアンドジェイワーク,0
1160,4250001019639,新規,0,2022-07-08,2022-07-08,株式会社木戸工業,,株式会社,山口県,宇部市,芝中町６番１６－７号,,35,202,7550017,,,,,,,2022-07-08,1,,,,,キドコウギョウ,0
1161,4250001019655,新規,0,2022-07-08,2022-07-08,株式会社ウスマン・インターナショナル,,株式会社,山口県,山口市,鋳銭司３０１９番地,,35,203,7471221,,,,,,,2022-07-08,1,,,,,ウスマンインターナショナル,0
1163,4250003003112,新規,0,2022-07-08,2022-07-08,合同会社エイト,,合同会社,山口県,柳井市,古開作４６８番地１０,,35,212,7420032,,,,,,,2022-07-08,1,,,,,エイト,0
1167,4260001036996,新規,0,2022-07-08,2022-07-08,株式会社ＮＹＵ,,株式会社,岡山県,倉敷市,玉島柏島６４９５番地,,33,202,7138123,,,,,,,2022-07-08,1,,,,,エヌワイユー,0
1175,4290001098134,新規,0,2022-07-08,2022-07-08,株式会社アートグリーン,,株式会社,福岡県,糸島市,井田４５９番地１,,40,230,8191562,,,,,,,2022-07-08,1,,,,,アートグリーン,0
1176,4290001098167,新規,0,2022-07-08,2022-07-08,株式会社ラムネ,,株式会社,福岡県,福岡市城南区,鳥飼５丁目１８番１５号,,40,136,8140103,,,,,,,2022-07-08,1,,,,,ラムネ,0
1177,4290001098191,新規,0,2022-07-08,2022-07-08,ＬＡＮＤＭＡＲＫ株式会社,,株式会社,福岡県,福岡市西区,西都１丁目１０番１０－１０１号ヴィラーチェ伊都Ａ棟,,40,135,8190367,,,,,,,2022-07-08,1,,,,,ランドマーク,0
1178,4290001098241,新規,0,2022-07-08,2022-07-08,株式会社アーミー,,株式会社,福岡県,福岡市博多区,吉塚２丁目１９番２２－９０１号アーサー吉塚ビアンナ,,40,132,8120041,,,,,,,2022-07-08,1,,,,,アーミー,0
1186,4320001019193,新規,0,2022-07-08,2022-07-08,株式会社ＪＯＣ,,株式会社,大分県,大分市,長浜町３丁目９番１９号,,44,201,8700023,,,,,,,2022-07-08,1,,,,,ジェイオーシー,0
1187,4320003003848,新規,0,2022-07-08,2022-07-08,合同会社ＮＹ企画,,合同会社,大分県,玖珠郡玖珠町,大字塚脇７８番地の２,,44,462,8794413,,,,,,,2022-07-08,1,,,,,エヌワイキカク,0
1191,4340001024885,新規,0,2022-07-08,2022-07-08,株式会社Ｍ’ｓ　ｃｏｍｐａｎｙ,,株式会社,鹿児島県,鹿児島市,田上６丁目２７番１号アイリスコート田上１００３号,,46,201,8900034,,,,,,,2022-07-08,1,,,,,エムズカンパニー,0
1194,4350001017855,新規,0,2022-07-08,2022-07-08,株式会社なか窪,,株式会社,宮崎県,宮崎市,船塚２丁目１７４番地,,45,201,8800031,,,,,,,2022-07-08,1,,,,,ナカクボ,0
1195,4360001030650,新規,0,2022-07-08,2022-07-08,仲栄真レッカー株式会社,,株式会社,沖縄県,石垣市,新栄町７５番地５０,,47,207,9070014,,,,,,,2022-07-08,1,,,,,ナカエマレッカー,0
1196,4360001030667,新規,0,2022-07-08,2022-07-08,株式会社ｏｋｉｆｕ,,株式会社,沖縄県,那覇市,牧志３丁目２０番６号,,47,201,9000013,,,,,,,2022-07-08,1,,,,,オキフ,0
1197,4360001030675,新規,0,2022-07-08,2022-07-08,栄亨株式会社,,株式会社,沖縄県,宜野湾市,野嵩２丁目８番７号,,47,205,9012203,,,,,,,2022-07-08,1,,,,,エム,0
1199,4360003012143,新規,0,2022-07-08,2022-07-08,Ｎｉｍｂｕｓ　Ｓｏｌｕｔｉｏｎｓ合同会社,,合同会社,沖縄県,うるま市,字平良川９７－１６平良川ハイツ２－１号室,,47,213,9042221,,,,,,,2022-07-08,1,,,,,ニンバスソリューションズ,0
1205,4390001016960,新規,0,2022-07-08,2022-07-08,株式会社井上塗装,,株式会社,山形県,鶴岡市,文園町７番５５号,,06,203,9970816,,,,,,,2022-07-08,1,,,,,イノウエトソウ,0
1212,4410001013229,新規,0,2022-07-08,2022-07-08,賃貸住宅支援活性化センター株式会社,,株式会社,秋田県,秋田市,広面字屋敷田３１１番地１,,05,201,0100041,,,,,,,2022-07-08,1,,,,,チンタイジュウタクシエンカッセイカセンター,0
1213,4420001017930,新規,0,2022-07-08,2022-07-08,株式会社アイウッド,,株式会社,青森県,十和田市,元町西６丁目１番６４号,,02,206,0340002,,,,,,,2022-07-08,1,,,,,アイウッド,0
1224,4480001011787,新規,0,2022-07-08,2022-07-08,株式会社モリデザイン工房,,株式会社,徳島県,阿南市,羽ノ浦町古庄大道ノ西１０番地１,,36,204,7791105,,,,,,,2022-07-08,1,,,,,モリデザインコウボウ,0
1230,5010001227792,新規,0,2022-07-08,2022-07-08,株式会社アクシオムテクノロジーズ,,株式会社,東京都,中央区,日本橋兜町８番１号２階,,13,102,1030026,,,,,,,2022-07-08,1,,,,,アクシオムテクノロジーズ,0
1231,5010001227834,新規,0,2022-07-08,2022-07-08,株式会社ＷＨ　Ｔｅｃｈ,,株式会社,東京都,中央区,銀座１丁目１２番４号Ｎ＆Ｅ・ＢＬＤ．７階,,13,102,1040061,,,,,,,2022-07-08,1,,,,,ダブルエイチテック,0
1232,5010001227842,新規,0,2022-07-08,2022-07-08,株式会社アイ・ピー・エス・プロ,,株式会社,東京都,中央区,築地４丁目１番１号,,13,102,1040045,,,,,,,2022-07-08,1,,,,,アイピーエスプロ,0
1233,5010001227875,新規,0,2022-07-08,2022-07-08,株式会社Ａ‐ＤＩＰ,,株式会社,東京都,中央区,日本橋３丁目８番１３号,,13,102,1030027,,,,,,,2022-07-08,1,,,,,エーディップ,0
1234,5010001227891,新規,0,2022-07-08,2022-07-08,エフジーブリッジ流動化株式会社,,株式会社,東京都,千代田区,麹町５丁目１番地１,,13,101,1020083,,,,,,,2022-07-08,1,,,,,エフジーブリッジリュウドウカ,0
1235,5010001227925,新規,0,2022-07-08,2022-07-08,株式会社ＨＡＭ,,株式会社,東京都,中央区,明石町１番３１,,13,102,1040044,,,,,,,2022-07-08,1,,,,,ハム,0
1236,5010003038057,新規,0,2022-07-08,2022-07-08,イソラリゾートワークス合同会社,,合同会社,東京都,中央区,銀座１丁目１２－４Ｎ＆ＥＢＬＤ．７階,,13,102,1040061,,,,,,,2022-07-08,1,,,,,イソラリゾートワークス,0
1237,5010003038065,新規,0,2022-07-08,2022-07-08,合同会社Ａｎｔｌｉａ,,合同会社,東京都,千代田区,丸の内３丁目１番１号東京共同会計事務所内,,13,101,1000005,,,,,,,2022-07-08,1,,,,,アントリア,0
1238,5010005035218,新規,0,2022-07-08,2022-07-08,Ｓａｐｐｈｉｒｅ一般社団法人,,その他の設立登記法人,東京都,千代田区,丸の内３丁目１番１号東京共同会計事務所内,,13,101,1000005,,,,,,,2022-07-08,1,,,,,サファイア,0
1242,5010401168323,新規,0,2022-07-08,2022-07-08,株式会社真響社,,株式会社,東京都,港区,三田２丁目１２番５号,,13,103,1080073,,,,,,,2022-07-08,1,,,,,シンキョウシャ,0
1243,5010401168397,新規,0,2022-07-08,2022-07-08,和牛ファーム開発株式会社,,株式会社,東京都,港区,虎ノ門１丁目２番１８号,,13,103,1050001,,,,,,,2022-07-08,1,,,,,ワギュウファームカイハツ,0
1244,5010401168406,新規,0,2022-07-08,2022-07-08,株式会社ＡＳＡ,,株式会社,東京都,港区,西麻布３丁目３番３号谷沢第６ビル３階,,13,103,1060031,,,,,,,2022-07-08,1,,,,,アサ,0
1248,5010405021189,新規,0,2022-07-08,2022-07-08,一般社団法人ＤＴ京都清水,,その他の設立登記法人,東京都,港区,南青山４丁目２１番２６号細谷総合会計事務所内,,13,103,1070062,,,,,,,2022-07-08,1,,,,,ディーティーキョウトキヨミズ,0
1253,5010501049076,新規,0,2022-07-08,2022-07-08,株式会社スリープロジェクト,,株式会社,東京都,台東区,上野３丁目１６番２号天翔オフィス２０４号,,13,106,1100005,,,,,,,2022-07-08,1,,,,,スリープロジェクト,0
1255,5010601061419,新規,0,2022-07-08,2022-07-08,株式会社ＭＢＡ,,株式会社,東京都,江東区,辰巳１丁目７番２６号ＴＡＴＳＵＭＩスカイガーデンテラス４１７号室,,13,108,1350053,,,,,,,2022-07-08,1,,,,,エムビーエー,0
1256,5010601061451,新規,0,2022-07-08,2022-07-08,株式会社スマーテック,,株式会社,東京都,江東区,新砂３丁目４番４３－９１４号,,13,108,1360075,,,,,,,2022-07-08,1,,,,,スマーテック,0
1258,5010801033102,新規,0,2022-07-08,2022-07-08,株式会社ＥＶＥＲＹＴＨＩＮＧ　ＳＴＡＲＴＳ,,株式会社,東京都,大田区,西六郷４丁目１１－１－３２７,,13,111,1440056,,,,,,,2022-07-08,1,,,,,エブリシングスターツ,0
1263,5010901051160,新規,0,2022-07-08,2022-07-08,株式会社柳屋,,株式会社,東京都,世田谷区,上用賀５丁目２５番２０号,,13,112,1580098,,,,,,,2022-07-08,1,,,,,ヤナギヤ,0
1264,5010901051185,新規,0,2022-07-08,2022-07-08,株式会社鈴木会計事務所,,株式会社,東京都,世田谷区,岡本３丁目１１番１８号,,13,112,1570076,,,,,,,2022-07-08,1,,,,,スズキカイケイジムショ,0
1273,5011001148491,新規,0,2022-07-08,2022-07-08,株式会社ＮＥＸＴ,,株式会社,東京都,渋谷区,神宮前６丁目２３番４号桑野ビル２階,,13,113,1500001,,,,,,,2022-07-08,1,,,,,ネクスト,0
1274,5011001148525,新規,0,2022-07-08,2022-07-08,株式会社シヨラス,,株式会社,東京都,目黒区,東が丘２丁目３番２０号,,13,110,1520021,,,,,,,2022-07-08,1,,,,,シヨラス,0
1276,5011003014964,新規,0,2022-07-08,2022-07-08,ｌｅ　ｐｏｎｔ合同会社,,合同会社,東京都,渋谷区,道玄坂１丁目１０番８号渋谷道玄坂東急ビル２Ｆ－Ｃ,,13,113,1500043,,,,,,,2022-07-08,1,,,,,ルポン,0
1277,5011003014980,新規,0,2022-07-08,2022-07-08,ＤＥＣＯ　ＤＥＳＩＧＮ合同会社,,合同会社,東京都,渋谷区,神宮前６丁目２３－４桑野ビル２Ｆ,,13,113,1500001,,,,,,,2022-07-08,1,,,,,デコデザイン,0
1280,5011101099420,新規,0,2022-07-08,2022-07-08,株式会社Ｚｅｎｉｔｈ　Ｓｕｚｕｋｉ　Ｃｏｎｓｔｒｕｃｔｉｏｎ,,株式会社,東京都,新宿区,北新宿２丁目２１番１号新宿フロントタワー２８階２８１０区外,,13,104,1690074,,,,,,,2022-07-08,1,,,,,ゼニススズキコンストラクション,0
1281,5011101099461,新規,0,2022-07-08,2022-07-08,Ｒｅ．Ｂａｂｅｌ株式会社,,株式会社,東京都,新宿区,市谷八幡町２－１ＤＳ市ヶ谷ビル３階,,13,104,1620844,,,,,,,2022-07-08,1,,,,,リバベル,0
1282,5011101099478,新規,0,2022-07-08,2022-07-08,学エンターテイメント株式会社,,株式会社,東京都,新宿区,西新宿３丁目３番１３号西新宿水間ビル６階,,13,104,1600023,,,,,,,2022-07-08,1,,,,,ガクエンターテイメント,0
1283,5011105010317,新規,0,2022-07-08,2022-07-08,弁理士法人ブランシェ国際知的財産事務所,,その他の設立登記法人,東京都,新宿区,高田馬場１丁目２８番１８号和光ビル４０５号,,13,104,1690075,,,,,,,2022-07-08,1,,,,,ブランシェコクサイチテキザイサンジムショ,0
1285,5011201023949,新規,0,2022-07-08,2022-07-08,株式会社ペインワン,,株式会社,東京都,中野区,新井１丁目２２番２－１０１号,,13,114,1650026,,,,,,,2022-07-08,1,,,,,ペインワン,0
1287,5011203003866,新規,0,2022-07-08,2022-07-08,合同会社横浜興業,,合同会社,東京都,中野区,野方４丁目３２番２号,,13,114,1650027,,,,,,,2022-07-08,1,,,,,ヨコハマコウギョウ,0
1288,5011303004467,新規,0,2022-07-08,2022-07-08,合同会社フォッカーズ,,合同会社,東京都,杉並区,高円寺北２丁目３番１９－４０６号ライオンズマンション高円寺北,,13,115,1660002,,,,,,,2022-07-08,1,,,,,フォッカーズ,0
1291,5011601026080,新規,0,2022-07-08,2022-07-08,株式会社野田,,株式会社,東京都,練馬区,大泉学園町２丁目３１番１２号,,13,120,1780061,,,,,,,2022-07-08,1,,,,,ノダ,0
1298,5011801040971,新規,0,2022-07-08,2022-07-08,株式会社ＳＹＳ,,株式会社,東京都,葛飾区,堀切４丁目６番１６号第一丸善ビル４０２,,13,122,1240006,,,,,,,2022-07-08,1,,,,,エスワイエス,0
1302,5012403005470,新規,0,2022-07-08,2022-07-08,合同会社ｌｕａｎａｌｏａ,,合同会社,東京都,調布市,布田２丁目３２－１,,13,208,1820024,,,,,,,2022-07-08,1,,,,,ルアナロア,0
1312,5020001147271,新規,0,2022-07-08,2022-07-08,株式会社みずかげ製作所,,株式会社,神奈川県,横浜市中区,真砂町３丁目３１,,14,104,2310016,,,,,,,2022-07-08,1,,,,,ミズカゲセイサクジョ,0
1317,5021001076460,新規,0,2022-07-08,2022-07-08,株式会社ドロネー,,株式会社,神奈川県,茅ヶ崎市,富士見町１６番３９－１１号,,14,207,2530031,,,,,,,2022-07-08,1,,,,,ドロネー,0
1318,5021001076469,新規,0,2022-07-08,2022-07-08,株式会社藤屋Ｂｕｉｌｄ,,株式会社,神奈川県,鎌倉市,材木座２丁目８番２３号,,14,204,2480013,,,,,,,2022-07-08,1,,,,,フジヤビルド,0
1319,5021003011911,新規,0,2022-07-08,2022-07-08,ＰＬＡＮ‐ＯＮＥ合同会社,,合同会社,神奈川県,相模原市南区,南台５丁目１５－１２相模台奉仕会館３階,,14,153,2520314,,,,,,,2022-07-08,1,,,,,プランワン,0
1323,5030001149069,新規,0,2022-07-08,2022-07-08,株式会社ｔｗｅｌｖｅ,,株式会社,埼玉県,川越市,脇田町６番地１－１階,,11,201,3501122,,,,,,,2022-07-08,1,,,,,トゥエルブ,0
1324,5030001149102,新規,0,2022-07-08,2022-07-08,株式会社サトシワークス,,株式会社,埼玉県,さいたま市浦和区,上木崎８丁目１番２号,,11,107,3300071,,,,,,,2022-07-08,1,,,,,サトシワークス,0
1325,5030001149127,新規,0,2022-07-08,2022-07-08,株式会社ストーン,,株式会社,埼玉県,川越市,大字古谷上６０８３－８,,11,201,3500001,,,,,,,2022-07-08,1,,,,,ストーン,0
1326,5030001149135,新規,0,2022-07-08,2022-07-08,株式会社ＯＲＵＩ,,株式会社,埼玉県,熊谷市,久保島２３０５番地,,11,202,3600831,,,,,,,2022-07-08,1,,,,,オオルイ,0
1327,5030001149143,新規,0,2022-07-08,2022-07-08,プラス実務株式会社,,株式会社,埼玉県,越谷市,南越谷４丁目１２番地３－１００５,,11,222,3430845,,,,,,,2022-07-08,1,,,,,プラスジツム,0
1328,5030001149151,新規,0,2022-07-08,2022-07-08,株式会社陽耕ファーム,,株式会社,埼玉県,深谷市,上野台３１１７番地５・Ｂ－８,,11,218,3660801,,,,,,,2022-07-08,1,,,,,ヨウコウファーム,0
1338,5040001124087,新規,0,2022-07-08,2022-07-08,株式会社魁新工業,,株式会社,千葉県,松戸市,紙敷１１２０番地の２,,12,207,2702221,,,,,,,2022-07-08,1,,,,,カイシンコウギョウ,0
1339,5040001124252,新規,0,2022-07-08,2022-07-08,株式会社ＯＴ２,,株式会社,千葉県,松戸市,殿平賀２１１－８,,12,207,2700004,,,,,,,2022-07-08,1,,,,,オートッツ,0
1341,5040005021669,新規,0,2022-07-08,2022-07-08,アイプレップ協同組合,,その他の設立登記法人,千葉県,富津市,大堀１３８７番地,,12,226,2930001,,,,,,,2022-07-08,1,,,,,アイプレップ,0
1343,5050001051363,新規,0,2022-07-08,2022-07-08,ケーユーデンキ株式会社,,株式会社,茨城県,下妻市,中郷６６１番地,,08,210,3040014,,,,,,,2022-07-08,1,,,,,ケーユーデンキ,0
1351,5070001039407,新規,0,2022-07-08,2022-07-08,株式会社増保鉄工,,株式会社,群馬県,邑楽郡板倉町,大字海老瀬７０９４番地１,,10,521,3740111,,,,,,,2022-07-08,1,,,,,マスホテッコウ,0
1352,5070001039415,新規,0,2022-07-08,2022-07-08,株式会社コルモ,,株式会社,群馬県,桐生市,川内町３丁目５６９番地１０,,10,203,3760041,,,,,,,2022-07-08,1,,,,,コルモ,0
1353,5070003004540,新規,0,2022-07-08,2022-07-08,合同会社岡安映像デザイン,,合同会社,群馬県,吾妻郡東吾妻町,大字植栗１００４番地１,,10,429,3770805,,,,,,,2022-07-08,1,,,,,オカヤスエイゾウデザイン,0
1355,5080001025067,新規,0,2022-07-08,2022-07-08,株式会社ｑｏｏｐ,,株式会社,静岡県,静岡市駿河区,谷田４１番３０号１０２,,22,102,4228002,,,,,,,2022-07-08,1,,,,,クープ,0
1356,5080001025075,新規,0,2022-07-08,2022-07-08,株式会社万山,,株式会社,静岡県,静岡市駿河区,谷田３１番２１号,,22,102,4228002,,,,,,,2022-07-08,1,,,,,バンサン,0
1358,5080401025922,新規,0,2022-07-08,2022-07-08,株式会社フィールドマーカー,,株式会社,静岡県,浜松市東区,豊町３１８３番地,,22,132,4313101,,,,,,,2022-07-08,1,,,,,フィールドマーカー,0
1359,5080401025947,新規,0,2022-07-08,2022-07-08,株式会社Ｌｏｏｐ,,株式会社,静岡県,浜松市中区,葵西５丁目６番５号,,22,131,4338111,,,,,,,2022-07-08,1,,,,,ループ,0
1362,5100001035518,新規,0,2022-07-08,2022-07-08,株式会社ＳＳＣ,,株式会社,長野県,下高井郡山ノ内町,大字平穏字東館７１４９番地,,20,561,3810401,,,,,,,2022-07-08,1,,,,,エスエスシー,0
1366,5110001036820,新規,0,2022-07-08,2022-07-08,株式会社ＱＵＥＳＴＡ,,株式会社,新潟県,新潟市西区,小針４丁目１７番１号,,15,107,9502022,,,,,,,2022-07-08,1,,,,,クエスタ,0
1382,5120001247111,新規,0,2022-07-08,2022-07-08,株式会社Ｓｈｉｎｗａ　Ｐｌａｎ,,株式会社,大阪府,大阪市鶴見区,鶴見３丁目５番１２号尾本ビル２階,,27,124,5380053,,,,,,,2022-07-08,1,,,,,シンワプラン,0
1383,5120001247144,新規,0,2022-07-08,2022-07-08,株式会社クラフトマンワークス,,株式会社,大阪府,枚方市,茄子作２丁目１７番４８号,,27,210,5730071,,,,,,,2022-07-08,1,,,,,クラフトマンワークス,0
1384,5120001247292,新規,0,2022-07-08,2022-07-08,株式会社ＭＱ　ＧＲＯＵＰ,,株式会社,大阪府,大阪市西成区,聖天下２丁目３番９号エイト聖天下２０６号,,27,122,5570012,,,,,,,2022-07-08,1,,,,,エムキューグループ,0
1386,5120003022025,新規,0,2022-07-08,2022-07-08,合同会社カムヒア商店,,合同会社,大阪府,大阪市中央区,千日前２丁目４番１２号,,27,128,5420074,,,,,,,2022-07-08,1,,,,,カムヒアショウテン,0
1387,5120003022041,新規,0,2022-07-08,2022-07-08,合同会社ＩＴ経営相談ＡＳＥ,,合同会社,大阪府,大阪市住吉区,南住吉４丁目２番１７号,,27,120,5580041,,,,,,,2022-07-08,1,,,,,アイティケイエイソウダンエース,0
1392,5120101065867,新規,0,2022-07-08,2022-07-08,ダイワトレーディング株式会社,,株式会社,大阪府,泉南郡岬町,淡輪２９６１番１,,27,366,5990301,,,,,,,2022-07-08,1,,,,,ダイワトレーディング,0
1393,5120101065883,新規,0,2022-07-08,2022-07-08,株式会社ＰＧＣ,,株式会社,大阪府,和泉市,善正町３６７,,27,219,5941125,,,,,,,2022-07-08,1,,,,,ピージーシー,0
1398,5122001036048,新規,0,2022-07-08,2022-07-08,株式会社ＤＲＥＡＭ　ＧＲＡＢ,,株式会社,大阪府,大東市,北条７丁目１５－２０,,27,218,5740011,,,,,,,2022-07-08,1,,,,,ドリームグラブ,0
1406,5140001126602,新規,0,2022-07-08,2022-07-08,株式会社カデンツァ企画,,株式会社,兵庫県,宝塚市,宝梅２丁目１番２３号,,28,214,6650013,,,,,,,2022-07-08,1,,,,,カデンツァキカク,0
1407,5140001126651,新規,0,2022-07-08,2022-07-08,株式会社Ｍａｒｃｈｅｒ,,株式会社,兵庫県,明石市,魚住町住吉２丁目２３番１２号,,28,203,6740083,,,,,,,2022-07-08,1,,,,,マルシェ,0
1408,5140001126668,新規,0,2022-07-08,2022-07-08,株式会社Ｂｉｌｄ　Ｂｒａｎｃｈｅｎ,,株式会社,兵庫県,神戸市灘区,将軍通２丁目１－３,,28,102,6570058,,,,,,,2022-07-08,1,,,,,ビルトブランシェ,0
1410,5140003017881,新規,0,2022-07-08,2022-07-08,神戸エステート合同会社,,合同会社,兵庫県,神戸市中央区,下山手通４丁目１番１号,,28,110,6500011,,,,,,,2022-07-08,1,,,,,コウベエステート,0
1413,5160005011096,新規,0,2022-07-08,2022-07-08,特定非営利活動法人おおたき里づくりネットワーク,,その他の設立登記法人,滋賀県,犬上郡多賀町,大字富之尾１５８６番地２,,25,443,5220337,,,,,,,2022-07-08,1,,,,,オオタキサトヅクリネットワーク,0
1415,5170001017187,新規,0,2022-07-08,2022-07-08,株式会社日本福祉訪問理美容サービスハサミノチカラ,,株式会社,和歌山県,和歌山市,津秦１６４番地８,,30,201,6408315,,,,,,,2022-07-08,1,,,,,ニホンフクシサービスハサミノチカラ,0
1423,5180001152000,新規,0,2022-07-08,2022-07-08,株式会社明仁,,株式会社,愛知県,名古屋市熱田区,八番１丁目９番１４号,,23,109,4560059,,,,,,,2022-07-08,1,,,,,メイジン,0
1424,5180001152017,新規,0,2022-07-08,2022-07-08,株式会社ＬＳエクリプス,,株式会社,愛知県,名古屋市天白区,八事石坂６２２番地,,23,116,4680076,,,,,,,2022-07-08,1,,,,,エルエスエクリプス,0
1425,5180001152025,新規,0,2022-07-08,2022-07-08,覚王山不動産販売株式会社,,株式会社,愛知県,名古屋市千種区,末盛通２丁目１７番地の１グリム覚王山２０１号,,23,101,4640821,,,,,,,2022-07-08,1,,,,,カクオウザンフドウサンハンバイ,0
1426,5180001152058,新規,0,2022-07-08,2022-07-08,ＯｎＬｉｎｅ株式会社,,株式会社,愛知県,名古屋市名東区,高社１丁目１６番地東昭ビル３０７号,,23,115,4650095,,,,,,,2022-07-08,1,,,,,オンライン,0
1427,5180001152116,新規,0,2022-07-08,2022-07-08,ジー・グループ株式会社,,株式会社,愛知県,名古屋市緑区,東神の倉２丁目２２２１番地,,23,114,4580808,,,,,,,2022-07-08,1,,,,,ジーグループ,0
1431,5180003024008,新規,0,2022-07-08,2022-07-08,合同会社横井誠慈,,合同会社,愛知県,海部郡蟹江町,源氏３丁目８番地,,23,425,4970055,,,,,,,2022-07-08,1,,,,,ヨコイセイジ,0
1435,5180301036381,新規,0,2022-07-08,2022-07-08,コネクタービジョン株式会社,,株式会社,愛知県,岡崎市,南明大寺町１１番地２Ｔテラス明大寺４０８,,23,202,4440852,,,,,,,2022-07-08,1,,,,,コネクタービジョン,0
1436,5180301036407,新規,0,2022-07-08,2022-07-08,株式会社エムアイ,,株式会社,愛知県,豊橋市,向山町字池下４３番地の１,,23,201,4400864,,,,,,,2022-07-08,1,,,,,エムアイ,0
1437,5180303005376,新規,0,2022-07-08,2022-07-08,合同会社ｊｉｎｇ,,合同会社,愛知県,豊橋市,広小路３丁目５４―１キャンファーローレルタワー６０３号室,,23,201,4400881,,,,,,,2022-07-08,1,,,,,ジン,0
1438,5180303005384,新規,0,2022-07-08,2022-07-08,合同会社フロンティア,,合同会社,愛知県,豊橋市,城山町１番地８,,23,201,4418146,,,,,,,2022-07-08,1,,,,,フロンティア,0
1440,5190001029610,新規,0,2022-07-08,2022-07-08,株式会社宮一,,株式会社,三重県,松阪市,町平尾町９１７番地,,24,204,5150803,,,,,,,2022-07-08,1,,,,,ミヤイチ,0
1449,5220001024946,新規,0,2022-07-08,2022-07-08,株式会社ケンセイ,,株式会社,石川県,金沢市,横川５丁目４４１番地愛・美・住横川３０８号室,,17,201,9218163,,,,,,,2022-07-08,1,,,,,ケンセイ,0
1450,5230001019441,新規,0,2022-07-08,2022-07-08,株式会社Ｂａｃｋｕｐ,,株式会社,富山県,富山市,高屋敷４６７番地１,,16,201,9398036,,,,,,,2022-07-08,1,,,,,バックアップ,0
1454,5240001060080,新規,0,2022-07-08,2022-07-08,株式会社アルファ,,株式会社,広島県,広島市佐伯区,楽々園５丁目２２番１５号,,34,108,7315136,,,,,,,2022-07-08,1,,,,,アルファ,0
1456,5250001019654,新規,0,2022-07-08,2022-07-08,株式会社Ｏ‐ＬＡＮＤ,,株式会社,山口県,宇部市,南小羽山町１丁目９番１８号,,35,202,7550083,,,,,,,2022-07-08,1,,,,,オーランド,0
1465,5260003003977,新規,0,2022-07-08,2022-07-08,合同会社３ＰｉＥＣＥ,,合同会社,岡山県,倉敷市,児島上の町２丁目９番３１号,,33,202,7110907,,,,,,,2022-07-08,1,,,,,スリーピース,0
1466,5260005011111,新規,0,2022-07-08,2022-07-08,特定非営利活動法人くすの木,,その他の設立登記法人,岡山県,倉敷市,水江１５８５番地７,,33,202,7100802,,,,,,,2022-07-08,1,,,,,クスノキ,0
1474,5290001098190,新規,0,2022-07-08,2022-07-08,株式会社ＡＬＬ　ＦＯＲ　ＯＮＥ,,株式会社,福岡県,大野城市,乙金３丁目９番１５号,,40,219,8160902,,,,,,,2022-07-08,1,,,,,オールフォーワン,0
1475,5290001098240,新規,0,2022-07-08,2022-07-08,株式会社島田建設工業,,株式会社,福岡県,福岡市早良区,早良６丁目３４番６号,,40,137,8111122,,,,,,,2022-07-08,1,,,,,シマダケンセツコウギョウ,0
1479,5290801028727,新規,0,2022-07-08,2022-07-08,株式会社ＹＩＰ‐ＹＩＰ,,株式会社,福岡県,京都郡苅田町,大字南原１６８１番地１オーピットハウス２０１,,40,621,8000355,,,,,,,2022-07-08,1,,,,,イップイップ,0
1482,5320001019192,新規,0,2022-07-08,2022-07-08,株式会社Ｔ．Ｄ．Ｓ,,株式会社,大分県,大分市,碩田町１丁目１番２７号,,44,201,8700048,,,,,,,2022-07-08,1,,,,,ティーディーエス,0
1485,5320003003847,新規,0,2022-07-08,2022-07-08,合同会社フジアイル,,合同会社,大分県,別府市,上田の湯町１２番７号ウォムハウス４Ｄ,,44,202,8740908,,,,,,,2022-07-08,1,,,,,フジアイル,0
1488,5330001029918,新規,0,2022-07-08,2022-07-08,株式会社楽将,,株式会社,熊本県,合志市,野々島４８２０番地,,43,216,8611103,,,,,,,2022-07-08,1,,,,,ラクショウ,0
1489,5360001030658,新規,0,2022-07-08,2022-07-08,株式会社Ｃｏｓｍｉｃ　Ｃｏｎｓｕｌｔｉｎｇ,,株式会社,沖縄県,那覇市,首里石嶺町３丁目２１３番地１,,47,201,9030804,,,,,,,2022-07-08,1,,,,,コズミックコンサルティング,0
1491,5360003012142,新規,0,2022-07-08,2022-07-08,合同会社盟友産業,,合同会社,沖縄県,国頭郡今帰仁村,字与那嶺１５４番地,,47,306,9050425,,,,,,,2022-07-08,1,,,,,メイユウサンギョウ,0
1492,5370001048757,新規,0,2022-07-08,2022-07-08,株式会社高品建設,,株式会社,宮城県,加美郡加美町,字漆沢宇津野３３番地,,04,445,9814368,,,,,,,2022-07-08,1,,,,,コウヒンケンセツ,0
1507,5440001009116,新規,0,2022-07-08,2022-07-08,株式会社パイン,,株式会社,北海道,函館市,根崎町５４５番地１,,01,202,0420924,,,,,,,2022-07-08,1,,,,,パイン,0
1508,5450001013744,新規,0,2022-07-08,2022-07-08,株式会社媚山物産,,株式会社,北海道,旭川市,東旭川北三条６丁目５番１０号,,01,204,0788253,,,,,,,2022-07-08,1,,,,,コビヤマブッサン,0
1511,5480001011786,新規,0,2022-07-08,2022-07-08,ＭＥＪＩ　ＴＥＣＨ株式会社,,株式会社,徳島県,徳島市,北矢三町３丁目７－５７－４－１０２,,36,201,7700006,,,,,,,2022-07-08,1,,,,,メジテック,0
1517,5700150110845,新規,0,2022-07-08,2022-07-08,ＡＬＬＳＰＲＩＮＧ　ＧＬＯＢＡＬ　ＩＮＶＥＳＴＭＥＮＴＳ　ＪＡＰＡＮ　ＬＩＭＩＴＥＤ,,外国会社等,東京都,千代田区,丸の内１丁目８番３号丸の内トラストタワー本館２０階,,13,101,1000005,中華人民共和国香港特別行政区、ワンチャイ、クイーンズ・ロード・イースト１４５、ホンシャン・センター５階,,,,,,2022-07-08,1,,,,,オールスプリンググローバルインベストメントジヤパンリミテツド,0
1525,6010001227916,新規,0,2022-07-08,2022-07-08,株式会社ソーニョスタイリングオフィス,,株式会社,東京都,中央区,勝どき６丁目３番２号,,13,102,1040054,,,,,,,2022-07-08,1,,,,,ソーニョスタイリングオフィス,0
1526,6010001227949,新規,0,2022-07-08,2022-07-08,ＧＬＯＢＡＬ　ＩＭＰＡＣＴＯＲＳ株式会社,,株式会社,東京都,千代田区,内幸町２丁目２番２号富国生命ビルヤンセン外国法事務弁護士事務所内,,13,101,1000011,,,,,,,2022-07-08,1,,,,,グローバルインパクターズ,0
1529,6010003038064,新規,0,2022-07-08,2022-07-08,合同会社Ａｎｄｒｏｍｅｄａ,,合同会社,東京都,千代田区,丸の内３丁目１番１号東京共同会計事務所内,,13,101,1000005,,,,,,,2022-07-08,1,,,,,アンドロメダ,0
1530,6010005035217,新規,0,2022-07-08,2022-07-08,Ｅｍｅｒａｌｄ一般社団法人,,その他の設立登記法人,東京都,千代田区,丸の内３丁目１番１号東京共同会計事務所内,,13,101,1000005,,,,,,,2022-07-08,1,,,,,エメラルド,0
1532,6010401168355,新規,0,2022-07-08,2022-07-08,株式会社ＹＳＨ,,株式会社,東京都,港区,東麻布１丁目２５番５号ＶＯＲＴ東麻布ＥＡＳＴ１Ｆ,,13,103,1060044,,,,,,,2022-07-08,1,,,,,ワイエスエッチ,0
1533,6010401168396,新規,0,2022-07-08,2022-07-08,富士山牧場発電株式会社,,株式会社,東京都,港区,虎ノ門１丁目２番１８号,,13,103,1050001,,,,,,,2022-07-08,1,,,,,フジサンボクジョウハツデン,0
1534,6010401168405,新規,0,2022-07-08,2022-07-08,明和ホールディングス株式会社,,株式会社,東京都,港区,西新橋１丁目７番１４号,,13,103,1050003,,,,,,,2022-07-08,1,,,,,メイワホールディングス,0
1535,6010403027955,新規,0,2022-07-08,2022-07-08,かぜのみち１合同会社,,合同会社,東京都,港区,南青山２丁目２―１５ウイン青山８１８,,13,103,1070062,,,,,,,2022-07-08,1,,,,,カゼノミチイチ,0
1536,6010501049083,新規,0,2022-07-08,2022-07-08,ＴＡＩＳＨＡ　ＤＩＡＭＯＮＤＳ株式会社,,株式会社,東京都,台東区,台東３丁目４３番１０－７１０号,,13,106,1100016,,,,,,,2022-07-08,1,,,,,タイシャダイヤモンズ,0
1537,6010501049100,新規,0,2022-07-08,2022-07-08,株式会社アンヴェール,,株式会社,東京都,台東区,花川戸２丁目８番７号,,13,106,1110033,,,,,,,2022-07-08,1,,,,,アンヴェール,0
1540,6010701042937,新規,0,2022-07-08,2022-07-08,株式会社ＹＢ　ＬＡＢＯ,,株式会社,東京都,品川区,東五反田１丁目２１－８西元ビル２Ｆ,,13,109,1410022,,,,,,,2022-07-08,1,,,,,ワイビーラボ,0
1541,6010703006287,新規,0,2022-07-08,2022-07-08,合同会社Ｂｌｏｏｍｉｎｔ,,合同会社,東京都,品川区,大井３丁目２３番３号,,13,109,1400014,,,,,,,2022-07-08,1,,,,,ブルーミント,0
1542,6010703006304,新規,0,2022-07-08,2022-07-08,あおぞらＦＣ合同会社,,合同会社,東京都,品川区,大井６丁目２１番１号,,13,109,1400014,,,,,,,2022-07-08,1,,,,,アオゾラエフシー,0
1549,6010901051192,新規,0,2022-07-08,2022-07-08,株式会社オールタイムハイ,,株式会社,東京都,世田谷区,代沢２丁目１２番１０－２０７号,,13,112,1550032,,,,,,,2022-07-08,1,,,,,オールタイムハイ,0
1551,6010903007515,新規,0,2022-07-08,2022-07-08,合同会社Ｖｉｃｔｏｒｙ,,合同会社,東京都,世田谷区,八幡山２丁目４番７号,,13,112,1560056,,,,,,,2022-07-08,1,,,,,ヴィクトリー,0
1558,6011001148409,新規,0,2022-07-08,2022-07-08,ｐｙｕｌｌ株式会社,,株式会社,東京都,渋谷区,神宮前６丁目２３番４号桑野ビル２階,,13,113,1500001,,,,,,,2022-07-08,1,,,,,ピュルル,0
1559,6011001148540,新規,0,2022-07-08,2022-07-08,ジャンゴ株式会社,,株式会社,東京都,渋谷区,富ヶ谷１丁目４６番３号ステージファースト代々木公園８０３,,13,113,1510063,,,,,,,2022-07-08,1,,,,,ジャンゴ,0
1560,6011001148549,新規,0,2022-07-08,2022-07-08,株式会社ＣｘＯｇｒｏｕｐ,,株式会社,東京都,渋谷区,東３丁目２５番３号ライオンズプラザ恵比寿４１３号室,,13,113,1500011,,,,,,,2022-07-08,1,,,,,シーエックスオーグループ,0
1561,6011001148565,新規,0,2022-07-08,2022-07-08,株式会社Ｋｎｏｗｌｅｄｇｅ　ｓｈａｒｅ,,株式会社,東京都,渋谷区,神宮前６丁目２３番４号桑野ビル２階,,13,113,1500001,,,,,,,2022-07-08,1,,,,,ナレッジシェア,0
1565,6011003014988,新規,0,2022-07-08,2022-07-08,ＳｔｅｌｌａｒＣａｐｉｔａｌ合同会社,,合同会社,東京都,渋谷区,道玄坂１丁目１０番８号渋谷道玄坂東急ビル２Ｆ－Ｃ,,13,113,1500043,,,,,,,2022-07-08,1,,,,,ステラキャピタル,0
1566,6011003015004,新規,0,2022-07-08,2022-07-08,コベナンツ５１投資事業合同会社,,合同会社,東京都,目黒区,上目黒３丁目２９番５－３０７号ザ・パークハウス諏訪山,,13,110,1530051,,,,,,,2022-07-08,1,,,,,コベナンツフィフティワントウシジギョウ,0
1567,6011101099460,新規,0,2022-07-08,2022-07-08,株式会社ＤＫＫＴ,,株式会社,東京都,新宿区,新宿３丁目１４－２０新宿テアトルビル６階,,13,104,1600022,,,,,,,2022-07-08,1,,,,,ディーケーケーティー,0
1568,6011101099469,新規,0,2022-07-08,2022-07-08,Ｒ．スカイ株式会社,,株式会社,東京都,新宿区,新宿１丁目３１－３－３１５,,13,104,1600022,,,,,,,2022-07-08,1,,,,,アルスカイ,0
1569,6011101099477,新規,0,2022-07-08,2022-07-08,ヤッチモナイ株式会社,,株式会社,東京都,新宿区,西新宿５丁目２４番１７号グランピア西新宿６階,,13,104,1600023,,,,,,,2022-07-08,1,,,,,ヤッチモナイ,0
1570,6011101099485,新規,0,2022-07-08,2022-07-08,株式会社ｗｏｒｔｈｅｒａ,,株式会社,東京都,新宿区,大久保１丁目３番１７－３０３号,,13,104,1690072,,,,,,,2022-07-08,1,,,,,ワースエラ,0
1572,6011103011927,新規,0,2022-07-08,2022-07-08,Ｃｏｎｔｅｎｔｓ　Ｌｉｋｅ合同会社,,合同会社,東京都,新宿区,西新宿３丁目３番１３号西新宿水間ビル６Ｆ,,13,104,1600023,,,,,,,2022-07-08,1,,,,,コンテンツライク,0
1574,6011201023948,新規,0,2022-07-08,2022-07-08,株式会社Ｒｉｖｅｒｆｉｅｌｄ,,株式会社,東京都,中野区,中央３丁目４０番２号,,13,114,1640011,,,,,,,2022-07-08,1,,,,,リバーフィールド,0
1575,6011301027931,新規,0,2022-07-08,2022-07-08,株式会社Ｈｉｇｈ　Ｒｉｄｅ　ｉｎｔｅｒｎａｔｉｏｎａｌ　ｃｏｍｐａｎｙ,,株式会社,東京都,杉並区,高円寺南２丁目５０－１３仲澤ビル２階,,13,115,1660003,,,,,,,2022-07-08,1,,,,,ハイライドインターナショナルカンパニー,0
1577,6011503005215,新規,0,2022-07-08,2022-07-08,合同会社ＦＣＰ,,合同会社,東京都,北区,赤羽１丁目３７－７コンチネンタルプラザ赤羽弐番館４０２,,13,117,1150045,,,,,,,2022-07-08,1,,,,,エフシーピー,0
1584,6011801040979,新規,0,2022-07-08,2022-07-08,永青国際機械株式会社,,株式会社,東京都,葛飾区,西亀有３丁目６番１３号,,13,122,1250002,,,,,,,2022-07-08,1,,,,,エイセイコクサイキカイ,0
1589,6012701017126,新規,0,2022-07-08,2022-07-08,株式会社カノア,,株式会社,東京都,東久留米市,中央町６丁目７番２４号,,13,222,2030054,,,,,,,2022-07-08,1,,,,,カノア,0
1604,6020003022059,新規,0,2022-07-08,2022-07-08,合同会社カーサデソレアード,,合同会社,神奈川県,横浜市西区,戸部本町４２－１カーサ・デ・ソレアード９０１号,,14,103,2200041,,,,,,,2022-07-08,1,,,,,カーサデソレアード,0
1605,6020003022067,新規,0,2022-07-08,2022-07-08,合同会社ｇａｒｄｅｎｓ,,合同会社,神奈川県,川崎市川崎区,駅前本町１１番地２川崎フロンティアビル４階,,14,131,2100007,,,,,,,2022-07-08,1,,,,,ガーデンズ,0
1610,6021003011893,新規,0,2022-07-08,2022-07-08,合同会社ＳＹＮＡＳ,,合同会社,神奈川県,秦野市,新町１０－１２－４,,14,211,2570056,,,,,,,2022-07-08,1,,,,,サイナス,0
1613,6030001148986,新規,0,2022-07-08,2022-07-08,ゆき株式会社,,株式会社,埼玉県,坂戸市,大字厚川５４番地３ＫＩＶオフィス一本松Ｂ号室,,11,239,3500242,,,,,,,2022-07-08,1,,,,,ユキ,0
1614,6030001149010,新規,0,2022-07-08,2022-07-08,フジ・コンフォート株式会社,,株式会社,埼玉県,草加市,氷川町８４３番地２,,11,221,3400034,,,,,,,2022-07-08,1,,,,,フジコンフォート,0
1615,6030001149118,新規,0,2022-07-08,2022-07-08,ＮＴ総合株式会社,,株式会社,埼玉県,蕨市,塚越１丁目７番１５号,,11,223,3350002,,,,,,,2022-07-08,1,,,,,エヌティソウゴウ,0
1616,6030001149134,新規,0,2022-07-08,2022-07-08,株式会社ユース・ケイ,,株式会社,埼玉県,さいたま市南区,沼影１丁目１１－２Ｃ２４０４,,11,108,3360027,,,,,,,2022-07-08,1,,,,,ユースケイ,0
1627,6040001124128,新規,0,2022-07-08,2022-07-08,株式会社ジョインツ,,株式会社,千葉県,松戸市,松飛台１０８番地ハイムミッドランドＡ－２０３号,,12,207,2702214,,,,,,,2022-07-08,1,,,,,ジョインツ,0
1628,6040001124144,新規,0,2022-07-08,2022-07-08,株式会社朝日森エアカーゴ,,株式会社,千葉県,成田市,多良貝２４５番地１１３,,12,211,2870242,,,,,,,2022-07-08,1,,,,,アサヒモリエアカーゴ,0
1629,6040001124169,新規,0,2022-07-08,2022-07-08,千葉液酸株式会社,,株式会社,千葉県,千葉市稲毛区,六方町２１０番地３,,12,103,2630004,,,,,,,2022-07-08,1,,,,,チバエキサン,0
1630,6040001124185,新規,0,2022-07-08,2022-07-08,株式会社アクシアライフ,,株式会社,千葉県,千葉市中央区,椿森５丁目５番１３－１１８号,,12,101,2600042,,,,,,,2022-07-08,1,,,,,アクシアライフ,0
1634,6040003020374,新規,0,2022-07-08,2022-07-08,ＴＯＭＭＹ　ＴＲＡＤＩＮＧ合同会社,,合同会社,千葉県,柏市,松ケ崎１０４５番地７,,12,217,2770835,,,,,,,2022-07-08,1,,,,,トミートレーディング,0
1635,6040003020399,新規,0,2022-07-08,2022-07-08,合同会社Ｓｅｎｃｉｌｌｏ,,合同会社,千葉県,千葉市緑区,おゆみ野３丁目１９番地４オーシャンビュー壱番館６０５号,,12,105,2660031,,,,,,,2022-07-08,1,,,,,センシーロ,0
1637,6050001051354,新規,0,2022-07-08,2022-07-08,幸楽ファーム株式会社,,株式会社,茨城県,古河市,諸川１１４２番地,,08,204,3060126,,,,,,,2022-07-08,1,,,,,コウラクファーム,0
1638,6050001051362,新規,0,2022-07-08,2022-07-08,株式会社張替工業,,株式会社,茨城県,猿島郡境町,大字伏木１３５９番地２７,,08,546,3060416,,,,,,,2022-07-08,1,,,,,ハリガエコウギョウ,0
1640,6060001035059,新規,0,2022-07-08,2022-07-08,大越塗装株式会社,,株式会社,栃木県,那須郡那須町,大字横岡１３９番地,,09,407,3293442,,,,,,,2022-07-08,1,,,,,オオコシトソウ,0
1641,6060003004136,新規,0,2022-07-08,2022-07-08,欣月合同会社,,合同会社,栃木県,大田原市,薄葉２２５２番地１５,,09,210,3240035,,,,,,,2022-07-08,1,,,,,キンゲツ,0
1643,6070001039389,新規,0,2022-07-08,2022-07-08,ｍｆｔ　ｗｅｌｄｉｎｇ株式会社,,株式会社,群馬県,太田市,山之神町５０６番地１,,10,205,3792302,,,,,,,2022-07-08,1,,,,,マフトウェルディング,0
1644,6070001039406,新規,0,2022-07-08,2022-07-08,Ｎｅｘｕｓ　Ｗｏｒｋｓ株式会社,,株式会社,群馬県,館林市,本町１丁目５番１７号,,10,207,3740024,,,,,,,2022-07-08,1,,,,,ネクサスワークス,0
1648,6080003002831,新規,0,2022-07-08,2022-07-08,合同会社ＳＨ２,,合同会社,静岡県,静岡市清水区,平川地１７番１５－２号,,22,103,4240872,,,,,,,2022-07-08,1,,,,,エスエイチツー,0
1649,6080101023408,新規,0,2022-07-08,2022-07-08,株式会社日原総建,,株式会社,静岡県,伊豆市,上船原４４７－５,,22,222,4103216,,,,,,,2022-07-08,1,,,,,ヒハラソウケン,0
1652,6080401025946,新規,0,2022-07-08,2022-07-08,株式会社マーケットイン,,株式会社,静岡県,菊川市,潮海寺２５１－１,,22,224,4390005,,,,,,,2022-07-08,1,,,,,マーケットイン,0
1656,6090003002129,新規,0,2022-07-08,2022-07-08,アグテック甲府合同会社,,合同会社,山梨県,甲府市,若松町４番１号,,19,201,4000866,,,,,,,2022-07-08,1,,,,,アグテックコウフ,0
1657,6100001035509,新規,0,2022-07-08,2022-07-08,株式会社ズクトチエ,,株式会社,長野県,北安曇郡白馬村,大字北城１２１４７番地,,20,485,3999301,,,,,,,2022-07-08,1,,,,,ズクトチエ,0
1658,6100001035517,新規,0,2022-07-08,2022-07-08,株式会社Ｇｒａｎｔｒｙ,,株式会社,長野県,駒ヶ根市,東伊那５２０４番地,,20,210,3994321,,,,,,,2022-07-08,1,,,,,グラントリー,0
1663,6100003006607,新規,0,2022-07-08,2022-07-08,合同会社Ｋ＆Ｐ２０２２,,合同会社,長野県,安曇野市,豊科田沢５０３９番地,,20,220,3998203,,,,,,,2022-07-08,1,,,,,ケイアンドピーツウオウツウツウ,0
1664,6100003006615,新規,0,2022-07-08,2022-07-08,合同会社信州ほしな食彩園,,合同会社,長野県,長野市,若穂保科４６１３番地,,20,201,3810102,,,,,,,2022-07-08,1,,,,,シンシュウホシナショクサイエン,0
1670,6110001036811,新規,0,2022-07-08,2022-07-08,ＬａＬａ株式会社,,株式会社,新潟県,長岡市,中島５丁目３番２６号,,15,202,9400094,,,,,,,2022-07-08,1,,,,,ララ,0
1678,6120001247201,新規,0,2022-07-08,2022-07-08,株式会社アプライム防災電工,,株式会社,大阪府,寝屋川市,高柳７丁目１０番２０号,,27,215,5720051,,,,,,,2022-07-08,1,,,,,アプライムボウサイデンコウ,0
1679,6120001247234,新規,0,2022-07-08,2022-07-08,ＣＯＥＵＲＦＯＩ株式会社,,株式会社,大阪府,大阪市中央区,伏見町４丁目４番９号淀屋橋東洋ビル３階,,27,128,5410044,,,,,,,2022-07-08,1,,,,,クーフォア,0
1680,6120001247259,新規,0,2022-07-08,2022-07-08,株式会社ホワイトホース,,株式会社,大阪府,大阪市中央区,安土町１丁目６番１９号プロパレス安土町ビル３Ｆ,,27,128,5410052,,,,,,,2022-07-08,1,,,,,ホワイトホース,0
1681,6120001247275,新規,0,2022-07-08,2022-07-08,株式会社エース,,株式会社,大阪府,大阪市中央区,高津３丁目１－２１日本橋ムーンビル２０２号室,,27,128,5420072,,,,,,,2022-07-08,1,,,,,エース,0
1682,6120003022016,新規,0,2022-07-08,2022-07-08,ＮＩＲＡＪＡＮ　ＧＲＯＵＰ合同会社,,合同会社,大阪府,大阪市生野区,林寺３丁目１番３号,,27,116,5440023,,,,,,,2022-07-08,1,,,,,ニラジャングループ,0
1683,6120003022040,新規,0,2022-07-08,2022-07-08,合同会社クロスオーバーネクスト,,合同会社,大阪府,大阪市東住吉区,住道矢田１丁目９番３１号,,27,121,5460022,,,,,,,2022-07-08,1,,,,,クロスオーバーネクスト,0
1689,6120101065874,新規,0,2022-07-08,2022-07-08,ＮＳＰライフマネジメント株式会社,,株式会社,大阪府,羽曳野市,羽曳が丘４丁目４番１６号,,27,222,5830864,,,,,,,2022-07-08,1,,,,,エヌエスピィライフマネジメント,0
1690,6120105009588,新規,0,2022-07-08,2022-07-08,一般社団法人ヒューマンブレイン,,その他の設立登記法人,大阪府,堺市南区,高倉台２丁２８番３５号,,27,145,5900117,,,,,,,2022-07-08,1,,,,,ヒューマンブレイン,0
1694,6120903004220,新規,0,2022-07-08,2022-07-08,合同会社すもも,,合同会社,大阪府,茨木市,庄２丁目１－１７,,27,211,5670806,,,,,,,2022-07-08,1,,,,,スモモ,0
1695,6120905006347,新規,0,2022-07-08,2022-07-08,医療法人かわかみ内科,,その他の設立登記法人,大阪府,吹田市,岸部中３丁目１４番５－２０１号,,27,205,5640002,,,,,,,2022-07-08,1,,,,,カワカミナイカ,0
1707,6140001126601,新規,0,2022-07-08,2022-07-08,富志貴株式会社,,株式会社,兵庫県,洲本市,下加茂１丁目１番３７号,,28,205,6560013,,,,,,,2022-07-08,1,,,,,フジキ,0
1708,6140001126626,新規,0,2022-07-08,2022-07-08,杉本エンジニアリング株式会社,,株式会社,兵庫県,神戸市中央区,八幡通４丁目１番２７－２２０１号,,28,110,6510085,,,,,,,2022-07-08,1,,,,,スギモトエンジニアリング,0
1709,6140001126667,新規,0,2022-07-08,2022-07-08,株式会社ＺＥＲＯＯＮＥ‐ＬＩＦＥ,,株式会社,兵庫県,伊丹市,中央１丁目５番５号Ｂｏｎｔｏｎビル４Ｆ,,28,207,6640851,,,,,,,2022-07-08,1,,,,,ゼロワンライフ,0
1710,6140001126758,新規,0,2022-07-08,2022-07-08,株式会社ｇｉｆｔ‐ａｒｃｈｉｔｅｃｔｏｆｆｉｃｅ,,株式会社,兵庫県,神戸市中央区,栄町通１丁目１番９号東方ビル３０４号室,,28,110,6500023,,,,,,,2022-07-08,1,,,,,ギフトアーチテクト,0
1718,6150001025678,新規,0,2022-07-08,2022-07-08,誠建設株式会社,,株式会社,奈良県,葛城市,長尾３６９番地１４,,29,211,6392164,,,,,,,2022-07-08,1,,,,,マコトケンセツ,0
1721,6160003002617,新規,0,2022-07-08,2022-07-08,合同会社Ｖアシスト,,合同会社,滋賀県,栗東市,小柿７丁目５番２－４号,,25,208,5203024,,,,,,,2022-07-08,1,,,,,ヴィアシスト,0
1731,6180001152032,新規,0,2022-07-08,2022-07-08,株式会社縁さくら,,株式会社,愛知県,瀬戸市,北脇町２５１番地,,23,204,4890918,,,,,,,2022-07-08,1,,,,,エンサクラ,0
1732,6180001152040,新規,0,2022-07-08,2022-07-08,吉翔株式会社,,株式会社,愛知県,名古屋市中区,栄３丁目１５番３３号栄ガスビル１３Ｆ,,23,106,4600008,,,,,,,2022-07-08,1,,,,,キッショウ,0
1733,6180001152107,新規,0,2022-07-08,2022-07-08,株式会社Ｔ‐ｔｈｒｅｅ,,株式会社,愛知県,名古屋市昭和区,山脇町４丁目２２番地の８,,23,107,4660063,,,,,,,2022-07-08,1,,,,,ティースリー,0
1737,6180003024015,新規,0,2022-07-08,2022-07-08,合同会社マイクロランド,,合同会社,愛知県,名古屋市守山区,城土町２２２番地,,23,113,4630093,,,,,,,2022-07-08,1,,,,,マイクロランド,0
1738,6180301036380,新規,0,2022-07-08,2022-07-08,ＲＩＮＧＯ　ＭＯＴＯＲＳ株式会社,,株式会社,愛知県,安城市,横山町寺田５１番地１第２コーポ寺田２０２,,23,212,4460045,,,,,,,2022-07-08,1,,,,,リンゴモータース,0
1739,6180301036414,新規,0,2022-07-08,2022-07-08,株式会社大翔,,株式会社,愛知県,豊田市,東山町２丁目１５５５番地１,,23,211,4710014,,,,,,,2022-07-08,1,,,,,タイショウ,0
1740,6180301036422,新規,0,2022-07-08,2022-07-08,株式会社千賀マネジメント,,株式会社,愛知県,蒲郡市,拾石町浅岡１番地２９,,23,214,4430038,,,,,,,2022-07-08,1,,,,,センガマネジメント,0
1743,6180303005383,新規,0,2022-07-08,2022-07-08,合同会社ＵＭＴ,,合同会社,愛知県,豊田市,朝日町４丁目３０－１１,,23,211,4710031,,,,,,,2022-07-08,1,,,,,ユーエムティー,0
1744,6190001029601,新規,0,2022-07-08,2022-07-08,ＯＧグループ株式会社,,株式会社,三重県,桑名郡木曽岬町,大字白鷺字白鷺川６３０番地,,24,303,4980815,,,,,,,2022-07-08,1,,,,,オージーグループ,0
1751,6220001024945,新規,0,2022-07-08,2022-07-08,株式会社ひふみ,,株式会社,石川県,金沢市,増泉３丁目１４番２６号（ラフェスタ増泉Ａ棟・２０２号）,,17,201,9218025,,,,,,,2022-07-08,1,,,,,ヒフミ,0
1752,6230001019440,新規,0,2022-07-08,2022-07-08,株式会社ナカソラ,,株式会社,富山県,富山市,南新町３番地６,,16,201,9300054,,,,,,,2022-07-08,1,,,,,ナカソラ,0
1759,6250001019653,新規,0,2022-07-08,2022-07-08,ケーディーエンジン株式会社,,株式会社,山口県,下関市,長府安養寺１丁目１５番１３号,,35,201,7520962,,,,,,,2022-07-08,1,,,,,ケーディーエンジン,0
1761,6260001037010,新規,0,2022-07-08,2022-07-08,株式会社こうた,,株式会社,岡山県,倉敷市,児島小川４丁目８番７０９号,,33,202,7110911,,,,,,,2022-07-08,1,,,,,コウタ,0
1766,6290001098157,新規,0,2022-07-08,2022-07-08,株式会社大祐プランニング,,株式会社,福岡県,久留米市,櫛原町１１３番地６４,00127143,40,203,8300013,,,,,,,2022-07-08,1,,,,,ダイユウプランニング,0
1767,6290001098207,新規,0,2022-07-08,2022-07-08,株式会社フルトリエ,,株式会社,福岡県,久留米市,藤山町７１４,,40,203,8300053,,,,,,,2022-07-08,1,,,,,フルトリエ,0
1768,6310001017948,新規,0,2022-07-08,2022-07-08,株式会社福岡建設,,株式会社,長崎県,西海市,大島町１３２５番地１０２,,42,212,8572427,,,,,,,2022-07-08,1,,,,,フクオカケンセツ,0
1770,6320001019191,新規,0,2022-07-08,2022-07-08,栗山自動車株式会社,,株式会社,大分県,日田市,大字三和９７６番地１,,44,204,8770000,,,,,,,2022-07-08,1,,,,,クリヤマジドウシャ,0
1771,6320003003846,新規,0,2022-07-08,2022-07-08,合同会社しらゆき亭,,合同会社,大分県,大分市,田中町２丁目３番３２号植木コーポ１０２号室,,44,201,8700852,,,,,,,2022-07-08,1,,,,,シラユキテイ,0
1776,6340003003852,新規,0,2022-07-08,2022-07-08,合同会社ＳＨＵ,,合同会社,鹿児島県,霧島市,溝辺町麓１９９１－２,,46,218,8996404,,,,,,,2022-07-08,1,,,,,シュウ,0
1777,6340005009476,新規,0,2022-07-08,2022-07-08,一般社団法人ココロ,,その他の設立登記法人,鹿児島県,鹿児島市,川上町６２６番地４,,46,201,8920875,,,,,,,2022-07-08,1,,,,,ココロ,0
1780,6350001017853,新規,0,2022-07-08,2022-07-08,株式会社マルショウコーポレーション,,株式会社,宮崎県,宮崎市,古城町岡ノ原２９番地２,,45,201,8800931,,,,,,,2022-07-08,1,,,,,マルショウコーポレーション,0
1782,6360001030649,新規,0,2022-07-08,2022-07-08,株式会社ＢＬＵＥ　ＳＥＥＫ,,株式会社,沖縄県,那覇市,樋川１丁目７番１３号ハーミットクラブ樋川１Ｆ,,47,201,9000022,,,,,,,2022-07-08,1,,,,,ブルーシーク,0
1783,6360001030673,新規,0,2022-07-08,2022-07-08,紅いもタルト本舗株式会社,,株式会社,沖縄県,中頭郡西原町,字池田９８番地の１,,47,329,9030115,,,,,,,2022-07-08,1,,,,,ベニイモタルトホンポ,0
1784,6360003012133,新規,0,2022-07-08,2022-07-08,合同会社自然循環式アグリカルチャーファーム,,合同会社,沖縄県,宜野湾市,普天間１丁目１９番１６号,,47,205,9012202,,,,,,,2022-07-08,1,,,,,シゼンジュンカンシキアグリカルチャーファーム,0
1789,6370001048764,新規,0,2022-07-08,2022-07-08,株式会社ｓｉｄｅ　ｔａｂｌｅ,,株式会社,宮城県,仙台市宮城野区,小田原弓ノ町１０１番地の２,,04,102,9830812,,,,,,,2022-07-08,1,,,,,サイドテーブル,0
1790,6370001048772,新規,0,2022-07-08,2022-07-08,松島計測株式会社,,株式会社,宮城県,宮城郡松島町,根廻字萱刈４番地,,04,401,9810203,,,,,,,2022-07-08,1,,,,,マツシマケイソク,0
1800,6380003005218,新規,0,2022-07-08,2022-07-08,合同会社はうす工房フジタ,,合同会社,福島県,いわき市,郷ケ丘３丁目４１番地の１５,,07,204,9708045,,,,,,,2022-07-08,1,,,,,ハウスコウボウフジタ,0
1804,6430001086964,新規,0,2022-07-08,2022-07-08,株式会社Ａｘｅ,,株式会社,北海道,滝川市,中島町５丁目１５‐２,,01,225,0730035,,,,,,,2022-07-08,1,,,,,アクス,0
1806,6440001009115,新規,0,2022-07-08,2022-07-08,株式会社ＦＯＴ,,株式会社,北海道,函館市,中道２丁目３９番１号,,01,202,0410853,,,,,,,2022-07-08,1,,,,,エフオーティー,0
1808,6450001013743,新規,0,2022-07-08,2022-07-08,株式会社和田,,株式会社,北海道,稚内市,朝日６丁目２番１号,,01,214,0970015,,,,,,,2022-07-08,1,,,,,,0
1812,6470003002214,新規,0,2022-07-08,2022-07-08,合同会社グッセル,,合同会社,香川県,高松市,円座町９８番地１３,,37,201,7618044,,,,,,,2022-07-08,1,,,,,グッセル,0
1813,6480001011793,新規,0,2022-07-08,2022-07-08,株式会社オフィス三木,,株式会社,徳島県,徳島市,北沖洲１丁目４番１０号,,36,201,7700872,,,,,,,2022-07-08,1,,,,,オフィスミキ,0
1814,6490001010225,新規,0,2022-07-08,2022-07-08,株式会社あんしんセンター,,株式会社,高知県,高知市,栄田町３丁目６番３号Ｆｏｕｒ・ｓｅａｓｏｎｓ４Ｄ,,39,201,7800061,,,,,,,2022-07-08,1,,,,,アンシンセンター,0
1817,6500001024330,新規,0,2022-07-08,2022-07-08,株式会社ｍｉｇ,,株式会社,愛媛県,松山市,中一万町６番地１２,,38,201,7900804,,,,,,,2022-07-08,1,,,,,ミグ,0
1820,6700150110844,新規,0,2022-07-08,2022-07-08,アキュール・アンド・カンパニー・インコーポレーテッド,,外国会社等,東京都,港区,南青山４丁目１８－３,,13,103,1070062,アメリカ合衆国デラウェア州ドーバー市オールドラドニックレーン３０番地,,,,,,2022-07-08,1,,,,,アキユールアンドカンパニーインコーポレーテツド,0
1823,7010001227808,新規,0,2022-07-08,2022-07-08,株式会社Ｊｕｐｉｔｅｒ　ＩＴ　Ｃｏｎｓｕｌｔｉｎｇ,,株式会社,東京都,千代田区,九段南２丁目３－２－１５富士ビル２－Ｂ,,13,101,1020074,,,,,,,2022-07-08,1,,,,,ジュピターアイティコンサルティング,0
1824,7010001227824,新規,0,2022-07-08,2022-07-08,現場ネクスト株式会社,,株式会社,東京都,中央区,日本橋富沢町９－４ＴＨＥ・Ｅ．Ａ．Ｓ．Ｔ．日本橋富沢町,,13,102,1030006,,,,,,,2022-07-08,1,,,,,ゲンバネクスト,0
1825,7010001227931,新規,0,2022-07-08,2022-07-08,株式会社ＥＭＮＤｅｓｉｇｎ,,株式会社,東京都,中央区,銀座６丁目６－１,,13,102,1040061,,,,,,,2022-07-08,1,,,,,イーエムエヌデザイン,0
1826,7010001227964,新規,0,2022-07-08,2022-07-08,株式会社Ｋｉｄｓ　Ａｐｐｒｏａｃｈ,,株式会社,東京都,千代田区,紀尾井町４番１号,,13,101,1020094,,,,,,,2022-07-08,1,,,,,キッズアプローチ,0
1828,7010003038063,新規,0,2022-07-08,2022-07-08,合同会社Ｓｔａｐｈｙｌｕｓ,,合同会社,東京都,千代田区,丸の内３丁目１番１号東京共同会計事務所内,,13,101,1000005,,,,,,,2022-07-08,1,,,,,スタフィラス,0
1830,7010005035216,新規,0,2022-07-08,2022-07-08,Ｃｅｐｈｅｕｓ一般社団法人,,その他の設立登記法人,東京都,千代田区,丸の内３丁目１番１号東京共同会計事務所内,,13,101,1000005,,,,,,,2022-07-08,1,,,,,ケペウス,0
1840,7010401168288,新規,0,2022-07-08,2022-07-08,株式会社Ｇｒａｎｄ　Ｂｌｕｅ　Ｃｏｎｓｕｌｔｉｎｇ,,株式会社,東京都,港区,芝３丁目８番２号,,13,103,1050014,,,,,,,2022-07-08,1,,,,,グランドブルーコンサルティング,0
1841,7010401168370,新規,0,2022-07-08,2022-07-08,プリネット２１株式会社,,株式会社,東京都,港区,高輪２丁目１４番１４－９０７号,,13,103,1080074,,,,,,,2022-07-08,1,,,,,プリネットニジュウイチ,0
1842,7010401168379,新規,0,2022-07-08,2022-07-08,株式会社なにとぞ,,株式会社,東京都,港区,虎ノ門３丁目１９番１５－７０３号,,13,103,1050001,,,,,,,2022-07-08,1,,,,,ナニトゾ,0
1843,7010401168395,新規,0,2022-07-08,2022-07-08,株式会社ＢＬＵＥ,,株式会社,東京都,港区,赤坂１丁目１番１７号細川ビル８０２号室,,13,103,1070052,,,,,,,2022-07-08,1,,,,,ブルー,0
1844,7010401168412,新規,0,2022-07-08,2022-07-08,株式会社イーヴン,,株式会社,東京都,港区,芝２丁目２７番１１－１２０３号,,13,103,1050014,,,,,,,2022-07-08,1,,,,,イーヴン,0
1845,7010401168429,新規,0,2022-07-08,2022-07-08,Ｎｅｏｇｅｎ　Ｊａｐａｎ株式会社,,株式会社,東京都,港区,元麻布３丁目１番６号,,13,103,1060046,,,,,,,2022-07-08,1,,,,,ネオジェンジャパン,0
1852,7010501049090,新規,0,2022-07-08,2022-07-08,株式会社Ａｌｃｈｉｍｉｅ,,株式会社,東京都,台東区,柳橋１丁目３０番５－８０２号ドヌール柳橋二番館,,13,106,1110052,,,,,,,2022-07-08,1,,,,,アルシミー,0
1855,7010601061433,新規,0,2022-07-08,2022-07-08,株式会社Ｍ．Ｙ．マネジメント,,株式会社,東京都,墨田区,吾妻橋１丁目１９－８ローレルアイ１Ｆ,,13,107,1300001,,,,,,,2022-07-08,1,,,,,エムワイマネジメント,0
1859,7010801033083,新規,0,2022-07-08,2022-07-08,ＳＸ株式会社,,株式会社,東京都,大田区,大森東２丁目１番１０－１１０３号,,13,111,1430012,,,,,,,2022-07-08,1,,,,,エスエックス,0
1866,7010901051200,新規,0,2022-07-08,2022-07-08,株式会社芦東舎,,株式会社,東京都,世田谷区,千歳台６丁目１２－２０ルネ世田谷千歳台ＡＹＵＭＩＥ６０１,,13,112,1570071,,,,,,,2022-07-08,1,,,,,ロトウシャ,0
1867,7011001148531,新規,0,2022-07-08,2022-07-08,株式会社四季折々,,株式会社,東京都,渋谷区,富ヶ谷１丁目１４番１４号スタンフォードアネックスビル３Ｆ,,13,113,1510063,,,,,,,2022-07-08,1,,,,,シキオリオリ,0
1868,7011001148548,新規,0,2022-07-08,2022-07-08,株式会社Ｈｏｂｂｉｆｙ,,株式会社,東京都,目黒区,中目黒４丁目６番１－１００７号プラウド中目黒,,13,110,1530061,,,,,,,2022-07-08,1,,,,,ホビファイ,0
1873,7011101099393,新規,0,2022-07-08,2022-07-08,Ｒｉｃｈ株式会社,,株式会社,東京都,新宿区,下落合２丁目２－２高田馬場住宅２１１,,13,104,1610033,,,,,,,2022-07-08,1,,,,,リッチ,0
1874,7011101099443,新規,0,2022-07-08,2022-07-08,株式会社金子建匠,,株式会社,東京都,新宿区,新宿７丁目１７番９号,,13,104,1600022,,,,,,,2022-07-08,1,,,,,カネコケンショウ,0
1875,7011101099468,新規,0,2022-07-08,2022-07-08,Ｄｅｌｉｃｅ株式会社,,株式会社,東京都,新宿区,歌舞伎町２丁目３１番３号,,13,104,1600021,,,,,,,2022-07-08,1,,,,,デリス,0
1876,7011103011934,新規,0,2022-07-08,2022-07-08,青苗合同会社,,合同会社,東京都,新宿区,大久保３丁目１０番１－９１１号,,13,104,1690072,,,,,,,2022-07-08,1,,,,,アオナエ,0
1879,7011605002464,新規,0,2022-07-08,2022-07-08,特定非営利活動法人ぷらっく・ふらっぐ,,その他の設立登記法人,東京都,練馬区,豊玉北３丁目２４番１３号シャトル・エフ１０２,,13,120,1760012,,,,,,,2022-07-08,1,,,,,プラックフラッグ,0
1881,7011701025377,新規,0,2022-07-08,2022-07-08,ＭｉｋｏＳｅａ株式会社,,株式会社,東京都,江戸川区,北小岩２丁目１３番９号,,13,123,1330051,,,,,,,2022-07-08,1,,,,,ミコシィ,0
1883,7012301013037,新規,0,2022-07-08,2022-07-08,株式会社佐藤装身具,,株式会社,東京都,町田市,上小山田町１６５７－１２,,13,209,1940201,,,,,,,2022-07-08,1,,,,,サトウソウシング,0
1888,7012403005477,新規,0,2022-07-08,2022-07-08,ＲＧＮ・リサーチ・インスティテュート合同会社,,合同会社,東京都,武蔵野市,吉祥寺北町２丁目１９番２６号１０,,13,203,1800001,,,,,,,2022-07-08,1,,,,,アールジーエヌリサーチインスティテュート,0
1902,7020001147220,新規,0,2022-07-08,2022-07-08,ミライドリ株式会社,,株式会社,神奈川県,川崎市幸区,小倉３丁目９番２６－１０２号,,14,132,2120054,,,,,,,2022-07-08,1,,,,,ミライドリ,0
1906,7021001076467,新規,0,2022-07-08,2022-07-08,相模原不動産販売株式会社,,株式会社,神奈川県,相模原市中央区,高根１丁目７番１０号,,14,152,2520221,,,,,,,2022-07-08,1,,,,,サガミハラフドウサンハンバイ,0
1918,7030001149100,新規,0,2022-07-08,2022-07-08,Ｔ＆Ｙ株式会社,,株式会社,埼玉県,川越市,大字今福１４４８番地２,,11,201,3501151,,,,,,,2022-07-08,1,,,,,ティーアンドワイ,0
1919,7030001149109,新規,0,2022-07-08,2022-07-08,株式会社正和エンジニアリング,,株式会社,埼玉県,所沢市,狭山ケ丘１丁目１０番地の１４,,11,208,3591161,,,,,,,2022-07-08,1,,,,,ショウワエンジニアリング,0
1920,7030001149117,新規,0,2022-07-08,2022-07-08,ＭＪ株式会社,,株式会社,埼玉県,川口市,幸町１丁目１１番１８号,,11,203,3320016,,,,,,,2022-07-08,1,,,,,エムジェイ,0
1921,7030001149133,新規,0,2022-07-08,2022-07-08,株式会社玉建装,,株式会社,埼玉県,入間市,宮寺２８５番地１,,11,225,3580014,,,,,,,2022-07-08,1,,,,,タマケンソウ,0
1924,7030003019771,新規,0,2022-07-08,2022-07-08,Ｅｄｉｔ７．５合同会社,,合同会社,埼玉県,戸田市,喜沢南２丁目１番１０－４１０号,,11,224,3350014,,,,,,,2022-07-08,1,,,,,エディットナナテンゴ,0
1932,7040001124102,新規,0,2022-07-08,2022-07-08,株式会社ＫｕＭａ　ｌａｂｏｒａｔｏｒｙ,,株式会社,千葉県,市川市,堀之内４丁目１９番６号,,12,203,2720837,,,,,,,2022-07-08,1,,,,,クマラボラトリー,0
1933,7040001124135,新規,0,2022-07-08,2022-07-08,株式会社ボンダイ,,株式会社,千葉県,松戸市,稔台２丁目３９番地の９,,12,207,2702231,,,,,,,2022-07-08,1,,,,,ボンダイ,0
1934,7040001124143,新規,0,2022-07-08,2022-07-08,株式会社石亀,,株式会社,千葉県,柏市,光ケ丘２丁目１４番１１号,,12,217,2770065,,,,,,,2022-07-08,1,,,,,イシガメ,0
1935,7040001124168,新規,0,2022-07-08,2022-07-08,株式会社ＴＳＵＤＵＫＵ,,株式会社,千葉県,市川市,二俣１丁目２番１６号ＡＺＴＯ市川原木Ａ号室,,12,203,2720001,,,,,,,2022-07-08,1,,,,,ツヅク,0
1936,7040001124184,新規,0,2022-07-08,2022-07-08,株式会社ＦＡＲＭ　ＯＫＡＮＯ,,株式会社,千葉県,香取郡東庄町,小南１１９１番地,,12,349,2890624,,,,,,,2022-07-08,1,,,,,ファームオカノ,0
1937,7040003020407,新規,0,2022-07-08,2022-07-08,合同会社Ｂ．Ｍ．インターナショナル,,合同会社,千葉県,八街市,朝日字松里２２６番地２２コーポ朝日ＩＩ１０１号室,00127149,12,230,2891101,,,,,,,2022-07-08,1,,,,,ビーエムインターナショナル,0
1944,7060003004135,新規,0,2022-07-08,2022-07-08,ＶＩＭＵＫＴＨＩ　ＥＮＴＥＲＰＲＩＳＥＳ合同会社,,合同会社,栃木県,那須塩原市,高林１２５３番地１５,,09,213,3250107,,,,,,,2022-07-08,1,,,,,ヴィムクッテイエンタープライセス,0
1947,7070001039405,新規,0,2022-07-08,2022-07-08,株式会社パン工房くるみの森,,株式会社,群馬県,前橋市,下細井町２３１２番地２,,10,201,3710054,,,,,,,2022-07-08,1,,,,,パンコウボウクルミノモリ,0
1948,7070001039413,新規,0,2022-07-08,2022-07-08,株式会社栄自動車工業,,株式会社,群馬県,高崎市,中大類町５８１番地３,,10,202,3700033,,,,,,,2022-07-08,1,,,,,サカエジドウシャコウギョウ,0
1949,7080001025073,新規,0,2022-07-08,2022-07-08,株式会社３２３Ｄｉｍｅｎｓｉｏｎｓ,,株式会社,静岡県,静岡市駿河区,津島町１４番２４－３号,,22,102,4228056,,,,,,,2022-07-08,1,,,,,サンニサンディメンションズ,0
1950,7080001025081,新規,0,2022-07-08,2022-07-08,株式会社エヌケイ工業,,株式会社,静岡県,静岡市駿河区,曲金２丁目１番１４号,,22,102,4228006,,,,,,,2022-07-08,1,,,,,エヌケイコウギョウ,0
1951,7080003002830,新規,0,2022-07-08,2022-07-08,合同会社焼津海商,,合同会社,静岡県,焼津市,田尻北２１２番地,,22,212,4250051,,,,,,,2022-07-08,1,,,,,ヤイヅカイショウ,0
1953,7080401025937,新規,0,2022-07-08,2022-07-08,株式会社Ｌｕｘ,,株式会社,静岡県,浜松市北区,三ヶ日町三ヶ日４４３番地の１４,,22,135,4311414,,,,,,,2022-07-08,1,,,,,ルクス,0
1956,7090001017664,新規,0,2022-07-08,2022-07-08,株式会社ウシダ,,株式会社,山梨県,北杜市,高根町村山東割２０９７番地５,,19,209,4080019,,,,,,,2022-07-08,1,,,,,,0
1957,7100001035508,新規,0,2022-07-08,2022-07-08,株式会社Ｔ．Ｋ．Ｇ,,株式会社,長野県,伊那市,御園４８２番地２,,20,209,3960022,,,,,,,2022-07-08,1,,,,,ティーケージー,0
1958,7100001035516,新規,0,2022-07-08,2022-07-08,株式会社のちのち,,株式会社,長野県,諏訪郡富士見町,境２９４０番地１,,20,362,3990101,,,,,,,2022-07-08,1,,,,,ノチノチ,0
1959,7100003006614,新規,0,2022-07-08,2022-07-08,花と木の実ｃｏｃｏｃｈｉｙａ合同会社,,合同会社,長野県,上高井郡小布施町,大字山王島９０番地２,,20,541,3810205,,,,,,,2022-07-08,1,,,,,ハナトキノミココチヤ,0
1968,7110003004815,新規,0,2022-07-08,2022-07-08,アソビ合同会社,,合同会社,新潟県,新潟市東区,物見山２丁目３５番２０号３,,15,102,9500021,,,,,,,2022-07-08,1,,,,,アソビ,0
1976,7120001247175,新規,0,2022-07-08,2022-07-08,株式会社ｂｉｔｔｅ,,株式会社,大阪府,大阪市住之江区,西加賀屋１丁目１番４４号ミリカハイツ２０１,,27,125,5590016,,,,,,,2022-07-08,1,,,,,ビッテ,0
1977,7120001247200,新規,0,2022-07-08,2022-07-08,株式会社ＷＡＮＮＡ　ＢＥ,,株式会社,大阪府,大阪市城東区,鴫野西１丁目９番２３－２０３号,,27,118,5360014,,,,,,,2022-07-08,1,,,,,ワナビー,0
1978,7120001247258,新規,0,2022-07-08,2022-07-08,株式会社彩加ホーム,,株式会社,大阪府,大阪市城東区,中央１丁目６番９号５０２,,27,118,5360005,,,,,,,2022-07-08,1,,,,,サイカホーム,0
1979,7120001247266,新規,0,2022-07-08,2022-07-08,株式会社ホームズ,,株式会社,大阪府,大阪市東住吉区,田辺３丁目２２番１２号,,27,121,5460031,,,,,,,2022-07-08,1,,,,,ホームズ,0
1980,7120001247299,新規,0,2022-07-08,2022-07-08,株式会社ＫＯＯＺＡ,,株式会社,大阪府,大阪市西区,北堀江１丁目１番７号四ツ橋日生ビル本館６１１号,,27,106,5500014,,,,,,,2022-07-08,1,,,,,クーザ,0
1988,7120003022023,新規,0,2022-07-08,2022-07-08,ＶＢ合同会社,,合同会社,大阪府,大阪市西成区,鶴見橋２丁目５番１８号,,27,122,5570031,,,,,,,2022-07-08,1,,,,,ヴィービー,0
1992,7120101065824,新規,0,2022-07-08,2022-07-08,株式会社ＵＫライフマネジメント,,株式会社,大阪府,堺市北区,金岡町１４２３番地４‐Ｄ１２８号,,27,146,5918022,,,,,,,2022-07-08,1,,,,,ユーケーライフマネジメント,0
2000,7120901046230,新規,0,2022-07-08,2022-07-08,株式会社こはく,,株式会社,大阪府,茨木市,花園２丁目１３番７号,,27,211,5670017,,,,,,,2022-07-08,1,,,,,コハク,0
2002,7120905006346,新規,0,2022-07-08,2022-07-08,医療法人和幸会,,その他の設立登記法人,大阪府,高槻市,大畑町１３番１号イオンフードスタイル摂津富田店２階,,27,207,5691144,,,,,,,2022-07-08,1,,,,,ワコウカイ,0
2003,7122001036046,新規,0,2022-07-08,2022-07-08,株式会社スマイルワーク,,株式会社,大阪府,八尾市,福万寺町南３丁目３９番地の２０,,27,212,5810843,,,,,,,2022-07-08,1,,,,,スマイルワーク,0
2009,7140001126591,新規,0,2022-07-08,2022-07-08,株式会社アトリエ・マイスター,,株式会社,兵庫県,姫路市,宮上町２丁目１８番地３,,28,201,6700823,,,,,,,2022-07-08,1,,,,,アトリエマイスター,0
2010,7140001126609,新規,0,2022-07-08,2022-07-08,株式会社Ａ‐ＬＩＦＥ,,株式会社,兵庫県,神戸市北区,青葉台１０番９号,,28,109,6511231,,,,,,,2022-07-08,1,,,,,エーライフ,0
2011,7140001126641,新規,0,2022-07-08,2022-07-08,株式会社美活,,株式会社,兵庫県,西宮市,東山台１丁目１５番地１番館３０７,,28,204,6691133,,,,,,,2022-07-08,1,,,,,ビカツ,0
2012,7140001126674,新規,0,2022-07-08,2022-07-08,株式会社宝建装,,株式会社,兵庫県,宝塚市,光明町８番２９－１０１号,,28,214,6650045,,,,,,,2022-07-08,1,,,,,タカラケンソウ,0
2015,7140003017888,新規,0,2022-07-08,2022-07-08,Ｋ＆Ｙソリューションズ合同会社,,合同会社,兵庫県,神戸市北区,鈴蘭台北町３丁目１２番２３号,,28,109,6511111,,,,,,,2022-07-08,1,,,,,ケイアンドワイソリューションズ,0
2016,7150001025677,新規,0,2022-07-08,2022-07-08,株式会社ＴＳＵＢＡＳＡ,,株式会社,奈良県,橿原市,中町２００番地の１５９,,29,205,6340009,,,,,,,2022-07-08,1,,,,,ツバサ,0
2020,7160001024348,新規,0,2022-07-08,2022-07-08,株式会社八百利,,株式会社,滋賀県,彦根市,稲部町２４６番地１９,,25,202,5211113,,,,,,,2022-07-08,1,,,,,ヤオリ,0
2021,7160003002616,新規,0,2022-07-08,2022-07-08,Ｓ．Ｔ　ｗｏｒｋｓ合同会社,,合同会社,滋賀県,近江八幡市,上田町１５４１番地３,,25,204,5230015,,,,,,,2022-07-08,1,,,,,エスティーワークス,0
2023,7170001017185,新規,0,2022-07-08,2022-07-08,株式会社Ｂｒｉｎｇ　ＵＰ,,株式会社,和歌山県,田辺市,稲成町５３０番地の６,,30,206,6460051,,,,,,,2022-07-08,1,,,,,ブリングアップ,0
2028,7180001152007,新規,0,2022-07-08,2022-07-08,株式会社竹真,,株式会社,愛知県,尾張旭市,狩宿町３丁目４９番地,,23,226,4880021,,,,,,,2022-07-08,1,,,,,タケマ,0
2029,7180001152015,新規,0,2022-07-08,2022-07-08,株式会社ＥＮＩＳＩ,,株式会社,愛知県,大府市,長草町東寄合４１番地の２８,,23,223,4740052,,,,,,,2022-07-08,1,,,,,エニシ,0
2030,7180001152048,新規,0,2022-07-08,2022-07-08,株式会社花の香,,株式会社,愛知県,名古屋市中区,大須２丁目１２番４号,,23,106,4600011,,,,,,,2022-07-08,1,,,,,ハナノカ,0
2031,7180001152080,新規,0,2022-07-08,2022-07-08,株式会社ＰａＬ　Ｈｏｍｅ,,株式会社,愛知県,名古屋市天白区,池場２丁目１５０３番地,,23,116,4680055,,,,,,,2022-07-08,1,,,,,パルホーム,0
2041,7180301036421,新規,0,2022-07-08,2022-07-08,株式会社旭塗装,,株式会社,愛知県,蒲郡市,形原町春日浦２０番地４,,23,214,4430106,,,,,,,2022-07-08,1,,,,,アサヒトソウ,0
2044,7190003004031,新規,0,2022-07-08,2022-07-08,合同会社タップ・ホア・コ・バ,,合同会社,三重県,鈴鹿市,神戸１丁目３番１２号,,24,207,5130801,,,,,,,2022-07-08,1,,,,,タップホアコバ,0
2047,7200001040266,新規,0,2022-07-08,2022-07-08,株式会社向日葵,,株式会社,岐阜県,大垣市,高屋町３丁目４番地,,21,202,5030901,,,,,,,2022-07-08,1,,,,,ヒマワリ,0
2048,7200003005614,新規,0,2022-07-08,2022-07-08,合同会社カレイドワークス,,合同会社,岐阜県,岐阜市,花園町１８番地９,,21,201,5008854,,,,,,,2022-07-08,1,,,,,カレイドワークス,0
2055,7240001060038,新規,0,2022-07-08,2022-07-08,株式会社Ｂｅｌｌ,,株式会社,広島県,尾道市,高須町４７５２－２,,34,205,7290141,,,,,,,2022-07-08,1,,,,,ベル,0
2056,7240001060079,新規,0,2022-07-08,2022-07-08,株式会社ＭＩＮＩＮＧ　ＬＩＦＥ,,株式会社,広島県,広島市安佐南区,長楽寺３丁目３３番８号,,34,105,7310143,,,,,,,2022-07-08,1,,,,,マイニングライフ,0
2060,7250001019636,新規,0,2022-07-08,2022-07-08,株式会社相互共感マネジメント,,株式会社,山口県,防府市,国衙３丁目８番２４号,,35,206,7470024,,,,,,,2022-07-08,1,,,,,ソウゴキョウカンマネジメント,0
2061,7250001019644,新規,0,2022-07-08,2022-07-08,株式会社Ｒｏｃｋｙ　Ｓｈｏｒｅ　Ｂａｃｋ,,株式会社,山口県,下関市,赤間町７番２４号,,35,201,7500007,,,,,,,2022-07-08,1,,,,,ロッキーショアバック,0
2062,7250001019652,新規,0,2022-07-08,2022-07-08,株式会社ＡＬＩＣＥ,,株式会社,山口県,周南市,大字大島３４２番地の１,,35,215,7450803,,,,,,,2022-07-08,1,,,,,アリス,0
2069,7290001098107,新規,0,2022-07-08,2022-07-08,株式会社信ファーム,,株式会社,福岡県,久留米市,東櫛原町４７番地３－７０５号,,40,203,8300003,,,,,,,2022-07-08,1,,,,,マコトファーム,0
2082,7310001017955,新規,0,2022-07-08,2022-07-08,株式会社栗山,,株式会社,長崎県,西彼杵郡長与町,高田郷１４３９番地６,,42,307,8512127,,,,,,,2022-07-08,1,,,,,クリヤマ,0
2085,7320001019190,新規,0,2022-07-08,2022-07-08,株式会社Ｓａｋｅ　Ｎ　Ｃｏｎｓｕｌｔｉｎｇ,,株式会社,大分県,別府市,亀川中央町２５番１４号コーポたまき２０２号室,,44,202,8740021,,,,,,,2022-07-08,1,,,,,サケエヌコンサンルティング,0
2088,7330001029916,新規,0,2022-07-08,2022-07-08,株式会社ＨＯＫＵＹＵ,,株式会社,熊本県,阿蘇郡南小国町,大字満願寺６９４４番地,,43,423,8692402,,,,,,,2022-07-08,1,,,,,ホクユー,0
2092,7340003003851,新規,0,2022-07-08,2022-07-08,合同会社ＰＲＩＳＭＩＣ　ＤＥＳＩＧＮ,,合同会社,鹿児島県,鹿児島市,照国町１７番２号第３鶴丸ハイツ８０３号,,46,201,8920841,,,,,,,2022-07-08,1,,,,,プリズミックデザイン,0
2095,7350003004122,新規,0,2022-07-08,2022-07-08,ブランドバリュコンサルティング合同会社,,合同会社,宮崎県,宮崎市,霧島４丁目１６０番地,,45,201,8800032,,,,,,,2022-07-08,1,,,,,ブランドバリュコンサルティング,0
2096,7360001030656,新規,0,2022-07-08,2022-07-08,Ｔｅｎａｃｉｏｕｓ　Ｔａｃｏｓ株式会社,,株式会社,沖縄県,島尻郡八重瀬町,字世名城３６７番地,,47,362,9010403,,,,,,,2022-07-08,1,,,,,テナシャスタコス,0
2097,7360003012149,新規,0,2022-07-08,2022-07-08,合同会社秀興業,,合同会社,沖縄県,沖縄市,登川２丁目１０番２３号,,47,211,9042142,,,,,,,2022-07-08,1,,,,,ヒデコウギョウ,0
2098,7370001048747,新規,0,2022-07-08,2022-07-08,くろしお企画株式会社,,株式会社,宮城県,塩竈市,尾島町１８番１４号,,04,203,9850021,,,,,,,2022-07-08,1,,,,,クロシオキカク,0
2099,7370001048755,新規,0,2022-07-08,2022-07-08,株式会社東北シミズ,,株式会社,宮城県,仙台市青葉区,五橋２丁目１１番１号,,04,101,9800022,,,,,,,2022-07-08,1,,,,,トウホクシミズ,0
2100,7370001048771,新規,0,2022-07-08,2022-07-08,株式会社Ｒｅ‐ｃｏｍ,,株式会社,宮城県,仙台市青葉区,国見ケ丘５丁目４３－５１－１１０５,,04,101,9893201,,,,,,,2022-07-08,1,,,,,リーコム,0
2101,7370003005762,新規,0,2022-07-08,2022-07-08,合同会社仙台石材,,合同会社,宮城県,多賀城市,下馬５丁目４番２６号,,04,209,9850835,,,,,,,2022-07-08,1,,,,,センダイセキザイ,0
2110,7430003014113,新規,0,2022-07-08,2022-07-08,マーベリック合同会社,,合同会社,北海道,千歳市,末広２丁目９番２１号,,01,224,0660027,,,,,,,2022-07-08,1,,,,,マーベリック,0
2111,7440003001473,新規,0,2022-07-08,2022-07-08,合同会社オートクオリティ,,合同会社,北海道,函館市,陣川町４５番地３,,01,202,0410833,,,,,,,2022-07-08,1,,,,,,0
2118,7470003002213,新規,0,2022-07-08,2022-07-08,Ｔ‐Ｅｌｅｃ．合同会社,,合同会社,香川県,高松市,香川町大野２１５８番地３３,,37,201,7611701,,,,,,,2022-07-08,1,,,,,ティーエレック,0
2119,7480001011792,新規,0,2022-07-08,2022-07-08,株式会社ＡＩコーポレーション,,株式会社,徳島県,徳島市,八万町内浜１４３番地１シャルマンハイツ内浜２－３０３,,36,201,7708076,,,,,,,2022-07-08,1,,,,,アイコーポレーション,0
2123,7500001024338,新規,0,2022-07-08,2022-07-08,株式会社隣花庵,,株式会社,愛媛県,松山市,小栗５丁目１０番７号,,38,201,7900036,,,,,,,2022-07-08,1,,,,,リンカアン,0
2134,8010001227807,新規,0,2022-07-08,2022-07-08,株式会社ベーカーズ,,株式会社,東京都,中央区,築地７丁目１０番１３－１４０５号,,13,102,1040045,,,,,,,2022-07-08,1,,,,,ベーカーズ,0
2135,8010001227922,新規,0,2022-07-08,2022-07-08,株式会社猫八,,株式会社,東京都,中央区,明石町１番３１,,13,102,1040044,,,,,,,2022-07-08,1,,,,,ネコハチ,0
2136,8010001227930,新規,0,2022-07-08,2022-07-08,株式会社エーチーム,,株式会社,東京都,中央区,八丁堀２丁目２１番６号,,13,102,1040032,,,,,,,2022-07-08,1,,,,,エーチーム,0
2137,8010003038062,新規,0,2022-07-08,2022-07-08,合同会社Ｈｙｍｅｎ,,合同会社,東京都,千代田区,丸の内３丁目１番１号東京共同会計事務所内,,13,101,1000005,,,,,,,2022-07-08,1,,,,,ハイメン,0
2138,8010003038070,新規,0,2022-07-08,2022-07-08,合同会社ＬｅｏＣｏｒ,,合同会社,東京都,千代田区,九段南２丁目５番９号５０４号室,,13,101,1020074,,,,,,,2022-07-08,1,,,,,レオコル,0
2139,8010003038095,新規,0,2022-07-08,2022-07-08,ＩＢｕｙ　Ｊａｐａｎ合同会社,,合同会社,東京都,中央区,新川１丁目２７番８号新川大原ビル８階,,13,102,1040033,,,,,,,2022-07-08,1,,,,,アイバイジャパン,0
2146,8010401168320,新規,0,2022-07-08,2022-07-08,株式会社Ｓ　ｈｉｒｅ,,株式会社,東京都,港区,東麻布２丁目３５－１,,13,103,1060044,,,,,,,2022-07-08,1,,,,,エスハイアー,0
2147,8010401168337,新規,0,2022-07-08,2022-07-08,株式会社トスヤキエサ,,株式会社,東京都,港区,南麻布５丁目２番５－６０３号,,13,103,1060047,,,,,,,2022-07-08,1,,,,,トスヤキエサ,0
2148,8010401168378,新規,0,2022-07-08,2022-07-08,フォトピア株式会社,,株式会社,東京都,港区,南青山２丁目２番１５号,,13,103,1070062,,,,,,,2022-07-08,1,,,,,フォトピア,0
2149,8010401168403,新規,0,2022-07-08,2022-07-08,株式会社建物カルテ,,株式会社,東京都,港区,浜松町２丁目２番１５号浜松町ダイヤビル２Ｆ,,13,103,1050013,,,,,,,2022-07-08,1,,,,,タテモノカルテ,0
2151,8010501049081,新規,0,2022-07-08,2022-07-08,株式会社宋＿ＧＯＬＤ,00127148,株式会社,東京都,台東区,上野５丁目２２番１１号プラチナビル４Ｆ,,13,106,1100005,,,,,,,2022-07-08,1,,,,,ソンウオンゴーオルド,0
2154,8010601061457,新規,0,2022-07-08,2022-07-08,株式会社Ｔｒｕｌｙ,,株式会社,東京都,江東区,富岡１丁目１０－３,,13,108,1350047,,,,,,,2022-07-08,1,,,,,トゥルーリィ,0
2161,8010803004230,新規,0,2022-07-08,2022-07-08,合同会社クラウドスタッフィング,,合同会社,東京都,大田区,東六郷２丁目１０番４号,,13,111,1440046,,,,,,,2022-07-08,1,,,,,クラウドスタッフィング,0
2162,8010901051199,新規,0,2022-07-08,2022-07-08,株式会社メディバース,,株式会社,東京都,世田谷区,奥沢８丁目７－１２,,13,112,1580083,,,,,,,2022-07-08,1,,,,,メディバース,0
2164,8010903007513,新規,0,2022-07-08,2022-07-08,合同会社癒工房,,合同会社,東京都,世田谷区,梅丘１丁目２６番２号長谷川ビル１Ｆ,,13,112,1540022,,,,,,,2022-07-08,1,,,,,イヤシコウボウ,0
2167,8011001148489,新規,0,2022-07-08,2022-07-08,株式会社Ｅｎｒｉｃｈ　ＭＲ　Ｈｏｌｄｉｎｇｓ,,株式会社,東京都,渋谷区,恵比寿１丁目２３番２３号恵比寿スクエア１階,,13,113,1500013,,,,,,,2022-07-08,1,,,,,エンリッチエムアールホールディングス,0
2168,8011001148497,新規,0,2022-07-08,2022-07-08,Ｋａｎａｒｉａ　Ｔｅｃｈ株式会社,,株式会社,東京都,渋谷区,道玄坂１丁目１０番８号渋谷道玄坂東急ビル２Ｆ－Ｃ,,13,113,1500043,,,,,,,2022-07-08,1,,,,,,0
2169,8011001148506,新規,0,2022-07-08,2022-07-08,株式会社Ｌａｚｚ,,株式会社,東京都,渋谷区,円山町２３番４－４０１号,,13,113,1500044,,,,,,,2022-07-08,1,,,,,ラズ,0
2170,8011001148522,新規,0,2022-07-08,2022-07-08,株式会社ＲＥＰＬＡＹ,,株式会社,東京都,渋谷区,松濤２丁目１９－３,,13,113,1500046,,,,,,,2022-07-08,1,,,,,リプレイ,0
2171,8011001148530,新規,0,2022-07-08,2022-07-08,日本創生投資アドバイザリー株式会社,,株式会社,東京都,渋谷区,桜丘町２６番１号セルリアンタワー１５階,,13,113,1500031,,,,,,,2022-07-08,1,,,,,ニホンソウセイトウシアドバイザリー,0
2172,8011001148539,新規,0,2022-07-08,2022-07-08,株式会社Ａｊｕａｎｎｉ,,株式会社,東京都,目黒区,下目黒４丁目３番１１号,,13,110,1530064,,,,,,,2022-07-08,1,,,,,アジュアニ,0
2173,8011001148563,新規,0,2022-07-08,2022-07-08,株式会社インターネット立方体,,株式会社,東京都,渋谷区,道玄坂１丁目１０番８号渋谷道玄坂東急ビル２Ｆ－Ｃ,,13,113,1500043,,,,,,,2022-07-08,1,,,,,インターネットリッポウタイ,0
2174,8011003014994,新規,0,2022-07-08,2022-07-08,ＦｕｌｌＭｏｏｎ合同会社,,合同会社,東京都,渋谷区,渋谷２丁目１９－１５宮益坂ビルディング６０９,,13,113,1500002,,,,,,,2022-07-08,1,,,,,フルムーン,0
2175,8011003015010,新規,0,2022-07-08,2022-07-08,合同会社ｋｏｏｍ,,合同会社,東京都,渋谷区,代々木５丁目６０番１号アグレシオ代々木公園,,13,113,1510053,,,,,,,2022-07-08,1,,,,,クーン,0
2176,8011101099434,新規,0,2022-07-08,2022-07-08,ＣＵＲＶＡ株式会社,,株式会社,東京都,新宿区,西新宿３丁目３番１３号西新宿水間ビル６階,,13,104,1600023,,,,,,,2022-07-08,1,,,,,クルヴァ,0
2177,8011101099450,新規,0,2022-07-08,2022-07-08,株式会社ＬＥＣＴ,,株式会社,東京都,新宿区,西新宿３丁目３番１３号西新宿水間ビル６階,,13,104,1600023,,,,,,,2022-07-08,1,,,,,レクト,0
2178,8011101099467,新規,0,2022-07-08,2022-07-08,株式会社バリューアップコンサルティング,,株式会社,東京都,新宿区,西新宿７丁目５番２５号プライムスクエア３０１,,13,104,1600023,,,,,,,2022-07-08,1,,,,,バリューアップコンサルティング,0
2180,8011105010314,新規,0,2022-07-08,2022-07-08,地方独立行政法人東京都立病院機構,,その他の設立登記法人,東京都,新宿区,西新宿２丁目８番１号,,13,104,1600023,,,,,,,2022-07-08,1,,,,,トウキョウトリツビョウインキコウ,0
2181,8011201023946,新規,0,2022-07-08,2022-07-08,株式会社つくる,,株式会社,東京都,中野区,上鷺宮４丁目６番１８－５０８号,,13,114,1650031,,,,,,,2022-07-08,1,,,,,ツクル,0
2182,8011303004464,新規,0,2022-07-08,2022-07-08,合同会社エル・アンド・エス・エンタープライズ,,合同会社,東京都,杉並区,上井草３丁目１３番２１－１０１号,,13,115,1670023,,,,,,,2022-07-08,1,,,,,エルアンドエスエンタープライズ,0
2185,8011501028224,新規,0,2022-07-08,2022-07-08,株式会社Ｎｕｒｓｉｎｇ　ｓｙｓｔｅｍ,,株式会社,東京都,荒川区,西日暮里２丁目４９－５光工芸社ビル４０１号,,13,118,1160013,,,,,,,2022-07-08,1,,,,,ナーシングシステム,0
2191,8012401039377,新規,0,2022-07-08,2022-07-08,株式会社Ｌｉｂｉｄｏｘ,,株式会社,東京都,多摩市,馬引沢２丁目１３－１コーポユタカ２０３号室,,13,224,2060023,,,,,,,2022-07-08,1,,,,,リビドックス,0
2193,8013305003361,新規,0,2022-07-08,2022-07-08,特定非営利活動法人Ｌｉｂｒａ,,その他の設立登記法人,東京都,豊島区,南大塚２丁目２５番３２号,,13,116,1700005,,,,,,,2022-07-08,1,,,,,リブラ,0
2199,8020003022073,新規,0,2022-07-08,2022-07-08,カルマ合同会社,,合同会社,神奈川県,横浜市戸塚区,矢部町７６９番地１０メイプルヒル２０６号,,14,110,2440002,,,,,,,2022-07-08,1,,,,,カルマ,0
2202,8021001076466,新規,0,2022-07-08,2022-07-08,万寿生工業株式会社,,株式会社,神奈川県,大和市,上和田１７２０番地１２８,,14,213,2420014,,,,,,,2022-07-08,1,,,,,マスオコウギョウ,0
2203,8021001076474,新規,0,2022-07-08,2022-07-08,ＭＯＴＯＲ　ＺＯＯ株式会社,,株式会社,神奈川県,相模原市緑区,橋本３丁目２７番６号Ｓ＆Ｙビル５階,,14,151,2520143,,,,,,,2022-07-08,1,,,,,モーターズー,0
2204,8021001076482,新規,0,2022-07-08,2022-07-08,ヴェルテス・ビレッジ株式会社,,株式会社,神奈川県,藤沢市,湘南台３丁目３０番地の５,,14,205,2520804,,,,,,,2022-07-08,1,,,,,ヴェルテスビレッジ,0
2207,8021003011917,新規,0,2022-07-08,2022-07-08,小桜合同会社,,合同会社,神奈川県,平塚市,富士見町３番６号,,14,203,2540062,,,,,,,2022-07-08,1,,,,,コサクラ,0
2215,8030001149009,新規,0,2022-07-08,2022-07-08,株式会社誠冬鋼業,,株式会社,埼玉県,戸田市,美女木２丁目２１番地５６,,11,224,3350031,,,,,,,2022-07-08,1,,,,,セイトウコウギョウ,0
2216,8030001149017,新規,0,2022-07-08,2022-07-08,株式会社ＭＯＢＬＥＳＳＥ,,株式会社,埼玉県,三郷市,市助９０４番地１,,11,237,3410033,,,,,,,2022-07-08,1,,,,,モブレス,0
2217,8030001149033,新規,0,2022-07-08,2022-07-08,株式会社スマイルキャリー,,株式会社,埼玉県,行田市,富士見町２丁目３２番地１０,,11,206,3610021,,,,,,,2022-07-08,1,,,,,スマイルキャリー,0
2218,8030001149041,新規,0,2022-07-08,2022-07-08,株式会社フェイステック,,株式会社,埼玉県,上尾市,二ツ宮６１９番地４,,11,219,3620017,,,,,,,2022-07-08,1,,,,,フェイステック,0
2219,8030001149058,新規,0,2022-07-08,2022-07-08,株式会社黒龍倶楽部,00127151,株式会社,埼玉県,さいたま市緑区,東浦和８丁目１６番地３,,11,109,3360926,,,,,,,2022-07-08,1,,,,,コクリュウクラブ,0
2220,8030001149116,新規,0,2022-07-08,2022-07-08,アントワーク株式会社,,株式会社,埼玉県,さいたま市見沼区,大字東新井２０９番地２,,11,104,3370032,,,,,,,2022-07-08,1,,,,,アントワーク,0
2221,8030001149124,新規,0,2022-07-08,2022-07-08,株式会社ＢＲＩＧＨＴ２１,,株式会社,埼玉県,川越市,大字山田１７３８番地１,,11,201,3500822,,,,,,,2022-07-08,1,,,,,ブライトトゥエンティワン,0
2222,8030001149132,新規,0,2022-07-08,2022-07-08,株式会社Ｏｎｅ　Ｓｔｅｐ,,株式会社,埼玉県,川口市,北園町２番１１号パブロビル,,11,203,3330862,,,,,,,2022-07-08,1,,,,,ワンステップ,0
2223,8030001149140,新規,0,2022-07-08,2022-07-08,株式会社Ｇｏｏｄ　Ｄｉｒｅｃｔｏｒｓ　Ｐｏｏｌ,,株式会社,埼玉県,志木市,柏町６丁目２９番４４－５０２号,,11,228,3530007,,,,,,,2022-07-08,1,,,,,グッドディレクターズプール,0
2224,8030003019770,新規,0,2022-07-08,2022-07-08,合同会社ＭＡＳＳＨＩ,,合同会社,埼玉県,川口市,戸塚東１丁目２３番１９号ラレーブ東川口２０５号,,11,203,3330802,,,,,,,2022-07-08,1,,,,,マッシー,0
2227,8040001124126,新規,0,2022-07-08,2022-07-08,株式会社３１０ＬＩＦＥ,,株式会社,千葉県,市川市,市川南３丁目１４－１６－９０７,,12,203,2720033,,,,,,,2022-07-08,1,,,,,サトライフ,0
2228,8040001124142,新規,0,2022-07-08,2022-07-08,株式会社佐竹保険事務所,,株式会社,千葉県,柏市,逆井藤ノ台５番地の２,,12,217,2770041,,,,,,,2022-07-08,1,,,,,サタケホケンジムショ,0
2229,8040001124150,新規,0,2022-07-08,2022-07-08,ＥＶＯＬＶＥ株式会社,,株式会社,千葉県,富里市,日吉台５丁目２５番地,,12,233,2860201,,,,,,,2022-07-08,1,,,,,イボルブ,0
2231,8040003020406,新規,0,2022-07-08,2022-07-08,合同会社ＲＥＭ,,合同会社,千葉県,松戸市,千駄堀７９２－１ファミール松戸２１世紀の森１０６号,,12,207,2702252,,,,,,,2022-07-08,1,,,,,アールイーエム,0
2233,8050001051369,新規,0,2022-07-08,2022-07-08,株式会社ひたちのくにトロピカルファーム,,株式会社,茨城県,つくば市,二の宮１丁目５番８号グランドゥール二の宮３０１,,08,220,3050051,,,,,,,2022-07-08,1,,,,,ヒタチノクニトロピカルファーム,0
2236,8060003004134,新規,0,2022-07-08,2022-07-08,合同会社バディ,,合同会社,栃木県,宇都宮市,陽東５丁目３番９号,,09,201,3210904,,,,,,,2022-07-08,1,,,,,バディ,0
2242,8080001025072,新規,0,2022-07-08,2022-07-08,株式会社ＳＫＩ,,株式会社,静岡県,静岡市葵区,長沼２丁目５番１０号,,22,101,4200813,,,,,,,2022-07-08,1,,,,,エスケイアイ,0
2243,8080001025080,新規,0,2022-07-08,2022-07-08,株式会社ルヴェル,,株式会社,静岡県,静岡市駿河区,登呂６丁目１５－１６,,22,102,4228033,,,,,,,2022-07-08,1,,,,,ルヴェル,0
2244,8080101023414,新規,0,2022-07-08,2022-07-08,株式会社イノヴェーション,,株式会社,静岡県,沼津市,中原町３番１８号,,22,203,4100818,,,,,,,2022-07-08,1,,,,,イノヴェーション,0
2246,8080403004582,新規,0,2022-07-08,2022-07-08,エーティーアセット合同会社,,合同会社,静岡県,浜松市北区,細江町気賀５０５番地の１,,22,135,4311305,,,,,,,2022-07-08,1,,,,,エーティーアセット,0
2250,8100001035507,新規,0,2022-07-08,2022-07-08,株式会社架け橋,,株式会社,長野県,木曽郡木曽町,開田高原西野６９２７,,20,432,3970302,,,,,,,2022-07-08,1,,,,,カケハシ,0
2251,8100001035515,新規,0,2022-07-08,2022-07-08,株式会社丸三,,株式会社,長野県,飯田市,白山町２丁目１番地２,,20,205,3950076,,,,,,,2022-07-08,1,,,,,マルサン,0
2252,8100003006613,新規,0,2022-07-08,2022-07-08,Ｃｕｃｃｈｉａｉｏ　ｄｉ　ｌｅｇｎｏ合同会社,,合同会社,長野県,東御市,田中１７８番地２,,20,219,3890516,,,,,,,2022-07-08,1,,,,,クッキアイオディレニョ,0
2258,8110003004814,新規,0,2022-07-08,2022-07-08,合同会社Ａ’ｓＬａｂｏ,,合同会社,新潟県,新潟市西蒲区,茨島１８４２－７,,15,108,9590513,,,,,,,2022-07-08,1,,,,,アースラボ,0
2267,8120001247166,新規,0,2022-07-08,2022-07-08,株式会社アシスト,,株式会社,大阪府,大阪市淀川区,宮原１丁目１９番２３号ステュディオ新御堂５２６号室,,27,123,5320003,,,,,,,2022-07-08,1,,,,,アシスト,0
2268,8120001247174,新規,0,2022-07-08,2022-07-08,株式会社ＮＯＹＥＳ,,株式会社,大阪府,大阪市都島区,都島本通３丁目２７番１８号,,27,102,5340021,,,,,,,2022-07-08,1,,,,,ノイエス,0
2269,8120001247224,新規,0,2022-07-08,2022-07-08,株式会社ストルーチェ,,株式会社,大阪府,大阪市中央区,南久宝寺町２丁目３番６号Ｙｏｎｅｚａｗａ船場ビル６０１号,,27,128,5410058,,,,,,,2022-07-08,1,,,,,ストルーチェ,0
2270,8120003022014,新規,0,2022-07-08,2022-07-08,合同会社ディライト・トゥデイ,,合同会社,大阪府,大阪市中央区,東高麗橋４番２３号,,27,128,5400039,,,,,,,2022-07-08,1,,,,,ディライトトゥデイ,0
2271,8120003022039,新規,0,2022-07-08,2022-07-08,いか松ＲＥＣＯＲＤ合同会社,,合同会社,大阪府,大阪市住之江区,平林北２丁目８－５９アップルビル５０６,,27,125,5590026,,,,,,,2022-07-08,1,,,,,イカマツレコード,0
2274,8120005023043,新規,0,2022-07-08,2022-07-08,一般社団法人Ｈｏｌｌｙｗｏｏｄ　ｃｏｎｎｅｃｔｉｏｎ,,その他の設立登記法人,大阪府,大阪市天王寺区,東高津町１１番７号上本町Ｉ．Ｂ．Ｐタワー５Ｆ,,27,109,5430021,,,,,,,2022-07-08,1,,,,,ハリウッドコネクション,0
2277,8120101065872,新規,0,2022-07-08,2022-07-08,株式会社グランディア管理,,株式会社,大阪府,阪南市,舞３丁目２２番９号,,27,232,5990224,,,,,,,2022-07-08,1,,,,,グランディアカンリ,0
2278,8120101065897,新規,0,2022-07-08,2022-07-08,梶原電気株式会社,,株式会社,大阪府,堺市南区,逆瀬川８４２番地１１,,27,145,5900123,,,,,,,2022-07-08,1,,,,,カジワラデンキ,0
2286,8120905006345,新規,0,2022-07-08,2022-07-08,医療法人行和会,,その他の設立登記法人,大阪府,池田市,城南２丁目３番６号,,27,204,5630025,,,,,,,2022-07-08,1,,,,,コウワカイ,0
2289,8122001036045,新規,0,2022-07-08,2022-07-08,株式会社フロントナイン,,株式会社,大阪府,八尾市,本町６丁目１３番１７号－３０７号,,27,212,5810003,,,,,,,2022-07-08,1,,,,,フロントナイン,0
2292,8140001126590,新規,0,2022-07-08,2022-07-08,石田商事株式会社,,株式会社,兵庫県,川西市,西畦野字道中８番地の１,,28,217,6660155,,,,,,,2022-07-08,1,,,,,イシダショウジ,0
2293,8140001126608,新規,0,2022-07-08,2022-07-08,株式会社サンユー電工,,株式会社,兵庫県,川西市,見野２丁目１１番１７号,,28,217,6660105,,,,,,,2022-07-08,1,,,,,サンユーデンコウ,0
2294,8140001126665,新規,0,2022-07-08,2022-07-08,ウィンドローズ園芸株式会社,,株式会社,兵庫県,西宮市,すみれ台２丁目２番地７,,28,204,6511432,,,,,,,2022-07-08,1,,,,,ウィンドローズエンゲイ,0
2295,8140001126673,新規,0,2022-07-08,2022-07-08,株式会社川本・高田保険工房,,株式会社,兵庫県,姫路市,花田町加納原田４４９番地１,,28,201,6710252,,,,,,,2022-07-08,1,,,,,カワモトタカタホケンコウボウ,0
2298,8140003017879,新規,0,2022-07-08,2022-07-08,合同会社ｅｙｅＬ,,合同会社,兵庫県,西宮市,高松町１６番１１号,,28,204,6638204,,,,,,,2022-07-08,1,,,,,アイエル,0
2301,8150001025676,新規,0,2022-07-08,2022-07-08,株式会社Ｎｉｃｏ,,株式会社,奈良県,生駒市,北田原町１１３２番地５２,,29,209,6300142,,,,,,,2022-07-08,1,,,,,ニコ,0
2304,8170003001748,新規,0,2022-07-08,2022-07-08,合同会社ヘルパーステーションとわ,,合同会社,和歌山県,和歌山市,直川１９１２番地３－２０２,,30,201,6408481,,,,,,,2022-07-08,1,,,,,ヘルパーステーショントワ,0
2313,8180001152039,新規,0,2022-07-08,2022-07-08,ブラウニー株式会社,,株式会社,愛知県,春日井市,庄名町２丁目１３番地１８,,23,206,4870022,,,,,,,2022-07-08,1,,,,,ブラウニー,0
2314,8180001152055,新規,0,2022-07-08,2022-07-08,Ｆｕｔｕｒｅ　Ｃｏｎｓｕｌｔｉｎｇ株式会社,,株式会社,愛知県,名古屋市中区,栄３丁目１５番３３号栄ガスビル１３階,,23,106,4600008,,,,,,,2022-07-08,1,,,,,フューチャーコンサルティング,0
2315,8180001152113,新規,0,2022-07-08,2022-07-08,ＹＤテック株式会社,,株式会社,愛知県,名古屋市西区,中小田井２丁目２９５番地の１,,23,104,4520822,,,,,,,2022-07-08,1,,,,,ワイディテック,0
2316,8180001152121,新規,0,2022-07-08,2022-07-08,株式会社ＬａｂＯｎｅ,,株式会社,愛知県,尾張旭市,旭ケ丘町山の手２番地６３,,23,226,4880084,,,,,,,2022-07-08,1,,,,,ラボワン,0
2317,8180003024005,新規,0,2022-07-08,2022-07-08,合同会社ＰＲＥＳＥＮＴ,,合同会社,愛知県,名古屋市中村区,八社２丁目１１２番地ラ・ルーチェ１０２号室,,23,105,4530863,,,,,,,2022-07-08,1,,,,,プレゼント,0
2318,8180301036404,新規,0,2022-07-08,2022-07-08,ＡＫＲＯ株式会社,,株式会社,愛知県,新城市,稲木９８７番地４０,,23,221,4411351,,,,,,,2022-07-08,1,,,,,アクロ,0
2319,8180301036412,新規,0,2022-07-08,2022-07-08,桜パートナーズ株式会社,,株式会社,愛知県,田原市,福江町堂前５２番地６,,23,231,4413617,,,,,,,2022-07-08,1,,,,,サクラパートナーズ,0
2320,8180301036420,新規,0,2022-07-08,2022-07-08,株式会社ＳＫＴＴＥＣＨ,,株式会社,愛知県,豊田市,花園町五反田６番地１,,23,211,4730924,,,,,,,2022-07-08,1,,,,,エスケーティーテック,0
2323,8190001029599,新規,0,2022-07-08,2022-07-08,株式会社社会保険推進会,,株式会社,三重県,四日市市,東茂福町１１番７号田村マンションＢ－１０３,,24,202,5108011,,,,,,,2022-07-08,1,,,,,シャカイホケンスイシンカイ,0
2324,8190001029608,新規,0,2022-07-08,2022-07-08,株式会社エイショウ,,株式会社,三重県,四日市市,桜町６６７５番地１０,,24,202,5121211,,,,,,,2022-07-08,1,,,,,エイショウ,0
2331,8200001040265,新規,0,2022-07-08,2022-07-08,マミ商事株式会社,,株式会社,岐阜県,岐阜市,長良雄総２１２番地,,21,201,5020017,,,,,,,2022-07-08,1,,,,,マミショウジ,0
2339,8240001060078,新規,0,2022-07-08,2022-07-08,株式会社あまのがわ,,株式会社,広島県,広島市安佐南区,長楽寺１丁目３番５‐３０１号,,34,105,7310143,,,,,,,2022-07-08,1,,,,,アマノガワ,0
2340,8240005015417,新規,0,2022-07-08,2022-07-08,一般社団法人ハワイ平和スカラシップ,,その他の設立登記法人,広島県,広島市中区,東千田町１丁目１番１８号,,34,101,7300053,,,,,,,2022-07-08,1,,,,,ハワイヘイワスカラシップ,0
2344,8250001019651,新規,0,2022-07-08,2022-07-08,株式会社吉村工業,,株式会社,山口県,宇部市,西宇部南２丁目５番１３号,,35,202,7590208,,,,,,,2022-07-08,1,,,,,ヨシムラコウギョウ,0
2346,8260005011109,新規,0,2022-07-08,2022-07-08,特定非営利活動法人虹色,,その他の設立登記法人,岡山県,玉野市,胸上字東浜７２５番地,,33,204,7060305,,,,,,,2022-07-08,1,,,,,ニジイロ,0
2347,8270001008578,新規,0,2022-07-08,2022-07-08,株式会社ＪｕｎｋＹａｒｄ,,株式会社,鳥取県,鳥取市,富安１丁目３３番１号,,31,201,6800845,,,,,,,2022-07-08,1,,,,,ジャンクヤード,0
2351,8290001098196,新規,0,2022-07-08,2022-07-08,キャッスル寿株式会社,,株式会社,福岡県,福岡市早良区,小田部１丁目１８番２２号,,40,137,8140032,,,,,,,2022-07-08,1,,,,,キャッスルコトブキ,0
2352,8290001098238,新規,0,2022-07-08,2022-07-08,株式会社ｈｕｎｔｅｒ,,株式会社,福岡県,糸島市,南風台２丁目４－２,,40,230,8191137,,,,,,,2022-07-08,1,,,,,ハンター,0
2354,8310001017954,新規,0,2022-07-08,2022-07-08,株式会社鵲瑞,,株式会社,長崎県,長崎市,滑石３丁目１９番６２号,,42,201,8528061,,,,,,,2022-07-08,1,,,,,ジャクズイ,0
2361,8330001029915,新規,0,2022-07-08,2022-07-08,株式会社ｄａ　Ｒｏｃｃｏ,,株式会社,熊本県,熊本市中央区,城東町５番４１号（１Ｆ）,,43,101,8600846,,,,,,,2022-07-08,1,,,,,ダロッコ,0
2367,8360001030663,新規,0,2022-07-08,2022-07-08,株式会社クリニックサポートかふう,,株式会社,沖縄県,宜野湾市,嘉数１丁目２２番５号,,47,205,9012226,,,,,,,2022-07-08,1,,,,,クリニックサポートカフウ,0
2368,8360001030671,新規,0,2022-07-08,2022-07-08,株式会社ちどり,,株式会社,沖縄県,那覇市,繁多川１丁目２１番５号コーポ長嶺３０２号,,47,201,9020071,,,,,,,2022-07-08,1,,,,,チドリ,0
2369,8360003012123,新規,0,2022-07-08,2022-07-08,合同会社ＳＢ‐Ｉｎｎｏｖａｔｉｏｎ,,合同会社,沖縄県,那覇市,銘苅３丁目１７－２２,,47,201,9000004,,,,,,,2022-07-08,1,,,,,エスビーイノベーション,0
2370,8360003012148,新規,0,2022-07-08,2022-07-08,小森産業合同会社,,合同会社,沖縄県,島尻郡八重瀬町,字屋宜原２３番８３,,47,362,9010406,,,,,,,2022-07-08,1,,,,,コモリサンギョウ,0
2371,8370001048770,新規,0,2022-07-08,2022-07-08,株式会社アクアトラスト,,株式会社,宮城県,仙台市太白区,八木山本町１丁目６番地の１８禄山ハイツ１０８号,,04,104,9820801,,,,,,,2022-07-08,1,,,,,アクアトラスト,0
2386,8430001086954,新規,0,2022-07-08,2022-07-08,株式会社ＨＭＴＲＡＤＩＮＧ,,株式会社,北海道,苫小牧市,拓勇東町１丁目１番６３号,,01,213,0591303,,,,,,,2022-07-08,1,,,,,エイチエムトレーディング,0
2389,8440001009113,新規,0,2022-07-08,2022-07-08,グローバルエボリューション株式会社,,株式会社,北海道,函館市,中道１丁目２６番３４号,,01,202,0410853,,,,,,,2022-07-08,1,,,,,グローバルエボリューション,0
2390,8450001013741,新規,0,2022-07-08,2022-07-08,株式会社Ｆｒｏｍ　Ａｓ,,株式会社,北海道,旭川市,曙北三条６丁目１番１号,,01,204,0700073,,,,,,,2022-07-08,1,,,,,フロムアス,0
2402,8500001024329,新規,0,2022-07-08,2022-07-08,株式会社イシマルデザイン一級建築士事務所,,株式会社,愛媛県,松山市,福角町甲５５７番地１,,38,201,7992652,,,,,,,2022-07-08,1,,,,,イシマルデザインイッキュウケンチクシジムショ,0
2403,8500001024337,新規,0,2022-07-08,2022-07-08,株式会社アリストス,,株式会社,愛媛県,松山市,湊町４丁目６番地１２池田ビル１階・２階,,38,201,7900012,,,,,,,2022-07-08,1,,,,,アリストス,0
2407,9010001227921,新規,0,2022-07-08,2022-07-08,株式会社カリートラボ,,株式会社,東京都,千代田区,飯田橋１丁目７番１０号,,13,101,1020072,,,,,,,2022-07-08,1,,,,,カリートラボ,0
2408,9010001227938,新規,0,2022-07-08,2022-07-08,テックス・フーズ株式会社,,株式会社,東京都,千代田区,神田和泉町１番１－１６,,13,101,1010024,,,,,,,2022-07-08,1,,,,,テックスフーズ,0
2409,9010001227954,新規,0,2022-07-08,2022-07-08,ＭＳＤ企業投資三号株式会社,,株式会社,東京都,千代田区,大手町１丁目９番２号,,13,101,1000004,,,,,,,2022-07-08,1,,,,,エムエスディーキギョウトウシサンゴウ,0
2413,9010003038053,新規,0,2022-07-08,2022-07-08,合同会社ねころけっと,,合同会社,東京都,千代田区,神田佐久間町２丁目１３番地,,13,101,1010025,,,,,,,2022-07-08,1,,,,,ネコロケット,0
2414,9010003038061,新規,0,2022-07-08,2022-07-08,合同会社Ｐｒｉａｐｕｓ,,合同会社,東京都,千代田区,丸の内３丁目１番１号東京共同会計事務所内,,13,101,1000005,,,,,,,2022-07-08,1,,,,,プリアパス,0
2415,9010003038086,新規,0,2022-07-08,2022-07-08,合同会社ＭＮＹ　Ｌａｂ,,合同会社,東京都,中央区,日本橋馬喰町２丁目７番１５号ザ・パークレックス日本橋馬喰町ビル３階,,13,102,1030002,,,,,,,2022-07-08,1,,,,,エムエヌワイラボ,0
2416,9010003038094,新規,0,2022-07-08,2022-07-08,合同会社大洗ホテルプロジェクト,,合同会社,東京都,中央区,日本橋１丁目４番１号,,13,102,1030027,,,,,,,2022-07-08,1,,,,,オオアライホテルプロジェクト,0
2422,9010401168369,新規,0,2022-07-08,2022-07-08,株式会社Ｆｌｉｐｐ,,株式会社,東京都,港区,南青山５丁目９番１９号ＭＡＲ’Ｓ南青山５Ｆ,,13,103,1070062,,,,,,,2022-07-08,1,,,,,フリップ,0
2423,9010401168377,新規,0,2022-07-08,2022-07-08,株式会社Ａｓｃｅｎｔ,,株式会社,東京都,港区,浜松町２丁目２番１５号浜松町ダイヤビル２階,,13,103,1050013,,,,,,,2022-07-08,1,,,,,アセント,0
2424,9010401168402,新規,0,2022-07-08,2022-07-08,ｍｉｃｏ株式会社,,株式会社,東京都,港区,南青山２丁目２番１５号,,13,103,1070062,,,,,,,2022-07-08,1,,,,,ミコー,0
2426,9010501049080,新規,0,2022-07-08,2022-07-08,株式会社異次元ＡＫＩＢＡ,,株式会社,東京都,台東区,鳥越２丁目７番４－７０２号ヘブン・鳥越,,13,106,1110054,,,,,,,2022-07-08,1,,,,,イジゲンアキバ,0
2430,9010601061423,新規,0,2022-07-08,2022-07-08,株式会社ＥｄｕＣａｒｅ,,株式会社,東京都,江東区,門前仲町１丁目１６番３－９０２号,,13,108,1350048,,,,,,,2022-07-08,1,,,,,エデュケア,0
2436,9010903007512,新規,0,2022-07-08,2022-07-08,合同会社矢澤テクノロジー,,合同会社,東京都,世田谷区,上野毛４丁目１３－１５,,13,112,1580093,,,,,,,2022-07-08,1,,,,,ヤザワテクノロジー,0
2443,9011001148521,新規,0,2022-07-08,2022-07-08,株式会社Ａｎｄ,,株式会社,東京都,渋谷区,千駄ヶ谷３丁目１３番１５号北参道トゥアル３０１,,13,113,1510051,,,,,,,2022-07-08,1,,,,,アンド,0
2444,9011001148554,新規,0,2022-07-08,2022-07-08,ＭＩＳＯ株式会社,,株式会社,東京都,目黒区,碑文谷１丁目２１番１５号,,13,110,1520003,,,,,,,2022-07-08,1,,,,,ミソ,0
2445,9011001148562,新規,0,2022-07-08,2022-07-08,マーケター高井がすべて担当してＢ２Ｂマーケティングを支援する株式会社,,株式会社,東京都,渋谷区,道玄坂１丁目１０番８号渋谷道玄坂東急ビル２Ｆ－Ｃ,,13,113,1500043,,,,,,,2022-07-08,1,,,,,,0
2446,9011001148570,新規,0,2022-07-08,2022-07-08,株式会社踏み台,,株式会社,東京都,渋谷区,千駄ヶ谷３丁目１６番５号９階,,13,113,1510051,,,,,,,2022-07-08,1,,,,,フミダイ,0
2449,9011003014985,新規,0,2022-07-08,2022-07-08,合同会社つばき,,合同会社,東京都,渋谷区,西原１丁目２２番８号,,13,113,1510066,,,,,,,2022-07-08,1,,,,,ツバキ,0
2457,9011101099417,新規,0,2022-07-08,2022-07-08,株式会社ＮＴＴ　Ｒｉｓｋ　Ｍａｎａｇｅｒ,,株式会社,東京都,新宿区,西新宿３丁目１９番２号,,13,104,1600023,,,,,,,2022-07-08,1,,,,,エヌティティリスクマネージャー,0
2459,9011201023945,新規,0,2022-07-08,2022-07-08,株式会社ＶＥＲＳＥ,,株式会社,東京都,中野区,新井１丁目２番１１号ｉｓｔ２０１,,13,114,1650026,,,,,,,2022-07-08,1,,,,,バース,0
2465,9011603003644,新規,0,2022-07-08,2022-07-08,スターペル合同会社,,合同会社,東京都,練馬区,旭町１丁目４２番５－８０５号,,13,120,1790071,,,,,,,2022-07-08,1,,,,,スターペル,0
2470,9011801040976,新規,0,2022-07-08,2022-07-08,ＴＯＡ不動産株式会社,,株式会社,東京都,足立区,梅島１丁目３１番１３号,,13,121,1210816,,,,,,,2022-07-08,1,,,,,トアフドウサン,0
2474,9012401039401,新規,0,2022-07-08,2022-07-08,株式会社キルデ,,株式会社,東京都,稲城市,東長沼３３－１,,13,225,2060802,,,,,,,2022-07-08,1,,,,,キルデ,0
2486,9020001147227,新規,0,2022-07-08,2022-07-08,株式会社Ｃｈｅｓｔｅｒ,,株式会社,神奈川県,横浜市鶴見区,梶山１丁目１５－８－１アルバレガーロＩ２０１号室,00127146,14,101,2300072,,,,,,,2022-07-08,1,,,,,チェスター,0
2493,9020003022064,新規,0,2022-07-08,2022-07-08,アンダーソンマネジメント合同会社,,合同会社,神奈川県,横浜市中区,上野町２丁目５８番地９,,14,104,2310842,,,,,,,2022-07-08,1,,,,,アンダーソンマネジメント,0
2501,9021001076473,新規,0,2022-07-08,2022-07-08,株式会社カーター,,株式会社,神奈川県,相模原市中央区,田名６０２６番地２,,14,152,2520244,,,,,,,2022-07-08,1,,,,,カーター,0
2505,9021003011908,新規,0,2022-07-08,2022-07-08,合同会社Ｓａｓａ　Ｍｕｓｉｃａ＆Ｃｕｌｔｕｒａ,,合同会社,神奈川県,小田原市,柳新田５３番地の１サンハイツ渡辺Ｃ１０３,,14,206,2500857,,,,,,,2022-07-08,1,,,,,ササムジカエクルトゥラ,0
2514,9030001149008,新規,0,2022-07-08,2022-07-08,株式会社孔明,,株式会社,埼玉県,児玉郡上里町,大字金久保５３番地２１,,11,385,3690301,,,,,,,2022-07-08,1,,,,,コウメイ,0
2515,9030001149049,新規,0,2022-07-08,2022-07-08,株式会社一歩堂,,株式会社,埼玉県,越谷市,宮本町５丁目２１９番地６９,,11,222,3430806,,,,,,,2022-07-08,1,,,,,イッポドウ,0
2516,9030001149115,新規,0,2022-07-08,2022-07-08,株式会社角田企画,,株式会社,埼玉県,越谷市,大字袋山２４１番地１２,,11,222,3430032,,,,,,,2022-07-08,1,,,,,ツノダキカク,0
2517,9030001149131,新規,0,2022-07-08,2022-07-08,株式会社Ｌａｙｅｒ２,,株式会社,埼玉県,川越市,大字古市場４６３番地４２,,11,201,3500014,,,,,,,2022-07-08,1,,,,,レイヤーツー,0
2518,9030001149156,新規,0,2022-07-08,2022-07-08,株式会社ケアミー介護,,株式会社,埼玉県,三郷市,戸ケ崎２９５４番地１,,11,237,3410044,,,,,,,2022-07-08,1,,,,,ケアミーカイゴ,0
2520,9030003019761,新規,0,2022-07-08,2022-07-08,合同会社ＫＩＨＩＮ,,合同会社,埼玉県,川口市,栄町３丁目１２番８号,,11,203,3320017,,,,,,,2022-07-08,1,,,,,キヒン,0
2530,9040001124125,新規,0,2022-07-08,2022-07-08,株式会社いだてん,,株式会社,千葉県,松戸市,上本郷３１２９番地,,12,207,2710064,,,,,,,2022-07-08,1,,,,,イダテン,0
2531,9040001124158,新規,0,2022-07-08,2022-07-08,株式会社結心,,株式会社,千葉県,柏市,西原２丁目１０番５号,,12,217,2770885,,,,,,,2022-07-08,1,,,,,ユウシン,0
2532,9040001124166,新規,0,2022-07-08,2022-07-08,フジワラ住宅検査株式会社,,株式会社,千葉県,流山市,大字東深井６７１番地の９,,12,220,2700101,,,,,,,2022-07-08,1,,,,,フジワラジュウタクケンサ,0
2534,9040003020272,新規,0,2022-07-08,2022-07-08,合同会社ＣＡＲＦＡＣＴＯＲＹ　ＣＵＲＩＯ,,合同会社,千葉県,柏市,南増尾３丁目２１－１３,,12,217,2770054,,,,,,,2022-07-08,1,,,,,カーファクトリーキュリオ,0
2536,9050001051327,新規,0,2022-07-08,2022-07-08,株式会社スリーエスハンズ,,株式会社,茨城県,筑西市,久地楽１３３番地２,,08,227,3091103,,,,,,,2022-07-08,1,,,,,スリーエスハンズ,0
2537,9050001051343,新規,0,2022-07-08,2022-07-08,株式会社三六,,株式会社,茨城県,下妻市,半谷１０４５番地１７,,08,210,3040005,,,,,,,2022-07-08,1,,,,,サンロク,0
2540,9070003004537,新規,0,2022-07-08,2022-07-08,合同会社さとやまりん,,合同会社,群馬県,吾妻郡東吾妻町,大字大戸２１１０番２６,,10,429,3770931,,,,,,,2022-07-08,1,,,,,サトヤマリン,0
2544,9080101023413,新規,0,2022-07-08,2022-07-08,株式会社電友,,株式会社,静岡県,田方郡函南町,平井３９１番地の５,,22,325,4190107,,,,,,,2022-07-08,1,,,,,デンユウ,0
2545,9080103002621,新規,0,2022-07-08,2022-07-08,合同会社ａｎｄ　ｈｏｐｅ,,合同会社,静岡県,三島市,寿町９番４号モラーダ三島０３,,22,206,4110039,,,,,,,2022-07-08,1,,,,,アンドホープ,0
2546,9080401025943,新規,0,2022-07-08,2022-07-08,株式会社マイリン,,株式会社,静岡県,浜松市中区,葵西２丁目１８番３８号,,22,131,4338111,,,,,,,2022-07-08,1,,,,,マイリン,0
2567,9120001247082,新規,0,2022-07-08,2022-07-08,株式会社ＡｉｍＦｏｒｗａｒｄ,,株式会社,大阪府,大阪市北区,梅田１丁目１－３大阪駅前第３ビル２９階１－１－１号室,,27,127,5300001,,,,,,,2022-07-08,1,,,,,エイムフォワード,0
2568,9120001247108,新規,0,2022-07-08,2022-07-08,長虹エンジニアリング株式会社,,株式会社,大阪府,大阪市西区,北堀江１丁目５番２号四ツ橋新興産ビル１１階,,27,106,5500014,,,,,,,2022-07-08,1,,,,,チョウコウエンジイアリング,0
2569,9120001247132,新規,0,2022-07-08,2022-07-08,株式会社ＳＴＭサポート,,株式会社,大阪府,大阪市東成区,中道３丁目１５番１６号,,27,115,5370025,,,,,,,2022-07-08,1,,,,,エスティーエムサポート,0
2570,9120001247173,新規,0,2022-07-08,2022-07-08,株式会社サムライマーケティング,,株式会社,大阪府,大阪市中央区,難波５丁目１番６０号,,27,128,5420076,,,,,,,2022-07-08,1,,,,,サムライマーケティング,0
2571,9120001247198,新規,0,2022-07-08,2022-07-08,株式会社ＲｅａＬｉｇｈｔ,,株式会社,大阪府,大阪市中央区,高麗橋４丁目８－１０パークコート淀屋橋５０３,,27,128,5410043,,,,,,,2022-07-08,1,,,,,リアライト,0
2575,9120003022046,新規,0,2022-07-08,2022-07-08,合同会社ＫＮＨ,,合同会社,大阪府,大阪市中央区,高麗橋２丁目１－８－３７０３,,27,128,5410043,,,,,,,2022-07-08,1,,,,,ケーエヌエイチ,0
2578,9120101065830,新規,0,2022-07-08,2022-07-08,株式会社Ｎ,,株式会社,大阪府,藤井寺市,北岡１丁目６番１号,,27,226,5830035,,,,,,,2022-07-08,1,,,,,エヌ,0
2579,9120101065839,新規,0,2022-07-08,2022-07-08,株式会社大昇デザイン,,株式会社,大阪府,堺市中区,深井清水町３４８４番地Ｃ号,,27,142,5998273,,,,,,,2022-07-08,1,,,,,ダイショウデザイン,0
2583,9122001036036,新規,0,2022-07-08,2022-07-08,株式会社トーエイ精工,,株式会社,大阪府,東大阪市,楠根２丁目２番２３号,,27,227,5770006,,,,,,,2022-07-08,1,,,,,トーエイセイコウ,0
2584,9122001036044,新規,0,2022-07-08,2022-07-08,株式会社クリエイターレコード,,株式会社,大阪府,東大阪市,稲葉１丁目１３番９号,,27,227,5780925,,,,,,,2022-07-08,1,,,,,クリエイターレコード,0
2585,9122001036052,新規,0,2022-07-08,2022-07-08,株式会社サービスサポート,,株式会社,大阪府,四條畷市,岡山東５丁目５番６６号,,27,229,5750003,,,,,,,2022-07-08,1,,,,,サービスサポート,0
2588,9140001126648,新規,0,2022-07-08,2022-07-08,株式会社モダンルネッサンス,,株式会社,兵庫県,神戸市西区,神出町小束野３９０,,28,111,6512304,,,,,,,2022-07-08,1,,,,,モダンルネッサンス,0
2589,9140001126664,新規,0,2022-07-08,2022-07-08,株式会社Ｋ‐ｗａｖｅ,,株式会社,兵庫県,神戸市北区,北五葉１丁目１番１号西鈴神鉄ビル１Ｆ,,28,109,6511131,,,,,,,2022-07-08,1,,,,,ケーウェーブ,0
2590,9140001126672,新規,0,2022-07-08,2022-07-08,株式会社ＡＤＶＡＮＣＥ,,株式会社,兵庫県,高砂市,伊保崎１丁目１８番２１号,,28,216,6760076,,,,,,,2022-07-08,1,,,,,アドバンス,0
2591,9140001126680,新規,0,2022-07-08,2022-07-08,株式会社キートス,,株式会社,兵庫県,神戸市中央区,磯辺通１丁目１番２０号ＫＯＷＡ　ＢＬＤＧ．３Ｆ,,28,110,6510084,,,,,,,2022-07-08,1,,,,,キートス,0
2595,9150001025675,新規,0,2022-07-08,2022-07-08,株式会社ユン・ワーク,,株式会社,奈良県,奈良市,三条栄町１５番４－３号,,29,201,6308126,,,,,,,2022-07-08,1,,,,,ユンワーク,0
2596,9160001024338,新規,0,2022-07-08,2022-07-08,株式会社ゼロホールディングス,,株式会社,滋賀県,草津市,西草津２丁目３番２２号,,25,206,5250035,,,,,,,2022-07-08,1,,,,,ゼロホールディングス,0
2605,9180001152013,新規,0,2022-07-08,2022-07-08,株式会社市野製菓,,株式会社,愛知県,名古屋市中川区,八家町２丁目１６６番地,,23,110,4540835,,,,,,,2022-07-08,1,,,,,イチノセイカ,0
2606,9180001152046,新規,0,2022-07-08,2022-07-08,株式会社文花,,株式会社,愛知県,名古屋市瑞穂区,平郷町２丁目２番地２、１Ｆ,,23,108,4670879,,,,,,,2022-07-08,1,,,,,ブンカ,0
2607,9180001152079,新規,0,2022-07-08,2022-07-08,ファインドグッズ株式会社,,株式会社,愛知県,名古屋市千種区,清住町３丁目１１番地,,23,101,4640034,,,,,,,2022-07-08,1,,,,,ファインドグッズ,0
2608,9180001152087,新規,0,2022-07-08,2022-07-08,株式会社ＨＡＮＡＩＣＨＩ,,株式会社,愛知県,名古屋市港区,油屋町３丁目９番地の４,,23,111,4550815,,,,,,,2022-07-08,1,,,,,ハナイチ,0
2609,9180001152104,新規,0,2022-07-08,2022-07-08,４Ｃ株式会社,,株式会社,愛知県,名古屋市天白区,梅が丘３丁目２３０７番地,,23,116,4680004,,,,,,,2022-07-08,1,,,,,フォーシー,0
2610,9180001152112,新規,0,2022-07-08,2022-07-08,ＴＭ住設株式会社,,株式会社,愛知県,名古屋市中川区,戸田２丁目２９０８番地の２アンプルールリーブルサンワ１０３号室,,23,110,4540962,,,,,,,2022-07-08,1,,,,,ティーエムジュウセツ,0
2611,9180001152129,新規,0,2022-07-08,2022-07-08,株式会社ＳＴＥＦＡＮＩ,,株式会社,愛知県,名古屋市中区,栄５丁目１０番２３号,,23,106,4600008,,,,,,,2022-07-08,1,,,,,ステファニ,0
2612,9180301036411,新規,0,2022-07-08,2022-07-08,株式会社味岡,,株式会社,愛知県,豊橋市,牟呂町字松東１１番地１,,23,201,4418087,,,,,,,2022-07-08,1,,,,,アジオカ,0
2613,9180303005389,新規,0,2022-07-08,2022-07-08,合同会社やま,,合同会社,愛知県,岡崎市,羽根町字陣場１４４番地１,,23,202,4440815,,,,,,,2022-07-08,1,,,,,ヤマ,0
2614,9190001029607,新規,0,2022-07-08,2022-07-08,株式会社ゆめのかあきぞう,,株式会社,三重県,桑名市,西鍋屋町５８番地,,24,205,5110054,,,,,,,2022-07-08,1,,,,,ユメノカアキゾウ,0
2615,9200001040264,新規,0,2022-07-08,2022-07-08,株式会社若松建匠,00127152,株式会社,岐阜県,本巣市,海老２０５番地１,,21,218,5010476,,,,,,,2022-07-08,1,,,,,ワカマツケンショウ,0
2618,9210001018994,新規,0,2022-07-08,2022-07-08,若泉電設株式会社,,株式会社,福井県,越前市,余川町第２号１１番地の３２,,18,209,9150031,,,,,,,2022-07-08,1,,,,,ワカイズミデンセツ,0
2625,9240001060069,新規,0,2022-07-08,2022-07-08,株式会社ＲＩＯ,,株式会社,広島県,広島市中区,吉島新町１丁目２６番３－２号,,34,101,7300824,,,,,,,2022-07-08,1,,,,,リオ,0
2630,9250001019634,新規,0,2022-07-08,2022-07-08,株式会社ＡＷＡＫＥＮ,,株式会社,山口県,柳井市,新庄１７８９番地,,35,212,7420033,,,,,,,2022-07-08,1,,,,,アワケン,0
2631,9250001019650,新規,0,2022-07-08,2022-07-08,株式会社小串台,,株式会社,山口県,宇部市,大字小串字中尾９８番１,,35,202,7550067,,,,,,,2022-07-08,1,,,,,,0
2636,9260001037016,新規,0,2022-07-08,2022-07-08,株式会社倖陽,,株式会社,岡山県,倉敷市,茶屋町１６９６番地１,,33,202,7101101,,,,,,,2022-07-08,1,,,,,コウヨウ,0
2646,9290005018736,新規,0,2022-07-08,2022-07-08,一般社団法人九州パフォーマンス協会,,その他の設立登記法人,福岡県,久留米市,南薫町１６２０番地１,,40,203,8300004,,,,,,,2022-07-08,1,,,,,キュウシュウパフォーマンスキョウカイ,0
2647,9290005018744,新規,0,2022-07-08,2022-07-08,一般社団法人ゆうなぎ会,,その他の設立登記法人,福岡県,福岡市城南区,長尾３丁目１３番６－３０３号,,40,136,8140123,,,,,,,2022-07-08,1,,,,,ユウナギカイ,0
2648,9290801028715,新規,0,2022-07-08,2022-07-08,株式会社ＪＩＮ,,株式会社,福岡県,北九州市小倉北区,真鶴２丁目１番１号,,40,106,8030844,,,,,,,2022-07-08,1,,,,,ジン,0
2654,9320003003851,新規,0,2022-07-08,2022-07-08,合同会社ふじみエステート,,合同会社,大分県,大分市,富士見が丘西１丁目６番２７号,,44,201,8701177,,,,,,,2022-07-08,1,,,,,フジミエステート,0
2656,9330001029922,新規,0,2022-07-08,2022-07-08,株式会社つむぐ,,株式会社,熊本県,合志市,幾久富１９０９番地１２０８,,43,216,8611112,,,,,,,2022-07-08,1,,,,,ツムグ,0
2659,9340001024889,新規,0,2022-07-08,2022-07-08,Ｇ’ｓｔａｉｒ株式会社,,株式会社,鹿児島県,鹿児島市,荒田１丁目４８番１１号－２０１,,46,201,8900054,,,,,,,2022-07-08,1,,,,,ジーステア,0
2665,9360003012139,新規,0,2022-07-08,2022-07-08,合同会社ＥＡＧＬＥ．ＣＯＭＰＡＮＹ,,合同会社,沖縄県,沖縄市,古謝３丁目１８番２号フェリチタアチェロ２０１号,,47,211,9042161,,,,,,,2022-07-08,1,,,,,イーグルカンパニー,0
2666,9360003012147,新規,0,2022-07-08,2022-07-08,合同会社スタイルハウス,,合同会社,沖縄県,那覇市,上間１丁目３４番７号アップヒルズ２０２,,47,201,9020073,,,,,,,2022-07-08,1,,,,,スタイルハウス,0
2670,9380001032962,新規,0,2022-07-08,2022-07-08,株式会社渡邊製作所,,株式会社,福島県,郡山市,笹川１丁目２９２番地,,07,203,9630108,,,,,,,2022-07-08,1,,,,,ワタナベセイサクショ,0
2675,9390005008966,新規,0,2022-07-08,2022-07-08,税理士法人伊藤・高橋事務所,,その他の設立登記法人,山形県,村山市,駅西１７番４号,,06,208,9950038,,,,,,,2022-07-08,1,,,,,イトウタカハシジムショ,0
2706,9490001010222,新規,0,2022-07-08,2022-07-08,株式会社霧生自動車,,株式会社,高知県,高岡郡佐川町,甲１６６番地１,,39,402,7891201,,,,,,,2022-07-08,1,,,,,キリュウジドウシャ,0
