sequenceNumber,corporateNumber,process,correct,updateDate,changeDate,name,nameImageId,kind,prefectureName,cityName,streetNumber,addressImageId,prefectureCode,cityCode,postCode,addressOutside,addressOutsideImageId,closeDate,closeCause,successorCorporateNumber,changeCause,assignmentDate,latest,enName,enPrefectureName,enCityName,enAddressOutside,furigana,hihyoji
11,1010005032581,登記記録の閉鎖等,0,2025-10-09,2025-10-07,ＪＨ札幌ＧＰ一般社団法人,,その他の設立登記法人,東京都,千代田区,九段南３丁目７番７号成和綜合会計事務所内,,13,101,1020074,,,2025-10-07,清算の結了等,,,2020-11-19,1,,,,,ジェイエイチサッポロジーピー,0
25,1010405022380,登記記録の閉鎖等,0,2025-10-09,2025-09-22,特定非営利活動法人ソーシャルアート市場,,その他の設立登記法人,神奈川県,横浜市南区,別所５丁目９番２７－１号,,14,105,2320064,,,2025-09-22,清算の結了等,,,2023-09-01,1,,,,,ソーシャルアートイチバ,0
28,1010501052397,登記記録の閉鎖等,0,2025-10-09,2025-09-16,大川国際物流株式会社,,株式会社,東京都,千代田区,内神田３丁目５番５号大同ビル３０３,,13,101,1010047,,,2025-09-16,清算の結了等,,,2024-06-05,1,,,,,オオカワコクサイ,0
43,1010902006547,登記記録の閉鎖等,0,2025-10-09,2025-10-07,有限会社桜住建,,有限会社,東京都,世田谷区,新町１丁目９番１１－５０３号,,13,112,1540014,,,2025-10-07,清算の結了等,,,2015-10-05,1,,,,,サクラジュウケン,0
56,1011103015180,登記記録の閉鎖等,0,2025-10-09,2025-09-26,合同会社ＡｑｕａＦｉｅｌｄ,,合同会社,東京都,新宿区,新宿３丁目１２番４号新宿Ｎタウンプラザ３０９号,,13,104,1600022,,,2025-09-26,清算の結了等,,,2024-11-18,1,,,,,アクアフィールド,0
59,1011301006782,登記記録の閉鎖等,0,2025-10-09,2025-10-01,株式会社丸長,,株式会社,東京都,杉並区,荻窪４丁目３１番１２号,,13,115,1670051,,,2025-10-01,清算の結了等,,,2015-10-05,1,,,,,マルチョウ,0
70,1011601018750,登記記録の閉鎖等,0,2025-10-09,2025-10-01,株式会社ポローニア,,株式会社,東京都,練馬区,大泉町２丁目４３番２１号,,13,120,1780062,,,2025-10-01,清算の結了等,,,2015-10-05,1,,,,,ポローニア,0
133,1030002117730,登記記録の閉鎖等,0,2025-10-09,2025-10-01,有限会社県北運送,,有限会社,埼玉県,行田市,本丸１９番３５号,,11,206,3610052,,,2025-10-01,清算の結了等,,,2015-10-05,1,,,,,,0
135,1040001022303,登記記録の閉鎖等,0,2025-10-09,2025-09-10,株式会社二楽,,株式会社,千葉県,船橋市,宮本１丁目２０番１２号,,12,204,2730003,,,2025-09-10,清算の結了等,,,2015-10-05,1,,,,,ニラク,0
145,1050002038082,登記記録の閉鎖等,0,2025-10-09,2025-09-29,有限会社北畑商会,,有限会社,茨城県,つくばみらい市,小張４１３２番地の１２,,08,235,3002353,,,2025-09-29,清算の結了等,,,2015-10-05,1,,,,,キタハタショウカイ,0
147,1060001026483,登記記録の閉鎖等,0,2025-10-09,2025-10-01,株式会社チーズ工房那須の森,,株式会社,栃木県,那須塩原市,戸田７３８番地４,,09,213,3250114,,,2025-10-01,合併による解散等,9060001022509,令和７年１０月１日栃木県那須郡那須町大字豊原乙６２７番地１１４株式会社のもり（9060001022509）に合併し解散,2015-10-05,1,,,,,チーズコウボウナスノモリ,0
153,1070001037991,登記記録の閉鎖等,0,2025-10-09,2025-10-02,Ｊ－ＡＬＥＸ株式会社,,株式会社,群馬県,伊勢崎市,戸谷塚町６４１番地,,10,204,3720825,,,2025-10-02,清算の結了等,,,2021-05-07,1,,,,,,0
155,1070002028263,登記記録の閉鎖等,0,2025-10-09,2025-10-02,エスエスティー有限会社,,有限会社,群馬県,邑楽郡大泉町,仙石４丁目３４番２０号,,10,524,3700533,,,2025-10-02,清算の結了等,,,2015-10-05,1,,,,,エスエスティー,0
161,1080002014824,登記記録の閉鎖等,0,2025-10-09,2025-10-01,有限会社オイガックス,,有限会社,静岡県,牧之原市,大沢１６１９番地１,,22,226,4210526,,,2025-10-01,合併による解散等,2080001006219,令和７年１０月１日静岡市駿河区池田５０番地の５静岡ガスエネルギー株式会社（2080001006219）に合併し解散,2015-10-05,1,,,,,オイガックス,0
176,1110005006575,登記記録の閉鎖等,0,2025-10-09,2025-10-01,医療法人社団渡辺医院,,その他の設立登記法人,新潟県,燕市,吉田旭町１丁目７番３号,,15,213,9590235,,,2025-10-01,清算の結了等,,,2015-10-05,1,,,,,ワタナベイイン,0
204,1120105005113,登記記録の閉鎖等,0,2025-10-09,2025-08-29,天理教天美分教会,,その他の設立登記法人,大阪府,羽曳野市,羽曳が丘７丁目４番６号,,27,222,5830864,,,2025-08-29,合併による解散等,9120105001088,令和７年８月２９日大阪府堺市堺区向陵中町三丁１番１号天理教堺大教会（9120105001088）に合併し解散,2015-10-05,1,,,,,テンリキョウアマミブンキョウカイ,0
216,1140003010436,登記記録の閉鎖等,0,2025-10-09,2025-10-07,合同会社出雲発電所,,合同会社,兵庫県,姫路市,網干区垣内東町１５５番地,,28,201,6711252,,,2025-10-07,清算の結了等,,,2015-10-05,1,,,,,イヅモハツデンショ,0
217,1140003010460,登記記録の閉鎖等,0,2025-10-09,2025-10-07,合同会社三田上本庄別荘発電所,,合同会社,兵庫県,姫路市,網干区垣内東町１５５番地,,28,201,6711252,,,2025-10-07,清算の結了等,,,2015-10-05,1,,,,,サンダカミホンジョウベッソウハツデンショ,0
218,1140003017877,登記記録の閉鎖等,0,2025-10-09,2025-06-02,合同会社ＭＡＳＹ２,,合同会社,兵庫県,神戸市東灘区,本山中町４丁目９番２３－１号,,28,101,6580016,,,2025-06-02,合併による解散等,7140003013301,神戸市東灘区本山中町四丁目９番２３－１号ＭＡＳＹ合同会社（7140003013301）に合併し解散,2022-07-08,1,,,,,マーシーツー,0
225,1170001012803,登記記録の閉鎖等,0,2025-10-09,2025-10-08,株式会社惠み,,株式会社,和歌山県,和歌山市,中之島３７５番地の９,,30,201,6408392,,,2025-10-08,清算の結了等,,,2015-10-05,1,,,,,メグミ,0
242,1200001025801,登記記録の閉鎖等,0,2025-10-09,2025-10-02,サンリツ株式会社,,株式会社,岐阜県,下呂市,小坂町大島１２７１番地,,21,220,5093106,,,2025-10-02,清算の結了等,,,2015-10-05,1,,,,,サンリツ,0
247,1200003005248,登記記録の閉鎖等,0,2025-10-09,2025-10-03,合同会社ＧＲＩＴ　Ｃｏｍｐａｎｙ,,合同会社,岐阜県,不破郡垂井町,表佐５１３番地１,,21,361,5032122,,,2025-10-03,清算の結了等,,,2021-07-06,1,,,,,グリットカンパニー,0
254,1230001012714,登記記録の閉鎖等,0,2025-10-09,2025-09-30,株式会社ジャパン・アメニテイ・クラフト,,株式会社,富山県,射水市,黒河新４５１５番地１,,16,211,9390300,,,2025-09-30,清算の結了等,,,2015-10-05,1,,,,,ジャパンアメニティクラフト,0
266,1290001086785,登記記録の閉鎖等,0,2025-10-09,2025-09-10,株式会社ＬＭＤＢ,,株式会社,福岡県,福岡市中央区,警固２丁目２番２３号ウイングコート警固２階,,40,133,8100023,,,2025-09-10,清算の結了等,,,2019-10-07,1,,,,,エルエムディービー,0
285,1320002001475,登記記録の閉鎖等,0,2025-10-09,2025-10-01,有限会社大在酒販,,有限会社,大分県,大分市,大在浜２丁目５番２号,,44,201,8700252,,,2025-10-01,合併による解散等,3320001002555,令和７年１０月１日大分市今津留一丁目１４番８号株式会社舞鶴酒販（3320001002555）に合併し解散,2015-10-05,1,,,,,オオザイシュハン,0
290,1330003005045,登記記録の閉鎖等,0,2025-10-09,2025-10-01,４シーズンズ・インベストメント合同会社,,合同会社,熊本県,上天草市,大矢野町上８２３番地７,,43,212,8693602,,,2025-10-01,合併による解散等,1330001018676,令和７年１０月１日熊本県上天草市大矢野町上８２３番地７株式会社藤嶋（1330001018676）に合併し解散,2015-10-05,1,,,,,フォーシーズンズインベストメント,0
298,1370002013895,登記記録の閉鎖等,0,2025-10-09,2025-09-25,有限会社谷津建築設計事務所,,有限会社,宮城県,仙台市青葉区,一番町１丁目１２番１６号,,04,101,9800811,,,2025-09-25,清算の結了等,,,2015-10-05,1,,,,,ヤツケンチクセッケイジムショ,0
305,1430005012938,登記記録の閉鎖等,0,2025-10-09,2025-09-26,特定非営利活動法人共育サポート,,その他の設立登記法人,北海道,札幌市清田区,里塚緑ケ丘５丁目１２番１４号,,01,110,0040805,,,2025-09-26,清算の結了等,,,2016-09-29,1,,,,,キョウイクサポート,0
306,1460102000223,登記記録の閉鎖等,0,2025-10-09,2025-10-01,有限会社五十川ボデー,,有限会社,北海道,帯広市,清流西１丁目３番１１号,,01,207,0800872,,,2025-10-01,清算の結了等,,,2015-10-05,1,,,,,イソカワボデー,0
327,2010003031824,登記記録の閉鎖等,0,2025-10-09,2025-09-25,渋谷東プロパティー合同会社,,合同会社,東京都,千代田区,丸の内１丁目１１番１号,,13,101,1000005,,,2025-09-25,清算の結了等,,,2020-03-10,1,,,,,シブヤヒガシプロパティー,0
330,2010005033785,登記記録の閉鎖等,0,2025-10-09,2025-09-24,バックオフィス・パーソネル社会保険労務士法人,,その他の設立登記法人,東京都,中央区,八丁堀４丁目１３番５号,,13,102,1040032,,,2025-09-24,清算の結了等,,,2021-08-13,1,,,,,バックオフィスパーソネル,0
351,2010901011852,登記記録の閉鎖等,0,2025-10-09,2025-09-12,宮寺精機株式会社,,株式会社,神奈川県,川崎市高津区,北見方３丁目１０番１号,,14,134,2130005,,,2025-09-12,清算の結了等,,,2015-10-05,1,,,,,ミヤデラセイキ,0
352,2010901049331,登記記録の閉鎖等,0,2025-10-09,2025-10-06,ｐｌａｙ　ｓｔｙｌｅ株式会社,,株式会社,東京都,世田谷区,玉川３丁目２０番２号マノア玉川第３ビル５０１号室,,13,112,1580094,,,2025-10-06,清算の結了等,,,2021-08-27,1,,,,,プレイスタイル,0
358,2011001023986,登記記録の閉鎖等,0,2025-10-09,2025-10-01,株式会社ユニテイ・プロ,,株式会社,埼玉県,さいたま市岩槻区,西町１丁目６番７－１号,,11,110,3390067,,,2025-10-01,清算の結了等,,,2015-10-05,1,,,,,ユニテイプロ,0
383,2011205000385,登記記録の閉鎖等,0,2025-10-09,2025-09-22,特定非営利活動法人ウェルエイジングハウス研究会二一,,その他の設立登記法人,東京都,中野区,中央１丁目３３番１０－２０１号,,13,114,1640011,,,2025-09-22,清算の結了等,,,2015-10-05,1,,,,,ウェルエイジングハウスケンキュウカイニジュウイチ,0
385,2011401001864,登記記録の閉鎖等,0,2025-10-09,2025-09-01,株式会社クラモク,,株式会社,東京都,板橋区,赤塚１丁目９番１１号,,13,119,1750092,,,2025-09-01,合併による解散等,3011401006268,令和７年９月１日東京都板橋区赤塚一丁目９番１１号株式会社クラケン（3011401006268）に合併して解散,2015-10-05,1,,,,,クラモク,0
387,2011501026877,登記記録の閉鎖等,0,2025-10-09,2025-09-08,株式会社出雲ハウス,,株式会社,東京都,港区,麻布十番１丁目１０番３号モンテプラザ８０４,,13,103,1060045,,,2025-09-08,清算の結了等,,,2021-04-27,1,,,,,イズモハウス,0
395,2011801046542,登記記録の閉鎖等,0,2025-10-09,2025-10-06,公衆浴場株式会社,,株式会社,東京都,葛飾区,亀有３丁目１０番１９号,,13,122,1250061,,,2025-10-06,清算の結了等,,,2025-08-06,1,,,,,コウシュウヨクジョウ,0
404,2020001014193,登記記録の閉鎖等,0,2025-10-09,2025-09-18,アルトレコード株式会社,,株式会社,神奈川県,横浜市西区,南幸２丁目１２番６号,,14,103,2200005,,,2025-09-18,清算の結了等,,,2015-10-05,1,,,,,アルトレコード,0
406,2020001069188,登記記録の閉鎖等,0,2025-10-09,2025-09-19,株式会社グリーンテック,,株式会社,神奈川県,川崎市中原区,井田杉山町１番２号,,14,133,2110036,,,2025-09-19,清算の結了等,,,2015-10-05,1,,,,,グリーンテック,0
408,2020001105637,登記記録の閉鎖等,0,2025-10-09,2025-10-03,７ｉｍｐｒｏｖｅｍｅｎｔｓ株式会社,,株式会社,神奈川県,横浜市青葉区,荏田町７０番地クレッセントあざみ野ヒルズ６０６号,,14,117,2250013,,,2025-10-03,合併による解散等,7110001009345,令和７年８月３１日新潟市秋葉区新津４４６２番地３ＢＤコーポレーション株式会社（7110001009345）に合併し解散,2015-10-05,1,,,,,ナナインプルーヴメンツ,0
427,2030001095745,登記記録の閉鎖等,0,2025-10-09,2025-10-01,株式会社ゼロワン八潮,,株式会社,埼玉県,八潮市,大字八條１５５８番地１,,11,234,3400801,,,2025-10-01,清算の結了等,,,2015-10-05,1,,,,,ゼロワンヤシオ,0
430,2030002025230,登記記録の閉鎖等,0,2025-10-09,2025-10-01,有限会社保高紙工,00016375,有限会社,埼玉県,戸田市,新曽南４丁目５番３９号,,11,224,3350026,,,2025-10-01,清算の結了等,,,2015-10-05,1,,,,,,0
431,2030002096098,登記記録の閉鎖等,0,2025-10-09,2025-10-01,有限会社峠観光,,有限会社,埼玉県,朝霞市,西原１丁目４番７号,,11,227,3510034,,,2025-10-01,合併による解散等,9030002058686,令和７年１０月１日埼玉県朝霞市本町三丁目１番５４号東日本企画株式会社（9030002058686）に合併し解散,2015-10-05,1,,,,,トウゲカンコウ,0
444,2040002020073,登記記録の閉鎖等,0,2025-10-09,2025-09-10,有限会社アートガーデン綱島,,有限会社,千葉県,船橋市,習志野４丁目４番１３号,,12,204,2740071,,,2025-09-10,清算の結了等,,,2015-10-05,1,,,,,アードガーデンツナシマ,0
445,2040002024090,登記記録の閉鎖等,0,2025-10-09,2025-09-09,有限会社富山産業,,有限会社,千葉県,船橋市,二和東５丁目３５番１０号,,12,204,2740805,,,2025-09-09,清算の結了等,,,2015-10-05,1,,,,,トミヤマサンギョウ,0
453,2050002004174,登記記録の閉鎖等,0,2025-10-09,2025-10-02,有限会社関印刷,,有限会社,茨城県,東茨城郡城里町,大字石塚１４２３番地,,08,310,3114303,,,2025-10-02,清算の結了等,,,2015-10-05,1,,,,,セキインサツ,0
455,2050002015122,登記記録の閉鎖等,0,2025-10-09,2025-09-30,有限会社ウッドミヨ,,有限会社,茨城県,石岡市,東田中９４９番地,,08,205,3150034,,,2025-09-30,清算の結了等,,,2015-10-05,1,,,,,,0
459,2080002014435,登記記録の閉鎖等,0,2025-10-09,2025-10-01,有限会社ワコー,,有限会社,静岡県,島田市,東光寺高畔１７８番地の５,,22,209,4270003,,,2025-10-01,合併による解散等,1080001018306,令和７年１０月１日静岡県島田市宮川町２３４９番地の６あかり株式会社（1080001018306）に合併し解散,2015-10-05,1,,,,,ワコー,0
468,2100002004235,登記記録の閉鎖等,0,2025-10-09,2025-10-03,有限会社日の出屋,,有限会社,長野県,長野市,若穂綿内８６４４番地,,20,201,3810101,,,2025-10-03,清算の結了等,,,2015-10-05,1,,,,,ヒノデヤ,0
472,2110002000150,登記記録の閉鎖等,0,2025-10-09,2025-09-26,有限会社寺地阿部新聞店,,有限会社,新潟県,新潟市西区,ときめき西４丁目１５番地６,,15,107,9501106,,,2025-09-26,清算の結了等,,,2015-10-05,1,,,,,テラジアベシンブンテン,0
497,2122001033444,登記記録の閉鎖等,0,2025-10-09,2025-09-17,ｇｒｅｅｅｅｄｓ株式会社,,株式会社,大阪府,東大阪市,御厨２丁目１番４２号,,27,227,5770032,,,2025-09-17,清算の結了等,,,2020-02-25,1,,,,,グリーズ,0
499,2130001072346,登記記録の閉鎖等,0,2025-10-09,2025-10-01,株式会社ウェルビーイングアンドキャリア,,株式会社,愛知県,豊橋市,柱七番町８１番地,,23,201,4418057,,,2025-10-01,清算の結了等,,,2022-08-05,1,,,,,ウェルビーイングアンドキャリア,0
506,2140003010435,登記記録の閉鎖等,0,2025-10-09,2025-10-07,合同会社五十波発電所,,合同会社,兵庫県,姫路市,網干区垣内東町１５５番地,,28,201,6711252,,,2025-10-07,清算の結了等,,,2015-10-05,1,,,,,イカバハツデンショ,0
507,2140003010468,登記記録の閉鎖等,0,2025-10-09,2025-10-07,合同会社袋尻発電所,,合同会社,兵庫県,姫路市,網干区垣内東町１５５番地,,28,201,6711252,,,2025-10-07,清算の結了等,,,2015-10-05,1,,,,,フクロジリハツデンショ,0
516,2170002002397,登記記録の閉鎖等,0,2025-10-09,2025-10-08,有限会社田中コンタクトレンズ,,有限会社,和歌山県,和歌山市,福町３７番地,,30,201,6408043,,,2025-10-08,清算の結了等,,,2015-10-05,1,,,,,タナカコンタクトレンズ,0
528,2180005020692,登記記録の閉鎖等,0,2025-10-09,2025-10-07,一般社団法人あすへの扉,,その他の設立登記法人,愛知県,名古屋市中村区,日ノ宮町３丁目２５番地,,23,105,4530823,,,2025-10-07,清算の結了等,,,2024-07-08,1,,,,,アスヘノトビラ,0
529,2180301017351,登記記録の閉鎖等,0,2025-10-09,2025-09-30,株式会社アイ・ピー・エス,,株式会社,愛知県,碧南市,向陽町２丁目５０番地２,,23,209,4470871,,,2025-09-30,清算の結了等,,,2015-10-05,1,,,,,アイピーエス,0
550,2260001018195,登記記録の閉鎖等,0,2025-10-09,2025-09-30,株式会社梶平製作所,,株式会社,岡山県,井原市,高屋町２丁目１番地の１,,33,207,7150024,,,2025-09-30,清算の結了等,,,2015-10-05,1,,,,,カジヒラセイサクショ,0
577,2350003002345,登記記録の閉鎖等,0,2025-10-09,2025-10-02,九州アジアコンサルティング合同会社,,合同会社,宮崎県,宮崎市,大字糸原２０４１番地４２,,45,201,8802231,,,2025-10-02,清算の結了等,,,2015-10-05,1,,,,,キュウシュウアジアコンサルティング,0
590,2370201004125,登記記録の閉鎖等,0,2025-10-09,2025-09-25,株式会社継田,,株式会社,宮城県,大崎市,鳴子温泉字久田２９番地,,04,215,9896711,,,2025-09-25,清算の結了等,,,2015-10-05,1,,,,,ケイタ,0
591,2380002028157,登記記録の閉鎖等,0,2025-10-09,2025-09-30,有限会社八巻木建舎,,有限会社,福島県,相馬市,中村字泉町１０番地の６,,07,209,9760042,,,2025-09-30,清算の結了等,,,2015-10-05,1,,,,,ヤマキモッケンシャ,0
597,2400002002844,登記記録の閉鎖等,0,2025-10-09,2025-09-26,有限会社藤原ふとん店,,有限会社,岩手県,盛岡市,材木町１番１号,,03,201,0200063,,,2025-09-26,清算の結了等,,,2015-10-05,1,,,,,フジワラフトンテン,0
606,2430005014462,登記記録の閉鎖等,0,2025-10-09,2025-09-05,一般社団法人北海道個人タクシー観光協会,,その他の設立登記法人,北海道,札幌市中央区,南四条西２２丁目２番３号３階,,01,101,0640804,,,2025-09-05,清算の結了等,,,2022-05-09,1,,,,,ホッカイドウコジンタクシーカンコウキョウカイ,0
608,2450002012814,登記記録の閉鎖等,0,2025-10-09,2025-10-02,有限会社紋別荷役,,有限会社,北海道,紋別市,潮見町１丁目３番７号,,01,219,0940006,,,2025-10-02,清算の結了等,,,2015-10-05,1,,,,,モンベツニヤク,0
613,2470005004848,登記記録の閉鎖等,0,2025-10-09,2025-09-03,天理教見目分教会,00005750,その他の設立登記法人,香川県,小豆郡土庄町,見目甲５２１番地の１,,37,322,7614143,,,2025-09-03,合併による解散等,3470005004855,令和７年９月３日香川県小豆郡土庄町甲８８３番地天理教鐸姫分教会（3470005004855）に合併し解散,2015-10-05,1,,,,,,0
614,2480001005031,登記記録の閉鎖等,0,2025-10-09,2025-10-07,株式会社太陽倉庫,,株式会社,徳島県,鳴門市,撫養町立岩字五枚６５番地,,36,202,7720017,,,2025-10-07,清算の結了等,,,2015-10-05,1,,,,,タイヨウソウコ,0
630,3010001134727,登記記録の閉鎖等,0,2025-10-09,2025-09-16,株式会社南青コンサルティング,,株式会社,東京都,千代田区,内神田３丁目２２番７号,,13,101,1010047,,,2025-09-16,清算の結了等,,,2015-10-05,1,,,,,ナンセイコンサルティング,0
641,3010003035931,登記記録の閉鎖等,0,2025-10-09,2025-09-05,オブトンジャパン合同会社,,合同会社,東京都,港区,六本木１丁目１０番３－９０１号スウェーデン大使館ビル内,,13,103,1060032,,,2025-09-05,合併による解散等,4120001165512,令和７年９月５日東京都港区六本木一丁目１０番３－９０１号スウェーデン大使館ビル内Ｖｏｌｔａｉｙｏ株式会社（4120001165512）に合併し解散,2021-10-01,1,,,,,オブトンジャパン,0
658,3010501000882,登記記録の閉鎖等,0,2025-10-09,2025-09-30,石川コーヒー株式会社,,株式会社,東京都,台東区,寿１丁目２１番１０号,,13,106,1110042,,,2025-09-30,清算の結了等,,,2015-10-05,1,,,,,イシカワコーヒー,0
659,3010501024361,登記記録の閉鎖等,0,2025-10-09,2025-09-30,株式会社ディエムシー,,株式会社,東京都,台東区,台東４丁目１１番４号,,13,106,1100016,,,2025-09-30,清算の結了等,,,2015-10-05,1,,,,,ディエムシー,0
666,3010502014312,登記記録の閉鎖等,0,2025-10-09,2025-09-29,有限会社タカハシ商会,,有限会社,東京都,台東区,蔵前４丁目２１番５号,,13,106,1110051,,,2025-09-29,清算の結了等,,,2015-10-05,1,,,,,タカハシショウカイ,0
689,3011103012408,登記記録の閉鎖等,0,2025-10-09,2025-09-02,合同会社ジェイ・イー・ビー,,合同会社,東京都,新宿区,下宮比町１番４号,,13,104,1620822,,,2025-09-02,清算の結了等,,,2022-11-22,1,,,,,ジェイイービー,0
690,3011301000081,登記記録の閉鎖等,0,2025-10-09,2025-10-01,株式会社アイディテクノ,,株式会社,東京都,杉並区,荻窪５丁目３０番１７号,,13,115,1670051,,,2025-10-01,清算の結了等,,,2015-10-05,1,,,,,アイディテクノ,0
706,3012402014672,登記記録の閉鎖等,0,2025-10-09,2025-09-30,有限会社セントリックス・グローバル,,有限会社,東京都,小金井市,東町４丁目２２番９号,,13,210,1840011,,,2025-09-30,清算の結了等,,,2015-10-05,1,,,,,セントリックスグローバル,0
722,3020001157504,登記記録の閉鎖等,0,2025-10-09,2025-08-28,デジ大株式会社,,株式会社,神奈川県,横浜市西区,宮ケ谷４２－１－２０１,,14,103,2200006,,,2025-08-28,清算の結了等,,,2024-05-31,1,,,,,デジダイ,0
729,3020002026633,登記記録の閉鎖等,0,2025-10-09,2025-09-18,株式会社ＮＯＡ,,株式会社,神奈川県,横浜市神奈川区,西寺尾４丁目３１番２９号,,14,102,2210001,,,2025-09-18,清算の結了等,,,2015-10-05,1,,,,,ノア,0
750,3030002024990,登記記録の閉鎖等,0,2025-10-09,2025-10-01,有限会社早川紙工,,有限会社,埼玉県,戸田市,美女木３丁目１１番地７号,,11,224,3350031,,,2025-10-01,清算の結了等,,,2015-10-05,1,,,,,ハヤカワシコウ,0
753,3030002084325,登記記録の閉鎖等,0,2025-10-09,2025-10-01,有限会社小山運送店,,有限会社,埼玉県,鴻巣市,広田４６８番地,,11,217,3650005,,,2025-10-01,清算の結了等,,,2015-10-05,1,,,,,コヤマウンソウテン,0
759,3040001122836,登記記録の閉鎖等,0,2025-10-09,2025-09-10,維昭精密株式会社,,株式会社,千葉県,流山市,大字中野久木４６１番地の６,,12,220,2700116,,,2025-09-10,清算の結了等,,,2022-04-11,1,,,,,イショウセイミツ,0
771,3050001036754,登記記録の閉鎖等,0,2025-10-09,2025-10-01,アイ・アール株式会社,,株式会社,茨城県,牛久市,神谷１丁目４０番地１１,,08,219,3001216,,,2025-10-01,清算の結了等,,,2015-10-05,1,,,,,アイアール,0
786,3090005004472,登記記録の閉鎖等,0,2025-10-09,2025-10-02,特定非営利活動法人富士山地域創造,,その他の設立登記法人,山梨県,南都留郡富士河口湖町,船津６７１３番地３９,,19,430,4010301,,,2025-10-02,清算の結了等,,,2015-10-05,1,,,,,フジサンチイキソウゾウ,0
788,3100002015000,登記記録の閉鎖等,0,2025-10-09,2025-10-03,有限会社渡辺自動車板金工業,,有限会社,長野県,上田市,国分１１２２番地２,,20,203,3860016,,,2025-10-03,清算の結了等,,,2015-10-05,1,,,,,ワタナベジドウシャバンキンコウギョウ,0
811,3120005000237,登記記録の閉鎖等,0,2025-10-09,2025-09-10,天理教双華分教会,,その他の設立登記法人,大阪府,大阪市平野区,西脇３丁目６番５号,,27,126,5470035,,,2025-09-10,合併による解散等,2470005003593,令和７年９月５日香川県坂出市駒止町一丁目２番５号天理教双名島大教会（2470005003593）に合併し解散,2015-10-05,1,,,,,,0
819,3120905005995,登記記録の閉鎖等,0,2025-10-09,2025-09-19,ＮＰＯ法人災害とくらしの相談室ｉｒｏｉｒｏ,,その他の設立登記法人,大阪府,茨木市,春日１丁目１６番７号ステイションコーポ茨木４０３号室,,27,211,5670031,,,2025-09-19,清算の結了等,,,2020-03-25,1,,,,,サイガイトクラシノソウダンシツイロイロ,0
827,3130005014509,登記記録の閉鎖等,0,2025-10-09,2025-10-03,特定非営利活動法人チョロギ村,,その他の設立登記法人,京都府,亀岡市,宮前町神前長野１５番地,,26,206,6210242,,,2025-10-03,清算の結了等,,,2016-03-01,1,,,,,チョロギムラ,0
834,3140003010434,登記記録の閉鎖等,0,2025-10-09,2025-10-07,合同会社一宮発電所,,合同会社,兵庫県,姫路市,網干区垣内東町１５５番地,,28,201,6711252,,,2025-10-07,清算の結了等,,,2015-10-05,1,,,,,イチノミヤハツデンショ,0
835,3140003010442,登記記録の閉鎖等,0,2025-10-09,2025-10-07,合同会社佐用末広第一発電所,,合同会社,兵庫県,姫路市,網干区垣内東町１５５番地,,28,201,6711252,,,2025-10-07,清算の結了等,,,2015-10-05,1,,,,,サヨウスエヒロダイイチハツデンショ,0
836,3140003010467,登記記録の閉鎖等,0,2025-10-09,2025-10-07,合同会社鷹巣発電所,,合同会社,兵庫県,姫路市,網干区垣内東町１５５番地,,28,201,6711252,,,2025-10-07,清算の結了等,,,2015-10-05,1,,,,,タカノスハツデンショ,0
844,3180001026131,登記記録の閉鎖等,0,2025-10-09,2025-09-24,中央印刷紙器株式会社,,株式会社,愛知県,名古屋市西区,木前町１５２番地,,23,104,4520834,,,2025-09-24,清算の結了等,,,2015-10-05,1,,,,,チュウオウインサツシキ,0
853,3180001167611,登記記録の閉鎖等,0,2025-10-09,2025-10-03,株式会社ＹＳ,,株式会社,愛知県,名古屋市中区,栄５丁目２番３６号,,23,106,4600008,,,2025-10-03,合併による解散等,6010401170708,令和７年９月１日東京都港区元赤坂一丁目１番７－１２０９号株式会社赤坂国際会計内株式会社米坂ホールディングス（6010401170708）に合併し解散,2025-07-22,1,,,,,ワイエス,0
874,3230001004494,登記記録の閉鎖等,0,2025-10-09,2025-10-01,株式会社ハウスコム,,株式会社,富山県,富山市,黒瀬２４０番地４０,,16,201,9398213,,,2025-10-01,合併による解散等,4230001004675,令和７年１０月１日富山市黒瀬２４０番地３７株式会社翔建工業（4230001004675）に合併し解散,2015-10-05,1,,,,,ハウスコム,0
879,3260001022469,登記記録の閉鎖等,0,2025-10-09,2025-09-30,株式会社まるやす,,株式会社,岡山県,倉敷市,茶屋町１６９１番地１１,,33,202,7101101,,,2025-09-30,清算の結了等,,,2015-10-05,1,,,,,マルヤス,0
884,3290001030122,登記記録の閉鎖等,0,2025-10-09,2025-10-08,Ｏｆｆｉｃｅはまだ株式会社,,株式会社,長崎県,佐世保市,広田３丁目１３番１９号,,42,202,8593223,,,2025-10-08,清算の結了等,,,2015-10-05,1,,,,,オフィスハマダ,0
910,3360001016626,登記記録の閉鎖等,0,2025-10-09,2025-09-01,Ｉ’ｓサービス沖縄株式会社,,株式会社,沖縄県,宜野湾市,大山５丁目６－１９,,47,205,9012223,,,2025-09-01,合併による解散等,8360001014303,令和７年９月１日沖縄県那覇市安謝二丁目２０番２１号ＫＫＩプラウ株式会社（8360001014303）に合併し解散,2015-10-05,1,,,,,アイズサービス,0
914,3360005006458,登記記録の閉鎖等,0,2025-10-09,2025-10-03,一般社団法人　ＩＡｍ,,その他の設立登記法人,沖縄県,中頭郡読谷村,字宇座１８６１番,,47,324,9040328,,,2025-10-03,清算の結了等,,,2021-06-23,1,,,,,アイアム,0
915,3370001005223,登記記録の閉鎖等,0,2025-10-09,2025-09-25,重光美容株式会社,,株式会社,宮城県,仙台市宮城野区,新田５丁目９番１２号,,04,102,9830038,,,2025-09-25,清算の結了等,,,2015-10-05,1,,,,,シゲミツビヨウ,0
934,3430005005312,登記記録の閉鎖等,0,2025-10-09,2025-09-29,特定非営利活動法人北海道歩くスキー協会,,その他の設立登記法人,北海道,札幌市中央区,南八条西２丁目５－７４市民活動プラザ星園４０５号室,,01,101,0640808,,,2025-09-29,清算の結了等,,,2015-10-05,1,,,,,ホッカイドウアルクスキーキョウカイ,0
935,3450001006923,登記記録の閉鎖等,0,2025-10-09,2025-10-06,株式会社ウエストリバー,,株式会社,北海道,上川郡東神楽町,ひじり野北一条７丁目２番５号,,01,453,0711521,,,2025-10-06,清算の結了等,,,2015-10-05,1,,,,,ウエストリバー,0
945,3480003001176,登記記録の閉鎖等,0,2025-10-09,2025-10-02,合同会社ＴＵＮＡＧＵ,,合同会社,徳島県,三好郡東みよし町,加茂６０２０番地３,,36,489,7794701,,,2025-10-02,清算の結了等,,,2018-01-19,1,,,,,ツナグ,0
951,4010001029991,登記記録の閉鎖等,0,2025-10-09,2025-09-16,株式会社エムモビリティ,,株式会社,東京都,文京区,本郷３丁目１５番４号,,13,105,1130033,,,2025-09-16,清算の結了等,,,2015-10-05,1,,,,,エムモビリティ,0
953,4010001179449,登記記録の閉鎖等,0,2025-10-09,2025-09-11,ファンファンコミックジャパン株式会社,,株式会社,東京都,千代田区,西神田１丁目３番１３号,,13,101,1010065,,,2025-09-11,清算の結了等,,,2016-11-07,1,,,,,ファンファンコミックジャパン,0
1010,4011602007213,登記記録の閉鎖等,0,2025-10-09,2025-09-26,有限会社東阪住設,,有限会社,東京都,練馬区,田柄２丁目７番１６号,,13,120,1790073,,,2025-09-26,清算の結了等,,,2015-10-05,1,,,,,トウハンジュウセツ,0
1014,4011802018753,登記記録の閉鎖等,0,2025-10-09,2025-10-01,有限会社松本米久商店,,有限会社,埼玉県,さいたま市大宮区,吉敷町４丁目２４７番地１,,11,103,3300843,,,2025-10-01,合併による解散等,2030001020744,令和７年１０月１日埼玉県さいたま市大宮区吉敷町四丁目２４７番地１株式会社メガネフラワー（2030001020744）に合併し解散,2015-10-05,1,,,,,マツモトヨネヒサショウテン,0
1052,4030002024858,登記記録の閉鎖等,0,2025-10-09,2025-10-01,有限会社戸田精錬工業所,00016368,有限会社,埼玉県,戸田市,笹目南町８番６号,,11,224,3350035,,,2025-10-01,清算の結了等,,,2015-10-05,1,,,,,トダセイレンコウギョウショ,0
1055,4030005019335,登記記録の閉鎖等,0,2025-10-09,2025-09-11,一般社団法人ソーシャルイノベーションＬＡＢＯ,,その他の設立登記法人,埼玉県,川口市,大字安行原１９３８番地の９,,11,203,3340057,,,2025-09-11,清算の結了等,,,2019-02-20,1,,,,,ソーシャルイノベーションラボ,0
1056,4040001003052,登記記録の閉鎖等,0,2025-10-09,2025-09-11,株式会社新興社,,株式会社,千葉県,千葉市稲毛区,稲毛町５丁目４９９番地,,12,103,2630035,,,2025-09-11,清算の結了等,,,2015-10-05,1,,,,,シンコウシャ,0
1057,4040001023629,登記記録の閉鎖等,0,2025-10-09,2025-09-10,しおばん株式会社,,株式会社,千葉県,船橋市,宮本１丁目２０番１２号,,12,204,2730003,,,2025-09-10,清算の結了等,,,2015-10-05,1,,,,,シオバン,0
1079,4080102002222,登記記録の閉鎖等,0,2025-10-09,2025-10-01,有限会社高野製作所,,有限会社,静岡県,沼津市,小諏訪字奥内殿９０４番地,,22,203,4100872,,,2025-10-01,清算の結了等,,,2015-10-05,1,,,,,タカノセイサクショ,0
1084,4080402014652,登記記録の閉鎖等,0,2025-10-09,2025-10-01,有限会社青嶋養魚場,,有限会社,静岡県,浜松市浜名区,尾野１２７番地,,22,139,4340002,,,2025-10-01,清算の結了等,,,2015-10-05,1,,,,,アオシマヨウギョジョウ,0
1116,4120105009094,登記記録の閉鎖等,0,2025-10-09,2025-09-30,一般社団法人日本判断力向上連盟,,その他の設立登記法人,大阪府,堺市中区,深井水池町３１５２番地ＫＵ深井オフィスビル４Ｆ,,27,142,5998237,,,2025-09-30,清算の結了等,,,2019-09-05,1,,,,,ニホンハンダンリョクコウジョウレンメイ,0
1134,4140003010433,登記記録の閉鎖等,0,2025-10-09,2025-10-07,合同会社八重畑ソーラーパーク,,合同会社,兵庫県,姫路市,網干区垣内東町１５５番地,,28,201,6711252,,,2025-10-07,清算の結了等,,,2015-10-05,1,,,,,ヤエハタソーラーパーク,0
1135,4140003010441,登記記録の閉鎖等,0,2025-10-09,2025-10-07,合同会社夢前発電所,,合同会社,兵庫県,姫路市,網干区垣内東町１５５番地,,28,201,6711252,,,2025-10-07,清算の結了等,,,2015-10-05,1,,,,,ユメサキハツデンショ,0
1136,4140003010458,登記記録の閉鎖等,0,2025-10-09,2025-10-07,合同会社新居浜観音原土地,,合同会社,兵庫県,姫路市,網干区垣内東町１５５番地,,28,201,6711252,,,2025-10-07,清算の結了等,,,2015-10-05,1,,,,,ニイハマカンノンバラトチ,0
1137,4140003010466,登記記録の閉鎖等,0,2025-10-09,2025-10-07,合同会社鳥取県南部町発電所,,合同会社,兵庫県,姫路市,網干区垣内東町１５５番地,,28,201,6711252,,,2025-10-07,清算の結了等,,,2015-10-05,1,,,,,トットリケンナンブチョウハツデンショ,0
1150,4180002084846,登記記録の閉鎖等,0,2025-10-09,2025-09-17,有限会社ジェイズ,,有限会社,愛知県,大府市,江端町４丁目６６番地,,23,223,4740035,,,2025-09-17,清算の結了等,,,2015-10-05,1,,,,,ジェイズ,0
1151,4180003028281,登記記録の閉鎖等,0,2025-10-09,2025-09-24,合同会社ＮＫ,,合同会社,愛知県,江南市,古知野町牧森１９９番地,,23,217,4838278,,,2025-09-24,清算の結了等,,,2025-04-08,1,NK.Co,Aichi,"199,Kochinocho Makimori, Konan shi",,エヌケー,0
1156,4180301018760,登記記録の閉鎖等,0,2025-10-09,2025-09-29,東名緑化株式会社,,株式会社,愛知県,豊田市,篠原町大沢３番地,,23,211,4700352,,,2025-09-29,清算の結了等,,,2015-10-05,1,,,,,トウメイリョクカ,0
1160,4190001010843,登記記録の閉鎖等,0,2025-10-09,2025-09-30,ニシムラ建機株式会社,,株式会社,三重県,伊勢市,辻久留町５４５番地３５,00137690,24,203,5160046,,,2025-09-30,清算の結了等,,,2015-10-05,1,,,,,ニシムラケンキ,0
1163,4190002013416,登記記録の閉鎖等,0,2025-10-09,2025-10-01,有限会社ディパーチャー,,有限会社,三重県,名張市,つつじが丘南４番町２４番地,,24,208,5180424,,,2025-10-01,清算の結了等,,,2015-10-05,1,,,,,ディパーチャー,0
1192,4320001003841,登記記録の閉鎖等,0,2025-10-09,2025-10-01,株式会社ＣＴネット,,株式会社,大分県,大分市,大字三芳３２０番地,,44,201,8700030,,,2025-10-01,合併による解散等,8320001001148,令和７年１０月１日大分市大字三芳字峠４７８番地の３株式会社コム・ワン（8320001001148）に合併し解散,2015-10-05,1,,,,,シーティーネット,0
1194,4330001018095,登記記録の閉鎖等,0,2025-10-09,2025-10-01,ハッピーケア熊本株式会社,,株式会社,熊本県,熊本市中央区,出水２丁目１番８－６０５号,,43,101,8620941,,,2025-10-01,清算の結了等,,,2015-10-05,1,,,,,ハッピーケアクマモト,0
1213,4390001000262,登記記録の閉鎖等,0,2025-10-09,2025-09-01,鈴木工業株式会社,,株式会社,山形県,山形市,鋳物町３１番地,,06,201,9902351,,,2025-09-01,合併による解散等,7390001002339,令和７年９月１日山形市元木二丁目１１番２３号株式会社リコーダ（7390001002339）に合併し解散,2015-10-05,1,,,,,スズキコウギョウ,0
1220,4430002016526,登記記録の閉鎖等,0,2025-10-09,2025-09-22,有限会社美容室ヒラタ,,有限会社,北海道,札幌市北区,北八条西３丁目３２番地ディーグラフォート札幌ステーションタワー３８０６号,,01,102,0600808,,,2025-09-22,清算の結了等,,,2015-10-05,1,,,,,ビヨウシツヒラタ,0
1233,5010001017970,登記記録の閉鎖等,0,2025-10-09,2025-09-04,サイコム・ブレインズ株式会社,,株式会社,東京都,千代田区,外神田１丁目１８番１３号,,13,101,1010021,,,2025-09-04,合併による解散等,4010001029042,令和７年８月１日東京都港区新橋一丁目１番１号日比谷ビルディング株式会社保健同人フロンティア（4010001029042）に合併し解散,2015-10-05,1,,,,,サイコムブレインズ,0
1234,5010001019694,登記記録の閉鎖等,0,2025-10-09,2025-09-16,株式会社システム・ディレクト,,株式会社,東京都,千代田区,一番町１３番地２,,13,101,1020082,,,2025-09-16,清算の結了等,,,2015-10-05,1,,,,,システムディレクト,0
1236,5010001040072,登記記録の閉鎖等,0,2025-10-09,2025-10-01,株式会社加昇,,株式会社,群馬県,太田市,西矢島町２９０番地,,10,205,3730823,,,2025-10-01,清算の結了等,,,2015-10-05,1,,,,,カショウ,0
1243,5010001125749,登記記録の閉鎖等,0,2025-10-09,2025-09-12,株式会社ニュートン研究所,,株式会社,東京都,中央区,勝どき４丁目６番２号,,13,102,1040054,,,2025-09-12,清算の結了等,,,2015-10-05,1,,,,,ニュートンケンキュウショ,0
1252,5010003027712,登記記録の閉鎖等,0,2025-10-09,2025-09-24,合同会社ＮＴＤ管財,,合同会社,東京都,中央区,晴海２丁目３番３０号１５階,,13,102,1040053,,,2025-09-24,清算の結了等,,,2018-06-12,1,,,,,エヌティディカンザイ,0
1262,5010401122684,登記記録の閉鎖等,0,2025-10-09,2025-09-09,株式会社ジュピタ,,株式会社,東京都,中央区,銀座１丁目２２番１１号銀座大竹ビジデンス２階,,13,102,1040061,,,2025-09-09,清算の結了等,,,2016-01-21,1,,,,,ジュピタ,0
1293,5011401018699,登記記録の閉鎖等,0,2025-10-09,2025-09-02,株式会社ＳＹ　Ｌｉｎｅ,,株式会社,東京都,新宿区,高田馬場３丁目２３－５リベラル高田馬場１Ｆ,,13,104,1690075,,,2025-09-02,清算の結了等,,,2015-10-05,1,,,,,エスワイライン,0
1310,5020001006139,登記記録の閉鎖等,0,2025-10-09,2025-09-18,京浜木材株式会社,,株式会社,神奈川県,横浜市磯子区,森３丁目１８番１０－３０６号,,14,107,2350023,,,2025-09-18,清算の結了等,,,2015-10-05,1,,,,,ケイヒンモクザイ,0
1318,5020005013569,登記記録の閉鎖等,0,2025-10-09,2025-09-19,一般社団法人日本ローバンド拡大促進協会,,その他の設立登記法人,神奈川県,横浜市青葉区,青葉台１丁目１９番地２５,,14,117,2270062,,,2025-09-19,清算の結了等,,,2018-03-19,1,,,,,ニホンローバンドカクダイソクシンキョウカイ,0
1323,5030001034147,登記記録の閉鎖等,0,2025-10-09,2025-10-01,シアークラフト株式会社,,株式会社,埼玉県,さいたま市大宮区,下町１丁目４５番地,,11,103,3300844,,,2025-10-01,合併による解散等,8030001125257,令和７年１０月１日埼玉県さいたま市大宮区下町一丁目４５番地株式会社照栄（8030001125257）に合併し解散,2015-10-05,1,,,,,シアークラフト,0
1337,5030002053971,登記記録の閉鎖等,0,2025-10-09,2025-10-02,有限会社塩田屋商事,,有限会社,埼玉県,上尾市,向山２丁目３５番地５,,11,219,3620045,,,2025-10-02,清算の結了等,,,2015-10-05,1,,,,,シオタヤショウジ,0
1342,5040001015732,登記記録の閉鎖等,0,2025-10-09,2025-09-05,株式会社蒼流,,株式会社,千葉県,習志野市,秋津５丁目２番１４号,,12,216,2750025,,,2025-09-05,清算の結了等,,,2015-10-05,1,,,,,ソウリュウ,0
1359,5080101016552,登記記録の閉鎖等,0,2025-10-09,2025-09-29,あたみタクシー株式会社,,株式会社,静岡県,熱海市,紅葉ガ丘町１９０１番地６２,,22,205,4130027,,,2025-09-29,清算の結了等,,,2015-10-05,1,,,,,アタミタクシー,0
1361,5080101019159,登記記録の閉鎖等,0,2025-10-09,2025-10-01,株式会社ＳＡＮ,,株式会社,静岡県,富士市,伝法２８１５番地の１０,,22,210,4170061,,,2025-10-01,清算の結了等,,,2016-06-06,1,,,,,サン,0
1362,5080401016351,登記記録の閉鎖等,0,2025-10-09,2025-10-01,天龍プレパーク株式会社,,株式会社,静岡県,磐田市,宮本３５０番地,,22,211,4380207,,,2025-10-01,合併による解散等,4080401021971,令和７年１０月１日静岡県磐田市宮本３５０番地天龍木材株式会社（4080401021971）に合併し解散,2015-10-05,1,,,,,テンリュウプレパーク,0
1372,5120001102828,登記記録の閉鎖等,0,2025-10-09,2025-10-08,株式会社オプトレックスジャパン,,株式会社,和歌山県,和歌山市,園部８４４番２,,30,201,6408483,,,2025-10-08,清算の結了等,,,2015-10-05,1,,,,,オプトレックスジャパン,0
1373,5120001205779,登記記録の閉鎖等,0,2025-10-09,2025-09-22,株式会社ＧＢコールドライン,,株式会社,大阪府,摂津市,鳥飼中３丁目７番１１号,,27,224,5660064,,,2025-09-22,清算の結了等,,,2017-05-19,1,,,,,ジービーコールドライン,0
1416,5140001105424,登記記録の閉鎖等,0,2025-10-09,2025-09-29,山本機工株式会社,,株式会社,兵庫県,姫路市,大津区勘兵衛町２丁目８６番地１,,28,201,6711132,,,2025-09-29,清算の結了等,,,2017-03-21,1,,,,,ヤマモトキコウ,0
1423,5140003010432,登記記録の閉鎖等,0,2025-10-09,2025-10-07,合同会社ドンテン発電所,,合同会社,兵庫県,姫路市,網干区垣内東町１５５番地,,28,201,6711252,,,2025-10-07,清算の結了等,,,2015-10-05,1,,,,,ドンテンハツデンショ,0
1424,5140003010440,登記記録の閉鎖等,0,2025-10-09,2025-10-07,合同会社牧谷発電所,,合同会社,兵庫県,姫路市,網干区垣内東町１５５番地,,28,201,6711252,,,2025-10-07,清算の結了等,,,2015-10-05,1,,,,,マキダニハツデンショ,0
1425,5140003010457,登記記録の閉鎖等,0,2025-10-09,2025-10-07,合同会社三田低圧第１発電所,,合同会社,兵庫県,姫路市,網干区垣内東町１５５番地,,28,201,6711252,,,2025-10-07,清算の結了等,,,2015-10-05,1,,,,,サンダテイアツダイイチハツデンショ,0
1426,5140003010465,登記記録の閉鎖等,0,2025-10-09,2025-10-07,合同会社槙原第１発電所,,合同会社,兵庫県,姫路市,網干区垣内東町１５５番地,,28,201,6711252,,,2025-10-07,清算の結了等,,,2015-10-05,1,,,,,マキハラダイイチハツデンショ,0
1433,5170002010827,登記記録の閉鎖等,0,2025-10-09,2025-10-08,有限会社メディサポート,,有限会社,和歌山県,伊都郡九度山町,大字九度山１１３番地の６,,30,343,6480101,,,2025-10-08,清算の結了等,,,2015-10-05,1,,,,,メディサポート,0
1438,5180001123075,登記記録の閉鎖等,0,2025-10-09,2025-09-22,サンフーズ株式会社,,株式会社,愛知県,名古屋市中川区,柳川町６番３号,,23,110,4540014,,,2025-09-22,清算の結了等,,,2016-04-20,1,,,,,サンフーズ,0
1452,5200002004057,登記記録の閉鎖等,0,2025-10-09,2025-10-03,有限会社プライム,,有限会社,岐阜県,岐阜市,中５番地,,21,201,5011173,,,2025-10-03,清算の結了等,,,2015-10-05,1,,,,,プライム,0
1461,5240002042680,登記記録の閉鎖等,0,2025-10-09,2025-10-01,有限会社ふくだ家,,有限会社,広島県,福山市,芦田町大字福田７３５番地の１６,00001435,34,207,7201264,,,2025-10-01,清算の結了等,,,2015-10-05,1,,,,,フクダヤ,0
1478,5310003002230,登記記録の閉鎖等,0,2025-10-09,2025-10-06,浅茅真珠養殖合資会社,00096294,合資会社,長崎県,対馬市,美津島町濃部２１８番地,,42,209,8171104,,,2025-10-06,清算の結了等,,,2015-10-05,1,,,,,アソウシンジュヨウショク,0
1494,5360002000164,登記記録の閉鎖等,0,2025-10-09,2025-10-01,有限会社西日本総合商事,,有限会社,沖縄県,中頭郡西原町,字呉屋４８番地２Ｆ,,47,329,9030124,,,2025-10-01,清算の結了等,,,2015-10-05,1,,,,,ニシニホンソウゴウショウジ,0
1502,5370302000160,登記記録の閉鎖等,0,2025-10-09,2025-09-25,相澤測量設計有限会社,,有限会社,宮城県,石巻市,北村字東柳沢４８番地４,,04,202,9871103,,,2025-09-25,清算の結了等,,,2015-10-05,1,,,,,アイザワソクリョウセッケイ,0
1545,6010102007580,登記記録の閉鎖等,0,2025-10-09,2025-10-03,有限会社レイノ,,有限会社,東京都,八王子市,中野上町１丁目２４番３号,,13,201,1920041,,,2025-10-03,清算の結了等,,,2015-10-05,1,,,,,レイノ,0
1549,6010401145453,登記記録の閉鎖等,0,2025-10-09,2025-09-02,株式会社ＫＢＣ,,株式会社,東京都,港区,愛宕１丁目６番８号,,13,103,1050002,,,2025-09-02,清算の結了等,,,2019-05-16,1,,,,,ケイビーシー,0
1559,6010403015200,登記記録の閉鎖等,0,2025-10-09,2025-08-07,アセットアルケミスト合同会社,,合同会社,東京都,港区,南青山２丁目２番１５号,,13,103,1070062,,,2025-08-07,合併による解散等,1011103006460,令和７年８月１日東京都港区浜松町二丁目２番１５号浜松町ダイヤビル２Ｆマジカルアセットマネジメント合同会社（1011103006460）と合併し解散,2016-08-18,1,,,,,アセットアルケミスト,0
1565,6010601043903,登記記録の閉鎖等,0,2025-10-09,2025-10-06,株式会社ＤＳＣ,,株式会社,東京都,足立区,綾瀬３丁目６番２０号ＷＩＳＥＮＥＸＴ綾瀬３０４,,13,121,1200005,,,2025-10-06,清算の結了等,,,2015-10-05,1,,,,,ディーエスシー,0
1581,6010902021343,登記記録の閉鎖等,0,2025-10-09,2025-10-01,有限会社ＳＴＵＤＩＯ　Ａ＆ＣＯ,,有限会社,東京都,世田谷区,玉川田園調布２丁目１３番１７号,,13,112,1580085,,,2025-10-01,合併による解散等,8010901032249,令和７年１０月１日東京都世田谷区玉川田園調布二丁目１３番１７号株式会社ＫＩＨＯＮ（8010901032249）に合併し解散,2015-10-05,1,,,,,スタジオエーアンドコー,0
1620,6012702002556,登記記録の閉鎖等,0,2025-10-09,2025-10-03,有限会社協同,,有限会社,東京都,東村山市,富士見町３丁目２１番地１,,13,213,1890024,,,2025-10-03,清算の結了等,,,2015-10-05,1,,,,,キョウドウ,0
1647,6030001016929,登記記録の閉鎖等,0,2025-10-09,2025-10-01,株式会社遊楽社,,株式会社,埼玉県,さいたま市緑区,大字上野田３２３番地,,11,109,3360977,,,2025-10-01,清算の結了等,,,2015-10-05,1,,,,,ユウラクシャ,0
1657,6030003016225,登記記録の閉鎖等,0,2025-10-09,2025-09-26,鷹昇屋合同会社,,合同会社,埼玉県,所沢市,小手指町３丁目２１番地の２小手指ハイツＳ－１２０８,,11,208,3591141,,,2025-09-26,清算の結了等,,,2020-11-20,1,,,,,タカノヤ,0
1658,6040001025672,登記記録の閉鎖等,0,2025-10-09,2025-09-10,株式会社ウェッジ,,株式会社,千葉県,市川市,市川南４丁目８番２６号,,12,203,2720033,,,2025-09-10,清算の結了等,,,2015-10-05,1,,,,,ウェッジ,0
1670,6070001029836,登記記録の閉鎖等,0,2025-10-09,2025-10-06,トリニティアグリテクノ株式会社,,株式会社,群馬県,前橋市,問屋町２丁目１番地４,,10,201,3710855,,,2025-10-06,合併による解散等,7100001010320,令和７年１０月１日長野県上田市常磐城五丁目３番１２号株式会社丸大商店（7100001010320）に合併し解散,2015-10-05,1,,,,,トリニティアグリテクノ,0
1673,6070002024200,登記記録の閉鎖等,0,2025-10-09,2025-10-01,桐南緑化有限会社,,有限会社,群馬県,桐生市,広沢町５丁目１７１４番地,,10,203,3760013,,,2025-10-01,清算の結了等,,,2015-10-05,1,,,,,トウナンリョクカ,0
1674,6070002025504,登記記録の閉鎖等,0,2025-10-09,2025-10-02,有限会社キヨミズ製作所,,有限会社,群馬県,みどり市,笠懸町鹿１２９番地１,,10,212,3792313,,,2025-10-02,清算の結了等,,,2015-10-05,1,,,,,,0
1675,6080001000317,登記記録の閉鎖等,0,2025-10-09,2025-10-01,株式会社ＹＣＦ,,株式会社,静岡県,静岡市葵区,常磐町１丁目４番地の１２,,22,101,4200034,,,2025-10-01,合併による解散等,7080001005579,令和７年１０月１日静岡市葵区常磐町一丁目４番地の１２株式会社ワイシーシー（7080001005579）に合併し解散,2015-10-05,1,,,,,ワイシーエフ,0
1679,6080101014480,登記記録の閉鎖等,0,2025-10-09,2025-10-01,株式会社サンライト商事,,株式会社,静岡県,下田市,西本郷１丁目１４番１９号,,22,219,4150036,,,2025-10-01,清算の結了等,,,2015-10-05,1,,,,,サンライトショウジ,0
1690,6100002003877,登記記録の閉鎖等,0,2025-10-09,2025-10-03,有限会社二幸壽司,,有限会社,長野県,長野市,大字鶴賀上千歳町１３５３番地１６,,20,201,3800821,,,2025-10-03,清算の結了等,,,2015-10-05,1,,,,,ニコウスシ,0
1691,6100003007885,登記記録の閉鎖等,0,2025-10-09,2025-10-03,合同会社丸和,,合同会社,長野県,上田市,鹿教湯温泉１３８７番地２,,20,203,3860323,,,2025-10-03,清算の結了等,,,2024-11-27,1,,,,,マルワ,0
1694,6100005000946,登記記録の閉鎖等,0,2025-10-09,2025-08-12,天理教信濃分教会,,その他の設立登記法人,長野県,長野市,戸隠栃原３４６８番地１,,20,201,3814104,,,2025-08-12,合併による解散等,4100005000675,令和７年８月１２日長野市大字富竹字山道西６８９番地の２天理教信州長野分教会（4100005000675）に合併し解散,2015-10-05,1,,,,,テンリキョウシナノブンキョウカイ,0
1698,6120001043732,登記記録の閉鎖等,0,2025-10-09,2025-09-30,株式会社サンメールセンター,,株式会社,大阪府,大阪市大正区,小林西１丁目２番１号,,27,108,5510013,,,2025-09-30,清算の結了等,,,2015-10-05,1,,,,,サンメールセンター,0
1702,6120001157838,登記記録の閉鎖等,0,2025-10-09,2025-10-01,株式会社トラヤ商店,,株式会社,大阪府,門真市,末広町５番３号,,27,223,5710030,,,2025-10-01,清算の結了等,,,2015-10-05,1,,,,,トラヤショウテン,0
1704,6120001203088,登記記録の閉鎖等,0,2025-10-09,2025-09-22,株式会社ウィズキャリア,,株式会社,大阪府,摂津市,鳥飼中３丁目７番１１号,,27,224,5660064,,,2025-09-22,清算の結了等,,,2017-01-16,1,,,,,ウィズキャリア,0
1705,6120001226171,登記記録の閉鎖等,0,2025-10-09,2025-09-16,株式会社Ｇｌｏｒｙ　Ｗａｙ　Ｔｒａｄｉｎｇ,,株式会社,大阪府,東大阪市,中野２丁目３番１２号,,27,227,5780913,,,2025-09-16,清算の結了等,,,2020-01-09,1,,,,,グローリーウエイトレイディング,0
1718,6120105006800,登記記録の閉鎖等,0,2025-10-09,2025-09-01,医療法人育生会,,その他の設立登記法人,大阪府,和泉市,府中町３丁目１５番３号,,27,219,5940071,,,2025-09-01,合併による解散等,9120105001162,令和７年９月１日大阪府堺市南区泉田中３１００－１９医療法人良秀会（9120105001162）に合併し解散,2015-10-05,1,,,,,イクセイカイ,0
1719,6120901006359,登記記録の閉鎖等,0,2025-10-09,2025-10-01,株式会社コスモトラスト,,株式会社,大阪府,大阪市東成区,東小橋１丁目１１番２６号,,27,115,5370024,,,2025-10-01,合併による解散等,7120001012216,令和７年１０月１日大阪市東成区東小橋一丁目１１番２６号コスモ株式会社（7120001012216）に合併し解散,2015-10-05,1,,,,,コスモトラスト,0
1724,6122002010562,登記記録の閉鎖等,0,2025-10-09,2025-09-19,有限会社福岡,,有限会社,大阪府,東大阪市,山手町９番１０号,,27,227,5798022,,,2025-09-19,清算の結了等,,,2015-10-05,1,,,,,フクオカ,0
1725,6130001026430,登記記録の閉鎖等,0,2025-10-09,2025-10-07,株式会社インフォクレスト,,株式会社,京都府,京都市中京区,三条通烏丸西入御倉町８５番地１烏丸ビル２階,,26,104,6048166,,,2025-10-07,清算の結了等,,,2015-10-05,1,,,,,インフォクレスト,0
1726,6130001068844,登記記録の閉鎖等,0,2025-10-09,2025-10-03,株式会社エンフォワード,,株式会社,京都府,京都市西京区,川島有栖川町７０－３,,26,111,6158191,,,2025-10-03,清算の結了等,,,2021-03-17,1,,,,,エンフォワード,0
1739,6140003010456,登記記録の閉鎖等,0,2025-10-09,2025-10-07,合同会社三田第２発電所,,合同会社,兵庫県,姫路市,網干区垣内東町１５５番地,,28,201,6711252,,,2025-10-07,清算の結了等,,,2015-10-05,1,,,,,サンダダイニハツデンショ,0
1740,6140003010464,登記記録の閉鎖等,0,2025-10-09,2025-10-07,合同会社西脇上比延発電所,,合同会社,兵庫県,姫路市,網干区垣内東町１５５番地,,28,201,6711252,,,2025-10-07,清算の結了等,,,2015-10-05,1,,,,,ニシワキカミヒエハツデンショ,0
1746,6170005004222,登記記録の閉鎖等,0,2025-10-09,2025-10-07,日高米穀商業協同組合,,その他の設立登記法人,和歌山県,御坊市,島５８４番地,,30,205,6440003,,,2025-10-07,清算の結了等,,,2015-10-05,1,,,,,ヒダカベイコクショウギョウ,0
1762,6180301011747,登記記録の閉鎖等,0,2025-10-09,2025-09-30,株式会社斉藤商会,,株式会社,愛知県,豊川市,市田町東中野６８番地の１,,23,207,4420862,,,2025-09-30,清算の結了等,,,2015-10-05,1,,,,,サイトウショウカイ,0
1769,6210005005752,登記記録の閉鎖等,0,2025-10-09,2025-09-02,天理教麻生島分教会,,その他の設立登記法人,福井県,大野市,下麻生島５８号２４番地,,18,205,9120000,,,2025-09-02,合併による解散等,1210005005749,令和７年９月２日福井県大野市泉町８番１４号天理教大清水分教会（1210005005749）に合併し解散,2015-10-05,1,,,,,テンリキョウアソウジマブンキョウカイ,0
1770,6220002001225,登記記録の閉鎖等,0,2025-10-09,2025-10-06,有限会社石川技建,,有限会社,石川県,金沢市,中屋南７８番地,,17,201,9200379,,,2025-10-06,清算の結了等,,,2015-10-05,1,,,,,イシカワギケン,0
1771,6220003002305,登記記録の閉鎖等,0,2025-10-09,2025-10-01,ネクストステージ合同会社,,合同会社,石川県,金沢市,大河端西１丁目８３番地,,17,201,9200210,,,2025-10-01,合併による解散等,3220003002381,令和７年１０月１日石川県金沢市大河端西一丁目８３番地アップグレード合同会社（3220003002381）に合併し解散,2017-07-26,1,,,,,ネクストステージ,0
1775,6240001063677,登記記録の閉鎖等,0,2025-10-09,2025-09-25,株式会社ジョブパーク,,株式会社,広島県,広島市西区,東観音町１８－１３,,34,104,7330032,,,2025-09-25,清算の結了等,,,2024-08-09,1,,,,,ジョブパーク,0
1778,6240005015278,登記記録の閉鎖等,0,2025-10-09,2025-10-02,日本製鉄呉労働組合,,その他の設立登記法人,広島県,呉市,昭和町１１番１号,,34,202,7370027,,,2025-10-02,清算の結了等,,,2021-09-22,1,,,,,ニッポンセイテツクレ,0
1796,6320002015173,登記記録の閉鎖等,0,2025-10-09,2025-10-03,有限会社杵築クリーンサービス,,有限会社,大分県,杵築市,大字守江１１５５番地の２,,44,210,8730033,,,2025-10-03,清算の結了等,,,2015-10-05,1,,,,,キツキクリーンサービス,0
1803,6360002004131,登記記録の閉鎖等,0,2025-10-09,2025-09-01,有限会社真地パーキング,,有限会社,沖縄県,那覇市,字真地１６５番地４,,47,201,9020072,,,2025-09-01,合併による解散等,9360003002486,令和７年９月１日沖縄県那覇市字真地１６５番地４株式会社伊良波（9360003002486）に合併し解散,2015-10-05,1,,,,,マアジパーキング,0
1804,6360002004800,登記記録の閉鎖等,0,2025-10-09,2025-10-03,有限会社リュウデンス,,有限会社,沖縄県,那覇市,久米２丁目１６番２２号,,47,201,9000033,,,2025-10-03,清算の結了等,,,2015-10-05,1,,,,,リュウデンス,0
1832,6440005000615,登記記録の閉鎖等,0,2025-10-09,2025-08-28,天理教至誠分教会,,その他の設立登記法人,北海道,函館市,昭和２丁目２１番４号,,01,202,0410812,,,2025-08-28,合併による解散等,4450005000905,令和７年８月２５日北海道旭川市豊岡八条三丁目７番１３号天理教旭市分教会（4450005000905）に合併し解散,2015-10-05,1,,,,,テンリキョウシセイブンキョウカイ,0
1833,6460001000278,登記記録の閉鎖等,0,2025-10-09,2025-10-03,株式会社カナヤマ,,株式会社,北海道,釧路市,阿寒町阿寒湖温泉１丁目４番２０号,,01,206,0850467,,,2025-10-03,清算の結了等,,,2025-08-08,1,,,,,カナヤマ,0
1834,6460103000969,登記記録の閉鎖等,0,2025-10-09,2025-10-06,合同会社多幸,,合同会社,北海道,河東郡音更町,宝来仲町南２丁目９番地２パークサイドＩＩＨ号室,00105832,01,631,0800135,,,2025-10-06,清算の結了等,,,2016-02-22,1,,,,,タコウ,0
1839,6500003003068,登記記録の閉鎖等,0,2025-10-09,2025-10-06,合同会社ＯＧＫ,,合同会社,愛媛県,宇和島市,新田町１丁目１－４６,,38,203,7980080,,,2025-10-06,清算の結了等,,,2023-08-01,1,,,,,オージーケー,0
1845,7010001186145,登記記録の閉鎖等,0,2025-10-09,2025-08-01,３ＭＩＭ株式会社,,株式会社,東京都,千代田区,四番町５番地６,,13,101,1020081,,,2025-08-01,合併による解散等,5010001026096,令和７年８月１日東京都千代田区四番町５番地６株式会社ＮＶＣ（5010001026096）に合併し解散,2017-09-06,1,,,,,サードミーム,0
1846,7010001219499,登記記録の閉鎖等,0,2025-10-09,2025-09-11,セルシュートセラピューティクス株式会社,,株式会社,東京都,文京区,本郷４丁目１番４号,,13,105,1130033,,,2025-09-11,清算の結了等,,,2021-07-09,1,,,,,セルシュートセラピューティクス,0
1870,7010405021798,登記記録の閉鎖等,0,2025-10-09,2025-09-05,銀座マロニエ一般社団法人,,その他の設立登記法人,東京都,港区,六本木１丁目６番１号泉ガーデンタワー,,13,103,1060032,,,2025-09-05,清算の結了等,,,2023-02-20,1,,,,,ギンザマロニエ,0
1872,7010501011117,登記記録の閉鎖等,0,2025-10-09,2025-09-30,株式会社デボンシャー,,株式会社,東京都,台東区,上野６丁目１番６号,,13,106,1100005,,,2025-09-30,清算の結了等,,,2015-10-05,1,,,,,デボンシャー,0
1876,7010501045916,登記記録の閉鎖等,0,2025-10-09,2025-09-22,ＷＡ株式会社,,株式会社,東京都,台東区,鳥越２丁目６番６号,,13,106,1110054,,,2025-09-22,清算の結了等,,,2020-06-30,1,,,,,ワ,0
1886,7010801014430,登記記録の閉鎖等,0,2025-10-09,2025-10-01,株式会社サンオオタ,,株式会社,東京都,大田区,東海３丁目２番６号,,13,111,1430001,,,2025-10-01,合併による解散等,2010801022099,令和７年１０月１日東京都大田区東海三丁目２番６号株式会社丁浩（2010801022099）に合併し解散,2015-10-05,1,,,,,サンオオタ,0
1912,7011101042485,登記記録の閉鎖等,0,2025-10-09,2025-09-25,株式会社新都市リサーチ,,株式会社,宮城県,栗原市,志波姫沼崎曽根８５番地２,,04,213,9895615,,,2025-09-25,清算の結了等,,,2015-10-05,1,,,,,シントシリサーチ,0
1913,7011101060850,登記記録の閉鎖等,0,2025-10-09,2025-10-06,株式会社ＫＬＲマネジメント,,株式会社,神奈川県,横浜市港南区,笹下１丁目９番１０－４０２号,,14,111,2340052,,,2025-10-06,合併による解散等,4010001109934,令和７年９月３０日東京都千代田区丸の内一丁目５番１号株式会社ＳＩＭＰＬＥＸ（4010001109934）に合併し解散,2015-10-05,1,,,,,,0
1916,7011103013253,登記記録の閉鎖等,0,2025-10-09,2025-09-02,合同会社カルミアファミリア,,合同会社,東京都,新宿区,西新宿３丁目３番１３号西新宿水間ビル６階,,13,104,1600023,,,2025-09-02,清算の結了等,,,2023-07-14,1,,,,,カルミアファミリア,0
1925,7011701025773,登記記録の閉鎖等,0,2025-10-09,2025-10-06,株式会社ＢＭＭ,,株式会社,東京都,江戸川区,西葛西５丁目２番２－８０２号,,13,123,1340088,,,2025-10-06,清算の結了等,,,2022-11-11,1,,,,,ビエムエム,0
1953,7030001037164,登記記録の閉鎖等,0,2025-10-09,2025-09-30,株式会社スペースワン,,株式会社,埼玉県,草加市,栄町３丁目７番１０－１－１３０３号,,11,221,3400011,,,2025-09-30,清算の結了等,,,2015-10-05,1,,,,,スペースワン,0
1954,7030001075511,登記記録の閉鎖等,0,2025-10-09,2025-10-01,株式会社白井新聞店,,株式会社,埼玉県,川口市,青木２丁目９番３６号,,11,203,3320031,,,2025-10-01,清算の結了等,,,2015-10-05,1,,,,,シライシンブンテン,0
1960,7030002068869,登記記録の閉鎖等,0,2025-10-09,2025-09-22,有限会社東武プリント,,有限会社,埼玉県,春日部市,中央１丁目５８番地９,,11,214,3440067,,,2025-09-22,清算の結了等,,,2015-10-05,1,,,,,トウブプリント,0
1976,7070001008657,登記記録の閉鎖等,0,2025-10-09,2025-10-01,株式会社ヤマモト設備,,株式会社,群馬県,高崎市,上佐野町４０９番地１,,10,202,3700857,,,2025-10-01,清算の結了等,,,2015-10-05,1,,,,,ヤマモトセツビ,0
1990,7100001038361,登記記録の閉鎖等,0,2025-10-09,2025-10-03,リトリーブ株式会社,,株式会社,長野県,飯田市,座光寺４５９０番地,,20,205,3950001,,,2025-10-03,清算の結了等,,,2025-03-06,1,,,,,リトリーブ,0
1991,7100003007884,登記記録の閉鎖等,0,2025-10-09,2025-10-03,合同会社丸美,,合同会社,長野県,上田市,鹿教湯温泉１３８７番地２,,20,203,3860323,,,2025-10-03,清算の結了等,,,2024-11-27,1,,,,,マルミ,0
2025,7140003010430,登記記録の閉鎖等,0,2025-10-09,2025-10-07,合同会社篠山発電所,,合同会社,兵庫県,姫路市,網干区垣内東町１５５番地,,28,201,6711252,,,2025-10-07,清算の結了等,,,2015-10-05,1,,,,,ササヤマハツデンショ,0
2026,7140003010439,登記記録の閉鎖等,0,2025-10-09,2025-10-07,合同会社和歌山県高野口町発電所,,合同会社,兵庫県,姫路市,網干区垣内東町１５５番地,,28,201,6711252,,,2025-10-07,清算の結了等,,,2015-10-05,1,,,,,ワカヤマケンコウヤグチチョウハツデンショ,0
2027,7140003010455,登記記録の閉鎖等,0,2025-10-09,2025-10-07,合同会社三田第１発電所,,合同会社,兵庫県,姫路市,網干区垣内東町１５５番地,,28,201,6711252,,,2025-10-07,清算の結了等,,,2015-10-05,1,,,,,サンダダイイチハツデンショ,0
2028,7140003010463,登記記録の閉鎖等,0,2025-10-09,2025-10-07,合同会社稲用低圧第１発電所,,合同会社,兵庫県,姫路市,網干区垣内東町１５５番地,,28,201,6711252,,,2025-10-07,清算の結了等,,,2015-10-05,1,,,,,イナモチテイアツハツデンショ,0
2044,7180301014146,登記記録の閉鎖等,0,2025-10-09,2025-09-29,株式会社創健商事,,株式会社,愛知県,刈谷市,半城土中町１丁目１２番地１０,,23,210,4480805,,,2025-09-29,清算の結了等,,,2015-10-05,1,,,,,ソウケンショウジ,0
2045,7180301021134,登記記録の閉鎖等,0,2025-10-09,2025-09-26,豊田交通教育株式会社,,株式会社,愛知県,豊田市,池田町小山田４９４番地２４,,23,211,4710001,,,2025-09-26,清算の結了等,,,2015-10-05,1,,,,,トヨタコウツウキョウイク,0
2051,7200001003925,登記記録の閉鎖等,0,2025-10-09,2025-10-06,南正建設株式会社,,株式会社,岐阜県,岐阜市,正木南１丁目６番５号,,21,201,5020866,,,2025-10-06,清算の結了等,,,2015-10-05,1,,,,,ミナミショウケンセツ,0
2069,7290001035349,登記記録の閉鎖等,0,2025-10-09,2025-09-16,株式会社モンド商事,,株式会社,福岡県,那珂川市,松原１番８－１００７号,,40,231,8111215,,,2025-09-16,清算の結了等,,,2015-10-05,1,,,,,モンドショウジ,0
2073,7290001087150,登記記録の閉鎖等,0,2025-10-09,2025-09-10,株式会社ＴＩＣ,,株式会社,福岡県,福岡市博多区,板付６丁目１０番２３－７０５号,,40,132,8120888,,,2025-09-10,清算の結了等,,,2019-11-19,1,,,,,ティーアイシー,0
2098,7370001025564,登記記録の閉鎖等,0,2025-10-09,2025-09-26,ピュアカンパニーエース株式会社,,株式会社,宮城県,仙台市青葉区,花京院２丁目２番２９－１００２号,,04,101,9800013,,,2025-09-26,清算の結了等,,,2015-10-05,1,,,,,ピュアカンパニーエース,0
2106,7390001005052,登記記録の閉鎖等,0,2025-10-09,2025-09-01,株式会社ＰＵＲＥ,,株式会社,山形県,山形市,元木２丁目１３番２３号,,06,201,9902447,,,2025-09-01,合併による解散等,7390001002339,令和７年９月１日山形市元木二丁目１１番２３号株式会社リコーダ（7390001002339）に合併し解散,2015-10-05,1,,,,,ピュア,0
2110,7390001009557,登記記録の閉鎖等,0,2025-10-09,2025-10-06,株式会社ＭＹ　ＯＦＦＩＣＥ,,株式会社,山形県,東根市,神町西５丁目３番６７－６号,,06,211,9993766,,,2025-10-06,合併による解散等,3390001004917,令和７年１０月１日山形県天童市矢野目１４６６番地２株式会社ジェイ・サポート（3390001004917）に合併し解散,2015-10-05,1,,,,,マイオフィス,0
2119,7430001018586,登記記録の閉鎖等,0,2025-10-09,2025-09-25,株式会社類積算,,株式会社,北海道,札幌市中央区,南一条西５丁目５番地,,01,101,0600061,,,2025-09-25,清算の結了等,,,2015-10-05,1,,,,,ルイセキサン,0
2124,7450002011308,登記記録の閉鎖等,0,2025-10-09,2025-10-03,有限会社豊富水道,,有限会社,北海道,天塩郡豊富町,字豊富西一条６丁目,,01,516,0984111,,,2025-10-03,清算の結了等,,,2015-10-05,1,,,,,トヨトミスイドウ,0
2129,7490001004779,登記記録の閉鎖等,0,2025-10-09,2025-10-06,株式会社ジンセイ,,株式会社,高知県,高知市,福井町１９０４番地１,,39,201,7800965,,,2025-10-06,清算の結了等,,,2015-10-05,1,,,,,,0
2131,7500001015361,登記記録の閉鎖等,0,2025-10-09,2025-09-09,葛西産業株式会社,,株式会社,愛媛県,宇和島市,高串丙６６番地１,,38,203,7980020,,,2025-09-09,合併による解散等,9030001003544,令和７年９月１日埼玉県さいたま市大宮区桜木町一丁目１１番地５株式会社サイサン（9030001003544）に合併し解散,2015-10-05,1,,,,,カサイサンギョウ,0
2146,8010003034714,登記記録の閉鎖等,0,2025-10-09,2025-08-13,Ｓｔｏｎｅｒｉｄｇｅ　Ｊａｐａｎ合同会社,,合同会社,東京都,千代田区,霞が関３丁目２番６号東京倶楽部ビルディング１１階,,13,101,1000013,,,2025-08-13,清算の結了等,,,2021-04-26,1,,,,,ストーンリッジジャパン,0
2148,8010003043302,登記記録の閉鎖等,0,2025-10-09,2025-09-12,合同会社Ｂｒｅａｋ,,合同会社,東京都,中央区,日本橋室町１丁目１１番１２号,,13,102,1030022,,,2025-09-12,清算の結了等,,,2024-03-25,1,,,,,,0
2150,8010101010484,登記記録の閉鎖等,0,2025-10-09,2025-10-06,株式会社ＯＨＡＮＡ・ＰＲＯＵＤ,,株式会社,東京都,八王子市,めじろ台１丁目４３番地１３,,13,201,1930833,,,2025-10-06,清算の結了等,,,2015-10-05,1,,,,,,0
2152,8010401046385,登記記録の閉鎖等,0,2025-10-09,2025-09-04,株式会社コマースニジュウイチ,,株式会社,東京都,港区,西新橋１丁目１０番２号住友生命西新橋ビル,,13,103,1050003,,,2025-09-04,合併による解散等,4010401187299,令和７年９月１日東京都港区虎ノ門一丁目３番１号株式会社コマースニジュウイチ（4010401187299）に合併し解散,2015-10-05,1,,,,,コマースニジュウイチ,0
2154,8010401163651,登記記録の閉鎖等,0,2025-10-09,2025-09-08,アンブランチ株式会社,,株式会社,東京都,港区,北青山１丁目３番１号,,13,103,1070061,,,2025-09-08,清算の結了等,,,2021-11-05,1,,,,,アンブランチ,0
2164,8010803004354,登記記録の閉鎖等,0,2025-10-09,2025-10-01,合同会社ファーゲート,,合同会社,東京都,大田区,大森東２丁目１８番１０号ＯＭイースト３０１,,13,111,1430012,,,2025-10-01,清算の結了等,,,2022-11-18,1,,,,,ファーゲート,0
2191,8011101104540,登記記録の閉鎖等,0,2025-10-09,2025-09-04,株式会社ＢＵＬＬＥＴ,,株式会社,東京都,新宿区,西新宿７丁目７番地３３号新銘ビル５階,,13,104,1600023,,,2025-09-04,清算の結了等,,,2023-09-29,1,,,,,バレット,0
2204,8011801009007,登記記録の閉鎖等,0,2025-10-09,2025-10-06,セイコーリネン株式会社,,株式会社,東京都,足立区,辰沼２丁目１６番２１号,,13,121,1210054,,,2025-10-06,合併による解散等,4020001002915,令和７年９月１日横浜市磯子区峰町３５７番地株式会社サンビームランドリー（4020001002915）に合併し解散,2015-10-05,1,,,,,セイコーリネン,0
2210,8011802008453,登記記録の閉鎖等,0,2025-10-09,2025-10-01,有限会社ライトネット,,有限会社,東京都,足立区,皿沼２丁目１番１９号,,13,121,1230862,,,2025-10-01,清算の結了等,,,2015-10-05,1,,,,,ライトネット,0
2228,8020003028450,登記記録の閉鎖等,0,2025-10-09,2025-09-18,合同会社川越屋,,合同会社,神奈川県,横浜市西区,中央１丁目３番１５－６０１号,,14,103,2200051,,,2025-09-18,清算の結了等,,,2025-05-09,1,,,,,カワゴエヤ,0
2230,8020005007799,登記記録の閉鎖等,0,2025-10-09,2025-09-19,医療法人渡辺クリニック,,その他の設立登記法人,神奈川県,川崎市高津区,下作延２丁目９番１０号関口第２ビル２Ｆ,,14,134,2130033,,,2025-09-19,清算の結了等,,,2015-10-05,1,,,,,ワタナベクリニック,0
2233,8030001001656,登記記録の閉鎖等,0,2025-10-09,2025-10-01,大成印刷株式会社,,株式会社,埼玉県,さいたま市見沼区,大字御蔵５０８番地,,11,104,3370033,,,2025-10-01,清算の結了等,,,2015-10-05,1,,,,,タイセイインサツ,0
2235,8030001045538,登記記録の閉鎖等,0,2025-10-09,2025-10-01,柳下建設木材株式会社,00014913,株式会社,埼玉県,志木市,中宗岡１丁目１２番２２号,,11,228,3530002,,,2025-10-01,清算の結了等,,,2015-10-05,1,,,,,ヤギシタケンセツモクザイ,0
2249,8040001022503,登記記録の閉鎖等,0,2025-10-09,2025-09-10,株式会社クリスタル開発,,株式会社,千葉県,船橋市,宮本１丁目２０番１２号,,12,204,2730003,,,2025-09-10,清算の結了等,,,2015-10-05,1,,,,,クリスタルカイハツ,0
2268,8080002001122,登記記録の閉鎖等,0,2025-10-09,2025-10-02,有限会社大河原冷熱,,有限会社,静岡県,静岡市駿河区,津島町１２番３７号,,22,102,4228056,,,2025-10-02,清算の結了等,,,2015-10-05,1,,,,,オオカワラレイネツ,0
2271,8080101011286,登記記録の閉鎖等,0,2025-10-09,2025-10-01,株式会社遠藤組,,株式会社,静岡県,富士宮市,青木１１５３番地,,22,207,4180047,,,2025-10-01,清算の結了等,,,2015-10-05,1,,,,,エンドウグミ,0
2280,8080402001705,登記記録の閉鎖等,0,2025-10-09,2025-09-30,有限会社大庭製作所,,有限会社,静岡県,浜松市中央区,白羽町７５３番地の２,,22,138,4300846,,,2025-09-30,清算の結了等,,,2015-10-05,1,,,,,オオバセイサクジョ,0
2319,8122001013556,登記記録の閉鎖等,0,2025-10-09,2025-10-03,株式会社パワーウェイブ,,株式会社,大阪府,東大阪市,川中６番３０号,,27,227,5780902,,,2025-10-03,清算の結了等,,,2015-10-05,1,,,,,パワーウェイブ,0
2320,8122001020453,登記記録の閉鎖等,0,2025-10-09,2025-09-26,山本青果株式会社,,株式会社,大阪府,八尾市,黒谷２丁目１４６番地,,27,212,5810873,,,2025-09-26,清算の結了等,,,2015-10-05,1,,,,,ヤマモトセイカ,0
2321,8122002010057,登記記録の閉鎖等,0,2025-10-09,2025-09-10,有限会社ＳＡＫＡＴＡ,,有限会社,福岡県,福岡市中央区,赤坂３丁目８番３１－１５０１号,,40,133,8100042,,,2025-09-10,清算の結了等,,,2015-10-05,1,,,,,サカタ,0
2327,8130003010174,登記記録の閉鎖等,0,2025-10-09,2025-10-03,Ｓｔｕｄｅｎｔ　Ｃｅｎｔｒａｌ合同会社,,合同会社,京都府,京都市下京区,大黒町２２７番地第２キョートビル４０２,,26,106,6008043,,,2025-10-03,清算の結了等,,,2025-01-30,1,,,,,スチューデントセントラル,0
2335,8140003010413,登記記録の閉鎖等,0,2025-10-09,2025-10-07,合同会社千種発電所,,合同会社,兵庫県,姫路市,網干区垣内東町１５５番地,,28,201,6711252,,,2025-10-07,清算の結了等,,,2015-10-05,1,,,,,チグサハツデンショ,0
2336,8140003010438,登記記録の閉鎖等,0,2025-10-09,2025-10-07,合同会社岐阜県御望発電所,,合同会社,兵庫県,姫路市,網干区垣内東町１５５番地,,28,201,6711252,,,2025-10-07,清算の結了等,,,2015-10-05,1,,,,,ギフケンゴモハツデンショ,0
2337,8140003010462,登記記録の閉鎖等,0,2025-10-09,2025-10-07,合同会社出雲低圧発電所,,合同会社,兵庫県,姫路市,網干区垣内東町１５５番地,,28,201,6711252,,,2025-10-07,清算の結了等,,,2015-10-05,1,,,,,イズモテイアツハツデンショ,0
2362,8180301003775,登記記録の閉鎖等,0,2025-10-09,2025-09-26,株式会社さかまき,,株式会社,愛知県,岡崎市,井田南町６番地１７,,23,202,4440068,,,2025-09-26,清算の結了等,,,2015-10-05,1,,,,,サカマキ,0
2364,8180302019696,登記記録の閉鎖等,0,2025-10-09,2025-09-29,有限会社三河基礎,,有限会社,愛知県,知立市,牛田２丁目２６番地１,,23,225,4720003,,,2025-09-29,清算の結了等,,,2015-10-05,1,,,,,ミカワキソ,0
2375,8220005005337,登記記録の閉鎖等,0,2025-10-09,2025-09-05,願龍寺,,その他の設立登記法人,石川県,羽咋郡志賀町,百浦メの１５番地,,17,384,9250162,,,2025-09-05,合併による解散等,9220005005022,令和７年９月５日石川県羽咋郡志賀町富来領家町ニの６７番地甲徳照寺（9220005005022）に合併し解散,2015-10-05,1,,,,,ガンリュウジ,0
2377,8240001002212,登記記録の閉鎖等,0,2025-10-09,2025-09-26,梶本産業株式会社,,株式会社,東京都,千代田区,霞が関３丁目２番５号霞が関ビルディング６階（エクスプレス・タックス株式会社内）,,13,101,1000013,,,2025-09-26,清算の結了等,,,2015-10-05,1,,,,,カジモトサンギョウ,0
2393,8310002013201,登記記録の閉鎖等,0,2025-10-09,2025-10-06,有限会社吉田無線,,有限会社,長崎県,佐世保市,小佐々町楠泊１８７３番地,,42,202,8570413,,,2025-10-06,清算の結了等,,,2015-10-05,1,,,,,ヨシダムセン,0
2395,8310005007530,登記記録の閉鎖等,0,2025-10-09,2025-10-07,特定非営利活動法人葵会,,その他の設立登記法人,長崎県,佐世保市,須田尾町３７７番地１３,,42,202,8570831,,,2025-10-07,清算の結了等,,,2015-10-05,1,,,,,アオイカイ,0
2407,8360002015688,登記記録の閉鎖等,0,2025-10-09,2025-10-01,有限会社ココブロス,,有限会社,沖縄県,宜野湾市,嘉数２丁目３番２号,,47,205,9012226,,,2025-10-01,合併による解散等,4360001008168,令和７年１０月１日沖縄県宜野湾市大山二丁目１番６号株式会社アドプロ（4360001008168）に合併し解散,2015-10-05,1,,,,,ココブロス,0
2427,8400002004133,登記記録の閉鎖等,0,2025-10-09,2025-09-26,有限会社藤原商店,,有限会社,岩手県,滝沢市,鵜飼向新田７番地の１１９,,03,216,0200667,,,2025-09-26,清算の結了等,,,2015-10-05,1,,,,,フジワラショウテン,0
2442,8470002018853,登記記録の閉鎖等,0,2025-10-09,2025-10-07,有限会社オリーブホールディングス,,有限会社,香川県,小豆郡土庄町,甲１３６０番地９５,,37,322,7614101,,,2025-10-07,清算の結了等,,,2015-10-05,1,,,,,,0
2445,8480002013465,登記記録の閉鎖等,0,2025-10-09,2025-10-07,有限会社西本縫製,,有限会社,徳島県,阿南市,領家町野神３３５番地２,,36,204,7740011,,,2025-10-07,清算の結了等,,,2015-10-05,1,,,,,ニシモトホウセイ,0
2451,9010001111010,登記記録の閉鎖等,0,2025-10-09,2025-09-03,株式会社スズノリ,,株式会社,東京都,千代田区,平河町１丁目７番１６号,,13,101,1020093,,,2025-09-03,合併による解散等,7390001002339,令和７年９月１日山形市元木二丁目１１番２３号株式会社リコーダ（7390001002339）に合併し解散,2015-10-05,1,,,,,スズノリ,0
2454,9010001174032,登記記録の閉鎖等,0,2025-10-09,2025-09-12,株式会社トップリンクス,,株式会社,東京都,中央区,日本橋２丁目２番３号ＲＩＳＨＥビルＵＣＦ４Ｆ,,13,102,1030027,,,2025-09-12,清算の結了等,,,2016-03-08,1,,,,,トップリンクス,0
2460,9010002028410,登記記録の閉鎖等,0,2025-10-09,2025-09-29,有限会社オー・エス・ティー・エム,,有限会社,宮城県,仙台市青葉区,川内三十人町５３－２５,,04,101,9800866,,,2025-09-29,清算の結了等,,,2015-10-05,1,,,,,オーエスティーエム,0
2469,9010105001512,登記記録の閉鎖等,0,2025-10-09,2025-10-06,東京都中小企業振興事業協同組合,,その他の設立登記法人,東京都,八王子市,みつい台２丁目１２番８号,,13,201,1920014,,,2025-10-06,清算の結了等,,,2015-10-05,1,,,,,トウキョウトチュウショウキギョウシンコウジウギョウ,0
2480,9010403029866,登記記録の閉鎖等,0,2025-10-09,2025-09-25,合同会社ユーラスバッテリーエナジー,,合同会社,東京都,千代田区,大手町１丁目５番１号,,13,101,1000004,,,2025-09-25,清算の結了等,,,2023-04-10,1,,,,,ユーラスバッテリーエナジー,0
2507,9011101106073,登記記録の閉鎖等,0,2025-10-09,2025-09-01,ロッテメディパレット株式会社,,株式会社,東京都,新宿区,西新宿３丁目２０番１号,,13,104,1600023,,,2025-09-01,合併による解散等,1011101044248,令和７年９月１日東京都新宿区西新宿三丁目２０番１号株式会社ロッテ（1011101044248）に合併し解散,2024-02-06,1,,,,,ロッテメディパレット,0
2520,9011702007100,登記記録の閉鎖等,0,2025-10-09,2025-09-25,高澤金属有限会社,,有限会社,東京都,江戸川区,平井６丁目７番２１号,,13,123,1320035,,,2025-09-25,清算の結了等,,,2015-10-05,1,,,,,タカサワキンゾク,0
2531,9013302018642,登記記録の閉鎖等,0,2025-10-09,2025-10-01,有限会社山内経営,,有限会社,東京都,豊島区,東池袋１丁目２１番１１号オーク池袋ビル７階,,13,116,1700013,,,2025-10-01,清算の結了等,,,2015-10-05,1,,,,,ヤマウチケイエイ,0
2545,9020002099120,登記記録の閉鎖等,0,2025-10-09,2025-09-19,有限会社松田工業,,有限会社,神奈川県,川崎市川崎区,浅田２丁目１０番１３号,,14,131,2100847,,,2025-09-19,清算の結了等,,,2015-10-05,1,,,,,マツダコウギョウ,0
2557,9030001126287,登記記録の閉鎖等,0,2025-10-09,2025-10-01,株式会社ＭＬプランニング,,株式会社,埼玉県,川口市,赤井４丁目２９番２号,,11,203,3340073,,,2025-10-01,清算の結了等,,,2018-06-25,1,,,,,エムエルプランニング,0
2580,9040002065401,登記記録の閉鎖等,0,2025-10-09,2025-09-18,有限会社茂木ボールト,,有限会社,千葉県,佐倉市,石川６２１番地３,,12,212,2850813,,,2025-09-18,清算の結了等,,,2015-10-05,1,,,,,モギボールト,0
2583,9040002092536,登記記録の閉鎖等,0,2025-10-09,2025-09-09,有限会社久保木工務店,,有限会社,千葉県,我孫子市,南青山２５番地の１７,,12,222,2701178,,,2025-09-09,清算の結了等,,,2015-10-05,1,,,,,クボキコウムテン,0
2604,9080401009855,登記記録の閉鎖等,0,2025-10-09,2025-09-30,信和ケミカル株式会社,,株式会社,静岡県,浜松市中央区,恩地町６７５番地,,22,138,4300814,,,2025-09-30,清算の結了等,,,2015-10-05,1,,,,,シンワケミカル,0
2608,9090001001781,登記記録の閉鎖等,0,2025-10-09,2025-10-02,光産業株式会社,,株式会社,山梨県,甲府市,朝気３丁目１０番１０号,,19,201,4000862,,,2025-10-02,清算の結了等,,,2015-10-05,1,,,,,ヒカリサンギョウ,0
2611,9110001024367,登記記録の閉鎖等,0,2025-10-09,2025-09-30,栃尾自動車工業株式会社,,株式会社,新潟県,長岡市,平１丁目２番８号,,15,202,9400137,,,2025-09-30,清算の結了等,,,2015-10-05,1,,,,,トチオジドウシャコウギョウ,0
2612,9120001117244,登記記録の閉鎖等,0,2025-10-09,2025-10-01,ビナリオホテルズ＆リゾーツ株式会社,,株式会社,大阪府,大阪市北区,豊崎３丁目９番７号,,27,127,5310072,,,2025-10-01,清算の結了等,,,2015-10-05,1,,,,,ビナリオホテルズアンドリゾーツ,0
2621,9120003015578,登記記録の閉鎖等,0,2025-10-09,2025-10-02,青森西北沖洋上風力合同会社,,合同会社,東京都,品川区,大崎１丁目６番１号,,13,109,1410032,,,2025-10-02,清算の結了等,,,2019-04-12,1,,,,,アオモリセイホクオキヨウジョウフウリョク,0
2630,9120901002314,登記記録の閉鎖等,0,2025-10-09,2025-10-06,ヨシダ産業株式会社,,株式会社,大阪府,茨木市,東野々宮町１２番２１号,,27,211,5670838,,,2025-10-06,合併による解散等,4120001102688,令和７年１０月１日大阪市西区新町一丁目１６番１号大陽日酸ガス＆ウェルディング株式会社（4120001102688）に合併し解散,2015-10-05,1,,,,,ヨシダサンギョウ,0
2649,9140001072842,登記記録の閉鎖等,0,2025-10-09,2025-09-01,株式会社ＭＳ＆Ｃ,,株式会社,兵庫県,西宮市,高木東町２５番１２－４０１号,,28,204,6638033,,,2025-09-01,合併による解散等,4140002059240,令和７年８月３１日兵庫県西宮市高木東町２５番１２－１０３号株式会社ＭＳ＆Ｃ（4140002059240）に合併して解散,2015-10-05,1,,,,,エムエスアンドシー,0
2656,9140003010412,登記記録の閉鎖等,0,2025-10-09,2025-10-07,合同会社花田発電所,,合同会社,兵庫県,揖保郡太子町,立岡１３０番地の１６,,28,464,6711531,,,2025-10-07,清算の結了等,,,2015-10-05,1,,,,,ハナダハツデンショ,0
2657,9140003010437,登記記録の閉鎖等,0,2025-10-09,2025-10-07,合同会社大田発電所,,合同会社,兵庫県,姫路市,網干区垣内東町１５５番地,,28,201,6711252,,,2025-10-07,清算の結了等,,,2015-10-05,1,,,,,オオダハツデンショ,0
2658,9140003010461,登記記録の閉鎖等,0,2025-10-09,2025-10-07,合同会社多可町西安田発電所,,合同会社,兵庫県,姫路市,網干区垣内東町１５５番地,,28,201,6711252,,,2025-10-07,清算の結了等,,,2015-10-05,1,,,,,タカチョウニシヤスダハツデンショ,0
2662,9170001006252,登記記録の閉鎖等,0,2025-10-09,2025-10-08,エンジニアリングパワーズ株式会社,,株式会社,和歌山県,和歌山市,吹上３丁目５番１９号,,30,201,6408137,,,2025-10-08,清算の結了等,,,2015-10-05,1,,,,,エンジニアリングパワーズ,0
2663,9170001008471,登記記録の閉鎖等,0,2025-10-09,2025-10-08,リノシステム株式会社,,株式会社,和歌山県,和歌山市,楠本７２番地の１３８,,30,201,6496313,,,2025-10-08,清算の結了等,,,2015-10-05,1,,,,,リノシステム,0
2665,9180001067780,登記記録の閉鎖等,0,2025-10-09,2025-09-24,株式会社愛知共同配送サービスセンター,,株式会社,愛知県,長久手市,蟹原１８０１番地,,23,238,4801142,,,2025-09-24,清算の結了等,,,2015-10-05,1,,,,,アイチキョウドウハイソウサービスセンター,0
2678,9180002071071,登記記録の閉鎖等,0,2025-10-09,2025-09-24,有限会社東海コンサルティング保険代理店,,有限会社,愛知県,春日井市,上田楽町３４４９番地４,,23,206,4860801,,,2025-09-24,清算の結了等,,,2015-10-05,1,,,,,トウカイコンサルティングホケンダイリテン,0
2682,9180302016346,登記記録の閉鎖等,0,2025-10-09,2025-09-24,有限会社池田軽金属,,有限会社,愛知県,安城市,二本木新町２丁目１６番地６,,23,212,4460075,,,2025-09-24,清算の結了等,,,2015-10-05,1,,,,,イケダケイキンゾク,0
2694,9230005007389,登記記録の閉鎖等,0,2025-10-09,2025-10-01,株式会社パスコ,,株式会社,富山県,射水市,中太閤山１丁目１番地１,,16,211,9390363,,,2025-10-01,合併による解散等,3230001012605,令和７年１０月１日富山県射水市流通センター水戸田三丁目４番地アルビス株式会社（3230001012605）に合併し解散,2015-10-05,1,,,,,パスコ,0
2702,9260001014221,登記記録の閉鎖等,0,2025-10-09,2025-10-01,株式会社ホンダ販売中島,,株式会社,岡山県,倉敷市,連島中央４丁目１番３４号,,33,202,7128014,,,2025-10-01,合併による解散等,2260001015795,令和７年１０月１日岡山県総社市井手７９３番地９飛鳥ホンダ株式会社（2260001015795）に合併し解散,2015-10-05,1,,,,,ホンダハンバイナカシマ,0
2706,9290001042483,登記記録の閉鎖等,0,2025-10-09,2025-09-16,株式会社三国コーポレーション,,株式会社,福岡県,太宰府市,五条４丁目１２番１６号,,40,221,8180125,,,2025-09-16,清算の結了等,,,2015-10-05,1,,,,,ミクニコーポレーション,0
2717,9290002015793,登記記録の閉鎖等,0,2025-10-09,2025-09-10,有限会社ジャパン印刷,,有限会社,福岡県,福岡市博多区,博多駅南３丁目２７番４号,,40,132,8120016,,,2025-09-10,清算の結了等,,,2015-10-05,1,,,,,,0
2729,9340002011820,登記記録の閉鎖等,0,2025-10-09,2025-10-01,有限会社サンライズ総合保険,,有限会社,鹿児島県,鹿児島市,下荒田４丁目２７番１２号,,46,201,8900056,,,2025-10-01,清算の結了等,,,2015-10-05,1,,,,,サンライズソウゴウホケン,0
2738,9370102002543,登記記録の閉鎖等,0,2025-10-09,2025-09-24,有限会社ひらま商事,,有限会社,宮城県,白石市,東町２丁目１番１２号,,04,206,9890225,,,2025-09-24,清算の結了等,,,2015-10-05,1,,,,,ヒラマショウジ,0
2739,9370502001070,登記記録の閉鎖等,0,2025-10-09,2025-09-25,有限会社かねき建設,,有限会社,宮城県,気仙沼市,唐桑町港１５０番地,,04,205,9880505,,,2025-09-25,清算の結了等,,,2015-10-05,1,,,,,カネキケンセツ,0
2744,9390003000891,登記記録の閉鎖等,0,2025-10-09,2025-10-07,Ｐ＆Ｍテクノロジー合同会社,,合同会社,山形県,米沢市,塩井町塩野８２０番地の１５,,06,202,9920042,,,2025-10-07,清算の結了等,,,2015-10-05,1,,,,,ピーアンドエムテクノロジー,0
2749,9410002011961,登記記録の閉鎖等,0,2025-10-09,2025-10-06,有限会社スズキインフォテック,,有限会社,秋田県,大仙市,小貫高畑字中荒所６０番地２２,,05,212,0140064,,,2025-10-06,清算の結了等,,,2015-10-05,1,,,,,スズキインフォテック,0
2750,9410005003163,登記記録の閉鎖等,0,2025-10-09,2025-09-01,山神社,,その他の設立登記法人,秋田県,北秋田郡上小阿仁村,南沢字南沢６８番地,,05,327,0184432,,,2025-09-01,合併による解散等,4410005003151,令和７年９月１日秋田県北秋田郡上小阿仁村大林字村廻３８番地、３９番地、３７番地２、３７番地３熊野神社（4410005003151）に合併し解散,2015-10-05,1,,,,,,0
2754,9430002051502,登記記録の閉鎖等,0,2025-10-09,2025-09-25,有限会社ワイケイ印刷,,有限会社,北海道,夕張郡由仁町,本町１４９番地,,01,427,0691206,,,2025-09-25,清算の結了等,,,2015-10-05,1,,,,,ワイケイインサツ,0
2762,9480005006449,登記記録の閉鎖等,0,2025-10-09,2025-10-03,税理士法人久次米税理士事務所,,その他の設立登記法人,徳島県,板野郡藍住町,奥野字前川６番地１,,36,403,7711202,,,2025-10-03,清算の結了等,,,2016-01-07,1,,,,,クジメゼイリシジムショ,0
2763,9490001007210,登記記録の閉鎖等,0,2025-10-09,2025-10-06,株式会社ＩＴＳ総合建設センター,,株式会社,高知県,高知市,介良甲９８１番地２,,39,201,7815105,,,2025-10-06,清算の結了等,,,2015-10-05,1,,,,,アイティーエスソウゴウケンセツセンター,0
2766,9500002019657,登記記録の閉鎖等,0,2025-10-09,2025-10-06,有限会社不二教育ネット,,有限会社,愛媛県,今治市,風早町２丁目２番地１３,,38,202,7940017,,,2025-10-06,清算の結了等,,,2015-10-05,1,,,,,フジキョウイクネット,0
