sequenceNumber,corporateNumber,process,correct,updateDate,changeDate,name,nameImageId,kind,prefectureName,cityName,streetNumber,addressImageId,prefectureCode,cityCode,postCode,addressOutside,addressOutsideImageId,closeDate,closeCause,successorCorporateNumber,changeCause,assignmentDate,latest,enName,enPrefectureName,enCityName,enAddressOutside,furigana,hihyoji
5,1010001239057,新規,0,2023-10-10,2023-10-10,ＭＯＬ‐ＴＯＹＯ洋上風力サービス株式会社,,株式会社,東京都,千代田区,神田神保町１丁目１０５番地神保町三井ビルディング東洋建設株式会社内,,13,101,1010051,,,,,,,2023-10-10,1,,,,,エムオーエルトーヨーヨウジョウフウリョクサービス,0
6,1010001239081,新規,0,2023-10-10,2023-10-10,株式会社ワークデル,,株式会社,東京都,文京区,千駄木２丁目１３番地１号ルネ千駄木プラザ４０２,,13,105,1130022,,,,,,,2023-10-10,1,,,,,ワークデル,0
7,1010001239098,新規,0,2023-10-10,2023-10-10,ＣＣホールディングス株式会社,,株式会社,東京都,千代田区,麹町３丁目２番地垣見麹町ビル別館４階,,13,101,1020083,,,,,,,2023-10-10,1,,,,,シーシーホールディングス,0
12,1010003041857,新規,0,2023-10-10,2023-10-10,ネクストワンダイニング合同会社,,合同会社,東京都,中央区,日本橋３丁目１番１５号,,13,102,1030027,,,,,,,2023-10-10,1,,,,,ネクストワンダイニング,0
13,1010003041865,新規,0,2023-10-10,2023-10-10,ＳＨＪ３合同会社,,合同会社,東京都,中央区,銀座１丁目６番１１号土志田ビルディング３Ｆ,,13,102,1040061,,,,,,,2023-10-10,1,,,,,エスエイチジェイスリー,0
14,1010003041873,新規,0,2023-10-10,2023-10-10,ＪＰインベストメント・シグマ地域事業承継合同会社,,合同会社,東京都,千代田区,大手町２丁目３番１号,,13,101,1000004,,,,,,,2023-10-10,1,,,,,ジェイピーインベストメントシグマチイキジギョウショウケイ,0
15,1010003041898,新規,0,2023-10-10,2023-10-10,猪苗代太陽光発電所合同会社,,合同会社,東京都,千代田区,丸の内１丁目８番２号鉄鋼ビルディング４階,,13,101,1000005,,,,,,,2023-10-10,1,,,,,イナワシロタイヨウコウハツデンショ,0
17,1010103002222,新規,0,2023-10-10,2023-10-10,合同会社アライヴ,,合同会社,東京都,八王子市,別所２丁目１１番地２－５０３,,13,201,1920363,,,,,,,2023-10-10,1,,,,,アライヴ,0
27,1010401177591,新規,0,2023-10-10,2023-10-10,株式会社ＮＥＸＴ,,株式会社,東京都,港区,北青山２丁目７番２７号Ｐ’ｓＧＡＩＥＮＭＡＥ９Ｆ,,13,103,1070061,,,,,,,2023-10-10,1,,,,,ネクスト,0
28,1010401177641,新規,0,2023-10-10,2023-10-10,Ｄａｔａｌｏｇｙ株式会社,,株式会社,東京都,港区,芝大門２丁目１－１３芝大友ビル４Ｆ,,13,103,1050012,,,,,,,2023-10-10,1,,,,,データロジー,0
30,1010403031086,新規,0,2023-10-10,2023-10-10,合同会社ＣＴＬ,,合同会社,東京都,港区,白金６丁目１６番２５,,13,103,1080072,,,,,,,2023-10-10,1,,,,,シーティーエル,0
35,1010603010419,新規,0,2023-10-10,2023-10-10,合同会社コンドル,,合同会社,東京都,江東区,南砂２丁目９―５,,13,108,1360076,,,,,,,2023-10-10,1,,,,,コンドル,0
48,1011001157380,新規,0,2023-10-10,2023-10-10,ｕｌｅａｒｎ株式会社,,株式会社,東京都,渋谷区,道玄坂１丁目１０番８号渋谷道玄坂東急ビル２Ｆ－Ｃ,,13,113,1500043,,,,,,,2023-10-10,1,,,,,ユーラーン,0
49,1011001157414,新規,0,2023-10-10,2023-10-10,株式会社Ｌｉｍｅｒｅｎｃｅ　ＡＩ,,株式会社,東京都,渋谷区,恵比寿南３丁目１番１号いちご恵比寿グリーングラス,,13,113,1500022,,,,,,,2023-10-10,1,,,,,リメレンスエーアイ,0
50,1011001157430,新規,0,2023-10-10,2023-10-10,株式会社ようかん,,株式会社,東京都,渋谷区,恵比寿１丁目１９－１９恵比寿ビジネスタワー１０階,,13,113,1500013,,,,,,,2023-10-10,1,,,,,ヨウカン,0
51,1011001157439,新規,0,2023-10-10,2023-10-10,株式会社ＳｅａｓｉｄｅＬｉｎｋ,,株式会社,東京都,渋谷区,道玄坂１丁目１０番８号渋谷道玄坂東急ビル２Ｆ－Ｃ,,13,113,1500043,,,,,,,2023-10-10,1,,,,,シーサイドリンク,0
52,1011001157488,新規,0,2023-10-10,2023-10-10,ＵＮＬＥＡＳＨ　Ｃａｐｉｔａｌ　Ｐａｒｔｎｅｒｓ株式会社,,株式会社,東京都,渋谷区,千駄ヶ谷３丁目１４番５号,,13,113,1510051,,,,,,,2023-10-10,1,,,,,アンリーシュキャピタルパートナーズ,0
54,1011003017649,新規,0,2023-10-10,2023-10-10,合同会社チドリデザイン,,合同会社,東京都,目黒区,平町１丁目２６番１７号ソシアル都立大学６０５,,13,110,1520032,,,,,,,2023-10-10,1,,,,,チドリデザイン,0
55,1011003017673,新規,0,2023-10-10,2023-10-10,ＳｏａｒＳｏｃｉａｌ合同会社,,合同会社,東京都,渋谷区,宇田川町３－７ヒューリック渋谷公園通りビル５Ｆ－７５,,13,113,1500042,,,,,,,2023-10-10,1,,,,,ソアソーシャル,0
59,1011101104638,新規,0,2023-10-10,2023-10-10,株式会社ネクストドア,,株式会社,東京都,新宿区,高田馬場１丁目３１番８号高田馬場ダイカンプラザ８２３号,,13,104,1690075,,,,,,,2023-10-10,1,,,,,ネクストドア,0
60,1011101104670,新規,0,2023-10-10,2023-10-10,大丸商事株式会社,,株式会社,東京都,新宿区,西新宿３丁目３番１３号西新宿水間ビル２Ｆ,,13,104,1600023,,,,,,,2023-10-10,1,,,,,ダイマルショウジ,0
61,1011101104687,新規,0,2023-10-10,2023-10-10,Ｏｃｅａｎ　Ｋａｉ株式会社,,株式会社,東京都,新宿区,大久保１丁目１０－１０カーサビアンカ新宿１Ｆ,,13,104,1690072,,,,,,,2023-10-10,1,,,,,オーシャンカイ,0
67,1011701026645,新規,0,2023-10-10,2023-10-10,道一商事株式会社,,株式会社,東京都,江戸川区,瑞江１丁目１６番６号,,13,123,1320011,,,,,,,2023-10-10,1,,,,,ドウイチショウジ,0
79,1012401041075,新規,0,2023-10-10,2023-10-10,株式会社仁智,,株式会社,東京都,府中市,北山町２丁目２８番地の２４,,13,206,1830041,,,,,,,2023-10-10,1,,,,,ジンチ,0
91,1020001153769,新規,0,2023-10-10,2023-10-10,株式会社丸井企画,,株式会社,神奈川県,横浜市中区,扇町２丁目５番地１４,,14,104,2310027,,,,,,,2023-10-10,1,,,,,マルイキカク,0
100,1021001080359,新規,0,2023-10-10,2023-10-10,ソリスルクス株式会社,,株式会社,神奈川県,厚木市,上荻野８２５番地７,,14,212,2430201,,,,,,,2023-10-10,1,,,,,ソリスルクス,0
101,1021001080367,新規,0,2023-10-10,2023-10-10,株式会社ＡＳＪ,,株式会社,神奈川県,平塚市,西八幡３丁目４番１３－２号,,14,203,2540073,,,,,,,2023-10-10,1,,,,,エーエスジェイ,0
102,1021001080383,新規,0,2023-10-10,2023-10-10,ＢＵＩＬＤ株式会社,,株式会社,神奈川県,横須賀市,長井１丁目２３番１８号メゾン原田２０１,,14,201,2380316,,,,,,,2023-10-10,1,,,,,ビルド,0
103,1021001080391,新規,0,2023-10-10,2023-10-10,株式会社ＨＡＳＡＭＩ,,株式会社,神奈川県,逗子市,小坪３丁目１１番８号,,14,208,2490008,,,,,,,2023-10-10,1,,,,,ハサミ,0
106,1021005012903,新規,0,2023-10-10,2023-10-10,特定非営利活動法人ｍａ，ｉｃｃａにこにこ農園,,その他の設立登記法人,神奈川県,藤沢市,獺郷１２３４番地の１,,14,205,2520825,,,,,,,2023-10-10,1,,,,,マイッカニコニコノウエン,0
115,1030001156267,新規,0,2023-10-10,2023-10-10,いろいろ株式会社,,株式会社,埼玉県,狭山市,入間川２丁目３２番１０号ウインベルソロ狭山第四・２０８号室,,11,215,3501305,,,,,,,2023-10-10,1,,,,,イロイロ,0
116,1030001156317,新規,0,2023-10-10,2023-10-10,株式会社ＬｅｇＳｔａｒｔ,,株式会社,埼玉県,所沢市,くすのき台１丁目１３番地２号ガーデンシティ所沢２階,,11,208,3590037,,,,,,,2023-10-10,1,,,,,レッグスタート,0
117,1030001156333,新規,0,2023-10-10,2023-10-10,株式会社ＧＭＦ銀河,,株式会社,埼玉県,川口市,大字辻１０１０番地の１コスモシティ鳩ヶ谷駅前１００９号,00132177,11,203,3340004,,,,,,,2023-10-10,1,,,,,ジーエムエフギンガ,0
118,1030001156341,新規,0,2023-10-10,2023-10-10,ループ株式会社,,株式会社,埼玉県,さいたま市岩槻区,大字大野島１３５番地,,11,110,3390018,,,,,,,2023-10-10,1,,,,,ループ,0
119,1030001156440,新規,0,2023-10-10,2023-10-10,株式会社アイドル,,株式会社,埼玉県,深谷市,上柴町東４丁目１９番地７,,11,218,3660051,,,,,,,2023-10-10,1,,,,,アイドル,0
120,1030001156481,新規,0,2023-10-10,2023-10-10,株式会社ＶａＬＬＥＹ,,株式会社,埼玉県,所沢市,緑町１丁目１番６号グランドパレス２０２号,,11,208,3591111,,,,,,,2023-10-10,1,,,,,ヴァレイ,0
121,1030001156507,新規,0,2023-10-10,2023-10-10,株式会社彩喜サービス,,株式会社,埼玉県,さいたま市見沼区,大字山３２番地１,,11,104,3370025,,,,,,,2023-10-10,1,,,,,サイキサービス,0
122,1030001156515,新規,0,2023-10-10,2023-10-10,株式会社裕,,株式会社,埼玉県,戸田市,下戸田１丁目２番２－２０３号,,11,224,3350011,,,,,,,2023-10-10,1,,,,,ユウ,0
129,1030003022657,新規,0,2023-10-10,2023-10-10,合同会社Ｅ．ＳＴＹＬＥ,,合同会社,埼玉県,入間郡三芳町,みよし台１１番地２５,,11,324,3540042,,,,,,,2023-10-10,1,,,,,イースタイル,0
130,1030003022723,新規,0,2023-10-10,2023-10-10,合同会社Ｎａｔｔａ,,合同会社,埼玉県,さいたま市南区,別所５丁目１５番地２,,11,108,3360021,,,,,,,2023-10-10,1,,,,,ナッタ,0
132,1030005021434,新規,0,2023-10-10,2023-10-10,一般社団法人なつかしいミライ,,その他の設立登記法人,埼玉県,草加市,氷川町４０番地１・Ａ棟１０３,,11,221,3400034,,,,,,,2023-10-10,1,,,,,ナツカシイミライ,0
136,1040001130378,新規,0,2023-10-10,2023-10-10,株式会社プリート,,株式会社,千葉県,市川市,南行徳２丁目９番２８号ローズアパートメントＲ１６番館１０１,,12,203,2720138,,,,,,,2023-10-10,1,,,,,プリート,0
137,1040001130386,新規,0,2023-10-10,2023-10-10,ＴＩＳＳＯ　ＪＡＰＡＮ株式会社,,株式会社,千葉県,流山市,南流山６丁目９番地の８,,12,220,2700163,,,,,,,2023-10-10,1,,,,,ティッソジャパン,0
138,1040001130403,新規,0,2023-10-10,2023-10-10,株式会社ＭＢファシリティ,,株式会社,千葉県,柏市,高田１３８５番地１６,,12,217,2770861,,,,,,,2023-10-10,1,,,,,エムビーファシリティ,0
139,1040001130436,新規,0,2023-10-10,2023-10-10,株式会社９９,,株式会社,千葉県,千葉市中央区,本町１丁目７番９号,,12,101,2600012,,,,,,,2023-10-10,1,,,,,キュウキュウ,0
141,1040003023456,新規,0,2023-10-10,2023-10-10,住信総合管理合同会社,,合同会社,千葉県,市原市,青葉台２丁目５番メゾン青葉台８号棟４０１号室,,12,219,2990117,,,,,,,2023-10-10,1,,,,,スミシンソウゴウカンリ,0
142,1040003023489,新規,0,2023-10-10,2023-10-10,Ｆａｓｙａｒｅ合同会社,,合同会社,千葉県,旭市,鎌数１０９５１－８,,12,215,2892505,,,,,,,2023-10-10,1,,,,,ファシャレ,0
144,1050001053611,新規,0,2023-10-10,2023-10-10,アイルート株式会社,,株式会社,茨城県,筑西市,藤ケ谷１２３３番地３,,08,227,3080112,,,,,,,2023-10-10,1,,,,,アイルート,0
147,1060001036409,新規,0,2023-10-10,2023-10-10,株式会社森いちご農園,,株式会社,栃木県,大田原市,実取２９２－３,,09,210,3240045,,,,,,,2023-10-10,1,,,,,モリイチゴノウエン,0
148,1060001036417,新規,0,2023-10-10,2023-10-10,株式会社古口建機,,株式会社,栃木県,下都賀郡壬生町,大字壬生甲３８０３番地３３,,09,361,3210214,,,,,,,2023-10-10,1,,,,,コグチケンキ,0
151,1060005010137,新規,0,2023-10-10,2023-10-10,医療法人かがやく,,その他の設立登記法人,栃木県,宇都宮市,上戸祭町２８８番地１,,09,201,3200051,,,,,,,2023-10-10,1,,,,,カガヤク,0
162,1080003003066,新規,0,2023-10-10,2023-10-10,駿河宮合同会社,,合同会社,静岡県,島田市,高砂町６２４３番地の１,,22,209,4270054,,,,,,,2023-10-10,1,,,,,スルガミヤ,0
170,1090001018362,新規,0,2023-10-10,2023-10-10,株式会社チアアップ,,株式会社,山梨県,甲府市,東光寺１丁目７番８号,,19,201,4000807,,,,,,,2023-10-10,1,,,,,チアアップ,0
194,1120001258640,新規,0,2023-10-10,2023-10-10,株式会社蓮想,,株式会社,大阪府,守口市,大枝南町１７番１５号,,27,209,5700051,,,,,,,2023-10-10,1,,,,,レンソウ,0
195,1120001258649,新規,0,2023-10-10,2023-10-10,株式会社黒木工業,,株式会社,大阪府,大阪市淀川区,東三国６丁目２１番３号,,27,123,5320002,,,,,,,2023-10-10,1,,,,,クロキコウギョウ,0
196,1120001258707,新規,0,2023-10-10,2023-10-10,株式会社ネクスト経理,,株式会社,大阪府,大阪市北区,梅田１丁目２番２号大阪駅前第２ビル１２－１２,,27,127,5300001,,,,,,,2023-10-10,1,,,,,ネクストケイリ,0
206,1120901048133,新規,0,2023-10-10,2023-10-10,株式会社リレイラボ,,株式会社,大阪府,豊中市,服部西町３丁目１２－３１－２,,27,203,5610858,,,,,,,2023-10-10,1,,,,,リレイラボ,0
207,1120901048182,新規,0,2023-10-10,2023-10-10,株式会社Ｈ＆Ｍｃｏｍｐａｎｙ,,株式会社,大阪府,茨木市,西河原２丁目２１番３１号,,27,211,5670023,,,,,,,2023-10-10,1,,,,,エイチアンドエムカンパニー,0
211,1130001075449,新規,0,2023-10-10,2023-10-10,株式会社エムパワーズ,,株式会社,京都府,京都市下京区,五条通寺町西入ル御影堂町１６番地２１,,26,106,6000000,,,,,,,2023-10-10,1,,,,,エムパワーズ,0
220,1140001131829,新規,0,2023-10-10,2023-10-10,株式会社御食国牧場,,株式会社,兵庫県,淡路市,育波１８２３番地,,28,226,6561602,,,,,,,2023-10-10,1,,,,,ミケツクニボクジョウ,0
221,1140001131861,新規,0,2023-10-10,2023-10-10,株式会社ＸＣＥＬ,,株式会社,兵庫県,神戸市西区,平野町芝崎３４３番地の１,,28,111,6512254,,,,,,,2023-10-10,1,,,,,エクセル,0
222,1140001131886,新規,0,2023-10-10,2023-10-10,株式会社Ｋｕｏｎ,,株式会社,兵庫県,神戸市中央区,楠町３丁目３番７－１０２号,,28,110,6500017,,,,,,,2023-10-10,1,,,,,クオン,0
223,1140001131936,新規,0,2023-10-10,2023-10-10,株式会社ＬＩＧＨＴＳ,,株式会社,兵庫県,川西市,山原１丁目１７－３,,28,217,6660154,,,,,,,2023-10-10,1,,,,,ライト,0
227,1140003019626,新規,0,2023-10-10,2023-10-10,ＫＴＳ合同会社,,合同会社,兵庫県,西宮市,甲子園町４番１６－１０１号,,28,204,6638152,,,,,,,2023-10-10,1,,,,,ケイティーエス,0
231,1160003003000,新規,0,2023-10-10,2023-10-10,合同会社かばんばか,,合同会社,滋賀県,大津市,和邇高城字池ノ坊２８１番８,,25,201,5200528,,,,,,,2023-10-10,1,,,,,カバンバカ,0
234,1170001017827,新規,0,2023-10-10,2023-10-10,ゆみおグッドライフサポート株式会社,,株式会社,和歌山県,和歌山市,西浜１０１７番地７,,30,201,6410036,,,,,,,2023-10-10,1,,,,,ユミオグッドライフサポート,0
242,1180001158372,新規,0,2023-10-10,2023-10-10,株式会社ＳＡＥＫＩ,,株式会社,愛知県,一宮市,八幡３丁目９番１５号モアグレース一宮テラス２０１号,,23,203,4910903,,,,,,,2023-10-10,1,,,,,サエキ,0
259,1220001025626,新規,0,2023-10-10,2023-10-10,株式会社２０１クリエイテッド,,株式会社,石川県,白山市,富光寺町２１４番地,,17,210,9202165,,,,,,,2023-10-10,1,,,,,ニマルイチクリエイテッド,0
264,1240001062221,新規,0,2023-10-10,2023-10-10,株式会社ますしげ,,株式会社,広島県,福山市,東桜町１番３４－１００４号,,34,207,7200065,,,,,,,2023-10-10,1,,,,,マスシゲ,0
270,1250001020327,新規,0,2023-10-10,2023-10-10,株式会社高橋開発,00132176,株式会社,山口県,下関市,長府港町７番５号,,35,201,7520953,,,,,,,2023-10-10,1,,,,,タカハシカイハツ,0
273,1260001038384,新規,0,2023-10-10,2023-10-10,株式会社まる吉,,株式会社,岡山県,加賀郡吉備中央町,吉川４９２番地,,33,681,7161241,,,,,,,2023-10-10,1,,,,,マルキチ,0
282,1290001103128,新規,0,2023-10-10,2023-10-10,株式会社１３,,株式会社,福岡県,糸島市,前原中央２丁目１３－３糸島スタートアップガレージ,,40,230,8191116,,,,,,,2023-10-10,1,,,,,,0
283,1290001103276,新規,0,2023-10-10,2023-10-10,株式会社ＫＵＭＡＺＯＥ,,株式会社,福岡県,久留米市,国分町１５３６番地６２,,40,203,8390863,,,,,,,2023-10-10,1,,,,,クマゾエ,0
284,1290001103301,新規,0,2023-10-10,2023-10-10,藍紅株式会社,,株式会社,福岡県,福岡市東区,香椎照葉３丁目３番１号アイランドタワースカイクラブＣ棟３５２１号,,40,131,8130017,,,,,,,2023-10-10,1,,,,,ブルーアンドレッド,0
285,1290001103359,新規,0,2023-10-10,2023-10-10,株式会社ＡＭＡＮＢＥＲＲＹ,,株式会社,福岡県,福岡市中央区,天神４丁目６番２８号天神ファーストビル７階,,40,133,8100001,,,,,,,2023-10-10,1,,,,,アマンベリー,0
286,1290003014455,新規,0,2023-10-10,2023-10-10,合同会社バモス,,合同会社,福岡県,大野城市,大字牛頸１３５６－７－４０５,,40,219,8160971,,,,,,,2023-10-10,1,,,,,,0
289,1290801029935,新規,0,2023-10-10,2023-10-10,株式会社龍正,,株式会社,福岡県,北九州市八幡西区,黒崎２丁目３番１５－３０８号,,40,109,8060021,,,,,,,2023-10-10,1,,,,,リュウセイ,0
294,1320001020047,新規,0,2023-10-10,2023-10-10,株式会社双葉産業,,株式会社,大分県,大分市,城崎町３丁目２番３８－１４０１号,,44,201,8700045,,,,,,,2023-10-10,1,,,,,フタバサンギョウ,0
295,1320001020055,新規,0,2023-10-10,2023-10-10,株式会社ＮＯＩＥ,,株式会社,大分県,大分市,大字鴛野１０２２番地の２,,44,201,8701121,,,,,,,2023-10-10,1,,,,,ノイエ,0
296,1320001020063,新規,0,2023-10-10,2023-10-10,株式会社５１０,,株式会社,大分県,大分市,都町２丁目４番１３号,,44,201,8700034,,,,,,,2023-10-10,1,,,,,ゴーイチマル,0
300,1320003004196,新規,0,2023-10-10,2023-10-10,悠合同会社,,合同会社,大分県,大分市,三ケ田町１丁目３番１１号,,44,201,8700888,,,,,,,2023-10-10,1,,,,,ユウ,0
314,1360001032658,新規,0,2023-10-10,2023-10-10,株式会社ＥＭＭＡＲ,,株式会社,沖縄県,うるま市,石川２５８６あけぼの荘２０１号室,,47,213,9041106,,,,,,,2023-10-10,1,,,,,エマー,0
318,1380001034041,新規,0,2023-10-10,2023-10-10,株式会社ＹＧ,,株式会社,福島県,須賀川市,和田字新池４５－２Ｆ,,07,207,9620813,,,,,,,2023-10-10,1,,,,,ワイジー,0
320,1380003005585,新規,0,2023-10-10,2023-10-10,トータルサポート合同会社,,合同会社,福島県,郡山市,富久山町福原字鳴伊賀３０番地の８イディアル１０７号,,07,203,9638061,,,,,,,2023-10-10,1,,,,,トータルサポート,0
322,1400001016400,新規,0,2023-10-10,2023-10-10,株式会社寺林組,,株式会社,岩手県,盛岡市,寺林字梨木平７０番地,,03,201,0284122,,,,,,,2023-10-10,1,,,,,テラバヤシグミ,0
326,1430001090104,新規,0,2023-10-10,2023-10-10,株式会社あおもり建,,株式会社,北海道,札幌市北区,屯田八条２丁目９番３６－１０２号,,01,102,0020858,,,,,,,2023-10-10,1,,,,,アオモリケン,0
327,1430003015496,新規,0,2023-10-10,2023-10-10,合同会社平祥,,合同会社,北海道,札幌市北区,北十八条西６丁目２番８号,,01,102,0010018,,,,,,,2023-10-10,1,,,,,ヒラショウ,0
328,1430003015521,新規,0,2023-10-10,2023-10-10,合同会社足道北海道,,合同会社,北海道,札幌市北区,新琴似三条３丁目３－２０,,01,102,0010903,,,,,,,2023-10-10,1,,,,,アシドウホッカイドウ,0
329,1450001014110,新規,0,2023-10-10,2023-10-10,株式会社マルイ土井商事,,株式会社,北海道,紋別市,落石町３丁目４０番３８号,,01,219,0940007,,,,,,,2023-10-10,1,,,,,マルイドイショウジ,0
333,1480001012251,新規,0,2023-10-10,2023-10-10,株式会社アワーコネクト,,株式会社,徳島県,徳島市,万代町５丁目６番地の４ハイツ万代５－４Ｃ,,36,201,7700941,,,,,,,2023-10-10,1,,,,,アワーコネクト,0
335,1700150121152,新規,0,2023-10-10,2023-10-10,Ｚｏｗｉｅｔｅｋ　Ｅｌｅｃｔｒｏｎｉｃｓ，Ｌｔｄ．,,外国会社等,,,,,,,,Ｒｏｏｍ　４０５４，Ａｒｅａ　Ｄ，４ｔｈ　Ｆｌｏｏｒ，Ｎｏ．９８，　Ｌａｎｅ　９０１，Ｋａｎｇｙｅ　Ｒｏａｄ，Ｚｈｕｊｉａｊｉａｏ　Ｔｏｗｎ，Ｑｉｎｇｐｕ　Ｄｉｓｔｒｉｃｔ，Ｓｈａｎｇｈａｉ　２０１７１３　ＣＮ,,,,,,2023-10-10,1,,,,,ゾウェイテクイレクトゥロニクスリミテッド,0
336,1700150121160,新規,0,2023-10-10,2023-10-10,ｓｈａｎｇｈａｉｆｕｌｉｎｔｅｄｉａｎｚｉｓｈａｎｇｗｕ　ｙｏｕｘｉａｎｇｏｎｇｓｉ,,外国会社等,,,,,,,,Ｂｕｉｌｄｉｎｇ　５，Ｎｏ．５９，Ｘｉｂｅｉ　Ｒｏａｄ，Ｌｖｘｉａｎｇ　Ｔｏｗｎ，Ｊｉｎｓｈａｎ　Ｄｉｓｔｒｉｃｔ，Ｓｈａｎｇｈａｉ　（Ｓａｎｘｉｎ　Ｅｃｏｎｏｍｉｃ　Ｚｏｎｅ）２０１５００　ＣＮ,,,,,,2023-10-10,1,,,,,シャンハイフリンテデンシショウムヨウシェンゴンスー,0
344,2010001239072,新規,0,2023-10-10,2023-10-10,Ｔｗｉｇ株式会社,,株式会社,東京都,千代田区,九段南１丁目５番６号りそな九段ビル５Ｆ、ＫＳフロア,,13,101,1020074,,,,,,,2023-10-10,1,,,,,トゥイッグ,0
345,2010003041815,新規,0,2023-10-10,2023-10-10,Ｓ．Ｕ．ＯＲＴＨＯ合同会社,,合同会社,東京都,中央区,日本橋浜町３丁目１８番２－８０１号,,13,102,1030007,,,,,,,2023-10-10,1,,,,,エスユーオルソ,0
346,2010003041823,新規,0,2023-10-10,2023-10-10,日本橋合同会社,,合同会社,東京都,中央区,日本橋室町１丁目１１番１２日本橋水野ビル７階,,13,102,1030022,,,,,,,2023-10-10,1,,,,,ニホンバシ,0
347,2010003041864,新規,0,2023-10-10,2023-10-10,合同会社すずらん,,合同会社,東京都,中央区,八丁堀４丁目２番１０号ＡＯＪ税理士法人内,,13,102,1040032,,,,,,,2023-10-10,1,,,,,スズラン,0
348,2010003041897,新規,0,2023-10-10,2023-10-10,西郷太陽光発電所合同会社,,合同会社,東京都,千代田区,丸の内１丁目８番２号鉄鋼ビルディング４階,,13,101,1000005,,,,,,,2023-10-10,1,,,,,ニシゴウタイヨウコウハツデンショ,0
360,2010401177517,新規,0,2023-10-10,2023-10-10,株式会社永心,,株式会社,東京都,港区,浜松町１丁目２０番１１－３階,,13,103,1050013,,,,,,,2023-10-10,1,,,,,エイシン,0
361,2010401177632,新規,0,2023-10-10,2023-10-10,株式会社Ｐａｒａｄｉｓｅ　Ｃａｙ,,株式会社,東京都,港区,東麻布２丁目６番６号セントラル狸穴５０２,,13,103,1060044,,,,,,,2023-10-10,1,,,,,パラダイスケイ,0
362,2010403031060,新規,0,2023-10-10,2023-10-10,合同会社ＯｐｅｎＧａｌｌｅｒｙ,,合同会社,東京都,港区,西麻布４丁目１１番７号パークハウス麻布霞町４０２号,,13,103,1060031,,,,,,,2023-10-10,1,,,,,,0
363,2010403031085,新規,0,2023-10-10,2023-10-10,合同会社エストレヤ,,合同会社,東京都,港区,白金５丁目６番７号,,13,103,1080072,,,,,,,2023-10-10,1,,,,,エストレヤ,0
364,2010405022537,新規,0,2023-10-10,2023-10-10,税理士法人キャストグローバル,,その他の設立登記法人,東京都,港区,愛宕２丁目５番１号,,13,103,1050002,,,,,,,2023-10-10,1,,,,,キャストグローバル,0
365,2010405022553,新規,0,2023-10-10,2023-10-10,一般社団法人ＨＤＧ３８,,その他の設立登記法人,東京都,港区,虎ノ門３丁目２２番１０－２０１号,,13,103,1050001,,,,,,,2023-10-10,1,,,,,エイチディージースリーエイト,0
380,2011001157470,新規,0,2023-10-10,2023-10-10,株式会社ＤＲ,,株式会社,東京都,渋谷区,神南１丁目１０番５号ラ・ヴィスタ渋谷３Ｆ,,13,113,1500041,,,,,,,2023-10-10,1,,,,,ディーアール,0
382,2011003017672,新規,0,2023-10-10,2023-10-10,合同会社ＹＯＨＯ,,合同会社,東京都,渋谷区,道玄坂１丁目１０番８号渋谷道玄坂東急ビル２Ｆ－Ｃ,,13,113,1500043,,,,,,,2023-10-10,1,,,,,ヨーホー,0
383,2011003017697,新規,0,2023-10-10,2023-10-10,合同会社ｅｌｍｅｒ,,合同会社,東京都,目黒区,中根１丁目２－１０ドレッセ都立大学６０２,,13,110,1520031,,,,,,,2023-10-10,1,,,,,エルマー,0
389,2011101104645,新規,0,2023-10-10,2023-10-10,ＴＴＣ株式会社,,株式会社,東京都,新宿区,上落合１丁目８番１６号落合テラス１号館２０１号室,,13,104,1610034,,,,,,,2023-10-10,1,,,,,ティーティーシー,0
390,2011101104653,新規,0,2023-10-10,2023-10-10,ＯＳＦ株式会社,,株式会社,東京都,新宿区,東榎町２番地２,,13,104,1620807,,,,,,,2023-10-10,1,,,,,オーエスエフ,0
391,2011101104661,新規,0,2023-10-10,2023-10-10,株式会社木下不動産開発,,株式会社,東京都,新宿区,西新宿６丁目５番１号新宿アイランドタワー３０階,,13,104,1600023,,,,,,,2023-10-10,1,,,,,キノシタフドウサンカイハツ,0
392,2011103013571,新規,0,2023-10-10,2023-10-10,アウル合同会社,,合同会社,東京都,新宿区,箪笥町３１番地１箪笥町ＳＫビル２０１,00132174,13,104,1620833,,,,,,,2023-10-10,1,,,,,アウル,0
393,2011301029064,新規,0,2023-10-10,2023-10-10,エースプラン株式会社,,株式会社,東京都,杉並区,方南１丁目４９番６号,,13,115,1680062,,,,,,,2023-10-10,1,,,,,エースプラン,0
396,2011501029839,新規,0,2023-10-10,2023-10-10,守誠堂久卜製薬株式会社,,株式会社,東京都,北区,浮間１丁目７－２３兆豊浮間ビル５０２号室,,13,117,1150051,,,,,,,2023-10-10,1,,,,,シュセイドウキュウボクセイヤク,0
397,2011501029847,新規,0,2023-10-10,2023-10-10,株式会社スペイスアンドプレイス,,株式会社,東京都,荒川区,西尾久４丁目１２番１１号,,13,118,1160011,,,,,,,2023-10-10,1,,,,,スペイスアンドプレイス,0
403,2011701026636,新規,0,2023-10-10,2023-10-10,株式会社ワイズプロジェクトジャパン,,株式会社,東京都,江戸川区,南葛西５丁目９番３－３０３号ハイツクリーク,,13,123,1340085,,,,,,,2023-10-10,1,,,,,ワイズプロジェクトジャパン,0
404,2011701026644,新規,0,2023-10-10,2023-10-10,Ｓｕｎｆｌｏｗｅｒ　Ｊａｐａｎ株式会社,,株式会社,東京都,江戸川区,平井３丁目１７－３ＳＡＫＵＲＡ１階,,13,123,1320035,,,,,,,2023-10-10,1,,,,,サンフラワージャパン,0
408,2011803005876,新規,0,2023-10-10,2023-10-10,合同会社ライフ,,合同会社,東京都,葛飾区,西新小岩１丁目３－４－３０５,,13,122,1240025,,,,,,,2023-10-10,1,,,,,,0
410,2012401041090,新規,0,2023-10-10,2023-10-10,株式会社ｂａｄｉｃｈａｎ,,株式会社,東京都,調布市,多摩川５丁目２８番地７,,13,208,1820025,,,,,,,2023-10-10,1,,,,,,0
418,2020001153751,新規,0,2023-10-10,2023-10-10,株式会社ＳＭＩＬＥ　ＡＬＬ,,株式会社,神奈川県,横浜市中区,曙町４丁目５０番地,,14,104,2310057,,,,,,,2023-10-10,1,,,,,スマイルオール,0
419,2020001153801,新規,0,2023-10-10,2023-10-10,株式会社Ａｎｔｉｑｕｅ　Ｂｏｎｎｅ　Ｃｈａｎｃｅ,,株式会社,神奈川県,横浜市港南区,上大岡西３丁目４番４－１０８号,,14,111,2330002,,,,,,,2023-10-10,1,,,,,アンティークボンヌシャンス,0
422,2020005016137,新規,0,2023-10-10,2023-10-10,一般社団法人Ｓｍｉｌｅ,,その他の設立登記法人,神奈川県,横浜市金沢区,釜利谷西５丁目９番８号,,14,108,2360046,,,,,,,2023-10-10,1,,,,,,0
424,2021001080366,新規,0,2023-10-10,2023-10-10,株式会社サイドシックス,,株式会社,神奈川県,藤沢市,鵠沼海岸５丁目４番５－７号,,14,205,2510037,,,,,,,2023-10-10,1,,,,,サイドシックス,0
425,2021001080374,新規,0,2023-10-10,2023-10-10,株式会社Ｉ‐Ｓｔｙｌｅ,,株式会社,神奈川県,横須賀市,公郷町１丁目４３番地２３,,14,201,2380022,,,,,,,2023-10-10,1,,,,,アイスタイル,0
426,2021001080382,新規,0,2023-10-10,2023-10-10,株式会社ＴＲＭＳ,,株式会社,神奈川県,相模原市中央区,上溝１６５５番地１０,,14,152,2520243,,,,,,,2023-10-10,1,,,,,トリムス,0
427,2021001080399,新規,0,2023-10-10,2023-10-10,Ｋ‐ラインテック株式会社,,株式会社,神奈川県,相模原市緑区,下九沢１６８２番地７,,14,151,2520134,,,,,,,2023-10-10,1,,,,,ケーラインテック,0
430,2021003013654,新規,0,2023-10-10,2023-10-10,合同会社ブロックス,,合同会社,神奈川県,海老名市,柏ケ谷１０４０－５リステージかしわ台１３０３号,,14,215,2430402,,,,,,,2023-10-10,1,,,,,ブロックス,0
446,2030001156233,新規,0,2023-10-10,2023-10-10,株式会社ＮＢＳ,,株式会社,埼玉県,春日部市,米島１１９８番地１０１共栄レジデンス２０１,,11,214,3440115,,,,,,,2023-10-10,1,,,,,エヌビーエス,0
447,2030001156308,新規,0,2023-10-10,2023-10-10,アルファ・トレーディング株式会社,,株式会社,埼玉県,東松山市,箭弓町１丁目１１番７号ハイムグランデ東松山２階,,11,212,3550028,,,,,,,2023-10-10,1,,,,,アルファトレーディング,0
448,2030001156398,新規,0,2023-10-10,2023-10-10,株式会社リナース,,株式会社,埼玉県,東松山市,大字葛袋８１４,,11,212,3550061,,,,,,,2023-10-10,1,,,,,リナース,0
449,2030001156407,新規,0,2023-10-10,2023-10-10,株式会社Ｂｒａｉｎ　ｍｉｎｄ,,株式会社,埼玉県,本庄市,下野堂３丁目２６番９号,,11,211,3670063,,,,,,,2023-10-10,1,,,,,ブレインマインド,0
450,2030001156423,新規,0,2023-10-10,2023-10-10,株式会社ＬＭＯＲＥ,,株式会社,埼玉県,入間市,黒須１丁目１２番１－２２１号,,11,225,3580007,,,,,,,2023-10-10,1,,,,,エルモア,0
451,2030001156431,新規,0,2023-10-10,2023-10-10,株式会社ジャスティス,,株式会社,埼玉県,川越市,大字久下戸２７８４番地１,,11,201,3500011,,,,,,,2023-10-10,1,,,,,ジャスティス,0
452,2030001156448,新規,0,2023-10-10,2023-10-10,株式会社ＮＭＨ,,株式会社,埼玉県,さいたま市岩槻区,大字大野島１１０番地９,,11,110,3390018,,,,,,,2023-10-10,1,,,,,エヌエムエイチ,0
453,2030001156456,新規,0,2023-10-10,2023-10-10,株式会社ＣＯＲＥＳＨＩＰ,,株式会社,埼玉県,川越市,大字石田１８１－１５,,11,201,3500837,,,,,,,2023-10-10,1,,,,,コアシップ,0
454,2030001156464,新規,0,2023-10-10,2023-10-10,株式会社エムツー,,株式会社,埼玉県,草加市,青柳３丁目２４番７号,,11,221,3400002,,,,,,,2023-10-10,1,,,,,エムツー,0
455,2030001156489,新規,0,2023-10-10,2023-10-10,株式会社レピナール,,株式会社,埼玉県,新座市,北野２丁目１７番１５号,,11,230,3520003,,,,,,,2023-10-10,1,,,,,レピナール,0
456,2030001156506,新規,0,2023-10-10,2023-10-10,株式会社ＦＡＭＥＡＬ,,株式会社,埼玉県,さいたま市大宮区,桜木町２丁目３番地大宮マルイ７階,,11,103,3300854,,,,,,,2023-10-10,1,,,,,ファミール,0
457,2030001156514,新規,0,2023-10-10,2023-10-10,株式会社ベストプランニング,,株式会社,埼玉県,上尾市,愛宕１丁目１０番１０－４０７号,,11,219,3620034,,,,,,,2023-10-10,1,,,,,ベストプランニング,0
462,2030003022664,新規,0,2023-10-10,2023-10-10,合同会社ＨＫ,,合同会社,埼玉県,坂戸市,大字堀込８７番５号,,11,239,3500263,,,,,,,2023-10-10,1,,,,,エッチケイ,0
463,2030003022697,新規,0,2023-10-10,2023-10-10,合同会社ＬＧメンテナンス,,合同会社,埼玉県,川口市,東川口２丁目９番２２号アヴィオール１０４号,,11,203,3330801,,,,,,,2023-10-10,1,,,,,エルジーメンテナンス,0
464,2030003022706,新規,0,2023-10-10,2023-10-10,合同会社ＰＲ５５,,合同会社,埼玉県,さいたま市大宮区,桜木町２丁目３番地大宮マルイ７Ｆ,,11,103,3300854,,,,,,,2023-10-10,1,,,,,ピーアールゴジュウゴ,0
465,2030003022722,新規,0,2023-10-10,2023-10-10,合同会社ヤハギホームズ,,合同会社,埼玉県,川口市,領家２丁目２８番９号,,11,203,3320004,,,,,,,2023-10-10,1,,,,,ヤハギホームズ,0
470,2040001130360,新規,0,2023-10-10,2023-10-10,株式会社クマガヤ,,株式会社,千葉県,八千代市,緑が丘２丁目３４番１７号,,12,221,2760049,,,,,,,2023-10-10,1,,,,,クマガヤ,0
471,2040001130377,新規,0,2023-10-10,2023-10-10,株式会社フラワーズアセットマネジメント,,株式会社,千葉県,松戸市,根本８５－８第二京葉マンション３０４,,12,207,2710077,,,,,,,2023-10-10,1,,,,,フラワーズアセットマネジメント,0
472,2040001130427,新規,0,2023-10-10,2023-10-10,株式会社ＷＡＢＯＬＩ,,株式会社,千葉県,千葉市美浜区,打瀬１丁目９番地,,12,106,2610013,,,,,,,2023-10-10,1,,,,,ワボリ,0
481,2060001036416,新規,0,2023-10-10,2023-10-10,株式会社ハートブリッジ,,株式会社,栃木県,那須塩原市,三区町５３０番地１５４,,09,213,3292745,,,,,,,2023-10-10,1,,,,,ハートブリッジ,0
484,2070001040945,新規,0,2023-10-10,2023-10-10,株式会社エフラタ・グローバル,,株式会社,群馬県,伊勢崎市,八寸町４７４８番地１,,10,204,3792236,,,,,,,2023-10-10,1,,,,,エフラタグローバル,0
485,2070003005120,新規,0,2023-10-10,2023-10-10,合同会社ＢＨＵＴＴＡ　ＭＯＴＯＲ,,合同会社,群馬県,みどり市,笠懸町鹿２２７７－３セントラルハイツヨコツカパート４－２０３号室,,10,212,3792313,,,,,,,2023-10-10,1,,,,,ブッタモーター,0
511,2120001258623,新規,0,2023-10-10,2023-10-10,株式会社Ｉｎｃｅｎｓｅ,,株式会社,大阪府,大阪市北区,天神橋１丁目５－７ロジュマン２１０３,,27,127,5300041,,,,,,,2023-10-10,1,,,,,インセンス,0
512,2120001258689,新規,0,2023-10-10,2023-10-10,株式会社Ｄ・Ｓｙｎｅｒｇｙ,,株式会社,大阪府,守口市,金下町１丁目２番９－３０５号,,27,209,5700079,,,,,,,2023-10-10,1,,,,,ディーシナジー,0
513,2120001258697,新規,0,2023-10-10,2023-10-10,株式会社ガーネット,,株式会社,大阪府,大阪市住之江区,北加賀屋５丁目１番３－２６０３号,,27,125,5590011,,,,,,,2023-10-10,1,,,,,ガーネット,0
522,2120901048132,新規,0,2023-10-10,2023-10-10,株式会社グッドマナーズ,,株式会社,大阪府,茨木市,北春日丘４丁目８番５号の２,,27,211,5670048,,,,,,,2023-10-10,1,,,,,グッドマナーズ,0
523,2120901048157,新規,0,2023-10-10,2023-10-10,株式会社ラブセントラル,,株式会社,大阪府,池田市,神田１丁目２番２１号セントラルコート１０１,,27,204,5630043,,,,,,,2023-10-10,1,,,,,ラブセントラル,0
526,2122003002686,新規,0,2023-10-10,2023-10-10,合同会社Ｅｔｅｒｎａｌ,,合同会社,大阪府,八尾市,山本町南１丁目１０－２３大儀マンション１０２号,,27,212,5810013,,,,,,,2023-10-10,1,,,,,エターナル,0
527,2130001075456,新規,0,2023-10-10,2023-10-10,株式会社ＹＡＳ,,株式会社,京都府,京都市下京区,中堂寺粟田町９３番地ＫＲＰ４号館３階ＫＲＰＢＩＺＮＥＸＴ,,26,106,6008815,,,,,,,2023-10-10,1,,,,,ワイエイエス,0
528,2130001075472,新規,0,2023-10-10,2023-10-10,株式会社山本工業,,株式会社,京都府,向日市,鶏冠井町草田３２番地の１７,,26,208,6170004,,,,,,,2023-10-10,1,,,,,ヤマモトコウギョウ,0
529,2130003009024,新規,0,2023-10-10,2023-10-10,合同会社クラウン,,合同会社,京都府,京都市南区,吉祥院中河原里西町２９番地７,,26,107,6018393,,,,,,,2023-10-10,1,,,,,クラウン,0
541,2140001131844,新規,0,2023-10-10,2023-10-10,株式会社シサンディコーポレーション,,株式会社,兵庫県,神戸市北区,中里町２丁目２番地の１、７１１号,,28,109,6511103,,,,,,,2023-10-10,1,,,,,シサンディコーポレーション,0
542,2140001131860,新規,0,2023-10-10,2023-10-10,株式会社岩下工業,,株式会社,兵庫県,揖保郡太子町,矢田部９５番地１７,,28,464,6711522,,,,,,,2023-10-10,1,,,,,イワシタコウギョウ,0
543,2140001131877,新規,0,2023-10-10,2023-10-10,株式会社ｍｏｉｋｏｔｉ,,株式会社,兵庫県,宝塚市,旭町３丁目２０番２２号,,28,214,6650835,,,,,,,2023-10-10,1,,,,,モイコッティ,0
544,2140001131885,新規,0,2023-10-10,2023-10-10,株式会社ＣＸＯ,,株式会社,兵庫県,西宮市,高座町１４番２１号,,28,204,6620872,,,,,,,2023-10-10,1,,,,,シーエックスオー,0
545,2140001131893,新規,0,2023-10-10,2023-10-10,株式会社よつ葉,,株式会社,兵庫県,西宮市,南越木岩町１４番１７号,,28,204,6620075,,,,,,,2023-10-10,1,,,,,ヨツバ,0
546,2140001131919,新規,0,2023-10-10,2023-10-10,株式会社北神戸乗馬クラブ,,株式会社,兵庫県,伊丹市,昆陽東１丁目７番２３号,,28,207,6640886,,,,,,,2023-10-10,1,,,,,キタコウベジョウバクラブ,0
547,2140001131943,新規,0,2023-10-10,2023-10-10,株式会社翔叶,,株式会社,兵庫県,神戸市中央区,元町通２丁目１－１１,,28,110,6500022,,,,,,,2023-10-10,1,,,,,ショウカ,0
550,2140003019641,新規,0,2023-10-10,2023-10-10,令和新社瀧下企画合同会社,,合同会社,兵庫県,尼崎市,潮江２丁目２－７,,28,202,6610976,,,,,,,2023-10-10,1,,,,,レイワシンシャタキシタキカク,0
552,2150001026787,新規,0,2023-10-10,2023-10-10,株式会社野口造園土木,,株式会社,奈良県,大和高田市,大字根成柿１７１番地４,,29,202,6350051,,,,,,,2023-10-10,1,,,,,ノグチゾウエンドボク,0
555,2170001017826,新規,0,2023-10-10,2023-10-10,マイズ建設株式会社,,株式会社,和歌山県,和歌山市,栄谷６７０番地１７,,30,201,6408441,,,,,,,2023-10-10,1,,,,,マイズケンセツ,0
559,2180001158330,新規,0,2023-10-10,2023-10-10,株式会社ＥＣＳ,,株式会社,愛知県,春日井市,気噴町北１丁目５４番地,,23,206,4870015,,,,,,,2023-10-10,1,,,,,イーシーエス,0
560,2180001158355,新規,0,2023-10-10,2023-10-10,株式会社えいど,,株式会社,愛知県,尾張旭市,旭前町２丁目３番地２里水マンションＢ－６０７,,23,226,4880855,,,,,,,2023-10-10,1,,,,,エイド,0
561,2180001158363,新規,0,2023-10-10,2023-10-10,株式会社ＨＡホールディングス,,株式会社,愛知県,名古屋市中区,錦２丁目１１番２７号ＴＨ錦ビル３階,,23,106,4600003,,,,,,,2023-10-10,1,,,,,エイチエーホールディングス,0
569,2180301037861,新規,0,2023-10-10,2023-10-10,株式会社バンサンク,,株式会社,愛知県,刈谷市,高倉町３丁目６１１番地,,23,210,4480037,,,,,,,2023-10-10,1,,,,,バンサンク,0
573,2200001041797,新規,0,2023-10-10,2023-10-10,セイワ商事株式会社,,株式会社,岐阜県,大垣市,稲葉北２丁目１３番地,,21,202,5032226,,,,,,,2023-10-10,1,,,,,セイワショウジ,0
582,2240001062212,新規,0,2023-10-10,2023-10-10,株式会社ｈｅａｄｒｏｏｍ,,株式会社,広島県,庄原市,上原町１１５番地２,,34,210,7270022,,,,,,,2023-10-10,1,,,,,ヘッドルーム,0
584,2240003006365,新規,0,2023-10-10,2023-10-10,合同会社Ｊｏｙｏｕｓ,,合同会社,広島県,広島市中区,大手町２丁目６番９－５０２号,,34,101,7300051,,,,,,,2023-10-10,1,,,,,ジョイアス,0
588,2250001020326,新規,0,2023-10-10,2023-10-10,株式会社ＮＥＯＳＴＡＲＴ,,株式会社,山口県,岩国市,竹安４１５番地,,35,208,7400325,,,,,,,2023-10-10,1,,,,,ネオスタート,0
589,2260001038383,新規,0,2023-10-10,2023-10-10,トゥーリングウェーブ株式会社,,株式会社,岡山県,倉敷市,沖５３０番地１８,,33,202,7100836,,,,,,,2023-10-10,1,,,,,トゥーリングウェーブ,0
604,2290001103250,新規,0,2023-10-10,2023-10-10,株式会社セラピストパーク,,株式会社,福岡県,三潴郡大木町,大字大角１５５８番地３,,40,522,8300403,,,,,,,2023-10-10,1,,,,,セラピストパーク,0
605,2290001103291,新規,0,2023-10-10,2023-10-10,株式会社プリスティン,,株式会社,福岡県,福岡市東区,香椎駅前２丁目１５番２１号,,40,131,8130013,,,,,,,2023-10-10,1,,,,,プリスティン,0
606,2290001103309,新規,0,2023-10-10,2023-10-10,不動産屋株式会社,,株式会社,福岡県,福岡市早良区,早良２丁目１６番３号,,40,137,8111122,,,,,,,2023-10-10,1,,,,,フドウサンヤ,0
607,2290003014446,新規,0,2023-10-10,2023-10-10,合同会社ＮＮＲＮ,,合同会社,福岡県,八女市,黒木町笠原１０３１５番地１,,40,210,8341222,,,,,,,2023-10-10,1,,,,,エヌエヌアールエヌ,0
608,2290003014454,新規,0,2023-10-10,2023-10-10,合同会社オリーブ,,合同会社,福岡県,久留米市,上津町１８３２番地,,40,203,8300052,,,,,,,2023-10-10,1,,,,,オリーブ,0
610,2290801029942,新規,0,2023-10-10,2023-10-10,株式会社櫂斗産業,,株式会社,福岡県,京都郡苅田町,富久町２丁目２番地１,,40,621,8000352,,,,,,,2023-10-10,1,,,,,カイトサンギョウ,0
615,2320001020054,新規,0,2023-10-10,2023-10-10,大富株式会社,,株式会社,大分県,大分市,府内町２丁目３番２５号コスモビル２階,,44,201,8700021,,,,,,,2023-10-10,1,,,,,オオトミ,0
616,2320001020062,新規,0,2023-10-10,2023-10-10,株式会社コネクトリンク,,株式会社,大分県,大分市,上宗方南２丁目１２番５号,,44,201,8701167,,,,,,,2023-10-10,1,,,,,コネクトリンク,0
617,2330001031281,新規,0,2023-10-10,2023-10-10,株式会社Ｃ＆Ｂ,,株式会社,熊本県,熊本市中央区,花畑町１番１４号Ａ＆ＭＨＡＮＡＢＡＴＡ３０１号,,43,101,8600806,,,,,,,2023-10-10,1,,,,,,0
629,2350001018608,新規,0,2023-10-10,2023-10-10,株式会社プロテクトホームズ,,株式会社,宮崎県,都城市,郡元町３３２５番地１１,,45,202,8850013,,,,,,,2023-10-10,1,,,,,プロテクトホームズ,0
632,2350003004457,新規,0,2023-10-10,2023-10-10,合同会社お茶の南崎,00132189,合同会社,宮崎県,宮崎市,花ケ島町赤江町１３２２番地１小田原コーポ１０２号,,45,201,8800036,,,,,,,2023-10-10,1,,,,,オチャノミナミザキ,0
635,2360001032649,新規,0,2023-10-10,2023-10-10,株式会社大衆カンパニー,,株式会社,沖縄県,那覇市,字安里３８６番地,,47,201,9020067,,,,,,,2023-10-10,1,,,,,タイシュウカンパニー,0
641,2400001016399,新規,0,2023-10-10,2023-10-10,及川製材所株式会社,,株式会社,岩手県,胆沢郡金ケ崎町,永栄下田谷前１１番地１,,03,381,0294505,,,,,,,2023-10-10,1,,,,,オイカワセイザイショ,0
642,2410003003849,新規,0,2023-10-10,2023-10-10,合同会社ＬＦＣ,,合同会社,秋田県,秋田市,桜４丁目２番２２号,,05,201,0100042,,,,,,,2023-10-10,1,,,,,エルエフシー,0
648,2430001090152,新規,0,2023-10-10,2023-10-10,株式会社Ｚａｓｙｕ,,株式会社,北海道,札幌市手稲区,手稲本町二条２丁目４番２０－６０１号,,01,109,0060022,,,,,,,2023-10-10,1,,,,,ザッシュ,0
649,2430001090160,新規,0,2023-10-10,2023-10-10,株式会社誠商事,,株式会社,北海道,伊達市,末永町１３２番地２,,01,233,0520021,,,,,,,2023-10-10,1,,,,,マコトショウジ,0
660,2480001012242,新規,0,2023-10-10,2023-10-10,株式会社天野産業,,株式会社,徳島県,阿南市,上中町中原７６番地２,,36,204,7740044,,,,,,,2023-10-10,1,,,,,アマノサンギョウ,0
664,2700150121151,新規,0,2023-10-10,2023-10-10,Ｓｈａｎｇｈａｉ　ＤｏｎｇｈａｏＬｖ　ｈｕｉｚｈａｎｆｕｗｕｙｏｕｘｉａｎｇｏｎｇｓｉ,,外国会社等,,,,,,,,ｌｖｈｕａｚｈｅｎｆｕｈｕａｌｕ７９ｈａｏ９ｚｈｕａｎｇ２０６ｓｈｉ（Ｓｈａｎｇｈａｉ　ｌｖｈｕａｊｉｎｇｊｉｋａｉｆａｑｕ）ｃｈｏｎｇｍｉｎｇ　ｓｈａｎｇｈａｉ　２０２１５１　ＣＮ,,,,,,2023-10-10,1,,,,,シャンハイドンハオルフイザンフウヨウシェンゴンスー,0
665,2700150121168,新規,0,2023-10-10,2023-10-10,Ｊｉａｎｇｙｏｕｓｈｉｎｉｕｗｅｉｆｕｋｅｊｉｙｏｕｘｉａｎｇｏｎｇｓｉ,,外国会社等,,,,,,,,ｌｕｓｈａｎｌｕｚｈｏｎｇｄｕａｎ６９ｈａｏ　Ｚｈｏｎｇｙａｎｇｄａｄａｏｓａｎｑｉ　Ｌｉｎｇｙｕ　７ｚｈｕａｎｇ　１ｄａｎｙｕａｎ　５ｃｅｎｇ２ｈａｏ　Ｍｉａｎｙａｎｇｓｈｉ　Ｊｉａｎｇｙｏｕｓｈｉ　Ｓｉｃｈｕａｎ　６２１７００　ＣＮ,,,,,,2023-10-10,1,,,,,ジャンヨウシニィウウェイフゥカージヨウシェンゴンスー,0
671,3010001238908,新規,0,2023-10-10,2023-10-10,株式会社ＣｏｎｎｅｃｔＰｅｔ,,株式会社,東京都,中央区,銀座４丁目１３番１１号松竹倶楽部ビル４Ｆ,,13,102,1040061,,,,,,,2023-10-10,1,,,,,コネクトペット,0
672,3010001238949,新規,0,2023-10-10,2023-10-10,バイロンホールディングス株式会社,,株式会社,東京都,千代田区,丸の内２丁目６番１号丸の内パークビルディング５階,,13,101,1000005,,,,,,,2023-10-10,1,,,,,バイロンホールディングス,0
673,3010001239022,新規,0,2023-10-10,2023-10-10,株式会社Ｇｏｌｌｕｍ,,株式会社,東京都,千代田区,神田淡路町１丁目３番地１,,13,101,1010063,,,,,,,2023-10-10,1,,,,,ゴラム,0
674,3010001239039,新規,0,2023-10-10,2023-10-10,株式会社ポラリスキャリア,,株式会社,東京都,中央区,日本橋茅場町２丁目８番１号ＢＲＩＣＫＧＡＴＥ茅場町３階１２号室,,13,102,1030025,,,,,,,2023-10-10,1,,,,,ポラリスキャリア,0
675,3010001239055,新規,0,2023-10-10,2023-10-10,株式会社ネクサフロー,,株式会社,東京都,中央区,銀座１丁目１２番４号Ｎ＆ＥＢＬＤ．６Ｆ,,13,102,1040061,,,,,,,2023-10-10,1,,,,,ネクサフロー,0
676,3010001239096,新規,0,2023-10-10,2023-10-10,ＪＪＬ株式会社,,株式会社,東京都,千代田区,神田三崎町２丁目１０番１１号５Ａ－５,,13,101,1010061,,,,,,,2023-10-10,1,,,,,ジェイジェイエル,0
685,3010003041896,新規,0,2023-10-10,2023-10-10,杵築２太陽光発電所合同会社,,合同会社,東京都,千代田区,丸の内１丁目８番２号鉄鋼ビルディング４階,,13,101,1000005,,,,,,,2023-10-10,1,,,,,キツキツータイヨウコウハツデンショ,0
700,3010401177581,新規,0,2023-10-10,2023-10-10,株式会社Ｔｏｐ　Ｇ,,株式会社,東京都,港区,西麻布４丁目１０番９号ＦＬＡＴＳ．Ｙ．２０１,,13,103,1060031,,,,,,,2023-10-10,1,,,,,トップジー,0
701,3010401177631,新規,0,2023-10-10,2023-10-10,アドネーション株式会社,,株式会社,東京都,港区,白金２丁目５番２０－１６０３号,,13,103,1080072,,,,,,,2023-10-10,1,,,,,アドネーション,0
704,3010403031092,新規,0,2023-10-10,2023-10-10,合同会社サイファー,,合同会社,東京都,港区,南青山２丁目２番１５号ウィン青山１２１４号,,13,103,1070062,,,,,,,2023-10-10,1,,,,,サイファー,0
705,3010405022569,新規,0,2023-10-10,2023-10-10,ＪＭヒドラ一般社団法人,,その他の設立登記法人,東京都,港区,六本木１丁目９番１０号アークヒルズ仙石山森タワー４０階,,13,103,1060032,,,,,,,2023-10-10,1,,,,,ジェイエムヒドラ,0
712,3010701044944,新規,0,2023-10-10,2023-10-10,安和株式会社,,株式会社,東京都,品川区,大井５丁目１番１８号,,13,109,1400014,,,,,,,2023-10-10,1,,,,,アンワ,0
713,3010701044952,新規,0,2023-10-10,2023-10-10,株式会社さわやか飛行機,,株式会社,東京都,品川区,西五反田４丁目１８番７号ＮＥＸＵＳ西五反田３０２,,13,109,1410031,,,,,,,2023-10-10,1,,,,,サワヤカヒコウキ,0
715,3010801034399,新規,0,2023-10-10,2023-10-10,株式会社一歩舎,,株式会社,東京都,大田区,雪谷大塚町１８番２１号,,13,111,1450067,,,,,,,2023-10-10,1,,,,,イッポシャ,0
716,3010901053951,新規,0,2023-10-10,2023-10-10,株式会社ＳＵＮサポート,,株式会社,東京都,世田谷区,三宿１丁目４番８号コートやよい３０３,,13,112,1540005,,,,,,,2023-10-10,1,,,,,サンサポート,0
718,3010903008508,新規,0,2023-10-10,2023-10-10,合同会社三茶エステートラボ,,合同会社,東京都,世田谷区,三軒茶屋１丁目２３番５号,,13,112,1540024,,,,,,,2023-10-10,1,,,,,サンチャエステートラボ,0
722,3011001157395,新規,0,2023-10-10,2023-10-10,株式会社バーテック,,株式会社,東京都,渋谷区,円山町５番５号Ｎａｖｉ渋谷Ｖ３階,,13,113,1500044,,,,,,,2023-10-10,1,,,,,バーテック,0
723,3011001157404,新規,0,2023-10-10,2023-10-10,株式会社ＫＥＹ　Ｄｅｓｉｇｎ,,株式会社,東京都,渋谷区,道玄坂１丁目１０番８号渋谷道玄坂東急ビル２Ｆ－Ｃ,,13,113,1500043,,,,,,,2023-10-10,1,,,,,キーデザイン,0
724,3011001157412,新規,0,2023-10-10,2023-10-10,株式会社ブレインクエスト,,株式会社,東京都,渋谷区,桜丘町２６－１セルリアンタワー１５Ｆ,,13,113,1500031,,,,,,,2023-10-10,1,,,,,ブレインクエスト,0
725,3011001157429,新規,0,2023-10-10,2023-10-10,株式会社ビザコン,,株式会社,東京都,渋谷区,神南１丁目１０番８号エフビル５階,,13,113,1500041,,,,,,,2023-10-10,1,,,,,ビザコン,0
726,3011001157445,新規,0,2023-10-10,2023-10-10,株式会社Ｃａｎａｐ,,株式会社,東京都,渋谷区,渋谷２丁目１９－１５宮益坂ビルディング６０９,,13,113,1500002,,,,,,,2023-10-10,1,,,,,キャナップ,0
729,3011003017671,新規,0,2023-10-10,2023-10-10,イッキュウ合同会社,,合同会社,東京都,渋谷区,道玄坂１丁目１０番８号渋谷道玄坂東急ビル２Ｆ－Ｃ,,13,113,1500043,,,,,,,2023-10-10,1,,,,,イッキュウ,0
733,3011101104644,新規,0,2023-10-10,2023-10-10,株式会社Ｖｏｙａｇｅｓｔｏｎ,,株式会社,東京都,新宿区,西新宿３丁目３番１３号西新宿水間ビル２Ｆ,,13,104,1600023,,,,,,,2023-10-10,1,,,,,ボヤジストン,0
734,3011301029055,新規,0,2023-10-10,2023-10-10,株式会社ＬＤＫ,,株式会社,東京都,杉並区,西荻南１丁目１９番２４号ネオドゥエル西荻窪４０４,,13,115,1670053,,,,,,,2023-10-10,1,,,,,エルディーケー,0
735,3011305002941,新規,0,2023-10-10,2023-10-10,コンパスみらい税理士法人,,その他の設立登記法人,東京都,杉並区,上荻１丁目２１番２３号,,13,115,1670043,,,,,,,2023-10-10,1,,,,,コンパスミライ,0
743,3011703003616,新規,0,2023-10-10,2023-10-10,合同会社エーワン,,合同会社,東京都,江戸川区,東小岩５丁目３６番３号,,13,123,1330052,,,,,,,2023-10-10,1,,,,,エーワン,0
746,3012303001885,新規,0,2023-10-10,2023-10-10,合同会社ありがとね,,合同会社,東京都,町田市,能ヶ谷１丁目５番２号Ａｐｐｌｅ・Ｓｔｕｄｉｏ・ｆｌａｔｓ７０６,,13,209,1950053,,,,,,,2023-10-10,1,,,,,アリガトネ,0
757,3013303006825,新規,0,2023-10-10,2023-10-10,ＴＰＬＵＳ合同会社,,合同会社,東京都,豊島区,南大塚２丁目４３－１ゆう・もあマンション２０４,,13,116,1700005,,,,,,,2023-10-10,1,,,,,ティプラス,0
761,3020001153833,新規,0,2023-10-10,2023-10-10,ＹＢＰ株式会社,,株式会社,神奈川県,横浜市旭区,今宿町２６６０－１,,14,112,2410813,,,,,,,2023-10-10,1,,,,,ワイビーピー,0
763,3020003024710,新規,0,2023-10-10,2023-10-10,ブローノ合同会社,,合同会社,神奈川県,横浜市港北区,下田町３丁目６－１４,,14,109,2230064,,,,,,,2023-10-10,1,,,,,ブローノ,0
767,3021001080299,新規,0,2023-10-10,2023-10-10,タイムテック株式会社,,株式会社,神奈川県,茅ヶ崎市,香川６丁目１８番１７号,,14,207,2530082,,,,,,,2023-10-10,1,,,,,タイムテック,0
768,3021001080357,新規,0,2023-10-10,2023-10-10,株式会社Ｐｅｒｆｅｃｔ　Ｋｉｓｓ,,株式会社,神奈川県,藤沢市,片瀬２丁目２番３３号ライオンズガーデン湘南片瀬山１０２,,14,205,2510032,,,,,,,2023-10-10,1,,,,,パーフェクトキッス,0
769,3021001080365,新規,0,2023-10-10,2023-10-10,ベジ・フルーツ川口株式会社,,株式会社,神奈川県,藤沢市,大庭５５８９番地の８,,14,205,2510861,,,,,,,2023-10-10,1,,,,,ベジフルーツカワグチ,0
770,3021001080373,新規,0,2023-10-10,2023-10-10,株式会社ねごと,,株式会社,神奈川県,藤沢市,本町３丁目１２番９号,,14,205,2510053,,,,,,,2023-10-10,1,,,,,ネゴト,0
771,3021001080381,新規,0,2023-10-10,2023-10-10,ＫＴＵ株式会社,,株式会社,神奈川県,座間市,栗原１３８４番地,,14,216,2520013,,,,,,,2023-10-10,1,,,,,ケーティーユー,0
772,3021001080423,新規,0,2023-10-10,2023-10-10,株式会社旭建総,,株式会社,神奈川県,茅ヶ崎市,萩園３２００番地－１０３,,14,207,2530071,,,,,,,2023-10-10,1,,,,,アサヒケンソウ,0
774,3021003013653,新規,0,2023-10-10,2023-10-10,合同会社ＭＫワークス,,合同会社,神奈川県,茅ヶ崎市,浜須賀８－３７,,14,207,2530035,,,,,,,2023-10-10,1,,,,,エムエーワークス,0
779,3030001156240,新規,0,2023-10-10,2023-10-10,株式会社武田エアテック,,株式会社,埼玉県,さいたま市見沼区,大字丸ヶ崎１６２４番地３,,11,104,3370001,,,,,,,2023-10-10,1,,,,,タケダエアテック,0
780,3030001156315,新規,0,2023-10-10,2023-10-10,株式会社日本住建,,株式会社,埼玉県,さいたま市桜区,大字上大久保７０９番地１,,11,106,3380824,,,,,,,2023-10-10,1,,,,,ニホンジュウケン,0
781,3030001156348,新規,0,2023-10-10,2023-10-10,株式会社ハタエ不動産管理,,株式会社,埼玉県,川越市,石原町２丁目５２番地１６,,11,201,3500824,,,,,,,2023-10-10,1,,,,,ハタエフドウサンカンリ,0
782,3030001156406,新規,0,2023-10-10,2023-10-10,大鵬興業株式会社,,株式会社,埼玉県,川口市,大字里１１８７番地の１８,,11,203,3340005,,,,,,,2023-10-10,1,,,,,タイホウコウギョウ,0
783,3030001156422,新規,0,2023-10-10,2023-10-10,ＧＬ株式会社,,株式会社,埼玉県,川口市,仲町１１番１７号,,11,203,3320022,,,,,,,2023-10-10,1,,,,,ジーエル,0
784,3030001156439,新規,0,2023-10-10,2023-10-10,株式会社パステルホールディングス,,株式会社,埼玉県,久喜市,古久喜９２４番地５,,11,232,3460001,,,,,,,2023-10-10,1,,,,,パステルホールディングス,0
785,3030001156447,新規,0,2023-10-10,2023-10-10,株式会社ＦＵＫＵＨＡＲＡ,,株式会社,埼玉県,草加市,青柳６丁目３２番１７号,,11,221,3400002,,,,,,,2023-10-10,1,,,,,フクハラ,0
786,3030001156455,新規,0,2023-10-10,2023-10-10,Ｌｉｂｅｒｔｙ株式会社,,株式会社,埼玉県,さいたま市大宮区,桜木町１丁目２６６番地３シンワＫＩビル２Ｆ,,11,103,3300854,,,,,,,2023-10-10,1,,,,,リバティー,0
787,3030001156488,新規,0,2023-10-10,2023-10-10,株式会社栗原,,株式会社,埼玉県,さいたま市大宮区,寿能町１丁目１２１番地２６―４２２号,,11,103,3300805,,,,,,,2023-10-10,1,,,,,クリハラ,0
788,3030001156496,新規,0,2023-10-10,2023-10-10,株式会社Ａｎｙ,,株式会社,埼玉県,行田市,持田５丁目１７番５号,,11,206,3610056,,,,,,,2023-10-10,1,,,,,エニー,0
789,3030001156505,新規,0,2023-10-10,2023-10-10,株式会社ＳＵＭＩＴＯ,,株式会社,埼玉県,東松山市,松山町２丁目４番５９号,,11,212,3550018,,,,,,,2023-10-10,1,,,,,スミト,0
790,3030001156513,新規,0,2023-10-10,2023-10-10,ＩＮＳＰＩＲＥ　ＴＥＣＨ株式会社,,株式会社,埼玉県,さいたま市中央区,下落合２丁目１０番５号,,11,105,3380002,,,,,,,2023-10-10,1,,,,,インスパイアテック,0
791,3030001156538,新規,0,2023-10-10,2023-10-10,遠藤資材株式会社,,株式会社,埼玉県,富士見市,大字勝瀬１６１６番地１,,11,235,3540031,,,,,,,2023-10-10,1,,,,,エンドウシザイ,0
796,3030003022705,新規,0,2023-10-10,2023-10-10,グッドラック合同会社,,合同会社,埼玉県,蕨市,北町２丁目１－１ブライト蕨北町２０２,,11,223,3350001,,,,,,,2023-10-10,1,,,,,グッドラック,0
797,3030003022721,新規,0,2023-10-10,2023-10-10,合同会社タイシン,,合同会社,埼玉県,所沢市,三ケ島２丁目６６０番地の６,,11,208,3591164,,,,,,,2023-10-10,1,,,,,タイシン,0
803,3040001130319,新規,0,2023-10-10,2023-10-10,株式会社ＣａｌｌｅＮ,,株式会社,千葉県,流山市,おおたかの森東４丁目１８－１０,,12,220,2700138,,,,,,,2023-10-10,1,,,,,カレン,0
804,3040001130384,新規,0,2023-10-10,2023-10-10,株式会社石橋工務店,,株式会社,千葉県,富里市,御料９７８番地パストラル１０５,,12,233,2860211,,,,,,,2023-10-10,1,,,,,イシバシコウムテン,0
805,3040001130401,新規,0,2023-10-10,2023-10-10,リハビリスタッフバンク株式会社,,株式会社,千葉県,茂原市,町保１０番地２,,12,210,2970022,,,,,,,2023-10-10,1,,,,,リハビリスタッフバンク,0
806,3040001130418,新規,0,2023-10-10,2023-10-10,Ｓｋｙｌｉｎｅ株式会社,,株式会社,千葉県,木更津市,中里２丁目６番２号,,12,206,2920064,,,,,,,2023-10-10,1,,,,,スカイライン,0
808,3040003023487,新規,0,2023-10-10,2023-10-10,合同会社ボーンキュアリング,,合同会社,千葉県,船橋市,藤原３丁目１２番１０号,,12,204,2730047,,,,,,,2023-10-10,1,,,,,ボーンキュアリング,0
809,3040005022149,新規,0,2023-10-10,2023-10-10,税理士法人横畑会計,,その他の設立登記法人,千葉県,成田市,三里塚御料１番地１２９１,,12,211,2860116,,,,,,,2023-10-10,1,,,,,ヨコハタカイケイ,0
811,3050003007844,新規,0,2023-10-10,2023-10-10,八郷合同会社,,合同会社,茨城県,石岡市,山崎９６７,,08,205,3150125,,,,,,,2023-10-10,1,,,,,ヤサト,0
813,3060005010135,新規,0,2023-10-10,2023-10-10,医療法人小菅胃腸外科クリニック,00132179,その他の設立登記法人,栃木県,真岡市,熊倉３丁目２１番地３,,09,209,3214369,,,,,,,2023-10-10,1,,,,,コスゲイチョウゲカクリニック,0
818,3070001040944,新規,0,2023-10-10,2023-10-10,株式会社Ｎａｓｕｋａ,,株式会社,群馬県,太田市,飯塚町１０８０－３,,10,205,3730817,,,,,,,2023-10-10,1,,,,,ナスカ,0
830,3090001018369,新規,0,2023-10-10,2023-10-10,小川クリーン株式会社,,株式会社,山梨県,甲斐市,中下条７０番地４フレグランス保坂１０１,,19,210,4000124,,,,,,,2023-10-10,1,,,,,オガワクリーン,0
834,3110001037903,新規,0,2023-10-10,2023-10-10,株式会社Ｒオフィス,,株式会社,新潟県,新発田市,城北町２丁目９番２２号,,15,206,9570051,,,,,,,2023-10-10,1,,,,,アールオフィス,0
835,3110001037911,新規,0,2023-10-10,2023-10-10,レイドバック株式会社,,株式会社,新潟県,新発田市,富塚町３丁目３番２７号,,15,206,9570062,,,,,,,2023-10-10,1,,,,,レイドバック,0
843,3120001258639,新規,0,2023-10-10,2023-10-10,株式会社甘水興業,,株式会社,大阪府,枚方市,星丘３丁目３０番１８号,,27,210,5730013,,,,,,,2023-10-10,1,,,,,アマミズコウギョウ,0
844,3120001258655,新規,0,2023-10-10,2023-10-10,株式会社ＣＲＥＳＣＥＮＴ,,株式会社,大阪府,大阪市阿倍野区,松崎町３丁目１番２１号パークハイツ阿倍野,,27,119,5450053,,,,,,,2023-10-10,1,,,,,クレセント,0
845,3120001258663,新規,0,2023-10-10,2023-10-10,株式会社Ｆｒｏｎｔマネジメントサービス,,株式会社,大阪府,大阪市天王寺区,上本町５丁目５番１５号３Ｆ,,27,109,5430001,,,,,,,2023-10-10,1,,,,,フロントマネジメントサービス,0
846,3120001258713,新規,0,2023-10-10,2023-10-10,株式会社ＡＧＵＲＡ,,株式会社,大阪府,大阪市北区,梅田１丁目２番２号大阪駅前第２ビル１２－１２,,27,127,5300001,,,,,,,2023-10-10,1,,,,,アグラ,0
848,3120003025054,新規,0,2023-10-10,2023-10-10,ＢＲＩＣＯＬＡＧＥ合同会社,,合同会社,大阪府,大阪市北区,梅田１丁目２番２号大阪駅前第２ビル１２－１２,,27,127,5300001,,,,,,,2023-10-10,1,,,,,ブリコラージュ,0
851,3120101068351,新規,0,2023-10-10,2023-10-10,株式会社アルファ代行,,株式会社,大阪府,泉大津市,東豊中町３丁目４－５－２０１号,,27,206,5950021,,,,,,,2023-10-10,1,,,,,アルファダイコウ,0
853,3120103005476,新規,0,2023-10-10,2023-10-10,合同会社富貴,,合同会社,大阪府,羽曳野市,はびきの７丁目５３１番地の５（１０３）,,27,222,5830872,,,,,,,2023-10-10,1,,,,,フウキ,0
854,3120105009772,新規,0,2023-10-10,2023-10-10,一般社団法人マイレージ協会,,その他の設立登記法人,大阪府,松原市,天美北５丁目３番１０号,,27,217,5800031,,,,,,,2023-10-10,1,,,,,マイレージキョウカイ,0
857,3120901048148,新規,0,2023-10-10,2023-10-10,株式会社ナカイ,,株式会社,大阪府,摂津市,桜町１丁目４番６号,,27,224,5660032,,,,,,,2023-10-10,1,,,,,ナカイ,0
872,3140001131827,新規,0,2023-10-10,2023-10-10,株式会社Ｓｏｌｅａｄ,,株式会社,兵庫県,神戸市西区,伊川谷町有瀬３１８番地,,28,111,6512113,,,,,,,2023-10-10,1,,,,,ソリード,0
873,3140001131835,新規,0,2023-10-10,2023-10-10,株式会社ラストフォート,,株式会社,兵庫県,神戸市東灘区,青木２丁目１０番１３－１０３号,,28,101,6580027,,,,,,,2023-10-10,1,,,,,ラストフォート,0
874,3140001131868,新規,0,2023-10-10,2023-10-10,株式会社ＬＩＦＩＸ,,株式会社,兵庫県,たつの市,揖西町南山１丁目６１番地,,28,229,6794016,,,,,,,2023-10-10,1,,,,,リフィックス,0
875,3140001131876,新規,0,2023-10-10,2023-10-10,アクアメット・インキュベーター株式会社,,株式会社,兵庫県,神戸市東灘区,本庄町２丁目９番５号,,28,101,6580012,,,,,,,2023-10-10,1,,,,,アクアメットインキュベーター,0
876,3140001131901,新規,0,2023-10-10,2023-10-10,株式会社ＴＭＦ　ＩＮＳＩＧＨＴ,,株式会社,兵庫県,神戸市垂水区,松風台１丁目７番２８号,,28,108,6550871,,,,,,,2023-10-10,1,,,,,ティーエムエフインサイト,0
877,3140001131918,新規,0,2023-10-10,2023-10-10,株式会社サンモーブ,,株式会社,兵庫県,高砂市,荒井町若宮町１２番地の２２,,28,216,6760018,,,,,,,2023-10-10,1,,,,,サンモーブ,0
878,3140001131934,新規,0,2023-10-10,2023-10-10,株式会社くじらスマイル,,株式会社,兵庫県,西宮市,甲陽園目神山町２９－１５,,28,204,6620011,,,,,,,2023-10-10,1,,,,,クジラスマイル,0
879,3140001131959,新規,0,2023-10-10,2023-10-10,ジオン株式会社,,株式会社,兵庫県,神戸市中央区,中尾町２番１－４０４号,,28,110,6510057,,,,,,,2023-10-10,1,,,,,ジオン,0
886,3150001026786,新規,0,2023-10-10,2023-10-10,西大寺土地建物株式会社,,株式会社,奈良県,奈良市,大宮町１丁目１３３番５－２０２号室,,29,201,6308115,,,,,,,2023-10-10,1,,,,,サイダイジトチタテモノ,0
890,3160001025399,新規,0,2023-10-10,2023-10-10,株式会社つるかめ介護,,株式会社,滋賀県,大津市,国分２丁目１番２１号,,25,201,5200844,,,,,,,2023-10-10,1,,,,,ツルカメカイゴ,0
891,3160003003007,新規,0,2023-10-10,2023-10-10,合同会社ＩｖｙＲｉｎｇ,,合同会社,滋賀県,草津市,木川町１２３０番地７５,,25,206,5250051,,,,,,,2023-10-10,1,,,,,アイビーリング,0
908,3180001158338,新規,0,2023-10-10,2023-10-10,株式会社ＺＥＲＯ,,株式会社,愛知県,名古屋市守山区,緑ヶ丘５０６番地,,23,113,4630009,,,,,,,2023-10-10,1,,,,,ゼロ,0
912,3180003025825,新規,0,2023-10-10,2023-10-10,Ｔ‐ＲＯＡＬ合同会社,,合同会社,愛知県,名古屋市緑区,諸の木２丁目２９０３,,23,114,4580817,,,,,,,2023-10-10,1,,,,,ティーロエル,0
918,3180305009518,新規,0,2023-10-10,2023-10-10,ＡＯＩ税理士法人,,その他の設立登記法人,愛知県,岡崎市,青木町２１番地１０,,23,202,4442131,,,,,,,2023-10-10,1,,,,,アオイ,0
925,3200001041805,新規,0,2023-10-10,2023-10-10,鉄人工業株式会社,,株式会社,岐阜県,岐阜市,日野東８丁目１４－１,,21,201,5008211,,,,,,,2023-10-10,1,,,,,テツジンコウギョウ,0
931,3240001062228,新規,0,2023-10-10,2023-10-10,株式会社Ｃ．Ｎ．Ｇ,,株式会社,広島県,福山市,大門町１丁目４９番６号,,34,207,7210926,,,,,,,2023-10-10,1,,,,,シーエヌジー,0
932,3240001062236,新規,0,2023-10-10,2023-10-10,株式会社Ａｘｉｏｓ,,株式会社,広島県,福山市,瀬戸町大字地頭分４１５番地３,,34,207,7200837,,,,,,,2023-10-10,1,,,,,アクシオス,0
933,3240001062252,新規,0,2023-10-10,2023-10-10,株式会社莉工建設,,株式会社,広島県,福山市,神辺町字道上１２３７番地６,,34,207,7202104,,,,,,,2023-10-10,1,,,,,リコウケンセツ,0
936,3240003006356,新規,0,2023-10-10,2023-10-10,ナスタデザイン合同会社,,合同会社,広島県,広島市安佐南区,長束２丁目１番２０号,,34,105,7310135,,,,,,,2023-10-10,1,,,,,ナスタデザイン,0
937,3240003006364,新規,0,2023-10-10,2023-10-10,合同会社五藤,,合同会社,広島県,広島市安芸区,阿戸町５７３５,,34,107,7314231,,,,,,,2023-10-10,1,,,,,,0
939,3240005015660,新規,0,2023-10-10,2023-10-10,一般社団法人広島県鳥獣対策等地域支援機構,,その他の設立登記法人,広島県,東広島市,高屋町杵原３９９８番地１３１,,34,212,7392102,,,,,,,2023-10-10,1,,,,,ヒロシマケンチョウジュウタイサクトウチイキシエンキコウ,0
952,3290001103233,新規,0,2023-10-10,2023-10-10,株式会社ながお,,株式会社,福岡県,小郡市,二森２７１番地３,,40,216,8380126,,,,,,,2023-10-10,1,,,,,ナガオ,0
953,3290001103308,新規,0,2023-10-10,2023-10-10,株式会社三声舎,,株式会社,福岡県,福岡市中央区,今川２丁目１４番１２号,,40,133,8100054,,,,,,,2023-10-10,1,,,,,サンセイシャ,0
954,3290001103316,新規,0,2023-10-10,2023-10-10,株式会社ムー・アセット,,株式会社,福岡県,福岡市西区,豊浜１丁目１７番８号,,40,135,8190014,,,,,,,2023-10-10,1,,,,,ムーアセット,0
955,3290001103324,新規,0,2023-10-10,2023-10-10,株式会社Ｒ　ＭＥＴＡＬ,,株式会社,福岡県,福岡市博多区,麦野２丁目１６番１５号,,40,132,8120882,,,,,,,2023-10-10,1,,,,,アールメタル,0
958,3290003014453,新規,0,2023-10-10,2023-10-10,合同会社サンフラワー,,合同会社,福岡県,久留米市,上津町１８３２番地,,40,203,8300052,,,,,,,2023-10-10,1,,,,,サンフラワー,0
959,3290003014461,新規,0,2023-10-10,2023-10-10,合同会社ｌｉｂｅｒｔｙ,,合同会社,福岡県,福岡市博多区,博多駅前２丁目１７番１号博多プレステージ本館１Ｆ,,40,132,8120011,,,,,,,2023-10-10,1,,,,,リバティ,0
962,3320001020053,新規,0,2023-10-10,2023-10-10,株式会社たまゆら,,株式会社,大分県,大分市,高松１丁目４番２４号,,44,201,8700917,,,,,,,2023-10-10,1,,,,,タマユラ,0
964,3320003004194,新規,0,2023-10-10,2023-10-10,合同会社憩いの森介護タクシー,,合同会社,大分県,由布市,挾間町大字田代６１８番地,,44,213,8795400,,,,,,,2023-10-10,1,,,,,イコイノモリカイゴタクシー,0
965,3330001031330,新規,0,2023-10-10,2023-10-10,株式会社ライフサポートＳｍｉｌｅ,,株式会社,熊本県,菊池郡大津町,大字杉水３４１０番地６２,,43,403,8691236,,,,,,,2023-10-10,1,,,,,ライフサポートスマイル,0
967,3340001025967,新規,0,2023-10-10,2023-10-10,株式会社リアン,,株式会社,鹿児島県,霧島市,国分重久６７６番地４,,46,218,8994301,,,,,,,2023-10-10,1,,,,,リアン,0
972,3350003004448,新規,0,2023-10-10,2023-10-10,合同会社児玉防災,,合同会社,宮崎県,児湯郡高鍋町,大字持田２７０３番地１,,45,401,8840005,,,,,,,2023-10-10,1,,,,,コダマボウサイ,0
989,3420001018426,新規,0,2023-10-10,2023-10-10,株式会社中村ファーム,,株式会社,青森県,上北郡七戸町,字榎林家ノ前１１２番地２,,02,402,0392755,,,,,,,2023-10-10,1,,,,,ナカムラファーム,0
992,3430001090151,新規,0,2023-10-10,2023-10-10,株式会社ｎｕｙ,,株式会社,北海道,札幌市中央区,北五条西１１丁目１５－４,,01,101,0600005,,,,,,,2023-10-10,1,,,,,ヌイ,0
994,3430003015511,新規,0,2023-10-10,2023-10-10,合同会社アライブセカンド,,合同会社,北海道,札幌市南区,南ノ沢六条二丁目４－５,,01,106,0050000,,,,,,,2023-10-10,1,,,,,アライブセカンド,0
996,3440003001551,新規,0,2023-10-10,2023-10-10,合同会社市川裕輔,,合同会社,北海道,函館市,昭和１丁目２９番２号,,01,202,0410812,,,,,,,2023-10-10,1,,,,,イチカワユウスケ,0
1003,3700150121150,新規,0,2023-10-10,2023-10-10,ＳＨＥＮＺＨＥＮ　ＲＯＮＧＭＵ　ＴＥＣＨ　ＣＯ．，ＬＴＤ,,外国会社等,,,,,,,,５Ｆ　ＮＯ４２　ＸＩＮＷＥＩＳＴＲＥＥＴ　ＤＡＦＥＮＹＯＵＨＵＡＣＯＵＮＴＲＹ　ＢＵＪＩＳＴＲＥＥＴ　ＬＯＮＧＧＡＮＧＤＩＳＴＲＩＣＴ　ＳＨＥＮＺＨＥＮＣＩＴＹ　５１８０００　ＣＮ,,,,,,2023-10-10,1,,,,,シンセンヨンムテックカンパニーリミテッド,0
1004,3700150121159,新規,0,2023-10-10,2023-10-10,ｄｏｎｇｇｕａｎｓｈｉａｏｍａｉｔｅｎｇｄｉａｎｚｉｋｅｊｉ　ｙｏｕｘｉａｎｇｏｎｇｓｉ,,外国会社等,,,,,,,,ｈｕｍｅｎｚｈｅｎ　ｂｏｙｏｎｇｓｈｅｑｕ　ｌｉａｎｓｈｅｎｇｂｅｉｌｕ３８８ｈａｏｈｕｍｅｎｗａｎｄａｇｕａｎｇｃｈａｎｇ３ｚｈｕａｎｇｂａｎｇｏｎｇｌｏｕ２２０７ｈａｏ　ｄｏｎｇｇｕａｎ　５２３９００　ＣＮ,,,,,,2023-10-10,1,,,,,トウカンシアオマイテンデンシカギヨウシェンゴンスー,0
1005,3700150121167,新規,0,2023-10-10,2023-10-10,Ｘｉａｍｅｎ　Ｙｕｎｚｈｏｎｇｈｕｉ　Ｅｌｅｃｔｒｏｎｉｃ　Ｃｏｍｍｅｒｃｅ　Ｃｏ．，Ｌｔｄ,,外国会社等,,,,,,,,Ｒｏｏｍ　Ｄ００６０，Ｕｎｉｔ　１９０１，Ｎｏ．９－１，Ｘｉａｙａｎｇ　Ｓｏｕｔｈ　Ｒｏａｄ　Ｈａｉｃａｎｇ　Ｄｉｓｔｒｉｃｔ，Ｘｉａｍｅｎ，Ｆｕｊｉａｎ　３６１０２６　ＣＮ,,,,,,2023-10-10,1,,,,,シャアメンユンジョンホイディエンズーシャンウヨウシェンゴンスー,0
1015,4010001239062,新規,0,2023-10-10,2023-10-10,株式会社Ｓａｎｄｂｏｘ,,株式会社,東京都,中央区,日本橋茅場町１丁目４－５ワナミビル３階,,13,102,1030025,,,,,,,2023-10-10,1,,,,,サンドボックス,0
1016,4010001239070,新規,0,2023-10-10,2023-10-10,株式会社Ｋ‐ＷＯＲＫＳ,,株式会社,東京都,中央区,日本橋箱崎町４１番６－８０８号,,13,102,1030015,,,,,,,2023-10-10,1,,,,,ケイワークス,0
1017,4010001239087,新規,0,2023-10-10,2023-10-10,株式会社ＳＰＡＲＫ,,株式会社,東京都,中央区,日本橋室町１丁目１１番１２号日本橋水野ビル７階,,13,102,1030022,,,,,,,2023-10-10,1,,,,,スパーク,0
1019,4010003041821,新規,0,2023-10-10,2023-10-10,合同会社Ｄｏｕｂｌｅ　Ｆｅａｔｈｅｒ　Ｖｅｎｔｕｒ,,合同会社,東京都,千代田区,内幸町２丁目１－１飯野ビルディング９階,,13,101,1000011,,,,,,,2023-10-10,1,,,,,ダブルフェザーベンチャーズ,0
1020,4010003041879,新規,0,2023-10-10,2023-10-10,セントラルヴィレッジ合同会社,,合同会社,東京都,中央区,日本橋室町１丁目１１番１２号日本橋水野ビル７階,,13,102,1030022,,,,,,,2023-10-10,1,,,,,セントラルヴィレッジ,0
1025,4010401177589,新規,0,2023-10-10,2023-10-10,株式会社Ｆｌｏｖｅｒ,,株式会社,東京都,港区,浜松町２丁目２番１５号ダイヤビル２Ｆ,,13,103,1050013,,,,,,,2023-10-10,1,,,,,プロバー,0
1026,4010401177597,新規,0,2023-10-10,2023-10-10,株式会社ＳＯＩＣＯコンサルティング,,株式会社,東京都,港区,新橋２丁目１３番８号新橋東和ビル４階,,13,103,1050004,,,,,,,2023-10-10,1,,,,,ソイココンサルティング,0
1027,4010401177614,新規,0,2023-10-10,2023-10-10,ＡＬＧＯ株式会社,,株式会社,東京都,港区,北青山２丁目１１番１５号,,13,103,1070061,,,,,,,2023-10-10,1,,,,,アルゴ,0
1028,4010401177663,新規,0,2023-10-10,2023-10-10,株式会社アットセーフティ,,株式会社,東京都,港区,南青山１丁目１５番９号第４５興和ビル,,13,103,1070062,,,,,,,2023-10-10,1,,,,,アットセーフティ,0
1033,4010703006900,新規,0,2023-10-10,2023-10-10,ダンボカンパニー合同会社,,合同会社,東京都,品川区,上大崎２丁目１０番３４－４－４１５号,,13,109,1410021,,,,,,,2023-10-10,1,,,,,ダンボカンパニー,0
1035,4010801034398,新規,0,2023-10-10,2023-10-10,株式会社高栄智史建築設計,,株式会社,東京都,大田区,西蒲田３丁目２１番５号Ｇ棟,,13,111,1440051,,,,,,,2023-10-10,1,,,,,タカエサトシケンチクセッケイ,0
1041,4010905004537,新規,0,2023-10-10,2023-10-10,一般社団法人日本画観国際美術研究院,,その他の設立登記法人,東京都,世田谷区,深沢１丁目１８番７号,,13,112,1580081,,,,,,,2023-10-10,1,,,,,ニホンガカンコクサイビジュツケンキュウイン,0
1045,4011001157304,新規,0,2023-10-10,2023-10-10,Ｓｔｕｄｉｏ　Ｗｉｌｌ株式会社,,株式会社,東京都,渋谷区,宇田川町３６－２２ノア渋谷パートＩＩ１００１,00132175,13,113,1500042,,,,,,,2023-10-10,1,,,,,スタジオウィル,0
1046,4011001157386,新規,0,2023-10-10,2023-10-10,Ｒｅｖｉｓｅ　Ｃａｐｉｔａｌ　Ｐａｒｔｎｅｒｓ株式会社,,株式会社,東京都,渋谷区,幡ヶ谷１丁目２番２号京王幡ヶ谷ビル４階,,13,113,1510072,,,,,,,2023-10-10,1,,,,,リバイズキャピタルパートナーズ,0
1047,4011001157394,新規,0,2023-10-10,2023-10-10,株式会社ＳＦＨ,,株式会社,東京都,渋谷区,笹塚２丁目４１番１５号アニモ笹塚１Ｆ,00132180,13,113,1510073,,,,,,,2023-10-10,1,,,,,エスエフエイチ,0
1048,4011001157403,新規,0,2023-10-10,2023-10-10,株式会社ＨＥＲＭコンサルティング,,株式会社,東京都,渋谷区,道玄坂１丁目１０番８号渋谷道玄坂東急ビル２Ｆ－Ｃ,,13,113,1500043,,,,,,,2023-10-10,1,,,,,ヘルムコンサルティング,0
1049,4011001157428,新規,0,2023-10-10,2023-10-10,アーケアン株式会社,,株式会社,東京都,渋谷区,渋谷２丁目１９－１５宮益坂ビルディング６０９,,13,113,1500002,,,,,,,2023-10-10,1,,,,,アーケアン,0
1050,4011001157444,新規,0,2023-10-10,2023-10-10,ＬｅＢｉＸ株式会社,,株式会社,東京都,目黒区,自由が丘２丁目１６番１２号ＲＪ３,,13,110,1520035,,,,,,,2023-10-10,1,,,,,リビックス,0
1051,4011001157493,新規,0,2023-10-10,2023-10-10,株式会社プロビデンス,,株式会社,東京都,目黒区,目黒本町４丁目１４番１２号,,13,110,1520002,,,,,,,2023-10-10,1,,,,,プロビデンス,0
1052,4011003017670,新規,0,2023-10-10,2023-10-10,ＳＤＭ合同会社,,合同会社,東京都,渋谷区,神宮前６丁目２３番４号桑野ビル２階,,13,113,1500001,,,,,,,2023-10-10,1,,,,,エスディーエム,0
1053,4011003017679,新規,0,2023-10-10,2023-10-10,ＬｉｆｅＰａｌ合同会社,,合同会社,東京都,渋谷区,道玄坂１丁目１６－６二葉ビル８ｂ,,13,113,1500043,,,,,,,2023-10-10,1,,,,,ライフパル,0
1055,4011101104676,新規,0,2023-10-10,2023-10-10,株式会社ＸＲＯＳＳ　ＭＯＤＥ,,株式会社,東京都,新宿区,高田馬場４丁目４番１３号アルプスビル高田馬場３０３号室,,13,104,1690075,,,,,,,2023-10-10,1,,,,,クロスモード,0
1056,4011103013586,新規,0,2023-10-10,2023-10-10,合同会社ＣＬＡＲＵＳ,,合同会社,東京都,新宿区,新宿２丁目９－２２－２０８,,13,104,1600022,,,,,,,2023-10-10,1,,,,,クラルス,0
1057,4011301029062,新規,0,2023-10-10,2023-10-10,タッチコンサルティング株式会社,,株式会社,東京都,杉並区,久我山３丁目３５番２９号,,13,115,1680082,,,,,,,2023-10-10,1,,,,,タッチコンサルティング,0
1058,4011303004930,新規,0,2023-10-10,2023-10-10,合同会社三島企画,,合同会社,東京都,杉並区,下高井戸１丁目１８番２１号ダイホープラザ桜上水４０６,,13,115,1680073,,,,,,,2023-10-10,1,,,,,ミシマキカク,0
1059,4011401025465,新規,0,2023-10-10,2023-10-10,株式会社ＰＲＩＳＳ,,株式会社,東京都,板橋区,南町２９番１１号,,13,119,1730027,,,,,,,2023-10-10,1,,,,,プリス,0
1060,4011403004137,新規,0,2023-10-10,2023-10-10,合同会社Ｗｅｌｌ‐ｂｅｉｎｇ,,合同会社,東京都,板橋区,南常盤台１丁目２６番１２号ルミナス幸和７０２,,13,119,1740072,,,,,,,2023-10-10,1,,,,,ウェルビーイング,0
1062,4011501029853,新規,0,2023-10-10,2023-10-10,株式会社マロー,,株式会社,東京都,北区,滝野川６丁目２１番７－１７０５号,,13,117,1140023,,,,,,,2023-10-10,1,,,,,マロー,0
1063,4011503005778,新規,0,2023-10-10,2023-10-10,合同会社ＡＯＺＯＲＡ　ＢＲＥＷＩＮＧ,,合同会社,東京都,荒川区,荒川１丁目２９－１４クレア荒川区役所前２０４,,13,118,1160002,,,,,,,2023-10-10,1,,,,,アオゾラブルーイング,0
1070,4012403006222,新規,0,2023-10-10,2023-10-10,合同会社ＭＩＨ,,合同会社,東京都,狛江市,猪方３丁目１４番２４号ハレナネア２０１,,13,219,2010015,,,,,,,2023-10-10,1,,,,,,0
1085,4020001153683,新規,0,2023-10-10,2023-10-10,株式会社ｔｒａｎｓｉｔｉｏｎ,,株式会社,神奈川県,横浜市保土ケ谷区,東川島町１９番地１９松山ビル１Ｆ,,14,106,2400041,,,,,,,2023-10-10,1,,,,,トランジション,0
1095,4021001080364,新規,0,2023-10-10,2023-10-10,株式会社ＣＯＷ,,株式会社,神奈川県,藤沢市,南藤沢９番９号,,14,205,2510055,,,,,,,2023-10-10,1,,,,,シーオーダブリュー,0
1096,4021001080372,新規,0,2023-10-10,2023-10-10,株式会社ＢＥＬＬ　ＴＲＥＥ．,,株式会社,神奈川県,相模原市南区,松が枝町１４番１７号カステル相模原３０１号室,,14,153,2520313,,,,,,,2023-10-10,1,,,,,ベルツリー,0
1097,4021001080380,新規,0,2023-10-10,2023-10-10,株式会社秀和建創,,株式会社,神奈川県,綾瀬市,寺尾南３丁目２５番２１号,,14,218,2521134,,,,,,,2023-10-10,1,,,,,シュウワケンソウ,0
1100,4021003013652,新規,0,2023-10-10,2023-10-10,合同会社ビー・ジェイ・アイ,,合同会社,神奈川県,高座郡寒川町,宮山３１２２番地２,,14,321,2530106,,,,,,,2023-10-10,1,,,,,ビージェイアイ,0
1107,4030001156264,新規,0,2023-10-10,2023-10-10,株式会社木木企画,,株式会社,埼玉県,志木市,下宗岡４丁目１８－２６－３Ｆ,,11,228,3530003,,,,,,,2023-10-10,1,,,,,モクモクキカク,0
1108,4030001156405,新規,0,2023-10-10,2023-10-10,タカセコンサルタンツ株式会社,,株式会社,埼玉県,東松山市,五領町５番地１１,,11,212,3550031,,,,,,,2023-10-10,1,,,,,タカセコンサルタンツ,0
1109,4030001156413,新規,0,2023-10-10,2023-10-10,株式会社ＨＡＴＡＫＥＮＩ　ＩＫＯ,,株式会社,埼玉県,鴻巣市,広田３３０６,,11,217,3650005,,,,,,,2023-10-10,1,,,,,ハタケニイコ,0
1110,4030001156446,新規,0,2023-10-10,2023-10-10,株式会社４ｓｔｒｅｎｇＸ,,株式会社,埼玉県,戸田市,新曽南２丁目１３番２６号,,11,224,3350026,,,,,,,2023-10-10,1,,,,,フォーストレングス,0
1111,4030001156454,新規,0,2023-10-10,2023-10-10,株式会社レッツＭＡＫＥ,,株式会社,埼玉県,三郷市,中央５丁目７番地２,,11,237,3410038,,,,,,,2023-10-10,1,,,,,レッツメイク,0
1112,4030001156462,新規,0,2023-10-10,2023-10-10,株式会社ＣＫＳ,,株式会社,埼玉県,所沢市,緑町２丁目３番４号,,11,208,3591111,,,,,,,2023-10-10,1,,,,,シーケーエス,0
1113,4030001156470,新規,0,2023-10-10,2023-10-10,株式会社愛和総建,,株式会社,埼玉県,飯能市,大字双柳５６番地５４,,11,209,3570021,,,,,,,2023-10-10,1,,,,,アイワソウケン,0
1114,4030001156487,新規,0,2023-10-10,2023-10-10,株式会社Ｍｕｓｅｕｍ,,株式会社,埼玉県,川口市,西川口１丁目５－２０－４Ｆ,,11,203,3320021,,,,,,,2023-10-10,1,,,,,ミュージアム,0
1115,4030001156495,新規,0,2023-10-10,2023-10-10,株式会社イレーネ,,株式会社,埼玉県,春日部市,大枝９４２番地２３,,11,214,3440023,,,,,,,2023-10-10,1,,,,,イレーネ,0
1126,4030003022654,新規,0,2023-10-10,2023-10-10,合同会社モック,,合同会社,埼玉県,加須市,麦倉１５８番地１３ハイツヴァンティアンＣ棟２０２号,,11,210,3491212,,,,,,,2023-10-10,1,,,,,モック,0
1127,4030003022662,新規,0,2023-10-10,2023-10-10,合同会社スターフォレスト,,合同会社,埼玉県,さいたま市大宮区,桜木町２丁目３番地大宮マルイ７階,,11,103,3300854,,,,,,,2023-10-10,1,,,,,スターフォレスト,0
1128,4030003022720,新規,0,2023-10-10,2023-10-10,ＲＩＳＥ合同会社,,合同会社,埼玉県,越谷市,蒲生茜町９番地２－Ａ２０２,,11,222,3430843,,,,,,,2023-10-10,1,,,,,ライズ,0
1133,4040001130400,新規,0,2023-10-10,2023-10-10,株式会社縁,,株式会社,千葉県,浦安市,猫実４丁目１９－８ツリーハウス２Ｄ,,12,227,2790004,,,,,,,2023-10-10,1,,,,,エン,0
1134,4040001130417,新規,0,2023-10-10,2023-10-10,株式会社東海実業,,株式会社,千葉県,白井市,西白井１丁目１３－１７,,12,232,2701408,,,,,,,2023-10-10,1,,,,,トウカイジツギョウ,0
1143,4040003023429,新規,0,2023-10-10,2023-10-10,合同会社市森企画,,合同会社,千葉県,市原市,国分寺台中央５丁目１４番地１２,,12,219,2900073,,,,,,,2023-10-10,1,,,,,イチモリキカク,0
1144,4040003023461,新規,0,2023-10-10,2023-10-10,合同会社ＩＥＳコーポレーション,,合同会社,千葉県,鴨川市,貝渚２８４３番地,,12,223,2960004,,,,,,,2023-10-10,1,,,,,アイイーエスコーポレーション,0
1145,4040003023494,新規,0,2023-10-10,2023-10-10,奈良コンサルティング合同会社,,合同会社,千葉県,習志野市,津田沼２丁目１２番１０号・グランドメゾン津田沼８０７,,12,216,2750016,,,,,,,2023-10-10,1,,,,,ナラコンサルティング,0
1146,4040003023503,新規,0,2023-10-10,2023-10-10,合同会社ＦＡサービス,,合同会社,千葉県,印旛郡酒々井町,東酒々井３丁目３番１５トゥ・セゾン１０２号,,12,322,2850923,,,,,,,2023-10-10,1,,,,,エフエーサービス,0
1148,4050001053591,新規,0,2023-10-10,2023-10-10,株式会社Ｆｒｅｅ,,株式会社,茨城県,つくば市,古来１４６２番地３,,08,220,3050021,,,,,,,2023-10-10,1,,,,,フリー,0
1149,4050001053600,新規,0,2023-10-10,2023-10-10,ＡＵＴＯ　ＣＬＵＢ株式会社,,株式会社,茨城県,笠間市,安居１２４８番地１,,08,216,3190206,,,,,,,2023-10-10,1,,,,,オートクラブ,0
1158,4070001040935,新規,0,2023-10-10,2023-10-10,株式会社ＳＡＩＴＯ　ＥＮＧ,,株式会社,群馬県,渋川市,赤城町勝保沢６３番地２,,10,208,3791122,,,,,,,2023-10-10,1,,,,,サイトーエンジニアリング,0
1162,4080001025902,新規,0,2023-10-10,2023-10-10,株式会社つなぐ‐むすぶ,,株式会社,静岡県,静岡市葵区,遠藤新田８番地の６,,22,101,4212112,,,,,,,2023-10-10,1,,,,,ツナグムスブ,0
1163,4080101024250,新規,0,2023-10-10,2023-10-10,株式会社宮テクノ,,株式会社,静岡県,富士宮市,村山３２４番地の２,,22,207,4180012,,,,,,,2023-10-10,1,,,,,ミヤテクノ,0
1164,4080101024259,新規,0,2023-10-10,2023-10-10,株式会社キラリトワ,,株式会社,静岡県,沼津市,江原町１３番２６号,,22,203,4100049,,,,,,,2023-10-10,1,,,,,キラリトワ,0
1169,4090001018368,新規,0,2023-10-10,2023-10-10,株式会社Ｒｅｍａｋｅ,,株式会社,山梨県,甲府市,湯村２丁目６番２１号,,19,201,4000073,,,,,,,2023-10-10,1,,,,,リメイク,0
1173,4100003007202,新規,0,2023-10-10,2023-10-10,ワンコレクションジャパン合同会社,,合同会社,長野県,北安曇郡白馬村,大字北城３０２０番地２８１,,20,485,3999301,,,,,,,2023-10-10,1,,,,,ワンコレクションジャパン,0
1191,4120001258563,新規,0,2023-10-10,2023-10-10,株式会社ＭＯＺＹＭＯ,,株式会社,大阪府,大阪市西区,立売堀４丁目７番２５号,,27,106,5500012,,,,,,,2023-10-10,1,,,,,モザイモ,0
1192,4120001258646,新規,0,2023-10-10,2023-10-10,株式会社輝笑,,株式会社,大阪府,大阪市北区,大淀北２丁目１番５３号Ｄ’ｓＣｏｕｒｔ大淀北１０２号室,,27,127,5310077,,,,,,,2023-10-10,1,,,,,コウショウ,0
1199,4120005023914,新規,0,2023-10-10,2023-10-10,特定非営利活動法人すてっぷ,,その他の設立登記法人,大阪府,門真市,本町２番６－４号,,27,223,5710046,,,,,,,2023-10-10,1,,,,,ステップ,0
1202,4120103005475,新規,0,2023-10-10,2023-10-10,合同会社陽葵,,合同会社,大阪府,堺市西区,津久野町３丁３２番１９号,,27,144,5938322,,,,,,,2023-10-10,1,,,,,ヒマワリ,0
1203,4120903004858,新規,0,2023-10-10,2023-10-10,合同会社Ｉ‐ＳＫＹ,,合同会社,大阪府,池田市,旭丘２丁目１番２２号,,27,204,5630022,,,,,,,2023-10-10,1,,,,,アイスカイ,0
1206,4130001075454,新規,0,2023-10-10,2023-10-10,株式会社ＭＩＹＡＢＩ,,株式会社,京都府,京都市右京区,西京極葛野町２６－１,,26,108,6150882,,,,,,,2023-10-10,1,,,,,ミヤビ,0
1222,4140001131751,新規,0,2023-10-10,2023-10-10,友信商事株式会社,,株式会社,兵庫県,明石市,松が丘２丁目５番,,28,203,6730862,,,,,,,2023-10-10,1,,,,,ユウシンショウジ,0
1223,4140001131792,新規,0,2023-10-10,2023-10-10,泰興金属株式会社,,株式会社,兵庫県,神戸市北区,淡河町野瀬６４番地２,,28,109,6511623,,,,,,,2023-10-10,1,,,,,タイシンキンゾク,0
1224,4140001131875,新規,0,2023-10-10,2023-10-10,株式会社田寺建設工業,,株式会社,兵庫県,揖保郡太子町,阿曽３７３番地,,28,464,6711557,,,,,,,2023-10-10,1,,,,,タデラケンセツコウギョウ,0
1225,4140001131883,新規,0,2023-10-10,2023-10-10,株式会社ＶＪｓｔａｒ,,株式会社,兵庫県,尼崎市,長洲西通１丁目１番１０号ＪＲ尼崎駅前南西ビル,,28,202,6600807,,,,,,,2023-10-10,1,,,,,ブイジェイスター,0
1226,4140001131909,新規,0,2023-10-10,2023-10-10,株式会社メイルメノポーズ,,株式会社,兵庫県,神戸市中央区,磯辺通１丁目１番１８号カサベラ国際プラザビル７０７号,,28,110,6510084,,,,,,,2023-10-10,1,,,,,メイルメノポーズ,0
1239,4140003019631,新規,0,2023-10-10,2023-10-10,７Ｗｅｓｔ　Ｄｅｖｅｌｏｐｍｅｎｔ　Ｓｅｒｖｉｃｅｓ合同会社,,合同会社,兵庫県,神戸市中央区,下山手通２丁目１３番３号８階１７号室,,28,110,6500011,,,,,,,2023-10-10,1,,,,,セブンウエストデベロップメントサービシーズ,0
1242,4150001026777,新規,0,2023-10-10,2023-10-10,株式会社いちごジャム,,株式会社,奈良県,奈良市,神功３丁目２番地の１５,,29,201,6310804,,,,,,,2023-10-10,1,,,,,イチゴジャム,0
1253,4180005020385,新規,0,2023-10-10,2023-10-10,一般社団法人Ｒｅｖｕｅ動物愛護,,その他の設立登記法人,愛知県,豊明市,新栄町２丁目３３６番地,,23,229,4701154,,,,,,,2023-10-10,1,,,,,レビュードウブツアイゴ,0
1256,4180301037892,新規,0,2023-10-10,2023-10-10,株式会社ごきげんワークス,,株式会社,愛知県,刈谷市,原崎町３丁目１０１番地２,,23,210,4480039,,,,,,,2023-10-10,1,,,,,ゴキゲンワークス,0
1259,4190005011870,新規,0,2023-10-10,2023-10-10,一般社団法人クラブ志摩,,その他の設立登記法人,三重県,志摩市,阿児町志島８番地,,24,215,5170504,,,,,,,2023-10-10,1,,,,,クラブシマ,0
1263,4200001041795,新規,0,2023-10-10,2023-10-10,司工業株式会社,,株式会社,岐阜県,安八郡神戸町,大字横井１５０番地,,21,381,5032301,,,,,,,2023-10-10,1,,,,,ツカサコウギョウ,0
1265,4220001025631,新規,0,2023-10-10,2023-10-10,株式会社ＵＥＮＯ,,株式会社,石川県,野々市市,粟田６丁目３４９番地,,17,212,9218823,,,,,,,2023-10-10,1,,,,,ウエノ,0
1266,4240001062251,新規,0,2023-10-10,2023-10-10,株式会社ＹＯＫＯＹＡＭＡ,,株式会社,広島県,広島市東区,牛田新町４丁目２番２５号,,34,102,7320068,,,,,,,2023-10-10,1,,,,,ヨコヤマ,0
1273,4240003006363,新規,0,2023-10-10,2023-10-10,合同会社ジョルト,,合同会社,広島県,東広島市,河内町中河内６９１番地２,,34,212,7392201,,,,,,,2023-10-10,1,,,,,ジョルト,0
1285,4290001103257,新規,0,2023-10-10,2023-10-10,株式会社こちら総務部,,株式会社,福岡県,久留米市,東町５番地１０,,40,203,8300032,,,,,,,2023-10-10,1,,,,,コチラソウムブ,0
1286,4290001103307,新規,0,2023-10-10,2023-10-10,株式会社アジュノリ,,株式会社,福岡県,福岡市東区,若宮１丁目２３番２２号,,40,131,8130036,,,,,,,2023-10-10,1,,,,,アジュノリ,0
1287,4290001103315,新規,0,2023-10-10,2023-10-10,ｎａｎｏｐａｉｎｔｌｙ株式会社,,株式会社,福岡県,久留米市,太郎原町１８番地,,40,203,8390821,,,,,,,2023-10-10,1,,,,,ナノペイントリー,0
1288,4290001103323,新規,0,2023-10-10,2023-10-10,株式会社ビットコマース,,株式会社,福岡県,福岡市博多区,博多駅前２丁目１９番１７号トーカン博多第５ビル３１２号室,,40,132,8120011,,,,,,,2023-10-10,1,,,,,ビットコマース,0
1289,4290003014444,新規,0,2023-10-10,2023-10-10,合同会社ＵＲＵＯＳＵ,,合同会社,福岡県,福岡市南区,警弥郷１丁目２１番１６号,,40,134,8111324,,,,,,,2023-10-10,1,,,,,ウルオス,0
1290,4290003014452,新規,0,2023-10-10,2023-10-10,合同会社クローバー,,合同会社,福岡県,久留米市,上津町１８３２番地,,40,203,8300052,,,,,,,2023-10-10,1,,,,,クローバー,0
1291,4290003014460,新規,0,2023-10-10,2023-10-10,合同会社ＴＫ,,合同会社,福岡県,福岡市博多区,博多駅前１丁目２３番２号ＰａｒｋＦｒｏｎｔ博多駅前１丁目５Ｆ－Ｂ,,40,132,8120011,,,,,,,2023-10-10,1,,,,,ティーケー,0
1295,4290801029940,新規,0,2023-10-10,2023-10-10,株式会社Ｍｙ　Ｂｅａｎｓ,,株式会社,福岡県,北九州市戸畑区,高峰２丁目１４番２４号,,40,105,8040051,,,,,,,2023-10-10,1,,,,,マイビーンズ,0
1299,4310003004657,新規,0,2023-10-10,2023-10-10,万事屋Ａｍｕｓｅｍｅｎｔ合同会社,,合同会社,長崎県,長崎市,昭和１丁目９番１３号山田ビル２階,,42,201,8528145,,,,,,,2023-10-10,1,,,,,ヨロズヤアミューズメント,0
1301,4320001020052,新規,0,2023-10-10,2023-10-10,株式会社ブリロ,,株式会社,大分県,大分市,横尾東町１丁目３番１３号,,44,201,8700130,,,,,,,2023-10-10,1,,,,,ブリロ,0
1302,4320003004193,新規,0,2023-10-10,2023-10-10,合同会社昇成企画,,合同会社,大分県,津久見市,立花町２番１６－２号コーポ近藤,,44,207,8792434,,,,,,,2023-10-10,1,,,,,ショウセイキカク,0
1304,4330001031338,新規,0,2023-10-10,2023-10-10,株式会社ｒａｋｏｍｕ,,株式会社,熊本県,人吉市,西間下町１０１３－２,,43,203,8680072,,,,,,,2023-10-10,1,,,,,ラコム,0
1314,4350003004447,新規,0,2023-10-10,2023-10-10,合同会社レジアス,,合同会社,宮崎県,宮崎市,柳丸町２０番地１,,45,201,8800844,,,,,,,2023-10-10,1,,,,,レジアス,0
1316,4360001032630,新規,0,2023-10-10,2023-10-10,株式会社琉創住建,,株式会社,沖縄県,那覇市,前島３丁目７番２２号４階,,47,201,9000016,,,,,,,2023-10-10,1,,,,,リュウソウジュウケン,0
1317,4360001032655,新規,0,2023-10-10,2023-10-10,株式会社ＫＡＴＴＡ　ｅｓｔａｔｅ,,株式会社,沖縄県,那覇市,泉崎１丁目１３番８号,,47,201,9000021,,,,,,,2023-10-10,1,,,,,カッタエステート,0
1326,4400001016414,新規,0,2023-10-10,2023-10-10,アーク警備保障株式会社,,株式会社,岩手県,盛岡市,みたけ４丁目３番１７号２Ｆ,,03,201,0200122,,,,,,,2023-10-10,1,,,,,アークケイビホショウ,0
1327,4420001018433,新規,0,2023-10-10,2023-10-10,株式会社エフディークリエイト,,株式会社,青森県,八戸市,大字鮫町字忍町３３番地,,02,203,0310841,,,,,,,2023-10-10,1,,,,,エフディークリエイト,0
1331,4430001090126,新規,0,2023-10-10,2023-10-10,株式会社Ｂｏｏｓｔｕｐ,,株式会社,北海道,札幌市中央区,北五条西１１丁目１５－４　４階４０１－Ａ,,01,101,0600005,,,,,,,2023-10-10,1,,,,,ブーストアップ,0
1332,4430001090134,新規,0,2023-10-10,2023-10-10,株式会社まちかど事務所,,株式会社,北海道,札幌市西区,発寒三条５丁目６番１号,,01,107,0630823,,,,,,,2023-10-10,1,,,,,マチカドジムショ,0
1333,4430001090150,新規,0,2023-10-10,2023-10-10,ルートサイン株式会社,,株式会社,北海道,札幌市中央区,北六条西１０丁目３番地１－７０１号,,01,101,0600006,,,,,,,2023-10-10,1,,,,,ルートサイン,0
1336,4430003015510,新規,0,2023-10-10,2023-10-10,合同会社ゾーンエヌ,,合同会社,北海道,千歳市,白樺６丁目１３番地の１,,01,224,0660056,,,,,,,2023-10-10,1,,,,,ゾーンエヌ,0
1337,4430003015519,新規,0,2023-10-10,2023-10-10,合同会社ＳＳＫサービス,,合同会社,北海道,札幌市南区,澄川一条１丁目４－１７,,01,106,0050001,,,,,,,2023-10-10,1,,,,,エスエスケーサービス,0
1344,4480001012249,新規,0,2023-10-10,2023-10-10,株式会社カラフル,,株式会社,徳島県,板野郡北島町,江尻字松ノ本２８番地１,,36,402,7710205,,,,,,,2023-10-10,1,,,,,カラフル,0
1347,4700150121158,新規,0,2023-10-10,2023-10-10,ｓｈｅｎｚｈｅｎｓｈｉ　ｗｅｉｗｏｋｅｊｉ　ｙｏｕｘｉａｎｇｏｎｇｓｉ,,外国会社等,,,,,,,,Ｓｈｅｎｚｈｅｎｓｈｉ　ｌｏｎｇｈｕａｑｕ　ｄａｌａｎｇｊｉｅｄａｏ　ｇａｏｆｅｎｇｓｈｅｑｕ　ｌｏｎｇｇｕａｎｘｉｌｕ２ｈａｏ　Ａ７０１　５１８１１０　ＣＮ,,,,,,2023-10-10,1,,,,,シンセンシウェイオカギヨウシェンゴンスー,0
1348,4700150121166,新規,0,2023-10-10,2023-10-10,ｇｕａｎｇｚｈｏｕ　ｋｕｉｚｈｉｋｅ　ｇｕｏ　ｊｉ　ｍａｏ　ｙｉ　ｙｏｕ　ｘｉａｎ　ｇｏｎｇ　ｓｉ,,外国会社等,,,,,,,,ｓｏｎｇｚｈｏｕｊｉｅｓｏｎｇｇａｎｇｄｏｎｇｌｕ４５ｈａｏ２ｄｏｎｇ４ｌｏｕ４０２ｆａｎｇ　ｂａｉｙｕｎ　ｑｕ　ｇｕａｎｇｄｏｎｇ　ｇｕａｎｇｚｈｏｕ　５１００００　ＣＮ,,,,,,2023-10-10,1,,,,,グァンジョウクイジーカグオジマオイーヨウシェンゴンスー,0
1353,5010001238947,新規,0,2023-10-10,2023-10-10,株式会社サリュータ・コーポレーション,,株式会社,東京都,文京区,本駒込１丁目２７番８－７０２号,,13,105,1130021,,,,,,,2023-10-10,1,,,,,サリュータコーポレーション,0
1354,5010001238988,新規,0,2023-10-10,2023-10-10,株式会社ＮＳＤワンピース,,株式会社,東京都,千代田区,神田淡路町２丁目１０１番地,,13,101,1010063,,,,,,,2023-10-10,1,,,,,エヌエスディワンピース,0
1355,5010001239086,新規,0,2023-10-10,2023-10-10,株式会社ＳＯ１Ｈｏｌｄｉｎｇｓ,,株式会社,東京都,千代田区,霞が関３丁目２番５号,,13,101,1000013,,,,,,,2023-10-10,1,,,,,エスオーワンホールディングス,0
1356,5010003041878,新規,0,2023-10-10,2023-10-10,合同会社バークリーズ,,合同会社,東京都,文京区,白山２丁目２番７号,,13,105,1120001,,,,,,,2023-10-10,1,,,,,バークリーズ,0
1364,5010401177588,新規,0,2023-10-10,2023-10-10,株式会社小西建築構造設計,,株式会社,東京都,港区,南青山６丁目７番５号ドミール南青山６０８号,,13,103,1070062,,,,,,,2023-10-10,1,,,,,コニシケンチクコウゾウセッケイ,0
1365,5010401177605,新規,0,2023-10-10,2023-10-10,株式会社Ｂｉｐｅｄａｌ,,株式会社,東京都,港区,北青山１丁目３番１号アールキューブ青山３階,,13,103,1070061,,,,,,,2023-10-10,1,,,,,バイペダル,0
1366,5010403031082,新規,0,2023-10-10,2023-10-10,合同会社Ｇｏｏｄ　Ｓｐｅｅｃｈ　Ｇｏｏｄ　Ｌｉｆｅ,,合同会社,東京都,港区,白金２丁目５番１２－２４０１号,,13,103,1080072,,,,,,,2023-10-10,1,,,,,グッドスピーチグッドライフ,0
1367,5010403031090,新規,0,2023-10-10,2023-10-10,合同会社タイムズ,,合同会社,東京都,港区,南青山３丁目１番３６号青山丸竹ビル６Ｆ,,13,103,1070062,,,,,,,2023-10-10,1,,,,,タイムズ,0
1372,5010701044950,新規,0,2023-10-10,2023-10-10,株式会社ＡＭＭ,,株式会社,東京都,品川区,戸越５丁目４番３号アズ品川ビル４階－５,,13,109,1420041,,,,,,,2023-10-10,1,,,,,エーエムエム,0
1376,5010903008514,新規,0,2023-10-10,2023-10-10,エクサイド合同会社,,合同会社,東京都,世田谷区,上祖師谷２丁目２２番２６号,,13,112,1570065,,,,,,,2023-10-10,1,,,,,エクサイド,0
1383,5011001157385,新規,0,2023-10-10,2023-10-10,株式会社エルトラベル,,株式会社,東京都,渋谷区,神泉町８－１０メゾン神泉１０４,,13,113,1500045,,,,,,,2023-10-10,1,,,,,エルトラベル,0
1384,5011001157402,新規,0,2023-10-10,2023-10-10,株式会社ｍｕｓｕｂｉ,,株式会社,東京都,渋谷区,本町４丁目４９－１０ウエリス渋谷本町１００１,,13,113,1510071,,,,,,,2023-10-10,1,,,,,ムスビ,0
1385,5011001157410,新規,0,2023-10-10,2023-10-10,碧天コンサルティング株式会社,,株式会社,東京都,目黒区,下目黒１丁目１番１４号,,13,110,1530064,,,,,,,2023-10-10,1,,,,,ヘキテンコンサルティング,0
1386,5011001157468,新規,0,2023-10-10,2023-10-10,株式会社ｉｏｌｉｔｅ,,株式会社,東京都,渋谷区,道玄坂１丁目１０番８号渋谷道玄坂東急ビル２Ｆ－Ｃ,,13,113,1500043,,,,,,,2023-10-10,1,,,,,アイオライト,0
1387,5011001157492,新規,0,2023-10-10,2023-10-10,カイロス株式会社,,株式会社,東京都,渋谷区,神宮前６丁目２７番８号,,13,113,1500001,,,,,,,2023-10-10,1,,,,,カイロス,0
1388,5011003017587,新規,0,2023-10-10,2023-10-10,Ｖｉｖａｌｄｉ　Ｔｅｃｈｎｏｌｏｇｉｅｓ合同会社,,合同会社,東京都,渋谷区,道玄坂１丁目１０番８号渋谷道玄坂東急ビル２Ｆ－Ｃ,,13,113,1500043,,,,,,,2023-10-10,1,,,,,ビバルディテクノロジーズ,0
1389,5011003017661,新規,0,2023-10-10,2023-10-10,合同会社ＭｏｔｉｖｅＰｏｗｅｒ,,合同会社,東京都,渋谷区,道玄坂１丁目１０番８号渋谷道玄坂東急ビル２Ｆ－Ｃ,,13,113,1500043,,,,,,,2023-10-10,1,,,,,,0
1390,5011003017703,新規,0,2023-10-10,2023-10-10,ＨＴＺＫ　ＳＴＵＤＩＯ合同会社,,合同会社,東京都,目黒区,上目黒３丁目１番１０号ヴェルデナポリ２０３,,13,110,1530051,,,,,,,2023-10-10,1,,,,,ヒトツキスタジオ,0
1395,5011103013577,新規,0,2023-10-10,2023-10-10,合同会社ジュゴンとイルカ,,合同会社,東京都,新宿区,払方町２５番地１アーバンコート市ヶ谷３０１,,13,104,1620841,,,,,,,2023-10-10,1,,,,,ジュゴントイルカ,0
1398,5011105010804,新規,0,2023-10-10,2023-10-10,一般社団法人蒼空希望学園,,その他の設立登記法人,東京都,新宿区,北新宿４丁目１４番１０号北新宿淀橋ビル,,13,104,1690074,,,,,,,2023-10-10,1,,,,,アオゾラキボウガクエン,0
1399,5011201024963,新規,0,2023-10-10,2023-10-10,白山下株式会社,,株式会社,東京都,中野区,東中野１丁目２３番４号サンライズ東中野１０２,,13,114,1640003,,,,,,,2023-10-10,1,,,,,ハクサンシタ,0
1402,5011301029061,新規,0,2023-10-10,2023-10-10,ライトハウスキーパー株式会社,,株式会社,東京都,杉並区,永福２丁目３６番４号セボン永福町１１５号,,13,115,1680064,,,,,,,2023-10-10,1,,,,,ライトハウスキーパー,0
1406,5011501029852,新規,0,2023-10-10,2023-10-10,新の川工業株式会社,,株式会社,東京都,荒川区,南千住３丁目２７－２浅草ビル５０８,,13,118,1160003,,,,,,,2023-10-10,1,,,,,アラノカワコウギョウ,0
1409,5011503005785,新規,0,2023-10-10,2023-10-10,日本東京高度数眼鏡技術合同会社,,合同会社,東京都,北区,浮間１丁目７－２３兆豊浮間ビル５０２号室,,13,117,1150051,,,,,,,2023-10-10,1,,,,,ニホントウキョウコウドスウメガネギジュツ,0
1414,5011801043140,新規,0,2023-10-10,2023-10-10,１２株式会社,,株式会社,東京都,葛飾区,鎌倉４丁目２６番３号,,13,122,1250053,,,,,,,2023-10-10,1,,,,,ワンニャン,0
1425,5013303006807,新規,0,2023-10-10,2023-10-10,合同会社コウジン,,合同会社,東京都,豊島区,長崎２丁目２７番１２号,,13,116,1710051,,,,,,,2023-10-10,1,,,,,コウジン,0
1429,5020003024709,新規,0,2023-10-10,2023-10-10,ＣＬＥＡ．合同会社,,合同会社,神奈川県,横浜市中区,長者町８丁目１２６番地,,14,104,2310033,,,,,,,2023-10-10,1,,,,,クレアドット,0
1432,5021001080363,新規,0,2023-10-10,2023-10-10,株式会社Ｍａｉｋａｉ,,株式会社,神奈川県,藤沢市,西俣野３１５－４３,,14,205,2520812,,,,,,,2023-10-10,1,,,,,マイカイ,0
1433,5021001080371,新規,0,2023-10-10,2023-10-10,スリーワン株式会社,,株式会社,神奈川県,平塚市,紅谷町８番１６号サニープラザ平塚３Ｆ,,14,203,2540043,,,,,,,2023-10-10,1,,,,,スリーワン,0
1434,5021001080388,新規,0,2023-10-10,2023-10-10,株式会社鳴門工業,,株式会社,神奈川県,伊勢原市,岡崎６９６２番地の６,,14,214,2591135,,,,,,,2023-10-10,1,,,,,ナルトコウギョウ,0
1435,5021001080413,新規,0,2023-10-10,2023-10-10,Ｏｈａｎａ株式会社,,株式会社,神奈川県,鎌倉市,雪ノ下１丁目５－３８,,14,204,2480005,,,,,,,2023-10-10,1,,,,,オハナ,0
1437,5021003013651,新規,0,2023-10-10,2023-10-10,フランネル合同会社,,合同会社,神奈川県,大和市,深見西２丁目１番３４－１０２号,,14,213,2420018,,,,,,,2023-10-10,1,,,,,フランネル,0
1447,5030001156180,新規,0,2023-10-10,2023-10-10,株式会社エム・カンパニー,,株式会社,埼玉県,幸手市,中２丁目８番３９号,,11,240,3400115,,,,,,,2023-10-10,1,,,,,エムカンパニー,0
1448,5030001156247,新規,0,2023-10-10,2023-10-10,株式会社青山,,株式会社,埼玉県,川口市,芝中田２丁目３８－２８,,11,203,3330847,,,,,,,2023-10-10,1,,,,,アオヤマ,0
1449,5030001156313,新規,0,2023-10-10,2023-10-10,ロミオニ株式会社,,株式会社,埼玉県,深谷市,東方３２５７番地２,,11,218,3660041,,,,,,,2023-10-10,1,,,,,ロミオニ,0
1450,5030001156338,新規,0,2023-10-10,2023-10-10,株式会社フレール,,株式会社,埼玉県,越谷市,花田３丁目２１番地９,,11,222,3430015,,,,,,,2023-10-10,1,,,,,フレール,0
1451,5030001156453,新規,0,2023-10-10,2023-10-10,黒真電工株式会社,,株式会社,埼玉県,本庄市,今井８０３番地２２,,11,211,3670036,,,,,,,2023-10-10,1,,,,,コクシンデンコウ,0
1452,5030001156461,新規,0,2023-10-10,2023-10-10,株式会社ｃｕｔｔｉｎ,,株式会社,埼玉県,鴻巣市,大間２丁目６番１５号,,11,217,3650054,,,,,,,2023-10-10,1,,,,,カッティン,0
1453,5030001156486,新規,0,2023-10-10,2023-10-10,株式会社ＹＤＣ興業,,株式会社,埼玉県,草加市,草加１丁目１１番１号１Ｆ,,11,221,3400043,,,,,,,2023-10-10,1,,,,,ワイディシーコウギョウ,0
1454,5030001156536,新規,0,2023-10-10,2023-10-10,株式会社オピト,,株式会社,埼玉県,上尾市,小泉９丁目２７番地７７,,11,219,3620063,,,,,,,2023-10-10,1,,,,,オピト,0
1455,5030001156569,新規,0,2023-10-10,2023-10-10,株式会社ジャパンフィールド,,株式会社,埼玉県,八潮市,大字木曽根５２９番地,,11,234,3400813,,,,,,,2023-10-10,1,,,,,ジャパンフィールド,0
1459,5030003022645,新規,0,2023-10-10,2023-10-10,フレンドコンサルティング合同会社,,合同会社,埼玉県,さいたま市見沼区,大和田町１丁目５８１番地,,11,104,3370053,,,,,,,2023-10-10,1,,,,,フレンドコンサルティング,0
1460,5030003022678,新規,0,2023-10-10,2023-10-10,ＺＯＨＡ　Ｔｒａｄｉｎｇ合同会社,,合同会社,埼玉県,川口市,朝日５丁目３番１－１０１号,,11,203,3320001,,,,,,,2023-10-10,1,,,,,ゾハトレーディング,0
1461,5030003022728,新規,0,2023-10-10,2023-10-10,合同会社Ｒｅ・ｄｅｓｉｇｎ,,合同会社,埼玉県,朝霞市,本町１丁目１０番４６号アルカディア２１・４０１,,11,227,3510011,,,,,,,2023-10-10,1,,,,,アールイーデザイン,0
1474,5040001130366,新規,0,2023-10-10,2023-10-10,株式会社ＣＲＮ,,株式会社,千葉県,市原市,岩崎１丁目１番地１９,,12,219,2900047,,,,,,,2023-10-10,1,,,,,シーアールエヌ,0
1475,5040001130399,新規,0,2023-10-10,2023-10-10,株式会社二和高橋,00132191,株式会社,千葉県,船橋市,二和東３丁目１番１１号,,12,204,2740805,,,,,,,2023-10-10,1,,,,,フタワタカハシ,0
1476,5040001130408,新規,0,2023-10-10,2023-10-10,株式会社Ｃｒｅ８ｔＦｕｎ,,株式会社,千葉県,松戸市,本町１７－１１芹澤ビル６Ｆ,,12,207,2710091,,,,,,,2023-10-10,1,,,,,クリエイトファン,0
1477,5040001130424,新規,0,2023-10-10,2023-10-10,株式会社皓興,,株式会社,千葉県,松戸市,新作１０５７番地の２,,12,207,2710052,,,,,,,2023-10-10,1,,,,,コウキョウ,0
1478,5040001130432,新規,0,2023-10-10,2023-10-10,株式会社ＤＲＡＷＷＩＮ,,株式会社,千葉県,千葉市若葉区,小倉町１４２番地４,,12,104,2640007,,,,,,,2023-10-10,1,,,,,ドロウィン,0
1482,5040003023493,新規,0,2023-10-10,2023-10-10,ジェイズマネージメント合同会社,,合同会社,千葉県,松戸市,日暮８丁目１３番地の７,,12,207,2702253,,,,,,,2023-10-10,1,,,,,ジェイズマネージメント,0
1483,5040003023502,新規,0,2023-10-10,2023-10-10,合同会社三宅,,合同会社,千葉県,市川市,南行徳２丁目１９番３,,12,203,2720138,,,,,,,2023-10-10,1,,,,,ミヤケ,0
1486,5050001053608,新規,0,2023-10-10,2023-10-10,株式会社＆ライン,,株式会社,茨城県,東茨城郡茨城町,大字小幡１０２３―１,,08,302,3113157,,,,,,,2023-10-10,1,,,,,アンドライン,0
1493,5060003004748,新規,0,2023-10-10,2023-10-10,合同会社Ｄ＆Ｓ自動車,,合同会社,栃木県,足利市,葉鹿町４０９番地１,,09,202,3260143,,,,,,,2023-10-10,1,,,,,ディアンドエスジドウシャ,0
1495,5070001040942,新規,0,2023-10-10,2023-10-10,株式会社ジャンカヌー,,株式会社,群馬県,高崎市,問屋町西１丁目６番地１,,10,202,3700007,,,,,,,2023-10-10,1,,,,,ジャンカヌー,0
1496,5070003005118,新規,0,2023-10-10,2023-10-10,合同会社びーばーハウス,,合同会社,群馬県,前橋市,亀里町字城之宮８６５,,10,201,3792147,,,,,,,2023-10-10,1,,,,,ビーバーハウス,0
1497,5070005010181,新規,0,2023-10-10,2023-10-10,特定非営利活動法人赤の城,,その他の設立登記法人,群馬県,みどり市,大間々町大間々１４０９番地１８,,10,212,3760101,,,,,,,2023-10-10,1,,,,,,0
1500,5080101024258,新規,0,2023-10-10,2023-10-10,雄大株式会社,,株式会社,静岡県,沼津市,三園町１３番３５号,,22,203,4100833,,,,,,,2023-10-10,1,,,,,ユウダイ,0
1504,5080403004890,新規,0,2023-10-10,2023-10-10,合同会社Ｏｆｆｉｃｅ　Ｓｕｇｉｏｋａ,,合同会社,静岡県,磐田市,中泉２丁目６番地３０,,22,211,4380078,,,,,,,2023-10-10,1,,,,,オフィススギオカ,0
1505,5090001018367,新規,0,2023-10-10,2023-10-10,Ｍ’ｓヘルス・ソリューション株式会社,,株式会社,山梨県,北杜市,小淵沢町１００６０番地４９５,,19,209,4080044,,,,,,,2023-10-10,1,,,,,エムズヘルスソリューション,0
1513,5110001037901,新規,0,2023-10-10,2023-10-10,株式会社Ｐａｌｅｔｔｅ,,株式会社,新潟県,新潟市中央区,南笹口１丁目１１番３８号コープオリンピア８０８,,15,103,9500912,,,,,,,2023-10-10,1,,,,,パレット,0
1528,5120001258694,新規,0,2023-10-10,2023-10-10,株式会社櫻の森企画,,株式会社,大阪府,大阪市淀川区,西中島３丁目２１番１５号６ｂ,,27,123,5320011,,,,,,,2023-10-10,1,,,,,サクラノモリキカク,0
1534,5120003025060,新規,0,2023-10-10,2023-10-10,ｍｙ訪問看護ステーション合同会社,,合同会社,大阪府,大阪市東淀川区,南江口１丁目１番４１－１４０３号,,27,114,5330003,,,,,,,2023-10-10,1,,,,,マイホウモンカンゴステーション,0
1535,5120005023921,新規,0,2023-10-10,2023-10-10,一般社団法人ＮＥＸＴ　ＯＮＥ,,その他の設立登記法人,大阪府,大阪市浪速区,日本橋東２丁目９番１６号オリエンタル日本橋Ｂ１－１,,27,111,5560006,,,,,,,2023-10-10,1,,,,,ネクストワン,0
1537,5120105009770,新規,0,2023-10-10,2023-10-10,一般社団法人ＭＯＲＩＭＯＴＯ　ＴＲＵＳＴ,,その他の設立登記法人,大阪府,堺市堺区,老松町１丁３５番地７,,27,141,5900824,,,,,,,2023-10-10,1,,,,,モリモトトラスト,0
1539,5120901048138,新規,0,2023-10-10,2023-10-10,株式会社エフテック,,株式会社,大阪府,吹田市,泉町４丁目２０番４－１号,,27,205,5640041,,,,,,,2023-10-10,1,,,,,エフテック,0
1540,5120901048162,新規,0,2023-10-10,2023-10-10,豊中不動産流通株式会社,,株式会社,大阪府,豊中市,中桜塚３丁目１０番３３号,,27,203,5610881,,,,,,,2023-10-10,1,,,,,トヨナカフドウサンリュウツウ,0
1542,5122003002691,新規,0,2023-10-10,2023-10-10,合同会社モリコウ,,合同会社,大阪府,東大阪市,立花町１３番７号,,27,227,5798023,,,,,,,2023-10-10,1,,,,,モリコウ,0
1552,5140001131825,新規,0,2023-10-10,2023-10-10,株式会社クグロフ,,株式会社,兵庫県,伊丹市,中央１丁目７番１５号,,28,207,6640851,,,,,,,2023-10-10,1,,,,,クグロフ,0
1553,5140001131874,新規,0,2023-10-10,2023-10-10,株式会社ケセラセラ,,株式会社,兵庫県,神戸市東灘区,御影本町２丁目９番１６号,,28,101,6580046,,,,,,,2023-10-10,1,,,,,ケセラセラ,0
1554,5140001131882,新規,0,2023-10-10,2023-10-10,加藤菓子ホールディングス株式会社,,株式会社,兵庫県,西宮市,松原町９番２０号,,28,204,6620912,,,,,,,2023-10-10,1,,,,,カトウカシホールディングス,0
1555,5140001131916,新規,0,2023-10-10,2023-10-10,Ｋ‐Ｆｉｖｅ株式会社,,株式会社,兵庫県,芦屋市,大桝町７番３号２階,,28,206,6590066,,,,,,,2023-10-10,1,,,,,ケーファイブ,0
1564,5140003019630,新規,0,2023-10-10,2023-10-10,合同会社Ａｒｅａ２７,,合同会社,兵庫県,尼崎市,南武庫之荘３丁目４番１２－３０４号,,28,202,6610033,,,,,,,2023-10-10,1,,,,,エリアニジュウナナ,0
1565,5140003019639,新規,0,2023-10-10,2023-10-10,合同会社Ｗｅｌｆａｒｅ,,合同会社,兵庫県,尼崎市,西難波町６丁目６番９号,,28,202,6600893,,,,,,,2023-10-10,1,,,,,,0
1570,5150003003088,新規,0,2023-10-10,2023-10-10,合同会社大和瑠璃の会,,合同会社,奈良県,吉野郡下市町,大字梨子堂３６８番地の１,,29,443,6380033,,,,,,,2023-10-10,1,,,,,ヤマトルリノカイ,0
1573,5160001025406,新規,0,2023-10-10,2023-10-10,株式会社絆愛,,株式会社,滋賀県,守山市,吉身２丁目６番２６号,,25,207,5240021,,,,,,,2023-10-10,1,,,,,キズナ,0
1576,5170001017823,新規,0,2023-10-10,2023-10-10,株式会社わかやま物産,,株式会社,和歌山県,和歌山市,黒田１２７番地５,,30,201,6408341,,,,,,,2023-10-10,1,,,,,ワカヤマブッサン,0
1580,5180001158352,新規,0,2023-10-10,2023-10-10,株式会社明服,,株式会社,愛知県,名古屋市中村区,森田町１丁目４番２９号,,23,105,4530036,,,,,,,2023-10-10,1,,,,,ミンプク,0
1581,5180001158377,新規,0,2023-10-10,2023-10-10,株式会社ｋｎｏｔ,,株式会社,愛知県,名古屋市西区,浄心１丁目１番４８号,,23,104,4510061,,,,,,,2023-10-10,1,,,,,ノット,0
1590,5180003025831,新規,0,2023-10-10,2023-10-10,Ｈ＆Ｕ　Ｃｏｍｐａｎｙ合同会社,,合同会社,愛知県,北名古屋市,久地野５９フォレスト　リバー３０５,,23,234,4810012,,,,,,,2023-10-10,1,,,,,エイチアンドユーカンパニー,0
1592,5180005020376,新規,0,2023-10-10,2023-10-10,一般社団法人Ｍａｓｊｉｄ　Ｉｎｄｏｎｅｓｉａ　Ｎａｇｏｙａ,,その他の設立登記法人,愛知県,名古屋市港区,幸町２丁目３６番地の４,,23,111,4550041,,,,,,,2023-10-10,1,,,,,マスジドインドネシアナゴヤ,0
1595,5180301037891,新規,0,2023-10-10,2023-10-10,株式会社ＨＯＧＡＲ,,株式会社,愛知県,豊川市,赤坂町山蔭１４８番地２,,23,207,4410202,,,,,,,2023-10-10,1,,,,,オガール,0
1600,5200001041794,新規,0,2023-10-10,2023-10-10,株式会社林工業,,株式会社,岐阜県,加茂郡川辺町,石神３４２番地３,,21,503,5090303,,,,,,,2023-10-10,1,,,,,ハヤシコウギョウ,0
1601,5200001041803,新規,0,2023-10-10,2023-10-10,株式会社カミヤ外構,,株式会社,岐阜県,羽島郡岐南町,三宅２丁目１４番地（フローラ１０２号室）,,21,302,5016002,,,,,,,2023-10-10,1,,,,,カミヤガイコウ,0
1607,5220001025630,新規,0,2023-10-10,2023-10-10,株式会社むすびぃ,,株式会社,石川県,金沢市,入江２丁目１７７番地森ビル１０５号室,,17,201,9218011,,,,,,,2023-10-10,1,,,,,ムスビィ,0
1609,5240001062242,新規,0,2023-10-10,2023-10-10,ＷｅｌｌｎｅｓｓＬＩＮＫ株式会社,,株式会社,広島県,福山市,城見町２丁目５番２７号１Ｆ,,34,207,7200054,,,,,,,2023-10-10,1,,,,,ウェルネスリンク,0
1610,5240003006362,新規,0,2023-10-10,2023-10-10,ティーエアー合同会社,,合同会社,広島県,尾道市,高須町４０６番地２,,34,205,7290141,,,,,,,2023-10-10,1,,,,,ティーエアー,0
1614,5260001038380,新規,0,2023-10-10,2023-10-10,株式会社グロース,,株式会社,岡山県,総社市,中央２丁目５番１０号,,33,208,7191131,,,,,,,2023-10-10,1,,,,,グロース,0
1620,5290001103181,新規,0,2023-10-10,2023-10-10,松岡株式会社,,株式会社,福岡県,福岡市早良区,城西３丁目１３番６－８０２号,,40,137,8140003,,,,,,,2023-10-10,1,,,,,マツオカ,0
1621,5290001103264,新規,0,2023-10-10,2023-10-10,ｆｅｖｅｒｒａｌ株式会社,,株式会社,福岡県,福岡市中央区,大名１丁目９番５０号,,40,133,8100041,,,,,,,2023-10-10,1,,,,,フェバラル,0
1622,5290001103314,新規,0,2023-10-10,2023-10-10,株式会社ｍｏｖｅ　ｏｎ．ｅ,,株式会社,福岡県,福岡市南区,大橋団地６番１―１１０５号マークスシティ大橋,,40,134,8150038,,,,,,,2023-10-10,1,,,,,ムーブワン,0
1623,5290001103347,新規,0,2023-10-10,2023-10-10,Ｘ‐メディカル株式会社,,株式会社,福岡県,大野城市,牛頸２丁目４番３号,,40,219,8160971,,,,,,,2023-10-10,1,,,,,エックスメディカル,0
1624,5290003014468,新規,0,2023-10-10,2023-10-10,Ｆ．Ｄ．Ｓ合同会社,,合同会社,福岡県,春日市,紅葉ヶ丘東９丁目８２番地１,,40,218,8160833,,,,,,,2023-10-10,1,,,,,エフディーエス,0
1630,5300001013486,新規,0,2023-10-10,2023-10-10,株式会社山口総社,,株式会社,佐賀県,伊万里市,瀬戸町２９３０番地,,41,205,8480043,,,,,,,2023-10-10,1,,,,,ヤマグチソウシャ,0
1635,5340001025965,新規,0,2023-10-10,2023-10-10,愛伽建装株式会社,,株式会社,鹿児島県,霧島市,隼人町真孝２４４５番地２９,,46,218,8995102,,,,,,,2023-10-10,1,,,,,アイカケンソウ,0
1636,5340001025973,新規,0,2023-10-10,2023-10-10,林商店株式会社,,株式会社,鹿児島県,鹿屋市,高須町１３０１番地,,46,203,8930054,,,,,,,2023-10-10,1,,,,,ハヤシショウテン,0
1656,5380001034038,新規,0,2023-10-10,2023-10-10,株式会社橋村工業,,株式会社,福島県,郡山市,朝日１丁目７番３号ユニライフ市川４０８,,07,203,9638024,,,,,,,2023-10-10,1,,,,,ハシムラコウギョウ,0
1657,5390001017388,新規,0,2023-10-10,2023-10-10,株式会社やまのカタチ,,株式会社,山形県,東根市,本丸北２丁目１－５,,06,211,9993781,,,,,,,2023-10-10,1,,,,,ヤマノカタチ,0
1658,5420001018432,新規,0,2023-10-10,2023-10-10,株式会社やまうちカンパニー,,株式会社,青森県,青森市,大字新城字平岡１５６番地４３,,02,201,0380042,,,,,,,2023-10-10,1,,,,,ヤマウチカンパニー,0
1661,5420003002806,新規,0,2023-10-10,2023-10-10,合同会社プライム,,合同会社,青森県,五所川原市,金木町嘉上端山崎５８番２,,02,205,0370202,,,,,,,2023-10-10,1,,,,,プライム,0
1664,5430001090133,新規,0,2023-10-10,2023-10-10,株式会社Ｋｉｎｏｅ　Ｃｏｍｐａｎｙ,,株式会社,北海道,札幌市東区,北二十二条東３丁目１番３５号,,01,103,0650022,,,,,,,2023-10-10,1,,,,,キノエカンパニー,0
1667,5430003015518,新規,0,2023-10-10,2023-10-10,ＮＡＳ合同会社,,合同会社,北海道,札幌市豊平区,月寒東二条７丁目３番１７号,,01,105,0620052,,,,,,,2023-10-10,1,,,,,エヌエーエス,0
1672,5480003002032,新規,0,2023-10-10,2023-10-10,合同会社はじめ,,合同会社,徳島県,阿南市,羽ノ浦町中庄洲崎１５－５,,36,204,7791101,,,,,,,2023-10-10,1,,,,,ハジメ,0
1676,5500005008644,新規,0,2023-10-10,2023-10-10,一般社団法人西条市水源林保全協会,,その他の設立登記法人,愛媛県,西条市,中奥１号８番地５,,38,206,7930214,,,,,,,2023-10-10,1,,,,,,0
1677,5700150121149,新規,0,2023-10-10,2023-10-10,ｓｈｅｎｚｈｅｎｓｈｉｔｏｎｇｗａｎｄｉａｎｚｉｋｅｊｉ　ｙｏｕｘｉａｎｇｏｎｇｓｉ,,外国会社等,,,,,,,,ｌｏｎｇｈｕａｑｕ　ｍｉｎｚｈｉｊｉｅｄａｏ　ｘｉｎｎｉｕｓｈｅｑｕｎｉｕｌａｎｑｉａｎｇｏｎｇｙｅｑｕ２８ｄｏｎｇ３０１　ｓｈｅｎｚｈｅｎ　５１８０００　ＣＮ,,,,,,2023-10-10,1,,,,,シンセンシトンワンデンシカギヨウシェンゴンスー,0
1678,5700150121157,新規,0,2023-10-10,2023-10-10,Ｑｕａｎｚｈｏｕ　Ｚｉｙｕｅ　Ｅｒ　Ｔｒａｄｉｎｇ　Ｃｏ．，Ｌｔｄ．,,外国会社等,,,,,,,,ｆｕｊｉａｎｓｈｅｎｇ　ｊｉｎｊｉａｎｇｓｈｉ　ｌｉｎｇｙｕａｎｚｈｏｎｇｈｕａｌｕ２６ｈａｏ２ｄｏｎｇｓａｎｌｏｕＤ２　３６２２００　ＣＮ,,,,,,2023-10-10,1,,,,,センシュウジユエエトゥレイディングカンパニーリミテッド,0
1679,5700150121165,新規,0,2023-10-10,2023-10-10,Ｇｕａｎｇｚｈｏｕ　Ｓｈｉｍａ　Ｄｅｃｏｒａｔｉｎｇ　Ｍａｔｅｒｉａｌｓ　Ｃｏｍｐａｎｙ　Ｌｔｄ,,外国会社等,,,,,,,,Ｂｕｉｌｄｉｎｇ２，４Ｆ，Ｎｏ．９　Ｚｉ　Ｂｉａｎ　Ｆｕ　Ｒｏｎｇ　Ｄａ　Ｄａｏ　ＳｈｉＬｉｎｇ　Ｚｈｅｎ，ＨＵＡＤＵ　ＧＵＡＮＧＺＨＯＵ　Ｇｕａｎｇｄｏｎｇ　５１０８５０　ＣＮ,,,,,,2023-10-10,1,,,,,グァンジョウシマージュァンシツァイリァオヨウシェンゴンスー,0
1687,6010001238839,新規,0,2023-10-10,2023-10-10,株式会社ラウレア,,株式会社,東京都,千代田区,神田松永町１３Ｖｏｒｔ秋葉原ＩＩ,00132193,13,101,1010023,,,,,,,2023-10-10,1,,,,,ラウレア,0
1688,6010001239011,新規,0,2023-10-10,2023-10-10,株式会社ＳＵＤＡＣＨＩ　Ｔｅｃｈ,,株式会社,東京都,千代田区,神田須田町２丁目２－５ＣｏｃｏｒｏＫａｎｄａＢｌｄｇ．５階,,13,101,1010041,,,,,,,2023-10-10,1,,,,,スダチテック,0
1689,6010001239093,新規,0,2023-10-10,2023-10-10,株式会社エミナ,,株式会社,東京都,千代田区,神田北乗物町１８番地,,13,101,1010036,,,,,,,2023-10-10,1,,,,,エミナ,0
1691,6010003041877,新規,0,2023-10-10,2023-10-10,ＦＩＬＬＳ合同会社,,合同会社,東京都,文京区,白山２丁目２番７号,,13,105,1120001,,,,,,,2023-10-10,1,,,,,フィリス,0
1706,6010401177389,新規,0,2023-10-10,2023-10-10,株式会社ＴｒａｄｅＯｎ,,株式会社,東京都,港区,港南４丁目６番１－３６０２号,,13,103,1080075,,,,,,,2023-10-10,1,,,,,トレードオン,0
1707,6010401177579,新規,0,2023-10-10,2023-10-10,株式会社ＳＨＩＦＴ　Ｅｎｔｅｒｐｒｉｓｅ　Ｃｏｎｓｕｌｔｉｎｇ,,株式会社,東京都,港区,麻布台１丁目３番１号,,13,103,1060041,,,,,,,2023-10-10,1,,,,,シフトエンタープライズコンサルティング,0
1708,6010401177587,新規,0,2023-10-10,2023-10-10,株式会社アグロみらい,,株式会社,東京都,港区,芝４丁目７番６号,,13,103,1080014,,,,,,,2023-10-10,1,,,,,アグロミライ,0
1709,6010401177604,新規,0,2023-10-10,2023-10-10,株式会社ｅｍｉｌｙ　ｆａｃｔｏｒｙ,,株式会社,東京都,港区,赤坂３丁目２１番１５号東都赤坂ビル２階Ａ号室,,13,103,1070052,,,,,,,2023-10-10,1,,,,,エミリーファクトリー,0
1710,6010401177661,新規,0,2023-10-10,2023-10-10,ＫＭＡＧ株式会社,,株式会社,東京都,港区,芝公園３丁目１番４号,,13,103,1050011,,,,,,,2023-10-10,1,,,,,ケーエムエージー,0
1711,6010401177728,新規,0,2023-10-10,2023-10-10,株式会社Ａ３,,株式会社,東京都,港区,虎ノ門４丁目１番３４－１４０２号,,13,103,1050001,,,,,,,2023-10-10,1,,,,,エースリー,0
1719,6010901053957,新規,0,2023-10-10,2023-10-10,株式会社ＡＩＲＳ　Ｃｏｎｓｕｌｔｉｎｇ,,株式会社,東京都,世田谷区,代田６丁目１６番９号,,13,112,1550033,,,,,,,2023-10-10,1,,,,,エアーズコンサルティング,0
1720,6010901053965,新規,0,2023-10-10,2023-10-10,株式会社ＥＳ　ＣＯＮＮＥＣＴ　ＬＩＮＫ,,株式会社,東京都,世田谷区,用賀２丁目９番１８号,,13,112,1580097,,,,,,,2023-10-10,1,,,,,エスコネクトリンク,0
1724,6011001157450,新規,0,2023-10-10,2023-10-10,株式会社ＭＮホールディングス,,株式会社,東京都,渋谷区,幡ヶ谷２丁目４番１１－３０１号,,13,113,1510072,,,,,,,2023-10-10,1,,,,,エムエヌホールディングス,0
1725,6011001157475,新規,0,2023-10-10,2023-10-10,株式会社ＶＥＲＩＦＹ,,株式会社,東京都,目黒区,上目黒２丁目７番１２号,,13,110,1530051,,,,,,,2023-10-10,1,,,,,ベリファイ,0
1726,6011003017660,新規,0,2023-10-10,2023-10-10,易蘇堂合同会社,,合同会社,東京都,目黒区,目黒３丁目１４番５号,,13,110,1530063,,,,,,,2023-10-10,1,,,,,エキソドウ,0
1727,6011003017669,新規,0,2023-10-10,2023-10-10,合同会社Ｂｒａｉｎ　Ｂｌｏｏｍ,,合同会社,東京都,渋谷区,道玄坂１丁目１０番８号渋谷道玄坂東急ビル２Ｆ－Ｃ,,13,113,1500043,,,,,,,2023-10-10,1,,,,,ブレインブルーム,0
1728,6011003017685,新規,0,2023-10-10,2023-10-10,ＡＫＡＨＡＩ　ＴＥＣＨ合同会社,,合同会社,東京都,目黒区,下目黒１丁目１番１４号コノトラビル７Ｆ,,13,110,1530064,,,,,,,2023-10-10,1,,,,,アカハイテック,0
1730,6011101104658,新規,0,2023-10-10,2023-10-10,ｉｎＭｉｒｒｏｒｓ株式会社,,株式会社,東京都,新宿区,四谷坂町１２番１２－１００２号,,13,104,1600002,,,,,,,2023-10-10,1,,,,,インミラーズ,0
1731,6011101104682,新規,0,2023-10-10,2023-10-10,株式会社ＰＯＲＴＯ,,株式会社,東京都,新宿区,西新宿７丁目７番地３３号新銘ビル５階,,13,104,1600023,,,,,,,2023-10-10,1,,,,,ポルト,0
1736,6011501029851,新規,0,2023-10-10,2023-10-10,永旺株式会社,,株式会社,東京都,荒川区,南千住３丁目２７－２浅草ビルＣ号室,,13,118,1160003,,,,,,,2023-10-10,1,,,,,エイオウ,0
1740,6011601027169,新規,0,2023-10-10,2023-10-10,株式会社Ｌｅａｐ,,株式会社,東京都,練馬区,東大泉７丁目５１番３号,,13,120,1780063,,,,,,,2023-10-10,1,,,,,リープ,0
1742,6011701026632,新規,0,2023-10-10,2023-10-10,株式会社エムエージェンシー,,株式会社,東京都,江戸川区,東葛西６丁目６番１７－７０２号,,13,123,1340084,,,,,,,2023-10-10,1,,,,,エムエージェンシー,0
1744,6011801043148,新規,0,2023-10-10,2023-10-10,株式会社宮輝工業,,株式会社,東京都,足立区,加平１丁目９番１－２０８号,,13,121,1210055,,,,,,,2023-10-10,1,,,,,ミヤキコウギョウ,0
1748,6012401041087,新規,0,2023-10-10,2023-10-10,株式会社オフィス庭山,,株式会社,東京都,調布市,国領町８丁目４番１アトラス国領サウスコートＪ－１０３号,,13,208,1820022,,,,,,,2023-10-10,1,,,,,オフィスニワヤマ,0
1763,6021001080362,新規,0,2023-10-10,2023-10-10,Ｎｏ　ｎａｍｅ株式会社,,株式会社,神奈川県,相模原市南区,相模大野９丁目２４番２６－１号,,14,153,2520303,,,,,,,2023-10-10,1,,,,,ノーネーム,0
1764,6021001080370,新規,0,2023-10-10,2023-10-10,株式会社エラン・ロジスティクス,,株式会社,神奈川県,相模原市緑区,橋本台３丁目１３番１９号橋本台倉庫（Ｔ’ｓＬｏｇｉ橋本）２階,,14,151,2520132,,,,,,,2023-10-10,1,,,,,エランロジスティクス,0
1765,6021001080379,新規,0,2023-10-10,2023-10-10,株式会社オネスト,,株式会社,神奈川県,厚木市,戸田２１９番地２タイセイビル１Ｆ,,14,212,2430023,,,,,,,2023-10-10,1,,,,,オネスト,0
1766,6021001080404,新規,0,2023-10-10,2023-10-10,株式会社ＭＡＴ,,株式会社,神奈川県,横須賀市,秋谷１丁目２３番１０－１号,,14,201,2400105,,,,,,,2023-10-10,1,,,,,マット,0
1767,6021001080420,新規,0,2023-10-10,2023-10-10,株式会社相模原ペイント,,株式会社,神奈川県,相模原市中央区,水郷田名４丁目６番１８号,,14,152,2520246,,,,,,,2023-10-10,1,,,,,サガミハラペイント,0
1778,6030001156353,新規,0,2023-10-10,2023-10-10,株式会社ＧＴネクサス,,株式会社,埼玉県,草加市,中央１丁目５番８－２０５号,,11,221,3400016,,,,,,,2023-10-10,1,,,,,ジーティーネクサス,0
1779,6030001156469,新規,0,2023-10-10,2023-10-10,株式会社聖ＣｏｏｌＣａｒｒｙ,,株式会社,埼玉県,行田市,門井町２丁目２４番地２６,,11,206,3610044,,,,,,,2023-10-10,1,,,,,ヒジリクールキャリー,0
1780,6030001156502,新規,0,2023-10-10,2023-10-10,株式会社リミタス,,株式会社,埼玉県,さいたま市見沼区,大字蓮沼１５０８番地,,11,104,3370015,,,,,,,2023-10-10,1,,,,,リミタス,0
1781,6030001156519,新規,0,2023-10-10,2023-10-10,株式会社弁天,,株式会社,埼玉県,行田市,大字樋上８６番地,,11,206,3610036,,,,,,,2023-10-10,1,,,,,ベンテン,0
1782,6030001156535,新規,0,2023-10-10,2023-10-10,株式会社Ｙ’ｓ　ＧＬＩＴＴＥＲ,,株式会社,埼玉県,志木市,上宗岡５丁目４番１７号,,11,228,3530001,,,,,,,2023-10-10,1,,,,,ワイズグリッター,0
1783,6030001156543,新規,0,2023-10-10,2023-10-10,カラクシュ工業株式会社,,株式会社,埼玉県,さいたま市見沼区,大字中川８９５番地２,,11,104,3370043,,,,,,,2023-10-10,1,,,,,カラクシュコウギョウ,0
1797,6030003022677,新規,0,2023-10-10,2023-10-10,合同会社わこ技建,,合同会社,埼玉県,志木市,柏町６丁目４番４１号,,11,228,3530007,,,,,,,2023-10-10,1,,,,,ワコギケン,0
1798,6030003022685,新規,0,2023-10-10,2023-10-10,合同会社ＮＥＫＯＥＣ．ＣＯＭ,,合同会社,埼玉県,蕨市,北町１丁目１６番１２号,,11,223,3350001,,,,,,,2023-10-10,1,,,,,ネコイーシードットコム,0
1799,6030003022702,新規,0,2023-10-10,2023-10-10,合同会社Ｌｉｂｅｒｔｅ,,合同会社,埼玉県,越谷市,赤山本町３番地２４ライオンズグローベル越谷ステーションプラザ１２０１号,,11,222,3430808,,,,,,,2023-10-10,1,,,,,リベルテ,0
1800,6030003022710,新規,0,2023-10-10,2023-10-10,合同会社月屋,,合同会社,埼玉県,川口市,大字木曽呂８０７番地の６,,11,203,3330831,,,,,,,2023-10-10,1,,,,,ツキヤ,0
1801,6030003022719,新規,0,2023-10-10,2023-10-10,合同会社ｅｓｔ．,,合同会社,埼玉県,三郷市,半田１８６番地２,,11,237,3410012,,,,,,,2023-10-10,1,,,,,エスト,0
1802,6030003022751,新規,0,2023-10-10,2023-10-10,合同会社ＭＣＤエステート,,合同会社,埼玉県,さいたま市緑区,大字大間木１７７０番地１東浦和レジデンス７０４,,11,109,3360923,,,,,,,2023-10-10,1,,,,,エムシーディーエステート,0
1806,6040001130373,新規,0,2023-10-10,2023-10-10,Ｌ＆Ｐインターナショナル株式会社,,株式会社,千葉県,市原市,ちはら台東８丁目８番地２７６,,12,219,2900141,,,,,,,2023-10-10,1,,,,,エルアンドピーインターナショナル,0
1807,6040001130381,新規,0,2023-10-10,2023-10-10,株式会社Ｓｔａｒ　Ｄａｙｓ,,株式会社,千葉県,松戸市,根本８５－８第二京葉マンション３０４,,12,207,2710077,,,,,,,2023-10-10,1,,,,,スターデイズ,0
1808,6040001130407,新規,0,2023-10-10,2023-10-10,株式会社Ｊｉｎ,,株式会社,千葉県,佐倉市,小篠塚１２２２番地３,,12,212,2850805,,,,,,,2023-10-10,1,,,,,ジン,0
1809,6040001130415,新規,0,2023-10-10,2023-10-10,株式会社ＭＡＳ興業,,株式会社,千葉県,白井市,根１８２６番地の１,,12,232,2701431,,,,,,,2023-10-10,1,,,,,,0
1815,6040003023501,新規,0,2023-10-10,2023-10-10,合同会社Ｆａｖｏｒｉｔｅ,,合同会社,千葉県,松戸市,松戸２１７２番地の１コスモ松戸リバーサイド６０４号,,12,207,2710092,,,,,,,2023-10-10,1,,,,,フェイバリット,0
1818,6050001053607,新規,0,2023-10-10,2023-10-10,株式会社ＬＥＶＥＬ,,株式会社,茨城県,高萩市,大字島名２１７４―４,,08,214,3180023,,,,,,,2023-10-10,1,,,,,レベル,0
1822,6060001036404,新規,0,2023-10-10,2023-10-10,株式会社Ｃａｍｐ　Ｎｏｕ,,株式会社,栃木県,那須塩原市,埼玉１５２番地６カーサ・ヴェルデＢ－１０１号,,09,213,3250033,,,,,,,2023-10-10,1,,,,,カンプノー,0
1823,6060001036420,新規,0,2023-10-10,2023-10-10,起設工業株式会社,,株式会社,栃木県,宇都宮市,宝木本町１２４４番地１４,,09,201,3200075,,,,,,,2023-10-10,1,,,,,キセツコウギョウ,0
1825,6060003004755,新規,0,2023-10-10,2023-10-10,Ｗ　ＥＮＥＲＧＹ合同会社,,合同会社,栃木県,大田原市,浅香３丁目３５７８番地浅香サンコーポ７－１０１号,,09,210,3240043,,,,,,,2023-10-10,1,,,,,ダブルエナジー,0
1834,6080401026779,新規,0,2023-10-10,2023-10-10,イチカワ株式会社,,株式会社,静岡県,浜松市南区,新橋町１３８番地,,22,134,4328058,,,,,,,2023-10-10,1,,,,,イチカワ,0
1840,6100001036861,新規,0,2023-10-10,2023-10-10,株式会社ＮＡＤＥＲ,,株式会社,長野県,岡谷市,長地６１１１－２,,20,204,3940011,,,,,,,2023-10-10,1,,,,,ネダー,0
1858,6120001258636,新規,0,2023-10-10,2023-10-10,株式会社新洋,,株式会社,大阪府,大阪市旭区,高殿１丁目４番２３－１４０５号,,27,117,5350031,,,,,,,2023-10-10,1,,,,,シンヨウ,0
1859,6120001258693,新規,0,2023-10-10,2023-10-10,ｆａｃｅ株式会社,,株式会社,大阪府,大阪市中央区,南船場３丁目１番７号日宝東心斎橋ビル７０３,,27,128,5420081,,,,,,,2023-10-10,1,,,,,フェイス,0
1860,6120001258859,新規,0,2023-10-10,2023-10-10,Ａｂｓｏｌｕｔｅ株式会社,,株式会社,大阪府,大阪市北区,天神橋２丁目北１番２１号７階Ｄ号室,,27,127,5300041,,,,,,,2023-10-10,1,,,,,アブソリュート,0
1872,6120901048137,新規,0,2023-10-10,2023-10-10,株式会社エスエー建築事務所,,株式会社,大阪府,豊中市,上新田４丁目６番２１－４０４号,,27,203,5600085,,,,,,,2023-10-10,1,,,,,エスエーケンチクジムショ,0
1873,6120901048145,新規,0,2023-10-10,2023-10-10,株式会社ＯＦＣ,,株式会社,大阪府,摂津市,正雀４丁目４番３２号,,27,224,5660023,,,,,,,2023-10-10,1,,,,,オーエフシー,0
1874,6120903004864,新規,0,2023-10-10,2023-10-10,ハナココーポレーション合同会社,,合同会社,大阪府,吹田市,垂水町２丁目１４番１－１１０３号,,27,205,5640062,,,,,,,2023-10-10,1,,,,,ハナココーポレーション,0
1887,6140001131865,新規,0,2023-10-10,2023-10-10,株式会社クレアスホーム,,株式会社,兵庫県,神戸市垂水区,神陵台２丁目３番２８号サニーパレス神陵台４１３,,28,108,6550041,,,,,,,2023-10-10,1,,,,,クレアスホーム,0
1888,6140001131873,新規,0,2023-10-10,2023-10-10,株式会社テックネクサス,,株式会社,兵庫県,たつの市,揖西町土師９４９番地３,,28,229,6794017,,,,,,,2023-10-10,1,,,,,テックネクサス,0
1889,6140001131881,新規,0,2023-10-10,2023-10-10,Ｂｌｉｓｓ　Ｇｒｏｕｐ株式会社,,株式会社,兵庫県,明石市,宮の上２番７－１０号,,28,203,6730031,,,,,,,2023-10-10,1,,,,,ブリスグループ,0
1890,6140001131915,新規,0,2023-10-10,2023-10-10,株式会社ＣｏＣｏ住まいる不動産,,株式会社,兵庫県,加古川市,別府町別府９７４－１－１０３,,28,210,6750122,,,,,,,2023-10-10,1,,,,,ココスマイルフドウサン,0
1898,6170001017830,新規,0,2023-10-10,2023-10-10,Ｈｉｔｏｋｉｓｅｋｉ株式会社,,株式会社,和歌山県,新宮市,橋本２丁目５番５６号,,30,207,6470052,,,,,,,2023-10-10,1,,,,,ヒトキセキ,0
1903,6180001158260,新規,0,2023-10-10,2023-10-10,株式会社リング,,株式会社,愛知県,名古屋市千種区,東山通１丁目３５番地,,23,101,4640807,,,,,,,2023-10-10,1,,,,,リング,0
1904,6180001158343,新規,0,2023-10-10,2023-10-10,株式会社ｙ’ｓ,,株式会社,愛知県,名古屋市西区,丸野１丁目５１番地の１,,23,104,4520835,,,,,,,2023-10-10,1,,,,,ワイズ,0
1905,6180001158376,新規,0,2023-10-10,2023-10-10,株式会社Ｓｕｒａｇ　Ｉｎｔｅｒｎａｔｉｏｎａｌ,,株式会社,愛知県,名古屋市中川区,篠原通二丁目１６番地,,23,110,4540000,,,,,,,2023-10-10,1,,,,,スラグインターナショナル,0
1911,6180305009523,新規,0,2023-10-10,2023-10-10,Ｔｒｉ社会保険労務士法人,,その他の設立登記法人,愛知県,豊川市,四ツ谷町１丁目５５番地,,23,207,4420839,,,,,,,2023-10-10,1,,,,,トライ,0
1914,6190005011869,新規,0,2023-10-10,2023-10-10,農事組合法人飛鳥たかな生産組合,,その他の設立登記法人,三重県,熊野市,飛鳥町佐渡２６６－１,,24,212,5194564,,,,,,,2023-10-10,1,,,,,,0
1919,6200001041793,新規,0,2023-10-10,2023-10-10,株式会社ミートシェア,,株式会社,岐阜県,岐阜市,加納中広江町２番地,,21,201,5008415,,,,,,,2023-10-10,1,,,,,ミートシェア,0
1924,6220003003591,新規,0,2023-10-10,2023-10-10,合同会社Ｒ‐Ａｓｓｅｔ,,合同会社,石川県,白山市,北安田町５４９‐４,,17,210,9240024,,,,,,,2023-10-10,1,,,,,アールアセット,0
1928,6240001062209,新規,0,2023-10-10,2023-10-10,株式会社梨岡林業,,株式会社,広島県,庄原市,東本町２丁目１６－１６,,34,210,7270011,,,,,,,2023-10-10,1,,,,,ナシオカリンギョウ,0
1929,6240001062241,新規,0,2023-10-10,2023-10-10,株式会社バモス,,株式会社,広島県,広島市西区,竜王町１番１－３０６号,,34,104,7330803,,,,,,,2023-10-10,1,,,,,バモス,0
1934,6290001103296,新規,0,2023-10-10,2023-10-10,株式会社ＯＮ　ＴＨＥ　ＲＯＡＤ,,株式会社,福岡県,糟屋郡志免町,別府４丁目２番１７号１Ｆ,,40,343,8112205,,,,,,,2023-10-10,1,,,,,オンザロード,0
1935,6290001103305,新規,0,2023-10-10,2023-10-10,株式会社ＲＡＤＲＥＣ,,株式会社,福岡県,福岡市博多区,博多駅南２丁目９番１５－５０７号,,40,132,8120016,,,,,,,2023-10-10,1,,,,,ラドレック,0
1936,6290001103313,新規,0,2023-10-10,2023-10-10,株式会社ジェルス,,株式会社,福岡県,福岡市中央区,長浜１丁目３－４綾杉ビル北天神１Ｆ,,40,133,8100072,,,,,,,2023-10-10,1,,,,,ジェルス,0
1940,6290003014459,新規,0,2023-10-10,2023-10-10,合同会社ＰＯＤ,,合同会社,福岡県,福岡市東区,名子３丁目１７番１５号ライフナチュレＩＩ２０２号室,00132188,40,131,8130024,,,,,,,2023-10-10,1,,,,,ピーオーディー,0
1942,6290801029939,新規,0,2023-10-10,2023-10-10,株式会社ビーワントレーディング,,株式会社,福岡県,北九州市小倉北区,三萩野１丁目１番８号４Ｆ－Ｂ,,40,106,8020065,,,,,,,2023-10-10,1,,,,,ビーワントレーディング,0
1943,6300001013485,新規,0,2023-10-10,2023-10-10,株式会社ＮＥＴプラン,,株式会社,佐賀県,佐賀市,大和町大字久池井３３６番地２５,,41,201,8400202,,,,,,,2023-10-10,1,,,,,ネットプラン,0
1949,6330001031328,新規,0,2023-10-10,2023-10-10,株式会社Ｆ＆ＨＡＲＵ,,株式会社,熊本県,合志市,豊岡１９００－１５０,,43,216,8611115,,,,,,,2023-10-10,1,,,,,エフアンドハル,0
1951,6330003010008,新規,0,2023-10-10,2023-10-10,合同会社Ｌｉｎｋ,,合同会社,熊本県,阿蘇郡西原村,大字布田１０８０－９,,43,432,8612403,,,,,,,2023-10-10,1,,,,,リンク,0
1954,6340003004280,新規,0,2023-10-10,2023-10-10,合同会社乃々,,合同会社,鹿児島県,霧島市,溝辺町崎森２８００番地３３,,46,218,8996405,,,,,,,2023-10-10,1,,,,,ノノ,0
1955,6340005009666,新規,0,2023-10-10,2023-10-10,社会保険労務士法人ＳＷＯＯＳＨ,,その他の設立登記法人,鹿児島県,鹿児島市,吉野２丁目２７番１３号,,46,201,8920877,,,,,,,2023-10-10,1,,,,,スウッシュ,0
1956,6350003004453,新規,0,2023-10-10,2023-10-10,合同会社都城ドライブスルー調剤薬局,,合同会社,宮崎県,都城市,祝吉町５００６番地１,,45,202,8850014,,,,,,,2023-10-10,1,,,,,ミヤコノジョウドライブスルーチョウザイヤッキョク,0
1961,6380001034045,新規,0,2023-10-10,2023-10-10,株式会社ＬＯＯＰ,,株式会社,福島県,いわき市,好間町下好間字一町坪６番地の２,,07,204,9701151,,,,,,,2023-10-10,1,,,,,ループ,0
1964,6410001013607,新規,0,2023-10-10,2023-10-10,日本海建設電気株式会社,,株式会社,秋田県,秋田市,茨島３丁目１番６号,,05,201,0100065,,,,,,,2023-10-10,1,,,,,ニホンカイケンセツデンキ,0
1965,6410001013615,新規,0,2023-10-10,2023-10-10,株式会社勇陽工業,,株式会社,秋田県,鹿角市,尾去沢字軽井沢７４番地８,,05,209,0185202,,,,,,,2023-10-10,1,,,,,ユウヨウコウギョウ,0
1966,6420001018431,新規,0,2023-10-10,2023-10-10,ＳＴＥＥＬ株式会社,,株式会社,青森県,青森市,合浦２丁目５番３１号,,02,201,0300902,,,,,,,2023-10-10,1,,,,,スティール,0
1968,6430001090116,新規,0,2023-10-10,2023-10-10,株式会社ティーアール,,株式会社,北海道,札幌市厚別区,厚別東三条３丁目２番１０号,,01,108,0040003,,,,,,,2023-10-10,1,,,,,ティーアール,0
1970,6430003015500,新規,0,2023-10-10,2023-10-10,合同会社ＭＳＫ工業,,合同会社,北海道,札幌市清田区,清田一条２丁目４番２１号,,01,110,0040841,,,,,,,2023-10-10,1,,,,,エムエスケイコウギョウ,0
1972,6450001014114,新規,0,2023-10-10,2023-10-10,株式会社ＭＡＫＯＴＯ建設,,株式会社,北海道,旭川市,忠和五条４丁目９番６号,,01,204,0708045,,,,,,,2023-10-10,1,,,,,マコトケンセツ,0
1974,6500001025238,新規,0,2023-10-10,2023-10-10,株式会社ＢｌｕｅＬｉｎｅ,,株式会社,愛媛県,今治市,旭町４丁目１－１８,,38,202,7940042,,,,,,,2023-10-10,1,,,,,,0
1979,6500003003118,新規,0,2023-10-10,2023-10-10,ＪＵＧＥＭ合同会社,,合同会社,愛媛県,松山市,千舟町５丁目３－１７－４階,,38,201,7900011,,,,,,,2023-10-10,1,,,,,ジュゲム,0
1980,6700150049307,新規,0,2023-10-10,2015-10-09,浅野地区社会福祉協議会,,その他,石川県,金沢市,浅野本町２丁目１３－１２,,17,201,9200841,,,,,,,2015-10-09,1,,,,,アサノチクシヤカイフクシキヨウギカイ,0
1982,6700150121148,新規,0,2023-10-10,2023-10-10,ｓｈｅｎｚｈｅｎｓｈｉｙａｎｇｄｉｍａｏｙｉ　ｙｏｕｘｉａｎｇｏｎｇｓｉ,,外国会社等,,,,,,,,ＳｈｅｎｚｈｅｎｓｈｉＬｏｎｇｈｕａｑｕｌｏｎｇｈｕａｊｉｅｄａｏｓｏｎｇｈｅｓｈｅｑｕｄｏｎｇｈｕａｎ１ｌｕ１０８ｈａｏｙｏｕｓｏｎｇｋｅｊｉｄａｓｈａ　Ｂ　ｄｏｎｇ４ｃｅｎｇ４１９Ｍ１７　５１８１１０　ＣＮ,,,,,,2023-10-10,1,,,,,シンセンシヤンディマオイヨウシェンゴンスー,0
1983,6700150121156,新規,0,2023-10-10,2023-10-10,ｇｕａｎｇｚｈｏｕｌｉｓｉｔｉｎｇｍａｏｙｉ　ｙｏｕｘｉａｎｇｏｎｇｓｉ,,外国会社等,,,,,,,,ｇｕａｎｇｚｈｏｕｓｈｉ　ｂａｉｙｕｎｑｕ　ｊｉｎｐｅｎｎａｎｌｕ１６ｈａｏ１０１ｆａｎｇ　５１００００　ＣＮ,,,,,,2023-10-10,1,,,,,コウシュウシシティンマオイヨウシェンゴンスー,0
1984,6700150121164,新規,0,2023-10-10,2023-10-10,Ｓｈｅｎｚｈｅｎｓｈｉ　Ｌｉｃｈｅｎｇ　Ｄｉａｎｚｉｓｈａｎｇｗｕ　Ｙｏｕｘｉａｎｇｏｎｇｓｉ,,外国会社等,,,,,,,,Ｐｉｎｇｓｈａｎｑｕ　ｓｈｉｊｉｎｇｊｉｅｄａｏ　ｓｈｉｊｉｎｇｓｈｅｑｕ　ｓｈｉｐｏｔｏｕｌｕ２５ｈａｏ　ｑｉａｏｙｕａｎｃｈａｎｇ　ｓｕｓｈｅＢ２１１　Ｓｈｅｎｚｈｅｎｓｈｉ　Ｇｕａｎｇｄｏｎｇ　５１８１１８　ＣＮ,,,,,,2023-10-10,1,,,,,シェンジェンシリーチョンディエンズーシャンウヨウシェンゴンスー,0
1990,7010001239101,新規,0,2023-10-10,2023-10-10,株式会社Ｇｒｅｅｎ　Ｌｉｆｅ,,株式会社,東京都,千代田区,神田錦町３丁目７番地２,,13,101,1010054,,,,,,,2023-10-10,1,,,,,グリーンライフ,0
1993,7010003041901,新規,0,2023-10-10,2023-10-10,箱根太陽光発電所合同会社,,合同会社,東京都,千代田区,丸の内１丁目８番２号鉄鋼ビルディング４階,,13,101,1000005,,,,,,,2023-10-10,1,,,,,ハコネタイヨウコウハツデンショ,0
1996,7010103002225,新規,0,2023-10-10,2023-10-10,合同会社桑都人財情報経営研究所,,合同会社,東京都,八王子市,暁町３丁目１７番地１号,,13,201,1920043,,,,,,,2023-10-10,1,,,,,ソウトジンザイジョウホウケイエイケンキュウショ,0
2003,7010401177578,新規,0,2023-10-10,2023-10-10,ＳＭＢＣ　Ｗｅｖｏｘ株式会社,,株式会社,東京都,港区,麻布十番１丁目１０番１０号,,13,103,1060045,,,,,,,2023-10-10,1,,,,,エスエムビーシーウィボックス,0
2004,7010401177603,新規,0,2023-10-10,2023-10-10,株式会社ＫＡＬＭＩＡ,,株式会社,東京都,港区,南青山３丁目８番４０号青山センタービル２Ｆ,,13,103,1070062,,,,,,,2023-10-10,1,,,,,カルミア,0
2008,7010403031015,新規,0,2023-10-10,2023-10-10,Ｐａｃｉｆｉｃ　Ｌｉｎｋ　Ｊａｐａｎ合同会社,,合同会社,東京都,港区,浜松町２丁目２番１５号浜松町ダイヤビル２Ｆ,,13,103,1050013,,,,,,,2023-10-10,1,,,,,パシフィックリンクジャパン,0
2009,7010403031089,新規,0,2023-10-10,2023-10-10,合同会社風光日々新,,合同会社,東京都,港区,西麻布１丁目１０－１６,,13,103,1060031,,,,,,,2023-10-10,1,,,,,フウコウヒビアラタ,0
2010,7010403031097,新規,0,2023-10-10,2023-10-10,合同会社ティーアンドエム,,合同会社,東京都,港区,海岸３丁目９番４０－１７１２号,,13,103,1080022,,,,,,,2023-10-10,1,,,,,ティーアンドエム,0
2017,7010701044949,新規,0,2023-10-10,2023-10-10,株式会社Ｍｉｃｏｍｐａｓｓ,,株式会社,東京都,品川区,戸越１丁目２０番８号グローベル戸越銀座１２０１,,13,109,1420041,,,,,,,2023-10-10,1,,,,,マイコンパス,0
2019,7010801034404,新規,0,2023-10-10,2023-10-10,那須平和台管理株式会社,,株式会社,東京都,大田区,田園調布３丁目２６番２２号,,13,111,1450071,,,,,,,2023-10-10,1,,,,,ナスヘイワダイカンリ,0
2021,7010901053956,新規,0,2023-10-10,2023-10-10,株式会社ＫＩＮＧ　ＳＴＡ,,株式会社,東京都,世田谷区,八幡山１丁目１２番１６号,,13,112,1560056,,,,,,,2023-10-10,1,,,,,キングスター,0
2022,7010901053964,新規,0,2023-10-10,2023-10-10,株式会社ＷＧｒｏｗｔｈ,,株式会社,東京都,世田谷区,上野毛３丁目１６番３－７０１号,,13,112,1580093,,,,,,,2023-10-10,1,,,,,ダブリューグロース,0
2025,7011001157433,新規,0,2023-10-10,2023-10-10,株式会社ＬＳ,,株式会社,東京都,渋谷区,道玄坂１丁目１７番７号いちのビル５階,,13,113,1500043,,,,,,,2023-10-10,1,,,,,エルエス,0
2026,7011001157441,新規,0,2023-10-10,2023-10-10,株式会社ＮＳホールディングス,,株式会社,東京都,渋谷区,東２丁目２６番１６号渋谷ＨＡＮＡビル２階,,13,113,1500011,,,,,,,2023-10-10,1,,,,,エヌエスホールディングス,0
2027,7011001157490,新規,0,2023-10-10,2023-10-10,株式会社ゴズリング,,株式会社,東京都,渋谷区,道玄坂１丁目１０番８号渋谷道玄坂東急ビル２Ｆ－Ｃ,,13,113,1500043,,,,,,,2023-10-10,1,,,,,ゴズリング,0
2028,7011003017668,新規,0,2023-10-10,2023-10-10,ｐａｎｃｈｉｄ合同会社,,合同会社,東京都,渋谷区,幡ヶ谷２丁目３－４リーフコートプラス１０５,,13,113,1510072,,,,,,,2023-10-10,1,,,,,パンチット,0
2029,7011003017676,新規,0,2023-10-10,2023-10-10,合同会社ＭＴＳ,,合同会社,東京都,目黒区,上目黒２丁目１０－４,,13,110,1530051,,,,,,,2023-10-10,1,,,,,エムティーエス,0
2030,7011003017692,新規,0,2023-10-10,2023-10-10,Ｔｏｒａｐｉｎ合同会社,,合同会社,東京都,渋谷区,宇田川町２番１号渋谷ホームズ８０７,,13,113,1500042,,,,,,,2023-10-10,1,,,,,トラパン,0
2031,7011101104590,新規,0,2023-10-10,2023-10-10,株式会社ビーコン,,株式会社,東京都,新宿区,下落合４丁目２４－２１,,13,104,1610033,,,,,,,2023-10-10,1,,,,,ビーコン,0
2032,7011101104681,新規,0,2023-10-10,2023-10-10,株式会社ノイラ,,株式会社,東京都,新宿区,西新宿３丁目３番１３号西新宿水間ビル６階,,13,104,1600023,,,,,,,2023-10-10,1,,,,,ノイラ,0
2037,7011403004142,新規,0,2023-10-10,2023-10-10,ＢＥＡＳＴ　ＡＲＴＳ　Ｉｎｔｅｒｎａｔｉｏｎａｌ合同会社,,合同会社,東京都,板橋区,栄町２９－１４,,13,119,1730015,,,,,,,2023-10-10,1,,,,,,0
2041,7011701026648,新規,0,2023-10-10,2023-10-10,株式会社ＫＩグローブ,,株式会社,東京都,江戸川区,鹿骨２丁目１８番８号,,13,123,1330073,,,,,,,2023-10-10,1,,,,,ケイアイグローブ,0
2043,7011801043147,新規,0,2023-10-10,2023-10-10,株式会社高大,,株式会社,東京都,足立区,南花畑２丁目４２番１３号,,13,121,1210062,,,,,,,2023-10-10,1,,,,,コウダイ,0
2047,7012703002819,新規,0,2023-10-10,2023-10-10,合同会社五反田電子企画,,合同会社,東京都,西東京市,向台町１丁目１－８,,13,229,1880013,,,,,,,2023-10-10,1,,,,,ゴタンダデンシキカク,0
2060,7020001153763,新規,0,2023-10-10,2023-10-10,株式会社ＳＴ　ＧＲＯＵＰ,,株式会社,神奈川県,横浜市緑区,中山１丁目１０番２８－２０４号,,14,113,2260019,,,,,,,2023-10-10,1,,,,,エスティーグループ,0
2067,7021001080361,新規,0,2023-10-10,2023-10-10,ｎａｌｕ株式会社,,株式会社,神奈川県,小田原市,永塚２１５番地の７,,14,206,2500214,,,,,,,2023-10-10,1,,,,,ナル,0
2068,7021001080386,新規,0,2023-10-10,2023-10-10,株式会社井ノ上,,株式会社,神奈川県,相模原市緑区,元橋本町７番１１号ラ・フランスＡ－２,,14,151,2520142,,,,,,,2023-10-10,1,,,,,イノウエ,0
2069,7021001080394,新規,0,2023-10-10,2023-10-10,株式会社スマイエスト,,株式会社,神奈川県,厚木市,旭町１丁目３８番７号後藤ビル１階,,14,212,2430014,,,,,,,2023-10-10,1,,,,,スマイエスト,0
2070,7021001080403,新規,0,2023-10-10,2023-10-10,株式会社ＢＵＺＺ‐ｍｅｄ,,株式会社,神奈川県,藤沢市,天神町３丁目９番地の６,,14,205,2520814,,,,,,,2023-10-10,1,,,,,バズメド,0
2089,7030001156352,新規,0,2023-10-10,2023-10-10,株式会社ネイバーエージェント,,株式会社,埼玉県,さいたま市北区,櫛引町２丁目３８８番地ルミエール３０１号,,11,102,3310825,,,,,,,2023-10-10,1,,,,,ネイバーエージェント,0
2090,7030001156410,新規,0,2023-10-10,2023-10-10,ＤＯＮ龍ＪＡＰＡＮ株式会社,,株式会社,埼玉県,熊谷市,葛和田１７２３番地４,,11,202,3600222,,,,,,,2023-10-10,1,,,,,ドンリュウジャパン,0
2091,7030001156419,新規,0,2023-10-10,2023-10-10,桜井商事株式会社,,株式会社,埼玉県,川口市,上青木西１丁目１９－２０－２０７,,11,203,3330845,,,,,,,2023-10-10,1,,,,,サクライショウジ,0
2092,7030001156427,新規,0,2023-10-10,2023-10-10,株式会社ＨＴＫ,,株式会社,埼玉県,さいたま市浦和区,常盤１丁目４番２４－７０２号,,11,107,3300061,,,,,,,2023-10-10,1,,,,,エイチティーケー,0
2093,7030001156435,新規,0,2023-10-10,2023-10-10,リメイクワン株式会社,,株式会社,埼玉県,川口市,大字里９５８番地の３４,,11,203,3340005,,,,,,,2023-10-10,1,,,,,リメイクワン,0
2094,7030001156451,新規,0,2023-10-10,2023-10-10,株式会社Ｔ４,,株式会社,埼玉県,所沢市,大字上安松１３２７番地の６,,11,208,3590025,,,,,,,2023-10-10,1,,,,,ティーフォー,0
2095,7030001156468,新規,0,2023-10-10,2023-10-10,株式会社かんきち,,株式会社,埼玉県,さいたま市大宮区,大成町１丁目１４１番地２,,11,103,3300852,,,,,,,2023-10-10,1,,,,,カンキチ,0
2096,7030001156476,新規,0,2023-10-10,2023-10-10,株式会社ＴＵＺＵＲＵ,,株式会社,埼玉県,川口市,大字安行慈林７８７番地の４９,,11,203,3340071,,,,,,,2023-10-10,1,,,,,ツヅル,0
2097,7030001156518,新規,0,2023-10-10,2023-10-10,株式会社瓦葺工業,,株式会社,埼玉県,上尾市,大字瓦葺１２１６番地７,,11,219,3620022,,,,,,,2023-10-10,1,,,,,カワラブキコウギョウ,0
2098,7030001156526,新規,0,2023-10-10,2023-10-10,株式会社アイエスサービス,,株式会社,埼玉県,久喜市,葛梅１丁目２７番地１,,11,232,3400214,,,,,,,2023-10-10,1,,,,,アイエスサービス,0
2104,7030003022676,新規,0,2023-10-10,2023-10-10,合同会社ＳＵＰ,,合同会社,埼玉県,草加市,青柳６丁目９番３９号,,11,221,3400002,,,,,,,2023-10-10,1,,,,,サップ,0
2105,7030003022718,新規,0,2023-10-10,2023-10-10,ＭＡＲＵアセットマネジメント合同会社,,合同会社,埼玉県,さいたま市桜区,西堀１０丁目１２番１２号,,11,106,3380832,,,,,,,2023-10-10,1,,,,,マルアセットマネジメント,0
2106,7030003022726,新規,0,2023-10-10,2023-10-10,合同会社レジェンド寿屋,,合同会社,埼玉県,戸田市,下戸田２丁目１２番１６号,,11,224,3350011,,,,,,,2023-10-10,1,,,,,レジェンドコトブキヤ,0
2107,7030005021437,新規,0,2023-10-10,2023-10-10,医療法人社団一,,その他の設立登記法人,埼玉県,朝霞市,根岸台３丁目２０番１号くみまちモールあさか２階,,11,227,3510005,,,,,,,2023-10-10,1,,,,,イチ,0
2111,7040001130356,新規,0,2023-10-10,2023-10-10,ＡＳ観光国際株式会社,,株式会社,千葉県,千葉市緑区,中西町６０２番地１５,,12,105,2660024,,,,,,,2023-10-10,1,,,,,エイエスカンコウコクサイ,0
2112,7040001130389,新規,0,2023-10-10,2023-10-10,株式会社ＦＤウイングス,,株式会社,千葉県,千葉市美浜区,中瀬１丁目３番地幕張テクノガーデン,,12,106,2610023,,,,,,,2023-10-10,1,,,,,エフディーウイングス,0
2116,7040003023491,新規,0,2023-10-10,2023-10-10,ニワ合同会社,,合同会社,千葉県,野田市,上三ケ尾３４７番地,,12,208,2780013,,,,,,,2023-10-10,1,,,,,ニワ,0
2117,7050001053614,新規,0,2023-10-10,2023-10-10,アニメイク株式会社,,株式会社,茨城県,久慈郡大子町,大字袋田６０,,08,364,3193523,,,,,,,2023-10-10,1,,,,,アニメイク,0
2118,7060001036411,新規,0,2023-10-10,2023-10-10,株式会社カギ本舗,,株式会社,栃木県,小山市,西城南２丁目３０番地３３,,09,208,3230820,,,,,,,2023-10-10,1,,,,,カギホンポ,0
2130,7080401026778,新規,0,2023-10-10,2023-10-10,Ｇ‐Ｓｔａｒ　Ｖｉｅｗ　ＨＲ　Ｃｏｎｓｕｌｔｉｎｇ　Ｇｒｏｕｐ株式会社,,株式会社,静岡県,浜松市中区,鍛冶町１００番地の１ザザシティ浜松中央館Ｂ１Ｆ,,22,131,4300933,,,,,,,2023-10-10,1,,,,,ジースターエイチアールコンサルティンググループ,0
2131,7080403004889,新規,0,2023-10-10,2023-10-10,合同会社ＡＭＭ,,合同会社,静岡県,掛川市,細田２００番地の１,,22,213,4360048,,,,,,,2023-10-10,1,,,,,エーエムエム,0
2132,7090001018357,新規,0,2023-10-10,2023-10-10,株式会社ボンズプラス,,株式会社,山梨県,甲府市,富竹２丁目３番４１号,,19,201,4000049,,,,,,,2023-10-10,1,,,,,ボンズプラス,0
2133,7110001037908,新規,0,2023-10-10,2023-10-10,株式会社Ｗ．Ｓ　ＧＬＥＡＭ,,株式会社,新潟県,新潟市中央区,姥ケ山１１４番地５,,15,103,9500923,,,,,,,2023-10-10,1,,,,,ダブリューエスグリーム,0
2147,7120001258635,新規,0,2023-10-10,2023-10-10,インテクノ防災株式会社,,株式会社,大阪府,枚方市,南中振２丁目１０番２１号,,27,210,5730094,,,,,,,2023-10-10,1,,,,,インテクノボウサイ,0
2148,7120001258643,新規,0,2023-10-10,2023-10-10,ＫＳ　ＨＩＭＡＷＡＲＩ株式会社,,株式会社,大阪府,大阪市中央区,東心斎橋１丁目１９番１９号ケイティーズ心斎橋４階,,27,128,5420083,,,,,,,2023-10-10,1,,,,,ケイエスヒマワリ,0
2156,7120101068348,新規,0,2023-10-10,2023-10-10,株式会社システムライン,,株式会社,大阪府,岸和田市,尾生町２１９６番地,,27,202,5960816,,,,,,,2023-10-10,1,,,,,システムライン,0
2157,7120101068356,新規,0,2023-10-10,2023-10-10,株式会社啓光建設,,株式会社,大阪府,富田林市,木戸山町６番２９号,,27,214,5840004,,,,,,,2023-10-10,1,,,,,,0
2161,7120901048136,新規,0,2023-10-10,2023-10-10,株式会社ＳＥＩ,,株式会社,大阪府,吹田市,藤白台４丁目２８番８号,,27,205,5650873,,,,,,,2023-10-10,1,,,,,セイ,0
2162,7120901048185,新規,0,2023-10-10,2023-10-10,株式会社ＬｉｆｅＳｔｙｌｅ,,株式会社,大阪府,高槻市,芥川町２丁目５番１１号,,27,207,5691123,,,,,,,2023-10-10,1,,,,,ライフスタイル,0
2164,7120903004863,新規,0,2023-10-10,2023-10-10,合同会社ＳＴＹＭ,,合同会社,大阪府,吹田市,春日１丁目１６－１－３２６号,,27,205,5650853,,,,,,,2023-10-10,1,,,,,ステイム,0
2167,7130001075377,新規,0,2023-10-10,2023-10-10,株式会社Ｆｉｅｌｄ　Ｖａｌｌｅｙ,,株式会社,京都府,京都市下京区,朱雀宝蔵町４４番地協栄ビル２階京都朱雀スタジオ,,26,106,6008846,,,,,,,2023-10-10,1,,,,,フィールドバレー,0
2173,7140001131831,新規,0,2023-10-10,2023-10-10,株式会社遊山,,株式会社,兵庫県,加古川市,平岡町新在家７１６番地の９,,28,210,6750101,,,,,,,2023-10-10,1,,,,,ユウザン,0
2174,7140001131864,新規,0,2023-10-10,2023-10-10,株式会社瀧井工業,,株式会社,兵庫県,姫路市,玉手２丁目３７１番地,,28,201,6700985,,,,,,,2023-10-10,1,,,,,タキイコウギョウ,0
2175,7140001131889,新規,0,2023-10-10,2023-10-10,株式会社洒落,,株式会社,兵庫県,川西市,西多田２丁目２番８号三栄ビル３階,,28,217,6660138,,,,,,,2023-10-10,1,,,,,シャレ,0
2176,7140001131897,新規,0,2023-10-10,2023-10-10,株式会社ＰＬＡＮＥＴ　ＧＲＡＰＥ,,株式会社,兵庫県,神戸市須磨区,前池町２丁目４番１号,,28,107,6540011,,,,,,,2023-10-10,1,,,,,プラネットグレープ,0
2177,7140001131906,新規,0,2023-10-10,2023-10-10,Ｂｒｉｇｄｅ　ＳｙｎＢｉｏ株式会社,,株式会社,兵庫県,神戸市中央区,港島中町６丁目１４番地ポートピアプラザＢ棟２５０５号,,28,110,6500046,,,,,,,2023-10-10,1,,,,,ブリッジシンバイオ,0
2178,7140001131914,新規,0,2023-10-10,2023-10-10,株式会社Ｇｏ‐ｏｎ,,株式会社,兵庫県,高砂市,米田町塩市１６６－３,,28,216,6760806,,,,,,,2023-10-10,1,,,,,ゴウオン,0
2179,7140001131939,新規,0,2023-10-10,2023-10-10,株式会社永盛,,株式会社,兵庫県,神戸市兵庫区,矢部町３２番２－１号,,28,105,6520005,,,,,,,2023-10-10,1,,,,,エイセイ,0
2182,7140003019629,新規,0,2023-10-10,2023-10-10,合同会社ＪＹＨ,,合同会社,兵庫県,明石市,二見町福里３３８番地の６,,28,203,6740091,,,,,,,2023-10-10,1,,,,,ジェイワイエイチ,0
2185,7150001026782,新規,0,2023-10-10,2023-10-10,金冶株式会社,,株式会社,奈良県,五條市,出屋敷町１８６番５６,,29,207,6370011,,,,,,,2023-10-10,1,,,,,キンヤ,0
2186,7150003003086,新規,0,2023-10-10,2023-10-10,合同会社カエデ,,合同会社,奈良県,宇陀市,菟田野古市場１４６７番地の１,,29,212,6332226,,,,,,,2023-10-10,1,,,,,カエデ,0
2188,7160001025404,新規,0,2023-10-10,2023-10-10,株式会社大電工,,株式会社,滋賀県,大津市,大石東４丁目９番２号,,25,201,5202264,,,,,,,2023-10-10,1,,,,,ダイデンコウ,0
2198,7180001158251,新規,0,2023-10-10,2023-10-10,株式会社ＥＳＰＬ,,株式会社,愛知県,名古屋市西区,宝地町２３６番地,,23,104,4520808,,,,,,,2023-10-10,1,,,,,イーエスピーエル,0
2199,7180001158284,新規,0,2023-10-10,2023-10-10,株式会社ｆ‐ｔｅｃ防災,,株式会社,愛知県,名古屋市北区,中味鋺２丁目１１０番地の５,,23,103,4620015,,,,,,,2023-10-10,1,,,,,エフテックボウサイ,0
2200,7180001158342,新規,0,2023-10-10,2023-10-10,株式会社ＭＲＣ,,株式会社,愛知県,名古屋市千種区,茶屋が坂１丁目７番１０号,,23,101,4640092,,,,,,,2023-10-10,1,,,,,エムアールシー,0
2201,7180001158367,新規,0,2023-10-10,2023-10-10,株式会社ＳＡＲＳＴ,,株式会社,愛知県,名古屋市名東区,宝が丘２６０番地,,23,115,4650043,,,,,,,2023-10-10,1,,,,,,0
2205,7180005020374,新規,0,2023-10-10,2023-10-10,一般社団法人心絆,,その他の設立登記法人,愛知県,稲沢市,下津町東下町１５番地,,23,220,4928075,,,,,,,2023-10-10,1,,,,,コノハ,0
2207,7180301037832,新規,0,2023-10-10,2023-10-10,株式会社Ｍｏｔｏｊｕｋｕ　Ｃａｐｉｔａｌ,,株式会社,愛知県,岡崎市,夏山町字殿カイト７番地,,23,202,4443621,,,,,,,2023-10-10,1,,,,,モトジュクキャピタル,0
2209,7200001041792,新規,0,2023-10-10,2023-10-10,ＥＭＰＥＲＯＲ　ＯＮＥ株式会社,,株式会社,岐阜県,多治見市,松坂町１丁目１４９番地,,21,204,5070063,,,,,,,2023-10-10,1,,,,,エンペラーワン,0
2214,7220001025629,新規,0,2023-10-10,2023-10-10,株式会社ＭｏｂｉｌｅＬｉｎｋ,,株式会社,石川県,野々市市,位川２４２番地１プレミールＢ棟２０５号,,17,212,9218846,,,,,,,2023-10-10,1,,,,,モバイルリンク,0
2217,7230003002088,新規,0,2023-10-10,2023-10-10,ＰＴ合同会社,,合同会社,富山県,富山市,豊若町３丁目６番１０号,,16,201,9318305,,,,,,,2023-10-10,1,,,,,ピティ,0
2219,7240001062224,新規,0,2023-10-10,2023-10-10,株式会社天野工務店,,株式会社,広島県,呉市,広吉松２丁目１５番２２号,,34,202,7370121,,,,,,,2023-10-10,1,,,,,アマノコウムテン,0
2220,7240001062240,新規,0,2023-10-10,2023-10-10,ＡＴＯＥＬ株式会社,,株式会社,広島県,広島市中区,東白島町２０番３号,,34,101,7300004,,,,,,,2023-10-10,1,,,,,アトエル,0
2223,7250001020313,新規,0,2023-10-10,2023-10-10,株式会社ユアフィット,,株式会社,山口県,岩国市,由宇町北１丁目３番１６号,,35,208,7401455,,,,,,,2023-10-10,1,,,,,ユアフィット,0
2224,7250001020321,新規,0,2023-10-10,2023-10-10,株式会社ＥＩＫＥＮ,,株式会社,山口県,宇部市,岬町３丁目９番３－１号,,35,202,7550006,,,,,,,2023-10-10,1,,,,,,0
2232,7290001103304,新規,0,2023-10-10,2023-10-10,株式会社なな色,,株式会社,福岡県,糟屋郡志免町,東公園台２丁目２１番２１号,,40,343,8112241,,,,,,,2023-10-10,1,,,,,ナナイロ,0
2235,7290003014458,新規,0,2023-10-10,2023-10-10,合同会社Ｙ’ｓＮＥＸＴ,,合同会社,福岡県,大野城市,大字瓦田１３３番地８－１０１号室,,40,219,8160932,,,,,,,2023-10-10,1,,,,,ワイズネクスト,0
2238,7290005019166,新規,0,2023-10-10,2023-10-10,龍蓮院,,その他の設立登記法人,福岡県,春日市,春日６丁目８２番地,,40,218,8160814,,,,,,,2023-10-10,1,,,,,リュウレンイン,0
2245,7290803004518,新規,0,2023-10-10,2023-10-10,合同会社ホーカツ,,合同会社,福岡県,北九州市小倉南区,守恒本町２丁目３番２６号,,40,107,8020971,,,,,,,2023-10-10,1,,,,,ホーカツ,0
2248,7320001020058,新規,0,2023-10-10,2023-10-10,株式会社臼徳工業,,株式会社,大分県,臼杵市,大字諏訪１２００番地,,44,206,8750011,,,,,,,2023-10-10,1,,,,,キュウトクコウギョウ,0
2257,7350003004452,新規,0,2023-10-10,2023-10-10,合同会社Ｆ＆Ｆ,,合同会社,宮崎県,日向市,比良町３丁目１０２番地,,45,206,8830031,,,,,,,2023-10-10,1,,,,,エフアンドエフ,0
2259,7360001032652,新規,0,2023-10-10,2023-10-10,株式会社仁海不動産,,株式会社,沖縄県,中頭郡北中城村,字和仁屋２７５番地カレブＪ１Ｆ,,47,327,9012312,,,,,,,2023-10-10,1,,,,,ジンカイフドウサン,0
2261,7380001034028,新規,0,2023-10-10,2023-10-10,株式会社千葉商会,,株式会社,福島県,福島市,飯坂町東湯野字上町８番地の３,,07,201,9600221,,,,,,,2023-10-10,1,,,,,チバショウカイ,0
2264,7410001013606,新規,0,2023-10-10,2023-10-10,ライトスタッフ株式会社,,株式会社,秋田県,大仙市,内小友字鳥海沢５９,,05,212,0140073,,,,,,,2023-10-10,1,,,,,ライトスタッフ,0
2265,7420003002804,新規,0,2023-10-10,2023-10-10,Ｃ＆Ｍ合同会社,,合同会社,青森県,弘前市,大字大久保字西田１０５番地３２,,02,202,0368071,,,,,,,2023-10-10,1,,,,,,0
2268,7430001090148,新規,0,2023-10-10,2023-10-10,株式会社４０１,,株式会社,北海道,札幌市中央区,南十条西１１丁目１－２３ラヴィッサンＩ２１１,,01,101,0640810,,,,,,,2023-10-10,1,,,,,ヨンマルイチ,0
2272,7430003015508,新規,0,2023-10-10,2023-10-10,ＡＲＭ合同会社,,合同会社,北海道,札幌市東区,北二十四条東４丁目１番２１号,,01,103,0650024,,,,,,,2023-10-10,1,,,,,アーム,0
2276,7700150121147,新規,0,2023-10-10,2023-10-10,ｓｈｅｎｚｈｅｎｓｈｉｒｕｉｓｈｅｎｇｄａｄｉａｎｚｉｓｈａｎｇｗｕ　ｙｏｕｘｉａｎｇｏｎｇｓｉ,,外国会社等,,,,,,,,ｌｕｏｈｕｑｕ　ｎａｎｈｕｊｉｅｄａｏ　ｊｉａｂｅｉｓｈｅｑｕ　ｙｉｎｇｃｈｕｎｌｕ１２ｈａｏ　ｈａｉｗａｉｌｉａｎｙｉｄａｓｈａ１３０３－１１０９　Ｓｈｅｎｚｈｅｎ　５１８０００　ＣＮ,,,,,,2023-10-10,1,,,,,シンセンシルイシェンダデンシショウムヨウシェンゴンスー,0
2277,7700150121155,新規,0,2023-10-10,2023-10-10,Ｓｈａｎｇｈａｉ　ＺｏｎｇＨｅｎｇ　Ｐａｒｔｎｅｒ　Ｅ－ｃｏｍｍｅｒｃｅ　Ｃｏ．，Ｌｔｄ,,外国会社等,,,,,,,,１５０１ＪｉｎｓｕｉＲｏａｄ　Ｒｏｏｍ２１０　２ｎｄＦｌｏｏｒ　Ｂｕｉｌｄｉｎｇ３　ＰｕｄｏｎｇＮｅｗＤｉｓｔｒｉｃｔ　Ｓｈａｎｇｈａｉ　２０１２０９　ＣＮ,,,,,,2023-10-10,1,,,,,シャンハイゾンヘンパートゥナーイーコマースカンパニーリミテッド,0
2278,7700150121163,新規,0,2023-10-10,2023-10-10,ｆｕ　ｑｉｎｇ　ｚｏｎｇ　ｈｕｉ　ｍａｏ　ｙｉ　ｙｏｕ　ｘｉａｎ　ｇｏｎｇ　ｓｉ,,外国会社等,,,,,,,,ｇｕａｎｇ　ｌａｎ　１－１　ｆｕ　ｑｉｎｇ　ｓｈｉ　ｙｉｎ　ｘｉ　ｚｈｅｎ　ｆｕ　ｚｈｏｕ　ｓｈｉ　ｚｈｏｎｇ　ｇｕｏ　ｆｕ　ｊｉａｎ　ｓｈｅｎｇ　３５０３００　ＣＮ,,,,,,2023-10-10,1,,,,,フゥチンゾンホイマオイーヨウシェンゴンスー,0
2287,8010001239034,新規,0,2023-10-10,2023-10-10,プローム株式会社,,株式会社,東京都,中央区,京橋１丁目６番１号,,13,102,1040031,,,,,,,2023-10-10,1,,,,,プローム,0
2291,8010003041867,新規,0,2023-10-10,2023-10-10,合同会社金沢インベストメント,,合同会社,東京都,千代田区,内幸町２丁目１番６号,,13,101,1000011,,,,,,,2023-10-10,1,,,,,カナザワインベストメント,0
2292,8010003041900,新規,0,2023-10-10,2023-10-10,函南太陽光発電所合同会社,,合同会社,東京都,千代田区,丸の内１丁目８番２号鉄鋼ビルディング４階,,13,101,1000005,,,,,,,2023-10-10,1,,,,,カンナミタイヨウコウハツデンショ,0
2295,8010005037335,新規,0,2023-10-10,2023-10-10,一般社団法人日本難病医療ネットワーク学会,,その他の設立登記法人,東京都,千代田区,一ツ橋１丁目１番１号パレスサイドビル株式会社毎日学術フォーラム内,,13,101,1000003,,,,,,,2023-10-10,1,,,,,,0
2296,8010005037351,新規,0,2023-10-10,2023-10-10,一般社団法人金沢ホールディングス,,その他の設立登記法人,東京都,千代田区,内幸町２丁目１番６号,,13,101,1000011,,,,,,,2023-10-10,1,,,,,カナザワホールディングス,0
2298,8010103002224,新規,0,2023-10-10,2023-10-10,合同会社ミライ,,合同会社,東京都,八王子市,叶谷町２０２６番地,,13,201,1930815,,,,,,,2023-10-10,1,,,,,ミライ,0
2301,8010401177593,新規,0,2023-10-10,2023-10-10,株式会社ダイセルメディカル,,株式会社,東京都,港区,港南２丁目１８番１号,,13,103,1080075,,,,,,,2023-10-10,1,,,,,ダイセルメディカル,0
2302,8010401177602,新規,0,2023-10-10,2023-10-10,株式会社ハリハレ,,株式会社,東京都,港区,芝大門２丁目８番１６号島倉ビル２Ｆ,,13,103,1050012,,,,,,,2023-10-10,1,,,,,ハリハレ,0
2303,8010401177610,新規,0,2023-10-10,2023-10-10,株式会社エルヴェ,,株式会社,東京都,港区,三田１丁目２番２０号エルヴェ１階,,13,103,1080073,,,,,,,2023-10-10,1,,,,,エルヴェ,0
2304,8010401177619,新規,0,2023-10-10,2023-10-10,株式会社Ｈｏｐｅｓ,,株式会社,東京都,港区,三田１丁目６番３号,,13,103,1080073,,,,,,,2023-10-10,1,,,,,ホープス,0
2305,8010401177627,新規,0,2023-10-10,2023-10-10,株式会社ＮＡＴＳＬＩＶＥ　Ｇｒｏｕｐ,,株式会社,東京都,港区,北青山３丁目１１番７号,,13,103,1070061,,,,,,,2023-10-10,1,,,,,ナッツライブグループ,0
2306,8010401177684,新規,0,2023-10-10,2023-10-10,株式会社チェリーアイランド,,株式会社,東京都,港区,南青山６丁目４番９号３Ｆ,,13,103,1070062,,,,,,,2023-10-10,1,,,,,チェリーアイランド,0
2327,8010901053955,新規,0,2023-10-10,2023-10-10,株式会社装蹄師ＷＡＫＩ,,株式会社,東京都,世田谷区,喜多見１丁目２６番７号,,13,112,1570067,,,,,,,2023-10-10,1,,,,,ソウテイシワキ,0
2328,8010901053971,新規,0,2023-10-10,2023-10-10,株式会社Ｙ２エンターテインメント,,株式会社,東京都,世田谷区,赤堤４丁目４２番１４号,,13,112,1560044,,,,,,,2023-10-10,1,,,,,ワイツーエンターテインメント,0
2330,8010903008503,新規,0,2023-10-10,2023-10-10,こたん合同会社,,合同会社,東京都,世田谷区,玉川３丁目２２番１０号,,13,112,1580094,,,,,,,2023-10-10,1,,,,,コタン,0
2334,8011001157250,新規,0,2023-10-10,2023-10-10,株式会社ＫＩＲＡＩ,,株式会社,東京都,渋谷区,代々木１丁目５５番１４号,,13,113,1510053,,,,,,,2023-10-10,1,,,,,キライ,0
2335,8011001157440,新規,0,2023-10-10,2023-10-10,ａｒａｔａｍａ　ｄｅｓｉｇｎ株式会社,,株式会社,東京都,渋谷区,道玄坂１丁目１０番８号渋谷道玄坂東急ビル２Ｆ－Ｃ,,13,113,1500043,,,,,,,2023-10-10,1,,,,,アラタマデザイン,0
2336,8011001157473,新規,0,2023-10-10,2023-10-10,Ｍｏｎｏｉｎｔｉｖｅ株式会社,,株式会社,東京都,渋谷区,初台１丁目５１番１号初台センタービル,,13,113,1510061,,,,,,,2023-10-10,1,,,,,モノインティブ,0
2337,8011003017642,新規,0,2023-10-10,2023-10-10,合同会社ｍｅｉｒｅｎ,,合同会社,東京都,渋谷区,渋谷２丁目１９番１５号宮益坂ビルディング６０９,,13,113,1500002,,,,,,,2023-10-10,1,,,,,メイレン,0
2341,8011101104648,新規,0,2023-10-10,2023-10-10,方舟株式会社,,株式会社,東京都,新宿区,新宿２丁目９番２２号多摩川新宿ビル,,13,104,1600022,,,,,,,2023-10-10,1,,,,,ハコブネ,0
2342,8011101104664,新規,0,2023-10-10,2023-10-10,ディープシープランニング株式会社,,株式会社,東京都,新宿区,西新宿３丁目３番１３号西新宿水間ビル６階,,13,104,1600023,,,,,,,2023-10-10,1,,,,,ディープシープランニング,0
2343,8011101104697,新規,0,2023-10-10,2023-10-10,シャープワン株式会社,,株式会社,東京都,新宿区,西新宿３丁目３番１３号西新宿水間ビル２Ｆ,,13,104,1600023,,,,,,,2023-10-10,1,,,,,シャープワン,0
2345,8011103013582,新規,0,2023-10-10,2023-10-10,合同会社ＤＴＳ,,合同会社,東京都,新宿区,西新宿３丁目３番１３号西新宿水間ビル２Ｆ,,13,104,1600023,,,,,,,2023-10-10,1,,,,,ディティエス,0
2346,8011203004192,新規,0,2023-10-10,2023-10-10,合同会社カナヤ,,合同会社,東京都,中野区,野方５丁目３３－３,,13,114,1650027,,,,,,,2023-10-10,1,,,,,カナヤ,0
2347,8011301029059,新規,0,2023-10-10,2023-10-10,株式会社竹下工業,,株式会社,東京都,杉並区,宮前２丁目２７番２３号,,13,115,1680081,,,,,,,2023-10-10,1,,,,,タケシタコウギョウ,0
2348,8011303004927,新規,0,2023-10-10,2023-10-10,北村企画合同会社,,合同会社,東京都,杉並区,下高井戸２丁目２０番７号,,13,115,1680073,,,,,,,2023-10-10,1,,,,,キタムラキカク,0
2349,8011403004141,新規,0,2023-10-10,2023-10-10,合同会社ジェイベスト,,合同会社,東京都,板橋区,徳丸５丁目３番２０－２０６号,,13,119,1750083,,,,,,,2023-10-10,1,,,,,,0
2351,8011701026630,新規,0,2023-10-10,2023-10-10,株式会社ＨＩＰＳＴＡＲ,,株式会社,東京都,江戸川区,新堀１丁目１２番７号７０１,,13,123,1320001,,,,,,,2023-10-10,1,,,,,ヒップスター,0
2352,8011801043138,新規,0,2023-10-10,2023-10-10,株式会社Ｋ＆Ｒ,,株式会社,東京都,足立区,中央本町３丁目１７－１２－１０１５,,13,121,1210011,,,,,,,2023-10-10,1,,,,,ケイアンドアール,0
2357,8012401041085,新規,0,2023-10-10,2023-10-10,ＪＴビジネスアドバイザーズ株式会社,,株式会社,東京都,三鷹市,下連雀３丁目３５番１号,,13,204,1810013,,,,,,,2023-10-10,1,,,,,ジェイティービジネスアドバイザーズ,0
2359,8012405004906,新規,0,2023-10-10,2023-10-10,一般社団法人コネクト多摩,,その他の設立登記法人,東京都,多摩市,和田１２６１－１７－２０１,,13,224,2060001,,,,,,,2023-10-10,1,,,,,コネクトタマ,0
2370,8020001153762,新規,0,2023-10-10,2023-10-10,株式会社コンクリートサービス,,株式会社,神奈川県,川崎市幸区,古市場１丁目６０番地３２,,14,132,2120052,,,,,,,2023-10-10,1,,,,,コンクリートサービス,0
2371,8020001153837,新規,0,2023-10-10,2023-10-10,株式会社ストロングファイタージャパン,,株式会社,神奈川県,川崎市川崎区,川中島１丁目２２番１１号,,14,131,2100803,,,,,,,2023-10-10,1,,,,,ストロングファイタージャパン,0
2372,8020001153845,新規,0,2023-10-10,2023-10-10,株式会社ＢａｙＰｌａｎｎｉｎｇ,,株式会社,神奈川県,横浜市中区,桜木町１丁目１０１番地１クロスゲート７階,,14,104,2310062,,,,,,,2023-10-10,1,,,,,ベイプランニング,0
2373,8020003024722,新規,0,2023-10-10,2023-10-10,合同会社フクモモ,,合同会社,神奈川県,横浜市西区,西戸部町１丁目４８番地１,,14,103,2200046,,,,,,,2023-10-10,1,,,,,フクモモ,0
2375,8021001080336,新規,0,2023-10-10,2023-10-10,大槻工務店株式会社,,株式会社,神奈川県,平塚市,大神２３３０－１ブルーパレス深石２０２室,,14,203,2540012,,,,,,,2023-10-10,1,,,,,オオツキコウムテン,0
2378,8021003013632,新規,0,2023-10-10,2023-10-10,ＳＮＭｆａｖｏｒｉｔｅ合同会社,,合同会社,神奈川県,相模原市緑区,相原１丁目１８番４１号レオパレスプレミール２０４,,14,151,2520141,,,,,,,2023-10-10,1,,,,,,0
2379,8021005012905,新規,0,2023-10-10,2023-10-10,一般社団法人めでるの会,,その他の設立登記法人,神奈川県,逗子市,沼間５丁目１８番３０号,,14,208,2490004,,,,,,,2023-10-10,1,,,,,メデルノカイ,0
2389,8030001156178,新規,0,2023-10-10,2023-10-10,株式会社ＹＧＳコーポレーション,,株式会社,埼玉県,越谷市,大沢２丁目９番１１号山崎ビル３０７号,,11,222,3430025,,,,,,,2023-10-10,1,,,,,ワイジーエスコーポレーション,0
2390,8030001156319,新規,0,2023-10-10,2023-10-10,景雲株式会社,,株式会社,埼玉県,蕨市,塚越２丁目１４番１２－１０６号,,11,223,3350002,,,,,,,2023-10-10,1,,,,,ケイウン,0
2391,8030001156351,新規,0,2023-10-10,2023-10-10,株式会社オールブルー,,株式会社,埼玉県,川口市,並木１丁目２７－３藤井ビル２０２号,,11,203,3320034,,,,,,,2023-10-10,1,,,,,オールブルー,0
2392,8030001156376,新規,0,2023-10-10,2023-10-10,蒙古民族医学研究所株式会社,,株式会社,埼玉県,草加市,氷川町２１０４番地１７,,11,221,3400034,,,,,,,2023-10-10,1,,,,,モウコミンゾクイガクケンキュウジョ,0
2393,8030001156384,新規,0,2023-10-10,2023-10-10,株式会社クリーンリブート,,株式会社,埼玉県,三郷市,鷹野４丁目５２２番地１県営住宅１号棟５０６号,,11,237,3410035,,,,,,,2023-10-10,1,,,,,クリーンリブート,0
2394,8030001156434,新規,0,2023-10-10,2023-10-10,株式会社ＰＯ‐ＺＥ,,株式会社,埼玉県,越谷市,大字袋山１３６９番地８,,11,222,3430032,,,,,,,2023-10-10,1,,,,,ポーゼ,0
2395,8030001156442,新規,0,2023-10-10,2023-10-10,玉融商事株式会社,,株式会社,埼玉県,三郷市,早稲田１丁目１８番地２２ファミール早稲田１Ｆ,,11,237,3410018,,,,,,,2023-10-10,1,,,,,ギョクユウショウジ,0
2396,8030001156450,新規,0,2023-10-10,2023-10-10,クリーン住まいる株式会社,,株式会社,埼玉県,比企郡小川町,大字木部４６番地４,,11,343,3550335,,,,,,,2023-10-10,1,,,,,クリーンスマイル,0
2397,8030001156459,新規,0,2023-10-10,2023-10-10,株式会社アンド・ユー,,株式会社,埼玉県,鴻巣市,人形２丁目２番４５－１０２号グラン・コート鴻巣,,11,217,3650037,,,,,,,2023-10-10,1,,,,,アンドユー,0
2398,8030001156467,新規,0,2023-10-10,2023-10-10,株式会社ワイ・エス・ケー,,株式会社,埼玉県,本庄市,児玉町児玉２３４８番地１,,11,211,3670212,,,,,,,2023-10-10,1,,,,,ワイエスケー,0
2399,8030001156475,新規,0,2023-10-10,2023-10-10,株式会社Ｉ‐美匠,,株式会社,埼玉県,戸田市,笹目４丁目２０番地の１３（Ｌａ・Ｌｕｃｅ１０１号室）,,11,224,3350034,,,,,,,2023-10-10,1,,,,,アイビショウ,0
2400,8030001156483,新規,0,2023-10-10,2023-10-10,株式会社武屋,,株式会社,埼玉県,さいたま市大宮区,上小町１０９５番地ドミノ大宮３０３,,11,103,3300855,,,,,,,2023-10-10,1,,,,,タケヤ,0
2401,8030001156500,新規,0,2023-10-10,2023-10-10,株式会社ライフスタイル,,株式会社,埼玉県,蕨市,北町５丁目７番４号,,11,223,3350001,,,,,,,2023-10-10,1,,,,,ライフスタイル,0
2402,8030001156517,新規,0,2023-10-10,2023-10-10,株式会社信栄設備,,株式会社,埼玉県,新座市,栄２丁目９番３６号,,11,230,3520014,,,,,,,2023-10-10,1,,,,,シンエイセツビ,0
2403,8030001156525,新規,0,2023-10-10,2023-10-10,株式会社ルクール・ド・バレエ・いわき,,株式会社,埼玉県,東松山市,神明町１丁目２番３号,,11,212,3550021,,,,,,,2023-10-10,1,,,,,ルクールドバレエイワキ,0
2409,8030003022618,新規,0,2023-10-10,2023-10-10,ＤＭＴ合同会社,,合同会社,埼玉県,児玉郡上里町,大字七本木３３６３番地３,,11,385,3690306,,,,,,,2023-10-10,1,,,,,ディーエムティー,0
2410,8030003022667,新規,0,2023-10-10,2023-10-10,Ｊ＆Ｃ翔太合同会社,,合同会社,埼玉県,さいたま市西区,大字植田谷本字蓮田１３７番地１加茂川住宅１５号棟３０２室,00132192,11,101,3310053,,,,,,,2023-10-10,1,,,,,ジェイアンドシーショウタ,0
2411,8030003022675,新規,0,2023-10-10,2023-10-10,合同会社くまのす,,合同会社,埼玉県,越谷市,大字南荻島１０１２番地６,,11,222,3430804,,,,,,,2023-10-10,1,,,,,クマノス,0
2415,8040001130413,新規,0,2023-10-10,2023-10-10,株式会社市原農産,,株式会社,千葉県,長生郡睦沢町,大谷木３３８番地,,12,422,2994405,,,,,,,2023-10-10,1,,,,,イチハラノウサン,0
2418,8040003023458,新規,0,2023-10-10,2023-10-10,Ｍｉｙａｂｉ　Ｊａｐａｎ合同会社,,合同会社,千葉県,千葉市緑区,おゆみ野６丁目７番地２アルページュ弐番館１０５号,,12,105,2660031,,,,,,,2023-10-10,1,,,,,ミヤビジャパン,0
2419,8040003023499,新規,0,2023-10-10,2023-10-10,合同会社ＡＥＡ,,合同会社,千葉県,流山市,加１丁目５番１号サウスコート弐番館２０４,,12,220,2700176,,,,,,,2023-10-10,1,,,,,エーイーエー,0
2424,8050001053588,新規,0,2023-10-10,2023-10-10,株式会社藤枝物産,,株式会社,茨城県,鉾田市,菅野谷１１４０番地イ,,08,234,3111531,,,,,,,2023-10-10,1,,,,,フジエダブッサン,0
2428,8060001036419,新規,0,2023-10-10,2023-10-10,株式会社Ｐｏｔ　Ｗｅｌｌ,,株式会社,栃木県,宇都宮市,東岡本町７３９番地２２１,,09,201,3291103,,,,,,,2023-10-10,1,,,,,ポットウェル,0
2433,8060005010139,新規,0,2023-10-10,2023-10-10,医療法人至聖会,,その他の設立登記法人,栃木県,小山市,城東６丁目１０番１号,,09,208,3230807,,,,,,,2023-10-10,1,,,,,シセイカイ,0
2434,8070001040931,新規,0,2023-10-10,2023-10-10,株式会社ＣＡＤ　Ｐｒｏｇｒｅｓｓ,,株式会社,群馬県,伊勢崎市,波志江町１５３０番地,,10,204,3720001,,,,,,,2023-10-10,1,,,,,キャドプログレス,0
2468,8120001258618,新規,0,2023-10-10,2023-10-10,亜細亜開発株式会社,,株式会社,大阪府,大阪市北区,中崎１丁目５番２０号中崎ＴＫビル４階,,27,127,5300016,,,,,,,2023-10-10,1,,,,,アジアカイハツ,0
2469,8120001258691,新規,0,2023-10-10,2023-10-10,ビーウェル・マネジメント株式会社,,株式会社,大阪府,大阪市西区,立売堀１丁目４－１２立売堀スクエアビル８ｆ,,27,106,5500012,,,,,,,2023-10-10,1,,,,,ビーウェルマネジメント,0
2474,8120003025058,新規,0,2023-10-10,2023-10-10,ＫＷ　ｆａｃｔｏｒｙ合同会社,,合同会社,大阪府,大阪市北区,梅田１丁目１番３号大阪駅前第３ビル２９階１－１－１号室,,27,127,5300001,,,,,,,2023-10-10,1,,,,,ケーダブルファクトリー,0
2482,8120901048135,新規,0,2023-10-10,2023-10-10,Ｊ．Ｊ．ツール株式会社,,株式会社,大阪府,箕面市,船場西１丁目８番３号,,27,220,5620036,,,,,,,2023-10-10,1,,,,,ジェイジェイツール,0
2484,8122001037431,新規,0,2023-10-10,2023-10-10,これやん株式会社,,株式会社,大阪府,八尾市,楠根町４丁目２１番地の３,,27,212,5810814,,,,,,,2023-10-10,1,,,,,コレヤン,0
2486,8130001075384,新規,0,2023-10-10,2023-10-10,株式会社やましな工房,,株式会社,京都府,京都市山科区,椥辻西潰９－１,00132181,26,110,6078164,,,,,,,2023-10-10,1,,,,,ヤマシナコウボウ,0
2497,8140001131830,新規,0,2023-10-10,2023-10-10,ＲＡＮＡ　ＡＬＩ　ＣＯＲＰＯＲＡＴＩＯＮ株式会社,,株式会社,兵庫県,神戸市長田区,雲雀ヶ丘３丁目６－５ヴィラナリー雲雀ヶ丘５号棟３０１号室,,28,106,6530879,,,,,,,2023-10-10,1,,,,,ラーナアリコーポレーション,0
2498,8140001131863,新規,0,2023-10-10,2023-10-10,株式会社ＲＯＣＡ,,株式会社,兵庫県,神戸市灘区,篠原中町３丁目３番５号,,28,102,6570066,,,,,,,2023-10-10,1,,,,,ロカ,0
2499,8140001131888,新規,0,2023-10-10,2023-10-10,株式会社ＳＧＲ,,株式会社,兵庫県,西宮市,南越木岩町２番２７－３０４号,,28,204,6620075,,,,,,,2023-10-10,1,,,,,エスジーアール,0
2500,8140001131896,新規,0,2023-10-10,2023-10-10,株式会社荒木経営サポート,,株式会社,兵庫県,姫路市,飾磨区今在家６丁目１０８番地１,,28,201,6728079,,,,,,,2023-10-10,1,,,,,アラキケイエイサポート,0
2501,8140001131913,新規,0,2023-10-10,2023-10-10,株式会社Ｌ’ｓ　Ｃｒａｆｔｓｍａｎ,,株式会社,兵庫県,神戸市中央区,磯辺通１丁目１番１８号カサベラ国際プラザビル７０７号室,,28,110,6510084,,,,,,,2023-10-10,1,,,,,エルズクラフトマン,0
2506,8140003019628,新規,0,2023-10-10,2023-10-10,ＨＤ　Ｇｒｏｕｐ合同会社,,合同会社,兵庫県,神戸市中央区,楠町３丁目３番６号ライオンズマンション大倉山公園３０５号室,,28,110,6500017,,,,,,,2023-10-10,1,,,,,エイチディーグループ,0
2507,8140003019644,新規,0,2023-10-10,2023-10-10,合同会社讃良,,合同会社,兵庫県,尼崎市,立花町４丁目１１番５号,,28,202,6610025,,,,,,,2023-10-10,1,,,,,サララ,0
2524,8180001158283,新規,0,2023-10-10,2023-10-10,株式会社リクロスコンサルティング,,株式会社,愛知県,名古屋市中区,丸の内１丁目１４番２４号ライオンズビル第２丸の内７０４号,,23,106,4600002,,,,,,,2023-10-10,1,,,,,リクロスコンサルティング,0
2525,8180001158341,新規,0,2023-10-10,2023-10-10,株式会社ｅａｒｔｈ　ｋｉｓｅｋｉ,,株式会社,愛知県,春日井市,気噴町４丁目１５番地１３,,23,206,4870014,,,,,,,2023-10-10,1,,,,,アースキセキ,0
2528,8180003025820,新規,0,2023-10-10,2023-10-10,合同会社Ｓｅｒｉｅｓ,,合同会社,愛知県,名古屋市中村区,黄金通１丁目１４番地の２カーサアクティス３０７号,,23,105,4530804,,,,,,,2023-10-10,1,,,,,シリーズ,0
2532,8180301037864,新規,0,2023-10-10,2023-10-10,株式会社Ｓａｒｅａｌ,,株式会社,愛知県,高浜市,神明町１丁目７番地１４（ハイツマルマン４０２号）,,23,227,4441305,,,,,,,2023-10-10,1,,,,,サレアル,0
2533,8180305009521,新規,0,2023-10-10,2023-10-10,医療法人ＨＥＡＬ,,その他の設立登記法人,愛知県,安城市,花ノ木町１５番１２号,,23,212,4460039,,,,,,,2023-10-10,1,,,,,ヒール,0
2537,8200001041800,新規,0,2023-10-10,2023-10-10,株式会社Ｂｉｏｗｅｌｌｊａｐａｎ,,株式会社,岐阜県,羽島郡岐南町,若宮地３丁目１８２番地,,21,302,5016005,,,,,,,2023-10-10,1,,,,,ビオウェルジャパン,0
2542,8240003006368,新規,0,2023-10-10,2023-10-10,合同会社Ｒｅｚｅｌ,,合同会社,広島県,福山市,住吉町７番２６号,,34,207,7200809,,,,,,,2023-10-10,1,,,,,レゼル,0
2546,8270001008850,新規,0,2023-10-10,2023-10-10,株式会社１６８,,株式会社,鳥取県,米子市,車尾６丁目８番３８号,,31,202,6830006,,,,,,,2023-10-10,1,,,,,イチロクハチ,0
2547,8280001009047,新規,0,2023-10-10,2023-10-10,株式会社ＤＯＯＲプラス,,株式会社,島根県,松江市,浜乃木７丁目５番１５号,,32,201,6900044,,,,,,,2023-10-10,1,,,,,ドアプラス,0
2553,8290001103195,新規,0,2023-10-10,2023-10-10,彰雅株式会社,,株式会社,福岡県,福岡市南区,屋形原５丁目１３番２１号,,40,134,8111351,,,,,,,2023-10-10,1,,,,,アキマサ,0
2556,8290003014457,新規,0,2023-10-10,2023-10-10,合同会社ＩＴＡＳＹＥＬＬ,,合同会社,福岡県,福岡市中央区,鳥飼２丁目５番６－６０９号グラシア大濠,,40,133,8100053,,,,,,,2023-10-10,1,,,,,アイタスエール,0
2563,8290801029929,新規,0,2023-10-10,2023-10-10,株式会社マットインテリア,,株式会社,福岡県,田川郡川崎町,大字川崎２２３７,,40,605,8270003,,,,,,,2023-10-10,1,,,,,マットインテリア,0
2564,8290801029945,新規,0,2023-10-10,2023-10-10,宇津宮Ｇｒｏｕｐ株式会社,,株式会社,福岡県,北九州市小倉北区,井堀２丁目１番１３－７０８号,,40,106,8030835,,,,,,,2023-10-10,1,,,,,ウツノミヤグループ,0
2566,8310005008719,新規,0,2023-10-10,2023-10-10,医療法人恵星会,,その他の設立登記法人,長崎県,西彼杵郡時津町,浦郷２７０番地８,,42,308,8512105,,,,,,,2023-10-10,1,,,,,ケイセイカイ,0
2567,8320001020049,新規,0,2023-10-10,2023-10-10,株式会社ノットエデン,,株式会社,大分県,竹田市,荻町恵良原７３０番地６,,44,208,8796113,,,,,,,2023-10-10,1,,,,,ノットエデン,0
2568,8320001020057,新規,0,2023-10-10,2023-10-10,株式会社Ｄ‐ＴＥＣ,,株式会社,大分県,大分市,西大道２丁目１番１７号パームインマンション３０７号,,44,201,8700820,,,,,,,2023-10-10,1,,,,,ディーテック,0
2574,8340001025962,新規,0,2023-10-10,2023-10-10,株式会社１番ＤＨ,,株式会社,鹿児島県,鹿児島市,中央町２１番地１４,,46,201,8900053,,,,,,,2023-10-10,1,,,,,イチバンディーエイチ,0
2575,8340001025970,新規,0,2023-10-10,2023-10-10,南国アグリマネジメント株式会社,,株式会社,鹿児島県,薩摩川内市,東向田町８番１６号,,46,215,8950026,,,,,,,2023-10-10,1,,,,,ナンゴクアグリマネジメント,0
2577,8350001018602,新規,0,2023-10-10,2023-10-10,株式会社秋空,,株式会社,宮崎県,宮崎市,橘通東４丁目１番４号河北ビル１階,,45,201,8800805,,,,,,,2023-10-10,1,,,,,アキソラ,0
2582,8360001032651,新規,0,2023-10-10,2023-10-10,株式会社ファイブシーズンズ,,株式会社,沖縄県,糸満市,字真栄里２０２９－１０,,47,210,9010362,,,,,,,2023-10-10,1,,,,,ファイブシーズンズ,0
2589,8370001050495,新規,0,2023-10-10,2023-10-10,Ｇｒｏｗｔｈ株式会社,,株式会社,宮城県,仙台市泉区,南光台東１丁目２番１６－２０５号,,04,105,9818001,,,,,,,2023-10-10,1,,,,,グロウス,0
2594,8390001017393,新規,0,2023-10-10,2023-10-10,コンドウ工業株式会社,,株式会社,山形県,天童市,大字乱川１２６５番地２２,,06,210,9940002,,,,,,,2023-10-10,1,,,,,コンドウコウギョウ,0
2595,8400003003150,新規,0,2023-10-10,2023-10-10,合同会社Ｎｅｗ　Ｒｉｓｅ,,合同会社,岩手県,盛岡市,門前寺字門前寺５５番地,,03,201,0284133,,,,,,,2023-10-10,1,,,,,ニューライズ,0
2597,8410003003851,新規,0,2023-10-10,2023-10-10,合同会社宝縁電機,,合同会社,秋田県,由利本荘市,西目町出戸字中高屋８番地,,05,210,0180602,,,,,,,2023-10-10,1,,,,,ホウエンデンキ,0
2603,8430001090130,新規,0,2023-10-10,2023-10-10,株式会社未来看板,,株式会社,北海道,札幌市東区,北三十四条東２０丁目６－３,,01,103,0070834,,,,,,,2023-10-10,1,,,,,ミライカンバン,0
2604,8430001090147,新規,0,2023-10-10,2023-10-10,株式会社ファーストアスピ,,株式会社,北海道,札幌市北区,北二十五条西１４丁目４番１６号,,01,102,0010025,,,,,,,2023-10-10,1,,,,,ファーストアスピ,0
2605,8430003015515,新規,0,2023-10-10,2023-10-10,ＧＥＡＲ合同会社,,合同会社,北海道,札幌市中央区,伏見３丁目１－１,,01,101,0640942,,,,,,,2023-10-10,1,,,,,,0
2607,8430005014804,新規,0,2023-10-10,2023-10-10,一般社団法人Ｍメディカルアライアンス,,その他の設立登記法人,北海道,札幌市中央区,北二条西９丁目１番地,,01,101,0600002,,,,,,,2023-10-10,1,,,,,エムメディカルアライアンス,0
2610,8500001025236,新規,0,2023-10-10,2023-10-10,株式会社ＡＹＭ,,株式会社,愛媛県,松山市,古三津５丁目１２－５,,38,201,7918067,,,,,,,2023-10-10,1,,,,,,0
2612,8700150121146,新規,0,2023-10-10,2023-10-10,煙台光明彩印包装有限公司,,外国会社等,千葉県,柏市,若柴１７８－４柏の葉キャンパス１４８－１Ｅ３２０９,,12,217,2770871,中国山東省煙台市牟平区人和街２４３号,,,,,,2023-10-10,1,,,,,エンタイコウメイサイインホウソウユウゲンコウシ,0
2613,8700150121154,新規,0,2023-10-10,2023-10-10,Ｓｈｅｎｚｈｅｎ　Ｈｅｎｇｓｈａｎｇ　Ｔｒａｄｅ　Ｃｏ．，Ｌｔｄ．,,外国会社等,,,,,,,,３０１－Ｌ００１，Ｂｌｏｃｋ　４，Ｍａｎｊｉｎｇｈｕａ　Ｙｉｌｕａｎ　Ｂｕｉｌｄｉｎｇ，Ｎｏ．２３０，Ｘｉｘｉａｎｇ　Ａｖｅｎｕｅ，Ｌｏｎｇｔｅｎｇ　Ｃｏｍｍｕｎｉｔｙ，Ｘｉｘｉａｎｇ　Ｓｔｒｅｅｔ，Ｂａｏａｎ　Ｄｉｓｔｒｉｃｔ，Ｓｈｅｎｚｈｅｎ　Ｃｉｔｙ　５１８０００　ＣＮ,,,,,,2023-10-10,1,,,,,シンセンヘンシャントレードカンパニーリミテッド,0
2614,8700150121162,新規,0,2023-10-10,2023-10-10,Ｓｕｚｈｏｕ　Ｈｕａｎｆｅｎｇｈｕａ　ｍａｏｙｉ　ｙｏｕｘｉａｎ　ｇｏｎｇｓｉ,,外国会社等,,,,,,,,Ｒｏｏｍ１３１６　Ｎｕｍｂｅｒ　４９２　Ｊｉａｙｕａｎ　Ｒｏａｄ，Ｙｕａｎｈｅ　Ｓｔｒｅｅｔ　Ｘｉａｎｇｃｈｅｎｇ　Ｄｉｓｔｒｉｃｔ，Ｓｕｚｈｏｕ　Ｊｉａｎｇｓｕ　２１５１３１　ＣＮ,,,,,,2023-10-10,1,,,,,スウジョウホァンフォンホアマオイーヨウシェンゴンスー,0
2623,9010001238927,新規,0,2023-10-10,2023-10-10,ＯＮＥ　ＪＡＰＡＮ　ＤＭＣ株式会社,,株式会社,東京都,千代田区,飯田橋１丁目８番９号ニューシティハイツ飯田橋７０７,,13,101,1020072,,,,,,,2023-10-10,1,,,,,ワンジャパンディーエムシー,0
2624,9010001238935,新規,0,2023-10-10,2023-10-10,リケンＮＰＲ株式会社,,株式会社,東京都,千代田区,三番町８番地１,,13,101,1020075,,,,,,,2023-10-10,1,,,,,リケンエヌピーアール,0
2625,9010001238976,新規,0,2023-10-10,2023-10-10,株式会社ＢＥＳＩＴシステム,,株式会社,東京都,中央区,日本橋箱崎町１７番８号,,13,102,1030015,,,,,,,2023-10-10,1,,,,,ビーシットシステム,0
2626,9010001239041,新規,0,2023-10-10,2023-10-10,Ｚｅｎ＆Ｃｏｍｐａｎｙ株式会社,,株式会社,東京都,中央区,銀座１丁目１２番４号Ｎ＆ＥＢＬＤ．６Ｆ,,13,102,1040061,,,,,,,2023-10-10,1,,,,,ゼンアンドカンパニー,0
2627,9010001239099,新規,0,2023-10-10,2023-10-10,ヨシミワークス株式会社,,株式会社,東京都,文京区,本郷３丁目２６番１号３階,,13,105,1130033,,,,,,,2023-10-10,1,,,,,ヨシミワークス,0
2628,9010001239124,新規,0,2023-10-10,2023-10-10,株式会社Ｎｕｕカンパニー,,株式会社,東京都,中央区,新富２丁目１４－５ＡＣＮ銀座イーストビル９階,,13,102,1040041,,,,,,,2023-10-10,1,,,,,ヌーカンパニー,0
2631,9010003041899,新規,0,2023-10-10,2023-10-10,仙台大倉太陽光発電所合同会社,,合同会社,東京都,千代田区,丸の内１丁目８番２号鉄鋼ビルディング４階,,13,101,1000005,,,,,,,2023-10-10,1,,,,,センダイオオクラタイヨウコウハツデンショ,0
2634,9010103002215,新規,0,2023-10-10,2023-10-10,八広商事合同会社,,合同会社,東京都,八王子市,緑町２９番地,,13,201,1930932,,,,,,,2023-10-10,1,,,,,ヤヒロショウジ,0
2647,9010401177601,新規,0,2023-10-10,2023-10-10,株式会社ＶＥＳＴＡ,,株式会社,東京都,港区,白金１丁目２番２号白金ザ・スカイＷ棟１０９,,13,103,1080072,,,,,,,2023-10-10,1,,,,,ベスタ,0
2648,9010401177618,新規,0,2023-10-10,2023-10-10,株式会社９ｂ,,株式会社,東京都,港区,西麻布２丁目１８番２－３０１号,,13,103,1060031,,,,,,,2023-10-10,1,,,,,キュービー,0
2649,9010401177634,新規,0,2023-10-10,2023-10-10,株式会社セールスライト,,株式会社,東京都,港区,浜松町２丁目２－１５浜松町ダイヤビル２Ｆ,,13,103,1050013,,,,,,,2023-10-10,1,,,,,セールスライト,0
2650,9010401177700,新規,0,2023-10-10,2023-10-10,ｏｎｔｍｏｏｉ株式会社,,株式会社,東京都,港区,南青山２丁目２番１５号ＷＩＮ青山５３１,,13,103,1070062,,,,,,,2023-10-10,1,,,,,オントモーイ,0
2651,9010401177717,新規,0,2023-10-10,2023-10-10,株式会社Ｖａｌｇｏｌａ,,株式会社,東京都,港区,浜松町２丁目２番１５号浜松町ダイヤビル２Ｆ,,13,103,1050013,,,,,,,2023-10-10,1,,,,,ヴァルゴラ,0
2652,9010401177725,新規,0,2023-10-10,2023-10-10,ＯＮ＆ＢＯＡＲＤ株式会社,,株式会社,東京都,港区,芝浦４丁目８－１２－９０４,,13,103,1080023,,,,,,,2023-10-10,1,,,,,オンボード,0
2653,9010403031054,新規,0,2023-10-10,2023-10-10,合同会社ＡＩＳｔｅｐ,,合同会社,東京都,港区,南青山４丁目１６番地１１号アールスクエア南青山１１２,,13,103,1070062,,,,,,,2023-10-10,1,,,,,アイステップ,0
2654,9010403031070,新規,0,2023-10-10,2023-10-10,マインズアイ・マイクロシステムズ合同会社,,合同会社,東京都,港区,麻布十番２丁目２０番７号ＢＩＲＴＨＷＯＲＫ麻布十番,,13,103,1060045,,,,,,,2023-10-10,1,,,,,マインズアイマイクロシステムズ,0
2655,9010403031104,新規,0,2023-10-10,2023-10-10,湾岸トレーディング１号合同会社,,合同会社,東京都,港区,港南４丁目６番５－３１０３号,,13,103,1080075,,,,,,,2023-10-10,1,,,,,ワンガントレーディングイチゴウ,0
2656,9010403031120,新規,0,2023-10-10,2023-10-10,ＪＭヒドラ合同会社,,合同会社,東京都,港区,六本木１丁目９番１０号アークヒルズ仙石山森タワー４０階,,13,103,1060032,,,,,,,2023-10-10,1,,,,,ジェイエムヒドラ,0
2657,9010405022539,新規,0,2023-10-10,2023-10-10,日立ハイテク労働組合,,その他の設立登記法人,東京都,港区,虎ノ門１丁目１７番１号,,13,103,1050001,,,,,,,2023-10-10,1,,,,,ヒタチハイテク,0
2666,9010803004700,新規,0,2023-10-10,2023-10-10,Ｌｉｌａ＆Ｃｏｍｐａｎｙ合同会社,,合同会社,東京都,大田区,東雪谷３丁目１９－２,,13,111,1450065,,,,,,,2023-10-10,1,,,,,リラアンドカンパニー,0
2667,9010803004709,新規,0,2023-10-10,2023-10-10,合同会社Ｌｅａｆ,,合同会社,東京都,大田区,本羽田２丁目１５番４－２０１号,,13,111,1440044,,,,,,,2023-10-10,1,,,,,リーフ,0
2670,9010903008510,新規,0,2023-10-10,2023-10-10,Ａｂａｎｄｎｎｅ合同会社,,合同会社,東京都,世田谷区,上馬４丁目３－１８,,13,112,1540011,,,,,,,2023-10-10,1,,,,,アバンドネ,0
2674,9011001157381,新規,0,2023-10-10,2023-10-10,株式会社ＡＲＡ,,株式会社,東京都,渋谷区,代々木４丁目１５番５号,,13,113,1510053,,,,,,,2023-10-10,1,,,,,エーアールエー,0
2675,9011001157415,新規,0,2023-10-10,2023-10-10,株式会社Ｎｅｘｔ‐Ｆｌｏｗ,,株式会社,東京都,渋谷区,恵比寿１丁目２２番２３－４１２号ヴェラハイツ,,13,113,1500013,,,,,,,2023-10-10,1,,,,,ネクストフロー,0
2676,9011001157431,新規,0,2023-10-10,2023-10-10,ｓｏｅｆｆ　ｌａｂｏ株式会社,,株式会社,東京都,渋谷区,上原１丁目２２番１－６０１号,,13,113,1510064,,,,,,,2023-10-10,1,,,,,ソフラボ,0
2684,9011101104614,新規,0,2023-10-10,2023-10-10,株式会社Ｂｅａｉｌｅ,,株式会社,東京都,新宿区,西新宿３丁目３番１３号西新宿水間ビル２Ｆ,,13,104,1600023,,,,,,,2023-10-10,1,,,,,ベエル,0
2685,9011101104647,新規,0,2023-10-10,2023-10-10,ＢＩ株式会社,,株式会社,東京都,新宿区,四谷４丁目１５番地,,13,104,1600004,,,,,,,2023-10-10,1,,,,,ビーアイ,0
2686,9011101104663,新規,0,2023-10-10,2023-10-10,スタンドストロング株式会社,,株式会社,東京都,新宿区,西新宿３丁目３番１３号西新宿水間ビル２Ｆ,,13,104,1600023,,,,,,,2023-10-10,1,,,,,スタンドストロング,0
2688,9011103013557,新規,0,2023-10-10,2023-10-10,合同会社Ｒｉｖｅｒ,,合同会社,東京都,新宿区,西新宿３丁目５番１２号トーカン新宿第二キャステール３１０号室,,13,104,1600023,,,,,,,2023-10-10,1,,,,,リバー,0
2691,9011203004191,新規,0,2023-10-10,2023-10-10,合同会社クラスメイト,,合同会社,東京都,中野区,白鷺１丁目３０番３号２Ｆ,,13,114,1650035,,,,,,,2023-10-10,1,,,,,クラスメイト,0
2692,9011301029058,新規,0,2023-10-10,2023-10-10,株式会社Ｎｅｗ　Ｊａｃｋ　Ｈｏｏｋ,,株式会社,東京都,杉並区,上荻２丁目４０番１１号,,13,115,1670043,,,,,,,2023-10-10,1,,,,,ニュージャックフック,0
2700,9011701026638,新規,0,2023-10-10,2023-10-10,株式会社Ｖｉａｓｉｔ,,株式会社,東京都,江戸川区,江戸川１丁目２４番１７号,,13,123,1320013,,,,,,,2023-10-10,1,,,,,ヴィアシット,0
2702,9012405004905,新規,0,2023-10-10,2023-10-10,一般社団法人包括的性教育研究協議会,,その他の設立登記法人,東京都,武蔵野市,中町２丁目１９番１０号,,13,203,1800006,,,,,,,2023-10-10,1,,,,,ホウカツテキセイキョウイクケンキュウキョウギカイ,0
2715,9020001153836,新規,0,2023-10-10,2023-10-10,株式会社ａｉｄｅｒａ,,株式会社,神奈川県,横浜市中区,桜木町１丁目１０１番地１クロスゲート７階,,14,104,2310062,,,,,,,2023-10-10,1,,,,,エイドラ,0
2718,9020003024713,新規,0,2023-10-10,2023-10-10,ゆうりん合同会社,,合同会社,神奈川県,川崎市中原区,上小田中６丁目１１番２２－４０５号,,14,133,2110053,,,,,,,2023-10-10,1,,,,,ユウリン,0
2725,9021001080368,新規,0,2023-10-10,2023-10-10,株式会社心結,,株式会社,神奈川県,小田原市,久野２２５９番地の５,,14,206,2500055,,,,,,,2023-10-10,1,,,,,ココミ,0
2726,9021001080376,新規,0,2023-10-10,2023-10-10,ムンドエスエムトレーディング株式会社,,株式会社,神奈川県,愛甲郡愛川町,中津２１１１番地の１２,,14,401,2430303,,,,,,,2023-10-10,1,,,,,ムンドエスエムトレーディング,0
2727,9021001080384,新規,0,2023-10-10,2023-10-10,株式会社Ｓｅｉｎ,,株式会社,神奈川県,相模原市緑区,二本松４丁目９番１１号,,14,151,2520137,,,,,,,2023-10-10,1,,,,,ザイン,0
2730,9021003013664,新規,0,2023-10-10,2023-10-10,蹴球の森合同会社,,合同会社,神奈川県,鎌倉市,山崎７０８―３,,14,204,2470066,,,,,,,2023-10-10,1,,,,,シュウキュウノモリ,0
2735,9030001156318,新規,0,2023-10-10,2023-10-10,株式会社セイシンカンパニー,,株式会社,埼玉県,川口市,中青木１丁目６番３号メゾンさくら２０１,,11,203,3320032,,,,,,,2023-10-10,1,,,,,セイシンカンパニー,0
2736,9030001156383,新規,0,2023-10-10,2023-10-10,株式会社Ｋａｈｕｎａ,,株式会社,埼玉県,本庄市,下野堂３丁目２６番９号,,11,211,3670063,,,,,,,2023-10-10,1,,,,,カフーナ,0
2737,9030001156409,新規,0,2023-10-10,2023-10-10,株式会社ランドリックジャパン,,株式会社,埼玉県,越谷市,大字西新井１１６８番地３,,11,222,3430855,,,,,,,2023-10-10,1,,,,,ランドリックジャパン,0
2738,9030001156441,新規,0,2023-10-10,2023-10-10,株式会社アクト,,株式会社,埼玉県,三郷市,戸ケ崎３丁目４４１番地８,,11,237,3410044,,,,,,,2023-10-10,1,,,,,アクト,0
2739,9030001156466,新規,0,2023-10-10,2023-10-10,株式会社ウエスト,,株式会社,埼玉県,富士見市,鶴瀬東２丁目１５番１４号フォーレスト２０８,,11,235,3540024,,,,,,,2023-10-10,1,,,,,ウエスト,0
2740,9030001156482,新規,0,2023-10-10,2023-10-10,株式会社半田技研,,株式会社,埼玉県,三郷市,半田２８２番地１,,11,237,3410012,,,,,,,2023-10-10,1,,,,,ハンダギケン,0
2741,9030001156499,新規,0,2023-10-10,2023-10-10,株式会社イチカク,,株式会社,埼玉県,春日部市,粕壁東２丁目１０番２５－１２０４号,,11,214,3440062,,,,,,,2023-10-10,1,,,,,イチカク,0
2742,9030001156516,新規,0,2023-10-10,2023-10-10,株式会社ジェイスケット,,株式会社,埼玉県,久喜市,菖蒲町菖蒲３３８番地,,11,232,3460106,,,,,,,2023-10-10,1,,,,,ジェイスケット,0
2743,9030001156524,新規,0,2023-10-10,2023-10-10,株式会社隼光,,株式会社,埼玉県,川越市,大字的場４３９番地４６,,11,201,3501101,,,,,,,2023-10-10,1,,,,,シュンコウ,0
2744,9030001156565,新規,0,2023-10-10,2023-10-10,株式会社ケーネットロジ,,株式会社,埼玉県,さいたま市西区,西大宮３丁目３３番地１２,,11,101,3310078,,,,,,,2023-10-10,1,,,,,ケーネットロジ,0
2755,9030003022682,新規,0,2023-10-10,2023-10-10,ＮＥＷ　ＡＳＩＡ合同会社,,合同会社,埼玉県,川越市,大字砂９３９番地３４－１０１,,11,201,3501133,,,,,,,2023-10-10,1,,,,,ニューアジア,0
2756,9030003022699,新規,0,2023-10-10,2023-10-10,合同会社ロティ,,合同会社,埼玉県,戸田市,笹目南町１６番２０号ディコ笹目南２０２,,11,224,3350035,,,,,,,2023-10-10,1,,,,,ロティ,0
2757,9030003022724,新規,0,2023-10-10,2023-10-10,合同会社アシタノ,,合同会社,埼玉県,上尾市,柏座３丁目１番６号ＧｒａｎＡｘｉｏｎ２０２,,11,219,3620075,,,,,,,2023-10-10,1,,,,,アシタノ,0
2765,9040001130370,新規,0,2023-10-10,2023-10-10,三源興業株式会社,,株式会社,千葉県,船橋市,湊町１丁目２１番２０号,,12,204,2730011,,,,,,,2023-10-10,1,,,,,サンゲンコウギョウ,0
2766,9040001130404,新規,0,2023-10-10,2023-10-10,ｓｔａｒ‐ｐｌｕｓ株式会社,,株式会社,千葉県,市川市,市川南３丁目１１番７号,,12,203,2720033,,,,,,,2023-10-10,1,,,,,スタープラス,0
2767,9040001130412,新規,0,2023-10-10,2023-10-10,株式会社福山通商,,株式会社,千葉県,市川市,北国分４丁目９番２号,,12,203,2720836,,,,,,,2023-10-10,1,,,,,フクヤマツウショウ,0
2768,9040003023498,新規,0,2023-10-10,2023-10-10,Ｆｌａｔ５合同会社,,合同会社,千葉県,柏市,豊四季３４５番地４モア・ステージ南柏２０９号,,12,217,2770863,,,,,,,2023-10-10,1,,,,,フラットファイブ,0
2775,9050001053554,新規,0,2023-10-10,2023-10-10,株式会社ＪＡＰＡＮ　ＢＬＵＥ　ＬＩＮＥ,,株式会社,茨城県,古河市,大字尾崎字杉前４３７８番地２,,08,204,3060000,,,,,,,2023-10-10,1,,,,,ジャパンブルーライン,0
2784,9060005010138,新規,0,2023-10-10,2023-10-10,医療法人有光会,,その他の設立登記法人,栃木県,宇都宮市,インターパーク６丁目５番地３,,09,201,3210118,,,,,,,2023-10-10,1,,,,,ユウコウカイ,0
2787,9070003005122,新規,0,2023-10-10,2023-10-10,合同会社Ｃｏｒｅ,,合同会社,群馬県,太田市,新井町５３３－１、２階,,10,205,3730852,,,,,,,2023-10-10,1,,,,,コア,0
2795,9090001018355,新規,0,2023-10-10,2023-10-10,株式会社ＭＡＮＹ,,株式会社,山梨県,甲府市,武田３丁目１０番１２号,,19,201,4000016,,,,,,,2023-10-10,1,,,,,メニー,0
2799,9100003007214,新規,0,2023-10-10,2023-10-10,合同会社グローバルコネクション,,合同会社,長野県,松本市,大字島立３５７０番地６,,20,202,3900852,,,,,,,2023-10-10,1,,,,,グローバルコネクション,0
2810,9120001258567,新規,0,2023-10-10,2023-10-10,株式会社ＡＬＯＮＥ,,株式会社,大阪府,大阪市北区,西天満１丁目１１番２０号,,27,127,5300047,,,,,,,2023-10-10,1,,,,,アローン,0
2811,9120001258617,新規,0,2023-10-10,2023-10-10,株式会社コトブキゴム,,株式会社,大阪府,大阪市生野区,巽中４丁目４番４号,00132178,27,116,5440013,,,,,,,2023-10-10,1,,,,,コトブキゴム,0
2812,9120001258658,新規,0,2023-10-10,2023-10-10,アルバレックス株式会社,,株式会社,大阪府,門真市,島頭３丁目２３番１０号,,27,223,5710016,,,,,,,2023-10-10,1,,,,,アルバレックス,0
2813,9120001258674,新規,0,2023-10-10,2023-10-10,株式会社Ｃｕｒｌｙ　Ｍｅ,,株式会社,大阪府,大阪市北区,梅田１丁目１－３大阪駅前第３ビル２９階１－１－１号室,,27,127,5300001,,,,,,,2023-10-10,1,,,,,カーリーミー,0
2814,9120001258690,新規,0,2023-10-10,2023-10-10,大阪インテリジェントロボティクス株式会社,,株式会社,大阪府,枚方市,北山１丁目７９番１号大阪工業大学枚方キャンパスヒューマンロボティクス研究開発センター,,27,210,5730171,,,,,,,2023-10-10,1,,,,,オオサカインテリジェントロボティクス,0
2822,9120101068354,新規,0,2023-10-10,2023-10-10,山下物産株式会社,,株式会社,大阪府,泉南市,兎田４６２番地,,27,228,5900501,,,,,,,2023-10-10,1,,,,,ヤマシタブッサン,0
2824,9120901048159,新規,0,2023-10-10,2023-10-10,株式会社ｋｏｔｉｉｉ,,株式会社,大阪府,豊中市,本町２丁目４番７号１０１,,27,203,5600021,,,,,,,2023-10-10,1,,,,,コティー,0
2825,9120903004861,新規,0,2023-10-10,2023-10-10,合同会社ハッピー,,合同会社,大阪府,豊中市,螢池東町１丁目４－３古澤ビル１階,,27,203,5600032,,,,,,,2023-10-10,1,,,,,ハッピー,0
2840,9140001131805,新規,0,2023-10-10,2023-10-10,株式会社グラッドモーター,,株式会社,兵庫県,伊丹市,野間７丁目１番９号,,28,207,6640873,,,,,,,2023-10-10,1,,,,,グラッドモーター,0
2841,9140001131821,新規,0,2023-10-10,2023-10-10,三幸株式会社,,株式会社,兵庫県,芦屋市,船戸町２番１号ラポルテ西館４０４号,,28,206,6590093,,,,,,,2023-10-10,1,,,,,サンコウ,0
2842,9140001131862,新規,0,2023-10-10,2023-10-10,株式会社ＮＡＫＪ,,株式会社,兵庫県,高砂市,中島１丁目３番１０号,,28,216,6760001,,,,,,,2023-10-10,1,,,,,ナカジマ,0
2843,9140001131879,新規,0,2023-10-10,2023-10-10,ソムタム株式会社,,株式会社,兵庫県,姫路市,阿保乙３９２番地７,,28,201,6700944,,,,,,,2023-10-10,1,,,,,ソムタム,0
2844,9140001131895,新規,0,2023-10-10,2023-10-10,株式会社ＮＥＧＩＣ,,株式会社,兵庫県,姫路市,飾磨区中浜町３丁目１４１番地グランバリエすくいがわＡ００２,,28,201,6728085,,,,,,,2023-10-10,1,,,,,ネギック,0
2845,9140001131904,新規,0,2023-10-10,2023-10-10,株式会社ジェイメディシンク,,株式会社,兵庫県,尼崎市,立花町２丁目１１番９号,,28,202,6610025,,,,,,,2023-10-10,1,,,,,ジェイメディシンク,0
2846,9140001131912,新規,0,2023-10-10,2023-10-10,株式会社ＳＹ,,株式会社,兵庫県,宝塚市,山手台東１丁目１９－２,,28,214,6650887,,,,,,,2023-10-10,1,,,,,,0
2853,9140003019635,新規,0,2023-10-10,2023-10-10,合同会社ＴＭＧ,,合同会社,兵庫県,神戸市中央区,二宮町１丁目３番２－１３０５号,,28,110,6510093,,,,,,,2023-10-10,1,,,,,ティーエムジー,0
2854,9140003019643,新規,0,2023-10-10,2023-10-10,合同会社ヴェストラーダ,,合同会社,兵庫県,神戸市北区,若葉台２丁目１５－１０,,28,109,6511143,,,,,,,2023-10-10,1,,,,,ヴェストラーダ,0
2856,9170001017828,新規,0,2023-10-10,2023-10-10,株式会社ドリームトップ,,株式会社,和歌山県,和歌山市,雑賀道４８番地３,,30,201,6408121,,,,,,,2023-10-10,1,,,,,ドリームトップ,0
2864,9180001158274,新規,0,2023-10-10,2023-10-10,Ｕｍａｍｉ　Ｆｏｏｄ株式会社,,株式会社,愛知県,名古屋市中村区,名駅４丁目１４番１０号,,23,105,4500002,,,,,,,2023-10-10,1,,,,,ウマミフード,0
2865,9180001158282,新規,0,2023-10-10,2023-10-10,株式会社忍建材,,株式会社,愛知県,名古屋市守山区,小幡千代田１２番７号,,23,113,4630053,,,,,,,2023-10-10,1,,,,,シノブケンザイ,0
2866,9180001158357,新規,0,2023-10-10,2023-10-10,株式会社ＳＫＢ,,株式会社,愛知県,名古屋市名東区,引山３丁目２２３番地の１（パールアベニュー２２３　４０２号）,,23,115,4650002,,,,,,,2023-10-10,1,,,,,エスケイビー,0
2874,9180003025828,新規,0,2023-10-10,2023-10-10,あじづくし合同会社,,合同会社,愛知県,春日井市,勝川新町２丁目８,,23,206,4860941,,,,,,,2023-10-10,1,,,,,アジヅクシ,0
2875,9180301037896,新規,0,2023-10-10,2023-10-10,株式会社ＳＰＥＳ　ＰＥＲＦＩＣＩＯ,,株式会社,愛知県,岡崎市,竜泉寺町字上北野尻５８番地１,,23,202,4443524,,,,,,,2023-10-10,1,,,,,スペースペルフィキオ,0
2876,9180305009520,新規,0,2023-10-10,2023-10-10,一般社団法人刈谷にぎわいオフィス,,その他の設立登記法人,愛知県,刈谷市,東陽町１丁目１番地,,23,210,4480842,,,,,,,2023-10-10,1,,,,,カリヤニギワイオフィス,0
2881,9220001025627,新規,0,2023-10-10,2023-10-10,株式会社ｓｏｏｎ‐ｄｅｓｉｇｎ,,株式会社,石川県,小松市,今江町７丁目３２７番地,,17,203,9230964,,,,,,,2023-10-10,1,,,,,スーンデザイン,0
2886,9240001062222,新規,0,2023-10-10,2023-10-10,株式会社Ｕｂｉ,,株式会社,広島県,広島市南区,東雲本町２丁目９番９号２階,,34,103,7340023,,,,,,,2023-10-10,1,,,,,ウーヴィ,0
2887,9240001062230,新規,0,2023-10-10,2023-10-10,株式会社メディアトラスト,,株式会社,広島県,広島市中区,土橋町７番１号,,34,101,7300854,,,,,,,2023-10-10,1,,,,,メディアトラスト,0
2894,9260001038385,新規,0,2023-10-10,2023-10-10,株式会社アイリー,,株式会社,岡山県,倉敷市,児島味野２丁目２番６９号,,33,202,7110913,,,,,,,2023-10-10,1,,,,,アイリー,0
2902,9280003001777,新規,0,2023-10-10,2023-10-10,ＤＯＳ　ＧＡＴＡＳ合同会社,,合同会社,島根県,安来市,荒島町２２６６,,32,206,6920007,,,,,,,2023-10-10,1,,,,,ドスガタス,0
2907,9290001103285,新規,0,2023-10-10,2023-10-10,株式会社Ｓｔａｇｅ１,,株式会社,福岡県,太宰府市,通古賀３丁目１番１４ナガタビル３０１号,,40,221,8180104,,,,,,,2023-10-10,1,,,,,ステージワン,0
2908,9290001103319,新規,0,2023-10-10,2023-10-10,株式会社ｌｏｔｙ,,株式会社,福岡県,福岡市中央区,今泉１丁目１７－１６－１－４Ｆ－Ａ,,40,133,8100021,,,,,,,2023-10-10,1,,,,,ロティー,0
2910,9290003014456,新規,0,2023-10-10,2023-10-10,合同会社ＳＮ　ＴＲＡＤＩＮＧ,,合同会社,福岡県,福岡市東区,箱崎６丁目１３番７号とびしまコーポ２１２号,,40,131,8120053,,,,,,,2023-10-10,1,,,,,エスエヌトレーディング,0
2914,9290801029936,新規,0,2023-10-10,2023-10-10,株式会社ｃ．ｖａｌｕｅ,,株式会社,福岡県,北九州市小倉南区,沼緑町５丁目９番１５号,,40,107,8000207,,,,,,,2023-10-10,1,,,,,シーバリュー,0
2915,9290801029944,新規,0,2023-10-10,2023-10-10,シンコウ産業株式会社,,株式会社,福岡県,遠賀郡岡垣町,大字波津１３０７番地１湯川山リゾートハイツ２０５号,,40,383,8114201,,,,,,,2023-10-10,1,,,,,シンコウサンギョウ,0
2923,9330001031325,新規,0,2023-10-10,2023-10-10,株式会社黒田土木,,株式会社,熊本県,山鹿市,鹿央町岩原１２２６番地１,,43,208,8610561,,,,,,,2023-10-10,1,,,,,,0
2924,9340001025961,新規,0,2023-10-10,2023-10-10,天心株式会社,,株式会社,鹿児島県,姶良市,松原町１丁目３３－１０,,46,225,8995422,,,,,,,2023-10-10,1,,,,,テンシン,0
2933,9370001050494,新規,0,2023-10-10,2023-10-10,株式会社マネージコネクト,,株式会社,宮城県,仙台市青葉区,国分町３丁目９番７－４０３号,,04,101,9800803,,,,,,,2023-10-10,1,,,,,マネージコネクト,0
2936,9380003005578,新規,0,2023-10-10,2023-10-10,合同会社わんこと,,合同会社,福島県,大沼郡会津美里町,八木沢字南雨窪１７８３番地,,07,447,9696273,,,,,,,2023-10-10,1,,,,,ワンコト,0
2937,9390001017392,新規,0,2023-10-10,2023-10-10,株式会社ＷＩＳＣ倶楽部,,株式会社,山形県,天童市,東本町１丁目３番１６号,,06,210,9940026,,,,,,,2023-10-10,1,,,,,ウィスコクラブ,0
2938,9410001013612,新規,0,2023-10-10,2023-10-10,株式会社スマイル・サロン,,株式会社,秋田県,秋田市,山手台３丁目８番地３,,05,201,0101429,,,,,,,2023-10-10,1,,,,,スマイルサロン,0
2940,9420001018437,新規,0,2023-10-10,2023-10-10,株式会社丹波ガラス店,,株式会社,青森県,八戸市,湊高台６丁目８番９号,,02,203,0310823,,,,,,,2023-10-10,1,,,,,タンバガラステン,0
2943,9430001090105,新規,0,2023-10-10,2023-10-10,株式会社Ｉｌｉｏｓ,,株式会社,北海道,札幌市白石区,本郷通６丁目北３番３０号コーポＳ３－１号,,01,104,0030025,,,,,,,2023-10-10,1,,,,,イリオス,0
2944,9430001090138,新規,0,2023-10-10,2023-10-10,プロテクトアーツ株式会社,,株式会社,北海道,札幌市中央区,北六条西２３丁目１番１２号,,01,101,0600006,,,,,,,2023-10-10,1,,,,,プロテクトアーツ,0
2945,9430001090146,新規,0,2023-10-10,2023-10-10,株式会社ｌｉｋｅ　ｍｙ　ｌｉｆｅ,,株式会社,北海道,石狩郡当別町,ビトエ２３９５番地２３,,01,303,0613775,,,,,,,2023-10-10,1,,,,,ライクマイライフ,0
2948,9430003015506,新規,0,2023-10-10,2023-10-10,合同会社カキノタネ．ｃｏｍ,,合同会社,北海道,札幌市西区,西野二条２丁目６番２２号,,01,107,0630032,,,,,,,2023-10-10,1,,,,,カキノタネドットコム,0
2956,9700150121153,新規,0,2023-10-10,2023-10-10,Ｆｕｚｈｏｕ　Ｒｕｘｉｎ　Ｔｅｃｈｎｏｌｏｇｙ　ｃｏ．，ＬＴＤ,,外国会社等,,,,,,,,Ｎｏ．９０　ＢａｉｈｕａｚｈｏｕＲｏａｄ　ＪｉａｎｘｉｎＴｏｗｎ　ＣａｎｇｓｈａｎＤｉｓｔｒｉｃｔＳｔｏｒｅ０８　１ｓｔｆｌｏｏｒ　ＢｕｉｌｄｉｎｇＡ４　ＢａｉｈｕａＸｉｎｙｕａｎＣｏｍｍｕｎｉｔｙ　Ｆｕｚｈｏｕ　Ｆｕｊｉａｎ　３５０００１　ＣＮ,,,,,,2023-10-10,1,,,,,フゾオルシンテクノロジーカンパニーリミテッド,0
2957,9700150121161,新規,0,2023-10-10,2023-10-10,Ｓｈｅｎｚｈｅｎ　Ｈａｏｇｅ　Ｐｈｏｔｏｇｒａｐｈｉｃ　Ｅｑｕｉｐｍｅｎｔ　Ｃｏ．Ｌｔｄ,,外国会社等,,,,,,,,ｌｏｎｇ　ｇａｎｇ　ｑｕ　ｌｏｎｇ　ｇａｎｇ　ｊｉｅ　ｄａｏ　ｎａｎ　ｌｉａｎ　ｓｈｅ　ｑｕ　ｌｏｎｇ　ｃｈｅｎｇ　ｄａ　ｄａｏ　３１　ｈａｏ　ｊｉｎ　ｄｉ　ｋａｉ　ｘｕａｎ　ｇｕａｎｇ　ｃｈａｎｇ　４　ｄｏｎｇ　３４０６　ｓｈｅｎ　ｚｈｅｎ　ｓｈｉ　ｇｕａｎｇ　ｄｏｎｇ　ｓｈｅｎｇ　５１８０００　ＣＮ,,,,,,2023-10-10,1,,,,,シェンジェンシハオゴォショオインチーツァイヨウシェンゴンスー,0
