sequenceNumber,corporateNumber,process,correct,updateDate,changeDate,name,nameImageId,kind,prefectureName,cityName,streetNumber,addressImageId,prefectureCode,cityCode,postCode,addressOutside,addressOutsideImageId,closeDate,closeCause,successorCorporateNumber,changeCause,assignmentDate,latest,enName,enPrefectureName,enCityName,enAddressOutside,furigana,hihyoji
26,1010601010180,登記記録の閉鎖等,0,2023-02-14,2023-02-08,株式会社久保製作所,,株式会社,東京都,墨田区,業平４丁目４番４号,,13,107,1300002,,,2023-02-08,清算の結了等,,,2015-10-05,1,,,,,クボセイサクショ,0
30,1010705003312,登記記録の閉鎖等,0,2023-02-14,2023-02-09,一般社団法人セブン,,その他の設立登記法人,東京都,品川区,上大崎３丁目１番１号目黒セントラルスクエア１５階,,13,109,1410021,,,2023-02-09,清算の結了等,,,2022-01-27,1,,,,,セブン,0
62,1011005008464,登記記録の閉鎖等,0,2023-02-14,2023-02-09,特定非営利活動法人ＯＮＥ　ＴＥＡＭ,,その他の設立登記法人,東京都,品川区,東五反田１丁目６番３号,,13,109,1410022,,,2023-02-09,清算の結了等,,,2020-02-07,1,,,,,ワンチーム,0
68,1011102016246,登記記録の閉鎖等,0,2023-02-14,2023-01-31,有限会社みゆうず,,有限会社,東京都,港区,南青山６丁目７番５－１１０１号,,13,103,1070062,,,2023-01-31,合併による解散等,1011001107922,令和５年１月３１日東京都港区南青山六丁目７番５－１１０１号株式会社光（1011001107922）に合併し解散,2015-10-05,1,,,,,ミユウズ,0
88,1013301035852,登記記録の閉鎖等,0,2023-02-14,2023-02-08,株式会社オフィスアムゼル,,株式会社,東京都,豊島区,目白１丁目３番１７号目白ガーデンヒルズＣ棟５０６号,,13,116,1710031,,,2023-02-08,清算の結了等,,,2015-10-05,1,,,,,オフィスアムゼル,0
89,1013301039696,登記記録の閉鎖等,0,2023-02-14,2023-01-27,株式会社Ｔｒｉｎｉｔｉｅｚ,,株式会社,東京都,豊島区,要町３丁目７番１５号,,13,116,1710043,,,2023-01-27,清算の結了等,,,2016-11-16,1,,,,,トリニティーズ,0
96,1020002023319,登記記録の閉鎖等,0,2023-02-14,2023-02-10,有限会社大井科学,,有限会社,神奈川県,横浜市保土ケ谷区,新井町３８１番地１４,,14,106,2400053,,,2023-02-10,清算の結了等,,,2015-10-05,1,,,,,オオイカガク,0
103,1030001053489,登記記録の閉鎖等,0,2023-02-14,2023-02-10,株式会社コネット,,株式会社,埼玉県,春日部市,大場１４２５番地３,,11,214,3440021,,,2023-02-10,清算の結了等,,,2015-10-05,1,,,,,コネット,0
122,1050001009803,登記記録の閉鎖等,0,2023-02-14,2023-02-08,株式会社ミナミホーム,,株式会社,茨城県,稲敷郡美浦村,大字木原３６７番地の３,,08,442,3000421,,,2023-02-08,清算の結了等,,,2015-10-05,1,,,,,ミナミホーム,0
132,1080401018780,登記記録の閉鎖等,0,2023-02-14,2023-02-10,株式会社マスボシ,,株式会社,静岡県,浜松市南区,新橋町８００番地,,22,134,4328058,,,2023-02-10,清算の結了等,,,2015-10-05,1,,,,,マスボシ,0
136,1090001009469,登記記録の閉鎖等,0,2023-02-14,2023-02-10,株式会社ケイフィールド,,株式会社,山梨県,甲州市,塩山下萩原１５６番地１,,19,213,4040024,,,2023-02-10,清算の結了等,,,2015-10-05,1,,,,,ケイフィールド,0
155,1130001062546,登記記録の閉鎖等,0,2023-02-14,2023-02-10,株式会社Ｃ－ＦＲＯＮＴ,,株式会社,京都府,京都市中京区,釜座町２２番地,,26,104,6048241,,,2023-02-10,清算の結了等,,,2018-07-17,1,,,,,シーフロント,0
165,1160002000072,登記記録の閉鎖等,0,2023-02-14,2023-02-13,有限会社アートハウス象,,有限会社,滋賀県,大津市,唐崎１丁目２４番７号,,25,201,5200106,,,2023-02-13,清算の結了等,,,2015-10-05,1,,,,,アートハウスゾウ,0
166,1160002006697,登記記録の閉鎖等,0,2023-02-14,2023-02-10,有限会社たいや,,有限会社,滋賀県,長浜市,八幡東町４４４番地,,25,203,5260031,,,2023-02-10,清算の結了等,,,2015-10-05,1,,,,,タイヤ,0
180,1190002005300,登記記録の閉鎖等,0,2023-02-14,2023-02-10,有限会社吉中重機,,有限会社,三重県,南牟婁郡紀宝町,鮒田３番地の９,,24,562,5195714,,,2023-02-10,清算の結了等,,,2015-10-05,1,,,,,,0
184,1200002012336,登記記録の閉鎖等,0,2023-02-14,2023-02-14,有限会社エイチ・エム,,有限会社,岐阜県,大垣市,小野４丁目４２番地の１,,21,202,5030803,,,2023-02-14,清算の結了等,,,2015-10-05,1,,,,,エイチエム,0
187,1220003002887,登記記録の閉鎖等,0,2023-02-14,2023-02-10,ＬＡＳＴ　ＳＭＩＬＥ　ＲＥＣＯＲＤＳ合同会社,,合同会社,石川県,小松市,今江町２丁目６３番地,,17,203,9230964,,,2023-02-10,清算の結了等,,,2020-09-09,1,,,,,ラストスマイルレコード,0
196,1280002011537,登記記録の閉鎖等,0,2023-02-14,2023-02-10,有限会社丸和商店,,有限会社,島根県,雲南市,大東町上久野１００番地７,,32,209,6991211,,,2023-02-10,清算の結了等,,,2015-10-05,1,,,,,マルワショウテン,0
212,1320003002687,登記記録の閉鎖等,0,2023-02-14,2023-02-10,悠遊童合同会社,,合同会社,大分県,中津市,大字永添４２０番地４,,44,203,8710162,,,2023-02-10,清算の結了等,,,2017-10-12,1,,,,,,0
224,1370302000321,登記記録の閉鎖等,0,2023-02-14,2023-02-10,有限会社伊藤倫商店,,有限会社,宮城県,石巻市,鹿又字新田町浦５８番地６,,04,202,9861111,,,2023-02-10,清算の結了等,,,2015-10-05,1,,,,,イトウリンショウテン,0
245,1700150022755,登記記録の閉鎖等,0,2023-02-14,2022-06-30,湯沢フィッシングパーク運営組合,,その他,新潟県,南魚沼郡湯沢町,大字土樽６１９１－５１２,,15,461,9496103,,,2022-06-30,その他の清算の結了等,,,2015-10-09,1,,,,,ユザワフイツシングパークウンエイクミアイ,0
246,1700150084028,登記記録の閉鎖等,0,2023-02-14,2022-08-31,きばる万葉工房,,その他,大分県,竹田市,大字米納１１４９,,44,208,8780145,,,2022-08-31,その他の清算の結了等,,,2017-06-21,1,,,,,キバルマンヨウコウボウ,0
247,1700150095223,登記記録の閉鎖等,0,2023-02-14,2022-04-01,浦添市グッジョブ連携協議会,,その他,沖縄県,浦添市,内間５丁目１－９前村アパート１Ｆ,,47,208,9012121,,,2022-04-01,その他の清算の結了等,,,2019-07-05,1,,,,,ウラソエシグツジヨブレンケイキヨウギカイ,0
255,2010001224181,登記記録の閉鎖等,0,2023-02-14,2023-02-08,日本医科歯科研究院株式会社,,株式会社,東京都,中央区,東日本橋２丁目２８番５号５０８,,13,102,1030004,,,2023-02-08,清算の結了等,,,2022-01-28,1,,,,,ニホンイカシカケンキュウイン,0
277,2010403021268,登記記録の閉鎖等,0,2023-02-14,2023-02-09,ＬＳ商事合同会社,,合同会社,埼玉県,川口市,西川口４丁目１３番４号,,11,203,3320021,,,2023-02-09,清算の結了等,,,2019-08-13,1,,,,,エルエスショウジ,0
295,2011001125964,登記記録の閉鎖等,0,2023-02-14,2023-02-08,株式会社ＴＡＰＩＳＴＡ,,株式会社,東京都,渋谷区,宇田川町１６－８渋谷センタービル３Ｆ,,13,113,1500042,,,2023-02-08,清算の結了等,,,2019-01-08,1,,,,,タピスタ,0
300,2011003009232,登記記録の閉鎖等,0,2023-02-14,2023-02-03,合同会社エムシーテクノロジーズ,,合同会社,東京都,目黒区,東山３丁目１５番１号,,13,110,1530043,,,2023-02-03,清算の結了等,,,2018-10-03,1,,,,,エムシーテクノロジーズ,0
303,2011101058115,登記記録の閉鎖等,0,2023-02-14,2023-02-01,メディカルインフォマティクス株式会社,,株式会社,東京都,港区,新橋５丁目１４番１０号新橋スクエアビル７階,,13,103,1050004,,,2023-02-01,合併による解散等,8011101060949,令和５年２月１日東京都港区新橋五丁目１４番１０号株式会社ヒューマンライフ・マネジメント（8011101060949）に合併し解散,2015-10-05,1,,,,,メディカルインフォマティクス,0
306,2011101087592,登記記録の閉鎖等,0,2023-02-14,2023-02-07,株式会社キーエント,,株式会社,東京都,渋谷区,富ヶ谷１丁目４９番２１－８０４号,,13,113,1510063,,,2023-02-07,清算の結了等,,,2019-05-10,1,,,,,キーエント,0
328,2013301047582,登記記録の閉鎖等,0,2023-02-14,2023-02-08,株式会社健美ＰＲＯ,,株式会社,東京都,豊島区,池袋２丁目２２－１－７０１号室,,13,116,1710014,,,2023-02-08,清算の結了等,,,2021-06-11,1,,,,,ケンビプロ,0
329,2020001057110,登記記録の閉鎖等,0,2023-02-14,2023-01-31,パナソニックＦＳインテグレーションシステムズ株式会社,,株式会社,東京都,港区,港南４丁目１番８号,,13,103,1080075,,,2023-01-31,清算の結了等,,,2015-10-05,1,,,,,パナソニックエフエスインテグレーションシステムズ,0
365,2040001037242,登記記録の閉鎖等,0,2023-02-14,2023-02-02,株式会社リッチ,,株式会社,千葉県,松戸市,二ツ木１８６９番地の２,,12,207,2700027,,,2023-02-02,清算の結了等,,,2015-10-05,1,,,,,リッチ,0
372,2040005007002,登記記録の閉鎖等,0,2023-02-14,2023-02-06,ＮＰＯ法人三愛ユニバーサル福祉会,,その他の設立登記法人,千葉県,成田市,東町７８０番地４,,12,211,2860025,,,2023-02-06,清算の結了等,,,2015-10-05,1,,,,,サンアイユニバーサルフクシカイ,0
402,2120001078162,登記記録の閉鎖等,0,2023-02-14,2023-02-13,共栄紙工株式会社,,株式会社,大阪府,大阪市中央区,谷町７丁目４番８号,,27,128,5420012,,,2023-02-13,清算の結了等,,,2015-10-05,1,,,,,キョウエイシコウ,0
414,2120002030799,登記記録の閉鎖等,0,2023-02-14,2023-02-10,有限会社三桂,,有限会社,大阪府,大阪市北区,紅梅町３番９－８０３号,,27,127,5300038,,,2023-02-10,清算の結了等,,,2015-10-05,1,,,,,サンケイ,0
423,2120902010009,登記記録の閉鎖等,0,2023-02-14,2023-02-13,Ａ．Ｇ．Ｍ株式会社,,株式会社,大阪府,池田市,石橋４丁目９番７号,,27,204,5630032,,,2023-02-13,清算の結了等,,,2015-10-05,1,,,,,エージーエム,0
439,2180002060956,登記記録の閉鎖等,0,2023-02-14,2023-02-08,有限会社ほほえみ,,有限会社,愛知県,名古屋市中村区,藤江町３丁目１３１番地,,23,105,4530045,,,2023-02-08,清算の結了等,,,2015-10-05,1,,,,,ホホエミ,0
445,2180301022070,登記記録の閉鎖等,0,2023-02-14,2023-02-08,株式会社Ｉ＆Ｙ,,株式会社,愛知県,みよし市,三好丘緑３丁目１番地１,,23,236,4700205,,,2023-02-08,清算の結了等,,,2015-10-05,1,,,,,アイアンドワイ,0
456,2210002008968,登記記録の閉鎖等,0,2023-02-14,2023-02-10,有限会社渡辺新聞店,,有限会社,福井県,福井市,花堂東２丁目４１３番地,,18,201,9188013,,,2023-02-10,清算の結了等,,,2015-10-05,1,,,,,ワタナベシンブンテン,0
462,2240001029995,登記記録の閉鎖等,0,2023-02-14,2023-02-08,株式会社エル,,株式会社,広島県,福山市,木之庄町３丁目１０番４０号,,34,207,7200082,,,2023-02-08,清算の結了等,,,2015-10-05,1,,,,,,0
472,2290001050856,登記記録の閉鎖等,0,2023-02-14,2023-02-07,ＴＲＣ九州株式会社,,株式会社,福岡県,福岡市博多区,東比恵２丁目８番１６号,,40,132,8120007,,,2023-02-07,合併による解散等,3010001005556,令和５年２月１日東京都文京区大塚三丁目１番１号株式会社図書館流通センター（3010001005556）に合併し解散,2015-10-05,1,,,,,ティーアールシーキュウシュウ,0
488,2370002014315,登記記録の閉鎖等,0,2023-02-14,2023-02-10,東北エクスチン防災有限会社,,有限会社,宮城県,仙台市青葉区,本町２丁目９番３８号,,04,101,9800014,,,2023-02-10,清算の結了等,,,2015-10-05,1,,,,,トウホクエクスチンボウサイ,0
494,2420005003037,登記記録の閉鎖等,0,2023-02-14,2023-02-08,八戸市職員生活協同組合,,その他の設立登記法人,青森県,八戸市,内丸１丁目１番１号,,02,203,0310075,,,2023-02-08,清算の結了等,,,2015-10-05,1,,,,,ハチノヘシショクイン,0
514,3010001007602,登記記録の閉鎖等,0,2023-02-14,2023-02-08,株式会社三崎商店,,株式会社,東京都,墨田区,錦糸１丁目２番１号アルカセントラル１４階,,13,107,1300013,,,2023-02-08,清算の結了等,,,2015-10-05,1,,,,,ミサキショウテン,0
517,3010001142754,登記記録の閉鎖等,0,2023-02-14,2023-02-07,株式会社アロム,,株式会社,東京都,中央区,日本橋富沢町１０番１９－１００３号,,13,102,1030006,,,2023-02-07,清算の結了等,,,2015-10-05,1,,,,,アロム,0
533,3010601058160,登記記録の閉鎖等,0,2023-02-14,2023-02-07,株式会社ＩＤＥＡ＆ＣＯＭＰＡＮＹ,,株式会社,東京都,江東区,塩浜２丁目２９番１６号パークホームズ東陽町キャナルアリーナ４１４,,13,108,1350043,,,2023-02-07,清算の結了等,,,2020-10-14,1,,,,,アイディアアンドカンパニー,0
538,3010705003269,登記記録の閉鎖等,0,2023-02-14,2023-02-09,一般社団法人ファーストビル,,その他の設立登記法人,東京都,品川区,上大崎３丁目１番１号目黒セントラルスクエア１５階,,13,109,1410021,,,2023-02-09,清算の結了等,,,2021-09-10,1,,,,,ファーストビル,0
540,3010801021538,登記記録の閉鎖等,0,2023-02-14,2023-02-06,株式会社マーキュリー,,株式会社,東京都,大田区,東雪谷４丁目２５番１３号,,13,111,1450065,,,2023-02-06,清算の結了等,,,2015-10-05,1,,,,,マーキュリー,0
541,3010901040438,登記記録の閉鎖等,0,2023-02-14,2023-02-09,ハニイ株式会社,,株式会社,群馬県,邑楽郡大泉町,大字吉田３０３２番地,,10,524,3700523,,,2023-02-09,清算の結了等,,,2017-07-19,1,,,,,ハニイ,0
603,3021001053172,登記記録の閉鎖等,0,2023-02-14,2023-01-20,株式会社農産神奈川,,株式会社,神奈川県,中郡大磯町,生沢４８５番地,,14,341,2590102,,,2023-01-20,清算の結了等,,,2015-10-05,1,,,,,ノウサンカナガワ,0
606,3030001030809,登記記録の閉鎖等,0,2023-02-14,2023-02-07,株式会社タップ,,株式会社,埼玉県,久喜市,古久喜２４３番地,,11,232,3460001,,,2023-02-07,清算の結了等,,,2015-10-05,1,,,,,タップ,0
622,3040002090108,登記記録の閉鎖等,0,2023-02-14,2023-02-10,有限会社静間豆腐店,,有限会社,千葉県,柏市,増尾６丁目１番１４号,,12,217,2770033,,,2023-02-10,清算の結了等,,,2015-10-05,1,,,,,シズマトウフテン,0
624,3040005006969,登記記録の閉鎖等,0,2023-02-14,2023-02-10,農事組合法人成田ガイヤ,,その他の設立登記法人,千葉県,成田市,官林３７６番地１０４,,12,211,2870221,,,2023-02-10,清算の結了等,,,2015-10-05,1,,,,,,0
632,3080001023221,登記記録の閉鎖等,0,2023-02-14,2023-02-10,株式会社ベスト,,株式会社,静岡県,静岡市葵区,両替町２丁目３番地の２２－４,,22,101,4200032,,,2023-02-10,清算の結了等,,,2019-11-20,1,,,,,ベスト,0
635,3080005004077,登記記録の閉鎖等,0,2023-02-14,2023-02-10,医療法人社団医忠会,,その他の設立登記法人,静岡県,静岡市葵区,北番町７８番地の４,,22,101,4200005,,,2023-02-10,清算の結了等,,,2015-10-05,1,,,,,イチュウカイ,0
636,3080101004765,登記記録の閉鎖等,0,2023-02-14,2023-02-13,株式会社小森油店,,株式会社,静岡県,伊豆の国市,三福１８９番地の５,,22,225,4102321,,,2023-02-13,清算の結了等,,,2015-10-05,1,,,,,コモリアブラテン,0
640,3080401017054,登記記録の閉鎖等,0,2023-02-14,2023-02-14,ＩＬＳマネジメント株式会社,,株式会社,静岡県,磐田市,新貝２１４７番地５９,,22,211,4380025,,,2023-02-14,清算の結了等,,,2015-10-05,1,,,,,アイエルエスマネジメント,0
650,3110001037110,登記記録の閉鎖等,0,2023-02-14,2023-02-08,東北経済株式会社,,株式会社,新潟県,妙高市,大字小出雲１７９６番地,,15,217,9440032,,,2023-02-08,清算の結了等,,,2022-11-28,1,,,,,,0
675,3140002020995,登記記録の閉鎖等,0,2023-02-14,2023-02-06,有限会社天然食材販売会社,,有限会社,兵庫県,神戸市北区,ひよどり台２丁目２４番の１１,,28,109,6511123,,,2023-02-06,清算の結了等,,,2015-10-05,1,,,,,テンネンショクザイハンバイガイシャ,0
686,3180001152852,登記記録の閉鎖等,0,2023-02-14,2023-02-10,株式会社パスダ,,株式会社,愛知県,一宮市,木曽川町黒田字城東３５番地,,23,203,4930001,,,2023-02-10,清算の結了等,,,2022-09-01,1,,,,,パスダ,0
714,3290001075241,登記記録の閉鎖等,0,2023-02-14,2023-02-10,セブンワールドシーズマネジメント株式会社,,株式会社,福岡県,福岡市博多区,麦野２丁目６番２０号,,40,132,8120882,,,2023-02-10,清算の結了等,,,2016-09-23,1,,,,,セブンワールドシーズマネジメント,0
731,3340001010457,登記記録の閉鎖等,0,2023-02-14,2023-02-14,ＡＸＩＳ株式会社,,株式会社,鹿児島県,鹿児島市,宮之浦町２４３８番地,,46,201,8911305,,,2023-02-14,清算の結了等,,,2015-10-05,1,,,,,アクシス,0
749,3380001022787,登記記録の閉鎖等,0,2023-02-14,2023-02-10,株式会社ドラゴンジャパン,,株式会社,福島県,会津若松市,町北町大字始字宮前１２５番地,,07,202,9650052,,,2023-02-10,清算の結了等,,,2015-10-05,1,,,,,ドラゴンジャパン,0
751,3390002011020,登記記録の閉鎖等,0,2023-02-14,2023-02-08,有限会社鳥海,,有限会社,山形県,新庄市,大字鳥越１３０７番地,,06,205,9960041,,,2023-02-08,清算の結了等,,,2015-10-05,1,,,,,チョウカイ,0
761,3470001010634,登記記録の閉鎖等,0,2023-02-14,2023-02-10,株式会社ソルトスマイル,,株式会社,香川県,観音寺市,豊浜町箕浦甲１９６７番地,,37,205,7691604,,,2023-02-10,清算の結了等,,,2015-10-05,1,,,,,ソルトスマイル,0
767,3700150029435,登記記録の閉鎖等,0,2023-02-14,2022-09-30,太子町ＪＲ網干駅西南土地区画整理組合,,その他,兵庫県,揖保郡太子町,東南５１番地１,,28,464,6711523,,,2022-09-30,その他の清算の結了等,,,2015-10-09,1,,,,,タイシチヨウジエイアールアボシエキニシミナミトチクカクセイリクミアイ,0
768,3700150034947,登記記録の閉鎖等,0,2023-02-14,2022-09-30,釧路市物産協会,,その他,北海道,釧路市,幸町３丁目３,,01,206,0850017,,,2022-09-30,その他の清算の結了等,,,2015-10-09,1,,,,,クシロシブツサンキヨウカイ,0
769,3700150045374,登記記録の閉鎖等,0,2023-02-14,2022-08-31,三島市福祉協会,,その他,静岡県,三島市,一番町１３番１４号,,22,206,4110036,,,2022-08-31,その他の清算の結了等,,,2015-10-09,1,,,,,ミシマシフクシキヨウカイ,0
772,3700150091344,登記記録の閉鎖等,0,2023-02-14,2022-11-15,地域の独創的な芸術活動体験事業実行委員会,,その他,三重県,津市,大谷町１１番地,,24,201,5140007,,,2022-11-15,その他の清算の結了等,,,2018-10-24,1,,,,,チイキノドクソウテキナゲイジユツカツドウタイケンジギヨウジツコウイインカイ,0
782,4010001151820,登記記録の閉鎖等,0,2023-02-14,2023-02-13,株式会社ＭｅＴＡ,,株式会社,東京都,板橋区,中台３丁目２７番Ｄ－１００３号,,13,119,1740064,,,2023-02-13,清算の結了等,,,2015-10-05,1,,,,,ミータ,0
798,4010402008421,登記記録の閉鎖等,0,2023-02-14,2023-01-31,有限会社司総業,,有限会社,東京都,港区,西麻布２丁目２６番２号,,13,103,1060031,,,2023-01-31,清算の結了等,,,2015-10-05,1,,,,,ツカサソウギョウ,0
837,4011403001043,登記記録の閉鎖等,0,2023-02-14,2023-02-09,Ｓｐｅｃｕｌａｔｉｏｎ　Ｃａｐｉｔａｌ　Ｍａｎａｇｅｍｅｎｔ合同会社,,合同会社,埼玉県,富士見市,東みずほ台１丁目１１番地２５,,11,235,3540015,,,2023-02-09,清算の結了等,,,2015-10-05,1,,,,,,0
841,4011601006249,登記記録の閉鎖等,0,2023-02-14,2023-02-06,株式会社豊勇,,株式会社,東京都,練馬区,関町南３丁目３０番２７号,,13,120,1770053,,,2023-02-06,清算の結了等,,,2015-10-05,1,,,,,ホウユウ,0
853,4013302007369,登記記録の閉鎖等,0,2023-02-14,2023-02-08,長崎食品有限会社,,有限会社,東京都,豊島区,長崎２丁目１２番２号,,13,116,1710051,,,2023-02-08,清算の結了等,,,2015-10-05,1,,,,,ナガサキショクヒン,0
855,4013401004928,登記記録の閉鎖等,0,2023-02-14,2023-02-10,株式会社フラット,,株式会社,東京都,日野市,万願寺１丁目４番地の８,,13,212,1910024,,,2023-02-10,清算の結了等,,,2015-10-05,1,,,,,フラット,0
869,4020002097715,登記記録の閉鎖等,0,2023-02-14,2023-02-10,有限会社北沢製作所,,有限会社,神奈川県,川崎市川崎区,東門前３丁目４番２７号,,14,131,2100812,,,2023-02-10,清算の結了等,,,2015-10-05,1,,,,,キタザワセイサクジョ,0
887,4030001084639,登記記録の閉鎖等,0,2023-02-14,2023-02-10,熊谷観光バス株式会社,,株式会社,埼玉県,熊谷市,西野４番地１,,11,202,3600216,,,2023-02-10,清算の結了等,,,2015-10-05,1,,,,,クマガヤカンコウバス,0
888,4030001096246,登記記録の閉鎖等,0,2023-02-14,2023-02-10,株式会社Ｌａｂｏ,,株式会社,東京都,台東区,上野６丁目１番６号御徒町グリーンハイツ１００５号,,13,106,1100005,,,2023-02-10,清算の結了等,,,2015-10-05,1,,,,,ラボ,0
898,4030005020061,登記記録の閉鎖等,0,2023-02-14,2023-02-13,浦和協創税理士法人,,その他の設立登記法人,埼玉県,さいたま市桜区,大字上大久保５８５番地２－２０３号,,11,106,3380824,,,2023-02-13,清算の結了等,,,2020-09-09,1,,,,,ウラワキョウソウ,0
904,4050001010659,登記記録の閉鎖等,0,2023-02-14,2023-02-09,株式会社アズミ建築工房,,株式会社,茨城県,つくば市,赤塚６１０番地５７,,08,220,3050062,,,2023-02-09,清算の結了等,,,2015-10-05,1,,,,,アズミケンチクコウボウ,0
906,4050002008891,登記記録の閉鎖等,0,2023-02-14,2023-02-10,有限会社藤美研工業,,有限会社,茨城県,ひたちなか市,大字足崎字西原１４７４番地の３３,,08,221,3120003,,,2023-02-10,清算の結了等,,,2015-10-05,1,,,,,フジビケンコウギョウ,0
910,4050002042949,登記記録の閉鎖等,0,2023-02-14,2023-02-09,有限会社清水自動車,,有限会社,茨城県,筑西市,横塚１３７３番地の１,,08,227,3091116,,,2023-02-09,清算の結了等,,,2015-10-05,1,,,,,,0
913,4070005007303,登記記録の閉鎖等,0,2023-02-14,2023-01-31,天理教本利根分教会,,その他の設立登記法人,群馬県,利根郡みなかみ町,後閑２５７番地１２,,10,449,3791305,,,2023-01-31,合併による解散等,4010605000448,令和５年１月２７日東京都墨田区本所一丁目１３番１７号天理教東本大教会（4010605000448）に合併し解散,2015-10-05,1,,,,,,0
918,4080101021710,登記記録の閉鎖等,0,2023-02-14,2023-02-10,株式会社天晴,,株式会社,静岡県,駿東郡清水町,長沢２０２番地の１,,22,341,4110905,,,2023-02-10,清算の結了等,,,2020-03-27,1,,,,,テンハル,0
979,4220001012761,登記記録の閉鎖等,0,2023-02-14,2023-02-08,コスコ株式会社,,株式会社,石川県,能美市,吉原釜屋町甲４３番地,,17,211,9290121,,,2023-02-08,清算の結了等,,,2015-10-05,1,,,,,コスコ,0
982,4230001019525,登記記録の閉鎖等,0,2023-02-14,2023-02-10,株式会社ピア・サポート,,株式会社,富山県,高岡市,駅南２丁目３番５号坂本ビル,,16,202,9330871,,,2023-02-10,清算の結了等,,,2022-09-21,1,,,,,ピアサポート,0
992,4270005002093,登記記録の閉鎖等,0,2023-02-14,2023-02-10,いなば和紙協業組合,,その他の設立登記法人,鳥取県,鳥取市,青谷町河原３５０番地１,,31,201,6890515,,,2023-02-10,清算の結了等,,,2015-10-05,1,,,,,イナバワシ,0
993,4290001014314,登記記録の閉鎖等,0,2023-02-14,2023-02-10,大勝建設株式会社,,株式会社,福岡県,福岡市博多区,博多駅南４丁目２番１０号,,40,132,8120016,,,2023-02-10,清算の結了等,,,2015-10-05,1,,,,,ダイショウケンセツ,0
994,4310003000103,登記記録の閉鎖等,0,2023-02-14,2023-02-13,合資会社住吉ビル管理,,合資会社,長崎県,長崎市,住吉町１番９号,,42,201,8528154,,,2023-02-13,清算の結了等,,,2015-10-05,1,,,,,スミヨシビルカンリ,0
1019,4430002037299,登記記録の閉鎖等,0,2023-02-14,2023-02-10,有限会社ななかまど,,有限会社,北海道,札幌市南区,川沿三条４丁目１２番８号,,01,106,0050803,,,2023-02-10,清算の結了等,,,2015-10-05,1,,,,,ナナカマド,0
1024,4480001009071,登記記録の閉鎖等,0,2023-02-14,2023-02-13,株式会社はらだ牧場,,株式会社,徳島県,美馬市,脇町字西赤谷２０番地１,,36,207,7793742,,,2023-02-13,清算の結了等,,,2015-10-05,1,,,,,ハラダボクジョウ,0
1026,4500001020991,登記記録の閉鎖等,0,2023-02-14,2023-02-08,株式会社ＪＵＮＫＡＮ,,株式会社,埼玉県,所沢市,小手指町３丁目７番地の６ブレアムパレス小手指３０３,,11,208,3591141,,,2023-02-08,清算の結了等,,,2017-11-13,1,,,,,ジュンカン,0
1027,4700150003942,登記記録の閉鎖等,0,2023-02-14,2022-09-30,大日本明治製糖健康保険組合,,その他,東京都,千代田区,内幸町２丁目１番１号,,13,101,1000011,,,2022-09-30,その他の清算の結了等,,,2015-10-09,1,,,,,ダイニツポンメイジセイトウケンコウホケンクミアイ,0
1028,4700150020401,登記記録の閉鎖等,0,2023-02-14,2022-04-20,富岡シルクブランド協議会,,その他,群馬県,富岡市,富岡１－１,,10,210,3702316,,,2022-04-20,その他の清算の結了等,,,2015-10-09,1,,,,,トミオカシルクブランドキヨウギカイ,0
1029,4700150046487,登記記録の閉鎖等,0,2023-02-14,2022-11-15,アートでつなぐ・三重の文化創造事業実行委員会,,その他,三重県,津市,大谷町１１番地　三重県立美術館内,,24,201,5140007,,,2022-11-15,その他の清算の結了等,,,2015-10-09,1,,,,,アートデツナグミエノブンカソウゾウジギヨウジツコウイインカイ,0
1030,4700150088884,登記記録の閉鎖等,0,2023-02-14,2022-07-30,宇都宮第九合唱団,,その他,栃木県,宇都宮市,宝木町２丁目９００－２,,09,201,3200061,,,2022-07-30,その他の清算の結了等,,,2018-05-23,1,,,,,ウツノミヤダイクガツシヨウダン,0
1036,5010001027549,登記記録の閉鎖等,0,2023-02-14,2023-02-09,秀樹貿易株式会社,,株式会社,埼玉県,川口市,栄町３丁目１１番４号－１１０２号セントラルコーポ川口,,11,203,3320017,,,2023-02-09,清算の結了等,,,2015-10-05,1,,,,,ヒデキボウエキ,0
1039,5010001222323,登記記録の閉鎖等,0,2023-02-14,2023-02-08,日本山井生物薬粧研究所株式会社,,株式会社,東京都,中央区,東日本橋２丁目２５番８号５０８,,13,102,1030004,,,2023-02-08,清算の結了等,,,2021-11-08,1,,,,,ニホンヤマイセイブツヤクショウケンキュウショウ,0
1046,5010102007045,登記記録の閉鎖等,0,2023-02-14,2023-02-03,有限会社諸星電機,,有限会社,東京都,八王子市,上柚木１０７２番地の１,,13,201,1920373,,,2023-02-03,清算の結了等,,,2015-10-05,1,,,,,モロボシデンキ,0
1056,5010705003300,登記記録の閉鎖等,0,2023-02-14,2023-02-09,一般社団法人Ｎファーマシー,,その他の設立登記法人,東京都,品川区,上大崎３丁目１番１号目黒セントラルスクエア１５階,,13,109,1410021,,,2023-02-09,清算の結了等,,,2021-12-22,1,,,,,エヌファーマシー,0
1058,5010802009761,登記記録の閉鎖等,0,2023-02-14,2023-02-07,有限会社鉄営産業,,有限会社,東京都,大田区,池上３丁目１０番３号,,13,111,1460082,,,2023-02-07,清算の結了等,,,2015-10-05,1,,,,,テツエイサンギョウ,0
1063,5011001097367,登記記録の閉鎖等,0,2023-02-14,2023-01-31,株式会社ｕｎｔｉｃｋｌｅ,,株式会社,東京都,港区,赤坂７丁目２－１７赤坂中央マンション５０７,,13,103,1070052,,,2023-01-31,清算の結了等,,,2015-10-05,1,,,,,アンティクル,0
1072,5011101084018,登記記録の閉鎖等,0,2023-02-14,2023-02-10,株式会社鶴亀,,株式会社,東京都,中野区,江原町３丁目５－１０ライオンズマンション江古田１０２号,,13,114,1650023,,,2023-02-10,清算の結了等,,,2018-05-02,1,,,,,ツルカメ,0
1075,5011201018156,登記記録の閉鎖等,0,2023-02-14,2023-02-13,株式会社トーキョーラプス,,株式会社,東京都,中野区,上高田２丁目４０番８号オリンピックマンション２０４,,13,114,1640002,,,2023-02-13,清算の結了等,,,2015-10-05,1,,,,,トーキョーラプス,0
1078,5011301012182,登記記録の閉鎖等,0,2023-02-14,2023-02-07,エースコーポレーション株式会社,,株式会社,東京都,杉並区,上高井戸１丁目９番３号,,13,115,1680074,,,2023-02-07,清算の結了等,,,2015-10-05,1,,,,,エースコーポレーション,0
1102,5021002029269,登記記録の閉鎖等,0,2023-02-14,2023-02-08,有限会社青空学舎,,有限会社,神奈川県,相模原市緑区,寸沢嵐１９９８番地,,14,151,2520176,,,2023-02-08,清算の結了等,,,2015-10-05,1,,,,,アオゾラガクシャ,0
1111,5040001045242,登記記録の閉鎖等,0,2023-02-14,2023-02-10,株式会社ＦＭマネジメント,,株式会社,千葉県,富里市,七栄５３３番地２７,,12,233,2860221,,,2023-02-10,清算の結了等,,,2015-10-05,1,,,,,,0
1123,5050005012527,登記記録の閉鎖等,0,2023-02-14,2023-02-07,一般社団法人海外帰国基督者支援会,,その他の設立登記法人,茨城県,日立市,西成沢町１丁目４番３８号,,08,202,3160032,,,2023-02-07,清算の結了等,,,2019-06-14,1,,,,,カイガイキコクキリストシャシエンカイ,0
1135,5080402002879,登記記録の閉鎖等,0,2023-02-14,2023-02-08,有限会社コーヨユニティー,,有限会社,静岡県,浜松市南区,楊子町９８番地の１,,22,134,4300855,,,2023-02-08,清算の結了等,,,2015-10-05,1,,,,,コーヨユニティー,0
1140,5120001011178,登記記録の閉鎖等,0,2023-02-14,2023-02-10,ミヤタケ株式会社,,株式会社,大阪府,大阪市東住吉区,南田辺３丁目２６番７号,,27,121,5460033,,,2023-02-10,清算の結了等,,,2015-10-05,1,,,,,ミヤタケ,0
1150,5120002068787,登記記録の閉鎖等,0,2023-02-14,2023-02-07,有限会社エコサービス,,有限会社,大阪府,大阪市大正区,小林西２丁目２３番４号,,27,108,5510013,,,2023-02-07,清算の結了等,,,2015-10-05,1,,,,,エコサービス,0
1175,5140005020181,登記記録の閉鎖等,0,2023-02-14,2023-02-10,一般財団法人大志千里会地域福祉財団,,その他の設立登記法人,兵庫県,神戸市西区,白水２丁目１３番１８号,,28,111,6512129,,,2023-02-10,清算の結了等,,,2015-10-05,1,,,,,タイシセンリカイチイキフクシザイダン,0
1183,5180001072314,登記記録の閉鎖等,0,2023-02-14,2023-02-08,株式会社ＪＡＣ,,株式会社,愛知県,名古屋市北区,喜惣治１丁目９２番地,,23,103,4620065,,,2023-02-08,清算の結了等,,,2015-10-05,1,,,,,ジェイエーシー,0
1190,5190002001956,登記記録の閉鎖等,0,2023-02-14,2023-02-10,有限会社ハズデザインルーム,,有限会社,三重県,津市,久居元町２３５３番地の３,,24,201,5141125,,,2023-02-10,清算の結了等,,,2015-10-05,1,,,,,ハズデザインルーム,0
1196,5240002004557,登記記録の閉鎖等,0,2023-02-14,2023-02-08,有限会社北村工芸,,有限会社,広島県,広島市安佐北区,可部町大字綾ケ谷２２２７番地,,34,106,7310236,,,2023-02-08,清算の結了等,,,2015-10-05,1,,,,,キタムラコウゲイ,0
1204,5290002051933,登記記録の閉鎖等,0,2023-02-14,2023-02-10,有限会社渡辺メディカルサービス,,有限会社,福岡県,小郡市,津古８１５番地の１,,40,216,8380102,,,2023-02-10,清算の結了等,,,2015-10-05,1,,,,,ワタナベメディカルサービス,0
1208,5320002001942,登記記録の閉鎖等,0,2023-02-14,2023-02-13,有限会社金谷物産,,有限会社,大分県,大分市,大字宮河内４１５９番地の１,,44,201,8700276,,,2023-02-13,清算の結了等,,,2015-10-05,1,,,,,,0
1209,5330001021635,登記記録の閉鎖等,0,2023-02-14,2023-02-10,株式会社きむらのあられ山鹿ファーム,,株式会社,熊本県,山鹿市,平山３２０５番地,,43,208,8610556,,,2023-02-10,合併による解散等,4330001021099,令和５年２月１日熊本県上益城郡甲佐町大字芝原１５番地１株式会社きむらのあられファーム（4330001021099）に合併し解散,2015-10-05,1,,,,,キムラノアラレヤマガファーム,0
1211,5330003008564,登記記録の閉鎖等,0,2023-02-14,2023-02-08,合同会社ＥＥｅ,,合同会社,熊本県,阿蘇郡小国町,大字宮原１７３４番地２,,43,424,8692501,,,2023-02-08,合併による解散等,6330003008563,令和５年２月１日熊本県阿蘇郡小国町大字宮原１７３４番地２合同会社ＥＥ（6330003008563）に合併し解散,2020-09-09,1,,,,,イーイーイー,0
1217,5380001020153,登記記録の閉鎖等,0,2023-02-14,2023-02-09,会津喜多方雄国農園株式会社,,株式会社,福島県,喜多方市,岩月町橿野字中堀１７３９番１２,,07,208,9660003,,,2023-02-09,清算の結了等,,,2015-10-05,1,,,,,アイヅキタカタオグニノウエン,0
1235,5470001012554,登記記録の閉鎖等,0,2023-02-14,2023-02-10,株式会社下本製麺所,,株式会社,香川県,小豆郡小豆島町,池田４５８０番地３,,37,324,7614301,,,2023-02-10,清算の結了等,,,2015-10-05,1,,,,,シモモトセイメンショ,0
1243,5490005002376,登記記録の閉鎖等,0,2023-02-14,2023-01-23,天理教中束分教会,,その他の設立登記法人,高知県,四万十市,中村東町２丁目１番５１号,,39,210,7870023,,,2023-01-23,合併による解散等,7490005002382,令和５年１月２３日高知県四万十市山路４０６番地１天理教八束分教会（7490005002382）に合併し解散,2015-10-05,1,,,,,ナカツカ,0
1244,5500001007377,登記記録の閉鎖等,0,2023-02-14,2023-02-13,株式会社しらいし,,株式会社,愛媛県,伊予郡砥部町,拾町１１１番地,,38,402,7912113,,,2023-02-13,清算の結了等,,,2015-10-05,1,,,,,シライシ,0
1293,6011105005547,登記記録の閉鎖等,0,2023-02-14,2023-02-13,一般財団法人日本文化活動協会,,その他の設立登記法人,東京都,新宿区,新宿５丁目１０－１０海老沢ビル２０２,,13,104,1600022,,,2023-02-13,清算の結了等,,,2015-10-05,1,,,,,ニホンブンカカツドウキョウカイ,0
1306,6012802003776,登記記録の閉鎖等,0,2023-02-14,2023-02-13,有限会社まゆみ書房,,有限会社,東京都,昭島市,玉川町１丁目８番１－１０９,,13,207,1960034,,,2023-02-13,清算の結了等,,,2015-10-05,1,,,,,マユミショボウ,0
1307,6012805003071,登記記録の閉鎖等,0,2023-02-14,2023-02-07,一般社団法人国際共創再生機構,,その他の設立登記法人,東京都,立川市,柴崎町３丁目１４番６号リムーブル田口３０３号室,,13,202,1900023,,,2023-02-07,清算の結了等,,,2021-11-24,1,,,,,コクサイキョウソウサイセイキコウ,0
1316,6021001022653,登記記録の閉鎖等,0,2023-02-14,2023-02-10,株式会社武本商店,,株式会社,神奈川県,秦野市,上大槻１１２８番地の１７,,14,211,2570005,,,2023-02-10,清算の結了等,,,2015-10-05,1,,,,,タケモトショウテン,0
1322,6021003008337,登記記録の閉鎖等,0,2023-02-14,2023-02-08,Ｍｕｓｔａｎｇ　Ａｄｖｉｓｏｒｙ　Ｇｒｏｕｐ　合同会社,,合同会社,神奈川県,三浦市,南下浦町上宮田３２５９番地３,,14,210,2380101,,,2023-02-08,清算の結了等,,,2019-04-22,1,,,,,マスタングアドバイザリーグループ,0
1340,6040002009690,登記記録の閉鎖等,0,2023-02-14,2023-02-09,有限会社日の出商事,,有限会社,千葉県,千葉市中央区,院内１丁目１番３号,,12,101,2600018,,,2023-02-09,清算の結了等,,,2015-10-05,1,,,,,ヒノデショウジ,0
1353,6070002013351,登記記録の閉鎖等,0,2023-02-14,2023-02-09,有限会社ビオファジャパン,,有限会社,愛知県,豊田市,古瀬間町本郷９５４番地,,23,211,4710801,,,2023-02-09,清算の結了等,,,2015-10-05,1,,,,,ビオファジャパン,0
1378,6120101045538,登記記録の閉鎖等,0,2023-02-14,2023-02-13,ときわ石材株式会社,,株式会社,大阪府,岸和田市,内畑町３７８６番地,,27,202,5960105,,,2023-02-13,清算の結了等,,,2015-10-05,1,,,,,トキワセキザイ,0
1394,6140001069932,登記記録の閉鎖等,0,2023-02-14,2023-02-10,株式会社櫨塚建材,,株式会社,兵庫県,西宮市,櫨塚町４番３２号,00048171,28,204,6620854,,,2023-02-10,清算の結了等,,,2015-10-05,1,,,,,ハゼヅカケンザイ,0
1397,6140001096200,登記記録の閉鎖等,0,2023-02-14,2023-02-08,アイオ株式会社,,株式会社,兵庫県,神戸市兵庫区,七宮町２丁目１番１９号,,28,105,6520831,,,2023-02-08,合併による解散等,3370001025080,令和５年２月１日仙台市泉区泉中央三丁目２６番地の１株式会社フーレイ（3370001025080）に合併し解散,2015-10-05,1,,,,,アイオ,0
1400,6160001003220,登記記録の閉鎖等,0,2023-02-14,2023-02-10,山科三協ビルサッシ株式会社,,株式会社,京都府,京都市伏見区,横大路下三栖宮ノ後６７番地,,26,109,6128245,,,2023-02-10,清算の結了等,,,2015-10-05,1,,,,,ヤマシナサンキョウビルサッシ,0
1422,6180301021713,登記記録の閉鎖等,0,2023-02-14,2023-02-10,株式会社上村工業,,株式会社,愛知県,みよし市,福田町大沢２５番地１,,23,236,4700225,,,2023-02-10,清算の結了等,,,2015-10-05,1,,,,,ウエムラコウギョウ,0
1428,6180301029500,登記記録の閉鎖等,0,2023-02-14,2023-02-10,愛岐建築株式会社,,株式会社,愛知県,刈谷市,幸町２丁目３番地１,,23,210,4480025,,,2023-02-10,清算の結了等,,,2016-08-17,1,,,,,アイギケンチク,0
1431,6180302003231,登記記録の閉鎖等,0,2023-02-14,2023-02-09,有限会社レーザーサクセス,,有限会社,愛知県,岡崎市,宮石町字下宮下９番地１,,23,202,4442109,,,2023-02-09,清算の結了等,,,2015-10-05,1,,,,,レーザーサクセス,0
1434,6200001020062,登記記録の閉鎖等,0,2023-02-14,2023-02-10,株式会社ライズウェイ,,株式会社,岐阜県,関市,観音前３８番地,,21,205,5013835,,,2023-02-10,清算の結了等,,,2015-10-05,1,,,,,ライズウェイ,0
1442,6230005005338,登記記録の閉鎖等,0,2023-02-14,2023-02-09,清月寺,,その他の設立登記法人,富山県,小矢部市,芹川１５８８番地,,16,209,9320033,,,2023-02-09,清算の結了等,,,2015-10-05,1,,,,,セイゲツジ,0
1448,6250002019504,登記記録の閉鎖等,0,2023-02-14,2023-02-10,有限会社梅津ハウジング,,有限会社,山口県,岩国市,室の木町３丁目１５番８号,,35,208,7400021,,,2023-02-10,清算の結了等,,,2015-10-05,1,,,,,ウメヅハウジング,0
1500,6430001085677,登記記録の閉鎖等,0,2023-02-14,2023-02-08,株式会社鳴嵐科技,,株式会社,東京都,豊島区,西池袋４丁目３９番９号グローリア初穂椎名町１２０６,,13,116,1710021,,,2023-02-08,清算の結了等,,,2021-12-27,1,,,,,メイランカギ,0
1509,6480001002470,登記記録の閉鎖等,0,2023-02-14,2023-02-13,南四国不動産鑑定株式会社,,株式会社,徳島県,徳島市,川内町平石夷野１７６番地,,36,201,7710132,,,2023-02-13,清算の結了等,,,2015-10-05,1,,,,,,0
1510,6490001004631,登記記録の閉鎖等,0,2023-02-14,2023-02-10,株式会社幸の代,,株式会社,高知県,高知市,若草南町１６番２１号,,39,201,7808082,,,2023-02-10,清算の結了等,,,2015-10-05,1,,,,,サチノヨ,0
1518,6500002019189,登記記録の閉鎖等,0,2023-02-14,2023-02-13,有限会社三皿園,,有限会社,愛媛県,今治市,大西町宮脇甲１７７番地,,38,202,7992205,,,2023-02-13,清算の結了等,,,2015-10-05,1,,,,,ミサラエン,0
1521,6700150012207,登記記録の閉鎖等,0,2023-02-14,2022-09-30,ワーカーズ・コレクティブはっぴいさん,,その他,神奈川県,横浜市中区,南仲通４丁目３９石橋ビル３階　ＮＰＯ法人ワーカーズ・コレクティブ協会内,,14,104,2310006,,,2022-09-30,その他の清算の結了等,,,2015-10-09,1,,,,,ワーカーズコレクテイブハツピイサン,0
1522,6700150043078,登記記録の閉鎖等,0,2023-02-14,2021-09-27,ユニーグループ企業年金基金,,その他,愛知県,稲沢市,天池五反田町１番地,,23,220,4928275,,,2021-09-27,その他の清算の結了等,,,2015-10-09,1,,,,,ユニーグループキギヨウネンキンキキン,0
1524,6700150098452,登記記録の閉鎖等,0,2023-02-14,2022-07-25,静岡市生涯現役促進地域連携協議会,,その他,静岡県,静岡市葵区,追手町５番１号,,22,101,4200853,,,2022-07-25,その他の清算の結了等,,,2020-03-25,1,,,,,シズオカシシヨウガイゲンエキソクシンチイキレンケイキヨウギカイ,0
1540,7010005013725,登記記録の閉鎖等,0,2023-02-14,2023-02-08,特定非営利活動法人ＮＯＷ　ｆｏｒ　Ｅｍｐｏｗｅｒｍｅｎｔ,,その他の設立登記法人,東京都,中央区,東日本橋２丁目２８番４号日本橋ＣＥＴビル２階,,13,102,1030004,,,2023-02-08,清算の結了等,,,2015-10-05,1,,,,,ナウフォーエンパワメント,0
1542,7010005025101,登記記録の閉鎖等,0,2023-02-14,2023-02-09,一般社団法人医療介護人材開発協会,,その他の設立登記法人,東京都,千代田区,霞が関３丁目２番５号霞が関ビルディング４階,,13,101,1000013,,,2023-02-09,清算の結了等,,,2016-03-18,1,,,,,イリョウカイゴジンザイカイハツキョウカイ,0
1593,7011601024099,登記記録の閉鎖等,0,2023-02-14,2023-02-09,ハロチカ株式会社,,株式会社,東京都,足立区,花畑１丁目５－２－３０１号,,13,121,1210061,,,2023-02-09,清算の結了等,,,2020-03-31,1,,,,,ハロチカ,0
1615,7020003010013,登記記録の閉鎖等,0,2023-02-14,2023-02-02,エイティーマネージメント合同会社,,合同会社,神奈川県,横浜市泉区,中田南１丁目７番４－２号,,14,116,2450014,,,2023-02-02,合併による解散等,6020003011128,令和５年２月１日神奈川県横浜市泉区中田南一丁目７番４－２号エイティーマネージメント合同会社（6020003011128）に合併し解散,2015-10-05,1,,,,,エイティーマネージメント,0
1629,7040001086631,登記記録の閉鎖等,0,2023-02-14,2023-02-09,イトー不動産株式会社,,株式会社,千葉県,袖ケ浦市,坂戸市場１２７３番地６,,12,229,2990262,,,2023-02-09,清算の結了等,,,2015-10-05,1,,,,,イトーフドウサン,0
1638,7040002074338,登記記録の閉鎖等,0,2023-02-14,2023-02-09,有限会社藤栄,,有限会社,千葉県,市原市,山木２０７番地,,12,219,2900005,,,2023-02-09,清算の結了等,,,2015-10-05,1,,,,,トウエイ,0
1645,7050002023509,登記記録の閉鎖等,0,2023-02-14,2023-02-07,有限会社きのさと,,有限会社,茨城県,つくば市,高良田３９８番地２,,08,220,3002664,,,2023-02-07,清算の結了等,,,2015-10-05,1,,,,,,0
1649,7070001024530,登記記録の閉鎖等,0,2023-02-14,2023-02-09,株式会社熊川組,,株式会社,群馬県,吾妻郡嬬恋村,大字大笹１８０番地９,,10,425,3771613,,,2023-02-09,清算の結了等,,,2015-10-05,1,,,,,クマカワグミ,0
1651,7070002005380,登記記録の閉鎖等,0,2023-02-14,2023-02-09,有限会社目崎設備,,有限会社,群馬県,前橋市,高井町１丁目１９番地の３,,10,201,3710857,,,2023-02-09,清算の結了等,,,2015-10-05,1,,,,,メザキセツビ,0
1654,7080101016773,登記記録の閉鎖等,0,2023-02-14,2023-02-09,株式会社ケイエスジャパン,,株式会社,静岡県,富士市,蓼原２１５番地の７,,22,210,4160931,,,2023-02-09,清算の結了等,,,2015-10-05,1,,,,,,0
1656,7080102014495,登記記録の閉鎖等,0,2023-02-14,2023-02-10,有限会社天竜メンテ工業,,有限会社,静岡県,富士市,伝法５０８番地の４,,22,210,4170061,,,2023-02-10,清算の結了等,,,2015-10-05,1,,,,,テンリュウメンテコウギョウ,0
1657,7080402008156,登記記録の閉鎖等,0,2023-02-14,2023-02-13,有限会社村井広告事務所,,有限会社,静岡県,浜松市南区,河輪町６５９番地の１,,22,134,4300823,,,2023-02-13,清算の結了等,,,2015-10-05,1,,,,,ムライコウコクジムショ,0
1658,7080403004261,登記記録の閉鎖等,0,2023-02-14,2023-02-08,合同会社ＲＡＳＣ,,合同会社,静岡県,磐田市,掛塚１３４３番地１,,22,211,4380234,,,2023-02-08,清算の結了等,,,2021-04-26,1,,,,,ラスク,0
1719,7180002035937,登記記録の閉鎖等,0,2023-02-14,2023-02-10,有限会社杉永電話店,,有限会社,愛知県,名古屋市中区,葵１丁目２３番１１号,,23,106,4600006,,,2023-02-10,清算の結了等,,,2015-10-05,1,,,,,スギナガデンワテン,0
1725,7190002019088,登記記録の閉鎖等,0,2023-02-14,2023-02-10,有限会社アメニティプランニングシステム,,有限会社,三重県,四日市市,西山町７４１６番地,,24,202,5121103,,,2023-02-10,清算の結了等,,,2015-10-05,1,,,,,アメニティプランニングシステム,0
1728,7200002017429,登記記録の閉鎖等,0,2023-02-14,2023-02-10,有限会社オグリホーセイ,,有限会社,岐阜県,可児郡御嵩町,中切１４４４番地の２,,21,521,5050114,,,2023-02-10,清算の結了等,,,2015-10-05,1,,,,,オグリホーセイ,0
1733,7240005003249,登記記録の閉鎖等,0,2023-02-14,2023-02-10,特定非営利活動法人広島発達支援の会リバシー,,その他の設立登記法人,広島県,広島市西区,庚午中２丁目１５番２５－２０１号,,34,104,7330822,,,2023-02-10,清算の結了等,,,2015-10-05,1,,,,,ヒロシマハッタツシエンノカイリバシー,0
1776,7490005002250,登記記録の閉鎖等,0,2023-02-14,2023-01-23,天理教三束分教会,,その他の設立登記法人,高知県,幡多郡黒潮町,佐賀８５４番地,,39,428,7891720,,,2023-01-23,合併による解散等,7490005002382,令和５年１月２３日高知県四万十市山路４０６番地１天理教八束分教会（7490005002382）に合併し解散,2015-10-05,1,,,,,ミツカ,0
1782,7700150051237,登記記録の閉鎖等,0,2023-02-14,2022-11-02,高岡手形交換所,,その他,富山県,高岡市,片原町１－１,,16,202,9330026,,,2022-11-02,その他の清算の結了等,,,2015-10-09,1,,,,,タカオカテガタコウカンシヨ,0
1793,8010001212643,登記記録の閉鎖等,0,2023-02-14,2023-02-08,Ｍｅｅｔｙｏｕ株式会社,,株式会社,東京都,千代田区,東神田２丁目６番７号６０８,,13,101,1010031,,,2023-02-08,清算の結了等,,,2020-10-02,1,,,,,ミートユー,0
1795,8010002040242,登記記録の閉鎖等,0,2023-02-14,2023-01-31,有限会社國慶,,有限会社,東京都,港区,虎ノ門４丁目３番１号城山トラストタワー２７階ＳａｎｎｅＧｒｏｕｐＪａｐａｎ株式会社内,,13,103,1050001,,,2023-01-31,清算の結了等,,,2015-10-05,1,,,,,コッケイ,0
1796,8010003025184,商号の登記の抹消,0,2023-02-14,2023-02-09,ウエルスアドバイザー株式会社,,株式会社,東京都,港区,六本木１丁目６番１号,,13,103,1060032,,,,,,,2017-04-18,0,,,,,ウエルスアドバイザー,0
1828,8011001070940,登記記録の閉鎖等,0,2023-02-14,2023-02-06,株式会社カシオコミュニケーションブレインズ,,株式会社,東京都,渋谷区,本町１丁目６番２号,,13,113,1510071,,,2023-02-06,清算の結了等,,,2015-10-05,1,,,,,カシオコミュニケーションブレインズ,0
1875,8020003010367,登記記録の閉鎖等,0,2023-02-14,2023-02-02,合同会社ハチマル,,合同会社,神奈川県,横浜市泉区,中田南１丁目７番４－２号,,14,116,2450014,,,2023-02-02,合併による解散等,6020003011128,令和５年２月１日神奈川県横浜市泉区中田南一丁目７番４－２号エイティーマネージメント合同会社（6020003011128）に合併し解散,2015-10-05,1,,,,,ハチマル,0
1912,8060001018128,登記記録の閉鎖等,0,2023-02-14,2023-02-06,株式会社マリアージュ,,株式会社,栃木県,小山市,西城南４丁目１６番地１２,,09,208,3230820,,,2023-02-06,清算の結了等,,,2015-10-05,1,,,,,マリアージュ,0
1915,8060002032581,登記記録の閉鎖等,0,2023-02-14,2023-02-10,有限会社フレンド谷口,,有限会社,栃木県,栃木市,旭町１２番１３号,,09,203,3280035,,,2023-02-10,清算の結了等,,,2015-10-05,1,,,,,フレンドヤグチ,0
1919,8070002036482,登記記録の閉鎖等,0,2023-02-14,2023-02-10,重原通商有限会社,,有限会社,群馬県,吾妻郡草津町,大字草津４５４番地,,10,426,3771711,,,2023-02-10,清算の結了等,,,2015-10-05,1,,,,,シゲハラツウショウ,0
1922,8070005002688,登記記録の閉鎖等,0,2023-02-14,2023-02-09,協同組合イーストジャパンヘアモード,,その他の設立登記法人,群馬県,高崎市,八島町１７番地の３号,,10,202,3700849,,,2023-02-09,清算の結了等,,,2015-10-05,1,,,,,イーストジャパンヘアモード,0
1923,8080001005314,登記記録の閉鎖等,0,2023-02-14,2023-02-13,株式会社モリ洋装店,,株式会社,静岡県,静岡市葵区,呉服町２丁目４番地の６,,22,101,4200031,,,2023-02-13,清算の結了等,,,2015-10-05,1,,,,,モリヨウソウテン,0
1954,8120901009533,登記記録の閉鎖等,0,2023-02-14,2023-02-13,スーパーデンキ株式会社,,株式会社,大阪府,摂津市,鳥飼野々１丁目３０番９号,,27,224,5660053,,,2023-02-13,清算の結了等,,,2015-10-05,1,,,,,スーパーデンキ,0
1957,8130001034613,登記記録の閉鎖等,0,2023-02-14,2023-02-09,オブジェクティフ・ルーン株式会社,,株式会社,京都府,京都市下京区,燈籠町５７７番地,,26,106,6008401,,,2023-02-09,清算の結了等,,,2015-10-05,1,,,,,オブジェクティフルーン,0
1967,8140001123274,登記記録の閉鎖等,0,2023-02-14,2023-02-08,株式会社神明きっちん,,株式会社,兵庫県,神戸市中央区,栄町通６丁目１番２１号,,28,110,6500023,,,2023-02-08,合併による解散等,9010001191011,令和５年２月１日東京都中央区日本橋小網町１６番１５号株式会社神明（9010001191011）に合併し解散,2021-10-07,1,,,,,シンメイキッチン,0
1973,8140005018462,登記記録の閉鎖等,0,2023-02-14,2023-02-08,環境委託事業協同組合グリーンネットワークス,,その他の設立登記法人,兵庫県,川西市,久代１丁目４番１０号,,28,217,6660024,,,2023-02-08,清算の結了等,,,2015-10-05,1,,,,,カンキョウイタクグリーンネットワークス,0
1978,8180002039078,登記記録の閉鎖等,0,2023-02-14,2023-02-08,有限会社フェリックプラン,,有限会社,愛知県,丹羽郡扶桑町,大字高雄字南郷２５４番地,,23,362,4800102,,,2023-02-08,清算の結了等,,,2015-10-05,1,,,,,フェリックプラン,0
2004,8250001013563,登記記録の閉鎖等,0,2023-02-14,2023-02-06,株式会社アンズ,,株式会社,山口県,周南市,桜馬場通２丁目９番地６０２号,,35,215,7450011,,,2023-02-06,清算の結了等,,,2015-10-05,1,,,,,アンズ,0
2021,8310005003232,登記記録の閉鎖等,0,2023-02-14,2023-02-02,天理教博勇分教会,,その他の設立登記法人,長崎県,西海市,西海町七釜郷１９４９番地の１,,42,212,8572223,,,2023-02-02,合併による解散等,3290005000419,令和５年２月２日福岡市中央区輝国二丁目１番４８号天理教博多分教会（3290005000419）に合併し解散,2015-10-05,1,,,,,テンリキョウハクユウブンキョウカイ,0
2041,8420005003238,登記記録の閉鎖等,0,2023-02-14,2023-02-09,医療法人山真会,,その他の設立登記法人,青森県,三戸郡五戸町,字野月１４番地１２号,,02,442,0391533,,,2023-02-09,清算の結了等,,,2015-10-05,1,,,,,サンシンカイ,0
2047,8490001009835,登記記録の閉鎖等,0,2023-02-14,2023-02-08,株式会社Ｍｉｒｉｚ,,株式会社,高知県,四万十市,中村大橋通６丁目３番４号,,39,210,7870033,,,2023-02-08,清算の結了等,,,2021-04-07,1,,,,,ミライズ,0
2048,8490005002381,登記記録の閉鎖等,0,2023-02-14,2023-01-23,天理教若束分教会,,その他の設立登記法人,高知県,宿毛市,宿毛５３８６番地１４,,39,208,7880000,,,2023-01-23,合併による解散等,7490005002382,令和５年１月２３日高知県四万十市山路４０６番地１天理教八束分教会（7490005002382）に合併し解散,2015-10-05,1,,,,,ワカツカ,0
2052,8700150046475,登記記録の閉鎖等,0,2023-02-14,2022-03-31,豊西土地改良区,,その他,静岡県,浜松市東区,豊西町１５８７,,22,132,4313102,,,2022-03-31,その他の清算の結了等,,,2015-10-09,1,,,,,トヨニシトチカイリヨウク,0
2075,9010501022871,登記記録の閉鎖等,0,2023-02-14,2023-02-10,株式会社海の健康食品,,株式会社,東京都,台東区,西浅草１丁目１番１３－８０２号,,13,106,1110035,,,2023-02-10,清算の結了等,,,2015-10-05,1,,,,,ウミノケンコウショクヒン,0
2136,9030002055584,登記記録の閉鎖等,0,2023-02-14,2023-02-09,有限会社小澤材木店,,有限会社,埼玉県,桶川市,大字川田谷３５７０番地,,11,231,3630027,,,2023-02-09,清算の結了等,,,2015-10-05,1,,,,,オザワザイモクテン,0
2147,9040002066127,登記記録の閉鎖等,0,2023-02-14,2023-02-10,有限会社榎本時計店,,有限会社,千葉県,木更津市,木更津２丁目２番５３号,,12,206,2920056,,,2023-02-10,清算の結了等,,,2015-10-05,1,,,,,エノモトトケイテン,0
2165,9110002008311,登記記録の閉鎖等,0,2023-02-14,2023-02-13,有限会社シルバー・オート,,有限会社,新潟県,新潟市江南区,横越川根町３丁目１番４３号,,15,104,9500211,,,2023-02-13,清算の結了等,,,2015-10-05,1,,,,,シルバーオート,0
2196,9170005002990,登記記録の閉鎖等,0,2023-02-14,2023-02-03,天理教貴奥分教会,,その他の設立登記法人,和歌山県,紀の川市,桃山町野田原２５８番地の１,,30,208,6496103,,,2023-02-03,合併による解散等,6170005002993,令和５年２月３日和歌山県紀の川市貴志川町前田５２０番地天理教貴志分教会（6170005002993）に合併し解散,2015-10-05,1,,,,,テンリキョウキオクブンキョウカイ,0
2205,9180301000532,登記記録の閉鎖等,0,2023-02-14,2023-02-10,株式会社大島工業,,株式会社,愛知県,岡崎市,大門５丁目６番地５,,23,202,4442135,,,2023-02-10,清算の結了等,,,2015-10-05,1,,,,,オオシマコウギョウ,0
2209,9190001004519,登記記録の閉鎖等,0,2023-02-14,2023-02-09,東建興業株式会社,,株式会社,三重県,北牟婁郡紀北町,東長島１１４５番地の５,,24,543,5193204,,,2023-02-09,清算の結了等,,,2015-10-05,1,,,,,トウケンコウギョウ,0
2225,9240001048386,登記記録の閉鎖等,0,2023-02-14,2023-02-10,ＳＥＥＤ株式会社,,株式会社,広島県,広島市東区,光町２丁目１４番１６号,,34,102,7320052,,,2023-02-10,清算の結了等,,,2015-10-23,1,,,,,シード,0
2226,9240001056406,登記記録の閉鎖等,0,2023-02-14,2023-02-08,Ｌｏｖｌａｂ．株式会社,,株式会社,広島県,福山市,引野町１１０３番地１,,34,207,7210942,,,2023-02-08,清算の結了等,,,2020-07-21,1,,,,,ラヴラボ,0
2250,9370005000719,登記記録の閉鎖等,0,2023-02-14,2023-02-08,宝山教会,,その他の設立登記法人,宮城県,仙台市泉区,北中山１丁目１９番地の１,,04,105,9813215,,,2023-02-08,清算の結了等,,,2015-10-05,1,,,,,ホウザンキョウカイ,0
2258,9430001038657,登記記録の閉鎖等,0,2023-02-14,2023-02-13,株式会社鈴木電工,,株式会社,北海道,札幌市西区,発寒十一条１１丁目８番１５号,,01,107,0630831,,,2023-02-13,清算の結了等,,,2015-10-05,1,,,,,スズキデンコウ,0
2268,9480001000703,登記記録の閉鎖等,0,2023-02-14,2023-02-13,株式会社サーズ建設空間,,株式会社,徳島県,徳島市,南末広町１番地１５１,,36,201,7700865,,,2023-02-13,清算の結了等,,,2015-10-05,1,,,,,サーズケンセツクウカン,0
2273,9700150007410,登記記録の閉鎖等,0,2023-02-14,2022-03-31,日産自動車プリンス健康保険組合,,その他,東京都,品川区,西五反田４丁目３２－１,,13,109,1410031,,,2022-03-31,その他の清算の結了等,,,2015-10-09,1,,,,,ニツサンジドウシヤプリンスケンコウホケンクミアイ,0
