sequenceNumber,corporateNumber,process,correct,updateDate,changeDate,name,nameImageId,kind,prefectureName,cityName,streetNumber,addressImageId,prefectureCode,cityCode,postCode,addressOutside,addressOutsideImageId,closeDate,closeCause,successorCorporateNumber,changeCause,assignmentDate,latest,enName,enPrefectureName,enCityName,enAddressOutside,furigana,hihyoji
7,1010001255351,新規,0,2025-05-27,2025-05-27,株式会社万葉書房,,株式会社,東京都,文京区,向丘１丁目９番２３－９０２号,,13,105,1130023,,,,,,,2025-05-27,1,,,,,マンヨウショボウ,0
8,1010005040080,新規,0,2025-05-27,2025-05-27,ＳＳＷ０１中木戸特定目的会社,,その他の設立登記法人,東京都,千代田区,五番町６番地２ＯＡＧ税理士法人内,,13,101,1020076,,,,,,,2025-05-27,1,,,,,エスエスダブリューゼロワンナカキド,0
9,1010005040089,新規,0,2025-05-27,2025-05-27,一般社団法人ＪＲＥＡＳＴファンド第１０号,,その他の設立登記法人,東京都,千代田区,丸の内１丁目４番１号東京共同会計事務所内,,13,101,1000005,,,,,,,2025-05-27,1,,,,,ジェイアールイーストファンドダイジュウゴウ,0
17,1010403035145,新規,0,2025-05-27,2025-05-27,合同会社ストレージ松山西野町蓄電所,,合同会社,東京都,港区,麻布永坂町１番地,,13,103,1060043,,,,,,,2025-05-27,1,,,,,ストレージマツヤマニシノチョウ,0
18,1010405024385,新規,0,2025-05-27,2025-05-27,一般財団法人手帳學財団,,その他の設立登記法人,東京都,港区,南青山３丁目１番３６号青山丸竹ビル６Ｆ,,13,103,1070062,,,,,,,2025-05-27,1,,,,,テチョウガクザイダン,0
20,1010501054113,新規,0,2025-05-27,2025-05-27,＿盛国際株式会社,00139318,株式会社,東京都,台東区,浅草橋２丁目２５番１２号１Ｆ,,13,106,1110053,,,,,,,2025-05-27,1,,,,,ゲンモリコクサイ,0
22,1010601067353,新規,0,2025-05-27,2025-05-27,サンシャイン・ヘルス・マネジメント株式会社,,株式会社,東京都,江東区,富岡１丁目１番６号桜テラス１０１号室,,13,108,1350047,,,,,,,2025-05-27,1,,,,,サンシャインヘルスマネジメント,0
23,1010601067361,新規,0,2025-05-27,2025-05-27,Ｈｉｋａｒｉ　Ｐａｒｔｎｅｒｓ株式会社,,株式会社,東京都,墨田区,錦糸２丁目４－６,,13,107,1300013,,,,,,,2025-05-27,1,,,,,ヒカリパートナーズ,0
24,1010901057426,新規,0,2025-05-27,2025-05-27,株式会社ＱＵＡＬＩＡ　ＷＯＲＫＳ,,株式会社,東京都,世田谷区,北沢３丁目３２番１４号マイスタイルヴィンテージ下北沢壱番館１０４,,13,112,1550031,,,,,,,2025-05-27,1,,,,,クオリアワークス,0
25,1010901057434,新規,0,2025-05-27,2025-05-27,株式会社コグニティア,,株式会社,東京都,世田谷区,駒沢５丁目７番２号メゾンキャトルＢ,,13,112,1540012,,,,,,,2025-05-27,1,,,,,コグニティア,0
30,1011001169541,新規,0,2025-05-27,2025-05-27,ＪＡＫ株式会社,,株式会社,東京都,渋谷区,上原３丁目２６－７－３０３号,,13,113,1510064,,,,,,,2025-05-27,1,,,,,ジャカ,0
31,1011001170029,新規,0,2025-05-27,2025-05-27,株式会社ディスペンシア,,株式会社,東京都,渋谷区,道玄坂１丁目１０番８号渋谷道玄坂東急ビル２Ｆ－Ｃ,,13,113,1500043,,,,,,,2025-05-27,1,,,,,ディスペンシア,0
32,1011003021741,新規,0,2025-05-27,2025-05-27,合同会社スケールラボ,,合同会社,東京都,目黒区,五本木２丁目４９－１３－１０１,,13,110,1530053,,,,,,,2025-05-27,1,,,,,スケールラボ,0
39,1011303005576,新規,0,2025-05-27,2025-05-27,合同会社えーる,,合同会社,東京都,杉並区,南荻窪２丁目１０－２,,13,115,1670052,,,,,,,2025-05-27,1,,,,,エール,0
41,1011603004724,新規,0,2025-05-27,2025-05-27,合同会社ＫＡＫＵＪＵ,,合同会社,東京都,練馬区,下石神井２丁目２番８号,,13,120,1770042,,,,,,,2025-05-27,1,,,,,カクジュ,0
44,1011701028369,新規,0,2025-05-27,2025-05-27,株式会社タケ,,株式会社,東京都,江戸川区,瑞江４丁目３３番６号Ｆｅｒｉｏ瑞江２０５,,13,123,1320011,,,,,,,2025-05-27,1,,,,,タケ,0
46,1012401043154,新規,0,2025-05-27,2025-05-27,ホライズンゲート株式会社,,株式会社,東京都,三鷹市,下連雀３丁目２７－１２コアパレス常葉１１－９Ｆ,,13,204,1810013,,,,,,,2025-05-27,1,,,,,,0
56,1020001163058,新規,0,2025-05-27,2025-05-27,株式会社風凪,,株式会社,神奈川県,横浜市中区,不老町１丁目６番地１０苗場ビル７階,,14,104,2310032,,,,,,,2025-05-27,1,,,,,フウナギ,0
57,1020001163074,新規,0,2025-05-27,2025-05-27,株式会社理五,,株式会社,神奈川県,横浜市青葉区,もえぎ野６番地３６,,14,117,2270044,,,,,,,2025-05-27,1,,,,,マルゴ,0
61,1020003028548,新規,0,2025-05-27,2025-05-27,こえリンク合同会社,,合同会社,神奈川県,川崎市中原区,下小田中１丁目３－２３－５０１,,14,133,2110041,,,,,,,2025-05-27,1,,,,,コエリンク,0
63,1020005016872,新規,0,2025-05-27,2025-05-27,特定非営利活動法人ライフリレーション研究所,,その他の設立登記法人,神奈川県,横浜市保土ケ谷区,西谷２丁目１１番６号,,14,106,2400054,,,,,,,2025-05-27,1,,,,,ライフリレーションケンキュウジョ,0
66,1021001085300,新規,0,2025-05-27,2025-05-27,アティア・ソニック株式会社,,株式会社,神奈川県,大和市,下鶴間６３２番地１,,14,213,2420001,,,,,,,2025-05-27,1,,,,,アティアソニック,0
67,1021001085309,新規,0,2025-05-27,2025-05-27,株式会社Ｓｔｉｌｌ　Ｐｒｉｎｔｉｎｇ,,株式会社,神奈川県,横須賀市,久里浜５丁目６番３号原田ビル１階,,14,201,2390831,,,,,,,2025-05-27,1,,,,,スティルプリンティング,0
68,1021001085341,新規,0,2025-05-27,2025-05-27,株式会社エムプラント,,株式会社,神奈川県,茅ヶ崎市,堤３９番地９,,14,207,2530006,,,,,,,2025-05-27,1,,,,,エムプラント,0
70,1021003016047,新規,0,2025-05-27,2025-05-27,ＬＭ　ＴＲＡＤＩＮＧ合同会社,,合同会社,神奈川県,大和市,福田３丁目１３－２レインボーハイツ２０７号室,,14,213,2420024,,,,,,,2025-05-27,1,,,,,エルエムトレーディング,0
71,1021003016055,新規,0,2025-05-27,2025-05-27,合同会社夜明けラボ,,合同会社,神奈川県,茅ヶ崎市,美住町１２番１号,,14,207,2530023,,,,,,,2025-05-27,1,,,,,ヨアケラボ,0
80,1030001166596,新規,0,2025-05-27,2025-05-27,巨福産業株式会社,,株式会社,埼玉県,さいたま市岩槻区,大字釣上新田９１６番地８,,11,110,3390025,,,,,,,2025-05-27,1,,,,,キョフクサンギョウ,0
81,1030001166654,新規,0,2025-05-27,2025-05-27,株式会社買取一粒万倍日,,株式会社,埼玉県,さいたま市浦和区,高砂２丁目６番１５号イブキビル１階,,11,107,3300063,,,,,,,2025-05-27,1,,,,,カイトリイチリュウマンバイビ,0
84,1030003026848,新規,0,2025-05-27,2025-05-27,合同会社ＫＥＮＫＩ,,合同会社,埼玉県,戸田市,本町４丁目７番２－１０６号,,11,224,3350023,,,,,,,2025-05-27,1,,,,,,0
88,1040001138974,新規,0,2025-05-27,2025-05-27,株式会社兆秋ホールディングス,,株式会社,千葉県,印西市,牧の原３丁目４―１１９,,12,231,2701331,,,,,,,2025-05-27,1,,,,,チョウシュウホールディングス,0
91,1040003027663,新規,0,2025-05-27,2025-05-27,合同会社エール,,合同会社,千葉県,柏市,小青田３丁目１番地６シャリエ柏たなかステーションヴィラ２０２号,,12,217,2770803,,,,,,,2025-05-27,1,,,,,エール,0
93,1050003009306,新規,0,2025-05-27,2025-05-27,合同会社メメ,,合同会社,茨城県,つくば市,みどりの２丁目１８番地１７,,08,220,3050881,,,,,,,2025-05-27,1,,,,,メメ,0
95,1060001038231,新規,0,2025-05-27,2025-05-27,Ｒｅ．グループホールディングス株式会社,,株式会社,栃木県,宇都宮市,陽南２丁目１４番２２号マーベラスＹＫ１０５,,09,201,3200834,,,,,,,2025-05-27,1,,,,,リグループホールディングス,0
98,1070001042959,新規,0,2025-05-27,2025-05-27,株式会社ＭＡＫＡＭＡ　Ｃｏ．,,株式会社,群馬県,桐生市,相生町２丁目５５６番地の６,,10,203,3760011,,,,,,,2025-05-27,1,,,,,,0
102,1080001026952,新規,0,2025-05-27,2025-05-27,株式会社ＲＡＳＣ,,株式会社,静岡県,焼津市,八楠３丁目１３番地の１１,,22,212,4250091,,,,,,,2025-05-27,1,,,,,ラスク,0
103,1080003003462,新規,0,2025-05-27,2025-05-27,合同会社リエゾン,,合同会社,静岡県,静岡市葵区,牛妻２０９５番地の１７５,,22,101,4212106,,,,,,,2025-05-27,1,,,,,リエゾン,0
106,1100001038631,新規,0,2025-05-27,2025-05-27,株式会社ファイブキーズ,,株式会社,長野県,駒ヶ根市,赤須町６番１３号,,20,210,3994113,,,,,,,2025-05-27,1,,,,,ファイブキーズ,0
119,1120001275966,新規,0,2025-05-27,2025-05-27,ジャパネクトキャリア株式会社,,株式会社,大阪府,大阪市北区,梅田１丁目１－３大阪駅前第３ビル２３０７,,27,127,5300001,,,,,,,2025-05-27,1,,,,,ジャパネクトキャリア,0
120,1120001276031,新規,0,2025-05-27,2025-05-27,株式会社美助人,,株式会社,大阪府,寝屋川市,池田中町１４番１２号,,27,215,5720074,,,,,,,2025-05-27,1,,,,,ビスケット,0
121,1120001276048,新規,0,2025-05-27,2025-05-27,シイ株式会社,,株式会社,大阪府,大阪市浪速区,戎本町１丁目９－２４－１０４,,27,111,5560013,,,,,,,2025-05-27,1,,,,,シイ,0
122,1120001276155,新規,0,2025-05-27,2025-05-27,ネオモード株式会社,,株式会社,大阪府,大阪市北区,菅原町１０番１２－２８０６号,,27,127,5300046,,,,,,,2025-05-27,1,,,,,ネオモード,0
123,1120001276171,新規,0,2025-05-27,2025-05-27,株式会社エイクロック,,株式会社,大阪府,大阪市西区,南堀江３丁目６番４号,,27,106,5500015,,,,,,,2025-05-27,1,,,,,エイクロック,0
124,1120001276188,新規,0,2025-05-27,2025-05-27,株式会社華豊コーポレーション,,株式会社,大阪府,大阪市中央区,島之内１丁目２１番２４号ファーストＫビル７Ｆ,,27,128,5420082,,,,,,,2025-05-27,1,,,,,カホウコーポレーション,0
125,1120001276238,新規,0,2025-05-27,2025-05-27,株式会社ＴＡＫＡＭＵＲＡ,,株式会社,大阪府,大阪市北区,茶屋町７番２０号,,27,127,5300013,,,,,,,2025-05-27,1,,,,,タカムラ,0
126,1120001276270,新規,0,2025-05-27,2025-05-27,株式会社ａｌｍａｌｉｏ,,株式会社,大阪府,大阪市北区,兎我野町２番７号大阪屋ノースプラザ１階,,27,127,5300056,,,,,,,2025-05-27,1,,,,,アルマリオ,0
131,1120003029528,新規,0,2025-05-27,2025-05-27,エーアイエル合同会社,,合同会社,大阪府,枚方市,岡本町７番１号枚方ビオルネ５階ビィーゴ１３５,,27,210,5730031,,,,,,,2025-05-27,1,,,,,エーアイエル,0
132,1120003029560,新規,0,2025-05-27,2025-05-27,ＣＡＹ　ＷＥＢ　ＣＯＮＳＵＬＴＩＮＧ合同会社,,合同会社,大阪府,大阪市中央区,南船場３丁目２番２２号おおきに南船場ビル２０５,,27,128,5420081,,,,,,,2025-05-27,1,,,,,ケイウェブコンサルティング,0
133,1120003029593,新規,0,2025-05-27,2025-05-27,合同会社石田,,合同会社,大阪府,守口市,梅町８番４号,,27,209,5700087,,,,,,,2025-05-27,1,,,,,イシダ,0
139,1122001039260,新規,0,2025-05-27,2025-05-27,株式会社ナンテンドウ,,株式会社,大阪府,柏原市,清州１丁目３番１４号,,27,221,5820006,,,,,,,2025-05-27,1,,,,,ナンテンドウ,0
144,1140001138717,新規,0,2025-05-27,2025-05-27,株式会社ＰＰロジスティクス,,株式会社,兵庫県,神戸市東灘区,住吉南町１丁目８番３号２０２号,,28,101,6580041,,,,,,,2025-05-27,1,,,,,ピーピーロジスティクス,0
146,1140003022101,新規,0,2025-05-27,2025-05-27,合同会社いちなな,,合同会社,兵庫県,神戸市須磨区,神の谷５丁目１０番４４号,,28,107,6540162,,,,,,,2025-05-27,1,,,,,イチナナ,0
147,1140003022118,新規,0,2025-05-27,2025-05-27,拾山合同会社,,合同会社,兵庫県,神戸市中央区,熊内町４丁目８－１益本ビル５階,,28,110,6510056,,,,,,,2025-05-27,1,,,,,ジュウザン,0
149,1150001028149,新規,0,2025-05-27,2025-05-27,株式会社光信,,株式会社,奈良県,葛城市,尺土２２４－１豊富尺土ビル３０２,,29,211,6392162,,,,,,,2025-05-27,1,,,,,コウシン,0
153,1160001026787,新規,0,2025-05-27,2025-05-27,株式会社サンクルーズ,,株式会社,滋賀県,大津市,松が丘７丁目５番４号,,25,201,5202102,,,,,,,2025-05-27,1,,,,,サンクルーズ,0
158,1180001166937,新規,0,2025-05-27,2025-05-27,株式会社東海プロデュース,,株式会社,愛知県,名古屋市東区,東桜１丁目１４番１２号,,23,102,4610005,,,,,,,2025-05-27,1,,,,,トウカイプロデュース,0
159,1180001166953,新規,0,2025-05-27,2025-05-27,株式会社ＳＯＵＲＣＥ,,株式会社,愛知県,名古屋市中村区,名駅３丁目４番１０号アルティメイト名駅１ｓｔ２階,,23,105,4500002,,,,,,,2025-05-27,1,,,,,ソース,0
164,1180003028524,新規,0,2025-05-27,2025-05-27,ＨＴ合同会社,,合同会社,愛知県,名古屋市南区,前浜通７丁目３２番地蝶屋ビル１階,,23,112,4570058,,,,,,,2025-05-27,1,,,,,エイチティー,0
165,1180301039826,新規,0,2025-05-27,2025-05-27,株式会社ＨＡＹＡＴＥ,,株式会社,愛知県,豊田市,西岡町保ケ山４１番地６,,23,211,4730936,,,,,,,2025-05-27,1,,,,,ハヤテ,0
166,1180303006584,新規,0,2025-05-27,2025-05-27,合同会社ＡＲｅＣ,,合同会社,愛知県,岡崎市,矢作町字西林寺２０６番地１９,,23,202,4440943,,,,,,,2025-05-27,1,,,,,アレック,0
179,1220001026698,新規,0,2025-05-27,2025-05-27,ＭＭ株式会社,,株式会社,石川県,金沢市,泉が丘２丁目１５番１号,,17,201,9218035,,,,,,,2025-05-27,1,,,,,エムエム,0
180,1220003004041,新規,0,2025-05-27,2025-05-27,合同会社ＮＧＩ,,合同会社,石川県,野々市市,柳町３２３番地,,17,212,9218848,,,,,,,2025-05-27,1,,,,,ネヌジーアイ,0
183,1240001064985,新規,0,2025-05-27,2025-05-27,ダイイチアセット株式会社,,株式会社,広島県,呉市,吉浦新町１丁目５番６－１０６号,,34,202,7370845,,,,,,,2025-05-27,1,,,,,ダイイチアセット,0
186,1240003007224,新規,0,2025-05-27,2025-05-27,合同会社福島プロ,,合同会社,広島県,呉市,広弁天橋町７－７,,34,202,7370107,,,,,,,2025-05-27,1,,,,,フクシマプロ,0
187,1250003003734,新規,0,2025-05-27,2025-05-27,合同会社うえだ社会福祉士事務所,,合同会社,山口県,岩国市,美和町中垣内８８番地５,,35,208,7401218,,,,,,,2025-05-27,1,,,,,ウエダシャカイフクシシジムショ,0
191,1290001110116,新規,0,2025-05-27,2025-05-27,株式会社希海メディックス,,株式会社,福岡県,福岡市東区,松島１丁目２６番６－３０３号ＹＧＭ松島ラグゼ,,40,131,8120062,,,,,,,2025-05-27,1,,,,,ノゾミメディックス,0
192,1290001110140,新規,0,2025-05-27,2025-05-27,道誠文化交流株式会社,,株式会社,福岡県,福岡市南区,横手２丁目３３－２９コーポラス井尻Ｂ棟２０１,,40,134,8111311,,,,,,,2025-05-27,1,,,,,ドウジョウブンカコウリュウ,0
193,1290001110181,新規,0,2025-05-27,2025-05-27,株式会社ハルティーク,,株式会社,福岡県,大野城市,白木原１丁目１６番１６－１３０１号,,40,219,8160943,,,,,,,2025-05-27,1,,,,,ハルティーク,0
201,1290801031569,新規,0,2025-05-27,2025-05-27,株式会社花純産業,,株式会社,福岡県,中間市,大字下大隈１４２４番地２,,40,215,8090004,,,,,,,2025-05-27,1,,,,,カスミサンギョウ,0
204,1310001019619,新規,0,2025-05-27,2025-05-27,田島工務店株式会社,,株式会社,長崎県,長崎市,網場町５０３番地４,,42,201,8510123,,,,,,,2025-05-27,1,,,,,タジマコウムテン,0
206,1320003004675,新規,0,2025-05-27,2025-05-27,合同会社飛縁,,合同会社,大分県,大分市,賀来北１丁目７番３３号ディアス才賀Ｂ２０２,,44,201,8700848,,,,,,,2025-05-27,1,,,,,ヒエン,0
211,1340001027354,新規,0,2025-05-27,2025-05-27,株式会社アグリプラス,,株式会社,鹿児島県,薩摩郡さつま町,柏原２４３９番地１,,46,392,8952104,,,,,,,2025-05-27,1,,,,,アグリプラス,0
213,1350001019549,新規,0,2025-05-27,2025-05-27,ＩＤＰコンサルティング株式会社,,株式会社,宮崎県,串間市,大字西方５２３６番地,,45,207,8880001,,,,,,,2025-05-27,1,,,,,アイディーピーコンサルティング,0
218,1360003014943,新規,0,2025-05-27,2025-05-27,おきゆい合同会社,,合同会社,沖縄県,宜野湾市,新城１丁目１６番３号,,47,205,9012201,,,,,,,2025-05-27,1,,,,,オキユイ,0
220,1370001052606,新規,0,2025-05-27,2025-05-27,株式会社ＵＰＳＴＡＩＲＳ,,株式会社,宮城県,仙台市太白区,袋原５丁目８－１８,,04,104,9811102,,,,,,,2025-05-27,1,,,,,アップステアーズ,0
221,1370001052622,新規,0,2025-05-27,2025-05-27,株式会社フィンチ,,株式会社,宮城県,仙台市青葉区,春日町９－８－５０２,,04,101,9800821,,,,,,,2025-05-27,1,,,,,フィンチ,0
228,1420001019161,新規,0,2025-05-27,2025-05-27,株式会社ふれあい市ごのへ,,株式会社,青森県,三戸郡五戸町,大字豊間内字地蔵平１番地１０５９,,02,442,0391524,,,,,,,2025-05-27,1,,,,,フレアイイチゴノヘ,0
234,1430001094492,新規,0,2025-05-27,2025-05-27,株式会社心彩,,株式会社,北海道,札幌市中央区,北七条西１５丁目１番地,,01,101,0600007,,,,,,,2025-05-27,1,,,,,コイロ,0
245,1470001020726,新規,0,2025-05-27,2025-05-27,株式会社あじげん,,株式会社,香川県,仲多度郡まんのう町,宮田１０１９番地１６,,37,406,7690312,,,,,,,2025-05-27,1,,,,,アジゲン,0
246,1470003002887,新規,0,2025-05-27,2025-05-27,合同会社ネクサス,,合同会社,香川県,丸亀市,塩屋町５丁目４番３‐５１１号ダイアパレス丸亀,,37,202,7630065,,,,,,,2025-05-27,1,,,,,ネクサス,0
249,1480003002267,新規,0,2025-05-27,2025-05-27,いなほＣａｐｉｔａｌ合同会社,,合同会社,徳島県,徳島市,北田宮２丁目１２番１８号－３０４,,36,201,7700003,,,,,,,2025-05-27,1,,,,,イナホキャピタル,0
252,1500001026307,新規,0,2025-05-27,2025-05-27,株式会社ｔｅａｍ１００,,株式会社,愛媛県,松山市,正円寺４丁目４番１３－１号,,38,201,7900904,,,,,,,2025-05-27,1,,,,,チームイチゼロゼロ,0
262,2010001255292,新規,0,2025-05-27,2025-05-27,日本寅亥株式会社,,株式会社,東京都,文京区,白山１丁目６番４－Ａ２７,,13,105,1130001,,,,,,,2025-05-27,1,,,,,ニホンインハイ,0
263,2010001255350,新規,0,2025-05-27,2025-05-27,株式会社Ｎ　ＢｏｏｓＴｒｕｓｔ,,株式会社,東京都,千代田区,丸の内１丁目１１番１号,,13,101,1000005,,,,,,,2025-05-27,1,,,,,エヌブーストラスト,0
264,2010001255409,新規,0,2025-05-27,2025-05-27,株式会社エム・ヴィータ,,株式会社,東京都,千代田区,神田駿河台２丁目１番地１９アルベルゴ御茶ノ水６０２号,,13,101,1010062,,,,,,,2025-05-27,1,,,,,エムヴィータ,0
265,2010001255417,新規,0,2025-05-27,2025-05-27,株式会社Ｌｉｆｅ　Ｂａｎｋ,,株式会社,東京都,文京区,小石川１丁目１４番３号ザ・タワー小石川９０４,,13,105,1120002,,,,,,,2025-05-27,1,,,,,ライフバンク,0
270,2010003047473,新規,0,2025-05-27,2025-05-27,合同会社ＪＲＥＡＳＴファンド第１０号,,合同会社,東京都,千代田区,丸の内１丁目４番１号東京共同会計事務所内,,13,101,1000005,,,,,,,2025-05-27,1,,,,,ジェイアールイーストファンドダイジュウゴウ,0
272,2010101016702,新規,0,2025-05-27,2025-05-27,株式会社Ｒｏａ,,株式会社,東京都,八王子市,東浅川町１０９８－１ＰｅｔｉｍｏＱ１Ｆ,,13,201,1930834,,,,,,,2025-05-27,1,,,,,ロア,0
285,2010401190528,新規,0,2025-05-27,2025-05-27,華陽ホールディングス株式会社,,株式会社,東京都,港区,北青山１丁目３番１号アールキューブ青山３階,,13,103,1070061,,,,,,,2025-05-27,1,,,,,ハナビホールディングス,0
290,2010505003602,新規,0,2025-05-27,2025-05-27,一般社団法人ＡＩ保全学会,,その他の設立登記法人,東京都,台東区,池之端２丁目７番１７号,,13,106,1100008,,,,,,,2025-05-27,1,,,,,エーアイホゼンガッカイ,0
291,2010601067360,新規,0,2025-05-27,2025-05-27,株式会社鳥澄,,株式会社,東京都,江東区,清澄１丁目６番１８－１０２号,,13,108,1350024,,,,,,,2025-05-27,1,,,,,トリスミ,0
292,2010603011589,新規,0,2025-05-27,2025-05-27,合同会社Ｌ＆Ａ,,合同会社,東京都,江東区,亀戸５丁目１３番２号スクエア三報ビル２Ｆ,,13,108,1360071,,,,,,,2025-05-27,1,,,,,エルアンドエー,0
295,2010701047758,新規,0,2025-05-27,2025-05-27,株式会社ＧＯＴＥＸ,,株式会社,東京都,品川区,西五反田１丁目３３－１０サインタワービル８Ｆ,,13,109,1410031,,,,,,,2025-05-27,1,,,,,ゴーテックス,0
298,2010901057433,新規,0,2025-05-27,2025-05-27,株式会社オンゼロ,,株式会社,東京都,世田谷区,瀬田４丁目１３番２１号,,13,112,1580095,,,,,,,2025-05-27,1,,,,,オンゼロ,0
304,2011001169706,新規,0,2025-05-27,2025-05-27,株式会社チルストリート,,株式会社,東京都,渋谷区,神宮前１丁目５番８号,,13,113,1500001,,,,,,,2025-05-27,1,,,,,チルストリート,0
305,2011001170028,新規,0,2025-05-27,2025-05-27,アラカルト株式会社,,株式会社,東京都,渋谷区,道玄坂１丁目１０番８号,,13,113,1500043,,,,,,,2025-05-27,1,,,,,アラカルト,0
311,2011101111815,新規,0,2025-05-27,2025-05-27,株式会社プロジェクトギャランティ,,株式会社,東京都,新宿区,四谷３丁目１番地須賀ビル６階,,13,104,1600004,,,,,,,2025-05-27,1,,,,,プロジェクトギャランティ,0
312,2011201026376,新規,0,2025-05-27,2025-05-27,株式会社Ｇｏｏｄｓ　Ｃｒｅｗｓ,,株式会社,東京都,中野区,東中野５丁目１番１－１４０５号,,13,114,1640003,,,,,,,2025-05-27,1,,,,,グッズクルーズ,0
313,2011201026384,新規,0,2025-05-27,2025-05-27,株式会社ムスクルス,,株式会社,東京都,中野区,東中野３丁目６番１１号,,13,114,1640003,,,,,,,2025-05-27,1,,,,,ムスクルス,0
322,2011403004709,新規,0,2025-05-27,2025-05-27,スマートヌック合同会社,,合同会社,東京都,板橋区,幸町１番１６号,,13,119,1730034,,,,,,,2025-05-27,1,,,,,スマートヌック,0
323,2011501032108,新規,0,2025-05-27,2025-05-27,祥和株式会社,,株式会社,東京都,北区,神谷３丁目３１番４号,,13,117,1150043,,,,,,,2025-05-27,1,,,,,ショウワ,0
329,2012401043145,新規,0,2025-05-27,2025-05-27,株式会社フジカホーム,,株式会社,東京都,調布市,染地２丁目７番地９グリーンハウス２０１,,13,208,1820023,,,,,,,2025-05-27,1,,,,,フジカホーム,0
331,2012801023985,新規,0,2025-05-27,2025-05-27,みやびメディカルコンサルタント株式会社,,株式会社,東京都,国分寺市,本町３丁目１番１号シティタワー国分寺ザ・ツインウエストＷ２００８,,13,214,1850012,,,,,,,2025-05-27,1,,,,,ミヤビメディカルコンサルタント,0
333,2013301054208,新規,0,2025-05-27,2025-05-27,ＣｙｂｅｒＭａｎｇｏ　Ｉｎｔｅｒｎａｔｉｏｎａｌ株式会社,,株式会社,東京都,豊島区,高田３丁目４－１０－３０５号室,,13,116,1710033,,,,,,,2025-05-27,1,,,,,サイバーマンゴーインターナショナル,0
339,2020001162851,新規,0,2025-05-27,2025-05-27,株式会社ＳＷＡＧ,,株式会社,神奈川県,横浜市中区,扇町１丁目１‐２５キンガビル１Ｆ,,14,104,2310027,,,,,,,2025-05-27,1,,,,,スワッグ,0
340,2020001163049,新規,0,2025-05-27,2025-05-27,株式会社フゥディ,,株式会社,神奈川県,川崎市多摩区,堰２丁目１番６号,,14,135,2140022,,,,,,,2025-05-27,1,,,,,フゥディ,0
342,2020003028555,新規,0,2025-05-27,2025-05-27,ＡＢＥ　ＴＥＮＳＨｉ合同会社,,合同会社,神奈川県,横浜市旭区,都岡町２７番地２３,,14,112,2410805,,,,,,,2025-05-27,1,,,,,アベテンシ,0
348,2021001085274,新規,0,2025-05-27,2025-05-27,株式会社エクレクティック,,株式会社,神奈川県,藤沢市,辻堂新町１丁目１４番２～２０６号,,14,205,2510042,,,,,,,2025-05-27,1,,,,,エクレクティック,0
349,2021001085324,新規,0,2025-05-27,2025-05-27,ヴィッセンホームズ株式会社,,株式会社,神奈川県,伊勢原市,高森２丁目１８番３３号,,14,214,2591114,,,,,,,2025-05-27,1,,,,,ヴィッセンホームズ,0
350,2021003016070,新規,0,2025-05-27,2025-05-27,合同会社ＭＩＯＮ,,合同会社,神奈川県,藤沢市,片瀬海岸３丁目１９番１０号,,14,205,2510035,,,,,,,2025-05-27,1,,,,,,0
358,2030001166752,新規,0,2025-05-27,2025-05-27,株式会社Ｎｅｘｔ　Ｇｅｎｅｒａｔｉｏｎ　Ｔｒａｄｉｎｇｓ,,株式会社,埼玉県,川口市,南前川六丁目１１番２４号,,11,203,3320000,,,,,,,2025-05-27,1,,,,,ネクストジェネレーショントレーディングス,0
363,2030003026855,新規,0,2025-05-27,2025-05-27,合同会社ティクネックスコンサルティング,,合同会社,埼玉県,さいたま市大宮区,桜木町１丁目３７８,,11,103,3300854,,,,,,,2025-05-27,1,,,,,ティクネックスコンサルティング,0
367,2040001138916,新規,0,2025-05-27,2025-05-27,株式会社櫂央美建,,株式会社,千葉県,白井市,西白井４丁目１７番地１５,,12,232,2701408,,,,,,,2025-05-27,1,,,,,カイオウビケン,0
375,2050003009271,新規,0,2025-05-27,2025-05-27,合同会社Ｄａｙ　ｏｎｅ,,合同会社,茨城県,東茨城郡茨城町,大字前田１６７７―１９８,,08,302,3113115,,,,,,,2025-05-27,1,,,,,デイワン,0
377,2060001038230,新規,0,2025-05-27,2025-05-27,株式会社寛,,株式会社,栃木県,宇都宮市,西川田町１００３番地３２,,09,201,3210151,,,,,,,2025-05-27,1,,,,,クツロギ,0
378,2060001038239,新規,0,2025-05-27,2025-05-27,株式会社Ｔｅｃｈｎｎｏｖａ,,株式会社,栃木県,佐野市,高砂町２８６６番地１佐野ビジネスセンタービル西館５階,,09,204,3270022,,,,,,,2025-05-27,1,,,,,テクノバ,0
384,2080001026951,新規,0,2025-05-27,2025-05-27,株式会社リンクス,,株式会社,静岡県,静岡市駿河区,豊田１丁目７番２７号,,22,102,4228027,,,,,,,2025-05-27,1,,,,,リンクス,0
386,2080101025515,新規,0,2025-05-27,2025-05-27,株式会社Ｆ＆Ｓ,,株式会社,静岡県,富士市,宮島８７６番地の６,,22,210,4160945,,,,,,,2025-05-27,1,,,,,エフアンドエス,0
388,2080403005264,新規,0,2025-05-27,2025-05-27,合同会社ＩＭ,,合同会社,静岡県,浜松市中央区,千歳町２６番地の５、１階東,,22,138,4300934,,,,,,,2025-05-27,1,,,,,アイエム,0
393,2100001038639,新規,0,2025-05-27,2025-05-27,株式会社ＨＦＣ,,株式会社,長野県,駒ヶ根市,赤穂１４６２９番地１４号,,20,210,3994117,,,,,,,2025-05-27,1,,,,,エイチエフシー,0
404,2120001275932,新規,0,2025-05-27,2025-05-27,株式会社サルート,,株式会社,大阪府,大阪市平野区,平野南１丁目１２番２５号,,27,126,5470031,,,,,,,2025-05-27,1,,,,,サルート,0
405,2120001275998,新規,0,2025-05-27,2025-05-27,株式会社Ｖｉｔａｌ　Ｓｅｅｋ,,株式会社,大阪府,枚方市,岡東町１９番１－２６０２号,,27,210,5730032,,,,,,,2025-05-27,1,,,,,バイタルシーク,0
406,2120001276030,新規,0,2025-05-27,2025-05-27,株式会社アキュボルトリンク,,株式会社,大阪府,枚方市,中宮東之町２２－５－２,,27,210,5731195,,,,,,,2025-05-27,1,,,,,アキュボルトリンク,0
407,2120001276105,新規,0,2025-05-27,2025-05-27,Ｎａｔｓｕｋｉ初夏茉株式会社,,株式会社,大阪府,大阪市阿倍野区,橋本町９番１０号（１Ｆ）,,27,119,5450031,,,,,,,2025-05-27,1,,,,,ナツキショカマ,0
408,2120001276179,新規,0,2025-05-27,2025-05-27,福康株式会社,,株式会社,大阪府,大阪市城東区,野江３丁目２５番６－２０２号,,27,118,5360006,,,,,,,2025-05-27,1,,,,,フクコウ,0
409,2120001276204,新規,0,2025-05-27,2025-05-27,株式会社ＡＬＵＫ　ＦＯＯＴ,,株式会社,大阪府,大阪市中央区,瓦町３丁目２番１０－１４０４号,,27,128,5410048,,,,,,,2025-05-27,1,,,,,アルクフット,0
410,2120001276261,新規,0,2025-05-27,2025-05-27,株式会社エイメディカルサービス,,株式会社,大阪府,大阪市都島区,都島本通３丁目２番１２号,,27,102,5340021,,,,,,,2025-05-27,1,,,,,エイメディカルサービス,0
411,2120003029568,新規,0,2025-05-27,2025-05-27,ＧＡＮＥＳＨ合同会社,,合同会社,大阪府,大阪市東淀川区,東中島１丁目５番２５－４１０号,,27,114,5330033,,,,,,,2025-05-27,1,,,,,ガネシュ,0
412,2120003029584,新規,0,2025-05-27,2025-05-27,合同会社ＴＴＤ,,合同会社,大阪府,大阪市浪速区,敷津西１丁目５番１１新浪速３０４号室,,27,111,5560015,,,,,,,2025-05-27,1,,,,,ティーティーディー,0
421,2130001079762,新規,0,2025-05-27,2025-05-27,株式会社くじらＣＯＭＰＡＮＹ,,株式会社,京都府,八幡市,八幡武蔵芝１０－２ＧＨ－ＳＴＹＬＥ武蔵３,,26,210,6148052,,,,,,,2025-05-27,1,,,,,クジラカンパニー,0
436,2140001138658,新規,0,2025-05-27,2025-05-27,株式会社亀井電気,,株式会社,兵庫県,西宮市,仁川町２丁目５－３４,,28,204,6620811,,,,,,,2025-05-27,1,,,,,カメイデンキ,0
437,2140001138724,新規,0,2025-05-27,2025-05-27,ちきゅうたがやす株式会社,,株式会社,兵庫県,神戸市西区,今寺３３番地の１５クローバメゾン伊川谷２０２号,,28,111,6512114,,,,,,,2025-05-27,1,,,,,チキュウタガヤス,0
439,2140005027519,新規,0,2025-05-27,2025-05-27,特定非営利活動法人とまりぎ,,その他の設立登記法人,兵庫県,西宮市,寿町１－３６,,28,204,6620047,,,,,,,2025-05-27,1,,,,,トマリギ,0
440,2150001028148,新規,0,2025-05-27,2025-05-27,株式会社樹坊,,株式会社,奈良県,葛城市,葛木１２４番地７,00139306,29,211,6392144,,,,,,,2025-05-27,1,,,,,キボウ,0
445,2160005011413,新規,0,2025-05-27,2025-05-27,一般社団法人Ｌｉｆｅ　Ｄｅｓｉｇｎ　Ｃｏｌｌｅｇｅ協会,,その他の設立登記法人,滋賀県,彦根市,川瀬馬場町１１０８－６,,25,202,5220223,,,,,,,2025-05-27,1,,,,,ライフデザインカレッジキョウカイ,0
446,2170001018634,新規,0,2025-05-27,2025-05-27,株式会社キャラバン,,株式会社,和歌山県,田辺市,上の山１丁目１０番１２号,,30,206,6460061,,,,,,,2025-05-27,1,,,,,キャラバン,0
449,2180001166936,新規,0,2025-05-27,2025-05-27,株式会社イーアール,,株式会社,愛知県,名古屋市名東区,引山２丁目１００９番地,,23,115,4650002,,,,,,,2025-05-27,1,,,,,イーアール,0
450,2180001166952,新規,0,2025-05-27,2025-05-27,ＭＫ株式会社,,株式会社,愛知県,名古屋市南区,東又兵ヱ町３丁目２３番地,,23,112,4570833,,,,,,,2025-05-27,1,,,,,エムケー,0
451,2180001166969,新規,0,2025-05-27,2025-05-27,株式会社グローイング,,株式会社,愛知県,名古屋市港区,土古町４丁目７２番地,,23,111,4550068,,,,,,,2025-05-27,1,,,,,グローイング,0
452,2180001167001,新規,0,2025-05-27,2025-05-27,株式会社ＩＦ‐ＡＭ,,株式会社,愛知県,名古屋市中村区,二ツ橋町３丁目１９番地の２,,23,105,4530813,,,,,,,2025-05-27,1,,,,,アイエフエーエム,0
453,2180301039833,新規,0,2025-05-27,2025-05-27,ＴＷＩＮＡＢＬＥ．Ｄ株式会社,,株式会社,愛知県,豊橋市,弥生町字中原５８番１号,,23,201,4418106,,,,,,,2025-05-27,1,,,,,トゥインナブルディー,0
454,2190001032245,新規,0,2025-05-27,2025-05-27,株式会社貴陽志,,株式会社,三重県,亀山市,川崎町１５７７番地２,,24,210,5190211,,,,,,,2025-05-27,1,,,,,タカヨウジ,0
459,2200005013768,新規,0,2025-05-27,2025-05-27,一般社団法人ぎふファンド,,その他の設立登記法人,岐阜県,羽島郡笠松町,字新町９番地,,21,303,5016100,,,,,,,2025-05-27,1,,,,,ギフファンド,0
460,2220001026697,新規,0,2025-05-27,2025-05-27,株式会社ＳＨＩＭＡＮＯ,,株式会社,石川県,河北郡内灘町,字鶴ケ丘１丁目３９５番地１０,,17,365,9200271,,,,,,,2025-05-27,1,,,,,シマノ,0
461,2220003004040,新規,0,2025-05-27,2025-05-27,合同会社あかり,,合同会社,石川県,金沢市,新保本４丁目６５番地１６,,17,201,9218062,,,,,,,2025-05-27,1,,,,,アカリ,0
463,2240001064976,新規,0,2025-05-27,2025-05-27,株式会社８７,,株式会社,広島県,竹原市,吉名町甲５０６番地３,,34,203,7250013,,,,,,,2025-05-27,1,,,,,ハナ,0
464,2240001064984,新規,0,2025-05-27,2025-05-27,コメサンタ株式会社,,株式会社,広島県,三原市,大和町下徳良２２７１番地の２,,34,204,7291406,,,,,,,2025-05-27,1,,,,,コメサンタ,0
465,2240003007223,新規,0,2025-05-27,2025-05-27,Ａｌｔｒｕｉ合同会社,,合同会社,広島県,江田島市,江田島町小用１丁目１０－１８,,34,215,7372121,,,,,,,2025-05-27,1,,,,,アルトルイ,0
472,2290001110115,新規,0,2025-05-27,2025-05-27,株式会社ウェルピポ,,株式会社,福岡県,福岡市博多区,博多駅前１丁目２３番２号ＰａｒｋＦｒｏｎｔ博多駅前一丁目５Ｆ－Ｂ,,40,132,8120011,,,,,,,2025-05-27,1,,,,,ウェルピポ,0
473,2290001110180,新規,0,2025-05-27,2025-05-27,株式会社はすのうてな,,株式会社,福岡県,福岡市博多区,博多駅東３丁目９番７－１０３号,,40,132,8120013,,,,,,,2025-05-27,1,,,,,ハスノウテナ,0
489,2350005006311,新規,0,2025-05-27,2025-05-27,一般社団法人未来教育パートナー,,その他の設立登記法人,宮崎県,日向市,鶴町２丁目５番２号ポレスター鶴町公園３０３号,,45,206,8830052,,,,,,,2025-05-27,1,,,,,ミライキョウイクパートナー,0
492,2360003014950,新規,0,2025-05-27,2025-05-27,合同会社ＢＭ,,合同会社,沖縄県,那覇市,松尾２丁目１６－３９,,47,201,9000014,,,,,,,2025-05-27,1,,,,,ビーエム,0
494,2370001052621,新規,0,2025-05-27,2025-05-27,株式会社ＪＰＭＧ,,株式会社,宮城県,仙台市青葉区,花京院１丁目２番３－１３０２号,,04,101,9800013,,,,,,,2025-05-27,1,,,,,ジェイピーエムジー,0
495,2370003007111,新規,0,2025-05-27,2025-05-27,ｙｕｋｉｔｏａｍｅ合同会社,,合同会社,宮城県,仙台市宮城野区,福室１丁目４番１４号メゾン・ファースト２０２,,04,102,9830005,,,,,,,2025-05-27,1,,,,,ユキトアメ,0
512,2430003017698,新規,0,2025-05-27,2025-05-27,ＣＧＡマネジメント合同会社,,合同会社,北海道,札幌市北区,百合が原１０丁目６番７号,,01,102,0028081,,,,,,,2025-05-27,1,,,,,シージーエーマネジメント,0
513,2440001009614,新規,0,2025-05-27,2025-05-27,株式会社イチマル澁谷漁業,,株式会社,北海道,茅部郡森町,字尾白内町６４番地,,01,345,0492301,,,,,,,2025-05-27,1,,,,,イチマルシブヤギョギョウ,0
519,2490001011061,新規,0,2025-05-27,2025-05-27,株式会社Ｎｏｄａ,,株式会社,高知県,須崎市,中町２丁目４番７号,,39,206,7850008,,,,,,,2025-05-27,1,,,,,ノダ,0
521,2500001026306,新規,0,2025-05-27,2025-05-27,株式会社香凜プロジェクト,,株式会社,愛媛県,松山市,苞木２番地４,,38,201,7992460,,,,,,,2025-05-27,1,,,,,カリンプロジェクト,0
526,2700150130739,新規,0,2025-05-27,2025-05-27,ｓｈｅｎｚｈｅｎｙｉｆｅｉｎｉａｏｋｅｊｉｙｏｕｘｉａｎｇｏｎｇｓｉ,,外国会社等,,,,,,,,ｌｕｏｈｕｑｕｄｏｎｇｍｅｎｊｉｅｄａｏｈｕｂｅｉｓｈｅｑｕｗｅｎｊｉｎｚｈｏｎｇｌｕ１０２７ｈａｏｓｈｅｎｙｅｄａｓｈａ１５ｌｏｕ１５８４　ｓｈｅｎｚｈｅｎ　ｇｕａｎｇｄｏｎｇ,,,,,,2025-05-27,1,,,,,シンセンイチヒチョウカギユウゲンコウシ,0
533,3010001255093,新規,0,2025-05-27,2025-05-27,ＴＲＰブランディング株式会社,,株式会社,東京都,千代田区,有楽町１丁目７番１号有楽町電気ビルヂング北館８階８０６区,,13,101,1000006,,,,,,,2025-05-27,1,,,,,ティーアールピーブランディング,0
534,3010001255291,新規,0,2025-05-27,2025-05-27,Ｊ．Ｗｉｌｌ．Ｓｔｒａｔｅｇｉｃ　Ｐａｒｔｎｅｒｓ株式会社,,株式会社,東京都,千代田区,神田佐久間町３丁目２１番５号,,13,101,1010025,,,,,,,2025-05-27,1,,,,,ジェイウィルストラテジックパートナーズ,0
535,3010001255358,新規,0,2025-05-27,2025-05-27,株式会社スタジオセンツル,,株式会社,東京都,千代田区,神田美土代町１１番地８,,13,101,1010053,,,,,,,2025-05-27,1,,,,,スタジオセンツル,0
537,3010101016701,新規,0,2025-05-27,2025-05-27,株式会社ネオヴィア・キャピタル,,株式会社,東京都,八王子市,上柚木２丁目６３番地１１－４０４,,13,201,1920373,,,,,,,2025-05-27,1,,,,,ネオヴィアキャピタル,0
543,3010401190527,新規,0,2025-05-27,2025-05-27,トロンフューチャーテックジャパン株式会社,,株式会社,東京都,港区,六本木７丁目７－７トライセブン六本木８,,13,103,1060032,,,,,,,2025-05-27,1,,,,,トロンフューチャーテックジャパン,0
544,3010401190535,新規,0,2025-05-27,2025-05-27,ジャパンＡＩワークス株式会社,,株式会社,東京都,港区,元麻布１丁目１番１１号ミルキーハウス２０２,,13,103,1060046,,,,,,,2025-05-27,1,,,,,ジャパンエーアイワークス,0
545,3010401190543,新規,0,2025-05-27,2025-05-27,Ａｌｔｅｃｔｚ株式会社,,株式会社,東京都,港区,南青山１丁目１番１号新青山ビル西館７階,,13,103,1070062,,,,,,,2025-05-27,1,,,,,アルテクツ,0
547,3010403035176,新規,0,2025-05-27,2025-05-27,合同会社アトランティス,,合同会社,東京都,港区,新橋３丁目８番８号ル・グラシエルＢＬＤＧ．７５－２階２号室,,13,103,1050004,,,,,,,2025-05-27,1,,,,,アトランティス,0
548,3010403035201,新規,0,2025-05-27,2025-05-27,合同会社アイエスプランニング,,合同会社,東京都,港区,赤坂７丁目６番４５,,13,103,1070052,,,,,,,2025-05-27,1,,,,,アイエスプランニング,0
549,3010501054103,新規,0,2025-05-27,2025-05-27,龍堂株式会社,,株式会社,東京都,台東区,鳥越２丁目８－４島崎第１０ビル,,13,106,1110054,,,,,,,2025-05-27,1,,,,,リュウドウ,0
550,3010501054128,新規,0,2025-05-27,2025-05-27,トランスグローバルアセット株式会社,,株式会社,東京都,台東区,上野６丁目７番５号トランスグローバルビル,,13,106,1100005,,,,,,,2025-05-27,1,,,,,トランスグローバルアセット,0
554,3010701047708,新規,0,2025-05-27,2025-05-27,アドリミット株式会社,,株式会社,東京都,品川区,西五反田５丁目２３番１１号－３０３,,13,109,1410031,,,,,,,2025-05-27,1,,,,,アドリミット,0
557,3010801036189,新規,0,2025-05-27,2025-05-27,株式会社Ｒｏｌｅ‐ｉｎｇ,,株式会社,東京都,大田区,西蒲田７丁目４番４号小山第二ビル６Ｆ,,13,111,1440051,,,,,,,2025-05-27,1,,,,,ローリング,0
558,3010901057432,新規,0,2025-05-27,2025-05-27,株式会社ＮＣＨＯ,,株式会社,東京都,世田谷区,宇奈根１丁目６番１号３階,,13,112,1570068,,,,,,,2025-05-27,1,,,,,ナチョ,0
562,3011001169647,新規,0,2025-05-27,2025-05-27,株式会社ピエトラ,,株式会社,東京都,渋谷区,広尾３丁目２番１４号,,13,113,1500012,,,,,,,2025-05-27,1,,,,,ピエトラ,0
563,3011001169705,新規,0,2025-05-27,2025-05-27,ＡＩｃｒｅｓｔ株式会社,,株式会社,東京都,渋谷区,道玄坂１丁目１０番８号渋谷道玄坂東急ビル２Ｆ－Ｃ,,13,113,1500043,,,,,,,2025-05-27,1,,,,,エーアイクレスト,0
564,3011001169936,新規,0,2025-05-27,2025-05-27,株式会社ＲＳ,,株式会社,東京都,目黒区,下目黒４丁目１８番１０号,,13,110,1530064,,,,,,,2025-05-27,1,,,,,アールエス,0
565,3011003021632,新規,0,2025-05-27,2025-05-27,合同会社物心堂,,合同会社,東京都,渋谷区,代官山町１番６号広田代官山ビル３Ｆ,,13,113,1500034,,,,,,,2025-05-27,1,,,,,ブッシンドウ,0
570,3011103015955,新規,0,2025-05-27,2025-05-27,Ｓｔｅｌｌａｒ　Ｓｅｍｉｃｏｎｄｕｃｔｏｒ　Ｊａｐａｎ合同会社,,合同会社,東京都,新宿区,西新宿１丁目２０番３号西新宿高木ビル,,13,104,1600023,,,,,,,2025-05-27,1,,,,,ステラセミコンダクタージャパン,0
574,3011403004708,新規,0,2025-05-27,2025-05-27,松久合同会社,,合同会社,東京都,板橋区,小茂根３丁目６番１８－２０８号,,13,119,1730037,,,,,,,2025-05-27,1,,,,,マツヒサ,0
575,3011501032123,新規,0,2025-05-27,2025-05-27,株式会社ＫＯＵＨＡＫＵ,,株式会社,東京都,北区,浮間１丁目１－１４リムジンビル３２７号,,13,117,1150051,,,,,,,2025-05-27,1,,,,,,0
579,3011801046186,新規,0,2025-05-27,2025-05-27,福寓株式会社,,株式会社,東京都,足立区,新田３丁目３７番１１－９２０号,,13,121,1230865,,,,,,,2025-05-27,1,,,,,フクグウ,0
582,3012801023984,新規,0,2025-05-27,2025-05-27,株式会社四季居,,株式会社,東京都,昭島市,拝島町２丁目４番８号,,13,207,1960002,,,,,,,2025-05-27,1,,,,,シキイ,0
583,3012805003339,新規,0,2025-05-27,2025-05-27,一般社団法人ＴＷＣＰＥスポーツアカデミー,,その他の設立登記法人,東京都,国立市,富士見台４丁目３０番地の１学校法人藤村学園内,,13,215,1860003,,,,,,,2025-05-27,1,,,,,ティーダブリューシーピーイースポーツアカデミー,0
588,3020001163064,新規,0,2025-05-27,2025-05-27,株式会社錦航,,株式会社,神奈川県,横浜市神奈川区,新浦島町２丁目２番地１号９２４室,,14,102,2210031,,,,,,,2025-05-27,1,,,,,キンコウ,0
589,3020001163089,新規,0,2025-05-27,2025-05-27,株式会社Ｂ‐ｓｔｕｄｉｏ,,株式会社,神奈川県,横浜市旭区,中沢１丁目１番９号,,14,112,2410814,,,,,,,2025-05-27,1,,,,,ビースタジオ,0
591,3020003028554,新規,0,2025-05-27,2025-05-27,合同会社Ｎ　ＦＲＯＮＴＩＥＲ,,合同会社,神奈川県,横浜市青葉区,美しが丘２丁目２５番地１ドレッセ美しの森フロラージュＷ１１６,,14,117,2250002,,,,,,,2025-05-27,1,,,,,エヌフロンティア,0
595,3021001085315,新規,0,2025-05-27,2025-05-27,Ｈａｎｈｏｕｓｅ株式会社,,株式会社,神奈川県,藤沢市,藤沢９７１－３パール湘南５Ｆ,,14,205,2510052,,,,,,,2025-05-27,1,,,,,ハンハウス,0
597,3021003016061,新規,0,2025-05-27,2025-05-27,合同会社チルラボ,,合同会社,神奈川県,鎌倉市,岩瀬１丁目１８番４－２号,,14,204,2470051,,,,,,,2025-05-27,1,,,,,チルラボ,0
598,3021005013379,新規,0,2025-05-27,2025-05-27,一般社団法人ＭＯＯＮＨＥＡＬＩＮＧ,,その他の設立登記法人,神奈川県,横須賀市,武３丁目２９番１号,,14,201,2380313,,,,,,,2025-05-27,1,,,,,ムーンヒーリング,0
604,3030001166719,新規,0,2025-05-27,2025-05-27,株式会社縁,,株式会社,埼玉県,深谷市,常盤町６５番地７フェリスときわ２０４号室,,11,218,3660034,,,,,,,2025-05-27,1,,,,,エニシ,0
605,3030001166727,新規,0,2025-05-27,2025-05-27,株式会社あいゆう,,株式会社,埼玉県,所沢市,大字久米３７６番地の１０,,11,208,3591131,,,,,,,2025-05-27,1,,,,,アイユウ,0
606,3030001166735,新規,0,2025-05-27,2025-05-27,ハルオ株式会社,,株式会社,埼玉県,川口市,大字道合７０番地の７,,11,203,3330835,,,,,,,2025-05-27,1,,,,,ハルオ,0
612,3030003026846,新規,0,2025-05-27,2025-05-27,Ｃａｓａ　Ｖｅｒｄｅ合同会社,,合同会社,埼玉県,川口市,大字安行慈林８４７番地の１１,,11,203,3340071,,,,,,,2025-05-27,1,,,,,カーサベルデ,0
613,3030003026854,新規,0,2025-05-27,2025-05-27,Ｕｓｈｒ合同会社,,合同会社,埼玉県,蕨市,塚越７丁目１８番３６号コーポ若松２０５,,11,223,3350002,,,,,,,2025-05-27,1,,,,,ウシュル,0
626,3060001038238,新規,0,2025-05-27,2025-05-27,株式会社彩虹,,株式会社,栃木県,宇都宮市,江曽島３丁目２５７７番地１１,,09,201,3210107,,,,,,,2025-05-27,1,,,,,ニジ,0
628,3070003005937,新規,0,2025-05-27,2025-05-27,おてあてグループ合同会社,,合同会社,群馬県,高崎市,飯塚町９７番地１高義ビル,,10,202,3700069,,,,,,,2025-05-27,1,,,,,,0
631,3080401027929,新規,0,2025-05-27,2025-05-27,株式会社８ＳＰＡＣＥ,,株式会社,静岡県,浜松市中央区,富塚町２８９７番地の５,,22,138,4328002,,,,,,,2025-05-27,1,,,,,エイトスペース,0
636,3110001039230,新規,0,2025-05-27,2025-05-27,株式会社ネオシーム,,株式会社,新潟県,新潟市中央区,東入船町３７５５－２,,15,103,9518012,,,,,,,2025-05-27,1,,,,,ネオシーム,0
647,3120001275997,新規,0,2025-05-27,2025-05-27,Ｒｏｔｅｎ株式会社,,株式会社,大阪府,大阪市北区,梅田１丁目２番２号大阪駅前第２ビル１２－１２,,27,127,5300001,,,,,,,2025-05-27,1,,,,,ローテン,0
648,3120001276021,新規,0,2025-05-27,2025-05-27,株式会社康田商会,,株式会社,大阪府,大阪市生野区,小路東１丁目５番１２号,,27,116,5440003,,,,,,,2025-05-27,1,,,,,ヤスダショウカイ,0
649,3120001276079,新規,0,2025-05-27,2025-05-27,株式会社朝野,,株式会社,大阪府,大阪市東淀川区,下新庄２丁目３番１２－４１８号,,27,114,5330021,,,,,,,2025-05-27,1,,,,,アサノ,0
650,3120001276137,新規,0,2025-05-27,2025-05-27,株式会社ＮＩＣＯＴＴＯ,,株式会社,大阪府,大阪市東淀川区,西淡路３丁目１１番８－２０号,,27,114,5330031,,,,,,,2025-05-27,1,,,,,ニコット,0
651,3120001276178,新規,0,2025-05-27,2025-05-27,無限網絡科技株式会社,,株式会社,大阪府,大阪市東成区,深江南２丁目８番８号メゾンホワイティ－２０５号室,,27,115,5370002,,,,,,,2025-05-27,1,,,,,ムゲンモウラクカギ,0
652,3120001276211,新規,0,2025-05-27,2025-05-27,ポンコツスター株式会社,,株式会社,大阪府,枚方市,香里ケ丘１０丁目３４６８番地の２８,,27,210,5730084,,,,,,,2025-05-27,1,,,,,ポンコツスター,0
660,3120003029435,新規,0,2025-05-27,2025-05-27,合同会社Ｆｉｇｕｒｅ　Ｏｆｆ,,合同会社,大阪府,大阪市中央区,淡路町３丁目５－１３創建御堂筋ビル２Ｆ,,27,128,5410047,,,,,,,2025-05-27,1,,,,,フィギュアオフ,0
661,3120003029567,新規,0,2025-05-27,2025-05-27,三宝合同会社,,合同会社,大阪府,大阪市西成区,萩之茶屋２丁目６番４－１６５号,,27,122,5570004,,,,,,,2025-05-27,1,,,,,サンポウ,0
664,3120903005691,新規,0,2025-05-27,2025-05-27,ｔｅｔｏｔｅ合同会社,,合同会社,大阪府,豊中市,北緑丘２丁目１番９―１０１,,27,203,5600001,,,,,,,2025-05-27,1,,,,,テトテ,0
665,3122003003205,新規,0,2025-05-27,2025-05-27,ＮＴＢ合同会社,,合同会社,大阪府,東大阪市,水走１丁目３－４５、２０１室,,27,227,5780921,,,,,,,2025-05-27,1,,,,,エヌティービー,0
667,3130001079753,新規,0,2025-05-27,2025-05-27,株式会社アンダンテカンパニー,,株式会社,京都府,京都市西京区,大枝北沓掛町４丁目３７番地の２６,,26,111,6101101,,,,,,,2025-05-27,1,,,,,アンダンテカンパニー,0
671,3140001138640,新規,0,2025-05-27,2025-05-27,株式会社Ｔ＆Ｆ,,株式会社,兵庫県,赤穂郡上郡町,竹万２３３０番地ハイツあゆみＡ棟４０１,,28,481,6781232,,,,,,,2025-05-27,1,,,,,ティアンドエフ,0
673,3140003022082,新規,0,2025-05-27,2025-05-27,シールド電設合同会社,,合同会社,兵庫県,加古川市,東神吉町升田８３－４,,28,210,6750051,,,,,,,2025-05-27,1,,,,,シールドデンセツ,0
674,3140003022099,新規,0,2025-05-27,2025-05-27,合同会社シリカラボラトリー,,合同会社,兵庫県,尼崎市,神田中通５丁目１９６番地,,28,202,6600884,,,,,,,2025-05-27,1,,,,,,0
675,3140005027518,新規,0,2025-05-27,2025-05-27,アステム芦屋Ａ・Ｂ棟団地管理組合法人,,その他の設立登記法人,兵庫県,芦屋市,高浜町２－４株式会社日本ネットワークサービス内,,28,206,6590033,,,,,,,2025-05-27,1,,,,,アステムアシヤエービートウ,0
676,3150001028147,新規,0,2025-05-27,2025-05-27,株式会社マチエール,,株式会社,奈良県,磯城郡田原本町,大字小阪１８０番地の８,,29,363,6360237,,,,,,,2025-05-27,1,,,,,マチエール,0
677,3160003003485,新規,0,2025-05-27,2025-05-27,Ｍｉｍｅｌａｂ合同会社,,合同会社,滋賀県,彦根市,地蔵町２１６番地７,,25,202,5220029,,,,,,,2025-05-27,1,,,,,ミメラボ,0
688,3180001166910,新規,0,2025-05-27,2025-05-27,株式会社エムレ,,株式会社,愛知県,愛西市,大野山町坪田４４番地,,23,232,4968017,,,,,,,2025-05-27,1,,,,,エムレ,0
689,3180001166951,新規,0,2025-05-27,2025-05-27,株式会社シミズ,,株式会社,愛知県,名古屋市北区,大杉２丁目２番１９号,,23,103,4620837,,,,,,,2025-05-27,1,,,,,シミズ,0
690,3180001166968,新規,0,2025-05-27,2025-05-27,ＮＹマネジメント株式会社,,株式会社,愛知県,東海市,加木屋町高見５０番地４３,,23,222,4770032,,,,,,,2025-05-27,1,,,,,エヌワイマネジメント,0
691,3180001166976,新規,0,2025-05-27,2025-05-27,ＢＡＪＷＡ　ＡＵＴＯ　ＴＲＡＤＩＮＧ株式会社,,株式会社,愛知県,名古屋市港区,船頭場１丁目３０８番地アネックス船頭１０５号,,23,111,4550881,,,,,,,2025-05-27,1,,,,,バジュワオートトレーディング,0
692,3180001166992,新規,0,2025-05-27,2025-05-27,株式会社ＳＫＯ,,株式会社,愛知県,名古屋市名東区,植園町２丁目１番地,,23,115,4650077,,,,,,,2025-05-27,1,,,,,エスケイオウ,0
694,3180003028530,新規,0,2025-05-27,2025-05-27,ＭｉｒａｇｅｎＬａｂｓ合同会社,,合同会社,愛知県,岩倉市,八剱町郷５番地,,23,228,4820031,,,,,,,2025-05-27,1,,,,,ミラージェンラボ,0
696,3180301039824,新規,0,2025-05-27,2025-05-27,株式会社Ｌｉｖｏｎｅ,,株式会社,愛知県,岡崎市,日名南町２１番２,,23,202,4440915,,,,,,,2025-05-27,1,,,,,リボーン,0
697,3180301039832,新規,0,2025-05-27,2025-05-27,バイオオーラル株式会社,,株式会社,愛知県,岡崎市,康生町５１５番地１１,,23,202,4440052,,,,,,,2025-05-27,1,,,,,バイオオーラル,0
698,3180301039840,新規,0,2025-05-27,2025-05-27,株式会社ＡＭＡＮＥＸＴ,,株式会社,愛知県,豊橋市,西小田原町１３,,23,201,4400887,,,,,,,2025-05-27,1,,,,,アマネクスト,0
706,3230001020921,新規,0,2025-05-27,2025-05-27,加藤配管株式会社,,株式会社,富山県,下新川郡朝日町,宮崎１１８０番地１０,,16,343,9390703,,,,,,,2025-05-27,1,,,,,カトウハイカン,0
707,3240001064983,新規,0,2025-05-27,2025-05-27,株式会社真地,,株式会社,広島県,広島市中区,東白島町２１番１６号多田旧館ビル,,34,101,7300004,,,,,,,2025-05-27,1,,,,,シンチ,0
711,3260001040207,新規,0,2025-05-27,2025-05-27,ＳＡＮ科学研究所株式会社,,株式会社,岡山県,小田郡矢掛町,小林３２５番地１,,33,461,7141202,,,,,,,2025-05-27,1,,,,,サンカガクケンキュウショ,0
719,3290001110106,新規,0,2025-05-27,2025-05-27,ルイエジャポン株式会社,,株式会社,福岡県,福岡市早良区,百道浜４丁目３１－１－２６０８,,40,137,8140001,,,,,,,2025-05-27,1,,,,,ルイエジャポン,0
720,3290001110130,新規,0,2025-05-27,2025-05-27,株式会社ニコライフ,,株式会社,福岡県,福岡市博多区,麦野１丁目２２番地２３号,,40,132,8120882,,,,,,,2025-05-27,1,,,,,ニコライフ,0
721,3290001110155,新規,0,2025-05-27,2025-05-27,株式会社海成,,株式会社,福岡県,福岡市博多区,金の隈１丁目３８番６６号,,40,132,8120863,,,,,,,2025-05-27,1,,,,,カイセイ,0
728,3290801031575,新規,0,2025-05-27,2025-05-27,鷹石株式会社,,株式会社,福岡県,直方市,大字植木８６９－８－１Ｆ,,40,204,8220031,,,,,,,2025-05-27,1,,,,,タカイシ,0
733,3310001019617,新規,0,2025-05-27,2025-05-27,株式会社グランエム,,株式会社,長崎県,長崎市,小菅町３０番１－７０７号,,42,201,8500934,,,,,,,2025-05-27,1,,,,,グランエム,0
735,3320001021118,新規,0,2025-05-27,2025-05-27,株式会社Ｓａｙｇｏ,,株式会社,大分県,大分市,明磧町２丁目８番１６－３０１号メゾン．ド．フォーレ,,44,201,8700860,,,,,,,2025-05-27,1,,,,,セイゴー,0
737,3330003011025,新規,0,2025-05-27,2025-05-27,合同会社豊博哲心ｃｏ,,合同会社,熊本県,熊本市中央区,桜町１番２８－７０６号桜町センタービル,,43,101,8600805,,,,,,,2025-05-27,1,,,,,ブハクテッシンコー,0
751,3430001094508,新規,0,2025-05-27,2025-05-27,グローバルデジタルファイナンス株式会社,,株式会社,北海道,江別市,大麻ひかり町４４番地の９,,01,217,0690847,,,,,,,2025-05-27,1,,,,,グローバルデジタルファイナンス,0
757,3490001011052,新規,0,2025-05-27,2025-05-27,株式会社ＲＩＳＥ,,株式会社,高知県,高知市,堺町９番１９－１３０３号,,39,201,7800834,,,,,,,2025-05-27,1,,,,,ライズ,0
758,3500001026305,新規,0,2025-05-27,2025-05-27,株式会社モリガホールディングス,,株式会社,愛媛県,新居浜市,萩生１３０７番地の１,,38,205,7920050,,,,,,,2025-05-27,1,,,,,モリガホールディングス,0
761,3700150130738,新規,0,2025-05-27,2025-05-27,ｓｈｅｎｚｈｅｎｓｈｉｈｕａｓｈｅｎｇｓｕｄａｄｉａｎｚｉｋｅｊｉｙｏｕｘｉａｎｇｏｎｇｓｉ,,外国会社等,,,,,,,,ｓｈｅｎｚｈｅｎｓｈｉｌｏｎｇｇａｎｇｑｕｈｅｎｇｇａｎｇｊｉｅｄａｏｌｉｕｙｕｅｂｅｉｓｈｅｑｕｐｕｘｉａｌｕ８０ｈａｏｎａｎｆａｎｇｓｈｕｚｉｃｈｕａｎｇｘｉｎｃｈａｎｙｅｊｉｄｉ２ｄｏｎｇ３０６－１,,,,,,2025-05-27,1,,,,,シェンジェンシーフワーションスーダーディエンズーコージーヨウシエンゴンスー,0
771,4010005040086,新規,0,2025-05-27,2025-05-27,丸の内１ｓｔ一般社団法人,,その他の設立登記法人,東京都,中央区,京橋２丁目１２番６号ＡＯＪ税理士法人内,,13,102,1040031,,,,,,,2025-05-27,1,,,,,マルノウチファースト,0
776,4010401190419,新規,0,2025-05-27,2025-05-27,ＮａｔＭａｘ株式会社,,株式会社,東京都,港区,北青山１丁目３番１号アールキューブ青山３階,,13,103,1070061,,,,,,,2025-05-27,1,,,,,ナットマックス,0
777,4010401190542,新規,0,2025-05-27,2025-05-27,株式会社誠源,,株式会社,東京都,港区,赤坂２丁目８番４－４０７号,,13,103,1070052,,,,,,,2025-05-27,1,,,,,セイゲン,0
778,4010401190559,新規,0,2025-05-27,2025-05-27,株式会社ＴＯ５,,株式会社,東京都,港区,西麻布４丁目２番１２号麻布ハウス５０２,,13,103,1060031,,,,,,,2025-05-27,1,,,,,ティーオーファイブ,0
779,4010401190583,新規,0,2025-05-27,2025-05-27,株式会社ｓｅｆｅｅ　ｍａｉｓｏｎ,,株式会社,東京都,港区,西新橋３丁目１７番７号,,13,103,1050003,,,,,,,2025-05-27,1,,,,,セフェメゾン,0
782,4010403035142,新規,0,2025-05-27,2025-05-27,合同会社ストレージ山口嘉川蓄電所,,合同会社,東京都,港区,麻布永坂町１番地,,13,103,1060043,,,,,,,2025-05-27,1,,,,,ストレージヤマグチカガワ,0
783,4010403035175,新規,0,2025-05-27,2025-05-27,合同会社ＵＴＯＰＩＡ,,合同会社,東京都,港区,東麻布３丁目４番６号,,13,103,1060044,,,,,,,2025-05-27,1,,,,,ユートピア,0
784,4010403035191,新規,0,2025-05-27,2025-05-27,エクラン合同会社,,合同会社,東京都,港区,白金４丁目１０番１８－３０８号,,13,103,1080072,,,,,,,2025-05-27,1,,,,,エクラン,0
785,4010403035200,新規,0,2025-05-27,2025-05-27,合同会社ＩＴＣ,,合同会社,東京都,港区,北青山１丁目３－３三橋ビル３階,,13,103,1070061,,,,,,,2025-05-27,1,,,,,アイティシィ,0
793,4010703007733,新規,0,2025-05-27,2025-05-27,合同会社ゆづいろ,,合同会社,東京都,品川区,小山４丁目１１－１,,13,109,1420062,,,,,,,2025-05-27,1,,,,,ユヅイロ,0
795,4010901057431,新規,0,2025-05-27,2025-05-27,株式会社Ａｒｅｕｓ　Ｔｅｃｈ,,株式会社,東京都,世田谷区,奥沢６丁目９番２号,,13,112,1580083,,,,,,,2025-05-27,1,,,,,アレステック,0
800,4011003021532,新規,0,2025-05-27,2025-05-27,トリニティ合同会社,,合同会社,東京都,渋谷区,恵比寿南１丁目１６番６号,,13,113,1500022,,,,,,,2025-05-27,1,,,,,トリニティ,0
801,4011003021755,新規,0,2025-05-27,2025-05-27,合同会社Ａｉｒｅ,,合同会社,東京都,目黒区,洗足１丁目２６－１４関興グリーンハイツ６０２,,13,110,1520012,,,,,,,2025-05-27,1,,,,,アイレ,0
811,4011105011464,新規,0,2025-05-27,2025-05-27,東那須ソーラーパワーホールディングス一般社団法人,,その他の設立登記法人,東京都,新宿区,四谷２丁目９番地１５東京ユナイテッド綜合事務所内,,13,104,1600004,,,,,,,2025-05-27,1,,,,,ヒガシナスソーラーパワーホールディングス,0
812,4011203004709,新規,0,2025-05-27,2025-05-27,合同会社凛・オフィス,,合同会社,東京都,中野区,南台４丁目１９番１０号,,13,114,1640014,,,,,,,2025-05-27,1,,,,,リンオフィス,0
817,4011601028680,新規,0,2025-05-27,2025-05-27,株式会社ＭＯＮＩＣＡ,,株式会社,東京都,練馬区,上石神井４丁目１４番１２号,,13,120,1770044,,,,,,,2025-05-27,1,,,,,モニカ,0
819,4011801046193,新規,0,2025-05-27,2025-05-27,ウコー設計株式会社,,株式会社,東京都,葛飾区,金町３丁目２４番３号,,13,122,1250042,,,,,,,2025-05-27,1,,,,,ウコーセッケイ,0
821,4012401043151,新規,0,2025-05-27,2025-05-27,株式会社Ｉｎｆｉｎｉｔｙ,,株式会社,東京都,武蔵野市,吉祥寺南町２丁目８番６号,,13,203,1800003,,,,,,,2025-05-27,1,,,,,インフィニティ,0
824,4012701018885,新規,0,2025-05-27,2025-05-27,株式会社和泉家,,株式会社,東京都,東村山市,萩山町１丁目１９－２２,,13,213,1890012,,,,,,,2025-05-27,1,,,,,イズミヤ,0
829,4020001162874,新規,0,2025-05-27,2025-05-27,株式会社Ｔ．Ｋ,,株式会社,神奈川県,横浜市中区,簑沢７８番地２３,,14,104,2310856,,,,,,,2025-05-27,1,,,,,ティーケー,0
830,4020001163063,新規,0,2025-05-27,2025-05-27,株式会社ＮＳコーポレーション,,株式会社,神奈川県,横浜市旭区,鶴ケ峰本町１丁目３９番２５号,,14,112,2410021,,,,,,,2025-05-27,1,,,,,エヌエスコーポレーション,0
831,4020001163096,新規,0,2025-05-27,2025-05-27,株式会社ＮｏｖｅＬａｎｄ,,株式会社,神奈川県,横浜市西区,浅間町１丁目４番３号ウィザードビル４０２,,14,103,2200072,,,,,,,2025-05-27,1,,,,,ノベランド,0
837,4021001085272,新規,0,2025-05-27,2025-05-27,株式会社イノベーションスタイル,,株式会社,神奈川県,相模原市中央区,田名塩田３丁目７番２３号,,14,152,2520245,,,,,,,2025-05-27,1,,,,,イノベーションスタイル,0
838,4021001085355,新規,0,2025-05-27,2025-05-27,ｍａｒｕｅｉｔｏ株式会社,,株式会社,神奈川県,鎌倉市,由比ガ浜１丁目１２－１５,,14,204,2480014,,,,,,,2025-05-27,1,,,,,マルエイト,0
841,4021003016052,新規,0,2025-05-27,2025-05-27,Ｄｈａｒｍａ　Ａｒｔ　Ｃｏｌｌｅｃｔｉｖｅ合同会社,,合同会社,神奈川県,藤沢市,川名１丁目３番２０番－１１０４号,,14,205,2510015,,,,,,,2025-05-27,1,,,,,ダルマアートコレクティブ,0
842,4021005013378,新規,0,2025-05-27,2025-05-27,特定非営利活動法人神奈川こども食堂・地域食堂ネットワーク,,その他の設立登記法人,神奈川県,平塚市,寺田縄１０３６番地の８,,14,203,2591215,,,,,,,2025-05-27,1,,,,,カナガワコドモショクドウチイキショクドウネットワーク,0
858,4030001166726,新規,0,2025-05-27,2025-05-27,株式会社ＧＭＣＯケアグループ,,株式会社,埼玉県,川口市,戸塚５丁目１５番１３号,,11,203,3330811,,,,,,,2025-05-27,1,,,,,ジーエムシーオーケアグループ,0
859,4030001166742,新規,0,2025-05-27,2025-05-27,株式会社ＯＮＥ　Ｐｕｔｔ,,株式会社,埼玉県,富士見市,関沢２丁目２５番５－１４０２号,,11,235,3540025,,,,,,,2025-05-27,1,,,,,ワンパット,0
862,4040001138947,新規,0,2025-05-27,2025-05-27,ＬｅａｄＩｎ株式会社,,株式会社,千葉県,柏市,旭町１丁目３‐３ＳＫヴィラ２、１１０８号室,,12,217,2770852,,,,,,,2025-05-27,1,,,,,リードイン,0
868,4050001056719,新規,0,2025-05-27,2025-05-27,株式会社Ｂｅｓｔ　Ｂｌｏｏｄ　Ｋｅｎｎｅｌ,,株式会社,茨城県,坂東市,生子３２４２番地９,,08,228,3060504,,,,,,,2025-05-27,1,,,,,ベストブラッドケンネル,0
875,4050003009286,新規,0,2025-05-27,2025-05-27,合同会社ＨＩＲＯ,,合同会社,茨城県,土浦市,桜町２丁目５番１号,,08,203,3000037,,,,,,,2025-05-27,1,,,,,ヒロ,0
878,4060001038229,新規,0,2025-05-27,2025-05-27,昌・ＧＲＡＴＩＳＴ株式会社,,株式会社,栃木県,栃木市,沼和田町４７番６号,,09,203,3280042,,,,,,,2025-05-27,1,,,,,マサグラティスト,0
879,4060001038237,新規,0,2025-05-27,2025-05-27,株式会社Ｃｏｍｐｌｅｔｅ,,株式会社,栃木県,矢板市,石関１３１１番地２,,09,211,3291576,,,,,,,2025-05-27,1,,,,,コンプリート,0
881,4060003005565,新規,0,2025-05-27,2025-05-27,合同会社紫樹,,合同会社,栃木県,足利市,永楽町２６９０番地１モナーク足利５０１,,09,202,3260055,,,,,,,2025-05-27,1,,,,,シキ,0
884,4070003005936,新規,0,2025-05-27,2025-05-27,合同会社コットン,,合同会社,群馬県,高崎市,通町７３イマジンビル３０１号,,10,202,3700053,,,,,,,2025-05-27,1,,,,,コットン,0
887,4080401027928,新規,0,2025-05-27,2025-05-27,ＨＳ工業株式会社,,株式会社,静岡県,袋井市,山名町６番地の１１の２,,22,216,4370042,,,,,,,2025-05-27,1,,,,,エイチエスコウギョウ,0
902,4120001276128,新規,0,2025-05-27,2025-05-27,株式会社ＣＵＯＲＥ,,株式会社,大阪府,大阪市東住吉区,鷹合３丁目１１番２９－１２０２号,,27,121,5460014,,,,,,,2025-05-27,1,,,,,クオーレ,0
903,4120001276177,新規,0,2025-05-27,2025-05-27,株式会社多維科技,,株式会社,大阪府,大阪市東成区,深江南２丁目８番８号メゾンホワイティ－４０１号室,,27,115,5370002,,,,,,,2025-05-27,1,,,,,タイカギ,0
904,4120001276185,新規,0,2025-05-27,2025-05-27,株式会社ｅｉｇｈｔ,,株式会社,大阪府,大阪市淀川区,宮原４丁目４番６４号新大阪千代田ビル,,27,123,5320003,,,,,,,2025-05-27,1,,,,,エイト,0
905,4120001276210,新規,0,2025-05-27,2025-05-27,栄水株式会社,,株式会社,大阪府,大阪市住之江区,西住之江３丁目１５－２２,,27,125,5590005,,,,,,,2025-05-27,1,,,,,エイスイ,0
907,4120005024953,新規,0,2025-05-27,2025-05-27,弁護士法人アクセス法律事務所,,その他の設立登記法人,大阪府,大阪市西区,江戸堀１丁目８番１７号,,27,106,5500002,,,,,,,2025-05-27,1,,,,,アクセスホウリツジムショ,0
912,4130001079744,新規,0,2025-05-27,2025-05-27,株式会社ＬＵＸＵ　ＲＥＡＬＩＴＹ,,株式会社,京都府,京都市山科区,日ノ岡鴨土町４３番地８,,26,110,6078495,,,,,,,2025-05-27,1,,,,,ラグリアリティ,0
913,4130001079760,新規,0,2025-05-27,2025-05-27,株式会社木下組,,株式会社,京都府,京都市山科区,大塚北溝町３７番地アーバニス京都山科３０１号室,,26,110,6078134,,,,,,,2025-05-27,1,,,,,キノシタグミ,0
918,4140001138722,新規,0,2025-05-27,2025-05-27,株式会社ＥＸＲ‐１４,,株式会社,兵庫県,尼崎市,東園田町５丁目９６番地の１,,28,202,6610953,,,,,,,2025-05-27,1,,,,,エクサーフォーティーン,0
924,4150001028154,新規,0,2025-05-27,2025-05-27,力健ホールディングス株式会社,,株式会社,奈良県,香芝市,瓦口１番地２,,29,210,6390225,,,,,,,2025-05-27,1,,,,,リッケンホールディングス,0
929,4180001166918,新規,0,2025-05-27,2025-05-27,株式会社Ｂｌｕｅ　Ｎｏｖａ,,株式会社,愛知県,名古屋市西区,香呑町２丁目９番地,,23,104,4510015,,,,,,,2025-05-27,1,,,,,ブルーノヴァ,0
930,4180001166959,新規,0,2025-05-27,2025-05-27,株式会社ザイナスティ,,株式会社,愛知県,名古屋市瑞穂区,明前町１３番２８号,,23,108,4670852,,,,,,,2025-05-27,1,,,,,ザイナスティ,0
931,4180001166967,新規,0,2025-05-27,2025-05-27,株式会社貴建設,,株式会社,愛知県,尾張旭市,新居町寺田３０１１番地７,,23,226,4880078,,,,,,,2025-05-27,1,,,,,タカケンセツ,0
935,4190001032243,新規,0,2025-05-27,2025-05-27,株式会社ねこの手,,株式会社,三重県,亀山市,みずきが丘６４－１１,,24,210,5190181,,,,,,,2025-05-27,1,,,,,,0
937,4190003005049,新規,0,2025-05-27,2025-05-27,ｓｍｉｌｅ合同会社,,合同会社,三重県,松阪市,東久保町７０５番地,,24,204,5150121,,,,,,,2025-05-27,1,,,,,,0
939,4200001043817,新規,0,2025-05-27,2025-05-27,株式会社ランドワークス,,株式会社,岐阜県,関市,肥田瀬１３４６番地１,,21,205,5013911,,,,,,,2025-05-27,1,,,,,ランドワークス,0
941,4230001020920,新規,0,2025-05-27,2025-05-27,グリーン・コモンズ株式会社,,株式会社,富山県,南砺市,上原１０４番地,,16,210,9391834,,,,,,,2025-05-27,1,,,,,グリーンコモンズ,0
942,4240001064958,新規,0,2025-05-27,2025-05-27,ジュール株式会社,,株式会社,広島県,安芸郡府中町,みくまり１丁目５番９号,,34,302,7350003,,,,,,,2025-05-27,1,,,,,ジュール,0
943,4240001064982,新規,0,2025-05-27,2025-05-27,アザレア株式会社,,株式会社,広島県,広島市中区,基町１１番１０号,,34,101,7300011,,,,,,,2025-05-27,1,,,,,アザレア,0
944,4240001064999,新規,0,2025-05-27,2025-05-27,株式会社ラクソウ,,株式会社,広島県,広島市西区,己斐中１丁目１２番１号４０４号室,,34,104,7330813,,,,,,,2025-05-27,1,,,,,ラクソウ,0
946,4240003007213,新規,0,2025-05-27,2025-05-27,合同会社ＵＳＨＩＯ,,合同会社,広島県,福山市,神辺町字上御領８３０番地１,,34,207,7202111,,,,,,,2025-05-27,1,,,,,ウシオ,0
952,4290001110154,新規,0,2025-05-27,2025-05-27,Ａｉｍａｃ株式会社,,株式会社,福岡県,福岡市中央区,荒戸２丁目４番３－２０１号,,40,133,8100062,,,,,,,2025-05-27,1,,,,,アイマック,0
956,4290003016812,新規,0,2025-05-27,2025-05-27,ＢＬＵＥＳＥＥＤＳ合同会社,,合同会社,福岡県,福岡市中央区,平尾３丁目１７－１３,,40,133,8100014,,,,,,,2025-05-27,1,,,,,ブルーシーズ,0
957,4290003016903,新規,0,2025-05-27,2025-05-27,Ｓｃａｆｌｉｎｋｓ合同会社,,合同会社,福岡県,太宰府市,都府楼南２丁目１６番７号,,40,221,8180105,,,,,,,2025-05-27,1,,,,,スキャフリンクス,0
961,4290005019755,新規,0,2025-05-27,2025-05-27,一般社団法人フィナンシャルソリューションズ,,その他の設立登記法人,福岡県,福岡市博多区,古門戸町１番１号日刊工業新聞社ビル８階,,40,132,8120029,,,,,,,2025-05-27,1,,,,,フィナンシャルソリューションズ,0
963,4330001033227,新規,0,2025-05-27,2025-05-27,株式会社ディー・ワークス,,株式会社,熊本県,熊本市北区,龍田５丁目１１番６号２Ｆ,,43,105,8618006,,,,,,,2025-05-27,1,,,,,ディーワークス,0
970,4360003014957,新規,0,2025-05-27,2025-05-27,合同会社ラッピースマイル,,合同会社,沖縄県,沖縄市,美里５丁目２２番２４号２Ｆ,,47,211,9042153,,,,,,,2025-05-27,1,,,,,ラッピースマイル,0
972,4370001052628,新規,0,2025-05-27,2025-05-27,ユタカ車検整備工場株式会社,,株式会社,宮城県,名取市,下増田字北原東１７０番,,04,207,9811201,,,,,,,2025-05-27,1,,,,,ユタカシャケンセイビコウジョウ,0
978,4380001035342,新規,0,2025-05-27,2025-05-27,株式会社舩山不動産,,株式会社,福島県,福島市,上野寺字原６番地の２,,07,201,9608076,,,,,,,2025-05-27,1,,,,,フナヤマフドウサン,0
989,4450003002663,新規,0,2025-05-27,2025-05-27,合同会社エデュケア,,合同会社,北海道,旭川市,豊岡一条４丁目２番４号,,01,204,0788231,,,,,,,2025-05-27,1,,,,,エデュケア,0
990,4470001020723,新規,0,2025-05-27,2025-05-27,株式会社Ｌｉｚ,,株式会社,香川県,高松市,伏石町１６００番地１,,37,201,7618071,,,,,,,2025-05-27,1,,,,,リズ,0
997,4700150130737,新規,0,2025-05-27,2025-05-27,Ｄｏｎｇｇｕａｎ　Ｙｉｗｅｉ　Ｔｅｃｈｎｏｌｏｇｙ　Ｃｏ．，Ｌｉｍｉｔｅｄ．,,外国会社等,,,,,,,,６０１，Ｕｎｉｔ　２，Ｂｕｉｌｄｉｎｇ　５，Ｈｕｉｘｉｎｇ　Ｃｏｍｍｅｒｃｉａｌ　Ｃｅｎｔｅｒ，ＮＯ．１，Ｄｏｎｇｓｈｅｎｇ　Ｒｏａｄ，Ｚｈｏｎｇｓｈａｎｄｏｎｇ，Ｓｈｉｌｏｎｇ　Ｔｏｗｎ，Ｄｏｎｇｇｕａｎ　Ｃｉｔｙ，Ｇｕａｎｇｄｏｎｇ　Ｐｒｏｖｉｎｃｅ,,,,,,2025-05-27,1,,,,,ドングワンシーイーウェイジーシューヨウシエンゴンスー,0
1008,5010001255439,新規,0,2025-05-27,2025-05-27,株式会社クレボーロ,,株式会社,東京都,文京区,本郷６丁目２５番１４号,,13,105,1130033,,,,,,,2025-05-27,1,,,,,クレボーロ,0
1011,5010003047405,新規,0,2025-05-27,2025-05-27,プリステラ合同会社,,合同会社,東京都,新島村,式根島２８１番地２,,13,363,1000511,,,,,,,2025-05-27,1,,,,,プリステラ,0
1012,5010003047454,新規,0,2025-05-27,2025-05-27,合同会社ＡＲＫＨＥＭＩＮＡ,,合同会社,東京都,中央区,銀座１丁目１２番４号Ｎ＆Ｅ．ＢＬＤ．７階,,13,102,1040061,,,,,,,2025-05-27,1,,,,,アルケミナ,0
1013,5010003047470,新規,0,2025-05-27,2025-05-27,合同会社Ｐｌｕｍ　Ｊａｐａｎ,,合同会社,東京都,中央区,銀座１丁目１２番４号Ｎ＆ＥＢＬＤ．６Ｆ,,13,102,1040061,,,,,,,2025-05-27,1,,,,,プラムジャパン,0
1020,5010403035050,新規,0,2025-05-27,2025-05-27,健北合同会社,,合同会社,東京都,港区,北青山１丁目３－３三橋ビル３階,,13,103,1070061,,,,,,,2025-05-27,1,,,,,ケンホク,0
1022,5010501054118,新規,0,2025-05-27,2025-05-27,株式会社一起,,株式会社,東京都,台東区,千束１丁目１０番１０－９０２プロスタイルウェルス浅草アイル,,13,106,1110031,,,,,,,2025-05-27,1,,,,,イッキ,0
1023,5010601067358,新規,0,2025-05-27,2025-05-27,アース・ラボ株式会社,,株式会社,東京都,江東区,新砂３丁目１１番１９号,,13,108,1360075,,,,,,,2025-05-27,1,,,,,アースラボ,0
1027,5010801036179,新規,0,2025-05-27,2025-05-27,Ａｌｉｗｏｒｋｓ株式会社,,株式会社,東京都,大田区,西蒲田７丁目５３番２－１２０４号,,13,111,1440051,,,,,,,2025-05-27,1,,,,,アリワークス,0
1029,5010903009941,新規,0,2025-05-27,2025-05-27,４ｔｈ　ｍｉｌｅ合同会社,,合同会社,東京都,世田谷区,三宿１丁目１４番８号３１５,,13,112,1540005,,,,,,,2025-05-27,1,,,,,フォースマイル,0
1033,5011001169298,新規,0,2025-05-27,2025-05-27,株式会社ＲＩＰＰＬＥ,,株式会社,東京都,渋谷区,代々木２丁目２１－１－６０２,,13,113,1510053,,,,,,,2025-05-27,1,,,,,リプル,0
1034,5011001169397,新規,0,2025-05-27,2025-05-27,ｍｏｋｕ株式会社,,株式会社,東京都,目黒区,東山１丁目１１－１２－１０２,,13,110,1530043,,,,,,,2025-05-27,1,,,,,モク,0
1035,5011001169694,新規,0,2025-05-27,2025-05-27,株式会社ＴＳＴ　ＥＸＣＩＡ,,株式会社,東京都,目黒区,中町２丁目３０番１２号,,13,110,1530065,,,,,,,2025-05-27,1,,,,,ティーエスティーエクシア,0
1036,5011001169892,新規,0,2025-05-27,2025-05-27,七二七株式会社,,株式会社,東京都,渋谷区,本町６丁目２８－１１,,13,113,1510071,,,,,,,2025-05-27,1,,,,,ナナニイナナ,0
1038,5011003021630,新規,0,2025-05-27,2025-05-27,合同会社ｆｏｒｃｅ,,合同会社,東京都,目黒区,目黒２丁目８番１０－１２０１号,,13,110,1530063,,,,,,,2025-05-27,1,,,,,フォルス,0
1039,5011005011002,新規,0,2025-05-27,2025-05-27,ＮＰＯ法人東京バスクの家,,その他の設立登記法人,東京都,渋谷区,本町１丁目１１番７号,,13,113,1510071,,,,,,,2025-05-27,1,,,,,トウキョウバスクノイエ,0
1048,5011103015961,新規,0,2025-05-27,2025-05-27,東那須ソーラーパワー合同会社,,合同会社,東京都,新宿区,四谷２丁目９番地１５東京ユナイテッド綜合事務所内,,13,104,1600004,,,,,,,2025-05-27,1,,,,,ヒガシナスソーラーパワー,0
1049,5011105011463,新規,0,2025-05-27,2025-05-27,ソーラーＵＢＥホールディングス一般社団法人,,その他の設立登記法人,東京都,新宿区,四谷２丁目９番地１５東京ユナイテッド綜合事務所内,,13,104,1600004,,,,,,,2025-05-27,1,,,,,ソーラーウベホールディングス,0
1051,5011203004708,新規,0,2025-05-27,2025-05-27,合同会社まつした,,合同会社,東京都,中野区,中央４丁目３７－１３,,13,114,1640011,,,,,,,2025-05-27,1,,,,,マツシタ,0
1060,5011801046184,新規,0,2025-05-27,2025-05-27,株式会社星東,,株式会社,東京都,葛飾区,東新小岩７丁目２１番４号,,13,122,1240023,,,,,,,2025-05-27,1,,,,,セイトウ,0
1061,5011803006871,新規,0,2025-05-27,2025-05-27,アリカ合同会社,,合同会社,東京都,足立区,千住旭町４１－１４,,13,121,1200026,,,,,,,2025-05-27,1,,,,,アリカ,0
1063,5012403007129,新規,0,2025-05-27,2025-05-27,合同会社Ｒａｕｌ,,合同会社,東京都,狛江市,猪方３丁目２５番１－１０２号室,,13,219,2010015,,,,,,,2025-05-27,1,,,,,ラウル,0
1064,5012403007153,新規,0,2025-05-27,2025-05-27,わかばのおと合同会社,,合同会社,東京都,狛江市,岩戸北２丁目１１番１０―４１５号,,13,219,2010004,,,,,,,2025-05-27,1,,,,,ワカバノオト,0
1080,5021001085338,新規,0,2025-05-27,2025-05-27,鎌倉ナチュラル株式会社,,株式会社,神奈川県,鎌倉市,長谷１丁目１１番２６号,,14,204,2480016,,,,,,,2025-05-27,1,,,,,カマクラナチュラル,0
1081,5021003016043,新規,0,2025-05-27,2025-05-27,ＹＭＭ合同会社,,合同会社,神奈川県,厚木市,下川入１３３２,,14,212,2430206,,,,,,,2025-05-27,1,,,,,ワイエムエム,0
1086,5030001166717,新規,0,2025-05-27,2025-05-27,株式会社Ａｉｒｎｄ,,株式会社,埼玉県,さいたま市緑区,大字大牧１４７３番地３,,11,109,3360922,,,,,,,2025-05-27,1,,,,,エアンド,0
1092,5030003026852,新規,0,2025-05-27,2025-05-27,合同会社ＷＩＬＬＡＵ,,合同会社,埼玉県,さいたま市緑区,東浦和９丁目１０番地１エスポワール浦和４０１号室,,11,109,3360926,,,,,,,2025-05-27,1,,,,,ウィロー,0
1099,5040001138896,新規,0,2025-05-27,2025-05-27,株式会社テクノサービス,,株式会社,千葉県,市川市,中国分５丁目４番地７号,,12,203,2720835,,,,,,,2025-05-27,1,,,,,テクノサービス,0
1100,5040001138905,新規,0,2025-05-27,2025-05-27,株式会社Ａｒｋ　Ｗｅｌｌ‐ｂｅｉｎｇ,,株式会社,千葉県,千葉市緑区,大膳野町４－７５７,,12,105,2660006,,,,,,,2025-05-27,1,,,,,アークウェルビーイング,0
1101,5040001138921,新規,0,2025-05-27,2025-05-27,株式会社Ｐ＆Ｅホールディングス,,株式会社,千葉県,流山市,市野谷３９８番地,,12,220,2700137,,,,,,,2025-05-27,1,,,,,ピーアンドイーホールディングス,0
1105,5050001056726,新規,0,2025-05-27,2025-05-27,株式会社ハートフルランド,,株式会社,茨城県,水戸市,上水戸２丁目２番２６号,,08,201,3100041,,,,,,,2025-05-27,1,,,,,ハートフルランド,0
1110,5060001038228,新規,0,2025-05-27,2025-05-27,株式会社ＫＩＴＥＣ,,株式会社,栃木県,佐野市,多田町９８１番地２,,09,204,3270311,,,,,,,2025-05-27,1,,,,,ケーアイテック,0
1112,5070003005935,新規,0,2025-05-27,2025-05-27,ＳＲＫ合同会社,,合同会社,群馬県,太田市,岩瀬川町５５５番地４ハーモニー岩瀬川１０５号,,10,205,3730841,,,,,,,2025-05-27,1,,,,,,0
1115,5080101025512,新規,0,2025-05-27,2025-05-27,株式会社エヌズカープラス,,株式会社,静岡県,富士市,久沢５０番地の１５,,22,210,4190202,,,,,,,2025-05-27,1,,,,,エヌズカープラス,0
1122,5100001038628,新規,0,2025-05-27,2025-05-27,株式会社結,,株式会社,長野県,松本市,渚２丁目７番１号大月ビル２階東号室,,20,202,3900841,,,,,,,2025-05-27,1,,,,,ムスブ,0
1123,5100001038636,新規,0,2025-05-27,2025-05-27,トライウィングス株式会社,,株式会社,長野県,松本市,大字寿豊丘４０６番地７,,20,202,3990021,,,,,,,2025-05-27,1,,,,,トライウィングス,0
1133,5120001276143,新規,0,2025-05-27,2025-05-27,ＪＣ商事株式会社,,株式会社,大阪府,大阪市浪速区,恵美須西２丁目１２番１９－４０２号,,27,111,5560003,,,,,,,2025-05-27,1,,,,,ジェイシーショウジ,0
1134,5120001276250,新規,0,2025-05-27,2025-05-27,株式会社Ｌｉｆｅ　ｉｎｎｏｖａｔｉｏｎ,,株式会社,大阪府,枚方市,桜町８－１５,,27,210,5730056,,,,,,,2025-05-27,1,,,,,ライフイノベーション,0
1140,5120003029557,新規,0,2025-05-27,2025-05-27,合同会社Ａｋａｓｈａ,,合同会社,大阪府,大阪市港区,磯路１丁目２番１２－９０１号,,27,107,5520003,,,,,,,2025-05-27,1,,,,,アカッシャ,0
1141,5120005024952,新規,0,2025-05-27,2025-05-27,一般社団法人丸石製薬健康福祉支援基金,,その他の設立登記法人,大阪府,大阪市鶴見区,今津中２丁目４番２号,,27,124,5380042,,,,,,,2025-05-27,1,,,,,マルイシセイヤクケンコウフクシシエンキキン,0
1145,5120101071741,新規,0,2025-05-27,2025-05-27,株式会社サワダ,,株式会社,大阪府,高石市,加茂２丁目７番３６号,,27,225,5920011,,,,,,,2025-05-27,1,,,,,サワダ,0
1152,5120903005681,新規,0,2025-05-27,2025-05-27,合同会社Ｂｒａｎｃｈｅｒ,,合同会社,大阪府,豊中市,上野西４丁目３番５号,,27,203,5600011,,,,,,,2025-05-27,1,,,,,ブランシェ,0
1154,5130001079768,新規,0,2025-05-27,2025-05-27,株式会社ホロスワークス,,株式会社,京都府,亀岡市,篠町篠赤畑１７－１,,26,206,6210826,,,,,,,2025-05-27,1,,,,,ホロスワークス,0
1155,5130001079776,新規,0,2025-05-27,2025-05-27,株式会社一嘉不動産,,株式会社,京都府,京田辺市,田辺鳥本１５番地１５,,26,211,6100331,,,,,,,2025-05-27,1,,,,,イッカフドウサン,0
1162,5140001138630,新規,0,2025-05-27,2025-05-27,株式会社ＨＡＪＩＭＥ,,株式会社,兵庫県,芦屋市,大原町９番１号ラポルテ東館地下１階,,28,206,6590092,,,,,,,2025-05-27,1,,,,,ハジメ,0
1163,5140001138721,新規,0,2025-05-27,2025-05-27,株式会社ｙｍｓ企画,,株式会社,兵庫県,たつの市,龍野町片山７８番地１５,,28,229,6794123,,,,,,,2025-05-27,1,,,,,ワイエムエスキカク,0
1168,5150003003617,新規,0,2025-05-27,2025-05-27,合同会社ｄｅｓ　ｂｉｊｏｕｘ,,合同会社,奈良県,奈良市,七条１丁目２１番９号,,29,201,6308053,,,,,,,2025-05-27,1,,,,,デビジュー,0
1170,5160003003491,新規,0,2025-05-27,2025-05-27,ＡＧＴ　ｍａｎａｇｅｍｅｎｔ合同会社,,合同会社,滋賀県,草津市,野路東１丁目１－１立命館大学ＢＫＣインキュベーター１０８号室,,25,206,5250058,,,,,,,2025-05-27,1,,,,,エージーティーマネジメント,0
1175,5180001166933,新規,0,2025-05-27,2025-05-27,株式会社ティティティ,,株式会社,愛知県,名古屋市東区,泉１丁目１２番２５－１８０１号,,23,102,4610001,,,,,,,2025-05-27,1,,,,,ティティティ,0
1176,5180001166966,新規,0,2025-05-27,2025-05-27,株式会社Ｈ．Ｉ．Ｔ,,株式会社,愛知県,名古屋市中村区,名駅４丁目２４番５号第２森ビル４０１,,23,105,4500002,,,,,,,2025-05-27,1,,,,,エイチアイティー,0
1177,5180001167015,新規,0,2025-05-27,2025-05-27,株式会社Ｌｅｙ,,株式会社,愛知県,名古屋市名東区,本郷２丁目２１２－１Ｓ－ＲＥＳＩＤＥＮＣＥ本郷ＩＩ８０２号,00139307,23,115,4650024,,,,,,,2025-05-27,1,,,,,レイ,0
1182,5180005021110,新規,0,2025-05-27,2025-05-27,一般社団法人全国暮らしと住まい支援協会,,その他の設立登記法人,愛知県,名古屋市熱田区,木之免町８０９番地,,23,109,4560046,,,,,,,2025-05-27,1,,,,,ゼンコククラシトスマイシエンキョウカイ,0
1185,5180305005936,新規,0,2025-05-27,2025-05-27,神道大教壽覚講社,,その他の設立登記法人,愛知県,豊田市,下市場町４丁目５７番地,,23,211,4710875,,,,,,,2025-05-27,1,,,,,,0
1186,5190001032242,新規,0,2025-05-27,2025-05-27,株式会社ロジビー,,株式会社,三重県,四日市市,尾平町２１１４‐１,,24,202,5120921,,,,,,,2025-05-27,1,,,,,,0
1187,5190001032250,新規,0,2025-05-27,2025-05-27,株式会社Ｍｅｔａｌ　ｃｒａｆｔ　Ｍ,,株式会社,三重県,鈴鹿市,寺家７丁目１１番２０号,,24,207,5100254,,,,,,,2025-05-27,1,,,,,メタルクラフトエム,0
1192,5230003002429,新規,0,2025-05-27,2025-05-27,Ｓｈａｄ　Ａｋｂａｒ　Ｔｒａｄｉｎｇ合同会社,,合同会社,富山県,射水市,堀岡２４０‐４,,16,211,9330223,,,,,,,2025-05-27,1,,,,,シャドアクバルトレーディング,0
1196,5240003007229,新規,0,2025-05-27,2025-05-27,合同会社ｉｚｕｍｉ,,合同会社,広島県,広島市安佐南区,八木９丁目３１番２６－２０４号,,34,105,7310101,,,,,,,2025-05-27,1,,,,,イズミ,0
1209,5290001110129,新規,0,2025-05-27,2025-05-27,ＧＵ‐ＭＩ株式会社,,株式会社,福岡県,福岡市南区,三宅１丁目１番６号,,40,134,8111344,,,,,,,2025-05-27,1,,,,,グミ,0
1210,5290001110137,新規,0,2025-05-27,2025-05-27,株式会社上野土地建物,,株式会社,福岡県,久留米市,諏訪野町１６５５番地３,,40,203,8300037,,,,,,,2025-05-27,1,,,,,ウエノトチタテモノ,0
1211,5290001110145,新規,0,2025-05-27,2025-05-27,株式会社３Ｃ,,株式会社,福岡県,福岡市博多区,博多駅前１丁目２３番２号ＰａｒｋＦｒｏｎｔ博多駅前１丁目５Ｆ－Ｂ,,40,132,8120011,,,,,,,2025-05-27,1,,,,,サンシー,0
1213,5290003016893,新規,0,2025-05-27,2025-05-27,Ａｓｃｅｎｓｉｏｎ　Ｐｒｏｊｅｃｔ合同会社,,合同会社,福岡県,福岡市東区,西戸崎２丁目１番２９－６０５号,,40,131,8110321,,,,,,,2025-05-27,1,,,,,アセンションプロジェクト,0
1220,5290801031573,新規,0,2025-05-27,2025-05-27,株式会社キャッチザスター,,株式会社,福岡県,北九州市八幡西区,香月西２丁目１０番５号,,40,109,8071103,,,,,,,2025-05-27,1,,,,,キャッチザスター,0
1221,5290803005063,新規,0,2025-05-27,2025-05-27,合同会社ａｎｄｍｏｒｅ,,合同会社,福岡県,北九州市小倉北区,緑ケ丘１丁目８番１２－３０１号,,40,106,8030827,,,,,,,2025-05-27,1,,,,,アンドモアー,0
1222,5300001014195,新規,0,2025-05-27,2025-05-27,株式会社優良産業,,株式会社,佐賀県,唐津市,浦５４６１番地３,,41,202,8470124,,,,,,,2025-05-27,1,,,,,ユラサンギョウ,0
1223,5310001019615,新規,0,2025-05-27,2025-05-27,株式会社賀谷電機,,株式会社,長崎県,対馬市,美津島町賀谷１６３番地２１,,42,209,8171103,,,,,,,2025-05-27,1,,,,,ガヤデンキ,0
1224,5320001021124,新規,0,2025-05-27,2025-05-27,株式会社マル洋建築,,株式会社,大分県,竹田市,大字太田１４４９番地,,44,208,8780032,,,,,,,2025-05-27,1,,,,,マルヨウケンチク,0
1227,5350001019553,新規,0,2025-05-27,2025-05-27,株式会社Ｋ２　ＳＴＡＧＥ,,株式会社,宮崎県,宮崎市,佐土原町下那珂３３５１番地４サンヒルズ松木１０２,,45,201,8800212,,,,,,,2025-05-27,1,,,,,ケーツーステージ,0
1230,5360001035252,新規,0,2025-05-27,2025-05-27,株式会社ＮＳ物産,,株式会社,沖縄県,那覇市,小禄５丁目１０－３コーポルナ４０２,,47,201,9010152,,,,,,,2025-05-27,1,,,,,エヌエスブッサン,0
1233,5360003014956,新規,0,2025-05-27,2025-05-27,合同会社中村,,合同会社,沖縄県,島尻郡八重瀬町,字港川２５２番地,,47,362,9010511,,,,,,,2025-05-27,1,,,,,ナカムラ,0
1235,5370001052627,新規,0,2025-05-27,2025-05-27,株式会社ＦＡマネジメント,,株式会社,宮城県,仙台市青葉区,花京院２丁目１番６１号オークツリー仙台,,04,101,9800013,,,,,,,2025-05-27,1,,,,,エフエーマネジメント,0
1240,5390003002396,新規,0,2025-05-27,2025-05-27,合同会社ＹＵＩ,,合同会社,山形県,鶴岡市,末広町５番２２－２０１　Ａ－３,,06,203,9970015,,,,,,,2025-05-27,1,,,,,ユイ,0
1242,5420003003119,新規,0,2025-05-27,2025-05-27,合同会社ＣＴワークス,,合同会社,青森県,弘前市,大字住吉町２２番地１３,,02,202,0368187,,,,,,,2025-05-27,1,,,,,シィーティーワークス,0
1248,5480001012842,新規,0,2025-05-27,2025-05-27,株式会社りそう不動産,,株式会社,徳島県,徳島市,山城町東浜傍示３３番地の１－２Ｆ,,36,201,7708055,,,,,,,2025-05-27,1,,,,,リソウフドウサン,0
1252,5700150130736,新規,0,2025-05-27,2025-05-27,Ｄｏｎｇｈａｉｘｉａｎ　Ｗｏｈａｎ　Ｔｒａｄｉｎｇ　Ｃｏ．，Ｌｔｄ．,,外国会社等,,,,,,,,Ｌｉａｎｙｕｎｇａｎｇｓｈｉ　Ｄｏｎｇｈａｉｘｉａｎ　Ｓｈａｎｚｕｏｋｏｕ　Ｔｏｗｎ　Ｎｉｕｘｕ　Ｒｏａｄ　９７－１,,,,,,2025-05-27,1,,,,,ドンハイシエンウオハンシャンマオヨウシエンゴンスー,0
1262,6010001255413,新規,0,2025-05-27,2025-05-27,株式会社ハネオス,,株式会社,東京都,中央区,八丁堀４丁目３番５号京橋宝町ＰＲＥＸ２Ｆ,,13,102,1040032,,,,,,,2025-05-27,1,,,,,ハネオス,0
1264,6010003047296,新規,0,2025-05-27,2025-05-27,ＥＬＹ合同会社,,合同会社,東京都,中央区,銀座７丁目１３番５号,,13,102,1040061,,,,,,,2025-05-27,1,,,,,エリィ,0
1265,6010003047429,新規,0,2025-05-27,2025-05-27,Ａｎｔｈｒｏｐｉｃ　Ｊａｐａｎ合同会社,,合同会社,東京都,千代田区,丸の内１丁目８番２号鉄鋼ビルディング４階,,13,101,1000005,,,,,,,2025-05-27,1,,,,,アンソロピックジャパン,0
1274,6010401190458,新規,0,2025-05-27,2025-05-27,株式会社ＫＡＳＡＮＥ,,株式会社,東京都,港区,高輪１丁目２２－３ＷＥＬＬＩＴＨ４０４,,13,103,1080074,,,,,,,2025-05-27,1,,,,,カサネ,0
1276,6010403035082,新規,0,2025-05-27,2025-05-27,Ｒｏｏｔｓ合同会社,,合同会社,東京都,港区,南青山２丁目２番１５号,,13,103,1070062,,,,,,,2025-05-27,1,,,,,ルーツ,0
1277,6010403035181,新規,0,2025-05-27,2025-05-27,ローズブリッジ合同会社,,合同会社,東京都,港区,北青山１丁目３番１号アールキューブ青山３階,,13,103,1070061,,,,,,,2025-05-27,1,,,,,ローズブリッジ,0
1278,6010403035231,新規,0,2025-05-27,2025-05-27,ＮｉｊｉｉＲｏ合同会社,,合同会社,東京都,港区,北青山１丁目３‐３三橋ビル３階,,13,103,1070061,,,,,,,2025-05-27,1,,,,,ニジイロ,0
1279,6010403035248,新規,0,2025-05-27,2025-05-27,Ｓｉｎｇｕｌｉｇｈｔ合同会社,,合同会社,東京都,港区,北青山１丁目３番１号アールキューブ青山３階,,13,103,1070061,,,,,,,2025-05-27,1,,,,,シンギュライト,0
1282,6010501054109,新規,0,2025-05-27,2025-05-27,野間不動産株式会社,,株式会社,東京都,台東区,竜泉１丁目６番８号,,13,106,1100012,,,,,,,2025-05-27,1,,,,,ノマフドウサン,0
1283,6010503007857,新規,0,2025-05-27,2025-05-27,イワナミ合同会社,,合同会社,東京都,台東区,元浅草１丁目６番１２号８２５号室,,13,106,1110041,,,,,,,2025-05-27,1,,,,,イワナミ,0
1287,6010601067357,新規,0,2025-05-27,2025-05-27,株式会社辰海,,株式会社,東京都,江東区,千石３丁目１番１４－６０１号,,13,108,1350015,,,,,,,2025-05-27,1,,,,,タツミ,0
1288,6010603011585,新規,0,2025-05-27,2025-05-27,印度日和合同会社,,合同会社,東京都,江東区,大島８丁目４－２、１階,,13,108,1360072,,,,,,,2025-05-27,1,,,,,インドビヨリ,0
1290,6010701047770,新規,0,2025-05-27,2025-05-27,株式会社Ｒｉ．ｂｏｎ,,株式会社,東京都,品川区,西五反田２丁目１４番１１－４０３号,,13,109,1410031,,,,,,,2025-05-27,1,,,,,リボン,0
1292,6010801036178,新規,0,2025-05-27,2025-05-27,株式会社Ｌｅａｄｓｉａ,,株式会社,東京都,大田区,東雪谷５丁目２番６号ホワイトヴィラ２０５号,,13,111,1450065,,,,,,,2025-05-27,1,,,,,リードシア,0
1302,6011001169462,新規,0,2025-05-27,2025-05-27,アトムスコンサルティング株式会社,,株式会社,東京都,渋谷区,渋谷２丁目１９－１５宮益坂ビルディング６０９,,13,113,1500002,,,,,,,2025-05-27,1,,,,,アトムスコンサルティング,0
1303,6011001169652,新規,0,2025-05-27,2025-05-27,株式会社ＤＯＯＲＫＮＯＣＫ,,株式会社,東京都,目黒区,中目黒１丁目６番５号グレイス中目黒Ｂ－２０５,,13,110,1530061,,,,,,,2025-05-27,1,,,,,ドアノック,0
1305,6011003021695,新規,0,2025-05-27,2025-05-27,合同会社ＳＴＵＤＩＯ　ＷＯＲＫＳ,,合同会社,東京都,渋谷区,円山町５番３号ＭＩＥＵＸ渋谷ビル８階,,13,113,1500044,,,,,,,2025-05-27,1,,,,,スタジオワークス,0
1306,6011003021778,新規,0,2025-05-27,2025-05-27,ＳＵＴＥＫＩ‐ＬＡＢ合同会社,,合同会社,東京都,渋谷区,神南１丁目１１番４号ＦＰＧリンクス神南５階,,13,113,1500041,,,,,,,2025-05-27,1,,,,,ステキラボ,0
1308,6011101111803,新規,0,2025-05-27,2025-05-27,株式会社クリアティーク,,株式会社,東京都,新宿区,市谷田町１丁目４,,13,104,1620843,,,,,,,2025-05-27,1,,,,,クリアティーク,0
1309,6011101111951,新規,0,2025-05-27,2025-05-27,イノベーターデザイン株式会社,,株式会社,東京都,新宿区,河田町３番５１―１７１２号,,13,104,1620054,,,,,,,2025-05-27,1,,,,,イノベーターデザイン,0
1310,6011103015960,新規,0,2025-05-27,2025-05-27,ソーラーＵＢＥ合同会社,,合同会社,東京都,新宿区,四谷２丁目９番地１５東京ユナイテッド綜合事務所内,,13,104,1600004,,,,,,,2025-05-27,1,,,,,ソーラーウベ,0
1311,6011105011462,新規,0,2025-05-27,2025-05-27,Ｔｒｉｖｉｔｏ一般社団法人,,その他の設立登記法人,東京都,新宿区,四谷２丁目９番地１５東京ユナイテッド綜合事務所内,,13,104,1600004,,,,,,,2025-05-27,1,,,,,トリビト,0
1313,6011201026356,新規,0,2025-05-27,2025-05-27,株式会社グレイスト,,株式会社,東京都,中野区,中央３丁目２０番１０号ダイヤハイツ新中野２０２,,13,114,1640011,,,,,,,2025-05-27,1,,,,,グレイスト,0
1314,6011301030596,新規,0,2025-05-27,2025-05-27,株式会社Ｍａｉｓｏｎ　Ｙｕｋｉｃｈｉ,,株式会社,東京都,杉並区,上高井戸１丁目１３番３－４０４号,,13,115,1680074,,,,,,,2025-05-27,1,,,,,メゾンユキチ,0
1321,6011801046191,新規,0,2025-05-27,2025-05-27,株式会社ｇａｉｎｔｅｃｈ,,株式会社,東京都,足立区,千住旭町３８番１号０４０４号室１,00139319,13,121,1200026,,,,,,,2025-05-27,1,,,,,ゲインテック,0
1323,6011803006870,新規,0,2025-05-27,2025-05-27,ＨＯＲＩＺＯＮ　ＧＬＯＢＡＬ合同会社,,合同会社,東京都,葛飾区,小菅４丁目１２番３号第二鳥塚ビル３０３,,13,122,1240001,,,,,,,2025-05-27,1,,,,,ホライズングローバル,0
1325,6012701018891,新規,0,2025-05-27,2025-05-27,株式会社ｂｏｎ建築社,,株式会社,東京都,西東京市,南町５丁目１５番１３号,,13,229,1880012,,,,,,,2025-05-27,1,,,,,ボンケンチクシャ,0
1339,6020001163020,新規,0,2025-05-27,2025-05-27,株式会社ウイビッド,,株式会社,神奈川県,横浜市港南区,上大岡東１丁目１４番１５号,,14,111,2330001,,,,,,,2025-05-27,1,,,,,ウイビッド,0
1340,6020001163045,新規,0,2025-05-27,2025-05-27,株式会社たいよう保育園,,株式会社,神奈川県,川崎市川崎区,渡田新町２丁目１番９号,,14,131,2100844,,,,,,,2025-05-27,1,,,,,タイヨウホイクエン,0
1349,6020003028568,新規,0,2025-05-27,2025-05-27,サン合同会社,,合同会社,神奈川県,横浜市西区,北幸２丁目１０番４８号,,14,103,2200004,,,,,,,2025-05-27,1,,,,,サン,0
1350,6020003028576,新規,0,2025-05-27,2025-05-27,合同会社包摂支援ふらっと,,合同会社,神奈川県,横浜市戸塚区,平戸５丁目９番１０－１０１,,14,110,2440802,,,,,,,2025-05-27,1,,,,,ホウセツシエンフラット,0
1354,6021001085295,新規,0,2025-05-27,2025-05-27,アイ・テレイン株式会社,,株式会社,神奈川県,秦野市,萩が丘２番１６号,,14,211,2591325,,,,,,,2025-05-27,1,,,,,アイテレイン,0
1355,6021001085312,新規,0,2025-05-27,2025-05-27,株式会社ジャスパーファーム,,株式会社,神奈川県,相模原市緑区,東橋本２丁目１２番９号,,14,151,2520144,,,,,,,2025-05-27,1,,,,,ジャスパーファーム,0
1356,6021001085353,新規,0,2025-05-27,2025-05-27,株式会社コタカエステート,,株式会社,神奈川県,横須賀市,吉井２丁目１７番７号,,14,201,2390804,,,,,,,2025-05-27,1,,,,,コタカエステート,0
1361,6021003016034,新規,0,2025-05-27,2025-05-27,合同会社ハムヨー,,合同会社,神奈川県,藤沢市,羽鳥１丁目４番５号～１０１号,,14,205,2510056,,,,,,,2025-05-27,1,,,,,ハムヨー,0
1371,6030001166724,新規,0,2025-05-27,2025-05-27,ケーテクネ株式会社,,株式会社,埼玉県,越谷市,蒲生茜町３１番地９ラ・カーザＩ３０５,00139308,11,222,3430843,,,,,,,2025-05-27,1,,,,,ケーテクネ,0
1372,6030001166749,新規,0,2025-05-27,2025-05-27,株式会社Ｍステージ,,株式会社,埼玉県,春日部市,南２丁目３番１８号,,11,214,3440064,,,,,,,2025-05-27,1,,,,,エムステージ,0
1390,6040001138813,新規,0,2025-05-27,2025-05-27,株式会社大徳,,株式会社,千葉県,市原市,荻作１３１１番地１１７,,12,219,2900177,,,,,,,2025-05-27,1,,,,,ダイトク,0
1391,6040001139019,新規,0,2025-05-27,2025-05-27,株式会社シルクス,,株式会社,千葉県,白井市,冨士１５１番地の２白井ロジュマン８２３号,,12,232,2701432,,,,,,,2025-05-27,1,,,,,シルクス,0
1393,6050001056717,新規,0,2025-05-27,2025-05-27,株式会社アドバンス,,株式会社,茨城県,古河市,中田新田１４７番地,,08,204,3060054,,,,,,,2025-05-27,1,,,,,アドバンス,0
1396,6060003005571,新規,0,2025-05-27,2025-05-27,合同会社ｎｕｒｓｅ　ＬＡＢ．,,合同会社,栃木県,鹿沼市,村井町２５１番地３,,09,205,3220048,,,,,,,2025-05-27,1,,,,,ナースラボ,0
1401,6070003005942,新規,0,2025-05-27,2025-05-27,合同会社絢恵,,合同会社,群馬県,太田市,東矢島町１１５７番地１１,,10,205,3730816,,,,,,,2025-05-27,1,,,,,,0
1403,6080003003425,新規,0,2025-05-27,2025-05-27,ｃｒｅｗ合同会社,,合同会社,静岡県,静岡市葵区,北安東２丁目２７－１３レオパレスパークタウン北斗２０３,,22,101,4200881,,,,,,,2025-05-27,1,,,,,クルー,0
1405,6080101025511,新規,0,2025-05-27,2025-05-27,株式会社長谷川電設,,株式会社,静岡県,富士市,吉原１丁目１０番８号,,22,210,4170051,,,,,,,2025-05-27,1,,,,,ハセガワデンセツ,0
1409,6080401027934,新規,0,2025-05-27,2025-05-27,株式会社Ｏｔｏｃｈｉ,,株式会社,静岡県,磐田市,草崎６７番地７,,22,211,4380067,,,,,,,2025-05-27,1,,,,,,0
1414,6090001019273,新規,0,2025-05-27,2025-05-27,株式会社Ｓｈｕｒｅｎ,,株式会社,山梨県,甲斐市,牛句１１６－４,,19,210,4000121,,,,,,,2025-05-27,1,,,,,シュレン,0
1431,6120001276068,新規,0,2025-05-27,2025-05-27,株式会社ＳＫＧ,,株式会社,大阪府,大阪市生野区,鶴橋２丁目２番８号,,27,116,5440031,,,,,,,2025-05-27,1,,,,,エスケイジイ,0
1432,6120001276134,新規,0,2025-05-27,2025-05-27,誠迦株式会社,,株式会社,大阪府,大阪市城東区,関目３丁目７番６－２０２号,,27,118,5360008,,,,,,,2025-05-27,1,,,,,セイカ,0
1433,6120001276142,新規,0,2025-05-27,2025-05-27,株式会社セルフコンセプト,,株式会社,大阪府,交野市,星田７丁目１４－５,,27,230,5760016,,,,,,,2025-05-27,1,,,,,セルフコンセプト,0
1434,6120001276159,新規,0,2025-05-27,2025-05-27,株式会社ｆｕｌｌ‐ｍａｎｏ,,株式会社,大阪府,大阪市平野区,背戸口５丁目６番２１－４０２号,,27,126,5470034,,,,,,,2025-05-27,1,,,,,フルマアノ,0
1435,6120001276167,新規,0,2025-05-27,2025-05-27,オリエンタルゴールド株式会社,,株式会社,大阪府,大阪市北区,梅田１丁目３－１大阪駅前第一ビル５階ＲＯＹＡＬ・ＯＦＦＩＣＥ内,,27,127,5300001,,,,,,,2025-05-27,1,,,,,オリエンタルゴールド,0
1436,6120001276175,新規,0,2025-05-27,2025-05-27,Ｓｕｍａｖｉｓｉｏｎ日本株式会社,,株式会社,大阪府,大阪市浪速区,稲荷２丁目３番２５号ベルヴィラージュ桜川３０３号室,,27,111,5560023,,,,,,,2025-05-27,1,,,,,スマビジョンニッポン,0
1437,6120001276183,新規,0,2025-05-27,2025-05-27,富明株式会社,,株式会社,大阪府,大阪市東住吉区,駒川４丁目１８番２１号,,27,121,5460043,,,,,,,2025-05-27,1,,,,,フクメイ,0
1438,6120001276191,新規,0,2025-05-27,2025-05-27,株式会社Ｃｏｎｆｉｄｅｎｃｅ,,株式会社,大阪府,大阪市阿倍野区,松崎町３丁目１３番４号,,27,119,5450053,,,,,,,2025-05-27,1,,,,,コンフィデンス,0
1439,6120001276200,新規,0,2025-05-27,2025-05-27,株式会社ビーオネスト,,株式会社,大阪府,枚方市,南船橋２丁目１１番４号,,27,210,5731123,,,,,,,2025-05-27,1,,,,,ビーオネスト,0
1440,6120001276225,新規,0,2025-05-27,2025-05-27,株式会社グラシアス,,株式会社,大阪府,大阪市中央区,瓦町２丁目３番３－２０２号,,27,128,5410048,,,,,,,2025-05-27,1,,,,,グラシアス,0
1441,6120001276282,新規,0,2025-05-27,2025-05-27,株式会社大勝,,株式会社,大阪府,大阪市住吉区,沢之町１丁目１番１３号,,27,120,5580031,,,,,,,2025-05-27,1,,,,,ダイショウ,0
1444,6120003029523,新規,0,2025-05-27,2025-05-27,ＴＡＥ合同会社,,合同会社,大阪府,大阪市港区,波除５丁目２－１１－５０１号,,27,107,5520001,,,,,,,2025-05-27,1,,,,,ティーエーイー,0
1445,6120003029556,新規,0,2025-05-27,2025-05-27,創和合同会社,,合同会社,大阪府,大阪市西成区,萩之茶屋１丁目１２番７号万葉ビル８号室,,27,122,5570004,,,,,,,2025-05-27,1,,,,,ソウワ,0
1446,6120003029580,新規,0,2025-05-27,2025-05-27,合同会社藍,,合同会社,大阪府,大阪市中央区,安土町２丁目４番１１－４５０１号,,27,128,5410052,,,,,,,2025-05-27,1,,,,,アイ,0
1454,6122001039248,新規,0,2025-05-27,2025-05-27,株式会社Ｙ＆Ｃｏ．,,株式会社,大阪府,東大阪市,長堂１丁目８番２８－１７０１号,,27,227,5770056,,,,,,,2025-05-27,1,,,,,ワイアンドコー,0
1455,6122003003210,新規,0,2025-05-27,2025-05-27,Ｓｔａｒ　Ｄｉｖｅ合同会社,,合同会社,大阪府,柏原市,玉手町２５番７０号,,27,221,5820028,,,,,,,2025-05-27,1,,,,,スターダイブ,0
1457,6130001079734,新規,0,2025-05-27,2025-05-27,テンフィールズブルーイング株式会社,,株式会社,京都府,相楽郡精華町,光台１丁目７けいはんなプラザ９階,,26,366,6190237,,,,,,,2025-05-27,1,,,,,テンフィールズブルーイング,0
1458,6130001079759,新規,0,2025-05-27,2025-05-27,株式会社森電機,,株式会社,京都府,京都市伏見区,淀際目町４１８番地３,,26,109,6130915,,,,,,,2025-05-27,1,,,,,モリデンキ,0
1464,6140003021973,新規,0,2025-05-27,2025-05-27,合同会社クラルス,,合同会社,兵庫県,西脇市,西脇９７５－５４,,28,213,6770015,,,,,,,2025-05-27,1,,,,,クラルス,0
1466,6150001028144,新規,0,2025-05-27,2025-05-27,吉野川紀の川水力株式会社,,株式会社,奈良県,橿原市,内膳町３丁目８の５ＢｉｚＷｏｒｋ２０２,,29,205,6340804,,,,,,,2025-05-27,1,,,,,ヨシノガワキノカワスイリョク,0
1468,6160001026790,新規,0,2025-05-27,2025-05-27,近江ミート株式会社,,株式会社,滋賀県,米原市,本郷１４３番地２,,25,214,5210212,,,,,,,2025-05-27,1,,,,,オウミミート,0
1470,6170001018639,新規,0,2025-05-27,2025-05-27,株式会社日新開発,,株式会社,和歌山県,田辺市,あけぼの３９番３号,,30,206,6460021,,,,,,,2025-05-27,1,,,,,ニッシンカイハツ,0
1477,6180001166957,新規,0,2025-05-27,2025-05-27,株式会社ＳＰＯＴＳ,,株式会社,愛知県,名古屋市中区,栄５丁目２６番３９号ＧＳ栄ビル３Ｆ,,23,106,4600008,,,,,,,2025-05-27,1,,,,,スポッツ,0
1478,6180001166981,新規,0,2025-05-27,2025-05-27,株式会社ＧＯＬＤＷＡＹ,,株式会社,愛知県,名古屋市東区,徳川町２５０２番地,,23,102,4610023,,,,,,,2025-05-27,1,,,,,ゴールドウェイ,0
1479,6180001167006,新規,0,2025-05-27,2025-05-27,株式会社Ｌｉｌｙｓｈ,,株式会社,愛知県,一宮市,今伊勢町本神戸字高野池３番地２,,23,203,4910053,,,,,,,2025-05-27,1,,,,,リリッシュ,0
1480,6180301039838,新規,0,2025-05-27,2025-05-27,株式会社Ｔａｓｏｕ,,株式会社,愛知県,豊橋市,西小田原町１３Ｒｏｏｔｓ７ｖｉｌｌａｇｅ内４,,23,201,4400887,,,,,,,2025-05-27,1,,,,,タソウ,0
1484,6210001020177,新規,0,2025-05-27,2025-05-27,Ｓｏｗｋｉｔａ株式会社,,株式会社,福井県,越前市,新保２丁目５番１８号,,18,209,9150804,,,,,,,2025-05-27,1,,,,,ソウキタ,0
1486,6230001020919,新規,0,2025-05-27,2025-05-27,株式会社陸永,,株式会社,富山県,砺波市,深江１１２３番地１５,,16,208,9391331,,,,,,,2025-05-27,1,,,,,リクエイ,0
1488,6230005009479,新規,0,2025-05-27,2025-05-27,一般社団法人メディゲート,,その他の設立登記法人,富山県,滑川市,堀江１８２番地１,,16,206,9360846,,,,,,,2025-05-27,1,,,,,メディゲート,0
1489,6240001064972,新規,0,2025-05-27,2025-05-27,株式会社山根建築,,株式会社,広島県,福山市,神村町９５８番地,,34,207,7290112,,,,,,,2025-05-27,1,,,,,ヤマネケンチク,0
1490,6240001064980,新規,0,2025-05-27,2025-05-27,株式会社ＳＧＴ,,株式会社,広島県,福山市,赤坂町大字赤坂２０４０番地,,34,207,7200843,,,,,,,2025-05-27,1,,,,,エスジーティー,0
1491,6240001064989,新規,0,2025-05-27,2025-05-27,株式会社実里果,,株式会社,広島県,東広島市,河内町宇山１５６５番地１,,34,212,7392206,,,,,,,2025-05-27,1,,,,,ミリカ,0
1495,6250001021163,新規,0,2025-05-27,2025-05-27,株式会社ＲＩＲＡＴＥ,,株式会社,山口県,岩国市,玖珂町６２８３番地５,,35,208,7420344,,,,,,,2025-05-27,1,,,,,リレイト,0
1500,6290001110094,新規,0,2025-05-27,2025-05-27,松崎商事株式会社,,株式会社,福岡県,福岡市東区,多の津１丁目１０番１号４階,,40,131,8130034,,,,,,,2025-05-27,1,,,,,マツザキショウジ,0
1501,6290001110144,新規,0,2025-05-27,2025-05-27,アポロン・コネクト株式会社,,株式会社,福岡県,福岡市中央区,天神２丁目１１－１福岡ＰＡＲＣＯ新館５階ＴｈｅＣｏｍｐａｎｙ福岡ＰＡＲＣＯ,,40,133,8100001,,,,,,,2025-05-27,1,,,,,アポロンコネクト,0
1502,6290001110152,新規,0,2025-05-27,2025-05-27,株式会社瑞穂テクノ,,株式会社,福岡県,糟屋郡粕屋町,戸原東３丁目４番１２号,,40,349,8112318,,,,,,,2025-05-27,1,,,,,ミズホテクノ,0
1505,6290003016884,新規,0,2025-05-27,2025-05-27,合同会社Ｌｕｍｉｎｏｕｓ,,合同会社,福岡県,福岡市博多区,山王１丁目１４番３４－３０２号,,40,132,8120015,,,,,,,2025-05-27,1,,,,,ルミナス,0
1507,6290801031564,新規,0,2025-05-27,2025-05-27,株式会社Ｇｒａｃｈｉ,,株式会社,福岡県,北九州市八幡西区,竹末２丁目３番２０－４０２号,,40,109,8060045,,,,,,,2025-05-27,1,,,,,グラッチ,0
1509,6290803005062,新規,0,2025-05-27,2025-05-27,合同会社ＯＫ,,合同会社,福岡県,直方市,大字下新入２９０２番地,,40,204,8220032,,,,,,,2025-05-27,1,,,,,オーケイ,0
1516,6330001033225,新規,0,2025-05-27,2025-05-27,株式会社ＮＯＤＥ　ＣＲＥＡＴＩＯＮ,,株式会社,熊本県,熊本市南区,幸田２丁目１０番８９－３号,,43,104,8614108,,,,,,,2025-05-27,1,,,,,ノードクリエイション,0
1517,6340001027366,新規,0,2025-05-27,2025-05-27,株式会社輝,,株式会社,鹿児島県,垂水市,浜平５４８番地１,,46,214,8912115,,,,,,,2025-05-27,1,,,,,カガヤキ,0
1520,6350003004940,新規,0,2025-05-27,2025-05-27,上村林産業合同会社,,合同会社,宮崎県,宮崎市,高岡町内山３６１２番地,,45,201,8802321,,,,,,,2025-05-27,1,,,,,カミムラリンサンギョウ,0
1530,6410001014159,新規,0,2025-05-27,2025-05-27,Ｋ‐ｅテック株式会社,,株式会社,秋田県,能代市,字松長布３２番地４６,,05,202,0160161,,,,,,,2025-05-27,1,,,,,ケーイーテック,0
1537,6430003017703,新規,0,2025-05-27,2025-05-27,合同会社ＰＴキャピタルプロパティーズ,,合同会社,北海道,札幌市中央区,南十二条西１７丁目３番１２号,,01,101,0640912,,,,,,,2025-05-27,1,,,,,ピーティーキャピタルプロパティーズ,0
1543,6470001020721,新規,0,2025-05-27,2025-05-27,ＳＫＹテクノス株式会社,,株式会社,香川県,観音寺市,村黒町３２６番地,,37,205,7680013,,,,,,,2025-05-27,1,,,,,スカイテクノス,0
1546,6470005006626,新規,0,2025-05-27,2025-05-27,一般社団法人観音寺市観光協会,,その他の設立登記法人,香川県,観音寺市,有明町３番３７号,,37,205,7680062,,,,,,,2025-05-27,1,,,,,カンオンジシカンコウキョウカイ,0
1548,6480001012841,新規,0,2025-05-27,2025-05-27,株式会社ＫＮプラン,,株式会社,徳島県,板野郡藍住町,東中富字長江傍示７８番地１,,36,403,7711221,,,,,,,2025-05-27,1,,,,,ケイエヌプラン,0
1550,6490003002022,新規,0,2025-05-27,2025-05-27,合同会社きみのたねこうぼう,,合同会社,高知県,高知市,新本町２丁目４－３,,39,201,7800062,,,,,,,2025-05-27,1,,,,,キミノタネコウボウ,0
1552,6500001026310,新規,0,2025-05-27,2025-05-27,株式会社ｓｍｉｒｅ,,株式会社,愛媛県,松山市,南白水２丁目６番地１２,,38,201,7910114,,,,,,,2025-05-27,1,,,,,スマイア,0
1553,6700150130735,新規,0,2025-05-27,2025-05-27,Ｊｉａｎｇｓｕ　Ｓｈｏｕｊｕｎ　Ｔｒａｄｉｎｇ　Ｃｏ．ＬＴＤ,,外国会社等,,,,,,,,ＮａｎｔｏｎｇｓｈｉＣｈｕａｎｊｉａｎｇｚｈｅｎｚｈｉｈａｏｇｏｎｇｙｅｙｕａｎｑｕｊｉｎｇｐｉｎｑｕ,,,,,,2025-05-27,1,,,,,ジャンスーショウジンマオイーヨウシエンゴンスー,0
1554,6700150130743,新規,0,2025-05-27,2025-05-27,ＭＧＣ　Ｔｒａｄｉｎｇ　Ｉｎｄｉａ　Ｐｒｉｖａｔｅ　Ｌｉｍｉｔｅｄ,,外国会社等,,,,,,,,Ａ－５０２，Ｍｉｔｔａｌ　Ｃｏｍｍｅｒｃｉａ，Ｏｆｆ　Ｍ．Ｖ　Ｒｏａｄ，Ｍａｒｏｌ　Ｎａｋａ，Ｍｕｍｂａｉ，Ｍｕｍｂａｉ－４０００５９，Ｍａｈａｒａｓｈｔｒａ，Ｉｎｄｉａ,,,,,,2025-05-27,1,,,,,エムジーシートレーデイングインデイアプライベートリミテツド,0
1562,7010001255354,新規,0,2025-05-27,2025-05-27,株式会社Ａｌｉｇｎ　Ｒ,,株式会社,東京都,千代田区,富士見１丁目３番１１号４階,,13,101,1020071,,,,,,,2025-05-27,1,,,,,アラインアール,0
1563,7010001255404,新規,0,2025-05-27,2025-05-27,株式会社有薫,,株式会社,東京都,千代田区,鍛冶町１丁目６番１７号,,13,101,1010044,,,,,,,2025-05-27,1,,,,,ユウクン,0
1566,7010005040075,新規,0,2025-05-27,2025-05-27,ＳＳＷ０１中木戸一般社団法人,,その他の設立登記法人,東京都,千代田区,五番町６番地２ＯＡＧ税理士法人内,,13,101,1020076,,,,,,,2025-05-27,1,,,,,エスエスダブリューゼロワンナカキド,0
1567,7010005040083,新規,0,2025-05-27,2025-05-27,一般財団法人球心会,,その他の設立登記法人,東京都,千代田区,内幸町２丁目２番１号,,13,101,1000011,,,,,,,2025-05-27,1,,,,,キュウシンカイ,0
1569,7010101016697,新規,0,2025-05-27,2025-05-27,株式会社克鷹,,株式会社,東京都,八王子市,みなみ野５丁目３０番１２６号,,13,201,1920916,,,,,,,2025-05-27,1,,,,,カツタカ,0
1573,7010401190416,新規,0,2025-05-27,2025-05-27,Ａｄｄ株式会社,,株式会社,東京都,港区,北青山１丁目３－１アールキューブ青山３Ｆ,,13,103,1070061,,,,,,,2025-05-27,1,,,,,アド,0
1574,7010401190449,新規,0,2025-05-27,2025-05-27,ＬＢ　ＡＩジャパン株式会社,,株式会社,東京都,港区,芝大門２丁目２－１ＡＣＮ芝大門ビルデイング６階,,13,103,1050012,,,,,,,2025-05-27,1,,,,,エルビーエーアイ,0
1575,7010401190580,新規,0,2025-05-27,2025-05-27,萬泰物流サプライチェーン株式会社,,株式会社,東京都,港区,高輪４丁目２３番６号,,13,103,1080074,,,,,,,2025-05-27,1,,,,,バンタイブツリュウサプライチェーン,0
1576,7010403035189,新規,0,2025-05-27,2025-05-27,合同会社ＳＹＷｏｒｋｓ,,合同会社,東京都,港区,六本木４丁目１番２６号六本木Ｋビル３階,,13,103,1060032,,,,,,,2025-05-27,1,,,,,エスワイワークス,0
1577,7010403035206,新規,0,2025-05-27,2025-05-27,Ｐａｃｉｆｉｃ　Ｂａｙｓ　Ｃａｐｉｔａｌ　Ｊａｐａｎ　Ｐｅｔｒｏｌｅｕｍ１号４合同会社,,合同会社,東京都,港区,東麻布１丁目４番２－８０３号,,13,103,1060044,,,,,,,2025-05-27,1,,,,,パシフィックベイズキャピタルジャパンペトロリウムイチゴウヨン,0
1582,7010501054124,新規,0,2025-05-27,2025-05-27,博一運動用品株式会社,,株式会社,東京都,台東区,台東２丁目２７番３号ＮＳＫビル１０Ｆ,,13,106,1100016,,,,,,,2025-05-27,1,,,,,ハクイチウンドウヨウヒン,0
1586,7010703007730,新規,0,2025-05-27,2025-05-27,合同会社Ｔｅ　Ａｒａｒｏａ,,合同会社,東京都,品川区,荏原７丁目６－２２ＭＩＴＡハウス１０１,,13,109,1420063,,,,,,,2025-05-27,1,,,,,テアラロア,0
1591,7010903009948,新規,0,2025-05-27,2025-05-27,クローバー合同会社,,合同会社,東京都,世田谷区,瀬田２丁目２６番７号,,13,112,1580095,,,,,,,2025-05-27,1,,,,,クローバー,0
1594,7011001169585,新規,0,2025-05-27,2025-05-27,株式会社Ｎｅｘｔ　Ｓｏｌｕｔｉｏｎｓ,,株式会社,東京都,渋谷区,神南１丁目１１番４号ＦＰＧリンクス神南５階,,13,113,1500041,,,,,,,2025-05-27,1,,,,,ネクストソリューションズ,0
1595,7011001169610,新規,0,2025-05-27,2025-05-27,株式会社Ａｒｕｔｅ,,株式会社,東京都,渋谷区,神南１丁目１１－４ＦＰＧリンクス神南５階,,13,113,1500041,,,,,,,2025-05-27,1,,,,,アルテ,0
1596,7011001169718,新規,0,2025-05-27,2025-05-27,株式会社ＳＨＡ,,株式会社,東京都,目黒区,大岡山１丁目２２番２１号,,13,110,1520033,,,,,,,2025-05-27,1,,,,,エスエイチエー,0
1597,7011001169742,新規,0,2025-05-27,2025-05-27,株式会社ＴａｎｇｒａｍＰｒｏｍｏｔｉｏｎ,,株式会社,東京都,渋谷区,代々木１丁目２番９号,,13,113,1510053,,,,,,,2025-05-27,1,,,,,タングラムプロモーション,0
1598,7011001169833,新規,0,2025-05-27,2025-05-27,株式会社初心不動産,,株式会社,東京都,渋谷区,本町２丁目１２－１ディアコート初台,,13,113,1510071,,,,,,,2025-05-27,1,,,,,ショシンフドウサン,0
1599,7011001170080,新規,0,2025-05-27,2025-05-27,株式会社マキマスターズ,,株式会社,東京都,渋谷区,神宮前４丁目１１番１１号,,13,113,1500001,,,,,,,2025-05-27,1,,,,,マキマスターズ,0
1600,7011003021678,新規,0,2025-05-27,2025-05-27,合同会社Ｈｉｍｅ　ｇｉｒｌ,,合同会社,東京都,渋谷区,笹塚２丁目３１－１かもめ荘１０３,,13,113,1510073,,,,,,,2025-05-27,1,,,,,ヒメガール,0
1601,7011003021752,新規,0,2025-05-27,2025-05-27,合同会社デルタ,,合同会社,東京都,目黒区,八雲３丁目３２番９号,,13,110,1520023,,,,,,,2025-05-27,1,,,,,デルタ,0
1602,7011003021769,新規,0,2025-05-27,2025-05-27,Ｃ．Ｉ．Ｒ．Ｃ．Ｌ．合同会社,,合同会社,東京都,渋谷区,代々木４丁目２５番１１－３０１号,,13,113,1510053,,,,,,,2025-05-27,1,,,,,サークル,0
1608,7011103015976,新規,0,2025-05-27,2025-05-27,ＡＡＭＣ合同会社,,合同会社,東京都,新宿区,西新宿３丁目３番１３号西新宿水間ビル６階,,13,104,1600023,,,,,,,2025-05-27,1,,,,,エーエーエムシー,0
1621,7011601028686,新規,0,2025-05-27,2025-05-27,株式会社富士見台不動産,,株式会社,東京都,練馬区,富士見台３丁目２７番９号,,13,120,1770034,,,,,,,2025-05-27,1,,,,,フジミダイフドウサン,0
1625,7011801046190,新規,0,2025-05-27,2025-05-27,株式会社桜サービス,,株式会社,東京都,葛飾区,奥戸５丁目２４番１４号,,13,122,1240022,,,,,,,2025-05-27,1,,,,,サクラサービス,0
1629,7012403007151,新規,0,2025-05-27,2025-05-27,エディンバラナチュラルスキンケアジャパン合同会社,,合同会社,東京都,府中市,府中町２丁目１番地の１プレミスト府中１２０６,,13,206,1830055,,,,,,,2025-05-27,1,,,,,エディンバラナチュラルスキンケアジャパン,0
1630,7012701018890,新規,0,2025-05-27,2025-05-27,ＧＯＦＵ株式会社,,株式会社,東京都,東久留米市,下里５丁目１５番３０号,,13,222,2030043,,,,,,,2025-05-27,1,,,,,ゴフ,0
1632,7012801023989,新規,0,2025-05-27,2025-05-27,株式会社あさひヘルスケア,,株式会社,東京都,日野市,多摩平２丁目５番地の１ＰｌａｎＴ,,13,212,1910062,,,,,,,2025-05-27,1,,,,,アサヒヘルスケア,0
1640,7020001163044,新規,0,2025-05-27,2025-05-27,Ｌｒ株式会社,,株式会社,神奈川県,川崎市高津区,溝口１丁目１２番５号,,14,134,2130001,,,,,,,2025-05-27,1,,,,,エルアール,0
1641,7020001163060,新規,0,2025-05-27,2025-05-27,株式会社コーショウ設備,,株式会社,神奈川県,横浜市瀬谷区,三ツ境５番地１４ラフィネエスパース６０１号,,14,114,2460022,,,,,,,2025-05-27,1,,,,,コーショウセツビ,0
1644,7021001085360,新規,0,2025-05-27,2025-05-27,株式会社ダンディ・トルバドール,,株式会社,神奈川県,足柄下郡箱根町,宮城野１３４５－６ハイドレンジア箱根３０７,,14,382,2500401,,,,,,,2025-05-27,1,,,,,ダンディトルバドール,0
1645,7021003016041,新規,0,2025-05-27,2025-05-27,ＹＧトラスト合同会社,,合同会社,神奈川県,相模原市中央区,小山２丁目１０番４－２号,,14,152,2520205,,,,,,,2025-05-27,1,,,,,ワイジートラスト,0
1657,7030003026850,新規,0,2025-05-27,2025-05-27,合同会社エレメント,,合同会社,埼玉県,所沢市,星の宮２丁目５番１４号ベルツリー２０３,,11,208,3591127,,,,,,,2025-05-27,1,,,,,エレメント,0
1662,7040001138770,新規,0,2025-05-27,2025-05-27,株式会社あじみ,,株式会社,千葉県,佐倉市,先崎９９２―１,,12,212,2850851,,,,,,,2025-05-27,1,,,,,アジミ,0
1666,7050001056716,新規,0,2025-05-27,2025-05-27,株式会社ＧｌｏｗＬｉｎｋ,,株式会社,茨城県,つくば市,西大井１６４８番地１,,08,220,3001260,,,,,,,2025-05-27,1,,,,,グロウリンク,0
1667,7050003009300,新規,0,2025-05-27,2025-05-27,Ｍ＆Ａ　ＮＯＬＵＲ合同会社,,合同会社,茨城県,稲敷市,浮島字前浦６９７７－５９－６号室,,08,229,3000641,,,,,,,2025-05-27,1,,,,,エムアンドエーノルル,0
1669,7060001038242,新規,0,2025-05-27,2025-05-27,株式会社なみさとねっと,,株式会社,栃木県,佐野市,村上町９０３番地,,09,204,3270046,,,,,,,2025-05-27,1,,,,,ナミサトネット,0
1670,7060005010346,新規,0,2025-05-27,2025-05-27,一般社団法人豊耀,,その他の設立登記法人,栃木県,宇都宮市,東簗瀬１丁目７番地８,,09,201,3210925,,,,,,,2025-05-27,1,,,,,ホウヨウ,0
1672,7070005010394,新規,0,2025-05-27,2025-05-27,特定非営利活動法人群馬イスラム文化センター,,その他の設立登記法人,群馬県,館林市,北成島町２７６３番地の７,,10,207,3740057,,,,,,,2025-05-27,1,,,,,グンマイスラムブンカセンター,0
1673,7080001026955,新規,0,2025-05-27,2025-05-27,株式会社ｅｎｏａ,,株式会社,静岡県,島田市,河原２丁目３番１３号,,22,209,4270037,,,,,,,2025-05-27,1,,,,,エノア,0
1674,7080103003332,新規,0,2025-05-27,2025-05-27,ハレノマ不動産合同会社,,合同会社,静岡県,熱海市,網代６２７－７２８,,22,205,4130103,,,,,,,2025-05-27,1,,,,,ハレノマフドウサン,0
1676,7080401027925,新規,0,2025-05-27,2025-05-27,株式会社スタートライク,,株式会社,静岡県,浜松市浜名区,細江町気賀７３４０番地の５,,22,139,4311305,,,,,,,2025-05-27,1,,,,,スタートライク,0
1677,7080401027933,新規,0,2025-05-27,2025-05-27,株式会社虹心,,株式会社,静岡県,浜松市浜名区,染地台４丁目１番３０号,,22,139,4340046,,,,,,,2025-05-27,1,,,,,ニコ,0
1682,7100005013360,新規,0,2025-05-27,2025-05-27,特定非営利活動法人いくとう山の暮らし研究所,,その他の設立登記法人,長野県,下伊那郡松川町,生田４７３５番地,,20,402,3993302,,,,,,,2025-05-27,1,,,,,イクトウヤマノクラシケンキュウジョ,0
1684,7110003005771,新規,0,2025-05-27,2025-05-27,ワンズ合同会社,,合同会社,新潟県,妙高市,大字樽本１１０１－１１,,15,217,9492223,,,,,,,2025-05-27,1,,,,,ワンズ,0
1695,7120001276050,新規,0,2025-05-27,2025-05-27,エリート株式会社,,株式会社,大阪府,大阪市東住吉区,鷹合４丁目２１番１６号１Ｆ－Ｃ,,27,121,5460014,,,,,,,2025-05-27,1,,,,,エリート,0
1696,7120001276174,新規,0,2025-05-27,2025-05-27,株式会社大山国際,,株式会社,大阪府,大阪市住吉区,長居２丁目１０番３－１０５号,,27,120,5580003,,,,,,,2025-05-27,1,,,,,オオヤマコクサイ,0
1697,7120001276182,新規,0,2025-05-27,2025-05-27,株式会社ホープ・ラボ,,株式会社,大阪府,大阪市西区,西本町１丁目２番４号,,27,106,5500005,,,,,,,2025-05-27,1,,,,,ホープラボ,0
1698,7120003028895,新規,0,2025-05-27,2025-05-27,オーバー・ザ・ムーン合同会社,,合同会社,大阪府,大阪市中央区,内本町２丁目２－２－５０２,,27,128,5400026,,,,,,,2025-05-27,1,,,,,オーバーザムーン,0
1699,7120003029555,新規,0,2025-05-27,2025-05-27,錦汐国際合同会社,,合同会社,大阪府,大阪市港区,弁天３丁目１０番２０号港ＯＧＩビル５号室,,27,107,5520007,,,,,,,2025-05-27,1,,,,,キンセキコクサイ,0
1700,7120003029563,新規,0,2025-05-27,2025-05-27,清一合同会社,,合同会社,大阪府,大阪市北区,長柄中２丁目５番３０号,,27,127,5310062,,,,,,,2025-05-27,1,,,,,セイイチ,0
1708,7120103006470,新規,0,2025-05-27,2025-05-27,合同会社Ｉ．Ｖ．,,合同会社,大阪府,大阪狭山市,東野西１丁目９３８番地の１ＭａｉｓｏｎＷｅｓｔＷｅｌｌ２０２号室,,27,231,5890001,,,,,,,2025-05-27,1,,,,,アイヴィー,0
1720,7140003022104,新規,0,2025-05-27,2025-05-27,紅日合同会社,,合同会社,兵庫県,丹波市,市島町中竹田３９３番地１,,28,223,6694302,,,,,,,2025-05-27,1,,,,,コウジツ,0
1721,7140005027522,新規,0,2025-05-27,2025-05-27,一般社団法人小規模保険外サービス事業者団体,,その他の設立登記法人,兵庫県,神戸市東灘区,甲南町４丁目１６番１１号５０１号,,28,101,6580084,,,,,,,2025-05-27,1,,,,,ショウキボホケンガイサービスジギョウシャダンタイ,0
1726,7150001028151,新規,0,2025-05-27,2025-05-27,株式会社ＫＯＶＡ,,株式会社,奈良県,大和郡山市,小泉町２８６７番地６,,29,203,6391042,,,,,,,2025-05-27,1,,,,,コヴァ,0
1727,7170001018638,新規,0,2025-05-27,2025-05-27,株式会社ユカワ建鉄,,株式会社,和歌山県,田辺市,稲成町４１８番地１０,,30,206,6460051,,,,,,,2025-05-27,1,,,,,ユカワケンテツ,0
1734,7180001166956,新規,0,2025-05-27,2025-05-27,株式会社佑謙,,株式会社,愛知県,愛知郡東郷町,大字春木字下正葉廻間４３３７番地７１,,23,302,4700162,,,,,,,2025-05-27,1,,,,,ユウケン,0
1735,7180001166964,新規,0,2025-05-27,2025-05-27,株式会社ミニミニクリエイト,,株式会社,愛知県,名古屋市千種区,仲田２丁目１３番３号,,23,101,4640074,,,,,,,2025-05-27,1,,,,,ミニミニクリエイト,0
1736,7180001166980,新規,0,2025-05-27,2025-05-27,株式会社ＮＥＥＬＵ,,株式会社,愛知県,名古屋市西区,則武新町１丁目３番３号,,23,104,4510051,,,,,,,2025-05-27,1,,,,,ニール,0
1738,7180003028527,新規,0,2025-05-27,2025-05-27,合同会社エノア,,合同会社,愛知県,稲沢市,中之庄町高上１番地２２,,23,220,4928435,,,,,,,2025-05-27,1,,,,,エノア,0
1741,7190001032249,新規,0,2025-05-27,2025-05-27,まるく株式会社,,株式会社,三重県,鈴鹿市,長太栄町５丁目３番地３,,24,207,5130043,,,,,,,2025-05-27,1,,,,,マルク,0
1742,7190003005054,新規,0,2025-05-27,2025-05-27,合同会社ＳＴＹＬＥ,,合同会社,三重県,四日市市,大字日永５４５０番地１８３,,24,202,5100885,,,,,,,2025-05-27,1,,,,,スタイル,0
1744,7200001043814,新規,0,2025-05-27,2025-05-27,株式会社ｂｅｌｌｅ,,株式会社,岐阜県,岐阜市,金町６丁目２１岐阜ステーションビル３０４,,21,201,5008842,,,,,,,2025-05-27,1,,,,,ベル,0
1745,7200001043822,新規,0,2025-05-27,2025-05-27,株式会社アド・ベストプランナー,,株式会社,岐阜県,大垣市,福田町６９２番地２,,21,202,5030033,,,,,,,2025-05-27,1,,,,,アドベストプランナー,0
1757,7240001064971,新規,0,2025-05-27,2025-05-27,株式会社浜野建設,,株式会社,広島県,呉市,焼山本庄２丁目７番１３号,,34,202,7370912,,,,,,,2025-05-27,1,,,,,ハマノケンセツ,0
1758,7240001064996,新規,0,2025-05-27,2025-05-27,株式会社ＧＬノルディック広島,,株式会社,広島県,広島市西区,南観音７丁目１６番１０号,,34,104,7330035,,,,,,,2025-05-27,1,,,,,ジーエルノルディックヒロシマ,0
1763,7240005015946,新規,0,2025-05-27,2025-05-27,一般社団法人咲く未来,,その他の設立登記法人,広島県,広島市東区,中山南１丁目１７番５－３０４号,,34,102,7320024,,,,,,,2025-05-27,1,,,,,サクミライ,0
1764,7250001021162,新規,0,2025-05-27,2025-05-27,株式会社ＥＭＯ,,株式会社,山口県,宇部市,大字山中６１番１号,,35,202,7590132,,,,,,,2025-05-27,1,,,,,イーエムオー,0
1775,7290001110085,新規,0,2025-05-27,2025-05-27,株式会社ファステ,,株式会社,福岡県,福岡市中央区,天神４丁目６番２８号いちご天神ノースビル７階,,40,133,8100001,,,,,,,2025-05-27,1,,,,,ファステ,0
1776,7290001110119,新規,0,2025-05-27,2025-05-27,株式会社吾香里,,株式会社,福岡県,福岡市博多区,相生町１丁目２番８－１２０２号,,40,132,8120885,,,,,,,2025-05-27,1,,,,,アカリ,0
1791,7360002010178,新規,0,2025-05-27,2025-05-27,有限会社桃原土建,,有限会社,沖縄県,島尻郡久米島町,字比嘉２２３番地の１,,47,361,9013108,,,,,,,2025-05-27,1,,,,,トウバルドケン,0
1804,7390003002394,新規,0,2025-05-27,2025-05-27,合同会社ヒカリデータサイエンス,,合同会社,山形県,上山市,朝日台１丁目１０番１８号,,06,207,9993164,,,,,,,2025-05-27,1,,,,,ヒカリデータサイエンス,0
1814,7430003017693,新規,0,2025-05-27,2025-05-27,合同会社ＫＹＨ,,合同会社,北海道,札幌市南区,南沢二条４丁目３番２０号,,01,106,0050822,,,,,,,2025-05-27,1,,,,,ケーワイエイチ,0
1816,7440001009618,新規,0,2025-05-27,2025-05-27,株式会社ＢＬＡＺＥ,,株式会社,北海道,函館市,湯川町２丁目４３－４,,01,202,0420932,,,,,,,2025-05-27,1,,,,,ブレイズ,0
1817,7450001014633,新規,0,2025-05-27,2025-05-27,株式会社山田塗装,,株式会社,北海道,旭川市,忠和四条１丁目１番２０号,,01,204,0708044,,,,,,,2025-05-27,1,,,,,ヤマダトソウ,0
1822,7700150130734,新規,0,2025-05-27,2025-05-27,ｓｈｅｎｚｈｅｎｓｈｉｚｈｕｏｊｉｎｇｃｈｅｎｇｙｕｅｋｅｊｉｙｏｕｘｉａｎｇｏｎｇｓｉ,,外国会社等,,,,,,,,ｎａｎｓｈａｎｑｕｘｉｌｉｊｉｅｄａｏｓｏｎｇｐｉｎｇｓｈａｎｓｈｅｑｕｓｏｎｇｐｉｎｇｓｈａｎｌｕ５ｈａｏ　ｊｉａｄａｙａｎｆａｄａｌｏｕＡｚｕｏ５１９,,,,,,2025-05-27,1,,,,,シェンジェンシージュオジンチョンユエコージーヨウシエンゴンスー,0
1828,8010001255254,新規,0,2025-05-27,2025-05-27,株式会社イズミ防災,,株式会社,東京都,千代田区,岩本町２丁目６番１０号,,13,101,1010032,,,,,,,2025-05-27,1,,,,,イズミボウサイ,0
1829,8010001255329,新規,0,2025-05-27,2025-05-27,ＭＩＮＨＡＴ　ＡＬＢＩＮＡ　ＭＡＮＡＧＥＭＥＮＴ株式会社,,株式会社,東京都,千代田区,神田佐久間町３丁目２８星野ビル４Ｆ５号室,,13,101,1010025,,,,,,,2025-05-27,1,,,,,ミンハットアルビナマネジメント,0
1839,8010403035205,新規,0,2025-05-27,2025-05-27,Ｐａｃｉｆｉｃ　Ｂａｙｓ　Ｃａｐｉｔａｌ　Ｊａｐａｎ　Ｐｅｔｒｏｌｅｕｍ１号３合同会社,,合同会社,東京都,港区,東麻布１丁目４番２－８０３号,,13,103,1060044,,,,,,,2025-05-27,1,,,,,パシフィックベイズキャピタルジャパンペトロリウムイチゴウサン,0
1840,8010503007855,新規,0,2025-05-27,2025-05-27,Ｑｍｉ合同会社,,合同会社,東京都,台東区,台東３丁目５番１０号－１０２－Ｆダイアパレス御徒町第３,,13,106,1100016,,,,,,,2025-05-27,1,,,,,キューミ,0
1841,8010503007863,新規,0,2025-05-27,2025-05-27,合同会社ＡＤＳ,,合同会社,東京都,台東区,台東２丁目２５番２号ＡＩＲ秋葉原１０１,,13,106,1100016,,,,,,,2025-05-27,1,,,,,エーディーエス,0
1843,8010601067363,新規,0,2025-05-27,2025-05-27,株式会社彩コネクト,,株式会社,東京都,江東区,海辺１５番５号ＢＩＺｃｉｒｃｌｅ錦糸町住吉オフィス２０４号室,,13,108,1350012,,,,,,,2025-05-27,1,,,,,イロドリコネクト,0
1854,8011001169428,新規,0,2025-05-27,2025-05-27,株式会社ライトスピード,,株式会社,東京都,渋谷区,神宮前１丁目２１－２ＨＯＵＳＥＯＦＫＵＺＥ２０２号室,,13,113,1500001,,,,,,,2025-05-27,1,,,,,ライトスピード,0
1855,8011001169650,新規,0,2025-05-27,2025-05-27,株式会社藤森,,株式会社,東京都,渋谷区,神南１丁目１１番４号ＦＰＧリンクス神南５階,,13,113,1500041,,,,,,,2025-05-27,1,,,,,フジモリ,0
1856,8011001170030,新規,0,2025-05-27,2025-05-27,株式会社ビノクルインサイトディスカバリーズ,,株式会社,東京都,目黒区,下目黒１丁目１番１４号コノトラビル７Ｆ,,13,110,1530064,,,,,,,2025-05-27,1,,,,,ビノクルインサイトディスカバリーズ,0
1857,8011001170063,新規,0,2025-05-27,2025-05-27,株式会社ＳＭＡＲＣ,,株式会社,東京都,渋谷区,神南１丁目１１－４ＦＰＧリンクス神南５階,,13,113,1500041,,,,,,,2025-05-27,1,,,,,スマーク,0
1858,8011001170071,新規,0,2025-05-27,2025-05-27,リコメンドＳａａＳ株式会社,,株式会社,東京都,渋谷区,円山町５番５号Ｎａｖｉ渋谷Ｖ３階,,13,113,1500044,,,,,,,2025-05-27,1,,,,,リコメンドサース,0
1859,8011001170162,新規,0,2025-05-27,2025-05-27,株式会社ｉｎｅｅ,,株式会社,東京都,渋谷区,道玄坂１丁目１６‐６二葉ビル８ｂ,,13,113,1500043,,,,,,,2025-05-27,1,,,,,イネー,0
1863,8011101111818,新規,0,2025-05-27,2025-05-27,スターマイン株式会社,,株式会社,東京都,新宿区,西新宿１丁目２６番２号新宿野村ビル３２階,,13,104,1600023,,,,,,,2025-05-27,1,,,,,スターマイン,0
1865,8011201026379,新規,0,2025-05-27,2025-05-27,株式会社オーシャン調剤,,株式会社,東京都,中野区,野方５丁目２１番８号,,13,114,1650027,,,,,,,2025-05-27,1,,,,,オーシャンチョウザイ,0
1872,8011501032119,新規,0,2025-05-27,2025-05-27,株式会社Ｍ＆Ｎ　ＬＡＶＥＮＤＥＲ,,株式会社,東京都,荒川区,東日暮里５丁目４７番１１－７０５号ハイライフ日暮里,,13,118,1160014,,,,,,,2025-05-27,1,,,,,,0
1876,8012801023988,新規,0,2025-05-27,2025-05-27,株式会社恩,,株式会社,東京都,国分寺市,南町３丁目１２番１０号ライオンズマンション国分寺第三６０４,,13,214,1850021,,,,,,,2025-05-27,1,,,,,オン,0
1888,8020001163035,新規,0,2025-05-27,2025-05-27,株式会社モフズカンパニー,,株式会社,神奈川県,横浜市港北区,新吉田東６丁目１９番６号,,14,109,2230058,,,,,,,2025-05-27,1,,,,,モフズカンパニー,0
1889,8020001163051,新規,0,2025-05-27,2025-05-27,佐藤工業株式会社,,株式会社,神奈川県,川崎市川崎区,小田４丁目３番１４号,,14,131,2100846,,,,,,,2025-05-27,1,,,,,サトウコウギョウ,0
1891,8020003028459,新規,0,2025-05-27,2025-05-27,合同会社Ｓｕｉｓｅｉ　Ｃｏａｃｈｉｎｇ,,合同会社,神奈川県,横浜市西区,北幸２丁目１０番４８号むつみビル３階,,14,103,2200004,,,,,,,2025-05-27,1,,,,,スイセイコーチング,0
1892,8020003028582,新規,0,2025-05-27,2025-05-27,合同会社ＨＯＰＥ＆ＳＵＰＰＯＲＴホールディングス,,合同会社,神奈川県,川崎市中原区,丸子通１丁目４１８番地３クレッセント新丸子５－１１０１,,14,133,2110006,,,,,,,2025-05-27,1,,,,,ホープアンドサポートホールディングス,0
1896,8021001085343,新規,0,2025-05-27,2025-05-27,株式会社グローエイム,,株式会社,神奈川県,高座郡寒川町,岡田７丁目１番２８－３０４号,,14,321,2530105,,,,,,,2025-05-27,1,,,,,グローエイム,0
1905,8030001166697,新規,0,2025-05-27,2025-05-27,株式会社ＭＫ　ＴＲＡＤＩＮＧ,,株式会社,埼玉県,越谷市,宮前１丁目４番地６,,11,222,3430014,,,,,,,2025-05-27,1,,,,,エムケイトレーディング,0
1908,8030003026833,新規,0,2025-05-27,2025-05-27,合同会社ｏｒｉｔｏ,,合同会社,埼玉県,ふじみ野市,上福岡２丁目７番１１号ヴィラビアンコ２０１,,11,245,3560004,,,,,,,2025-05-27,1,,,,,オリト,0
1911,8040001138778,新規,0,2025-05-27,2025-05-27,株式会社スターゲート,,株式会社,千葉県,佐倉市,先崎９９２－１,,12,212,2850851,,,,,,,2025-05-27,1,,,,,スターゲート,0
1918,8050001056731,新規,0,2025-05-27,2025-05-27,大和田設備工業株式会社,,株式会社,茨城県,稲敷郡阿見町,大字若栗１３６２番地６,,08,443,3000333,,,,,,,2025-05-27,1,,,,,オオワダセツビコウギョウ,0
1924,8070003005940,新規,0,2025-05-27,2025-05-27,合同会社ニジカ,,合同会社,群馬県,高崎市,中居町１丁目１２番地１８,,10,202,3700852,,,,,,,2025-05-27,1,,,,,,0
1925,8080001026954,新規,0,2025-05-27,2025-05-27,株式会社ＣＯＮＮＥＣＴ　ＨＵＢ,,株式会社,静岡県,静岡市葵区,日出町８番地の１０アトリエール２０３号,,22,101,4200837,,,,,,,2025-05-27,1,,,,,コネクトハブ,0
1933,8080401027932,新規,0,2025-05-27,2025-05-27,株式会社みろく,,株式会社,静岡県,浜松市天竜区,二俣町鹿島５５６番地の３,,22,140,4313313,,,,,,,2025-05-27,1,,,,,ミロク,0
1935,8090001019255,新規,0,2025-05-27,2025-05-27,株式会社ＲＯＧＵＩＳＨ,,株式会社,山梨県,甲府市,上阿原町７６８－５,,19,201,4000814,,,,,,,2025-05-27,1,,,,,,0
1942,8100001038633,新規,0,2025-05-27,2025-05-27,株式会社ｔｏｉｔ,,株式会社,長野県,飯田市,育良町１丁目５番地７,,20,205,3950152,,,,,,,2025-05-27,1,,,,,トワ,0
1943,8100003008188,新規,0,2025-05-27,2025-05-27,ＬＩＮＣＯ合同会社,,合同会社,長野県,松本市,野溝西１丁目１１番６号,,20,202,3990006,,,,,,,2025-05-27,1,,,,,リンコ,0
1946,8110005017236,新規,0,2025-05-27,2025-05-27,ＪＩ‐Ｊｏｂ協同組合,,その他の設立登記法人,新潟県,新潟市西区,小針南台５番６号ファミール渡昭１－Ｅ,,15,107,9502026,,,,,,,2025-05-27,1,,,,,ジェイアイジョブ,0
1956,8120001276108,新規,0,2025-05-27,2025-05-27,株式会社澤軒,,株式会社,大阪府,大阪市中央区,南船場３丁目５番２５号,,27,128,5420081,,,,,,,2025-05-27,1,,,,,サワケン,0
1957,8120001276173,新規,0,2025-05-27,2025-05-27,瑞益株式会社,,株式会社,大阪府,大阪市東淀川区,淡路２丁目１６番１９号１７号室,,27,114,5330032,,,,,,,2025-05-27,1,,,,,ズイエキ,0
1958,8120001276181,新規,0,2025-05-27,2025-05-27,株式会社吉金商事,,株式会社,大阪府,大阪市住之江区,粉浜１丁目４番１２号,,27,125,5590001,,,,,,,2025-05-27,1,,,,,ヨシガネショウジ,0
1960,8120003029562,新規,0,2025-05-27,2025-05-27,キンヨウ合同会社,,合同会社,大阪府,大阪市東住吉区,針中野４丁目８番１９号サンシティー針中野４０３号室,,27,121,5460011,,,,,,,2025-05-27,1,,,,,キンヨウ,0
1961,8120003029570,新規,0,2025-05-27,2025-05-27,Ｌｕｍｏｖａ合同会社,,合同会社,大阪府,大阪市西淀川区,姫島３丁目１１番４７－４１４号,,27,113,5550033,,,,,,,2025-05-27,1,,,,,ルモバ,0
1969,8130001079740,新規,0,2025-05-27,2025-05-27,華陽株式会社,,株式会社,京都府,京都市伏見区,深草下川原町５０番地４未来ビル１０１号室,,26,109,6128401,,,,,,,2025-05-27,1,,,,,カヨウ,0
1972,8140001138669,新規,0,2025-05-27,2025-05-27,株式会社野津建設,,株式会社,兵庫県,西宮市,分銅町１番２４号,,28,204,6620042,,,,,,,2025-05-27,1,,,,,ノヅケンセツ,0
1973,8140001138702,新規,0,2025-05-27,2025-05-27,株式会社ＡＬＥＸ　ＧＬＯＢＡＬ　ＴＯＫＹＯ,,株式会社,兵庫県,明石市,旭が丘７番１０号,,28,203,6730002,,,,,,,2025-05-27,1,,,,,アレックスグローバルトウキョウ,0
1975,8140003022103,新規,0,2025-05-27,2025-05-27,合同会社ギブリ,,合同会社,兵庫県,神戸市灘区,灘北通１丁目２番１０号２Ｆ,,28,102,6570835,,,,,,,2025-05-27,1,,,,,ギブリ,0
1976,8150001028150,新規,0,2025-05-27,2025-05-27,株式会社ＯＬＥＮＯ,,株式会社,奈良県,生駒郡斑鳩町,服部２丁目４番２５号,,29,344,6360131,,,,,,,2025-05-27,1,,,,,オレノ,0
1978,8160001026789,新規,0,2025-05-27,2025-05-27,株式会社カージアン,,株式会社,滋賀県,守山市,川田町１１４１番地,,25,207,5240001,,,,,,,2025-05-27,1,,,,,カージアン,0
1980,8170001018637,新規,0,2025-05-27,2025-05-27,株式会社朝なぎ薬局,,株式会社,和歌山県,東牟婁郡串本町,大島１５９６番地２,,30,428,6493633,,,,,,,2025-05-27,1,,,,,アサナギヤッキョク,0
1986,8180001166930,新規,0,2025-05-27,2025-05-27,ＳＶＫＡ株式会社,,株式会社,愛知県,大府市,東新町２丁目２１９番地プラウド共和８０１号室,,23,223,4740073,,,,,,,2025-05-27,1,,,,,エスブイケイエー,0
1987,8180001166963,新規,0,2025-05-27,2025-05-27,株式会社アサヒ,,株式会社,愛知県,豊明市,三崎町ゆたか台９番地２,,23,229,4701127,,,,,,,2025-05-27,1,,,,,アサヒ,0
1988,8180001167004,新規,0,2025-05-27,2025-05-27,株式会社ネスワン東海,,株式会社,愛知県,江南市,草井町中野１４－３,,23,217,4838071,,,,,,,2025-05-27,1,,,,,ネスワントウカイ,0
1993,8180301039836,新規,0,2025-05-27,2025-05-27,株式会社おかにゅー,,株式会社,愛知県,岡崎市,六名本町一丁目３番サンキビル３Ｆ３Ａ,,23,202,4440854,,,,,,,2025-05-27,1,,,,,,0
1996,8190001032248,新規,0,2025-05-27,2025-05-27,株式会社カシエツ,,株式会社,三重県,三重郡川越町,大字豊田１０７６番地１,,24,344,5108122,,,,,,,2025-05-27,1,,,,,カシエツ,0
2001,8220001026700,新規,0,2025-05-27,2025-05-27,株式会社ユーコス,,株式会社,石川県,加賀市,弓波町ハ１番地１,,17,206,9220422,,,,,,,2025-05-27,1,,,,,ユーコス,0
2004,8240001064979,新規,0,2025-05-27,2025-05-27,株式会社トライアングル,,株式会社,広島県,庄原市,口和町金田８００番地３,,34,210,7270112,,,,,,,2025-05-27,1,,,,,トライアングル,0
2005,8240001064995,新規,0,2025-05-27,2025-05-27,株式会社マルエヌ,,株式会社,広島県,広島市安佐南区,伴東７丁目３８－４－１５０１,,34,105,7313164,,,,,,,2025-05-27,1,,,,,マルエヌ,0
2006,8240003007226,新規,0,2025-05-27,2025-05-27,ハイ工業合同会社,,合同会社,広島県,福山市,高西町３丁目５番３号,,34,207,7290106,,,,,,,2025-05-27,1,,,,,ハイコウギョウ,0
2012,8270003001738,新規,0,2025-05-27,2025-05-27,ＹＵＲＵ’Ｑ合同会社,,合同会社,鳥取県,米子市,富益町９８４番地,,31,202,6830103,,,,,,,2025-05-27,1,,,,,ユルク,0
2022,8290001110118,新規,0,2025-05-27,2025-05-27,サニー株式会社,,株式会社,福岡県,糟屋郡新宮町,上府北２丁目１３番７－２０１号,,40,345,8110123,,,,,,,2025-05-27,1,,,,,サニー,0
2023,8290001110126,新規,0,2025-05-27,2025-05-27,株式会社アルバ食品,,株式会社,福岡県,福岡市東区,多の津５丁目１１番２号,,40,131,8130034,,,,,,,2025-05-27,1,,,,,アルバショクヒン,0
2026,8290003016890,新規,0,2025-05-27,2025-05-27,合同会社ＧＯＯＤ,,合同会社,福岡県,福岡市博多区,堅粕４丁目７番２９－２０３号,,40,132,8120043,,,,,,,2025-05-27,1,,,,,グッド,0
2031,8320001021113,新規,0,2025-05-27,2025-05-27,株式会社Ｋｉｔｓｕｋｉ　Ｂａｓｅ,,株式会社,大分県,杵築市,大字本庄１４４１番地１,,44,210,8730014,,,,,,,2025-05-27,1,,,,,キツキベース,0
2032,8320005010244,新規,0,2025-05-27,2025-05-27,一般社団法人みえスポーツパーク,,その他の設立登記法人,大分県,豊後大野市,三重町百枝１０８６番地３５,,44,212,8797152,,,,,,,2025-05-27,1,,,,,ミエスポーツパーク,0
2035,8330001033157,新規,0,2025-05-27,2025-05-27,ＴＳＳ株式会社,,株式会社,熊本県,上益城郡益城町,大字田原２０８１番地１７－３階,,43,443,8612202,,,,,,,2025-05-27,1,,,,,ティーエスエス,0
2040,8350001019550,新規,0,2025-05-27,2025-05-27,株式会社Ａｓｐｉｒａ,,株式会社,宮崎県,宮崎市,神宮西１丁目１１番地７０１号室,,45,201,8800033,,,,,,,2025-05-27,1,,,,,アスパイア,0
2056,8370003007106,新規,0,2025-05-27,2025-05-27,合同会社ツーアップ,,合同会社,宮城県,仙台市青葉区,中央２丁目１１番１９号仙南ビル４階－Ａ,,04,101,9800021,,,,,,,2025-05-27,1,,,,,ツーアップ,0
2060,8390003002393,新規,0,2025-05-27,2025-05-27,合同会社パープルシード,,合同会社,山形県,寒河江市,大字谷沢５８３－２,,06,206,9900521,,,,,,,2025-05-27,1,,,,,パープルシード,0
2075,8430003017701,新規,0,2025-05-27,2025-05-27,合同会社まつりび,,合同会社,北海道,札幌市中央区,南五条西１５丁目２－３－５０３,,01,101,0640805,,,,,,,2025-05-27,1,,,,,マツリビ,0
2076,8430005015240,新規,0,2025-05-27,2025-05-27,一般社団法人守生会,,その他の設立登記法人,北海道,札幌市西区,琴似一条５丁目３番２０号ボアドール１５　２０１号,,01,107,0630811,,,,,,,2025-05-27,1,,,,,シュセイカイ,0
2077,8440001009617,新規,0,2025-05-27,2025-05-27,株式会社多喜屋ナチュラルズ,,株式会社,北海道,函館市,尾札部町４３１番地１,,01,202,0411603,,,,,,,2025-05-27,1,,,,,タキヤナチュラルズ,0
2080,8470001020728,新規,0,2025-05-27,2025-05-27,株式会社高森ホールディングス,,株式会社,香川県,高松市,城東町２丁目５番１４号,,37,201,7600036,,,,,,,2025-05-27,1,,,,,タカモリホールディングス,0
2083,8490001011048,新規,0,2025-05-27,2025-05-27,株式会社ライフパートナーズ不動産,,株式会社,高知県,高知市,二葉町１９番６号ファースト１０２号,,39,201,7810815,,,,,,,2025-05-27,1,,,,,ライフパートナーズフドウサン,0
2086,8700150130733,新規,0,2025-05-27,2025-05-27,ＶＥＲＴ　ＰＯＩＮＴ　ＣＯＭＰＡＮＹ　ＬＩＭＩＴＥＤ,,外国会社等,,,,,,,,中華人民共和国ホンコン特別行政区、クーロン、ナンキンストリート、２２－２８アクメビルディング９階Ａ室,,,,,,2025-05-27,1,,,,,バートポイントカンパニーリミテツド,0
2087,8700150130741,新規,0,2025-05-27,2025-05-27,Ｙｏｕｙｉｎ（Ｇｕａｎｇｚｈｏｕ）Ｆｕｓｈｉ　ｃｏ．，ｌｔｄ．,,外国会社等,,,,,,,,Ｔｉａｎｈｅ　Ｄｉｓｔｒｉｃｔ，Ｇｕａｎｇｚｈｏｕ　Ｃｉｔｙ　１１０１，８７　Ｈｕａｃｈｅｎｇ　Ａｖｅｎｕｅ，Ｘｉａｎｃｕｎ　Ｓｔｒｅｅｔ　Ｇｕａｎｇｚｈｏｕ　Ｇｕａｎｇｄｏｎｇ,,,,,,2025-05-27,1,,,,,ユウインコウシュウフクショクユウゲンコウシ,0
2100,9010001255311,新規,0,2025-05-27,2025-05-27,Ｆｒｅｉｍａａｋ株式会社,,株式会社,東京都,中央区,銀座１丁目１５番４号ヒューリック銀座一丁目昭和通りビル７階,,13,102,1040061,,,,,,,2025-05-27,1,,,,,フライマーク,0
2101,9010001255393,新規,0,2025-05-27,2025-05-27,株式会社オン・エア,,株式会社,東京都,中央区,銀座６丁目１３番１６号ヒューリック銀座ウォールビル７Ｆ,,13,102,1040061,,,,,,,2025-05-27,1,,,,,オンエア,0
2102,9010001255402,新規,0,2025-05-27,2025-05-27,ＡＦＭ　Ｊａｐａｎ株式会社,,株式会社,東京都,中央区,銀座１丁目１２番４号Ｎ＆Ｅ・ＢＬＤ．６階,,13,102,1040061,,,,,,,2025-05-27,1,,,,,エーエフエムジャパン,0
2103,9010001255410,新規,0,2025-05-27,2025-05-27,株式会社ＯＢ　ＳＯＬＵＴＩＯＮＳ,,株式会社,東京都,中央区,銀座１丁目８番７号,,13,102,1040061,,,,,,,2025-05-27,1,,,,,オービーソリューションズ,0
2114,9010501054114,新規,0,2025-05-27,2025-05-27,株式会社Ｓｃｅｎｔ　Ａｃａｄｅｍｙ,,株式会社,東京都,台東区,元浅草３丁目１６番１４号シャンテ新御徒町２０２,,13,106,1110041,,,,,,,2025-05-27,1,,,,,セントアカデミー,0
2115,9010503007862,新規,0,2025-05-27,2025-05-27,合同会社ＭＤ,,合同会社,東京都,台東区,上野４丁目９番３号,,13,106,1100005,,,,,,,2025-05-27,1,,,,,エムディー,0
2116,9010601067354,新規,0,2025-05-27,2025-05-27,エンバ・アソシエイツ株式会社,,株式会社,東京都,墨田区,江東橋１丁目１５番５号,,13,107,1300022,,,,,,,2025-05-27,1,,,,,エンバアソシエイツ,0
2117,9010601067362,新規,0,2025-05-27,2025-05-27,株式会社ｔｅｎｏｗａ,,株式会社,東京都,江東区,三好１丁目８番３号,,13,108,1350022,,,,,,,2025-05-27,1,,,,,テノワ,0
2124,9010703007729,新規,0,2025-05-27,2025-05-27,合同会社ステラバイ,,合同会社,東京都,品川区,東五反田３丁目５番１２－３０１号,,13,109,1410022,,,,,,,2025-05-27,1,,,,,ステラバイ,0
2128,9010901057419,新規,0,2025-05-27,2025-05-27,エムユーアンダーバー株式会社,,株式会社,東京都,世田谷区,下馬１丁目２０番２２号２０２,,13,112,1540002,,,,,,,2025-05-27,1,,,,,エムユーアンダーバー,0
2129,9010901057435,新規,0,2025-05-27,2025-05-27,株式会社オルタリズム,,株式会社,東京都,世田谷区,太子堂４丁目１８番１５号マガザン三軒茶屋２－３Ｆ－３,,13,112,1540004,,,,,,,2025-05-27,1,,,,,オルタリズム,0
2131,9011001170070,新規,0,2025-05-27,2025-05-27,タナカライフスタイル株式会社,,株式会社,東京都,目黒区,東山３丁目４番８号東北林業ビル２０１,,13,110,1530043,,,,,,,2025-05-27,1,,,,,タナカライフスタイル,0
2132,9011003021610,新規,0,2025-05-27,2025-05-27,合同会社ｉｎｔｅｒｉｏｒ．ｃｏｗ,,合同会社,東京都,渋谷区,円山町５番３号ＭＩＥＵＸ渋谷ビル８階,,13,113,1500044,,,,,,,2025-05-27,1,,,,,インテリアドットコム,0
2135,9011103015958,新規,0,2025-05-27,2025-05-27,Ｔｒｉｖｉｔｏ合同会社,,合同会社,東京都,新宿区,四谷２丁目９番地１５東京ユナイテッド綜合事務所内,,13,104,1600004,,,,,,,2025-05-27,1,,,,,トリビト,0
2139,9011303005569,新規,0,2025-05-27,2025-05-27,杉並ＦＡＳ合同会社,,合同会社,東京都,杉並区,和田１丁目１３－１９杉並和田ハイム１０５,,13,115,1660012,,,,,,,2025-05-27,1,,,,,スギナミファズ,0
2141,9011403004710,新規,0,2025-05-27,2025-05-27,ＫＡＭＩＮＯ合同会社,,合同会社,東京都,板橋区,小豆沢３丁目９番１－１００１号,,13,119,1740051,,,,,,,2025-05-27,1,,,,,カミノ,0
2145,9011801046172,新規,0,2025-05-27,2025-05-27,侍ＴＡＸＩ株式会社,,株式会社,東京都,足立区,竹の塚１丁目４０番１５号庄栄ビル５階,,13,121,1210813,,,,,,,2025-05-27,1,,,,,サムライタクシー,0
2149,9012801023987,新規,0,2025-05-27,2025-05-27,株式会社栄光舎,,株式会社,東京都,国立市,中１丁目９番３０号,,13,215,1860004,,,,,,,2025-05-27,1,,,,,エイコウシャ,0
2150,9012803003748,新規,0,2025-05-27,2025-05-27,合同会社ＩＢ,,合同会社,東京都,国分寺市,本町２丁目７番２号ハウスアメニティ９９－８０５号室,,13,214,1850012,,,,,,,2025-05-27,1,,,,,アイビー,0
2152,9013303007677,新規,0,2025-05-27,2025-05-27,ＥＢＩＳＵ合同会社,,合同会社,東京都,豊島区,池袋本町４丁目３４－４ＳＴ池袋本町２０４号,,13,116,1700011,,,,,,,2025-05-27,1,,,,,エビス,0
2156,9020001163001,新規,0,2025-05-27,2025-05-27,株式会社Ｍｏｊａ,,株式会社,神奈川県,川崎市多摩区,登戸２１２１－１ｇ－ｂｒｉｇｈｔ６１０,,14,135,2140014,,,,,,,2025-05-27,1,,,,,モジャ,0
2157,9020001163026,新規,0,2025-05-27,2025-05-27,株式会社ＮｅｘＴｒｕｓｔソリューションズ,,株式会社,神奈川県,横浜市西区,みなとみらい４丁目４番２号横浜ブルーアベニュー１２Ｆ１２５６,,14,103,2200012,,,,,,,2025-05-27,1,,,,,ネクストラストソリューションズ,0
2158,9020001163042,新規,0,2025-05-27,2025-05-27,株式会社ジャック,,株式会社,神奈川県,横浜市神奈川区,松本町１丁目１０番１８号スタッグビル４Ｆ,,14,102,2210841,,,,,,,2025-05-27,1,,,,,ジャック,0
2159,9020001163075,新規,0,2025-05-27,2025-05-27,株式会社うらとりお,,株式会社,神奈川県,川崎市多摩区,中野島６丁目２２番２４号,,14,135,2140012,,,,,,,2025-05-27,1,,,,,ウラトリオ,0
2163,9020003028565,新規,0,2025-05-27,2025-05-27,トキワファイナンスファンド１号合同会社,,合同会社,神奈川県,横浜市港北区,新横浜３丁目１９－１１加瀬ビル８８－１００２,,14,109,2220033,,,,,,,2025-05-27,1,,,,,トキワファイナンスファンドイチゴウ,0
2166,9021001085301,新規,0,2025-05-27,2025-05-27,株式会社大恵新葉,,株式会社,神奈川県,小田原市,田島１０１１番地,,14,206,2560811,,,,,,,2025-05-27,1,,,,,ダイケイシンヨウ,0
2168,9021003016048,新規,0,2025-05-27,2025-05-27,合同会社ブリッジ,,合同会社,神奈川県,秦野市,戸川４９９番地ハイツサンシャイン２０４号,,14,211,2591306,,,,,,,2025-05-27,1,,,,,ブリッジ,0
2173,9030001166647,新規,0,2025-05-27,2025-05-27,ＯＳＬＥＹ商事株式会社,,株式会社,埼玉県,川口市,飯塚３丁目９－５１－５０８,,11,203,3320023,,,,,,,2025-05-27,1,,,,,オスレーショウジ,0
2174,9030001166754,新規,0,2025-05-27,2025-05-27,旭空調設備株式会社,,株式会社,埼玉県,草加市,旭町５丁目８番１４号,,11,221,3400053,,,,,,,2025-05-27,1,,,,,アサヒクウチョウセツビ,0
2176,9030003026849,新規,0,2025-05-27,2025-05-27,ＺＡＷＡ　ＩＮＶＥＳＴＭＥＮＴＳ合同会社,,合同会社,埼玉県,草加市,中根２丁目１１－４０サンハイツ１０５,,11,221,3400005,,,,,,,2025-05-27,1,,,,,ザワインベストメンツ,0
2184,9040001138843,新規,0,2025-05-27,2025-05-27,株式会社ＨＡＮＡ　ＴＲＡＤＩＮＧ,,株式会社,千葉県,佐倉市,中志津５丁目３番１３号ビレッヂＨ－Ｖ１０２号室,,12,212,2850843,,,,,,,2025-05-27,1,,,,,ハナトレーディング,0
2190,9050001056722,新規,0,2025-05-27,2025-05-27,株式会社エターナルフィールド,,株式会社,茨城県,ひたちなか市,大字東石川３５３０－３,,08,221,3120052,,,,,,,2025-05-27,1,,,,,エターナルフィールド,0
2191,9050003009298,新規,0,2025-05-27,2025-05-27,合同会社サポーティブエッジ,,合同会社,茨城県,日立市,久慈町７丁目２５番１８号,,08,202,3191222,,,,,,,2025-05-27,1,,,,,サポーティブエッジ,0
2195,9060001038232,新規,0,2025-05-27,2025-05-27,株式会社Ｌｅｇａｒｅ,,株式会社,栃木県,栃木市,野中町１３７０番地５,,09,203,3280124,,,,,,,2025-05-27,1,,,,,レガーレ,0
2198,9080401027923,新規,0,2025-05-27,2025-05-27,株式会社ＢＥ　ＳＭＩＬＥ,,株式会社,静岡県,浜松市中央区,上島２丁目１１番５号ビバリーハウス上島Ａ１０１,,22,138,4338122,,,,,,,2025-05-27,1,,,,,ビースマイル,0
2201,9100001038632,新規,0,2025-05-27,2025-05-27,株式会社ウィズダムプラン,,株式会社,長野県,長野市,徳間１丁目１３番６－４号,,20,201,3810041,,,,,,,2025-05-27,1,,,,,ウィズダムプラン,0
2202,9100001038640,新規,0,2025-05-27,2025-05-27,株式会社ワノミチ,,株式会社,長野県,長野市,権堂町２３１２－１,,20,201,3810000,,,,,,,2025-05-27,1,,,,,ワノミチ,0
2204,9100003008179,新規,0,2025-05-27,2025-05-27,合同会社ＰＯＫＫＥ,,合同会社,長野県,長野市,篠ノ井小松原１０９６番地５,,20,201,3812235,,,,,,,2025-05-27,1,,,,,ポッケ,0
2206,9100005013359,新規,0,2025-05-27,2025-05-27,一般社団法人Ｓｍｉｌｅ,,その他の設立登記法人,長野県,飯田市,中村２９３９番地５４,,20,205,3950156,,,,,,,2025-05-27,1,,,,,スマイル,0
2221,9120001275975,新規,0,2025-05-27,2025-05-27,ＳＯＧ株式会社,,株式会社,大阪府,大阪市都島区,都島本通５丁目１０－１,,27,102,5340021,,,,,,,2025-05-27,1,,,,,エスオージー,0
2222,9120001276049,新規,0,2025-05-27,2025-05-27,洲洋株式会社,,株式会社,大阪府,大阪市天王寺区,大道２丁目１３－６－２０１,,27,109,5430052,,,,,,,2025-05-27,1,,,,,シュウヨウ,0
2223,9120001276057,新規,0,2025-05-27,2025-05-27,日新株式会社,,株式会社,大阪府,大阪市中央区,松屋町９番２０号ローレルステート松屋町９０４Ｂ,,27,128,5420067,,,,,,,2025-05-27,1,,,,,ニッシン,0
2224,9120001276156,新規,0,2025-05-27,2025-05-27,金隆株式会社,,株式会社,大阪府,大阪市西成区,南津守１丁目５番２８－１０４号室,,27,122,5570063,,,,,,,2025-05-27,1,,,,,キンリュウ,0
2225,9120001276172,新規,0,2025-05-27,2025-05-27,瑞豊株式会社,,株式会社,大阪府,大阪市西成区,萩之茶屋２丁目６番４号ニューかめや５１号室,,27,122,5570004,,,,,,,2025-05-27,1,,,,,ズイホウ,0
2226,9120001276180,新規,0,2025-05-27,2025-05-27,協和未来株式会社,,株式会社,大阪府,大阪市西成区,萩之茶屋２丁目６番４－１３７号室,,27,122,5570004,,,,,,,2025-05-27,1,,,,,キョウワミライ,0
2227,9120001276189,新規,0,2025-05-27,2025-05-27,株式会社ｇｒａｍ,,株式会社,大阪府,大阪市中央区,南船場４丁目１１番５－７０２号,,27,128,5420081,,,,,,,2025-05-27,1,,,,,グラム,0
2228,9120001276214,新規,0,2025-05-27,2025-05-27,株式会社夢愛が里,,株式会社,大阪府,大阪市西区,北堀江３丁目８番１３号,,27,106,5500014,,,,,,,2025-05-27,1,,,,,ユアガリ,0
2229,9120001276239,新規,0,2025-05-27,2025-05-27,ツミキの不動産株式会社,,株式会社,大阪府,大阪市淀川区,新北野１丁目１０番３－４０６号,,27,123,5320025,,,,,,,2025-05-27,1,,,,,ツミキノフドウサン,0
2230,9120001276255,新規,0,2025-05-27,2025-05-27,株式会社しののめ,,株式会社,大阪府,大阪市北区,梅田２丁目５番１３号桜橋第一ビル３０４号,,27,127,5300001,,,,,,,2025-05-27,1,,,,,シノノメ,0
2237,9120003029537,新規,0,2025-05-27,2025-05-27,合同会社ＤＢＮ,,合同会社,大阪府,大阪市北区,梅田１丁目２番２号大阪駅前第２ビル１２－１２,,27,127,5300001,,,,,,,2025-05-27,1,,,,,ディービーエヌ,0
2238,9120003029561,新規,0,2025-05-27,2025-05-27,精利合同会社,,合同会社,大阪府,大阪市西成区,萩之茶屋２丁目６番４－１６１号,,27,122,5570004,,,,,,,2025-05-27,1,,,,,モリヨリ,0
2239,9120003029578,新規,0,2025-05-27,2025-05-27,合同会社おぽ,,合同会社,大阪府,大阪市西区,江戸堀１丁目６番１７－１１０２号,,27,106,5500002,,,,,,,2025-05-27,1,,,,,オポ,0
2240,9120003029586,新規,0,2025-05-27,2025-05-27,合同会社ＶＡＬＬＥＹ,,合同会社,大阪府,大阪市西成区,岸里１丁目３番１０号ビッグハイツ１階,,27,122,5570041,,,,,,,2025-05-27,1,,,,,バリー,0
2241,9120003029594,新規,0,2025-05-27,2025-05-27,合同会社一葉,,合同会社,大阪府,大阪市城東区,古市３丁目１８番２３－８１３号,,27,118,5360001,,,,,,,2025-05-27,1,,,,,イチヨウ,0
2242,9120005024957,新規,0,2025-05-27,2025-05-27,一般社団法人全日本経済経営推進機構,,その他の設立登記法人,大阪府,大阪市中央区,備後町２丁目４番１４号,,27,128,5410051,,,,,,,2025-05-27,1,,,,,ゼンニッポンケイザイケイエイスイシンキコウ,0
2245,9120101071738,新規,0,2025-05-27,2025-05-27,株式会社クイックカーズ,,株式会社,大阪府,羽曳野市,桃山台４丁目１１１番地の１（１１５）,,27,222,5830873,,,,,,,2025-05-27,1,,,,,クイックカーズ,0
2252,9120901050957,新規,0,2025-05-27,2025-05-27,大阪の不動産屋株式会社,,株式会社,大阪府,豊中市,本町９丁目３番３号,,27,203,5600021,,,,,,,2025-05-27,1,,,,,オオサカノフドウサンヤ,0
2261,9140001138734,新規,0,2025-05-27,2025-05-27,株式会社ＳＴＹＬＥ　ＬＡＢ,,株式会社,兵庫県,姫路市,香寺町犬飼８番地３,,28,201,6792131,,,,,,,2025-05-27,1,,,,,スタイルラボ,0
2266,9140003022102,新規,0,2025-05-27,2025-05-27,ＨａｐｐｙＴｗｉｎｇ合同会社,,合同会社,兵庫県,姫路市,下手野５丁目２３番７－７号,,28,201,6700063,,,,,,,2025-05-27,1,,,,,ハッピーツイング,0
2267,9140003022110,新規,0,2025-05-27,2025-05-27,合同会社Ｓｈｉｎｅｎ,,合同会社,兵庫県,神戸市中央区,籠池通２丁目１番１６号,,28,110,6510053,,,,,,,2025-05-27,1,,,,,シンエン,0
2268,9140005027520,新規,0,2025-05-27,2025-05-27,一般社団法人みたまゆい講,,その他の設立登記法人,兵庫県,西宮市,戸田町１番１２号,,28,204,6620916,,,,,,,2025-05-27,1,,,,,ミタマユイコウ,0
2269,9150001028158,新規,0,2025-05-27,2025-05-27,株式会社垣内建設,,株式会社,奈良県,橿原市,一町１４７８番地の４,,29,205,6340824,,,,,,,2025-05-27,1,,,,,カキウチケンセツ,0
2273,9160001026788,新規,0,2025-05-27,2025-05-27,株式会社ヒノタニ,,株式会社,滋賀県,湖南市,三雲８６５番地１６,,25,211,5203221,,,,,,,2025-05-27,1,,,,,ヒノタニ,0
2274,9170001018636,新規,0,2025-05-27,2025-05-27,株式会社ＳＰＣ,,株式会社,和歌山県,和歌山市,新在家１５０番地,,30,201,6408345,,,,,,,2025-05-27,1,,,,,エスピーシー,0
2279,9180001166946,新規,0,2025-05-27,2025-05-27,ＡＷＩＥＳ株式会社,,株式会社,愛知県,名古屋市守山区,吉根３丁目８１０番地,,23,113,4630004,,,,,,,2025-05-27,1,,,,,アーワイス,0
2280,9180001166962,新規,0,2025-05-27,2025-05-27,株式会社ｂｌｏｏｍ,,株式会社,愛知県,名古屋市北区,黒川本通２丁目４２番地の１荻山ビル１階,,23,103,4620841,,,,,,,2025-05-27,1,,,,,ブルーム,0
2281,9180001166970,新規,0,2025-05-27,2025-05-27,Ｆ‐アセット株式会社,,株式会社,愛知県,名古屋市東区,泉１丁目２２番１号,,23,102,4610001,,,,,,,2025-05-27,1,,,,,エフアセット,0
2282,9180001166979,新規,0,2025-05-27,2025-05-27,大成フィナンシャルグループ株式会社,,株式会社,愛知県,名古屋市東区,白壁３丁目３６,,23,102,4610011,,,,,,,2025-05-27,1,,,,,タイセイフィナンシャルグループ,0
2283,9180001166995,新規,0,2025-05-27,2025-05-27,徳機械株式会社,,株式会社,愛知県,半田市,彦洲町１丁目２８５番地,,23,205,4750975,,,,,,,2025-05-27,1,,,,,トクキカイ,0
2290,9210001020174,新規,0,2025-05-27,2025-05-27,株式会社Ｔｅｓｓｅｌａ,,株式会社,福井県,越前市,横根町第３０号２番地の１２,,18,209,9150896,,,,,,,2025-05-27,1,,,,,テセラ,0
2291,9220001026699,新規,0,2025-05-27,2025-05-27,株式会社ＳＡＴカンパニー,,株式会社,石川県,金沢市,尾山町４番２８号フォンテーヌ４０３,,17,201,9200918,,,,,,,2025-05-27,1,,,,,サットカンパニー,0
2297,9240001064978,新規,0,2025-05-27,2025-05-27,株式会社ＳｍａＰｌａ,,株式会社,広島県,三次市,和知町２２９４番地２,,34,209,7296201,,,,,,,2025-05-27,1,,,,,スマプラ,0
2298,9240001064986,新規,0,2025-05-27,2025-05-27,株式会社イモコ,,株式会社,広島県,広島市安佐北区,倉掛３丁目２８番２４号,,34,106,7391743,,,,,,,2025-05-27,1,,,,,イモコ,0
2299,9240001064994,新規,0,2025-05-27,2025-05-27,株式会社８８８,,株式会社,広島県,広島市南区,的場町２丁目６－３（３Ｆ）,,34,103,7320824,,,,,,,2025-05-27,1,,,,,スリーエイト,0
2304,9240005015944,新規,0,2025-05-27,2025-05-27,一般社団法人相続不動産あんしん窓口,,その他の設立登記法人,広島県,広島市南区,金屋町８番１９号,,34,103,7320825,,,,,,,2025-05-27,1,,,,,ソウゾクフドウサンアンシンマドグチ,0
2305,9250001021160,新規,0,2025-05-27,2025-05-27,Ａ．株式会社,,株式会社,山口県,山陽小野田市,大字小野田４５０番地５,,35,216,7560817,,,,,,,2025-05-27,1,,,,,エードット,0
2306,9250003003735,新規,0,2025-05-27,2025-05-27,合同会社Ａｎｏｔｈｅｒ,,合同会社,山口県,山口市,小郡高砂町７－１７－２０１,,35,203,7540014,,,,,,,2025-05-27,1,,,,,アナザー,0
2318,9290001109927,新規,0,2025-05-27,2025-05-27,株式会社リフアクト,,株式会社,福岡県,福岡市中央区,大手門３丁目２－２３－８０５,,40,133,8100074,,,,,,,2025-05-27,1,,,,,リフアクト,0
2319,9290001110100,新規,0,2025-05-27,2025-05-27,株式会社ヒーバックソリューションサービス,,株式会社,福岡県,福岡市中央区,平尾３丁目２６番１５号,,40,133,8100014,,,,,,,2025-05-27,1,,,,,ヒーバックソリューションサービス,0
2321,9290003016898,新規,0,2025-05-27,2025-05-27,合同会社ＳＴＵＤＩＯ　ＬＡＰＯＲＬ,,合同会社,福岡県,福岡市博多区,山王１丁目１０番２７号山王川上ビルＣ－１,,40,132,8120015,,,,,,,2025-05-27,1,,,,,スタジオラポール,0
2329,9330001033230,新規,0,2025-05-27,2025-05-27,雲蕾株式会社,,株式会社,熊本県,人吉市,大畑町４０６６番地３,,43,203,8680803,,,,,,,2025-05-27,1,,,,,ウンライ,0
2336,9360001035249,新規,0,2025-05-27,2025-05-27,株式会社大翔,,株式会社,沖縄県,中頭郡西原町,字翁長８９２,,47,329,9030117,,,,,,,2025-05-27,1,,,,,ヤマト,0
2342,9360003014944,新規,0,2025-05-27,2025-05-27,Ｍｉｍｏｓａ合同会社,,合同会社,沖縄県,那覇市,与儀２丁目１５番２５号,,47,201,9020076,,,,,,,2025-05-27,1,,,,,ミモザ,0
2345,9370001052607,新規,0,2025-05-27,2025-05-27,株式会社ＢＡＳＥ,,株式会社,宮城県,仙台市青葉区,国見ケ丘５丁目１２番１１号,,04,101,9893201,,,,,,,2025-05-27,1,,,,,ベース,0
2346,9370001052631,新規,0,2025-05-27,2025-05-27,株式会社一心,,株式会社,宮城県,大崎市,古川中里４丁目４－３４ハイマートＭ１、２０３,,04,215,9896143,,,,,,,2025-05-27,1,,,,,イッシン,0
2355,9380003006048,新規,0,2025-05-27,2025-05-27,合同会社ＣｒｙｐｔｏＤｉｖｅｒ運営事務局,,合同会社,福島県,双葉郡浪江町,大字北幾世橋字北原５３番２１号２０３号室,,07,547,9791512,,,,,,,2025-05-27,1,,,,,クリプトダイバーウンエイジムキョク,0
2356,9390001017995,新規,0,2025-05-27,2025-05-27,株式会社シミズインダストリー,,株式会社,山形県,山形市,蔵王松ケ丘１丁目１－４１,,06,201,9902338,,,,,,,2025-05-27,1,,,,,シミズインダストリー,0
2357,9400003003471,新規,0,2025-05-27,2025-05-27,松澤農園合同会社,,合同会社,岩手県,九戸郡九戸村,大字伊保内第２１地割１１番地３,,03,506,0286502,,,,,,,2025-05-27,1,,,,,マツザワノウエン,0
2359,9410001014164,新規,0,2025-05-27,2025-05-27,株式会社ＭＡＲＵ吉Ｂａｓｅ,,株式会社,秋田県,横手市,雄物川町今宿字高花６２－３,,05,203,0130205,,,,,,,2025-05-27,1,,,,,マルヨシベース,0
2362,9420001019154,新規,0,2025-05-27,2025-05-27,青森夏イチゴファーム株式会社,,株式会社,青森県,むつ市,大字奥内字金谷沢１４番地２,,02,208,0350011,,,,,,,2025-05-27,1,,,,,アオモリナツイチゴファーム,0
2371,9470001020719,新規,0,2025-05-27,2025-05-27,株式会社ＭＫ,,株式会社,香川県,高松市,牟礼町原１０４７番地,,37,201,7610123,,,,,,,2025-05-27,1,,,,,エムケイ,0
2372,9470001020727,新規,0,2025-05-27,2025-05-27,株式会社ニシヤマホールディングス,,株式会社,香川県,仲多度郡まんのう町,宮田１０１９番地１６,,37,406,7690312,,,,,,,2025-05-27,1,,,,,ニシヤマホールディングス,0
2373,9480001012847,新規,0,2025-05-27,2025-05-27,株式会社ＳＤＫ,,株式会社,徳島県,徳島市,上八万町西山５６８番地,,36,201,7708041,,,,,,,2025-05-27,1,,,,,エスディーケー,0
2375,9700150130732,新規,0,2025-05-27,2025-05-27,政祺股分有限公司,,外国会社等,東京都,中野区,弥生町４丁目３０番地８　グランディコア中野弥生町１０５号室,,13,114,1640013,台北市中山区成功里敬業一路１２８巷２６号６楼,,,,,,2025-05-27,1,,,,,セイキカブンユウゲンコウシ,0
2376,9700150130740,新規,0,2025-05-27,2025-05-27,Ｔｏｎｇｌｉｎｇ　Ｔｒａｎｓｏｎ　Ｔｅｘｔｉｌｅ　Ｃｏ．，ｌｔｄ,,外国会社等,,,,,,,,Ｅａｓｔ　Ｃｉｔｙ　Ｄｅｖｅｌｏｐｍｅｎｔ　Ｚｏｎｅ　Ｔｏｎｇｌｉｎｇ　Ｔｏｎｇｇｕａｎ　Ａｎｈｕｉ,,,,,,2025-05-27,1,,,,,ドウリョウシチュウセイボウショクヒンユウゲンセキニンコウシ,0
