sequenceNumber,corporateNumber,process,correct,updateDate,changeDate,name,nameImageId,kind,prefectureName,cityName,streetNumber,addressImageId,prefectureCode,cityCode,postCode,addressOutside,addressOutsideImageId,closeDate,closeCause,successorCorporateNumber,changeCause,assignmentDate,latest,enName,enPrefectureName,enCityName,enAddressOutside,furigana,hihyoji
4,1010001258750,新規,0,2025-10-07,2025-10-07,Ｋａｅｒｉ　Ｔｏｍｉｋａｗａ株式会社,,株式会社,東京都,千代田区,霞が関３丁目２番５号,,13,101,1000013,,,,,,,2025-10-07,1,,,,,カエリトミカワ,0
5,1010001258973,新規,0,2025-10-07,2025-10-07,株式会社Ｐｒｏｇｒｅｓｓ　ＨＲ　Ｓｏｌｕｔｉｏｎｓ,,株式会社,東京都,中央区,銀座１丁目１２番４号Ｎ＆ＥＢＬＤ．６Ｆ,,13,102,1040061,,,,,,,2025-10-07,1,,,,,プログレスエイチアールソリューションズ,0
6,1010001259014,新規,0,2025-10-07,2025-10-07,株式会社アズループ,,株式会社,東京都,千代田区,神田和泉町６－１６ヤマトビル４０５,,13,101,1010024,,,,,,,2025-10-07,1,,,,,アズループ,0
7,1010001259022,新規,0,2025-10-07,2025-10-07,株式会社エフビューティー,,株式会社,東京都,中央区,日本橋小網町１番４号,,13,102,1030016,,,,,,,2025-10-07,1,,,,,エフビューティー,0
8,1010001259146,新規,0,2025-10-07,2025-10-07,株式会社ＨＩＭＯＲＯＧＩ,,株式会社,東京都,千代田区,九段南２丁目４番１１号パシフィックスクエア６０１,,13,101,1020074,,,,,,,2025-10-07,1,,,,,ヒモロギ,0
9,1010001259154,新規,0,2025-10-07,2025-10-07,株式会社ＲＨ,,株式会社,東京都,中央区,銀座１丁目２４番９号,,13,102,1040061,,,,,,,2025-10-07,1,,,,,アールエイチ,0
10,1010001259162,新規,0,2025-10-07,2025-10-07,株式会社ＤｘＧｃａｒｅｅｒ,,株式会社,東京都,千代田区,神田東松下町３８番地鳥本鋼業ビル４階,,13,101,1010042,,,,,,,2025-10-07,1,,,,,ディーバイジーキャリア,0
19,1010005040741,新規,0,2025-10-07,2025-10-07,一般社団法人日本住宅設備連盟・安心保証機構,,その他の設立登記法人,東京都,千代田区,岩本町２丁目１５番１９号,,13,101,1010032,,,,,,,2025-10-07,1,,,,,ニホンジュウタクセツビレンメイアンシンホショウキコウ,0
23,1010401193572,新規,0,2025-10-07,2025-10-07,インパクト株式会社,,株式会社,東京都,港区,東麻布２丁目２６番１６号,,13,103,1060044,,,,,,,2025-10-07,1,,,,,インパクト,0
25,1010403036234,新規,0,2025-10-07,2025-10-07,祖母山合同会社,,合同会社,東京都,港区,六本木１丁目６番１号泉ガーデンタワーＫＰＭＧ税理士法人内,,13,103,1060032,,,,,,,2025-10-07,1,,,,,ソボサン,0
26,1010403036242,新規,0,2025-10-07,2025-10-07,ショウガキ電気管理合同会社,,合同会社,東京都,港区,元麻布２丁目１１番２０号,,13,103,1060046,,,,,,,2025-10-07,1,,,,,ショウガキデンキカンリ,0
27,1010403036250,新規,0,2025-10-07,2025-10-07,合同会社ビーケーパートナーズ,,合同会社,東京都,港区,虎ノ門２丁目６番１号虎ノ門ヒルズステーションタワー,,13,103,1050001,,,,,,,2025-10-07,1,,,,,ビーケーパートナーズ,0
38,1010801036653,新規,0,2025-10-07,2025-10-07,ＤＡＯエージェント株式会社,,株式会社,東京都,大田区,南千束２丁目２０番１８号,,13,111,1450063,,,,,,,2025-10-07,1,,,,,ダオエージェント,0
39,1010901058184,新規,0,2025-10-07,2025-10-07,株式会社２４６ＢＡＳＥ,,株式会社,東京都,世田谷区,池尻３丁目３０番２０号,,13,112,1540001,,,,,,,2025-10-07,1,,,,,ニーヨンロクベース,0
43,1010903010317,新規,0,2025-10-07,2025-10-07,Ｓｔｕｄｉｏ　Ｓｔｉｌｌｎｅｓｓ合同会社,,合同会社,東京都,世田谷区,赤堤４丁目４３番５号サン赤堤３０２,,13,112,1560044,,,,,,,2025-10-07,1,,,,,スタジオスティルネス,0
44,1010905004853,新規,0,2025-10-07,2025-10-07,医療法人社団櫻縁会,,その他の設立登記法人,東京都,世田谷区,奥沢２丁目１４番３号パークガーデン１階店舗Ａ,,13,112,1580083,,,,,,,2025-10-07,1,,,,,オウエンカイ,0
47,1011001172272,新規,0,2025-10-07,2025-10-07,株式会社ｏｖｅｒｄｒｉｖｅ,,株式会社,東京都,渋谷区,東２丁目２４番３号長嶋ビル５Ｆ,,13,113,1500011,,,,,,,2025-10-07,1,,,,,オーバードライブ,0
48,1011001172306,新規,0,2025-10-07,2025-10-07,株式会社ＲＢ　Ｊａｐａｎ,,株式会社,東京都,渋谷区,神宮前３丁目３５番１号ＣＯＲＴＩＳ神宮前１Ｆ,,13,113,1500001,,,,,,,2025-10-07,1,,,,,アールビージャパン,0
49,1011001172487,新規,0,2025-10-07,2025-10-07,株式会社ブルーフィールド,,株式会社,東京都,目黒区,原町２丁目２４番地３,,13,110,1520011,,,,,,,2025-10-07,1,,,,,ブルーフィールド,0
50,1011001172520,新規,0,2025-10-07,2025-10-07,株式会社フロース,,株式会社,東京都,渋谷区,渋谷２丁目２番４号青山アルコーブ７０１,,13,113,1500002,,,,,,,2025-10-07,1,,,,,フロース,0
51,1011001172966,新規,0,2025-10-07,2025-10-07,株式会社ＩＣ,,株式会社,東京都,目黒区,鷹番２丁目１８番１６号シャレー学芸大カワベ第２１－１０３,,13,110,1520004,,,,,,,2025-10-07,1,,,,,アイシー,0
52,1011001173007,新規,0,2025-10-07,2025-10-07,株式会社エモライズ,,株式会社,東京都,目黒区,青葉台１丁目９番６号,,13,110,1530042,,,,,,,2025-10-07,1,,,,,エモライズ,0
64,1011303005741,新規,0,2025-10-07,2025-10-07,合同会社Ｙ．Ｘ．Ｌ,,合同会社,東京都,杉並区,高円寺南１丁目２５番２０－１０号,,13,115,1660003,,,,,,,2025-10-07,1,,,,,ワイエックスエル,0
66,1011501032653,新規,0,2025-10-07,2025-10-07,株式会社サンリズンベンチャーズ,,株式会社,東京都,荒川区,西日暮里１丁目６２番５－２１２号,,13,118,1160013,,,,,,,2025-10-07,1,,,,,サンリズンベンチャーズ,0
67,1011701028807,新規,0,2025-10-07,2025-10-07,ゼンザイ株式会社,,株式会社,東京都,江戸川区,東小岩５丁目３７番１２号楽新ビル２０６号室,,13,123,1330052,,,,,,,2025-10-07,1,,,,,ゼンザイ,0
68,1011703004418,新規,0,2025-10-07,2025-10-07,合同会社Ｓ＆Ｈ,,合同会社,東京都,江戸川区,大杉１丁目１１番６号,,13,123,1320022,,,,,,,2025-10-07,1,,,,,エスアンドエイチ,0
70,1011801046774,新規,0,2025-10-07,2025-10-07,合興株式会社,,株式会社,東京都,足立区,江北３丁目２９番２号１Ａ,,13,121,1230872,,,,,,,2025-10-07,1,,,,,ゴウコウ,0
71,1011803007130,新規,0,2025-10-07,2025-10-07,ないとうこうぎょう合同会社,,合同会社,東京都,足立区,新田３丁目３７番１１－５２６,,13,121,1230865,,,,,,,2025-10-07,1,,,,,ナイトウコウギョウ,0
73,1012703003384,新規,0,2025-10-07,2025-10-07,合同会社木村設備,,合同会社,東京都,清瀬市,野塩３丁目３番地１,,13,221,2040004,,,,,,,2025-10-07,1,,,,,キムラセツビ,0
74,1012801024290,新規,0,2025-10-07,2025-10-07,株式会社きょうや,,株式会社,東京都,国立市,富士見台２丁目１９番地の８,,13,215,1860003,,,,,,,2025-10-07,1,,,,,キョウヤ,0
85,1013301055108,新規,0,2025-10-07,2025-10-07,株式会社ｏｌａ　ｗｏｒｋｓ,,株式会社,東京都,豊島区,東池袋１丁目３４番５号いちご東池袋ビル６階,,13,116,1700013,,,,,,,2025-10-07,1,,,,,オラワークス,0
87,1013303007882,新規,0,2025-10-07,2025-10-07,Ｍａ　Ｃｈａｗ　Ｐｏｈ合同会社,,合同会社,東京都,豊島区,南大塚３丁目６番９－１１１号,,13,116,1700005,,,,,,,2025-10-07,1,,,,,マチャポ,0
88,1013303007908,新規,0,2025-10-07,2025-10-07,合同会社我ら何者,,合同会社,東京都,豊島区,南大塚１丁目６０番２０号,,13,116,1700005,,,,,,,2025-10-07,1,,,,,ワレラナニモノ,0
91,1020003029447,新規,0,2025-10-07,2025-10-07,合同会社ＮＡＭＩ,,合同会社,神奈川県,川崎市川崎区,榎町１番１８－４０１号セントラルハイツ,,14,131,2100002,,,,,,,2025-10-07,1,,,,,ナミ,0
92,1020003029570,新規,0,2025-10-07,2025-10-07,ＧＡＣ合同会社,,合同会社,神奈川県,横浜市旭区,今宿町２５６７－１５,,14,112,2410813,,,,,,,2025-10-07,1,,,,,ジーエーシー,0
93,1021001086496,新規,0,2025-10-07,2025-10-07,株式会社Ｊｕｌｉｅｖｅ,,株式会社,神奈川県,平塚市,明石町１６番１８号ライオンズマンション平塚明石町１０１号,,14,203,2540042,,,,,,,2025-10-07,1,,,,,ジュリーブ,0
94,1021001086505,新規,0,2025-10-07,2025-10-07,稲岡ホールディングス株式会社,,株式会社,神奈川県,茅ヶ崎市,高田４丁目４番５号,,14,207,2530002,,,,,,,2025-10-07,1,,,,,イナオカホールディングス,0
96,1021003016641,新規,0,2025-10-07,2025-10-07,ＮＡＭ　ＨＯＡＮＧ　ＳＮＥＡＫＥＲ合同会社,,合同会社,神奈川県,相模原市南区,御園１丁目８番１号御園タウンハウスＣ－１号,,14,153,2520317,,,,,,,2025-10-07,1,,,,,ナンホアンスニーカー,0
100,1030001169021,新規,0,2025-10-07,2025-10-07,株式会社ティーエムグローバルマネージメント,,株式会社,埼玉県,さいたま市南区,文蔵５丁目７番４－１号,,11,108,3360025,,,,,,,2025-10-07,1,,,,,ティーエムグローバルマネージメント,0
101,1030001169079,新規,0,2025-10-07,2025-10-07,エムレホーム株式会社,,株式会社,埼玉県,川越市,大字的場２２３１番地１,,11,201,3501101,,,,,,,2025-10-07,1,,,,,エムレホーム,0
105,1040001140773,新規,0,2025-10-07,2025-10-07,株式会社雅,,株式会社,千葉県,市川市,香取１丁目８番２２号,,12,203,2720141,,,,,,,2025-10-07,1,,,,,ミヤビ,0
106,1040001140781,新規,0,2025-10-07,2025-10-07,株式会社チムタム,,株式会社,千葉県,柏市,柏の葉２丁目１３番地１１,,12,217,2770882,,,,,,,2025-10-07,1,,,,,チムタム,0
107,1040001140856,新規,0,2025-10-07,2025-10-07,アーキネクスト株式会社一級建築士事務所,,株式会社,千葉県,千葉市花見川区,幕張町３丁目１４６８番地３,,12,102,2620032,,,,,,,2025-10-07,1,,,,,アーキネクストイッキュウケンチクシジムショ,0
110,1040003028711,新規,0,2025-10-07,2025-10-07,Ｓ＆Ｓ合同会社,,合同会社,千葉県,山武市,大木４７３番地１,,12,237,2891211,,,,,,,2025-10-07,1,,,,,エスアンドエス,0
114,1050001057406,新規,0,2025-10-07,2025-10-07,赤山株式会社,,株式会社,茨城県,筑西市,桑山９９９番地１,,08,227,3091127,,,,,,,2025-10-07,1,,,,,アカヤマ,0
116,1050003009660,新規,0,2025-10-07,2025-10-07,東京壁掛けテレビ便利屋専合同会社,,合同会社,茨城県,水戸市,泉町２丁目２番３３号水戸泉町ビル７階,,08,201,3100026,,,,,,,2025-10-07,1,,,,,トウキョウカベカケテレビベンリヤセン,0
121,1070001043412,新規,0,2025-10-07,2025-10-07,ビルドコンサルティング株式会社,,株式会社,群馬県,高崎市,緑町１丁目２３番地９,,10,202,3700073,,,,,,,2025-10-07,1,,,,,ビルドコンサルティング,0
122,1070001043420,新規,0,2025-10-07,2025-10-07,Ｐａｗ　Ｔｅｃｈ株式会社,,株式会社,群馬県,前橋市,天川原町１丁目２番地１８クレストビル２Ｆ,,10,201,3710803,,,,,,,2025-10-07,1,,,,,ポーテック,0
124,1070003006136,新規,0,2025-10-07,2025-10-07,合同会社うみうしワークス,,合同会社,群馬県,桐生市,宮本町２丁目５番１８号,,10,203,3760056,,,,,,,2025-10-07,1,,,,,ウミウシワークス,0
126,1080101025813,新規,0,2025-10-07,2025-10-07,株式会社ｅｎｉｃｈｉ,,株式会社,静岡県,駿東郡長泉町,下土狩２０９番地の２エンブルデアーナ三島駅１００２,,22,342,4110943,,,,,,,2025-10-07,1,,,,,エンイチ,0
131,1080403005356,新規,0,2025-10-07,2025-10-07,合同会社陽,,合同会社,静岡県,浜松市中央区,楊子町５００番地の２,,22,138,4300855,,,,,,,2025-10-07,1,,,,,ヨウ,0
133,1100001038994,新規,0,2025-10-07,2025-10-07,株式会社ＲＵＳＴＩＣ　ＷＥＤＤＩＮＧ,,株式会社,長野県,北佐久郡軽井沢町,大字長倉２６８１番地,,20,321,3890111,,,,,,,2025-10-07,1,,,,,ラスティックウェディング,0
137,1100003008426,新規,0,2025-10-07,2025-10-07,ＡＮＵＫＵＬ８８４８合同会社,,合同会社,長野県,駒ヶ根市,赤穂１０８７１番地１－１階,,20,210,3994117,,,,,,,2025-10-07,1,,,,,アヌクルハチハチヨンハチ,0
138,1110001039612,新規,0,2025-10-07,2025-10-07,株式会社アルクス,,株式会社,新潟県,新潟市中央区,高美町６番３０号,,15,103,9501147,,,,,,,2025-10-07,1,,,,,アルクス,0
139,1110001039629,新規,0,2025-10-07,2025-10-07,株式会社エー・アール・ケー,,株式会社,新潟県,上越市,新町１番地,,15,222,9430822,,,,,,,2025-10-07,1,,,,,エーアールケー,0
153,1120001280272,新規,0,2025-10-07,2025-10-07,株式会社ファインドベア,,株式会社,大阪府,大阪市天王寺区,味原町１３番９号サンエイ下味原第二ビル３Ｆ,,27,109,5430023,,,,,,,2025-10-07,1,,,,,ファインドベア,0
154,1120001280371,新規,0,2025-10-07,2025-10-07,深序科技株式会社,,株式会社,大阪府,大阪市東住吉区,湯里５丁目１６番地５号２Ｆ－Ｊ,,27,121,5460013,,,,,,,2025-10-07,1,,,,,シンジョカギ,0
155,1120001280504,新規,0,2025-10-07,2025-10-07,軽＿株式会社,00140970,株式会社,大阪府,大阪市生野区,巽北２丁目１０番２１－５０２号,00140971,27,116,5440004,,,,,,,2025-10-07,1,,,,,ケイヨウ,0
156,1120001280529,新規,0,2025-10-07,2025-10-07,漢森国際株式会社,,株式会社,大阪府,大阪市天王寺区,悲田院町４－３９－５０７号室,,27,109,5430055,,,,,,,2025-10-07,1,,,,,カンシンコクサイ,0
157,1120001280586,新規,0,2025-10-07,2025-10-07,助の人株式会社,,株式会社,大阪府,大阪市東住吉区,湯里５丁目１６番地５号２Ｆ－Ｅ,,27,121,5460013,,,,,,,2025-10-07,1,,,,,スケノヒト,0
158,1120001280677,新規,0,2025-10-07,2025-10-07,株式会社ビルシップ,,株式会社,大阪府,大阪市中央区,高麗橋３丁目２番７号,,27,128,5410043,,,,,,,2025-10-07,1,,,,,ビルシップ,0
159,1120001280702,新規,0,2025-10-07,2025-10-07,株式会社マルカ建機,,株式会社,大阪府,大阪市中央区,南新町１丁目２番１０号,,27,128,5400024,,,,,,,2025-10-07,1,,,,,マルカケンキ,0
160,1120001280776,新規,0,2025-10-07,2025-10-07,清柏商事株式会社,,株式会社,大阪府,大阪市西成区,松３丁目１１番２２－１０７号,,27,122,5570034,,,,,,,2025-10-07,1,,,,,セイハクショウジ,0
167,1120003030576,新規,0,2025-10-07,2025-10-07,ペイフォワード合同会社,,合同会社,大阪府,大阪市中央区,南本町２丁目５－１３－１７０４,,27,128,5410054,,,,,,,2025-10-07,1,,,,,ペイフォワード,0
170,1120101072578,新規,0,2025-10-07,2025-10-07,株式会社ライフデザインアーク,,株式会社,大阪府,堺市南区,若松台３丁７番１４号,,27,145,5900116,,,,,,,2025-10-07,1,,,,,ライフデザインアーク,0
171,1120101072586,新規,0,2025-10-07,2025-10-07,株式会社Ｂｉｉ,,株式会社,大阪府,松原市,小川４丁目５番２号,,27,217,5800002,,,,,,,2025-10-07,1,,,,,ビー,0
172,1120101072594,新規,0,2025-10-07,2025-10-07,株式会社ｃｈｅｅｒ　ｕｐ,,株式会社,大阪府,堺市北区,北花田町３丁２８番地１８,,27,146,5918002,,,,,,,2025-10-07,1,,,,,チアーアップ,0
177,1122001039707,新規,0,2025-10-07,2025-10-07,株式会社ＮｅｏＴｅｃｈ,,株式会社,大阪府,東大阪市,小阪２丁目１０－２８プレアール小阪３Ａ,,27,227,5770801,,,,,,,2025-10-07,1,,,,,ネオテック,0
185,1130001080696,新規,0,2025-10-07,2025-10-07,株式会社ブリラントワン,,株式会社,京都府,京都市下京区,柿本町５９４－４１山善ビル１階,,26,106,6008357,,,,,,,2025-10-07,1,,,,,ブリラントワン,0
186,1130001080705,新規,0,2025-10-07,2025-10-07,ＭＫＦ株式会社,,株式会社,京都府,舞鶴市,字朝代１７番地,,26,202,6240842,,,,,,,2025-10-07,1,,,,,エムケイエフ,0
187,1130001080713,新規,0,2025-10-07,2025-10-07,株式会社童東園,,株式会社,京都府,相楽郡南山城村,大字童仙房小字道宣２１番地,,26,367,6191401,,,,,,,2025-10-07,1,,,,,ドウトウエン,0
188,1130001080721,新規,0,2025-10-07,2025-10-07,株式会社葵,,株式会社,京都府,京都市東山区,古門前通東大路西入上る高畑町６０１番地,,26,105,6050017,,,,,,,2025-10-07,1,,,,,アオイ,0
201,1140003022654,新規,0,2025-10-07,2025-10-07,合同会社クオッカ,,合同会社,兵庫県,淡路市,郡家７２－８泉４４,,28,226,6561511,,,,,,,2025-10-07,1,,,,,クオッカ,0
202,1140003022695,新規,0,2025-10-07,2025-10-07,合同会社ニビアリ,,合同会社,兵庫県,神戸市北区,有野台２丁目９番地公社５－５０４,,28,109,6511321,,,,,,,2025-10-07,1,,,,,ニビアリ,0
209,1150001028446,新規,0,2025-10-07,2025-10-07,国際販売株式会社,,株式会社,奈良県,奈良市,帝塚山６丁目３－２０２,,29,201,6310062,,,,,,,2025-10-07,1,,,,,コクサイハンバイ,0
210,1150001028454,新規,0,2025-10-07,2025-10-07,株式会社ＲｅＦｏｒｔｅ,,株式会社,奈良県,生駒市,俵口町２２３番地１,,29,209,6300243,,,,,,,2025-10-07,1,,,,,リフォルテ,0
211,1160001027075,新規,0,2025-10-07,2025-10-07,株式会社ルーエ,,株式会社,滋賀県,大津市,和邇高城１９２番地の１８４,,25,201,5200528,,,,,,,2025-10-07,1,,,,,ルーエ,0
220,1180001168850,新規,0,2025-10-07,2025-10-07,株式会社ＦＵＫＵＲＡ．ＦＵＫＵＲＡ,,株式会社,愛知県,名古屋市中村区,名駅３丁目４番１０号アルティメイト名駅１ｓｔ２階,,23,105,4500002,,,,,,,2025-10-07,1,,,,,フクラフクラ,0
221,1180001168891,新規,0,2025-10-07,2025-10-07,株式会社ＦＬＥＵＲ,,株式会社,愛知県,長久手市,喜婦嶽１０９番地,,23,238,4801117,,,,,,,2025-10-07,1,,,,,フルール,0
222,1180001168925,新規,0,2025-10-07,2025-10-07,タカサカロジ株式会社,,株式会社,愛知県,西春日井郡豊山町,大字豊場字八反１０７番地,,23,342,4800202,,,,,,,2025-10-07,1,,,,,タカサカロジ,0
223,1180001168958,新規,0,2025-10-07,2025-10-07,株式会社国保不動産,,株式会社,愛知県,小牧市,小牧３丁目１６２番地,,23,219,4850041,,,,,,,2025-10-07,1,,,,,コクボフドウサン,0
227,1180003029167,新規,0,2025-10-07,2025-10-07,合同会社友輝工業,,合同会社,愛知県,瀬戸市,西米泉町１８番地の１,,23,204,4890943,,,,,,,2025-10-07,1,,,,,ユウキコウギョウ,0
228,1180005021262,新規,0,2025-10-07,2025-10-07,税理士法人ＰＲＩＯＲＩＴＹ,,その他の設立登記法人,愛知県,名古屋市中区,栄４丁目１番１号中日ビル１２階,,23,106,4600008,,,,,,,2025-10-07,1,,,,,プライオリティ,0
230,1180301040288,新規,0,2025-10-07,2025-10-07,アツミモビリティサービス株式会社,,株式会社,愛知県,田原市,谷熊町平三１番地１,,23,231,4413412,,,,,,,2025-10-07,1,,,,,アツミモビリティサービス,0
232,1190001032568,新規,0,2025-10-07,2025-10-07,株式会社あまのと,,株式会社,三重県,津市,丸之内養正町７－３山田ビル５０１号,,24,201,5140036,,,,,,,2025-10-07,1,,,,,アマノト,0
233,1190001032584,新規,0,2025-10-07,2025-10-07,株式会社鈴木芳喜堂,,株式会社,三重県,津市,雲出長常町１１１８番地３,,24,201,5140303,,,,,,,2025-10-07,1,,,,,スズキホウキドウ,0
239,1200003007079,新規,0,2025-10-07,2025-10-07,ＡＧ　Ｔｒａｄｉｎｇ合同会社,,合同会社,岐阜県,岐阜市,鏡島西３丁目１－３６サンテラス１０５,,21,201,5010123,,,,,,,2025-10-07,1,,,,,エイジートレーディング,0
241,1210001020330,新規,0,2025-10-07,2025-10-07,株式会社ツカサファーストホールディングス,,株式会社,福井県,越前市,平出３丁目１９番２０号,,18,209,9150803,,,,,,,2025-10-07,1,,,,,ツカサファーストホールディングス,0
242,1210001020347,新規,0,2025-10-07,2025-10-07,株式会社美緑,,株式会社,福井県,坂井市,丸岡町八ツ口第１号１番地１,,18,210,9100371,,,,,,,2025-10-07,1,,,,,ミリョク,0
254,1280001009524,新規,0,2025-10-07,2025-10-07,株式会社蔵本笑店,,株式会社,島根県,安来市,安来町１７９３番地,,32,206,6920011,,,,,,,2025-10-07,1,,,,,クラモトショウテン,0
256,1290001111725,新規,0,2025-10-07,2025-10-07,エバーフーズクリエイト株式会社,,株式会社,福岡県,福岡市西区,拾六町１丁目１２番１５－４０２号,,40,135,8190041,,,,,,,2025-10-07,1,,,,,エバーフーズクリエイト,0
258,1290003017482,新規,0,2025-10-07,2025-10-07,合同会社ＲＥＺＡＴＲＡＤＩＮＧ,,合同会社,福岡県,宗像市,王丸１１０８番地１,,40,220,8113422,,,,,,,2025-10-07,1,,,,,リザトレーディング,0
259,1290003017508,新規,0,2025-10-07,2025-10-07,合同会社ＩＬ,,合同会社,福岡県,福岡市博多区,博多駅前１丁目２３番２号ＰａｒｋＦｒｏｎｔ博多駅前一丁目５Ｆ－Ｂ,,40,132,8120011,,,,,,,2025-10-07,1,,,,,アイエル,0
260,1290003017532,新規,0,2025-10-07,2025-10-07,匠合同会社,,合同会社,福岡県,福岡市中央区,赤坂３丁目１３番３号,,40,133,8100042,,,,,,,2025-10-07,1,,,,,タクミ,0
264,1290801031899,新規,0,2025-10-07,2025-10-07,株式会社エイト,,株式会社,福岡県,北九州市小倉南区,八重洲町１１番８号,,40,107,8020831,,,,,,,2025-10-07,1,,,,,エイト,0
265,1290801031924,新規,0,2025-10-07,2025-10-07,ｋａｚｕｔｅｃｈ株式会社,,株式会社,福岡県,北九州市戸畑区,丸町２丁目６番３６号,,40,105,8040052,,,,,,,2025-10-07,1,,,,,カズテック,0
266,1290803005174,新規,0,2025-10-07,2025-10-07,合同会社Ｎｅｘｔ　Ｇｅｎｅｒａｔｉｏｎ,,合同会社,福岡県,築上郡吉富町,大字鈴熊２７番地３,,40,642,8710832,,,,,,,2025-10-07,1,,,,,ネクストジェネレーション,0
272,1350001019747,新規,0,2025-10-07,2025-10-07,金石水素株式会社,,株式会社,宮崎県,小林市,細野１８８６番地３,,45,205,8860004,,,,,,,2025-10-07,1,,,,,カネイシスイソ,0
273,1350001019755,新規,0,2025-10-07,2025-10-07,株式会社ニュースポート,,株式会社,宮崎県,小林市,本町１５番地,,45,205,8860008,,,,,,,2025-10-07,1,,,,,ニュースポート,0
274,1350005006337,新規,0,2025-10-07,2025-10-07,一般財団法人柊崎記念財団,,その他の設立登記法人,宮崎県,小林市,細野３３４番地,,45,205,8860004,,,,,,,2025-10-07,1,,,,,フキザキキネンザイダン,0
279,1360001035850,新規,0,2025-10-07,2025-10-07,Ａｏ　Ｒｅｓｏｒｔ株式会社,,株式会社,沖縄県,宜野湾市,字佐真下８１番地１,,47,205,9012216,,,,,,,2025-10-07,1,,,,,アオリゾート,0
281,1360003015306,新規,0,2025-10-07,2025-10-07,合同会社ＮＡＦジャパン,,合同会社,沖縄県,中頭郡西原町,上原２丁目２７番地の４,,47,329,9030125,,,,,,,2025-10-07,1,,,,,ナフジャパン,0
283,1370001053109,新規,0,2025-10-07,2025-10-07,株式会社陽実,,株式会社,宮城県,仙台市若林区,大和町１丁目１９番３号,,04,103,9840042,,,,,,,2025-10-07,1,,,,,ヨウジツ,0
294,1410001014287,新規,0,2025-10-07,2025-10-07,株式会社トレンタホールディングス,,株式会社,秋田県,大仙市,東川字屋敷後１８９番地２,,05,212,0140032,,,,,,,2025-10-07,1,,,,,トレンタホールディングス,0
298,1430003018136,新規,0,2025-10-07,2025-10-07,合同会社エイド,,合同会社,北海道,札幌市豊平区,月寒西一条６丁目１－２２－１０３,,01,105,0620021,,,,,,,2025-10-07,1,,,,,エイド,0
302,1470001020924,新規,0,2025-10-07,2025-10-07,株式会社Ｌｅｇａｃｙ　ｏｆ　ｌｉｆｅ,,株式会社,香川県,高松市,円座町３９５番地３,,37,201,7618044,,,,,,,2025-10-07,1,,,,,,0
309,1500005008821,新規,0,2025-10-07,2025-10-07,ＮＰＯ法人市之川鉱山の未来を考える会,,その他の設立登記法人,愛媛県,西条市,大町１１５９番地,,38,206,7930030,,,,,,,2025-10-07,1,,,,,イチノカワコウザンノミライヲカンガエルカイ,0
313,1700150132439,新規,0,2025-10-07,2025-10-07,ＳＨＡＨ　ＴＲＡＤＩＮＧ　ＰＲＩＶＡＴＥ　ＬＩＭＩＴＥＤ,,外国会社等,千葉県,大網白里市,細草３１７４番地８,,12,239,2993211,スリランカ民主社会主義共和国、キャンディ、アクラナ、テルンブガハワッタ、Ｎｏ．２１８／Ａ,,,,,,2025-10-07,1,,,,,シヤトレーデイングプライベートリミテツド,0
314,1700150132447,新規,0,2025-10-07,2025-10-07,株式会社ホマック,,外国会社等,大阪府,大阪市中央区,日本橋２丁目２番３－３０３号,,27,128,5420073,大韓民国慶尚南道梁山市グリーン工団２街２８番２２号（梅谷洞）,,,,,,2025-10-07,1,,,,,カブシキガイシヤホマツク,0
315,1700150132455,新規,0,2025-10-07,2025-10-07,ｑｕａｎｚｈｏｕｚｅｃａｎｋｅｊｉｙｏｕｘｉａｎｇｏｎｇｓｉ,,外国会社等,,,,,,,,Ｎｏ．８６，Ｄａｆａｎｇ，Ｔａｎｂｉａｎ　Ｖｉｌｌａｇｅ，Ｌｅｆｅｎｇ　Ｔｏｗｎ，Ｎａｎａｎ　Ｃｉｔｙ，Ｑｕａｎｚｈｏｕ　Ｃｉｔｙ，Ｆｕｊｉａｎ　Ｐｒｏｖｉｎｃｅ,,,,,,2025-10-07,1,,,,,チュエンジョウゾーツァンコージーヨウシエンゴンスー,0
322,2010001258997,新規,0,2025-10-07,2025-10-07,株式会社Ｌｕｎａ,,株式会社,東京都,千代田区,五番町１２－７－２０４３,,13,101,1020076,,,,,,,2025-10-07,1,,,,,ルナ,0
323,2010001259145,新規,0,2025-10-07,2025-10-07,ＧＧＧ株式会社,,株式会社,東京都,中央区,銀座１丁目１２－４Ｎ＆ＥＢＬＤ．７Ｆ,,13,102,1040061,,,,,,,2025-10-07,1,,,,,ジージージー,0
324,2010001259203,新規,0,2025-10-07,2025-10-07,株式会社Ｓｔｒａｔｕｓ,,株式会社,東京都,千代田区,内幸町２丁目１番６号,,13,101,1000011,,,,,,,2025-10-07,1,,,,,ストラタス,0
328,2010003048926,新規,0,2025-10-07,2025-10-07,ＲＡＫＵＴＥＮ　ＥＮＥＲＧＹ合同会社,,合同会社,東京都,千代田区,神田司町２丁目１０番４Ｏｒｉｚｚｏｎｔｅ１００１号,,13,101,1010048,,,,,,,2025-10-07,1,,,,,ラクテンエナジー,0
339,2010401193324,新規,0,2025-10-07,2025-10-07,梦核文化株式会社,,株式会社,東京都,港区,芝浦４丁目１５番１号１３０６室,,13,103,1080023,,,,,,,2025-10-07,1,,,,,ムカクブンカ,0
344,2010405024863,新規,0,2025-10-07,2025-10-07,大雪山一般社団法人,,その他の設立登記法人,東京都,港区,六本木１丁目６番１号泉ガーデンタワーＫＰＭＧ税理士法人内,,13,103,1060032,,,,,,,2025-10-07,1,,,,,タイセツザン,0
345,2010501054822,新規,0,2025-10-07,2025-10-07,株式会社センク,,株式会社,東京都,台東区,西浅草２丁目２番４－１１０３号ＡＩＦＬＡＴＮＩＳＨＩＡＳＡＫＵＳＡ,,13,106,1110035,,,,,,,2025-10-07,1,,,,,センク,0
347,2010601068078,新規,0,2025-10-07,2025-10-07,株式会社三和箔押所,,株式会社,東京都,墨田区,立川１丁目７番９号,,13,107,1300023,,,,,,,2025-10-07,1,,,,,サンワハクオシショ,0
351,2010803005556,新規,0,2025-10-07,2025-10-07,タカラプラン合同会社,,合同会社,東京都,大田区,北千束３丁目１６番７号ブラッサム・コーポ１０２,,13,111,1450062,,,,,,,2025-10-07,1,,,,,タカラプラン,0
353,2010901058183,新規,0,2025-10-07,2025-10-07,ビギニングキャリア株式会社,,株式会社,東京都,世田谷区,上北沢５丁目２５番９号,,13,112,1560057,,,,,,,2025-10-07,1,,,,,ビギニングキャリア,0
354,2010901058191,新規,0,2025-10-07,2025-10-07,Ａｗｅｓｏｍｅ企画株式会社,,株式会社,東京都,世田谷区,野沢１丁目３５番５,,13,112,1540003,,,,,,,2025-10-07,1,,,,,オーサムキカク,0
355,2010903010299,新規,0,2025-10-07,2025-10-07,Ｓｏｃｉａｌ　Ｍａｉｋｋａ合同会社,,合同会社,東京都,世田谷区,鎌田２丁目３番１号,,13,112,1570077,,,,,,,2025-10-07,1,,,,,ソーシャルマイッカ,0
356,2010905004852,新規,0,2025-10-07,2025-10-07,医療法人社団凜千会,,その他の設立登記法人,東京都,世田谷区,南烏山６丁目４番７号プラザ六番館１階,,13,112,1570062,,,,,,,2025-10-07,1,,,,,リンセンカイ,0
361,2011001172057,新規,0,2025-10-07,2025-10-07,株式会社Ｂｌｏｏｍ　Ｂｒｉｇｈｔ　Ｂｅａｕｔｙ,,株式会社,東京都,渋谷区,道玄坂１丁目１０番８号渋谷道玄坂東急ビル２Ｆ－Ｃ,,13,113,1500043,,,,,,,2025-10-07,1,,,,,ブルームブライトビューティー,0
362,2011001172354,新規,0,2025-10-07,2025-10-07,株式会社Ｅｙｅｌｉｔ,,株式会社,東京都,渋谷区,神宮前３丁目１９番７号ＳｅｄｏｎａＪｉｎｇｕｍａｅ３０２,,13,113,1500001,,,,,,,2025-10-07,1,,,,,アイリット,0
363,2011001172379,新規,0,2025-10-07,2025-10-07,株式会社ＳＢＹ,,株式会社,東京都,渋谷区,円山町５番３号ＭＩＥＵＸ渋谷ビル８階,,13,113,1500044,,,,,,,2025-10-07,1,,,,,エスビーワイ,0
364,2011001172420,新規,0,2025-10-07,2025-10-07,株式会社Ｂｒｅｗｌｅｘ,,株式会社,東京都,渋谷区,恵比寿西２丁目４番８号ウィンド恵比寿ビル８Ｆ,,13,113,1500021,,,,,,,2025-10-07,1,,,,,ブリューレックス,0
365,2011001172437,新規,0,2025-10-07,2025-10-07,株式会社Ｎａｃｏ,,株式会社,東京都,渋谷区,道玄坂１丁目１０番８号渋谷道玄坂東急ビル２Ｆ－Ｃ,,13,113,1500043,,,,,,,2025-10-07,1,,,,,ナコ,0
377,2011401027471,新規,0,2025-10-07,2025-10-07,ターミナルワーク株式会社,,株式会社,東京都,板橋区,蓮根２丁目２７番１２号古谷野ビル３階,,13,119,1740046,,,,,,,2025-10-07,1,,,,,ターミナルワーク,0
379,2011601029029,新規,0,2025-10-07,2025-10-07,株式会社おたかや,,株式会社,東京都,練馬区,石神井町８丁目３０番１８号,,13,120,1770041,,,,,,,2025-10-07,1,,,,,オタカヤ,0
382,2011701028789,新規,0,2025-10-07,2025-10-07,株式会社ティケイトラベルジャパン,,株式会社,東京都,江戸川区,西篠崎２丁目２０番１６号グランドール西篠崎１０１,,13,123,1330055,,,,,,,2025-10-07,1,,,,,ティケイトラベルジャパン,0
383,2011701028806,新規,0,2025-10-07,2025-10-07,株式会社ラガマフィン,,株式会社,東京都,江戸川区,中央２丁目２３番６号マンション・ライトコート２Ｂ,,13,123,1320021,,,,,,,2025-10-07,1,,,,,ラガマフィン,0
384,2011701028822,新規,0,2025-10-07,2025-10-07,株式会社Ｌａａｕ　Ｂｅｌｅ,,株式会社,東京都,江戸川区,鹿骨１丁目３８番１６－１０４号,,13,123,1330073,,,,,,,2025-10-07,1,,,,,ラアウベル,0
387,2011801046856,新規,0,2025-10-07,2025-10-07,株式会社ユリオン,,株式会社,東京都,足立区,西新井本町２丁目１３番１４号,,13,121,1230845,,,,,,,2025-10-07,1,,,,,ユリオン,0
388,2011801046864,新規,0,2025-10-07,2025-10-07,Ｎｅｏ　Ｃｌａｓｓｉｃ株式会社,,株式会社,東京都,足立区,江北１丁目３３番６号,,13,121,1230872,,,,,,,2025-10-07,1,,,,,ネオクラシック,0
389,2011801046897,新規,0,2025-10-07,2025-10-07,株式会社グリーンライトワークス,,株式会社,東京都,足立区,梅田８丁目１４番２－１１３６号,,13,121,1230851,,,,,,,2025-10-07,1,,,,,グリーンライトワークス,0
393,2011803007121,新規,0,2025-10-07,2025-10-07,ａｎｄ　Ｓｔｏｒｙ合同会社,,合同会社,東京都,足立区,千住龍田町５番１０号,,13,121,1200042,,,,,,,2025-10-07,1,,,,,アンドストーリー,0
401,2012703003383,新規,0,2025-10-07,2025-10-07,合同会社晃栄設備,,合同会社,東京都,小平市,小川町１丁目７５番地の４シティーコーポパルナス東大和２０５号,,13,211,1870032,,,,,,,2025-10-07,1,,,,,コウエイセツビ,0
402,2012705002482,新規,0,2025-10-07,2025-10-07,一般社団法人好きを形にする・好きを仕事にする協会,,その他の設立登記法人,東京都,東久留米市,幸町５丁目６番９号,,13,222,2030052,,,,,,,2025-10-07,1,,,,,スキヲカタチニスルスキヲシゴトニスルキョウカイ,0
403,2012803003894,新規,0,2025-10-07,2025-10-07,シナジーキャンプ合同会社,,合同会社,東京都,立川市,高松町１丁目３１－２２－１２１７,,13,202,1900011,,,,,,,2025-10-07,1,,,,,ジナジーキャンプ,0
406,2013301055081,新規,0,2025-10-07,2025-10-07,株式会社ＪＡＣＰＡ,,株式会社,東京都,豊島区,池袋３丁目３４番７号,,13,116,1710014,,,,,,,2025-10-07,1,,,,,ジェイエイシイピイエイ,0
407,2013301055115,新規,0,2025-10-07,2025-10-07,株式会社Ｓａｎｓｈｉｐａ,,株式会社,東京都,豊島区,東池袋２丁目６２番８号ＢＩＧオフィスプラザ池袋１２０６,,13,116,1700013,,,,,,,2025-10-07,1,,,,,サンシパ,0
411,2020001165227,新規,0,2025-10-07,2025-10-07,Ｓ‐Ｈ　Ｊａｐａｎ株式会社,,株式会社,神奈川県,横浜市中区,不老町１丁目６番地１１,,14,104,2310032,,,,,,,2025-10-07,1,,,,,エスエイチジャパン,0
414,2020003029446,新規,0,2025-10-07,2025-10-07,合同会社ステムアップ企画,,合同会社,神奈川県,横浜市西区,浅間町１丁目４番３号ウィザードビル４０２,,14,103,2200072,,,,,,,2025-10-07,1,,,,,ステムアップキカク,0
416,2021001086363,新規,0,2025-10-07,2025-10-07,ＳＨＡＮＴＩ株式会社,,株式会社,神奈川県,逗子市,逗子７丁目６番２９号さくらビル１Ｆ,,14,208,2490006,,,,,,,2025-10-07,1,,,,,シャンティ,0
417,2021001086421,新規,0,2025-10-07,2025-10-07,株式会社ＳＥＣＴＩＯＮ　Ｂｉｉ,,株式会社,神奈川県,伊勢原市,岡崎５０８０番地,,14,214,2591135,,,,,,,2025-10-07,1,,,,,セクションビー,0
418,2021001086438,新規,0,2025-10-07,2025-10-07,株式会社Ａｉｎａｙｏｕ,,株式会社,神奈川県,藤沢市,湘南台４丁目７番地の２エスタテラ湘南台オーシャンタワー４０２号,,14,205,2520804,,,,,,,2025-10-07,1,,,,,アイナユウ,0
419,2021001086462,新規,0,2025-10-07,2025-10-07,株式会社田邊建設,,株式会社,神奈川県,茅ヶ崎市,浜竹１丁目２番２５号メゾン潮風Ｉ－１０１,00140969,14,207,2530021,,,,,,,2025-10-07,1,,,,,タナベケンセツ,0
420,2021001086479,新規,0,2025-10-07,2025-10-07,ドラゴン商会株式会社,,株式会社,神奈川県,三浦郡葉山町,長柄３８８番地,,14,301,2400113,,,,,,,2025-10-07,1,,,,,ドラゴンショウカイ,0
421,2021001086487,新規,0,2025-10-07,2025-10-07,株式会社Ｓｕｍｉｃａｒｅ,,株式会社,神奈川県,平塚市,明石町１６番１８号,,14,203,2540042,,,,,,,2025-10-07,1,,,,,スミケア,0
422,2021001086520,新規,0,2025-10-07,2025-10-07,ＨＩＭＡＷＡＲＩ　ＢＤ株式会社,,株式会社,神奈川県,伊勢原市,高森１０９０番地１高森サンハイツ１０６,,14,214,2591114,,,,,,,2025-10-07,1,,,,,ヒマワリビーディー,0
425,2021003016657,新規,0,2025-10-07,2025-10-07,合同会社ＥＬＥＰＨＡＮＴ　ＨＯＵＳＥ,,合同会社,神奈川県,横須賀市,浦郷町２丁目３４番地５,,14,201,2370062,,,,,,,2025-10-07,1,,,,,エレファントハウス,0
429,2030001169004,新規,0,2025-10-07,2025-10-07,株式会社Ｃｅｌｅｓｔｅ,,株式会社,埼玉県,さいたま市浦和区,上木崎６丁目７番１５－２号,,11,107,3300071,,,,,,,2025-10-07,1,,,,,セレスト,0
430,2030001169012,新規,0,2025-10-07,2025-10-07,株式会社ＮＥＸＴ,,株式会社,埼玉県,川越市,今成１丁目１８番地２９,,11,201,3501105,,,,,,,2025-10-07,1,,,,,ネクスト,0
437,2040001140764,新規,0,2025-10-07,2025-10-07,株式会社フロントンマネジメント,,株式会社,千葉県,船橋市,葛飾町２丁目３４０番地,,12,204,2730032,,,,,,,2025-10-07,1,,,,,フロントンマネジメント,0
438,2040001140772,新規,0,2025-10-07,2025-10-07,オールリンクス株式会社,,株式会社,千葉県,木更津市,岩根３丁目１０番２７号,,12,206,2920061,,,,,,,2025-10-07,1,,,,,オールリンクス,0
439,2040001140780,新規,0,2025-10-07,2025-10-07,ＴＳ．Ａｓｓｏｃｉａｔｅ株式会社,,株式会社,千葉県,市原市,五井西５丁目８番地１エクセレントヴィラＩ１０１号室,00140964,12,219,2900038,,,,,,,2025-10-07,1,,,,,ティーエスアソシエイト,0
442,2050001057388,新規,0,2025-10-07,2025-10-07,株式会社コハク設備,,株式会社,茨城県,笠間市,旭町６２５番地１,,08,216,3091717,,,,,,,2025-10-07,1,,,,,コハクセツビ,0
443,2050001057405,新規,0,2025-10-07,2025-10-07,株式会社東商会つくば,,株式会社,茨城県,つくば市,島名４１８番地１,,08,220,3002655,,,,,,,2025-10-07,1,,,,,アズマショウカイツクバ,0
446,2060001038627,新規,0,2025-10-07,2025-10-07,株式会社大羽,,株式会社,栃木県,鹿沼市,茂呂３５２番地１ＰＯＲＴＥ、ＢＯＮＨＥＵＲ、Ａ１０６,,09,205,3220026,,,,,,,2025-10-07,1,,,,,オオハ,0
447,2060003005798,新規,0,2025-10-07,2025-10-07,ＰＬＵＳ５ＩＮＴＥＲＮＡＴＩＯＮＡＬ合同会社,,合同会社,栃木県,佐野市,朝日町８２８番地１あさひハイツ２３,,09,204,3270011,,,,,,,2025-10-07,1,,,,,プラスファイブインターナショナル,0
448,2070001043411,新規,0,2025-10-07,2025-10-07,株式会社ＫＡＮＭＡＳＵ,,株式会社,群馬県,高崎市,栄町３番１１号高崎バナーズビル３－５Ｆ,,10,202,3700841,,,,,,,2025-10-07,1,,,,,カンマス,0
449,2070001043428,新規,0,2025-10-07,2025-10-07,株式会社ＫＯＤパートナー,,株式会社,群馬県,桐生市,本町５丁目５１番地東武桐生ビル２階,,10,203,3760031,,,,,,,2025-10-07,1,,,,,ケーオーディーパートナー,0
453,2070003006135,新規,0,2025-10-07,2025-10-07,ＳＵＢＩＫ　ＥＮＴＥＲＰＲＩＳＥ合同会社,,合同会社,群馬県,前橋市,南町３丁目４１番地４アルタビル１Ｆ,,10,201,3710805,,,,,,,2025-10-07,1,,,,,スビキエンタープライズ,0
459,2090001019541,新規,0,2025-10-07,2025-10-07,株式会社零ｃｔ,,株式会社,山梨県,南都留郡山中湖村,平野３６６番地,,19,425,4010502,,,,,,,2025-10-07,1,,,,,カラット,0
479,2120001280313,新規,0,2025-10-07,2025-10-07,株式会社Ｕｒｂａｎ　Ｇｒｉｎｄ,,株式会社,大阪府,大阪市此花区,春日出南２丁目３番７－１０１号室,,27,104,5540023,,,,,,,2025-10-07,1,,,,,アーバングラインド,0
480,2120001280362,新規,0,2025-10-07,2025-10-07,桂寶株式会社,,株式会社,大阪府,大阪市中央区,難波千日前６－１２、２３号室,,27,128,5420075,,,,,,,2025-10-07,1,,,,,ケイホウ,0
481,2120001280370,新規,0,2025-10-07,2025-10-07,叢瀾株式会社,,株式会社,大阪府,大阪市東住吉区,鷹合４丁目２１番１６号１Ｆ－Ｆ,,27,121,5460014,,,,,,,2025-10-07,1,,,,,ソウラン,0
482,2120001280395,新規,0,2025-10-07,2025-10-07,株式会社ナインプランニング,,株式会社,大阪府,大阪市淀川区,加島４丁目１９番２４号サンエイビル２階,,27,123,5320031,,,,,,,2025-10-07,1,,,,,ナインプランニング,0
483,2120001280420,新規,0,2025-10-07,2025-10-07,ユナイトクリエイト株式会社,,株式会社,大阪府,大阪市北区,南森町２丁目２番１０号７Ｆ,,27,127,5300054,,,,,,,2025-10-07,1,,,,,ユナイトクリエイト,0
484,2120001280528,新規,0,2025-10-07,2025-10-07,世洋国際電子商務株式会社,,株式会社,大阪府,大阪市住吉区,遠里小野７丁目４－９,,27,120,5580032,,,,,,,2025-10-07,1,,,,,セヨウコクサイデンシショウム,0
485,2120001280569,新規,0,2025-10-07,2025-10-07,株式会社サンライズ難波,,株式会社,大阪府,大阪市港区,弁天４丁目１１番２０号オークＴＡＫＥＤＡ９階,,27,107,5520007,,,,,,,2025-10-07,1,,,,,サンライズナンバ,0
486,2120001280742,新規,0,2025-10-07,2025-10-07,株式会社Ｕｌｕｃｉａ　Ｇｒｏｕｐ,,株式会社,大阪府,大阪市北区,梅田１丁目２番２号大阪駅前第２ビル１２－１２,,27,127,5300001,,,,,,,2025-10-07,1,,,,,ウルシアグループ,0
487,2120001280809,新規,0,2025-10-07,2025-10-07,照臨株式会社,,株式会社,大阪府,大阪市東成区,中本５丁目１９番１４号Ｆ号室,,27,115,5370022,,,,,,,2025-10-07,1,,,,,ショウリン,0
489,2120003030872,新規,0,2025-10-07,2025-10-07,合同会社麗華,,合同会社,大阪府,大阪市東住吉区,北田辺６丁目１５－２５,,27,121,5460044,,,,,,,2025-10-07,1,,,,,レイカ,0
490,2120003030880,新規,0,2025-10-07,2025-10-07,合同会社Ｓｃｅｎｔ　ｏｆ　Ｏｓａｋａ,,合同会社,大阪府,大阪市都島区,友渕町１丁目５番１－１２０２号,,27,102,5340016,,,,,,,2025-10-07,1,,,,,セントオブオオサカ,0
491,2120103006772,新規,0,2025-10-07,2025-10-07,ＧＧ合同会社,,合同会社,大阪府,岸和田市,天神山町２丁目９番６号１０６号室,,27,202,5960834,,,,,,,2025-10-07,1,,,,,ジージー,0
494,2122003003338,新規,0,2025-10-07,2025-10-07,大阪坤若午合同会社,,合同会社,大阪府,東大阪市,日下町２丁目８番６１号,,27,227,5798003,,,,,,,2025-10-07,1,,,,,オオサカコンジャクゴ,0
497,2130001080695,新規,0,2025-10-07,2025-10-07,株式会社ソローノ,,株式会社,京都府,京都市中京区,町頭町９０－３,,26,104,6048206,,,,,,,2025-10-07,1,,,,,ソローノ,0
498,2130001080712,新規,0,2025-10-07,2025-10-07,株式会社アンシュヴァル,,株式会社,京都府,京都市山科区,小野蚊ケ瀬町５０ダイシンｆビル３０７,,26,110,6078251,,,,,,,2025-10-07,1,,,,,アンシュヴァル,0
500,2130003010840,新規,0,2025-10-07,2025-10-07,合同会社なわな,,合同会社,京都府,京都市右京区,京北辻町藤野ノ元４８,,26,108,6010322,,,,,,,2025-10-07,1,,,,,ナワナ,0
501,2130003010849,新規,0,2025-10-07,2025-10-07,ＲＩＳＥＮ合同会社,,合同会社,京都府,京都市南区,東九条明田町３２番地１サンモールコート烏丸２０６,,26,107,6018044,,,,,,,2025-10-07,1,,,,,ライゼン,0
505,2140001140201,新規,0,2025-10-07,2025-10-07,株式会社Ｙ２Ｋ,,株式会社,兵庫県,尼崎市,道意町１丁目１番地の３４ノイヴェル道意町３０３,,28,202,6600083,,,,,,,2025-10-07,1,,,,,ワイツーケイ,0
506,2140001140291,新規,0,2025-10-07,2025-10-07,株式会社シキツメンテナンス,,株式会社,兵庫県,多可郡多可町,中区鍛冶屋２３９番地２,,28,365,6791111,,,,,,,2025-10-07,1,,,,,シキツメンテナンス,0
511,2140003022686,新規,0,2025-10-07,2025-10-07,合同会社ＹＤＦ,,合同会社,兵庫県,南あわじ市,北阿万伊賀野９１１,,28,224,6560531,,,,,,,2025-10-07,1,,,,,ワイディーエフ,0
515,2150001028453,新規,0,2025-10-07,2025-10-07,株式会社ＲｉｚＴｅｃｈ,,株式会社,奈良県,北葛城郡広陵町,大字安部１４５番地１４,,29,426,6350825,,,,,,,2025-10-07,1,,,,,リズテック,0
516,2160001027108,新規,0,2025-10-07,2025-10-07,株式会社真晃工業,,株式会社,滋賀県,大津市,杉浦町６－８,,25,201,5200836,,,,,,,2025-10-07,1,,,,,シンコウコウギョウ,0
517,2160001027116,新規,0,2025-10-07,2025-10-07,Ｍｉｔｔａ’ｓ株式会社,,株式会社,滋賀県,近江八幡市,武佐町４５０－４,,25,204,5230012,,,,,,,2025-10-07,1,,,,,ミタス,0
521,2180001168940,新規,0,2025-10-07,2025-10-07,アドバンスドライン株式会社,,株式会社,愛知県,名古屋市名東区,勢子坊４丁目５０１番地,,23,115,4650055,,,,,,,2025-10-07,1,,,,,アドバンスドライン,0
527,2180003029174,新規,0,2025-10-07,2025-10-07,合同会社ｌｉｖｉｌ,,合同会社,愛知県,名古屋市中区,新栄１丁目２７番２５号ファーストレジデンス栄４０３号,,23,106,4600007,,,,,,,2025-10-07,1,,,,,リヴィル,0
534,2200001044305,新規,0,2025-10-07,2025-10-07,株式会社Ｔｅｃｈ　Ｂａ,,株式会社,岐阜県,瑞浪市,北小田町４丁目１８７番地,,21,208,5096115,,,,,,,2025-10-07,1,,,,,テクバ,0
535,2200001044313,新規,0,2025-10-07,2025-10-07,株式会社ＴＡＫＵＭＩ　ＮＥＸＵＳ,,株式会社,岐阜県,瑞穂市,本田１２１５番地１,,21,216,5010236,,,,,,,2025-10-07,1,,,,,タクミネクサス,0
536,2200003007086,新規,0,2025-10-07,2025-10-07,合同会社郡土守,,合同会社,岐阜県,郡上市,美並町山田９８０番地１,,21,219,5014103,,,,,,,2025-10-07,1,,,,,グンドシュ,0
539,2220001026953,新規,0,2025-10-07,2025-10-07,株式会社北陸エナジー,,株式会社,石川県,能美市,小杉町イ６０番地１,,17,211,9231114,,,,,,,2025-10-07,1,,,,,ホクリクエナジー,0
542,2230003002514,新規,0,2025-10-07,2025-10-07,ケイセツ合同会社,,合同会社,富山県,富山市,草島５番地６,,16,201,9302201,,,,,,,2025-10-07,1,,,,,ケイセツ,0
550,2250003003824,新規,0,2025-10-07,2025-10-07,合同会社ヤナイ工業,,合同会社,山口県,山口市,陶４８５２番地２,,35,203,7540891,,,,,,,2025-10-07,1,,,,,ヤナイコウギョウ,0
552,2260001040620,新規,0,2025-10-07,2025-10-07,株式会社弥栄商事,,株式会社,岡山県,岡山市東区,西大寺中野５０１番地１,,33,103,7048191,,,,,,,2025-10-07,1,,,,,ヤサカショウジ,0
556,2270003001801,新規,0,2025-10-07,2025-10-07,合同会社ファームアンドエステート,,合同会社,鳥取県,倉吉市,金森町３０番地,,31,203,6820875,,,,,,,2025-10-07,1,,,,,ファームアンドエステート,0
558,2280001009515,新規,0,2025-10-07,2025-10-07,株式会社Ｒｕａｎ,,株式会社,島根県,益田市,乙吉町イ９７番地４ＴＯＭ’Ｓビル１階,,32,204,6980003,,,,,,,2025-10-07,1,,,,,ルアン,0
559,2290001111526,新規,0,2025-10-07,2025-10-07,楽アニ株式会社,,株式会社,福岡県,福岡市博多区,博多駅前３丁目２７－８草野ビル３０１,,40,132,8120011,,,,,,,2025-10-07,1,,,,,ラクアニ,0
563,2290003017507,新規,0,2025-10-07,2025-10-07,合同会社Ｂｂ‐ｄｅａｌ,,合同会社,福岡県,福岡市博多区,空港前３丁目４番６号,,40,132,8120002,,,,,,,2025-10-07,1,,,,,ビービーディール,0
567,2290801031907,新規,0,2025-10-07,2025-10-07,Ｂｅａｕｔｙ　ａｎｄ　ｔｈｅ　ｂｅａｓｔ．ｅｘｐｅｒｔ　ＪＡＰＡＮ株式会社,,株式会社,福岡県,北九州市小倉北区,熊谷３丁目６番１６号ウィンディア南ヶ丘２０２,,40,106,8030864,,,,,,,2025-10-07,1,,,,,ビューティアンドザビーストエキスパートジャパン,0
568,2290801031923,新規,0,2025-10-07,2025-10-07,株式会社ケーエスジー,,株式会社,福岡県,北九州市八幡西区,石坂２丁目６－９,,40,109,8071121,,,,,,,2025-10-07,1,,,,,ケーエスジー,0
569,2290801031931,新規,0,2025-10-07,2025-10-07,株式会社ＰＬｒｅｖｅ,,株式会社,福岡県,北九州市小倉南区,朽網東６丁目３６番１５号,,40,107,8000232,,,,,,,2025-10-07,1,,,,,プレイヴ,0
570,2310001019808,新規,0,2025-10-07,2025-10-07,株式会社ＬＡＳＴ　ＬＥＧＡＣＹ,,株式会社,長崎県,佐世保市,下京町７番１８号,,42,202,8570875,,,,,,,2025-10-07,1,,,,,ラストレガシィ,0
578,2370003007318,新規,0,2025-10-07,2025-10-07,合同会社アライアンス,,合同会社,宮城県,仙台市青葉区,錦ケ丘８丁目１０―１９,,04,101,9893123,,,,,,,2025-10-07,1,,,,,アライアンス,0
581,2380001035609,新規,0,2025-10-07,2025-10-07,株式会社ステージサポートサービス,,株式会社,福島県,郡山市,大町２丁目２０番１号朝日プラザ１０１号,,07,203,9638001,,,,,,,2025-10-07,1,,,,,ステージサポートサービス,0
599,2430001095366,新規,0,2025-10-07,2025-10-07,株式会社ＡＶＸ,,株式会社,北海道,札幌市白石区,菊水一条１丁目２番３３号サンコートＲ号,,01,104,0030801,,,,,,,2025-10-07,1,,,,,エーブイエックス,0
601,2430003018218,新規,0,2025-10-07,2025-10-07,きさく合同会社,,合同会社,北海道,室蘭市,日の出町２丁目２８番１９号,,01,205,0500081,,,,,,,2025-10-07,1,,,,,キサク,0
602,2430005015329,新規,0,2025-10-07,2025-10-07,社会保険労務士法人エンカレッジ,,その他の設立登記法人,北海道,札幌市中央区,大通西１６丁目２番地５,,01,101,0600042,,,,,,,2025-10-07,1,,,,,エンカレッジ,0
603,2440001009696,新規,0,2025-10-07,2025-10-07,株式会社ぬちどぅたから,,株式会社,北海道,函館市,青柳町２２番８号,,01,202,0400044,,,,,,,2025-10-07,1,,,,,ヌチドゥタカラ,0
607,2460101007763,新規,0,2025-10-07,2025-10-07,株式会社タナシステムズ,,株式会社,北海道,帯広市,西十九条南４丁目３番９号,,01,207,0802469,,,,,,,2025-10-07,1,,,,,タナシステムズ,0
616,2700150132438,新規,0,2025-10-07,2025-10-07,ＧＥＥＺＡ　ＭＯＴＯＲＳ,,外国会社等,千葉県,東金市,極楽寺５３６番地１０オフィス１号,,12,213,2830835,スリランカ民主社会主義共和国、パライユートゥ、キャンディロード、Ｎｏ．２１／Ａ,,,,,,2025-10-07,1,,,,,ギーザモータース,0
617,2700150132446,新規,0,2025-10-07,2025-10-07,ＭＩＣＲＯ　ＡＰＰＡＲＥＬ　ＰＶＴ　ＬＴＤ,,外国会社等,千葉県,いすみ市,大原９２１０番地５－Ｆ,,12,238,2980004,スリランカ民主社会主義共和国、ウィーランブゲダラ、ガルワングワロード、１ｓｔフロア、クマラシンハハードウェア、Ｎｏ．１,,,,,,2025-10-07,1,,,,,マイクロアパレルプライベートリミテツド,0
618,2700150132454,新規,0,2025-10-07,2025-10-07,ｓｈｅｎｚｈｅｎｓｈｉｌｉｘｉｎｃｈｕａｎｇｘｉｎｋｅｊｉｙｏｕｘｉａｎｇｏｎｇｓｉ,,外国会社等,,,,,,,,Ｇｕａｎｈｕｊｉｅｄａｏ　ｌｕｈｕｓｈｅｑｕ　ｇｕａｎｇｓｈｅｎｇｗｕｌｕ　ｋｅｍｕｌｏｎｇｋｅｊｉｙｕａｎＣｄｏｎｇ１００７ｓｈｅｎｚｈｅｎＧｕａｎｇｄｏｎｇ,,,,,,2025-10-07,1,,,,,シェンジェンシーリーシンチュワンシンコージーヨウシエンゴンスー,0
628,3010001258749,新規,0,2025-10-07,2025-10-07,Ｋａｅｒｉ　Ｔｏｍｉｋａｗａ２株式会社,,株式会社,東京都,千代田区,霞が関３丁目２番５号,,13,101,1000013,,,,,,,2025-10-07,1,,,,,カエリトミカワツー,0
629,3010001259012,新規,0,2025-10-07,2025-10-07,株式会社蒼,,株式会社,東京都,中央区,晴海２丁目２－４２パークタワー晴海３７１１,,13,102,1040053,,,,,,,2025-10-07,1,,,,,アオ,0
630,3010001259094,新規,0,2025-10-07,2025-10-07,株式会社あらい,,株式会社,東京都,中央区,銀座８丁目１０番２号ルアンビル地下１階,,13,102,1040061,,,,,,,2025-10-07,1,,,,,アライ,0
631,3010001259210,新規,0,2025-10-07,2025-10-07,株式会社ＭｅＣｒａｆｔ,,株式会社,東京都,中央区,銀座７丁目１３番２０号銀座ＴＨビル９階,,13,102,1040061,,,,,,,2025-10-07,1,,,,,ミークラフト,0
632,3010003048933,新規,0,2025-10-07,2025-10-07,合同会社Ｃｈａｔｔｙ,,合同会社,東京都,中央区,銀座１丁目１２番４号Ｎ＆ＥＢＬＤ．６Ｆ,,13,102,1040061,,,,,,,2025-10-07,1,,,,,チャッティー,0
633,3010003048958,新規,0,2025-10-07,2025-10-07,合同会社ＹＵＡＳＡ,,合同会社,東京都,千代田区,神田須田町１丁目７番８号ＶＯＲＴ秋葉原ＩＶ２Ｆ,00140984,13,101,1010041,,,,,,,2025-10-07,1,,,,,ユアサ,0
639,3010401193018,新規,0,2025-10-07,2025-10-07,フレームジャパン株式会社,,株式会社,東京都,港区,港南２丁目１５番１号品川インターシティＡ棟２８階,,13,103,1080075,,,,,,,2025-10-07,1,,,,,フレームジャパン,0
640,3010401193505,新規,0,2025-10-07,2025-10-07,株式会社Ｓｐｉｒａｌ　Ｐａｒｔｎｅｒｓ,,株式会社,東京都,港区,六本木３丁目２番１号,,13,103,1060032,,,,,,,2025-10-07,1,,,,,スパイラルパートナーズ,0
641,3010401193595,新規,0,2025-10-07,2025-10-07,株式会社アイライツポート,,株式会社,東京都,港区,北青山２丁目５番１号,,13,103,1070061,,,,,,,2025-10-07,1,,,,,アイライツポート,0
642,3010401193612,新規,0,2025-10-07,2025-10-07,株式会社新橋烏森オペレーションズ,,株式会社,東京都,港区,港南２丁目１５番３号品川インターシティＣ棟,,13,103,1080075,,,,,,,2025-10-07,1,,,,,シンバシカラスモリオペレーションズ,0
649,3010405024854,新規,0,2025-10-07,2025-10-07,一般社団法人Ｌｉｎｇｌｉｎｇ,,その他の設立登記法人,東京都,港区,虎ノ門１丁目１番１８号ヒューリック虎ノ門ビル９階Ｌ＆Ｐ司法書士法人内,,13,103,1050001,,,,,,,2025-10-07,1,,,,,レンレン,0
650,3010405024862,新規,0,2025-10-07,2025-10-07,祖母山一般社団法人,,その他の設立登記法人,東京都,港区,六本木１丁目６番１号泉ガーデンタワーＫＰＭＧ税理士法人内,,13,103,1060032,,,,,,,2025-10-07,1,,,,,ソボサン,0
653,3010503008024,新規,0,2025-10-07,2025-10-07,東躍国際合同会社,,合同会社,東京都,台東区,入谷１丁目２１番４－９０６号室,,13,106,1100013,,,,,,,2025-10-07,1,,,,,トウヤクコクサイ,0
659,3010601068060,新規,0,2025-10-07,2025-10-07,株式会社シゲ・コーポレーション,,株式会社,東京都,江東区,新木場１丁目１４番７号２階,,13,108,1360082,,,,,,,2025-10-07,1,,,,,シゲコーポレーション,0
660,3010601068069,新規,0,2025-10-07,2025-10-07,株式会社海外物産ホールディングス,,株式会社,東京都,江東区,新木場４丁目７番４５号,,13,108,1360082,,,,,,,2025-10-07,1,,,,,カイガイブッサンホールディングス,0
668,3010901058182,新規,0,2025-10-07,2025-10-07,ＢＬＵＥ　ＨＡＲＭＯＮＹ株式会社,,株式会社,東京都,世田谷区,深沢１丁目３７番３号,,13,112,1580081,,,,,,,2025-10-07,1,,,,,ブルーハーモニー,0
669,3010901058190,新規,0,2025-10-07,2025-10-07,ファミリーマネジメント株式会社,,株式会社,東京都,世田谷区,代田２丁目１番１９－３０２号,,13,112,1550033,,,,,,,2025-10-07,1,,,,,ファミリーマネジメント,0
670,3010901058199,新規,0,2025-10-07,2025-10-07,株式会社Ｃｏｎｓｔｒｕｔ,,株式会社,東京都,世田谷区,成城３丁目２番１４号,,13,112,1570066,,,,,,,2025-10-07,1,,,,,コンストラット,0
673,3010903010307,新規,0,2025-10-07,2025-10-07,合同会社玖世,,合同会社,東京都,世田谷区,船橋１丁目１２番１５号,,13,112,1560055,,,,,,,2025-10-07,1,,,,,クゼ,0
674,3010905004851,新規,0,2025-10-07,2025-10-07,医療法人社団ＭＹ　Ｗｅｌｌｎｅｓｓ,,その他の設立登記法人,東京都,世田谷区,玉川３丁目７番１号新二子玉川ビル２階,,13,112,1580094,,,,,,,2025-10-07,1,,,,,マイウェルネス,0
678,3011001172452,新規,0,2025-10-07,2025-10-07,株式会社トロワエピス,,株式会社,東京都,目黒区,碑文谷４丁目４番５号,,13,110,1520003,,,,,,,2025-10-07,1,,,,,トロワエピス,0
679,3011001172469,新規,0,2025-10-07,2025-10-07,桂田グループ株式会社,,株式会社,東京都,目黒区,下目黒５丁目１３番１２号,,13,110,1530064,,,,,,,2025-10-07,1,,,,,カツラダグループ,0
681,3011003022688,新規,0,2025-10-07,2025-10-07,合同会社京,,合同会社,東京都,目黒区,中目黒１丁目１番３９号,,13,110,1530061,,,,,,,2025-10-07,1,,,,,ミヤコ,0
684,3011103016466,新規,0,2025-10-07,2025-10-07,合同会社Ｄｏｏｒ,,合同会社,東京都,新宿区,西新宿３丁目３番１３号西新宿水間ビル６階,,13,104,1600023,,,,,,,2025-10-07,1,,,,,ドア,0
694,3011503006736,新規,0,2025-10-07,2025-10-07,合同会社スマートインテグリティ,,合同会社,東京都,荒川区,東尾久１丁目１５番７号マンション東尾久二葉３０２,,13,118,1160012,,,,,,,2025-10-07,1,,,,,スマートインテグリティ,0
699,3011701028788,新規,0,2025-10-07,2025-10-07,株式会社ｅｉｇｈｔ,,株式会社,東京都,江戸川区,上篠崎３丁目２番８号Ｉ＆Ｍ１０３,,13,123,1330054,,,,,,,2025-10-07,1,,,,,エイト,0
700,3011701028821,新規,0,2025-10-07,2025-10-07,株式会社ケイエスイーエム,,株式会社,東京都,江戸川区,南葛西４丁目１８番１９－８０５号,,13,123,1340085,,,,,,,2025-10-07,1,,,,,ケイエスイーエム,0
701,3011703004408,新規,0,2025-10-07,2025-10-07,合同会社青木,,合同会社,東京都,江戸川区,平井３丁目１７番２２四谷荘２０１号,,13,123,1320035,,,,,,,2025-10-07,1,,,,,アオキ,0
702,3011703004416,新規,0,2025-10-07,2025-10-07,合同会社つなぐラボ,,合同会社,東京都,江戸川区,清新町１丁目１－１－１００８,,13,123,1340087,,,,,,,2025-10-07,1,,,,,ツナグラボ,0
703,3011801046839,新規,0,2025-10-07,2025-10-07,燕東方株式会社,,株式会社,東京都,足立区,梅島１丁目２８番６号２０３室,,13,121,1210816,,,,,,,2025-10-07,1,,,,,エントウホウ,0
704,3011801046855,新規,0,2025-10-07,2025-10-07,セイズインターソリューションズ株式会社,,株式会社,東京都,葛飾区,立石７丁目５番３号,,13,122,1240012,,,,,,,2025-10-07,1,,,,,セイズインターソリューションズ,0
705,3011803007129,新規,0,2025-10-07,2025-10-07,ＺＥＮ合同会社,,合同会社,東京都,葛飾区,四つ木１丁目２９番１０号ＮＯＶＥＬＣＯＵＲＴ四つ木１０２,,13,122,1240011,,,,,,,2025-10-07,1,,,,,ゼン,0
706,3012801024289,新規,0,2025-10-07,2025-10-07,株式会社ｒｅｃｈｅｒｒｉｅ,,株式会社,東京都,国分寺市,南町３丁目４番１号,,13,214,1850021,,,,,,,2025-10-07,1,,,,,リチェリ,0
707,3012803003893,新規,0,2025-10-07,2025-10-07,合同会社ＳＡＫＵＲＡＲＡ,,合同会社,東京都,昭島市,武蔵野２丁目６番８号中村マンション２０１,,13,207,1960021,,,,,,,2025-10-07,1,,,,,サクララ,0
711,3013301055056,新規,0,2025-10-07,2025-10-07,株式会社アモーレビーン,,株式会社,東京都,豊島区,池袋２丁目６９番１１号,,13,116,1710014,,,,,,,2025-10-07,1,,,,,アモーレビーン,0
712,3013301055064,新規,0,2025-10-07,2025-10-07,株式会社Ｆ,,株式会社,東京都,豊島区,南長崎３丁目４０番１０号,,13,116,1710052,,,,,,,2025-10-07,1,,,,,エフ,0
713,3013301055080,新規,0,2025-10-07,2025-10-07,株式会社ランプアップ,,株式会社,東京都,豊島区,南池袋２丁目８番１７号第一豊南ビル４０３,,13,116,1710022,,,,,,,2025-10-07,1,,,,,ランプアップ,0
714,3013301055097,新規,0,2025-10-07,2025-10-07,株式会社Ｆｏｒ　Ｙ＆Ｋ,,株式会社,東京都,豊島区,西池袋２丁目１０番４号,,13,116,1710021,,,,,,,2025-10-07,1,,,,,フォーワイアンドケー,0
719,3020001165168,新規,0,2025-10-07,2025-10-07,株式会社ケイアセットマネジメント,,株式会社,神奈川県,横浜市戸塚区,吉田町１１１番地３,,14,110,2440817,,,,,,,2025-10-07,1,,,,,ケイアセットマネジメント,0
721,3020003029445,新規,0,2025-10-07,2025-10-07,ｔａｋｉｂｉ　ｎｅｔ合同会社,,合同会社,神奈川県,川崎市幸区,堀川町７２－２１－Ｌ２０３,,14,132,2120013,,,,,,,2025-10-07,1,,,,,タキビネット,0
722,3020003029511,新規,0,2025-10-07,2025-10-07,Ｅｎｌｉｎｋ　Ｇｌｏｂａｌ合同会社,,合同会社,神奈川県,横浜市南区,宮元町１丁目４番地１クリオ横濱蒔田公園９０６号,,14,105,2320016,,,,,,,2025-10-07,1,,,,,エンリンクグローバル,0
723,3020003029560,新規,0,2025-10-07,2025-10-07,Ｎｅｘｕｓ　Ａｓｓｅｔ合同会社,,合同会社,神奈川県,川崎市中原区,中丸子３９７番地５,,14,133,2110012,,,,,,,2025-10-07,1,,,,,ネクサスアセット,0
725,3021001086429,新規,0,2025-10-07,2025-10-07,Ｚａｉｎ　Ｓｈａ　Ｓｈｏｋａｉ株式会社,,株式会社,神奈川県,厚木市,関口９２９番地１２アクティブ石川１０５,,14,212,2430804,,,,,,,2025-10-07,1,,,,,ゼインシャショウカイ,0
726,3021001086453,新規,0,2025-10-07,2025-10-07,株式会社ＥＣＮソリューション,,株式会社,神奈川県,横須賀市,衣笠栄町１丁目４３番地・並木ビル２階２０２室,,14,201,2380031,,,,,,,2025-10-07,1,,,,,イーシーエヌソリューション,0
727,3021001086503,新規,0,2025-10-07,2025-10-07,ミチカ株式会社,,株式会社,神奈川県,藤沢市,弥勒寺１丁目２０番２５号,,14,205,2510016,,,,,,,2025-10-07,1,,,,,ミチカ,0
728,3021003016607,新規,0,2025-10-07,2025-10-07,Ｓｈｅａｎ　Ｌａｎｋａ合同会社,,合同会社,神奈川県,海老名市,東柏ケ谷１丁目２４番地１２号３０４号室,,14,215,2430401,,,,,,,2025-10-07,1,,,,,シェーンランカ,0
729,3021003016664,新規,0,2025-10-07,2025-10-07,ＳＡＹＵＲＡ合同会社,,合同会社,神奈川県,綾瀬市,綾西４丁目８番８号,,14,218,2521126,,,,,,,2025-10-07,1,,,,,サユラ,0
739,3030001169011,新規,0,2025-10-07,2025-10-07,株式会社小出設備,,株式会社,埼玉県,新座市,野火止４丁目１番３０号,,11,230,3520011,,,,,,,2025-10-07,1,,,,,コイデセツビ,0
740,3030001169036,新規,0,2025-10-07,2025-10-07,戸田ミシン株式会社,,株式会社,埼玉県,戸田市,上戸田４丁目１２－１３－１０２,,11,224,3350022,,,,,,,2025-10-07,1,,,,,トダミシン,0
749,3040001140771,新規,0,2025-10-07,2025-10-07,株式会社ショウエイ,,株式会社,千葉県,市原市,青柳１１番地１ビアンコートＡ棟１０１,,12,219,2990102,,,,,,,2025-10-07,1,,,,,ショウエイ,0
750,3040001140788,新規,0,2025-10-07,2025-10-07,株式会社ＲＩＣＥ　ＧＹＭ,,株式会社,千葉県,東金市,広瀬５９５番地１４,,12,213,2830041,,,,,,,2025-10-07,1,,,,,ライスジム,0
751,3040001140805,新規,0,2025-10-07,2025-10-07,株式会社Ｋ＆Ｔ,,株式会社,千葉県,船橋市,本中山６丁目１番２１－６０１号,,12,204,2730035,,,,,,,2025-10-07,1,,,,,ケーアンドティー,0
752,3040001140821,新規,0,2025-10-07,2025-10-07,株式会社ＮＩＫＡ,,株式会社,千葉県,市川市,南八幡４丁目１番１３号ＤＡＩＫＩＣＨＩビル３階,,12,203,2720023,,,,,,,2025-10-07,1,,,,,ニカ,0
756,3040003028684,新規,0,2025-10-07,2025-10-07,合同会社深澤興業,,合同会社,千葉県,松戸市,古ケ崎７６５番地の１５,,12,207,2710068,,,,,,,2025-10-07,1,,,,,フカサワコウギョウ,0
757,3040003028692,新規,0,2025-10-07,2025-10-07,ＡＢＢＡＳ合同会社,,合同会社,千葉県,山武市,板中新田２８５番地１,,12,237,2891222,,,,,,,2025-10-07,1,,,,,アッバス,0
758,3040003028701,新規,0,2025-10-07,2025-10-07,合同会社さくらトレーディング,,合同会社,千葉県,野田市,木間ケ瀬５５１番地４,,12,208,2700222,,,,,,,2025-10-07,1,,,,,サクラトレーディング,0
760,3050001057404,新規,0,2025-10-07,2025-10-07,株式会社大高工業,,株式会社,茨城県,稲敷郡阿見町,大字若栗３７６９番地１７,,08,443,3000333,,,,,,,2025-10-07,1,,,,,オオタカコウギョウ,0
761,3050003009650,新規,0,2025-10-07,2025-10-07,佐賀住設合同会社,,合同会社,茨城県,水戸市,笠原町１９３７番地の１,,08,201,3100852,,,,,,,2025-10-07,1,,,,,サガジュウセツ,0
766,3060001038650,新規,0,2025-10-07,2025-10-07,株式会社柏瀬工業,,株式会社,栃木県,足利市,山下町１４８０番地１,,09,202,3260846,,,,,,,2025-10-07,1,,,,,カシワセコウギョウ,0
767,3060003005797,新規,0,2025-10-07,2025-10-07,合同会社まるっと,,合同会社,栃木県,那須塩原市,太夫塚３丁目２２１番地５９７,,09,213,3292735,,,,,,,2025-10-07,1,,,,,マルット,0
770,3070001043410,新規,0,2025-10-07,2025-10-07,株式会社ＤＥＮ‐ＴＥＣＨ,,株式会社,群馬県,太田市,只上町１８２番地１,,10,205,3730011,,,,,,,2025-10-07,1,,,,,デンテック,0
771,3070001043419,新規,0,2025-10-07,2025-10-07,株式会社ウィローズ,,株式会社,群馬県,伊勢崎市,五目牛町６８８番地３,,10,204,3792213,,,,,,,2025-10-07,1,,,,,ウィローズ,0
772,3070001043427,新規,0,2025-10-07,2025-10-07,株式会社トキメイクマチ,,株式会社,群馬県,前橋市,表町２丁目１１番８号,,10,201,3710024,,,,,,,2025-10-07,1,,,,,トキメイクマチ,0
773,3070003006134,新規,0,2025-10-07,2025-10-07,ＥＮＢＩ合同会社,,合同会社,群馬県,太田市,藪塚町４３９番地１,,10,205,3792301,,,,,,,2025-10-07,1,,,,,エンビ,0
774,3070005010431,新規,0,2025-10-07,2025-10-07,一般社団法人奇跡グループ,,その他の設立登記法人,群馬県,伊勢崎市,除ケ町２６０番地１,,10,204,3720832,,,,,,,2025-10-07,1,,,,,キセキグループ,0
778,3080101025828,新規,0,2025-10-07,2025-10-07,ホスピタリティエンパワーメントジャパン株式会社,,株式会社,静岡県,三島市,三恵台１７番地の９,,22,206,4110017,,,,,,,2025-10-07,1,,,,,ホスピタリティエンパワーメントジャパン,0
779,3080101025836,新規,0,2025-10-07,2025-10-07,株式会社ＴＨＩＮＧ　ＭＯＲＥ　ＭＯＲＥ,,株式会社,静岡県,富士宮市,万野原新田３３２４番地の７,,22,207,4180001,,,,,,,2025-10-07,1,,,,,シィングモアモア,0
780,3080103003443,新規,0,2025-10-07,2025-10-07,合同会社穎華,,合同会社,静岡県,沼津市,高島本町１３番２３号パークコート高島本町３０３号室,,22,203,4100055,,,,,,,2025-10-07,1,,,,,エイカ,0
787,3090001019540,新規,0,2025-10-07,2025-10-07,株式会社ギブ＆テイク,,株式会社,山梨県,中巨摩郡昭和町,清水新居１５０３番地ＮＫビル２０２,,19,384,4093867,,,,,,,2025-10-07,1,,,,,ギブアンドテイク,0
788,3100003008424,新規,0,2025-10-07,2025-10-07,合同会社ＬＤＫ,,合同会社,長野県,松本市,浅間温泉３丁目２４番１１号,,20,202,3900303,,,,,,,2025-10-07,1,,,,,エルディーケー,0
795,3110001039610,新規,0,2025-10-07,2025-10-07,株式会社スーパーいまがわ,,株式会社,新潟県,新発田市,稲荷岡２１１９番地,,15,206,9570204,,,,,,,2025-10-07,1,,,,,スーパーイマガワ,0
804,3120001280122,新規,0,2025-10-07,2025-10-07,株式会社Ｔｈｉｒｄ,,株式会社,大阪府,大阪市淀川区,十三本町１丁目９－２０Ｒｅ：ＺＯＮＥ十三０１－２０４号,,27,123,5320024,,,,,,,2025-10-07,1,,,,,サード,0
805,3120001280386,新規,0,2025-10-07,2025-10-07,株式会社ＮＡＣ,,株式会社,大阪府,大阪市中央区,島之内２丁目１０番５号ファーストレジデンス１０２号室,,27,128,5420082,,,,,,,2025-10-07,1,,,,,エヌエーシー,0
806,3120001280394,新規,0,2025-10-07,2025-10-07,株式会社ＳＡＮＤａＶＩＮＣＩ　Ａｒｔ＆Ｄｅｓｉｇｎ,,株式会社,大阪府,大阪市北区,中津３丁目３３番１６－５０２号,,27,127,5310071,,,,,,,2025-10-07,1,,,,,サンダヴィンチアートアンドデザイン,0
807,3120001280411,新規,0,2025-10-07,2025-10-07,Ｂｙｏｕ株式会社,,株式会社,大阪府,大阪市福島区,海老江５丁目５番２２－２０２号,,27,103,5530001,,,,,,,2025-10-07,1,,,,,ビーユウ,0
808,3120001280428,新規,0,2025-10-07,2025-10-07,株式会社ＧＡＴＥ‐Ｓｅｒｖｉｃｅ,,株式会社,大阪府,大阪市北区,梅田１丁目２番２号大阪駅前第２ビル１２－１２,,27,127,5300001,,,,,,,2025-10-07,1,,,,,ゲートサービス,0
809,3120001280510,新規,0,2025-10-07,2025-10-07,小石頭株式会社,,株式会社,大阪府,大阪市西成区,千本南１丁目１６－１４－２０８号,,27,122,5570055,,,,,,,2025-10-07,1,,,,,ショウセキト,0
810,3120001280527,新規,0,2025-10-07,2025-10-07,日本喜屋科技株式会社,,株式会社,大阪府,大阪市中央区,内本町２丁目１－１９－９５０号室,,27,128,5400026,,,,,,,2025-10-07,1,,,,,ニホンキヤカギ,0
811,3120001280543,新規,0,2025-10-07,2025-10-07,ｈｏｓｈｉｙｏｍｉ株式会社,,株式会社,大阪府,大阪市北区,梅田１丁目１番３号大阪駅前第３ビル２９階１－１－１号室,,27,127,5300001,,,,,,,2025-10-07,1,,,,,ホシヨミ,0
812,3120001280717,新規,0,2025-10-07,2025-10-07,株式会社ＭＵＳＩＣＷＯＲＸ,,株式会社,大阪府,寝屋川市,清水町６番６号,,27,215,5720044,,,,,,,2025-10-07,1,,,,,ミュージックワークス,0
818,3120003030789,新規,0,2025-10-07,2025-10-07,合同会社庖寿会調理師紹介所,,合同会社,大阪府,大阪市此花区,春日出中１丁目４番１２－４０９号,,27,104,5540022,,,,,,,2025-10-07,1,,,,,ホウジュカイチョウリシショウカイジョ,0
819,3120003030814,新規,0,2025-10-07,2025-10-07,国＿コンサルティング・トレード合同会社,00140966,合同会社,大阪府,大阪市西成区,萩之茶屋２丁目６番４号ニューかめや１３５号,,27,122,5570004,,,,,,,2025-10-07,1,,,,,コクホウコンサルティングトレード,0
820,3120003030871,新規,0,2025-10-07,2025-10-07,リハントレーディング合同会社,,合同会社,大阪府,大阪市西淀川区,大和田４丁目１３－２２アルカン参番館１０３号室,,27,113,5550032,,,,,,,2025-10-07,1,,,,,リハントレーディング,0
821,3120005025184,新規,0,2025-10-07,2025-10-07,パナソニックプロジェクター＆ディスプレイ労働組合,,その他の設立登記法人,大阪府,門真市,松葉町２番１５号パナソニックプロジェクター＆ディスプレイ株式会社内,,27,223,5710056,,,,,,,2025-10-07,1,,,,,,0
825,3120101072543,新規,0,2025-10-07,2025-10-07,株式会社嘉納,,株式会社,大阪府,堺市堺区,南瓦町１番１９号グランビルド堺東４０６号,,27,141,5900078,,,,,,,2025-10-07,1,,,,,カノウ,0
826,3120101072592,新規,0,2025-10-07,2025-10-07,株式会社ノエルホールディングス,,株式会社,大阪府,堺市中区,深井北町５２番地７５,,27,142,5998271,,,,,,,2025-10-07,1,,,,,ノエルホールディングス,0
830,3120901051580,新規,0,2025-10-07,2025-10-07,株式会社Ｆｙｚｅｎｏ,,株式会社,大阪府,豊中市,東泉丘１丁目１１番１７号,,27,203,5610861,,,,,,,2025-10-07,1,,,,,ファイゼノ,0
832,3122001039713,新規,0,2025-10-07,2025-10-07,株式会社ｌｉｆｅ　ｓｕｐｐｏｒｔ　ｊａｐａｎ,,株式会社,大阪府,八尾市,相生町１丁目１０番２９号,,27,212,5810082,,,,,,,2025-10-07,1,,,,,ライフサポートジャパン,0
834,3130001080686,新規,0,2025-10-07,2025-10-07,株式会社千原工業,,株式会社,京都府,舞鶴市,字長浜８５６番地,,26,202,6250086,,,,,,,2025-10-07,1,,,,,チハラコウギョウ,0
835,3130001080694,新規,0,2025-10-07,2025-10-07,株式会社フグレン京都,,株式会社,京都府,京都市北区,紫竹東栗栖町３８番地３,,26,101,6038434,,,,,,,2025-10-07,1,,,,,フグレンキョウト,0
836,3130001080711,新規,0,2025-10-07,2025-10-07,株式会社ＥＮＳＯＯ,,株式会社,京都府,京都市山科区,川田清水焼団地町５番地１３,,26,110,6078322,,,,,,,2025-10-07,1,,,,,エンスー,0
840,3140001140274,新規,0,2025-10-07,2025-10-07,株式会社農業法人たまファーム,,株式会社,兵庫県,加西市,三口町１０８１番地,,28,220,6752223,,,,,,,2025-10-07,1,,,,,ノウギョウホウジンタマファーム,0
841,3140001140282,新規,0,2025-10-07,2025-10-07,株式会社セカンドステップ,,株式会社,兵庫県,尼崎市,西難波町４丁目９番１３号,,28,202,6600893,,,,,,,2025-10-07,1,,,,,セカンドステップ,0
846,3140003022685,新規,0,2025-10-07,2025-10-07,合同会社スローキャピタルデザイン,,合同会社,兵庫県,姫路市,別所町佐土新９０８番地,,28,201,6710226,,,,,,,2025-10-07,1,,,,,スローキャピタルデザイン,0
850,3160001027115,新規,0,2025-10-07,2025-10-07,株式会社アンリミテッド,,株式会社,滋賀県,大津市,浜大津４丁目３番３５－９０１号,,25,201,5200047,,,,,,,2025-10-07,1,,,,,アンリミテッド,0
851,3170001018815,新規,0,2025-10-07,2025-10-07,株式会社アグリック和歌山,,株式会社,和歌山県,紀の川市,西井阪２６９番地,,30,208,6496427,,,,,,,2025-10-07,1,,,,,アグリックワカヤマ,0
852,3170001018823,新規,0,2025-10-07,2025-10-07,株式会社丸隆水産,,株式会社,和歌山県,和歌山市,岩橋１５７３番地７,,30,201,6408301,,,,,,,2025-10-07,1,,,,,マルタカスイサン,0
861,3180001168881,新規,0,2025-10-07,2025-10-07,株式会社のりモ,,株式会社,愛知県,稲沢市,稲沢町北山４０番地４,,23,220,4928211,,,,,,,2025-10-07,1,,,,,ノリモ,0
862,3180001168898,新規,0,2025-10-07,2025-10-07,株式会社Ｍａｉｓｏｎ　ａｍｕ,,株式会社,愛知県,名古屋市中区,丸の内２丁目７番２６号ＫＳビルＩＩ３階,00140967,23,106,4600002,,,,,,,2025-10-07,1,,,,,メゾンアム,0
863,3180001168948,新規,0,2025-10-07,2025-10-07,Ｔｒｕｓｔｉｖｅ　Ｈｏｍｅ株式会社,,株式会社,愛知県,名古屋市中区,錦２丁目１６番５号セントレイクレノン錦３階,,23,106,4600003,,,,,,,2025-10-07,1,,,,,トラルスティブホーム,0
864,3180001168980,新規,0,2025-10-07,2025-10-07,株式会社ＬＳ,,株式会社,愛知県,知多市,岡田字善坪１２８番地,,23,224,4780021,,,,,,,2025-10-07,1,,,,,エルエス,0
865,3180001168989,新規,0,2025-10-07,2025-10-07,株式会社シンエイ企画,,株式会社,愛知県,名古屋市緑区,黒沢台１丁目１５１７番地オフィスＢ,,23,114,4580003,,,,,,,2025-10-07,1,,,,,シンエイキカク,0
866,3180005021260,新規,0,2025-10-07,2025-10-07,特定非営利活動法人永笑,,その他の設立登記法人,愛知県,一宮市,木曽川町里小牧字往還北１番地７,,23,203,4930005,,,,,,,2025-10-07,1,,,,,エイショウ,0
867,3180301040294,新規,0,2025-10-07,2025-10-07,チップ株式会社,,株式会社,愛知県,刈谷市,半城土西町２丁目３番地１２,,23,210,4480816,,,,,,,2025-10-07,1,,,,,チップ,0
872,3200001044295,新規,0,2025-10-07,2025-10-07,Ｃｏ‐Ｉｎｎｏｖａｔｉｏｎ　Ｆｕｎｄ株式会社,,株式会社,岐阜県,飛騨市,古川町弐之町５番２４号,,21,217,5094235,,,,,,,2025-10-07,1,,,,,コーイノベーションファンド,0
873,3200001044312,新規,0,2025-10-07,2025-10-07,株式会社ハオト,,株式会社,岐阜県,中津川市,駒場町３番４０号,,21,206,5080014,,,,,,,2025-10-07,1,,,,,ハオト,0
875,3200003007093,新規,0,2025-10-07,2025-10-07,合同会社エヌエフオートトレーダーズ,,合同会社,岐阜県,多治見市,明和町４丁目５番地の３０２,,21,204,5070072,,,,,,,2025-10-07,1,,,,,エヌエフオートトレーダーズ,0
879,3220001026960,新規,0,2025-10-07,2025-10-07,株式会社アイ・メディカル,,株式会社,石川県,能美市,粟生町西６１番地３,,17,211,9231101,,,,,,,2025-10-07,1,,,,,アイメディカル,0
884,3240001065577,新規,0,2025-10-07,2025-10-07,株式会社井上ネーム,,株式会社,広島県,福山市,新市町大字戸手９４５番地１,,34,207,7293101,,,,,,,2025-10-07,1,,,,,イノウエネーム,0
886,3250001021364,新規,0,2025-10-07,2025-10-07,株式会社防府競輪運営事務協力会,,株式会社,山口県,防府市,国分寺町８番２号,,35,206,7470021,,,,,,,2025-10-07,1,,,,,ホウフケイリンウンエイジムキョウリョクカイ,0
889,3250005009034,新規,0,2025-10-07,2025-10-07,一般社団法人萩Ｈａｇｉ陶芸交換留学サポーター,,その他の設立登記法人,山口県,萩市,大字山田４４３１番地,,35,204,7580063,,,,,,,2025-10-07,1,,,,,,0
900,3270001009300,新規,0,2025-10-07,2025-10-07,Ｆホールディングス株式会社,,株式会社,鳥取県,鳥取市,湖山町東５丁目５０４番地３４,,31,201,6800942,,,,,,,2025-10-07,1,,,,,エフホールディングス,0
906,3290003017506,新規,0,2025-10-07,2025-10-07,合同会社ＫＭＩ,,合同会社,福岡県,福岡市博多区,上牟田１丁目２２番６号,,40,132,8120006,,,,,,,2025-10-07,1,,,,,ケーエムアイ,0
909,3290803005172,新規,0,2025-10-07,2025-10-07,ＪＩＩＣ合同会社,,合同会社,福岡県,直方市,大字感田２３１３番地,,40,204,8220001,,,,,,,2025-10-07,1,,,,,ジェイアイアイシー,0
910,3290803005180,新規,0,2025-10-07,2025-10-07,合同会社しのざき設計,,合同会社,福岡県,遠賀郡岡垣町,松ケ台１丁目５番３号,,40,383,8114214,,,,,,,2025-10-07,1,,,,,シノザキセッケイ,0
917,3320001021373,新規,0,2025-10-07,2025-10-07,株式会社篠田商事,,株式会社,大分県,大分市,賀来北２丁目１番２１号,,44,201,8700848,,,,,,,2025-10-07,1,,,,,シノダショウジ,0
919,3330001033624,新規,0,2025-10-07,2025-10-07,輝石株式会社,,株式会社,熊本県,熊本市中央区,川端町２番地２,,43,101,8600039,,,,,,,2025-10-07,1,,,,,キセキ,0
922,3350005006335,新規,0,2025-10-07,2025-10-07,医療法人こいわやクリニック,,その他の設立登記法人,宮崎県,宮崎市,大島町西田２１３７番４,,45,201,8800824,,,,,,,2025-10-07,1,,,,,コイワヤクリニック,0
924,3360001035873,新規,0,2025-10-07,2025-10-07,株式会社沖縄そぷら,,株式会社,沖縄県,国頭郡宜野座村,字漢那１３８０番地７,,47,313,9041304,,,,,,,2025-10-07,1,,,,,オキナワソプラ,0
926,3370003007317,新規,0,2025-10-07,2025-10-07,本間産業合同会社,,合同会社,宮城県,栗原市,築館字沢入３３番地,,04,213,9872232,,,,,,,2025-10-07,1,,,,,ホンマサンギョウ,0
935,3420005007978,新規,0,2025-10-07,2025-10-07,一般社団法人あおもりボイスラボ,,その他の設立登記法人,青森県,青森市,浜田２丁目１８番地１４,,02,201,0300843,,,,,,,2025-10-07,1,,,,,アオモリボイスラボ,0
940,3430001095415,新規,0,2025-10-07,2025-10-07,ＵＳアセットマネジメント株式会社,,株式会社,北海道,札幌市中央区,南一条西１６丁目１番地３２３春野ビル３Ｆ,,01,101,0600061,,,,,,,2025-10-07,1,,,,,ユーエスアセットマネジメント,0
941,3440001009695,新規,0,2025-10-07,2025-10-07,株式会社ＪａｎｔａｒＭａｎｔａｒ,,株式会社,北海道,函館市,本町１１番１号,,01,202,0400011,,,,,,,2025-10-07,1,,,,,ジャンタルマンタル,0
945,3470001020922,新規,0,2025-10-07,2025-10-07,株式会社ｂｅｗ,,株式会社,香川県,仲多度郡多度津町,大字西白方３６３番地３,,37,404,7640037,,,,,,,2025-10-07,1,,,,,,0
950,3500001026569,新規,0,2025-10-07,2025-10-07,株式会社上野工業,,株式会社,愛媛県,松山市,南吉田町３７４番地１,,38,201,7918042,,,,,,,2025-10-07,1,,,,,ウエノコウギョウ,0
951,3700150132429,新規,0,2025-10-07,2025-10-07,ＡＤＡＭＡＳ　ＣＯＭＰＡＮＹ　ＬＩＭＩＴＥＤ,,外国会社等,京都府,京都市山科区,御陵荒巻町９番地４ハイツ紫雲２０３号室,,26,110,6078429,台湾新竹県竹北市泰和里４鄰博愛街７８９号１階,,,,,,2025-10-07,1,,,,,アダマスカンパニーリミテツド,0
952,3700150132437,新規,0,2025-10-07,2025-10-07,ＫＡＮＴＯ　ＷＩＮＧＳ,,外国会社等,千葉県,山武市,埴谷６４５番地４９オフィスＡ,,12,237,2891223,スリランカ民主社会主義共和国、マタレ、ゴンガウェラ通り６５番地,,,,,,2025-10-07,1,,,,,カントウウイングス,0
953,3700150132445,新規,0,2025-10-07,2025-10-07,Ｈｉｋａｒｉ　Ａｕｔｏ　Ｍａｒｔ,,外国会社等,愛媛県,西予市,三瓶町津布理６－１１－Ａ,,38,214,7960908,スリランカ民主社会主義共和国、キャンディ、ガルヒンナ、モスクロード、１７６／２,,,,,,2025-10-07,1,,,,,ヒカリオートマート,0
954,3700150132453,新規,0,2025-10-07,2025-10-07,ｑｕａｎｚｈｏｕｇｕａｎｇｓｈｅｎｇｋｅｊｉｙｏｕｘｉａｎｇｏｎｇｓｉ,,外国会社等,,,,,,,,Ｎｏ．１１，Ｅａｓｔ　Ｓｔｒｅｅｔ　２ｎｄ　Ｒｏａｄ，Ｘｉｎｙｕｔｉｎｇ　Ｃｏｍｍｕｎｉｔｙ，Ｌｕｏｄｏｎｇ　Ｔｏｗｎ，Ｎａｎａｎ　Ｃｉｔｙ，Ｑｕａｎｚｈｏｕ　Ｃｉｔｙ，Ｆｕｊｉａｎ　Ｐｒｏｖｉｎｃｅ,,,,,,2025-10-07,1,,,,,チュエンジョウグワンションコージーヨウシエンゴンスー,0
958,4010001259011,新規,0,2025-10-07,2025-10-07,株式会社光和ロジスティクスジャパン,,株式会社,東京都,中央区,日本橋室町１丁目１１番１２号日本橋水野ビル７階,,13,102,1030022,,,,,,,2025-10-07,1,,,,,コウワロジスティクスジャパン,0
959,4010003048916,新規,0,2025-10-07,2025-10-07,合同会社ＭｅｌｏＣｏｎｎｅｘｔ,,合同会社,東京都,千代田区,神田神保町２丁目１０－３１ＩＷビル１Ｆ,,13,101,1010051,,,,,,,2025-10-07,1,,,,,メロコネクスト,0
965,4010005040747,新規,0,2025-10-07,2025-10-07,ＭＪＩ一般社団法人,,その他の設立登記法人,東京都,中央区,日本橋１丁目４番１号日本橋一丁目ビルディング,,13,102,1030027,,,,,,,2025-10-07,1,,,,,エムジェイアイ,0
971,4010401193529,新規,0,2025-10-07,2025-10-07,株式会社ＵＳ　Ｍｅｄｉｃａｌ,,株式会社,東京都,港区,新橋１丁目１１番７号新橋センタープレイス８階,,13,103,1050004,,,,,,,2025-10-07,1,,,,,ユーエスメディカル,0
975,4010403036215,新規,0,2025-10-07,2025-10-07,合同会社Ｄａｒｋ　Ｓｔａｒ,,合同会社,東京都,港区,虎ノ門１丁目１番１８号ヒューリック虎ノ門ビル９階Ｌ＆Ｐ司法書士法人内,,13,103,1050001,,,,,,,2025-10-07,1,,,,,ダークスター,0
979,4010405024853,新規,0,2025-10-07,2025-10-07,一般社団法人Ｐｏｄｕｌ,,その他の設立登記法人,東京都,港区,虎ノ門１丁目１番１８号ヒューリック虎ノ門ビル９階Ｌ＆Ｐ司法書士法人内,,13,103,1050001,,,,,,,2025-10-07,1,,,,,ポードル,0
983,4010601068068,新規,0,2025-10-07,2025-10-07,株式会社Ａｙｕｍｕ,,株式会社,東京都,江東区,新大橋１丁目４番１４－４０２号,,13,108,1350007,,,,,,,2025-10-07,1,,,,,アユム,0
985,4010603011835,新規,0,2025-10-07,2025-10-07,合同会社プラフルーブ,,合同会社,東京都,江東区,東陽２丁目２－１４－２１８,,13,108,1350016,,,,,,,2025-10-07,1,,,,,プラフルーブ,0
990,4010701048399,新規,0,2025-10-07,2025-10-07,信通達株式会社,,株式会社,東京都,品川区,北品川５丁目１２番１５号コンチネンタルハイツ御殿山２０２号,,13,109,1410001,,,,,,,2025-10-07,1,,,,,シンツウタツ,0
991,4010701048408,新規,0,2025-10-07,2025-10-07,株式会社ＭＯＲＥ　ＣＡＲＥ,,株式会社,東京都,品川区,小山５丁目８番１８号ネクサス武蔵小山３番館３０１,,13,109,1420062,,,,,,,2025-10-07,1,,,,,モアケア,0
993,4010801036667,新規,0,2025-10-07,2025-10-07,株式会社ＮＤＣ,,株式会社,東京都,大田区,東雪谷１丁目２６番４号,,13,111,1450065,,,,,,,2025-10-07,1,,,,,エヌディーシー,0
998,4010903010306,新規,0,2025-10-07,2025-10-07,コンフロント合同会社,,合同会社,東京都,世田谷区,砧８丁目２０番１１号ＯＡＫＳＣＯＭＭＯＮ２０１,,13,112,1570073,,,,,,,2025-10-07,1,,,,,コンフロント,0
999,4010905004850,新規,0,2025-10-07,2025-10-07,医療法人社団Ｋ＆Ｇ,,その他の設立登記法人,東京都,世田谷区,成城２丁目３９番３号ＦＭビル３階,,13,112,1570066,,,,,,,2025-10-07,1,,,,,ケーアンドジー,0
1003,4011001172609,新規,0,2025-10-07,2025-10-07,株式会社モノクロ,,株式会社,東京都,渋谷区,広尾１丁目２番地１号ヒカリビル４階,,13,113,1500012,,,,,,,2025-10-07,1,,,,,モノクロ,0
1004,4011001172682,新規,0,2025-10-07,2025-10-07,株式会社でんぐり返し,,株式会社,東京都,渋谷区,広尾１丁目２番１号ヒカリビル４階,,13,113,1500012,,,,,,,2025-10-07,1,,,,,デングリガエシ,0
1005,4011001172947,新規,0,2025-10-07,2025-10-07,株式会社ｍａｄｅ　ｍｙ　ｄａｙ,,株式会社,東京都,渋谷区,道玄坂１丁目１０番８号渋谷道玄坂東急ビル２Ｆ－Ｃ,,13,113,1500043,,,,,,,2025-10-07,1,,,,,メイドマイデイ,0
1011,4011101113529,新規,0,2025-10-07,2025-10-07,株式会社フィンピア,,株式会社,東京都,新宿区,北新宿１丁目１番１７号ウインド北新宿４階,,13,104,1690074,,,,,,,2025-10-07,1,,,,,フィンピア,0
1016,4011201026688,新規,0,2025-10-07,2025-10-07,株式会社ＢＥＬＬ,,株式会社,東京都,中野区,鷺宮４丁目４３番１号,,13,114,1650032,,,,,,,2025-10-07,1,,,,,ベル,0
1017,4011203004840,新規,0,2025-10-07,2025-10-07,ＳＵＨＡＮ合同会社,,合同会社,東京都,中野区,中央３丁目１５番６号花城荘１０１,,13,114,1640011,,,,,,,2025-10-07,1,,,,,スハン,0
1020,4011301030953,新規,0,2025-10-07,2025-10-07,株式会社スタジオアトリウム,,株式会社,東京都,杉並区,上井草２丁目２１番１号,,13,115,1670023,,,,,,,2025-10-07,1,,,,,スタジオアトリウム,0
1023,4011401027453,新規,0,2025-10-07,2025-10-07,Ｃｈｅｎｉｔｙ株式会社,,株式会社,東京都,板橋区,仲宿６３番地７号ＯＥＯｆｆｉｃｅＢｌｄｇ．１０３号室,,13,119,1730005,,,,,,,2025-10-07,1,,,,,チェニティ,0
1024,4011401027461,新規,0,2025-10-07,2025-10-07,株式会社ＲａｉｌａＣ,,株式会社,東京都,板橋区,双葉町２３番１３号,,13,119,1730011,,,,,,,2025-10-07,1,,,,,ライラック,0
1029,4011503006693,新規,0,2025-10-07,2025-10-07,合同会社鹿児島鹿屋串良蓄電所,,合同会社,東京都,荒川区,東日暮里３丁目５－４,,13,118,1160014,,,,,,,2025-10-07,1,,,,,カゴシマカノヤクシラチクデンショ,0
1030,4011601029043,新規,0,2025-10-07,2025-10-07,株式会社流れ,,株式会社,東京都,練馬区,春日町６丁目１６番１１号フォーチュン光が丘２８３号室,,13,120,1790074,,,,,,,2025-10-07,1,,,,,ナガレ,0
1034,4011801046862,新規,0,2025-10-07,2025-10-07,株式会社Ｏｈａｎａ,,株式会社,東京都,足立区,舎人５丁目２８番５号,,13,121,1210831,,,,,,,2025-10-07,1,,,,,オハナ,0
1041,4012801024288,新規,0,2025-10-07,2025-10-07,株式会社市川興業,,株式会社,東京都,東大和市,高木２丁目１２６番地の２２トゥールモンド２０２号,,13,220,2070005,,,,,,,2025-10-07,1,,,,,イチカワコウギョウ,0
1045,4013301055055,新規,0,2025-10-07,2025-10-07,株式会社令和,,株式会社,東京都,豊島区,南池袋２丁目４１番１２号池袋セントラル４０１,,13,116,1710022,,,,,,,2025-10-07,1,,,,,レイワ,0
1046,4013301055063,新規,0,2025-10-07,2025-10-07,株式会社ＩＴＡＤＡＫＩ,,株式会社,東京都,豊島区,東池袋２丁目６２番８号ＢＩＧオフィスプラザ池袋１２０６,,13,116,1700013,,,,,,,2025-10-07,1,,,,,イタダキ,0
1054,4020001165076,新規,0,2025-10-07,2025-10-07,株式会社ティー＆アイ・ホールディングス,,株式会社,神奈川県,横浜市西区,高島２丁目１９番１２号,,14,103,2200011,,,,,,,2025-10-07,1,,,,,ティーアンドアイホールディングス,0
1055,4020003029444,新規,0,2025-10-07,2025-10-07,ジャパングラ合同会社,,合同会社,神奈川県,横浜市泉区,新橋町１０４９番１,,14,116,2450009,,,,,,,2025-10-07,1,,,,,ジャパングラ,0
1056,4021001086403,新規,0,2025-10-07,2025-10-07,ワンジャパン株式会社,,株式会社,神奈川県,相模原市中央区,上溝２丁目９番１－２１２号,,14,152,2520243,,,,,,,2025-10-07,1,,,,,ワンジャパン,0
1057,4021001086428,新規,0,2025-10-07,2025-10-07,株式会社Ｃｈｅｅｒ　Ｃａｒｒｙ,,株式会社,神奈川県,愛甲郡愛川町,半原１４０３番地の５,,14,401,2430307,,,,,,,2025-10-07,1,,,,,チアキャリー,0
1058,4021001086444,新規,0,2025-10-07,2025-10-07,株式会社Ｐａｒｋｉｎｇ　Ｄｅｐｏｔ,,株式会社,神奈川県,座間市,四ツ谷５０９番地の８,,14,216,2520025,,,,,,,2025-10-07,1,,,,,パーキングデポ,0
1059,4021001086452,新規,0,2025-10-07,2025-10-07,凡株式会社,,株式会社,神奈川県,秦野市,南矢名２２２３番地の４東海ビル１０４Ｂ,,14,211,2570003,,,,,,,2025-10-07,1,,,,,ハン,0
1060,4021001086460,新規,0,2025-10-07,2025-10-07,株式会社ＯＲＳＡ,,株式会社,神奈川県,横須賀市,安浦町３丁目１４番地,,14,201,2380012,,,,,,,2025-10-07,1,,,,,オルサ,0
1061,4021001086485,新規,0,2025-10-07,2025-10-07,株式会社有馬商会,,株式会社,神奈川県,座間市,栗原１２７７番地の１７セントレー相武台５０１号,,14,216,2520013,,,,,,,2025-10-07,1,,,,,アリマショウカイ,0
1062,4021001086502,新規,0,2025-10-07,2025-10-07,株式会社ＡＶＥＬＥＳＴ,,株式会社,神奈川県,厚木市,妻田北３丁目１６番３５号,,14,212,2430812,,,,,,,2025-10-07,1,,,,,アベレスト,0
1063,4021001086510,新規,0,2025-10-07,2025-10-07,株式会社南開ホールディングス,,株式会社,神奈川県,南足柄市,壗下３５０番地,,14,217,2500103,,,,,,,2025-10-07,1,,,,,ナンカイホールディングス,0
1065,4021003016614,新規,0,2025-10-07,2025-10-07,合同会社ベアプラン,,合同会社,神奈川県,小田原市,曽我大沢６１９番地,,14,206,2500201,,,,,,,2025-10-07,1,,,,,ベアプラン,0
1066,4021003016630,新規,0,2025-10-07,2025-10-07,合同会社ＳＡＨＥＥＬ　ＴＲＡＤＩＮＧ,,合同会社,神奈川県,厚木市,長谷１１３番地－２０３,,14,212,2430036,,,,,,,2025-10-07,1,,,,,サヒールトレーディング,0
1067,4021003016671,新規,0,2025-10-07,2025-10-07,合同会社充加,,合同会社,神奈川県,鎌倉市,笹目町１番４号,,14,204,2480015,,,,,,,2025-10-07,1,,,,,ミチカ,0
1072,4030001169010,新規,0,2025-10-07,2025-10-07,株式会社Ｔｏｓｈｉ‐Ｌｉｎｋ,,株式会社,埼玉県,朝霞市,岡３丁目２７番１５号,,11,227,3510007,,,,,,,2025-10-07,1,,,,,トシリンク,0
1073,4030001169019,新規,0,2025-10-07,2025-10-07,エナジーパートナー株式会社,,株式会社,埼玉県,上尾市,大字大谷本郷８８０番地１４,,11,219,3620044,,,,,,,2025-10-07,1,,,,,エナジーパートナー,0
1074,4030001169043,新規,0,2025-10-07,2025-10-07,リタホールディングス株式会社,,株式会社,埼玉県,川口市,芝新町８番地２９,,11,203,3330851,,,,,,,2025-10-07,1,,,,,リタホールディングス,0
1079,4030003027752,新規,0,2025-10-07,2025-10-07,合同会社リトルウイングソリューションズ,,合同会社,埼玉県,和光市,新倉１丁目３番３４号,,11,229,3510115,,,,,,,2025-10-07,1,,,,,リトルウイングソリューションズ,0
1082,4040001140738,新規,0,2025-10-07,2025-10-07,株式会社マタドール,,株式会社,千葉県,船橋市,高根台１丁目８－１高野ビル１Ｆ,,12,204,2740065,,,,,,,2025-10-07,1,,,,,マタドール,0
1083,4040001140779,新規,0,2025-10-07,2025-10-07,株式会社ＬＡＣＡ,,株式会社,千葉県,松戸市,新松戸東１５番地の１ファミール新松戸６０３号,,12,207,2700033,,,,,,,2025-10-07,1,,,,,ラカ,0
1084,4040001140787,新規,0,2025-10-07,2025-10-07,Ｓｔｉｌｌ　Ｗｅａｖｅ株式会社,,株式会社,千葉県,市川市,平田３丁目２３番１９－１０１号（チェリーハイム）,,12,203,2720031,,,,,,,2025-10-07,1,,,,,スティルウィーブ,0
1085,4040001140795,新規,0,2025-10-07,2025-10-07,株式会社ルミナソーラー,,株式会社,千葉県,千葉市中央区,今井２丁目５番１２号,,12,101,2600834,,,,,,,2025-10-07,1,,,,,ルミナソーラー,0
1086,4040001140837,新規,0,2025-10-07,2025-10-07,株式会社サンネクスト,,株式会社,千葉県,市原市,馬立７２３番地１,,12,219,2900221,,,,,,,2025-10-07,1,,,,,サンネクスト,0
1088,4040003028700,新規,0,2025-10-07,2025-10-07,合同会社すやすや工房,,合同会社,千葉県,いすみ市,大原台３０５番地１０,,12,238,2980014,,,,,,,2025-10-07,1,,,,,スヤスヤコウボウ,0
1090,4050001057403,新規,0,2025-10-07,2025-10-07,株式会社ＲＩＮＧ,,株式会社,茨城県,水戸市,元吉田町９９番地の８,,08,201,3100836,,,,,,,2025-10-07,1,,,,,リング,0
1091,4050003009625,新規,0,2025-10-07,2025-10-07,ＨＲＩＤＯＹ　ＩＮＴＥＲＮＡＴＩＯＮＡＬ合同会社,,合同会社,茨城県,坂東市,辺田１５１６－１１３ネイビーハイツ２０４,,08,228,3060632,,,,,,,2025-10-07,1,,,,,リドイインターナショナル,0
1092,4050003009674,新規,0,2025-10-07,2025-10-07,合同会社ｎｏｗＸ,,合同会社,茨城県,つくば市,天久保３丁目１４番地１１ヴィレッジコスモ１０１,,08,220,3050005,,,,,,,2025-10-07,1,,,,,ナウエックス,0
1099,4060003005796,新規,0,2025-10-07,2025-10-07,コンフィアコンサルティング合同会社,,合同会社,栃木県,那須郡那須町,大字高久乙３３６９番７１５,,09,407,3250303,,,,,,,2025-10-07,1,,,,,コンフィアコンサルティング,0
1104,4070001043426,新規,0,2025-10-07,2025-10-07,株式会社すまいる不動産,,株式会社,群馬県,太田市,内ケ島町１０００番地５,,10,205,3730813,,,,,,,2025-10-07,1,,,,,スマイルフドウサン,0
1105,4070003006133,新規,0,2025-10-07,2025-10-07,Ｍ．Ｃｏｍｐａｎｙ合同会社,,合同会社,群馬県,桐生市,本町６丁目３８１番地の３,,10,203,3760031,,,,,,,2025-10-07,1,,,,,エムカンパニー,0
1106,4070003006141,新規,0,2025-10-07,2025-10-07,合同会社ＣＯＣＯＲＯ不動産＆ＦＰ,,合同会社,群馬県,前橋市,上大島町２５４番地５グラシア上大島１０１号室,,10,201,3792153,,,,,,,2025-10-07,1,,,,,ココロフドウサンアンドエフピー,0
1109,4080003003575,新規,0,2025-10-07,2025-10-07,エスコンサルティングファーム合同会社,,合同会社,静岡県,静岡市葵区,新伝馬２丁目１２番２号,,22,101,4200944,,,,,,,2025-10-07,1,,,,,エスコンサルティングファーム,0
1115,4090001019548,新規,0,2025-10-07,2025-10-07,株式会社高翔,00140965,株式会社,山梨県,笛吹市,境川町石橋２６番地１,,19,211,4060842,,,,,,,2025-10-07,1,,,,,タカショウ,0
1138,4120001280633,新規,0,2025-10-07,2025-10-07,創心株式会社,,株式会社,大阪府,大阪市中央区,瓦屋町３丁目１０－６－８０９室,,27,128,5420066,,,,,,,2025-10-07,1,,,,,ソウシン,0
1139,4120001280690,新規,0,2025-10-07,2025-10-07,株式会社モトガリチャン,,株式会社,大阪府,枚方市,東香里南町５０番６号,,27,210,5730074,,,,,,,2025-10-07,1,,,,,モトガリチャン,0
1141,4120003030796,新規,0,2025-10-07,2025-10-07,合同会社Ｔｏｎｅ,,合同会社,大阪府,大阪市城東区,鴫野西２丁目１４番６号,,27,118,5360014,,,,,,,2025-10-07,1,,,,,トーン,0
1142,4120003030870,新規,0,2025-10-07,2025-10-07,星耀合同会社,,合同会社,大阪府,大阪市城東区,東中浜６丁目１６番２号１０１,,27,118,5360023,,,,,,,2025-10-07,1,,,,,セイヨウ,0
1144,4120005025191,新規,0,2025-10-07,2025-10-07,税理士法人ひだまりｎｅｓｔ,,その他の設立登記法人,大阪府,大阪市城東区,成育２丁目７番２号３階,,27,118,5360007,,,,,,,2025-10-07,1,,,,,ヒダマリネスト,0
1145,4120101072526,新規,0,2025-10-07,2025-10-07,株式会社灯,,株式会社,大阪府,堺市美原区,北余部２６７番地５４,,27,147,5870051,,,,,,,2025-10-07,1,,,,,アカリ,0
1146,4120101072567,新規,0,2025-10-07,2025-10-07,株式会社りゅうず,,株式会社,大阪府,和泉市,伯太町４丁目１５番３１号,,27,219,5940023,,,,,,,2025-10-07,1,,,,,リュウズ,0
1147,4120101072575,新規,0,2025-10-07,2025-10-07,株式会社國友電工,,株式会社,大阪府,堺市堺区,甲斐町西２丁１番１１堺グランド日光ハイツ２０６号,,27,141,5900950,,,,,,,2025-10-07,1,,,,,クニトモデンコウ,0
1148,4120101072591,新規,0,2025-10-07,2025-10-07,株式会社プラウド,,株式会社,大阪府,藤井寺市,大井２丁目５番３５号Ｈ号,,27,226,5830008,,,,,,,2025-10-07,1,,,,,プラウド,0
1149,4120105010069,新規,0,2025-10-07,2025-10-07,一般社団法人なごみ会,,その他の設立登記法人,大阪府,堺市西区,太平寺７１１番地１ベスピア堺インター２階,,27,144,5938314,,,,,,,2025-10-07,1,,,,,ナゴミカイ,0
1154,4122001039704,新規,0,2025-10-07,2025-10-07,株式会社レオスリンク,,株式会社,大阪府,東大阪市,新鴻池町２番２号,,27,227,5780967,,,,,,,2025-10-07,1,,,,,レオスリンク,0
1155,4122003003328,新規,0,2025-10-07,2025-10-07,名成合同会社,,合同会社,大阪府,東大阪市,水走１丁目３－４５－２０２室,,27,227,5780921,,,,,,,2025-10-07,1,,,,,メイセイ,0
1161,4130001080693,新規,0,2025-10-07,2025-10-07,株式会社とり幸,,株式会社,京都府,京都市中京区,壬生森町５番地７,,26,104,6048862,,,,,,,2025-10-07,1,,,,,トリコウ,0
1162,4130001080719,新規,0,2025-10-07,2025-10-07,株式会社Ｌｅａｌｉｎａ,,株式会社,京都府,京田辺市,三山木中央２丁目２番地４パデシオン三山木駅前１１０４,,26,211,6100313,,,,,,,2025-10-07,1,,,,,レアリナ,0
1163,4130003010830,新規,0,2025-10-07,2025-10-07,合同会社Ｂｒｅａｋ　ｔｈｒｏｕｇｈ,,合同会社,京都府,京都市中京区,梅忠町２４番地ＣＯＨＪＵビル４階・５階,,26,104,6048136,,,,,,,2025-10-07,1,,,,,ブレイクスルー,0
1168,4140001140224,新規,0,2025-10-07,2025-10-07,株式会社ＡＳＰ＆Ｃｏ．,,株式会社,兵庫県,洲本市,安乎町中田７５３,,28,205,6562122,,,,,,,2025-10-07,1,,,,,エーエスピーアンドカンパニー,0
1169,4140001140265,新規,0,2025-10-07,2025-10-07,株式会社ジオネスト,,株式会社,兵庫県,神戸市灘区,深田町３丁目１番１５号ライオンズマンション第三３０４号室,,28,102,6570038,,,,,,,2025-10-07,1,,,,,ジオネスト,0
1173,4140003022676,新規,0,2025-10-07,2025-10-07,合同会社かねしん,,合同会社,兵庫県,神戸市東灘区,森南町１丁目１５番２３号,,28,101,6580011,,,,,,,2025-10-07,1,,,,,カネシン,0
1179,4170001018822,新規,0,2025-10-07,2025-10-07,株式会社川端工業,,株式会社,和歌山県,和歌山市,北出島１０９番地５,,30,201,6408317,,,,,,,2025-10-07,1,,,,,カワバタコウギョウ,0
1185,4180001168880,新規,0,2025-10-07,2025-10-07,株式会社シズク,,株式会社,愛知県,瀬戸市,原山町２４４番地,,23,204,4890889,,,,,,,2025-10-07,1,,,,,シズク,0
1186,4180001168963,新規,0,2025-10-07,2025-10-07,株式会社ＩＮＡＧＡＷＡ‐ＬＩＮＥ,,株式会社,愛知県,小牧市,大字三ツ渕１６３２番地１アイシンビル３階,,23,219,4850075,,,,,,,2025-10-07,1,,,,,イナガワライン,0
1187,4180001169037,新規,0,2025-10-07,2025-10-07,株式会社ＨＵＯ,,株式会社,愛知県,北名古屋市,鹿田院田前６０番地１,,23,234,4810004,,,,,,,2025-10-07,1,,,,,ヒュオ,0
1189,4180003029123,新規,0,2025-10-07,2025-10-07,合同会社Ｓｏｕｒｉｒｅ　Ｒａｄｉｅｘ,,合同会社,愛知県,犬山市,大字橋爪字地蔵下４３,,23,215,4840076,,,,,,,2025-10-07,1,,,,,スウリールラディユー,0
1191,4190001032573,新規,0,2025-10-07,2025-10-07,株式会社フォレント,,株式会社,三重県,津市,栄町４丁目６４９番地,,24,201,5140004,,,,,,,2025-10-07,1,,,,,フォレント,0
1193,4200001044303,新規,0,2025-10-07,2025-10-07,株式会社松建,,株式会社,岐阜県,加茂郡白川町,上佐見４３８０番地１,,21,506,5091221,,,,,,,2025-10-07,1,,,,,ショウケン,0
1195,4200003007092,新規,0,2025-10-07,2025-10-07,ＬＯＹＡＬ　ＴＲＡＤＩＮＧ合同会社,,合同会社,岐阜県,土岐市,下石町６６０番地の２９サンテラス芝Ａ－２０６,,21,212,5095202,,,,,,,2025-10-07,1,,,,,ロイヤルトレーディング,0
1197,4210003001961,新規,0,2025-10-07,2025-10-07,合同会社ＣＨＩＯＮ,,合同会社,福井県,鯖江市,鳥井町第１４号４番地８,,18,207,9160063,,,,,,,2025-10-07,1,,,,,シオン,0
1201,4230001021118,新規,0,2025-10-07,2025-10-07,株式会社アグラビ,,株式会社,富山県,砺波市,庄川町青島１６２番地,,16,208,9320314,,,,,,,2025-10-07,1,,,,,アグラビ,0
1205,4240001065618,新規,0,2025-10-07,2025-10-07,株式会社頭心社,,株式会社,広島県,広島市中区,上八丁堀７番２０－５０１号,,34,101,7300012,,,,,,,2025-10-07,1,,,,,トウシンシャ,0
1206,4240003007436,新規,0,2025-10-07,2025-10-07,合同会社こもれび,,合同会社,広島県,東広島市,西条町西条東１２４５番地２－２０６号,,34,212,7390042,,,,,,,2025-10-07,1,,,,,コモレビ,0
1208,4260001040619,新規,0,2025-10-07,2025-10-07,ＴＬＴ株式会社,,株式会社,岡山県,岡山市北区,下中野３３５－１０７ＢＡＳＥＫＯＲＡＫＵ下中野２,,33,101,7000973,,,,,,,2025-10-07,1,,,,,ティーエルティー,0
1209,4260005011525,新規,0,2025-10-07,2025-10-07,一般社団法人マルトヨフルーツ,,その他の設立登記法人,岡山県,岡山市東区,金岡西町９８４番地,,33,103,7048193,,,,,,,2025-10-07,1,,,,,マルトヨフルーツ,0
1212,4280003001996,新規,0,2025-10-07,2025-10-07,合同会社リフトアンドフォール,,合同会社,島根県,松江市,袖師町７番１３号,,32,201,6900049,,,,,,,2025-10-07,1,,,,,リフトアンドフォール,0
1218,4290001111425,新規,0,2025-10-07,2025-10-07,株式会社エクル,,株式会社,福岡県,福岡市城南区,南片江１丁目１７番１５―２０７号,,40,136,8140143,,,,,,,2025-10-07,1,,,,,エクル,0
1224,4290801031921,新規,0,2025-10-07,2025-10-07,株式会社サンネクスト,,株式会社,福岡県,北九州市八幡西区,黒崎３丁目６番１３－４０２号,,40,109,8060021,,,,,,,2025-10-07,1,,,,,サンネクスト,0
1225,4290805009864,新規,0,2025-10-07,2025-10-07,特定非営利活動法人花ひらく未来会議,,その他の設立登記法人,福岡県,北九州市八幡西区,穴生１丁目７－８,,40,109,8060049,,,,,,,2025-10-07,1,,,,,ハナヒラクミライカイギ,0
1234,4350001019752,新規,0,2025-10-07,2025-10-07,万興株式会社,,株式会社,宮崎県,都城市,下長飯町３７６番地２,,45,202,8850061,,,,,,,2025-10-07,1,,,,,マンキョウ,0
1240,4360003015311,新規,0,2025-10-07,2025-10-07,合同会社ｔｈａｎｋ,,合同会社,沖縄県,中頭郡西原町,字幸地２２９番地の５,,47,329,9030116,,,,,,,2025-10-07,1,,,,,テンク,0
1241,4370003007316,新規,0,2025-10-07,2025-10-07,合同会社Ｔｈｒｅｅｆｌｏｗｅｒ,,合同会社,宮城県,登米市,迫町新田字大久保１９９番地３,,04,212,9894601,,,,,,,2025-10-07,1,,,,,スリーフラワー,0
1248,4410001014292,新規,0,2025-10-07,2025-10-07,みんなのよりそい不動産コンサルティング株式会社,,株式会社,秋田県,秋田市,御所野堤台２丁目６番地９０,,05,201,0101419,,,,,,,2025-10-07,1,,,,,,0
1261,4440001009694,新規,0,2025-10-07,2025-10-07,株式会社Ｋ’ｓ　ＣＡＰＩＴＡＬ,,株式会社,北海道,函館市,柏木町２６番１９－１号,,01,202,0420942,,,,,,,2025-10-07,1,,,,,ケーズキャピタル,0
1265,4470001020921,新規,0,2025-10-07,2025-10-07,株式会社ＫＯＫＫＩ,,株式会社,香川県,善通寺市,与北町１０１７番地４,,37,204,7650040,,,,,,,2025-10-07,1,,,,,コッキ,0
1279,4700150132428,新規,0,2025-10-07,2025-10-07,ＮＯＶＡ　ＡＵＴＯ　ＬＵＸ　ＥＮＴＥＲＰＲＩＳＥＳ,,外国会社等,山梨県,甲府市,湯村３丁目９番３号１Ｆ,,19,201,4000073,スリランカ民主社会主義共和国、マリガワッテ、ジュンママスジッドロード、Ｎｏ．２１０／２７Ｂ,,,,,,2025-10-07,1,,,,,ノバオートラツクスエンタープライズ,0
1280,4700150132436,新規,0,2025-10-07,2025-10-07,Ａ　Ｎ　ＴＲＡＤＩＮＧ,,外国会社等,千葉県,山武市,埴谷６４５－４９,,12,237,2891223,スリランカ民主社会主義共和国、マタレ、ザヒラ、ヴィディヤラ、マワタ、１７番地,,,,,,2025-10-07,1,,,,,エイエヌトレーデイング,0
1281,4700150132452,新規,0,2025-10-07,2025-10-07,ＣＨＩＢＡ　ＡＵＴＯ　ＴＲＡＤＥＲＳ　ＰＲＩＶＡＴＥ　ＬＩＭＩＴＥＤ,,外国会社等,栃木県,足利市,五十部町５００番地８　ソラン７１０－１０３,,09,202,3260843,スリランカ民主社会主義共和国、東部州、アンパラ地区、サンマントゥライ、ビリナイヤディ１、マラヤルロード、Ｎｏ．１３８Ａ,,,,,,2025-10-07,1,,,,,チバオートトレーダーズプライートリミツテツド,0
1289,5010001258755,新規,0,2025-10-07,2025-10-07,ＴＯＫＹＯ　ＢＯＸ　ＴＲＡＤＩＮＧ株式会社,,株式会社,東京都,千代田区,神田和泉町１番地６－１６ヤマトビル４０５,,13,101,1010024,,,,,,,2025-10-07,1,,,,,,0
1290,5010001258986,新規,0,2025-10-07,2025-10-07,荊大製造株式会社,,株式会社,東京都,中央区,東日本橋２丁目１７－７クリエイトビル７Ｆ,,13,102,1030004,,,,,,,2025-10-07,1,,,,,ケイダイセイゾウ,0
1291,5010001259002,新規,0,2025-10-07,2025-10-07,株式会社ＵＮＭＥＴＥＲ,,株式会社,東京都,中央区,日本橋人形町１丁目１－８神山ビル２Ａ,,13,102,1030013,,,,,,,2025-10-07,1,,,,,アンメーター,0
1292,5010001259043,新規,0,2025-10-07,2025-10-07,株式会社スイーツ・ラボ,,株式会社,東京都,中央区,新富町一丁目１６番９号タイムズビル１階,,13,102,1030000,,,,,,,2025-10-07,1,,,,,スイーツラボ,0
1293,5010001259051,新規,0,2025-10-07,2025-10-07,株式会社モビリティトランスフォーメーション,,株式会社,東京都,千代田区,内幸町２丁目１番６号,,13,101,1000011,,,,,,,2025-10-07,1,,,,,モビリティトランスフォーメーション,0
1294,5010001259076,新規,0,2025-10-07,2025-10-07,株式会社アルゴシステムサポート,,株式会社,東京都,中央区,日本橋箱崎町５番１４号,,13,102,1030015,,,,,,,2025-10-07,1,,,,,アルゴシステムサポート,0
1295,5010001259175,新規,0,2025-10-07,2025-10-07,株式会社ウイズＥＣ,,株式会社,東京都,文京区,西片２丁目１－４－２０１,,13,105,1130024,,,,,,,2025-10-07,1,,,,,ウイズイーシー,0
1296,5010001259183,新規,0,2025-10-07,2025-10-07,株式会社Ｐｒｅｇｌｏ,,株式会社,東京都,千代田区,麹町４丁目８番,,13,101,1020083,,,,,,,2025-10-07,1,,,,,プレゴ,0
1297,5010001259233,新規,0,2025-10-07,2025-10-07,株式会社Ｕｎｉｔｅｄ　ＭＩＲＡＩ,,株式会社,東京都,中央区,銀座６丁目１３番１６号銀座ＷａｌｌビルＵＣＦ５０１,,13,102,1040061,,,,,,,2025-10-07,1,,,,,ユナイテッドミライ,0
1301,5010003048898,新規,0,2025-10-07,2025-10-07,合同会社まりあん,,合同会社,東京都,中央区,銀座１丁目２２番１１号銀座大竹ビジデンス２Ｆ,,13,102,1040061,,,,,,,2025-10-07,1,,,,,マリアン,0
1302,5010003048956,新規,0,2025-10-07,2025-10-07,グロースアシスト合同会社,,合同会社,東京都,千代田区,神田和泉町１番地６－１６ヤマトビル４０５,,13,101,1010024,,,,,,,2025-10-07,1,,,,,グロースアシスト,0
1307,5010005040746,新規,0,2025-10-07,2025-10-07,一般社団法人訪問販売防犯対策協会,,その他の設立登記法人,東京都,千代田区,丸の内１丁目６番５号丸の内北口ビルディング９階,,13,101,1000005,,,,,,,2025-10-07,1,,,,,ホウモンハンバイボウハンタイサクキョウカイ,0
1326,5010403036214,新規,0,2025-10-07,2025-10-07,合同会社Ｈｉｌｌ　Ｇａｉｌ,,合同会社,東京都,港区,虎ノ門１丁目１番１８号ヒューリック虎ノ門ビル９階Ｌ＆Ｐ司法書士法人内,,13,103,1050001,,,,,,,2025-10-07,1,,,,,ヒルゲイル,0
1332,5010501054828,新規,0,2025-10-07,2025-10-07,ＪＣｒｏｃ株式会社,,株式会社,東京都,台東区,池之端１丁目２番１１号,,13,106,1100008,,,,,,,2025-10-07,1,,,,,ジェイクロック,0
1333,5010503008022,新規,0,2025-10-07,2025-10-07,ＢＮＡ合同会社,,合同会社,東京都,台東区,浅草橋５丁目８－４,,13,106,1110053,,,,,,,2025-10-07,1,,,,,ビーエヌエー,0
1335,5010601068067,新規,0,2025-10-07,2025-10-07,株式会社ビッグフレンド,,株式会社,東京都,墨田区,東向島６丁目１１番１０－７０２号,,13,107,1310032,,,,,,,2025-10-07,1,,,,,ビッグフレンド,0
1336,5010601068083,新規,0,2025-10-07,2025-10-07,株式会社ＡＩｌｉｘ,,株式会社,東京都,江東区,豊洲３丁目６番８－６１２号,,13,108,1350061,,,,,,,2025-10-07,1,,,,,アイリックス,0
1345,5010901058189,新規,0,2025-10-07,2025-10-07,ニュースセタガヤ株式会社,,株式会社,東京都,世田谷区,世田谷３丁目１番１号,,13,112,1540017,,,,,,,2025-10-07,1,,,,,ニュースセタガヤ,0
1346,5010901058197,新規,0,2025-10-07,2025-10-07,株式会社ＢＣリテラシー,,株式会社,東京都,世田谷区,太子堂４丁目１８番１５号マガザン三軒茶屋２－３Ｆ－３,,13,112,1540004,,,,,,,2025-10-07,1,,,,,ビーシーリテラシー,0
1347,5010901058206,新規,0,2025-10-07,2025-10-07,株式会社Ｊａｍｕｎａ,,株式会社,東京都,世田谷区,世田谷２丁目１０番１１―３０１号,,13,112,1540017,,,,,,,2025-10-07,1,,,,,ジャムナ,0
1348,5010903010305,新規,0,2025-10-07,2025-10-07,プレーリア合同会社,,合同会社,東京都,世田谷区,太子堂４丁目１８番１５号マガザン三軒茶屋２－３階３,,13,112,1540004,,,,,,,2025-10-07,1,,,,,プレーリア,0
1351,5011001172459,新規,0,2025-10-07,2025-10-07,ＥｍｏｔｉｃｏｒｅＡＩ株式会社,,株式会社,東京都,渋谷区,神南１丁目１１－４ＦＰＧリンクス神南５階,,13,113,1500041,,,,,,,2025-10-07,1,,,,,エモティコアエーアイ,0
1352,5011001172525,新規,0,2025-10-07,2025-10-07,株式会社ＢＥＫ,,株式会社,東京都,目黒区,東山２丁目３－５ビラ・アペックスタワーＢ１,,13,110,1530043,,,,,,,2025-10-07,1,,,,,ベック,0
1353,5011001173052,新規,0,2025-10-07,2025-10-07,Ｌｉｙｏｌ株式会社,,株式会社,東京都,渋谷区,道玄坂１丁目１０番８号渋谷道玄坂東急ビル２Ｆ－Ｃ,,13,113,1500043,,,,,,,2025-10-07,1,,,,,リヨル,0
1355,5011003022521,新規,0,2025-10-07,2025-10-07,合同会社Ｎｕｌｕ,,合同会社,東京都,目黒区,下目黒１丁目１番１４号コノトラビル７Ｆ,,13,110,1530064,,,,,,,2025-10-07,1,,,,,ヌル,0
1356,5011003022538,新規,0,2025-10-07,2025-10-07,合同会社ＤＡＩＣＨＩ,,合同会社,東京都,渋谷区,神宮前６丁目２３番４号桑野ビル２階,,13,113,1500001,,,,,,,2025-10-07,1,,,,,ダイチ,0
1359,5011101113338,新規,0,2025-10-07,2025-10-07,星都株式会社,,株式会社,東京都,新宿区,西新宿３丁目５番３号,,13,104,1600023,,,,,,,2025-10-07,1,,,,,セイト,0
1360,5011101113445,新規,0,2025-10-07,2025-10-07,ＭＴ株式会社,,株式会社,東京都,新宿区,西新宿５丁目２番１－２００６号,,13,104,1600023,,,,,,,2025-10-07,1,,,,,エムティー,0
1361,5011101113528,新規,0,2025-10-07,2025-10-07,株式会社ジョーリーリンクス,,株式会社,東京都,新宿区,北新宿１丁目１番１７号ウインド北新宿４階,,13,104,1690074,,,,,,,2025-10-07,1,,,,,ジョーリーリンクス,0
1364,5011103016472,新規,0,2025-10-07,2025-10-07,千禧合同会社,,合同会社,東京都,新宿区,大久保１丁目１番１１－７０９号,,13,104,1690072,,,,,,,2025-10-07,1,,,,,センキ,0
1365,5011201026679,新規,0,2025-10-07,2025-10-07,株式会社Ｔ９Ｇ,,株式会社,東京都,中野区,野方１丁目４０番５－２０４号,,13,114,1650027,,,,,,,2025-10-07,1,,,,,,0
1367,5011301030952,新規,0,2025-10-07,2025-10-07,ＭＯＴＯ　Ｃｏ．株式会社,,株式会社,東京都,杉並区,久我山４丁目３１番３号,,13,115,1680082,,,,,,,2025-10-07,1,,,,,モトコー,0
1368,5011303005738,新規,0,2025-10-07,2025-10-07,合同会社ＳＷＥＥＴ　ＤＲＥＡＭＳ,,合同会社,東京都,杉並区,井草５丁目１７番２０号リヴァ・雅２０２,,13,115,1670021,,,,,,,2025-10-07,1,,,,,スイートドリームズ,0
1370,5011401027460,新規,0,2025-10-07,2025-10-07,株式会社ズィーファシステムズ,,株式会社,東京都,板橋区,成増２丁目１７番２０号４Ｆ,,13,119,1750094,,,,,,,2025-10-07,1,,,,,ズィーファシステムズ,0
1372,5011403004879,新規,0,2025-10-07,2025-10-07,尚易合同会社,,合同会社,東京都,板橋区,成増１丁目１４－９成増グリーンハイツ４０１,,13,119,1750094,,,,,,,2025-10-07,1,,,,,ショウエキ,0
1378,5011701028811,新規,0,2025-10-07,2025-10-07,東吉株式会社,,株式会社,東京都,江戸川区,東小岩５丁目３７番１２号楽新ビル３０７号,,13,123,1330052,,,,,,,2025-10-07,1,,,,,トウキチ,0
1384,5012801024287,新規,0,2025-10-07,2025-10-07,株式会社１０１,,株式会社,東京都,立川市,曙町２丁目４０番１５号２階,,13,202,1900012,,,,,,,2025-10-07,1,,,,,ワンノォーワン,0
1388,5013301055062,新規,0,2025-10-07,2025-10-07,株式会社翔天,,株式会社,東京都,豊島区,駒込３丁目１番３号エコプレイス駒込Ｂ－２０９号室,,13,116,1700003,,,,,,,2025-10-07,1,,,,,ショウテン,0
1389,5013301055079,新規,0,2025-10-07,2025-10-07,株式会社ＴＨＥ　ＤＡＹ,,株式会社,東京都,豊島区,池袋４丁目２６番３号ドーモ・デ・フローロ１０１,,13,116,1710014,,,,,,,2025-10-07,1,,,,,ザデイ,0
1392,5013303007912,新規,0,2025-10-07,2025-10-07,ＮＩＨＯＮ　ＳＥＮＹＯＲＡ　ＬＡＮＫＡ合同会社,,合同会社,東京都,豊島区,南池袋１丁目９番１８号２６２号室,,13,116,1710022,,,,,,,2025-10-07,1,,,,,ニホンセニョラランカ,0
1394,5020001165034,新規,0,2025-10-07,2025-10-07,株式会社スナオ,,株式会社,神奈川県,川崎市麻生区,片平２丁目２３―２コーポ片平１０３,,14,137,2150023,,,,,,,2025-10-07,1,,,,,スナオ,0
1396,5021001086402,新規,0,2025-10-07,2025-10-07,株式会社ＴＲＣ重量興業,,株式会社,神奈川県,小田原市,栢山３３３３番地パラグアスＢ２０１号室,,14,206,2500852,,,,,,,2025-10-07,1,,,,,ティーアールシージュウリョウコウギョウ,0
1397,5021001086427,新規,0,2025-10-07,2025-10-07,株式会社なぶらコンパスソリューションズ,,株式会社,神奈川県,小田原市,栄町２丁目１２番１０号ＳｑｕａｒｅＯ２－１Ｆ,,14,206,2500011,,,,,,,2025-10-07,1,,,,,ナブラコンパスソリューションズ,0
1398,5021001086451,新規,0,2025-10-07,2025-10-07,ＫＩＳＳＦＡＳＨＩＯＮ株式会社,,株式会社,神奈川県,秦野市,南矢名２２２３番地の４東海ビル１０６Ｂ,,14,211,2570003,,,,,,,2025-10-07,1,,,,,キスファッション,0
1399,5021001086492,新規,0,2025-10-07,2025-10-07,株式会社Ｙｕｙｕ,,株式会社,神奈川県,茅ヶ崎市,小和田１丁目１９番２３－１号,,14,207,2530012,,,,,,,2025-10-07,1,,,,,ユウユ,0
1400,5021001086501,新規,0,2025-10-07,2025-10-07,Ｎａｖｌｌａ株式会社,,株式会社,神奈川県,横須賀市,秋谷５２５５番地１５,,14,201,2400105,,,,,,,2025-10-07,1,,,,,ナブラ,0
1402,5021003016588,新規,0,2025-10-07,2025-10-07,合同会社ホームケア,,合同会社,神奈川県,相模原市緑区,与瀬１３４２番３号,,14,151,2520171,,,,,,,2025-10-07,1,,,,,ホームケア,0
1403,5021003016621,新規,0,2025-10-07,2025-10-07,クレパト合同会社,,合同会社,神奈川県,平塚市,宮松町１２番１８－１１１号ローレルスクエア湘南平塚,,14,203,2540036,,,,,,,2025-10-07,1,,,,,クレパト,0
1404,5021003016654,新規,0,2025-10-07,2025-10-07,ココデジ合同会社,,合同会社,神奈川県,茅ヶ崎市,若松町１２番２４ー１６号,,14,207,2530051,,,,,,,2025-10-07,1,,,,,ココデジ,0
1405,5021003016670,新規,0,2025-10-07,2025-10-07,合同会社イーエムエーデザイン,,合同会社,神奈川県,茅ヶ崎市,円蔵２４４６番地７,,14,207,2530084,,,,,,,2025-10-07,1,,,,,イーエムエーデザイン,0
1413,5030001168960,新規,0,2025-10-07,2025-10-07,株式会社ブルーゾーンホールディングス,,株式会社,埼玉県,川越市,新宿町１丁目１０番地１,,11,201,3501124,,,,,,,2025-10-07,1,,,,,ブルーゾーンホールディングス,0
1414,5030001168977,新規,0,2025-10-07,2025-10-07,ＧＭテック株式会社,,株式会社,埼玉県,越谷市,川柳町４丁目１６６番地６,,11,222,3430827,,,,,,,2025-10-07,1,,,,,ジーエムテック,0
1415,5030001169042,新規,0,2025-10-07,2025-10-07,株式会社三ツ矢・倅,,株式会社,埼玉県,三郷市,泉１丁目１５番地１１,,11,237,3410054,,,,,,,2025-10-07,1,,,,,ミツヤセガレ,0
1428,5040001140737,新規,0,2025-10-07,2025-10-07,株式会社こんぱす,,株式会社,千葉県,船橋市,前原西６丁目６番１５号,,12,204,2740825,,,,,,,2025-10-07,1,,,,,コンパス,0
1429,5040001140778,新規,0,2025-10-07,2025-10-07,漢成株式会社,,株式会社,千葉県,千葉市中央区,都町２丁目２２番１０号２０３,,12,101,2600001,,,,,,,2025-10-07,1,,,,,カンセイ,0
1430,5040001140786,新規,0,2025-10-07,2025-10-07,ＩＢ　ｖａｃａｔｉｏｎ株式会社,,株式会社,千葉県,千葉市緑区,あすみが丘東１丁目２０－１ＭＥＰ３号館２０３,,12,105,2670067,,,,,,,2025-10-07,1,,,,,アイビーバケーション,0
1431,5040001140794,新規,0,2025-10-07,2025-10-07,株式会社ラレース,,株式会社,千葉県,成田市,中台６丁目１番地６,,12,211,2860015,,,,,,,2025-10-07,1,,,,,ラレース,0
1432,5040001140803,新規,0,2025-10-07,2025-10-07,ＡＩＲ株式会社,,株式会社,千葉県,船橋市,前原東３丁目２１番５号,,12,204,2740824,,,,,,,2025-10-07,1,,,,,エアー,0
1433,5040005022824,新規,0,2025-10-07,2025-10-07,一般社団法人ｏｐｅｎ‐ｍｉｎｄ,,その他の設立登記法人,千葉県,市川市,国分１丁目１－２４,,12,203,2720834,,,,,,,2025-10-07,1,,,,,オープンマインド,0
1436,5050001057369,新規,0,2025-10-07,2025-10-07,株式会社Ｃｏｌｏｒｉｄｏ,,株式会社,茨城県,ひたちなか市,大字武田７９９番地２６,,08,221,3120025,,,,,,,2025-10-07,1,,,,,コロリド,0
1438,5060001038632,新規,0,2025-10-07,2025-10-07,株式会社楓商事,,株式会社,栃木県,栃木市,大宮町２５５１番地９,,09,203,3280011,,,,,,,2025-10-07,1,,,,,カエデショウジ,0
1439,5060001038649,新規,0,2025-10-07,2025-10-07,Ｌ’Ｒｉｓｏｒａ株式会社,,株式会社,栃木県,下野市,石橋２３７番地４ＬＡＰＯＲＴＥ２０７号室,,09,216,3290511,,,,,,,2025-10-07,1,,,,,リソラ,0
1440,5060005010380,新規,0,2025-10-07,2025-10-07,医療法人紘柊会,,その他の設立登記法人,栃木県,宇都宮市,元今泉７丁目３５番９号,,09,201,3210954,,,,,,,2025-10-07,1,,,,,コウシュウカイ,0
1442,5070001043400,新規,0,2025-10-07,2025-10-07,株式会社角田会計,,株式会社,群馬県,太田市,丸山町２３７番地,,10,205,3730018,,,,,,,2025-10-07,1,,,,,カクタカイケイ,0
1443,5070001043409,新規,0,2025-10-07,2025-10-07,株式会社Ｈ＆Ｂ　ＬＡＢＯ,,株式会社,群馬県,富岡市,南蛇井２５６番地,,10,210,3702464,,,,,,,2025-10-07,1,,,,,エイチアンドビーラボ,0
1444,5070001043425,新規,0,2025-10-07,2025-10-07,Ａｗａｉｓ　Ｔｒａｄｅｒｓ株式会社,,株式会社,群馬県,前橋市,粕川町込皆戸１４２番地９,,10,201,3710216,,,,,,,2025-10-07,1,,,,,アウェイストレーダーズ,0
1447,5070003006140,新規,0,2025-10-07,2025-10-07,ＩＮＦＩＮＩＴＹ合同会社,,合同会社,群馬県,太田市,宝町８９７番地１０,,10,205,3730042,,,,,,,2025-10-07,1,,,,,インフィニティ,0
1449,5080003003574,新規,0,2025-10-07,2025-10-07,ＨｉｄｅａｗａｙＳｔｕｄｉｏ合同会社,,合同会社,静岡県,静岡市葵区,与一１丁目１番２３－６号,,22,101,4200949,,,,,,,2025-10-07,1,,,,,ハイダウェイスタジオ,0
1451,5080101025834,新規,0,2025-10-07,2025-10-07,株式会社ナノグラビティ,,株式会社,静岡県,沼津市,本丸子町６９０番地の６,,22,203,4100867,,,,,,,2025-10-07,1,,,,,ナノグラビティ,0
1453,5080103003441,新規,0,2025-10-07,2025-10-07,合同会社ＴＯＭＯＲＩ,,合同会社,静岡県,沼津市,三枚橋町６番８－５０２,,22,203,4100037,,,,,,,2025-10-07,1,,,,,トモリ,0
1457,5090001019547,新規,0,2025-10-07,2025-10-07,株式会社こぶた工房,,株式会社,山梨県,甲斐市,篠原５１８番地,,19,210,4000115,,,,,,,2025-10-07,1,,,,,コブタコウボウ,0
1459,5100001038999,新規,0,2025-10-07,2025-10-07,八ヶ岳縄文アドベンチャー株式会社,,株式会社,長野県,茅野市,豊平三井の森７－２－２,,20,214,3910213,,,,,,,2025-10-07,1,,,,,ヤツガタケジョウモンアドベンチャー,0
1462,5110001039617,新規,0,2025-10-07,2025-10-07,株式会社ヘルスクリエーション,,株式会社,新潟県,新潟市南区,七軒１２１番地１１,,15,106,9501212,,,,,,,2025-10-07,1,,,,,ヘルスクリエーション,0
1463,5110001039625,新規,0,2025-10-07,2025-10-07,株式会社ＳＫ　ＷＯＲＫＳ,,株式会社,新潟県,上越市,鴨島２丁目５番９号,,15,222,9430153,,,,,,,2025-10-07,1,,,,,エスケーワークス,0
1464,5110003005914,新規,0,2025-10-07,2025-10-07,合同会社ＥＳＨＩＮ,,合同会社,新潟県,上越市,大学前３１番地,,15,222,9430810,,,,,,,2025-10-07,1,,,,,エシン,0
1473,5120001280186,新規,0,2025-10-07,2025-10-07,株式会社堂島リソース,,株式会社,大阪府,大阪市西区,京町堀１丁目８番２５号６０１,,27,106,5500003,,,,,,,2025-10-07,1,,,,,ドウジマリソース,0
1474,5120001280426,新規,0,2025-10-07,2025-10-07,創玄商事株式会社,,株式会社,大阪府,大阪市北区,黒崎町３－２６－２Ｂ,,27,127,5300023,,,,,,,2025-10-07,1,,,,,ソウゲンショウジ,0
1475,5120001280599,新規,0,2025-10-07,2025-10-07,零和智元株式会社,,株式会社,大阪府,大阪市東住吉区,中野４丁目１番１６号リベラルオリエンテ中野３０３Ｂ,,27,121,5460012,,,,,,,2025-10-07,1,,,,,レイワチゲン,0
1476,5120001280632,新規,0,2025-10-07,2025-10-07,ＹＩＣＨＩＴＡ株式会社,,株式会社,大阪府,寝屋川市,三井南町９番１７号,,27,215,5720019,,,,,,,2025-10-07,1,,,,,イチタ,0
1483,5120003030795,新規,0,2025-10-07,2025-10-07,ＯＭＴｅｃｈ合同会社,,合同会社,大阪府,大阪市東成区,大今里３丁目４番１号,,27,115,5370012,,,,,,,2025-10-07,1,,,,,オーエムテック,0
1484,5120003030829,新規,0,2025-10-07,2025-10-07,亜州国際総合事業連合合同会社,,合同会社,大阪府,大阪市北区,梅田２丁目２－２ヒルトンプラザウエストオフィスタワー１９階,,27,127,5300001,,,,,,,2025-10-07,1,,,,,アジアコクサイソウゴウジギョウレンゴウ,0
1485,5120003030853,新規,0,2025-10-07,2025-10-07,ＲＨＣ貿易合同会社,,合同会社,大阪府,大阪市西成区,千本南２丁目７番１８－３０３号,,27,122,5570055,,,,,,,2025-10-07,1,,,,,アールエイチシーボウエキ,0
1491,5120101072582,新規,0,2025-10-07,2025-10-07,エスシーアール株式会社,,株式会社,大阪府,岸和田市,箕土路町１丁目１２番２２号,,27,202,5960801,,,,,,,2025-10-07,1,,,,,エスシーアール,0
1496,5130001080676,新規,0,2025-10-07,2025-10-07,株式会社ループエステート,,株式会社,京都府,木津川市,鹿背山古寺２番地７,,26,214,6190211,,,,,,,2025-10-07,1,,,,,ループエステート,0
1497,5130001080726,新規,0,2025-10-07,2025-10-07,株式会社Ａｍａｎｅｓｔ,,株式会社,京都府,京都市南区,吉祥院高畑町１５番地,,26,107,6018332,,,,,,,2025-10-07,1,,,,,アマネスト,0
1506,5140001140339,新規,0,2025-10-07,2025-10-07,ＹＵＩ　ＧＬＯＢＡＬ　ＦＬＡＶＯＲ株式会社,,株式会社,兵庫県,神戸市中央区,磯辺通１丁目１番１８号カサベラ国際プラザビル７０７号室,,28,110,6510084,,,,,,,2025-10-07,1,,,,,ユイグローバルフレイバー,0
1513,5160001027063,新規,0,2025-10-07,2025-10-07,株式会社Ｎ．ＤＥＳＩＧＮＬＡＢＯ,,株式会社,滋賀県,大津市,関津２丁目１番３号,,25,201,5202277,,,,,,,2025-10-07,1,,,,,エヌデザインラボ,0
1514,5160001027096,新規,0,2025-10-07,2025-10-07,株式会社ＴＺＯ　Ｌｉｎｋ,,株式会社,滋賀県,野洲市,三上２３１０番地２２,,25,210,5202323,,,,,,,2025-10-07,1,,,,,ティーゼットオーリンク,0
1515,5160001027113,新規,0,2025-10-07,2025-10-07,株式会社ＮｅｘＧｏ,,株式会社,滋賀県,近江八幡市,中小森町１２４番地１６,,25,204,5230041,,,,,,,2025-10-07,1,,,,,ネクスゴー,0
1516,5160001027121,新規,0,2025-10-07,2025-10-07,株式会社エン,,株式会社,滋賀県,草津市,下笠町５１２番地２３,,25,206,5250029,,,,,,,2025-10-07,1,,,,,エン,0
1518,5170001018813,新規,0,2025-10-07,2025-10-07,株式会社マリンリゾート,,株式会社,和歌山県,東牟婁郡串本町,串本２１１３番地２,,30,428,6493503,,,,,,,2025-10-07,1,,,,,マリンリゾート,0
1527,5180001168731,新規,0,2025-10-07,2025-10-07,株式会社高栄商会,,株式会社,愛知県,名古屋市西区,中小田井４丁目３０３番地,,23,104,4520822,,,,,,,2025-10-07,1,,,,,コウエイショウカイ,0
1528,5180001168855,新規,0,2025-10-07,2025-10-07,株式会社ａｌｌ　ｏｎｅ,,株式会社,愛知県,名古屋市北区,龍ノ口町１丁目３０番地,,23,103,4620869,,,,,,,2025-10-07,1,,,,,オールワン,0
1529,5180001168896,新規,0,2025-10-07,2025-10-07,Ｅｄｇｅｗｉｎｇ　Ｓｙｓｔｅｍｓ　Ｊａｐａｎ株式会社,,株式会社,愛知県,名古屋市中区,錦２丁目２０番１５号,,23,106,4600003,,,,,,,2025-10-07,1,,,,,エッジウィングシステムズジャパン,0
1530,5180001168946,新規,0,2025-10-07,2025-10-07,株式会社Ｔ‐Ｇｒｏｕｎｄ８,,株式会社,愛知県,長久手市,蟹原１９０１番地,,23,238,4801142,,,,,,,2025-10-07,1,,,,,ティーグラウンドエイト,0
1533,5180003029056,新規,0,2025-10-07,2025-10-07,合同会社ＫＩＲＡ工業,,合同会社,愛知県,津島市,中一色町市場１７３番地,,23,208,4960025,,,,,,,2025-10-07,1,,,,,キラコウギョウ,0
1534,5180003029139,新規,0,2025-10-07,2025-10-07,合同会社やまたけ,,合同会社,愛知県,名古屋市中村区,名駅５丁目１６番１７号,,23,105,4500002,,,,,,,2025-10-07,1,,,,,ヤマタケ,0
1535,5180003029171,新規,0,2025-10-07,2025-10-07,合同会社杉本商店,,合同会社,愛知県,知多市,新舞子字神田１５番地の１,,23,224,4780036,,,,,,,2025-10-07,1,,,,,スギモトショウテン,0
1536,5180003029188,新規,0,2025-10-07,2025-10-07,合同会社ＮＥＯ,,合同会社,愛知県,名古屋市中区,橘１丁目２３番３号,,23,106,4600016,,,,,,,2025-10-07,1,,,,,ネオ,0
1539,5180303006762,新規,0,2025-10-07,2025-10-07,合同会社全道,,合同会社,愛知県,豊田市,桑原町下須形４１７番地４,,23,211,4412521,,,,,,,2025-10-07,1,,,,,ゼンドウ,0
1549,5220003004137,新規,0,2025-10-07,2025-10-07,ＨＡＤＩ　ＥＮＴＥＲＰＲＩＳＥＳ合同会社,,合同会社,石川県,加賀市,片山津町ア乙６番地１,,17,206,9220414,,,,,,,2025-10-07,1,,,,,ハディエンタープライズ,0
1559,5240001065591,新規,0,2025-10-07,2025-10-07,株式会社ｉｗ,,株式会社,広島県,東広島市,高屋町桧山９２１－５,,34,212,7392105,,,,,,,2025-10-07,1,,,,,アイダブリュー,0
1566,5240003007435,新規,0,2025-10-07,2025-10-07,合同会社ワイズリンク,,合同会社,広島県,広島市中区,舟入本町１番１－７０７号,,34,101,7300843,,,,,,,2025-10-07,1,,,,,ワイズリンク,0
1567,5260001040626,新規,0,2025-10-07,2025-10-07,はぐみ株式会社,,株式会社,岡山県,岡山市南区,西市５０３番地９,,33,104,7000953,,,,,,,2025-10-07,1,,,,,ハグミ,0
1570,5260005011524,新規,0,2025-10-07,2025-10-07,一般社団法人Ａｔｔａｒａ,,その他の設立登記法人,岡山県,井原市,井原町３３１６番地６,,33,207,7150019,,,,,,,2025-10-07,1,,,,,アッタラ,0
1572,5280001009520,新規,0,2025-10-07,2025-10-07,株式会社Ｌｉｅｎ,,株式会社,島根県,松江市,東津田町１２１４番地８Ｎｏｃｅ東津田１０３,,32,201,6900011,,,,,,,2025-10-07,1,,,,,リアン,0
1574,5280003001995,新規,0,2025-10-07,2025-10-07,合同会社ミルク研究所,,合同会社,島根県,邑智郡邑南町,山田７５番地１,,32,449,6960313,,,,,,,2025-10-07,1,,,,,ミルクケンキュウショ,0
1575,5280005007669,新規,0,2025-10-07,2025-10-07,労働者協同組合スキマプレーヤーズ,,その他の設立登記法人,島根県,出雲市,佐田町反辺１８４６番地,,32,203,6930000,,,,,,,2025-10-07,1,,,,,スキマプレーヤーズ,0
1577,5290001111564,新規,0,2025-10-07,2025-10-07,株式会社ＴＲＶＩＳＴＡ,,株式会社,福岡県,福岡市博多区,博多駅前３丁目１１番１８号ＢＡＬＨＡＫＡＴＡ１Ｆ,,40,132,8120011,,,,,,,2025-10-07,1,,,,,トラビスタ,0
1585,5290801031929,新規,0,2025-10-07,2025-10-07,株式会社ミートバリュー,,株式会社,福岡県,北九州市小倉北区,篠崎２丁目３５番２号,,40,106,8030861,,,,,,,2025-10-07,1,,,,,ミートバリュー,0
1588,5300001014377,新規,0,2025-10-07,2025-10-07,ｍｉｎｅ　ｓｍｉｌｅ株式会社,,株式会社,佐賀県,佐賀市,高木瀬東３丁目１０番１１号,,41,201,8490922,,,,,,,2025-10-07,1,,,,,マインスマイル,0
1593,5310003005101,新規,0,2025-10-07,2025-10-07,Ｔ＆Ｔ　Ａｒｃ合同会社,,合同会社,長崎県,東彼杵郡波佐見町,岳辺田郷１５９６番地,,42,323,8593722,,,,,,,2025-10-07,1,,,,,ティーアンドティーアーキ,0
1594,5320001021371,新規,0,2025-10-07,2025-10-07,株式会社Ｑｕｉｃｋ　ｄｅｓｉｇｎ,,株式会社,大分県,佐伯市,長島町３丁目１９番２７号,,44,205,8760813,,,,,,,2025-10-07,1,,,,,クイックデザイン,0
1596,5320003004787,新規,0,2025-10-07,2025-10-07,合同会社ｌｉｎｋａｇｅ,,合同会社,大分県,大分市,大字賀来一丁目７番２１号,,44,201,8700877,,,,,,,2025-10-07,1,,,,,リンケージ,0
1601,5340001027689,新規,0,2025-10-07,2025-10-07,株式会社コムラ経理,,株式会社,鹿児島県,鹿屋市,串良町岡崎２５６０番地４,,46,203,8931603,,,,,,,2025-10-07,1,,,,,コムラケイリ,0
1602,5340001027706,新規,0,2025-10-07,2025-10-07,株式会社ＶＩＴＵＣＣＩ,,株式会社,鹿児島県,霧島市,横川町中ノ１１５９番地８,,46,218,8996303,,,,,,,2025-10-07,1,,,,,ヴィトゥッチ,0
1604,5350001019751,新規,0,2025-10-07,2025-10-07,株式会社上冨工業,,株式会社,宮崎県,宮崎市,大字広原１３１５番地４,,45,201,8800125,,,,,,,2025-10-07,1,,,,,ウエトミコウギョウ,0
1608,5370001053088,新規,0,2025-10-07,2025-10-07,株式会社ハシモト,,株式会社,宮城県,本吉郡南三陸町,志津川字五日町５１番地,,04,606,9860752,,,,,,,2025-10-07,1,,,,,ハシモト,0
1609,5370001053096,新規,0,2025-10-07,2025-10-07,ＴＡＴＲホールディングス株式会社,,株式会社,宮城県,仙台市泉区,南中山２丁目２４番１０号,,04,105,9813213,,,,,,,2025-10-07,1,,,,,ティーエーティーアールホールディングス,0
1610,5370001053113,新規,0,2025-10-07,2025-10-07,ラ・ルースコンサルティング株式会社,,株式会社,宮城県,岩沼市,字荒井４６番地の７,,04,211,9892463,,,,,,,2025-10-07,1,,,,,ラルースコンサルティング,0
1627,5440001009693,新規,0,2025-10-07,2025-10-07,株式会社栄尚工業,,株式会社,北海道,函館市,的場町１５番１２号,,01,202,0400021,,,,,,,2025-10-07,1,,,,,エイショウコウギョウ,0
1634,5470003002990,新規,0,2025-10-07,2025-10-07,いちご日和合同会社,,合同会社,香川県,綾歌郡綾川町,西分１２３９番地２,,37,387,7612206,,,,,,,2025-10-07,1,,,,,イチゴビヨリ,0
1646,5700150132435,新規,0,2025-10-07,2025-10-07,ＨＡＺＥＥ　ＴＲＡＤＩＮＧ,,外国会社等,千葉県,山武郡横芝光町,木戸９９２１－３９Ａ,,12,410,2891726,スリランカ民主社会主義共和国、アンバテンネ、カハワッタ、４３／１番,,,,,,2025-10-07,1,,,,,ハジートレーデイング,0
1647,5700150132443,新規,0,2025-10-07,2025-10-07,Ｎｅｏ　Ｔｏｋｙｏ　Ｍｏｔｏｒｓ,,外国会社等,愛媛県,西予市,三瓶町津布理６－１１－Ｂ,,38,214,7960908,スリランカ民主社会主義共和国、キャンディ、カトゥガストタ、マタレロード１６／２,,,,,,2025-10-07,1,,,,,ネオトーキヨーモータース,0
1659,6010001258944,新規,0,2025-10-07,2025-10-07,株式会社エルアール,,株式会社,東京都,千代田区,平河町１丁目２番２号吉田ビル３階,,13,101,1020093,,,,,,,2025-10-07,1,,,,,エルアール,0
1660,6010001259083,新規,0,2025-10-07,2025-10-07,株式会社それいゆ,,株式会社,東京都,中央区,銀座８丁目６番４号村喜・茂竹ビル,,13,102,1040061,,,,,,,2025-10-07,1,,,,,ソレイユ,0
1661,6010001259091,新規,0,2025-10-07,2025-10-07,株式会社リュクス,,株式会社,東京都,中央区,銀座４丁目１３番３号８階,,13,102,1040061,,,,,,,2025-10-07,1,,,,,リュクス,0
1665,6010003048856,新規,0,2025-10-07,2025-10-07,合同会社ウィルゲート,,合同会社,東京都,中央区,銀座４丁目１３番５号,,13,102,1040061,,,,,,,2025-10-07,1,,,,,ウィルゲート,0
1666,6010003048922,新規,0,2025-10-07,2025-10-07,Ｆｒａｇｏｍｅｎ　Ｊａｐａｎ合同会社,,合同会社,東京都,千代田区,永田町２丁目１１番１号山王パークタワー３階,,13,101,1000014,,,,,,,2025-10-07,1,,,,,フラゴメンジャパン,0
1676,6010401193444,新規,0,2025-10-07,2025-10-07,エピックファンド１号株式会社,,株式会社,東京都,港区,六本木６丁目１５番１号けやき坂テラス６階,,13,103,1060032,,,,,,,2025-10-07,1,,,,,エピックファンドイチゴウ,0
1679,6010503008021,新規,0,2025-10-07,2025-10-07,合同会社リンクス,,合同会社,東京都,台東区,清川２丁目１８－１－２０１,,13,106,1110022,,,,,,,2025-10-07,1,,,,,リンクス,0
1682,6010601068082,新規,0,2025-10-07,2025-10-07,ウチュウ貿易株式会社,,株式会社,東京都,江東区,亀戸３丁目６２－１０ＳＡＮビル４０２,,13,108,1360071,,,,,,,2025-10-07,1,,,,,ウチュウボウエキ,0
1683,6010603011833,新規,0,2025-10-07,2025-10-07,駿傑合同会社,,合同会社,東京都,墨田区,横川３丁目６番７号２－Ａ室,,13,107,1300003,,,,,,,2025-10-07,1,,,,,シュンケツ,0
1685,6010801036657,新規,0,2025-10-07,2025-10-07,株式会社海神ロボット,,株式会社,東京都,大田区,大森北３丁目４－４ＫＴ大森北ビル４－Ｇ号室,,13,111,1430016,,,,,,,2025-10-07,1,,,,,カイジンロボット,0
1686,6010801036665,新規,0,2025-10-07,2025-10-07,ＨＩＤＡ　ＴＲＡＤＩＮＧ株式会社,,株式会社,東京都,大田区,蒲田５丁目２８番３号まるいちビル２階,,13,111,1440052,,,,,,,2025-10-07,1,,,,,ヒダトレーディング,0
1689,6010901058188,新規,0,2025-10-07,2025-10-07,オシノワ株式会社,,株式会社,東京都,世田谷区,代田５丁目１３番８号代田フラット３０１,,13,112,1550033,,,,,,,2025-10-07,1,,,,,オシノワ,0
1690,6010905004849,新規,0,2025-10-07,2025-10-07,一般財団法人若い演奏家支援協会,,その他の設立登記法人,東京都,世田谷区,赤堤４丁目１７番１６号,,13,112,1560044,,,,,,,2025-10-07,1,,,,,ワカイエンソウカシエンキョウカイ,0
1699,6011001172433,新規,0,2025-10-07,2025-10-07,恵比寿リアルティ株式会社,,株式会社,東京都,渋谷区,猿楽町９－５秀和代官山レジデンス９０１,,13,113,1500033,,,,,,,2025-10-07,1,,,,,エビスリアルティ,0
1700,6011001172953,新規,0,2025-10-07,2025-10-07,リード株式会社,,株式会社,東京都,渋谷区,渋谷１丁目１２番８－６０１号,,13,113,1500002,,,,,,,2025-10-07,1,,,,,リード,0
1701,6011001173002,新規,0,2025-10-07,2025-10-07,株式会社ＣＵＲＥＢＩ　ＡＲＴＳ,,株式会社,東京都,渋谷区,神南１丁目１１番４号ＦＰＧリンクス神南５階,,13,113,1500041,,,,,,,2025-10-07,1,,,,,クレビアーツ,0
1702,6011003022314,新規,0,2025-10-07,2025-10-07,合同会社ｄｉｖ,,合同会社,東京都,渋谷区,代々木１丁目４４番２号フレックス代々木３０１,,13,113,1510053,,,,,,,2025-10-07,1,,,,,ディヴ,0
1703,6011003022487,新規,0,2025-10-07,2025-10-07,合同会社インターコマース,,合同会社,東京都,渋谷区,桜丘町３番１－１９０５号,,13,113,1500031,,,,,,,2025-10-07,1,,,,,インターコマース,0
1707,6011101113394,新規,0,2025-10-07,2025-10-07,ＮＯＡ株式会社,,株式会社,東京都,新宿区,百人町１丁目１８番８大久保カドビルＬｉｎｋＳｐａｃｅ百人町Ｃ１５号室,,13,104,1690073,,,,,,,2025-10-07,1,,,,,ノア,0
1708,6011101113444,新規,0,2025-10-07,2025-10-07,株式会社ｍａｒｕｌａ,,株式会社,東京都,新宿区,歌舞伎町２丁目６番１６号パレドール歌舞伎町第二３階３１４号室,,13,104,1600021,,,,,,,2025-10-07,1,,,,,マルーラ,0
1710,6011103016471,新規,0,2025-10-07,2025-10-07,ハルモニカ合同会社,,合同会社,東京都,新宿区,四谷３丁目１３番地ＳＥＡＢＩＲＤビル２階,,13,104,1600004,,,,,,,2025-10-07,1,,,,,ハルモニカ,0
1716,6011301030951,新規,0,2025-10-07,2025-10-07,株式会社ＲＯＭ,,株式会社,東京都,杉並区,和田１丁目３９－５ＳＡパームレジデンス２０１,,13,115,1660012,,,,,,,2025-10-07,1,,,,,ロム,0
1717,6011401027468,新規,0,2025-10-07,2025-10-07,株式会社ＳＵＮＳ,,株式会社,東京都,板橋区,大山東町１８番４号,,13,119,1730014,,,,,,,2025-10-07,1,,,,,サンズ,0
1721,6011701028819,新規,0,2025-10-07,2025-10-07,株式会社エスアール,,株式会社,東京都,江戸川区,北小岩４丁目３５番８号,,13,123,1330051,,,,,,,2025-10-07,1,,,,,エスアール,0
1725,6011801046860,新規,0,2025-10-07,2025-10-07,株式会社ニューグッド,,株式会社,東京都,足立区,柳原１丁目３０番２７号,,13,121,1200022,,,,,,,2025-10-07,1,,,,,ニューグッド,0
1729,6012701019114,新規,0,2025-10-07,2025-10-07,株式会社怡美商貿,,株式会社,東京都,東村山市,栄町２丁目３４番７－２０５号室,,13,213,1890013,,,,,,,2025-10-07,1,,,,,イビショウボウ,0
1732,6012801024286,新規,0,2025-10-07,2025-10-07,株式会社ａｃｔ,,株式会社,東京都,立川市,幸町４丁目３１番地の２,,13,202,1900002,,,,,,,2025-10-07,1,,,,,アクト,0
1735,6012803003890,新規,0,2025-10-07,2025-10-07,Ｋ＆Ｋ合同会社,,合同会社,東京都,昭島市,東町３丁目１１番１０号,,13,207,1960033,,,,,,,2025-10-07,1,,,,,ケーアンドケー,0
1741,6020001164588,新規,0,2025-10-07,2025-10-07,クロスブリッジ・ジャパン株式会社,,株式会社,神奈川県,横浜市中区,伊勢佐木町６丁目１４６番地３ストーク伊勢崎六番館３階３０１号室,,14,104,2310045,,,,,,,2025-10-07,1,,,,,クロスブリッジジャパン,0
1743,6020001165025,新規,0,2025-10-07,2025-10-07,株式会社ｔｉｍｉｆｕｒａ,,株式会社,神奈川県,横浜市西区,北幸２丁目１０番４８号むつみビル３階,,14,103,2200004,,,,,,,2025-10-07,1,,,,,ティミフラ,0
1750,6021001086426,新規,0,2025-10-07,2025-10-07,株式会社とらキッズ,,株式会社,神奈川県,茅ヶ崎市,中海岸２丁目１０番２９－５号,,14,207,2530055,,,,,,,2025-10-07,1,,,,,トラキッズ,0
1751,6021001086434,新規,0,2025-10-07,2025-10-07,株式会社優新,,株式会社,神奈川県,厚木市,上荻野３７０９番地１,,14,212,2430201,,,,,,,2025-10-07,1,,,,,ユウシン,0
1752,6021001086459,新規,0,2025-10-07,2025-10-07,株式会社ＧＲＥＥＮ　ＧＡＢＬＥＳ,,株式会社,神奈川県,逗子市,新宿３丁目４番１９号,,14,208,2490007,,,,,,,2025-10-07,1,,,,,グリーンゲイブルズ,0
1753,6021001086500,新規,0,2025-10-07,2025-10-07,株式会社Ａｏｍｏｃｈｉ,,株式会社,神奈川県,秦野市,鶴巻南２丁目３０番４号,,14,211,2570002,,,,,,,2025-10-07,1,,,,,アオモチ,0
1754,6021001086509,新規,0,2025-10-07,2025-10-07,株式会社Ｓ＆Ｋ,,株式会社,神奈川県,平塚市,紅谷町１２番１２号,,14,203,2540043,,,,,,,2025-10-07,1,,,,,エスアンドケー,0
1755,6021003016587,新規,0,2025-10-07,2025-10-07,ＭＭ合同会社,,合同会社,神奈川県,相模原市中央区,清新１丁目６番１８号,,14,152,2520216,,,,,,,2025-10-07,1,,,,,エムエム,0
1756,6021003016637,新規,0,2025-10-07,2025-10-07,合同会社ＫＳ　ＦＩＴＮＥＳＳ,,合同会社,神奈川県,藤沢市,辻堂神台２丁目４番４３‐２０３号,,14,205,2510041,,,,,,,2025-10-07,1,,,,,ケーエスフィットネス,0
1757,6021003016653,新規,0,2025-10-07,2025-10-07,Ｇｈｏｕｓｉａ　ｔｒａｄｉｎｇ合同会社,,合同会社,神奈川県,相模原市中央区,松が丘１番１２号,,14,152,2520200,,,,,,,2025-10-07,1,,,,,グーシアトレーディング,0
1764,6030001168992,新規,0,2025-10-07,2025-10-07,株式会社ＴＳＧ,,株式会社,埼玉県,さいたま市大宮区,浅間町１丁目１５０番地１,,11,103,3300842,,,,,,,2025-10-07,1,,,,,ティエスジー,0
1767,6030003027783,新規,0,2025-10-07,2025-10-07,合同会社福井ＢＡＳＥ,,合同会社,埼玉県,さいたま市緑区,美園３丁目７番地１クレイノアミスター１０６号,,11,109,3360967,,,,,,,2025-10-07,1,,,,,フクイベース,0
1770,6040001140736,新規,0,2025-10-07,2025-10-07,株式会社ＩＴｉａ,,株式会社,千葉県,柏市,大室１０６９番地１,,12,217,2770813,,,,,,,2025-10-07,1,,,,,アイティア,0
1771,6040001140769,新規,0,2025-10-07,2025-10-07,グランディア株式会社,,株式会社,千葉県,印西市,高花６丁目１４番地８,,12,231,2701342,,,,,,,2025-10-07,1,,,,,グランディア,0
1772,6040001140793,新規,0,2025-10-07,2025-10-07,株式会社ｆｉｖｅ　ｋ,,株式会社,千葉県,習志野市,実籾３丁目７番５号,,12,216,2750002,,,,,,,2025-10-07,1,,,,,ファイブケー,0
1773,6040001140835,新規,0,2025-10-07,2025-10-07,株式会社藤嘉ホールディングス,,株式会社,千葉県,四街道市,鹿放ケ丘３３番地１,,12,228,2840008,,,,,,,2025-10-07,1,,,,,フジヨシホールディングス,0
1774,6040003028731,新規,0,2025-10-07,2025-10-07,合同会社ライフ,,合同会社,千葉県,船橋市,上山町３丁目５２５番地８３,,12,204,2730046,,,,,,,2025-10-07,1,,,,,ライフ,0
1778,6050001057368,新規,0,2025-10-07,2025-10-07,株式会社圭,,株式会社,茨城県,牛久市,刈谷町１丁目１０６,,08,219,3001235,,,,,,,2025-10-07,1,,,,,ケイ,0
1779,6050001057392,新規,0,2025-10-07,2025-10-07,株式会社Ｔｉｇｅｒ,,株式会社,茨城県,ひたちなか市,阿字ケ浦町１９７９番地４,,08,221,3111201,,,,,,,2025-10-07,1,,,,,タイガー,0
1780,6050003009664,新規,0,2025-10-07,2025-10-07,合同会社チャンペイント,,合同会社,茨城県,筑西市,二木成１５１０番地,,08,227,3080841,,,,,,,2025-10-07,1,,,,,チャンペイント,0
1781,6060001038648,新規,0,2025-10-07,2025-10-07,ＥＭＩグローバルサポート株式会社,,株式会社,栃木県,さくら市,喜連川１１１８番地,,09,214,3291412,,,,,,,2025-10-07,1,,,,,エミグローバルサポート,0
1782,6060001038656,新規,0,2025-10-07,2025-10-07,株式会社ジャントレーディング,,株式会社,栃木県,小山市,東城南１丁目１０番地１順ハイツ１０５号,,09,208,3230829,,,,,,,2025-10-07,1,,,,,ジャントレーディング,0
1783,6060001038664,新規,0,2025-10-07,2025-10-07,株式会社ＳＡＬＶＥ,,株式会社,栃木県,那須郡那須町,大字高久乙３５５３－９,,09,407,3250303,,,,,,,2025-10-07,1,,,,,サルヴェ,0
1786,6070001043408,新規,0,2025-10-07,2025-10-07,株式会社コネクト,,株式会社,群馬県,高崎市,連雀町１２番地１,,10,202,3700826,,,,,,,2025-10-07,1,,,,,コネクト,0
1787,6070001043416,新規,0,2025-10-07,2025-10-07,株式会社ＳＹＣ,,株式会社,群馬県,伊勢崎市,境小此木２８２番地２,,10,204,3700135,,,,,,,2025-10-07,1,,,,,エスワイシー,0
1788,6070001043424,新規,0,2025-10-07,2025-10-07,株式会社群馬エクスプレス,,株式会社,群馬県,伊勢崎市,波志江町４１３８番地１７華蔵寺ビル２０１号,,10,204,3720001,,,,,,,2025-10-07,1,,,,,グンマエクスプレス,0
1789,6080001027194,新規,0,2025-10-07,2025-10-07,株式会社パープルスコーピオン,,株式会社,静岡県,藤枝市,駅前１丁目１１－９,,22,214,4260034,,,,,,,2025-10-07,1,,,,,パープルスコーピオン,0
1791,6080101025833,新規,0,2025-10-07,2025-10-07,株式会社凌英設備,,株式会社,静岡県,伊豆市,湯ケ島２２番地,,22,222,4103206,,,,,,,2025-10-07,1,,,,,リョウエイセツビ,0
1792,6080103003440,新規,0,2025-10-07,2025-10-07,ネクセルイーデザイン合同会社,,合同会社,静岡県,駿東郡長泉町,本宿３０６－１,,22,342,4110945,,,,,,,2025-10-07,1,,,,,ネクセルイーデザイン,0
1794,6080401028206,新規,0,2025-10-07,2025-10-07,Ｈｅａｒｔ　Ｃｌｅａｎ株式会社,,株式会社,静岡県,浜松市中央区,上島１丁目１８－３１,,22,138,4338122,,,,,,,2025-10-07,1,,,,,ハートクリーン,0
1796,6090001019546,新規,0,2025-10-07,2025-10-07,株式会社持田林業,,株式会社,山梨県,甲斐市,西八幡４０４－１,,19,210,4000117,,,,,,,2025-10-07,1,,,,,モチダリンギョウ,0
1797,6090003002905,新規,0,2025-10-07,2025-10-07,合同会社Ｒ＆Ｋ,,合同会社,山梨県,中央市,臼井阿原１７１９番地６８,,19,214,4093844,,,,,,,2025-10-07,1,,,,,アールアンドケー,0
1800,6100003008421,新規,0,2025-10-07,2025-10-07,合同会社アイエー,,合同会社,長野県,飯田市,大王路２丁目８番地,,20,205,3950012,,,,,,,2025-10-07,1,,,,,アイエー,0
1811,6120001280284,新規,0,2025-10-07,2025-10-07,株式会社Ｂｒｉｄｇｅ　ｔｏ　Ｂｒａｎｄ,,株式会社,大阪府,大阪市北区,長柄西１丁目２番２５号ＯＳＧハイツ８０６,,27,127,5310061,,,,,,,2025-10-07,1,,,,,ブリッジトゥーブランド,0
1812,6120001280391,新規,0,2025-10-07,2025-10-07,株式会社ＥＩＮ,,株式会社,大阪府,大阪市生野区,勝山北４丁目１１番１４号,,27,116,5440033,,,,,,,2025-10-07,1,,,,,アイン,0
1813,6120001280400,新規,0,2025-10-07,2025-10-07,清川一境株式会社,,株式会社,大阪府,大阪市淀川区,西宮原３丁目２番１－３１７号,,27,123,5320004,,,,,,,2025-10-07,1,,,,,キヨカワイッキョウ,0
1814,6120001280549,新規,0,2025-10-07,2025-10-07,木三株式会社,,株式会社,大阪府,大阪市北区,松ケ枝町１番４１－４０２号,,27,127,5300037,,,,,,,2025-10-07,1,,,,,モクサン,0
1815,6120001280937,新規,0,2025-10-07,2025-10-07,株式会社真光,,株式会社,大阪府,大阪市浪速区,大国３丁目１２番２２号大国リンクスビル５０５号,,27,111,5560014,,,,,,,2025-10-07,1,,,,,シンコウ,0
1818,6120003030794,新規,0,2025-10-07,2025-10-07,合同会社Ａｐｏｐｔｏｓｉｓ,,合同会社,大阪府,大阪市大正区,三軒家東１丁目１６番１５号９０３,,27,108,5510002,,,,,,,2025-10-07,1,,,,,アポトーシス,0
1819,6120003030811,新規,0,2025-10-07,2025-10-07,易生合同会社,,合同会社,大阪府,大阪市北区,本庄西３丁目６－２ハイムリバーサイド５Ａ,,27,127,5310073,,,,,,,2025-10-07,1,,,,,エキセイ,0
1820,6120003030844,新規,0,2025-10-07,2025-10-07,合同会社フォアサイト,,合同会社,大阪府,大阪市北区,南森町１丁目１－１－２０２号室,,27,127,5300054,,,,,,,2025-10-07,1,,,,,フォアサイト,0
1821,6120003030910,新規,0,2025-10-07,2025-10-07,合同会社Ｃｏｎｎｅｃｔ　Ｈｅａｒｔｓ　Ｊａｐａｎ,,合同会社,大阪府,大阪市都島区,東野田町２丁目７番１２－１１０１号,,27,102,5340024,,,,,,,2025-10-07,1,,,,,コネクトハーツジャパン,0
1822,6120003030935,新規,0,2025-10-07,2025-10-07,合同会社ＴＮＫ,,合同会社,大阪府,大阪市西成区,岸里東２丁目１３番２２－１１０５号,,27,122,5570042,,,,,,,2025-10-07,1,,,,,ティーエヌケー,0
1830,6120101072581,新規,0,2025-10-07,2025-10-07,株式会社拓輝建設,,株式会社,大阪府,羽曳野市,はびきの５丁目４４０番地の２６,,27,222,5830872,,,,,,,2025-10-07,1,,,,,タクキケンセツ,0
1831,6120101072598,新規,0,2025-10-07,2025-10-07,株式会社ＲｅＡＬＬ,,株式会社,大阪府,堺市西区,浜寺石津町東５－２１－１９,,27,144,5930000,,,,,,,2025-10-07,1,,,,,リオール,0
1833,6120103006769,新規,0,2025-10-07,2025-10-07,ハピネス合同会社,,合同会社,大阪府,堺市北区,東三国ヶ丘町４丁２番９－４０６号室,,27,146,5918046,,,,,,,2025-10-07,1,,,,,ハピネス,0
1847,6130001080683,新規,0,2025-10-07,2025-10-07,株式会社Ｎａｋａｉｋｅ,,株式会社,京都府,亀岡市,大井町小金岐北浦８番地１８,,26,206,6210018,,,,,,,2025-10-07,1,,,,,ナカイケ,0
1848,6130001080691,新規,0,2025-10-07,2025-10-07,株式会社フタミナモ,,株式会社,京都府,京都市中京区,西洞院通六角下る池須町４０８番地の１,,26,104,6048216,,,,,,,2025-10-07,1,,,,,フタミナモ,0
1849,6130001080717,新規,0,2025-10-07,2025-10-07,株式会社Ｎプロパティ,,株式会社,京都府,京都市中京区,東洞院通蛸薬師下る元竹田町６３３番地（２０３）,,26,104,6048145,,,,,,,2025-10-07,1,,,,,エヌプロパティ,0
1850,6130001080733,新規,0,2025-10-07,2025-10-07,株式会社ジュナイ,,株式会社,京都府,京都市下京区,七条通油小路東入大黒町２２７番地第２キョートビル４０２,,26,106,6008223,,,,,,,2025-10-07,1,,,,,ジュナイ,0
1867,6160001027095,新規,0,2025-10-07,2025-10-07,春友産業株式会社,,株式会社,滋賀県,近江八幡市,桜宮町２９６－１桜宮マンション１階,,25,204,5230893,,,,,,,2025-10-07,1,,,,,ハルトモサンギョウ,0
1868,6160001027112,新規,0,2025-10-07,2025-10-07,株式会社金城産業医事務所,,株式会社,滋賀県,草津市,野路２丁目５番１６号,,25,206,5250059,,,,,,,2025-10-07,1,,,,,キンジョウサンギョウイジムショ,0
1869,6160001027120,新規,0,2025-10-07,2025-10-07,株式会社大進工業,,株式会社,滋賀県,栗東市,荒張２１０－７,,25,208,5203003,,,,,,,2025-10-07,1,,,,,ダイシンコウギョウ,0
1879,6180001168945,新規,0,2025-10-07,2025-10-07,株式会社Ｃａｒｇｌｅ,,株式会社,愛知県,名古屋市中区,栄３丁目２２番２０号,,23,106,4600008,,,,,,,2025-10-07,1,,,,,カーグル,0
1880,6180001168961,新規,0,2025-10-07,2025-10-07,ＡＣパートナーズ株式会社,,株式会社,愛知県,名古屋市中区,丸の内２丁目２０番２５号メットライフ名古屋丸の内ビル５階,,23,106,4600002,,,,,,,2025-10-07,1,,,,,エーシーパートナーズ,0
1881,6180001168986,新規,0,2025-10-07,2025-10-07,ＭＤ株式会社,,株式会社,愛知県,名古屋市東区,東片端町２３番地,,23,102,4610015,,,,,,,2025-10-07,1,,,,,エムディー,0
1886,6180005021258,新規,0,2025-10-07,2025-10-07,一般社団法人ＣＲ技術センター,,その他の設立登記法人,愛知県,名古屋市瑞穂区,新開町２１番１０号,,23,108,4670856,,,,,,,2025-10-07,1,,,,,シイアールギジュツセンター,0
1888,6180301040291,新規,0,2025-10-07,2025-10-07,株式会社スミヤ設備工事,,株式会社,愛知県,碧南市,築山町１丁目５６番地,,23,209,4470849,,,,,,,2025-10-07,1,,,,,スミヤセツビコウジ,0
1889,6180301040300,新規,0,2025-10-07,2025-10-07,森山電工株式会社,,株式会社,愛知県,豊川市,市田町中社３９番地の４,,23,207,4420862,,,,,,,2025-10-07,1,,,,,モリヤマデンコウ,0
1890,6180301040309,新規,0,2025-10-07,2025-10-07,株式会社華豊,,株式会社,愛知県,豊田市,三軒町６丁目６番地６,,23,211,4710037,,,,,,,2025-10-07,1,,,,,カホウ,0
1891,6180303006737,新規,0,2025-10-07,2025-10-07,合同会社アークモーション,,合同会社,愛知県,安城市,住吉町５丁目２６－３－２０１,,23,212,4460072,,,,,,,2025-10-07,1,,,,,アークモーション,0
1892,6190003005212,新規,0,2025-10-07,2025-10-07,ヴァリオ合同会社,,合同会社,三重県,伊賀市,柘植町８６５３番地の１,,24,216,5191402,,,,,,,2025-10-07,1,,,,,ヴァリオ,0
1895,6200001044301,新規,0,2025-10-07,2025-10-07,株式会社養老美装,,株式会社,岐阜県,養老郡養老町,田２０７番地,,21,341,5031271,,,,,,,2025-10-07,1,,,,,ヨウロウビソウ,0
1897,6210001020326,新規,0,2025-10-07,2025-10-07,株式会社禎公,,株式会社,福井県,大野市,川合第１６号９番地,,18,205,9120218,,,,,,,2025-10-07,1,,,,,テイコウ,0
1899,6220001026958,新規,0,2025-10-07,2025-10-07,株式会社大和光翔,,株式会社,石川県,輪島市,鳳至町石浦町２５番,,17,204,9280076,,,,,,,2025-10-07,1,,,,,,0
1904,6240001065616,新規,0,2025-10-07,2025-10-07,株式会社ＬＰＳ,,株式会社,広島県,広島市佐伯区,五日市１丁目１２番２０号１階,,34,108,7315127,,,,,,,2025-10-07,1,,,,,エルピーエス,0
1905,6240001065624,新規,0,2025-10-07,2025-10-07,株式会社優想電設,,株式会社,広島県,東広島市,黒瀬楢原西２丁目１６番１０号,00140985,34,212,7392629,,,,,,,2025-10-07,1,,,,,ユウソウデンセツ,0
1909,6240003007434,新規,0,2025-10-07,2025-10-07,ファヴール合同会社,,合同会社,広島県,広島市南区,段原２丁目５－１１シャルム山田１０３,,34,103,7320811,,,,,,,2025-10-07,1,,,,,ファヴール,0
1910,6250001021361,新規,0,2025-10-07,2025-10-07,株式会社エヌコーポレーション,,株式会社,山口県,下関市,卸新町７番１号,,35,201,7510818,,,,,,,2025-10-07,1,,,,,エヌコーポレーション,0
1914,6260001040591,新規,0,2025-10-07,2025-10-07,Ｋ．Ｉ株式会社,,株式会社,岡山県,岡山市北区,中仙道２丁目９番１１号,,33,101,7000964,,,,,,,2025-10-07,1,,,,,ケイアイ,0
1915,6260001040617,新規,0,2025-10-07,2025-10-07,株式会社アニーズ,,株式会社,岡山県,岡山市南区,福田７３６番地３６,,33,104,7028021,,,,,,,2025-10-07,1,,,,,アニーズ,0
1927,6320001021362,新規,0,2025-10-07,2025-10-07,株式会社佑正,,株式会社,大分県,大分市,東八幡九丁目１５４番地の１８,,44,201,,,,,,,,2025-10-07,1,,,,,ユウショウ,0
1928,6320001021379,新規,0,2025-10-07,2025-10-07,株式会社翔大,,株式会社,大分県,大分市,高松東３丁目６番１号,,44,201,8700916,,,,,,,2025-10-07,1,,,,,ショウダイ,0
1930,6330001033654,新規,0,2025-10-07,2025-10-07,メディトク株式会社,,株式会社,熊本県,熊本市東区,若葉１丁目３５―１１,,43,102,8620903,,,,,,,2025-10-07,1,,,,,メディトク,0
1932,6330003011245,新規,0,2025-10-07,2025-10-07,ＷＨＩＴＥ　ＨＯＬＥ　ＩＮＴＥＲＰＬＡＣＥ合同会社,,合同会社,熊本県,熊本市中央区,九品寺１丁目７－５プレレアール九品寺３０３,,43,101,8620976,,,,,,,2025-10-07,1,,,,,ホワイトホールインタープレイス,0
1933,6340001027696,新規,0,2025-10-07,2025-10-07,株式会社ＦＥＳ,,株式会社,鹿児島県,薩摩川内市,神田町１０番１２号,,46,215,8950052,,,,,,,2025-10-07,1,,,,,エフイーエス,0
1935,6350001019750,新規,0,2025-10-07,2025-10-07,株式会社ＣＯＲＥＷＡＹ,,株式会社,宮崎県,宮崎市,大字加江田４７２３番地,,45,201,8892161,,,,,,,2025-10-07,1,,,,,コアウェイ,0
1942,6360001035879,新規,0,2025-10-07,2025-10-07,株式会社ゼンナ,,株式会社,沖縄県,浦添市,勢理客２丁目８－１７,,47,208,9012122,,,,,,,2025-10-07,1,,,,,ゼンナ,0
1958,6420001019297,新規,0,2025-10-07,2025-10-07,株式会社ヤマミチ,,株式会社,青森県,三戸郡階上町,大字道仏字白座窪２２番地,,02,446,0391201,,,,,,,2025-10-07,1,,,,,ヤマミチ,0
1963,6430001095255,新規,0,2025-10-07,2025-10-07,株式会社Ｇｒａｎｅｚｏ,,株式会社,北海道,札幌市北区,麻生町５丁目７番８号麻生銀座会館１階,,01,102,0010045,,,,,,,2025-10-07,1,,,,,グラネゾ,0
1964,6430001095338,新規,0,2025-10-07,2025-10-07,株式会社ホリアグリコンサルスノーワークス,,株式会社,北海道,余市郡仁木町,南町４丁目１２,,01,407,0482413,,,,,,,2025-10-07,1,,,,,,0
1965,6430001095362,新規,0,2025-10-07,2025-10-07,山海株式会社,,株式会社,北海道,札幌市南区,北ノ沢１８４２番地１２９,,01,106,0050832,,,,,,,2025-10-07,1,,,,,サンカイ,0
1966,6430001095395,新規,0,2025-10-07,2025-10-07,株式会社Ｒｉｇｈｔ　Ａｒｍ　Ｓｔｒｏｎｇ,,株式会社,北海道,札幌市清田区,平岡四条７丁目４番１７号,,01,110,0040874,,,,,,,2025-10-07,1,,,,,ライトアームストロング,0
1967,6430001095445,新規,0,2025-10-07,2025-10-07,株式会社Ｒｅ・ファイン,,株式会社,北海道,札幌市北区,篠路九条２丁目５番２１号,,01,102,0028029,,,,,,,2025-10-07,1,,,,,リファイン,0
1972,6430003018156,新規,0,2025-10-07,2025-10-07,合同会社ＡＨＣ,,合同会社,北海道,札幌市北区,新川五条１丁目３番５０－２号,,01,102,0010925,,,,,,,2025-10-07,1,,,,,エーエイチシー,0
1973,6430003018164,新規,0,2025-10-07,2025-10-07,合同会社Ｍ’ｓジュエリークリエイティブファクトリー,,合同会社,北海道,札幌市中央区,大通西１４丁目１－１３,,01,101,0600042,,,,,,,2025-10-07,1,,,,,エムズジュエリークリエイティブファクトリー,0
1974,6430003018172,新規,0,2025-10-07,2025-10-07,合同会社Ｄ・Ｄ,,合同会社,北海道,恵庭市,栄恵町２６番地,,01,231,0611443,,,,,,,2025-10-07,1,,,,,ディーディー,0
1977,6430005015333,新規,0,2025-10-07,2025-10-07,一般社団法人明日への歩みサポート協会,,その他の設立登記法人,北海道,札幌市南区,石山東５丁目９番１号,,01,106,0050850,,,,,,,2025-10-07,1,,,,,アスヘノアユミサポートキョウカイ,0
1979,6470001020928,新規,0,2025-10-07,2025-10-07,株式会社Ｂｅ　ｏｎｅ,,株式会社,香川県,丸亀市,飯山町上法軍寺１０５２番地３,,37,202,7620084,,,,,,,2025-10-07,1,,,,,ビーワン,0
1983,6480003002329,新規,0,2025-10-07,2025-10-07,合同会社あるためカンパニー,,合同会社,徳島県,阿南市,見能林町青木２８８番地２,,36,204,7740017,,,,,,,2025-10-07,1,,,,,アルタメカンパニー,0
1990,6700150132442,新規,0,2025-10-07,2025-10-07,Ｓｙｓｔｅｍａｔｉｃ　Ｄｅｓｉｇｎ　Ｂ．Ｖ．,,外国会社等,東京都,港区,芝１丁目１４番１０号,,13,103,1050014,オランダ王国、２６２８ＸＧデルフト、エレクトロニカ通り２０,,,,,,2025-10-07,1,,,,,システマテイツクデザインビーヴイ,0
1995,7010001258778,新規,0,2025-10-07,2025-10-07,ＮａｎｏＭｉｒａ株式会社,,株式会社,東京都,中央区,銀座１丁目２８番１７―８０４号,,13,102,1040061,,,,,,,2025-10-07,1,,,,,ナノミラ,0
1996,7010001258860,新規,0,2025-10-07,2025-10-07,株式会社Ｔｈｉｎｋ　Ｓｔａｎｄ,,株式会社,東京都,中央区,銀座１丁目１２番４号Ｎ＆ＥＢＬＤ．６Ｆ,,13,102,1040061,,,,,,,2025-10-07,1,,,,,シンクスタンド,0
1997,7010001258902,新規,0,2025-10-07,2025-10-07,株式会社クリエイタースフィア,,株式会社,東京都,千代田区,西神田２丁目７番４号,,13,101,1010065,,,,,,,2025-10-07,1,,,,,カブクリエイタースフィア,0
1998,7010001258992,新規,0,2025-10-07,2025-10-07,ソフトリーチ株式会社,,株式会社,東京都,千代田区,神田錦町３丁目１５錦精社神田ビル天翔オフィス大手町竹橋２階２９８号室,,13,101,1010054,,,,,,,2025-10-07,1,,,,,ソフトリーチ,0
1999,7010001259009,新規,0,2025-10-07,2025-10-07,株式会社イミクレ,,株式会社,東京都,中央区,銀座１丁目１２番４号Ｎ＆ＥＢＬＤ．６Ｆ,,13,102,1040061,,,,,,,2025-10-07,1,,,,,イミクレ,0
2000,7010001259082,新規,0,2025-10-07,2025-10-07,株式会社灯,,株式会社,東京都,中央区,銀座６丁目６－１風月堂ビル５Ｆ,,13,102,1040061,,,,,,,2025-10-07,1,,,,,アカリ,0
2001,7010001259165,新規,0,2025-10-07,2025-10-07,エクアンス・サービシーズ・ジャパン株式会社,,株式会社,東京都,千代田区,平河町１丁目７番２１号平河町昭和ビル６Ｆ,,13,101,1020093,,,,,,,2025-10-07,1,,,,,エクアンスサービシーズジャパン,0
2008,7010003048707,新規,0,2025-10-07,2025-10-07,合同会社ＳＥＩＫＡ,,合同会社,東京都,中央区,銀座１丁目１２番４号Ｎ＆ＥＢＬＤ．６Ｆ,,13,102,1040061,,,,,,,2025-10-07,1,,,,,セイカ,0
2009,7010003048913,新規,0,2025-10-07,2025-10-07,Ｓａｔｏｒｉ　Ｓｙｎｅｒｇｙ合同会社,,合同会社,東京都,千代田区,神田錦町３丁目１５番地,,13,101,1010054,,,,,,,2025-10-07,1,,,,,サトリシナジー,0
2010,7010003048921,新規,0,2025-10-07,2025-10-07,合同会社Ａｒｂｏｒ　Ｐｒｕｎｉ,,合同会社,東京都,文京区,本駒込２丁目２５番９号,,13,105,1130021,,,,,,,2025-10-07,1,,,,,アルボルプルニ,0
2011,7010003048954,新規,0,2025-10-07,2025-10-07,合同会社アシスト,,合同会社,東京都,中央区,日本橋室町１丁目１１番１２号日本橋水野ビル７階,,13,102,1030022,,,,,,,2025-10-07,1,,,,,アシスト,0
2013,7010005040760,新規,0,2025-10-07,2025-10-07,恵比寿特定目的会社,,その他の設立登記法人,東京都,千代田区,霞が関３丁目２番５号,,13,101,1000013,,,,,,,2025-10-07,1,,,,,エビス,0
2019,7010405024751,新規,0,2025-10-07,2025-10-07,医療法人社団もがみ会,,その他の設立登記法人,東京都,港区,芝浦３丁目１２番１号マキノビル６階,,13,103,1080023,,,,,,,2025-10-07,1,,,,,モガミカイ,0
2027,7010601068065,新規,0,2025-10-07,2025-10-07,株式会社ＡＰＰ．,,株式会社,東京都,江東区,清澄３丁目４番１０号春煌ビル２０１,,13,108,1350024,,,,,,,2025-10-07,1,,,,,エーピーピー,0
2035,7010801036664,新規,0,2025-10-07,2025-10-07,ＴＡＷＡＫＫＵＬ株式会社,,株式会社,東京都,大田区,大森北１丁目７番１号,,13,111,1430016,,,,,,,2025-10-07,1,,,,,タワックル,0
2038,7010901058154,新規,0,2025-10-07,2025-10-07,株式会社信,,株式会社,東京都,世田谷区,桜３丁目２８番５号,,13,112,1560053,,,,,,,2025-10-07,1,,,,,ノブ,0
2039,7010901058195,新規,0,2025-10-07,2025-10-07,クオリィ株式会社,,株式会社,東京都,世田谷区,中町３丁目３４番５号,,13,112,1580091,,,,,,,2025-10-07,1,,,,,クオリィ,0
2040,7010901058204,新規,0,2025-10-07,2025-10-07,株式会社ＤｅｌｔａＩｎｃ,,株式会社,東京都,世田谷区,羽根木１丁目１９番１９号羽根木ＩＧＨ－Ｃ０２,,13,112,1560042,,,,,,,2025-10-07,1,,,,,デルタインク,0
2041,7010903010294,新規,0,2025-10-07,2025-10-07,合同会社ＣｏａＮｅｓｔＨＯＭＥ,,合同会社,東京都,世田谷区,池尻２丁目２１番２１号ボンヌシャンス池尻３０６,,13,112,1540001,,,,,,,2025-10-07,1,,,,,コアネストホーム,0
2045,7011001172465,新規,0,2025-10-07,2025-10-07,ばんフードサービス株式会社,,株式会社,東京都,目黒区,上目黒１丁目２６番１－７１４号中目黒アトラスタワー,,13,110,1530051,,,,,,,2025-10-07,1,,,,,バンフードサービス,0
2046,7011001172952,新規,0,2025-10-07,2025-10-07,株式会社クラティーズ,,株式会社,東京都,渋谷区,恵比寿南３丁目２番１９号エスペランサ恵比寿３Ｆ,,13,113,1500022,,,,,,,2025-10-07,1,,,,,クラティーズ,0
2050,7011101113443,新規,0,2025-10-07,2025-10-07,株式会社ＳａｎａＧｉ,,株式会社,東京都,新宿区,歌舞伎町２丁目６番１６号パレドール歌舞伎町第二３階３１４号室,,13,104,1600021,,,,,,,2025-10-07,1,,,,,サナギ,0
2058,7011601029040,新規,0,2025-10-07,2025-10-07,海洲株式会社,,株式会社,東京都,練馬区,三原台１丁目２９番８号ライフステージ石神井２０１号,,13,120,1770031,,,,,,,2025-10-07,1,,,,,カイシュウ,0
2059,7011703004412,新規,0,2025-10-07,2025-10-07,耀日合同会社,,合同会社,東京都,江戸川区,西小岩５丁目１３番１３号小出マンション１３１号室,,13,123,1330057,,,,,,,2025-10-07,1,,,,,ヨウビ,0
2061,7011801046843,新規,0,2025-10-07,2025-10-07,香華株式会社,,株式会社,東京都,足立区,谷在家３丁目２０番１号ＭＩＷＡビル４階,,13,121,1230863,,,,,,,2025-10-07,1,,,,,コウカ,0
2062,7011801046876,新規,0,2025-10-07,2025-10-07,株式会社ナミタテクノス,,株式会社,東京都,足立区,竹の塚２丁目１６番４号,,13,121,1210813,,,,,,,2025-10-07,1,,,,,ナミタテクノス,0
2066,7012401043660,新規,0,2025-10-07,2025-10-07,スケル株式会社,,株式会社,東京都,多摩市,落合１丁目７番地の１２ライティングビル７階,,13,224,2060033,,,,,,,2025-10-07,1,,,,,スケル,0
2076,7020001164967,新規,0,2025-10-07,2025-10-07,株式会社ＡＷＡＳＥ,,株式会社,神奈川県,横浜市南区,真金町２丁目１９－２１クオス２０２号室,,14,105,2320021,,,,,,,2025-10-07,1,,,,,アワセ,0
2077,7020001165172,新規,0,2025-10-07,2025-10-07,株式会社隆和,,株式会社,神奈川県,横浜市青葉区,市ケ尾町１１７７番地８,,14,117,2250024,,,,,,,2025-10-07,1,,,,,リュウワ,0
2080,7021001086383,新規,0,2025-10-07,2025-10-07,株式会社ＫＬＡ　ＴＲＡＤＩＮＧ,,株式会社,神奈川県,相模原市中央区,下九沢１２１１番地１ビレッジハウス下九沢４－１０６,,14,152,2520254,,,,,,,2025-10-07,1,,,,,ケーエルエートレーディング,0
2081,7021001086417,新規,0,2025-10-07,2025-10-07,株式会社ＮＦワールド,,株式会社,神奈川県,南足柄市,雨坪４６８番地１１,,14,217,2500134,,,,,,,2025-10-07,1,,,,,エヌエフワールド,0
2082,7021001086458,新規,0,2025-10-07,2025-10-07,Ｓ＆Ｈホールディングス株式会社,,株式会社,神奈川県,厚木市,栄町１丁目１６番１２号,,14,212,2430017,,,,,,,2025-10-07,1,,,,,エスアンドエイチホールディングス,0
2083,7021001086499,新規,0,2025-10-07,2025-10-07,株式会社ＣＯＭＥＴＥ,,株式会社,神奈川県,足柄上郡開成町,吉田島４３０６番地１開成庭園の杜パレットガーデン４－９０９,,14,366,2580021,,,,,,,2025-10-07,1,,,,,コメット,0
2084,7021001086508,新規,0,2025-10-07,2025-10-07,株式会社ｈａｎａｂ,,株式会社,神奈川県,大和市,福田３６０２番地３７,,14,213,2420024,,,,,,,2025-10-07,1,,,,,ハナビ,0
2087,7030001169040,新規,0,2025-10-07,2025-10-07,Ｐｅａｋ　Ｒｅｃｒｕｉｔｍｅｎｔ　Ｊａｐａｎ株式会社,,株式会社,埼玉県,さいたま市見沼区,島町７２７番地１７,,11,104,3370006,,,,,,,2025-10-07,1,,,,,ピークリクルートメントジャパン,0
2092,7030003027816,新規,0,2025-10-07,2025-10-07,内田商事合同会社,,合同会社,埼玉県,戸田市,下前１丁目１０番２－１１０２号,,11,224,3350016,,,,,,,2025-10-07,1,,,,,ウチダショウジ,0
2096,7040001140702,新規,0,2025-10-07,2025-10-07,株式会社ミント,,株式会社,千葉県,松戸市,北松戸３丁目７番地の４鈴木マンション２０１号,,12,207,2710063,,,,,,,2025-10-07,1,,,,,ミント,0
2097,7040001140735,新規,0,2025-10-07,2025-10-07,株式会社アルト,,株式会社,千葉県,千葉市稲毛区,長沼町２５９番地５４,,12,103,2630005,,,,,,,2025-10-07,1,,,,,アルト,0
2098,7040001140768,新規,0,2025-10-07,2025-10-07,株式会社Ｍａｘｉｍｕｍ　ｇｒｏｕｐ,,株式会社,千葉県,茂原市,道表８番地１９,,12,210,2970028,,,,,,,2025-10-07,1,,,,,マキシマムグループ,0
2099,7040001140776,新規,0,2025-10-07,2025-10-07,株式会社バディーズサポート,,株式会社,千葉県,千葉市若葉区,加曽利町９００番地２３,,12,104,2640017,,,,,,,2025-10-07,1,,,,,バディーズサポート,0
2100,7040001140784,新規,0,2025-10-07,2025-10-07,株式会社中島工業,,株式会社,千葉県,千葉市中央区,富士見２丁目２１番１２号アッシュビル６０７,,12,101,2600015,,,,,,,2025-10-07,1,,,,,ナカジマコウギョウ,0
2101,7040001140801,新規,0,2025-10-07,2025-10-07,株式会社フォレストフィールズ,,株式会社,千葉県,千葉市中央区,弁天２丁目２２番８号,,12,101,2600045,,,,,,,2025-10-07,1,,,,,フォレストフィールズ,0
2102,7040003028689,新規,0,2025-10-07,2025-10-07,合同会社ＮＬＳ,,合同会社,千葉県,浦安市,北栄１丁目１２番３３号ステーションタワー浦安１１０４号室,,12,227,2790002,,,,,,,2025-10-07,1,,,,,エヌエルエス,0
2105,7050001057383,新規,0,2025-10-07,2025-10-07,三笠商事荷役株式会社,,株式会社,茨城県,北茨城市,中郷町足洗３８２番地,,08,215,3191552,,,,,,,2025-10-07,1,,,,,ミカサショウジニヤク,0
2106,7050001057391,新規,0,2025-10-07,2025-10-07,株式会社どんぐり屋,,株式会社,茨城県,牛久市,ひたち野西４丁目１６番地１８,,08,219,3001206,,,,,,,2025-10-07,1,,,,,ドングリヤ,0
2107,7050001057400,新規,0,2025-10-07,2025-10-07,クラフテック茨城株式会社,,株式会社,茨城県,水戸市,栗崎町１３１６番地１,,08,201,3111133,,,,,,,2025-10-07,1,,,,,クラフテックイバラキ,0
2108,7050003009663,新規,0,2025-10-07,2025-10-07,Ｏｒｖｉｏｎ合同会社,,合同会社,茨城県,神栖市,砂山１０１４‐３１９,,08,232,3140255,,,,,,,2025-10-07,1,,,,,オルヴィオン,0
2111,7060001038655,新規,0,2025-10-07,2025-10-07,株式会社ｐｉｎｅ　ｖｏｉｃｅ,,株式会社,栃木県,下野市,小金井３０１０番地１１９,,09,216,3290414,,,,,,,2025-10-07,1,,,,,パインボイス,0
2113,7060003005793,新規,0,2025-10-07,2025-10-07,佳宏合同会社,,合同会社,栃木県,芳賀郡茂木町,大字千本４１５番地３,,09,343,3213547,,,,,,,2025-10-07,1,,,,,ヨシヒロ,0
2116,7070001043398,新規,0,2025-10-07,2025-10-07,リアライフ株式会社,,株式会社,群馬県,高崎市,上大類町８５６番地１０,,10,202,3700031,,,,,,,2025-10-07,1,,,,,リアライフ,0
2117,7070001043407,新規,0,2025-10-07,2025-10-07,株式会社上州商事,,株式会社,群馬県,高崎市,成田町３０番地２６,,10,202,3700812,,,,,,,2025-10-07,1,,,,,ジョウシュウショウジ,0
2118,7070001043415,新規,0,2025-10-07,2025-10-07,株式会社ブチオート,,株式会社,群馬県,伊勢崎市,間野谷町８６９番地２,,10,204,3792201,,,,,,,2025-10-07,1,,,,,ブチオート,0
2120,7070003006122,新規,0,2025-10-07,2025-10-07,合同会社ＲＩＳＥ　Ａｕｔｏ,,合同会社,群馬県,伊勢崎市,波志江町４７９－６,,10,204,3720001,,,,,,,2025-10-07,1,,,,,ライズオート,0
2121,7070003006139,新規,0,2025-10-07,2025-10-07,合同会社ニイハル,,合同会社,群馬県,前橋市,亀里町１３０２番地１０,,10,201,3792147,,,,,,,2025-10-07,1,,,,,ニイハル,0
2124,7090001019553,新規,0,2025-10-07,2025-10-07,株式会社Ａｅｔｈｅｒ,,株式会社,山梨県,甲斐市,富竹新田７５７番地５２,,19,210,4000113,,,,,,,2025-10-07,1,,,,,エーテル,0
2125,7090003002912,新規,0,2025-10-07,2025-10-07,合同会社成果村塾,,合同会社,山梨県,笛吹市,御坂町成田２６３３番地,,19,211,4060801,,,,,,,2025-10-07,1,,,,,セイカソンジュク,0
2126,7100001039005,新規,0,2025-10-07,2025-10-07,ルートインジャパン株式会社,,株式会社,長野県,上田市,中央３丁目８番７号,,20,203,3860012,,,,,,,2025-10-07,1,,,,,ルートインジャパン,0
2128,7100003008420,新規,0,2025-10-07,2025-10-07,全方展望合同会社,,合同会社,長野県,長野市,西後町１５９７－１,,20,201,3810000,,,,,,,2025-10-07,1,,,,,ゼンホウテンボウ,0
2131,7110001039623,新規,0,2025-10-07,2025-10-07,株式会社アール,,株式会社,新潟県,新潟市南区,庄瀬４２５番地１,,15,106,9501446,,,,,,,2025-10-07,1,,,,,アール,0
2137,7120001279516,新規,0,2025-10-07,2025-10-07,オレンジインターナショナル株式会社,,株式会社,大阪府,大阪市中央区,久太郎町２丁目１番４号ローレルタワー堺筋本町３００９,,27,128,5410056,,,,,,,2025-10-07,1,,,,,,0
2138,7120001280309,新規,0,2025-10-07,2025-10-07,安居株式会社,,株式会社,大阪府,大阪市北区,西天満４丁目３番１１号西天満ＦＵＫＵＥビル６０１,,27,127,5300047,,,,,,,2025-10-07,1,,,,,ヤスイ,0
2139,7120001280399,新規,0,2025-10-07,2025-10-07,将進酒株式会社,,株式会社,大阪府,大阪市西成区,玉出西１丁目２番２７号ホワイトコーポ２Ｂ号,,27,122,5570045,,,,,,,2025-10-07,1,,,,,ショウシンシュ,0
2140,7120001280465,新規,0,2025-10-07,2025-10-07,株式会社Ａ・Ｒ・Ａ　ｓｙｓｔｅｍ,,株式会社,大阪府,大阪市北区,芝田２丁目８番１１号,,27,127,5300012,,,,,,,2025-10-07,1,,,,,エーアールエーシステム,0
2141,7120001280556,新規,0,2025-10-07,2025-10-07,石川株式会社,,株式会社,大阪府,大阪市東住吉区,中野４丁目１番１６号リベラルオリエンテ中野４０８Ｂ,,27,121,5460012,,,,,,,2025-10-07,1,,,,,イシカワ,0
2142,7120001280837,新規,0,2025-10-07,2025-10-07,ＣＯＮＵＲＡ　ＪＡＰＡＮ株式会社,,株式会社,大阪府,大阪市中央区,南久宝寺町１丁目９－１ルート船場ビル５０４号室,,27,128,5410058,,,,,,,2025-10-07,1,,,,,コヌラジャパン,0
2150,7120003030785,新規,0,2025-10-07,2025-10-07,合同会社ＡｘｉｓＧａｍｅｓ,,合同会社,大阪府,大阪市中央区,南本町１丁目６－７,,27,128,5410054,,,,,,,2025-10-07,1,,,,,アクシスゲームズ,0
2151,7120003030843,新規,0,2025-10-07,2025-10-07,ＢＡＲＫＡＴ　ＩＮＴＥＲＮＡＴＩＯＮＡＬ合同会社,,合同会社,大阪府,大阪市住吉区,我孫子５丁目９－１７我孫子シャルマン２０５,,27,120,5580014,,,,,,,2025-10-07,1,,,,,バルカットインターナショナル,0
2152,7120003030876,新規,0,2025-10-07,2025-10-07,然途Ｌｉｎｋ合同会社,,合同会社,大阪府,大阪市東住吉区,田辺１丁目２－１０、４Ｂ,,27,121,5460031,,,,,,,2025-10-07,1,,,,,ゼントリンク,0
2155,7120101072548,新規,0,2025-10-07,2025-10-07,株式会社ＮＦＪ,,株式会社,大阪府,泉佐野市,大西１丁目１０番５号,,27,213,5980043,,,,,,,2025-10-07,1,,,,,エヌエフジェイ,0
2158,7120103006776,新規,0,2025-10-07,2025-10-07,合同会社ＹＫＨＲソリューションズ,,合同会社,大阪府,堺市堺区,中安井町３丁４－１０,,27,141,5900063,,,,,,,2025-10-07,1,,,,,ワイケイエイチアールソリューションズ,0
2161,7120901051544,新規,0,2025-10-07,2025-10-07,株式会社ベッドロックシステムズ,,株式会社,大阪府,摂津市,鳥飼下３丁目３４－１０,,27,224,5660071,,,,,,,2025-10-07,1,,,,,ベッドロックシステムズ,0
2168,7130001080682,新規,0,2025-10-07,2025-10-07,カレイド株式会社,,株式会社,京都府,木津川市,鹿背山当田６８番地,,26,214,6190211,,,,,,,2025-10-07,1,,,,,カレイド,0
2169,7130001080690,新規,0,2025-10-07,2025-10-07,株式会社ＦＺコーポレーション,,株式会社,京都府,京都市左京区,上高野川原町１番地１,,26,103,6060061,,,,,,,2025-10-07,1,,,,,エフゼットコーポレーション,0
2170,7130001080699,新規,0,2025-10-07,2025-10-07,株式会社建機サービス摂津,,株式会社,京都府,亀岡市,東別院町東掛向田１１番地,,26,206,6210103,,,,,,,2025-10-07,1,,,,,ケンキサービスセッツ,0
2171,7130001080724,新規,0,2025-10-07,2025-10-07,株式会社Ｏ‐ＫＥＮ,,株式会社,京都府,京都市山科区,川田西浦町１３番地４,,26,110,6078332,,,,,,,2025-10-07,1,,,,,オオケン,0
2172,7130001080732,新規,0,2025-10-07,2025-10-07,株式会社ミズタ,,株式会社,京都府,京都市左京区,川端通二条下る孫橋町１６番地１,,26,103,6068385,,,,,,,2025-10-07,1,,,,,ミズタ,0
2178,7140001140221,新規,0,2025-10-07,2025-10-07,株式会社アンダーベリーデザイン研究所,,株式会社,兵庫県,神戸市中央区,元町通６丁目１番６号,,28,110,6500022,,,,,,,2025-10-07,1,,,,,アンダーベリーデザインケンキュウショ,0
2179,7140001140246,新規,0,2025-10-07,2025-10-07,株式会社サキモト,,株式会社,兵庫県,神戸市西区,春日台５丁目１６番地の１２,,28,111,6512276,,,,,,,2025-10-07,1,,,,,サキモト,0
2180,7140001140287,新規,0,2025-10-07,2025-10-07,株式会社水木真珠,,株式会社,兵庫県,神戸市中央区,加納町２丁目４番１０号水木ビル８階,,28,110,6500001,,,,,,,2025-10-07,1,,,,,ミズキシンジュ,0
2185,7140003022673,新規,0,2025-10-07,2025-10-07,合同会社いのうえファーム,,合同会社,兵庫県,加東市,山国８６４番地,,28,228,6731421,,,,,,,2025-10-07,1,,,,,イノウエファーム,0
2186,7140005027596,新規,0,2025-10-07,2025-10-07,一般社団法人ＴＺＯ４８,,その他の設立登記法人,兵庫県,神戸市中央区,大日通７丁目１番９号,,28,110,6510064,,,,,,,2025-10-07,1,,,,,ティーゼットオーフォーティーエイト,0
2187,7140005027654,新規,0,2025-10-07,2025-10-07,一般社団法人家じまいサポートセンター兵庫,,その他の設立登記法人,兵庫県,明石市,松の内２丁目６番地の２アルファステイツ西明石駅８０５号,,28,203,6730016,,,,,,,2025-10-07,1,,,,,イエジマイサポートセンターヒョウゴ,0
2194,7180001168845,新規,0,2025-10-07,2025-10-07,株式会社クラリス,,株式会社,愛知県,名古屋市中村区,名駅４丁目２４番５号第２森ビル４０１,,23,105,4500002,,,,,,,2025-10-07,1,,,,,クラリス,0
2195,7180001168886,新規,0,2025-10-07,2025-10-07,株式会社あさかぜ,,株式会社,愛知県,名古屋市東区,徳川２丁目１８番１４号,,23,102,4610025,,,,,,,2025-10-07,1,,,,,アサカゼ,0
2196,7180001168894,新規,0,2025-10-07,2025-10-07,富山シーリング技研株式会社,,株式会社,愛知県,名古屋市緑区,鳥澄２丁目９２２番地の３,,23,114,4580025,,,,,,,2025-10-07,1,,,,,トミヤマシーリングギケン,0
2197,7180001168903,新規,0,2025-10-07,2025-10-07,平野自動車株式会社,,株式会社,愛知県,弥富市,五之三町川平４番地１８,,23,235,4980012,,,,,,,2025-10-07,1,,,,,ヒラノジドウシャ,0
2198,7180003029186,新規,0,2025-10-07,2025-10-07,Ｓａｒａｈ　ｅｎｔｅｒｐｒｉｓｅｓ合同会社,,合同会社,愛知県,名古屋市中川区,東起町４丁目１０１番地１，２０３－２号室,,23,110,4540935,,,,,,,2025-10-07,1,,,,,サラエンタープライゼス,0
2199,7180005021240,新規,0,2025-10-07,2025-10-07,特定非営利活動法人烈ＳＭＩＬＥ　ＣＯＮＮＥＣＴＩＯＮ,,その他の設立登記法人,愛知県,春日井市,町屋町３５６６番地４,,23,206,4860809,,,,,,,2025-10-07,1,,,,,レツスマイルコネクション,0
2202,7180301040274,新規,0,2025-10-07,2025-10-07,株式会社ジェイテクトＳＴＩＮＧＳ,,株式会社,愛知県,岡崎市,市場町字桐山８番地,,23,202,4443521,,,,,,,2025-10-07,1,,,,,ジェイテクトスティングス,0
2203,7180301040299,新規,0,2025-10-07,2025-10-07,株式会社ポラリスアカデミー,,株式会社,愛知県,豊橋市,西小田原町８１番地,,23,201,4400887,,,,,,,2025-10-07,1,,,,,ポラリスアカデミー,0
2208,7190001032587,新規,0,2025-10-07,2025-10-07,株式会社川戸商会,,株式会社,三重県,四日市市,西山町７６８６番地６,,24,202,5121103,,,,,,,2025-10-07,1,,,,,カワトショウカイ,0
2212,7210001020333,新規,0,2025-10-07,2025-10-07,株式会社安井左官タイル,,株式会社,福井県,吉田郡永平寺町,松岡神明３丁目５５番地,,18,322,9101117,,,,,,,2025-10-07,1,,,,,ヤスイサカンタイル,0
2213,7230001021123,新規,0,2025-10-07,2025-10-07,株式会社ＤｏｕｂｌｅＰ‐Ｏｎｅ,,株式会社,富山県,射水市,三ケ７９７番地白銀ビル２Ｆ,,16,211,9390341,,,,,,,2025-10-07,1,,,,,ダブルピーワン,0
2218,7240001065615,新規,0,2025-10-07,2025-10-07,株式会社ＭＯＲＩＫＵＲＯ,,株式会社,広島県,広島市佐伯区,屋代３丁目２４番２０－２号,,34,108,7315146,,,,,,,2025-10-07,1,,,,,モリクロ,0
2219,7240001065623,新規,0,2025-10-07,2025-10-07,株式会社Ｋｔｅｃ,,株式会社,広島県,呉市,広塩焼２丁目２０番７号,,34,202,7370103,,,,,,,2025-10-07,1,,,,,ケイテック,0
2222,7240003007433,新規,0,2025-10-07,2025-10-07,合同会社オフィスＫＴＫ,,合同会社,広島県,福山市,三之丸町８番７号サーパスシティ福山駅前８０９,,34,207,7200066,,,,,,,2025-10-07,1,,,,,オフィスケーティケー,0
2230,7280001009519,新規,0,2025-10-07,2025-10-07,株式会社ＳＰホールディングス,,株式会社,島根県,松江市,西津田３丁目２番７号,,32,201,6900017,,,,,,,2025-10-07,1,,,,,エスピーホールディングス,0
2238,7290003017460,新規,0,2025-10-07,2025-10-07,合同会社Ｔｅｎａｇｅａｒ,,合同会社,福岡県,福岡市博多区,博多駅前１丁目２３番２号ＰａｒｋＦｒｏｎｔ博多駅前１丁目５Ｆ－Ｂ,,40,132,8120011,,,,,,,2025-10-07,1,,,,,テナギア,0
2239,7290003017510,新規,0,2025-10-07,2025-10-07,ノマエ合同会社,,合同会社,福岡県,福岡市博多区,博多駅前３丁目４番２５号アクロスキューブ博多駅前５１２号室,,40,132,8120011,,,,,,,2025-10-07,1,,,,,ノマエ,0
2241,7290801031893,新規,0,2025-10-07,2025-10-07,株式会社石川工業,,株式会社,福岡県,直方市,大字下新入６３０番地５第２天神ビル,,40,204,8220032,,,,,,,2025-10-07,1,,,,,イシカワコウギョウ,0
2242,7290801031927,新規,0,2025-10-07,2025-10-07,株式会社Ｏｓｍｏｓｅ,,株式会社,福岡県,北九州市戸畑区,中本町３番６号,,40,105,8040061,,,,,,,2025-10-07,1,,,,,オスモズ,0
2243,7290803005177,新規,0,2025-10-07,2025-10-07,ライウ合同会社,,合同会社,福岡県,北九州市若松区,高須西１丁目４番４号,,40,103,8080146,,,,,,,2025-10-07,1,,,,,ライウ,0
2244,7300001014367,新規,0,2025-10-07,2025-10-07,株式会社グリーンリーフ,,株式会社,佐賀県,伊万里市,二里町八谷搦１８５番地８,,41,205,8480031,,,,,,,2025-10-07,1,,,,,グリーンリーフ,0
2245,7300003002353,新規,0,2025-10-07,2025-10-07,合同会社コネクト,,合同会社,佐賀県,杵島郡白石町,大字福富下分２６０９番地６,,41,425,8490402,,,,,,,2025-10-07,1,,,,,コネクト,0
2246,7300005007268,新規,0,2025-10-07,2025-10-07,一般社団法人かなさしーぶん,,その他の設立登記法人,佐賀県,鳥栖市,儀徳町３１００番地３３,,41,203,8410066,,,,,,,2025-10-07,1,,,,,カナサシーブン,0
2257,7340003004973,新規,0,2025-10-07,2025-10-07,Ｒ＆Ｔ合同会社,,合同会社,鹿児島県,鹿児島市,石谷町２０６７－２,,46,201,8992701,,,,,,,2025-10-07,1,,,,,アールアンドティー,0
2260,7360001035812,新規,0,2025-10-07,2025-10-07,株式会社ＭＴＫ,,株式会社,沖縄県,那覇市,鏡原町５番１３号ラベルビー１０１,,47,201,9010151,,,,,,,2025-10-07,1,,,,,,0
2261,7360001035861,新規,0,2025-10-07,2025-10-07,株式会社ＪＡＣＫ９,,株式会社,沖縄県,那覇市,安里１丁目４番１４号ふくよしビル２Ｆ,,47,201,9020067,,,,,,,2025-10-07,1,,,,,ジャックナイン,0
2273,7370001053086,新規,0,2025-10-07,2025-10-07,株式会社Ｙ　ｓｔｙｌｅ,,株式会社,宮城県,多賀城市,新田字南関合１８番地の２０,,04,209,9850854,,,,,,,2025-10-07,1,,,,,ワイスタイル,0
2274,7370001053094,新規,0,2025-10-07,2025-10-07,株式会社ソル・トラディション・パートナーズ,,株式会社,宮城県,名取市,相互台４丁目２１番地の３,,04,207,9811246,,,,,,,2025-10-07,1,,,,,ソルトラディションパートナーズ,0
2275,7370001053103,新規,0,2025-10-07,2025-10-07,株式会社大自然,,株式会社,宮城県,仙台市宮城野区,榴岡１丁目６番５号,,04,102,9830852,,,,,,,2025-10-07,1,,,,,ダイシゼン,0
2288,7430001095353,新規,0,2025-10-07,2025-10-07,株式会社クリスフィールド,,株式会社,北海道,北広島市,大曲南ヶ丘４丁目１３番地１０,,01,234,0611275,,,,,,,2025-10-07,1,,,,,クリスフィールド,0
2289,7430001095428,新規,0,2025-10-07,2025-10-07,株式会社ジースペース,,株式会社,北海道,札幌市中央区,南六条西７丁目５－２第８２松井ビル１階,,01,101,0640806,,,,,,,2025-10-07,1,,,,,ジースペース,0
2295,7450001014749,新規,0,2025-10-07,2025-10-07,株式会社水恵,,株式会社,北海道,旭川市,春光台五条２丁目１７番１３号,,01,204,0718145,,,,,,,2025-10-07,1,,,,,スイケイ,0
2308,7700150132441,新規,0,2025-10-07,2025-10-07,ＡＹＤＨ　ＥＮＴＥＲＰＲＩＳＥＳ,,外国会社等,千葉県,千葉市若葉区,高根町８７８番地３－Ｃ,,12,104,2650061,スリランカ民主社会主義共和国、キャンディ、アクラナ、メルチェナ、Ｎｏ．８９５,,,,,,2025-10-07,1,,,,,アイドエンタープライズ,0
2323,8010001257787,新規,0,2025-10-07,2025-10-07,株式会社Ｌｕｘｕｒｙ　ｃａｒ　ｓｈａｒｅ,,株式会社,東京都,中央区,晴海３丁目１３番２－３１１６号,,13,102,1040053,,,,,,,2025-10-07,1,,,,,ラグジュアリーカーシェア,0
2324,8010001258637,新規,0,2025-10-07,2025-10-07,株式会社ＬｏｃａｌＢａｓｅ,,株式会社,東京都,千代田区,神田松永町１３Ｖｏｒｔ秋葉原ＩＩ,,13,101,1010023,,,,,,,2025-10-07,1,,,,,ローカルベイス,0
2325,8010001258876,新規,0,2025-10-07,2025-10-07,株式会社本能,,株式会社,東京都,千代田区,神田和泉町１番地６－１６ヤマトビル４０５,,13,101,1010024,,,,,,,2025-10-07,1,,,,,ホンノウ,0
2326,8010001259016,新規,0,2025-10-07,2025-10-07,キョウセー物産株式会社,,株式会社,東京都,中央区,日本橋室町１丁目１１番１２号日本橋水野ビル７階,,13,102,1030022,,,,,,,2025-10-07,1,,,,,キョウセーブッサン,0
2327,8010001259049,新規,0,2025-10-07,2025-10-07,株式会社ヘルスコンサルティング,,株式会社,東京都,千代田区,神田佐久間町２丁目１８番地１秋葉原ＳＴＮフロント１０階,,13,101,1010025,,,,,,,2025-10-07,1,,,,,ヘルスコンサルティング,0
2328,8010001259115,新規,0,2025-10-07,2025-10-07,株式会社ＬＢＹホールディングス,,株式会社,東京都,千代田区,東神田２丁目１０－９,,13,101,1010031,,,,,,,2025-10-07,1,,,,,エルビーワイホールディングス,0
2329,8010001259131,新規,0,2025-10-07,2025-10-07,Ｏ株式会社,,株式会社,東京都,中央区,日本橋小舟町１４番７号ＳＯＩＬＮｉｈｏｎｂａｓｈｉ２階,,13,102,1030024,,,,,,,2025-10-07,1,,,,,オー,0
2330,8010001259164,新規,0,2025-10-07,2025-10-07,株式会社Ｇｒａｓｃｅｎｔ　Ｐｒｏｐｅｒｔｙ,,株式会社,東京都,中央区,日本橋室町１丁目１１番１２号日本橋水野ビル７階,,13,102,1030022,,,,,,,2025-10-07,1,,,,,グラセントプロパティ,0
2331,8010001259206,新規,0,2025-10-07,2025-10-07,株式会社マジック,,株式会社,東京都,中央区,日本橋室町１丁目１１番２号日本橋水野ビル７階,,13,102,1030022,,,,,,,2025-10-07,1,,,,,マジック,0
2334,8010003048929,新規,0,2025-10-07,2025-10-07,合同会社ヒトトキ,,合同会社,東京都,中央区,日本橋兜町１７兜町第６葉山ビル４Ｆ,,13,102,1030026,,,,,,,2025-10-07,1,,,,,ヒトトキ,0
2335,8010003048937,新規,0,2025-10-07,2025-10-07,ＨｏＧＡ　Ｓｔｕｄｉｏ合同会社,,合同会社,東京都,千代田区,九段南１丁目５番６号りそな九段ビル５階ＫＳフロア,,13,101,1020074,,,,,,,2025-10-07,1,,,,,ホガスタジオ,0
2338,8010005040751,新規,0,2025-10-07,2025-10-07,一般社団法人ＣＣＯ普及協会,,その他の設立登記法人,東京都,千代田区,麹町３丁目５番地４麹町インテリジェントビルＢ－１,,13,101,1020083,,,,,,,2025-10-07,1,,,,,シーシーオーフキュウキョウカイ,0
2343,8010403036252,新規,0,2025-10-07,2025-10-07,合同会社ビーケー０,,合同会社,東京都,港区,虎ノ門２丁目６番１号虎ノ門ヒルズステーションタワー,,13,103,1050001,,,,,,,2025-10-07,1,,,,,ビーケーゼロ,0
2352,8010601068007,新規,0,2025-10-07,2025-10-07,株式会社桜の華,,株式会社,東京都,墨田区,向島２丁目１９－１１－１０１号室,,13,107,1310033,,,,,,,2025-10-07,1,,,,,サクラノハナ,0
2353,8010601068064,新規,0,2025-10-07,2025-10-07,ＹＵＲＩ株式会社,,株式会社,東京都,江東区,亀戸６丁目６１番２－２０１号,,13,108,1360071,,,,,,,2025-10-07,1,,,,,ユリ,0
2357,8010701048395,新規,0,2025-10-07,2025-10-07,株式会社セクションノヴァ,,株式会社,東京都,品川区,東品川２丁目２番４号天翔オフィス天王洲ファーストタワー７階７７７号室,,13,109,1400002,,,,,,,2025-10-07,1,,,,,セクションノヴァ,0
2360,8010801036663,新規,0,2025-10-07,2025-10-07,株式会社コアシード,,株式会社,東京都,大田区,上池台４丁目４６番２号,,13,111,1450064,,,,,,,2025-10-07,1,,,,,コアシード,0
2362,8010901058186,新規,0,2025-10-07,2025-10-07,株式会社Ｐｏｎｄｙ,,株式会社,東京都,世田谷区,桜２丁目９番２６号,,13,112,1560053,,,,,,,2025-10-07,1,,,,,ポンディー,0
2363,8010901058194,新規,0,2025-10-07,2025-10-07,株式会社チャクラグラス,,株式会社,東京都,世田谷区,用賀２丁目２８－１１－４１１,,13,112,1580097,,,,,,,2025-10-07,1,,,,,チャクラグラス,0
2365,8010903010293,新規,0,2025-10-07,2025-10-07,合同会社Ｐｏｌａｒｉｓ．,,合同会社,東京都,世田谷区,池尻４丁目３４番１４－５０８号,,13,112,1540001,,,,,,,2025-10-07,1,,,,,ポラリス,0
2366,8010903010302,新規,0,2025-10-07,2025-10-07,合同会社サインアップ,,合同会社,東京都,世田谷区,成城２丁目３番１８号,,13,112,1570066,,,,,,,2025-10-07,1,,,,,サインアップ,0
2376,8011001172332,新規,0,2025-10-07,2025-10-07,株式会社ｐｌａｔｙｐｕｓ,,株式会社,東京都,渋谷区,道玄坂１丁目１０番８号渋谷道玄坂東急ビル２Ｆ－Ｃ,,13,113,1500043,,,,,,,2025-10-07,1,,,,,プラティパス,0
2377,8011001172423,新規,0,2025-10-07,2025-10-07,株式会社ＩＩＬｏ,,株式会社,東京都,渋谷区,円山町５番３号,,13,113,1500044,,,,,,,2025-10-07,1,,,,,イイロ,0
2378,8011001172489,新規,0,2025-10-07,2025-10-07,株式会社ヒカリエ,,株式会社,東京都,渋谷区,道玄坂１丁目１０番８号渋谷道玄坂東急ビル２Ｆ－Ｃ,,13,113,1500043,,,,,,,2025-10-07,1,,,,,ヒカリエ,0
2379,8011001172984,新規,0,2025-10-07,2025-10-07,株式会社インフルエンスパートナーズ,,株式会社,東京都,渋谷区,恵比寿南３丁目１番１号,,13,113,1500022,,,,,,,2025-10-07,1,,,,,インフルエンスパートナーズ,0
2381,8011003022519,新規,0,2025-10-07,2025-10-07,テトラ経営合同会社,,合同会社,東京都,渋谷区,道玄坂１丁目１６番６号二葉ビル８ｂ,,13,113,1500043,,,,,,,2025-10-07,1,,,,,テトラケイエイ,0
2382,8011005011206,新規,0,2025-10-07,2025-10-07,一般社団法人予防歯科医療機構,,その他の設立登記法人,東京都,渋谷区,恵比寿２丁目３６番１３号,,13,113,1500013,,,,,,,2025-10-07,1,,,,,ヨボウシカイリョウキコウ,0
2387,8011103016503,新規,0,2025-10-07,2025-10-07,合同会社トシキコンサルティング,,合同会社,東京都,新宿区,西早稲田３丁目３０番８―１１０２号,,13,104,1690051,,,,,,,2025-10-07,1,,,,,トシキコンサルティング,0
2389,8011301030941,新規,0,2025-10-07,2025-10-07,ＫＨＧ株式会社,,株式会社,東京都,杉並区,阿佐谷南１丁目３６番７号ラ・クール南阿佐谷４０２,,13,115,1660004,,,,,,,2025-10-07,1,,,,,ケーエイチジー,0
2391,8011401027466,新規,0,2025-10-07,2025-10-07,イチカワホーム株式会社,,株式会社,東京都,板橋区,宮本町６７番９号,,13,119,1740054,,,,,,,2025-10-07,1,,,,,イチカワホーム,0
2394,8011501032655,新規,0,2025-10-07,2025-10-07,澤吉株式会社,,株式会社,東京都,北区,中里１丁目２１番２号中里ビル１Ｆ,,13,117,1140015,,,,,,,2025-10-07,1,,,,,ザワヨシ,0
2400,8011701028817,新規,0,2025-10-07,2025-10-07,Ｍｕｈａｍｍａｄ　Ｔｒａｄｉｎｇ株式会社,,株式会社,東京都,江戸川区,平井２丁目２５番１５号,,13,123,1320035,,,,,,,2025-10-07,1,,,,,モハモッドトレーディング,0
2404,8011801046669,新規,0,2025-10-07,2025-10-07,Ｂｉｇｏ　Ａｄｓ　Ｓｅｒｖｉｃｅ　Ｊａｐａｎ株式会社,,株式会社,東京都,葛飾区,東金町６丁目６番５号センタービル金町４階４１８室,,13,122,1250041,,,,,,,2025-10-07,1,,,,,ビゴアドサービスジャパン,0
2405,8011801046859,新規,0,2025-10-07,2025-10-07,石井興産株式会社,,株式会社,東京都,足立区,柳原１丁目３０番２７号,,13,121,1200022,,,,,,,2025-10-07,1,,,,,イシイコウサン,0
2406,8011801046867,新規,0,2025-10-07,2025-10-07,ｅｎｊｏｉｎｔ株式会社,,株式会社,東京都,葛飾区,四つ木４丁目１８番１７号,,13,122,1240011,,,,,,,2025-10-07,1,,,,,エンジョイント,0
2408,8011805003484,新規,0,2025-10-07,2025-10-07,特定非営利活動法人Ｗｉｌｌ　ｂｅ　ｗｅｌｌわかものスポーツ支援,,その他の設立登記法人,東京都,足立区,西新井３丁目２１番６号,,13,121,1230841,,,,,,,2025-10-07,1,,,,,ウィルビーウェルワカモノスポーツシエン,0
2410,8012801024284,新規,0,2025-10-07,2025-10-07,Ｎｂａｓｅ株式会社,,株式会社,東京都,東大和市,高木２丁目１０３番地の１９,,13,220,2070005,,,,,,,2025-10-07,1,,,,,エヌベース,0
2411,8013301055068,新規,0,2025-10-07,2025-10-07,株式会社Ｅｌｖｅｃｔ,,株式会社,東京都,豊島区,東池袋１丁目３９番８号,,13,116,1700013,,,,,,,2025-10-07,1,,,,,エルヴェクト,0
2412,8013301055101,新規,0,2025-10-07,2025-10-07,Ｔｏ　Ｍｉｌｌｉｅ株式会社,,株式会社,東京都,豊島区,東池袋１丁目３３－４,,13,116,1700013,,,,,,,2025-10-07,1,,,,,トゥーミリー,0
2415,8020001165147,新規,0,2025-10-07,2025-10-07,Ｍｏｂｉｌｉｔｙ　Ｄｅｓｉｇｎ　Ｙｏｋｏｈａｍａ株式会社,,株式会社,神奈川県,横浜市中区,日本大通１５番地,,14,104,2310021,,,,,,,2025-10-07,1,,,,,モビリティデザインヨコハマ,0
2418,8021001086382,新規,0,2025-10-07,2025-10-07,株式会社奏栄,,株式会社,神奈川県,厚木市,林４丁目８番９号成瀬マンション１０６,,14,212,2430816,,,,,,,2025-10-07,1,,,,,ソウエイ,0
2419,8021001086440,新規,0,2025-10-07,2025-10-07,株式会社ＶＡＲＩＯＵＳ,,株式会社,神奈川県,足柄上郡大井町,大井中央１１４番地サンビレッジＶＩ１０３,00140963,14,362,2580010,,,,,,,2025-10-07,1,,,,,バリアス,0
2420,8021001086498,新規,0,2025-10-07,2025-10-07,株式会社Ｔ２,,株式会社,神奈川県,平塚市,大神５丁目５番２２号,,14,203,2540012,,,,,,,2025-10-07,1,,,,,ティーツー,0
2422,8021003016643,新規,0,2025-10-07,2025-10-07,合同会社スマイズアップ,,合同会社,神奈川県,大和市,草柳１丁目１４番地１,,14,213,2420026,,,,,,,2025-10-07,1,,,,,スマイズアップ,0
2423,8021003016668,新規,0,2025-10-07,2025-10-07,合同会社ＢＥＳＴ　ＷＯＲＫ,,合同会社,神奈川県,平塚市,錦町３番４－１００３号アイディーコート平塚,,14,203,2540044,,,,,,,2025-10-07,1,,,,,ベストワーク,0
2424,8021003016676,新規,0,2025-10-07,2025-10-07,合同会社５Ｐｅａｃｅ,,合同会社,神奈川県,茅ヶ崎市,小和田３丁目１５番５６号,,14,207,2530012,,,,,,,2025-10-07,1,,,,,ファイブピース,0
2439,8030005022285,新規,0,2025-10-07,2025-10-07,一般社団法人ＹＯＲＩＭＩＣＨＩ,,その他の設立登記法人,埼玉県,志木市,柏町１丁目１０番２２号,,11,228,3530007,,,,,,,2025-10-07,1,,,,,ヨリミチ,0
2443,8040001140610,新規,0,2025-10-07,2025-10-07,株式会社ミラクル貿易,,株式会社,千葉県,野田市,山崎１６６３,,12,208,2780022,,,,,,,2025-10-07,1,,,,,ミラクルボウエキ,0
2444,8040001140775,新規,0,2025-10-07,2025-10-07,株式会社Ａ・Ｒ　ＴＲＡＤＩＮＧ,,株式会社,千葉県,袖ケ浦市,野里８９７番地,,12,229,2990211,,,,,,,2025-10-07,1,,,,,エーアールトレーディング,0
2445,8040001140783,新規,0,2025-10-07,2025-10-07,ＵｐＮｏｔｅ株式会社,,株式会社,千葉県,柏市,亀甲台町２丁目１０－１８,,12,217,2770031,,,,,,,2025-10-07,1,,,,,アップノート,0
2446,8040001140800,新規,0,2025-10-07,2025-10-07,Ａｓｕｋａ　Ｃｏｒｐｏｒａｔｉｏｎ株式会社,,株式会社,千葉県,船橋市,湊町２丁目８番２号昭和コーポ２号棟３０１,,12,204,2730011,,,,,,,2025-10-07,1,,,,,アスカコーポレーション,0
2447,8040001140882,新規,0,2025-10-07,2025-10-07,株式会社管谷工業,,株式会社,千葉県,茂原市,高師４３１番地２,,12,210,2970029,,,,,,,2025-10-07,1,,,,,スガヤコウギョウ,0
2452,8040003028548,新規,0,2025-10-07,2025-10-07,京東合同会社,,合同会社,千葉県,松戸市,三ケ月１４９４番の２１三ヶ月マンション１０５号,,12,207,2700026,,,,,,,2025-10-07,1,,,,,キョウトウ,0
2454,8050001057399,新規,0,2025-10-07,2025-10-07,タカノフーズ関東笠間株式会社,,株式会社,茨城県,笠間市,長兎路１３２０番２,,08,216,3091712,,,,,,,2025-10-07,1,,,,,タカノフーズカントウカサマ,0
2455,8050001057416,新規,0,2025-10-07,2025-10-07,徳洋株式会社,,株式会社,茨城県,ひたちなか市,大字馬渡３８６７番地２,,08,221,3120012,,,,,,,2025-10-07,1,,,,,トクヨウ,0
2456,8050003009670,新規,0,2025-10-07,2025-10-07,ＦＪコーティングプロ合同会社,,合同会社,茨城県,常陸太田市,幡町２００５番地の７,,08,212,3130025,,,,,,,2025-10-07,1,,,,,エフジェーコーティングプロ,0
2457,8060001038646,新規,0,2025-10-07,2025-10-07,ネクスト工務店株式会社,,株式会社,栃木県,宇都宮市,中央５丁目４番６号,,09,201,3200806,,,,,,,2025-10-07,1,,,,,ネクストコウムテン,0
2458,8060001038654,新規,0,2025-10-07,2025-10-07,株式会社ワイズマンワークス,,株式会社,栃木県,小山市,大字南和泉５８４番地２,,09,208,3230816,,,,,,,2025-10-07,1,,,,,ワイズマンワークス,0
2461,8060003005792,新規,0,2025-10-07,2025-10-07,ＦＵＪＩ合同会社,,合同会社,栃木県,栃木市,岩舟町新里１３０４番地１１号室,,09,203,3294316,,,,,,,2025-10-07,1,,,,,フジ,0
2462,8060003005801,新規,0,2025-10-07,2025-10-07,合同会社ヤクラク,,合同会社,栃木県,宇都宮市,今泉町２８９―８,,09,201,3210962,,,,,,,2025-10-07,1,,,,,ヤクラク,0
2463,8060005010378,新規,0,2025-10-07,2025-10-07,医療法人おがたクリニック,,その他の設立登記法人,栃木県,宇都宮市,竹林町９７５番地１,,09,201,3210974,,,,,,,2025-10-07,1,,,,,オガタクリニック,0
2466,8070003006138,新規,0,2025-10-07,2025-10-07,合同会社ぬくもり,,合同会社,群馬県,高崎市,上里見町１６６番地１０,,10,202,3703345,,,,,,,2025-10-07,1,,,,,ヌクモリ,0
2476,8090001019544,新規,0,2025-10-07,2025-10-07,株式会社ＤＤ＆ＬＵＡ,,株式会社,山梨県,北杜市,高根町清里３５４５番地１,,19,209,4070301,,,,,,,2025-10-07,1,,,,,ディーディーアンドルーア,0
2480,8100005013392,新規,0,2025-10-07,2025-10-07,一般社団法人ネイバーシップ,,その他の設立登記法人,長野県,伊那市,荒井４６５５番地５,,20,209,3960025,,,,,,,2025-10-07,1,,,,,ネイバーシップ,0
2481,8110001039614,新規,0,2025-10-07,2025-10-07,ＫＢメンテ株式会社,,株式会社,新潟県,上越市,頸城区下吉２２８番地６４,,15,222,9420146,,,,,,,2025-10-07,1,,,,,ケイビーメンテ,0
2491,8120001280308,新規,0,2025-10-07,2025-10-07,悦楊株式会社,,株式会社,大阪府,大阪市北区,西天満４丁目３番１１号西天満ＦＵＫＵＥビル６０２,,27,127,5300047,,,,,,,2025-10-07,1,,,,,エツヨウ,0
2492,8120001280332,新規,0,2025-10-07,2025-10-07,株式会社ＫＡＯ　ＬＩＮＫ,,株式会社,大阪府,門真市,松生町１番１６－２１１号,,27,223,5710044,,,,,,,2025-10-07,1,,,,,カオリンク,0
2493,8120001280415,新規,0,2025-10-07,2025-10-07,株式会社Ａｎｏｔｈｅｒ　Ｍｅｍｏｒｙ,,株式会社,大阪府,寝屋川市,堀溝３丁目８番１８号,,27,215,5720814,,,,,,,2025-10-07,1,,,,,アナザーメモリー,0
2494,8120001280431,新規,0,2025-10-07,2025-10-07,巨昌株式会社,,株式会社,大阪府,大阪市港区,築港４丁目１０番３０号大寅ビル３０２,,27,107,5520021,,,,,,,2025-10-07,1,,,,,キョショウ,0
2495,8120001280621,新規,0,2025-10-07,2025-10-07,晨怡菲株式会社,,株式会社,大阪府,大阪市東住吉区,中野４丁目１番１６号リベラルオリエンテ中野２０６Ａ,,27,121,5460012,,,,,,,2025-10-07,1,,,,,シンイヒ,0
2496,8120001280712,新規,0,2025-10-07,2025-10-07,株式会社ラムエイ,,株式会社,大阪府,守口市,梶町３丁目３５番２５号,,27,209,5700015,,,,,,,2025-10-07,1,,,,,ラムエイ,0
2497,8120001280720,新規,0,2025-10-07,2025-10-07,株式会社しおん,,株式会社,大阪府,大阪市西区,北堀江２丁目１０番１６号,,27,106,5500014,,,,,,,2025-10-07,1,,,,,シオン,0
2499,8120003030784,新規,0,2025-10-07,2025-10-07,ＮｅｘａＧａｍｅｓ合同会社,,合同会社,大阪府,大阪市中央区,南本町１丁目６－７,,27,128,5410054,,,,,,,2025-10-07,1,,,,,ネクサゲームズ,0
2500,8120003030850,新規,0,2025-10-07,2025-10-07,合同会社リップルハブ,,合同会社,大阪府,大阪市北区,梅田１丁目１－３大阪駅前第３ビル２９階１－１－１号室,,27,127,5300001,,,,,,,2025-10-07,1,,,,,リップルハブ,0
2501,8120003030917,新規,0,2025-10-07,2025-10-07,合同会社丸山オフィス,,合同会社,大阪府,枚方市,伊加賀寿町１６番４５－３０２号,,27,210,5730061,,,,,,,2025-10-07,1,,,,,マルヤマオフィス,0
2503,8120101072539,新規,0,2025-10-07,2025-10-07,欧頓株式会社,,株式会社,大阪府,泉佐野市,鶴原１４８４番地の４,,27,213,5980071,,,,,,,2025-10-07,1,,,,,オウトン,0
2504,8120101072588,新規,0,2025-10-07,2025-10-07,株式会社ＥＮＥＳＩＡ,,株式会社,大阪府,堺市西区,鳳中町３丁６６番地３,,27,144,5938327,,,,,,,2025-10-07,1,,,,,エネシア,0
2505,8120101072596,新規,0,2025-10-07,2025-10-07,株式会社ＬＩＯＲＡ,,株式会社,大阪府,泉大津市,森町２丁目１５－１８,,27,206,5950005,,,,,,,2025-10-07,1,,,,,リオラ,0
2512,8130001080681,新規,0,2025-10-07,2025-10-07,株式会社スリーツリー,,株式会社,京都府,京丹後市,峰山町新町１７０番地の１,,26,212,6270005,,,,,,,2025-10-07,1,,,,,スリーツリー,0
2513,8130001080698,新規,0,2025-10-07,2025-10-07,フライシン株式会社,,株式会社,京都府,南丹市,八木町屋賀南北川２１番地,,26,213,6290132,,,,,,,2025-10-07,1,,,,,フライシン,0
2514,8130001080772,新規,0,2025-10-07,2025-10-07,株式会社ＲＥＳＯＲＴ　Ｘ,,株式会社,京都府,京都市中京区,天神山町２８０番地,,26,104,6048221,,,,,,,2025-10-07,1,,,,,リゾートエックス,0
2517,8130003010827,新規,0,2025-10-07,2025-10-07,ＲＡＲＡ　ＪＡＰＡＮ合同会社,,合同会社,京都府,京都市南区,東九条北松ノ木町３７番地５,,26,107,6018022,,,,,,,2025-10-07,1,,,,,ララジャパン,0
2524,8140001140245,新規,0,2025-10-07,2025-10-07,株式会社オーミチパック,,株式会社,兵庫県,神戸市西区,神出町広谷６０１番地,,28,111,6512331,,,,,,,2025-10-07,1,,,,,オーミチパック,0
2529,8150005009725,新規,0,2025-10-07,2025-10-07,一般社団法人ＫＩＲＩＨＡＲＵ　ＢＡＳＥ,,その他の設立登記法人,奈良県,大和高田市,土庫２丁目９３番３,,29,202,6350002,,,,,,,2025-10-07,1,,,,,キリハルベース,0
2531,8160001027127,新規,0,2025-10-07,2025-10-07,バウグランツ株式会社,,株式会社,滋賀県,高島市,鴨川平１丁目１番地５,,25,212,5201133,,,,,,,2025-10-07,1,,,,,バウグランツ,0
2542,8180001168803,新規,0,2025-10-07,2025-10-07,中部トプロ株式会社,,株式会社,愛知県,名古屋市中村区,黄金通４丁目１６番地Ｃｅｒｅｓ黄金６０１号,,23,105,4530804,,,,,,,2025-10-07,1,,,,,チュウブトプロ,0
2543,8180001168860,新規,0,2025-10-07,2025-10-07,株式会社美城電機,,株式会社,愛知県,犬山市,もえぎヶ丘２丁目５９番地,,23,215,4840020,,,,,,,2025-10-07,1,,,,,ミシロデンキ,0
2544,8180001168910,新規,0,2025-10-07,2025-10-07,ＹＬｉｎｋ株式会社,,株式会社,愛知県,名古屋市昭和区,神村町１丁目６３番地の３,,23,107,4660802,,,,,,,2025-10-07,1,,,,,ワイリンク,0
2545,8180001168951,新規,0,2025-10-07,2025-10-07,株式会社ＲＯＳＥ,,株式会社,愛知県,豊明市,新田町中ノ割５５番地２エスポア豊明ＩＩＩ９０１号,00140968,23,229,4701112,,,,,,,2025-10-07,1,,,,,ロゼ,0
2546,8180001168968,新規,0,2025-10-07,2025-10-07,エムエスメディカル紹介センター株式会社,,株式会社,愛知県,瀬戸市,川北町２丁目９８番地の２,,23,204,4890927,,,,,,,2025-10-07,1,,,,,エムエスメディカルショウカイセンター,0
2547,8180001168976,新規,0,2025-10-07,2025-10-07,株式会社つなぐ,,株式会社,愛知県,名古屋市北区,大我麻町１３２番地,,23,103,4620064,,,,,,,2025-10-07,1,,,,,ツナグ,0
2551,8180005021256,新規,0,2025-10-07,2025-10-07,社会保険労務士法人ふじさと,,その他の設立登記法人,愛知県,江南市,後飛保町両家５０番地,,23,217,4838389,,,,,,,2025-10-07,1,,,,,フジサト,0
2552,8180301040281,新規,0,2025-10-07,2025-10-07,株式会社ＨＧＰ,,株式会社,愛知県,知立市,西中町祐古山５６番地１,,23,225,4720016,,,,,,,2025-10-07,1,,,,,エイチジーピー,0
2553,8180301040298,新規,0,2025-10-07,2025-10-07,株式会社ファインユー,,株式会社,愛知県,豊橋市,立花町３４番地１,,23,201,4418028,,,,,,,2025-10-07,1,,,,,ファインユー,0
2554,8180305009736,新規,0,2025-10-07,2025-10-07,一般社団法人楽笑はうす,,その他の設立登記法人,愛知県,豊田市,篠原町郷屋敷５番地,,23,211,4700352,,,,,,,2025-10-07,1,,,,,ラクショウハウス,0
2557,8190001032586,新規,0,2025-10-07,2025-10-07,株式会社昴,,株式会社,三重県,伊賀市,服部町１４８２番地,,24,216,5180007,,,,,,,2025-10-07,1,,,,,スバル,0
2560,8200001044299,新規,0,2025-10-07,2025-10-07,株式会社Ｍｏｂｉｌｉｔｙ,,株式会社,岐阜県,羽島郡岐南町,平成３丁目１４６番地,,21,302,5016013,,,,,,,2025-10-07,1,,,,,モビリティ,0
2565,8210001020332,新規,0,2025-10-07,2025-10-07,株式会社九十九工業,,株式会社,福井県,鯖江市,御幸町１丁目３番４８号ＭＫマンション．５０２,,18,207,9160015,,,,,,,2025-10-07,1,,,,,ツクモコウギョウ,0
2566,8210001020349,新規,0,2025-10-07,2025-10-07,株式会社招昇,,株式会社,福井県,あわら市,菅野第２９号１０番地,,18,208,9190602,,,,,,,2025-10-07,1,,,,,ショウショウ,0
2570,8240001065614,新規,0,2025-10-07,2025-10-07,株式会社Ｗｉｎｄｙ,,株式会社,広島県,広島市南区,段原２丁目２０番４号,,34,103,7320811,,,,,,,2025-10-07,1,,,,,ウィンディ,0
2572,8240003007424,新規,0,2025-10-07,2025-10-07,合同会社Ｋｃｒａｆｔ,,合同会社,広島県,三原市,久井町莇原６７６番地,,34,204,7221301,,,,,,,2025-10-07,1,,,,,クラフト,0
2573,8240005015994,新規,0,2025-10-07,2025-10-07,一般社団法人Ｒｉｎｋｓ,,その他の設立登記法人,広島県,広島市佐伯区,五日市町美鈴園２７－６,,34,108,7315100,,,,,,,2025-10-07,1,,,,,リンクス,0
2575,8250001021376,新規,0,2025-10-07,2025-10-07,株式会社ひかりプロデュース,,株式会社,山口県,光市,丸山町２２番１１号,,35,210,7430041,,,,,,,2025-10-07,1,,,,,ヒカリプロデュース,0
2576,8270001009295,新規,0,2025-10-07,2025-10-07,株式会社北条砂丘風力発電所,,株式会社,鳥取県,東伯郡北栄町,田井６５１番地１,,31,372,6892103,,,,,,,2025-10-07,1,,,,,ホウジョウサキュウフウリョクハツデンショ,0
2582,8280001009526,新規,0,2025-10-07,2025-10-07,株式会社ラックツリー,,株式会社,島根県,出雲市,平野町１２４１番地１,,32,203,6930065,,,,,,,2025-10-07,1,,,,,ラックツリー,0
2590,8290803005184,新規,0,2025-10-07,2025-10-07,合同会社あしたもあんぜん,,合同会社,福岡県,北九州市若松区,高須西１丁目１３番３３号クラリス高須３０３,,40,103,8080146,,,,,,,2025-10-07,1,,,,,アシタモアンゼン,0
2591,8290805009869,新規,0,2025-10-07,2025-10-07,一般社団法人アーキデザインジョイン,,その他の設立登記法人,福岡県,北九州市小倉北区,魚町３丁目４番９－６０６号,,40,106,8020006,,,,,,,2025-10-07,1,,,,,アーキデザインジョイン,0
2598,8350003005045,新規,0,2025-10-07,2025-10-07,合同会社Ｗａｔｓｏｎ,,合同会社,宮崎県,宮崎市,東大宮４丁目１０－７,,45,201,8800825,,,,,,,2025-10-07,1,,,,,ワトソン,0
2604,8370001053110,新規,0,2025-10-07,2025-10-07,株式会社美建エンジニアリング,,株式会社,宮城県,仙台市青葉区,本町２丁目４番１６号,,04,101,9800014,,,,,,,2025-10-07,1,,,,,ビケンエンジニアリング,0
2605,8370003007320,新規,0,2025-10-07,2025-10-07,合同会社佐藤会計,,合同会社,宮城県,仙台市太白区,長町１丁目９番２２号,,04,104,9820011,,,,,,,2025-10-07,1,,,,,サトウカイケイ,0
2613,8430003018162,新規,0,2025-10-07,2025-10-07,合同会社こじらぼ,,合同会社,北海道,札幌市中央区,南九条西１１丁目１番５号Ｓｔｅｌｌａ９１１・２階Ｒ号室,,01,101,0640809,,,,,,,2025-10-07,1,,,,,コジラボ,0
2614,8430005015307,新規,0,2025-10-07,2025-10-07,ＮＰＯ法人ディンプルアート普及協会北海道北のアトリエポラリス,,その他の設立登記法人,北海道,札幌市東区,北二十三条東１２丁目４番１６－１０３号,,01,103,0650023,,,,,,,2025-10-07,1,,,,,ディンプルアートフキュウキョウカイホッカイドウキタノアトリエポラリス,0
2617,8480001012971,新規,0,2025-10-07,2025-10-07,株式会社石井,,株式会社,徳島県,美馬郡つるぎ町,半田字東久保６０４番地１,,36,468,7794403,,,,,,,2025-10-07,1,,,,,イシイ,0
2625,8700150132440,新規,0,2025-10-07,2025-10-07,ＤＡＩＳＥＮ　ＬＡＮＫＡ　ＥＮＴＥＲＰＲＩＳＥＳ,,外国会社等,千葉県,山武市,大木５７９番地３２オフィス１号,,12,237,2891211,スリランカ民主社会主義共和国、ゴール、ゴールロード、メインストリート、Ｎｏ．１１０,,,,,,2025-10-07,1,,,,,ダイセンランカエンタープライズ,0
2626,8700150132449,新規,0,2025-10-07,2025-10-07,ＡＹＭＡＮ　ＣＡＲＳ　ＬＴＤ,,外国会社等,三重県,鈴鹿市,住吉町８３３２番地　オフィス４,,24,207,5130825,英国、７５Ｕ、ＬＥ４、レスター、ジャクリンドライブ、７,,,,,,2025-10-07,1,,,,,アイマンカーズリミテツド,0
2627,8700150132457,新規,0,2025-10-07,2025-10-07,ｑｕａｎｚｈｏｕｐｅｎｇｓｅｎｋｅｊｉｙｏｕｘｉａｎｇｏｎｇｓｉ,,外国会社等,,,,,,,,Ｎｏ．８６，Ｄａｆａｎｇ，Ｔａｎｂｉａｎ　Ｖｉｌｌａｇｅ，Ｌｅｆｅｎｇ　Ｔｏｗｎ，Ｎａｎａｎ　Ｃｉｔｙ，Ｑｕａｎｚｈｏｕ　Ｃｉｔｙ，Ｆｕｊｉａｎ　Ｐｒｏｖｉｎｃｅ,,,,,,2025-10-07,1,,,,,チュエンジョウポンセンコージーヨウシエンゴンスー,0
2634,9010001258636,新規,0,2025-10-07,2025-10-07,ＭＰＱ株式会社,,株式会社,東京都,千代田区,神田須田町１丁目７番８号ＶＯＲＴ秋葉原ＩＶ２Ｆ,00140961,13,101,1010041,,,,,,,2025-10-07,1,,,,,エムピーキュー,0
2635,9010001258751,新規,0,2025-10-07,2025-10-07,Ｋａｅｒｉ　Ｓｏｇａ株式会社,,株式会社,東京都,千代田区,霞が関３丁目２番５号,,13,101,1000013,,,,,,,2025-10-07,1,,,,,カエリソガ,0
2636,9010001258974,新規,0,2025-10-07,2025-10-07,築地オーシャンテーブル株式会社,,株式会社,東京都,中央区,築地４丁目１２番５号シグネットドゥ２Ｆ,,13,102,1040045,,,,,,,2025-10-07,1,,,,,ツキジオーシャンテーブル,0
2637,9010001259015,新規,0,2025-10-07,2025-10-07,ＳＯＲＡｔｏ株式会社,,株式会社,東京都,中央区,銀座１丁目１２－４Ｎ＆ＥＢＬＤ．７階,,13,102,1040061,,,,,,,2025-10-07,1,,,,,ソラト,0
2638,9010001259080,新規,0,2025-10-07,2025-10-07,株式会社ゼンテクト,,株式会社,東京都,千代田区,神田三崎町２丁目１７－８ドメス水道橋６Ｆ－１４,,13,101,1010061,,,,,,,2025-10-07,1,,,,,ゼンテクト,0
2639,9010001259114,新規,0,2025-10-07,2025-10-07,株式会社Ｓａｌｅｓ　Ｆｉｎｄｅｒ,,株式会社,東京都,中央区,築地３丁目７番１１号ＣＵＢＥＴＳＵＫＩＪＩ３階,,13,102,1040045,,,,,,,2025-10-07,1,,,,,セールスファインダー,0
2640,9010001259122,新規,0,2025-10-07,2025-10-07,アルトラックス株式会社,,株式会社,東京都,千代田区,二番町９－３,,13,101,1020084,,,,,,,2025-10-07,1,,,,,アルトラックス,0
2641,9010001259163,新規,0,2025-10-07,2025-10-07,株式会社グローマスソリューションズ,,株式会社,東京都,千代田区,神田東松下町３８鳥本鋼業ビル４階,,13,101,1010042,,,,,,,2025-10-07,1,,,,,グローマスソリューションズ,0
2642,9010001259171,新規,0,2025-10-07,2025-10-07,株式会社Ｈａｎｘコマース,,株式会社,東京都,中央区,日本橋室町１丁目１１番１２号日本橋水野ビル７階,,13,102,1030022,,,,,,,2025-10-07,1,,,,,ハンクスコマース,0
2643,9010001259213,新規,0,2025-10-07,2025-10-07,株式会社Ｒｙｔｈａ,,株式会社,東京都,中央区,銀座１丁目１２番４号Ｎ＆ＥＢＬＤ．６Ｆ,,13,102,1040061,,,,,,,2025-10-07,1,,,,,リター,0
2669,9010403036235,新規,0,2025-10-07,2025-10-07,大雪山合同会社,,合同会社,東京都,港区,六本木１丁目６番１号泉ガーデンタワーＫＰＭＧ税理士法人内,,13,103,1060032,,,,,,,2025-10-07,1,,,,,タイセツザン,0
2682,9010603011830,新規,0,2025-10-07,2025-10-07,Ｓａｂａｉ　Ｗｏｒｋｓ合同会社,,合同会社,東京都,江東区,豊洲３丁目６番５‐１３０９号,,13,108,1350061,,,,,,,2025-10-07,1,,,,,サバイワークス,0
2683,9010603011839,新規,0,2025-10-07,2025-10-07,合同会社グリーンライト,,合同会社,東京都,江東区,有明１丁目６番３０－１９０５号,,13,108,1350063,,,,,,,2025-10-07,1,,,,,グリーンライト,0
2688,9010901058185,新規,0,2025-10-07,2025-10-07,インスパイア株式会社,,株式会社,東京都,世田谷区,上野毛２丁目２０番１１号,,13,112,1580093,,,,,,,2025-10-07,1,,,,,インスパイア,0
2689,9010901058202,新規,0,2025-10-07,2025-10-07,旭システムサポート株式会社,,株式会社,東京都,世田谷区,瀬田１丁目２２番１９号,,13,112,1580095,,,,,,,2025-10-07,1,,,,,アサヒシステムサポート,0
2690,9010901058210,新規,0,2025-10-07,2025-10-07,エルボヤージュ株式会社,,株式会社,東京都,世田谷区,北沢３丁目１５番１１号,,13,112,1550031,,,,,,,2025-10-07,1,,,,,エルボヤージュ,0
2691,9010903010301,新規,0,2025-10-07,2025-10-07,ＭＭＣコーポレーション合同会社,,合同会社,東京都,世田谷区,弦巻５丁目１番８－４２１号,,13,112,1540016,,,,,,,2025-10-07,1,,,,,エムエムシーコーポレーション,0
2693,9011001172141,新規,0,2025-10-07,2025-10-07,株式会社アミュリ,,株式会社,東京都,渋谷区,道玄坂１丁目１０番８号渋谷道玄坂東急ビル２Ｆ－Ｃ,,13,113,1500043,,,,,,,2025-10-07,1,,,,,アミュリ,0
2694,9011001172430,新規,0,2025-10-07,2025-10-07,Ｉｃｈｔｈｙｓ　Ｐａｒｔｎｅｒｓ株式会社,,株式会社,東京都,目黒区,平町１丁目２０番１６号,,13,110,1520032,,,,,,,2025-10-07,1,,,,,イクシスパートナーズ,0
2695,9011001173040,新規,0,2025-10-07,2025-10-07,ｆｏ６株式会社,,株式会社,東京都,渋谷区,円山町５番５号Ｎａｖｉ渋谷Ｖ３階,00140972,13,113,1500044,,,,,,,2025-10-07,1,,,,,エフオーシックス,0
2696,9011003022534,新規,0,2025-10-07,2025-10-07,Ｎｕｅｔｒｙ合同会社,,合同会社,東京都,渋谷区,神南１丁目１１－４ＦＰＧリンクス神南５階,,13,113,1500041,,,,,,,2025-10-07,1,,,,,ニュートライ,0
2698,9011101113482,新規,0,2025-10-07,2025-10-07,ＳＴＥＥＺＹ　ＪＡＰＡＮ株式会社,,株式会社,東京都,新宿区,高田馬場３丁目２３番３号ＯＲビル１Ｆ,,13,104,1690075,,,,,,,2025-10-07,1,,,,,スティージージャパン,0
2700,9011103016469,新規,0,2025-10-07,2025-10-07,軽井沢ＰＪ合同会社,,合同会社,東京都,新宿区,四谷２丁目９番地１５東京ユナイテッド綜合事務所内,,13,104,1600004,,,,,,,2025-10-07,1,,,,,カルイザワピージェイ,0
2702,9011303005742,新規,0,2025-10-07,2025-10-07,Ｉｎｎｏｖａｔｉｖｅ　Ｖｉｓｉｏｎ創視合同会社,,合同会社,東京都,杉並区,梅里２丁目２５番１３号高円寺プラザ２１１号－Ｄ室,,13,115,1660011,,,,,,,2025-10-07,1,,,,,イノベーティブビジョンソウシ,0
2703,9011401027457,新規,0,2025-10-07,2025-10-07,Ｍ　ｃｒｅａｔｉｖｅ株式会社,,株式会社,東京都,板橋区,赤塚４丁目２０番２２号,,13,119,1750092,,,,,,,2025-10-07,1,,,,,エムクリエイティブ,0
2704,9011401027465,新規,0,2025-10-07,2025-10-07,株式会社ＳＴＵＴＳ,,株式会社,東京都,板橋区,前野町２丁目９番１９号,,13,119,1740063,,,,,,,2025-10-07,1,,,,,スタッツ,0
2705,9011403004891,新規,0,2025-10-07,2025-10-07,業務代行合同会社,,合同会社,東京都,板橋区,高島平４丁目３番１０号,,13,119,1750082,,,,,,,2025-10-07,1,,,,,ギョウムダイコウ,0
2708,9011501032646,新規,0,2025-10-07,2025-10-07,ＭｉｒａｉＸ株式会社,,株式会社,東京都,荒川区,東尾久１丁目９番１６号,,13,118,1160012,,,,,,,2025-10-07,1,,,,,ミライエックス,0
2712,9011701028808,新規,0,2025-10-07,2025-10-07,株式会社Ｐｒｉｍｅ　Ｇｌｏｂａｌ　Ｊａｐａｎ,,株式会社,東京都,江戸川区,北葛西１丁目２４番２３号,,13,123,1340081,,,,,,,2025-10-07,1,,,,,プライムグローバルジャパン,0
2713,9011701028824,新規,0,2025-10-07,2025-10-07,ノヴァ・ユニオン株式会社,,株式会社,東京都,江戸川区,東葛西６丁目２３番１６－３０１号,,13,123,1340084,,,,,,,2025-10-07,1,,,,,ノヴァユニオン,0
2716,9011801046841,新規,0,2025-10-07,2025-10-07,株式会社ＹＳＥ,,株式会社,東京都,足立区,鹿浜４丁目８番４号,,13,121,1230864,,,,,,,2025-10-07,1,,,,,ワイエスイー,0
2724,9012801024291,新規,0,2025-10-07,2025-10-07,Ｈ＆Ｙ　Ｇｒｏｗｓ　Ｌａｂ株式会社,,株式会社,東京都,日野市,三沢２丁目５８番地の１５,,13,212,1910032,,,,,,,2025-10-07,1,,,,,エイチアンドワイグロウズラボ,0
2734,9020001164973,新規,0,2025-10-07,2025-10-07,株式会社サンユー,,株式会社,神奈川県,横浜市都筑区,荏田南５丁目２３番５号,,14,118,2240007,,,,,,,2025-10-07,1,,,,,サンユー,0
2735,9020001165014,新規,0,2025-10-07,2025-10-07,僑水建設株式会社,,株式会社,神奈川県,川崎市川崎区,堀之内町７－２７－２０８号室,,14,131,2100003,,,,,,,2025-10-07,1,,,,,キョウスイケンセツ,0
2736,9020001165022,新規,0,2025-10-07,2025-10-07,ノボリ産業株式会社,,株式会社,神奈川県,川崎市川崎区,砂子２丁目８－１川崎互恵ビル１００９,,14,131,2100006,,,,,,,2025-10-07,1,,,,,ノボリサンギョウ,0
2740,9020003029571,新規,0,2025-10-07,2025-10-07,合同会社ＫＥＥＰ　ＴＲＹＩＮＧ,,合同会社,神奈川県,川崎市川崎区,鋼管通１丁目２２番６－１号,,14,131,2100852,,,,,,,2025-10-07,1,,,,,キープトライング,0
2741,9020005016997,新規,0,2025-10-07,2025-10-07,税理士法人なないろ,,その他の設立登記法人,神奈川県,川崎市中原区,新丸子町７３４番地２カメリアパレス６０１,,14,133,2110005,,,,,,,2025-10-07,1,,,,,ナナイロ,0
2743,9021001086407,新規,0,2025-10-07,2025-10-07,株式会社ＡＨＪ,,株式会社,神奈川県,平塚市,田村７丁目１４番１５号,,14,203,2540013,,,,,,,2025-10-07,1,,,,,エイエイチジェイ,0
2744,9021001086423,新規,0,2025-10-07,2025-10-07,ＧＵＳＴＡＲ株式会社,,株式会社,神奈川県,鎌倉市,笛田５丁目３１番１号,,14,204,2480027,,,,,,,2025-10-07,1,,,,,グスタール,0
2745,9021001086456,新規,0,2025-10-07,2025-10-07,株式会社あられ,,株式会社,神奈川県,相模原市南区,相武台団地２丁目７番１－３１号,,14,153,2520323,,,,,,,2025-10-07,1,,,,,アラレ,0
2746,9021001086480,新規,0,2025-10-07,2025-10-07,株式会社クレステラ,,株式会社,神奈川県,茅ヶ崎市,本宿町１１―４８コウジィコート赤松Ｄ―１,,14,207,2530014,,,,,,,2025-10-07,1,,,,,クレステラ,0
2747,9021001086506,新規,0,2025-10-07,2025-10-07,株式会社プラスエヌエー,,株式会社,神奈川県,伊勢原市,高森５丁目６番４０４号,,14,214,2591114,,,,,,,2025-10-07,1,,,,,プラスエヌエー,0
2748,9021001086522,新規,0,2025-10-07,2025-10-07,株式会社ｂｅｂｅ,,株式会社,神奈川県,藤沢市,辻堂１丁目１番１７号,,14,205,2510047,,,,,,,2025-10-07,1,,,,,ベベ,0
2749,9021003016618,新規,0,2025-10-07,2025-10-07,合同会社ＮＲ　ＡＵＴＯ,,合同会社,神奈川県,高座郡寒川町,小動４０９番地１,,14,321,2530102,,,,,,,2025-10-07,1,,,,,エヌアールオート,0
2761,9030001169014,新規,0,2025-10-07,2025-10-07,株式会社Ｇ‐ＴＥＣＨ,,株式会社,埼玉県,南埼玉郡宮代町,字東８２番地,,11,442,3450814,,,,,,,2025-10-07,1,,,,,ジーテック,0
2769,9030003027797,新規,0,2025-10-07,2025-10-07,Ｈ２Ｏ合同会社,,合同会社,埼玉県,さいたま市南区,白幡４丁目１２番２４－９０８号,,11,108,3360022,,,,,,,2025-10-07,1,,,,,エイチツーオー,0
2780,9040001140766,新規,0,2025-10-07,2025-10-07,ＣＡＲＥ心国際株式会社,,株式会社,千葉県,八千代市,八千代台北１０丁目２番１６号,,12,221,2760031,,,,,,,2025-10-07,1,,,,,ケアシンコクサイ,0
2781,9040001140774,新規,0,2025-10-07,2025-10-07,東葛会計株式会社,,株式会社,千葉県,松戸市,松戸１３０７番地の１松戸ビル１３Ｆ,,12,207,2710092,,,,,,,2025-10-07,1,,,,,トウカツカイケイ,0
2782,9040001140782,新規,0,2025-10-07,2025-10-07,株式会社大成,,株式会社,千葉県,富里市,七栄５３２番８２,,12,233,2860221,,,,,,,2025-10-07,1,,,,,タイセイ,0
2783,9040001140948,新規,0,2025-10-07,2025-10-07,総武アスピア株式会社,,株式会社,千葉県,千葉市若葉区,多部田町７５１番地３６,,12,104,2650066,,,,,,,2025-10-07,1,,,,,ソウブアスピア,0
2787,9040003028687,新規,0,2025-10-07,2025-10-07,合同会社技援,,合同会社,千葉県,匝瑳市,八日市場ホ３１５６番地３,,12,235,2892146,,,,,,,2025-10-07,1,,,,,ギエン,0
2788,9040003028695,新規,0,2025-10-07,2025-10-07,合同会社ＢＡＮＤＡＯＧＯ,,合同会社,千葉県,柏市,布瀬字原地４番２,,12,217,2701464,,,,,,,2025-10-07,1,,,,,バンダオゴ,0
2790,9050001057381,新規,0,2025-10-07,2025-10-07,株式会社ＮＹＲ　ＪＡＰＡＮ,,株式会社,茨城県,坂東市,矢作９６８番地３、２階,,08,228,3060624,,,,,,,2025-10-07,1,,,,,エヌワイアールジャパン,0
2795,9050003009653,新規,0,2025-10-07,2025-10-07,Ｋ　Ｋ　ＴＲＡＤＩＮＧ合同会社,,合同会社,茨城県,古河市,茶屋新田１４２番地１城南ハイツＢ２０１号室,,08,204,3060051,,,,,,,2025-10-07,1,,,,,ケーケートレーディング,0
2796,9050003009661,新規,0,2025-10-07,2025-10-07,ＢＡＬＡＪ　ＴＲＡＤＩＮＧ合同会社,,合同会社,茨城県,筑西市,板橋５３－１アパートＢ棟３号室,,08,227,3080116,,,,,,,2025-10-07,1,,,,,バラジュトレーディング,0
2797,9060001038612,新規,0,2025-10-07,2025-10-07,株式会社ＳＨＥＩＫＨ．Ｉｎｔｅｒｎａｔｉｏｎａｌ,,株式会社,栃木県,足利市,伊勢町３丁目１２番地２８,,09,202,3260053,,,,,,,2025-10-07,1,,,,,シェクインターナショナル,0
2798,9060001038645,新規,0,2025-10-07,2025-10-07,オープンアームズ株式会社,,株式会社,栃木県,小山市,美しが丘２丁目３番地２,,09,208,3290207,,,,,,,2025-10-07,1,,,,,オープンアームズ,0
2799,9060001038653,新規,0,2025-10-07,2025-10-07,株式会社ＰＩＮＥＴＩＣＡ,,株式会社,栃木県,小山市,西城南４丁目５番地１０クレセントコート１０３,,09,208,3230820,,,,,,,2025-10-07,1,,,,,ピネティカ,0
2800,9070001043396,新規,0,2025-10-07,2025-10-07,株式会社Ｃｉｅｌ　ａｉｌｅ,,株式会社,群馬県,高崎市,栄町１４番１号イーストセンタービル８０３,,10,202,3700841,,,,,,,2025-10-07,1,,,,,シエルエール,0
2801,9070001043405,新規,0,2025-10-07,2025-10-07,株式会社Ｉｎ　ｔｒｕｓｔ,,株式会社,群馬県,渋川市,金井２３４５番地３,,10,208,3770027,,,,,,,2025-10-07,1,,,,,イントラスト,0
2802,9070001043421,新規,0,2025-10-07,2025-10-07,株式会社プランク,,株式会社,群馬県,藤岡市,森新田３９１番地,,10,209,3750006,,,,,,,2025-10-07,1,,,,,プランク,0
2803,9070003006137,新規,0,2025-10-07,2025-10-07,Ｋｕｓｈｉｄａ　Ｆｌｏｗｅｒ　Ｐｌａｎｔａｔｉｏｎ合同会社,,合同会社,群馬県,太田市,富若町５２１番地,,10,205,3730023,,,,,,,2025-10-07,1,,,,,クシダフラワープランテーション,0
2805,9080001027200,新規,0,2025-10-07,2025-10-07,Ｌｕｎａ株式会社,,株式会社,静岡県,静岡市葵区,七間町５番地の１チサンマンション七間町１０２Ｈ,,22,101,4200035,,,,,,,2025-10-07,1,,,,,ルナ,0
2811,9090001019543,新規,0,2025-10-07,2025-10-07,株式会社彩羽工藝舎,,株式会社,山梨県,南アルプス市,田島８７４番地１,,19,208,4000402,,,,,,,2025-10-07,1,,,,,イロハコウゲイシャ,0
2814,9100001038995,新規,0,2025-10-07,2025-10-07,株式会社セリオ・ホールディングス,,株式会社,長野県,諏訪市,大字中洲４７７１番地,,20,206,3920015,,,,,,,2025-10-07,1,,,,,セリオホールディングス,0
2816,9110001039613,新規,0,2025-10-07,2025-10-07,株式会社古川工業,,株式会社,新潟県,上越市,大字塩屋新田５５番地３８,,15,222,9420064,,,,,,,2025-10-07,1,,,,,フルカワコウギョウ,0
2821,9120001080657,新規,0,2025-10-07,2025-10-07,三和ヘーベル建設株式会社,,株式会社,大阪府,大阪市中央区,道修町２丁目６番７号,,27,128,5410045,,,,,,,2025-10-07,1,,,,,サンワヘーベルケンセツ,0
2826,9120001280141,新規,0,2025-10-07,2025-10-07,＿姿株式会社,00140983,株式会社,大阪府,大阪市住之江区,御崎１丁目１１－１９インキュセンタービル３１５号室,,27,125,5590013,,,,,,,2025-10-07,1,,,,,ゲンシ,0
2827,9120001280182,新規,0,2025-10-07,2025-10-07,新誠コンサルティング株式会社,,株式会社,大阪府,大阪市北区,天神橋４丁目７－１３イトーピア扇町ビル４０２号,,27,127,5300041,,,,,,,2025-10-07,1,,,,,シンセイコンサルティング,0
2828,9120001280678,新規,0,2025-10-07,2025-10-07,株式会社テナントファースト,,株式会社,大阪府,大阪市中央区,高麗橋３丁目２番７号,,27,128,5410043,,,,,,,2025-10-07,1,,,,,テナントファースト,0
2829,9120001280736,新規,0,2025-10-07,2025-10-07,見ろ株式会社,,株式会社,大阪府,大阪市中央区,淡路町１丁目６番９号８階,,27,128,5410047,,,,,,,2025-10-07,1,,,,,ミロ,0
2830,9120001280819,新規,0,2025-10-07,2025-10-07,株式会社ＲＩＮＳＡ　Ｈｅａｄ　Ｓｐａ,,株式会社,大阪府,大阪市中央区,南船場３丁目３番３号,,27,128,5420081,,,,,,,2025-10-07,1,,,,,リンサヘッドスパ,0
2831,9120001280851,新規,0,2025-10-07,2025-10-07,株式会社Ｆｅｅｌｔｕｒｅ,,株式会社,大阪府,大阪市東淀川区,井高野２丁目４‐３７,,27,114,5330001,,,,,,,2025-10-07,1,,,,,フィールチャー,0
2833,9120003030817,新規,0,2025-10-07,2025-10-07,ＴＢＴ合同会社,,合同会社,大阪府,大阪市生野区,巽北１丁目２１－２９－１１４号,,27,116,5440004,,,,,,,2025-10-07,1,,,,,ティービーティー,0
2834,9120003030825,新規,0,2025-10-07,2025-10-07,合同会社ＮＡＯ,,合同会社,大阪府,大阪市淀川区,東三国４丁目３番９号エルムハイツ４０２号,,27,123,5320002,,,,,,,2025-10-07,1,,,,,ナオ,0
2835,9120003030874,新規,0,2025-10-07,2025-10-07,ＫＩＬＥ　ＪＡＰＡＮ合同会社,,合同会社,大阪府,大阪市西成区,萩之茶屋２丁目６番４号ニューかめや１１２号室,,27,122,5570004,,,,,,,2025-10-07,1,,,,,カイルジャパン,0
2836,9120003030882,新規,0,2025-10-07,2025-10-07,合同会社はじまり,,合同会社,大阪府,大阪市東成区,大今里南３丁目１３番１３号高クリニックセンタービル３階,,27,115,5370013,,,,,,,2025-10-07,1,,,,,ハジマリ,0
2838,9120005025187,新規,0,2025-10-07,2025-10-07,弁護士法人和敬法律事務所,,その他の設立登記法人,大阪府,大阪市北区,西天満４丁目５番７号山旺ビル２０３号室,,27,127,5300047,,,,,,,2025-10-07,1,,,,,ワケイホウリツジムショ,0
2840,9120101072554,新規,0,2025-10-07,2025-10-07,株式会社優心建設,,株式会社,大阪府,堺市中区,八田南之町３４６番地５グランヴェールＶＩ１階１０１号室,00140973,27,142,5998263,,,,,,,2025-10-07,1,,,,,ユウシンケンセツ,0
2841,9120101072587,新規,0,2025-10-07,2025-10-07,株式会社ネクストライフ,,株式会社,大阪府,堺市西区,鳳中町３丁６６番地３,,27,144,5938327,,,,,,,2025-10-07,1,,,,,ネクストライフ,0
2842,9120101072595,新規,0,2025-10-07,2025-10-07,株式会社Ｚｅｎ,,株式会社,大阪府,和泉市,のぞみ野１丁目１６番８号,,27,219,5941105,,,,,,,2025-10-07,1,,,,,ゼン,0
2843,9120103006774,新規,0,2025-10-07,2025-10-07,ＢＴＴ合同会社,,合同会社,大阪府,羽曳野市,東阪田１５－３３,,27,222,5830846,,,,,,,2025-10-07,1,,,,,ビティティ,0
2850,9130001080714,新規,0,2025-10-07,2025-10-07,株式会社渋ティバル,,株式会社,京都府,京都市山科区,大宅神納町４４,,26,110,6078185,,,,,,,2025-10-07,1,,,,,シブティバル,0
2851,9130001080763,新規,0,2025-10-07,2025-10-07,ＡＺＨＡＡＮ　ＴＲＡＤＩＮＧ株式会社,,株式会社,京都府,京都市北区,出雲路立テ本町２６伊勢川ハイツ２０５号,,26,101,6038134,,,,,,,2025-10-07,1,,,,,アザーントレーディング,0
2852,9130003010834,新規,0,2025-10-07,2025-10-07,アンドアソシエイツ合同会社,,合同会社,京都府,京都市上京区,春日町４２６番地２,,26,102,6028023,,,,,,,2025-10-07,1,,,,,アンドアソシエイツ,0
2860,9140001140186,新規,0,2025-10-07,2025-10-07,株式会社ｅｅｋ,,株式会社,兵庫県,高砂市,中筋１丁目４番１号,,28,216,6760812,,,,,,,2025-10-07,1,,,,,エーク,0
2861,9140001140194,新規,0,2025-10-07,2025-10-07,株式会社ＢＳＢリレーションズ,,株式会社,兵庫県,神戸市中央区,磯辺通１丁目１番１８号カサベラ国際プラザビル７０７号室,,28,110,6510084,,,,,,,2025-10-07,1,,,,,ビーエスビーリレーションズ,0
2862,9140001140285,新規,0,2025-10-07,2025-10-07,サクラソリューション株式会社,,株式会社,兵庫県,姫路市,北条宮の町１６２番地,,28,201,6700948,,,,,,,2025-10-07,1,,,,,サクラソリューション,0
2863,9140001140319,新規,0,2025-10-07,2025-10-07,ＡＧＲＩ　ＣＲＥＷ株式会社,,株式会社,兵庫県,朝来市,山東町早田２１７－１,,28,225,6695122,,,,,,,2025-10-07,1,,,,,アグリクルー,0
2865,9140003022696,新規,0,2025-10-07,2025-10-07,合同会社インストール,,合同会社,兵庫県,神戸市東灘区,本山中町４丁目２番８－２０１号,,28,101,6580016,,,,,,,2025-10-07,1,,,,,インストール,0
2866,9140003022713,新規,0,2025-10-07,2025-10-07,藤原運送合同会社,,合同会社,兵庫県,神戸市中央区,二宮町２丁目５番５号２０１,,28,110,6510093,,,,,,,2025-10-07,1,,,,,フジワラウンソウ,0
2870,9150001028447,新規,0,2025-10-07,2025-10-07,株式会社飯原グループ,,株式会社,奈良県,奈良市,北之庄町６７７番地１,,29,201,6308451,,,,,,,2025-10-07,1,,,,,イイハラグループ,0
2872,9150005009724,新規,0,2025-10-07,2025-10-07,一般社団法人まちづくり奥大和,,その他の設立登記法人,奈良県,橿原市,東坊城町５７５番地の３１,,29,205,6340835,,,,,,,2025-10-07,1,,,,,マチヅクリオクヤマト,0
2875,9160001027118,新規,0,2025-10-07,2025-10-07,株式会社ｆｏｒＢ,,株式会社,滋賀県,彦根市,地蔵町１９５番地２０号,,25,202,5220029,,,,,,,2025-10-07,1,,,,,,0
2890,9180001168926,新規,0,2025-10-07,2025-10-07,中日メディアプリンツ株式会社,,株式会社,愛知県,名古屋市北区,辻町２丁目１番３号,,23,103,4620032,,,,,,,2025-10-07,1,,,,,チュウニチメディアプリンツ,0
2891,9180001169032,新規,0,2025-10-07,2025-10-07,株式会社ＵＧＨ,,株式会社,愛知県,名古屋市名東区,一社４丁目１１４－１シャンテニエ４Ｂ,,23,115,4650093,,,,,,,2025-10-07,1,,,,,ユージーエイチ,0
2893,9180003029168,新規,0,2025-10-07,2025-10-07,合同会社外交戦略技術政策研究所,,合同会社,愛知県,名古屋市中区,錦１丁目７番７号シティハウス丸の内サウスコート１１０１号,,23,106,4600003,,,,,,,2025-10-07,1,,,,,ガイコウセンリャクギジュツセイサクケンキュウジョ,0
2894,9180003029218,新規,0,2025-10-07,2025-10-07,合同会社大樹,,合同会社,愛知県,名古屋市中村区,名駅４丁目２４番５号第２森ビル４０１,,23,105,4500002,,,,,,,2025-10-07,1,,,,,タイジュ,0
2895,9180301040297,新規,0,2025-10-07,2025-10-07,株式会社ハンナ,,株式会社,愛知県,岡崎市,緑丘３丁目２０番地２２,,23,202,4440806,,,,,,,2025-10-07,1,,,,,ハンナ,0
2896,9190001032585,新規,0,2025-10-07,2025-10-07,株式会社不動産タイモン,,株式会社,三重県,四日市市,笹川６丁目２０番地１０,,24,202,5100944,,,,,,,2025-10-07,1,,,,,フドウサンタイモン,0
2898,9200001044315,新規,0,2025-10-07,2025-10-07,インテルノジャパン株式会社,,株式会社,岐阜県,岐阜市,金宝町１丁目１４番地,,21,201,5008847,,,,,,,2025-10-07,1,,,,,インテルノジャパン,0
2901,9210001020348,新規,0,2025-10-07,2025-10-07,株式会社ＳＥＥＤ,,株式会社,福井県,坂井市,坂井町宮領第２９号３２番地,,18,210,9190512,,,,,,,2025-10-07,1,,,,,シード,0
2909,9240001065588,新規,0,2025-10-07,2025-10-07,ソアー中国株式会社,,株式会社,広島県,広島市西区,楠木町４丁目４番１２号,,34,104,7330002,,,,,,,2025-10-07,1,,,,,ソアーチュウゴク,0
2917,9280001009517,新規,0,2025-10-07,2025-10-07,株式会社内田木工,,株式会社,島根県,雲南市,三刀屋町給下６５３番地１７,,32,209,6902402,,,,,,,2025-10-07,1,,,,,ウチダモッコウ,0
2918,9280001009525,新規,0,2025-10-07,2025-10-07,株式会社Ａ．ＬＩＮＥ,,株式会社,島根県,松江市,乃木福富町３８８番地１４,,32,201,6900046,,,,,,,2025-10-07,1,,,,,エーライン,0
2921,9290001111503,新規,0,2025-10-07,2025-10-07,ミラエイト株式会社,,株式会社,福岡県,福岡市博多区,榎田１丁目３番２３号,,40,132,8120004,,,,,,,2025-10-07,1,,,,,ミラエイト,0
2925,9290005019841,新規,0,2025-10-07,2025-10-07,特定非営利活動法人空き家サポートセンター,,その他の設立登記法人,福岡県,福岡市南区,玉川町１８番１０号,,40,134,8150037,,,,,,,2025-10-07,1,,,,,アキヤサポートセンター,0
2928,9290801031909,新規,0,2025-10-07,2025-10-07,株式会社エビスロジ,,株式会社,福岡県,北九州市八幡東区,宮の町１丁目４番１３号,,40,108,8050023,,,,,,,2025-10-07,1,,,,,エビスロジ,0
2937,9350001019756,新規,0,2025-10-07,2025-10-07,株式会社フォレスト・ワン,,株式会社,宮崎県,東臼杵郡門川町,大字門川尾末８９４７番地,,45,421,8890611,,,,,,,2025-10-07,1,,,,,フォレストワン,0
2938,9350003005044,新規,0,2025-10-07,2025-10-07,合同会社Ｐｌａｙｅｒ　Ｌｉｎｋ,,合同会社,宮崎県,宮崎市,元宮町９－２７－４０２,,45,201,8800004,,,,,,,2025-10-07,1,,,,,プレイヤーリンク,0
2939,9350005006338,新規,0,2025-10-07,2025-10-07,医療法人真誠会,,その他の設立登記法人,宮崎県,都城市,姫城町２５街区３８号,,45,202,8850073,,,,,,,2025-10-07,1,,,,,シンセイカイ,0
2941,9360001035876,新規,0,2025-10-07,2025-10-07,株式会社ｍｏｎｏｒａ,,株式会社,沖縄県,那覇市,おもろまち１丁目４番４１号,,47,201,9000006,,,,,,,2025-10-07,1,,,,,モノラ,0
2942,9360001035892,新規,0,2025-10-07,2025-10-07,株式会社ことみみ設備,,株式会社,沖縄県,宜野湾市,愛知２丁目１４番６号,,47,205,9012206,,,,,,,2025-10-07,1,,,,,コトミミセツビ,0
2947,9370001053118,新規,0,2025-10-07,2025-10-07,株式会社健翔工業,,株式会社,宮城県,塩竈市,字伊保石１４６番地５,,04,203,9850087,,,,,,,2025-10-07,1,,,,,ケンショウコウギョウ,0
2954,9390001018127,新規,0,2025-10-07,2025-10-07,株式会社Ｂｍｓ．Ｒｉｎ,,株式会社,山形県,山形市,十日町１丁目３番３７号,,06,201,9900031,,,,,,,2025-10-07,1,,,,,ビーエムエスドットリン,0
2970,9470001020925,新規,0,2025-10-07,2025-10-07,株式会社一豆瞠,,株式会社,香川県,丸亀市,今津町７３０番地１,,37,202,7630051,,,,,,,2025-10-07,1,,,,,,0
2971,9470005006656,新規,0,2025-10-07,2025-10-07,一般財団法人四国はかり検査機構,,その他の設立登記法人,香川県,高松市,牟礼町牟礼２２５１番地１　３階,,37,201,7610121,,,,,,,2025-10-07,1,,,,,シコクハカリケンサキコウ,0
2975,9480001012970,新規,0,2025-10-07,2025-10-07,株式会社Ｒａｉｎｂｏｗ　Ｎｅｘｕｓ,,株式会社,徳島県,徳島市,春日２丁目１番４２号,,36,201,7700002,,,,,,,2025-10-07,1,,,,,,0
2977,9480005007109,新規,0,2025-10-07,2025-10-07,一般社団法人徳島県キッチンカー協会,,その他の設立登記法人,徳島県,美馬市,脇町大字猪尻字若宮南１３１番地２,,36,207,7793602,,,,,,,2025-10-07,1,,,,,トクシマケンキッチンカーキョウカイ,0
2978,9700150132448,新規,0,2025-10-07,2025-10-07,６６トウキョウ２５ジャパン・エルエルシー,,外国会社等,東京都,千代田区,丸の内２丁目１－１明治安田生命ビル２１階,,13,101,1000005,アメリカ合衆国デラウエア州ウィルミントン、オレンジ・ストリート１２０９、ナショナル・レジスタード・エージェント・インク内,,,,,,2025-10-07,1,,,,,シツクステイーシツクストウキヨウトウエンテイフアイブジヤパンエルエルシー,0
2979,9700150132456,新規,0,2025-10-07,2025-10-07,ｎａｎａｎｙｕａｎｌｉｎｍｕｙｅｙｏｕｘｉａｎｇｏｎｇｓｉ,,外国会社等,,,,,,,,Ｎｏ．７７，Ｒｏａｄ　Ｘｉａ，Ｌｕｚｈｏｎｇ　Ｖｉｌｌａｇｅ，Ｌｅｆｅｎｇ　Ｔｏｗｎ，Ｎａｎａｎ　Ｃｉｔｙ，Ｑｕａｎｚｈｏｕ　Ｃｉｔｙ，Ｆｕｊｉａｎ　Ｐｒｏｖｉｎｃｅ,,,,,,2025-10-07,1,,,,,ナンアンユエンリンムーイエヨウシエンゴンスー,0
