sequenceNumber,corporateNumber,process,correct,updateDate,changeDate,name,nameImageId,kind,prefectureName,cityName,streetNumber,addressImageId,prefectureCode,cityCode,postCode,addressOutside,addressOutsideImageId,closeDate,closeCause,successorCorporateNumber,changeCause,assignmentDate,latest,enName,enPrefectureName,enCityName,enAddressOutside,furigana,hihyoji
6,1010001257703,新規,0,2025-08-18,2025-08-18,Ｔｈｅ　Ｒｏｓｉｅ株式会社,,株式会社,東京都,千代田区,丸の内１丁目８番３号丸の内トラストタワー本館２０階,,13,101,1000005,,,,,,,2025-08-18,1,,,,,ザロージー,0
7,1010001257728,新規,0,2025-08-18,2025-08-18,株式会社Ｉｒｉｄｅｓｃｅｎｃｅ,,株式会社,東京都,千代田区,神田和泉町１番地６－１６ヤマトビル４０５,,13,101,1010024,,,,,,,2025-08-18,1,,,,,イリデセンス,0
8,1010001257752,新規,0,2025-08-18,2025-08-18,株式会社Ｓ・Ｍ,,株式会社,東京都,文京区,千石４丁目２０番２号立花ハイム２０３,,13,105,1120011,,,,,,,2025-08-18,1,,,,,エスエム,0
10,1010003048357,新規,0,2025-08-18,2025-08-18,ＥＧ鳥取不動産合同会社,,合同会社,東京都,千代田区,麹町４丁目５番２１号,,13,101,1020083,,,,,,,2025-08-18,1,,,,,イージートットリフドウサン,0
11,1010003048365,新規,0,2025-08-18,2025-08-18,メンターザイム合同会社,,合同会社,東京都,千代田区,神田須田町１丁目７番地８ＶＯＲＴ秋葉原ＩＶ２Ｆ,00140319,13,101,1010041,,,,,,,2025-08-18,1,,,,,メンターザイム,0
12,1010003048381,新規,0,2025-08-18,2025-08-18,Ｒ＆Ｋ合同会社,,合同会社,東京都,中央区,築地２丁目１５－１０レフィール築地レジデンス７０７,,13,102,1040045,,,,,,,2025-08-18,1,,,,,アールアンドケイ,0
17,1010401192319,新規,0,2025-08-18,2025-08-18,合田株式会社,,株式会社,東京都,港区,芝浦４丁目１９番１芝浦アイランドケープタワー４７１４号室,,13,103,1080023,,,,,,,2025-08-18,1,,,,,アイダ,0
18,1010401192335,新規,0,2025-08-18,2025-08-18,株式会社ＡＩ　Ｅｄｕｃａｔｉｏｎ,,株式会社,東京都,港区,芝浦３丁目９番１号芝浦ルネサイトタワー２Ｆ,,13,103,1080023,,,,,,,2025-08-18,1,,,,,エーアイエデュケーション,0
19,1010401192376,新規,0,2025-08-18,2025-08-18,株式会社ｅｍｏｌｅｎｃｅ,,株式会社,東京都,港区,南青山３丁目１番３６号青山丸竹ビル６Ｆ,,13,103,1070062,,,,,,,2025-08-18,1,,,,,エモレンス,0
20,1010401192541,新規,0,2025-08-18,2025-08-18,株式会社ＮＥＸＥＲＡ　Ｓｏｌｕｔｉｏｎ,,株式会社,東京都,港区,北青山１丁目３番１号アールキューブ青山３階,,13,103,1070061,,,,,,,2025-08-18,1,,,,,ネクセラソリューション,0
22,1010403035780,新規,0,2025-08-18,2025-08-18,あゆみの合同会社,,合同会社,東京都,港区,南青山２丁目２番１５号,,13,103,1070062,,,,,,,2025-08-18,1,,,,,アユミノ,0
23,1010501054476,新規,0,2025-08-18,2025-08-18,建達株式会社,,株式会社,東京都,台東区,千束４丁目４３番２,,13,106,1110031,,,,,,,2025-08-18,1,,,,,ケンタツ,0
31,1010901057921,新規,0,2025-08-18,2025-08-18,株式会社トレンドブースト,,株式会社,東京都,世田谷区,上北沢４丁目１７番７号ルオーレ上北沢駅前４０４,,13,112,1560057,,,,,,,2025-08-18,1,,,,,トレンドブースト,0
34,1011001171373,新規,0,2025-08-18,2025-08-18,ＯＧＡＴＡ　ＰＲＯＪＥＣＴ株式会社,,株式会社,東京都,目黒区,東山１丁目２１番２５号,,13,110,1530043,,,,,,,2025-08-18,1,,,,,オガタプロジェクト,0
35,1011001171613,新規,0,2025-08-18,2025-08-18,株式会社ｅｖｉｓｕ,,株式会社,東京都,渋谷区,神泉町１０番１５号アネックス神泉３０１,,13,113,1500045,,,,,,,2025-08-18,1,,,,,エビス,0
36,1011101112582,新規,0,2025-08-18,2025-08-18,株式会社ＨｏｌｄＵｐ　Ｐａｙ,,株式会社,東京都,新宿区,大久保２丁目２９－９プレジール新宿大久保５０２,,13,104,1690072,,,,,,,2025-08-18,1,,,,,ホールドアップペイ,0
38,1011103016229,新規,0,2025-08-18,2025-08-18,合同会社第２地区,,合同会社,東京都,新宿区,神楽坂３丁目２番地３３巽ハイム１０１,,13,104,1620825,,,,,,,2025-08-18,1,,,,,ダイニチク,0
40,1011201026567,新規,0,2025-08-18,2025-08-18,株式会社盛田,,株式会社,東京都,中野区,鷺宮６丁目１６番２３号,,13,114,1650032,,,,,,,2025-08-18,1,,,,,モリタ,0
43,1011501032439,新規,0,2025-08-18,2025-08-18,株式会社Ｌｉｖｒａ,,株式会社,東京都,北区,田端３丁目８番１９号メゾン・ルミエール３０６号,,13,117,1140014,,,,,,,2025-08-18,1,,,,,リブラ,0
48,1012303002209,新規,0,2025-08-18,2025-08-18,Ｍａｒｉｔｉｍｅ　Ｂｒｉｄｇｅ　Ｊａｐａｎ合同会社,,合同会社,東京都,町田市,原町田４丁目１１番１３号天野ビル４Ｆ,,13,209,1940013,,,,,,,2025-08-18,1,,,,,マリタイムブリッジジャパン,0
53,1012401043484,新規,0,2025-08-18,2025-08-18,ｍａｎｙＣ株式会社,,株式会社,東京都,小金井市,梶野町１丁目２－３６,,13,210,1840002,,,,,,,2025-08-18,1,,,,,メニーシー,0
56,1013301054737,新規,0,2025-08-18,2025-08-18,株式会社Ｓ・Ｈ・Ｕ,,株式会社,東京都,豊島区,西池袋５丁目１４－３－１１０４,,13,116,1710021,,,,,,,2025-08-18,1,,,,,エスエイチユー,0
63,1020001164304,新規,0,2025-08-18,2025-08-18,株式会社アンダーツリー,,株式会社,神奈川県,川崎市高津区,久本１丁目６－８－１３号室,,14,134,2130011,,,,,,,2025-08-18,1,,,,,アンダーツリー,0
64,1020001164428,新規,0,2025-08-18,2025-08-18,ＮｅｘＲｉｓｅ株式会社,,株式会社,神奈川県,横浜市保土ケ谷区,天王町１丁目２０番地１７,,14,106,2400003,,,,,,,2025-08-18,1,,,,,ネクスライズ,0
66,1020003029125,新規,0,2025-08-18,2025-08-18,ＲＭサプライチェーンラボ合同会社,,合同会社,神奈川県,横浜市青葉区,松風台１番地６ライオンズガーデンテラス青葉台２０２,,14,117,2270067,,,,,,,2025-08-18,1,,,,,アールエムサプライチェーンラボ,0
67,1021001085770,新規,0,2025-08-18,2025-08-18,株式会社ＲＧＧ研究所,,株式会社,神奈川県,藤沢市,白旗１丁目１４番１２～５０３号,,14,205,2510051,,,,,,,2025-08-18,1,,,,,アールジージーケンキュウショ,0
69,1021003016385,新規,0,2025-08-18,2025-08-18,Ｐａｃｉｆｉｃ　Ｒｉｍ　Ｍｕｓｉｃ　Ａｎｄ　Ｄａｎｃｅ　Ｓｔｕｄｉｏｓ合同会社,,合同会社,神奈川県,横須賀市,太田和２丁目１２番１３号,,14,201,2380311,,,,,,,2025-08-18,1,,,,,パシフィックリムミュージックアンドダンススタジオ,0
70,1021003016443,新規,0,2025-08-18,2025-08-18,ＣＷ省力化機器合同会社,,合同会社,神奈川県,鎌倉市,台５丁目１番１１－４号,,14,204,2470061,,,,,,,2025-08-18,1,,,,,シーダブリューショウリョクカキキ,0
88,1040001140047,新規,0,2025-08-18,2025-08-18,伊与木運送株式会社,,株式会社,千葉県,松戸市,和名ケ谷９５３番地の１－６０２,,12,207,2702232,,,,,,,2025-08-18,1,,,,,イヨキウンソウ,0
89,1040001140055,新規,0,2025-08-18,2025-08-18,徐氏Ｐｅａｒｌ株式会社,,株式会社,千葉県,船橋市,行田１丁目５０番１１－１０３１号,,12,204,2730044,,,,,,,2025-08-18,1,,,,,ジョシパール,0
90,1040001140071,新規,0,2025-08-18,2025-08-18,株式会社ＢＥＬＫＵＭＡ,,株式会社,千葉県,市原市,大戸４９７番地２,,12,219,2900542,,,,,,,2025-08-18,1,,,,,ベルクマ,0
91,1040001140105,新規,0,2025-08-18,2025-08-18,ＹＥＮＡＲＡ　ＪＡＰＡＮ株式会社,,株式会社,千葉県,香取郡神崎町,郡１１２９番地１,,12,342,2890202,,,,,,,2025-08-18,1,,,,,ヤナラジャパン,0
99,1040003028232,新規,0,2025-08-18,2025-08-18,エムコンサル合同会社,,合同会社,千葉県,市川市,八幡３丁目３番２号,,12,203,2720021,,,,,,,2025-08-18,1,,,,,エムコンサル,0
100,1040003028265,新規,0,2025-08-18,2025-08-18,合同会社並木商事,,合同会社,千葉県,香取市,大根６１８番地３,,12,236,2870026,,,,,,,2025-08-18,1,,,,,ナミキショウジ,0
101,1040003028273,新規,0,2025-08-18,2025-08-18,合同会社真誠,,合同会社,千葉県,八千代市,大和田新田８０５番地１９,,12,221,2760046,,,,,,,2025-08-18,1,,,,,シンマ,0
106,1060003005691,新規,0,2025-08-18,2025-08-18,すいけん合同会社,,合同会社,栃木県,宇都宮市,川田町１２２３番地１８,,09,201,3210111,,,,,,,2025-08-18,1,,,,,スイケン,0
112,1070001043222,新規,0,2025-08-18,2025-08-18,わんワンホールディングス株式会社,,株式会社,群馬県,高崎市,菊地町２９５番地８,,10,202,3700084,,,,,,,2025-08-18,1,,,,,ワンワンホールディングス,0
118,1080401028103,新規,0,2025-08-18,2025-08-18,Ａ‐ＧＬＯＢＡＬ株式会社,,株式会社,静岡県,浜松市中央区,上新屋町２２６‐１‐１,,22,138,4350053,,,,,,,2025-08-18,1,,,,,エイグローバル,0
134,1120001278804,新規,0,2025-08-18,2025-08-18,株式会社ＰｉＮＫ,,株式会社,大阪府,大阪市中央区,北久宝寺町１丁目１番１号,,27,128,5410057,,,,,,,2025-08-18,1,,,,,ピンク,0
135,1120001278812,新規,0,2025-08-18,2025-08-18,株式会社ベアリス,,株式会社,大阪府,大阪市阿倍野区,昭和町１丁目１８番９号セレーナ阿倍野２０１号,,27,119,5450011,,,,,,,2025-08-18,1,,,,,ベアリス,0
136,1120001278820,新規,0,2025-08-18,2025-08-18,株式会社ザ・ノード,,株式会社,大阪府,大阪市北区,西天満２丁目３－２１－３Ｆ,,27,127,5300047,,,,,,,2025-08-18,1,,,,,ザノード,0
137,1120001278837,新規,0,2025-08-18,2025-08-18,株式会社ＣｏＣｏＬｏエンタープライズ,,株式会社,大阪府,大阪市西淀川区,御幣島１丁目７－６,,27,113,5550012,,,,,,,2025-08-18,1,,,,,ココロエンタープライズ,0
138,1120001278853,新規,0,2025-08-18,2025-08-18,東霖株式会社,,株式会社,大阪府,大阪市生野区,新今里３丁目５番１８－２０５号,,27,116,5440001,,,,,,,2025-08-18,1,,,,,トウリン,0
150,1120901051319,新規,0,2025-08-18,2025-08-18,ＮｅｘｔＳｔａｇｅ株式会社,,株式会社,大阪府,吹田市,垂水町３丁目９番１０号１０６号室,,27,205,5640062,,,,,,,2025-08-18,1,,,,,ネクストステージ,0
151,1120901051327,新規,0,2025-08-18,2025-08-18,トータルサービス工業株式会社,,株式会社,大阪府,高槻市,氷室町４丁目１３番１号,,27,207,5691141,,,,,,,2025-08-18,1,,,,,トータルサービスコウギョウ,0
152,1120901051351,新規,0,2025-08-18,2025-08-18,株式会社矢野商事,,株式会社,大阪府,茨木市,豊原町９番９１０号,,27,211,5670053,,,,,,,2025-08-18,1,,,,,ヤノショウジ,0
155,1120905006772,新規,0,2025-08-18,2025-08-18,医療法人一緑会,,その他の設立登記法人,大阪府,箕面市,牧落３丁目１番１２号ウエルシア箕面牧落店２階,,27,220,5620004,,,,,,,2025-08-18,1,,,,,イチリョクカイ,0
156,1120905006780,新規,0,2025-08-18,2025-08-18,一般社団法人吹三ＦＣ,,その他の設立登記法人,大阪府,吹田市,昭和町１９番１７号,,27,205,5640028,,,,,,,2025-08-18,1,,,,,スイサンエフシー,0
159,1122001039558,新規,0,2025-08-18,2025-08-18,アリンス株式会社,,株式会社,大阪府,大東市,大字龍間１９２０番地の８４,,27,218,5740012,,,,,,,2025-08-18,1,,,,,アリンス,0
166,1140001139624,新規,0,2025-08-18,2025-08-18,株式会社ＥＮＬｉＮＫ,,株式会社,兵庫県,神戸市東灘区,魚崎南町４丁目９番３号３０２,,28,101,6580025,,,,,,,2025-08-18,1,,,,,エンリンク,0
167,1140001139640,新規,0,2025-08-18,2025-08-18,今井物産株式会社,,株式会社,兵庫県,神戸市中央区,磯辺通１丁目１番１８－７０７号,,28,110,6510084,,,,,,,2025-08-18,1,,,,,イマイブッサン,0
172,1180001052476,新規,0,2025-08-18,2025-08-18,金城紙工株式会社,,株式会社,愛知県,西春日井郡豊山町,大字豊場字志水７５番地の１,,23,342,4800202,,,,,,,2025-08-18,1,,,,,キンジョウシコウ,0
174,1180001168000,新規,0,2025-08-18,2025-08-18,株式会社Ｙｏｋｉ　Ｃａｐｉｔａｌ　Ｉｎｃ．,,株式会社,愛知県,名古屋市中区,栄３丁目８番２５号,,23,106,4600008,,,,,,,2025-08-18,1,,,,,ヨーキキャピタルインク,0
175,1180001168090,新規,0,2025-08-18,2025-08-18,株式会社ＧＥＫＫＯＵ,,株式会社,愛知県,一宮市,上祖父江字東本郷１３７,,23,203,4940014,,,,,,,2025-08-18,1,,,,,ゲッコウ,0
176,1180001168124,新規,0,2025-08-18,2025-08-18,株式会社ＫＯＲＹＯ,,株式会社,愛知県,名古屋市中区,上前津２丁目１番１１号上前津光菱ビル６Ａ,,23,106,4600013,,,,,,,2025-08-18,1,,,,,コウリョウ,0
177,1180001168132,新規,0,2025-08-18,2025-08-18,株式会社マッスルアップ,,株式会社,愛知県,豊明市,栄町西大根３０番地５４９,,23,229,4701167,,,,,,,2025-08-18,1,,,,,マッスルアップ,0
178,1180001168140,新規,0,2025-08-18,2025-08-18,株式会社プラン・サポート,,株式会社,愛知県,半田市,旭町４丁目７番地の７,,23,205,4750838,,,,,,,2025-08-18,1,,,,,プランサポート,0
179,1180001168149,新規,0,2025-08-18,2025-08-18,株式会社Ｍ＆Ａパートナー,,株式会社,愛知県,名古屋市中村区,椿町１５番１０号名駅三交ビル６階,,23,105,4530015,,,,,,,2025-08-18,1,,,,,エムアンドエーパートナー,0
180,1180001168157,新規,0,2025-08-18,2025-08-18,株式会社サポテック,,株式会社,愛知県,名古屋市西区,中小田井３丁目２４番地の３,,23,104,4520822,,,,,,,2025-08-18,1,,,,,サポテック,0
188,1180003028870,新規,0,2025-08-18,2025-08-18,合同会社トラステックラボ,,合同会社,愛知県,名古屋市名東区,西里町２丁目３４番地,,23,115,4650084,,,,,,,2025-08-18,1,,,,,トラステックラボ,0
193,1180303006683,新規,0,2025-08-18,2025-08-18,合同会社Ｋｓスタッフ,,合同会社,愛知県,豊田市,竹町北邸３０,,23,211,4730906,,,,,,,2025-08-18,1,,,,,ケーエススタッフ,0
205,1200003006972,新規,0,2025-08-18,2025-08-18,合同会社Ｔｈｉｄｅｒ　Ｍｏｏｎ,,合同会社,岐阜県,大垣市,御殿町１丁目２２番地,,21,202,5030877,,,,,,,2025-08-18,1,,,,,ティダームーン,0
206,1210001020280,新規,0,2025-08-18,2025-08-18,株式会社Ｒｉｓｅ　Ｄｅｌｉｇｈｔ,,株式会社,福井県,越前市,武生柳町８番２０号,,18,209,9150824,,,,,,,2025-08-18,1,,,,,ライズディライト,0
218,1250003003791,新規,0,2025-08-18,2025-08-18,合同会社ひまわりライフサポート,,合同会社,山口県,山口市,大内御堀４丁目１０－６,,35,203,7530214,,,,,,,2025-08-18,1,,,,,ヒマワリライフサポート,0
222,1260001040456,新規,0,2025-08-18,2025-08-18,株式会社Ｋｕｒｏｍｉｔｒｅｅ,,株式会社,岡山県,岡山市北区,東花尻９７－１９,,33,101,7010135,,,,,,,2025-08-18,1,,,,,クロミツリー,0
225,1260003005300,新規,0,2025-08-18,2025-08-18,合同会社ｙａｍａｓａｎｐｏ,,合同会社,岡山県,赤磐市,上仁保１６９番地,,33,213,7090837,,,,,,,2025-08-18,1,,,,,ヤマサンポ,0
230,1290001111007,新規,0,2025-08-18,2025-08-18,フォルモサ不動産株式会社,,株式会社,福岡県,福岡市中央区,赤坂１丁目１２－６赤坂Ｓビルディング４階Ａ号室,,40,133,8100042,,,,,,,2025-08-18,1,,,,,フォルサモフドウサン,0
231,1290001111031,新規,0,2025-08-18,2025-08-18,株式会社天地人,,株式会社,福岡県,久留米市,藤光町９９番地,,40,203,8300054,,,,,,,2025-08-18,1,,,,,テンチジン,0
232,1290001111056,新規,0,2025-08-18,2025-08-18,株式会社Ｆ．Ｄ,,株式会社,福岡県,福岡市博多区,博多駅前２丁目１９番１７号,,40,132,8120011,,,,,,,2025-08-18,1,,,,,エフディー,0
233,1290001111080,新規,0,2025-08-18,2025-08-18,Ｌｉｎｋ　Ｃｉｔｙ株式会社,,株式会社,福岡県,福岡市中央区,福浜１丁目４番２３号,,40,133,8100066,,,,,,,2025-08-18,1,,,,,リンクシティ,0
234,1290001111089,新規,0,2025-08-18,2025-08-18,ＩＧＮＩＸ株式会社,,株式会社,福岡県,古賀市,駅東５丁目７－１－１０１,,40,223,8113102,,,,,,,2025-08-18,1,,,,,イグニクス,0
245,1290801031791,新規,0,2025-08-18,2025-08-18,株式会社惠,,株式会社,福岡県,北九州市小倉南区,横代葉山１２－１５,,40,107,8020825,,,,,,,2025-08-18,1,,,,,メグミ,0
247,1300001014323,新規,0,2025-08-18,2025-08-18,埋金木工所株式会社,,株式会社,佐賀県,三養基郡基山町,大字小倉５０４番地１,,41,341,8410201,,,,,,,2025-08-18,1,,,,,ウメガネモッコウショ,0
251,1320001021292,新規,0,2025-08-18,2025-08-18,株式会社ＴＭＲ,,株式会社,大分県,別府市,大字南立石１６１番地,,44,202,8740000,,,,,,,2025-08-18,1,,,,,ティーエムアール,0
255,1330001033502,新規,0,2025-08-18,2025-08-18,株式会社Ｔｅｔｓｕｎａｇｕ,,株式会社,熊本県,熊本市中央区,九品寺１丁目１６－８シティライフ九品寺２０５,,43,101,8620976,,,,,,,2025-08-18,1,,,,,テツナグ,0
260,1340001027552,新規,0,2025-08-18,2025-08-18,株式会社Ｗｅｌｌ‐Ｂｅｉｎｇ　ＢＡＳＥ,,株式会社,鹿児島県,薩摩川内市,御陵下町３６－６レジデンス陵２０７,,46,215,8950061,,,,,,,2025-08-18,1,,,,,ウェルビーイングベイス,0
261,1340001027585,新規,0,2025-08-18,2025-08-18,株式会社芋モンブラン農園,,株式会社,鹿児島県,鹿屋市,浜田町１１０３番地,,46,203,8930053,,,,,,,2025-08-18,1,,,,,イモモンブランノウエン,0
266,1350003005010,新規,0,2025-08-18,2025-08-18,ＳＡＩＧＯＮＭＡＲＴ合同会社,,合同会社,宮崎県,宮崎市,松山１丁目６番３１号ステージワン松山２０１号,,45,201,8800865,,,,,,,2025-08-18,1,,,,,サイゴンマート,0
269,1360003015181,新規,0,2025-08-18,2025-08-18,ＫＯＴ合同会社,,合同会社,沖縄県,島尻郡南風原町,字喜屋武１７８番地,,47,350,9011113,,,,,,,2025-08-18,1,,,,,ケイオーティー,0
274,1400001017142,新規,0,2025-08-18,2025-08-18,株式会社アイレーヌ,,株式会社,岩手県,盛岡市,南大通３丁目１３番地２５号,,03,201,0200874,,,,,,,2025-08-18,1,,,,,アイレーヌ,0
280,1420001019228,新規,0,2025-08-18,2025-08-18,株式会社佐々木商店,,株式会社,青森県,八戸市,大字六日町３２番地,,02,203,0310033,,,,,,,2025-08-18,1,,,,,ササキショウテン,0
285,1430001094971,新規,0,2025-08-18,2025-08-18,小樽おさんぽｃａｆｅ株式会社,,株式会社,北海道,小樽市,稲穂３丁目１０番１６号,,01,203,0470032,,,,,,,2025-08-18,1,,,,,オタルオサンポカフェ,0
286,1430001094996,新規,0,2025-08-18,2025-08-18,株式会社まさおり,,株式会社,北海道,夕張市,紅葉山４５４番地１,,01,209,0680755,,,,,,,2025-08-18,1,,,,,マサオリ,0
287,1430001095037,新規,0,2025-08-18,2025-08-18,株式会社Ｃｏｍｍａｎｄｏ,,株式会社,北海道,札幌市西区,発寒十一条１丁目９番３０－９１１号,,01,107,0630831,,,,,,,2025-08-18,1,,,,,コマンド,0
288,1430001095103,新規,0,2025-08-18,2025-08-18,つなぐＢ株式会社,,株式会社,北海道,札幌市西区,発寒十一条５丁目１０番１号,,01,107,0630831,,,,,,,2025-08-18,1,,,,,ツナグビー,0
290,1430003017971,新規,0,2025-08-18,2025-08-18,合同会社みつ屋,,合同会社,北海道,千歳市,北斗３丁目８番１６号,,01,224,0660073,,,,,,,2025-08-18,1,,,,,ミツヤ,0
291,1430003017988,新規,0,2025-08-18,2025-08-18,合同会社ネクスト,,合同会社,北海道,札幌市西区,発寒十一条１丁目３番７号,,01,107,0630831,,,,,,,2025-08-18,1,,,,,ネクスト,0
293,1700150131829,新規,0,2025-08-18,2025-08-18,Ｄｏｎｇｇｕａｎ　Ｓｈｕｒｕｉ　Ｐｅｔ　Ｐｒｏｄｕｃｔｓ　Ｃｏ．　Ｌｔｄ,,外国会社等,,,,,,,,Ｒｏｏｍ　３０１，　Ｎｏ．３５０　Ｎａｎ　Ｃｈｅｎｇ　Ｄｕａｎ　Ｇｕａｎ　Ｔａｉ　Ｒｏａｄ　Ｎａｎｃｈｅｎｇ　Ｓｔｒｅｅｔ　Ｄｏｎｇｇｕａｎ　Ｇｕａｎｇｄｏｎｇ　５２３１７０　ＣＮ,,,,,,2025-08-18,1,,,,,ドングァンシュールイペットプロダクツカンパニーリミテッド,0
303,2010001257553,新規,0,2025-08-18,2025-08-18,株式会社Ｎｏｖｅｎｔｉｓ,,株式会社,東京都,千代田区,神田東松下町１３番地,,13,101,1010042,,,,,,,2025-08-18,1,,,,,ノヴェンティス,0
304,2010001257685,新規,0,2025-08-18,2025-08-18,コペルシステム株式会社,,株式会社,東京都,中央区,日本橋蛎殻町１丁目３８番１２号,,13,102,1030014,,,,,,,2025-08-18,1,,,,,コペルシステム,0
305,2010001257710,新規,0,2025-08-18,2025-08-18,Ｓａｒｍｏｎｙ株式会社,,株式会社,東京都,中央区,京橋２丁目１６－１,,13,102,1040031,,,,,,,2025-08-18,1,,,,,サーモニー,0
306,2010001257768,新規,0,2025-08-18,2025-08-18,ＬｉＭｉＮＡＬコンサルティング株式会社,,株式会社,東京都,千代田区,神田錦町３丁目２１番地ちよだプラットフォームスクウェア,,13,101,1010054,,,,,,,2025-08-18,1,,,,,リミナルコンサルティング,0
309,2010003048430,新規,0,2025-08-18,2025-08-18,Ｙ＆Ｙ合同会社,,合同会社,東京都,中央区,銀座６丁目１２番１号,,13,102,1040061,,,,,,,2025-08-18,1,,,,,ワイアンドワイ,0
322,2010401191963,新規,0,2025-08-18,2025-08-18,Ｍ．Ｏ．Ｆ株式会社,,株式会社,東京都,港区,港南２丁目４番１４号,,13,103,1080075,,,,,,,2025-08-18,1,,,,,エムオーエフ,0
323,2010401192318,新規,0,2025-08-18,2025-08-18,株式会社ＰＲＪＣＴ,,株式会社,東京都,港区,白金台４丁目４番１１号,,13,103,1080071,,,,,,,2025-08-18,1,,,,,プロジェクト,0
324,2010401192326,新規,0,2025-08-18,2025-08-18,株式会社帝京ホールディングス,,株式会社,東京都,港区,浜松町２丁目２番１５号浜松町ダイヤビル２Ｆ,,13,103,1050013,,,,,,,2025-08-18,1,,,,,テイキョウホールディングス,0
325,2010401192334,新規,0,2025-08-18,2025-08-18,ＧＦＳ　Ｐｒｏ株式会社,,株式会社,東京都,港区,芝浦３丁目９番１号芝浦ルネサイトタワー１５Ｆ,,13,103,1080023,,,,,,,2025-08-18,1,,,,,ジーエフエスプロ,0
326,2010401192516,新規,0,2025-08-18,2025-08-18,株式会社ｗｉｔｈ,,株式会社,東京都,港区,六本木４丁目３番１１－５１０号,,13,103,1060032,,,,,,,2025-08-18,1,,,,,ウィズ,0
328,2010403035821,新規,0,2025-08-18,2025-08-18,合同会社古家庵,,合同会社,東京都,港区,赤坂３丁目２０－８臨水ビルＢ１Ｆ,,13,103,1070052,,,,,,,2025-08-18,1,,,,,コカアン,0
333,2010501054401,新規,0,2025-08-18,2025-08-18,ＥＳＴＥＬＡ　ＷＯＲＫＳ株式会社,,株式会社,東京都,台東区,蔵前１丁目５番８－８０１号,,13,106,1110051,,,,,,,2025-08-18,1,,,,,エステラワークス,0
334,2010601067815,新規,0,2025-08-18,2025-08-18,Ｖａｍａ　Ｅｎｔｅｒｐｒｉｓｅｓ株式会社,,株式会社,東京都,江東区,東砂７丁目１０番１２号２階,,13,108,1360074,,,,,,,2025-08-18,1,,,,,ヴマエンタープライズ,0
337,2010703007867,新規,0,2025-08-18,2025-08-18,合同会社孝昌,,合同会社,東京都,品川区,北品川１丁目２４番７号,,13,109,1400001,,,,,,,2025-08-18,1,,,,,タカマサ,0
347,2011001171827,新規,0,2025-08-18,2025-08-18,株式会社Ｕｎｄｅｒ　Ｃｈａｏｓ　Ｐｒｏｄｕｃｔｉｏｎｓ,,株式会社,東京都,渋谷区,鶯谷町３番４,,13,113,1500032,,,,,,,2025-08-18,1,,,,,アンダーカオスプロダクションズ,0
348,2011005011120,新規,0,2025-08-18,2025-08-18,一般社団法人ＳＴＥＭ　Ａｃａｄｅｍｙ,,その他の設立登記法人,東京都,渋谷区,神宮前６丁目２３番４号桑野ビル２階,,13,113,1500001,,,,,,,2025-08-18,1,,,,,ステムアカデミー,0
357,2011101112706,新規,0,2025-08-18,2025-08-18,千本未来株式会社,,株式会社,東京都,新宿区,上落合３丁目８－２５ＦＬＡＭＰ７０６,,13,104,1610034,,,,,,,2025-08-18,1,,,,,センボンミライ,0
360,2011603004806,新規,0,2025-08-18,2025-08-18,合同会社ＡＧＥＮＴ　ＮＵＭＢＥＲ　ＮＩＮＥ,,合同会社,東京都,練馬区,早宮３丁目１４番１２号,,13,120,1790085,,,,,,,2025-08-18,1,,,,,エージェントナンバーナイン,0
361,2011701028632,新規,0,2025-08-18,2025-08-18,株式会社エリースタイル,,株式会社,東京都,江戸川区,南篠崎町４丁目２７－２５,,13,123,1330065,,,,,,,2025-08-18,1,,,,,エリースタイル,0
364,2012301014502,新規,0,2025-08-18,2025-08-18,株式会社アルファプランニング,,株式会社,東京都,町田市,鶴間３丁目３番地７ドレッセタワー南町田グランベリーパーク２３０５,,13,209,1940004,,,,,,,2025-08-18,1,,,,,アルファプランニング,0
365,2012303002208,新規,0,2025-08-18,2025-08-18,合同会社Ｇｌｏｂａｌ　Ｅｄｇｅ,,合同会社,東京都,町田市,高ヶ坂２丁目１４番７号,,13,209,1940014,,,,,,,2025-08-18,1,,,,,グローバルエッジ,0
366,2012401043442,新規,0,2025-08-18,2025-08-18,パーセルエステート株式会社,,株式会社,東京都,三鷹市,下連雀３丁目２７番１号,,13,204,1810013,,,,,,,2025-08-18,1,,,,,パーセルエステート,0
367,2012403007288,新規,0,2025-08-18,2025-08-18,合同会社アンミュージック,,合同会社,東京都,武蔵野市,吉祥寺南町３丁目１６番６号,,13,203,1800003,,,,,,,2025-08-18,1,,,,,アンミュージック,0
370,2012805003356,新規,0,2025-08-18,2025-08-18,一般社団法人ゆるるか,,その他の設立登記法人,東京都,立川市,幸町３丁目３１番地の４アビタシオン・ボヌール２０１号,,13,202,1900002,,,,,,,2025-08-18,1,,,,,ユルルカ,0
373,2020001164278,新規,0,2025-08-18,2025-08-18,パインビット株式会社,,株式会社,神奈川県,横浜市中区,尾上町５丁目８０番地神奈川中小企業センタービル７階神奈川産業振興センター内,,14,104,2310015,,,,,,,2025-08-18,1,,,,,パインビット,0
374,2020001164294,新規,0,2025-08-18,2025-08-18,株式会社奈良本,,株式会社,神奈川県,横浜市神奈川区,金港町５番１４号クアドリフォリオ８階,,14,102,2210056,,,,,,,2025-08-18,1,,,,,ナラモト,0
375,2020001164352,新規,0,2025-08-18,2025-08-18,Ｓｏｕｌ　Ｍａｔｅ株式会社,,株式会社,神奈川県,横浜市都筑区,東山田３丁目２３番２－１００３号,,14,118,2240023,,,,,,,2025-08-18,1,,,,,ソウルメイト,0
378,2020003029157,新規,0,2025-08-18,2025-08-18,合同会社プロボノ３,,合同会社,神奈川県,横浜市金沢区,釜利谷西２丁目３４番５号,,14,108,2360046,,,,,,,2025-08-18,1,,,,,プロボノスリー,0
380,2021001086116,新規,0,2025-08-18,2025-08-18,株式会社ＳＯＲＡＴＯ,,株式会社,神奈川県,藤沢市,遠藤２０１０番地３,,14,205,2520816,,,,,,,2025-08-18,1,,,,,ソラト,0
383,2030001168121,新規,0,2025-08-18,2025-08-18,株式会社エフェクト,,株式会社,埼玉県,朝霞市,根岸台２丁目２―６―８０３,,11,227,3510005,,,,,,,2025-08-18,1,,,,,エフェクト,0
384,2030001168220,新規,0,2025-08-18,2025-08-18,株式会社ポムポムビート,,株式会社,埼玉県,さいたま市大宮区,桜木町１丁目２１３番地１プラウド大宮２００３,,11,103,3300854,,,,,,,2025-08-18,1,,,,,ポムポムビート,0
385,2030001168229,新規,0,2025-08-18,2025-08-18,スマイルハウジング株式会社,,株式会社,埼玉県,川口市,末広１丁目６番６号,,11,203,3320006,,,,,,,2025-08-18,1,,,,,スマイルハウジング,0
388,2030003027374,新規,0,2025-08-18,2025-08-18,浄香製造所合同会社,,合同会社,埼玉県,さいたま市南区,白幡６丁目７－６セントヒルズ武蔵浦和４０４,,11,108,3360022,,,,,,,2025-08-18,1,,,,,キヨメコウセイゾウショ,0
389,2030003027408,新規,0,2025-08-18,2025-08-18,合同会社アトリエ五號,,合同会社,埼玉県,加須市,礼羽７１５番地,,11,210,3470044,,,,,,,2025-08-18,1,,,,,アトリエゴゴウ,0
390,2030003027424,新規,0,2025-08-18,2025-08-18,合同会社えーるｐｒｏｊｅｃｔ,,合同会社,埼玉県,越谷市,東大沢３丁目２４番１２号,,11,222,3430022,,,,,,,2025-08-18,1,,,,,エールプロジェクト,0
397,2040001140046,新規,0,2025-08-18,2025-08-18,Ｍｅｇｕｒｏ　Ｙｏｕｒ　Ｐａｒｔｎｅｒ株式会社,,株式会社,千葉県,浦安市,当代島１丁目１６番２１号フェニックス２階,,12,227,2790001,,,,,,,2025-08-18,1,,,,,メグロユアパートナー,0
398,2040001140054,新規,0,2025-08-18,2025-08-18,株式会社ＭＢｄｅｓｉｇｎ,,株式会社,千葉県,習志野市,東習志野３丁目１５番８号,,12,216,2750001,,,,,,,2025-08-18,1,,,,,エムビーデザイン,0
399,2040001140062,新規,0,2025-08-18,2025-08-18,株式会社アミール,,株式会社,千葉県,八千代市,勝田台北１丁目３番５号ハーマニービルＢ棟１Ｆ,,12,221,2760020,,,,,,,2025-08-18,1,,,,,アミール,0
400,2040001140087,新規,0,2025-08-18,2025-08-18,株式会社誠工業,,株式会社,千葉県,香取市,佐原イ２１４６番地３,,12,236,2870003,,,,,,,2025-08-18,1,,,,,マコトコウギョウ,0
401,2040001140104,新規,0,2025-08-18,2025-08-18,株式会社コネクトワン,,株式会社,千葉県,千葉市中央区,中央３丁目１３－７－４０９,,12,101,2600013,,,,,,,2025-08-18,1,,,,,コネクトワン,0
404,2040003028272,新規,0,2025-08-18,2025-08-18,合同会社ＭＳＹＳ,,合同会社,千葉県,千葉市中央区,富士見１丁目１４番１３号千葉大栄ビル８３０,,12,101,2600015,,,,,,,2025-08-18,1,,,,,エムエスワイエス,0
412,2080103003394,新規,0,2025-08-18,2025-08-18,ＳＡＫＵＲＡ合同会社,,合同会社,静岡県,伊豆の国市,南條１９６番地の１高野コーポＡ－１,,22,225,4102114,,,,,,,2025-08-18,1,,,,,サクラ,0
414,2080401028119,新規,0,2025-08-18,2025-08-18,株式会社Ｙ’ｓ　Ａｓｓｅｔ,,株式会社,静岡県,浜松市中央区,参野町１６０番地の２,,22,138,4300816,,,,,,,2025-08-18,1,,,,,ワイズアセット,0
415,2090001019467,新規,0,2025-08-18,2025-08-18,株式会社ホロスコープヘルスコーチング,,株式会社,山梨県,北杜市,高根町村山西割２３０８番地１,,19,209,4080018,,,,,,,2025-08-18,1,,,,,ホロスコープヘルスコーチング,0
416,2100003008342,新規,0,2025-08-18,2025-08-18,宏盛合同会社,,合同会社,長野県,諏訪郡富士見町,落合９９９７番地１７,,20,362,3990214,,,,,,,2025-08-18,1,,,,,コウセイ,0
430,2120003030286,新規,0,2025-08-18,2025-08-18,拓志合同会社,,合同会社,大阪府,大阪市西成区,萩之茶屋２丁目６番４号ニューかめや１６３号室,,27,122,5570004,,,,,,,2025-08-18,1,,,,,タクシ,0
431,2120003030303,新規,0,2025-08-18,2025-08-18,エカムジャパン合同会社,,合同会社,大阪府,大阪市此花区,酉島６丁目１７－１５,,27,104,5540051,,,,,,,2025-08-18,1,,,,,エカムジャパン,0
433,2120005025111,新規,0,2025-08-18,2025-08-18,一般社団法人ＳＫＪ,,その他の設立登記法人,大阪府,大阪市鶴見区,横堤５丁目５番９号,,27,124,5380052,,,,,,,2025-08-18,1,,,,,エスケイジェイ,0
436,2120901051318,新規,0,2025-08-18,2025-08-18,株式会社Ｂｌｕｅ　Ｓｔｅｐ,,株式会社,大阪府,吹田市,千里山西４丁目２番２５号,,27,205,5650851,,,,,,,2025-08-18,1,,,,,ブルーステップ,0
437,2120901051342,新規,0,2025-08-18,2025-08-18,三和タイレル株式会社,,株式会社,大阪府,摂津市,鶴野４丁目６番１８号,,27,224,5660035,,,,,,,2025-08-18,1,,,,,サンワタイレル,0
438,2120901051350,新規,0,2025-08-18,2025-08-18,株式会社Ｈｙｄｒａｎｇｅａ,,株式会社,大阪府,箕面市,瀬川４丁目１３番１２号,,27,220,5620045,,,,,,,2025-08-18,1,,,,,ハイドレンジア,0
439,2122001039557,新規,0,2025-08-18,2025-08-18,瑞富株式会社,,株式会社,大阪府,東大阪市,新池島町２丁目２番３１号,,27,227,5798065,,,,,,,2025-08-18,1,,,,,ズイフ,0
440,2130001080233,新規,0,2025-08-18,2025-08-18,Ｋｉｚｕｎａ株式会社,,株式会社,京都府,京都市伏見区,深草西浦町１丁目１５番６号ｙｕｙｕビル２Ｄ室,,26,109,6120029,,,,,,,2025-08-18,1,,,,,キズナ,0
441,2130001080308,新規,0,2025-08-18,2025-08-18,株式会社百妖箱,,株式会社,京都府,京都市北区,等持院東町４９番地１８,,26,101,6038343,,,,,,,2025-08-18,1,,,,,ヒャクヨウバコ,0
446,2140001139672,新規,0,2025-08-18,2025-08-18,Ｖｉｖａｎｔ株式会社,,株式会社,兵庫県,西宮市,樋ノ口町２丁目１番１４－１０１号,,28,204,6638011,,,,,,,2025-08-18,1,,,,,ヴィヴァン,0
447,2140001139680,新規,0,2025-08-18,2025-08-18,株式会社ＲＥＸＩＡＬＩＮＥ,,株式会社,兵庫県,神戸市西区,伊川谷町有瀬１４１３番地の３,,28,111,6512113,,,,,,,2025-08-18,1,,,,,リクシアライン,0
448,2140001139689,新規,0,2025-08-18,2025-08-18,株式会社美玲,,株式会社,兵庫県,西宮市,松籟荘５番２５号アイビーヒルズ甲東園ＩＩＩ２０１,00140321,28,204,6620822,,,,,,,2025-08-18,1,,,,,ビレイ,0
449,2140001139697,新規,0,2025-08-18,2025-08-18,剣精工株式会社,,株式会社,兵庫県,加古川市,野口町坂井２３８－６,,28,210,6750015,,,,,,,2025-08-18,1,,,,,ツルギセイコウ,0
450,2140001139706,新規,0,2025-08-18,2025-08-18,株式会社ＯＭＯＲＯ,,株式会社,兵庫県,神戸市長田区,腕塚町５丁目５番１－２０５号,,28,106,6530036,,,,,,,2025-08-18,1,,,,,オモロ,0
454,2140003022414,新規,0,2025-08-18,2025-08-18,元氣合同会社,,合同会社,兵庫県,神戸市兵庫区,湊川町１０丁目１５－２１－Ｂ１,,28,105,6520041,,,,,,,2025-08-18,1,,,,,ゲンキ,0
456,2160001027000,新規,0,2025-08-18,2025-08-18,株式会社セカンド,,株式会社,滋賀県,長浜市,南高田町７２番地１,,25,203,5260032,,,,,,,2025-08-18,1,,,,,セカンド,0
465,2180001168131,新規,0,2025-08-18,2025-08-18,株式会社ＣＨＳ,,株式会社,愛知県,名古屋市北区,山田西町３丁目１３０番地ＧＲＡＮＤＴＩＣ大曽根１０１号,,23,103,4620814,,,,,,,2025-08-18,1,,,,,シーエイチエス,0
466,2180001168156,新規,0,2025-08-18,2025-08-18,株式会社ｄｅａｒ　ｆａｍｉｌｉｅ,,株式会社,愛知県,名古屋市守山区,大森２丁目１４１３番地,,23,113,4630021,,,,,,,2025-08-18,1,,,,,ディアファミリエ,0
467,2180001168172,新規,0,2025-08-18,2025-08-18,株式会社ＡＲＣ,,株式会社,愛知県,名古屋市中区,大須３丁目２番１７号,,23,106,4600011,,,,,,,2025-08-18,1,,,,,アーク,0
468,2180001168189,新規,0,2025-08-18,2025-08-18,株式会社ミーティア,,株式会社,愛知県,日進市,藤塚３丁目３６９番地,,23,230,4700117,,,,,,,2025-08-18,1,,,,,ミーティア,0
469,2180001168197,新規,0,2025-08-18,2025-08-18,株式会社アバランチ,,株式会社,愛知県,名古屋市天白区,山郷町８２番地,,23,116,4680032,,,,,,,2025-08-18,1,,,,,アバランチ,0
470,2180001168206,新規,0,2025-08-18,2025-08-18,株式会社アーバンゲートアジア,,株式会社,愛知県,名古屋市緑区,姥子山１丁目１０５番地,,23,114,4580830,,,,,,,2025-08-18,1,,,,,アーバンゲートアジア,0
471,2180001168230,新規,0,2025-08-18,2025-08-18,Ａｒｔ株式会社,,株式会社,愛知県,東海市,富木島町伏見４丁目５番地の１３,,23,222,4760012,,,,,,,2025-08-18,1,,,,,アート,0
477,2180003028845,新規,0,2025-08-18,2025-08-18,合同会社ＰＬＵＳ　ＵＬＴＲＡ,,合同会社,愛知県,名古屋市中区,千代田２丁目２５番１１号レインボーピア記念橋３０３号,,23,106,4600012,,,,,,,2025-08-18,1,,,,,プルスウルトラ,0
500,2260001040406,新規,0,2025-08-18,2025-08-18,株式会社ＡｍｅＰｒｏｚ,,株式会社,岡山県,岡山市中区,雄町１８２番地１２,,33,102,7038204,,,,,,,2025-08-18,1,,,,,アメプロズ,0
501,2260001040439,新規,0,2025-08-18,2025-08-18,株式会社ラガッツォ,,株式会社,岡山県,岡山市北区,西崎１丁目４番１１号サンクレスト西崎１０２号室,,33,101,7000055,,,,,,,2025-08-18,1,,,,,ラガッツォ,0
502,2260001040447,新規,0,2025-08-18,2025-08-18,株式会社アベニュウ,,株式会社,岡山県,倉敷市,茶屋町早沖２５３番地,,33,202,7101102,,,,,,,2025-08-18,1,,,,,アベニュウ,0
503,2260001040455,新規,0,2025-08-18,2025-08-18,Ｃｈｉｌｌ株式会社,,株式会社,岡山県,岡山市北区,宿４２９番地７,,33,101,7000001,,,,,,,2025-08-18,1,,,,,チル,0
505,2260003005308,新規,0,2025-08-18,2025-08-18,合同会社ティアリス,,合同会社,岡山県,倉敷市,船穂町船穂２７９２番地２,,33,202,7100261,,,,,,,2025-08-18,1,,,,,ティアリス,0
516,2290001111022,新規,0,2025-08-18,2025-08-18,株式会社福姫警備,,株式会社,福岡県,福岡市城南区,七隈７丁目４０番２１号セルシオマンション１Ｆ,,40,136,8140133,,,,,,,2025-08-18,1,,,,,フクヒメケイビ,0
517,2290001111047,新規,0,2025-08-18,2025-08-18,株式会社下川,,株式会社,福岡県,久留米市,大石町４４１番地１５,,40,203,8300049,,,,,,,2025-08-18,1,,,,,シモカワ,0
518,2290001111071,新規,0,2025-08-18,2025-08-18,株式会社ＬＡＺＯ,,株式会社,福岡県,福岡市東区,香住ヶ丘５丁目３番１６号,,40,131,8130003,,,,,,,2025-08-18,1,,,,,ラソ,0
519,2290001111179,新規,0,2025-08-18,2025-08-18,サンアップ株式会社,,株式会社,福岡県,筑紫野市,二日市中央３丁目９―４５山村ビル２０２号,,40,217,8180072,,,,,,,2025-08-18,1,,,,,サンアップ,0
524,2290003017201,新規,0,2025-08-18,2025-08-18,晴子合同会社,,合同会社,福岡県,福岡市中央区,春吉２丁目７番５号３階,,40,133,8100003,,,,,,,2025-08-18,1,,,,,ハルコ,0
525,2290003017234,新規,0,2025-08-18,2025-08-18,合同会社ＬＵＭＩＮＡ,,合同会社,福岡県,福岡市城南区,田島３丁目１５番１５－３０２号,,40,136,8140113,,,,,,,2025-08-18,1,,,,,ルミナ,0
526,2290003017259,新規,0,2025-08-18,2025-08-18,ハナ合同会社,,合同会社,福岡県,福岡市東区,美和台２丁目２１番７フォブール美和台ＩＩＢ棟１０２号,00140318,40,131,8110212,,,,,,,2025-08-18,1,,,,,ハナ,0
531,2310001019758,新規,0,2025-08-18,2025-08-18,株式会社ＳＩＧＮＡＲＹ,,株式会社,長崎県,長崎市,東小島町１０番１３号,,42,201,8500833,,,,,,,2025-08-18,1,,,,,サイナリー,0
538,2330001033501,新規,0,2025-08-18,2025-08-18,株式会社下田屋商店,,株式会社,熊本県,上益城郡益城町,大字木山５１３番地２,,43,443,8612242,,,,,,,2025-08-18,1,,,,,シモダヤショウテン,0
541,2340001027592,新規,0,2025-08-18,2025-08-18,株式会社ＳＫ工業,,株式会社,鹿児島県,鹿児島市,田上８丁目２９番２号コーポ光ＩＩ２０３号,00140328,46,201,8900034,,,,,,,2025-08-18,1,,,,,エスケイコウギョウ,0
544,2350001019688,新規,0,2025-08-18,2025-08-18,株式会社ホテル四季見,,株式会社,宮崎県,西臼杵郡高千穂町,大字三田井７２９番地２９,,45,441,8821101,,,,,,,2025-08-18,1,,,,,ホテルシキミ,0
561,2400001017141,新規,0,2025-08-18,2025-08-18,百万石アセットホールディングス株式会社,,株式会社,岩手県,紫波郡矢巾町,大字南矢幅第６地割６０６番地,,03,322,0283615,,,,,,,2025-08-18,1,,,,,ヒャクマンゴクアセットホールディングス,0
564,2430001095028,新規,0,2025-08-18,2025-08-18,北縁株式会社,,株式会社,北海道,札幌市西区,二十四軒二条１丁目１番５７号,,01,107,0630802,,,,,,,2025-08-18,1,,,,,ホクエン,0
565,2430001095036,新規,0,2025-08-18,2025-08-18,株式会社エイトエイト,,株式会社,北海道,札幌市東区,北二十二条東２０丁目５番３８号,,01,103,0650022,,,,,,,2025-08-18,1,,,,,エイトエイト,0
571,2430003017954,新規,0,2025-08-18,2025-08-18,合同会社ＴＡＲＩ企画,,合同会社,北海道,札幌市手稲区,前田九条１４丁目２番２０号ＨＯＴハウスＡ２,,01,109,0060819,,,,,,,2025-08-18,1,,,,,タリキカク,0
572,2430003017987,新規,0,2025-08-18,2025-08-18,合同会社ブルーナ,,合同会社,北海道,札幌市中央区,南五条西２７丁目１－２０－９０１,,01,101,0640805,,,,,,,2025-08-18,1,,,,,ブルーナ,0
579,2700150131828,新規,0,2025-08-18,2025-08-18,ｇｕａｎｇｚｈｏｕｚｈｏｎｇｌｕｄｉａｎｚｉｓｈａｎｇｗｕｙｏｕｘｉａｎｇｏｎｇｓｉ,,外国会社等,,,,,,,,ｇｕａｎｇｚｈｏｕｓｈｉｚｅｎｇｃｈｅｎｇｑｕｌｉｈｕｊｉｅｄａｏ１６ｈａｏ１１０３ｆａｎｇ　５１１３００　ＣＮ,,,,,,2025-08-18,1,,,,,グゥアンゾウゾンルデンシショウムヨウシエンゴンスー,0
581,3010001257759,新規,0,2025-08-18,2025-08-18,株式会社Ｃｏｒｅ　ＡＩ,,株式会社,東京都,中央区,銀座１丁目１２番４号６Ｆ,,13,102,1040061,,,,,,,2025-08-18,1,,,,,コアエーアイ,0
584,3010003048371,新規,0,2025-08-18,2025-08-18,合同会社８８ｓｔｅｐｓ,,合同会社,東京都,中央区,日本橋室町１丁目１１番１２号日本橋水野ビル７階,,13,102,1030022,,,,,,,2025-08-18,1,,,,,エイティエイトステップス,0
585,3010005040533,新規,0,2025-08-18,2025-08-18,一般社団法人マンナミー,,その他の設立登記法人,東京都,中央区,日本橋兜町１７番２号兜町第６葉山ビル４階,,13,102,1030026,,,,,,,2025-08-18,1,,,,,マンナミー,0
590,3010401192507,新規,0,2025-08-18,2025-08-18,株式会社ＪＩＬＥＹＥＳ,,株式会社,東京都,港区,南青山５丁目４番４４号ラポール南青山２０３,,13,103,1070062,,,,,,,2025-08-18,1,,,,,ジレース,0
592,3010403035770,新規,0,2025-08-18,2025-08-18,合同会社Ｐｒｏｍｉｎｅｎｃｅ,,合同会社,東京都,港区,赤坂９丁目６－２６－４０４,,13,103,1070052,,,,,,,2025-08-18,1,,,,,プロミネンス,0
597,3010601067814,新規,0,2025-08-18,2025-08-18,オルトナ株式会社,,株式会社,東京都,江東区,北砂６丁目１９番３号,,13,108,1360073,,,,,,,2025-08-18,1,,,,,オルトナ,0
598,3010603011745,新規,0,2025-08-18,2025-08-18,合同会社ＬＫＳ,,合同会社,東京都,江東区,森下３丁目１番７号,,13,108,1350004,,,,,,,2025-08-18,1,,,,,エルケーエス,0
602,3010701048160,新規,0,2025-08-18,2025-08-18,株式会社ＦＣアセットマネジメント,,株式会社,東京都,品川区,西五反田８丁目９番５号,,13,109,1410031,,,,,,,2025-08-18,1,,,,,エフシーアセットマネジメント,0
609,3010905004819,新規,0,2025-08-18,2025-08-18,一般社団法人政策技法,,その他の設立登記法人,東京都,世田谷区,野沢４丁目２０番３－３０１号,,13,112,1540003,,,,,,,2025-08-18,1,,,,,セイサクギホウ,0
612,3011001171371,新規,0,2025-08-18,2025-08-18,株式会社ｍｉｃｋｐｌｕｓ,,株式会社,東京都,渋谷区,道玄坂１丁目１０番８号渋谷道玄坂東急ビル２Ｆ－Ｃ,,13,113,1500043,,,,,,,2025-08-18,1,,,,,ミックプラス,0
613,3011001171438,新規,0,2025-08-18,2025-08-18,ＣＩＳ株式会社,,株式会社,東京都,目黒区,下目黒２丁目２３番２８号,,13,110,1530064,,,,,,,2025-08-18,1,,,,,シーアイエス,0
618,3011103016227,新規,0,2025-08-18,2025-08-18,合同会社ＳＫＩＬＬＳＥＥＫ,,合同会社,東京都,新宿区,西新宿８丁目１０－１４－２０２,,13,104,1600023,,,,,,,2025-08-18,1,,,,,スキルシーク,0
627,3011701028623,新規,0,2025-08-18,2025-08-18,つう楽株式会社,,株式会社,東京都,江戸川区,西一之江１丁目４番２１号フォルテーヌＩＩ１０１号室,00140316,13,123,1320023,,,,,,,2025-08-18,1,,,,,ツウラク,0
643,3020001164277,新規,0,2025-08-18,2025-08-18,株式会社Ｌｕｍｏｓ,,株式会社,神奈川県,川崎市宮前区,南野川２丁目６番２４号,,14,136,2160042,,,,,,,2025-08-18,1,,,,,ルーモス,0
644,3020001164384,新規,0,2025-08-18,2025-08-18,株式会社エル・コティ,,株式会社,神奈川県,横浜市中区,桜木町２丁目２番地港陽ビル３Ｆ３１８,,14,104,2310062,,,,,,,2025-08-18,1,,,,,エルコティ,0
651,3020003029123,新規,0,2025-08-18,2025-08-18,合同会社コスモス,,合同会社,神奈川県,横浜市南区,通町２丁目２７番地,,14,105,2320056,,,,,,,2025-08-18,1,,,,,コスモス,0
656,3021001086115,新規,0,2025-08-18,2025-08-18,株式会社ＩＴＢ,,株式会社,神奈川県,平塚市,馬入本町１５番１３－７０６号グランシティユーロレジデンス平塚,,14,203,2540024,,,,,,,2025-08-18,1,,,,,アイティービー,0
657,3021003016441,新規,0,2025-08-18,2025-08-18,合同会社Ｓｏ　Ｂｉｚ　Ｉｎｓｐｉｒｅ,,合同会社,神奈川県,平塚市,南原１丁目２８番１－５０９号,,14,203,2540065,,,,,,,2025-08-18,1,,,,,ソウビズインスパイア,0
665,3030001167948,新規,0,2025-08-18,2025-08-18,株式会社Ｗｒｅｋｏｎｉｚｅ,,株式会社,埼玉県,志木市,上宗岡５丁目１２番７号,,11,228,3530001,,,,,,,2025-08-18,1,,,,,レコナイズ,0
666,3030001168062,新規,0,2025-08-18,2025-08-18,株式会社ＡＬＩＡ,,株式会社,埼玉県,所沢市,南住吉２１番４６号サンライズ二上１Ｆ,,11,208,3591125,,,,,,,2025-08-18,1,,,,,アリア,0
667,3030001168203,新規,0,2025-08-18,2025-08-18,株式会社Ｒｉｌａ　Ｒｉｓｅ,,株式会社,埼玉県,東松山市,大字正代１１７５番地,,11,212,3550044,,,,,,,2025-08-18,1,,,,,リラライズ,0
668,3030001168236,新規,0,2025-08-18,2025-08-18,株式会社舘野建業,,株式会社,埼玉県,川口市,差間２丁目１９番５号,,11,203,3330816,,,,,,,2025-08-18,1,,,,,タテノケンギョウ,0
670,3030003027398,新規,0,2025-08-18,2025-08-18,合同会社Ｂｉｔｔｏ,,合同会社,埼玉県,富士見市,鶴瀬西３丁目４―１６,,11,235,3540026,,,,,,,2025-08-18,1,,,,,ビット,0
674,3040001140045,新規,0,2025-08-18,2025-08-18,株式会社Ｐｏｌａｒｉｓ　Ｊａｐａｎ,,株式会社,千葉県,富里市,七栄３０６番地７７,,12,233,2860221,,,,,,,2025-08-18,1,,,,,ポラリスジャパン,0
675,3040001140103,新規,0,2025-08-18,2025-08-18,ｍｙｓ建築株式会社,,株式会社,千葉県,市川市,塩浜４丁目２－５４－３０２,,12,203,2720127,,,,,,,2025-08-18,1,,,,,エムワイエスケンチク,0
683,3040003028247,新規,0,2025-08-18,2025-08-18,合同会社ＭＥＯＮ,,合同会社,千葉県,市川市,市川南５丁目４－８－１０３,,12,203,2720033,,,,,,,2025-08-18,1,,,,,ミオン,0
684,3040003028263,新規,0,2025-08-18,2025-08-18,合同会社ミラクル,,合同会社,千葉県,船橋市,前原西１丁目２６番１８号‐４Ｆ,,12,204,2740825,,,,,,,2025-08-18,1,,,,,ミラクル,0
689,3060003005673,新規,0,2025-08-18,2025-08-18,合同会社ＣＥＬＥＺ,,合同会社,栃木県,宇都宮市,平松本町４３８－４,,09,201,3210932,,,,,,,2025-08-18,1,,,,,セレズ,0
698,3090001019466,新規,0,2025-08-18,2025-08-18,荒井工業株式会社,,株式会社,山梨県,富士吉田市,上吉田５３２９番地の１６,,19,202,4030005,,,,,,,2025-08-18,1,,,,,アライコウギョウ,0
705,3120001278802,新規,0,2025-08-18,2025-08-18,株式会社ＩＣＨＩＮＵＫＥ,,株式会社,大阪府,大阪市北区,梅田１丁目２番２号大阪駅前第２ビル１２－１２,,27,127,5300001,,,,,,,2025-08-18,1,,,,,イチヌケ,0
706,3120001278835,新規,0,2025-08-18,2025-08-18,ＪＸ晶夕国際株式会社,,株式会社,大阪府,大阪市淀川区,西中島５丁目７－１７ビジネスヴィップ第２新大阪４０６,,27,123,5320011,,,,,,,2025-08-18,1,,,,,ジェイエックスショウユウコクサイ,0
707,3120001278868,新規,0,2025-08-18,2025-08-18,匯通株式会社,00140331,株式会社,大阪府,大阪市西成区,岸里２丁目２－４－１０７,,27,122,5570041,,,,,,,2025-08-18,1,,,,,カイツウ,0
708,3120001278876,新規,0,2025-08-18,2025-08-18,Ｌｏｔｕｓ株式会社,,株式会社,大阪府,大阪市都島区,都島本通３丁目１８番４号２階２０８－１５号室,,27,102,5340021,,,,,,,2025-08-18,1,,,,,ロータス,0
712,3120003030351,新規,0,2025-08-18,2025-08-18,合同会社ＮｏｒａＢｉｔ,,合同会社,大阪府,大阪市北区,梅田１丁目２番２号大阪駅前第２ビル１２‐１２,,27,127,5300001,,,,,,,2025-08-18,1,,,,,ノラビット,0
717,3120901051317,新規,0,2025-08-18,2025-08-18,株式会社ＣＡＲ　ＢＥＳＴ,,株式会社,大阪府,豊中市,永楽荘３丁目１１番６号,,27,203,5600051,,,,,,,2025-08-18,1,,,,,カーベスト,0
718,3120901051341,新規,0,2025-08-18,2025-08-18,株式会社ゆりかご,,株式会社,大阪府,池田市,上池田１丁目１番１５号シエリア池田６１０,,27,204,5630027,,,,,,,2025-08-18,1,,,,,ユリカゴ,0
720,3120905006779,新規,0,2025-08-18,2025-08-18,特定非営利活動法人豊中学童軟式野球協会,,その他の設立登記法人,大阪府,豊中市,長興寺南４丁目３番１０号,,27,203,5610874,,,,,,,2025-08-18,1,,,,,トヨナカガクドウナンシキヤキュウキョウカイ,0
721,3122001039556,新規,0,2025-08-18,2025-08-18,株式会社ｎｏ‐ｋａ,,株式会社,大阪府,大東市,三箇４丁目１２番１７号三由ハイツＡ棟２０１号,,27,218,5740077,,,,,,,2025-08-18,1,,,,,ノウカ,0
722,3122003003287,新規,0,2025-08-18,2025-08-18,ＨＩＥＮ合同会社,,合同会社,大阪府,東大阪市,水走１丁目３－４５－３０１室,,27,227,5780921,,,,,,,2025-08-18,1,,,,,ヒエン,0
726,3130001080232,新規,0,2025-08-18,2025-08-18,株式会社川嵐,,株式会社,京都府,京都市山科区,日ノ岡石塚町３７－３５－Ｂ,,26,110,6078498,,,,,,,2025-08-18,1,,,,,カワアラシ,0
727,3130001080307,新規,0,2025-08-18,2025-08-18,株式会社勝,,株式会社,京都府,京都市右京区,西院清水町３番地５,,26,108,6150052,,,,,,,2025-08-18,1,,,,,ショウ,0
728,3130001080323,新規,0,2025-08-18,2025-08-18,株式会社ＴＡＳＵＫＵ企画,,株式会社,京都府,京都市西京区,上桂前川町１０２番地上桂エクセルハイツ４０１,,26,111,6158211,,,,,,,2025-08-18,1,,,,,タスクキカク,0
731,3130003010682,新規,0,2025-08-18,2025-08-18,合同会社Ｋ２,,合同会社,京都府,福知山市,石原５丁目２２０番地エスペラント・ボヌールＢ２０３,,26,201,6200804,,,,,,,2025-08-18,1,,,,,ケーツー,0
736,3140001139630,新規,0,2025-08-18,2025-08-18,株式会社ＡｃｃＰｒｏ,,株式会社,兵庫県,尼崎市,西難波町５丁目９番２７－２号,,28,202,6600893,,,,,,,2025-08-18,1,,,,,アクプロ,0
737,3140001139639,新規,0,2025-08-18,2025-08-18,平野工業株式会社,,株式会社,兵庫県,西宮市,東町１丁目５番１１号,,28,204,6620922,,,,,,,2025-08-18,1,,,,,ヒラノコウギョウ,0
738,3140001139655,新規,0,2025-08-18,2025-08-18,桃琉株式会社,,株式会社,兵庫県,神戸市東灘区,向洋町中２丁目１３番地,,28,101,6580032,,,,,,,2025-08-18,1,,,,,トウリュウ,0
739,3140001139705,新規,0,2025-08-18,2025-08-18,ｖｉｉｉｒｏｏｍ株式会社,,株式会社,兵庫県,川西市,湯山台１丁目２１番地の７,,28,217,6660137,,,,,,,2025-08-18,1,,,,,エイトルーム,0
740,3140003022446,新規,0,2025-08-18,2025-08-18,合同会社Ｊａｍ,,合同会社,兵庫県,神戸市兵庫区,駅南通５丁目２－２－７１５,,28,105,6520897,,,,,,,2025-08-18,1,,,,,ジャム,0
748,3180001168130,新規,0,2025-08-18,2025-08-18,株式会社インテリア・ＲＩＳＥ,,株式会社,愛知県,春日井市,穴橋町１４１２番地５,,23,206,4860853,,,,,,,2025-08-18,1,,,,,インテリアライズ,0
749,3180001168155,新規,0,2025-08-18,2025-08-18,株式会社Ｙ’ｚ,,株式会社,愛知県,名古屋市緑区,鶴が沢１丁目３１２番地クオリティパレス鶴が沢４０５号,,23,114,4580814,,,,,,,2025-08-18,1,,,,,ワイズ,0
750,3180001168163,新規,0,2025-08-18,2025-08-18,河村工業株式会社,,株式会社,愛知県,海部郡飛島村,大字服岡４丁目１１６番地の４,,23,427,4901431,,,,,,,2025-08-18,1,,,,,カワムラコウギョウ,0
751,3180001168205,新規,0,2025-08-18,2025-08-18,株式会社ＭＵＧＥＮＤＡＩ,,株式会社,愛知県,名古屋市中区,平和１丁目２０番６号ライオンズシティ東別院５０３,,23,106,4600021,,,,,,,2025-08-18,1,,,,,ムゲンダイ,0
756,3180003028869,新規,0,2025-08-18,2025-08-18,合同会社いまじん,,合同会社,愛知県,日進市,梅森町上松５５３番地１エルピィディオ２０２,,23,230,4700132,,,,,,,2025-08-18,1,,,,,イマジン,0
775,3240003007370,新規,0,2025-08-18,2025-08-18,合同会社Ａｎａｌｉｎｋ,,合同会社,広島県,広島市中区,住吉町１４番１７－１３０１号,,34,101,7300813,,,,,,,2025-08-18,1,,,,,アナリンク,0
785,3290001110997,新規,0,2025-08-18,2025-08-18,三合株式会社,,株式会社,福岡県,福岡市東区,松島２丁目１－５Ｊ－ＰＬＡＮＺ３０５号室,,40,131,8120062,,,,,,,2025-08-18,1,,,,,サンゴウ,0
786,3290001111021,新規,0,2025-08-18,2025-08-18,株式会社ＩＬＹ,,株式会社,福岡県,福岡市西区,戸切２丁目９番１０号,,40,135,8190032,,,,,,,2025-08-18,1,,,,,イリイ,0
787,3290001111054,新規,0,2025-08-18,2025-08-18,株式会社中島電気,,株式会社,福岡県,福岡市西区,大字千里３３０番地４,,40,135,8190374,,,,,,,2025-08-18,1,,,,,ナカシマデンキ,0
788,3290001111070,新規,0,2025-08-18,2025-08-18,株式会社ワンフォーオール,,株式会社,福岡県,福岡市南区,三宅１丁目７番６－１２０２号,,40,134,8111344,,,,,,,2025-08-18,1,,,,,ワンフォーオール,0
792,3290003017209,新規,0,2025-08-18,2025-08-18,合同会社ＦＩＮ,,合同会社,福岡県,糸島市,志摩芥屋１６６７－１７,,40,230,8191335,,,,,,,2025-08-18,1,,,,,フィン,0
793,3290003017225,新規,0,2025-08-18,2025-08-18,Ｓｙｎａｐｓｅ　Ｗｏｒｌｄ合同会社,,合同会社,福岡県,福岡市中央区,梅光園２丁目３－１９－１,,40,133,8100035,,,,,,,2025-08-18,1,,,,,シナプスワールド,0
794,3290003017233,新規,0,2025-08-18,2025-08-18,Ｙｅｗ　Ｔｒｅｅ合同会社,,合同会社,福岡県,福岡市南区,平和２丁目１５番１５号,,40,134,8150071,,,,,,,2025-08-18,1,,,,,ユーツリー,0
805,3360001035650,新規,0,2025-08-18,2025-08-18,株式会社リバプロテクトＭｔ,,株式会社,沖縄県,那覇市,楚辺３丁目４番１５－３０１号,,47,201,9000023,,,,,,,2025-08-18,1,,,,,リバプロテクトエムティ,0
806,3360001035659,新規,0,2025-08-18,2025-08-18,株式会社セオニス,,株式会社,沖縄県,宜野湾市,字佐真下１７５－１カーサＧ２－２０１,,47,205,9012216,,,,,,,2025-08-18,1,,,,,セオニス,0
810,3370001052950,新規,0,2025-08-18,2025-08-18,株式会社ＲＥ　ＮＯＩＲ,,株式会社,宮城県,仙台市若林区,五橋３丁目１番３－２７１１号,,04,103,9840022,,,,,,,2025-08-18,1,,,,,リノエル,0
815,3400001017140,新規,0,2025-08-18,2025-08-18,株式会社Ｔｒｅａｓｔ,,株式会社,岩手県,滝沢市,室小路６４０番地８,,03,216,0200634,,,,,,,2025-08-18,1,,,,,トレスト,0
819,3430001095101,新規,0,2025-08-18,2025-08-18,株式会社イベント北海道,,株式会社,北海道,札幌市中央区,南十六条西１３丁目１番２号,,01,101,0640916,,,,,,,2025-08-18,1,,,,,イベントホッカイドウ,0
825,3430005015286,新規,0,2025-08-18,2025-08-18,一般社団法人日本相続連盟,,その他の設立登記法人,北海道,札幌市中央区,南二条西１２丁目３２３－９－２０７１,,01,101,0600062,,,,,,,2025-08-18,1,,,,,ニホンソウゾクレンメイ,0
830,3700150131827,新規,0,2025-08-18,2025-08-18,Ｆｏ　Ｓｈａｎ　Ｓｈｉ　Ｄｏｎｇ　Ｌｉ　Ｙｕｎ　Ｓｈａｎｇ　Ｍａｏ　Ｙｏｕ　Ｘｉａｎ　Ｇｏｎｇ　Ｓｉ,,外国会社等,,,,,,,,ｄａ　ｌｉ　ｚｈｅｎ　ｌｉ　ｘｉ　ｓｈｅ　ｑｕ　ｈｏｎｇ　ｇａｎｇ　ｇｏｎｇ　ｙｅ　ｑｕ　ｌｕ　ｂｅｉ　ｄｏｎｇ　ｑｉ　１　ｈａｏ　ｚｈｉ　ｙｉ　ｙｉ　ｓｈｅｎｇ　ｋｅ　ｊｉ　ｃｈａｎ　ｙｅ　ｙｕａｎ　Ａ　ｄｏｎｇ　５　ｌｏｕ　Ａ２　ｈａｏ　ｆｏ　ｓｈａｎ　ｓｈｉ　ｎａｎ　ｈａｉ　ｑｕ５２８２００　ＣＮ,,,,,,2025-08-18,1,,,,,フォサンシドンリユンシャンマオヨウシエンゴンスー,0
838,4010001257725,新規,0,2025-08-18,2025-08-18,ユニコーンパブリックリレーションズ株式会社,,株式会社,東京都,中央区,勝どき６丁目３番２－４２１２号,,13,102,1040054,,,,,,,2025-08-18,1,,,,,ユニコーンパブリックリレーションズ,0
839,4010001257840,新規,0,2025-08-18,2025-08-18,フランチャイズゲート株式会社,,株式会社,東京都,千代田区,神田須田町１丁目７番８号ＶＯＲＴ秋葉原ＩＶ２Ｆ,,13,101,1010041,,,,,,,2025-08-18,1,,,,,フランチャイズゲート,0
841,4010003048354,新規,0,2025-08-18,2025-08-18,定山渓桜合同会社,,合同会社,東京都,千代田区,霞が関３丁目２番５号,,13,101,1000013,,,,,,,2025-08-18,1,,,,,ジョウザンケイサクラ,0
842,4010003048370,新規,0,2025-08-18,2025-08-18,ＴｉｎＰａｕ合同会社,,合同会社,東京都,中央区,日本橋室町１丁目１１番１２号,,13,102,1030022,,,,,,,2025-08-18,1,,,,,,0
843,4010003048379,新規,0,2025-08-18,2025-08-18,みんなのこうじまち合同会社,,合同会社,東京都,千代田区,麹町３丁目１,,13,101,1020083,,,,,,,2025-08-18,1,,,,,ミンナノコウジマチ,0
844,4010003048445,新規,0,2025-08-18,2025-08-18,合同会社サンノーブル,,合同会社,東京都,文京区,本駒込６丁目４番６－７０３号,,13,105,1130021,,,,,,,2025-08-18,1,,,,,サンノーブル,0
845,4010103002632,新規,0,2025-08-18,2025-08-18,合同会社サン・ライズ,,合同会社,東京都,八王子市,緑町２９番地コミネアパート１０５号,,13,201,1930932,,,,,,,2025-08-18,1,,,,,サンライズ,0
852,4010401192324,新規,0,2025-08-18,2025-08-18,株式会社Ｇｏｌｕｘ　Ｊａｐａｎ,,株式会社,東京都,港区,南青山３丁目１－３６青山丸竹ビル６Ｆ,,13,103,1070062,,,,,,,2025-08-18,1,,,,,ゴルックスジャパン,0
853,4010401192332,新規,0,2025-08-18,2025-08-18,株式会社ＱＵＡＴＴＲＯ　ＰＡＲＴＮＥＲＳ,,株式会社,東京都,港区,北青山１丁目３番１号アールキューブ青山３階,,13,103,1070061,,,,,,,2025-08-18,1,,,,,クワトロパートナーズ,0
854,4010401192464,新規,0,2025-08-18,2025-08-18,株式会社ｓａｍ,,株式会社,東京都,港区,芝３丁目１２番１８号サンコート芝公園２１０号,,13,103,1050014,,,,,,,2025-08-18,1,,,,,サム,0
855,4010403035877,新規,0,2025-08-18,2025-08-18,ＫＵＯＮＮ‐ｊｙｕ合同会社,,合同会社,東京都,港区,高輪３丁目１２番３２号,,13,103,1080074,,,,,,,2025-08-18,1,,,,,クオンジュ,0
862,4010601067796,新規,0,2025-08-18,2025-08-18,株式会社ＧｘＧ,,株式会社,東京都,墨田区,亀沢１丁目４番５―７０２号,,13,107,1300014,,,,,,,2025-08-18,1,,,,,ジーエックスジー,0
865,4010703007865,新規,0,2025-08-18,2025-08-18,合同会社Ｐｒｅｃｉｏｕｓ,,合同会社,東京都,品川区,戸越１丁目１０番４号ワタナベビル１Ｆ,,13,109,1420041,,,,,,,2025-08-18,1,,,,,プレシャス,0
874,4011001171809,新規,0,2025-08-18,2025-08-18,株式会社ＰＨＹＺ,,株式会社,東京都,渋谷区,渋谷２丁目１０番６号山田青山ビル３Ｆ,,13,113,1500002,,,,,,,2025-08-18,1,,,,,フィズ,0
875,4011003022142,新規,0,2025-08-18,2025-08-18,合同会社あるストラテジー,,合同会社,東京都,目黒区,祐天寺２丁目１６－９エクレール祐天寺１０２,,13,110,1530052,,,,,,,2025-08-18,1,,,,,アルストラテジー,0
876,4011003022150,新規,0,2025-08-18,2025-08-18,チアフル合同会社,,合同会社,東京都,渋谷区,神宮前６丁目３３－１８Ｂ１－Ａ,,13,113,1500001,,,,,,,2025-08-18,1,,,,,チアフル,0
880,4011201026564,新規,0,2025-08-18,2025-08-18,株式会社プチ・ワイズ,,株式会社,東京都,中野区,野方２丁目２２番４号,,13,114,1650027,,,,,,,2025-08-18,1,,,,,プチワイズ,0
881,4011501032436,新規,0,2025-08-18,2025-08-18,株式会社ＲＵＡＳＨＩＡ,,株式会社,東京都,北区,赤羽２丁目１番２１号十一会ビル２Ｆ,,13,117,1150045,,,,,,,2025-08-18,1,,,,,ルアシア,0
882,4011601028895,新規,0,2025-08-18,2025-08-18,株式会社ハル・インクリメンタル,,株式会社,東京都,練馬区,平和台４丁目７番１４号２０１,,13,120,1790083,,,,,,,2025-08-18,1,,,,,ハルインクリメンタル,0
883,4011701028630,新規,0,2025-08-18,2025-08-18,リスタリンク株式会社,,株式会社,東京都,江戸川区,北小岩２丁目２８番１７号,,13,123,1330051,,,,,,,2025-08-18,1,,,,,リスタリンク,0
884,4011703004349,新規,0,2025-08-18,2025-08-18,合同会社ＪＢコネクション,,合同会社,東京都,江戸川区,松島３丁目１－５松島ユネックスヴィラ２１３,,13,123,1320031,,,,,,,2025-08-18,1,,,,,ジェイビーコネクション,0
888,4011803007012,新規,0,2025-08-18,2025-08-18,合同会社まじめ訪問販売,,合同会社,東京都,足立区,舎人１丁目１７番１１号,,13,121,1210831,,,,,,,2025-08-18,1,,,,,マジメホウモンハンバイ,0
892,4012803003827,新規,0,2025-08-18,2025-08-18,コープウェル・パートナーズ合同会社,,合同会社,東京都,日野市,万願寺５丁目１－１６,,13,212,1910024,,,,,,,2025-08-18,1,,,,,コープウェルパートナーズ,0
900,4020001164268,新規,0,2025-08-18,2025-08-18,株式会社Ｋフィールドラボ,,株式会社,神奈川県,川崎市宮前区,鷺沼４丁目１４番地２－Ａ３０８号,,14,136,2160004,,,,,,,2025-08-18,1,,,,,ケイフィールドラボ,0
901,4020001164425,新規,0,2025-08-18,2025-08-18,ｉＡｒｔ株式会社,,株式会社,神奈川県,横浜市港北区,新横浜３丁目８番地１１,,14,109,2220033,,,,,,,2025-08-18,1,,,,,アイアート,0
906,4020003029139,新規,0,2025-08-18,2025-08-18,ＴＡＫＡ　Ｓｏｆｔ合同会社,,合同会社,神奈川県,川崎市麻生区,栗木台４丁目３番１１－３号,,14,137,2150032,,,,,,,2025-08-18,1,,,,,タカソフト,0
907,4020003029155,新規,0,2025-08-18,2025-08-18,ＧＲＡＣＥ　ＲＥＷＡＲＤ合同会社,,合同会社,神奈川県,川崎市中原区,宮内１丁目２番３－１０５号,,14,133,2110051,,,,,,,2025-08-18,1,,,,,グレイスリワード,0
911,4021001086023,新規,0,2025-08-18,2025-08-18,株式会社Ｇｏｌｄｅｎ　ＲＫＳ不動産,,株式会社,神奈川県,藤沢市,鵠沼海岸７丁目７番８号,,14,205,2510037,,,,,,,2025-08-18,1,,,,,ゴールデンアールケイエスフドウサン,0
912,4021001086031,新規,0,2025-08-18,2025-08-18,株式会社スタート,,株式会社,神奈川県,秦野市,鶴巻南４丁目２０番１号,,14,211,2570002,,,,,,,2025-08-18,1,,,,,スタート,0
913,4021001086114,新規,0,2025-08-18,2025-08-18,株式会社ＶｉａＣａｒｅ,,株式会社,神奈川県,相模原市中央区,田名２１４４番地１１－２Ｆ－２,,14,152,2520244,,,,,,,2025-08-18,1,,,,,ヴィアケア,0
915,4021003016408,新規,0,2025-08-18,2025-08-18,合同会社ＭＡＭＵＡ,,合同会社,神奈川県,大和市,中央林間６丁目２番１８－５０５号,,14,213,2420007,,,,,,,2025-08-18,1,,,,,マムア,0
916,4021003016440,新規,0,2025-08-18,2025-08-18,合同会社ＭＯＫＹＯ　Ｌｉｆｅ　Ｄｅｓｉｇｎ,,合同会社,神奈川県,相模原市中央区,星が丘４丁目１番２０号冨洋星が丘マンション１０３,,14,152,2520238,,,,,,,2025-08-18,1,,,,,モキョウライフデザイン,0
921,4030001168210,新規,0,2025-08-18,2025-08-18,株式会社Ｌｉｅｎ,,株式会社,埼玉県,蕨市,中央５丁目２０番２３号,,11,223,3350004,,,,,,,2025-08-18,1,,,,,リアン,0
922,4030001168243,新規,0,2025-08-18,2025-08-18,株式会社Ｐｌｕｍｅ,,株式会社,埼玉県,和光市,下新倉４丁目９番３８号,,11,229,3510111,,,,,,,2025-08-18,1,,,,,プリューム,0
925,4030003027389,新規,0,2025-08-18,2025-08-18,合同会社みらい医研,,合同会社,埼玉県,鴻巣市,人形４丁目３番５８号,,11,217,3650037,,,,,,,2025-08-18,1,,,,,ミライイケン,0
926,4030003027430,新規,0,2025-08-18,2025-08-18,ＥＮＬＡＴＯ合同会社,,合同会社,埼玉県,川口市,東川口４丁目８番１２号,,11,203,3330801,,,,,,,2025-08-18,1,,,,,エンラート,0
932,4040001140077,新規,0,2025-08-18,2025-08-18,ＴＵ株式会社,,株式会社,千葉県,白井市,冨士１０４番地の３ＳＫビル八番館１０１,,12,232,2701432,,,,,,,2025-08-18,1,,,,,ティーユー,0
933,4040001140102,新規,0,2025-08-18,2025-08-18,株式会社ＢＦＰ,,株式会社,千葉県,船橋市,夏見２丁目１番１０－３０８号,,12,204,2730865,,,,,,,2025-08-18,1,,,,,ビーエフピー,0
937,4040003028270,新規,0,2025-08-18,2025-08-18,合同会社ＴＯＫＩＫＡ,,合同会社,千葉県,野田市,みずき２丁目２０番地の１３３,,12,208,2780027,,,,,,,2025-08-18,1,,,,,トキカ,0
938,4040003028279,新規,0,2025-08-18,2025-08-18,斎藤工業合同会社,,合同会社,千葉県,富津市,篠部１４３９番地１,,12,226,2930024,,,,,,,2025-08-18,1,,,,,サイトウコウギョウ,0
941,4070001043269,新規,0,2025-08-18,2025-08-18,株式会社東商事,,株式会社,群馬県,伊勢崎市,田部井町３丁目１５１番地,,10,204,3792222,,,,,,,2025-08-18,1,,,,,,0
948,4100003008349,新規,0,2025-08-18,2025-08-18,ＰＷｏｒｋ合同会社,,合同会社,長野県,長野市,大字稲葉８３番地３ヴィラＮ・Ｓ１０３,,20,201,3800911,,,,,,,2025-08-18,1,,,,,ピーワーク,0
955,4120001278727,新規,0,2025-08-18,2025-08-18,Ｕ‐ＳＴＹＬＥ株式会社,,株式会社,大阪府,大阪市平野区,長吉六反３丁目５番３号３番倉庫,,27,126,5470012,,,,,,,2025-08-18,1,,,,,ユースタイル,0
956,4120001278751,新規,0,2025-08-18,2025-08-18,株式会社ＳＭＡＲＴ　ＥＤＧＥ,,株式会社,大阪府,大阪市住之江区,安立４丁目１１番８号,,27,125,5590003,,,,,,,2025-08-18,1,,,,,スマートエッジ,0
957,4120001278875,新規,0,2025-08-18,2025-08-18,株式会社太八,,株式会社,大阪府,枚方市,宮之阪３丁目２番１２号アート枚方宮之阪２０３号室,,27,210,5730022,,,,,,,2025-08-18,1,,,,,ダイヤ,0
958,4120003030301,新規,0,2025-08-18,2025-08-18,Ｅｉｇｈｔｏｏｐ合同会社,,合同会社,大阪府,寝屋川市,国松町２５番２－２号,,27,215,5720016,,,,,,,2025-08-18,1,,,,,エイトープ,0
959,4120003030326,新規,0,2025-08-18,2025-08-18,合同会社ＲＲＲ,,合同会社,大阪府,大阪市浪速区,敷津西２丁目３番１２号大国町レジデンス５０７,,27,111,5560015,,,,,,,2025-08-18,1,,,,,アルアルアル,0
964,4120103006647,新規,0,2025-08-18,2025-08-18,京都稲荷開発合同会社,,合同会社,大阪府,泉佐野市,日根野４０６６番地,,27,213,5980021,,,,,,,2025-08-18,1,,,,,キョウトイナリカイハツ,0
970,4120901051290,新規,0,2025-08-18,2025-08-18,株式会社杣屋長野,,株式会社,大阪府,高槻市,深沢町１丁目４番１号リヴェール深沢Ａ棟１０６号,,27,207,5690035,,,,,,,2025-08-18,1,,,,,ソマヤナガノ,0
971,4120901051324,新規,0,2025-08-18,2025-08-18,株式会社ＳＴＡＲＴ,,株式会社,大阪府,吹田市,片山町１丁目３番５号（６Ａ）,,27,205,5640082,,,,,,,2025-08-18,1,,,,,スタート,0
972,4120901051332,新規,0,2025-08-18,2025-08-18,幸樹株式会社,,株式会社,大阪府,摂津市,香露園３３番１０号第２三宅コーポ１階,,27,224,5660034,,,,,,,2025-08-18,1,,,,,コウジュ,0
973,4120901051340,新規,0,2025-08-18,2025-08-18,株式会社クロスワン,,株式会社,大阪府,茨木市,駅前１丁目２番１３－８０５号,,27,211,5670888,,,,,,,2025-08-18,1,,,,,クロスワン,0
975,4122001039571,新規,0,2025-08-18,2025-08-18,株式会社富屋重機,,株式会社,大阪府,東大阪市,下小阪４丁目７番１４号,,27,227,5770803,,,,,,,2025-08-18,1,,,,,トミヤジュウキ,0
979,4130003010673,新規,0,2025-08-18,2025-08-18,Ｄ＆Ｓ合同会社,,合同会社,京都府,京都市伏見区,深草善導寺町１３－４仙光ハイムＡ２０５,,26,109,6128433,,,,,,,2025-08-18,1,,,,,ディーアンドエス,0
984,4140001139670,新規,0,2025-08-18,2025-08-18,Ｗｅｌｌｔｒｅｎｄ株式会社,,株式会社,兵庫県,西宮市,甲子園口北町１６番１４号,,28,204,6638112,,,,,,,2025-08-18,1,,,,,ウェルトレンド,0
985,4140001139687,新規,0,2025-08-18,2025-08-18,株式会社ねがい,,株式会社,兵庫県,三木市,志染町東自由が丘２丁目２６７番地１階,,28,215,6730553,,,,,,,2025-08-18,1,,,,,ネガイ,0
988,4140003022429,新規,0,2025-08-18,2025-08-18,ＫＭＳ合同会社,,合同会社,兵庫県,神戸市中央区,浜辺通４丁目１番２３号三宮ベンチャービル２１１号室,,28,110,6510083,,,,,,,2025-08-18,1,,,,,ケイエムエス,0
989,4140003022437,新規,0,2025-08-18,2025-08-18,合同会社ＥｄｕＳｐａｒｋ４,,合同会社,兵庫県,神戸市北区,菖蒲が丘２丁目１番地の７,,28,109,6511306,,,,,,,2025-08-18,1,,,,,エデュスパークフォー,0
990,4140003022445,新規,0,2025-08-18,2025-08-18,合同会社ＰＲＯＰＲＥ．,,合同会社,兵庫県,川西市,鴬の森町１番６６号,,28,217,6660001,,,,,,,2025-08-18,1,,,,,プロプル,0
991,4140003022453,新規,0,2025-08-18,2025-08-18,Ｐｅａｒｌ＆Ｃｏ．合同会社,,合同会社,兵庫県,神戸市中央区,磯辺通４丁目１番２８－１４１７号,,28,110,6510084,,,,,,,2025-08-18,1,,,,,パールアンドコー,0
992,4140005027608,新規,0,2025-08-18,2025-08-18,一般社団法人神戸動物愛護センター,,その他の設立登記法人,兵庫県,神戸市中央区,北野町３丁目１番６号北野ヒルハウス２階,,28,110,6500002,,,,,,,2025-08-18,1,,,,,コウベドウブツアイゴセンター,0
994,4160001026990,新規,0,2025-08-18,2025-08-18,シンプルエクステリア株式会社,,株式会社,滋賀県,草津市,南山田町９６０番地９,,25,206,5250063,,,,,,,2025-08-18,1,,,,,シンプルエクステリア,0
995,4160001026999,新規,0,2025-08-18,2025-08-18,株式会社アイ・シー・オー,,株式会社,滋賀県,東近江市,小田苅町４１５番地,,25,213,5270125,,,,,,,2025-08-18,1,,,,,アイシーオー,0
1002,4180001168138,新規,0,2025-08-18,2025-08-18,株式会社ＹＭＢＫ,,株式会社,愛知県,あま市,七宝町伊福新家西１２３番地,,23,237,4970005,,,,,,,2025-08-18,1,,,,,ワイエムビーケー,0
1003,4180001168154,新規,0,2025-08-18,2025-08-18,フォルムラボ株式会社,,株式会社,愛知県,名古屋市名東区,極楽３丁目４９番地東進マンション１０１,,23,115,4650053,,,,,,,2025-08-18,1,,,,,フォルムラボ,0
1004,4180001168162,新規,0,2025-08-18,2025-08-18,森澤盈拓株式会社,,株式会社,愛知県,名古屋市東区,東桜２丁目３番７号,,23,102,4610005,,,,,,,2025-08-18,1,,,,,モリサワエイタク,0
1005,4180001168170,新規,0,2025-08-18,2025-08-18,グッドチャレンジ株式会社,,株式会社,愛知県,名古屋市西区,花の木３丁目１５番１１号アストラーレ浄心４Ｆ,,23,104,4510062,,,,,,,2025-08-18,1,,,,,グッドチャレンジ,0
1006,4180001168204,新規,0,2025-08-18,2025-08-18,株式会社Ｂｒｉｇｈｔ　Ｓｔｅｐ,,株式会社,愛知県,名古屋市南区,大同町４丁目１番地の５７,,23,112,4570811,,,,,,,2025-08-18,1,,,,,ブライトステップ,0
1010,4180003028827,新規,0,2025-08-18,2025-08-18,ロックス合同会社,,合同会社,愛知県,名古屋市中区,新栄１丁目２７番２５号（ファーストレジデンス栄５０２号）,,23,106,4600007,,,,,,,2025-08-18,1,,,,,ロックス,0
1011,4180003028868,新規,0,2025-08-18,2025-08-18,Ｋｕｎｉｔｅｘ合同会社,,合同会社,愛知県,稲沢市,祖父江町祖父江沼裏８０番地１,,23,220,4950001,,,,,,,2025-08-18,1,,,,,クニテックス,0
1030,4210001020278,新規,0,2025-08-18,2025-08-18,株式会社ＲＯＯＴ１,,株式会社,福井県,小浜市,雲浜１丁目５番２３号,,18,204,9170096,,,,,,,2025-08-18,1,,,,,ルートワン,0
1034,4250003003797,新規,0,2025-08-18,2025-08-18,３ｒｄ合同会社,,合同会社,山口県,山口市,下小鯖１０３９５番地３,,35,203,7530212,,,,,,,2025-08-18,1,,,,,サード,0
1035,4260001040429,新規,0,2025-08-18,2025-08-18,Ｌｉｋｅ　Ａｓｓｉｓｔ株式会社,,株式会社,岡山県,岡山市北区,上高田３３６５番地,,33,101,7011525,,,,,,,2025-08-18,1,,,,,ライクアシスト,0
1036,4260001040453,新規,0,2025-08-18,2025-08-18,株式会社ロータスコネクション,,株式会社,岡山県,岡山市南区,彦崎２８９６番地,,33,104,7091213,,,,,,,2025-08-18,1,,,,,ロータスコネクション,0
1046,4290001111020,新規,0,2025-08-18,2025-08-18,田尻株式会社,00140322,株式会社,福岡県,福岡市西区,生の松原４丁目１番２７号,,40,135,8190055,,,,,,,2025-08-18,1,,,,,タジリ,0
1049,4290003017216,新規,0,2025-08-18,2025-08-18,合同会社Ｕ．ｄ．ｗ,,合同会社,福岡県,福岡市東区,若宮１丁目１４－５,,40,131,8130036,,,,,,,2025-08-18,1,,,,,ユーディーダブリュ,0
1050,4290003017265,新規,0,2025-08-18,2025-08-18,合同会社プラウスリー,,合同会社,福岡県,福岡市中央区,天神４丁目６―２８いちご天神ノースビル７Ｆ,,40,133,8100001,,,,,,,2025-08-18,1,,,,,プラウスリー,0
1056,4310001019756,新規,0,2025-08-18,2025-08-18,ライフミライズ株式会社,,株式会社,長崎県,北松浦郡佐々町,本田原免４１番地１,,42,391,8570311,,,,,,,2025-08-18,1,,,,,ライフミライズ,0
1064,4340003004919,新規,0,2025-08-18,2025-08-18,南九州福祉サービス合同会社,,合同会社,鹿児島県,霧島市,国分川内１０１６番地,,46,218,8994314,,,,,,,2025-08-18,1,,,,,ミナミキュウシュウフクシサービス,0
1066,4350001019694,新規,0,2025-08-18,2025-08-18,株式会社ＫＴ’ｓ,,株式会社,宮崎県,都城市,庄内町１３１１３番地２０,,45,202,8850114,,,,,,,2025-08-18,1,,,,,ケイティーズ,0
1085,4420003003169,新規,0,2025-08-18,2025-08-18,合同会社ユーラス蒲野沢大森風力,,合同会社,青森県,下北郡東通村,大字岩屋字苦蕨平１番地４,,02,424,0350113,,,,,,,2025-08-18,1,,,,,ユーラスガマノサワオオモリフウリョク,0
1090,4430001094993,新規,0,2025-08-18,2025-08-18,株式会社星野工業,,株式会社,北海道,岩見沢市,五条東１７丁目１番地３コーポタツミＢ号室,,01,210,0680005,,,,,,,2025-08-18,1,,,,,ホシノコウギョウ,0
1091,4430001095001,新規,0,2025-08-18,2025-08-18,株式会社安江種苗,,株式会社,北海道,有珠郡壮瞥町,字南久保内１４番地,,01,575,0520116,,,,,,,2025-08-18,1,,,,,ヤスエシュビョウ,0
1092,4430001095018,新規,0,2025-08-18,2025-08-18,株式会社ＥＪＶＳ,,株式会社,北海道,恵庭市,中央４２３番地３０,,01,231,0611403,,,,,,,2025-08-18,1,,,,,イージェイブイエス,0
1098,4430003017977,新規,0,2025-08-18,2025-08-18,ＡｘｉｏｎＣｏｄｅ合同会社,,合同会社,北海道,石狩郡当別町,太美町１４７３番地１,,01,303,0613776,,,,,,,2025-08-18,1,,,,,アクシオンコード,0
1103,4700150131826,新規,0,2025-08-18,2025-08-18,ＳＨＡＤ　ＴＲＡＤＩＮＧ,,外国会社等,栃木県,足利市,今福町２９８－３　サンシティビルディング　０３番,,09,202,3260842,スリランカ民主社会主義共和国、ウェラッレガマ、クルンドゥゴッラ、６１番,,,,,,2025-08-18,1,,,,,シヤドトレーデイング,0
1110,5010001257757,新規,0,2025-08-18,2025-08-18,株式会社Ｂｅｌｌｅ　Ａｕｒａ,,株式会社,東京都,中央区,銀座１丁目１２番４号Ｎ＆ＥＢＬＤ．６Ｆ,,13,102,1040061,,,,,,,2025-08-18,1,,,,,ベルオーラ,0
1111,5010001257815,新規,0,2025-08-18,2025-08-18,株式会社ＴＭＧ,,株式会社,東京都,千代田区,内神田１丁目２番１５－１００５号,,13,101,1010047,,,,,,,2025-08-18,1,,,,,ティーエムジー,0
1115,5010003048279,新規,0,2025-08-18,2025-08-18,合同会社Ｌｙｎｃｅｕｓ,,合同会社,東京都,中央区,銀座１丁目１２－４Ｎ＆ＥＢＬＤ．７階,,13,102,1040061,,,,,,,2025-08-18,1,,,,,リンケウス,0
1116,5010003048444,新規,0,2025-08-18,2025-08-18,ＴＡＹＴ合同会社,,合同会社,東京都,中央区,銀座７丁目１５番８号タウンハイツ銀座４０６,,13,102,1040061,,,,,,,2025-08-18,1,,,,,ティーエーワイティー,0
1122,5010401192158,新規,0,2025-08-18,2025-08-18,株式会社和悦,,株式会社,東京都,港区,赤坂３丁目８－１７パンジャパンビル３階,,13,103,1070052,,,,,,,2025-08-18,1,,,,,ワエツ,0
1125,5010403035728,新規,0,2025-08-18,2025-08-18,Ｃｏｎｓｏｒｔｉｕｍ　Ｐｒｏｐｅｒｔｙ　Ｇｒｏｕｐ合同会社,,合同会社,東京都,港区,高輪１丁目４番３３号ユーロコート高輪１０７,,13,103,1080074,,,,,,,2025-08-18,1,,,,,コンソーシアムプロパティーグループ,0
1126,5010403035752,新規,0,2025-08-18,2025-08-18,阪神繁栄合同会社,,合同会社,東京都,港区,元赤坂１丁目１番７号,,13,103,1070051,,,,,,,2025-08-18,1,,,,,ハンシンハンエイ,0
1127,5010403035819,新規,0,2025-08-18,2025-08-18,合同会社ＹＵＭＥ,,合同会社,東京都,港区,南麻布１丁目４番３,,13,103,1060047,,,,,,,2025-08-18,1,,,,,ユメ,0
1128,5010601067762,新規,0,2025-08-18,2025-08-18,株式会社ティーブラザーズ,,株式会社,東京都,墨田区,緑２丁目１９番７号,,13,107,1300021,,,,,,,2025-08-18,1,,,,,ティーブラザーズ,0
1129,5010601067820,新規,0,2025-08-18,2025-08-18,株式会社三友,,株式会社,東京都,墨田区,千歳３丁目６番５号２０５室プロス森下,,13,107,1300025,,,,,,,2025-08-18,1,,,,,サンユウ,0
1132,5010603011743,新規,0,2025-08-18,2025-08-18,Ａｃｅ　Ｏｎ　Ｆｌｅｅｋ合同会社,,合同会社,東京都,江東区,佐賀２丁目８番６号－２２９,,13,108,1350031,,,,,,,2025-08-18,1,,,,,エースオンフリーク,0
1133,5010701048175,新規,0,2025-08-18,2025-08-18,アラサカ株式会社,,株式会社,東京都,品川区,戸越６丁目６番１２号ケントコート２０４,,13,109,1420041,,,,,,,2025-08-18,1,,,,,アラサカ,0
1142,5011001171337,新規,0,2025-08-18,2025-08-18,株式会社キメラ倶楽部,,株式会社,東京都,渋谷区,神南１丁目１４番７号ワイズ神南ビル２Ｆ,,13,113,1500041,,,,,,,2025-08-18,1,,,,,キメラクラブ,0
1143,5011003022348,新規,0,2025-08-18,2025-08-18,Ｃｒａｆｔｏｒｙ合同会社,,合同会社,東京都,渋谷区,恵比寿西２丁目８番４号ＥＸ恵比寿西ビル５階,,13,113,1500021,,,,,,,2025-08-18,1,,,,,クラフトリー,0
1147,5011101112645,新規,0,2025-08-18,2025-08-18,ＳＡＷＤＯＬＬＪＡＰＡＮ株式会社,,株式会社,東京都,新宿区,西新宿３丁目３番１３号西新宿水間ビル６階,,13,104,1600023,,,,,,,2025-08-18,1,,,,,スドールジャパン,0
1151,5011301030812,新規,0,2025-08-18,2025-08-18,株式会社ととあーと,,株式会社,東京都,杉並区,西荻南１丁目１－３ブランミュール西荻窪ＥＡＳＴ１０４,,13,115,1670053,,,,,,,2025-08-18,1,,,,,,0
1160,5012305002145,新規,0,2025-08-18,2025-08-18,一般社団法人町田つるかわ成年後見センター,,その他の設立登記法人,東京都,町田市,能ヶ谷１丁目５番６号太刀川ビル３階,,13,209,1950053,,,,,,,2025-08-18,1,,,,,マチダツルカワセイネンコウケンセンター,0
1162,5012703003348,新規,0,2025-08-18,2025-08-18,ＮｅｗＡｃｅ合同会社,,合同会社,東京都,小平市,鈴木町１丁目２４０番地の７,,13,211,1870011,,,,,,,2025-08-18,1,,,,,ニューエース,0
1173,5020001164267,新規,0,2025-08-18,2025-08-18,株式会社結,,株式会社,神奈川県,川崎市麻生区,細山４丁目９番１号,,14,137,2150001,,,,,,,2025-08-18,1,,,,,ユイ,0
1174,5020001164408,新規,0,2025-08-18,2025-08-18,株式会社ＲＫＣエナジー企画,,株式会社,神奈川県,川崎市宮前区,有馬１丁目１３番１７号,,14,136,2160003,,,,,,,2025-08-18,1,,,,,アールケーシーエナジーキカク,0
1176,5020003029170,新規,0,2025-08-18,2025-08-18,Ｏｉｓｈｉ　Ｃａｐｉｔａｌ合同会社,,合同会社,神奈川県,川崎市幸区,小倉２丁目９―２２―１,,14,132,2120054,,,,,,,2025-08-18,1,,,,,オオイシキャピタル,0
1180,5021001086039,新規,0,2025-08-18,2025-08-18,株式会社プリズムスタジオ,,株式会社,神奈川県,相模原市中央区,小山２丁目４番５号ベルググランデ相模原シティデュオウエストレジデンス６０５号室,,14,152,2520205,,,,,,,2025-08-18,1,,,,,プリズムスタジオ,0
1181,5021001086096,新規,0,2025-08-18,2025-08-18,株式会社豊藏,,株式会社,神奈川県,平塚市,日向岡１丁目１９番２３号,,14,203,2540905,,,,,,,2025-08-18,1,,,,,トヨクラ,0
1182,5021001086105,新規,0,2025-08-18,2025-08-18,株式会社長田工業,,株式会社,神奈川県,厚木市,妻田西１丁目１８番１５号,,14,212,2430815,,,,,,,2025-08-18,1,,,,,オサダコウギョウ,0
1183,5021001086113,新規,0,2025-08-18,2025-08-18,株式会社Ｍｅｐａｔｈ,,株式会社,神奈川県,藤沢市,羽鳥５丁目６番２４号,,14,205,2510056,,,,,,,2025-08-18,1,,,,,ミーパス,0
1184,5021003016407,新規,0,2025-08-18,2025-08-18,合同会社神崎,00140317,合同会社,神奈川県,藤沢市,用田３８２番地,,14,205,2520821,,,,,,,2025-08-18,1,,,,,カンザキ,0
1188,5030001168077,新規,0,2025-08-18,2025-08-18,潤和株式会社,,株式会社,埼玉県,さいたま市大宮区,三橋２丁目５３９番地３,,11,103,3300856,,,,,,,2025-08-18,1,,,,,ジュンワ,0
1189,5030001168135,新規,0,2025-08-18,2025-08-18,永栄グローバル株式会社,,株式会社,埼玉県,吉川市,大字土場１２０番地３,,11,243,3420026,,,,,,,2025-08-18,1,,,,,ナガエグローバル,0
1205,5040001140051,新規,0,2025-08-18,2025-08-18,株式会社栄進興業,,株式会社,千葉県,船橋市,馬込西３丁目１３番１４号,,12,204,2730855,,,,,,,2025-08-18,1,,,,,エイシンコウギョウ,0
1206,5040001140068,新規,0,2025-08-18,2025-08-18,株式会社ゼクセロングループ,,株式会社,千葉県,松戸市,殿平賀１９５番地,,12,207,2700004,,,,,,,2025-08-18,1,,,,,ゼクセロングループ,0
1207,5040001140183,新規,0,2025-08-18,2025-08-18,株式会社スカイコネクトＴＫＯ,,株式会社,千葉県,香取郡多古町,飯笹１０９３番地３５９,,12,347,2892231,,,,,,,2025-08-18,1,,,,,スカイコネクトティーケーオー,0
1208,5040003028237,新規,0,2025-08-18,2025-08-18,合同会社Ｓａｎｄｂｏｘ,,合同会社,千葉県,松戸市,稔台１丁目３２－１１,,12,207,2702231,,,,,,,2025-08-18,1,,,,,サンドボックス,0
1209,5040003028261,新規,0,2025-08-18,2025-08-18,合同会社三矢一号,,合同会社,千葉県,千葉市中央区,院内１丁目１８番１３号三矢四番館３階,,12,101,2600018,,,,,,,2025-08-18,1,,,,,ミツヤイチゴウ,0
1210,5040003028311,新規,0,2025-08-18,2025-08-18,照応知研究合同会社,,合同会社,千葉県,市原市,ちはら台東２丁目２０番地１（１－５０６号）,,12,219,2900141,,,,,,,2025-08-18,1,,,,,ショウオウチケンキュウ,0
1211,5050001057071,新規,0,2025-08-18,2025-08-18,株式会社Ａｎｃｈｏｒｉｓｅ,,株式会社,茨城県,つくば市,吾妻１丁目５番地７ダイワロイネットつくばビル２Ｆ,,08,220,3050031,,,,,,,2025-08-18,1,,,,,アンカライズ,0
1216,5080003003525,新規,0,2025-08-18,2025-08-18,ＨＰＵＰ合同会社,,合同会社,静岡県,静岡市葵区,紺屋町１７番地の１葵タワー１Ｆ,,22,101,4200852,,,,,,,2025-08-18,1,,,,,エイチピーアップ,0
1224,5100003008348,新規,0,2025-08-18,2025-08-18,合同会社Ｖｅｒｂａｌ,,合同会社,長野県,長野市,大字高田７９６－７－２０１,,20,201,3810034,,,,,,,2025-08-18,1,,,,,ヴァーバル,0
1239,5120001278791,新規,0,2025-08-18,2025-08-18,株式会社Ｄｉｒｅｃｔ,,株式会社,大阪府,大阪市北区,曾根崎２丁目８番地５お初天神ＥＡＳＴＢＬＤＧ３Ｆ,,27,127,5300057,,,,,,,2025-08-18,1,,,,,ダイレクト,0
1240,5120001278825,新規,0,2025-08-18,2025-08-18,株式会社ＴＡＨＫＡ,,株式会社,大阪府,大阪市東淀川区,菅原２丁目１１番２２号,,27,114,5330022,,,,,,,2025-08-18,1,,,,,ターカ,0
1241,5120001278858,新規,0,2025-08-18,2025-08-18,株式会社ストレスフリー,,株式会社,大阪府,大阪市中央区,本町橋二丁目１番７号,,27,128,5400029,,,,,,,2025-08-18,1,,,,,ストレスフリー,0
1245,5120005025109,新規,0,2025-08-18,2025-08-18,ＪＢＡ西日本税理士法人,,その他の設立登記法人,大阪府,大阪市中央区,南本町２丁目３番１２号ＥＤＧＥ本町４Ｆ,,27,128,5410054,,,,,,,2025-08-18,1,,,,,ジェービーエーニシニホン,0
1246,5120101072293,新規,0,2025-08-18,2025-08-18,株式会社ＫＡＫＥＲＵ,,株式会社,大阪府,堺市東区,日置荘西町５丁３０番１－２号,,27,143,5998114,,,,,,,2025-08-18,1,,,,,カケル,0
1248,5120103006646,新規,0,2025-08-18,2025-08-18,Ｅａｔｏｋ合同会社,,合同会社,大阪府,松原市,小川５丁目１１番１９号,,27,217,5800002,,,,,,,2025-08-18,1,,,,,イートク,0
1253,5120901051331,新規,0,2025-08-18,2025-08-18,株式会社ｈｏｋｕ,,株式会社,大阪府,豊中市,大島町２丁目１６番５号,,27,203,5610824,,,,,,,2025-08-18,1,,,,,ホク,0
1254,5120901051348,新規,0,2025-08-18,2025-08-18,ＭＴＯＩ株式会社,,株式会社,大阪府,高槻市,南平台４丁目２７番１号,,27,207,5691042,,,,,,,2025-08-18,1,,,,,エムティーオーアイ,0
1255,5120903005797,新規,0,2025-08-18,2025-08-18,宮本資産管理合同会社,,合同会社,大阪府,豊中市,岡町北２丁目１８番３９号,,27,203,5610884,,,,,,,2025-08-18,1,,,,,ミヤモトシサンカンリ,0
1256,5122003003293,新規,0,2025-08-18,2025-08-18,ＴＷ企画合同会社,,合同会社,大阪府,東大阪市,長堂２丁目１番１１号,,27,227,5770056,,,,,,,2025-08-18,1,,,,,ティダブリュキカク,0
1266,5140001139546,新規,0,2025-08-18,2025-08-18,株式会社夢工芸,,株式会社,兵庫県,明石市,沢野２丁目７番３号,,28,203,6730008,,,,,,,2025-08-18,1,,,,,ユメコウゲイ,0
1267,5140001139653,新規,0,2025-08-18,2025-08-18,株式会社ＭＥ・ＭＥ,,株式会社,兵庫県,神戸市中央区,中山手通１丁目８番１６号ＢＡＳＩＣ北野坂ビル二階,,28,110,6500004,,,,,,,2025-08-18,1,,,,,メメ,0
1268,5140001139661,新規,0,2025-08-18,2025-08-18,株式会社ケイ・エステート,,株式会社,兵庫県,宝塚市,山手台東１丁目９番１号,,28,214,6650887,,,,,,,2025-08-18,1,,,,,,0
1272,5140003022452,新規,0,2025-08-18,2025-08-18,合同会社ＴＨＣアセットマネジメント,,合同会社,兵庫県,たつの市,龍野町富永３０９番地１,,28,229,6794167,,,,,,,2025-08-18,1,,,,,ティーエイチシーアセットマネジメント,0
1273,5140005027607,新規,0,2025-08-18,2025-08-18,一般社団法人にっぽん・酒文化の会,,その他の設立登記法人,兵庫県,西宮市,用海町４番５７号,,28,204,6620921,,,,,,,2025-08-18,1,,,,,ニッポンサケブンカノカイ,0
1275,5160003003566,新規,0,2025-08-18,2025-08-18,ＭＹＷＥＬＬ合同会社,,合同会社,滋賀県,大津市,雄琴２丁目１１番２号,,25,201,5200101,,,,,,,2025-08-18,1,,,,,マイウェル,0
1289,5180001168137,新規,0,2025-08-18,2025-08-18,株式会社ＮＹＰＣ,,株式会社,愛知県,名古屋市中区,栄１丁目６番１５号（３３０６号）,,23,106,4600008,,,,,,,2025-08-18,1,,,,,エヌワイピーシー,0
1290,5180001168153,新規,0,2025-08-18,2025-08-18,エボルテックエンジニアリング株式会社,,株式会社,愛知県,名古屋市中村区,名駅２丁目４１番１０号,,23,105,4500002,,,,,,,2025-08-18,1,,,,,エボルテックエンジニアリング,0
1291,5180001168161,新規,0,2025-08-18,2025-08-18,輝和株式会社,,株式会社,愛知県,名古屋市緑区,亀が洞１丁目５０９番地,,23,114,4580804,,,,,,,2025-08-18,1,,,,,キワ,0
1292,5180001168228,新規,0,2025-08-18,2025-08-18,株式会社ＭＩＲＡＬ,,株式会社,愛知県,名古屋市中村区,名駅３丁目１５番１１号Ｍ三ダイニングビル５０１,,23,105,4500002,,,,,,,2025-08-18,1,,,,,ミラル,0
1300,5180005021176,新規,0,2025-08-18,2025-08-18,一般社団法人日中ＡＩエネルギー共創会議,,その他の設立登記法人,愛知県,稲沢市,六角堂東町５丁目１番地５,,23,220,4928172,,,,,,,2025-08-18,1,,,,,ニッチュウエイアイエネルギーキョウソウカイギ,0
1303,5180303006696,新規,0,2025-08-18,2025-08-18,合同会社ＰＯＮＤ,,合同会社,愛知県,安城市,三河安城南町１丁目１５番地８号サンテラス三河安城ビル６Ｆ,,23,212,4460058,,,,,,,2025-08-18,1,,,,,ポンド,0
1310,5210001020285,新規,0,2025-08-18,2025-08-18,株式会社クレオ,,株式会社,福井県,福井市,菅谷２丁目７番１０号,,18,201,9100034,,,,,,,2025-08-18,1,,,,,クレオ,0
1321,5240001065385,新規,0,2025-08-18,2025-08-18,株式会社リンテック,,株式会社,広島県,広島市西区,己斐上２丁目２９番７号,,34,104,7330815,,,,,,,2025-08-18,1,,,,,リンテック,0
1325,5240003007352,新規,0,2025-08-18,2025-08-18,合同会社晴香会,,合同会社,広島県,福山市,藤江町３７８６,,34,207,7200543,,,,,,,2025-08-18,1,,,,,セイカカイ,0
1326,5240003007369,新規,0,2025-08-18,2025-08-18,合同会社マリン,,合同会社,広島県,福山市,三之丸町８番７－１１０７号,,34,207,7200066,,,,,,,2025-08-18,1,,,,,マリン,0
1330,5260001040444,新規,0,2025-08-18,2025-08-18,株式会社磯山ＦＰ事務所,,株式会社,岡山県,岡山市北区,駅前町１丁目８番１号新光ビル岡山５Ｆ,,33,101,7000023,,,,,,,2025-08-18,1,,,,,イソヤマエフピージムショ,0
1331,5260001040452,新規,0,2025-08-18,2025-08-18,ＦＯＨ株式会社,,株式会社,岡山県,倉敷市,連島１丁目７－１６,,33,202,7128012,,,,,,,2025-08-18,1,,,,,エフオーエイチ,0
1333,5260003005305,新規,0,2025-08-18,2025-08-18,せとうちファシリティーサービス合同会社,,合同会社,岡山県,瀬戸内市,長船町服部１４３０番地７,,33,212,7014276,,,,,,,2025-08-18,1,,,,,セトウチファシリティーサービス,0
1342,5290001111028,新規,0,2025-08-18,2025-08-18,株式会社森のこもれび・猫の寝床,,株式会社,福岡県,朝倉市,千手１１１９番地１,,40,228,8380017,,,,,,,2025-08-18,1,,,,,モリノコモレビネコノネドコ,0
1343,5290001111044,新規,0,2025-08-18,2025-08-18,アグリロジ株式会社,,株式会社,福岡県,大牟田市,不知火町１丁目無番地駅構内,,40,202,8360843,,,,,,,2025-08-18,1,,,,,アグリロジ,0
1344,5290001111052,新規,0,2025-08-18,2025-08-18,株式会社グラン,,株式会社,福岡県,福岡市東区,千早２丁目１９番２３号,,40,131,8130044,,,,,,,2025-08-18,1,,,,,グラン,0
1345,5290001111060,新規,0,2025-08-18,2025-08-18,株式会社ＡＧＧ　ＣＯＭＰＡＮＹ,,株式会社,福岡県,飯塚市,新飯塚１５番１３号,,40,205,8200005,,,,,,,2025-08-18,1,,,,,エージージーカンパニー,0
1346,5290001111143,新規,0,2025-08-18,2025-08-18,Ｂｒａｎｄ　Ｈａｔｃｈ株式会社,,株式会社,福岡県,福岡市博多区,博多駅前１丁目１５－２０ＮＭＦ博多駅前ビル２階,,40,132,8120011,,,,,,,2025-08-18,1,,,,,ブランドハッチ,0
1347,5290001111176,新規,0,2025-08-18,2025-08-18,株式会社オーケーインテリア,,株式会社,福岡県,久留米市,本町１８０番地８,,40,203,8300044,,,,,,,2025-08-18,1,,,,,オーケーインテリア,0
1351,5290003017223,新規,0,2025-08-18,2025-08-18,合同会社ＬＣＳ,,合同会社,福岡県,宗像市,自由ヶ丘１０９０番地６５,,40,220,8114163,,,,,,,2025-08-18,1,,,,,エルシーエス,0
1352,5290003017231,新規,0,2025-08-18,2025-08-18,合同会社レバレッジ,,合同会社,福岡県,福岡市博多区,博多駅前１丁目２３番２号ＰａｒｋＦｒｏｎｔ博多駅前１丁目５Ｆ－Ｂ,,40,132,8120011,,,,,,,2025-08-18,1,,,,,レバレッジ,0
1358,5310001019755,新規,0,2025-08-18,2025-08-18,株式会社オーシャンパトロール,,株式会社,長崎県,対馬市,豊玉町仁位４２１番地,,42,209,8171201,,,,,,,2025-08-18,1,,,,,オーシャンパトロール,0
1365,5340005009898,新規,0,2025-08-18,2025-08-18,一般社団法人ＬｏｃａｌＣｏｏｐ龍郷,,その他の設立登記法人,鹿児島県,大島郡龍郷町,浦１１０番地,,46,527,8940104,,,,,,,2025-08-18,1,,,,,ローカルコープタツゴウ,0
1366,5350001019693,新規,0,2025-08-18,2025-08-18,株式会社ルンブルクス研究所,,株式会社,宮崎県,宮崎市,橘通東４丁目１番４号河北ビル１Ｆ,,45,201,8800805,,,,,,,2025-08-18,1,,,,,ルンブルクスケンキュウジョ,0
1367,5350001019702,新規,0,2025-08-18,2025-08-18,株式会社プロペラ工務店,,株式会社,宮崎県,西諸県郡高原町,大字広原５４１４番地３５７,,45,361,8894411,,,,,,,2025-08-18,1,,,,,プロペラコウムテン,0
1368,5350003005007,新規,0,2025-08-18,2025-08-18,合同会社とぉーく,,合同会社,宮崎県,延岡市,惣領町１２番１号,,45,203,8820857,,,,,,,2025-08-18,1,,,,,トォーク,0
1371,5360001035657,新規,0,2025-08-18,2025-08-18,株式会社サウスヒル,,株式会社,沖縄県,中頭郡中城村,字南上原６７０番地１,,47,328,9012424,,,,,,,2025-08-18,1,,,,,サウスヒル,0
1378,5400001017147,新規,0,2025-08-18,2025-08-18,盛岡ニッタンホールディングス株式会社,,株式会社,岩手県,盛岡市,中屋敷町３番２７号,,03,201,0200141,,,,,,,2025-08-18,1,,,,,モリオカニッタンホールディングス,0
1379,5400005008506,新規,0,2025-08-18,2025-08-18,一般社団法人しののめ,,その他の設立登記法人,岩手県,北上市,川岸１丁目１７番２号,,03,206,0240032,,,,,,,2025-08-18,1,,,,,シノノメ,0
1391,5430003018017,新規,0,2025-08-18,2025-08-18,合同会社ＪＡＰＡＮＥＸＵＳ,,合同会社,北海道,札幌市中央区,南一条西５丁目８愛生舘ビル３Ｆ３０４,,01,101,0600061,,,,,,,2025-08-18,1,,,,,ジャパネクサス,0
1392,5450005004459,新規,0,2025-08-18,2025-08-18,一般社団法人チカラペ舎,,その他の設立登記法人,北海道,旭川市,北門町２１丁目２１７２番地の１７,,01,204,0700825,,,,,,,2025-08-18,1,,,,,チカラペシャ,0
1394,5470003002958,新規,0,2025-08-18,2025-08-18,ＶＳＩ　Ｔｅｃｈｎｏｌｏｇｉｅｓ合同会社,,合同会社,香川県,高松市,中野町２９番５号高松プラザビル３階,,37,201,7600008,,,,,,,2025-08-18,1,,,,,ブイエスアイテクノロジーズ,0
1396,5700150131825,新規,0,2025-08-18,2025-08-18,ＹｕｅＹｉｎｇＸｉｎＪｉＳｈｕＳｈｅｎＺｈｅｎＹｏｕＸｉａｎＧｏｎｇＳｉ,,外国会社等,,,,,,,,ｓｈｅｎｚｈｅｎｓｈｉ　ｌｏｎｇｇａｎｇｑｕ　ｎａｎｗａｎｊｉｅｄａｏ　ｎａｎｌｉｎｇｃｕｎｓｈｅｑｕ　ｌｉｎｇｂｅｉｌｕ３ｈａｏ　ｙｉｎｇｊｕｎｎｉａｎｈｕａ　４ｄｏｎｇ２２Ａ　５１８０００　ＣＮ,,,,,,2025-08-18,1,,,,,ユエインシンジスシンセンヨウシエンゴンスー,0
1407,6010001257748,新規,0,2025-08-18,2025-08-18,株式会社Ｊコーポレーション,,株式会社,東京都,中央区,勝どき２丁目８番１２号,,13,102,1040054,,,,,,,2025-08-18,1,,,,,ジェイコーポレーション,0
1410,6010003048377,新規,0,2025-08-18,2025-08-18,ブルーアウル合同会社,,合同会社,東京都,中央区,日本橋人形町２丁目２６番８－１４０３号,,13,102,1030013,,,,,,,2025-08-18,1,,,,,ブルーアウル,0
1411,6010003048443,新規,0,2025-08-18,2025-08-18,合同会社ネクサスツー,,合同会社,東京都,千代田区,神田神保町１丁目１１番地さくら綜合事務所内,,13,101,1010051,,,,,,,2025-08-18,1,,,,,ネクサスツー,0
1416,6010005040539,新規,0,2025-08-18,2025-08-18,一般社団法人ＬＳＴ,,その他の設立登記法人,東京都,中央区,日本橋１丁目４番１号日本橋一丁目ビルディング,,13,102,1030027,,,,,,,2025-08-18,1,,,,,エルエスティー,0
1422,6010403035693,新規,0,2025-08-18,2025-08-18,パールプライムエステート合同会社,,合同会社,東京都,港区,元麻布３丁目７番２３－３０２号,,13,103,1060046,,,,,,,2025-08-18,1,,,,,パールプライムエステート,0
1423,6010403035751,新規,0,2025-08-18,2025-08-18,神戸ＬＥＯＮ合同会社,,合同会社,東京都,港区,元赤坂１丁目１番７号,,13,103,1070051,,,,,,,2025-08-18,1,,,,,コウベレオン,0
1424,6010403035768,新規,0,2025-08-18,2025-08-18,Ａｒｃｈｉｐｏｒｔ合同会社,,合同会社,東京都,港区,北青山１丁目３番１号アールキューブ青山３階,,13,103,1070061,,,,,,,2025-08-18,1,,,,,アーキポート,0
1426,6010601067811,新規,0,2025-08-18,2025-08-18,知元科技株式会社,,株式会社,東京都,墨田区,文花１丁目３４番１１－２０７号,,13,107,1310044,,,,,,,2025-08-18,1,,,,,チゲンカギ,0
1428,6010605004488,新規,0,2025-08-18,2025-08-18,一般社団法人中日建築交流協会,,その他の設立登記法人,東京都,江東区,亀戸５丁目３８番４,,13,108,1360071,,,,,,,2025-08-18,1,,,,,チュウニチケンチクコウリュウキョウカイ,0
1433,6010801036491,新規,0,2025-08-18,2025-08-18,株式会社オモイカネ,,株式会社,東京都,大田区,山王２丁目５－６,,13,111,1430023,,,,,,,2025-08-18,1,,,,,オモイカネ,0
1435,6010805003199,新規,0,2025-08-18,2025-08-18,一般社団法人日本テーブルバレーボール協会,,その他の設立登記法人,東京都,大田区,大森北１丁目３番７号,,13,111,1430016,,,,,,,2025-08-18,1,,,,,ニホンテーブルバレーボールキョウカイ,0
1436,6010901057933,新規,0,2025-08-18,2025-08-18,株式会社イエローブルー,,株式会社,東京都,世田谷区,太子堂４丁目１８番１５号マガザン三軒茶屋２－３Ｆ－３,,13,112,1540004,,,,,,,2025-08-18,1,,,,,イエローブルー,0
1445,6011001171781,新規,0,2025-08-18,2025-08-18,ＢＰａａＳ株式会社,,株式会社,東京都,渋谷区,道玄坂１丁目１６番６号二葉ビル７階Ｂ号室,,13,113,1500043,,,,,,,2025-08-18,1,,,,,ビーパース,0
1446,6011003022165,新規,0,2025-08-18,2025-08-18,合同会社ＦＩＮＫ,,合同会社,東京都,渋谷区,円山町１１－４トーシンコーポ円山１０３,,13,113,1500044,,,,,,,2025-08-18,1,,,,,フィンク,0
1449,6011101112743,新規,0,2025-08-18,2025-08-18,株式会社エスイーパワー,,株式会社,東京都,新宿区,西新宿６丁目５番１号,,13,104,1600023,,,,,,,2025-08-18,1,,,,,エスイーパワー,0
1451,6011301030811,新規,0,2025-08-18,2025-08-18,株式会社ＫＡＲＩＮ,,株式会社,東京都,杉並区,荻窪２丁目４２番３１号,,13,115,1670051,,,,,,,2025-08-18,1,,,,,,0
1454,6011401027336,新規,0,2025-08-18,2025-08-18,順平テック株式会社,,株式会社,東京都,板橋区,氷川町２２番１７号フラワー氷川１０１,,13,119,1730013,,,,,,,2025-08-18,1,,,,,ジュンペイテック,0
1456,6011601028893,新規,0,2025-08-18,2025-08-18,株式会社ピーマン,,株式会社,東京都,練馬区,大泉町６丁目３番１４号Ｂ３０２,,13,120,1780062,,,,,,,2025-08-18,1,,,,,ピーマン,0
1457,6011601028902,新規,0,2025-08-18,2025-08-18,株式会社Ｃ‐ＬＡＮＤ,,株式会社,東京都,練馬区,石神井台４丁目１番４－７０４号,,13,120,1770045,,,,,,,2025-08-18,1,,,,,シーランド,0
1460,6011701028629,新規,0,2025-08-18,2025-08-18,株式会社Ａ．Ｓ．Ｃ,,株式会社,東京都,江戸川区,東小松川２丁目２６番９－５０１号ＮＩＣＥＵＲＢＡＮ船堀,,13,123,1320033,,,,,,,2025-08-18,1,,,,,エーエスシー,0
1461,6012301014498,新規,0,2025-08-18,2025-08-18,株式会社アルタイル,,株式会社,東京都,町田市,原町田２丁目４番３号,,13,209,1940013,,,,,,,2025-08-18,1,,,,,アルタイル,0
1462,6012303002204,新規,0,2025-08-18,2025-08-18,合同会社Ｂ．Ｂ,,合同会社,東京都,町田市,原町田１丁目９番１２号ＡＩＫＡＷＡマンションＩＩ１０２,00140329,13,209,1940013,,,,,,,2025-08-18,1,,,,,ビービー,0
1465,6013301054749,新規,0,2025-08-18,2025-08-18,株式会社アニフェスタ,,株式会社,東京都,豊島区,東池袋１丁目３４番５号いちご東池袋ビル６階,,13,116,1700013,,,,,,,2025-08-18,1,,,,,アニフェスタ,0
1467,6020001164241,新規,0,2025-08-18,2025-08-18,東和輝工業株式会社,,株式会社,神奈川県,横浜市西区,中央１丁目８番３号,,14,103,2200051,,,,,,,2025-08-18,1,,,,,トウワキコウギョウ,0
1470,6020003029095,新規,0,2025-08-18,2025-08-18,リブラ商事合同会社,,合同会社,神奈川県,横浜市青葉区,あざみ野３丁目３３－１５４,,14,117,2250011,,,,,,,2025-08-18,1,,,,,,0
1471,6020003029178,新規,0,2025-08-18,2025-08-18,合同会社リファブ・テック,,合同会社,神奈川県,横浜市南区,平楽１１６番地１０,,14,105,2320035,,,,,,,2025-08-18,1,,,,,リファブテック,0
1473,6021001086120,新規,0,2025-08-18,2025-08-18,株式会社ルミエールドハプラス,,株式会社,神奈川県,藤沢市,羽鳥２丁目４番７号,,14,205,2510056,,,,,,,2025-08-18,1,,,,,ルミエールドハプラス,0
1474,6021001086129,新規,0,2025-08-18,2025-08-18,株式会社都工,,株式会社,神奈川県,藤沢市,藤沢１丁目６番８－３０３号,,14,205,2510052,,,,,,,2025-08-18,1,,,,,ミヤコウ,0
1478,6021005013418,新規,0,2025-08-18,2025-08-18,一般社団法人ＫｏＫｅＢｅｅ,,その他の設立登記法人,神奈川県,横須賀市,上町４丁目１２アップタウン１０１,,14,201,2380017,,,,,,,2025-08-18,1,,,,,コケビー,0
1480,6030001168217,新規,0,2025-08-18,2025-08-18,株式会社いろは,,株式会社,埼玉県,上尾市,柏座１丁目１０番３－８４号Ｃ号室,,11,219,3620075,,,,,,,2025-08-18,1,,,,,イロハ,0
1484,6030003027437,新規,0,2025-08-18,2025-08-18,合同会社シノバスコーポレーション,,合同会社,埼玉県,川越市,中原町２丁目１９ー１ー８０７,,11,201,3500042,,,,,,,2025-08-18,1,,,,,シノバスコーポレーション,0
1493,6040001140067,新規,0,2025-08-18,2025-08-18,株式会社誠和クリーン,,株式会社,千葉県,成田市,郷部１３４４番地ガーデンオフィスＥ－２,,12,211,2860014,,,,,,,2025-08-18,1,,,,,セイワクリーン,0
1501,6040003028277,新規,0,2025-08-18,2025-08-18,谷津不動産管理合同会社,,合同会社,千葉県,習志野市,谷津７丁目１２番５０号,,12,216,2750026,,,,,,,2025-08-18,1,,,,,ヤツフドウサンカンリ,0
1502,6040003028285,新規,0,2025-08-18,2025-08-18,合同会社Ｂｅｅ,,合同会社,千葉県,旭市,東足洗１３９０番地２,,12,215,2892512,,,,,,,2025-08-18,1,,,,,ビー,0
1506,6040005022848,新規,0,2025-08-18,2025-08-18,一般社団法人ナチュラル・ラタン・クラフト協会,,その他の設立登記法人,千葉県,千葉市美浜区,磯辺２丁目１６番３号,,12,106,2610012,,,,,,,2025-08-18,1,,,,,ナチュラルラタンクラフト,0
1513,6060001038516,新規,0,2025-08-18,2025-08-18,株式会社シトラス,,株式会社,栃木県,那須塩原市,上厚崎３５８番地１０,,09,213,3250026,,,,,,,2025-08-18,1,,,,,シトラス,0
1517,6080003003524,新規,0,2025-08-18,2025-08-18,合同会社ＵＭコーポレーション,,合同会社,静岡県,静岡市葵区,奈良間１８８‐１,,22,101,4211312,,,,,,,2025-08-18,1,,,,,ユーエムコーポレーション,0
1524,6100003008347,新規,0,2025-08-18,2025-08-18,合同会社あまおと,,合同会社,長野県,長野市,吉田１丁目２６番２２－１０６号サンシティハイツ,,20,201,3810043,,,,,,,2025-08-18,1,,,,,アマオト,0
1539,6120001278527,新規,0,2025-08-18,2025-08-18,株式会社ｓｏａｒ,,株式会社,大阪府,枚方市,茄子作東町１９番５号２Ｆ－Ｇ,,27,210,5730082,,,,,,,2025-08-18,1,,,,,ソアラ,0
1540,6120001278774,新規,0,2025-08-18,2025-08-18,株式会社フロンティアワークス,,株式会社,大阪府,大阪市生野区,巽中３丁目５番２－３０２号,00140330,27,116,5440013,,,,,,,2025-08-18,1,,,,,フロンティアワークス,0
1541,6120001278790,新規,0,2025-08-18,2025-08-18,株式会社ユアプレイス,,株式会社,大阪府,大阪市東淀川区,西淡路１丁目１１番１０号,,27,114,5330031,,,,,,,2025-08-18,1,,,,,ユアプレイス,0
1542,6120001278799,新規,0,2025-08-18,2025-08-18,株式会社大道,,株式会社,大阪府,大阪市阿倍野区,阪南町３丁目４２番１０号,,27,119,5450021,,,,,,,2025-08-18,1,,,,,ダイドウ,0
1543,6120001278824,新規,0,2025-08-18,2025-08-18,ＵＲＵ株式会社,,株式会社,大阪府,大阪市北区,中津３丁目２５番９号スタートビル３階,,27,127,5310071,,,,,,,2025-08-18,1,,,,,ウル,0
1544,6120001278840,新規,0,2025-08-18,2025-08-18,株式会社日本雨漏調査隊,,株式会社,大阪府,大阪市旭区,清水２丁目１０番１３号,,27,117,5350021,,,,,,,2025-08-18,1,,,,,ニホンアマモリチョウサタイ,0
1545,6120001278857,新規,0,2025-08-18,2025-08-18,商売繁盛クラブ株式会社,,株式会社,大阪府,大阪市北区,梅田１丁目２番２号大阪駅前第２ビル１２－１２,,27,127,5300001,,,,,,,2025-08-18,1,,,,,ショウバイハンジョウクラブ,0
1546,6120001278873,新規,0,2025-08-18,2025-08-18,株式会社ウイロー,,株式会社,大阪府,大阪市中央区,心斎橋筋１丁目５番３号,,27,128,5420085,,,,,,,2025-08-18,1,,,,,ウイロー,0
1547,6120001278923,新規,0,2025-08-18,2025-08-18,株式会社パナエアイ,,株式会社,大阪府,大阪市港区,港晴１丁目１番２７号,,27,107,5520023,,,,,,,2025-08-18,1,,,,,パナエアイ,0
1552,6120003030290,新規,0,2025-08-18,2025-08-18,合同会社ＭＫ,,合同会社,大阪府,大阪市中央区,天満橋京町１番２４号２階,,27,128,5400032,,,,,,,2025-08-18,1,,,,,エムケイ,0
1553,6120003030299,新規,0,2025-08-18,2025-08-18,合同会社ＳＴＵＤＩＯ　ＴＯＲＡＹＡ,,合同会社,大阪府,大阪市北区,天神橋６丁目３番２１号,,27,127,5300041,,,,,,,2025-08-18,1,,,,,スタジオトラヤ,0
1554,6120003030316,新規,0,2025-08-18,2025-08-18,合同会社市丸探偵事務所,,合同会社,大阪府,大阪市住吉区,長居３丁目３－２９－５０１,,27,120,5580003,,,,,,,2025-08-18,1,,,,,イチマルタンテイジムショ,0
1561,6120901051322,新規,0,2025-08-18,2025-08-18,株式会社ＨＲＴ,,株式会社,大阪府,吹田市,長野東２０番２３号,,27,205,5650816,,,,,,,2025-08-18,1,,,,,エイチアールティー,0
1562,6120901051347,新規,0,2025-08-18,2025-08-18,株式会社ａｃｅ　ｖｏｙａｇｅｒ,,株式会社,大阪府,豊中市,刀根山６丁目３－３９,,27,203,5600045,,,,,,,2025-08-18,1,,,,,エースボヤージュ,0
1563,6120903005813,新規,0,2025-08-18,2025-08-18,合同会社ＨａｎａＰｌｕｓ,,合同会社,大阪府,池田市,西本町２番１１号,,27,204,5630059,,,,,,,2025-08-18,1,,,,,ハナプラス,0
1565,6122001039561,新規,0,2025-08-18,2025-08-18,株式会社谷内ゴム工業所,,株式会社,大阪府,東大阪市,松原１丁目１８番７号,,27,227,5780922,,,,,,,2025-08-18,1,,,,,ヤチゴムコウギョウショ,0
1566,6122003003268,新規,0,2025-08-18,2025-08-18,合同会社Ｓ．Ｉ．Ｗｏｒｋｓ,,合同会社,大阪府,東大阪市,本庄西２丁目３番１１号,,27,227,5780965,,,,,,,2025-08-18,1,,,,,エスアイワークス,0
1568,6130001080246,新規,0,2025-08-18,2025-08-18,株式会社Ｔ２Ａ,,株式会社,京都府,京都市下京区,朱雀北ノ口町６２番地,,26,106,6008845,,,,,,,2025-08-18,1,,,,,ティーツーエー,0
1569,6130001080304,新規,0,2025-08-18,2025-08-18,株式会社青天,,株式会社,京都府,京都市伏見区,北端町６２番地３,,26,109,6128372,,,,,,,2025-08-18,1,,,,,セイテン,0
1573,6140001139479,新規,0,2025-08-18,2025-08-18,Ｋ　ａｎｄ　Ｍ株式会社,,株式会社,兵庫県,伊丹市,山田５丁目１番４２号,,28,207,6640874,,,,,,,2025-08-18,1,,,,,ケイアンドエム,0
1574,6140001139644,新規,0,2025-08-18,2025-08-18,艾米路国際株式会社,,株式会社,兵庫県,神戸市中央区,磯辺通１丁目１番２０号ＫＯＷＡビル３Ｆ,,28,110,6510084,,,,,,,2025-08-18,1,,,,,アミーロードコクサイ,0
1575,6140001139669,新規,0,2025-08-18,2025-08-18,株式会社クラフトエステート,,株式会社,兵庫県,尼崎市,長洲東通３丁目５番３１号,,28,202,6600801,,,,,,,2025-08-18,1,,,,,クラフトエステート,0
1576,6140001139685,新規,0,2025-08-18,2025-08-18,株式会社森鮮魚店,,株式会社,兵庫県,淡路市,久留麻２３４８番地,,28,226,6562311,,,,,,,2025-08-18,1,,,,,モリセンギョテン,0
1577,6140001139693,新規,0,2025-08-18,2025-08-18,株式会社リビングベース,,株式会社,兵庫県,神戸市東灘区,本庄町１丁目１４番２０号プレステージ甲南山手７０２号室,,28,101,6580012,,,,,,,2025-08-18,1,,,,,リビングベース,0
1578,6140001139702,新規,0,2025-08-18,2025-08-18,ジャパンリンクプロダクト株式会社,,株式会社,兵庫県,尼崎市,大島１丁目２４－５２－２Ｆ,,28,202,6600076,,,,,,,2025-08-18,1,,,,,ジャパンリンクプロダクト,0
1579,6140001139710,新規,0,2025-08-18,2025-08-18,ＧＦＥ株式会社,,株式会社,兵庫県,芦屋市,東山町１８番１５号,,28,206,6590091,,,,,,,2025-08-18,1,,,,,ジーエフーイー,0
1583,6140003022393,新規,0,2025-08-18,2025-08-18,彩華不動産合同会社,,合同会社,兵庫県,神戸市東灘区,住吉東町３丁目３番地８号,,28,101,6580052,,,,,,,2025-08-18,1,,,,,アヤカフドウサン,0
1584,6140003022451,新規,0,2025-08-18,2025-08-18,Ｎａｔｕｒｅ　ｗｉｔｈｉｎ合同会社,,合同会社,兵庫県,神戸市東灘区,向洋町中６丁目９番地,,28,101,6580032,,,,,,,2025-08-18,1,,,,,ネイチャーウィズイン,0
1599,6180001168128,新規,0,2025-08-18,2025-08-18,株式会社ＷＩＬＬ＆ＣＯ．,,株式会社,愛知県,小牧市,多気西町１５４番地,,23,219,4850054,,,,,,,2025-08-18,1,,,,,ウィルアンドコー,0
1600,6180001168136,新規,0,2025-08-18,2025-08-18,株式会社ＥＮＴＰＬＵＳ,,株式会社,愛知県,一宮市,木曽川町黒田十一ノ通り８９番地,,23,203,4930001,,,,,,,2025-08-18,1,,,,,エントプラス,0
1601,6180001168160,新規,0,2025-08-18,2025-08-18,株式会社ｈｒｋ,,株式会社,愛知県,春日井市,高森台８丁目２番地２３,,23,206,4870032,,,,,,,2025-08-18,1,,,,,エイチアールケー,0
1602,6180001168169,新規,0,2025-08-18,2025-08-18,株式会社東郷がじゅまるの樹動物病院,,株式会社,愛知県,愛知郡東郷町,大字春木字瀬戸田４３番地,,23,302,4700162,,,,,,,2025-08-18,1,,,,,トウゴウガジュマルキドウブツビョウイン,0
1603,6180001168202,新規,0,2025-08-18,2025-08-18,ＧＭトータルサポート株式会社,,株式会社,愛知県,名古屋市南区,上浜町９６番地の３,,23,112,4570067,,,,,,,2025-08-18,1,,,,,ジーエムトータルサポート,0
1604,6180001168227,新規,0,2025-08-18,2025-08-18,株式会社八丸不動産,,株式会社,愛知県,名古屋市東区,泉２丁目２６番１号ホウコクビル５Ｆ,,23,102,4610001,,,,,,,2025-08-18,1,,,,,ハチマルフドウサン,0
1607,6180003028825,新規,0,2025-08-18,2025-08-18,合同会社エスメデュアル,,合同会社,愛知県,名古屋市瑞穂区,下山町２丁目８－９,,23,108,4670049,,,,,,,2025-08-18,1,,,,,エスメデュアル,0
1608,6180003028858,新規,0,2025-08-18,2025-08-18,合同会社イノウエ,,合同会社,愛知県,北名古屋市,鍛治ケ一色東一丁目５４番地,,23,234,4810000,,,,,,,2025-08-18,1,,,,,イノウエ,0
1612,6180303006695,新規,0,2025-08-18,2025-08-18,合同会社３５８,,合同会社,愛知県,岡崎市,滝町字日陰１０番地１,,23,202,4443173,,,,,,,2025-08-18,1,,,,,サンゴハチ,0
1617,6190003005146,新規,0,2025-08-18,2025-08-18,ＡＬＥＥＳＨＡ　ＮＩＨＯＮ　ＬＡＮＫＡ合同会社,,合同会社,三重県,三重郡菰野町,大字宿野１２７４番地,,24,341,5101232,,,,,,,2025-08-18,1,,,,,アリーシャニホンランカ,0
1628,6260001040451,新規,0,2025-08-18,2025-08-18,株式会社あすハレ,,株式会社,岡山県,玉野市,東七区５８番地,,33,204,7060226,,,,,,,2025-08-18,1,,,,,アスハレ,0
1629,6260003005304,新規,0,2025-08-18,2025-08-18,穂乃華合同会社,,合同会社,岡山県,和気郡和気町,大田原３４１番地３,,33,346,7090414,,,,,,,2025-08-18,1,,,,,ホノカ,0
1634,6290001111035,新規,0,2025-08-18,2025-08-18,株式会社屋宜工業,,株式会社,福岡県,久留米市,三潴町高三潴９１３番地１－３０２号,,40,203,8300103,,,,,,,2025-08-18,1,,,,,ヤギコウギョウ,0
1635,6290001111043,新規,0,2025-08-18,2025-08-18,Ｄｏｇ　Ｌｉｆｅ　Ｓｍｉｌｅ株式会社,,株式会社,福岡県,大牟田市,大字唐船４７１番地４,,40,202,8360003,,,,,,,2025-08-18,1,,,,,ドッグライフスマイル,0
1638,6290003017271,新規,0,2025-08-18,2025-08-18,合同会社ＳＨＳスクエア,,合同会社,福岡県,福岡市城南区,樋井川６丁目３２番７－３０２号,,40,136,8140153,,,,,,,2025-08-18,1,,,,,エスエイチエススクエア,0
1640,6300001014319,新規,0,2025-08-18,2025-08-18,株式会社ＮＥＥＤ　ＬＩＮＥ,,株式会社,佐賀県,武雄市,武雄町大字富岡１２５１９－１－４０５,,41,206,8430024,,,,,,,2025-08-18,1,,,,,ニードライン,0
1644,6310001019754,新規,0,2025-08-18,2025-08-18,株式会社Ｎａｒｕｓｈｉｍａ,,株式会社,長崎県,五島市,奈留町浦１５５番地７,,42,211,8532201,,,,,,,2025-08-18,1,,,,,ナルシマ,0
1651,6330001033506,新規,0,2025-08-18,2025-08-18,株式会社ルミネル,,株式会社,熊本県,山鹿市,石１８０４番地,,43,208,8610553,,,,,,,2025-08-18,1,,,,,ルミネル,0
1657,6340001027589,新規,0,2025-08-18,2025-08-18,株式会社ＡＬＬＦＵＬ,,株式会社,鹿児島県,霧島市,国分中央４丁目１番２４号,,46,218,8994332,,,,,,,2025-08-18,1,,,,,オルフル,0
1658,6340001027597,新規,0,2025-08-18,2025-08-18,株式会社Ｈａｓｈｉｇｕｃｈｉ,,株式会社,鹿児島県,日置市,伊集院町麦生田４１０番地,,46,216,8992513,,,,,,,2025-08-18,1,,,,,ハシグチ,0
1664,6350003005006,新規,0,2025-08-18,2025-08-18,ＳＨＣ合同会社,,合同会社,宮崎県,都城市,天神町９街区８号,,45,202,8850031,,,,,,,2025-08-18,1,,,,,エスエイチシー,0
1677,6390003002429,新規,0,2025-08-18,2025-08-18,合同会社米クラフト,,合同会社,山形県,最上郡戸沢村,大字角川１４９２番地１,,06,367,9996403,,,,,,,2025-08-18,1,,,,,マイクラフト,0
1678,6420001019231,新規,0,2025-08-18,2025-08-18,株式会社オムニグリッド,,株式会社,青森県,八戸市,大字豊崎町字池田１９番地２,,02,203,0391109,,,,,,,2025-08-18,1,,,,,オムニグリッド,0
1680,6430001094975,新規,0,2025-08-18,2025-08-18,株式会社札幌ＣＨＳ,,株式会社,北海道,札幌市清田区,美しが丘三条３丁目８－１,,01,110,0040813,,,,,,,2025-08-18,1,,,,,サッポロシーエイチエス,0
1681,6430003017975,新規,0,2025-08-18,2025-08-18,ＩＲＥＳ合同会社,,合同会社,北海道,札幌市豊平区,月寒東一条２丁目１０番２４号ＡＲＳツキサムワン２０１,,01,105,0620051,,,,,,,2025-08-18,1,,,,,アイリス,0
1682,6430003017983,新規,0,2025-08-18,2025-08-18,合同会社ＥＬｗｏｒｋｓ,,合同会社,北海道,札幌市東区,北二十三条東１４丁目３番１９－２０５号,,01,103,0650023,,,,,,,2025-08-18,1,,,,,エルワークス,0
1683,6460101007743,新規,0,2025-08-18,2025-08-18,株式会社Ｏｚ,,株式会社,北海道,帯広市,西九条南１９丁目８番地６,,01,207,0800019,,,,,,,2025-08-18,1,,,,,オーズ,0
1686,6700150131824,新規,0,2025-08-18,2025-08-18,ＺＥＥＴＯ　ＡＵＴＯ　ＴＲＡＤＩＮＧ,,外国会社等,茨城県,坂東市,大崎５３－３Ａ,,08,228,3060622,スリランカ民主社会主義共和国、アラワトゥゴダ、マタレロード、Ｎｏ．１１２／Ｃ,,,,,,2025-08-18,1,,,,,ジートオートトレーデイング,0
1691,7010001257755,新規,0,2025-08-18,2025-08-18,Ｍｅｄｉａｌｉｎｋ　Ｊａｐａｎ株式会社,,株式会社,東京都,中央区,銀座３丁目１０番９号ＫＥＣ銀座ビル８階,,13,102,1040061,,,,,,,2025-08-18,1,,,,,メディアリンクジャパン,0
1692,7010001257813,新規,0,2025-08-18,2025-08-18,株式会社ＳＫＩＬＬ　ＢＡＳＥ,,株式会社,東京都,中央区,銀座１丁目２２番１１号銀座大竹ビジデンス２Ｆ,,13,102,1040061,,,,,,,2025-08-18,1,,,,,スキルベース,0
1697,7010003048368,新規,0,2025-08-18,2025-08-18,Ａｕｘｏｒ合同会社,,合同会社,東京都,文京区,本郷５丁目１－１１ＫＩＩＨＯＵＳＥ（キーハウス）２０２,,13,105,1130033,,,,,,,2025-08-18,1,,,,,オクソール,0
1699,7010005040538,新規,0,2025-08-18,2025-08-18,一般社団法人ＮＸ２,,その他の設立登記法人,東京都,千代田区,神田神保町１丁目１１番地さくら綜合事務所内,,13,101,1010051,,,,,,,2025-08-18,1,,,,,エヌエックスツー,0
1702,7010401192305,新規,0,2025-08-18,2025-08-18,株式会社Ｓｔｒａｖｉａ,,株式会社,東京都,港区,六本木３丁目１６番１２号六本木ＫＳビル５階,,13,103,1060032,,,,,,,2025-08-18,1,,,,,ストラビア,0
1703,7010401192494,新規,0,2025-08-18,2025-08-18,株式会社ブイシンクパートナーズ,,株式会社,東京都,港区,六本木４丁目２番１４号２Ｆ,,13,103,1060032,,,,,,,2025-08-18,1,,,,,ブイシンクパートナーズ,0
1705,7010403035750,新規,0,2025-08-18,2025-08-18,ＬＵＸＥ合同会社,,合同会社,東京都,港区,元赤坂１丁目１番７号,,13,103,1070051,,,,,,,2025-08-18,1,,,,,ラグザ,0
1706,7010403035800,新規,0,2025-08-18,2025-08-18,合同会社ＬＵＭＥＲＡ,,合同会社,東京都,港区,浜松町１丁目２６番６－６０２号,,13,103,1050013,,,,,,,2025-08-18,1,,,,,ルメラ,0
1710,7010601067752,新規,0,2025-08-18,2025-08-18,株式会社ＣＴＩ,,株式会社,東京都,墨田区,業平１丁目１５－５－１００３パークサイド業平,,13,107,1300002,,,,,,,2025-08-18,1,,,,,シーティーアイ,0
1711,7010601067810,新規,0,2025-08-18,2025-08-18,朝陽株式会社,,株式会社,東京都,墨田区,文花１丁目３４番１１－４１５号,,13,107,1310044,,,,,,,2025-08-18,1,,,,,チョウヨウ,0
1712,7010601067827,新規,0,2025-08-18,2025-08-18,和創ミライリンク株式会社,,株式会社,東京都,江東区,大島７丁目２２－１６プラウド大島セントラル３０４号,,13,108,1360072,,,,,,,2025-08-18,1,,,,,ワソウミライリンク,0
1715,7010701048149,新規,0,2025-08-18,2025-08-18,株式会社ＶｉｓＣｒｅａｔｉｏｎ,,株式会社,東京都,品川区,南大井６丁目１６番２０号品川水神ビル６階,,13,109,1400013,,,,,,,2025-08-18,1,,,,,ビズクリエイション,0
1716,7010701048165,新規,0,2025-08-18,2025-08-18,ＤＳＡＩ　ＯＳＫ１株式会社,,株式会社,東京都,品川区,西五反田１丁目３番８号五反田ＰＬＡＣＥ８階,,13,109,1410031,,,,,,,2025-08-18,1,,,,,ディーエスエーアイオーエスケーワン,0
1717,7010903010187,新規,0,2025-08-18,2025-08-18,合同会社Ｌ‐Ｒ３９,,合同会社,東京都,世田谷区,駒沢４丁目３１番１３号,,13,112,1540012,,,,,,,2025-08-18,1,,,,,ライトラエティティア,0
1718,7010903010195,新規,0,2025-08-18,2025-08-18,ルミナ合同会社,,合同会社,東京都,世田谷区,太子堂４丁目１８番１５号マガザン三軒茶屋２－３階３,,13,112,1540004,,,,,,,2025-08-18,1,,,,,ルミナ,0
1724,7011003022338,新規,0,2025-08-18,2025-08-18,合同会社ＮａＮｏＫａ,,合同会社,東京都,渋谷区,神宮前６丁目２３―４桑野ビル２階,,13,113,1500001,,,,,,,2025-08-18,1,,,,,ナノカ,0
1730,7011101112734,新規,0,2025-08-18,2025-08-18,株式会社ｉ．ｍ．Ｓｅｃｏｎｄ,,株式会社,東京都,新宿区,新宿３丁目２６番３号,,13,104,1600022,,,,,,,2025-08-18,1,,,,,アイエムセカンド,0
1735,7011501032441,新規,0,2025-08-18,2025-08-18,株式会社Ｌｙｎｘ,,株式会社,東京都,荒川区,町屋４丁目２４番１２号,,13,118,1160001,,,,,,,2025-08-18,1,,,,,リンクス,0
1736,7011503006641,新規,0,2025-08-18,2025-08-18,合同会社エスターヴ,,合同会社,東京都,北区,赤羽台４丁目１７番１８号,,13,117,1150053,,,,,,,2025-08-18,1,,,,,エスターヴ,0
1738,7012403007291,新規,0,2025-08-18,2025-08-18,合同会社ピースレール・コンサルティング,,合同会社,東京都,調布市,布田５丁目３９番３号,,13,208,1820024,,,,,,,2025-08-18,1,,,,,ピースレールコンサルティング,0
1740,7012801024178,新規,0,2025-08-18,2025-08-18,株式会社ａｍｉｓ,,株式会社,東京都,立川市,高松町２丁目３９番１４号アネシア立川２１１号,,13,202,1900011,,,,,,,2025-08-18,1,,,,,アミ,0
1741,7012803003824,新規,0,2025-08-18,2025-08-18,合同会社Ｇ８,,合同会社,東京都,昭島市,美堀町２丁目９－３,,13,207,1960001,,,,,,,2025-08-18,1,,,,,ジーエイト,0
1750,7020001164298,新規,0,2025-08-18,2025-08-18,株式会社ＫＳ　ＡＱＵＡ,,株式会社,神奈川県,横浜市鶴見区,馬場３丁目１番１６号,,14,101,2300076,,,,,,,2025-08-18,1,,,,,ケイエスアクア,0
1751,7020001164307,新規,0,2025-08-18,2025-08-18,ＢＳＭ株式会社,,株式会社,神奈川県,横浜市泉区,中田南３丁目２８番２９号,,14,116,2450014,,,,,,,2025-08-18,1,,,,,ビーエスエム,0
1752,7020001164356,新規,0,2025-08-18,2025-08-18,株式会社ＬＵＭＩ　ＡＵＲＡ,,株式会社,神奈川県,横浜市南区,花之木町２丁目２８番１号ハイツ花之木１０７,,14,105,2320018,,,,,,,2025-08-18,1,,,,,,0
1757,7020003029144,新規,0,2025-08-18,2025-08-18,ＥＣ鳳電合同会社,,合同会社,神奈川県,横浜市鶴見区,鶴見中央４丁目３１番７－１００１号,,14,101,2300051,,,,,,,2025-08-18,1,,,,,イーシーホウデン,0
1758,7020003029152,新規,0,2025-08-18,2025-08-18,合同会社エムズ電気,,合同会社,神奈川県,横浜市栄区,中野町１０６４番地１６,,14,115,2470015,,,,,,,2025-08-18,1,,,,,エムズデンキ,0
1759,7020003029169,新規,0,2025-08-18,2025-08-18,Ｌｕｎｏｈａｒｕ合同会社,,合同会社,神奈川県,横浜市鶴見区,岸谷３丁目７―２７エクレール鶴見岸谷西館２０１,,14,101,2300078,,,,,,,2025-08-18,1,,,,,ルノハル,0
1761,7021001086012,新規,0,2025-08-18,2025-08-18,株式会社光はじめ,,株式会社,神奈川県,大和市,福田３６７６番地,,14,213,2420024,,,,,,,2025-08-18,1,,,,,ヒカリハジメ,0
1762,7021001086094,新規,0,2025-08-18,2025-08-18,株式会社メディクール,,株式会社,神奈川県,逗子市,逗子７丁目１２番５号,,14,208,2490006,,,,,,,2025-08-18,1,,,,,メディクール,0
1763,7021003016405,新規,0,2025-08-18,2025-08-18,合同会社創幸,,合同会社,神奈川県,海老名市,上今泉６丁目２５番２９号,,14,215,2430431,,,,,,,2025-08-18,1,,,,,ソウコウ,0
1764,7021003016421,新規,0,2025-08-18,2025-08-18,合同会社３．ｓｕｎ,,合同会社,神奈川県,大和市,鶴間１丁目１－１４,,14,213,2420004,,,,,,,2025-08-18,1,,,,,サンドットサン,0
1765,7030001168182,新規,0,2025-08-18,2025-08-18,Ｋ２エンタープライズ株式会社,,株式会社,埼玉県,川口市,東川口３丁目６番２１－５０１号藤和シティホームズ東川口けやき通り,,11,203,3330801,,,,,,,2025-08-18,1,,,,,ケーツーエンタープライズ,0
1766,7030001168216,新規,0,2025-08-18,2025-08-18,Ｆｉｘ　ｕｐ株式会社,,株式会社,埼玉県,さいたま市見沼区,堀崎町１０３番地１,,11,104,3370052,,,,,,,2025-08-18,1,,,,,フィックスアップ,0
1767,7030003027428,新規,0,2025-08-18,2025-08-18,やなぎ内装合同会社,,合同会社,埼玉県,川口市,並木３丁目６番４－３０２号,,11,203,3320034,,,,,,,2025-08-18,1,,,,,ヤナギナイソウ,0
1768,7030003027436,新規,0,2025-08-18,2025-08-18,ＧＩＧＧＬＥ合同会社,,合同会社,埼玉県,川越市,大字木野目１０８１番地,,11,201,3500016,,,,,,,2025-08-18,1,,,,,ギグル,0
1773,7040001139868,新規,0,2025-08-18,2025-08-18,株式会社存在美学研究所,,株式会社,千葉県,市原市,光風台４丁目４９９番地３矢野方,,12,219,2900255,,,,,,,2025-08-18,1,,,,,ソンザイビガクケンキュウジョ,0
1774,7040001140058,新規,0,2025-08-18,2025-08-18,株式会社横空国際物流,,株式会社,千葉県,千葉市稲毛区,稲毛３丁目３番１０号,,12,103,2630034,,,,,,,2025-08-18,1,,,,,ヨコソラコクサイブツリュウ,0
1775,7040001140066,新規,0,2025-08-18,2025-08-18,株式会社Ｃスリー,,株式会社,千葉県,流山市,おおたかの森北２丁目２１番地の２０,,12,220,2700119,,,,,,,2025-08-18,1,,,,,シースリー,0
1776,7040001140090,新規,0,2025-08-18,2025-08-18,株式会社グリーンアセット,,株式会社,千葉県,習志野市,藤崎３丁目４番４号ベルカーサ重サン１０１号室,,12,216,2750017,,,,,,,2025-08-18,1,,,,,グリーンアセット,0
1777,7040001140099,新規,0,2025-08-18,2025-08-18,株式会社ＮｅｘｔＡｔｌａｓ,,株式会社,千葉県,船橋市,南三咲２丁目５番３－１０１号,,12,204,2740813,,,,,,,2025-08-18,1,,,,,ネクストアトラス,0
1787,7070001043274,新規,0,2025-08-18,2025-08-18,株式会社富翔,,株式会社,群馬県,高崎市,箕郷町上芝４２３番地３０,,10,202,3703104,,,,,,,2025-08-18,1,,,,,,0
1793,7080401028122,新規,0,2025-08-18,2025-08-18,結実株式会社,,株式会社,静岡県,浜松市中央区,板屋町１０２番地の１５Ｄｅｘｉｉｔａｙａ,,22,138,4300928,,,,,,,2025-08-18,1,,,,,ユイ,0
1804,7120001278798,新規,0,2025-08-18,2025-08-18,ＨＡＬＯ株式会社,,株式会社,大阪府,大阪市北区,天神橋１丁目１５番１５号ＣＡＳＡ天神橋７０３号室,,27,127,5300041,,,,,,,2025-08-18,1,,,,,ハロ,0
1805,7120001278823,新規,0,2025-08-18,2025-08-18,株式会社新栄電気設備,,株式会社,大阪府,大阪市旭区,中宮３丁目１１番１０号いすずハイツ２０３,,27,117,5350003,,,,,,,2025-08-18,1,,,,,シンエイデンキセツビ,0
1806,7120001278831,新規,0,2025-08-18,2025-08-18,株式会社ＥＸＯＳＯＭＥＲ,,株式会社,大阪府,大阪市北区,梅田１丁目１－３大阪駅前第３ビル２９階,,27,127,5300001,,,,,,,2025-08-18,1,,,,,エクソソーマー,0
1807,7120001278848,新規,0,2025-08-18,2025-08-18,大阪投資管理株式会社,,株式会社,大阪府,大阪市西区,西本町２丁目５番１１号西本町創建ビル７０１号室,,27,106,5500005,,,,,,,2025-08-18,1,,,,,オオサカトウシカンリ,0
1808,7120001278864,新規,0,2025-08-18,2025-08-18,株式会社ふらっと,,株式会社,大阪府,大阪市中央区,松屋町住吉３番２－１００１号,,27,128,5400017,,,,,,,2025-08-18,1,,,,,フラット,0
1809,7120001278889,新規,0,2025-08-18,2025-08-18,ＫＡＭＯ株式会社,,株式会社,大阪府,大阪市住吉区,清水丘１丁目６番１６号,,27,120,5580033,,,,,,,2025-08-18,1,,,,,カモ,0
1815,7120003030298,新規,0,2025-08-18,2025-08-18,合同会社タスキ,,合同会社,大阪府,大阪市北区,梅田１丁目１－３大阪駅前第３ビル２９階１－１－１号室,,27,127,5300001,,,,,,,2025-08-18,1,,,,,タスキ,0
1822,7120103006644,新規,0,2025-08-18,2025-08-18,合同会社Ｓ‐ＮＡ,,合同会社,大阪府,堺市南区,逆瀬川９３７－２９,,27,145,5900123,,,,,,,2025-08-18,1,,,,,エスナ,0
1829,7120901051338,新規,0,2025-08-18,2025-08-18,株式会社リレーションズ,,株式会社,大阪府,三島郡島本町,水無瀬２丁目２１番１８号,,27,301,6180014,,,,,,,2025-08-18,1,,,,,リレーションズ,0
1830,7120905006783,新規,0,2025-08-18,2025-08-18,特定非営利活動法人がんばろうつばさネットワーク,,その他の設立登記法人,大阪府,茨木市,平田２丁目２３番１２号,,27,211,5670845,,,,,,,2025-08-18,1,,,,,ガンバロウツバサネットワーク,0
1832,7122001039544,新規,0,2025-08-18,2025-08-18,Ｋ．Ｔ．Ｓ株式会社,,株式会社,大阪府,東大阪市,吉田本町１丁目９番５号コーポ島之内ＩＩ３０１号,00140313,27,227,5780982,,,,,,,2025-08-18,1,,,,,ケーティーエス,0
1833,7122001039552,新規,0,2025-08-18,2025-08-18,株式会社ユープラ,,株式会社,大阪府,東大阪市,玉串町東３丁目５番７３号,,27,227,5780932,,,,,,,2025-08-18,1,,,,,ユープラ,0
1835,7130003010679,新規,0,2025-08-18,2025-08-18,合同会社ＭＲＳＨ,,合同会社,京都府,京田辺市,山手東１丁目２８番地１０,,26,211,6100357,,,,,,,2025-08-18,1,,,,,エムアールエスエイチ,0
1838,7140001139668,新規,0,2025-08-18,2025-08-18,ＴＳＳ株式会社,,株式会社,兵庫県,姫路市,東延末２６４番地,,28,201,6700965,,,,,,,2025-08-18,1,,,,,ティーエスエス,0
1839,7140001139684,新規,0,2025-08-18,2025-08-18,株式会社川面マンション,,株式会社,兵庫県,宝塚市,川面５丁目１０番３２－３０３号,,28,214,6650842,,,,,,,2025-08-18,1,,,,,カワモマンション,0
1840,7140001139692,新規,0,2025-08-18,2025-08-18,ＢＲＥＡＫＴＨ株式会社,,株式会社,兵庫県,川辺郡猪名川町,若葉１丁目１７番地２,,28,301,6660251,,,,,,,2025-08-18,1,,,,,ブレイクス,0
1841,7140001139742,新規,0,2025-08-18,2025-08-18,株式会社Ｔｅｌｉｏｓ,,株式会社,兵庫県,宝塚市,栄町２丁目１－１ソリオ宝塚１Ｅ４０５,,28,214,6650845,,,,,,,2025-08-18,1,,,,,テリオス,0
1848,7160001026988,新規,0,2025-08-18,2025-08-18,ＲＦＧ貿易株式会社,,株式会社,滋賀県,甲賀市,水口町名坂１２５５－４－３０２号室,,25,209,5280035,,,,,,,2025-08-18,1,,,,,アーエフジーボウエキ,0
1856,7180001168143,新規,0,2025-08-18,2025-08-18,株式会社アイライト,,株式会社,愛知県,一宮市,西五城字中川田２９番地４,,23,203,4940005,,,,,,,2025-08-18,1,,,,,アイライト,0
1857,7180001168168,新規,0,2025-08-18,2025-08-18,株式会社トラストクリーン,,株式会社,愛知県,名古屋市守山区,瀬古１丁目１３２４番地,,23,113,4630068,,,,,,,2025-08-18,1,,,,,トラストクリーン,0
1858,7180001168176,新規,0,2025-08-18,2025-08-18,株式会社Ｅｘｕｌｔ,,株式会社,愛知県,名古屋市中村区,名駅４丁目２４番５号第２森ビル４０１,,23,105,4500002,,,,,,,2025-08-18,1,,,,,イグザルト,0
1863,7180303006694,新規,0,2025-08-18,2025-08-18,Ａ．Ｍ　Ｌｉｎｋ合同会社,,合同会社,愛知県,碧南市,中山町６丁目５３番地１,,23,209,4470035,,,,,,,2025-08-18,1,,,,,エーエムリンク,0
1864,7190003005145,新規,0,2025-08-18,2025-08-18,合同会社Ｊａｐａｎ　Ｇｌｉｄｅ　Ｌｉｆｅ,,合同会社,三重県,四日市市,別山１丁目２１１０番地,,24,202,5120936,,,,,,,2025-08-18,1,,,,,ジャパングライドライフ,0
1870,7200003006975,新規,0,2025-08-18,2025-08-18,合同会社あいみーケアサポート,,合同会社,岐阜県,各務原市,三井北町１丁目２７５番地,,21,213,5040956,,,,,,,2025-08-18,1,,,,,アイミーケアサポート,0
1875,7260001040450,新規,0,2025-08-18,2025-08-18,株式会社仲原電気,,株式会社,岡山県,赤磐市,桜が丘東４丁目４番地３６３,,33,213,7090721,,,,,,,2025-08-18,1,,,,,ナカハラデンキ,0
1880,7260003005303,新規,0,2025-08-18,2025-08-18,合同会社ｊｏｙｃａｒ,,合同会社,岡山県,岡山市北区,楢津６６５,,33,101,7011202,,,,,,,2025-08-18,1,,,,,ジョイカー,0
1896,7290001111034,新規,0,2025-08-18,2025-08-18,株式会社稲川板金工業所,,株式会社,福岡県,古賀市,谷山１１３６番地１４,,40,223,8113125,,,,,,,2025-08-18,1,,,,,イナガワバンキンコウギョウショ,0
1897,7290001111050,新規,0,2025-08-18,2025-08-18,株式会社丸眞産業,,株式会社,福岡県,久留米市,荒木町白口１３６０番地,,40,203,8300062,,,,,,,2025-08-18,1,,,,,マルシンサンギョウ,0
1902,7290003017213,新規,0,2025-08-18,2025-08-18,合同会社ナオシン,,合同会社,福岡県,春日市,桜ヶ丘５丁目８４番地ＪＧＭヴェルデ井尻南１０１号,,40,218,8160872,,,,,,,2025-08-18,1,,,,,ナオシン,0
1903,7290003017221,新規,0,2025-08-18,2025-08-18,合同会社ＡＨＩＬＯＡ　ＴＩＭＥＳ,,合同会社,福岡県,福岡市西区,愛宕浜１丁目５－１,,40,135,8190013,,,,,,,2025-08-18,1,,,,,アヒロアタイムズ,0
1905,7290801031786,新規,0,2025-08-18,2025-08-18,株式会社ＮＳ食品,,株式会社,福岡県,北九州市小倉北区,井堀２丁目８番２６号,,40,106,8030835,,,,,,,2025-08-18,1,,,,,エヌエスショクヒン,0
1912,7330003011178,新規,0,2025-08-18,2025-08-18,合同会社リヤン,,合同会社,熊本県,熊本市中央区,平成３丁目１５番１１号,,43,101,8600833,,,,,,,2025-08-18,1,,,,,リヤン,0
1917,7350003005005,新規,0,2025-08-18,2025-08-18,合同会社ＳＴＥＰ,,合同会社,宮崎県,都城市,祝吉２丁目３番地５,,45,202,8850019,,,,,,,2025-08-18,1,,,,,ステップ,0
1932,7400003003523,新規,0,2025-08-18,2025-08-18,合同会社Ｗａｌｄ,,合同会社,岩手県,西磐井郡平泉町,平泉字衣関２－９,,03,402,0294102,,,,,,,2025-08-18,1,,,,,ヴァルト,0
1938,7430001094966,新規,0,2025-08-18,2025-08-18,株式会社ＳｈａｎｇＬｉｌｙｓ,,株式会社,北海道,札幌市中央区,南六条西２丁目８番地７,,01,101,0640806,,,,,,,2025-08-18,1,,,,,シャングリリーズ,0
1939,7430001094974,新規,0,2025-08-18,2025-08-18,Ｔｈｅ　Ｃｈｕｒｃｈ株式会社,,株式会社,北海道,虻田郡洞爺湖町,富丘７７番地,,01,584,0495822,,,,,,,2025-08-18,1,,,,,ザチャーチ,0
1940,7430001095007,新規,0,2025-08-18,2025-08-18,株式会社光希興業,,株式会社,北海道,北広島市,大曲南ヶ丘５丁目１５番地９,,01,234,0611275,,,,,,,2025-08-18,1,,,,,コウキコウギョウ,0
1941,7430001095023,新規,0,2025-08-18,2025-08-18,株式会社カリグラナ,,株式会社,北海道,札幌市西区,琴似一条５丁目１番１－１４０２号,,01,107,0630811,,,,,,,2025-08-18,1,,,,,カリグラナ,0
1942,7430001095097,新規,0,2025-08-18,2025-08-18,株式会社Ｌｆｎ,,株式会社,北海道,北広島市,大曲末広５丁目４番地３,,01,234,0611272,,,,,,,2025-08-18,1,,,,,エルエフエヌ,0
1947,7430003017966,新規,0,2025-08-18,2025-08-18,牧島商店合同会社,,合同会社,北海道,札幌市中央区,南十二条西１７丁目１番３０－１０８号,,01,101,0640912,,,,,,,2025-08-18,1,,,,,マキシマショウテン,0
1948,7430003017990,新規,0,2025-08-18,2025-08-18,合同会社ＲＩＮ　Ｇｌｏｂａｌ　Ｓｕｐｐｏｒｔ,,合同会社,北海道,札幌市北区,麻生町６丁目７番１号,,01,102,0010045,,,,,,,2025-08-18,1,,,,,リングローバルサポート,0
1949,7450001014708,新規,0,2025-08-18,2025-08-18,Ｍａｇｉｃｋａｌ　Ｅｘｐｅｒｉｅｎｃｅｓ　Ｊａｐａｎ株式会社,,株式会社,北海道,空知郡南富良野町,字下金山７８５番地１１,,01,462,0792132,,,,,,,2025-08-18,1,,,,,マジカルエクスペリエンシズジャパン,0
1953,7500001026474,新規,0,2025-08-18,2025-08-18,パザパ株式会社,,株式会社,愛媛県,松山市,道後町２丁目３番２１号,,38,201,7900843,,,,,,,2025-08-18,1,,,,,パザパ,0
1954,7700150131823,新規,0,2025-08-18,2025-08-18,ＣＡＲ　ＷＯＲＬＤ　ＴＲＡＤＥＲＳ,,外国会社等,茨城県,古河市,長左エ門新田字北山９６６－２４,,08,204,3060103,スリランカ民主社会主義共和国、アンバテナ、カハワッタＮｏ．６８／Ａ,,,,,,2025-08-18,1,,,,,カーワールドトレーダーズ,0
1955,7700150131831,新規,0,2025-08-18,2025-08-18,西平井自治会,,その他,千葉県,流山市,西平井１丁目２６番地の２,,12,220,2700156,,,,,,,2025-08-18,1,,,,,ニシヒライジチカイ,0
1965,8010001257721,新規,0,2025-08-18,2025-08-18,株式会社Ｒｏｕｔｅ　ＡＩ,,株式会社,東京都,千代田区,飯田橋１丁目９番６号朝日飯田橋マンション５０１,,13,101,1020072,,,,,,,2025-08-18,1,,,,,ルートエーアイ,0
1966,8010001257746,新規,0,2025-08-18,2025-08-18,エムアール株式会社,,株式会社,東京都,千代田区,神田和泉町１番地６－１６ヤマトビル４０５,,13,101,1010024,,,,,,,2025-08-18,1,,,,,エムアール,0
1968,8010003048367,新規,0,2025-08-18,2025-08-18,合同会社Ｖｉｎｏ　Ｐｉｎｏ,,合同会社,東京都,中央区,銀座１丁目１２番４号Ｎ＆ＥＢＬＤ．６Ｆ,,13,102,1040061,,,,,,,2025-08-18,1,,,,,ヴィノピノ,0
1969,8010003048383,新規,0,2025-08-18,2025-08-18,Ｂ２０　Ｊａｐａｎ合同会社,,合同会社,東京都,中央区,銀座４丁目１４番１１号七十七銀座ビル８階,,13,102,1040061,,,,,,,2025-08-18,1,,,,,ビートゥエンティージャパン,0
1972,8010005040537,新規,0,2025-08-18,2025-08-18,弁護士法人ちらいふく,,その他の設立登記法人,東京都,千代田区,飯田橋３丁目６番８号飯田橋Ｔ＆Ｓビル６０１号室,,13,101,1020072,,,,,,,2025-08-18,1,,,,,チライフク,0
1973,8010005040545,新規,0,2025-08-18,2025-08-18,Ｓｐｒｉｎｔ　Ａｓｓｅｔ２一般社団法人,,その他の設立登記法人,東京都,千代田区,霞が関３丁目２番５号,,13,101,1000013,,,,,,,2025-08-18,1,,,,,スプリントアセットツー,0
1977,8010401192312,新規,0,2025-08-18,2025-08-18,シンクレア株式会社,,株式会社,東京都,港区,虎ノ門１丁目１－２１,,13,103,1050001,,,,,,,2025-08-18,1,,,,,シンクレア,0
1978,8010401192320,新規,0,2025-08-18,2025-08-18,Ｃａｌｍ　Ｎｅｘｕｒａ株式会社,,株式会社,東京都,港区,南青山２丁目２番１５号ウィン青山９４２,,13,103,1070062,,,,,,,2025-08-18,1,,,,,カームネクスラ,0
1979,8010401192353,新規,0,2025-08-18,2025-08-18,ＴＣＴ株式会社,,株式会社,東京都,港区,南青山３丁目１番３６号青山丸竹ビル６Ｆ,,13,103,1070062,,,,,,,2025-08-18,1,,,,,,0
1980,8010401192403,新規,0,2025-08-18,2025-08-18,ユンコンピレーション株式会社,,株式会社,東京都,港区,新橋２丁目１６－１ニュー新橋ビル６２８号,,13,103,1050004,,,,,,,2025-08-18,1,,,,,ユンコンピレーション,0
1981,8010401192460,新規,0,2025-08-18,2025-08-18,株式会社ＡＩ光,,株式会社,東京都,港区,海岸１丁目２番１号,,13,103,1050022,,,,,,,2025-08-18,1,,,,,エーアイヒカリ,0
1982,8010401192493,新規,0,2025-08-18,2025-08-18,株式会社ｓｔｕｄｉｏ　Ｇ　Ｆｒｏｎｔｉｅｒ,,株式会社,東京都,港区,赤坂５丁目２番３３号ＩｓａＩＡｋａｓａｋＡ１２０８号室,,13,103,1070052,,,,,,,2025-08-18,1,,,,,スタジオジーフロンティア,0
1984,8010403035774,新規,0,2025-08-18,2025-08-18,合同会社しかねこパートナーズ,,合同会社,東京都,港区,西麻布４丁目１１番７－４０１号パークハウス麻布霞町,,13,103,1060031,,,,,,,2025-08-18,1,,,,,シカネコパートナーズ,0
1989,8010601067751,新規,0,2025-08-18,2025-08-18,ＴＧ　Ｓｏｃｉｅｔｙ株式会社,,株式会社,東京都,江東区,塩浜２丁目５番１－４１８号,,13,108,1350043,,,,,,,2025-08-18,1,,,,,ティージーソサイエティ,0
1990,8010601067792,新規,0,2025-08-18,2025-08-18,株式会社ティエイド,,株式会社,東京都,墨田区,業平２丁目６番１１号,,13,107,1300002,,,,,,,2025-08-18,1,,,,,ティエイド,0
1994,8010603011740,新規,0,2025-08-18,2025-08-18,合同会社タリソリューション,,合同会社,東京都,墨田区,墨田１丁目１６番３－３０９号,,13,107,1310031,,,,,,,2025-08-18,1,,,,,タリソリューション,0
1997,8010701048164,新規,0,2025-08-18,2025-08-18,ＡＢＢ　Ｒｏｂｏｔｉｃｓ　Ｊａｐａｎ株式会社,,株式会社,東京都,品川区,大崎２丁目１番１号,,13,109,1410032,,,,,,,2025-08-18,1,,,,,エービービーロボティクスジャパン,0
2000,8010805003189,新規,0,2025-08-18,2025-08-18,一般社団法人ＯＮＥＢＯＤＹＰＲＯＪＥＣＴ,,その他の設立登記法人,東京都,大田区,北糀谷１丁目１７－１６,,13,111,1440032,,,,,,,2025-08-18,1,,,,,ワンボディプロジェクト,0
2001,8010805003197,新規,0,2025-08-18,2025-08-18,一般社団法人中国残留邦人・在日華人研究所,,その他の設立登記法人,東京都,大田区,蒲田１丁目１－２５プチ・パレ２０１号室,,13,111,1440052,,,,,,,2025-08-18,1,,,,,チュウゴクザンリュウホウジンザイニチカジンケンキュウジョ,0
2003,8010903010087,新規,0,2025-08-18,2025-08-18,ＦＬＡＭＭＣＨＥＮ　ＥＮＴＥＲＴＡＩＮＭＥＮＴ合同会社,,合同会社,東京都,世田谷区,新町１丁目１８番１０号ニュータウンヒルズ２０４,,13,112,1540014,,,,,,,2025-08-18,1,,,,,フラムシェンエンターテインメント,0
2008,8011001171301,新規,0,2025-08-18,2025-08-18,Ｇ‐ＳＭＡＳＨ株式会社,,株式会社,東京都,渋谷区,恵比寿１丁目２４番１６号カルチェ恵比寿６０４,,13,113,1500013,,,,,,,2025-08-18,1,,,,,ジースマッシュ,0
2009,8011001171318,新規,0,2025-08-18,2025-08-18,株式会社Ｉｎｓａｎｅ,,株式会社,東京都,渋谷区,道玄坂１丁目１０番８号渋谷道玄坂東急ビル２Ｆ－Ｃ,,13,113,1500043,,,,,,,2025-08-18,1,,,,,インセイン,0
2010,8011001171961,新規,0,2025-08-18,2025-08-18,株式会社ＣｒｏｓｓＢｒｉｄｇｅ,,株式会社,東京都,渋谷区,恵比寿西２丁目４番８号ウィンド恵比寿ビル８Ｆ,,13,113,1500021,,,,,,,2025-08-18,1,,,,,クロスブリッジ,0
2011,8011003022155,新規,0,2025-08-18,2025-08-18,Ｔｏｋｙｏ　Ｍｕｓｉｃ　Ｓｃｈｏｏｌ合同会社,,合同会社,東京都,目黒区,上目黒５丁目２３番５号チサンマンション祐天寺６０５,,13,110,1530051,,,,,,,2025-08-18,1,,,,,トウキョウミュージックスクール,0
2012,8011003022345,新規,0,2025-08-18,2025-08-18,Ｔｏｈｋａｎ合同会社,,合同会社,東京都,渋谷区,道玄坂１丁目１０番８号渋谷道玄坂東急ビル２Ｆ―Ｃ,,13,113,1500043,,,,,,,2025-08-18,1,,,,,トーカン,0
2014,8011101112956,新規,0,2025-08-18,2025-08-18,株式会社Ｃａｐｒｅｒ,,株式会社,東京都,新宿区,西新宿３丁目３番１３号西新宿水間ビル２Ｆ,,13,104,1600023,,,,,,,2025-08-18,1,,,,,カプレル,0
2016,8011201026569,新規,0,2025-08-18,2025-08-18,ことだま株式会社,,株式会社,東京都,中野区,中央３丁目３９番３０号,,13,114,1640011,,,,,,,2025-08-18,1,,,,,コトダマ,0
2017,8011503006640,新規,0,2025-08-18,2025-08-18,合同会社ＶＩＰ　ＤＲＩＶＥ,,合同会社,東京都,北区,赤羽北１丁目１番７号,,13,117,1150052,,,,,,,2025-08-18,1,,,,,ビップドライブ,0
2019,8011701028627,新規,0,2025-08-18,2025-08-18,京誠コンサルティング株式会社,,株式会社,東京都,江戸川区,平井５丁目４４番６号ＣＷＨ平井ビルディング２階２１０号室,,13,123,1320035,,,,,,,2025-08-18,1,,,,,キョウセイコンサルティング,0
2023,8011803007017,新規,0,2025-08-18,2025-08-18,合同会社エフ,,合同会社,東京都,足立区,弘道１丁目９番１号,,13,121,1200013,,,,,,,2025-08-18,1,,,,,エフ,0
2024,8012301014505,新規,0,2025-08-18,2025-08-18,株式会社一期,,株式会社,東京都,町田市,真光寺町１２０番地１０,,13,209,1950051,,,,,,,2025-08-18,1,,,,,イチゴ,0
2025,8012303002210,新規,0,2025-08-18,2025-08-18,合同会社ビューティーアップ,,合同会社,東京都,町田市,木曽東１丁目１１番２５号すずきマンション３０５,,13,209,1940036,,,,,,,2025-08-18,1,,,,,ビューティーアップ,0
2027,8012801024177,新規,0,2025-08-18,2025-08-18,株式会社ＥＤＺ　ＪＥＷＥＬＲＹ,,株式会社,東京都,昭島市,昭和町３丁目２番１０号,,13,207,1960015,,,,,,,2025-08-18,1,,,,,エッズジュエリー,0
2028,8012803003823,新規,0,2025-08-18,2025-08-18,Ｂｒａｖａｎｃｅ合同会社,,合同会社,東京都,昭島市,中神町１２３９―６０,,13,207,1960022,,,,,,,2025-08-18,1,,,,,ブレヴァンス,0
2036,8020001164264,新規,0,2025-08-18,2025-08-18,ナツメガーデン株式会社,,株式会社,神奈川県,川崎市幸区,新塚越１番地２,,14,132,2120027,,,,,,,2025-08-18,1,,,,,ナツメガーデン,0
2037,8020001164306,新規,0,2025-08-18,2025-08-18,株式会社横浜ｅ企画,,株式会社,神奈川県,横浜市中区,本牧大里町３３番８－２１３号,,14,104,2310823,,,,,,,2025-08-18,1,,,,,ヨコハマイーキカク,0
2040,8020003029119,新規,0,2025-08-18,2025-08-18,合同会社ＲＯＣＫＳ,,合同会社,神奈川県,川崎市麻生区,細山７丁目１３番１０号,,14,137,2150001,,,,,,,2025-08-18,1,,,,,ロックス,0
2041,8020003029135,新規,0,2025-08-18,2025-08-18,合同会社シンバイ,,合同会社,神奈川県,川崎市中原区,新城４丁目３番１５号大師ビル２Ｆ,,14,133,2110044,,,,,,,2025-08-18,1,,,,,シンバイ,0
2042,8020003029168,新規,0,2025-08-18,2025-08-18,合同会社ＤＲ．Ｋ,,合同会社,神奈川県,川崎市中原区,中丸子１３―１０リエトコートクラッシィータワー４３０６,,14,133,2110012,,,,,,,2025-08-18,1,,,,,ドクターケー,0
2046,8021001086011,新規,0,2025-08-18,2025-08-18,株式会社愛光,,株式会社,神奈川県,大和市,福田３６７６番地,,14,213,2420024,,,,,,,2025-08-18,1,,,,,アイコウ,0
2047,8021001086119,新規,0,2025-08-18,2025-08-18,ＳＷＯＯＮ　ＳＵＰＰＬＹ株式会社,,株式会社,神奈川県,鎌倉市,台１５２１番地１,,14,204,2470061,,,,,,,2025-08-18,1,,,,,スウーンサプライ,0
2048,8021005013416,新規,0,2025-08-18,2025-08-18,司法書士法人ひなた事務所,,その他の設立登記法人,神奈川県,藤沢市,藤沢９７６番地の２秀明ビル５階,,14,205,2510052,,,,,,,2025-08-18,1,,,,,ヒナタジムショ,0
2053,8030001168181,新規,0,2025-08-18,2025-08-18,としとし株式会社,,株式会社,埼玉県,深谷市,小前田４０９番地２,,11,218,3691246,,,,,,,2025-08-18,1,,,,,トシトシ,0
2054,8030001168207,新規,0,2025-08-18,2025-08-18,株式会社Ｌｅａｆ,,株式会社,埼玉県,川口市,中青木２丁目２番１７－３号,,11,203,3320032,,,,,,,2025-08-18,1,,,,,リーフ,0
2055,8030001168231,新規,0,2025-08-18,2025-08-18,株式会社ＢＷＰ,,株式会社,埼玉県,川口市,芝１丁目４２番８号,,11,203,3330866,,,,,,,2025-08-18,1,,,,,ビーダブルピー,0
2056,8030003027336,新規,0,2025-08-18,2025-08-18,合同会社Ｔｏｏ　Ｍｅｌｌｏｗ,,合同会社,埼玉県,所沢市,花園２丁目２４０９番地３０,,11,208,3590047,,,,,,,2025-08-18,1,,,,,トゥーメロー,0
2057,8030003027385,新規,0,2025-08-18,2025-08-18,安信合同会社,,合同会社,埼玉県,熊谷市,中央１丁目２３０高揚ビル３０１室,,11,202,3600018,,,,,,,2025-08-18,1,,,,,アンシン,0
2058,8030003027393,新規,0,2025-08-18,2025-08-18,合同会社エバーライス,,合同会社,埼玉県,さいたま市南区,南浦和２丁目３０番６号,,11,108,3360017,,,,,,,2025-08-18,1,,,,,エバーライス,0
2059,8030003027435,新規,0,2025-08-18,2025-08-18,ＦＭａｒｋ合同会社,,合同会社,埼玉県,戸田市,本町３丁目１５番２１－５０１号,,11,224,3350023,,,,,,,2025-08-18,1,,,,,エフマーク,0
2066,8040001140065,新規,0,2025-08-18,2025-08-18,株式会社ＲＭホーム,,株式会社,千葉県,市原市,君塚５丁目５番地１１,,12,219,2900051,,,,,,,2025-08-18,1,,,,,アールエムホーム,0
2067,8040001140073,新規,0,2025-08-18,2025-08-18,株式会社ＮＩＳＨＩＺＵＫＡホールディングス,,株式会社,千葉県,千葉市美浜区,真砂１丁目３番１７号,,12,106,2610011,,,,,,,2025-08-18,1,,,,,ニシヅカホールディングス,0
2072,8040003028151,新規,0,2025-08-18,2025-08-18,合同会社ウィナーズ,,合同会社,千葉県,柏市,若柴６９番地の１柏市公設市場内,,12,217,2770871,,,,,,,2025-08-18,1,,,,,ウィナーズ,0
2073,8040003028267,新規,0,2025-08-18,2025-08-18,ブルーバード合同会社,,合同会社,千葉県,勝浦市,墨名３６０番地の１３,,12,218,2995225,,,,,,,2025-08-18,1,,,,,ブルーバード,0
2077,8050003009489,新規,0,2025-08-18,2025-08-18,合同会社ねずみとふくろうず,,合同会社,茨城県,桜川市,真壁町下谷貝２４６５番地２,,08,231,3004426,,,,,,,2025-08-18,1,,,,,ネズミトフクロウズ,0
2078,8060001038514,新規,0,2025-08-18,2025-08-18,株式会社ＹＥＳメディカル,,株式会社,栃木県,宇都宮市,下栗１丁目２８番地２１,,09,201,3210924,,,,,,,2025-08-18,1,,,,,イエスメディカル,0
2085,8080401028121,新規,0,2025-08-18,2025-08-18,株式会社４ＬＩＦＥ,,株式会社,静岡県,浜松市浜名区,神宮寺町１９番４号,,22,139,4312216,,,,,,,2025-08-18,1,,,,,フォーライフ,0
2088,8100001038880,新規,0,2025-08-18,2025-08-18,すず農園株式会社,,株式会社,長野県,北佐久郡軽井沢町,大字長倉４３３番地１,,20,321,3890111,,,,,,,2025-08-18,1,,,,,スズノウエン,0
2089,8100003008337,新規,0,2025-08-18,2025-08-18,ＫＡＦＵＮＥ　ＧＲＯＵＰ合同会社,,合同会社,長野県,飯田市,北方３３２６番地２,,20,205,3950151,,,,,,,2025-08-18,1,,,,,カフネグループ,0
2098,8120001278871,新規,0,2025-08-18,2025-08-18,株式会社ヴォンドリータ,,株式会社,大阪府,大阪市北区,茶屋町７番２０－１８０２号,,27,127,5300013,,,,,,,2025-08-18,1,,,,,ヴォンドリータ,0
2101,8120003030272,新規,0,2025-08-18,2025-08-18,合同会社Ｔｒｙ　Ｓｙｓｔ,,合同会社,大阪府,大阪市住之江区,御崎７丁目１５番６２号ＪｏｈｎｓｏｎＨｅｉｍ１０２号,,27,125,5590013,,,,,,,2025-08-18,1,,,,,トライシスト,0
2102,8120003030306,新規,0,2025-08-18,2025-08-18,合同会社ＮＳＭ　Ｔｒａｄｉｎｇ　Ｉｎｔｅｒｎａｔｉｏｎａｌ,,合同会社,大阪府,大阪市浪速区,浪速東２丁目４番２－１０３号,,27,111,5560025,,,,,,,2025-08-18,1,,,,,エヌエスエムトレーディングインターナショナル,0
2107,8120103006643,新規,0,2025-08-18,2025-08-18,合同会社やまと,,合同会社,大阪府,富田林市,梅の里３丁目８番８号,,27,214,5840001,,,,,,,2025-08-18,1,,,,,ヤマト,0
2111,8120901051312,新規,0,2025-08-18,2025-08-18,米来株式会社,,株式会社,大阪府,吹田市,高城町１８番３４号－２０５号,,27,205,5640024,,,,,,,2025-08-18,1,,,,,ベイライ,0
2112,8120901051329,新規,0,2025-08-18,2025-08-18,株式会社ＳＣ,,株式会社,大阪府,茨木市,東中条町７番Ｃ－６０３号,,27,211,5670885,,,,,,,2025-08-18,1,,,,,エスシー,0
2113,8120901051337,新規,0,2025-08-18,2025-08-18,株式会社ｆａｍｉｌｉｅ,,株式会社,大阪府,茨木市,白川１丁目５番９号,,27,211,5670832,,,,,,,2025-08-18,1,,,,,ファミーリエ,0
2114,8120901051345,新規,0,2025-08-18,2025-08-18,ＭＹ　ｃｏｍｐａｎｙ株式会社,,株式会社,大阪府,高槻市,西町１２番１号,,27,207,5690854,,,,,,,2025-08-18,1,,,,,エムワイカンパニー,0
2116,8120903005794,新規,0,2025-08-18,2025-08-18,エーサーセレクト合同会社,,合同会社,大阪府,豊中市,螢池中町２丁目８－１７,,27,203,5600033,,,,,,,2025-08-18,1,,,,,エーサーセレクト,0
2117,8120903005803,新規,0,2025-08-18,2025-08-18,合同会社真真,,合同会社,大阪府,豊中市,西泉丘２丁目７４４番地の１（Ｂ－４１３号）,,27,203,5610862,,,,,,,2025-08-18,1,,,,,シンシン,0
2119,8122001039543,新規,0,2025-08-18,2025-08-18,株式会社ＦＡＳＭ,,株式会社,大阪府,東大阪市,長田中１丁目５番１８－１１０６号,,27,227,5770013,,,,,,,2025-08-18,1,,,,,ファズム,0
2120,8122003003290,新規,0,2025-08-18,2025-08-18,合同会社ＦＯＯＤＣＲＡＦＴ,,合同会社,大阪府,大東市,三箇６丁目２０番２３号,,27,218,5740077,,,,,,,2025-08-18,1,,,,,フードクラフト,0
2124,8130001080302,新規,0,2025-08-18,2025-08-18,株式会社トラップ,,株式会社,京都府,久世郡久御山町,佐山西ノ口１番地１０,,26,322,6130034,,,,,,,2025-08-18,1,,,,,トラップ,0
2126,8140001139642,新規,0,2025-08-18,2025-08-18,Ｈｏｊｏ株式会社,,株式会社,兵庫県,神戸市兵庫区,永沢町４丁目２－１１－４０１,,28,105,6520816,,,,,,,2025-08-18,1,,,,,ホウジョウ,0
2127,8140001139650,新規,0,2025-08-18,2025-08-18,ビーバー管理株式会社,,株式会社,兵庫県,西宮市,上甲東園４丁目４番３号,,28,204,6620813,,,,,,,2025-08-18,1,,,,,ビーバーカンリ,0
2128,8140001139691,新規,0,2025-08-18,2025-08-18,株式会社ＹＬＫ,,株式会社,兵庫県,尼崎市,武庫之荘８丁目２７番７号,,28,202,6610035,,,,,,,2025-08-18,1,,,,,ワイエルケー,0
2129,8140005027604,新規,0,2025-08-18,2025-08-18,一般社団法人中日ＧＩ産品流通促進協会,,その他の設立登記法人,兵庫県,神戸市中央区,加納町２丁目６番２０－９０２号,,28,110,6500001,,,,,,,2025-08-18,1,,,,,チュウニチジーアイサンピンリュウツウソクシンキョウカイ,0
2139,8180001168118,新規,0,2025-08-18,2025-08-18,株式会社ＲＥＳＴＡＲＴ,,株式会社,愛知県,清須市,阿原星の宮２８番地,,23,233,4520901,,,,,,,2025-08-18,1,,,,,リスタート,0
2140,8180001168134,新規,0,2025-08-18,2025-08-18,株式会社ジーエスコンサルティング,,株式会社,愛知県,名古屋市中区,丸の内１丁目１６番１５号名古屋シミズ富国生命ビル７階,,23,106,4600002,,,,,,,2025-08-18,1,,,,,ジーエスコンサルティング,0
2141,8180001168142,新規,0,2025-08-18,2025-08-18,株式会社Ｌｉｖｅ　Ｌｏｖｅｒ,,株式会社,愛知県,名古屋市中区,新栄２丁目２番１号,,23,106,4600007,,,,,,,2025-08-18,1,,,,,ライブラバー,0
2142,8180001168150,新規,0,2025-08-18,2025-08-18,株式会社荒木刷毛店,,株式会社,愛知県,名古屋市中村区,太閤通５丁目４６番地,,23,105,4530811,,,,,,,2025-08-18,1,,,,,アラキハケテン,0
2146,8180301040117,新規,0,2025-08-18,2025-08-18,株式会社Ｍ．Ｙ,,株式会社,愛知県,豊川市,一宮町栄１４番地,,23,207,4411231,,,,,,,2025-08-18,1,,,,,マヨ,0
2150,8190001032479,新規,0,2025-08-18,2025-08-18,ＡＢＩＲＡ株式会社,,株式会社,三重県,鈴鹿市,土師町６２０番地の１,,24,207,5130812,,,,,,,2025-08-18,1,,,,,アビラ,0
2157,8220005008991,新規,0,2025-08-18,2025-08-18,トーカンマンション犀川南管理組合法人,,その他の設立登記法人,石川県,金沢市,増泉２丁目２１番２５号,,17,201,9218025,,,,,,,2025-08-18,1,,,,,トーカンマンションサイガワミナミ,0
2158,8230001021048,新規,0,2025-08-18,2025-08-18,オンリーワンライフインベストメント株式会社,,株式会社,富山県,富山市,中島４丁目２番１４号,,16,201,9300801,,,,,,,2025-08-18,1,,,,,オンリーワンライフインベストメント,0
2164,8260003005302,新規,0,2025-08-18,2025-08-18,合同会社ＢＲＵＳＨＷＯＯＤ　ＳＴＵＤＩＯ,,合同会社,岡山県,岡山市北区,中山下１丁目１１番１５号新田第１ビル４０２,,33,101,7000821,,,,,,,2025-08-18,1,,,,,ブラッシュウッドスタジオ,0
2172,8290001111058,新規,0,2025-08-18,2025-08-18,株式会社アーチ,,株式会社,福岡県,春日市,桜ヶ丘５丁目１６番地ＭＪＲ春日桜ヶ丘１０２号,,40,218,8160872,,,,,,,2025-08-18,1,,,,,アーチ,0
2173,8290001111074,新規,0,2025-08-18,2025-08-18,株式会社栄彩也,,株式会社,福岡県,太宰府市,五条２丁目２番３５号,,40,221,8180125,,,,,,,2025-08-18,1,,,,,エイサイヤ,0
2176,8290003017261,新規,0,2025-08-18,2025-08-18,アンスバイオテクノロジー合同会社,,合同会社,福岡県,大野城市,大城５丁目１８番５号１０３号,,40,219,8160911,,,,,,,2025-08-18,1,,,,,アンスバイオテクノロジー,0
2179,8310001019752,新規,0,2025-08-18,2025-08-18,株式会社Ｄｅｌｉｃｉｏｕｓ　Ｌａｂｏ,,株式会社,長崎県,長崎市,出島町１番１号１０２,,42,201,8500862,,,,,,,2025-08-18,1,,,,,デリシャスラボ,0
2180,8310005008867,新規,0,2025-08-18,2025-08-18,一般社団法人日本カーボンクレジット産業振興協会,,その他の設立登記法人,長崎県,大村市,池田新町７６３番地１４４,,42,205,8560029,,,,,,,2025-08-18,1,,,,,ニホンカーボンクレジットサンギョウシンコウキョウカイ,0
2185,8330003011177,新規,0,2025-08-18,2025-08-18,合同会社ＳＨＩＮＳＥＩ,,合同会社,熊本県,水俣市,丸島町３丁目３番２２号,,43,205,8670058,,,,,,,2025-08-18,1,,,,,シンセイ,0
2187,8340003004931,新規,0,2025-08-18,2025-08-18,合同会社ｈｕｓ,,合同会社,鹿児島県,鹿屋市,海道町７５３番地,,46,203,8912303,,,,,,,2025-08-18,1,,,,,フース,0
2191,8360001035638,新規,0,2025-08-18,2025-08-18,株式会社Ｄ．Ｃ．Ｓユニティ,,株式会社,沖縄県,中頭郡嘉手納町,字水釜１１８－４－１Ｆ東,,47,325,9040204,,,,,,,2025-08-18,1,,,,,ディシィエスユニティ,0
2199,8370001052954,新規,0,2025-08-18,2025-08-18,Ｒｏｏｔｉｖ株式会社,,株式会社,宮城県,仙台市泉区,泉中央２丁目２１番地の１－５０５号,,04,105,9813133,,,,,,,2025-08-18,1,,,,,ルーティブ,0
2201,8370003007254,新規,0,2025-08-18,2025-08-18,さんらいふ合同会社,,合同会社,宮城県,気仙沼市,唐桑町浦６７番地１５,,04,205,9880581,,,,,,,2025-08-18,1,,,,,サンライフ,0
2202,8380001035504,新規,0,2025-08-18,2025-08-18,株式会社ケルンケルン,,株式会社,福島県,双葉郡浪江町,大字川添字蔵前２２番地,,07,547,9791531,,,,,,,2025-08-18,1,,,,,ケルンケルン,0
2206,8400001017144,新規,0,2025-08-18,2025-08-18,株式会社ＮＥＷ　ＣＯＲＲＥＣＴ,,株式会社,岩手県,宮古市,宮町１丁目３番１７号,,03,202,0270052,,,,,,,2025-08-18,1,,,,,ニューコレクト,0
2211,8430001095006,新規,0,2025-08-18,2025-08-18,農機商事株式会社,,株式会社,北海道,白老郡白老町,字石山２０番地１,,01,578,0590921,,,,,,,2025-08-18,1,,,,,ノウキショウジ,0
2212,8430001095022,新規,0,2025-08-18,2025-08-18,株式会社オフィスヒロ,,株式会社,北海道,札幌市白石区,北郷三条８丁目５番２４号,,01,104,0030833,,,,,,,2025-08-18,1,,,,,オフィスヒロ,0
2213,8430001095030,新規,0,2025-08-18,2025-08-18,株式会社オビオス,,株式会社,北海道,札幌市北区,北七条西１丁目１番地２,,01,102,0600807,,,,,,,2025-08-18,1,,,,,オビオス,0
2215,8430003017973,新規,0,2025-08-18,2025-08-18,合同会社希ｄａｉｌｙｆｏｏｄｓｅｒｖｉｃｅ,,合同会社,北海道,札幌市白石区,北郷一条４丁目６番２７号,,01,104,0030831,,,,,,,2025-08-18,1,,,,,ノゾミデイリーフードサービス,0
2216,8430003017981,新規,0,2025-08-18,2025-08-18,合同会社ｋｅｉｔｏｎｏｋｏ,,合同会社,北海道,札幌市南区,澄川五条１２丁目３番２１号,,01,106,0050005,,,,,,,2025-08-18,1,,,,,ケイトノコ,0
2220,8700150131822,新規,0,2025-08-18,2025-08-18,ＧＬＯＢＡＬ　ＭＯＴＯＲ　ＴＲＡＤＥＲＳ,,外国会社等,茨城県,古河市,諸川１５９４,,08,204,3060126,スリランカ民主社会主義共和国、キャンディ、マハイヤワ、Ｎｏ．１６／２,,,,,,2025-08-18,1,,,,,グローバルモータートレーダース,0
2221,8700150131830,新規,0,2025-08-18,2025-08-18,ＫＡＮＤＵＲＡＴＡ　ＭＯＴＯＲＳ,,外国会社等,茨城県,古河市,諸川１５９４－Ａ,,08,204,3060126,スリランカ民主社会主義共和国、ウェランボーダ、アラスワッタ、グルデニヤＮｏ．２０／１,,,,,,2025-08-18,1,,,,,カンドウラタモーターズ,0
2226,9010001257729,新規,0,2025-08-18,2025-08-18,株式会社フロンティアスペース,,株式会社,東京都,中央区,築地１丁目４番２－１４０４号,,13,102,1040045,,,,,,,2025-08-18,1,,,,,,0
2227,9010001257745,新規,0,2025-08-18,2025-08-18,ｉＦＰ　Ｇｒｅｅｎ　Ｔｅｃｈｎｏｌｏｇｙ株式会社,,株式会社,東京都,千代田区,霞が関３丁目２番６号東京倶楽部ビルディング１１階,,13,101,1000013,,,,,,,2025-08-18,1,,,,,アイエフピーグリーンテクノロジー,0
2228,9010001257753,新規,0,2025-08-18,2025-08-18,株式会社ＺＥＫＫＥＩ　Ｅｎｔｅｒｔａｉｎｍｅｎｔ,,株式会社,東京都,千代田区,神田和泉町１番地６－１６,,13,101,1010024,,,,,,,2025-08-18,1,,,,,ゼッケイエンターテインメント,0
2229,9010001257786,新規,0,2025-08-18,2025-08-18,株式会社共生フォーラム,,株式会社,東京都,千代田区,内神田２丁目７番１３号,,13,101,1010047,,,,,,,2025-08-18,1,,,,,キョウセイフォーラム,0
2233,9010003048366,新規,0,2025-08-18,2025-08-18,Ｌｙｔｒｉｘ　ＡＩ合同会社,,合同会社,東京都,千代田区,丸の内２丁目３－２郵船ビルディング１階,,13,101,1000005,,,,,,,2025-08-18,1,,,,,ライトリクスエーアイ,0
2234,9010003048399,新規,0,2025-08-18,2025-08-18,Ｋ＆ＡＣＴ合同会社,,合同会社,東京都,千代田区,神田須田町１丁目７番地８ＶＯＲＴ秋葉原ＩＶ２Ｆ,00140315,13,101,1010041,,,,,,,2025-08-18,1,,,,,ケーアンドアクト,0
2237,9010005040544,新規,0,2025-08-18,2025-08-18,Ｓｐｒｉｎｔ　Ａｒｍ２一般社団法人,,その他の設立登記法人,東京都,千代田区,霞が関３丁目２番５号,,13,101,1000013,,,,,,,2025-08-18,1,,,,,スプリントアームツー,0
2248,9010401192435,新規,0,2025-08-18,2025-08-18,株式会社アークプラス,,株式会社,東京都,港区,芝大門１丁目２－１４,,13,103,1050012,,,,,,,2025-08-18,1,,,,,アークプラス,0
2250,9010403035749,新規,0,2025-08-18,2025-08-18,ＬＡＳ難波合同会社,,合同会社,東京都,港区,元赤坂１丁目１番７号,,13,103,1070051,,,,,,,2025-08-18,1,,,,,エルエーエスナンバ,0
2253,9010601067817,新規,0,2025-08-18,2025-08-18,株式会社ヴィクトリーフォース,,株式会社,東京都,墨田区,緑３丁目７番１４－４０５号,,13,107,1300021,,,,,,,2025-08-18,1,,,,,ヴィクトリーフォース,0
2256,9010701048155,新規,0,2025-08-18,2025-08-18,株式会社トップオン,,株式会社,東京都,品川区,西五反田２丁目２９番１０－２０１号,,13,109,1410031,,,,,,,2025-08-18,1,,,,,トップオン,0
2263,9010903010193,新規,0,2025-08-18,2025-08-18,合同会社ＧＯＯＤＤ　ＦＡＢ,,合同会社,東京都,世田谷区,下馬１丁目４５番７号パレスハイム２０１,,13,112,1540002,,,,,,,2025-08-18,1,,,,,グッドファブ,0
2264,9010903010202,新規,0,2025-08-18,2025-08-18,合同会社ＳｏｐｏＷｏｒｋｓ,,合同会社,東京都,世田谷区,太子堂４丁目１８番１５号マガザン三軒茶屋２－３Ｆ－３,,13,112,1540004,,,,,,,2025-08-18,1,,,,,ソポワークス,0
2265,9011001171333,新規,0,2025-08-18,2025-08-18,株式会社スノーボール,,株式会社,東京都,渋谷区,神宮前６丁目２３番４号桑野ビル２階,,13,113,1500001,,,,,,,2025-08-18,1,,,,,スノーボール,0
2266,9011001171374,新規,0,2025-08-18,2025-08-18,ＲＥＯｒＧＡ　ｃｏｎｎｅｃｔ株式会社,,株式会社,東京都,渋谷区,代々木１丁目１９－１２新代々木ビル５階,,13,113,1510053,,,,,,,2025-08-18,1,,,,,リオーガコネクト,0
2271,9011101112708,新規,0,2025-08-18,2025-08-18,幸福株式会社,,株式会社,東京都,新宿区,西落合１丁目３３番２７－３号,,13,104,1610031,,,,,,,2025-08-18,1,,,,,コウフク,0
2272,9011303005676,新規,0,2025-08-18,2025-08-18,マウントフジ合同会社,,合同会社,東京都,杉並区,高円寺南２丁目４８番７号,,13,115,1660003,,,,,,,2025-08-18,1,,,,,マウントフジ,0
2277,9011501032448,新規,0,2025-08-18,2025-08-18,株式会社ゴービヨンド,,株式会社,東京都,荒川区,南千住８丁目１１番１－８０８号,,13,118,1160003,,,,,,,2025-08-18,1,,,,,ゴービヨンド,0
2281,9011701028634,新規,0,2025-08-18,2025-08-18,株式会社ＺＥＮＴＯ,,株式会社,東京都,江戸川区,東葛西９丁目５番２８号,,13,123,1340084,,,,,,,2025-08-18,1,,,,,ゼント,0
2285,9011801046610,新規,0,2025-08-18,2025-08-18,株式会社森経営相談所,,株式会社,東京都,葛飾区,堀切１丁目１番４号ＡＪ四ツ木Ｉ３０３,00140320,13,122,1240006,,,,,,,2025-08-18,1,,,,,モリケイエイソウダンジョ,0
2287,9012301014504,新規,0,2025-08-18,2025-08-18,株式会社エイト,,株式会社,東京都,町田市,金森２丁目３３番３３号,,13,209,1940012,,,,,,,2025-08-18,1,,,,,エイト,0
2290,9012401043493,新規,0,2025-08-18,2025-08-18,株式会社安斉電気,,株式会社,東京都,府中市,新町１丁目４１番地の５,,13,206,1830052,,,,,,,2025-08-18,1,,,,,アンザイデンキ,0
2292,9012703003336,新規,0,2025-08-18,2025-08-18,合同会社ＴＨＥ　ＰｉＮＰＯｉＮＴ,,合同会社,東京都,西東京市,向台町２丁目３番３２号,,13,229,1880013,,,,,,,2025-08-18,1,,,,,ザピンポイント,0
2303,9020001164073,新規,0,2025-08-18,2025-08-18,株式会社イトウメリオル,,株式会社,神奈川県,横浜市磯子区,杉田坪呑６番１５号,,14,107,2350034,,,,,,,2025-08-18,1,,,,,イトウメリオル,0
2304,9020001164296,新規,0,2025-08-18,2025-08-18,瑞士釘株式会社,,株式会社,神奈川県,川崎市中原区,上新城２丁目４番１５号,,14,133,2110045,,,,,,,2025-08-18,1,,,,,レイスティ,0
2305,9020001164313,新規,0,2025-08-18,2025-08-18,株式会社サントラスト,,株式会社,神奈川県,川崎市高津区,諏訪２丁目５番８－１号,,14,134,2130004,,,,,,,2025-08-18,1,,,,,サントラスト,0
2306,9020001164395,新規,0,2025-08-18,2025-08-18,株式会社ＡＲＭＯＮＩＯＳＯ,,株式会社,神奈川県,川崎市多摩区,登戸６９番地２階,,14,135,2140014,,,,,,,2025-08-18,1,,,,,アルモニオーソ,0
2312,9020003029175,新規,0,2025-08-18,2025-08-18,エスグロー合同会社,,合同会社,神奈川県,川崎市中原区,新城３丁目１３番５号,,14,133,2110044,,,,,,,2025-08-18,1,,,,,エスグロー,0
2319,9030001168081,新規,0,2025-08-18,2025-08-18,株式会社音翔,,株式会社,埼玉県,久喜市,高柳１９３９－３,,11,232,3491125,,,,,,,2025-08-18,1,,,,,オト,0
2320,9030001168206,新規,0,2025-08-18,2025-08-18,輝翔株式会社,,株式会社,埼玉県,八潮市,大字鶴ケ曽根１６１６番地,,11,234,3400802,,,,,,,2025-08-18,1,,,,,キショウ,0
2321,9030001168214,新規,0,2025-08-18,2025-08-18,株式会社翔耀建設,,株式会社,埼玉県,所沢市,大字下富１２０９番地の１２,,11,208,3590001,,,,,,,2025-08-18,1,,,,,ショウヨウケンセツ,0
2322,9030001168222,新規,0,2025-08-18,2025-08-18,株式会社越辺プランニング,,株式会社,埼玉県,坂戸市,大字島田４０３番地,,11,239,3500211,,,,,,,2025-08-18,1,,,,,オッペプランニング,0
2329,9040001140048,新規,0,2025-08-18,2025-08-18,株式会社アイビー,,株式会社,千葉県,君津市,笹１７４３番地２５,,12,225,2920526,,,,,,,2025-08-18,1,,,,,アイビー,0
2330,9040001140064,新規,0,2025-08-18,2025-08-18,株式会社Ｇ＆Ｇ,,株式会社,千葉県,八千代市,緑が丘西４丁目５番１２号,,12,221,2760040,,,,,,,2025-08-18,1,,,,,ジーアンドジー,0
2336,9040003028233,新規,0,2025-08-18,2025-08-18,合同会社小川内装,,合同会社,千葉県,旭市,ニの２１９３番地１２,,12,215,2892504,,,,,,,2025-08-18,1,,,,,オガワナイソウ,0
2337,9040003028258,新規,0,2025-08-18,2025-08-18,ＧＲＯＷ　ＬＥＡＤＩＮＧ　ＷＡＹ合同会社,,合同会社,千葉県,八街市,山田台１２１０番地１４７,,12,230,2891124,,,,,,,2025-08-18,1,,,,,グロウリーディングウェイ,0
2338,9040003028266,新規,0,2025-08-18,2025-08-18,合同会社Ｍアセットマネジメント,,合同会社,千葉県,市原市,更級２丁目１番地１９,,12,219,2900050,,,,,,,2025-08-18,1,,,,,エムアセットマネジメント,0
2339,9040003028282,新規,0,2025-08-18,2025-08-18,合同会社三谷運送,,合同会社,千葉県,印旛郡酒々井町,東酒々井６丁目６－７－３０５,,12,322,2850923,,,,,,,2025-08-18,1,,,,,ミタニウンソウ,0
2345,9060001038505,新規,0,2025-08-18,2025-08-18,株式会社ＴＡＺＵＹＡ,,株式会社,栃木県,栃木市,祝町２番２９号,,09,203,3280052,,,,,,,2025-08-18,1,,,,,タズヤ,0
2348,9060003005692,新規,0,2025-08-18,2025-08-18,合同会社ＹＵＮＯＨＡ,,合同会社,栃木県,宇都宮市,山本１丁目２６番１号－ＣＥＮＴＵＲＩＯＮ１０５,,09,201,3200012,,,,,,,2025-08-18,1,,,,,ユノハ,0
2354,9080401028120,新規,0,2025-08-18,2025-08-18,慧株式会社,,株式会社,静岡県,浜松市中央区,伝馬町６０番地の３竹本ビル２階,,22,138,4300935,,,,,,,2025-08-18,1,,,,,ケイ,0
2355,9080403005332,新規,0,2025-08-18,2025-08-18,ＳＵＭＩＴＨ　ＩＮＴＥＲＮＡＴＩＯＮＡＬ合同会社,,合同会社,静岡県,御前崎市,塩原新田８３５‐１サンビレッジ１０５,,22,223,4371614,,,,,,,2025-08-18,1,,,,,スミスインターナショナル,0
2364,9120001278838,新規,0,2025-08-18,2025-08-18,株式会社スペラレ,,株式会社,大阪府,大阪市中央区,南船場３丁目２番２２号おおきに南船場ビル２０５,,27,128,5420081,,,,,,,2025-08-18,1,,,,,スペラレ,0
2365,9120001278854,新規,0,2025-08-18,2025-08-18,与富貿易株式会社,,株式会社,大阪府,大阪市北区,南森町１丁目４番１１号,,27,127,5300054,,,,,,,2025-08-18,1,,,,,ヨブボウエキ,0
2366,9120001278862,新規,0,2025-08-18,2025-08-18,株式会社Ｓｏｌ,,株式会社,大阪府,大阪市阿倍野区,三明町２丁目６番４号,,27,119,5450005,,,,,,,2025-08-18,1,,,,,ソル,0
2367,9120001278870,新規,0,2025-08-18,2025-08-18,株式会社ＪＰ．ＬＡＢ,,株式会社,大阪府,大阪市中央区,南船場２丁目７番１４号大阪写真会館２０４,,27,128,5420081,,,,,,,2025-08-18,1,,,,,ジェーピーラボ,0
2371,9120003030305,新規,0,2025-08-18,2025-08-18,合同会社ａｉｌｅ,,合同会社,大阪府,大阪市住吉区,南住吉３丁目１０－２４,,27,120,5580041,,,,,,,2025-08-18,1,,,,,アイル,0
2375,9120103006642,新規,0,2025-08-18,2025-08-18,ＳＯＲＡＳＵ合同会社,,合同会社,大阪府,堺市北区,大豆塚町２丁５番地１ＦＫマンションＩＩ２０１号,00140314,27,146,5918042,,,,,,,2025-08-18,1,,,,,,0
2376,9120901051352,新規,0,2025-08-18,2025-08-18,株式会社彩,,株式会社,大阪府,豊中市,長興寺南４丁目７番１６の２号,,27,203,5610874,,,,,,,2025-08-18,1,,,,,イロドリ,0
2380,9122001039542,新規,0,2025-08-18,2025-08-18,株式会社ＷＥＳＴ,,株式会社,大阪府,東大阪市,近江堂２丁目９番３４号,,27,227,5770817,,,,,,,2025-08-18,1,,,,,ウエスト,0
2381,9122001039559,新規,0,2025-08-18,2025-08-18,株式会社ＨＡＲＥＲＵＹＡ,,株式会社,大阪府,大東市,諸福４丁目５番１０号,,27,218,5740044,,,,,,,2025-08-18,1,,,,,ハレルヤ,0
2384,9130001080268,新規,0,2025-08-18,2025-08-18,株式会社Ｅｔｅｌｌ＆Ｃｏ,,株式会社,京都府,京都市南区,上鳥羽唐戸町３番地の１,,26,107,6018108,,,,,,,2025-08-18,1,,,,,エテルアンドコー,0
2392,9140001139617,新規,0,2025-08-18,2025-08-18,利運株式会社,,株式会社,兵庫県,芦屋市,朝日ケ丘町１２番２１号,,28,206,6590012,,,,,,,2025-08-18,1,,,,,リウン,0
2393,9140001139666,新規,0,2025-08-18,2025-08-18,新日輝産業株式会社,,株式会社,兵庫県,神戸市灘区,青谷町３丁目２番２０－２０２号,,28,102,6570805,,,,,,,2025-08-18,1,,,,,シンニチコウサンギョウ,0
2394,9140001139699,新規,0,2025-08-18,2025-08-18,株式会社ＷｅｌｌＶｉａ,,株式会社,兵庫県,神戸市中央区,磯辺通１丁目１番１８号カサベラ国際プラザビル７０７号室,,28,110,6510084,,,,,,,2025-08-18,1,,,,,ウェルヴィア,0
2400,9160001027002,新規,0,2025-08-18,2025-08-18,株式会社リベルサーノ,,株式会社,滋賀県,草津市,西渋川２丁目８番３７－１９号,,25,206,5250025,,,,,,,2025-08-18,1,,,,,リベルサーノ,0
2401,9160005011431,新規,0,2025-08-18,2025-08-18,一般社団法人やさいごー,,その他の設立登記法人,滋賀県,大津市,坂本８丁目１１番４６号,,25,201,5200113,,,,,,,2025-08-18,1,,,,,ヤサイゴー,0
2409,9180001168133,新規,0,2025-08-18,2025-08-18,株式会社ＭＲＭ,,株式会社,愛知県,知多郡阿久比町,陽なたの丘１丁目１２３番地,,23,441,4702207,,,,,,,2025-08-18,1,,,,,エムアールエム,0
2410,9180001168141,新規,0,2025-08-18,2025-08-18,株式会社フラム,,株式会社,愛知県,名古屋市中区,丸の内１丁目５番３９号７０４号,,23,106,4600002,,,,,,,2025-08-18,1,,,,,フラム,0
2411,9180001168174,新規,0,2025-08-18,2025-08-18,株式会社武創Ｗｏｒｋｓ,,株式会社,愛知県,小牧市,小木南３丁目４９２番地１,,23,219,4850056,,,,,,,2025-08-18,1,,,,,タケソウワークス,0
2412,9180001168199,新規,0,2025-08-18,2025-08-18,ハタナカペインティングサービス株式会社,,株式会社,愛知県,名古屋市緑区,桶狭間巻山１７０９番地,,23,114,4580920,,,,,,,2025-08-18,1,,,,,ハタナカペインティングサービス,0
2413,9180001168232,新規,0,2025-08-18,2025-08-18,株式会社滝本モータース,,株式会社,愛知県,名古屋市中村区,中村町６丁目７７番地の２,,23,105,4530053,,,,,,,2025-08-18,1,,,,,タキモトモータース,0
2415,9180003028871,新規,0,2025-08-18,2025-08-18,スヴァルト合同会社,,合同会社,愛知県,名古屋市中村区,名駅４丁目２４番５号第２森ビル４０１,,23,105,4500002,,,,,,,2025-08-18,1,,,,,スヴァルト,0
2430,9260001040440,新規,0,2025-08-18,2025-08-18,株式会社セブン,,株式会社,岡山県,岡山市南区,妹尾２１８１番地１１,,33,104,7010205,,,,,,,2025-08-18,1,,,,,セブン,0
2431,9260001040457,新規,0,2025-08-18,2025-08-18,株式会社紗,,株式会社,岡山県,倉敷市,児島駅前１丁目５３番３号トラストビル,,33,202,7110921,,,,,,,2025-08-18,1,,,,,スズ,0
2436,9290001111040,新規,0,2025-08-18,2025-08-18,九州教育シューズ株式会社,,株式会社,福岡県,福岡市早良区,有田１丁目３４番６号,,40,137,8140033,,,,,,,2025-08-18,1,,,,,キュウシュウキョウイクシューズ,0
2437,9290001111073,新規,0,2025-08-18,2025-08-18,株式会社Ｙ’ｓステーション,,株式会社,福岡県,福岡市早良区,西新２丁目２１番１５－２０１号,,40,137,8140002,,,,,,,2025-08-18,1,,,,,ワイズステーション,0
2440,9290003017228,新規,0,2025-08-18,2025-08-18,合同会社ＪＯＯＮ企画,,合同会社,福岡県,福岡市西区,福重５丁目２１番２６号,,40,135,8190022,,,,,,,2025-08-18,1,,,,,ジュンキカク,0
2441,9290003017269,新規,0,2025-08-18,2025-08-18,合同会社Ｃｏｃｏｌｕｃｅ,,合同会社,福岡県,福岡市博多区,博多駅前１丁目２３番２号ＰａｒｋＦｒｏｎｔ博多駅前１丁目５Ｆ－Ｂ,,40,132,8120011,,,,,,,2025-08-18,1,,,,,ココルーチェ,0
2445,9310001019751,新規,0,2025-08-18,2025-08-18,株式会社Ｄ＆Ｋｇｒｏｕｐ,,株式会社,長崎県,北松浦郡佐々町,須崎免１８５番地１,,42,391,8570351,,,,,,,2025-08-18,1,,,,,ディーアンドケイ,0
2452,9330003011176,新規,0,2025-08-18,2025-08-18,合同会社ＡｄＶｉｓ,,合同会社,熊本県,宇城市,松橋町西下郷１４４０番地６,,43,213,8690534,,,,,,,2025-08-18,1,,,,,アドビス,0
2456,9350003005003,新規,0,2025-08-18,2025-08-18,合同会社ｍａｓｔｅｒ　ｐｉｅｃｅ,,合同会社,宮崎県,宮崎市,福島町３丁目２２－４,,45,201,8800946,,,,,,,2025-08-18,1,,,,,マスターピース,0
2458,9360001035620,新規,0,2025-08-18,2025-08-18,株式会社Ｏｋｉｎａｗａ　ｍｉｎｐａｋｕ,,株式会社,沖縄県,うるま市,字塩屋７５番地１,,47,213,9042231,,,,,,,2025-08-18,1,,,,,オキナワミンパク,0
2459,9360001035653,新規,0,2025-08-18,2025-08-18,ＳＫ　Ｉｎｔｅｒｎａｔｉｏｎａｌ株式会社,,株式会社,沖縄県,那覇市,おもろまち３丁目４番５－９０２号,,47,201,9000006,,,,,,,2025-08-18,1,,,,,エスケイインターナショナル,0
2465,9360003015182,新規,0,2025-08-18,2025-08-18,合同会社エージェントＢ,,合同会社,沖縄県,那覇市,牧志２丁目１７－２３,,47,201,9000013,,,,,,,2025-08-18,1,,,,,エージェントビー,0
2470,9420001019237,新規,0,2025-08-18,2025-08-18,株式会社片山建設,,株式会社,青森県,五所川原市,大字川山字森内１４３番地３,,02,205,0370094,,,,,,,2025-08-18,1,,,,,カタヤマケンセツ,0
2473,9430001094997,新規,0,2025-08-18,2025-08-18,株式会社ＮＫ‐ｕｓ,,株式会社,北海道,札幌市中央区,南五条西５丁目５番地１サンドゥビル７階Ｂ・Ｃ,,01,101,0640805,,,,,,,2025-08-18,1,,,,,エヌケーアス,0
2474,9430001095005,新規,0,2025-08-18,2025-08-18,株式会社ＥＡＳｉＮＥＳＳ,,株式会社,北海道,札幌市中央区,宮の森一条９丁目４番４号,,01,101,0640951,,,,,,,2025-08-18,1,,,,,イージネス,0
2475,9430001095013,新規,0,2025-08-18,2025-08-18,株式会社つくる,,株式会社,北海道,札幌市北区,北二十四条西１７丁目３番１号リバーサイドＮ２４－３０８号,,01,102,0010024,,,,,,,2025-08-18,1,,,,,ツクル,0
2476,9430001095079,新規,0,2025-08-18,2025-08-18,アルファコート旭川３・７地区開発株式会社,,株式会社,北海道,札幌市中央区,北一条東１丁目７番地１,,01,101,0600031,,,,,,,2025-08-18,1,,,,,アルファコートアサヒカワサンナナチクカイハツ,0
