sequenceNumber,corporateNumber,process,correct,updateDate,changeDate,name,nameImageId,kind,prefectureName,cityName,streetNumber,addressImageId,prefectureCode,cityCode,postCode,addressOutside,addressOutsideImageId,closeDate,closeCause,successorCorporateNumber,changeCause,assignmentDate,latest,enName,enPrefectureName,enCityName,enAddressOutside,furigana,hihyoji
5,1010001242795,新規,0,2024-03-06,2024-03-06,事務長ヘルプ株式会社,,株式会社,東京都,千代田区,外神田２丁目８番１２号クリオ千代田お茶の水４０４号室,,13,101,1010021,,,,,,,2024-03-06,1,,,,,ジムチョウヘルプ,0
6,1010001242804,新規,0,2024-03-06,2024-03-06,ＣｏｍＳｋｙ　Ｉｎｔｅｒｎｅｔ　Ｇｒｏｕｐ株式会社,,株式会社,東京都,中央区,日本橋箱崎町１７番８号７山京ビル７階３号室,,13,102,1030015,,,,,,,2024-03-06,1,,,,,コムスカイインタネットグループ,0
7,1010001242861,新規,0,2024-03-06,2024-03-06,株式会社ＱＵＥＥＮ　Ｅｎｔｅｒｔａｉｎｍｅｎｔ．,,株式会社,東京都,千代田区,麹町３丁目２番地１３ＴＨＥ千代田麹町ＴＯＷＥＲ４０１号,,13,101,1020083,,,,,,,2024-03-06,1,,,,,クイーンエンターテイメント,0
11,1010003043127,新規,0,2024-03-06,2024-03-06,合同会社ＰＨＯＥＮＩＸ１,,合同会社,東京都,千代田区,外神田５丁目１番１０号,,13,101,1010021,,,,,,,2024-03-06,1,,,,,フェニックスワン,0
12,1010003043143,新規,0,2024-03-06,2024-03-06,ＳＫ・ＲＩ・ＭＴ合同会社,,合同会社,東京都,文京区,本駒込５丁目１９番２－３０３号,,13,105,1130021,,,,,,,2024-03-06,1,,,,,エスケーアールアイエムティー,0
13,1010005037985,新規,0,2024-03-06,2024-03-06,一般社団法人第一建築サービス盟友会,,その他の設立登記法人,東京都,千代田区,二番町１２番地２,,13,101,1020084,,,,,,,2024-03-06,1,,,,,ダイイチケンチクサービスメイユウカイ,0
14,1010005037993,新規,0,2024-03-06,2024-03-06,土地家屋調査士法人キャスト,,その他の設立登記法人,東京都,千代田区,大手町２丁目７番１号ＴＯＫＩＷＡブリッジ２階,,13,101,1000004,,,,,,,2024-03-06,1,,,,,キャスト,0
19,1010401180785,新規,0,2024-03-06,2024-03-06,株式会社カワケンホールディングス,,株式会社,東京都,港区,西新橋３丁目５番９号,,13,103,1050003,,,,,,,2024-03-06,1,,,,,カワケンホールディングス,0
20,1010401180802,新規,0,2024-03-06,2024-03-06,株式会社ＣＥＳ,,株式会社,東京都,港区,北青山１丁目３番１号アールキューブ青山３階,,13,103,1070061,,,,,,,2024-03-06,1,,,,,シーイーエス,0
21,1010401180810,新規,0,2024-03-06,2024-03-06,株式会社みらいテラス,,株式会社,東京都,港区,港南４丁目６番地６号ワールドシティタワーズ３６０５号室,,13,103,1080075,,,,,,,2024-03-06,1,,,,,ミライテラス,0
28,1010705003601,新規,0,2024-03-06,2024-03-06,一般社団法人クラウドワーカーリスキリング協会,,その他の設立登記法人,東京都,品川区,上大崎２丁目１３番３０号,,13,109,1410021,,,,,,,2024-03-06,1,,,,,クラウドワーカーリスキリングキョウカイ,0
29,1010801034830,新規,0,2024-03-06,2024-03-06,株式会社平和島青果,,株式会社,東京都,大田区,大森東２丁目１番１８－３０２号,,13,111,1430012,,,,,,,2024-03-06,1,,,,,ヘイワジマセイカ,0
40,1011001160442,新規,0,2024-03-06,2024-03-06,株式会社Ｔ＆Ａ,,株式会社,東京都,渋谷区,代々木５丁目２３番７号,,13,113,1510053,,,,,,,2024-03-06,1,,,,,ティーアンドエイ,0
42,1011005010395,新規,0,2024-03-06,2024-03-06,一般社団法人ＴＡＩＹＵＵ,,その他の設立登記法人,東京都,目黒区,中町２丁目３番７号シャレー祐天寺カワベ第７－１０３,,13,110,1530065,,,,,,,2024-03-06,1,,,,,タイユウ,0
46,1011101106436,新規,0,2024-03-06,2024-03-06,株式会社ＧｒｅｅｎＥｎｅｒｇｙＰａｒｔｎｅｒｓ,,株式会社,東京都,新宿区,西新宿８丁目１７番２号ラトゥール新宿グランド３２０２号室,,13,104,1600023,,,,,,,2024-03-06,1,,,,,グリーンエナジーパートナーズ,0
47,1011103014166,新規,0,2024-03-06,2024-03-06,合同会社田中労働衛生コンサルタント,,合同会社,東京都,新宿区,北新宿２丁目６番２９－１３１０号,,13,104,1690074,,,,,,,2024-03-06,1,,,,,タナカエイセイコンサルタント,0
51,1011401025906,新規,0,2024-03-06,2024-03-06,マイルトレード株式会社,,株式会社,東京都,板橋区,中丸町１１番２号ワコーレ要町ビル１０階,,13,119,1730026,,,,,,,2024-03-06,1,,,,,マイルトレード,0
53,1011501030401,新規,0,2024-03-06,2024-03-06,株式会社きなこ,,株式会社,東京都,北区,赤羽西１丁目３８番１５号,,13,117,1150055,,,,,,,2024-03-06,1,,,,,キナコ,0
56,1011601027586,新規,0,2024-03-06,2024-03-06,ミツバチクリーンサービス株式会社,,株式会社,東京都,練馬区,北町３丁目１番１１－７０５号,,13,120,1790081,,,,,,,2024-03-06,1,,,,,ミツバチクリーンサービス,0
60,1011801043862,新規,0,2024-03-06,2024-03-06,Ｙ’ｓライン株式会社,,株式会社,東京都,足立区,栗原３丁目２３番６号第３オリエントビル３０５号,,13,121,1230842,,,,,,,2024-03-06,1,,,,,ワイズライン,0
62,1012703002923,新規,0,2024-03-06,2024-03-06,合同会社リバイブ,,合同会社,東京都,西東京市,保谷町３丁目１８番１０号,,13,229,2020015,,,,,,,2024-03-06,1,,,,,リバイブ,0
67,1013303007032,新規,0,2024-03-06,2024-03-06,合同会社翔雲,,合同会社,東京都,豊島区,東池袋２丁目３４番６号,,13,116,1700013,,,,,,,2024-03-06,1,,,,,ショウウン,0
71,1020001156061,新規,0,2024-03-06,2024-03-06,南洋興業株式会社,,株式会社,神奈川県,川崎市川崎区,貝塚１丁目４番１５－６０５号ライオンズマンション川崎第１０,00133968,14,131,2100014,,,,,,,2024-03-06,1,,,,,ナンヨウコウギョウ,0
72,1020001156094,新規,0,2024-03-06,2024-03-06,株式会社ｍｉｍｉ,,株式会社,神奈川県,横浜市都筑区,中川中央１丁目３０番１号,,14,118,2240003,,,,,,,2024-03-06,1,,,,,ミミ,0
73,1020001156103,新規,0,2024-03-06,2024-03-06,株式会社Ｆｒｏｎｔｉｅｒ　Ｐａｒｔｎｅｒｓ,,株式会社,神奈川県,横浜市中区,不老町１丁目２－７シャトレーイン横浜２０８,,14,104,2310032,,,,,,,2024-03-06,1,,,,,フロンティアパートナーズ,0
74,1020001156111,新規,0,2024-03-06,2024-03-06,株式会社デルマト,,株式会社,神奈川県,横浜市中区,元町４丁目１６８番地,,14,104,2310861,,,,,,,2024-03-06,1,,,,,デルマト,0
79,1020003025628,新規,0,2024-03-06,2024-03-06,合同会社Ｔａｋｅｈａｎａ,,合同会社,神奈川県,横浜市都筑区,中川中央１丁目２８番４－４０４号,,14,118,2240003,,,,,,,2024-03-06,1,,,,,タケハナ,0
80,1020003025652,新規,0,2024-03-06,2024-03-06,合同会社ＬＡ・ヴィタベラ,,合同会社,神奈川県,横浜市磯子区,杉田３丁目１２番Ｃ‐３０１号,,14,107,2350033,,,,,,,2024-03-06,1,,,,,ラヴィダベラ,0
81,1020003025669,新規,0,2024-03-06,2024-03-06,合同会社Ｓｍａｌｌ　Ｐｅａｃｅ,,合同会社,神奈川県,川崎市中原区,下新城１丁目６番１９号,,14,133,2110042,,,,,,,2024-03-06,1,,,,,スモールピース,0
86,1021001081613,新規,0,2024-03-06,2024-03-06,株式会社寿和トラスト,,株式会社,神奈川県,相模原市南区,相模大野３丁目１１－１０－７Ｆ,,14,153,2520303,,,,,,,2024-03-06,1,,,,,スワトラスト,0
87,1021001081638,新規,0,2024-03-06,2024-03-06,Ｃｏｄｅ　Ｗｈｉｓｋｅｒｓ株式会社,,株式会社,神奈川県,横須賀市,追浜町２丁目７４－７,,14,201,2370064,,,,,,,2024-03-06,1,,,,,コードウィスカーズ,0
94,1030001158924,新規,0,2024-03-06,2024-03-06,株式会社ＫＡＦＡ,,株式会社,埼玉県,さいたま市北区,日進町２丁目１９１６番地５・６１２,,11,102,3310823,,,,,,,2024-03-06,1,,,,,カーファ,0
95,1030001158998,新規,0,2024-03-06,2024-03-06,株式会社ｔｏｎｔｏｎ,,株式会社,埼玉県,上尾市,宮本町１１番１３号松本ビル１０２号室,,11,219,3620036,,,,,,,2024-03-06,1,,,,,トントン,0
96,1030001159014,新規,0,2024-03-06,2024-03-06,ｉｆ株式会社,,株式会社,埼玉県,川越市,南大塚２丁目５番地１１セントポーリア４０３号室,,11,201,3501162,,,,,,,2024-03-06,1,,,,,イフ,0
97,1030001159022,新規,0,2024-03-06,2024-03-06,Ｃｉｎｑ　Ｃｈａｒｓ株式会社,,株式会社,埼玉県,さいたま市見沼区,大字風渡野７８番地１大宮七里パーク・ホームズ７０１,,11,104,3370017,,,,,,,2024-03-06,1,,,,,サンクシャール,0
98,1030001159030,新規,0,2024-03-06,2024-03-06,株式会社グラスウェルド,,株式会社,埼玉県,草加市,遊馬町６６０番地４,,11,221,3400032,,,,,,,2024-03-06,1,,,,,グラスウェルド,0
99,1030001159039,新規,0,2024-03-06,2024-03-06,フラワー・ホームハンズ株式会社,,株式会社,埼玉県,春日部市,備後東８丁目２番２４号,,11,214,3440032,,,,,,,2024-03-06,1,,,,,フラワーホームハンズ,0
100,1030001159055,新規,0,2024-03-06,2024-03-06,株式会社リベリ,,株式会社,埼玉県,川口市,芝新町４－８ＵＲＢＡＮＦＯＲＵＭ蕨５Ｆ,,11,203,3330851,,,,,,,2024-03-06,1,,,,,リベリ,0
101,1030001159071,新規,0,2024-03-06,2024-03-06,株式会社ＡｎＴ,,株式会社,埼玉県,蕨市,北町４丁目１０番１１号,,11,223,3350001,,,,,,,2024-03-06,1,,,,,アント,0
106,1030003023746,新規,0,2024-03-06,2024-03-06,研屋榎本合同会社,,合同会社,埼玉県,和光市,本町１３番６４号,,11,229,3510114,,,,,,,2024-03-06,1,,,,,トギヤエノモト,0
107,1030003023762,新規,0,2024-03-06,2024-03-06,合同会社ＭＡＴ,,合同会社,埼玉県,朝霞市,膝折町２丁目６番５１号ＰｒｉｍａＳｔｅｌｌａ１０１,,11,227,3510014,,,,,,,2024-03-06,1,,,,,エムエイティ,0
114,1040001132473,新規,0,2024-03-06,2024-03-06,株式会社住宅整理サポートみゆき,,株式会社,千葉県,市川市,南行徳２丁目１２番２２号,,12,203,2720138,,,,,,,2024-03-06,1,,,,,ジュウタクセイリサポートミユキ,0
115,1040001132548,新規,0,2024-03-06,2024-03-06,クアリ株式会社,,株式会社,千葉県,柏市,松ケ崎２４４番地３－３０２号,,12,217,2770835,,,,,,,2024-03-06,1,,,,,クアリ,0
118,1040003024462,新規,0,2024-03-06,2024-03-06,合同会社モリショウ,,合同会社,千葉県,市川市,新井２丁目５番４号,,12,203,2720144,,,,,,,2024-03-06,1,,,,,モリショウ,0
119,1040003024487,新規,0,2024-03-06,2024-03-06,合同会社ＯＳＲ,,合同会社,千葉県,市原市,寺谷２１番地２４,,12,219,2900236,,,,,,,2024-03-06,1,,,,,オウエスアール,0
127,1050001054403,新規,0,2024-03-06,2024-03-06,ＦＲＥＥＳＩＡ株式会社,,株式会社,茨城県,結城市,大字結城８６５６番地９,,08,207,3070001,,,,,,,2024-03-06,1,,,,,フリージア,0
128,1050001054411,新規,0,2024-03-06,2024-03-06,株式会社谷組,,株式会社,茨城県,つくば市,東新井１３番地３中村ビル２０３号,,08,220,3050033,,,,,,,2024-03-06,1,,,,,タニグミ,0
129,1050003008175,新規,0,2024-03-06,2024-03-06,１Ｏ１合同会社,,合同会社,茨城県,土浦市,おおつ野８丁目２番２４号,,08,203,3000028,,,,,,,2024-03-06,1,,,,,ワンオーワン,0
131,1060001036879,新規,0,2024-03-06,2024-03-06,スズキホールディングス株式会社,,株式会社,栃木県,下都賀郡壬生町,大字藤井１０８６番地３,,09,361,3210221,,,,,,,2024-03-06,1,,,,,スズキホールディングス,0
132,1060001036887,新規,0,2024-03-06,2024-03-06,株式会社ＰＡＮ,,株式会社,栃木県,佐野市,栃本町１４９８番地１,,09,204,3270312,,,,,,,2024-03-06,1,,,,,ピーエーエヌ,0
144,1080003003140,新規,0,2024-03-06,2024-03-06,合同会社ＲＤ,,合同会社,静岡県,静岡市葵区,千代田３丁目１２番３－１号,,22,101,4200803,,,,,,,2024-03-06,1,,,,,アールディー,0
149,1080105006405,新規,0,2024-03-06,2024-03-06,一般社団法人日本中国茶ペアリング協会,,その他の設立登記法人,静岡県,伊東市,八幡野１１９８番地の１８,,22,208,4130232,,,,,,,2024-03-06,1,,,,,ニホンチュウゴクチャペアリングキョウカイ,0
154,1080401027039,新規,0,2024-03-06,2024-03-06,株式会社蔵前家,,株式会社,静岡県,浜松市浜名区,細江町中川７１７２番地の２５２２,,22,139,4311304,,,,,,,2024-03-06,1,,,,,クラマエヤ,0
165,1110001038226,新規,0,2024-03-06,2024-03-06,株式会社ｒａｇｕｓ,,株式会社,新潟県,新潟市中央区,花町２０６９番地新潟花町ビル９階,,15,103,9518056,,,,,,,2024-03-06,1,,,,,ラグス,0
182,1120001262840,新規,0,2024-03-06,2024-03-06,蘇亜株式会社,,株式会社,大阪府,大阪市天王寺区,北山町９番４０号,,27,109,5430035,,,,,,,2024-03-06,1,,,,,ソア,0
200,1122001037883,新規,0,2024-03-06,2024-03-06,木村金属株式会社,,株式会社,大阪府,八尾市,新家町５丁目１番地の１,,27,212,5810811,,,,,,,2024-03-06,1,,,,,キムラキンゾク,0
201,1122003002811,新規,0,2024-03-06,2024-03-06,ＴＡＫＡＩＤＡ合同会社,,合同会社,大阪府,東大阪市,宝町１５－９,,27,227,5798025,,,,,,,2024-03-06,1,,,,,タカイダ,0
212,1140001133536,新規,0,2024-03-06,2024-03-06,株式会社ＵＳＹ,,株式会社,兵庫県,川西市,久代１丁目１０番８号今西倉庫第３倉庫南側,,28,217,6660024,,,,,,,2024-03-06,1,,,,,ユーエスワイ,0
213,1140001133577,新規,0,2024-03-06,2024-03-06,株式会社ＨＹフードサービス,,株式会社,兵庫県,芦屋市,平田町５番２５－１０２号,,28,206,6590074,,,,,,,2024-03-06,1,,,,,エイチワイフードサービス,0
214,1140001133585,新規,0,2024-03-06,2024-03-06,株式会社シナモンアンドブラウン,,株式会社,兵庫県,芦屋市,奥山１２番地２０３号,,28,206,6590002,,,,,,,2024-03-06,1,,,,,,0
216,1140003020229,新規,0,2024-03-06,2024-03-06,合同会社大貴,,合同会社,兵庫県,尼崎市,武庫之荘東１丁目８番２８号セルヴェール武庫之荘２０１,,28,202,6610032,,,,,,,2024-03-06,1,,,,,ダイキ,0
217,1140003020245,新規,0,2024-03-06,2024-03-06,トホカミサービス合同会社,,合同会社,兵庫県,西宮市,松並町１３番５－６０８号,,28,204,6638102,,,,,,,2024-03-06,1,,,,,トホカミサービス,0
219,1150001027118,新規,0,2024-03-06,2024-03-06,株式会社田中商会,,株式会社,奈良県,生駒市,南田原町７７７番地,,29,209,6300135,,,,,,,2024-03-06,1,,,,,タナカショウカイ,0
224,1160003003132,新規,0,2024-03-06,2024-03-06,合同会社メザスポルト,,合同会社,滋賀県,草津市,大路１丁目９番１アトラスタワー草津１００９,,25,206,5250032,,,,,,,2024-03-06,1,,,,,メザスポルト,0
226,1170001018032,新規,0,2024-03-06,2024-03-06,株式会社ＢＥＷ,,株式会社,和歌山県,和歌山市,弘西４１５番地１,,30,201,6496339,,,,,,,2024-03-06,1,,,,,ビュー,0
237,1180001160452,新規,0,2024-03-06,2024-03-06,株式会社エリアハイヴ,,株式会社,愛知県,名古屋市西区,則武新町３丁目１番６９号ＮＮＳ１２１・８０１号室,,23,104,4510051,,,,,,,2024-03-06,1,,,,,エリアハイヴ,0
238,1180001160469,新規,0,2024-03-06,2024-03-06,株式会社エール,,株式会社,愛知県,名古屋市熱田区,四番１丁目１６番４２号,,23,109,4560051,,,,,,,2024-03-06,1,,,,,エール,0
247,1180003026453,新規,0,2024-03-06,2024-03-06,３Ｍ合同会社,,合同会社,愛知県,春日井市,高山町１丁目２番地６,,23,206,4860912,,,,,,,2024-03-06,1,,,,,スリーエム,0
255,1190001031157,新規,0,2024-03-06,2024-03-06,株式会社きゃな,,株式会社,三重県,鈴鹿市,若松東２丁目１番１２号,,24,207,5100225,,,,,,,2024-03-06,1,,,,,キャナ,0
259,1200001042210,新規,0,2024-03-06,2024-03-06,株式会社ミュージーホールディングス,,株式会社,岐阜県,中津川市,茄子川１６４４番地１,,21,206,5099132,,,,,,,2024-03-06,1,,,,,ミュージーホールディングス,0
261,1210001019661,新規,0,2024-03-06,2024-03-06,株式会社Ｎａｉｌ　Ｖａｌｌｅｙ　Ｆｏｏｄ,,株式会社,福井県,越前市,丹生郷町第１０号４番地の２６,,18,209,9150894,,,,,,,2024-03-06,1,,,,,ネイルヴァリーフード,0
264,1210003001758,新規,0,2024-03-06,2024-03-06,合同会社ＫＧ,,合同会社,福井県,福井市,毛矢２丁目５番１８号ヴィラ新橋５０１,,18,201,9188003,,,,,,,2024-03-06,1,,,,,ケージー,0
267,1230001020238,新規,0,2024-03-06,2024-03-06,株式会社緑尊,,株式会社,富山県,富山市,奥田双葉町１番３５号２Ｆ,,16,201,9300851,,,,,,,2024-03-06,1,,,,,,0
272,1240003006564,新規,0,2024-03-06,2024-03-06,合同会社ＰＡＬＭ,,合同会社,広島県,福山市,山手町９８７番地１,,34,207,7200092,,,,,,,2024-03-06,1,,,,,パルム,0
274,1260001038814,新規,0,2024-03-06,2024-03-06,株式会社大原,,株式会社,岡山県,岡山市北区,野田３丁目１番７号,,33,101,7000971,,,,,,,2024-03-06,1,,,,,オオハラ,0
283,1290001104902,新規,0,2024-03-06,2024-03-06,株式会社ＰＡＲＴＮＥＲＳ,,株式会社,福岡県,宗像市,大井３２１番地１,,40,220,8113432,,,,,,,2024-03-06,1,,,,,パートナーズ,0
284,1290001104910,新規,0,2024-03-06,2024-03-06,株式会社ＫＳＧ,,株式会社,福岡県,福岡市中央区,天神１丁目４番１号１６Ｆ,,40,133,8100001,,,,,,,2024-03-06,1,,,,,ケイエスジー,0
285,1290001104951,新規,0,2024-03-06,2024-03-06,株式会社マチイロ,,株式会社,福岡県,福岡市中央区,薬院１丁目１４番５号ＭＧ薬院ビル,,40,133,8100022,,,,,,,2024-03-06,1,,,,,マチイロ,0
286,1290001104992,新規,0,2024-03-06,2024-03-06,株式会社ＬＤＭ,,株式会社,福岡県,福岡市中央区,港２丁目１番９－３０３号,,40,133,8100075,,,,,,,2024-03-06,1,,,,,エルディーエム,0
293,1310001018892,新規,0,2024-03-06,2024-03-06,ＪＥＣ対馬株式会社,,株式会社,長崎県,対馬市,厳原町日吉３３４番地３,,42,209,8170012,,,,,,,2024-03-06,1,,,,,ジェイイーシーツシマ,0
296,1310003004742,新規,0,2024-03-06,2024-03-06,合同会社アート・コネクト,,合同会社,長崎県,佐世保市,黒髪町６４７８－４ローリエ２０３,,42,202,8571152,,,,,,,2024-03-06,1,,,,,アートコネクト,0
298,1320001020311,新規,0,2024-03-06,2024-03-06,絆林業株式会社,,株式会社,大分県,日田市,大字庄手８７１－５,,44,204,8770000,,,,,,,2024-03-06,1,,,,,キズナリンギョウ,0
299,1320001020336,新規,0,2024-03-06,2024-03-06,株式会社あぐら,,株式会社,大分県,由布市,湯布院町川上３０５６番地２６,,44,213,8795102,,,,,,,2024-03-06,1,,,,,アグラ,0
301,1320003004304,新規,0,2024-03-06,2024-03-06,九州カントリー合同会社,,合同会社,大分県,竹田市,久住町大字久住５７１０番地６,,44,208,8780201,,,,,,,2024-03-06,1,,,,,キュウシュウカントリー,0
302,1330001031811,新規,0,2024-03-06,2024-03-06,株式会社ＬＡＬＡーＳＴＹＬＥ,,株式会社,熊本県,熊本市南区,出仲間６丁目１２番９号モンエトワール３０３,,43,104,8620963,,,,,,,2024-03-06,1,,,,,ララスタイル,0
306,1330003010251,新規,0,2024-03-06,2024-03-06,合同会社Ｗｈｉｔｅ,,合同会社,熊本県,宇土市,神馬町２２３番地,,43,211,8690424,,,,,,,2024-03-06,1,,,,,ホワイト,0
307,1340003004392,新規,0,2024-03-06,2024-03-06,合同会社エアヒルズ,,合同会社,鹿児島県,鹿児島市,吉野２丁目３０番２７号クラヴィエＭ２０１号,,46,201,8920877,,,,,,,2024-03-06,1,,,,,エアヒルズ,0
309,1350001018823,新規,0,2024-03-06,2024-03-06,Ｐ＆Ｊｗｅｂ株式会社,,株式会社,宮崎県,都城市,金田町２４２７番地１６,,45,202,8850001,,,,,,,2024-03-06,1,,,,,ピーアンドジェイウェブ,0
316,1360001033276,新規,0,2024-03-06,2024-03-06,ＩＳＬＡＮＤ　ＲＥＳＯＲＴ株式会社,,株式会社,沖縄県,浦添市,牧港１丁目６２番２５号－７０５,,47,208,9012131,,,,,,,2024-03-06,1,,,,,アイランドリゾート,0
317,1360001033284,新規,0,2024-03-06,2024-03-06,繁栄エステート株式会社,,株式会社,沖縄県,那覇市,久米１丁目２３番１３号４０３号室,,47,201,9000033,,,,,,,2024-03-06,1,,,,,ハンエイエステート,0
318,1360001033292,新規,0,2024-03-06,2024-03-06,株式会社ＯＫＩＮＡＷＡヴァケーションＳＡＬＥＳ,,株式会社,沖縄県,那覇市,金城２丁目１２番６号,,47,201,9010155,,,,,,,2024-03-06,1,,,,,オキナワヴァケーションセールス,0
319,1360003013755,新規,0,2024-03-06,2024-03-06,合同会社ＯＣＴＯＰＵＳ,,合同会社,沖縄県,国頭郡国頭村,字鏡地６７番地３エンジョイホームＧＭ３０４号室,,47,301,9051416,,,,,,,2024-03-06,1,,,,,オクトパス,0
325,1400003003223,新規,0,2024-03-06,2024-03-06,合同会社北岩手環境保全,,合同会社,岩手県,盛岡市,下田字古河川原４４８番地１,,03,201,0284134,,,,,,,2024-03-06,1,,,,,キタイワテカンキョウホゼン,0
326,1420001018618,新規,0,2024-03-06,2024-03-06,株式会社ＵＳＫ,,株式会社,青森県,八戸市,小中野８丁目５番２１号,,02,203,0310802,,,,,,,2024-03-06,1,,,,,ウスク,0
335,1460303000815,新規,0,2024-03-06,2024-03-06,吉河合同会社,,合同会社,北海道,網走郡大空町,女満別大成２７２番地,,01,564,0992381,,,,,,,2024-03-06,1,,,,,ヨシカワ,0
352,2010001242794,新規,0,2024-03-06,2024-03-06,株式会社全国確認検査グループ,,株式会社,東京都,千代田区,丸の内１丁目１番２号,,13,101,1000005,,,,,,,2024-03-06,1,,,,,ゼンコクカクニンケンサグループ,0
353,2010001242803,新規,0,2024-03-06,2024-03-06,美須賀ホールディングス株式会社,,株式会社,東京都,千代田区,富士見２丁目２番５号,,13,101,1020071,,,,,,,2024-03-06,1,,,,,ミスガホールディングス,0
354,2010001242828,新規,0,2024-03-06,2024-03-06,ひかりハートケア株式会社,,株式会社,東京都,中央区,日本橋室町１丁目１１番１２号日本橋水野ビル７階,,13,102,1030022,,,,,,,2024-03-06,1,,,,,ヒカリハートケア,0
355,2010001242860,新規,0,2024-03-06,2024-03-06,エスプレッソ株式会社,,株式会社,東京都,中央区,銀座１丁目２２番１１号銀座大竹ビジデンス２Ｆ,,13,102,1040061,,,,,,,2024-03-06,1,,,,,エスプレッソ,0
360,2010003043134,新規,0,2024-03-06,2024-03-06,Ｆｅｗ　Ｃｏｕｎｔｓ合同会社,,合同会社,東京都,千代田区,神田佐久間町１丁目８番４号アルテール秋葉原７０８,,13,101,1010025,,,,,,,2024-03-06,1,,,,,フューカウンツ,0
361,2010003043142,新規,0,2024-03-06,2024-03-06,合同会社ＩＨＤＩ,,合同会社,東京都,中央区,銀座７丁目１３番２１号銀座ｓｉｎｒｏｋｕｓｙｕビル２階,,13,102,1040061,,,,,,,2024-03-06,1,,,,,アイエイチディーアイ,0
362,2010005037992,新規,0,2024-03-06,2024-03-06,医療法人社団希楓会,,その他の設立登記法人,東京都,中央区,東日本橋３丁目３番１８号シトラス東日本橋１階,,13,102,1030004,,,,,,,2024-03-06,1,,,,,キフウカイ,0
363,2010101016033,新規,0,2024-03-06,2024-03-06,テイトモビリティサービス株式会社,,株式会社,東京都,八王子市,大塚４９９番地１,,13,201,1920352,,,,,,,2024-03-06,1,,,,,テイトモビリティサービス,0
369,2010401180743,新規,0,2024-03-06,2024-03-06,株式会社Ｄ‐Ｒｉｓｅ,,株式会社,東京都,港区,北青山１丁目３番１号アールキューブ青山３階,,13,103,1070061,,,,,,,2024-03-06,1,,,,,ディーライズ,0
370,2010401180834,新規,0,2024-03-06,2024-03-06,ホスピタリティパートナーズ株式会社,,株式会社,東京都,港区,虎ノ門１丁目２３番１号,,13,103,1050001,,,,,,,2024-03-06,1,,,,,ホスピタリティパートナーズ,0
373,2010403032083,新規,0,2024-03-06,2024-03-06,ＷＡＩＺ合同会社,,合同会社,東京都,港区,南青山２丁目２番１５号ウィン青山９４２,,13,103,1070062,,,,,,,2024-03-06,1,,,,,ワイズ,0
374,2010403032100,新規,0,2024-03-06,2024-03-06,合同会社ＴＵＬＡ,,合同会社,東京都,港区,南青山４丁目１７番３３号２階,,13,103,1070062,,,,,,,2024-03-06,1,,,,,トゥーラ,0
375,2010405023023,新規,0,2024-03-06,2024-03-06,医療法人社団セントワ,,その他の設立登記法人,東京都,港区,元麻布１丁目４番２７号東光元麻布ハイム１０１号室,,13,103,1060046,,,,,,,2024-03-06,1,,,,,セントワ,0
378,2010601064754,新規,0,2024-03-06,2024-03-06,株式会社ＬＲ,,株式会社,東京都,江東区,有明１丁目６番３０－９１１号,,13,108,1350063,,,,,,,2024-03-06,1,,,,,エルアール,0
379,2010601064762,新規,0,2024-03-06,2024-03-06,及川商事株式会社,,株式会社,東京都,江東区,扇橋２丁目５番１１号,,13,108,1350011,,,,,,,2024-03-06,1,,,,,オイカワショウジ,0
382,2010701045621,新規,0,2024-03-06,2024-03-06,株式会社ＴＭＴ,,株式会社,東京都,品川区,北品川５丁目１１番２２号サンウッドウエリス品川御殿山２０４,,13,109,1410001,,,,,,,2024-03-06,1,,,,,ティーエムティー,0
383,2010701045638,新規,0,2024-03-06,2024-03-06,モビライフ株式会社,,株式会社,東京都,品川区,北品川５丁目５番１５号大崎ブライドコア４階,,13,109,1410001,,,,,,,2024-03-06,1,,,,,モビライフ,0
384,2010701045654,新規,0,2024-03-06,2024-03-06,９６株式会社,,株式会社,東京都,品川区,東五反田３丁目５番８号ＲＥＳＩＤＥＮＣＥ島津山３０１,,13,109,1410022,,,,,,,2024-03-06,1,,,,,クロ,0
386,2010705003600,新規,0,2024-03-06,2024-03-06,医療法人社団永晴会,,その他の設立登記法人,東京都,品川区,東五反田１丁目１１番８号大阪屋ビル４階,,13,109,1410022,,,,,,,2024-03-06,1,,,,,エイセイカイ,0
388,2010901054810,新規,0,2024-03-06,2024-03-06,株式会社出野自然農園,,株式会社,東京都,世田谷区,成城９丁目３番３３号,,13,112,1570066,,,,,,,2024-03-06,1,,,,,イデノシゼンノウエン,0
389,2010901054827,新規,0,2024-03-06,2024-03-06,株式会社Ｈｕｍａｎｉｔｙ＆Ｃｏ．,,株式会社,東京都,世田谷区,奥沢５丁目１番１１号メゾンドジョワ２０２,,13,112,1580083,,,,,,,2024-03-06,1,,,,,ヒューマニティアンドコー,0
399,2011101106435,新規,0,2024-03-06,2024-03-06,株式会社ぱいん,,株式会社,東京都,新宿区,西新宿３丁目３番１３号西新宿水間ビル２Ｆ,,13,104,1600023,,,,,,,2024-03-06,1,,,,,パイン,0
400,2011101106443,新規,0,2024-03-06,2024-03-06,大運資本管理株式会社,,株式会社,東京都,新宿区,大久保１丁目１－１１コントワール新宿５０２号室,,13,104,1690072,,,,,,,2024-03-06,1,,,,,ダイウンシホンカンリ,0
403,2011203004314,新規,0,2024-03-06,2024-03-06,ＮＯＢＯＲＵ合同会社,,合同会社,東京都,中野区,本町４丁目１番８号,,13,114,1640012,,,,,,,2024-03-06,1,,,,,ノボル,0
405,2011301029469,新規,0,2024-03-06,2024-03-06,株式会社ａｎｄ　ａｌｐｈａ,,株式会社,東京都,杉並区,阿佐谷南１丁目３０番７号,,13,115,1660004,,,,,,,2024-03-06,1,,,,,アンドアルファ,0
414,2011703003765,新規,0,2024-03-06,2024-03-06,宇美合同会社,,合同会社,東京都,江戸川区,西一之江１丁目１５番３号,,13,123,1320023,,,,,,,2024-03-06,1,,,,,ウミ,0
415,2011801043878,新規,0,2024-03-06,2024-03-06,株式会社ペットメモリアル伊豆,,株式会社,東京都,足立区,千住５丁目７番９号,,13,121,1200034,,,,,,,2024-03-06,1,,,,,ペットメモリアルイズ,0
416,2011801043886,新規,0,2024-03-06,2024-03-06,ワントンジャパン株式会社,,株式会社,東京都,葛飾区,水元２丁目１０番７号エリービル１２０５,,13,122,1250032,,,,,,,2024-03-06,1,,,,,ワントンジャパン,0
419,2012401041594,新規,0,2024-03-06,2024-03-06,株式会社プレイワース,,株式会社,東京都,多摩市,一ノ宮２丁目１９番地１,,13,224,2060002,,,,,,,2024-03-06,1,,,,,プレイワース,0
420,2012403006439,新規,0,2024-03-06,2024-03-06,ＯｕｔＬａｎｄ合同会社,,合同会社,東京都,武蔵野市,境２丁目２１－８,,13,203,1800022,,,,,,,2024-03-06,1,,,,,アウトランド,0
421,2012405004952,新規,0,2024-03-06,2024-03-06,土地家屋調査士法人阿藤事務所,,その他の設立登記法人,東京都,小金井市,貫井南町２丁目７番８号,,13,210,1840014,,,,,,,2024-03-06,1,,,,,アトウジムショ,0
423,2012801023003,新規,0,2024-03-06,2024-03-06,株式会社安田電気管理事務所,,株式会社,東京都,立川市,柏町３丁目５２番地の３,,13,202,1900004,,,,,,,2024-03-06,1,,,,,ヤスダデンキカンリジムショ,0
424,2012803003333,新規,0,2024-03-06,2024-03-06,コブラコード合同会社,,合同会社,東京都,国立市,東４丁目１３番地の１８,,13,215,1860002,,,,,,,2024-03-06,1,,,,,コブラコード,0
425,2013101009361,新規,0,2024-03-06,2024-03-06,株式会社ＭＩＫＡＤＯ祈念ホールディングス,,株式会社,東京都,あきる野市,小川１０１番地,,13,228,1970821,,,,,,,2024-03-06,1,,,,,,0
432,2020001155946,新規,0,2024-03-06,2024-03-06,株式会社ＢＥ　ＧＯＯＤ,,株式会社,神奈川県,川崎市宮前区,有馬１丁目２番６－４０８号,,14,136,2160003,,,,,,,2024-03-06,1,,,,,,0
433,2020001156036,新規,0,2024-03-06,2024-03-06,株式会社としぞう,,株式会社,神奈川県,横浜市南区,共進町１丁目２９番１３号２階,,14,105,2320015,,,,,,,2024-03-06,1,,,,,トシゾウ,0
434,2020001156060,新規,0,2024-03-06,2024-03-06,株式会社ＷＡＴＡＮＡＢＥ　ＨＤＳ,,株式会社,神奈川県,横浜市鶴見区,岸谷４丁目１９番２０－１号,,14,101,2300078,,,,,,,2024-03-06,1,,,,,ワタナベエイチディーエス,0
435,2020001156069,新規,0,2024-03-06,2024-03-06,株式会社Ｇｒａｎｄｅ　ｉｓｏｌａ,,株式会社,神奈川県,横浜市港南区,笹下７丁目１９番４号,,14,111,2340052,,,,,,,2024-03-06,1,,,,,グランデイゾラ,0
436,2020001156077,新規,0,2024-03-06,2024-03-06,Ｐｅｔｒｏｌ株式会社,,株式会社,神奈川県,横浜市都筑区,南山田町４２３９番地３,,14,118,2240026,,,,,,,2024-03-06,1,,,,,ペトロール,0
437,2020001156085,新規,0,2024-03-06,2024-03-06,海援隊株式会社,,株式会社,神奈川県,横浜市港南区,丸山台２丁目１番１号,,14,111,2330013,,,,,,,2024-03-06,1,,,,,カイエンタイ,0
438,2020001156093,新規,0,2024-03-06,2024-03-06,株式会社Ｄ＆Ｗ,,株式会社,神奈川県,横浜市南区,中村町４丁目２７１番地３３,,14,105,2320033,,,,,,,2024-03-06,1,,,,,ディーアンドダブリュー,0
439,2020001156110,新規,0,2024-03-06,2024-03-06,Ｆａｒｂｅ株式会社,,株式会社,神奈川県,横浜市西区,南幸２丁目１６番２０号オーチュー横浜ビルＢ１,,14,103,2200005,,,,,,,2024-03-06,1,,,,,ファルベ,0
443,2020003025668,新規,0,2024-03-06,2024-03-06,合同会社ＣＡＬＭ,,合同会社,神奈川県,横浜市港北区,樽町３丁目１番２７号,,14,109,2220001,,,,,,,2024-03-06,1,,,,,カーム,0
449,2021001081629,新規,0,2024-03-06,2024-03-06,株式会社翔栄,,株式会社,神奈川県,厚木市,下川入３２９番地１０,,14,212,2430206,,,,,,,2024-03-06,1,,,,,,0
453,2021003014223,新規,0,2024-03-06,2024-03-06,合同会社Ｄ‐ｓｔｙｌｅ,,合同会社,神奈川県,横須賀市,公郷町３丁目７９番地５,,14,201,2380022,,,,,,,2024-03-06,1,,,,,ディースタイル,0
458,2030001159038,新規,0,2024-03-06,2024-03-06,株式会社ＦＩＶＥｓｔａ．,,株式会社,埼玉県,深谷市,東方２７５５番地５,,11,218,3660041,,,,,,,2024-03-06,1,,,,,ファイブスタ,0
459,2030001159054,新規,0,2024-03-06,2024-03-06,カイトホームサポート株式会社,,株式会社,埼玉県,川口市,本町３丁目１０番１１号,,11,203,3320012,,,,,,,2024-03-06,1,,,,,カイトホームサポート,0
460,2030001159062,新規,0,2024-03-06,2024-03-06,株式会社ＡＭｉｊＯＮ,,株式会社,埼玉県,さいたま市見沼区,大字小深作７番地３,,11,104,3370005,,,,,,,2024-03-06,1,,,,,アミジョン,0
461,2030001159079,新規,0,2024-03-06,2024-03-06,エステスト株式会社,,株式会社,埼玉県,さいたま市北区,宮原町１丁目４６２番地３かぢやビル１０２,,11,102,3310812,,,,,,,2024-03-06,1,,,,,エステスト,0
464,2030003023745,新規,0,2024-03-06,2024-03-06,合同会社山田商事,,合同会社,埼玉県,越谷市,七左町５丁目１２番地１,,11,222,3430851,,,,,,,2024-03-06,1,,,,,ヤマダショウジ,0
465,2030003023753,新規,0,2024-03-06,2024-03-06,合同会社山宮建設,,合同会社,埼玉県,志木市,上宗岡５丁目１１番５３号,,11,228,3530001,,,,,,,2024-03-06,1,,,,,サンキュウケンセツ,0
466,2030005021573,新規,0,2024-03-06,2024-03-06,ＮＰＯ法人狭山ＦＭ放送,,その他の設立登記法人,埼玉県,新座市,野寺４丁目２番２１号,,11,230,3520034,,,,,,,2024-03-06,1,,,,,サヤマエフエムホウソウ,0
468,2040001132497,新規,0,2024-03-06,2024-03-06,Ｄａｓｈ　ｄｏｔ　ｌｉｎｅ株式会社,,株式会社,千葉県,船橋市,咲が丘２丁目１０番１１号,,12,204,2740807,,,,,,,2024-03-06,1,,,,,ダッシュドットライン,0
469,2040001132514,新規,0,2024-03-06,2024-03-06,株式会社Ｌｅａ　ｃｅｒａｍｉｃ　ｗｏｒｋｓ,,株式会社,千葉県,千葉市若葉区,北大宮台３２番７号,,12,104,2640014,,,,,,,2024-03-06,1,,,,,レアセラミックワークス,0
470,2040001132522,新規,0,2024-03-06,2024-03-06,株式会社グランディール,,株式会社,千葉県,佐倉市,王子台２丁目２６番地１０,,12,212,2850837,,,,,,,2024-03-06,1,,,,,グランディール,0
471,2040001132530,新規,0,2024-03-06,2024-03-06,ＫＣＥホールディングス株式会社,,株式会社,千葉県,千葉市中央区,松波１丁目１０番１０号,,12,101,2600044,,,,,,,2024-03-06,1,,,,,ケーシーイーホールディングス,0
476,2040003024445,新規,0,2024-03-06,2024-03-06,合同会社千寿,,合同会社,千葉県,市川市,大和田２丁目１４番８号,,12,203,2720025,,,,,,,2024-03-06,1,,,,,センジュ,0
477,2040003024461,新規,0,2024-03-06,2024-03-06,合同会社ＪＭサービス,,合同会社,千葉県,佐倉市,王子台５丁目１５番地１１,,12,212,2850837,,,,,,,2024-03-06,1,,,,,ジェイエムサービス,0
478,2040003024478,新規,0,2024-03-06,2024-03-06,合同会社ル・リアン,,合同会社,千葉県,松戸市,小山７０５番地の１リビオ松戸ヒルズフィールド５１２号,,12,207,2710093,,,,,,,2024-03-06,1,,,,,ルリアン,0
479,2040003024494,新規,0,2024-03-06,2024-03-06,合同会社１２番街ラボラトリー,,合同会社,千葉県,千葉市美浜区,打瀬１丁目１１－１グリーナＣ５１２,,12,106,2610013,,,,,,,2024-03-06,1,,,,,ジュウニバンガイラボラトリー,0
480,2050001054402,新規,0,2024-03-06,2024-03-06,株式会社ガーデンアイル,,株式会社,茨城県,つくば市,西大井１７３５番地３４,,08,220,3001260,,,,,,,2024-03-06,1,,,,,ガーデンアイル,0
488,2080001026167,新規,0,2024-03-06,2024-03-06,株式会社ａｓｃ静岡,,株式会社,静岡県,静岡市葵区,伝馬町１０番地の２５,,22,101,4200858,,,,,,,2024-03-06,1,,,,,エーエスシーシズオカ,0
491,2080103002999,新規,0,2024-03-06,2024-03-06,合同会社みずのえ,,合同会社,静岡県,伊豆の国市,守木６７番地１ビューティーヒロＩＩＩ２０２号室,00133970,22,225,4102317,,,,,,,2024-03-06,1,,,,,ミズノエ,0
494,2090001018576,新規,0,2024-03-06,2024-03-06,株式会社Ｄｅｅｍｅｔｅｒ,,株式会社,山梨県,上野原市,犬目１０４８,,19,212,4090124,,,,,,,2024-03-06,1,,,,,ディーメーター,0
502,2100005013134,新規,0,2024-03-06,2024-03-06,医療法人宮本内科クリニック,,その他の設立登記法人,長野県,松本市,両島１番６号,,20,202,3900848,,,,,,,2024-03-06,1,,,,,ミヤモトナイカクリニック,0
511,2120001262872,新規,0,2024-03-06,2024-03-06,株式会社かごめかごめ,,株式会社,大阪府,大阪市東淀川区,東中島１丁目９－３１－２０６,,27,114,5330033,,,,,,,2024-03-06,1,,,,,カゴメカゴメ,0
512,2120001262880,新規,0,2024-03-06,2024-03-06,株式会社ＯＳＥＲ,,株式会社,大阪府,大阪市中央区,玉造１丁目１７番１４号,,27,128,5400004,,,,,,,2024-03-06,1,,,,,オゼ,0
513,2120001262897,新規,0,2024-03-06,2024-03-06,株式会社大阪技研工業,,株式会社,大阪府,門真市,下馬伏町２４－２５,,27,223,5710009,,,,,,,2024-03-06,1,,,,,オオサカギケンコウギョウ,0
520,2120901048842,新規,0,2024-03-06,2024-03-06,株式会社ライフホープス,,株式会社,大阪府,豊中市,岡上の町２丁目６番８号,,27,203,5600023,,,,,,,2024-03-06,1,,,,,ライフホープス,0
524,2122003002819,新規,0,2024-03-06,2024-03-06,アールティー合同会社,,合同会社,大阪府,柏原市,国分東条町２番６３号,,27,221,5820023,,,,,,,2024-03-06,1,,,,,アールティー,0
525,2130001076487,新規,0,2024-03-06,2024-03-06,株式会社片山電気工事,,株式会社,京都府,京都市西京区,嵐山内田町３８番地１６,,26,111,6160027,,,,,,,2024-03-06,1,,,,,カタヤマデンキコウジ,0
526,2130001076512,新規,0,2024-03-06,2024-03-06,株式会社武田製作所,,株式会社,京都府,京都市左京区,田中上玄京町２３,,26,103,6068215,,,,,,,2024-03-06,1,,,,,タケダセイサクショ,0
527,2130003009346,新規,0,2024-03-06,2024-03-06,合同会社さくら,,合同会社,京都府,京都市伏見区,桃山水野左近東町５６番地３,,26,109,6120055,,,,,,,2024-03-06,1,,,,,サクラ,0
528,2130003009362,新規,0,2024-03-06,2024-03-06,合同会社ＮＹＫ,,合同会社,京都府,京都市左京区,上高野薩田町５番地の５,,26,103,6060047,,,,,,,2024-03-06,1,,,,,エヌワイケー,0
531,2140001133535,新規,0,2024-03-06,2024-03-06,株式会社信洸,,株式会社,兵庫県,神戸市西区,伊川谷町有瀬１２９２－１６,,28,111,6512113,,,,,,,2024-03-06,1,,,,,シンコウ,0
532,2140001133551,新規,0,2024-03-06,2024-03-06,株式会社Ｔ３,,株式会社,兵庫県,養父市,薮崎２２８番地,,28,222,6670113,,,,,,,2024-03-06,1,,,,,ティースリー,0
533,2140001133584,新規,0,2024-03-06,2024-03-06,嬉し楽し安心農業株式会社,,株式会社,兵庫県,三木市,別所町高木３丁目１５番地,,28,215,6730435,,,,,,,2024-03-06,1,,,,,ウレシタノシアンシンノウギョウ,0
538,2150001027117,新規,0,2024-03-06,2024-03-06,株式会社ｉｂ,,株式会社,奈良県,香芝市,下田東５丁目５２１番地７,,29,210,6390232,,,,,,,2024-03-06,1,,,,,アイビー,0
541,2160001025730,新規,0,2024-03-06,2024-03-06,奥村晋一商会株式会社,,株式会社,滋賀県,東近江市,八日市清水３丁目１番１９号,,25,213,5270018,,,,,,,2024-03-06,1,,,,,オクムラシンイチショウカイ,0
542,2160003003131,新規,0,2024-03-06,2024-03-06,合同会社フクシオリジン,,合同会社,滋賀県,愛知郡愛荘町,中宿２８０番地１８,,25,425,5291314,,,,,,,2024-03-06,1,,,,,フクシオリジン,0
543,2170001018031,新規,0,2024-03-06,2024-03-06,株式会社船着,,株式会社,和歌山県,西牟婁郡白浜町,２７８７番地の２,,30,401,6492211,,,,,,,2024-03-06,1,,,,,フナツキ,0
544,2170003001992,新規,0,2024-03-06,2024-03-06,合同会社ＣｕｒｉｏＴｒａｄｉｎｇ,,合同会社,和歌山県,岩出市,根来２番地の１,,30,209,6496202,,,,,,,2024-03-06,1,,,,,キュリオトレーディング,0
549,2180001160410,新規,0,2024-03-06,2024-03-06,株式会社遠健設備,,株式会社,愛知県,愛西市,西條町東善太５５番地３,,23,232,4960913,,,,,,,2024-03-06,1,,,,,トオケンセツビ,0
550,2180001160419,新規,0,2024-03-06,2024-03-06,ｃｏｃｏｒｏ不動産株式会社,,株式会社,愛知県,小牧市,藤島町中島６４番地,,23,219,4850062,,,,,,,2024-03-06,1,,,,,ココロフドウサン,0
551,2180001160443,新規,0,2024-03-06,2024-03-06,株式会社ＮＩＪＩ,,株式会社,愛知県,名古屋市中区,大須４丁目６番３０号,,23,106,4600011,,,,,,,2024-03-06,1,,,,,ニジ,0
556,2180003026320,新規,0,2024-03-06,2024-03-06,合同会社ＴＦＳ,,合同会社,愛知県,愛西市,町方町地官９９番地,,23,232,4968014,,,,,,,2024-03-06,1,,,,,ティーエフエス,0
557,2180003026460,新規,0,2024-03-06,2024-03-06,合同会社エイプリル,,合同会社,愛知県,名古屋市中村区,名駅４丁目２４番５号第２森ビル４０１,,23,105,4500002,,,,,,,2024-03-06,1,,,,,エイプリル,0
560,2190001031156,新規,0,2024-03-06,2024-03-06,株式会社リトライ,,株式会社,三重県,いなべ市,大安町門前９５１番地１,,24,214,5110281,,,,,,,2024-03-06,1,,,,,リトライ,0
564,2200001042226,新規,0,2024-03-06,2024-03-06,株式会社ＳｏｕＨａ,,株式会社,岐阜県,岐阜市,北一色９丁目１３番２６号,,21,201,5008227,,,,,,,2024-03-06,1,,,,,ソウハ,0
566,2200003006253,新規,0,2024-03-06,2024-03-06,Ｔａｎｖｅｅｒ　Ｔｒａｄｉｎｇ合同会社,,合同会社,岐阜県,岐阜市,黒野１００－１アンデルセン２－１号室,,21,201,5011131,,,,,,,2024-03-06,1,,,,,タンビールトレーディング,0
567,2210001019660,新規,0,2024-03-06,2024-03-06,株式会社ＮＴＭ工房プロ,,株式会社,福井県,勝山市,猪野毛屋第１３号４番地,,18,206,9110816,,,,,,,2024-03-06,1,,,,,エヌティーエムコウボウプロ,0
569,2210003001757,新規,0,2024-03-06,2024-03-06,合同会社一茎,,合同会社,福井県,吉田郡永平寺町,京善第１２号３番地２,,18,322,9101225,,,,,,,2024-03-06,1,,,,,イッケイ,0
581,2240001062889,新規,0,2024-03-06,2024-03-06,大孝建工株式会社,,株式会社,広島県,尾道市,向島町５５８２番地１２,,34,205,7220073,,,,,,,2024-03-06,1,,,,,オオタカケンコウ,0
594,2290001104901,新規,0,2024-03-06,2024-03-06,株式会社再生,,株式会社,福岡県,那珂川市,大字不入道２７７－１－Ａ２０１,,40,231,8111231,,,,,,,2024-03-06,1,,,,,サイセイ,0
595,2290001104918,新規,0,2024-03-06,2024-03-06,株式会社ＡＬＬ　ＩＮ,,株式会社,福岡県,福岡市博多区,中洲３丁目１番８－２０５号,,40,132,8100801,,,,,,,2024-03-06,1,,,,,オールイン,0
596,2290001104950,新規,0,2024-03-06,2024-03-06,株式会社空港前不動産ＲＨ,,株式会社,福岡県,福岡市博多区,空港前３丁目２番５号小串ビル２０２号室,,40,132,8120002,,,,,,,2024-03-06,1,,,,,クウコウマエフドウサンアールエイチ,0
597,2290001104959,新規,0,2024-03-06,2024-03-06,株式会社庭八,,株式会社,福岡県,糸島市,志摩野北３１３７番地１,,40,230,8191303,,,,,,,2024-03-06,1,,,,,ニワハチ,0
598,2290001104975,新規,0,2024-03-06,2024-03-06,株式会社みんなの風,,株式会社,福岡県,糟屋郡志免町,別府１丁目２２－２７,,40,343,8112205,,,,,,,2024-03-06,1,,,,,ミンナノカゼ,0
600,2290003015023,新規,0,2024-03-06,2024-03-06,合同会社ＬＩＢＲＥ　Ｃｏ．,,合同会社,福岡県,朝倉市,一木７６１番地５,,40,228,8380065,,,,,,,2024-03-06,1,,,,,リーブル,0
601,2290003015031,新規,0,2024-03-06,2024-03-06,常若合同会社,,合同会社,福岡県,福岡市城南区,鳥飼５丁目１２‐３５パークスタイル・ザ・シェイプ７０２,,40,136,8140103,,,,,,,2024-03-06,1,,,,,トコワカ,0
609,2310001018883,新規,0,2024-03-06,2024-03-06,狩野ジャパン分割準備株式会社,,株式会社,長崎県,大村市,東大村１丁目２３７６番地６,,42,205,8560032,,,,,,,2024-03-06,1,,,,,カリノジャパンブンカツジュンビ,0
610,2310003004741,新規,0,2024-03-06,2024-03-06,ビーチブックジャパン合同会社,,合同会社,長崎県,佐世保市,島瀬町４番１５－３０３号,,42,202,8570806,,,,,,,2024-03-06,1,,,,,ビーチブックジャパン,0
624,2360003013754,新規,0,2024-03-06,2024-03-06,合同会社ＢＩＯ,,合同会社,沖縄県,那覇市,上之屋１丁目１０番８－１２０１号メゾン高倉上之屋,,47,201,9000011,,,,,,,2024-03-06,1,,,,,ビオ,0
628,2380001034338,新規,0,2024-03-06,2024-03-06,Ｔ’ｓ　ｄｏｇ株式会社,,株式会社,福島県,いわき市,泉町滝尻字東越地１２番地の１,,07,204,9718182,,,,,,,2024-03-06,1,,,,,ティーズドッグ,0
629,2380005012802,新規,0,2024-03-06,2024-03-06,農事組合法人ファーム金谷川,,その他の設立登記法人,福島県,福島市,松川町浅川字船橋３３番地,,07,201,9601245,,,,,,,2024-03-06,1,,,,,ファームカナヤガワ,0
630,2390001017548,新規,0,2024-03-06,2024-03-06,株式会社ｆｙｎｂｏｓ,,株式会社,山形県,米沢市,花沢町１丁目１０番２４号,,06,202,9920022,,,,,,,2024-03-06,1,,,,,フィンボス,0
633,2420001018617,新規,0,2024-03-06,2024-03-06,株式会社ハマダ電気,,株式会社,青森県,むつ市,大畑町南町１４番地１,,02,208,0394401,,,,,,,2024-03-06,1,,,,,ハマダデンキ,0
638,2460001005875,新規,0,2024-03-06,2024-03-06,株式会社ミルクネット受精卵研究所,,株式会社,北海道,釧路市,北大通１０丁目２番地１新釧路道銀ビル８階,,01,206,0850015,,,,,,,2024-03-06,1,,,,,ミルクネットジュセイランケンキュウジョ,0
641,2470001020064,新規,0,2024-03-06,2024-03-06,ｆｉｎｄｈｕｂ株式会社,,株式会社,香川県,高松市,多肥下町３３２番地１,,37,201,7618075,,,,,,,2024-03-06,1,,,,,ファインドハブ,0
643,2490001010708,新規,0,2024-03-06,2024-03-06,エムズトレーディング株式会社,,株式会社,高知県,高知市,大津乙１０６７番地７,,39,201,7815103,,,,,,,2024-03-06,1,,,,,エムズトレーディング,0
645,2500001025489,新規,0,2024-03-06,2024-03-06,株式会社ミヤケ,,株式会社,愛媛県,松山市,枝松６丁目２番１３号,,38,201,7900962,,,,,,,2024-03-06,1,,,,,ミヤケ,0
649,3010001242777,新規,0,2024-03-06,2024-03-06,株式会社作マ新村企画,,株式会社,東京都,中央区,銀座８丁目６番１１号新和ビル３階,,13,102,1040061,,,,,,,2024-03-06,1,,,,,サクマニイムラキカク,0
655,3010005037983,新規,0,2024-03-06,2024-03-06,医療法人社団闡医会,,その他の設立登記法人,東京都,文京区,本郷４丁目２０番１２号地下１階,,13,105,1130033,,,,,,,2024-03-06,1,,,,,センイカイ,0
662,3010401180759,新規,0,2024-03-06,2024-03-06,将来倍益株式会社,,株式会社,東京都,港区,三田５丁目４番４号リッツ三田１ｄ,,13,103,1080073,,,,,,,2024-03-06,1,,,,,ショウライバイエキ,0
663,3010401180791,新規,0,2024-03-06,2024-03-06,デザイン２シンク株式会社,,株式会社,東京都,港区,六本木３丁目６番９号Ｋ２ビル,,13,103,1060032,,,,,,,2024-03-06,1,,,,,デザインツーシンク,0
666,3010403032090,新規,0,2024-03-06,2024-03-06,合同会社佐藤商会,,合同会社,東京都,港区,港南２丁目１５－１品川インターシティＡ棟２８階,,13,103,1080075,,,,,,,2024-03-06,1,,,,,サトウショウカイ,0
667,3010403032108,新規,0,2024-03-06,2024-03-06,エイシスグループ合同会社,,合同会社,東京都,港区,浜松町２丁目２番１５号浜松町ダイヤビル２Ｆ,,13,103,1050013,,,,,,,2024-03-06,1,,,,,エイシスグループ,0
669,3010405023014,新規,0,2024-03-06,2024-03-06,浮体式洋上風力技術研究組合,,その他の設立登記法人,東京都,港区,新橋１丁目１－１３アーバンネット内幸町ビルＣＲＯＳＳＣＯＯＰ新橋５１６,,13,103,1050004,,,,,,,2024-03-06,1,,,,,フタイシキヨウジョウフウリョク,0
670,3010405023022,新規,0,2024-03-06,2024-03-06,一般社団法人日本ファイナンス精神協会,,その他の設立登記法人,東京都,港区,東麻布２丁目６番５号タルトビル２Ｆ,,13,103,1060044,,,,,,,2024-03-06,1,,,,,ニホンファイナンスセイシンキョウカイ,0
671,3010501051884,新規,0,2024-03-06,2024-03-06,株式会社テシマ,,株式会社,東京都,台東区,根岸３丁目１８番２４－５０１号池田マンション,,13,106,1100003,,,,,,,2024-03-06,1,,,,,テシマ,0
672,3010705003599,新規,0,2024-03-06,2024-03-06,医療法人社団心越会,,その他の設立登記法人,東京都,品川区,大崎３丁目６番２１号ニュー大崎マンション４０４号室,,13,109,1410032,,,,,,,2024-03-06,1,,,,,シンエツカイ,0
675,3010803004870,新規,0,2024-03-06,2024-03-06,ＳＫＪ合同会社,,合同会社,東京都,大田区,羽田３丁目３番２０－４０１号,,13,111,1440043,,,,,,,2024-03-06,1,,,,,エスケージェイ,0
677,3010901054826,新規,0,2024-03-06,2024-03-06,ＬＢＥＬ株式会社,,株式会社,東京都,世田谷区,上北沢５丁目３４番２号,,13,112,1560057,,,,,,,2024-03-06,1,,,,,エルベル,0
679,3010903008813,新規,0,2024-03-06,2024-03-06,ＥＣ構築定期通販支援合同会社,,合同会社,東京都,世田谷区,北沢２丁目６番地２号ミカン下北Ｂ街区第Ｂ４０１号区画,,13,112,1550031,,,,,,,2024-03-06,1,,,,,イーシーコウチクテイキツウハンシエン,0
686,3011001160408,新規,0,2024-03-06,2024-03-06,イプシス株式会社,,株式会社,東京都,渋谷区,恵比寿１丁目１５番９号日宝恵比寿ビル４０３,,13,113,1500013,,,,,,,2024-03-06,1,,,,,イプシス,0
692,3011003018629,新規,0,2024-03-06,2024-03-06,合同会社ｏｔｈｅｒ　ｒｕｌｅｓ,,合同会社,東京都,渋谷区,渋谷２丁目１９－１５宮益坂ビルディング６０９,,13,113,1500002,,,,,,,2024-03-06,1,,,,,アザールールズ,0
706,3011801043860,新規,0,2024-03-06,2024-03-06,金山株式会社,,株式会社,東京都,足立区,竹の塚２丁目２９番１３号,,13,121,1210813,,,,,,,2024-03-06,1,,,,,カナヤマ,0
707,3011801043869,新規,0,2024-03-06,2024-03-06,株式会社日本エコアイランド,,株式会社,東京都,足立区,入谷９丁目１７番３０－１０３号,,13,121,1210836,,,,,,,2024-03-06,1,,,,,ニホンエコアイランド,0
709,3012301013809,新規,0,2024-03-06,2024-03-06,株式会社四季とカフェ,,株式会社,東京都,町田市,原町田６丁目１１番１１号２Ｆ,,13,209,1940013,,,,,,,2024-03-06,1,,,,,シキトカフェ,0
710,3012403006446,新規,0,2024-03-06,2024-03-06,合同会社２６ばんどうろ,,合同会社,東京都,武蔵野市,西久保３丁目７番２３号フレシール２０１,,13,203,1800013,,,,,,,2024-03-06,1,,,,,ニジュウロクバンドウロ,0
713,3012803003332,新規,0,2024-03-06,2024-03-06,合同会社お助け侍,,合同会社,東京都,日野市,日野本町６丁目９－１８（７街区２）メゾンドヒュッゲ２０１,,13,212,1910011,,,,,,,2024-03-06,1,,,,,オタスケザムライ,0
714,3013103001316,新規,0,2024-03-06,2024-03-06,合同会社ＭＹソリューション,,合同会社,東京都,あきる野市,草花７６７番地１８,,13,228,1970802,,,,,,,2024-03-06,1,,,,,,0
721,3020001156076,新規,0,2024-03-06,2024-03-06,株式会社Ｘ‐ＳＴＹＬＥ,,株式会社,神奈川県,横浜市中区,石川町１丁目２４有限会社モンテピーノ内,,14,104,2310868,,,,,,,2024-03-06,1,,,,,クロススタイル,0
722,3020001156084,新規,0,2024-03-06,2024-03-06,エーナークス・ジャパン株式会社,,株式会社,神奈川県,川崎市幸区,新小倉２番３－７１８号,,14,132,2120031,,,,,,,2024-03-06,1,,,,,エーナークスジャパン,0
723,3020001156092,新規,0,2024-03-06,2024-03-06,株式会社桑一食品,,株式会社,神奈川県,横浜市中区,北仲通２丁目３０番地グッドビル北仲通,,14,104,2310003,,,,,,,2024-03-06,1,,,,,クワイチショクヒン,0
724,3020001156101,新規,0,2024-03-06,2024-03-06,株式会社アールエーアイ,,株式会社,神奈川県,川崎市幸区,南加瀬１丁目３番２号,,14,132,2120055,,,,,,,2024-03-06,1,,,,,アールエーアイ,0
725,3020003025659,新規,0,2024-03-06,2024-03-06,合同会社Ｅ‐ＳＫＥＴ,,合同会社,神奈川県,横浜市港北区,綱島西５丁目１０番２３－１号,,14,109,2230053,,,,,,,2024-03-06,1,,,,,イースケット,0
726,3020003025667,新規,0,2024-03-06,2024-03-06,合同会社ローザクレスト,,合同会社,神奈川県,川崎市宮前区,鷺沼４丁目１４番地２ドレッセ鷺沼の杜プライムフォレストＦ－８０８,,14,136,2160004,,,,,,,2024-03-06,1,,,,,ローザクレスト,0
733,3021001081628,新規,0,2024-03-06,2024-03-06,株式会社相模原ＢＡＳＥ,,株式会社,神奈川県,相模原市中央区,水郷田名４丁目２番７号,,14,152,2520246,,,,,,,2024-03-06,1,,,,,サガミハラベイス,0
734,3021001081636,新規,0,2024-03-06,2024-03-06,株式会社ｒａｎｄ,,株式会社,神奈川県,横須賀市,汐見台３丁目１４－４,,14,201,2380054,,,,,,,2024-03-06,1,,,,,ランド,0
735,3021001081652,新規,0,2024-03-06,2024-03-06,株式会社Ｎｅｏ　Ｌｏｃｕｓ,,株式会社,神奈川県,秦野市,千村４丁目５番３２号,,14,211,2591324,,,,,,,2024-03-06,1,,,,,ネオロクス,0
741,3030001159004,新規,0,2024-03-06,2024-03-06,株式会社Ｐａｓｓｉｏｎ,,株式会社,埼玉県,鴻巣市,境字臺３０７番地１,,11,217,3650013,,,,,,,2024-03-06,1,,,,,パッション,0
742,3030001159020,新規,0,2024-03-06,2024-03-06,株式会社辰鉄鋼業,,株式会社,埼玉県,草加市,手代３丁目５６番２号,,11,221,3400021,,,,,,,2024-03-06,1,,,,,タツテツコウギョウ,0
743,3030001159053,新規,0,2024-03-06,2024-03-06,株式会社ネオ,,株式会社,埼玉県,所沢市,こぶし町２２番１９号,,11,208,3590033,,,,,,,2024-03-06,1,,,,,ネオ,0
747,3030003023711,新規,0,2024-03-06,2024-03-06,合同会社すとらん,,合同会社,埼玉県,さいたま市大宮区,桜木町２丁目３番地大宮マルイ７階,,11,103,3300854,,,,,,,2024-03-06,1,,,,,ストラン,0
748,3030003023744,新規,0,2024-03-06,2024-03-06,合同会社ｔｉｍ,,合同会社,埼玉県,上尾市,大字原市６３１番地３,,11,219,3620021,,,,,,,2024-03-06,1,,,,,ティム,0
749,3030003023752,新規,0,2024-03-06,2024-03-06,合同会社アトリエＺＥＮ,,合同会社,埼玉県,鶴ヶ島市,大字上広谷１３番地３メゾン・プレミール６０６号,,11,241,3502203,,,,,,,2024-03-06,1,,,,,アトリエゼン,0
750,3030003023760,新規,0,2024-03-06,2024-03-06,合同会社ＴＶＧ,,合同会社,埼玉県,川口市,大字辻７８０番地,00133973,11,203,3340004,,,,,,,2024-03-06,1,,,,,ティーヴィジー,0
751,3030003023769,新規,0,2024-03-06,2024-03-06,合同会社ＭＳシーリング,,合同会社,埼玉県,草加市,金明町１３番地１ニューライフ金明２０１号,,11,221,3400052,,,,,,,2024-03-06,1,,,,,エムエスシーリング,0
754,3040001132496,新規,0,2024-03-06,2024-03-06,株式会社スリーアール・テクノ,,株式会社,千葉県,市原市,犬成１１２４番地１,,12,219,2900166,,,,,,,2024-03-06,1,,,,,スリーアールテクノ,0
755,3040001132513,新規,0,2024-03-06,2024-03-06,株式会社庄左衛門,,株式会社,千葉県,千葉市稲毛区,小深町７８番地１,,12,103,2630003,,,,,,,2024-03-06,1,,,,,ショウザエモン,0
756,3040001132521,新規,0,2024-03-06,2024-03-06,株式会社アッシュ,,株式会社,千葉県,野田市,なみき３丁目１１番地７,,12,208,2700229,,,,,,,2024-03-06,1,,,,,アッシュ,0
757,3040001132546,新規,0,2024-03-06,2024-03-06,陽光希株式会社,,株式会社,千葉県,富里市,七栄２０３－３１,,12,233,2860221,,,,,,,2024-03-06,1,,,,,ヒナタミツキ,0
758,3050001054392,新規,0,2024-03-06,2024-03-06,株式会社ＬＩＫＥ,,株式会社,茨城県,牛久市,さくら台３丁目３０番地１７,,08,219,3001217,,,,,,,2024-03-06,1,,,,,ライク,0
762,3060001036877,新規,0,2024-03-06,2024-03-06,株式会社ＺＥＮＮＡ,,株式会社,栃木県,大田原市,前田９２８番地１,,09,210,3240234,,,,,,,2024-03-06,1,,,,,ゼンナ,0
763,3060005010176,新規,0,2024-03-06,2024-03-06,特定非営利活動法人那須塩原市スポーツ協会,,その他の設立登記法人,栃木県,那須塩原市,あたご町２番３号那須塩原市西那須野支所内,,09,213,3292725,,,,,,,2024-03-06,1,,,,,ナスシオバラシスポーツキョウカイ,0
771,3080001026166,新規,0,2024-03-06,2024-03-06,株式会社ＨＰ,,株式会社,静岡県,静岡市葵区,北３丁目２６番１１号,,22,101,4200961,,,,,,,2024-03-06,1,,,,,エイチピー,0
786,3100003007434,新規,0,2024-03-06,2024-03-06,合同会社ＭＪ電機,,合同会社,長野県,長野市,青木島町大塚１５０１番地１１,,20,201,3812205,,,,,,,2024-03-06,1,,,,,エムジェイデンキ,0
787,3110001038224,新規,0,2024-03-06,2024-03-06,株式会社ランチェスター,,株式会社,新潟県,新潟市西区,五十嵐３の町東２０－１,,15,107,9502173,,,,,,,2024-03-06,1,,,,,ランチェスター,0
800,3120001262847,新規,0,2024-03-06,2024-03-06,株式会社ＤＥＰＯ,,株式会社,大阪府,寝屋川市,初町１２番１９号グリーンベルマンション２０１,,27,215,5720833,,,,,,,2024-03-06,1,,,,,デポ,0
804,3120003026102,新規,0,2024-03-06,2024-03-06,リヤンプラス合同会社,,合同会社,大阪府,枚方市,藤阪東町１丁目１３番６２号,,27,210,5730153,,,,,,,2024-03-06,1,,,,,リヤンプラス,0
808,3120101069168,新規,0,2024-03-06,2024-03-06,吉木建装株式会社,,株式会社,大阪府,富田林市,南大伴町３丁目１１番２０号,,27,214,5840043,,,,,,,2024-03-06,1,,,,,ヨシキケンソウ,0
813,3120901048841,新規,0,2024-03-06,2024-03-06,株式会社ＹＭＫ,,株式会社,大阪府,吹田市,内本町２丁目１６番１２号,,27,205,5640032,,,,,,,2024-03-06,1,,,,,ワイエムケー,0
814,3120901048858,新規,0,2024-03-06,2024-03-06,エムズ株式会社,,株式会社,大阪府,吹田市,長野西１２－１－５０５,,27,205,5650817,,,,,,,2024-03-06,1,,,,,エムズ,0
815,3120903005072,新規,0,2024-03-06,2024-03-06,インフィニティ合同会社,,合同会社,大阪府,三島郡島本町,江川２丁目１５番４５－１２３８号,,27,301,6180013,,,,,,,2024-03-06,1,,,,,インフィニティ,0
816,3122001037881,新規,0,2024-03-06,2024-03-06,株式会社内外模型,,株式会社,大阪府,東大阪市,若江東町３丁目２番１８号,,27,227,5780935,,,,,,,2024-03-06,1,,,,,ナイガイモケイ,0
817,3130001076478,新規,0,2024-03-06,2024-03-06,株式会社コトノニジ,,株式会社,京都府,京都市中京区,新町通丸太町下る大炊町２１０番地,,26,104,6040092,,,,,,,2024-03-06,1,,,,,コトノニジ,0
819,3130003009361,新規,0,2024-03-06,2024-03-06,合同会社まんてんホーム,,合同会社,京都府,京都市左京区,上高野大湯手町５番地１１,,26,103,6060048,,,,,,,2024-03-06,1,,,,,マンテンホーム,0
822,3140001133575,新規,0,2024-03-06,2024-03-06,株式会社フォルテッシモ,,株式会社,兵庫県,芦屋市,親王塚町８番５号,,28,206,6590016,,,,,,,2024-03-06,1,,,,,フォルテッシモ,0
825,3140003020227,新規,0,2024-03-06,2024-03-06,合同会社善,,合同会社,兵庫県,姫路市,飾磨区恵美酒３２４番地１０,,28,201,6728057,,,,,,,2024-03-06,1,,,,,ゼン,0
826,3140003020235,新規,0,2024-03-06,2024-03-06,ＫＯＢＥ‐ＡＣ合同会社,,合同会社,兵庫県,神戸市垂水区,中道２丁目３－２,,28,108,6550896,,,,,,,2024-03-06,1,,,,,コウベエーシー,0
840,3180001160426,新規,0,2024-03-06,2024-03-06,デッドロック株式会社,,株式会社,愛知県,名古屋市中区,丸の内２丁目１２番１３号丸の内プラザビル４階,,23,106,4600002,,,,,,,2024-03-06,1,,,,,デッドロック,0
848,3180005020535,新規,0,2024-03-06,2024-03-06,弁護士法人こじま法律事務所,,その他の設立登記法人,愛知県,丹羽郡扶桑町,大字柏森字辻田３３２番地,,23,362,4800103,,,,,,,2024-03-06,1,,,,,コジマホウリツジムショ,0
852,3190001031163,新規,0,2024-03-06,2024-03-06,株式会社Ｎｏａ,,株式会社,三重県,津市,中河原２０５７番地,,24,201,5140018,,,,,,,2024-03-06,1,,,,,ノア,0
855,3200001042225,新規,0,2024-03-06,2024-03-06,本来株式会社,,株式会社,岐阜県,瑞浪市,寺河戸町１０９８番地の１２,,21,208,5096121,,,,,,,2024-03-06,1,,,,,ホンライ,0
861,3220001025847,新規,0,2024-03-06,2024-03-06,株式会社アルプトラベル,,株式会社,石川県,金沢市,問屋町２丁目３１番地,,17,201,9200061,,,,,,,2024-03-06,1,,,,,アルプトラベル,0
865,3220005008815,新規,0,2024-03-06,2024-03-06,特定非営利活動法人北陸チャリティーレストラン,,その他の設立登記法人,石川県,金沢市,常盤町２１番地２,,17,201,9200834,,,,,,,2024-03-06,1,,,,,ホクリクチャリティーレストラン,0
871,3240001062888,新規,0,2024-03-06,2024-03-06,株式会社Ｒｉｔａ,,株式会社,広島県,広島市安佐南区,古市１丁目６番２８号,,34,105,7310123,,,,,,,2024-03-06,1,,,,,リタ,0
872,3240001062896,新規,0,2024-03-06,2024-03-06,株式会社ＯＭマシナリー,,株式会社,広島県,広島市安佐北区,安佐町久地５１９番地の２,,34,106,7391700,,,,,,,2024-03-06,1,,,,,オーエムマシナリー,0
874,3260001038804,新規,0,2024-03-06,2024-03-06,吉備テクノ株式会社,,株式会社,岡山県,岡山市中区,国府市場３８１番地１０,,33,102,7038203,,,,,,,2024-03-06,1,,,,,キビテクノ,0
875,3260001038812,新規,0,2024-03-06,2024-03-06,株式会社三星工業Ａ．Ｓ,,株式会社,岡山県,岡山市中区,長岡２００番地１２,,33,102,7038221,,,,,,,2024-03-06,1,,,,,サンセイコウギョウエイエス,0
877,3270003001602,新規,0,2024-03-06,2024-03-06,合同会社にゃんこのお家,,合同会社,鳥取県,米子市,新開７丁目１６番２１号,,31,202,6830801,,,,,,,2024-03-06,1,,,,,ニャンコノオウチ,0
881,3290001104917,新規,0,2024-03-06,2024-03-06,株式会社ＥＶＥＮ,,株式会社,福岡県,福岡市博多区,中洲３丁目７番１５号７階Ａ号室,,40,132,8100801,,,,,,,2024-03-06,1,,,,,イーブン,0
882,3290001104925,新規,0,2024-03-06,2024-03-06,株式会社田中送電,,株式会社,福岡県,飯塚市,勢田１９２番地６,,40,205,8201111,,,,,,,2024-03-06,1,,,,,タナカソウデン,0
883,3290001104958,新規,0,2024-03-06,2024-03-06,株式会社ゆい,,株式会社,福岡県,糸島市,高田５丁目１番１６号,,40,230,8191102,,,,,,,2024-03-06,1,,,,,ユイ,0
891,3300001013637,新規,0,2024-03-06,2024-03-06,サンシャインマキ株式会社,,株式会社,佐賀県,神埼郡吉野ヶ里町,吉田１１２０番地１,,41,327,8420031,,,,,,,2024-03-06,1,,,,,サンシャインマキ,0
892,3310001018890,新規,0,2024-03-06,2024-03-06,株式会社ヒラソル,,株式会社,長崎県,西彼杵郡時津町,久留里郷２５５番地９,,42,308,8512107,,,,,,,2024-03-06,1,,,,,ヒラソル,0
897,3310005008748,新規,0,2024-03-06,2024-03-06,医療法人なかしま内科クリニック,,その他の設立登記法人,長崎県,長崎市,葉山１丁目２８番１５号,,42,201,8528053,,,,,,,2024-03-06,1,,,,,ナカシマナイカクリニック,0
902,3350001018821,新規,0,2024-03-06,2024-03-06,株式会社Ｍｅｔｈｏｄ,,株式会社,宮崎県,都城市,一万城町７４号１番地１Ｌｉｅｎ１０６号,,45,202,8850041,,,,,,,2024-03-06,1,,,,,メソッド,0
907,3370003006500,新規,0,2024-03-06,2024-03-06,合同会社ＰＴＯＭ,,合同会社,宮城県,石巻市,元倉１丁目１２番１０号,,04,202,9860811,,,,,,,2024-03-06,1,,,,,ピーティーオーエム,0
911,3380001034337,新規,0,2024-03-06,2024-03-06,株式会社晴れの杜,,株式会社,福島県,西白河郡矢吹町,東郷２００番地,,07,466,9690248,,,,,,,2024-03-06,1,,,,,ハレノモリ,0
913,3390001017547,新規,0,2024-03-06,2024-03-06,株式会社やまぐち農園,,株式会社,山形県,山形市,大字二位田４３番地,,06,201,9902355,,,,,,,2024-03-06,1,,,,,ヤマグチノウエン,0
917,3420001018616,新規,0,2024-03-06,2024-03-06,株式会社ＦａｒｍＮｏｖａ　ＩＧＡＲＡＳＨＩ,,株式会社,青森県,上北郡六ヶ所村,大字倉内字芋ケ崎４０３番地２,,02,411,0393215,,,,,,,2024-03-06,1,,,,,ファームノヴァイガラシ,0
919,3430001091240,新規,0,2024-03-06,2024-03-06,株式会社インアバンブ,,株式会社,北海道,札幌市東区,北四十二条東１７丁目６番１－３０２号,,01,103,0070842,,,,,,,2024-03-06,1,,,,,インアバンブ,0
928,3462501000982,新規,0,2024-03-06,2024-03-06,株式会社アセンドキャトルマネジメント,,株式会社,北海道,標津郡中標津町,南町８番地３３,,01,692,0861146,,,,,,,2024-03-06,1,,,,,アセンドキャトルマネジメント,0
929,3470001020063,新規,0,2024-03-06,2024-03-06,株式会社フォレスト,,株式会社,香川県,善通寺市,大麻町１９４３番地２,,37,204,7650052,,,,,,,2024-03-06,1,,,,,フォレスト,0
956,4010001242644,新規,0,2024-03-06,2024-03-06,クラウド・ナイン株式会社,,株式会社,東京都,千代田区,平河町１丁目９－８－１０３,,13,101,1020093,,,,,,,2024-03-06,1,,,,,クラウドナイン,0
957,4010001242818,新規,0,2024-03-06,2024-03-06,ＡＮＩＭＡＴＥＲＩＡＬ株式会社,,株式会社,東京都,中央区,京橋１丁目６－１３ＶＯＲＴ京橋ＩＩ,00133965,13,102,1040031,,,,,,,2024-03-06,1,,,,,アニマテリアル,0
958,4010001242826,新規,0,2024-03-06,2024-03-06,株式会社Ｗａｙｓ,,株式会社,東京都,中央区,日本橋横山町７番１９号,,13,102,1030003,,,,,,,2024-03-06,1,,,,,ウェイズ,0
959,4010001242842,新規,0,2024-03-06,2024-03-06,株式会社ＹＦＣ,,株式会社,東京都,中央区,湊３丁目１５番１０－２０１号,,13,102,1040043,,,,,,,2024-03-06,1,,,,,ワイエフシー,0
962,4010003043090,新規,0,2024-03-06,2024-03-06,合同会社サイクルライフ,,合同会社,東京都,中央区,日本橋室町１丁目１１－１２日本橋水野ビル７階,,13,102,1030022,,,,,,,2024-03-06,1,,,,,サイクルライフ,0
963,4010003043132,新規,0,2024-03-06,2024-03-06,合同会社ネクストレベル,,合同会社,東京都,千代田区,神田佐久間町２丁目１８番地１秋葉原ＳＴＮフロント１０階,,13,101,1010025,,,,,,,2024-03-06,1,,,,,ネクストレベル,0
965,4010005037990,新規,0,2024-03-06,2024-03-06,ＥＭＰ２一般社団法人,,その他の設立登記法人,東京都,中央区,日本橋１丁目４番１号日本橋一丁目ビルディング,,13,102,1030027,,,,,,,2024-03-06,1,,,,,イーエムピーツー,0
966,4010005037999,新規,0,2024-03-06,2024-03-06,大江町開発特定目的会社,,その他の設立登記法人,東京都,千代田区,内神田１丁目３番７号４０１あすな会計事務所内,,13,101,1010047,,,,,,,2024-03-06,1,,,,,オオエチョウカイハツ,0
973,4010401180535,新規,0,2024-03-06,2024-03-06,株式会社Ｕｎｚｉｐ,,株式会社,東京都,港区,南青山３丁目１番３６号青山丸竹ビル６Ｆ,,13,103,1070062,,,,,,,2024-03-06,1,,,,,アンジップ,0
974,4010401180758,新規,0,2024-03-06,2024-03-06,株式会社Ｔｅｃｈｎｏ　Ｗｅａｌｔｈ　Ｇｒｏｕｐ,,株式会社,東京都,港区,芝浦４丁目１９番１－２９０９号,,13,103,1080023,,,,,,,2024-03-06,1,,,,,テクノウェルスグループ,0
975,4010401180790,新規,0,2024-03-06,2024-03-06,日本ナーシング株式会社,,株式会社,東京都,港区,西新橋３丁目１５番１２号,,13,103,1050003,,,,,,,2024-03-06,1,,,,,ニホンナーシング,0
976,4010401180799,新規,0,2024-03-06,2024-03-06,ソース・マスターズ・ジャパン株式会社,,株式会社,東京都,港区,赤坂２丁目１４番５号,,13,103,1070052,,,,,,,2024-03-06,1,,,,,ソースマスターズジャパン,0
977,4010401180808,新規,0,2024-03-06,2024-03-06,株式会社ＤＴＦＳ,,株式会社,東京都,港区,白金３丁目１９番１０号,,13,103,1080072,,,,,,,2024-03-06,1,,,,,ディーティーエフエス,0
978,4010401180816,新規,0,2024-03-06,2024-03-06,ＧＤＨＷ株式会社,,株式会社,東京都,港区,芝５丁目１９－７－３０８,,13,103,1080014,,,,,,,2024-03-06,1,,,,,ジーディーエイチダブリュー,0
979,4010401180881,新規,0,2024-03-06,2024-03-06,株式会社蒼楓,,株式会社,東京都,港区,高輪３丁目１０－１５－２０５,,13,103,1080074,,,,,,,2024-03-06,1,,,,,ソウフウ,0
980,4010403032057,新規,0,2024-03-06,2024-03-06,合同会社ＷｉｎｅＢａｎｋ　Ｐ２,,合同会社,東京都,港区,六本木４丁目１２番８号,,13,103,1060032,,,,,,,2024-03-06,1,,,,,ワインバンクピーツー,0
985,4010501051875,新規,0,2024-03-06,2024-03-06,株式会社そばに,,株式会社,東京都,台東区,浅草６丁目６番６号１Ｆ,,13,106,1110032,,,,,,,2024-03-06,1,,,,,ソバニ,0
986,4010503007363,新規,0,2024-03-06,2024-03-06,合同会社ＬＡＹ,,合同会社,東京都,台東区,東浅草１丁目９－６－３Ｆ,,13,106,1110025,,,,,,,2024-03-06,1,,,,,エルエワイ,0
987,4010505003501,新規,0,2024-03-06,2024-03-06,医療法人社団真昼,,その他の設立登記法人,東京都,台東区,谷中３丁目２３番１０号モダーヴ西日暮里２階,,13,106,1100001,,,,,,,2024-03-06,1,,,,,マヒル,0
988,4010601064769,新規,0,2024-03-06,2024-03-06,株式会社アキラ商事,,株式会社,東京都,江東区,亀戸９丁目１４－１５－１３０１,,13,108,1360071,,,,,,,2024-03-06,1,,,,,アキラショウジ,0
992,4010701045644,新規,0,2024-03-06,2024-03-06,品川造形制作工房株式会社,,株式会社,東京都,品川区,東品川３丁目３番３－４０５号,,13,109,1400002,,,,,,,2024-03-06,1,,,,,シナガワゾウケイセイサクコウボウ,0
993,4010703007080,新規,0,2024-03-06,2024-03-06,Ｒｏｌｌ合同会社,,合同会社,東京都,品川区,西五反田６丁目１７番１０号,,13,109,1410031,,,,,,,2024-03-06,1,,,,,ロール,0
997,4010901054809,新規,0,2024-03-06,2024-03-06,株式会社ＡＭＪ,,株式会社,東京都,世田谷区,喜多見７丁目３５番１８号,,13,112,1570067,,,,,,,2024-03-06,1,,,,,エイエムジェイ,0
998,4010901054817,新規,0,2024-03-06,2024-03-06,株式会社ｓｏｎｏ,,株式会社,東京都,世田谷区,祖師谷３丁目３３－７,,13,112,1570072,,,,,,,2024-03-06,1,,,,,ソノ,0
1002,4011001160448,新規,0,2024-03-06,2024-03-06,日本電融株式会社,,株式会社,東京都,渋谷区,松濤１丁目２９番１渋谷クロスロード６階,,13,113,1500046,,,,,,,2024-03-06,1,,,,,ニホンデンユウ,0
1003,4011001160456,新規,0,2024-03-06,2024-03-06,株式会社オープニクス,,株式会社,東京都,渋谷区,道玄坂１丁目１０番８号渋谷道玄坂東急ビル２Ｆ－Ｃ,,13,113,1500043,,,,,,,2024-03-06,1,,,,,オープニクス,0
1004,4011001160472,新規,0,2024-03-06,2024-03-06,株式会社Ｖｉｒｔｕｅ,,株式会社,東京都,渋谷区,円山町５番５号Ｎａｖｉ渋谷Ｖ３階,00133976,13,113,1500044,,,,,,,2024-03-06,1,,,,,ヴァーチュ,0
1011,4011101106383,新規,0,2024-03-06,2024-03-06,株式会社Ｏｒｇ,,株式会社,東京都,新宿区,西新宿３丁目３番１３号西新宿水間ビル２Ｆ,,13,104,1600023,,,,,,,2024-03-06,1,,,,,オーアールジー,0
1012,4011101106391,新規,0,2024-03-06,2024-03-06,株式会社Ｆｏｕｒ　Ｎｉｎｅ,,株式会社,東京都,新宿区,新宿４丁目１番１９号ＦＵＭＩビル３階,,13,104,1600022,,,,,,,2024-03-06,1,,,,,フォーナイン,0
1013,4011101106409,新規,0,2024-03-06,2024-03-06,株式会社ジニアス,,株式会社,東京都,新宿区,矢来町８５番地,,13,104,1620805,,,,,,,2024-03-06,1,,,,,ジニアス,0
1014,4011101106417,新規,0,2024-03-06,2024-03-06,株式会社Ｈａｎａｐｐ,,株式会社,東京都,新宿区,高田馬場３丁目１番５号サンパティオ高田馬場２０５号室,,13,104,1690075,,,,,,,2024-03-06,1,,,,,ハナップ,0
1015,4011101106425,新規,0,2024-03-06,2024-03-06,株式会社アスティホールディングス,,株式会社,東京都,新宿区,百人町１丁目５番１号３Ｆ,,13,104,1690073,,,,,,,2024-03-06,1,,,,,アスティホールディングス,0
1016,4011101106433,新規,0,2024-03-06,2024-03-06,株式会社リロホテルソリューションズ,,株式会社,東京都,新宿区,新宿５丁目１７番９号,,13,104,1600022,,,,,,,2024-03-06,1,,,,,リロホテルソリューションズ,0
1018,4011105010961,新規,0,2024-03-06,2024-03-06,医療法人社団ＳＯＣＩＵＳ,,その他の設立登記法人,東京都,新宿区,高田馬場２丁目１７番６号ゆう文ビル８階,,13,104,1690075,,,,,,,2024-03-06,1,,,,,ソキウス,0
1021,4011201025285,新規,0,2024-03-06,2024-03-06,株式会社ＫＡＭＰＡＩ,,株式会社,東京都,中野区,中野５丁目６７番７号プラザ中野８０１,,13,114,1640001,,,,,,,2024-03-06,1,,,,,カンパイ,0
1022,4011203004320,新規,0,2024-03-06,2024-03-06,カスガ合同会社,,合同会社,東京都,中野区,上高田４丁目４３番９号,,13,114,1640002,,,,,,,2024-03-06,1,,,,,カスガ,0
1032,4011503005976,新規,0,2024-03-06,2024-03-06,金田一村合同会社,,合同会社,東京都,北区,滝野川７丁目１１番１０－１００２号朝日板橋駅前マンション,,13,117,1140023,,,,,,,2024-03-06,1,,,,,カネダイチムラ,0
1039,4012401041592,新規,0,2024-03-06,2024-03-06,ＡＫドローンコンサルタント株式会社,,株式会社,東京都,多摩市,馬引沢１丁目１６番地９,,13,224,2060023,,,,,,,2024-03-06,1,,,,,エーケードローンコンサルタント,0
1040,4012401041601,新規,0,2024-03-06,2024-03-06,新井ＦＰ研究所株式会社,,株式会社,東京都,小金井市,桜町１丁目３番２３号（１３）,,13,210,1840005,,,,,,,2024-03-06,1,,,,,アライエフピーケンキュウジョ,0
1041,4012801023001,新規,0,2024-03-06,2024-03-06,株式会社ＥＮ,,株式会社,東京都,立川市,錦町２丁目４番２３－２０１号,,13,202,1900022,,,,,,,2024-03-06,1,,,,,エン,0
1042,4013301052168,新規,0,2024-03-06,2024-03-06,株式会社ＮＥＸＴ　ＯＮＥ,,株式会社,東京都,豊島区,池袋２丁目４５番１号アークシティ池袋４０６号,,13,116,1710014,,,,,,,2024-03-06,1,,,,,ネクストワン,0
1048,4020001156059,新規,0,2024-03-06,2024-03-06,株式会社ａｎｙｗｅｂ,,株式会社,神奈川県,横浜市青葉区,たちばな台２丁目１７番地１１,,14,117,2270046,,,,,,,2024-03-06,1,,,,,,0
1049,4020001156083,新規,0,2024-03-06,2024-03-06,株式会社ア・ドゥマン,,株式会社,神奈川県,横浜市中区,野毛町１丁目２９番,,14,104,2310064,,,,,,,2024-03-06,1,,,,,アドゥマン,0
1050,4020001156100,新規,0,2024-03-06,2024-03-06,ＤＸＰ株式会社,,株式会社,神奈川県,横浜市神奈川区,二ツ谷町７番地５リヴィエール４０２号,,14,102,2210823,,,,,,,2024-03-06,1,,,,,ディーエックスピー,0
1051,4020001156109,新規,0,2024-03-06,2024-03-06,株式会社ＷＧ,,株式会社,神奈川県,横浜市中区,万代町２丁目３番地１、２０４号室,,14,104,2310031,,,,,,,2024-03-06,1,,,,,ダブルジー,0
1054,4020003025658,新規,0,2024-03-06,2024-03-06,合同会社アンカープライド中山,,合同会社,神奈川県,横浜市緑区,台村町１７５番地,,14,113,2260014,,,,,,,2024-03-06,1,,,,,アンカープライドナカヤマ,0
1059,4021001081627,新規,0,2024-03-06,2024-03-06,株式会社葉山植文,,株式会社,神奈川県,三浦郡葉山町,木古庭８３１番地,,14,301,2400114,,,,,,,2024-03-06,1,,,,,ハヤマウエフミ,0
1060,4021001081635,新規,0,2024-03-06,2024-03-06,株式会社アズマインターナショナル,,株式会社,神奈川県,相模原市南区,大野台３丁目３８番１号,,14,153,2520331,,,,,,,2024-03-06,1,,,,,アズマインターナショナル,0
1065,4030001159011,新規,0,2024-03-06,2024-03-06,株式会社フォーユープランニング,,株式会社,埼玉県,さいたま市桜区,大字大久保領家３７番地１－１０１,,11,106,3380826,,,,,,,2024-03-06,1,,,,,フォーユープランニング,0
1066,4030001159028,新規,0,2024-03-06,2024-03-06,株式会社光工務店,,株式会社,埼玉県,北葛飾郡松伏町,ゆめみ野４丁目４番地１３７,,11,465,3430113,,,,,,,2024-03-06,1,,,,,ヒカルコウムテン,0
1067,4030001159036,新規,0,2024-03-06,2024-03-06,株式会社ＰＨＯＴＯＮ,,株式会社,埼玉県,深谷市,東方２７５５番地５,,11,218,3660041,,,,,,,2024-03-06,1,,,,,フォトン,0
1068,4030001159044,新規,0,2024-03-06,2024-03-06,株式会社ｒｅｂｏｕｎｄｉｎｇ,,株式会社,埼玉県,川口市,川口２丁目１４－２８ブルジョン７－２０７号室,,11,203,3320015,,,,,,,2024-03-06,1,,,,,リバウンディング,0
1069,4030001159052,新規,0,2024-03-06,2024-03-06,株式会社森田自動車,,株式会社,埼玉県,白岡市,太田新井５６４番地２,,11,246,3490225,,,,,,,2024-03-06,1,,,,,モリタジドウシャ,0
1070,4030001159060,新規,0,2024-03-06,2024-03-06,エアデザイン株式会社,,株式会社,埼玉県,さいたま市西区,三橋６丁目１７４７番地２３,,11,101,3310052,,,,,,,2024-03-06,1,,,,,エアデザイン,0
1071,4030001159077,新規,0,2024-03-06,2024-03-06,株式会社星のアトリエ,,株式会社,埼玉県,さいたま市大宮区,東町２丁目１９７番地マンションＮＡ３０１号室,,11,103,3300841,,,,,,,2024-03-06,1,,,,,ホシノアトリエ,0
1074,4030003023751,新規,0,2024-03-06,2024-03-06,サイバーフォーラム・ジャパン合同会社,,合同会社,埼玉県,新座市,新座３丁目２番１７－４０５号,,11,230,3520006,,,,,,,2024-03-06,1,,,,,サイバーフォーラムジャパン,0
1075,4030005021571,新規,0,2024-03-06,2024-03-06,ウィンベルソロ熊谷第３管理組合法人,,その他の設立登記法人,埼玉県,熊谷市,本石２丁目２１６番地１,,11,202,3600815,,,,,,,2024-03-06,1,,,,,ウィンベルソロクマガヤダイサン,0
1078,4040001132479,新規,0,2024-03-06,2024-03-06,イケラグ株式会社,,株式会社,千葉県,船橋市,海神１丁目１２番４－２０３号,,12,204,2730021,,,,,,,2024-03-06,1,,,,,イケラグ,0
1079,4040001132487,新規,0,2024-03-06,2024-03-06,株式会社Ｎｉｋｏｇｕｓａ,,株式会社,千葉県,千葉市稲毛区,園生町３８２番地２５,,12,103,2630051,,,,,,,2024-03-06,1,,,,,ニコグサ,0
1080,4040001132512,新規,0,2024-03-06,2024-03-06,株式会社トラストプラス,,株式会社,千葉県,市川市,北方町４丁目２０９７番地８,,12,203,2720811,,,,,,,2024-03-06,1,,,,,トラストプラス,0
1086,4040003024468,新規,0,2024-03-06,2024-03-06,合同会社伊藤組,,合同会社,千葉県,君津市,南子安６丁目１６番２５号,,12,225,2991162,,,,,,,2024-03-06,1,,,,,イトウグミ,0
1087,4040003024476,新規,0,2024-03-06,2024-03-06,ＹＳ合同会社,,合同会社,千葉県,船橋市,湊町２丁目１２－２４湊町日本橋ビル６階,,12,204,2730011,,,,,,,2024-03-06,1,,,,,ワイエス,0
1089,4050001054391,新規,0,2024-03-06,2024-03-06,株式会社矢代,,株式会社,茨城県,神栖市,神栖３丁目４番５０号,,08,232,3140143,,,,,,,2024-03-06,1,,,,,ヤシロ,0
1090,4050001054400,新規,0,2024-03-06,2024-03-06,株式会社ＢＡＲＤＡＮ,,株式会社,茨城県,牛久市,牛久町２８０エスカード牛久２Ｆ,,08,219,3001221,,,,,,,2024-03-06,1,,,,,バルダン,0
1094,4050003008180,新規,0,2024-03-06,2024-03-06,合同会社Ｗエンターテイメント,,合同会社,茨城県,ひたちなか市,表町３－３アイザックビル２階,,08,221,3120047,,,,,,,2024-03-06,1,,,,,ダブリューエンターテイメント,0
1109,4100003007433,新規,0,2024-03-06,2024-03-06,合同会社響座,,合同会社,長野県,松本市,筑摩３丁目３０番７号パストラーレ３０１,,20,202,3900821,,,,,,,2024-03-06,1,,,,,ヒビキザ,0
1120,4120001262466,新規,0,2024-03-06,2024-03-06,株式会社Ｃｈｉｖａｓ,,株式会社,大阪府,大阪市西淀川区,佃３丁目１４－２０,,27,113,5550001,,,,,,,2024-03-06,1,,,,,シーバス,0
1121,4120001262953,新規,0,2024-03-06,2024-03-06,風林火山株式会社,,株式会社,大阪府,大阪市旭区,赤川１丁目５番１３号天理マンション２０６,,27,117,5350005,,,,,,,2024-03-06,1,,,,,フウリンカザン,0
1124,4120003026068,新規,0,2024-03-06,2024-03-06,興永合同会社,,合同会社,大阪府,大阪市東成区,中道４丁目１６番２１－４０７号,,27,115,5370025,,,,,,,2024-03-06,1,,,,,コウエイ,0
1125,4120003026084,新規,0,2024-03-06,2024-03-06,合同会社無一,,合同会社,大阪府,大阪市都島区,都島本通４丁目１７番２２号,,27,102,5340021,,,,,,,2024-03-06,1,,,,,ムイチ,0
1128,4120101069159,新規,0,2024-03-06,2024-03-06,株式会社Ｋ．Ｒ　ＧＲＯＵＰ,,株式会社,大阪府,藤井寺市,国府１丁目１番３－１０１号,,27,226,5830006,,,,,,,2024-03-06,1,,,,,ケアールグループ,0
1136,4120903005071,新規,0,2024-03-06,2024-03-06,合同会社ＭＦメディカルプロバイダーズ,,合同会社,大阪府,茨木市,南春日丘５丁目１０番１３号,,27,211,5670046,,,,,,,2024-03-06,1,,,,,エムエフメディカルプロバイダーズ,0
1148,4140001133525,新規,0,2024-03-06,2024-03-06,株式会社Ｔ．Ｏ．Ｐ．ＢｕｄｄｙＳｙｓｔｅｍ,,株式会社,兵庫県,西宮市,二見町４番１６号Ｂ号室,,28,204,6638111,,,,,,,2024-03-06,1,,,,,トップバディシステム,0
1149,4140001133574,新規,0,2024-03-06,2024-03-06,株式会社ＧｒｅｅｎＶｉｎｔａｇｅ,,株式会社,兵庫県,姫路市,夢前町寺３５４－５２,,28,201,6712116,,,,,,,2024-03-06,1,,,,,グリーンヴィンテージ,0
1153,4140003020234,新規,0,2024-03-06,2024-03-06,カフェエース合同会社,,合同会社,兵庫県,神戸市長田区,大橋町６丁目１番１－１１７号,,28,106,6530037,,,,,,,2024-03-06,1,,,,,カフェエース,0
1154,4140003020242,新規,0,2024-03-06,2024-03-06,ＡＲＣＯＢＡＬＥＮＯ合同会社,,合同会社,兵庫県,姫路市,南町６３番地ミツワビル,,28,201,6700912,,,,,,,2024-03-06,1,,,,,アルコバレーノ,0
1155,4150003003196,新規,0,2024-03-06,2024-03-06,合同会社スキルプライム,,合同会社,奈良県,大和郡山市,箕山町６番１９号Ｗｉｌｌ１０２号室,,29,203,6391015,,,,,,,2024-03-06,1,,,,,スキルプライム,0
1158,4180001017229,新規,0,2024-03-06,2024-03-06,太洋物産株式会社,,株式会社,愛知県,名古屋市東区,葵１丁目２５番１号,,23,102,4610004,,,,,,,2024-03-06,1,,,,,タイヨウブッサン,0
1167,4180001160417,新規,0,2024-03-06,2024-03-06,株式会社ワンルーム,,株式会社,愛知県,一宮市,木曽川町黒田字山１１３番地５,,23,203,4930001,,,,,,,2024-03-06,1,,,,,ワンルーム,0
1176,4190001031154,新規,0,2024-03-06,2024-03-06,ａｌｍａ株式会社,,株式会社,三重県,桑名市,東正和台５丁目８番地４,,24,205,5110932,,,,,,,2024-03-06,1,,,,,アルマ,0
1181,4200001042224,新規,0,2024-03-06,2024-03-06,ジーティー工業株式会社,,株式会社,岐阜県,各務原市,各務西町６丁目１４２番地,,21,213,5090106,,,,,,,2024-03-06,1,,,,,ジーティーコウギョウ,0
1183,4210001019659,新規,0,2024-03-06,2024-03-06,株式会社ＡＬＬ　ＣＯＮＮＥＣＴ　Ｇｕｉｌｄ,,株式会社,福井県,福井市,栂野町第１５号１番地２,,18,201,9102178,,,,,,,2024-03-06,1,,,,,オールコネクトギルド,0
1188,4220001025813,新規,0,2024-03-06,2024-03-06,北陸ウエストホーム株式会社,,株式会社,石川県,金沢市,西念４丁目２４‐３０金沢ＭＧビル３Ｆ,,17,201,9200024,,,,,,,2024-03-06,1,,,,,ホクリクウエストホーム,0
1189,4220001025854,新規,0,2024-03-06,2024-03-06,株式会社金沢帰源,,株式会社,石川県,金沢市,増泉１丁目７番３号,,17,201,9218025,,,,,,,2024-03-06,1,,,,,カナザワキゲン,0
1191,4240001062879,新規,0,2024-03-06,2024-03-06,株式会社せとうちシャトレーゼ,,株式会社,広島県,呉市,安浦町大字三津口３２６番地４８,,34,202,7372502,,,,,,,2024-03-06,1,,,,,セトウチシャトレーゼ,0
1192,4240001062895,新規,0,2024-03-06,2024-03-06,株式会社ワカチアイ,,株式会社,広島県,広島市中区,大手町１丁目７番２１号,,34,101,7300051,,,,,,,2024-03-06,1,,,,,ワカチアイ,0
1198,4260001038811,新規,0,2024-03-06,2024-03-06,米確株式会社,,株式会社,岡山県,岡山市北区,青江４丁目５番１５号,,33,101,7000941,,,,,,,2024-03-06,1,,,,,コメカク,0
1212,4290001104916,新規,0,2024-03-06,2024-03-06,株式会社ＦＵＪＩＳＡＫＩ,,株式会社,福岡県,糸島市,波多江駅北４丁目９番１５号,,40,230,8191107,,,,,,,2024-03-06,1,,,,,フジサキ,0
1213,4290003015021,新規,0,2024-03-06,2024-03-06,合同会社Ｍｅｌｉａ,,合同会社,福岡県,福岡市中央区,地行１丁目１４番２０号,,40,133,8100064,,,,,,,2024-03-06,1,,,,,メリア,0
1216,4290801030361,新規,0,2024-03-06,2024-03-06,株式会社グリーンスタイル,,株式会社,福岡県,北九州市戸畑区,高峰３丁目８番１０号,,40,105,8040051,,,,,,,2024-03-06,1,,,,,グリーンスタイル,0
1222,4310001018881,新規,0,2024-03-06,2024-03-06,株式会社Ｓｍａｌｌ　Ｖｉｌｌａｇｅ,,株式会社,長崎県,佐世保市,江迎町長坂１６４番地７,,42,202,8596101,,,,,,,2024-03-06,1,,,,,スモールビレッジ,0
1226,4310005008747,新規,0,2024-03-06,2024-03-06,医療法人さわやか,,その他の設立登記法人,長崎県,島原市,親和町丁３５６５番地１１,,42,203,8550863,,,,,,,2024-03-06,1,,,,,サワヤカ,0
1227,4330003010249,新規,0,2024-03-06,2024-03-06,合同会社ｒｏｒｏｎｏｎｏ,,合同会社,熊本県,菊池郡菊陽町,大字津久礼２９５０番地１６,,43,404,8691101,,,,,,,2024-03-06,1,,,,,ロロノノ,0
1234,4350001018820,新規,0,2024-03-06,2024-03-06,キクチ広告事務所株式会社,,株式会社,宮崎県,延岡市,沖田町２６４０－９,,45,203,8820876,,,,,,,2024-03-06,1,,,,,キクチコウコクジムショ,0
1239,4360003013637,新規,0,2024-03-06,2024-03-06,合同会社エア魂クリーニング,,合同会社,沖縄県,石垣市,字平得１１７番地３０ＹｈｏｍｅＰｌａｚａ３０３,,47,207,9070003,,,,,,,2024-03-06,1,,,,,エアコンクリーニング,0
1240,4360003013752,新規,0,2024-03-06,2024-03-06,合同会社オーティーエム,,合同会社,沖縄県,島尻郡八重瀬町,字世名城１４,,47,362,9010403,,,,,,,2024-03-06,1,,,,,オーティーエム,0
1241,4360003013760,新規,0,2024-03-06,2024-03-06,合同会社しらほ学童クラブ,,合同会社,沖縄県,石垣市,字白保１１８番地しらほサンゴ村,,47,207,9070242,,,,,,,2024-03-06,1,,,,,シラホガクドウクラブ,0
1242,4360005007001,新規,0,2024-03-06,2024-03-06,一般社団法人リノベーション沖縄,,その他の設立登記法人,沖縄県,那覇市,松山１丁目１５番１号,,47,201,9000032,,,,,,,2024-03-06,1,,,,,リノベーションオキナワ,0
1255,4410001013749,新規,0,2024-03-06,2024-03-06,株式会社平利,,株式会社,秋田県,横手市,大町６番２２号,,05,203,0130021,,,,,,,2024-03-06,1,,,,,ヒラリ,0
1260,4430001091248,新規,0,2024-03-06,2024-03-06,大洋株式会社,,株式会社,北海道,札幌市中央区,南九条西３丁目２－１マジソンハイツ３０７,,01,101,0640809,,,,,,,2024-03-06,1,,,,,タイヨウ,0
1262,4450001014248,新規,0,2024-03-06,2024-03-06,株式会社エアーテックス,,株式会社,北海道,上川郡鷹栖町,１２線七号３番地,,01,452,0711252,,,,,,,2024-03-06,1,,,,,エアーテックス,0
1264,4450003002449,新規,0,2024-03-06,2024-03-06,合同会社タカアシスト,,合同会社,北海道,増毛郡増毛町,見晴町１１７３番地の３,,01,481,0770222,,,,,,,2024-03-06,1,,,,,,0
1265,4460001005873,新規,0,2024-03-06,2024-03-06,株式会社家工房ＳＥＮＳＥ,,株式会社,北海道,阿寒郡鶴居村,字幌呂原野南五線４３番地８７,,01,667,0851200,,,,,,,2024-03-06,1,,,,,イエコウボウセンス,0
1268,4490001010714,新規,0,2024-03-06,2024-03-06,株式会社ＯＨＩＳＨＩ,,株式会社,高知県,高知市,神田２３８４番地１４,,39,201,7808040,,,,,,,2024-03-06,1,,,,,,0
1272,5010001242742,新規,0,2024-03-06,2024-03-06,７ＫＩＮＧＤＯＭ株式会社,,株式会社,東京都,千代田区,神田紺屋町２８番地１ＡＤ－Ｃ神田１０階,,13,101,1010035,,,,,,,2024-03-06,1,,,,,セブンキングダム,0
1273,5010001242775,新規,0,2024-03-06,2024-03-06,株式会社ＧＰＳ　ＨＯＬＤＩＮＧＳ,,株式会社,東京都,中央区,新川１丁目６番１１号,,13,102,1040033,,,,,,,2024-03-06,1,,,,,ジーピーエスホールディングス,0
1274,5010001242825,新規,0,2024-03-06,2024-03-06,株式会社スカイ,,株式会社,東京都,文京区,湯島３丁目２７番１４号,,13,105,1130034,,,,,,,2024-03-06,1,,,,,スカイ,0
1275,5010001242858,新規,0,2024-03-06,2024-03-06,三幸ＨＤ株式会社,,株式会社,東京都,千代田区,九段南１丁目５番６号りそな九段ビル５Ｆ,,13,101,1020074,,,,,,,2024-03-06,1,,,,,サンコウホールディングス,0
1279,5010005037998,新規,0,2024-03-06,2024-03-06,一般社団法人大自然倶楽部,,その他の設立登記法人,東京都,中央区,銀座２丁目８番５号ＩＷＡＯビル８Ｆ,,13,102,1040061,,,,,,,2024-03-06,1,,,,,ダイシゼンクラブ,0
1282,5010401180781,新規,0,2024-03-06,2024-03-06,株式会社Ｎｕｇｉｎｙ,,株式会社,東京都,港区,北青山１丁目３番１号アールキューブ青山３階,,13,103,1070061,,,,,,,2024-03-06,1,,,,,ニューギニー,0
1283,5010401180798,新規,0,2024-03-06,2024-03-06,株式会社ＣｙＦｉｔ,,株式会社,東京都,港区,三田３丁目１４番１３－８０２号ハーモニーレジデンス三田,,13,103,1080073,,,,,,,2024-03-06,1,,,,,サイフィット,0
1284,5010401180807,新規,0,2024-03-06,2024-03-06,株式会社ＬＡ　Ｃａｐｉｔａｌ,,株式会社,東京都,港区,北青山２丁目１２番１３号青山ＫＹビル４Ｆ,,13,103,1070061,,,,,,,2024-03-06,1,,,,,エルエーキャピタル,0
1285,5010401180848,新規,0,2024-03-06,2024-03-06,株式会社Ｃｏｌｏｒｌｅｓｓ,,株式会社,東京都,港区,南青山３丁目１５－９ＭＩＮＯＷＡ表参道３階,,13,103,1070062,,,,,,,2024-03-06,1,,,,,カラーレス,0
1290,5010403032080,新規,0,2024-03-06,2024-03-06,合同会社ＡＳＡ,,合同会社,東京都,港区,元麻布１丁目１番１８号,,13,103,1060046,,,,,,,2024-03-06,1,,,,,エーエスエー,0
1291,5010403032097,新規,0,2024-03-06,2024-03-06,合同会社Ｋ‐ｎｏｎ,,合同会社,東京都,港区,赤坂２丁目２１番５号赤坂・溜池山王ビジネスセンター,,13,103,1070052,,,,,,,2024-03-06,1,,,,,カノン,0
1297,5010503007362,新規,0,2024-03-06,2024-03-06,合同会社誠,,合同会社,東京都,台東区,松が谷４丁目２０番１１－２０３号レジェンド松が谷,,13,106,1110036,,,,,,,2024-03-06,1,,,,,マコト,0
1298,5010505003500,新規,0,2024-03-06,2024-03-06,医療法人社団Ｆａｌａｄｏ,,その他の設立登記法人,東京都,台東区,上野３丁目２７番１号十仁タワー７階,,13,106,1100005,,,,,,,2024-03-06,1,,,,,ファラド,0
1301,5010601064768,新規,0,2024-03-06,2024-03-06,株式会社スプレッド,,株式会社,東京都,江東区,亀戸７丁目４１－１２・スパシエルクス亀戸１００２,,13,108,1360071,,,,,,,2024-03-06,1,,,,,スプレッド,0
1303,5010603010695,新規,0,2024-03-06,2024-03-06,ＷｋＴ合同会社,,合同会社,東京都,江東区,大島１丁目２３番２４号,,13,108,1360072,,,,,,,2024-03-06,1,,,,,ダブルケイティ,0
1308,5010801034827,新規,0,2024-03-06,2024-03-06,シーテック株式会社,,株式会社,東京都,大田区,大森南３丁目２６番１６号ウエン・伊東１０５,,13,111,1430013,,,,,,,2024-03-06,1,,,,,シーテック,0
1309,5010803004869,新規,0,2024-03-06,2024-03-06,エスオーコンサルティング合同会社,,合同会社,東京都,大田区,大森本町１丁目８番１０－１４０４号,,13,111,1430011,,,,,,,2024-03-06,1,,,,,エスオーコンサルティング,0
1312,5010901054816,新規,0,2024-03-06,2024-03-06,株式会社Ｌ＆Ｇ　ｅｓｔａｔｅ,,株式会社,東京都,世田谷区,代沢２丁目３０番１９号パワーハウス代沢１０７,,13,112,1550032,,,,,,,2024-03-06,1,,,,,エルアンドジーエステート,0
1313,5010903008869,新規,0,2024-03-06,2024-03-06,マカナ合同会社,,合同会社,東京都,世田谷区,宮坂３丁目１７－５,,13,112,1560051,,,,,,,2024-03-06,1,,,,,マカナ,0
1316,5011001160422,新規,0,2024-03-06,2024-03-06,株式会社ビスケット,,株式会社,東京都,渋谷区,渋谷２丁目１９－１５宮益坂ビルディング６０９,,13,113,1500002,,,,,,,2024-03-06,1,,,,,ビスケット,0
1317,5011001160455,新規,0,2024-03-06,2024-03-06,株式会社ＫＯＳＥ,,株式会社,東京都,渋谷区,神宮前５丁目４６－２０ストーンズコート表参道３Ｆ,,13,113,1500001,,,,,,,2024-03-06,1,,,,,コーセー,0
1319,5011005010400,新規,0,2024-03-06,2024-03-06,特定非営利活動法人子どもと家庭支援かがやき,,その他の設立登記法人,東京都,渋谷区,恵比寿西２丁目２番８号えびす第二ビル６階,,13,113,1500021,,,,,,,2024-03-06,1,,,,,コドモトカテイシエンカガヤキ,0
1323,5011101106408,新規,0,2024-03-06,2024-03-06,株式会社ｅｍａ．,,株式会社,東京都,新宿区,西新宿１丁目１５番９号ＶＩＮＴＡＧＥ１（ヴィンテージワン）７階,,13,104,1600023,,,,,,,2024-03-06,1,,,,,エマ,0
1324,5011101106424,新規,0,2024-03-06,2024-03-06,株式会社ＴｅｒｒａＷｉｓｅ,,株式会社,東京都,新宿区,西新宿８丁目１１－１０星野ビル３階３２２,,13,104,1600023,,,,,,,2024-03-06,1,,,,,テラワイズ,0
1325,5011103014170,新規,0,2024-03-06,2024-03-06,合同会社ゼロインクリメント,,合同会社,東京都,新宿区,西新宿３丁目３番１３号西新宿水間ビル２Ｆ,,13,104,1600023,,,,,,,2024-03-06,1,,,,,ゼロインクリメント,0
1327,5011201025284,新規,0,2024-03-06,2024-03-06,株式会社アイトゥー,,株式会社,東京都,中野区,東中野１丁目１番１号リバーパーク東中野３０４,,13,114,1640003,,,,,,,2024-03-06,1,,,,,アイトゥー,0
1328,5011305002964,新規,0,2024-03-06,2024-03-06,医療法人社団一歩会,,その他の設立登記法人,東京都,杉並区,桃井４丁目２番２１号フェリシア桃井１階,,13,115,1670034,,,,,,,2024-03-06,1,,,,,シャダンイッポカイ,0
1333,5011601027582,新規,0,2024-03-06,2024-03-06,Ｈ＆Ａ株式会社,,株式会社,東京都,練馬区,田柄４丁目２９番４号アカツカエイト１０１号,,13,120,1790073,,,,,,,2024-03-06,1,,,,,エイチアンドエー,0
1334,5011701027086,新規,0,2024-03-06,2024-03-06,株式会社ビークイック,,株式会社,東京都,江戸川区,中葛西２丁目４番２７号,,13,123,1340083,,,,,,,2024-03-06,1,,,,,ビークイック,0
1338,5012401041591,新規,0,2024-03-06,2024-03-06,ＢＬＵＥ　ＥＹＥ株式会社,,株式会社,東京都,稲城市,大丸１４０番地の１４,,13,225,2060801,,,,,,,2024-03-06,1,,,,,ブルーアイ,0
1339,5012701018117,新規,0,2024-03-06,2024-03-06,日和通見株式会社,,株式会社,東京都,清瀬市,元町１丁目１３番２１号エメラルドハイツ１０１－１０１号室－Ｊ,,13,221,2040021,,,,,,,2024-03-06,1,,,,,ヒヨリツウケン,0
1340,5012801023009,新規,0,2024-03-06,2024-03-06,株式会社ダイチフーズ,,株式会社,東京都,国分寺市,本町２丁目１２番５号,,13,214,1850012,,,,,,,2024-03-06,1,,,,,ダイチフーズ,0
1350,5020001156058,新規,0,2024-03-06,2024-03-06,株式会社Ｎｅｘｕｓ,,株式会社,神奈川県,横浜市中区,初音町１丁目２３番地１アドリーム横浜初音１００３,,14,104,2310053,,,,,,,2024-03-06,1,,,,,ネクサス,0
1351,5020001156066,新規,0,2024-03-06,2024-03-06,石川町不動産株式会社,,株式会社,神奈川県,横浜市中区,石川町５丁目２２４番地８,,14,104,2310868,,,,,,,2024-03-06,1,,,,,イシカワチョウフドウサン,0
1352,5020001156074,新規,0,2024-03-06,2024-03-06,株式会社ＮＥＸＴ　ＭＯＲＥ,,株式会社,神奈川県,横浜市港南区,野庭町５９３番地９サンライズＮＯＶＡ５０３,,14,111,2340056,,,,,,,2024-03-06,1,,,,,ネクストモア,0
1353,5020001156090,新規,0,2024-03-06,2024-03-06,株式会社ＷｈｉｔｅＳｐａｃｅ,,株式会社,神奈川県,横浜市鶴見区,矢向４丁目２８番１７－１号,,14,101,2300001,,,,,,,2024-03-06,1,,,,,ホワイトスペース,0
1354,5020001156108,新規,0,2024-03-06,2024-03-06,ファインベスト株式会社,,株式会社,神奈川県,横浜市都筑区,中川中央１丁目３８番５号,,14,118,2240003,,,,,,,2024-03-06,1,,,,,ファインベスト,0
1359,5020003025657,新規,0,2024-03-06,2024-03-06,合同会社レブグライド,,合同会社,神奈川県,横浜市西区,北幸２丁目１０番４８号むつみビル３階,,14,103,2200004,,,,,,,2024-03-06,1,,,,,レブグライド,0
1360,5020003025673,新規,0,2024-03-06,2024-03-06,合同会社橋山,,合同会社,神奈川県,横浜市中区,曙町４丁目５０番地４アクトビル２０２,,14,104,2310057,,,,,,,2024-03-06,1,,,,,ハシヤマ,0
1362,5021001081618,新規,0,2024-03-06,2024-03-06,株式会社ワグテールサポート,,株式会社,神奈川県,鎌倉市,浄明寺６丁目５番１８号,,14,204,2480003,,,,,,,2024-03-06,1,,,,,ワグーテールサポート,0
1363,5021001081626,新規,0,2024-03-06,2024-03-06,株式会社ＳＨＯＴ,,株式会社,神奈川県,大和市,南林間１丁目１０番１７号,,14,213,2420006,,,,,,,2024-03-06,1,,,,,ショット,0
1369,5021003014220,新規,0,2024-03-06,2024-03-06,ユナイテッドスタイルス合同会社,,合同会社,神奈川県,海老名市,国分寺台３丁目３番８号,,14,215,2430413,,,,,,,2024-03-06,1,,,,,ユナイテッドスタイルス,0
1370,5021003014229,新規,0,2024-03-06,2024-03-06,インアサクサ合同会社,,合同会社,神奈川県,大和市,桜森２丁目１０－１４ジェームス・タウン相模大塚１０１号室,,14,213,2420028,,,,,,,2024-03-06,1,,,,,インアサクサ,0
1371,5021005013030,新規,0,2024-03-06,2024-03-06,一般社団法人江の島海洋教育センター,,その他の設立登記法人,神奈川県,藤沢市,江の島２丁目１番１２号,,14,205,2510036,,,,,,,2024-03-06,1,,,,,エノシマカイヨウキョウイクセンター,0
1373,5030001158978,新規,0,2024-03-06,2024-03-06,中野株式会社,,株式会社,埼玉県,さいたま市桜区,西堀４丁目１１番７－６１２号,,11,106,3380832,,,,,,,2024-03-06,1,,,,,ナカノ,0
1374,5030001159019,新規,0,2024-03-06,2024-03-06,株式会社レントケア,,株式会社,埼玉県,新座市,栄５丁目４番４号,,11,230,3520014,,,,,,,2024-03-06,1,,,,,レントケア,0
1375,5030001159027,新規,0,2024-03-06,2024-03-06,Ｋイントロダクションズ株式会社,,株式会社,埼玉県,さいたま市見沼区,大字中川８０５番地３,,11,104,3370043,,,,,,,2024-03-06,1,,,,,ケーイントロダクションズ,0
1376,5030001159035,新規,0,2024-03-06,2024-03-06,株式会社ＫＰＢ,,株式会社,埼玉県,川口市,大字久左衛門新田１５２番地,,11,203,3330804,,,,,,,2024-03-06,1,,,,,ケーピービー,0
1377,5030001159043,新規,0,2024-03-06,2024-03-06,Ｍａｒ＆Ｃｏｍｐａｎｙ株式会社,,株式会社,埼玉県,さいたま市南区,沼影１丁目１０番１－１００１号,,11,108,3360027,,,,,,,2024-03-06,1,,,,,マァアンドカンパニー,0
1378,5030001159051,新規,0,2024-03-06,2024-03-06,株式会社若山運送,,株式会社,埼玉県,さいたま市緑区,道祖土３丁目１５番２１号,,11,109,3360907,,,,,,,2024-03-06,1,,,,,ワカヤマウンソウ,0
1379,5030001159068,新規,0,2024-03-06,2024-03-06,株式会社Ｃａｒｐｅｎｔｅｒ,,株式会社,埼玉県,所沢市,大字山口１０３３－５,,11,208,3591145,,,,,,,2024-03-06,1,,,,,カーペンター,0
1380,5030001159076,新規,0,2024-03-06,2024-03-06,株式会社春武土建,,株式会社,埼玉県,秩父市,中村町３丁目１２番２８号,,11,207,3680051,,,,,,,2024-03-06,1,,,,,シュンブドケン,0
1383,5030003023750,新規,0,2024-03-06,2024-03-06,合同会社ＳＴＡＲＦＩＥＬＤ　ＷＯＲＫＳ,,合同会社,埼玉県,八潮市,緑町１丁目３８番地８－Ｂ３０６,,11,234,3400808,,,,,,,2024-03-06,1,,,,,スターフィールドワークス,0
1384,5030003023767,新規,0,2024-03-06,2024-03-06,合同会社ＭＳＴハウスクリーニング,,合同会社,埼玉県,三郷市,戸ケ崎３丁目２０９番地濱島マンション３０２,,11,237,3410044,,,,,,,2024-03-06,1,,,,,エムエスティハウスクリーニング,0
1390,5040001132486,新規,0,2024-03-06,2024-03-06,株式会社ホロムア,,株式会社,千葉県,佐倉市,上座１２４１番地３,,12,212,2850854,,,,,,,2024-03-06,1,,,,,ホロムア,0
1391,5040001132511,新規,0,2024-03-06,2024-03-06,美利宇株式会社,,株式会社,千葉県,佐倉市,馬渡１２２９番地１,,12,212,2850804,,,,,,,2024-03-06,1,,,,,ミリウ,0
1392,5040001132528,新規,0,2024-03-06,2024-03-06,ＡｉｒｐｏｒｔＬｉｎｋ株式会社,,株式会社,千葉県,香取郡多古町,飯笹１０９６番地１５,,12,347,2892231,,,,,,,2024-03-06,1,,,,,エアポートリンク,0
1395,5040003024450,新規,0,2024-03-06,2024-03-06,合同会社Ｒａｂｂｉｔ,,合同会社,千葉県,船橋市,藤原３丁目７番２３号,,12,204,2730047,,,,,,,2024-03-06,1,,,,,ラビット,0
1396,5040003024475,新規,0,2024-03-06,2024-03-06,合同会社ｔｏＶａｌｕｅ,,合同会社,千葉県,市川市,妙典１丁目５番８－３０１号（ＡｍａｚｉｎｇＣｏｕｒｔＣ）,,12,203,2720111,,,,,,,2024-03-06,1,,,,,トゥーバリュー,0
1397,5040003024491,新規,0,2024-03-06,2024-03-06,合同会社ＫＹ　Ｆｌｉｇｈｔｓ,,合同会社,千葉県,茂原市,本納２３４６－３,,12,210,2994114,,,,,,,2024-03-06,1,,,,,ケーワイフライト,0
1398,5050001054390,新規,0,2024-03-06,2024-03-06,株式会社トータルハートコーポレーション,,株式会社,茨城県,牛久市,神谷５丁目３５番地９,,08,219,3001216,,,,,,,2024-03-06,1,,,,,トータルハートコーポレーション,0
1401,5050003008171,新規,0,2024-03-06,2024-03-06,合同会社ＲＭ,,合同会社,茨城県,土浦市,右籾２４５０－７－１０２,,08,203,3000837,,,,,,,2024-03-06,1,,,,,アールエム,0
1403,5060001036875,新規,0,2024-03-06,2024-03-06,株式会社イチカル,,株式会社,栃木県,宇都宮市,雀の宮１丁目６番１号パインハウスＩＩ２０３,00133969,09,201,3210132,,,,,,,2024-03-06,1,,,,,イチカル,0
1409,5080101024571,新規,0,2024-03-06,2024-03-06,渡辺建築株式会社,,株式会社,静岡県,賀茂郡松崎町,岩科北側７２３番地,,22,305,4103613,,,,,,,2024-03-06,1,,,,,ワタナベケンチク,0
1419,5100001037258,新規,0,2024-03-06,2024-03-06,ＰＥＥＶＥエンタープライズ株式会社,,株式会社,長野県,塩尻市,大字広丘野村１７９３番地１,,20,215,3990702,,,,,,,2024-03-06,1,,,,,,0
1422,5100003007432,新規,0,2024-03-06,2024-03-06,合同会社Ｋ＆Ｍ,,合同会社,長野県,松本市,横田４丁目３番１３号,,20,202,3900804,,,,,,,2024-03-06,1,,,,,ケイアンドエム,0
1423,5100005013131,新規,0,2024-03-06,2024-03-06,一般社団法人ＣＯ醸,,その他の設立登記法人,長野県,安曇野市,三郷明盛４６６７番地５,,20,220,3998101,,,,,,,2024-03-06,1,,,,,コジョウ,0
1426,5110005017057,新規,0,2024-03-06,2024-03-06,ＮＰＯ法人新潟ウェイ・オブ・ワーク,,その他の設立登記法人,新潟県,新潟市中央区,天神１丁目１番地,,15,103,9500917,,,,,,,2024-03-06,1,,,,,ニイガタウェイオブワーク,0
1436,5120001262812,新規,0,2024-03-06,2024-03-06,ＳＵＮＤＡＮＣＥ株式会社,,株式会社,大阪府,大阪市西淀川区,姫島２丁目４番１０号パークアベニュー２階Ａ室,,27,113,5550033,,,,,,,2024-03-06,1,,,,,サンダンス,0
1437,5120001262894,新規,0,2024-03-06,2024-03-06,株式会社Ｒ‐ｎｅｘｔ,,株式会社,大阪府,大阪市北区,梅田１丁目２番２号大阪駅前第２ビル１２－１２,,27,127,5300001,,,,,,,2024-03-06,1,,,,,アールネクスト,0
1444,5120003026100,新規,0,2024-03-06,2024-03-06,合同会社ＯＶＡＬエンターテインメント,,合同会社,大阪府,大阪市北区,梅田１丁目２番２号大阪駅前第２ビル１２‐１２,,27,127,5300001,,,,,,,2024-03-06,1,,,,,オーバルエンターテインメント,0
1454,5130003009351,新規,0,2024-03-06,2024-03-06,合同会社ＭＢＦ,,合同会社,京都府,久世郡久御山町,市田和気３７－９,,26,322,6130022,,,,,,,2024-03-06,1,,,,,エムビーエフ,0
1458,5140001133524,新規,0,2024-03-06,2024-03-06,株式会社カスカータ,,株式会社,兵庫県,芦屋市,山芦屋町２５番１１号,00133963,28,206,6590082,,,,,,,2024-03-06,1,,,,,カスカータ,0
1459,5140001133557,新規,0,2024-03-06,2024-03-06,株式会社リッツ,,株式会社,兵庫県,神戸市垂水区,清水が丘１丁目２３番２８号清水が丘コーポラスＡ棟２０４号室,,28,108,6550031,,,,,,,2024-03-06,1,,,,,リッツ,0
1460,5140001133565,新規,0,2024-03-06,2024-03-06,株式会社ＫＦＴ,,株式会社,兵庫県,神戸市西区,櫨谷町福谷６２３番地,,28,111,6512233,,,,,,,2024-03-06,1,,,,,ケーエフティー,0
1461,5140001133581,新規,0,2024-03-06,2024-03-06,株式会社Ｌｕｃｋ　Ｔｅｃｈ　Ｉｎｃ．,,株式会社,兵庫県,神戸市中央区,山本通２丁目９番１０－２０５号,,28,110,6500003,,,,,,,2024-03-06,1,,,,,ラックテックインク,0
1465,5140003020209,新規,0,2024-03-06,2024-03-06,合同会社Ｍａｒｉｎ・Ｄ,,合同会社,兵庫県,明石市,魚住町錦が丘２丁目１３－１８,,28,203,6740081,,,,,,,2024-03-06,1,,,,,マリンディー,0
1468,5140005026963,新規,0,2024-03-06,2024-03-06,一般社団法人ＬＩＮＫ　ＵＰ,,その他の設立登記法人,兵庫県,神戸市中央区,磯上通８丁目１番２９号カサベラビルＣ＆М４０３号室,,28,110,6510086,,,,,,,2024-03-06,1,,,,,リンクアップ,0
1470,5150001027122,新規,0,2024-03-06,2024-03-06,株式会社ＳＷＥＥＴ,,株式会社,奈良県,橿原市,上品寺町４４０番地の１Ａ１００２号,,29,205,6340803,,,,,,,2024-03-06,1,,,,,スウィート,0
1471,5150003003195,新規,0,2024-03-06,2024-03-06,ワイズフィールド合同会社,,合同会社,奈良県,奈良市,学園大和町６丁目６９６番地サザンヒルズ学園前５－３０４号,,29,201,6310041,,,,,,,2024-03-06,1,,,,,ワイズフィールド,0
1472,5150005009562,新規,0,2024-03-06,2024-03-06,農事組合法人平井,,その他の設立登記法人,奈良県,宇陀市,菟田野平井１０６０番地,,29,212,6332201,,,,,,,2024-03-06,1,,,,,ヒライ,0
1473,5160001025728,新規,0,2024-03-06,2024-03-06,株式会社ウォールロジ,,株式会社,滋賀県,彦根市,古沢町７６８番地５２,,25,202,5220007,,,,,,,2024-03-06,1,,,,,ウォールロジ,0
1475,5160003003129,新規,0,2024-03-06,2024-03-06,ＭＩＹＡＴＡ．ＢＡＳＥ合同会社,,合同会社,滋賀県,彦根市,宮田町７０２,,25,202,5220003,,,,,,,2024-03-06,1,,,,,ミヤタベース,0
1476,5160005011278,新規,0,2024-03-06,2024-03-06,医療法人社団きとうクリニック,,その他の設立登記法人,滋賀県,米原市,宇賀野２４２番地２３,,25,214,5210062,,,,,,,2024-03-06,1,,,,,キトウクリニック,0
1487,5180001160416,新規,0,2024-03-06,2024-03-06,株式会社スリーハーツ,,株式会社,愛知県,名古屋市中村区,名駅３丁目４－１０アルティメイト名駅１ｓｔ２階,,23,105,4500002,,,,,,,2024-03-06,1,,,,,スリーハーツ,0
1488,5180001160449,新規,0,2024-03-06,2024-03-06,ｉ　ｌａｎｄ　ｇｒｏｕｐ株式会社,,株式会社,愛知県,名古屋市西区,宝地町２４９番地,,23,104,4520808,,,,,,,2024-03-06,1,,,,,アイランドグループ,0
1489,5180001160457,新規,0,2024-03-06,2024-03-06,エスケーワークス株式会社,,株式会社,愛知県,名古屋市守山区,大森５丁目１６０７番地の２,,23,113,4630021,,,,,,,2024-03-06,1,,,,,エスケーワークス,0
1490,5180001160465,新規,0,2024-03-06,2024-03-06,株式会社ザ・エージェント,,株式会社,愛知県,名古屋市北区,黒川本通２丁目２７番地４,,23,103,4620841,,,,,,,2024-03-06,1,,,,,ザエージェント,0
1493,5180003026466,新規,0,2024-03-06,2024-03-06,ＭＴＨ合同会社,,合同会社,愛知県,名古屋市中区,新栄１丁目１７番２３号新栄アイサンメゾン４０１号,,23,106,4600007,,,,,,,2024-03-06,1,,,,,エムティーエイチ,0
1494,5180005020525,新規,0,2024-03-06,2024-03-06,特定非営利活動法人外国人ヘルプライン東海,,その他の設立登記法人,愛知県,名古屋市中区,新栄町２丁目３番地ＹＷＣＡビル７階,,23,106,4600004,,,,,,,2024-03-06,1,,,,,ガイコクジンヘルプライントウカイ,0
1498,5190001031153,新規,0,2024-03-06,2024-03-06,株式会社セカンズ,,株式会社,三重県,四日市市,釆女町３０１８番地１,,24,202,5100954,,,,,,,2024-03-06,1,,,,,セカンズ,0
1499,5190001031161,新規,0,2024-03-06,2024-03-06,株式会社ＨＫＳ,,株式会社,三重県,伊賀市,上野徳居町３３３７番地２,,24,216,5180856,,,,,,,2024-03-06,1,,,,,エイチケーエス,0
1501,5190003004603,新規,0,2024-03-06,2024-03-06,ＬｕｃｋＮｏｂｌｅ合同会社,,合同会社,三重県,志摩市,志摩町和具４１４４番地４,,24,215,5170703,,,,,,,2024-03-06,1,,,,,ラックノーブル,0
1506,5200003006250,新規,0,2024-03-06,2024-03-06,ハイリガー・グラール合同会社,,合同会社,岐阜県,岐阜市,敷島町５丁目１番地,,21,201,5008369,,,,,,,2024-03-06,1,,,,,ハイリガーグラール,0
1518,5240001062886,新規,0,2024-03-06,2024-03-06,株式会社らいおん,,株式会社,広島県,福山市,沖野上町３丁目２番１５号,,34,207,7200825,,,,,,,2024-03-06,1,,,,,ライオン,0
1523,5260003004604,新規,0,2024-03-06,2024-03-06,合同会社Ｂｕｍｐｙ,,合同会社,岡山県,倉敷市,大内１２００－１１,,33,202,7100817,,,,,,,2024-03-06,1,,,,,バンピー,0
1538,5290001104931,新規,0,2024-03-06,2024-03-06,タケテック株式会社,,株式会社,福岡県,福岡市博多区,東那珂３丁目４番２０－３号,,40,132,8120892,,,,,,,2024-03-06,1,,,,,タケテック,0
1539,5290001104948,新規,0,2024-03-06,2024-03-06,ＳＤ１６株式会社,,株式会社,福岡県,八女市,黒木町笠原１１０８０番地３,,40,210,8341222,,,,,,,2024-03-06,1,,,,,エスディージュウロク,0
1540,5290001104956,新規,0,2024-03-06,2024-03-06,株式会社コンパス,,株式会社,福岡県,福岡市中央区,警固１丁目４番１１－４０２号,,40,133,8100023,,,,,,,2024-03-06,1,,,,,コンパス,0
1541,5290001104972,新規,0,2024-03-06,2024-03-06,株式会社ゼロワン,,株式会社,福岡県,筑紫野市,塔原東２丁目３番１６号コーポ堀江１０１,,40,217,8180059,,,,,,,2024-03-06,1,,,,,ゼロワン,0
1542,5290001104980,新規,0,2024-03-06,2024-03-06,株式会社やよいコーポレーション,,株式会社,福岡県,福岡市中央区,天神４丁目６－２８天神ファーストビル７階,,40,133,8100001,,,,,,,2024-03-06,1,,,,,ヤヨイコーポレーション,0
1547,5300001013635,新規,0,2024-03-06,2024-03-06,株式会社ＡＯＢＡ,,株式会社,佐賀県,唐津市,和多田大土井１４番４１号,,41,202,8470083,,,,,,,2024-03-06,1,,,,,アオバ,0
1548,5300003002082,新規,0,2024-03-06,2024-03-06,合同会社ＳＭＴ,,合同会社,佐賀県,佐賀市,川副町大字犬井道１６２３番地３,,41,201,8402212,,,,,,,2024-03-06,1,,,,,エスエムティー,0
1554,5310005008746,新規,0,2024-03-06,2024-03-06,医療法人福陽会,,その他の設立登記法人,長崎県,西海市,西彼町八木原郷１５２３番地１,,42,212,8513423,,,,,,,2024-03-06,1,,,,,フクヨウカイ,0
1555,5320001020332,新規,0,2024-03-06,2024-03-06,株式会社プレナスアグリ,,株式会社,大分県,宇佐市,大字上高家５３０番地の１,,44,211,8790305,,,,,,,2024-03-06,1,,,,,プレナスアグリ,0
1560,5330001031824,新規,0,2024-03-06,2024-03-06,モダンロア株式会社,,株式会社,熊本県,熊本市中央区,水道町３－２９－２０２,,43,101,8600844,,,,,,,2024-03-06,1,,,,,モダンロア,0
1581,5380005012799,新規,0,2024-03-06,2024-03-06,一般社団法人次世代エネルギー・環境研究開発機構,,その他の設立登記法人,福島県,双葉郡浪江町,大字権現堂字御殿南２３番１,,07,547,9791521,,,,,,,2024-03-06,1,,,,,ジセダイエネルギーカンキョウケンキュウカイハツキコウ,0
1594,5430001091247,新規,0,2024-03-06,2024-03-06,遠山国際観光株式会社,,株式会社,北海道,札幌市手稲区,前田二条１０丁目８番７号,,01,109,0060812,,,,,,,2024-03-06,1,,,,,トオヤマコクサイカンコウ,0
1598,5450001014247,新規,0,2024-03-06,2024-03-06,株式会社Ｆｏｒ　Ｇｏｏｄ,,株式会社,北海道,上川郡鷹栖町,９線一号５番地,,01,452,0711249,,,,,,,2024-03-06,1,,,,,フォーグッド,0
1601,5450003002448,新規,0,2024-03-06,2024-03-06,Ｊａｐａｎ　Ｓａｖｖｙ合同会社,,合同会社,北海道,上川郡美瑛町,大町１丁目９番２号ＮＥＯ．フレシール美瑛２０２号室,,01,459,0710204,,,,,,,2024-03-06,1,,,,,ジャパンサヴィ,0
1602,5460001005872,新規,0,2024-03-06,2024-03-06,株式会社堀工業,,株式会社,北海道,釧路市,昭和中央６丁目２２番１０号,,01,206,0840910,,,,,,,2024-03-06,1,,,,,ホリコウギョウ,0
1603,5470001020061,新規,0,2024-03-06,2024-03-06,株式会社岡田企画,,株式会社,香川県,丸亀市,垂水町８９９番地７２,,37,202,7630095,,,,,,,2024-03-06,1,,,,,オカダキカク,0
1604,5470005006552,新規,0,2024-03-06,2024-03-06,一般社団法人ポーラスデザインラボ,,その他の設立登記法人,香川県,香川郡直島町,３２９９番地７,,37,364,7613110,,,,,,,2024-03-06,1,,,,,,0
1605,5480001012405,新規,0,2024-03-06,2024-03-06,株式会社ＹＯＵ,,株式会社,徳島県,徳島市,昭和町８丁目５６番地２フィールド１－１０７号,,36,201,7700942,,,,,,,2024-03-06,1,,,,,ユー,0
1606,5490001010713,新規,0,2024-03-06,2024-03-06,株式会社松本グループ,,株式会社,高知県,香美市,土佐山田町宝町２丁目１３番２７号,,39,212,7820034,,,,,,,2024-03-06,1,,,,,マツモトグループ,0
1616,6010001242782,新規,0,2024-03-06,2024-03-06,Ｓｔａｙｇｏｌｄ株式会社,,株式会社,東京都,中央区,銀座６丁目１４番８号銀座石井ビル７０８,,13,102,1040061,,,,,,,2024-03-06,1,,,,,ステイゴールド,0
1617,6010001242799,新規,0,2024-03-06,2024-03-06,Ｄ‐ｔｈｒｅｅ株式会社,,株式会社,東京都,文京区,小石川５丁目１１番３号,,13,105,1120002,,,,,,,2024-03-06,1,,,,,ディースリー,0
1618,6010001242816,新規,0,2024-03-06,2024-03-06,株式会社パーシスト,,株式会社,東京都,文京区,千石３丁目２０番２号,,13,105,1120011,,,,,,,2024-03-06,1,,,,,パーシスト,0
1619,6010003043139,新規,0,2024-03-06,2024-03-06,ＳＩＬＶＥＲ　ＥＹＥＺ合同会社,,合同会社,東京都,中央区,銀座１丁目２２番１１号銀座大竹ビジデンス２Ｆ,,13,102,1040061,,,,,,,2024-03-06,1,,,,,シルバーアイズ,0
1626,6010401180772,新規,0,2024-03-06,2024-03-06,株式会社Ｇｅｎｅｒａｌ　Ｐａｒｔｎｅｒ,,株式会社,東京都,港区,六本木３丁目２番１号,,13,103,1060032,,,,,,,2024-03-06,1,,,,,ゼネラルパートナー,0
1627,6010401180806,新規,0,2024-03-06,2024-03-06,ＩＤ　Ｄｉｓｔｒｉｂｕｔｉｏｎ株式会社,,株式会社,東京都,港区,南青山３丁目１５番９号ＭＩＮＯＷＡ表参道３Ｆ,,13,103,1070062,,,,,,,2024-03-06,1,,,,,アイディーディストリビューション,0
1628,6010401180830,新規,0,2024-03-06,2024-03-06,株式会社Ｔｏｋｙｏ　Ｂｅａｕｔｙ　Ｍａｓｔｅｒ,,株式会社,東京都,港区,六本木７丁目８番８号ミクニ六本木ビル４階,,13,103,1060032,,,,,,,2024-03-06,1,,,,,トウキョウビューティーマスター,0
1629,6010401180839,新規,0,2024-03-06,2024-03-06,株式会社ＣＯＴＹ,,株式会社,東京都,港区,南青山４丁目１７番５１号ｅｓｔ・Ｌａｒｇｏ・ＯＭＯＴＥＳＡＮＤＯ２階Ａ,,13,103,1070062,,,,,,,2024-03-06,1,,,,,コティー,0
1631,6010403032088,新規,0,2024-03-06,2024-03-06,合同会社ＳＫクリエイト,,合同会社,東京都,港区,西新橋２丁目４番４号,,13,103,1050003,,,,,,,2024-03-06,1,,,,,エスケイクリエイト,0
1632,6010403032096,新規,0,2024-03-06,2024-03-06,合同会社Ｓｔｕｄｉａｎｓ,,合同会社,東京都,港区,南青山３丁目１番３６号青山丸竹ビル６Ｆ,,13,103,1070062,,,,,,,2024-03-06,1,,,,,スタジアンズ,0
1633,6010403032113,新規,0,2024-03-06,2024-03-06,ＡＭＲＡＰ合同会社,,合同会社,東京都,港区,南青山２丁目２番１５号ウィン青山９４２,,13,103,1070062,,,,,,,2024-03-06,1,,,,,アムラップ,0
1636,6010501051873,新規,0,2024-03-06,2024-03-06,幸安商会株式会社,,株式会社,東京都,台東区,浅草橋３丁目３２番１－５０３号,,13,106,1110053,,,,,,,2024-03-06,1,,,,,コウアンショウカイ,0
1638,6010505003499,新規,0,2024-03-06,2024-03-06,医療法人社団一帆会,,その他の設立登記法人,東京都,台東区,根岸３丁目１３番５号るりこうビル２階,,13,106,1100003,,,,,,,2024-03-06,1,,,,,イチホカイ,0
1642,6010601064767,新規,0,2024-03-06,2024-03-06,株式会社ワッカ,,株式会社,東京都,墨田区,文花１丁目１８－１３,,13,107,1310044,,,,,,,2024-03-06,1,,,,,ワッカ,0
1643,6010603010694,新規,0,2024-03-06,2024-03-06,西和サービス合同会社,,合同会社,東京都,墨田区,立花１丁目７番１２号,,13,107,1310043,,,,,,,2024-03-06,1,,,,,セイワサービス,0
1650,6010801034826,新規,0,2024-03-06,2024-03-06,ＶＥＮＴＵＳ株式会社,,株式会社,東京都,大田区,南千束１丁目５番１号,,13,111,1450063,,,,,,,2024-03-06,1,,,,,ベンタス,0
1653,6010901054815,新規,0,2024-03-06,2024-03-06,株式会社ＭＩＮＡＭＩ,,株式会社,東京都,世田谷区,池尻４丁目８番２５－４１８号,,13,112,1540001,,,,,,,2024-03-06,1,,,,,ミナミ,0
1654,6010901054823,新規,0,2024-03-06,2024-03-06,株式会社ＭＯＳＨ,,株式会社,東京都,世田谷区,成城６丁目８番８号,,13,112,1570066,,,,,,,2024-03-06,1,,,,,モッシュ,0
1656,6010903008868,新規,0,2024-03-06,2024-03-06,合同会社ラコ・プロジェクト,,合同会社,東京都,世田谷区,弦巻３丁目２８番１９号,,13,112,1540016,,,,,,,2024-03-06,1,,,,,ラコプロジェクト,0
1659,6011001160396,新規,0,2024-03-06,2024-03-06,株式会社ガンプロエンターテインメント,,株式会社,東京都,渋谷区,千駄ヶ谷３丁目１０番５号,,13,113,1510051,,,,,,,2024-03-06,1,,,,,ガンプロエンターテインメント,0
1660,6011001160405,新規,0,2024-03-06,2024-03-06,株式会社続,,株式会社,東京都,渋谷区,富ヶ谷１丁目４１番７号クリサンテ２０１１,,13,113,1510063,,,,,,,2024-03-06,1,,,,,ツヅキ,0
1661,6011001160413,新規,0,2024-03-06,2024-03-06,株式会社Ｓｕｎ　Ｐｅｒｆｏｒｍ,,株式会社,東京都,渋谷区,恵比寿西２丁目８番４号ＥＸ恵比寿西ビル５階,,13,113,1500021,,,,,,,2024-03-06,1,,,,,サンパフォーム,0
1664,6011005010399,新規,0,2024-03-06,2024-03-06,ＧＪＤＣＶ２特定目的会社,,その他の設立登記法人,東京都,渋谷区,広尾１丁目１１番２号嶋本公認会計士事務所気付,,13,113,1500012,,,,,,,2024-03-06,1,,,,,ジージェイディーシーブイツー,0
1671,6011303005076,新規,0,2024-03-06,2024-03-06,合同会社クレバー,,合同会社,東京都,杉並区,阿佐谷南２丁目３３－１０,,13,115,1660004,,,,,,,2024-03-06,1,,,,,クレバー,0
1675,6011601027581,新規,0,2024-03-06,2024-03-06,株式会社為共,,株式会社,東京都,練馬区,旭町２丁目１３番１１号,,13,120,1790071,,,,,,,2024-03-06,1,,,,,タメトモ,0
1677,6012701018116,新規,0,2024-03-06,2024-03-06,世一株式会社,,株式会社,東京都,清瀬市,元町１丁目１３番２１号エメラルドハイツ１０１－１０１号室－Ｉ,,13,221,2040021,,,,,,,2024-03-06,1,,,,,セイチ,0
1678,6012805003253,新規,0,2024-03-06,2024-03-06,医療法人社団慈央会,,その他の設立登記法人,東京都,東大和市,桜が丘４丁目２６２番地１,,13,220,2070022,,,,,,,2024-03-06,1,,,,,ジオウカイ,0
1688,6020001155744,新規,0,2024-03-06,2024-03-06,株式会社ＩＳ＆Ｃ事務所,,株式会社,神奈川県,横浜市神奈川区,白楽１１３番地,,14,102,2210065,,,,,,,2024-03-06,1,,,,,,0
1689,6020001156073,新規,0,2024-03-06,2024-03-06,株式会社ＢＯＮＨＥＵＲ,,株式会社,神奈川県,横浜市青葉区,みたけ台４６番地１０,,14,117,2270047,,,,,,,2024-03-06,1,,,,,ボヌール,0
1690,6020001156081,新規,0,2024-03-06,2024-03-06,株式会社トワ,,株式会社,神奈川県,横浜市港北区,新横浜３丁目１６番地１５新横浜磯栄ビル７Ｆ－Ａ,,14,109,2220033,,,,,,,2024-03-06,1,,,,,トワ,0
1695,6020003025656,新規,0,2024-03-06,2024-03-06,イチムラスポーツワークス合同会社,,合同会社,神奈川県,川崎市川崎区,駅前本町１１番地２川崎フロンティアビル４階,,14,131,2100007,,,,,,,2024-03-06,1,,,,,イチムラスポーツワークス,0
1696,6020003025672,新規,0,2024-03-06,2024-03-06,ＴＨＤ合同会社,,合同会社,神奈川県,横浜市中区,伊勢佐木町５丁目１２６番地シャンボール伊勢佐木９０１,,14,104,2310045,,,,,,,2024-03-06,1,,,,,ティーエッチディー,0
1697,6020005016298,新規,0,2024-03-06,2024-03-06,医療法人森歯科医院,,その他の設立登記法人,神奈川県,横浜市金沢区,釜利谷東３丁目６番４４号,,14,108,2360042,,,,,,,2024-03-06,1,,,,,モリシカイイン,0
1705,6021001081625,新規,0,2024-03-06,2024-03-06,株式会社リンク,,株式会社,神奈川県,厚木市,妻田北３丁目１５番３２号,,14,212,2430812,,,,,,,2024-03-06,1,,,,,リンク,0
1706,6021001081633,新規,0,2024-03-06,2024-03-06,株式会社豆電設,,株式会社,神奈川県,横須賀市,子安２番６０号,,14,201,2400106,,,,,,,2024-03-06,1,,,,,マメデンセツ,0
1707,6021003014228,新規,0,2024-03-06,2024-03-06,Ｍ　Ｎ　ＨＯＬＤＩＮＧＳ合同会社,,合同会社,神奈川県,厚木市,岡田３１７１－Ａ,,14,212,2430021,,,,,,,2024-03-06,1,,,,,エムエヌホールディングス,0
1718,6030001159026,新規,0,2024-03-06,2024-03-06,株式会社ＫＬＳ,,株式会社,埼玉県,さいたま市見沼区,大字御蔵１１７７番地１９,,11,104,3370033,,,,,,,2024-03-06,1,,,,,ケーエルエス,0
1719,6030001159034,新規,0,2024-03-06,2024-03-06,ＢｒｉｇｈｔｅｓｔＨｅａｌｔｈ株式会社,,株式会社,埼玉県,越谷市,南越谷１丁目２９１７番地１,,11,222,3430845,,,,,,,2024-03-06,1,,,,,ブライテストヘルス,0
1720,6030001159042,新規,0,2024-03-06,2024-03-06,株式会社Ｋ’ｓ,,株式会社,埼玉県,川口市,東領家１丁目１７番９号,,11,203,3320003,,,,,,,2024-03-06,1,,,,,ケーズ,0
1721,6030001159067,新規,0,2024-03-06,2024-03-06,株式会社Ａ‐ｃｅＴｅｃ,,株式会社,埼玉県,越谷市,花田３丁目１１番地１７ミリオーネＢ１０３,,11,222,3430015,,,,,,,2024-03-06,1,,,,,エーステック,0
1722,6030001159075,新規,0,2024-03-06,2024-03-06,株式会社ファーストテック,,株式会社,埼玉県,入間市,大字下藤沢５６１番地５エイシン・アネックス２０３,,11,225,3580011,,,,,,,2024-03-06,1,,,,,ファーストテック,0
1723,6030001159091,新規,0,2024-03-06,2024-03-06,株式会社旭日都市開発,,株式会社,埼玉県,草加市,八幡町９３６番地１モアステージ草加公園通り２０６号,,11,221,3400006,,,,,,,2024-03-06,1,,,,,キョクジツトシカイハツ,0
1725,6030003023758,新規,0,2024-03-06,2024-03-06,合同会社ヘルメス,,合同会社,埼玉県,川口市,青木５丁目６番１１号酒井ビル１階,,11,203,3320031,,,,,,,2024-03-06,1,,,,,ヘルメス,0
1730,6040001132485,新規,0,2024-03-06,2024-03-06,株式会社Ｇａｒｄｅｎ　Ｗｏｒｋ　Ｄｅｓｉｇｎ,,株式会社,千葉県,木更津市,羽鳥野５丁目３番地４５,,12,206,2920819,,,,,,,2024-03-06,1,,,,,ガーデンワークデザイン,0
1731,6040001132493,新規,0,2024-03-06,2024-03-06,ワンパワー・ジャパン株式会社,,株式会社,千葉県,千葉市若葉区,大宮台３丁目７番１号,,12,104,2640015,,,,,,,2024-03-06,1,,,,,ワンパワージャパン,0
1735,6060001036882,新規,0,2024-03-06,2024-03-06,株式会社Ｂプランニング,,株式会社,栃木県,宇都宮市,福岡町１２７７番地１１,,09,201,3210342,,,,,,,2024-03-06,1,,,,,ビープランニング,0
1737,6060003004937,新規,0,2024-03-06,2024-03-06,合同会社ニッチブリッチ,,合同会社,栃木県,那須塩原市,沓掛２丁目３番地１１シャルマンＣ－２０５号,,09,213,3293133,,,,,,,2024-03-06,1,,,,,ニッチブリッチ,0
1738,6060003004945,新規,0,2024-03-06,2024-03-06,合同会社ＬＯＯＰ,,合同会社,栃木県,栃木市,大宮町１９５８－５,,09,203,3280011,,,,,,,2024-03-06,1,,,,,ループ,0
1741,6080001026163,新規,0,2024-03-06,2024-03-06,株式会社ＭＯＴＯＲ　ＣＬＵＢ　ＧＥＳＵＮＤＨＥＩＴ,,株式会社,静岡県,牧之原市,菅ケ谷４９７番地１,,22,226,4210514,,,,,,,2024-03-06,1,,,,,モータークラブゲズンハイト,0
1742,6080101024570,新規,0,2024-03-06,2024-03-06,株式会社わんぱく,,株式会社,静岡県,伊東市,富戸９５２番地の６,,22,208,4130231,,,,,,,2024-03-06,1,,,,,ワンパク,0
1746,6090001018580,新規,0,2024-03-06,2024-03-06,さんちゃんファーム株式会社,,株式会社,山梨県,甲州市,勝沼町小佐手２１４６番地７,,19,213,4091303,,,,,,,2024-03-06,1,,,,,サンチャンファーム,0
1747,6090003002509,新規,0,2024-03-06,2024-03-06,合同会社ＤＲＥＡＭＳ,,合同会社,山梨県,甲府市,相生２丁目１４番９号,,19,201,4000858,,,,,,,2024-03-06,1,,,,,ドリームス,0
1749,6100001037257,新規,0,2024-03-06,2024-03-06,Ｋ‐スタイルケア株式会社,,株式会社,長野県,北佐久郡軽井沢町,大字長倉６０１番地７,,20,321,3890111,,,,,,,2024-03-06,1,,,,,ケイスタイルケア,0
1766,6120001262786,新規,0,2024-03-06,2024-03-06,Ｃａｒｅ　Ｌｉｎｋ　Ｈｅａｌｔｈ株式会社,,株式会社,大阪府,大阪市城東区,諏訪１丁目２－２２－６０２号室,,27,118,5360021,,,,,,,2024-03-06,1,,,,,ケアリンクヘルス,0
1767,6120001262885,新規,0,2024-03-06,2024-03-06,ブルー株式会社,,株式会社,大阪府,大阪市浪速区,湊町２丁目２番１０－２７０７号,,27,111,5560017,,,,,,,2024-03-06,1,,,,,ブルー,0
1768,6120001262893,新規,0,2024-03-06,2024-03-06,株式会社インノバトーレ,,株式会社,大阪府,大阪市天王寺区,空堀町１２番７号,,27,109,5430012,,,,,,,2024-03-06,1,,,,,インノバトーレ,0
1769,6120001262910,新規,0,2024-03-06,2024-03-06,はじめ株式会社,,株式会社,大阪府,大阪市中央区,城見２丁目１－６１ツイン２１ＭＩＤタワー３８階,,27,128,5400001,,,,,,,2024-03-06,1,,,,,ハジメ,0
1776,6120003026017,新規,0,2024-03-06,2024-03-06,ＭａｃｈｉｎｅＤｅｃｉｓｉｏｎ合同会社,,合同会社,大阪府,交野市,私部６丁目１７番１－２０５号,,27,230,5760052,,,,,,,2024-03-06,1,,,,,マシーンデシジョン,0
1781,6120101069157,新規,0,2024-03-06,2024-03-06,Ｆ．Ｄ工業株式会社,,株式会社,大阪府,貝塚市,畠中１丁目１番１４－１号,,27,208,5970072,,,,,,,2024-03-06,1,,,,,エフディーコウギョウ,0
1783,6120901048847,新規,0,2024-03-06,2024-03-06,株式会社関西冷熱サービス,,株式会社,大阪府,茨木市,南安威２丁目１０番３０１号,,27,211,5670007,,,,,,,2024-03-06,1,,,,,カンサイレイネツサービス,0
1791,6130001076475,新規,0,2024-03-06,2024-03-06,ブライネクション株式会社,,株式会社,京都府,八幡市,西山和気６番地５,,26,210,6148352,,,,,,,2024-03-06,1,,,,,ブライネクション,0
1792,6130001076491,新規,0,2024-03-06,2024-03-06,株式会社京都レンネット,,株式会社,京都府,京都市下京区,綾小路通富小路西入塩屋町６０番地２ＢＬＯＣＫ（Ｍ）３０３,,26,106,6008052,,,,,,,2024-03-06,1,,,,,キョウトレンネット,0
1793,6130001076500,新規,0,2024-03-06,2024-03-06,株式会社リメイド,,株式会社,京都府,京都市下京区,西七条東久保町５５番地５５,,26,106,6008873,,,,,,,2024-03-06,1,,,,,リメイド,0
1794,6130001076517,新規,0,2024-03-06,2024-03-06,古河不動産株式会社,,株式会社,京都府,京都市北区,大将軍東鷹司町１１１番地２－１Ｆ,,26,101,6038333,,,,,,,2024-03-06,1,,,,,フルカワフドウサン,0
1797,6140001056732,新規,0,2024-03-06,2024-03-06,株式会社ナカムラ,,株式会社,兵庫県,美方郡新温泉町,七釜１２番地の１,,28,586,6696741,,,,,,,2024-03-06,1,,,,,ナカムラ,0
1800,6140001133531,新規,0,2024-03-06,2024-03-06,Ｐａｃｌｉｎｋ株式会社,,株式会社,兵庫県,加古郡稲美町,蛸草８４６番地,,28,381,6751116,,,,,,,2024-03-06,1,,,,,パックリンク,0
1801,6140001133556,新規,0,2024-03-06,2024-03-06,株式会社金岡工業,,株式会社,兵庫県,尼崎市,東園田町５丁目９６番地の１童人１０４号,,28,202,6610953,,,,,,,2024-03-06,1,,,,,カナオカコウギョウ,0
1802,6140001133572,新規,0,2024-03-06,2024-03-06,ドリームフロア株式会社,,株式会社,兵庫県,尼崎市,西川１丁目１－２７,,28,202,6610966,,,,,,,2024-03-06,1,,,,,ドリームフロア,0
1803,6140001133589,新規,0,2024-03-06,2024-03-06,エモーショナルソフトウェア株式会社,,株式会社,兵庫県,西宮市,東鳴尾町２丁目３番１２号,,28,204,6638132,,,,,,,2024-03-06,1,,,,,エモーショナルソフトウェア,0
1806,6140003020249,新規,0,2024-03-06,2024-03-06,粋縁合同会社,,合同会社,兵庫県,神戸市中央区,元町通２丁目９－１元町プラザビル９１６－２０,,28,110,6500022,,,,,,,2024-03-06,1,,,,,スイエン,0
1809,6150001027113,新規,0,2024-03-06,2024-03-06,株式会社マツヨシワールドペット,,株式会社,奈良県,生駒郡三郷町,立野北３丁目１６番２３号,,29,343,6360821,,,,,,,2024-03-06,1,,,,,マツヨシワールドペット,0
1810,6150005009561,新規,0,2024-03-06,2024-03-06,一般社団法人奈良県吹奏楽連盟,,その他の設立登記法人,奈良県,大和郡山市,小泉町１６０２番地１,,29,203,6391042,,,,,,,2024-03-06,1,,,,,ナラケンスイソウガクレンメイ,0
1819,6180001160398,新規,0,2024-03-06,2024-03-06,株式会社カワサキ熱学,,株式会社,愛知県,江南市,今市場町美和１３７番地１サープラスワン大島１０２号,,23,217,4838188,,,,,,,2024-03-06,1,,,,,カワサキネツガク,0
1820,6180001160415,新規,0,2024-03-06,2024-03-06,株式会社玖,,株式会社,愛知県,名古屋市緑区,大清水５丁目１３１５番地,,23,114,4580805,,,,,,,2024-03-06,1,,,,,キュウ,0
1821,6180001160423,新規,0,2024-03-06,2024-03-06,株式会社ＷＩＺ,,株式会社,愛知県,名古屋市中区,丸の内３丁目２０番１７号,,23,106,4600002,,,,,,,2024-03-06,1,,,,,ウィズ,0
1822,6180001160431,新規,0,2024-03-06,2024-03-06,株式会社ＤＲＩ,,株式会社,愛知県,名古屋市北区,楠味鋺１丁目２０３番地,,23,103,4620014,,,,,,,2024-03-06,1,,,,,ディーアールアイ,0
1836,6220001025844,新規,0,2024-03-06,2024-03-06,株式会社ライトラック,,株式会社,石川県,金沢市,駅西本町１丁目６番４２号,,17,201,9200025,,,,,,,2024-03-06,1,,,,,ライトラック,0
1841,6240001062885,新規,0,2024-03-06,2024-03-06,株式会社ジーエムアップ,,株式会社,広島県,福山市,緑町２番４３－１４０１号,,34,207,7200804,,,,,,,2024-03-06,1,,,,,ジーエムアップ,0
1842,6240003006568,新規,0,2024-03-06,2024-03-06,合同会社エスエーアップ,,合同会社,広島県,福山市,緑町２番４３－１４０１号,,34,207,7200804,,,,,,,2024-03-06,1,,,,,エスエーアップ,0
1844,6250003003449,新規,0,2024-03-06,2024-03-06,合同会社ＮＥＭ,,合同会社,山口県,山口市,小郡高砂町３－２４,,35,203,7540014,,,,,,,2024-03-06,1,,,,,エヌイーエム,0
1845,6250005008900,新規,0,2024-03-06,2024-03-06,医療法人明石整形外科医院,,その他の設立登記法人,山口県,周南市,慶万町１番１５号,,35,215,7450836,,,,,,,2024-03-06,1,,,,,アカシセイケイゲカイイン,0
1850,6290001104889,新規,0,2024-03-06,2024-03-06,株式会社ＹＤ,,株式会社,福岡県,八女市,稲富１３９番地３,,40,210,8340047,,,,,,,2024-03-06,1,,,,,ワイディー,0
1851,6290001104922,新規,0,2024-03-06,2024-03-06,株式会社今宮鉄筋,,株式会社,福岡県,飯塚市,小正７１９番地４,,40,205,8200089,,,,,,,2024-03-06,1,,,,,イマミヤテッキン,0
1852,6290001104939,新規,0,2024-03-06,2024-03-06,株式会社リンクセキュリティサービス,,株式会社,福岡県,福岡市博多区,博多駅東１丁目１３番１７号松岡ビル６０９号,,40,132,8120013,,,,,,,2024-03-06,1,,,,,リンクセキュリティサービス,0
1853,6290001104963,新規,0,2024-03-06,2024-03-06,株式会社パレートセンス,,株式会社,福岡県,福岡市博多区,博多駅前４丁目２３番６号トーカンマンション博多駅前第８－１０４,,40,132,8120011,,,,,,,2024-03-06,1,,,,,パレートセンス,0
1854,6290001104971,新規,0,2024-03-06,2024-03-06,株式会社ＷＡＹ　Ａｃａｄｅｍｙ,,株式会社,福岡県,飯塚市,立岩１４５０番地１,,40,205,8200003,,,,,,,2024-03-06,1,,,,,アカデミー,0
1857,6290801030376,新規,0,2024-03-06,2024-03-06,株式会社ＳＵＮＲＩＳＥ愛ＳＯＬＵＴＩＯＮＳ,,株式会社,福岡県,築上郡築上町,大字伝法寺１４９２番地１,,40,647,8290122,,,,,,,2024-03-06,1,,,,,サンライズアイソリューションズ,0
1861,6300001013634,新規,0,2024-03-06,2024-03-06,ＦＵＪＩホールディングス株式会社,,株式会社,佐賀県,武雄市,東川登町大字永野７５５２番地２,,41,206,8430233,,,,,,,2024-03-06,1,,,,,フジホールディングス,0
1866,6330001031815,新規,0,2024-03-06,2024-03-06,株式会社サンエス鋼業,,株式会社,熊本県,宇城市,松橋町豊崎５８８番地２１,,43,213,8690542,,,,,,,2024-03-06,1,,,,,サンエスコウギョウ,0
1868,6340001026343,新規,0,2024-03-06,2024-03-06,株式会社ＲＡＫＵ構造設計,,株式会社,鹿児島県,日置市,伊集院町妙円寺２丁目５１番地４,,46,216,8992503,,,,,,,2024-03-06,1,,,,,ラクコウゾウセッケイ,0
1869,6350001018819,新規,0,2024-03-06,2024-03-06,株式会社ミツギ,,株式会社,宮崎県,都城市,山田町山田４８２３番地１０,,45,202,8894601,,,,,,,2024-03-06,1,,,,,ミツギ,0
1872,6360001033255,新規,0,2024-03-06,2024-03-06,ＭＴＧＲＯＵＰ株式会社,,株式会社,沖縄県,島尻郡南風原町,字新川１９０－５レジデンスタイガ３０３,,47,350,9011105,,,,,,,2024-03-06,1,,,,,エムティーグループ,0
1873,6360001033288,新規,0,2024-03-06,2024-03-06,株式会社ミライ住宅,,株式会社,沖縄県,沖縄市,美原１丁目１７番１０号メゾン美原１０３号室,,47,211,9042155,,,,,,,2024-03-06,1,,,,,ミライジュウタク,0
1874,6360001033296,新規,0,2024-03-06,2024-03-06,株式会社ＥＶ沖縄,,株式会社,沖縄県,那覇市,牧志２丁目５番２号,,47,201,9000013,,,,,,,2024-03-06,1,,,,,イーブイオキナワ,0
1895,6440001009395,新規,0,2024-03-06,2024-03-06,株式会社ＢＥＧＩＲＡＭＡ,,株式会社,北海道,函館市,松風町１０番２号Ａ－ＧＡＴＥ　ＨＯＴＥＬ　１Ｆ,,01,202,0400035,,,,,,,2024-03-06,1,,,,,ベギラマ,0
1896,6450003002447,新規,0,2024-03-06,2024-03-06,合同会社れぶん屋,,合同会社,北海道,礼文郡礼文町,大字香深村字シャクニン９０４番地,,01,517,0971201,,,,,,,2024-03-06,1,,,,,レブンヤ,0
1902,6500001025502,新規,0,2024-03-06,2024-03-06,Ｆ‐ＬＯＧＩ株式会社,,株式会社,愛媛県,松山市,北梅本町６６,,38,201,7910242,,,,,,,2024-03-06,1,,,,,エフロジ,0
1911,7010001242798,新規,0,2024-03-06,2024-03-06,株式会社Ｌａ　Ｍａｒｅ,,株式会社,東京都,中央区,日本橋横山町６番１８号宮入本社ビル,,13,102,1030003,,,,,,,2024-03-06,1,,,,,ラメール,0
1914,7010003043121,新規,0,2024-03-06,2024-03-06,ＨｅｒｐＭＥＤＩＡ合同会社,,合同会社,東京都,中央区,銀座１丁目２２番１１号銀座大竹ビジデンス２Ｆ,,13,102,1040061,,,,,,,2024-03-06,1,,,,,ハープメディア,0
1915,7010003043146,新規,0,2024-03-06,2024-03-06,アイ・ジー・エックス合同会社,,合同会社,東京都,中央区,銀座１丁目１２番４号Ｎ＆ＥＢＬＤ．６Ｆ,,13,102,1040061,,,,,,,2024-03-06,1,,,,,アイジーエックス,0
1920,7010401180573,新規,0,2024-03-06,2024-03-06,株式会社浩也,,株式会社,東京都,港区,芝大門１丁目４番４号ノア芝大門１階１０２号室,,13,103,1050012,,,,,,,2024-03-06,1,,,,,ヒロヤ,0
1921,7010401180788,新規,0,2024-03-06,2024-03-06,株式会社Ｒｅｃａｓｔ,,株式会社,東京都,港区,六本木７丁目１６番５号六本木戸田ビルＢＣ号室,,13,103,1060032,,,,,,,2024-03-06,1,,,,,リキャスト,0
1922,7010401180796,新規,0,2024-03-06,2024-03-06,株式会社ＴｏｋｙｏＭｉｓｆｉｔｓ,,株式会社,東京都,港区,南麻布１丁目２４番６号,,13,103,1060047,,,,,,,2024-03-06,1,,,,,トウキョウミスフィット,0
1923,7010401180821,新規,0,2024-03-06,2024-03-06,株式会社ＡＩＤ,,株式会社,東京都,港区,新橋２丁目１６－１ニュー新橋ビル３０５Ｃ,,13,103,1050004,,,,,,,2024-03-06,1,,,,,エーアイディー,0
1924,7010401180862,新規,0,2024-03-06,2024-03-06,株式会社ＥＶＥ,,株式会社,東京都,港区,高輪３丁目１４－４１ベルジューレ３０５号室,,13,103,1080074,,,,,,,2024-03-06,1,,,,,イヴ,0
1926,7010403032104,新規,0,2024-03-06,2024-03-06,合同会社シャケ,,合同会社,東京都,港区,赤坂６丁目１３番１３－５０３号,,13,103,1070052,,,,,,,2024-03-06,1,,,,,シャケ,0
1928,7010405023019,新規,0,2024-03-06,2024-03-06,３８１２元麻布一般社団法人,,その他の設立登記法人,東京都,港区,西新橋３丁目５番２号,,13,103,1050003,,,,,,,2024-03-06,1,,,,,サンハチイチニモトアザブ,0
1931,7010603010693,新規,0,2024-03-06,2024-03-06,ＦＩＴ＆ＴＯＫＹＯ合同会社,,合同会社,東京都,江東区,富岡１丁目６番５号大崎方２Ｆ,,13,108,1350047,,,,,,,2024-03-06,1,,,,,フィットアンドトーキョー,0
1935,7010705003595,新規,0,2024-03-06,2024-03-06,医療法人社団渡史会,,その他の設立登記法人,東京都,品川区,中延４丁目４番８号,,13,109,1420053,,,,,,,2024-03-06,1,,,,,ワタフミカイ,0
1936,7010705003604,新規,0,2024-03-06,2024-03-06,医療法人社団ＳＩＭＰＬＥ,,その他の設立登記法人,東京都,品川区,小山３丁目２７番１号武蔵小山駅前ビル２０１区画,,13,109,1420062,,,,,,,2024-03-06,1,,,,,シンプル,0
1949,7011001160420,新規,0,2024-03-06,2024-03-06,株式会社ａｓｐｒｉｎｇ,,株式会社,東京都,渋谷区,道玄坂１丁目１０番８号渋谷道玄坂東急ビル２Ｆ－Ｃ,,13,113,1500043,,,,,,,2024-03-06,1,,,,,エスプリング,0
1950,7011001160429,新規,0,2024-03-06,2024-03-06,株式会社Ｃｏｃｏ,,株式会社,東京都,渋谷区,西原３丁目１９－１０ＡＰＡＲＴＭＥＮＴ上原Ｂ１Ｆ,,13,113,1510066,,,,,,,2024-03-06,1,,,,,ココ,0
1951,7011001160437,新規,0,2024-03-06,2024-03-06,ＣＡＬＭ　ＲＥＥＦ株式会社,,株式会社,東京都,渋谷区,代々木３丁目４２番２号高山ビル１Ｆ,,13,113,1510053,,,,,,,2024-03-06,1,,,,,カームリーフ,0
1960,7011005010398,新規,0,2024-03-06,2024-03-06,医療法人社団廣久会,,その他の設立登記法人,東京都,目黒区,八雲１丁目３番６号Ｋ－ｃｒｏｓｓビル２０１,,13,110,1520023,,,,,,,2024-03-06,1,,,,,コウキュウカイ,0
1971,7011103014177,新規,0,2024-03-06,2024-03-06,ＹＴＢ合同会社,,合同会社,東京都,新宿区,大京町２１－２６,,13,104,1600015,,,,,,,2024-03-06,1,,,,,ワイティービー,0
1974,7011201025282,新規,0,2024-03-06,2024-03-06,株式会社ＴＡＫＥＯＮＥ,,株式会社,東京都,中野区,新井１丁目１７番３号,,13,114,1650026,,,,,,,2024-03-06,1,,,,,テイクワン,0
1982,7011303005075,新規,0,2024-03-06,2024-03-06,ＪＬＳ合同会社,,合同会社,東京都,杉並区,西荻北３丁目３２番１１号,,13,115,1670042,,,,,,,2024-03-06,1,,,,,ジェイエルエス,0
1984,7011503005981,新規,0,2024-03-06,2024-03-06,合同会社ロイテ,,合同会社,東京都,北区,赤羽１丁目６６番５号グリーンコーポＩＩ１Ｆ,00133962,13,117,1150045,,,,,,,2024-03-06,1,,,,,ロイテ,0
1985,7011601027580,新規,0,2024-03-06,2024-03-06,株式会社デザビエ,,株式会社,東京都,練馬区,関町北１丁目２６番１２－５０１号,,13,120,1770051,,,,,,,2024-03-06,1,,,,,デザビエ,0
1986,7011701027084,新規,0,2024-03-06,2024-03-06,株式会社ＣＯＬＯＵＲ,,株式会社,東京都,江戸川区,中葛西５丁目４１番地５号アリエージュ・アキヤ５０１号室,,13,123,1340083,,,,,,,2024-03-06,1,,,,,カラー,0
1987,7011801043873,新規,0,2024-03-06,2024-03-06,株式会社豪,,株式会社,東京都,足立区,花畑６丁目３４番６－Ｂ２０１号,,13,121,1210061,,,,,,,2024-03-06,1,,,,,ゴウ,0
1990,7012701018115,新規,0,2024-03-06,2024-03-06,株式会社Ｎｉｃｅ,,株式会社,東京都,清瀬市,下清戸１丁目１３９番地１４,,13,221,2040011,,,,,,,2024-03-06,1,,,,,ナイス,0
1991,7012701018123,新規,0,2024-03-06,2024-03-06,グッドヘルスラボ株式会社,,株式会社,東京都,西東京市,保谷町６丁目１５番２号,,13,229,2020015,,,,,,,2024-03-06,1,,,,,グッドヘルスラボ,0
1993,7013303007035,新規,0,2024-03-06,2024-03-06,問暁合同会社,,合同会社,東京都,豊島区,西池袋１丁目３１－５白井ビル３－１２号室,,13,116,1710021,,,,,,,2024-03-06,1,,,,,モンギョウ,0
1999,7020001156064,新規,0,2024-03-06,2024-03-06,株式会社荒川産業,,株式会社,神奈川県,横浜市保土ケ谷区,上菅田町８５８番地１１,,14,106,2400051,,,,,,,2024-03-06,1,,,,,アラカワサンギョウ,0
2000,7020001156072,新規,0,2024-03-06,2024-03-06,株式会社ＫＴＥ,,株式会社,神奈川県,川崎市幸区,南加瀬３丁目１６－１７－３０２,,14,132,2120055,,,,,,,2024-03-06,1,,,,,ケーティーイー,0
2001,7020001156080,新規,0,2024-03-06,2024-03-06,株式会社ＳＧＧ,,株式会社,神奈川県,横浜市港北区,綱島東１丁目６番２号,,14,109,2230052,,,,,,,2024-03-06,1,,,,,エスジージー,0
2002,7020001156089,新規,0,2024-03-06,2024-03-06,Ｗｉｌｌ　Ｃｏｎｓｕｌｔｉｎｇ株式会社,,株式会社,神奈川県,横浜市神奈川区,金港町５－１４クアドリフォリオ８階,,14,102,2210056,,,,,,,2024-03-06,1,,,,,ウィルコンサルティング,0
2003,7020001156097,新規,0,2024-03-06,2024-03-06,株式会社祥瑞国際,,株式会社,神奈川県,横浜市青葉区,荏田町３５３番地１,,14,117,2250013,,,,,,,2024-03-06,1,,,,,ショウズイコクサイ,0
2004,7020001156114,新規,0,2024-03-06,2024-03-06,バリューチェンジ株式会社,,株式会社,神奈川県,横浜市西区,高島１丁目２番５号横濱ゲートタワー３階,,14,103,2200011,,,,,,,2024-03-06,1,,,,,バリューチェンジ,0
2005,7020003025580,新規,0,2024-03-06,2024-03-06,Ｍａｅｎｏｒｉ　ＢＳ　Ｓｅｒｖｉｃｅ合同会社,,合同会社,神奈川県,横浜市保土ケ谷区,峰沢町８３番地５ブルーハイツ三ツ沢台３０６号,,14,106,2400061,,,,,,,2024-03-06,1,,,,,マエノリバックステージサービス,0
2006,7020003025614,新規,0,2024-03-06,2024-03-06,ＹＳハーモニー合同会社,,合同会社,神奈川県,横浜市港北区,綱島東２丁目６－４６ＶＩＡＭＡＲＥ３０１,,14,109,2230052,,,,,,,2024-03-06,1,,,,,ワイエスハーモニー,0
2007,7020003025655,新規,0,2024-03-06,2024-03-06,合同会社川上ＥＮＧ,,合同会社,神奈川県,横浜市青葉区,美しが丘４丁目２９番地１０アンディヴェール１０１号室,,14,117,2250002,,,,,,,2024-03-06,1,,,,,カワカミイーエヌジー,0
2008,7020003025671,新規,0,2024-03-06,2024-03-06,Ｔｕｌｉｐ合同会社,,合同会社,神奈川県,横浜市西区,紅葉ケ丘６番地１,,14,103,2200044,,,,,,,2024-03-06,1,,,,,チューリップ,0
2009,7020005016297,新規,0,2024-03-06,2024-03-06,医療法人社団杏会,,その他の設立登記法人,神奈川県,横浜市港南区,最戸１丁目１４番３１号橋場第三ビル１階,,14,111,2330008,,,,,,,2024-03-06,1,,,,,アンズカイ,0
2014,7021001081632,新規,0,2024-03-06,2024-03-06,株式会社アールファクター,,株式会社,神奈川県,藤沢市,大庭５４３１番地の１４,,14,205,2510861,,,,,,,2024-03-06,1,,,,,アールファクター,0
2019,7021003014219,新規,0,2024-03-06,2024-03-06,合同会社仁,,合同会社,神奈川県,相模原市緑区,三ケ木３６５番地１,,14,151,2520159,,,,,,,2024-03-06,1,,,,,ジン,0
2020,7021003014227,新規,0,2024-03-06,2024-03-06,合同会社Ｔｏ‐ｒｅｎｏｖａｔｉｏｎ,,合同会社,神奈川県,藤沢市,鵠沼藤が谷４丁目１６番１９号,00133981,14,205,2510031,,,,,,,2024-03-06,1,,,,,トゥーリノベーション,0
2026,7030001159017,新規,0,2024-03-06,2024-03-06,株式会社１９８９,,株式会社,埼玉県,熊谷市,拾六間１１番地１,,11,202,3600846,,,,,,,2024-03-06,1,,,,,イチキュウハチキュウ,0
2027,7030001159025,新規,0,2024-03-06,2024-03-06,株式会社アンコーポレーション,,株式会社,埼玉県,さいたま市南区,関１丁目２－２４Ｂ－１０２,,11,108,3360038,,,,,,,2024-03-06,1,,,,,アンコーポレーション,0
2028,7030001159033,新規,0,2024-03-06,2024-03-06,株式会社タイヤコネクト,,株式会社,埼玉県,北足立郡伊奈町,学園４丁目１４番地,,11,301,3620813,,,,,,,2024-03-06,1,,,,,タイヤコネクト,0
2029,7030001159041,新規,0,2024-03-06,2024-03-06,株式会社ＦＴＣフーズ,,株式会社,埼玉県,さいたま市南区,曲本５丁目６番２２－５０４号,,11,108,3360033,,,,,,,2024-03-06,1,,,,,エフティーシーフーズ,0
2030,7030001159074,新規,0,2024-03-06,2024-03-06,株式会社ＳＵＮＳＥＴ　ＩＮＴＥＲＮＡＴＩＯＮＡＬ,,株式会社,埼玉県,新座市,東北２丁目３４番２号ルネグランステージ志木ＩＩ１１１０号室,00133974,11,230,3520001,,,,,,,2024-03-06,1,,,,,サンセットインターナショナル,0
2031,7030001159082,新規,0,2024-03-06,2024-03-06,株式会社モノワイド,,株式会社,埼玉県,さいたま市大宮区,桜木町２丁目３番地大宮マルイ７階,,11,103,3300854,,,,,,,2024-03-06,1,,,,,モノワイド,0
2032,7030003023749,新規,0,2024-03-06,2024-03-06,合同会社Ｙｏｕ＆Ｍｅ,,合同会社,埼玉県,三郷市,花和田１３０番地１,,11,237,3410041,,,,,,,2024-03-06,1,,,,,ユーアンドミー,0
2033,7030003023757,新規,0,2024-03-06,2024-03-06,ＩＲＥ栃木琵琶池太陽光発電所合同会社,,合同会社,埼玉県,川口市,栄町１丁目７番１４号２階,,11,203,3320017,,,,,,,2024-03-06,1,,,,,アイアールイートチギビワイケタイヨウコウハツデンショ,0
2037,7040001132468,新規,0,2024-03-06,2024-03-06,株式会社Ｐｈｆ,,株式会社,千葉県,袖ケ浦市,野里１７７３番地３,,12,229,2990211,,,,,,,2024-03-06,1,,,,,ピーエィチエフ,0
2038,7040001132492,新規,0,2024-03-06,2024-03-06,Ｓｐｒｉｎｔ　Ｉｎｔｅｌｌｉｇｅｎｃｅ株式会社,,株式会社,千葉県,浦安市,美浜４丁目２０番１７号,,12,227,2790011,,,,,,,2024-03-06,1,,,,,スプリントインテリジェンス,0
2039,7040001132526,新規,0,2024-03-06,2024-03-06,Ｈ・Ｒメンテナンス株式会社,,株式会社,千葉県,木更津市,江川２６１番地１,,12,206,2920063,,,,,,,2024-03-06,1,,,,,エイチアールメンテナンス,0
2040,7040001132534,新規,0,2024-03-06,2024-03-06,株式会社カナツカ総研,,株式会社,千葉県,成田市,吉岡１０９番地,,12,211,2870225,,,,,,,2024-03-06,1,,,,,カナツカソウケン,0
2042,7040005022310,新規,0,2024-03-06,2024-03-06,特定非営利活動法人Ｉｎ　Ｔｈｅ　Ｗｏｒｌｄ,,その他の設立登記法人,千葉県,市原市,能満１８１２番地１第１０キャッスルコーポ西辰巳台２０８号室,,12,219,2900011,,,,,,,2024-03-06,1,,,,,,0
2044,7050001054397,新規,0,2024-03-06,2024-03-06,ネクスト株式会社,,株式会社,茨城県,土浦市,田中３丁目３番１４号,,08,203,3000048,,,,,,,2024-03-06,1,,,,,ネクスト,0
2048,7060001036881,新規,0,2024-03-06,2024-03-06,株式会社Ｒｅｔａｗ,,株式会社,栃木県,宇都宮市,野沢町３１０番地３,,09,201,3200071,,,,,,,2024-03-06,1,,,,,リター,0
2049,7060003004944,新規,0,2024-03-06,2024-03-06,合同会社ＡＢＣ,,合同会社,栃木県,小山市,大字横倉４８１番地７１,,09,208,3230813,,,,,,,2024-03-06,1,,,,,エイビイシイ,0
2053,7070001041468,新規,0,2024-03-06,2024-03-06,株式会社Ｉ‐ｚｅｎ,,株式会社,群馬県,前橋市,上沖町５５２番地１０,,10,201,3710052,,,,,,,2024-03-06,1,,,,,アイゼン,0
2054,7080001026162,新規,0,2024-03-06,2024-03-06,東ポリホールディングス株式会社,,株式会社,静岡県,焼津市,五ケ堀之内６６６番地,,22,212,4250077,,,,,,,2024-03-06,1,,,,,トウポリホールディングス,0
2058,7080103002994,新規,0,2024-03-06,2024-03-06,合同会社花椿,,合同会社,静岡県,御殿場市,萩原５８７番地３号,,22,215,4120042,,,,,,,2024-03-06,1,,,,,ハナツバキ,0
2066,7100003007430,新規,0,2024-03-06,2024-03-06,合同会社三和商会ＳＳ,,合同会社,長野県,諏訪市,大字四賀１５４８番地１,,20,206,3920012,,,,,,,2024-03-06,1,,,,,サンワショウカイエスエス,0
2067,7110001038220,新規,0,2024-03-06,2024-03-06,株式会社Ｍ’ｓ,,株式会社,新潟県,新潟市中央区,堀之内２１番地１Ｄ－ｒｏｏｍＳＵＭＯＮ１０１,,15,103,9500981,,,,,,,2024-03-06,1,,,,,エムズ,0
2075,7120001262884,新規,0,2024-03-06,2024-03-06,株式会社Ｔ．Ｃ　ｆａｃｔｏｒｙ,,株式会社,大阪府,大阪市中央区,釣鐘町１丁目６－２橋本ビル２０３,,27,128,5400035,,,,,,,2024-03-06,1,,,,,ティーシーファクトリー,0
2076,7120001262918,新規,0,2024-03-06,2024-03-06,ＡＯＩ株式会社,,株式会社,大阪府,大阪市此花区,春日出北２丁目１１番１２号ＡＯＩビル,,27,104,5540021,,,,,,,2024-03-06,1,,,,,エーオーアイ,0
2079,7120003026073,新規,0,2024-03-06,2024-03-06,合同会社スマイルサポート,,合同会社,大阪府,大阪市福島区,鷺洲２丁目５番３５号福島ビル４階,,27,103,5530002,,,,,,,2024-03-06,1,,,,,スマイルサポート,0
2080,7120003026081,新規,0,2024-03-06,2024-03-06,合同会社リーフ,,合同会社,大阪府,大阪市天王寺区,堀越町９番８号,,27,109,5430056,,,,,,,2024-03-06,1,,,,,リーフ,0
2081,7120005024182,新規,0,2024-03-06,2024-03-06,一般社団法人日本医療労働環境改善協会,,その他の設立登記法人,大阪府,大阪市淀川区,西中島７丁目１番２６号,,27,123,5320011,,,,,,,2024-03-06,1,,,,,ニホンイリョウロウドウカンキョウカイゼンキョウカイ,0
2084,7120101069148,新規,0,2024-03-06,2024-03-06,株式会社ＥＳＰＯＩＲ,,株式会社,大阪府,堺市西区,浜寺南町２丁１１３番地７,,27,144,5928344,,,,,,,2024-03-06,1,,,,,エスポワール,0
2085,7120901048838,新規,0,2024-03-06,2024-03-06,株式会社ＡＴＰ,,株式会社,大阪府,吹田市,原町４丁目２１番４５―１１２４号,,27,205,5640004,,,,,,,2024-03-06,1,,,,,エーティーピー,0
2086,7120901048846,新規,0,2024-03-06,2024-03-06,株式会社豊之樹,,株式会社,大阪府,豊中市,末広町２丁目９番２０号,,27,203,5600024,,,,,,,2024-03-06,1,,,,,トヨノキ,0
2090,7122001037886,新規,0,2024-03-06,2024-03-06,株式会社Ｃｏｌｚａ,,株式会社,大阪府,八尾市,末広町５丁目４番３号シャーメゾン末広１０１号室,,27,212,5810001,,,,,,,2024-03-06,1,,,,,コルザ,0
2093,7130001076482,新規,0,2024-03-06,2024-03-06,株式会社神門龍,,株式会社,京都府,城陽市,平川野原１番地の８１,,26,207,6100101,,,,,,,2024-03-06,1,,,,,ミカドリュウ,0
2094,7130001076516,新規,0,2024-03-06,2024-03-06,ジェノヴィアリサーチソリューションズ株式会社,,株式会社,京都府,京都市南区,吉祥院堤外町２９－５５三谷化工株式会社Ｒ＆Ｄセンター,,26,107,6018399,,,,,,,2024-03-06,1,,,,,ジェノヴィアリサーチソリューションズ,0
2095,7130003009358,新規,0,2024-03-06,2024-03-06,合同会社ｋｉｒｉｎｅｋｏ,,合同会社,京都府,亀岡市,東本梅町松熊ソトハ２１,,26,206,6210232,,,,,,,2024-03-06,1,,,,,キリネコ,0
2103,7140001133555,新規,0,2024-03-06,2024-03-06,株式会社Ａｌｉｖｅ,,株式会社,兵庫県,三田市,南が丘１丁目５１番２号,,28,219,6691535,,,,,,,2024-03-06,1,,,,,アライブ,0
2104,7140001133563,新規,0,2024-03-06,2024-03-06,株式会社コラスケイト２,,株式会社,兵庫県,神戸市中央区,磯辺通３丁目２番１７号ＫＯＷＡワールド三宮ビル,,28,110,6510084,,,,,,,2024-03-06,1,,,,,コラスケイトツー,0
2105,7140003020149,新規,0,2024-03-06,2024-03-06,ヒロシ赤ちゃんと衛生合同会社,,合同会社,兵庫県,姫路市,南町６３ミツワビル３Ｆ,,28,201,6700912,,,,,,,2024-03-06,1,,,,,ヒロシアカチャントエイセイ,0
2106,7140003020215,新規,0,2024-03-06,2024-03-06,Ｋ・Ｅ・Ｙ合同会社,,合同会社,兵庫県,西宮市,甲子園口３丁目１０番７号ドール甲子園口１階,,28,204,6638113,,,,,,,2024-03-06,1,,,,,ケーイーワイ,0
2107,7140003020231,新規,0,2024-03-06,2024-03-06,合同会社Ｌｉｂｅｒａｌｉｓｍ,,合同会社,兵庫県,神戸市灘区,城内通４丁目２番３４号－３０９,,28,102,6570836,,,,,,,2024-03-06,1,,,,,リベラリズム,0
2108,7140003020248,新規,0,2024-03-06,2024-03-06,Ｌｉｓｅ合同会社,,合同会社,兵庫県,神戸市北区,唐櫃六甲台７番地の１,,28,109,6511334,,,,,,,2024-03-06,1,,,,,ライズ,0
2115,7170001018035,新規,0,2024-03-06,2024-03-06,株式会社双葉,,株式会社,和歌山県,和歌山市,三葛６６１番地５,,30,201,6410011,,,,,,,2024-03-06,1,,,,,フタバ,0
2127,7180001160323,新規,0,2024-03-06,2024-03-06,株式会社ＫＩＶＩ,,株式会社,愛知県,名古屋市東区,徳川１丁目５０７番地９０４号,,23,102,4610025,,,,,,,2024-03-06,1,,,,,キヴィ,0
2128,7180001160414,新規,0,2024-03-06,2024-03-06,Ｋアセット株式会社,,株式会社,愛知県,名古屋市中区,栄１丁目２番３号,,23,106,4600008,,,,,,,2024-03-06,1,,,,,ケイアセット,0
2129,7180001160430,新規,0,2024-03-06,2024-03-06,雲祭株式会社,,株式会社,愛知県,名古屋市昭和区,御器所１丁目１４番３号モアグレース御器所９０１,,23,107,4660051,,,,,,,2024-03-06,1,,,,,ウンサイ,0
2130,7180001160455,新規,0,2024-03-06,2024-03-06,ＦＰＣ準備株式会社,,株式会社,愛知県,春日井市,長塚町２丁目１０番地,,23,206,4860934,,,,,,,2024-03-06,1,,,,,エフピーシージュンビ,0
2133,7180003026448,新規,0,2024-03-06,2024-03-06,合同会社ＢａｎＳｏｕ,,合同会社,愛知県,名古屋市中村区,名駅４丁目２４番５号第２森ビル４０１号,,23,105,4500002,,,,,,,2024-03-06,1,,,,,バンソウ,0
2134,7180003026456,新規,0,2024-03-06,2024-03-06,ＣＲＯＳＳＲＯＡＤ合同会社,,合同会社,愛知県,名古屋市瑞穂区,岳見町３丁目４番地の１８,,23,108,4670043,,,,,,,2024-03-06,1,,,,,クロスロード,0
2144,7210001019656,新規,0,2024-03-06,2024-03-06,ウエサカニット株式会社,,株式会社,福井県,越前市,池ノ上町第４５号１番地の１３,,18,209,9150873,,,,,,,2024-03-06,1,,,,,ウエサカニット,0
2146,7220001025851,新規,0,2024-03-06,2024-03-06,株式会社ギャクテンゲームズ,,株式会社,石川県,金沢市,新保本４丁目６５番地１６,,17,201,9218062,,,,,,,2024-03-06,1,,,,,ギャクテンゲームズ,0
2151,7240001062876,新規,0,2024-03-06,2024-03-06,株式会社Ｙｕｉ　Ｙｕｉ,,株式会社,広島県,広島市中区,十日市町１丁目５番１８－２０７号,,34,101,7300805,,,,,,,2024-03-06,1,,,,,ユイユイ,0
2152,7240001062884,新規,0,2024-03-06,2024-03-06,株式会社リサイクルエイト,,株式会社,広島県,広島市西区,商工センター２丁目１６番１６号,,34,104,7330833,,,,,,,2024-03-06,1,,,,,リサイクルエイト,0
2163,7290001104938,新規,0,2024-03-06,2024-03-06,株式会社清水商会,,株式会社,福岡県,福岡市東区,原田４丁目２６番８－４０５号,,40,131,8120063,,,,,,,2024-03-06,1,,,,,シミズショウカイ,0
2164,7290001104946,新規,0,2024-03-06,2024-03-06,株式会社ｂｉ．ｓｃｕｉｔ,,株式会社,福岡県,大川市,大字坂井５９６番地１,,40,212,8310025,,,,,,,2024-03-06,1,,,,,ビスケット,0
2165,7290001104954,新規,0,2024-03-06,2024-03-06,株式会社宮崎本店,00133982,株式会社,福岡県,福岡市東区,青葉７丁目１番１５号,,40,131,8130025,,,,,,,2024-03-06,1,,,,,ミヤザキホンテン,0
2166,7290001104962,新規,0,2024-03-06,2024-03-06,株式会社将信,,株式会社,福岡県,那珂川市,大字不入道６４３番地１,,40,231,8111231,,,,,,,2024-03-06,1,,,,,ショウシン,0
2183,7350001018818,新規,0,2024-03-06,2024-03-06,株式会社小林産業,,株式会社,宮崎県,小林市,細野２９１１番地３,,45,205,8860004,,,,,,,2024-03-06,1,,,,,コバヤシサンギョウ,0
2184,7350003004584,新規,0,2024-03-06,2024-03-06,合同会社ジュジュプラン,,合同会社,宮崎県,日向市,江良町４丁目３３番地,,45,206,8830012,,,,,,,2024-03-06,1,,,,,ジュジュプラン,0
2187,7360001033287,新規,0,2024-03-06,2024-03-06,株式会社Ｔｒｅａｓｕｒｅ　Ｉｓｌａｎｄ,,株式会社,沖縄県,沖縄市,与儀１丁目３０番２０－３０７号,,47,211,9042174,,,,,,,2024-03-06,1,,,,,トレジャーアイランド,0
2188,7360001033295,新規,0,2024-03-06,2024-03-06,株式会社ｗｉｔｈ　ｙｏｕ　Ｌｉｆｅ,,株式会社,沖縄県,那覇市,字国場３９６番地１０２,,47,201,9020075,,,,,,,2024-03-06,1,,,,,,0
2189,7360003013766,新規,0,2024-03-06,2024-03-06,合同会社クオリティアップ,,合同会社,沖縄県,宜野湾市,愛知２丁目１３－３１アドヴァンスたわた１０１号,,47,205,9012206,,,,,,,2024-03-06,1,,,,,クオリティアップ,0
2192,7380001034341,新規,0,2024-03-06,2024-03-06,株式会社内山工務店,,株式会社,福島県,須賀川市,小中字志茂６２番地,,07,207,9620202,,,,,,,2024-03-06,1,,,,,ウチヤマコウムテン,0
2196,7430001091245,新規,0,2024-03-06,2024-03-06,華樹ベース株式会社,,株式会社,北海道,札幌市西区,二十四軒三条４丁目２番１０－１５０１号,,01,107,0630803,,,,,,,2024-03-06,1,,,,,ハナキベース,0
2197,7440001009394,新規,0,2024-03-06,2024-03-06,株式会社磯栄,,株式会社,北海道,北斗市,谷好２丁目３番５０号,,01,236,0490141,,,,,,,2024-03-06,1,,,,,イソエイ,0
2199,7450001014245,新規,0,2024-03-06,2024-03-06,株式会社ｍｅｄｅｒｕ　ｇｒｅｅｎ,,株式会社,北海道,旭川市,東旭川町下兵村１１１番地の３,,01,204,0788208,,,,,,,2024-03-06,1,,,,,メデルグリーン,0
2200,7450003002446,新規,0,2024-03-06,2024-03-06,合同会社鷲田農場,,合同会社,北海道,名寄市,字智恵文十四線北１番地,,01,221,0982181,,,,,,,2024-03-06,1,,,,,ワシダノウジョウ,0
2202,7470003002592,新規,0,2024-03-06,2024-03-06,合同会社ＬｉｖｅＭｙＯｗｎＷａｙ,,合同会社,香川県,丸亀市,浜町４７－１－３０１,,37,202,7630022,,,,,,,2024-03-06,1,,,,,リブマイオンウェイ,0
2207,7500001025501,新規,0,2024-03-06,2024-03-06,株式会社ＹＫ,,株式会社,愛媛県,松山市,東野５丁目甲８９８番地１６８,,38,201,7900903,,,,,,,2024-03-06,1,,,,,ワイケー,0
2215,8010001242797,新規,0,2024-03-06,2024-03-06,株式会社和田ホールディングス,,株式会社,東京都,中央区,銀座１丁目１４番７号,,13,102,1040061,,,,,,,2024-03-06,1,,,,,ワダホールディングス,0
2216,8010001242830,新規,0,2024-03-06,2024-03-06,株式会社クリニックメイト,,株式会社,東京都,中央区,銀座１丁目１２番４号Ｎ＆ＥＢＬＤ．６Ｆ,,13,102,1040061,,,,,,,2024-03-06,1,,,,,クリニックメイト,0
2217,8010001242847,新規,0,2024-03-06,2024-03-06,株式会社ＴＳＪ　ｗｏｒｋｓ,,株式会社,東京都,中央区,東日本橋１丁目３－１５馬淵ビルＢ１,,13,102,1030004,,,,,,,2024-03-06,1,,,,,ティエスジェーワークス,0
2224,8010003043120,新規,0,2024-03-06,2024-03-06,ＰｗＣリスクアドバイザリー合同会社,,合同会社,東京都,千代田区,大手町１丁目１番１号大手町パークビルディング,,13,101,1000004,,,,,,,2024-03-06,1,,,,,ピーダブリューシーリスクアドバイザリー,0
2232,8010401180787,新規,0,2024-03-06,2024-03-06,ジオシャイン株式会社,,株式会社,東京都,港区,新橋６丁目３番４号,,13,103,1050004,,,,,,,2024-03-06,1,,,,,ジオシャイン,0
2233,8010401180812,新規,0,2024-03-06,2024-03-06,株式会社こころ,,株式会社,東京都,港区,南青山３丁目１番３６号青山丸竹ビル６Ｆ,,13,103,1070062,,,,,,,2024-03-06,1,,,,,ココロ,0
2234,8010401180829,新規,0,2024-03-06,2024-03-06,王のティラミス株式会社,,株式会社,東京都,港区,南青山２丁目２番１５号,,13,103,1070062,,,,,,,2024-03-06,1,,,,,オウノティラミス,0
2235,8010401180845,新規,0,2024-03-06,2024-03-06,株式会社ＭＡＴＣＨ　ＰＯＩＮＴ,,株式会社,東京都,港区,高輪４丁目１５番７－１０３号,,13,103,1080074,,,,,,,2024-03-06,1,,,,,マッチポイント,0
2236,8010401180861,新規,0,2024-03-06,2024-03-06,株式会社ＫＩＧＥＮＺＥＮ,,株式会社,東京都,港区,南青山５丁目３番１０号フロムファースト３０１,,13,103,1070062,,,,,,,2024-03-06,1,,,,,キゲンセン,0
2237,8010403032078,新規,0,2024-03-06,2024-03-06,合同会社グランファクトリー,,合同会社,東京都,港区,虎ノ門４丁目１番２０－１１０７号,,13,103,1050001,,,,,,,2024-03-06,1,,,,,グランファクトリー,0
2238,8010403032094,新規,0,2024-03-06,2024-03-06,ＳｍａｒｔＲｅｔａｉｌ　Ｊａｐａｎ合同会社,,合同会社,東京都,港区,赤坂８丁目１０番２２号ニュー新坂ビル４階,,13,103,1070052,,,,,,,2024-03-06,1,,,,,スマートリテールジャパン,0
2239,8010403032111,新規,0,2024-03-06,2024-03-06,Ｍｏｂｉｌｉｔｙ＆Ｍａｉｎｔｅｎａｎｃｅ　Ｊａｐａｎ２合同会社,,合同会社,東京都,港区,北青山２丁目５番１号,,13,103,1070061,,,,,,,2024-03-06,1,,,,,モビリティアンドメンテナンスジャパンツー,0
2240,8010405023018,新規,0,2024-03-06,2024-03-06,社会保険労務士法人丹光,,その他の設立登記法人,東京都,港区,北青山１丁目３番１号アールキューブ青山３階,,13,103,1070061,,,,,,,2024-03-06,1,,,,,タンミツ,0
2241,8010601064765,新規,0,2024-03-06,2024-03-06,株式会社フジテック,,株式会社,東京都,江東区,東雲１丁目９－３２,,13,108,1350062,,,,,,,2024-03-06,1,,,,,フジテック,0
2246,8010701045649,新規,0,2024-03-06,2024-03-06,株式会社Ｇ・ＤＥＭＡＮＤ,,株式会社,東京都,品川区,北品川５丁目５番１５号,,13,109,1410001,,,,,,,2024-03-06,1,,,,,ジーディマンド,0
2247,8010705003594,新規,0,2024-03-06,2024-03-06,一般社団法人ジャパンクラフツマンアソシエーション,,その他の設立登記法人,東京都,品川区,東品川２丁目３番１０号天王洲アイルシーフォートスクエア２階,,13,109,1400002,,,,,,,2024-03-06,1,,,,,ジャパンクラフツマンアソシエーション,0
2251,8010901054813,新規,0,2024-03-06,2024-03-06,星降る夜のシステムズ株式会社,,株式会社,東京都,世田谷区,上北沢４丁目２５番７－５０２号,,13,112,1560057,,,,,,,2024-03-06,1,,,,,ホシフルヨルノシステムズ,0
2252,8010901054821,新規,0,2024-03-06,2024-03-06,株式会社城西テクノ,,株式会社,東京都,世田谷区,給田３丁目９番１０－１０６号,,13,112,1570064,,,,,,,2024-03-06,1,,,,,ジョウサイテクノ,0
2260,8011001160238,新規,0,2024-03-06,2024-03-06,株式会社Ｅｎｕ,,株式会社,東京都,渋谷区,恵比寿西１丁目２９－５カプリ代官山３０３,,13,113,1500021,,,,,,,2024-03-06,1,,,,,エヌユー,0
2261,8011001160436,新規,0,2024-03-06,2024-03-06,株式会社ＡＴＥＮＡ,,株式会社,東京都,渋谷区,道玄坂１丁目１０番８号,,13,113,1500043,,,,,,,2024-03-06,1,,,,,アテナ,0
2262,8011003018616,新規,0,2024-03-06,2024-03-06,合同会社ＳＨＩＭＯＪＩＭＡ,,合同会社,東京都,渋谷区,道玄坂１丁目１０番８号渋谷道玄坂東急ビル２Ｆ－Ｃ,,13,113,1500043,,,,,,,2024-03-06,1,,,,,シモジマ,0
2263,8011101106413,新規,0,2024-03-06,2024-03-06,株式会社ＡＳＰＩＬＥＡＦ,,株式会社,東京都,新宿区,山吹町３３１ＲＢＷＪＡＰＡＮ１Ｆ,,13,104,1620801,,,,,,,2024-03-06,1,,,,,アスピリーフ,0
2266,8011103014176,新規,0,2024-03-06,2024-03-06,合同会社フューチャーミント,,合同会社,東京都,新宿区,西新宿３丁目３番１３号西新宿水間ビル６階,,13,104,1600023,,,,,,,2024-03-06,1,,,,,ヒューチャーミント,0
2267,8011105010958,新規,0,2024-03-06,2024-03-06,医療法人社団真梨会,,その他の設立登記法人,東京都,新宿区,新宿３丁目２５番１０号當山ビル７階,,13,104,1600022,,,,,,,2024-03-06,1,,,,,シンリカイ,0
2273,8011401025899,新規,0,2024-03-06,2024-03-06,株式会社Ｊａｐａｎ　Ｔａｌｅｎｔ　Ｐｒｏｄｕｃｔｉｏｎ,,株式会社,東京都,板橋区,蓮根２丁目２８番４－７０４号,,13,119,1740046,,,,,,,2024-03-06,1,,,,,ジャパンタレントプロダクション,0
2286,8011801043872,新規,0,2024-03-06,2024-03-06,株式会社ＨＧＭ,,株式会社,東京都,足立区,西新井２丁目４番６号ＡｎｄＰｌｕｓ西新井ビル,,13,121,1230841,,,,,,,2024-03-06,1,,,,,エイチジーエム,0
2292,8012401041597,新規,0,2024-03-06,2024-03-06,Ｃｏｃｏｒｏ　Ｓｏｆｔｗａｒｅ株式会社,,株式会社,東京都,武蔵野市,境南町２丁目７番２０－４０１号ダイアパレス武蔵境２,,13,203,1800023,,,,,,,2024-03-06,1,,,,,ココロソフトウェア,0
2295,8012405004947,新規,0,2024-03-06,2024-03-06,特定非営利活動法人調布イーグルスＦＣ,,その他の設立登記法人,東京都,狛江市,岩戸南４丁目２３番９－３０１号,,13,219,2010005,,,,,,,2024-03-06,1,,,,,チョウフイーグルスエフシー,0
2297,8012801023006,新規,0,2024-03-06,2024-03-06,株式会社アマリリス,,株式会社,東京都,日野市,神明３丁目８番地の１３,,13,212,1910016,,,,,,,2024-03-06,1,,,,,アマリリス,0
2302,8013301052172,新規,0,2024-03-06,2024-03-06,株式会社ＳＡＬＯＮ　ＭＯＧＯ,,株式会社,東京都,豊島区,北大塚３丁目３４－８マイハウス大塚２０１,,13,116,1700004,,,,,,,2024-03-06,1,,,,,サロンモゴ,0
2303,8013303007034,新規,0,2024-03-06,2024-03-06,ＡＭＡＺＩＮＧ　ＪＡＰＡＮ合同会社,,合同会社,東京都,豊島区,北大塚２丁目１２番３号,,13,116,1700004,,,,,,,2024-03-06,1,,,,,アメイジングジャパン,0
2305,8020001156063,新規,0,2024-03-06,2024-03-06,株式会社ＳＴＵＤＩＯ　ＵＮＤＥＲＬＩＮＥ,,株式会社,神奈川県,横浜市港北区,大曽根１丁目５番１０－１１号,,14,109,2220003,,,,,,,2024-03-06,1,,,,,スタジオアンダーライン,0
2306,8020001156071,新規,0,2024-03-06,2024-03-06,富士フイルムクラウド株式会社,,株式会社,神奈川県,横浜市西区,みなとみらい６丁目１番,,14,103,2200012,,,,,,,2024-03-06,1,,,,,フジフイルムクラウド,0
2307,8020001156105,新規,0,2024-03-06,2024-03-06,株式会社ｉｎｃｎｏｔｅ,,株式会社,神奈川県,横浜市西区,北幸２丁目１０番４８号むつみビル３階,,14,103,2200004,,,,,,,2024-03-06,1,,,,,インクノート,0
2308,8020001156113,新規,0,2024-03-06,2024-03-06,株式会社Ｓｔｙｌｅ＆Ｄｉｎｅ,,株式会社,神奈川県,横浜市中区,扇町１丁目１号２５番地キンガビル１階,,14,104,2310027,,,,,,,2024-03-06,1,,,,,スタイルアンドダイン,0
2309,8020001156121,新規,0,2024-03-06,2024-03-06,株式会社Ｙｏｂｏｔｔｏ,,株式会社,神奈川県,横浜市青葉区,藤が丘１丁目１２番地６０,,14,117,2270043,,,,,,,2024-03-06,1,,,,,ヨボット,0
2318,8021001081631,新規,0,2024-03-06,2024-03-06,株式会社Ｍａｋｅ　ｆｏｒ,,株式会社,神奈川県,相模原市南区,麻溝台５丁目１９－４－２,,14,153,2520328,,,,,,,2024-03-06,1,,,,,メイクフォア,0
2326,8030001159008,新規,0,2024-03-06,2024-03-06,株式会社ｎｏｉ．ｃ３,,株式会社,埼玉県,さいたま市南区,南浦和１丁目１０番２－１０号,,11,108,3360017,,,,,,,2024-03-06,1,,,,,ノイドットシースリー,0
2327,8030001159016,新規,0,2024-03-06,2024-03-06,株式会社ＬＥＡＤ　ＶＡＬＵＥ,,株式会社,埼玉県,川越市,大字吉田８２番地２１,,11,201,3500807,,,,,,,2024-03-06,1,,,,,リードバリュー,0
2328,8030001159032,新規,0,2024-03-06,2024-03-06,マルオカリライフ株式会社,,株式会社,埼玉県,飯能市,大字笠縫３２４番地６,,11,209,3570045,,,,,,,2024-03-06,1,,,,,マルオカリライフ,0
2329,8030001159040,新規,0,2024-03-06,2024-03-06,株式会社アルクロジスティックス,,株式会社,埼玉県,川口市,西川口２丁目１２番４号,,11,203,3320021,,,,,,,2024-03-06,1,,,,,アルクロジスティックス,0
2330,8030001159073,新規,0,2024-03-06,2024-03-06,川谷電気株式会社,,株式会社,埼玉県,戸田市,美女木３丁目４番地の１７,,11,224,3350031,,,,,,,2024-03-06,1,,,,,カワタニデンキ,0
2332,8030003023764,新規,0,2024-03-06,2024-03-06,ＤＭ　ＡＵＴＯ　ＴＲＡＤＩＮＧ合同会社,,合同会社,埼玉県,さいたま市岩槻区,大字黒谷１６３６番地４,,11,110,3390033,,,,,,,2024-03-06,1,,,,,ディーエムオートトレーディング,0
2335,8040001132475,新規,0,2024-03-06,2024-03-06,伽羅シロ株式会社,,株式会社,千葉県,佐倉市,宮前３丁目２２番地４ＧＡＲＤＥＮＥＬＥＧＡＮＴ３１７,,12,212,2850005,,,,,,,2024-03-06,1,,,,,キャラシロ,0
2336,8040001132483,新規,0,2024-03-06,2024-03-06,株式会社オーラ,,株式会社,千葉県,柏市,あかね町３０番６－２０６号,,12,217,2770027,,,,,,,2024-03-06,1,,,,,オーラ,0
2337,8040001132509,新規,0,2024-03-06,2024-03-06,ブルーコーナー株式会社,,株式会社,千葉県,我孫子市,天王台５丁目２番２－４０６号,,12,222,2701143,,,,,,,2024-03-06,1,,,,,ブルーコーナー,0
2338,8040001132517,新規,0,2024-03-06,2024-03-06,株式会社ＹＤＮ　ａｌｌエコ,,株式会社,千葉県,柏市,泉町１番５号,,12,217,2770022,,,,,,,2024-03-06,1,,,,,ワイディーエヌオールエコ,0
2339,8040001132525,新規,0,2024-03-06,2024-03-06,株式会社ファーマフレンズ,,株式会社,千葉県,我孫子市,布佐平和台２丁目１３番１号,,12,222,2701108,,,,,,,2024-03-06,1,,,,,ファーマフレンズ,0
2342,8040003024472,新規,0,2024-03-06,2024-03-06,合同会社Ｐ’２ｎｄ,,合同会社,千葉県,船橋市,本町１丁目１１番２９－７０５号,,12,204,2730005,,,,,,,2024-03-06,1,,,,,ピーセカンド,0
2343,8040003024480,新規,0,2024-03-06,2024-03-06,ダブルエフ合同会社,,合同会社,千葉県,市川市,新井２丁目１２番１０号ラ・セジュール１０１,,12,203,2720144,,,,,,,2024-03-06,1,,,,,ダブルエフ,0
2346,8050001054405,新規,0,2024-03-06,2024-03-06,株式会社ｈ．ｃ．Ａ,,株式会社,茨城県,牛久市,ひたち野西３丁目３７番地７ウエストサイドＩＩＩ１Ｆ,00133975,08,219,3001206,,,,,,,2024-03-06,1,,,,,エイチシーエー,0
2351,8060001036880,新規,0,2024-03-06,2024-03-06,株式会社Ｄ＆Ｂファミリー,,株式会社,栃木県,下都賀郡壬生町,大字藤井１０８６番地３,,09,361,3210221,,,,,,,2024-03-06,1,,,,,ディーアンドビーファミリー,0
2352,8060001036889,新規,0,2024-03-06,2024-03-06,株式会社理創,,株式会社,栃木県,宇都宮市,上横倉町８２２番地１,,09,201,3212112,,,,,,,2024-03-06,1,,,,,リソウ,0
2355,8060003004943,新規,0,2024-03-06,2024-03-06,ｍｉｔａｓｕ合同会社,,合同会社,栃木県,下都賀郡壬生町,落合３丁目１番２０号,,09,361,3210218,,,,,,,2024-03-06,1,,,,,ミタス,0
2358,8080001026153,新規,0,2024-03-06,2024-03-06,山本園芸株式会社,,株式会社,静岡県,静岡市葵区,沓谷１丁目２５番２０号,,22,101,4200816,,,,,,,2024-03-06,1,,,,,ヤマモトエンゲイ,0
2359,8080001026161,新規,0,2024-03-06,2024-03-06,株式会社ＦＰＫ,,株式会社,静岡県,静岡市清水区,押切９２３番地の１２,,22,103,4240008,,,,,,,2024-03-06,1,,,,,エフピーケー,0
2377,8110005017062,新規,0,2024-03-06,2024-03-06,胎内市電気工事協同組合,,その他の設立登記法人,新潟県,胎内市,高野１３５５番地１,,15,227,9592618,,,,,,,2024-03-06,1,,,,,タイナイシデンキコウジ,0
2384,8120001262818,新規,0,2024-03-06,2024-03-06,日本楽韻貿易株式会社,,株式会社,大阪府,大阪市東住吉区,住道矢田８丁目２番１５号２１６号室,,27,121,5460022,,,,,,,2024-03-06,1,,,,,ニホンガクインボウエキ,0
2385,8120001262842,新規,0,2024-03-06,2024-03-06,鴻茂株式会社,,株式会社,大阪府,大阪市東成区,中道４丁目１６番２１－４０８号,,27,115,5370025,,,,,,,2024-03-06,1,,,,,コウモ,0
2389,8120101069163,新規,0,2024-03-06,2024-03-06,株式会社Ｋ＆Ｔ,,株式会社,大阪府,堺市南区,美木多上９８８番地３,,27,145,5900136,,,,,,,2024-03-06,1,,,,,ケイアンドティー,0
2394,8122001037877,新規,0,2024-03-06,2024-03-06,堀田工業株式会社,,株式会社,大阪府,東大阪市,稲田本町１丁目１９番２６号,,27,227,5770007,,,,,,,2024-03-06,1,,,,,ホッタコウギョウ,0
2395,8122001037885,新規,0,2024-03-06,2024-03-06,株式会社ｘｅｎｏｃｒｅａｔｉｏｎ,,株式会社,大阪府,大東市,野崎４丁目５番１９号,,27,218,5740015,,,,,,,2024-03-06,1,,,,,ゼノクリエイション,0
2397,8130003009365,新規,0,2024-03-06,2024-03-06,合同会社勝麻,,合同会社,京都府,木津川市,山城町平尾東古川３４番地の３,,26,214,6190202,,,,,,,2024-03-06,1,,,,,カツマ,0
2398,8140001133538,新規,0,2024-03-06,2024-03-06,株式会社ＮＮＴ,,株式会社,兵庫県,姫路市,東辻井３丁目４番１４号,00133972,28,201,6700084,,,,,,,2024-03-06,1,,,,,エヌエヌティ,0
2399,8140001133546,新規,0,2024-03-06,2024-03-06,Ｂｅ　ａｃｔｉｖｅ株式会社,,株式会社,兵庫県,加古郡播磨町,本荘２丁目４－４７コーポはりま７号館１０４号,,28,382,6750154,,,,,,,2024-03-06,1,,,,,ビーアクティブ,0
2400,8140001133554,新規,0,2024-03-06,2024-03-06,株式会社姫油脂,,株式会社,兵庫県,姫路市,網干区新在家１３２０番地６８,,28,201,6711234,,,,,,,2024-03-06,1,,,,,ヒメユシ,0
2401,8140001133562,新規,0,2024-03-06,2024-03-06,株式会社Ｆｕｎ　Ｂａｓｅ,,株式会社,兵庫県,神戸市中央区,港島中町６丁目１４番地ポートピアプラザＤ棟９０１号,,28,110,6500046,,,,,,,2024-03-06,1,,,,,ファンベース,0
2402,8140001133570,新規,0,2024-03-06,2024-03-06,Ｍｉｒａコンサルティング株式会社,,株式会社,兵庫県,姫路市,三左衛門堀東の町７６番地リーガルビル３－Ｂ,,28,201,6700949,,,,,,,2024-03-06,1,,,,,ミラコンサルティング,0
2405,8140003020230,新規,0,2024-03-06,2024-03-06,合同会社Ｎｃｏｎｎｅｃｔ,,合同会社,兵庫県,神戸市灘区,鶴甲２丁目７番１－７０４号,,28,102,6570011,,,,,,,2024-03-06,1,,,,,エヌコネクト,0
2406,8140003020239,新規,0,2024-03-06,2024-03-06,合同会社ヱビス美術工芸舎,,合同会社,兵庫県,西宮市,羽衣町７－３０夙川グリーンタウン３階,,28,204,6620051,,,,,,,2024-03-06,1,,,,,ヱビスビジュツコウゲイシャ,0
2411,8170001018034,新規,0,2024-03-06,2024-03-06,和歌山アスコン株式会社,,株式会社,和歌山県,和歌山市,梅原６３８番地３７,,30,201,6408452,,,,,,,2024-03-06,1,,,,,ワカヤマアスコン,0
2417,8180001160413,新規,0,2024-03-06,2024-03-06,Ｔアセット株式会社,,株式会社,愛知県,一宮市,長島町５丁目１番地,,23,203,4910071,,,,,,,2024-03-06,1,,,,,ティアセット,0
2420,8180003026455,新規,0,2024-03-06,2024-03-06,合同会社ＺＩＯＮ,,合同会社,愛知県,名古屋市天白区,大坪２丁目１８０８番地（天野ビル３０３号）,,23,116,4680072,,,,,,,2024-03-06,1,,,,,ザイオン,0
2427,8190001031159,新規,0,2024-03-06,2024-03-06,株式会社Ｈ・Ｒ・Ｋ,,株式会社,三重県,桑名市,高塚町３丁目２３番地ルミフォートＩＩＡ棟,00133967,24,205,5110818,,,,,,,2024-03-06,1,,,,,エイチアールケー,0
2434,8200001042212,新規,0,2024-03-06,2024-03-06,ＲＩＳＥ株式会社,,株式会社,岐阜県,大垣市,南若森４丁目３４番地４,,21,202,5030977,,,,,,,2024-03-06,1,,,,,ライズ,0
2442,8220003003689,新規,0,2024-03-06,2024-03-06,合同会社ｓｈｉｎｓｈｉｎ,,合同会社,石川県,金沢市,金石東２丁目１３番１７号,,17,201,9200335,,,,,,,2024-03-06,1,,,,,シンシン,0
2443,8230003002161,新規,0,2024-03-06,2024-03-06,合同会社アイコン,,合同会社,富山県,富山市,粟島町３丁目７番１４号,,16,201,9318314,,,,,,,2024-03-06,1,,,,,アイコン,0
2445,8240001062875,新規,0,2024-03-06,2024-03-06,株式会社鈴屋,,株式会社,広島県,福山市,津之郷町大字津之郷４８５番地２・１０２,,34,207,7200841,,,,,,,2024-03-06,1,,,,,スズヤ,0
2446,8240001062883,新規,0,2024-03-06,2024-03-06,森田建設株式会社,,株式会社,広島県,東広島市,西条朝日町１３番１５号,,34,212,7390012,,,,,,,2024-03-06,1,,,,,モリタケンセツ,0
2447,8240001062891,新規,0,2024-03-06,2024-03-06,株式会社はぴら,,株式会社,広島県,福山市,神辺町字道上４９０番地４,,34,207,7202104,,,,,,,2024-03-06,1,,,,,ハピラ,0
2449,8240003006566,新規,0,2024-03-06,2024-03-06,合同会社笠原住設,,合同会社,広島県,福山市,加茂町字上加茂６３番地８８,,34,207,7202419,,,,,,,2024-03-06,1,,,,,カサハラジュウセツ,0
2461,8290001104854,新規,0,2024-03-06,2024-03-06,株式会社Ｗｅｓｔ　ｈｉｌｌコンサルタント,,株式会社,福岡県,久留米市,日ノ出町６６番地サンライズビル４０３号,,40,203,8300012,,,,,,,2024-03-06,1,,,,,ウエストヒルコンサルタント,0
2462,8290001104912,新規,0,2024-03-06,2024-03-06,株式会社柳風,,株式会社,福岡県,糟屋郡篠栗町,大字乙犬１０３３番地１,,40,342,8112412,,,,,,,2024-03-06,1,,,,,リュウフウ,0
2463,8290001104937,新規,0,2024-03-06,2024-03-06,株式会社ＶＥＣ,,株式会社,福岡県,福岡市西区,愛宕２丁目１４番３０号,,40,135,8190015,,,,,,,2024-03-06,1,,,,,ブイイーシー,0
2464,8290001104986,新規,0,2024-03-06,2024-03-06,株式会社ＳＵＮ’Ｓ,,株式会社,福岡県,福岡市早良区,小田部３丁目３番３３号,,40,137,8140032,,,,,,,2024-03-06,1,,,,,サンズ,0
2470,8290003014985,新規,0,2024-03-06,2024-03-06,合同会社ｆｒｅｅ　ｂｏｏｋ,,合同会社,福岡県,久留米市,上津町１７９３番地２１,,40,203,8300052,,,,,,,2024-03-06,1,,,,,フリーブック,0
2471,8290003015026,新規,0,2024-03-06,2024-03-06,合同会社優友,,合同会社,福岡県,福岡市西区,拾六町２丁目１２番２５号,,40,135,8190041,,,,,,,2024-03-06,1,,,,,ユウユウ,0
2482,8310001018886,新規,0,2024-03-06,2024-03-06,株式会社池野ファーム,,株式会社,長崎県,西海市,西彼町喰場郷９１３番地１１,,42,212,8513305,,,,,,,2024-03-06,1,,,,,イケノファーム,0
2484,8320005001169,新規,0,2024-03-06,2024-03-06,別大都市開発事業協同組合,,その他の設立登記法人,大分県,大分市,長浜町３丁目１６番３号,,44,201,8700023,,,,,,,2024-03-06,1,,,,,,0
2488,8340003004394,新規,0,2024-03-06,2024-03-06,合同会社中ちゃんファーム,,合同会社,鹿児島県,霧島市,隼人町小田７０－２,,46,218,8995105,,,,,,,2024-03-06,1,,,,,ナカチャンファーム,0
2489,8350003004583,新規,0,2024-03-06,2024-03-06,合同会社ＴＡＭＡリゾート,,合同会社,宮崎県,日南市,大字東弁分乙６０番地１,,45,204,8892521,,,,,,,2024-03-06,1,,,,,タマリゾート,0
2495,8360003013765,新規,0,2024-03-06,2024-03-06,合同会社６４３,,合同会社,沖縄県,浦添市,宮城６丁目７番１－２０２号ディアコートＫＦＳ,,47,208,9012126,,,,,,,2024-03-06,1,,,,,ロクヨンサン,0
2496,8370005010751,新規,0,2024-03-06,2024-03-06,一般社団法人蔵王ひとまち共創機構,,その他の設立登記法人,宮城県,刈田郡蔵王町,宮字原前６６番地,,04,301,9890701,,,,,,,2024-03-06,1,,,,,ザオウヒトマチキョウソウキコウ,0
2506,8420003002885,新規,0,2024-03-06,2024-03-06,津輕事務所合同会社,,合同会社,青森県,弘前市,大字百沢字高田８０番地,,02,202,0361343,,,,,,,2024-03-06,1,,,,,ツガルジムショ,0
2509,8430001091244,新規,0,2024-03-06,2024-03-06,株式会社ＯＮＥ　ＰＩＥＣＥ,,株式会社,北海道,余市郡赤井川村,字日ノ出１１６番地,,01,409,0460511,,,,,,,2024-03-06,1,,,,,ワンピース,0
2510,8450001014244,新規,0,2024-03-06,2024-03-06,株式会社野村エステート,,株式会社,北海道,宗谷郡猿払村,浜鬼志別４２１４番地,,01,511,0986222,,,,,,,2024-03-06,1,,,,,ノムラエステート,0
2513,8460303000817,新規,0,2024-03-06,2024-03-06,合同会社ア・ラ・モード,,合同会社,北海道,北見市,南町２丁目６番２２号,,01,208,0900806,,,,,,,2024-03-06,1,,,,,,0
2517,8480003002095,新規,0,2024-03-06,2024-03-06,合同会社ベック,,合同会社,徳島県,徳島市,助任橋３丁目２２－４エクセレントヘイワビル４０１,,36,201,7700815,,,,,,,2024-03-06,1,,,,,ベック,0
2518,8480005007010,新規,0,2024-03-06,2024-03-06,一般社団法人徳島県定期借地借家協会,,その他の設立登記法人,徳島県,徳島市,東吉野町２丁目４５番地９,,36,201,7700811,,,,,,,2024-03-06,1,,,,,トクシマケンテイキシャクチシャクヤキョウカイ,0
2522,8490003001872,新規,0,2024-03-06,2024-03-06,合同会社レアーレ,,合同会社,高知県,高知市,六泉寺町９－１,,39,201,7808023,,,,,,,2024-03-06,1,,,,,レアーレ,0
2524,8500001025500,新規,0,2024-03-06,2024-03-06,株式会社ＲＵＮＮＥＲ　ＵＰ,,株式会社,愛媛県,松山市,二番町１丁目８番地２ニック３３ビル３階Ａ号室,,38,201,7900002,,,,,,,2024-03-06,1,,,,,ランナーアップ,0
2525,8700150124314,新規,0,2024-03-06,2024-03-06,生殖バイオロジー東京シンポジウム,,その他,神奈川県,横浜市緑区,鴨居６丁目１９－２０株式会社ヒューマンリプロ・Ｋ内,,14,113,2260003,,,,,,,2024-03-06,1,,,,,セイショクバイオロジートウキョウシンポジウム,0
2536,9010001242805,新規,0,2024-03-06,2024-03-06,スリムＩＴコンサルティング株式会社,,株式会社,東京都,千代田区,岩本町２丁目１０－５－２０１,,13,101,1010032,,,,,,,2024-03-06,1,,,,,スリムアイテイコンサルティング,0
2542,9010003043144,新規,0,2024-03-06,2024-03-06,合同会社ソールムーン,,合同会社,東京都,中央区,銀座１丁目２２番１１号,,13,102,1040061,,,,,,,2024-03-06,1,,,,,ソールムーン,0
2545,9010005037978,新規,0,2024-03-06,2024-03-06,一般社団法人中日産業教育融合連盟,,その他の設立登記法人,東京都,千代田区,内神田１丁目４番１０号ＡＴＳ大手町ビル２階,,13,101,1010047,,,,,,,2024-03-06,1,,,,,チュウニチサンギョウキョウイクユウゴウレンメイ,0
2546,9010005037986,新規,0,2024-03-06,2024-03-06,行政書士法人Ｇｕｎｓｈｉ,,その他の設立登記法人,東京都,千代田区,神田三崎町２丁目１７番８号６Ｆ－９,,13,101,1010061,,,,,,,2024-03-06,1,,,,,グンシ,0
2548,9010401180786,新規,0,2024-03-06,2024-03-06,株式会社ＫＡＴＯパートナーズ,,株式会社,東京都,港区,海岸１丁目６番１－４２０号,,13,103,1050022,,,,,,,2024-03-06,1,,,,,カトーパートナーズ,0
2549,9010401180794,新規,0,2024-03-06,2024-03-06,ＳＢＩクリアリング準備株式会社,,株式会社,東京都,港区,六本木１丁目６番１号,,13,103,1060032,,,,,,,2024-03-06,1,,,,,エスビーアイクリアリングジュンビ,0
2550,9010401180811,新規,0,2024-03-06,2024-03-06,株式会社ＡＮＤＩＳＨ,,株式会社,東京都,港区,赤坂３丁目８番８号,,13,103,1070052,,,,,,,2024-03-06,1,,,,,アンディッシュ,0
2551,9010401180836,新規,0,2024-03-06,2024-03-06,株式会社ｌａ　ｖｉｅ　ｅｎ　ｒｏｓｅ　ｐａｒｔｎｅｒｓ,,株式会社,東京都,港区,白金１丁目２番１－Ｅ４０１０号,,13,103,1080072,,,,,,,2024-03-06,1,,,,,ラビアンローズパートナーズ,0
2553,9010403032069,新規,0,2024-03-06,2024-03-06,合同会社サンライズ,,合同会社,東京都,港区,北青山１丁目３番１号アールキューブ青山３階,,13,103,1070061,,,,,,,2024-03-06,1,,,,,サンライズ,0
2559,9010601064764,新規,0,2024-03-06,2024-03-06,株式会社タネトシカケ,,株式会社,東京都,江東区,東雲１丁目９番４１,,13,108,1350062,,,,,,,2024-03-06,1,,,,,タネトシカケ,0
2561,9010603010691,新規,0,2024-03-06,2024-03-06,東哲合同会社,,合同会社,東京都,墨田区,京島１丁目４３番２号１－Ｃ室,,13,107,1310046,,,,,,,2024-03-06,1,,,,,トウテツ,0
2562,9010703007076,新規,0,2024-03-06,2024-03-06,ＭＴ‐ＢＡＧＵＳ合同会社,,合同会社,東京都,品川区,東品川５丁目９番１５－１０２０号,,13,109,1400002,,,,,,,2024-03-06,1,,,,,エムティーバグーズ,0
2563,9010705003602,新規,0,2024-03-06,2024-03-06,ｗｉｔｈ‐Ｂ行政書士法人,,その他の設立登記法人,東京都,品川区,北品川５丁目９番４２－２２３号,,13,109,1410001,,,,,,,2024-03-06,1,,,,,ウイズビー,0
2568,9010901054812,新規,0,2024-03-06,2024-03-06,株式会社スタジオクロマト,,株式会社,東京都,世田谷区,赤堤２丁目３２番２５号,,13,112,1560044,,,,,,,2024-03-06,1,,,,,スタジオクロマト,0
2569,9010901054820,新規,0,2024-03-06,2024-03-06,株式会社メディカルエンパワーメント,,株式会社,東京都,世田谷区,赤堤４丁目６番１６号,,13,112,1560044,,,,,,,2024-03-06,1,,,,,メディカルエンパワーメント,0
2576,9011001160419,新規,0,2024-03-06,2024-03-06,株式会社ａｌｔ,,株式会社,東京都,渋谷区,道玄坂１丁目１０番８号渋谷道玄坂東急ビル２Ｆ－Ｃ,,13,113,1500043,,,,,,,2024-03-06,1,,,,,オルト,0
2584,9011101106412,新規,0,2024-03-06,2024-03-06,株式会社Ｌｉｂｅｒｔｙ,,株式会社,東京都,新宿区,西新宿３丁目３番１３号西新宿水間ビル６階,,13,104,1600023,,,,,,,2024-03-06,1,,,,,リバティー,0
2587,9011103014142,新規,0,2024-03-06,2024-03-06,合同会社レイル,,合同会社,東京都,新宿区,山吹町１２－４,,13,104,1620801,,,,,,,2024-03-06,1,,,,,レイル,0
2588,9011103014167,新規,0,2024-03-06,2024-03-06,合同会社ＰＯＴＥＴＯ,,合同会社,東京都,新宿区,西新宿３丁目３番１３号西新宿水間ビル２Ｆ,,13,104,1600023,,,,,,,2024-03-06,1,,,,,ポテト,0
2590,9011201025280,新規,0,2024-03-06,2024-03-06,株式会社ユニオンフロント,,株式会社,東京都,中野区,江古田１丁目２１番１２号,,13,114,1650022,,,,,,,2024-03-06,1,,,,,ユニオンフロント,0
2592,9011301029470,新規,0,2024-03-06,2024-03-06,株式会社ＦＥＳＴ,,株式会社,東京都,杉並区,荻窪５丁目２１番８号１Ｆ,,13,115,1670051,,,,,,,2024-03-06,1,,,,,フェスト,0
2597,9011501030402,新規,0,2024-03-06,2024-03-06,株式会社あずき,,株式会社,東京都,北区,赤羽西１丁目３８番１５号,,13,117,1150055,,,,,,,2024-03-06,1,,,,,アズキ,0
2599,9011601027579,新規,0,2024-03-06,2024-03-06,ＣＫホールディングス株式会社,,株式会社,東京都,練馬区,桜台６丁目８番１４号,,13,120,1760002,,,,,,,2024-03-06,1,,,,,シーケーホールディングス,0
2606,9011801043871,新規,0,2024-03-06,2024-03-06,株式会社伯楽,,株式会社,東京都,葛飾区,西水元２丁目８番２号レオパレス亀有第四２０５,,13,122,1250031,,,,,,,2024-03-06,1,,,,,ハクラク,0
2608,9012303001946,新規,0,2024-03-06,2024-03-06,ＴＳＡＭ合同会社,,合同会社,東京都,町田市,山崎町１４２７番地９－２０４,,13,209,1950074,,,,,,,2024-03-06,1,,,,,ティーエスエーエム,0
2609,9012403006440,新規,0,2024-03-06,2024-03-06,合同会社桜梅桃李,,合同会社,東京都,稲城市,若葉台１丁目３３番地の２クレヴィア若葉台パークナード１－５０１,,13,225,2060824,,,,,,,2024-03-06,1,,,,,オウバイトウリ,0
2611,9012701018113,新規,0,2024-03-06,2024-03-06,クアエシトール株式会社,,株式会社,東京都,西東京市,ひばりが丘２丁目１３番２６号,,13,229,2020001,,,,,,,2024-03-06,1,,,,,クアエシトール,0
2617,9013303007033,新規,0,2024-03-06,2024-03-06,合同会社Ｊ＆Ｆ,,合同会社,東京都,豊島区,南池袋１丁目１６番２０号ぬかりやビル６Ｆ,,13,116,1710022,,,,,,,2024-03-06,1,,,,,ジェイアンドエフ,0
2623,9020001156062,新規,0,2024-03-06,2024-03-06,株式会社ＬｅｖｅｌＵｐ　Ｌｏｇｙ,,株式会社,神奈川県,横浜市鶴見区,豊岡町３４番１４号,,14,101,2300062,,,,,,,2024-03-06,1,,,,,レベルアップロジー,0
2624,9020001156070,新規,0,2024-03-06,2024-03-06,株式会社ＭＲＳ,,株式会社,神奈川県,川崎市幸区,紺屋町４０番地４,,14,132,2120026,,,,,,,2024-03-06,1,,,,,エムアールエス,0
2625,9020001156095,新規,0,2024-03-06,2024-03-06,株式会社カイヨウ,,株式会社,神奈川県,横浜市南区,永田東３丁目１７番２－４号,,14,105,2320072,,,,,,,2024-03-06,1,,,,,カイヨウ,0
2626,9020001156112,新規,0,2024-03-06,2024-03-06,株式会社ＳＡＳ　ＡＳＩＡ,,株式会社,神奈川県,横浜市西区,北幸１丁目１１番１号水信ビル７階,,14,103,2200004,,,,,,,2024-03-06,1,,,,,エスエーエスアジア,0
2627,9020001156120,新規,0,2024-03-06,2024-03-06,Ｋ　Ｉｎｔｅｒｉｏｒ　Ａｒｃｈｉｔｅｃｔｓ株式会社,,株式会社,神奈川県,川崎市宮前区,宮崎１２１番地７,,14,136,2160033,,,,,,,2024-03-06,1,,,,,ケイインテリアアーキテクツ,0
2628,9020002009194,新規,0,2024-03-06,2024-03-06,有限会社和真,,有限会社,神奈川県,横浜市金沢区,泥亀１丁目１７番２０－３０２号,,14,108,2360021,,,,,,,2024-03-06,1,,,,,,0
2629,9020003025661,新規,0,2024-03-06,2024-03-06,合同会社ＭＣ,,合同会社,神奈川県,横浜市神奈川区,白幡上町２８番１号サークルハウス白楽２０１号,,14,102,2210075,,,,,,,2024-03-06,1,,,,,エムシー,0
2630,9020005016295,新規,0,2024-03-06,2024-03-06,団地管理組合法人サザンヒルズ竹山,,その他の設立登記法人,神奈川県,横浜市緑区,竹山４丁目１番３サザンヒルズ竹山コミュニティセンター内,,14,113,2260005,,,,,,,2024-03-06,1,,,,,サザンヒルズタケヤマ,0
2635,9021001081614,新規,0,2024-03-06,2024-03-06,株式会社共進工業,,株式会社,神奈川県,座間市,栗原中央５丁目２９番１２号アルドーレ芹沢１０２号,,14,216,2520014,,,,,,,2024-03-06,1,,,,,キョウシンコウギョウ,0
2636,9021001081622,新規,0,2024-03-06,2024-03-06,株式会社ＶＥＲＹ　ＡＰＥ,,株式会社,神奈川県,鎌倉市,大船１丁目１２番１０湘南第５ビル４Ｆ,,14,204,2470056,,,,,,,2024-03-06,1,,,,,ベリーエイプ,0
2637,9021001081630,新規,0,2024-03-06,2024-03-06,株式会社ハビオ,,株式会社,神奈川県,高座郡寒川町,岡田３丁目７４２番１,,14,321,2530105,,,,,,,2024-03-06,1,,,,,ハビオ,0
2638,9021001081639,新規,0,2024-03-06,2024-03-06,株式会社ＭＹＣ,,株式会社,神奈川県,座間市,緑ケ丘３丁目２９番１４号,,14,216,2520021,,,,,,,2024-03-06,1,,,,,エムワイシー,0
2640,9021003014209,新規,0,2024-03-06,2024-03-06,合同会社リベルタ,,合同会社,神奈川県,相模原市南区,下溝１９７７－５,,14,153,2520335,,,,,,,2024-03-06,1,,,,,リベルタ,0
2641,9021005013035,新規,0,2024-03-06,2024-03-06,弁護士法人多湖総合法律事務所,,その他の設立登記法人,神奈川県,相模原市中央区,矢部４丁目１７番８号相模中央マンション２Ｆ,,14,152,2520232,,,,,,,2024-03-06,1,,,,,タコソウゴウホウリツジムショ,0
2645,9030001159007,新規,0,2024-03-06,2024-03-06,キートスクリーニングサービス株式会社,,株式会社,埼玉県,さいたま市北区,東大成町２丁目２１３番地１,,11,102,3310814,,,,,,,2024-03-06,1,,,,,キートスクリーニングサービス,0
2646,9030001159015,新規,0,2024-03-06,2024-03-06,株式会社ＡＣＬＡＳＳ,,株式会社,埼玉県,鴻巣市,箕田３７８１番地５,,11,217,3650062,,,,,,,2024-03-06,1,,,,,アクラス,0
2647,9030001159023,新規,0,2024-03-06,2024-03-06,株式会社武蔵浦和どうぶつ医療センター,,株式会社,埼玉県,さいたま市南区,四谷３丁目７番５号,,11,108,3360032,,,,,,,2024-03-06,1,,,,,ムサシウラワドウブツイリョウセンター,0
2648,9030001159031,新規,0,2024-03-06,2024-03-06,コアコネクト株式会社,,株式会社,埼玉県,さいたま市見沼区,片柳１丁目１８６,,11,104,3370024,,,,,,,2024-03-06,1,,,,,コアコネクト,0
2649,9030001159056,新規,0,2024-03-06,2024-03-06,株式会社千手ワークス,,株式会社,埼玉県,比企郡吉見町,大字久保田１５８５番地,,11,347,3550137,,,,,,,2024-03-06,1,,,,,センジュワークス,0
2650,9030001159080,新規,0,2024-03-06,2024-03-06,株式会社ＭＯＮＳＴＥＲＡ,,株式会社,埼玉県,さいたま市南区,南本町２丁目２１番４号大明ビル１０４,,11,108,3360018,,,,,,,2024-03-06,1,,,,,モンステラ,0
2651,9030001159089,新規,0,2024-03-06,2024-03-06,株式会社ＨＡＵＳ,,株式会社,埼玉県,草加市,高砂１丁目１２番７号,,11,221,3400015,,,,,,,2024-03-06,1,,,,,ハウス,0
2652,9030001159097,新規,0,2024-03-06,2024-03-06,株式会社ｌｉｋｅ　ａ　ｂｉｒｄ,,株式会社,埼玉県,秩父市,宮側町２０―１５蓮見ビル１階左号室,,11,207,3680046,,,,,,,2024-03-06,1,,,,,ライクアバード,0
2656,9030003023755,新規,0,2024-03-06,2024-03-06,合同会社ホリベット,,合同会社,埼玉県,春日部市,備後西５丁目７番３４号,,11,214,3440033,,,,,,,2024-03-06,1,,,,,ホリベット,0
2660,9040001132499,新規,0,2024-03-06,2024-03-06,株式会社秀建,,株式会社,千葉県,佐倉市,西ユーカリが丘１丁目２０番地８,,12,212,2850850,,,,,,,2024-03-06,1,,,,,シュウケン,0
2661,9040001132508,新規,0,2024-03-06,2024-03-06,株式会社ＭＵＴ,,株式会社,千葉県,千葉市緑区,土気町１３５１番地１５,,12,105,2670061,,,,,,,2024-03-06,1,,,,,ムーツ,0
2662,9040001132524,新規,0,2024-03-06,2024-03-06,株式会社ＴＯＷＡホールディングス,,株式会社,千葉県,八千代市,八千代台東１丁目１０番１３号エポラビル６Ｆ,,12,221,2760032,,,,,,,2024-03-06,1,,,,,トーワホールディングス,0
2664,9040003024455,新規,0,2024-03-06,2024-03-06,合同会社千里エンジニアリング,,合同会社,千葉県,千葉市若葉区,北大宮台４番２号,,12,104,2640014,,,,,,,2024-03-06,1,,,,,センリエンジニアリング,0
2665,9040003024471,新規,0,2024-03-06,2024-03-06,ＡＳＡＬ合同会社,,合同会社,千葉県,佐倉市,南臼井台２－４スターハイツ２９６・２０３号,,12,212,2850865,,,,,,,2024-03-06,1,,,,,アサル,0
2666,9040003024488,新規,0,2024-03-06,2024-03-06,アジア人財就労支援センター合同会社,,合同会社,千葉県,千葉市中央区,大森町５３０－２７,,12,101,2600811,,,,,,,2024-03-06,1,,,,,アジアジンザイシュウロウシエンセンター,0
2670,9050001054404,新規,0,2024-03-06,2024-03-06,鈴喜ハウジング株式会社,,株式会社,茨城県,行方市,両宿２８番地３,,08,233,3111721,,,,,,,2024-03-06,1,,,,,スズキハウジング,0
2673,9060001036888,新規,0,2024-03-06,2024-03-06,株式会社ＷＡＶＥ８０８,,株式会社,栃木県,宇都宮市,岩曽町１１７４－７ハイライフＩ３０３,00133971,09,201,3210973,,,,,,,2024-03-06,1,,,,,ウェーブエイトオーエイト,0
2681,9080101024568,新規,0,2024-03-06,2024-03-06,株式会社ＵＮ,,株式会社,静岡県,裾野市,佐野１０３８番地の５,,22,220,4101118,,,,,,,2024-03-06,1,,,,,アン,0
2684,9080103003000,新規,0,2024-03-06,2024-03-06,合同会社リノアシスト,,合同会社,静岡県,伊豆市,上船原１８２番地の８,,22,222,4103216,,,,,,,2024-03-06,1,,,,,リノアシスト,0
2689,9090001018578,新規,0,2024-03-06,2024-03-06,株式会社牛巽,,株式会社,山梨県,甲斐市,龍地６６０６－３,,19,210,4000104,,,,,,,2024-03-06,1,,,,,ウシタツミ,0
2691,9100003007429,新規,0,2024-03-06,2024-03-06,合同会社ヒロ,,合同会社,長野県,松本市,蟻ケ崎４丁目１０番１８号,,20,202,3900861,,,,,,,2024-03-06,1,,,,,ヒロ,0
2692,9100003007437,新規,0,2024-03-06,2024-03-06,合同会社フットトラスト,,合同会社,長野県,安曇野市,穂高５５３６－１５,,20,220,3998303,,,,,,,2024-03-06,1,,,,,フットトラスト,0
2700,9120001262833,新規,0,2024-03-06,2024-03-06,株式会社ＫＲＣ,,株式会社,大阪府,大阪市平野区,喜連４丁目８番５９－７０２号,,27,126,5470027,,,,,,,2024-03-06,1,,,,,ケーアールシー,0
2709,9120101069170,新規,0,2024-03-06,2024-03-06,株式会社Ｚｅａｌ　Ｋｉｎｇ,,株式会社,大阪府,堺市中区,深井沢町３２８２番地ＫＭＫアドバンスビル５１０号室,,27,142,5998236,,,,,,,2024-03-06,1,,,,,ジールキング,0
2710,9120103005702,新規,0,2024-03-06,2024-03-06,合同会社ぷりもぴあっと,,合同会社,大阪府,富田林市,甲田６丁目１１番２０号,,27,214,5840036,,,,,,,2024-03-06,1,,,,,プリモピアット,0
2717,9120901048844,新規,0,2024-03-06,2024-03-06,株式会社Ｈａｎａｕｔａ,,株式会社,大阪府,高槻市,芝生町１丁目５９番２７号,,27,207,5690823,,,,,,,2024-03-06,1,,,,,ハナウタ,0
2718,9122001037884,新規,0,2024-03-06,2024-03-06,株式会社ＮＡＯＳＵ　ＣＯＭＰＡＮＹ,,株式会社,大阪府,東大阪市,吉田６丁目２番５３号,,27,227,5780924,,,,,,,2024-03-06,1,,,,,ナオスカンパニー,0
2726,9140001133537,新規,0,2024-03-06,2024-03-06,株式会社岸本電機,,株式会社,兵庫県,高砂市,竜山１丁目１８番１６号,,28,216,6760811,,,,,,,2024-03-06,1,,,,,キシモトデンキ,0
2727,9140001133553,新規,0,2024-03-06,2024-03-06,ウェイストシステムジャパン株式会社,,株式会社,兵庫県,神戸市中央区,加納町４丁目４番１７号,,28,110,6500001,,,,,,,2024-03-06,1,,,,,ウェイストシステムジャパン,0
2728,9140001133561,新規,0,2024-03-06,2024-03-06,株式会社志天水産,,株式会社,兵庫県,尼崎市,稲葉荘３丁目６番１１号,,28,202,6600064,,,,,,,2024-03-06,1,,,,,シテンスイサン,0
2729,9140001133578,新規,0,2024-03-06,2024-03-06,株式会社トレスポ,,株式会社,兵庫県,川西市,小戸３丁目９番３号,,28,217,6660014,,,,,,,2024-03-06,1,,,,,トレスポ,0
2730,9140001133594,新規,0,2024-03-06,2024-03-06,株式会社ｂｏｓｈｕ,,株式会社,兵庫県,尼崎市,東園田町５丁目４６番１３号,,28,202,6610953,,,,,,,2024-03-06,1,,,,,ボウシュ,0
2738,9170001018033,新規,0,2024-03-06,2024-03-06,株式会社Ｉ．Ｗ．Ｓ,,株式会社,和歌山県,和歌山市,本町１丁目４３番地８Ｆ,,30,201,6408033,,,,,,,2024-03-06,1,,,,,アイダブリュエス,0
2747,9180001160429,新規,0,2024-03-06,2024-03-06,株式会社サーフメイド,,株式会社,愛知県,名古屋市港区,七番町２丁目１３番地、１１Ｂ,,23,111,4550001,,,,,,,2024-03-06,1,,,,,サーフメイド,0
2748,9180001160461,新規,0,2024-03-06,2024-03-06,株式会社ＣＡＲＳ,,株式会社,愛知県,名古屋市名東区,猪子石原３丁目１０６番地,,23,115,4650008,,,,,,,2024-03-06,1,,,,,カーズ,0
2753,9180003026454,新規,0,2024-03-06,2024-03-06,アーバンオフィス合同会社,,合同会社,愛知県,名古屋市中村区,森末町１丁目２７番地の３,,23,105,4530052,,,,,,,2024-03-06,1,,,,,アーバンオフィス,0
2755,9190001031158,新規,0,2024-03-06,2024-03-06,株式会社さだ八農園,,株式会社,三重県,鈴鹿市,稲生塩屋１丁目１３番１号,,24,207,5100207,,,,,,,2024-03-06,1,,,,,サダハチノウエン,0
2760,9210001019654,新規,0,2024-03-06,2024-03-06,株式会社ＥＮＴＥＲ,,株式会社,福井県,鯖江市,東鯖江３丁目３－７番地２Ｆ,,18,207,9160041,,,,,,,2024-03-06,1,,,,,エンター,0
2762,9210003001759,新規,0,2024-03-06,2024-03-06,合同会社Ｋ・Ｔトラストパートナーズ,,合同会社,福井県,あわら市,中番第１３号２０番地１,,18,208,9104137,,,,,,,2024-03-06,1,,,,,ケーティトラストパートナーズ,0
2767,9240001062882,新規,0,2024-03-06,2024-03-06,株式会社葬典社,,株式会社,広島県,尾道市,向東町１３８５番地２,,34,205,7220062,,,,,,,2024-03-06,1,,,,,ソウテンシャ,0
2769,9240003006565,新規,0,2024-03-06,2024-03-06,合同会社ＬＩＱＵＡ,,合同会社,広島県,福山市,神辺町字湯野１０００番地４８,,34,207,7202121,,,,,,,2024-03-06,1,,,,,リクア,0
2775,9260005011322,新規,0,2024-03-06,2024-03-06,一般社団法人ゴッド心理学研究所,,その他の設立登記法人,岡山県,津山市,中島２３２番地１１,,33,203,7080871,,,,,,,2024-03-06,1,,,,,ゴッドシンリガクケンキュウジョ,0
2776,9280001009129,新規,0,2024-03-06,2024-03-06,アグリサポート田辺株式会社,,株式会社,島根県,安来市,広瀬町東比田１０３０番地,,32,206,6920733,,,,,,,2024-03-06,1,,,,,アグリサポートタナベ,0
2778,9290001104894,新規,0,2024-03-06,2024-03-06,京運國際株式会社,,株式会社,福岡県,福岡市東区,筥松２丁目８番８－２０５号,,40,131,8120061,,,,,,,2024-03-06,1,,,,,キョウウンコクサイ,0
2779,9290001104903,新規,0,2024-03-06,2024-03-06,株式会社ｋｉｎｉｋｉｌｉ,,株式会社,福岡県,福岡市城南区,別府３丁目２番３５－４０３号ステイタスガーデン別府,,40,136,8140104,,,,,,,2024-03-06,1,,,,,キニキリ,0
2780,9290001104928,新規,0,2024-03-06,2024-03-06,ＳＥサービス株式会社,,株式会社,福岡県,福岡市中央区,天神４丁目６－２８天神ファーストビル７階,,40,133,8100001,,,,,,,2024-03-06,1,,,,,エスイーサービス,0
2781,9290001104944,新規,0,2024-03-06,2024-03-06,株式会社リートップ,,株式会社,福岡県,糸島市,志摩船越４６６番地２２,,40,230,8191332,,,,,,,2024-03-06,1,,,,,リートップ,0
2782,9290001104960,新規,0,2024-03-06,2024-03-06,株式会社リプレイ,,株式会社,福岡県,福岡市博多区,博多駅南３丁目１０番１３－１４０７号,,40,132,8120016,,,,,,,2024-03-06,1,,,,,リプレイ,0
2784,9290003015025,新規,0,2024-03-06,2024-03-06,合同会社眞鍋電氣,,合同会社,福岡県,福岡市早良区,原６丁目１７番１３号２Ｆ,,40,137,8140022,,,,,,,2024-03-06,1,,,,,マナベデンキ,0
2798,9320001020337,新規,0,2024-03-06,2024-03-06,くらしサポート株式会社,,株式会社,大分県,大分市,中津留２丁目１１番１０号コーポおおとり２０３,,44,201,8700939,,,,,,,2024-03-06,1,,,,,,0
2799,9320003004305,新規,0,2024-03-06,2024-03-06,ＴＳ．Ｃｒａｆｔ合同会社,,合同会社,大分県,臼杵市,大字末広７４３番地の１,,44,206,8750022,,,,,,,2024-03-06,1,,,,,ティーエスクラフト,0
2800,9330001031820,新規,0,2024-03-06,2024-03-06,株式会社アグニール熊本,,株式会社,熊本県,熊本市東区,健軍本町２番１７号,,43,102,8620910,,,,,,,2024-03-06,1,,,,,アグニールクマモト,0
2802,9330003010252,新規,0,2024-03-06,2024-03-06,合同会社ゲットリンク,,合同会社,熊本県,熊本市中央区,船場町２丁目４２ライオンズマンション熊本中央５１０,,43,101,8600019,,,,,,,2024-03-06,1,,,,,ゲットリンク,0
2804,9340001026324,新規,0,2024-03-06,2024-03-06,種子島振興株式会社,,株式会社,鹿児島県,熊毛郡中種子町,野間字本田５１４２番地１４,,46,501,8913604,,,,,,,2024-03-06,1,,,,,タネガシマシンコウ,0
2807,9340003004393,新規,0,2024-03-06,2024-03-06,合同会社アデレ,,合同会社,鹿児島県,いちき串木野市,生福８２３７番地１,,46,219,8960078,,,,,,,2024-03-06,1,,,,,アデレ,0
2810,9350001018816,新規,0,2024-03-06,2024-03-06,ＣＯＳＭＩＣＤＡＷＮ株式会社,,株式会社,宮崎県,日向市,大字幸脇東境川６０１－２７,,45,206,8891112,,,,,,,2024-03-06,1,,,,,コズミックドーン,0
2811,9350001018824,新規,0,2024-03-06,2024-03-06,株式会社５４１,,株式会社,宮崎県,都城市,広原町３０号１番地サンライズ東郷Ｉ（１階中央）,00133977,45,202,8850036,,,,,,,2024-03-06,1,,,,,ゴヨンイチ,0
2815,9360001033285,新規,0,2024-03-06,2024-03-06,株式会社Ｌｉｎｋ　Ｏｒｄｅｒ　Ｏｋｉｎａｗａ,,株式会社,沖縄県,那覇市,久茂地１丁目１番１号デパートリウボウ５Ｆ,,47,201,9000015,,,,,,,2024-03-06,1,,,,,リンクオーダーオキナワ,0
2817,9360003013756,新規,0,2024-03-06,2024-03-06,Ｓｈｉｎｒｙｏ合同会社,,合同会社,沖縄県,那覇市,首里末吉町２丁目１３６番地１,,47,201,9030801,,,,,,,2024-03-06,1,,,,,シンリョウ,0
2818,9360005006997,新規,0,2024-03-06,2024-03-06,一般社団法人ＶＡＮＩＬＬＡの木,,その他の設立登記法人,沖縄県,那覇市,泉崎２丁目１０５番地１ライオンズプラザハーバービュー１０１,,47,201,9000021,,,,,,,2024-03-06,1,,,,,バニラノキ,0
2828,9420003002884,新規,0,2024-03-06,2024-03-06,エステートプライム合同会社,,合同会社,青森県,青森市,青葉１丁目１番地７アキレアシビリカ２０２号,,02,201,0300846,,,,,,,2024-03-06,1,,,,,エステートプライム,0
2830,9430001091243,新規,0,2024-03-06,2024-03-06,株式会社Ｎ．Ｏ．Ｋ,,株式会社,北海道,札幌市清田区,里塚緑ケ丘１１丁目３番１５号,,01,110,0040805,,,,,,,2024-03-06,1,,,,,エヌオーケー,0
2832,9430003016025,新規,0,2024-03-06,2024-03-06,合同会社ＣＮＮ,,合同会社,北海道,札幌市厚別区,大谷地東７丁目９９０番３１０号,,01,108,0040041,,,,,,,2024-03-06,1,,,,,シーエヌエヌ,0
2833,9470001020066,新規,0,2024-03-06,2024-03-06,株式会社承工建設,,株式会社,香川県,さぬき市,長尾西６０３番地５,,37,206,7692302,,,,,,,2024-03-06,1,,,,,ショウコウケンセツ,0
2839,9490003001871,新規,0,2024-03-06,2024-03-06,合同会社みつは林業,,合同会社,高知県,土佐郡土佐町,土居１７２番地５,,39,363,7813401,,,,,,,2024-03-06,1,,,,,ミツハリンギョウ,0
2845,9700150124313,新規,0,2024-03-06,2024-03-06,ｙｉｗｅｉｃｈａｏｓｈｅｎｇｊｉｓｈｕ（ｓｈｅｎｚｈｅｎ）ｙｏｕｘｉａｎｇｏｎｇｓｉ,,外国会社等,,,,,,,,Ｒｏｏｍ　６０８，Ｂｕｉｌｄｉｎｇ　３７，Ｙｉｎｔｉａｎ　Ｉｎｄｕｓｔｒｉａｌ　Ｚｏｎｅ，Ｙａｎｔｉａｎ　Ｃｏｍｍｕｎｉｔｙ，Ｘｉｘｉａｎｇ　Ｓｔｒｅｅｔ，Ｂａｏａｎ　Ｄｉｓｔｒｉｃｔ，Ｓｈｅｎｚｈｅｎ　Ｃｉｔｙ，Ｇｕａｎｇｄｏｎｇ　５１８１０２　ＣＮ,,,,,,2024-03-06,1,,,,,イーウェイチャオションジーシューシェンジェンヨウシエンゴンスー,0
