sequenceNumber,corporateNumber,process,correct,updateDate,changeDate,name,nameImageId,kind,prefectureName,cityName,streetNumber,addressImageId,prefectureCode,cityCode,postCode,addressOutside,addressOutsideImageId,closeDate,closeCause,successorCorporateNumber,changeCause,assignmentDate,latest,enName,enPrefectureName,enCityName,enAddressOutside,furigana,hihyoji
2,1010001154792,登記記録の閉鎖等,0,2024-10-10,2024-10-07,株式会社ＵＡＣＪ押出加工小山,,株式会社,栃木県,小山市,大字土塔５６０番地,,09,208,3230812,,,2024-10-07,合併による解散等,8010001092664,令和６年１０月１日東京都千代田区大手町一丁目７番２号株式会社ＵＡＣＪ押出加工（8010001092664）に合併し解散,2015-10-05,1,,,,,ユーエーシージェイオシダシカコウオヤマ,0
8,1010002020829,登記記録の閉鎖等,0,2024-10-10,2024-09-27,有限会社親栄,,有限会社,東京都,中央区,日本橋人形町３丁目９番５号,,13,102,1030013,,,2024-09-27,清算の結了等,,,2015-10-05,1,,,,,シンエイ,0
19,1010601023562,登記記録の閉鎖等,0,2024-10-10,2024-09-30,株式会社日本プラント建設,,株式会社,東京都,江東区,高橋１３番１５号,,13,108,1350005,,,2024-09-30,清算の結了等,,,2015-10-05,1,,,,,ニホンプラントケンセツ,0
23,1010702001797,登記記録の閉鎖等,0,2024-10-10,2024-10-03,有限会社小野精工製作所,,有限会社,東京都,品川区,荏原５丁目１０番１８号,,13,109,1420063,,,2024-10-03,清算の結了等,,,2015-10-05,1,,,,,オノセイコウセイサクショ,0
28,1010902006927,登記記録の閉鎖等,0,2024-10-10,2024-10-02,有限会社澤田アソシエイツ,,有限会社,東京都,世田谷区,北沢２丁目２７番１５号,,13,112,1550031,,,2024-10-02,清算の結了等,,,2015-10-05,1,,,,,サワダアソシエイツ,0
29,1011001096307,登記記録の閉鎖等,0,2024-10-10,2024-09-17,株式会社Ｌａ　Ｂｅａｕｔｅ　Ｄｅ　Ｚｉｋｚｉｎ,,株式会社,東京都,渋谷区,神南１丁目１５番地２－４Ｆ,,13,113,1500041,,,2024-09-17,清算の結了等,,,2015-10-05,1,,,,,ラボーテデジクジン,0
30,1011001104218,登記記録の閉鎖等,0,2024-10-10,2024-10-04,株式会社ＦＧ,,株式会社,東京都,世田谷区,赤堤１丁目８番２号,,13,112,1560044,,,2024-10-04,清算の結了等,,,2015-10-05,1,,,,,エフジー,0
42,1011202002939,登記記録の閉鎖等,0,2024-10-10,2024-10-10,有限会社清水屋西野商店,,有限会社,東京都,中野区,弥生町５丁目２０番１１号,,13,114,1640013,,,2024-10-10,清算の結了等,,,2015-10-05,1,,,,,,0
54,1011701025416,登記記録の閉鎖等,0,2024-10-10,2024-10-02,株式会社天菜研究所,,株式会社,東京都,新宿区,西新宿３丁目３番－１３号西新宿水間ビル６階,,13,104,1600023,,,2024-10-02,清算の結了等,,,2022-06-29,1,,,,,アマナケンキュウショ,0
60,1012403004419,登記記録の閉鎖等,0,2024-10-10,2024-10-07,ｎａｎａｉｒｏｋｉｄｓ合同会社,,合同会社,東京都,多摩市,一ノ宮４丁目２４番地の２０,,13,224,2060002,,,2024-10-07,清算の結了等,,,2020-07-06,1,,,,,ナナイロキッズ,0
62,1012701002074,登記記録の閉鎖等,0,2024-10-10,2024-10-02,株式会社エス・アイ・テクノロジー,,株式会社,東京都,西東京市,南町６丁目６番１６－１１２号,,13,229,1880012,,,2024-10-02,清算の結了等,,,2015-10-05,1,,,,,エスアイテクノロジー,0
66,1020001002934,登記記録の閉鎖等,0,2024-10-10,2024-10-07,株式会社三興,,株式会社,神奈川県,横浜市磯子区,杉田５丁目５番３号,,14,107,2350033,,,2024-10-07,合併による解散等,9021001037500,令和６年１０月１日神奈川県平塚市四之宮二丁目１１番４３号株式会社八代商会（9021001037500）に合併し解散,2015-10-05,1,,,,,サンコウ,0
77,1021005003340,登記記録の閉鎖等,0,2024-10-10,2024-10-02,税理士法人須藤会計,,その他の設立登記法人,神奈川県,相模原市南区,相模台２丁目１７番１３号,,14,153,2520321,,,2024-10-02,清算の結了等,,,2015-10-05,1,,,,,スドウカイケイ,0
81,1030001110835,登記記録の閉鎖等,0,2024-10-10,2024-10-01,株式会社ＡＬＰＨＡＮ,,株式会社,埼玉県,加須市,花崎３丁目９番地１２,,11,210,3470032,,,2024-10-01,合併による解散等,3030002042704,令和６年１０月１日埼玉県加須市花崎三丁目９番地１２株式会社アルファンホーム（3030002042704）に合併し解散,2015-10-09,1,,,,,アルファン,0
101,1040002046887,登記記録の閉鎖等,0,2024-10-10,2024-10-01,有限会社大成電化工業,,有限会社,千葉県,松戸市,栄町西５丁目１３３３番地の７,,12,207,2710061,,,2024-10-01,清算の結了等,,,2015-10-05,1,,,,,,0
104,1040005008752,登記記録の閉鎖等,0,2024-10-10,2024-10-02,医療法人社団芳世会,,その他の設立登記法人,千葉県,富津市,大堀１８３１番地,,12,226,2930001,,,2024-10-02,清算の結了等,,,2022-08-15,1,,,,,ホウセイカイ,0
105,1040005019262,登記記録の閉鎖等,0,2024-10-10,2024-10-01,特定非営利活動法人レスキューフクロウ隊,,その他の設立登記法人,千葉県,市川市,宮久保１丁目１７番１３号,,12,203,2720822,,,2024-10-01,清算の結了等,,,2016-10-19,1,,,,,レスキューフクロウタイ,0
108,1060001017672,登記記録の閉鎖等,0,2024-10-10,2024-10-04,株式会社ライト・ワン,,株式会社,栃木県,栃木市,西方町金井３２５番地２,,09,203,3220602,,,2024-10-04,清算の結了等,,,2015-10-05,1,,,,,ライトワン,0
111,1070002008439,登記記録の閉鎖等,0,2024-10-10,2024-10-07,有限会社アクセス,,有限会社,群馬県,高崎市,八幡町７２８番地１１,,10,202,3700884,,,2024-10-07,清算の結了等,,,2015-10-05,1,,,,,アクセス,0
113,1080002016176,登記記録の閉鎖等,0,2024-10-10,2024-10-01,有限会社ピースアンドリリーフ,,有限会社,静岡県,焼津市,中里４１８番地,,22,212,4250014,,,2024-10-01,清算の結了等,,,2015-10-05,1,,,,,ピースアンドリリーフ,0
120,1110002025982,登記記録の閉鎖等,0,2024-10-10,2024-10-02,有限会社雪国農産,,有限会社,新潟県,十日町市,下条１丁目１１９３番地,,15,210,9498603,,,2024-10-02,清算の結了等,,,2015-10-05,1,,,,,ユキグニノウサン,0
146,1120901023433,登記記録の閉鎖等,0,2024-10-10,2024-10-07,喜多建設株式会社,,株式会社,大阪府,豊中市,千里園２丁目３番９号,,27,203,5600046,,,2024-10-07,清算の結了等,,,2015-10-05,1,,,,,キタケンセツ,0
154,1140001029957,登記記録の閉鎖等,0,2024-10-10,2024-10-07,株式会社創進,,株式会社,兵庫県,神戸市中央区,日暮通４丁目２番６号ＤＡＩＷＡマンション,,28,110,6510077,,,2024-10-07,清算の結了等,,,2015-10-05,1,,,,,,0
176,1180002056963,登記記録の閉鎖等,0,2024-10-10,2024-09-27,有限会社川流,,有限会社,愛知県,名古屋市港区,宝神４丁目１５０６番地,,23,111,4550832,,,2024-09-27,清算の結了等,,,2015-10-05,1,,,,,センリュウ,0
177,1180002064693,登記記録の閉鎖等,0,2024-10-10,2024-09-27,有限会社後藤商店,,有限会社,愛知県,名古屋市中区,大須１丁目２９番５２号シティコーポ岩井通６０２号,,23,106,4600011,,,2024-09-27,清算の結了等,,,2015-10-05,1,,,,,ゴトウショウテン,0
179,1180301034637,登記記録の閉鎖等,0,2024-10-10,2024-10-02,ＡＳグループ株式会社,,株式会社,愛知県,安城市,三河安城南町１丁目１５－８サンテラス三河安城６Ｆ,,23,212,4460058,,,2024-10-02,清算の結了等,,,2021-02-17,1,,,,,エーエスグループ,0
180,1180302024538,登記記録の閉鎖等,0,2024-10-10,2024-10-03,有限会社平田商店,,有限会社,愛知県,豊田市,千田町大洞５番の内第１地,,23,211,4442606,,,2024-10-03,清算の結了等,,,2015-10-05,1,,,,,ヒラタショウテン,0
181,1180303005058,登記記録の閉鎖等,0,2024-10-10,2024-09-30,プラグギャップス合同会社,,合同会社,愛知県,安城市,花ノ木町７番１８号グローリアスハイツ安城弐番館５０１,,23,212,4460039,,,2024-09-30,清算の結了等,,,2021-07-19,1,,,,,プラグギャップス,0
199,1260002027551,登記記録の閉鎖等,0,2024-10-10,2024-10-02,有限会社緑水園,,有限会社,岡山県,新見市,西方１５８０番地８,,33,210,7180017,,,2024-10-02,清算の結了等,,,2015-10-05,1,,,,,リョクスイエン,0
201,1270001008898,登記記録の閉鎖等,0,2024-10-10,2024-10-07,株式会社モリ産業医事務所,,株式会社,鳥取県,鳥取市,湖山町南２丁目８４９番地,,31,201,6800945,,,2024-10-07,清算の結了等,,,2023-12-27,1,,,,,モリサンギョウイジムショ,0
212,1300002008729,登記記録の閉鎖等,0,2024-10-10,2024-10-03,有限会社田中会計センター,,有限会社,佐賀県,伊万里市,大坪町乙４２番地８,,41,205,8480022,,,2024-10-03,清算の結了等,,,2015-10-05,1,,,,,タナカカイケイセンター,0
218,1340005006016,登記記録の閉鎖等,0,2024-10-10,2024-10-07,農事組合法人西野茶生産組合,,その他の設立登記法人,鹿児島県,南九州市,知覧町永里４０７１番地１,,46,223,8970303,,,2024-10-07,清算の結了等,,,2015-10-05,1,,,,,ニシノチャセイサンクミアイ,0
229,1380005010410,登記記録の閉鎖等,0,2024-10-10,2024-09-18,みなみそうま除染企業組合,,その他の設立登記法人,福島県,南相馬市,原町区高見町１丁目５７番地の６,,07,212,9750033,,,2024-09-18,清算の結了等,,,2015-10-05,1,,,,,ミナミソウマジョセン,0
235,1430001016100,登記記録の閉鎖等,0,2024-10-10,2024-10-01,株式会社萬田,,株式会社,北海道,札幌市中央区,南二条西１丁目１８番地,,01,101,0600062,,,2024-10-01,合併による解散等,2430001031668,令和６年１０月１日札幌市中央区南二十条西十三丁目２番１８号株式会社Ｍんだ（2430001031668）に合併し解散,2015-10-05,1,,,,,マンダ,0
245,1480001003762,登記記録の閉鎖等,0,2024-10-10,2024-10-07,株式会社共栄工業,,株式会社,徳島県,徳島市,城東町２丁目１番２９号,,36,201,7700862,,,2024-10-07,清算の結了等,,,2015-10-05,1,,,,,キョウエイコウギョウ,0
248,2010001001317,登記記録の閉鎖等,0,2024-10-10,2024-09-27,株式会社エミ・ジャパン,,株式会社,東京都,文京区,本郷２丁目４０番９号,,13,105,1130033,,,2024-09-27,清算の結了等,,,2015-10-05,1,,,,,エミジャパン,0
254,2010003021420,登記記録の閉鎖等,0,2024-10-10,2024-10-03,イーブリッジ合同会社,,合同会社,東京都,江戸川区,東葛西２丁目３－２－４０１,,13,123,1340084,,,2024-10-03,清算の結了等,,,2015-10-05,1,,,,,イーブリッジ,0
256,2010005023506,登記記録の閉鎖等,0,2024-10-10,2024-10-07,特定非営利活動法人抗がん剤曝露対策協議会,,その他の設立登記法人,東京都,文京区,本郷３丁目３５番４号不二光学ビル３階,,13,105,1130033,,,2024-10-07,清算の結了等,,,2015-10-05,1,,,,,コウガンザイバクロタイサクキョウギカイ,0
263,2010405020516,登記記録の閉鎖等,0,2024-10-10,2024-10-04,一般社団法人ＩＫＥＵＣＨＩ　ＧＡＴＥ,,その他の設立登記法人,東京都,中央区,日本橋１丁目４番１号,,13,102,1030027,,,2024-10-04,清算の結了等,,,2021-12-17,1,,,,,イケウチゲート,0
278,2011001096306,登記記録の閉鎖等,0,2024-10-10,2024-09-17,株式会社ＺＩＫＺＩＮ　ＮＡＩＬ　ＳＡＬＯＮ,,株式会社,東京都,渋谷区,神南１丁目１５番地２－３Ｆ,,13,113,1500041,,,2024-09-17,清算の結了等,,,2015-10-05,1,,,,,ジクジンネイルサロン,0
306,2012705000156,登記記録の閉鎖等,0,2024-10-10,2024-10-02,日本社会事業大学生活協同組合,,その他の設立登記法人,東京都,清瀬市,竹丘３丁目１番３０号,,13,221,2040023,,,2024-10-02,清算の結了等,,,2015-10-05,1,,,,,ニホンシャカイジギョウダイガク,0
309,2013201006366,登記記録の閉鎖等,0,2024-10-10,2024-09-17,株式会社林道,,株式会社,東京都,目黒区,中根２丁目８番１０号,,13,110,1520031,,,2024-09-17,清算の結了等,,,2015-10-05,1,,,,,リンドウ,0
329,2040001080721,登記記録の閉鎖等,0,2024-10-10,2024-10-01,株式会社Ｒ９２,,株式会社,千葉県,柏市,柏３丁目２番１９号クレール柏１階,,12,217,2770005,,,2024-10-01,合併による解散等,8040001069346,令和６年１０月１日千葉県柏市柏五丁目１番１１号株式会社ＲＥＶＯ（8040001069346）に合併し解散,2015-10-05,1,,,,,アールクニ,0
338,2060002002953,登記記録の閉鎖等,0,2024-10-10,2024-10-03,有限会社カワイ工機,,有限会社,栃木県,宇都宮市,板戸町３１２５番地３,,09,201,3213221,,,2024-10-03,清算の結了等,,,2015-10-05,1,,,,,カワイコウキ,0
343,2080005007469,登記記録の閉鎖等,0,2024-10-10,2024-09-24,一般社団法人清朗の会,,その他の設立登記法人,静岡県,榛原郡川根本町,元藤川２３２番地の２,,22,429,4280311,,,2024-09-24,清算の結了等,,,2022-07-19,1,,,,,セイロウノカイ,0
355,2120001091933,登記記録の閉鎖等,0,2024-10-10,2024-10-08,株式会社ライズ,,株式会社,大阪府,大阪市中央区,淡路町１丁目５番１０号,,27,128,5410047,,,2024-10-08,清算の結了等,,,2015-10-05,1,,,,,ライズ,0
371,2120102014462,登記記録の閉鎖等,0,2024-10-10,2024-10-08,有限会社長谷川加工所,,有限会社,大阪府,松原市,天美北５丁目２番３号,,27,217,5800031,,,2024-10-08,清算の結了等,,,2015-10-05,1,,,,,,0
377,2122001000510,登記記録の閉鎖等,0,2024-10-10,2024-10-03,株式会社一貫堂,,株式会社,大阪府,箕面市,稲５丁目１２番１１号,,27,220,5620015,,,2024-10-03,清算の結了等,,,2015-10-05,1,,,,,イッカンドウ,0
382,2130002021112,登記記録の閉鎖等,0,2024-10-10,2024-10-07,有限会社健康増進医学研究所,,有限会社,京都府,京都市右京区,西院東今田町３５番地１ファミール西院９０６号,,26,108,6150002,,,2024-10-07,清算の結了等,,,2015-10-05,1,,,,,ケンコウゾウシンイガクケンキュウショ,0
384,2140001037851,登記記録の閉鎖等,0,2024-10-10,2024-10-03,株式会社東山学館,,株式会社,兵庫県,明石市,本町１丁目１番２４号大日明石本町ビル５０３号,,28,203,6730892,,,2024-10-03,合併による解散等,4140001122288,令和６年１０月１日兵庫県明石市本町１－１－２４大日明石本町ビル５０３号株式会社Ｌｅａｐａｌ　Ｔｅｃｈｎｏｌｏｇｉｅｓ（4140001122288）に合併し解散,2015-10-05,1,,,,,ヒガシヤマガッカン,0
397,2180001153034,登記記録の閉鎖等,0,2024-10-10,2024-09-27,株式会社ＣＯＮＴＡＣＴ,,株式会社,愛知県,名古屋市中村区,名駅４丁目６番２３号第三堀内ビル９Ｆ,,23,105,4500002,,,2024-09-27,清算の結了等,,,2022-09-15,1,,,,,コンタクト,0
413,2240001038377,登記記録の閉鎖等,0,2024-10-10,2024-10-02,日新食品株式会社,,株式会社,広島県,尾道市,高須町５５３６番地,,34,205,7290141,,,2024-10-02,清算の結了等,,,2015-10-05,1,,,,,ニッシンショクヒン,0
430,2310001016912,登記記録の閉鎖等,0,2024-10-10,2024-09-30,株式会社アースカンパニー,,株式会社,長崎県,佐世保市,俵町２２番４０号,,42,202,8570016,,,2024-09-30,清算の結了等,,,2020-10-16,1,,,,,アースカンパニー,0
448,2370301000684,登記記録の閉鎖等,0,2024-10-10,2024-09-25,瑞光興産株式会社,,株式会社,宮城県,石巻市,山下町２丁目５番１８号,,04,202,9860873,,,2024-09-25,清算の結了等,,,2015-10-05,1,,,,,ズイコウコウサン,0
460,2430001006620,登記記録の閉鎖等,0,2024-10-10,2024-10-03,メディパルフーズ株式会社,,株式会社,北海道,札幌市中央区,北十条西１７丁目１番４号,,01,101,0600010,,,2024-10-03,合併による解散等,9120001079286,令和６年１０月１日大阪市北区梅田二丁目５番２５号ＭＰ五協フード＆ケミカル株式会社（9120001079286）に合併し解散,2015-10-05,1,,,,,メディパルフーズ,0
462,2430001059817,登記記録の閉鎖等,0,2024-10-10,2024-10-01,オサム株式会社,,株式会社,北海道,札幌市東区,北八条東８丁目１番地,,01,103,0650008,,,2024-10-01,合併による解散等,4430001022426,令和６年１０月１日札幌市東区北八条東八丁目１番地株式会社北海道フキ（4430001022426）に合併し解散,2015-10-05,1,,,,,オサム,0
464,2430001081250,登記記録の閉鎖等,0,2024-10-10,2024-10-01,株式会社ベントス,,株式会社,北海道,札幌市豊平区,平岸一条２丁目４番７号,,01,105,0620931,,,2024-10-01,合併による解散等,7430001058756,令和６年１０月１日札幌市豊平区平岸一条二丁目４番７号株式会社ロハス（7430001058756）に合併し解散,2020-04-07,1,,,,,ベントス,0
493,3010401057569,登記記録の閉鎖等,0,2024-10-10,2024-10-08,ロータスメディア株式会社,,株式会社,東京都,品川区,南大井４丁目１５－２－７０１,,13,109,1400013,,,2024-10-08,合併による解散等,8480001001710,令和６年１０月１日徳島市庄町五丁目８１番地の８０日本システム開発株式会社（8480001001710）に合併し解散,2015-10-05,1,,,,,ロータスメディア,0
521,3011103009949,登記記録の閉鎖等,0,2024-10-10,2024-09-30,合同会社ｄ‐ＣＬＵＢ,,合同会社,東京都,新宿区,新宿６丁目２４番２０号ＫＤＸ新宿六丁目ビル９階,,13,104,1600022,,,2024-09-30,清算の結了等,,,2020-08-21,1,,,,,ディークラブ,0
528,3012402020968,登記記録の閉鎖等,0,2024-10-10,2024-10-09,ショーキャンプ有限会社,,有限会社,東京都,武蔵野市,吉祥寺北町３丁目９番２０号,,13,203,1800001,,,2024-10-09,清算の結了等,,,2015-10-05,1,,,,,ショーキャンプ,0
530,3012701002915,登記記録の閉鎖等,0,2024-10-10,2024-10-02,株式会社創芸企画設計,,株式会社,東京都,西東京市,田無町３丁目９番７－５０１号,,13,229,1880011,,,2024-10-02,清算の結了等,,,2015-10-05,1,,,,,ソウゲイキカクセッケイ,0
546,3021002063583,登記記録の閉鎖等,0,2024-10-10,2024-09-27,有限会社金子コーポレーション,,有限会社,神奈川県,横須賀市,平作３丁目４番１０号,,14,201,2380032,,,2024-09-27,清算の結了等,,,2015-10-05,1,,,,,カネココーポレーション,0
563,3030003019676,登記記録の閉鎖等,0,2024-10-10,2024-10-04,ＳＡＴ合同会社,,合同会社,東京都,江戸川区,江戸川５丁目１１－１１３,,13,123,1340013,,,2024-10-04,清算の結了等,,,2022-07-04,1,,,,,サット,0
580,3040002088762,登記記録の閉鎖等,0,2024-10-10,2024-10-02,有限会社アルカス,,有限会社,千葉県,柏市,柏１２１９番地の９,,12,217,2770005,,,2024-10-02,清算の結了等,,,2015-10-05,1,,,,,アルカス,0
588,3070001037296,登記記録の閉鎖等,0,2024-10-10,2024-10-03,株式会社ＦＩＴ,,株式会社,群馬県,桐生市,本町５丁目５１番地１東武本町ビル３０２,,10,203,3760031,,,2024-10-03,清算の結了等,,,2020-10-08,1,,,,,フィット,0
589,3070002036264,登記記録の閉鎖等,0,2024-10-10,2024-10-07,有限会社おきな屋商店,,有限会社,群馬県,吾妻郡中之条町,大字四万３９８２番地の１,,10,421,3770601,,,2024-10-07,清算の結了等,,,2015-10-05,1,,,,,オキナヤショウテン,0
597,3110001007682,登記記録の閉鎖等,0,2024-10-10,2024-10-02,環境アース株式会社,,株式会社,新潟県,新潟市秋葉区,中新田３５７番地,,15,105,9560812,,,2024-10-02,清算の結了等,,,2015-10-05,1,,,,,カンキョウアース,0
599,3120001136976,登記記録の閉鎖等,0,2024-10-10,2024-10-02,株式会社ハッピーワン,,株式会社,大阪府,大阪市西区,新町１丁目７番２２－３０３号,,27,106,5500013,,,2024-10-02,清算の結了等,,,2015-10-05,1,,,,,,0
619,3130001047669,登記記録の閉鎖等,0,2024-10-10,2024-10-08,株式会社町並ＥＣ駐車場,,株式会社,京都府,宇治市,木幡平尾２８番地の１００８,,26,204,6110002,,,2024-10-08,清算の結了等,,,2015-10-05,1,,,,,マチナミイーシーチュウシャジョウ,0
622,3130001074192,登記記録の閉鎖等,0,2024-10-10,2024-10-01,株式会社ｋｙｏｔａｎｂａ　ＡＲＶＵＭ,,株式会社,京都府,船井郡京丹波町,下粟野東タンボ１０４番地,,26,407,6291105,,,2024-10-01,清算の結了等,,,2023-04-28,1,,,,,キョウタンバアルヴム,0
627,3130005004063,登記記録の閉鎖等,0,2024-10-10,2024-10-09,医療法人社団井口医院,,その他の設立登記法人,京都府,京都市西京区,桂徳大寺南町７番地,,26,111,6158302,,,2024-10-09,清算の結了等,,,2015-10-05,1,,,,,イグチイイン,0
631,3140001089900,登記記録の閉鎖等,0,2024-10-10,2024-10-07,株式会社トライアングル,,株式会社,兵庫県,芦屋市,山手町５番６号,,28,206,6590096,,,2024-10-07,清算の結了等,,,2015-10-05,1,,,,,トライアングル,0
640,3160001011457,登記記録の閉鎖等,0,2024-10-10,2024-10-07,株式会社ママリオーネ,,株式会社,滋賀県,近江八幡市,十王町８１１番地３,,25,204,5230063,,,2024-10-07,清算の結了等,,,2015-10-05,1,,,,,ママリオーネ,0
644,3170002009185,登記記録の閉鎖等,0,2024-10-10,2024-10-08,有限会社なかやま,,有限会社,和歌山県,西牟婁郡すさみ町,周参見４４７２番地の１,,30,406,6492621,,,2024-10-08,清算の結了等,,,2015-10-05,1,,,,,ナカヤマ,0
645,3180001029076,登記記録の閉鎖等,0,2024-10-10,2024-10-01,株式会社ワールドメカニック,,株式会社,愛知県,名古屋市緑区,篠の風２丁目１４３番地の１,,23,114,4580015,,,2024-10-01,合併による解散等,3180001097370,令和６年１０月１日愛知県弥富市五斗山四丁目１６番地小島工機株式会社（3180001097370）に合併し解散,2015-10-05,1,,,,,ワールドメカニック,0
647,3180001065451,登記記録の閉鎖等,0,2024-10-10,2024-10-01,株式会社アイヒューズ,,株式会社,愛知県,名古屋市中区,金山１丁目１４番１８号,,23,106,4600022,,,2024-10-01,清算の結了等,,,2015-10-05,1,,,,,アイヒューズ,0
649,3180001107179,登記記録の閉鎖等,0,2024-10-10,2024-10-04,株式会社アグリル,,株式会社,愛知県,あま市,七宝町下田江西３７番地１,,23,237,4970012,,,2024-10-04,合併による解散等,3200001020809,令和６年１０月１日岐阜県多治見市大針町６６１番地の１中部流通株式会社（3200001020809）に合併し解散,2015-10-05,1,,,,,アグリル,0
672,3210001003705,登記記録の閉鎖等,0,2024-10-10,2024-10-08,株式会社マエダ,,株式会社,福井県,福井市,問屋町１丁目２５０番地,,18,201,9188231,,,2024-10-08,清算の結了等,,,2015-10-05,1,,,,,マエダ,0
679,3260001029761,登記記録の閉鎖等,0,2024-10-10,2024-10-01,株式会社アース・ゲイン,,株式会社,岡山県,岡山市南区,豊浜町１２番１４号オフィスＺＩＩ２０１号,00123628,33,104,7000853,,,2024-10-01,合併による解散等,2260001006654,令和６年１０月１日岡山市南区福田２２８番地６物部建設株式会社（2260001006654）に合併し解散,2016-07-11,1,,,,,アースゲイン,0
688,3290005018097,登記記録の閉鎖等,0,2024-10-10,2024-09-03,Ｗ．Ｓｕｐｅｒｖｉｓｉｏｎ協同組合,,その他の設立登記法人,福岡県,筑紫野市,上古賀１丁目２０番５号,,40,217,8180041,,,2024-09-03,清算の結了等,,,2021-02-24,1,,,,,ダブリュースーパービジョン,0
720,3430001085325,登記記録の閉鎖等,0,2024-10-10,2024-10-02,株式会社ファーム青い鳥,,株式会社,北海道,札幌市厚別区,厚別南７丁目２番３号,,01,108,0040022,,,2024-10-02,清算の結了等,,,2021-11-08,1,,,,,ファームアオイトリ,0
724,3430002001314,登記記録の閉鎖等,0,2024-10-10,2024-10-02,有限会社あらや商事,,有限会社,北海道,札幌市中央区,北四条西２４丁目２番１－６０２号,,01,101,0640824,,,2024-10-02,清算の結了等,,,2015-10-05,1,,,,,アラヤショウジ,0
736,3480001005955,登記記録の閉鎖等,0,2024-10-10,2024-10-08,株式会社クリエイト伊勢,,株式会社,徳島県,鳴門市,撫養町小桑島字前浜７４番地,,36,202,7720012,,,2024-10-08,清算の結了等,,,2015-10-05,1,,,,,クリエイトイセ,0
752,4010005034872,登記記録の閉鎖等,0,2024-10-10,2024-10-03,一般社団法人ウェルビーイング研究所,,その他の設立登記法人,東京都,文京区,春日２丁目１５番９号,,13,105,1120003,,,2024-10-03,清算の結了等,,,2022-04-13,1,,,,,ウェルビーイングケンキュウショ,0
760,4010403015615,登記記録の閉鎖等,0,2024-10-10,2024-10-03,Ｉｎｆｌｕｘ合同会社,,合同会社,福岡県,福岡市博多区,綱場町７番１号リアンプレミアム呉服町ステーション９階,,40,132,8120024,,,2024-10-03,合併による解散等,3010401137197,令和６年９月１日東京都港区六本木三丁目２番１号住友不動産六本木グランドタワー４１階株式会社ＩＮＦＬＵＸ（3010401137197）に合併し解散,2016-11-18,1,,,,,インフラックス,0
765,4010501046132,登記記録の閉鎖等,0,2024-10-10,2024-10-02,株式会社セレネＴ＆Ｈ,,株式会社,東京都,台東区,上野２丁目６番４号上野広小路泰和ビル２階,,13,106,1100005,,,2024-10-02,清算の結了等,,,2020-08-25,1,,,,,セレネティーアンドエイチ,0
774,4010802016767,登記記録の閉鎖等,0,2024-10-10,2024-10-04,有限会社あしたば,,有限会社,東京都,大田区,萩中２丁目１５番１８号,,13,111,1440047,,,2024-10-04,清算の結了等,,,2015-10-05,1,,,,,アシタバ,0
778,4010902011123,登記記録の閉鎖等,0,2024-10-10,2024-10-02,有限会社仲商店,,有限会社,東京都,世田谷区,下馬４丁目１２番５号,,13,112,1540002,,,2024-10-02,清算の結了等,,,2015-10-05,1,,,,,ナカショウテン,0
780,4010903008671,登記記録の閉鎖等,0,2024-10-10,2024-10-02,合同会社あのね,,合同会社,東京都,世田谷区,太子堂２丁目２番２１号セントワンヒルズ一番館２０２,,13,112,1540004,,,2024-10-02,清算の結了等,,,2023-12-14,1,,,,,アノネ,0
788,4011005008214,登記記録の閉鎖等,0,2024-10-10,2024-09-12,税理士法人テクネタックス,,その他の設立登記法人,東京都,渋谷区,神宮前６丁目３５番３号コープオリンピア６１０,,13,113,1500001,,,2024-09-12,清算の結了等,,,2019-08-01,1,,,,,テクネタックス,0
792,4011101052660,登記記録の閉鎖等,0,2024-10-10,2024-10-08,株式会社ＫＡＮＳＥＩ,,株式会社,東京都,板橋区,常盤台３丁目７番５号,,13,119,1740071,,,2024-10-08,合併による解散等,4011101014388,令和６年１０月１日東京都新宿区神楽坂一丁目１番地ドクタージャパン株式会社（4011101014388）に合併し解散,2015-10-05,1,,,,,カンセイ,0
796,4011103009691,登記記録の閉鎖等,0,2024-10-10,2024-09-30,ＬＩＭ合同会社,,合同会社,東京都,新宿区,西新宿３丁目９番７号,,13,104,1600023,,,2024-09-30,合併による解散等,2011103008398,令和６年９月３０日東京都新宿区西新宿三丁目９番７号合同会社ＤｏｔｓＬｉｎｋ（2011103008398）に合併し解散,2020-05-18,1,,,,,リム,0
810,4011705000692,登記記録の閉鎖等,0,2024-10-10,2024-10-04,特定非営利活動法人Ｅａｓｔ－Ｗｅｓｔ　Ｆｏｕｎｄａｔｉｏｎ,,その他の設立登記法人,東京都,江戸川区,東小岩６丁目９番１号小岩四恩キリスト教会,,13,123,1330052,,,2024-10-04,清算の結了等,,,2015-10-05,1,,,,,イーストウエストファンデーション,0
813,4012405001304,登記記録の閉鎖等,0,2024-10-10,2024-10-09,特定非営利活動法人囲碁を楽しむ会,,その他の設立登記法人,東京都,府中市,栄町２丁目１１－１２,,13,206,1830051,,,2024-10-09,清算の結了等,,,2015-10-05,1,,,,,イゴヲタノシムカイ,0
823,4020001077453,登記記録の閉鎖等,0,2024-10-10,2024-09-24,株式会社日興エンジニアリング,,株式会社,茨城県,古河市,大手町６番３号,,08,204,3060032,,,2024-09-24,清算の結了等,,,2015-10-05,1,,,,,ニッコウエンジニアリング,0
835,4020002103704,登記記録の閉鎖等,0,2024-10-10,2024-09-24,有限会社かねまさ,,有限会社,神奈川県,川崎市幸区,古市場２丁目１１３番地１５,,14,132,2120052,,,2024-09-24,清算の結了等,,,2015-10-05,1,,,,,カネマサ,0
844,4021001063880,登記記録の閉鎖等,0,2024-10-10,2024-10-09,株式会社ｍａｎｏ,,株式会社,神奈川県,三浦郡葉山町,長柄８７６番地の１,,14,301,2400113,,,2024-10-09,清算の結了等,,,2018-01-17,1,,,,,,0
869,4040002043378,登記記録の閉鎖等,0,2024-10-10,2024-10-02,有限会社ＭＡＸリスクコンサルティング,,有限会社,千葉県,市川市,高石神３６番１０号,,12,203,2720814,,,2024-10-02,清算の結了等,,,2015-10-05,1,,,,,マックスリスクコンサルティング,0
870,4040003014865,登記記録の閉鎖等,0,2024-10-10,2024-10-02,竹日堂合同会社,,合同会社,千葉県,柏市,光ケ丘３丁目６番２号,,12,217,2770065,,,2024-10-02,清算の結了等,,,2020-02-19,1,,,,,タケヒドウ,0
888,4080105004257,登記記録の閉鎖等,0,2024-10-10,2024-10-07,特定非営利活動法人椿,,その他の設立登記法人,静岡県,熱海市,下多賀６８９番地の５,,22,205,4130102,,,2024-10-07,清算の結了等,,,2015-10-05,1,,,,,ツバキ,0
896,4110001022169,登記記録の閉鎖等,0,2024-10-10,2024-10-01,株式会社エコロジーサイエンス,,株式会社,新潟県,長岡市,青葉台１丁目甲１２０番地８,,15,202,9402145,,,2024-10-01,合併による解散等,9110001022899,令和６年１０月１日新潟県長岡市青葉台一丁目甲１２０番地８株式会社エコノス（9110001022899）に合併し解散,2015-10-05,1,,,,,エコロジーサイエンス,0
899,4120001004067,登記記録の閉鎖等,0,2024-10-10,2024-10-08,ヌコー本舗株式会社,,株式会社,大阪府,大阪市西成区,天下茶屋東２丁目１４番１８号,,27,122,5570011,,,2024-10-08,清算の結了等,,,2015-10-05,1,,,,,ヌコーホンポ,0
909,4120001151108,登記記録の閉鎖等,0,2024-10-10,2024-10-01,株式会社近藤の家具,,株式会社,大阪府,枚方市,北中振３丁目３０番１０号,,27,210,5730064,,,2024-10-01,清算の結了等,,,2015-10-05,1,,,,,コンドウノカグ,0
914,4120001189791,登記記録の閉鎖等,0,2024-10-10,2024-10-01,株式会社ネクストベンチャーズ,,株式会社,大阪府,大阪市中央区,東心斎橋１丁目２番１号１８０１号室,,27,128,5420083,,,2024-10-01,合併による解散等,3120001133800,令和６年９月３０日大阪市中央区東心斎橋一丁目２番１号１８０１号室株式会社ゴールドベンチャーズ（3120001133800）に合併し解散,2015-10-05,1,,,,,ネクストベンチャーズ,0
916,4120001203164,登記記録の閉鎖等,0,2024-10-10,2024-10-01,株式会社ファーストベンチャーズ,,株式会社,大阪府,大阪市中央区,東心斎橋１丁目２番１号１８０１号室,,27,128,5420083,,,2024-10-01,合併による解散等,3120001133800,令和６年９月３０日大阪市中央区東心斎橋一丁目２番１号１８０１号室株式会社ゴールドベンチャーズ（3120001133800）に合併し解散,2017-01-19,1,,,,,ファーストベンチャーズ,0
928,4120901019908,登記記録の閉鎖等,0,2024-10-10,2024-10-02,富士寝具工業株式会社,,株式会社,大阪府,池田市,住吉２丁目７番１４号,,27,204,5630033,,,2024-10-02,清算の結了等,,,2015-10-05,1,,,,,フジシングコウギョウ,0
939,4140001023957,登記記録の閉鎖等,0,2024-10-10,2024-10-07,株式会社エージェントホーム,,株式会社,兵庫県,神戸市灘区,篠原南町６丁目１番１０号,,28,102,6570059,,,2024-10-07,清算の結了等,,,2015-10-05,1,,,,,,0
990,4290005019193,登記記録の閉鎖等,0,2024-10-10,2024-09-04,一般社団法人ネイバーリンク,,その他の設立登記法人,福岡県,福岡市城南区,田島２丁目２４番１１号,,40,136,8140113,,,2024-09-04,清算の結了等,,,2023-11-13,1,,,,,ネイバーリンク,0
1000,4330002022526,登記記録の閉鎖等,0,2024-10-10,2024-10-02,有限会社シルバーケア有明,,有限会社,熊本県,荒尾市,蔵満１８８４番地１,,43,204,8640027,,,2024-10-02,清算の結了等,,,2015-10-05,1,,,,,シルバーケアアリアケ,0
1001,4330003009472,登記記録の閉鎖等,0,2024-10-10,2024-10-01,合同会社丸山ハイランド,,合同会社,熊本県,上益城郡山都町,下名連石新２９番地６６,,43,447,8613503,,,2024-10-01,清算の結了等,,,2022-08-02,1,,,,,マルヤマハイランド,0
1007,4340002009191,登記記録の閉鎖等,0,2024-10-10,2024-10-08,有限会社丸山,,有限会社,鹿児島県,鹿児島市,伊敷１丁目１４番４５号,,46,201,8900008,,,2024-10-08,清算の結了等,,,2015-10-05,1,,,,,マルヤマ,0
1009,4340005001121,登記記録の閉鎖等,0,2024-10-10,2024-10-08,医療法人広優会,,その他の設立登記法人,鹿児島県,鹿児島市,吉野町２２１０番地３,,46,201,8920871,,,2024-10-08,清算の結了等,,,2015-10-05,1,,,,,コウユウカイ,0
1028,4400001007603,登記記録の閉鎖等,0,2024-10-10,2024-09-30,株式会社松田工務店,,株式会社,岩手県,釜石市,定内町３丁目２番２０号,,03,211,0260053,,,2024-09-30,清算の結了等,,,2015-10-05,1,,,,,マツダコウムテン,0
1029,4402702000043,登記記録の閉鎖等,0,2024-10-10,2024-09-26,有限会社魚長,,有限会社,岩手県,大船渡市,盛町字町７番地１５,,03,203,0220003,,,2024-09-26,清算の結了等,,,2015-10-05,1,,,,,ウオチョウ,0
1030,4420002014308,登記記録の閉鎖等,0,2024-10-10,2024-10-03,有限会社マルト商事,,有限会社,青森県,弘前市,大字植田町３番地１,,02,202,0368023,,,2024-10-03,清算の結了等,,,2015-10-05,1,,,,,マルトショウジ,0
1038,4430002015239,登記記録の閉鎖等,0,2024-10-10,2024-10-02,有限会社沼田商店,,有限会社,北海道,札幌市豊平区,平岸五条６丁目１番２号,,01,105,0620935,,,2024-10-02,清算の結了等,,,2015-10-05,1,,,,,ヌマタショウテン,0
1047,4500001020892,登記記録の閉鎖等,0,2024-10-10,2024-10-04,株式会社日邦設計事務所,,株式会社,愛媛県,松山市,保免西１丁目３番９号,,38,201,7900043,,,2024-10-04,清算の結了等,,,2017-09-26,1,,,,,ニッポウセッケイジムショ,0
1048,4500002001314,登記記録の閉鎖等,0,2024-10-10,2024-10-08,有限会社愛媛新聞エリアサービス保免,,有限会社,愛媛県,松山市,保免西３丁目４番２７号,,38,201,7900043,,,2024-10-08,清算の結了等,,,2015-10-05,1,,,,,エヒメシンブンエリアサービスホウメン,0
1059,5010002004340,登記記録の閉鎖等,0,2024-10-10,2024-09-27,有限会社トレーシヨンハウス,,有限会社,東京都,文京区,本駒込５丁目１３番４号,,13,105,1130021,,,2024-09-27,清算の結了等,,,2015-10-05,1,,,,,トレーションハウス,0
1061,5010005034194,登記記録の閉鎖等,0,2024-10-10,2024-10-04,一般社団法人ＶＰＳ,,その他の設立登記法人,東京都,中央区,八丁堀４丁目２番１０号ＡＯＪ税理士法人内,,13,102,1040032,,,2024-10-04,清算の結了等,,,2021-11-09,1,,,,,ブイピーエス,0
1065,5010401169049,登記記録の閉鎖等,0,2024-10-10,2024-10-08,株式会社Ａｉｔｅ柔整師会,,株式会社,東京都,港区,赤坂２丁目１６番２１号,,13,103,1070052,,,2024-10-08,合併による解散等,2010401095933,令和６年７月１日東京都品川区南品川五丁目１１番５０号株式会社東洋あさひ柔整師会（2010401095933）に合併し解散,2022-08-12,1,,,,,エイトジュウセイシカイ,0
1075,5010905004197,登記記録の閉鎖等,0,2024-10-10,2024-10-03,一般社団法人ニチジョクラブ,,その他の設立登記法人,東京都,世田谷区,北烏山８丁目１９番１号日本女子体育大学内,,13,112,1570061,,,2024-10-03,清算の結了等,,,2021-09-06,1,,,,,ニチジョクラブ,0
1078,5011001133188,登記記録の閉鎖等,0,2024-10-10,2024-10-07,株式会社キャリア・エデュ,,株式会社,東京都,渋谷区,渋谷２丁目１０番１５号,,13,113,1500002,,,2024-10-07,清算の結了等,,,2020-04-10,1,,,,,キャリアエデュ,0
1095,5011501025736,登記記録の閉鎖等,0,2024-10-10,2024-10-04,株式会社ＹＡＢＵＲＩ,,株式会社,東京都,荒川区,西日暮里２丁目５３番２号アウルム日暮里１０１,,13,118,1160013,,,2024-10-04,清算の結了等,,,2020-04-07,1,,,,,ヤブリ,0
1108,5013202003913,登記記録の閉鎖等,0,2024-10-10,2024-09-04,有限会社高木,,有限会社,東京都,目黒区,上目黒２丁目４０番２９号,,13,110,1530051,,,2024-09-04,清算の結了等,,,2015-10-05,1,,,,,タカギ,0
1115,5030001078383,登記記録の閉鎖等,0,2024-10-10,2024-10-02,アラタ株式会社,,株式会社,埼玉県,川口市,領家３丁目１１番１８号,,11,203,3320004,,,2024-10-02,清算の結了等,,,2015-10-05,1,,,,,アラタ,0
1129,5040002062872,登記記録の閉鎖等,0,2024-10-10,2024-10-02,有限会社立田造園,,有限会社,千葉県,印旛郡酒々井町,墨１０４２番地１,,12,322,2850913,,,2024-10-02,清算の結了等,,,2015-10-05,1,,,,,タツタゾウエン,0
1132,5040003017017,登記記録の閉鎖等,0,2024-10-10,2024-10-02,合同会社高山薫事務所,,合同会社,千葉県,浦安市,堀江４丁目３２番２２－１０１号Ｍ＆Ｃレジデンス,,12,227,2790041,,,2024-10-02,清算の結了等,,,2021-02-09,1,,,,,タカヤマカオルジムショ,0
1148,5090001008938,登記記録の閉鎖等,0,2024-10-10,2024-10-03,株式会社内藤エンジニアリング,,株式会社,山梨県,山梨市,一町田中１１５７番地の６,,19,205,4050025,,,2024-10-03,清算の結了等,,,2015-10-05,1,,,,,ナイトウエンジニアリング,0
1154,5110001032902,登記記録の閉鎖等,0,2024-10-10,2024-09-30,株式会社ｈａｐｐｙ　ｓｍｉｌｅ　ｅａｔ,,株式会社,新潟県,阿賀野市,保田３１４６番地,,15,223,9592221,,,2024-09-30,清算の結了等,,,2018-01-04,1,,,,,ハッピースマイルイート,0
1155,5110002027694,登記記録の閉鎖等,0,2024-10-10,2024-09-30,有限会社酒の大塚屋,00071012,有限会社,新潟県,長岡市,藤沢１丁目９番９号,,15,202,9402011,,,2024-09-30,清算の結了等,,,2015-10-05,1,,,,,,0
1183,5140001033179,登記記録の閉鎖等,0,2024-10-10,2024-10-04,株式会社経営情報研究所,,株式会社,兵庫県,神戸市灘区,灘北通５丁目７－１０,,28,102,6570835,,,2024-10-04,清算の結了等,,,2015-10-05,1,,,,,ケイエイジョウホウケンキュウジョ,0
1184,5140001104839,登記記録の閉鎖等,0,2024-10-10,2024-10-01,株式会社全保証,,株式会社,大阪府,大阪市東淀川区,豊新２丁目７番２１号,,27,114,5330014,,,2024-10-01,合併による解散等,3120001133800,令和６年９月３０日大阪市中央区東心斎橋一丁目２番１号１８０１号室株式会社ゴールドベンチャーズ（3120001133800）に合併し解散,2017-01-27,1,,,,,ゼンホショウ,0
1204,5180005019518,登記記録の閉鎖等,0,2024-10-10,2024-10-02,一般社団法人優美会,,その他の設立登記法人,愛知県,愛西市,日置町四反割９番地１,,23,232,4960906,,,2024-10-02,清算の結了等,,,2021-11-17,1,,,,,ユウビカイ,0
1210,5180301027785,登記記録の閉鎖等,0,2024-10-10,2024-10-02,株式会社ゆたか,,株式会社,愛知県,豊橋市,井原町１２７番地６,,23,201,4400025,,,2024-10-02,清算の結了等,,,2015-10-05,1,,,,,ユタカ,0
1213,5190001014166,登記記録の閉鎖等,0,2024-10-10,2024-10-08,株式会社アクター,,株式会社,三重県,四日市市,大矢知町２６１５番地の１,,24,202,5108034,,,2024-10-08,清算の結了等,,,2015-10-05,1,,,,,アクター,0
1218,5210002007265,登記記録の閉鎖等,0,2024-10-10,2024-10-07,有限会社ゑびす亭石油,,有限会社,福井県,坂井市,三国町北本町３丁目９番３４号,,18,210,9130046,,,2024-10-07,清算の結了等,,,2015-10-05,1,,,,,エビステイセキユ,0
1221,5250001003055,登記記録の閉鎖等,0,2024-10-10,2024-10-01,宇部マイホームサービス株式会社,,株式会社,山口県,宇部市,北琴芝２丁目９番３号,,35,202,7550036,,,2024-10-01,合併による解散等,1250001003521,令和６年１０月１日山口県宇部市北琴芝二丁目９番３号株式会社早川組（1250001003521）に合併し解散,2015-10-05,1,,,,,ウベマイホームサービス,0
1248,5370002001038,登記記録の閉鎖等,0,2024-10-10,2024-09-30,有限会社松栄物流,,有限会社,宮城県,仙台市泉区,松森字斉兵衛３番地の７,,04,105,9813111,,,2024-09-30,清算の結了等,,,2015-10-05,1,,,,,ショウエイブツリュウ,0
1254,5390001007554,登記記録の閉鎖等,0,2024-10-10,2024-10-01,株式会社寿,,株式会社,山形県,鶴岡市,西新斎町４番３９号,,06,203,9970045,,,2024-10-01,合併による解散等,1390001007500,令和６年１０月１日山形県鶴岡市西新斎町４番３９号奥羽建装株式会社（1390001007500）に合併し解散,2015-10-05,1,,,,,コトブキ,0
1256,5390002002224,登記記録の閉鎖等,0,2024-10-10,2024-10-01,有限会社ピングポン設楽,,有限会社,山形県,山形市,宮町３丁目１０番２１号,,06,201,9900057,,,2024-10-01,清算の結了等,,,2015-10-05,1,,,,,ピングポンシタラ,0
1261,5420002000785,登記記録の閉鎖等,0,2024-10-10,2024-10-07,有限会社カクイチ大場商店,,有限会社,青森県,青森市,安方１丁目６番１９号,,02,201,0300803,,,2024-10-07,清算の結了等,,,2015-10-05,1,,,,,カクイチオオバショウテン,0
1263,5430001073303,登記記録の閉鎖等,0,2024-10-10,2024-10-07,グルーコードコミュニケーションズ株式会社,,株式会社,北海道,札幌市中央区,南一条西５丁目７番地愛生舘ビル,,01,101,0600061,,,2024-10-07,合併による解散等,6011301016389,令和６年９月３０日東京都渋谷区笹塚二丁目１番６号株式会社ｆｏｎｆｕｎ（6011301016389）に合併し解散,2017-02-10,1,,,,,グルーコードコミュニケーションズ,0
1265,5430001087154,登記記録の閉鎖等,0,2024-10-10,2024-10-03,株式会社チェルバ,,株式会社,北海道,苫小牧市,北栄町４丁目５番２０号,,01,213,0591304,,,2024-10-03,清算の結了等,,,2022-07-26,1,,,,,チェルバ,0
1273,5480001005210,登記記録の閉鎖等,0,2024-10-10,2024-10-07,株式会社ワイエス,,株式会社,徳島県,鳴門市,撫養町小桑島字前浜２３番地９,,36,202,7720012,,,2024-10-07,清算の結了等,,,2015-10-05,1,,,,,ワイエス,0
1294,6010005016027,登記記録の閉鎖等,0,2024-10-10,2024-09-12,一般社団法人ＮＣ１,,その他の設立登記法人,東京都,目黒区,青葉台１丁目６番５９号,,13,110,1530042,,,2024-09-12,清算の結了等,,,2015-10-05,1,,,,,エヌシーワン,0
1299,6010401170939,登記記録の閉鎖等,0,2024-10-10,2024-09-12,株式会社メタジャパン,,株式会社,東京都,港区,海岸１丁目２－３汐留芝離宮ビルディング２１階,,13,103,1050022,,,2024-09-12,清算の結了等,,,2022-11-21,1,,,,,メタジャパン,0
1302,6010402002554,登記記録の閉鎖等,0,2024-10-10,2024-10-07,有限会社エルーファースト,,有限会社,東京都,港区,愛宕１丁目６番７号,,13,103,1050002,,,2024-10-07,清算の結了等,,,2015-10-05,1,,,,,エルーファースト,0
1312,6011001142064,登記記録の閉鎖等,0,2024-10-10,2024-10-07,リバースエイジング株式会社,,株式会社,東京都,渋谷区,広尾５丁目４番１６号ＧＥＭＳ広尾クロス内６階６１号室,,13,113,1500012,,,2024-10-07,清算の結了等,,,2021-08-04,1,,,,,リバースエイジング,0
1334,6011801002327,登記記録の閉鎖等,0,2024-10-10,2024-10-02,椙山産業株式会社,,株式会社,千葉県,八千代市,大和田新田８５４番地１,,12,221,2760046,,,2024-10-02,清算の結了等,,,2015-10-05,1,,,,,スギヤマサンギョウ,0
1379,6040002021984,登記記録の閉鎖等,0,2024-10-10,2024-10-02,有限会社甲商会,,有限会社,千葉県,船橋市,東船橋２丁目８番８号,,12,204,2730002,,,2024-10-02,清算の結了等,,,2015-10-05,1,,,,,カブトショウカイ,0
1388,6050003006694,登記記録の閉鎖等,0,2024-10-10,2024-10-02,アルファ合同会社,,合同会社,茨城県,つくばみらい市,下平柳５６７番地３,,08,235,3002333,,,2024-10-02,清算の結了等,,,2022-07-15,1,,,,,アルファ,0
1395,6100001009314,登記記録の閉鎖等,0,2024-10-10,2024-10-01,株式会社測栄社,,株式会社,長野県,北佐久郡軽井沢町,大字長倉２１３９番地３００１,,20,321,3890111,,,2024-10-01,清算の結了等,,,2015-10-05,1,,,,,ソクエイシャ,0
1399,6120001160123,登記記録の閉鎖等,0,2024-10-10,2024-10-07,株式会社大島,,株式会社,大阪府,守口市,八雲東町２丁目３０番１４号,,27,209,5700021,,,2024-10-07,清算の結了等,,,2015-10-05,1,,,,,オオシマ,0
1401,6120001204441,登記記録の閉鎖等,0,2024-10-10,2024-10-01,株式会社ワンダーウォール,,株式会社,大阪府,大阪市東淀川区,豊新２丁目７番２１号,,27,114,5330014,,,2024-10-01,合併による解散等,3120001133800,令和６年９月３０日大阪市中央区東心斎橋一丁目２番１号１８０１号室株式会社ゴールドベンチャーズ（3120001133800）に合併し解散,2017-03-17,1,,,,,ワンダーウォール,0
1446,6180301021093,登記記録の閉鎖等,0,2024-10-10,2024-10-02,株式会社匠－塾,,株式会社,愛知県,豊田市,金谷町２丁目２９番地,,23,211,4710876,,,2024-10-02,清算の結了等,,,2015-10-05,1,,,,,タクミジュク,0
1448,6180302015037,登記記録の閉鎖等,0,2024-10-10,2024-10-01,有限会社ＳＫクロス,,有限会社,愛知県,蒲郡市,形原町上辻１８番地,00075040,23,214,4430104,,,2024-10-01,清算の結了等,,,2015-10-05,1,,,,,エスケークロス,0
1453,6220001008758,登記記録の閉鎖等,0,2024-10-10,2024-10-01,ＥＩＺＯエンジニアリング株式会社,,株式会社,石川県,白山市,下柏野町１５３番地,,17,210,9240038,,,2024-10-01,合併による解散等,8220001009300,令和６年１０月１日石川県白山市下柏野町１５３番地ＥＩＺＯ株式会社（8220001009300）に合併し解散,2015-10-05,1,,,,,エイゾーエンジニアリング,0
1459,6270001000660,登記記録の閉鎖等,0,2024-10-10,2024-10-07,株式会社プロテリアルフェライト電子,,株式会社,鳥取県,鳥取市,南栄町７０番地２,,31,201,6891121,,,2024-10-07,合併による解散等,3010401038783,令和６年１０月１日東京都江東区豊洲五丁目６番３６号株式会社プロテリアル（3010401038783）に合併し解散,2015-10-05,1,,,,,プロテリアルフェライトデンシ,0
1487,6360001005485,登記記録の閉鎖等,0,2024-10-10,2024-10-04,株式会社沖縄日東,,株式会社,沖縄県,豊見城市,字翁長４７０番地の４ガーデンみなみ２０１,,47,212,9010223,,,2024-10-04,清算の結了等,,,2015-10-05,1,,,,,オキナワニットウ,0
1497,6430001062420,登記記録の閉鎖等,0,2024-10-10,2024-10-01,株式会社いちまる,,株式会社,北海道,札幌市白石区,菊水元町二条４丁目１７番地,,01,104,0030822,,,2024-10-01,清算の結了等,,,2015-10-05,1,,,,,イチマル,0
1499,6450001006061,登記記録の閉鎖等,0,2024-10-10,2024-10-04,株式会社三ッ和林間牧場,,株式会社,北海道,上川郡比布町,北１０線１０号,,01,455,0780330,,,2024-10-04,清算の結了等,,,2015-10-05,1,,,,,ミツワリンカンボクジョウ,0
1503,6500001019009,登記記録の閉鎖等,0,2024-10-10,2024-10-07,株式会社しこくグリーンファーム,,株式会社,愛媛県,四国中央市,川之江町８２６番地,,38,213,7990101,,,2024-10-07,清算の結了等,,,2015-10-05,1,,,,,シコクグリーンファーム,0
1518,7010005029267,登記記録の閉鎖等,0,2024-10-10,2024-10-07,ＫＲＦ７８特定目的会社,,その他の設立登記法人,東京都,千代田区,飯田橋４丁目７番１号結和税理士法人内,,13,101,1020072,,,2024-10-07,清算の結了等,,,2018-10-24,1,,,,,ケイアールエフセブンティエイト,0
1525,7010405009546,登記記録の閉鎖等,0,2024-10-10,2024-09-12,一般社団法人ＣＶＣ１,,その他の設立登記法人,東京都,目黒区,青葉台１丁目６番５９号,,13,110,1530042,,,2024-09-12,清算の結了等,,,2015-10-05,1,,,,,シーヴィシーワン,0
1527,7010501051922,登記記録の閉鎖等,0,2024-10-10,2024-10-01,融暉株式会社,,株式会社,東京都,台東区,三ノ輪２丁目３番８－１０１号,,13,106,1100011,,,2024-10-01,清算の結了等,,,2024-03-13,1,,,,,ユウキ,0
1529,7010705002449,登記記録の閉鎖等,0,2024-10-10,2024-10-07,一般社団法人日本ふるさと手しごと協会,,その他の設立登記法人,神奈川県,愛甲郡清川村,宮ヶ瀬９７１－２０,,14,402,2430111,,,2024-10-07,清算の結了等,,,2016-05-10,1,,,,,ニホンフルサトテシゴトキョウカイ,0
1533,7011001020252,登記記録の閉鎖等,0,2024-10-10,2024-09-18,株式会社アーデニー・エンタテインメント,,株式会社,東京都,渋谷区,広尾１丁目１番３２号,,13,113,1500012,,,2024-09-18,清算の結了等,,,2015-10-05,1,,,,,,0
1541,7011003017362,登記記録の閉鎖等,0,2024-10-10,2024-10-07,Ｘ‐ＣＯＮ合同会社,,合同会社,東京都,渋谷区,上原２丁目２８番５号,,13,113,1510064,,,2024-10-07,清算の結了等,,,2023-08-14,1,,,,,エックスコン,0
1588,7040002069189,登記記録の閉鎖等,0,2024-10-10,2024-10-01,有限会社藤田技建工房,,有限会社,千葉県,袖ケ浦市,のぞみ野１１３番地６,,12,229,2990251,,,2024-10-01,清算の結了等,,,2015-10-05,1,,,,,フジタギケンコウボウ,0
1601,7070001021156,登記記録の閉鎖等,0,2024-10-10,2024-10-03,株式会社ノートトレーディング,,株式会社,群馬県,太田市,脇屋町１９９番地１２,,10,205,3730031,,,2024-10-03,清算の結了等,,,2015-10-05,1,,,,,ノートトレーディング,0
1607,7070001035841,登記記録の閉鎖等,0,2024-10-10,2024-10-02,株式会社みらい,,株式会社,群馬県,富岡市,妙義町上高田６５３番地,,10,210,3702411,,,2024-10-02,合併による解散等,7070001029752,令和６年１０月１日群馬県富岡市妙義町上高田６５３番地株式会社妙義会（7070001029752）に合併し解散,2019-06-18,1,,,,,ミライ,0
1616,7110001017240,登記記録の閉鎖等,0,2024-10-10,2024-10-01,柏崎三菱自動車販売株式会社,,株式会社,新潟県,柏崎市,田中１１番１０号,,15,205,9450816,,,2024-10-01,合併による解散等,9110001022981,令和６年１０月１日新潟県長岡市平島一丁目１５８番地中越三菱自動車販売株式会社（9110001022981）に合併し解散,2015-10-05,1,,,,,カシワザキミツビシジドウシャハンバイ,0
1629,7120001261317,登記記録の閉鎖等,0,2024-10-10,2024-10-09,夢龍株式会社,,株式会社,大阪府,大阪市淀川区,西宮原２丁目６－１６新大阪コーポビアネーズ１１３１号室,,27,123,5320004,,,2024-10-09,清算の結了等,,,2024-01-16,1,,,,,ムリュウ,0
1658,7130005014570,登記記録の閉鎖等,0,2024-10-10,2024-10-07,一般社団法人歴史文化研究所,,その他の設立登記法人,京都府,京都市下京区,寺町通松原下る植松町７３３番地,,26,106,6008028,,,2024-10-07,清算の結了等,,,2016-04-21,1,,,,,レキシブンカケンキュウショ,0
1673,7170005003504,登記記録の閉鎖等,0,2024-10-10,2024-10-08,医療法人篤志会,,その他の設立登記法人,和歌山県,田辺市,高雄３丁目９番１６号,,30,206,6460028,,,2024-10-08,清算の結了等,,,2015-10-05,1,,,,,トクシカイ,0
1676,7180001124749,登記記録の閉鎖等,0,2024-10-10,2024-10-01,ぐんぐん株式会社,,株式会社,愛知県,名古屋市中区,栄３丁目３５番２２号,,23,106,4600008,,,2024-10-01,合併による解散等,8180001139804,令和６年１０月１日名古屋市中区栄三丁目３５番２２号株式会社Ｚｏｏ（8180001139804）に合併し解散,2016-09-08,1,,,,,グングン,0
1683,7180301027420,登記記録の閉鎖等,0,2024-10-10,2024-10-01,ホームズインテリア株式会社,,株式会社,愛知県,豊橋市,下五井町字沖田１６１番地の１,,23,201,4400091,,,2024-10-01,合併による解散等,6180301007191,令和６年１０月１日愛知県豊橋市下五井町字沖田１６１番地の１マルシメ株式会社（6180301007191）に合併し解散,2015-10-05,1,,,,,ホームズインテリア,0
1687,7190002004263,登記記録の閉鎖等,0,2024-10-10,2024-10-08,有限会社保険工房みえ,,有限会社,三重県,津市,栗真町屋町４５１番地の１,,24,201,5140102,,,2024-10-08,清算の結了等,,,2015-10-05,1,,,,,ホケンコウボウミエ,0
1690,7200002005763,登記記録の閉鎖等,0,2024-10-10,2024-10-08,有限会社柚子,,有限会社,岐阜県,岐阜市,折立１８０番地,,21,201,5011132,,,2024-10-08,清算の結了等,,,2015-10-05,1,,,,,ユズ,0
1694,7240001046929,登記記録の閉鎖等,0,2024-10-10,2024-10-03,株式会社ライブリー,,株式会社,広島県,広島市安佐南区,相田７丁目２４番１３号,,34,105,7310141,,,2024-10-03,清算の結了等,,,2015-10-05,1,,,,,ライブリー,0
1715,7350005000375,登記記録の閉鎖等,0,2024-10-10,2024-10-04,宮崎県造林素材生産事業協同組合連合会,,その他の設立登記法人,宮崎県,宮崎市,橘通東１丁目１１番１号,,45,201,8800805,,,2024-10-04,清算の結了等,,,2015-10-05,1,,,,,ミヤザキケンゾウリンソザイセイサン,0
1716,7360001002143,登記記録の閉鎖等,0,2024-10-10,2024-10-04,株式会社豊建設,,株式会社,沖縄県,豊見城市,宜保２丁目６番地７,,47,212,9010244,,,2024-10-04,清算の結了等,,,2015-10-05,1,,,,,ユタカケンセツ,0
1736,7430001091055,登記記録の閉鎖等,0,2024-10-10,2024-10-07,株式会社イー・クラウドサービス,,株式会社,北海道,札幌市中央区,大通西１丁目１４番地２,,01,101,0600042,,,2024-10-07,合併による解散等,6011301016389,令和６年９月３０日東京都渋谷区笹塚二丁目１番６号株式会社ｆｏｎｆｕｎ（6011301016389）に合併し解散,2024-02-15,1,,,,,イークラウドサービス,0
1738,7430003010921,登記記録の閉鎖等,0,2024-10-10,2024-10-02,合同会社ケアたろう,,合同会社,北海道,苫小牧市,山手町２丁目１２番１３号,,01,213,0530851,,,2024-10-02,清算の結了等,,,2019-10-28,1,,,,,ケアタロウ,0
1742,7470001012932,登記記録の閉鎖等,0,2024-10-10,2024-10-03,株式会社やまね調剤薬局,,株式会社,香川県,木田郡三木町,大字下高岡３９２３番地２,,37,341,7610704,,,2024-10-03,清算の結了等,,,2015-10-05,1,,,,,ヤマネチョウザイヤッキョク,0
1751,8010001089396,登記記録の閉鎖等,0,2024-10-10,2024-10-01,株式会社ティ・エス・ディ,,株式会社,東京都,新宿区,西新宿６丁目２２番１号新宿スクエアタワー１４階,,13,104,1600023,,,2024-10-01,合併による解散等,8013301000593,令和６年１０月１日東京都新宿区西新宿六丁目２２番１号新宿スクエアタワー１４階株式会社アップルワールド（8013301000593）に合併し解散,2015-10-05,1,,,,,ティエスディ,0
1756,8010005000367,登記記録の閉鎖等,0,2024-10-10,2024-10-07,在日弘法院,,その他の設立登記法人,東京都,文京区,春日２丁目２３番５号,,13,105,1120003,,,2024-10-07,清算の結了等,,,2015-10-05,1,,,,,ザイニチコウボウイン,0
1758,8010401027666,登記記録の閉鎖等,0,2024-10-10,2024-10-02,株式会社ボムス,,株式会社,東京都,杉並区,浜田山３丁目３１番２号,,13,115,1680065,,,2024-10-02,清算の結了等,,,2015-10-05,1,,,,,ボムス,0
1768,8010801021756,登記記録の閉鎖等,0,2024-10-10,2024-10-01,株式会社東横インアーキテクト,,株式会社,東京都,大田区,新蒲田１丁目７番４号,,13,111,1440054,,,2024-10-01,合併による解散等,4010801019936,令和６年１０月１日東京都大田区南雪谷四丁目１０番１６号株式会社パートナーズ２１（4010801019936）に合併し解散,2015-10-05,1,,,,,トウヨコインアーキテクト,0
1770,8010802005601,登記記録の閉鎖等,0,2024-10-10,2024-10-03,有限会社小峰商事,,有限会社,東京都,大田区,大森中１丁目１８番２０－６０２号,,13,111,1430014,,,2024-10-03,清算の結了等,,,2015-10-05,1,,,,,コミネショウジ,0
1785,8011301000671,登記記録の閉鎖等,0,2024-10-10,2024-10-04,インターネット株式会社,,株式会社,東京都,杉並区,上荻１丁目２２番１３－５０５号,,13,115,1670043,,,2024-10-04,清算の結了等,,,2015-10-05,1,,,,,インターネット,0
1788,8011502002293,登記記録の閉鎖等,0,2024-10-10,2024-10-04,有限会社五輪商事,,有限会社,東京都,北区,東十条６丁目１１番８号,,13,117,1140001,,,2024-10-04,清算の結了等,,,2015-10-05,1,,,,,ゴリンショウジ,0
1796,8012405004162,登記記録の閉鎖等,0,2024-10-10,2024-10-07,一般社団法人Ｅａｒｔｈｉｎｇ　Ｇｉｒｌ,,その他の設立登記法人,東京都,調布市,小島町２丁目４０番地２,,13,208,1820026,,,2024-10-07,清算の結了等,,,2018-04-19,1,,,,,アーシングガール,0
1798,8012803001851,登記記録の閉鎖等,0,2024-10-10,2024-09-30,株式会社まごころ企画,,株式会社,東京都,昭島市,松原町１丁目２９番２４－１０２号,,13,207,1960003,,,2024-09-30,清算の結了等,,,2018-07-06,1,,,,,マゴコロキカク,0
1800,8013301041919,登記記録の閉鎖等,0,2024-10-10,2024-10-08,株式会社ハイポテック,,株式会社,神奈川県,相模原市中央区,淵野辺１丁目６番１－４０８号,,14,152,2520206,,,2024-10-08,清算の結了等,,,2018-03-15,1,,,,,ハイポテック,0
1826,8040001086829,登記記録の閉鎖等,0,2024-10-10,2024-10-01,日本コバルト株式会社,,株式会社,千葉県,匝瑳市,八日市場ホ３２７０番地,,12,235,2892146,,,2024-10-01,清算の結了等,,,2015-10-05,1,,,,,,0
1829,8040003019695,登記記録の閉鎖等,0,2024-10-10,2024-10-02,合同会社デリバリーグループ,,合同会社,千葉県,木更津市,羽鳥野６丁目１２－１１,,12,206,2920819,,,2024-10-02,清算の結了等,,,2022-03-22,1,,,,,デリバリーグループ,0
1840,8080101004067,登記記録の閉鎖等,0,2024-10-10,2024-10-07,御殿場建設株式会社,,株式会社,静岡県,御殿場市,竈１４４２番地の１,,22,215,4120039,,,2024-10-07,清算の結了等,,,2015-10-05,1,,,,,ゴテンバケンセツ,0
1842,8080102003241,登記記録の閉鎖等,0,2024-10-10,2024-10-04,有限会社星谷硝子店,,有限会社,静岡県,沼津市,真砂町５番地の５,,22,203,4100861,,,2024-10-04,清算の結了等,,,2015-10-05,1,,,,,ホシヤガラステン,0
1847,8080401020870,登記記録の閉鎖等,0,2024-10-10,2024-10-02,株式会社自然化学研究所,,株式会社,静岡県,浜松市中央区,馬郡町１８５０番地の１６,,22,138,4310203,,,2024-10-02,合併による解散等,2080401003187,令和６年１０月１日静岡県浜松市中央区馬郡町１８５０番地の１６株式会社中央サービス（2080401003187）に合併し解散,2015-10-05,1,,,,,シゼンカガクケンキュウショ,0
1858,8120001154197,登記記録の閉鎖等,0,2024-10-10,2024-09-26,ダイチ警備株式会社,,株式会社,大阪府,枚方市,出口５丁目７０番１号,,27,210,5730065,,,2024-09-26,清算の結了等,,,2015-10-05,1,,,,,ダイチケイビ,0
1876,8120101041072,登記記録の閉鎖等,0,2024-10-10,2024-10-07,株式会社大阪パック,,株式会社,大阪府,泉南郡熊取町,大久保中１丁目１番１７号,,27,361,5900403,,,2024-10-07,清算の結了等,,,2015-10-05,1,,,,,オオサカパック,0
1877,8120101058455,登記記録の閉鎖等,0,2024-10-10,2024-10-04,株式会社アシストｃｏｍｐａｎｙ,,株式会社,大阪府,堺市西区,草部８００番地１５,,27,144,5938312,,,2024-10-04,清算の結了等,,,2018-07-05,1,,,,,アシストカンパニー,0
1883,8120905004547,登記記録の閉鎖等,0,2024-10-10,2024-10-03,特定非営利活動法人ライフサポートコミュニティみのお,,その他の設立登記法人,大阪府,箕面市,西小路４丁目４番１号,,27,220,5620003,,,2024-10-03,清算の結了等,,,2015-10-05,1,,,,,ライフサポートコミュニティミノオ,0
1884,8122001008952,登記記録の閉鎖等,0,2024-10-10,2024-10-01,株式会社フタバ,,株式会社,大阪府,東大阪市,菱江４丁目７番５号,,27,227,5780984,,,2024-10-01,合併による解散等,6122001008954,令和６年９月３０日大阪府東大阪市菱江四丁目７番５号株式会社シドー（6122001008954）に合併し解散,2015-10-05,1,,,,,フタバ,0
1889,8140001045634,登記記録の閉鎖等,0,2024-10-10,2024-10-07,ゆいごん株式会社,,株式会社,兵庫県,高砂市,米田町米田９９７番地サンシティー米田Ｂ－２０２号,,28,216,6760805,,,2024-10-07,清算の結了等,,,2015-10-05,1,,,,,ユイゴン,0
1915,8180302017477,登記記録の閉鎖等,0,2024-10-10,2024-10-02,有限会社リアルパートナーズ,,有限会社,愛知県,安城市,三河安城本町２丁目４番地８,,23,212,4460059,,,2024-10-02,清算の結了等,,,2015-10-05,1,,,,,リアルパートナーズ,0
1919,8230001020272,登記記録の閉鎖等,0,2024-10-10,2024-10-07,城東工業株式会社,,株式会社,富山県,高岡市,大坪町４丁目４７番地スペースクリエイトビル２階３号室,,16,202,9330918,,,2024-10-07,合併による解散等,2230001010510,令和６年１０月１日富山県高岡市中川本町１４番１８号寺崎工業株式会社（2230001010510）に合併し解散,2024-04-01,1,,,,,ジョウトウコウギョウ,0
1920,8240001000884,登記記録の閉鎖等,0,2024-10-10,2024-10-01,株式会社いづみ屋,,株式会社,広島県,広島市中区,大手町５丁目６番１５号,,34,101,7300051,,,2024-10-01,清算の結了等,,,2015-10-05,1,,,,,イヅミヤ,0
1921,8240001044519,登記記録の閉鎖等,0,2024-10-10,2024-10-01,ライブパーソンズ株式会社,,株式会社,広島県,福山市,神辺町大字川北１５３３番地,,34,207,7202123,,,2024-10-01,合併による解散等,1240001052123,令和６年９月３０日広島県福山市神辺町道上２９７４番地１０ライブコンサルタント株式会社（1240001052123）に合併し解散,2015-10-05,1,,,,,ライブパーソンズ,0
1923,8280002006480,登記記録の閉鎖等,0,2024-10-10,2024-10-01,有限会社八栄製作所,,有限会社,島根県,出雲市,斐川町求院１５０５番地５,,32,203,6990614,,,2024-10-01,清算の結了等,,,2015-10-05,1,,,,,ヤサカセイサクショ,0
1935,8320005001169,登記記録の閉鎖等,0,2024-10-10,2024-10-09,別大都市開発事業協同組合,,その他の設立登記法人,大分県,大分市,長浜町３丁目１６番３号,,44,201,8700023,,,2024-10-09,清算の結了等,,,2024-03-06,1,,,,,,0
1947,8370002001167,登記記録の閉鎖等,0,2024-10-10,2024-09-02,有限会社高忠商事,,有限会社,宮城県,仙台市泉区,市名坂字野蔵７番地,,04,105,9813117,,,2024-09-02,合併による解散等,7370001025069,令和６年９月１日仙台市泉区市名坂字野蔵３６番地株式会社高澤ホールディングス（7370001025069）に合併し解散,2015-10-05,1,,,,,タカチュウショウジ,0
1984,9010001239124,登記記録の閉鎖等,0,2024-10-10,2024-09-27,株式会社Ｎｕｕカンパニー,,株式会社,東京都,中央区,新富２丁目１４－５ＡＣＮ銀座イーストビル９階,,13,102,1040041,,,2024-09-27,清算の結了等,,,2023-10-10,1,,,,,ヌーカンパニー,0
1989,9010005011066,登記記録の閉鎖等,0,2024-10-10,2024-10-07,一般社団法人ジェイエスジーホールディングス,,その他の設立登記法人,東京都,千代田区,丸の内３丁目１番１号東京共同会計事務所内,,13,101,1000005,,,2024-10-07,清算の結了等,,,2015-10-05,1,,,,,ジェイエスジーホールディングス,0
1990,9010005028894,登記記録の閉鎖等,0,2024-10-10,2024-10-03,一般社団法人放射線医療技術・国際連携協会,,その他の設立登記法人,東京都,文京区,本郷２丁目６番１２号,,13,105,1130033,,,2024-10-03,清算の結了等,,,2018-08-06,1,,,,,ホウシャセンイリョウギジュツコクサイレンケイキョウカイ,0
1991,9010005029851,登記記録の閉鎖等,0,2024-10-10,2024-10-07,ＫＲＦ８５特定目的会社,,その他の設立登記法人,東京都,千代田区,飯田橋４丁目７番１号結和税理士法人内,,13,101,1020072,,,2024-10-07,清算の結了等,,,2019-03-12,1,,,,,ケイアールエフエイティファイブ,0
2014,9010801020567,登記記録の閉鎖等,0,2024-10-10,2024-10-07,株式会社オフィスＫ２,,株式会社,東京都,目黒区,中根１丁目１４番１５号,,13,110,1520031,,,2024-10-07,清算の結了等,,,2015-10-05,1,,,,,オフィスケイツー,0
2026,9010902006300,登記記録の閉鎖等,0,2024-10-10,2024-10-03,有限会社サーモ・クリエーション,,有限会社,東京都,世田谷区,世田谷３丁目２０番８号,,13,112,1540017,,,2024-10-03,清算の結了等,,,2015-10-05,1,,,,,サーモクリエーション,0
2050,9013301008306,登記記録の閉鎖等,0,2024-10-10,2024-10-01,東都総業株式会社,,株式会社,東京都,新宿区,新宿４丁目１番６号ＪＲ新宿ミライナタワー８階,,13,104,1600022,,,2024-10-01,合併による解散等,9013301008297,令和６年１０月１日東京都新宿区新宿四丁目１番６号ＪＲ新宿ミライナタワー８階東都観光バス株式会社（9013301008297）に合併し解散,2015-10-05,1,,,,,トウトソウギョウ,0
2088,9040001009251,登記記録の閉鎖等,0,2024-10-10,2024-09-30,株式会社園芸開発センター,,株式会社,千葉県,千葉市中央区,大森町２１番地の２９,,12,101,2600811,,,2024-09-30,清算の結了等,,,2015-10-05,1,,,,,エンゲイカイハツセンター,0
2098,9070002009108,登記記録の閉鎖等,0,2024-10-10,2024-10-04,有限会社太田等商店,,有限会社,群馬県,高崎市,和田町６番４号,,10,202,3700847,,,2024-10-04,清算の結了等,,,2015-10-05,1,,,,,オオタヒトシショウテン,0
2107,9090002010542,登記記録の閉鎖等,0,2024-10-10,2024-10-03,有限会社安富建設工業所,,有限会社,山梨県,都留市,法能２４５８番地の４,,19,204,4020025,,,2024-10-03,清算の結了等,,,2015-10-05,1,,,,,ヤストミケンセツコウギョウショ,0
2125,9120002001967,登記記録の閉鎖等,0,2024-10-10,2024-10-09,有限会社栄みどりや,,有限会社,大阪府,大阪市西成区,花園南１丁目４番２５号,,27,122,5570015,,,2024-10-09,清算の結了等,,,2015-10-05,1,,,,,サカエミドリヤ,0
2151,9150002009280,登記記録の閉鎖等,0,2024-10-10,2024-10-07,有限会社ハコス・パック,,有限会社,奈良県,葛城市,新庄９１番地の４,,29,211,6392147,,,2024-10-07,清算の結了等,,,2015-10-05,1,,,,,ハコスパック,0
2155,9180001026035,登記記録の閉鎖等,0,2024-10-10,2024-09-26,株式会社太陽社,,株式会社,愛知県,名古屋市中川区,広田町１丁目２９番地,,23,110,4540867,,,2024-09-26,清算の結了等,,,2015-10-05,1,,,,,タイヨウシャ,0
2157,9180001098000,登記記録の閉鎖等,0,2024-10-10,2024-10-01,株式会社マツダ,,株式会社,愛知県,あま市,下萱津宿ノ口９８５番地の１,,23,237,4901114,,,2024-10-01,合併による解散等,1180001045546,令和６年１０月１日愛知県清須市西須ケ口９３番地株式会社宮崎（1180001045546）に合併し解散,2015-10-05,1,,,,,マツダ,0
2158,9180002045819,登記記録の閉鎖等,0,2024-10-10,2024-09-26,有限会社愛,,有限会社,愛知県,名古屋市緑区,鳴海町字長田６３番地,,23,114,4580801,,,2024-09-26,清算の結了等,,,2015-10-05,1,,,,,アイ,0
2160,9180302014011,登記記録の閉鎖等,0,2024-10-10,2024-10-01,有限会社本多薬局,,有限会社,愛知県,豊川市,下長山町北側６３番地の１,,23,207,4420824,,,2024-10-01,合併による解散等,7180301012389,令和６年１０月１日愛知県蒲郡市三谷北通五丁目８３番地芽生調剤株式会社（7180301012389）に合併し解散,2015-10-05,1,,,,,ホンダヤッキョク,0
2166,9190002001845,登記記録の閉鎖等,0,2024-10-10,2024-10-09,有限会社雲出商事,,有限会社,三重県,津市,戸木町２３８２番地１,,24,201,5141138,,,2024-10-09,清算の結了等,,,2015-10-05,1,,,,,クモズショウジ,0
2197,9340002022256,登記記録の閉鎖等,0,2024-10-10,2024-10-07,有限会社オオタ商事,,有限会社,鹿児島県,出水市,高尾野町大久保３８１６番地２３,,46,208,8990401,,,2024-10-07,清算の結了等,,,2015-10-05,1,,,,,オオタショウジ,0
2214,9480002003622,登記記録の閉鎖等,0,2024-10-10,2024-10-08,有限会社仁木薬局,,有限会社,徳島県,徳島市,南二軒屋町２丁目２番８号,,36,201,7708063,,,2024-10-08,清算の結了等,,,2015-10-05,1,,,,,ニキヤッキョク,0
