sequenceNumber,corporateNumber,process,correct,updateDate,changeDate,name,nameImageId,kind,prefectureName,cityName,streetNumber,addressImageId,prefectureCode,cityCode,postCode,addressOutside,addressOutsideImageId,closeDate,closeCause,successorCorporateNumber,changeCause,assignmentDate,latest,enName,enPrefectureName,enCityName,enAddressOutside,furigana,hihyoji
3,1000020338567,登記記録の閉鎖等,0,2025-05-19,2025-03-31,和気北部衛生施設組合,,地方公共団体,岡山県,和気郡和気町,尺所５５５,,33,346,7090422,,,2025-03-31,その他の清算の結了等,,,2015-10-05,1,Wake north sanitary facilities,Okayama,"555,Shakuso, Wake-cho,Wake-gun",,ワケホクブエイセイシセツクミアイ,0
4,1000020338591,登記記録の閉鎖等,0,2025-05-19,2025-03-31,倉敷西部清掃施設組合,,地方公共団体,岡山県,倉敷市,玉島道越８８８－１,,33,202,7138114,,,2025-03-31,その他の清算の結了等,,,2015-10-05,1,,,,,クラシキセイブセイソウシセツクミアイ,0
7,1010001121165,登記記録の閉鎖等,0,2025-05-19,2025-05-01,株式会社欅ホールディング,,株式会社,東京都,千代田区,飯田橋３丁目１１番１３号,,13,101,1020072,,,2025-05-01,合併による解散等,1010001095855,令和７年５月１日東京都千代田区飯田橋三丁目１１番１３号株式会社クリーブ（1010001095855）に合併し解散,2015-10-05,1,,,,,ケヤキホールディング,0
15,1010003020984,登記記録の閉鎖等,0,2025-05-19,2025-04-30,日光３３パラッツォモデルノ合同会社,,合同会社,東京都,千代田区,丸の内１丁目４番１号東京共同会計事務所内,,13,101,1000005,,,2025-04-30,清算の結了等,,,2015-10-05,1,,,,,ニッコウサーティースリーパラッツォモデルノ,0
16,1010003021041,登記記録の閉鎖等,0,2025-05-19,2025-04-30,日光５２メゾン西荻窪合同会社,,合同会社,東京都,千代田区,丸の内１丁目４番１号東京共同会計事務所内,,13,101,1000005,,,2025-04-30,清算の結了等,,,2015-10-05,1,,,,,ニッコウフィフティーツーメゾンニシオギクボ,0
18,1010003034142,登記記録の閉鎖等,0,2025-05-19,2025-04-28,Ｍｏｊｉｋｏ　Ｄｅｖｅｌｏｐｍｅｎｔｓ合同会社,,合同会社,東京都,中央区,銀座１丁目６番１１号土志田ビルディング３Ｆ,,13,102,1040061,,,2025-04-28,清算の結了等,,,2021-02-12,1,,,,,モジコデペロップメンツ,0
39,1011003019307,登記記録の閉鎖等,0,2025-05-19,2025-04-15,合同会社第八商店,,合同会社,東京都,目黒区,平町２丁目１８番１０号,,13,110,1520032,,,2025-04-15,清算の結了等,,,2024-06-06,1,,,,,ダイハチショウテン,0
52,1011501028148,登記記録の閉鎖等,0,2025-05-19,2025-05-12,株式会社日和,,株式会社,東京都,荒川区,南千住１丁目４５番８－４０３号Ｈ,,13,118,1160003,,,2025-05-12,清算の結了等,,,2022-06-16,1,,,,,ニチワ,0
64,1011801023237,登記記録の閉鎖等,0,2025-05-19,2025-05-02,アーツ・プラン株式会社,,株式会社,東京都,足立区,鹿浜５丁目２４番９－４０５号,,13,121,1230864,,,2025-05-02,清算の結了等,,,2015-10-05,1,,,,,アーツプラン,0
71,1012401020946,登記記録の閉鎖等,0,2025-05-19,2025-05-12,株式会社ゴールドスリー,,株式会社,東京都,調布市,小島町１丁目２２番地１,,13,208,1820026,,,2025-05-12,清算の結了等,,,2015-10-05,1,,,,,,0
81,1020001012982,登記記録の閉鎖等,0,2025-05-19,2025-05-02,斉藤機械株式会社,,株式会社,神奈川県,横浜市南区,新川町２丁目３番地１０,,14,105,2320027,,,2025-05-02,清算の結了等,,,2015-10-05,1,,,,,サイトウキカイ,0
87,1020002071706,登記記録の閉鎖等,0,2025-05-19,2025-05-09,有限会社エビステクノ,,有限会社,神奈川県,横浜市緑区,東本郷３丁目２６番２号,,14,113,2260002,,,2025-05-09,清算の結了等,,,2015-10-05,1,,,,,エビステクノ,0
110,1030003002923,登記記録の閉鎖等,0,2025-05-19,2025-05-07,経理スタッフ合同会社,,合同会社,埼玉県,川越市,岸町３丁目１７番地１,,11,201,3501131,,,2025-05-07,清算の結了等,,,2015-10-05,1,,,,,ケイリスタッフ,0
128,1060001014001,登記記録の閉鎖等,0,2025-05-19,2025-05-12,青木塗装工業株式会社,,株式会社,栃木県,小山市,大字網戸１８４０番地,,09,208,3290215,,,2025-05-12,清算の結了等,,,2015-10-05,1,,,,,,0
139,1080402008013,登記記録の閉鎖等,0,2025-05-19,2025-05-15,有限会社三次工業所,,有限会社,静岡県,浜松市中央区,領家３丁目９番８号,,22,138,4300852,,,2025-05-15,清算の結了等,,,2015-10-05,1,,,,,,0
143,1100002022576,登記記録の閉鎖等,0,2025-05-19,2025-05-14,有限会社丸安建設,,有限会社,長野県,長野市,若宮１丁目９番２１号,,20,201,3810032,,,2025-05-14,清算の結了等,,,2015-10-05,1,,,,,マルヤスケンセツ,0
168,1120003017111,登記記録の閉鎖等,0,2025-05-19,2025-05-07,合同会社ＧＲＡＮＤＩＯＳＡ,,合同会社,大阪府,大阪市中央区,平野町３丁目１番８号,,27,128,5410046,,,2025-05-07,清算の結了等,,,2020-03-06,1,,,,,グランディオーサ,0
191,1150001018109,登記記録の閉鎖等,0,2025-05-19,2025-05-15,株式会社スペースプラン,,株式会社,奈良県,大和郡山市,高田口町４番地,,29,203,6391133,,,2025-05-15,合併による解散等,6122001002362,令和７年４月２４日大阪府東大阪市玉串元町一丁目４番４１号三栄産業株式会社（6122001002362）に合併し解散,2015-10-05,1,,,,,スペースプラン,0
203,1180002063621,登記記録の閉鎖等,0,2025-05-19,2025-05-13,有限会社プロテクノ,,有限会社,愛知県,長久手市,鴨田６０６番地,,23,238,4801165,,,2025-05-13,清算の結了等,,,2015-10-05,1,,,,,プロテクノ,0
221,1210001001454,登記記録の閉鎖等,0,2025-05-19,2025-05-14,株式会社サンキュー,,株式会社,福井県,福井市,新保北１丁目６０１番地,,18,201,9100838,,,2025-05-14,合併による解散等,3240001041231,令和７年４月１日広島市中区紙屋町二丁目１番１８号株式会社エディオン（3240001041231）に合併し解散,2015-10-05,1,,,,,サンキュー,0
224,1220001026558,登記記録の閉鎖等,0,2025-05-19,2025-05-16,株式会社高塚化成,,株式会社,石川県,能美市,大成町イ６７番地５,,17,211,9290113,,,2025-05-16,清算の結了等,,,2025-04-07,1,,,,,,0
225,1240001051281,登記記録の閉鎖等,0,2025-05-19,2025-05-15,浩栄建設株式会社,,株式会社,広島県,広島市佐伯区,五日市町大字石内字有井３９９０番１,,34,108,7315102,,,2025-05-15,清算の結了等,,,2017-06-20,1,,,,,コウエイケンセツ,0
229,1240002010501,登記記録の閉鎖等,0,2025-05-19,2025-05-12,有限会社中国設備工業,,有限会社,広島県,広島市安芸区,畑賀町３８０２番地の１２,,34,107,7360089,,,2025-05-12,清算の結了等,,,2015-10-05,1,,,,,チュウゴクセツビコウギョウ,0
231,1240002035011,登記記録の閉鎖等,0,2025-05-19,2025-05-13,有限会社笹根土木,,有限会社,広島県,呉市,川尻町久筋３丁目４番１８号,,34,202,7372606,,,2025-05-13,清算の結了等,,,2015-10-05,1,,,,,ササネドボク,0
267,1340001026728,登記記録の閉鎖等,0,2025-05-19,2025-05-12,ウェルネス桜島株式会社,,株式会社,鹿児島県,鹿児島市,南郡元町１８番８号,,46,201,8900069,,,2025-05-12,清算の結了等,,,2024-08-07,1,,,,,ウェルネスサクラジマ,0
274,1370003004984,登記記録の閉鎖等,0,2025-05-19,2025-05-02,合同会社いでは堂,,合同会社,宮城県,仙台市青葉区,本町１丁目５番２８号カーニープレイス仙台駅前通６０３号室,,04,101,9800014,,,2025-05-02,清算の結了等,,,2020-11-05,1,,,,,イデハドウ,0
281,1380005002399,登記記録の閉鎖等,0,2025-05-19,2025-05-01,特定非営利活動法人ささえ愛ふらっと,,その他の設立登記法人,福島県,伊達郡桑折町,字北町９６番地,,07,301,9691601,,,2025-05-01,清算の結了等,,,2015-10-05,1,,,,,ササエアイフラット,0
303,1480002011112,登記記録の閉鎖等,0,2025-05-19,2025-05-14,有限会社喜耒石油,00006005,有限会社,徳島県,板野郡松茂町,広島字北川向二ノ越１５４番地１,,36,401,7710220,,,2025-05-14,清算の結了等,,,2015-10-05,1,,,,,キライセキユ,0
305,1500005008375,登記記録の閉鎖等,0,2025-05-19,2025-05-14,特定非営利活動法人アピアランスサポート,,その他の設立登記法人,愛媛県,松山市,祓川２丁目１０番１６号,,38,201,7918066,,,2025-05-14,清算の結了等,,,2021-04-12,1,,,,,アピアランスサポート,0
307,2000020018961,登記記録の閉鎖等,0,2025-05-19,2025-03-31,江差町・上ノ国町学校給食組合,,地方公共団体,北海道,檜山郡江差町,字南浜町４１１番地,,01,361,0430063,,,2025-03-31,その他の清算の結了等,,,2015-10-05,1,,,,,エサシチョウカミノクニチョウガッコウキュウショククミアイ,0
315,2010003042409,登記記録の閉鎖等,0,2025-05-19,2025-04-30,Ｔｏｓｈｉｏ　Ｓａｅｋｉ　Ｅｓｔａｔｅ合同会社,,合同会社,東京都,中央区,日本橋室町１丁目１１番１２号日本橋水野ビル７Ｆ,,13,102,1030022,,,2025-04-30,清算の結了等,,,2023-12-12,1,,,,,トシオサエキエステート,0
339,2011005001625,登記記録の閉鎖等,0,2025-05-19,2025-04-11,特定非営利活動法人交通遺児等を支援する会,,その他の設立登記法人,東京都,渋谷区,道玄坂１丁目１５番３号,,13,113,1500043,,,2025-04-11,清算の結了等,,,2015-10-05,1,,,,,コウツウイジトウヲシエンスルカイ,0
361,2012802006709,登記記録の閉鎖等,0,2025-05-19,2025-05-09,有限会社アーリーバード,,有限会社,東京都,東大和市,湖畔１丁目９１１番地の２７,,13,220,2070002,,,2025-05-09,清算の結了等,,,2015-10-05,1,,,,,アーリーバード,0
383,2021003013266,登記記録の閉鎖等,0,2025-05-19,2025-05-14,Ｓａｎｄｂａｒ合同会社,,合同会社,神奈川県,茅ヶ崎市,共恵１丁目８番６－５０５号グレーシア茅ヶ崎,,14,207,2530056,,,2025-05-14,清算の結了等,,,2023-08-09,1,,,,,サンドバー,0
407,2060002030426,登記記録の閉鎖等,0,2025-05-19,2025-04-28,有限会社正栄フアツシヨン,,有限会社,栃木県,下野市,東根６５９番地,,09,216,3230112,,,2025-04-28,清算の結了等,,,2015-10-05,1,,,,,ショウエイファッション,0
411,2070002023338,登記記録の閉鎖等,0,2025-05-19,2025-05-14,有限会社グリルオグラ,,有限会社,群馬県,桐生市,川内町２丁目５３１番地,,10,203,3760041,,,2025-05-14,清算の結了等,,,2015-10-05,1,,,,,グリルオグラ,0
412,2070002026613,登記記録の閉鎖等,0,2025-05-19,2025-05-12,有限会社トウニチクラフト,,有限会社,群馬県,北群馬郡吉岡町,大字大久保１１０１番地１６,,10,345,3703602,,,2025-05-12,清算の結了等,,,2015-10-05,1,,,,,トウニチクラフト,0
417,2090002013130,登記記録の閉鎖等,0,2025-05-19,2025-05-12,有限会社エムネットワーク,,有限会社,山梨県,南都留郡富士河口湖町,船津７３６１番地,,19,430,4010301,,,2025-05-12,清算の結了等,,,2015-10-05,1,,,,,エムネットワーク,0
423,2120001102715,登記記録の閉鎖等,0,2025-05-19,2025-05-14,株式会社ウォーターハート,,株式会社,石川県,河北郡津幡町,字舟橋ウ１７番１,,17,361,9290328,,,2025-05-14,清算の結了等,,,2015-10-05,1,,,,,ウォーターハート,0
432,2120001258367,登記記録の閉鎖等,0,2025-05-19,2025-05-09,株式会社ＩＢ　ＢＲＥＷＩＮＧ　ＫＡＮＳＡＩ,,株式会社,大阪府,豊中市,豊南町南２丁目６番９－１０２号,,27,203,5610815,,,2025-05-09,清算の結了等,,,2023-10-02,1,,,,,アイビーブリューイングカンサイ,0
449,2120102004579,登記記録の閉鎖等,0,2025-05-19,2025-05-12,有限会社増田,,有限会社,大阪府,堺市西区,鳳中町５丁１５３番地,,27,144,5938327,,,2025-05-12,清算の結了等,,,2015-10-05,1,,,,,マスダ,0
482,2180302005735,登記記録の閉鎖等,0,2025-05-19,2025-05-09,有限会社アップディッシュ,,有限会社,愛知県,岡崎市,中町字大門通２２番地２,,23,202,4440015,,,2025-05-09,清算の結了等,,,2015-10-05,1,,,,,アップディッシュ,0
491,2210001012921,登記記録の閉鎖等,0,2025-05-19,2025-05-15,山幸商事株式会社,,株式会社,福井県,鯖江市,北野町２丁目１０番６号,,18,207,9160029,,,2025-05-15,清算の結了等,,,2015-10-05,1,,,,,サンコウショウジ,0
498,2260001037823,登記記録の閉鎖等,0,2025-05-19,2025-05-13,株式会社Ｏｎｅ　Ｆｏｒｍ,,株式会社,岡山県,岡山市南区,新保１１７５－２エルハウス１０１,,33,104,7000945,,,2025-05-13,清算の結了等,,,2023-04-11,1,,,,,ワンフォーム,0
506,2290001056382,登記記録の閉鎖等,0,2025-05-19,2025-05-01,株式会社ライフワーク,,株式会社,福岡県,福岡市東区,青葉４丁目７番１号,,40,131,8130025,,,2025-05-01,合併による解散等,9290001069329,令和７年５月１日福岡市東区青葉四丁目７番１号株式会社ぽちっとかんぱにー（9290001069329）に合併し解散,2015-10-05,1,,,,,ライフワーク,0
509,2290001088954,登記記録の閉鎖等,0,2025-05-19,2025-05-01,株式会社クリーンライフサポート,,株式会社,福岡県,福岡市博多区,山王１丁目８番１８号,,40,132,8120015,,,2025-05-01,清算の結了等,,,2020-05-18,1,,,,,クリーンライフサポート,0
511,2290001095430,登記記録の閉鎖等,0,2025-05-19,2025-05-09,株式会社九動,,株式会社,福岡県,福岡市南区,三宅１丁目１５番１５号２階,,40,134,8111344,,,2025-05-09,清算の結了等,,,2021-11-19,1,,,,,キュウドウ,0
515,2290002023695,登記記録の閉鎖等,0,2025-05-19,2025-05-12,有限会社タツプラン福岡,,有限会社,福岡県,福岡市博多区,博多駅南５丁目２１－１０キャメロットアネックス２０３,,40,132,8120016,,,2025-05-12,清算の結了等,,,2015-10-05,1,,,,,タツプランフクオカ,0
517,2290003009925,登記記録の閉鎖等,0,2025-05-19,2025-05-01,保険ウェーブ合同会社,,合同会社,福岡県,糟屋郡宇美町,ゆりが丘２丁目９番３号,,40,341,8112108,,,2025-05-01,清算の結了等,,,2020-04-17,1,,,,,ホケンウェーブ,0
535,2360001029629,登記記録の閉鎖等,0,2025-05-19,2025-05-02,アーク建設株式会社,,株式会社,沖縄県,那覇市,おもろまち１丁目１番２５－２４０８号,,47,201,9000006,,,2025-05-02,清算の結了等,,,2021-11-17,1,,,,,アークケンセツ,0
538,2370001013276,登記記録の閉鎖等,0,2025-05-19,2025-05-01,ヒルサイドモールマネージメント株式会社,,株式会社,宮城県,仙台市青葉区,錦ケ丘１丁目３番地１,,04,101,9893123,,,2025-05-01,合併による解散等,5370001012127,令和７年５月１日仙台市青葉区錦ケ丘一丁目３番地１錦エステート株式会社（5370001012127）に合併し解散,2015-10-05,1,,,,,ヒルサイドモールマネージメント,0
541,2380001005909,登記記録の閉鎖等,0,2025-05-19,2025-05-07,株式会社トオネン,,株式会社,福島県,郡山市,安積町日出山２丁目３８番地,,07,203,9630101,,,2025-05-07,清算の結了等,,,2015-10-05,1,,,,,トオネン,0
542,2380002016847,登記記録の閉鎖等,0,2025-05-19,2025-05-08,安斉セメント工業有限会社,,有限会社,福島県,本宮市,本宮字蛭田４６番地２,,07,214,9691135,,,2025-05-08,清算の結了等,,,2015-10-05,1,,,,,アンザイセメントコウギョウ,0
546,2390002008819,登記記録の閉鎖等,0,2025-05-19,2025-05-13,朝陽設備有限会社,,有限会社,山形県,酒田市,吉田字伊勢塚１１０番地,,06,204,9998161,,,2025-05-13,清算の結了等,,,2015-10-05,1,,,,,アサヒセツビ,0
552,2430002008590,登記記録の閉鎖等,0,2025-05-19,2025-05-13,有限会社佐藤工務店,,有限会社,北海道,札幌市手稲区,曙六条１丁目１番１５号,00089037,01,109,0060836,,,2025-05-13,清算の結了等,,,2015-10-05,1,,,,,サトウコウムテン,0
570,3010001137705,登記記録の閉鎖等,0,2025-05-19,2025-04-24,株式会社フォスターソリューション,,株式会社,東京都,中央区,日本橋２丁目１番１７号,,13,102,1030027,,,2025-04-24,清算の結了等,,,2015-10-05,1,,,,,フォスターソリューション,0
578,3010002006553,登記記録の閉鎖等,0,2025-05-19,2025-04-28,有限会社ラミイュ,,有限会社,東京都,文京区,本駒込４丁目４７番３号,,13,105,1130021,,,2025-04-28,清算の結了等,,,2015-10-05,1,,,,,ラミイュ,0
579,3010003034272,登記記録の閉鎖等,0,2025-05-19,2025-04-30,ジェイコアレジ２合同会社４,,合同会社,東京都,千代田区,丸の内１丁目４番１号東京共同会計事務所内,,13,101,1000005,,,2025-04-30,清算の結了等,,,2021-03-01,1,,,,,ジェイコアレジツーヨン,0
593,3010403012365,登記記録の閉鎖等,0,2025-05-19,2025-04-28,ちはら台マネージメント合同会社,,合同会社,東京都,千代田区,丸の内１丁目１１番１号,,13,101,1000005,,,2025-04-28,清算の結了等,,,2015-10-05,1,,,,,チハラダイマネージメント,0
594,3010403012423,登記記録の閉鎖等,0,2025-05-19,2025-04-28,札幌東マネージメント合同会社,,合同会社,東京都,千代田区,丸の内１丁目１１番１号,,13,101,1000005,,,2025-04-28,清算の結了等,,,2015-10-05,1,,,,,サッポロヒガシマネージメント,0
612,3011001122135,登記記録の閉鎖等,0,2025-05-19,2025-04-11,ＭａｔｅＲｅａｌ株式会社,,株式会社,東京都,港区,芝４丁目１番２８号ＰＭＯ田町ＩＩＩ７Ｆ,00130225,13,103,1080014,,,2025-04-11,合併による解散等,9010401173666,令和７年４月１日東京都港区芝四丁目１番２８号ＰＭＯ田町ＩＩＩ７Ｆ株式会社ＥＮＩＬＩＳ（9010401173666）に合併し解散,2018-05-16,1,,,,,マテリアル,0
624,3011701017816,登記記録の閉鎖等,0,2025-05-19,2025-05-12,株式会社ティエラ,,株式会社,東京都,江戸川区,東瑞江１丁目２３番３号,,13,123,1320014,,,2025-05-12,清算の結了等,,,2015-10-05,1,,,,,,0
630,3012402003485,登記記録の閉鎖等,0,2025-05-19,2025-05-07,有限会社国分寺ゴルフセンター,,有限会社,東京都,国分寺市,東元町２丁目６番地,,13,214,1850022,,,2025-05-07,清算の結了等,,,2015-10-05,1,,,,,コクブンジゴルフセンター,0
635,3013302019852,登記記録の閉鎖等,0,2025-05-19,2025-04-28,有限会社縁,,有限会社,東京都,豊島区,南長崎５丁目２５番１３号,,13,116,1710052,,,2025-04-28,清算の結了等,,,2015-10-05,1,,,,,,0
649,3020003026285,登記記録の閉鎖等,0,2025-05-19,2025-05-12,ＷｅｂＲｅｓｏｌｖｅ合同会社,,合同会社,神奈川県,横浜市西区,浅間町１丁目４番地３,,14,103,2200072,,,2025-05-12,清算の結了等,,,2024-06-06,1,,,,,ウェブリゾルブ,0
656,3030001047811,登記記録の閉鎖等,0,2025-05-19,2025-05-13,株式会社アミス,,株式会社,埼玉県,川越市,大字笠幡４５２７番地１,,11,201,3501175,,,2025-05-13,合併による解散等,7030001056924,令和７年５月１日埼玉県川越市笠幡４５２７番地１株式会社ニフス（7030001056924）に合併し解散,2015-10-05,1,,,,,アミス,0
674,3050001009834,登記記録の閉鎖等,0,2025-05-19,2025-05-09,株式会社山田硝子,,株式会社,茨城県,土浦市,常名３７番地１,,08,203,3000065,,,2025-05-09,清算の結了等,,,2015-10-05,1,,,,,ヤマダガラス,0
679,3060005002215,登記記録の閉鎖等,0,2025-05-19,2025-05-12,特定非営利活動法人ＮＰＯてとてとて,,その他の設立登記法人,栃木県,那須烏山市,野上７５９番地２,,09,215,3210634,,,2025-05-12,清算の結了等,,,2015-10-05,1,,,,,エヌピーオーテトテトテ,0
701,3120001223774,登記記録の閉鎖等,0,2025-05-19,2025-05-07,株式会社Ｌｏｇｉｃ‐Ｍｅｉｓｔｅｒ,,株式会社,大阪府,大阪市淀川区,塚本５丁目６番３２号,,27,123,5320026,,,2025-05-07,清算の結了等,,,2019-09-17,1,,,,,ロジックマイスター,0
731,3130003009766,登記記録の閉鎖等,0,2025-05-19,2025-05-13,合同会社＿＿,00135922,合同会社,京都府,京都市左京区,田中里ノ前町２２エクセレント八木２０１号室,,26,103,6068227,,,2025-05-13,清算の結了等,,,2024-08-13,1,,,,,キンミョウ,0
771,3250002003626,登記記録の閉鎖等,0,2025-05-19,2025-05-15,有限会社ワイエスティー,,有限会社,山口県,防府市,三田尻１丁目３番３５号,,35,206,7470814,,,2025-05-15,清算の結了等,,,2015-10-05,1,,,,,ワイエスティー,0
775,3290001030626,登記記録の閉鎖等,0,2025-05-19,2025-05-02,株式会社まさかど,,株式会社,福岡県,福岡市博多区,上川端町１０番１５－５０３号,,40,132,8120026,,,2025-05-02,清算の結了等,,,2015-10-05,1,,,,,マサカド,0
777,3290001079028,登記記録の閉鎖等,0,2025-05-19,2025-05-01,株式会社ＮＦＣホールディングス,,株式会社,福岡県,福岡市早良区,高取１丁目４番８－６０１号,,40,137,8140011,,,2025-05-01,合併による解散等,2020001016529,令和７年５月１日福岡県糟屋郡篠栗町大字尾仲５１７番地１－１Ｆアーバンネット株式会社（2020001016529）に合併し解散,2017-09-08,1,,,,,エヌエフシーホールディングス,0
788,3290002042422,登記記録の閉鎖等,0,2025-05-19,2025-05-08,サイタ・サイト有限会社,,有限会社,福岡県,筑紫野市,大字岡田３１０番地１,,40,217,8180013,,,2025-05-08,清算の結了等,,,2015-10-05,1,,,,,サイタサイト,0
791,3290003002053,登記記録の閉鎖等,0,2025-05-19,2025-05-07,合資会社櫻木商店,,合資会社,福岡県,朝倉市,杷木池田６０６番地,,40,228,8381511,,,2025-05-07,清算の結了等,,,2015-10-05,1,,,,,サクラギショウテン,0
807,3360001029520,登記記録の閉鎖等,0,2025-05-19,2025-05-02,株式会社上原オート,,株式会社,沖縄県,那覇市,おもろまち１丁目１番２５号２４０８,,47,201,9000006,,,2025-05-02,清算の結了等,,,2021-10-20,1,,,,,ウエハラオート,0
814,3370001002542,登記記録の閉鎖等,0,2025-05-19,2025-05-02,株式会社アサヒ・プラテック,,株式会社,宮城県,仙台市若林区,六丁の目北町１６番１７号,,04,103,9840003,,,2025-05-02,清算の結了等,,,2015-10-05,1,,,,,アサヒプラテック,0
820,3370601002982,登記記録の閉鎖等,0,2025-05-19,2025-05-01,株式会社ジェルブロワ,,株式会社,宮城県,多賀城市,高橋２丁目１８番５号,,04,209,9850853,,,2025-05-01,清算の結了等,,,2015-10-05,1,,,,,ジェルブロワ,0
842,4010001017344,登記記録の閉鎖等,0,2025-05-19,2025-04-25,株式会社トリオ,,株式会社,東京都,台東区,浅草橋２丁目５番５号長島エレガンス第３ビル５階,,13,106,1110053,,,2025-04-25,清算の結了等,,,2015-10-05,1,,,,,トリオ,0
844,4010001064122,登記記録の閉鎖等,0,2025-05-19,2025-04-28,株式会社タナカプロコム,,株式会社,東京都,文京区,白山５丁目３１番７号,,13,105,1120001,,,2025-04-28,清算の結了等,,,2015-10-05,1,,,,,タナカプロコム,0
891,4011302004080,登記記録の閉鎖等,0,2025-05-19,2025-05-07,有限会社三栄設備機器サービス,,有限会社,東京都,杉並区,上井草１丁目９番１７号,,13,115,1670023,,,2025-05-07,清算の結了等,,,2015-10-05,1,,,,,サンエイセツビキキサービス,0
898,4011702008276,登記記録の閉鎖等,0,2025-05-19,2025-05-08,有限会社ドマーニ,,有限会社,東京都,江戸川区,松江２丁目１０番１２号,,13,123,1320025,,,2025-05-08,清算の結了等,,,2015-10-05,1,,,,,ドマーニ,0
901,4012403003764,登記記録の閉鎖等,0,2025-05-19,2025-05-12,合同会社健康ひろば,,合同会社,東京都,府中市,白糸台３丁目８番８号－３０５,,13,206,1830011,,,2025-05-12,清算の結了等,,,2019-03-07,1,,,,,ケンコウヒロバ,0
910,4020001094770,登記記録の閉鎖等,0,2025-05-19,2025-05-07,ＵＮＩＶＥＲＳＩＴＹ　ＯＦ　ＯＵＬＵ　ＲＥＳＥＡＲＣＨ　ＩＮＳＴＩＴＵＴＥ　ＪＡＰＡＮ－ＣＷＣ日本株式会社,,株式会社,神奈川県,横浜市西区,高島１丁目１番２号横浜三井ビルディング,,14,103,2200011,,,2025-05-07,清算の結了等,,,2015-10-05,1,,,,,ユニヴァーシティーオブオウルリサーチインスティテュートジャパンシーダブリューシーニッポン,0
924,4030001032639,登記記録の閉鎖等,0,2025-05-19,2025-05-14,株式会社服部建業,,株式会社,埼玉県,加須市,南篠崎２２４１番地,,11,210,3470017,,,2025-05-14,清算の結了等,,,2015-10-05,1,,,,,ハットリケンギョウ,0
929,4030002075760,登記記録の閉鎖等,0,2025-05-19,2025-05-14,有限会社上野台書店,,有限会社,埼玉県,ふじみ野市,上福岡１丁目１５番１０号,,11,245,3560004,,,2025-05-14,清算の結了等,,,2015-10-05,1,,,,,ウエノダイショテン,0
934,4030003015526,登記記録の閉鎖等,0,2025-05-19,2025-05-14,グランセル株式会社,,株式会社,埼玉県,春日部市,大場１１９６－１３,,11,214,3440021,,,2025-05-14,清算の結了等,,,2020-07-27,1,,,,,グランセル,0
958,4070001030259,登記記録の閉鎖等,0,2025-05-19,2025-05-12,株式会社Ｈｕｇｇｙｈｕｇｇｙ,,株式会社,群馬県,桐生市,天神町３丁目４番５号,,10,203,3760052,,,2025-05-12,清算の結了等,,,2015-10-05,1,,,,,ハギーハギー,0
978,4120001179561,登記記録の閉鎖等,0,2025-05-19,2025-05-07,株式会社エンビック,,株式会社,大阪府,大阪市浪速区,久保吉１丁目２－２１,,27,111,5560028,,,2025-05-07,清算の結了等,,,2015-10-05,1,,,,,エンビック,0
1017,4180001128133,登記記録の閉鎖等,0,2025-05-19,2025-05-16,株式会社家守りステーション東海,,株式会社,愛知県,みよし市,三好丘７丁目５番地１,,23,236,4700202,,,2025-05-16,清算の結了等,,,2017-06-07,1,,,,,イエマモリステーショントウカイ,0
1021,4180001154286,登記記録の閉鎖等,0,2025-05-19,2025-04-24,株式会社Ｓ　ＰＬＵＳ　ＯＮＥ,,株式会社,愛知県,名古屋市守山区,鳥神町２１１,,23,113,4630088,,,2025-04-24,清算の結了等,,,2022-12-20,1,,,,,エスプラスワン,0
1027,4180301010296,登記記録の閉鎖等,0,2025-05-19,2025-05-14,名豊工業株式会社,,株式会社,愛知県,豊川市,牛久保町岸組６番地,,23,207,4420826,,,2025-05-14,清算の結了等,,,2015-10-05,1,,,,,メイホウコウギョウ,0
1032,4190001015025,登記記録の閉鎖等,0,2025-05-19,2025-05-12,株式会社サンポウ,,株式会社,三重県,四日市市,楠町北五味塚１３４５番地の２,,24,202,5100103,,,2025-05-12,清算の結了等,,,2015-10-05,1,,,,,サンポウ,0
1037,4200002002409,登記記録の閉鎖等,0,2025-05-19,2025-05-13,有限会社スーパー尻毛,,有限会社,岐阜県,岐阜市,尻毛１丁目１３７番地,,21,201,5011147,,,2025-05-13,清算の結了等,,,2015-10-05,1,,,,,スーパーシッケ,0
1044,4260001019919,登記記録の閉鎖等,0,2025-05-19,2025-05-02,株式会社カブタケ,,株式会社,岡山県,津山市,大田８０番地の１４,,33,203,7080806,,,2025-05-02,清算の結了等,,,2015-10-05,1,,,,,カブタケ,0
1045,4260001021206,登記記録の閉鎖等,0,2025-05-19,2025-05-15,工房冨岳株式会社,,株式会社,岡山県,津山市,中北下１２５８番地３,,33,203,7094603,,,2025-05-15,清算の結了等,,,2015-10-05,1,,,,,コウボウフガク,0
1047,4290001052875,登記記録の閉鎖等,0,2025-05-19,2025-05-09,株式会社佐藤建設,,株式会社,福岡県,大川市,大字紅粉屋６１９番地の１,,40,212,8310044,,,2025-05-09,清算の結了等,,,2015-10-05,1,,,,,サトウケンセツ,0
1048,4290001067741,登記記録の閉鎖等,0,2025-05-19,2025-05-01,株式会社トラスト医療器,,株式会社,福岡県,福岡市城南区,田島２丁目２０番２５－５０２号,,40,136,8140113,,,2025-05-01,清算の結了等,,,2015-10-05,1,,,,,トラストイリョウキ,0
1060,4290002034088,登記記録の閉鎖等,0,2025-05-19,2025-05-01,有限会社サンシヤイン,,有限会社,福岡県,福津市,花見が浜１丁目５番１号,,40,224,8113216,,,2025-05-01,合併による解散等,2290002034214,令和７年５月１日福岡県福津市花見が浜一丁目５番１号株式会社緑風会（2290002034214）に合併し解散,2015-10-05,1,,,,,サンシャイン,0
1070,4320002001811,登記記録の閉鎖等,0,2025-05-19,2025-05-13,貫光運輸有限会社,,有限会社,大分県,大分市,大字片島２２５６番地の１,,44,201,8700943,,,2025-05-13,清算の結了等,,,2015-10-05,1,,,,,カンコウウンユ,0
1087,4390002001714,登記記録の閉鎖等,0,2025-05-19,2025-05-09,有限会社大藤興業,,有限会社,山形県,山形市,大字滑川２０４７番１１６号,,06,201,9900014,,,2025-05-09,清算の結了等,,,2015-10-05,1,,,,,ダイトウコウギョウ,0
1102,4470002011936,登記記録の閉鎖等,0,2025-05-19,2025-05-13,有限会社大和建設,,有限会社,香川県,丸亀市,川西町北字金丸１２番地の３,,37,202,7630091,,,2025-05-13,清算の結了等,,,2015-10-05,1,,,,,ヤマトケンセツ,0
1104,4490002010069,登記記録の閉鎖等,0,2025-05-19,2025-05-15,有限会社まつを,,有限会社,高知県,高岡郡越知町,越知甲１７２０番地６,,39,403,7811301,,,2025-05-15,清算の結了等,,,2015-10-05,1,,,,,マツヲ,0
1116,5010005032660,登記記録の閉鎖等,0,2025-05-19,2025-05-15,一般社団法人サポートホールディングス３８号,,その他の設立登記法人,東京都,千代田区,神田駿河台３丁目５番１号三五ビル４階ちよだ税理士事務所内,,13,101,1010062,,,2025-05-15,清算の結了等,,,2020-12-08,1,,,,,サポートホールディングスサンジュウハチゴウ,0
1118,5010401005831,登記記録の閉鎖等,0,2025-05-19,2025-04-11,株式会社オーディ,,株式会社,東京都,港区,赤坂６丁目１９番１１－４０６号,,13,103,1070052,,,2025-04-11,清算の結了等,,,2015-10-05,1,,,,,,0
1120,5010402011119,登記記録の閉鎖等,0,2025-05-19,2025-04-11,有限会社フォルムツー,,有限会社,東京都,港区,芝大門２丁目３番７号ＤＯ芝大門ビル３Ｆ,,13,103,1050012,,,2025-04-11,清算の結了等,,,2015-10-05,1,,,,,フォルムツー,0
1127,5010802008978,登記記録の閉鎖等,0,2025-05-19,2025-05-08,有限会社タツタ精機製作所,,有限会社,東京都,大田区,千鳥１丁目１６番１４号,,13,111,1460083,,,2025-05-08,清算の結了等,,,2015-10-05,1,,,,,タツタセイキセイサクジョ,0
1129,5010901040576,登記記録の閉鎖等,0,2025-05-19,2025-05-07,株式会社経営支援情報センター,,株式会社,大阪府,大阪市北区,天神橋２丁目４番１７号千代田第１ビル５階,,27,127,5300041,,,2025-05-07,清算の結了等,,,2017-07-31,1,,,,,ケイエイシエンジョウホウセンター,0
1131,5010902019784,登記記録の閉鎖等,0,2025-05-19,2025-04-11,有限会社ラフレシアス,,有限会社,東京都,渋谷区,広尾４丁目１番１２－７０４号,,13,113,1500012,,,2025-04-11,清算の結了等,,,2015-10-05,1,,,,,ラフレシアス,0
1138,5011101002994,登記記録の閉鎖等,0,2025-05-19,2025-04-21,株式会社エスコ,,株式会社,東京都,新宿区,西新宿８丁目１５番３号,,13,104,1600023,,,2025-04-21,清算の結了等,,,2015-10-05,1,,,,,エスコ,0
1152,5012801021722,登記記録の閉鎖等,0,2025-05-19,2025-05-09,株式会社Ｗｉｌｌ　Ｍｅｉｓｔｅｒ,,株式会社,東京都,立川市,柴崎町３丁目４番１７号岡部ビル２階,,13,202,1900023,,,2025-05-09,清算の結了等,,,2022-07-15,1,,,,,ウィルマイスター,0
1155,5013101003857,登記記録の閉鎖等,0,2025-05-19,2025-05-15,株式会社ＷＡＫＡＢＡ,,株式会社,東京都,青梅市,新町３丁目４１番地の７,,13,205,1980024,,,2025-05-15,清算の結了等,,,2015-10-05,1,,,,,ワカバ,0
1168,5020001123735,登記記録の閉鎖等,0,2025-05-19,2025-05-09,株式会社総合医建プラス,,株式会社,神奈川県,横浜市瀬谷区,中屋敷１丁目２５番地１,,14,114,2460004,,,2025-05-09,清算の結了等,,,2017-11-09,1,,,,,ソウゴウイケンプラス,0
1175,5020003018512,登記記録の閉鎖等,0,2025-05-19,2025-05-02,合同会社ＴＮ．ＬＩＮＫ,,合同会社,神奈川県,川崎市高津区,久末１９８７－１,,14,134,2130026,,,2025-05-02,清算の結了等,,,2020-09-24,1,,,,,ティーエヌリンク,0
1177,5020005005260,登記記録の閉鎖等,0,2025-05-19,2025-04-25,特定非営利活動法人Ｓ＆Ｓネットクラブ,,その他の設立登記法人,神奈川県,横浜市港北区,小机町１２９０番地８,,14,109,2220036,,,2025-04-25,清算の結了等,,,2015-10-05,1,,,,,,0
1181,5021001044863,登記記録の閉鎖等,0,2025-05-19,2025-05-07,株式会社アイエス,,株式会社,大阪府,吹田市,江の木町１３番９号,,27,205,5640053,,,2025-05-07,清算の結了等,,,2015-10-05,1,,,,,アイエス,0
1197,5030002098026,登記記録の閉鎖等,0,2025-05-19,2025-05-14,有限会社明覚,,有限会社,埼玉県,比企郡ときがわ町,大字玉川１５３９番地３,,11,349,3550342,,,2025-05-14,清算の結了等,,,2015-10-05,1,,,,,ミョウカク,0
1202,5040001022992,登記記録の閉鎖等,0,2025-05-19,2025-04-28,株式会社グランデ,,株式会社,千葉県,船橋市,前貝塚町８７８番地３,,12,204,2730042,,,2025-04-28,清算の結了等,,,2015-10-05,1,,,,,グランデ,0
1205,5040001036225,登記記録の閉鎖等,0,2025-05-19,2025-04-30,東京シヤツ工業株式会社,,株式会社,千葉県,松戸市,稔台７丁目４３番地の１,,12,207,2702231,,,2025-04-30,清算の結了等,,,2015-10-05,1,,,,,トウキョウシヤツコウギョウ,0
1223,5080102009349,登記記録の閉鎖等,0,2025-05-19,2025-05-14,有限会社あったか亭,,有限会社,静岡県,三島市,長伏１４８番地の１１,,22,206,4110824,,,2025-05-14,清算の結了等,,,2015-10-05,1,,,,,,0
1234,5120001061900,登記記録の閉鎖等,0,2025-05-19,2025-05-07,株式会社エム・エイチ・シー,,株式会社,大阪府,大阪市北区,西天満５丁目１４番３－１３０２号,,27,127,5300047,,,2025-05-07,清算の結了等,,,2015-10-05,1,,,,,エムエイチシー,0
1282,5180001132150,登記記録の閉鎖等,0,2025-05-19,2025-05-12,教育プロジェクト株式会社,,株式会社,大阪府,大阪市北区,西天満４丁目１１番８号おおきに老松通りビル２０２,,27,127,5300047,,,2025-05-12,合併による解散等,6180001146843,令和７年５月１日名古屋市東区東桜一丁目９番２９号オアシス栄ビル５Ｆ株式会社ＭＥＧＵＭＩ（6180001146843）に合併し解散,2018-05-08,1,,,,,キョウイクプロジェクト,0
1283,5180001149401,登記記録の閉鎖等,0,2025-05-19,2025-05-15,フォレスト株式会社,,株式会社,愛知県,名古屋市東区,泉２丁目２１番２５号高岳院ビル５階Ｂ,,23,102,4610001,,,2025-05-15,清算の結了等,,,2022-01-07,1,,,,,フォレスト,0
1286,5180002038990,登記記録の閉鎖等,0,2025-05-19,2025-05-15,有限会社ソリッド,,有限会社,愛知県,名古屋市千種区,清住町３丁目６３番地,,23,101,4640034,,,2025-05-15,清算の結了等,,,2015-10-05,1,,,,,ソリッド,0
1312,5260001012022,登記記録の閉鎖等,0,2025-05-19,2025-05-14,アルスタイル株式会社,,株式会社,岡山県,岡山市中区,＿１５５番地５,00003134,33,102,7038248,,,2025-05-14,清算の結了等,,,2015-10-05,1,,,,,,0
1314,5260002033488,登記記録の閉鎖等,0,2025-05-19,2025-05-02,有限会社吉井建硝,,有限会社,岡山県,玉野市,東高崎２４番地２２７,,33,204,7060134,,,2025-05-02,清算の結了等,,,2015-10-05,1,,,,,ヨシイケンショウ,0
1315,5290001059564,登記記録の閉鎖等,0,2025-05-19,2025-05-02,株式会社ＧＢＰ,,株式会社,福岡県,うきは市,吉井町福益９０番地－１,,40,225,8391332,,,2025-05-02,清算の結了等,,,2015-10-05,1,,,,,ジービーピー,0
1320,5290001079190,登記記録の閉鎖等,0,2025-05-19,2025-04-22,株式会社クラウドナイン,,株式会社,福岡県,糟屋郡篠栗町,大字尾仲７７３番地１４,,40,342,8112413,,,2025-04-22,清算の結了等,,,2017-09-27,1,,,,,クラウドナイン,0
1330,5290002005154,登記記録の閉鎖等,0,2025-05-19,2025-05-07,成和ホーム有限会社,,有限会社,福岡県,福岡市南区,柏原１丁目１番３５－３０１号,,40,134,8111353,,,2025-05-07,清算の結了等,,,2015-10-05,1,,,,,セイワホーム,0
1331,5290002010393,登記記録の閉鎖等,0,2025-05-19,2025-05-02,有限会社城戸ビル,,有限会社,福岡県,福岡市早良区,百道２丁目６番２－３１２号,,40,137,8140006,,,2025-05-02,清算の結了等,,,2015-10-05,1,,,,,キドビル,0
1349,5340005001822,登記記録の閉鎖等,0,2025-05-19,2025-05-12,特定非営利活動法人麻姑の手村,,その他の設立登記法人,鹿児島県,鹿児島市,慈眼寺町２２番１０号,,46,201,8910146,,,2025-05-12,清算の結了等,,,2015-10-05,1,,,,,マコノテムラ,0
1352,5360003010352,登記記録の閉鎖等,0,2025-05-19,2025-05-02,合同会社リブレ,,合同会社,沖縄県,宜野湾市,宇地泊２丁目１０番１１号,,47,205,9012227,,,2025-05-02,清算の結了等,,,2020-06-10,1,,,,,リブレ,0
1363,5400002010019,登記記録の閉鎖等,0,2025-05-19,2025-04-30,有限会社ケーシー,,有限会社,岩手県,北上市,さくら通り１丁目５番７号,,03,206,0240084,,,2025-04-30,清算の結了等,,,2015-10-05,1,,,,,ケーシー,0
1379,5470005004721,登記記録の閉鎖等,0,2025-05-19,2025-05-14,農事組合法人山田,,その他の設立登記法人,香川県,さぬき市,寒川町石田西２４９２番地１,,37,206,7692322,,,2025-05-14,清算の結了等,,,2015-10-05,1,,,,,ヤマダ,0
1385,6010001084201,登記記録の閉鎖等,0,2025-05-19,2025-05-01,株式会社ボンクレ,,株式会社,東京都,千代田区,飯田橋３丁目１１番１３号,,13,101,1020072,,,2025-05-01,合併による解散等,1010001095855,令和７年５月１日東京都千代田区飯田橋三丁目１１番１３号株式会社クリーブ（1010001095855）に合併し解散,2015-10-05,1,,,,,ボンクレ,0
1394,6010003020988,登記記録の閉鎖等,0,2025-05-19,2025-04-30,日光３７エトワール下馬合同会社,,合同会社,東京都,千代田区,丸の内１丁目４番１号東京共同会計事務所内,,13,101,1000005,,,2025-04-30,清算の結了等,,,2015-10-05,1,,,,,ニッコウサーティーセブンエトワールシモウマ,0
1396,6010005025283,登記記録の閉鎖等,0,2025-05-19,2025-05-12,一般社団法人ＨＴ＆Ｐ１０２,,その他の設立登記法人,東京都,文京区,千石４丁目２８番１号,,13,105,1120011,,,2025-05-12,清算の結了等,,,2016-04-22,1,,,,,エイチティーアンドピーイチマルニ,0
1411,6011101040770,登記記録の閉鎖等,0,2025-05-19,2025-04-21,株式会社エクサ,,株式会社,東京都,新宿区,神楽坂１丁目３番地,,13,104,1620825,,,2025-04-21,清算の結了等,,,2015-10-05,1,,,,,エクサ,0
1427,6012403000405,登記記録の閉鎖等,0,2025-05-19,2025-05-13,合名会社丸木屋,,合名会社,東京都,調布市,布田２丁目５０番地１,,13,208,1820024,,,2025-05-13,清算の結了等,,,2015-10-05,1,,,,,マルキヤ,0
1444,6021003011191,登記記録の閉鎖等,0,2025-05-19,2025-05-14,合同会社エフアニマート,,合同会社,埼玉県,所沢市,くすのき台３丁目１３番地の５キャッスル北の台３０１号室,,11,208,3590037,,,2025-05-14,清算の結了等,,,2021-12-21,1,,,,,エフアニマート,0
1446,6030001014429,登記記録の閉鎖等,0,2025-05-19,2025-05-13,株式会社ＫＳメタル,,株式会社,埼玉県,さいたま市西区,プラザ１番７号,,11,101,3310063,,,2025-05-13,清算の結了等,,,2015-10-05,1,,,,,ケーエスメタル,0
1447,6030001025062,登記記録の閉鎖等,0,2025-05-19,2025-05-13,株式会社マキノ電機,,株式会社,埼玉県,所沢市,星の宮２丁目３番３５号,,11,208,3591127,,,2025-05-13,清算の結了等,,,2015-10-05,1,,,,,マキノデンキ,0
1465,6050001006060,登記記録の閉鎖等,0,2025-05-19,2025-05-14,株式会社七会きのこセンター,,株式会社,茨城県,東茨城郡城里町,大字小勝１５６０番６,,08,310,3114402,,,2025-05-14,清算の結了等,,,2015-10-05,1,,,,,ナナカイキノコセンター,0
1473,6060002002454,登記記録の閉鎖等,0,2025-05-19,2025-05-09,有限会社尾島工務店,,有限会社,栃木県,宇都宮市,東峰町３０２９番地３１,,09,201,3210944,,,2025-05-09,清算の結了等,,,2015-10-05,1,,,,,オジマコウムテン,0
1476,6070001011117,登記記録の閉鎖等,0,2025-05-19,2025-05-12,グリーンメイツ株式会社,,株式会社,群馬県,安中市,古屋４７番４２,,10,211,3790131,,,2025-05-12,清算の結了等,,,2015-10-05,1,,,,,グリーンメイツ,0
1486,6080102006700,登記記録の閉鎖等,0,2025-05-19,2025-05-13,有限会社エビスヤ,,有限会社,静岡県,御殿場市,萩原９９７番地の１,,22,215,4120042,,,2025-05-13,清算の結了等,,,2015-10-05,1,,,,,エビスヤ,0
1493,6120001141940,登記記録の閉鎖等,0,2025-05-19,2025-05-07,マルエイ株式会社,,株式会社,大阪府,大阪市北区,豊崎７丁目７番１１号,,27,127,5310072,,,2025-05-07,清算の結了等,,,2015-10-05,1,,,,,マルエイ,0
1499,6120001264997,登記記録の閉鎖等,0,2025-05-19,2025-04-02,株式会社Ｍｏｍｅｎｔｏｕｓ,,株式会社,大阪府,大阪市中央区,船場中央１丁目３－２－１０１大阪デザインセンター内,,27,128,5410055,,,2025-04-02,清算の結了等,,,2024-05-20,1,,,,,モメンタス,0
1507,6120002079957,登記記録の閉鎖等,0,2025-05-19,2025-05-08,有限会社椿原工業,,有限会社,大阪府,門真市,北巣本町１１番９号,,27,223,5710073,,,2025-05-08,清算の結了等,,,2015-10-05,1,,,,,,0
1534,6180001082667,登記記録の閉鎖等,0,2025-05-19,2025-05-15,株式会社三英,,株式会社,愛知県,一宮市,奥町字郷中江東７５番地,,23,203,4910201,,,2025-05-15,清算の結了等,,,2015-10-05,1,,,,,サンエイ,0
1552,6200001032520,登記記録の閉鎖等,0,2025-05-19,2025-05-15,株式会社未来カーサービス,,株式会社,岐阜県,安八郡安八町,東結２０６３番地,,21,383,5030112,,,2025-05-15,清算の結了等,,,2016-01-29,1,,,,,ミライカーサービス,0
1557,6220002006356,登記記録の閉鎖等,0,2025-05-19,2025-05-14,有限会社蓮月,,有限会社,石川県,金沢市,片町１丁目１１番５号,,17,201,9200981,,,2025-05-14,清算の結了等,,,2015-10-05,1,,,,,,0
1602,6370002003396,登記記録の閉鎖等,0,2025-05-19,2025-05-02,有限会社タカセ,,有限会社,宮城県,仙台市太白区,西多賀４丁目１０番２５号,,04,104,9820034,,,2025-05-02,清算の結了等,,,2015-10-05,1,,,,,タカセ,0
1603,6370002013008,登記記録の閉鎖等,0,2025-05-19,2025-05-02,有限会社日野工務店,,有限会社,宮城県,仙台市青葉区,柏木１丁目７番１３号,,04,101,9810933,,,2025-05-02,清算の結了等,,,2015-10-05,1,,,,,ヒノコウムテン,0
1606,6390001012710,登記記録の閉鎖等,0,2025-05-19,2025-05-09,アグリドリーム株式会社,,株式会社,山形県,鶴岡市,藤島字笹花１１０番地,,06,203,9997601,,,2025-05-09,清算の結了等,,,2015-10-05,1,,,,,アグリドリーム,0
1617,6430002033544,登記記録の閉鎖等,0,2025-05-19,2025-05-14,有限会社札幌シビル,,有限会社,北海道,札幌市東区,北三十六条東１２丁目３番１２号,,01,103,0070836,,,2025-05-14,清算の結了等,,,2015-10-05,1,,,,,サッポロシビル,0
1620,6460101007322,登記記録の閉鎖等,0,2025-05-19,2025-05-09,株式会社ＣＯＲＳＡ,,株式会社,北海道,帯広市,西二十二条南１丁目９番地１２７,,01,207,0802472,,,2025-05-09,清算の結了等,,,2023-01-23,1,,,,,コルサ,0
1627,6490002011552,登記記録の閉鎖等,0,2025-05-19,2025-05-09,有限会社石川建設,,有限会社,高知県,南国市,田村乙１７２４番地,,39,204,7830092,,,2025-05-09,清算の結了等,,,2015-10-05,1,,,,,イシカワケンセツ,0
1646,7010003020962,登記記録の閉鎖等,0,2025-05-19,2025-04-30,日光１０フレスカ代々木上原合同会社,,合同会社,東京都,千代田区,丸の内１丁目４番１号東京共同会計事務所内,,13,101,1000005,,,2025-04-30,清算の結了等,,,2015-10-05,1,,,,,ニッコウテンフレスカヨヨギウエハラ,0
1647,7010003021052,登記記録の閉鎖等,0,2025-05-19,2025-04-30,日光１０１ライフ野江合同会社,,合同会社,東京都,千代田区,丸の内１丁目４番１号東京共同会計事務所内,,13,101,1000005,,,2025-04-30,清算の結了等,,,2015-10-05,1,,,,,ニッコウワンハンドレッドワンライフノエ,0
1656,7010401082613,登記記録の閉鎖等,0,2025-05-19,2025-05-12,株式会社キスオンザグリーン,,株式会社,神奈川県,川崎市多摩区,生田８丁目１９番１号,,14,135,2140038,,,2025-05-12,合併による解散等,4200001023554,令和７年５月１日岐阜県中津川市苗木４５８６番地の５０丸山木材ホールディングス株式会社（4200001023554）に合併し解散,2015-10-05,1,,,,,キスオンザグリーン,0
1683,7011202001836,登記記録の閉鎖等,0,2025-05-19,2025-05-13,有限会社クー,,有限会社,東京都,中野区,中野５丁目５１番２号,,13,114,1640001,,,2025-05-13,清算の結了等,,,2015-10-05,1,,,,,クー,0
1700,7012701016787,登記記録の閉鎖等,0,2025-05-19,2025-04-17,株式会社イーソリューション,,株式会社,東京都,豊島区,池袋２丁目５２－３ルミナリータワー５０９,,13,116,1710014,,,2025-04-17,清算の結了等,,,2021-11-22,1,,,,,イーソリューション,0
1727,7030001065058,登記記録の閉鎖等,0,2025-05-19,2025-05-07,株式会社セキュリティジャパン,,株式会社,埼玉県,越谷市,大字下間久里５２２番地２高千代第一ビル１階,,11,222,3430045,,,2025-05-07,清算の結了等,,,2015-10-05,1,,,,,セキュリティジャパン,0
1729,7030002076013,登記記録の閉鎖等,0,2025-05-19,2025-05-14,有限会社関根商事,,有限会社,埼玉県,ふじみ野市,上福岡１丁目１５番１０号,,11,245,3560004,,,2025-05-14,清算の結了等,,,2015-10-05,1,,,,,セキネショウジ,0
1733,7040001022017,登記記録の閉鎖等,0,2025-05-19,2025-04-28,株式会社Ｅ＆Ｅ,,株式会社,千葉県,船橋市,夏見１丁目９番２１－１０４号,,12,204,2730865,,,2025-04-28,清算の結了等,,,2015-10-05,1,,,,,イーアンドイー,0
1734,7040001025077,登記記録の閉鎖等,0,2025-05-19,2025-04-30,株式会社マッハクリエイティブ,,株式会社,千葉県,千葉市稲毛区,小中台町１５４６番地１稲毛スカイマンションＢ棟２０５号室,,12,103,2630044,,,2025-04-30,清算の結了等,,,2015-10-05,1,,,,,マッハクリエイティブ,0
1752,7070002034603,登記記録の閉鎖等,0,2025-05-19,2025-05-13,岩本木工有限会社,,有限会社,群馬県,沼田市,岩本町４番地,,10,206,3780021,,,2025-05-13,清算の結了等,,,2015-10-05,1,,,,,イワモトモッコウ,0
1762,7090005002761,登記記録の閉鎖等,0,2025-05-19,2025-05-13,農事組合法人風林果山,,その他の設立登記法人,山梨県,南アルプス市,上高砂１０９２番地,,19,208,4000201,,,2025-05-13,清算の結了等,,,2015-10-05,1,,,,,フウリンカザン,0
1794,7120902019615,登記記録の閉鎖等,0,2025-05-19,2025-05-01,有限会社フジテック工業,,有限会社,大阪府,豊中市,名神口１丁目８番１５号,,27,203,5610841,,,2025-05-01,清算の結了等,,,2015-10-05,1,,,,,,0
1803,7130001032080,登記記録の閉鎖等,0,2025-05-19,2025-05-15,京都観光バス株式会社,,株式会社,京都府,京都市山科区,東野舞台町１番地,,26,110,6078146,,,2025-05-15,合併による解散等,6122001014300,令和７年５月１日大阪府東大阪市高井田中三丁目６番２１号株式会社旭（6122001014300）に合併し解散,2015-10-05,1,,,,,キョウトカンコウバス,0
1811,7140001002768,登記記録の閉鎖等,0,2025-05-19,2025-05-13,洛水商事株式会社,,株式会社,兵庫県,神戸市東灘区,住吉宮町４丁目３番１３－１３０１号,,28,101,6580053,,,2025-05-13,清算の結了等,,,2015-10-05,1,,,,,ラクスイショウジ,0
1833,7180002045300,登記記録の閉鎖等,0,2025-05-19,2025-05-14,有限会社レーベン,,有限会社,愛知県,名古屋市名東区,社台１丁目６７番地の５,,23,115,4650092,,,2025-05-14,清算の結了等,,,2015-10-05,1,,,,,レーベン,0
1847,7190002008859,登記記録の閉鎖等,0,2025-05-19,2025-05-12,有限会社シヴィス・ノムラ,,有限会社,三重県,伊勢市,辻久留１丁目３番１５号,00075918,24,203,5160066,,,2025-05-12,清算の結了等,,,2015-10-05,1,,,,,シヴィスノムラ,0
1858,7240002048924,登記記録の閉鎖等,0,2025-05-19,2025-05-15,有限会社府中設備工業,,有限会社,広島県,安芸郡府中町,浜田４丁目６番１０－１号,,34,302,7350013,,,2025-05-15,清算の結了等,,,2015-10-05,1,,,,,フチュウセツビコウギョウ,0
1875,7290002049694,登記記録の閉鎖等,0,2025-05-19,2025-05-09,日昇製粉有限会社,,有限会社,福岡県,久留米市,大石町３４５番地,,40,203,8300049,,,2025-05-09,清算の結了等,,,2015-10-05,1,,,,,ニッショウセイフン,0
1878,7330001022318,登記記録の閉鎖等,0,2025-05-19,2025-05-13,ＤＡＩＺ株式会社,,株式会社,熊本県,熊本市中央区,南熊本５丁目１番１号,,43,101,8600812,,,2025-05-13,合併による解散等,4010001241563,令和７年４月１日東京都千代田区麹町三丁目２番４号ＳｐｒｏｕＴｘ株式会社（4010001241563）に合併し解散,2015-12-07,1,DAIZ Inc.,Kumamoto,"5-1-1 Minami-kumamoto, Chuo-ku, Kumamoto shi",,ダイズ,0
1879,7340005006142,登記記録の閉鎖等,0,2025-05-19,2025-05-09,農事組合法人瀬谷茶生産組合,,その他の設立登記法人,鹿児島県,南九州市,頴娃町郡５１５２番地１,,46,223,8910701,,,2025-05-09,清算の結了等,,,2015-10-05,1,,,,,セタニチャセイサンクミアイ,0
1882,7370001038797,登記記録の閉鎖等,0,2025-05-19,2025-05-02,株式会社東北マグネットインスティテュート,,株式会社,宮城県,名取市,増田字北谷１１番地,,04,207,9811224,,,2025-05-02,清算の結了等,,,2015-11-17,1,,,,,トウホクマグネットインスティテュート,0
1935,8010902001970,登記記録の閉鎖等,0,2025-05-19,2025-04-18,ＡＤＶＡＮＣＥリアルエステート株式会社,,株式会社,東京都,新宿区,百人町２丁目４番５号,,13,104,1690073,,,2025-04-18,清算の結了等,,,2015-10-05,1,,,,,アドバンスリアルエステート,0
1942,8011101057771,登記記録の閉鎖等,0,2025-05-19,2025-05-13,株式会社ｔａｄｐｏｌｅ－ｌａｂ,,株式会社,東京都,新宿区,中落合１丁目３番１５号,,13,104,1610032,,,2025-05-13,清算の結了等,,,2015-10-05,1,,,,,タッドポールラボ,0
1963,8013305000499,登記記録の閉鎖等,0,2025-05-19,2025-04-28,東京瓦事業協同組合,,その他の設立登記法人,東京都,豊島区,巣鴨５丁目４０番５号,,13,116,1700002,,,2025-04-28,清算の結了等,,,2015-10-05,1,,,,,トウキョウカワラ,0
1971,8020001114112,登記記録の閉鎖等,0,2025-05-19,2025-05-01,インターセクション株式会社,,株式会社,神奈川県,横浜市保土ケ谷区,川辺町２番地５,,14,106,2400001,,,2025-05-01,合併による解散等,8020001101829,令和７年５月１日横浜市保土ケ谷区天王町一丁目２７番地の６株式会社アンジェ（8020001101829）に合併し解散,2015-12-24,1,,,,,インターセクション,0
1977,8021001021554,登記記録の閉鎖等,0,2025-05-19,2025-05-01,株式会社メルシーネット,,株式会社,神奈川県,厚木市,林５丁目８番８号,,14,212,2430816,,,2025-05-01,合併による解散等,9021002034042,令和７年５月１日神奈川県厚木市林五丁目８番８号株式会社メルシーネット（9021002034042）に合併し解散,2015-10-05,1,,,,,メルシーネット,0
1990,8040001134190,登記記録の閉鎖等,0,2025-05-19,2025-04-28,株式会社チームアヤメ,,株式会社,千葉県,野田市,桐ケ作１０３８番地５,,12,208,2700213,,,2025-04-28,清算の結了等,,,2024-06-25,1,,,,,チームアヤメ,0
1997,8060002000217,登記記録の閉鎖等,0,2025-05-19,2025-05-13,有限会社新電工,,有限会社,栃木県,宇都宮市,白沢町２０１７番地１９５,,09,201,3291102,,,2025-05-13,清算の結了等,,,2015-10-05,1,,,,,シンデンコウ,0
1998,8070002004282,登記記録の閉鎖等,0,2025-05-19,2025-05-07,有限会社畠山工芸,,有限会社,群馬県,前橋市,上大島町２１８番地の８,,10,201,3792153,,,2025-05-07,清算の結了等,,,2015-10-05,1,,,,,ハタケヤマコウゲイ,0
1999,8070002027861,登記記録の閉鎖等,0,2025-05-19,2025-05-13,有限会社アズトア,,有限会社,群馬県,太田市,高林東町１８０４番地５,,10,205,3730825,,,2025-05-13,清算の結了等,,,2015-10-05,1,,,,,アズトア,0
2006,8090003002309,登記記録の閉鎖等,0,2025-05-19,2025-05-09,合同会社ＨＢＳ　Ｆａｃｔｏｒｙ,,合同会社,山梨県,西八代郡市川三郷町,大塚４３３３番地１,,19,346,4093611,,,2025-05-09,清算の結了等,,,2023-05-12,1,,,,,エイチビーエスファクトリー,0
2008,8110001029854,登記記録の閉鎖等,0,2025-05-19,2025-04-30,株式会社エルエル,,株式会社,新潟県,上越市,寺町１丁目１８番１５号,,15,222,9430892,,,2025-04-30,清算の結了等,,,2015-10-05,1,,,,,エルエル,0
2016,8120001268220,登記記録の閉鎖等,0,2025-05-19,2025-05-08,大豊運輸株式会社,,株式会社,大阪府,大阪市生野区,巽中１丁目８番１３号野本マンション１０２,,27,116,5440013,,,2025-05-08,清算の結了等,,,2024-09-02,1,,,,,タイホウウンユ,0
2043,8140001059353,登記記録の閉鎖等,0,2025-05-19,2025-05-13,株式会社柴田商会,,株式会社,兵庫県,姫路市,東駅前町３１番地,,28,201,6700926,,,2025-05-13,清算の結了等,,,2015-10-05,1,,,,,シバタショウカイ,0
2046,8140005022398,登記記録の閉鎖等,0,2025-05-19,2025-05-12,一般社団法人フューチャーズコレクション,,その他の設立登記法人,兵庫県,たつの市,龍野町富永２２３番地１,,28,229,6794167,,,2025-05-12,清算の結了等,,,2015-10-05,1,,,,,フューチャーズコレクション,0
2052,8180001081840,登記記録の閉鎖等,0,2025-05-19,2025-05-12,株式会社オフィスプライム,,株式会社,愛知県,瀬戸市,苗場町１５０番地,,23,204,4890983,,,2025-05-12,清算の結了等,,,2015-10-05,1,,,,,オフィスプライム,0
2056,8180001123881,登記記録の閉鎖等,0,2025-05-19,2025-05-12,イオシン・ジャパン株式会社,,株式会社,愛知県,名古屋市東区,出来町３丁目２０番１５号,,23,102,4610032,,,2025-05-12,清算の結了等,,,2016-06-29,1,,,,,イオシンジャパン,0
2059,8180001136495,登記記録の閉鎖等,0,2025-05-19,2025-05-15,株式会社Ｅａｔｌｉｎｘ,,株式会社,愛知県,名古屋市千種区,田代町字蝮池上１０７番地の５,,23,101,4640054,,,2025-05-15,清算の結了等,,,2019-05-13,1,,,,,イートリンクス,0
2065,8180002018882,登記記録の閉鎖等,0,2025-05-19,2025-05-15,有限会社中村硝子店,,有限会社,愛知県,名古屋市中川区,八熊２丁目７番２号,,23,110,4540013,,,2025-05-15,清算の結了等,,,2015-10-05,1,,,,,ナカムラガラステン,0
2066,8180005007255,登記記録の閉鎖等,0,2025-05-19,2025-05-15,社会保険労務士法人Ｔ＆Ｍ,,その他の設立登記法人,愛知県,名古屋市北区,清水５丁目９番５号,,23,103,4620844,,,2025-05-15,清算の結了等,,,2015-10-05,1,,,,,ティーアンドエム,0
2072,8230001005315,登記記録の閉鎖等,0,2025-05-19,2025-05-12,タカノトレーディング株式会社,,株式会社,富山県,富山市,八尾町井田５７８番地３,,16,201,9392306,,,2025-05-12,清算の結了等,,,2015-10-05,1,,,,,タカノトレーディング,0
2076,8240003003290,登記記録の閉鎖等,0,2025-05-19,2025-05-15,合同会社松谷興業,,合同会社,広島県,広島市東区,中山上２丁目２５番２８号,,34,102,7320027,,,2025-05-15,清算の結了等,,,2016-05-19,1,,,,,マツタニコウギョウ,0
2089,8290002018442,登記記録の閉鎖等,0,2025-05-19,2025-05-01,有限会社ゼンコー,,有限会社,福岡県,福岡市中央区,白金１丁目２番２１号,,40,133,8100012,,,2025-05-01,合併による解散等,2290001002254,令和７年５月１日福岡市中央区白金一丁目２番２１号株式会社地域みらいグループ（2290001002254）に合併し解散,2015-10-05,1,,,,,ゼンコー,0
2095,8340001002284,登記記録の閉鎖等,0,2025-05-19,2025-05-12,株式会社スタイル,,株式会社,鹿児島県,鹿児島市,東千石町１０番１５号,,46,201,8920842,,,2025-05-12,清算の結了等,,,2015-10-05,1,,,,,スタイル,0
2104,8390001010951,登記記録の閉鎖等,0,2025-05-19,2025-05-12,株式会社東沢米翔,,株式会社,山形県,東置賜郡川西町,大字上奥田２３９１番地,,06,382,9990152,,,2025-05-12,清算の結了等,,,2015-10-05,1,,,,,ヒガシザワコメショウ,0
2107,8390002015181,登記記録の閉鎖等,0,2025-05-19,2025-05-12,有限会社テクノセール,,有限会社,山形県,西置賜郡白鷹町,大字横田尻５９０５番地１,,06,402,9920772,,,2025-05-12,清算の結了等,,,2015-10-05,1,,,,,テクノセール,0
2124,8460002000135,登記記録の閉鎖等,0,2025-05-19,2025-05-15,有限会社アムズ,,有限会社,北海道,釧路郡釧路町,曙１丁目２番地１４,,01,661,0880616,,,2025-05-15,清算の結了等,,,2015-10-05,1,,,,,アムズ,0
2128,8490002011484,登記記録の閉鎖等,0,2025-05-19,2025-05-16,有限会社神戸屋,,有限会社,高知県,南国市,稲生２５３２番地,,39,204,7830084,,,2025-05-16,清算の結了等,,,2015-10-05,1,,,,,コウベヤ,0
2137,9010001056338,登記記録の閉鎖等,0,2025-05-19,2025-04-28,株式会社ブレーンバンクス,,株式会社,東京都,中央区,新富２丁目１４番１１号,,13,102,1040041,,,2025-04-28,清算の結了等,,,2015-10-05,1,,,,,ブレーンバンクス,0
2140,9010001174643,登記記録の閉鎖等,0,2025-05-19,2025-05-14,株式会社Ｆｒｅｕｄｅ,,株式会社,東京都,中央区,築地６丁目２６番１号,,13,102,1040045,,,2025-05-14,合併による解散等,4010001060006,令和７年５月１日東京都江東区豊洲六丁目３番１号米金青果株式会社（4010001060006）に合併し解散,2016-04-01,1,,,,,フロイデ,0
2141,9010001209250,登記記録の閉鎖等,0,2025-05-19,2025-04-10,ファインネットアド株式会社,,株式会社,東京都,港区,東新橋１丁目５番２号汐留シティセンター５階,,13,103,1050021,,,2025-04-10,清算の結了等,,,2020-04-22,1,,,,,ファインネットアド,0
2164,9010601046291,登記記録の閉鎖等,0,2025-05-19,2025-05-14,株式会社ファウンテンコーポレーション,,株式会社,神奈川県,秦野市,落合下河内３７７番１号,,14,211,2570025,,,2025-05-14,合併による解散等,7010601066804,令和７年４月２９日東京都江東区牡丹３－２４－６－６０２株式会社イズミバンク（7010601066804）に合併し解散,2015-10-05,1,,,,,ファウンテンコーポレーション,0
2166,9010701024874,登記記録の閉鎖等,0,2025-05-19,2025-04-18,株式会社ＩｏＴエンターテインメント,,株式会社,東京都,品川区,大井１丁目２３番１号カクタビル８階,,13,109,1400014,,,2025-04-18,清算の結了等,,,2015-10-05,1,,,,,アイオーティーエンターテインメント,0
2171,9011001147861,登記記録の閉鎖等,0,2025-05-19,2025-04-15,株式会社ＮＯＶＥＬＰＩＡ　ＪＡＰＡＮ,,株式会社,東京都,渋谷区,広尾１丁目１－３９恵比寿プライムスクエアタワー１３階Ｂ,,13,113,1500012,,,2025-04-15,清算の結了等,,,2022-06-07,1,,,,,ノベルピアジャパン,0
2174,9011005010058,登記記録の閉鎖等,0,2025-05-19,2025-04-16,一般社団法人ｓｈｏｈｏｏ,,その他の設立登記法人,東京都,渋谷区,神宮前５丁目５０番５号,,13,113,1500001,,,2025-04-16,清算の結了等,,,2023-04-26,1,,,,,ショホー,0
2210,9020002091630,登記記録の閉鎖等,0,2025-05-19,2025-05-08,有限会社オフィス・コバヤシ,,有限会社,神奈川県,川崎市多摩区,菅馬場３丁目１９番５号,,14,135,2140004,,,2025-05-08,清算の結了等,,,2015-10-05,1,,,,,オフィスコバヤシ,0
2236,9040002094788,登記記録の閉鎖等,0,2025-05-19,2025-05-14,有限会社誠和鉄筋,,有限会社,千葉県,柏市,酒井根７丁目４番１６号,,12,217,2770053,,,2025-05-14,合併による解散等,1040001021718,令和７年５月１日茨城県つくば市島名大字入谷津３５９６－１志村工業株式会社（1040001021718）に合併し解散,2015-10-05,1,,,,,セイワテッキン,0
2245,9060002018695,登記記録の閉鎖等,0,2025-05-19,2025-05-13,有限会社みづい,,有限会社,栃木県,芳賀郡芳賀町,大字西水沼４３８番地２,,09,345,3213324,,,2025-05-13,清算の結了等,,,2015-10-05,1,,,,,ミヅイ,0
2253,9100001003966,登記記録の閉鎖等,0,2025-05-19,2025-05-15,株式会社西条印刷所,,株式会社,長野県,上水内郡小川村,大字高府８４６４番地３,,20,588,3813302,,,2025-05-15,清算の結了等,,,2015-10-05,1,,,,,ニシジョウインサツジョ,0
2257,9110005009703,登記記録の閉鎖等,0,2025-05-19,2025-05-02,農事組合法人北田中,,その他の設立登記法人,新潟県,上越市,大字北田中１７２番地１,,15,222,9430106,,,2025-05-02,清算の結了等,,,2015-10-05,1,,,,,キタタナカ,0
2269,9120001267320,登記記録の閉鎖等,0,2025-05-19,2025-05-09,嘉安株式会社,,株式会社,大阪府,大阪市城東区,関目５丁目１９番９号関目花博公館６０３Ｂ,,27,118,5360008,,,2025-05-09,清算の結了等,,,2024-08-01,1,,,,,カアン,0
2270,9120001267907,登記記録の閉鎖等,0,2025-05-19,2025-05-07,株式会社フレスカ不動産販売,,株式会社,大阪府,大阪市中央区,上汐２丁目３番５号,,27,128,5420064,,,2025-05-07,清算の結了等,,,2024-08-22,1,,,,,フレスカフドウサンハンバイ,0
2279,9120101009358,登記記録の閉鎖等,0,2025-05-19,2025-05-09,日食物産株式会社,,株式会社,大阪府,堺市南区,庭代台４丁３６番８号,,27,145,5900133,,,2025-05-09,清算の結了等,,,2015-10-05,1,,,,,ニッショクブッサン,0
2287,9120902021065,登記記録の閉鎖等,0,2025-05-19,2025-05-09,有限会社能勢都市地域計画フロンティア,,有限会社,大阪府,豊中市,上野西３丁目１９番６６号,,27,203,5600011,,,2025-05-09,清算の結了等,,,2015-10-05,1,,,,,ノセトシチイキケイカクフロンティア,0
2304,9180001086236,登記記録の閉鎖等,0,2025-05-19,2025-05-14,株式会社マイサポート,,株式会社,愛知県,稲沢市,天池五反田町１番地,,23,220,4928275,,,2025-05-14,清算の結了等,,,2015-10-05,1,,,,,マイサポート,0
2305,9180001103049,登記記録の閉鎖等,0,2025-05-19,2025-05-14,株式会社インデックス,,株式会社,愛知県,名古屋市南区,明治１丁目１２番２８号,,23,112,4570861,,,2025-05-14,清算の結了等,,,2015-10-05,1,,,,,インデックス,0
2322,9220001014349,登記記録の閉鎖等,0,2025-05-19,2025-05-14,株式会社エースウェア,,株式会社,石川県,金沢市,本町２丁目１５番１号ポルテ金沢１２階,,17,201,9200853,,,2025-05-14,合併による解散等,2010401149805,令和７年４月１日東京都港区麻布台一丁目３番１号株式会社エースホールディングス（2010401149805）に合併し解散,2015-10-05,1,,,,,エースウェア,0
2328,9240002050192,登記記録の閉鎖等,0,2025-05-19,2025-05-14,大浦建設有限会社,,有限会社,広島県,尾道市,栗原町８４２１番地の２,,34,205,7220022,,,2025-05-14,清算の結了等,,,2015-10-05,1,,,,,オオウラケンセツ,0
2334,9260001026514,登記記録の閉鎖等,0,2025-05-19,2025-05-08,株式会社ワークハウスふれあい庵,,株式会社,岡山県,浅口郡里庄町,大字里見４３７３番地１,,33,445,7190301,,,2025-05-08,清算の結了等,,,2015-10-05,1,,,,,ワークハウスフレアイアン,0
2358,9310003002202,登記記録の閉鎖等,0,2025-05-19,2025-05-15,合同会社新進機工舎,,合同会社,長崎県,平戸市,岩の上町字横久保７７９番地の４,,42,207,8595121,,,2025-05-15,清算の結了等,,,2015-10-05,1,,,,,シンシンキコウシャ,0
2387,9420003000368,登記記録の閉鎖等,0,2025-05-19,2025-05-02,ランドリーなかじま合同会社,,合同会社,青森県,青森市,大字新城字平岡９０２番地,,02,201,0380042,,,2025-05-02,合併による解散等,8420001000560,令和７年５月１日青森市篠田二丁目２３番８号株式会社大島ランドリー（8420001000560）に合併し解散,2015-10-05,1,,,,,ランドリーナカジマ,0
2389,9430001043715,登記記録の閉鎖等,0,2025-05-19,2025-05-12,株式会社田森室内装飾,,株式会社,北海道,恵庭市,和光町３丁目１番１０号,,01,231,0611406,,,2025-05-12,清算の結了等,,,2015-10-05,1,,,,,タモリシツナイソウショク,0
2399,9480002009990,登記記録の閉鎖等,0,2025-05-19,2025-05-14,有限会社リフォームセンター阿波,,有限会社,徳島県,阿波市,市場町山野上字末広１３８番地,,36,206,7711624,,,2025-05-14,清算の結了等,,,2015-10-05,1,,,,,リフォームセンターアワ,0
2404,9500002017603,登記記録の閉鎖等,0,2025-05-19,2025-05-14,有限会社アイ・ディー・イー・企画,,有限会社,愛媛県,今治市,大西町新町甲４４８番地２２,,38,202,7992203,,,2025-05-14,清算の結了等,,,2015-10-05,1,,,,,アイディーイーキカク,0
