sequenceNumber,corporateNumber,process,correct,updateDate,changeDate,name,nameImageId,kind,prefectureName,cityName,streetNumber,addressImageId,prefectureCode,cityCode,postCode,addressOutside,addressOutsideImageId,closeDate,closeCause,successorCorporateNumber,changeCause,assignmentDate,latest,enName,enPrefectureName,enCityName,enAddressOutside,furigana,hihyoji
1,1010001041223,登記記録の閉鎖等,0,2025-03-26,2025-03-12,株式会社銀座メンズ・ウエアー,,株式会社,東京都,中央区,銀座６丁目４番５号,,13,102,1040061,,,2025-03-12,清算の結了等,,,2015-10-05,1,,,,,ギンザメンズウエアー,0
45,1010801001954,登記記録の閉鎖等,0,2025-03-26,2025-03-11,株式会社オーエスジャパン,,株式会社,東京都,大田区,東海３丁目６番３号,,13,111,1430001,,,2025-03-11,清算の結了等,,,2015-10-05,1,,,,,オーエスジャパン,0
69,1012405004549,登記記録の閉鎖等,0,2025-03-26,2025-03-24,一般社団法人表現の学校,,その他の設立登記法人,東京都,武蔵野市,中町２丁目２０番３号７,,13,203,1800006,,,2025-03-24,清算の結了等,,,2021-02-15,1,,,,,ヒョウゲンノガッコウ,0
91,1021001061391,登記記録の閉鎖等,0,2025-03-26,2025-03-21,蘭株式会社,,株式会社,神奈川県,藤沢市,長後６８５番地,,14,205,2520801,,,2025-03-21,清算の結了等,,,2017-02-14,1,,,,,ラン,0
95,1030001157595,登記記録の閉鎖等,0,2025-03-26,2025-03-21,岡戸ワイシャツ工業株式会社,,株式会社,埼玉県,羽生市,南２丁目２番２号,,11,216,3480053,,,2025-03-21,清算の結了等,,,2023-12-19,1,,,,,オカドワイシャツコウギョウ,0
98,1030002070707,登記記録の閉鎖等,0,2025-03-26,2025-03-12,株式会社ＡＩ,,株式会社,東京都,千代田区,丸の内３丁目４番１号新国際ビル４階,,13,101,1000005,,,2025-03-12,清算の結了等,,,2015-10-05,1,,,,,エーアイ,0
102,1040001049544,登記記録の閉鎖等,0,2025-03-26,2025-03-13,株式会社ジェイプラン,,株式会社,千葉県,佐倉市,大蛇町６７７番地４１,,12,212,2850043,,,2025-03-13,清算の結了等,,,2015-10-05,1,,,,,ジェイプラン,0
118,1060002017837,登記記録の閉鎖等,0,2025-03-26,2025-03-24,有限会社大畑モータース,,有限会社,栃木県,真岡市,久下田１４８６番地１,,09,209,3214521,,,2025-03-24,清算の結了等,,,2015-10-05,1,,,,,オオハタモータース,0
120,1070002019816,登記記録の閉鎖等,0,2025-03-26,2025-03-21,ミクロ設計有限会社,,有限会社,群馬県,伊勢崎市,境小此木６１６番地,,10,204,3700135,,,2025-03-21,清算の結了等,,,2015-10-05,1,,,,,ミクロセッケイ,0
135,1120001138207,登記記録の閉鎖等,0,2025-03-26,2025-03-19,オーユーコンテナ株式会社,,株式会社,大阪府,東大阪市,額田町２番３３号,,27,227,5798021,,,2025-03-19,清算の結了等,,,2015-10-05,1,,,,,オーユーコンテナ,0
139,1120001245762,登記記録の閉鎖等,0,2025-03-26,2025-03-17,株式会社Ｖｅｒｔｅｘ　Ｊａｐａｎ,,株式会社,大阪府,大阪市北区,西天満３丁目４番５号西天満ワークビル５０４号室,,27,127,5300047,,,2025-03-17,清算の結了等,,,2022-05-09,1,,,,,バーテックスジャパン,0
149,1120002081422,登記記録の閉鎖等,0,2025-03-26,2025-03-17,有限会社大成タクシー,,有限会社,兵庫県,神戸市中央区,雲井通２丁目１番１４号,,28,110,6510096,,,2025-03-17,合併による解散等,1140002021525,令和７年３月１７日神戸市中央区雲井通二丁目１番１４号大成交通株式会社（1140002021525）に合併し解散,2015-10-05,1,,,,,タイセイタクシー,0
171,1140002040095,登記記録の閉鎖等,0,2025-03-26,2025-03-21,有限会社エースプランナー,,有限会社,兵庫県,尼崎市,南武庫之荘８丁目５番８号,,28,202,6610033,,,2025-03-21,合併による解散等,1120901020637,令和７年３月１日大阪府箕面市稲六丁目２番１号攝津電機工業株式会社（1120901020637）に合併し解散,2015-10-05,1,,,,,,0
178,1160005011257,登記記録の閉鎖等,0,2025-03-26,2025-03-21,一般社団法人ミカタコンシェルジュ,,その他の設立登記法人,滋賀県,草津市,野路１丁目１５番５号フェリエ南草津４Ｆ,,25,206,5250059,,,2025-03-21,清算の結了等,,,2023-12-22,1,,,,,ミカタコンシェルジュ,0
209,1210002011824,登記記録の閉鎖等,0,2025-03-26,2025-03-25,有限会社内藤金型製作所,,有限会社,福井県,越前市,池ノ上町第５７号３番地の６,,18,209,9150873,,,2025-03-25,清算の結了等,,,2015-10-05,1,,,,,ナイトウカナガタセイサクショ,0
218,1270001004229,登記記録の閉鎖等,0,2025-03-26,2025-03-21,株式会社マックスサポート,,株式会社,鳥取県,米子市,東町２３４番地,,31,202,6830067,,,2025-03-21,合併による解散等,2270001001068,令和７年３月２１日鳥取市新品治町１番地２中国電力鳥取支社ビル１階株式会社エヌ・エル・エヌ（2270001001068）に合併し解散,2015-10-05,1,,,,,マックスサポート,0
221,1290001036468,登記記録の閉鎖等,0,2025-03-26,2025-03-10,株式会社ファール,,株式会社,福岡県,福津市,手光２４６１番地の２,,40,224,8113224,,,2025-03-10,清算の結了等,,,2015-10-05,1,,,,,ファール,0
230,1290002053017,登記記録の閉鎖等,0,2025-03-26,2025-03-03,有限会社ウメノ,,有限会社,福岡県,みやま市,瀬高町本吉８８３番地,,40,229,8350003,,,2025-03-03,清算の結了等,,,2015-10-05,1,,,,,ウメノ,0
242,1350003003534,登記記録の閉鎖等,0,2025-03-26,2025-03-24,ＨＯＰＥ合同会社,,合同会社,宮崎県,都城市,高城町石山３９４５－７,,45,202,8851205,,,2025-03-24,清算の結了等,,,2020-03-10,1,,,,,ホープ,0
243,1360001031172,登記記録の閉鎖等,0,2025-03-26,2025-03-24,株式会社ハナオクリエイティブ,,株式会社,沖縄県,中頭郡読谷村,字座喜味２７１７番地７０,,47,324,9040301,,,2025-03-24,清算の結了等,,,2022-11-10,1,,,,,ハナオクリエイティブ,0
245,1370001022897,登記記録の閉鎖等,0,2025-03-26,2025-03-12,ジャック株式会社,,株式会社,宮城県,仙台市青葉区,川内中ノ瀬町１８番地,,04,101,9800854,,,2025-03-12,清算の結了等,,,2015-10-05,1,,,,,ジャック,0
246,1370001023953,登記記録の閉鎖等,0,2025-03-26,2025-03-18,株式会社えすと総合開発,,株式会社,宮城県,仙台市青葉区,落合１丁目１８番７号,,04,101,9893126,,,2025-03-18,清算の結了等,,,2015-10-05,1,,,,,エストソウゴウカイハツ,0
256,1430001047310,登記記録の閉鎖等,0,2025-03-26,2025-03-19,株式会社空知燃料センター,,株式会社,北海道,夕張郡栗山町,中央１丁目９９番地,,01,429,0691511,,,2025-03-19,清算の結了等,,,2015-10-05,1,,,,,ソラチネンリョウセンター,0
262,1460105001466,登記記録の閉鎖等,0,2025-03-26,2025-03-24,道東ラーチ企業組合,,その他の設立登記法人,北海道,十勝郡浦幌町,字帯富６９番地の７,,01,649,0895634,,,2025-03-24,清算の結了等,,,2015-10-05,1,,,,,ドウトウラーチ,0
272,2010001149924,登記記録の閉鎖等,0,2025-03-26,2025-03-03,株式会社ＳＥＬＦ　ＪＡＰＡＮ,,株式会社,東京都,千代田区,大手町１丁目１番３号,,13,101,1000004,,,2025-03-03,合併による解散等,7010401086168,令和７年３月１日東京都千代田区大手町一丁目１番３号株式会社ＬＥＯＣ（7010401086168）に合併し解散,2015-10-05,1,,,,,セルフジャパン,0
275,2010001234536,登記記録の閉鎖等,0,2025-03-26,2025-03-12,株式会社かわかん,,株式会社,東京都,中央区,銀座１丁目１２－４－６Ｆ,,13,102,1040061,,,2025-03-12,清算の結了等,,,2023-04-18,1,,,,,カワカン,0
285,2010401047158,登記記録の閉鎖等,0,2025-03-26,2025-02-27,東亜不動産株式会社,,株式会社,東京都,港区,元赤坂１丁目６番４号,,13,103,1070051,,,2025-02-27,清算の結了等,,,2017-05-12,1,,,,,トウアフドウサン,0
292,2010405018964,登記記録の閉鎖等,0,2025-03-26,2025-03-21,福岡篠栗特定目的会社,,その他の設立登記法人,東京都,千代田区,霞が関３丁目２番５号,,13,101,1000013,,,2025-03-21,清算の結了等,,,2020-08-12,1,,,,,フクオカササグリ,0
298,2010801029508,登記記録の閉鎖等,0,2025-03-26,2025-03-11,株式会社Ａｎｃｈｏｒ,,株式会社,東京都,大田区,東矢口１丁目１２番３号,,13,111,1460094,,,2025-03-11,清算の結了等,,,2019-01-18,1,,,,,アンカー,0
314,2011605002502,登記記録の閉鎖等,0,2025-03-26,2025-03-12,一般社団法人カザフスタン文化センター,,その他の設立登記法人,東京都,練馬区,土支田４丁目１８番３４号,,13,120,1790076,,,2025-03-12,清算の結了等,,,2023-03-17,1,,,,,カザフスタンブンカセンター,0
317,2011701025885,登記記録の閉鎖等,0,2025-03-26,2025-03-21,サトシマトリックス株式会社,,株式会社,東京都,江戸川区,船堀３丁目７番１１号矢島ビル２０２号,,13,123,1340091,,,2025-03-21,清算の結了等,,,2022-12-19,1,,,,,サトシマトリックス,0
321,2011802014705,登記記録の閉鎖等,0,2025-03-26,2025-03-24,有限会社関根工機,,有限会社,東京都,足立区,江北２丁目１６番６号,,13,121,1230872,,,2025-03-24,清算の結了等,,,2015-10-05,1,,,,,セキネコウキ,0
341,2030002049064,登記記録の閉鎖等,0,2025-03-26,2025-03-21,有限会社新解,,有限会社,埼玉県,三郷市,戸ケ崎２２６７番地１８,,11,237,3410044,,,2025-03-21,清算の結了等,,,2015-10-05,1,,,,,シンカイ,0
359,2080002018634,登記記録の閉鎖等,0,2025-03-26,2025-03-21,有限会社ハネダ・カンパニー,,有限会社,静岡県,牧之原市,波津１６５３番地,,22,226,4210523,,,2025-03-21,清算の結了等,,,2015-10-05,1,,,,,ハネダカンパニー,0
374,2100002028317,登記記録の閉鎖等,0,2025-03-26,2025-03-21,株式会社塚腰運送ＳＨＩＮＡＮＯ,00116134,株式会社,京都府,京都市下京区,木津屋橋通大宮東入上之町４４４番地,,26,106,6008266,,,2025-03-21,合併による解散等,2130001018084,令和７年３月２１日京都市下京区木津屋橋通大宮東入上之町４４４番地株式会社塚腰運送（2130001018084）に合併し解散,2015-10-05,1,,,,,ツカゴシウンソウシナノ,0
396,2120101039733,登記記録の閉鎖等,0,2025-03-26,2025-03-17,島本運輸倉庫株式会社,,株式会社,大阪府,泉佐野市,鶴原３丁目８番２８号,,27,213,5980071,,,2025-03-17,清算の結了等,,,2015-10-05,1,,,,,シマモトウンユソウコ,0
411,2130005012356,登記記録の閉鎖等,0,2025-03-26,2025-03-25,特定非営利活動法人京都マンション管理評価機構,,その他の設立登記法人,京都府,京都市上京区,新町通上長者下ル元頂妙寺町２９８番地澤井ビル３階,,26,102,6020000,,,2025-03-25,清算の結了等,,,2015-10-05,1,,,,,キョウトマンションカンリヒョウカキコウ,0
429,2150003001961,登記記録の閉鎖等,0,2025-03-26,2025-03-24,合同会社青空,,合同会社,奈良県,奈良市,東九条町７２１番地の１９,,29,201,6308144,,,2025-03-24,清算の結了等,,,2019-06-26,1,,,,,アオゾラ,0
431,2160002012059,登記記録の閉鎖等,0,2025-03-26,2025-03-25,有限会社ケイムズ,,有限会社,滋賀県,草津市,南笠町１０８８番地の９,,25,206,5250056,,,2025-03-25,清算の結了等,,,2015-10-05,1,,,,,ケイムズ,0
438,2180001019128,登記記録の閉鎖等,0,2025-03-26,2025-03-21,株式会社岡忠工作所,,株式会社,愛知県,名古屋市中川区,四女子町１丁目５５番地,,23,110,4540822,,,2025-03-21,清算の結了等,,,2015-10-05,1,,,,,オカチュウコウサクショ,0
441,2180001145576,登記記録の閉鎖等,0,2025-03-26,2025-03-21,株式会社Ｌ’ｓ不動産,,株式会社,愛知県,名古屋市北区,如意１丁目１１２番地,,23,103,4620007,,,2025-03-21,清算の結了等,,,2021-04-08,1,,,,,エルズフドウサン,0
461,2220001002095,登記記録の閉鎖等,0,2025-03-26,2025-03-19,株式会社金沢センタービル,,株式会社,石川県,金沢市,松島１丁目３２番地４,,17,201,9200364,,,2025-03-19,清算の結了等,,,2015-10-05,1,,,,,カナザワセンタービル,0
475,2260001022866,登記記録の閉鎖等,0,2025-03-26,2025-03-05,株式会社冨久屋,,株式会社,岡山県,真庭市,蒜山中福田２２７番地,,33,214,7170501,,,2025-03-05,清算の結了等,,,2015-10-05,1,,,,,フクヤ,0
492,2320001017950,登記記録の閉鎖等,0,2025-03-26,2025-03-21,株式会社はまだぐみ,,株式会社,大分県,佐伯市,鶴見大字沖松浦１１１１番地,,44,205,8761203,,,2025-03-21,清算の結了等,,,2020-10-08,1,,,,,ハマダグミ,0
500,2340002009094,登記記録の閉鎖等,0,2025-03-26,2025-03-24,有限会社マルデン,,有限会社,鹿児島県,鹿児島市,下伊敷３丁目６４番１３号,,46,201,8900005,,,2025-03-24,清算の結了等,,,2015-10-05,1,,,,,マルデン,0
504,2360003012847,登記記録の閉鎖等,0,2025-03-26,2025-03-24,エデュケーション・アローズ合同会社,,合同会社,沖縄県,沖縄市,諸見里３丁目３４番８号,,47,211,9040032,,,2025-03-24,清算の結了等,,,2023-04-05,1,,,,,エデュケーションアローズ,0
510,2420002003048,登記記録の閉鎖等,0,2025-03-26,2025-03-21,有限会社ヤマショウ澤田商店,,有限会社,青森県,青森市,大字前田字中野２１番地,,02,201,0380053,,,2025-03-21,清算の結了等,,,2015-10-05,1,,,,,ヤマショウサワダショウテン,0
512,2430001027121,登記記録の閉鎖等,0,2025-03-26,2025-03-24,株式会社オフィスいわい,,株式会社,北海道,札幌市北区,あいの里三条８丁目１番１９号,,01,102,0028073,,,2025-03-24,清算の結了等,,,2015-10-05,1,,,,,オフィスイワイ,0
516,2430002025743,登記記録の閉鎖等,0,2025-03-26,2025-03-21,有限会社丸敏田中鉄筋工業,,有限会社,北海道,札幌市東区,北二十条東９丁目１番３－１０１号,,01,103,0650020,,,2025-03-21,清算の結了等,,,2015-10-05,1,,,,,マルトシタナカテッキンコウギョウ,0
556,3010401118503,登記記録の閉鎖等,0,2025-03-26,2025-03-21,株式会社ｗａｂｉｓａｂｉ,,株式会社,神奈川県,足柄下郡真鶴町,真鶴字尻掛坂１４０７番１,,14,383,2590201,,,2025-03-21,清算の結了等,,,2015-10-05,1,,,,,ワビサビ,0
567,3010501006137,登記記録の閉鎖等,0,2025-03-26,2025-03-13,杉野商事株式会社,,株式会社,東京都,台東区,三筋２丁目１４番１号,,13,106,1110055,,,2025-03-13,清算の結了等,,,2015-10-05,1,,,,,スギノショウジ,0
598,3011602022023,登記記録の閉鎖等,0,2025-03-26,2025-03-11,有限会社アイティ・クラフト,,有限会社,東京都,練馬区,光が丘６丁目１番３－２０３号,,13,120,1790072,,,2025-03-11,清算の結了等,,,2015-10-05,1,,,,,アイティクラフト,0
610,3013301024639,登記記録の閉鎖等,0,2025-03-26,2025-03-18,株式会社小松制作署,,株式会社,東京都,豊島区,西池袋３丁目２１番１３－３０９号,,13,116,1710021,,,2025-03-18,合併による解散等,8013301024584,令和７年２月１日東京都目黒区中目黒二丁目７番１１号宮岸ビル４Ｆ株式会社オフィスＫ（8013301024584）に合併し解散,2015-10-05,1,,,,,コマツセイサクショ,0
612,3020001120346,登記記録の閉鎖等,0,2025-03-26,2025-03-21,株式会社ＮＧＵ,,株式会社,神奈川県,川崎市川崎区,東田町９番６号加瀬ビル１０１－５０２号室,,14,131,2100005,,,2025-03-21,合併による解散等,7120001176457,令和７年３月１日大阪市北区中之島三丁目３番３号中之島三井ビルディング２１Ｆ株式会社リンクスホールディングス（7120001176457）に合併し解散,2017-03-13,1,,,,,エヌジーユー,0
618,3021001032052,登記記録の閉鎖等,0,2025-03-26,2025-03-17,株式会社湯河原計算センター,,株式会社,神奈川県,足柄下郡湯河原町,中央１丁目１７番地６,,14,384,2590301,,,2025-03-17,清算の結了等,,,2015-10-05,1,,,,,ユガワラケイサンセンター,0
625,3021002032992,登記記録の閉鎖等,0,2025-03-26,2025-03-21,有限会社双葉,,有限会社,神奈川県,厚木市,幸町１０番２３号,,14,212,2430012,,,2025-03-21,清算の結了等,,,2015-10-05,1,,,,,フタバ,0
626,3021002042711,登記記録の閉鎖等,0,2025-03-26,2025-03-14,有限会社大和車輌サービス,,有限会社,神奈川県,綾瀬市,本蓼川４７８番地１,,14,218,2521102,,,2025-03-14,清算の結了等,,,2015-10-05,1,,,,,ヤマトシャリョウサービス,0
631,3030002118009,登記記録の閉鎖等,0,2025-03-26,2025-03-21,有限会社砺波,,有限会社,埼玉県,行田市,門井町３丁目２４番地６,,11,206,3610044,,,2025-03-21,清算の結了等,,,2015-10-05,1,,,,,トナミ,0
662,3090001011555,登記記録の閉鎖等,0,2025-03-26,2025-03-21,株式会社サン・デイリー,,株式会社,埼玉県,さいたま市北区,吉野町２丁目２８４番地１２,,11,102,3310811,,,2025-03-21,清算の結了等,,,2015-10-05,1,,,,,サンデイリー,0
665,3090005007054,登記記録の閉鎖等,0,2025-03-26,2025-03-14,一般社団法人田毎の富士バロン,,その他の設立登記法人,山梨県,富士吉田市,上吉田５丁目２番１１号,,19,202,4030005,,,2025-03-14,清算の結了等,,,2017-02-24,1,,,,,タゴトノフジバロン,0
679,3120002046308,登記記録の閉鎖等,0,2025-03-26,2025-03-24,ピードゥ有限会社,,有限会社,大阪府,大阪市西区,土佐堀１丁目６番２０号,,27,106,5500001,,,2025-03-24,清算の結了等,,,2015-10-05,1,,,,,ピードゥ,0
680,3120003020427,登記記録の閉鎖等,0,2025-03-26,2025-03-13,ＪＹＯＨＯ合同会社,,合同会社,大阪府,大阪市中央区,日本橋１丁目１－３－３０２号,,27,128,5420073,,,2025-03-13,清算の結了等,,,2021-10-22,1,,,,,ジョーホー,0
687,3120102019997,登記記録の閉鎖等,0,2025-03-26,2025-03-19,有限会社ステイブル・ワーカーズ,,有限会社,大阪府,河内長野市,南貴望ケ丘２３番５号,,27,216,5860092,,,2025-03-19,清算の結了等,,,2015-10-05,1,,,,,ステイブルワーカーズ,0
688,3120901012376,登記記録の閉鎖等,0,2025-03-26,2025-03-17,株式会社金岡土木,,株式会社,大阪府,三島郡島本町,大字東大寺１０５番地,,27,301,6180002,,,2025-03-17,清算の結了等,,,2015-10-05,1,,,,,カナオカドボク,0
689,3120901047579,登記記録の閉鎖等,0,2025-03-26,2025-03-07,ＭＵＲＡＳＡＫＩ株式会社,,株式会社,大阪府,高槻市,郡家新町１番４３号２Ｃ室,,27,207,5691136,,,2025-03-07,清算の結了等,,,2023-06-01,1,,,,,ムラサキ,0
695,3130001047990,登記記録の閉鎖等,0,2025-03-26,2025-03-24,株式会社トキプリント,,株式会社,京都府,京都市東山区,泉涌寺門前町３０,,26,105,6050973,,,2025-03-24,清算の結了等,,,2015-10-05,1,,,,,トキプリント,0
699,3140001004834,登記記録の閉鎖等,0,2025-03-26,2025-03-17,株式会社シービーシーインタナショナル,,株式会社,兵庫県,神戸市西区,学園東町５丁目１番地５０１－３０２号,,28,111,6512102,,,2025-03-17,清算の結了等,,,2015-10-05,1,,,,,シービーシーインタナショナル,0
701,3140001033346,登記記録の閉鎖等,0,2025-03-26,2025-03-12,株式会社ドリーム,,株式会社,兵庫県,神戸市兵庫区,和田山通１丁目２－２５Ｄ棟２１７Ｂ,,28,105,6520884,,,2025-03-12,清算の結了等,,,2015-10-05,1,,,,,ドリーム,0
711,3160001002423,登記記録の閉鎖等,0,2025-03-26,2025-03-24,株式会社ワイシー企画滋賀,,株式会社,滋賀県,大津市,瀬田５丁目３１番７号,,25,201,5202134,,,2025-03-24,清算の結了等,,,2015-10-05,1,,,,,ワイシーキカクシガ,0
720,3180001099053,登記記録の閉鎖等,0,2025-03-26,2025-03-21,幸心商事株式会社,,株式会社,愛知県,あま市,本郷郷前４４番地,,23,237,4901116,,,2025-03-21,清算の結了等,,,2015-10-05,1,,,,,コウシンショウジ,0
724,3180001142325,登記記録の閉鎖等,0,2025-03-26,2025-03-21,株式会社成康,,株式会社,愛知県,長久手市,岩作桃ノ木洞３４番地６,,23,238,4801103,,,2025-03-21,清算の結了等,,,2020-08-07,1,,,,,セイコウ,0
734,3180301014190,登記記録の閉鎖等,0,2025-03-26,2025-03-21,株式会社タパス,,株式会社,愛知県,刈谷市,日高町３丁目４１１番地,,23,210,4480046,,,2025-03-21,合併による解散等,7010701039115,令和７年３月１日東京都品川区南大井六丁目２２番７号ＤＣＭ株式会社（7010701039115）に合併し解散,2015-10-05,1,,,,,タパス,0
736,3190002020248,登記記録の閉鎖等,0,2025-03-26,2025-03-24,有限会社栄工業,,有限会社,三重県,四日市市,大井手２丁目３番３１号ブランシェ大井手１Ｇ号室,,24,202,5100835,,,2025-03-24,清算の結了等,,,2015-10-05,1,,,,,サカエコウギョウ,0
737,3190003003994,登記記録の閉鎖等,0,2025-03-26,2025-03-24,合同会社ＳＹＭＯＯＹ　Ｃａｔｓ,,合同会社,三重県,鈴鹿市,末広北２丁目１０番７号,,24,207,5130854,,,2025-03-24,清算の結了等,,,2022-05-25,1,,,,,シモーイキャッツ,0
738,3210001003168,登記記録の閉鎖等,0,2025-03-26,2025-03-21,フジタエンジニアリング株式会社,,株式会社,福井県,福井市,四十谷町第５号２４番地の８,,18,201,9100043,,,2025-03-21,清算の結了等,,,2015-10-05,1,,,,,フジタエンジニアリング,0
749,3260002023532,登記記録の閉鎖等,0,2025-03-26,2025-03-24,有限会社大熊商店,,有限会社,岡山県,総社市,清音上中島１８５番地１,,33,208,7191175,,,2025-03-24,清算の結了等,,,2015-10-05,1,,,,,オオクマショウテン,0
759,3290002055580,登記記録の閉鎖等,0,2025-03-26,2025-03-11,有限会社西田工務店,,有限会社,福岡県,大牟田市,大字草木１２６４番地１,,40,202,8370917,,,2025-03-11,清算の結了等,,,2015-10-05,1,,,,,ニシダコウムテン,0
787,3390005008294,登記記録の閉鎖等,0,2025-03-26,2025-03-19,特定非営利活動法人おもだか水辺の生き物保全会,,その他の設立登記法人,山形県,山形市,鈴川町４丁目２番２１号,,06,201,9900062,,,2025-03-19,清算の結了等,,,2015-10-05,1,,,,,オモダカミズベノイキモノホゼンカイ,0
814,4010001245184,登記記録の閉鎖等,0,2025-03-26,2025-03-06,玩伴科技株式会社,,株式会社,東京都,千代田区,丸の内１丁目８番３号丸の内トラストタワー本館２０階,,13,101,1000005,,,2025-03-06,清算の結了等,,,2024-05-31,1,,,,,ガンバンカギ,0
844,4010701038053,登記記録の閉鎖等,0,2025-03-26,2025-03-04,株式会社Ｓｉｄｅｒ,,株式会社,東京都,港区,芝浦３丁目１番１号,,13,103,1080023,,,2025-03-04,清算の結了等,,,2019-08-19,1,,,,,サイダー,0
854,4011005008313,登記記録の閉鎖等,0,2025-03-26,2025-03-19,一般社団法人ウオー,,その他の設立登記法人,富山県,富山市,婦中町上田島１５２番地,,16,201,9392717,,,2025-03-19,清算の結了等,,,2019-10-02,1,,,,,ウオー,0
858,4011101092748,登記記録の閉鎖等,0,2025-03-26,2025-03-12,エコグッズ株式会社,,株式会社,東京都,新宿区,百人町１丁目２２番２８号,,13,104,1690073,,,2025-03-12,清算の結了等,,,2020-10-12,1,,,,,エコグッズ,0
872,4013301037788,登記記録の閉鎖等,0,2025-03-26,2025-03-12,株式会社エクセルファースト,,株式会社,東京都,中央区,八丁堀４丁目１２番２０号,,13,102,1040032,,,2025-03-12,清算の結了等,,,2015-10-21,1,,,,,エクセルファースト,0
888,4030001007806,登記記録の閉鎖等,0,2025-03-26,2025-03-21,松本管材株式会社,,株式会社,埼玉県,さいたま市浦和区,岸町５丁目１２番７号,,11,107,3300064,,,2025-03-21,清算の結了等,,,2015-10-05,1,,,,,マツモトカンザイ,0
895,4030002078755,登記記録の閉鎖等,0,2025-03-26,2025-03-21,有限会社ライフマネージメント,,有限会社,埼玉県,ふじみ野市,鶴ケ岡２丁目６番１６号,,11,245,3560045,,,2025-03-21,合併による解散等,2070001035004,令和７年３月１日群馬県渋川市渋川１７６３番地１西山ビル保険クラスター株式会社（2070001035004）に合併し解散,2015-10-05,1,,,,,ライフマネージメント,0
906,4040001119261,登記記録の閉鎖等,0,2025-03-26,2025-03-13,株式会社フード・インスペクター,,株式会社,千葉県,浦安市,日の出５丁目５番１－１４０７号Ｃｏｃｏ,,12,227,2790013,,,2025-03-13,清算の結了等,,,2021-07-07,1,,,,,フードインスペクター,0
911,4040003024732,登記記録の閉鎖等,0,2025-03-26,2025-03-12,合同会社ＢＩＯＳ　ＤＥＳＩＧＮ,,合同会社,千葉県,千葉市美浜区,中瀬１丁目３幕張テクノガーデンＣＢ棟（幕張ビジネスポート内）,,12,106,2610023,,,2025-03-12,清算の結了等,,,2024-04-09,1,,,,,ビオスデザイン,0
922,4080402006195,登記記録の閉鎖等,0,2025-03-26,2025-03-17,有限会社浜松百撰,,有限会社,静岡県,浜松市中央区,佐鳴台５丁目１番１０号,,22,138,4328021,,,2025-03-17,清算の結了等,,,2015-10-05,1,,,,,ハママツヒャクセン,0
931,4110001009141,登記記録の閉鎖等,0,2025-03-26,2025-03-21,株式会社魚丸水産,,株式会社,新潟県,新潟市東区,紫竹７丁目３８番５号,,15,102,9500864,,,2025-03-21,清算の結了等,,,2015-10-05,1,,,,,ウオマルスイサン,0
934,4120001021046,登記記録の閉鎖等,0,2025-03-26,2025-03-13,株式会社トルス,,株式会社,大阪府,大阪市平野区,加美北３丁目１４番１２号,,27,126,5470001,,,2025-03-13,清算の結了等,,,2015-10-05,1,,,,,,0
961,4130001053922,登記記録の閉鎖等,0,2025-03-26,2025-03-24,株式会社フォーユーカンパニー,,株式会社,京都府,京都市南区,東九条西山王町１１番地,,26,107,6018003,,,2025-03-24,清算の結了等,,,2015-10-05,1,,,,,フォーユーカンパニー,0
962,4130001069605,登記記録の閉鎖等,0,2025-03-26,2025-03-25,株式会社ＮｕＤｉｅｔ,,株式会社,京都府,京都市上京区,宮垣町９１－１０２,,26,102,6020853,,,2025-03-25,清算の結了等,,,2021-06-24,1,,,,,ニューダイエット,0
964,4140001048649,登記記録の閉鎖等,0,2025-03-26,2025-02-28,コーエイ住宅株式会社,,株式会社,兵庫県,尼崎市,南武庫之荘３丁目２５番５号,,28,202,6610033,,,2025-02-28,合併による解散等,4140002040927,令和７年２月２８日兵庫県尼崎市南武庫之荘三丁目２５番５号株式会社しののめ管財（4140002040927）に合併し解散,2015-10-05,1,,,,,コーエイジュウタク,0
974,4140005020926,登記記録の閉鎖等,0,2025-03-26,2025-03-24,一般社団法人日本インテリアアテンダント協会,,その他の設立登記法人,兵庫県,神戸市中央区,京町７６番地の２,,28,110,6500034,,,2025-03-24,清算の結了等,,,2015-10-05,1,,,,,ニホンインテリアアテンダントキョウカイ,0
981,4160002013195,登記記録の閉鎖等,0,2025-03-26,2025-03-24,有限会社サキハート,,有限会社,滋賀県,栗東市,安養寺８丁目３番１３号,,25,208,5203015,,,2025-03-24,清算の結了等,,,2015-10-05,1,,,,,サキハート,0
983,4180001110289,登記記録の閉鎖等,0,2025-03-26,2025-03-21,株式会社ワイ・セラミックス,,株式会社,愛知県,瀬戸市,西本地町２丁目２７７番地の１,,23,204,4890971,,,2025-03-21,清算の結了等,,,2015-10-05,1,,,,,ワイセラミックス,0
989,4180005003274,登記記録の閉鎖等,0,2025-03-26,2025-03-13,江川端通商店街振興組合,,その他の設立登記法人,愛知県,名古屋市西区,城西４丁目２０番１号,,23,104,4510031,,,2025-03-13,清算の結了等,,,2015-10-05,1,,,,,エガワバタトオリ,0
990,4180005020261,登記記録の閉鎖等,0,2025-03-26,2025-03-21,一般社団法人常滑市身体障害者福祉協会,,その他の設立登記法人,愛知県,常滑市,大野町８丁目５３番地,,23,216,4790866,,,2025-03-21,清算の結了等,,,2023-06-29,1,,,,,トコナメシシンタイショウガイシャフクシキョウカイ,0
1019,4330001027385,登記記録の閉鎖等,0,2025-03-26,2025-03-21,株式会社栄光,,株式会社,熊本県,熊本市東区,小山６丁目１１番１－１号,,43,102,8618045,,,2025-03-21,清算の結了等,,,2020-04-07,1,,,,,エイコウ,0
1021,4330002006520,登記記録の閉鎖等,0,2025-03-26,2025-03-18,高本商事有限会社,,有限会社,熊本県,熊本市南区,砂原町５７２番地１,,43,104,8615255,,,2025-03-18,清算の結了等,,,2015-10-05,1,,,,,タカモトショウジ,0
1025,4350001014646,登記記録の閉鎖等,0,2025-03-26,2025-03-21,青島プロジェクト株式会社,,株式会社,宮崎県,宮崎市,青島２丁目２４１番１号,,45,201,8892162,,,2025-03-21,合併による解散等,3010401152097,令和７年３月７日東京都渋谷区千駄ケ谷三丁目１１番８号（ＴＯＳグループ内）ＮＯＴ　Ａ　ＨＯＴＥＬ株式会社（3010401152097）に合併し解散,2017-05-02,1,,,,,アオシマプロジェクト,0
1027,4360001008176,登記記録の閉鎖等,0,2025-03-26,2025-02-27,株式会社マイココ,,株式会社,沖縄県,那覇市,高良２丁目９番７号,,47,201,9010145,,,2025-02-27,清算の結了等,,,2015-10-05,1,,,,,マイココ,0
1028,4360003001006,登記記録の閉鎖等,0,2025-03-26,2025-03-25,合同会社中村商事,,合同会社,沖縄県,那覇市,東町１１番地１,,47,201,9000034,,,2025-03-25,清算の結了等,,,2015-10-05,1,,,,,ナカムラショウジ,0
1031,4370002020245,登記記録の閉鎖等,0,2025-03-26,2025-03-18,有限会社大和モータース,,有限会社,宮城県,黒川郡大和町,宮床字磯ケ沢一番４１番地,,04,421,9813624,,,2025-03-18,清算の結了等,,,2015-10-05,1,,,,,タイワモータース,0
1032,4380001028610,登記記録の閉鎖等,0,2025-03-26,2025-03-17,株式会社ＷＩＮＧ,,株式会社,福島県,いわき市,小名浜字大道北１４７番地の４エクセレントヒルズＩＶ１０５,00111748,07,204,9718101,,,2025-03-17,清算の結了等,,,2017-11-08,1,,,,,,0
1039,4420002001925,登記記録の閉鎖等,0,2025-03-26,2025-03-21,有限会社デンタル・インフォメーション・サービス,,有限会社,青森県,青森市,大字浦町字奥野６３番地の４５,,02,201,0300842,,,2025-03-21,清算の結了等,,,2015-10-05,1,,,,,デンタルインフォメーションサービス,0
1051,4440002008101,登記記録の閉鎖等,0,2025-03-26,2025-03-19,有限会社ウッド工房,,有限会社,北海道,函館市,東山町１２１番地１８１,,01,202,0410834,,,2025-03-19,清算の結了等,,,2015-10-05,1,,,,,ウッドコウボウ,0
1099,5011001157757,登記記録の閉鎖等,0,2025-03-26,2025-02-25,株式会社ＧＯＬＤＲＵＳＨ　ＳＴＯＲＥ,,株式会社,東京都,渋谷区,宇田川町４番７号トウセン宇田川ビル４階,,13,113,1500042,,,2025-02-25,清算の結了等,,,2023-10-20,1,,,,,ゴールドラッシュストア,0
1111,5011502003939,登記記録の閉鎖等,0,2025-03-26,2025-03-19,有限会社デイアンドエス工房,,有限会社,東京都,北区,豊島２丁目２番４号,,13,117,1140003,,,2025-03-19,清算の結了等,,,2015-10-05,1,,,,,デイアンドエスコウボウ,0
1121,5011802006947,登記記録の閉鎖等,0,2025-03-26,2025-03-24,有限会社ホーワ,,有限会社,東京都,葛飾区,青戸３丁目２３番１８号,,13,122,1250062,,,2025-03-24,清算の結了等,,,2015-10-05,1,,,,,ホーワ,0
1126,5012401042243,登記記録の閉鎖等,0,2025-03-26,2025-03-24,株式会社ヤギナオト,,株式会社,東京都,稲城市,東長沼２４３２番地ＬＡＮＡ南山ＩＩＩ２０１,00136169,13,225,2060802,,,2025-03-24,清算の結了等,,,2024-09-03,1,,,,,ヤギナオト,0
1135,5020001091404,登記記録の閉鎖等,0,2025-03-26,2025-03-13,株式会社フジコーポレーション,,株式会社,神奈川県,横浜市西区,浅間町５丁目３８４番１３号,,14,103,2200072,,,2025-03-13,清算の結了等,,,2015-10-05,1,,,,,フジコーポレーション,0
1152,5030005011274,登記記録の閉鎖等,0,2025-03-26,2025-03-19,医療法人互恵会,,その他の設立登記法人,埼玉県,比企郡吉見町,大字久保田１９０１番地２,,11,347,3550137,,,2025-03-19,清算の結了等,,,2015-10-05,1,,,,,ゴケイカイ,0
1163,5060001027420,登記記録の閉鎖等,0,2025-03-26,2025-03-19,ヒルズネット株式会社,,株式会社,栃木県,那須塩原市,太夫塚５丁目２２１番地４３４シオカワ貸家１号棟,,09,213,3292735,,,2025-03-19,清算の結了等,,,2015-10-05,1,,,,,ヒルズネット,0
1189,5122001012544,登記記録の閉鎖等,0,2025-03-26,2025-03-21,株式会社Ｓ・Ｋシステム,,株式会社,大阪府,東大阪市,西堤本通東３丁目１番２３号,,27,227,5770045,,,2025-03-21,清算の結了等,,,2015-10-05,1,,,,,エスケイシステム,0
1190,5130001003406,登記記録の閉鎖等,0,2025-03-26,2025-03-21,東興ホーム株式会社,,株式会社,京都府,京都市上京区,千本通今出川下る笹屋町三丁目６４１番地,,26,102,6020000,,,2025-03-21,清算の結了等,,,2015-10-05,1,,,,,トウコウホーム,0
1194,5130002028187,登記記録の閉鎖等,0,2025-03-26,2025-03-24,タカホリ建設有限会社,,有限会社,京都府,久世郡久御山町,佐山双置３６番地,,26,322,6130034,,,2025-03-24,清算の結了等,,,2015-10-05,1,,,,,,0
1200,5150001001242,登記記録の閉鎖等,0,2025-03-26,2025-03-25,株式会社タケダドラッグ,,株式会社,奈良県,奈良市,三条添川町５番４０号,,29,201,6308127,,,2025-03-25,清算の結了等,,,2015-10-05,1,,,,,タケダドラッグ,0
1201,5150001021323,登記記録の閉鎖等,0,2025-03-26,2025-03-24,とつかわ水産株式会社,,株式会社,奈良県,吉野郡十津川村,大字出谷１３１３番地,,29,449,6371558,,,2025-03-24,清算の結了等,,,2017-03-03,1,,,,,トツカワスイサン,0
1204,5180001006263,登記記録の閉鎖等,0,2025-03-26,2025-03-21,株式会社我夢,,株式会社,愛知県,名古屋市名東区,藤見が丘３２番地,,23,115,4650048,,,2025-03-21,清算の結了等,,,2015-10-05,1,,,,,ガム,0
1207,5180001091173,登記記録の閉鎖等,0,2025-03-26,2025-03-21,株式会社安岡工務店,,株式会社,愛知県,名古屋市中川区,島井町８０２ハイツ大原Ｃ号室,,23,110,4540974,,,2025-03-21,清算の結了等,,,2015-10-05,1,,,,,ヤスオカコウムテン,0
1208,5180001094003,登記記録の閉鎖等,0,2025-03-26,2025-03-03,株式会社もみじ屋デリバリーサービス,,株式会社,愛知県,半田市,寺町３６番地,,23,205,4750844,,,2025-03-03,合併による解散等,5180001144286,令和７年３月１日愛知県半田市成岩東町６９番地７株式会社ＣＯ２（5180001144286）に合併し解散,2015-10-05,1,,,,,モミジヤデリバリーサービス,0
1234,5250002007724,登記記録の閉鎖等,0,2025-03-26,2025-03-25,有限会社美東薬品,,有限会社,山口県,美祢市,美東町大田６００４番地,,35,213,7540211,,,2025-03-25,清算の結了等,,,2015-10-05,1,,,,,ミトウヤクヒン,0
1245,5290001074290,登記記録の閉鎖等,0,2025-03-26,2025-03-11,日本選抜株式会社,,株式会社,福岡県,久留米市,荒木町荒木９２８番地,,40,203,8300063,,,2025-03-11,清算の結了等,,,2016-06-16,1,,,,,ニホンセンバツカブシキガイシャ,0
1260,5330001026444,登記記録の閉鎖等,0,2025-03-26,2025-03-19,株式会社ｊａｍ,,株式会社,熊本県,熊本市東区,東野３丁目１６番１７号,,43,102,8612106,,,2025-03-19,清算の結了等,,,2019-06-05,1,,,,,ジャム,0
1262,5330002025676,登記記録の閉鎖等,0,2025-03-26,2025-03-13,有限会社かるかん堂本舗,,有限会社,熊本県,八代市,大村町８９５番地８,,43,202,8660895,,,2025-03-13,清算の結了等,,,2015-10-05,1,,,,,カルカンドウホンポ,0
1280,5390002003346,登記記録の閉鎖等,0,2025-03-26,2025-03-17,有限会社最上商事,,有限会社,山形県,東村山郡中山町,大字長崎３０６３番地の３,,06,302,9900401,,,2025-03-17,清算の結了等,,,2015-10-05,1,,,,,モガミショウジ,0
1285,5430001005867,登記記録の閉鎖等,0,2025-03-26,2025-03-24,株式会社コープ技建,,株式会社,北海道,札幌市中央区,北四条東２丁目７番地６,,01,101,0600034,,,2025-03-24,清算の結了等,,,2015-10-05,1,,,,,コープギケン,0
1290,5430002052628,登記記録の閉鎖等,0,2025-03-26,2025-03-21,有限会社寺井商店,,有限会社,北海道,雨竜郡雨竜町,字満寿３０番地の３５,,01,436,0782600,,,2025-03-21,清算の結了等,,,2015-10-05,1,,,,,テライショウテン,0
1311,6010002048709,登記記録の閉鎖等,0,2025-03-26,2025-03-12,もみじリカバリ有限会社,,有限会社,東京都,千代田区,九段北１丁目１３番５号,,13,101,1020073,,,2025-03-12,清算の結了等,,,2015-10-05,1,,,,,モミジリカバリ,0
1312,6010003017778,登記記録の閉鎖等,0,2025-03-26,2025-03-11,合同会社バリュー・ザ・ホテルファンド,,合同会社,東京都,千代田区,岩本町１丁目１２番３号,,13,101,1010032,,,2025-03-11,清算の結了等,,,2015-10-05,1,,,,,バリューザホテルファンド,0
1335,6010502004715,登記記録の閉鎖等,0,2025-03-26,2025-03-13,有限会社サンエスサトウ,,有限会社,東京都,台東区,根岸５丁目２５番１－４０４号,,13,106,1100003,,,2025-03-13,清算の結了等,,,2015-10-05,1,,,,,サンエスサトウ,0
1340,6010605003275,登記記録の閉鎖等,0,2025-03-26,2025-03-24,一般社団法人Ｒｅ．あきた,,その他の設立登記法人,東京都,墨田区,錦糸４丁目１２番８号１Ｆ,,13,107,1300013,,,2025-03-24,清算の結了等,,,2016-08-23,1,,,,,リアキタ,0
1358,6011501017435,登記記録の閉鎖等,0,2025-03-26,2025-03-19,株式会社ヘルスビジョンラボ,,株式会社,東京都,北区,東田端１丁目９番１２－３０１号,,13,117,1140013,,,2025-03-19,清算の結了等,,,2015-10-05,1,,,,,ヘルスビジョンラボ,0
1387,6030001003596,登記記録の閉鎖等,0,2025-03-26,2025-03-21,株式会社信濃屋,,株式会社,埼玉県,さいたま市大宮区,天沼町２丁目７２７番地５,,11,103,3300834,,,2025-03-21,清算の結了等,,,2015-10-05,1,,,,,シナノヤ,0
1406,6050001034029,登記記録の閉鎖等,0,2025-03-26,2025-03-19,株式会社トラサンデリカ,,株式会社,茨城県,守谷市,緑２丁目３２番７号,,08,224,3020106,,,2025-03-19,合併による解散等,8011501017516,令和７年３月３日東京都文京区小日向四丁目５番１６号株式会社虎昭産業（8011501017516）に合併し解散,2015-10-05,1,,,,,トラサンデリカ,0
1409,6050002032502,登記記録の閉鎖等,0,2025-03-26,2025-03-17,有限会社タケオ,,有限会社,茨城県,北茨城市,磯原町磯原１丁目８８番地,,08,215,3191541,,,2025-03-17,清算の結了等,,,2015-10-05,1,,,,,タケオ,0
1412,6060003000597,登記記録の閉鎖等,0,2025-03-26,2025-03-19,合資会社吉成大正堂,00136010,合資会社,栃木県,那須塩原市,大原間５４５番地,,09,213,3293153,,,2025-03-19,清算の結了等,,,2024-08-20,1,,,,,ヨシナリタイショウドウ,0
1414,6070005002616,登記記録の閉鎖等,0,2025-03-26,2025-03-21,高崎市倉賀野団地鍍金協同組合,,その他の設立登記法人,群馬県,高崎市,倉賀野町２９３８番地の９,,10,202,3701201,,,2025-03-21,清算の結了等,,,2015-10-05,1,,,,,タカサキシクラガノダンチメッキ,0
1415,6080401025087,登記記録の閉鎖等,0,2025-03-26,2025-03-21,株式会社Ｗｉｓｔａ,,株式会社,静岡県,浜松市浜名区,細江町中川７１７２番地の７２３,,22,139,4311304,,,2025-03-21,清算の結了等,,,2021-06-04,1,,,,,ウィスタ,0
1419,6100002016210,登記記録の閉鎖等,0,2025-03-26,2025-03-14,有限会社桜井建設,,有限会社,長野県,上田市,下丸子１番地６４,,20,203,3860406,,,2025-03-14,清算の結了等,,,2015-10-05,1,,,,,サクライケンセツ,0
1442,6120101021357,登記記録の閉鎖等,0,2025-03-26,2025-03-06,株式会社旭屋,,株式会社,大阪府,堺市美原区,大保２２０番地,,27,147,5870001,,,2025-03-06,清算の結了等,,,2015-10-05,1,,,,,アサヒヤ,0
1447,6120101058036,登記記録の閉鎖等,0,2025-03-26,2025-03-12,株式会社ＴＯＰ,,株式会社,大阪府,堺市北区,百舌鳥梅北町４丁１８７番地１５,,27,146,5918031,,,2025-03-12,清算の結了等,,,2018-04-10,1,,,,,トップ,0
1483,6180002060911,登記記録の閉鎖等,0,2025-03-26,2025-03-21,有限会社山木,,有限会社,愛知県,名古屋市南区,東又兵ヱ町４丁目３番地の１５,,23,112,4570833,,,2025-03-21,清算の結了等,,,2015-10-05,1,,,,,ヤマギ,0
1484,6180002074218,登記記録の閉鎖等,0,2025-03-26,2025-03-21,有限会社アイサン工業,,有限会社,愛知県,犬山市,字七ツ屋７６番地,,23,215,4840928,,,2025-03-21,清算の結了等,,,2015-10-05,1,,,,,アイサンコウギョウ,0
1498,6230001016512,登記記録の閉鎖等,0,2025-03-26,2025-03-19,日本水力開発株式会社,,株式会社,富山県,富山市,向新庄１３７０－２,,16,201,9300916,,,2025-03-19,清算の結了等,,,2016-06-23,1,,,,,ニホンスイリョクカイハツ,0
1506,6250002007491,登記記録の閉鎖等,0,2025-03-26,2025-03-24,有限会社三国組,,有限会社,山口県,美祢市,伊佐町伊佐５１２７番地,,35,213,7592222,,,2025-03-24,清算の結了等,,,2015-10-05,1,,,,,ミクニグミ,0
1514,6290001048995,登記記録の閉鎖等,0,2025-03-26,2025-03-10,シンワ株式会社,,株式会社,福岡県,久留米市,山本町耳納１６８４番地の８,,40,203,8390826,,,2025-03-10,清算の結了等,,,2015-10-05,1,,,,,シンワ,0
1531,6310002017311,登記記録の閉鎖等,0,2025-03-26,2025-03-21,株式会社林田ビルヂング,,株式会社,長崎県,大村市,荒瀬町５１５番地１８,,42,205,8560017,,,2025-03-21,清算の結了等,,,2015-10-05,1,,,,,ハヤシダビルヂング,0
1532,6320002004390,登記記録の閉鎖等,0,2025-03-26,2025-03-24,有限会社多田硝子店,,有限会社,大分県,大分市,都町２丁目１番２９号第一多田ガラスビル,,44,201,8700034,,,2025-03-24,清算の結了等,,,2015-10-05,1,,,,,,0
1539,6360001001105,登記記録の閉鎖等,0,2025-03-26,2025-03-24,株式会社城南,,株式会社,沖縄県,宜野湾市,喜友名１丁目３０番３１号,,47,205,9012222,,,2025-03-24,清算の結了等,,,2015-10-05,1,,,,,ジョウナン,0
1549,6380002027279,登記記録の閉鎖等,0,2025-03-26,2025-03-10,有限会社アイ・トータルライフプランニング,,有限会社,福島県,いわき市,平字材木町６番地,,07,204,9708026,,,2025-03-10,清算の結了等,,,2015-10-05,1,,,,,アイトータルライフプランニング,0
1560,6440001000494,登記記録の閉鎖等,0,2025-03-26,2025-03-19,川原産資株式会社,,株式会社,北海道,函館市,堀川町２６番１２号,,01,202,0400025,,,2025-03-19,清算の結了等,,,2015-10-05,1,,,,,カワハラサンシ,0
1563,6470002016900,登記記録の閉鎖等,0,2025-03-26,2025-03-21,有限会社岡田建設,,有限会社,香川県,三豊市,三野町大見甲３０７４番地,,37,208,7670031,,,2025-03-21,清算の結了等,,,2015-10-05,1,,,,,オカダケンセツ,0
1579,7010003036018,登記記録の閉鎖等,0,2025-03-26,2025-03-10,合同会社イーストタワーズ２,,合同会社,東京都,千代田区,内神田２丁目２番６号５階あすな会計事務所内,,13,101,1010047,,,2025-03-10,清算の結了等,,,2021-10-18,1,,,,,イーストタワーズツー,0
1581,7010005005433,登記記録の閉鎖等,0,2025-03-26,2025-03-21,特定非営利活動法人日本バリアフリー政策研究所,,その他の設立登記法人,東京都,千代田区,平河町１丁目７番１６ビュロー平河町８０１号,,13,101,1020093,,,2025-03-21,清算の結了等,,,2015-10-05,1,,,,,ニホンバリアフリーセイサクケンキュウショ,0
1583,7010401004906,登記記録の閉鎖等,0,2025-03-26,2025-03-05,株式会社エヌ・エス・ジー資材サービス,,株式会社,東京都,港区,三田３丁目５番２７号,,13,103,1080073,,,2025-03-05,清算の結了等,,,2015-10-05,1,,,,,エヌエスジーシザイサービス,0
1589,7010401180334,登記記録の閉鎖等,0,2025-03-26,2025-03-07,株式会社Ａｌａｕｄａ,,株式会社,東京都,港区,南青山４丁目１５－１６－２０１,,13,103,1070062,,,2025-03-07,清算の結了等,,,2024-02-15,1,,,,,アラウダ,0
1609,7010901024742,登記記録の閉鎖等,0,2025-03-26,2025-03-12,株式会社ＡＢＣ,,株式会社,東京都,千代田区,丸の内３丁目４番１号,,13,101,1000005,,,2025-03-12,清算の結了等,,,2015-10-05,1,,,,,エービーシー,0
1616,7011003016934,登記記録の閉鎖等,0,2025-03-26,2025-02-25,アート弥生会合同会社,,合同会社,東京都,目黒区,鷹番３丁目９番１１号,,13,110,1520004,,,2025-02-25,清算の結了等,,,2023-06-06,1,,,,,アートヤヨイカイ,0
1623,7011103003163,登記記録の閉鎖等,0,2025-03-26,2025-03-12,ビッツ・ジャパン合同会社,,合同会社,東京都,新宿区,新宿１丁目３６番２号新宿第七葉山ビル３階,,13,104,1600022,,,2025-03-12,清算の結了等,,,2015-10-05,1,,,,,ビッツジャパン,0
1641,7012302001164,登記記録の閉鎖等,0,2025-03-26,2025-03-24,有限会社荻野興業,,有限会社,東京都,町田市,三輪町１１０８番地,,13,209,1950054,,,2025-03-24,清算の結了等,,,2015-10-05,1,,,,,オギノコウギョウ,0
1666,7030001118542,登記記録の閉鎖等,0,2025-03-26,2025-03-21,株式会社ディーエスコーポレーション,,株式会社,埼玉県,草加市,清門３丁目４３番地６－２０５,,11,221,3400055,,,2025-03-21,清算の結了等,,,2017-02-08,1,,,,,ディーエスコーポレーション,0
1677,7040001006309,登記記録の閉鎖等,0,2025-03-26,2025-03-13,株式会社備建,,株式会社,千葉県,千葉市若葉区,多部田町２１番６,,12,104,2650066,,,2025-03-13,清算の結了等,,,2015-10-05,1,,,,,ビケン,0
1681,7040001097901,登記記録の閉鎖等,0,2025-03-26,2025-03-19,さくら工業株式会社,,株式会社,東京都,江戸川区,中葛西５丁目１５番１０号ＹＣＣビル３階,,13,123,1340083,,,2025-03-19,清算の結了等,,,2016-12-02,1,,,,,サクラコウギョウ,0
1683,7040001105977,登記記録の閉鎖等,0,2025-03-26,2025-03-13,株式会社アリフェス,,株式会社,千葉県,千葉市中央区,神明町５番地１９,,12,101,2600022,,,2025-03-13,清算の結了等,,,2018-09-04,1,,,,,アリフェス,0
1693,7050002027996,登記記録の閉鎖等,0,2025-03-26,2025-03-17,有限会社阿部測量,,有限会社,茨城県,神栖市,溝口１６６３番地１,,08,232,3140121,,,2025-03-17,清算の結了等,,,2015-10-05,1,,,,,アベソクリョウ,0
1733,7122001006692,登記記録の閉鎖等,0,2025-03-26,2025-03-19,株式会社フローレンス弥刀,,株式会社,大阪府,東大阪市,友井１丁目８番１号,,27,227,5770816,,,2025-03-19,清算の結了等,,,2015-10-05,1,,,,,フローレンスミト,0
1741,7130001061063,登記記録の閉鎖等,0,2025-03-26,2025-03-21,株式会社塚腰運送ＮＡＧＯＹＡ,00115755,株式会社,京都府,京都市下京区,木津屋橋通大宮東入上之町４４４番地,,26,106,6008266,,,2025-03-21,合併による解散等,2130001018084,令和７年３月２１日京都市下京区木津屋橋通大宮東入上之町４４４番地株式会社塚腰運送（2130001018084）に合併し解散,2017-12-06,1,,,,,ツカゴシウンソウナゴヤ,0
1770,7220002011660,登記記録の閉鎖等,0,2025-03-26,2025-03-19,有限会社藤岡家具店,,有限会社,石川県,能美市,福岡町イ５２番地,,17,211,9290107,,,2025-03-19,清算の結了等,,,2015-10-05,1,,,,,フジオカカグテン,0
1796,7320001005397,登記記録の閉鎖等,0,2025-03-26,2025-03-24,株式会社Ｓ・Ｉ・Ｎダイニング,,株式会社,大分県,大分市,東浜２丁目１８番１６号市営１Ａ２－５０２,,44,201,8700932,,,2025-03-24,清算の結了等,,,2015-10-05,1,,,,,,0
1835,8010001193322,登記記録の閉鎖等,0,2025-03-26,2025-03-12,エスエヌブリッジ株式会社,,株式会社,東京都,中央区,日本橋２丁目１番１４号日本橋加藤ビルディング６階,,13,102,1030027,,,2025-03-12,清算の結了等,,,2018-07-17,1,,,,,エスエヌブリッジ,0
1847,8010401170045,登記記録の閉鎖等,0,2025-03-26,2025-02-28,株式会社ジーオーエス,,株式会社,東京都,港区,東新橋２丁目３番１７号,,13,103,1050021,,,2025-02-28,清算の結了等,,,2022-10-04,1,,,,,ジーオーエス,0
1859,8010602022012,登記記録の閉鎖等,0,2025-03-26,2025-03-24,有限会社新昇塗装,,有限会社,東京都,墨田区,八広５丁目３番１８号,,13,107,1310041,,,2025-03-24,清算の結了等,,,2015-10-05,1,,,,,シンショウトソウ,0
1873,8011101015523,登記記録の閉鎖等,0,2025-03-26,2025-03-14,株式会社ナポリアイスクリーム,,株式会社,東京都,港区,港南３丁目８番１号,,13,103,1080075,,,2025-03-14,清算の結了等,,,2015-10-05,1,,,,,ナポリアイスクリーム,0
1896,8012401032126,登記記録の閉鎖等,0,2025-03-26,2025-03-21,株式会社ａｔｅｌｉｅｒ　ｍｅｒｃｅ,,株式会社,東京都,府中市,本宿町２丁目１１番地の６,,13,206,1830032,,,2025-03-21,清算の結了等,,,2016-12-07,1,,,,,,0
1910,8030001070016,登記記録の閉鎖等,0,2025-03-26,2025-03-21,リアル・ソリューションズ株式会社,,株式会社,埼玉県,入間郡毛呂山町,岩井西１丁目１８番地１７,,11,326,3500465,,,2025-03-21,清算の結了等,,,2015-10-05,1,,,,,リアルソリューションズ,0
1931,8040003009457,登記記録の閉鎖等,0,2025-03-26,2025-03-13,合同会社しまの,,合同会社,千葉県,千葉市美浜区,稲毛海岸４丁目９番１号東映マンションＢ棟６１９号,,12,106,2610005,,,2025-03-13,清算の結了等,,,2016-12-19,1,,,,,シマノ,0
1933,8040005015643,登記記録の閉鎖等,0,2025-03-26,2025-03-13,鴨川鮮魚商協同組合,,その他の設立登記法人,千葉県,鴨川市,磯村８３番地２,,12,223,2960003,,,2025-03-13,清算の結了等,,,2015-10-05,1,,,,,カモガワセンギョショウ,0
1945,8080401021670,登記記録の閉鎖等,0,2025-03-26,2025-03-17,株式会社電源堂浜松,,株式会社,静岡県,浜松市中央区,佐藤１丁目１番１５－１０６号,,22,138,4300807,,,2025-03-17,清算の結了等,,,2016-08-16,1,,,,,デンゲンドウハママツ,0
1958,8110001023254,登記記録の閉鎖等,0,2025-03-26,2025-03-18,株式会社ネクスト新潟,,株式会社,新潟県,長岡市,千手２丁目１０番２０号,,15,202,9400087,,,2025-03-18,清算の結了等,,,2015-10-05,1,,,,,ネクストニイガタ,0
1963,8120001068315,登記記録の閉鎖等,0,2025-03-26,2025-03-24,株式会社ナベル,,株式会社,大阪府,大阪市北区,中崎１丁目６番１０号,,27,127,5300016,,,2025-03-24,清算の結了等,,,2015-10-05,1,,,,,ナベル,0
1964,8120001151649,登記記録の閉鎖等,0,2025-03-26,2025-03-24,株式会社徳井金型製作所,,株式会社,大阪府,寝屋川市,点野３丁目２０番２６号,,27,215,5720077,,,2025-03-24,清算の結了等,,,2015-10-05,1,,,,,トクイカナガタセイサクショ,0
1987,8130001069411,登記記録の閉鎖等,0,2025-03-26,2025-03-24,株式会社京都住宅サーヴィス,,株式会社,京都府,京都市左京区,修学院中林町７３番地２,,26,103,6068085,,,2025-03-24,清算の結了等,,,2021-06-03,1,,,,,キョウトジュウタクサーヴィス,0
1992,8140001065244,登記記録の閉鎖等,0,2025-03-26,2025-03-18,株式会社ゼット工業,,株式会社,兵庫県,姫路市,伊伝居７６番地１０,,28,201,6700871,,,2025-03-18,清算の結了等,,,2015-10-05,1,,,,,ゼットコウギョウ,0
2002,8180001081469,登記記録の閉鎖等,0,2025-03-26,2025-03-19,株式会社メドポート,,株式会社,愛知県,犬山市,大字善師野字東上屋敷３３番地１,,23,215,4840003,,,2025-03-19,清算の結了等,,,2015-10-05,1,,,,,メドポート,0
2003,8180001105905,登記記録の閉鎖等,0,2025-03-26,2025-03-21,株式会社アマヌマ産業,,株式会社,愛知県,名古屋市昭和区,石仏町２丁目６番地の２,,23,107,4660023,,,2025-03-21,清算の結了等,,,2015-10-05,1,,,,,アマヌマサンギョウ,0
2012,8180303005976,登記記録の閉鎖等,0,2025-03-26,2025-03-18,合同会社ＦＥＲＮＡＶＡＩＬ,,合同会社,愛知県,豊橋市,牟呂町字中西１－２番地５棟２０７号室,,23,201,4418087,,,2025-03-18,清算の結了等,,,2024-01-22,1,,,,,フェルナベイル,0
2022,8250003002622,登記記録の閉鎖等,0,2025-03-26,2025-03-21,合同会社ツルタ,,合同会社,山口県,岩国市,通津１０５８番地５３,,35,208,7400044,,,2025-03-21,清算の結了等,,,2020-05-13,1,,,,,ツルタ,0
2025,8260002014972,登記記録の閉鎖等,0,2025-03-26,2025-03-21,有限会社小野商店,,有限会社,岡山県,赤磐市,仁堀中１６７０番地の１,,33,213,7012435,,,2025-03-21,清算の結了等,,,2015-10-05,1,,,,,オノショウテン,0
2026,8260002017141,登記記録の閉鎖等,0,2025-03-26,2025-03-17,岡部工業有限会社,,有限会社,岡山県,倉敷市,児島下の町４丁目９番６８号,,33,202,7110906,,,2025-03-17,清算の結了等,,,2015-10-05,1,,,,,オカベコウギョウ,0
2027,8260003004535,登記記録の閉鎖等,0,2025-03-26,2025-03-07,合同会社サンサンファクトリー,,合同会社,岡山県,岡山市北区,下中野３１６番地１１３,,33,101,7000973,,,2025-03-07,清算の結了等,,,2023-12-28,1,,,,,サンサンファクトリー,0
2028,8260005002561,登記記録の閉鎖等,0,2025-03-26,2025-03-24,特定非営利活動法人日医文化総研,,その他の設立登記法人,岡山県,岡山市北区,下石井１丁目１番３号,,33,101,7000907,,,2025-03-24,清算の結了等,,,2015-10-05,1,,,,,ニチイブンカソウケン,0
2045,8360002003940,登記記録の閉鎖等,0,2025-03-26,2025-03-25,有限会社ホワイト産業,,有限会社,沖縄県,中頭郡北谷町,字宮城１番地５６、２Ｆ－Ｂ,,47,326,9040113,,,2025-03-25,清算の結了等,,,2015-10-05,1,,,,,ホワイトサンギョウ,0
2070,8500002000584,登記記録の閉鎖等,0,2025-03-26,2025-03-25,有限会社アキ総合設計事務所,,有限会社,愛媛県,松山市,山越６丁目８番１号,,38,201,7918013,,,2025-03-25,清算の結了等,,,2015-10-05,1,,,,,アキソウゴウセッケイジムショ,0
2071,9010001023924,登記記録の閉鎖等,0,2025-03-26,2025-03-12,株式会社東武観光,,株式会社,東京都,千代田区,神田神保町１丁目１４番地,,13,101,1010051,,,2025-03-12,清算の結了等,,,2015-10-05,1,,,,,トウブカンコウ,0
2073,9010001121810,登記記録の閉鎖等,0,2025-03-26,2025-03-12,エーエルフォー株式会社,,株式会社,東京都,千代田区,九段北１丁目１３番５号,,13,101,1020073,,,2025-03-12,清算の結了等,,,2015-10-05,1,,,,,エーエルフォー,0
2074,9010001135463,登記記録の閉鎖等,0,2025-03-26,2025-03-12,真和ベルテック株式会社,,株式会社,東京都,中央区,八丁堀４丁目１１番７号,,13,102,1040032,,,2025-03-12,清算の結了等,,,2015-10-05,1,,,,,シンワベルテック,0
2081,9010001250345,登記記録の閉鎖等,0,2025-03-26,2025-03-19,株式会社ＨＳＣＯＭＰＡＮＹ,,株式会社,東京都,文京区,関口２丁目４番４号グランドメゾン目白坂テラス３０２,,13,105,1120014,,,2025-03-19,合併による解散等,1010401168343,令和７年２月２０日東京都港区赤坂五丁目４番１５号株式会社ＤＣＸｆｏｒｃｅ（1010401168343）に合併し解散,2024-12-06,1,,,,,エイチエスカンパニー,0
2084,9010003017684,登記記録の閉鎖等,0,2025-03-26,2025-03-11,合同会社東北早期復興支援ファンド２号,,合同会社,東京都,千代田区,岩本町１丁目１２番３号,,13,101,1010032,,,2025-03-11,清算の結了等,,,2015-10-05,1,,,,,トウホクソウキフッコウシエンファンドニゴウ,0
2113,9011001155393,登記記録の閉鎖等,0,2025-03-26,2025-03-24,株式会社ＳｕｎＥｍｏｔｉｏｎ,,株式会社,東京都,渋谷区,道玄坂１丁目１０番８号渋谷道玄坂東急ビル２Ｆ－Ｃ,,13,113,1500043,,,2025-03-24,清算の結了等,,,2023-07-03,1,,,,,サンエモーション,0
2116,9011003014135,登記記録の閉鎖等,0,2025-03-26,2025-03-18,ｆｏｒｅｓｔペレット合同会社,,合同会社,東京都,渋谷区,神南１丁目４番９号６Ｆ,,13,113,1500041,,,2025-03-18,合併による解散等,5290003007645,令和７年２月２８日福岡市中央区天神一丁目１番１号アクロス福岡１Ｆ福岡商事株式会社（5290003007645）に合併し解散,2022-02-10,1,,,,,フォレストペレット,0
2117,9011101100893,登記記録の閉鎖等,0,2025-03-26,2025-03-21,株式会社ｉｎｅｒｓｅｎｔｉａｌ,,株式会社,東京都,千代田区,二番町１２番３号グレイス麹町１１階,,13,101,1020084,,,2025-03-21,合併による解散等,8011101095615,令和７年３月１日東京都新宿区富久町７番６号サンクタス市ヶ谷富久町イーストタワーＥ２０１号室株式会社Ｄｒ．ＶＴ（8011101095615）に合併し解散,2022-11-25,1,,,,,イナセンシャル,0
2129,9012401005279,登記記録の閉鎖等,0,2025-03-26,2025-03-21,株式会社ニユーサンク,,株式会社,東京都,府中市,晴見町１丁目２番地の１５,,13,206,1830057,,,2025-03-21,清算の結了等,,,2015-10-05,1,,,,,ニユーサンク,0
2135,9020001121636,登記記録の閉鎖等,0,2025-03-26,2025-03-19,株式会社トータルビケン,,株式会社,神奈川県,横浜市保土ケ谷区,川島町５２０番地の９,,14,106,2400045,,,2025-03-19,清算の結了等,,,2017-06-02,1,,,,,トータルビケン,0
2142,9021001038738,登記記録の閉鎖等,0,2025-03-26,2025-03-24,株式会社フジテック,,株式会社,神奈川県,平塚市,花水台３４番１６号,,14,203,2540824,,,2025-03-24,清算の結了等,,,2015-10-05,1,,,,,フジテック,0
2169,9050001033523,登記記録の閉鎖等,0,2025-03-26,2025-03-14,株式会社みらい平不動産,,株式会社,茨城県,つくば市,吾妻３丁目８番地１１デルフィビル１０２,,08,220,3050031,,,2025-03-14,清算の結了等,,,2015-10-05,1,,,,,ミライダイラフドウサン,0
2178,9080401006571,登記記録の閉鎖等,0,2025-03-26,2025-03-17,株式会社フレディ,,株式会社,静岡県,浜松市中央区,天王町１４９５番地の１,,22,138,4350052,,,2025-03-17,合併による解散等,8080401001549,令和７年３月１５日静岡県浜松市中央区田町２３０番地の１５株式会社クラ・ゼミ（8080401001549）に合併し解散,2015-10-05,1,,,,,フレディ,0
2180,9090005004112,登記記録の閉鎖等,0,2025-03-26,2025-03-14,富士吉田市土地開発公社,,その他の設立登記法人,山梨県,富士吉田市,下吉田６丁目１番１号,,19,202,4030004,,,2025-03-14,清算の結了等,,,2015-10-05,1,,,,,フジヨシダシ,0
2182,9110002031775,登記記録の閉鎖等,0,2025-03-26,2025-03-24,有限会社博信開発,,有限会社,新潟県,見附市,南本町２丁目９番２１号,,15,211,9540056,,,2025-03-24,清算の結了等,,,2015-10-05,1,,,,,ハクシンカイカツ,0
2183,9120001236242,登記記録の閉鎖等,0,2025-03-26,2025-03-13,ＪＵＮＯＥＳＱＵＥ株式会社,,株式会社,大阪府,大阪市淀川区,西中島２丁目１０－１ダイアパレス新大阪８０１号,,27,123,5320011,,,2025-03-13,清算の結了等,,,2021-03-26,1,,,,,ジュノエスク,0
2197,9120905004728,登記記録の閉鎖等,0,2025-03-26,2025-03-14,一般社団法人関西介護タクシーネットワーク,,その他の設立登記法人,大阪府,吹田市,山田東３丁目２７番１８号,,27,205,5650821,,,2025-03-14,清算の結了等,,,2015-10-05,1,,,,,カンサイカイゴタクシーネットワーク,0
2199,9122002003159,登記記録の閉鎖等,0,2025-03-26,2025-03-21,有限会社ティーエヌケイ,,有限会社,大阪府,東大阪市,六万寺町３丁目１０番４１号,,27,227,5798061,,,2025-03-21,清算の結了等,,,2015-10-05,1,,,,,ティーエヌケイ,0
2203,9130002023333,登記記録の閉鎖等,0,2025-03-26,2025-03-21,有限会社秋田工業,,有限会社,京都府,京都市北区,紫竹高縄町３１番地１,,26,101,6038204,,,2025-03-21,清算の結了等,,,2015-10-05,1,,,,,アキタコウギョウ,0
2209,9140002042745,登記記録の閉鎖等,0,2025-03-26,2025-03-18,有限会社光山貢商店,,有限会社,兵庫県,尼崎市,御園２丁目１３番５号,,28,202,6610984,,,2025-03-18,清算の結了等,,,2015-10-05,1,,,,,ミツヤマミツグショウテン,0
2215,9150003001897,登記記録の閉鎖等,0,2025-03-26,2025-03-19,合同会社ケアプランセンターさくら,,合同会社,奈良県,宇陀市,菟田野松井１７５－４,,29,212,6332221,,,2025-03-19,清算の結了等,,,2019-02-26,1,,,,,ケアプランセンターサクラ,0
2217,9160001021599,登記記録の閉鎖等,0,2025-03-26,2025-03-25,株式会社湖北通信サービス,,株式会社,滋賀県,米原市,下多良３丁目１０３番地,,25,214,5210016,,,2025-03-25,清算の結了等,,,2019-04-24,1,,,,,コホクツウシンサービス,0
2236,9190001016159,登記記録の閉鎖等,0,2025-03-26,2025-03-24,株式会社ベルズインターナショナル,,株式会社,三重県,四日市市,白須賀３丁目３番２０号,,24,202,5100018,,,2025-03-24,清算の結了等,,,2015-10-05,1,,,,,ベルズインターナショナル,0
2243,9220002015635,登記記録の閉鎖等,0,2025-03-26,2025-03-18,有限会社スカイトラベル,,有限会社,石川県,鳳珠郡穴水町,字大町はの１３番地,,17,461,9270026,,,2025-03-18,清算の結了等,,,2015-10-05,1,,,,,スカイトラベル,0
2255,9290001070039,登記記録の閉鎖等,0,2025-03-26,2025-03-12,スピンテクノロジー株式会社,,株式会社,福岡県,福岡市中央区,薬院１丁目１４番５号,,40,133,8100022,,,2025-03-12,清算の結了等,,,2015-10-05,1,,,,,スピンテクノロジー,0
2260,9290002028201,登記記録の閉鎖等,0,2025-03-26,2025-03-10,株式会社ＡＮＣＨＯＲ,,株式会社,福岡県,福岡市中央区,大名１丁目９番４５－１０５号,,40,133,8100041,,,2025-03-10,清算の結了等,,,2015-10-05,1,,,,,,0
2262,9320001005437,登記記録の閉鎖等,0,2025-03-26,2025-03-21,株式会社奈良電気,,株式会社,大分県,大分市,大字津守５０１番地の２,,44,201,8700945,,,2025-03-21,清算の結了等,,,2015-10-05,1,,,,,ナラデンキ,0
2263,9320001016640,登記記録の閉鎖等,0,2025-03-26,2025-03-24,株式会社藤澤塗装店,,株式会社,大分県,大分市,大字上戸次３９５０番地の１,,44,201,8797764,,,2025-03-24,清算の結了等,,,2018-10-05,1,,,,,フジサワトソウテン,0
2264,9320002010015,登記記録の閉鎖等,0,2025-03-26,2025-03-24,有限会社原山工業,,有限会社,大分県,大分市,大字横尾３６５１番地の４,,44,201,8700126,,,2025-03-24,清算の結了等,,,2015-10-05,1,,,,,,0
2268,9350001013255,登記記録の閉鎖等,0,2025-03-26,2025-03-24,エール株式会社,,株式会社,宮崎県,宮崎市,大島町平原９３７番地１１,,45,201,8800824,,,2025-03-24,清算の結了等,,,2015-10-05,1,,,,,エール,0
2282,9430001092398,登記記録の閉鎖等,0,2025-03-26,2025-03-24,株式会社ｅｎｇｒａｖｅ,,株式会社,北海道,札幌市中央区,宮の森四条１０丁目５番３号,,01,101,0640954,,,2025-03-24,清算の結了等,,,2024-08-06,1,,,,,エングレイヴ,0
