sequenceNumber,corporateNumber,process,correct,updateDate,changeDate,name,nameImageId,kind,prefectureName,cityName,streetNumber,addressImageId,prefectureCode,cityCode,postCode,addressOutside,addressOutsideImageId,closeDate,closeCause,successorCorporateNumber,changeCause,assignmentDate,latest,enName,enPrefectureName,enCityName,enAddressOutside,furigana,hihyoji
8,1010001235782,新規,0,2023-06-09,2023-06-09,Ｆｏｕｒｗｉｎ株式会社,,株式会社,東京都,中央区,日本橋兜町１７－２,,13,102,1030026,,,,,,,2023-06-09,1,,,,,フォーウィン,0
9,1010001235881,新規,0,2023-06-09,2023-06-09,サイエンテックスジャパン株式会社,,株式会社,東京都,千代田区,外神田２丁目３番７号アーバンファーストビル４階,,13,101,1010021,,,,,,,2023-06-09,1,,,,,サイエンテックスジャパン,0
12,1010003040834,新規,0,2023-06-09,2023-06-09,Ｓｈｉｎｅ＆Ｃｏ．合同会社,,合同会社,東京都,文京区,小石川１丁目１番１８－１３０２号,,13,105,1120002,,,,,,,2023-06-09,1,,,,,シャインアンドカンパニー,0
14,1010101015671,新規,0,2023-06-09,2023-06-09,シェアードヴィジョンズ株式会社,,株式会社,東京都,八王子市,椚田町５０５番地１,,13,201,1930942,,,,,,,2023-06-09,1,,,,,シェアードヴィジョンズ,0
15,1010103002156,新規,0,2023-06-09,2023-06-09,イトウ合同会社,,合同会社,東京都,八王子市,寺町１－２８千代田マンション八王子４０４３号室,,13,201,1920073,,,,,,,2023-06-09,1,,,,,イトウ,0
20,1010401174787,新規,0,2023-06-09,2023-06-09,キセキ株式会社,,株式会社,東京都,港区,六本木７丁目１７番１２号六本木ビジネスアパートメンツ２１４号室,,13,103,1060032,,,,,,,2023-06-09,1,,,,,キセキ,0
21,1010401174804,新規,0,2023-06-09,2023-06-09,株式会社ｏｎｅ　ｓｈｏｔ,,株式会社,東京都,港区,三田１丁目６番３－２４０３号,,13,103,1080073,,,,,,,2023-06-09,1,,,,,ワンショット,0
22,1010401174812,新規,0,2023-06-09,2023-06-09,ＫＡＲＡＫＯ株式会社,,株式会社,東京都,港区,三田３丁目７番１３号,,13,103,1080073,,,,,,,2023-06-09,1,,,,,カラコ,0
23,1010401174845,新規,0,2023-06-09,2023-06-09,株式会社メインパープル,,株式会社,東京都,港区,麻布十番２丁目２１番６－２１０２号,,13,103,1060045,,,,,,,2023-06-09,1,,,,,メインパープル,0
24,1010401174861,新規,0,2023-06-09,2023-06-09,株式会社Ｌｅｐｕｓ,,株式会社,東京都,港区,赤坂２丁目８番１６号赤坂光和ビルＢ１Ｆ,,13,103,1070052,,,,,,,2023-06-09,1,,,,,レプス,0
25,1010401174894,新規,0,2023-06-09,2023-06-09,株式会社林璃の杜,,株式会社,東京都,港区,西麻布４丁目２１番１１号２Ｆ,,13,103,1060031,,,,,,,2023-06-09,1,,,,,リンリノモリ,0
30,1010501050582,新規,0,2023-06-09,2023-06-09,株式会社ＥＮＴｉ９,,株式会社,東京都,台東区,台東１丁目１２番２号,,13,106,1100016,,,,,,,2023-06-09,1,,,,,エンティック,0
36,1010701044384,新規,0,2023-06-09,2023-06-09,株式会社Ｙ２Ｆｏｒｃｅ,,株式会社,東京都,品川区,西五反田３丁目１５番６号,,13,109,1410031,,,,,,,2023-06-09,1,,,,,ワイツーフォース,0
37,1010701044401,新規,0,2023-06-09,2023-06-09,株式会社品美,,株式会社,東京都,品川区,南品川２丁目１２番２号,,13,109,1400004,,,,,,,2023-06-09,1,,,,,シナミ,0
41,1010801034038,新規,0,2023-06-09,2023-06-09,がんばれば愛株式会社,,株式会社,東京都,大田区,中央５丁目２９番１号ネオハイツ・ヴェルビュー００５号,,13,111,1430024,,,,,,,2023-06-09,1,,,,,ガンバレバアイ,0
42,1010805003030,新規,0,2023-06-09,2023-06-09,一般社団法人ＡＺ　Ｂａｎｄｅ,,その他の設立登記法人,東京都,大田区,東雪谷３丁目９番９号,,13,111,1450065,,,,,,,2023-06-09,1,,,,,アイジーバンデ,0
47,1010901053210,新規,0,2023-06-09,2023-06-09,ＡＲＣＳＴＡＮＣＥ株式会社,,株式会社,東京都,世田谷区,代沢１丁目１１番９号－３,,13,112,1550032,,,,,,,2023-06-09,1,,,,,アークスタンス,0
48,1010901053219,新規,0,2023-06-09,2023-06-09,株式会社ＨＯＨ,,株式会社,東京都,世田谷区,千歳台２丁目２２－１２,,13,112,1570071,,,,,,,2023-06-09,1,,,,,エイチオーエイチ,0
49,1010903008229,新規,0,2023-06-09,2023-06-09,ＡＮＴＯＮ合同会社,,合同会社,東京都,世田谷区,太子堂５丁目１４番１４号,,13,112,1540004,,,,,,,2023-06-09,1,,,,,アントン,0
54,1011001154915,新規,0,2023-06-09,2023-06-09,株式会社Ｗｉｓｅｂｉｒｄｓ　Ｊａｐａｎ,,株式会社,東京都,目黒区,下目黒１丁目８－１アルコタワー７階３９号,,13,110,1530064,,,,,,,2023-06-09,1,,,,,ワイズバーズジャパン,0
55,1011001154923,新規,0,2023-06-09,2023-06-09,株式会社ＦＡＢＩＡ,,株式会社,東京都,渋谷区,神山町４０－２,,13,113,1500047,,,,,,,2023-06-09,1,,,,,ファビア,0
56,1011001154948,新規,0,2023-06-09,2023-06-09,音柑株式会社,,株式会社,東京都,渋谷区,道玄坂１丁目１０番８号渋谷道玄坂東急ビル２Ｆ－Ｃ,,13,113,1500043,,,,,,,2023-06-09,1,,,,,オンカン,0
57,1011001154956,新規,0,2023-06-09,2023-06-09,株式会社ｊｅｋｉ　Ｐｒｏｍｏｔｉｏｎ　ＣＯＲＥ,,株式会社,東京都,渋谷区,恵比寿南１丁目５番５号,,13,113,1500022,,,,,,,2023-06-09,1,,,,,ジェイキプロモーションコア,0
61,1011003016956,新規,0,2023-06-09,2023-06-09,合同会社Ｊａｓｍｉｎｅ,,合同会社,東京都,渋谷区,道玄坂１丁目１０番８号渋谷道玄坂東急ビル２Ｆ－Ｃ,,13,113,1500043,,,,,,,2023-06-09,1,,,,,ジャスミン,0
62,1011003016964,新規,0,2023-06-09,2023-06-09,ＶＡＣ　Ｒｅａｌ　Ｅｓｔａｔｅ　Ａｄｖｉｓｏｒｙ合同会社,,合同会社,東京都,渋谷区,渋谷３丁目１番９号ＹＡＺＡＷＡビル３階,,13,113,1500002,,,,,,,2023-06-09,1,,,,,ブイエイシーリアルエステイトアドバイザリー,0
70,1011101103103,新規,0,2023-06-09,2023-06-09,株式会社ＥＳＯＬＡ,,株式会社,東京都,新宿区,西新宿７丁目２２番４３号,,13,104,1600023,,,,,,,2023-06-09,1,,,,,エソラ,0
71,1011101103169,新規,0,2023-06-09,2023-06-09,株式会社ＸＹＺ　ＴＯＫＹＯ,,株式会社,東京都,新宿区,大京町３番地２０,,13,104,1600015,,,,,,,2023-06-09,1,,,,,エックスワイゼットトウキョウ,0
72,1011103013127,新規,0,2023-06-09,2023-06-09,そめは合同会社,,合同会社,東京都,新宿区,新小川町９番１８号ダイヤハウス柏本２０３,,13,104,1620814,,,,,,,2023-06-09,1,,,,,ソメハ,0
76,1011203004100,新規,0,2023-06-09,2023-06-09,ＧＣｃｏｎｓｕｌｔｉｎｇ合同会社,,合同会社,東京都,中野区,中央１丁目２１－２－２０４,,13,114,1640011,,,,,,,2023-06-09,1,,,,,ジーシーコンサルティング,0
84,1011301028769,新規,0,2023-06-09,2023-06-09,株式会社Ｒｉｔｏｒｎｏ,,株式会社,東京都,杉並区,堀ノ内１丁目４番１４号ＬＥＧＡＬＡＮＤ方南町３０３,,13,115,1660013,,,,,,,2023-06-09,1,,,,,リトルノ,0
93,1012403006010,新規,0,2023-06-09,2023-06-09,合同会社メタマケ,,合同会社,東京都,多摩市,落合２丁目１７‐１０,,13,224,2060033,,,,,,,2023-06-09,1,,,,,メタマケ,0
96,1012801022427,新規,0,2023-06-09,2023-06-09,株式会社ビースタイル,,株式会社,東京都,立川市,柏町４丁目５０番地の２,,13,202,1900004,,,,,,,2023-06-09,1,,,,,ビースタイル,0
102,1013301050884,新規,0,2023-06-09,2023-06-09,ＡＳＡＭＩ株式会社,,株式会社,東京都,豊島区,巣鴨３丁目１番１４－３０２号,,13,116,1700002,,,,,,,2023-06-09,1,,,,,アサミ,0
110,1020001151995,新規,0,2023-06-09,2023-06-09,株式会社インテリア・青葉,,株式会社,神奈川県,横浜市青葉区,新石川１丁目４番地２ドレッセあざみ野エスタフレンテ１１４号,,14,117,2250003,,,,,,,2023-06-09,1,,,,,インテリアアオバ,0
115,1021001079269,新規,0,2023-06-09,2023-06-09,Ｔｏｙｏパーソナルエージェンシー株式会社,,株式会社,神奈川県,厚木市,林３丁目１５番５４号,,14,212,2430816,,,,,,,2023-06-09,1,,,,,トウヨウパーソナルエージェンシー,0
119,1021005012837,新規,0,2023-06-09,2023-06-09,一般社団法人日本ニューボーンフォトグラファー協会,,その他の設立登記法人,神奈川県,小田原市,飯泉３８番地の８,,14,206,2500863,,,,,,,2023-06-09,1,,,,,ニホンニューボーンフォトグラファーキョウカイ,0
124,1030001154238,新規,0,2023-06-09,2023-06-09,株式会社高貴,,株式会社,埼玉県,加須市,上樋遣川５２１０番地１,,11,210,3470003,,,,,,,2023-06-09,1,,,,,コウキ,0
125,1030001154287,新規,0,2023-06-09,2023-06-09,株式会社Ｌｉｆｅ＆Ｂｉｚサポート,,株式会社,埼玉県,本庄市,東台２丁目３番１号,,11,211,3670021,,,,,,,2023-06-09,1,,,,,ライフアンドヴィズサポート,0
126,1030001154295,新規,0,2023-06-09,2023-06-09,株式会社ＡＣＴＸ,,株式会社,埼玉県,熊谷市,太井１７０６番地の１,,11,202,3600025,,,,,,,2023-06-09,1,,,,,アクトス,0
127,1030001154320,新規,0,2023-06-09,2023-06-09,株式会社ユナイテック,,株式会社,埼玉県,川口市,大字安行北谷６０５番地の５,,11,203,3340054,,,,,,,2023-06-09,1,,,,,ユナイテック,0
128,1030001154337,新規,0,2023-06-09,2023-06-09,株式会社ＮＳＴＪＫ,,株式会社,埼玉県,蕨市,中央５丁目５番２号,,11,223,3350004,,,,,,,2023-06-09,1,,,,,エヌエスティジェイケイ,0
137,1040001128785,新規,0,2023-06-09,2023-06-09,株式会社ケイエスワン,,株式会社,千葉県,君津市,三直１２６４番地５８,,12,225,2991172,,,,,,,2023-06-09,1,,,,,ケイエスワン,0
144,1040005022035,新規,0,2023-06-09,2023-06-09,Ｓ＆Ｈコンサルティングパートナーズ社会保険労務士法人,,その他の設立登記法人,千葉県,野田市,光葉町２丁目１６番地の１８,,12,208,2780057,,,,,,,2023-06-09,1,,,,,エスアンドエイチコンサルティングパートナーズ,0
145,1040005022051,新規,0,2023-06-09,2023-06-09,一般社団法人千葉市地籍調査協会,,その他の設立登記法人,千葉県,千葉市中央区,中央３丁目１０番６号,,12,101,2600013,,,,,,,2023-06-09,1,,,,,チバシチセキチョウサキョウカイ,0
147,1050001052968,新規,0,2023-06-09,2023-06-09,株式会社セルフィッシュ,,株式会社,茨城県,下妻市,別府９７６番地,,08,210,3040821,,,,,,,2023-06-09,1,,,,,,0
148,1050001052976,新規,0,2023-06-09,2023-06-09,株式会社ＳＫＳ,,株式会社,茨城県,水戸市,千波町１７９９番地の４１,,08,201,3100851,,,,,,,2023-06-09,1,,,,,,0
150,1050003007573,新規,0,2023-06-09,2023-06-09,ＬＴ　Ａｓｓｅｔ　Ｍａｎａｇｅｍｅｎｔ合同会社,,合同会社,茨城県,つくば市,二の宮１丁目８－１８－２０４,,08,220,3050051,,,,,,,2023-06-09,1,,,,,,0
151,1060001036045,新規,0,2023-06-09,2023-06-09,イノウエ工業株式会社,,株式会社,栃木県,足利市,島田町７１２番地１０,,09,202,3260337,,,,,,,2023-06-09,1,,,,,イノウエコウギョウ,0
153,1060003004586,新規,0,2023-06-09,2023-06-09,合同会社ｆ,,合同会社,栃木県,宇都宮市,伝馬町４番８号,,09,201,3200035,,,,,,,2023-06-09,1,,,,,エフ,0
154,1060005010104,新規,0,2023-06-09,2023-06-09,一般社団法人日本メンタルアップ協会,,その他の設立登記法人,栃木県,足利市,久保田町１５４４番地,,09,202,3260324,,,,,,,2023-06-09,1,,,,,ニホンメンタルアップキョウカイ,0
156,1070001040533,新規,0,2023-06-09,2023-06-09,株式会社次世代,,株式会社,群馬県,太田市,市場町７２７番地７,,10,205,3730013,,,,,,,2023-06-09,1,,,,,ジセダイ,0
158,1080001025665,新規,0,2023-06-09,2023-06-09,株式会社さん,,株式会社,静岡県,静岡市葵区,慈悲尾２６２番地の６４,,22,101,4211211,,,,,,,2023-06-09,1,,,,,サン,0
165,1100001036494,新規,0,2023-06-09,2023-06-09,株式会社ＴＥＲＲＡＣＯＹＡ,,株式会社,長野県,上高井郡小布施町,大字北岡３３８番地,,20,541,3810206,,,,,,,2023-06-09,1,,,,,テラコヤ,0
170,1100003007048,新規,0,2023-06-09,2023-06-09,合同会社なまけもの,,合同会社,長野県,諏訪郡富士見町,富士見４６５４番地６,,20,362,3990211,,,,,,,2023-06-09,1,,,,,ナマケモノ,0
172,1110005016954,新規,0,2023-06-09,2023-06-09,一般社団法人ＣＯＲＥ’Ｓ,,その他の設立登記法人,新潟県,新潟市中央区,弁天３丁目２番２４号ＳＫＥＴＣＨ内,,15,103,9500901,,,,,,,2023-06-09,1,,,,,コアーズ,0
181,1120001255489,新規,0,2023-06-09,2023-06-09,アップ住建株式会社,,株式会社,大阪府,守口市,大日町３丁目３７番３号,,27,209,5700003,,,,,,,2023-06-09,1,,,,,アップジュウケン,0
182,1120001255588,新規,0,2023-06-09,2023-06-09,株式会社えむえむ,,株式会社,大阪府,大阪市中央区,大手通２丁目４番８号,,27,128,5400021,,,,,,,2023-06-09,1,,,,,エムエム,0
186,1120003024149,新規,0,2023-06-09,2023-06-09,坦途跨境貿易合同会社,,合同会社,大阪府,大阪市東淀川区,下新庄５丁目２２－２２ラフォーレ下新庄３０２号室,,27,114,5330021,,,,,,,2023-06-09,1,,,,,タントコキョウボウエキ,0
187,1120003024223,新規,0,2023-06-09,2023-06-09,ＵｉＣアドバイザリー合同会社,,合同会社,大阪府,大阪市鶴見区,放出東３丁目２１番４０号ローレルコート放出２０５,,27,124,5380044,,,,,,,2023-06-09,1,,,,,ユーアイシーアドバイザリー,0
188,1120003024231,新規,0,2023-06-09,2023-06-09,合同会社ｍｉｎｅｙ,,合同会社,大阪府,寝屋川市,梅が丘２丁目３２－１５,,27,215,5720803,,,,,,,2023-06-09,1,,,,,マイニィ,0
193,1120103005263,新規,0,2023-06-09,2023-06-09,合同会社カカシ,,合同会社,大阪府,堺市堺区,永代町５丁２番１８号,,27,141,5900065,,,,,,,2023-06-09,1,,,,,カカシ,0
195,1120903004679,新規,0,2023-06-09,2023-06-09,合同会社スマートエックス,,合同会社,大阪府,茨木市,五日市緑町３番４号ピュアハイム伊津香３０３号,,27,211,5670029,,,,,,,2023-06-09,1,,,,,スマートエックス,0
202,1130001074475,新規,0,2023-06-09,2023-06-09,京都文英堂株式会社,,株式会社,京都府,京都市南区,吉祥院嶋高町１２番地,,26,107,6018372,,,,,,,2023-06-09,1,,,,,キョウトブンエイドウ,0
203,1130001074500,新規,0,2023-06-09,2023-06-09,株式会社トランストレード大阪,,株式会社,京都府,京都市下京区,新町通綾小路下る船鉾町３７９番地トランスベックビル,,26,106,6008443,,,,,,,2023-06-09,1,,,,,トランストレードオオサカ,0
204,1130001074509,新規,0,2023-06-09,2023-06-09,株式会社ウッドワーカー,,株式会社,京都府,京都市北区,紫野門前町３９,,26,101,6038216,,,,,,,2023-06-09,1,,,,,ウッドワーカー,0
205,1130001074525,新規,0,2023-06-09,2023-06-09,株式会社らくだ舎,,株式会社,京都府,京都市伏見区,竹田田中宮町７番地ケイズビラ堀川４０１,,26,109,6128444,,,,,,,2023-06-09,1,,,,,ラクダシャ,0
213,1140001130384,新規,0,2023-06-09,2023-06-09,株式会社ＺＥＮ,,株式会社,兵庫県,西宮市,上大市５丁目２４番１４号,,28,204,6638003,,,,,,,2023-06-09,1,,,,,ゼン,0
216,1140003019147,新規,0,2023-06-09,2023-06-09,合同会社Ｏｒｇａｎｉｃ　Ｐｒｏｊｅｃｔ,,合同会社,兵庫県,西宮市,東町１丁目２番１３号,,28,204,6620922,,,,,,,2023-06-09,1,,,,,オーガニックプロジェクト,0
245,1220001025452,新規,0,2023-06-09,2023-06-09,株式会社カケル,,株式会社,石川県,河北郡津幡町,井上の荘３丁目２６番地,,17,361,9290335,,,,,,,2023-06-09,1,,,,,カケル,0
248,1220003003530,新規,0,2023-06-09,2023-06-09,どんぐり助産院合同会社,,合同会社,石川県,白山市,荒屋町に９５番地３,,17,210,9202151,,,,,,,2023-06-09,1,,,,,ドングリジョサンイン,0
252,1240003006168,新規,0,2023-06-09,2023-06-09,合同会社サポテン,,合同会社,広島県,広島市西区,南観音６丁目１２－７,,34,104,7330035,,,,,,,2023-06-09,1,,,,,サポテン,0
264,1290001101858,新規,0,2023-06-09,2023-06-09,株式会社ＺＥＣＨ,,株式会社,福岡県,福岡市中央区,今泉２丁目５番１９－８０２号,,40,133,8100021,,,,,,,2023-06-09,1,,,,,ゼック,0
265,1290001101866,新規,0,2023-06-09,2023-06-09,株式会社一心珠,,株式会社,福岡県,福岡市博多区,博多駅南２丁目１１－２５,,40,132,8120016,,,,,,,2023-06-09,1,,,,,イッシンシュ,0
266,1290001101874,新規,0,2023-06-09,2023-06-09,Ｌｕｎａ株式会社,,株式会社,福岡県,福津市,福間駅東２丁目２番２０号,,40,224,8113208,,,,,,,2023-06-09,1,,,,,ルナ,0
267,1290001101890,新規,0,2023-06-09,2023-06-09,鴻博商事株式会社,,株式会社,福岡県,福岡市南区,井尻４丁目４５番２０－２０２号,,40,134,8111302,,,,,,,2023-06-09,1,,,,,コウハクショウジ,0
269,1290801029605,新規,0,2023-06-09,2023-06-09,アイビー株式会社,,株式会社,福岡県,北九州市戸畑区,浅生３丁目５番１８号,,40,105,8040062,,,,,,,2023-06-09,1,,,,,アイビー,0
270,1300001013317,新規,0,2023-06-09,2023-06-09,株式会社シンエイ,,株式会社,佐賀県,佐賀市,諸富町大字徳富２０７２番地２,,41,201,8402104,,,,,,,2023-06-09,1,,,,,シンエイ,0
271,1300001013325,新規,0,2023-06-09,2023-06-09,株式会社ツジコ農林,,株式会社,佐賀県,武雄市,朝日町大字中野８０１０番地,,41,206,8430002,,,,,,,2023-06-09,1,,,,,ツジコノウリン,0
274,1320001019832,新規,0,2023-06-09,2023-06-09,株式会社装工社,,株式会社,大分県,大分市,明野高尾３丁目１５番１０号,,44,201,8700162,,,,,,,2023-06-09,1,,,,,ソウコウシャ,0
275,1330001030953,新規,0,2023-06-09,2023-06-09,株式会社Ｔａｚｏｅ　Ａｃｃｏｕｎｔｉｎｇ　Ｏｆｆｉｃｅ,,株式会社,熊本県,熊本市南区,御幸笛田４丁目１９番１５－１号,,43,104,8614172,,,,,,,2023-06-09,1,,,,,タゾエアカウンティングオフィス,0
284,1350001018402,新規,0,2023-06-09,2023-06-09,株式会社戸山業務店,,株式会社,宮崎県,宮崎市,吉村町北中甲１２０５番地６,,45,201,8800841,,,,,,,2023-06-09,1,,,,,トヤマギョウムテン,0
285,1350003004375,新規,0,2023-06-09,2023-06-09,Ａｇｅｎｔ　Ｗｏｒｋ合同会社,,合同会社,宮崎県,都城市,都北町５８６５番地４,,45,202,8850004,,,,,,,2023-06-09,1,,,,,エージェントワーク,0
290,1360001032096,新規,0,2023-06-09,2023-06-09,株式会社えびす,,株式会社,沖縄県,宮古島市,平良字西里２３３番地野津テナント２Ｆ,,47,214,9060012,,,,,,,2023-06-09,1,,,,,エビス,0
295,1380005012720,新規,0,2023-06-09,2023-06-09,一般社団法人福とらの会,,その他の設立登記法人,福島県,相馬市,中村字大手先４２番地の１５,,07,209,9760042,,,,,,,2023-06-09,1,,,,,フクトラノカイ,0
297,1390001017284,新規,0,2023-06-09,2023-06-09,ＳＯ　ＤＥＳＩＧＮ株式会社,,株式会社,山形県,山形市,千代田８番地１,,06,201,9900855,,,,,,,2023-06-09,1,,,,,ソーデザイン,0
309,1460101007392,新規,0,2023-06-09,2023-06-09,株式会社田中将文総合保険サービス,,株式会社,北海道,帯広市,西十五条南１１丁目１番地５２,,01,207,0800025,,,,,,,2023-06-09,1,,,,,タナカマサフミソウゴウホケンサービス,0
316,1700150117101,新規,0,2023-06-09,2023-06-09,Ｓｈｅｎｚｈｅｎ　Ｚｈｅｎｘｉｎ　Ｅ－ｃｏｍｍｅｒｃｅ　Ｃｏ．，ＬＴＤ,,外国会社等,,,,,,,,５３２Ｊ，Ｂｕｉｌｄｉｎｇ　４２７，Ｂａｇｕａｌｉｎｇ　Ｉｎｄｕｓｔｒｉａｌ　Ｚｏｎｅ，Ｎｏ．４７　Ｂａｇｕａｉ　Ｒｏａｄ，Ｈｕａｌｉｎ　Ｃｏｍｍｕｎｉｔｙ，Ｙｕａｎｌｉｎｇ　Ｓｔｒｅｅｔ，Ｆｕｔｉａｎ　Ｄｉｓｔｒｉｃｔ，Ｓｈｅｎｚｈｅｎ,,,,,,2023-06-09,1,,,,,シンセンシンシンイーコマースカンパニーリミテツド,0
317,1700150117118,新規,0,2023-06-09,2023-06-09,Ｘｕａｎｃｈｅｎｇ　ｃｉｔｙ　Ｙｕｇｕｏ　Ｅｌｅｃｔｒｏｎｉｃ　Ｃｏｍｍｅｒｃｅ　Ｃｏ．，Ｌｔｄ,,外国会社等,,,,,,,,Ａｎｈｕｉ　Ｆｅｉｃａｉ　ｓｔｒｅｅｔ　Ｊｉｎｒｕｉ　ｃｅｎｔｒａｌ　ｃｉｔｙ１－１－１９０４,,,,,,2023-06-09,1,,,,,シユエンチヨンシーイーグオデイエンズーシヤンウーヨウシエンゴンスー,0
318,1700150117126,新規,0,2023-06-09,2023-06-09,Ｓｈｅｎｚｈｅｎ　Ｆｕｓｉｄｕｏｔｅ　Ｔｅｃｈｎｏｌｏｇｙ　Ｃｏ．，Ｌｔｄ．,,外国会社等,,,,,,,,Ｒｏｏｍ　２１０２，Ｂｕｉｌｄｉｎｇ　７，Ｂａｏｎｅｎｇ　Ｔｅｃｈｎｏｌｏｇｙ　Ｐａｒｋ，Ｑｉｎｇｈｕ　Ｖｉｌｌａｇｅ，Ｑｉｎｇｈｕ　Ｃｏｍｍｕｎｉｔｙ，Ｌｏｎｇｈｕａ　Ｓｔｒｅｅｔ，Ｌｏｎｇｈｕａ　Ｄｉｓｔｒｉｃｔ，Ｓｈｅｎｚｈｅｎ，Ｃｈｉｎａ,,,,,,2023-06-09,1,,,,,シエンジエンシーフースードウオターコージーヨウシエンゴンスー,0
319,1700150117134,新規,0,2023-06-09,2023-06-09,Ｉｎｃｅｎｓｅ　Ｈｏｕｓｅ　Ｅｎｔｅｒｐｒｉｓｅ　Ｃｏ．Ｌｔｄ．,,外国会社等,,,,,,,,２Ｆ，ＮＯ．３１１　ＳＩＹＵＡＮ　ＲＤ．，ＸＩＮＺＨＵＡＮＧ　ＤＩＳＴ．，ＮＥＷ　ＴＡＩＰＥＩＣＩＴＹ２４２０３３，ＴＡＩＷＡＮ（Ｒ．Ｏ．Ｃ．）,,,,,,2023-06-09,1,,,,,チエンシヤンシヨーシーイエヨウシエンゴンスー,0
320,1700150117142,新規,0,2023-06-09,2023-06-09,ｓｈｅｎｚｈｅｎｓｈｉｑｉｃｈａｎｇｗａｎｇｌｕｏｋｅｊｉｙｏｕｘｉａｎｇｏｎｇｓｉ,,外国会社等,,,,,,,,Ｎｏ．９９９　Ｍｅｉｌｏｎｇ　Ａｖｅｎｕｅ，Ｌｏｎｇｈｕａ　Ｄｉｓｔｒｉｃｔ，Ｒｏｏｍ　３１０２，Ｕｎｉｔ　１Ｂ，Ｄｉｓｔｒｉｃｔ　５，Ｙｉｃｈｅｎｇ　Ｃｅｎｔｒａｌ　Ｇａｒｄｅｎ　ｓｈｅｎｚｈｅｎ　ｇｕａｎｇｄｏｎｇ,,,,,,2023-06-09,1,,,,,シエンジエンシーチーチヤンワンルオコージーヨウシエンゴンスー,0
321,1700150117150,新規,0,2023-06-09,2023-06-09,ＭＡＩＸＩＦＡＺＨＡＮ　ＬＩＭＩＴＥＤ,,外国会社等,,,,,,,,ＦＬＡＴ／ＲＭ　４０１　４／Ｆ　ＷＡＮＣＨＡＩ　ＣＥＮＴＲＡＬ　ＢＵＩＬＤＩＮＧ　８９　ＬＯＣＫＨＡＲＴ　ＲＯＡＤ，ＷＡＮ　ＣＨＡＩ，ＨＫ,,,,,,2023-06-09,1,,,,,マイシーフアージヤンヨウシエンゴンスー,0
322,1700150117159,新規,0,2023-06-09,2023-06-09,Ｆｕ　Ｚｈｏｕ　Ｄｉ　Ｑｉｕ　Ｔｅｃｈｎｏｌｏｇｙ　Ｃｏ．，Ｌｔｄ．,,外国会社等,,,,,,,,２Ｆ，Ｂｕｉｌｄｉｎｇ　Ｎｏ．６０，Ｐｕｓｈａｎｇ　Ｙｕａｎ　Ａｒｅａ　Ａ，１　Ｈｏｎｇｊｉａｎｇ　Ｒｄ，Ｃａｎｇｓｈａｎ　Ｄｉｓｔｒｉｃｔ，Ｆｕｚｈｏｕ　Ｃｉｔｙ，Ｆｕｊｉａｎ　Ｐｒｏｖｉｎｃｅ，３５０００８，Ｃｈｉｎａ,,,,,,2023-06-09,1,,,,,フージヨウデイーチユーコージーヨウシエンゴンスー,0
323,1700150117167,新規,0,2023-06-09,2023-06-09,ＳＨＥＮＺＨＥＮ　ＣＨＵＹＩ　ＫＥＪＩ　ＹＯＵＸＩＡＮ　ＧＯＮＧＳＩ,,外国会社等,,,,,,,,ｂａｎｔｉａｎｊｉｅｄａｏＨｅｂｅｉｃｕｎｘｉｎｈｅｊｉｅ２ｈａｏＪｉｎｆａｎｇｈｕａｄｉａｎｓｈａｎｇｃｈａｎｙｅｙｕａｎｓａｎｑｉ５ｄｏｎｇ６１ｏｕ６０３ｆａｎｇｊｉａｎｓｈｅｎｚｈｅｎｓｈｉＬｏｎｇｇａｎｇｑｕ　ＧＵＡＮＧＤＯＮＧ　Ｃｈｉｎａ，５１８１２９,,,,,,2023-06-09,1,,,,,シエンジエンチユーイーコージーヨウシエンゴンスー,0
324,1700150117175,新規,0,2023-06-09,2023-06-09,Ｄｏｎｇｔａｉ　Ｙｉ　Ｌｉ　Ｙａ　Ｃｌｏｔｈｉｎｇ　Ｃｏ．，Ｌｔｄ．,,外国会社等,,,,,,,,ｄｏｎｇｔａｉｓｈｉｄｏｎｇｔａｉｚｈｅｎｚｈｏｎｇｈｅｃｕｎｑｉｚｕ（ｓｕｎｃｈｕｎｌｉｎｊｉｎｇｙｉｎｇｘｉｎｇｙｉｎｇｘｉｎｇｙｏｎｇｆａｎｇｎｅｉ）,,,,,,2023-06-09,1,,,,,ドンタイイーリーヤーフーシーヨウシエンゴンスー,0
325,1700150117209,新規,0,2023-06-09,2023-06-09,Ｓｈｅｎｚｈｅｎ　Ｃｌｅｅｆｕｎ　Ｅｌｅｃｔｒｏｎｉｃ　Ｔｅｃｈｎｏｌｏｇｙ　Ｃｏ．，Ｌｔｄ,,外国会社等,,,,,,,,ｌｏｎｇ　ｈｕａ　ｑｕ　ｍｉｎ　ｚｈｉ　ｊｉｅ　ｄａｏ　ｘｉｎ　ｎｉｕ　ｓｈｅ　ｑｕ　ｍｉｎ　ｚｈｉ，ｄａ　ｄａｏ　ｎｉｕ　ｌａｎ　ｑｉａｎ　ｄａ　ｓｈａ　Ｂ８１５，ｓｈｅｎ　ｚｈｅｎ，ｇｕａｎｇ　ｄｏｎｇ，５１８０００，ＣＮ,,,,,,2023-06-09,1,,,,,シエンジエンシーチユワンラーフアンデイエンズーコージーヨウシエンゴンスー,0
326,1700150117217,新規,0,2023-06-09,2023-06-09,垣内地区,,その他,大阪府,八尾市,垣内３丁目１４６番地,,27,212,5810881,,,,,,,2023-06-09,1,,,,,カイチチク,0
337,2010001235864,新規,0,2023-06-09,2023-06-09,Ｇｌｏｂａｌ　Ｐａｃｈｉｎｋｏ株式会社,,株式会社,東京都,千代田区,神田和泉町１番地６－１６ヤマトビル４０５,,13,101,1010024,,,,,,,2023-06-09,1,,,,,グローバルパチンコ,0
343,2010101015670,新規,0,2023-06-09,2023-06-09,株式会社オオルリ,,株式会社,東京都,八王子市,散田町２丁目１４－１７,,13,201,1930832,,,,,,,2023-06-09,1,,,,,オオルリ,0
344,2010101015679,新規,0,2023-06-09,2023-06-09,株式会社あぷろーず,,株式会社,東京都,八王子市,南大沢２丁目１７番地７,,13,201,1920364,,,,,,,2023-06-09,1,,,,,アプローズ,0
351,2010401174844,新規,0,2023-06-09,2023-06-09,株式会社ボンビーノ,,株式会社,東京都,港区,麻布十番２丁目２１番６－２１０２号,,13,103,1060045,,,,,,,2023-06-09,1,,,,,ボンビーノ,0
353,2010403030277,新規,0,2023-06-09,2023-06-09,ＤＮインベストメント合同会社,,合同会社,東京都,港区,六本木６丁目１２番２－５１０号,,13,103,1060032,,,,,,,2023-06-09,1,,,,,ディーエヌインベストメント,0
361,2010601063244,新規,0,2023-06-09,2023-06-09,株式会社ビーピー,,株式会社,東京都,墨田区,本所４丁目２１番３号,,13,107,1300004,,,,,,,2023-06-09,1,,,,,ビーピー,0
363,2010801034012,新規,0,2023-06-09,2023-06-09,株式会社ＯＷＮ　ＰＥＡＫ,,株式会社,東京都,大田区,北千束１丁目６６番３号,,13,111,1450062,,,,,,,2023-06-09,1,,,,,オウンピーク,0
379,2011001154914,新規,0,2023-06-09,2023-06-09,株式会社トラスト,,株式会社,東京都,渋谷区,幡ヶ谷１丁目３番１号幡ヶ谷ゴールデンマンション７０６号室,,13,113,1510072,,,,,,,2023-06-09,1,,,,,トラスト,0
380,2011001154922,新規,0,2023-06-09,2023-06-09,株式会社コズモゴニックアーク,,株式会社,東京都,渋谷区,渋谷２丁目７番１４号ＶＯＲＴＡＯＹＡＭＡ３０２,,13,113,1500002,,,,,,,2023-06-09,1,,,,,コズモゴニックアーク,0
381,2011001154947,新規,0,2023-06-09,2023-06-09,株式会社Ｓｉｓｕ,,株式会社,東京都,渋谷区,千駄ヶ谷４丁目１３番７号,,13,113,1510051,,,,,,,2023-06-09,1,,,,,シス,0
382,2011001154963,新規,0,2023-06-09,2023-06-09,株式会社ＦｉｔＸ,,株式会社,東京都,渋谷区,上原２丁目３５番８－５０４号,,13,113,1510064,,,,,,,2023-06-09,1,,,,,フィットエックス,0
391,2011101103119,新規,0,2023-06-09,2023-06-09,株式会社Ｏｎｅ,,株式会社,東京都,新宿区,四谷１丁目１８ｂｅｌｌｅ四谷５階,,13,104,1600004,,,,,,,2023-06-09,1,,,,,ワン,0
392,2011101103192,新規,0,2023-06-09,2023-06-09,株式会社マネーシューズ,,株式会社,東京都,新宿区,新宿１丁目３１番１９号サンウエストビル４階,,13,104,1600022,,,,,,,2023-06-09,1,,,,,マネーシューズ,0
403,2011703003484,新規,0,2023-06-09,2023-06-09,合同会社セッターズ,,合同会社,東京都,江戸川区,南葛西５丁目２番２８号６０１,,13,123,1340085,,,,,,,2023-06-09,1,,,,,セッターズ,0
404,2011801042541,新規,0,2023-06-09,2023-06-09,株式会社ケイエムアドアプリ,,株式会社,東京都,足立区,千住龍田町３－１３－２Ｆ,,13,121,1200042,,,,,,,2023-06-09,1,,,,,ケイエムアドアプリ,0
406,2011803005686,新規,0,2023-06-09,2023-06-09,長谷川デザイン合同会社,,合同会社,東京都,足立区,扇１丁目２２番２６号イテリア扇Ｃ号室,,13,121,1230873,,,,,,,2023-06-09,1,,,,,ハセガワデザイン,0
409,2012401040605,新規,0,2023-06-09,2023-06-09,株式会社グリーンマリア,,株式会社,東京都,多摩市,落合１丁目５－１－３０７,,13,224,2060033,,,,,,,2023-06-09,1,,,,,グリーンマリア,0
410,2012403006001,新規,0,2023-06-09,2023-06-09,合同会社他力,,合同会社,東京都,府中市,是政５丁目６番６,,13,206,1830014,,,,,,,2023-06-09,1,,,,,タリキ,0
415,2013301050875,新規,0,2023-06-09,2023-06-09,富士高フーヅホールディングス株式会社,,株式会社,東京都,豊島区,駒込３丁目３番１７号,,13,116,1700003,,,,,,,2023-06-09,1,,,,,フジタカフーヅホールディングス,0
416,2013301050900,新規,0,2023-06-09,2023-06-09,Ｒａｙｓｄａｔａ　Ｇｒｏｕｐ株式会社,,株式会社,東京都,豊島区,東池袋３丁目２１番２１－２７０５号,,13,116,1700013,,,,,,,2023-06-09,1,,,,,レイズデータグループ,0
419,2013303006652,新規,0,2023-06-09,2023-06-09,Ｗｏｒｌｄｂｕｉｌｄｅｒ　Ｖｅｎｔｕｒｅｓ合同会社,,合同会社,東京都,豊島区,駒込３丁目１－３エコプレイス駒込Ａ－２階２０１号室,,13,116,1700003,,,,,,,2023-06-09,1,,,,,ワールドビルダーヴェンチャーズ,0
420,2013303006660,新規,0,2023-06-09,2023-06-09,合同会社ＴｏｕｇｈＳｅｖｅｎ,,合同会社,東京都,豊島区,東池袋３丁目１１番９号三島ビル４０２,,13,116,1700013,,,,,,,2023-06-09,1,,,,,タフセブン,0
433,2020001151978,新規,0,2023-06-09,2023-06-09,株式会社エストレラ,,株式会社,神奈川県,横浜市港北区,師岡町１番地１１,,14,109,2220002,,,,,,,2023-06-09,1,,,,,エストレラ,0
440,2021001079276,新規,0,2023-06-09,2023-06-09,株式会社ＤＯＮ,,株式会社,神奈川県,横須賀市,若松町３丁目１６－サンコリーヌタワー５０５,,14,201,2380007,,,,,,,2023-06-09,1,,,,,ドン,0
441,2021001079292,新規,0,2023-06-09,2023-06-09,株式会社座間工業,,株式会社,神奈川県,横須賀市,小矢部２丁目１５番１７号,,14,201,2380026,,,,,,,2023-06-09,1,,,,,ザマコウギョウ,0
444,2021005012836,新規,0,2023-06-09,2023-06-09,ＮＰＯ法人ハビリテーションケア,,その他の設立登記法人,神奈川県,逗子市,久木８丁目７番１５号,,14,208,2490001,,,,,,,2023-06-09,1,,,,,ハビリテーションケア,0
449,2030001154286,新規,0,2023-06-09,2023-06-09,株式会社ラネージュ,,株式会社,埼玉県,白岡市,新白岡２丁目１番地ルネ・グランテラス２０１,,11,246,3490212,,,,,,,2023-06-09,1,,,,,ラネージュ,0
450,2030001154294,新規,0,2023-06-09,2023-06-09,株式会社Ｅｎｓｅｍｂｌｅｓ,,株式会社,埼玉県,さいたま市南区,沼影１丁目１１番２号,,11,108,3360027,,,,,,,2023-06-09,1,,,,,アンサンブル,0
451,2030001154303,新規,0,2023-06-09,2023-06-09,株式会社フロアーＤ,,株式会社,埼玉県,さいたま市西区,大字指扇１０４番地１０,,11,101,3310047,,,,,,,2023-06-09,1,,,,,フロアーディー,0
452,2030003021897,新規,0,2023-06-09,2023-06-09,合同会社１３６,,合同会社,埼玉県,入間市,高倉１丁目６番３８－７０７号,,11,225,3580021,,,,,,,2023-06-09,1,,,,,イチサンロク,0
453,2030003021939,新規,0,2023-06-09,2023-06-09,紫電コンサルティング合同会社,,合同会社,埼玉県,川口市,芝西１丁目１７番２５号,,11,203,3330855,,,,,,,2023-06-09,1,,,,,シデンコンサルティング,0
457,2040001128768,新規,0,2023-06-09,2023-06-09,ハル運転代行株式会社,,株式会社,千葉県,君津市,鎌滝７１７番地４,,12,225,2921158,,,,,,,2023-06-09,1,,,,,ハルウンテンダイコウ,0
460,2040003022762,新規,0,2023-06-09,2023-06-09,ＡＳＩＲＡ　ＴＲＡＤＩＮＧ合同会社,,合同会社,千葉県,野田市,柏寺２３７－２,,12,208,2700214,,,,,,,2023-06-09,1,,,,,アシラトレーディング,0
465,2050001052967,新規,0,2023-06-09,2023-06-09,フラット株式会社,,株式会社,茨城県,筑西市,一本松１５３７番地２,,08,227,3080842,,,,,,,2023-06-09,1,,,,,フラット,0
468,2060001036060,新規,0,2023-06-09,2023-06-09,株式会社ＰＴＲ,,株式会社,栃木県,さくら市,喜連川８４－１,,09,214,3291412,,,,,,,2023-06-09,1,,,,,ピーティーアール,0
469,2060001036077,新規,0,2023-06-09,2023-06-09,株式会社想和,,株式会社,栃木県,栃木市,星野町４２７番地１,,09,203,3280201,,,,,,,2023-06-09,1,,,,,ソウワ,0
471,2060003004585,新規,0,2023-06-09,2023-06-09,合同会社躍進,,合同会社,栃木県,下野市,上坪山３６９番地,,09,216,3230113,,,,,,,2023-06-09,1,,,,,ヤクシン,0
472,2060003004593,新規,0,2023-06-09,2023-06-09,合同会社ＦＣＹｓ　ＧＲＯＵＰ,,合同会社,栃木県,那須塩原市,西栄町一丁目３番地,,09,213,3292728,,,,,,,2023-06-09,1,,,,,エフシーワイズグループ,0
476,2080101024070,新規,0,2023-06-09,2023-06-09,株式会社ぜんぶ,,株式会社,静岡県,沼津市,吉田町３５番１５号,,22,203,4100836,,,,,,,2023-06-09,1,,,,,ゼンブ,0
477,2080401026535,新規,0,2023-06-09,2023-06-09,株式会社長月,,株式会社,静岡県,浜松市浜北区,小松４４５６番地の１,,22,136,4340042,,,,,,,2023-06-09,1,,,,,ナガツキ,0
481,2100001036485,新規,0,2023-06-09,2023-06-09,株式会社テストデザインジャパン,,株式会社,長野県,駒ヶ根市,飯坂１丁目２９番４１号,,20,210,3994102,,,,,,,2023-06-09,1,,,,,テストデザインジャパン,0
496,2120001255463,新規,0,2023-06-09,2023-06-09,株式会社雄,,株式会社,大阪府,大阪市平野区,平野本町５丁目１３番８号,,27,126,5470044,,,,,,,2023-06-09,1,,,,,ユウ,0
497,2120001255562,新規,0,2023-06-09,2023-06-09,Ｃ＆Ｈ株式会社,,株式会社,大阪府,大阪市西淀川区,柏里３丁目１２－５塚本野村ビル２０６,,27,113,5550022,,,,,,,2023-06-09,1,,,,,シーアンドエイチ,0
498,2120001255579,新規,0,2023-06-09,2023-06-09,株式会社ポートラル,,株式会社,大阪府,大阪市生野区,鶴橋１丁目４－２,,27,116,5440031,,,,,,,2023-06-09,1,,,,,ポートラル,0
499,2120001255595,新規,0,2023-06-09,2023-06-09,株式会社プロペルインターナショナル,,株式会社,大阪府,大阪市北区,中津１丁目２番２１号中津明大ビル,,27,127,5310071,,,,,,,2023-06-09,1,,,,,,0
503,2120101067718,新規,0,2023-06-09,2023-06-09,株式会社プラスコード,,株式会社,大阪府,堺市北区,百舌鳥陵南町２丁６５９番地,,27,146,5918034,,,,,,,2023-06-09,1,,,,,プラスコード,0
505,2120103005262,新規,0,2023-06-09,2023-06-09,合同会社良幸,,合同会社,大阪府,泉南市,信達大苗代６６０－１グランドソレーユ泉南２階Ａ号,,27,228,5900505,,,,,,,2023-06-09,1,,,,,シアワセ,0
509,2120901047638,新規,0,2023-06-09,2023-06-09,ティーエスデザイン株式会社,,株式会社,大阪府,豊中市,曽根東町３丁目５番３号コマウィング７０１号室,,27,203,5610802,,,,,,,2023-06-09,1,,,,,ティーエスデザイン,0
516,2130001074499,新規,0,2023-06-09,2023-06-09,株式会社トラスト,,株式会社,京都府,京都市左京区,岩倉北池田町６番地１シェルブリュー岩倉２０３,,26,103,6060004,,,,,,,2023-06-09,1,,,,,トラスト,0
517,2130001074524,新規,0,2023-06-09,2023-06-09,青木工業株式会社,,株式会社,京都府,京都市伏見区,竹田西段川原町６５,,26,109,6128429,,,,,,,2023-06-09,1,,,,,アオキコウギョウ,0
527,2140001130433,新規,0,2023-06-09,2023-06-09,フレンドリー不動産管理株式会社,,株式会社,兵庫県,明石市,大道町１丁目５番５号,,28,203,6730029,,,,,,,2023-06-09,1,,,,,フレンドリーフドウサンカンリ,0
528,2140001130458,新規,0,2023-06-09,2023-06-09,谷口工業株式会社,,株式会社,兵庫県,姫路市,田寺７丁目９番１１号エクレール田寺Ａ棟１０３,,28,201,6700086,,,,,,,2023-06-09,1,,,,,タニグチコウギョウ,0
529,2140001130499,新規,0,2023-06-09,2023-06-09,株式会社ＪＣ　Ｃｏｍｍｅｒｃｅ,,株式会社,兵庫県,神戸市長田区,四番町２丁目５－１１,,28,106,6530004,,,,,,,2023-06-09,1,,,,,ジェイシーコマース,0
532,2140003019162,新規,0,2023-06-09,2023-06-09,オータムリーフ合同会社,,合同会社,兵庫県,高砂市,米田町米田８８４番地の３,,28,216,6760805,,,,,,,2023-06-09,1,,,,,オータムリーフ,0
533,2140003019195,新規,0,2023-06-09,2023-06-09,合同会社Ｋ‐ＡＤＶＡＮＣＥ,,合同会社,兵庫県,神戸市中央区,中山手通１丁目９番２号ＭＯＺＡＮビル６０７号,,28,110,6500004,,,,,,,2023-06-09,1,,,,,ケイアドバンス,0
542,2180001156672,新規,0,2023-06-09,2023-06-09,株式会社ＣＨＡｉＮＯＮ,,株式会社,愛知県,名古屋市中川区,松重町４番４１号,,23,110,4540003,,,,,,,2023-06-09,1,,,,,シェノン,0
543,2180001156680,新規,0,2023-06-09,2023-06-09,鳩屋株式会社,,株式会社,愛知県,名古屋市千種区,田代町字岩谷４０番地の８,,23,101,4640053,,,,,,,2023-06-09,1,,,,,ハトヤ,0
544,2180001156697,新規,0,2023-06-09,2023-06-09,アビーム株式会社,,株式会社,愛知県,名古屋市東区,古出来１丁目１番８号古出来ビル４Ｆ,,23,102,4610049,,,,,,,2023-06-09,1,,,,,アビーム,0
545,2180001156722,新規,0,2023-06-09,2023-06-09,株式会社ＳｕｎＴｏＬ,,株式会社,愛知県,名古屋市昭和区,小坂町２丁目８番地１Ｂｒａｎｃｈｅ吹上　ＬＡ　ＳＯＥＵＲ　４０２,,23,107,4660021,,,,,,,2023-06-09,1,,,,,サントエル,0
546,2180003025314,新規,0,2023-06-09,2023-06-09,合同会社Ｒｅｆｉｎｅｄ,,合同会社,愛知県,愛西市,大井町宮新田２２番地１６,,23,232,4960921,,,,,,,2023-06-09,1,,,,,リファインド,0
547,2180003025330,新規,0,2023-06-09,2023-06-09,Ｎｅｘｓｔａｒ合同会社,,合同会社,愛知県,知多郡武豊町,字長宗１丁目８２番地,,23,447,4702389,,,,,,,2023-06-09,1,,,,,ネクスター,0
556,2200001041392,新規,0,2023-06-09,2023-06-09,株式会社１年１組,,株式会社,岐阜県,岐阜市,交人４５９番地２,,21,201,5011115,,,,,,,2023-06-09,1,,,,,イチネンイチクミ,0
564,2220003003521,新規,0,2023-06-09,2023-06-09,合同会社ＫＡＲＡＳＡＷＡ．ＢＲＯ,,合同会社,石川県,金沢市,野町３丁目１‐２,,17,201,9218031,,,,,,,2023-06-09,1,,,,,カラサワブラザーズ,0
565,2230001019873,新規,0,2023-06-09,2023-06-09,株式会社ＮＥＸＴ　ＷＯＲＫＳ,,株式会社,富山県,富山市,大町３４番地３２,,16,201,9398073,,,,,,,2023-06-09,1,,,,,ネクストワークス,0
569,2250003003287,新規,0,2023-06-09,2023-06-09,合同会社ＫＯＵＢＯＫＵ,,合同会社,山口県,宇部市,野原１丁目１０番１３号,,35,202,7550024,,,,,,,2023-06-09,1,,,,,コウボク,0
575,2260003004326,新規,0,2023-06-09,2023-06-09,凡白庵合同会社,,合同会社,岡山県,岡山市北区,芳賀１７２８番地９,,33,101,7011221,,,,,,,2023-06-09,1,,,,,ボンパクアン,0
579,2290001101832,新規,0,2023-06-09,2023-06-09,株式会社Ｆｕｔｕｒｅ　ｉｓ　ｎｏｗ,,株式会社,福岡県,福岡市早良区,小田部１丁目１１番１５号,,40,137,8140032,,,,,,,2023-06-09,1,,,,,フューチャーイズナウ,0
580,2290001101865,新規,0,2023-06-09,2023-06-09,株式会社水まわりメンテ福岡,,株式会社,福岡県,筑紫野市,紫３丁目１０番３３号,,40,217,8180061,,,,,,,2023-06-09,1,,,,,ミズマワリメンテフクオカ,0
581,2290001101873,新規,0,2023-06-09,2023-06-09,株式会社ＰＲＯＴＥＲＩＥＲ,,株式会社,福岡県,福岡市東区,筥松１丁目１５番５号,,40,131,8120061,,,,,,,2023-06-09,1,,,,,プロテリア,0
582,2290001101881,新規,0,2023-06-09,2023-06-09,株式会社カースタイルジャパン,,株式会社,福岡県,福岡市中央区,高砂１丁目２０番１８号,,40,133,8100011,,,,,,,2023-06-09,1,,,,,カースタイルジャパン,0
588,2290801029604,新規,0,2023-06-09,2023-06-09,株式会社七日屋,,株式会社,福岡県,北九州市小倉南区,若園１丁目３番２号,,40,107,8020816,,,,,,,2023-06-09,1,,,,,ナノカヤ,0
589,2290803004431,新規,0,2023-06-09,2023-06-09,合同会社大樹,,合同会社,福岡県,北九州市小倉南区,田原新町２丁目７番１－２０５号,,40,107,8000226,,,,,,,2023-06-09,1,,,,,タイジュ,0
591,2310001018462,新規,0,2023-06-09,2023-06-09,株式会社矢野メディカルオフィス,,株式会社,長崎県,佐世保市,大和町４５－６０,,42,202,8571165,,,,,,,2023-06-09,1,,,,,ヤノメディカルオフィス,0
593,2320001019831,新規,0,2023-06-09,2023-06-09,株式会社Ｄ‐ｅｉ８ｈｔ,,株式会社,大分県,大分市,寿町９番１２号ロイヤルシティ寿町１００２,,44,201,8700036,,,,,,,2023-06-09,1,,,,,ディーエイト,0
603,2350001018401,新規,0,2023-06-09,2023-06-09,ＹＡＭＡＴＯ株式会社,,株式会社,宮崎県,宮崎市,大字小松９６８番地,,45,201,8802112,,,,,,,2023-06-09,1,,,,,ヤマト,0
605,2350003004374,新規,0,2023-06-09,2023-06-09,ＲＩＴＡ合同会社,,合同会社,宮崎県,宮崎市,学園木花台南３丁目３２－２,,45,201,8892153,,,,,,,2023-06-09,1,,,,,リタ,0
606,2360001032087,新規,0,2023-06-09,2023-06-09,株式会社クレスティーダ,,株式会社,沖縄県,豊見城市,字我那覇１２７番地,,47,212,9010231,,,,,,,2023-06-09,1,,,,,クレスティーダ,0
608,2360003013011,新規,0,2023-06-09,2023-06-09,Ｎｅｗ　Ｓｏｌｕｔｉｏｎ合同会社,,合同会社,沖縄県,国頭郡恩納村,字名嘉真２２８８番地８０ハレアネラ３０５号,,47,311,9040401,,,,,,,2023-06-09,1,,,,,ニューソリューション,0
609,2360003013052,新規,0,2023-06-09,2023-06-09,合同会社伶,,合同会社,沖縄県,那覇市,松尾２丁目１７番７号,,47,201,9000014,,,,,,,2023-06-09,1,,,,,レイ,0
612,2370001050071,新規,0,2023-06-09,2023-06-09,ラルステック株式会社,,株式会社,宮城県,仙台市青葉区,本町１丁目９番５号,,04,101,9800014,,,,,,,2023-06-09,1,,,,,ラルステック,0
613,2370005010641,新規,0,2023-06-09,2023-06-09,医療法人星陵眼科緑内障クリニック,,その他の設立登記法人,宮城県,仙台市青葉区,支倉町４番３１号田沼ビル２階,,04,101,9800824,,,,,,,2023-06-09,1,,,,,セイリョウガンカリョクナイショウクリニック,0
622,2470001019651,新規,0,2023-06-09,2023-06-09,株式会社タグサイン,,株式会社,香川県,三豊市,三野町大見甲５７３５番地１,,37,208,7670031,,,,,,,2023-06-09,1,,,,,タグサイン,0
626,2700150117100,新規,0,2023-06-09,2023-06-09,Ｈａｎｇｚｈｏｕ　Ｌａｎｄ　Ａｐｐａｒｅｌ　Ｃｏ．，Ｌｔｄ,,外国会社等,,,,,,,,２４１４，Ｔｈｅ　Ｍｉｘｃ　Ｔｏｗｅｒ　Ｂ，Ｎｏ．２８８　Ｙｏｎｇｊｉｕ　Ｒｏａｄ，Ｘｉａｏｓｈａｎ，Ｈａｎｇｚｈｏｕ，Ｚｈｅｊｉａｎｇ，Ｃｈｉｎａ　３１１２０２,,,,,,2023-06-09,1,,,,,コウシユウランドアパレルカンパニーリミテツド,0
627,2700150117117,新規,0,2023-06-09,2023-06-09,ｓｈｅｎｚｈｅｎｓｈｉｙｉｚｈｉｋｅｊｉｙｏｕｘｉａｎｇｏｎｇｓｉ,,外国会社等,,,,,,,,ｆｕ　ｔｉａｎ　ｑｕ　ｈｕａ　ｑｉａｎｇ　ｂｅｉ　ｊｉｅ　ｄａｏ　ｆｕ　ｑｉａｎｇ　ｓｈｅ　ｑｕ　ｓｈｅｎ　ｎａｎ　ｚｈｏｎｇ　ｌｕ　２０３２ｈａｏ　ａｉ　ｈｕａ　ｄｉａｎ　ｎａｏ　ｄａ　ｓｈａ　１ｃｅｎｇ　１１ｈａｏ　ｓｈｅｎ　ｚｈｅｎ　ｇｕａｎｇ　ｄｏｎｇ　５１８１００　ＣＮ,,,,,,2023-06-09,1,,,,,シエンジエンシーイージーコージーヨウシエンゴンスー,0
628,2700150117125,新規,0,2023-06-09,2023-06-09,ＳＨＥＮＺＨＥＮ　ＳＨＥＮＧＹＵＡＮ　ＢＯＹＡ　ＴＲＡＤＩＮＧ　ＣＯ．，ＬＴＤ,,外国会社等,,,,,,,,Ｎｏ．３０１，Ｎｏ．１２，Ｎｏ．２２，Ｇｕａｎｇｙａｙｕａｎ　Ｂｌｏｃｋ　９，Ｗｕｈｅ　Ｃｏｍｍｕｎｉｔｙ　Ｂａｎｔｉａｎ　Ｓｔｒｅｅｔ，Ｌｏｎｇｇａｎｇ　Ｄｉｓｔｒｉｃｔ　Ｓｈｅｎｚｈｅｎ　Ｇｕａｎｇｄｏｎｇ　５１８１２９　ＣＮ,,,,,,2023-06-09,1,,,,,シエンジエンシヨンユエンボーヤーマオイーヨウシエンゴンスー,0
629,2700150117133,新規,0,2023-06-09,2023-06-09,Ｓｈｅｎｚｈｅｎ　Ｄｅ　Ｂａｉ　Ｓｉ　Ｔｅ　ｔｒａｄｅ　Ｃｏｍｐａｎｙ　Ｌｉｍｉｔｅｄ,,外国会社等,,,,,,,,ｂａｏａｎｎａｎｌｕ１０５０ｈａｏｊｉａｂｉｎｈｕａｙｕａｎｊｉａｈｕａｇｅ２２Ｃ　ｌｕｏｈｕｑｕｇｕｉｙｕａｎｊｉｅｄａｏｒｅｎｍｉｎｑｉａｏｓｈｅｑｕ　ｓｈｅｎｚｈｅｎ　ｃｉｔｙ　ｇｕａｎｇｄｏｎｇ　ｐｒｏｖｉｎｃｅ,,,,,,2023-06-09,1,,,,,シエンジエンダーバイスーターマオイーヨウシエンゴンスー,0
630,2700150117141,新規,0,2023-06-09,2023-06-09,ｓｈｅｎｚｈｅｎｓｈｉ　ｂａｎｍｉａｏ　ｋｅｊｉ　ｙｏｕｘｉａｎ　ｇｏｎｇｓｉ,,外国会社等,,,,,,,,ｌ－８０１，Ｙａｒａｎｊｕ　Ｈｕａｔｉｎｇｇｅ，３３１　１ｓｔ　Ｑｉａｎｊｉｎ－Ｒｄ．，　Ｓｈｅｎｚｈｅｎ　Ｇｕａｎｇｄｏｎｇ,,,,,,2023-06-09,1,,,,,シエンジエンシーバンミヤオコージーヨウシエンゴンスー,0
631,2700150117158,新規,0,2023-06-09,2023-06-09,ＣＡＭＷＡＹ　ＴＲＡＤＩＮＧ　ＬＩＭＩＴＥＤ,,外国会社等,,,,,,,,ＵＮＩＴ　Ｄ　１６／Ｆ　ＯＮＥ　ＣＡＰＩＴＡＬ　ＰＬＡＣＥ　１８　ＬＵＡＲＤ　ＲＤ　ＷＡＮ　ＣＨＡＩ　９９９０７７　ＨＫ,,,,,,2023-06-09,1,,,,,カイウエイマオイーヨウシエンゴンスー,0
632,2700150117166,新規,0,2023-06-09,2023-06-09,Ｆｕ　ｚｈｏｕ　ｄｅ　ｓｅｎ　ｑｉａｎｇ　ｘｉｎ　ｘｉ　ｋｅ　ｊｉ　ｙｏｕ　ｘｉａｎ　ｇｏｎｇ　ｓｉ,,外国会社等,,,,,,,,Ａｎ　ＴａｉＪｉｅ　Ｄａｏ　Ｄｏｕ　Ｘｉ　Ｌｕ　１　Ｈａｏ　Ｆｕ　Ｓｈａｎｇ　Ｄａ　Ｓｈａ　４　Ｃｅｎｇ　０４　Ｄｉａｎ　Ｍｉａｎ　Ｃ３０　Ｊｉａｎ　Ｆｕｚｈｏｕ　Ｓｈｉ　Ｇｕｌｏｕ　Ｑｕ　Ｆｕｊｉａｎ　Ｓｈｅｎｇ,,,,,,2023-06-09,1,,,,,フージヨウダーセンチヤンシンシーコージーヨウシエンゴンスー,0
633,2700150117174,新規,0,2023-06-09,2023-06-09,Ｇｕｏｇｏｎｇ　Ｓｈｏｐｐｉｎｇ　Ｉｎｄｕｓｔｒｉａｌ　Ｃｏ．，Ｌｔｄ．,,外国会社等,,,,,,,,５Ｆ．，Ｎｏ．２７，ＹＯＮＧＹＵＡＮ　ＲＤ．，ＹＯＮＧＨＥ　ＤＩＳＴ．，ＮＥＷ　ＴＡＩＰＥＩ　ＣＩＴＹ２３４０３２，ＴＡＩＷＡＮ（Ｒ．Ｏ．Ｃ．）,,,,,,2023-06-09,1,,,,,グオゴンゴウウーシーイエヨウシエンゴンスー,0
649,3010003040691,新規,0,2023-06-09,2023-06-09,ＪａｐａｎＧｌｏｂａｌＣｏｎｎｅｃｔ合同会社,,合同会社,東京都,中央区,銀座１丁目１２番４号Ｎ＆ＥＢＬＤ．６Ｆ,,13,102,1040061,,,,,,,2023-06-09,1,,,,,ジャパングローバルコネクト,0
650,3010005036812,新規,0,2023-06-09,2023-06-09,一般社団法人日露経済交流フォーラム,,その他の設立登記法人,東京都,千代田区,平河町２丁目２番１号２階,,13,101,1020093,,,,,,,2023-06-09,1,,,,,ニチロケイザイコウリュウフォーラム,0
651,3010101015678,新規,0,2023-06-09,2023-06-09,株式会社縁と糸,,株式会社,東京都,八王子市,犬目町１１４番地１１,,13,201,1930802,,,,,,,2023-06-09,1,,,,,エントイト,0
652,3010103002154,新規,0,2023-06-09,2023-06-09,テイクストーンズコンサルティング合同会社,,合同会社,東京都,八王子市,散田町３丁目９番１５号ライオンズマンション西八王子駅前１００１号,,13,201,1930832,,,,,,,2023-06-09,1,,,,,テイクストーンズコンサルティング,0
659,3010401174802,新規,0,2023-06-09,2023-06-09,株式会社ビューティーラボ,,株式会社,東京都,港区,浜松町１丁目１２番８号,,13,103,1050013,,,,,,,2023-06-09,1,,,,,ビューティーラボ,0
660,3010401174835,新規,0,2023-06-09,2023-06-09,株式会社ＨＯＴ　ＭＡＮ,,株式会社,東京都,港区,新橋３丁目２２番２号つるやＴＫビル２Ｆ,,13,103,1050004,,,,,,,2023-06-09,1,,,,,ホットマン,0
662,3010403030243,新規,0,2023-06-09,2023-06-09,Ｙ　Ｃａｐｉｔａｌ合同会社,,合同会社,東京都,港区,南青山１丁目３番１－１１０８号,,13,103,1070062,,,,,,,2023-06-09,1,,,,,ワイキャピタル,0
663,3010403030268,新規,0,2023-06-09,2023-06-09,合同会社アニマルラボ,,合同会社,東京都,港区,赤坂８丁目１１番２６号,,13,103,1070052,,,,,,,2023-06-09,1,,,,,アニマルラボ,0
664,3010403030276,新規,0,2023-06-09,2023-06-09,合同会社エクスチェンジ,,合同会社,東京都,港区,新橋２丁目１６番１号,,13,103,1050004,,,,,,,2023-06-09,1,,,,,エクスチェンジ,0
667,3010601063243,新規,0,2023-06-09,2023-06-09,株式会社ジャストイット,,株式会社,東京都,江東区,枝川１丁目１４番１８号２０２,,13,108,1350051,,,,,,,2023-06-09,1,,,,,ジャストイット,0
668,3010603010193,新規,0,2023-06-09,2023-06-09,合同会社Ｎｏａ,,合同会社,東京都,江東区,冬木５番１号ＧＯＢＡＮＫＡＮ２０５,,13,108,1350041,,,,,,,2023-06-09,1,,,,,ノア,0
675,3010703006728,新規,0,2023-06-09,2023-06-09,合同会社ＧＦトラスト,,合同会社,東京都,品川区,西五反田１丁目１１ー１アイオス五反田９１１号室,,13,109,1410031,,,,,,,2023-06-09,1,,,,,ジーエフトラスト,0
688,3011001154921,新規,0,2023-06-09,2023-06-09,株式会社ＳＩＬＡＫ,,株式会社,東京都,渋谷区,道玄坂１丁目１０番８号渋谷道玄坂東急ビル２Ｆ－Ｃ,,13,113,1500043,,,,,,,2023-06-09,1,,,,,シラク,0
692,3011101103200,新規,0,2023-06-09,2023-06-09,株式会社ネクストメディアワーク,,株式会社,東京都,新宿区,新宿７丁目１２番１号新宿平和ビル１階,,13,104,1600022,,,,,,,2023-06-09,1,,,,,ネクストメディアワーク,0
698,3011401025193,新規,0,2023-06-09,2023-06-09,株式会社あやの和,,株式会社,東京都,板橋区,大山町４番６号セラヴィ大山４０１,,13,119,1730023,,,,,,,2023-06-09,1,,,,,アヤノワ,0
703,3011703003491,新規,0,2023-06-09,2023-06-09,ＺＳＪ合同会社,,合同会社,東京都,江戸川区,中葛西３丁目１１番１７号,,13,123,1340083,,,,,,,2023-06-09,1,,,,,ゼットエスジェイ,0
707,3012403006025,新規,0,2023-06-09,2023-06-09,合同会社もかそと,,合同会社,東京都,府中市,晴見町１丁目２８番地グリーンハイツ７号棟４０５,,13,206,1830057,,,,,,,2023-06-09,1,,,,,モカソト,0
710,3012801022409,新規,0,2023-06-09,2023-06-09,株式会社エータイムリー,,株式会社,東京都,昭島市,松原町１丁目１番２０－４２７号,,13,207,1960003,,,,,,,2023-06-09,1,,,,,エータイムリー,0
713,3013301050882,新規,0,2023-06-09,2023-06-09,キングスペックジャパン株式会社,,株式会社,東京都,豊島区,西巣鴨４丁目３１番４号青山ビル１Ｆ,,13,116,1700001,,,,,,,2023-06-09,1,,,,,キングスペックジャパン,0
718,3020001151985,新規,0,2023-06-09,2023-06-09,株式会社侘助,,株式会社,神奈川県,横浜市中区,山下町２８－２ライオンズプラザ山下公園１１０５,,14,104,2310023,,,,,,,2023-06-09,1,,,,,ワビスケ,0
730,3021001079250,新規,0,2023-06-09,2023-06-09,株式会社Ｉｎ　Ｌｉｖｉｎｇ,,株式会社,神奈川県,南足柄市,和田河原１１４９番地８,,14,217,2500112,,,,,,,2023-06-09,1,,,,,インリビング,0
731,3021001079275,新規,0,2023-06-09,2023-06-09,株式会社スタジオミモザ,,株式会社,神奈川県,横須賀市,鷹取１丁目１４番２３号,,14,201,2370067,,,,,,,2023-06-09,1,,,,,スタジオミモザ,0
732,3021003013190,新規,0,2023-06-09,2023-06-09,合同会社ＤＪ,,合同会社,神奈川県,座間市,広野台１丁目３６番８号コスモタカハシ２０１号,,14,216,2520012,,,,,,,2023-06-09,1,,,,,ディジェー,0
738,3030001154285,新規,0,2023-06-09,2023-06-09,千予株式会社,,株式会社,埼玉県,飯能市,大字下加治１６１番地１,,11,209,3570016,,,,,,,2023-06-09,1,,,,,センヨ,0
739,3030001154293,新規,0,2023-06-09,2023-06-09,株式会社アクロシード,,株式会社,埼玉県,新座市,片山１丁目７番９号,,11,230,3520025,,,,,,,2023-06-09,1,,,,,アクロシード,0
740,3030001154302,新規,0,2023-06-09,2023-06-09,ヒダクレ商事株式会社,,株式会社,埼玉県,川口市,芝３丁目１－２４メゾンハピーＩ３０５号室,,11,203,3330866,,,,,,,2023-06-09,1,,,,,ヒダクレショウジ,0
741,3030001154319,新規,0,2023-06-09,2023-06-09,株式会社福嘉建設,,株式会社,埼玉県,入間郡三芳町,大字藤久保８９番地５０,,11,324,3540041,,,,,,,2023-06-09,1,,,,,フクヨシケンセツ,0
746,3030003021888,新規,0,2023-06-09,2023-06-09,中通物流合同会社,,合同会社,埼玉県,比企郡ときがわ町,大字別所１４番地５,,11,349,3550352,,,,,,,2023-06-09,1,,,,,チュウツウブツリュウ,0
747,3030003021896,新規,0,2023-06-09,2023-06-09,合同会社マルキ建材,,合同会社,埼玉県,比企郡ときがわ町,大字玉川４０８４番地４,,11,349,3550342,,,,,,,2023-06-09,1,,,,,マルキケンザイ,0
748,3030003021905,新規,0,2023-06-09,2023-06-09,合同会社ＣＳＫ,,合同会社,埼玉県,さいたま市浦和区,岸町１丁目１５－１１－２,,11,107,3300064,,,,,,,2023-06-09,1,,,,,シーエスケイ,0
751,3040001128783,新規,0,2023-06-09,2023-06-09,株式会社ＬＩＮＫ,,株式会社,千葉県,印西市,発作４１３番地３,,12,231,2701361,,,,,,,2023-06-09,1,,,,,リンク,0
761,3050001052966,新規,0,2023-06-09,2023-06-09,株式会社Ｇｌａｄ,,株式会社,茨城県,ひたちなか市,柳沢２３６番地の２,,08,221,3111231,,,,,,,2023-06-09,1,,,,,グラッド,0
762,3050001052974,新規,0,2023-06-09,2023-06-09,ＹＯＬＯ株式会社,,株式会社,茨城県,守谷市,久保ケ丘２丁目１６番地８久保ケ丘ビル１０２,,08,224,3020104,,,,,,,2023-06-09,1,,,,,ヨロ,0
772,3060003004592,新規,0,2023-06-09,2023-06-09,ＶＩＫＲＡＭ　ＣＯＲＰＯＲＡＴＩＯＮ合同会社,,合同会社,栃木県,栃木市,岩舟町新里１３０４番地５３号室,,09,203,3294316,,,,,,,2023-06-09,1,,,,,ヴィクラムコーポレーション,0
779,3080101024061,新規,0,2023-06-09,2023-06-09,株式会社恩送り不動産,,株式会社,静岡県,富士市,中野５０５番地の６ウイングセブン１０１号室,,22,210,4170809,,,,,,,2023-06-09,1,,,,,オンオクリフドウサン,0
781,3080401026534,新規,0,2023-06-09,2023-06-09,Ａ‐ｐｌｕｓ建設株式会社,,株式会社,静岡県,浜松市東区,小池町２６７８番地の３,,22,132,4350056,,,,,,,2023-06-09,1,,,,,アプラスケンセツ,0
783,3100001036484,新規,0,2023-06-09,2023-06-09,株式会社ネコノテ舎,,株式会社,長野県,諏訪郡下諏訪町,本郷７０９８－１向陽台ハウスＦ,,20,361,3930025,,,,,,,2023-06-09,1,,,,,,0
784,3100001036492,新規,0,2023-06-09,2023-06-09,株式会社逸見解体,,株式会社,長野県,松本市,大字中山１１９６番地,,20,202,3900823,,,,,,,2023-06-09,1,,,,,ヘンミカイタイ,0
799,3120001255438,新規,0,2023-06-09,2023-06-09,遠洋株式会社,,株式会社,大阪府,大阪市淀川区,十三元今里２丁目１２番２５－２０３号,,27,123,5320028,,,,,,,2023-06-09,1,,,,,トウヨウ,0
800,3120001255479,新規,0,2023-06-09,2023-06-09,株式会社タイムアウトマーケット大阪,,株式会社,大阪府,大阪市北区,芝田１丁目１番４号,,27,127,5300012,,,,,,,2023-06-09,1,,,,,タイムアウトマーケットオオサカ,0
801,3120001255545,新規,0,2023-06-09,2023-06-09,株式会社グランソレイユ・エスケイ,,株式会社,大阪府,枚方市,楠葉野田２丁目３６番２６号,,27,210,5731103,,,,,,,2023-06-09,1,,,,,グランソレイユエスケイ,0
802,3120001255578,新規,0,2023-06-09,2023-06-09,キングファーニチャー株式会社,,株式会社,大阪府,大阪市東住吉区,照ケ丘矢田２丁目７番２号淘金ビルＡ号室,,27,121,5460021,,,,,,,2023-06-09,1,,,,,キングファーニチャー,0
803,3120001255594,新規,0,2023-06-09,2023-06-09,株式会社Ｐｌａｙ　ａｔ　Ｗｉｌｌ,,株式会社,大阪府,大阪市福島区,海老江５丁目２－６セイシア大拓２６－７０１号室,,27,103,5530001,,,,,,,2023-06-09,1,,,,,プレイアットエイル,0
811,3120901047629,新規,0,2023-06-09,2023-06-09,株式会社Ｕｓｔｏｒｋ,,株式会社,大阪府,吹田市,千里山東４丁目１４－２２－５０１,,27,205,5650842,,,,,,,2023-06-09,1,,,,,ユーストーク,0
812,3120901047637,新規,0,2023-06-09,2023-06-09,株式会社Ｊｕｓｔ　ｍｅａｔ,,株式会社,大阪府,豊中市,長興寺南３丁目５番６号,,27,203,5610874,,,,,,,2023-06-09,1,,,,,ジャストミート,0
817,3122001037048,新規,0,2023-06-09,2023-06-09,株式会社ＫＡＷＡＫＹＵ,,株式会社,大阪府,東大阪市,玉串元町２丁目９番２号,,27,227,5780933,,,,,,,2023-06-09,1,,,,,カワキュー,0
818,3122001037064,新規,0,2023-06-09,2023-06-09,株式会社ｋ‐ｈｏｕｓｅ建設,,株式会社,大阪府,大東市,氷野４丁目７番５２号,,27,218,5740062,,,,,,,2023-06-09,1,,,,,ケイハウスケンセツ,0
826,3130001074457,新規,0,2023-06-09,2023-06-09,人汽国際株式会社,,株式会社,京都府,京都市下京区,志水町１３８－２,,26,106,6008241,,,,,,,2023-06-09,1,,,,,ニンキコクサイ,0
827,3130001074473,新規,0,2023-06-09,2023-06-09,株式会社ＸＩ,,株式会社,京都府,宇治市,天神台１丁目１番地の１８,,26,204,6110029,,,,,,,2023-06-09,1,,,,,サイ,0
833,3140001130374,新規,0,2023-06-09,2023-06-09,ルフレス株式会社,,株式会社,兵庫県,神戸市東灘区,住吉宮町４丁目４－１,,28,101,6580053,,,,,,,2023-06-09,1,,,,,ルフレス,0
834,3140001130390,新規,0,2023-06-09,2023-06-09,株式会社ファイブゼン,,株式会社,兵庫県,洲本市,千草己４２７番地１８,,28,205,6560031,,,,,,,2023-06-09,1,,,,,ファイブゼン,0
835,3140001130432,新規,0,2023-06-09,2023-06-09,株式会社西光,,株式会社,兵庫県,宝塚市,安倉南２丁目４番２６号,,28,214,6650823,,,,,,,2023-06-09,1,,,,,セイコウ,0
836,3140001130457,新規,0,2023-06-09,2023-06-09,株式会社シン,,株式会社,兵庫県,姫路市,広畑区西蒲田１６８６番地,,28,201,6711107,,,,,,,2023-06-09,1,,,,,シン,0
837,3140003019186,新規,0,2023-06-09,2023-06-09,合同会社ＳＹＣ,,合同会社,兵庫県,神戸市中央区,磯辺通１丁目１番１８号カサベラ国際プラザビル７０７,,28,110,6510084,,,,,,,2023-06-09,1,,,,,エスワイシー,0
838,3140003019194,新規,0,2023-06-09,2023-06-09,Ｂｒｉｃｏｌｌａｂｏ合同会社,,合同会社,兵庫県,尼崎市,猪名寺１丁目１３番７号,,28,202,6610981,,,,,,,2023-06-09,1,,,,,ブリコラボ,0
846,3180001156688,新規,0,2023-06-09,2023-06-09,株式会社ＷＥＬＬＳ,,株式会社,愛知県,名古屋市中村区,名駅３丁目２８番１２号大名古屋ビルヂング１１階,,23,105,4500002,,,,,,,2023-06-09,1,,,,,ウェルス,0
847,3180001156705,新規,0,2023-06-09,2023-06-09,日航物流株式会社,,株式会社,愛知県,名古屋市中区,金山１丁目１５番３号アルバックスタワー金山駅前８０２号,,23,106,4600022,,,,,,,2023-06-09,1,,,,,ニッコウブツリュウ,0
849,3180301037472,新規,0,2023-06-09,2023-06-09,株式会社Ｒｈｙｏｌｉｔｅ,,株式会社,愛知県,豊田市,高岡町池端８１－２５,,23,211,4730933,,,,,,,2023-06-09,1,,,,,ライオライト,0
852,3180303005741,新規,0,2023-06-09,2023-06-09,合同会社ｅ．ｋトレーディング,,合同会社,愛知県,高浜市,沢渡町１丁目６番地５４,,23,227,4441333,,,,,,,2023-06-09,1,,,,,イーケイトレーディング,0
862,3220001025434,新規,0,2023-06-09,2023-06-09,株式会社ＮＬＤ,,株式会社,石川県,金沢市,片町２丁目２１番１２号,,17,201,9200981,,,,,,,2023-06-09,1,,,,,エヌエルディー,0
870,3250001020135,新規,0,2023-06-09,2023-06-09,株式会社インテリア園装,,株式会社,山口県,山陽小野田市,共和台１１番１号,,35,216,7560011,,,,,,,2023-06-09,1,,,,,インテリアエンソウ,0
871,3260001038028,新規,0,2023-06-09,2023-06-09,拓建匠株式会社,,株式会社,岡山県,倉敷市,児島下の町１０丁目３８４番地２６,,33,202,7110906,,,,,,,2023-06-09,1,,,,,ヒラキケンショウ,0
879,3290001101864,新規,0,2023-06-09,2023-06-09,株式会社ＨＮＣ,,株式会社,福岡県,福岡市南区,大橋４丁目２９番３０－１００２号エイリックスタイル大橋テラスヒルズ,,40,134,8150033,,,,,,,2023-06-09,1,,,,,エイチエヌシー,0
880,3290001101872,新規,0,2023-06-09,2023-06-09,株式会社ライトメディア,,株式会社,福岡県,福岡市博多区,博多駅前１丁目２３番２号ＰａｒｋＦｒｏｎｔ博多駅前１丁目５Ｆ－Ｂ,,40,132,8120011,,,,,,,2023-06-09,1,,,,,ライトメディア,0
881,3290001101889,新規,0,2023-06-09,2023-06-09,株式会社Ｐｉｎｎａｃｌｅ,,株式会社,福岡県,福岡市中央区,天神２丁目２番１２号Ｔ＆Ｊビルディング７Ｆ,,40,133,8100001,,,,,,,2023-06-09,1,,,,,ピナクル,0
885,3290003014008,新規,0,2023-06-09,2023-06-09,ＬＩＥＴＯ合同会社,,合同会社,福岡県,久留米市,太郎原町１４６４－５,,40,203,8390821,,,,,,,2023-06-09,1,,,,,リエート,0
886,3290005019054,新規,0,2023-06-09,2023-06-09,一般社団法人福岡ＰＲＯＣＥＥＤ,,その他の設立登記法人,福岡県,糟屋郡新宮町,美咲１丁目４番１０－２０３号,,40,345,8110121,,,,,,,2023-06-09,1,,,,,フクオカプロシード,0
888,3290801029603,新規,0,2023-06-09,2023-06-09,株式会社ＳＡＩ　ＧＨＡＮＩ,,株式会社,福岡県,宮若市,沼口１２１４－２,,40,226,8220152,,,,,,,2023-06-09,1,,,,,サイガーニ,0
890,3300003001978,新規,0,2023-06-09,2023-06-09,合同会社ＤＩＱ運輸,,合同会社,佐賀県,鳥栖市,真木町２０５３番地４ローアレーガー鳥栖２０１,,41,203,8410046,,,,,,,2023-06-09,1,,,,,ディアイキューウンユ,0
896,3350003004373,新規,0,2023-06-09,2023-06-09,合同会社黒木工業,,合同会社,宮崎県,えびの市,大字原田３４４８番地１,,45,209,8894301,,,,,,,2023-06-09,1,,,,,クロキコウギョウ,0
901,3370005010640,新規,0,2023-06-09,2023-06-09,医療法人結城記念みなと産婦人科クリニック,,その他の設立登記法人,宮城県,登米市,迫町佐沼字小金丁２２番地５,,04,212,9870511,,,,,,,2023-06-09,1,,,,,ユウキキネンミナトサンフジンカクリニック,0
903,3380001033776,新規,0,2023-06-09,2023-06-09,株式会社リメイク,,株式会社,福島県,会津若松市,門田町大字飯寺字村東３８１番地,,07,202,9650846,,,,,,,2023-06-09,1,,,,,リメイク,0
905,3400001016282,新規,0,2023-06-09,2023-06-09,Ｎｅａｒｌｙ　ｅｑｕａｌ株式会社,,株式会社,岩手県,盛岡市,盛岡駅前北通８番１９号,,03,201,0200033,,,,,,,2023-06-09,1,,,,,ニアイコール,0
909,3410001013502,新規,0,2023-06-09,2023-06-09,株式会社あきた自立推進機構ハッピーシャムロック,,株式会社,秋田県,秋田市,保戸野八丁４番５号,,05,201,0100903,,,,,,,2023-06-09,1,,,,,アキタジリツスイシンキコウハッピーシャムロック,0
912,3450001014018,新規,0,2023-06-09,2023-06-09,株式会社ＮＯＶＥＬ,,株式会社,北海道,旭川市,末広六条５丁目８番１０号,,01,204,0718136,,,,,,,2023-06-09,1,,,,,ノヴェル,0
920,3700150117099,新規,0,2023-06-09,2023-06-09,Ｓｈｅｎｚｈｅｎｓｈｉｊｉｎｍｏｄｉａｎｚｉｋｅｊｉｙｏｕｘｉａｎｇｏｎｇｓｉ,,外国会社等,,,,,,,,ｓｈｅｎｚｈｅｎｓｈｉｌｏｎｇｈｕａｑｕｌｏｎｇｈｕａｊｉｅｄａｏｆｕｋａｎｇｓｈｅｑｕｘｕｒｉｘｉａｏｑｕ１－２ｄｏｎｇ１３１１,,,,,,2023-06-09,1,,,,,シンセンシキンハクデンシカギユウゲンコウシ,0
921,3700150117108,新規,0,2023-06-09,2023-06-09,ｙｕｅ　ｑｉｎｇ　ｓｈｉ　ｈｅ　ｘｕｎ　ｄｉａｎ　ｑｉ　ｙｏｕ　ｘｉａｎ　ｇｏｎｇ　ｓｉ,,外国会社等,,,,,,,,ｙａｎ　ｐｅｎ　ｊｉｅ　ｄａｏ　ｗｕ　ａｏ　ｃｕｎ　ｗｅｎ　ｚｈｏｕ／ｙｕｅ　ｑｉｎｇ　ｚｈｅ　ｊｉａｎｇ,,,,,,2023-06-09,1,,,,,ラクセイシカクソンデンキユウゲンコウシ,0
922,3700150117116,新規,0,2023-06-09,2023-06-09,Ｓｈｅｎｚｈｅｎ　Ｚｈｉｃｈｅｎ　Ｌｉｇｈｔｉｎｇ　Ｃｏ．，Ｌｔｄ．,,外国会社等,,,,,,,,Ｚｈｏｕｓｈｉ　Ｒｏａｄ，Ｓｈｉｙａｎ　Ｔｏｗｎ．Ｌａｎｇｘｉｎ　Ｃｏｍｍｕｎｉｔｙ，　Ｂａｏａｎ　Ｄｉｓｉｒｉｃｔ，Ｅａｓｔ　２／Ｆ　Ｂｕｉｌｄｉｎｇ　Ｇ　Ｗａｎｄａ　Ｉｎｄｕｓｔｒｉａｌ　Ｚｏｎｅ，Ｓｈｅｎｚｈｅｎ　Ｇｕａｎｇｄｏｎｇ,,,,,,2023-06-09,1,,,,,シエンジエンシージーチエンジヤオミンヨウシエンゴンスー,0
923,3700150117124,新規,0,2023-06-09,2023-06-09,Ｓｈｅｎｚｈｅｎ　Ｚｈａｏｙａｎｇｔｉａｎｘｉａ　Ｔｅｃｈｎｏｌｏｇｙ　Ｃｏ．，Ｌｔｄ．,,外国会社等,,,,,,,,２１７，Ｂｕｉｌｄｉｎｇ　Ｃ１，Ｂａｎｔｉａｎ　Ｉｎｔｅｒｎａｔｉｏｎａｌ　Ｃｅｎｔｅｒ，Ｎｏ．５　Ｈｕａｎｃｈｅｎｇ　Ｓｏｕｔｈ　Ｒｏａｄ．Ｂａｎｔｉａｎ　Ｓｔｒｅｅｔ，Ｌｏｎｇｇａｎｇ　Ｄｉｓｔｒｉｃｔ，Ｓｈｅｎｚｈｅｎ，Ｃｈｉｎａ,,,,,,2023-06-09,1,,,,,シエンジエンシージヤオヤンテイエンシヤーコージーヨウシエンゴンスー,0
924,3700150117132,新規,0,2023-06-09,2023-06-09,Ｄｏｎｇｇｕａｎ　Ｈｏｎｇｄａ　Ｐｒｏｄｕｃｔ　Ｄｅｓｉｇｎ　Ｃｏ．，Ｌｔｄ,,外国会社等,,,,,,,,Ｎｏ．５，Ｅａｓｔ　２ｎｄ　Ｌａｎｅ　Ｄｅｚｈｅｎｇ　Ｒｏａｄ　Ｗｅｓｔ　Ｘｉｎ’ａｎ　Ｃｏｍｍｕｎｉｔｙ，Ｃｈａｎｇ’ａｎ　Ｔｏｗｎ　Ｄｏｎｇｇｕａｎ　Ｇｕａｎｇｄｏｎｇ　Ｐｒｏｖｉｎｃｅ　５２３８００　ＣＮ,,,,,,2023-06-09,1,,,,,ドングワンシーホンダーチヤンピンシヨージーヨウシエンゴンスー,0
925,3700150117140,新規,0,2023-06-09,2023-06-09,Ｄｏｎｇｇｕａｎ　Ｋｕ　ｋａ　ｋａ　Ｅｌｅｃｔｒｏｎｉｃ　Ｃｏｍｍｅｒｃｅ　ｃｏ．，ＬＴＤ,,外国会社等,,,,,,,,Ｒｏｏｍ　４０５，Ｎｏ．１１，Ｌａｎｅ　４，Ｇｕａｎｃｈｅｎｇ　Ｘｉｎｇｔａｎｇ　Ｄｉｓｔｒｉｃｔ　Ｄｏｎｇｇｕａｎｇ　Ｇｕａｎｇｄｏｎｇ　５２３０００　ＣＮ,,,,,,2023-06-09,1,,,,,ドングワンシークーカーカーデイエンズーシヤンウーヨウシエンゴンスー,0
926,3700150117149,新規,0,2023-06-09,2023-06-09,Ｋｅｒｉｃｈｅｍ　Ｍａｔｅｒｉａｌｓ　Ｓｃｉｅｎｃｅ　Ｃｏ．，　Ｌｔｄ,,外国会社等,,,,,,,,Ｎｏ．３９，Ｊｉｎｇ　３ｒｄ　Ｒｄ．，Ｗｕｑｉ　Ｄｉｓｔ．，Ｔａｉｃｈｕｎｇ，Ｔａｉｗａｎ,,,,,,2023-06-09,1,,,,,カイリーケンツアイリヤオコージーグーフエンヨウシエンゴンスー,0
927,3700150117157,新規,0,2023-06-09,2023-06-09,Ｎａｎ　Ｔｏｎｇ　ＷａｎＬｉ　Ｔｅｘｔｉｌｅ　Ｃｏ．ｌｔｄ,,外国会社等,,,,,,,,Ｒ７１－１０１　ＨＡＯ　ＸＩ　ＹＵＡＮ　ＢＵＩＬＤＩＮＧ　ＮＡＮＴＯＮＧ　ＪＩＡＮＧＳＵ　２２６００１　ＣＮ,,,,,,2023-06-09,1,,,,,ナントンシーワンリーフアンジーヨウシエンゴンスー,0
928,3700150117165,新規,0,2023-06-09,2023-06-09,Ｎｉｎｇ　ｂｏ　ｆａｎ　ｈａｉ　ｇｕｏ　ｊｉ　ｍａｏ　ｙｉ　ｙｏｕ　ｘｉａｎ　ｇｏｎｇ　ｓｉ,,外国会社等,,,,,,,,ｚｈｅｊｉａｎｇｓｈｅｎｇｎｉｎｇｂｏｓｈｉｈａｉｓｈｕｑｕｓｈｕｎｄｅｌｕ１３６ｎｏｎｇ５８ｈａｏ＜１５－４７＞＜１５－４９＞,,,,,,2023-06-09,1,,,,,ニンボーフアンハイグオジーマオイーヨウシエンゴンスー,0
929,3700150117173,新規,0,2023-06-09,2023-06-09,Ｂｅｉｊｉｎｇ　Ｂｅｉｘｉ　Ｔｅｃｈｎｏｌｏｇｙ　Ｃｏ．Ｌｔｄ,,外国会社等,,,,,,,,Ｒｏｏｍ　５０７Ｂ，Ｆｌｏｏｒ　１０１，Ｆｌｏｏｒ　２－１２，Ｂｕｉｌｄｉｎｇ　１，Ｎｏ．１５，Ｈｏｎｇｊｕｎｙｉｎｇ　Ｓｏｕｔｈ　Ｒｏａｄ，Ｃｈａｏｙａｎｇ　Ｄｉｓｔｒｉｃｔ，Ｂｅｉｊｉｎｇ　Ｃｉｔｙ，Ｐ．Ｒ．Ｃｈｉｎａ,,,,,,2023-06-09,1,,,,,ベイジンベイシーコージーヨウシエンゾーレンゴンスー,0
930,3700150117207,新規,0,2023-06-09,2023-06-09,Ｓｈｅｎｚｈｅｎ　Ｌａｉｋａ　Ｉｎｎｏｖａｔｉｏｎ　Ｃｏ．，Ｌｔｄ,,外国会社等,,,,,,,,Ｎｏ　２１２５，Ｍｅｉｌｏｎｇ　Ａｖｅｎｕｅ，Ｌｏｎｇｈｕａ　Ｄｉｓｔｒｉｃｔ，Ｒｏｏｍ　１０１６０２，Ｕｎｉｔ　Ａ，Ｗｅｉｄｏｎｇｌｏｎｇ　Ｂｕｓｉｎｅｓｓ　Ｂｕｉｌｄｉｎｇ，Ｓｈｅｎｚｈｅｎ，Ｇｕａｎｇｄｏｎｇ,,,,,,2023-06-09,1,,,,,シンセンライカソウシンユウゲンコウシ,0
934,4010001235937,新規,0,2023-06-09,2023-06-09,３＆Ｆ　ＡＳＥＥＴＰＲＯＴＥＣＴＯＮ株式会社,,株式会社,東京都,中央区,日本橋小伝馬町２１－１－６Ｆ,,13,102,1030001,,,,,,,2023-06-09,1,,,,,スリーアンドエフアセットプロテクション,0
935,4010001235986,新規,0,2023-06-09,2023-06-09,オンリーワンイノベーション株式会社,,株式会社,東京都,中央区,日本橋室町１丁目１１番１２号日本橋水野ビル７階,,13,102,1030022,,,,,,,2023-06-09,1,,,,,オンリーワンイノベーション,0
939,4010003040823,新規,0,2023-06-09,2023-06-09,合同会社オルタナ２５,,合同会社,東京都,千代田区,丸の内３丁目１番１号東京共同会計事務所内,,13,101,1000005,,,,,,,2023-06-09,1,,,,,オルタナトゥエンティファイブ,0
941,4010101015677,新規,0,2023-06-09,2023-06-09,株式会社メルヘンホールディングス,,株式会社,東京都,八王子市,散田町３丁目７番１８号,,13,201,1930832,,,,,,,2023-06-09,1,,,,,メルヘンホールディングス,0
949,4010401174801,新規,0,2023-06-09,2023-06-09,ｐａｐａｙａ　ｊａｐａｎ株式会社,,株式会社,東京都,港区,虎ノ門４丁目１番４０号,,13,103,1050001,,,,,,,2023-06-09,1,,,,,パパヤジャパン,0
950,4010401174826,新規,0,2023-06-09,2023-06-09,株式会社ベルネージュ,,株式会社,東京都,港区,南麻布５丁目１５番１６号,,13,103,1060047,,,,,,,2023-06-09,1,,,,,ベルネージュ,0
951,4010401174834,新規,0,2023-06-09,2023-06-09,株式会社Ｎｓ　Ｌｅａｄ,,株式会社,東京都,港区,芝５丁目３２番１２号,,13,103,1080014,,,,,,,2023-06-09,1,,,,,ナースリード,0
952,4010401174891,新規,0,2023-06-09,2023-06-09,株式会社ＣｘＯ　ＶＡＬＵＥ,,株式会社,東京都,港区,北青山１丁目３番１号アールキューブ青山３Ｆ,,13,103,1070061,,,,,,,2023-06-09,1,,,,,シーエックスオーバリュー,0
953,4010401174917,新規,0,2023-06-09,2023-06-09,株式会社イネーブルメント・コンサルティング,,株式会社,東京都,港区,南青山３丁目１５番９号ＭＩＮＯＷＡ表参道３階２６０号室,,13,103,1070062,,,,,,,2023-06-09,1,,,,,イネーブルメントコンサルティング,0
958,4010501050563,新規,0,2023-06-09,2023-06-09,株式会社ターゾー,,株式会社,東京都,台東区,上野３丁目１０番６－６０１号,,13,106,1100005,,,,,,,2023-06-09,1,,,,,ターゾー,0
961,4010601063242,新規,0,2023-06-09,2023-06-09,株式会社Ｕｎｉ‐ＩＴ,,株式会社,東京都,江東区,深川２丁目５番１号,,13,108,1350033,,,,,,,2023-06-09,1,,,,,ユニット,0
967,4010701044398,新規,0,2023-06-09,2023-06-09,株式会社ＸＥＮＤＯＵ,,株式会社,東京都,品川区,西五反田８丁目８番１５号カーニープレイス五反田４Ｆ,,13,109,1410031,,,,,,,2023-06-09,1,,,,,センドウ,0
975,4010803004572,新規,0,2023-06-09,2023-06-09,合同会社ゼロエミッション火力発電システム研究所,,合同会社,東京都,大田区,田園調布２丁目８番１４号,,13,111,1450071,,,,,,,2023-06-09,1,,,,,ゼロエミッションカリョクハツデンシステムケンキュウジョ,0
976,4010901053224,新規,0,2023-06-09,2023-06-09,Ｇｏｏｄ　Ｍｉｒｅ株式会社,,株式会社,東京都,世田谷区,太子堂３丁目３８番１号,,13,112,1540004,,,,,,,2023-06-09,1,,,,,グッドミレ,0
981,4011001154961,新規,0,2023-06-09,2023-06-09,株式会社オープンキャスティング,,株式会社,東京都,渋谷区,神宮前５丁目６番４号Ｐａｔｈ表参道Ｃ棟３階,,13,113,1500001,,,,,,,2023-06-09,1,,,,,オープンキャスティング,0
982,4011001154978,新規,0,2023-06-09,2023-06-09,株式会社ＣＨＥＥＲＳ,,株式会社,東京都,渋谷区,渋谷２丁目１４番１３号岡崎ビル８階,,13,113,1500002,,,,,,,2023-06-09,1,,,,,チアーズ,0
983,4011003016953,新規,0,2023-06-09,2023-06-09,ゆかしの合同会社,,合同会社,東京都,渋谷区,幡ヶ谷１丁目２－２京王幡ヶ谷ビル４Ｆ,,13,113,1510072,,,,,,,2023-06-09,1,,,,,ユカシノ,0
991,4011201024691,新規,0,2023-06-09,2023-06-09,株式会社Ｓｔｕｄｉｏ６２,,株式会社,東京都,中野区,中央３丁目１３－１４田中ビル２階,,13,114,1640011,,,,,,,2023-06-09,1,,,,,スタジオロクニー,0
993,4011303004798,新規,0,2023-06-09,2023-06-09,合同会社Ｇｉｓ,,合同会社,東京都,杉並区,西荻南３丁目８－１６メゾン西荻４１３,,13,115,1670053,,,,,,,2023-06-09,1,,,,,ジス,0
994,4011305002908,新規,0,2023-06-09,2023-06-09,一般社団法人不動産建設産業発展連合会,,その他の設立登記法人,東京都,杉並区,高円寺北２丁目４番８号,,13,115,1660002,,,,,,,2023-06-09,1,,,,,,0
996,4011401025184,新規,0,2023-06-09,2023-06-09,ＢｌｕｅＳｋｙ　Ｅｎｅｒｇｙ株式会社,,株式会社,東京都,板橋区,南常盤台１丁目１１－６レフア南常盤台１０２号室,,13,119,1740072,,,,,,,2023-06-09,1,,,,,ブルースカイエナジー,0
998,4011501029399,新規,0,2023-06-09,2023-06-09,サミット株式会社,,株式会社,東京都,荒川区,西尾久７丁目１１番１２号２Ｆ－Ａ室,,13,118,1160011,,,,,,,2023-06-09,1,,,,,サミット,0
1002,4012303001835,新規,0,2023-06-09,2023-06-09,リヨンド合同会社,,合同会社,東京都,町田市,玉川学園５丁目１６－１－２,,13,209,1940041,,,,,,,2023-06-09,1,,,,,リヨンド,0
1010,4013303006650,新規,0,2023-06-09,2023-06-09,合同会社幸生アカウティング,,合同会社,東京都,豊島区,東池袋３丁目２３番２２号,,13,116,1700013,,,,,,,2023-06-09,1,,,,,コウセイアカウティング,0
1015,4020003024016,新規,0,2023-06-09,2023-06-09,合同会社ＢＮＴ．Ｌｉｆｅ,,合同会社,神奈川県,横浜市金沢区,釜利谷東７丁目１３番３８号,,14,108,2360042,,,,,,,2023-06-09,1,,,,,ビーエヌティードットライフ,0
1017,4021001079217,新規,0,2023-06-09,2023-06-09,株式会社ペイントビジョン,,株式会社,神奈川県,厚木市,上依知１０５４－４,,14,212,2430801,,,,,,,2023-06-09,1,,,,,ペイントビジョン,0
1018,4021001079225,新規,0,2023-06-09,2023-06-09,株式会社ＹＯＨ,,株式会社,神奈川県,茅ヶ崎市,南湖３丁目１７番２０号,,14,207,2530061,,,,,,,2023-06-09,1,,,,,ヨー,0
1019,4021001079241,新規,0,2023-06-09,2023-06-09,株式会社孫右衛門,,株式会社,神奈川県,藤沢市,辻堂元町３丁目１５番１６号,,14,205,2510043,,,,,,,2023-06-09,1,,,,,マゴエモン,0
1024,4030001154292,新規,0,2023-06-09,2023-06-09,雅之家株式会社,,株式会社,埼玉県,越谷市,大字袋山１４６７番地１８,,11,222,3430032,,,,,,,2023-06-09,1,,,,,ミヤビノイエ,0
1025,4030001154318,新規,0,2023-06-09,2023-06-09,株式会社ＡＩＭ,,株式会社,埼玉県,和光市,南１丁目１８番２号,,11,229,3510104,,,,,,,2023-06-09,1,,,,,エイム,0
1026,4030001154326,新規,0,2023-06-09,2023-06-09,ヴィーガンマテリアル株式会社,,株式会社,埼玉県,さいたま市大宮区,宮町１丁目５番地銀座ビル７階,,11,103,3300802,,,,,,,2023-06-09,1,,,,,ヴィーガンマテリアル,0
1027,4030001154334,新規,0,2023-06-09,2023-06-09,ＡＲＴＹ株式会社,,株式会社,埼玉県,白岡市,新白岡２丁目２３番地５,,11,246,3490212,,,,,,,2023-06-09,1,,,,,アーティー,0
1031,4030003021904,新規,0,2023-06-09,2023-06-09,合同会社ＥｄｕＩＴ,,合同会社,埼玉県,さいたま市緑区,美園１丁目２６番地１ミルトヴィレッジ１－２０３号,,11,109,3360967,,,,,,,2023-06-09,1,,,,,エデゥット,0
1032,4030005021282,新規,0,2023-06-09,2023-06-09,一般社団法人ワットプッターラーム寺院,,その他の設立登記法人,埼玉県,幸手市,大字上吉羽１３１６番地１,,11,240,3400121,,,,,,,2023-06-09,1,,,,,ワットプッターラームジイン,0
1038,4040001128790,新規,0,2023-06-09,2023-06-09,海政株式会社,,株式会社,千葉県,千葉市花見川区,さつきが丘２丁目３４番２棟４０１号,,12,102,2620014,,,,,,,2023-06-09,1,,,,,カイセイ,0
1039,4040001128799,新規,0,2023-06-09,2023-06-09,株式会社Ｅｃｘｉｓ,,株式会社,千葉県,千葉市中央区,富士見２丁目７番９号富士見ビル６０９号,,12,101,2600015,,,,,,,2023-06-09,1,,,,,イクシス,0
1043,4050001052965,新規,0,2023-06-09,2023-06-09,Ｔｒｅｎｄ　ａｃｔ株式会社,,株式会社,茨城県,土浦市,東崎町１－７,,08,203,3000031,,,,,,,2023-06-09,1,,,,,トレンドアクト,0
1044,4050001052973,新規,0,2023-06-09,2023-06-09,未来産業株式会社,,株式会社,茨城県,常総市,水海道橋本町３５８８番地６,,08,211,3030003,,,,,,,2023-06-09,1,,,,,,0
1045,4050001052981,新規,0,2023-06-09,2023-06-09,株式会社リロイタ,,株式会社,茨城県,つくば市,天久保３丁目１４－１１ヴィレッジコスモ１０１,,08,220,3050005,,,,,,,2023-06-09,1,,,,,リロイタ,0
1050,4060001036050,新規,0,2023-06-09,2023-06-09,南海サービス株式会社,,株式会社,栃木県,足利市,田中町７８２番地ｍｉｔａビル１Ｆ,,09,202,3260822,,,,,,,2023-06-09,1,,,,,ナンカイサービス,0
1061,4080101024069,新規,0,2023-06-09,2023-06-09,株式会社Ａ＆Ｋ,,株式会社,静岡県,富士宮市,青木平２２０番地,,22,207,4180048,,,,,,,2023-06-09,1,,,,,エーアンドケー,0
1062,4080401026517,新規,0,2023-06-09,2023-06-09,ＫＡＭ株式会社,,株式会社,静岡県,浜松市中区,曳馬３丁目３６番３号,,22,131,4300901,,,,,,,2023-06-09,1,,,,,ケーエーエム,0
1071,4100001036483,新規,0,2023-06-09,2023-06-09,株式会社エブリン開発,,株式会社,長野県,諏訪郡富士見町,富士見とちの木４１６５,,20,362,3990211,,,,,,,2023-06-09,1,,,,,エブリンカイハツ,0
1072,4100001036491,新規,0,2023-06-09,2023-06-09,メイク株式会社,,株式会社,長野県,松本市,南松本２丁目８番７号,,20,202,3900832,,,,,,,2023-06-09,1,,,,,メイク,0
1094,4120001255429,新規,0,2023-06-09,2023-06-09,ＳｏＺｏ株式会社,,株式会社,大阪府,大阪市此花区,春日出中１丁目２番１号,,27,104,5540022,,,,,,,2023-06-09,1,,,,,ソウゾウ,0
1095,4120001255453,新規,0,2023-06-09,2023-06-09,ＳＴ‐ＢＡＳＥ株式会社,,株式会社,大阪府,枚方市,北山１丁目１２番１３号,,27,210,5730171,,,,,,,2023-06-09,1,,,,,エスティベース,0
1096,4120001255544,新規,0,2023-06-09,2023-06-09,株式会社スピンオフ,,株式会社,大阪府,守口市,八雲東町１丁目１番１６－４Ｂ号,,27,209,5700021,,,,,,,2023-06-09,1,,,,,スピンオフ,0
1097,4120001255552,新規,0,2023-06-09,2023-06-09,株式会社Ｔｏｐ１ｓｔ,,株式会社,大阪府,大阪市中央区,日本橋１丁目１０番１２号,,27,128,5420073,,,,,,,2023-06-09,1,,,,,トップファースト,0
1103,4120003024261,新規,0,2023-06-09,2023-06-09,合同会社ＯｎｅＭｉｌｌｉｏｎ,,合同会社,大阪府,大阪市北区,梅田１丁目１－３大阪駅前第３ビル２９階１－１－１号室,,27,127,5300001,,,,,,,2023-06-09,1,,,,,ワンミリオン,0
1104,4120005023666,新規,0,2023-06-09,2023-06-09,一般社団法人Ａｌｌｙａｂｌｅ,,その他の設立登記法人,大阪府,大阪市北区,梅田１丁目２番２号大阪駅前第２ビル１２－１２,,27,127,5300001,,,,,,,2023-06-09,1,,,,,アライアブル,0
1105,4120005023674,新規,0,2023-06-09,2023-06-09,一般社団法人ＳＯＮＧ　ＬＡＭ　ＪＡＰＡＮ,,その他の設立登記法人,大阪府,大阪市生野区,巽北３丁目２番２０号,00130786,27,116,5440004,,,,,,,2023-06-09,1,,,,,ソンラムジャパン,0
1107,4120101067690,新規,0,2023-06-09,2023-06-09,株式会社ＤＡＮＫ,,株式会社,大阪府,松原市,東新町５丁目２－２３ワンズテラス高見の里Ｃ－２棟,,27,217,5800024,,,,,,,2023-06-09,1,,,,,ダンク,0
1113,4120901047628,新規,0,2023-06-09,2023-06-09,株式会社Ｒｉｔａｗｅｌｌ,,株式会社,大阪府,高槻市,如是町４５番１号,,27,207,5690827,,,,,,,2023-06-09,1,,,,,リタウェル,0
1116,4122001037039,新規,0,2023-06-09,2023-06-09,クジラ株式会社,,株式会社,大阪府,八尾市,東久宝寺３丁目５番２９号,,27,212,5810002,,,,,,,2023-06-09,1,,,,,クジラ,0
1120,4130001074506,新規,0,2023-06-09,2023-06-09,Ｓｅｒａ　Ｍｉｃ株式会社,,株式会社,京都府,福知山市,字堀１５３０番地の４,,26,201,6200000,,,,,,,2023-06-09,1,,,,,セラミク,0
1124,4130005016792,新規,0,2023-06-09,2023-06-09,一般社団法人福祉人材研修センター,,その他の設立登記法人,京都府,京都市北区,衣笠東開キ町７番地３,,26,101,6038453,,,,,,,2023-06-09,1,,,,,フクシジンザイケンシュウセンター,0
1129,4140001130365,新規,0,2023-06-09,2023-06-09,ＢｅｚｉｅｒＳ　Ｄｅｓｉｇｎ株式会社,,株式会社,兵庫県,神戸市西区,二ツ屋１丁目２９番１２号,,28,111,6512142,,,,,,,2023-06-09,1,,,,,ベジェデザイン,0
1130,4140001130381,新規,0,2023-06-09,2023-06-09,株式会社おはあさ,,株式会社,兵庫県,神戸市東灘区,本山南町８丁目６番２６号,,28,101,6580015,,,,,,,2023-06-09,1,,,,,オハアサ,0
1131,4140001130398,新規,0,2023-06-09,2023-06-09,株式会社イノベイト,,株式会社,兵庫県,芦屋市,船戸町５番２６号マリアキャリーヌビル,,28,206,6590093,,,,,,,2023-06-09,1,,,,,イノベイト,0
1143,4160003002899,新規,0,2023-06-09,2023-06-09,合同会社四季,,合同会社,滋賀県,草津市,草津３丁目１４－３６ＫＹＯＨＯＲＩＳＥ１０１号室,,25,206,5250034,,,,,,,2023-06-09,1,,,,,シキ,0
1148,4180001156646,新規,0,2023-06-09,2023-06-09,株式会社ＲＥＡＬＳｅｌｅｃｔ,,株式会社,愛知県,尾張旭市,印場元町５丁目４番地１４,,23,226,4880840,,,,,,,2023-06-09,1,,,,,リアルセレクト,0
1149,4180001156712,新規,0,2023-06-09,2023-06-09,株式会社ＡＭＴＦ,,株式会社,愛知県,長久手市,五合池１１６クロンド藤が丘３Ａ,,23,238,4801156,,,,,,,2023-06-09,1,,,,,エーエムティーエフ,0
1151,4180003025304,新規,0,2023-06-09,2023-06-09,ホワイトロード合同会社,,合同会社,愛知県,一宮市,浅野字福寿庵５５番地１,,23,203,4910871,,,,,,,2023-06-09,1,,,,,ホワイトロード,0
1152,4180003025329,新規,0,2023-06-09,2023-06-09,ＭＹＴＭ９１合同会社,,合同会社,愛知県,一宮市,木曽川町門間字東島海１番地,,23,203,4930002,,,,,,,2023-06-09,1,,,,,マイティーエムキュウジュウイチ,0
1158,4190001030486,新規,0,2023-06-09,2023-06-09,株式会社オルマ,,株式会社,三重県,四日市市,諏訪栄町４番１０号アピカビル３Ｆ,,24,202,5100086,,,,,,,2023-06-09,1,,,,,オルマ,0
1163,4220001025458,新規,0,2023-06-09,2023-06-09,株式会社Ｄ‐ＲＥＸ,,株式会社,石川県,白山市,鶴来大国町西５１９番地,,17,210,9202133,,,,,,,2023-06-09,1,,,,,ディーレックス,0
1166,4220003003528,新規,0,2023-06-09,2023-06-09,合同会社ＧＯＡＴ,,合同会社,石川県,野々市市,中林５丁目２３,,17,212,9218834,,,,,,,2023-06-09,1,,,,,,0
1172,4250001020134,新規,0,2023-06-09,2023-06-09,株式会社忠建設,,株式会社,山口県,下関市,垢田町５丁目２４番２０号,,35,201,7510841,,,,,,,2023-06-09,1,,,,,マコトケンセツ,0
1176,4260001038027,新規,0,2023-06-09,2023-06-09,株式会社Ｋ‐ＳＥＩ,,株式会社,岡山県,岡山市北区,中井町２丁目１番１３号（３０１号）,,33,101,7000804,,,,,,,2023-06-09,1,,,,,ケイセイ,0
1179,4280001008960,新規,0,2023-06-09,2023-06-09,株式会社百市,,株式会社,島根県,安来市,古川町４３８番地,,32,206,6920064,,,,,,,2023-06-09,1,,,,,ヒャクイチ,0
1188,4290001101888,新規,0,2023-06-09,2023-06-09,株式会社Ｃ．Ｓ．Ｅ．,,株式会社,福岡県,福岡市中央区,今泉１丁目４番９号,,40,133,8100021,,,,,,,2023-06-09,1,,,,,シーエスイー,0
1190,4290003014007,新規,0,2023-06-09,2023-06-09,Ｆａｈａｄ　Ｔｒａｄｉｎｇ合同会社,,合同会社,福岡県,福岡市博多区,博多駅東１丁目１－３３はかた近代ビル７Ｆ,,40,132,8120013,,,,,,,2023-06-09,1,,,,,ファハドトレーディング,0
1191,4290801029610,新規,0,2023-06-09,2023-06-09,マインドケア北九州株式会社,,株式会社,福岡県,北九州市小倉北区,大畠１丁目６番１２号,,40,106,8020026,,,,,,,2023-06-09,1,,,,,マインドケアキタキュウシュウ,0
1192,4300001013322,新規,0,2023-06-09,2023-06-09,ＳＫスタッフ株式会社,,株式会社,佐賀県,三養基郡基山町,大字宮浦９６３番地１０,,41,341,8410204,,,,,,,2023-06-09,1,,,,,エスケースタッフ,0
1194,4300003001977,新規,0,2023-06-09,2023-06-09,山田建設合同会社,,合同会社,佐賀県,佐賀市,東与賀町大字下古賀２０２５番地,,41,201,8402221,,,,,,,2023-06-09,1,,,,,ヤマダケンセツ,0
1200,4340003004150,新規,0,2023-06-09,2023-06-09,合同会社ＲＫＭＫ,,合同会社,鹿児島県,曽於市,末吉町二之方６０１５番地５,,46,217,8998605,,,,,,,2023-06-09,1,,,,,アールケーエムケー,0
1220,4400001016281,新規,0,2023-06-09,2023-06-09,株式会社ナチュール・デザイン,,株式会社,岩手県,八幡平市,野駄第４地割７６番地２,,03,214,0287301,,,,,,,2023-06-09,1,,,,,ナチュールデザイン,0
1222,4420003002740,新規,0,2023-06-09,2023-06-09,Ｃａｓｓｉｓ　Ｃａｆｅ合同会社,,合同会社,青森県,青森市,松森２丁目５番１３号,,02,201,0300965,,,,,,,2023-06-09,1,,,,,カシスカフェ,0
1225,4450003002341,新規,0,2023-06-09,2023-06-09,合同会社Ｄｉｓｐｏｒｔ,,合同会社,北海道,上川郡東川町,東町２丁目１７番７号,,01,458,0711423,,,,,,,2023-06-09,1,,,,,ディスポート,0
1226,4460301005152,新規,0,2023-06-09,2023-06-09,株式会社ＯＮＯＴＥＲＲＡＣＥ,,株式会社,北海道,北見市,留辺蘂町栄町８４番地１,,01,208,0910033,,,,,,,2023-06-09,1,,,,,オノテラス,0
1234,4700150117107,新規,0,2023-06-09,2023-06-09,ＳＨＥＮＺＨＥＮＳＨＩＹＩＹＯＵＹＩＫＥＪＩＹＯＵＸＩＡＮＧＯＮＧＳＩ,,外国会社等,,,,,,,,ＦＵＴＩＡＮＱＵＳＨＡＴＯＵＪＩＥＤＡＯＴＩＡＮＡＮＳＨＥＱＵＴＡＩＲＡＮＪＩＵＬＵＳＨＥＮＧＴＡＮＧＳＨＡＮＧＷＵＤＡＳＨＡＤＯＮＧＺＵＯ７０１Ｄ２　ＳＨＥＮＺＨＥＮ　ＧＵＡＮＧＤＯＮＧ　５１８０００,,,,,,2023-06-09,1,,,,,シンセンシキユウイテクノロジーカンパニーリミテツド,0
1235,4700150117115,新規,0,2023-06-09,2023-06-09,Ｈｅｎａｎ　ＴｏｎｇＴｏｎｇ　Ｓｈａｎｇｍａｏ　Ｙｏｕｘｉａｎ　Ｇｏｎｇｓｉ,,外国会社等,,,,,,,,Ｗｅｎｚｈｉｌｕ　２０　Ｈａｏ　２　Ｈａｏ　Ｌｏｕ　４　Ｃｅｎｇ　４４７　Ｈａｏ　Ｚｈｅｎｇｚｈｏｕｓｈｉ　Ｇｕａｎｃｈｅｎｇｑｕ　Ｈｅｎａｎｓｈｅｎｇ　４５００００　ＣＮ,,,,,,2023-06-09,1,,,,,ホーナントントンシヤンマオヨウシエンゴンスー,0
1236,4700150117123,新規,0,2023-06-09,2023-06-09,Ｓｈｅｎｚｈｅｎ　Ｆｕｍｉｎｇ　Ｏｐｔｏｅｌｅｃｔｒｏｎｉｃｓ　ｔｅｃｈｎｏｌｏｇｙ　Ｃｏ．，Ｌｔｄ,,外国会社等,,,,,,,,Ｚｈｏｕｓｈｉ　Ｒｏａｄ，Ｓｈｉｙａｎ　Ｔｏｗｎ，Ｌａｎｇｘｉｎ　Ｃｏｍｍｕｎｉｔｙ，Ｂａｏａｎ　Ｄｉｓｔｒｉｃｔ，２／Ｆ，Ｂｕｉｌｄｉｎｇ　Ｇ，Ｗａｎｄａ　Ｉｎｄｕｓｔｒｉａｌ　Ｚｏｎｅ，Ｓｈｅｎｚｈｅｎ　Ｇｕａｎｇｄｏｎｇ　５１８１０８　ＣＮ,,,,,,2023-06-09,1,,,,,シエンジエンシーフーミングワンデイエンコージーヨウシエンゴンスー,0
1237,4700150117131,新規,0,2023-06-09,2023-06-09,ｄｏｎｇｇｕａｎｓｈｉ　ｌｉａｎｙｉ　ｄｉａｎｇｏｎｇ　ｃａｉｌｉａｏ　ｙｏｕｘｉａｎ　ｇｏｎｇｓｉ,,外国会社等,,,,,,,,ＣＨＵＡＮＧＹＥＩＬＵ，２　ＨＡＯ．２　ＬＯＵ，Ｃ　ＱＵ　ＨＵＭＥＮＺＨＥＮ　ＤＡＮＩＮＧＳＨＥＱＵ　ＤＯＮＧＧＵＡＮ　ＧＵＡＮＧＤＯＮＧ　Ｃｈｉｎａ,,,,,,2023-06-09,1,,,,,ドングワンシーリエンイーデイエンゴンツアイリヤオヨウシエンゴンスー,0
1238,4700150117148,新規,0,2023-06-09,2023-06-09,Ｈａｎｇｚｈｏｕ　Ｍａｉｇｅ　Ｔｏｙｓ　Ｃｏ．，Ｌｔｄ．,,外国会社等,,,,,,,,Ｆｌｏｏｒ　４ｔｈ，　Ｂｕｉｌｄｉｎｇ　２，　Ｎｏ．ｌ８，Ｔｅｃｈｎｏｌｏｇｙ　Ａｖｅｎｕｅ　Ｈａｎｇｚｈｏｕ　Ｃｉｔｙ　Ｙｕｈａｎｇ　Ｄｉｓｔｒｉｃｔ　Ｚｈｅｊｉａｎｇ　Ｐｒｏｖｉｎｃｅ,,,,,,2023-06-09,1,,,,,ハンジヨウマイゴーワンジーヨウシエンゴンスー,0
1239,4700150117156,新規,0,2023-06-09,2023-06-09,Ｇｕａｎｇｚｈｏｕ　Ｎａ　Ｌｅ　Ｅ－ｃｏｍｍｅｒｃｅ　Ｃｏ．，Ｌｔｄ,,外国会社等,,,,,,,,Ｒｏｏｍ　１６１３，　Ｎｏ．２６－２９　Ｙｕｅ　Ｎａｎ　Ｓｔ．　Ｈｕａｎｇ　Ｓｈａ　Ｒｄ．，Ｌｉ　Ｗａｎ　Ｄｉｓｔ．Ｇｕａｎｇｚｈｏｕ　Ｇｕａｎｇｄｏｎｇ　５１０１５０　ＣＮ,,,,,,2023-06-09,1,,,,,グワンジヨウナーラーデイエンズーシヤンウーヨウシエンゴンスー,0
1240,4700150117164,新規,0,2023-06-09,2023-06-09,ｑｕａｎｚｈｏｕｂｅｉｊｉｓｉｄｉａｎｚｉｓｈａｎｇｗｕｙｏｕｘｉａｎｇｏｎｇｓｉ,,外国会社等,,,,,,,,ｆｕｊｉａｎｑｕａｎｚｈｏｕｊｉｎｊｉａｎｇｃｈｉｄｉａｎｚｈｅｎｗｕｔａｎｃｕｎｈｅｎｇｄａｌｉｘｉｅｃｈａｎｇ６ｈａｏｌｏｕ４Ｉｏｕ,,,,,,2023-06-09,1,,,,,チユエンジヨウベイジースーデイエンズーシヤンウーヨウシエンゴンスー,0
1241,4700150117172,新規,0,2023-06-09,2023-06-09,Ｄａｌｉａｎ　Ｂａｂａｊｉｕｂａ　Ｃｏ．，Ｌｔｄ,,外国会社等,,,,,,,,Ｎｏ．３００－６２，Ｊｉｎｌｏｎｇｓｉ　Ｒｏａｄ，Ｙｉｎｇｃｈｅｎｇｚｉ　Ｓｔｒｅｅｔ　Ｇａｎｊｉｎｇｚｉ　Ｄｉｓｔｒｉｃｔ　Ｄａｌｉａｎ　Ｌｉａｏｎｉｎｇ　１１６０００　ＣＮ,,,,,,2023-06-09,1,,,,,ダーリエンバーバージユーバーマオイーヨウシエンゴンスー,0
1242,4700150117206,新規,0,2023-06-09,2023-06-09,Ｓｈｅｎｚｈｅｎｓｈｉ　Ｄｅｓｈｉｑｉｎ　ｋｅｊｉ　ｙｏｕｘｉａｎ　ｇｏｎｇｓｉ,,外国会社等,,,,,,,,Ｂ４０９，Ｆｌｏｏｒ　４，Ｂｕｉｌｄｉｎｇ　２０１，Ｃｈｅｇｏｎｇｍｉａｏ　Ｉｎｄｕｓｔｒｉａｌ　Ｚｏｎｅ（Ｔａｉｒａｎ），Ｓｈｅｎｎａｎ　Ｒｏａｄ，Ｆｕｔｉａｎ　Ｄｉｓｔｒｉｃｔ，Ｓｈｅｎｚｈｅｎ,,,,,,2023-06-09,1,,,,,シンセンシトクシキンカギユウゲンコウシ,0
1249,5010001236026,新規,0,2023-06-09,2023-06-09,株式会社Ｋｏｔｏ,,株式会社,東京都,千代田区,神田和泉町１番地６－１６ヤマトビル４０５,,13,101,1010024,,,,,,,2023-06-09,1,,,,,コト,0
1251,5010003040822,新規,0,2023-06-09,2023-06-09,合同会社オルタナ２４,,合同会社,東京都,千代田区,丸の内３丁目１番１号東京共同会計事務所内,,13,101,1000005,,,,,,,2023-06-09,1,,,,,オルタナトゥエンティフォー,0
1252,5010003040830,新規,0,2023-06-09,2023-06-09,合同会社菖蒲リース,,合同会社,東京都,千代田区,丸の内３丁目１番１号東京共同会計事務所内,,13,101,1000005,,,,,,,2023-06-09,1,,,,,ショウブリース,0
1266,5010401174809,新規,0,2023-06-09,2023-06-09,株式会社ｔｏｈｋａ,,株式会社,東京都,港区,南青山５丁目１２番５号,,13,103,1070062,,,,,,,2023-06-09,1,,,,,トーカ,0
1267,5010401174833,新規,0,2023-06-09,2023-06-09,株式会社Ｎｕｍｂ,,株式会社,東京都,港区,新橋２丁目５番２号堀ビル４０２,,13,103,1050004,,,,,,,2023-06-09,1,,,,,ナム,0
1268,5010401174882,新規,0,2023-06-09,2023-06-09,株式会社ＲＡ　ＴＯＫＹＯ,,株式会社,東京都,港区,南青山３丁目１番３６号青山丸竹ビル６Ｆ,,13,103,1070062,,,,,,,2023-06-09,1,,,,,アールエートーキョー,0
1270,5010403030316,新規,0,2023-06-09,2023-06-09,ＢＲＵＴＵＳ合同会社,,合同会社,東京都,港区,港南２丁目１７番１号京王品川ビル２階,,13,103,1080075,,,,,,,2023-06-09,1,,,,,ブルータス,0
1271,5010501050570,新規,0,2023-06-09,2023-06-09,株式会社Ｔｒｉｂｉｒｔｈ,,株式会社,東京都,台東区,上野６丁目１番１１号,,13,106,1100005,,,,,,,2023-06-09,1,,,,,トライバース,0
1273,5010601063233,新規,0,2023-06-09,2023-06-09,株式会社ＦＩＲＳＴ　ＣＲＯＰ　ＣＯＦＦＥＥ　ＪＡＰＡＮ,,株式会社,東京都,江東区,白河２丁目２０番１０号,,13,108,1350021,,,,,,,2023-06-09,1,,,,,ファーストクロップコーヒージャパン,0
1274,5010601063241,新規,0,2023-06-09,2023-06-09,東衛株式会社,,株式会社,東京都,墨田区,文花１丁目３４番１１－３０５号,,13,107,1310044,,,,,,,2023-06-09,1,,,,,トウエイ,0
1281,5010903008225,新規,0,2023-06-09,2023-06-09,合同会社ＣＡＭＰ,,合同会社,東京都,世田谷区,代沢５丁目６番地１４号,,13,112,1550032,,,,,,,2023-06-09,1,,,,,キャンプ,0
1287,5011001154936,新規,0,2023-06-09,2023-06-09,＿潤科技株式会社,00130789,株式会社,東京都,渋谷区,富ヶ谷１丁目１４番１４号４階,,13,113,1510063,,,,,,,2023-06-09,1,,,,,チャンジュンカギ,0
1288,5011003016985,新規,0,2023-06-09,2023-06-09,ＤＰ　Ｒｅａｌ　Ｅｓｔａｔｅ　Ｊａｐａｎ合同会社,,合同会社,東京都,渋谷区,渋谷２丁目２４番１２号,,13,113,1500002,,,,,,,2023-06-09,1,,,,,ディーピーリアルエステートジャパン,0
1289,5011003016993,新規,0,2023-06-09,2023-06-09,合同会社Ｃｏｚｙ,,合同会社,東京都,目黒区,五本木１丁目３５－３,,13,110,1530053,,,,,,,2023-06-09,1,,,,,コージー,0
1301,5011701026311,新規,0,2023-06-09,2023-06-09,株式会社めぐ流,,株式会社,東京都,江戸川区,中央３丁目２０番２４号,,13,123,1320021,,,,,,,2023-06-09,1,,,,,メグル,0
1303,5011801042539,新規,0,2023-06-09,2023-06-09,Ｔｒｉｖｅｒｓｅ株式会社,,株式会社,東京都,足立区,東伊興４丁目５番１１号,,13,121,1210801,,,,,,,2023-06-09,1,,,,,,0
1305,5011803005683,新規,0,2023-06-09,2023-06-09,合同会社ｓａｋａｍｏｔｏ,,合同会社,東京都,足立区,本木北町１６番５号,,13,121,1230857,,,,,,,2023-06-09,1,,,,,サカモト,0
1309,5012401040602,新規,0,2023-06-09,2023-06-09,株式会社Ｌｉｓｓａｇｅ,,株式会社,東京都,三鷹市,大沢３丁目８番９号１号棟,,13,204,1810015,,,,,,,2023-06-09,1,,,,,リサージュ,0
1310,5012401040627,新規,0,2023-06-09,2023-06-09,株式会社不動産ショップ三松,,株式会社,東京都,府中市,寿町２丁目２番地の４７ジュネス寿２０２,,13,206,1830056,,,,,,,2023-06-09,1,,,,,フドウサンショップミマツ,0
1312,5012403006015,新規,0,2023-06-09,2023-06-09,合同会社パーシモン,,合同会社,東京都,調布市,染地１丁目２４番地１７,,13,208,1820023,,,,,,,2023-06-09,1,,,,,パーシモン,0
1317,5013301050872,新規,0,2023-06-09,2023-06-09,バリューマックス株式会社,,株式会社,東京都,豊島区,東池袋５丁目７番１号ＤＲＳ第３ビル３０１号室,,13,116,1700013,,,,,,,2023-06-09,1,,,,,バリューマックス,0
1318,5013301050880,新規,0,2023-06-09,2023-06-09,株式会社ライフイン２４ソリューションズ,,株式会社,東京都,豊島区,東池袋４丁目１４番２号ワークスタジオ０１ビル,,13,116,1700013,,,,,,,2023-06-09,1,,,,,ライフインニジュウヨンソリューションズ,0
1319,5013301050897,新規,0,2023-06-09,2023-06-09,フロム・グローバル株式会社,,株式会社,東京都,豊島区,上池袋２丁目２５番９－１０６号,,13,116,1700012,,,,,,,2023-06-09,1,,,,,フロムグローバル,0
1321,5013303006658,新規,0,2023-06-09,2023-06-09,代行ジャパン合同会社,,合同会社,東京都,豊島区,要町１丁目２番１２－３０３号,,13,116,1710043,,,,,,,2023-06-09,1,,,,,ダイコウジャパン,0
1329,5020001151918,新規,0,2023-06-09,2023-06-09,株式会社パワーアセット,,株式会社,神奈川県,横浜市青葉区,たちばな台２丁目５番地１３,,14,117,2270046,,,,,,,2023-06-09,1,,,,,パワーアセット,0
1330,5020001151975,新規,0,2023-06-09,2023-06-09,株式会社ｃｏｍｒａｄｅ,,株式会社,神奈川県,横浜市都筑区,南山田町４８３８番地,,14,118,2240026,,,,,,,2023-06-09,1,,,,,カムラッド,0
1336,5020003024015,新規,0,2023-06-09,2023-06-09,ＫＰカンパニー合同会社,,合同会社,神奈川県,横浜市神奈川区,子安通３丁目３７８番地,,14,102,2210021,,,,,,,2023-06-09,1,,,,,ケーピーカンパニー,0
1342,5030001154267,新規,0,2023-06-09,2023-06-09,株式会社ＨＡＹＡＫ,,株式会社,埼玉県,蕨市,南町１丁目２５番２号,,11,223,3350003,,,,,,,2023-06-09,1,,,,,ハヤキ,0
1343,5030001154275,新規,0,2023-06-09,2023-06-09,株式会社ＥＺＥＬ,,株式会社,埼玉県,川口市,前上町１２番１０号,,11,203,3330843,,,,,,,2023-06-09,1,,,,,エゼル,0
1344,5030001154283,新規,0,2023-06-09,2023-06-09,株式会社ティーアイル,,株式会社,埼玉県,狭山市,入間川１丁目１８－３０ハイツ狭山７０７,,11,215,3501305,,,,,,,2023-06-09,1,,,,,ティーアイル,0
1345,5030001154300,新規,0,2023-06-09,2023-06-09,株式会社Ｎ＆Ｋ　Ａｄｖｉｓｏｒｙ,,株式会社,埼玉県,三郷市,中央２丁目４６番地１３,,11,237,3410038,,,,,,,2023-06-09,1,,,,,エヌケイアドバイザリー,0
1346,5030001154309,新規,0,2023-06-09,2023-06-09,株式会社小内エンジニア,,株式会社,埼玉県,志木市,上宗岡４丁目１１番２５号,,11,228,3530001,,,,,,,2023-06-09,1,,,,,コウチエンジニア,0
1347,5030001154317,新規,0,2023-06-09,2023-06-09,株式会社シンワ工業,,株式会社,埼玉県,さいたま市岩槻区,加倉５丁目９番３５号,,11,110,3390056,,,,,,,2023-06-09,1,,,,,シンワコウギョウ,0
1348,5030001154325,新規,0,2023-06-09,2023-06-09,株式会社ｒｉｎｇｓフーズ,,株式会社,埼玉県,朝霞市,三原５丁目５番５３号,,11,227,3510025,,,,,,,2023-06-09,1,,,,,リングスフーズ,0
1349,5030001154333,新規,0,2023-06-09,2023-06-09,株式会社ＣＨＡＩＮ,,株式会社,埼玉県,志木市,幸町１丁目４番１６号第二アビタシオン浅倉５０１,,11,228,3530005,,,,,,,2023-06-09,1,,,,,チェイン,0
1350,5030001154341,新規,0,2023-06-09,2023-06-09,株式会社ロジテム木下,,株式会社,埼玉県,所沢市,東所沢５丁目２番地の１７第２ＹＴビル３０１号室,,11,208,3590021,,,,,,,2023-06-09,1,,,,,ロジテムキノシタ,0
1351,5030003021886,新規,0,2023-06-09,2023-06-09,合同会社１０１０,,合同会社,埼玉県,さいたま市大宮区,土手町２丁目７６番地柊１０２,,11,103,3300801,,,,,,,2023-06-09,1,,,,,テンテン,0
1352,5030003021894,新規,0,2023-06-09,2023-06-09,合同会社Ｂｅｓｔ　Ｄａｙｓ,,合同会社,埼玉県,上尾市,大字西貝塚１３９番地,,11,219,3620057,,,,,,,2023-06-09,1,,,,,ベストデイズ,0
1353,5030003021903,新規,0,2023-06-09,2023-06-09,合同会社えにし,,合同会社,埼玉県,富士見市,大字水子１８９７番地３プレジールＩＩ２０１,00130799,11,235,3540011,,,,,,,2023-06-09,1,,,,,エニシ,0
1354,5030003021911,新規,0,2023-06-09,2023-06-09,合同会社シンカーコンサルティング,,合同会社,埼玉県,所沢市,くすのき台１丁目１０－７肥沼ビル３Ｆ,,11,208,3590037,,,,,,,2023-06-09,1,,,,,シンカーコンサルティング,0
1355,5030003021944,新規,0,2023-06-09,2023-06-09,合同会社ナツツバメ,,合同会社,埼玉県,北足立郡伊奈町,西小針４丁目２８番地,,11,301,3620811,,,,,,,2023-06-09,1,,,,,ナツツバメ,0
1364,5040001128732,新規,0,2023-06-09,2023-06-09,株式会社心心心,,株式会社,千葉県,市原市,馬立１８９９－４,,12,219,2900221,,,,,,,2023-06-09,1,,,,,ココロ,0
1365,5040001128807,新規,0,2023-06-09,2023-06-09,株式会社ｈａｌｐａ,,株式会社,千葉県,市川市,新田４丁目１０－１６,,12,203,2720035,,,,,,,2023-06-09,1,,,,,ハルパ,0
1366,5040001128815,新規,0,2023-06-09,2023-06-09,ロジクオーレコンサルティング株式会社,,株式会社,千葉県,市川市,島尻１番４４－１６１３号クレストシティタワーズ浦安,,12,203,2720145,,,,,,,2023-06-09,1,,,,,ロジクオーレコンサルティング,0
1368,5040003022743,新規,0,2023-06-09,2023-06-09,合同会社バオウェン,,合同会社,千葉県,柏市,若葉町８番２号,,12,217,2770024,,,,,,,2023-06-09,1,,,,,バオウェン,0
1374,5050001052956,新規,0,2023-06-09,2023-06-09,株式会社リズムオン,,株式会社,茨城県,つくば市,並木３丁目２３番地２５,,08,220,3050044,,,,,,,2023-06-09,1,,,,,,0
1375,5050001052964,新規,0,2023-06-09,2023-06-09,株式会社ＩＳＨＩＧＵＲＡ,,株式会社,茨城県,常総市,坂手町１２９５番地,,08,211,3030042,,,,,,,2023-06-09,1,,,,,イシグラ,0
1380,5070003004978,新規,0,2023-06-09,2023-06-09,ＴＭサービス合同会社,,合同会社,群馬県,太田市,金山町２５－１４－５０１,,10,205,3730027,,,,,,,2023-06-09,1,,,,,,0
1387,5080401026532,新規,0,2023-06-09,2023-06-09,株式会社未凪,,株式会社,静岡県,磐田市,見付１８６８番地１コーポベルーガＢ－１０３,,22,211,4380086,,,,,,,2023-06-09,1,,,,,ミナギ,0
1389,5100001036482,新規,0,2023-06-09,2023-06-09,株式会社セレンディピティ,,株式会社,長野県,長野市,青木島１丁目３４番地５,,20,201,3812247,,,,,,,2023-06-09,1,,,,,セレンディピティ,0
1404,5120001255205,新規,0,2023-06-09,2023-06-09,明宝株式会社,,株式会社,大阪府,大阪市東淀川区,相川２丁目２４－３３ルームリバーサイドＡ２１０号室,,27,114,5330007,,,,,,,2023-06-09,1,,,,,メイホウ,0
1405,5120001255477,新規,0,2023-06-09,2023-06-09,株式会社花筏,,株式会社,大阪府,大阪市西淀川区,花川２丁目１３番２０－１０１号,,27,113,5550023,,,,,,,2023-06-09,1,,,,,ハナイカダ,0
1406,5120001255493,新規,0,2023-06-09,2023-06-09,株式会社ＴＥＡＭ‐ＵＮＴＲＡＣＥ,,株式会社,大阪府,大阪市中央区,南船場３丁目６番２４号,,27,128,5420081,,,,,,,2023-06-09,1,,,,,チームアントレース,0
1407,5120001255519,新規,0,2023-06-09,2023-06-09,ＢｉｇＭａｃ　Ｃｏｍｐａｎｙ株式会社,,株式会社,大阪府,大阪市中央区,南船場１丁目１２番２６号ニュー船場ビル２０５,,27,128,5420081,,,,,,,2023-06-09,1,,,,,ビックマックカンパニー,0
1408,5120001255543,新規,0,2023-06-09,2023-06-09,株式会社１,,株式会社,大阪府,大阪市中央区,南本町４丁目３番１６号ブランズタワー御堂筋本町３４０１号室,,27,128,5410054,,,,,,,2023-06-09,1,,,,,イチ,0
1409,5120001255551,新規,0,2023-06-09,2023-06-09,株式会社スカイハーモニー,,株式会社,大阪府,大阪市北区,中津３丁目３番１７号平成ビル４階,,27,127,5310071,,,,,,,2023-06-09,1,,,,,スカイハーモニー,0
1410,5120001255584,新規,0,2023-06-09,2023-06-09,株式会社カミナリ,,株式会社,大阪府,大阪市北区,梅田１丁目２番２号大阪駅前第２ビル１２－１２,,27,127,5300001,,,,,,,2023-06-09,1,,,,,カミナリ,0
1415,5120003024260,新規,0,2023-06-09,2023-06-09,プラスアルテ合同会社,,合同会社,大阪府,大阪市北区,梅田１丁目２番２号大阪駅前第２ビル１２－１２,,27,127,5300001,,,,,,,2023-06-09,1,,,,,プラスアルテ,0
1419,5120101067707,新規,0,2023-06-09,2023-06-09,株式会社エル・フィールド,,株式会社,大阪府,大阪狭山市,金剛２丁目１１番２７号,,27,231,5890006,,,,,,,2023-06-09,1,,,,,エルフィールド,0
1431,5130001074439,新規,0,2023-06-09,2023-06-09,株式会社井上ＡＣＣ,,株式会社,京都府,舞鶴市,字上福井９７２番地１,,26,202,6240951,,,,,,,2023-06-09,1,,,,,イノウエエーシーシー,0
1437,5140001130389,新規,0,2023-06-09,2023-06-09,株式会社青田建築,,株式会社,兵庫県,姫路市,船津町２５８４番地２,,28,201,6792101,,,,,,,2023-06-09,1,,,,,アオタケンチク,0
1438,5140001130422,新規,0,2023-06-09,2023-06-09,株式会社山下工業,,株式会社,兵庫県,伊丹市,中野東２丁目２１２番地,,28,207,6640022,,,,,,,2023-06-09,1,,,,,ヤマシタコウギョウ,0
1439,5140001130455,新規,0,2023-06-09,2023-06-09,坪内氷問屋株式会社,,株式会社,兵庫県,西宮市,浜甲子園２丁目４番２１号,,28,204,6638154,,,,,,,2023-06-09,1,,,,,ツボウチコオリドンヤ,0
1440,5140001130471,新規,0,2023-06-09,2023-06-09,神山珈琲株式会社,00130802,株式会社,兵庫県,芦屋市,茶屋之町１１－８,,28,206,6590067,,,,,,,2023-06-09,1,,,,,カミヤマコーヒー,0
1441,5140003019184,新規,0,2023-06-09,2023-06-09,合同会社Ｄｉａｌｏｇｕｅ　Ｐａｒｔｎｅｒｓ,,合同会社,兵庫県,神戸市中央区,八幡通１丁目１番２２号８０１,,28,110,6510085,,,,,,,2023-06-09,1,,,,,ダイアローグパートナーズ,0
1451,5180001156661,新規,0,2023-06-09,2023-06-09,株式会社ａｎｄ　Ｄｅｓｉｇｎ,,株式会社,愛知県,名古屋市西区,城西５丁目１３番１号,,23,104,4510031,,,,,,,2023-06-09,1,,,,,アンドデザイン,0
1452,5180001156686,新規,0,2023-06-09,2023-06-09,株式会社スマートブレイン,,株式会社,愛知県,半田市,昭和町１丁目２番地,,23,205,4750922,,,,,,,2023-06-09,1,,,,,スマートブレイン,0
1453,5180001156694,新規,0,2023-06-09,2023-06-09,丸泰産業株式会社,,株式会社,愛知県,名古屋市西区,名塚町５丁目３３番地,,23,104,4510081,,,,,,,2023-06-09,1,,,,,マルヤスサンギョウ,0
1468,5200003005987,新規,0,2023-06-09,2023-06-09,合同会社のびる,,合同会社,岐阜県,大垣市,桐ケ崎町６７・２Ｆ,,21,202,5030904,,,,,,,2023-06-09,1,,,,,ノビル,0
1471,5220001025449,新規,0,2023-06-09,2023-06-09,サンライズ不動産株式会社,,株式会社,石川県,金沢市,無量寺５丁目８１番地１,,17,201,9200333,,,,,,,2023-06-09,1,,,,,サンライズフドウサン,0
1474,5230003002032,新規,0,2023-06-09,2023-06-09,合同会社Ｂａｍｂｏｏ,,合同会社,富山県,高岡市,中川上町１２番２１号マリオン中川１０２,,16,202,9330043,,,,,,,2023-06-09,1,,,,,バンブー,0
1480,5240005015592,新規,0,2023-06-09,2023-06-09,一般社団法人Ｇｏｏｄ　Ｊａｐａｎ,,その他の設立登記法人,広島県,廿日市市,吉和１８９３番地,,34,213,7380301,,,,,,,2023-06-09,1,,,,,グッドジャパン,0
1484,5250001020133,新規,0,2023-06-09,2023-06-09,株式会社品川商事,,株式会社,山口県,下関市,小月本町２丁目２０番１８号,,35,201,7501142,,,,,,,2023-06-09,1,,,,,シナガワショウジ,0
1486,5260003004331,新規,0,2023-06-09,2023-06-09,合同会社マルヨシ商会,,合同会社,岡山県,岡山市北区,北方２丁目２番１２号,,33,101,7000803,,,,,,,2023-06-09,1,,,,,マルヨシショウカイ,0
1493,5290001101854,新規,0,2023-06-09,2023-06-09,レストレーションアシスト株式会社,,株式会社,福岡県,福岡市早良区,賀茂４丁目１７番２４号,,40,137,8140164,,,,,,,2023-06-09,1,,,,,レストレーションアシスト,0
1494,5290001101862,新規,0,2023-06-09,2023-06-09,株式会社アキフリー,,株式会社,福岡県,福岡市東区,馬出５丁目２０－３１ＴＨＹＭＥ７０２,,40,131,8120054,,,,,,,2023-06-09,1,,,,,アキフリー,0
1495,5290001101870,新規,0,2023-06-09,2023-06-09,みゆ幸業株式会社,,株式会社,福岡県,福岡市中央区,薬院１丁目１５番１３号,,40,133,8100022,,,,,,,2023-06-09,1,,,,,ミユコウギョウ,0
1496,5290001101887,新規,0,2023-06-09,2023-06-09,縁建託株式会社,,株式会社,福岡県,春日市,白水ヶ丘３丁目１２９番地３Ｆ,,40,218,8160845,,,,,,,2023-06-09,1,,,,,エニシケンタク,0
1499,5290003014014,新規,0,2023-06-09,2023-06-09,＿順合同会社,00130801,合同会社,福岡県,久留米市,善導寺町与田１５３－１吉田アパート２０１室,,40,203,8390823,,,,,,,2023-06-09,1,,,,,キンジュン,0
1501,5290801029601,新規,0,2023-06-09,2023-06-09,株式会社ｉｓｓｅｉ,,株式会社,福岡県,田川郡赤村,大字内田２２１２番地２,,40,609,8240432,,,,,,,2023-06-09,1,,,,,イッセイ,0
1503,5300001013321,新規,0,2023-06-09,2023-06-09,株式会社中村設備,,株式会社,佐賀県,鹿島市,浜町１２２２番地１,,41,207,8491322,,,,,,,2023-06-09,1,,,,,ナカムラセツビ,0
1505,5300003001976,新規,0,2023-06-09,2023-06-09,合同会社Ｔ２Ｃｒｅａｔｅ,,合同会社,佐賀県,三養基郡基山町,大字宮浦１５９６番地１,,41,341,8410204,,,,,,,2023-06-09,1,,,,,ティーツークリエイト,0
1515,5330001030958,新規,0,2023-06-09,2023-06-09,株式会社Ｇｏａｆｅｗ,,株式会社,熊本県,熊本市中央区,水前寺３丁目８－１ＨＩＬＯ８０８・１０１,,43,101,8620950,,,,,,,2023-06-09,1,,,,,ゴーアフィウ,0
1517,5330003009876,新規,0,2023-06-09,2023-06-09,合同会社ＳＵＰＰＯＲＴ,,合同会社,熊本県,山鹿市,川端町２０６番地プレインハイツＩＩ２０７号,00130791,43,208,8610519,,,,,,,2023-06-09,1,,,,,サポート,0
1527,5340001025635,新規,0,2023-06-09,2023-06-09,株式会社ＴＨＥＦＯＯＬ,,株式会社,鹿児島県,鹿児島市,宇宿６丁目６番１０号ヒルサイド樋口２０１,,46,201,8900073,,,,,,,2023-06-09,1,,,,,ザフール,0
1530,5350003004371,新規,0,2023-06-09,2023-06-09,合同会社リアン,,合同会社,宮崎県,児湯郡川南町,大字平田４６７番地２,,45,405,8891302,,,,,,,2023-06-09,1,,,,,リアン,0
1534,5360003013025,新規,0,2023-06-09,2023-06-09,合同会社Ｊｏｙ　Ｈｏｐｅ　Ｃｏｍｐａｎｙ,,合同会社,沖縄県,うるま市,石川１丁目５１番５号２階,,47,213,9041106,,,,,,,2023-06-09,1,,,,,ジョイホープカンパニー,0
1542,5380003005474,新規,0,2023-06-09,2023-06-09,合同会社Ｒｉｇｈｔ‐Ｈａｎｄ　Ｃｏｎｓｕｌｔｉｎｇ,,合同会社,福島県,田村市,船引町石森字舘１０８番地,,07,211,9634313,,,,,,,2023-06-09,1,,,,,ライハンコンサルティング,0
1545,5400001016280,新規,0,2023-06-09,2023-06-09,畠山商事株式会社,,株式会社,岩手県,紫波郡紫波町,片寄字四ツ屋１２４番地,,03,321,0283452,,,,,,,2023-06-09,1,,,,,ハタケヤマショウジ,0
1549,5430003015154,新規,0,2023-06-09,2023-06-09,合同会社ＴＫコミット,,合同会社,北海道,札幌市南区,澄川六条４丁目３番１７号,,01,106,0050006,,,,,,,2023-06-09,1,,,,,ティーケーコミット,0
1550,5440001009272,新規,0,2023-06-09,2023-06-09,株式会社アドバンスホームエステート,,株式会社,北海道,函館市,八幡町２１番１号２Ｆ,,01,202,0400083,,,,,,,2023-06-09,1,,,,,アドバンスホームエステート,0
1552,5450001014016,新規,0,2023-06-09,2023-06-09,株式会社Ｊｏｐｐｙ,,株式会社,北海道,旭川市,東光二十二条６丁目５番１６号,,01,204,0788362,,,,,,,2023-06-09,1,,,,,ジョッピー,0
1554,5490001010507,新規,0,2023-06-09,2023-06-09,株式会社フォース,,株式会社,高知県,吾川郡いの町,枝川６４６番地５,,39,386,7812120,,,,,,,2023-06-09,1,,,,,フォース,0
1556,5700150117106,新規,0,2023-06-09,2023-06-09,Ｈｏｎｇ　Ｋｏｎｇ　Ｊｉｎｌｉａｎｇａｎ　Ｔｅｃｈｎｏｌｏｇｙ　Ｃｏ．，Ｌｉｍｉｔｅｄ,,外国会社等,,,,,,,,ＲＭ２１１０，２１／Ｆ　ＯＮ　ＨＯＮＧ　ＣＯＭＭ　ＢＬＤＧ　１４５　ＨＥＮＮＥＳＳＹ　ＲＤ　ＷＡＮＣＨＡＩ　ＨＫ　９９９７７７,,,,,,2023-06-09,1,,,,,ホンコンキンリヨウアンテクノロジーカンパニーリミテツド,0
1557,5700150117114,新規,0,2023-06-09,2023-06-09,Ｇｕａｎｇｚｈｏｕ　Ｄｉｎｇｌｉｎ　Ｔｒａｄｅ　Ｃｏ．，Ｌｔｄ．,,外国会社等,,,,,,,,ＸｉｎｇＧｕａｎｇ　Ｙｉｎｇｌｉｎ　１６ｔｈ　Ｆｌｏｏｒ　Ｎｏ．１６６１．Ｓｈｕｉｙｉｎ　Ｒｏａｄ　Ｎｏ．１１９　Ｙｕｅｘｉｕ　Ｄｉｓｔｒｉｃｔ，Ｇｕａｎｇｚｈｏｕ，Ｇｕａｎｇｄｏｎｇ，５１００００，ＣＮ,,,,,,2023-06-09,1,,,,,グワンジヨウデインリンマオイーヨウシエンゴンスー,0
1558,5700150117122,新規,0,2023-06-09,2023-06-09,ｚｈｕｈａｉｄａｎｅｉｋｅｊｉｙｏｕｘｉａｎｇｏｎｇｓｉ,,外国会社等,,,,,,,,１０５－６，Ｂｏｈｕａ－ｒｏａｄ．Ｈｅｎｇｑｉｎ　ｎｅｗ　ａｒｅａ，Ｚｈｕｈａｉ，Ｇｕａｎｇｄｏｎｇ,,,,,,2023-06-09,1,,,,,ジユーハイダーネイコージーヨウシエンゴンスー,0
1559,5700150117130,新規,0,2023-06-09,2023-06-09,ｑｉｎｇｄａｏｓｈｉｗｅｉｓｈｉｐｉｎｙｏｕｘｉａｎｇｏｎｇｓｉ,,外国会社等,,,,,,,,Ｒｏｏｍ　１８０２，Ｕｎｉｔ　１，Ｂｕｉｌｄｉｎｇ　２８，Ｎｏ．２１６，Ｈｅｙｕａｎ　Ｒｏａｄ，Ｈｉｇｈ－ｔｅｃｈ　Ｚｏｎｅ，Ｑｉｎｇｄａｏ　Ｃｉｔｙ，Ｓｈａｎｄｏｎｇ　Ｐｒｏｖｉｎｃｅ,,,,,,2023-06-09,1,,,,,チンダオシーウエイシーピンヨウシエンゴンスー,0
1560,5700150117139,新規,0,2023-06-09,2023-06-09,ｈａｎｇｚｈｏｕｚｈｉｓｈａｎｇｃｈｕａｎｇｍｅｉｗｅｎｊｕｙｏｕｘｉａｎｇｏｎｇｓｉ,,外国会社等,,,,,,,,ｔｏｎｇｌｕｘｉａｎｆｕｃｈｕｎｊｉａｎｇｚｈｅｎｆｕｃｈｕｎｊｉａｎｇｊｉｘｉｅｇｏｎｇｎｅｎｇｑｕ９７７ｈａｏ　ｈａｎｇｚｈｏｕｓｈｉ　ｚｈｅｊｉａｎｇ　３１１５００　ＣＮ,,,,,,2023-06-09,1,,,,,ハンジヨウジーシヤンチユワンメイウエンジーヨウシエンゴンスー,0
1561,5700150117147,新規,0,2023-06-09,2023-06-09,Ｈａｉｎｉｎｇ　Ｘｉｇｕａｎｘｉａｎｇ　ｌｅａｔｈｅｒｗｅａｒ　ＣＯ．，ＬＴＤ,,外国会社等,,,,,,,,Ｎｏ．１３　Ｃｈａｎｇｈｏｎｇ　Ｒｄ．Ｃｈａｎｇ’ａｎｚｈｅｎ　Ｈａｉｎｉｎｇ　Ｚｈｅｊｉａｎｇ,,,,,,2023-06-09,1,,,,,ハイニンシーシーグワンシヤンピーゴージーピンヨウシエンゾーレンゴンスー,0
1562,5700150117155,新規,0,2023-06-09,2023-06-09,ＷＵＸＩ　ＹＵＣＨＡＯ　ＭＥＴＡＬ　ＭＡＴＥＲＩＡＬ　ＣＯ．，ＬＴＤ,,外国会社等,,,,,,,,Ｎｏ．６６　ＣＨＵＮＨＵＩ　ＭＩＤＤＬＥ　ＲＯＡＤ　ＸＩＳＨＡＮ　ＤＩＳＴＲＩＣＴ　ＷＵＸＩ　ＪＩＡＮＧＳＵ　２１４１０４　ＣＮ,,,,,,2023-06-09,1,,,,,ウーシーイーチヤオジンシユーツアイリヤオヨウシエンゴンスー,0
1563,5700150117163,新規,0,2023-06-09,2023-06-09,ＳＨＥＮＺＨＥＮＹＯＵＣＵＮＳＨＵＭＡＫＥＪＩＹＯＵＸＩＡＮＧＯＮＧＳＩ,,外国会社等,,,,,,,,ＬＯＮＧＧＡＮＧＱＵＢＡＮＴＩＡＮＪＩＥＤＡＯＨＥＢＥＩＣＵＮＸＩＮＨＥＪＩＥ２ＨＡＯＪＩＮＦＡＮＧＨＵＡＤＩＡＮＳＨＡＮＧＣＨＡＮＹＥＹＵＡＮ５ＤＯＮＧ７ＬＯＵ７０１ＦＡＮＧ　Ｓｈｅｎｚｈｅｎ　Ｇｕａｎｇｄｏｎｇ　Ｃｈｉｎａ，５１８１２９,,,,,,2023-06-09,1,,,,,シエンジエンヨウツンシユーマーコージーヨウシエンゴンスー,0
1564,5700150117171,新規,0,2023-06-09,2023-06-09,ＫｅｖＧｏ　Ｂｒａｎｄｓ　ＬＬＣ,,外国会社等,,,,,,,,７４０　Ｒａｎｋｉｎ　Ｒｄ　ＮＥ，Ａｌｂｕｑｕｅｒｑｕｅ，ＮＭ　８７１０７，Ｕｎｉｔｅｄ　Ｓｔａｔｅｓ,,,,,,2023-06-09,1,,,,,ケーイービージーオービーアーアーエンデイーエスエルエルシー,0
1570,6010001235992,新規,0,2023-06-09,2023-06-09,ＬＥＤＹ株式会社,,株式会社,東京都,中央区,日本橋本町４丁目６－１１鈴東ビル１Ｆ,,13,102,1030023,,,,,,,2023-06-09,1,,,,,レディ,0
1571,6010001236000,新規,0,2023-06-09,2023-06-09,クラウド＆パッケージ株式会社,,株式会社,東京都,中央区,銀座６丁目６番１号銀座風月堂ビル５階,,13,102,1040061,,,,,,,2023-06-09,1,,,,,クラウドアンドパッケージ,0
1578,6010401174790,新規,0,2023-06-09,2023-06-09,株式会社グレースリーフ,,株式会社,東京都,港区,赤坂１丁目１番１７号,,13,103,1070052,,,,,,,2023-06-09,1,,,,,グレースリーフ,0
1584,6010403030323,新規,0,2023-06-09,2023-06-09,ｕｎｂｏｕｎｄ合同会社,,合同会社,東京都,港区,南青山３丁目１番３６号,,13,103,1070062,,,,,,,2023-06-09,1,,,,,アンバウンド,0
1585,6010405022211,新規,0,2023-06-09,2023-06-09,一般社団法人サンライズ２,,その他の設立登記法人,東京都,港区,赤坂７丁目６番１５号,,13,103,1070052,,,,,,,2023-06-09,1,,,,,サンライズツー,0
1591,6010801034033,新規,0,2023-06-09,2023-06-09,ＨＡＪＩＭＡＲＩＮＯＢＡＳＨＯ株式会社,,株式会社,東京都,大田区,田園調布南１５番３号,,13,111,1450076,,,,,,,2023-06-09,1,,,,,ハジマリノバショ,0
1592,6010901053214,新規,0,2023-06-09,2023-06-09,株式会社１ＨＵＮＤＲＥＤ　ＭＵＳＩＣ,,株式会社,東京都,世田谷区,北沢３丁目３－９,,13,112,1550031,,,,,,,2023-06-09,1,,,,,ワンハンドレッドミュージック,0
1599,6011001154927,新規,0,2023-06-09,2023-06-09,株式会社ＷＹＳ　Ｒｅｌａｔｉｏｎ,,株式会社,東京都,渋谷区,千駄ヶ谷３丁目８番５号,,13,113,1510051,,,,,,,2023-06-09,1,,,,,ワイズリレーション,0
1600,6011001154943,新規,0,2023-06-09,2023-06-09,株式会社ｖｉｍａｌ,,株式会社,東京都,渋谷区,神宮前６丁目２３番４号桑野ビル２階,,13,113,1500001,,,,,,,2023-06-09,1,,,,,ヴィマル,0
1601,6011001154976,新規,0,2023-06-09,2023-06-09,株式会社ホリノＭＩコーポレーション,,株式会社,東京都,渋谷区,円山町５番５号,,13,113,1500044,,,,,,,2023-06-09,1,,,,,ホリノエムアイコーポレーション,0
1602,6011001154984,新規,0,2023-06-09,2023-06-09,ＲＯＯＭＡＤＥ株式会社,,株式会社,東京都,渋谷区,代々木２丁目２０番１９号３階（ＣＶＣ会計内）,,13,113,1510053,,,,,,,2023-06-09,1,,,,,ルームメイド,0
1603,6011001155000,新規,0,2023-06-09,2023-06-09,株式会社ｖｅａｒ,,株式会社,東京都,渋谷区,道玄坂１丁目１０番８号渋谷道玄坂東急ビル,,13,113,1500043,,,,,,,2023-06-09,1,,,,,ベア,0
1605,6011003016976,新規,0,2023-06-09,2023-06-09,合同会社ラシク,,合同会社,東京都,渋谷区,富ヶ谷２丁目１８番１号ダイアパレス駒場１０５,,13,113,1510063,,,,,,,2023-06-09,1,,,,,ラシク,0
1608,6011101103156,新規,0,2023-06-09,2023-06-09,Ｆｙｅ株式会社,,株式会社,東京都,新宿区,新小川町５番４号ＮＩＣビル３階,,13,104,1620814,,,,,,,2023-06-09,1,,,,,ファイ,0
1609,6011103013139,新規,0,2023-06-09,2023-06-09,ＣＳＣ合同会社,,合同会社,東京都,新宿区,榎町３４－３榎町ビル７階－１５室,,13,104,1620806,,,,,,,2023-06-09,1,,,,,シーエスシー,0
1614,6011303004788,新規,0,2023-06-09,2023-06-09,アシュヴィン合同会社,,合同会社,東京都,杉並区,宮前４丁目２１番３１号,,13,115,1680081,,,,,,,2023-06-09,1,,,,,アシュヴィン,0
1619,6011501029406,新規,0,2023-06-09,2023-06-09,深港株式会社,,株式会社,東京都,荒川区,町屋６丁目２４－７Ａ号室,,13,118,1160001,,,,,,,2023-06-09,1,,,,,シンコウ,0
1620,6011503005628,新規,0,2023-06-09,2023-06-09,合同会社ＶｉｔａＮｕｏｖａ,,合同会社,東京都,荒川区,荒川５丁目２－５ビクセル西日暮里９０４,,13,118,1160002,,,,,,,2023-06-09,1,,,,,バイターヌオーバー,0
1621,6011603003952,新規,0,2023-06-09,2023-06-09,アイ・ソフトブレーン合同会社,,合同会社,東京都,練馬区,上石神井１丁目８番２ー２０１号,,13,120,1770044,,,,,,,2023-06-09,1,,,,,アイソフトブレーン,0
1634,6011801042538,新規,0,2023-06-09,2023-06-09,梅丸株式会社,,株式会社,東京都,足立区,大谷田１丁目１３番６号,,13,121,1200001,,,,,,,2023-06-09,1,,,,,ウメマル,0
1635,6011801042546,新規,0,2023-06-09,2023-06-09,株式会社クロニクル,,株式会社,東京都,葛飾区,お花茶屋３丁目５－１１－６０１,,13,122,1240003,,,,,,,2023-06-09,1,,,,,クロニクル,0
1641,6012401040626,新規,0,2023-06-09,2023-06-09,株式会社ウィルエイト,,株式会社,東京都,武蔵野市,関前５丁目１４番１７号,,13,203,1800014,,,,,,,2023-06-09,1,,,,,ウィルエイト,0
1646,6013301050871,新規,0,2023-06-09,2023-06-09,株式会社Ｋ‐Ｃｒｏｓｓ,,株式会社,東京都,豊島区,池袋２丁目３６番１号,,13,116,1710014,,,,,,,2023-06-09,1,,,,,ケークロス,0
1647,6013303006649,新規,0,2023-06-09,2023-06-09,合同会社ＭＹＫ,,合同会社,東京都,豊島区,池袋４丁目１－１サントスビル１階,,13,116,1710014,,,,,,,2023-06-09,1,,,,,エムワイケイ,0
1650,6020001151982,新規,0,2023-06-09,2023-06-09,株式会社パラメディック,,株式会社,神奈川県,横浜市中区,花咲町１丁目１６番地１イーグルズネスト１０１号,,14,104,2310063,,,,,,,2023-06-09,1,,,,,パラメディック,0
1655,6021001079231,新規,0,2023-06-09,2023-06-09,株式会社ＤｉｇｉｔａｌＡｒｃｈｉ,,株式会社,神奈川県,鎌倉市,大町１丁目１番１４号,,14,204,2480007,,,,,,,2023-06-09,1,,,,,デジタルアーキ,0
1656,6021001079264,新規,0,2023-06-09,2023-06-09,株式会社アイコとバ,,株式会社,神奈川県,海老名市,泉２丁目１４番１－１５２０号,,14,215,2430437,,,,,,,2023-06-09,1,,,,,アイコトバ,0
1662,6030001154290,新規,0,2023-06-09,2023-06-09,株式会社ＳｔｕｄｉｏＷｉｚ,,株式会社,埼玉県,比企郡嵐山町,大字平澤２４５６番地,,11,342,3550215,,,,,,,2023-06-09,1,,,,,スタジオウィズ,0
1663,6030001154308,新規,0,2023-06-09,2023-06-09,ＳＡＮＤＥＮ　ＧＲＯＵＰ株式会社,,株式会社,埼玉県,富士見市,関沢２丁目２６番６号,,11,235,3540025,,,,,,,2023-06-09,1,,,,,サンデングループ,0
1664,6030001154316,新規,0,2023-06-09,2023-06-09,株式会社菓子工房レガール,,株式会社,埼玉県,春日部市,牛島７４０番地１,,11,214,3440004,,,,,,,2023-06-09,1,,,,,カシコウボウレガール,0
1665,6030001154332,新規,0,2023-06-09,2023-06-09,株式会社レオウィズ,,株式会社,埼玉県,熊谷市,中央２丁目４４９,,11,202,3600018,,,,,,,2023-06-09,1,,,,,レオウィズ,0
1666,6030003021902,新規,0,2023-06-09,2023-06-09,瑞喜合同会社,,合同会社,埼玉県,飯能市,南町６番１１号,,11,209,3570036,,,,,,,2023-06-09,1,,,,,ミズキ,0
1667,6030005021289,新規,0,2023-06-09,2023-06-09,ＮＰＯ法人ｙｏｓｕｇａ,,その他の設立登記法人,埼玉県,越谷市,東越谷９丁目４番地６,,11,222,3430023,,,,,,,2023-06-09,1,,,,,ヨスガ,0
1684,6050003007560,新規,0,2023-06-09,2023-06-09,合同会社Ｎｅｗ　ｌｉｆｅ,,合同会社,茨城県,那珂市,菅谷５９１番地の１７,,08,226,3110105,,,,,,,2023-06-09,1,,,,,ニューライフ,0
1685,6060001036057,新規,0,2023-06-09,2023-06-09,株式会社５ｃｏｃｈｉ,,株式会社,栃木県,下都賀郡壬生町,大字北小林１１６１番地８９,,09,361,3210207,,,,,,,2023-06-09,1,,,,,ゴコチ,0
1699,6100003007051,新規,0,2023-06-09,2023-06-09,ＧＲＯＷＴＨ合同会社,,合同会社,長野県,松本市,征矢野２丁目１２番４３号,,20,202,3900842,,,,,,,2023-06-09,1,,,,,グロース,0
1717,6120001255468,新規,0,2023-06-09,2023-06-09,株式会社住まいフェア,,株式会社,大阪府,大阪市北区,西天満２丁目２番５号,,27,127,5300047,,,,,,,2023-06-09,1,,,,,スマイフェア,0
1718,6120001255476,新規,0,2023-06-09,2023-06-09,Ｍｅｌ　Ｃｏｆｆｅｅ　Ｒｏａｓｔｅｒｓ株式会社,,株式会社,大阪府,大阪市西区,新町１丁目２０－４,,27,106,5500013,,,,,,,2023-06-09,1,,,,,メルコーヒーロースターズ,0
1719,6120001255534,新規,0,2023-06-09,2023-06-09,株式会社Ｚｉｐａｎｇｒｉ,,株式会社,大阪府,守口市,京阪本通１丁目３番２号,,27,209,5700083,,,,,,,2023-06-09,1,,,,,ジパングリ,0
1720,6120001255583,新規,0,2023-06-09,2023-06-09,Ｌ＆Ｂａｒｔｎｅｃｋ株式会社,,株式会社,大阪府,大阪市北区,梅田２丁目２－２ヒルトンプラザウエストオフィスタワー１９階,,27,127,5300001,,,,,,,2023-06-09,1,,,,,エルアンドバートネック,0
1721,6120003024251,新規,0,2023-06-09,2023-06-09,ＭＩＺＵＫＩ合同会社,,合同会社,大阪府,門真市,岸和田３丁目２１－１１,,27,223,5710002,,,,,,,2023-06-09,1,,,,,ミズキ,0
1726,6120901047626,新規,0,2023-06-09,2023-06-09,株式会社Ｒｅ　ＰＥＡＲ,,株式会社,大阪府,高槻市,城北町２丁目３－１１レーベンハイム４０３,,27,207,5690071,,,,,,,2023-06-09,1,,,,,リペア,0
1727,6120901047642,新規,0,2023-06-09,2023-06-09,株式会社Ｇｒｉｐ　Ｗｏｒｋｓ,,株式会社,大阪府,高槻市,富田町１丁目１１番９号ツインビル３０２号室,,27,207,5690814,,,,,,,2023-06-09,1,,,,,グリップワークス,0
1728,6120903004682,新規,0,2023-06-09,2023-06-09,合同会社高雄企画,00130788,合同会社,大阪府,高槻市,三島江４丁目１８番１２号,,27,207,5690835,,,,,,,2023-06-09,1,,,,,コウユウキカク,0
1731,6122001037029,新規,0,2023-06-09,2023-06-09,株式会社さんあい大阪,,株式会社,大阪府,東大阪市,瓜生堂２丁目８番２号,,27,227,5780946,,,,,,,2023-06-09,1,,,,,サンアイオオサカ,0
1732,6122001037061,新規,0,2023-06-09,2023-06-09,いばしょ株式会社,,株式会社,大阪府,東大阪市,荒川３丁目５番６号,,27,227,5770843,,,,,,,2023-06-09,1,,,,,イバショ,0
1741,6130001074529,新規,0,2023-06-09,2023-06-09,株式会社ＷＡＺＡ,,株式会社,京都府,京都市中京区,六角通麩屋町西入大黒町９０番地ドルチェヴィータ京都六角５０３,,26,104,6048073,,,,,,,2023-06-09,1,,,,,ワザ,0
1747,6140001130363,新規,0,2023-06-09,2023-06-09,セイカリサーチ株式会社,,株式会社,兵庫県,姫路市,飾磨区入船町１番地,,28,201,6728076,,,,,,,2023-06-09,1,,,,,セイカリサーチ,0
1748,6140001130388,新規,0,2023-06-09,2023-06-09,ＮＳＫ株式会社,,株式会社,兵庫県,神戸市長田区,六番町２丁目４番地の９,,28,106,6530002,,,,,,,2023-06-09,1,,,,,エヌエスケイ,0
1749,6140001130454,新規,0,2023-06-09,2023-06-09,株式会社フェリスミライ,,株式会社,兵庫県,尼崎市,名神町２丁目１９番２５号,,28,202,6610021,,,,,,,2023-06-09,1,,,,,フェリスミライ,0
1750,6140001130495,新規,0,2023-06-09,2023-06-09,株式会社ＨＲＣＯ,,株式会社,兵庫県,神戸市東灘区,住吉南町２丁目９番１８号,,28,101,6580041,,,,,,,2023-06-09,1,,,,,エイチアールシーオー,0
1751,6140003019183,新規,0,2023-06-09,2023-06-09,合同会社こまり設計事務所,,合同会社,兵庫県,姫路市,西延末３０５番地１０,,28,201,6700971,,,,,,,2023-06-09,1,,,,,コマリセッケイジムショ,0
1752,6150001026478,新規,0,2023-06-09,2023-06-09,株式会社ＫＯＳ,,株式会社,奈良県,奈良市,南京終町６６７－２－Ｃ,,29,201,6308141,,,,,,,2023-06-09,1,,,,,ケーオーエス,0
1756,6180001156685,新規,0,2023-06-09,2023-06-09,株式会社８００００００ｗｏｒｋｓ,,株式会社,愛知県,春日井市,高蔵寺町７丁目４－２,,23,206,4870013,,,,,,,2023-06-09,1,,,,,エイトミリオンワークス,0
1759,6180003025343,新規,0,2023-06-09,2023-06-09,合同会社トレゾー,,合同会社,愛知県,名古屋市守山区,小幡北６０３番地,,23,113,4630008,,,,,,,2023-06-09,1,,,,,トレゾー,0
1765,6210001019351,新規,0,2023-06-09,2023-06-09,株式会社ＮＫＹ,,株式会社,福井県,福井市,高屋町第２２号１１番地１,,18,201,9100107,,,,,,,2023-06-09,1,,,,,エヌケイワイ,0
1772,6230001019878,新規,0,2023-06-09,2023-06-09,株式会社フォー・ユー,,株式会社,富山県,富山市,中川原９２番地３７藤田第三ビル２０１号室,,16,201,9398015,,,,,,,2023-06-09,1,,,,,フォーユー,0
1779,6240001061656,新規,0,2023-06-09,2023-06-09,株式会社ＶＩＬＬＡＧＥＵＰ,,株式会社,広島県,呉市,平原町８番２４号,,34,202,7370078,,,,,,,2023-06-09,1,,,,,ヴィレッジアップ,0
1781,6250001020132,新規,0,2023-06-09,2023-06-09,Ｎ　ＴＥＣＨ株式会社,,株式会社,山口県,岩国市,麻里布町５丁目８番２０号レジデンス麻里布１０２号室,,35,208,7400018,,,,,,,2023-06-09,1,,,,,エヌテック,0
1782,6250001020140,新規,0,2023-06-09,2023-06-09,株式会社セーラスレッド,,株式会社,山口県,防府市,多々良２丁目３番２６号,,35,206,7470023,,,,,,,2023-06-09,1,,,,,セーラスレッド,0
1793,6290001101853,新規,0,2023-06-09,2023-06-09,株式会社タカ商,,株式会社,福岡県,久留米市,日吉町１１番地９ヴェルデ３６０－３０３,,40,203,8300017,,,,,,,2023-06-09,1,,,,,タカショウ,0
1794,6290001101861,新規,0,2023-06-09,2023-06-09,株式会社インテリード,,株式会社,福岡県,福岡市西区,小戸５丁目１０－１４－２１５,,40,135,8190001,,,,,,,2023-06-09,1,,,,,インテリード,0
1795,6290001101886,新規,0,2023-06-09,2023-06-09,株式会社Ｅｖｅｎｌｙ,,株式会社,福岡県,福岡市博多区,博多駅前２丁目１番１号福岡朝日ビル１階,,40,132,8120011,,,,,,,2023-06-09,1,,,,,イーブンリー,0
1807,6340001025642,新規,0,2023-06-09,2023-06-09,株式会社上浦運輸,,株式会社,鹿児島県,熊毛郡南種子町,中之上２９７６番地１４,,46,502,8913701,,,,,,,2023-06-09,1,,,,,カミウラウンユ,0
1826,6450001014015,新規,0,2023-06-09,2023-06-09,株式会社ＨＯＫＫＡＩＤＯ　ＴＲＡＤＩＮＧ,,株式会社,北海道,名寄市,風連町字日進４４３０番地,,01,221,0980631,,,,,,,2023-06-09,1,,,,,ホッカイドウトレーディング,0
1830,6700150023996,新規,0,2023-06-09,2015-10-09,歴史街道推進協議会,,その他,大阪府,大阪市北区,中之島２丁目２－２大阪中之島ビル７階,,27,127,5300005,,,,,,,2015-10-09,1,,,,,レキシカイドウスイシンキヨウギカイ,0
1831,6700150117105,新規,0,2023-06-09,2023-06-09,ｊｉｕｊｉａｎｇｃｈｕｉｍｉｎｇｒｕｘｉｎｘｉｋｅｊｉｙｏｕｘｉａｎｇｏｎｇｓｉ,,外国会社等,,,,,,,,ｆｕ　ｈｕａ　ｎａｎ　ｄａ　ｄａｏ　ｙｉ　ｂｅｉ　３　ｈａｏ　ｌｏｕ　１０１　ｇｏｎｇ　ｑｉｎｇ　ｃｈｅｎｇ　ｓｈｉ　ｊｉｕ　ｊｉａｎｇ　ｓｈｉ　ｊｉａｎｇ　ｘｉ　ｓｈｅｎｇ　ｚｈｏｎｇ　ｇｕｏ,,,,,,2023-06-09,1,,,,,キユウコウスイメイジヨインフオメーシヨンテクノロジーカンパニーリミテツド,0
1832,6700150117113,新規,0,2023-06-09,2023-06-09,Ｇｕａｎｇｚｈｏｕ　Ｎｕｏｓｈｕｉ　Ｉｎｔｅｒｎａｔｉｏｎａｌ　Ｔｒａｄｉｎｇ　Ｃｏ．，Ｌｔｄ．,,外国会社等,,,,,,,,Ｚｅｎｇｃｈａ　Ｒｏａｄ　Ｎｏ．１０３３　Ｂｕｉｌｄｉｎｇ　＃２５，Ｇｕａｎｇｚｈｏｕ　Ｃｉｔｙ，Ｇｕａｎｇｄｏｎｇ　Ｐｒｏｖｉｎｃｅ，５１００００，ＣＮ,,,,,,2023-06-09,1,,,,,グワンジヨウヌオシユイグオジーマオイーヨウシエンゴンスー,0
1833,6700150117121,新規,0,2023-06-09,2023-06-09,ｇｕａｎｇｚｈｏｕｃｈｕａｎｇｙｉｘｉｎｍｅｉｗａｎｇｌｕｏｋｅｊｉｙｏｕｘｉａｎｇｏｎｇｓｉ,,外国会社等,,,,,,,,Ｒｏｏｍ　１０８，Ｂｕｉｌｄｉｎｇ　１５，Ｓｅｌｆ－ｅｄｉｔｉｎｇ，Ｎｏ．１，Ｙｕａｎｘｉａｄｉ　Ｒｏａｄ，Ｈｕａｎｇｓｈｉ　Ｓｔｒｅｅｔ，Ｂａｉｙｕｎ　Ｄｉｓｔｒｉｃｔ，Ｇｕａｎｇｚｈｏｕ，Ｇｕａｎｇｄｏｎｇ，Ｃｈｉｎａ,,,,,,2023-06-09,1,,,,,グワンジヨウチユワンイーシンメイワンルオコージーヨウシエンゴンスー,0
1834,6700150117138,新規,0,2023-06-09,2023-06-09,ＳＨＥＮ　ＺＨＥＮ　ＳＨＩ　ＡＩ　ＫＥＮ　ＫＥ　ＪＩ　ＹＯＵ　ＸＩＡＮ　ＧＯＮＧ　ＳＩ,,外国会社等,,,,,,,,２１１　Ｆｕｌｉｎｇ　Ｄａｓｈａ　６２９７　Ｈａｏ　Ｂａｏａｎ　Ｄａｄａｏ　Ｑｉａｏｔｏｕ　Ｓｈｅｑｕ　Ｌｉｎｈａｉ　Ｊｉｅｄａｏ　Ｂａｏａｎ　Ｑｕ　Ｓｈｅｎｚｈｅｎ　Ｇｕａｎｇｄｏｎｇ　Ｃｈｉｎａ,,,,,,2023-06-09,1,,,,,シエンジエンシーアイケンコージーヨウシエンゴンスー,0
1835,6700150117146,新規,0,2023-06-09,2023-06-09,Ｓｈｅｎｚｈｅｎｓｈｉ　ｂａｉｗａｎｇｕａｎｇｇａｏ　ｙｏｕｘｉａｎｇｏｎｇｓｉ,,外国会社等,,,,,,,,Ｌｏｎｇｈｕａｑｕ　ｌｏｎｇｈｕａｊｉｅｄａｏ　ｈｕａｌｉａｎｓｈｅｑｕ　ｊｉｎｌｏｎｇｈｕａｇｕａｎｇｃｈａｎｇ１ｈａｏ　ｊｉｎｌｏｎｇｇｅ１９０１　Ｓｈｅｎｚｈｅｎ　Ｇｕａｎｇｄｏｎｇ　５１８０００　ＣＮ,,,,,,2023-06-09,1,,,,,シエンジエンシーバイワングワンガオヨウシエンゴンスー,0
1836,6700150117154,新規,0,2023-06-09,2023-06-09,Ｓｈｅｎｚｈｅｎ　Ｗｕｗｅｉ　Ｅ－Ｃｏｍｍｅｒｃｅ　Ｃｏ．，Ｌｔｄ,,外国会社等,,,,,,,,Ｒｏｏｍ　２１２，Ｂｕｉｌｄｉｎｇ　Ａ，Ｌｕｙｉｎｇｊｕ，Ｎｏ．６３６，Ｃｕｉｙｉｎ　Ｒｏａｄ，Ｊｉｎｈｕ　Ｃｏｍｍｕｎｉｔｙ，Ｄｏｎｇｈｕ　Ｓｔｒｅｅｔ，Ｌｕｏｈｕ　Ｄｉｓｔｒｉｃｔ，Ｓｈｅｎｚｈｅｎ　５１８０００　ＣＮ,,,,,,2023-06-09,1,,,,,シエンジエンシーウーウエイデイエンズーシヤンウーヨウシエンゴンスー,0
1837,6700150117162,新規,0,2023-06-09,2023-06-09,Ｓｈｅｎｚｈｅｎ　Ｓｈｅｎｇｌｏｎｇｃｈｅｎ　Ｔｒａｄｉｎｇ　Ｃｏ．，Ｌｔｄ,,外国会社等,,,,,,,,６０４．Ｂｌｄｇ．Ａ，Ｙｕｆｅｎｇｙｕａｎ，Ｊｉａｎｓｈｅ　Ｒｄ．，Ｌｏｎｇｈｕａ　Ｓｔ．，Ｌｏｎｇｈｕａ　Ｎｅｗ　Ｄｉｓｔ．，Ｓｈｅｎｚｈｅｎ，ＣＨＩＮＡ　５１８０００,,,,,,2023-06-09,1,,,,,シエンジエンシーシヨンロンチエンマオイーヨウシエンゴンスー,0
1838,6700150117170,新規,0,2023-06-09,2023-06-09,ｂｅｉｊｉｎｇｌｉｎｇｚｈｉｈｅｎｇｄａｓｈａｎｇｍａｏｙｏｕｘｉａｎｇｏｎｇｓｉ,,外国会社等,,,,,,,,ｂｅｉｊｉｎｇｓｈｉｆｅｎｇｔａｉｑｕｃａｉｈｕｙｉｎｇ５８ｈａｏ１１０２ｓｈｉ　ｔａｉｐｉｎｇｑｉａｏｑｉｙｅｊｉｚｈｏｎｇｂａｎｇｏｎｇｑｕ　ｂｅｉｊｉｎｇｓｈｉ　ｂｅｉｊｉｎｇｓｈｉ　１０００００　ＣＮ,,,,,,2023-06-09,1,,,,,ベイジンリンジーホンダーシヤンマオヨウシエンゴンスー,0
1858,7010401174831,新規,0,2023-06-09,2023-06-09,株式会社Ｔｈｅ　Ｍｏｕｎｔａｉｎ,,株式会社,東京都,港区,南青山３丁目１番３６号青山丸竹ビル６Ｆ,,13,103,1070062,,,,,,,2023-06-09,1,,,,,ザマウンテン,0
1859,7010401174889,新規,0,2023-06-09,2023-06-09,ＩＱＩ　Ｊａｐａｎ株式会社,,株式会社,東京都,港区,東麻布３丁目４番１７号,,13,103,1060044,,,,,,,2023-06-09,1,,,,,アイキューアイジャパン,0
1867,7010403030248,新規,0,2023-06-09,2023-06-09,合同会社メディカルオフィス岩崎,,合同会社,東京都,港区,三田５丁目２番２２－９１１号,,13,103,1080073,,,,,,,2023-06-09,1,,,,,メディカルオフィスイワサキ,0
1868,7010403030256,新規,0,2023-06-09,2023-06-09,Ｋａｚｅ合同会社,,合同会社,東京都,港区,元麻布３丁目１番６号,,13,103,1060046,,,,,,,2023-06-09,1,,,,,カゼ,0
1869,7010403030289,新規,0,2023-06-09,2023-06-09,合同会社サンライズ１,,合同会社,東京都,港区,赤坂７丁目６番１５号,,13,103,1070052,,,,,,,2023-06-09,1,,,,,サンライズワン,0
1883,7010801034040,新規,0,2023-06-09,2023-06-09,株式会社ｙａｈＤｏｒｙ,,株式会社,東京都,大田区,池上７丁目２－７,,13,111,1460082,,,,,,,2023-06-09,1,,,,,ヤードリー,0
1886,7010901053213,新規,0,2023-06-09,2023-06-09,株式会社イテレーション,,株式会社,東京都,世田谷区,中町２丁目４番４－３０６号,,13,112,1580091,,,,,,,2023-06-09,1,,,,,イテレーション,0
1897,7011001154876,新規,0,2023-06-09,2023-06-09,株式会社Ｓｐｒａｙ,,株式会社,東京都,渋谷区,神宮前３丁目６－１８ドミール神宮前１０１,,13,113,1500001,,,,,,,2023-06-09,1,,,,,スプレイ,0
1898,7011001154918,新規,0,2023-06-09,2023-06-09,株式会社新堀,,株式会社,東京都,渋谷区,千駄ヶ谷５丁目２３番９号,,13,113,1510051,,,,,,,2023-06-09,1,,,,,シンボリ,0
1899,7011001154950,新規,0,2023-06-09,2023-06-09,株式会社Ｃ２,,株式会社,東京都,渋谷区,神宮前６丁目２３番４号桑野ビル２階,,13,113,1500001,,,,,,,2023-06-09,1,,,,,シーツー,0
1900,7011001154975,新規,0,2023-06-09,2023-06-09,株式会社ｕｐｃｅｅｄ,,株式会社,東京都,渋谷区,渋谷１丁目１４番８号宮益ＳＫビル９階,,13,113,1500002,,,,,,,2023-06-09,1,,,,,アップシード,0
1901,7011001154983,新規,0,2023-06-09,2023-06-09,ドストラ株式会社,,株式会社,東京都,渋谷区,渋谷２丁目１９番１５号宮益坂ビルディング６０９,,13,113,1500002,,,,,,,2023-06-09,1,,,,,ドストラ,0
1905,7011003016975,新規,0,2023-06-09,2023-06-09,合同会社ｔｅｎ‐ｂａｇｇｅｒ,,合同会社,東京都,渋谷区,代々木５丁目７番５号ＰＯＲＴＡＬＰＯＩＮＴｙｏｙｏｇｉ－ｋｏｅｎ４０２,,13,113,1510053,,,,,,,2023-06-09,1,,,,,テンバガー,0
1906,7011003016983,新規,0,2023-06-09,2023-06-09,ＡｓＮｅｖ合同会社,,合同会社,東京都,渋谷区,神泉町１０番１５号,,13,113,1500045,,,,,,,2023-06-09,1,,,,,アズネブ,0
1907,7011003016991,新規,0,2023-06-09,2023-06-09,グレースメディカル合同会社,,合同会社,東京都,渋谷区,道玄坂１丁目１０番８号渋谷道玄坂東急ビル２Ｆ－Ｃ,,13,113,1500043,,,,,,,2023-06-09,1,,,,,グレースメディカル,0
1908,7011005010101,新規,0,2023-06-09,2023-06-09,原宿インペリアルハイツ管理組合法人,,その他の設立登記法人,東京都,渋谷区,神宮前２丁目３０番１０号,,13,113,1500001,,,,,,,2023-06-09,1,,,,,ハラジュクインペリアルハイツ,0
1928,7011801042529,新規,0,2023-06-09,2023-06-09,Ｉフェイマス株式会社,,株式会社,東京都,葛飾区,亀有２丁目２３－２第２かのう荘１階,,13,122,1250061,,,,,,,2023-06-09,1,,,,,アイフェイマス,0
1929,7011803005681,新規,0,2023-06-09,2023-06-09,合同会社ＰｔｏＤ,,合同会社,東京都,葛飾区,青戸７丁目３２,,13,122,1250062,,,,,,,2023-06-09,1,,,,,ピートゥデイ,0
1932,7012703002728,新規,0,2023-06-09,2023-06-09,合同会社結,,合同会社,東京都,東村山市,廻田町４丁目２４番地９２,,13,213,1890025,,,,,,,2023-06-09,1,,,,,ユイ,0
1939,7013303006648,新規,0,2023-06-09,2023-06-09,合同会社米光ゲーム,,合同会社,東京都,豊島区,北大塚３丁目１７番５号アルシェ大塚２０２号,,13,116,1700004,,,,,,,2023-06-09,1,,,,,ヨネミツゲーム,0
1940,7013303006656,新規,0,2023-06-09,2023-06-09,合同会社ＧＯ‐ＵＮ‐ＮＯＨ,,合同会社,東京都,豊島区,高田２丁目５番４－２０２号,,13,116,1710033,,,,,,,2023-06-09,1,,,,,ゴウンノウ,0
1950,7020001151981,新規,0,2023-06-09,2023-06-09,株式会社ＳＰＩＶＥＲ　Ｊａｐａｎ,,株式会社,神奈川県,川崎市高津区,新作６丁目２番６０号,,14,134,2130014,,,,,,,2023-06-09,1,,,,,スピバージャパン,0
1952,7020003023980,新規,0,2023-06-09,2023-06-09,合同会社Ｐｒｉｍａ　Ｃｏｌｌｅｃｔｉｏｎ,,合同会社,神奈川県,横浜市南区,永楽町２丁目２３ランドフォレストＭ横浜４階４０１号,,14,105,2320031,,,,,,,2023-06-09,1,,,,,プリマコレクション,0
1958,7021003013179,新規,0,2023-06-09,2023-06-09,合同会社Ｇ‐ｓｔｙｌｅ,,合同会社,神奈川県,相模原市南区,上鶴間本町１丁目１６番４５号,,14,153,2520318,,,,,,,2023-06-09,1,,,,,ジースタイル,0
1959,7021003013195,新規,0,2023-06-09,2023-06-09,つくりて合同会社,,合同会社,神奈川県,厚木市,妻田南２丁目１２―２２,,14,212,2430814,,,,,,,2023-06-09,1,,,,,ツクリテ,0
1965,7030001154273,新規,0,2023-06-09,2023-06-09,株式会社キョクチ,,株式会社,埼玉県,川口市,大字芝７００５番地の３,,11,203,3330866,,,,,,,2023-06-09,1,,,,,キョクチ,0
1966,7030001154307,新規,0,2023-06-09,2023-06-09,株式会社ＳＯＭＯ　ＧＲＯＵＰ,,株式会社,埼玉県,蓮田市,大字閏戸字曽根２３７２番地１,,11,238,3490133,,,,,,,2023-06-09,1,,,,,ソモグループ,0
1967,7030001154315,新規,0,2023-06-09,2023-06-09,株式会社グリープフラワー,,株式会社,埼玉県,さいたま市大宮区,仲町２丁目７１番地ソシオ大宮６Ｆ,,11,103,3300845,,,,,,,2023-06-09,1,,,,,グリープフラワー,0
1968,7030001154323,新規,0,2023-06-09,2023-06-09,株式会社梅本商店,,株式会社,埼玉県,さいたま市見沼区,大字御蔵１９番地７７,,11,104,3370033,,,,,,,2023-06-09,1,,,,,ウメモトショウテン,0
1972,7030003021892,新規,0,2023-06-09,2023-06-09,エルエルケアリング合同会社,,合同会社,埼玉県,さいたま市南区,辻８丁目９番６号,00130800,11,108,3360026,,,,,,,2023-06-09,1,,,,,エルエルケアリング,0
1987,7050001052970,新規,0,2023-06-09,2023-06-09,株式会社ｙｕｍｍｙ,,株式会社,茨城県,取手市,桜が丘４丁目２４－６,,08,217,3001525,,,,,,,2023-06-09,1,,,,,,0
1990,7050003007568,新規,0,2023-06-09,2023-06-09,合同会社Ｒｅ’Ｄ,,合同会社,茨城県,守谷市,百合ケ丘１丁目２４１９番地の１３,,08,224,3020110,,,,,,,2023-06-09,1,,,,,レッド,0
1994,7060003004580,新規,0,2023-06-09,2023-06-09,エコブランド合同会社,,合同会社,栃木県,小山市,大字横倉新田７番地９６,,09,208,3230819,,,,,,,2023-06-09,1,,,,,エコブランド,0
1999,7080003002995,新規,0,2023-06-09,2023-06-09,合同会社ｗｉｔｈ　Ｕ,,合同会社,静岡県,静岡市駿河区,西島２７６番地の１レジデンス光２、２０３号,,22,102,4228045,,,,,,,2023-06-09,1,,,,,ウィズユー,0
2007,7100001036489,新規,0,2023-06-09,2023-06-09,株式会社東和住設,,株式会社,長野県,松本市,大字今井４９０７番地１,,20,202,3901131,,,,,,,2023-06-09,1,,,,,トウワジュウセツ,0
2009,7110001037593,新規,0,2023-06-09,2023-06-09,株式会社山際左官工業所,,株式会社,新潟県,新潟市北区,横土居３４３８番地,,15,101,9503303,,,,,,,2023-06-09,1,,,,,ヤマギワサカンコウギョウショ,0
2010,7110001037602,新規,0,2023-06-09,2023-06-09,株式会社星野自動車,,株式会社,新潟県,新潟市江南区,旭４丁目４番２２号２,,15,104,9500166,,,,,,,2023-06-09,1,,,,,ホシノジドウシャ,0
2021,7120001255517,新規,0,2023-06-09,2023-06-09,株式会社ＧＩＮ,,株式会社,大阪府,大阪市中央区,高麗橋１丁目５番２２号エヌビル３階,,27,128,5410043,,,,,,,2023-06-09,1,,,,,ジーアイエヌ,0
2022,7120001255566,新規,0,2023-06-09,2023-06-09,株式会社ＮＣＣ,,株式会社,大阪府,大阪市西区,立売堀５丁目６番１５号,,27,106,5500012,,,,,,,2023-06-09,1,,,,,エヌシーシー,0
2023,7120001255574,新規,0,2023-06-09,2023-06-09,株式会社日本経済投資研究所,,株式会社,大阪府,大阪市淀川区,西中島３丁目１８番２１号ＮＬＣ新大阪１８号館３－Ｈ,,27,123,5320011,,,,,,,2023-06-09,1,,,,,ニホンケイザイトウシケンキュウショ,0
2024,7120001255590,新規,0,2023-06-09,2023-06-09,株式会社ａｌｌ　ｈｉｇｈｌｉｇｈｔ,,株式会社,大阪府,大阪市浪速区,恵美須西１丁目１－８－２０２,,27,111,5560003,,,,,,,2023-06-09,1,,,,,オールハイライト,0
2025,7120001255599,新規,0,2023-06-09,2023-06-09,株式会社てらすはうす,,株式会社,大阪府,枚方市,大垣内町２丁目１７番３号,,27,210,5730027,,,,,,,2023-06-09,1,,,,,テラスハウス,0
2026,7120001255665,新規,0,2023-06-09,2023-06-09,株式会社ＹＹＤＳ,,株式会社,大阪府,大阪市西区,川口３丁目３番３号,,27,106,5500021,,,,,,,2023-06-09,1,,,,,ワイワイディーエス,0
2027,7120003024226,新規,0,2023-06-09,2023-06-09,アイワアシスト合同会社,,合同会社,大阪府,大阪市北区,芝田２丁目８番１１号共栄ビル３階,,27,127,5300012,,,,,,,2023-06-09,1,,,,,アイワアシスト,0
2028,7120003024242,新規,0,2023-06-09,2023-06-09,合同会社カオカ,,合同会社,大阪府,大阪市阿倍野区,昭和町２丁目３番３号センチュリーロイヤル昭和町２Ｆ,,27,119,5450011,,,,,,,2023-06-09,1,,,,,カオカ,0
2031,7120101067688,新規,0,2023-06-09,2023-06-09,株式会社中村興業,,株式会社,大阪府,堺市中区,東山４２３番地１,,27,142,5998247,,,,,,,2023-06-09,1,,,,,ナカムラコウギョウ,0
2037,7120901047600,新規,0,2023-06-09,2023-06-09,株式会社エフワンホールディングス,,株式会社,大阪府,茨木市,星見町２２番１１号,,27,211,5670843,,,,,,,2023-06-09,1,,,,,エフワンホールディングス,0
2038,7120901047641,新規,0,2023-06-09,2023-06-09,株式会社ｇｒａｐｈ,,株式会社,大阪府,茨木市,沢良宜東町１８番１７号,,27,211,5670863,,,,,,,2023-06-09,1,,,,,グラフ,0
2039,7122001037060,新規,0,2023-06-09,2023-06-09,株式会社リソースストリーム,,株式会社,大阪府,東大阪市,高井田１５番５号,,27,227,5770053,,,,,,,2023-06-09,1,,,,,リソースストリーム,0
2040,7122005003686,新規,0,2023-06-09,2023-06-09,一般社団法人日本木質構造用ねじ工業会,,その他の設立登記法人,大阪府,東大阪市,森河内西１丁目６番３０号若井ホールディングス株式会社内,,27,227,5770061,,,,,,,2023-06-09,1,,,,,ニホンモクシツコウゾウヨウネジコウギョウカイ,0
2045,7130001074511,新規,0,2023-06-09,2023-06-09,ミライ株式会社,,株式会社,京都府,京都市南区,八条源町６８番地１４,,26,107,6018477,,,,,,,2023-06-09,1,,,,,ミライ,0
2046,7130001074536,新規,0,2023-06-09,2023-06-09,テクハン・ホールディングス株式会社,,株式会社,京都府,京都市中京区,西ノ京北聖町１０番地の２,,26,104,6048382,,,,,,,2023-06-09,1,,,,,テクハンホールディングス,0
2056,7140001130354,新規,0,2023-06-09,2023-06-09,株式会社わのてっく,,株式会社,兵庫県,芦屋市,大桝町１番１３－２０４号,,28,206,6590066,,,,,,,2023-06-09,1,,,,,ワノテック,0
2057,7140001130379,新規,0,2023-06-09,2023-06-09,ＰＳＬ株式会社,,株式会社,兵庫県,西宮市,段上町８丁目９番２３号,,28,204,6638006,,,,,,,2023-06-09,1,,,,,ピーエスエル,0
2058,7140001130453,新規,0,2023-06-09,2023-06-09,株式会社ＺＥＲＯ,,株式会社,兵庫県,西宮市,上田中町１８番３５－７２１号,,28,204,6638134,,,,,,,2023-06-09,1,,,,,ゼロ,0
2069,7180001156610,新規,0,2023-06-09,2023-06-09,株式会社ディーエフプランニング,,株式会社,愛知県,日進市,竹の山４丁目２００９番地,,23,230,4700136,,,,,,,2023-06-09,1,,,,,ディーエフプランニング,0
2070,7180001156718,新規,0,2023-06-09,2023-06-09,株式会社中部インターナショナル,,株式会社,愛知県,名古屋市港区,知多１丁目３１０番地,,23,111,4550883,,,,,,,2023-06-09,1,,,,,チュウブインターナショナル,0
2071,7180003025326,新規,0,2023-06-09,2023-06-09,みらいサポート合同会社,,合同会社,愛知県,海部郡蟹江町,大字蟹江本町字コノ割一丁目１番地,,23,425,4970033,,,,,,,2023-06-09,1,,,,,ミライサポート,0
2074,7180303005738,新規,0,2023-06-09,2023-06-09,合同会社コンサルタントイナ,,合同会社,愛知県,田原市,赤羽根町寺山２１番地３,,23,231,4413502,,,,,,,2023-06-09,1,,,,,コンサルタントイナ,0
2078,7210001019350,新規,0,2023-06-09,2023-06-09,株式会社ｉ　ｆｏｒｍ,,株式会社,福井県,鯖江市,三六町２丁目３番８号,,18,207,9160021,,,,,,,2023-06-09,1,,,,,アイフォーム,0
2085,7240005015590,新規,0,2023-06-09,2023-06-09,一般社団法人地域・ひと・ＬＩＦＥサポート広島,,その他の設立登記法人,広島県,東広島市,西大沢１丁目２８－１５,,34,212,7390037,,,,,,,2023-06-09,1,,,,,チイキヒトライフサポートヒロシマ,0
2090,7260001038016,新規,0,2023-06-09,2023-06-09,株式会社大貴工業,,株式会社,岡山県,倉敷市,中島１５４１番地４,,33,202,7100803,,,,,,,2023-06-09,1,,,,,タイキコウギョウ,0
2097,7290001101860,新規,0,2023-06-09,2023-06-09,株式会社クライシス・アライアンス,,株式会社,福岡県,福岡市博多区,博多駅前４丁目１６番６号,,40,132,8120011,,,,,,,2023-06-09,1,,,,,クライシスアライアンス,0
2100,7290003014004,新規,0,2023-06-09,2023-06-09,合同会社オロライト,,合同会社,福岡県,久留米市,螢川町６１番地２,,40,203,8300015,,,,,,,2023-06-09,1,,,,,オロライト,0
2101,7290003014012,新規,0,2023-06-09,2023-06-09,Ｐｌａｎｎｉｎｇ　Ｍ合同会社,,合同会社,福岡県,八女市,馬場１６１番地２,,40,210,8340023,,,,,,,2023-06-09,1,,,,,プランニングエム,0
2109,7350001018405,新規,0,2023-06-09,2023-06-09,株式会社ほんまち不動産,,株式会社,宮崎県,東臼杵郡門川町,本町１丁目５５番地１,,45,421,8890613,,,,,,,2023-06-09,1,,,,,ホンマチフドウサン,0
2111,7360001032108,新規,0,2023-06-09,2023-06-09,株式会社スクーデリア沖縄,,株式会社,沖縄県,うるま市,字江洲２１０５番地２３,,47,213,9042244,,,,,,,2023-06-09,1,,,,,スクーデリアオキナワ,0
2114,7370001050059,新規,0,2023-06-09,2023-06-09,ＳｏｃｉａｌＩｎｖｅｓｔｅｒ株式会社,,株式会社,宮城県,仙台市太白区,鹿野３丁目１４－６,,04,104,9820023,,,,,,,2023-06-09,1,,,,,ソーシャルインベスター,0
2127,7400001016279,新規,0,2023-06-09,2023-06-09,株式会社風張工務店,,株式会社,岩手県,九戸郡洋野町,大野第６４地割７４番地１６,,03,507,0288802,,,,,,,2023-06-09,1,,,,,カザハリコウムテン,0
2137,7430001089363,新規,0,2023-06-09,2023-06-09,株式会社Ｇ‐ｌｏｔｕｓ,,株式会社,北海道,札幌市東区,東苗穂六条１丁目７番９号,,01,103,0070806,,,,,,,2023-06-09,1,,,,,ジーロータス,0
2156,7700150117104,新規,0,2023-06-09,2023-06-09,Ｓｈｅｎｚｈｅｎ　Ｋｏｎｇｈｕｉ　Ｔｒａｄｉｎｇ　Ｃｏ．，Ｌｔｄ,,外国会社等,,,,,,,,Ｌｏｎｇｈｕａｑｕ　Ｍｉｎｚｈｉｊｉｅｄａｏ　Ｍｉｎｑｉａｎｇｓｈｅｑｕ　Ｘｉａｎｇｎａｎｓａｎｑｕ　Ｄｏｎｇｍｅｉｄａｓｈａ６２２　Ｓｈｅｎｚｈｅｎ　Ｇｕａｎｇｄｏｎｇ　５１８０００,,,,,,2023-06-09,1,,,,,シンセンクウケイトレーデイングカンパニーリミテツド,0
2157,7700150117112,新規,0,2023-06-09,2023-06-09,ＤｉｎｇＬｉｎＷａｎｇＬｕｏＫｅＪｉ（Ｇｕａｎｇ　Ｚｈｏｕ）ＹｏｕＸｉａｎＧｏｎｇＳｉ,,外国会社等,,,,,,,,Ｓｈｏｐ　５０１　Ｎｏ．４２　Ｆａｎｗｕ　Ｓｔｒｅｅｔ　Ｔｉａｎｋｅ　Ｄｉｓｔｒｉｃｔ，Ｇｕａｎｇｚｈｏｕ　Ｇｕａｎｇｄｏｎｇ，５１０５９９，ＣＮ,,,,,,2023-06-09,1,,,,,デインリンワンルオコージーグワンジヨウヨウシエンゴンスー,0
2158,7700150117120,新規,0,2023-06-09,2023-06-09,ＧＵＡＮＧＺＨＯＵ　ＹＩ　ＸＵＡＮ　ＺＥ　ＳＨＡＮＧ　ＭＡＯ　ＹＯＵ　ＸＩＡＮ　ＧＯＮＧ　ＳＩ,,外国会社等,,,,,,,,ＢＡＩ　ＹＵＮ　ＱＵ　ＸＩ　ＣＨＡ　ＬＵ　ＨＥＮＧ　ＦＥＮＧ　ＪＩＥ　ＺＩ　ＢＩＡＮ　２８　ＨＡＯ　３０２　ＳＨＩ　ＧＵＡＮＧＺＨＯＵ　ＧＵＡＮＧＤＯＮＧ　中国　５１００００　８６１３６３１４１２９５７,,,,,,2023-06-09,1,,,,,グワンジヨウイーシユエンゾーシヤンマオヨウシエンゴンスー,0
2159,7700150117129,新規,0,2023-06-09,2023-06-09,Ｈａｎｇｚｈｏｕｌｉａｎｄｉａｏｓｈｕｋｏｎｇｋｅｊｉｙｏｕｘｉａｎｇｏｎｇｓｉ,,外国会社等,,,,,,,,ｑｉａｎｊｉａｎｇｊｉｎｇｊｉｋａｉｆａｑｕｘｉｎｇｇｕｏｌｕ５０３ｈａｏ１ｚｈｕａｎｇ２０２ｓｈｉ　ｈａｎｇｚｈｏｕ　ｚｈｅｊｉａｎｇ　３１１１１３　ＣＮ,,,,,,2023-06-09,1,,,,,ハンジヨウリエンデヤオシユーコンコージーヨウシエンゴンスー,0
2160,7700150117137,新規,0,2023-06-09,2023-06-09,Ｚｈｏｎｇｓｈａｎ　Ｙｏｎｇｚｈｅｎ　Ｎｅｔｗｏｒｋ　Ｔｅｃｈｎｏｌｏｇｙ　Ｃｏ．，Ｌｔｄ,,外国会社等,,,,,,,,３０２　Ｅａｓｔｅｒｎ　Ｔｒａｄｉｎｇ　Ｂｕｉｌｄｉｎｇ，Ｘｉｎｇｚｈｏｎｇ　Ａｖｅ．Ｚｈｏｎｇｓｈａｎ，Ｇｕａｎｇｄｏｎｇ　Ｐｒｏｖｉｎｃｅ，Ｃｈｉｎａ,,,,,,2023-06-09,1,,,,,ジヨンシヤンシーヨンジエンワンルオコージーヨウシエンゴンスー,0
2161,7700150117145,新規,0,2023-06-09,2023-06-09,ｓｈｅｎｚｈｅｎｓｈｉｃｈａｎｇｚｈｉｇｅｂａｉｈｕｏｙｏｕｘｉａｎｇｏｎｇｓｉ,,外国会社等,,,,,,,,ｇｕａｎｇｄｏｎｇ　Ｓｈｅｎｚｈｅｎ　ＨｕｉｌｏｎｇｐｕＣｏｍｍｕｎｉｔｙ，ＬｏｎｇｃｈｅｎｇＳｔ，ＬｏｎｇｇａｎｇＤｉｓｔｒｉｃｔ，Ｒｏｏｍ１９１７，Ｂｕｉｌｄｉｎｇ５，ＲｅｎｈｅｎｇｍｅｎｇＡｐａｒｔｍｅｎｔ,,,,,,2023-06-09,1,,,,,シエンジエンシージヤンジーゴーバイフオヨウシエンゴンスー,0
2162,7700150117153,新規,0,2023-06-09,2023-06-09,Ｄｏｎｇｇｕａｎ　ｅａｇｌｅ　ｓｍａｒｔ　ｈｏｍｅ　ｔｅｃｈｎｏｌｏｇｙ　ｃｏ．，ｌｔｄ．,,外国会社等,,,,,,,,Ｂ１－２，Ｎｏ．９２，１８８　Ｉｎｄｕｓｔｒｉｅｓ　ＲＤ，Ｐｉｎｇｓｈａｎ　Ｖｉｌｌａｇｅ，Ｔａｎｇｘｉａ　Ｔｏｗｎ　Ｄｏｎｇｇｕａｎ,,,,,,2023-06-09,1,,,,,ドングワンシーシヨンインジーノンジヤージーコージーヨウシエンゴンスー,0
2163,7700150117161,新規,0,2023-06-09,2023-06-09,Ｅ－ＬＩＮＫ　ＰＬＡＳＴＩＣ　＆　ＭＥＴＡＬ　ＩＮＤＵＳＴＲＩＡＬ　ＣＯ．，ＬＴＤ．,,外国会社等,,,,,,,,Ｎｏ．６９－４０，Ｘｉｎｓｈｕ　Ｒｄ．，Ｘｉｎｚｈｕｎｇ　Ｄｉｓｔ．，Ｎｅｗ　Ｔａｉｐｅｉ　Ｃｉｔｙ　２４２０６３，Ｔａｉｗａｎ,,,,,,2023-06-09,1,,,,,イーリンチーイエヨウシエンゴンスー,0
2164,7700150117211,新規,0,2023-06-09,2023-06-09,ＸＰＰＥＮ　ＴＥＣＨＮＯＬＯＧＹ　ＣＯ．,,外国会社等,,,,,,,,１５３５０　Ｆａｉｒｆｉｅｌｄ　Ｒａｎｃｈ　Ｒｄ　Ｓｔｅ　Ｇ　Ｃｈｉｎｏ　Ｈｉｌｌｓ，　Ｃａ　９１７０９－８８２５,,,,,,2023-06-09,1,,,,,エツクスピーピーイーエンテイーイーシーエーチエンオーエルオージーワイーシーオー,0
2177,8010001236056,新規,0,2023-06-09,2023-06-09,ＭＵＳＥＧＯＬＦ株式会社,,株式会社,東京都,千代田区,有楽町２丁目７番１号,,13,101,1000006,,,,,,,2023-06-09,1,,,,,ミューズゴルフ,0
2179,8010005036816,新規,0,2023-06-09,2023-06-09,一般社団法人ＴＮＴ,,その他の設立登記法人,東京都,千代田区,丸の内３丁目１番１号東京共同会計事務所内,,13,101,1000005,,,,,,,2023-06-09,1,,,,,ティエヌティ,0
2180,8010103002158,新規,0,2023-06-09,2023-06-09,合同会社Ｍ．Ｙ．ＰＲＥＣＩＯＵＳ,,合同会社,東京都,八王子市,散田町３丁目９－１９－８０４,,13,201,1930832,,,,,,,2023-06-09,1,,,,,マイプレシャス,0
2185,8010401174517,新規,0,2023-06-09,2023-06-09,株式会社ＢｉｒｄＲｏｃｋ,,株式会社,東京都,港区,南青山３丁目１番３６号青山丸竹ビル６Ｆ,,13,103,1070062,,,,,,,2023-06-09,1,,,,,バードロック,0
2186,8010401174822,新規,0,2023-06-09,2023-06-09,株式会社ＯＮ　ＴＨＥ　ＳＣＥＮＥ,,株式会社,東京都,港区,南青山２丁目２番１５号ＷｉｎＡｏｙａｍａビルＵＣＦ６階,,13,103,1070062,,,,,,,2023-06-09,1,,,,,オンザシーン,0
2188,8010405022218,新規,0,2023-06-09,2023-06-09,弁護士法人花車,,その他の設立登記法人,東京都,港区,虎ノ門１丁目３番１号,,13,103,1050001,,,,,,,2023-06-09,1,,,,,ハナグルマ,0
2191,8010701044394,新規,0,2023-06-09,2023-06-09,ブリッジアンドリンク株式会社,,株式会社,東京都,品川区,西品川１丁目１番１号,,13,109,1410033,,,,,,,2023-06-09,1,,,,,ブリッジアンドリンク,0
2192,8010703006731,新規,0,2023-06-09,2023-06-09,青澄合同会社,,合同会社,東京都,品川区,南品川２丁目９番２５－３０４号,,13,109,1400004,,,,,,,2023-06-09,1,,,,,アオト,0
2194,8010901053212,新規,0,2023-06-09,2023-06-09,株式会社Ｙｕｃａｓｈｉ,,株式会社,東京都,世田谷区,等々力１丁目３０番１６号ライオンズマンション等々力１０６,,13,112,1580082,,,,,,,2023-06-09,1,,,,,ユカシ,0
2202,8011001154917,新規,0,2023-06-09,2023-06-09,ＫＧＣ株式会社,,株式会社,東京都,渋谷区,千駄ヶ谷４丁目１９－１４サンネット千駄ヶ谷ビル３階東,,13,113,1510051,,,,,,,2023-06-09,1,,,,,ケイジーシイ,0
2203,8011001154933,新規,0,2023-06-09,2023-06-09,株式会社ｔｇａｔｅ,,株式会社,東京都,渋谷区,渋谷２丁目８番２号荻津ビル２階,,13,113,1500002,,,,,,,2023-06-09,1,,,,,ティーゲート,0
2204,8011001154941,新規,0,2023-06-09,2023-06-09,株式会社バイタルライフ,,株式会社,東京都,目黒区,自由が丘２丁目１６番２４号３０２,,13,110,1520035,,,,,,,2023-06-09,1,,,,,バイタルライフ,0
2205,8011001154974,新規,0,2023-06-09,2023-06-09,株式会社ＫａＫａ　Ｃｒｅａｔｉｏｎ,,株式会社,東京都,目黒区,青葉台３丁目１８番３号ＴＨＥＷＯＲＫＳ４１４号,,13,110,1530042,,,,,,,2023-06-09,1,,,,,カカクリエイション,0
2206,8011001154982,新規,0,2023-06-09,2023-06-09,ＳＧ　Ｇｌｏｂａｌ株式会社,,株式会社,東京都,渋谷区,桜丘町２６番１号セルリアンタワー１５階,,13,113,1500031,,,,,,,2023-06-09,1,,,,,エスジーグローバル,0
2207,8011003016974,新規,0,2023-06-09,2023-06-09,ワタコ合同会社,,合同会社,東京都,渋谷区,代々木４丁目２３番１６－４０６号,,13,113,1510053,,,,,,,2023-06-09,1,,,,,ワタコ,0
2208,8011005010100,新規,0,2023-06-09,2023-06-09,一般財団法人安津素彦記念研究財団,,その他の設立登記法人,東京都,渋谷区,代々木３丁目８番１０号,,13,113,1510053,,,,,,,2023-06-09,1,,,,,アンヅモトヒコキネンケンキュウザイダン,0
2215,8011101103105,新規,0,2023-06-09,2023-06-09,株式会社東宝ハウスＮＥＸＴ,,株式会社,東京都,新宿区,西新宿７丁目２２番９号,,13,104,1600023,,,,,,,2023-06-09,1,,,,,トウホウハウスネクスト,0
2216,8011101103195,新規,0,2023-06-09,2023-06-09,株式会社翔け橋,,株式会社,東京都,新宿区,四谷三栄町３番１３号ライトビル４０１,,13,104,1600008,,,,,,,2023-06-09,1,,,,,カケハシ,0
2217,8011103013120,新規,0,2023-06-09,2023-06-09,正和合同会社,,合同会社,東京都,新宿区,榎町３４－３榎町ビル７階－２２室,,13,104,1620806,,,,,,,2023-06-09,1,,,,,セイワ,0
2218,8011203004102,新規,0,2023-06-09,2023-06-09,合同会社ＲｅＡＣＴ,,合同会社,東京都,中野区,本町４丁目６－３平友荘１階６号室,,13,114,1640012,,,,,,,2023-06-09,1,,,,,リアクト,0
2219,8011303004794,新規,0,2023-06-09,2023-06-09,合同会社クライア,,合同会社,東京都,杉並区,方南２丁目２８番４５号ドエル方南２０１,,13,115,1680062,,,,,,,2023-06-09,1,,,,,クライア,0
2222,8011403004018,新規,0,2023-06-09,2023-06-09,ＮＥＸＴ　ＧＥＮ合同会社,,合同会社,東京都,板橋区,若木３丁目１番６号若木ハウス３０１,,13,119,1740065,,,,,,,2023-06-09,1,,,,,ネクストジェン,0
2229,8011501029404,新規,0,2023-06-09,2023-06-09,光焙若株式会社,,株式会社,東京都,荒川区,町屋２丁目５番１７号フィオーレ１０１号室,,13,118,1160001,,,,,,,2023-06-09,1,,,,,サンベルノ,0
2231,8011801042544,新規,0,2023-06-09,2023-06-09,株式会社Ｆｏｔｉａ,,株式会社,東京都,足立区,大谷田１丁目２２－２ｖｅｌａｄｅｖｅｒａｎｏ２０１,,13,121,1200001,,,,,,,2023-06-09,1,,,,,フォティア,0
2232,8011801042552,新規,0,2023-06-09,2023-06-09,株式会社スターダスト,,株式会社,東京都,足立区,加平１丁目１５番１４号ハイムタツノコ２０２,,13,121,1210055,,,,,,,2023-06-09,1,,,,,スターダスト,0
2236,8012301013481,新規,0,2023-06-09,2023-06-09,株式会社ＫＵＮＩＭＩ,,株式会社,東京都,町田市,常盤町３１０５番地２７,,13,209,1940213,,,,,,,2023-06-09,1,,,,,クニミ,0
2239,8012703002727,新規,0,2023-06-09,2023-06-09,合同会社アンプ,,合同会社,東京都,東村山市,富士見町５丁目３番３８号鹿間ハイツ１０３号室,,13,213,1890024,,,,,,,2023-06-09,1,,,,,アンプ,0
2240,8012803003088,新規,0,2023-06-09,2023-06-09,合同会社エンペラー,,合同会社,東京都,立川市,上砂町１丁目１３番地の１都営上砂町１丁目アパート１８棟２１８号,,13,202,1900032,,,,,,,2023-06-09,1,,,,,エンペラー,0
2243,8013301050878,新規,0,2023-06-09,2023-06-09,株式会社ＡＣＥ　Ｃｏｎｓｕｌｔｉｎｇ,,株式会社,東京都,豊島区,要町１丁目１３番４号,,13,116,1710043,,,,,,,2023-06-09,1,,,,,エースコンサルティング,0
2244,8013301050886,新規,0,2023-06-09,2023-06-09,株式会社寅午,,株式会社,東京都,豊島区,西池袋２丁目３－１１グランディール目白１０５号室,,13,116,1710021,,,,,,,2023-06-09,1,,,,,トラウマ,0
2245,8013303006647,新規,0,2023-06-09,2023-06-09,合同会社ＴＨプラス,,合同会社,東京都,豊島区,池袋本町２丁目１２番１７号クロワール池袋本町２０２号,,13,116,1700011,,,,,,,2023-06-09,1,,,,,ティーエイチプラス,0
2246,8013303006655,新規,0,2023-06-09,2023-06-09,タヒトベース合同会社,,合同会社,東京都,豊島区,駒込６丁目４番５号,,13,116,1700003,,,,,,,2023-06-09,1,,,,,タヒトベース,0
2247,8013305003485,新規,0,2023-06-09,2023-06-09,一般社団法人漢方マイスター協会,,その他の設立登記法人,東京都,豊島区,南大塚１丁目４７－５,,13,116,1700005,,,,,,,2023-06-09,1,,,,,カンポウマイスターキョウカイ,0
2251,8020001151980,新規,0,2023-06-09,2023-06-09,今日からきもの株式会社,,株式会社,神奈川県,横浜市港北区,篠原東１丁目１番１６号,,14,109,2220022,,,,,,,2023-06-09,1,,,,,キョウカラキモノ,0
2252,8020001151989,新規,0,2023-06-09,2023-06-09,株式会社Ｒｅｕｓｅ,,株式会社,神奈川県,横浜市港北区,鳥山町６５６番地新横浜フラワーマンション１０２号,,14,109,2220035,,,,,,,2023-06-09,1,,,,,リユース,0
2253,8020001152005,新規,0,2023-06-09,2023-06-09,株式会社ケーティービー,,株式会社,神奈川県,横浜市神奈川区,子安通３丁目３９３番地,,14,102,2210021,,,,,,,2023-06-09,1,,,,,ケーティービー,0
2256,8020005016032,新規,0,2023-06-09,2023-06-09,一般社団法人ＲＥＬＩＡＮＣＥ研究会,,その他の設立登記法人,神奈川県,横浜市鶴見区,下末吉３丁目６番１号（済生会横浜市東部病院循環器内科）,,14,101,2300012,,,,,,,2023-06-09,1,,,,,リライアンスケンキュウカイ,0
2259,8021001079213,新規,0,2023-06-09,2023-06-09,株式会社熊坂重量,,株式会社,神奈川県,愛甲郡愛川町,中津２１０２番地の６,,14,401,2430303,,,,,,,2023-06-09,1,,,,,クマサカジュウリョウ,0
2260,8021001079254,新規,0,2023-06-09,2023-06-09,ｇｕｉｍａｕｖｅ株式会社,,株式会社,神奈川県,逗子市,小坪６丁目７－２０,,14,208,2490008,,,,,,,2023-06-09,1,,,,,ギモーブ,0
2261,8021001079279,新規,0,2023-06-09,2023-06-09,株式会社奏陽建設,,株式会社,神奈川県,足柄上郡中井町,井ノ口４０６６番地３,,14,361,2590151,,,,,,,2023-06-09,1,,,,,ソウヨウケンセツ,0
2264,8021003013178,新規,0,2023-06-09,2023-06-09,合同会社ジュディス,,合同会社,神奈川県,相模原市南区,相模大野２丁目１６番６号－２０１,,14,153,2520303,,,,,,,2023-06-09,1,,,,,ジュディス,0
2269,8030001154272,新規,0,2023-06-09,2023-06-09,株式会社松井電気,,株式会社,埼玉県,春日部市,上蛭田７００番地９,,11,214,3440046,,,,,,,2023-06-09,1,,,,,マツイデンキ,0
2270,8030001154289,新規,0,2023-06-09,2023-06-09,Ｌｉｅｎ株式会社,,株式会社,埼玉県,所沢市,三ケ島１丁目８７番地の１コンフォート８７、２０２,,11,208,3591164,,,,,,,2023-06-09,1,,,,,リアン,0
2271,8030001154297,新規,0,2023-06-09,2023-06-09,株式会社インフィールド,,株式会社,埼玉県,ふじみ野市,市沢１丁目１７番１８号,,11,245,3560057,,,,,,,2023-06-09,1,,,,,インフィールド,0
2272,8030001154306,新規,0,2023-06-09,2023-06-09,株式会社ハルヒロ,,株式会社,埼玉県,川口市,栄町３丁目２番１５－１０６号,,11,203,3320017,,,,,,,2023-06-09,1,,,,,ハルヒロ,0
2273,8030001154330,新規,0,2023-06-09,2023-06-09,株式会社一霞,,株式会社,埼玉県,川口市,大字伊刈８２１番地の５,,11,203,3330865,,,,,,,2023-06-09,1,,,,,イチカ,0
2274,8030003021891,新規,0,2023-06-09,2023-06-09,あすのくおれ合同会社,,合同会社,埼玉県,秩父市,大野原４１８番地１,,11,207,3680005,,,,,,,2023-06-09,1,,,,,アスノクオレ,0
2275,8030003021909,新規,0,2023-06-09,2023-06-09,合同会社Ｓｙｎｏｔｐｒｏ,,合同会社,埼玉県,和光市,中央２丁目４番３－６０８号,,11,229,3510113,,,,,,,2023-06-09,1,,,,,サイノットプロ,0
2282,8040001128770,新規,0,2023-06-09,2023-06-09,株式会社ダブル・ブロ,,株式会社,千葉県,船橋市,市場４丁目１番１棟３０４号,,12,204,2730001,,,,,,,2023-06-09,1,,,,,ダブルブロ,0
2283,8040001128779,新規,0,2023-06-09,2023-06-09,株式会社ｋｏｋｋｅｉ,,株式会社,千葉県,柏市,若柴１７８番地４柏の葉キャンパス１４８街区２ショップ＆オフィス棟６階,,12,217,2770871,,,,,,,2023-06-09,1,,,,,コッケイ,0
2284,8040001128812,新規,0,2023-06-09,2023-06-09,株式会社桜の道,,株式会社,千葉県,君津市,杢師２丁目４番１５号,,12,225,2991163,,,,,,,2023-06-09,1,,,,,サクラノミチ,0
2285,8040003022757,新規,0,2023-06-09,2023-06-09,ｌｅ　ｍａｎｉ　Ｊａｐａｎ合同会社,,合同会社,千葉県,市原市,東五所２５番地２２アーバン東五所２２０,,12,219,2900064,,,,,,,2023-06-09,1,,,,,レマーニジャパン,0
2287,8040005022037,新規,0,2023-06-09,2023-06-09,ＮＰＯ法人アイルビーワム,,その他の設立登記法人,千葉県,千葉市稲毛区,稲毛３丁目１４番１６－１号,,12,103,2630034,,,,,,,2023-06-09,1,,,,,アイルビーワム,0
2306,8120001255466,新規,0,2023-06-09,2023-06-09,同元安株式会社,,株式会社,大阪府,大阪市中央区,谷町７丁目１番３９－３０１号Ａ,,27,128,5420012,,,,,,,2023-06-09,1,,,,,ドウゲンアン,0
2307,8120001255490,新規,0,2023-06-09,2023-06-09,大誠設備株式会社,,株式会社,大阪府,寝屋川市,高倉１丁目９－５,,27,215,5720864,,,,,,,2023-06-09,1,,,,,タイセイセツビ,0
2308,8120001255516,新規,0,2023-06-09,2023-06-09,楽学株式会社,,株式会社,大阪府,大阪市淀川区,西宮原３丁目２番１号新大阪ビジネス第２ニッケンマンション５２６号,,27,123,5320004,,,,,,,2023-06-09,1,,,,,ラクガク,0
2309,8120001255598,新規,0,2023-06-09,2023-06-09,株式会社どるふぃん,,株式会社,大阪府,大阪市天王寺区,上本町６丁目３番３１－１３０９号,,27,109,5430001,,,,,,,2023-06-09,1,,,,,ドルフィン,0
2311,8120003024258,新規,0,2023-06-09,2023-06-09,合同会社ＦＵＫＵＷＡＫＡ,,合同会社,大阪府,大阪市東住吉区,中野３丁目２番１２－１４０１号,,27,121,5460012,,,,,,,2023-06-09,1,,,,,フクワカ,0
2315,8120101067712,新規,0,2023-06-09,2023-06-09,Ｈｕｍａｎ　Ｃａｐｉｔａｌ　Ｄｅｓｉｇｎ株式会社,,株式会社,大阪府,堺市西区,浜寺昭和町２丁１９３番地２,,27,144,5928345,,,,,,,2023-06-09,1,,,,,ヒューマンキャピタルデザイン,0
2319,8120901047624,新規,0,2023-06-09,2023-06-09,株式会社ａｉ　ｇｒｏｕｐ,,株式会社,大阪府,豊中市,向丘１丁目２番２号,,27,203,5600053,,,,,,,2023-06-09,1,,,,,アイグループ,0
2320,8120901047649,新規,0,2023-06-09,2023-06-09,禅株式会社,,株式会社,大阪府,高槻市,明野町２０番１６号,,27,207,5690082,,,,,,,2023-06-09,1,,,,,ゼン,0
2321,8120903004672,新規,0,2023-06-09,2023-06-09,合同会社近畿経理センター,,合同会社,大阪府,豊中市,熊野町４丁目５番１の２号,,27,203,5600014,,,,,,,2023-06-09,1,,,,,キンキケイリセンター,0
2322,8120903004680,新規,0,2023-06-09,2023-06-09,セピア合同会社,,合同会社,大阪府,吹田市,日の出町２６番１５号,,27,205,5640023,,,,,,,2023-06-09,1,,,,,セピア,0
2324,8122003002607,新規,0,2023-06-09,2023-06-09,ジョア合同会社,,合同会社,大阪府,東大阪市,日下町４丁目４番１９号,,27,227,5798003,,,,,,,2023-06-09,1,,,,,ジョア,0
2330,8130001074436,新規,0,2023-06-09,2023-06-09,株式会社Ｇｒｅｅｎ　ｕｐ,,株式会社,京都府,宇治市,小倉町神楽田３８番地の１９１,,26,204,6110042,,,,,,,2023-06-09,1,,,,,グリーンアップ,0
2331,8130001074469,新規,0,2023-06-09,2023-06-09,株式会社たんごオフィス,,株式会社,京都府,京丹後市,峰山町杉谷３１７番地,,26,212,6270012,,,,,,,2023-06-09,1,,,,,タンゴオフィス,0
2332,8130001074510,新規,0,2023-06-09,2023-06-09,株式会社ＺＥＢＲＡ,,株式会社,京都府,京都市左京区,田中南西浦町９２番地７,,26,103,6068216,,,,,,,2023-06-09,1,,,,,ゼブラ,0
2341,8140005026655,新規,0,2023-06-09,2023-06-09,ＮＰＯ法人ＨａｇｕｍＯ,,その他の設立登記法人,兵庫県,神戸市兵庫区,中道通２丁目２－１－１Ｆ,,28,105,6520801,,,,,,,2023-06-09,1,,,,,ハグモ,0
2352,8180001156527,新規,0,2023-06-09,2023-06-09,株式会社Ｌｉｌｍｅ,,株式会社,愛知県,名古屋市中区,大須３丁目２番１５号栄南ＫＴビル６階,,23,106,4600011,,,,,,,2023-06-09,1,,,,,リルミー,0
2353,8180001156675,新規,0,2023-06-09,2023-06-09,株式会社ＥＮ,,株式会社,愛知県,津島市,中一色町北山５９番地２,,23,208,4960025,,,,,,,2023-06-09,1,,,,,エン,0
2354,8180001156691,新規,0,2023-06-09,2023-06-09,株式会社オヒア,,株式会社,愛知県,名古屋市守山区,市場１２番１９号（ライオンズマンション矢田川橋緑地ウエスト１２０１号）,,23,113,4630075,,,,,,,2023-06-09,1,,,,,オヒア,0
2357,8180003025333,新規,0,2023-06-09,2023-06-09,ＹＹ　Ｍｅｄｉｃａｌ合同会社,,合同会社,愛知県,名古屋市名東区,猪子石１丁目２８０５番地,,23,115,4650021,,,,,,,2023-06-09,1,,,,,ワイワイメディカル,0
2358,8180003025341,新規,0,2023-06-09,2023-06-09,カナン合同会社,,合同会社,愛知県,名古屋市千種区,萱場２丁目５番４１号ローレルコート千種北６０２号,,23,101,4640086,,,,,,,2023-06-09,1,,,,,カナン,0
2376,8260005011240,新規,0,2023-06-09,2023-06-09,一般社団法人ピアサポート仲よし,,その他の設立登記法人,岡山県,岡山市北区,広瀬町１０番３０号,,33,101,7000806,,,,,,,2023-06-09,1,,,,,ピアサポートナカヨシ,0
2378,8280001008957,新規,0,2023-06-09,2023-06-09,ＨＹホールディングス株式会社,,株式会社,島根県,松江市,東津田町４５３番地２,,32,201,6900011,,,,,,,2023-06-09,1,,,,,エイチワイホールディングス,0
2393,8300001013319,新規,0,2023-06-09,2023-06-09,株式会社まねき猫,,株式会社,佐賀県,小城市,牛津町乙柳５６９番地,,41,208,8490301,,,,,,,2023-06-09,1,,,,,マネキネコ,0
2394,8300001013327,新規,0,2023-06-09,2023-06-09,ライスファーム株式会社,,株式会社,佐賀県,唐津市,浜玉町浜崎２７０１番地,,41,202,8495131,,,,,,,2023-06-09,1,,,,,ライスファーム,0
2397,8310005008685,新規,0,2023-06-09,2023-06-09,ＮＰＯ法人ブカツナガサキ,,その他の設立登記法人,長崎県,長崎市,かき道４丁目３５番７号,,42,201,8510115,,,,,,,2023-06-09,1,,,,,ブカツナガサキ,0
2430,8430001089313,新規,0,2023-06-09,2023-06-09,株式会社大和商事,,株式会社,北海道,札幌市西区,西野十条８丁目１３番１２号,,01,107,0630040,,,,,,,2023-06-09,1,,,,,ダイワショウジ,0
2434,8480001012121,新規,0,2023-06-09,2023-06-09,株式会社Ｔｏｇｏ,,株式会社,徳島県,徳島市,南庄町５丁目６１番地の１３,,36,201,7700045,,,,,,,2023-06-09,1,,,,,トゴ,0
2438,8500005008617,新規,0,2023-06-09,2023-06-09,ＮＰＯ法人石井わくわく物語,,その他の設立登記法人,愛媛県,松山市,星岡４丁目１３番４５号,,38,201,7900922,,,,,,,2023-06-09,1,,,,,イシイワクワクモノガタリ,0
2440,8700150117103,新規,0,2023-06-09,2023-06-09,Ｙａｓｈａｎｇ　Ｓｈｅｎｚｈｅｎ　Ｋｅｊｉ　Ｙｏｕｘｉａｎ　Ｇｏｎｇｓｉ,,外国会社等,,,,,,,,４４９Ｆ，Ｂｕｉｌｄｉｎｇ　６１９，Ｂａｇｕａｌｉｎｇ　Ｉｎｄｕｓｔｒｉａｌ　Ｚｏｎｅ，Ｂａｇｕａ　１ｓｔ　Ｒｏａｄ，Ｐｅｎｇｓｈｅｎｇ　Ｃｏｍｍｕｎｉｔｙ，Ｙｕａｎｌｉｎｇ　Ｓｔｒｅｅｔ，Ｆｕｔｉａｎ　Ｄｉｓｔｒｉｃｔ，Ｓｈｅｎｚｈｅｎ　５１８０００,,,,,,2023-06-09,1,,,,,ガシヨウシンセンテクノロジーカンパニーリミテツド,0
2441,8700150117111,新規,0,2023-06-09,2023-06-09,Ｓｈｅｎｚｈｅｎｈｕｌｕｑｕｋｕａｉｈａｎｋｅｊｉｙｏｕｘｉａｎｇｏｎｇｓｉ,,外国会社等,,,,,,,,Ｂａｏａｎｑｕｘｉｘｉａｎｇｊｉｅｄａｏｈｕａｎｇｔｉａｎｙａｎｇｂｅｉｇｏｎｇｙｅｑｕｙｉｑｉ１ｄｏｎｇ３ｌｏｕ，Ｓｈｅｎｚｈｅｎ，Ｇｕａｎｇｄｏｎｇ，５１８１２８，ＣＮ,,,,,,2023-06-09,1,,,,,シエンジエンフールーチークワイリエンコージーヨウシエンゴンスー,0
2442,8700150117128,新規,0,2023-06-09,2023-06-09,Ｆｕｚｈｏｕ　ｓｈｅｎｇｓｉｄｕｎ　Ｓｐｏｒｔｓ　Ｇｏｏｄｓ　Ｃｏ．，Ｌｔｄ．,,外国会社等,,,,,,,,ｗａｎｄａ　ｇｕａｎｇｃｈａｎｇ　ｅｒｑｉ　Ｃ１＃ｘｉｅｚｉｌｏｕ　１０　ｃｅｎｇ　０５　ｓｈｉ　ｔａｉｊｉａｎｇ　ｑｕ　ａｏｆｅｎｇ　ｊｉｅｄａｏ　ａｏｊｉａｎｇｌｕ　８　ｈａｏ　Ｆｕｚｈｏｕ　Ｆｕｊｉａｎ　３５００００　ＣＮ,,,,,,2023-06-09,1,,,,,フージヨウシヨンスードウンテイーイーヨンピンヨウシエンゴンスー,0
2443,8700150117136,新規,0,2023-06-09,2023-06-09,ＩＴＡＲＧＥＴ　ＳＯＵＲＣＩＮＧ　ＣＯ．，ＬＩＭＩＴＥＤ,,外国会社等,,,,,,,,ＦＬＡＴ／ＲＭ　１３０３　１３／Ｆ　ＣＨＥＯＮＧ　ＴＡＩ　ＢＵＩＬＤＩＮＧ　ＮＯ．２８７－２８９　ＲＥＣＬＡＭＡＴＩＯＮ　ＳＴＲＥＥＴ　ＫＬ,,,,,,2023-06-09,1,,,,,ヨンジエンマオイーヨウシエンゴンスー,0
2444,8700150117144,新規,0,2023-06-09,2023-06-09,ＳｈｅｎＺｈｅｎ　ＴｏｐＳｈａｒｐ　Ｐｒｅｃｉｓｉｏｎ　Ｅｌｅｃｔｒｏｎｉｃｓ　Ｃｏ．Ｌｔｄ,,外国会社等,,,,,,,,３０１／４０１／５０１／７０１／Ｆ，Ｂｕｉｌｄｉｎｇ　Ｄ，Ａｒｅａ　Ａ，Ｔａｎｇｘｉ　２ｎｄ　Ｉｎｄｕｓｔｒｉａｌ　Ｚｏｎｅ，Ｎｏ．２１　Ｘｉｊｉｎｇ　Ｒｏａｄ，Ｇｕｓｈｕ，Ｘｉｘｉａｎｇ，Ｂａｏ’ａｎ，Ｓｈｅｎｚｈｅｎ，Ｃｈｉｎａ,,,,,,2023-06-09,1,,,,,シエンジエンシートンチユワンチユワンジンミーデイエンズーヨウシエンゴンスー,0
2445,8700150117152,新規,0,2023-06-09,2023-06-09,ＨＯＮＧＫＯＮＧ　ＭＩ　ＴＵ　ＥＬＥＣＴＲＯＮＩＣＳ　ＴＥＣＨＮＯＬＯＧＹ　ＣＯ．，ＬＩＭＩＴＥＤ,,外国会社等,,,,,,,,Ｄｏｎｇｃｈｅｎｇ　Ｊｉａｎｇｕｏｍｅｎ　Ｓｔｒｅｅｔ　７ｔｈ　Ｃｈａｎｇ’ａｎ　Ｔｈｅａｔｅｒ　Ｂｕｉｌｄｉｎｇ　１－１６０２　Ｂｅｉｊｉｎｇ　１００００５　ＣＮ,,,,,,2023-06-09,1,,,,,シヤンガンミートウーデイエンズーコージーヨウシエンゴンスー,0
2446,8700150117160,新規,0,2023-06-09,2023-06-09,Ｇｕａｎｇｚｈｏｕ　Ｑｉａｏｐｉｎ　Ｅ－ｃｏｍｍｅｒｃｅ　Ｌｔｄ．,,外国会社等,,,,,,,,ＲＭ　１６１４，　Ｎｏ．２６－２９　Ｙｕｅ　Ｎａｎ　Ｓｔｒｅｅｔ　Ｈｕａｎｇ　Ｓｈａ　Ｒｏａｄ，　Ｌｉ　Ｗａｎ　Ｄｉｓｔ　Ｇｕａｎｇｚｈｏｕ　Ｇｕａｎｇｄｏｎｇ　５１０３８０　ＣＮ,,,,,,2023-06-09,1,,,,,グワンジヨウチヤオピンデイエンズーシヤンウーヨウシエンゴンスー,0
2447,8700150117169,新規,0,2023-06-09,2023-06-09,ＧＡＮＺＨＯＵＳＨＩＳＨＥＹＩＪＩＡＪＵＹＯＵＸＩＡＮＧＯＮＧＳＩ,,外国会社等,,,,,,,,ＮＡＮＫＡＮＧＱＵＤＯＮＧＳＨＡＮＪＩＥＤＡＯＢＡＮＳＨＩＣＨＵＪＩＮＪＩＣＵＮ１０５ＧＵＯＤＡＯＢＩＡＮ（ＧＵＡＮＧＭＩＮＧＧＵＯＪＩＳＨＡＮＧＷＵＤＡＳＨＡ）ＧＡＮＺＨＯＵ　ＪＩＡＮＧＸＩ　Ｃｈｉｎａ，３４１０００,,,,,,2023-06-09,1,,,,,ガンジヨウシヨーイージヤージーヨウシエンゴンスー,0
2448,8700150117210,新規,0,2023-06-09,2023-06-09,Ｚｈｏｎｇｓｈａｎ　Ｆｕ　Ｒｕｉ　Ｋａｎｇ　Ｅｌｅｃｔｒｏｎｉｃ　Ｃｏ　Ｌｔｄ,,外国会社等,,,,,,,,３／Ｆ，Ｂｕｉｌｄｉｎｇ　１，Ｎｏ．１３，Ｘｉａｎｇｆｕ　Ｒｄ．Ｈｕｏ　Ｊｕ　ｄｅｖｅｌｏｐｍｅｎｔ　Ｄｉｓｔｒｉｃｔ　Ｚｈｏｎｇｓｈａｎ　Ｇｕａｎｇｄｏｎｇ　Ｃｈｉｎａ,,,,,,2023-06-09,1,,,,,ジヨンシヤンシーフールイカンデイエンズーヨウシエンゴンスー,0
2455,9010001235998,新規,0,2023-06-09,2023-06-09,ヒューマンテクノ株式会社,,株式会社,東京都,千代田区,九段北４丁目３－２０九段フラワーホーム４０３号,,13,101,1020073,,,,,,,2023-06-09,1,,,,,ヒューマンテクノ,0
2456,9010001236006,新規,0,2023-06-09,2023-06-09,株式会社ＹＯＵＲ　ＦＡＲＭ,,株式会社,東京都,中央区,日本橋浜町２丁目４３番２号,,13,102,1030007,,,,,,,2023-06-09,1,,,,,ユアファーム,0
2457,9010001236055,新規,0,2023-06-09,2023-06-09,株式会社友楽ソフト,,株式会社,東京都,千代田区,九段南１丁目５番６号りそな九段ビル５ＦＫＳフロア,,13,101,1020074,,,,,,,2023-06-09,1,,,,,ユウラクソフト,0
2461,9010003040827,新規,0,2023-06-09,2023-06-09,ＴＭＡグリーンエナジー２０２３合同会社,,合同会社,東京都,千代田区,丸の内１丁目８番２号,,13,101,1000005,,,,,,,2023-06-09,1,,,,,ティーエムエーグリーンエナジーニセンニジュウサン,0
2463,9010005036815,新規,0,2023-06-09,2023-06-09,医療法人社団松,,その他の設立登記法人,東京都,千代田区,神田多町２丁目７番地大橋ビル１階,,13,101,1010046,,,,,,,2023-06-09,1,,,,,マツ,0
2466,9010101015672,新規,0,2023-06-09,2023-06-09,株式会社Ｒｅ・Ｌｕｃｉａリフォーム,,株式会社,東京都,八王子市,下柚木３丁目１０５７番地３７,,13,201,1920372,,,,,,,2023-06-09,1,,,,,ルシアリフォーム,0
2467,9010103002157,新規,0,2023-06-09,2023-06-09,合同会社ＰＬＵＳ　ＵＬＴＲＡ,,合同会社,東京都,八王子市,石川町１０９８番地１,,13,201,1920032,,,,,,,2023-06-09,1,,,,,プルスウルトラ,0
2471,9010401174846,新規,0,2023-06-09,2023-06-09,株式会社アロハナインターナショナル,,株式会社,東京都,港区,海岸１丁目１番１,,13,103,1050022,,,,,,,2023-06-09,1,,,,,アロハナインターナショナル,0
2473,9010403030287,新規,0,2023-06-09,2023-06-09,自然北陸北関東合同会社,,合同会社,東京都,港区,西新橋１丁目２番９号メンターキャピタル税理士法人内,,13,103,1050003,,,,,,,2023-06-09,1,,,,,シゼンホクリクキタカントウ,0
2474,9010405022191,新規,0,2023-06-09,2023-06-09,社会保険労務士法人外国人雇用総合研究所,,その他の設立登記法人,東京都,港区,赤坂２丁目１９番８号赤坂二丁目アネックス２階,,13,103,1070052,,,,,,,2023-06-09,1,,,,,ガイコクジンコヨウソウゴウケンキュウジョ,0
2491,9010901053211,新規,0,2023-06-09,2023-06-09,株式会社Ｄｒｅａｍ　Ｃｈａｓｅｒｓ,,株式会社,東京都,世田谷区,経堂１丁目２１番１６号キリン堂ビル３階,,13,112,1560052,,,,,,,2023-06-09,1,,,,,ドリームチェイサーズ,0
2495,9011001154916,新規,0,2023-06-09,2023-06-09,ビューアジア株式会社,,株式会社,東京都,渋谷区,円山町５番５号Ｎａｖｉ渋谷Ｖ３階,,13,113,1500044,,,,,,,2023-06-09,1,,,,,ビューアジア,0
2496,9011001154965,新規,0,2023-06-09,2023-06-09,株式会社ｃｏｐｐｙ,,株式会社,東京都,渋谷区,幡ヶ谷１丁目８番４号リッツパラシオ３０４,,13,113,1510072,,,,,,,2023-06-09,1,,,,,コッピー,0
2497,9011001154998,新規,0,2023-06-09,2023-06-09,アンドドット株式会社,,株式会社,東京都,渋谷区,元代々木町５２番７－３０２,,13,113,1510062,,,,,,,2023-06-09,1,,,,,アンドドット,0
2499,9011003016965,新規,0,2023-06-09,2023-06-09,ワイズスピン合同会社,,合同会社,東京都,渋谷区,道玄坂１丁目１２番１号渋谷マークシティＷ２２Ｆ,,13,113,1500043,,,,,,,2023-06-09,1,,,,,ワイズスピン,0
2503,9011101103203,新規,0,2023-06-09,2023-06-09,カワセキ株式会社,,株式会社,東京都,新宿区,西早稲田１丁目１６番３号古菅ビル２階,,13,104,1690051,,,,,,,2023-06-09,1,,,,,カワセキ,0
2507,9011303004793,新規,0,2023-06-09,2023-06-09,合同会社ＭＥ＆Ｋ,,合同会社,東京都,杉並区,天沼２丁目４０番１１号,,13,115,1670032,,,,,,,2023-06-09,1,,,,,ミーアンドケー,0
2512,9011501029394,新規,0,2023-06-09,2023-06-09,Ａａｙａｎ　ａｎｄ　Ａａｒｕｓｈｉ株式会社,,株式会社,東京都,荒川区,荒川３丁目２３番６号,,13,118,1160002,,,,,,,2023-06-09,1,,,,,アーヤンアンドアルシ,0
2514,9011505002554,新規,0,2023-06-09,2023-06-09,一般社団法人陽光活水センター,,その他の設立登記法人,東京都,荒川区,南千住８丁目８番１－７１３号,,13,118,1160003,,,,,,,2023-06-09,1,,,,,ヨウコウカッスイセンター,0
2525,9013303006646,新規,0,2023-06-09,2023-06-09,合同会社ＢＬＵＥ　ＰＩＬＬＯＷ,,合同会社,東京都,豊島区,南長崎３丁目１１番５号２Ｆ,,13,116,1710052,,,,,,,2023-06-09,1,,,,,ブルピロ,0
2526,9013303006654,新規,0,2023-06-09,2023-06-09,Ｋ＆Ｍ合同会社,,合同会社,東京都,豊島区,南池袋２丁目８－１８,,13,116,1710022,,,,,,,2023-06-09,1,,,,,ケーアンドエム,0
2541,9020001151914,新規,0,2023-06-09,2023-06-09,株式会社ヒトリンクス,,株式会社,神奈川県,横浜市旭区,南本宿町１４４番地１６,,14,112,2410833,,,,,,,2023-06-09,1,,,,,ヒトリンクス,0
2542,9020001151996,新規,0,2023-06-09,2023-06-09,株式会社ｒｅ再菜,,株式会社,神奈川県,横浜市鶴見区,駒岡１丁目２８番２３号１０２,,14,101,2300071,,,,,,,2023-06-09,1,,,,,リサイサイ,0
2543,9020001152029,新規,0,2023-06-09,2023-06-09,価興業株式会社,,株式会社,神奈川県,川崎市麻生区,金程４丁目１３番６号,,14,137,2150006,,,,,,,2023-06-09,1,,,,,アタイコウギョウ,0
2548,9020003024028,新規,0,2023-06-09,2023-06-09,合同会社ジーニアス,,合同会社,神奈川県,横浜市磯子区,磯子８丁目１５番１－３０１号,,14,107,2350016,,,,,,,2023-06-09,1,,,,,ジーニアス,0
2549,9021001079220,新規,0,2023-06-09,2023-06-09,株式会社Ｕｎｉｏｎ　Ｌｅａｇｕｅ,,株式会社,神奈川県,鎌倉市,扇ガ谷１丁目１１番１号,,14,204,2480011,,,,,,,2023-06-09,1,,,,,ユニオンリーグ,0
2550,9021001079245,新規,0,2023-06-09,2023-06-09,株式会社ＹＲＫ,,株式会社,神奈川県,座間市,立野台３丁目２番１７号,,14,216,2520023,,,,,,,2023-06-09,1,,,,,ワイアールケイ,0
2551,9021001079261,新規,0,2023-06-09,2023-06-09,株式会社コラジン,,株式会社,神奈川県,海老名市,杉久保北１丁目１番２号,,14,215,2430410,,,,,,,2023-06-09,1,,,,,コラジン,0
2554,9021003013185,新規,0,2023-06-09,2023-06-09,合同会社ＯＣＥＡＮＳ,,合同会社,神奈川県,藤沢市,片瀬海岸１丁目８番２２号,,14,205,2510035,,,,,,,2023-06-09,1,,,,,オーシャンズ,0
2563,9030001154263,新規,0,2023-06-09,2023-06-09,株式会社Ｊ・Ｋ,,株式会社,埼玉県,川口市,上青木西５丁目２３番１９号３Ｆ,,11,203,3330845,,,,,,,2023-06-09,1,,,,,ジェイケイ,0
2564,9030001154296,新規,0,2023-06-09,2023-06-09,株式会社トリケン,,株式会社,埼玉県,大里郡寄居町,大字保田原２８４番地２,,11,408,3691221,,,,,,,2023-06-09,1,,,,,トリケン,0
2565,9030001154305,新規,0,2023-06-09,2023-06-09,株式会社ＡＶＥＮＴＵＳ,,株式会社,埼玉県,さいたま市北区,大成町４丁目８７番地５,,11,102,3310815,,,,,,,2023-06-09,1,,,,,エベントス,0
2566,9030001154338,新規,0,2023-06-09,2023-06-09,株式会社ランクスワーク,,株式会社,埼玉県,久喜市,間鎌３２６番地７,,11,232,3491123,,,,,,,2023-06-09,1,,,,,ランクスワーク,0
2571,9040001128778,新規,0,2023-06-09,2023-06-09,株式会社群狼,,株式会社,千葉県,千葉市美浜区,真砂１丁目９－１３,,12,106,2610011,,,,,,,2023-06-09,1,,,,,グンロウ,0
2573,9040003022748,新規,0,2023-06-09,2023-06-09,ＬｉｎＧｏ企画合同会社,,合同会社,千葉県,流山市,おおたかの森東４丁目１８番２８,,12,220,2700138,,,,,,,2023-06-09,1,,,,,リンゴキカク,0
2574,9040003022756,新規,0,2023-06-09,2023-06-09,合同会社サイファークリエイション,,合同会社,千葉県,流山市,前平井１０８番地ＢｒｉｌｌｉａｎＶｉｅｗＣｅｎｔｒａｌＰａｒｋ５０３,,12,220,2700152,,,,,,,2023-06-09,1,,,,,サイファークリエイション,0
2578,9050001052969,新規,0,2023-06-09,2023-06-09,株式会社ケイジェイテック,,株式会社,茨城県,古河市,仁連２３９５番地７,,08,204,3060125,,,,,,,2023-06-09,1,,,,,ケイジェイテック,0
2581,9050003007566,新規,0,2023-06-09,2023-06-09,合同会社プラーナ,,合同会社,茨城県,取手市,取手２丁目２番２号たきもとビル３階,,08,217,3020004,,,,,,,2023-06-09,1,,,,,プラーナ,0
2587,9060003004595,新規,0,2023-06-09,2023-06-09,合同会社サイクロン,,合同会社,栃木県,宇都宮市,仲町３番１９号宇都宮ハイツ５０１号,,09,201,3200023,,,,,,,2023-06-09,1,,,,,サイクロン,0
2598,9100001036487,新規,0,2023-06-09,2023-06-09,株式会社Ｃｈａｍｐｓ,,株式会社,長野県,安曇野市,三郷明盛３００３番地,,20,220,3998101,,,,,,,2023-06-09,1,,,,,チャンプス,0
2603,9100003007049,新規,0,2023-06-09,2023-06-09,合同会社ｉｎｔｅｒｉｏｒ,,合同会社,長野県,茅野市,宮川２００２番地,,20,214,3910013,,,,,,,2023-06-09,1,,,,,インテリオール,0
2607,9110003005084,新規,0,2023-06-09,2023-06-09,合同会社インターカンパニー,,合同会社,新潟県,新潟市西区,みずき野６丁目１２番６号,,15,107,9502264,,,,,,,2023-06-09,1,,,,,インターカンパニー,0
2616,9120001255440,新規,0,2023-06-09,2023-06-09,近畿ネクスト株式会社,,株式会社,大阪府,大阪市浪速区,難波中１丁目９－１０マッセ難波ビル８０６号,,27,111,5560011,,,,,,,2023-06-09,1,,,,,キンキネクスト,0
2617,9120001255465,新規,0,2023-06-09,2023-06-09,ＢＦＭ株式会社,,株式会社,大阪府,大阪市西区,北堀江２丁目７番１７－１０２号,,27,106,5500014,,,,,,,2023-06-09,1,,,,,ビーエフエム,0
2618,9120001255507,新規,0,2023-06-09,2023-06-09,株式会社３ｒｄ　ｐｌａｔｉｎａｍ．,,株式会社,大阪府,大阪市中央区,安土町２丁目４番１１－４３１４号,,27,128,5410052,,,,,,,2023-06-09,1,,,,,サードプラチナム,0
2619,9120001255556,新規,0,2023-06-09,2023-06-09,株式会社スリーポイント,,株式会社,大阪府,大阪市北区,梅田１丁目２番２号大阪駅前第２ビル２階５－６号室,,27,127,5300001,,,,,,,2023-06-09,1,,,,,スリーポイント,0
2620,9120001255572,新規,0,2023-06-09,2023-06-09,株式会社アンドテイル,,株式会社,大阪府,大阪市都島区,都島北通１丁目２３番２６－６０３号,,27,102,5340014,,,,,,,2023-06-09,1,,,,,アンドテイル,0
2629,9120901047648,新規,0,2023-06-09,2023-06-09,株式会社Ａｎｅｌａ,,株式会社,大阪府,高槻市,城北町２丁目１１番３号－５Ｆ,,27,207,5690071,,,,,,,2023-06-09,1,,,,,アネラ,0
2631,9122001037034,新規,0,2023-06-09,2023-06-09,株式会社ＫＥＮ,,株式会社,大阪府,八尾市,末広町３丁目７番２０号,,27,212,5810001,,,,,,,2023-06-09,1,,,,,ケン,0
2632,9122001037050,新規,0,2023-06-09,2023-06-09,株式会社テクノリバイブ,,株式会社,大阪府,東大阪市,横沼町３丁目５番５号,,27,227,5770808,,,,,,,2023-06-09,1,,,,,テクノリバイブ,0
2638,9140001130393,新規,0,2023-06-09,2023-06-09,株式会社アンドギア,,株式会社,兵庫県,小野市,大島町１６２６番地,,28,218,6751334,,,,,,,2023-06-09,1,,,,,アンドギア,0
2651,9180001156600,新規,0,2023-06-09,2023-06-09,株式会社ハイファイブ,,株式会社,愛知県,名古屋市中村区,名駅１丁目１－１ＪＰタワー名古屋２１Ｆ,,23,105,4500002,,,,,,,2023-06-09,1,,,,,ハイファイブ,0
2652,9180001156674,新規,0,2023-06-09,2023-06-09,株式会社イチカワ工務店,,株式会社,愛知県,稲沢市,北市場本町３丁目１１番地３,,23,220,4928178,,,,,,,2023-06-09,1,,,,,イチカワコウムテン,0
2653,9180001156708,新規,0,2023-06-09,2023-06-09,株式会社サンホーム,,株式会社,愛知県,知多市,日長字栗林５番地,,23,224,4780041,,,,,,,2023-06-09,1,,,,,サンホーム,0
2654,9180001156732,新規,0,2023-06-09,2023-06-09,株式会社リベルテクス,,株式会社,愛知県,名古屋市西区,那古野２丁目１４番１号なごのキャンパス,00130790,23,104,4510042,,,,,,,2023-06-09,1,,,,,リベルテクス,0
2662,9180003025332,新規,0,2023-06-09,2023-06-09,合同会社華匠,,合同会社,愛知県,江南市,木賀本郷町南１２２番地,,23,217,4838238,,,,,,,2023-06-09,1,,,,,ハナショウ,0
2666,9180301037467,新規,0,2023-06-09,2023-06-09,トヨタ中古車販売株式会社,,株式会社,愛知県,豊田市,本新町８丁目２４番地１,,23,211,4710046,,,,,,,2023-06-09,1,,,,,トヨタチュウコシャハンバイ,0
2667,9180303005744,新規,0,2023-06-09,2023-06-09,Ａｌｔａｙ　Ｇｌｏｂａｌ合同会社,,合同会社,愛知県,安城市,古井町大久後３１‐３,,23,212,4460025,,,,,,,2023-06-09,1,,,,,アルタイグローバル,0
2669,9190003004351,新規,0,2023-06-09,2023-06-09,合同会社徳永不動産,,合同会社,三重県,桑名市,大字北別所１５８７番地２スターリットＢ棟２０５号,,24,205,5110819,,,,,,,2023-06-09,1,,,,,トクナガフドウサン,0
2673,9210005010097,新規,0,2023-06-09,2023-06-09,一般社団法人地域改革,,その他の設立登記法人,福井県,福井市,中央１丁目９－２４福井中央ビル３階,,18,201,9100006,,,,,,,2023-06-09,1,,,,,チイキカイカク,0
2676,9220001025453,新規,0,2023-06-09,2023-06-09,ポンテホールディングス株式会社,,株式会社,石川県,白山市,深瀬新町９６番地１,,17,210,9202142,,,,,,,2023-06-09,1,,,,,ポンテホールディングス,0
2685,9240001061629,新規,0,2023-06-09,2023-06-09,川原工業株式会社,,株式会社,広島県,尾道市,瀬戸田町沢３２５番地５,,34,205,7222413,,,,,,,2023-06-09,1,,,,,カワハラコウギョウ,0
2704,9290001101867,新規,0,2023-06-09,2023-06-09,株式会社ＴＣ　ＤＡＯ,,株式会社,福岡県,福岡市南区,塩原３丁目２２番２２－２０３号,,40,134,8150032,,,,,,,2023-06-09,1,,,,,ティーシーダオ,0
2705,9290001101891,新規,0,2023-06-09,2023-06-09,三ツ星株式会社,,株式会社,福岡県,福岡市博多区,奈良屋町１０－３西日本奈良屋ビル５０２,,40,132,8120023,,,,,,,2023-06-09,1,,,,,ミツボシ,0
2707,9290003014019,新規,0,2023-06-09,2023-06-09,合同会社ＳｈｕｇａｒＹ,,合同会社,福岡県,福岡市中央区,天神１丁目６番８号天神ツインビル５階,,40,133,8100001,,,,,,,2023-06-09,1,,,,,シュガーワイ,0
2710,9290801029597,新規,0,2023-06-09,2023-06-09,株式会社ＭＩＲＡｉ,,株式会社,福岡県,田川郡福智町,神崎１０９８番地１１８,,40,610,8221202,,,,,,,2023-06-09,1,,,,,ミライ,0
2711,9290801029606,新規,0,2023-06-09,2023-06-09,株式会社北九州にほんごセンター,,株式会社,福岡県,北九州市八幡東区,中央２丁目１番１号レインボープラザ１階,,40,108,8050019,,,,,,,2023-06-09,1,,,,,キタキュウシュウニホンゴセンター,0
2713,9300001013318,新規,0,2023-06-09,2023-06-09,株式会社冨田園,,株式会社,佐賀県,伊万里市,伊万里町甲３４９番地１,,41,205,8480047,,,,,,,2023-06-09,1,,,,,トミタエン,0
2714,9300001013326,新規,0,2023-06-09,2023-06-09,株式会社岡工業,,株式会社,佐賀県,伊万里市,二里町大里甲１７９２番地１６,,41,205,8480032,,,,,,,2023-06-09,1,,,,,オカコウギョウ,0
2715,9310001018464,新規,0,2023-06-09,2023-06-09,株式会社リブーン,,株式会社,長崎県,長崎市,出島町２番１１号,,42,201,8500862,,,,,,,2023-06-09,1,,,,,リブーン,0
2716,9320001019833,新規,0,2023-06-09,2023-06-09,株式会社田中工業,,株式会社,大分県,大分市,大字市８８８番地の１６４,,44,201,8701151,,,,,,,2023-06-09,1,,,,,タナカコウギョウ,0
2717,9330001030954,新規,0,2023-06-09,2023-06-09,株式会社住まいるコンサル,,株式会社,熊本県,熊本市南区,富合町志々水３７９,,43,104,8614163,,,,,,,2023-06-09,1,,,,,,0
2719,9330003009880,新規,0,2023-06-09,2023-06-09,ＹＡＴＡＧＡＲＡＳＵ合同会社,,合同会社,熊本県,宇城市,松橋町両仲間４４２番地１タジマハイツ１０１号,,43,213,8690533,,,,,,,2023-06-09,1,,,,,ヤタガラス,0
2723,9350001018403,新規,0,2023-06-09,2023-06-09,株式会社ツノエンジン,,株式会社,宮崎県,児湯郡都農町,大字川北４８２２番地１,,45,406,8891201,,,,,,,2023-06-09,1,,,,,ツノエンジン,0
2727,9360001032114,新規,0,2023-06-09,2023-06-09,株式会社沖縄ダイケンエステート,,株式会社,沖縄県,那覇市,おもろまち１丁目１番１２号,,47,201,9000006,,,,,,,2023-06-09,1,,,,,オキナワダイケンエステート,0
2730,9360003013054,新規,0,2023-06-09,2023-06-09,合同会社Ｐ＆Ｒ,,合同会社,沖縄県,中頭郡北中城村,字仲順６４番地３,,47,327,9012303,,,,,,,2023-06-09,1,,,,,ピーアンドアール,0
2749,9480001012120,新規,0,2023-06-09,2023-06-09,株式会社原田塗装,,株式会社,徳島県,徳島市,新浜本町３丁目７番４１－１号,,36,201,7708007,,,,,,,2023-06-09,1,,,,,ハラダトソウ,0
2757,9700150117003,新規,0,2023-06-09,2023-06-08,松山労働福祉協会,,その他,愛媛県,松山市,雄郡２丁目１０－８,,38,201,7900031,,,,,,,2023-06-08,1,,,,,マツヤマロウドウフクシキヨウカイ,0
2758,9700150117102,新規,0,2023-06-09,2023-06-09,Ｈａｉｋａｗａｎｇｌｕｏｋｅｊｉ（ｓｈａｎｇｈａｉ）ｙｏｕｘｉａｎｇｏｎｇｓｉ,,外国会社等,,,,,,,,ＳＨＡＮＧＨＡＩＳＨＩ，ＭＩＮＨＡＮＧＱＵ，ＤＯＮＧＣＨＵＡＮＬＵ５５５ＨＡＯ，ＤＩＮＧＬＯＵ７０４４ＳＨＩ,,,,,,2023-06-09,1,,,,,ハイカネツトワークテクノロジーシヤンハイカンパニーリミテツド,0
2759,9700150117110,新規,0,2023-06-09,2023-06-09,Ｓｈｉｊｉａｚｈｕａｎｇ　Ｘｕｆｕ　Ｔｒａｄｉｎｇ　Ｃｏ．，Ｌｔｄ．,,外国会社等,,,,,,,,２２－２－６０１，Ａｎｙｕａｎ　Ｃｏｍｍｕｎｉｔｙ　Ａ，Ｎｏ．７７　Ｆａｎｇｘｉｎｇ　Ｒｏａｄ，Ｙｕｈｕａ　Ｄｉｓｔｒｉｃｔ，Ｓｈｉｊｉａｚｈｕａｎｇ．Ｈｅｂｅｉ,,,,,,2023-06-09,1,,,,,シージヤージユワンシーフーシヤンマオヨウシエンゴンスー,0
2760,9700150117119,新規,0,2023-06-09,2023-06-09,ＨＫ　ＴＷＥＬＶＥ　ＩＮＴＥＲＮＡＴＩＯＮＡＬ　ＣＯ．，ＬＩＭＩＴＥＤ,,外国会社等,,,,,,,,ＦＬＡＴ／ＲＭ　２５０２　　２５／Ｆ　１４８　ＥＬＥＣＴＲＩＣ　ＲＯＡＤ　ＮＯＲＴＨ　ＰＯＩＮＴ　ＨＫ,,,,,,2023-06-09,1,,,,,シヤンガンシーアーグオジーヨウシエンゴンスー,0
2761,9700150117127,新規,0,2023-06-09,2023-06-09,Ｃｈａｎｇｚｈｏｕ　Ｔｏｐｔｒｅｅ　Ａｕｔｏ　Ｌａｍｐ　Ｃｏ．，Ｌｔｄ,,外国会社等,,,,,,,,Ｒｏｏｍ　５０９，Ｂｕｉｌｄｉｎｇ　Ａ２，Ｓｈｉｍａｏ　Ｐｌａｚａ，Ｘｉｎｂｅｉ　Ｄｉｓｔｒｉｃｔ　Ｃｈａｎｇｚｈｏｕ,,,,,,2023-06-09,1,,,,,チヤンジヨウトウオセンチーチヨードンジーヨウシエンゴンスー,0
2762,9700150117135,新規,0,2023-06-09,2023-06-09,Ｃｈｅｎｇｄｕ　Ｙｉｎｇｈｕｉ　Ｒｅａｌ　Ｅｓｔａｔｅ　Ｂｒｏｋｅｒａｇｅ　Ｃｏ．，Ｌｔｄ．,,外国会社等,,,,,,,,ｃｈｅｎｇｄｕｓｈｉ　ｊｉｎｊｉａｎｇｑｕ　ｔｏｎｇｂａｏｊｉｅ３６０ｈａｏ,,,,,,2023-06-09,1,,,,,チヨンドウインフイフアンデイーチヤンジンジーヨウシエンゴンスー,0
2763,9700150117143,新規,0,2023-06-09,2023-06-09,Ｓｈｅｎｚｈｅｎ　Ｔｕｇｅ　Ｎｅｔｗｏｒｋ　Ｔｅｃｈｎｏｌｏｇｙ　Ｃｏ．，Ｌｔｄ．,,外国会社等,,,,,,,,Ｒｏｏｍ３２６，Ｚｈｏｎｇｋａｎｇ　Ｐｉｏｎｅｅｒｉｎｇ　Ｐａｒｋ，Ｎｏ．７３，Ｚｈｏｎｇｋａｎｇ　Ｒｏａｄ，Ｍｅｉｄｕ　Ｃｏｍｍｕｎｉｔｙ，Ｍｅｉｌｉｎ　Ｓｔｒｅｅｔ，Ｆｕｔｉａｎ　Ｄｉｓｔｒｉｃｔ，Ｓｈｅｎｚｈｅｎ,,,,,,2023-06-09,1,,,,,シエンジエンシートウーゴーワンルオコージーヨウシエンゴンスー,0
2764,9700150117151,新規,0,2023-06-09,2023-06-09,ＳｈｅｎＺｈｅｎ　Ｌｉｅｒｔａｉ　Ｔｅｃｈｎｏｌｏｇｙ　Ｃｏ．Ｌｔｄ．,,外国会社等,,,,,,,,Ｂａｎｔｉａｎ　Ｓｔｒｅｅｔ，Ｎａｎｋｅｎｇ　Ｖｉｌｌａｇｅ，Ｑｉｌｉｎ　Ｒｏａｄ　Ｒｏｏｍ８０２，Ｌａｎｅ　５　ＮＯ．３，Ｌｏｎｇｇａｎｇ　ｄｉｓｔｒｉｃｔ　Ｇｕａｎｇｄｏｎｇ　Ｐｒｏｖｉｎｃｅ　Ｓｈｅｎｚｈｅｎ　Ｃｉｔｙ　５１８１１６,,,,,,2023-06-09,1,,,,,シエンジエンリーアータイコージーヨウシエンゴンスー,0
2765,9700150117168,新規,0,2023-06-09,2023-06-09,ｓｈｅｎｚｈｅｎｓｈｉ　ｃｈｅｎｇｈａｉｎｅｎｇｙｕａｎ　ｋｅｊｉ　ｙｏｕｘｉａｎｇｏｎｇｓｉ,,外国会社等,,,,,,,,Ｒｏｏｍ　１４０４，Ｈａｉｂｕｉｇｅ　Ｂｌｏｃｋ，Ｈａｉｂｉｎ　Ｇａｒｄｅｎｓ　Ｘｉｎｇｈｕａ　Ｒｏａｄ，Ｓｈｅｋｏｕ　Ｓｈｅｎｚｈｅｎ　Ｇｕａｎｇｄｏｎｇ　５１８０６７　ＣＮ,,,,,,2023-06-09,1,,,,,シエンジエンシーチヨンハイノンユエンコージーヨウシエンゴンスー,0
2766,9700150117218,新規,0,2023-06-09,2023-06-09,田尻田白大組,,その他,岐阜県,可児市,広見１５４０番地１,,21,214,5090214,,,,,,,2023-06-09,1,,,,,タジリデンバクオオグミ,0
