sequenceNumber,corporateNumber,process,correct,updateDate,changeDate,name,nameImageId,kind,prefectureName,cityName,streetNumber,addressImageId,prefectureCode,cityCode,postCode,addressOutside,addressOutsideImageId,closeDate,closeCause,successorCorporateNumber,changeCause,assignmentDate,latest,enName,enPrefectureName,enCityName,enAddressOutside,furigana,hihyoji
2,1010001134844,登記記録の閉鎖等,0,2023-10-20,2023-10-10,株式会社アトリエ２２,,株式会社,東京都,文京区,大塚２丁目１２番４号,,13,105,1120012,,,2023-10-10,清算の結了等,,,2015-10-05,1,,,,,,0
20,1010401141309,登記記録の閉鎖等,0,2023-10-20,2023-10-06,株式会社ＡｎｙＣｈｅｆ,,株式会社,東京都,港区,六本木２丁目３番６号,,13,103,1060032,,,2023-10-06,清算の結了等,,,2018-10-10,1,,,,,エニーシェフ,0
35,1010502012029,登記記録の閉鎖等,0,2023-10-20,2023-10-17,有限会社雪入紙業社,,有限会社,東京都,台東区,三筋１丁目７番１号,,13,106,1110055,,,2023-10-17,清算の結了等,,,2015-10-05,1,,,,,ユキイリシギョウシャ,0
37,1010601000355,登記記録の閉鎖等,0,2023-10-20,2023-10-16,株式会社ケーブル,,株式会社,東京都,江東区,平野１丁目２番２１号,,13,108,1350023,,,2023-10-16,清算の結了等,,,2015-10-05,1,,,,,ケーブル,0
56,1010901038211,登記記録の閉鎖等,0,2023-10-20,2023-10-06,ロボット投信株式会社,,株式会社,東京都,港区,東新橋１丁目９番１号,,13,103,1050021,,,2023-10-06,合併による解散等,5010001234228,令和５年１０月１日東京都港区東新橋一丁目９番１号株式会社ミンカブソリューションサービシーズ（5010001234228）に合併し解散,2016-06-03,1,,,,,ロボットトウシン,0
77,1011101089177,登記記録の閉鎖等,0,2023-10-20,2023-10-18,株式会社ワンデイワーク,,株式会社,東京都,新宿区,西新宿３丁目２番５号,,13,104,1600023,,,2023-10-18,清算の結了等,,,2019-10-07,1,,,,,ワンデイワーク,0
92,1011701001904,登記記録の閉鎖等,0,2023-10-20,2023-10-16,株式会社おたべ,,株式会社,東京都,江戸川区,谷河内２丁目１５番５号,,13,123,1330002,,,2023-10-16,清算の結了等,,,2015-10-05,1,,,,,,0
108,1013401000500,登記記録の閉鎖等,0,2023-10-20,2023-10-17,東芝テリー株式会社,,株式会社,東京都,日野市,旭が丘４丁目７番地の１,,13,212,1910065,,,2023-10-17,合併による解散等,1120001085374,令和５年１０月１日東京都府中市東芝町１番地東芝テリー株式会社（1120001085374）に合併し解散,2015-10-05,1,,,,,トウシバテリー,0
119,1021001006834,登記記録の閉鎖等,0,2023-10-20,2023-10-16,株式会社サイクル,,株式会社,神奈川県,高座郡寒川町,小谷１丁目１番１２号,,14,321,2530103,,,2023-10-16,清算の結了等,,,2015-10-05,1,,,,,サイクル,0
120,1021001012089,登記記録の閉鎖等,0,2023-10-20,2023-10-17,株式会社小林建設工業所,,株式会社,神奈川県,相模原市中央区,清新６丁目１８番１４号,,14,152,2520216,,,2023-10-17,合併による解散等,3010401001816,令和５年１０月１日東京都港区浜松町二丁目３番２１号株式会社アトラス・マリン（3010401001816）に合併し解散,2015-10-05,1,,,,,コバヤシケンセツコウギョウショ,0
129,1021002067388,登記記録の閉鎖等,0,2023-10-20,2023-10-16,有限会社安野屋本店,,有限会社,神奈川県,横須賀市,若松町１丁目１番地,,14,201,2380007,,,2023-10-16,清算の結了等,,,2015-10-05,1,,,,,ヤスノヤホンテン,0
140,1030002026213,登記記録の閉鎖等,0,2023-10-20,2023-10-06,有限会社中央測量,,有限会社,埼玉県,蕨市,中央２丁目１番３０号,,11,223,3350004,,,2023-10-06,清算の結了等,,,2015-10-05,1,,,,,チュウオウソクリョウ,0
142,1030002102212,登記記録の閉鎖等,0,2023-10-20,2023-10-02,有限会社栗原モータース,,有限会社,埼玉県,川口市,中青木１丁目２番４号,,11,203,3320032,,,2023-10-02,清算の結了等,,,2015-10-05,1,,,,,クリハラモータース,0
152,1040001033820,登記記録の閉鎖等,0,2023-10-20,2023-10-05,株式会社ケンユウ,,株式会社,千葉県,市川市,田尻５丁目１８番２１号,,12,203,2720014,,,2023-10-05,清算の結了等,,,2015-10-05,1,,,,,ケンユウ,0
163,1050002006997,登記記録の閉鎖等,0,2023-10-20,2023-10-16,有限会社友喜美装,,有限会社,茨城県,那珂市,福田１７１３番地８,,08,226,3110118,,,2023-10-16,清算の結了等,,,2015-10-05,1,,,,,ユウキビソウ,0
168,1070002025855,登記記録の閉鎖等,0,2023-10-20,2023-10-17,荒井建材有限会社,,有限会社,群馬県,北群馬郡吉岡町,大字上野田７２３番地の１,,10,345,3703606,,,2023-10-17,清算の結了等,,,2015-10-05,1,,,,,アライケンザイ,0
176,1090002013494,登記記録の閉鎖等,0,2023-10-20,2023-10-16,有限会社市川豊玉,,有限会社,山梨県,韮崎市,穂坂町宮久保７８３番地の４８,,19,207,4070175,,,2023-10-16,清算の結了等,,,2015-10-05,1,,,,,,0
179,1110002032327,登記記録の閉鎖等,0,2023-10-20,2023-10-17,有限会社ひらさわ,,有限会社,新潟県,小千谷市,千谷川２丁目１番８号,,15,208,9470053,,,2023-10-17,清算の結了等,,,2015-10-05,1,,,,,ヒラサワ,0
183,1120001004706,登記記録の閉鎖等,0,2023-10-20,2023-10-16,アルム株式会社,,株式会社,大阪府,大阪市阿倍野区,阪南町３丁目６番４号,,27,119,5450021,,,2023-10-16,清算の結了等,,,2015-10-05,1,,,,,アルム,0
184,1120001018177,登記記録の閉鎖等,0,2023-10-20,2023-10-17,株式会社月盛ゴム工業所,,株式会社,大阪府,大阪市生野区,巽北１丁目３番１号,00027497,27,116,5440004,,,2023-10-17,清算の結了等,,,2015-10-05,1,,,,,ツキモリゴムコウギョウショ,0
186,1120001108036,登記記録の閉鎖等,0,2023-10-20,2023-10-10,株式会社大翔運輸,,株式会社,大阪府,大阪市港区,弁天３丁目１８番６号,,27,107,5520007,,,2023-10-10,清算の結了等,,,2015-10-05,1,,,,,,0
242,1200001009721,登記記録の閉鎖等,0,2023-10-20,2023-10-18,株式会社ワイエーエイチ,,株式会社,岐阜県,岐阜市,須賀３丁目１番２２,,21,201,5008289,,,2023-10-18,清算の結了等,,,2015-10-05,1,,,,,ワイエーエイチ,0
259,1260001024921,登記記録の閉鎖等,0,2023-10-20,2023-10-18,株式会社エスティーエヌ,,株式会社,岡山県,岡山市中区,福泊１６８番地４,,33,102,7038262,,,2023-10-18,清算の結了等,,,2015-10-05,1,,,,,エスティーエヌ,0
270,1290003012806,登記記録の閉鎖等,0,2023-10-20,2023-10-04,Ｔａｎｏｓｈｉｎｄａ合同会社,,合同会社,福岡県,福岡市城南区,友丘６丁目２番８－２０５号,,40,136,8140112,,,2023-10-04,清算の結了等,,,2022-08-08,1,,,,,タノシンダ,0
271,1290801024969,登記記録の閉鎖等,0,2023-10-20,2023-10-18,株式会社徳野,,株式会社,福岡県,田川郡川崎町,大字川崎字櫛毛８７２番地２３,00114525,40,605,8270003,,,2023-10-18,合併による解散等,6290001045480,令和５年１０月１日福岡県飯塚市徳前２４番地２株式会社玉置（6290001045480）に合併し解散,2018-09-25,1,,,,,トクノ,0
284,1360001014895,登記記録の閉鎖等,0,2023-10-20,2023-10-16,株式会社クレメント,,株式会社,沖縄県,中頭郡読谷村,字都屋３６３番地５,,47,324,9040305,,,2023-10-16,清算の結了等,,,2015-10-05,1,,,,,,0
285,1360001024985,登記記録の閉鎖等,0,2023-10-20,2023-10-16,株式会社ＧｏｌｄＤｒａｇｏｎ,,株式会社,沖縄県,那覇市,繁多川１丁目１３番７０号,,47,201,9020071,,,2023-10-16,清算の結了等,,,2018-12-18,1,,,,,ゴールドドラゴン,0
295,1380002001627,登記記録の閉鎖等,0,2023-10-20,2023-10-13,有限会社シーエム企画,,有限会社,福島県,福島市,松山町２７番２号,,07,201,9608228,,,2023-10-13,清算の結了等,,,2015-10-05,1,,,,,シーエムキカク,0
313,1500002011159,登記記録の閉鎖等,0,2023-10-20,2023-10-19,上沖石材有限会社,,有限会社,愛媛県,上浮穴郡久万高原町,入野１２２７番地の１,,38,386,7911202,,,2023-10-19,清算の結了等,,,2015-10-05,1,,,,,カミオキセキザイ,0
315,2010001030365,登記記録の閉鎖等,0,2023-10-20,2023-10-10,株式会社みまさかビルデイング,,株式会社,東京都,文京区,小日向３丁目１８番８号,,13,105,1120006,,,2023-10-10,清算の結了等,,,2015-10-05,1,,,,,,0
345,2010403016598,登記記録の閉鎖等,0,2023-10-20,2023-10-02,スカイ企画合同会社,,合同会社,東京都,港区,六本木４丁目３番１１－２２３号,,13,103,1060032,,,2023-10-02,合併による解散等,4010403016126,令和５年１０月１日東京都港区南青山五丁目１７番２号サン企画合同会社（4010403016126）に合併し解散,2017-05-15,1,,,,,スカイキカク,0
353,2010601027538,登記記録の閉鎖等,0,2023-10-20,2023-10-18,エフアンドエイチエアエクスプレス株式会社,,株式会社,東京都,大田区,羽田空港３丁目２番７号Ｅ－６棟,,13,111,1440041,,,2023-10-18,合併による解散等,8010601040551,令和５年１０月１日東京都江東区越中島三丁目６番１５号東京福山通運株式会社（8010601040551）に合併し解散,2015-10-05,1,,,,,エフアンドエイチエアエクスプレス,0
358,2010702005095,登記記録の閉鎖等,0,2023-10-20,2023-10-16,有限会社田中ビルサービス,,有限会社,東京都,品川区,南品川４丁目７番２１号スカイコート品川ＩＩ１０４号室,00127476,13,109,1400004,,,2023-10-16,清算の結了等,,,2015-10-05,1,,,,,タナカビルサービス,0
369,2011001141929,登記記録の閉鎖等,0,2023-10-20,2023-10-18,株式会社ＮＧＴＧ０７,,株式会社,東京都,渋谷区,渋谷１丁目３－１８ビラ・モデルナＡ４０２,,13,113,1500002,,,2023-10-18,合併による解散等,6100001022382,令和５年１０月１日長野県飯田市三日市場２１１１番地株式会社キンポーメルテック（6100001022382）に合併し解散,2021-07-26,1,,,,,エヌジーティージーゼロナナ,0
382,2011701005920,登記記録の閉鎖等,0,2023-10-20,2023-10-17,株式会社ナカニシ工芸,,株式会社,東京都,江戸川区,瑞江４丁目２１番２号,,13,123,1320011,,,2023-10-17,清算の結了等,,,2015-10-05,1,,,,,ナカニシコウゲイ,0
386,2012402001498,登記記録の閉鎖等,0,2023-10-20,2023-10-17,有限会社関電子パーツ,,有限会社,東京都,府中市,是政１丁目７番地の２,,13,206,1830014,,,2023-10-17,清算の結了等,,,2015-10-05,1,,,,,,0
416,2021001036715,登記記録の閉鎖等,0,2023-10-20,2023-10-18,株式会社あけぼの薬局,,株式会社,神奈川県,綾瀬市,上土棚中１丁目１番１４号,,14,218,2521113,,,2023-10-18,合併による解散等,4010001055872,令和５年１０月１日東京都千代田区神田錦町一丁目１番地株式会社アイリスファーマ（4010001055872）に合併し解散,2015-10-05,1,,,,,アケボノヤッキョク,0
419,2021001054659,登記記録の閉鎖等,0,2023-10-20,2023-10-11,株式会社ＳＡＫＵＲＡ空間設計,,株式会社,神奈川県,小田原市,中町１丁目１５番１３号,,14,206,2500005,,,2023-10-11,清算の結了等,,,2015-10-05,1,,,,,サクラクウカンセッケイ,0
423,2021002022499,登記記録の閉鎖等,0,2023-10-20,2023-10-13,有限会社天恵木材工業,,有限会社,神奈川県,相模原市中央区,青葉１丁目１７番１３号,,14,152,2520224,,,2023-10-13,清算の結了等,,,2015-10-05,1,,,,,テンケイモクザイコウギョウ,0
430,2030001103631,登記記録の閉鎖等,0,2023-10-20,2023-10-02,ハイパートレーディング株式会社,,株式会社,埼玉県,さいたま市大宮区,上小町６１５番地３,,11,103,3300855,,,2023-10-02,合併による解散等,7030001015244,令和５年１０月１日埼玉県さいたま市大宮区上小町６１５番地３株式会社エイブルジャパン（7030001015244）に合併し解散,2015-10-05,1,,,,,ハイパートレーディング,0
438,2030002058503,登記記録の閉鎖等,0,2023-10-20,2023-10-04,有限会社三裕社,,有限会社,埼玉県,朝霞市,膝折町４丁目１２番５３号,,11,227,3510014,,,2023-10-04,清算の結了等,,,2015-10-05,1,,,,,サンユウシャ,0
446,2040002054204,登記記録の閉鎖等,0,2023-10-20,2023-10-04,株式会社アジャスト,,株式会社,千葉県,松戸市,日暮２丁目５番地の１１,,12,207,2702253,,,2023-10-04,清算の結了等,,,2015-10-05,1,,,,,アジャスト,0
459,2080101017009,登記記録の閉鎖等,0,2023-10-20,2023-10-16,株式会社ＮＫＣ,,株式会社,静岡県,富士市,水戸島１丁目７‐３９,,22,210,4160921,,,2023-10-16,清算の結了等,,,2015-10-05,1,,,,,エヌケーシー,0
485,2120005010006,登記記録の閉鎖等,0,2023-10-20,2023-09-12,特定非営利活動法人芸術環境計画,,その他の設立登記法人,大阪府,大阪市阿倍野区,阪南町５丁目４番７号,,27,119,5450021,,,2023-09-12,清算の結了等,,,2015-10-05,1,,,,,ゲイジュツカンキョウケイカク,0
513,2170002010730,登記記録の閉鎖等,0,2023-10-20,2023-10-19,有限会社亀谷工務店,,有限会社,和歌山県,伊都郡高野町,大字高野山５０４番地の３,,30,344,6480211,,,2023-10-19,清算の結了等,,,2015-10-05,1,,,,,カメタニコウムテン,0
535,2190005009537,登記記録の閉鎖等,0,2023-10-20,2023-10-17,中京産業協同組合,,その他の設立登記法人,三重県,四日市市,楠町南川８５番地１,,24,202,5100105,,,2023-10-17,清算の結了等,,,2015-10-05,1,,,,,チュウキョウサンギョウ,0
566,2290801025974,登記記録の閉鎖等,0,2023-10-20,2023-10-18,株式会社トクノ,,株式会社,福岡県,田川市,平松町２０６０番地８５,,40,206,8260032,,,2023-10-18,合併による解散等,6290001045480,令和５年１０月１日福岡県飯塚市徳前２４番地２株式会社玉置（6290001045480）に合併し解散,2019-10-18,1,,,,,トクノ,0
587,2370001031575,登記記録の閉鎖等,0,2023-10-20,2023-10-13,株式会社りゅうせい,,株式会社,宮城県,石巻市,元倉２丁目６番１０号,,04,202,9860811,,,2023-10-13,清算の結了等,,,2015-10-05,1,,,,,リュウセイ,0
597,2380002007904,登記記録の閉鎖等,0,2023-10-20,2023-10-12,有限会社市川日栄電器,,有限会社,福島県,郡山市,小原田１丁目５番１１号,,07,203,9638835,,,2023-10-12,清算の結了等,,,2015-10-05,1,,,,,イチカワニチエイデンキ,0
600,2420002008468,登記記録の閉鎖等,0,2023-10-20,2023-10-12,有限会社菱和繊維,,有限会社,青森県,八戸市,江陽５丁目７番８号,,02,203,0310801,,,2023-10-12,清算の結了等,,,2015-10-05,1,,,,,リョウワセンイ,0
601,2430001001266,登記記録の閉鎖等,0,2023-10-20,2023-10-06,株式会社生出建具製作所,,株式会社,北海道,札幌市豊平区,月寒西一条２丁目１番６１号,,01,105,0620021,,,2023-10-06,清算の結了等,,,2015-10-05,1,,,,,オイデタテグセイサクショ,0
604,2430002044090,登記記録の閉鎖等,0,2023-10-20,2023-10-04,有限会社アシスト北海道,,有限会社,北海道,石狩市,花川北四条２丁目１６２番地,,01,235,0613214,,,2023-10-04,清算の結了等,,,2015-10-05,1,,,,,アシストホッカイドウ,0
605,2430002055014,登記記録の閉鎖等,0,2023-10-20,2023-10-05,有限会社ハルミ薬局,,有限会社,北海道,小樽市,新光１丁目１０番１２号,,01,203,0470152,,,2023-10-05,清算の結了等,,,2015-10-05,1,,,,,ハルミヤッキョク,0
639,3010401113768,登記記録の閉鎖等,0,2023-10-20,2023-10-03,株式会社ノースペット,,株式会社,北海道,夕張郡栗山町,字旭台１番地５９,,01,429,0691507,,,2023-10-03,清算の結了等,,,2015-10-05,1,,,,,ノースペット,0
659,3010601038897,登記記録の閉鎖等,0,2023-10-20,2023-10-12,ｎｋｈｏｍｅｓ株式会社,,株式会社,東京都,荒川区,町屋７丁目１３番９号,,13,118,1160001,,,2023-10-12,清算の結了等,,,2015-10-05,1,,,,,エヌケーホームズ,0
665,3010802001877,登記記録の閉鎖等,0,2023-10-20,2023-10-16,有限会社梅田油店,,有限会社,東京都,大田区,久が原２丁目２１番１７号,,13,111,1460085,,,2023-10-16,清算の結了等,,,2015-10-05,1,,,,,ウメダアブラテン,0
671,3011001043083,登記記録の閉鎖等,0,2023-10-20,2023-10-04,ＡＤＧシステム販売株式会社,,株式会社,埼玉県,さいたま市岩槻区,城町１丁目４番５９－１０３号,,11,110,3390053,,,2023-10-04,清算の結了等,,,2015-10-05,1,,,,,エーデージーシステムハンバイ,0
680,3011002000793,登記記録の閉鎖等,0,2023-10-20,2023-10-03,有限会社麻布堂,,有限会社,東京都,渋谷区,恵比寿２丁目３９番８－２０１号,,13,113,1500013,,,2023-10-03,清算の結了等,,,2015-10-05,1,,,,,アザブドウ,0
697,3011401023214,登記記録の閉鎖等,0,2023-10-20,2023-10-18,株式会社アクティベーション,,株式会社,東京都,板橋区,仲宿８番１２号,,13,119,1730005,,,2023-10-18,清算の結了等,,,2021-03-04,1,,,,,アクティベーション,0
720,3012401035521,登記記録の閉鎖等,0,2023-10-20,2023-10-10,株式会社アンビション・パートナー,,株式会社,東京都,目黒区,上目黒３丁目３番１号,,13,110,1530051,,,2023-10-10,合併による解散等,2011001072505,令和５年９月２８日東京都渋谷区神宮前二丁目３４番１７号株式会社アンビション・エージェンシー（2011001072505）に合併し解散,2019-07-10,1,,,,,アンビションパートナー,0
731,3020001052044,登記記録の閉鎖等,0,2023-10-20,2023-10-06,株式会社ファインクルー,,株式会社,神奈川県,横浜市保土ケ谷区,天王町２丁目４６番地１号ヴィラデステＫＯＳＵＧＥ,,14,106,2400003,,,2023-10-06,清算の結了等,,,2015-10-05,1,,,,,ファインクルー,0
732,3020001066060,登記記録の閉鎖等,0,2023-10-20,2023-10-10,株式会社川崎ホイスト,,株式会社,神奈川県,川崎市宮前区,南野川２丁目１０番２号,,14,136,2160042,,,2023-10-10,清算の結了等,,,2015-10-05,1,,,,,,0
736,3020002017558,登記記録の閉鎖等,0,2023-10-20,2023-10-10,有限会社丸寅商店,,有限会社,神奈川県,横浜市保土ケ谷区,狩場町１６４番地３３,,14,106,2400025,,,2023-10-10,清算の結了等,,,2015-10-05,1,,,,,マルトラショウテン,0
740,3020005014206,登記記録の閉鎖等,0,2023-10-20,2023-09-19,一般社団法人医療コミュニケーションラボふらっと,,その他の設立登記法人,神奈川県,横浜市鶴見区,東寺尾４丁目１６番１９号,,14,101,2300077,,,2023-09-19,清算の結了等,,,2019-07-03,1,,,,,イリョウコミュニケーションラボフラット,0
749,3021001074227,登記記録の閉鎖等,0,2023-10-20,2023-10-13,茜空株式会社,,株式会社,神奈川県,平塚市,平塚４丁目３２番１２号服部ビル２階,,14,203,2540052,,,2023-10-13,清算の結了等,,,2021-10-19,1,,,,,アカネソラ,0
750,3021002038866,登記記録の閉鎖等,0,2023-10-20,2023-10-16,有限会社夢工房,,有限会社,神奈川県,秦野市,東田原２００番地４９,,14,211,2570028,,,2023-10-16,清算の結了等,,,2015-10-05,1,,,,,ユメコウボウ,0
751,3021002050664,登記記録の閉鎖等,0,2023-10-20,2023-10-13,有限会社みやこ,,有限会社,神奈川県,小田原市,南板橋２丁目２４１番地の３,,14,206,2500035,,,2023-10-13,清算の結了等,,,2015-10-05,1,,,,,ミヤコ,0
762,3030002118025,登記記録の閉鎖等,0,2023-10-20,2023-10-03,仲商事有限会社,,有限会社,埼玉県,行田市,大字若小玉２１１８番地の３,,11,206,3610017,,,2023-10-03,清算の結了等,,,2015-10-05,1,,,,,ナカショウジ,0
789,3060001003332,登記記録の閉鎖等,0,2023-10-20,2023-10-13,株式会社中川文喜堂,,株式会社,栃木県,宇都宮市,兵庫塚１丁目９番２６号,,09,201,3210138,,,2023-10-13,清算の結了等,,,2015-10-05,1,,,,,ナカガワブンキドウ,0
805,3120001017508,登記記録の閉鎖等,0,2023-10-20,2023-10-10,山陽故銅株式会社,,株式会社,大阪府,大阪市生野区,田島５丁目１０番２８号,,27,116,5440011,,,2023-10-10,清算の結了等,,,2015-10-05,1,,,,,サンヨウコドウ,0
807,3120001231026,登記記録の閉鎖等,0,2023-10-20,2023-10-16,株式会社エスティコーポレーション,,株式会社,大阪府,大阪市東住吉区,駒川５丁目１４番１５号,,27,121,5460043,,,2023-10-16,清算の結了等,,,2020-08-13,1,,,,,エスティコーポレーション,0
834,3130005015606,登記記録の閉鎖等,0,2023-10-20,2023-10-13,一般財団法人二九産業技術財団,,その他の設立登記法人,京都府,京都市南区,唐橋高田町３７番地,,26,107,6018464,,,2023-10-13,清算の結了等,,,2019-05-27,1,,,,,フタクサンギョウギジュツザイダン,0
869,3200002004496,登記記録の閉鎖等,0,2023-10-20,2023-10-17,有限会社マルシュウ尾藤建設工業,,有限会社,岐阜県,岐阜市,京町３丁目２番地の２,,21,201,5008804,,,2023-10-17,清算の結了等,,,2015-10-05,1,,,,,マルシュウビトウケンセツコウギョウ,0
872,3220001015113,登記記録の閉鎖等,0,2023-10-20,2023-10-16,株式会社スクラム,,株式会社,石川県,金沢市,泉が丘２丁目５番１９号,,17,201,9218035,,,2023-10-16,清算の結了等,,,2015-10-05,1,,,,,スクラム,0
873,3220002002639,登記記録の閉鎖等,0,2023-10-20,2023-10-16,有限会社コニーカンパニー,,有限会社,石川県,金沢市,尾山町６番７号,,17,201,9200918,,,2023-10-16,清算の結了等,,,2015-10-05,1,,,,,コニーカンパニー,0
880,3240001038426,登記記録の閉鎖等,0,2023-10-20,2023-10-16,株式会社花咲農園,,株式会社,広島県,尾道市,向東町９３２６番地,,34,205,7220062,,,2023-10-16,清算の結了等,,,2015-10-05,1,,,,,ハナサキノウエン,0
881,3240001056337,登記記録の閉鎖等,0,2023-10-20,2023-10-16,株式会社庄原ネット,,株式会社,広島県,庄原市,高野町新市６４５番地,,34,210,7270402,,,2023-10-16,清算の結了等,,,2020-07-09,1,,,,,ショウバラネット,0
884,3240002028186,登記記録の閉鎖等,0,2023-10-20,2023-10-16,有限会社原田屋,,有限会社,広島県,東広島市,西条岡町４番１号,,34,212,7390016,,,2023-10-16,清算の結了等,,,2015-10-05,1,,,,,ハラダヤ,0
887,3250001017263,登記記録の閉鎖等,0,2023-10-20,2023-10-17,原勝コンサル株式会社,,株式会社,山口県,宇部市,大字小串７０４番地４,,35,202,7550067,,,2023-10-17,清算の結了等,,,2018-07-31,1,,,,,ハラショウコンサル,0
899,3290002000306,登記記録の閉鎖等,0,2023-10-20,2023-10-04,有限会社カワシマ,,有限会社,福岡県,福岡市西区,野方５丁目２２番１１号,,40,135,8190043,,,2023-10-04,清算の結了等,,,2015-10-05,1,,,,,カワシマ,0
910,3310002012686,登記記録の閉鎖等,0,2023-10-20,2023-10-19,有限会社きものやはんなり,,有限会社,長崎県,佐世保市,母ケ浦町２００４番地１８,,42,202,8580912,,,2023-10-19,清算の結了等,,,2015-10-05,1,,,,,,0
920,3330005002550,登記記録の閉鎖等,0,2023-10-20,2023-10-10,医療法人藤岡会,,その他の設立登記法人,熊本県,菊池郡菊陽町,大字久保田字下原２７３３番地３,,43,404,8691103,,,2023-10-10,清算の結了等,,,2015-10-05,1,,,,,フジオカカイ,0
934,3390002010583,登記記録の閉鎖等,0,2023-10-20,2023-10-17,有限会社けさらんファーム,,有限会社,山形県,鶴岡市,覚岸寺字水上１９６番地１,,06,203,9970052,,,2023-10-17,清算の結了等,,,2015-10-05,1,,,,,ケサランファーム,0
976,4010401088084,登記記録の閉鎖等,0,2023-10-20,2023-10-06,プライムランカー株式会社,,株式会社,東京都,港区,南青山２丁目２番１５号ウィン青山１４０３,,13,103,1070062,,,2023-10-06,清算の結了等,,,2015-10-05,1,,,,,,0
1000,4010702009359,登記記録の閉鎖等,0,2023-10-20,2023-10-17,ニューコムテック有限会社,,有限会社,群馬県,前橋市,六供町１０７５番地の４,,10,201,3710804,,,2023-10-17,清算の結了等,,,2015-10-05,1,,,,,ニューコムテック,0
1019,4011201002103,登記記録の閉鎖等,0,2023-10-20,2023-10-18,サトー工芸社株式会社,,株式会社,東京都,中野区,中野１丁目３６番５号,,13,114,1640001,,,2023-10-18,清算の結了等,,,2015-10-05,1,,,,,サトーコウゲイシャ,0
1023,4011701013814,登記記録の閉鎖等,0,2023-10-20,2023-10-16,株式会社アイエスアール,,株式会社,東京都,品川区,東五反田１丁目１４番１０号,,13,109,1410022,,,2023-10-16,清算の結了等,,,2015-10-05,1,,,,,アイエスアール,0
1028,4011801009547,登記記録の閉鎖等,0,2023-10-20,2023-10-10,エクタス株式会社,,株式会社,東京都,千代田区,霞が関３丁目２番５号,,13,101,1000013,,,2023-10-10,清算の結了等,,,2015-10-05,1,,,,,エクタス,0
1044,4013202007188,登記記録の閉鎖等,0,2023-10-20,2023-10-13,有限会社中央保温,,有限会社,東京都,目黒区,大橋２丁目１番１２号,,13,110,1530044,,,2023-10-13,清算の結了等,,,2015-10-05,1,,,,,チュウオウホオン,0
1066,4021002030236,登記記録の閉鎖等,0,2023-10-20,2023-10-04,有限会社サンテレコム,,有限会社,神奈川県,相模原市南区,下溝３２５番地１８,,14,153,2520335,,,2023-10-04,合併による解散等,5021001039681,令和５年１０月１日神奈川県相模原市南区下溝３２５番地１８号ブロードバンドサービス株式会社（5021001039681）に合併し解散,2015-10-05,1,,,,,,0
1073,4030002007268,登記記録の閉鎖等,0,2023-10-20,2023-10-04,有限会社杉山製作所,,有限会社,埼玉県,さいたま市南区,文蔵５丁目３１番１号,,11,108,3360025,,,2023-10-04,清算の結了等,,,2015-10-05,1,,,,,スギヤマセイサクジョ,0
1077,4030005010228,登記記録の閉鎖等,0,2023-10-20,2023-10-05,医療法人俊和会,,その他の設立登記法人,埼玉県,越谷市,千間台西５丁目１番地１,,11,222,3430041,,,2023-10-05,清算の結了等,,,2015-10-05,1,,,,,シュンワカイ,0
1079,4040001024404,登記記録の閉鎖等,0,2023-10-20,2023-10-02,アールエコ株式会社,,株式会社,千葉県,船橋市,藤原７丁目１８番１２号,,12,204,2730047,,,2023-10-02,清算の結了等,,,2015-10-05,1,,,,,アールエコ,0
1088,4050001027645,登記記録の閉鎖等,0,2023-10-20,2023-10-13,ミネツクス株式会社,,株式会社,茨城県,取手市,戸頭８丁目４番２－４号,,08,217,3020034,,,2023-10-13,清算の結了等,,,2015-10-05,1,,,,,ミネックス,0
1094,4060003003098,登記記録の閉鎖等,0,2023-10-20,2023-10-16,合同会社ＲｙｕｗｅＮｏｎ,,合同会社,栃木県,小山市,駅東通り１丁目５番１３号ＹＣＰビル１階,,09,208,3230022,,,2023-10-16,清算の結了等,,,2019-04-11,1,,,,,リュウェノン,0
1105,4100001017723,登記記録の閉鎖等,0,2023-10-20,2023-10-06,御岳ロープウェイ株式会社,,株式会社,長野県,木曽郡木曽町,新開１９０９番地４,,20,432,3970002,,,2023-10-06,清算の結了等,,,2015-10-05,1,,,,,オンタケロープウェイ,0
1136,4140002059620,登記記録の閉鎖等,0,2023-10-20,2023-10-16,有限会社富永鉄工所,,有限会社,兵庫県,西宮市,西宮浜２丁目３４番地株式会社ＳＹＳヨシダ内,,28,204,6620934,,,2023-10-16,清算の結了等,,,2015-10-05,1,,,,,トミナガテッコウショ,0
1138,4140002064744,登記記録の閉鎖等,0,2023-10-20,2023-10-16,有限会社ビオスジヤパン,,有限会社,兵庫県,川西市,栄町９番１－Ｇ１０４号,,28,217,6660033,,,2023-10-16,清算の結了等,,,2015-10-05,1,,,,,ビオスジャパン,0
1157,4180003004530,登記記録の閉鎖等,0,2023-10-20,2023-10-16,合資会社中村商店,,合資会社,愛知県,名古屋市中村区,靖国町２丁目１２２番地の１,,23,105,4530065,,,2023-10-16,清算の結了等,,,2015-10-05,1,,,,,ナカムラショウテン,0
1176,4240001037930,登記記録の閉鎖等,0,2023-10-20,2023-10-02,株式会社ちゅピＣＯＭおのみち,,株式会社,広島県,尾道市,西御所町７番１０号中国新聞尾道メディアステーション,,34,205,7220037,,,2023-10-02,合併による解散等,2240001010501,令和５年１０月１日広島市中区土橋町７番１号株式会社ちゅピＣＯＭ（2240001010501）に合併し解散,2015-10-05,1,,,,,チュピコムオノミチ,0
1177,4240002054272,登記記録の閉鎖等,0,2023-10-20,2023-10-16,有限会社福岡建設,,有限会社,広島県,三原市,和田１丁目８番１８号,,34,204,7230041,,,2023-10-16,清算の結了等,,,2015-10-05,1,,,,,フクオカケンセツ,0
1213,4370601003204,登記記録の閉鎖等,0,2023-10-20,2023-10-16,株式会社ティエス,,株式会社,宮城県,塩竈市,梅の宮６番２号,,04,203,9850077,,,2023-10-16,清算の結了等,,,2015-10-05,1,,,,,,0
1215,4380002001228,登記記録の閉鎖等,0,2023-10-20,2023-10-17,有限会社鴻野屋ビル,,有限会社,福島県,福島市,置賜町６番１２号,,07,201,9608034,,,2023-10-17,合併による解散等,8380001000821,令和５年１０月１日福島市野田町三丁目４番６４号株式会社高野塗装店（8380001000821）に合併し解散,2015-10-05,1,,,,,コウノヤビル,0
1217,4390002000253,登記記録の閉鎖等,0,2023-10-20,2023-10-17,有限会社石垣工務店,,有限会社,山形県,山形市,南栄町１丁目１番３５号,,06,201,9902445,,,2023-10-17,清算の結了等,,,2015-10-05,1,,,,,イシガキコウムテン,0
1222,4420003001387,登記記録の閉鎖等,0,2023-10-20,2023-10-13,マルシン合同会社,,合同会社,青森県,弘前市,大字和泉１丁目１０番地５,,02,202,0368053,,,2023-10-13,清算の結了等,,,2015-10-05,1,,,,,マルシン,0
1223,4430001055178,登記記録の閉鎖等,0,2023-10-20,2023-10-03,株式会社夢福仁,,株式会社,北海道,苫小牧市,美原町２丁目２１番１５号,,01,213,0591262,,,2023-10-03,清算の結了等,,,2015-10-05,1,,,,,ユメフクジン,0
1232,4430002049121,登記記録の閉鎖等,0,2023-10-20,2023-10-04,有限会社池本薬局,,有限会社,北海道,岩見沢市,十条西２１丁目１番地３,,01,210,0680030,,,2023-10-04,合併による解散等,9430001088140,令和５年１０月１日札幌市中央区大通東七丁目１２番４８号ノースシティーペンシルビル７階北海道ファーマライズ株式会社（9430001088140）に合併し解散,2015-10-05,1,,,,,イケモトヤッキョク,0
1244,5010001129378,登記記録の閉鎖等,0,2023-10-20,2023-10-10,株式会社アドクレスト,,株式会社,東京都,文京区,本駒込１丁目２０番１５号,,13,105,1130021,,,2023-10-10,清算の結了等,,,2015-10-05,1,,,,,アドクレスト,0
1259,5010002047042,登記記録の閉鎖等,0,2023-10-20,2023-10-10,有限会社オフィスシー,,有限会社,東京都,中央区,湊３丁目７番１１号,,13,102,1040043,,,2023-10-10,清算の結了等,,,2015-10-05,1,,,,,オフィスシー,0
1261,5010003038313,登記記録の閉鎖等,0,2023-10-20,2023-10-10,Ｎｅｗｂｉｅ合同会社,,合同会社,東京都,中央区,銀座７丁目１３番６号サガミビル２階,,13,102,1040061,,,2023-10-10,清算の結了等,,,2022-08-02,1,,,,,ニュービー,0
1275,5010403030407,登記記録の閉鎖等,0,2023-10-20,2023-10-17,合同会社ＧＫ０６９,,合同会社,東京都,港区,虎ノ門３丁目２２番１０－２０１号,,13,103,1050001,,,2023-10-17,合併による解散等,6010001152016,令和５年９月２８日東京都千代田区内幸町二丁目１番１号未来創電球磨錦町合同会社（6010001152016）に合併し解散,2023-06-30,1,,,,,ジーケイゼロシックスナイン,0
1289,5010702007048,登記記録の閉鎖等,0,2023-10-20,2023-10-19,有限会社福玄商事,,有限会社,東京都,品川区,中延３丁目７番１０号,,13,109,1420053,,,2023-10-19,清算の結了等,,,2015-10-05,1,,,,,フクゲンショウジ,0
1327,5011502012196,登記記録の閉鎖等,0,2023-10-20,2023-10-12,有限会社アイエルジェイ,,有限会社,東京都,北区,赤羽２丁目２番２－１０１６号赤羽スカイハイツ,,13,117,1150045,,,2023-10-12,清算の結了等,,,2015-10-05,1,,,,,,0
1330,5011701003715,登記記録の閉鎖等,0,2023-10-20,2023-10-16,ジーエル観光バス株式会社,,株式会社,東京都,江戸川区,谷河内２丁目１５番５号,,13,123,1330002,,,2023-10-16,清算の結了等,,,2015-10-05,1,,,,,,0
1369,5021002028386,登記記録の閉鎖等,0,2023-10-20,2023-10-13,有限会社中島牧場,,有限会社,神奈川県,相模原市南区,当麻８４１番地１３,,14,153,2520336,,,2023-10-13,清算の結了等,,,2015-10-05,1,,,,,ナカジマボクジョウ,0
1371,5021002042742,登記記録の閉鎖等,0,2023-10-20,2023-10-12,有限会社ヤグチ製作所,,有限会社,神奈川県,大和市,下鶴間２丁目６番２５号,,14,213,2420001,,,2023-10-12,清算の結了等,,,2015-10-05,1,,,,,ヤグチセイサクジョ,0
1390,5040002029129,登記記録の閉鎖等,0,2023-10-20,2023-10-05,有限会社サンコークリエート,,有限会社,千葉県,八千代市,高津８５０番地１３２,,12,221,2760036,,,2023-10-05,清算の結了等,,,2015-10-05,1,,,,,サンコークリエート,0
1397,5050002041314,登記記録の閉鎖等,0,2023-10-20,2023-10-10,有限会社松栄建設,,有限会社,茨城県,常総市,杉山７４６番地,,08,211,3002744,,,2023-10-10,清算の結了等,,,2015-10-05,1,,,,,ショウエイケンセツ,0
1399,5050005012956,登記記録の閉鎖等,0,2023-10-20,2023-10-17,一般社団法人ＵＡＶ学術連携推進会議,,その他の設立登記法人,茨城県,取手市,新町１丁目２番３５号,,08,217,3020024,,,2023-10-17,清算の結了等,,,2021-10-19,1,,,,,ユーエーブイガクジュツレンケイスイシンカイギ,0
1413,5070003001629,登記記録の閉鎖等,0,2023-10-20,2023-10-18,合同会社にぎりこぶし,,合同会社,群馬県,前橋市,幸塚町１９１－１デザールＣ号室,,10,201,3710053,,,2023-10-18,清算の結了等,,,2015-10-05,1,,,,,,0
1422,5100002031664,登記記録の閉鎖等,0,2023-10-20,2023-10-12,有限会社ハヤシ屋,,有限会社,長野県,岡谷市,郷田２丁目１番４８号,,20,204,3940021,,,2023-10-12,清算の結了等,,,2015-10-05,1,,,,,ハヤシヤ,0
1424,5110002012184,登記記録の閉鎖等,0,2023-10-20,2023-10-18,有限会社Ａ．Ｌ．Ｌ,,有限会社,新潟県,新潟市中央区,西大畑町５２２０番地４８,,15,103,9518104,,,2023-10-18,清算の結了等,,,2015-10-05,1,,,,,オール,0
1428,5120001169859,登記記録の閉鎖等,0,2023-10-20,2023-10-17,クイックプロダクツ株式会社,,株式会社,大阪府,大阪市中央区,本町橋二丁目１４番地３０８号室,,27,128,5400029,,,2023-10-17,清算の結了等,,,2015-10-05,1,,,,,クイックプロダクツ,0
1441,5120003020004,登記記録の閉鎖等,0,2023-10-20,2023-10-10,合同会社Ｙ’Ｓ,,合同会社,大阪府,大阪市北区,天神橋８丁目１０－１メゾンドール天神橋１０１号,,27,127,5310041,,,2023-10-10,清算の結了等,,,2021-08-11,1,,,,,ワイズ,0
1443,5120005004954,登記記録の閉鎖等,0,2023-10-20,2023-10-18,医療法人亀井医院,,その他の設立登記法人,大阪府,大阪市西成区,岸里東２丁目１３－１１,,27,122,5570042,,,2023-10-18,清算の結了等,,,2015-10-05,1,,,,,カメイイイン,0
1444,5120005009466,登記記録の閉鎖等,0,2023-10-20,2023-10-19,ＮＰＯ法人マンションメンテナンス業務機構,,その他の設立登記法人,大阪府,大阪市中央区,糸屋町１丁目４－１２ベクトルパーク２０１号株式会社住環境設計内,,27,128,5400022,,,2023-10-19,清算の結了等,,,2015-10-05,1,,,,,マンションメンテナンスギョウムキコウ,0
1453,5120101053789,登記記録の閉鎖等,0,2023-10-20,2023-10-12,株式会社めぐみ運送,,株式会社,大阪府,豊中市,東豊中町６丁目１３－１－８３５,,27,203,5600003,,,2023-10-12,清算の結了等,,,2015-10-26,1,,,,,メグミウンソウ,0
1462,5122005002120,登記記録の閉鎖等,0,2023-10-20,2023-10-13,山本商店街振興組合,,その他の設立登記法人,大阪府,八尾市,山本町１丁目２番５号,,27,212,5810867,,,2023-10-13,清算の結了等,,,2015-10-05,1,,,,,ヤマモト,0
1469,5140001116586,登記記録の閉鎖等,0,2023-10-20,2023-10-13,株式会社アライズ,,株式会社,兵庫県,神戸市中央区,中山手通６丁目７番１２号ワコーレ神戸中山手レジデンス２０３号,,28,110,6500004,,,2023-10-13,清算の結了等,,,2020-02-21,1,,,,,アライズ,0
1496,5220002012330,登記記録の閉鎖等,0,2023-10-20,2023-10-19,有限会社クスザワ,,有限会社,石川県,加賀市,片山津温泉乙１１番地２１の１,,17,206,9220412,,,2023-10-19,清算の結了等,,,2015-10-05,1,,,,,クスザワ,0
1522,5320202000678,登記記録の閉鎖等,0,2023-10-20,2023-10-18,有限会社デイリー津久見,,有限会社,大分県,津久見市,大字津久見１７９番地の１,,44,207,8792421,,,2023-10-18,清算の結了等,,,2015-10-05,1,,,,,,0
1524,5330003000389,登記記録の閉鎖等,0,2023-10-20,2023-10-06,合資会社嶋田自動車塗裝工場,,合資会社,熊本県,熊本市中央区,黒髪７丁目１１番地,,43,101,8600862,,,2023-10-06,清算の結了等,,,2015-10-05,1,,,,,シマダジドウシャトソウコウジョウ,0
1527,5340001001867,登記記録の閉鎖等,0,2023-10-20,2023-10-19,株式会社サントー建設,,株式会社,鹿児島県,鹿児島市,山田町１５６３番地１,,46,201,8910104,,,2023-10-19,清算の結了等,,,2015-10-05,1,,,,,サントーケンセツ,0
1542,5370401000516,登記記録の閉鎖等,0,2023-10-20,2023-10-13,株式会社タイヤ館及川,,株式会社,宮城県,登米市,迫町佐沼字梅ノ木３丁目８番地の２０,,04,212,9870511,,,2023-10-13,清算の結了等,,,2015-10-05,1,,,,,タイヤカンオイカワ,0
1549,5410002008433,登記記録の閉鎖等,0,2023-10-20,2023-10-10,有限会社勝伝,,有限会社,秋田県,大館市,釈迦内字釈迦内１１９番地,00086725,05,204,0170012,,,2023-10-10,清算の結了等,,,2015-10-05,1,,,,,カツデン,0
1558,5460301002140,登記記録の閉鎖等,0,2023-10-20,2023-10-18,共栄設備工業株式会社,,株式会社,北海道,網走郡美幌町,字東二条南２丁目１番地,,01,543,0920042,,,2023-10-18,清算の結了等,,,2015-10-05,1,,,,,キョウエイセツビコウギョウ,0
1572,6010001226273,登記記録の閉鎖等,0,2023-10-20,2023-10-02,ＫＧＢＶ株式会社,,株式会社,東京都,港区,浜松町２丁目２番１５号,,13,103,1050013,,,2023-10-02,清算の結了等,,,2022-05-06,1,,,,,ケージービーブイ,0
1590,6010403030406,登記記録の閉鎖等,0,2023-10-20,2023-10-17,合同会社ＧＫ０６８,,合同会社,東京都,港区,虎ノ門３丁目２２番１０－２０１号,,13,103,1050001,,,2023-10-17,合併による解散等,5010001167031,令和５年９月２８日東京都千代田区内幸町二丁目１番１号未来創電津白山合同会社（5010001167031）に合併し解散,2023-06-30,1,,,,,ジーケイゼロシックスエイト,0
1599,6010803002855,登記記録の閉鎖等,0,2023-10-20,2023-10-16,合同会社アイデアル,,合同会社,東京都,大田区,東糀谷１丁目１７番１５号,,13,111,1440033,,,2023-10-16,清算の結了等,,,2018-11-14,1,,,,,アイデアル,0
1634,6011801038692,登記記録の閉鎖等,0,2023-10-20,2023-10-10,株式会社ＬＩＮＸ　ＭＯＴＯＲＳ,,株式会社,東京都,足立区,保木間１丁目３５番１３号フェアリーヒルズ保木間３０６,,13,121,1210064,,,2023-10-10,清算の結了等,,,2021-01-28,1,,,,,リンクスモータース,0
1635,6012301006000,登記記録の閉鎖等,0,2023-10-20,2023-10-16,株式会社ＳＬＡＭ　Ｉｎｔｅｒｎａｔｉｏｎａｌ,,株式会社,神奈川県,相模原市南区,相模台２丁目１番４号,,14,153,2520321,,,2023-10-16,清算の結了等,,,2015-10-05,1,,,,,スラムインターナショナル,0
1644,6020001053650,登記記録の閉鎖等,0,2023-10-20,2023-10-06,株式会社清香館,,株式会社,神奈川県,横浜市都筑区,牛久保３丁目８番１８号,,14,118,2240012,,,2023-10-06,清算の結了等,,,2015-10-05,1,,,,,,0
1645,6020001082609,登記記録の閉鎖等,0,2023-10-20,2023-10-10,株式会社ミッド・ストリーム,,株式会社,神奈川県,川崎市中原区,中丸子７９８番地１グランシーナ多摩川２１７,,14,133,2110012,,,2023-10-10,清算の結了等,,,2015-10-05,1,,,,,ミッドストリーム,0
1657,6020002016565,登記記録の閉鎖等,0,2023-10-20,2023-10-06,コマツ運送有限会社,,有限会社,神奈川県,横浜市西区,境之谷７２番地の３,,14,103,2200054,,,2023-10-06,清算の結了等,,,2015-10-05,1,,,,,,0
1662,6021001047477,登記記録の閉鎖等,0,2023-10-20,2023-10-16,関東エムズ株式会社,,株式会社,神奈川県,秦野市,西田原６８番地の１５,,14,211,2570027,,,2023-10-16,清算の結了等,,,2015-10-05,1,,,,,,0
1664,6021001062815,登記記録の閉鎖等,0,2023-10-20,2023-10-16,株式会社マツバラカタワク,,株式会社,神奈川県,平塚市,南原２丁目４番１３号,,14,203,2540065,,,2023-10-16,清算の結了等,,,2017-08-16,1,,,,,マツバラカタワク,0
1666,6021002060388,登記記録の閉鎖等,0,2023-10-20,2023-10-16,有限会社共栄住設,,有限会社,神奈川県,中郡大磯町,国府新宿５４３番地の１,,14,341,2590112,,,2023-10-16,清算の結了等,,,2015-10-05,1,,,,,キョウエイジュウセツ,0
1670,6030001062733,登記記録の閉鎖等,0,2023-10-20,2023-10-04,株式会社三貴,,株式会社,埼玉県,鴻巣市,緑町６番１３号,,11,217,3650053,,,2023-10-04,清算の結了等,,,2015-10-05,1,,,,,サンキ,0
1682,6040001009915,登記記録の閉鎖等,0,2023-10-20,2023-10-18,株式会社エコリード,,株式会社,千葉県,千葉市稲毛区,園生町３９９番地１０５,,12,103,2630051,,,2023-10-18,清算の結了等,,,2015-10-05,1,,,,,エコリード,0
1685,6040001043682,登記記録の閉鎖等,0,2023-10-20,2023-10-04,株式会社高橋商店,00019097,株式会社,千葉県,印西市,大森３９９１番地,,12,231,2701327,,,2023-10-04,清算の結了等,,,2015-10-05,1,,,,,タカハシショウテン,0
1690,6040002054927,登記記録の閉鎖等,0,2023-10-20,2023-10-05,有限会社小幡開発リサイクル,,有限会社,千葉県,成田市,本城２２２番地１７,,12,211,2860114,,,2023-10-05,清算の結了等,,,2015-10-05,1,,,,,オバタカイハツリサイクル,0
1700,6050001004394,登記記録の閉鎖等,0,2023-10-20,2023-10-12,株式会社ＧＤＲ,,株式会社,茨城県,水戸市,姫子１丁目８１７番地３９,,08,201,3114151,,,2023-10-12,清算の結了等,,,2015-10-05,1,,,,,ジィディアール,0
1717,6090002014414,登記記録の閉鎖等,0,2023-10-20,2023-10-19,有限会社清里ミルクプラント,,有限会社,山梨県,北杜市,高根町清里３５４５番地２６５,,19,209,4070301,,,2023-10-19,清算の結了等,,,2015-10-05,1,,,,,キヨサトミルクプラント,0
1724,6120001147871,登記記録の閉鎖等,0,2023-10-20,2023-10-18,サトウ不動産株式会社,,株式会社,大阪府,寝屋川市,太秦緑が丘２７番１７号,,27,215,5720844,,,2023-10-18,清算の結了等,,,2015-10-05,1,,,,,サトウフドウサン,0
1753,6140002023839,登記記録の閉鎖等,0,2023-10-20,2023-10-02,有限会社アイズ,,有限会社,兵庫県,神戸市東灘区,深江浜町１５８,,28,101,6580023,,,2023-10-02,合併による解散等,3140002011301,令和５年９月３０日神戸市東灘区深江浜町１５８番地株式会社アイズ（3140002011301）に合併し解散,2015-10-05,1,,,,,アイズ,0
1755,6140003006438,登記記録の閉鎖等,0,2023-10-20,2023-10-16,ＥＵＭ合同会社,,合同会社,兵庫県,加古川市,加古川町寺家町６３２,,28,210,6750066,,,2023-10-16,清算の結了等,,,2015-10-05,1,,,,,,0
1764,6180001131184,登記記録の閉鎖等,0,2023-10-20,2023-10-16,株式会社自動車Ｌａｂｏ,,株式会社,愛知県,豊田市,本地町２丁目６８番地,,23,211,4710848,,,2023-10-16,合併による解散等,2180001133168,令和５年９月２９日名古屋市中区丸の内二丁目１２番１３号丸の内プラザビル４階株式会社Ｋ２（2180001133168）に合併し解散,2018-02-13,1,,,,,ジドウシャラボ,0
1769,6180002055820,登記記録の閉鎖等,0,2023-10-20,2023-10-17,有限会社健遊食品,,有限会社,愛知県,名古屋市中村区,日吉町１３番地,,23,105,4530029,,,2023-10-17,清算の結了等,,,2015-10-05,1,,,,,ケンユウショクヒン,0
1792,6250001011156,登記記録の閉鎖等,0,2023-10-20,2023-10-17,岩国広印青果株式会社,,株式会社,山口県,岩国市,尾津町５丁目１１番１号,,35,208,7400032,,,2023-10-17,合併による解散等,4240001003197,令和５年１０月１日広島市西区草津港一丁目８番１号広印広島青果株式会社（4240001003197）に合併し解散,2015-10-05,1,,,,,イワクニヒロシルシセイカ,0
1794,6250002014851,登記記録の閉鎖等,0,2023-10-20,2023-10-17,有限会社スペースデザインアクト,,有限会社,山口県,周南市,孝田町１３番９号,,35,215,7450822,,,2023-10-17,清算の結了等,,,2015-10-05,1,,,,,スペースデザインアクト,0
1810,6290003012512,登記記録の閉鎖等,0,2023-10-20,2023-10-04,ＵＩＯ　Ｊａｐａｎ合同会社,,合同会社,福岡県,福岡市中央区,大名２丁目６番１１号,,40,133,8100041,,,2023-10-04,清算の結了等,,,2022-05-17,1,,,,,ユーアイオージャパン,0
1820,6330001010281,登記記録の閉鎖等,0,2023-10-20,2023-10-12,太陽商事株式会社,,株式会社,熊本県,山鹿市,山鹿２９６番地の１,,43,208,8610501,,,2023-10-12,清算の結了等,,,2015-10-05,1,,,,,タイヨウショウジ,0
1852,6430003007423,登記記録の閉鎖等,0,2023-10-20,2023-10-03,ノニサンデイズ合同会社,,合同会社,北海道,札幌市豊平区,旭町１丁目１番２４－１０６Ｂ,,01,105,0620911,,,2023-10-03,清算の結了等,,,2016-03-09,1,,,,,ノニサンデイズ,0
1855,6450001009832,登記記録の閉鎖等,0,2023-10-20,2023-10-18,株式会社奥田経木工房,,株式会社,北海道,紋別郡滝上町,字オシラネップ原野基線１１番地,,01,560,0995600,,,2023-10-18,清算の結了等,,,2015-10-05,1,,,,,オクダキョウギコウボウ,0
1875,7010005006729,登記記録の閉鎖等,0,2023-10-20,2023-10-17,一般社団法人めぐみグループ,,その他の設立登記法人,東京都,文京区,湯島３丁目２８番１８号,,13,105,1130034,,,2023-10-17,清算の結了等,,,2015-10-05,1,,,,,メグミグループ,0
1878,7010401007537,登記記録の閉鎖等,0,2023-10-20,2023-10-06,株式会社キーワード,,株式会社,東京都,港区,六本木２丁目１番１６号,,13,103,1060032,,,2023-10-06,清算の結了等,,,2015-10-05,1,,,,,キーワード,0
1889,7010403012782,登記記録の閉鎖等,0,2023-10-20,2023-10-05,合同会社マーキュリー,,合同会社,東京都,港区,北青山２丁目７番２６号,,13,103,1070061,,,2023-10-05,清算の結了等,,,2015-10-05,1,,,,,マーキュリー,0
1890,7010405020503,登記記録の閉鎖等,0,2023-10-20,2023-10-16,一般財団法人山本記念財団,,その他の設立登記法人,東京都,中央区,銀座１丁目１４－１４銀座中公ビル,,13,102,1040061,,,2023-10-16,清算の結了等,,,2021-12-13,1,,,,,ヤマモトキネンザイダン,0
1893,7010502009060,登記記録の閉鎖等,0,2023-10-20,2023-10-16,有限会社パイオニアインシュランス,,有限会社,東京都,台東区,上野５丁目５番１０－３０５号,,13,106,1100005,,,2023-10-16,清算の結了等,,,2015-10-05,1,,,,,パイオニアインシュランス,0
1901,7010702012871,登記記録の閉鎖等,0,2023-10-20,2023-10-16,有限会社品川音楽企画,,有限会社,東京都,品川区,東中延１丁目１１番１７号,,13,109,1420052,,,2023-10-16,清算の結了等,,,2015-10-05,1,,,,,シナガワオンガクキカク,0
1904,7010805002860,登記記録の閉鎖等,0,2023-10-20,2023-10-13,一般社団法人Ｒｅｇｉｏｎａｌ　Ｓｐａｃｅ,,その他の設立登記法人,東京都,大田区,北千束３丁目２４番１４号,,13,111,1450062,,,2023-10-13,清算の結了等,,,2021-07-06,1,,,,,リージョナルスペース,0
1962,7021001017867,登記記録の閉鎖等,0,2023-10-20,2023-10-16,株式会社アップ,,株式会社,神奈川県,相模原市中央区,上矢部２丁目２４番３０－３号,,14,152,2520201,,,2023-10-16,清算の結了等,,,2015-10-05,1,,,,,,0
1963,7021001073794,登記記録の閉鎖等,0,2023-10-20,2023-10-16,株式会社ＳＶａｌｕｅ,,株式会社,神奈川県,茅ヶ崎市,共恵１丁目１－５Ｂ．Ｌ．Ｄ．Ｎａｇａｓｈｉｍａ３０１,,14,207,2530056,,,2023-10-16,清算の結了等,,,2021-08-31,1,,,,,エスバリュー,0
1967,7021002004154,登記記録の閉鎖等,0,2023-10-20,2023-10-13,有限会社廣田自動車,00012962,有限会社,神奈川県,藤沢市,高倉８８４番地,,14,205,2520802,,,2023-10-13,清算の結了等,,,2015-10-05,1,,,,,ヒロタジドウシャ,0
1969,7021002029580,登記記録の閉鎖等,0,2023-10-20,2023-10-12,有限会社山陽商事,,有限会社,神奈川県,相模原市緑区,久保沢２丁目２５番２０号,,14,151,2520105,,,2023-10-12,清算の結了等,,,2015-10-05,1,,,,,サンヨウショウジ,0
1971,7021002059859,登記記録の閉鎖等,0,2023-10-20,2023-10-11,有限会社満川コンタクトレンズ,,有限会社,神奈川県,平塚市,明石町２３番１１号,,14,203,2540042,,,2023-10-11,清算の結了等,,,2015-10-05,1,,,,,ミツカワコンタクトレンズ,0
1972,7021003007437,登記記録の閉鎖等,0,2023-10-20,2023-10-11,合同会社ＭＡＳＡＯ,,合同会社,神奈川県,大和市,下鶴間２５６３番地５７,,14,213,2420001,,,2023-10-11,清算の結了等,,,2018-04-13,1,,,,,マサオ,0
1997,7040002034374,登記記録の閉鎖等,0,2023-10-20,2023-10-05,有限会社ジーガー,,有限会社,千葉県,市川市,平田２丁目１３番１号,,12,203,2720031,,,2023-10-05,清算の結了等,,,2015-10-05,1,,,,,ジーガー,0
2016,7070002027334,登記記録の閉鎖等,0,2023-10-20,2023-10-17,有限会社善養寺工務店,,有限会社,群馬県,北群馬郡榛東村,大字長岡２０４７番地の３,,10,344,3703501,,,2023-10-17,清算の結了等,,,2015-10-05,1,,,,,ゼンヨウジコウムテン,0
2022,7090005003198,登記記録の閉鎖等,0,2023-10-20,2023-10-17,猿橋エルピーガス販売協同組合,,その他の設立登記法人,山梨県,大月市,猿橋町殿上４７４番地,,19,206,4090617,,,2023-10-17,清算の結了等,,,2015-10-05,1,,,,,サルハシエルピーガスハンバイ,0
2056,7122001026245,登記記録の閉鎖等,0,2023-10-20,2023-10-16,誠和重量株式会社,,株式会社,大阪府,大東市,野崎３丁目２番２号,,27,218,5740015,,,2023-10-16,清算の結了等,,,2015-10-05,1,,,,,セイワジュウリョウ,0
2066,7140002007865,登記記録の閉鎖等,0,2023-10-20,2023-10-16,有限会社学建築,,有限会社,兵庫県,神戸市須磨区,車字口道谷１０８８番地の１,,28,107,6540111,,,2023-10-16,清算の結了等,,,2015-10-05,1,,,,,,0
2072,7160002013960,登記記録の閉鎖等,0,2023-10-20,2023-10-19,有限会社スペース,,有限会社,滋賀県,守山市,吉身３丁目１４番２１号,,25,207,5240021,,,2023-10-19,清算の結了等,,,2015-10-05,1,,,,,スペース,0
2080,7180001082303,登記記録の閉鎖等,0,2023-10-20,2023-10-17,株式会社大宮酒販ワキタ,,株式会社,愛知県,一宮市,大宮２丁目６番２６号,,23,203,4910044,,,2023-10-17,清算の結了等,,,2015-10-05,1,,,,,オオミヤシュハンワキタ,0
2089,7180003019303,登記記録の閉鎖等,0,2023-10-20,2023-10-16,合同会社ＣＨＯＫＥ,,合同会社,愛知県,一宮市,起字西茜屋４８番地４,,23,203,4940006,,,2023-10-16,清算の結了等,,,2018-09-27,1,,,,,チョーク,0
2097,7200003002280,登記記録の閉鎖等,0,2023-10-20,2023-10-18,合資会社シズコ美容院,,合資会社,岐阜県,多治見市,広小路１丁目３０番地,,21,204,5070833,,,2023-10-18,清算の結了等,,,2015-10-05,1,,,,,シズコビヨウイン,0
2157,7400002010231,登記記録の閉鎖等,0,2023-10-20,2023-10-06,有限会社菊池架設,,有限会社,岩手県,遠野市,上郷町細越１２地割３７番地５,,03,208,0280772,,,2023-10-06,清算の結了等,,,2015-10-05,1,,,,,,0
2164,7430002004643,登記記録の閉鎖等,0,2023-10-20,2023-10-03,有限会社管工舎,,有限会社,北海道,札幌市北区,あいの里三条５丁目３番１２号,,01,102,0028073,,,2023-10-03,清算の結了等,,,2015-10-05,1,,,,,カンコウシャ,0
2175,8010001082541,登記記録の閉鎖等,0,2023-10-20,2023-10-16,三悠総建株式会社,,株式会社,東京都,墨田区,錦糸４丁目７番２号２０２,,13,107,1300013,,,2023-10-16,清算の結了等,,,2015-10-05,1,,,,,サンユウソウケン,0
2185,8010002019443,登記記録の閉鎖等,0,2023-10-20,2023-10-16,有限会社倉田商店,,有限会社,東京都,江東区,豊洲６丁目５番１号,,13,108,1350061,,,2023-10-16,清算の結了等,,,2015-10-05,1,,,,,クラタショウテン,0
2186,8010003019203,登記記録の閉鎖等,0,2023-10-20,2023-10-10,フィリップ・リカード・ホノルル・ジャパン合同会社,,合同会社,東京都,中央区,日本橋蛎殻町１丁目３７番１２－５０６号,,13,102,1030014,,,2023-10-10,清算の結了等,,,2015-10-05,1,,,,,フィリップリカードホノルルジャパン,0
2193,8010401004277,登記記録の閉鎖等,0,2023-10-20,2023-10-06,キャプラン株式会社,,株式会社,東京都,港区,南青山３丁目１番３０号,,13,103,1070062,,,2023-10-06,合併による解散等,7011101074231,令和５年１０月１日東京都港区南青山三丁目１番３０号株式会社パソナＨＲソリューション（7011101074231）に合併し解散,2015-10-05,1,,,,,キャプラン,0
2206,8010402017245,登記記録の閉鎖等,0,2023-10-20,2023-10-06,有限会社技研スチール,,有限会社,東京都,港区,浜松町２丁目８番３号,,13,103,1050013,,,2023-10-06,清算の結了等,,,2015-10-05,1,,,,,ギケンスチール,0
2211,8010501043836,登記記録の閉鎖等,0,2023-10-20,2023-10-12,株式会社アセアン関東,,株式会社,東京都,台東区,台東３丁目１５番３号ＭＡＲＫＳＱＵＡＲＥ御徒町７階,,13,106,1100016,,,2023-10-12,合併による解散等,9010501043686,令和５年１０月１日東京都台東区台東三丁目１５番３号ＭＡＲＫＳＱＵＡＲＥ御徒町７階株式会社アセアン（9010501043686）に合併し解散,2019-03-12,1,,,,,アセアンカントウ,0
2245,8011202004912,登記記録の閉鎖等,0,2023-10-20,2023-10-19,有限会社ピーアイティ,,有限会社,東京都,中野区,中央５丁目３８－１３エスエス１０Ａ５０２,,13,114,1640011,,,2023-10-19,清算の結了等,,,2015-10-05,1,,,,,ピーアイティ,0
2251,8011502012912,登記記録の閉鎖等,0,2023-10-20,2023-10-13,有限会社柏木都市経営研究所,,有限会社,東京都,北区,十条仲原４丁目１番１－６０８号,,13,117,1140031,,,2023-10-13,清算の結了等,,,2015-10-05,1,,,,,カシワギトシケイエイケンキュウジョ,0
2266,8013401004214,登記記録の閉鎖等,0,2023-10-20,2023-10-11,ブラザーズ・オブ・ヤマダ株式会社,,株式会社,東京都,日野市,落川９２６番２号,,13,212,1910034,,,2023-10-11,清算の結了等,,,2015-10-05,1,,,,,ブラザーズオブヤマダ,0
2278,8020005012683,登記記録の閉鎖等,0,2023-10-20,2023-10-10,ＮＰＯ法人歯科技工ネットワーク,,その他の設立登記法人,神奈川県,横浜市青葉区,榎が丘４番１７,,14,117,2270063,,,2023-10-10,清算の結了等,,,2016-07-01,1,,,,,シカギコウネットワーク,0
2279,8021001030646,登記記録の閉鎖等,0,2023-10-20,2023-10-06,株式会社ヤマト住建,,株式会社,神奈川県,横浜市中区,不老町１丁目２－１中央第６関内ビル３０２,,14,104,2310032,,,2023-10-06,清算の結了等,,,2015-10-05,1,,,,,ヤマトジュウケン,0
2281,8021001053507,登記記録の閉鎖等,0,2023-10-20,2023-10-16,株式会社クリーンサービス,,株式会社,神奈川県,小田原市,飯泉９３１番地,,14,206,2500863,,,2023-10-16,清算の結了等,,,2015-10-05,1,,,,,クリーンサービス,0
2284,8030001001243,登記記録の閉鎖等,0,2023-10-20,2023-10-12,株式会社ＨＭコーポレーション,,株式会社,埼玉県,さいたま市北区,吉野町１丁目３９番地３,,11,102,3310811,,,2023-10-12,合併による解散等,7340001003201,令和５年１０月１日鹿児島市中央町１８番地１南国殖産株式会社（7340001003201）に合併し解散,2015-10-05,1,,,,,エイチエムコーポレーション,0
2289,8030001104987,登記記録の閉鎖等,0,2023-10-20,2023-10-13,株式会社日本経済産業情報局,,株式会社,東京都,豊島区,南大塚１丁目５９番８号ダイホープラザ大塚４０３,,13,116,1700005,,,2023-10-13,合併による解散等,8030001012983,令和５年１０月１日東京都中央区銀座六丁目１３番９号ｂｉｚｃｕｂｅ株式会社運送経営改善社（8030001012983）に合併し解散,2015-10-05,1,,,,,ニホンケイザイサンギョウジョウホウキョク,0
2300,8030002060668,登記記録の閉鎖等,0,2023-10-20,2023-10-04,有限会社今成塗装,,有限会社,埼玉県,新座市,畑中１丁目９番１２号,,11,230,3520012,,,2023-10-04,清算の結了等,,,2015-10-05,1,,,,,イマナリトソウ,0
2301,8030003008955,登記記録の閉鎖等,0,2023-10-20,2023-10-04,ダブルエス合同会社,,合同会社,埼玉県,川口市,本蓮３丁目４番１７－１０２号室,,11,203,3340076,,,2023-10-04,清算の結了等,,,2016-06-20,1,,,,,ダブルエス,0
2302,8030003010291,登記記録の閉鎖等,0,2023-10-20,2023-08-31,美肌王国合同会社,,合同会社,埼玉県,狭山市,笹井２丁目２５番１２号,,11,215,3501327,,,2023-08-31,清算の結了等,,,2017-05-18,1,,,,,ビハダオウコク,0
2311,8040001097495,登記記録の閉鎖等,0,2023-10-20,2023-10-05,福原工務店株式会社,,株式会社,千葉県,南房総市,本織１８４１番地２２,,12,234,2940822,,,2023-10-05,清算の結了等,,,2016-10-31,1,,,,,フクハラコウムテン,0
2338,8080401012331,登記記録の閉鎖等,0,2023-10-20,2023-10-20,住まい工房眞株式会社,,株式会社,静岡県,浜松市中区,和合町２２０番地の１４１９,,22,131,4338125,,,2023-10-20,清算の結了等,,,2015-10-05,1,,,,,スマイコウボウシン,0
2351,8120001150502,登記記録の閉鎖等,0,2023-10-20,2023-10-17,枚方地所株式会社,,株式会社,大阪府,枚方市,東香里新町７番１３号,,27,210,5730077,,,2023-10-17,清算の結了等,,,2015-10-05,1,,,,,ヒラカタジショ,0
2370,8120901005887,登記記録の閉鎖等,0,2023-10-20,2023-10-16,株式会社大阪洋書,,株式会社,大阪府,吹田市,千里山東１丁目１０番２０号,,27,205,5650842,,,2023-10-16,清算の結了等,,,2015-10-05,1,,,,,オオサカヨウショ,0
2389,8140001105710,登記記録の閉鎖等,0,2023-10-20,2023-10-16,レイワ鳥対策株式会社,,株式会社,兵庫県,川西市,久代３丁目２２番２５号,,28,217,6660024,,,2023-10-16,清算の結了等,,,2017-04-12,1,,,,,レイワトリタイサク,0
2393,8160001005479,登記記録の閉鎖等,0,2023-10-20,2023-10-16,株式会社あおき,,株式会社,滋賀県,甲賀市,信楽町長野５２５番地の５,,25,209,5291851,,,2023-10-16,清算の結了等,,,2015-10-05,1,,,,,アオキ,0
2394,8160001007194,登記記録の閉鎖等,0,2023-10-20,2023-10-18,株式会社源樹舎,,株式会社,滋賀県,長浜市,元浜町１３番３４号,,25,203,5260059,,,2023-10-18,清算の結了等,,,2015-10-05,1,,,,,ゲンキシャ,0
2429,8240001054625,登記記録の閉鎖等,0,2023-10-20,2023-10-19,株式会社サイオト,,株式会社,広島県,山県郡北広島町,才乙１４４番地,,34,369,7312314,,,2023-10-19,合併による解散等,4160001012297,令和５年１０月１日兵庫県養父市丹戸８９６番地の２株式会社マックアース（4160001012297）に合併し解散,2019-07-10,1,,,,,サイオト,0
2434,8240002022283,登記記録の閉鎖等,0,2023-10-20,2023-10-16,有限会社雲雀,,有限会社,広島県,広島市中区,富士見町１６番４－９０１号,,34,101,7300043,,,2023-10-16,清算の結了等,,,2015-10-05,1,,,,,ヒバリ,0
2440,8290001002447,登記記録の閉鎖等,0,2023-10-20,2023-10-05,株式会社豊設計コンサル,,株式会社,福岡県,筑紫野市,光が丘２丁目８番地１７,,40,217,8180036,,,2023-10-05,清算の結了等,,,2015-10-05,1,,,,,ユタカセッケイコンサル,0
2464,8360001002828,登記記録の閉鎖等,0,2023-10-20,2023-10-16,株式会社エム・ワイ・ケイ,,株式会社,沖縄県,石垣市,字大川２１４番地,,47,207,9070022,,,2023-10-16,清算の結了等,,,2015-10-05,1,,,,,,0
2484,8430001047048,登記記録の閉鎖等,0,2023-10-20,2023-10-04,株式会社丸長かわにし,,株式会社,北海道,岩見沢市,栗沢町本町３２番地,,01,210,0680127,,,2023-10-04,清算の結了等,,,2015-10-05,1,,,,,マルチョウカワニシ,0
2489,8440002009211,登記記録の閉鎖等,0,2023-10-20,2023-10-16,有限会社サイクルマリンショップどうたか,,有限会社,北海道,茅部郡森町,字本町２１４番地の１４,,01,345,0492325,,,2023-10-16,清算の結了等,,,2015-10-05,1,,,,,サイクルマリンショップドウタカ,0
2490,8460301000645,登記記録の閉鎖等,0,2023-10-20,2023-10-18,株式会社地域開発エンジニアリング,,株式会社,北海道,北見市,美山町西２丁目５８番地５９,,01,208,0900070,,,2023-10-18,清算の結了等,,,2015-10-05,1,,,,,チイキカイハツエンジニアリング,0
2491,8460302001543,登記記録の閉鎖等,0,2023-10-20,2023-10-18,有限会社メナード化粧品北見北王,,有限会社,北海道,北見市,春光町２丁目１５５番地１,,01,208,0900801,,,2023-10-18,清算の結了等,,,2015-10-05,1,,,,,メナードケショウヒンキタミホクオウ,0
2493,8460305001920,登記記録の閉鎖等,0,2023-10-20,2023-10-18,税理士法人秋山会計,,その他の設立登記法人,北海道,北見市,北四条東３丁目７番地２,,01,208,0900024,,,2023-10-18,清算の結了等,,,2019-02-25,1,,,,,アキヤマカイケイ,0
2506,9010001152871,登記記録の閉鎖等,0,2023-10-20,2023-10-10,株式会社エスエール調剤,,株式会社,東京都,中央区,晴海２丁目５番２４号,,13,102,1040053,,,2023-10-10,清算の結了等,,,2015-10-05,1,,,,,エスエールチョウザイ,0
2515,9010003028013,登記記録の閉鎖等,0,2023-10-20,2023-10-16,合同会社東京住環境設計,,合同会社,東京都,中央区,日本橋３丁目２番１４号新槇町ビル別館第一１階,,13,102,1030027,,,2023-10-16,合併による解散等,9240001051761,令和５年１０月１日広島県東広島市八本松南七丁目２８番１４号株式会社藤田住環境設計（9240001051761）に合併し解散,2018-08-02,1,,,,,トウキョウジュウカンキョウセッケイ,0
2529,9010405019295,登記記録の閉鎖等,0,2023-10-20,2023-10-06,一般社団法人オレンジ,,その他の設立登記法人,東京都,港区,六本木１丁目６番１号泉ガーデンタワー,,13,103,1060032,,,2023-10-06,清算の結了等,,,2020-11-30,1,,,,,オレンジ,0
2557,9011001123202,登記記録の閉鎖等,0,2023-10-20,2023-10-16,株式会社ＩｏＴファイナンス,,株式会社,神奈川県,藤沢市,辻堂神台２丁目２番１号,,14,205,2510041,,,2023-10-16,清算の結了等,,,2018-07-10,1,,,,,アイオーティーファイナンス,0
2563,9011003014886,登記記録の閉鎖等,0,2023-10-20,2023-10-13,Ｔ＆Ｃ合同会社,,合同会社,東京都,渋谷区,渋谷２丁目１９―１５宮益坂ビルディング６０９,,13,113,1500002,,,2023-10-13,清算の結了等,,,2022-06-16,1,,,,,ティーアンドシー,0
2579,9011502007738,登記記録の閉鎖等,0,2023-10-20,2023-10-13,有限会社加藤紙工,,有限会社,東京都,荒川区,西尾久７丁目４７番２号,,13,118,1160011,,,2023-10-13,清算の結了等,,,2015-10-05,1,,,,,,0
2587,9011801000831,登記記録の閉鎖等,0,2023-10-20,2023-10-17,岡部工業株式会社,,株式会社,東京都,葛飾区,西新小岩５丁目６番１４号,,13,122,1240025,,,2023-10-17,清算の結了等,,,2015-10-05,1,,,,,オカベコウギョウ,0
2596,9012802006561,登記記録の閉鎖等,0,2023-10-20,2023-10-11,有限会社キヨノオートサービス,,有限会社,東京都,東大和市,立野４丁目４９９番地の１,,13,220,2070021,,,2023-10-11,清算の結了等,,,2015-10-05,1,,,,,キヨノオートサービス,0
2599,9013301050324,登記記録の閉鎖等,0,2023-10-20,2023-10-13,合＿株式会社,00129408,株式会社,東京都,豊島区,池袋２丁目５５番１２－２０２号,,13,116,1710014,,,2023-10-13,清算の結了等,,,2023-02-13,1,,,,,ゴウキン,0
2600,9020001017033,登記記録の閉鎖等,0,2023-10-20,2023-10-10,株式会社キッコー,,株式会社,神奈川県,横浜市鶴見区,北寺尾１丁目１８番２０号,,14,101,2300074,,,2023-10-10,清算の結了等,,,2015-10-05,1,,,,,キッコー,0
2602,9020001108831,登記記録の閉鎖等,0,2023-10-20,2023-10-10,株式会社Ａ－ＮＥＸ,,株式会社,神奈川県,横浜市神奈川区,橋本町２丁目５番地３ＢＷ３６０６号,,14,102,2210053,,,2023-10-10,清算の結了等,,,2015-10-05,1,,,,,アネックス,0
2608,9020003014219,登記記録の閉鎖等,0,2023-10-20,2023-10-05,合同会社ＲｅａｌＡｃｅ,,合同会社,神奈川県,横浜市中区,扇町２丁目５番地１４Ｙ′ｓトレゾワ関内６０２号,,14,104,2310027,,,2023-10-05,清算の結了等,,,2018-04-19,1,,,,,リアルエース,0
2609,9020003023145,登記記録の閉鎖等,0,2023-10-20,2023-10-06,こつこつ道合同会社,,合同会社,神奈川県,横浜市中区,石川町１丁目２１穂苅ビル４０３,,14,104,2310868,,,2023-10-06,清算の結了等,,,2023-01-30,1,,,,,コツコツドウ,0
2611,9020005011602,登記記録の閉鎖等,0,2023-10-20,2023-10-16,一般社団法人ＣＳＰＲ,,その他の設立登記法人,岡山県,玉野市,田井４丁目３９番９号,,33,204,7060001,,,2023-10-16,清算の結了等,,,2015-10-05,1,,,,,シーエスピーアール,0
2616,9021001067233,登記記録の閉鎖等,0,2023-10-20,2023-10-13,株式会社宮田家具店,,株式会社,神奈川県,伊勢原市,伊勢原４丁目１０番２７号,,14,214,2591131,,,2023-10-13,清算の結了等,,,2019-05-13,1,,,,,ミヤタカグテン,0
2626,9030002030645,登記記録の閉鎖等,0,2023-10-20,2023-10-03,有限会社ハインツ,,有限会社,埼玉県,所沢市,大字神米金３９３番地の５,,11,208,3590005,,,2023-10-03,清算の結了等,,,2015-10-05,1,,,,,ハインツ,0
2638,9040001073768,登記記録の閉鎖等,0,2023-10-20,2023-10-05,倉持工業株式会社,,株式会社,千葉県,館山市,船形２６３番地,,12,205,2940056,,,2023-10-05,清算の結了等,,,2015-10-05,1,,,,,クラモチコウギョウ,0
2645,9040002097295,登記記録の閉鎖等,0,2023-10-20,2023-10-05,有限会社テイエスケイ商事,,有限会社,千葉県,野田市,木野崎８９６番地の２,,12,208,2780002,,,2023-10-05,清算の結了等,,,2015-10-05,1,,,,,テイエスケイショウジ,0
2658,9080005007537,登記記録の閉鎖等,0,2023-10-20,2023-10-18,一般社団法人腰痛セラピスト育成協会,,その他の設立登記法人,静岡県,焼津市,石津２－１，カネツビル１－Ｃ,,22,212,4250041,,,2023-10-18,清算の結了等,,,2023-05-11,1,,,,,ヨウツウセラピストイクセイキョウカイ,0
2682,9120101028779,登記記録の閉鎖等,0,2023-10-20,2023-10-17,株式会社ツルミ,,株式会社,大阪府,大阪狭山市,東茱萸木１丁目１７５７番地の１５３,00046877,27,231,5890012,,,2023-10-17,清算の結了等,,,2015-10-05,1,,,,,ツルミ,0
2687,9122001000974,登記記録の閉鎖等,0,2023-10-20,2023-10-13,エコー産業株式会社,,株式会社,大阪府,東大阪市,高井田本通２丁目７番２号,,27,227,5770066,,,2023-10-13,清算の結了等,,,2015-10-05,1,,,,,エコーサンギョウ,0
2688,9140001110288,登記記録の閉鎖等,0,2023-10-20,2023-10-16,ＳＨＭ建設工業株式会社,,株式会社,兵庫県,神戸市中央区,浜辺通４丁目１番２３号三宮ベンチャービル３０１号,,28,110,6510083,,,2023-10-16,清算の結了等,,,2018-06-05,1,,,,,エスエイチエムケンセツコウギョウ,0
2691,9140005023627,登記記録の閉鎖等,0,2023-10-20,2023-10-17,一般社団法人兵庫県調理師会,,その他の設立登記法人,兵庫県,神戸市北区,有馬町１４５５番地１,,28,109,6511401,,,2023-10-17,清算の結了等,,,2017-07-12,1,,,,,ヒョウゴケンチョウリシカイ,0
2724,9210005002078,登記記録の閉鎖等,0,2023-10-20,2023-10-12,国見えのき協同組合,,その他の設立登記法人,福井県,福井市,鮎川町第９２号１番地,,18,201,9103402,,,2023-10-12,清算の結了等,,,2015-10-05,1,,,,,クニミエノキ,0
2727,9240002037834,登記記録の閉鎖等,0,2023-10-20,2023-10-16,有限会社板村工作所,,有限会社,広島県,廿日市市,林が原１丁目１４番１２号,,34,213,7390444,,,2023-10-16,清算の結了等,,,2015-10-05,1,,,,,イタムラコウサクショ,0
2729,9250003000039,登記記録の閉鎖等,0,2023-10-20,2023-10-17,合名会社斉藤電気商会,,合名会社,山口県,山口市,宮野上２５８４番地の３,,35,203,7530001,,,2023-10-17,清算の結了等,,,2015-10-05,1,,,,,サイトウデンキショウカイ,0
