sequenceNumber,corporateNumber,process,correct,updateDate,changeDate,name,nameImageId,kind,prefectureName,cityName,streetNumber,addressImageId,prefectureCode,cityCode,postCode,addressOutside,addressOutsideImageId,closeDate,closeCause,successorCorporateNumber,changeCause,assignmentDate,latest,enName,enPrefectureName,enCityName,enAddressOutside,furigana,hihyoji
71,1011501006541,登記記録の閉鎖等,0,2024-07-05,2024-07-01,株式会社三開,,株式会社,東京都,荒川区,東尾久１丁目１１番１０号,,13,118,1160012,,,2024-07-01,清算の結了等,,,2015-10-05,1,,,,,サンカイ,0
72,1011501006888,登記記録の閉鎖等,0,2024-07-05,2024-07-03,篠建商事株式会社,,株式会社,東京都,荒川区,東日暮里１丁目２１番１１号,,13,118,1160014,,,2024-07-03,清算の結了等,,,2015-10-05,1,,,,,シノケンショウジ,0
83,1012301010304,登記記録の閉鎖等,0,2024-07-05,2024-07-02,ハウジングリアルティ株式会社,,株式会社,神奈川県,愛甲郡愛川町,半原１９３６,,14,401,2430307,,,2024-07-02,清算の結了等,,,2015-11-04,1,,,,,ハウジングリアルティ,0
84,1012302005567,登記記録の閉鎖等,0,2024-07-05,2024-07-01,有限会社ナガイ,,有限会社,東京都,町田市,小野路町２４５０番地４,,13,209,1950064,,,2024-07-01,清算の結了等,,,2015-10-05,1,,,,,ナガイ,0
88,1012405003798,登記記録の閉鎖等,0,2024-07-05,2024-07-03,一般社団法人きくっと,,その他の設立登記法人,東京都,武蔵野市,境４丁目５番１５号,,13,203,1800022,,,2024-07-03,清算の結了等,,,2015-10-05,1,,,,,キクット,0
100,1013301051222,登記記録の閉鎖等,0,2024-07-05,2024-06-26,株式会社バベル,,株式会社,東京都,豊島区,池袋２丁目１７番８号天翔池袋西口ＡＮＮＥＸビル４０９,,13,116,1710014,,,2024-06-26,清算の結了等,,,2023-08-18,1,,,,,バベル,0
122,1030001015613,登記記録の閉鎖等,0,2024-07-05,2024-07-03,株式会社セブン,,株式会社,埼玉県,志木市,本町５丁目１７－２－３１６,,11,228,3530004,,,2024-07-03,清算の結了等,,,2015-10-05,1,,,,,セブン,0
123,1030001016215,登記記録の閉鎖等,0,2024-07-05,2024-07-01,株式会社ＦＣＲ,,株式会社,埼玉県,さいたま市見沼区,大字大谷７８６－１,,11,104,3370014,,,2024-07-01,清算の結了等,,,2015-10-05,1,,,,,,0
160,1070001016434,登記記録の閉鎖等,0,2024-07-05,2024-07-01,萩原染色株式会社,,株式会社,群馬県,桐生市,広沢町１丁目２５０９番地１,,10,203,3760013,,,2024-07-01,清算の結了等,,,2015-10-05,1,,,,,ハギワラセンショク,0
171,1080402002908,登記記録の閉鎖等,0,2024-07-05,2024-07-01,有限会社宏和ラボ,,有限会社,静岡県,浜松市中央区,葵西５丁目１８番２０号,,22,138,4338111,,,2024-07-01,清算の結了等,,,2015-10-05,1,,,,,コウワラボ,0
176,1100002026412,登記記録の閉鎖等,0,2024-07-05,2024-06-17,株式会社さわど,,株式会社,東京都,千代田区,丸の内２丁目２番１号岸本ビル８１５区,,13,101,1000005,,,2024-06-17,清算の結了等,,,2015-10-05,1,,,,,サワド,0
187,1120001229856,登記記録の閉鎖等,0,2024-07-05,2024-07-02,株式会社ＡＨＭ,,株式会社,大阪府,大阪市福島区,鷺洲５丁目１２番２－９４１号,,27,103,5530002,,,2024-07-02,清算の結了等,,,2020-06-19,1,,,,,エーエイチエム,0
200,1120002060038,登記記録の閉鎖等,0,2024-07-05,2024-07-01,有限会社八大,,有限会社,大阪府,大阪市平野区,長吉長原西２丁目２番１２号,,27,126,5470015,,,2024-07-01,合併による解散等,1120001184696,令和６年７月１日大阪市平野区長吉長原西二丁目２番１２号株式会社Ｎｐｏｗｅｒ（1120001184696）に合併し解散,2015-10-05,1,,,,,ハチダイ,0
204,1120102000364,登記記録の閉鎖等,0,2024-07-05,2024-07-01,有限会社イー・エヌ・シー,,有限会社,大阪府,堺市中区,毛穴町３２６番地の１,,27,142,5998266,,,2024-07-01,清算の結了等,,,2015-10-05,1,,,,,イーエヌシー,0
208,1122003002860,登記記録の閉鎖等,0,2024-07-05,2024-07-03,合同会社しまかぜ,,合同会社,大阪府,東大阪市,友井３丁目４番２号,,27,227,5770816,,,2024-07-03,清算の結了等,,,2024-04-15,1,,,,,シマカゼ,0
211,1130001019042,登記記録の閉鎖等,0,2024-07-05,2024-06-28,株式会社村上ムービング,,株式会社,京都府,京都市下京区,西木屋町四条下ル船頭町１９０番地,,26,106,6000000,,,2024-06-28,合併による解散等,3130001019040,令和６年６月２８日京都市下京区西木屋町四条下る船頭町１９０番地株式会社村上重本店（3130001019040）に合併し解散,2015-10-05,1,,,,,ムラカミムービング,0
213,1130001047381,登記記録の閉鎖等,0,2024-07-05,2024-07-01,株式会社丹波豆福堂,,株式会社,京都府,福知山市,夜久野町井田５２０番地,,26,201,6291303,,,2024-07-01,清算の結了等,,,2015-10-05,1,,,,,タンバマメフクドウ,0
230,1160001007003,登記記録の閉鎖等,0,2024-07-05,2024-07-02,二葉産業株式会社,,株式会社,滋賀県,長浜市,八幡中山町６７９番地,,25,203,5260021,,,2024-07-02,清算の結了等,,,2015-10-05,1,,,,,フタバサンギョウ,0
243,1180002015390,登記記録の閉鎖等,0,2024-07-05,2024-06-21,有限会社飯島屋,,有限会社,愛知県,名古屋市東区,泉２丁目１３番１５号,,23,102,4610001,,,2024-06-21,清算の結了等,,,2015-10-05,1,,,,,イイジマヤ,0
248,1190002020794,登記記録の閉鎖等,0,2024-07-05,2024-07-02,有限会社大晃マンシヨン,,有限会社,三重県,四日市市,桜台２丁目５番地の５５３,,24,202,5121214,,,2024-07-02,清算の結了等,,,2015-10-05,1,,,,,タイコウマンシヨン,0
252,1210001007253,登記記録の閉鎖等,0,2024-07-05,2024-07-03,株式会社つるや旅館,,株式会社,福井県,あわら市,温泉４丁目６０１番地,,18,208,9104104,,,2024-07-03,清算の結了等,,,2015-10-05,1,,,,,ツルヤリョカン,0
259,1230005003767,登記記録の閉鎖等,0,2024-07-05,2024-07-03,中西グループ協同組合,,その他の設立登記法人,富山県,黒部市,前沢４３７１番地,,16,207,9380806,,,2024-07-03,清算の結了等,,,2015-10-05,1,,,,,ナカニシグループ,0
295,1380001017335,登記記録の閉鎖等,0,2024-07-05,2024-07-01,株式会社カークリーン会津,,株式会社,福島県,会津若松市,亀賀１丁目２番地の４,,07,202,9650028,,,2024-07-01,合併による解散等,2380001000777,令和６年７月１日福島市本内字北古舘９番地大久自動車販売株式会社（2380001000777）に合併し解散,2015-10-05,1,,,,,カークリーンアイヅ,0
300,1390001012335,登記記録の閉鎖等,0,2024-07-05,2024-06-21,根岸コーポレーション株式会社,,株式会社,山形県,寒河江市,石持町１番２８号,,06,206,9910027,,,2024-06-21,清算の結了等,,,2015-10-05,1,,,,,ネギシコーポレーション,0
307,1430001022115,登記記録の閉鎖等,0,2024-07-05,2024-07-01,北海消防機材株式会社,,株式会社,北海道,札幌市中央区,北五条西２０丁目２番３号,,01,101,0600005,,,2024-07-01,合併による解散等,1430001004187,令和６年７月１日札幌市中央区北五条西二十丁目２番３号株式会社ＨＳＫホールディングス（1430001004187）に合併し解散,2015-10-05,1,,,,,ホッカイショウボウキザイ,0
317,1480002005023,登記記録の閉鎖等,0,2024-07-05,2024-07-01,有限会社モリケン,,有限会社,徳島県,徳島市,国府町中２４番地の８,,36,201,7793124,,,2024-07-01,清算の結了等,,,2015-10-05,1,,,,,モリケン,0
332,2010401164275,登記記録の閉鎖等,0,2024-07-05,2024-06-21,アルマダメディカルサービス株式会社,,株式会社,東京都,港区,南青山２丁目２３番８号,,13,103,1070062,,,2024-06-21,清算の結了等,,,2021-12-06,1,,,,,アルマダメディカルサービス,0
340,2010705000589,登記記録の閉鎖等,0,2024-07-05,2024-06-27,戸越公園中央商店街振興組合,,その他の設立登記法人,東京都,品川区,戸越５丁目７番１８号,,13,109,1420041,,,2024-06-27,清算の結了等,,,2015-10-05,1,,,,,トゴシコウエンチュウオウ,0
361,2011401020781,登記記録の閉鎖等,0,2024-07-05,2024-07-01,株式会社マイト,,株式会社,東京都,板橋区,板橋３丁目３５番１号,,13,119,1730004,,,2024-07-01,清算の結了等,,,2018-01-24,1,,,,,マイト,0
375,2012401014633,登記記録の閉鎖等,0,2024-07-05,2024-07-02,株式会社ワーク・ワークス,,株式会社,東京都,調布市,布田２丁目１２番地２Ｄクラディア調布１０３,,13,208,1820024,,,2024-07-02,清算の結了等,,,2015-10-05,1,,,,,ワークワークス,0
428,2050001031789,登記記録の閉鎖等,0,2024-07-05,2024-07-02,株式会社丸喜,,株式会社,茨城県,桜川市,真壁町古城１８２番地,,08,231,3004407,,,2024-07-02,清算の結了等,,,2015-10-05,1,,,,,マルキ,0
431,2050002037281,登記記録の閉鎖等,0,2024-07-05,2024-07-02,有限会社上野屋酒店,,有限会社,茨城県,取手市,宮和田１１７３番地の１５,,08,217,3001514,,,2024-07-02,清算の結了等,,,2015-10-05,1,,,,,ウエノヤサケテン,0
433,2050002039559,登記記録の閉鎖等,0,2024-07-05,2024-07-01,石塚タクシー有限会社,,有限会社,茨城県,常総市,豊岡町乙１１９３番地の１,,08,211,3030041,,,2024-07-01,清算の結了等,,,2015-10-05,1,,,,,イシズカタクシー,0
440,2080002017388,登記記録の閉鎖等,0,2024-07-05,2024-06-25,有限会社小柳津自動車鈑金塗装,00067590,有限会社,静岡県,藤枝市,八幡４８１番地の１,,22,214,4260009,,,2024-06-25,清算の結了等,,,2015-10-05,1,,,,,オヤイヅジドウシャバンキントソウ,0
445,2100002018796,登記記録の閉鎖等,0,2024-07-05,2024-06-25,有限会社クリーンサービス,,有限会社,長野県,中野市,大字金井１１０３番地２,,20,211,3830008,,,2024-06-25,清算の結了等,,,2015-10-05,1,,,,,クリーンサービス,0
447,2110001025017,登記記録の閉鎖等,0,2024-07-05,2024-06-27,株式会社梨本建設,,株式会社,新潟県,見附市,今町３丁目１１番２３号,,15,211,9540111,,,2024-06-27,清算の結了等,,,2015-10-05,1,,,,,ナシモトケンセツ,0
448,2110001036716,登記記録の閉鎖等,0,2024-07-05,2024-06-27,株式会社創造遊園地,,株式会社,新潟県,新潟市東区,卸新町１丁目９２４番地８,,15,102,9500863,,,2024-06-27,清算の結了等,,,2022-06-06,1,,,,,ソウゾウユウエンチ,0
451,2110002019793,登記記録の閉鎖等,0,2024-07-05,2024-06-17,有限会社シミズアートセンター,,有限会社,新潟県,燕市,熊森１５２８番地１,,15,213,9590112,,,2024-06-17,清算の結了等,,,2015-10-05,1,,,,,シミズアートセンター,0
454,2120001060368,登記記録の閉鎖等,0,2024-07-05,2024-07-01,株式会社アペルト,,株式会社,大阪府,大阪市西区,立売堀１丁目１番１号,,27,106,5500012,,,2024-07-01,清算の結了等,,,2015-10-05,1,,,,,アペルト,0
458,2120001236034,登記記録の閉鎖等,0,2024-07-05,2024-07-02,株式会社さくら環境,,株式会社,大阪府,門真市,幸福町１－１８－１０２号,,27,223,5710066,,,2024-07-02,清算の結了等,,,2021-03-18,1,,,,,サクラカンキョウ,0
485,2140001083788,登記記録の閉鎖等,0,2024-07-05,2024-07-01,株式会社ピアスペース,,株式会社,兵庫県,宝塚市,川面６丁目９番１０号,,28,214,6650842,,,2024-07-01,清算の結了等,,,2015-10-05,1,,,,,ピアスペース,0
486,2140001083920,登記記録の閉鎖等,0,2024-07-05,2024-06-28,ダイイチホーム株式会社,,株式会社,兵庫県,川西市,小戸２丁目７番１７号,,28,217,6660014,,,2024-06-28,清算の結了等,,,2015-10-05,1,,,,,ダイイチホーム,0
490,2150001005139,登記記録の閉鎖等,0,2024-07-05,2024-07-01,東生駒測量株式会社,,株式会社,奈良県,生駒市,小明町１０４０番地１,,29,209,6300201,,,2024-07-01,清算の結了等,,,2015-10-05,1,,,,,ヒガシイコマソクリョウ,0
496,2180001067845,登記記録の閉鎖等,0,2024-07-05,2024-06-20,株式会社シマガス機器サービス,,株式会社,愛知県,長久手市,岩作字籔田５番地,,23,238,4801100,,,2024-06-20,清算の結了等,,,2015-10-05,1,,,,,シマガスキキサービス,0
509,2190002015091,登記記録の閉鎖等,0,2024-07-05,2024-07-01,有限会社小林建設,,有限会社,三重県,多気郡多気町,笠木５８０番地の１,,24,441,5192162,,,2024-07-01,清算の結了等,,,2015-10-05,1,,,,,コバヤシケンセツ,0
510,2190005008654,登記記録の閉鎖等,0,2024-07-05,2024-07-01,医療法人山下会,,その他の設立登記法人,三重県,四日市市,八田１丁目１３番１７号,,24,202,5100001,,,2024-07-01,清算の結了等,,,2015-10-05,1,,,,,ヤマシタカイ,0
543,2290802025949,登記記録の閉鎖等,0,2024-07-05,2024-06-21,有限会社かばしまビル,,有限会社,福岡県,北九州市八幡西区,さつき台２丁目１番６号,,40,109,8070868,,,2024-06-21,清算の結了等,,,2015-10-05,1,,,,,カバシマビル,0
570,2370202000478,登記記録の閉鎖等,0,2024-07-05,2024-06-24,有限会社三電工事,,有限会社,宮城県,大崎市,三本木坂本字青山３１番地の４２,,04,215,9896311,,,2024-06-24,清算の結了等,,,2015-10-05,1,,,,,サンデンコウジ,0
578,2390003000989,登記記録の閉鎖等,0,2024-07-05,2024-06-20,合同会社ＭＳ興産,,合同会社,山形県,寒河江市,緑町５０番地,,06,206,9910062,,,2024-06-20,清算の結了等,,,2015-10-05,1,,,,,エムエスコウサン,0
581,2402701000582,登記記録の閉鎖等,0,2024-07-05,2024-06-24,株式会社匠技建,,株式会社,岩手県,大船渡市,大船渡町字赤沢１２番地１５,,03,203,0220002,,,2024-06-24,清算の結了等,,,2015-10-05,1,,,,,タクミギケン,0
583,2420001004815,登記記録の閉鎖等,0,2024-07-05,2024-06-21,青森港運株式会社,,株式会社,青森県,青森市,大字三内字丸山３９３番地２１４,,02,201,0380031,,,2024-06-21,清算の結了等,,,2015-10-05,1,,,,,アオモリコウウン,0
598,2470002009726,登記記録の閉鎖等,0,2024-07-05,2024-06-28,有限会社長尾建材,,有限会社,香川県,高松市,香川町浅野７３７番地５２,,37,201,7611703,,,2024-06-28,清算の結了等,,,2015-10-05,1,,,,,ナガオケンザイ,0
601,2490002007629,登記記録の閉鎖等,0,2024-07-05,2024-07-01,有限会社ホイス,,有限会社,高知県,高知市,針木北２丁目１番９－２号,,39,201,7808087,,,2024-07-01,清算の結了等,,,2015-10-05,1,,,,,,0
648,3011001153535,登記記録の閉鎖等,0,2024-07-05,2024-06-21,株式会社エスタイル・テック,,株式会社,東京都,渋谷区,神宮前３丁目２５番１４号エスラ原宿ビル８Ｆ,,13,113,1500001,,,2024-06-21,清算の結了等,,,2023-04-06,1,,,,,エスタイルテック,0
658,3011101086107,登記記録の閉鎖等,0,2024-07-05,2024-06-26,ＥＳＵＮ　ＰＬＵＳ株式会社,,株式会社,東京都,新宿区,高田馬場３丁目３６番７号,,13,104,1690075,,,2024-06-26,清算の結了等,,,2018-11-27,1,,,,,イーセンプラス,0
663,3011301003786,登記記録の閉鎖等,0,2024-07-05,2024-07-01,株式会社センターフォーリスト,,株式会社,東京都,杉並区,西荻北２丁目３６番９号,,13,115,1670042,,,2024-07-01,清算の結了等,,,2015-10-05,1,,,,,センターフォーリスト,0
665,3011301018462,登記記録の閉鎖等,0,2024-07-05,2024-07-01,株式会社ユナイテッド・オーシャン,,株式会社,東京都,杉並区,和泉４丁目１７番１３号,,13,115,1680063,,,2024-07-01,清算の結了等,,,2015-10-05,1,,,,,ユナイテッドオーシャン,0
711,3030002000760,登記記録の閉鎖等,0,2024-07-05,2024-07-01,有限会社アサヒラ水工,,有限会社,埼玉県,さいたま市見沼区,春岡２丁目３１番地８,,11,104,3370008,,,2024-07-01,清算の結了等,,,2015-10-05,1,,,,,アサヒラスイコウ,0
713,3030003013893,登記記録の閉鎖等,0,2024-07-05,2024-07-01,１０１ｓｔｙｌｅ合同会社,,合同会社,埼玉県,比企郡川島町,大字鳥羽井新田３３番地３,,11,346,3500112,,,2024-07-01,清算の結了等,,,2019-08-02,1,,,,,ワンオーワンスタイル,0
726,3040002092616,登記記録の閉鎖等,0,2024-07-05,2024-06-24,有限会社斉藤商事,,有限会社,千葉県,我孫子市,東我孫子２丁目３６番１０号,,12,222,2701144,,,2024-06-24,清算の結了等,,,2015-10-05,1,,,,,サイトウショウジ,0
738,3070002014765,登記記録の閉鎖等,0,2024-07-05,2024-07-01,有限会社クオーレ・トータルサービス,,有限会社,群馬県,安中市,安中２丁目２番３６号三沢ビル３階,,10,211,3790116,,,2024-07-01,清算の結了等,,,2015-10-05,1,,,,,クオーレトータルサービス,0
743,3080401003921,登記記録の閉鎖等,0,2024-07-05,2024-07-01,日通浜松運輸株式会社,,株式会社,静岡県,浜松市中央区,神田町１３９９番地１,,22,138,4328047,,,2024-07-01,清算の結了等,,,2015-10-05,1,,,,,ニッツウハママツウンユ,0
748,3100002034421,登記記録の閉鎖等,0,2024-07-05,2024-06-27,有限会社細田染織,,有限会社,長野県,上伊那郡宮田村,３３７７番地,,20,388,3994301,,,2024-06-27,清算の結了等,,,2015-10-05,1,,,,,ホソダセンショク,0
749,3100003004274,登記記録の閉鎖等,0,2024-07-05,2024-06-26,信州高地栽食品合同会社,,合同会社,長野県,諏訪郡原村,１１８３９番地,,20,363,3910100,,,2024-06-26,清算の結了等,,,2015-10-05,1,,,,,シンシュウコウチサイショクヒン,0
760,3120001249522,登記記録の閉鎖等,0,2024-07-05,2024-07-04,ＹＯＵＢＵＮ株式会社,,株式会社,大阪府,東大阪市,岩田町３丁目１０番２号,,27,227,5780941,,,2024-07-04,清算の結了等,,,2022-10-13,1,,,,,ヨウブン,0
800,3140002006020,登記記録の閉鎖等,0,2024-07-05,2024-07-02,有限会社サンワ電工,,有限会社,兵庫県,神戸市垂水区,南多聞台４丁目１番２５－１０３号,,28,108,6550043,,,2024-07-02,清算の結了等,,,2015-10-05,1,,,,,サンワデンコウ,0
812,3180002061433,登記記録の閉鎖等,0,2024-07-05,2024-06-25,有限会社ジオセント,,有限会社,愛知県,刈谷市,井ケ谷町石根１番地３０,,23,210,4480001,,,2024-06-25,清算の結了等,,,2015-10-05,1,,,,,ジオセント,0
830,3220001011104,登記記録の閉鎖等,0,2024-07-05,2024-07-01,株式会社Ｉ．Ｄ考房,,株式会社,石川県,金沢市,高畠２丁目７８番地,,17,201,9218001,,,2024-07-01,合併による解散等,8220001024225,令和６年７月１日石川県金沢市高畠二丁目７８番地株式会社まさとシステム（8220001024225）に合併し解散,2015-10-05,1,,,,,アイディーコウボウ,0
835,3240001039894,登記記録の閉鎖等,0,2024-07-05,2024-07-01,株式会社ラ・ベルフィーユ,,株式会社,広島県,三原市,小泉町４９８１番地３,,34,204,7292361,,,2024-07-01,清算の結了等,,,2015-10-05,1,,,,,ラベルフィーユ,0
851,3290001101682,登記記録の閉鎖等,0,2024-07-05,2024-06-10,ＮＡＫＡＹＡＭＡ　ＩＮＤＵＳＴＲＩＥＳ株式会社,,株式会社,福岡県,朝倉郡筑前町,下高場９５０番地２７,00130655,40,447,8380211,,,2024-06-10,清算の結了等,,,2023-05-29,1,,,,,ナカヤマインダストリーズ,0
862,3330002022510,登記記録の閉鎖等,0,2024-07-05,2024-06-26,有限会社玉杵名夢工房,,有限会社,熊本県,玉名市,玉名２５３番地１,,43,206,8650005,,,2024-06-26,清算の結了等,,,2015-10-05,1,,,,,タマキナユメコウボウ,0
885,3380003003595,登記記録の閉鎖等,0,2024-07-05,2024-06-27,合同会社Ｙ・Ｋ工業,,合同会社,福島県,いわき市,小名浜大原字丁新地２４２番地の２１,,07,204,9718111,,,2024-06-27,清算の結了等,,,2016-04-01,1,,,,,ワイケイコウギョウ,0
917,4010001054882,登記記録の閉鎖等,0,2024-07-05,2024-06-25,東日本機器鋼業株式会社,,株式会社,東京都,中央区,日本橋１丁目２番１９号,,13,102,1030027,,,2024-06-25,清算の結了等,,,2015-10-05,1,,,,,ヒガシニホンキキコウギョウ,0
955,4010802016429,登記記録の閉鎖等,0,2024-07-05,2024-06-27,有限会社サン・ケイ電子,,有限会社,東京都,大田区,西糀谷３丁目１１番７号,,13,111,1440034,,,2024-06-27,清算の結了等,,,2015-10-05,1,,,,,サンケイデンシ,0
965,4011003014313,登記記録の閉鎖等,0,2024-07-05,2024-06-20,タイソンキャピタル２号合同会社,,合同会社,東京都,渋谷区,上原１丁目１７番１４号,,13,113,1510064,,,2024-06-20,清算の結了等,,,2022-03-07,1,,,,,タイソンキャピタルニゴウ,0
1003,4013301048356,登記記録の閉鎖等,0,2024-07-05,2024-06-27,たけのこ株式会社,,株式会社,東京都,豊島区,池袋２丁目６２番４号,,13,116,1710014,,,2024-06-27,清算の結了等,,,2021-12-01,1,,,,,タケノコ,0
1006,4013302015611,登記記録の閉鎖等,0,2024-07-05,2024-07-01,有限会社一心,,有限会社,東京都,板橋区,本町１８番１０－１０２号コスモ板橋本町シティフォルム,,13,119,1730001,,,2024-07-01,清算の結了等,,,2015-10-05,1,,,,,イッシン,0
1009,4020001138164,登記記録の閉鎖等,0,2024-07-05,2024-06-19,ＺＥＥＬＯＯＬ株式会社,,株式会社,神奈川県,横浜市中区,末吉町１丁目７番地７－１１０４,,14,104,2310055,,,2024-06-19,清算の結了等,,,2020-10-15,1,,,,,ゼル,0
1016,4021001043263,登記記録の閉鎖等,0,2024-07-05,2024-07-03,株式会社ケイエムエフ,,株式会社,神奈川県,横須賀市,根岸町４丁目３９番２１号,,14,201,2390807,,,2024-07-03,清算の結了等,,,2015-10-05,1,,,,,ケイエムエフ,0
1036,4030002023819,登記記録の閉鎖等,0,2024-07-05,2024-07-01,株式会社エステートワールド,,株式会社,埼玉県,戸田市,笹目１丁目３番地の８,,11,224,3350034,,,2024-07-01,合併による解散等,4030001020040,令和６年７月１日埼玉県戸田市笹目一丁目３番地の８株式会社一本木（4030001020040）に合併し解散,2015-10-05,1,,,,,エステートワールド,0
1052,4060002010104,登記記録の閉鎖等,0,2024-07-05,2024-07-01,有限会社ナカノエンターテイメント,,有限会社,栃木県,宇都宮市,富士見が丘４丁目３０番１０号,,09,201,3200011,,,2024-07-01,合併による解散等,8060001007056,令和６年７月１日栃木県宇都宮市富士見が丘四丁目３０番１０号株式会社ネオクリエイト（8060001007056）に合併し解散,2015-10-05,1,,,,,ナカノエンターテイメント,0
1056,4070002019318,登記記録の閉鎖等,0,2024-07-05,2024-07-01,有限会社高柳精工,,有限会社,群馬県,伊勢崎市,日乃出町５８２番地５,,10,204,3720022,,,2024-07-01,清算の結了等,,,2015-10-05,1,,,,,タカヤナギセイコウ,0
1061,4080102006710,登記記録の閉鎖等,0,2024-07-05,2024-07-02,有限会社エス・ケーカンパニー,,有限会社,静岡県,御殿場市,中山５４０番地,,22,215,4120035,,,2024-07-02,清算の結了等,,,2015-10-05,1,,,,,エスケーカンパニー,0
1067,4100002008738,登記記録の閉鎖等,0,2024-07-05,2024-06-27,有限会社三正電機,,有限会社,長野県,須坂市,大字小島８５９番地,,20,207,3820000,,,2024-06-27,清算の結了等,,,2015-10-05,1,,,,,ミツマサデンキ,0
1095,4120101044599,登記記録の閉鎖等,0,2024-07-05,2024-07-01,株式会社里山石材工芸,,株式会社,大阪府,阪南市,尾崎町２丁目１番７号,,27,232,5990201,,,2024-07-01,清算の結了等,,,2015-10-05,1,,,,,サトヤマセキザイコウゲイ,0
1109,4130002002102,登記記録の閉鎖等,0,2024-07-05,2024-07-01,有限会社エム・ファクトリー,,有限会社,京都府,京都市上京区,河原町通今出川下ル二丁目栄町３６４番地ハウスセゾンビル３階３０１号,,26,102,6020000,,,2024-07-01,清算の結了等,,,2015-10-05,1,,,,,エムファクトリー,0
1128,4170002008244,登記記録の閉鎖等,0,2024-07-05,2024-07-04,有限会社三宅測量設計,,有限会社,和歌山県,岩出市,西野１８６番地の１６,,30,209,6496235,,,2024-07-04,清算の結了等,,,2015-10-05,1,,,,,ミヤケソクリョウセッケイ,0
1134,4180003019231,登記記録の閉鎖等,0,2024-07-05,2024-06-24,合同会社盛香倫,,合同会社,愛知県,名古屋市千種区,今池５丁目２番４号丸大ビル１Ｆ,,23,101,4640850,,,2024-06-24,清算の結了等,,,2018-08-30,1,,,,,セイカリン,0
1143,4200001022795,登記記録の閉鎖等,0,2024-07-05,2024-07-01,トータルライフ株式会社,,株式会社,岐阜県,多治見市,笠原町２０９４番地の１,,21,204,5070901,,,2024-07-01,清算の結了等,,,2015-10-05,1,,,,,,0
1151,4220002015193,登記記録の閉鎖等,0,2024-07-05,2024-07-01,有限会社長岡,,有限会社,石川県,羽咋市,島出町フ２８番地３,,17,207,9250051,,,2024-07-01,清算の結了等,,,2015-10-05,1,,,,,,0
1172,4290001087756,登記記録の閉鎖等,0,2024-07-05,2024-06-04,ＤＫＩＳ株式会社,,株式会社,福岡県,久留米市,北野町仁王丸１０３番地１,,40,203,8301106,,,2024-06-04,清算の結了等,,,2020-01-15,1,,,,,ディーケーアイエス,0
1187,4340002010463,登記記録の閉鎖等,0,2024-07-05,2024-06-27,有限会社レインメーカー,,有限会社,鹿児島県,鹿児島市,小川町１３番１２号,,46,201,8920817,,,2024-06-27,清算の結了等,,,2015-10-05,1,,,,,レインメーカー,0
1203,4390001007118,登記記録の閉鎖等,0,2024-07-05,2024-06-20,株式会社和音,,株式会社,山形県,酒田市,新井田町１番３４号,,06,204,9980041,,,2024-06-20,清算の結了等,,,2015-10-05,1,,,,,ワオン,0
1204,4390002006614,登記記録の閉鎖等,0,2024-07-05,2024-06-20,有限会社ワイ・エーネットワーク,,有限会社,山形県,山形市,銅町２丁目１４番２７号,,06,201,9900051,,,2024-06-20,清算の結了等,,,2015-10-05,1,,,,,ワイエーネットワーク,0
1205,4400001003800,登記記録の閉鎖等,0,2024-07-05,2024-06-24,日通岩手運輸株式会社,,株式会社,岩手県,盛岡市,永井３１地割１７番地１,,03,201,0200834,,,2024-06-24,清算の結了等,,,2015-10-05,1,,,,,ニッツウイワテウンユ,0
1215,4450001012540,登記記録の閉鎖等,0,2024-07-05,2024-07-01,カズハチコーヒー株式会社,,株式会社,北海道,旭川市,神居二条４丁目２番１４号,,01,204,0708012,,,2024-07-01,清算の結了等,,,2018-09-25,1,,,,,カズハチコーヒー,0
1222,5010001001223,登記記録の閉鎖等,0,2024-07-05,2024-06-25,エルロン電子株式会社,,株式会社,神奈川県,川崎市多摩区,宿河原４丁目２０番９号,,14,135,2140021,,,2024-06-25,清算の結了等,,,2015-10-05,1,,,,,エルロンデンシ,0
1223,5010001011544,登記記録の閉鎖等,0,2024-07-05,2024-06-24,株式会社ウェルシステム,,株式会社,東京都,千代田区,神田和泉町１番地６の１,,13,101,1010024,,,2024-06-24,清算の結了等,,,2015-10-05,1,,,,,ウェルシステム,0
1236,5010003037406,登記記録の閉鎖等,0,2024-07-05,2024-06-18,株式会社キザイヤ,,株式会社,東京都,中央区,銀座１丁目十二番四号Ｎ＆ＥＢＬＤ．七階,,13,102,1040061,,,2024-06-18,清算の結了等,,,2022-04-11,1,,,,,キザイヤ,0
1247,5010501033939,登記記録の閉鎖等,0,2024-07-05,2024-06-28,株式会社ファーストテクノス,,株式会社,東京都,台東区,台東２丁目５番１１号,,13,106,1100016,,,2024-06-28,清算の結了等,,,2015-10-05,1,,,,,ファーストテクノス,0
1284,5011105004681,登記記録の閉鎖等,0,2024-07-05,2024-06-21,特定非営利活動法人代替医療研究機構,,その他の設立登記法人,東京都,港区,新橋５丁目１４－１０新橋スクエアビル７階,,13,103,1050004,,,2024-06-21,清算の結了等,,,2015-10-05,1,,,,,ダイタイイリョウケンキュウキコウ,0
1287,5011402008518,登記記録の閉鎖等,0,2024-07-05,2024-07-01,有限会社ミクロコスモス,,有限会社,東京都,板橋区,板橋２丁目３９番８号,,13,119,1730004,,,2024-07-01,清算の結了等,,,2015-10-05,1,,,,,ミクロコスモス,0
1296,5012302001521,登記記録の閉鎖等,0,2024-07-05,2024-07-01,有限会社北村自動車,,有限会社,東京都,町田市,野津田町１８番地２,,13,209,1950063,,,2024-07-01,清算の結了等,,,2015-10-05,1,,,,,キタムラジドウシャ,0
1306,5013401006130,登記記録の閉鎖等,0,2024-07-05,2024-07-02,株式会社環境化学研究所,,株式会社,東京都,多摩市,愛宕４丁目２８番地１－２０４,,13,224,2060041,,,2024-07-02,清算の結了等,,,2015-10-05,1,,,,,カンキョウカガクケンキュウジョ,0
1325,5021005004475,登記記録の閉鎖等,0,2024-07-05,2024-07-03,はだのエコタウン創生協同組合,,その他の設立登記法人,神奈川県,秦野市,柳町１丁目１５番７号,,14,211,2591315,,,2024-07-03,清算の結了等,,,2015-10-05,1,,,,,ハダノエコタウンソウセイ,0
1332,5030001100056,登記記録の閉鎖等,0,2024-07-05,2024-07-01,株式会社クイック,,株式会社,埼玉県,三郷市,中央１丁目１２番４号ＯＧＣビル,,11,237,3410038,,,2024-07-01,合併による解散等,3030002051762,令和６年６月３０日埼玉県三郷市中央一丁目１２番４号ＯＧＣビル株式会社ＯＧＩＳＨＩ（3030002051762）に合併し解散,2015-10-05,1,,,,,クイック,0
1336,5030001118247,登記記録の閉鎖等,0,2024-07-05,2024-07-01,株式会社Ｐｎ．Ａ,,株式会社,埼玉県,さいたま市中央区,本町西１丁目７番２０－１０７号,,11,105,3380004,,,2024-07-01,清算の結了等,,,2017-01-20,1,,,,,ピーエヌエー,0
1349,5030005020457,登記記録の閉鎖等,0,2024-07-05,2024-07-01,一般社団法人三郷民商会館,,その他の設立登記法人,埼玉県,三郷市,谷口５２３番地５,,11,237,3410042,,,2024-07-01,清算の結了等,,,2021-07-20,1,,,,,ミサトミンショウカイカン,0
1370,5050002026777,登記記録の閉鎖等,0,2024-07-05,2024-06-28,有限会社光不動産,,有限会社,茨城県,鹿嶋市,大字荒野１５４８番地の３,,08,222,3112221,,,2024-06-28,清算の結了等,,,2015-10-05,1,,,,,ヒカリフドウサン,0
1383,5080002011371,登記記録の閉鎖等,0,2024-07-05,2024-06-25,有限会社実文,,有限会社,静岡県,静岡市清水区,八坂東２丁目１番２７号,,22,103,4240024,,,2024-06-25,清算の結了等,,,2015-10-05,1,,,,,ミノブン,0
1393,5080402019543,登記記録の閉鎖等,0,2024-07-05,2024-07-01,有限会社経営アール・アンド・ディー研究所,,有限会社,静岡県,磐田市,鎌田２１６６番地,,22,211,4380038,,,2024-07-01,清算の結了等,,,2015-10-05,1,,,,,ケイエイアールアンドディーケンキュウジョ,0
1394,5080405007355,登記記録の閉鎖等,0,2024-07-05,2024-07-01,一般社団法人くすりｍａｔｅ,,その他の設立登記法人,静岡県,浜松市中央区,富塚町１７０番地の１５,,22,138,4328002,,,2024-07-01,清算の結了等,,,2021-05-24,1,,,,,クスリメイト,0
1396,5100001008515,登記記録の閉鎖等,0,2024-07-05,2024-06-19,株式会社田中,,株式会社,長野県,小諸市,大字柏木１９９番地の１,,20,208,3840055,,,2024-06-19,清算の結了等,,,2015-10-05,1,,,,,タナカ,0
1402,5100002016789,登記記録の閉鎖等,0,2024-07-05,2024-06-19,有限会社昭和電機製作所,,有限会社,長野県,埴科郡坂城町,大字網掛８３番地,,20,521,3890604,,,2024-06-19,清算の結了等,,,2015-10-05,1,,,,,ショウワデンキセイサクショ,0
1403,5100003004116,登記記録の閉鎖等,0,2024-07-05,2024-06-19,合同会社ＫＹＯＫＯ,,合同会社,長野県,松本市,波田９４２５番地３,,20,202,3901401,,,2024-06-19,清算の結了等,,,2015-10-05,1,,,,,キョーコ,0
1416,5120002005443,登記記録の閉鎖等,0,2024-07-05,2024-07-02,有限会社小合製本,,有限会社,大阪府,大阪市東住吉区,杭全４丁目５番２１号,,27,121,5460002,,,2024-07-02,清算の結了等,,,2015-10-05,1,,,,,オゴウセイホン,0
1424,5120103004179,登記記録の閉鎖等,0,2024-07-05,2024-07-01,合同会社ヘルプハンズ大阪,,合同会社,大阪府,泉佐野市,長滝３２６０番地の５－１０３号,,27,213,5980034,,,2024-07-01,清算の結了等,,,2021-05-20,1,,,,,ヘルプハンズ,0
1434,5130001049746,登記記録の閉鎖等,0,2024-07-05,2024-07-01,株式会社ばんば,,株式会社,京都府,京都市南区,吉祥院嶋高町８番地,,26,107,6018372,,,2024-07-01,合併による解散等,9130001058792,令和６年７月１日京都市南区吉祥院石原西町３８番地株式会社Ｄ＆Ｊ（9130001058792）に合併し解散,2015-10-05,1,,,,,バンバ,0
1440,5140001079858,登記記録の閉鎖等,0,2024-07-05,2024-07-01,株式会社和技研,,株式会社,兵庫県,川西市,萩原台西２丁目７９番地,,28,217,6660006,,,2024-07-01,清算の結了等,,,2015-10-05,1,,,,,ワギケン,0
1446,5140002061253,登記記録の閉鎖等,0,2024-07-05,2024-07-01,有限会社フレッシュマルキシ,,有限会社,兵庫県,加東市,下滝野２丁目３３番地,,28,228,6790212,,,2024-07-01,清算の結了等,,,2015-10-05,1,,,,,フレッシュマルキシ,0
1455,5180001080705,登記記録の閉鎖等,0,2024-07-05,2024-06-21,株式会社今盛製作所,,株式会社,愛知県,犬山市,字小洞１５４番地,,23,215,4840855,,,2024-06-21,清算の結了等,,,2015-10-05,1,,,,,イマモリセイサクジョ,0
1463,5180002022714,登記記録の閉鎖等,0,2024-07-05,2024-06-24,イトーゴム化工有限会社,,有限会社,愛知県,名古屋市西区,上名古屋１丁目１０番１号,,23,104,4510025,,,2024-06-24,清算の結了等,,,2015-10-05,1,,,,,イトウゴムカコウ,0
1487,5240001031874,登記記録の閉鎖等,0,2024-07-05,2024-07-01,フォーレスト酒販株式会社,,株式会社,埼玉県,さいたま市大宮区,下町２丁目１番地１,,11,103,3300844,,,2024-07-01,合併による解散等,9030001010870,令和６年７月１日埼玉県さいたま市大宮区下町二丁目１番地１フォーレスト株式会社（9030001010870）に合併し解散,2015-10-05,1,,,,,フォーレストシュハン,0
1489,5240001047482,登記記録の閉鎖等,0,2024-07-05,2024-07-01,株式会社にたきカンパニー,,株式会社,広島県,広島市佐伯区,五日市４丁目１８番１８号清水プラザ２Ｆ,,34,108,7315127,,,2024-07-01,清算の結了等,,,2015-10-05,1,,,,,ニタキカンパニー,0
1491,5240002038514,登記記録の閉鎖等,0,2024-07-05,2024-07-01,若葉工業有限会社,,有限会社,広島県,福山市,沼隈町大字常石１０８３番地,,34,207,7200313,,,2024-07-01,清算の結了等,,,2015-10-05,1,,,,,ワカバコウギョウ,0
1492,5240002040734,登記記録の閉鎖等,0,2024-07-05,2024-06-24,有限会社さかね工芸,,有限会社,広島県,福山市,東手城町２丁目５番１３号,,34,207,7210962,,,2024-06-24,清算の結了等,,,2015-10-05,1,,,,,サカネコウゲイ,0
1494,5250002011511,登記記録の閉鎖等,0,2024-07-05,2024-07-01,有限会社読売ニュースセンター長府西,,有限会社,山口県,下関市,長府金屋町４番１３号,,35,201,7520959,,,2024-07-01,清算の結了等,,,2015-10-05,1,,,,,ヨミウリニュースセンターチョウフニシ,0
1542,5370005002248,登記記録の閉鎖等,0,2024-07-05,2024-06-21,特定非営利活動法人宮城防災アマチュア無線クラブ,,その他の設立登記法人,宮城県,仙台市青葉区,小田原５丁目２－１９第二コーポ七福２０１号,,04,101,9800003,,,2024-06-21,清算の結了等,,,2015-10-05,1,,,,,ミヤギボウサイアマチュアムセンクラブ,0
1552,5420005004701,登記記録の閉鎖等,0,2024-07-05,2024-06-26,弘前流通団地協同組合,,その他の設立登記法人,青森県,弘前市,大字高田３丁目７番地５,,02,202,0368084,,,2024-06-26,清算の結了等,,,2015-10-05,1,,,,,ヒロサキリュウツウダンチ,0
1553,5430001024041,登記記録の閉鎖等,0,2024-07-05,2024-07-01,ワコオクエスト株式会社,,株式会社,北海道,札幌市東区,東苗穂一条３丁目１番５号,,01,103,0070801,,,2024-07-01,合併による解散等,4430001018168,令和６年７月１日札幌市白石区中央三条二丁目１番５０号ワコオ工業株式会社（4430001018168）に合併し解散,2015-10-05,1,,,,,ワコオクエスト,0
1556,5430001073261,登記記録の閉鎖等,0,2024-07-05,2024-07-01,株式会社章北,,株式会社,北海道,札幌市豊平区,平岸四条６丁目１番２０号,,01,105,0620934,,,2024-07-01,清算の結了等,,,2017-02-03,1,,,,,ショウホク,0
1568,6010001133593,登記記録の閉鎖等,0,2024-07-05,2024-07-03,株式会社島野製作所,,株式会社,東京都,荒川区,西日暮里１丁目２７番６号,,13,118,1160013,,,2024-07-03,清算の結了等,,,2015-10-05,1,,,,,シマノセイサクショ,0
1595,6010602008467,登記記録の閉鎖等,0,2024-07-05,2024-07-01,有限会社秋山商事,,有限会社,東京都,墨田区,江東橋３丁目１２番６号,,13,107,1300022,,,2024-07-01,清算の結了等,,,2015-10-05,1,,,,,アキヤマショウジ,0
1596,6010602031683,登記記録の閉鎖等,0,2024-07-05,2024-07-01,有限会社ナイスドット,,有限会社,東京都,江東区,木場２丁目１２番４号,,13,108,1350042,,,2024-07-01,清算の結了等,,,2015-10-05,1,,,,,ナイスドット,0
1604,6010801019991,登記記録の閉鎖等,0,2024-07-05,2024-06-28,株式会社エコー,,株式会社,東京都,大田区,大森西６丁目７番１９号,,13,111,1430015,,,2024-06-28,清算の結了等,,,2015-10-05,1,,,,,エコー,0
1610,6011001120706,登記記録の閉鎖等,0,2024-07-05,2024-06-21,株式会社フィンズ,,株式会社,東京都,渋谷区,神宮前３丁目２５－１４エスラ原宿ビル８Ｆ,,13,113,1500001,,,2024-06-21,清算の結了等,,,2018-02-21,1,,,,,フィンズ,0
1627,6011502015859,登記記録の閉鎖等,0,2024-07-05,2024-07-02,有限会社マルイチ工芸,,有限会社,東京都,北区,西が丘２丁目３番８号,,13,117,1150056,,,2024-07-02,清算の結了等,,,2015-10-05,1,,,,,マルイチコウゲイ,0
1637,6012402022004,登記記録の閉鎖等,0,2024-07-05,2024-06-28,有限会社シュウエンタープライズ,,有限会社,東京都,武蔵野市,吉祥寺南町５丁目１３番１２号,,13,203,1800003,,,2024-06-28,清算の結了等,,,2015-10-05,1,,,,,シュウエンタープライズ,0
1638,6012403005387,登記記録の閉鎖等,0,2024-07-05,2024-07-02,合同会社Ａｘｅｌ,,合同会社,東京都,府中市,府中町２丁目６番地の１７リトルアージュ５０５,,13,206,1830055,,,2024-07-02,清算の結了等,,,2022-05-26,1,,,,,アクセル,0
1651,6020002068796,登記記録の閉鎖等,0,2024-07-05,2024-06-24,有限会社中西不動産鑑定事務所,,有限会社,神奈川県,横浜市中区,山下町２１１番地８－７０３,,14,104,2310023,,,2024-06-24,清算の結了等,,,2015-10-05,1,,,,,ナカニシフドウサンカンテイジムショ,0
1659,6021002066765,登記記録の閉鎖等,0,2024-07-05,2024-07-03,細川工業有限会社,,有限会社,神奈川県,三浦市,初声町下宮田１０７９番地２００,,14,210,2380111,,,2024-07-03,清算の結了等,,,2015-10-05,1,,,,,ホソカワコウギョウ,0
1666,6030001116225,登記記録の閉鎖等,0,2024-07-05,2024-07-01,星野電業株式会社,,株式会社,埼玉県,和光市,南１丁目８番４９号,,11,229,3510104,,,2024-07-01,清算の結了等,,,2016-09-06,1,,,,,,0
1680,6040001126256,登記記録の閉鎖等,0,2024-07-05,2024-06-24,株式会社Ｍ．Ｊ　Ｓｏｌｕｔｉｏｎｓ,,株式会社,千葉県,柏市,南高柳一丁目１番地,,12,217,2770944,,,2024-06-24,清算の結了等,,,2022-12-15,1,,,,,エムジェイソリューションズ,0
1693,6050005008680,登記記録の閉鎖等,0,2024-07-05,2024-07-01,特定非営利活動法人さくら大宮,,その他の設立登記法人,茨城県,常陸大宮市,中富町３１３４番地の９,,08,225,3192265,,,2024-07-01,清算の結了等,,,2015-10-05,1,,,,,サクラオオミヤ,0
1694,6060002038960,登記記録の閉鎖等,0,2024-07-05,2024-06-27,有限会社權兵衛,,有限会社,栃木県,佐野市,浅沼町７５３番地,,09,204,3270831,,,2024-06-27,清算の結了等,,,2015-10-05,1,,,,,ゴンベエ,0
1696,6070001000697,登記記録の閉鎖等,0,2024-07-05,2024-07-02,株式会社関東片倉製作所,,株式会社,群馬県,前橋市,河原浜町３６１番地,,10,201,3710224,,,2024-07-02,合併による解散等,9070001000694,令和６年７月１日群馬県前橋市鳥取町１５３番地１株式会社関東高圧容器製作所（9070001000694）に合併し解散,2015-10-05,1,,,,,カントウカタクラセイサクジョ,0
1717,6110001021524,登記記録の閉鎖等,0,2024-07-05,2024-06-27,株式会社苗場農産,,株式会社,新潟県,中魚沼郡津南町,大字下船渡丁３６８０番地１,,15,482,9498201,,,2024-06-27,清算の結了等,,,2015-10-05,1,,,,,ナエバノウサン,0
1724,6120001214886,登記記録の閉鎖等,0,2024-07-05,2024-07-01,株式会社Ｐ．Ｆ．Ｅ,,株式会社,大阪府,寝屋川市,高宮栄町２５－３２,,27,215,5720846,,,2024-07-01,合併による解散等,9120001187378,令和６年７月１日大阪府寝屋川市香里本通町９番２９号Ｙ・ｅａｓｔ株式会社（9120001187378）に合併し解散,2018-07-25,1,,,,,ピーエフイー,0
1733,6120003012545,登記記録の閉鎖等,0,2024-07-05,2024-07-03,テクニカル・サポート合同会社,,合同会社,大阪府,寝屋川市,下木田町５番１６号,,27,215,5720823,,,2024-07-03,清算の結了等,,,2017-03-03,1,,,,,テクニカルサポート,0
1739,6120103004178,登記記録の閉鎖等,0,2024-07-05,2024-07-01,合同会社日本広域福祉連合会,,合同会社,大阪府,泉佐野市,長滝３２６０番地の５－１０２号,,27,213,5980034,,,2024-07-01,清算の結了等,,,2021-05-20,1,,,,,ニホンコウイキフクシレンゴウカイ,0
1749,6122002006511,登記記録の閉鎖等,0,2024-07-05,2024-07-01,丸一不動産有限会社,,有限会社,大阪府,東大阪市,西岩田３丁目３番１３－１４０８号,,27,227,5780947,,,2024-07-01,清算の結了等,,,2015-10-05,1,,,,,マルイチフドウサン,0
1766,6140001074602,登記記録の閉鎖等,0,2024-07-05,2024-07-01,株式会社ルナセラピー,,株式会社,兵庫県,西宮市,上大市２丁目２０－１９,,28,204,6638003,,,2024-07-01,清算の結了等,,,2015-10-05,1,,,,,ルナセラピー,0
1776,6140002051377,登記記録の閉鎖等,0,2024-07-05,2024-07-01,有限会社山口商会,,有限会社,兵庫県,姫路市,山田町西山田６３４番地の１,,28,201,6792115,,,2024-07-01,清算の結了等,,,2015-10-05,1,,,,,ヤマグチショウカイ,0
1791,6200001000568,登記記録の閉鎖等,0,2024-07-05,2024-07-01,エーテック設計株式会社,,株式会社,岐阜県,岐阜市,五坪１丁目３番１－２０４号,,21,201,5008157,,,2024-07-01,清算の結了等,,,2015-10-05,1,,,,,エーテックセッケイ,0
1803,6220001016331,登記記録の閉鎖等,0,2024-07-05,2024-07-01,大和リサイクルセンター株式会社,,株式会社,石川県,羽咋郡志賀町,矢蔵谷井１５番地５,,17,384,9250156,,,2024-07-01,清算の結了等,,,2015-10-05,1,,,,,ヤマトリサイクルセンター,0
1806,6230005005552,登記記録の閉鎖等,0,2024-07-05,2024-07-01,農事組合法人となみ野自然食品組合,,その他の設立登記法人,富山県,南砺市,梅ケ島１６７番地の１,,16,210,9391542,,,2024-07-01,清算の結了等,,,2015-10-05,1,,,,,トナミノシゼンショクヒンクミアイ,0
1845,6390002009111,登記記録の閉鎖等,0,2024-07-05,2024-06-20,有限会社エーリーズ,,有限会社,山形県,鶴岡市,三瀬戊２０８番地,,06,203,9997463,,,2024-06-20,清算の結了等,,,2015-10-05,1,,,,,エーリーズ,0
1852,6430001015808,登記記録の閉鎖等,0,2024-07-05,2024-07-01,株式会社北方住文化研究所,,株式会社,北海道,札幌市北区,北十四条西４丁目２番１号,,01,102,0010014,,,2024-07-01,清算の結了等,,,2015-10-05,1,,,,,ホッポウジュウブンカケンキュウショ,0
1860,6460102001365,登記記録の閉鎖等,0,2024-07-05,2024-07-03,有限会社サトーサイディング,,有限会社,北海道,帯広市,南の森西５丁目４番１号,,01,207,0800862,,,2024-07-03,清算の結了等,,,2015-10-05,1,,,,,サトーサイディング,0
1866,6500002015238,登記記録の閉鎖等,0,2024-07-05,2024-06-28,マルエイ商事有限会社,,有限会社,愛媛県,西条市,三津屋東１番６,,38,206,7991352,,,2024-06-28,清算の結了等,,,2015-10-05,1,,,,,マルエイショウジ,0
1871,7010001107340,登記記録の閉鎖等,0,2024-07-05,2024-06-25,株式会社シルクウイング,,株式会社,東京都,中央区,日本橋横山町５番８号横山町奉仕会館内,,13,102,1030003,,,2024-06-25,清算の結了等,,,2015-10-05,1,,,,,シルクウイング,0
1881,7010401118235,登記記録の閉鎖等,0,2024-07-05,2024-06-20,株式会社Ｊ・Ｋ,,株式会社,東京都,港区,港南４丁目１番１０号リバージュ品川４０４号,,13,103,1080075,,,2024-06-20,清算の結了等,,,2015-10-05,1,,,,,,0
1882,7010401141518,登記記録の閉鎖等,0,2024-07-05,2024-07-01,ハリタプライベート・インベストメント株式会社,,株式会社,富山県,高岡市,福岡町大滝１２３７番地１,,16,202,9390132,,,2024-07-01,清算の結了等,,,2018-10-18,1,,,,,ハリタプライベートインベストメント,0
1918,7011101095970,登記記録の閉鎖等,0,2024-07-05,2024-06-26,株式会社オゥシャン,,株式会社,東京都,新宿区,原町２丁目３０番牛込ハイム,,13,104,1620053,,,2024-06-26,清算の結了等,,,2021-08-11,1,,,,,オゥシャン,0
1925,7011301018541,登記記録の閉鎖等,0,2024-07-05,2024-07-01,株式会社佐藤コーポレーション,,株式会社,東京都,杉並区,高円寺北２丁目２１番１号リリーベル高円寺スクエア,,13,115,1660002,,,2024-07-01,清算の結了等,,,2015-10-05,1,,,,,,0
1926,7011401005373,登記記録の閉鎖等,0,2024-07-05,2024-07-01,株式会社ビグ・ブリヂ,,株式会社,東京都,板橋区,南常盤台１丁目７番８号,,13,119,1740072,,,2024-07-01,清算の結了等,,,2015-10-05,1,,,,,ビグブリヂ,0
1947,7013305001754,登記記録の閉鎖等,0,2024-07-05,2024-06-26,特定非営利活動法人ホメロス・コミュニケーションズ,,その他の設立登記法人,東京都,豊島区,長崎５丁目３１番３７号,,13,116,1710051,,,2024-06-26,清算の結了等,,,2015-10-05,1,,,,,ホメロスコミュニケーションズ,0
1965,7030005008467,登記記録の閉鎖等,0,2024-07-05,2024-07-01,医療法人社団上福岡耳鼻咽喉科医院,,その他の設立登記法人,埼玉県,ふじみ野市,福岡中央２丁目１番１０号,,11,245,3560031,,,2024-07-01,清算の結了等,,,2015-10-05,1,,,,,カミフクオカジビインコウカイイン,0
1967,7040001019244,登記記録の閉鎖等,0,2024-07-05,2024-06-24,京葉鐵工設備株式会社,,株式会社,千葉県,船橋市,本町７丁目２１番１号,,12,204,2730005,,,2024-06-24,清算の結了等,,,2015-10-05,1,,,,,ケイヨウテッコウセツビ,0
1970,7040001088628,登記記録の閉鎖等,0,2024-07-05,2024-06-24,株式会社ＹＹニュースカンパニー,,株式会社,千葉県,四街道市,大日１９１番地１２,,12,228,2840001,,,2024-06-24,清算の結了等,,,2015-10-05,1,,,,,,0
1980,7040002053861,登記記録の閉鎖等,0,2024-07-05,2024-06-24,有限会社Ｋ．ｃｏｍｐａｎｙ,,有限会社,千葉県,松戸市,栄町４丁目２０５番地の１,,12,207,2710062,,,2024-06-24,清算の結了等,,,2015-10-05,1,,,,,ケイカンパニー,0
2000,7120001098049,登記記録の閉鎖等,0,2024-07-05,2024-07-03,株式会社アンサンブル,,株式会社,大阪府,大阪市北区,池田町１番１－１４０４号,,27,127,5300033,,,2024-07-03,清算の結了等,,,2015-10-05,1,,,,,アンサンブル,0
2001,7120001133004,登記記録の閉鎖等,0,2024-07-05,2024-07-02,株式会社はりよし,,株式会社,大阪府,大阪市城東区,鴫野西１丁目４番１５号,,27,118,5360014,,,2024-07-02,清算の結了等,,,2015-10-05,1,,,,,ハリヨシ,0
2011,7120002011968,登記記録の閉鎖等,0,2024-07-05,2024-07-01,有限会社ファイブ・ワン,,有限会社,大阪府,大阪市平野区,長吉川辺１丁目３番１５号,,27,126,5470014,,,2024-07-01,合併による解散等,1120001184696,令和６年７月１日大阪市平野区長吉長原西二丁目２番１２号株式会社Ｎｐｏｗｅｒ（1120001184696）に合併し解散,2015-10-05,1,,,,,ファイブワン,0
2022,7120103004177,登記記録の閉鎖等,0,2024-07-05,2024-07-01,合同会社南大阪経済研究所,,合同会社,大阪府,泉佐野市,長滝３２６０番地の５－１０１号,,27,213,5980034,,,2024-07-01,清算の結了等,,,2021-05-20,1,,,,,ミナミオオサカケイザイケンキュウショ,0
2031,7120902019292,登記記録の閉鎖等,0,2024-07-05,2024-07-02,有限会社ナターシャ,,有限会社,大阪府,豊中市,本町２丁目１番２１－２０１号,,27,203,5600021,,,2024-07-02,清算の結了等,,,2015-10-05,1,,,,,ナターシャ,0
2035,7130001030803,登記記録の閉鎖等,0,2024-07-05,2024-07-01,とうえいシステム株式会社,,株式会社,京都府,乙訓郡大山崎町,字円明寺小字西法寺２３番地の２,,26,303,6180091,,,2024-07-01,清算の結了等,,,2015-10-05,1,,,,,トウエイシステム,0
2041,7140001000227,登記記録の閉鎖等,0,2024-07-05,2024-06-24,株式会社オーニシ商店,,株式会社,兵庫県,芦屋市,公光町９番３号,,28,206,6590065,,,2024-06-24,清算の結了等,,,2015-10-05,1,,,,,オーニシショウテン,0
2047,7140001090359,登記記録の閉鎖等,0,2024-07-05,2024-07-01,アトラス株式会社,,株式会社,兵庫県,高砂市,阿弥陀町地徳１２４番地の１３,,28,216,6760828,,,2024-07-01,清算の結了等,,,2015-10-05,1,,,,,アトラス,0
2053,7150001023912,登記記録の閉鎖等,0,2024-07-05,2024-07-02,株式会社Ｃｏｍｆｙｘｘ,,株式会社,奈良県,北葛城郡広陵町,大字三吉７５３番地１,,29,426,6350823,,,2024-07-02,清算の結了等,,,2020-07-16,1,,,,,コンフィックス,0
2054,7160002013110,登記記録の閉鎖等,0,2024-07-05,2024-07-01,有限会社パトリアミンニャ,,有限会社,滋賀県,草津市,木川町６５５番１１,,25,206,5250051,,,2024-07-01,清算の結了等,,,2015-10-05,1,,,,,,0
2061,7180001096848,登記記録の閉鎖等,0,2024-07-05,2024-06-21,株式会社名古屋印刷,,株式会社,愛知県,海部郡蟹江町,今西２丁目１６９番地,,23,425,4970037,,,2024-06-21,清算の結了等,,,2015-10-05,1,,,,,ナゴヤインサツ,0
2079,7210001003247,登記記録の閉鎖等,0,2024-07-05,2024-07-01,株式会社福田生花店,,株式会社,福井県,福井市,御幸３丁目１６番１号,,18,201,9100854,,,2024-07-01,清算の結了等,,,2015-10-05,1,,,,,フクダセイカテン,0
2081,7210002012817,登記記録の閉鎖等,0,2024-07-05,2024-07-02,大綱リボン工業有限会社,,有限会社,福井県,鯖江市,平井町第２８号６番地２,,18,207,9160061,,,2024-07-02,清算の結了等,,,2015-10-05,1,,,,,オオツナリボンコウギョウ,0
2117,7310001015595,登記記録の閉鎖等,0,2024-07-05,2024-06-26,株式会社富士ホーム,,株式会社,長崎県,長崎市,高城台１丁目１５番１８号,,42,201,8510137,,,2024-06-26,清算の結了等,,,2018-06-11,1,,,,,フジホーム,0
2123,7340001010775,登記記録の閉鎖等,0,2024-07-05,2024-07-01,安田コンクリート工業株式会社,,株式会社,鹿児島県,奄美市,名瀬小浜町８番１１号,,46,222,8940006,,,2024-07-01,清算の結了等,,,2015-10-05,1,,,,,ヤスダコンクリートコウギョウ,0
2126,7360001027363,登記記録の閉鎖等,0,2024-07-05,2024-06-28,株式会社尚洋,,株式会社,沖縄県,島尻郡伊是名村,字仲田３３２番地,,47,360,9050603,,,2024-06-28,清算の結了等,,,2020-06-26,1,,,,,ショウヨウ,0
2144,7500001008869,登記記録の閉鎖等,0,2024-07-05,2024-07-01,池田機工株式会社,,株式会社,愛媛県,西条市,新田４７番地２,,38,206,7930028,,,2024-07-01,合併による解散等,6500001010116,令和６年７月１日愛媛県新居浜市多喜浜六丁目３番１３号株式会社東新製作所（6500001010116）に合併し解散,2015-10-05,1,,,,,イケダキコウ,0
2147,8010001028569,登記記録の閉鎖等,0,2024-07-05,2024-07-01,株式会社フロー・ダイナミックス,,株式会社,東京都,千代田区,神田駿河台４丁目６番地,,13,101,1010062,,,2024-07-01,合併による解散等,7010001021401,令和６年７月１日東京都千代田区神田駿河台二丁目５番地１２第一エンジニアリング株式会社（7010001021401）に合併し解散,2015-10-05,1,,,,,フローダイナミックス,0
2183,8010601047290,登記記録の閉鎖等,0,2024-07-05,2024-07-01,株式会社ＧＴＤＳ　Ｊａｐａｎ,,株式会社,東京都,江東区,三好３丁目３番１２－１００４号,,13,108,1350022,,,2024-07-01,清算の結了等,,,2015-10-05,1,,,,,ジーティーディーエスジャパン,0
2234,8020003007371,登記記録の閉鎖等,0,2024-07-05,2024-06-25,合同会社ＭＯＴＴ,,合同会社,神奈川県,横浜市青葉区,あかね台２丁目２０番地４４,,14,117,2270066,,,2024-06-25,清算の結了等,,,2015-10-05,1,,,,,エムオーティーティー,0
2249,8030001136048,登記記録の閉鎖等,0,2024-07-05,2024-07-01,株式会社Ｕｈ－ｍ,,株式会社,埼玉県,さいたま市浦和区,常盤５丁目８番３９号,,11,107,3300061,,,2024-07-01,清算の結了等,,,2020-04-13,1,,,,,ウーム,0
2293,8080001013639,登記記録の閉鎖等,0,2024-07-05,2024-06-25,四ノ宮自動車工業株式会社,,株式会社,静岡県,牧之原市,波津１３１６番地１,,22,226,4210523,,,2024-06-25,清算の結了等,,,2015-10-05,1,,,,,シノミヤジドウシャコウギョウ,0
2298,8080401009831,登記記録の閉鎖等,0,2024-07-05,2024-07-01,アートスタッフ株式会社,,株式会社,静岡県,浜松市中央区,飯田町６９３番地,,22,138,4350028,,,2024-07-01,合併による解散等,7080401015681,令和６年７月１日静岡県磐田市国府台３０番地７株式会社アドバンス（7080401015681）に合併し解散,2015-10-05,1,,,,,アートスタッフ,0
2311,8100002005277,登記記録の閉鎖等,0,2024-07-05,2024-06-27,守信不動産有限会社,,有限会社,長野県,長野市,篠ノ井塩崎１７９３番地１,,20,201,3888014,,,2024-06-27,清算の結了等,,,2015-10-05,1,,,,,モリノブフドウサン,0
2314,8120001039935,登記記録の閉鎖等,0,2024-07-05,2024-07-01,株式会社丸治,,株式会社,大阪府,大阪市浪速区,元町３丁目１３番８号,,27,111,5560016,,,2024-07-01,清算の結了等,,,2015-10-05,1,,,,,,0
2330,8120002041915,登記記録の閉鎖等,0,2024-07-05,2024-07-01,有限会社ワインズトレード,,有限会社,大阪府,大阪市天王寺区,上本町５丁目２番４号,,27,109,5430001,,,2024-07-01,清算の結了等,,,2015-10-05,1,,,,,ワインズトレード,0
2338,8120101047607,登記記録の閉鎖等,0,2024-07-05,2024-07-01,株式会社遺伝子改変研究開発,,株式会社,大阪府,岸和田市,上野町東４番３３号,,27,202,5960047,,,2024-07-01,清算の結了等,,,2015-10-05,1,,,,,イデンシカイヘンケンキュウカイハツ,0
2372,8180002069967,登記記録の閉鎖等,0,2024-07-05,2024-06-20,有限会社マーキュリー,,有限会社,愛知県,小牧市,小牧３丁目５６０番地,,23,219,4850041,,,2024-06-20,合併による解散等,5180001122358,令和６年６月１日名古屋市中村区名駅一丁目２番４号１０階ＧＯＯＤ　ＡＩＤ株式会社（5180001122358）に合併し解散,2015-10-05,1,,,,,マーキュリー,0
2383,8190001011334,登記記録の閉鎖等,0,2024-07-05,2024-06-27,株式会社はたば,,株式会社,三重県,松阪市,山室町１２９９番地,,24,204,5150052,,,2024-06-27,清算の結了等,,,2015-10-05,1,,,,,ハタバ,0
2384,8190001025144,登記記録の閉鎖等,0,2024-07-05,2024-07-01,伊勢志摩電力株式会社,,株式会社,三重県,志摩市,阿児町鵜方２６８２番地４０２,,24,215,5170501,,,2024-07-01,合併による解散等,7190001000131,令和６年７月１日三重県津市栗真中山町１４５番地イワタニ三重株式会社（7190001000131）に合併し解散,2017-12-07,1,,,,,イセシマデンリョク,0
2399,8240002041044,登記記録の閉鎖等,0,2024-07-05,2024-07-01,株式会社藤木不動産,,株式会社,広島県,福山市,神辺町大字川南１７２７番地の４,,34,207,7202124,,,2024-07-01,清算の結了等,,,2015-10-05,1,,,,,フジキコウムテン,0
2404,8260002006846,登記記録の閉鎖等,0,2024-07-05,2024-06-25,有限会社東新工業,,有限会社,岡山県,岡山市東区,光津６３３番地３,,33,103,7048164,,,2024-06-25,清算の結了等,,,2015-10-05,1,,,,,トウシンコウギョウ,0
2449,8370302002435,登記記録の閉鎖等,0,2024-07-05,2024-06-21,有限会社ヤマグン商店,,有限会社,宮城県,石巻市,湊町２丁目４番７号,,04,202,9860025,,,2024-06-21,清算の結了等,,,2015-10-05,1,,,,,ヤマグンショウテン,0
2463,8430001043600,登記記録の閉鎖等,0,2024-07-05,2024-06-28,株式会社坂口商店,,株式会社,北海道,千歳市,青葉４丁目１２番１６号,,01,224,0660015,,,2024-06-28,清算の結了等,,,2015-10-05,1,,,,,サカグチショウテン,0
2498,9010405005171,登記記録の閉鎖等,0,2024-07-05,2024-06-25,特定非営利活動法人日本ウェルフェアフィットネス協会,,その他の設立登記法人,東京都,千代田区,鍛冶町１丁目４番７号彦田ビル７階株式会社イディア内,,13,101,1010044,,,2024-06-25,清算の結了等,,,2015-10-05,1,,,,,ニホンウェルフェアフィットネスキョウカイ,0
2510,9010905003204,登記記録の閉鎖等,0,2024-07-05,2024-07-01,一般社団法人女性獣医師ネットワーク,,その他の設立登記法人,東京都,世田谷区,北沢３丁目２番１８号,,13,112,1550031,,,2024-07-01,清算の結了等,,,2016-04-13,1,,,,,ジョセイジュウイシネットワーク,0
2517,9011001135172,登記記録の閉鎖等,0,2024-07-05,2024-06-20,株式会社ＭａＮｉａ’Ｅ,,株式会社,東京都,渋谷区,桜丘町２３番１７号シティーコート桜丘４０８,,13,113,1500031,,,2024-06-20,清算の結了等,,,2020-08-06,1,,,,,マニアイー,0
2519,9011001136245,登記記録の閉鎖等,0,2024-07-05,2024-06-21,株式会社ＲＡＳＩＯ,,株式会社,東京都,渋谷区,渋谷２丁目１４－６西田ビル５Ｆ,,13,113,1500002,,,2024-06-21,清算の結了等,,,2020-10-12,1,,,,,ラシオ,0
2536,9011503001789,登記記録の閉鎖等,0,2024-07-05,2024-07-02,合資会社ＹＭＤ,,合資会社,東京都,荒川区,東尾久６丁目１４番９号,,13,118,1160012,,,2024-07-02,清算の結了等,,,2015-10-05,1,,,,,,0
2541,9011601027018,登記記録の閉鎖等,0,2024-07-05,2024-06-28,株式会社ファーストテック,,株式会社,東京都,練馬区,中村北１丁目２番８－１２０４号,,13,120,1760023,,,2024-06-28,清算の結了等,,,2023-08-07,1,,,,,ファーストテック,0
2545,9011802024219,登記記録の閉鎖等,0,2024-07-05,2024-07-01,有限会社かなえ薬局,,有限会社,東京都,葛飾区,東堀切３丁目１７番６号,,13,122,1240004,,,2024-07-01,清算の結了等,,,2015-10-05,1,,,,,カナエヤッキョク,0
2555,9013303006761,登記記録の閉鎖等,0,2024-07-05,2024-06-26,合同会社パシャ,,合同会社,東京都,豊島区,池袋２丁目１７番８号天翔池袋西口ＡＮＮＥＸビル４１２,,13,116,1710014,,,2024-06-26,清算の結了等,,,2023-08-18,1,,,,,パシャ,0
2562,9020003020737,登記記録の閉鎖等,0,2024-07-05,2024-06-25,合同会社ＲＩＳＥ,,合同会社,神奈川県,川崎市川崎区,東田町３番地２４コスモビル３階,,14,131,2100005,,,2024-06-25,清算の結了等,,,2021-11-02,1,,,,,ライズ,0
2593,9040001031197,登記記録の閉鎖等,0,2024-07-05,2024-06-24,株式会社ミレーニアムコーポレーション,,株式会社,千葉県,市川市,市川南１丁目３番２号,,12,203,2720033,,,2024-06-24,清算の結了等,,,2015-10-05,1,,,,,ミレーニアムコーポレーション,0
2595,9040001100340,登記記録の閉鎖等,0,2024-07-05,2024-06-24,倉持興業株式会社,,株式会社,千葉県,野田市,木間ケ瀬６０００番地１０,,12,208,2700222,,,2024-06-24,清算の結了等,,,2017-05-23,1,,,,,,0
2602,9040002020901,登記記録の閉鎖等,0,2024-07-05,2024-06-24,有限会社江島商店,,有限会社,千葉県,船橋市,芝山６丁目３８番５号,,12,204,2740816,,,2024-06-24,清算の結了等,,,2015-10-05,1,,,,,エジマ,0
2603,9040002043415,登記記録の閉鎖等,0,2024-07-05,2024-06-24,有限会社マレット,,有限会社,千葉県,市川市,新田５丁目６番１４号,,12,203,2720035,,,2024-06-24,清算の結了等,,,2015-10-05,1,,,,,マレット,0
2606,9050001017690,登記記録の閉鎖等,0,2024-07-05,2024-07-01,株式会社石崎印刷,,株式会社,茨城県,つくば市,吾妻３丁目７番１４号,,08,220,3050031,,,2024-07-01,清算の結了等,,,2015-10-05,1,,,,,イシザキインサツ,0
2617,9060002026979,登記記録の閉鎖等,0,2024-07-05,2024-06-26,五味渕産業有限会社,,有限会社,栃木県,矢板市,東町１０番２０号,,09,211,3292136,,,2024-06-26,清算の結了等,,,2015-10-05,1,,,,,ゴミブチサンギョウ,0
2622,9070002031045,登記記録の閉鎖等,0,2024-07-05,2024-07-01,有限会社丸吾,,有限会社,群馬県,太田市,藤阿久町５０６番地の９,,10,205,3730034,,,2024-07-01,清算の結了等,,,2015-10-05,1,,,,,マルゴ,0
2627,9100002036742,登記記録の閉鎖等,0,2024-07-05,2024-06-25,有限会社大栄部品,,有限会社,長野県,飯田市,伝馬町２丁目２３番地,,20,205,3950016,,,2024-06-25,清算の結了等,,,2015-10-05,1,,,,,ダイエイブヒン,0
2634,9120001067902,登記記録の閉鎖等,0,2024-07-05,2024-07-01,徳永株式会社,,株式会社,大阪府,大阪市北区,同心２丁目１１番２６号,,27,127,5300035,,,2024-07-01,清算の結了等,,,2015-10-05,1,,,,,トクナガ,0
2637,9120001203531,登記記録の閉鎖等,0,2024-07-05,2024-07-01,株式会社丸投げ,,株式会社,大阪府,大阪市北区,西天満４丁目１番２号,,27,127,5300047,,,2024-07-01,合併による解散等,8120001170095,令和６年７月１日大阪市北区西天満四丁目１番２号株式会社ＵＬＴＲＡ　ＷＩＤＥ（8120001170095）に合併し解散,2017-02-07,1,,,,,マルナゲ,0
2640,9120001260762,登記記録の閉鎖等,0,2024-07-05,2024-07-03,日本緑新医美株式会社,,株式会社,大阪府,大阪市中央区,内平野町１丁目４番１号６０７,,27,128,5400037,,,2024-07-03,清算の結了等,,,2023-12-20,1,,,,,ニッポンリョクシンイビ,0
2647,9120002011280,登記記録の閉鎖等,0,2024-07-05,2024-07-01,有限会社新孝,,有限会社,大阪府,大阪市平野区,長吉川辺１丁目３番１５号,,27,126,5470014,,,2024-07-01,合併による解散等,1120001184696,令和６年７月１日大阪市平野区長吉長原西二丁目２番１２号株式会社Ｎｐｏｗｅｒ（1120001184696）に合併し解散,2015-10-05,1,,,,,シンコウ,0
2648,9120002053777,登記記録の閉鎖等,0,2024-07-05,2024-07-01,有限会社満天興産,,有限会社,大阪府,大阪市旭区,清水１丁目１５番１２号,,27,117,5350021,,,2024-07-01,合併による解散等,3120001132315,令和６年７月１日大阪市旭区清水一丁目１５番１２号ユウファミリー・ホールディング株式会社（3120001132315）に合併し解散,2015-10-05,1,,,,,マンテンコウサン,0
2653,9120101001232,登記記録の閉鎖等,0,2024-07-05,2024-07-01,関西紙器印刷株式会社,,株式会社,大阪府,堺市堺区,南清水町１丁１番８号,,27,141,5900005,,,2024-07-01,清算の結了等,,,2015-10-05,1,,,,,カンサイシキインサツ,0
2687,9140002063080,登記記録の閉鎖等,0,2024-07-05,2024-07-01,神田織布有限会社,,有限会社,兵庫県,加西市,大工町４０６番地の１,,28,220,6752411,,,2024-07-01,清算の結了等,,,2015-10-05,1,,,,,カンダショクフ,0
2689,9140005002300,登記記録の閉鎖等,0,2024-07-05,2024-06-25,学校法人甲陽学園,,その他の設立登記法人,兵庫県,芦屋市,大原町２０番６号,,28,206,6590092,,,2024-06-25,清算の結了等,,,2015-10-05,1,,,,,コウヨウガクエン,0
2710,9180003023583,登記記録の閉鎖等,0,2024-07-05,2024-06-20,将吾サービス合同会社,,合同会社,愛知県,名古屋市名東区,一社２丁目１１２番地,,23,115,4650093,,,2024-06-20,清算の結了等,,,2022-03-07,1,,,,,ショウゴサービス,0
2728,9210001019217,登記記録の閉鎖等,0,2024-07-05,2024-06-28,株式会社ＮｏｒｔｈＢｅｌｌ,,株式会社,福井県,越前市,矢船町第１７号１２番地,,18,209,9150057,,,2024-06-28,清算の結了等,,,2023-01-27,1,,,,,ノースベル,0
2734,9240002048807,登記記録の閉鎖等,0,2024-07-05,2024-07-01,有限会社山田耕三商事,,有限会社,広島県,安芸郡坂町,横浜東１丁目２４番５号,,34,309,7314322,,,2024-07-01,清算の結了等,,,2015-10-05,1,,,,,ヤマダコウソウショウジ,0
2740,9260002025077,登記記録の閉鎖等,0,2024-07-05,2024-06-20,有限会社山陽ビデオ,,有限会社,岡山県,浅口市,鴨方町六条院西１３０３番地の５,,33,216,7190251,,,2024-06-20,清算の結了等,,,2015-10-05,1,,,,,サンヨウビデオ,0
2751,9310002005321,登記記録の閉鎖等,0,2024-07-05,2024-06-27,丸新機工有限会社,,有限会社,長崎県,長崎市,木鉢町２丁目２１０番地,,42,201,8500076,,,2024-06-27,清算の結了等,,,2015-10-05,1,,,,,マルシンキコウ,0
2753,9330001031911,登記記録の閉鎖等,0,2024-07-05,2024-07-01,株式会社大劇八代店,,株式会社,大阪府,大阪市北区,梅田１丁目１番３号大阪駅前第３ビル２階３１号室,,27,127,5300001,,,2024-07-01,合併による解散等,2120901040353,令和６年６月３０日大阪市北区梅田一丁目１番３号大阪駅前第３ビル２階３１号室株式会社ハース（2120901040353）に合併し解散,2024-04-03,1,,,,,タイゲキヤツシロテン,0
2764,9370001018252,登記記録の閉鎖等,0,2024-07-05,2024-06-25,株式会社相原輸送,,株式会社,宮城県,仙台市宮城野区,福室５丁目４番３６号,,04,102,9830005,,,2024-06-25,清算の結了等,,,2015-10-05,1,,,,,アイハラユソウ,0
2797,9480001002229,登記記録の閉鎖等,0,2024-07-05,2024-07-01,株式会社前林建設,,株式会社,徳島県,徳島市,不動西町１丁目５６４番地６,,36,201,7700064,,,2024-07-01,清算の結了等,,,2015-10-05,1,,,,,,0
