sequenceNumber,corporateNumber,process,correct,updateDate,changeDate,name,nameImageId,kind,prefectureName,cityName,streetNumber,addressImageId,prefectureCode,cityCode,postCode,addressOutside,addressOutsideImageId,closeDate,closeCause,successorCorporateNumber,changeCause,assignmentDate,latest,enName,enPrefectureName,enCityName,enAddressOutside,furigana,hihyoji
8,1010001224570,新規,0,2022-02-16,2022-02-16,株式会社ドットアイ,,株式会社,東京都,中央区,銀座１丁目２２番１１号銀座大竹ビジデンス２階,,13,102,1040061,,,,,,,2022-02-16,1,,,,,ドットアイ,0
9,1010001224612,新規,0,2022-02-16,2022-02-16,株式会社マシオン,,株式会社,東京都,千代田区,内神田３丁目４番１３号,,13,101,1010047,,,,,,,2022-02-16,1,,,,,マシオン,0
10,1010001224629,新規,0,2022-02-16,2022-02-16,株式会社ミライ,,株式会社,東京都,中央区,銀座８丁目５番１２号,,13,102,1040061,,,,,,,2022-02-16,1,,,,,ミライ,0
15,1010005034594,新規,0,2022-02-16,2022-02-16,一般社団法人ＫＳＦＲ２,,その他の設立登記法人,東京都,千代田区,内幸町２丁目１番６号,,13,101,1000011,,,,,,,2022-02-16,1,,,,,ケイエスエフアールツー,0
16,1010005034611,新規,0,2022-02-16,2022-02-16,一般社団法人福島トランジション,,その他の設立登記法人,東京都,千代田区,丸の内３丁目１番１号東京共同会計事務所内,,13,101,1000005,,,,,,,2022-02-16,1,,,,,フクシマトランジション,0
24,1010401165563,新規,0,2022-02-16,2022-02-16,株式会社リアシュア,,株式会社,東京都,港区,赤坂１丁目１２番３２号アーク森ビル３階,,13,103,1070052,,,,,,,2022-02-16,1,,,,,リアシュア,0
27,1010503006500,新規,0,2022-02-16,2022-02-16,ＢＡＲＵ合同会社,,合同会社,東京都,台東区,西浅草３丁目２７－１０ユニハイツ西浅草４０３,,13,106,1110035,,,,,,,2022-02-16,1,,,,,バール,0
32,1010705003320,新規,0,2022-02-16,2022-02-16,一般社団法人ｍｉｒａｉｅ,,その他の設立登記法人,東京都,品川区,上大崎３丁目１番１号,,13,109,1410021,,,,,,,2022-02-16,1,,,,,ミライエ,0
37,1010901050356,新規,0,2022-02-16,2022-02-16,株式会社ｋｅｅｐｅｒｓ,,株式会社,東京都,世田谷区,大原１丁目５４番５－７０１号,,13,112,1560041,,,,,,,2022-02-16,1,,,,,キーパーズ,0
46,1011001145658,新規,0,2022-02-16,2022-02-16,株式会社ＷＥＬＬＢＥＩＮＧ,,株式会社,東京都,渋谷区,鶯谷町１４番１－４０１号,,13,113,1500032,,,,,,,2022-02-16,1,,,,,ウェルビーイング,0
47,1011101097808,新規,0,2022-02-16,2022-02-16,株式会社ＳＡＲＵ,,株式会社,東京都,新宿区,西新宿７丁目５番９－１９１３号,,13,104,1600023,,,,,,,2022-02-16,1,,,,,サル,0
48,1011101097824,新規,0,2022-02-16,2022-02-16,株式会社恵盛,,株式会社,東京都,新宿区,歌舞伎町２丁目３１番３号,,13,104,1600021,,,,,,,2022-02-16,1,,,,,ケイセイ,0
49,1011103011469,新規,0,2022-02-16,2022-02-16,プレフィールド企画合同会社,,合同会社,東京都,新宿区,北町２０―１ルピナス市ヶ谷北町５０３,,13,104,1620834,,,,,,,2022-02-16,1,,,,,プレフィールドキカク,0
51,1011201023639,新規,0,2022-02-16,2022-02-16,株式会社リップススタイル,,株式会社,東京都,中野区,弥生町５丁目９番２１号,,13,114,1640013,,,,,,,2022-02-16,1,,,,,リップススタイル,0
63,1012305001992,新規,0,2022-02-16,2022-02-16,一般社団法人５２８Ｈｚの音楽を考える会,,その他の設立登記法人,東京都,町田市,南町田２丁目１１番１５号,,13,209,1940005,,,,,,,2022-02-16,1,,,,,ゴヒャクニジュウハチヘルツノオンガクヲカンガエルカイ,0
64,1012401038856,新規,0,2022-02-16,2022-02-16,ＢＡＮＡＮＡ　ｙｅｌｌｏｗ’ｓ株式会社,,株式会社,東京都,稲城市,平尾１丁目３０番地の７,,13,225,2060823,,,,,,,2022-02-16,1,,,,,バナナイエローズ,0
65,1012403005243,新規,0,2022-02-16,2022-02-16,ＦＰＣ合同会社,,合同会社,東京都,小金井市,梶野町１丁目２－３６,,13,210,1840002,,,,,,,2022-02-16,1,,,,,エフピーシー,0
66,1012701016933,新規,0,2022-02-16,2022-02-16,株式会社Ｃｅｎｔｉｎｅｌ,,株式会社,東京都,西東京市,向台町１丁目７番５４号,,13,229,1880013,,,,,,,2022-02-16,1,,,,,センチネル,0
75,1013301048680,新規,0,2022-02-16,2022-02-16,株式会社あたまのオアシス,,株式会社,東京都,豊島区,雑司が谷３丁目２－６－３Ｆ,,13,116,1710032,,,,,,,2022-02-16,1,,,,,アタマノオアシス,0
76,1013303006034,新規,0,2022-02-16,2022-02-16,合同会社とち,,合同会社,東京都,豊島区,駒込４丁目７番５－３０５号,,13,116,1700003,,,,,,,2022-02-16,1,,,,,トチ,0
96,1021003011403,新規,0,2022-02-16,2022-02-16,合同会社ＴＮＤ技研,,合同会社,神奈川県,藤沢市,本鵠沼２丁目２番１５号,,14,205,2510028,,,,,,,2022-02-16,1,,,,,テイエヌデイギケン,0
108,1030001146771,新規,0,2022-02-16,2022-02-16,Ｆｏｒｔｕｎａｔｅ株式会社,,株式会社,埼玉県,蕨市,中央４丁目１２－７,,11,223,3350004,,,,,,,2022-02-16,1,,,,,フォーチュネト,0
109,1030001146796,新規,0,2022-02-16,2022-02-16,創信株式会社,,株式会社,埼玉県,川口市,川口１丁目３番１－５０６ライオンズ川口第５,,11,203,3320015,,,,,,,2022-02-16,1,,,,,ソウシン,0
110,1030001146821,新規,0,2022-02-16,2022-02-16,ＭＡＮＡＦＩＲＥ株式会社,,株式会社,埼玉県,さいたま市見沼区,島町１１７９番地５,,11,104,3370006,,,,,,,2022-02-16,1,,,,,マナファイア,0
111,1030001146838,新規,0,2022-02-16,2022-02-16,ＷＡＺＩＲ　ＳＯＮＳ株式会社,,株式会社,埼玉県,北葛飾郡松伏町,大字大川戸字新川通３１０２番地,,11,465,3430106,,,,,,,2022-02-16,1,,,,,ワジルサンズ,0
112,1030003018853,新規,0,2022-02-16,2022-02-16,合同会社ケアサポートもちもち,,合同会社,埼玉県,志木市,本町２丁目１１番５０号,,11,228,3530004,,,,,,,2022-02-16,1,,,,,ケアサポートモチモチ,0
117,1040001122193,新規,0,2022-02-16,2022-02-16,株式会社Ｊ．Ｙ,,株式会社,千葉県,市川市,富浜１丁目２－１７ＴＯ－МＡＮＡビル２Ｆ－Ｂ,,12,203,2720115,,,,,,,2022-02-16,1,,,,,ジェイワイ,0
118,1040001122210,新規,0,2022-02-16,2022-02-16,日本ちえの知的財産サービス株式会社,,株式会社,千葉県,船橋市,印内２丁目３番１５号ＴＯＰ西船橋第一３０１,,12,204,2730039,,,,,,,2022-02-16,1,,,,,ニホンチエノチテキザイサンサービス,0
119,1040001122251,新規,0,2022-02-16,2022-02-16,ＡｃｔｉｖｅＲｉｓｅ株式会社,,株式会社,千葉県,流山市,おおたかの森東３丁目１９番地の６,,12,220,2700138,,,,,,,2022-02-16,1,,,,,アクティブライズ,0
125,1040003019479,新規,0,2022-02-16,2022-02-16,合同会社クラフト匠,,合同会社,千葉県,東金市,東金３９４番地１Ｂ,,12,213,2830802,,,,,,,2022-02-16,1,,,,,クラフトショウ,0
129,1050001050633,新規,0,2022-02-16,2022-02-16,株式会社ＭＡＴＳＵＢＡ,,株式会社,茨城県,つくば市,蓮沼２２３番地,,08,220,3003262,,,,,,,2022-02-16,1,,,,,マツバ,0
140,1090001017414,新規,0,2022-02-16,2022-02-16,株式会社日々と建築,,株式会社,山梨県,韮崎市,下祖母石２１７７番地１グリーンハウスｅ２０６,,19,207,4070006,,,,,,,2022-02-16,1,,,,,ヒビトケンチク,0
145,1100003006413,新規,0,2022-02-16,2022-02-16,合同会社ＺＡＬＡＮ　ＴＲＡＤＩＮＧ,,合同会社,長野県,埴科郡坂城町,大字坂城１０２４１番地８,,20,521,3890601,,,,,,,2022-02-16,1,,,,,ジャラントレーディング,0
172,1120101065086,新規,0,2022-02-16,2022-02-16,株式会社東天,,株式会社,大阪府,堺市北区,百舌鳥赤畑町２丁４６番地２ホームライフビル４階,,27,146,5918037,,,,,,,2022-02-16,1,,,,,トウテン,0
176,1120103004579,新規,0,2022-02-16,2022-02-16,合同会社ＴａＮｓ,,合同会社,大阪府,堺市西区,上野芝向ヶ丘町５丁９番２１－３号,,27,144,5938303,,,,,,,2022-02-16,1,,,,,タンス,0
186,1130001071150,新規,0,2022-02-16,2022-02-16,株式会社ＯＢＳ,,株式会社,京都府,京都市東山区,東大路三条下る三筋目進之町５８４番地プラネシア東山三条５０２号室,,26,105,6050000,,,,,,,2022-02-16,1,,,,,オービーエス,0
193,1140001124799,新規,0,2022-02-16,2022-02-16,株式会社ＪＥＤＩ,,株式会社,兵庫県,西宮市,和上町６番１０号,,28,204,6620971,,,,,,,2022-02-16,1,,,,,ジェダイ,0
194,1140001124907,新規,0,2022-02-16,2022-02-16,株式会社トレンド,,株式会社,兵庫県,尼崎市,富松町２丁目３２番１号１０２,,28,202,6610003,,,,,,,2022-02-16,1,,,,,トレンド,0
206,1180001149999,新規,0,2022-02-16,2022-02-16,株式会社ＨＳＫ,,株式会社,愛知県,日進市,五色園４丁目２１１７番地,,23,230,4700105,,,,,,,2022-02-16,1,,,,,エイチエスケイ,0
207,1180003023500,新規,0,2022-02-16,2022-02-16,合同会社堀場事務所,,合同会社,愛知県,名古屋市瑞穂区,太田町４丁目３４番地,,23,108,4670874,,,,,,,2022-02-16,1,,,,,ホリバセイサクショ,0
213,1200001039743,新規,0,2022-02-16,2022-02-16,ＯＮＥＳ株式会社,,株式会社,岐阜県,土岐市,土岐口中町３丁目２０番地,,21,212,5095124,,,,,,,2022-02-16,1,,,,,ワンズ,0
217,1210003001460,新規,0,2022-02-16,2022-02-16,合同会社ヘルパーステーションはっち,,合同会社,福井県,坂井市,春江町千歩寺３５－１－７５,,18,210,9190481,,,,,,,2022-02-16,1,,,,,ヘルパーステーションハッチ,0
235,1290001096438,新規,0,2022-02-16,2022-02-16,株式会社ミモラ,,株式会社,福岡県,福岡市中央区,渡辺通５丁目１４－１２南天神ビル３Ｆ,,40,133,8100004,,,,,,,2022-02-16,1,,,,,ミモラ,0
237,1290003012137,新規,0,2022-02-16,2022-02-16,合同会社Ｎｔｏｐｉａ,,合同会社,福岡県,福岡市南区,多賀１丁目８番２６号,,40,134,8150072,,,,,,,2022-02-16,1,,,,,エヌトピア,0
238,1290003012153,新規,0,2022-02-16,2022-02-16,合同会社ＡＫＩＲＡ,,合同会社,福岡県,福岡市博多区,博多駅前１丁目１５－２０ＮＭＦ博多駅前ビル２階,,40,132,8120011,,,,,,,2022-02-16,1,,,,,アキラ,0
239,1290003012161,新規,0,2022-02-16,2022-02-16,合同会社ＺＯＮＯ,,合同会社,福岡県,久留米市,城島町浜５０６番地１,,40,203,8300203,,,,,,,2022-02-16,1,,,,,ゾノ,0
256,1360003011809,新規,0,2022-02-16,2022-02-16,合同会社Ｇｒｅｅｎ　Ｓｔａｒ　ＯＫＩＮＡＷＡ,,合同会社,沖縄県,浦添市,字前田６０３番地１,,47,208,9012102,,,,,,,2022-02-16,1,,,,,グリーンスターオキナワ,0
260,1370001048199,新規,0,2022-02-16,2022-02-16,不動産の窓口株式会社,,株式会社,宮城県,石巻市,恵み野５丁目１番３号,,04,202,9860868,,,,,,,2022-02-16,1,,,,,フドウサンノマドグチ,0
262,1370003005586,新規,0,2022-02-16,2022-02-16,合同会社アオマド,,合同会社,宮城県,仙台市青葉区,本町１丁目５番２８号カーニープレイス仙台駅前通６０３号室,,04,101,9800014,,,,,,,2022-02-16,1,,,,,アオマド,0
276,1430003013632,新規,0,2022-02-16,2022-02-16,合同会社ギアアップソリューションズ,,合同会社,北海道,札幌市中央区,南十三条西２１丁目１－４伏見サンタウン４号館２０３号室,,01,101,0640913,,,,,,,2022-02-16,1,,,,,ギアアップソリューションズ,0
280,1700150106839,新規,0,2022-02-16,2022-01-27,部落解放同盟　嘉穂地区協議会,,その他,福岡県,嘉穂郡桂川町,大字吉隈１２番地,,40,421,8200609,,,,,,,2022-01-27,1,,,,,ブラクカイホウドウメイカホチクキヨウギカイ,0
281,1700150106855,新規,0,2022-02-16,2022-01-28,遠野町まちづくり協議会,,その他,岩手県,遠野市,新町１番１０号市民センター内,,03,208,0280524,,,,,,,2022-01-28,1,,,,,トオノチヨウマチヅクリキヨウギカイ,0
293,2010001224628,新規,0,2022-02-16,2022-02-16,ｃｒｅＷ株式会社,,株式会社,東京都,中央区,銀座６丁目１３番１６号銀座ウォールビル５階,,13,102,1040061,,,,,,,2022-02-16,1,,,,,クルー,0
295,2010005034610,新規,0,2022-02-16,2022-02-16,一般社団法人オルブン,,その他の設立登記法人,東京都,千代田区,丸の内３丁目１番１号東京共同会計事務所内,,13,101,1000005,,,,,,,2022-02-16,1,,,,,オルブン,0
299,2010401165579,新規,0,2022-02-16,2022-02-16,ビズアップ出版株式会社,,株式会社,東京都,港区,東新橋１丁目５番２号,,13,103,1050021,,,,,,,2022-02-16,1,,,,,ビズアップシュッパン,0
303,2010601060670,新規,0,2022-02-16,2022-02-16,株式会社ＴＹ東京,,株式会社,東京都,江東区,富岡１丁目７番６号富岡Ｙビル３Ｆ,,13,108,1350047,,,,,,,2022-02-16,1,,,,,ティーワイトウキョウ,0
307,2010903007155,新規,0,2022-02-16,2022-02-16,木下合同会社,,合同会社,東京都,世田谷区,粕谷２丁目２番２０－２１１号,,13,112,1570063,,,,,,,2022-02-16,1,,,,,キノシタ,0
313,2011001145673,新規,0,2022-02-16,2022-02-16,ジョブコレ東京株式会社,,株式会社,東京都,渋谷区,代々木２丁目４番９号,,13,113,1510053,,,,,,,2022-02-16,1,,,,,ジョブコレトウキョウ,0
314,2011001145756,新規,0,2022-02-16,2022-02-16,株式会社Ｍ＆Ｋ,,株式会社,東京都,目黒区,八雲３丁目１４番１７号,,13,110,1520023,,,,,,,2022-02-16,1,,,,,エムアンドケイ,0
316,2011003014166,新規,0,2022-02-16,2022-02-16,合同会社ＡＦｄａｔａ,,合同会社,東京都,渋谷区,神宮前６丁目２３番４号桑野ビル２階,,13,113,1500001,,,,,,,2022-02-16,1,,,,,エーエフデータ,0
318,2011101097815,新規,0,2022-02-16,2022-02-16,株式会社Ｄａｓｈｃｏｍｂ,,株式会社,東京都,新宿区,百人町３丁目１番４－２１０３号,,13,104,1690073,,,,,,,2022-02-16,1,,,,,ダッシュコム,0
319,2011101097823,新規,0,2022-02-16,2022-02-16,株式会社キッズ・クリエイティブ,,株式会社,東京都,新宿区,大久保３丁目８番１－１４０７号,,13,104,1690072,,,,,,,2022-02-16,1,,,,,キッズクリエイティブ,0
320,2011301027555,新規,0,2022-02-16,2022-02-16,株式会社コアロンドホールディングス,,株式会社,東京都,杉並区,高円寺南４丁目２７番１０号,,13,115,1660003,,,,,,,2022-02-16,1,,,,,コアロンドホールディングス,0
322,2011803004969,新規,0,2022-02-16,2022-02-16,合同会社ＹＡＰＰＹ,,合同会社,東京都,足立区,西新井栄町１丁目１６番２－３２６号,,13,121,1230843,,,,,,,2022-02-16,1,,,,,ヤッピー,0
325,2012401038855,新規,0,2022-02-16,2022-02-16,株式会社ｃｈｏｃｏｌａｒｔ,,株式会社,東京都,三鷹市,牟礼２丁目１６番１１号,,13,204,1810002,,,,,,,2022-02-16,1,,,,,ショコラート,0
338,2020005015386,新規,0,2022-02-16,2022-02-16,一般社団法人カピバラよろず相談所,,その他の設立登記法人,神奈川県,横浜市西区,北幸１丁目１－８エキニア横浜５階ＨａｍａＰｏｒｔ内,,14,103,2200004,,,,,,,2022-02-16,1,,,,,カピバラヨロズソウダンジョ,0
349,2030001146795,新規,0,2022-02-16,2022-02-16,株式会社Ｗｏｏｄ　Ｂａｓｅ,,株式会社,埼玉県,児玉郡美里町,大字猪俣２２６２番地１,,11,381,3670115,,,,,,,2022-02-16,1,,,,,ウッドベース,0
350,2030001146812,新規,0,2022-02-16,2022-02-16,株式会社山吹塗装,,株式会社,埼玉県,さいたま市岩槻区,大字長宮９６６番地１,,11,110,3390011,,,,,,,2022-02-16,1,,,,,ヤマブキトソウ,0
351,2030001146820,新規,0,2022-02-16,2022-02-16,株式会社アイディ建設,,株式会社,埼玉県,越谷市,七左町４丁目１９２番地３,,11,222,3430851,,,,,,,2022-02-16,1,,,,,アイディケンセツ,0
353,2030003018844,新規,0,2022-02-16,2022-02-16,ＵＧ合同会社,,合同会社,埼玉県,志木市,本町５丁目２１番２４－１１０２号,,11,228,3530004,,,,,,,2022-02-16,1,,,,,ユージー,0
354,2030003018852,新規,0,2022-02-16,2022-02-16,ファクトリィーノア合同会社,,合同会社,埼玉県,越谷市,大字蒲生３８３５－１朝日パリオ越谷南１－２０２,,11,222,3430838,,,,,,,2022-02-16,1,,,,,ファクトリィーノア,0
365,2040001122218,新規,0,2022-02-16,2022-02-16,株式会社ＦＤＬａｂｏ,,株式会社,千葉県,千葉市中央区,中央１丁目８－６第１２ｃｉビル８Ｆ,,12,101,2600013,,,,,,,2022-02-16,1,,,,,エフディーラボ,0
366,2040001122259,新規,0,2022-02-16,2022-02-16,株式会社いえまるハウス,,株式会社,千葉県,君津市,戸崎５３番地,,12,225,2920441,,,,,,,2022-02-16,1,,,,,イエマルハウス,0
368,2040003019486,新規,0,2022-02-16,2022-02-16,合同会社しんきょう,,合同会社,千葉県,柏市,加賀３丁目２４番５号プログレス藤田１ｃ,,12,217,2770051,,,,,,,2022-02-16,1,,,,,シンキョウ,0
372,2050003006376,新規,0,2022-02-16,2022-02-16,合同会社ＲＡＩＮＤＲＯＰ,,合同会社,茨城県,結城市,大字結城６６１２－１,,08,207,3070001,,,,,,,2022-02-16,1,,,,,レインドロップ,0
373,2060001034568,新規,0,2022-02-16,2022-02-16,株式会社東京ロボット,,株式会社,栃木県,那須塩原市,北二つ室３４８番地９２,,09,213,3292734,,,,,,,2022-02-16,1,,,,,トウキョウロボット,0
376,2080001024757,新規,0,2022-02-16,2022-02-16,株式会社ＣｒｅａＴｅｋ,,株式会社,静岡県,牧之原市,地頭方１５７０番地,,22,226,4210532,,,,,,,2022-02-16,1,,,,,クリアテック,0
377,2080101023097,新規,0,2022-02-16,2022-02-16,株式会社ＰＡＬＡＣＥ,,株式会社,静岡県,富士宮市,小泉２８８番地の１,,22,207,4180022,,,,,,,2022-02-16,1,,,,,パレス,0
391,2120001243831,新規,0,2022-02-16,2022-02-16,株式会社エヌズ,,株式会社,大阪府,守口市,藤田町２丁目１７番９－５０１号,,27,209,5700014,,,,,,,2022-02-16,1,,,,,エヌズ,0
392,2120001243872,新規,0,2022-02-16,2022-02-16,株式会社ＸＩＥ　ＪＩＮＧ,,株式会社,大阪府,大阪市西成区,出城１丁目８番１９号,,27,122,5570024,,,,,,,2022-02-16,1,,,,,シエジン,0
394,2120003021153,新規,0,2022-02-16,2022-02-16,ハイアライト合同会社,,合同会社,大阪府,大阪市淀川区,宮原１丁目１９番１０号新大阪エクセルビル６Ｆ,,27,123,5320003,,,,,,,2022-02-16,1,,,,,ハイアライト,0
395,2120103004578,新規,0,2022-02-16,2022-02-16,合同会社よろづん屋,,合同会社,大阪府,泉佐野市,中町１丁目３番６２号,,27,213,5980013,,,,,,,2022-02-16,1,,,,,ヨロヅンヤ,0
398,2120901045600,新規,0,2022-02-16,2022-02-16,株式会社米原製作所,,株式会社,大阪府,豊中市,服部寿町５丁目５４番地,,27,203,5610857,,,,,,,2022-02-16,1,,,,,ヨネハラセイサクショ,0
401,2120905006284,新規,0,2022-02-16,2022-02-16,一般社団法人全国心理魂育協会,,その他の設立登記法人,大阪府,吹田市,垂水町１丁目２８番５号,,27,205,5640062,,,,,,,2022-02-16,1,,,,,ゼンコクシンリタマイクキョウカイ,0
409,2130001071133,新規,0,2022-02-16,2022-02-16,株式会社伊勢屋,,株式会社,京都府,舞鶴市,字浜２００６番地２０,,26,202,6250036,,,,,,,2022-02-16,1,,,,,イセヤ,0
410,2130003007754,新規,0,2022-02-16,2022-02-16,５５１６ＧＯＬＤ合同会社,,合同会社,京都府,京都市左京区,静市市原町９５１番地１２,,26,103,6011123,,,,,,,2022-02-16,1,,,,,ココイロゴールド,0
415,2140001124906,新規,0,2022-02-16,2022-02-16,株式会社想,,株式会社,兵庫県,加古川市,平荘町山角５６番地の１,,28,210,6751221,,,,,,,2022-02-16,1,,,,,ソウ,0
416,2140001124914,新規,0,2022-02-16,2022-02-16,株式会社Ｋ－ＩＮＴＥＲＩＯＲＷＯＲＫＳ,,株式会社,兵庫県,尼崎市,武庫之荘１丁目３７番２４－３０６号,,28,202,6610035,,,,,,,2022-02-16,1,,,,,ケーインテリアワークス,0
423,2160005011041,新規,0,2022-02-16,2022-02-16,農事組合法人鯰江菜の花ファーム,,その他の設立登記法人,滋賀県,東近江市,鯰江町１２９７番地（鯰江町自治会館内）,00125717,25,213,5270172,,,,,,,2022-02-16,1,,,,,ナマズエナノハナファーム,0
425,2170001016976,新規,0,2022-02-16,2022-02-16,株式会社九和楽,,株式会社,和歌山県,伊都郡九度山町,大字九度山１３５３番地,,30,343,6480101,,,,,,,2022-02-16,1,,,,,クワラク,0
430,2180301035923,新規,0,2022-02-16,2022-02-16,株式会社ベイカーズファーム,,株式会社,愛知県,豊橋市,神野新田町字ヨノ割７６番地１,,23,201,4418077,,,,,,,2022-02-16,1,,,,,ベイカーズファーム,0
456,2290001096453,新規,0,2022-02-16,2022-02-16,株式会社福岡外国人材サポートセンター,,株式会社,福岡県,福岡市中央区,清川１丁目７番１３号ＯＮＥＰＡＳＥＯ２階Ａ号,,40,133,8100005,,,,,,,2022-02-16,1,,,,,フクオカガイコクジンザイサポートセンター,0
460,2290003012136,新規,0,2022-02-16,2022-02-16,Ｃａｒｐｒｉｖｅｒ合同会社,,合同会社,福岡県,福岡市早良区,四箇田団地４番,,40,137,8140176,,,,,,,2022-02-16,1,,,,,カープリバー,0
485,2360003011799,新規,0,2022-02-16,2022-02-16,ＣＥＳ宮城１太陽光発電所合同会社,,合同会社,沖縄県,那覇市,松尾１丁目１０番２４号ホークシティ那覇ビル１階,,47,201,9000014,,,,,,,2022-02-16,1,,,,,シーイーエスミヤギワンタイヨウコウハツデンショ,0
486,2360003011808,新規,0,2022-02-16,2022-02-16,ＴＨＥ　ＤＯＯＲＳ合同会社,,合同会社,沖縄県,うるま市,勝連南風原３０４－２,,47,213,9042311,,,,,,,2022-02-16,1,,,,,ザドアーズ,0
488,2370003005585,新規,0,2022-02-16,2022-02-16,合同会社７８６Ｅｎｔｅｒｐｒｉｓｅ,,合同会社,宮城県,大崎市,松山長尾字氷室１５２番地,,04,215,9871302,,,,,,,2022-02-16,1,,,,,ナヤロエンタプライズ,0
490,2380001032572,新規,0,2022-02-16,2022-02-16,株式会社大和,,株式会社,福島県,田村市,都路町岩井沢字平蔵内２０番地１,,07,211,9634702,,,,,,,2022-02-16,1,,,,,ヤマト,0
498,2420003002453,新規,0,2022-02-16,2022-02-16,Ｒｉｎｇｓ合同会社,,合同会社,青森県,青森市,堤町１丁目７番１１号,,02,201,0300812,,,,,,,2022-02-16,1,,,,,リングス,0
504,2430003013631,新規,0,2022-02-16,2022-02-16,合同会社リセル,,合同会社,北海道,札幌市中央区,南九条西８丁目１番２６－８０２号,,01,101,0640809,,,,,,,2022-02-16,1,,,,,リセル,0
518,3010001224593,新規,0,2022-02-16,2022-02-16,株式会社Ｓｃｈｕｂｌａｄｅ,,株式会社,東京都,中央区,銀座１丁目１２－４Ｎ＆ＥＢＬＤ．７階,,13,102,1040061,,,,,,,2022-02-16,1,,,,,シュブラーデ,0
523,3010005034601,新規,0,2022-02-16,2022-02-16,一般社団法人音の絵,,その他の設立登記法人,東京都,中央区,銀座１丁目２２番１１号銀座大竹ビジデンス２階,,13,102,1040061,,,,,,,2022-02-16,1,,,,,オトノエ,0
533,3010405020688,新規,0,2022-02-16,2022-02-16,一般社団法人日本防災防犯用ヘリ操縦士等連合会,,その他の設立登記法人,東京都,港区,西新橋３丁目６番１０号,,13,103,1050003,,,,,,,2022-02-16,1,,,,,ニホンボウサイボウハンヨウヘリソウジュウシトウレンゴウカイ,0
534,3010405020696,新規,0,2022-02-16,2022-02-16,福岡一般社団法人,,その他の設立登記法人,東京都,港区,虎ノ門３丁目２２番１０－２０１号,,13,103,1050001,,,,,,,2022-02-16,1,,,,,フクオカ,0
537,3010601060661,新規,0,2022-02-16,2022-02-16,株式会社ココロｍｅａｌ,,株式会社,東京都,江東区,有明１丁目３－１－７１５,,13,108,1350063,,,,,,,2022-02-16,1,,,,,ココロミール,0
538,3010603009392,新規,0,2022-02-16,2022-02-16,合同会社ＴＭＲランドマネージメント,,合同会社,東京都,江東区,常盤２丁目４番３号,,13,108,1350006,,,,,,,2022-02-16,1,,,,,ティーエムアールランドマネージメント,0
539,3010605004045,新規,0,2022-02-16,2022-02-16,一般社団法人日本リ・ファッション協会,,その他の設立登記法人,東京都,墨田区,東向島１丁目２２番２号,,13,107,1310032,,,,,,,2022-02-16,1,,,,,ニホンリファッションキョウカイ,0
552,3010903007154,新規,0,2022-02-16,2022-02-16,Ｍｏｎｋｏ合同会社,,合同会社,東京都,世田谷区,上用賀５丁目８－３,,13,112,1580098,,,,,,,2022-02-16,1,,,,,モンコ,0
554,3011001145581,新規,0,2022-02-16,2022-02-16,株式会社ＣＯＧＮＯＳＰＨＥＲＥ,,株式会社,東京都,渋谷区,桜丘町１２－１０渋谷インフォスアネックス９階,,13,113,1500031,,,,,,,2022-02-16,1,,,,,コグノスフィア,0
555,3011001145656,新規,0,2022-02-16,2022-02-16,株式会社Ｖｉｃｏ．,,株式会社,東京都,渋谷区,渋谷３丁目１３－１,,13,113,1500002,,,,,,,2022-02-16,1,,,,,ヴィコ,0
560,3011101097797,新規,0,2022-02-16,2022-02-16,有料留学株式会社,,株式会社,東京都,新宿区,西早稲田１丁目１１番４号エスコート西早稲田４０３,,13,104,1690051,,,,,,,2022-02-16,1,,,,,ユウリョウリュウガク,0
561,3011101097822,新規,0,2022-02-16,2022-02-16,株式会社けだま,,株式会社,東京都,新宿区,新宿２丁目１番１４－１００２号,,13,104,1600022,,,,,,,2022-02-16,1,,,,,,0
562,3011101097830,新規,0,2022-02-16,2022-02-16,株式会社ＴＨＥ５,,株式会社,東京都,新宿区,歌舞伎町２丁目２１番２号,,13,104,1600021,,,,,,,2022-02-16,1,,,,,ザファイブ,0
566,3011201023645,新規,0,2022-02-16,2022-02-16,ＩＮ　ＴＨＥ　ＰＯＯＬ株式会社,,株式会社,東京都,中野区,中野５丁目２４番１８号,,13,114,1640001,,,,,,,2022-02-16,1,,,,,インザプール,0
570,3011301027554,新規,0,2022-02-16,2022-02-16,株式会社東京食堂,,株式会社,東京都,杉並区,下高井戸５丁目９番４５号,,13,115,1680073,,,,,,,2022-02-16,1,,,,,トウキョウショクドウ,0
580,3011803004968,新規,0,2022-02-16,2022-02-16,ブルーフィン合同会社,,合同会社,東京都,葛飾区,お花茶屋３丁目２２番６号,,13,122,1240003,,,,,,,2022-02-16,1,,,,,ブルーフィン,0
596,3020001145236,新規,0,2022-02-16,2022-02-16,株式会社推進協,,株式会社,神奈川県,横浜市緑区,三保町１７１番地１,,14,113,2260015,,,,,,,2022-02-16,1,,,,,スイシンキョウ,0
612,3030001146778,新規,0,2022-02-16,2022-02-16,株式会社ウィート,,株式会社,埼玉県,川越市,大字並木６１７番地９,,11,201,3500023,,,,,,,2022-02-16,1,,,,,ウィート,0
613,3030001146811,新規,0,2022-02-16,2022-02-16,株式会社Ｍ．Ｅ．Ｉ,,株式会社,埼玉県,川口市,本町４丁目４番１２－２６０１号,,11,203,3320012,,,,,,,2022-02-16,1,,,,,エムイーアイ,0
614,3030001146828,新規,0,2022-02-16,2022-02-16,株式会社Ｉｎｓａｎｅ　Ｃｏ．,,株式会社,埼玉県,さいたま市見沼区,大字中川３８９番地,,11,104,3370043,,,,,,,2022-02-16,1,,,,,インセインコー,0
616,3030003018851,新規,0,2022-02-16,2022-02-16,合同会社Ｍｅｄｉｃａｌ　Ｅｃｏｎｏｍｙ,,合同会社,埼玉県,さいたま市見沼区,大字東門前１番地２－５５４,,11,104,3370016,,,,,,,2022-02-16,1,,,,,メディカルエコノミー,0
619,3040001122233,新規,0,2022-02-16,2022-02-16,株式会社東和産業,,株式会社,千葉県,船橋市,緑台１丁目１番６４号,,12,204,2740818,,,,,,,2022-02-16,1,,,,,トウワサンギョウ,0
626,3040003019477,新規,0,2022-02-16,2022-02-16,Ｂｅｎｉｃｏ合同会社,,合同会社,千葉県,八千代市,八千代台東３丁目１０番５号,,12,221,2760032,,,,,,,2022-02-16,1,,,,,ベニコ,0
627,3040003019485,新規,0,2022-02-16,2022-02-16,グロースアーキテクト合同会社,,合同会社,千葉県,船橋市,坪井東６丁目１６－１,,12,204,2740060,,,,,,,2022-02-16,1,,,,,グロースアーキテクト,0
630,3060005009945,新規,0,2022-02-16,2022-02-16,ＮＰＯ法人ＦＲＩＥＰＩＣＫ,,その他の設立登記法人,栃木県,さくら市,フィオーレ喜連川３丁目１番１号,,09,214,3291417,,,,,,,2022-02-16,1,,,,,フレピック,0
634,3080001024756,新規,0,2022-02-16,2022-02-16,株式会社アルティス,,株式会社,静岡県,静岡市葵区,足久保口組３２７６番地の２０２,,22,101,4212124,,,,,,,2022-02-16,1,,,,,アルティス,0
640,3090001017412,新規,0,2022-02-16,2022-02-16,株式会社丹波山倶楽部,,株式会社,山梨県,北都留郡丹波山村,１９６１番地,,19,443,4090300,,,,,,,2022-02-16,1,,,,,タバヤマクラブ,0
649,3120001243847,新規,0,2022-02-16,2022-02-16,株式会社英,,株式会社,大阪府,枚方市,招提中町１丁目２番３号,,27,210,5731152,,,,,,,2022-02-16,1,,,,,ハナフサ,0
650,3120001243871,新規,0,2022-02-16,2022-02-16,ベストフィット株式会社,,株式会社,大阪府,大阪市東成区,中本３丁目１５番２４号２Ｆ,,27,115,5370022,,,,,,,2022-02-16,1,,,,,ベストフィット,0
653,3120003021136,新規,0,2022-02-16,2022-02-16,合同会社Ｇｏｏｄ　Ｓｕｐｐｏｒｔ,,合同会社,大阪府,大阪市東淀川区,東中島５丁目１８－２０,,27,114,5330033,,,,,,,2022-02-16,1,,,,,グッドサポート,0
654,3120003021152,新規,0,2022-02-16,2022-02-16,合同会社Ｃｒｅａｔｅ　ｆｕｔｕｒｅ,,合同会社,大阪府,大阪市中央区,淡路町３丁目４番８－１３０１号,,27,128,5410047,,,,,,,2022-02-16,1,,,,,クリエイトヒュチャー,0
657,3120101065051,新規,0,2022-02-16,2022-02-16,株式会社ｅｃｒｕ,,株式会社,大阪府,和泉市,はつが野３丁目３７番５号,,27,219,5941106,,,,,,,2022-02-16,1,,,,,エクリュ,0
658,3120101065092,新規,0,2022-02-16,2022-02-16,ＫＳＬ株式会社,,株式会社,大阪府,和泉市,内田町４丁目８番１９号,,27,219,5941156,,,,,,,2022-02-16,1,,,,,ケイエスエル,0
659,3120103004577,新規,0,2022-02-16,2022-02-16,合同会社いわい,,合同会社,大阪府,堺市堺区,東湊町３丁２２１番地１,,27,141,5900829,,,,,,,2022-02-16,1,,,,,イワイ,0
669,3122003002272,新規,0,2022-02-16,2022-02-16,ＧＬＳ合同会社,,合同会社,大阪府,大東市,川中新町１２番３０６号,,27,218,5740031,,,,,,,2022-02-16,1,,,,,ジーエルエス,0
676,3140001124913,新規,0,2022-02-16,2022-02-16,ＳＳ食品株式会社,,株式会社,兵庫県,姫路市,網干区新在家１３７０－２０,,28,201,6711234,,,,,,,2022-02-16,1,,,,,エスエスショクヒン,0
677,3140001124921,新規,0,2022-02-16,2022-02-16,株式会社リンクス,,株式会社,兵庫県,神戸市東灘区,本山中町３丁目１番２０－２０４号,,28,101,6580016,,,,,,,2022-02-16,1,,,,,リンクス,0
682,3160003002495,新規,0,2022-02-16,2022-02-16,合同会社ＪＪコーポレーション,,合同会社,滋賀県,守山市,水保町２２２７番地の３,,25,207,5240102,,,,,,,2022-02-16,1,,,,,ジェイジェイコーポレーション,0
685,3170001016975,新規,0,2022-02-16,2022-02-16,マルガキファーム株式会社,,株式会社,和歌山県,和歌山市,吉里３５４番地,,30,201,6400363,,,,,,,2022-02-16,1,,,,,マルガキファーム,0
695,3180001149980,新規,0,2022-02-16,2022-02-16,株式会社ｔｉｍｅｒｉｓｔ,,株式会社,愛知県,愛西市,善太新田町古株２１番地,,23,232,4960924,,,,,,,2022-02-16,1,,,,,タイムリスト,0
696,3180001149989,新規,0,2022-02-16,2022-02-16,株式会社アテナ,,株式会社,愛知県,名古屋市中川区,荒江町３６番１７号,,23,110,4540032,,,,,,,2022-02-16,1,,,,,アテナ,0
697,3180001149997,新規,0,2022-02-16,2022-02-16,株式会社エステイベース,,株式会社,愛知県,名古屋市名東区,上社１丁目１８０２番地,,23,115,4650025,,,,,,,2022-02-16,1,,,,,エステイベース,0
702,3180301035922,新規,0,2022-02-16,2022-02-16,日野株式会社,,株式会社,愛知県,豊橋市,東雲町１１９番地７,,23,201,4400051,,,,,,,2022-02-16,1,,,,,ヒノ,0
704,3180303005254,新規,0,2022-02-16,2022-02-16,合同会社グレイス,,合同会社,愛知県,岡崎市,羽根東町３丁目３番地７,,23,202,4440832,,,,,,,2022-02-16,1,,,,,グレイス,0
705,3180305009294,新規,0,2022-02-16,2022-02-16,中部国際事業協同組合,,その他の設立登記法人,愛知県,安城市,桜井町塔見塚３４番地,,23,212,4441154,,,,,,,2022-02-16,1,,,,,チュウブコクサイジギョウ,0
711,3210003001459,新規,0,2022-02-16,2022-02-16,ＣＲＩＰＴＯＫＥＮ合同会社,,合同会社,福井県,鯖江市,本町１丁目５－３,,18,207,9160026,,,,,,,2022-02-16,1,,,,,クリプトークン,0
713,3220003003215,新規,0,2022-02-16,2022-02-16,合同会社Ｓｈｉｎｉｎｇ　Ｌｉｆｅ,,合同会社,石川県,河北郡津幡町,字太田に２３‐６,,17,361,9290345,,,,,,,2022-02-16,1,,,,,シャイニングライフ,0
715,3230001019237,新規,0,2022-02-16,2022-02-16,株式会社坂口ストア,,株式会社,富山県,富山市,赤田６２７番地９,,16,201,9398064,,,,,,,2022-02-16,1,,,,,サカグチストア,0
722,3240003005498,新規,0,2022-02-16,2022-02-16,合同会社フラックス広島本店,,合同会社,広島県,広島市安佐南区,八木４丁目１１番７号,,34,105,7310101,,,,,,,2022-02-16,1,,,,,フラックスヒロシマホンテン,0
724,3260001036519,新規,0,2022-02-16,2022-02-16,株式会社ＪａｃｋＢ’ｓ,,株式会社,岡山県,倉敷市,玉島陶１１４０番地１０,,33,202,7138112,,,,,,,2022-02-16,1,,,,,ジャックビーズ,0
739,3290001096460,新規,0,2022-02-16,2022-02-16,ＳＯファーマ株式会社,,株式会社,福岡県,福岡市早良区,田村４丁目２４番２９号,,40,137,8140175,,,,,,,2022-02-16,1,,,,,エスオーファーマ,0
741,3290803004059,新規,0,2022-02-16,2022-02-16,合同会社スタム,,合同会社,福岡県,北九州市八幡西区,泉ケ浦２丁目２２番５２号,,40,109,8070854,,,,,,,2022-02-16,1,,,,,スタム,0
743,3320005009968,新規,0,2022-02-16,2022-02-16,企業組合さきがけ,,その他の設立登記法人,大分県,別府市,大字鶴見１６７１番地の１２,,44,202,8740840,,,,,,,2022-02-16,1,,,,,サキガケ,0
745,3330001029449,新規,0,2022-02-16,2022-02-16,株式会社ＡＩＲＡＮＤ,,株式会社,熊本県,熊本市南区,川尻５丁目７番１００号,,43,104,8614115,,,,,,,2022-02-16,1,,,,,アイランド,0
749,3350001017583,新規,0,2022-02-16,2022-02-16,株式会社ギヤファーム,,株式会社,宮崎県,宮崎市,東大淀１丁目２番３５号,,45,201,8800901,,,,,,,2022-02-16,1,,,,,ギヤファーム,0
753,3360003011807,新規,0,2022-02-16,2022-02-16,合同会社マキシマム,,合同会社,沖縄県,中頭郡北中城村,字ライカム５５４番地ベアーズコートライカムグランデ８０１,,47,327,9012306,,,,,,,2022-02-16,1,,,,,マキシマム,0
772,3430001086001,新規,0,2022-02-16,2022-02-16,株式会社ｓｕｎ　ｔｉｇｒｅ,,株式会社,北海道,札幌市白石区,菊水一条３丁目３番４６号,,01,104,0030801,,,,,,,2022-02-16,1,,,,,サンティグレ,0
774,3430003013630,新規,0,2022-02-16,2022-02-16,合同会社ＴＢＣサービス,,合同会社,北海道,江別市,文京台南町１７番地の３０,,01,217,0690835,,,,,,,2022-02-16,1,,,,,ティービーシーサービス,0
779,3460105002231,新規,0,2022-02-16,2022-02-16,龍雲寺,,その他の設立登記法人,北海道,帯広市,緑ケ丘８丁目１番地１,,01,207,0800846,,,,,,,2022-02-16,1,,,,,リュウウンジ,0
785,4010001224477,新規,0,2022-02-16,2022-02-16,ＨＡＫＯＢＵＮＥ株式会社,,株式会社,東京都,中央区,日本橋富沢町９－４日本橋富沢町ビル,,13,102,1030006,,,,,,,2022-02-16,1,,,,,ハコブネ,0
792,4010003036945,新規,0,2022-02-16,2022-02-16,シュトレン合同会社,,合同会社,東京都,中央区,銀座１丁目２２番１１号銀座大竹ビジデンス２階,,13,102,1040061,,,,,,,2022-02-16,1,,,,,シュトレン,0
793,4010003037019,新規,0,2022-02-16,2022-02-16,合同会社はまぐりＯＮＥ,,合同会社,東京都,千代田区,丸の内３丁目１番１号東京共同会計事務所内,,13,101,1000005,,,,,,,2022-02-16,1,,,,,ハマグリワン,0
796,4010005034591,新規,0,2022-02-16,2022-02-16,座間デベロップメント特定目的会社,,その他の設立登記法人,東京都,中央区,日本橋２丁目７番１号,,13,102,1030027,,,,,,,2022-02-16,1,,,,,ザマデベロップメント,0
801,4010401165560,新規,0,2022-02-16,2022-02-16,カポックグループ株式会社,,株式会社,東京都,港区,海岸１丁目７番１号東京ポートシティ竹芝オフィスタワー８階,,13,103,1050022,,,,,,,2022-02-16,1,,,,,カポックグループ,0
802,4010401165569,新規,0,2022-02-16,2022-02-16,株式会社ＬＩＢＥＲＡ　ＣＲＥＡＴＩＯＮ,,株式会社,東京都,港区,南青山２丁目２番１５号,,13,103,1070062,,,,,,,2022-02-16,1,,,,,リベラクリエーション,0
817,4010901050361,新規,0,2022-02-16,2022-02-16,株式会社ＣＲＯＷ,,株式会社,東京都,世田谷区,上北沢４丁目３４番１２－２０１号,,13,112,1560057,,,,,,,2022-02-16,1,,,,,クロウ,0
818,4010903007153,新規,0,2022-02-16,2022-02-16,合同会社などわど,,合同会社,東京都,世田谷区,北烏山７丁目２１番１７号,,13,112,1570061,,,,,,,2022-02-16,1,,,,,ナドワド,0
823,4011001145663,新規,0,2022-02-16,2022-02-16,株式会社Ｙ－Ｂｌｏｏｄ,,株式会社,東京都,目黒区,青葉台３丁目６番２８－２５０６号,,13,110,1530042,,,,,,,2022-02-16,1,,,,,ワイブラッド,0
824,4011001145671,新規,0,2022-02-16,2022-02-16,プレミアムウォーター富士株式会社,,株式会社,東京都,渋谷区,神宮前１丁目２３番２６号,,13,113,1500001,,,,,,,2022-02-16,1,,,,,プレミアムウォーターフジ,0
827,4011003014172,新規,0,2022-02-16,2022-02-16,中村商店合同会社,,合同会社,東京都,目黒区,東山３丁目３番１０号大沢ビル３階,,13,110,1530043,,,,,,,2022-02-16,1,,,,,ナカムラショウテン,0
828,4011005009443,新規,0,2022-02-16,2022-02-16,一般社団法人ＳＴＬＦ基金,,その他の設立登記法人,東京都,目黒区,目黒２丁目１０番８号第２アトモスフィア青山ビル６階,,13,110,1530063,,,,,,,2022-02-16,1,,,,,エスティエルエフキキン,0
830,4011103011474,新規,0,2022-02-16,2022-02-16,合同会社ＲＥＢＯＲＮ,,合同会社,東京都,新宿区,歌舞伎町２丁目１７－４コリンズ３７ビル３階,,13,104,1600021,,,,,,,2022-02-16,1,,,,,リボーン,0
838,4011201023644,新規,0,2022-02-16,2022-02-16,株式会社グローバル・アイズ,,株式会社,東京都,中野区,中野５丁目６０番１３号,,13,114,1640001,,,,,,,2022-02-16,1,,,,,グローバルアイズ,0
840,4011203003751,新規,0,2022-02-16,2022-02-16,合同会社おくろく,,合同会社,東京都,中野区,中野２丁目２１番１６号,,13,114,1640001,,,,,,,2022-02-16,1,,,,,オクロク,0
854,4012401038853,新規,0,2022-02-16,2022-02-16,株式会社スペースＩ,,株式会社,東京都,調布市,小島町２丁目２７番地８,,13,208,1820026,,,,,,,2022-02-16,1,,,,,スペースアイ,0
855,4012403005240,新規,0,2022-02-16,2022-02-16,合同会社ビズセンス,,合同会社,東京都,小金井市,梶野町１丁目２番３６号,,13,210,1840002,,,,,,,2022-02-16,1,,,,,ビズセンス,0
857,4012701016930,新規,0,2022-02-16,2022-02-16,ＭＥ不動産西東京株式会社,,株式会社,東京都,西東京市,田無町５丁目１番１号田無北口ビル,,13,229,1880011,,,,,,,2022-02-16,1,,,,,エムイーフドウサンニシトウキョウ,0
861,4013301048678,新規,0,2022-02-16,2022-02-16,ＴＱＣ株式会社,,株式会社,東京都,豊島区,巣鴨４丁目２１番９号下野第５ビル４階,,13,116,1700002,,,,,,,2022-02-16,1,,,,,ティーキューシー,0
862,4013301048686,新規,0,2022-02-16,2022-02-16,ｍａｃｈ株式会社,,株式会社,東京都,豊島区,北大塚２丁目２－１０マンションＶＩＰ大塚香川ビル１０１,,13,116,1700004,,,,,,,2022-02-16,1,,,,,マッハ,0
873,4020003021302,新規,0,2022-02-16,2022-02-16,合同会社春花,,合同会社,神奈川県,川崎市川崎区,小田栄２丁目１番５－１６１８号,,14,131,2100843,,,,,,,2022-02-16,1,,,,,シュンカ,0
874,4020005015384,新規,0,2022-02-16,2022-02-16,東京情報処理技術者会合,,その他の設立登記法人,神奈川県,横浜市旭区,今宿１丁目６２番２０号,,14,112,2410817,,,,,,,2022-02-16,1,,,,,トウキョウジョウホウショリギジュツシャカイゴウ,0
880,4021003011400,新規,0,2022-02-16,2022-02-16,合同会社ダブルフェイズ,,合同会社,神奈川県,逗子市,沼間１丁目３０９－６,,14,208,2490004,,,,,,,2022-02-16,1,,,,,ダブルフェイズ,0
890,4030001146769,新規,0,2022-02-16,2022-02-16,株式会社Ｎｏｖａ,,株式会社,埼玉県,戸田市,笹目南町２４番６号（オイコス弐番館２０２号室）,,11,224,3350035,,,,,,,2022-02-16,1,,,,,ノヴァ,0
891,4030001146785,新規,0,2022-02-16,2022-02-16,株式会社ＳＥＭＥ,,株式会社,埼玉県,さいたま市桜区,西堀９丁目１８番１６号メゾンアイ西堀２０１,,11,106,3380832,,,,,,,2022-02-16,1,,,,,セメ,0
892,4030001146793,新規,0,2022-02-16,2022-02-16,株式会社ミリネ,,株式会社,埼玉県,八潮市,大字大原６０５番地,,11,234,3400825,,,,,,,2022-02-16,1,,,,,ミリネ,0
893,4030003018850,新規,0,2022-02-16,2022-02-16,合同会社Ｃ＆Ｋ,,合同会社,埼玉県,戸田市,美女木４丁目９番地の９,,11,224,3350031,,,,,,,2022-02-16,1,,,,,シーアンドケー,0
901,4040001122240,新規,0,2022-02-16,2022-02-16,株式会社エムティアイ,,株式会社,千葉県,千葉市若葉区,桜木３丁目１８番１５マルスコート１０２,,12,104,2640028,,,,,,,2022-02-16,1,,,,,エムティアイ,0
902,4040001122249,新規,0,2022-02-16,2022-02-16,株式会社Ｂ・Ｏ・Ｌ,,株式会社,千葉県,市川市,大和田３丁目２番１２号,,12,203,2720025,,,,,,,2022-02-16,1,,,,,ビーオーエル,0
903,4040003019468,新規,0,2022-02-16,2022-02-16,合同会社ＣＯＭＰＬＥＸ,,合同会社,千葉県,成田市,並木町１４１番１３号グレンツェントＩ１０２号室,00125716,12,211,2860045,,,,,,,2022-02-16,1,,,,,コンプレックス,0
907,4050001050639,新規,0,2022-02-16,2022-02-16,株式会社小林重機,,株式会社,茨城県,小美玉市,竹原下郷２２８番地５,,08,236,3190112,,,,,,,2022-02-16,1,,,,,コバヤシジュウキ,0
910,4060001034574,新規,0,2022-02-16,2022-02-16,ＡＳＧＯＬＤ　ＫＨＯＫＨＡＲ株式会社,,株式会社,栃木県,小山市,東城南１丁目１０番地１,,09,208,3230829,,,,,,,2022-02-16,1,,,,,エーエスゴールドコーカル,0
913,4080003002734,新規,0,2022-02-16,2022-02-16,Ａｎａｆｉｃ合同会社,,合同会社,静岡県,藤枝市,駅前１丁目７－２４,,22,214,4260034,,,,,,,2022-02-16,1,,,,,アナフィック,0
916,4090001017411,新規,0,2022-02-16,2022-02-16,株式会社雅堂,,株式会社,山梨県,都留市,田原２丁目４番２１号,,19,204,4020054,,,,,,,2022-02-16,1,,,,,ミヤビドウ,0
918,4100001035064,新規,0,2022-02-16,2022-02-16,株式会社サンクスライフ,,株式会社,長野県,松本市,双葉１６番５号,,20,202,3900833,,,,,,,2022-02-16,1,,,,,サンクスライフ,0
924,4100003006393,新規,0,2022-02-16,2022-02-16,合同会社つばめ,,合同会社,長野県,飯田市,白山通り３丁目３４５－１ウィングヒルＡ１０２号室,,20,205,3950075,,,,,,,2022-02-16,1,,,,,ツバメ,0
938,4120101065075,新規,0,2022-02-16,2022-02-16,株式会社ｅｎｉｓｈｉ,,株式会社,大阪府,富田林市,宮町１丁目１番１９号,,27,214,5840011,,,,,,,2022-02-16,1,,,,,エニシ,0
941,4120103004576,新規,0,2022-02-16,2022-02-16,合同会社ＤＨＱ,,合同会社,大阪府,富田林市,若松町５丁目６番７号,,27,214,5840024,,,,,,,2022-02-16,1,,,,,ディーエイチキュー,0
947,4130001071131,新規,0,2022-02-16,2022-02-16,株式会社ディンク,,株式会社,京都府,京都市山科区,東野舞台町６９番地１３,,26,110,6078146,,,,,,,2022-02-16,1,,,,,ディンク,0
960,4160001023996,新規,0,2022-02-16,2022-02-16,株式会社エバグリーン滋賀,,株式会社,滋賀県,犬上郡甲良町,大字下之郷１５５６,,25,442,5220271,,,,,,,2022-02-16,1,,,,,エバグリーンシガ,0
970,4180001149963,新規,0,2022-02-16,2022-02-16,株式会社高森鉄筋,,株式会社,愛知県,一宮市,蓮池字郷中４７２番地１５,,23,203,4940019,,,,,,,2022-02-16,1,,,,,タカモリテッキン,0
971,4180001149988,新規,0,2022-02-16,2022-02-16,株式会社Ｒｉｌｉａｎ,,株式会社,愛知県,名古屋市中区,葵１丁目２２番１８号,,23,106,4600006,,,,,,,2022-02-16,1,,,,,リリアン,0
981,4180303005253,新規,0,2022-02-16,2022-02-16,ワンアシスト合同会社,,合同会社,愛知県,西尾市,八ツ面町尾屋敷２１番地１４,,23,213,4450082,,,,,,,2022-02-16,1,,,,,ワンアシスト,0
983,4190001029124,新規,0,2022-02-16,2022-02-16,株式会社モヤイテック,,株式会社,三重県,志摩市,阿児町神明２０８１番地５,,24,215,5170502,,,,,,,2022-02-16,1,,,,,モヤイテック,0
988,4220003003214,新規,0,2022-02-16,2022-02-16,スカイパネル合同会社,,合同会社,石川県,金沢市,高尾南１丁目１８６番地２,,17,201,9218154,,,,,,,2022-02-16,1,,,,,スカイパネル,0
1002,4290001096402,新規,0,2022-02-16,2022-02-16,株式会社ＬＫＴ,,株式会社,福岡県,福岡市中央区,今泉２丁目５番１９－３０５号,,40,133,8100021,,,,,,,2022-02-16,1,,,,,エルケーティー,0
1003,4290001096451,新規,0,2022-02-16,2022-02-16,師富宣夫商店株式会社,,株式会社,福岡県,筑後市,大字志４４０番地１,,40,211,8330017,,,,,,,2022-02-16,1,,,,,モロトミノブオショウテン,0
1005,4290003012150,新規,0,2022-02-16,2022-02-16,Ｋａｗａｗａ合同会社,,合同会社,福岡県,福岡市博多区,祇園町６番２６号ニューガイアオフィス博多３０４,,40,132,8120038,,,,,,,2022-02-16,1,,,,,カワワ,0
1009,4330001029448,新規,0,2022-02-16,2022-02-16,株式会社ＥＩＳＨＩＮ,,株式会社,熊本県,山鹿市,志々岐１３７２番地１,,43,208,8610542,,,,,,,2022-02-16,1,,,,,エイシン,0
1012,4350003004026,新規,0,2022-02-16,2022-02-16,Ｅｎｅ合同会社,,合同会社,宮崎県,日向市,原町１丁目２番地１コルセ・カレ日向４０６号室,,45,206,8830014,,,,,,,2022-02-16,1,,,,,イーエヌイー,0
1020,4360003011806,新規,0,2022-02-16,2022-02-16,合同会社琉加,,合同会社,沖縄県,豊見城市,字真玉橋５８０番地,,47,212,9010201,,,,,,,2022-02-16,1,,,,,リッカ,0
1021,4370001048205,新規,0,2022-02-16,2022-02-16,株式会社ＣＳＬ,,株式会社,宮城県,仙台市太白区,羽黒台１６番２５号,,04,104,9820817,,,,,,,2022-02-16,1,,,,,シーエスエル,0
1026,4380001032579,新規,0,2022-02-16,2022-02-16,株式会社ＴＡＣプランニング,,株式会社,福島県,岩瀬郡天栄村,大字田良尾字居平６３番地,,07,344,9620622,,,,,,,2022-02-16,1,,,,,タックプランニング,0
1030,4420003002451,新規,0,2022-02-16,2022-02-16,合同会社さとう不動産鑑定,,合同会社,青森県,黒石市,鍛治町３３,,02,204,0360363,,,,,,,2022-02-16,1,,,,,サトウフドウサンカンテイ,0
1035,4430001086009,新規,0,2022-02-16,2022-02-16,株式会社ＹＫＳ,,株式会社,北海道,札幌市東区,北五十条東６丁目１番１６号,,01,103,0070850,,,,,,,2022-02-16,1,,,,,イークス,0
1042,4500001024002,新規,0,2022-02-16,2022-02-16,ジョーロ株式会社,,株式会社,愛媛県,西条市,周布１７２９番地１０５号,,38,206,7991371,,,,,,,2022-02-16,1,,,,,ジョーロ,0
1044,4700150107099,新規,0,2022-02-16,2022-02-16,文教関係団体企業年金基金,,その他,東京都,新宿区,市谷田町２丁目１番３号市谷東ビル７階,,13,104,1620843,,,,,,,2022-02-16,1,,,,,ブンキヨウカンケイダンタイキギヨウネンキンキキン,0
1045,4700150107108,新規,0,2022-02-16,2022-02-16,永住管理諮詢（上海）有限公司,,外国会社等,,,,,,,,中華人民共和国上海市長寧区古北路６７８号２１０１室Ｆ区,,,,,,2022-02-16,1,,,,,エイジュウカンリシジュンシャンハイユウゲンコウシ,0
1052,5010001224591,新規,0,2022-02-16,2022-02-16,株式会社グローセンバウム,,株式会社,東京都,千代田区,鍛冶町１丁目１０番４号丸石ビルディング６階６０２号室,,13,101,1010044,,,,,,,2022-02-16,1,,,,,グローセンバウム,0
1053,5010001224609,新規,0,2022-02-16,2022-02-16,株式会社アドエナジー,,株式会社,東京都,中央区,銀座１丁目２２番１１号銀座大竹ビジデンス２階,,13,102,1040061,,,,,,,2022-02-16,1,,,,,アドエナジー,0
1054,5010001224625,新規,0,2022-02-16,2022-02-16,ｌｉｂｅｒｔｙ株式会社,,株式会社,東京都,中央区,勝どき５丁目３番１号勝どきザ・タワー４９１１,,13,102,1040054,,,,,,,2022-02-16,1,,,,,リバティ,0
1061,5010401165576,新規,0,2022-02-16,2022-02-16,中鼎オートパーツ株式会社,,株式会社,東京都,港区,元赤坂１丁目２番７号赤坂Ｋタワー,,13,103,1070051,,,,,,,2022-02-16,1,,,,,チュウテイオートパーツ,0
1062,5010401165584,新規,0,2022-02-16,2022-02-16,ＬＵＸ株式会社,,株式会社,東京都,港区,海岸３丁目６番３２号レグノオンザベイ２０２,,13,103,1080022,,,,,,,2022-02-16,1,,,,,ラックス,0
1064,5010503006505,新規,0,2022-02-16,2022-02-16,フィールドストーン３号合同会社,,合同会社,東京都,台東区,下谷３丁目１０番１０号,,13,106,1100004,,,,,,,2022-02-16,1,,,,,フィールドストーンサンゴウ,0
1066,5010601060676,新規,0,2022-02-16,2022-02-16,株式会社松優建設,,株式会社,東京都,墨田区,立花２丁目２５－１０ユニックス橘Ａ２０１,,13,107,1310043,,,,,,,2022-02-16,1,,,,,マツユウケンセツ,0
1067,5010601060684,新規,0,2022-02-16,2022-02-16,グリーンプロセステクノロジー株式会社,,株式会社,東京都,江東区,東陽４丁目１０番３－９０２号,,13,108,1350016,,,,,,,2022-02-16,1,,,,,グリーンプロセステクノロジー,0
1068,5010605004043,新規,0,2022-02-16,2022-02-16,一般社団法人日本微細藻類応用促進会,,その他の設立登記法人,東京都,江東区,豊洲６丁目２番２９号,,13,108,1350061,,,,,,,2022-02-16,1,,,,,ニホンビサイソウルイオウヨウソクシンカイ,0
1069,5010705003317,新規,0,2022-02-16,2022-02-16,一般社団法人ウィリアム・シェイクスピア・フェローズ,,その他の設立登記法人,東京都,品川区,東五反田５丁目２５番１４号,,13,109,1410022,,,,,,,2022-02-16,1,,,,,ウィリアムシェイクスピアフェローズ,0
1088,5011001145654,新規,0,2022-02-16,2022-02-16,株式会社アミソレイユ,,株式会社,東京都,目黒区,目黒１丁目４番１６号目黒Ｇビル７Ｆ,,13,110,1530063,,,,,,,2022-02-16,1,,,,,アミソレイユ,0
1089,5011001145662,新規,0,2022-02-16,2022-02-16,新未来再生コンサルティング株式会社,,株式会社,東京都,目黒区,八雲２丁目２１番２－３０３号,,13,110,1520023,,,,,,,2022-02-16,1,,,,,シンミライサイセイコンサルティング,0
1090,5011001145679,新規,0,2022-02-16,2022-02-16,株式会社Ｉｖａｎｗａｌｄ,,株式会社,東京都,渋谷区,神宮前６丁目２３番４号,,13,113,1500001,,,,,,,2022-02-16,1,,,,,アイバンウォールド,0
1091,5011001145729,新規,0,2022-02-16,2022-02-16,ＡＫＴトレーディング株式会社,,株式会社,東京都,渋谷区,富ヶ谷２丁目３９番６号,,13,113,1510063,,,,,,,2022-02-16,1,,,,,アクトトレーディング,0
1097,5011101097804,新規,0,2022-02-16,2022-02-16,株式会社ＭＡＪＥ,,株式会社,東京都,新宿区,歌舞伎町２丁目１３－２、２Ｆ,,13,104,1600021,,,,,,,2022-02-16,1,,,,,マジェ,0
1099,5011103011473,新規,0,2022-02-16,2022-02-16,合同会社ｎ　ｔｒｅｓ,,合同会社,東京都,新宿区,西新宿１丁目４－１１,,13,104,1600023,,,,,,,2022-02-16,1,,,,,エヌトレス,0
1102,5011201023643,新規,0,2022-02-16,2022-02-16,株式会社ＥｎｏＶａｔｉｏｎ,,株式会社,東京都,中野区,沼袋１丁目２０番４号,,13,114,1650025,,,,,,,2022-02-16,1,,,,,イノベーション,0
1107,5011601025743,新規,0,2022-02-16,2022-02-16,株式会社イル・ミト,,株式会社,東京都,練馬区,貫井２丁目３０番１３号,,13,120,1760021,,,,,,,2022-02-16,1,,,,,イルミト,0
1109,5011701025049,新規,0,2022-02-16,2022-02-16,株式会社ｃｈｅｃｋ　ｉｎ　ｔｈｅ　ｄａｒｋ,,株式会社,東京都,江戸川区,東葛西５丁目１３番９号,,13,123,1340084,,,,,,,2022-02-16,1,,,,,チェックインザダーク,0
1113,5011801040336,新規,0,2022-02-16,2022-02-16,株式会社ｓｈｉｐ,,株式会社,東京都,葛飾区,青戸７丁目６番５,,13,122,1250062,,,,,,,2022-02-16,1,,,,,シップ,0
1118,5012801021400,新規,0,2022-02-16,2022-02-16,ＴＯＰ美和株式会社,,株式会社,東京都,国分寺市,東恋ヶ窪１丁目２８０番地４ザ・パークハウス国分寺四季の森ＩＩ－５１２,00125718,13,214,1850014,,,,,,,2022-02-16,1,,,,,トップミワ,0
1121,5013305003307,新規,0,2022-02-16,2022-02-16,一般社団法人占猫・天宝三日月猫,,その他の設立登記法人,東京都,豊島区,西池袋３丁目２５番８号,,13,116,1710021,,,,,,,2022-02-16,1,,,,,センニャマリアミカヅキネコ,0
1125,5020001145226,新規,0,2022-02-16,2022-02-16,株式会社ＭｏｖｅＥ,,株式会社,神奈川県,横浜市港南区,上永谷２丁目４－２６,,14,111,2330012,,,,,,,2022-02-16,1,,,,,ムーブイー,0
1138,5030005020721,新規,0,2022-02-16,2022-02-16,特定非営利活動法人プレクトラム音楽研究会,,その他の設立登記法人,埼玉県,春日部市,大字増富４１３番地１春日部ハイデンス１－２１４号室,,11,214,3440000,,,,,,,2022-02-16,1,,,,,プレクトラムオンガクケンキュウカイ,0
1148,5040003019509,新規,0,2022-02-16,2022-02-16,合同会社市川ウェブデザイン,,合同会社,千葉県,市川市,田尻４丁目９－１６西船橋永谷マンション５０６,,12,203,2720014,,,,,,,2022-02-16,1,,,,,イチカワウェブデザイン,0
1153,5050003006373,新規,0,2022-02-16,2022-02-16,合同会社ＣＨＯＵＤＨＡＲＹ　ＴＲＡＤＩＮＧ,,合同会社,茨城県,筑西市,押尾５５２番地１,,08,227,3004511,,,,,,,2022-02-16,1,,,,,チョウダリトレーディング,0
1162,5080001024754,新規,0,2022-02-16,2022-02-16,株式会社Ｒ’ｓ,,株式会社,静岡県,静岡市駿河区,中島１２７４番地１カーサライトワンＡ３０６,,22,102,4228046,,,,,,,2022-02-16,1,,,,,アールズ,0
1163,5080003002733,新規,0,2022-02-16,2022-02-16,ミセス見城合同会社,,合同会社,静岡県,焼津市,駅北１丁目２番３－５０５号ライオンズマンション,,22,212,4250028,,,,,,,2022-02-16,1,,,,,ミセスケンジョウ,0
1166,5110005016760,新規,0,2022-02-16,2022-02-16,再生可能エネルギー協同組合,,その他の設立登記法人,新潟県,新発田市,中央町４丁目１４番１１号,,15,206,9570053,,,,,,,2022-02-16,1,,,,,サイセイカノウエネルギー,0
1174,5120001243804,新規,0,2022-02-16,2022-02-16,丸阪株式会社,,株式会社,大阪府,大阪市中央区,松屋町９番２０号ローレルステート松屋町７０５Ａ,,27,128,5420067,,,,,,,2022-02-16,1,,,,,マルハン,0
1175,5120001243845,新規,0,2022-02-16,2022-02-16,株式会社Ｈｏｐｅｔｕｒｅ,,株式会社,大阪府,大阪市中央区,本町４丁目５－１５本町ＯＳビル４０８,,27,128,5410053,,,,,,,2022-02-16,1,,,,,ホープチャー,0
1177,5120003021126,新規,0,2022-02-16,2022-02-16,ＴＨＵＲ　ＦＡＳＨＩＯＮ　ＳＴＹＬＥ合同会社,,合同会社,大阪府,大阪市平野区,背戸口３丁目７番６号３０１,,27,126,5470034,,,,,,,2022-02-16,1,,,,,ツアーファッションスタイル,0
1178,5120003021142,新規,0,2022-02-16,2022-02-16,合同会社ハルニレ,,合同会社,大阪府,大阪市淀川区,十八条２丁目１８番１１７号,,27,123,5320001,,,,,,,2022-02-16,1,,,,,ハルニレ,0
1181,5120103004567,新規,0,2022-02-16,2022-02-16,合同会社Ｌ－ＤＡＳＨ,,合同会社,大阪府,堺市北区,東雲東町１丁３－１６,,27,146,5918041,,,,,,,2022-02-16,1,,,,,エルダッシュ,0
1190,5130001071130,新規,0,2022-02-16,2022-02-16,ＩＢＣ　ＡＵＴＯ株式会社,,株式会社,京都府,八幡市,男山香呂６番地,,26,210,6148377,,,,,,,2022-02-16,1,,,,,アイビーシオート,0
1191,5130001071147,新規,0,2022-02-16,2022-02-16,株式会社ライフウェル,,株式会社,京都府,宇治市,神明宮北２２番地の１５,,26,204,6110025,,,,,,,2022-02-16,1,,,,,ライフウェル,0
1200,5140003017353,新規,0,2022-02-16,2022-02-16,Ｓ－ＫＩＮＯ合同会社,,合同会社,兵庫県,明石市,大久保町江井島８４４番地,,28,203,6740064,,,,,,,2022-02-16,1,,,,,エスキノ,0
1201,5140003017361,新規,0,2022-02-16,2022-02-16,合同会社アベレージ,,合同会社,兵庫県,赤穂市,加里屋２１４５番地,,28,212,6780239,,,,,,,2022-02-16,1,,,,,アベレージ,0
1203,5150001025340,新規,0,2022-02-16,2022-02-16,株式会社増村産業,,株式会社,奈良県,大和郡山市,馬司町１０００番地,,29,203,6391124,,,,,,,2022-02-16,1,,,,,マスムラサンギョウ,0
1210,5170003001684,新規,0,2022-02-16,2022-02-16,合同会社西村水産加工,,合同会社,和歌山県,和歌山市,大谷４８１番地,,30,201,6408472,,,,,,,2022-02-16,1,,,,,ニシムラスイサンカコウ,0
1219,5180001149987,新規,0,2022-02-16,2022-02-16,株式会社セブンダイエット,,株式会社,愛知県,名古屋市中川区,高畑４丁目２８番地,,23,110,4540911,,,,,,,2022-02-16,1,,,,,セブンダイエット,0
1222,5180301035929,新規,0,2022-02-16,2022-02-16,株式会社涼園豊田,,株式会社,愛知県,豊田市,聖心町３丁目２５番地１,,23,211,4710844,,,,,,,2022-02-16,1,,,,,リョウエントヨタ,0
1223,5180303005252,新規,0,2022-02-16,2022-02-16,ティエヌエクスビジネス合同会社,,合同会社,愛知県,刈谷市,若松町３丁目９,,23,210,4480858,,,,,,,2022-02-16,1,,,,,,0
1238,5270001008457,新規,0,2022-02-16,2022-02-16,株式会社ＲＹＵ　Ｔｒａｄｉｎｇ　Ｃｏｍｐａｎｙ,,株式会社,鳥取県,倉吉市,上井３６１－１メゾンヤマダ１－Ｃ,,31,203,6820021,,,,,,,2022-02-16,1,,,,,リュウトレーディングカンパニー,0
1248,5300001012810,新規,0,2022-02-16,2022-02-16,株式会社ヨコオ,,株式会社,佐賀県,小城市,三日月町樋口１４３３番地,00125719,41,208,8450033,,,,,,,2022-02-16,1,,,,,ヨコオ,0
1250,5310003004276,新規,0,2022-02-16,2022-02-16,合同会社Ｒｅｖｉａ,,合同会社,長崎県,諫早市,多良見町市布１３１８番地１,,42,204,8590403,,,,,,,2022-02-16,1,,,,,レビア,0
1263,5360001030006,新規,0,2022-02-16,2022-02-16,株式会社ＭｏｒｅＣｈｏｉｃｅ,,株式会社,沖縄県,石垣市,字大川２７８番地ＴＡＭＡビルＩＩ２Ｆ２０１号室,00125726,47,207,9070022,,,,,,,2022-02-16,1,,,,,モアチョイス,0
1264,5360003011796,新規,0,2022-02-16,2022-02-16,合同会社ローズマミー,,合同会社,沖縄県,うるま市,字赤道１７４番地５,,47,213,9042245,,,,,,,2022-02-16,1,,,,,ローズマミー,0
1267,5380001032578,新規,0,2022-02-16,2022-02-16,青州株式会社,,株式会社,福島県,福島市,桜本字木通沢４番地,,07,201,9602251,,,,,,,2022-02-16,1,,,,,セイシュウ,0
1268,5390003001927,新規,0,2022-02-16,2022-02-16,合同会社ＮＣ　ＴＲＡＤＩＮＧ,,合同会社,山形県,西村山郡河北町,谷地字十二堂８番地の２０メゾングレイス２１　２０２,,06,321,9993511,,,,,,,2022-02-16,1,,,,,エヌシートレーディング,0
1277,5430003013629,新規,0,2022-02-16,2022-02-16,合同会社ＨＯＴ企画,,合同会社,北海道,札幌市白石区,菊水元町九条１丁目１番１１号,,01,104,0030829,,,,,,,2022-02-16,1,,,,,ホットキカク,0
1284,5500001024001,新規,0,2022-02-16,2022-02-16,株式会社林業商社天空の森,,株式会社,愛媛県,上浮穴郡久万高原町,久万２６５番地２,,38,386,7911201,,,,,,,2022-02-16,1,,,,,リンギョウショウシャテンクウノモリ,0
1285,5500003002772,新規,0,2022-02-16,2022-02-16,合同会社ＴＥＫ,,合同会社,愛媛県,松山市,古川南３丁目１６番１８号,,38,201,7900943,,,,,,,2022-02-16,1,,,,,ティーイーケイ,0
1286,5700150106728,新規,0,2022-02-16,2022-01-19,Ｍｏｏｎｌｉｇｈｔ　Ｏｆｆｉｃｅ,,その他,福岡県,福岡市南区,野間１丁目１１－３１－１００５,,40,134,8150041,,,,,,,2022-01-19,1,,,,,ムーンライトオフイス,0
1287,5700150107098,新規,0,2022-02-16,2022-02-16,そくりょう＆デザイン企業年金基金,,その他,東京都,新宿区,山吹町１１番地１測量年金会館,,13,104,1620801,,,,,,,2022-02-16,1,,,,,ソクリヨウアンドデザインキギヨウネンキンキキン,0
1294,6010001224418,新規,0,2022-02-16,2022-02-16,株式会社ＳＤＧｓ,,株式会社,東京都,中央区,日本橋室町１丁目２番６号,,13,102,1030022,,,,,,,2022-02-16,1,,,,,エスディージーズ,0
1295,6010001224533,新規,0,2022-02-16,2022-02-16,ＨＲＥ株式会社,,株式会社,東京都,千代田区,東神田２丁目９番１９－１１０１号,,13,101,1010031,,,,,,,2022-02-16,1,,,,,エイチアールイー,0
1296,6010001224566,新規,0,2022-02-16,2022-02-16,株式会社Ｂｕｔｔｅｒ　ｕｐ,,株式会社,東京都,中央区,銀座１丁目２２番１１号銀座大竹ビジデンス２階,,13,102,1040061,,,,,,,2022-02-16,1,,,,,バターアップ,0
1297,6010001224599,新規,0,2022-02-16,2022-02-16,株式会社ＨＥＲＯＳ,,株式会社,東京都,千代田区,神田岩本町三丁目１０番７号東自機ビル７階,,13,101,1010033,,,,,,,2022-02-16,1,,,,,ヒーローズ,0
1298,6010001224608,新規,0,2022-02-16,2022-02-16,株式会社ブライトテック,,株式会社,東京都,千代田区,飯田橋４丁目４番１－４０２号,,13,101,1020072,,,,,,,2022-02-16,1,,,,,ブライトテック,0
1299,6010001224632,新規,0,2022-02-16,2022-02-16,株式会社喜喜,,株式会社,東京都,中央区,銀座６丁目６番１号,,13,102,1040061,,,,,,,2022-02-16,1,,,,,キキ,0
1302,6010003037009,新規,0,2022-02-16,2022-02-16,ＡＤＯＦ合同会社,,合同会社,東京都,千代田区,麹町１丁目７番地相互半蔵門ビルディング３階,,13,101,1020083,,,,,,,2022-02-16,1,,,,,エイドフ,0
1311,6010103001863,新規,0,2022-02-16,2022-02-16,ＬＵＣＫＮＥＥ合同会社,,合同会社,東京都,八王子市,下恩方町２２１７番地１２,,13,201,1920154,,,,,,,2022-02-16,1,,,,,,0
1320,6010401165567,新規,0,2022-02-16,2022-02-16,株式会社ねむり物語,,株式会社,東京都,港区,北青山２丁目７番２０号猪瀬ビル２階,,13,103,1070061,,,,,,,2022-02-16,1,,,,,ネムリモノガタリ,0
1322,6010405020693,新規,0,2022-02-16,2022-02-16,一般社団法人アジア包括支援センター,,その他の設立登記法人,東京都,港区,南麻布４丁目１３番８号,,13,103,1060047,,,,,,,2022-02-16,1,,,,,アジアホウカツシエンセンター,0
1323,6010503006504,新規,0,2022-02-16,2022-02-16,フィールドストーン２号合同会社,,合同会社,東京都,台東区,下谷３丁目１０番１０号,,13,106,1100004,,,,,,,2022-02-16,1,,,,,フィールドストーンニゴウ,0
1351,6011003014179,新規,0,2022-02-16,2022-02-16,Ｊ　ＬＥＡＤ　ＰＡＲＴＮＥＲＳ　ＦＵＮＤ合同会社,,合同会社,東京都,渋谷区,代官山町１８番６号,,13,113,1500034,,,,,,,2022-02-16,1,,,,,ジェイリードパートナーズファンド,0
1352,6011003014212,新規,0,2022-02-16,2022-02-16,合同会社ＳＴＬＦ,,合同会社,東京都,目黒区,目黒２丁目１０番８号第２アトモスフィア青山ビル６階,,13,110,1530063,,,,,,,2022-02-16,1,,,,,エスティエルエフ,0
1354,6011101097811,新規,0,2022-02-16,2022-02-16,株式会社Ｇｒｅｅｎ＆Ｄｉｇｉｔａｌ　Ｐａｒｔｎｅｒｓ,,株式会社,東京都,新宿区,西新宿８丁目１１－１０星野ビル３Ｆ,,13,104,1600023,,,,,,,2022-02-16,1,,,,,,0
1359,6011501027756,新規,0,2022-02-16,2022-02-16,株式会社ＡＫＨＩ．Ｉｎｔｅｒｎａｔｉｏｎａｌ,,株式会社,東京都,北区,浮間３丁目１番３８号志藤ビル１階１０１号室,,13,117,1150051,,,,,,,2022-02-16,1,,,,,アクヒインターナショナル,0
1362,6011701025048,新規,0,2022-02-16,2022-02-16,ＫＡＩＳＥＲ　ＦＯＲＥＸ株式会社,,株式会社,東京都,江戸川区,東葛西７丁目１８番１０号クレセールＩＩ２,00125725,13,123,1340084,,,,,,,2022-02-16,1,,,,,カイザーフォレックス,0
1368,6011801040319,新規,0,2022-02-16,2022-02-16,株式会社トルミ,,株式会社,東京都,葛飾区,亀有３丁目３番２－３０５号,,13,122,1250061,,,,,,,2022-02-16,1,,,,,トルミ,0
1370,6012405004701,新規,0,2022-02-16,2022-02-16,一般社団法人ハートノコル,,その他の設立登記法人,東京都,府中市,白糸台１丁目１６番地の２０第二綿新２０５,,13,206,1830011,,,,,,,2022-02-16,1,,,,,ハートノコル,0
1373,6012801021399,新規,0,2022-02-16,2022-02-16,株式会社揚山タイル,,株式会社,東京都,昭島市,中神町２丁目２７番１６号,,13,207,1960022,,,,,,,2022-02-16,1,,,,,アゲヤマタイル,0
1381,6013301048684,新規,0,2022-02-16,2022-02-16,株式会社ＭＦＴ,,株式会社,東京都,豊島区,高田３丁目５番３号第３布施ビル１Ｆ,,13,116,1710033,,,,,,,2022-02-16,1,,,,,エムエフティー,0
1383,6013305003306,新規,0,2022-02-16,2022-02-16,一般社団法人御茶ノ水呼吸器医療人材育成機構,,その他の設立登記法人,東京都,豊島区,駒込４丁目２番１７号,,13,116,1700003,,,,,,,2022-02-16,1,,,,,オチャノミズコキュウキイリョウジンザイイクセイキコウ,0
1400,6030001146791,新規,0,2022-02-16,2022-02-16,株式会社トップハウス,,株式会社,埼玉県,川口市,大字辻４９５番地の６,00125720,11,203,3340004,,,,,,,2022-02-16,1,,,,,トップハウス,0
1401,6030001146825,新規,0,2022-02-16,2022-02-16,株式会社フタバ,,株式会社,埼玉県,所沢市,東所沢和田１丁目２４番地５－３０７,,11,208,3590023,,,,,,,2022-02-16,1,,,,,フタバ,0
1405,6030003018857,新規,0,2022-02-16,2022-02-16,ＮＥＰＴＵＮＥ　ＪＡＰＡＮ合同会社,,合同会社,埼玉県,新座市,東３丁目１８番３号,,11,230,3520002,,,,,,,2022-02-16,1,,,,,ネプチューンジャパン,0
1408,6040001122230,新規,0,2022-02-16,2022-02-16,日本バングラデシュイノベーション株式会社,,株式会社,千葉県,流山市,大字西平井１０２９番地の７,,12,220,2700156,,,,,,,2022-02-16,1,,,,,ニッポンバングラデシュイノベーション,0
1409,6040001122255,新規,0,2022-02-16,2022-02-16,パナエレコム株式会社,,株式会社,千葉県,市原市,ちはら台東７丁目２番地４,,12,219,2900141,,,,,,,2022-02-16,1,,,,,パナエレコム,0
1438,6120001243860,新規,0,2022-02-16,2022-02-16,株式会社レイブリス,,株式会社,大阪府,大阪市城東区,鴫野西５丁目２０番２５号,,27,118,5360014,,,,,,,2022-02-16,1,,,,,レイブリス,0
1443,6120003021133,新規,0,2022-02-16,2022-02-16,合同会社いきがい,,合同会社,大阪府,大阪市住吉区,南住吉３丁目９番２６号シャルマン清水４０１号,,27,120,5580041,,,,,,,2022-02-16,1,,,,,イキガイ,0
1451,6120101065073,新規,0,2022-02-16,2022-02-16,三石ホールディングス株式会社,,株式会社,大阪府,堺市堺区,築港南町１番地１番,,27,141,5900987,,,,,,,2022-02-16,1,,,,,ミツイシホールディングス,0
1452,6120101065081,新規,0,2022-02-16,2022-02-16,株式会社幸寿,,株式会社,大阪府,堺市中区,福田２５５番地１１,,27,142,5998241,,,,,,,2022-02-16,1,,,,,コウジュ,0
1483,6180001150003,新規,0,2022-02-16,2022-02-16,株式会社長屋製作所,,株式会社,愛知県,犬山市,字東北野２６８番地６,,23,215,4840868,,,,,,,2022-02-16,1,,,,,ナガヤセイサクショ,0
1491,6190001029122,新規,0,2022-02-16,2022-02-16,株式会社虹クリエーション,,株式会社,三重県,伊勢市,御薗町長屋１５８９番地７,,24,203,5160804,,,,,,,2022-02-16,1,,,,,ニジクリエーション,0
1496,6200001039747,新規,0,2022-02-16,2022-02-16,株式会社オチケン,,株式会社,岐阜県,岐阜市,長良福光２２３９番地２,,21,201,5020817,,,,,,,2022-02-16,1,,,,,オチケン,0
1506,6240003005495,新規,0,2022-02-16,2022-02-16,合同会社真総建,,合同会社,広島県,広島市中区,吉島東１丁目２４番２５－１４０２号,,34,101,7300822,,,,,,,2022-02-16,1,,,,,マコトソウケン,0
1508,6260003003803,新規,0,2022-02-16,2022-02-16,合同会社ＳＫＣ岡山,,合同会社,岡山県,総社市,泉１１番７号,,33,208,7191106,,,,,,,2022-02-16,1,,,,,エスケーシーオカヤマ,0
1509,6280001008637,新規,0,2022-02-16,2022-02-16,株式会社善助屋,,株式会社,島根県,鹿足郡津和野町,瀧元３０７番地,,32,501,6995206,,,,,,,2022-02-16,1,,,,,ゼンスケヤ,0
1514,6290001096458,新規,0,2022-02-16,2022-02-16,株式会社エイジングケアコスメ,,株式会社,福岡県,筑紫野市,大字俗明院１３３番地３,,40,217,8180067,,,,,,,2022-02-16,1,,,,,エイジングケアコスメ,0
1517,6290003012157,新規,0,2022-02-16,2022-02-16,ＳＥＢＰＣＯ合同会社,,合同会社,福岡県,福岡市早良区,百道浜２丁目４番２７号ＡＩビル６Ｆ,,40,137,8140001,,,,,,,2022-02-16,1,,,,,エスイービーピーシーオー,0
1526,6310003004275,新規,0,2022-02-16,2022-02-16,合同会社叶笑,,合同会社,長崎県,東彼杵郡川棚町,白石郷１４５８番地２,,42,322,8593616,,,,,,,2022-02-16,1,,,,,トワ,0
1527,6320001018895,新規,0,2022-02-16,2022-02-16,えんじょいＬＩＦＥ株式会社,,株式会社,大分県,別府市,楠町１４番１４－１０９号,,44,202,8740943,,,,,,,2022-02-16,1,,,,,エンジョイライフ,0
1536,6340003003712,新規,0,2022-02-16,2022-02-16,合同会社宮原,,合同会社,鹿児島県,薩摩川内市,東郷町斧渕８８６２番地９,,46,215,8951106,,,,,,,2022-02-16,1,,,,,ミヤハラ,0
1545,6360003011804,新規,0,2022-02-16,2022-02-16,合同会社ＲＨ,,合同会社,沖縄県,那覇市,字上間５５９－１サンフェアリー毎日３０３,,47,201,9020073,,,,,,,2022-02-16,1,,,,,アールエイチ,0
1547,6370003005581,新規,0,2022-02-16,2022-02-16,ステア合同会社,,合同会社,宮城県,仙台市若林区,荒井２丁目８番地の２５,,04,103,9840032,,,,,,,2022-02-16,1,,,,,ステア,0
1549,6380001032577,新規,0,2022-02-16,2022-02-16,株式会社Ｒｅｗｒｉｔｅ,,株式会社,福島県,郡山市,田村町金屋字新家１５番地の２,,07,203,9630725,,,,,,,2022-02-16,1,,,,,リライト,0
1553,6380003005102,新規,0,2022-02-16,2022-02-16,合同会社ＳＯＲａ,,合同会社,福島県,須賀川市,妙見１２２番地２,,07,207,9620865,,,,,,,2022-02-16,1,,,,,ソラ,0
1559,6390003001926,新規,0,2022-02-16,2022-02-16,合同会社Ｌｕｃｅ,,合同会社,山形県,天童市,老野森３丁目２４番７－１０１号ロイヤルヒルズ老野森,,06,210,9940013,,,,,,,2022-02-16,1,,,,,ルーチェ,0
1573,6430003013628,新規,0,2022-02-16,2022-02-16,合同会社北海道事業承継機構,,合同会社,北海道,札幌市東区,東苗穂九条３丁目７－５,,01,103,0070809,,,,,,,2022-02-16,1,,,,,ホッカイドウジギョウショウケイキコウ,0
1575,6460003000879,新規,0,2022-02-16,2022-02-16,合同会社きさらぎ,,合同会社,北海道,釧路市,浦見４丁目３番５号,,01,206,0850835,,,,,,,2022-02-16,1,,,,,キサラギ,0
1576,6470003002131,新規,0,2022-02-16,2022-02-16,Ｖａｒｉｏ合同会社,,合同会社,香川県,高松市,春日町８４８番地１,,37,201,7610101,,,,,,,2022-02-16,1,,,,,ヴァリオ,0
1577,6480003001792,新規,0,2022-02-16,2022-02-16,合同会社フツヌシ,,合同会社,徳島県,徳島市,三軒屋町外２４番地８６,,36,201,7708025,,,,,,,2022-02-16,1,,,,,フツヌシ,0
1590,7010001224532,新規,0,2022-02-16,2022-02-16,株式会社レクター,,株式会社,東京都,中央区,銀座１丁目１２－４Ｎ＆ＥＢＬＤ．７階,,13,102,1040061,,,,,,,2022-02-16,1,,,,,レクター,0
1591,7010001224623,新規,0,2022-02-16,2022-02-16,株式会社ＣＬＥＯ,,株式会社,東京都,中央区,日本橋堀留町１丁目３番１６号ＪＳＢレジデンス＆オフィス日本橋３２１号,,13,102,1030012,,,,,,,2022-02-16,1,,,,,クレオ,0
1598,7010401165574,新規,0,2022-02-16,2022-02-16,株式会社バリューアップデザイン,,株式会社,東京都,港区,南青山２丁目２番１５－３０２号ウィン青山,,13,103,1070062,,,,,,,2022-02-16,1,,,,,バリューアップデザイン,0
1599,7010401165599,新規,0,2022-02-16,2022-02-16,株式会社ＡＴＲＡＬ,,株式会社,東京都,港区,南青山１丁目２６番５号,,13,103,1070062,,,,,,,2022-02-16,1,,,,,アトラル,0
1601,7010403027005,新規,0,2022-02-16,2022-02-16,Ｂｌａｃｋｆｏｒｅｓｔ合同会社,,合同会社,東京都,港区,赤坂３丁目９―１８赤坂見附ＫＩＴＡＹＡＭＡビル５Ｆ,,13,103,1070052,,,,,,,2022-02-16,1,,,,,ブラックフォレスト,0
1605,7010503006503,新規,0,2022-02-16,2022-02-16,フィールドストーン１号合同会社,,合同会社,東京都,台東区,下谷３丁目１０番１０号,,13,106,1100004,,,,,,,2022-02-16,1,,,,,フィールドストーンイチゴウ,0
1619,7011001145677,新規,0,2022-02-16,2022-02-16,株式会社スクラノ,,株式会社,東京都,渋谷区,松濤１丁目３番１２号松濤ＹＡヒルズＢ１,,13,113,1500046,,,,,,,2022-02-16,1,,,,,スクラノ,0
1620,7011001145702,新規,0,2022-02-16,2022-02-16,Ｔｅｋｕｍｉ株式会社,,株式会社,東京都,渋谷区,千駄ヶ谷１丁目１１番１３号第２メゾンブーケ３０３,,13,113,1510051,,,,,,,2022-02-16,1,,,,,テクミ,0
1621,7011001145719,新規,0,2022-02-16,2022-02-16,株式会社ウィフィール,,株式会社,東京都,渋谷区,神南１丁目１２番１４号,,13,113,1500041,,,,,,,2022-02-16,1,,,,,ウィフィール,0
1623,7011003014178,新規,0,2022-02-16,2022-02-16,合同会社ＢｅａｒｄＫｏｎｇ,,合同会社,東京都,渋谷区,道玄坂１丁目１０番８号渋谷道玄坂東急ビル２Ｆ－Ｃ,,13,113,1500043,,,,,,,2022-02-16,1,,,,,ビアードコング,0
1631,7011101097819,新規,0,2022-02-16,2022-02-16,三井商事株式会社,,株式会社,東京都,新宿区,西新宿１丁目２０番３号,,13,104,1600023,,,,,,,2022-02-16,1,,,,,ミツイショウジ,0
1637,7011403003573,新規,0,2022-02-16,2022-02-16,合同会社アクセルフォーム,,合同会社,東京都,板橋区,赤塚２丁目１番１２号パンダビル２階２１４号室,,13,119,1750092,,,,,,,2022-02-16,1,,,,,アクセルフォーム,0
1639,7011501027755,新規,0,2022-02-16,2022-02-16,株式会社Ｐｌｕｍｉｘ,,株式会社,東京都,荒川区,南千住８丁目６－２－１５０６,,13,118,1160003,,,,,,,2022-02-16,1,,,,,プルミックス,0
1641,7011601025741,新規,0,2022-02-16,2022-02-16,株式会社オンブラージュ,,株式会社,東京都,練馬区,上石神井４丁目２８番１４－１４０号,,13,120,1770044,,,,,,,2022-02-16,1,,,,,オンブラージュ,0
1644,7011803004972,新規,0,2022-02-16,2022-02-16,合同会社Ｔ＆Ｓ,,合同会社,東京都,葛飾区,東四つ木４丁目２８番２号,,13,122,1240014,,,,,,,2022-02-16,1,,,,,ティーアンドエス,0
1648,7012401038850,新規,0,2022-02-16,2022-02-16,株式会社ＨＡＬＴＥＮ,,株式会社,東京都,武蔵野市,吉祥寺本町２丁目２２番８号,,13,203,1800004,,,,,,,2022-02-16,1,,,,,ハルテン,0
1649,7012401038859,新規,0,2022-02-16,2022-02-16,Ｃｏｒｄ株式会社,,株式会社,東京都,府中市,本町１丁目１２番２号オウズ御殿山３０２,,13,206,1830027,,,,,,,2022-02-16,1,,,,,コード,0
1654,7013301048675,新規,0,2022-02-16,2022-02-16,株式会社らいふソリューション,,株式会社,東京都,豊島区,上池袋１丁目１０番８号,,13,116,1700012,,,,,,,2022-02-16,1,,,,,ライフソリューション,0
1661,7021003011380,新規,0,2022-02-16,2022-02-16,ＳＡＨＮＥＷＡＺ合同会社,,合同会社,神奈川県,相模原市中央区,上溝７丁目１７－２１,,14,152,2520243,,,,,,,2022-02-16,1,,,,,シャーネワズ,0
1670,7030001146799,新規,0,2022-02-16,2022-02-16,きのこの聲株式会社,,株式会社,埼玉県,ふじみ野市,大井中央２丁目１７番地７－１Ｆ,,11,245,3560058,,,,,,,2022-02-16,1,,,,,キノコノコエ,0
1671,7030001146816,新規,0,2022-02-16,2022-02-16,株式会社悠祥,,株式会社,埼玉県,戸田市,大字新曽４４番地の９,,11,224,3350021,,,,,,,2022-02-16,1,,,,,ユウショウ,0
1672,7030001146840,新規,0,2022-02-16,2022-02-16,株式会社ＰＬＵＳ,,株式会社,埼玉県,川口市,西川口１丁目９番８号８１１号室,,11,203,3320021,,,,,,,2022-02-16,1,,,,,プラス,0
1677,7040001122238,新規,0,2022-02-16,2022-02-16,華之商事株式会社,,株式会社,千葉県,船橋市,宮本４丁目１３番１２号,,12,204,2730003,,,,,,,2022-02-16,1,,,,,ハナノショウジ,0
1683,7040003019507,新規,0,2022-02-16,2022-02-16,合同会社ＣＴＧ,,合同会社,千葉県,千葉市中央区,千葉寺町９０２番地１－５０１号,,12,101,2600844,,,,,,,2022-02-16,1,,,,,シーティージー,0
1688,7060001034571,新規,0,2022-02-16,2022-02-16,株式会社Ｍｏｔｈｅｒ,,株式会社,栃木県,塩谷郡塩谷町,大字金枝９８７番地６,,09,384,3292224,,,,,,,2022-02-16,1,,,,,マザー,0
1698,7100001035045,新規,0,2022-02-16,2022-02-16,株式会社ロカニ,,株式会社,長野県,茅野市,北山３４１９,,20,214,3910301,,,,,,,2022-02-16,1,,,,,ロカニ,0
1700,7100003006416,新規,0,2022-02-16,2022-02-16,Ｎａｃａｌａ合同会社,,合同会社,長野県,長野市,若穂保科２１２番地,,20,201,3810102,,,,,,,2022-02-16,1,,,,,ナカラ,0
1703,7110001036439,新規,0,2022-02-16,2022-02-16,株式会社インテルノ,,株式会社,新潟県,新潟市北区,森下１３１８番地２０,,15,101,9503368,,,,,,,2022-02-16,1,,,,,インテルノ,0
1704,7110005016759,新規,0,2022-02-16,2022-02-16,一般社団法人新潟Ｒｅｍｉｘ協会,,その他の設立登記法人,新潟県,新潟市中央区,弁天橋通２丁目６番２６号,,15,103,9500925,,,,,,,2022-02-16,1,,,,,ニイガタリミックスキョウカイ,0
1713,7120001243835,新規,0,2022-02-16,2022-02-16,株式会社勝斗,,株式会社,大阪府,大阪市淀川区,三国本町２丁目５－２４,,27,123,5320005,,,,,,,2022-02-16,1,,,,,マサト,0
1714,7120001243843,新規,0,2022-02-16,2022-02-16,ＢＳＴ不動産株式会社,,株式会社,大阪府,大阪市東淀川区,豊新３丁目８番１１号いほりビル２階,,27,114,5330014,,,,,,,2022-02-16,1,,,,,ビーエスティーフドウサン,0
1715,7120001243868,新規,0,2022-02-16,2022-02-16,株式会社ＡＴＭＧホールディングス,,株式会社,大阪府,大阪市中央区,西心斎橋２丁目４番２号難波日興ビル８Ｆ,,27,128,5420086,,,,,,,2022-02-16,1,,,,,エーティーエムジーホールディングス,0
1716,7120001243876,新規,0,2022-02-16,2022-02-16,株式会社ジャパン建創,,株式会社,大阪府,大阪市平野区,加美北６丁目１番６号,,27,126,5470001,,,,,,,2022-02-16,1,,,,,ジャパンケンソウ,0
1717,7120001243884,新規,0,2022-02-16,2022-02-16,株式会社進,,株式会社,大阪府,大阪市住之江区,南港東４丁目５番２３号,,27,125,5590031,,,,,,,2022-02-16,1,,,,,シン,0
1721,7120005022797,新規,0,2022-02-16,2022-02-16,一般社団法人ミライバトン研究所,,その他の設立登記法人,大阪府,大阪市西区,京町堀１丁目６番４号,,27,106,5500003,,,,,,,2022-02-16,1,,,,,ミライバトンケンキュウジョ,0
1724,7120101065080,新規,0,2022-02-16,2022-02-16,株式会社トラペジウム,,株式会社,大阪府,高石市,千代田４丁目８番１７号,,27,225,5920005,,,,,,,2022-02-16,1,,,,,トラペジウム,0
1728,7120901045604,新規,0,2022-02-16,2022-02-16,株式会社大功産業,,株式会社,大阪府,高槻市,安満西の町２９番１号,,27,207,5691107,,,,,,,2022-02-16,1,,,,,タイコウサンギョウ,0
1730,7130003007758,新規,0,2022-02-16,2022-02-16,合同会社ＳＪＫ,,合同会社,京都府,京丹後市,丹後町間人８７番１号,,26,212,6270201,,,,,,,2022-02-16,1,,,,,エスジェーケー,0
1731,7130005016385,新規,0,2022-02-16,2022-02-16,一般社団法人Ｄｅｅｐ　Ｔｒｉｐ　Ｊａｐａｎ,,その他の設立登記法人,京都府,京都市上京区,宮垣町９１番地まむあん荒神口１０２号室,,26,102,6020853,,,,,,,2022-02-16,1,,,,,ディープトリップジャパン,0
1736,7140001124918,新規,0,2022-02-16,2022-02-16,株式会社セカンドアップ,,株式会社,兵庫県,西宮市,上甲子園２丁目１０番２０号,,28,204,6638114,,,,,,,2022-02-16,1,,,,,セカンドアップ,0
1737,7140001124926,新規,0,2022-02-16,2022-02-16,ＡＴＡ株式会社,,株式会社,兵庫県,神戸市須磨区,東白川台４丁目１４－２,,28,107,6540102,,,,,,,2022-02-16,1,,,,,アタ,0
1739,7140003017351,新規,0,2022-02-16,2022-02-16,合同会社満太郎,,合同会社,兵庫県,尼崎市,潮江１丁目１１番１－２２０１号,,28,202,6610976,,,,,,,2022-02-16,1,,,,,マンタロウ,0
1750,7180001149985,新規,0,2022-02-16,2022-02-16,アトム環境開発株式会社,,株式会社,愛知県,清須市,清洲１丁目８番地７,,23,233,4520942,,,,,,,2022-02-16,1,,,,,アトムカンキョウカイハツ,0
1751,7180001149993,新規,0,2022-02-16,2022-02-16,Ｉ．Ｓ．Ｙ．株式会社,,株式会社,愛知県,名古屋市南区,豊田２丁目２５番８号,,23,112,4570841,,,,,,,2022-02-16,1,,,,,アイエスワイ,0
1752,7180001150002,新規,0,2022-02-16,2022-02-16,株式会社クラフトバンガード,,株式会社,愛知県,名古屋市北区,平安通１丁目５番地,,23,103,4620816,,,,,,,2022-02-16,1,,,,,クラフトバンガード,0
1762,7200001039746,新規,0,2022-02-16,2022-02-16,株式会社ＡＸＦ,,株式会社,岐阜県,羽島市,正木町曲利１８３番地１,,21,209,5016227,,,,,,,2022-02-16,1,,,,,アクセフ,0
1769,7240001059336,新規,0,2022-02-16,2022-02-16,株式会社松永商事,,株式会社,広島県,福山市,松永町４丁目１０－２２－１０２,,34,207,7290104,,,,,,,2022-02-16,1,,,,,マツナガショウジ,0
1772,7250003003010,新規,0,2022-02-16,2022-02-16,合同会社中国ＡＭ,,合同会社,山口県,山口市,阿知須４８７１番地の１－４０４,,35,203,7541277,,,,,,,2022-02-16,1,,,,,チュウゴクエイエム,0
1780,7280001008636,新規,0,2022-02-16,2022-02-16,株式会社Ｇｌａｎｄｎｅｓｓ,,株式会社,島根県,出雲市,神門町６２０番地,,32,203,6930034,,,,,,,2022-02-16,1,,,,,グランドネス,0
1785,7290001096440,新規,0,2022-02-16,2022-02-16,株式会社アセットシーズ,,株式会社,福岡県,福岡市東区,原田４丁目６番３１－５０１号,,40,131,8120063,,,,,,,2022-02-16,1,,,,,アセットシーズ,0
1786,7290001096449,新規,0,2022-02-16,2022-02-16,株式会社アビー,,株式会社,福岡県,糟屋郡粕屋町,長者原東３丁目３番３０号,,40,349,8112317,,,,,,,2022-02-16,1,,,,,アビー,0
1787,7290001096457,新規,0,2022-02-16,2022-02-16,株式会社リベアス,,株式会社,福岡県,福岡市東区,筥松３丁目１２番１７－１０２号,,40,131,8120061,,,,,,,2022-02-16,1,,,,,リベアス,0
1796,7330003009239,新規,0,2022-02-16,2022-02-16,合同会社ＨＩＢＩＫＩ,,合同会社,熊本県,天草市,東浜町１２番７号２Ｆ,,43,215,8630014,,,,,,,2022-02-16,1,,,,,ヒビキ,0
1820,7430001086006,新規,0,2022-02-16,2022-02-16,株式会社クレストパシフィック,,株式会社,北海道,札幌市東区,北三十五条東３丁目１番１０－４１１号,,01,103,0070835,,,,,,,2022-02-16,1,,,,,クレストパシフィック,0
1824,7460301003566,新規,0,2022-02-16,2022-02-16,北見水産工業株式会社,,株式会社,北海道,網走市,南七条東６丁目１番地,,01,211,0930007,,,,,,,2022-02-16,1,,,,,,0
1826,7480001011652,新規,0,2022-02-16,2022-02-16,株式会社ケンデザイン設計,,株式会社,徳島県,板野郡北島町,太郎八須字長岸開２０番地,,36,402,7710202,,,,,,,2022-02-16,1,,,,,ケンデザインセッケイ,0
1838,8010001224515,新規,0,2022-02-16,2022-02-16,株式会社Ｒａｎｔａｎａ,,株式会社,東京都,中央区,銀座１丁目１５－４銀座一丁目ビル７階,,13,102,1040061,,,,,,,2022-02-16,1,,,,,ランタナ,0
1839,8010001224589,新規,0,2022-02-16,2022-02-16,Ｌｉｔｔｌｅ　Ｂｏｔ株式会社,,株式会社,東京都,中央区,京橋２丁目８番２１号仁大ビル天翔オフィス京橋７階,,13,102,1040031,,,,,,,2022-02-16,1,,,,,リトルボット,0
1840,8010001224630,新規,0,2022-02-16,2022-02-16,Ｊｉｅｎ　Ｒｙｕｅｎ株式会社,,株式会社,東京都,文京区,千石２丁目１６番１号,,13,105,1120011,,,,,,,2022-02-16,1,,,,,ジェイエンリューエン,0
1841,8010001224639,新規,0,2022-02-16,2022-02-16,株式会社リバー,,株式会社,東京都,文京区,本郷６丁目１８－９ペガサスマンション本郷４０４号室,,13,105,1130033,,,,,,,2022-02-16,1,,,,,リバー,0
1843,8010003037007,新規,0,2022-02-16,2022-02-16,合同会社ｓｔａｎｄ,,合同会社,東京都,千代田区,神田神保町２丁目２８番神田製本会館５Ｆ,,13,101,1010051,,,,,,,2022-02-16,1,,,,,スタンド,0
1844,8010005034596,新規,0,2022-02-16,2022-02-16,フージャースプライベートリート投資法人,,その他の設立登記法人,東京都,中央区,日本橋室町４丁目３番１６号,,13,102,1030022,,,,,,,2022-02-16,1,,,,,フージャースプライベートリート,0
1845,8010005034605,新規,0,2022-02-16,2022-02-16,東京オフィス３一般社団法人,,その他の設立登記法人,東京都,千代田区,丸の内３丁目１番１号東京共同会計事務所内,,13,101,1000005,,,,,,,2022-02-16,1,,,,,トウキョウオフィススリー,0
1855,8010401165581,新規,0,2022-02-16,2022-02-16,株式会社ＮＧＣ,,株式会社,東京都,港区,麻布十番２丁目２１番３号,,13,103,1060045,,,,,,,2022-02-16,1,,,,,エヌジーシー,0
1857,8010403027086,新規,0,2022-02-16,2022-02-16,ハローフリーダム合同会社,,合同会社,東京都,港区,南青山２丁目２番１５号,,13,103,1070062,,,,,,,2022-02-16,1,,,,,ハローフリーダム,0
1859,8010501048406,新規,0,2022-02-16,2022-02-16,メタシス株式会社,,株式会社,東京都,台東区,東上野３丁目１５番１４号丸山ビル１０４号室,,13,106,1100015,,,,,,,2022-02-16,1,,,,,メタシス,0
1860,8010501048430,新規,0,2022-02-16,2022-02-16,Ａｎ　Ｇｒｏｕｐ株式会社,,株式会社,東京都,台東区,浅草橋２丁目７番１号山口ビル５階,,13,106,1110053,,,,,,,2022-02-16,1,,,,,アングループ,0
1861,8010501048455,新規,0,2022-02-16,2022-02-16,株式会社ＳＢＫコンサルティング,,株式会社,東京都,台東区,下谷２丁目２番１－７０５号ハイホーム入谷,,13,106,1100004,,,,,,,2022-02-16,1,,,,,エスビーケーコンサルティング,0
1877,8011001145692,新規,0,2022-02-16,2022-02-16,株式会社ＤＥＥＰ,,株式会社,東京都,目黒区,中目黒４丁目８番２５号,,13,110,1530061,,,,,,,2022-02-16,1,,,,,ディープ,0
1882,8011101097751,新規,0,2022-02-16,2022-02-16,株式会社ＩＤＳネットワークＨＤ,,株式会社,東京都,新宿区,新宿５丁目１２番１０－６０５号,,13,104,1600022,,,,,,,2022-02-16,1,,,,,アイディエスネットワークホールディングス,0
1883,8011201023640,新規,0,2022-02-16,2022-02-16,株式会社ＹＯＺＢＯＳＨＩ,,株式会社,東京都,中野区,上鷺宮３丁目９－２－３３２,,13,114,1650031,,,,,,,2022-02-16,1,,,,,ヨツボシ,0
1885,8011403003564,新規,0,2022-02-16,2022-02-16,合同会社ＧｏｏｄＤｏｇ,,合同会社,東京都,板橋区,南常盤台１丁目１１－６レフア南常盤台１０１号室,,13,119,1740072,,,,,,,2022-02-16,1,,,,,グッドドッグ,0
1890,8011801040341,新規,0,2022-02-16,2022-02-16,ポリシス株式会社,,株式会社,東京都,足立区,西新井本町４丁目５番１－２０４号,,13,121,1230845,,,,,,,2022-02-16,1,,,,,ポリシス,0
1894,8012805003086,新規,0,2022-02-16,2022-02-16,一般社団法人ＴＨ＆ＭＫ,,その他の設立登記法人,東京都,国立市,中２丁目１７番地の３９,,13,215,1860004,,,,,,,2022-02-16,1,,,,,ティーエイチアンドエムケイ,0
1900,8013303006036,新規,0,2022-02-16,2022-02-16,合同会社ナイン,,合同会社,東京都,豊島区,池袋３丁目３４番７号２Ｆ,,13,116,1710014,,,,,,,2022-02-16,1,,,,,ナイン,0
1908,8021001075170,新規,0,2022-02-16,2022-02-16,株式会社ニコニコ空調,,株式会社,神奈川県,厚木市,中依知１５４－２６,,14,212,2430805,,,,,,,2022-02-16,1,,,,,ニコニコクウチョウ,0
1909,8021001075187,新規,0,2022-02-16,2022-02-16,株式会社松原農園,,株式会社,神奈川県,三浦市,南下浦町上宮田３５１０番地,,14,210,2380101,,,,,,,2022-02-16,1,,,,,マツバラノウエン,0
1910,8021003011405,新規,0,2022-02-16,2022-02-16,合同会社ＪＯＬＩＴＯＳ,,合同会社,神奈川県,鎌倉市,長谷５丁目１４－１１,,14,204,2480016,,,,,,,2022-02-16,1,,,,,ジョリトス,0
1912,8030001146798,新規,0,2022-02-16,2022-02-16,株式会社Ｐｕｒｓｕｉｔ　Ｈａｐｐｙｎｅｓｓ,,株式会社,埼玉県,鴻巣市,神明３丁目８番２９－１０１号,,11,217,3650074,,,,,,,2022-02-16,1,,,,,パシュートハピネス,0
1913,8030001146807,新規,0,2022-02-16,2022-02-16,株式会社ＧＥＭＦＲＥＥ　ＪＡＰＡＮ,,株式会社,埼玉県,川口市,宮町１３番１３号,,11,203,3320028,,,,,,,2022-02-16,1,,,,,ジェンフリージャパン,0
1914,8030001146815,新規,0,2022-02-16,2022-02-16,株式会社谷口建設,,株式会社,埼玉県,川口市,東川口１丁目１０番１３－３１１号,,11,203,3330801,,,,,,,2022-02-16,1,,,,,タニグチケンセツ,0
1915,8030001146823,新規,0,2022-02-16,2022-02-16,わかば企画株式会社,,株式会社,埼玉県,川越市,大字小堤６７７番地１,,11,201,3500811,,,,,,,2022-02-16,1,,,,,ワカバキカク,0
1923,8040001122245,新規,0,2022-02-16,2022-02-16,株式会社ＺＥＡＬＳ,,株式会社,千葉県,船橋市,本町４丁目１９番６号船橋サンプラザ５０６,,12,204,2730005,,,,,,,2022-02-16,1,,,,,ジィールス,0
1927,8040003019472,新規,0,2022-02-16,2022-02-16,合同会社ＨＯＬＯＭＵＡ,,合同会社,千葉県,鎌ケ谷市,西道野辺１０－２６－５０４,,12,224,2730117,,,,,,,2022-02-16,1,,,,,ホロムア,0
1930,8060001034562,新規,0,2022-02-16,2022-02-16,株式会社ニュービレッジ,,株式会社,栃木県,小山市,犬塚５丁目８番地１６,,09,208,3230811,,,,,,,2022-02-16,1,,,,,ニュービレッジ,0
1934,8060003003953,新規,0,2022-02-16,2022-02-16,サンシャイン合同会社,,合同会社,栃木県,宇都宮市,山本１丁目１－８,,09,201,3200012,,,,,,,2022-02-16,1,,,,,サンシャイン,0
1936,8070001038950,新規,0,2022-02-16,2022-02-16,株式会社旭運送,,株式会社,群馬県,太田市,脇屋町８４８,,10,205,3730031,,,,,,,2022-02-16,1,,,,,アサヒウンソウ,0
1947,8100003006415,新規,0,2022-02-16,2022-02-16,合同会社ＣＲｅｅｅａＮ’ｓ,,合同会社,長野県,佐久市,根々井２８３番地１２セイコウビル２階,,20,217,3850012,,,,,,,2022-02-16,1,,,,,クリーンズ,0
1948,8110001036438,新規,0,2022-02-16,2022-02-16,株式会社徳間塗装店,,株式会社,新潟県,柏崎市,大字劔１６４番地２２,,15,205,9450105,,,,,,,2022-02-16,1,,,,,トクマトソウテン,0
1956,8120001243792,新規,0,2022-02-16,2022-02-16,株式会社ＫＡＮＴＥＣ２,,株式会社,大阪府,大阪市北区,東天満１丁目１１番２号,,27,127,5300044,,,,,,,2022-02-16,1,,,,,カンテックツー,0
1957,8120001243859,新規,0,2022-02-16,2022-02-16,株式会社Ｌｉｎｋ　ｏｆ　ＡＬＴ,,株式会社,大阪府,大阪市北区,西天満５丁目８番１５号,,27,127,5300047,,,,,,,2022-02-16,1,,,,,リンクオブオルト,0
1958,8120001243867,新規,0,2022-02-16,2022-02-16,株式会社ベール,,株式会社,大阪府,大阪市中央区,西心斎橋２丁目４番２号難波日興ビル８Ｆ,,27,128,5420086,,,,,,,2022-02-16,1,,,,,ベール,0
1964,8120003021148,新規,0,2022-02-16,2022-02-16,雅サービス合同会社,,合同会社,大阪府,門真市,北岸和田２丁目６番６号,,27,223,5710007,,,,,,,2022-02-16,1,,,,,ミヤビサービス,0
1965,8120003021156,新規,0,2022-02-16,2022-02-16,ＩＰセイル合同会社,,合同会社,大阪府,大阪市天王寺区,玉造本町１番７－１２０１号,,27,109,5430013,,,,,,,2022-02-16,1,,,,,アイピーセイル,0
1975,8130003007757,新規,0,2022-02-16,2022-02-16,合同会社凛,,合同会社,京都府,京丹後市,丹後町間人４７０６,,26,212,6270201,,,,,,,2022-02-16,1,,,,,リン,0
1979,8140001124925,新規,0,2022-02-16,2022-02-16,株式会社聖護園,,株式会社,兵庫県,川西市,栄町１０番５－１０９号,,28,217,6660033,,,,,,,2022-02-16,1,,,,,ショウゴエン,0
1981,8140003017359,新規,0,2022-02-16,2022-02-16,和美合同会社,,合同会社,兵庫県,神戸市東灘区,魚崎南町３丁目１２－４,,28,101,6580025,,,,,,,2022-02-16,1,,,,,カズミ,0
1990,8180001149976,新規,0,2022-02-16,2022-02-16,株式会社Ｒｅｏｎ,,株式会社,愛知県,名古屋市東区,葵３丁目２０番１８号,,23,102,4610004,,,,,,,2022-02-16,1,,,,,レオン,0
1995,8180301035926,新規,0,2022-02-16,2022-02-16,Ｔ’ｓｔｙｌｅ株式会社,,株式会社,愛知県,岡崎市,欠町字三田田北通２２番地８,,23,202,4440011,,,,,,,2022-02-16,1,,,,,ティースタイル,0
2012,8240001059327,新規,0,2022-02-16,2022-02-16,ｆｏｌｌｏｗ株式会社,,株式会社,広島県,福山市,駅家町大字万能倉９２１番地２,,34,207,7201131,,,,,,,2022-02-16,1,,,,,フォロー,0
2013,8240001059335,新規,0,2022-02-16,2022-02-16,株式会社ナカモト冷熱,,株式会社,広島県,呉市,安浦町中央北１丁目１３－１,,34,202,7372515,,,,,,,2022-02-16,1,,,,,ナカモトレイネツ,0
2027,8290003012147,新規,0,2022-02-16,2022-02-16,合同会社ＯＮＥ　ＥＡＲＴＨ,,合同会社,福岡県,糟屋郡宇美町,大字井野２３８株式会社アダル宇美総合工場内,,40,341,8112104,,,,,,,2022-02-16,1,,,,,ワンアース,0
2028,8290003012155,新規,0,2022-02-16,2022-02-16,合同会社ハピネスストーリー,,合同会社,福岡県,久留米市,御井町６８７番地１８,,40,203,8390851,,,,,,,2022-02-16,1,,,,,ハピネスストーリー,0
2030,8290803004062,新規,0,2022-02-16,2022-02-16,合同会社メドステート,,合同会社,福岡県,北九州市小倉北区,東城野町９番１９号,,40,106,8020054,,,,,,,2022-02-16,1,,,,,メドステート,0
2038,8320001018893,新規,0,2022-02-16,2022-02-16,パラディッソエイト株式会社,,株式会社,大分県,玖珠郡玖珠町,大字帆足２２４３番地の１,,44,462,8794403,,,,,,,2022-02-16,1,,,,,パラディッソエイト,0
2040,8330005010466,新規,0,2022-02-16,2022-02-16,医療法人功貴会,,その他の設立登記法人,熊本県,山鹿市,鹿本町来民６９８番地５,,43,208,8610331,,,,,,,2022-02-16,1,,,,,コウキカイ,0
2049,8360003011802,新規,0,2022-02-16,2022-02-16,合同会社エミーズ,,合同会社,沖縄県,中頭郡嘉手納町,字嘉手納５４８－１,,47,325,9040203,,,,,,,2022-02-16,1,,,,,エミーズ,0
2061,8430003013626,新規,0,2022-02-16,2022-02-16,目門商会合同会社,,合同会社,北海道,石狩郡当別町,川下２６８０番１２,,01,303,0610206,,,,,,,2022-02-16,1,,,,,メモンショウカイ,0
2062,8430003013634,新規,0,2022-02-16,2022-02-16,北海道電力リニューアブルエナジー合同会社,,合同会社,北海道,札幌市中央区,大通東１丁目２番地,,01,101,0600041,,,,,,,2022-02-16,1,,,,,ホッカイドウデンリョクリニューアブルエナジー,0
2073,9010001224571,新規,0,2022-02-16,2022-02-16,株式会社ｍｕｔｅｘ,,株式会社,東京都,中央区,銀座１丁目２２－１１銀座大竹ビジデンス２階,,13,102,1040061,,,,,,,2022-02-16,1,,,,,ミューテクス,0
2074,9010001224596,新規,0,2022-02-16,2022-02-16,株式会社ａｎｄ　ｓｅｌｆ,,株式会社,東京都,千代田区,神田小川町１丁目８番３号,,13,101,1010052,,,,,,,2022-02-16,1,,,,,アンドセルフ,0
2075,9010001224621,新規,0,2022-02-16,2022-02-16,株式会社ジェニュイン,,株式会社,東京都,中央区,日本橋富沢町３番８－２０３号,,13,102,1030006,,,,,,,2022-02-16,1,,,,,ジェニュイン,0
2081,9010003037014,新規,0,2022-02-16,2022-02-16,合同会社５８,,合同会社,東京都,中央区,月島１丁目５番１―４９０２号,,13,102,1040052,,,,,,,2022-02-16,1,,,,,フィフティエイト,0
2083,9010005034604,新規,0,2022-02-16,2022-02-16,一般社団法人日本先端医療推進機構,,その他の設立登記法人,東京都,中央区,日本橋３丁目８番１４号日本橋ビル３階,,13,102,1030027,,,,,,,2022-02-16,1,,,,,ニホンセンタンイリョウスイシンキコウ,0
2093,9010401165572,新規,0,2022-02-16,2022-02-16,株式会社ＳＰＯＲＶＥ,,株式会社,東京都,港区,南青山４丁目５番１７号,,13,103,1070062,,,,,,,2022-02-16,1,,,,,スポルブ,0
2094,9010401165580,新規,0,2022-02-16,2022-02-16,株式会社ＳＧＳ,,株式会社,東京都,港区,西麻布１丁目３番２号,,13,103,1060031,,,,,,,2022-02-16,1,,,,,エスジーエス,0
2096,9010405020699,新規,0,2022-02-16,2022-02-16,一般社団法人松伏町物流開発,,その他の設立登記法人,東京都,港区,虎ノ門３丁目２２番１０－２０１号,,13,103,1050001,,,,,,,2022-02-16,1,,,,,マツブシマチブツリュウカイハツ,0
2097,9010501048462,新規,0,2022-02-16,2022-02-16,ＤＧ株式会社,,株式会社,東京都,台東区,浅草４丁目１０－４－３Ｆ,,13,106,1110032,,,,,,,2022-02-16,1,,,,,デジ,0
2111,9011001145675,新規,0,2022-02-16,2022-02-16,株式会社ネモンド,,株式会社,東京都,目黒区,青葉台３丁目１０番１１号,,13,110,1530042,,,,,,,2022-02-16,1,,,,,ネモンド,0
2112,9011001145725,新規,0,2022-02-16,2022-02-16,株式会社ｐａｉｎｔｉｎｇ,,株式会社,東京都,目黒区,大橋１丁目５番１号,,13,110,1530044,,,,,,,2022-02-16,1,,,,,ペインティング,0
2116,9011101097809,新規,0,2022-02-16,2022-02-16,永松株式会社,,株式会社,東京都,新宿区,四谷三栄町１５番２号,,13,104,1600008,,,,,,,2022-02-16,1,,,,,ナガマツ,0
2117,9011103011478,新規,0,2022-02-16,2022-02-16,合同会社マーケットエッセンシャル,,合同会社,東京都,新宿区,戸塚町１丁目１０１―２アルファ早稲田ビル２階２０２,,13,104,1690071,,,,,,,2022-02-16,1,,,,,マーケットエッセンシャル,0
2122,9011401024025,新規,0,2022-02-16,2022-02-16,株式会社ロジオートサービス,,株式会社,東京都,板橋区,成増５丁目２番１２号,,13,119,1750094,,,,,,,2022-02-16,1,,,,,ロジオートサービス,0
2125,9011603003529,新規,0,2022-02-16,2022-02-16,合同会社ＢＩＺＩＰ,,合同会社,東京都,練馬区,豊玉北５丁目２３番７号エミリブ練馬１３０４,,13,120,1760012,,,,,,,2022-02-16,1,,,,,ビジップ,0
2127,9011701025045,新規,0,2022-02-16,2022-02-16,和順陽光株式会社,,株式会社,東京都,江戸川区,東小松川４丁目５５番１５号,,13,123,1320033,,,,,,,2022-02-16,1,,,,,ワジュンヨウコウ,0
2133,9012403005244,新規,0,2022-02-16,2022-02-16,合同会社ＡＫＡＮＥＳＡＳＵ,,合同会社,東京都,武蔵野市,吉祥寺本町１丁目５番１号吉祥寺ＰＡＲＣＯ８ＦＳｋｉｉＭａ内,,13,203,1800004,,,,,,,2022-02-16,1,,,,,アカネサス,0
2143,9020001145222,新規,0,2022-02-16,2022-02-16,株式会社Ｒｕｓａｒａ,,株式会社,神奈川県,横浜市鶴見区,獅子ケ谷１丁目５７番１６号,,14,101,2300073,,,,,,,2022-02-16,1,,,,,ルサラ,0
2151,9021001075194,新規,0,2022-02-16,2022-02-16,株式会社ポルメ,,株式会社,神奈川県,茅ヶ崎市,浜須賀１５番３４号サンロード茅ヶ崎Ａ－１,,14,207,2530035,,,,,,,2022-02-16,1,,,,,ポルメ,0
2154,9021003011404,新規,0,2022-02-16,2022-02-16,ＰＡＵＬ　ＳＴＡＲ　ＭＵＳＩＣ合同会社,,合同会社,神奈川県,足柄下郡湯河原町,吉浜１９６２－２９,,14,384,2590312,,,,,,,2022-02-16,1,,,,,ポールスターミュージック,0
2164,9030001146822,新規,0,2022-02-16,2022-02-16,株式会社Ｐｅｒｃｈ,,株式会社,埼玉県,越谷市,大字大里４２２番地９,,11,222,3430031,,,,,,,2022-02-16,1,,,,,パーチ,0
2165,9030001146830,新規,0,2022-02-16,2022-02-16,株式会社ウッディホーム,,株式会社,埼玉県,越谷市,蒲生西町１丁目８番６０－１号フォーレスト弐番館１Ｆ,,11,222,3430835,,,,,,,2022-02-16,1,,,,,ウッディホーム,0
2168,9030003018854,新規,0,2022-02-16,2022-02-16,合同会社ＦＩＴＳ,,合同会社,埼玉県,さいたま市南区,辻８丁目１番１２号,00125727,11,108,3360026,,,,,,,2022-02-16,1,,,,,フィッツ,0
2176,9040003019488,新規,0,2022-02-16,2022-02-16,合同会社Ｂａｙ　Ｔｒｉｂｅ,,合同会社,千葉県,市川市,塩浜４丁目３番１－３０６号,,12,203,2720127,,,,,,,2022-02-16,1,,,,,ベイトライブ,0
2179,9050001050634,新規,0,2022-02-16,2022-02-16,株式会社安心承継パートナー,,株式会社,茨城県,筑西市,海老ヶ島７６１番地１エオスＹＭＴ２０２,,08,227,3004517,,,,,,,2022-02-16,1,,,,,アンシンショウケイパートナー,0
2192,9110001036437,新規,0,2022-02-16,2022-02-16,株式会社高沢住興,00125724,株式会社,新潟県,糸魚川市,大字今村新田７７２番地,,15,216,9490302,,,,,,,2022-02-16,1,,,,,タカサワジュウコウ,0
2206,9120001243791,新規,0,2022-02-16,2022-02-16,株式会社ＫＡＮ２,,株式会社,大阪府,大阪市北区,東天満１丁目１１番２号,,27,127,5300044,,,,,,,2022-02-16,1,,,,,カンツー,0
2207,9120001243825,新規,0,2022-02-16,2022-02-16,株式会社オフィスエイチアール,,株式会社,大阪府,大阪市北区,梅田１丁目３番１号大阪駅前第１ビル８階５号,,27,127,5300001,,,,,,,2022-02-16,1,,,,,オフィスエイチアール,0
2208,9120001243882,新規,0,2022-02-16,2022-02-16,株式会社ＯＨＳコーポレーション,,株式会社,大阪府,大阪市西区,本田３丁目９番１３号,,27,106,5500022,,,,,,,2022-02-16,1,,,,,オーエイチエスコーポレーション,0
2213,9120003021147,新規,0,2022-02-16,2022-02-16,ＬＢＥ合同会社,,合同会社,大阪府,大阪市北区,西天満３丁目６－２７,,27,127,5300047,,,,,,,2022-02-16,1,,,,,エルビーイー,0
2221,9120101065079,新規,0,2022-02-16,2022-02-16,タマロジ株式会社,,株式会社,大阪府,泉佐野市,羽倉崎上町１丁目２－４５羽倉崎上町中央マンション３０４,,27,213,5980037,,,,,,,2022-02-16,1,,,,,タマロジ,0
2222,9120101065087,新規,0,2022-02-16,2022-02-16,株式会社泉州クリエイティブ,,株式会社,大阪府,岸和田市,田治米町４３７番地の４,,27,202,5960805,,,,,,,2022-02-16,1,,,,,センシュウクリエイティブ,0
2224,9120901045602,新規,0,2022-02-16,2022-02-16,豊栄産業株式会社,,株式会社,大阪府,吹田市,高城町１番５号,,27,205,5640024,,,,,,,2022-02-16,1,,,,,ホウエイサンギョウ,0
2228,9130001071143,新規,0,2022-02-16,2022-02-16,株式会社ＣＬ　ｂｙ　Ｃ．ルメール,,株式会社,京都府,京都市左京区,浄土寺東田町９３番地５,,26,103,6068411,,,,,,,2022-02-16,1,,,,,シーエルバイシールメール,0
2230,9130003007756,新規,0,2022-02-16,2022-02-16,中真合同会社,,合同会社,京都府,南丹市,八木町八木東久保４３番地４,,26,213,6290141,,,,,,,2022-02-16,1,,,,,ナカシン,0
2236,9140001124924,新規,0,2022-02-16,2022-02-16,ソレイユ電機株式会社,,株式会社,兵庫県,宝塚市,野上１丁目５番１０－２０５号,,28,214,6650022,,,,,,,2022-02-16,1,,,,,ソレイユデンキ,0
2240,9140003017341,新規,0,2022-02-16,2022-02-16,合同会社ＨａＭａ,,合同会社,兵庫県,芦屋市,翠ケ丘町６－２,,28,206,6590014,,,,,,,2022-02-16,1,,,,,ハマ,0
2243,9140005026043,新規,0,2022-02-16,2022-02-16,医療法人いのうえ皮ふ科,,その他の設立登記法人,兵庫県,姫路市,別所町佐土２丁目６１番,,28,201,6710224,,,,,,,2022-02-16,1,,,,,イノウエヒフカ,0
2252,9180005019638,新規,0,2022-02-16,2022-02-16,一般社団法人千英会,,その他の設立登記法人,愛知県,小牧市,小牧原１丁目４０５番地,,23,219,4850829,,,,,,,2022-02-16,1,,,,,センエイカイ,0
2254,9180301035925,新規,0,2022-02-16,2022-02-16,株式会社佳建,,株式会社,愛知県,豊田市,美里３丁目１８番地１８,,23,211,4710805,,,,,,,2022-02-16,1,,,,,ヨシケン,0
2260,9200001039744,新規,0,2022-02-16,2022-02-16,株式会社東濃ファーム,,株式会社,岐阜県,中津川市,千旦林１４１５番地の７７,,21,206,5099131,,,,,,,2022-02-16,1,,,,,トウノウファーム,0
2263,9220001024694,新規,0,2022-02-16,2022-02-16,ＣＣＲ株式会社,,株式会社,石川県,金沢市,千木１丁目３８番地,,17,201,9200002,,,,,,,2022-02-16,1,,,,,シーシーアール,0
2264,9240001059334,新規,0,2022-02-16,2022-02-16,株式会社よしいち建工,,株式会社,広島県,福山市,神辺町字道上２０８６番地,,34,207,7202104,,,,,,,2022-02-16,1,,,,,ヨシイチケンコウ,0
2267,9250003003009,新規,0,2022-02-16,2022-02-16,合同会社Ｍｓ’ＰＬＡＮ,,合同会社,山口県,下関市,みもすそ川町９番１０－２０２号,,35,201,7510813,,,,,,,2022-02-16,1,,,,,エムズプラン,0
2275,9290001096447,新規,0,2022-02-16,2022-02-16,株式会社藤田,,株式会社,福岡県,福岡市博多区,千代１丁目１－１３リラス博多駅北Ｎ棟５０１,,40,132,8120044,,,,,,,2022-02-16,1,,,,,フジタ,0
2281,9290803004061,新規,0,2022-02-16,2022-02-16,合同会社月ＡＫＡＲＩ,,合同会社,福岡県,北九州市小倉南区,八重洲町５番１５号,,40,107,8020831,,,,,,,2022-02-16,1,,,,,ツキアカリ,0
2289,9330001029451,新規,0,2022-02-16,2022-02-16,株式会社ＴＷＥＮＴＹ　ＯＮＥ,,株式会社,熊本県,熊本市中央区,水前寺４丁目５２番４８号,,43,101,8620950,,,,,,,2022-02-16,1,,,,,トゥエンティーワン,0
2306,9430001086004,新規,0,2022-02-16,2022-02-16,ハクヨーテクノ株式会社,,株式会社,北海道,空知郡南幌町,南１３線西１０番地,,01,423,0690213,,,,,,,2022-02-16,1,,,,,ハクヨーテクノ,0
2322,9700150012996,新規,0,2022-02-16,2015-10-09,新田仲よしクラブ,,その他,神奈川県,横浜市港北区,新羽町１２１２－２,,14,109,2230057,,,,,,,2015-10-09,1,,,,,ニツタナカヨシクラブ,0
2324,9700150107103,新規,0,2022-02-16,2022-02-16,Ｅ－Ｚｏｎｅ,,外国会社等,千葉県,東金市,広瀬１０５番地,,12,213,2830041,スリランカ民主社会主義共和国、アクラナ、マテルロード、Ｎｏ．２４,,,,,,2022-02-16,1,,,,,イーゾーン,0
