sequenceNumber,corporateNumber,process,correct,updateDate,changeDate,name,nameImageId,kind,prefectureName,cityName,streetNumber,addressImageId,prefectureCode,cityCode,postCode,addressOutside,addressOutsideImageId,closeDate,closeCause,successorCorporateNumber,changeCause,assignmentDate,latest,enName,enPrefectureName,enCityName,enAddressOutside,furigana,hihyoji
19,1010003019663,登記記録の閉鎖等,0,2022-09-26,2022-09-15,合同会社五反田ホールディングス,,合同会社,東京都,千代田区,内幸町１丁目１番１号,,13,101,1000011,,,2022-09-15,清算の結了等,,,2015-10-05,1,,,,,ゴタンダホールディングス,0
22,1010003027055,登記記録の閉鎖等,0,2022-09-26,2022-09-15,Ｇｒｙｐｈｏｎ３合同会社,,合同会社,東京都,中央区,八丁堀４丁目２番１０号ＡＯＪ税理士法人内,,13,102,1040032,,,2022-09-15,清算の結了等,,,2018-03-01,1,,,,,グリフォンスリー,0
49,1010701023578,登記記録の閉鎖等,0,2022-09-26,2022-09-20,株式会社Ｕ－Ｃｏｒｐｏｒａｔｉｏｎ,,株式会社,新潟県,新潟市中央区,西堀通４番町２５９番５８西堀青藍館３０４号,,15,103,9518061,,,2022-09-20,清算の結了等,,,2015-10-05,1,,,,,ユーコウポレイション,0
75,1013301030135,登記記録の閉鎖等,0,2022-09-26,2022-09-16,株式会社ビジネックス,,株式会社,東京都,品川区,上大崎３丁目３番９－９０１号,,13,109,1410021,,,2022-09-16,清算の結了等,,,2015-10-05,1,,,,,ビジネックス,0
88,1020005001924,登記記録の閉鎖等,0,2022-09-26,2022-09-05,宗教法人天理教本神溝分教会,00011996,その他の設立登記法人,神奈川県,横浜市神奈川区,大口仲町１６５番地,,14,102,2210003,,,2022-09-05,合併による解散等,5020005001045,令和４年９月５日横浜市港南区芹が谷五丁目５０番２６号宗教法人天理教本神分教会（5020005001045）に合併し解散,2015-10-05,1,,,,,,0
96,1030001085937,登記記録の閉鎖等,0,2022-09-26,2022-09-09,株式会社秩父グリーンメンテナンス,,株式会社,埼玉県,大里郡寄居町,大字用土３０４９番地１,,11,408,3691201,,,2022-09-09,清算の結了等,,,2015-10-05,1,,,,,チチブグリーンメンテナンス,0
97,1030001103129,登記記録の閉鎖等,0,2022-09-26,2022-09-14,カスカベサポート株式会社,,株式会社,神奈川県,川崎市麻生区,下麻生２丁目１２番２５号,,14,137,2150022,,,2022-09-14,清算の結了等,,,2015-10-05,1,,,,,カスカベサポート,0
106,1040001112483,登記記録の閉鎖等,0,2022-09-26,2022-09-14,株式会社ハウスオンザモビリティ,,株式会社,千葉県,千葉市中央区,蘇我５丁目４番２０号,,12,101,2600822,,,2022-09-14,清算の結了等,,,2020-02-12,1,,,,,ハウスオンザモビリティ,0
124,1100002004814,登記記録の閉鎖等,0,2022-09-26,2022-09-21,丸一工業有限会社,,有限会社,長野県,長野市,松代町西寺尾１９６４番地,,20,201,3811215,,,2022-09-21,清算の結了等,,,2015-10-05,1,,,,,マルイチコウギョウ,0
142,1120002000126,登記記録の閉鎖等,0,2022-09-26,2022-09-15,有限会社江田鉄工所,,有限会社,大阪府,大阪市旭区,清水３丁目１４番４号,,27,117,5350021,,,2022-09-15,清算の結了等,,,2015-10-05,1,,,,,エダテッコウショ,0
145,1120003016807,登記記録の閉鎖等,0,2022-09-26,2022-09-20,合同会社サン,,合同会社,大阪府,枚方市,三矢町１番１２号ＳＥＲＩＯ枚方２０１号,,27,210,5730051,,,2022-09-20,清算の結了等,,,2020-01-10,1,,,,,サン,0
146,1120003019900,登記記録の閉鎖等,0,2022-09-26,2022-09-16,合同会社ルーデレ,,合同会社,大阪府,大阪市淀川区,西中島６丁目３－２４－Ｔ４０９,,27,123,5320011,,,2022-09-16,清算の結了等,,,2021-07-27,1,,,,,ルーデレ,0
152,1120102016344,登記記録の閉鎖等,0,2022-09-26,2022-09-01,株式会社正美興業,,株式会社,大阪府,堺市堺区,香ヶ丘町３丁７番１１号,,27,141,5900011,,,2022-09-01,合併による解散等,9120101027665,令和４年９月１日大阪府堺市堺区香ヶ丘町三丁７番１１号ナス・クリエート株式会社（9120101027665）に合併し解散,2015-10-05,1,,,,,マサミコウギョウ,0
158,1130001066885,登記記録の閉鎖等,0,2022-09-26,2022-09-12,株式会社Ｔ．ａｄｖａｎｃｅ,,株式会社,京都府,京都市西京区,上桂森下町１－１４サウスヴィラ１Ｆ,,26,111,6158225,,,2022-09-12,清算の結了等,,,2020-05-14,1,,,,,ティーアドヴァンス,0
161,1140001025089,登記記録の閉鎖等,0,2022-09-26,2022-09-15,株式会社ニフコ,,株式会社,兵庫県,神戸市須磨区,神の谷６丁目２番１０６号,,28,107,6540162,,,2022-09-15,清算の結了等,,,2015-10-05,1,,,,,ニフコ,0
178,1180001018683,登記記録の閉鎖等,0,2022-09-26,2022-09-20,株式会社ワイエス吉田産業,,株式会社,愛知県,名古屋市東区,東大曽根町３番２号,,23,102,4610022,,,2022-09-20,清算の結了等,,,2015-10-05,1,,,,,ワイエスヨシダサンギョウ,0
189,1210001000976,登記記録の閉鎖等,0,2022-09-26,2022-09-20,岐津株式会社きづな堂,,株式会社,福井県,福井市,大願寺２丁目９番７号,,18,201,9100001,,,2022-09-20,清算の結了等,,,2015-10-05,1,,,,,キヅキヅナドウ,0
193,1240001056834,登記記録の閉鎖等,0,2022-09-26,2022-09-21,株式会社ディーエルベンダ,,株式会社,広島県,広島市佐伯区,利松２丁目１０番２０号１階,,34,108,7315106,,,2022-09-21,清算の結了等,,,2020-10-28,1,,,,,ディーエルベンダ,0
198,1270002011182,登記記録の閉鎖等,0,2022-09-26,2022-09-21,有限会社アシバ,,有限会社,鳥取県,鳥取市,青谷町青谷４０６７番地１,,31,201,6890501,,,2022-09-21,清算の結了等,,,2015-10-05,1,,,,,アシバ,0
199,1270005002625,登記記録の閉鎖等,0,2022-09-26,2022-09-20,鳥取住宅リフォーム協同組合,,その他の設立登記法人,鳥取県,鳥取市,国府町新通り２丁目２０３番地７,,31,201,6808066,,,2022-09-20,清算の結了等,,,2015-10-05,1,,,,,トットリジュウタクリフォーム,0
216,1320001002722,登記記録の閉鎖等,0,2022-09-26,2022-09-14,株式会社森崎建設工業,,株式会社,大分県,大分市,生石４丁目３番８号,,44,201,8700003,,,2022-09-14,清算の結了等,,,2018-09-25,1,,,,,,0
222,1350001009871,登記記録の閉鎖等,0,2022-09-26,2022-09-21,高千穂建設冷熱株式会社,,株式会社,宮崎県,小林市,須木下田５８８番地１,,45,205,8860112,,,2022-09-21,清算の結了等,,,2015-10-05,1,,,,,タカチホケンセツレイネツ,0
227,1360002013962,登記記録の閉鎖等,0,2022-09-26,2022-09-14,有限会社リッチファーム,,有限会社,沖縄県,沖縄市,南桃原３丁目３４番１２号コーポみなみ２ーＤ,,47,211,9040035,,,2022-09-14,清算の結了等,,,2015-10-05,1,,,,,リッチファーム,0
233,1370302000783,登記記録の閉鎖等,0,2022-09-26,2022-09-12,有限会社北村屋製綿,,有限会社,宮城県,石巻市,立町２丁目６番２７号,,04,202,9860824,,,2022-09-12,清算の結了等,,,2015-10-05,1,,,,,キタムラヤセイメン,0
236,1390001006139,登記記録の閉鎖等,0,2022-09-26,2022-09-15,株式会社加藤組,,株式会社,山形県,酒田市,中央東町４番５７号,,06,204,9980033,,,2022-09-15,清算の結了等,,,2015-10-05,1,,,,,カトウグミ,0
242,1480001004240,登記記録の閉鎖等,0,2022-09-26,2022-09-22,Ｈｅａｒｔ　Ｏｆ　Ｌｉｆｅ株式会社,,株式会社,徳島県,徳島市,万代町５丁目７番地１,,36,201,7700941,,,2022-09-22,清算の結了等,,,2015-10-05,1,,,,,,0
249,2010001033260,登記記録の閉鎖等,0,2022-09-26,2022-09-13,株式会社日本小児医事出版社,,株式会社,東京都,千代田区,鍛冶町２丁目７番１５号,,13,101,1010044,,,2022-09-13,清算の結了等,,,2015-10-05,1,,,,,ニホンショウニイジシュッパンシャ,0
259,2010001211080,登記記録の閉鎖等,0,2022-09-26,2022-09-14,リモポ株式会社,,株式会社,東京都,中央区,銀座１丁目２２番１１号,,13,102,1040061,,,2022-09-14,清算の結了等,,,2020-07-20,1,,,,,リモポ,0
279,2010603007199,登記記録の閉鎖等,0,2022-09-26,2022-09-14,合同会社ブレイン,,合同会社,東京都,江東区,亀戸７丁目１０番１０号,,13,108,1360071,,,2022-09-14,清算の結了等,,,2018-04-06,1,,,,,ブレイン,0
320,2013202000525,登記記録の閉鎖等,0,2022-09-26,2022-09-13,有限会社新井商事,,有限会社,東京都,目黒区,平町１丁目２７番２号,,13,110,1520032,,,2022-09-13,清算の結了等,,,2015-10-05,1,,,,,アライショウジ,0
341,2030001080227,登記記録の閉鎖等,0,2022-09-26,2022-09-08,エイト物流株式会社,,株式会社,埼玉県,川口市,大字安行原１０８９番地の３,,11,203,3340057,,,2022-09-08,清算の結了等,,,2015-10-05,1,,,,,エイトブツリュウ,0
357,2040003003523,登記記録の閉鎖等,0,2022-09-26,2022-09-14,日興商事合資会社,,合資会社,千葉県,銚子市,新生町２丁目１３番地の１２,,12,202,2880056,,,2022-09-14,清算の結了等,,,2015-10-05,1,,,,,ニッコウショウジ,0
368,2090001011184,登記記録の閉鎖等,0,2022-09-26,2022-09-15,株式会社フタバ,,株式会社,山梨県,北杜市,武川町三吹１６５２番地,,19,209,4080301,,,2022-09-15,清算の結了等,,,2021-03-04,1,,,,,フタバ,0
379,2110002003203,登記記録の閉鎖等,0,2022-09-26,2022-09-16,有限会社島村電気,,有限会社,新潟県,新潟市西区,平島１丁目１４番７号,,15,107,9502004,,,2022-09-16,清算の結了等,,,2015-10-05,1,,,,,シマムラデンキ,0
400,2120005000031,登記記録の閉鎖等,0,2022-09-26,2022-09-08,天理教今宮分教会,,その他の設立登記法人,大阪府,大阪市都島区,内代町３丁目１番２号,,27,102,5340013,,,2022-09-08,合併による解散等,8120005000249,令和４年９月８日大阪市中央区南船場一丁目５番１６号天理教船場大教会（8120005000249）に合併し解散,2015-10-05,1,,,,,テンリキョウイマミヤブンキョウカイ,0
403,2120105000204,登記記録の閉鎖等,0,2022-09-26,2022-09-21,医療法人米田クリニック,,その他の設立登記法人,大阪府,堺市堺区,浅香山町２丁４番３３号,,27,141,5900012,,,2022-09-21,清算の結了等,,,2015-10-05,1,,,,,ヨネダクリニック,0
408,2130001009546,登記記録の閉鎖等,0,2022-09-26,2022-09-13,日昇陶器株式会社,,株式会社,京都府,京都市東山区,泉涌寺東林町３２番地,,26,105,6050976,,,2022-09-13,清算の結了等,,,2015-10-05,1,,,,,ニッショウトウキ,0
428,2180301018440,登記記録の閉鎖等,0,2022-09-26,2022-09-12,株式会社正音堂電化センター,,株式会社,愛知県,豊田市,土橋町７丁目５番地１,,23,211,4710842,,,2022-09-12,清算の結了等,,,2015-10-05,1,,,,,ショウオンドウデンカセンター,0
430,2200005011219,登記記録の閉鎖等,0,2022-09-26,2022-09-05,特定非営利活動法人ぽこあぽこ,,その他の設立登記法人,岐阜県,郡上市,八幡町島谷６番地,,21,219,5014222,,,2022-09-05,清算の結了等,,,2015-10-05,1,,,,,ポコアポコ,0
469,2440002007204,登記記録の閉鎖等,0,2022-09-26,2022-09-20,有限会社保険企画,,有限会社,北海道,函館市,山の手２丁目３８番３５号,,01,202,0410836,,,2022-09-20,清算の結了等,,,2015-10-05,1,,,,,ホケンキカク,0
483,3010001029869,登記記録の閉鎖等,0,2022-09-26,2022-09-15,株式会社マップス,,株式会社,東京都,千代田区,麹町４丁目３番地紅谷ビル,00060490,13,101,1020083,,,2022-09-15,清算の結了等,,,2015-10-05,1,,,,,マップス,0
505,3010405014616,登記記録の閉鎖等,0,2022-09-26,2022-09-06,一般社団法人まなびのコミュニティ協会,,その他の設立登記法人,東京都,港区,浜松町１丁目２５番１３号浜松町ＮＨビル４階,,13,103,1050013,,,2022-09-06,清算の結了等,,,2016-03-04,1,,,,,マナビノコミュニティキョウカイ,0
510,3010601015467,登記記録の閉鎖等,0,2022-09-26,2022-09-14,株式会社杉山,,株式会社,東京都,江東区,住吉２丁目２番６－３０１号,,13,108,1350002,,,2022-09-14,清算の結了等,,,2015-10-05,1,,,,,スギヤマ,0
511,3010601024880,登記記録の閉鎖等,0,2022-09-26,2022-09-13,株式会社エフ・ピー・エス技研,,株式会社,東京都,江東区,木場１丁目５番１号,,13,108,1350042,,,2022-09-13,清算の結了等,,,2015-10-05,1,,,,,エフピーエスギケン,0
521,3010902005126,登記記録の閉鎖等,0,2022-09-26,2022-09-20,有限会社グリシンヌ,,有限会社,東京都,世田谷区,弦巻１丁目４３番地１５号,,13,112,1540016,,,2022-09-20,清算の結了等,,,2015-10-05,1,,,,,グリシンヌ,0
548,3012401003296,登記記録の閉鎖等,0,2022-09-26,2022-09-20,株式会社ビックワールド,,株式会社,東京都,小金井市,梶野町４丁目１１番６号,,13,210,1840002,,,2022-09-20,清算の結了等,,,2015-10-05,1,,,,,ビックワールド,0
550,3012402011265,登記記録の閉鎖等,0,2022-09-26,2022-09-21,有限会社ジーシーエス,,有限会社,東京都,調布市,布田５丁目２６番地６,,13,208,1820024,,,2022-09-21,清算の結了等,,,2015-10-05,1,,,,,,0
595,3060001009024,登記記録の閉鎖等,0,2022-09-26,2022-09-20,株式会社輝陽工業,,株式会社,栃木県,日光市,山口８３８番地３０,,09,206,3212343,,,2022-09-20,清算の結了等,,,2015-10-05,1,,,,,,0
596,3060002026695,登記記録の閉鎖等,0,2022-09-26,2022-09-21,明和設備企画有限会社,,有限会社,栃木県,大田原市,住吉町１丁目１０番１１号,,09,210,3240057,,,2022-09-21,清算の結了等,,,2015-10-05,1,,,,,メイワセツビキカク,0
597,3060003001400,登記記録の閉鎖等,0,2022-09-26,2022-09-20,合同会社臼井,,合同会社,栃木県,那須塩原市,東小屋字後山４４７番地１,,09,213,3293147,,,2022-09-20,清算の結了等,,,2015-10-05,1,,,,,ウスイ,0
628,3120002065084,登記記録の閉鎖等,0,2022-09-26,2022-09-21,有限会社平野町小倉屋,,有限会社,大阪府,大阪市中央区,平野町４丁目３番５号,,27,128,5410046,,,2022-09-21,清算の結了等,,,2015-10-05,1,,,,,ヒラノマチオグラヤ,0
633,3120101029444,登記記録の閉鎖等,0,2022-09-26,2022-09-21,株式会社さいこち,,株式会社,大阪府,堺市東区,日置荘原寺町４２６番地１７,,27,143,5998112,,,2022-09-21,清算の結了等,,,2015-10-05,1,,,,,サイコチ,0
655,3170003000952,登記記録の閉鎖等,0,2022-09-26,2022-09-22,Ｗｅｌｌ－Ｂｅｉｎｇ合同会社,,合同会社,和歌山県,和歌山市,岩橋１３１１番地の５,,30,201,6408301,,,2022-09-22,清算の結了等,,,2015-10-05,1,,,,,ウェルービーイング,0
658,3180001106750,登記記録の閉鎖等,0,2022-09-26,2022-09-20,株式会社あくり,,株式会社,愛知県,名古屋市熱田区,西野町２丁目４４番地１,,23,109,4560063,,,2022-09-20,清算の結了等,,,2015-10-05,1,,,,,アクリ,0
663,3180002000705,登記記録の閉鎖等,0,2022-09-26,2022-09-16,有限会社シーアンドシー,,有限会社,愛知県,名古屋市守山区,守山２丁目８番１４号－９０８号,,23,113,4630067,,,2022-09-16,清算の結了等,,,2015-10-05,1,,,,,シーアンドシー,0
668,3180301022689,登記記録の閉鎖等,0,2022-09-26,2022-09-13,東宝工業株式会社,,株式会社,愛知県,西尾市,寺津町五十間南１番地２,,23,213,4440324,,,2022-09-13,清算の結了等,,,2015-10-05,1,,,,,トウホウコウギョウ,0
674,3190005011327,登記記録の閉鎖等,0,2022-09-26,2022-09-21,一般社団法人エドウェル四日市,,その他の設立登記法人,三重県,四日市市,諏訪栄町７番３４号四日市近鉄ビル７階,,24,202,5100086,,,2022-09-21,清算の結了等,,,2019-06-04,1,,,,,エドウェルヨッカイチ,0
704,3310005003559,登記記録の閉鎖等,0,2022-09-26,2022-09-08,天理教東鏡川分教会,,その他の設立登記法人,長崎県,佐世保市,宇久町飯良９１４番地,,42,202,8574813,,,2022-09-08,合併による解散等,3310005003815,令和４年９月８日長崎県南松浦郡新上五島町青方郷１５２５番地１天理教中通分教会（3310005003815）に合併し解散,2015-10-05,1,,,,,テンリキョウヒガシカガミカワブンキョウカイ,0
713,3370201002937,登記記録の閉鎖等,0,2022-09-26,2022-09-12,株式会社鈴木電気商会,,株式会社,宮城県,栗原市,築館伊豆１丁目９番２１号,,04,213,9872216,,,2022-09-12,清算の結了等,,,2015-10-05,1,,,,,スズキデンキショウカイ,0
714,3370802001040,登記記録の閉鎖等,0,2022-09-26,2022-09-12,有限会社野村梱包店,,有限会社,宮城県,岩沼市,中央４丁目６番５１３号,,04,211,9892432,,,2022-09-12,清算の結了等,,,2015-10-05,1,,,,,ノムラコンポウテン,0
717,3380002018025,登記記録の閉鎖等,0,2022-09-26,2022-09-20,有限会社須藤電気工事,,有限会社,福島県,西白河郡矢吹町,本郷町４６８番地２,,07,466,9690282,,,2022-09-20,清算の結了等,,,2015-10-05,1,,,,,スドウデンキコウジ,0
718,3390001014569,登記記録の閉鎖等,0,2022-09-26,2022-09-13,護公セキュリティ株式会社,,株式会社,山形県,山形市,あけぼの１丁目７番５号,,06,201,9902162,,,2022-09-13,清算の結了等,,,2016-07-11,1,,,,,ゴコウセキュリティ,0
719,3410002002388,登記記録の閉鎖等,0,2022-09-26,2022-09-21,有限会社武石建設,,有限会社,秋田県,秋田市,桜１丁目６番２１号,,05,201,0100042,,,2022-09-21,清算の結了等,,,2015-10-05,1,,,,,タケイシケンセツ,0
763,4011001017904,登記記録の閉鎖等,0,2022-09-26,2022-09-12,日本フィジカルアコースティクス株式会社,,株式会社,東京都,文京区,湯島３丁目２６番１１号ＹＭビル,,13,105,1130034,,,2022-09-12,清算の結了等,,,2015-10-05,1,,,,,ニホンフィジカルアコースティクス,0
770,4011101040112,登記記録の閉鎖等,0,2022-09-26,2022-09-21,株式会社ムサシ・セキュリティー,,株式会社,東京都,新宿区,高田馬場４丁目１８番地の１２号,,13,104,1690075,,,2022-09-21,清算の結了等,,,2015-10-05,1,,,,,ムサシセキュリティー,0
785,4012401011257,登記記録の閉鎖等,0,2022-09-26,2022-09-20,株式会社ジェー・ティー・エル,,株式会社,東京都,武蔵野市,西久保２丁目２６番１６号,,13,203,1800013,,,2022-09-20,清算の結了等,,,2015-10-05,1,,,,,ジェーティーエル,0
786,4012401024762,登記記録の閉鎖等,0,2022-09-26,2022-09-14,株式会社不二機械設備,,株式会社,東京都,国立市,東４丁目１９番地の１７,,13,215,1860002,,,2022-09-14,清算の結了等,,,2015-10-05,1,,,,,フジキカイセツビ,0
794,4012801019593,登記記録の閉鎖等,0,2022-09-26,2022-09-08,株式会社ＭｅｄｉａＦｏｘ,,株式会社,東京都,渋谷区,恵比寿南１丁目１５番１号,,13,113,1500022,,,2022-09-08,合併による解散等,1011001117178,令和４年９月１日東京都渋谷区恵比寿南一丁目１５番１号株式会社デジタルアイデンティティ（1011001117178）に合併し解散,2019-08-08,1,,,,,メディアフォックス,0
811,4021003006400,登記記録の閉鎖等,0,2022-09-26,2022-09-20,合同会社アルケー,,合同会社,神奈川県,高座郡寒川町,岡田７丁目８－１,,14,321,2530105,,,2022-09-20,清算の結了等,,,2017-01-10,1,,,,,アルケー,0
828,4040005017775,登記記録の閉鎖等,0,2022-09-26,2022-09-21,一般社団法人ＧＳＴＣ技術研究所,,その他の設立登記法人,新潟県,阿賀野市,保田６８２８番地１,,15,223,9592221,,,2022-09-21,清算の結了等,,,2015-10-05,1,,,,,ジーエスティーシーギジュツケンキュウショ,0
831,4060005009250,登記記録の閉鎖等,0,2022-09-26,2022-09-12,特定非営利活動法人ちびろば舎,,その他の設立登記法人,栃木県,那須郡那須町,大字高久甲２７１８番地２,,09,407,3250001,,,2022-09-12,清算の結了等,,,2016-10-26,1,,,,,チビロバシャ,0
844,4120001196714,登記記録の閉鎖等,0,2022-09-26,2022-09-21,株式会社ワッツ・コネクション,,株式会社,大阪府,大阪市中央区,城見１丁目４番７０号住友生命ＯＢＰプラザビル,,27,128,5400001,,,2022-09-21,合併による解散等,2120001131722,令和４年９月１日東京都北区赤羽二丁目５１番３号株式会社ワッツ東日本販売（2120001131722）に合併し解散,2016-03-04,1,,,,,,0
852,4120005013824,登記記録の閉鎖等,0,2022-09-26,2022-09-08,天理教千里分教会,,その他の設立登記法人,大阪府,守口市,大日町４丁目４０番１５号,,27,209,5700003,,,2022-09-08,合併による解散等,8120005000249,令和４年９月８日大阪市中央区南船場一丁目５番１６号天理教船場大教会（8120005000249）に合併し解散,2015-10-05,1,,,,,テンリキョウセンリブンキョウカイ,0
871,4180001135575,登記記録の閉鎖等,0,2022-09-26,2022-09-16,株式会社ＱＵＡＴＲＯ　ＳＥＡＳＯＮ,,株式会社,愛知県,春日井市,東山町１丁目７番２３号,,23,206,4860811,,,2022-09-16,清算の結了等,,,2019-02-25,1,,,,,クアトロセゾン,0
873,4180002028019,登記記録の閉鎖等,0,2022-09-26,2022-09-15,有限会社鈴木工業所,,有限会社,愛知県,名古屋市中村区,名駅南３丁目７番２０号第二ワカサビル,,23,105,4500003,,,2022-09-15,清算の結了等,,,2015-10-05,1,,,,,スズキコウギョウショ,0
883,4210002014337,登記記録の閉鎖等,0,2022-09-26,2022-09-13,有限会社若狭機工,,有限会社,福井県,大飯郡高浜町,東三松３字輸蜊１番地１９,,18,481,9192382,,,2022-09-13,清算の結了等,,,2015-10-05,1,,,,,ワカサキコウ,0
912,4310005003558,登記記録の閉鎖等,0,2022-09-26,2022-09-08,天理教長一分教会,,その他の設立登記法人,長崎県,佐世保市,宇久町平２５３２・２５３３番合併,,42,202,8574901,,,2022-09-08,合併による解散等,3310005003815,令和４年９月８日長崎県南松浦郡新上五島町青方郷１５２５番地１天理教中通分教会（3310005003815）に合併し解散,2015-10-05,1,,,,,テンリキョウチョウイチブンキョウカイ,0
919,4360005005483,登記記録の閉鎖等,0,2022-09-26,2022-09-09,特定非営利活動法人もみじ会,,その他の設立登記法人,沖縄県,国頭郡恩納村,字真栄田６７３番地,,47,311,9040417,,,2022-09-09,清算の結了等,,,2016-12-09,1,,,,,,0
922,4380002011004,登記記録の閉鎖等,0,2022-09-26,2022-09-20,有限会社東部清掃社,,有限会社,福島県,郡山市,荒井町字荒井６番地,,07,203,9630704,,,2022-09-20,清算の結了等,,,2015-10-05,1,,,,,トウブセイソウシャ,0
926,4430001047167,登記記録の閉鎖等,0,2022-09-26,2022-09-14,株式会社伊藤木材店,,株式会社,北海道,岩見沢市,南町九条１丁目１番地,,01,210,0680809,,,2022-09-14,清算の結了等,,,2022-07-07,1,,,,,,0
932,4450002009346,登記記録の閉鎖等,0,2022-09-26,2022-09-26,有限会社鈴木木材,,有限会社,北海道,空知郡上富良野町,南町１丁目３番５号,,01,460,0710562,,,2022-09-26,清算の結了等,,,2015-10-05,1,,,,,スズキモクザイ,0
941,5010001071357,登記記録の閉鎖等,0,2022-09-26,2022-09-15,株式会社フォーチュン・コンサルティング・インク,,株式会社,東京都,千代田区,二番町１番地,,13,101,1020084,,,2022-09-15,清算の結了等,,,2015-10-05,1,,,,,フォーチュンコンサルティングインク,0
948,5010001184175,登記記録の閉鎖等,0,2022-09-26,2022-08-30,ビッグゲート・インベストメント株式会社,,株式会社,東京都,港区,六本木１丁目６番１号泉ガーデンタワー,,13,103,1060032,,,2022-08-30,合併による解散等,7013301040756,令和４年８月２９日東京都港区六本木一丁目６番１号泉ガーデンタワーＦＬＣキャピタル株式会社（7013301040756）に合併し解散,2017-06-09,1,,,,,ビッグゲートインベストメント,0
974,5010601007792,登記記録の閉鎖等,0,2022-09-26,2022-09-14,花澤運輸株式会社,,株式会社,東京都,江東区,海辺２２番１２号,,13,108,1350012,,,2022-09-14,清算の結了等,,,2015-10-05,1,,,,,ハナザワウンユ,0
984,5010901024570,登記記録の閉鎖等,0,2022-09-26,2022-09-20,造園ＡＯＫＩ株式会社,,株式会社,東京都,世田谷区,桜丘５丁目４７番７号,,13,112,1560054,,,2022-09-20,清算の結了等,,,2015-10-05,1,,,,,ゾウエンアオキ,0
988,5010903007020,登記記録の閉鎖等,0,2022-09-26,2022-09-20,合同会社ＰａＤｏＭｅ,,合同会社,東京都,世田谷区,上用賀５丁目２１―１０エクセレント上用賀２０１,,13,112,1580098,,,2022-09-20,清算の結了等,,,2021-12-16,1,,,,,パドメ,0
1003,5011103000278,登記記録の閉鎖等,0,2022-09-26,2022-09-12,合資会社東寿司,,合資会社,東京都,新宿区,左門町３番地２,,13,104,1600017,,,2022-09-12,清算の結了等,,,2015-10-05,1,,,,,アズマズシ,0
1029,5020001025444,登記記録の閉鎖等,0,2022-09-26,2022-09-15,インシステム株式会社,,株式会社,東京都,千代田区,丸の内１丁目６番１号丸の内センタービル２階,,13,101,1000005,,,2022-09-15,合併による解散等,9030001003544,令和４年９月１日埼玉県さいたま市大宮区桜木町一丁目１１番地５株式会社サイサン（9030001003544）に合併し解散,2015-10-05,1,,,,,,0
1038,5021001066965,登記記録の閉鎖等,0,2022-09-26,2022-09-20,Ｂｒｉｄｇｅ株式会社,,株式会社,神奈川県,厚木市,戸室５丁目１２番９号,,14,212,2430031,,,2022-09-20,清算の結了等,,,2019-04-05,1,,,,,ブリッジ,0
1046,5030002015220,登記記録の閉鎖等,0,2022-09-26,2022-09-12,有限会社Ａ－ｆａｃｔｏｒｙ,,有限会社,埼玉県,さいたま市大宮区,宮町１丁目９番地,,11,103,3300802,,,2022-09-12,清算の結了等,,,2015-10-05,1,,,,,エーファクトリー,0
1047,5030002021680,登記記録の閉鎖等,0,2022-09-26,2022-09-12,有限会社武州印刷,,有限会社,埼玉県,さいたま市岩槻区,本丸１丁目１９番１７号,,11,110,3390058,,,2022-09-12,清算の結了等,,,2015-10-05,1,,,,,,0
1050,5040001060737,登記記録の閉鎖等,0,2022-09-26,2022-09-20,Ｆｅｍ　ｄｅ　Ｃｏｒｅｅ株式会社,,株式会社,東京都,港区,南青山３丁目１５－９ＭＩＮＯＷＡ表参道３階,,13,103,1070062,,,2022-09-20,合併による解散等,9040001045214,令和４年７月３１日千葉県成田市並木町２２１番地２７６株式会社鳥丈（9040001045214）に合併し解散,2015-10-05,1,,,,,フェムデコリー,0
1051,5040001070546,登記記録の閉鎖等,0,2022-09-26,2022-09-14,株式会社ａｕ－ｂｅ,,株式会社,千葉県,柏市,明原１丁目２番２号,,12,217,2770843,,,2022-09-14,合併による解散等,6011001098777,令和４年９月１日東京都渋谷区神宮前四丁目１７番８号オリエンタル原宿２０７号室株式会社ａｕ－ｂｅ（6011001098777）に合併し解散,2015-10-05,1,,,,,オーブ,0
1058,5050001013561,登記記録の閉鎖等,0,2022-09-26,2022-09-16,株式会社旭生コン,,株式会社,茨城県,下妻市,宗道２３９７番地,,08,210,3040814,,,2022-09-16,清算の結了等,,,2015-10-05,1,,,,,,0
1068,5070002005102,登記記録の閉鎖等,0,2022-09-26,2022-09-21,丸共食品有限会社,,有限会社,群馬県,前橋市,富士見町時沢２９７３番地の６,,10,201,3710104,,,2022-09-21,合併による解散等,8120001095540,令和４年９月１日東京都港区西新橋二丁目７番４号株式会社餃子計画（8120001095540）に合併し解散,2015-10-05,1,,,,,マルキョウショクヒン,0
1072,5080101010910,登記記録の閉鎖等,0,2022-09-26,2022-09-20,株式会社スルガ,,株式会社,静岡県,富士市,木島２１６番地の１,,22,210,4213304,,,2022-09-20,清算の結了等,,,2015-10-05,1,,,,,スルガ,0
1076,5080401013134,登記記録の閉鎖等,0,2022-09-26,2022-09-22,トライポッド・ジャパン株式会社,,株式会社,静岡県,浜松市東区,有玉北町５５番地の１,,22,132,4313121,,,2022-09-22,清算の結了等,,,2015-10-05,1,,,,,トライポッドジャパン,0
1091,5120001228144,登記記録の閉鎖等,0,2022-09-26,2022-09-20,株式会社シンエイ,,株式会社,大阪府,門真市,野里町２３番１６号,,27,223,5710079,,,2022-09-20,清算の結了等,,,2020-03-30,1,,,,,シンエイ,0
1103,5130002001490,登記記録の閉鎖等,0,2022-09-26,2022-09-13,有限会社弁天湯,,有限会社,京都府,京都市右京区,太秦安井藤ノ木町３番地,,26,108,6168071,,,2022-09-13,清算の結了等,,,2015-10-05,1,,,,,ベンテンユ,0
1120,5170002002394,登記記録の閉鎖等,0,2022-09-26,2022-09-21,有限会社田忠湯川水産,,有限会社,和歌山県,和歌山市,西浜１６６０番地,,30,201,6410036,,,2022-09-21,清算の結了等,,,2015-10-05,1,,,,,タチュウユカワスイサン,0
1122,5180001089597,登記記録の閉鎖等,0,2022-09-26,2022-09-20,株式会社美輝,,株式会社,愛知県,名古屋市中村区,則武２丁目１４番１８号,,23,105,4530014,,,2022-09-20,清算の結了等,,,2015-10-05,1,,,,,ミキ,0
1124,5180002028042,登記記録の閉鎖等,0,2022-09-26,2022-09-20,株式会社新ちゃん,,株式会社,愛知県,名古屋市天白区,井口１丁目１７０２,,23,116,4680052,,,2022-09-20,清算の結了等,,,2015-10-05,1,,,,,シンチャン,0
1132,5180305003007,登記記録の閉鎖等,0,2022-09-26,2022-09-05,天理教形岩分教会,,その他の設立登記法人,愛知県,豊橋市,大岩町字火打坂４３番地２,,23,201,4413147,,,2022-09-05,合併による解散等,5180305004277,令和４年９月５日愛知県蒲郡市金平町宇保美４５番地の２天理教形原分教会（5180305004277）に合併し解散,2015-10-05,1,,,,,テンリキョウカタイワブンキョウカイ,0
1136,5200002010311,登記記録の閉鎖等,0,2022-09-26,2022-09-20,有限会社安藤建材店,,有限会社,岐阜県,羽島市,竹鼻町丸の内４丁目５５番地,,21,209,5016244,,,2022-09-20,清算の結了等,,,2015-10-05,1,,,,,アンドウケンザイテン,0
1137,5210001000832,登記記録の閉鎖等,0,2022-09-26,2022-09-16,株式会社面野商店,,株式会社,福井県,福井市,中央２丁目５番１号,,18,201,9100006,,,2022-09-16,清算の結了等,,,2015-10-05,1,,,,,オモノショウテン,0
1139,5210002010665,登記記録の閉鎖等,0,2022-09-26,2022-09-16,有限会社北陸継電器計測,,有限会社,福井県,敦賀市,元町９番４号,,18,202,9140076,,,2022-09-16,清算の結了等,,,2015-10-05,1,,,,,ホクリクケイデンキケイソク,0
1150,5260001018176,登記記録の閉鎖等,0,2022-09-26,2022-09-08,株式会社井笠農開発興産,,株式会社,岡山県,井原市,門田町１８６８番地,,33,207,7150005,,,2022-09-08,清算の結了等,,,2015-10-05,1,,,,,イカサノウカイハツコウサン,0
1160,5290801000768,登記記録の閉鎖等,0,2022-09-26,2022-09-22,亀田コンストラクト株式会社,,株式会社,福岡県,北九州市小倉南区,湯川５丁目４番２４号,,40,107,8000257,,,2022-09-22,清算の結了等,,,2015-10-05,1,,,,,カメダコンストラクト,0
1172,5340002001008,登記記録の閉鎖等,0,2022-09-26,2022-09-22,有限会社アドメイクシステム,,有限会社,鹿児島県,鹿児島市,田上台１丁目４番８号,,46,201,8900036,,,2022-09-22,清算の結了等,,,2015-10-05,1,,,,,アドメイクシステム,0
1185,5420001008045,登記記録の閉鎖等,0,2022-09-26,2022-09-20,株式会社西北五臨床検査センター,,株式会社,青森県,五所川原市,字旭町２０番地９,,02,205,0370062,,,2022-09-20,清算の結了等,,,2015-10-05,1,,,,,セイホクゴリンショウケンサセンター,0
1191,5460302005191,登記記録の閉鎖等,0,2022-09-26,2022-09-20,有限会社田中漁業,,有限会社,北海道,網走市,字藻琴１１０番地,,01,211,0993111,,,2022-09-20,清算の結了等,,,2015-10-05,1,,,,,タナカギョギョウ,0
1192,5480005004621,登記記録の閉鎖等,0,2022-09-26,2022-09-09,天理教徳島一分教会,,その他の設立登記法人,徳島県,海部郡美波町,北河内字本村２０８番地の１,,36,387,7792302,,,2022-09-09,合併による解散等,3140005019309,令和４年９月６日兵庫県洲本市宇山三丁目１番１号天理教洲本大教会（3140005019309）に合併し解散,2015-10-05,1,,,,,テンリキョウトクシマハジメブンキョウカイ,0
1209,6010001210970,登記記録の閉鎖等,0,2022-09-26,2022-09-15,株式会社ハサウェイ,,株式会社,東京都,中央区,銀座１丁目２２－１１銀座大竹ビジデンス２Ｆ,,13,102,1040061,,,2022-09-15,清算の結了等,,,2020-07-16,1,,,,,ハサウェイ,0
1230,6010501037906,登記記録の閉鎖等,0,2022-09-26,2022-09-20,株式会社ｂｏｌｏｍｅ,,株式会社,東京都,港区,六本木７丁目１８番１８号住友不動産六本木通ビル９階,,13,103,1060032,,,2022-09-20,清算の結了等,,,2015-10-05,1,,,,,ボウロウミイ,0
1241,6010705002540,登記記録の閉鎖等,0,2022-09-26,2022-09-21,一般社団法人日本ゲルマニウム研究学会,,その他の設立登記法人,東京都,千代田区,神田紺屋町１１番地鈴野ビル１階,,13,101,1010035,,,2022-09-21,清算の結了等,,,2016-11-29,1,,,,,ニホンゲルマニウムケンキュウガッカイ,0
1246,6010905001631,登記記録の閉鎖等,0,2022-09-26,2022-09-16,特定非営利活動法人経済教育研究会,,その他の設立登記法人,東京都,世田谷区,梅丘３丁目１０番９－２０２号,,13,112,1540022,,,2022-09-16,清算の結了等,,,2015-10-05,1,,,,,ケイザイキョウイクケンキュウカイ,0
1258,6011102012315,登記記録の閉鎖等,0,2022-09-26,2022-09-21,有限会社丸山タイヤ商会,,有限会社,東京都,新宿区,上落合３丁目１０番３号,,13,104,1610034,,,2022-09-21,清算の結了等,,,2015-10-05,1,,,,,マルヤマタイヤショウカイ,0
1260,6011301024508,登記記録の閉鎖等,0,2022-09-26,2022-09-20,株式会社アップルハウス,,株式会社,東京都,小金井市,梶野町４丁目１１番６号２Ｆ,,13,210,1840002,,,2022-09-20,清算の結了等,,,2018-10-03,1,,,,,アップルハウス,0
1266,6011701004324,登記記録の閉鎖等,0,2022-09-26,2022-09-20,株式会社スリーアローズ,,株式会社,東京都,江戸川区,北小岩６丁目２０番１４号,,13,123,1330051,,,2022-09-20,清算の結了等,,,2015-10-05,1,,,,,スリーアローズ,0
1270,6012401036764,登記記録の閉鎖等,0,2022-09-26,2022-09-20,株式会社りんごの家,,株式会社,東京都,小金井市,梶野町４丁目１１番６号,,13,210,1840002,,,2022-09-20,清算の結了等,,,2020-07-20,1,,,,,リンゴノイエ,0
1271,6012401037589,登記記録の閉鎖等,0,2022-09-26,2022-09-20,株式会社クラフト,,株式会社,東京都,府中市,押立町１丁目３４番地の１コープ野村府中武蔵野台３－２１３,,13,206,1830012,,,2022-09-20,清算の結了等,,,2021-03-04,1,,,,,クラフト,0
1273,6012402022549,登記記録の閉鎖等,0,2022-09-26,2022-09-14,有限会社マリモ,,有限会社,東京都,国分寺市,日吉町４丁目６番４２,,13,214,1850032,,,2022-09-14,清算の結了等,,,2015-10-05,1,,,,,マリモ,0
1300,6021003004740,登記記録の閉鎖等,0,2022-09-26,2022-09-21,ソレイユ合同会社,,合同会社,神奈川県,相模原市中央区,宮下本町１丁目２番１５号,,14,152,2520211,,,2022-09-21,清算の結了等,,,2015-10-05,1,,,,,ソレイユ,0
1302,6030001015749,登記記録の閉鎖等,0,2022-09-26,2022-09-12,株式会社パドルプリント,,株式会社,埼玉県,さいたま市桜区,田島８丁目１３番８号,,11,106,3380837,,,2022-09-12,清算の結了等,,,2015-10-05,1,,,,,パドルプリント,0
1308,6030001121605,登記記録の閉鎖等,0,2022-09-26,2022-09-07,Ｒｅ・Ｂ株式会社,,株式会社,千葉県,千葉市若葉区,千城台東２丁目３４番１３号,,12,104,2640002,,,2022-09-07,合併による解散等,2040001109652,令和４年８月２１日千葉県柏市あけぼの三丁目２番５号ＢＥ　ＡＬＬ株式会社（2040001109652）に合併し解散,2017-08-08,1,,,,,リビー,0
1331,6060001006893,登記記録の閉鎖等,0,2022-09-26,2022-09-14,日本インテグレーテッドワークス株式会社,,株式会社,栃木県,宇都宮市,山本３丁目７番１４号,,09,201,3200012,,,2022-09-14,清算の結了等,,,2015-10-05,1,,,,,ニホンインテグレーテッドワークス,0
1332,6060001025407,登記記録の閉鎖等,0,2022-09-26,2022-09-09,ワリットタイ株式会社,,株式会社,栃木県,小山市,城東７丁目１８番２号,,09,208,3230807,,,2022-09-09,清算の結了等,,,2015-10-05,1,,,,,ワリットタイ,0
1342,6080003001305,登記記録の閉鎖等,0,2022-09-26,2022-09-20,合名会社桜井製氷所,,合名会社,静岡県,静岡市駿河区,曲金６丁目１６番８号,,22,102,4228006,,,2022-09-20,清算の結了等,,,2015-10-05,1,,,,,サクライセイヒョウショ,0
1343,6080101007138,登記記録の閉鎖等,0,2022-09-26,2022-09-21,株式会社七成,,株式会社,静岡県,伊豆の国市,原木８０７番地の９,,22,225,4102124,,,2022-09-21,清算の結了等,,,2015-10-05,1,,,,,シチセイ,0
1347,6120001036216,登記記録の閉鎖等,0,2022-09-26,2022-09-21,ヒラキ機工株式会社,,株式会社,大阪府,大阪市福島区,海老江７丁目１番３０号,,27,103,5530001,,,2022-09-21,清算の結了等,,,2015-10-05,1,,,,,ヒラキキコウ,0
1350,6120001221809,登記記録の閉鎖等,0,2022-09-26,2022-09-20,株式会社旅印,,株式会社,大阪府,大阪市福島区,福島８丁目１９番１７号,,27,103,5530003,,,2022-09-20,清算の結了等,,,2019-06-18,1,,,,,タビジルシ,0
1376,6140002028524,登記記録の閉鎖等,0,2022-09-26,2022-09-15,大久保無線有限会社,,有限会社,兵庫県,明石市,大久保町大窪２５７番地,,28,203,6740051,,,2022-09-15,清算の結了等,,,2015-10-05,1,,,,,オオクボムセン,0
1382,6150001007759,登記記録の閉鎖等,0,2022-09-26,2022-09-21,株式会社ＤＣＬ,,株式会社,奈良県,奈良市,疋田町５丁目５００番地の３７,,29,201,6310843,,,2022-09-21,清算の結了等,,,2015-10-05,1,,,,,ディーシーエル,0
1383,6150001011637,登記記録の閉鎖等,0,2022-09-26,2022-09-21,株式会社パルファン,,株式会社,奈良県,橿原市,見瀬町４番地の４,,29,205,6340064,,,2022-09-21,清算の結了等,,,2015-10-05,1,,,,,,0
1392,6200005009829,登記記録の閉鎖等,0,2022-09-26,2022-09-21,医療法人社団杏康会,,その他の設立登記法人,岐阜県,高山市,岡本町１丁目９４番地の１０,,21,203,5060054,,,2022-09-21,清算の結了等,,,2015-10-05,1,,,,,キョウコウカイ,0
1393,6220001008873,登記記録の閉鎖等,0,2022-09-26,2022-09-20,株式会社トーカイケミカル,,株式会社,石川県,白山市,湊町丙１６番地１,,17,210,9290217,,,2022-09-20,清算の結了等,,,2015-10-05,1,,,,,トーカイケミカル,0
1396,6230002000250,登記記録の閉鎖等,0,2022-09-26,2022-09-21,有限会社アロートレーディング,,有限会社,富山県,富山市,太郎丸西町１丁目４番地の８,,16,201,9398271,,,2022-09-21,清算の結了等,,,2015-10-05,1,,,,,アロートレーディング,0
1398,6240002012550,登記記録の閉鎖等,0,2022-09-26,2022-09-22,有限会社野中竹久一級建築士事務所,,有限会社,広島県,広島市西区,東観音町８番１号,,34,104,7330032,,,2022-09-22,清算の結了等,,,2015-10-05,1,,,,,ノナカタケヒサイッキュウケンチクシジムショ,0
1403,6250002011345,登記記録の閉鎖等,0,2022-09-26,2022-09-16,有限会社ヤマト屋,,有限会社,山口県,下関市,長府中之町６番７号,,35,201,7520973,,,2022-09-16,清算の結了等,,,2015-10-05,1,,,,,ヤマトヤ,0
1413,6290002040836,登記記録の閉鎖等,0,2022-09-26,2022-09-15,有限会社秀峰,,有限会社,福岡県,春日市,平田台５丁目２１番地の４,,40,218,8160812,,,2022-09-15,清算の結了等,,,2015-10-05,1,,,,,シュウホウ,0
1417,6290801006525,登記記録の閉鎖等,0,2022-09-26,2022-09-20,株式会社ウェイクアップ,,株式会社,福岡県,北九州市小倉北区,米町１丁目３番１０号一宮ビル６階,,40,106,8020003,,,2022-09-20,合併による解散等,7290801011846,令和４年９月１７日北九州市若松区高須東四丁目６番８号株式会社ラファアイランド（7290801011846）に合併し解散,2015-10-05,1,,,,,ウェイクアップ,0
1420,6310005003556,登記記録の閉鎖等,0,2022-09-26,2022-09-08,天理教宇久島分教会,,その他の設立登記法人,長崎県,佐世保市,宇久町飯良２５９８番地,,42,202,8574813,,,2022-09-08,合併による解散等,3310005003815,令和４年９月８日長崎県南松浦郡新上五島町青方郷１５２５番地１天理教中通分教会（3310005003815）に合併し解散,2015-10-05,1,,,,,テンリキョウウクシマブンキョウカイ,0
1422,6330002001429,登記記録の閉鎖等,0,2022-09-26,2022-09-20,有限会社エスピープランニング,,有限会社,熊本県,熊本市南区,十禅寺２丁目７番３０号ＭハイツＪＪ１０１号室,,43,104,8600824,,,2022-09-20,清算の結了等,,,2015-10-05,1,,,,,エスピープランニング,0
1436,6390001011332,登記記録の閉鎖等,0,2022-09-26,2022-09-15,小国運輸機工株式会社,,株式会社,山形県,西置賜郡小国町,大字栄町６５番地,,06,401,9991361,,,2022-09-15,清算の結了等,,,2015-10-05,1,,,,,オグニウンユキコウ,0
1449,6490002000340,登記記録の閉鎖等,0,2022-09-26,2022-09-14,有限会社アメニティー住宅,,有限会社,高知県,高知市,曙町２丁目２番１７号,,39,201,7808072,,,2022-09-14,清算の結了等,,,2015-10-05,1,,,,,アメニティージュウタク,0
1452,6500002016731,登記記録の閉鎖等,0,2022-09-26,2022-09-21,太陽食品有限会社,,有限会社,愛媛県,四国中央市,土居町畑野４１７番地２,,38,213,7990714,,,2022-09-21,清算の結了等,,,2015-10-05,1,,,,,タイヨウショクヒン,0
1453,6500003001658,登記記録の閉鎖等,0,2022-09-26,2022-09-22,合同会社Ｂｏｄｙ－Ｅａｓｅ,,合同会社,愛媛県,今治市,喜田村４丁目１３番５３号１階,,38,202,7991502,,,2022-09-22,清算の結了等,,,2015-10-05,1,,,,,ボディーズ,0
1460,7010001191541,登記記録の閉鎖等,0,2022-09-26,2022-09-12,富士建設株式会社,,株式会社,東京都,中央区,日本橋蛎殻町１丁目３９番２号,,13,102,1030014,,,2022-09-12,清算の結了等,,,2018-05-10,1,,,,,フジケンセツ,0
1478,7010401116461,登記記録の閉鎖等,0,2022-09-26,2022-09-06,三井化学ＳＫＣポリウレタン株式会社,,株式会社,東京都,港区,東新橋１丁目５番２号,,13,103,1050021,,,2022-09-06,清算の結了等,,,2015-10-05,1,,,,,ミツイカガクエスケイシポリウレタン,0
1485,7010601051871,登記記録の閉鎖等,0,2022-09-26,2022-09-12,株式会社ＧｕｉｄｅＨａｃｋｅｒ,,株式会社,沖縄県,石垣市,字大川２７８番地ＴＡＭＡビルＩＩ２Ｆ２０１号室,00126125,47,207,9070022,,,2022-09-12,清算の結了等,,,2017-07-13,1,,,,,ガイドハッカー,0
1505,7011002010533,登記記録の閉鎖等,0,2022-09-26,2022-09-20,有限会社ヒロアニメーションスタンド,,有限会社,東京都,品川区,北品川５丁目１２番１－６０４号,,13,109,1410001,,,2022-09-20,清算の結了等,,,2015-10-05,1,,,,,ヒロアニメーションスタンド,0
1507,7011101034739,登記記録の閉鎖等,0,2022-09-26,2022-09-21,株式会社Ｏｆｆｉｃｅ　Ｍｉｕｒａ,,株式会社,東京都,新宿区,高田馬場３丁目１番５号,,13,104,1690075,,,2022-09-21,清算の結了等,,,2015-10-05,1,,,,,オフィスミウラ,0
1514,7011401018268,登記記録の閉鎖等,0,2022-09-26,2022-09-22,株式会社義電気,,株式会社,東京都,板橋区,赤塚２丁目２７番１４号,,13,119,1750092,,,2022-09-22,清算の結了等,,,2015-10-05,1,,,,,ヨシデンキ,0
1533,7020005000730,登記記録の閉鎖等,0,2022-09-26,2022-09-05,宗教法人天理教本温分教会,,その他の設立登記法人,神奈川県,横浜市金沢区,六浦南４丁目３番１１号,,14,108,2360038,,,2022-09-05,合併による解散等,5020005001045,令和４年９月５日横浜市港南区芹が谷五丁目５０番２６号宗教法人天理教本神分教会（5020005001045）に合併し解散,2015-10-05,1,,,,,,0
1536,7021002069214,登記記録の閉鎖等,0,2022-09-26,2022-09-21,有限会社坂本海苔店,,有限会社,神奈川県,横須賀市,佐島２丁目１２番３号,,14,201,2400103,,,2022-09-21,清算の結了等,,,2015-10-05,1,,,,,サカモトノリテン,0
1542,7030002105804,登記記録の閉鎖等,0,2022-09-26,2022-09-12,有限会社西村土木,,有限会社,埼玉県,川口市,東本郷１丁目２番２１号,,11,203,3340063,,,2022-09-12,清算の結了等,,,2015-10-05,1,,,,,ニシムラドボク,0
1543,7040001034103,登記記録の閉鎖等,0,2022-09-26,2022-09-20,株式会社Ｍ＆Ｍコンサルティング,,株式会社,熊本県,熊本市中央区,帯山６丁目３番２２号,,43,101,8620924,,,2022-09-20,清算の結了等,,,2015-10-05,1,,,,,エムアンドエムコンサルティング,0
1560,7080002016071,登記記録の閉鎖等,0,2022-09-26,2022-09-21,有限会社東洋管財,,有限会社,静岡県,焼津市,東小川２丁目５番１５号,,22,212,4250035,,,2022-09-21,清算の結了等,,,2015-10-05,1,,,,,トウヨウカンザイ,0
1563,7080402010211,登記記録の閉鎖等,0,2022-09-26,2022-09-20,浜松環境維持管理有限会社,,有限会社,静岡県,浜松市西区,佐浜町５３６６番地,,22,133,4311114,,,2022-09-20,清算の結了等,,,2015-10-05,1,,,,,ハママツカンキョウイジカンリ,0
1570,7110002004015,登記記録の閉鎖等,0,2022-09-26,2022-09-21,有限会社谷江電気,,有限会社,新潟県,新潟市南区,大通南４丁目１５４番地,,15,106,9501202,,,2022-09-21,清算の結了等,,,2015-10-05,1,,,,,タニエデンキ,0
1571,7110002015540,登記記録の閉鎖等,0,2022-09-26,2022-09-21,有限会社前田カートン,,有限会社,新潟県,新発田市,中曽根町１丁目１番２３号,,15,206,9570067,,,2022-09-21,清算の結了等,,,2015-10-05,1,,,,,マエタカートン,0
1572,7110002030374,登記記録の閉鎖等,0,2022-09-26,2022-09-20,有限会社アクロス,,有限会社,新潟県,長岡市,幸町３丁目７番７号,,15,202,9400084,,,2022-09-20,清算の結了等,,,2015-10-05,1,,,,,アクロス,0
1581,7120001218085,登記記録の閉鎖等,0,2022-09-26,2022-09-21,株式会社あじむどり,,株式会社,大阪府,大阪市旭区,清水２丁目１１番１６号,,27,117,5350021,,,2022-09-21,合併による解散等,7120001206206,令和４年９月２１日大阪市旭区清水二丁目１１番１６号株式会社Ｅｎｊｏｙ　Ｃｏｍｐａｎｙ（7120001206206）に合併し解散,2018-12-28,1,,,,,アジムドリ,0
1590,7120002007173,登記記録の閉鎖等,0,2022-09-26,2022-09-20,有限会社日本タイガー電器,,有限会社,大阪府,大阪市東成区,大今里南３丁目１２番１５号,,27,115,5370013,,,2022-09-20,清算の結了等,,,2015-10-05,1,,,,,ニホンタイガーデンキ,0
1608,7130002008988,登記記録の閉鎖等,0,2022-09-26,2022-09-13,有限会社巧歯研,,有限会社,京都府,京都市西京区,下津林中島町１番地２５７,,26,111,6158053,,,2022-09-13,清算の結了等,,,2015-10-05,1,,,,,タクミシケン,0
1626,7220005000082,登記記録の閉鎖等,0,2022-09-26,2022-09-16,一般社団法人石川県特用林産振興会,,その他の設立登記法人,石川県,金沢市,東蚊爪町１丁目２３番１,,17,201,9200209,,,2022-09-16,清算の結了等,,,2015-10-05,1,,,,,イシカワケントクヨウリンサンシンコウカイ,0
1631,7240002003020,登記記録の閉鎖等,0,2022-09-26,2022-09-22,有限会社大林鉄工,,有限会社,広島県,広島市安佐北区,可部東６丁目１３番２０号,,34,106,7310222,,,2022-09-22,清算の結了等,,,2015-10-05,1,,,,,オオバヤシテッコウ,0
1641,7290005017723,登記記録の閉鎖等,0,2022-09-26,2022-09-21,一般社団法人地域資源活用協会ＤＡＮＫＥＮ社,,その他の設立登記法人,福岡県,久留米市,東合川１丁目３番９号,,40,203,8390809,,,2022-09-21,清算の結了等,,,2020-04-08,1,,,,,チイキシゲンカツヨウキョウカイダンケンシャ,0
1645,7310005000585,登記記録の閉鎖等,0,2022-09-26,2022-09-08,天理教福有分教会,,その他の設立登記法人,長崎県,長崎市,田手原町６４５番地,,42,201,8510252,,,2022-09-08,合併による解散等,3310005003815,令和４年９月８日長崎県南松浦郡新上五島町青方郷１５２５番地１天理教中通分教会（3310005003815）に合併し解散,2015-10-05,1,,,,,テンリキョウフクユウブンキョウカイ,0
1651,7340001001601,登記記録の閉鎖等,0,2022-09-26,2022-09-26,公園ビル株式会社,,株式会社,鹿児島県,鹿児島市,西伊敷１丁目３番４号,,46,201,8900002,,,2022-09-26,清算の結了等,,,2015-10-05,1,,,,,コウエンビル,0
1699,8010001207577,登記記録の閉鎖等,0,2022-09-26,2022-09-20,株式会社リアルグローブ・オートメーティッド,,株式会社,東京都,港区,麻布台２丁目４番５号メソニック３９ＭＴビル,,13,103,1060041,,,2022-09-20,合併による解散等,4020001042589,令和４年９月１日横浜市西区みなとみらい二丁目２番１号横浜ランドマークタワー１４階株式会社システムアイ（4020001042589）に合併し解散,2020-02-19,1,,,,,リアルグローブオートメーティッド,0
1721,8010901017869,登記記録の閉鎖等,0,2022-09-26,2022-09-20,株式会社Ｂａｋｅｒ　Ｂｏｕｎｃｅ,,株式会社,東京都,世田谷区,太子堂５丁目１３番５号,,13,112,1540004,,,2022-09-20,清算の結了等,,,2015-10-05,1,,,,,,0
1722,8010901031886,登記記録の閉鎖等,0,2022-09-26,2022-09-08,東京通信企画株式会社,,株式会社,東京都,世田谷区,代田３丁目３２番１号,,13,112,1550033,,,2022-09-08,清算の結了等,,,2015-10-05,1,,,,,トウキョウツウシンキカク,0
1725,8011001020318,登記記録の閉鎖等,0,2022-09-26,2022-09-20,福田商事株式会社,,株式会社,東京都,渋谷区,恵比寿南２丁目５番８号,,13,113,1500022,,,2022-09-20,清算の結了等,,,2015-10-05,1,,,,,フクダショウジ,0
1737,8011501026442,登記記録の閉鎖等,0,2022-09-26,2022-09-16,和源株式会社,,株式会社,東京都,北区,西ケ原３丁目６３番６号近藤ビル２０２号室,,13,117,1140024,,,2022-09-16,清算の結了等,,,2020-12-08,1,,,,,ワゲン,0
1749,8020002042213,登記記録の閉鎖等,0,2022-09-26,2022-09-16,有限会社グッドスタッフ,,有限会社,神奈川県,横浜市中区,山田町８番地の１,,14,104,2310036,,,2022-09-16,清算の結了等,,,2015-10-05,1,,,,,グッドスタッフ,0
1753,8021001043053,登記記録の閉鎖等,0,2022-09-26,2022-09-14,株式会社オフィス澤野,,株式会社,神奈川県,横須賀市,佐野町２丁目４１番地,,14,201,2380052,,,2022-09-14,清算の結了等,,,2015-10-05,1,,,,,オフィスサワノ,0
1757,8021002065749,登記記録の閉鎖等,0,2022-09-26,2022-09-15,有限会社東一屋,,有限会社,神奈川県,横須賀市,長井１丁目２５番５号,,14,201,2380316,,,2022-09-15,清算の結了等,,,2015-10-05,1,,,,,トウイチヤ,0
1762,8030002107667,登記記録の閉鎖等,0,2022-09-26,2022-09-12,有限会社明哲,,有限会社,埼玉県,川口市,大字赤井一丁目２９番１８号,,11,203,3340073,,,2022-09-12,清算の結了等,,,2015-10-05,1,,,,,メイテツ,0
1767,8040001036841,登記記録の閉鎖等,0,2022-09-26,2022-09-14,松戸機器株式会社,,株式会社,千葉県,松戸市,松戸１７８７番地,,12,207,2710092,,,2022-09-14,清算の結了等,,,2015-10-05,1,,,,,マツドキキ,0
1777,8060001022154,登記記録の閉鎖等,0,2022-09-26,2022-09-14,ビジョナリテイリング株式会社,,株式会社,栃木県,宇都宮市,インターパーク４丁目８番地５,,09,201,3210118,,,2022-09-14,合併による解散等,5030001028322,令和４年９月１日埼玉県所沢市小手指元町二丁目４番地の８ビジョナトレーディング株式会社（5030001028322）に合併し解散,2015-10-05,1,,,,,ビジョナリテイリング,0
1782,8070001002997,登記記録の閉鎖等,0,2022-09-26,2022-09-14,株式会社前橋ハウジング,,株式会社,群馬県,前橋市,上細井町１１４８番地１,,10,201,3710051,,,2022-09-14,清算の結了等,,,2015-10-05,1,,,,,マエバシハウジング,0
1793,8100001006755,登記記録の閉鎖等,0,2022-09-26,2022-09-21,株式会社ウィステリアハウス,,株式会社,長野県,上高井郡高山村,大字奥山田３６８１番地３４８,,20,543,3820800,,,2022-09-21,清算の結了等,,,2015-10-05,1,,,,,ウィステリアハウス,0
1796,8100002015722,登記記録の閉鎖等,0,2022-09-26,2022-09-20,有限会社加藤建設,,有限会社,長野県,東御市,滋野乙２９４８番地４,,20,219,3890512,,,2022-09-20,清算の結了等,,,2015-10-05,1,,,,,カトウケンセツ,0
1807,8120001216245,登記記録の閉鎖等,0,2022-09-26,2022-09-15,株式会社Ｉ．Ｗｉｓｈ,,株式会社,兵庫県,西宮市,高木東町３１番３３号,,28,204,6638033,,,2022-09-15,清算の結了等,,,2018-10-02,1,,,,,アイウィッシュ,0
1832,8140001099655,登記記録の閉鎖等,0,2022-09-26,2022-09-16,第一フーズ株式会社,,株式会社,兵庫県,神戸市中央区,港島９丁目１番地,,28,110,6500045,,,2022-09-16,清算の結了等,,,2015-10-15,1,,,,,ダイイチフーズ,0
1833,8140002037110,登記記録の閉鎖等,0,2022-09-26,2022-09-15,有限会社北片産業,,有限会社,兵庫県,高砂市,米田町米田１３９番地,,28,216,6760805,,,2022-09-15,清算の結了等,,,2015-10-05,1,,,,,キタカタサンギョウ,0
1857,8200005002831,登記記録の閉鎖等,0,2022-09-26,2022-09-26,特定非営利活動法人ひだ荘川・ふるさと愛林会,,その他の設立登記法人,岐阜県,岐阜市,大字下鵜飼字稲置１６５６番１８,,21,201,5000000,,,2022-09-26,清算の結了等,,,2015-10-05,1,,,,,ヒダショウカワフルサトアイリンカイ,0
1876,8290801008346,登記記録の閉鎖等,0,2022-09-26,2022-09-20,株式会社スキンスター,,株式会社,福岡県,北九州市小倉北区,米町１丁目３番１０号一宮ビル６階,,40,106,8020003,,,2022-09-20,合併による解散等,7290801011846,令和４年９月１７日北九州市若松区高須東四丁目６番８号株式会社ラファアイランド（7290801011846）に合併し解散,2015-10-05,1,,,,,スキンスター,0
1890,8310005006953,登記記録の閉鎖等,0,2022-09-26,2022-09-08,天理教崎山港分教會,00096598,その他の設立登記法人,長崎県,五島市,長手町字萬佐手６９番地２,,42,211,8530012,,,2022-09-08,合併による解散等,3310005003815,令和４年９月８日長崎県南松浦郡新上五島町青方郷１５２５番地１天理教中通分教会（3310005003815）に合併し解散,2015-10-05,1,,,,,テンリキョウサキヤマコウブンキョウカイ,0
1897,8350002011011,登記記録の閉鎖等,0,2022-09-26,2022-09-20,有限会社三輪会計センター,,有限会社,宮崎県,日向市,春原町１丁目４６番地１,,45,206,8830035,,,2022-09-20,清算の結了等,,,2015-10-05,1,,,,,ミワカイケイセンター,0
1913,8420002012101,登記記録の閉鎖等,0,2022-09-26,2022-09-20,株式会社エムズメイトコーポレーション,,株式会社,青森県,北津軽郡鶴田町,大字木筒字西柳川７番地７,,02,384,0383531,,,2022-09-20,清算の結了等,,,2015-10-05,1,,,,,,0
1925,9010001032099,登記記録の閉鎖等,0,2022-09-26,2022-09-14,株式会社リビングポスト,,株式会社,東京都,千代田区,岩本町２丁目４番１０号,,13,101,1010032,,,2022-09-14,清算の結了等,,,2015-10-05,1,,,,,リビングポスト,0
1956,9010501041244,登記記録の閉鎖等,0,2022-09-26,2022-08-30,コアベスト株式会社,,株式会社,東京都,港区,六本木１丁目６番１号泉ガーデンタワー,,13,103,1060032,,,2022-08-30,合併による解散等,7013301040756,令和４年８月２９日東京都港区六本木一丁目６番１号泉ガーデンタワーＦＬＣキャピタル株式会社（7013301040756）に合併し解散,2017-06-26,1,,,,,コアベスト,0
1964,9010702001699,登記記録の閉鎖等,0,2022-09-26,2022-09-20,有限会社おおるい電器,,有限会社,東京都,品川区,東大井４丁目１３番１４号,,13,109,1400011,,,2022-09-20,清算の結了等,,,2015-10-05,1,,,,,オオルイデンキ,0
1969,9010902001359,登記記録の閉鎖等,0,2022-09-26,2022-09-14,有限会社猪狩工業,,有限会社,東京都,葛飾区,東金町１丁目４５番１２号ＡＳビル,,13,122,1250041,,,2022-09-14,清算の結了等,,,2015-10-05,1,,,,,イガリコウギョウ,0
1971,9011001126907,登記記録の閉鎖等,0,2022-09-26,2022-09-01,株式会社ＲＥＰＲＯ－ＰＡＲＫ,,株式会社,東京都,渋谷区,東２丁目１０番７号,,13,113,1500011,,,2022-09-01,合併による解散等,4011001059698,令和４年９月１日東京都渋谷区恵比寿南一丁目２０番６号第２１荒井ビルＴＡＴＲＡＳ　ＩＮＴＥＲＮＡＴＩＯＮＡＬ株式会社（4011001059698）に合併し解散,2019-03-06,1,,,,,リプロパーク,0
1977,9011101088832,登記記録の閉鎖等,0,2022-09-26,2022-09-20,株式会社Ｎｅｗｔｙｐｅ,,株式会社,東京都,新宿区,高田馬場４丁目２９番地の３３号１０５,,13,104,1690075,,,2022-09-20,清算の結了等,,,2019-09-03,1,,,,,ニュータイプ,0
1996,9020001012694,登記記録の閉鎖等,0,2022-09-26,2022-09-20,株式会社川島商店,,株式会社,神奈川県,横浜市南区,六ツ川１丁目７０番地,,14,105,2320066,,,2022-09-20,清算の結了等,,,2015-10-05,1,,,,,カワシマショウテン,0
1999,9020001126874,登記記録の閉鎖等,0,2022-09-26,2022-09-14,株式会社アダプティブ,,株式会社,神奈川県,川崎市宮前区,小台１丁目６番地２,,14,136,2160007,,,2022-09-14,清算の結了等,,,2018-06-26,1,,,,,アダプティブ,0
2042,9100002009913,登記記録の閉鎖等,0,2022-09-26,2022-09-20,有限会社雷寿司,,有限会社,長野県,千曲市,上山田温泉２丁目２７番地１,,20,218,3890821,,,2022-09-20,清算の結了等,,,2015-10-05,1,,,,,カミナリズシ,0
2056,9120001193533,登記記録の閉鎖等,0,2022-09-26,2022-09-21,株式会社アイエイトコーポレーション,,株式会社,大阪府,寝屋川市,香里北之町２番４号,,27,215,5720080,,,2022-09-21,清算の結了等,,,2015-10-05,1,,,,,アイエイトコーポレーション,0
2063,9120001234601,登記記録の閉鎖等,0,2022-09-26,2022-09-20,誠凱株式会社,,株式会社,大阪府,大阪市此花区,春日出中１丁目９番１３－３０１号,,27,104,5540022,,,2022-09-20,清算の結了等,,,2021-01-19,1,,,,,セイガイ,0
2082,9122001035673,登記記録の閉鎖等,0,2022-09-26,2022-09-16,株式会社和,,株式会社,大阪府,東大阪市,若江本町１丁目３番１３号,,27,227,5780942,,,2022-09-16,清算の結了等,,,2022-03-16,1,,,,,ナゴミ,0
2104,9180005008401,登記記録の閉鎖等,0,2022-09-26,2022-09-20,医療法人豊広会,,その他の設立登記法人,愛知県,小牧市,応時１丁目１９８番地,,23,219,4850832,,,2022-09-20,清算の結了等,,,2015-10-05,1,,,,,ホウコウカイ,0
2106,9180301011505,登記記録の閉鎖等,0,2022-09-26,2022-09-13,株式会社ミズモトＴＩＳ,,株式会社,愛知県,豊川市,末広通１丁目３番地,,23,207,4420029,,,2022-09-13,清算の結了等,,,2015-10-05,1,,,,,ミズモトティーアイエス,0
2107,9190001004519,登記記録の閉鎖等,0,2022-09-26,2022-09-20,東建興業株式会社,,株式会社,三重県,北牟婁郡紀北町,東長島１１４５番地の５,,24,543,5193204,,,2022-09-20,清算の結了等,,,2015-10-05,1,,,,,トウケンコウギョウ,0
2111,9220003000248,登記記録の閉鎖等,0,2022-09-26,2022-09-20,合名会社長寿園,,合名会社,石川県,金沢市,小橋町９番１号,,17,201,9200844,,,2022-09-20,清算の結了等,,,2015-10-05,1,,,,,チョウジュエン,0
2121,9250002000378,登記記録の閉鎖等,0,2022-09-26,2022-09-20,有限会社岡村会計事務所,,有限会社,山口県,山口市,阿東生雲中２１３番地３,,35,203,7591342,,,2022-09-20,清算の結了等,,,2015-10-05,1,,,,,オカムラカイケイジムショ,0
2127,9280002004681,登記記録の閉鎖等,0,2022-09-26,2022-09-22,有限会社川西屋,,有限会社,島根県,安来市,広瀬町広瀬１２８番地２,,32,206,6920404,,,2022-09-22,清算の結了等,,,2015-10-05,1,,,,,カワニシヤ,0
2129,9290001056970,登記記録の閉鎖等,0,2022-09-26,2022-09-14,株式会社ＳＩＮプロジェクト,,株式会社,福岡県,那珂川市,松木１丁目２０番地,,40,231,8111251,,,2022-09-14,清算の結了等,,,2015-10-05,1,,,,,シンプロジェクト,0
2134,9290801006456,登記記録の閉鎖等,0,2022-09-26,2022-09-20,株式会社ハイ,,株式会社,福岡県,北九州市小倉北区,米町１丁目３番１０号一宮ビル６階,,40,106,8020003,,,2022-09-20,合併による解散等,7290801011846,令和４年９月１７日北九州市若松区高須東四丁目６番８号株式会社ラファアイランド（7290801011846）に合併し解散,2015-10-05,1,,,,,ハイ,0
2160,9390002006254,登記記録の閉鎖等,0,2022-09-26,2022-09-12,株式会社ピーアンドエス,,株式会社,東京都,千代田区,麹町４丁目７番２号Ｄａｉｗａ麹町４丁目ビル３階,,13,101,1020083,,,2022-09-12,清算の結了等,,,2015-10-05,1,,,,,ピーアンドエス,0
2166,9440002007899,登記記録の閉鎖等,0,2022-09-26,2022-09-20,有限会社林自動車整備工場,,有限会社,北海道,北斗市,萩野３１番地,,01,236,0411215,,,2022-09-20,清算の結了等,,,2015-10-05,1,,,,,ハヤシジドウシャセイビコウジョウ,0
