sequenceNumber,corporateNumber,process,correct,updateDate,changeDate,name,nameImageId,kind,prefectureName,cityName,streetNumber,addressImageId,prefectureCode,cityCode,postCode,addressOutside,addressOutsideImageId,closeDate,closeCause,successorCorporateNumber,changeCause,assignmentDate,latest,enName,enPrefectureName,enCityName,enAddressOutside,furigana,hihyoji
6,1010003039397,新規,0,2022-12-22,2022-12-22,Ｋｕｄｕｍａｎｅ　Ｊａｐａｎ合同会社,,合同会社,東京都,中央区,日本橋２丁目１５番５号,,13,102,1030027,,,,,,,2022-12-22,1,,,,,クデュマネジャパン,0
7,1010005035948,新規,0,2022-12-22,2022-12-22,一般社団法人日本物販ビジネス協会,,その他の設立登記法人,東京都,中央区,日本橋２丁目２番３号ＲＩＳＨＥビルＵＣＦ４階,,13,102,1030027,,,,,,,2022-12-22,1,,,,,ニホンブッパンビジネスキョウカイ,0
8,1010005036005,新規,0,2022-12-22,2022-12-22,一般社団法人ａｃｅｒ,,その他の設立登記法人,東京都,中央区,八丁堀４丁目２番１０号ＡＯＪ税理士法人内,,13,102,1040032,,,,,,,2022-12-22,1,,,,,アケル,0
10,1010401171520,新規,0,2022-12-22,2022-12-22,株式会社ＡＲＡＴＡＭ,,株式会社,東京都,港区,新橋１丁目１２番９号,,13,103,1050004,,,,,,,2022-12-22,1,,,,,アラタム,0
16,1010503006822,新規,0,2022-12-22,2022-12-22,合同会社Ｍａｔｃｈｍａｋｅｒ,,合同会社,東京都,台東区,台東４丁目２５－６レガロ新御徒町ステーションパレス１１０３,,13,106,1100016,,,,,,,2022-12-22,1,,,,,マッチメーカー,0
17,1010601062346,新規,0,2022-12-22,2022-12-22,株式会社コネクタス,,株式会社,東京都,江東区,亀戸７丁目４４番２号,,13,108,1360071,,,,,,,2022-12-22,1,,,,,コネクタス,0
24,1010903007858,新規,0,2022-12-22,2022-12-22,ＦＩＰ合同会社,,合同会社,東京都,世田谷区,松原３丁目３８番地１５号トップ明大前第３・３１２号室,,13,112,1560043,,,,,,,2022-12-22,1,,,,,エフアイピー,0
30,1011003015966,新規,0,2022-12-22,2022-12-22,合同会社ｔｅｎｉｒｏ,,合同会社,東京都,渋谷区,円山町１５－８ＭＩＤＩＡＳ渋谷ＷＥＳＴ４０２,,13,113,1500044,,,,,,,2022-12-22,1,,,,,テニロ,0
31,1011005009883,新規,0,2022-12-22,2022-12-22,一般社団法人ｒｏｔｅ・ｂａｓｅ,,その他の設立登記法人,東京都,渋谷区,上原１丁目２８番２号クオーレ・フジ１０１,,13,113,1510064,,,,,,,2022-12-22,1,,,,,,0
38,1011101101271,新規,0,2022-12-22,2022-12-22,株式会社ＲＥＯＯＮＥ,,株式会社,東京都,新宿区,百人町２丁目７番９－６０１号,,13,104,1690073,,,,,,,2022-12-22,1,,,,,レオワン,0
39,1011103012450,新規,0,2022-12-22,2022-12-22,合同会社ＯＷＮＥＸ,,合同会社,東京都,新宿区,西新宿３丁目３－１３西新宿水間ビル６Ｆ,,13,104,1600023,,,,,,,2022-12-22,1,,,,,オウネックス,0
42,1011203003969,新規,0,2022-12-22,2022-12-22,合同会社キーファー,,合同会社,東京都,中野区,若宮２丁目４７－７－５,,13,114,1650033,,,,,,,2022-12-22,1,,,,,キーファー,0
44,1011401024791,新規,0,2022-12-22,2022-12-22,株式会社Ｂｅｌｌ＆Ｔｒｅｅ,,株式会社,東京都,板橋区,蓮根１丁目５番８号メゾンＡＩ２０３号室,,13,119,1740046,,,,,,,2022-12-22,1,,,,,ベルアンドツリー,0
46,1011601026456,新規,0,2022-12-22,2022-12-22,百世佳株式会社,,株式会社,東京都,練馬区,関町北５丁目６番７号関町マンション４０１Ｅ,,13,120,1770051,,,,,,,2022-12-22,1,,,,,ヒャクヨカ,0
50,1011703003329,新規,0,2022-12-22,2022-12-22,セン・ボン合同会社,,合同会社,東京都,江戸川区,南小岩７丁目２２－１６－１Ｆ,,13,123,1330056,,,,,,,2022-12-22,1,,,,,センボン,0
51,1011801041718,新規,0,2022-12-22,2022-12-22,株式会社横島建設,,株式会社,東京都,足立区,北加平町２１番６号,,13,121,1210056,,,,,,,2022-12-22,1,,,,,ヨコシマケンセツ,0
52,1012401039920,新規,0,2022-12-22,2022-12-22,株式会社ＹＯＵＰＬＡＺＡ,,株式会社,東京都,小金井市,梶野町３丁目１３番１６号,,13,210,1840002,,,,,,,2022-12-22,1,,,,,ユープラザ,0
53,1012701017411,新規,0,2022-12-22,2022-12-22,株式会社朝野建設,,株式会社,東京都,東村山市,富士見町３丁目２２番地７６,,13,213,1890024,,,,,,,2022-12-22,1,,,,,アサノケンセツ,0
55,1012805003167,新規,0,2022-12-22,2022-12-22,一般社団法人びっぐままＮＥＯ,,その他の設立登記法人,東京都,日野市,栄町１丁目３１番１号,,13,212,1910001,,,,,,,2022-12-22,1,,,,,ビッグママネオ,0
66,1020001149511,新規,0,2022-12-22,2022-12-22,株式会社脇坂,,株式会社,神奈川県,横浜市青葉区,あざみ野南１丁目１４番地１６ベルクレストあざみ野１０１,,14,117,2250012,,,,,,,2022-12-22,1,,,,,ワキザカ,0
78,1021003012525,新規,0,2022-12-22,2022-12-22,合同会社Ｈｏｋｕｔｏ　Ｙｏｓｈｉｍｉ,,合同会社,神奈川県,大和市,大和東３丁目１２番２１－１０５号,,14,213,2420017,,,,,,,2022-12-22,1,,,,,ホクトヨシミ,0
85,1030001151581,新規,0,2022-12-22,2022-12-22,東源コーポレーション株式会社,,株式会社,埼玉県,蕨市,塚越５丁目１６番１２号１０１,,11,223,3350002,,,,,,,2022-12-22,1,,,,,トウゲンコーポレーション,0
86,1030001151607,新規,0,2022-12-22,2022-12-22,株式会社ＲＥＡＬＳＥＲＶＩＣＥ,,株式会社,埼玉県,狭山市,祇園１８番３５号,,11,215,3501307,,,,,,,2022-12-22,1,,,,,リアルサービス,0
94,1040001067744,新規,0,2022-12-22,2022-12-22,株式会社辻企画,00128797,株式会社,千葉県,柏市,東１丁目３番２０－１０３号,,12,217,2770014,,,,,,,2022-12-22,1,,,,,ツジキカク,0
98,1040001126310,新規,0,2022-12-22,2022-12-22,ＫＥＮＴ　ＨＯＵＳＥ株式会社,,株式会社,千葉県,船橋市,高根台４丁目２３番１９号東海ビル高根台１－Ｃ,,12,204,2740065,,,,,,,2022-12-22,1,,,,,ケントハウス,0
99,1040001126319,新規,0,2022-12-22,2022-12-22,株式会社Ｍ＆Ｙ,,株式会社,千葉県,流山市,南流山４丁目８番地の２,,12,220,2700163,,,,,,,2022-12-22,1,,,,,エムアンドワイ,0
100,1040001126343,新規,0,2022-12-22,2022-12-22,株式会社初芝スポーツ,,株式会社,千葉県,千葉市若葉区,桜木７丁目９番１０号,,12,104,2640028,,,,,,,2022-12-22,1,,,,,ハツシバスポーツ,0
101,1040003021542,新規,0,2022-12-22,2022-12-22,ＳＴＲアユシインターナショナル合同会社,,合同会社,千葉県,山武市,横田５１８番地１,,12,237,2891226,,,,,,,2022-12-22,1,,,,,エスティーアールアユシインターナショナル,0
102,1040003021550,新規,0,2022-12-22,2022-12-22,合同会社碧,,合同会社,千葉県,柏市,緑ケ丘２２番９号,,12,217,2770082,,,,,,,2022-12-22,1,,,,,アオ,0
103,1040005021838,新規,0,2022-12-22,2022-12-22,一般社団法人国際医療福祉共創機構,,その他の設立登記法人,千葉県,浦安市,今川３丁目２番１９－１０１号,,12,227,2790022,,,,,,,2022-12-22,1,,,,,コクサイイリョウフクシキョウソウキコウ,0
110,1080101023701,新規,0,2022-12-22,2022-12-22,株式会社タイニースタンド,,株式会社,静岡県,沼津市,戸田３２１番地の１７,,22,203,4103402,,,,,,,2022-12-22,1,,,,,タイニースタンド,0
114,1080401026206,新規,0,2022-12-22,2022-12-22,株式会社大岡企画,,株式会社,静岡県,磐田市,見付１７２９番地３７,,22,211,4380086,,,,,,,2022-12-22,1,,,,,オオオカキカク,0
125,1120001251273,新規,0,2022-12-22,2022-12-22,株式会社アーク工務店,,株式会社,大阪府,大阪市北区,天神橋４丁目３番１７－１９０３号,,27,127,5300041,,,,,,,2022-12-22,1,,,,,アークコウムテン,0
126,1120001251281,新規,0,2022-12-22,2022-12-22,関西東洋医学本院株式会社,,株式会社,大阪府,大阪市天王寺区,上本町８丁目１番１６－１２０１号,,27,109,5430001,,,,,,,2022-12-22,1,,,,,カンサイトウヨウイガクホンイン,0
127,1120003023101,新規,0,2022-12-22,2022-12-22,合同会社ＨＲＬ,,合同会社,大阪府,大阪市中央区,瓦屋町３丁目３番１－１５０２号,,27,128,5420066,,,,,,,2022-12-22,1,,,,,エイチアールエル,0
132,1130001073337,新規,0,2022-12-22,2022-12-22,株式会社寿塗装,,株式会社,京都府,亀岡市,南つつじケ丘大葉台２丁目４２番１８号,,26,206,6210846,,,,,,,2022-12-22,1,,,,,コトブキトソウ,0
133,1130001073345,新規,0,2022-12-22,2022-12-22,株式会社祇園山岡,,株式会社,京都府,京都市東山区,祇園町南側５７０番地１９５,,26,105,6050074,,,,,,,2022-12-22,1,,,,,ギオンヤマオカ,0
140,1140001128478,新規,0,2022-12-22,2022-12-22,株式会社ランドベース,,株式会社,兵庫県,西宮市,津門綾羽町４番１１号,,28,204,6638244,,,,,,,2022-12-22,1,,,,,ランドベース,0
141,1140001128503,新規,0,2022-12-22,2022-12-22,エイチプラス１４株式会社,,株式会社,兵庫県,芦屋市,大桝町１番１８号,,28,206,6590066,,,,,,,2022-12-22,1,,,,,エイチプラスフォーティーン,0
147,1160001024717,新規,0,2022-12-22,2022-12-22,株式会社Ｎ３,,株式会社,滋賀県,草津市,西大路町９番７－２０１号,,25,206,5250037,,,,,,,2022-12-22,1,,,,,エヌスリー,0
159,1180001154256,新規,0,2022-12-22,2022-12-22,株式会社ＢＡＷＢＡＷ,,株式会社,愛知県,名古屋市西区,新道１丁目１３番２９号,,23,104,4510043,,,,,,,2022-12-22,1,,,,,ボーボー,0
160,1180001154264,新規,0,2022-12-22,2022-12-22,東信株式会社,,株式会社,愛知県,名古屋市北区,楠２丁目５１４番地の３,,23,103,4620012,,,,,,,2022-12-22,1,,,,,トウシン,0
161,1180001154280,新規,0,2022-12-22,2022-12-22,Ｒグローバル株式会社,,株式会社,愛知県,津島市,莪原町字下条免５４番地,,23,208,4960011,,,,,,,2022-12-22,1,,,,,アールグローバル,0
166,1180003024630,新規,0,2022-12-22,2022-12-22,アシスト電空合同会社,,合同会社,愛知県,知多郡南知多町,大字大井字入道１番地の２,,23,445,4703501,,,,,,,2022-12-22,1,,,,,アシストデンクウ,0
168,1180303005545,新規,0,2022-12-22,2022-12-22,和楽美装合同会社,,合同会社,愛知県,岡崎市,北本郷町字野添１６番地４,,23,202,4440944,,,,,,,2022-12-22,1,,,,,ワラビソウ,0
178,1240001060836,新規,0,2022-12-22,2022-12-22,萌フードビジネス株式会社,,株式会社,広島県,広島市安佐北区,倉掛３丁目４７番１号,,34,106,7391743,,,,,,,2022-12-22,1,,,,,モエフードビジネス,0
181,1260003004129,新規,0,2022-12-22,2022-12-22,合同会社ＮＥＸＴ,,合同会社,岡山県,津山市,東一宮８３番地１７,,33,203,7080814,,,,,,,2022-12-22,1,,,,,ネクスト,0
183,1290001047903,新規,0,2022-12-22,2022-12-22,ヒロケン工業株式会社,,株式会社,福岡県,八女市,山内８３８番地,,40,210,8340012,,,,,,,2022-12-22,1,,,,,ヒロケンコウギョウ,0
190,1290001099952,新規,0,2022-12-22,2022-12-22,株式会社ルービックス,,株式会社,福岡県,朝倉市,長渕７２４番地,,40,228,8381314,,,,,,,2022-12-22,1,,,,,ルービックス,0
191,1290001099993,新規,0,2022-12-22,2022-12-22,株式会社ウィード,,株式会社,福岡県,春日市,上白水３丁目２番地,,40,218,8160844,,,,,,,2022-12-22,1,,,,,ウィード,0
192,1290001100001,新規,0,2022-12-22,2022-12-22,株式会社１３ｌｕｅ,,株式会社,福岡県,福岡市西区,拾六町５丁目３番３５－２０１号ヴィアロームつつじヶ丘,,40,135,8190041,,,,,,,2022-12-22,1,,,,,ブルー,0
194,1290003013333,新規,0,2022-12-22,2022-12-22,合同会社Ｒｅｆｉ８４,,合同会社,福岡県,福岡市南区,塩原３丁目２１番５号ラフォーレ大橋３０３号,,40,134,8150032,,,,,,,2022-12-22,1,,,,,レフィハチジュウヨン,0
195,1290801029142,新規,0,2022-12-22,2022-12-22,株式会社ＣＭＯ,,株式会社,福岡県,北九州市小倉北区,京町３丁目１番１号セントシティ北九州１０Ｆ,,40,106,8020002,,,,,,,2022-12-22,1,,,,,シーエムオー,0
196,1290803004291,新規,0,2022-12-22,2022-12-22,合同会社絆,,合同会社,福岡県,行橋市,行事８丁目６番２１号,,40,213,8240001,,,,,,,2022-12-22,1,,,,,キズナ,0
197,1310001018166,新規,0,2022-12-22,2022-12-22,ケイセイファスナー株式会社,,株式会社,長崎県,西彼杵郡時津町,日並郷３７７番地１５,,42,308,8512108,,,,,,,2022-12-22,1,,,,,ケイセイファスナー,0
199,1330001030425,新規,0,2022-12-22,2022-12-22,株式会社ランドロワ,,株式会社,熊本県,熊本市中央区,水前寺４丁目５２番４４号３Ｆ,,43,101,8620950,,,,,,,2022-12-22,1,,,,,ランドロワ,0
200,1340001025242,新規,0,2022-12-22,2022-12-22,株式会社りむ,,株式会社,鹿児島県,鹿屋市,新生町１番２２号,,46,203,8930062,,,,,,,2022-12-22,1,,,,,リム,0
201,1340005009539,新規,0,2022-12-22,2022-12-22,鹿児島労働者協同組合,,その他の設立登記法人,鹿児島県,鹿児島市,上谷口町２８５４番地３２有村ビル１０１号,,46,201,8992703,,,,,,,2022-12-22,1,,,,,カゴシマ,0
210,1360001031354,新規,0,2022-12-22,2022-12-22,株式会社三工業,,株式会社,沖縄県,浦添市,宮城４丁目１２番１２－４０２号コーポブルースカイ,,47,208,9012126,,,,,,,2022-12-22,1,,,,,サンコウギョウ,0
211,1360003012583,新規,0,2022-12-22,2022-12-22,バニラ・エンジニアリング合同会社,,合同会社,沖縄県,豊見城市,字豊崎１－１０６９,,47,212,9010225,,,,,,,2022-12-22,1,,,,,バニラエンジニアリング,0
212,1370005010584,新規,0,2022-12-22,2022-12-22,弁護士法人三島法律事務所,,その他の設立登記法人,宮城県,仙台市青葉区,一番町２丁目３番２２号仙台ビルディング５階,,04,101,9800811,,,,,,,2022-12-22,1,,,,,ミシマホウリツジムショ,0
225,1400003003009,新規,0,2022-12-22,2022-12-22,Ｖｉｓｉｏｎ合同会社,,合同会社,岩手県,盛岡市,肴町１１番２５号ジェネラスマンション肴町２番館１００１,,03,201,0200878,,,,,,,2022-12-22,1,,,,,ビジョン,0
228,1410001013347,新規,0,2022-12-22,2022-12-22,株式会社えん,,株式会社,秋田県,湯沢市,杉沢字戸石崎３７番地３,,05,207,0120804,,,,,,,2022-12-22,1,,,,,エン,0
248,2010001231789,新規,0,2022-12-22,2022-12-22,株式会社Ｂｅｌｉｅｒ,,株式会社,東京都,千代田区,麹町４丁目７番地パークハウス麹町プレイス７０２号,,13,101,1020083,,,,,,,2022-12-22,1,,,,,ベリエ,0
254,2010003039405,新規,0,2022-12-22,2022-12-22,合同会社Ｇｒａｃｅｆｅｅｌ,,合同会社,東京都,中央区,銀座１丁目２２番１１号銀座大竹ビジデンス２階,,13,102,1040061,,,,,,,2022-12-22,1,,,,,グレースフィール,0
266,2010701043641,新規,0,2022-12-22,2022-12-22,株式会社プラネット・スタジオ,,株式会社,東京都,品川区,東五反田１丁目２５番４号ＡＭビル１Ｆ,,13,109,1410022,,,,,,,2022-12-22,1,,,,,プラネットスタジオ,0
267,2010703006514,新規,0,2022-12-22,2022-12-22,合同会社ニフェデビル,,合同会社,東京都,品川区,南品川１丁目９番８号ＦａｍｉｌｉａｒＧａｒｄｅｎＩＩ３０２,00128873,13,109,1400004,,,,,,,2022-12-22,1,,,,,ニフェデビル,0
275,2011001151606,新規,0,2022-12-22,2022-12-22,株式会社ＦＹＧ,,株式会社,東京都,渋谷区,元代々木町５４－１東京セントラル代々木３階,,13,113,1510062,,,,,,,2022-12-22,1,,,,,エフワイジー,0
276,2011001151622,新規,0,2022-12-22,2022-12-22,株式会社ｃａｌｍｌｙ,,株式会社,東京都,渋谷区,恵比寿南２丁目１５番５号,,13,113,1500022,,,,,,,2022-12-22,1,,,,,カームリー,0
277,2011001151630,新規,0,2022-12-22,2022-12-22,株式会社フューチャーアイデンティティ,,株式会社,東京都,渋谷区,代官山町８番７号ＤＡＩＷＡ代官山ビル３階,,13,113,1500034,,,,,,,2022-12-22,1,,,,,フューチャーアイデンティティ,0
284,2011103012508,新規,0,2022-12-22,2022-12-22,ｆｙｉｎａ合同会社,,合同会社,東京都,新宿区,新宿４丁目１番６号ＪＲ新宿ミライナタワー１８階,,13,104,1600022,,,,,,,2022-12-22,1,,,,,フィイナ,0
285,2011103012516,新規,0,2022-12-22,2022-12-22,ｅｘｉｔｏ合同会社,,合同会社,東京都,新宿区,百人町２丁目１１番８号レクエルド２０３,,13,104,1690073,,,,,,,2022-12-22,1,,,,,エクシト,0
286,2011203003968,新規,0,2022-12-22,2022-12-22,合同会社ｔｏｎ１８０,,合同会社,東京都,中野区,東中野５丁目８－３,,13,114,1640003,,,,,,,2022-12-22,1,,,,,トンエイティ,0
287,2011301028339,新規,0,2022-12-22,2022-12-22,株式会社スギモリ,,株式会社,東京都,杉並区,宮前４丁目３１番１号,,13,115,1680081,,,,,,,2022-12-22,1,,,,,スギモリ,0
288,2011401024790,新規,0,2022-12-22,2022-12-22,株式会社三栄化学消毒,,株式会社,東京都,板橋区,大和町４４番６－１０３号,,13,119,1730012,,,,,,,2022-12-22,1,,,,,サンエイカガクショウドク,0
297,2012701017410,新規,0,2022-12-22,2022-12-22,株式会社シマプロ＆Ｋ．,,株式会社,東京都,西東京市,柳沢２丁目１０番２４－４１１号,,13,229,2020022,,,,,,,2022-12-22,1,,,,,シマプロアンドケイ,0
307,2020001149510,新規,0,2022-12-22,2022-12-22,株式会社明海電設,,株式会社,神奈川県,横浜市緑区,鴨居町２６２７番地１０,,14,113,2260004,,,,,,,2022-12-22,1,,,,,メイカイデンセツ,0
308,2020002017831,新規,0,2022-12-22,2022-12-22,有限会社和幸内装,,有限会社,神奈川県,横浜市西区,久保町２２番地１号,,14,103,2200061,,,,,,,2022-12-22,1,,,,,,0
311,2020003022946,新規,0,2022-12-22,2022-12-22,合同会社Ｅ‐Ｐｌａｎｎｉｎｇ,,合同会社,神奈川県,横浜市港南区,港南台７丁目１５番２７号レヂデンス港南台１０７,,14,111,2340054,,,,,,,2022-12-22,1,,,,,イープランニング,0
316,2021001077775,新規,0,2022-12-22,2022-12-22,ｇｒａｃｅ．セレクトショップ株式会社,,株式会社,神奈川県,三浦郡葉山町,下山口５６８番地の４,,14,301,2400116,,,,,,,2022-12-22,1,,,,,グレイスセレクトショップ,0
323,2021005012704,新規,0,2022-12-22,2022-12-22,社会保険労務士法人エニシアＦＰ,,その他の設立登記法人,神奈川県,茅ヶ崎市,高田４丁目４番４０号湘南スカイハイム２０２号,,14,207,2530002,,,,,,,2022-12-22,1,,,,,,0
338,2040001126334,新規,0,2022-12-22,2022-12-22,リフォーメント株式会社,,株式会社,千葉県,八千代市,大和田新田６４９番地２１,,12,221,2760046,,,,,,,2022-12-22,1,,,,,リフォーメント,0
341,2040003021541,新規,0,2022-12-22,2022-12-22,合同会社リングソリューションズ,,合同会社,千葉県,旭市,ニの１８８３番地ラベンダーヒルズＩＶ２０１,00128870,12,215,2892504,,,,,,,2022-12-22,1,,,,,リングソリューションズ,0
350,2050001052125,新規,0,2022-12-22,2022-12-22,ダイバーステート株式会社,,株式会社,茨城県,日立市,台原町２丁目７番８号,,08,202,3160021,,,,,,,2022-12-22,1,,,,,ダイバーステート,0
353,2060003004354,新規,0,2022-12-22,2022-12-22,合同会社益子発酵舎,,合同会社,栃木県,芳賀郡益子町,大字益子４１３３－３,,09,342,3214217,,,,,,,2022-12-22,1,,,,,マシコハッコウシャ,0
370,2120001251289,新規,0,2022-12-22,2022-12-22,株式会社ツーダブル,,株式会社,大阪府,大阪市中央区,難波４丁目１番地１５号近鉄難波ビル２１５号室,,27,128,5420076,,,,,,,2022-12-22,1,,,,,ツーダブル,0
371,2120001251297,新規,0,2022-12-22,2022-12-22,ホテルズマネジメント株式会社,,株式会社,大阪府,大阪市中央区,日本橋１丁目５番２２号,,27,128,5420073,,,,,,,2022-12-22,1,,,,,ホテルズマネジメント,0
373,2120003023125,新規,0,2022-12-22,2022-12-22,Ｕｎｉｄｅｅ合同会社,,合同会社,大阪府,大阪市淀川区,宮原１丁目１９番２３号ステュディオ新御堂２１３号室,,27,123,5320003,,,,,,,2022-12-22,1,,,,,ユニディー,0
375,2120103004990,新規,0,2022-12-22,2022-12-22,合同会社はと不動産,,合同会社,大阪府,岸和田市,下松町２丁目１９番１３－１０７号,,27,202,5960823,,,,,,,2022-12-22,1,,,,,ハトフドウサン,0
378,2120901046895,新規,0,2022-12-22,2022-12-22,株式会社Ｂｅｔｔｅｒ　Ｆｕｔｕｒｅ,,株式会社,大阪府,吹田市,豊津町１８番１３号,,27,205,5640051,,,,,,,2022-12-22,1,,,,,ベターフューチャー,0
381,2130001073336,新規,0,2022-12-22,2022-12-22,株式会社ｃｈｉｐｐｅｒ,,株式会社,京都府,長岡京市,長岡１丁目１０－１１ヴィーヴル長岡京１０９,,26,209,6170823,,,,,,,2022-12-22,1,,,,,チッパー,0
382,2130001073344,新規,0,2022-12-22,2022-12-22,株式会社洛南電研,,株式会社,京都府,城陽市,寺田垣内後７５番地の８,,26,207,6100121,,,,,,,2022-12-22,1,,,,,ラクナンデンケン,0
386,2140001128502,新規,0,2022-12-22,2022-12-22,エイチプラス１３株式会社,,株式会社,兵庫県,芦屋市,大桝町１番１８号,,28,206,6590066,,,,,,,2022-12-22,1,,,,,エイチプラスサーティーン,0
387,2140001128510,新規,0,2022-12-22,2022-12-22,株式会社Ｅ‐ＷＡＶＥ,,株式会社,兵庫県,尼崎市,武庫之荘１丁目９番６－２０９号,,28,202,6610035,,,,,,,2022-12-22,1,,,,,イーウェイブ,0
393,2170003001811,新規,0,2022-12-22,2022-12-22,合同会社ＲＯＣＫ,,合同会社,和歌山県,和歌山市,善明寺３０５－２０５,,30,201,6408471,,,,,,,2022-12-22,1,,,,,ロック,0
401,2180001154255,新規,0,2022-12-22,2022-12-22,ＹＡＭＡＳＯＵ株式会社,,株式会社,愛知県,名古屋市北区,上飯田北町１丁目１８番地の１,,23,103,4620802,,,,,,,2022-12-22,1,,,,,ヤマソウ,0
418,2230001019642,新規,0,2022-12-22,2022-12-22,水林商事株式会社,,株式会社,富山県,富山市,向新庄町５丁目９１６－１,,16,201,9300916,,,,,,,2022-12-22,1,,,,,ミズバヤシショウジ,0
424,2240001060810,新規,0,2022-12-22,2022-12-22,株式会社ＳＡＬ,,株式会社,広島県,広島市安佐北区,落合南１丁目２番１９－２０２号,,34,106,7391732,,,,,,,2022-12-22,1,,,,,サル,0
425,2240001060819,新規,0,2022-12-22,2022-12-22,株式会社ライフワーク,,株式会社,広島県,広島市安芸区,中野６丁目３０番１３－８号,,34,107,7390321,,,,,,,2022-12-22,1,,,,,ライフワーク,0
433,2290001100000,新規,0,2022-12-22,2022-12-22,株式会社Ｅｔｅｒｎａ　Ｄｉｏｓ,,株式会社,福岡県,福岡市東区,和白６丁目２１番１７号,,40,131,8110202,,,,,,,2022-12-22,1,,,,,エテルナディオス,0
434,2290003013340,新規,0,2022-12-22,2022-12-22,合同会社いろとりどり,,合同会社,福岡県,飯塚市,鯰田１５２６番地２１７,,40,205,8200001,,,,,,,2022-12-22,1,,,,,イロトリドリ,0
443,2360003012574,新規,0,2022-12-22,2022-12-22,合同会社松崎設備工業,,合同会社,沖縄県,うるま市,石川伊波９１３番地９,,47,213,9041115,,,,,,,2022-12-22,1,,,,,マツザキセツビコウギョウ,0
461,2700150113470,新規,0,2022-12-22,2022-12-22,ｇｕａｎｇｄｏｎｇｚｈｏｎｇｃｈｅｎｇｔｉａｎｇｅｋｅｊｉｆａｚｈａｎｙｏｕｘｉａｎｇｏｎｇｓｉ,,外国会社等,,,,,,,,ｇｕａｎｇ　ｄｏｎｇ　ｓｈｅｎｇ　ｊｉａｎｇ　ｍｅｎ　ｓｈｉ　ｔａｉ　ｓｈａｎ　ｓｈｉ　ｔａｉ　ｃｈｅｎｇ　ｂｅｉ　ｋｅｎｇ　ｓｈｅ　ｑｕ　ｙｏｎｇ　ａｎ　ｃｕｎ　１　ｈａｏ,,,,,,2022-12-22,1,,,,,カントウシュウセイテンカケイジハッテンユウシィアンゴンスー,0
487,3010401171345,新規,0,2022-12-22,2022-12-22,ピーエスケーホールディングス株式会社,,株式会社,東京都,港区,白金１丁目２７番６号,,13,103,1080072,,,,,,,2022-12-22,1,,,,,ピーエスケーホールディングス,0
488,3010401171469,新規,0,2022-12-22,2022-12-22,Ａｌｐｈａ　Ｓｔｏｎｅ株式会社,,株式会社,東京都,港区,高輪１丁目４番１０号,,13,103,1080074,,,,,,,2022-12-22,1,,,,,アルファストーン,0
490,3010403029203,新規,0,2022-12-22,2022-12-22,合同会社Ｏ３‐ＷＯＲＫＳ,,合同会社,東京都,港区,南青山３丁目１番３６号青山丸竹ビル６Ｆ,,13,103,1070062,,,,,,,2022-12-22,1,,,,,オースリーワークス,0
498,3010603009913,新規,0,2022-12-22,2022-12-22,合同会社エバーグリーン,,合同会社,東京都,江東区,東砂７丁目１８番４－３０６号,,13,108,1360074,,,,,,,2022-12-22,1,,,,,エバーグリーン,0
500,3010701043640,新規,0,2022-12-22,2022-12-22,株式会社ＧＬＡＮＦＯＲＣＥ,,株式会社,東京都,品川区,中延２丁目８番７－１００２号レジデンシャル品川中延グランクラス,,13,109,1420053,,,,,,,2022-12-22,1,,,,,グランフォース,0
501,3010703006513,新規,0,2022-12-22,2022-12-22,エム・ケー東京レント合同会社,,合同会社,東京都,品川区,中延３丁目７番１４号,,13,109,1420053,,,,,,,2022-12-22,1,,,,,エムケートウキョウレント,0
505,3010901052193,新規,0,2022-12-22,2022-12-22,株式会社ａｍｉｔｙ,,株式会社,東京都,世田谷区,松原２丁目１番９号ミモザプディカ１０１,,13,112,1560043,,,,,,,2022-12-22,1,,,,,アミティ,0
506,3010905004406,新規,0,2022-12-22,2022-12-22,一般社団法人いきいきライフ協会たまがわ,,その他の設立登記法人,東京都,世田谷区,用賀２丁目３８－１６キャッテリー２階,,13,112,1580097,,,,,,,2022-12-22,1,,,,,イキイキライフキョウカイタマガワ,0
511,3011001151621,新規,0,2022-12-22,2022-12-22,株式会社ＢＲＡＮＤＯ,,株式会社,東京都,渋谷区,神宮前６丁目２３番４号桑野ビル２階,,13,113,1500001,,,,,,,2022-12-22,1,,,,,ブランドー,0
512,3011003015948,新規,0,2022-12-22,2022-12-22,外目黒商会合同会社,,合同会社,東京都,目黒区,青葉台４丁目６番１７号松見坂マンション６０８,,13,110,1530042,,,,,,,2022-12-22,1,,,,,ソトメグロショウカイ,0
513,3011003015964,新規,0,2022-12-22,2022-12-22,合同会社Ｄａｎ＆Ｃｏｍｐａｎｙ,,合同会社,東京都,目黒区,上目黒２丁目３４番１１号,,13,110,1530051,,,,,,,2022-12-22,1,,,,,ダンアンドカンパニー,0
521,3011103012449,新規,0,2022-12-22,2022-12-22,ＺａＫａ　Ｊａｐａｎ合同会社,,合同会社,東京都,新宿区,原町３丁目５９番地,,13,104,1620053,,,,,,,2022-12-22,1,,,,,ザカジャパン,0
522,3011301028313,新規,0,2022-12-22,2022-12-22,株式会社ａｂｕ　Ｌａｂｏ,,株式会社,東京都,杉並区,和田３丁目４９番８号,,13,115,1660012,,,,,,,2022-12-22,1,,,,,,0
526,3011601026454,新規,0,2022-12-22,2022-12-22,精益株式会社,,株式会社,東京都,練馬区,関町北５丁目６番７号関町マンション４０１Ａ,,13,120,1770051,,,,,,,2022-12-22,1,,,,,セイヤク,0
534,3013301050073,新規,0,2022-12-22,2022-12-22,株式会社ニーズマッチ,,株式会社,東京都,豊島区,長崎１丁目１７番１５号,,13,116,1710051,,,,,,,2022-12-22,1,,,,,ニーズマッチ,0
555,3021001077774,新規,0,2022-12-22,2022-12-22,株式会社サンフィールド,,株式会社,神奈川県,横須賀市,阿部倉３０番２０号,,14,201,2380033,,,,,,,2022-12-22,1,,,,,サンフィールド,0
556,3021005012703,新規,0,2022-12-22,2022-12-22,一般社団法人ＣＯＵＮＣＩＬ　ＦＯＲ　ＩＭＰＲＯＶＥＭＥＮＴ　ＯＦ　ＦＯＲＥＩＧＮＥＲ　ＡＮＤ　ＦＡＭＩＬＹ　ＩＳＳＵＥＳ,,その他の設立登記法人,神奈川県,座間市,相模が丘６丁目２１番３４－２０１号鈴木ビル,,14,216,2520001,,,,,,,2022-12-22,1,,,,,カウンセルフォーインプルーブメントオブフォーリナーアンドファミリーイシュー,0
575,3040001126309,新規,0,2022-12-22,2022-12-22,株式会社ヤマカサービス,,株式会社,千葉県,船橋市,西船４丁目２８番１２号,,12,204,2730031,,,,,,,2022-12-22,1,,,,,ヤマカサービス,0
576,3040001126333,新規,0,2022-12-22,2022-12-22,株式会社アンファンミニョン,,株式会社,千葉県,柏市,塚崎１丁目１番地コスモ柏東４０６号,,12,217,2770923,,,,,,,2022-12-22,1,,,,,アンファンミニョン,0
577,3040001126341,新規,0,2022-12-22,2022-12-22,株式会社結翔,,株式会社,千葉県,野田市,中根１８０番地１１・２Ｆ,,12,208,2780031,,,,,,,2022-12-22,1,,,,,ユウショウ,0
582,3040003021540,新規,0,2022-12-22,2022-12-22,合同会社ｋｕｌｕｍｉ　ｃｏｎｓｕｌｔｉｎｇ,,合同会社,千葉県,千葉市稲毛区,小中台町５４７番地３，ヴィユルド・フォール４０１号,,12,103,2630044,,,,,,,2022-12-22,1,,,,,クルミコンサルティング,0
583,3040003021549,新規,0,2022-12-22,2022-12-22,ＯＫＩ　ＭＯＴＯＲＳ合同会社,,合同会社,千葉県,八街市,用草１７４番地２、２階２０１号室,,12,230,2891138,,,,,,,2022-12-22,1,,,,,オキモータース,0
587,3050001052132,新規,0,2022-12-22,2022-12-22,株式会社ＲＯＵＧＨ　ＡＮＤ　ＴＯＵＧＨ,,株式会社,茨城県,常総市,豊田３２７５番地,,08,211,3002705,,,,,,,2022-12-22,1,,,,,ラフアンドタフ,0
589,3050005013188,新規,0,2022-12-22,2022-12-22,社会福祉法人グロウ会,,その他の設立登記法人,茨城県,神栖市,日川１８９５番地１,,08,232,3140114,,,,,,,2022-12-22,1,,,,,グロウカイ,0
594,3080005007501,新規,0,2022-12-22,2022-12-22,特定非営利活動法人静岡盲ろう者友の会,,その他の設立登記法人,静岡県,静岡市葵区,一番町５０番地,,22,101,4200071,,,,,,,2022-12-22,1,,,,,シズオカモウロウシャトモノカイ,0
596,3080101023699,新規,0,2022-12-22,2022-12-22,株式会社天栄,,株式会社,静岡県,駿東郡長泉町,元長窪７４５番地の１,,22,342,4110936,,,,,,,2022-12-22,1,,,,,テンエイ,0
599,3100005012952,新規,0,2022-12-22,2022-12-22,一般社団法人日本開運道開き士普及協会,,その他の設立登記法人,長野県,長野市,大字稲葉２０８６番地４,,20,201,3800911,,,,,,,2022-12-22,1,,,,,ニホンカイウンミチヒラキシフキュウキョウカイ,0
607,3120001251239,新規,0,2022-12-22,2022-12-22,源通株式会社,,株式会社,大阪府,大阪市中央区,安堂寺町２丁目７番２－２０７号,,27,128,5420061,,,,,,,2022-12-22,1,,,,,ゲンツウ,0
608,3120001251296,新規,0,2022-12-22,2022-12-22,株式会社ジェム,,株式会社,大阪府,大阪市中央区,内久宝寺町４丁目１番７－２００７号,,27,128,5400013,,,,,,,2022-12-22,1,,,,,ジェム,0
613,3120101066719,新規,0,2022-12-22,2022-12-22,株式会社サン,,株式会社,大阪府,堺市西区,浜寺元町６丁８２４番地パルク浜寺２０３号,,27,144,5928343,,,,,,,2022-12-22,1,,,,,サン,0
616,3120901046903,新規,0,2022-12-22,2022-12-22,エスワイビューティー株式会社,,株式会社,大阪府,池田市,槻木町１－６ＯＮＬＹＯＮＥ池田１階,,27,204,5630057,,,,,,,2022-12-22,1,,,,,エスワイビューティー,0
620,3130001073343,新規,0,2022-12-22,2022-12-22,株式会社楓,,株式会社,京都府,船井郡京丹波町,市森垣根１０番地１,,26,407,6220212,,,,,,,2022-12-22,1,,,,,カエデ,0
621,3130003008396,新規,0,2022-12-22,2022-12-22,合同会社キヨツカ編集事務所,,合同会社,京都府,京都市左京区,修学院宮ノ脇町２０番地４,,26,103,6068061,,,,,,,2022-12-22,1,,,,,キヨツカヘンシュウジムショ,0
628,3140001128501,新規,0,2022-12-22,2022-12-22,エイチプラス１２株式会社,,株式会社,兵庫県,芦屋市,大桝町１番１８号,,28,206,6590066,,,,,,,2022-12-22,1,,,,,エイチプラストウェルブ,0
631,3140003018485,新規,0,2022-12-22,2022-12-22,合同会社すみ丸,,合同会社,兵庫県,宝塚市,雲雀丘山手２丁目２番２０号,,28,214,6650804,,,,,,,2022-12-22,1,,,,,スミマル,0
634,3150001013834,新規,0,2022-12-22,2022-12-22,株式会社加藤工務店,,株式会社,奈良県,御所市,大字楢原１１６８番地,,29,208,6392313,,,,,,,2022-12-22,1,,,,,カトウコウムテン,0
638,3170003001810,新規,0,2022-12-22,2022-12-22,合同会社ＦＯＯＣＵＳ,,合同会社,和歌山県,和歌山市,楠見中２５０－３,,30,201,6408463,,,,,,,2022-12-22,1,,,,,フーカス,0
642,3180001154246,新規,0,2022-12-22,2022-12-22,株式会社ＬＩＢＥＲＴＹ　ＴＥＣＨ,,株式会社,愛知県,清須市,西枇杷島町城並３丁目６番地３メゾンジュイエ１０２,,23,233,4520011,,,,,,,2022-12-22,1,,,,,リバティーテック,0
643,3180001154287,新規,0,2022-12-22,2022-12-22,株式会社ＡＰＵ,,株式会社,愛知県,春日井市,東野新町１丁目６番地２６,,23,206,4860816,,,,,,,2022-12-22,1,,,,,アプ,0
647,3180003024629,新規,0,2022-12-22,2022-12-22,合同会社ｒａｙ　ｆａｒｍ,,合同会社,愛知県,名古屋市南区,豊２丁目２３番８号,,23,112,4570863,,,,,,,2022-12-22,1,,,,,レイファーム,0
652,3180305009427,新規,0,2022-12-22,2022-12-22,一般社団法人ＡＩ打音チェッカー工業会,,その他の設立登記法人,愛知県,豊橋市,前畑町８１番地の２,,23,201,4400055,,,,,,,2022-12-22,1,,,,,エーアイダオンチェッカーコウギョウカイ,0
685,3290003013323,新規,0,2022-12-22,2022-12-22,合同会社Ｃａｐ．Ｎｅｍｏ,,合同会社,福岡県,福岡市博多区,板付４丁目７番１－９０６号,,40,132,8120888,,,,,,,2022-12-22,1,,,,,キャプテンネモ,0
694,3330003009639,新規,0,2022-12-22,2022-12-22,ｍ．ｓａｙｓ合同会社,,合同会社,熊本県,熊本市西区,稗田町４－６１,,43,103,8600075,,,,,,,2022-12-22,1,,,,,エムセイズ,0
696,3360001031352,新規,0,2022-12-22,2022-12-22,イコールパートナー株式会社,,株式会社,沖縄県,那覇市,久茂地３丁目２－５,,47,201,9000015,,,,,,,2022-12-22,1,,,,,イコールパートナー,0
705,3390003002027,新規,0,2022-12-22,2022-12-22,合同会社和,,合同会社,山形県,東根市,本丸南１丁目７－１,,06,211,9993783,,,,,,,2022-12-22,1,,,,,ワ,0
731,3500001024671,新規,0,2022-12-22,2022-12-22,株式会社ライフスタイルプランニング,,株式会社,愛媛県,新居浜市,宮原町９番４号,,38,205,7920833,,,,,,,2022-12-22,1,,,,,ライフスタイルプランニング,0
733,3700150113461,新規,0,2022-12-22,2022-12-22,Ｈａｗａｉ　Ｌａｎｋａ　Ｅｎｔｅｒｐｒｉｓｅｓ,,外国会社等,神奈川県,厚木市,妻田東３丁目２３番３号,,14,212,2430813,スリランカ民主社会主義共和国、アクラナ、ブルゴハテネ、Ｎｏ．６９／１,,,,,,2022-12-22,1,,,,,ハワイランカエンタープライセス,0
737,4010001231754,新規,0,2022-12-22,2022-12-22,Ｐａｒｔｎｅｒ　Ｖａｌｕｅ　Ｃｏｎｓｕｌｔｉｎｇ株式会社,,株式会社,東京都,中央区,新川１丁目１０番１４－２０２号,,13,102,1040033,,,,,,,2022-12-22,1,,,,,パートナーバリューコンサルティング,0
738,4010001231787,新規,0,2022-12-22,2022-12-22,ａｓｔｅｒｉｓｋ株式会社,,株式会社,東京都,千代田区,三番町３０番地４,,13,101,1020075,,,,,,,2022-12-22,1,,,,,アスタリスク,0
742,4010003039097,新規,0,2022-12-22,2022-12-22,シアライヴ・ジャパン合同会社,,合同会社,東京都,中央区,銀座１丁目２２－１１銀座大竹ビジデンス２Ｆ,,13,102,1040061,,,,,,,2022-12-22,1,,,,,シアライヴジャパン,0
749,4010401171492,新規,0,2022-12-22,2022-12-22,株式会社アドイーエックス,,株式会社,東京都,港区,台場１丁目３番２－１９０５号,,13,103,1350091,,,,,,,2022-12-22,1,,,,,アドイーエックス,0
757,4010603009912,新規,0,2022-12-22,2022-12-22,合同会社シーボニア,,合同会社,東京都,江東区,白河４丁目３番１－１６０６号,,13,108,1350021,,,,,,,2022-12-22,1,,,,,シーボニア,0
759,4010801033532,新規,0,2022-12-22,2022-12-22,株式会社Ｆａｒｕ,,株式会社,東京都,大田区,大森北６丁目１９－１６,,13,111,1430016,,,,,,,2022-12-22,1,,,,,ファル,0
760,4010801033540,新規,0,2022-12-22,2022-12-22,株式会社ボンドトランスポート,,株式会社,東京都,大田区,田園調布５丁目４７番２号,,13,111,1450071,,,,,,,2022-12-22,1,,,,,ボンドトランスポート,0
761,4010803004399,新規,0,2022-12-22,2022-12-22,合同会社ＭＳ,,合同会社,東京都,大田区,西馬込１丁目６番７号,,13,111,1430026,,,,,,,2022-12-22,1,,,,,エムエス,0
768,4011003015963,新規,0,2022-12-22,2022-12-22,ＭＥＴＡＩＰＰＯ合同会社,,合同会社,東京都,渋谷区,代々木３丁目１番１１号パシフィックスクエア代々木４Ｆ,,13,113,1510053,,,,,,,2022-12-22,1,,,,,メタイッポ,0
781,4011103012522,新規,0,2022-12-22,2022-12-22,合同会社Ｂｅｌｌ　Ｔｈｅ　Ｃａｔ,,合同会社,東京都,新宿区,西新宿３丁目３番１３号西新宿水間ビル２Ｆ,,13,104,1600023,,,,,,,2022-12-22,1,,,,,ベルザキャット,0
792,4012401039991,新規,0,2022-12-22,2022-12-22,株式会社菊地機材,,株式会社,東京都,三鷹市,井口４丁目２１番２１号,,13,204,1810011,,,,,,,2022-12-22,1,,,,,キクチキザイ,0
795,4012701017409,新規,0,2022-12-22,2022-12-22,株式会社イベント王国,,株式会社,東京都,西東京市,谷戸町１丁目２７番８号,,13,229,1880001,,,,,,,2022-12-22,1,,,,,イベントオウコク,0
796,4012703002607,新規,0,2022-12-22,2022-12-22,ビーコニア合同会社,,合同会社,東京都,東久留米市,八幡町３丁目１４番１５号,,13,222,2030042,,,,,,,2022-12-22,1,,,,,ビーコニア,0
808,4021001077765,新規,0,2022-12-22,2022-12-22,ｉＰｉ設立準備株式会社,,株式会社,神奈川県,藤沢市,村岡東２丁目２６番地１,,14,205,2510012,,,,,,,2022-12-22,1,,,,,アイピーアイセツリツジュンビ,0
824,4030003020807,新規,0,2022-12-22,2022-12-22,合同会社ＭＩＲＨＡ　ＴＲＡＤＩＮＧ,,合同会社,埼玉県,熊谷市,桜木町１丁目１４８番地コーエービル３階３０３号室,,11,202,3600036,,,,,,,2022-12-22,1,,,,,ミルハトレーディング,0
832,4040001126183,新規,0,2022-12-22,2022-12-22,翔福株式会社,,株式会社,千葉県,船橋市,藤原２丁目１３番１８号ふじよし１０１号,,12,204,2730047,,,,,,,2022-12-22,1,,,,,ショウフク,0
833,4040001126299,新規,0,2022-12-22,2022-12-22,株式会社Ｏ’ｓ　ｆａｒｍ,,株式会社,千葉県,旭市,鎌数２３６番地,,12,215,2892505,,,,,,,2022-12-22,1,,,,,オオズファーム,0
834,4040001126340,新規,0,2022-12-22,2022-12-22,株式会社ＳＣＯＲＰＩＯＮ,,株式会社,千葉県,船橋市,行田１丁目６番７－３０５号,,12,204,2730044,,,,,,,2022-12-22,1,,,,,スコーピオン,0
835,4040003021548,新規,0,2022-12-22,2022-12-22,Ｓ．Ｔ　ＢＲＯＴＨＥＲＳ合同会社,,合同会社,千葉県,山武市,埴谷４１１番地２,,12,237,2891223,,,,,,,2022-12-22,1,,,,,エスティーブラザーズ,0
841,4050003007100,新規,0,2022-12-22,2022-12-22,合同会社Ａｎｄ　Ｌａ,,合同会社,茨城県,つくば市,二の宮１丁目２４番地４６,,08,220,3050051,,,,,,,2022-12-22,1,,,,,アンドエルエー,0
846,4070003004764,新規,0,2022-12-22,2022-12-22,結び葉合同会社,,合同会社,群馬県,安中市,東上秋間１０２０－２,,10,211,3790102,,,,,,,2022-12-22,1,,,,,ムスビバ,0
851,4080401026211,新規,0,2022-12-22,2022-12-22,株式会社六人春,,株式会社,静岡県,浜松市中区,幸２丁目４５番３号,,22,131,4338123,,,,,,,2022-12-22,1,,,,,ロクニンシュン,0
852,4100001035989,新規,0,2022-12-22,2022-12-22,株式会社栄和,,株式会社,長野県,長野市,松岡１丁目２４番１８号,,20,201,3810026,,,,,,,2022-12-22,1,,,,,エイワ,0
865,4120001250982,新規,0,2022-12-22,2022-12-22,株式会社安信,,株式会社,大阪府,大阪市中央区,難波１丁目６番１９号６Ｆ,,27,128,5420076,,,,,,,2022-12-22,1,,,,,アンシン,0
866,4120001251196,新規,0,2022-12-22,2022-12-22,株式会社鵬翼,,株式会社,大阪府,大阪市福島区,福島８丁目１６番１５号ロイヤルプラザ福島３０４号,,27,103,5530003,,,,,,,2022-12-22,1,,,,,ホウヨク,0
867,4120001251213,新規,0,2022-12-22,2022-12-22,東方日通株式会社,,株式会社,大阪府,大阪市西成区,聖天下２丁目１１－１９－１階,,27,122,5570012,,,,,,,2022-12-22,1,,,,,トウホウニッツウ,0
878,4130001073334,新規,0,2022-12-22,2022-12-22,大観株式会社,,株式会社,京都府,京都市中京区,西ノ京右馬寮町８番地１９,,26,104,6048492,,,,,,,2022-12-22,1,,,,,ダイカン,0
879,4130001073342,新規,0,2022-12-22,2022-12-22,株式会社太耀セキュリティ,,株式会社,京都府,京都市下京区,西七条北月読町７５番地２８,,26,106,6008886,,,,,,,2022-12-22,1,,,,,タイヨウセキュリティ,0
883,4140001128500,新規,0,2022-12-22,2022-12-22,エイチプラス１１株式会社,,株式会社,兵庫県,芦屋市,大桝町１番１８号,,28,206,6590066,,,,,,,2022-12-22,1,,,,,エイチプラスイレブン,0
886,4140003018369,新規,0,2022-12-22,2022-12-22,ＹＭＳ　Ｆａｍｉｌｙ合同会社,,合同会社,兵庫県,川西市,萩原台西２丁目１２,,28,217,6660006,,,,,,,2022-12-22,1,,,,,ワイエムエスファミリー,0
897,4180001154278,新規,0,2022-12-22,2022-12-22,株式会社プログロース,,株式会社,愛知県,名古屋市緑区,滝ノ水４丁目３１０９番地の１２,,23,114,4580021,,,,,,,2022-12-22,1,,,,,プログロース,0
900,4180003024628,新規,0,2022-12-22,2022-12-22,エゾムラサキ合同会社,,合同会社,愛知県,名古屋市中区,錦１丁目２０番１９号名神ビルエイディシーテクノロジー株式会社内,,23,106,4600003,,,,,,,2022-12-22,1,,,,,エゾムラサキ,0
901,4180003024636,新規,0,2022-12-22,2022-12-22,合同会社ＮＢＡ,,合同会社,愛知県,東海市,名和町北之山３１番地１３,,23,222,4760002,,,,,,,2022-12-22,1,,,,,エヌビーエー,0
903,4180301036928,新規,0,2022-12-22,2022-12-22,株式会社Ｍａ’ｓ,,株式会社,愛知県,刈谷市,一色町３丁目１０番地７Ｃａｒｏｌ－３１３号,,23,210,4480022,,,,,,,2022-12-22,1,,,,,マーズ,0
908,4200001040797,新規,0,2022-12-22,2022-12-22,株式会社庭吾郎,,株式会社,岐阜県,多治見市,太平町２丁目６７番地の３,,21,204,5070041,,,,,,,2022-12-22,1,,,,,ニワゴロウ,0
910,4210001019188,新規,0,2022-12-22,2022-12-22,株式会社グラシア,,株式会社,福井県,福井市,渕３丁目１０１０ループヤシロ１号２０２,,18,201,9188026,,,,,,,2022-12-22,1,,,,,グラシア,0
925,4290001099974,新規,0,2022-12-22,2022-12-22,株式会社ＮＥＯ　ＩＮＮＯＶＡＴＩＯＮ,,株式会社,福岡県,福岡市中央区,赤坂１丁目１１番１３号赤坂塚田ビル６Ｆ,,40,133,8100042,,,,,,,2022-12-22,1,,,,,,0
926,4290001099999,新規,0,2022-12-22,2022-12-22,株式会社アクアクリーン社,,株式会社,福岡県,福岡市中央区,長浜３丁目１４番３号,,40,133,8100072,,,,,,,2022-12-22,1,,,,,アクアクリーンシャ,0
933,4350003004240,新規,0,2022-12-22,2022-12-22,合同会社ごとう工業,,合同会社,宮崎県,日南市,大字東弁分甲８５６番地５,,45,204,8892522,,,,,,,2022-12-22,1,,,,,ゴトウコウギョウ,0
936,4360001031343,新規,0,2022-12-22,2022-12-22,株式会社一心,,株式会社,沖縄県,中頭郡北谷町,字吉原７２８番地６ワイズエステムコート北谷パークヒルズ２０７,,47,326,9040105,,,,,,,2022-12-22,1,,,,,イッシン,0
938,4370003005922,新規,0,2022-12-22,2022-12-22,ほりお工芸合同会社,,合同会社,宮城県,仙台市宮城野区,原町１丁目３番２号,,04,102,9830841,,,,,,,2022-12-22,1,,,,,ホリオコウゲイ,0
961,4500001024670,新規,0,2022-12-22,2022-12-22,株式会社マルヨシ建物,,株式会社,愛媛県,新居浜市,桜木町１５番１２号,,38,205,7920865,,,,,,,2022-12-22,1,,,,,マルヨシタテモノ,0
963,4700150113469,新規,0,2022-12-22,2022-12-22,ＯｎＦｌａｉｒ　Ｂ．Ｖ．,,外国会社等,,,,,,,,Ａｃｈｔｓｅｗｅｇ　Ｚｕｉｄ　１５１Ｂ，Ｅｉｎｄｈｏｖｅｎ,,,,,,2022-12-22,1,,,,,オンフレアビーヴィ,0
973,5010001231753,新規,0,2022-12-22,2022-12-22,株式会社ＵＮＩＱＭｅ,,株式会社,東京都,文京区,白山４丁目１３番１３号,,13,105,1120001,,,,,,,2022-12-22,1,,,,,ユニークミ,0
974,5010001231803,新規,0,2022-12-22,2022-12-22,株式会社小学館インクリオ,,株式会社,東京都,千代田区,一ツ橋２丁目３番１号,,13,101,1010003,,,,,,,2022-12-22,1,,,,,,0
987,5010401171450,新規,0,2022-12-22,2022-12-22,株式会社ＤＡＵ,,株式会社,東京都,港区,南青山１丁目１０－３－２Ｆ,,13,103,1070062,,,,,,,2022-12-22,1,,,,,ダウ,0
988,5010403029184,新規,0,2022-12-22,2022-12-22,ＬＳ‐ＡＦＲ第７号合同会社,,合同会社,東京都,港区,六本木１丁目６番１号,,13,103,1060032,,,,,,,2022-12-22,1,,,,,エルエスエーエフアールダイナナゴウ,0
999,5010901052191,新規,0,2022-12-22,2022-12-22,株式会社セイ・フィールド,,株式会社,東京都,世田谷区,野沢１丁目３５番１３号,,13,112,1540003,,,,,,,2022-12-22,1,,,,,セイフィールド,0
1000,5010903007854,新規,0,2022-12-22,2022-12-22,Ｖ‐Ａｃａｄｅｍｉａ合同会社,,合同会社,東京都,世田谷区,深沢３丁目４番１１号,,13,112,1580081,,,,,,,2022-12-22,1,,,,,ブイアカデミア,0
1007,5011001151603,新規,0,2022-12-22,2022-12-22,株式会社町子屋,,株式会社,東京都,目黒区,下目黒３丁目１２－１１,,13,110,1530064,,,,,,,2022-12-22,1,,,,,マチコヤ,0
1009,5011003015979,新規,0,2022-12-22,2022-12-22,ライトディスタンス合同会社,,合同会社,東京都,渋谷区,神宮前６丁目２３番４号桑野ビル２階,,13,113,1500001,,,,,,,2022-12-22,1,,,,,ライトディスタンス,0
1014,5011101101276,新規,0,2022-12-22,2022-12-22,アールシュタールジャパン株式会社,,株式会社,東京都,新宿区,西新宿１丁目２６番２号新宿野村ビル３２階,,13,104,1600023,,,,,,,2022-12-22,1,,,,,アールシュタールジャパン,0
1016,5011403003848,新規,0,2022-12-22,2022-12-22,合同会社Ｔｈｅ　Ｇｏｏｄ　Ｍａｎａｇｅｒｓ,,合同会社,東京都,板橋区,赤塚新町２丁目１２番１号リヒテスハイム１０７,,13,119,1750093,,,,,,,2022-12-22,1,,,,,ザグッドマネジャーズ,0
1019,5011601026460,新規,0,2022-12-22,2022-12-22,株式会社ストラップ,,株式会社,東京都,練馬区,貫井３丁目１５番２号レスピール富士見台３０７,,13,120,1760021,,,,,,,2022-12-22,1,,,,,ストラップ,0
1020,5011701025890,新規,0,2022-12-22,2022-12-22,松桂株式会社,,株式会社,東京都,江戸川区,松江２丁目１－１３－３１０号室,,13,123,1320025,,,,,,,2022-12-22,1,,,,,マツケイ,0
1028,5012401039990,新規,0,2022-12-22,2022-12-22,株式会社むさしメディカルケア,,株式会社,東京都,三鷹市,北野３丁目１１番４５号,,13,204,1810003,,,,,,,2022-12-22,1,,,,,ムサシメディカルケア,0
1030,5012403005751,新規,0,2022-12-22,2022-12-22,タケノウチ電気合同会社,,合同会社,東京都,府中市,西府町５丁目２９番地の４西府マンション３０３,,13,206,1830031,,,,,,,2022-12-22,1,,,,,タケノウチデンキ,0
1037,5013301050105,新規,0,2022-12-22,2022-12-22,株式会社明水,,株式会社,東京都,豊島区,南池袋１丁目２７番８号サンパレスビル７階,,13,116,1710022,,,,,,,2022-12-22,1,,,,,メイスイ,0
1044,5020003022943,新規,0,2022-12-22,2022-12-22,アドヴァンス・ワン合同会社,,合同会社,神奈川県,横浜市瀬谷区,阿久和西３丁目３８番地１４,,14,114,2460025,,,,,,,2022-12-22,1,,,,,アドヴァンスワン,0
1050,5021001077748,新規,0,2022-12-22,2022-12-22,アトリエ・シエル株式会社,,株式会社,神奈川県,厚木市,飯山南５丁目６３番２４号,,14,212,2430218,,,,,,,2022-12-22,1,,,,,アトリエシエル,0
1060,5030003020789,新規,0,2022-12-22,2022-12-22,ＯｆｆｉｃｅＴｉａｒｅ合同会社,,合同会社,埼玉県,さいたま市南区,太田窪２丁目１６番１１号,,11,108,3360015,,,,,,,2022-12-22,1,,,,,オフィスティアレ,0
1061,5030003020797,新規,0,2022-12-22,2022-12-22,ＰＡＮＣＨ　ＰＯＫＨＡＲＩ　ＣＯ．合同会社,,合同会社,埼玉県,朝霞市,浜崎２丁目１０番６号ロージェ朝霞台１０２,,11,227,3510033,,,,,,,2022-12-22,1,,,,,,0
1069,5040001126307,新規,0,2022-12-22,2022-12-22,株式会社オーギ,,株式会社,千葉県,佐倉市,宮ノ台２丁目２１番５号,,12,212,2850857,,,,,,,2022-12-22,1,,,,,オーギ,0
1070,5040001126315,新規,0,2022-12-22,2022-12-22,株式会社Ｑｕｏｈａ,,株式会社,千葉県,旭市,新町７５８番地２８,,12,215,2892501,,,,,,,2022-12-22,1,,,,,クオハ,0
1071,5040001126323,新規,0,2022-12-22,2022-12-22,株式会社ＴｅｃｈＸ,,株式会社,千葉県,船橋市,湊町２丁目１番１８号新堀ギタービル２Ｆ,,12,204,2730011,,,,,,,2022-12-22,1,,,,,テックエックス,0
1072,5040001126331,新規,0,2022-12-22,2022-12-22,株式会社ティームス,,株式会社,千葉県,佐倉市,西ユーカリが丘１丁目８番地１７,,12,212,2850850,,,,,,,2022-12-22,1,,,,,ティームス,0
1075,5040003021547,新規,0,2022-12-22,2022-12-22,合同会社Ｒａｊａｒａｔａ　Ｅｎｔｅｒｐｒｉｓｅｓ,,合同会社,千葉県,山武市,上横地２９９５番地１０,,12,237,2891313,,,,,,,2022-12-22,1,,,,,ラジャラタエンタープライセス,0
1076,5040005021842,新規,0,2022-12-22,2022-12-22,一般社団法人日本ペトグラファー協会,,その他の設立登記法人,千葉県,船橋市,本町５丁目６番１０号アミティエ船橋駅前８０５号,,12,204,2730005,,,,,,,2022-12-22,1,,,,,ニホンペトグラファーキョウカイ,0
1086,5080003002915,新規,0,2022-12-22,2022-12-22,Ｉｓｏｋｏｍａ　Ｂｅａｕｔｙ　ＪＡＰＡＮ合同会社,,合同会社,静岡県,静岡市駿河区,丸子６丁目６番３３号,,22,102,4210103,,,,,,,2022-12-22,1,,,,,イソコマビューティージャパン,0
1090,5080401026210,新規,0,2022-12-22,2022-12-22,株式会社ＧＶＣ,,株式会社,静岡県,浜松市中区,野口町３２６番地ジュネスハイム２０１号,,22,131,4300919,,,,,,,2022-12-22,1,,,,,ジーブイシー,0
1096,5120001251220,新規,0,2022-12-22,2022-12-22,ＬＯＴＵＳ株式会社,,株式会社,大阪府,大阪市生野区,勝山南４丁目５番２号４０３号,,27,116,5440021,,,,,,,2022-12-22,1,,,,,ロータス,0
1097,5120001251253,新規,0,2022-12-22,2022-12-22,株式会社Ｏｆｆｉｃｅ１２８１,,株式会社,大阪府,大阪市東成区,大今里４丁目２６番１１号,,27,115,5370012,,,,,,,2022-12-22,1,,,,,,0
1098,5120001251303,新規,0,2022-12-22,2022-12-22,株式会社ＵＣ,,株式会社,大阪府,大阪市生野区,巽北１丁目２１－２９生野ハイツ７１０号室,00128871,27,116,5440004,,,,,,,2022-12-22,1,,,,,ユーシー,0
1102,5120003023106,新規,0,2022-12-22,2022-12-22,ＩＳＧＰ合同会社,,合同会社,大阪府,大阪市浪速区,日本橋東３丁目５－２７フレンドやまとビル１０２,,27,111,5560006,,,,,,,2022-12-22,1,,,,,アイエスジーピー,0
1116,5130001073309,新規,0,2022-12-22,2022-12-22,東洋建設工業株式会社,,株式会社,京都府,京都市上京区,椹木町通浄福寺西入中務町４９０番地,,26,102,6028158,,,,,,,2022-12-22,1,,,,,トウヨウケンセツコウギョウ,0
1117,5130001073333,新規,0,2022-12-22,2022-12-22,新龍盛株式会社,,株式会社,京都府,京都市右京区,御室小松野町２４番地５－２Ｆ,,26,108,6168094,,,,,,,2022-12-22,1,,,,,シンリュウセイ,0
1124,5140001128391,新規,0,2022-12-22,2022-12-22,株式会社オープラスエス,,株式会社,兵庫県,姫路市,飾磨区野田町２０１番地ハイツ野田３０１号,,28,201,6728040,,,,,,,2022-12-22,1,,,,,オープラスエス,0
1125,5140001128499,新規,0,2022-12-22,2022-12-22,エイチプラステン株式会社,,株式会社,兵庫県,芦屋市,大桝町１番１８号,,28,206,6590066,,,,,,,2022-12-22,1,,,,,エイチプラステン,0
1126,5140001128508,新規,0,2022-12-22,2022-12-22,株式会社のの,,株式会社,兵庫県,たつの市,揖西町土師９８６番地２,,28,229,6794017,,,,,,,2022-12-22,1,,,,,ノノ,0
1132,5140003018459,新規,0,2022-12-22,2022-12-22,合同会社紬蒼,,合同会社,兵庫県,神戸市垂水区,小束山１丁目３番地２５号棟３０４号,,28,108,6550002,,,,,,,2022-12-22,1,,,,,ツムギソウ,0
1133,5140003018483,新規,0,2022-12-22,2022-12-22,Ｇ‐ＣＨＡＮＤＲＡ合同会社,,合同会社,兵庫県,尼崎市,杭瀬本町１丁目１０－５,,28,202,6600814,,,,,,,2022-12-22,1,,,,,ジーチャンドラ,0
1147,5180003024627,新規,0,2022-12-22,2022-12-22,合同会社Ｍａｉｄ　Ｓｗｅｅｔ,,合同会社,愛知県,名古屋市中区,錦３丁目１０番２８号第一錦エステートビル,,23,106,4600003,,,,,,,2022-12-22,1,,,,,メイドスウィート,0
1160,5200001040796,新規,0,2022-12-22,2022-12-22,株式会社小栗商店,,株式会社,岐阜県,加茂郡坂祝町,酒倉１９８５番地１,,21,501,5050074,,,,,,,2022-12-22,1,,,,,オグリショウテン,0
1164,5230005009273,新規,0,2022-12-22,2022-12-22,一般社団法人芦峅活性化協議会,,その他の設立登記法人,富山県,中新川郡立山町,芦峅寺５５番地１,,16,323,9301406,,,,,,,2022-12-22,1,,,,,アシクラカッセイカキョウギカイ,0
1168,5240003005942,新規,0,2022-12-22,2022-12-22,合同会社Ｐマネジメント,,合同会社,広島県,広島市中区,住吉町１番１－５０１号,,34,101,7300813,,,,,,,2022-12-22,1,,,,,ピーマネジメント,0
1183,5290003013321,新規,0,2022-12-22,2022-12-22,合同会社Ｓｅｒｅｎｄｉｐｉｔｙ,,合同会社,福岡県,福岡市東区,松崎３丁目３６番１５－３０２号,,40,131,8130035,,,,,,,2022-12-22,1,,,,,セレンディピティ,0
1187,5330001030421,新規,0,2022-12-22,2022-12-22,いいだ葬祭株式会社,,株式会社,熊本県,球磨郡多良木町,大字多良木２８０６番地１,,43,505,8680501,,,,,,,2022-12-22,1,,,,,イイダソウサイ,0
1199,5360003012571,新規,0,2022-12-22,2022-12-22,合同会社ＴＯＭＭＹ,,合同会社,沖縄県,那覇市,久茂地１丁目８－１９永山ビル１Ｆ,,47,201,9000015,,,,,,,2022-12-22,1,,,,,トミー,0
1200,5360003012588,新規,0,2022-12-22,2022-12-22,合同会社愛ハピネス,,合同会社,沖縄県,那覇市,安謝１丁目１０番９号,,47,201,9000003,,,,,,,2022-12-22,1,,,,,アイハピネス,0
1201,5360005006745,新規,0,2022-12-22,2022-12-22,一般社団法人日本プロマジシャン協会,,その他の設立登記法人,沖縄県,那覇市,前島３丁目２５－２泊ポートビル１Ｆ,,47,201,9000016,,,,,,,2022-12-22,1,,,,,ニホンプロマジシャンキョウカイ,0
1211,5420003002640,新規,0,2022-12-22,2022-12-22,合同会社間茶,,合同会社,青森県,北津軽郡中泊町,大字田茂木字川袋島１２２番地９５,,02,387,0370318,,,,,,,2022-12-22,1,,,,,マチャ,0
1215,5430001088086,新規,0,2022-12-22,2022-12-22,株式会社アール,,株式会社,北海道,札幌市西区,福井４丁目１０番９号,,01,107,0630012,,,,,,,2022-12-22,1,,,,,アール,0
1220,5500001024678,新規,0,2022-12-22,2022-12-22,株式会社ＫＣＴ　ＭＥＤＩＣＡＬ,,株式会社,愛媛県,松山市,三番町４丁目２番地５,,38,201,7900003,,,,,,,2022-12-22,1,,,,,ケーシーティーメディカル,0
1222,5700150113451,新規,0,2022-12-22,2022-12-22,ＳＵＭＵＤＵ　ＴＲＡＤＩＮＧ,,外国会社等,千葉県,匝瑳市,西小笹字和曽根１０７３－６,,12,235,2892125,スリランカ民主社会主義共和国西部州ガンパハ県ジャエラ市エカラ、ガンパハ街０６／Ａ番地,,,,,,2022-12-22,1,,,,,スムドウトレーデイング,0
1223,5700150113468,新規,0,2022-12-22,2022-12-22,６５グリーン・ジャパン・エルエルシー,,外国会社等,東京都,千代田区,丸の内１丁目８番３号丸の内トラストタワー本館２６階,,13,101,1000005,アメリカ合衆国デラウエア州ウィルミントン、オレンジ・ストリート１２０９、ナショナル・レジスタード・エージェント・インク内,,,,,,2022-12-22,1,,,,,シツクステイーフアイブグリーンジヤパンエルエルシー,0
1224,5700150113484,新規,0,2022-12-22,2022-12-22,Ｓｈｅｎ　Ｚｈｅｎ　Ｓｈｉ　Ｚｈｉ　Ｈｅｎｇ　Ｋｅ　Ｊｉ　Ｙｏｕ　Ｘｉａｎ　Ｇｏｎｇ　Ｓｉ,,外国会社等,,,,,,,,Ｓｈｅｎ　Ｚｈｅｎ　Ｓｈｉ　Ｆｕ　Ｔｉａｎ　Ｑｕ　Ｈｕａ　Ｑｉａｎｇ　Ｂｅｉ　Ｊｉｅ　Ｄａｏ，Ｌａｎ　Ｔｉａｎ　Ｌｕ　Ｊｉｎ　Ｍａｏ　Ｌｉ　Ｄｕ　Ｑｕｎ　Ｌｏｕ　２０５Ｂ，Ｓｈｅｎｚｈｅｎ，Ｇｕａｎｇｄｏｎｇ，Ｃｈｉｎａ,,,,,,2022-12-22,1,,,,,シンセンシチコウケイジユウシィアンゴンスー,0
1232,6010001231760,新規,0,2022-12-22,2022-12-22,株式会社ＡＲＭ　Ｍｅｄｉｃａｌ　Ｊａｐａｎ,,株式会社,東京都,中央区,銀座３丁目４番１５号菱進銀座ビル６階,,13,102,1040061,,,,,,,2022-12-22,1,,,,,エイアールエムメディカルジャパン,0
1233,6010001231802,新規,0,2022-12-22,2022-12-22,株式会社バウアイ,,株式会社,東京都,文京区,本郷３丁目３３番３号,,13,105,1130033,,,,,,,2022-12-22,1,,,,,バウアイ,0
1239,6010003039392,新規,0,2022-12-22,2022-12-22,合同会社イノベーションテック,,合同会社,東京都,中央区,明石町１１番１５号ミキジ明石町ビル６階,,13,102,1040044,,,,,,,2022-12-22,1,,,,,イノベーションテック,0
1240,6010003039401,新規,0,2022-12-22,2022-12-22,野村ＩＭ投資合同会社,,合同会社,東京都,千代田区,大手町２丁目２番２号アーバンネット大手町ビル,,13,101,1000004,,,,,,,2022-12-22,1,,,,,ノムラアイエムトウシ,0
1243,6010101015469,新規,0,2022-12-22,2022-12-22,株式会社アスリートアレンジメント,,株式会社,東京都,八王子市,大塚３４２－７,,13,201,1920352,,,,,,,2022-12-22,1,,,,,アスリートアレンジメント,0
1249,6010403029167,新規,0,2022-12-22,2022-12-22,合同会社ＩＳ,,合同会社,東京都,港区,南青山３丁目１番３６号青山丸竹ビル６Ｆ,,13,103,1070062,,,,,,,2022-12-22,1,,,,,アイエス,0
1250,6010403029183,新規,0,2022-12-22,2022-12-22,ＬＳ‐ＡＦＲ第６号合同会社,,合同会社,東京都,港区,六本木１丁目６番１号,,13,103,1060032,,,,,,,2022-12-22,1,,,,,エルエスエーエフアールダイロクゴウ,0
1255,6010503006826,新規,0,2022-12-22,2022-12-22,合同会社ｍａｙｓｉｘ,,合同会社,東京都,台東区,台東１丁目３５番５号アトラス秋葉原カルモード１００３号室,,13,106,1100016,,,,,,,2022-12-22,1,,,,,メイシックス,0
1269,6011001151602,新規,0,2022-12-22,2022-12-22,株式会社ＣＬＥＡＲ　ＩＴ,,株式会社,東京都,目黒区,上目黒３丁目６番２３号,,13,110,1530051,,,,,,,2022-12-22,1,,,,,クリアアイティー,0
1273,6011101101259,新規,0,2022-12-22,2022-12-22,リジェネ株式会社,,株式会社,東京都,新宿区,西新宿６丁目１６番６号新宿タツミビル９０３号室,,13,104,1600023,,,,,,,2022-12-22,1,,,,,リジェネ,0
1275,6011303004615,新規,0,2022-12-22,2022-12-22,合同会社Ｋ＆Ｍ,,合同会社,東京都,杉並区,荻窪５丁目１６―１９,,13,115,1670051,,,,,,,2022-12-22,1,,,,,ケイアンドエム,0
1278,6011501028762,新規,0,2022-12-22,2022-12-22,株式会社スポンジ１６,,株式会社,東京都,北区,滝野川６丁目７０番１４号,,13,117,1140023,,,,,,,2022-12-22,1,,,,,スポンジジュウロク,0
1284,6011701025898,新規,0,2022-12-22,2022-12-22,株式会社Ｔａｕｒｕｓ,,株式会社,東京都,江戸川区,上篠崎１丁目１３番１号,,13,123,1330054,,,,,,,2022-12-22,1,,,,,タウラス,0
1290,6012301013260,新規,0,2022-12-22,2022-12-22,株式会社ＴＩＣ,,株式会社,東京都,町田市,原町田１丁目１３番１号町田ハイツ壱番館１－３－Ｒ５,,13,209,1940013,,,,,,,2022-12-22,1,,,,,ティーアイシー,0
1291,6012403005742,新規,0,2022-12-22,2022-12-22,合同会社キタハラガレージ,,合同会社,東京都,多摩市,聖ヶ丘３丁目６－２,,13,224,2060022,,,,,,,2022-12-22,1,,,,,キタハラガレージ,0
1301,6020003022942,新規,0,2022-12-22,2022-12-22,合同会社ＴＡＫＥ　ＯＦＦ,,合同会社,神奈川県,川崎市川崎区,元木２丁目４番１２－５号,,14,131,2100021,,,,,,,2022-12-22,1,,,,,テイクオフ,0
1309,6021001077771,新規,0,2022-12-22,2022-12-22,株式会社ウイル,,株式会社,神奈川県,厚木市,旭町３丁目１５番１２号,,14,212,2430014,,,,,,,2022-12-22,1,,,,,ウイル,0
1319,6030001151593,新規,0,2022-12-22,2022-12-22,株式会社アヅマインテリア埼玉,,株式会社,埼玉県,新座市,栄２丁目９番６号,,11,230,3520014,,,,,,,2022-12-22,1,,,,,アヅマインテリアサイタマ,0
1320,6030001151602,新規,0,2022-12-22,2022-12-22,株式会社ローディング,,株式会社,埼玉県,草加市,柳島町３０６番地４,,11,221,3400033,,,,,,,2022-12-22,1,,,,,ローディング,0
1325,6030003020796,新規,0,2022-12-22,2022-12-22,合同会社ＡＵＴＯ　ＭＡＲＴ,,合同会社,埼玉県,北葛飾郡松伏町,大字松伏３２１０－１,,11,465,3430111,,,,,,,2022-12-22,1,,,,,オートマート,0
1331,6040001126207,新規,0,2022-12-22,2022-12-22,株式会社ヤングコンサルタント,,株式会社,千葉県,千葉市美浜区,高洲３丁目５番３棟７０１号,,12,106,2610004,,,,,,,2022-12-22,1,,,,,ヤングコンサルタント,0
1332,6040001126306,新規,0,2022-12-22,2022-12-22,株式会社シンネクスター,,株式会社,千葉県,旭市,ニの５１８０番地１,,12,215,2892504,,,,,,,2022-12-22,1,,,,,シンネクスター,0
1333,6040001126322,新規,0,2022-12-22,2022-12-22,正和コンサルティング株式会社,,株式会社,千葉県,松戸市,常盤平陣屋前７番地３秋谷ビル５０３号,,12,207,2702265,,,,,,,2022-12-22,1,,,,,セイワコンサルティング,0
1334,6040001126330,新規,0,2022-12-22,2022-12-22,株式会社Ｄｅｌｔａ　ｃｏｍｐａｎｙ,,株式会社,千葉県,習志野市,実籾３丁目１１番８号,,12,216,2750002,,,,,,,2022-12-22,1,,,,,デルタカンパニー,0
1335,6040001126339,新規,0,2022-12-22,2022-12-22,株式会社Ｃａｆｆｅｅ,,株式会社,千葉県,市川市,平田３丁目８－１２－１－Ｃ号,,12,203,2720031,,,,,,,2022-12-22,1,,,,,カーフィー,0
1343,6050001052113,新規,0,2022-12-22,2022-12-22,株式会社未来建設,,株式会社,茨城県,土浦市,摩利山新田３２６番地１,,08,203,3000838,,,,,,,2022-12-22,1,,,,,ミライケンセツ,0
1344,6050001052121,新規,0,2022-12-22,2022-12-22,株式会社サンライズエンターテイメント,,株式会社,茨城県,日立市,東成沢町２丁目１１番２０号,,08,202,3160034,,,,,,,2022-12-22,1,,,,,サンライズエンターテイメント,0
1357,6080103002715,新規,0,2022-12-22,2022-12-22,合同会社沼津不動産ＢＡＳＥ,,合同会社,静岡県,沼津市,東椎路１１９８番地の１５,,22,203,4100302,,,,,,,2022-12-22,1,,,,,ヌマヅフドウサンベース,0
1363,6120001251095,新規,0,2022-12-22,2022-12-22,大阪資産管理株式会社,,株式会社,大阪府,大阪市北区,天神橋２丁目５番１６号星合ビル２階,,27,127,5300041,,,,,,,2022-12-22,1,,,,,オオサカシサンカンリ,0
1364,6120001251186,新規,0,2022-12-22,2022-12-22,Ｇｒａｎｄｓｔｏｎｅ資産管理株式会社,,株式会社,大阪府,大阪市中央区,高麗橋４丁目６－１４－９０４号室,,27,128,5410043,,,,,,,2022-12-22,1,,,,,グランドストーンシサンカンリ,0
1365,6120001251236,新規,0,2022-12-22,2022-12-22,ＪＡＶＩＬＩＮＫ株式会社,,株式会社,大阪府,大阪市生野区,林寺２丁目７番１号１Ｆ,,27,116,5440023,,,,,,,2022-12-22,1,,,,,ジャビリン,0
1366,6120001251269,新規,0,2022-12-22,2022-12-22,伶知株式会社,,株式会社,大阪府,大阪市東淀川区,東中島５丁目８－１７－２０１,,27,114,5330033,,,,,,,2022-12-22,1,,,,,レイチ,0
1370,6120003023121,新規,0,2022-12-22,2022-12-22,スケールアップ合同会社,,合同会社,大阪府,大阪市北区,芝田１丁目１－４阪急ターミナルビル１６Ｆ,,27,127,5300012,,,,,,,2022-12-22,1,,,,,スケールアップ,0
1374,6120101066708,新規,0,2022-12-22,2022-12-22,株式会社Ｓｅｉｅｉホールディングス,,株式会社,大阪府,堺市堺区,南向陽町２丁３番６号,,27,141,5900073,,,,,,,2022-12-22,1,,,,,セイエイホールディングス,0
1375,6120101066716,新規,0,2022-12-22,2022-12-22,株式会社ムーブアゲイン,,株式会社,大阪府,堺市北区,長曽根町３０７２番地７,,27,146,5918025,,,,,,,2022-12-22,1,,,,,ムーブアゲイン,0
1379,6120901046891,新規,0,2022-12-22,2022-12-22,株式会社綾羽メッセージ,,株式会社,大阪府,豊中市,東泉丘４丁目５番５０－９２４号,,27,203,5610861,,,,,,,2022-12-22,1,,,,,アヤハメッセージ,0
1380,6120901046900,新規,0,2022-12-22,2022-12-22,株式会社ＭＹＴロジスコ,,株式会社,大阪府,箕面市,粟生間谷西７丁目１番２号,,27,220,5620023,,,,,,,2022-12-22,1,,,,,エムワイティーロジスコ,0
1381,6122001036518,新規,0,2022-12-22,2022-12-22,株式会社ＥＥ８Ｎ,,株式会社,大阪府,柏原市,国分西１丁目１－３ウィンズヒル谷口３０１号室,,27,221,5820025,,,,,,,2022-12-22,1,,,,,エエヤン,0
1382,6130001073324,新規,0,2022-12-22,2022-12-22,株式会社ＫＭ空調サービス,,株式会社,京都府,長岡京市,柴の里１番地１５,,26,209,6170818,,,,,,,2022-12-22,1,,,,,ケイエムクウチョウサービス,0
1409,6180301036926,新規,0,2022-12-22,2022-12-22,株式会社オギノ自動車,,株式会社,愛知県,豊橋市,下地町３丁目３８番地,,23,201,4400085,,,,,,,2022-12-22,1,,,,,オギノジドウシャ,0
1412,6200001040779,新規,0,2022-12-22,2022-12-22,品の株式会社,,株式会社,岐阜県,可児市,今渡字町１５９５番４６,,21,214,5090207,,,,,,,2022-12-22,1,,,,,シナノ,0
1435,6290001099980,新規,0,2022-12-22,2022-12-22,全農物産株式会社,,株式会社,福岡県,福岡市中央区,草香江１丁目７番２０－４０５号フェリカ大濠,,40,133,8100045,,,,,,,2022-12-22,1,,,,,ゼンノウブッサン,0
1439,6290003013337,新規,0,2022-12-22,2022-12-22,永佳貿易合同会社,,合同会社,福岡県,福岡市中央区,薬院３丁目３番２９号８０３,,40,133,8100022,,,,,,,2022-12-22,1,,,,,エイカボウエキ,0
1450,6320001019480,新規,0,2022-12-22,2022-12-22,ゆふいん月燈庵株式会社,,株式会社,大分県,由布市,湯布院町川上２９５番地２,,44,213,8795102,,,,,,,2022-12-22,1,,,,,ユフインゲットウアン,0
1451,6330005010600,新規,0,2022-12-22,2022-12-22,一般社団法人憲昭会,,その他の設立登記法人,熊本県,熊本市南区,出仲間１丁目６番５号,,43,104,8620963,,,,,,,2022-12-22,1,,,,,ケンショウカイ,0
1452,6340001025254,新規,0,2022-12-22,2022-12-22,こころ不動産株式会社,,株式会社,鹿児島県,姶良市,船津８７１番地,,46,225,8995655,,,,,,,2022-12-22,1,,,,,ココロフドウサン,0
1463,6400001016098,新規,0,2022-12-22,2022-12-22,株式会社昆野製作所,,株式会社,岩手県,下閉伊郡岩泉町,袰野字赤鹿８５番地,,03,483,0270424,,,,,,,2022-12-22,1,,,,,,0
1467,6440003001499,新規,0,2022-12-22,2022-12-22,合同会社ＢＥＡＲ　ＨＡＮＤ,,合同会社,北海道,函館市,北美原３丁目３番１号,,01,202,0410807,,,,,,,2022-12-22,1,,,,,ベアハンド,0
1476,6500001024669,新規,0,2022-12-22,2022-12-22,株式会社Ｌｅａｐ,,株式会社,愛媛県,松山市,道後姫塚１２番地５ライオンズマンション道後姫塚第２－３０１,,38,201,7900858,,,,,,,2022-12-22,1,,,,,リープ,0
1477,6500001024677,新規,0,2022-12-22,2022-12-22,株式会社ＭＡＣＨＩ　ＭＥＤＩＣＡＬ,,株式会社,愛媛県,松山市,三番町４丁目２番地５,,38,201,7900003,,,,,,,2022-12-22,1,,,,,マチメディカル,0
1480,6700150113450,新規,0,2022-12-22,2022-12-22,ＬＡＬ　ＣＡＲ　ＳＡＬＥ,,外国会社等,千葉県,匝瑳市,西小笹字和曽根１０７３,,12,235,2892125,スリランカ民主社会主義共和国西部州ガンパハ県パシヤラ市ミーリガマ街１１１番地,,,,,,2022-12-22,1,,,,,エルエーエルカーセール,0
1481,6700150113483,新規,0,2022-12-22,2022-12-22,Ｈａｎｔａｉ　Ｔｅｃｈｎｏｌｏｇｙ　Ｈｅｂｅｉ　Ｃｏ．，Ｌｔｄ,,外国会社等,,,,,,,,Ｑｉａｏｘｉ　Ｗｕｍｉｎｇ　Ｓｔｒｅｅｔ　ａｎｄ　ｔｈｅ　ｎｅｗ　Ｓｈｅｋ　Ｎａｍ　Ｒｏａｄ．Ｃｈｉｎａｔｏｗｎ，Ｎｏ．８２６，Ｓｈｉｊｉａｚｈｕａｎｇ　Ｃｉｔｙ，Ｈｅｂｅｉ　Ｐｒｏｖｉｎｃｅ，ｃｈｉｎａ,,,,,,2022-12-22,1,,,,,カンタイケイジカホクユウシィアンゴンスー,0
1487,7010001231710,新規,0,2022-12-22,2022-12-22,ボストンメディックス株式会社,,株式会社,東京都,千代田区,六番町４番１１号朝日六番町,,13,101,1020085,,,,,,,2022-12-22,1,,,,,ボストンメディックス,0
1488,7010001231784,新規,0,2022-12-22,2022-12-22,三浦商事株式会社,,株式会社,東京都,文京区,小石川３丁目２６番１６号,,13,105,1120002,,,,,,,2022-12-22,1,,,,,ミウラショウジ,0
1491,7010003039391,新規,0,2022-12-22,2022-12-22,合同会社ヘルスケア,,合同会社,東京都,中央区,明石町１１番１５号ミキジ明石町ビル６階,,13,102,1040044,,,,,,,2022-12-22,1,,,,,ヘルスケア,0
1492,7010003039400,新規,0,2022-12-22,2022-12-22,ゼロデリ合同会社,,合同会社,東京都,文京区,本郷２丁目９番９－８０３号,,13,105,1130033,,,,,,,2022-12-22,1,,,,,ゼロデリ,0
1499,7010403029182,新規,0,2022-12-22,2022-12-22,ＬＳ‐ＡＦＲ第５号合同会社,,合同会社,東京都,港区,六本木１丁目６番１号,,13,103,1060032,,,,,,,2022-12-22,1,,,,,エルエスエーエフアールダイゴゴウ,0
1502,7010405021674,新規,0,2022-12-22,2022-12-22,特定非営利活動法人グラシアス,,その他の設立登記法人,東京都,港区,海岸２丁目５番１－１６１０号,,13,103,1050022,,,,,,,2022-12-22,1,,,,,グラシアス,0
1511,7010603009901,新規,0,2022-12-22,2022-12-22,ＲＦ合同会社,,合同会社,東京都,江東区,亀戸５丁目６－２１ＵＩＷ９ＢＬＤＧ２Ｆ,,13,108,1360071,,,,,,,2022-12-22,1,,,,,ロゼフジ,0
1513,7010705003463,新規,0,2022-12-22,2022-12-22,一般社団法人ウクライナ難民支援協議会,,その他の設立登記法人,東京都,品川区,東五反田４丁目３番３０－１０４号,,13,109,1410022,,,,,,,2022-12-22,1,,,,,ウクライナナンミンシエンキョウギカイ,0
1514,7010803004388,新規,0,2022-12-22,2022-12-22,合同会社リスクテイク,,合同会社,東京都,大田区,仲六郷４丁目２８－１リバーコーポ６５、３０１,,13,111,1440055,,,,,,,2022-12-22,1,,,,,リスクテイク,0
1515,7010803004396,新規,0,2022-12-22,2022-12-22,東京ライフ合同会社,,合同会社,東京都,大田区,田園調布５丁目２２番６号,,13,111,1450071,,,,,,,2022-12-22,1,,,,,トウキョウライフ,0
1518,7010901052198,新規,0,2022-12-22,2022-12-22,株式会社カペラ,,株式会社,東京都,世田谷区,桜新町１丁目３番８ー２０１号,,13,112,1540015,,,,,,,2022-12-22,1,,,,,カペラ,0
1519,7010903007844,新規,0,2022-12-22,2022-12-22,合同会社東京産業リサーチ,,合同会社,東京都,世田谷区,上馬４丁目３５－１５ジャスパー駒沢２０３,,13,112,1540011,,,,,,,2022-12-22,1,,,,,トウキョウサンギョウリサーチ,0
1527,7011001151493,新規,0,2022-12-22,2022-12-22,株式会社ＮＦＴ　ＪＡＰＡＮ,,株式会社,東京都,渋谷区,西原３丁目３２番６号,,13,113,1510066,,,,,,,2022-12-22,1,,,,,エヌエフティージャパン,0
1528,7011001151601,新規,0,2022-12-22,2022-12-22,株式会社パッションクエスト,,株式会社,東京都,渋谷区,神宮前６丁目２９番４号原宿ｋｏｍｉｙａビル６階,,13,113,1500001,,,,,,,2022-12-22,1,,,,,パッションクエスト,0
1534,7011105010488,新規,0,2022-12-22,2022-12-22,一般社団法人おまとめローンメディア協会,,その他の設立登記法人,東京都,新宿区,新宿６丁目２７番２９－７１４号,,13,104,1600022,,,,,,,2022-12-22,1,,,,,オマトメローンメディアキョウカイ,0
1537,7011303004614,新規,0,2022-12-22,2022-12-22,合同会社ＮＢプロダクション,,合同会社,東京都,杉並区,大宮１丁目１４番７号Ｒｅｆｕｇｅ・Ｏ・Ｆｏｒｅｓｔ・Ｎ４０５,,13,115,1680061,,,,,,,2022-12-22,1,,,,,エヌビープロダクション,0
1538,7011403003854,新規,0,2022-12-22,2022-12-22,ＹＵＫＩ貿易合同会社,,合同会社,東京都,板橋区,板橋１丁目５０－１１－６０２,,13,119,1730004,,,,,,,2022-12-22,1,,,,,ユキボウエキ,0
1540,7011501028778,新規,0,2022-12-22,2022-12-22,Ｍ‐ＶＡＥＣＳＴ株式会社,,株式会社,東京都,荒川区,荒川１丁目４７番４号,,13,118,1160002,,,,,,,2022-12-22,1,,,,,エムヴェクスト,0
1543,7011701025897,新規,0,2022-12-22,2022-12-22,株式会社ＭＯＮＴＥ　ＢＩＡＮＣＯ,,株式会社,東京都,江戸川区,江戸川２丁目２－１１,,13,123,1320013,,,,,,,2022-12-22,1,,,,,,0
1553,7012403005733,新規,0,2022-12-22,2022-12-22,合同会社フレンズ,,合同会社,東京都,調布市,仙川町１丁目１４番地３５レモンビル２０１,,13,208,1820002,,,,,,,2022-12-22,1,,,,,フレンズ,0
1556,7013301050103,新規,0,2022-12-22,2022-12-22,株式会社ＯＴＫ,,株式会社,東京都,豊島区,東池袋１丁目３４番５号いちご東池袋ビル６階,,13,116,1700013,,,,,,,2022-12-22,1,,,,,オーティーケー,0
1557,7013303006417,新規,0,2022-12-22,2022-12-22,合同会社Ｕ’ｓ,,合同会社,東京都,豊島区,池袋２丁目６５－５,,13,116,1710014,,,,,,,2022-12-22,1,,,,,ユーズ,0
1562,7020001149514,新規,0,2022-12-22,2022-12-22,株式会社リノクリエーション,,株式会社,神奈川県,横浜市中区,山下町８０番地３横濱ディアタワー３１４号室,,14,104,2310023,,,,,,,2022-12-22,1,,,,,リノクリエーション,0
1564,7020003022941,新規,0,2022-12-22,2022-12-22,合同会社インテリアカナ,,合同会社,神奈川県,川崎市幸区,南幸町２丁目１０番地第一シノザキビル３０３,,14,132,2120016,,,,,,,2022-12-22,1,,,,,インテリアカナ,0
1570,7021001077754,新規,0,2022-12-22,2022-12-22,ＩＭＰＥＲＩＡＬ　ＣＯＭＰＡＮＹ株式会社,,株式会社,神奈川県,大和市,渋谷５丁目５番地１０,,14,213,2420023,,,,,,,2022-12-22,1,,,,,インペリアルカンパニー,0
1573,7021003012528,新規,0,2022-12-22,2022-12-22,合同会社Ｈａｐｐｙｓｔａｒ,,合同会社,神奈川県,厚木市,戸室５丁目３番８号サンビレッジ戸室Ｂ‐１０３,,14,212,2430031,,,,,,,2022-12-22,1,,,,,ハッピースター,0
1577,7030001151576,新規,0,2022-12-22,2022-12-22,株式会社三雄本舗,,株式会社,埼玉県,所沢市,東所沢１丁目１７番地の１５,,11,208,3590021,,,,,,,2022-12-22,1,,,,,ミツオホンポ,0
1578,7030001151584,新規,0,2022-12-22,2022-12-22,株式会社成桂,,株式会社,埼玉県,吉川市,美南４丁目１１番地１２,,11,243,3420038,,,,,,,2022-12-22,1,,,,,セイケイ,0
1579,7030001151592,新規,0,2022-12-22,2022-12-22,株式会社建登Ｒｅｎｅｗａｌ,,株式会社,埼玉県,草加市,谷塚町６５５番地－１０１,,11,221,3400023,,,,,,,2022-12-22,1,,,,,ケントリニューアル,0
1582,7030003020787,新規,0,2022-12-22,2022-12-22,アジア食品店合同会社,,合同会社,埼玉県,東松山市,大字石橋１６８４番地３５,,11,212,3550072,,,,,,,2022-12-22,1,,,,,アジアショクヒンテン,0
1583,7030003020804,新規,0,2022-12-22,2022-12-22,ＷＩＴ　ＭＯＭＥＮＴ合同会社,,合同会社,埼玉県,狭山市,大字青柳１４８９番地の３ビラハラジュク２０１号室,,11,215,3501301,,,,,,,2022-12-22,1,,,,,ウィットモーメント,0
1584,7030003020812,新規,0,2022-12-22,2022-12-22,合同会社結,,合同会社,埼玉県,所沢市,上新井３丁目５１番地の８,,11,208,3591142,,,,,,,2022-12-22,1,,,,,ムスビ,0
1594,7040001126305,新規,0,2022-12-22,2022-12-22,株式会社輝龍,,株式会社,千葉県,四街道市,大日１２２番地８８,,12,228,2840001,,,,,,,2022-12-22,1,,,,,キリュウ,0
1595,7040001126338,新規,0,2022-12-22,2022-12-22,株式会社Ｃｌａｓｓ　Ａ　ｈｏｍｅ,,株式会社,千葉県,千葉市花見川区,千種町３３３－１－４１０,,12,102,2620012,,,,,,,2022-12-22,1,,,,,クラスエーホーム,0
1596,7040001126346,新規,0,2022-12-22,2022-12-22,株式会社サン・クリーンホールディングス,,株式会社,千葉県,千葉市稲毛区,小仲台５丁目１１番１号,,12,103,2630043,,,,,,,2022-12-22,1,,,,,サンクリーンホールディングス,0
1598,7040003021545,新規,0,2022-12-22,2022-12-22,合同会社匠美企画,,合同会社,千葉県,八街市,八街ほ２４８,,12,230,2891115,,,,,,,2022-12-22,1,,,,,タクミキカク,0
1606,7050003007106,新規,0,2022-12-22,2022-12-22,ＥＲＧＭ合同会社,,合同会社,茨城県,那珂市,本米崎３５３番地,,08,226,3110101,,,,,,,2022-12-22,1,,,,,イーアールジーエム,0
1608,7070003004761,新規,0,2022-12-22,2022-12-22,合同会社ｉｇａｒａｇｅ,,合同会社,群馬県,邑楽郡大泉町,大字寄木戸１０５２番地,,10,524,3700535,,,,,,,2022-12-22,1,,,,,アイガレージ,0
1609,7080001025362,新規,0,2022-12-22,2022-12-22,株式会社ＦＯＵＲ　ＴＨＲＥＥ,,株式会社,静岡県,静岡市清水区,大坪１丁目７番５号,,22,103,4240847,,,,,,,2022-12-22,1,,,,,フォースリー,0
1611,7080101023704,新規,0,2022-12-22,2022-12-22,ＴＯＭ　ＦＬＯＷＳ株式会社,,株式会社,静岡県,伊豆の国市,中３５３番地の２,,22,225,4102113,,,,,,,2022-12-22,1,,,,,トムフロー,0
1616,7110003004947,新規,0,2022-12-22,2022-12-22,合同会社ＡＲネットワーク,,合同会社,新潟県,北蒲原郡聖籠町,大字別條１番地１３３,,15,307,9570125,,,,,,,2022-12-22,1,,,,,エーアールネットワーク,0
1624,7120001251094,新規,0,2022-12-22,2022-12-22,株式会社Ｃａｃｈｉｐｏｒｔ,,株式会社,大阪府,大阪市中央区,南船場４丁目１０番５号南船場ＳＯＨＯビル７０２,,27,128,5420081,,,,,,,2022-12-22,1,,,,,カチポート,0
1625,7120001251193,新規,0,2022-12-22,2022-12-22,ＡＳ　ＴＥＸＴＩＬＥ株式会社,,株式会社,大阪府,大阪市西区,新町１丁目７番１８号,,27,106,5500013,,,,,,,2022-12-22,1,,,,,アステキスタイル,0
1626,7120001251268,新規,0,2022-12-22,2022-12-22,天来株式会社,,株式会社,大阪府,大阪市生野区,中川４丁目２－４ホワイトビル２０４室,,27,116,5440005,,,,,,,2022-12-22,1,,,,,テンライ,0
1628,7120003023137,新規,0,2022-12-22,2022-12-22,合同会社ケーモ,,合同会社,大阪府,枚方市,山之上５丁目１１－２９,,27,210,5730047,,,,,,,2022-12-22,1,,,,,ケーモ,0
1630,7120101066698,新規,0,2022-12-22,2022-12-22,株式会社ほのか,,株式会社,大阪府,高石市,西取石５丁目６番１６号,,27,225,5920012,,,,,,,2022-12-22,1,,,,,ホノカ,0
1631,7120101066707,新規,0,2022-12-22,2022-12-22,株式会社Ｍ’ｓ　Ｂｕｉｌｄ,,株式会社,大阪府,堺市中区,楢葉１７０番地,,27,142,5998252,,,,,,,2022-12-22,1,,,,,エムズビルド,0
1643,7140003018498,新規,0,2022-12-22,2022-12-22,合同会社和道商事,,合同会社,兵庫県,神戸市長田区,宮川町９丁目４番７,,28,106,6530813,,,,,,,2022-12-22,1,,,,,カズミチショウジ,0
1657,7180001154283,新規,0,2022-12-22,2022-12-22,株式会社和工務店,,株式会社,愛知県,丹羽郡扶桑町,大字山那７３９番地３,,23,362,4800101,,,,,,,2022-12-22,1,,,,,カズコウムテン,0
1666,7180003024617,新規,0,2022-12-22,2022-12-22,合同会社ＳｕｎＳｈｏｗ企画,,合同会社,愛知県,あま市,新居屋大日１８番地エルパラッシオ３０３号,,23,237,4901105,,,,,,,2022-12-22,1,,,,,サンショウキカク,0
1667,7180003024633,新規,0,2022-12-22,2022-12-22,合同会社レクトジャパン,,合同会社,愛知県,知多郡東浦町,大字藤江字山敷１２８番地,,23,442,4702105,,,,,,,2022-12-22,1,,,,,レクトジャパン,0
1674,7190005011777,新規,0,2022-12-22,2022-12-22,行政書士法人ＫＵＢＯＴＡ,,その他の設立登記法人,三重県,津市,西丸之内９番１７号,,24,201,5140035,,,,,,,2022-12-22,1,,,,,クボタ,0
1675,7200002027155,新規,0,2022-12-22,2022-12-22,有限会社今井土建,,有限会社,岐阜県,下呂市,乗政１６１７番地,,21,220,5092311,,,,,,,2022-12-22,1,,,,,イマイドケン,0
1682,7220001025190,新規,0,2022-12-22,2022-12-22,株式会社ぷどるほーむ,,株式会社,石川県,かほく市,森ワ７１番地１０,,17,209,9291123,,,,,,,2022-12-22,1,,,,,プドルホーム,0
1686,7260001037513,新規,0,2022-12-22,2022-12-22,株式会社ＫＵＲＡ,,株式会社,岡山県,岡山市中区,新京橋３丁目７番１０号,,33,102,7038294,,,,,,,2022-12-22,1,,,,,クラ,0
1692,7290001099971,新規,0,2022-12-22,2022-12-22,株式会社自走化企画,,株式会社,福岡県,糟屋郡粕屋町,駕与丁３丁目１番５号,,40,349,8112309,,,,,,,2022-12-22,1,,,,,ジソウカキカク,0
1693,7290001099988,新規,0,2022-12-22,2022-12-22,株式会社ＹＧＳコーポレーション,,株式会社,福岡県,福岡市東区,雁の巣１丁目４８番７号,,40,131,8110206,,,,,,,2022-12-22,1,,,,,,0
1697,7310003004497,新規,0,2022-12-22,2022-12-22,合同会社円,,合同会社,長崎県,大村市,池田２丁目２７６番地３,,42,205,8560026,,,,,,,2022-12-22,1,,,,,マドカ,0
1703,7340001025253,新規,0,2022-12-22,2022-12-22,株式会社ａｂｙｓｓ,,株式会社,鹿児島県,鹿児島市,清和１丁目２１番８号,,46,201,8910109,,,,,,,2022-12-22,1,,,,,アビス,0
1728,7430003014575,新規,0,2022-12-22,2022-12-22,Ｓａｐｐｏｒｏ　Ｓｐｉｃｅ　Ｓｙｎｄｉｃａｔｅ合同会社,,合同会社,北海道,札幌市中央区,南三条西６丁目９番地Ｔ６西ビル１Ｆ,,01,101,0600063,,,,,,,2022-12-22,1,,,,,サッポロスパイスシンジケート,0
1731,7500001024668,新規,0,2022-12-22,2022-12-22,株式会社ＭＫテクノサービス,,株式会社,愛媛県,松山市,衣山５丁目１５３４番地１４,,38,201,7918025,,,,,,,2022-12-22,1,,,,,エムケイテクノサービス,0
1732,7500001024676,新規,0,2022-12-22,2022-12-22,株式会社ＨＩＲＯ　ＭＥＤＩＣＡＬ,,株式会社,愛媛県,松山市,三番町４丁目２番地５,,38,201,7900003,,,,,,,2022-12-22,1,,,,,ヒロメディカル,0
1734,7500003002936,新規,0,2022-12-22,2022-12-22,合同会社エーデル,,合同会社,愛媛県,伊予郡松前町,大字筒井６５１番地７,,38,401,7913120,,,,,,,2022-12-22,1,,,,,エーデル,0
1739,7700150113185,新規,0,2022-12-22,2022-12-01,南島原果樹フロンティア協議会,,その他,長崎県,南島原市,有家町山川５８番地１,,42,214,8592202,,,,,,,2022-12-01,1,,,,,ミナミシマバラカジユフロンテイアキヨウギカイ,0
1740,7700150113466,新規,0,2022-12-22,2022-12-22,ＭＥＧＡ　ＭＯＴＯＲＳ,,外国会社等,神奈川県,相模原市中央区,水郷田名４丁目１１－９３５－１Ａ,,14,152,2520246,スリランカ民主社会主義共和国、キャンディ、カトゥガストタロード、５８,,,,,,2022-12-22,1,,,,,メガモータース,0
1741,7700150113482,新規,0,2022-12-22,2022-12-22,ＦＯＲＭＯＳＡ　ＳＡＩＮＴ　ＪＯＳＥ　ＣＯＲＰＯＲＡＴＩＯＮ,,外国会社等,,,,,,,,１Ｆ．，Ｎｏ．３１９，Ｊｉａｘｉｎｇ　Ｓｔ．，Ｄａ’ａｎ　Ｄｉｓｔ．，Ｔａｉｐｅｉ　Ｃｉｔｙ，１０６０３５，Ｔａｉｗａｎ（Ｒ．Ｏ．Ｃ．）,,,,,,2022-12-22,1,,,,,セイシュウキギョウコブンユウシィアンゴンスー,0
1747,8010001231775,新規,0,2022-12-22,2022-12-22,Ｊａｐａｎ　Ｓｉｂｉｄ株式会社,,株式会社,東京都,文京区,本駒込４丁目２９番６号新生マンション,,13,105,1130021,,,,,,,2022-12-22,1,,,,,ジャパンスービード,0
1748,8010003039408,新規,0,2022-12-22,2022-12-22,合同会社プロテージ,,合同会社,東京都,文京区,小石川１丁目５番１号,,13,105,1120002,,,,,,,2022-12-22,1,,,,,プロテージ,0
1750,8010005035999,新規,0,2022-12-22,2022-12-22,一般社団法人ＤＲＩＦ３,,その他の設立登記法人,東京都,中央区,日本橋１丁目４番１号日本橋一丁目ビルディング,,13,102,1030027,,,,,,,2022-12-22,1,,,,,ディーアールアイエフスリー,0
1751,8010101015467,新規,0,2022-12-22,2022-12-22,ＥＸＡ株式会社,,株式会社,東京都,八王子市,上柚木２丁目２番地４,,13,201,1920373,,,,,,,2022-12-22,1,,,,,エクサ,0
1766,8010501049783,新規,0,2022-12-22,2022-12-22,ラキセス株式会社,,株式会社,東京都,台東区,東上野３丁目１５番１２号上野エムプレイスビル東上野１階１０１号,,13,106,1100015,,,,,,,2022-12-22,1,,,,,ラキセス,0
1767,8010503006824,新規,0,2022-12-22,2022-12-22,合同会社メイブルー岩崎,,合同会社,東京都,台東区,日本堤２丁目３５番４号,,13,106,1110021,,,,,,,2022-12-22,1,,,,,メイブルーイワサキ,0
1769,8010603009909,新規,0,2022-12-22,2022-12-22,合同会社結,,合同会社,東京都,江東区,清澄３丁目９番１３号,,13,108,1350024,,,,,,,2022-12-22,1,,,,,ユイ,0
1776,8010705003462,新規,0,2022-12-22,2022-12-22,一般社団法人日本経営東京,,その他の設立登記法人,東京都,品川区,東品川２丁目２番２０号天王洲オーシャンスクエア２２階,,13,109,1400002,,,,,,,2022-12-22,1,,,,,ニホンケイエイトウキョウ,0
1779,8010901052180,新規,0,2022-12-22,2022-12-22,ＮＴＨＮＧ株式会社,,株式会社,東京都,世田谷区,世田谷１丁目３６番１６号エスティビルディングＧ,,13,112,1540017,,,,,,,2022-12-22,1,,,,,ナッシング,0
1780,8010901052206,新規,0,2022-12-22,2022-12-22,株式会社ＮＡＲＩＡＧＡＲＩ,,株式会社,東京都,世田谷区,船橋５丁目３５－２,,13,112,1560055,,,,,,,2022-12-22,1,,,,,ナリアガリ,0
1784,8011001151617,新規,0,2022-12-22,2022-12-22,株式会社ＴＲＥＮＤ　ＰＵＮＣＨ　ＪＡＰＡＮ,,株式会社,東京都,渋谷区,笹塚１丁目５９番２１号６０２,,13,113,1510073,,,,,,,2022-12-22,1,,,,,トレンドパンチジャパン,0
1790,8011101101273,新規,0,2022-12-22,2022-12-22,エムワイキューブ株式会社,,株式会社,東京都,新宿区,若宮町２１番地１,,13,104,1620827,,,,,,,2022-12-22,1,,,,,エムワイキューブ,0
1791,8011105010487,新規,0,2022-12-22,2022-12-22,一般社団法人債務整理メディア協会,,その他の設立登記法人,東京都,新宿区,新宿６丁目２７番２９－７１４号,,13,104,1600022,,,,,,,2022-12-22,1,,,,,サイムセイリメディアキョウカイ,0
1797,8011501028777,新規,0,2022-12-22,2022-12-22,源株式会社,,株式会社,東京都,北区,浮間１丁目１番１４号リムジンビル３４０,,13,117,1150051,,,,,,,2022-12-22,1,,,,,ミナモト,0
1798,8011501028785,新規,0,2022-12-22,2022-12-22,ＴＴＬ株式会社,,株式会社,東京都,北区,滝野川３丁目９－２西巣鴨ＫＴＢビル３０３,,13,117,1140023,,,,,,,2022-12-22,1,,,,,ティティエル,0
1801,8011601026458,新規,0,2022-12-22,2022-12-22,プロステリア株式会社,,株式会社,東京都,練馬区,豊玉北６丁目１４番１１号ＫＳビル６０１号,,13,120,1760012,,,,,,,2022-12-22,1,,,,,プロステリア,0
1803,8011701025896,新規,0,2022-12-22,2022-12-22,株式会社Ｋフィールド,,株式会社,東京都,江戸川区,中葛西８丁目１９番３０号,,13,123,1340083,,,,,,,2022-12-22,1,,,,,ケイフィールド,0
1805,8012305002035,新規,0,2022-12-22,2022-12-22,一般社団法人セルフケア普及協会,,その他の設立登記法人,東京都,町田市,成瀬が丘２丁目２４番地２成瀬ビル４階,,13,209,1940011,,,,,,,2022-12-22,1,,,,,セルフケアフキュウキョウカイ,0
1813,8013301050102,新規,0,2022-12-22,2022-12-22,株式会社ＤＫ,,株式会社,東京都,豊島区,池袋２丁目６番１号ＫＤＸ池袋ビル８階（株式会社グロウ・コンサルタント内）,,13,116,1710014,,,,,,,2022-12-22,1,,,,,ディーケー,0
1833,8020003022940,新規,0,2022-12-22,2022-12-22,合同会社佐藤材木店,,合同会社,神奈川県,川崎市宮前区,水沢１丁目２番１３号,,14,136,2160012,,,,,,,2022-12-22,1,,,,,サトウザイモクテン,0
1834,8020005015785,新規,0,2022-12-22,2022-12-22,医療法人社団香風会,,その他の設立登記法人,神奈川県,川崎市幸区,南加瀬３丁目５番３号トキワクリニックビル２階,,14,132,2120055,,,,,,,2022-12-22,1,,,,,コウフウカイ,0
1839,8021003012502,新規,0,2022-12-22,2022-12-22,合同会社Ｄ‐Ｌｉｆｅ,,合同会社,神奈川県,秦野市,平沢１５１３－４,,14,211,2570015,,,,,,,2022-12-22,1,,,,,ディーライフ,0
1845,8030001151583,新規,0,2022-12-22,2022-12-22,ホンダ工務店株式会社,,株式会社,埼玉県,久喜市,江面１４０３番地２４,,11,232,3460029,,,,,,,2022-12-22,1,,,,,ホンダコウムテン,0
1846,8030001151609,新規,0,2022-12-22,2022-12-22,株式会社ＥＩＳ,,株式会社,埼玉県,熊谷市,桜木町２丁目５番１０５,,11,202,3600036,,,,,,,2022-12-22,1,,,,,イーアイエス,0
1858,8040001126304,新規,0,2022-12-22,2022-12-22,サンライズハウジング株式会社,,株式会社,千葉県,佐倉市,中志津２丁目１８番３号,,12,212,2850843,,,,,,,2022-12-22,1,,,,,サンライズハウジング,0
1859,8040001126337,新規,0,2022-12-22,2022-12-22,株式会社ＮＥＸＴ　ＯＶＡＴＩＯＮ,,株式会社,千葉県,千葉市中央区,千葉寺町２０８番地,,12,101,2600844,,,,,,,2022-12-22,1,,,,,ネクストオベーション,0
1874,8080001025361,新規,0,2022-12-22,2022-12-22,静建株式会社,,株式会社,静岡県,静岡市清水区,駒越西１丁目６番２－２号,,22,103,4240905,,,,,,,2022-12-22,1,,,,,セイケン,0
1878,8090001017903,新規,0,2022-12-22,2022-12-22,ＳＨ株式会社,,株式会社,山梨県,甲州市,塩山三日市場１７３６番地６,,19,213,4040047,,,,,,,2022-12-22,1,,,,,エスエイチ,0
1881,8110001037188,新規,0,2022-12-22,2022-12-22,Ｈｏｕｓｅ　Ｃａｔ株式会社,,株式会社,新潟県,新潟市東区,中島１丁目７番２－１１０６号,,15,102,9500824,,,,,,,2022-12-22,1,,,,,ハウスキャット,0
1884,8110005016881,新規,0,2022-12-22,2022-12-22,農事組合法人ファーマーズ木戸,,その他の設立登記法人,新潟県,佐渡市,羽茂本郷６３２４番地６,,15,224,9520504,,,,,,,2022-12-22,1,,,,,ファーマーズキド,0
1893,8120003023136,新規,0,2022-12-22,2022-12-22,合同会社千葉雅也事務所,,合同会社,大阪府,大阪市北区,中崎西３丁目２番１７－３０３号,,27,127,5300015,,,,,,,2022-12-22,1,,,,,チバマサヤジムショ,0
1914,8130001073339,新規,0,2022-12-22,2022-12-22,谷豊株式会社,,株式会社,京都府,京都市北区,大北山原谷乾町４７－９－２０３,,26,101,6038487,,,,,,,2022-12-22,1,,,,,タニトヨ,0
1915,8130001073347,新規,0,2022-12-22,2022-12-22,株式会社ヤマト建設,,株式会社,京都府,京都市左京区,田中関田町２番地１７－２Ｆ,,26,103,6068203,,,,,,,2022-12-22,1,,,,,ヤマトケンセツ,0
1917,8140001128505,新規,0,2022-12-22,2022-12-22,タニヤスホールディングス株式会社,,株式会社,兵庫県,洲本市,安乎町平安浦５３０番地２３,,28,205,6562121,,,,,,,2022-12-22,1,,,,,タニヤスホールディングス,0
1931,8180001154282,新規,0,2022-12-22,2022-12-22,株式会社イイエンジニア,,株式会社,愛知県,名古屋市南区,寺崎町７番１号,,23,112,4570013,,,,,,,2022-12-22,1,,,,,イイエンジニア,0
1933,8180003024632,新規,0,2022-12-22,2022-12-22,Ｆｒｅｓｈ　Ｌａｎｇｕａｇｅ　Ｉｎｓｔｉｔｕｔｅ合同会社,,合同会社,愛知県,一宮市,木曽川町玉ノ井字新屋敷四ノ切２５番地,,23,203,4930004,,,,,,,2022-12-22,1,,,,,フレッシュランゲージインスティテュート,0
1935,8190001030045,新規,0,2022-12-22,2022-12-22,株式会社はんざや,,株式会社,三重県,志摩市,浜島町浜島２７４５番地,,24,215,5170404,,,,,,,2022-12-22,1,,,,,ハンザヤ,0
1947,8260001037512,新規,0,2022-12-22,2022-12-22,株式会社ＴＯ‐ＧＥＮ,,株式会社,岡山県,岡山市北区,田中１３９番地１０８アークヒルマンション２０３号,,33,101,7000951,,,,,,,2022-12-22,1,,,,,トーゲン,0
1953,8290001099962,新規,0,2022-12-22,2022-12-22,株式会社ＴＳ,,株式会社,福岡県,久留米市,宮ノ陣４丁目１２番地１号,,40,203,8390801,,,,,,,2022-12-22,1,,,,,ティーエス,0
1956,8290003013327,新規,0,2022-12-22,2022-12-22,合同会社ＭＭＹコンサルティング,,合同会社,福岡県,福岡市城南区,七隈６丁目１８番５－３０９号アルファステイツ七隈,,40,136,8140133,,,,,,,2022-12-22,1,,,,,エムエムワイコンサルティング,0
1957,8290801029144,新規,0,2022-12-22,2022-12-22,Ｋ＆Ｃｏ株式会社,,株式会社,福岡県,京都郡苅田町,大字苅田２５１２番地９,,40,621,8000365,,,,,,,2022-12-22,1,,,,,ケーアンドコー,0
1961,8320003003976,新規,0,2022-12-22,2022-12-22,合同会社きょうや,,合同会社,大分県,大分市,府内町１丁目２番２号１Ｆ,,44,201,8700021,,,,,,,2022-12-22,1,,,,,キョウヤ,0
1964,8330001030393,新規,0,2022-12-22,2022-12-22,株式会社ＳＫＵ,,株式会社,熊本県,熊本市中央区,坪井４丁目２番５６号アルカンシェル坪井８０２号,,43,101,8600863,,,,,,,2022-12-22,1,,,,,エスケーユー,0
1965,8330001030427,新規,0,2022-12-22,2022-12-22,株式会社天使のまほろば,,株式会社,熊本県,玉名市,月田１３２７番地,,43,206,8650001,,,,,,,2022-12-22,1,,,,,テンシノマホロバ,0
1973,8350003004245,新規,0,2022-12-22,2022-12-22,合同会社ＲＳＳ宮崎,,合同会社,宮崎県,宮崎市,大島町笹原２０１６番地ケントパレス宮崎５０５号,,45,201,8800824,,,,,,,2022-12-22,1,,,,,アールエスエスミヤザキ,0
1984,8400003003010,新規,0,2022-12-22,2022-12-22,合同会社インセクト,,合同会社,岩手県,盛岡市,東黒石野３丁目５番７号－１０１,,03,201,0200108,,,,,,,2022-12-22,1,,,,,インセクト,0
1988,8430003014574,新規,0,2022-12-22,2022-12-22,合同会社おいもやカンパニー,,合同会社,北海道,江別市,一番町１１番地の２,,01,217,0670072,,,,,,,2022-12-22,1,,,,,オイモヤカンパニー,0
1990,8440001009204,新規,0,2022-12-22,2022-12-22,株式会社ななえ商業開発,,株式会社,北海道,函館市,千歳町２７番８号,,01,202,0400033,,,,,,,2022-12-22,1,,,,,ナナエショウギョウカイハツ,0
1996,8500001024667,新規,0,2022-12-22,2022-12-22,株式会社ｆｕｌｍｅ．,,株式会社,愛媛県,松山市,朝生田町７丁目１番３２号ＥＨＩＭＥＴＡビル１０２,,38,201,7900952,,,,,,,2022-12-22,1,,,,,フルミー,0
1997,8500001024675,新規,0,2022-12-22,2022-12-22,株式会社ｉｓｓｕｅｓ,,株式会社,愛媛県,松山市,会津町１１番２１号,,38,201,7918076,,,,,,,2022-12-22,1,,,,,イシュー,0
2000,8700150113481,新規,0,2022-12-22,2022-12-22,新義成実宗　石山　貴宝院,,その他,東京都,台東区,元浅草１丁目１９－９サンポービル８階,,13,106,1110041,,,,,,,2022-12-22,1,,,,,シンギジョウジツシュウイシヤマキホウイン,0
2012,9010001231675,新規,0,2022-12-22,2022-12-22,株式会社ＰＡＲＡ,,株式会社,東京都,千代田区,神田神保町２丁目２０－１２第二富士ビル４Ｆ,,13,101,1010051,,,,,,,2022-12-22,1,,,,,パラ,0
2014,9010003039407,新規,0,2022-12-22,2022-12-22,はなまるエステート合同会社,,合同会社,東京都,中央区,佃２丁目１１番６号,,13,102,1040051,,,,,,,2022-12-22,1,,,,,ハナマルエステート,0
2016,9010101015466,新規,0,2022-12-22,2022-12-22,株式会社Ｒ‐ｂｅ　ａｒｃｈｉｔｅｃｔｓ,,株式会社,東京都,八王子市,元本郷町１丁目９番５号,,13,201,1920051,,,,,,,2022-12-22,1,,,,,アールビーアーキテクツ,0
2037,9010901052205,新規,0,2022-12-22,2022-12-22,株式会社Ｗワーク,,株式会社,東京都,世田谷区,下馬１丁目１番７－３０３号,,13,112,1540002,,,,,,,2022-12-22,1,,,,,ダブルワーク,0
2039,9010903007859,新規,0,2022-12-22,2022-12-22,合同会社リキッドゲート,,合同会社,東京都,世田谷区,代田２丁目１９番１６号Ｏ．Ｄ．ハウス２０３,,13,112,1550033,,,,,,,2022-12-22,1,,,,,リキッドゲート,0
2041,9011001151590,新規,0,2022-12-22,2022-12-22,株式会社オフィス楡,,株式会社,東京都,渋谷区,広尾４丁目１－２５－８０７,,13,113,1500012,,,,,,,2022-12-22,1,,,,,オフィスニレ,0
2042,9011001151599,新規,0,2022-12-22,2022-12-22,株式会社ＭｅｔａＫｏｚｏ　Ｌａｂ,,株式会社,東京都,渋谷区,道玄坂１丁目１０番８号渋谷道玄坂東急ビル２Ｆ－Ｃ,,13,113,1500043,,,,,,,2022-12-22,1,,,,,メタコゾーラボ,0
2047,9011303004620,新規,0,2022-12-22,2022-12-22,ＪＮＴ合同会社,,合同会社,東京都,杉並区,和泉４丁目１番２２－６０８号,,13,115,1680063,,,,,,,2022-12-22,1,,,,,ジェイエヌティ,0
2050,9011601026457,新規,0,2022-12-22,2022-12-22,株式会社ＶＩＮＴＡＧＥ　ＭＡＣＨＩＮＥ,,株式会社,東京都,練馬区,南大泉５丁目３６番３号,,13,120,1780064,,,,,,,2022-12-22,1,,,,,ヴィンテージマシーン,0
2052,9011803005440,新規,0,2022-12-22,2022-12-22,合同会社ＴＳ,,合同会社,東京都,足立区,本木南町１２―５,,13,121,1230855,,,,,,,2022-12-22,1,,,,,ティーエス,0
2055,9012401039987,新規,0,2022-12-22,2022-12-22,株式会社Ｋｉｄ　Ａ,,株式会社,東京都,武蔵野市,吉祥寺南町２丁目１３番１２号,,13,203,1800003,,,,,,,2022-12-22,1,,,,,キッドエー,0
2073,9020005015784,新規,0,2022-12-22,2022-12-22,ＮＰＯ法人神奈川区多文化共生の会,,その他の設立登記法人,神奈川県,横浜市神奈川区,六角橋１丁目１０番１１号すぺーすろっかく内,,14,102,2210802,,,,,,,2022-12-22,1,,,,,カナガワクタブンカキョウセイノカイ,0
2077,9021001077744,新規,0,2022-12-22,2022-12-22,株式会社ＨＯＰＥ,,株式会社,神奈川県,相模原市中央区,相模原２丁目１０－７,,14,152,2520231,,,,,,,2022-12-22,1,,,,,ホープ,0
2078,9021001077777,新規,0,2022-12-22,2022-12-22,株式会社平塚きのこファクトリー,,株式会社,神奈川県,平塚市,上吉沢７２６番地の４,,14,203,2591204,,,,,,,2022-12-22,1,,,,,ヒラツカキノコファクトリー,0
2082,9021003012534,新規,0,2022-12-22,2022-12-22,合同会社ＴＯＢＡＲＩ,,合同会社,神奈川県,大和市,中央２丁目１－１０ＭＹビル２０２,,14,213,2420021,,,,,,,2022-12-22,1,,,,,トバリ,0
2090,9030001151574,新規,0,2022-12-22,2022-12-22,クローバーリンク株式会社,,株式会社,埼玉県,草加市,新善町５９―１７,,11,221,3400054,,,,,,,2022-12-22,1,,,,,クローバーリンク,0
2091,9030001151582,新規,0,2022-12-22,2022-12-22,株式会社ビストロ狭山,,株式会社,埼玉県,富士見市,渡戸３丁目１２－２８,,11,235,3540032,,,,,,,2022-12-22,1,,,,,ビストロサヤマ,0
2092,9030001151590,新規,0,2022-12-22,2022-12-22,株式会社ＨＭ,,株式会社,埼玉県,戸田市,上戸田５丁目３番１２号,,11,224,3350022,,,,,,,2022-12-22,1,,,,,エイチエム,0
2094,9030003020793,新規,0,2022-12-22,2022-12-22,合同会社ドゥ・アッシュ,,合同会社,埼玉県,新座市,大和田１丁目１９番２４号,,11,230,3520004,,,,,,,2022-12-22,1,,,,,ドゥアッシュ,0
2095,9030003020810,新規,0,2022-12-22,2022-12-22,合同会社ＣＯＵＮＴ,,合同会社,埼玉県,入間市,豊岡５丁目２番２３号１０１号室,,11,225,3580003,,,,,,,2022-12-22,1,,,,,カウント,0
2102,9040001126303,新規,0,2022-12-22,2022-12-22,株式会社ＬＥＡＬＥ,,株式会社,千葉県,市原市,うるいど南２丁目１０番地８６,,12,219,2900170,,,,,,,2022-12-22,1,,,,,レアーレ,0
2103,9040001126311,新規,0,2022-12-22,2022-12-22,株式会社Ｒｅ．Ｓｏｕｌ９６,,株式会社,千葉県,印旛郡栄町,竜角寺台２丁目１７番１８号,,12,329,2701505,,,,,,,2022-12-22,1,,,,,レソウルキュウロク,0
2104,9040001126336,新規,0,2022-12-22,2022-12-22,株式会社伊藤新聞店,,株式会社,千葉県,鴨川市,前原９,,12,223,2960002,,,,,,,2022-12-22,1,,,,,イトウシンブンテン,0
2105,9040001126344,新規,0,2022-12-22,2022-12-22,株式会社ハイラック,,株式会社,千葉県,松戸市,常盤平西窪町７番地の１３,,12,207,2702266,,,,,,,2022-12-22,1,,,,,ハイラック,0
2106,9040001126352,新規,0,2022-12-22,2022-12-22,株式会社リードホームテック,,株式会社,千葉県,四街道市,千代田３丁目３５番７号,,12,228,2840015,,,,,,,2022-12-22,1,,,,,リードホームテック,0
2110,9040003021543,新規,0,2022-12-22,2022-12-22,ＭＡＲＩＹＡＭＳ　ＨＯＬＤＩＮＧ合同会社,,合同会社,千葉県,山武市,小松２６２６番地５,,12,237,2891302,,,,,,,2022-12-22,1,,,,,マリヤムスホールディング,0
2111,9040003021551,新規,0,2022-12-22,2022-12-22,合同会社ＪＵＮ‐ＮＥＸＴ,,合同会社,千葉県,流山市,東初石２丁目９１－６－５０８,,12,220,2700114,,,,,,,2022-12-22,1,,,,,ジュンネクスト,0
2114,9050003007104,新規,0,2022-12-22,2022-12-22,ＰＲＯ‐Ｊ合同会社,,合同会社,茨城県,つくば市,沼崎５３７番地１,,08,220,3002631,,,,,,,2022-12-22,1,,,,,プロジェイ,0
2117,9060001035551,新規,0,2022-12-22,2022-12-22,ＭＵＮＩＲ　ＴＲＡＤＩＮＧ株式会社,,株式会社,栃木県,真岡市,中１７４番地１Ｍハウス中１階Ｂ棟,,09,209,3214351,,,,,,,2022-12-22,1,,,,,ムニールトレーディング,0
2129,9090001017902,新規,0,2022-12-22,2022-12-22,株式会社イロリ,,株式会社,山梨県,甲府市,丸の内１丁目１６－２０－１２０９,,19,201,4000031,,,,,,,2022-12-22,1,,,,,,0
2136,9100001035984,新規,0,2022-12-22,2022-12-22,株式会社セラヴィ,,株式会社,長野県,上水内郡飯綱町,大字豊野１３９４,,20,590,3891212,,,,,,,2022-12-22,1,,,,,セラヴィ,0
2151,9120001251225,新規,0,2022-12-22,2022-12-22,日本エリア株式会社,,株式会社,大阪府,大阪市浪速区,桜川２丁目１４番９号岡本ビル２０１号室,,27,111,5560022,,,,,,,2022-12-22,1,,,,,ニホンエリア,0
2152,9120001251241,新規,0,2022-12-22,2022-12-22,株式会社サンワーク,,株式会社,大阪府,大阪市大正区,三軒家東６丁目１２番４号,,27,108,5510002,,,,,,,2022-12-22,1,,,,,サンワーク,0
2153,9120001251290,新規,0,2022-12-22,2022-12-22,株式会社ＭＭＹ,,株式会社,大阪府,大阪市中央区,本町２丁目３番４号アソルティ本町４階,,27,128,5410053,,,,,,,2022-12-22,1,,,,,エムエムワイ,0
2154,9120001251299,新規,0,2022-12-22,2022-12-22,盛源株式会社,,株式会社,大阪府,大阪市中央区,東心斎橋２丁目３番３１号１Ｆ,,27,128,5420083,,,,,,,2022-12-22,1,,,,,セイゲン,0
2158,9120003023135,新規,0,2022-12-22,2022-12-22,合同会社ＫＩＺＵＮＡ,,合同会社,大阪府,大阪市西成区,萩之茶屋３丁目２番１３号はぎのちゃやビル３０３号室,,27,122,5570004,,,,,,,2022-12-22,1,,,,,キズナ,0
2161,9120101066705,新規,0,2022-12-22,2022-12-22,株式会社ｈａｔｈｏｒ,,株式会社,大阪府,泉南市,樽井３丁目２３番２３号,,27,228,5900521,,,,,,,2022-12-22,1,,,,,ハトル,0
2162,9120101066721,新規,0,2022-12-22,2022-12-22,恩典物資株式会社,,株式会社,大阪府,堺市南区,晴美台２丁４５番４号,,27,145,5900113,,,,,,,2022-12-22,1,,,,,オンテンブッシ,0
2169,9120903004432,新規,0,2022-12-22,2022-12-22,合同会社はなふく,,合同会社,大阪府,豊中市,大島町１丁目２番１２－１００３号,,27,203,5610824,,,,,,,2022-12-22,1,,,,,ハナフク,0
2171,9130001073346,新規,0,2022-12-22,2022-12-22,昊陽株式会社,,株式会社,京都府,京都市下京区,七条通間之町東入材木町４６８番地コスモ・エスティー・河原町７０３号室,,26,106,6008146,,,,,,,2022-12-22,1,,,,,コウヨウ,0
2173,9130003008390,新規,0,2022-12-22,2022-12-22,Ｓｕｎ　Ｒｉｓｅ合同会社,,合同会社,京都府,京都市西京区,大枝北福西町１丁目３－１、２８棟５０４号,,26,111,6101112,,,,,,,2022-12-22,1,,,,,サンライズ,0
2178,9140005026415,新規,0,2022-12-22,2022-12-22,税理士法人福如雲,,その他の設立登記法人,兵庫県,明石市,大道町２丁目１１番２２号,,28,203,6730029,,,,,,,2022-12-22,1,,,,,フクジョウン,0
2194,9190003004178,新規,0,2022-12-22,2022-12-22,合同会社北村配送サービス,,合同会社,三重県,津市,戸木町４１５２―３０５,,24,201,5141138,,,,,,,2022-12-22,1,,,,,キタムラハイソウサービス,0
2206,9220001025189,新規,0,2022-12-22,2022-12-22,株式会社ＵＮＢＯＲＤＥＲ,,株式会社,石川県,金沢市,増泉４丁目８番２３号,,17,201,9218025,,,,,,,2022-12-22,1,,,,,アンボーダー,0
2207,9220003003416,新規,0,2022-12-22,2022-12-22,合資会社朝日,,合資会社,石川県,能美市,福島町い１０１,,17,211,9290112,,,,,,,2022-12-22,1,,,,,アサヒ,0
2217,9280001008849,新規,0,2022-12-22,2022-12-22,幸和株式会社,,株式会社,島根県,雲南市,木次町新市１７６番地,,32,209,6991334,,,,,,,2022-12-22,1,,,,,コウワ,0
2227,9290001099994,新規,0,2022-12-22,2022-12-22,株式会社ＩＯ２,,株式会社,福岡県,福岡市博多区,比恵町１番１８号東カン福岡第二ビル２０１号室,,40,132,8120014,,,,,,,2022-12-22,1,,,,,アイオーツー,0
2228,9290003013334,新規,0,2022-12-22,2022-12-22,３Ｋファミリー合同会社,,合同会社,福岡県,久留米市,東櫛原町１９２７番地２６ライオンズマンション中央公園１０４号,,40,203,8300003,,,,,,,2022-12-22,1,,,,,サンケイファミリー,0
2230,9300001013169,新規,0,2022-12-22,2022-12-22,株式会社西田電機,,株式会社,佐賀県,嬉野市,塩田町大字大草野丙１３５６番地,,41,209,8491415,,,,,,,2022-12-22,1,,,,,ニシダデンキ,0
2239,9340001025251,新規,0,2022-12-22,2022-12-22,株式会社水星,,株式会社,鹿児島県,霧島市,隼人町松永９４８番地１,,46,218,8995112,,,,,,,2022-12-22,1,,,,,スイセイ,0
2242,9350003004244,新規,0,2022-12-22,2022-12-22,合同会社ＶＥＳＥＬ,,合同会社,宮崎県,都城市,牟田町１１街区２号,,45,202,8850079,,,,,,,2022-12-22,1,,,,,ベセル,0
2252,9410001013348,新規,0,2022-12-22,2022-12-22,株式会社ＫＩＫＵＣＨＩ,,株式会社,秋田県,由利本荘市,大内三川字三川２０番地,,05,210,0180731,,,,,,,2022-12-22,1,,,,,キクチ,0
2257,9440001009203,新規,0,2022-12-22,2022-12-22,株式会社マルヤ木村水産,,株式会社,北海道,二海郡八雲町,山越１８４番地１,,01,346,0492671,,,,,,,2022-12-22,1,,,,,マルヤキムラスイサン,0
