sequenceNumber,corporateNumber,process,correct,updateDate,changeDate,name,nameImageId,kind,prefectureName,cityName,streetNumber,addressImageId,prefectureCode,cityCode,postCode,addressOutside,addressOutsideImageId,closeDate,closeCause,successorCorporateNumber,changeCause,assignmentDate,latest,enName,enPrefectureName,enCityName,enAddressOutside,furigana,hihyoji
14,1010001222525,新規,0,2021-11-15,2021-11-15,株式会社オリズム,,株式会社,東京都,中央区,銀座１丁目２２－１１,,13,102,1040061,,,,,,,2021-11-15,1,,,,,オリズム,0
15,1010001222590,新規,0,2021-11-15,2021-11-15,株式会社アセットプラス,,株式会社,東京都,中央区,銀座６丁目６番１号,,13,102,1040061,,,,,,,2021-11-15,1,,,,,アセットプラス,0
16,1010005034207,新規,0,2021-11-15,2021-11-15,サムティ・ジャパンホテル投資法人,,その他の設立登記法人,東京都,千代田区,丸の内１丁目８番３号,,13,101,1000005,,,,,,,2021-11-15,1,,,,,サムティジャパンホテル,0
24,1010401163831,新規,0,2021-11-15,2021-11-15,Ｔｅｃｈｃａｎ株式会社,,株式会社,東京都,港区,南青山２丁目２番１５号,,13,103,1070062,,,,,,,2021-11-15,1,,,,,テックチャン,0
25,1010401163889,新規,0,2021-11-15,2021-11-15,株式会社Ａ－Ｍｉｔｉｅ,,株式会社,東京都,港区,南青山２丁目２７番２８号１１階,,13,103,1070062,,,,,,,2021-11-15,1,,,,,アミティエ,0
31,1010701041778,新規,0,2021-11-15,2021-11-15,株式会社ＡＸＬ,,株式会社,東京都,品川区,東品川１丁目８番１－５０６号,,13,109,1400002,,,,,,,2021-11-15,1,,,,,アクセル,0
36,1010903006934,新規,0,2021-11-15,2021-11-15,ＦＯＵＲ　ＳＱＵＡＲＥ合同会社,,合同会社,東京都,世田谷区,若林２丁目２２番１４号,,13,112,1540023,,,,,,,2021-11-15,1,,,,,フォースクエア,0
45,1011001143967,新規,0,2021-11-15,2021-11-15,株式会社渋谷社中,,株式会社,東京都,渋谷区,東１丁目３２番１２号株式会社プロパティー事務所内,,13,113,1500011,,,,,,,2021-11-15,1,,,,,シブヤシャチュウ,0
46,1011001144008,新規,0,2021-11-15,2021-11-15,野田綜合Ｍ＆Ａコンサルティング株式会社,,株式会社,東京都,渋谷区,恵比寿１丁目６番５号ＳｉＳｔａＳａｉｔｏビル５階,,13,113,1500013,,,,,,,2021-11-15,1,,,,,ノダソウゴウエムアンドエーコンサルティング,0
51,1011005009297,新規,0,2021-11-15,2021-11-15,一般社団法人日本美容フリーランス協会,,その他の設立登記法人,東京都,渋谷区,渋谷１丁目１２番１号カレイド渋谷宮益坂ビル４階－Ａ,,13,113,1500002,,,,,,,2021-11-15,1,,,,,ニホンビヨウフリーランスキョウカイ,0
53,1011101096867,新規,0,2021-11-15,2021-11-15,株式会社ＣＯＯＬ,,株式会社,東京都,新宿区,大久保２丁目２０番１４号,,13,104,1690072,,,,,,,2021-11-15,1,,,,,クール,0
54,1011101096891,新規,0,2021-11-15,2021-11-15,株式会社オリーブ,,株式会社,東京都,新宿区,西新宿３丁目７番１号新宿パークタワー３０階,,13,104,1600023,,,,,,,2021-11-15,1,,,,,オリーブ,0
58,1011301027333,新規,0,2021-11-15,2021-11-15,株式会社ビーストーン,,株式会社,東京都,杉並区,宮前４丁目２７番１９号,,13,115,1680081,,,,,,,2021-11-15,1,,,,,ビーストーン,0
60,1011503004972,新規,0,2021-11-15,2021-11-15,瑞醸合同会社,,合同会社,東京都,北区,浮間１丁目１番１４号リムジンビル２３０,,13,117,1150051,,,,,,,2021-11-15,1,,,,,ミズジョウ,0
61,1011701024839,新規,0,2021-11-15,2021-11-15,株式会社蓮美鳶興業,,株式会社,東京都,江戸川区,鹿骨４丁目２０番１９号ＰＩＥＲ６１－２０３,,13,123,1330073,,,,,,,2021-11-15,1,,,,,ハスミトビコウギョウ,0
71,1013101008769,新規,0,2021-11-15,2021-11-15,橘株式会社,,株式会社,東京都,福生市,武蔵野台２丁目１２番６号３０３号,,13,218,1970013,,,,,,,2021-11-15,1,,,,,タチバナ,0
74,1013303005903,新規,0,2021-11-15,2021-11-15,合同会社ピーチキャピタル,,合同会社,東京都,豊島区,上池袋１丁目２６番６号上池袋タワーレジデンス２００１号,,13,116,1700012,,,,,,,2021-11-15,1,,,,,ピーチキャピタル,0
79,1020001143943,新規,0,2021-11-15,2021-11-15,株式会社創億恒産,,株式会社,神奈川県,横浜市中区,山下町１３７番地１６,,14,104,2310023,,,,,,,2021-11-15,1,,,,,ソウオクコウサン,0
83,1020003020819,新規,0,2021-11-15,2021-11-15,合同会社ヨコケン,,合同会社,神奈川県,横浜市港北区,新吉田町４４８１番地宮田商会貸工場Ｂ－２,,14,109,2230056,,,,,,,2021-11-15,1,,,,,ヨコケン,0
84,1020003020827,新規,0,2021-11-15,2021-11-15,合同会社Ｈｅｌｉｏｓ,,合同会社,神奈川県,横浜市中区,元浜町３丁目２３番地プロスタイル横浜馬車道４０４号室,,14,104,2310004,,,,,,,2021-11-15,1,,,,,ヘリオス,0
106,1030003018317,新規,0,2021-11-15,2021-11-15,ＣＯＲＳＡ合同会社,,合同会社,埼玉県,川越市,神明町６６番地３,,11,201,3500823,,,,,,,2021-11-15,1,,,,,コルサ,0
132,1040003018927,新規,0,2021-11-15,2021-11-15,合同会社チエナミ商会,,合同会社,千葉県,市川市,南行徳４丁目１８番２号Ｕ’ｓＲｅｓｉｄｅｎｃｅ南行徳２０５号室,,12,203,2720138,,,,,,,2021-11-15,1,,,,,チエナミショウカイ,0
134,1050001050138,新規,0,2021-11-15,2021-11-15,株式会社グループＫＡＷＡＺＵ本社,,株式会社,茨城県,水戸市,千波町７７７番地,,08,201,3100851,,,,,,,2021-11-15,1,,,,,グループカワヅホンシャ,0
143,1080001024576,新規,0,2021-11-15,2021-11-15,新栄工機株式会社,,株式会社,静岡県,焼津市,大栄町２丁目８番９号,,22,212,4250081,,,,,,,2021-11-15,1,,,,,シンエイコウキ,0
144,1080001024584,新規,0,2021-11-15,2021-11-15,株式会社ｃｏｍｍｏｎ　ｓｅｎｓｅ　ｉｎｎｏｖａｔｉｏｎ,,株式会社,静岡県,藤枝市,駅前１丁目３番４号,,22,214,4260034,,,,,,,2021-11-15,1,,,,,コモンセンスイノベーション,0
145,1080003002679,新規,0,2021-11-15,2021-11-15,合同会社富貴,,合同会社,静岡県,静岡市駿河区,池田３７３番地,,22,102,4228005,,,,,,,2021-11-15,1,,,,,フキ,0
172,1120001241786,新規,0,2021-11-15,2021-11-15,株式会社モノクローム,,株式会社,大阪府,大阪市大正区,三軒家東５丁目１番２７－１００４号,,27,108,5510002,,,,,,,2021-11-15,1,,,,,モノクローム,0
173,1120001241811,新規,0,2021-11-15,2021-11-15,株式会社Ｔ・Ｓ・Ｔ,,株式会社,大阪府,大阪市中央区,南久宝寺町３丁目４番１４号三興ビル８０４号,,27,128,5410058,,,,,,,2021-11-15,1,,,,,ティーエスティー,0
174,1120001241836,新規,0,2021-11-15,2021-11-15,万象株式会社,,株式会社,大阪府,大阪市阿倍野区,天王寺町北１丁目８－４７－３２５号,,27,119,5450001,,,,,,,2021-11-15,1,,,,,バンショウ,0
175,1120001241910,新規,0,2021-11-15,2021-11-15,株式会社飛燕,,株式会社,大阪府,大阪市北区,中津１丁目１７番２６号,,27,127,5310071,,,,,,,2021-11-15,1,,,,,ヒエン,0
178,1120003020569,新規,0,2021-11-15,2021-11-15,ＡｍａｄｅｕｓＲｏｂｏｔ合同会社,,合同会社,大阪府,大阪市阿倍野区,阪南町２丁目１２番９号,,27,119,5450021,,,,,,,2021-11-15,1,,,,,アマデウスロボット,0
194,1140001123826,新規,0,2021-11-15,2021-11-15,株式会社淡路島オニオンズ,,株式会社,兵庫県,洲本市,五色浜鳥飼浦２５９９－７１７,,28,205,6560000,,,,,,,2021-11-15,1,,,,,アワジシマオニオンズ,0
195,1140001123842,新規,0,2021-11-15,2021-11-15,株式会社天才,,株式会社,兵庫県,三田市,下井沢３３３番地,,28,219,6691315,,,,,,,2021-11-15,1,,,,,テンサイ,0
196,1140001123850,新規,0,2021-11-15,2021-11-15,株式会社Ｈｙｐｅｒｉｏｎ,,株式会社,兵庫県,神戸市灘区,篠原南町２丁目３番２１号,,28,102,6570059,,,,,,,2021-11-15,1,,,,,ハイペリオン,0
200,1140003016978,新規,0,2021-11-15,2021-11-15,合同会社和親,,合同会社,兵庫県,神戸市北区,鈴蘭台西町３丁目７番２号、和楽ビル,,28,109,6511114,,,,,,,2021-11-15,1,,,,,ワシン,0
205,1170003001663,新規,0,2021-11-15,2021-11-15,ライフリーフ合同会社,,合同会社,和歌山県,紀の川市,貴志川町長山２７７番地６,,30,208,6400416,,,,,,,2021-11-15,1,,,,,ライフリーフ,0
212,1180001148695,新規,0,2021-11-15,2021-11-15,Ｃｏｎｎｅｃｔ－ｅｄ株式会社,,株式会社,愛知県,名古屋市北区,杉村１丁目１３番１９号,,23,103,4620835,,,,,,,2021-11-15,1,,,,,コネクティッド,0
213,1180001148729,新規,0,2021-11-15,2021-11-15,Ｒｅ‐ＴＥＣ株式会社,,株式会社,愛知県,名古屋市守山区,笹ヶ根１丁目５０６番地の３,,23,113,4630812,,,,,,,2021-11-15,1,,,,,リーテック,0
221,1180003023186,新規,0,2021-11-15,2021-11-15,合同会社ＹＯＮＰＯ,,合同会社,愛知県,名古屋市名東区,石が根町６８番地の７,,23,115,4650023,,,,,,,2021-11-15,1,,,,,ヨンポ,0
222,1180005019513,新規,0,2021-11-15,2021-11-15,ホープライン協同組合,,その他の設立登記法人,愛知県,名古屋市南区,東又兵ヱ町１丁目５６番地,,23,112,4570833,,,,,,,2021-11-15,1,,,,,ホープライン,0
225,1180301035627,新規,0,2021-11-15,2021-11-15,株式会社オギソテイ,,株式会社,愛知県,知立市,上重原町中根８０番地１,,23,225,4720026,,,,,,,2021-11-15,1,,,,,オギソテイ,0
232,1190001028855,新規,0,2021-11-15,2021-11-15,株式会社Ｐａｋｕ　Ｐａｋｕ,,株式会社,三重県,三重郡菰野町,大字潤田３６９番地１,,24,341,5101253,,,,,,,2021-11-15,1,,,,,パクパク,0
233,1190001028863,新規,0,2021-11-15,2021-11-15,株式会社高倉住電,00124849,株式会社,三重県,三重郡菰野町,大字菰野８４７４番地２９,,24,341,5101233,,,,,,,2021-11-15,1,,,,,タカクラジュウデン,0
239,1200001039405,新規,0,2021-11-15,2021-11-15,株式会社明豊創建,,株式会社,岐阜県,岐阜市,西中島３丁目１１番２０号,,21,201,5020916,,,,,,,2021-11-15,1,,,,,メイホウソウケン,0
244,1240001058905,新規,0,2021-11-15,2021-11-15,株式会社Ｌｅｍｏｎ,,株式会社,広島県,東広島市,西条町西条東８４８－１（１０１）,,34,212,7390042,,,,,,,2021-11-15,1,,,,,レモン,0
245,1240001058913,新規,0,2021-11-15,2021-11-15,日本風車株式会社,,株式会社,広島県,呉市,中通２丁目６番６号,,34,202,7370046,,,,,,,2021-11-15,1,,,,,ニホンフウシャ,0
250,1240003005368,新規,0,2021-11-15,2021-11-15,合同会社ｉ．Ｍｅｌｔ,,合同会社,広島県,広島市安佐南区,伴東７丁目５８番３１－２０３号,,34,105,7313164,,,,,,,2021-11-15,1,,,,,アイドットメルト,0
255,1260001036207,新規,0,2021-11-15,2021-11-15,株式会社仮谷調査事務所,,株式会社,岡山県,岡山市東区,松新町２２７番地６,,33,103,7048174,,,,,,,2021-11-15,1,,,,,カリヤチョウサジムショ,0
256,1260001036215,新規,0,2021-11-15,2021-11-15,田中ファーム株式会社,,株式会社,岡山県,倉敷市,水島南春日町８番４号,,33,202,7128025,,,,,,,2021-11-15,1,,,,,タナカファーム,0
264,1290001095200,新規,0,2021-11-15,2021-11-15,株式会社ｃｂａｃｏＭ２Ｋ,,株式会社,福岡県,福岡市西区,愛宕４丁目２番４５－４１２号コアマンションマリナヒルズ室見,,40,135,8190015,,,,,,,2021-11-15,1,,,,,シバコエムツーケイ,0
265,1290001095340,新規,0,2021-11-15,2021-11-15,株式会社ＴＩＥＮ,,株式会社,福岡県,福岡市中央区,薬院２丁目１２番１２－９０４号,,40,133,8100022,,,,,,,2021-11-15,1,,,,,ティエン,0
266,1290001095349,新規,0,2021-11-15,2021-11-15,株式会社ハーグラボ,,株式会社,福岡県,福岡市中央区,天神２丁目３番１０―７１９号天神パインクレスト,,40,133,8100001,,,,,,,2021-11-15,1,,,,,ハーグラボ,0
276,1290801027996,新規,0,2021-11-15,2021-11-15,株式会社玄昌,,株式会社,福岡県,北九州市八幡西区,中須１丁目２番２３号,,40,109,8070823,,,,,,,2021-11-15,1,,,,,ゲンショウ,0
279,1290803003979,新規,0,2021-11-15,2021-11-15,ＮＡＮＨ合同会社,,合同会社,福岡県,宮若市,宮田２０４番地６,,40,226,8230011,,,,,,,2021-11-15,1,,,,,エヌエイエヌエイチ,0
283,1320001018727,新規,0,2021-11-15,2021-11-15,株式会社エイトテクノ,,株式会社,大分県,大分市,大在北１丁目１３番２２－２号,,44,201,8700245,,,,,,,2021-11-15,1,,,,,エイトテクノ,0
287,1340001024269,新規,0,2021-11-15,2021-11-15,ＭＹ企画株式会社,,株式会社,鹿児島県,肝属郡東串良町,岩弘２６６４番地,,46,482,8931611,,,,,,,2021-11-15,1,,,,,エムワイキカク,0
288,1340001024277,新規,0,2021-11-15,2021-11-15,イーズ株式会社,,株式会社,鹿児島県,鹿児島市,紫原６丁目３０番１８号４０３,,46,201,8900082,,,,,,,2021-11-15,1,,,,,イーズ,0
289,1360003011569,新規,0,2021-11-15,2021-11-15,合同会社リトラボラ,,合同会社,沖縄県,那覇市,松尾１丁目１０－２４－１階,,47,201,9000014,,,,,,,2021-11-15,1,,,,,リトラボラ,0
291,1370003005479,新規,0,2021-11-15,2021-11-15,合同会社トーカン建設,,合同会社,宮城県,仙台市若林区,藤塚字三十刈５９番地,,04,103,9840843,,,,,,,2021-11-15,1,,,,,トーカンケンセツ,0
294,1390001016682,新規,0,2021-11-15,2021-11-15,はなまる株式会社,,株式会社,山形県,山形市,旭が丘２番２３号,,06,201,9902434,,,,,,,2021-11-15,1,,,,,ハナマル,0
298,1430001085384,新規,0,2021-11-15,2021-11-15,ａｎｄｌｉｖｅ株式会社,,株式会社,北海道,札幌市手稲区,前田十条２０丁目１６番１０号,,01,109,0060820,,,,,,,2021-11-15,1,,,,,アンドライブ,0
303,1450003002154,新規,0,2021-11-15,2021-11-15,合同会社ＨＹＡＫＵ,,合同会社,北海道,旭川市,二条通２丁目１９８０番２,,01,204,0700032,,,,,,,2021-11-15,1,,,,,ヒャク,0
304,1460303000740,新規,0,2021-11-15,2021-11-15,合同会社Ｍｉｌｌ,,合同会社,北海道,北見市,高砂町１５番２９号ＧｒｅｅｎＣｒｏｓｓ高砂ＩＩ１－２号,00124847,01,208,0900017,,,,,,,2021-11-15,1,,,,,ミル,0
309,1700150103514,新規,0,2021-11-15,2021-06-03,黒山水利組合,,その他,大阪府,堺市美原区,黒山７８２－１,,27,147,5870002,,,,,,,2021-06-03,1,,,,,クロヤマスイリクミアイ,0
325,2010001222326,新規,0,2021-11-15,2021-11-15,エルソナ株式会社,,株式会社,東京都,中央区,八丁堀１丁目１２番４号,,13,102,1040032,,,,,,,2021-11-15,1,,,,,エルソナ,0
326,2010001222549,新規,0,2021-11-15,2021-11-15,株式会社ギア,,株式会社,東京都,中央区,八丁堀３丁目１４番４号,,13,102,1040032,,,,,,,2021-11-15,1,,,,,ギア,0
327,2010001222557,新規,0,2021-11-15,2021-11-15,株式会社ザ・建物,,株式会社,東京都,千代田区,平河町２丁目５番３号ＮａｇａｔａｃｈｏＧＲｉＤ５Ｆ,,13,101,1020093,,,,,,,2021-11-15,1,,,,,ザタテモノ,0
336,2010401163806,新規,0,2021-11-15,2021-11-15,株式会社Ｐｈｏｅｎｉｘｙ,,株式会社,東京都,港区,南青山２丁目２番１５号ＷＩＮ青山５３１,,13,103,1070062,,,,,,,2021-11-15,1,,,,,フェニクシー,0
337,2010401163822,新規,0,2021-11-15,2021-11-15,ハンディマリー株式会社,,株式会社,東京都,港区,南青山２丁目２－１５－９４２,,13,103,1070062,,,,,,,2021-11-15,1,,,,,ハンディマリー,0
338,2010401163830,新規,0,2021-11-15,2021-11-15,みらいずコンサルティング株式会社,,株式会社,東京都,港区,浜松町２丁目２番１５号浜松町ダイヤビル２Ｆ,,13,103,1050013,,,,,,,2021-11-15,1,,,,,ミライズコンサルティング,0
339,2010401163855,新規,0,2021-11-15,2021-11-15,株式会社ＮＥＵＴＲＡＬ　ＪＡＰＡＮ,,株式会社,東京都,港区,高輪２丁目１６－２タカナワ－Ｕ５０２号,,13,103,1080074,,,,,,,2021-11-15,1,,,,,ニュートラルジャパン,0
340,2010401163871,新規,0,2021-11-15,2021-11-15,エンリベル株式会社,,株式会社,東京都,港区,南青山２丁目２番１５号ウィン青山９４２,,13,103,1070062,,,,,,,2021-11-15,1,,,,,エンリベル,0
353,2010403026523,新規,0,2021-11-15,2021-11-15,ＨＥＡＶＥＮＬＹ　ＧＲＡＣＥ　ＢＥＡＵＴＹ合同会社,,合同会社,東京都,港区,北青山２丁目７番２０号猪瀬ビル２Ｆ,,13,103,1070061,,,,,,,2021-11-15,1,,,,,ヘブンリーグレイスビューティー,0
354,2010405020391,新規,0,2021-11-15,2021-11-15,一般社団法人日本ヘンプ協会,,その他の設立登記法人,東京都,港区,虎ノ門５丁目１１番１５号虎ノ門ＫＴビル２階,,13,103,1050001,,,,,,,2021-11-15,1,,,,,,0
355,2010405020409,新規,0,2021-11-15,2021-11-15,一般社団法人国際フェリカ協会,,その他の設立登記法人,東京都,港区,浜松町２丁目２番１５号浜松町ダイヤビル２Ｆ,,13,103,1050013,,,,,,,2021-11-15,1,,,,,コクサイフェリカキョウカイ,0
356,2010405020417,新規,0,2021-11-15,2021-11-15,ナイツブリッジ一般社団法人,,その他の設立登記法人,東京都,港区,六本木１丁目６番１号泉ガーデンタワー,,13,103,1060032,,,,,,,2021-11-15,1,,,,,ナイツブリッジ,0
391,2011501027479,新規,0,2021-11-15,2021-11-15,株式会社アストラリー,,株式会社,東京都,北区,浮間３丁目２番１－５０２号プリモハイツ,,13,117,1150051,,,,,,,2021-11-15,1,,,,,アストラリー,0
397,2011801039975,新規,0,2021-11-15,2021-11-15,株式会社ザ・フューチャー,,株式会社,東京都,葛飾区,南水元４丁目２４番４号,,13,122,1250035,,,,,,,2021-11-15,1,,,,,ザフューチャー,0
405,2013301048250,新規,0,2021-11-15,2021-11-15,Ｊｕｒａ株式会社,,株式会社,東京都,豊島区,南池袋１丁目１６番４号ワーベ寿々４０５号,,13,116,1710022,,,,,,,2021-11-15,1,,,,,ジュラ,0
406,2013301048267,新規,0,2021-11-15,2021-11-15,Ｅａｔ　Ｓｗｅｅｔ　Ｌｉｖｅ　Ｓｗｅｅｔ株式会社,,株式会社,東京都,豊島区,池袋２丁目３５番２号ＡＩＣ池袋２０２号室,,13,116,1710014,,,,,,,2021-11-15,1,,,,,イートスウィートライブスウィート,0
418,2021001074467,新規,0,2021-11-15,2021-11-15,株式会社山本,,株式会社,神奈川県,小田原市,板橋２８０番地の３,,14,206,2500034,,,,,,,2021-11-15,1,,,,,,0
420,2021003011088,新規,0,2021-11-15,2021-11-15,合同会社Ｕｎａ　Ｆｅｌｉｃｉｄａｄ,,合同会社,神奈川県,横須賀市,追浜本町１丁目２８番地５サンビーチ追浜１１０２,,14,201,2370068,,,,,,,2021-11-15,1,,,,,ウナフェリシダ,0
427,2030001145236,新規,0,2021-11-15,2021-11-15,株式会社ＯＧＵＬＹ,,株式会社,埼玉県,八潮市,大字大曽根６７４,,11,234,3400834,,,,,,,2021-11-15,1,,,,,オグリー,0
428,2030001145319,新規,0,2021-11-15,2021-11-15,株式会社ＦｒｅｅｄＪｏｂ,,株式会社,埼玉県,さいたま市大宮区,桜木町２丁目３大宮マルイ７階,,11,103,3300854,,,,,,,2021-11-15,1,,,,,フリードジョブ,0
433,2030003018316,新規,0,2021-11-15,2021-11-15,合同会社ぬとり,,合同会社,埼玉県,川口市,川口６丁目９番５号滝沢コーポ１０２,,11,203,3320015,,,,,,,2021-11-15,1,,,,,ヌトリ,0
438,2040001121005,新規,0,2021-11-15,2021-11-15,株式会社スロージャーナル,,株式会社,千葉県,市川市,塩焼４丁目１番２３号,,12,203,2720114,,,,,,,2021-11-15,1,,,,,スロージャーナル,0
442,2040003018942,新規,0,2021-11-15,2021-11-15,合同会社ベル,,合同会社,千葉県,松戸市,東松戸１丁目９番地の１３,,12,207,2702225,,,,,,,2021-11-15,1,,,,,ベル,0
449,2050003006203,新規,0,2021-11-15,2021-11-15,Ａ・ハッピネスｃｌｕｂ合同会社,,合同会社,茨城県,水戸市,河和田１丁目１５０９番地の２,,08,201,3114152,,,,,,,2021-11-15,1,,,,,エーハッピネスクラブ,0
458,2070001038642,新規,0,2021-11-15,2021-11-15,株式会社ＴＫＭプラス,,株式会社,群馬県,前橋市,広瀬町３丁目５番地３４,,10,201,3710812,,,,,,,2021-11-15,1,,,,,ティーケーエムプラス,0
459,2070001038650,新規,0,2021-11-15,2021-11-15,株式会社Ｑａｒｔｅ,,株式会社,群馬県,前橋市,下小出町２丁目２１番地７号下小出中央ビル１０３号,,10,201,3710031,,,,,,,2021-11-15,1,,,,,カルテ,0
462,2080403004407,新規,0,2021-11-15,2021-11-15,合同会社アイシーケア,,合同会社,静岡県,浜松市西区,舘山寺町７４４－１,,22,133,4311209,,,,,,,2021-11-15,1,,,,,アイシーケア,0
470,2110005016730,新規,0,2021-11-15,2021-11-15,特定非営利活動法人はっぴーはーと,,その他の設立登記法人,新潟県,上越市,高土町１丁目６－１６,,15,222,9430823,,,,,,,2021-11-15,1,,,,,ハッピーハート,0
485,2120001241785,新規,0,2021-11-15,2021-11-15,株式会社ナディス,,株式会社,大阪府,大阪市福島区,福島２丁目１０番１９号メガロコープ５０９,,27,103,5530003,,,,,,,2021-11-15,1,,,,,ナディス,0
486,2120001241793,新規,0,2021-11-15,2021-11-15,Ｌｉｎｋｓ　Ａｓｓｅｔ　Ｍａｎａｇｅｍｅｎｔ株式会社,,株式会社,大阪府,大阪市都島区,中野町５丁目８番１９号,,27,102,5340027,,,,,,,2021-11-15,1,,,,,リンクスアセットマネジメント,0
487,2120001241810,新規,0,2021-11-15,2021-11-15,株式会社ＡＺＬＥＡＤ,,株式会社,大阪府,大阪市城東区,今福東３丁目９番２８号,,27,118,5360002,,,,,,,2021-11-15,1,,,,,アズリード,0
488,2120001241819,新規,0,2021-11-15,2021-11-15,株式会社スクイズトライ,,株式会社,大阪府,大阪市北区,芝田１丁目１０番１０号,,27,127,5300012,,,,,,,2021-11-15,1,,,,,スクイズトライ,0
489,2120001241835,新規,0,2021-11-15,2021-11-15,株式会社トナリアル,,株式会社,大阪府,大阪市鶴見区,放出東３丁目３６番１０－１００１号,,27,124,5380044,,,,,,,2021-11-15,1,,,,,トナリアル,0
490,2120001241843,新規,0,2021-11-15,2021-11-15,安家株式会社,,株式会社,大阪府,大阪市浪速区,大国３丁目４－１３－７Ｆ,,27,111,5560014,,,,,,,2021-11-15,1,,,,,ヤスヤ,0
491,2120001241851,新規,0,2021-11-15,2021-11-15,株式会社ｅ．ｎ,,株式会社,大阪府,大阪市生野区,中川西１丁目６番１８号,,27,116,5440032,,,,,,,2021-11-15,1,,,,,エン,0
495,2120003020601,新規,0,2021-11-15,2021-11-15,合同会社木許建築事務所,,合同会社,大阪府,大阪市浪速区,戎本町１丁目８番１２号フェリーチェ難波１０１,,27,111,5560013,,,,,,,2021-11-15,1,,,,,キモトケンチクジムショ,0
499,2120901045187,新規,0,2021-11-15,2021-11-15,株式会社大真,,株式会社,大阪府,豊中市,上野西１丁目１番２５－１０７号室,,27,203,5600011,,,,,,,2021-11-15,1,,,,,ダイシン,0
508,2140005025877,新規,0,2021-11-15,2021-11-15,桜営農農事組合法人,,その他の設立登記法人,兵庫県,神崎郡福崎町,高岡１４６７番地,,28,443,6792217,,,,,,,2021-11-15,1,,,,,サクラエイノウ,0
511,2170003001662,新規,0,2021-11-15,2021-11-15,Ｇｒｅａｓｔ合同会社,,合同会社,和歌山県,岩出市,清水４９１番地の３,,30,209,6496227,,,,,,,2021-11-15,1,,,,,グレースト,0
525,2180003023185,新規,0,2021-11-15,2021-11-15,合同会社ＭＡＬＵＨＩＡ,,合同会社,愛知県,名古屋市東区,白壁２丁目１１番１３号,,23,102,4610011,,,,,,,2021-11-15,1,,,,,マルヒア,0
526,2180005019512,新規,0,2021-11-15,2021-11-15,さくらサポート協同組合,,その他の設立登記法人,愛知県,名古屋市東区,筒井２丁目２番８号－４,,23,102,4610003,,,,,,,2021-11-15,1,,,,,サクラサポート,0
527,2180301035626,新規,0,2021-11-15,2021-11-15,株式会社ＯＴＨＥＲ,,株式会社,愛知県,豊川市,八幡町上宿９４番地の１,,23,207,4420857,,,,,,,2021-11-15,1,,,,,アザー,0
532,2190001028854,新規,0,2021-11-15,2021-11-15,ミニリバー株式会社,,株式会社,三重県,伊勢市,楠部町１９９番地５１,,24,203,5160014,,,,,,,2021-11-15,1,,,,,ミニリバー,0
537,2200001039412,新規,0,2021-11-15,2021-11-15,ＶＡＲＩＯＳ．株式会社,,株式会社,岐阜県,加茂郡川辺町,中川辺４０番地１６,,21,503,5090304,,,,,,,2021-11-15,1,,,,,バリオス,0
538,2200001039420,新規,0,2021-11-15,2021-11-15,株式会社サティス＆ハウスデザインラボ,,株式会社,岐阜県,可児市,塩１２７７番地２－１０３号,,21,214,5090251,,,,,,,2021-11-15,1,,,,,サティスアンドハウスデザインラボ,0
539,2200001039429,新規,0,2021-11-15,2021-11-15,株式会社ＲＥＧＡＬＯＳ,,株式会社,岐阜県,羽島市,竹鼻町狐穴１６番地３,,21,209,5016232,,,,,,,2021-11-15,1,,,,,レガロス,0
551,2240001058912,新規,0,2021-11-15,2021-11-15,株式会社ジースタイル,,株式会社,広島県,福山市,神辺町字平野７２４番地７,,34,207,7202116,,,,,,,2021-11-15,1,,,,,ジースタイル,0
552,2240001058937,新規,0,2021-11-15,2021-11-15,株式会社Ｌｉｎ,,株式会社,広島県,広島市中区,千田町３丁目１１番２５－４０２号,,34,101,7300052,,,,,,,2021-11-15,1,,,,,ライン,0
553,2240003005367,新規,0,2021-11-15,2021-11-15,合同会社Ｎｉｋｅ,,合同会社,広島県,広島市中区,富士見町１５番６－９０１号,,34,101,7300043,,,,,,,2021-11-15,1,,,,,ニケ,0
557,2280001008566,新規,0,2021-11-15,2021-11-15,株式会社ＫＳＩ防災工業,,株式会社,島根県,松江市,浜乃木２丁目７番１３号３階,,32,201,6900044,,,,,,,2021-11-15,1,,,,,ケーエスアイボウサイコウギョウ,0
567,2290001095117,新規,0,2021-11-15,2021-11-15,株式会社新日本防犯,,株式会社,福岡県,福岡市中央区,荒戸３丁目３－１７－７０１,,40,133,8100062,,,,,,,2021-11-15,1,,,,,シンニホンボウハン,0
571,2290801027995,新規,0,2021-11-15,2021-11-15,株式会社一心,,株式会社,福岡県,北九州市若松区,大井戸町９番１０号,,40,103,8080033,,,,,,,2021-11-15,1,,,,,イッシン,0
575,2320001018734,新規,0,2021-11-15,2021-11-15,株式会社ｉ３　ＰＬＵＳ,,株式会社,大分県,大分市,中島東１丁目３番５号シャガール中島１Ｆ,,44,201,8700043,,,,,,,2021-11-15,1,,,,,アイスリープラス,0
576,2330003009128,新規,0,2021-11-15,2021-11-15,キサウム合同会社,,合同会社,熊本県,熊本市南区,近見６丁目１６番１２号,,43,104,8614101,,,,,,,2021-11-15,1,,,,,キサウム,0
582,2360001029637,新規,0,2021-11-15,2021-11-15,トグチホーム株式会社,,株式会社,沖縄県,那覇市,港町２丁目１５番２６号,,47,201,9000001,,,,,,,2021-11-15,1,,,,,トグチホーム,0
594,2390001016681,新規,0,2021-11-15,2021-11-15,株式会社リップル中野,,株式会社,山形県,上山市,高野字上河原１１７－４,,06,207,9993115,,,,,,,2021-11-15,1,,,,,リップルナカノ,0
605,2440001008979,新規,0,2021-11-15,2021-11-15,株式会社丸刀安保水産,,株式会社,北海道,島牧郡島牧村,字元町１５３番地,,01,391,0480632,,,,,,,2021-11-15,1,,,,,マルトウアンポスイサン,0
622,3010001222531,新規,0,2021-11-15,2021-11-15,株式会社日本補助金サポートセンター,,株式会社,東京都,千代田区,外神田６丁目１５－１４,,13,101,1010021,,,,,,,2021-11-15,1,,,,,ニホンホジョキンサポートセンター,0
624,3010003036302,新規,0,2021-11-15,2021-11-15,ザサード合同会社,,合同会社,東京都,文京区,千石４丁目５番９号,,13,105,1120011,,,,,,,2021-11-15,1,,,,,ザサード,0
628,3010401163821,新規,0,2021-11-15,2021-11-15,株式会社Ｒデザイン,,株式会社,東京都,港区,新橋５丁目３１番８号,,13,103,1050004,,,,,,,2021-11-15,1,,,,,アールデザイン,0
629,3010401163854,新規,0,2021-11-15,2021-11-15,株式会社ＴＭＫ,,株式会社,東京都,港区,南青山１丁目１２番３号ＬＩＦＯＲＫ南青山Ｓ２０２,,13,103,1070062,,,,,,,2021-11-15,1,,,,,ティーエムケー,0
630,3010401163870,新規,0,2021-11-15,2021-11-15,株式会社コルン,,株式会社,東京都,港区,赤坂２丁目８―１１第１１赤坂葵ビル６０３,,13,103,1070052,,,,,,,2021-11-15,1,,,,,コルン,0
631,3010401163912,新規,0,2021-11-15,2021-11-15,株式会社スタンドアップ,,株式会社,東京都,港区,新橋５丁目２５番２号キャセイパシフィックビル１－５階,,13,103,1050004,,,,,,,2021-11-15,1,,,,,スタンドアップ,0
635,3010405020424,新規,0,2021-11-15,2021-11-15,ジー・ジェイ・レジデンス・シックス一般社団法人,,その他の設立登記法人,東京都,港区,虎ノ門４丁目３番１号城山トラストタワー２７階ＳａｎｎｅＧｒｏｕｐＪａｐａｎ株式会社内,,13,103,1050001,,,,,,,2021-11-15,1,,,,,ジージェイレジデンスシックス,0
644,3010703006001,新規,0,2021-11-15,2021-11-15,Ｓｈｙｍｋｕｓｕｍ　ｉｎｔｅｒｎａｔｉｏｎａｌ合同会社,,合同会社,東京都,品川区,東大井６丁目１３番１３号コーポなぎさ１０１,,13,109,1400011,,,,,,,2021-11-15,1,,,,,シャムクスムインターナショナル,0
645,3010805002897,新規,0,2021-11-15,2021-11-15,一般社団法人東京都宅配便協会,,その他の設立登記法人,東京都,大田区,大森中１丁目７番２１号,,13,111,1430014,,,,,,,2021-11-15,1,,,,,トウキョウトタクハイビンキョウカイ,0
648,3011003013720,新規,0,2021-11-15,2021-11-15,合同会社ウェアハウス,,合同会社,東京都,目黒区,鷹番１丁目１４番２５号,,13,110,1520004,,,,,,,2021-11-15,1,,,,,ウェアハウス,0
650,3011101096799,新規,0,2021-11-15,2021-11-15,パイオネットＨＤ株式会社,,株式会社,東京都,新宿区,西新宿１丁目２２番２号,,13,104,1600023,,,,,,,2021-11-15,1,,,,,パイオネットホールディングス,0
651,3011101096865,新規,0,2021-11-15,2021-11-15,株式会社ｆｉｔｔｅ,,株式会社,東京都,新宿区,新宿１丁目３６－２新宿第七葉山ビル３階,,13,104,1600022,,,,,,,2021-11-15,1,,,,,フィッテ,0
654,3011103011161,新規,0,2021-11-15,2021-11-15,合同会社Ｓｉｍｐｌｅ３,,合同会社,東京都,新宿区,新宿２丁目４番２号,,13,104,1600022,,,,,,,2021-11-15,1,,,,,シンプルサン,0
664,3011501027478,新規,0,2021-11-15,2021-11-15,株式会社Ｄｅｏ,,株式会社,東京都,荒川区,西日暮里２丁目４５番１１号２階,,13,118,1160013,,,,,,,2021-11-15,1,,,,,デオ,0
665,3011601025539,新規,0,2021-11-15,2021-11-15,株式会社ＣＵＴＬＩＮＥ,,株式会社,東京都,練馬区,豊玉北６丁目１０番１２号,,13,120,1760012,,,,,,,2021-11-15,1,,,,,カットライン,0
668,3011705001700,新規,0,2021-11-15,2021-11-15,一般社団法人東京パーソナルファッションスタイリスト協会,,その他の設立登記法人,東京都,江戸川区,西葛西２丁目２２番４５－１２２１号,,13,123,1340088,,,,,,,2021-11-15,1,,,,,トウキョウパーソナルファッションスタイリストキョウカイ,0
670,3011801039974,新規,0,2021-11-15,2021-11-15,株式会社ＳＥＥＫＥＲ,,株式会社,東京都,葛飾区,東新小岩２丁目２０番１６号ＥＥＲＦ新小岩４,,13,122,1240023,,,,,,,2021-11-15,1,,,,,シーカー,0
685,3020001143867,新規,0,2021-11-15,2021-11-15,株式会社ハマベース,,株式会社,神奈川県,横浜市中区,伊勢佐木町４丁目１２１番地３ストーク伊勢佐木五番館３０６号室,,14,104,2310045,,,,,,,2021-11-15,1,,,,,ハマベース,0
686,3020001143891,新規,0,2021-11-15,2021-11-15,スターフラワー株式会社,,株式会社,神奈川県,川崎市幸区,古市場２丁目７３－３６,,14,132,2120052,,,,,,,2021-11-15,1,,,,,スターフラワー,0
687,3020001143900,新規,0,2021-11-15,2021-11-15,Ｂ－ＭＥＤ株式会社,,株式会社,神奈川県,川崎市高津区,坂戸３丁目２－１,,14,134,2130012,,,,,,,2021-11-15,1,,,,,ビーメド,0
688,3020003020825,新規,0,2021-11-15,2021-11-15,アセット総研合同会社,,合同会社,神奈川県,川崎市麻生区,万福寺４丁目１７番３号,,14,137,2150004,,,,,,,2021-11-15,1,,,,,アセットソウケン,0
690,3021001074490,新規,0,2021-11-15,2021-11-15,ｒｕｌｅ株式会社,,株式会社,神奈川県,大和市,代官２丁目１０番地４,,14,213,2420025,,,,,,,2021-11-15,1,,,,,ルール,0
693,3021003011087,新規,0,2021-11-15,2021-11-15,ＫＤＯ合同会社,,合同会社,神奈川県,鎌倉市,大町３丁目１３番３６号,,14,204,2480007,,,,,,,2021-11-15,1,,,,,ケーディーオー,0
696,3030001145326,新規,0,2021-11-15,2021-11-15,株式会社萬照蒔空設,,株式会社,埼玉県,新座市,野火止１丁目１０番地１５号,,11,230,3520011,,,,,,,2021-11-15,1,,,,,バンショウクウセツ,0
716,3040003018941,新規,0,2021-11-15,2021-11-15,オフィスプルメリア合同会社,,合同会社,千葉県,習志野市,谷津３丁目２９番６－３０５号,,12,216,2750026,,,,,,,2021-11-15,1,,,,,オフィスプルメリア,0
721,3050001050136,新規,0,2021-11-15,2021-11-15,株式会社ＧＬＯＢＥ　ＬＫ,,株式会社,茨城県,結城市,大字結城９６１８番地２５,,08,207,3070001,,,,,,,2021-11-15,1,,,,,グローブエルケ,0
732,3080001024582,新規,0,2021-11-15,2021-11-15,株式会社プロスタイル８,,株式会社,静岡県,静岡市葵区,井宮町１４８番地の４,,22,101,4200001,,,,,,,2021-11-15,1,,,,,プロスタイル,0
738,3100001034819,新規,0,2021-11-15,2021-11-15,株式会社オフィス円や,,株式会社,長野県,松本市,大字笹賀１８９９番地,,20,202,3990033,,,,,,,2021-11-15,1,,,,,オフィスマルヤ,0
746,3120001241818,新規,0,2021-11-15,2021-11-15,株式会社ぶれす・いいと,,株式会社,大阪府,大阪市東淀川区,東中島１丁目１７番５－７１５号,,27,114,5330033,,,,,,,2021-11-15,1,,,,,ブレスイイト,0
747,3120001241826,新規,0,2021-11-15,2021-11-15,株式会社山一青果,,株式会社,大阪府,大阪市福島区,野田５丁目３番１０号,,27,103,5530005,,,,,,,2021-11-15,1,,,,,ヤマイチセイカ,0
751,3120003020583,新規,0,2021-11-15,2021-11-15,合同会社ＮＳＧ,,合同会社,大阪府,大阪市東住吉区,中野３丁目３－２－６０１号,,27,121,5460012,,,,,,,2021-11-15,1,,,,,エヌエスジー,0
752,3120003020591,新規,0,2021-11-15,2021-11-15,合同会社フィロソフェンベッグ,,合同会社,大阪府,枚方市,甲斐田町１５番２０号,,27,210,5731167,,,,,,,2021-11-15,1,,,,,フィロソフェンベッグ,0
756,3120901045186,新規,0,2021-11-15,2021-11-15,株式会社西脇,,株式会社,大阪府,茨木市,大住町１６－２,,27,211,5670813,,,,,,,2021-11-15,1,,,,,ニシワキ,0
763,3130001070522,新規,0,2021-11-15,2021-11-15,株式会社ｔ－ｗｈｅｅｌｓ,,株式会社,京都府,京都市下京区,河原町通四条下る順風町３０９番地,,26,106,6008021,,,,,,,2021-11-15,1,,,,,ティーウィールズ,0
781,3180001148603,新規,0,2021-11-15,2021-11-15,株式会社ｍ．ｕ－ｈａｉｒ,,株式会社,愛知県,名古屋市緑区,上旭１丁目６１１番地,,23,114,4580016,,,,,,,2021-11-15,1,,,,,ムーヘアー,0
782,3180001148719,新規,0,2021-11-15,2021-11-15,株式会社ステラワークス,,株式会社,愛知県,名古屋市昭和区,阿由知通１丁目５番３号,,23,107,4660027,,,,,,,2021-11-15,1,,,,,ステラワークス,0
787,3180301035625,新規,0,2021-11-15,2021-11-15,株式会社ＮＧＲ,,株式会社,愛知県,岡崎市,岩津町字市場１５番地,,23,202,4442144,,,,,,,2021-11-15,1,,,,,エヌジーアール,0
789,3180303005163,新規,0,2021-11-15,2021-11-15,合同会社Ｃｏｔｔｏｎｌｅａｆ,,合同会社,愛知県,岡崎市,戸崎町字藤狭２２番地３７カーサビラ光ヶ丘４０４,,23,202,4440841,,,,,,,2021-11-15,1,,,,,コットンリーフ,0
790,3190001028853,新規,0,2021-11-15,2021-11-15,株式会社Ｓｔｕｄｙ　Ｊａｐａｎ,,株式会社,三重県,松阪市,駅部田町１８９８番地１,,24,204,5150045,,,,,,,2021-11-15,1,,,,,スタディージャパン,0
791,3190003003821,新規,0,2021-11-15,2021-11-15,合同会社ＮＥＸＴ　ＢＩＲＴＨ,,合同会社,三重県,桑名市,大字小貝須９６３番地２,,24,205,5110841,,,,,,,2021-11-15,1,,,,,ネクストバース,0
796,3200001039428,新規,0,2021-11-15,2021-11-15,株式会社ｍＥＡＲ,,株式会社,岐阜県,多治見市,大畑町大洞３１番地の１２５,,21,204,5070817,,,,,,,2021-11-15,1,,,,,メアー,0
801,3230001019096,新規,0,2021-11-15,2021-11-15,株式会社ＴＲＵＳＴ,,株式会社,富山県,富山市,赤田３８３番地１メゾンＫ＆ＭＩＩＣ棟１０５号,00124857,16,201,9398064,,,,,,,2021-11-15,1,,,,,トラスト,0
803,3240001058928,新規,0,2021-11-15,2021-11-15,平田設備株式会社,,株式会社,広島県,広島市東区,戸坂桜上町１０番７号,,34,102,7320007,,,,,,,2021-11-15,1,,,,,ヒラタセツビ,0
804,3240001058936,新規,0,2021-11-15,2021-11-15,株式会社トレア,,株式会社,広島県,広島市中区,本通７番２９号,,34,101,7300035,,,,,,,2021-11-15,1,,,,,トレア,0
805,3240003005366,新規,0,2021-11-15,2021-11-15,ＡＮＨ　ＥＭ合同会社,,合同会社,広島県,広島市西区,三滝町４番１２号,,34,104,7330005,,,,,,,2021-11-15,1,,,,,アンエム,0
808,3260001036213,新規,0,2021-11-15,2021-11-15,株式会社しっとる,,株式会社,岡山県,岡山市北区,本町６番３６号第一セントラルビル４階,,33,101,7000901,,,,,,,2021-11-15,1,,,,,シットル,0
810,3260003003715,新規,0,2021-11-15,2021-11-15,合同会社ビハンド,,合同会社,岡山県,岡山市北区,奥田南町５番地１８号川西ビル１階,,33,101,7000934,,,,,,,2021-11-15,1,,,,,,0
818,3290001095339,新規,0,2021-11-15,2021-11-15,ＥＴＥＲＮＡＬ株式会社,,株式会社,福岡県,福岡市中央区,今泉１丁目１７番１６号,,40,133,8100021,,,,,,,2021-11-15,1,,,,,エターナル,0
819,3290001095396,新規,0,2021-11-15,2021-11-15,株式会社グローバルパートナーズ,,株式会社,福岡県,福岡市博多区,比恵町１番１８号,,40,132,8120014,,,,,,,2021-11-15,1,,,,,グローバルパートナーズ,0
820,3290005018428,新規,0,2021-11-15,2021-11-15,弁護士法人ＩＳＳＩ,,その他の設立登記法人,福岡県,福岡市中央区,赤坂１丁目１５番３３号ダイアビル福岡赤坂４０１号,,40,133,8100042,,,,,,,2021-11-15,1,,,,,イッシー,0
827,3330001029184,新規,0,2021-11-15,2021-11-15,ＣｌｏｃｋＦａｃｅ株式会社,,株式会社,熊本県,合志市,幾久富１７５８番地１９０,,43,216,8611112,,,,,,,2021-11-15,1,,,,,クロックフェイス,0
828,3340001024267,新規,0,2021-11-15,2021-11-15,株式会社立神Ｗｏｒｋｓ,,株式会社,鹿児島県,奄美市,笠利町節田１６９４番地１,,46,222,8940000,,,,,,,2021-11-15,1,,,,,タチガミワークス,0
829,3340001024275,新規,0,2021-11-15,2021-11-15,エルゴワス株式会社,,株式会社,鹿児島県,鹿児島市,高麗町３０番４号ユーコービル１階Ａ号室,,46,201,8900051,,,,,,,2021-11-15,1,,,,,エルゴワス,0
835,3360001029636,新規,0,2021-11-15,2021-11-15,スマートオゾン株式会社,,株式会社,沖縄県,那覇市,高良３丁目７番１０号,,47,201,9010145,,,,,,,2021-11-15,1,,,,,スマートオゾン,0
837,3360003011559,新規,0,2021-11-15,2021-11-15,Ｂｅｇｉｎ合同会社,,合同会社,沖縄県,那覇市,久茂地１丁目１番１号９階,,47,201,9000015,,,,,,,2021-11-15,1,,,,,ビギン,0
838,3360003011567,新規,0,2021-11-15,2021-11-15,松田重機合同会社,,合同会社,沖縄県,中頭郡読谷村,字喜名２２８３番地１,,47,324,9040302,,,,,,,2021-11-15,1,,,,,マツダジュウキ,0
840,3370001047827,新規,0,2021-11-15,2021-11-15,株式会社ソラコムサイテック,,株式会社,宮城県,仙台市青葉区,本町１丁目２番５号,,04,101,9800014,,,,,,,2021-11-15,1,,,,,ソラコムサイテック,0
846,3390001016680,新規,0,2021-11-15,2021-11-15,ＢＡＱＳＡＮ株式会社,,株式会社,山形県,東村山郡山辺町,大字山辺２８８８番地２,,06,301,9900301,,,,,,,2021-11-15,1,,,,,バクサン,0
847,3400003002859,新規,0,2021-11-15,2021-11-15,合同会社ソコスモ,,合同会社,岩手県,盛岡市,浅岸２丁目２２－４５,,03,201,0200801,,,,,,,2021-11-15,1,,,,,ソコスモ,0
859,3480003001754,新規,0,2021-11-15,2021-11-15,合同会社喜富,,合同会社,徳島県,徳島市,幟町１丁目５番地,,36,201,7700924,,,,,,,2021-11-15,1,,,,,キフウ,0
865,3700150105772,新規,0,2021-11-15,2021-11-15,全国信用組合企業年金基金,,その他,東京都,中央区,京橋１丁目９番５号,,13,102,1040031,,,,,,,2021-11-15,1,,,,,ゼンコクシンヨウクミアイキギヨウネンキンキキン,0
873,4010001222539,新規,0,2021-11-15,2021-11-15,株式会社中橋ホールディングス,,株式会社,東京都,中央区,京橋１丁目１番９号,,13,102,1040031,,,,,,,2021-11-15,1,,,,,ナカバシホールディングス,0
878,4010101014951,新規,0,2021-11-15,2021-11-15,イレイト株式会社,,株式会社,東京都,八王子市,大和田町３丁目７番８号,,13,201,1920045,,,,,,,2021-11-15,1,,,,,,0
884,4010401163795,新規,0,2021-11-15,2021-11-15,イノクル株式会社,,株式会社,東京都,港区,赤坂４丁目７番６号赤坂ビジネスコート３０５,,13,103,1070052,,,,,,,2021-11-15,1,,,,,イノクル,0
897,4010703006000,新規,0,2021-11-15,2021-11-15,ＨＲアドバイザリーグループ合同会社,,合同会社,東京都,品川区,西五反田２丁目９－７ドルミ五反田４０７号,,13,109,1410031,,,,,,,2021-11-15,1,,,,,エイチアールアドバイザリーグループ,0
900,4010803003954,新規,0,2021-11-15,2021-11-15,合同会社アスタービュ,,合同会社,東京都,大田区,池上７丁目２番７号,,13,111,1460082,,,,,,,2021-11-15,1,,,,,アスタービュ,0
903,4010901049783,新規,0,2021-11-15,2021-11-15,株式会社Ｄｏｕｂｌｅ,,株式会社,東京都,世田谷区,代田２丁目３６－１５ＢＯＮＵＳＴＲＡＣＫＭＥＭＢＥＲ’Ｓ,,13,112,1550033,,,,,,,2021-11-15,1,,,,,ダブル,0
909,4011001143980,新規,0,2021-11-15,2021-11-15,株式会社Ａｐｐ　Ｓｏｆｔ,,株式会社,東京都,渋谷区,代官山町１７番１－２９１０号,,13,113,1500034,,,,,,,2021-11-15,1,,,,,アップソフト,0
911,4011003013703,新規,0,2021-11-15,2021-11-15,合同会社Ｔ＆Ａ　ｐｒｏｄｕｃｔ,,合同会社,東京都,渋谷区,桜丘町２１番１号,,13,113,1500031,,,,,,,2021-11-15,1,,,,,ティーアンドエープロダクト,0
919,4011301027339,新規,0,2021-11-15,2021-11-15,株式会社Ｖａｌｕｅ　Ｓｔｙｌｅ,,株式会社,東京都,杉並区,高円寺南４丁目６番５号,,13,115,1660003,,,,,,,2021-11-15,1,,,,,バリュースタイル,0
921,4011401023840,新規,0,2021-11-15,2021-11-15,Ｃｏｕｎｔｉｎｇ　Ｓｔａｒｓ株式会社,,株式会社,東京都,板橋区,大和町４４番１３－４０３号コーピアス板橋本町,,13,119,1730012,,,,,,,2021-11-15,1,,,,,カウンティングスターズ,0
928,4011801039957,新規,0,2021-11-15,2021-11-15,愛佳株式会社,,株式会社,東京都,足立区,佐野１丁目４番１０号,,13,121,1210053,,,,,,,2021-11-15,1,,,,,アヤカ,0
929,4011801039965,新規,0,2021-11-15,2021-11-15,株式会社ｋａｋｅｌｕ,,株式会社,東京都,足立区,花畑５丁目３番２号,,13,121,1210061,,,,,,,2021-11-15,1,,,,,カケル,0
930,4011801039973,新規,0,2021-11-15,2021-11-15,大魚株式会社,,株式会社,東京都,葛飾区,青戸７丁目２３番１１号,,13,122,1250062,,,,,,,2021-11-15,1,,,,,ダイギョ,0
932,4011805003125,新規,0,2021-11-15,2021-11-15,一般社団法人全国援助職ネットワーク,,その他の設立登記法人,東京都,足立区,千住旭町４４番１４号,,13,121,1200026,,,,,,,2021-11-15,1,,,,,ゼンコクエンジョショクネットワーク,0
935,4012403005109,新規,0,2021-11-15,2021-11-15,合同会社シフクノオト,,合同会社,東京都,三鷹市,牟礼３丁目１０番２２号,,13,204,1810002,,,,,,,2021-11-15,1,,,,,シフクノオト,0
950,4020001143890,新規,0,2021-11-15,2021-11-15,株式会社ＮＣＲ,,株式会社,神奈川県,川崎市高津区,新作２丁目１８番１－４０１号,,14,134,2130014,,,,,,,2021-11-15,1,,,,,エヌシーアール,0
951,4020001143899,新規,0,2021-11-15,2021-11-15,株式会社エム小泉,,株式会社,神奈川県,川崎市宮前区,鷺沼２丁目９番地１,,14,136,2160004,,,,,,,2021-11-15,1,,,,,エムコイズミ,0
952,4020001143908,新規,0,2021-11-15,2021-11-15,ＪＭコンサルティング株式会社,,株式会社,神奈川県,川崎市麻生区,上麻生１丁目６番３号,,14,137,2150021,,,,,,,2021-11-15,1,,,,,ジェイエムコンサルティング,0
956,4020003020816,新規,0,2021-11-15,2021-11-15,Ｐ．Ｔ合同会社,,合同会社,神奈川県,川崎市川崎区,観音２丁目６番３号第二川又ハイム２０１,,14,131,2100831,,,,,,,2021-11-15,1,,,,,ピードットティ,0
964,4021003011086,新規,0,2021-11-15,2021-11-15,ＫＴＦ．合同会社,,合同会社,神奈川県,相模原市緑区,大島１５９８番地２２,,14,151,2520135,,,,,,,2021-11-15,1,,,,,ケーティーエフ,0
965,4021003011103,新規,0,2021-11-15,2021-11-15,合同会社エザケン,,合同会社,神奈川県,相模原市南区,上鶴間本町７丁目１３番５５号,,14,153,2520318,,,,,,,2021-11-15,1,,,,,エザケン,0
970,4030003018314,新規,0,2021-11-15,2021-11-15,合同会社祐,,合同会社,埼玉県,比企郡川島町,大字中山１４２０番地１,,11,346,3500165,,,,,,,2021-11-15,1,,,,,ユウ,0
981,4040001120979,新規,0,2021-11-15,2021-11-15,ＴＣ国際貿易株式会社,,株式会社,千葉県,香取郡神崎町,小松５９６番地３風の森荘Ｃ棟,,12,342,2890223,,,,,,,2021-11-15,1,,,,,ティーシーコクサイボウエキ,0
984,4050001050135,新規,0,2021-11-15,2021-11-15,ＮＡＷＡＺ　ＴＲＡＤＩＮＧ株式会社,,株式会社,茨城県,結城市,みどり町２丁目５番地２３アリス結城第１－２０３号,,08,207,3070004,,,,,,,2021-11-15,1,,,,,ナワズトレーディング,0
985,4050003006201,新規,0,2021-11-15,2021-11-15,合同会社ＲＩＺＷＡＮ　ＴＲＡＤＩＮＧ,,合同会社,茨城県,猿島郡境町,大字塚崎２８７４番地１,,08,546,3060405,,,,,,,2021-11-15,1,,,,,リズワントレーディング,0
994,4080001024581,新規,0,2021-11-15,2021-11-15,株式会社ロプレ,,株式会社,静岡県,焼津市,中港１丁目３番９号,,22,212,4250021,,,,,,,2021-11-15,1,,,,,ロプレ,0
995,4080101022915,新規,0,2021-11-15,2021-11-15,株式会社Ｒｉａｓ,,株式会社,静岡県,三島市,大宮町１丁目４番１８号,,22,206,4110035,,,,,,,2021-11-15,1,,,,,リアス,0
997,4100001034818,新規,0,2021-11-15,2021-11-15,株式会社与古美,,株式会社,長野県,上伊那郡箕輪町,大字中箕輪１６３３９番地１,,20,383,3994601,,,,,,,2021-11-15,1,,,,,ヨコミ,0
1012,4120001241825,新規,0,2021-11-15,2021-11-15,株式会社ｓｔａｇｅ,,株式会社,大阪府,大阪市旭区,太子橋１丁目４番２２号１Ｆ,,27,117,5350001,,,,,,,2021-11-15,1,,,,,ステージ,0
1013,4120001241833,新規,0,2021-11-15,2021-11-15,株式会社エスケイトレーディング,,株式会社,大阪府,大阪市中央区,谷町４丁目８番１２－２０４号,,27,128,5400012,,,,,,,2021-11-15,1,,,,,エスケイトレーディング,0
1014,4120001241882,新規,0,2021-11-15,2021-11-15,株式会社ＳＯＬコンサルティング,,株式会社,大阪府,大阪市中央区,西心斎橋１丁目８番２３号,,27,128,5420086,,,,,,,2021-11-15,1,,,,,ソルコンサルティング,0
1015,4120003020582,新規,0,2021-11-15,2021-11-15,合同会社福田商店,,合同会社,大阪府,大阪市淀川区,宮原２丁目１２番１４－１１１７号,,27,123,5320003,,,,,,,2021-11-15,1,,,,,フクダショウテン,0
1016,4120003020590,新規,0,2021-11-15,2021-11-15,ＶＩＮＡ　ＣＯＳＥ合同会社,,合同会社,大阪府,大阪市東住吉区,駒川３丁目１３番７号フレアＭ２０１号,,27,121,5460043,,,,,,,2021-11-15,1,,,,,ヴィナコース,0
1022,4120101064647,新規,0,2021-11-15,2021-11-15,株式会社廣宮商会,,株式会社,大阪府,松原市,一津屋１丁目７番１０号,,27,217,5800003,,,,,,,2021-11-15,1,,,,,ヒロミヤショウカイ,0
1035,4130001070538,新規,0,2021-11-15,2021-11-15,株式会社Ｂｅオリバー,,株式会社,京都府,京都市北区,西賀茂北川上町６４番地コルヌス２０５号室,,26,101,6038816,,,,,,,2021-11-15,1,,,,,ビーオリバー,0
1051,4140001123716,新規,0,2021-11-15,2021-11-15,株式会社エイチケイ,,株式会社,兵庫県,西宮市,鳴尾町５丁目８番２号,,28,204,6638184,,,,,,,2021-11-15,1,,,,,エイチケイ,0
1057,4140005025891,新規,0,2021-11-15,2021-11-15,一般財団法人神戸シティ・プロパティ・リサーチ,,その他の設立登記法人,兵庫県,神戸市中央区,港島中町６丁目９番１,,28,110,6500046,,,,,,,2021-11-15,1,,,,,コウベシティプロパティリサーチ,0
1058,4160001023807,新規,0,2021-11-15,2021-11-15,ＭＵＳＵＢＩぐるーぷ株式会社,,株式会社,滋賀県,大津市,梅林１丁目３－４京都屋大津駅前ビル地下,,25,201,5200051,,,,,,,2021-11-15,1,,,,,ムスビグループ,0
1059,4160001023815,新規,0,2021-11-15,2021-11-15,株式会社Ｖｏｙａｇｅ,,株式会社,滋賀県,大津市,真野２丁目２２番１６号シャーメゾン大津真野３０５,,25,201,5200232,,,,,,,2021-11-15,1,,,,,ヴォヤージュ,0
1060,4170001016867,新規,0,2021-11-15,2021-11-15,株式会社ピース,,株式会社,和歌山県,海南市,下津町方２０８８番地２８,,30,202,6490111,,,,,,,2021-11-15,1,,,,,ピース,0
1071,4180001148684,新規,0,2021-11-15,2021-11-15,株式会社ＴＷ,,株式会社,愛知県,春日井市,牛山町４４６番地３６,,23,206,4860901,,,,,,,2021-11-15,1,,,,,ティーダブリュー,0
1072,4180001148692,新規,0,2021-11-15,2021-11-15,株式会社トリニティ,,株式会社,愛知県,豊明市,阿野町登５１番地１,,23,229,4701141,,,,,,,2021-11-15,1,,,,,トリニティ,0
1073,4180003023191,新規,0,2021-11-15,2021-11-15,合同会社プラント,,合同会社,愛知県,江南市,宮田町藤ノ森８１番地,,23,217,4838376,,,,,,,2021-11-15,1,,,,,プラント,0
1085,4200001039410,新規,0,2021-11-15,2021-11-15,株式会社Ｌａｕｌｅａ,,株式会社,岐阜県,岐阜市,西川手２丁目１０９番地,,21,201,5008258,,,,,,,2021-11-15,1,,,,,ラウレア,0
1091,4230001019087,新規,0,2021-11-15,2021-11-15,ＩＭＦ株式会社,,株式会社,富山県,富山市,才覚寺２４６番地４,,16,201,9398263,,,,,,,2021-11-15,1,,,,,アイエムエフ,0
1092,4230001019095,新規,0,2021-11-15,2021-11-15,株式会社改成工業,,株式会社,富山県,富山市,向新庄１３４８番地８,,16,201,9300916,,,,,,,2021-11-15,1,,,,,カイセイコウギョウ,0
1096,4240001058927,新規,0,2021-11-15,2021-11-15,Ｒｏｃｏｂｅ‐Ｓｕｎ株式会社,,株式会社,広島県,安芸郡府中町,鹿籠２丁目１３番１号,,34,302,7350025,,,,,,,2021-11-15,1,,,,,ロコベサン,0
1099,4260001036212,新規,0,2021-11-15,2021-11-15,株式会社ＭＫＮＳ,,株式会社,岡山県,笠岡市,カブト東町１７２番地,,33,205,7140051,,,,,,,2021-11-15,1,,,,,エムケイエヌズ,0
1100,4260001036220,新規,0,2021-11-15,2021-11-15,株式会社マーキュリープラザ,,株式会社,岡山県,玉野市,東田井地１４３２番地４,,33,204,7060312,,,,,,,2021-11-15,1,,,,,マーキュリープラザ,0
1101,4260003003722,新規,0,2021-11-15,2021-11-15,合同会社Ｆｏｒｃｅ　Ｏｎｅ,,合同会社,岡山県,和気郡和気町,矢田１０２‐２,,33,346,7090511,,,,,,,2021-11-15,1,,,,,フォースワン,0
1103,4270001008391,新規,0,2021-11-15,2021-11-15,モクテル株式会社,,株式会社,鳥取県,米子市,車尾３丁目３番５８号,,31,202,6830006,,,,,,,2021-11-15,1,,,,,モクテル,0
1114,4290001095271,新規,0,2021-11-15,2021-11-15,株式会社ＳＥＩＳＩＮ,,株式会社,福岡県,福岡市博多区,博多駅前２丁目１９番２７号,,40,132,8120011,,,,,,,2021-11-15,1,,,,,セイシン,0
1115,4290001095370,新規,0,2021-11-15,2021-11-15,株式会社テクノスペース,,株式会社,福岡県,福岡市東区,多の津４丁目５番１２号ＬＩＺビル２Ｆ,,40,131,8130034,,,,,,,2021-11-15,1,,,,,テクノスペース,0
1122,4290801027985,新規,0,2021-11-15,2021-11-15,株式会社ＩＰＭ,,株式会社,福岡県,北九州市小倉北区,浅野３丁目８番１号ＡＩＭビル６階,,40,106,8020001,,,,,,,2021-11-15,1,,,,,アイピーエム,0
1123,4290801027993,新規,0,2021-11-15,2021-11-15,ほけんの生きかた株式会社,,株式会社,福岡県,北九州市八幡西区,永犬丸４丁目１番２７号－５０１,,40,109,8070851,,,,,,,2021-11-15,1,,,,,ホケンノイキカタ,0
1128,4340001024274,新規,0,2021-11-15,2021-11-15,ＹＫベントンシェール株式会社,,株式会社,鹿児島県,鹿児島市,平之町９番１５－７０２号,,46,201,8920848,,,,,,,2021-11-15,1,,,,,ワイケイベントンシェール,0
1135,4360001029643,新規,0,2021-11-15,2021-11-15,ＲＰＬエージェンシー株式会社,,株式会社,沖縄県,那覇市,高良３丁目８番２３号４０２,,47,201,9010145,,,,,,,2021-11-15,1,,,,,アールピーエルエージェンシー,0
1141,4400001015671,新規,0,2021-11-15,2021-11-15,株式会社ＡＩＳ,,株式会社,岩手県,北上市,堤ケ丘１丁目１０番３６－１０１号ザ・マセラティ,,03,206,0240011,,,,,,,2021-11-15,1,,,,,エーアイエス,0
1142,4400003002858,新規,0,2021-11-15,2021-11-15,ＭＣＫ合同会社,,合同会社,岩手県,遠野市,早瀬町２丁目１番１２号,,03,208,0280542,,,,,,,2021-11-15,1,,,,,エムシーケイ,0
1144,4410001013014,新規,0,2021-11-15,2021-11-15,株式会社グランドマム,,株式会社,秋田県,秋田市,新屋朝日町１３番２３号,,05,201,0101613,,,,,,,2021-11-15,1,,,,,グランドマム,0
1157,4440003001427,新規,0,2021-11-15,2021-11-15,合同会社虎彪丸,,合同会社,北海道,函館市,石川町１８８番地１４,,01,202,0410802,,,,,,,2021-11-15,1,,,,,,0
1166,4500001023805,新規,0,2021-11-15,2021-11-15,エネリ株式会社,,株式会社,愛媛県,松山市,東一万町３番地ライオンズマンション東一万１００３号,,38,201,7900871,,,,,,,2021-11-15,1,,,,,エネリ,0
1169,4700150105771,新規,0,2021-11-15,2021-11-15,新義成実宗　遠懸山　孝導院,,その他,静岡県,掛川市,下土方２６０番地の２,,22,213,4371434,,,,,,,2021-11-15,1,,,,,シンギジョウジツシュウエイケイザンコウドウイン,0
1178,5010001222496,新規,0,2021-11-15,2021-11-15,株式会社ＺＥＲＯ　ＩＣＨＩ,,株式会社,東京都,中央区,晴海２丁目２番４２－３０１５号室,,13,102,1040053,,,,,,,2021-11-15,1,,,,,ゼロイチ,0
1182,5010003036291,新規,0,2021-11-15,2021-11-15,クイックアドバイザー合同会社,,合同会社,東京都,文京区,小石川３丁目３８番３－５０７号,,13,105,1120002,,,,,,,2021-11-15,1,,,,,クイックアドバイザー,0
1192,5010403026529,新規,0,2021-11-15,2021-11-15,Ｓｅｄｏｎａ　Ｓｐａｒｋｌｉｎｇ　Ａｉｒ合同会社,,合同会社,東京都,港区,南麻布１丁目８番１６号パークコート南麻布１２０４,,13,103,1060047,,,,,,,2021-11-15,1,,,,,セドナスパークリングエアー,0
1196,5010405020389,新規,0,2021-11-15,2021-11-15,社会保険労務士法人ＡＳＵＭＩ,,その他の設立登記法人,東京都,港区,海岸１丁目２番１－１０１号,,13,103,1050022,,,,,,,2021-11-15,1,,,,,アスミ,0
1197,5010405020422,新規,0,2021-11-15,2021-11-15,一般社団法人ＲＥＤ　ＴＯＫＹＯ　ＴＯＷＥＲ,,その他の設立登記法人,東京都,港区,元赤坂１丁目１番８号赤坂コミュニティビル４階,,13,103,1070051,,,,,,,2021-11-15,1,,,,,レッドトウキョウタワー,0
1210,5011005009285,新規,0,2021-11-15,2021-11-15,一般社団法人日本ウェブプロモーション支援機構,,その他の設立登記法人,東京都,渋谷区,渋谷２丁目１９－１５宮益坂ビルディング６０９,,13,113,1500002,,,,,,,2021-11-15,1,,,,,ニホンウェブプロモーションシエンキコウ,0
1214,5011101096863,新規,0,2021-11-15,2021-11-15,株式会社Ｘ　Ｕｍｂｒｅｌｌａ,,株式会社,東京都,新宿区,新宿１丁目３６－２新宿第七葉山ビル３階,,13,104,1600022,,,,,,,2021-11-15,1,,,,,エックスアンブレラ,0
1215,5011101096888,新規,0,2021-11-15,2021-11-15,ＡＩ　ＤａｔａＢａｎｋ株式会社,,株式会社,東京都,新宿区,新宿１丁目２番８号国久ビル４階Ｂ号室,,13,104,1600022,,,,,,,2021-11-15,1,,,,,エーアイデータバンク,0
1216,5011101096896,新規,0,2021-11-15,2021-11-15,株式会社クオン,,株式会社,東京都,新宿区,中落合３丁目１１番５号,,13,104,1610032,,,,,,,2021-11-15,1,,,,,クオン,0
1217,5011103011168,新規,0,2021-11-15,2021-11-15,イノウエ・アンド・カンパニー合同会社,,合同会社,東京都,新宿区,赤城元町１番１０－４１０号,,13,104,1620817,,,,,,,2021-11-15,1,,,,,イノウエアンドカンパニー,0
1227,5011603003441,新規,0,2021-11-15,2021-11-15,合同会社エナール,,合同会社,東京都,練馬区,土支田１丁目３１番１１－３０３号山八マンションＡ,,13,120,1790076,,,,,,,2021-11-15,1,,,,,エナール,0
1232,5011801039964,新規,0,2021-11-15,2021-11-15,株式会社ミツアナ,,株式会社,東京都,足立区,足立３丁目１７番６号１Ｆ,,13,121,1200015,,,,,,,2021-11-15,1,,,,,ミツアナ,0
1251,5020001143907,新規,0,2021-11-15,2021-11-15,株式会社ＳＡＩＴＯ　ＴＥＣＨＮＩＣＡ,,株式会社,神奈川県,横浜市港南区,上大岡西３丁目１９番４号,,14,111,2330002,,,,,,,2021-11-15,1,,,,,サイトーテクニカ,0
1252,5020003020815,新規,0,2021-11-15,2021-11-15,合同会社ＪＡＶＭＳ,,合同会社,神奈川県,川崎市川崎区,砂子２丁目６番地１１,,14,131,2100006,,,,,,,2021-11-15,1,,,,,ジャヴムス,0
1255,5021001074506,新規,0,2021-11-15,2021-11-15,株式会社縁,,株式会社,神奈川県,相模原市南区,上鶴間６丁目１－２０スカイビル２・１Ｆ,,14,153,2520302,,,,,,,2021-11-15,1,,,,,エニシ,0
1272,5040001120978,新規,0,2021-11-15,2021-11-15,Ｃａｐｉｔａｌ　Ｍｏｔｏｒｓ株式会社,,株式会社,千葉県,野田市,木間ケ瀬４６５０番地３,,12,208,2700222,,,,,,,2021-11-15,1,,,,,キャピタルモーターズ,0
1273,5040001120986,新規,0,2021-11-15,2021-11-15,ＢｒｉｎｇＯｆｆ株式会社,,株式会社,千葉県,市川市,新井３丁目７番１２－１０５号,,12,203,2720144,,,,,,,2021-11-15,1,,,,,ブリングオフ,0
1281,5050001050134,新規,0,2021-11-15,2021-11-15,株式会社Ｂｉｌａｌトレーディング,,株式会社,茨城県,古河市,上和田４２１番地,,08,204,3060122,,,,,,,2021-11-15,1,,,,,ビラルトレーディング,0
1290,5080401025484,新規,0,2021-11-15,2021-11-15,株式会社Ａｓｓｉｓｔ,,株式会社,静岡県,浜松市中区,上島２丁目２１番１４号,,22,131,4338122,,,,,,,2021-11-15,1,,,,,アシスト,0
1291,5080403004412,新規,0,2021-11-15,2021-11-15,合同会社Ｌ,,合同会社,静岡県,浜松市中区,中島４丁目８番５号,,22,131,4300856,,,,,,,2021-11-15,1,,,,,エル,0
1301,5120001241808,新規,0,2021-11-15,2021-11-15,株式会社Ｆ＆Ｓ,,株式会社,大阪府,寝屋川市,仁和寺本町３丁目１３－２メゾン仁和寺ＩＩ,00124846,27,215,5720076,,,,,,,2021-11-15,1,,,,,エフアンドエス,0
1302,5120001241824,新規,0,2021-11-15,2021-11-15,株式会社ＩＢ帰国塾,,株式会社,大阪府,枚方市,釈尊寺町２８番２－１０３号,,27,210,5730081,,,,,,,2021-11-15,1,,,,,アイビーキコクジュク,0
1303,5120001241832,新規,0,2021-11-15,2021-11-15,ここ．俺の店株式会社,,株式会社,大阪府,大阪市福島区,吉野３丁目７－１４,,27,103,5530006,,,,,,,2021-11-15,1,,,,,ココオレノミセ,0
1304,5120001241840,新規,0,2021-11-15,2021-11-15,株式会社ホールデム,,株式会社,大阪府,大阪市中央区,瓦町３丁目３番１６号,,27,128,5410048,,,,,,,2021-11-15,1,,,,,ホールデム,0
1305,5120001241865,新規,0,2021-11-15,2021-11-15,株式会社ＪＯＹＯスタッフサービス,,株式会社,大阪府,門真市,桑才新町３２番４号,,27,223,5710043,,,,,,,2021-11-15,1,,,,,ジョウヨウスタッフサービス,0
1306,5120001241873,新規,0,2021-11-15,2021-11-15,株式会社Ｋａｎｄａｙａ　ｏｆｆｉｃｅ．ＫｕｏＫｏａ,,株式会社,大阪府,大阪市阿倍野区,昭和町４丁目１０番１５号,,27,119,5450011,,,,,,,2021-11-15,1,,,,,カンダヤオフィスクオコア,0
1307,5120001241881,新規,0,2021-11-15,2021-11-15,トキツカゼ出版株式会社,,株式会社,大阪府,大阪市北区,梅田２丁目２番２号ヒルトンプラザウェストオフィスタワー１９階,,27,127,5300001,,,,,,,2021-11-15,1,,,,,トキツカゼシュッパン,0
1319,5120901045184,新規,0,2021-11-15,2021-11-15,トラスト株式会社,,株式会社,大阪府,箕面市,稲６丁目７番４０－２０１号,,27,220,5620015,,,,,,,2021-11-15,1,,,,,トラスト,0
1325,5130001070537,新規,0,2021-11-15,2021-11-15,株式会社Ｌｅｐｕｓ　Ｅｓｔａｔｅ,,株式会社,京都府,京都市伏見区,横大路三栖山城屋敷町１０８番地,,26,109,6128207,,,,,,,2021-11-15,1,,,,,レプスエステート,0
1328,5130005016313,新規,0,2021-11-15,2021-11-15,一般社団法人アートキャスト山科,,その他の設立登記法人,京都府,京都市山科区,西野楳本町１２番３Ｆ,,26,110,6078358,,,,,,,2021-11-15,1,,,,,アートキャストヤマシナ,0
1332,5140001123814,新規,0,2021-11-15,2021-11-15,長谷川鑑定株式会社,,株式会社,兵庫県,神戸市西区,富士見が丘４丁目３番地の１６,,28,111,6512214,,,,,,,2021-11-15,1,,,,,ハセガワカンテイ,0
1333,5140001123839,新規,0,2021-11-15,2021-11-15,Ｍｅ　Ｍｙ　ＧＯＬＦ　Ａｃａｄｅｍｙ株式会社,,株式会社,兵庫県,神戸市中央区,加納町２丁目９番２号２階南号室,,28,110,6500001,,,,,,,2021-11-15,1,,,,,ミーマイゴルフアカデミー,0
1338,5140003016966,新規,0,2021-11-15,2021-11-15,ＥＤＤＹ・ＰＡＮＤＡＳ・ＨＯＬＤＩＮＧＳ合同会社,,合同会社,兵庫県,三木市,別所町花尻６２５番地,,28,215,6730446,,,,,,,2021-11-15,1,,,,,エディパンダースホールディングス,0
1339,5140003016990,新規,0,2021-11-15,2021-11-15,七光合同会社,,合同会社,兵庫県,西宮市,山口町上山口４丁目２１番１号,,28,204,6511421,,,,,,,2021-11-15,1,,,,,ナナヒカリ,0
1341,5150001025101,新規,0,2021-11-15,2021-11-15,松竹梅株式会社,,株式会社,奈良県,奈良市,西木辻町１２１番地の２－４０１,00124852,29,201,6308325,,,,,,,2021-11-15,1,,,,,ショウチクバイ,0
1346,5160001023822,新規,0,2021-11-15,2021-11-15,株式会社湖崇,,株式会社,滋賀県,大津市,一里山５丁目３６番１１号,,25,201,5202153,,,,,,,2021-11-15,1,,,,,コシュウ,0
1347,5170001016866,新規,0,2021-11-15,2021-11-15,株式会社テン・ホープス,,株式会社,和歌山県,新宮市,田鶴原町２丁目７番１３号,,30,207,6470031,,,,,,,2021-11-15,1,,,,,テンホープス,0
1355,5180001148709,新規,0,2021-11-15,2021-11-15,株式会社アグリワシオ,,株式会社,愛知県,愛西市,三和町北条３８番地,,23,232,4960945,,,,,,,2021-11-15,1,,,,,アグリワシオ,0
1356,5180001148717,新規,0,2021-11-15,2021-11-15,ユウ建築株式会社,,株式会社,愛知県,名古屋市中村区,八社１丁目１９６番地１,,23,105,4530863,,,,,,,2021-11-15,1,,,,,ユウケンチク,0
1357,5180001148741,新規,0,2021-11-15,2021-11-15,株式会社ＰＡＮＡＣＥＡＮ,,株式会社,愛知県,名古屋市緑区,鳴丘１丁目３３１番地,,23,114,4580005,,,,,,,2021-11-15,1,,,,,パナシアン,0
1364,5180301035623,新規,0,2021-11-15,2021-11-15,株式会社ｉＲｉＥ,,株式会社,愛知県,蒲郡市,竹谷町内山１７番地４,,23,214,4430046,,,,,,,2021-11-15,1,,,,,アイリー,0
1371,5200001039401,新規,0,2021-11-15,2021-11-15,株式会社にしき,,株式会社,岐阜県,関市,西田原９２１番地,,21,205,5013928,,,,,,,2021-11-15,1,,,,,ニシキ,0
1372,5200003005376,新規,0,2021-11-15,2021-11-15,合同会社ＫＩＲＡＮ,,合同会社,岐阜県,岐阜市,早田栄町１丁目１０番地,,21,201,5020847,,,,,,,2021-11-15,1,,,,,キラン,0
1376,5230001019078,新規,0,2021-11-15,2021-11-15,株式会社立山酒店,,株式会社,富山県,魚津市,北鬼江７４０番地２,,16,204,9370066,,,,,,,2021-11-15,1,,,,,タテヤマサケテン,0
1388,5260001036203,新規,0,2021-11-15,2021-11-15,株式会社フジソウ,,株式会社,岡山県,岡山市南区,豊成３丁目３番２９号,,33,104,7000942,,,,,,,2021-11-15,1,,,,,フジソウ,0
1389,5260003003721,新規,0,2021-11-15,2021-11-15,合同会社インテリア岸本,,合同会社,岡山県,瀬戸内市,長船町福岡９８３番地１６,,33,212,7014265,,,,,,,2021-11-15,1,,,,,インテリアキシモト,0
1393,5280001008563,新規,0,2021-11-15,2021-11-15,株式会社エフ・プランニング,,株式会社,島根県,雲南市,三刀屋町三刀屋１１２１番地１,,32,209,6902404,,,,,,,2021-11-15,1,,,,,エフプランニング,0
1394,5290001095320,新規,0,2021-11-15,2021-11-15,株式会社Ｗｉｓｍａｃ,,株式会社,福岡県,福岡市中央区,大手門３丁目１４－２７ラフォーレ大濠パークアベニュー６０４,,40,133,8100074,,,,,,,2021-11-15,1,,,,,ウィスマック,0
1395,5290001095386,新規,0,2021-11-15,2021-11-15,暁株式会社,,株式会社,福岡県,那珂川市,道善２丁目４０番地渡辺第２ビル５０１,,40,231,8111254,,,,,,,2021-11-15,1,,,,,アカツキ,0
1396,5290003011829,新規,0,2021-11-15,2021-11-15,合同会社優商会,,合同会社,福岡県,福岡市中央区,渡辺通１丁目１番１号サンセルコ２階,,40,133,8100004,,,,,,,2021-11-15,1,,,,,ユウショウカイ,0
1407,5340003003630,新規,0,2021-11-15,2021-11-15,合同会社タリタラボ,,合同会社,鹿児島県,伊佐市,大口下殿９１３,,46,224,8952525,,,,,,,2021-11-15,1,,,,,タリタラボ,0
1408,5350001017417,新規,0,2021-11-15,2021-11-15,株式会社ミエルカオムニバス,,株式会社,宮崎県,宮崎市,大字田吉１０２５番地３,,45,201,8800911,,,,,,,2021-11-15,1,,,,,ミエルカオムニバス,0
1417,5400001015670,新規,0,2021-11-15,2021-11-15,株式会社くろしぇっと,,株式会社,岩手県,奥州市,江刺豊田町２丁目１番５号,,03,215,0231104,,,,,,,2021-11-15,1,,,,,クロシェット,0
1424,5430001085380,新規,0,2021-11-15,2021-11-15,株式会社工房山崎,00124853,株式会社,北海道,岩見沢市,上幌向北一条３丁目７３４番地６７,,01,210,0690361,,,,,,,2021-11-15,1,,,,,コウボウヤマザキ,0
1426,5430003013364,新規,0,2021-11-15,2021-11-15,レグルス合同会社,,合同会社,北海道,札幌市北区,新琴似九条１２丁目６番１２号,,01,102,0010909,,,,,,,2021-11-15,1,,,,,レグルス,0
1431,5460103001407,新規,0,2021-11-15,2021-11-15,ＳＶ合同会社,,合同会社,北海道,中川郡幕別町,札内桂町５６６－１１２,,01,643,0890545,,,,,,,2021-11-15,1,,,,,エスブイ,0
1433,5500001023812,新規,0,2021-11-15,2021-11-15,ＢＥＡＲ株式会社,,株式会社,愛媛県,松山市,小坂４丁目－１６番－３２号レーベン池田第６ビル３０３号,,38,201,7900963,,,,,,,2021-11-15,1,,,,,ベアー,0
1442,6010001222529,新規,0,2021-11-15,2021-11-15,Ｉｒｉｓ株式会社,,株式会社,東京都,千代田区,永田町２丁目１４番２号山王グランドビル３階スリーアイズキャピタル株式会社内,,13,101,1000014,,,,,,,2021-11-15,1,,,,,アイリス,0
1444,6010003036299,新規,0,2021-11-15,2021-11-15,ＲＡｉＮ合同会社,,合同会社,東京都,中央区,銀座６丁目１３－１６銀座ウォールビル５階,,13,102,1040061,,,,,,,2021-11-15,1,,,,,レイン,0
1445,6010005034210,新規,0,2021-11-15,2021-11-15,一般社団法人ＫＣＲ２,,その他の設立登記法人,東京都,中央区,日本橋１丁目４番１号,,13,102,1030027,,,,,,,2021-11-15,1,,,,,ケーシーアールツー,0
1446,6010101014958,新規,0,2021-11-15,2021-11-15,株式会社晃華堂,,株式会社,東京都,八王子市,下恩方町５０９番地,,13,201,1920154,,,,,,,2021-11-15,1,,,,,コウカドウ,0
1447,6010103001814,新規,0,2021-11-15,2021-11-15,ａｌｄｖ合同会社,,合同会社,東京都,八王子市,南大沢３丁目１４番地９－１０５,,13,201,1920364,,,,,,,2021-11-15,1,,,,,オルディヴ,0
1455,6010401163570,新規,0,2021-11-15,2021-11-15,株式会社やまがみ,,株式会社,東京都,港区,西麻布４丁目２－１３八幡ビル３階,,13,103,1060031,,,,,,,2021-11-15,1,,,,,ヤマガミ,0
1456,6010401163819,新規,0,2021-11-15,2021-11-15,達成電器株式会社,,株式会社,東京都,港区,浜松町２丁目２番１１号廣瀬ビル４階,,13,103,1050013,,,,,,,2021-11-15,1,,,,,タッセイデンキ,0
1457,6010401163884,新規,0,2021-11-15,2021-11-15,株式会社ネクストラボ,,株式会社,東京都,港区,赤坂２丁目１７番１－１８１０号,,13,103,1070052,,,,,,,2021-11-15,1,,,,,ネクストラボ,0
1458,6010401163892,新規,0,2021-11-15,2021-11-15,インターファーマ株式会社,,株式会社,東京都,港区,西麻布３丁目１０番９号,,13,103,1060031,,,,,,,2021-11-15,1,,,,,インターファーマ,0
1476,6011001143896,新規,0,2021-11-15,2021-11-15,株式会社ホープカンパニー,,株式会社,東京都,渋谷区,神宮前６丁目２３－４桑野ビル２階,,13,113,1500001,,,,,,,2021-11-15,1,,,,,ホープカンパニー,0
1477,6011001143987,新規,0,2021-11-15,2021-11-15,株式会社ラモハウス,,株式会社,東京都,目黒区,下目黒２丁目２１番１８－１２０３号,,13,110,1530064,,,,,,,2021-11-15,1,,,,,ラモハウス,0
1478,6011001144011,新規,0,2021-11-15,2021-11-15,株式会社ＲＹＵ,,株式会社,東京都,渋谷区,南平台町１３番１２号,,13,113,1500036,,,,,,,2021-11-15,1,,,,,リュウ,0
1484,6011101096755,新規,0,2021-11-15,2021-11-15,株式会社ｂａｌｓａｍｉｃｏ,,株式会社,東京都,新宿区,西新宿８丁目５－１２メゾンドイッセイ２０３,,13,104,1600023,,,,,,,2021-11-15,1,,,,,バルサミコ,0
1485,6011101096870,新規,0,2021-11-15,2021-11-15,株式会社コンジュラー,,株式会社,東京都,新宿区,西新宿５丁目５番１－４８０２号,,13,104,1600023,,,,,,,2021-11-15,1,,,,,,0
1487,6011201023411,新規,0,2021-11-15,2021-11-15,ＣＣＲＴ株式会社,,株式会社,東京都,中野区,野方１丁目４９番１１号,,13,114,1650027,,,,,,,2021-11-15,1,,,,,シーシーアールティー,0
1494,6011601025536,新規,0,2021-11-15,2021-11-15,株式会社ケスウユ,,株式会社,東京都,練馬区,関町北２丁目１７番４号,,13,120,1770051,,,,,,,2021-11-15,1,,,,,ケスウユ,0
1497,6011701024842,新規,0,2021-11-15,2021-11-15,株式会社ヴィジョニスト,,株式会社,東京都,江戸川区,南小岩２丁目１３番１３号,,13,123,1330056,,,,,,,2021-11-15,1,,,,,ヴィジョニスト,0
1516,6013303005907,新規,0,2021-11-15,2021-11-15,Ｓｈｕｎｎｅｙ合同会社,,合同会社,東京都,豊島区,池袋２丁目７８番２－６０２号,,13,116,1710014,,,,,,,2021-11-15,1,,,,,シュンニー,0
1517,6013305003280,新規,0,2021-11-15,2021-11-15,一般社団法人東京フロイデ合唱団,,その他の設立登記法人,東京都,豊島区,南大塚１丁目４２番７号第２東ビル１０１,,13,116,1700005,,,,,,,2021-11-15,1,,,,,トウキョウフロイデガッショウダン,0
1520,6020001143880,新規,0,2021-11-15,2021-11-15,株式会社かわさきメディケアパートナーズ,,株式会社,神奈川県,川崎市川崎区,渡田向町１５番７号村田ビル１Ｆ,,14,131,2100841,,,,,,,2021-11-15,1,,,,,カワサキメディケアパートナーズ,0
1521,6020001143897,新規,0,2021-11-15,2021-11-15,株式会社グリーンホーム,,株式会社,神奈川県,横浜市中区,伊勢佐木町７丁目１５２番地サンヴェール伊勢佐木町７０１号室,,14,104,2310045,,,,,,,2021-11-15,1,,,,,グリーンホーム,0
1522,6020003020822,新規,0,2021-11-15,2021-11-15,ＧＩＧ合同会社,,合同会社,神奈川県,川崎市幸区,塚越２丁目２９２番地,,14,132,2120024,,,,,,,2021-11-15,1,,,,,ジーアイジー,0
1523,6020005015275,新規,0,2021-11-15,2021-11-15,一般社団法人陸上競技ネットワーク,,その他の設立登記法人,神奈川県,川崎市中原区,小杉町１丁目５１１番地１,,14,133,2110063,,,,,,,2021-11-15,1,,,,,,0
1524,6021001074488,新規,0,2021-11-15,2021-11-15,エリクサジェン・サイエンティフィック・ジャパン株式会社,,株式会社,神奈川県,藤沢市,村岡東２丁目２６番地の１湘南ヘルスイノベーションパーク,,14,205,2510012,,,,,,,2021-11-15,1,,,,,エリクサジェンサイエンティフィックジャパン,0
1525,6021001074505,新規,0,2021-11-15,2021-11-15,株式会社ゆうのうえん,,株式会社,神奈川県,藤沢市,辻堂６丁目１９番２６号,,14,205,2510047,,,,,,,2021-11-15,1,,,,,ユウノウエン,0
1543,6040003018947,新規,0,2021-11-15,2021-11-15,合同会社ＡｕｇＯｎｅ,,合同会社,千葉県,千葉市若葉区,若松町５３１番地８１,,12,104,2640021,,,,,,,2021-11-15,1,,,,,オーグワン,0
1545,6050001050133,新規,0,2021-11-15,2021-11-15,アルマ・マーケティング株式会社,,株式会社,茨城県,稲敷郡美浦村,大字受領１１４５番地１,,08,442,3000424,,,,,,,2021-11-15,1,,,,,アルママーケティング,0
1547,6050003006199,新規,0,2021-11-15,2021-11-15,合同会社Ｃ．Ｎ．Ｉエクステリア,,合同会社,茨城県,牛久市,牛久町２４７番地２,,08,219,3001221,,,,,,,2021-11-15,1,,,,,シエヌアイエクステリア,0
1549,6060003003864,新規,0,2021-11-15,2021-11-15,合同会社大島きのこ園,,合同会社,栃木県,塩谷郡塩谷町,大字船生７９５６番地,,09,384,3292441,,,,,,,2021-11-15,1,,,,,オオシマキノコエン,0
1557,6080401025483,新規,0,2021-11-15,2021-11-15,株式会社オカド,,株式会社,静岡県,磐田市,豊田３５０番地２,,22,211,4380808,,,,,,,2021-11-15,1,,,,,オカド,0
1558,6080405007404,新規,0,2021-11-15,2021-11-15,ＮＰＯ法人アンサンブル・ムジーク浜松,,その他の設立登記法人,静岡県,浜松市東区,半田山３丁目２９番１４号,,22,132,4313125,,,,,,,2021-11-15,1,,,,,アンサンブルムジークハママツ,0
1559,6090001017277,新規,0,2021-11-15,2021-11-15,株式会社Ｒａｚｅｒ,,株式会社,山梨県,南巨摩郡南部町,十島６５番地３,,19,366,4092303,,,,,,,2021-11-15,1,,,,,レイザー,0
1579,6120001241798,新規,0,2021-11-15,2021-11-15,ベストラングリッサー株式会社,,株式会社,大阪府,大阪市浪速区,敷津東２丁目１番２４－２３０９号,,27,111,5560012,,,,,,,2021-11-15,1,,,,,ベストラングリッサー,0
1580,6120001241815,新規,0,2021-11-15,2021-11-15,株式会社クールラボ,,株式会社,大阪府,大阪市中央区,南船場２丁目２番２－１５０１号,,27,128,5420081,,,,,,,2021-11-15,1,,,,,クールラボ,0
1581,6120001241831,新規,0,2021-11-15,2021-11-15,株式会社ＫＯＵＫＩＳＨＩＮ,,株式会社,大阪府,大阪市浪速区,難波中３丁目９番３号ＲＥ－０２０ビル３０５号,,27,111,5560011,,,,,,,2021-11-15,1,,,,,コウキシン,0
1582,6120001241848,新規,0,2021-11-15,2021-11-15,株式会社ＳｏｏＬｙｎ,,株式会社,大阪府,大阪市浪速区,塩草１丁目４番１１号,,27,111,5560024,,,,,,,2021-11-15,1,,,,,スーリン,0
1583,6120001241914,新規,0,2021-11-15,2021-11-15,株式会社Ｒｅｌｉｖｅｍｅｎｔ,,株式会社,大阪府,大阪市北区,梅田２丁目２番２号ヒルトンプラザウエストオフィスタワー１９階,,27,127,5300001,,,,,,,2021-11-15,1,,,,,リリーブメント,0
1592,6120005022609,新規,0,2021-11-15,2021-11-15,一般財団法人辰野環境財団,,その他の設立登記法人,大阪府,大阪市中央区,南本町２丁目２番９号,,27,128,5410054,,,,,,,2021-11-15,1,,,,,タツノカンキョウザイダン,0
1597,6120901045191,新規,0,2021-11-15,2021-11-15,株式会社岩谷電気設備,,株式会社,大阪府,豊中市,浜３丁目２１番２９号,,27,203,5610817,,,,,,,2021-11-15,1,,,,,イワタニデンキセツビ,0
1598,6120901045217,新規,0,2021-11-15,2021-11-15,株式会社クロスリンク,,株式会社,大阪府,豊中市,上新田１丁目１９番３６ジオ千里中央ザ・レジデンス３１４号,,27,203,5600085,,,,,,,2021-11-15,1,,,,,クロスリンク,0
1605,6130001070544,新規,0,2021-11-15,2021-11-15,株式会社ｓｗａｇ,,株式会社,京都府,京都市山科区,日ノ岡鴨土町２４番地,,26,110,6078495,,,,,,,2021-11-15,1,,,,,スワッグ,0
1613,6140001123788,新規,0,2021-11-15,2021-11-15,Ｏｆｆｉｃｅ三幸株式会社,,株式会社,兵庫県,神戸市灘区,原田通１丁目２番１１号マンション王子３０２号,,28,102,6570837,,,,,,,2021-11-15,1,,,,,オフィスサンコウ,0
1614,6140001123821,新規,0,2021-11-15,2021-11-15,株式会社ゼブラグリーンズ,,株式会社,兵庫県,加古川市,東神吉町升田１１５５,,28,210,6750051,,,,,,,2021-11-15,1,,,,,ゼブラグリーンズ,0
1615,6140001123838,新規,0,2021-11-15,2021-11-15,株式会社Ｒ＆Ｓ,,株式会社,兵庫県,神戸市東灘区,御影塚町２丁目５番１５号,,28,101,6580044,,,,,,,2021-11-15,1,,,,,アールアンドエス,0
1622,6150001025100,新規,0,2021-11-15,2021-11-15,株式会社くるみ,,株式会社,奈良県,葛城市,長尾３３９番地４,,29,211,6392164,,,,,,,2021-11-15,1,,,,,クルミ,0
1626,6160001023805,新規,0,2021-11-15,2021-11-15,株式会社Ｂｏｏ,,株式会社,滋賀県,近江八幡市,北之庄町６１５番地１ラコリーナ内,,25,204,5230806,,,,,,,2021-11-15,1,,,,,ブー,0
1641,6180001148682,新規,0,2021-11-15,2021-11-15,ブラックライン株式会社,,株式会社,愛知県,知多郡東浦町,大字石浜字三本松１番地の１県営東浦住宅１５棟８０６号,,23,442,4702103,,,,,,,2021-11-15,1,,,,,ブラックライン,0
1642,6180001148699,新規,0,2021-11-15,2021-11-15,株式会社ウェルサポート,,株式会社,愛知県,春日井市,柏井町１丁目７０番地新豊土地ビル３Ｆ,,23,206,4860927,,,,,,,2021-11-15,1,,,,,ウェルサポート,0
1643,6180001148708,新規,0,2021-11-15,2021-11-15,株式会社ＮＴＳ,,株式会社,愛知県,名古屋市中区,新栄２丁目８番４号,,23,106,4600007,,,,,,,2021-11-15,1,,,,,エヌティーエス,0
1644,6180001148716,新規,0,2021-11-15,2021-11-15,株式会社Ｍ　ＳＴＡＮＤＡＲＤ,,株式会社,愛知県,名古屋市北区,山田１丁目１１－９アーバンスクエア１階,,23,103,4620810,,,,,,,2021-11-15,1,,,,,エムスタンダード,0
1645,6180001148724,新規,0,2021-11-15,2021-11-15,株式会社ＡＳＨ,,株式会社,愛知県,名古屋市中川区,東起町２丁目１番１号－Ｅ,,23,110,4540935,,,,,,,2021-11-15,1,,,,,アッシュ,0
1651,6180005019517,新規,0,2021-11-15,2021-11-15,エイタックス行政書士法人,,その他の設立登記法人,愛知県,名古屋市中区,丸の内３丁目６番４号リバーパーク丸の内８階Ａ号,,23,106,4600002,,,,,,,2021-11-15,1,,,,,エイタックス,0
1662,6200001039409,新規,0,2021-11-15,2021-11-15,株式会社Ｎ’ｓクラフト,,株式会社,岐阜県,岐阜市,長良３０９６番地１,,21,201,5020071,,,,,,,2021-11-15,1,,,,,エヌズクラフト,0
1665,6200003005375,新規,0,2021-11-15,2021-11-15,ＴＵＫＵＲＵ合同会社,,合同会社,岐阜県,本巣郡北方町,朝日町２丁目１８番地の１,,21,421,5010424,,,,,,,2021-11-15,1,,,,,ツクル,0
1675,6240001058925,新規,0,2021-11-15,2021-11-15,株式会社ＲＹＯＵＷＡ,,株式会社,広島県,福山市,奈良津町３丁目１０番１６号ラピス２０３,,34,207,7200022,,,,,,,2021-11-15,1,,,,,リョウワ,0
1676,6240001058933,新規,0,2021-11-15,2021-11-15,株式会社竹内左官技工,,株式会社,広島県,広島市安佐北区,安佐町大字鈴張１７８８番地２,,34,106,7311141,,,,,,,2021-11-15,1,,,,,タケウチサカンギコウ,0
1680,6250001019257,新規,0,2021-11-15,2021-11-15,株式会社河野内装,,株式会社,山口県,下関市,彦島迫町３丁目１５番９号,,35,201,7500092,,,,,,,2021-11-15,1,,,,,カワノナイソウ,0
1684,6260001036210,新規,0,2021-11-15,2021-11-15,株式会社エデュケート,,株式会社,岡山県,津山市,小田中２１９０番地５,,33,203,7080006,,,,,,,2021-11-15,1,,,,,エデュケート,0
1685,6260003003720,新規,0,2021-11-15,2021-11-15,合同会社恒進工業,,合同会社,岡山県,岡山市南区,箕島１６５番地１１,,33,104,7010206,,,,,,,2021-11-15,1,,,,,コウシンコウギョウ,0
1694,6290001095344,新規,0,2021-11-15,2021-11-15,サカイファーム株式会社,,株式会社,福岡県,久留米市,城島町大依７７番地４,,40,203,8300205,,,,,,,2021-11-15,1,,,,,サカイファーム,0
1702,6290801027991,新規,0,2021-11-15,2021-11-15,坂商株式会社,,株式会社,福岡県,北九州市八幡東区,帆柱４丁目１０番８号,,40,108,8050056,,,,,,,2021-11-15,1,,,,,サカショウ,0
1704,6290805009490,新規,0,2021-11-15,2021-11-15,一般社団法人任意売却サポートセンター,,その他の設立登記法人,福岡県,北九州市小倉北区,米町１丁目１番１号,,40,106,8020003,,,,,,,2021-11-15,1,,,,,ニンイバイキャクサポートセンター,0
1707,6320001018730,新規,0,2021-11-15,2021-11-15,良成工業株式会社,,株式会社,大分県,大分市,京が丘南２丁目１番７号,,44,201,8700129,,,,,,,2021-11-15,1,,,,,リョウセイコウギョウ,0
1709,6330005010419,新規,0,2021-11-15,2021-11-15,特定非営利活動法人いつきつなぎ,,その他の設立登記法人,熊本県,球磨郡五木村,乙１５３２番地１号,,43,511,8680202,,,,,,,2021-11-15,1,,,,,イツキツナギ,0
1712,6350001017416,新規,0,2021-11-15,2021-11-15,樹理農園株式会社,,株式会社,宮崎県,宮崎市,佐土原町下那珂９０８６番地３,,45,201,8800212,,,,,,,2021-11-15,1,,,,,ジュリノウエン,0
1715,6360001029625,新規,0,2021-11-15,2021-11-15,株式会社クリアループ,,株式会社,沖縄県,宮古島市,平良字東仲宗根４２８番地,,47,214,9060007,,,,,,,2021-11-15,1,,,,,クリアループ,0
1720,6370003005474,新規,0,2021-11-15,2021-11-15,ＶＯＮ合同会社,,合同会社,宮城県,仙台市宮城野区,宮城野１丁目９番３号,,04,102,9830045,,,,,,,2021-11-15,1,,,,,ボン,0
1728,6430001085396,新規,0,2021-11-15,2021-11-15,ワンズフーズ株式会社,,株式会社,北海道,札幌市北区,北二十一条西４丁目１－１６,,01,102,0010021,,,,,,,2021-11-15,1,,,,,ワンズフーズ,0
1758,7010001222296,新規,0,2021-11-15,2021-11-15,株式会社あそしあ少額短期準備ＮＥＯ,,株式会社,東京都,千代田区,九段北３丁目２番５号,,13,101,1020073,,,,,,,2021-11-15,1,,,,,アソシアショウガクタンキジュンビネオ,0
1759,7010001222544,新規,0,2021-11-15,2021-11-15,資生堂クリエイティブ株式会社,,株式会社,東京都,中央区,銀座７丁目５番５号,,13,102,1040061,,,,,,,2021-11-15,1,,,,,シセイドウクリエイティブ,0
1765,7010003036298,新規,0,2021-11-15,2021-11-15,合同会社アルファトレード,,合同会社,東京都,千代田区,神田平河町１番地第３東ビル６Ｆ４３号室,,13,101,1010027,,,,,,,2021-11-15,1,,,,,アルファトレード,0
1777,7010401163669,新規,0,2021-11-15,2021-11-15,株式会社シグマ紙業,,株式会社,東京都,港区,芝浦３丁目７番１２号,,13,103,1080023,,,,,,,2021-11-15,1,,,,,シグマシギョウ,0
1778,7010401163702,新規,0,2021-11-15,2021-11-15,株式会社Ｓｍａｒｔ　Ｆｏｒｃｅ,,株式会社,東京都,港区,東麻布２丁目３５番１号ＫＣビル６Ｆ,,13,103,1060044,,,,,,,2021-11-15,1,,,,,スマートフォース,0
1779,7010401163891,新規,0,2021-11-15,2021-11-15,スペクトル株式会社,,株式会社,東京都,港区,西麻布３丁目１０番９号,,13,103,1060031,,,,,,,2021-11-15,1,,,,,スペクトル,0
1782,7010403026485,新規,0,2021-11-15,2021-11-15,ＭＡ１合同会社,,合同会社,東京都,港区,赤坂９丁目７番２号１４０２,,13,103,1070052,,,,,,,2021-11-15,1,,,,,エムエーワン,0
1783,7010405020370,新規,0,2021-11-15,2021-11-15,一般社団法人女性の自立ファースト推進協会,,その他の設立登記法人,東京都,港区,南青山２丁目２番１５号,,13,103,1070062,,,,,,,2021-11-15,1,,,,,ジョセイノジリツファーストスイシンキョウカイ,0
1785,7010501048092,新規,0,2021-11-15,2021-11-15,３ｗｅｂ株式会社,,株式会社,東京都,台東区,上野２丁目１２番９号,,13,106,1100005,,,,,,,2021-11-15,1,,,,,スリーウェブ,0
1789,7010701041772,新規,0,2021-11-15,2021-11-15,株式会社ナミ,,株式会社,東京都,品川区,北品川５丁目６番１６－６０５号,,13,109,1410001,,,,,,,2021-11-15,1,,,,,ナミ,0
1806,7011201023410,新規,0,2021-11-15,2021-11-15,株式会社ＩＫｏＩ,,株式会社,東京都,中野区,本町１丁目２３番１１号,,13,114,1640012,,,,,,,2021-11-15,1,,,,,イコイ,0
1810,7011401023838,新規,0,2021-11-15,2021-11-15,Ｓｏｔｔｉｌｅ　Ｊａｐａｎ株式会社,,株式会社,東京都,板橋区,蓮根３丁目１１番９号,,13,119,1740046,,,,,,,2021-11-15,1,,,,,ソティーレジャパン,0
1814,7011801039962,新規,0,2021-11-15,2021-11-15,株式会社Ｂｕｎｎｙ＆Ｐｉｔｓ,,株式会社,東京都,葛飾区,青戸４丁目２１番６号１階,,13,122,1250062,,,,,,,2021-11-15,1,,,,,ブーニーアンドピッツ,0
1815,7011803004865,新規,0,2021-11-15,2021-11-15,合同会社ひとつやねのした,,合同会社,東京都,足立区,弘道１丁目１４番１０号,,13,121,1200013,,,,,,,2021-11-15,1,,,,,,0
1816,7011805003122,新規,0,2021-11-15,2021-11-15,一般社団法人ノースコミューンＴＯＫＹＯ,,その他の設立登記法人,東京都,足立区,北加平町２１番６－６０３号,,13,121,1210056,,,,,,,2021-11-15,1,,,,,ノースコミューントウキョウ,0
1827,7013301048270,新規,0,2021-11-15,2021-11-15,株式会社Ｃ　Ｐｒｏｄｕｃｔｉｏｎ,,株式会社,東京都,豊島区,池袋１丁目８番５号,,13,116,1700014,,,,,,,2021-11-15,1,,,,,シープロダクション,0
1829,7013303005906,新規,0,2021-11-15,2021-11-15,潤鋒合同会社,,合同会社,東京都,豊島区,南大塚３丁目５０番３号Ｔ・Ｊ大塚ビル２０１号室,,13,116,1700005,,,,,,,2021-11-15,1,,,,,ジュンホウ,0
1838,7020001143896,新規,0,2021-11-15,2021-11-15,株式会社ＳＡＴＯ建,,株式会社,神奈川県,横浜市神奈川区,羽沢町９４７番地１宮向団地５街区４号棟５０４号室,,14,102,2210863,,,,,,,2021-11-15,1,,,,,サトケン,0
1842,7020003020805,新規,0,2021-11-15,2021-11-15,相続支援センター合同会社,,合同会社,神奈川県,横浜市港北区,新横浜３丁目７番地１８日総第１８ビル９Ｆ,,14,109,2220033,,,,,,,2021-11-15,1,,,,,,0
1843,7020005015274,新規,0,2021-11-15,2021-11-15,一般社団法人横浜海洋研究所,,その他の設立登記法人,神奈川県,横浜市中区,海岸通４丁目２３番地,,14,104,2310002,,,,,,,2021-11-15,1,,,,,ヨコハマカイヨウケンキュウジョ,0
1847,7021001074504,新規,0,2021-11-15,2021-11-15,株式会社ＵＬＵ,,株式会社,神奈川県,小田原市,寿町５丁目１３－２－２,,14,206,2500002,,,,,,,2021-11-15,1,,,,,ウル,0
1858,7030001145322,新規,0,2021-11-15,2021-11-15,株式会社エムケーコーポレーション,,株式会社,埼玉県,川越市,東田町４番地３１１,,11,201,3501114,,,,,,,2021-11-15,1,,,,,エムケーコーポレーション,0
1860,7030003018311,新規,0,2021-11-15,2021-11-15,ＦＵＪＩ合同会社,,合同会社,埼玉県,狭山市,新狭山２丁目１９番２０号コーポ内田２０３号室,,11,215,3501331,,,,,,,2021-11-15,1,,,,,フジ,0
1863,7040001121000,新規,0,2021-11-15,2021-11-15,株式会社共信,,株式会社,千葉県,市原市,五井西４丁目１３番地１パークハイムマルサンＤ１０２,,12,219,2900038,,,,,,,2021-11-15,1,,,,,キョウシン,0
1875,7060003003863,新規,0,2021-11-15,2021-11-15,合同会社ＳＨＩＯ風,,合同会社,栃木県,塩谷郡塩谷町,大字風見山田４２４番地３,,09,384,3292338,,,,,,,2021-11-15,1,,,,,シオカゼ,0
1877,7070001038638,新規,0,2021-11-15,2021-11-15,株式会社７３ｃｏｒｐｏｒａｔｉｏｎ,,株式会社,群馬県,高崎市,江木町１３４５番地４,,10,202,3700046,,,,,,,2021-11-15,1,,,,,ナミコーポレーション,0
1878,7080001024579,新規,0,2021-11-15,2021-11-15,株式会社介護事業所コスモス,,株式会社,静岡県,静岡市葵区,瀬名７丁目３２番４１号,,22,101,4200911,,,,,,,2021-11-15,1,,,,,カイゴジギョウショコスモス,0
1880,7080403004410,新規,0,2021-11-15,2021-11-15,Ｆｉｒｓｔｅｐ合同会社,,合同会社,静岡県,浜松市中区,砂山町３５５番地の４ハマキョウレックス浜松駅南ビル４Ｆ,,22,131,4300926,,,,,,,2021-11-15,1,,,,,ファーステップ,0
1892,7120001241178,新規,0,2021-11-15,2021-11-15,株式会社襷,,株式会社,大阪府,大阪市福島区,福島７丁目５－１７サニーハイツ３０１号室,,27,103,5530003,,,,,,,2021-11-15,1,,,,,タスキ,0
1893,7120001241780,新規,0,2021-11-15,2021-11-15,株式会社ＫＥＹ,,株式会社,大阪府,大阪市東住吉区,湯里５丁目１６番地５号３Ｆ－Ｅ,,27,121,5460013,,,,,,,2021-11-15,1,,,,,キー,0
1894,7120001241814,新規,0,2021-11-15,2021-11-15,株式会社山中屋,,株式会社,大阪府,大阪市都島区,毛馬町２丁目１１番１０－３２０号,,27,102,5340001,,,,,,,2021-11-15,1,,,,,ヤマナカヤ,0
1895,7120001241822,新規,0,2021-11-15,2021-11-15,株式会社ＳｉｏｎＣａｐｉｔａｌ,,株式会社,大阪府,大阪市住吉区,沢之町２丁目１番２０－Ｃ号,,27,120,5580031,,,,,,,2021-11-15,1,,,,,シオンキャピタル,0
1896,7120001241830,新規,0,2021-11-15,2021-11-15,株式会社スタジオファナシ,,株式会社,大阪府,大阪市北区,西天満６丁目７番２号ＳＲ梅新ビル８階Ｂ３室,,27,127,5300047,,,,,,,2021-11-15,1,,,,,スタジオファナシ,0
1897,7120001241896,新規,0,2021-11-15,2021-11-15,株式会社ＤＡＩＫＩＮ,,株式会社,大阪府,大阪市浪速区,元町１丁目７番２１号,,27,111,5560016,,,,,,,2021-11-15,1,,,,,ダイキン,0
1905,7120901045190,新規,0,2021-11-15,2021-11-15,ＡｉｒＥｓｔａｔｅ株式会社,,株式会社,大阪府,吹田市,岸部南１丁目１９－１４,,27,205,5640011,,,,,,,2021-11-15,1,,,,,エアエステート,0
1906,7122001035353,新規,0,2021-11-15,2021-11-15,システムイノベーション株式会社,,株式会社,大阪府,四條畷市,岡山東５丁目１０番６号,,27,229,5750003,,,,,,,2021-11-15,1,,,,,システムイノベーション,0
1915,7130001070527,新規,0,2021-11-15,2021-11-15,株式会社Ａｒｔ　Ｒｅｎｏｖａｔｉｏｎ,,株式会社,京都府,京都市南区,久世大藪町３６８番地,,26,107,6010000,,,,,,,2021-11-15,1,,,,,アートリノベーション,0
1917,7140001123837,新規,0,2021-11-15,2021-11-15,株式会社ＦＡＣＴＯＲＹ,,株式会社,兵庫県,西宮市,甲子園浜２丁目１８番地,,28,204,6638155,,,,,,,2021-11-15,1,,,,,ファクトリー,0
1921,7140003016972,新規,0,2021-11-15,2021-11-15,合同会社平島勉Ｗｏｒｋｓ,,合同会社,兵庫県,西宮市,名塩さくら台２丁目１８番地２,,28,204,6691146,,,,,,,2021-11-15,1,,,,,ヒラシマツトムワークス,0
1923,7140005025889,新規,0,2021-11-15,2021-11-15,一般社団法人メディカルライフ,,その他の設立登記法人,兵庫県,西宮市,甲陽園目神山町２２番９号,,28,204,6620011,,,,,,,2021-11-15,1,,,,,メディカルライフ,0
1925,7150001025099,新規,0,2021-11-15,2021-11-15,株式会社リバースＰＲＯ,,株式会社,奈良県,奈良市,三条大路２丁目２－５６,,29,201,6308013,,,,,,,2021-11-15,1,,,,,リバースプロ,0
1927,7150005009346,新規,0,2021-11-15,2021-11-15,一般社団法人ワールド支援機構,,その他の設立登記法人,奈良県,御所市,大字櫛羅３１４番地の９,00124859,29,208,6392312,,,,,,,2021-11-15,1,,,,,ワールドシエンキコウ,0
1951,7180003023189,新規,0,2021-11-15,2021-11-15,合同会社ディッシュ,,合同会社,愛知県,名古屋市中区,松原１丁目１７番５号,,23,106,4600017,,,,,,,2021-11-15,1,,,,,ディッシュ,0
1953,7180301035621,新規,0,2021-11-15,2021-11-15,株式会社ＨＯＵＳＴＡＲＴ,,株式会社,愛知県,豊橋市,往完町字往還西６９番地３,,23,201,4418082,,,,,,,2021-11-15,1,,,,,ハウスタート,0
1956,7190001028866,新規,0,2021-11-15,2021-11-15,株式会社ＨＡＬ　ＢＥＡＵＴＹ,,株式会社,三重県,鈴鹿市,住吉３丁目２６－６,,24,207,5130826,,,,,,,2021-11-15,1,,,,,エチェルビューティー,0
1959,7190003003826,新規,0,2021-11-15,2021-11-15,合同会社サンエンジニアリング,,合同会社,三重県,鈴鹿市,長太旭町３丁目１番２０号,,24,207,5130042,,,,,,,2021-11-15,1,,,,,サンエンジニアリング,0
1962,7200001039408,新規,0,2021-11-15,2021-11-15,ＡＣＴ株式会社,,株式会社,岐阜県,大垣市,北切石町２丁目１１８番地５,,21,202,5030915,,,,,,,2021-11-15,1,,,,,アクト,0
1967,7210001018699,新規,0,2021-11-15,2021-11-15,株式会社福井キャリアマネジメント,,株式会社,福井県,福井市,順化１丁目１番１号,,18,201,9100023,,,,,,,2021-11-15,1,,,,,フクイキャリアマネジメント,0
1975,7240001058924,新規,0,2021-11-15,2021-11-15,キョウセイ株式会社,,株式会社,広島県,福山市,南蔵王町２丁目９番３０号,,34,207,7210973,,,,,,,2021-11-15,1,,,,,キョウセイ,0
1976,7240003005370,新規,0,2021-11-15,2021-11-15,アル＆リアルティ合同会社,,合同会社,広島県,福山市,加茂町字北山２１５番地,,34,207,7202415,,,,,,,2021-11-15,1,,,,,アルアンドリアルティ,0
1982,7260005010994,新規,0,2021-11-15,2021-11-15,行政書士法人山室事務所,,その他の設立登記法人,岡山県,岡山市北区,東古松南町５番３号,,33,101,7000922,,,,,,,2021-11-15,1,,,,,ヤマムロジムショ,0
1983,7270003001367,新規,0,2021-11-15,2021-11-15,合同会社クリアー,,合同会社,鳥取県,米子市,彦名町１０６４番地２,,31,202,6830854,,,,,,,2021-11-15,1,,,,,クリアー,0
1985,7280005007444,新規,0,2021-11-15,2021-11-15,ＮＰＯ法人スプリングクラウド,,その他の設立登記法人,島根県,出雲市,西園町３９１３番地１,,32,203,6930041,,,,,,,2021-11-15,1,,,,,スプリングクラウド,0
1995,7290001095376,新規,0,2021-11-15,2021-11-15,株式会社オチェアーノ,,株式会社,福岡県,福岡市中央区,鳥飼２丁目１番４０－８０３号,,40,133,8100053,,,,,,,2021-11-15,1,,,,,オチェアーノ,0
2003,7310003004209,新規,0,2021-11-15,2021-11-15,合同会社愛華,,合同会社,長崎県,長崎市,江里町１３番１４号,,42,201,8528032,,,,,,,2021-11-15,1,,,,,アイカ,0
2004,7320003003655,新規,0,2021-11-15,2021-11-15,Ｔｈｅ　Ｓｐａｃｅ合同会社,,合同会社,大分県,別府市,浜脇１丁目８番５号,,44,202,8740947,,,,,,,2021-11-15,1,,,,,ザスペース,0
2011,7340001024271,新規,0,2021-11-15,2021-11-15,まるせ株式会社,,株式会社,鹿児島県,垂水市,田神２８７番地２,,46,214,8912104,,,,,,,2021-11-15,1,,,,,マルセ,0
2015,7360001029616,新規,0,2021-11-15,2021-11-15,株式会社沖仲,,株式会社,沖縄県,名護市,大中２丁目４番１９号１階,,47,209,9050017,,,,,,,2021-11-15,1,,,,,オキナカ,0
2016,7360001029632,新規,0,2021-11-15,2021-11-15,琉球地所グループホールディングス株式会社,,株式会社,沖縄県,宜野湾市,真栄原３丁目３１番２０号,,47,205,9012215,,,,,,,2021-11-15,1,,,,,リュウキュウチショグループホールディングス,0
2023,7380001032337,新規,0,2021-11-15,2021-11-15,株式会社創現,,株式会社,福島県,田村市,大越町上大越字水神宮１９３－１,,07,211,9634111,,,,,,,2021-11-15,1,,,,,,0
2025,7390001016677,新規,0,2021-11-15,2021-11-15,株式会社ＡＩＹ,,株式会社,山形県,酒田市,千日町２１番９号,,06,204,9980014,,,,,,,2021-11-15,1,,,,,エーアイワイ,0
2028,7430001085387,新規,0,2021-11-15,2021-11-15,宮本ホールディングス株式会社,,株式会社,北海道,小樽市,奥沢１丁目１９番４号,,01,203,0470013,,,,,,,2021-11-15,1,,,,,ミヤモトホールディングス,0
2031,7430003013362,新規,0,2021-11-15,2021-11-15,合同会社Ｔ’ｚカンパニー,,合同会社,北海道,札幌市南区,藤野五条５丁目１３番６号,,01,106,0612285,,,,,,,2021-11-15,1,,,,,ティーズカンパニー,0
2037,7490001010034,新規,0,2021-11-15,2021-11-15,株式会社Ａｒｕｋａｒａ,,株式会社,高知県,高知市,春野町南ケ丘７丁目５番地１８,,39,201,7810314,,,,,,,2021-11-15,1,,,,,アルカラ,0
2040,7500001023802,新規,0,2021-11-15,2021-11-15,株式会社ＶＥＧＧＩＥ　ＭＯＮＫＥＹ　ＦＡＲＭＳ,,株式会社,愛媛県,新居浜市,宇高町１丁目７番３５号,,38,205,7920866,,,,,,,2021-11-15,1,,,,,ベジーモンキーファームズ,0
2052,8010001222493,新規,0,2021-11-15,2021-11-15,英和株式会社,,株式会社,東京都,文京区,小石川４丁目１３番１０号ピアチェーレ小石川２０１,,13,105,1120002,,,,,,,2021-11-15,1,,,,,エイワ,0
2053,8010001222535,新規,0,2021-11-15,2021-11-15,株式会社ｒｅｍｏｌｃａｒｅ,,株式会社,東京都,千代田区,神田佐久間町４丁目１５番地,,13,101,1010025,,,,,,,2021-11-15,1,,,,,レモルケ,0
2054,8010001222576,新規,0,2021-11-15,2021-11-15,株式会社西村有加オフィス,,株式会社,東京都,千代田区,九段南１丁目５番６号りそな九段ビル５階ＫＳフロア,,13,101,1020074,,,,,,,2021-11-15,1,,,,,ニシムラユカオフィス,0
2056,8010003036264,新規,0,2021-11-15,2021-11-15,ＨＬＢ９号合同会社,,合同会社,東京都,千代田区,霞が関３丁目２番５号,,13,101,1000013,,,,,,,2021-11-15,1,,,,,エイチエルビーキュウゴウ,0
2057,8010005034209,新規,0,2021-11-15,2021-11-15,呉服橋ＧＰ一般社団法人,,その他の設立登記法人,東京都,千代田区,九段南３丁目７番７号成和綜合会計事務所内,,13,101,1020074,,,,,,,2021-11-15,1,,,,,ゴフクバシジーピー,0
2066,8010401163833,新規,0,2021-11-15,2021-11-15,株式会社ＭＩＨＡ,,株式会社,東京都,港区,新橋２丁目１６番１号ニュー新橋ビル７０２,,13,103,1050004,,,,,,,2021-11-15,1,,,,,ミハ,0
2070,8010405020386,新規,0,2021-11-15,2021-11-15,一般財団法人寿澄,,その他の設立登記法人,東京都,港区,南麻布４丁目１１番３０号南麻布渋谷ビル,,13,103,1060047,,,,,,,2021-11-15,1,,,,,トシスミ,0
2072,8010501048091,新規,0,2021-11-15,2021-11-15,ＳＤＧｓ・ＱＲ株式会社,,株式会社,東京都,台東区,西浅草３丁目２７番１７号,,13,106,1110035,,,,,,,2021-11-15,1,,,,,エスディジーズキュウアール,0
2086,8011001143911,新規,0,2021-11-15,2021-11-15,株式会社パシフィック・サンフィールド,,株式会社,東京都,目黒区,八雲１丁目４番６号,,13,110,1520023,,,,,,,2021-11-15,1,,,,,パシフィックサンフィールド,0
2087,8011001143977,新規,0,2021-11-15,2021-11-15,株式会社Ｄ－Ｂｅｅ,,株式会社,東京都,渋谷区,恵比寿３丁目１６番３号,,13,113,1500013,,,,,,,2021-11-15,1,,,,,ディービー,0
2093,8011101096860,新規,0,2021-11-15,2021-11-15,株式会社ＨａｔｓｕＭｕｖ,,株式会社,東京都,新宿区,西早稲田２丁目１８番１９号,,13,104,1690051,,,,,,,2021-11-15,1,,,,,ハツムーブ,0
2094,8011101096869,新規,0,2021-11-15,2021-11-15,株式会社リハビット,,株式会社,東京都,新宿区,市谷台町１１番２０号,,13,104,1620066,,,,,,,2021-11-15,1,,,,,リハビット,0
2095,8011101096885,新規,0,2021-11-15,2021-11-15,株式会社ＮＥＯ　ＧＲＡＮＴＳ,,株式会社,東京都,新宿区,西新宿３丁目３番１３号西新宿水間ビル６階,,13,104,1600023,,,,,,,2021-11-15,1,,,,,ネオグランツ,0
2096,8011101096893,新規,0,2021-11-15,2021-11-15,株式会社トレノーヴェ,,株式会社,東京都,新宿区,西新宿８丁目１番２号,,13,104,1600023,,,,,,,2021-11-15,1,,,,,トレノーヴェ,0
2099,8011103011165,新規,0,2021-11-15,2021-11-15,合同会社Ｈｕｍａｎ　ａｎｄ　Ａｒｔｉｆａｃｔｓ,,合同会社,東京都,新宿区,大久保２丁目４番１２号新宿ラムダックスビル５Ｆ５０１号室,,13,104,1690072,,,,,,,2021-11-15,1,,,,,ヒューマンアンドアーティファクツ,0
2104,8011501027465,新規,0,2021-11-15,2021-11-15,ＦＩＥＬＤ　ＭＵＳＴＡＲＤ株式会社,,株式会社,東京都,北区,志茂５丁目２０番１４－６０３号,,13,117,1150042,,,,,,,2021-11-15,1,,,,,フィールドマスタード,0
2116,8012401038536,新規,0,2021-11-15,2021-11-15,株式会社竹内商事,,株式会社,東京都,府中市,若松町４丁目６番地の２,,13,206,1830005,,,,,,,2021-11-15,1,,,,,タケウチショウジ,0
2118,8012801021216,新規,0,2021-11-15,2021-11-15,アカチセ株式会社,,株式会社,東京都,日野市,万願寺４丁目２５－９,,13,212,1910024,,,,,,,2021-11-15,1,,,,,アカチセ,0
2122,8020001143879,新規,0,2021-11-15,2021-11-15,株式会社実石商事,,株式会社,神奈川県,横浜市鶴見区,仲通３丁目８０番地１１,,14,101,2300042,,,,,,,2021-11-15,1,,,,,ジツイシショウジ,0
2123,8020001143895,新規,0,2021-11-15,2021-11-15,翔成海運株式会社,,株式会社,神奈川県,川崎市川崎区,中島３丁目５番２号シュテルハオス１０１,,14,131,2100806,,,,,,,2021-11-15,1,,,,,ショウセイカイウン,0
2124,8020001143920,新規,0,2021-11-15,2021-11-15,株式会社パームツリーインターナショナル,,株式会社,神奈川県,横浜市青葉区,あざみ野１丁目２３－３８,,14,117,2250011,,,,,,,2021-11-15,1,,,,,パームツリーインターナショナル,0
2125,8020003020804,新規,0,2021-11-15,2021-11-15,相続支援協会合同会社,,合同会社,神奈川県,横浜市港北区,新横浜３丁目７番地１８日総第１８ビル９Ｆ,,14,109,2220033,,,,,,,2021-11-15,1,,,,,ソウゾクシエンキョウカイ,0
2126,8020003020820,新規,0,2021-11-15,2021-11-15,合同会社ＰＦＭ,,合同会社,神奈川県,横浜市保土ケ谷区,川島町１４６２－８,,14,106,2400045,,,,,,,2021-11-15,1,,,,,ピーエフエム,0
2140,8030003018310,新規,0,2021-11-15,2021-11-15,ディヌシュカインテック合同会社,,合同会社,埼玉県,熊谷市,本石２丁目２１１,,11,202,3600815,,,,,,,2021-11-15,1,,,,,ディヌシュカインテック,0
2146,8040003018945,新規,0,2021-11-15,2021-11-15,合同会社ｄｂ－ｌａｂ,,合同会社,千葉県,柏市,末広町４－５,,12,217,2770842,,,,,,,2021-11-15,1,,,,,ディービーラボ,0
2152,8050001050131,新規,0,2021-11-15,2021-11-15,株式会社ハイブリッジ,,株式会社,茨城県,石岡市,大谷津４番１５号,,08,205,3150036,,,,,,,2021-11-15,1,,,,,ハイブリッジ,0
2160,8070001038637,新規,0,2021-11-15,2021-11-15,ＴＱ株式会社,,株式会社,群馬県,高崎市,嘉多町４４,,10,202,3700814,,,,,,,2021-11-15,1,,,,,ティーキュー,0
2161,8070001038645,新規,0,2021-11-15,2021-11-15,株式会社ＢＪＣ,,株式会社,群馬県,前橋市,元総社町１丁目１０番地２,,10,201,3710846,,,,,,,2021-11-15,1,,,,,ビージェイシー,0
2167,8080001024578,新規,0,2021-11-15,2021-11-15,株式会社ＴＳＵＲＵＳＨＩＭＡ,,株式会社,静岡県,焼津市,上泉１８９８番地の５,,22,212,4210217,,,,,,,2021-11-15,1,,,,,ツルシマ,0
2172,8080401025473,新規,0,2021-11-15,2021-11-15,株式会社あおいぷらんにんぐ,,株式会社,静岡県,浜松市中区,葵西５丁目１２番６－１号,,22,131,4338111,,,,,,,2021-11-15,1,,,,,アオイプランニング,0
2190,8120001241648,新規,0,2021-11-15,2021-11-15,株式会社アイルクリエイト,,株式会社,大阪府,大阪市淀川区,西中島５丁目２番１２号,,27,123,5320011,,,,,,,2021-11-15,1,,,,,アイルクリエイト,0
2191,8120001241788,新規,0,2021-11-15,2021-11-15,株式会社キムンカムイ,,株式会社,大阪府,大阪市都島区,内代町１丁目１番２６号,,27,102,5340013,,,,,,,2021-11-15,1,,,,,キムンカムイ,0
2192,8120001241821,新規,0,2021-11-15,2021-11-15,株式会社ヘリドー,,株式会社,大阪府,大阪市中央区,内平野町１丁目２番９号,,27,128,5400037,,,,,,,2021-11-15,1,,,,,ヘリドー,0
2193,8120001241838,新規,0,2021-11-15,2021-11-15,永航商事株式会社,,株式会社,大阪府,大阪市生野区,巽西４丁目８番７号,00124850,27,116,5440012,,,,,,,2021-11-15,1,,,,,エイコウショウジ,0
2198,8120003020579,新規,0,2021-11-15,2021-11-15,ＨＯＡＮＧ　ＡＮＨ合同会社,,合同会社,大阪府,大阪市淀川区,西中島６丁目３番２４－Ｎ４２４号,,27,123,5320011,,,,,,,2021-11-15,1,,,,,ホアンアイン,0
2199,8120003020587,新規,0,2021-11-15,2021-11-15,合同会社Ｕｎｉｔｅ,,合同会社,大阪府,大阪市西区,新町２丁目５番１－７０６号,,27,106,5500013,,,,,,,2021-11-15,1,,,,,ユナイト,0
2201,8120901045198,新規,0,2021-11-15,2021-11-15,株式会社なかよし総合会計,,株式会社,大阪府,吹田市,千里山東１丁目１６番１６号,,27,205,5650842,,,,,,,2021-11-15,1,,,,,ナカヨシソウゴウカイケイ,0
2202,8120901045207,新規,0,2021-11-15,2021-11-15,株式会社ＭＡＭ,,株式会社,大阪府,高槻市,白梅町４番８－２１０９号,,27,207,5691116,,,,,,,2021-11-15,1,,,,,エムエーエム,0
2216,8130001070542,新規,0,2021-11-15,2021-11-15,株式会社Ｃｏｎｎｅｃｔｉｏｎ　Ｐｅｏｐｌｅ,,株式会社,京都府,城陽市,久世上大谷７７番地の４４,,26,207,6100102,,,,,,,2021-11-15,1,,,,,コネクションピープル,0
2224,8140005025888,新規,0,2021-11-15,2021-11-15,一般社団法人ＧＬＯＢＡＬ　ＪＡＰＡＮ　ＦＥＳＴＩＶＡＬ　ＦＥＤＥＲＡＴＩＯＮ,,その他の設立登記法人,兵庫県,西宮市,松園町５番２５－３０１号,,28,204,6620053,,,,,,,2021-11-15,1,,,,,グローバルジャパンフェスティバルフェデレーション,0
2225,8150001025098,新規,0,2021-11-15,2021-11-15,株式会社田中物流,,株式会社,奈良県,生駒郡斑鳩町,龍田西８丁目７番２３号,00124851,29,344,6360154,,,,,,,2021-11-15,1,,,,,タナカブツリュウ,0
2226,8150001025107,新規,0,2021-11-15,2021-11-15,株式会社ＩｎｃｕＢｅｌｌｅ,,株式会社,奈良県,大和郡山市,高田町８８番地２ヴィルヌーブ郡山１１０２号,,29,203,6391132,,,,,,,2021-11-15,1,,,,,インキュベル,0
2230,8170001016863,新規,0,2021-11-15,2021-11-15,みやびホーム株式会社,,株式会社,和歌山県,和歌山市,手平４丁目１番４号,,30,201,6408319,,,,,,,2021-11-15,1,,,,,ミヤビホーム,0
2247,8180003023196,新規,0,2021-11-15,2021-11-15,合同会社アイナラボ,,合同会社,愛知県,名古屋市天白区,島田２丁目３０１番地島田橋住宅３－１２０５,,23,116,4680056,,,,,,,2021-11-15,1,,,,,アイナラボ,0
2251,8180301035629,新規,0,2021-11-15,2021-11-15,株式会社クライス,,株式会社,愛知県,岡崎市,明大寺町字馬場東１６４番地１,,23,202,4440868,,,,,,,2021-11-15,1,,,,,クライス,0
2254,8190001028857,新規,0,2021-11-15,2021-11-15,株式会社Ｗ．Ｗ．ｈｏｍｅ,,株式会社,三重県,鈴鹿市,三宅町１８５１－２,,24,207,5100265,,,,,,,2021-11-15,1,,,,,ダブリューダブリューホーム,0
2255,8190001028865,新規,0,2021-11-15,2021-11-15,株式会社リカバリープラン,,株式会社,三重県,伊賀市,大野木１７３７番地の２,,24,216,5180033,,,,,,,2021-11-15,1,,,,,リカバリープラン,0
2256,8190003003825,新規,0,2021-11-15,2021-11-15,合同会社食ジャパン,,合同会社,三重県,松阪市,桜町２７－１０,,24,204,5150071,,,,,,,2021-11-15,1,,,,,ショクジャパン,0
2259,8200001039415,新規,0,2021-11-15,2021-11-15,株式会社ツルタ,,株式会社,岐阜県,各務原市,鵜沼羽場町６丁目１４番地３,,21,213,5090135,,,,,,,2021-11-15,1,,,,,ツルタ,0
2260,8210001018698,新規,0,2021-11-15,2021-11-15,株式会社アイリス,,株式会社,福井県,敦賀市,市野々町２丁目８０９番地アニマート市野々２０２,,18,202,9140124,,,,,,,2021-11-15,1,,,,,アイリス,0
2264,8220005008612,新規,0,2021-11-15,2021-11-15,一般社団法人ひだまり,,その他の設立登記法人,石川県,小松市,平面町カ２０３番地１,,17,203,9230036,,,,,,,2021-11-15,1,,,,,ヒダマリ,0
2267,8240001058915,新規,0,2021-11-15,2021-11-15,株式会社オール,,株式会社,広島県,福山市,坪生町１丁目４３番２２号,,34,207,7210903,,,,,,,2021-11-15,1,,,,,オール,0
2278,8290003011826,新規,0,2021-11-15,2021-11-15,パインブックス合同会社,,合同会社,福岡県,糟屋郡久山町,大字久原４２４８番地２,,40,348,8112501,,,,,,,2021-11-15,1,,,,,パインブックス,0
2279,8290801027965,新規,0,2021-11-15,2021-11-15,不動岩霊園参与会株式会社,,株式会社,福岡県,北九州市若松区,山ノ堂町１５番３３号,,40,103,8080045,,,,,,,2021-11-15,1,,,,,フドウイワレイエンサンヨカイ,0
2280,8290801027998,新規,0,2021-11-15,2021-11-15,トラスト・リアルティ株式会社,,株式会社,福岡県,北九州市小倉北区,堺町１丁目２－１６,,40,106,8020005,,,,,,,2021-11-15,1,,,,,トラストリアルティ,0
2291,8320003003654,新規,0,2021-11-15,2021-11-15,エスアイディー合同会社,,合同会社,大分県,大分市,大字久土９７９－１,,44,201,8700314,,,,,,,2021-11-15,1,,,,,エスアイディー,0
2295,8340003003628,新規,0,2021-11-15,2021-11-15,Ｇｏｏｄ　Ｖｉｅｗ合同会社,,合同会社,鹿児島県,南九州市,川辺町永田１４７６番地１,,46,223,8970222,,,,,,,2021-11-15,1,,,,,グッドヴュー,0
2300,8360001029615,新規,0,2021-11-15,2021-11-15,株式会社Ｓｔｒｉｎｇｓ,,株式会社,沖縄県,那覇市,山下町２８番３０－１００１号,,47,201,9000027,,,,,,,2021-11-15,1,,,,,ストリングス,0
2304,8380001032336,新規,0,2021-11-15,2021-11-15,株式会社ダスコン郡山,,株式会社,福島県,郡山市,鳴神１丁目１７番地,,07,203,9630207,,,,,,,2021-11-15,1,,,,,ダスコンコオリヤマ,0
2310,8430001085386,新規,0,2021-11-15,2021-11-15,株式会社ライフパートナー,,株式会社,北海道,札幌市西区,二十四軒三条５丁目２番５－２０３号,,01,107,0630803,,,,,,,2021-11-15,1,,,,,ライフパートナー,0
2311,8430002066897,新規,0,2021-11-15,2021-11-15,有限会社ファミリー,,有限会社,北海道,札幌市南区,真駒内上町３丁目２番地１４,,01,106,0050012,,,,,,,2021-11-15,1,,,,,ファミリー,0
2318,8470005006392,新規,0,2021-11-15,2021-11-15,司法書士法人白井合同法務事務所,,その他の設立登記法人,香川県,さぬき市,志度２１５５番地,,37,206,7692101,,,,,,,2021-11-15,1,,,,,シライゴウドウホウムジムショ,0
2338,9010001222501,新規,0,2021-11-15,2021-11-15,Ｈ＆Ｋホールディングス株式会社,,株式会社,東京都,中央区,京橋２丁目７－８,,13,102,1040031,,,,,,,2021-11-15,1,,,,,エイチアンドケイホールディングス,0
2339,9010001222550,新規,0,2021-11-15,2021-11-15,Ｂａｎｄｅ株式会社,,株式会社,東京都,中央区,東日本橋２丁目２８番４号日本橋ＣＥＴビル２階,,13,102,1030004,,,,,,,2021-11-15,1,,,,,バンデ,0
2340,9010001222575,新規,0,2021-11-15,2021-11-15,株式会社セワ美健,,株式会社,東京都,中央区,新川２丁目２２番６号ＳＪＩビル４Ｆ,,13,102,1040033,,,,,,,2021-11-15,1,,,,,セワビケン,0
2344,9010005034208,新規,0,2021-11-15,2021-11-15,一般社団法人聖美会,,その他の設立登記法人,東京都,中央区,銀座３丁目１１番１３号松本銀座ビル９階,,13,102,1040061,,,,,,,2021-11-15,1,,,,,セイビカイ,0
2348,9010401163824,新規,0,2021-11-15,2021-11-15,株式会社ＰＲＩＳＭグループ,,株式会社,東京都,港区,新橋１丁目１８番１３号ＩＭ－ＳＨＩＭＢＡＳＨＩ６階,,13,103,1050004,,,,,,,2021-11-15,1,,,,,プリズムグループ,0
2349,9010401163857,新規,0,2021-11-15,2021-11-15,株式会社ＥＴＨＩＣＡ,,株式会社,東京都,港区,新橋６丁目１９番１－２０７号,,13,103,1050004,,,,,,,2021-11-15,1,,,,,エチカ,0
2350,9010401163865,新規,0,2021-11-15,2021-11-15,株式会社Ｗｉｎｄｐａｒｋ,,株式会社,東京都,港区,虎ノ門３丁目１８番６号,,13,103,1050001,,,,,,,2021-11-15,1,,,,,ウインドパーク,0
2356,9010403026483,新規,0,2021-11-15,2021-11-15,合同会社ＫＭＳ,,合同会社,東京都,港区,港南３丁目５―１０パークタワー品川ベイワード１８１２,,13,103,1080075,,,,,,,2021-11-15,1,,,,,ケイエムエス,0
2357,9010403026500,新規,0,2021-11-15,2021-11-15,バックオフィスサポート合同会社,,合同会社,東京都,港区,南青山２丁目２番１５号ウィン青山９４２,,13,103,1070062,,,,,,,2021-11-15,1,,,,,バックオフィスサポート,0
2358,9010403026509,新規,0,2021-11-15,2021-11-15,合同会社ｃｏｍｍｉｔ,,合同会社,東京都,港区,南青山２丁目２番１５号,,13,103,1070062,,,,,,,2021-11-15,1,,,,,コミット,0
2359,9010403026525,新規,0,2021-11-15,2021-11-15,合同会社ウエスト・ストリート・ジャパン・ツー,,合同会社,東京都,港区,六本木６丁目１０番１号六本木ヒルズ森タワー,,13,103,1060032,,,,,,,2021-11-15,1,,,,,ウエストストリートジャパンツー,0
2360,9010405020410,新規,0,2021-11-15,2021-11-15,一般社団法人国際中医美容協会,,その他の設立登記法人,東京都,港区,芝１丁目１２番１７号,,13,103,1050014,,,,,,,2021-11-15,1,,,,,コクサイチュウイビヨウキョウカイ,0
2372,9011001143852,新規,0,2021-11-15,2021-11-15,神宮プライズ株式会社,,株式会社,東京都,渋谷区,神宮前３丁目３１番２,,13,113,1500001,,,,,,,2021-11-15,1,,,,,ジングウプライズ,0
2377,9011101096884,新規,0,2021-11-15,2021-11-15,株式会社ジーワン,,株式会社,東京都,新宿区,西新宿８丁目８－２４西新宿シティーハウス１Ｆ,,13,104,1600023,,,,,,,2021-11-15,1,,,,,ジーワン,0
2378,9011101096892,新規,0,2021-11-15,2021-11-15,ＧＹＣＰ株式会社,,株式会社,東京都,新宿区,山吹町３４０－３,,13,104,1620801,,,,,,,2021-11-15,1,,,,,ジーワイスィーピー,0
2380,9011103011172,新規,0,2021-11-15,2021-11-15,合同会社ＨＳ　ＴＲＩＧＧＥＲ,,合同会社,東京都,新宿区,愛住町７番地８ミハス四谷三丁目１０４,,13,104,1600005,,,,,,,2021-11-15,1,,,,,エイチエストリガー,0
2382,9011201023409,新規,0,2021-11-15,2021-11-15,株式会社ＴＩＬＡ,,株式会社,東京都,中野区,中央１丁目３０番１６号,,13,114,1640011,,,,,,,2021-11-15,1,,,,,ティラ,0
2385,9011303004224,新規,0,2021-11-15,2021-11-15,ヴェスパー合同会社,,合同会社,東京都,杉並区,上荻２丁目３０番１０号,,13,115,1670043,,,,,,,2021-11-15,1,,,,,ヴェスパー,0
2410,9013301048252,新規,0,2021-11-15,2021-11-15,ＩＭＰＥＸ　ＪＡＰＡＮ株式会社,,株式会社,東京都,豊島区,東池袋２丁目１３番３号コーポ清和３０２,,13,116,1700013,,,,,,,2021-11-15,1,,,,,インペックスジャパン,0
2418,9020001143911,新規,0,2021-11-15,2021-11-15,株式会社Ｎｉ－Ｇｉ,,株式会社,神奈川県,横浜市青葉区,藤が丘２丁目３番地３第２飯田ビル３０２,,14,117,2270043,,,,,,,2021-11-15,1,,,,,ニジ,0
2421,9020003020803,新規,0,2021-11-15,2021-11-15,ＳＳＣ合同会社,,合同会社,神奈川県,横浜市港北区,新横浜３丁目７番地１８日総第１８ビル９Ｆ,,14,109,2220033,,,,,,,2021-11-15,1,,,,,エスエスシー,0
2422,9020005015272,新規,0,2021-11-15,2021-11-15,社会保険労務士法人田邊マネジメントオフィス,,その他の設立登記法人,神奈川県,横浜市港南区,笹下３丁目４０番１０号,,14,111,2340052,,,,,,,2021-11-15,1,,,,,タナベマナジメントオフィス,0
2432,9030001145320,新規,0,2021-11-15,2021-11-15,大吉商事株式会社,,株式会社,埼玉県,川口市,栄町３丁目５－１川口駅東口第三工区再開発ビル,,11,203,3320017,,,,,,,2021-11-15,1,,,,,ダイキチショウジ,0
2433,9030001145394,新規,0,2021-11-15,2021-11-15,株式会社トータルアシスト,,株式会社,埼玉県,行田市,桜町２丁目２１番２１号,,11,206,3610022,,,,,,,2021-11-15,1,,,,,トータルアシスト,0
2440,9040001120999,新規,0,2021-11-15,2021-11-15,株式会社三河インテリア,,株式会社,千葉県,船橋市,三咲５丁目２８番９号,,12,204,2740812,,,,,,,2021-11-15,1,,,,,ミカワインテリア,0
2442,9040003018944,新規,0,2021-11-15,2021-11-15,合同会社ピラミッド,,合同会社,千葉県,千葉市美浜区,打瀬２丁目２３,,12,106,2610013,,,,,,,2021-11-15,1,,,,,ピラミッド,0
2446,9050003006196,新規,0,2021-11-15,2021-11-15,琉幸商会合同会社,,合同会社,茨城県,つくば市,研究学園６丁目３２番地４,,08,220,3050817,,,,,,,2021-11-15,1,,,,,リュウコウショウカイ,0
2454,9070003004297,新規,0,2021-11-15,2021-11-15,ＧＲＯＷＴＨ合同会社,,合同会社,群馬県,太田市,寄合町１９番地４８８,,10,205,3792303,,,,,,,2021-11-15,1,,,,,グロウス,0
2455,9080001024577,新規,0,2021-11-15,2021-11-15,なごみ株式会社,,株式会社,静岡県,静岡市葵区,長谷町１４番地,,22,101,4200864,,,,,,,2021-11-15,1,,,,,ナゴミ,0
2456,9080001024585,新規,0,2021-11-15,2021-11-15,照栄塗装株式会社,,株式会社,静岡県,静岡市清水区,由比阿僧９６６番地の１０,,22,103,4213107,,,,,,,2021-11-15,1,,,,,ショウエイトソウ,0
2459,9080403004409,新規,0,2021-11-15,2021-11-15,合同会社ＹＵＭＥＧＩ,,合同会社,静岡県,浜松市中区,海老塚２丁目７番９号,,22,131,4328033,,,,,,,2021-11-15,1,,,,,ユメギ,0
2463,9110001036189,新規,0,2021-11-15,2021-11-15,Ａ．Ｃ株式会社,,株式会社,新潟県,新潟市中央区,花園１丁目５番９号ベロウ花園１階,,15,103,9500086,,,,,,,2021-11-15,1,,,,,エードットシー,0
2480,9120001241829,新規,0,2021-11-15,2021-11-15,株式会社ＫＴＳホールディングス,,株式会社,大阪府,大阪市北区,松ケ枝町７－２２,,27,127,5300037,,,,,,,2021-11-15,1,,,,,ケイティエスホールディングス,0
2481,9120001241837,新規,0,2021-11-15,2021-11-15,株式会社ｎｅｍｏ,,株式会社,大阪府,大阪市中央区,久太郎町４丁目１－３大阪センタービル６Ｆ,,27,128,5410056,,,,,,,2021-11-15,1,,,,,ネモ,0
2482,9120001241845,新規,0,2021-11-15,2021-11-15,株式会社ピピルノ,,株式会社,大阪府,大阪市中央区,北浜３丁目２番２５号京阪淀屋橋ビル８階,,27,128,5410041,,,,,,,2021-11-15,1,,,,,ピピルノ,0
2483,9120001241853,新規,0,2021-11-15,2021-11-15,株式会社クロスアーク,,株式会社,大阪府,大阪市中央区,糸屋町１丁目２番１１－１３０４号,,27,128,5400022,,,,,,,2021-11-15,1,,,,,クロスアーク,0
2485,9120003020586,新規,0,2021-11-15,2021-11-15,Ｍａｋｉ　ＰＡＣ合同会社,,合同会社,大阪府,大阪市中央区,谷町１丁目７番３号天満橋千代田ビル６階,,27,128,5400012,,,,,,,2021-11-15,1,,,,,マキパック,0
2489,9120903003905,新規,0,2021-11-15,2021-11-15,合同会社エデュケーショナル・キッズパーク,,合同会社,大阪府,吹田市,広芝町４－３４江坂第一ビル,,27,205,5640052,,,,,,,2021-11-15,1,,,,,エデュケーショナルキッズパーク,0
2496,9130001070533,新規,0,2021-11-15,2021-11-15,ＪＣ商事株式会社,,株式会社,京都府,京都市伏見区,深草七瀬川町８９３番地１０,,26,109,6120034,,,,,,,2021-11-15,1,,,,,ジェーシーショウジ,0
2505,9140003016970,新規,0,2021-11-15,2021-11-15,アンヴィエット合同会社,,合同会社,兵庫県,神戸市兵庫区,西上橘通２丁目１番２号,,28,105,6520033,,,,,,,2021-11-15,1,,,,,アンヴィエット,0
2506,9140003016979,新規,0,2021-11-15,2021-11-15,ダーウィン合同会社,,合同会社,兵庫県,尼崎市,南塚口町２丁目１９－２若松ビル２Ｆ,,28,202,6610012,,,,,,,2021-11-15,1,,,,,ダーウィン,0
2508,9150001025106,新規,0,2021-11-15,2021-11-15,株式会社かいてきラボ,,株式会社,奈良県,奈良市,五条町１６２番地２,,29,201,6308032,,,,,,,2021-11-15,1,,,,,カイテキラボ,0
2516,9180001148688,新規,0,2021-11-15,2021-11-15,株式会社バラティエ,,株式会社,愛知県,名古屋市中区,大須２丁目２６番１１号,,23,106,4600011,,,,,,,2021-11-15,1,,,,,バラティエ,0
2517,9180001148696,新規,0,2021-11-15,2021-11-15,株式会社ＪＯＹゴルフスタジオ,,株式会社,愛知県,春日井市,西本町１丁目８番地の４,,23,206,4860958,,,,,,,2021-11-15,1,,,,,ジョイゴルフスタジオ,0
2518,9180001148713,新規,0,2021-11-15,2021-11-15,長翼鴎株式会社,,株式会社,愛知県,名古屋市中区,丸の内３丁目７番９号,,23,106,4600002,,,,,,,2021-11-15,1,,,,,チョウヨクオウ,0
2525,9180003023187,新規,0,2021-11-15,2021-11-15,合同会社ＡＲＩＭＥ,,合同会社,愛知県,名古屋市昭和区,福原町１丁目３１番地の１,,23,107,4660803,,,,,,,2021-11-15,1,,,,,アライム,0
2529,9180301035628,新規,0,2021-11-15,2021-11-15,株式会社みらいふ,,株式会社,愛知県,岡崎市,羽根町字東荒子５９番地１,,23,202,4440813,,,,,,,2021-11-15,1,,,,,ミライフ,0
2536,9190003003824,新規,0,2021-11-15,2021-11-15,合同会社平和,,合同会社,三重県,四日市市,西富田２丁目４番２４号,,24,202,5108023,,,,,,,2021-11-15,1,,,,,ヘイワ,0
2537,9190005011643,新規,0,2021-11-15,2021-11-15,四日市一般廃棄物処理協同組合,,その他の設立登記法人,三重県,四日市市,中野町２０１０番地,,24,202,5121304,,,,,,,2021-11-15,1,,,,,ヨッカイチイッパンハイキブツショリ,0
2539,9200001039414,新規,0,2021-11-15,2021-11-15,株式会社ライ．テック,,株式会社,岐阜県,各務原市,那加桜町２丁目３５６番地,,21,213,5040912,,,,,,,2021-11-15,1,,,,,ライテック,0
2545,9220005008611,新規,0,2021-11-15,2021-11-15,むかい司法書士法人,,その他の設立登記法人,石川県,金沢市,長田２丁目２４番３３号,,17,201,9200043,,,,,,,2021-11-15,1,,,,,ムカイシホウショシ,0
2549,9230005009179,新規,0,2021-11-15,2021-11-15,一般社団法人北陸スマートエネルギー・環境推進協会,,その他の設立登記法人,富山県,富山市,牛島町１５番１号,,16,201,9300858,,,,,,,2021-11-15,1,,,,,ホクリクスマートエネルギーカンキョウスイシンキョウカイ,0
2550,9240001058922,新規,0,2021-11-15,2021-11-15,株式会社ユーカラー,,株式会社,広島県,広島市西区,楠木町１丁目９番１１号,,34,104,7330002,,,,,,,2021-11-15,1,,,,,ユーカラー,0
2552,9240003005360,新規,0,2021-11-15,2021-11-15,合同会社Ｇｕｉｌｄ,,合同会社,広島県,三原市,中之町５丁目１９－１０,,34,204,7230003,,,,,,,2021-11-15,1,,,,,ギルド,0
2553,9240003005369,新規,0,2021-11-15,2021-11-15,合同会社クワムラ,,合同会社,広島県,広島市安佐南区,山本１丁目２７－１２ベルビュー１階,,34,105,7310137,,,,,,,2021-11-15,1,,,,,クワムラ,0
2565,9290001095358,新規,0,2021-11-15,2021-11-15,株式会社Ｔｈｅ　Ｐａｓｔ,,株式会社,福岡県,福岡市中央区,大名２丁目６－１１Ｆｕｋｕｏｋａ　Ｇｒｏｗｔｈ　Ｎｅｘｔ,,40,133,8100041,,,,,,,2021-11-15,1,,,,,ザパスト,0
2567,9290003011817,新規,0,2021-11-15,2021-11-15,合同会社ＣＯＨ,,合同会社,福岡県,福岡市南区,五十川２丁目２４－６,,40,134,8150001,,,,,,,2021-11-15,1,,,,,コー,0
2571,9290801027980,新規,0,2021-11-15,2021-11-15,株式会社メディカルＡパートナーズ,,株式会社,福岡県,直方市,大字感田１３８８番地１,,40,204,8220001,,,,,,,2021-11-15,1,,,,,メディカルエーパートナーズ,0
2576,9320001018728,新規,0,2021-11-15,2021-11-15,株式会社ＳＵＮ　ＲＯＯＭ,,株式会社,大分県,大分市,大字光吉９１９番１リベールＮ１０２号,,44,201,8701132,,,,,,,2021-11-15,1,,,,,サンルーム,0
2582,9330005010424,新規,0,2021-11-15,2021-11-15,一般社団法人マチノミライ,,その他の設立登記法人,熊本県,熊本市中央区,下通１丁目６番４号３階,,43,101,8600807,,,,,,,2021-11-15,1,,,,,マチノミライ,0
2588,9340003003627,新規,0,2021-11-15,2021-11-15,合同会社みらい,,合同会社,鹿児島県,鹿児島市,西田３丁目２２－１５グレイスＳＭＮ１０１号,,46,201,8900046,,,,,,,2021-11-15,1,,,,,ミライ,0
2590,9360001029614,新規,0,2021-11-15,2021-11-15,株式会社ＧＥＭ,,株式会社,沖縄県,那覇市,首里山川町３丁目６１番９号,,47,201,9030825,,,,,,,2021-11-15,1,,,,,ジェム,0
2591,9360001029622,新規,0,2021-11-15,2021-11-15,全輝株式会社,,株式会社,沖縄県,浦添市,前田２丁目１９番３－１４０２号ミルコマンション前田ザ・ビュー,,47,208,9012102,,,,,,,2021-11-15,1,,,,,ゼンキ,0
2592,9360003011561,新規,0,2021-11-15,2021-11-15,合同会社ｓｔａｒｔ　Ｅｔ　ｕｐ,,合同会社,沖縄県,浦添市,屋富祖２丁目２０番３－２号,,47,208,9012127,,,,,,,2021-11-15,1,,,,,スタートイットアップ,0
2594,9370005010379,新規,0,2021-11-15,2021-11-15,一般社団法人吉野学園,,その他の設立登記法人,宮城県,栗原市,若柳字川北塚原１０４番地１,,04,213,9895501,,,,,,,2021-11-15,1,,,,,ヨシノガクエン,0
2598,9390001016683,新規,0,2021-11-15,2021-11-15,株式会社丸山畜産,,株式会社,山形県,鶴岡市,羽黒町富沢字月ノ木２７番地,,06,203,9970165,,,,,,,2021-11-15,1,,,,,マルヤマチクサン,0
2600,9400001015675,新規,0,2021-11-15,2021-11-15,七色株式会社,,株式会社,岩手県,奥州市,江刺大通り８番１０－８号,,03,215,0231111,,,,,,,2021-11-15,1,,,,,ナナイロ,0
2601,9420003002406,新規,0,2021-11-15,2021-11-15,合同会社ＨＩＮＡＴＡ,,合同会社,青森県,青森市,本町５丁目６番２号,,02,201,0300802,,,,,,,2021-11-15,1,,,,,ヒナタ,0
2604,9430001085385,新規,0,2021-11-15,2021-11-15,ＨＩＫＡＲＩ　ＨＯＵＳＥ株式会社,,株式会社,北海道,登別市,若山町２丁目６番地７,,01,230,0590026,,,,,,,2021-11-15,1,,,,,ヒカリハウス,0
2622,9490003001599,新規,0,2021-11-15,2021-11-15,合同会社西中商店,,合同会社,高知県,高岡郡越知町,越知甲２１１０番地１,,39,403,7811301,,,,,,,2021-11-15,1,,,,,ニシナカショウテン,0
2623,9500001023809,新規,0,2021-11-15,2021-11-15,株式会社エヒク,,株式会社,愛媛県,今治市,石井町４丁目５番４０号,,38,202,7940006,,,,,,,2021-11-15,1,,,,,エヒク,0
