sequenceNumber,corporateNumber,process,correct,updateDate,changeDate,name,nameImageId,kind,prefectureName,cityName,streetNumber,addressImageId,prefectureCode,cityCode,postCode,addressOutside,addressOutsideImageId,closeDate,closeCause,successorCorporateNumber,changeCause,assignmentDate,latest,enName,enPrefectureName,enCityName,enAddressOutside,furigana,hihyoji
7,1010001251152,新規,0,2025-01-14,2025-01-14,株式会社Ａｓｈｉｔａ　ｅｓｔａｔｅ,,株式会社,東京都,千代田区,永田町２丁目１７番１７号ＪＢＳ永田町２階２８７号室,,13,101,1000014,,,,,,,2025-01-14,1,,,,,アシタエステイト,0
8,1010001251251,新規,0,2025-01-14,2025-01-14,Ｙ＆Ｐファミリービジネスコンサルティング株式会社,,株式会社,東京都,千代田区,丸の内１丁目８番１号丸の内トラストタワーＮ館,,13,101,1000005,,,,,,,2025-01-14,1,,,,,ワイアンドピーファミリービジネスコンサルティング,0
9,1010001251318,新規,0,2025-01-14,2025-01-14,ＣＲＥＷ株式会社,,株式会社,東京都,文京区,千石４丁目４２番５号,,13,105,1120011,,,,,,,2025-01-14,1,,,,,クルー,0
10,1010001251326,新規,0,2025-01-14,2025-01-14,株式会社ｔｅｌｕａ,,株式会社,東京都,千代田区,麹町２丁目２番２２号（Ｃ／ＯＪｏｏ－ｒｅａｌｅｓｔａｔｅ－ｏｆｆｉｃｅ）,,13,101,1020083,,,,,,,2025-01-14,1,,,,,テルア,0
11,1010003045973,新規,0,2025-01-14,2025-01-14,合同会社ＲｅａｌＡＩｚｅ,,合同会社,東京都,中央区,銀座１丁目１２－４Ｎ＆ＥＢＬＤ．７階,,13,102,1040061,,,,,,,2025-01-14,1,,,,,リアルアイズ,0
12,1010003045998,新規,0,2025-01-14,2025-01-14,合同会社ＣＬＦ３,,合同会社,東京都,中央区,日本橋１丁目４番１号日本橋一丁目ビルディング,,13,102,1030027,,,,,,,2025-01-14,1,,,,,シーエルエフスリー,0
13,1010003046022,新規,0,2025-01-14,2025-01-14,ＥｔｅｒｎａＢｅａｕｔｙ合同会社,,合同会社,東京都,千代田区,紀尾井町３番２９号紀尾井町第２山本ビル４階,,13,101,1020094,,,,,,,2025-01-14,1,,,,,エテルナビューティー,0
14,1010103002486,新規,0,2025-01-14,2025-01-14,遥陽合同会社,,合同会社,東京都,八王子市,明神町２丁目２５－３、３０７号,,13,201,1920046,,,,,,,2025-01-14,1,,,,,,0
22,1010401187566,新規,0,2025-01-14,2025-01-14,株式会社ＴＡＢＩＰＲＯ,,株式会社,東京都,港区,南青山３丁目１番３６号青山丸竹ビル６Ｆ,,13,103,1070062,,,,,,,2025-01-14,1,,,,,タビプロ,0
23,1010403034163,新規,0,2025-01-14,2025-01-14,ＤＭＺ　Ｊａｐａｎ合同会社,,合同会社,東京都,港区,虎ノ門１丁目１７番１号虎ノ門ヒルズビジネスタワー１５階,,13,103,1050001,,,,,,,2025-01-14,1,,,,,ディーエムゼットジャパン,0
27,1010501053429,新規,0,2025-01-14,2025-01-14,株式会社かぎしっぽ,,株式会社,東京都,台東区,上野桜木２丁目１８番７号,,13,106,1100002,,,,,,,2025-01-14,1,,,,,カギシッポ,0
28,1010503007688,新規,0,2025-01-14,2025-01-14,合同会社ＲＩＯ,,合同会社,東京都,台東区,駒形１丁目１番１０号第一金庫ビル７０１,,13,106,1110043,,,,,,,2025-01-14,1,,,,,リオ,0
37,1010903009607,新規,0,2025-01-14,2025-01-14,Ｍｏｓｑｕｉｔｏ　Ｔｅｃｈｎｏｌｏｇｙ合同会社,,合同会社,東京都,世田谷区,経堂５丁目３８番２９－１０６号,,13,112,1560052,,,,,,,2025-01-14,1,,,,,モスキートテクノロジー,0
40,1011001167025,新規,0,2025-01-14,2025-01-14,株式会社ＷＨＩＴＥＢＯＸ,,株式会社,東京都,目黒区,青葉台４丁目７番７号住友不動産青葉台ヒルズ６階,,13,110,1530042,,,,,,,2025-01-14,1,,,,,ホワイトボックス,0
41,1011001167082,新規,0,2025-01-14,2025-01-14,株式会社Ａｌｌｉｅｓ,,株式会社,東京都,目黒区,自由が丘２丁目１６番１２号ＲＪ３,,13,110,1520035,,,,,,,2025-01-14,1,,,,,アライズ,0
42,1011003020776,新規,0,2025-01-14,2025-01-14,合同会社エムミー,,合同会社,東京都,目黒区,祐天寺２丁目３番１１号,,13,110,1530052,,,,,,,2025-01-14,1,,,,,エムミー,0
45,1011101110198,新規,0,2025-01-14,2025-01-14,株式会社響,,株式会社,東京都,新宿区,西新宿３丁目３番１３号西新宿水間ビル２Ｆ,,13,104,1600023,,,,,,,2025-01-14,1,,,,,ヒビキ,0
46,1011101110215,新規,0,2025-01-14,2025-01-14,株式会社Ｓｈｉｂａ,,株式会社,東京都,新宿区,西新宿３丁目３番１３号西新宿水間ビル２Ｆ,,13,104,1600023,,,,,,,2025-01-14,1,,,,,シバ,0
47,1011103015412,新規,0,2025-01-14,2025-01-14,合同会社エイト,,合同会社,東京都,新宿区,四谷１丁目８番８佐伯千成ビルＢ１,,13,104,1600004,,,,,,,2025-01-14,1,,,,,エイト,0
51,1011401026722,新規,0,2025-01-14,2025-01-14,株式会社ＶＡＦＥＡＳ,,株式会社,東京都,板橋区,中台２丁目１８番６号,,13,119,1740064,,,,,,,2025-01-14,1,,,,,ヴァフェアス,0
52,1011501031580,新規,0,2025-01-14,2025-01-14,無双国際株式会社,,株式会社,東京都,荒川区,西日暮里１丁目６２番５号成友ＫＳビル２１５号室,,13,118,1160013,,,,,,,2025-01-14,1,,,,,ムソウコクサイ,0
53,1011503006374,新規,0,2025-01-14,2025-01-14,アクシオン合同会社,,合同会社,東京都,北区,赤羽西６丁目２８－１エルフォルテ赤羽西４０２,,13,117,1150055,,,,,,,2025-01-14,1,,,,,アクシオン,0
54,1011601028353,新規,0,2025-01-14,2025-01-14,株式会社シルヴァ,,株式会社,東京都,練馬区,貫井４丁目１４番２５号,,13,120,1760021,,,,,,,2025-01-14,1,,,,,シルヴァ,0
55,1011603004559,新規,0,2025-01-14,2025-01-14,ＢＩＮＧＯ　Ｃｏｍｐａｎｙ合同会社,,合同会社,東京都,練馬区,土支田１丁目３４番２２号,,13,120,1790076,,,,,,,2025-01-14,1,,,,,ビンゴカンパニー,0
56,1011705001867,新規,0,2025-01-14,2025-01-14,農事組合法人松戸企画,,その他の設立登記法人,東京都,江戸川区,北葛西２丁目１６番６号サニーコート北葛西ＩＩＩ１０７,00137619,13,123,1340081,,,,,,,2025-01-14,1,,,,,マツドキカク,0
57,1011801045421,新規,0,2025-01-14,2025-01-14,株式会社高久,,株式会社,東京都,足立区,関原３丁目２１番２号,,13,121,1230852,,,,,,,2025-01-14,1,,,,,タカク,0
59,1011803006644,新規,0,2025-01-14,2025-01-14,合同会社ＵＮＩ,,合同会社,東京都,足立区,伊興４丁目１９番２３号,,13,121,1210823,,,,,,,2025-01-14,1,,,,,ユーエヌアイ,0
60,1012401042668,新規,0,2025-01-14,2025-01-14,株式会社ルース,,株式会社,東京都,府中市,府中町１丁目８番地の１２キャッスルプラザビル５０２号,,13,206,1830055,,,,,,,2025-01-14,1,,,,,ルース,0
63,1012403006910,新規,0,2025-01-14,2025-01-14,合同会社ｙｕｔｔｅ,,合同会社,東京都,武蔵野市,吉祥寺本町１丁目２０番１号吉祥寺永谷シティプラザ１００２,,13,203,1800004,,,,,,,2025-01-14,1,,,,,ユッテ,0
64,1012801023680,新規,0,2025-01-14,2025-01-14,ＣｏｔａｎＣｒａｆｔ株式会社,,株式会社,東京都,国分寺市,西町３丁目２１番地１０,,13,214,1850035,,,,,,,2025-01-14,1,,,,,コタンクラフト,0
68,1013301053623,新規,0,2025-01-14,2025-01-14,株式会社ＭＯＫＫＵＮ,,株式会社,東京都,豊島区,南池袋３丁目１３番９号１階,,13,116,1710022,,,,,,,2025-01-14,1,,,,,モックン,0
69,1013301053631,新規,0,2025-01-14,2025-01-14,株式会社ＨＥＭ　Ｐｈａｒｍａ　Ｊａｐａｎ,,株式会社,東京都,豊島区,東池袋５丁目７番３号アゼリア東池袋４０１,,13,116,1700013,,,,,,,2025-01-14,1,,,,,エイチイーエムファーマジャパン,0
70,1013303007486,新規,0,2025-01-14,2025-01-14,合同会社ＣｏＣ,,合同会社,東京都,豊島区,西池袋３丁目２１番１３－１５１１号,,13,116,1710021,,,,,,,2025-01-14,1,,,,,シーオーシー,0
74,1020001160765,新規,0,2025-01-14,2025-01-14,株式会社サンストリート,,株式会社,神奈川県,横浜市中区,石川町１丁目１３－２ＴＨＥＨＵＢ横浜元町２Ｆ－２０４号室,,14,104,2310868,,,,,,,2025-01-14,1,,,,,サンストリート,0
75,1020001160815,新規,0,2025-01-14,2025-01-14,株式会社Ｚｅｒｏ,,株式会社,神奈川県,横浜市南区,別所４丁目２番２５－４０２号,,14,105,2320064,,,,,,,2025-01-14,1,,,,,ゼロ,0
81,1021001084211,新規,0,2025-01-14,2025-01-14,株式会社ＮＩＰＰＯＮ　ＢＯＥＫＩ,,株式会社,神奈川県,大和市,渋谷４丁目５番地１４サンルミエールＢ２０１,,14,213,2420023,,,,,,,2025-01-14,1,,,,,ニッポンボウエキ,0
85,1021003015461,新規,0,2025-01-14,2025-01-14,合同会社極楽寺ラボラトリー,,合同会社,神奈川県,鎌倉市,極楽寺３丁目１５―１７,,14,204,2480023,,,,,,,2025-01-14,1,,,,,ゴクラクジラボラトリー,0
87,1030001164328,新規,0,2025-01-14,2025-01-14,株式会社ＮＡＮＡＬＡ,,株式会社,埼玉県,さいたま市岩槻区,東岩槻１丁目２番地３,,11,110,3390005,,,,,,,2025-01-14,1,,,,,ナナラ,0
88,1030001164360,新規,0,2025-01-14,2025-01-14,Ｇ‐ＴＥＣ株式会社,,株式会社,埼玉県,入間郡毛呂山町,目白台１丁目２９番地７,,11,326,3500439,,,,,,,2025-01-14,1,,,,,ジーテック,0
89,1030001164377,新規,0,2025-01-14,2025-01-14,株式会社ＡＭＩＮＡＳＴＩＣ,,株式会社,埼玉県,さいたま市南区,白幡４丁目４番１１－３号,,11,108,3360022,,,,,,,2025-01-14,1,,,,,アミナスティック,0
92,1030003025866,新規,0,2025-01-14,2025-01-14,水の工務店合同会社,,合同会社,埼玉県,吉川市,吉川団地５番１７号４０６,,11,243,3420054,,,,,,,2025-01-14,1,,,,,ミズノコウムテン,0
98,1040001136887,新規,0,2025-01-14,2025-01-14,株式会社ＫＣ,,株式会社,千葉県,習志野市,袖ケ浦６丁目１０番５号,,12,216,2750021,,,,,,,2025-01-14,1,,,,,ケーシー,0
99,1040001136920,新規,0,2025-01-14,2025-01-14,株式会社ＳＡロード,,株式会社,千葉県,千葉市花見川区,畑町４２７番地１,,12,102,2620018,,,,,,,2025-01-14,1,,,,,エスエーロード,0
100,1040001136978,新規,0,2025-01-14,2025-01-14,株式会社ＭＫ．ＵｎｉｔｙＣｏｒｐｏｒａｔｉｏｎ,,株式会社,千葉県,松戸市,稔台５丁目１１番地の１４,,12,207,2702231,,,,,,,2025-01-14,1,,,,,エムケーユニティコーポレーション,0
102,1040005022621,新規,0,2025-01-14,2025-01-14,医療法人社団ＫＣＧ,,その他の設立登記法人,千葉県,柏市,新富町１丁目２番３４号ＭＥＤＩＣＩＴＹかしわ２階,,12,217,2770856,,,,,,,2025-01-14,1,,,,,ケーシージー,0
108,1050001055979,新規,0,2025-01-14,2025-01-14,Ｔ・Ｓプランニング株式会社,,株式会社,茨城県,常総市,水海道山田町４６０４番地,,08,211,3030031,,,,,,,2025-01-14,1,,,,,ティーエスプランニング,0
109,1050001055987,新規,0,2025-01-14,2025-01-14,株式会社一水,,株式会社,茨城県,かすみがうら市,下稲吉１８９０番地１０１,,08,230,3150052,,,,,,,2025-01-14,1,,,,,イッスイ,0
110,1050001055995,新規,0,2025-01-14,2025-01-14,赤城商事株式会社,,株式会社,茨城県,筑西市,中上野１８５２番地８０,,08,227,3004524,,,,,,,2025-01-14,1,,,,,アカギショウジ,0
112,1050003008927,新規,0,2025-01-14,2025-01-14,ＭＯＨＡＮ　ＥＮＴＥＲＰＲＩＳＥＳ合同会社,,合同会社,茨城県,北相馬郡利根町,大字横須賀１１９１,,08,564,3001604,,,,,,,2025-01-14,1,,,,,モハンエンタープライズ,0
113,1050005013537,新規,0,2025-01-14,2025-01-14,特定非営利活動法人サクラキッズ,,その他の設立登記法人,茨城県,水戸市,南町２丁目５番１号二川ビル,,08,201,3100021,,,,,,,2025-01-14,1,,,,,サクラキッズ,0
116,1060001037811,新規,0,2025-01-14,2025-01-14,株式会社タヌマ技研,,株式会社,栃木県,佐野市,下彦間町３２４番地６,,09,204,3270325,,,,,,,2025-01-14,1,,,,,タヌマギケン,0
118,1060003005386,新規,0,2025-01-14,2025-01-14,合同会社Ｄｒｅａｍ‐ｌｉｋｅ,,合同会社,栃木県,那須塩原市,三島４丁目３１番地１５,,09,213,3292752,,,,,,,2025-01-14,1,,,,,ドリームライク,0
147,1120001271577,新規,0,2025-01-14,2025-01-14,ＫＡＢＡＴＡ　ＴＥＣＨＮＯＬＯＧＹ株式会社,,株式会社,大阪府,大阪市中央区,内久宝寺町３丁目１番１４号アザリア４０１号室,,27,128,5400013,,,,,,,2025-01-14,1,,,,,カバタテクノロジー,0
148,1120001271701,新規,0,2025-01-14,2025-01-14,和桜商事株式会社,,株式会社,大阪府,大阪市生野区,巽北１丁目７番３号、３０３号室,,27,116,5440004,,,,,,,2025-01-14,1,,,,,ワサクラショウジ,0
149,1120001271775,新規,0,2025-01-14,2025-01-14,株式会社インパクト,,株式会社,大阪府,大阪市西区,千代崎２丁目９番６号,,27,106,5500023,,,,,,,2025-01-14,1,,,,,インパクト,0
155,1120101070879,新規,0,2025-01-14,2025-01-14,株式会社Ｅ＆Ｋ,,株式会社,大阪府,貝塚市,小瀬１丁目２８番１０号,,27,208,5970021,,,,,,,2025-01-14,1,,,,,イーアンドケイ,0
156,1120101070895,新規,0,2025-01-14,2025-01-14,株式会社樫木土木工業,,株式会社,大阪府,泉南市,信達牧野２４７番地の１,,27,228,5900522,,,,,,,2025-01-14,1,,,,,カシキドボクコウギョウ,0
157,1120101070904,新規,0,2025-01-14,2025-01-14,株式会社エヌエス,,株式会社,大阪府,河内長野市,千代田台町１４番５号,,27,216,5860027,,,,,,,2025-01-14,1,,,,,エヌエス,0
158,1120103006229,新規,0,2025-01-14,2025-01-14,合同会社アンベイル,,合同会社,大阪府,泉南市,信達牧野９１３－８,,27,228,5900522,,,,,,,2025-01-14,1,,,,,アンベイル,0
160,1120901050287,新規,0,2025-01-14,2025-01-14,株式会社丸菱ロジスティクス,,株式会社,大阪府,高槻市,柱本３丁目１２番１０号２Ｆ,,27,207,5690844,,,,,,,2025-01-14,1,,,,,マルビシロジスティクス,0
162,1122003003090,新規,0,2025-01-14,2025-01-14,ＬＥＡＰ商事合同会社,,合同会社,大阪府,東大阪市,水走１丁目３－４５－２０６室,,27,227,5780921,,,,,,,2025-01-14,1,,,,,リープショウジ,0
166,1130001078724,新規,0,2025-01-14,2025-01-14,株式会社ＲＮ,,株式会社,京都府,京都市下京区,貞安前之町６１４－５５－９０６,,26,106,6008031,,,,,,,2025-01-14,1,,,,,アールエヌ,0
167,1130001078757,新規,0,2025-01-14,2025-01-14,株式会社中居インテリアデザイン,,株式会社,京都府,京都市西京区,大原野西境谷町２丁目９番地、１７棟１０１,,26,111,6101146,,,,,,,2025-01-14,1,,,,,ナカイインテリアデザイン,0
168,1130001078765,新規,0,2025-01-14,2025-01-14,レルベイト・テクノロジーズ株式会社,,株式会社,京都府,京都市伏見区,深草キトロ町３３－１３－４０９,,26,109,6120025,,,,,,,2025-01-14,1,,,,,レルベイトテクノロジーズ,0
173,1140001136943,新規,0,2025-01-14,2025-01-14,株式会社Ａ．Ｉ．Ｍ,,株式会社,兵庫県,神戸市長田区,神楽町５丁目３－２５Ｓ－ＦＯＲＴ神戸神楽町７０７,,28,106,6530836,,,,,,,2025-01-14,1,,,,,アイム,0
174,1140001136992,新規,0,2025-01-14,2025-01-14,ＫＴＫ　Ｇｌｏｂａｌ株式会社,,株式会社,兵庫県,尼崎市,神田南通３丁目７５番地,,28,202,6600885,,,,,,,2025-01-14,1,,,,,ケーティーケーグローバル,0
175,1140001137025,新規,0,2025-01-14,2025-01-14,株式会社百姓屋あしだ,,株式会社,兵庫県,丹波市,青垣町東芦田１０３１番地１,00137638,28,223,6693801,,,,,,,2025-01-14,1,,,,,ヒャクショウヤアシダ,0
184,1180001164932,新規,0,2025-01-14,2025-01-14,株式会社ＩＭＺ,,株式会社,愛知県,東海市,中ノ池４丁目２番地４,,23,222,4770033,,,,,,,2025-01-14,1,,,,,アイエムズィー,0
189,1200003006650,新規,0,2025-01-14,2025-01-14,Ｂｌｕｅ　ｂｏｎｎｅｔ合同会社,,合同会社,岐阜県,高山市,曙町２丁目６３番地２,,21,203,5060806,,,,,,,2025-01-14,1,,,,,ブルーボネット,0
191,1220001026426,新規,0,2025-01-14,2025-01-14,株式会社ｆｕｕ,,株式会社,石川県,金沢市,額乙丸町ロ９５番地４,,17,201,9218146,,,,,,,2025-01-14,1,,,,,フー,0
192,1220005008916,新規,0,2025-01-14,2025-01-14,農事組合法人森営農組合,,その他の設立登記法人,石川県,かほく市,七窪ハ１７番地３,,17,209,9291122,,,,,,,2025-01-14,1,,,,,モリエイノウクミアイ,0
194,1240001064374,新規,0,2025-01-14,2025-01-14,株式会社ＪＵＫＥ,,株式会社,広島県,東広島市,高屋町檜山３０番地,,34,212,7390000,,,,,,,2025-01-14,1,,,,,ジューク,0
197,1250001020970,新規,0,2025-01-14,2025-01-14,国宝株式会社,,株式会社,山口県,下関市,豊前田町２丁目２番４号,,35,201,7500018,,,,,,,2025-01-14,1,,,,,コクホウ,0
208,1290001108606,新規,0,2025-01-14,2025-01-14,株式会社シーサーズ,,株式会社,福岡県,糟屋郡粕屋町,原町２丁目５番６号,,40,349,8112307,,,,,,,2025-01-14,1,,,,,シーサーズ,0
211,1290003016253,新規,0,2025-01-14,2025-01-14,合同会社千両役舎,,合同会社,福岡県,福岡市東区,香椎駅前２丁目９－１３第二竜口ビル１階,,40,131,8130013,,,,,,,2025-01-14,1,,,,,,0
214,1300001014050,新規,0,2025-01-14,2025-01-14,株式会社Ｙｏｈａｋｕｕ,,株式会社,佐賀県,佐賀市,鍋島１丁目１１番地７号,,41,201,8490937,,,,,,,2025-01-14,1,,,,,ヨハク,0
221,1340001027040,新規,0,2025-01-14,2025-01-14,株式会社斎藤重機,,株式会社,鹿児島県,いちき串木野市,浜ケ城１２２８３番地３,,46,219,8960069,,,,,,,2025-01-14,1,,,,,サイトウジュウキ,0
225,1350003004821,新規,0,2025-01-14,2025-01-14,合同会社ＲＩＶＡＮＩＴＹ,,合同会社,宮崎県,宮崎市,田代町２６番地３,,45,201,8800855,,,,,,,2025-01-14,1,,,,,リバニティ,0
226,1350005006279,新規,0,2025-01-14,2025-01-14,行政書士法人ロック,,その他の設立登記法人,宮崎県,都城市,都北町５８８２番地１Ａ棟,,45,202,8850004,,,,,,,2025-01-14,1,,,,,ロック,0
228,1370001052127,新規,0,2025-01-14,2025-01-14,ＡＬＩＶＥＦＯＲＭ株式会社,,株式会社,宮城県,仙台市青葉区,本町１丁目５－２８カーニープレイス仙台駅前通内,,04,101,9800014,,,,,,,2025-01-14,1,,,,,アライヴフォーム,0
229,1380001035031,新規,0,2025-01-14,2025-01-14,株式会社ＫＳＡ,,株式会社,福島県,いわき市,小名浜字芳浜３番地の６,,07,204,9718101,,,,,,,2025-01-14,1,,,,,ケーエスエー,0
242,1430001093461,新規,0,2025-01-14,2025-01-14,株式会社ＩｎｎｏＢｅｌｌ,,株式会社,北海道,札幌市東区,北八条東４丁目１－２０サツドラホールディングス本社ビル２階,,01,103,0600908,,,,,,,2025-01-14,1,,,,,イノベル,0
248,1500003003394,新規,0,2025-01-14,2025-01-14,ＮＫミート合同会社,,合同会社,愛媛県,松山市,中村１丁目３番２９号,,38,201,7900964,,,,,,,2025-01-14,1,,,,,エヌケーミート,0
254,1700150128668,新規,0,2025-01-14,2025-01-14,ｚｈｅｎｇｚｈｏｕ　ｓｉｍｕ　ｗａｎｇｌｕｏ　ｋｅｊｉ　ｙｏｕｘｉａｎ　ｇｏｎｇｓｉ,,外国会社等,,,,,,,,ｅｒｑｉｑｕｄａｘｕｅｎａｎｌｕ９９ｈａｏ　ｚｈｏｎｇｇｕｏｚｈｏｎｇｂｕｄｉａｎｓｈａｎｇｇａｎｇ６ｈａｏｌｏｕ１２ｃｅｎｇ１２０７ｈａｏ　ｚｈｅｎｇｚｈｏｕｓｈｉ　Ｈｅｎａｎ,,,,,,2025-01-14,1,,,,,ゼンゾウシムワンロウカギユウゲンコウシ,0
255,1700150128684,新規,0,2025-01-14,2025-01-14,Ｒ＆Ｑ　Ｃａｐｉｔａｌ　Ｎｏ．１　Ｌｉｍｉｔｅｄ,,外国会社等,東京都,千代田区,霞が関３丁目２－６　東京倶楽部ビルディング６階,,13,101,1000013,Ｏｎｅ　Ｌｉｍｅ　Ｓｔｒｅｅｔ，Ｌｏｎｄｏｎ　ＥＣ３Ｍ　７ＨＡ　ＵＫ,,,,,,2025-01-14,1,,,,,アールアンドキユーキヤピタルナンバーワンリミテツド,0
256,1700150128692,新規,0,2025-01-14,2025-01-14,アドバンスインターナショナルジョイントストックカンパニー,,外国会社等,,,,,,,,ベトナム社会主義共和国ハノイ市ハイバーツング区グエンヅ郡ツェティン通り６９番地,,,,,,2025-01-14,1,,,,,アドバンスインターナシヨナルジヨイントストツクカンパニー,0
265,2010001251135,新規,0,2025-01-14,2025-01-14,株式会社ＡＲＨＤ,,株式会社,東京都,千代田区,岩本町１丁目９番５号ＦＫビル５階,,13,101,1010032,,,,,,,2025-01-14,1,,,,,エーアールホールディングス,0
266,2010001251259,新規,0,2025-01-14,2025-01-14,ＩＮＶＥＮＴＥＣ　ＰＥＲＦＯＲＭＡＮＣＥ　ＣＨＥＭＩＣＡＬＳ　ＪＡＰＡＮ株式会社,,株式会社,東京都,千代田区,麹町５丁目３番２３号６階,,13,101,1020083,,,,,,,2025-01-14,1,,,,,インベンテックパフォーマンスケミカルジャパン,0
267,2010001251283,新規,0,2025-01-14,2025-01-14,株式会社テリオス,,株式会社,東京都,千代田区,神田三崎町２丁目２番１５号大場ビル２階,,13,101,1010061,,,,,,,2025-01-14,1,,,,,テリオス,0
268,2010001251300,新規,0,2025-01-14,2025-01-14,株式会社ブリエ,,株式会社,東京都,千代田区,一ツ橋２丁目５番５号,,13,101,1010003,,,,,,,2025-01-14,1,,,,,ブリエ,0
269,2010001251309,新規,0,2025-01-14,2025-01-14,トータルデフサポート株式会社,,株式会社,東京都,中央区,銀座１丁目１２番４号Ｎ＆ＥＢＬＤ．７階,,13,102,1040061,,,,,,,2025-01-14,1,,,,,トータルデフサポート,0
270,2010001251317,新規,0,2025-01-14,2025-01-14,株式会社萬代基介建築設計事務所,,株式会社,東京都,千代田区,神田西福田町２番地聖徳ビル５Ｂ,,13,101,1010037,,,,,,,2025-01-14,1,,,,,マンダイモトスケケンチクセッケイジムショ,0
271,2010001251341,新規,0,2025-01-14,2025-01-14,ＤｘＤｅｂｉｔ株式会社,,株式会社,東京都,中央区,銀座８丁目１７番５号ＴＨＥＨＵＢ銀座,,13,102,1040061,,,,,,,2025-01-14,1,,,,,ディーエックスデビット,0
272,2010001251366,新規,0,2025-01-14,2025-01-14,株式会社ＭＩＬＯＫＵ,,株式会社,東京都,千代田区,神田岩本町１５－１ＣＹＫ神田岩本町Ｂ１ＦＮｏ．２０,,13,101,1010033,,,,,,,2025-01-14,1,,,,,ミロク,0
274,2010003045964,新規,0,2025-01-14,2025-01-14,千歳ＰＶ不動産合同会社,,合同会社,東京都,千代田区,麹町４丁目５番２１号,,13,101,1020083,,,,,,,2025-01-14,1,,,,,チトセピーヴィーフドウサン,0
275,2010003045989,新規,0,2025-01-14,2025-01-14,合同会社Ｇｒｏｗ　Ｓｃａｌａｒ,,合同会社,東京都,中央区,銀座１丁目１２番４号Ｎ＆ＥＢＬＤ．６Ｆ,,13,102,1040061,,,,,,,2025-01-14,1,,,,,グロウスカラー,0
276,2010003046005,新規,0,2025-01-14,2025-01-14,ＹＤＧ合同会社,,合同会社,東京都,千代田区,神田佐久間町３丁目３１ー３,,13,101,1010025,,,,,,,2025-01-14,1,,,,,ワイディージー,0
277,2010003046038,新規,0,2025-01-14,2025-01-14,ＣＴ　ＧＲＯＵＰ合同会社,,合同会社,東京都,中央区,日本橋馬喰町２丁目４番４号ＨＯＲＩビル３０１号,,13,102,1030002,,,,,,,2025-01-14,1,,,,,シーティーグループ,0
278,2010003046046,新規,0,2025-01-14,2025-01-14,セキュリティセクションナイン合同会社,,合同会社,東京都,中央区,銀座１丁目１２－４Ｎ＆ＥＢＬＤ．７階,,13,102,1040061,,,,,,,2025-01-14,1,,,,,セキュリティセクションナイン,0
287,2010403034179,新規,0,2025-01-14,2025-01-14,Ｈｉｌｌｔｏｐ合同会社,,合同会社,東京都,港区,虎ノ門５丁目１番４号,,13,103,1050001,,,,,,,2025-01-14,1,,,,,ヒルトップ,0
289,2010503007687,新規,0,2025-01-14,2025-01-14,合同会社与時,,合同会社,東京都,台東区,上野３丁目１６－２天翔上野末広町ビル６階６０４－Ｉ号室,00137615,13,106,1100005,,,,,,,2025-01-14,1,,,,,ヨジ,0
290,2010503007695,新規,0,2025-01-14,2025-01-14,合同会社サンシャイン企画,,合同会社,東京都,台東区,上野２丁目１０番７号３Ｆ,,13,106,1100005,,,,,,,2025-01-14,1,,,,,サンシャインキカク,0
292,2010603011317,新規,0,2025-01-14,2025-01-14,Ｍｉｒａｂｏ合同会社,,合同会社,東京都,墨田区,横網２丁目８番１１号,,13,107,1300015,,,,,,,2025-01-14,1,,,,,ミラボ,0
294,2010701047031,新規,0,2025-01-14,2025-01-14,株式会社Ｐｒｅｓｔｉｇｅ　Ｉｎｆｌｕｅｎｔｉａｌ,,株式会社,東京都,品川区,大崎４丁目５番１０号,,13,109,1410032,,,,,,,2025-01-14,1,,,,,プレステージインフルエンシャル,0
301,2010901056633,新規,0,2025-01-14,2025-01-14,株式会社ロジック推し,,株式会社,東京都,世田谷区,北沢２丁目３０－１４重宗ビル３Ｆ,,13,112,1550031,,,,,,,2025-01-14,1,,,,,ロジックオシ,0
303,2010903009606,新規,0,2025-01-14,2025-01-14,Ｇｌｏｃａｌ　Ｈｕｂ合同会社,,合同会社,東京都,世田谷区,経堂５丁目３８番２９－１０６号,,13,112,1560052,,,,,,,2025-01-14,1,,,,,グローカルハブ,0
304,2010905004720,新規,0,2025-01-14,2025-01-14,一般社団法人キッズ＆ファミリンピック実行委員会,,その他の設立登記法人,東京都,世田谷区,玉川３丁目１番１６－８０５号,,13,112,1580094,,,,,,,2025-01-14,1,,,,,キッズアンドファミリンピックジッコウイインカイ,0
314,2011101110214,新規,0,2025-01-14,2025-01-14,株式会社なこ．にゃく,,株式会社,東京都,新宿区,百人町３丁目８－１,,13,104,1690073,,,,,,,2025-01-14,1,,,,,ナコニャク,0
315,2011101110222,新規,0,2025-01-14,2025-01-14,株式会社セプテーニスポーツ＆エンターテインメント,,株式会社,東京都,新宿区,西新宿８丁目１７番１号,,13,104,1600023,,,,,,,2025-01-14,1,,,,,セプテーニスポーツエンターテインメント,0
317,2011103015411,新規,0,2025-01-14,2025-01-14,合同会社ジェイ・ジー・エイチ,,合同会社,東京都,新宿区,下宮比町１番４号,,13,104,1620822,,,,,,,2025-01-14,1,,,,,ジェイジーエイチ,0
323,2011601028352,新規,0,2025-01-14,2025-01-14,株式会社Ｋ‐ＳＴＹＬＥ,,株式会社,東京都,練馬区,大泉町３丁目３８番４号,,13,120,1780062,,,,,,,2025-01-14,1,,,,,ケースタイル,0
332,2011803006635,新規,0,2025-01-14,2025-01-14,合同会社ＬＵＶＩＡ,,合同会社,東京都,足立区,伊興本町２丁目１０番１９号グリーンハウス２０３,,13,121,1210807,,,,,,,2025-01-14,1,,,,,ルヴィア,0
335,2012701018648,新規,0,2025-01-14,2025-01-14,株式会社オー・エス・アイ,,株式会社,東京都,東村山市,秋津町１丁目１１番地６,,13,213,1890001,,,,,,,2025-01-14,1,,,,,オーエスアイ,0
336,2012705002441,新規,0,2025-01-14,2025-01-14,一般社団法人こどもサポート,,その他の設立登記法人,東京都,小平市,小川町１丁目７６３番地の５,,13,211,1870032,,,,,,,2025-01-14,1,,,,,コドモサポート,0
339,2013301053630,新規,0,2025-01-14,2025-01-14,株式会社ＴＳＫＹ,,株式会社,東京都,豊島区,西池袋３丁目３０番２号フェリース西池袋１階,,13,116,1710021,,,,,,,2025-01-14,1,,,,,ティーエスケーワイ,0
341,2013303007485,新規,0,2025-01-14,2025-01-14,オージェンティス合同会社,,合同会社,東京都,豊島区,上池袋１丁目３７番地２２号レジディアタワー上池袋ＴＷ６１２,,13,116,1700012,,,,,,,2025-01-14,1,,,,,オージェンティス,0
345,2020001160797,新規,0,2025-01-14,2025-01-14,株式会社ＦＳＰ,,株式会社,神奈川県,川崎市川崎区,大師本町１番１６号,,14,131,2100817,,,,,,,2025-01-14,1,,,,,エフエスピー,0
346,2020003027540,新規,0,2025-01-14,2025-01-14,Ｔ‐ＷＩＮＳ合同会社,,合同会社,神奈川県,川崎市幸区,小倉１丁目１０番１４－２０２号,,14,132,2120054,,,,,,,2025-01-14,1,,,,,トゥウィンズ,0
350,2021001084169,新規,0,2025-01-14,2025-01-14,株式会社ＦＲＯＧ１０‐１３,,株式会社,神奈川県,藤沢市,遠藤６２７番地の１５,,14,205,2520816,,,,,,,2025-01-14,1,,,,,フロッグテンサーティーン,0
351,2021001084210,新規,0,2025-01-14,2025-01-14,南湖機工株式会社,,株式会社,神奈川県,茅ヶ崎市,南湖５丁目１７番６８号,,14,207,2530061,,,,,,,2025-01-14,1,,,,,ナンゴキコウ,0
358,2030001164293,新規,0,2025-01-14,2025-01-14,颯一工業株式会社,,株式会社,埼玉県,比企郡ときがわ町,大字五明７１４番地１,,11,349,3550343,,,,,,,2025-01-14,1,,,,,ソウイチコウギョウ,0
359,2030001164302,新規,0,2025-01-14,2025-01-14,株式会社エクラ,,株式会社,埼玉県,さいたま市桜区,西堀９丁目１３番１０－９０４号,,11,106,3380832,,,,,,,2025-01-14,1,,,,,エクラ,0
360,2030001164310,新規,0,2025-01-14,2025-01-14,株式会社六久,,株式会社,埼玉県,和光市,新倉１丁目３０番６１号,,11,229,3510115,,,,,,,2025-01-14,1,,,,,ロク,0
361,2030001164351,新規,0,2025-01-14,2025-01-14,三友会株式会社,,株式会社,埼玉県,蕨市,塚越７丁目３７番２号ブリーズコート蕨塚越テラス４０４号,,11,223,3350002,,,,,,,2025-01-14,1,,,,,サンユウカイ,0
362,2030001164368,新規,0,2025-01-14,2025-01-14,株式会社あざみ,,株式会社,埼玉県,川口市,桜町２丁目５番２０号,,11,203,3340001,,,,,,,2025-01-14,1,,,,,アザミ,0
369,2030003025824,新規,0,2025-01-14,2025-01-14,合同会社ＳＡＫＵＲＡ‐Ｗ,,合同会社,埼玉県,春日部市,緑町３丁目３番５－３号,,11,214,3440063,,,,,,,2025-01-14,1,,,,,サクラダブル,0
370,2030003025849,新規,0,2025-01-14,2025-01-14,合同会社Ｒｅｌｉｘ,,合同会社,埼玉県,久喜市,桜田２丁目２番１－４０２,,11,232,3400203,,,,,,,2025-01-14,1,,,,,リリックス,0
374,2040001136960,新規,0,2025-01-14,2025-01-14,株式会社Ｆｉｆｔｙ　Ｗｏｒｋｅｒ,,株式会社,千葉県,山武市,白幡１９６１番地４,,12,237,2891306,,,,,,,2025-01-14,1,,,,,フィフティーワーカー,0
379,2050001056002,新規,0,2025-01-14,2025-01-14,株式会社泰祥興業,,株式会社,茨城県,水戸市,谷田町８８３番地１０６,,08,201,3100825,,,,,,,2025-01-14,1,,,,,タイショウコウギョウ,0
380,2050001056010,新規,0,2025-01-14,2025-01-14,株式会社つむじ風ＦＡＲＭ,,株式会社,茨城県,笠間市,笠間１３８２番地３,,08,216,3091611,,,,,,,2025-01-14,1,,,,,ツムジカゼファーム,0
386,2060001037819,新規,0,2025-01-14,2025-01-14,宇賀持農園株式会社,,株式会社,栃木県,下野市,絹板５９８番地,,09,216,3230114,,,,,,,2025-01-14,1,,,,,ウガジノウエン,0
396,2100001038184,新規,0,2025-01-14,2025-01-14,株式会社清潔Ｐｒｏ,,株式会社,長野県,松本市,高宮中８番７号,,20,202,3900834,,,,,,,2025-01-14,1,,,,,セイケツプロ,0
399,2100003007930,新規,0,2025-01-14,2025-01-14,Ｍｅｄｉａｇｌｙｐｈｉｃｓ合同会社,,合同会社,長野県,北佐久郡軽井沢町,大字追分４８３番地２,,20,321,3890115,,,,,,,2025-01-14,1,,,,,メディアグリフィクス,0
402,2110001007031,新規,0,2025-01-14,2025-01-14,東和産業株式会社,,株式会社,新潟県,新潟市中央区,東幸町１２番１号,,15,103,9500906,,,,,,,2025-01-14,1,,,,,トウワサンギョウ,0
416,2120001271774,新規,0,2025-01-14,2025-01-14,株式会社ＭＥＧＵＭＩ,,株式会社,大阪府,大阪市生野区,小路東２丁目５番１０号,,27,116,5440003,,,,,,,2025-01-14,1,,,,,メグミ,0
417,2120001271824,新規,0,2025-01-14,2025-01-14,株式会社Ｒｅ‐ｌａｘ,,株式会社,大阪府,大阪市都島区,大東町３丁目６番５号,,27,102,5340002,,,,,,,2025-01-14,1,,,,,リラックス,0
419,2120003028264,新規,0,2025-01-14,2025-01-14,合同会社ＲＩＶＥＲ,,合同会社,大阪府,大阪市北区,芝田２丁目８－１１共栄ビル３階,,27,127,5300012,,,,,,,2025-01-14,1,,,,,リバー,0
420,2120003028322,新規,0,2025-01-14,2025-01-14,ユニバーサルファイバーズジャパン合同会社,,合同会社,大阪府,大阪市中央区,北久宝寺町３丁目６番１号本町南ガーデンシティ,,27,128,5410057,,,,,,,2025-01-14,1,,,,,ユニバーサルファイバーズジャパン,0
421,2120003028339,新規,0,2025-01-14,2025-01-14,一期一会商事合同会社,,合同会社,大阪府,大阪市中央区,島之内２丁目６番５号,,27,128,5420082,,,,,,,2025-01-14,1,,,,,,0
425,2120101070853,新規,0,2025-01-14,2025-01-14,洋一株式会社,,株式会社,大阪府,堺市堺区,宿院町西３丁２－１４－１００２号,,27,141,5900958,,,,,,,2025-01-14,1,,,,,ヨウイチ,0
426,2120101070878,新規,0,2025-01-14,2025-01-14,株式会社カモン,,株式会社,大阪府,堺市西区,浜寺石津町中４丁５番２２号,,27,144,5928334,,,,,,,2025-01-14,1,,,,,カモン,0
431,2122001038781,新規,0,2025-01-14,2025-01-14,株式会社グッドスリープ,,株式会社,大阪府,八尾市,南本町４丁目１番１１号,,27,212,5810081,,,,,,,2025-01-14,1,,,,,グッドスリープ,0
434,2130001078756,新規,0,2025-01-14,2025-01-14,中信リサーチ＆コンサルティング株式会社,,株式会社,京都府,京都市下京区,四条通室町東入函谷鉾町９１番地,,26,106,6008009,,,,,,,2025-01-14,1,,,,,チュウシンリサーチアンドコンサルティング,0
435,2130001078772,新規,0,2025-01-14,2025-01-14,株式会社Ｒｅａｄｙ　ｔｏ　Ｂｌｏｏｍ,,株式会社,京都府,京都市左京区,修学院犬塚町３１－９,,26,103,6068083,,,,,,,2025-01-14,1,,,,,レディトゥブルーム,0
440,2140001137049,新規,0,2025-01-14,2025-01-14,福永産業株式会社,,株式会社,兵庫県,姫路市,四郷町本郷３１６番地１,,28,201,6710243,,,,,,,2025-01-14,1,,,,,フクナガサンギョウ,0
449,2180001164956,新規,0,2025-01-14,2025-01-14,株式会社ｖｉｌｌａ　ＭＡＲＥ,,株式会社,愛知県,名古屋市瑞穂区,松園町１丁目４５番地,,23,108,4670065,,,,,,,2025-01-14,1,,,,,ヴィラマーレ,0
450,2180001164997,新規,0,2025-01-14,2025-01-14,株式会社ＫａｚＧ,,株式会社,愛知県,名古屋市中村区,名駅３丁目４―１０アルティメット名駅１ｓｔ２階,,23,105,4500002,,,,,,,2025-01-14,1,,,,,カズジー,0
459,2200001043323,新規,0,2025-01-14,2025-01-14,株式会社Ｄｒｅａｍ　Ｍａｒｃｈ,,株式会社,岐阜県,岐阜市,島原町３６番地,,21,201,5008438,,,,,,,2025-01-14,1,,,,,ドリームマーチ,0
461,2210005010178,新規,0,2025-01-14,2025-01-14,一般社団法人空き家対策イニシアティブ,,その他の設立登記法人,福井県,福井市,文京３丁目６番１７号,,18,201,9100017,,,,,,,2025-01-14,1,,,,,アキヤタイサクイニシアティブ,0
463,2220001026409,新規,0,2025-01-14,2025-01-14,株式会社ＯＷＮＫ,,株式会社,石川県,七尾市,米町６４番地,,17,202,9260803,,,,,,,2025-01-14,1,,,,,オンク,0
464,2220001026433,新規,0,2025-01-14,2025-01-14,安田工業株式会社,,株式会社,石川県,金沢市,涌波４丁目１２番１７号,,17,201,9200953,,,,,,,2025-01-14,1,,,,,ヤスダコウギョウ,0
465,2220005008915,新規,0,2025-01-14,2025-01-14,農事組合法人五庄ファーム,,その他の設立登記法人,石川県,能美市,五間堂町丁７６番地,,17,211,9290103,,,,,,,2025-01-14,1,,,,,ゴショウファーム,0
468,2260001039794,新規,0,2025-01-14,2025-01-14,株式会社りりおん,,株式会社,岡山県,倉敷市,生坂１１１７番地,,33,202,7100002,,,,,,,2025-01-14,1,,,,,リリオン,0
475,2290003016293,新規,0,2025-01-14,2025-01-14,合同会社Ｌｕｍｉａ　Ｇｒｏｗｔｈ,,合同会社,福岡県,福岡市中央区,鳥飼３丁目６番１８－７０３号ラフィーネ鳥飼,,40,133,8100053,,,,,,,2025-01-14,1,,,,,ルミアグロース,0
482,2310001019403,新規,0,2025-01-14,2025-01-14,株式会社ちっくマーケット,,株式会社,長崎県,佐世保市,針尾東町１４５番地８、２０２号,,42,202,8593451,,,,,,,2025-01-14,1,,,,,チックマーケット,0
494,2360001034653,新規,0,2025-01-14,2025-01-14,株式会社ＲＴ,,株式会社,沖縄県,中頭郡中城村,字南上原９８２番地クレアレーベン南上原８０２号,,47,328,9012424,,,,,,,2025-01-14,1,,,,,アールティ,0
498,2370001052118,新規,0,2025-01-14,2025-01-14,第一アソシエイツ株式会社,,株式会社,宮城県,仙台市青葉区,中央４丁目１０番３号ＪＭＦビル仙台０１・２階,,04,101,9800021,,,,,,,2025-01-14,1,,,,,ダイイチアソシエイツ,0
499,2370001052126,新規,0,2025-01-14,2025-01-14,ＡｍｕＤｉｓｈ株式会社,,株式会社,宮城県,仙台市青葉区,北根３丁目１８－１－９０２,,04,101,9810902,,,,,,,2025-01-14,1,,,,,アミューディッシュ,0
507,2430001093460,新規,0,2025-01-14,2025-01-14,株式会社リックヴィール企画,,株式会社,北海道,滝川市,泉町１丁目１１番２９号,,01,225,0730042,,,,,,,2025-01-14,1,,,,,リックヴィールキカク,0
508,2430001093469,新規,0,2025-01-14,2025-01-14,株式会社リンクアップ,,株式会社,北海道,札幌市中央区,南二条西５丁目３１－１ＲＭＢｌｄ．７０１,,01,101,0600062,,,,,,,2025-01-14,1,,,,,リンクアップ,0
513,2460101007656,新規,0,2025-01-14,2025-01-14,株式会社やま,,株式会社,北海道,帯広市,西二十条南５丁目４２番１５号,,01,207,0802470,,,,,,,2025-01-14,1,,,,,ヤマ,0
514,2460103001673,新規,0,2025-01-14,2025-01-14,さんでーず合同会社,,合同会社,北海道,河西郡更別村,字更別６３３番地７,,01,639,0891542,,,,,,,2025-01-14,1,,,,,サンデーズ,0
517,2480001012696,新規,0,2025-01-14,2025-01-14,美馬ホールディングス株式会社,,株式会社,徳島県,徳島市,佐古二番町１番１４号,,36,201,7700022,,,,,,,2025-01-14,1,,,,,ミマホールディングス,0
519,2700150128667,新規,0,2025-01-14,2025-01-14,Ｆｕｚｈｏｕ　Ｈｉｇｈ－ｔｅｃｈ　Ｚｏｎｅ　ＺｈｅｎｘｉｎｇｔｏｎｇｘｉｎＴｒａｄｅ　Ｃｏ．Ｌｔｄ,,外国会社等,,,,,,,,Ｒｏｏｍ　１３０３，Ｂｕｉｌｄｉｎｇ　２，Ｈｕａｊｉａｎ　Ｂｕｉｌｄｉｎｇ，Ｎｏ．１２，１６，１８　Ｋｅｊｉ　Ｅａｓｔ　Ｒｏａｄ，Ｓｈａｎｇｊｉｅ　Ｔｏｗｎ，Ｍｉｎｈｏｕ　Ｃｏｕｎｔｙ，Ｆｕｊｉａｎ　Ｐｒｏｖｉｎｃｅ,,,,,,2025-01-14,1,,,,,フゾウハイテックゾーンゼンシントンシントレードカンパニーリミテッド,0
534,3010001251167,新規,0,2025-01-14,2025-01-14,株式会社良祭,,株式会社,東京都,中央区,東日本橋１丁目６番１２号,,13,102,1030004,,,,,,,2025-01-14,1,,,,,オマツリ,0
535,3010001251175,新規,0,2025-01-14,2025-01-14,豊田リキッドメタルジャパン株式会社,,株式会社,東京都,千代田区,外神田４丁目１２番６号秋葉原アークビル６０１号,,13,101,1010021,,,,,,,2025-01-14,1,,,,,トヨダリキッドメタルジャパン,0
536,3010001251266,新規,0,2025-01-14,2025-01-14,ＺＡＭｉｎｅ　ＬＡＴＡＭ　Ｈｏｌｄｉｎｇｓ株式会社,,株式会社,東京都,千代田区,大手町１丁目４番２号,,13,101,1000004,,,,,,,2025-01-14,1,,,,,ザマインラタムホールディングス,0
537,3010001251308,新規,0,2025-01-14,2025-01-14,ヤマトエナジーマネジメント株式会社,,株式会社,東京都,中央区,銀座２丁目１６番１０号,,13,102,1040061,,,,,,,2025-01-14,1,,,,,ヤマトエナジーマネジメント,0
538,3010001251324,新規,0,2025-01-14,2025-01-14,株式会社ＫＲＴＳ１,,株式会社,東京都,千代田区,内幸町２丁目１番６号,,13,101,1000011,,,,,,,2025-01-14,1,,,,,ケイアールティーエスワン,0
539,3010001251340,新規,0,2025-01-14,2025-01-14,Ｆｏｕｒｔｅｅｎ株式会社,,株式会社,東京都,千代田区,九段南１丁目５番６号りそな九段ビル５階ＫＳフロア,,13,101,1020074,,,,,,,2025-01-14,1,,,,,フォーティーン,0
540,3010001251357,新規,0,2025-01-14,2025-01-14,西木株式会社,,株式会社,東京都,中央区,東日本橋３丁目９番１０号ＤＩＮＯ日本橋ビル,,13,102,1030004,,,,,,,2025-01-14,1,,,,,ニシキ,0
542,3010003045963,新規,0,2025-01-14,2025-01-14,合同会社ツツジ,,合同会社,東京都,千代田区,霞が関３丁目２番５号,,13,101,1000013,,,,,,,2025-01-14,1,,,,,ツツジ,0
543,3010003045988,新規,0,2025-01-14,2025-01-14,ホテル１０１マーケティングジャパン合同会社,,合同会社,東京都,千代田区,霞が関３丁目２番５号,,13,101,1000013,,,,,,,2025-01-14,1,,,,,ホテルワンオーワンマーケティングジャパン,0
544,3010005039352,新規,0,2025-01-14,2025-01-14,弁護士法人伊藤綜合法律事務所,,その他の設立登記法人,東京都,千代田区,平河町１丁目４番１５号ＶＯＲＴ麹町５階,,13,101,1020093,,,,,,,2025-01-14,1,,,,,イトウソウゴウホウリツジムショ,0
551,3010401187531,新規,0,2025-01-14,2025-01-14,ＥＴＲＮＬ　ＭＵＳＩＣ　ＪＡＰＡＮ株式会社,,株式会社,東京都,港区,北青山１丁目３番１号アールキューブ青山３階,,13,103,1070061,,,,,,,2025-01-14,1,,,,,エターナルミュージックジャパン,0
552,3010405023922,新規,0,2025-01-14,2025-01-14,一般社団法人全国専修学校動物系教育協会,,その他の設立登記法人,東京都,港区,北青山２丁目７番１３号プラセオ青山ビル３階,,13,103,1070061,,,,,,,2025-01-14,1,,,,,ゼンコクセンシュウガッコウドウブツケイキョウイクキョウカイ,0
567,3010903009638,新規,0,2025-01-14,2025-01-14,合同会社Ａｍａｒｉ,,合同会社,東京都,世田谷区,太子堂４丁目１８番１５号マガザン三軒茶屋２－３Ｆ－３,,13,112,1540004,,,,,,,2025-01-14,1,,,,,アマリ,0
577,3011101110205,新規,0,2025-01-14,2025-01-14,ＴＯＵＲ　ＪＡＰＯＮ株式会社,,株式会社,東京都,新宿区,西新宿４丁目２５番６号サンローズ山本３０２,,13,104,1600023,,,,,,,2025-01-14,1,,,,,ツールハポン,0
578,3011103015410,新規,0,2025-01-14,2025-01-14,合同会社ジェイ・ジー・ジー,,合同会社,東京都,新宿区,下宮比町１番４号,,13,104,1620822,,,,,,,2025-01-14,1,,,,,ジェイジージー,0
583,3011601028335,新規,0,2025-01-14,2025-01-14,テムシスジャパン株式会社,,株式会社,東京都,練馬区,石神井台２丁目１３番１３号,,13,120,1770045,,,,,,,2025-01-14,1,,,,,テムシスジャパン,0
589,3011801045428,新規,0,2025-01-14,2025-01-14,株式会社ＹＭＦ,,株式会社,東京都,足立区,千住２丁目２２－１５クロカワビル１Ｆ,,13,121,1200034,,,,,,,2025-01-14,1,,,,,ワイエムエフ,0
598,3012401042658,新規,0,2025-01-14,2025-01-14,株式会社街づくり企画,,株式会社,東京都,府中市,白糸台２丁目２６番地の１,,13,206,1830011,,,,,,,2025-01-14,1,,,,,マチヅクリキカク,0
599,3012701018647,新規,0,2025-01-14,2025-01-14,株式会社ＭＥＤＵＳＥ,,株式会社,東京都,小平市,小川町１丁目１８８番地の２０,,13,211,1870032,,,,,,,2025-01-14,1,,,,,メデューズ,0
600,3013101009591,新規,0,2025-01-14,2025-01-14,株式会社ジャパンツアーオペレーター,,株式会社,東京都,あきる野市,秋川２丁目１番地１１Ｙ・Ｍビル２０２号室,,13,228,1970804,,,,,,,2025-01-14,1,,,,,ジャパンツアーオペレーター,0
603,3013303007484,新規,0,2025-01-14,2025-01-14,Ｐｏｓｅｉｄｏｎ合同会社,,合同会社,東京都,豊島区,東池袋４丁目８番１号エイチエックスビル,,13,116,1700013,,,,,,,2025-01-14,1,,,,,ポセイドーン,0
606,3020001160821,新規,0,2025-01-14,2025-01-14,株式会社アンドホーム,,株式会社,神奈川県,横浜市保土ケ谷区,上星川２丁目３６番２７号,,14,106,2400042,,,,,,,2025-01-14,1,,,,,アンドホーム,0
614,3021003015451,新規,0,2025-01-14,2025-01-14,Ｒａｉｎ　ｏｒ　Ｓｈｉｎｅ合同会社,,合同会社,神奈川県,藤沢市,藤沢１０３４番地の５セルアージュ藤沢エクシール５０３号室,,14,205,2510052,,,,,,,2025-01-14,1,,,,,レインオアシャイン,0
620,3030001164318,新規,0,2025-01-14,2025-01-14,株式会社ＴＭＤ,,株式会社,埼玉県,さいたま市桜区,道場３丁目２５番１１－４号,,11,106,3380835,,,,,,,2025-01-14,1,,,,,ティーエムディー,0
621,3030001164350,新規,0,2025-01-14,2025-01-14,株式会社カルペディエム,,株式会社,埼玉県,川口市,北園町２番１１号,,11,203,3330862,,,,,,,2025-01-14,1,,,,,カルペディエム,0
622,3030001164359,新規,0,2025-01-14,2025-01-14,株式会社ＣＡＮ興業,,株式会社,埼玉県,さいたま市南区,大字大谷口２３８１番地５サンハウス東浦和１０５,,11,108,3360042,,,,,,,2025-01-14,1,,,,,ジャンコウギョウ,0
630,3030003025773,新規,0,2025-01-14,2025-01-14,Ｓ＆Ｆ合同会社,,合同会社,埼玉県,越谷市,レイクタウン７丁目２４番地４,,11,222,3430828,,,,,,,2025-01-14,1,,,,,エスアンドエフ,0
631,3030003025848,新規,0,2025-01-14,2025-01-14,合同会社一徳,,合同会社,埼玉県,狭山市,大字水野４２８番地,,11,215,3501317,,,,,,,2025-01-14,1,,,,,イットク,0
637,3040001136968,新規,0,2025-01-14,2025-01-14,株式会社米星,,株式会社,千葉県,佐倉市,寺崎２７４２番地,,12,212,2850818,,,,,,,2025-01-14,1,,,,,コメショウ,0
641,3050003008925,新規,0,2025-01-14,2025-01-14,合同会社Ｔｏｔａｌ　Ｗｅｌｌｎｅｓｓ　Ｃｏｍｐａｎｙ,,合同会社,茨城県,ひたちなか市,大字長砂６６８番地,,08,221,3120004,,,,,,,2025-01-14,1,,,,,トータルウェルネスカンパニー,0
645,3060001037818,新規,0,2025-01-14,2025-01-14,株式会社ワークパートナー,,株式会社,栃木県,佐野市,山形町６３９番地１,,09,204,3270324,,,,,,,2025-01-14,1,,,,,ワークパートナー,0
646,3060003005384,新規,0,2025-01-14,2025-01-14,合同会社ｃｏｅ,,合同会社,栃木県,那須塩原市,大原間１４３番地７那須塩原サンライズマンション１０５,,09,213,3293153,,,,,,,2025-01-14,1,,,,,コエ,0
652,3080103003229,新規,0,2025-01-14,2025-01-14,合同会社フォレスト,,合同会社,静岡県,沼津市,東椎路２５１番地の１の５ヴァンヴェールＥ棟,,22,203,4100302,,,,,,,2025-01-14,1,,,,,フォレスト,0
653,3080103003237,新規,0,2025-01-14,2025-01-14,合同会社ホズク,,合同会社,静岡県,富士市,中里１３８１番地の１０,,22,210,4170826,,,,,,,2025-01-14,1,,,,,ホズク,0
654,3090001019086,新規,0,2025-01-14,2025-01-14,株式会社琵琶城農園,,株式会社,山梨県,山梨市,牧丘町倉科５３４２番地,,19,205,4040003,,,,,,,2025-01-14,1,,,,,ビワジョウノウエン,0
657,3100001038191,新規,0,2025-01-14,2025-01-14,ヤマタケ株式会社,,株式会社,長野県,東筑摩郡朝日村,大字西洗馬１５６４番地１０,,20,451,3901101,,,,,,,2025-01-14,1,,,,,ヤマタケ,0
666,3120001271773,新規,0,2025-01-14,2025-01-14,株式会社ＳＴＡＸ　ＯＳＡＫＡ,,株式会社,大阪府,大阪市西成区,太子１丁目２番２２号,,27,122,5570002,,,,,,,2025-01-14,1,,,,,スタックスオオサカ,0
667,3120001271798,新規,0,2025-01-14,2025-01-14,株式会社サイクル,,株式会社,大阪府,大阪市東成区,大今里１丁目３６番１１－９０３号,,27,115,5370012,,,,,,,2025-01-14,1,,,,,サイクル,0
668,3120001271815,新規,0,2025-01-14,2025-01-14,株式会社ＫＲＩ,,株式会社,大阪府,寝屋川市,大成町３４番１３号,,27,215,5720819,,,,,,,2025-01-14,1,,,,,ケイアールアイ,0
669,3120001271831,新規,0,2025-01-14,2025-01-14,青川株式会社,,株式会社,大阪府,大阪市住之江区,粉浜１丁目３番２５－４０２号,,27,125,5590001,,,,,,,2025-01-14,1,,,,,アオカワ,0
671,3120003028346,新規,0,2025-01-14,2025-01-14,合同会社２４６,,合同会社,大阪府,大阪市東淀川区,南江口２丁目６番１号,,27,114,5330003,,,,,,,2025-01-14,1,,,,,ニヨンロク,0
673,3120101070877,新規,0,2025-01-14,2025-01-14,株式会社ＹＡＭＡＴＯ,,株式会社,大阪府,羽曳野市,西浦５丁目１番３号,,27,222,5830861,,,,,,,2025-01-14,1,,,,,ヤマト,0
674,3120101070893,新規,0,2025-01-14,2025-01-14,株式会社雅由,,株式会社,大阪府,松原市,上田３丁目９－１３－７０２,,27,217,5800016,,,,,,,2025-01-14,1,,,,,マサヨシ,0
675,3120101070902,新規,0,2025-01-14,2025-01-14,ＩＷＣ　ＤＥＳＩＧＮ株式会社,,株式会社,大阪府,貝塚市,東山２丁目１４番５号,,27,208,5970046,,,,,,,2025-01-14,1,,,,,アイダブルシーデザイン,0
676,3120103006227,新規,0,2025-01-14,2025-01-14,合同会社つくみら,,合同会社,大阪府,堺市北区,長曽根町１３０番地４２,,27,146,5918025,,,,,,,2025-01-14,1,,,,,ツクミラ,0
680,3120901050269,新規,0,2025-01-14,2025-01-14,株式会社Ｂｅｙｏｎｄ,,株式会社,大阪府,茨木市,沢良宜西３丁目２番２４号,,27,211,5670868,,,,,,,2025-01-14,1,,,,,ビヨンド,0
681,3120901050285,新規,0,2025-01-14,2025-01-14,株式会社ＣＵＲＡ,,株式会社,大阪府,吹田市,山田西１丁目２番２７号（１０１）,,27,205,5650824,,,,,,,2025-01-14,1,,,,,クーラ,0
682,3120901050293,新規,0,2025-01-14,2025-01-14,株式会社ＨＩＮＡ,,株式会社,大阪府,豊中市,新千里東町１丁目２番１－４７０３号,,27,203,5600082,,,,,,,2025-01-14,1,,,,,ヒナ,0
684,3120905006671,新規,0,2025-01-14,2025-01-14,特定非営利活動法人みのお外国人医療サポートネット,,その他の設立登記法人,大阪府,箕面市,粟生外院１丁目１７番１－５０８号,,27,220,5620025,,,,,,,2025-01-14,1,,,,,ミノオガイコクジンイリョウサポートネット,0
686,3122001038780,新規,0,2025-01-14,2025-01-14,株式会社ｍｉｒａｃｒａｒｅ,,株式会社,大阪府,東大阪市,小若江３丁目６番９号近畿大学ＫＩＮＣＵＢＡＢａｓｅｃａｍｐ,,27,227,5770818,,,,,,,2025-01-14,1,,,,,ミラクレア,0
688,3130001078739,新規,0,2025-01-14,2025-01-14,株式会社エスラン情報,,株式会社,京都府,京都市伏見区,奈良屋町４０８番地香珠マンション４０１,,26,109,6128311,,,,,,,2025-01-14,1,,,,,エスランジョウホウ,0
689,3130001078755,新規,0,2025-01-14,2025-01-14,株式会社齋田家具製作所,,株式会社,京都府,亀岡市,曽我部町穴太東ノ辻１番地４,00137639,26,206,6210029,,,,,,,2025-01-14,1,,,,,サイダカグセイサクショ,0
690,3130001078763,新規,0,2025-01-14,2025-01-14,株式会社美粋舎,,株式会社,京都府,亀岡市,篠町広田２丁目５－７,,26,206,6210834,,,,,,,2025-01-14,1,,,,,ビスイシャ,0
696,3140001136966,新規,0,2025-01-14,2025-01-14,株式会社Ｃｒｅａｔｅｌａｂｏ,,株式会社,兵庫県,神戸市西区,玉津町高津橋２３０－３,,28,111,6512122,,,,,,,2025-01-14,1,,,,,クリエイトラボ,0
697,3140001137072,新規,0,2025-01-14,2025-01-14,株式会社ケイ＆ケイ,,株式会社,兵庫県,姫路市,白浜町甲２１１１番地１０,,28,201,6728023,,,,,,,2025-01-14,1,,,,,ケイアンドケイ,0
704,3150001027801,新規,0,2025-01-14,2025-01-14,株式会社ＫｏｕＲｙｕ,,株式会社,奈良県,五條市,住川町９１番地の３５０,,29,207,6370014,,,,,,,2025-01-14,1,,,,,コウリュウ,0
712,3180005020907,新規,0,2025-01-14,2025-01-14,一般社団法人日本療育開発研究所,,その他の設立登記法人,愛知県,名古屋市名東区,社台２丁目７番地の１,,23,115,4650092,,,,,,,2025-01-14,1,,,,,ニホンリョウイクカイハツケンキュウジョ,0
719,3200001043322,新規,0,2025-01-14,2025-01-14,カジタスリープラス株式会社,,株式会社,岐阜県,可児市,若葉台７丁目２４番地,,21,214,5090258,,,,,,,2025-01-14,1,,,,,カジタスリープラス,0
722,3200003006649,新規,0,2025-01-14,2025-01-14,楽ＲＡＧ販売合同会社,,合同会社,岐阜県,大垣市,今宿６丁目５２－１６,,21,202,5030807,,,,,,,2025-01-14,1,,,,,ラクラグハンバイ,0
725,3220003003925,新規,0,2025-01-14,2025-01-14,合同会社ＺＥＲＯ,,合同会社,石川県,加賀市,清水町イ４２番地,,17,206,9220315,,,,,,,2025-01-14,1,,,,,ゼロ,0
733,3240001064380,新規,0,2025-01-14,2025-01-14,株式会社松之宮,,株式会社,広島県,広島市安佐南区,東野２丁目９番１０－１０１号,,34,105,7310111,,,,,,,2025-01-14,1,,,,,マツノミヤ,0
735,3240003007016,新規,0,2025-01-14,2025-01-14,合同会社ココブル,,合同会社,広島県,広島市佐伯区,三宅３丁目２４番３７号,,34,108,7315143,,,,,,,2025-01-14,1,,,,,ココブル,0
736,3240005015875,新規,0,2025-01-14,2025-01-14,一般社団法人ＨＴＭ,,その他の設立登記法人,広島県,福山市,蔵王町３１３８番地４,,34,207,7210971,,,,,,,2025-01-14,1,,,,,エイチティーエム,0
742,3270001009119,新規,0,2025-01-14,2025-01-14,サカイデザイン株式会社,,株式会社,鳥取県,米子市,両三柳３２３番地１大共ビル２Ｆ,,31,202,6830853,,,,,,,2025-01-14,1,,,,,サカイデザイン,0
743,3280001009332,新規,0,2025-01-14,2025-01-14,株式会社Ｄｅｎｔａｌ　Ｌａｂ　歯ＡＲＴ,,株式会社,島根県,益田市,あけぼの西町１３番地１７,,32,204,6980025,,,,,,,2025-01-14,1,,,,,デンタルラボハート,0
747,3290001108612,新規,0,2025-01-14,2025-01-14,三和エクステリア九州株式会社,,株式会社,福岡県,久留米市,藤光町２９６番地１,,40,203,8300054,,,,,,,2025-01-14,1,,,,,サンワエクステリアキュウシュウ,0
748,3290001108637,新規,0,2025-01-14,2025-01-14,株式会社ＣＯＣＯＹＵＺＵ,,株式会社,福岡県,筑紫野市,美しが丘北２丁目１７番地４,,40,217,8180035,,,,,,,2025-01-14,1,,,,,ココユズ,0
752,3290005019608,新規,0,2025-01-14,2025-01-14,一般社団法人ふくし未来パートナーズ,,その他の設立登記法人,福岡県,糟屋郡新宮町,花立花１丁目１番１１号,,40,345,8110103,,,,,,,2025-01-14,1,,,,,フクシミライパートナーズ,0
754,3290801031187,新規,0,2025-01-14,2025-01-14,ＣＯＶＥＲ８８８株式会社,,株式会社,福岡県,北九州市八幡西区,熊西２丁目７番１０号,,40,109,8060031,,,,,,,2025-01-14,1,,,,,カバースリーエイト,0
755,3300001014049,新規,0,2025-01-14,2025-01-14,株式会社ＶＡＮ’Ｐｉｎｇ,,株式会社,佐賀県,鳥栖市,原町１２８３番地１,,41,203,8410024,,,,,,,2025-01-14,1,,,,,バンピング,0
760,3340001027055,新規,0,2025-01-14,2025-01-14,岩工業株式会社,,株式会社,鹿児島県,鹿児島市,西陵１丁目４６番１号,,46,201,8900032,,,,,,,2025-01-14,1,,,,,イワコウギョウ,0
764,3360001034652,新規,0,2025-01-14,2025-01-14,株式会社Ｚｅｋｋｅｉ,,株式会社,沖縄県,宜野湾市,大謝名１丁目１７番１１号,,47,205,9012225,,,,,,,2025-01-14,1,,,,,ゼッケイ,0
765,3360001034660,新規,0,2025-01-14,2025-01-14,株式会社ＥＮ・ＧＲＯＷ,,株式会社,沖縄県,沖縄市,安慶田４丁目１３番１５号１Ｆ,,47,211,9040012,,,,,,,2025-01-14,1,,,,,エングロウ,0
768,3360003014586,新規,0,2025-01-14,2025-01-14,合同会社めんそーれ,,合同会社,沖縄県,沖縄市,比屋根３丁目５番１５号Ｕパレス１０１,,47,211,9042173,,,,,,,2025-01-14,1,,,,,メンソーレ,0
771,3370003006888,新規,0,2025-01-14,2025-01-14,アルス合同会社,,合同会社,宮城県,名取市,田高字南３２６番地,,04,207,9811221,,,,,,,2025-01-14,1,,,,,アルス,0
772,3380001035021,新規,0,2025-01-14,2025-01-14,株式会社ＥＶ　ＧＡＲＤＥＮ,,株式会社,福島県,福島市,仲間町９番１６号,,07,201,9608105,,,,,,,2025-01-14,1,,,,,イーヴイガーデン,0
775,3390001017836,新規,0,2025-01-14,2025-01-14,株式会社ＣｏｍｐａｎｉｅｓＡｄａｃｈｉ,,株式会社,山形県,山形市,あこや町２丁目１番２４号,,06,201,9900025,,,,,,,2025-01-14,1,,,,,カンパニーズアダチ,0
778,3430001093468,新規,0,2025-01-14,2025-01-14,株式会社メイデンＴＥ,,株式会社,北海道,札幌市豊平区,西岡五条２丁目７番８号,,01,105,0620035,,,,,,,2025-01-14,1,,,,,メイデンティーイー,0
781,3430003017128,新規,0,2025-01-14,2025-01-14,ＷＡＹＮＥ産業合同会社,,合同会社,北海道,登別市,中登別町１７４番地９,,01,230,0590463,,,,,,,2025-01-14,1,,,,,ウェインサンギョウ,0
783,3460101007655,新規,0,2025-01-14,2025-01-14,株式会社スイープ,,株式会社,北海道,帯広市,西四条南３２丁目９番地６,,01,207,0800014,,,,,,,2025-01-14,1,,,,,スイープ,0
785,3480001012704,新規,0,2025-01-14,2025-01-14,株式会社５８９９,,株式会社,徳島県,徳島市,東吉野町１丁目４２番地の５,,36,201,7700811,,,,,,,2025-01-14,1,,,,,コーヤナインティナイン,0
794,3700150128666,新規,0,2025-01-14,2025-01-14,ｓｈｅｎｚｈｅｎｓｈｉｘｉｎｇｌｉｎｃｈｕａｎｇｘｉｎｍａｏｙｉｙｏｕｘｉａｎｇｏｎｇｓｉ,,外国会社等,,,,,,,,ｓｈｅｎｚｈｅｎｓｈｉｌｏｎｇｈｕａｑｕｌｏｎｇｈｕａｊｉｅｄａｏｈｕａｌｉａｎｓｈｅｑｕｄａｌａｎｇｎａｎｌｕｈａｉｒｏｎｇｈａｏｙｕａｎ１，２ｄｏｎｇＦ２５３,,,,,,2025-01-14,1,,,,,シンセンシシンリンツゥアンシンマオイユウゲンコウシ,0
796,4010001251050,新規,0,2025-01-14,2025-01-14,株式会社トライアングルリゾート,,株式会社,東京都,三宅島三宅村,神着８９１番地,,13,381,1001101,,,,,,,2025-01-14,1,,,,,トライアングルリゾート,0
797,4010001251133,新規,0,2025-01-14,2025-01-14,株式会社楽籏,00137628,株式会社,東京都,中央区,八重洲１丁目４－１６東京建物八重洲ビル３Ｆ＋ＯＵＲＳ八重洲,,13,102,1030028,,,,,,,2025-01-14,1,,,,,ガッキ,0
798,4010001251182,新規,0,2025-01-14,2025-01-14,株式会社ＷＡＨＲＨＥＩＴ,,株式会社,東京都,千代田区,麹町４丁目４番地４ＡＣＮ麹町ビル１２階,,13,101,1020083,,,,,,,2025-01-14,1,,,,,ヴァールハイト,0
799,4010001251208,新規,0,2025-01-14,2025-01-14,株式会社ＬＩＭ‐ＯＮ,,株式会社,東京都,文京区,千石１丁目１７番１０－１０４号室,,13,105,1120011,,,,,,,2025-01-14,1,,,,,リムオン,0
800,4010001251257,新規,0,2025-01-14,2025-01-14,株式会社ｌａ　ｆａｒｆａ,,株式会社,東京都,中央区,銀座１丁目１２番４号７階,,13,102,1040061,,,,,,,2025-01-14,1,,,,,ラファーファ,0
801,4010001251298,新規,0,2025-01-14,2025-01-14,プロフィンクス株式会社,,株式会社,東京都,千代田区,霞が関３丁目２番５号霞が関ビルディング３５階,,13,101,1000013,,,,,,,2025-01-14,1,,,,,プロフィンクス,0
802,4010001251307,新規,0,2025-01-14,2025-01-14,ＬｏｇｉｓｔｉｃｓＦｏｒｃｅ株式会社,,株式会社,東京都,千代田区,外神田６丁目１番８号,,13,101,1010021,,,,,,,2025-01-14,1,,,,,ロジスティクスフォース,0
803,4010001251323,新規,0,2025-01-14,2025-01-14,株式会社ＤＹＥＬＩＮＥ,,株式会社,東京都,中央区,東日本橋２丁目１７－１０東日本橋第５梶山ビル５階,,13,102,1030004,,,,,,,2025-01-14,1,,,,,ダイライン,0
804,4010001251348,新規,0,2025-01-14,2025-01-14,株式会社ＴＹＫＡ,,株式会社,東京都,中央区,東日本橋２丁目２８番４号日本橋ＣＥＴビル２階,,13,102,1030004,,,,,,,2025-01-14,1,,,,,タイカ,0
805,4010001251364,新規,0,2025-01-14,2025-01-14,株式会社ＳＡＩ建築設計事務所,,株式会社,東京都,文京区,白山１丁目６番４－Ａ０７,,13,105,1130001,,,,,,,2025-01-14,1,,,,,サイケンチクセッケイジムショ,0
807,4010003045946,新規,0,2025-01-14,2025-01-14,合同会社ＲＰＧ,,合同会社,東京都,中央区,銀座１丁目１２－４Ｎ＆ＥＢＬＤ．７階,,13,102,1040061,,,,,,,2025-01-14,1,,,,,アールピージー,0
808,4010003045962,新規,0,2025-01-14,2025-01-14,合同会社キキョウ,,合同会社,東京都,千代田区,霞が関３丁目２番５号,,13,101,1000013,,,,,,,2025-01-14,1,,,,,キキョウ,0
809,4010003045995,新規,0,2025-01-14,2025-01-14,エム・ワイ地域活性化合同会社,,合同会社,東京都,千代田区,大手町１丁目９番２号,,13,101,1000004,,,,,,,2025-01-14,1,,,,,エムワイチイキカッセイカ,0
810,4010003046011,新規,0,2025-01-14,2025-01-14,合同会社ｉｃｈｉ,,合同会社,東京都,中央区,銀座７丁目７番１２号１階,,13,102,1040061,,,,,,,2025-01-14,1,,,,,イチ,0
811,4010003046036,新規,0,2025-01-14,2025-01-14,ｅＸｐ　Ｊａｐａｎ合同会社,,合同会社,東京都,千代田区,丸の内１丁目１１番１号パシフィックセンチュリープレイス１３階,,13,101,1000005,,,,,,,2025-01-14,1,,,,,イーエックスピージャパン,0
813,4010005039392,新規,0,2025-01-14,2025-01-14,一般社団法人中小企業振興支援機構,,その他の設立登記法人,東京都,中央区,日本橋２丁目２番３号ＲＩＳＨＥビルＵＣＦ４階,,13,102,1030027,,,,,,,2025-01-14,1,,,,,チュウショウキギョウシンコウシエンキコウ,0
815,4010401187563,新規,0,2025-01-14,2025-01-14,株式会社Ａ‐Ｃａｓｔ　Ｔｅｃｈｎｏｌｏｇｉｅｓ,,株式会社,東京都,港区,六本木４丁目３番１１号六本木ユニハウス２２３,,13,103,1060032,,,,,,,2025-01-14,1,,,,,エーキャストテクノロジーズ,0
822,4010601066583,新規,0,2025-01-14,2025-01-14,株式会社あどわさび,,株式会社,東京都,墨田区,八広１丁目４－１,,13,107,1310041,,,,,,,2025-01-14,1,,,,,アドワサビ,0
823,4010603011307,新規,0,2025-01-14,2025-01-14,合同会社融昇,,合同会社,東京都,江東区,亀戸４丁目１４番１４号キノシタビル１０３号室,,13,108,1360071,,,,,,,2025-01-14,1,,,,,ユウショウ,0
837,4011101110204,新規,0,2025-01-14,2025-01-14,株式会社チェックレイズ,,株式会社,東京都,新宿区,歌舞伎町２丁目９番１５－１１４号,,13,104,1600021,,,,,,,2025-01-14,1,,,,,チェックレイズ,0
839,4011103015376,新規,0,2025-01-14,2025-01-14,合同会社みさきムーン,,合同会社,東京都,新宿区,余丁町１４番２７号,,13,104,1620055,,,,,,,2025-01-14,1,,,,,ミサキムーン,0
844,4011701027962,新規,0,2025-01-14,2025-01-14,株式会社盛宏,,株式会社,東京都,江戸川区,松島１丁目２７－４,,13,123,1320031,,,,,,,2025-01-14,1,,,,,セイコウ,0
845,4011701027970,新規,0,2025-01-14,2025-01-14,株式会社エース,,株式会社,東京都,江戸川区,鹿骨４丁目１３番１５号,,13,123,1330073,,,,,,,2025-01-14,1,,,,,エース,0
847,4011705001872,新規,0,2025-01-14,2025-01-14,農事組合法人Ｍ３,,その他の設立登記法人,東京都,江戸川区,北葛西２丁目１６番６号サニーコート北葛西ＩＩＩ１０７,00137623,13,123,1340081,,,,,,,2025-01-14,1,,,,,エムスリー,0
848,4011801045427,新規,0,2025-01-14,2025-01-14,株式会社モート,,株式会社,東京都,足立区,梅田４丁目２２番２号,,13,121,1230851,,,,,,,2025-01-14,1,,,,,モート,0
849,4011803006641,新規,0,2025-01-14,2025-01-14,合同会社サンフラワー堀切松井,,合同会社,東京都,葛飾区,堀切２丁目６５番１３－８０１号サンフラワー堀切,,13,122,1240006,,,,,,,2025-01-14,1,,,,,サンフラワーホリキリマツイ,0
854,4012401042649,新規,0,2025-01-14,2025-01-14,株式会社Ｍ’ｓ工務店,,株式会社,東京都,調布市,仙川町３丁目２番地３９,,13,208,1820002,,,,,,,2025-01-14,1,,,,,エムズコウムテン,0
855,4012401042657,新規,0,2025-01-14,2025-01-14,ＮｏｔａＦｏｒｔｉｓ株式会社,,株式会社,東京都,小金井市,貫井北町５丁目１２番４号,,13,210,1840015,,,,,,,2025-01-14,1,,,,,ノタフォルティス,0
856,4012405005073,新規,0,2025-01-14,2025-01-14,一般社団法人後継樹育成会,,その他の設立登記法人,東京都,府中市,武蔵台１丁目１５番地の５１サンサーラＭ３０３号,,13,206,1830042,,,,,,,2025-01-14,1,,,,,コウケイジュイクセイカイ,0
857,4012701018646,新規,0,2025-01-14,2025-01-14,ジイワホームズ株式会社,,株式会社,東京都,東村山市,青葉町２丁目４番７０号,,13,213,1890002,,,,,,,2025-01-14,1,,,,,ジイワホームズ,0
865,4013303007475,新規,0,2025-01-14,2025-01-14,群馬太田蓄電池発電所合同会社,,合同会社,東京都,豊島区,北大塚２丁目１２番８号,,13,116,1700004,,,,,,,2025-01-14,1,,,,,グンマオオタチクデンチハツデンショ,0
866,4013303007483,新規,0,2025-01-14,2025-01-14,ＢＡＹＩＮ　ＮＡＵＮＧ合同会社,,合同会社,東京都,豊島区,巣鴨３丁目３７番１号鈴越コーポ４０２号,,13,116,1700002,,,,,,,2025-01-14,1,,,,,バヤェンナウン,0
871,4020001160770,新規,0,2025-01-14,2025-01-14,マスダ企画株式会社,,株式会社,神奈川県,横浜市南区,浦舟町１丁目２番地８メイクスデザイン横浜阪東橋５０３,,14,105,2320024,,,,,,,2025-01-14,1,,,,,マスダキカク,0
872,4020001160795,新規,0,2025-01-14,2025-01-14,株式会社カラコミ,,株式会社,神奈川県,横浜市青葉区,荏田西５丁目７番地５,,14,117,2250014,,,,,,,2025-01-14,1,,,,,カラコミ,0
873,4020001160820,新規,0,2025-01-14,2025-01-14,株式会社エンターワーク,,株式会社,神奈川県,横浜市西区,北幸１丁目５番１０号ＪＰＲ横浜ビル８階,,14,103,2200004,,,,,,,2025-01-14,1,,,,,エンターワーク,0
876,4020003027514,新規,0,2025-01-14,2025-01-14,合同会社リクルム,,合同会社,神奈川県,横浜市西区,浅間町１丁目４番３号ウィザードビル４０２,,14,103,2200072,,,,,,,2025-01-14,1,,,,,リクルム,0
887,4030001164317,新規,0,2025-01-14,2025-01-14,株式会社門井果樹園,,株式会社,埼玉県,加須市,南大桑２７００番地１,,11,210,3470015,,,,,,,2025-01-14,1,,,,,カドイカジュエン,0
888,4030001164325,新規,0,2025-01-14,2025-01-14,株式会社キュアネス,,株式会社,埼玉県,坂戸市,緑町２９番地１２エクレール緑町３０３号,,11,239,3500234,,,,,,,2025-01-14,1,,,,,キュアネス,0
889,4030001164333,新規,0,2025-01-14,2025-01-14,株式会社緑豊,,株式会社,埼玉県,越谷市,神明町２丁目１６番地９,,11,222,3430805,,,,,,,2025-01-14,1,,,,,リョクホウ,0
890,4030001164358,新規,0,2025-01-14,2025-01-14,株式会社祈掌,,株式会社,埼玉県,加須市,南大桑３２２５番地１,,11,210,3470015,,,,,,,2025-01-14,1,,,,,キショウ,0
891,4030001164382,新規,0,2025-01-14,2025-01-14,大民国際株式会社,,株式会社,埼玉県,蕨市,南町３丁目１１番３号,,11,223,3350003,,,,,,,2025-01-14,1,,,,,オオタミコクサイ,0
893,4030003025789,新規,0,2025-01-14,2025-01-14,冨森ファーム合同会社,,合同会社,埼玉県,坂戸市,大字多和目３６６,,11,239,3500246,,,,,,,2025-01-14,1,,,,,トミモリファーム,0
894,4030003025847,新規,0,2025-01-14,2025-01-14,ＭＫ企画合同会社,,合同会社,埼玉県,川越市,南通町１番地５（クリオ川越壱番館１００２号室）,,11,201,3500045,,,,,,,2025-01-14,1,,,,,エムケーキカク,0
895,4030003025855,新規,0,2025-01-14,2025-01-14,ストリックランド合同会社,,合同会社,埼玉県,さいたま市中央区,本町西４丁目４番１３号トップヒルハラ１０５号,,11,105,3380004,,,,,,,2025-01-14,1,,,,,ストリックランド,0
896,4030003025871,新規,0,2025-01-14,2025-01-14,Ｌａｒｔｎｅｃ合同会社,,合同会社,埼玉県,富士見市,針ケ谷２丁目３番地９,,11,235,3540017,,,,,,,2025-01-14,1,,,,,ラートネック,0
901,4050001056009,新規,0,2025-01-14,2025-01-14,ＫＡＳＡＭＡ　ＨＩＬＬＳ株式会社,,株式会社,茨城県,笠間市,本戸１３０９番地,,08,216,3091633,,,,,,,2025-01-14,1,,,,,カサマヒルズ,0
905,4060005010282,新規,0,2025-01-14,2025-01-14,一般社団法人Ｓｏｃｉａｌ　Ｕｐ,,その他の設立登記法人,栃木県,芳賀郡茂木町,大字馬門６４０番地１４,,09,343,3213562,,,,,,,2025-01-14,1,,,,,ソーシャルアップ,0
907,4090001019077,新規,0,2025-01-14,2025-01-14,株式会社Ｋ＆Ｓナチュラルエナジー,,株式会社,山梨県,甲州市,塩山上粟生野１７２番地１,,19,213,4040031,,,,,,,2025-01-14,1,,,,,ケーアンドエスナチュラルエナジー,0
908,4090001019085,新規,0,2025-01-14,2025-01-14,株式会社グランドールガヴァン,,株式会社,山梨県,富士吉田市,上吉田東５丁目１５番１０号,,19,202,4030032,,,,,,,2025-01-14,1,,,,,グランドールガヴァン,0
911,4100003007937,新規,0,2025-01-14,2025-01-14,合同会社オーエスマネジメント,,合同会社,長野県,北佐久郡軽井沢町,大字長倉９番地１０８,,20,321,3890111,,,,,,,2025-01-14,1,,,,,オーエスマネジメント,0
925,4120001271772,新規,0,2025-01-14,2025-01-14,友信商事株式会社,,株式会社,大阪府,大阪市住之江区,南港北２丁目１－１０ＡＴＣビルＯ’ｓ棟北館５２０の１１４室,,27,125,5590034,,,,,,,2025-01-14,1,,,,,ユウシンショウジ,0
926,4120001271830,新規,0,2025-01-14,2025-01-14,セピア株式会社,,株式会社,大阪府,大阪市住之江区,粉浜１丁目３番２５－１０６号,,27,125,5590001,,,,,,,2025-01-14,1,,,,,セピア,0
928,4120003028329,新規,0,2025-01-14,2025-01-14,合同会社アンサング,,合同会社,大阪府,大阪市天王寺区,生玉前町３－２５タマダビル４０５号室,,27,109,5430072,,,,,,,2025-01-14,1,,,,,アンサング,0
929,4120005024706,新規,0,2025-01-14,2025-01-14,特定非営利活動法人Ｃａｎｖａｓ,,その他の設立登記法人,大阪府,交野市,倉治２丁目３番７号,,27,230,5760051,,,,,,,2025-01-14,1,,,,,キャンバス,0
932,4120103006226,新規,0,2025-01-14,2025-01-14,合同会社ＪＨＲ,,合同会社,大阪府,泉大津市,旭町１８番２－１７０６号,,27,206,5950025,,,,,,,2025-01-14,1,,,,,ジェイエイチアール,0
939,4120901049938,新規,0,2025-01-14,2025-01-14,株式会社ＳＯＳＨ,,株式会社,大阪府,豊中市,柴原町４丁目２－３２,,27,203,5600055,,,,,,,2025-01-14,1,,,,,ソッシュ,0
941,4120905006670,新規,0,2025-01-14,2025-01-14,一般社団法人たよりば,,その他の設立登記法人,大阪府,豊中市,曽根東町６丁目１１番２号１階,,27,203,5610802,,,,,,,2025-01-14,1,,,,,タヨリバ,0
949,4130001078762,新規,0,2025-01-14,2025-01-14,ＴＧＣ株式会社,,株式会社,京都府,久世郡久御山町,栄３丁目１番地１３０,,26,322,6130032,,,,,,,2025-01-14,1,,,,,ティージーシー,0
957,4140001136998,新規,0,2025-01-14,2025-01-14,株式会社Ｇａｒａｇｅ２４,,株式会社,兵庫県,豊岡市,日高町鶴岡５３１番地,,28,209,6695313,,,,,,,2025-01-14,1,,,,,ガレージニジュウヨン,0
960,4150001027817,新規,0,2025-01-14,2025-01-14,ＢＲＥＤ株式会社,,株式会社,奈良県,奈良市,二名２丁目２４８２番地の１９,,29,201,6310072,,,,,,,2025-01-14,1,,,,,ブレッド,0
971,4180001164830,新規,0,2025-01-14,2025-01-14,Ｆｓｕｎｓ　ＰＬＡＣＥ株式会社,,株式会社,愛知県,一宮市,三条字北平３９番地１,,23,203,4940003,,,,,,,2025-01-14,1,,,,,エフサンズプレイス,0
975,4190001031930,新規,0,2025-01-14,2025-01-14,株式会社Ｔ．Ｒ　ＳＨＯＰ,,株式会社,三重県,鈴鹿市,住吉３丁目３１番１０号,,24,207,5130826,,,,,,,2025-01-14,1,,,,,ティアールショップ,0
977,4200001043313,新規,0,2025-01-14,2025-01-14,株式会社Ｆａｌｏ,,株式会社,岐阜県,高山市,上一之町４５番地２,,21,203,5060844,,,,,,,2025-01-14,1,,,,,ファロ,0
979,4200003006648,新規,0,2025-01-14,2025-01-14,ひまわり合同会社,,合同会社,岐阜県,美濃市,松森２６２番地,,21,207,5013753,,,,,,,2025-01-14,1,,,,,ヒマワリ,0
981,4210003001879,新規,0,2025-01-14,2025-01-14,ＫＤＳ開発合同会社,,合同会社,福井県,坂井市,春江町西長田第９号３番地１,,18,210,9190404,,,,,,,2025-01-14,1,,,,,ケーディーエスカイハツ,0
982,4210005010176,新規,0,2025-01-14,2025-01-14,農事組合法人関中営農生産組合,,その他の設立登記法人,福井県,坂井市,坂井町下関４８号５５番地,,18,210,9190501,,,,,,,2025-01-14,1,,,,,セキナカエイノウセイサンクミアイ,0
983,4220001026423,新規,0,2025-01-14,2025-01-14,株式会社Ｇｒａｎ　Ｗｏｒｋｓ,,株式会社,石川県,七尾市,能登島二穴町い部２２番地１,,17,202,9260207,,,,,,,2025-01-14,1,,,,,グランワークス,0
984,4220001026431,新規,0,2025-01-14,2025-01-14,株式会社みたにファーム,,株式会社,石川県,金沢市,鳴瀬元町ロ２０５番地,,17,201,9200152,,,,,,,2025-01-14,1,,,,,ミタニファーム,0
988,4240003007015,新規,0,2025-01-14,2025-01-14,合同会社トップスターライト,,合同会社,広島県,呉市,焼山北１丁目１番８号,,34,202,7370911,,,,,,,2025-01-14,1,,,,,トップスターライト,0
990,4250003003632,新規,0,2025-01-14,2025-01-14,合同会社Ｃｒｅａｔｉｖｅ　Ｇａｒａｇｅ,,合同会社,山口県,宇部市,大字際波６６５番地２０,,35,202,7590207,,,,,,,2025-01-14,1,,,,,クリエイティブガレージ,0
993,4270001009126,新規,0,2025-01-14,2025-01-14,株式会社西村建工,,株式会社,鳥取県,米子市,立町４丁目１７９番地,,31,202,6830832,,,,,,,2025-01-14,1,,,,,ニシムラケンコウ,0
999,4290001108594,新規,0,2025-01-14,2025-01-14,株式会社むすびＣｏ．,,株式会社,福岡県,福岡市西区,姪浜駅南１丁目２番３０－５０１号,,40,135,8190006,,,,,,,2025-01-14,1,,,,,ムスビカンパニー,0
1002,4290005019615,新規,0,2025-01-14,2025-01-14,医療法人ＩＤＣ,,その他の設立登記法人,福岡県,大川市,大字榎津１４番４号,,40,212,8310004,,,,,,,2025-01-14,1,,,,,アイディーシー,0
1003,4290801031194,新規,0,2025-01-14,2025-01-14,株式会社ＧＲＯＷ,,株式会社,福岡県,北九州市若松区,本町２丁目１０－１７　９０２号,,40,103,8080034,,,,,,,2025-01-14,1,,,,,グロウ,0
1004,4310001019401,新規,0,2025-01-14,2025-01-14,むったく株式会社,,株式会社,長崎県,佐世保市,大和町５４２番地１,,42,202,8571165,,,,,,,2025-01-14,1,,,,,ムッタク,0
1008,4320001020886,新規,0,2025-01-14,2025-01-14,ユニパワー株式会社,,株式会社,大分県,大分市,賀来南１丁目８番１号,,44,201,8700849,,,,,,,2025-01-14,1,,,,,ユニパワー,0
1010,4330003010728,新規,0,2025-01-14,2025-01-14,ｏｒｉｇａｍｉ　ｆａｒｍ合同会社,,合同会社,熊本県,熊本市中央区,練兵町７８番地コアマンション辛島公園ゼクシス８０１,,43,101,8600017,,,,,,,2025-01-14,1,,,,,オリガミファーム,0
1011,4340001027054,新規,0,2025-01-14,2025-01-14,株式会社創,,株式会社,鹿児島県,熊毛郡屋久島町,小島１９８－４８,,46,505,8914405,,,,,,,2025-01-14,1,,,,,ソウ,0
1012,4340003004712,新規,0,2025-01-14,2025-01-14,合同会社ＪＡＣＫ　ＪＡＣＫ,,合同会社,鹿児島県,薩摩川内市,平佐町２５００番地６,,46,215,8950012,,,,,,,2025-01-14,1,,,,,ジャックジャック,0
1016,4370003006887,新規,0,2025-01-14,2025-01-14,合同会社Ｉ’ｓ,,合同会社,宮城県,登米市,迫町佐沼字中江４丁目１番地４,,04,212,9870511,,,,,,,2025-01-14,1,,,,,アイズ,0
1032,4700150128665,新規,0,2025-01-14,2025-01-14,ｑｕａｎｚｈｏｕｆｅｎｇｚｅｑｕｂａｉｓｈａｎｇｓｉＪｉｎｃｈｕｋｏｕｍａｏｙｉｃｏ．Ｌｔｄ,,外国会社等,,,,,,,,３４３　Ｄａｘｉｎｇ　Ｓｔｒｅｅｔ，Ｆｅｎｇｚｅ　ＤｉｓｔｒｉｃｔＲｏｏｍ　１２１３，Ｎｏ．５　Ｂｕｉｌｄｉｎｇ，Ｖａｎｋｅ　Ｃｉｔｙ　Ｌｉｇｈｔ　ＩＩＩＱｕａｎｚｈｏｕ　ＦｕｊｉａｎＣｈｉｎａ　３６２００,00137578,,,,,2025-01-14,1,,,,,チュエンジョウシーフォンゾーチーバイシャンスージンチューコウマオイーヨウシエンゴンスー,0
1033,4700150128673,新規,0,2025-01-14,2025-01-14,ｓｈａｎｇｈａｉ　Ｇｅｙｉ　Ｈｏｕｓｅｗａｒｅ　Ｃｏ．，Ｌｔｄ,,外国会社等,,,,,,,,ｂｕｉｌｄｉｎｇ　１　Ｎｏ．５６０１　Ｙａｎｑｉａｎ　ｒｏａｄ　Ｆｅｎｇｘｉａｎ　Ａｒｅａ　２０１４００　Ｓｈａｎｇｈａｉ　ＣＮ,,,,,,2025-01-14,1,,,,,シヤンハイカクイチカキヨヨウヒンユウゲンコウシ,0
1040,5010001251124,新規,0,2025-01-14,2025-01-14,スカイリミット株式会社,,株式会社,東京都,中央区,日本橋室町１丁目１１番１２号日本橋水野ビル７階,,13,102,1030022,,,,,,,2025-01-14,1,,,,,スカイリミット,0
1041,5010001251248,新規,0,2025-01-14,2025-01-14,株式会社ＨＲ＆Ｃｕｌｔｕｒｅ　ｗｏｒｋｓ,,株式会社,東京都,中央区,日本橋３丁目１番３号,,13,102,1030027,,,,,,,2025-01-14,1,,,,,エイチアールアンドカルチャーワークス,0
1042,5010001251280,新規,0,2025-01-14,2025-01-14,ニオエナジー株式会社,,株式会社,東京都,千代田区,神田東松下町１３番地,,13,101,1010042,,,,,,,2025-01-14,1,,,,,ニオエナジー,0
1043,5010001251297,新規,0,2025-01-14,2025-01-14,株式会社ＡＬＡｉｓ,,株式会社,東京都,千代田区,有楽町２丁目７番１号有楽町イトシアビル１２階,,13,101,1000006,,,,,,,2025-01-14,1,,,,,アライズ,0
1044,5010001251330,新規,0,2025-01-14,2025-01-14,株式会社スリー,,株式会社,東京都,中央区,銀座６丁目４番１２号,,13,102,1040061,,,,,,,2025-01-14,1,,,,,スリー,0
1045,5010001251339,新規,0,2025-01-14,2025-01-14,株式会社ホスピタリティテクノロジーズ,,株式会社,東京都,千代田区,神田錦町２丁目５番１６号,,13,101,1010054,,,,,,,2025-01-14,1,,,,,ホスピタリティテクノロジーズ,0
1046,5010001251347,新規,0,2025-01-14,2025-01-14,株式会社永都不動産,,株式会社,東京都,中央区,銀座６丁目３番１８号Ｌａ・Ｌａ・ＧｒａｎｄｅＧＩＮＺＡ４階,,13,102,1040061,,,,,,,2025-01-14,1,,,,,エイトフドウサン,0
1053,5010003045887,新規,0,2025-01-14,2025-01-14,Ａｒｃａｄｉａ合同会社,,合同会社,東京都,中央区,新川１丁目７番１号,,13,102,1040033,,,,,,,2025-01-14,1,,,,,アルカディア,0
1054,5010003045961,新規,0,2025-01-14,2025-01-14,合同会社ＧＡＲＮＥＴ０２,,合同会社,東京都,千代田区,霞が関３丁目２番５号,,13,101,1000013,,,,,,,2025-01-14,1,,,,,ガーネットゼロツー,0
1055,5010003045994,新規,0,2025-01-14,2025-01-14,ＫＡ　Ｗｉｎｄ合同会社,,合同会社,東京都,千代田区,内神田１丁目３番７号４０１あすな会計事務所内,,13,101,1010047,,,,,,,2025-01-14,1,,,,,ケーエーウインド,0
1056,5010003046043,新規,0,2025-01-14,2025-01-14,Ｃｈｅｅｒ　Ｒｅ‐Ｍａｎ’ｓ合同会社,,合同会社,東京都,中央区,銀座１丁目１２番４号Ｎ＆ＥＢＬＤ．６Ｆ,,13,102,1040061,,,,,,,2025-01-14,1,,,,,チアリーマンズ,0
1057,5010005039383,新規,0,2025-01-14,2025-01-14,すみだ日本橋税理士法人,,その他の設立登記法人,東京都,中央区,日本橋蛎殻町２丁目８番１１号パークハビオ水天宮前７０２号室,,13,102,1030014,,,,,,,2025-01-14,1,,,,,スミダニホンバシ,0
1066,5010403034135,新規,0,2025-01-14,2025-01-14,合同会社エマラボ,,合同会社,東京都,港区,南青山２丁目２番１５号ウィン青山９４２,,13,103,1070062,,,,,,,2025-01-14,1,,,,,エマラボ,0
1067,5010403034151,新規,0,2025-01-14,2025-01-14,合同会社Ｄネクストフロンティア,,合同会社,東京都,港区,新橋４丁目１４番１新橋ＡＵＮＢＬＤＧ４階,,13,103,1050004,,,,,,,2025-01-14,1,,,,,ディーネクストフロンティア,0
1068,5010403034168,新規,0,2025-01-14,2025-01-14,１２Ｇｏ　Ｊａｐａｎ合同会社,,合同会社,東京都,港区,元麻布３丁目１番６号,,13,103,1060046,,,,,,,2025-01-14,1,,,,,トゥエルブゴージャパン,0
1071,5010501053466,新規,0,2025-01-14,2025-01-14,ＡＣＱＵＡ株式会社,,株式会社,東京都,台東区,上野６丁目１１－７－Ｂ１０１,,13,106,1100005,,,,,,,2025-01-14,1,,,,,アクア,0
1072,5010601066582,新規,0,2025-01-14,2025-01-14,株式会社Ｔ＆Ｌ国際,,株式会社,東京都,江東区,東雲１丁目９番４１－４１１２号,,13,108,1350062,,,,,,,2025-01-14,1,,,,,ティーアンドエルコクサイ,0
1078,5010703007526,新規,0,2025-01-14,2025-01-14,晴流屋合同会社,,合同会社,東京都,品川区,小山６丁目２８番６号,,13,109,1420062,,,,,,,2025-01-14,1,,,,,ハレルヤ,0
1082,5010903009636,新規,0,2025-01-14,2025-01-14,合同会社ＭＳ＆Ｕパートナーズ,,合同会社,東京都,世田谷区,北烏山６丁目３２－１０－１０６号,,13,112,1570061,,,,,,,2025-01-14,1,,,,,エムエスアンドユーパートナーズ,0
1085,5011001167062,新規,0,2025-01-14,2025-01-14,株式会社ＭＡＧＩＣ,,株式会社,東京都,渋谷区,神宮前５丁目２８番２号シャンブル神宮前２０４,,13,113,1500001,,,,,,,2025-01-14,1,,,,,マジック,0
1087,5011003020681,新規,0,2025-01-14,2025-01-14,合同会社Ｅｒｕｍｏ,,合同会社,東京都,渋谷区,恵比寿１丁目２０番２７号Ｅｓｔ．ＥＢＩＳＵ２０１号室,,13,113,1500013,,,,,,,2025-01-14,1,,,,,エルモ,0
1088,5011003020789,新規,0,2025-01-14,2025-01-14,タイソンキャピタル５号合同会社,,合同会社,東京都,渋谷区,上原１丁目１７番１４号,,13,113,1510064,,,,,,,2025-01-14,1,,,,,タイソンキャピタルゴゴウ,0
1094,5011101110203,新規,0,2025-01-14,2025-01-14,株式会社ロイヤルコネクト,,株式会社,東京都,新宿区,歌舞伎町２丁目１９番１７－１０１号,,13,104,1600021,,,,,,,2025-01-14,1,,,,,ロイヤルコネクト,0
1097,5011103015383,新規,0,2025-01-14,2025-01-14,Ｃｏｌｌａｂｏｒａｔｅ　Ａｓｉａ合同会社,,合同会社,東京都,新宿区,西新宿１丁目４番１１号,,13,104,1600023,,,,,,,2025-01-14,1,,,,,コラボレートアジア,0
1098,5011103015409,新規,0,2025-01-14,2025-01-14,合同会社ジェイ・ジー・エフ,,合同会社,東京都,新宿区,下宮比町１番４号,,13,104,1620822,,,,,,,2025-01-14,1,,,,,ジェイジーエフ,0
1099,5011301030291,新規,0,2025-01-14,2025-01-14,株式会社前田,,株式会社,東京都,杉並区,高円寺南３丁目５８番２２号ＦＵＪＩＹＡＢＬＤ４階,,13,115,1660003,,,,,,,2025-01-14,1,,,,,マエダ,0
1102,5011401026702,新規,0,2025-01-14,2025-01-14,株式会社Ｍ＆Ｉ,,株式会社,東京都,板橋区,徳丸１丁目１６番７号,,13,119,1750083,,,,,,,2025-01-14,1,,,,,エムアンドアイ,0
1108,5011705001871,新規,0,2025-01-14,2025-01-14,農事組合法人Ｍ２,,その他の設立登記法人,東京都,江戸川区,北葛西２丁目１６番６号サニーコート北葛西ＩＩＩ１０７,00137622,13,123,1340081,,,,,,,2025-01-14,1,,,,,エムツー,0
1110,5011801045426,新規,0,2025-01-14,2025-01-14,ＴＺＣＯ　Ｊａｐａｎ株式会社,,株式会社,東京都,葛飾区,鎌倉１丁目２２番４号,,13,122,1250053,,,,,,,2025-01-14,1,,,,,ティーゼットシーオージャパン,0
1111,5011803006632,新規,0,2025-01-14,2025-01-14,合同会社ＧＲＥＥＮ　ＳＰＡ,,合同会社,東京都,足立区,梅田７丁目２４－１３－９０２,,13,121,1230851,,,,,,,2025-01-14,1,,,,,グリーンスパ,0
1112,5011803006640,新規,0,2025-01-14,2025-01-14,合同会社ストックファン,,合同会社,東京都,足立区,中央本町５丁目５番２６号,,13,121,1210011,,,,,,,2025-01-14,1,,,,,ストックファン,0
1114,5012401042656,新規,0,2025-01-14,2025-01-14,ＡＳリアルエステート株式会社,,株式会社,東京都,府中市,八幡町２丁目３番地の８,,13,206,1830016,,,,,,,2025-01-14,1,,,,,エーエスリアルエステート,0
1115,5012403006907,新規,0,2025-01-14,2025-01-14,合同会社ＲＩＮＧ‐Ｏ,,合同会社,東京都,府中市,是政３丁目２９番地の５６,,13,206,1830014,,,,,,,2025-01-14,1,,,,,リンゴ,0
1117,5012703003166,新規,0,2025-01-14,2025-01-14,栞合同会社,,合同会社,東京都,東久留米市,南沢５丁目１８番６９号,,13,222,2030023,,,,,,,2025-01-14,1,,,,,シオリ,0
1119,5013301053636,新規,0,2025-01-14,2025-01-14,株式会社ベイスガイア,,株式会社,東京都,豊島区,東池袋１丁目３４番５号いちご東池袋ビル６階,,13,116,1700013,,,,,,,2025-01-14,1,,,,,ベイスガイア,0
1120,5013301053644,新規,0,2025-01-14,2025-01-14,株式会社ＲＹＵ,,株式会社,東京都,豊島区,南大塚１丁目２３番２号,,13,116,1700005,,,,,,,2025-01-14,1,,,,,アールワイユー,0
1123,5020001160761,新規,0,2025-01-14,2025-01-14,株式会社アルバ,,株式会社,神奈川県,横浜市港北区,樽町２丁目１１番３号,,14,109,2220001,,,,,,,2025-01-14,1,,,,,アルバ,0
1124,5020001160778,新規,0,2025-01-14,2025-01-14,株式会社Ｙｕｕｓｈｉｎｎ,,株式会社,神奈川県,横浜市港南区,日野中央２丁目２０番２６号,,14,111,2340053,,,,,,,2025-01-14,1,,,,,ユーシン,0
1125,5020001160828,新規,0,2025-01-14,2025-01-14,株式会社えんぷれあ,,株式会社,神奈川県,川崎市多摩区,菅５丁目１１番１５号,,14,135,2140001,,,,,,,2025-01-14,1,,,,,エンプレア,0
1126,5020003027546,新規,0,2025-01-14,2025-01-14,ＳＴ合同会社,,合同会社,神奈川県,横浜市神奈川区,片倉５丁目１０番地４３号サンフラワーハイム２０２号,,14,102,2210865,,,,,,,2025-01-14,1,,,,,エスティ,0
1127,5020003027554,新規,0,2025-01-14,2025-01-14,合同会社ＬＳＢ,,合同会社,神奈川県,横浜市西区,北幸２丁目１０番４８号むつみビル３階,,14,103,2200004,,,,,,,2025-01-14,1,,,,,エルエスビー,0
1128,5020003027562,新規,0,2025-01-14,2025-01-14,合同会社ヨシキン,,合同会社,神奈川県,川崎市中原区,上新城２丁目６番１６号,,14,133,2110045,,,,,,,2025-01-14,1,,,,,ヨシキン,0
1147,5030001164324,新規,0,2025-01-14,2025-01-14,株式会社スワ電気,,株式会社,埼玉県,上尾市,小泉１丁目２１番地３,,11,219,3620063,,,,,,,2025-01-14,1,,,,,スワデンキ,0
1148,5030001164332,新規,0,2025-01-14,2025-01-14,Ｎｏｔｅｓ株式会社,,株式会社,埼玉県,北本市,中央２丁目９０番地ウチダアネックス２０００,,11,233,3640031,,,,,,,2025-01-14,1,,,,,ノーツ,0
1149,5030001164349,新規,0,2025-01-14,2025-01-14,株式会社瑞,,株式会社,埼玉県,北本市,石戸９丁目３２８番地,,11,233,3640024,,,,,,,2025-01-14,1,,,,,シルシ,0
1154,5030003025846,新規,0,2025-01-14,2025-01-14,合同会社航真,,合同会社,埼玉県,蕨市,中央７丁目２８番９号,,11,223,3350004,,,,,,,2025-01-14,1,,,,,コウシン,0
1155,5030003025870,新規,0,2025-01-14,2025-01-14,キュラシー合同会社,,合同会社,埼玉県,越谷市,大字大道８４１番地,,11,222,3430035,,,,,,,2025-01-14,1,,,,,キュラシー,0
1162,5040001136850,新規,0,2025-01-14,2025-01-14,ＮｅｘＴｒａｄｅ株式会社,,株式会社,千葉県,千葉市中央区,松波１丁目１８番１３号－１０１,,12,101,2600044,,,,,,,2025-01-14,1,,,,,ネクストレード,0
1163,5040001136867,新規,0,2025-01-14,2025-01-14,点淘株式会社,,株式会社,千葉県,船橋市,印内２丁目３番１５号ＴＯＰ西船橋第一２０５,,12,204,2730039,,,,,,,2025-01-14,1,,,,,テントウ,0
1164,5040001136958,新規,0,2025-01-14,2025-01-14,ＴｅａｍＣｏｎｎｅｃｔ株式会社,,株式会社,千葉県,千葉市稲毛区,稲毛２丁目１番１１号２０１号,,12,103,2630034,,,,,,,2025-01-14,1,,,,,チームコネクト,0
1165,5040003026554,新規,0,2025-01-14,2025-01-14,Ｔ．Ｋ．Ｃｏｍｐａｎｙ合同会社,,合同会社,千葉県,柏市,しいの木台５丁目４７番地２０,,12,217,2770945,,,,,,,2025-01-14,1,,,,,ティーケーカンパニー,0
1167,5050001055983,新規,0,2025-01-14,2025-01-14,株式会社ＧＲＡＶＯ,,株式会社,茨城県,つくば市,梅園２丁目１番地１５スプリングテックつくばビル４０１,,08,220,3050045,,,,,,,2025-01-14,1,,,,,,0
1168,5050001055991,新規,0,2025-01-14,2025-01-14,遠藤設備株式会社,,株式会社,茨城県,つくば市,北条５３６９番地,,08,220,3004231,,,,,,,2025-01-14,1,,,,,エンドウセツビ,0
1169,5050001056008,新規,0,2025-01-14,2025-01-14,株式会社グリット,,株式会社,茨城県,常陸大宮市,野口１６７５番地の６,,08,225,3114503,,,,,,,2025-01-14,1,,,,,グリット,0
1175,5060001037799,新規,0,2025-01-14,2025-01-14,株式会社縁樹,,株式会社,栃木県,宇都宮市,昭和３丁目２番１５号あさひレジデンス弐番館ＥＡＳＴ３０２,,09,201,3200032,,,,,,,2025-01-14,1,,,,,エンジュ,0
1176,5060001037824,新規,0,2025-01-14,2025-01-14,株式会社成,,株式会社,栃木県,さくら市,氏家２５３２番地７,,09,214,3291311,,,,,,,2025-01-14,1,,,,,ナリ,0
1180,5070003005695,新規,0,2025-01-14,2025-01-14,合同会社ファンタジー,,合同会社,群馬県,前橋市,千代田町４丁目１０番９号ＭＩ－２ビル２階,,10,201,3710022,,,,,,,2025-01-14,1,,,,,ファンタジー,0
1193,5090001019084,新規,0,2025-01-14,2025-01-14,株式会社ＨＥＲＯ’Ｓ,,株式会社,山梨県,甲府市,貢川本町１２番３号Ｓｏｒａ、Ｃ号,,19,201,4000048,,,,,,,2025-01-14,1,,,,,ヒーローズ,0
1195,5090003002716,新規,0,2025-01-14,2025-01-14,合同会社伊藤運送,,合同会社,山梨県,南巨摩郡身延町,手打沢１０４８番地５,,19,365,4093302,,,,,,,2025-01-14,1,,,,,イトウウンソウ,0
1197,5100001038198,新規,0,2025-01-14,2025-01-14,株式会社三桜,,株式会社,長野県,伊那市,荒井３７０８番地１,,20,209,3960025,,,,,,,2025-01-14,1,,,,,サンオウ,0
1200,5110003005633,新規,0,2025-01-14,2025-01-14,オールブルー合同会社,,合同会社,新潟県,長岡市,旭岡２丁目４番地クロスｏｎｅ旭岡１０７号室,,15,202,9400840,,,,,,,2025-01-14,1,,,,,オールブルー,0
1206,5120001271771,新規,0,2025-01-14,2025-01-14,株式会社リンクリンク,,株式会社,大阪府,枚方市,招提南町１丁目３１番１５号,,27,210,5731155,,,,,,,2025-01-14,1,,,,,リンクリンク,0
1207,5120001271796,新規,0,2025-01-14,2025-01-14,株式会社ＣＭＲ,,株式会社,大阪府,大阪市阿倍野区,天王寺町北３丁目１４番２１－４０２号,,27,119,5450001,,,,,,,2025-01-14,1,,,,,シーエムアール,0
1208,5120001271821,新規,0,2025-01-14,2025-01-14,華旭株式会社,,株式会社,大阪府,大阪市東住吉区,針中野３丁目６番２４－２０１号,,27,121,5460011,,,,,,,2025-01-14,1,,,,,カキョク,0
1209,5120001271838,新規,0,2025-01-14,2025-01-14,株式会社不動産スペース,,株式会社,大阪府,大阪市東淀川区,淡路３丁目１９番２９号,,27,114,5330032,,,,,,,2025-01-14,1,,,,,フドウサンスペース,0
1212,5120003028328,新規,0,2025-01-14,2025-01-14,合同会社上田,,合同会社,大阪府,大阪市福島区,福島５丁目１番９号かがやビル１階,,27,103,5530003,,,,,,,2025-01-14,1,,,,,ウエダ,0
1213,5120003028344,新規,0,2025-01-14,2025-01-14,ｓｈｉｎｗａ２２合同会社,,合同会社,大阪府,大阪市中央区,今橋１丁目７番３号トラスティルグループ内,,27,128,5410042,,,,,,,2025-01-14,1,,,,,シンワニニ,0
1217,5120101070891,新規,0,2025-01-14,2025-01-14,株式会社アイリング,,株式会社,大阪府,堺市中区,深阪３丁４番２７号,,27,142,5998253,,,,,,,2025-01-14,1,,,,,アイリング,0
1218,5120101070900,新規,0,2025-01-14,2025-01-14,株式会社ブライトホームズ,,株式会社,大阪府,藤井寺市,春日丘１丁目１番２８号ジェンコビル２０７,,27,226,5830026,,,,,,,2025-01-14,1,,,,,ブライトホームズ,0
1221,5120901050267,新規,0,2025-01-14,2025-01-14,株式会社Ｌａｐｉ,,株式会社,大阪府,豊中市,西泉丘２丁目２４０５番地の１７,,27,203,5610862,,,,,,,2025-01-14,1,,,,,ラピ,0
1222,5120901050275,新規,0,2025-01-14,2025-01-14,株式会社ひかる,,株式会社,大阪府,吹田市,寿町１丁目３－３,,27,205,5640036,,,,,,,2025-01-14,1,,,,,ヒカル,0
1223,5120903005509,新規,0,2025-01-14,2025-01-14,合同会社ＡＣＥ,,合同会社,大阪府,高槻市,紺屋町９番６号ＢＥＮＴＯＲＮＡＴＯ８０１号,,27,207,5690804,,,,,,,2025-01-14,1,,,,,エース,0
1226,5122001038804,新規,0,2025-01-14,2025-01-14,株式会社トリプルウィン,,株式会社,大阪府,東大阪市,大蓮東２丁目２１番２３号,,27,227,5770824,,,,,,,2025-01-14,1,,,,,トリプルウィン,0
1227,5130001078695,新規,0,2025-01-14,2025-01-14,株式会社御自愛,,株式会社,京都府,京都市中京区,室町通六角上る烏帽子屋町４９６番地,,26,104,6048165,,,,,,,2025-01-14,1,,,,,ゴジアイ,0
1228,5130003010136,新規,0,2025-01-14,2025-01-14,合同会社Ｓｈｉｎｉｎｇ　Ｃｏｍｐａｎｙ,,合同会社,京都府,長岡京市,東神足１丁目１－７,,26,209,6170832,,,,,,,2025-01-14,1,,,,,シャイニングカンパニー,0
1230,5140001136997,新規,0,2025-01-14,2025-01-14,株式会社Ａ　Ｈｏｍｅ,,株式会社,兵庫県,川西市,丸山台１丁目１番地の１２,,28,217,6660152,,,,,,,2025-01-14,1,,,,,エーホーム,0
1231,5140001137005,新規,0,2025-01-14,2025-01-14,株式会社ＲＮ,,株式会社,兵庫県,尼崎市,次屋４丁目４番３号,,28,202,6610965,,,,,,,2025-01-14,1,,,,,アールエヌ,0
1232,5140001137062,新規,0,2025-01-14,2025-01-14,株式会社キヌガサ,,株式会社,兵庫県,西脇市,郷瀬町６６８番地の８４,,28,213,6770014,,,,,,,2025-01-14,1,,,,,キヌガサ,0
1236,5140005027342,新規,0,2025-01-14,2025-01-14,医療法人社団伸優会,,その他の設立登記法人,兵庫県,西宮市,高須町１丁目１番５１号ムコダンモールＦ棟２,,28,204,6638141,,,,,,,2025-01-14,1,,,,,シンユウカイ,0
1237,5170003002154,新規,0,2025-01-14,2025-01-14,ａｓａｐ‐ｊａｐａｎ合同会社,,合同会社,和歌山県,田辺市,湊６番１７号ミライビル４０１号,,30,206,6460031,,,,,,,2025-01-14,1,,,,,エーエスエーピージャパン,0
1242,5180001164730,新規,0,2025-01-14,2025-01-14,株式会社日美,,株式会社,愛知県,名古屋市中村区,名駅２丁目４０‐４Ｒ・ＢＬＤＧ２０２,,23,105,4500002,,,,,,,2025-01-14,1,,,,,ヒミ,0
1243,5180001164838,新規,0,2025-01-14,2025-01-14,株式会社ライズフロンティア,,株式会社,愛知県,名古屋市天白区,中砂町５２８番地,,23,116,4680065,,,,,,,2025-01-14,1,,,,,ライズフロンティア,0
1253,5200001043320,新規,0,2025-01-14,2025-01-14,なるとふどうさん株式会社,,株式会社,岐阜県,関市,稲口４０１番地１７,,21,205,5013932,,,,,,,2025-01-14,1,,,,,ナルトフドウサン,0
1254,5200003006647,新規,0,2025-01-14,2025-01-14,合同会社ＲＯＯＭエアコンサービス,,合同会社,岐阜県,岐阜市,本荘西３丁目１番地,,21,201,5008361,,,,,,,2025-01-14,1,,,,,ルームエアコンサービス,0
1260,5220001026422,新規,0,2025-01-14,2025-01-14,株式会社ゆうひ,,株式会社,石川県,能美市,小長野町へ６１番地,,17,211,9231116,,,,,,,2025-01-14,1,,,,,ユウヒ,0
1261,5220001026430,新規,0,2025-01-14,2025-01-14,株式会社穂結,,株式会社,石川県,羽咋市,四柳町る２８番地,,17,207,9250073,,,,,,,2025-01-14,1,,,,,オムスビ,0
1266,5240001064370,新規,0,2025-01-14,2025-01-14,株式会社Ｅｅ,,株式会社,広島県,広島市中区,大手町２丁目１番６号,,34,101,7300051,,,,,,,2025-01-14,1,,,,,イー,0
1267,5250001020967,新規,0,2025-01-14,2025-01-14,星栄工業株式会社,,株式会社,山口県,下関市,楠乃５丁目９番４３号,,35,201,7510804,,,,,,,2025-01-14,1,,,,,セイエイコウギョウ,0
1268,5260001039809,新規,0,2025-01-14,2025-01-14,株式会社エム工務店,,株式会社,岡山県,津山市,福田１３１０番地８,,33,203,7080875,,,,,,,2025-01-14,1,,,,,エムコウムテン,0
1274,5290001108445,新規,0,2025-01-14,2025-01-14,株式会社クリアスペース,,株式会社,福岡県,久留米市,本町１８番地５アースコート久留米本町１４０１号,,40,203,8300044,,,,,,,2025-01-14,1,,,,,クリアスペース,0
1275,5290001108494,新規,0,2025-01-14,2025-01-14,株式会社たなか産業医事務所,,株式会社,福岡県,福岡市東区,香椎照葉６丁目２番５１,,40,131,8130017,,,,,,,2025-01-14,1,,,,,タナカサンギョウイジムショ,0
1276,5290001108602,新規,0,2025-01-14,2025-01-14,株式会社Ｖ．Ｉ．Ｅ．Ｗ,,株式会社,福岡県,春日市,春日７丁目９６番地,,40,218,8160814,,,,,,,2025-01-14,1,,,,,ビュー,0
1282,5290003016266,新規,0,2025-01-14,2025-01-14,合同会社ＸＥＮＯＮＥＸＴ,,合同会社,福岡県,福岡市南区,長住３丁目６２番３０６号,,40,134,8111362,,,,,,,2025-01-14,1,,,,,ジノネクスト,0
1283,5290005019614,新規,0,2025-01-14,2025-01-14,医療法人仁恕会,,その他の設立登記法人,福岡県,久留米市,善導寺町与田２８３番地５,,40,203,8390823,,,,,,,2025-01-14,1,,,,,ジンジョカイ,0
1285,5290801031193,新規,0,2025-01-14,2025-01-14,ノゾミ株式会社,,株式会社,福岡県,北九州市若松区,青葉台南２丁目１７－１２－２０１,,40,103,8080142,,,,,,,2025-01-14,1,,,,,ノゾミ,0
1287,5310001019400,新規,0,2025-01-14,2025-01-14,株式会社スクラムファーム,,株式会社,長崎県,佐世保市,里美町１４６９番地第４,,42,202,8570122,,,,,,,2025-01-14,1,,,,,スクラムファーム,0
1289,5330003010719,新規,0,2025-01-14,2025-01-14,合同会社シゲエンターテインメント,,合同会社,熊本県,熊本市中央区,迎町１丁目１番７号,,43,101,8600817,,,,,,,2025-01-14,1,,,,,シゲエンターテインメント,0
1295,5350001019363,新規,0,2025-01-14,2025-01-14,株式会社クレストモーター,,株式会社,宮崎県,宮崎市,阿波岐原町宝財２３１２番地２,,45,201,8800835,,,,,,,2025-01-14,1,,,,,クレストモーター,0
1297,5360001034650,新規,0,2025-01-14,2025-01-14,株式会社沖縄ＳＴＹＬＥ,,株式会社,沖縄県,島尻郡南風原町,字兼城１３５番地,,47,350,9011111,,,,,,,2025-01-14,1,,,,,オキナワスタイル,0
1301,5370001052115,新規,0,2025-01-14,2025-01-14,株式会社ＤＡＩＹＡ,,株式会社,宮城県,白石市,福岡長袋字小倉山１５８番地,,04,206,9890232,,,,,,,2025-01-14,1,,,,,ダイヤ,0
1307,5380001035028,新規,0,2025-01-14,2025-01-14,株式会社タウクス,,株式会社,福島県,郡山市,片平町字大山南１番地の２６,,07,203,9630211,,,,,,,2025-01-14,1,,,,,タウクス,0
1308,5390001017850,新規,0,2025-01-14,2025-01-14,株式会社ライズ建硝,,株式会社,山形県,西置賜郡白鷹町,大字荒砥乙３９７番４,,06,402,9920832,,,,,,,2025-01-14,1,,,,,ライズケンショウ,0
1311,5400001016909,新規,0,2025-01-14,2025-01-14,株式会社堀合自動車,,株式会社,岩手県,花巻市,高田２２番地３９号,,03,205,0250083,,,,,,,2025-01-14,1,,,,,ホリアイジドウシャ,0
1318,5430001093409,新規,0,2025-01-14,2025-01-14,Ｍｔｅｃｈ株式会社,,株式会社,北海道,札幌市白石区,北郷四条２丁目１４－２５,,01,104,0030834,,,,,,,2025-01-14,1,,,,,エムテック,0
1320,5480003002222,新規,0,2025-01-14,2025-01-14,合同会社ガレージサンタ,,合同会社,徳島県,三好郡東みよし町,昼間２３１４番地２,,36,489,7712501,,,,,,,2025-01-14,1,,,,,ガレージサンタ,0
1325,5700150128664,新規,0,2025-01-14,2025-01-14,Ｃｈｅｎｇｄｕ　ＭｉａｏＫｕｏ　Ｔｒａｄｉｎｇ　Ｃｏ．，Ｌｔｄ．,,外国会社等,,,,,,,,Ｎｏ．１７０５，Ｆｌｏｏｒ　１７，Ｂｕｉｌｄｉｎｇ　７，Ｎｏ．２，Ｊｉｎｇｃｕｉ　Ｗｅｓｔ　Ｒｏａｄ，Ｃｈｅｎｇｈｕａ　Ｄｉｓｔｒｉｃｔ，Ｃｈｅｎｇｄｕ　Ｃｉｔｙ，Ｓｉｃｈｕａｎ　Ｐｒｏｖｉｎｃｅ,,,,,,2025-01-14,1,,,,,チョンドウミャオクオマオイーヨウシエンゴンスー,0
1326,5700150128672,新規,0,2025-01-14,2025-01-14,Ｗｉｌｌｉｓ　Ｗｏｒｋｓ　Ｃｏ．，Ｌｔｄ．,,外国会社等,,,,,,,,台湾新竹市東区豊功里建美路５号,,,,,,2025-01-14,1,,,,,ウエーヴオコクサイカブシキガイシヤ,0
1338,6010003045936,新規,0,2025-01-14,2025-01-14,Ｊｉｎｇｕｍａｅ１２３合同会社,,合同会社,東京都,千代田区,霞が関３丁目２番５号,,13,101,1000013,,,,,,,2025-01-14,1,,,,,ジングウマエワンツースリー,0
1339,6010003045960,新規,0,2025-01-14,2025-01-14,合同会社ＧＡＲＮＥＴ０１,,合同会社,東京都,千代田区,霞が関３丁目２番５号,,13,101,1000013,,,,,,,2025-01-14,1,,,,,ガーネットゼロワン,0
1340,6010003045993,新規,0,2025-01-14,2025-01-14,ＡＭＰ１３合同会社,,合同会社,東京都,千代田区,内神田１丁目３番７号４０１あすな会計事務所内,,13,101,1010047,,,,,,,2025-01-14,1,,,,,アンプサーティーン,0
1341,6010003046018,新規,0,2025-01-14,2025-01-14,アルケミストジャパン合同会社,,合同会社,東京都,千代田区,大手町１丁目９番２号大手町フィナンシャルシティグランキューブ３階,,13,101,1000004,,,,,,,2025-01-14,1,,,,,アルケミストジャパン,0
1342,6010003046026,新規,0,2025-01-14,2025-01-14,合同会社斑尾ホールディングス,,合同会社,東京都,中央区,銀座１丁目６番１１号土志田ビルディング３Ｆ,,13,102,1040061,,,,,,,2025-01-14,1,,,,,マダラオホールディングス,0
1343,6010101016467,新規,0,2025-01-14,2025-01-14,株式会社ＭＪ　Ｃｏｍｐａｎｙ,,株式会社,東京都,八王子市,高倉町１２番地８,,13,201,1920033,,,,,,,2025-01-14,1,,,,,エムジェィカンパニー,0
1344,6010102001559,新規,0,2025-01-14,2025-01-14,有限会社岡村元次郎商店,,有限会社,東京都,八王子市,泉町１２６３番地,,13,201,1930814,,,,,,,2025-01-14,1,,,,,オカムラモトジロウショウテン,0
1355,6010401187446,新規,0,2025-01-14,2025-01-14,株式会社スペースター,,株式会社,東京都,港区,南青山３丁目１番３６号青山丸竹ビル６Ｆ,,13,103,1070062,,,,,,,2025-01-14,1,,,,,スペースター,0
1356,6010401187586,新規,0,2025-01-14,2025-01-14,Ｂｒｅａｔｈｉｎｇｗｈａｌｅ　Ｔｏｋｙｏ株式会社,,株式会社,東京都,港区,西麻布４丁目２１番２号,,13,103,1060031,,,,,,,2025-01-14,1,,,,,ブリージングホエールトウキョウ,0
1357,6010403034150,新規,0,2025-01-14,2025-01-14,ＰＱＳｈｉｅｌｄ合同会社,,合同会社,東京都,港区,赤坂２丁目１４番５号Ｄａｉｗａ赤坂ビル４階,,13,103,1070052,,,,,,,2025-01-14,1,,,,,ピーキューシールド,0
1358,6010403034159,新規,0,2025-01-14,2025-01-14,Ｃｏｌｌａｂｔｅｃｈ　Ｊａｐａｎ合同会社,,合同会社,東京都,港区,元麻布３丁目１番６号,,13,103,1060046,,,,,,,2025-01-14,1,,,,,コラボテックジャパン,0
1361,6010501053465,新規,0,2025-01-14,2025-01-14,Ｃｏｌｏｒｆｕｌ　Ｂｕｔｔｅｒｆｌｙ株式会社,,株式会社,東京都,台東区,台東２丁目２７番３号ＮＳＫビル１０Ｆ,,13,106,1100016,,,,,,,2025-01-14,1,,,,,カラフルバタフライ,0
1366,6010601066581,新規,0,2025-01-14,2025-01-14,株式会社ＱＲＥＷ,,株式会社,東京都,江東区,平野２丁目１１－６,,13,108,1350023,,,,,,,2025-01-14,1,,,,,クルー,0
1374,6010901056621,新規,0,2025-01-14,2025-01-14,Ｆ企画株式会社,,株式会社,東京都,世田谷区,世田谷４丁目４番２５－１０２号,,13,112,1540017,,,,,,,2025-01-14,1,,,,,エフキカク,0
1375,6010903009610,新規,0,2025-01-14,2025-01-14,Ｏｎｅ‐ｓｔｏｐ　Ｉｎｃ．合同会社,,合同会社,東京都,世田谷区,経堂５丁目３８番２９－１０６号,,13,112,1560052,,,,,,,2025-01-14,1,,,,,ワンストップインク,0
1381,6011001167160,新規,0,2025-01-14,2025-01-14,アクセリソル株式会社,,株式会社,東京都,渋谷区,神南１丁目１１－４ＦＰＧリンクス神南５階,,13,113,1500041,,,,,,,2025-01-14,1,,,,,アクセリソル,0
1386,6011103015408,新規,0,2025-01-14,2025-01-14,合同会社ジェイ・ジー・イー,,合同会社,東京都,新宿区,下宮比町１番４号,,13,104,1620822,,,,,,,2025-01-14,1,,,,,ジェイジーイー,0
1390,6011603004562,新規,0,2025-01-14,2025-01-14,合同会社ヤマト,,合同会社,東京都,練馬区,小竹町１丁目７番７号,,13,120,1760004,,,,,,,2025-01-14,1,,,,,ヤマト,0
1393,6011703004082,新規,0,2025-01-14,2025-01-14,合同会社Ｔ．Ｋ商事,,合同会社,東京都,江戸川区,南小岩８丁目１７番１２号トランシエル小岩３０１,,13,123,1330056,,,,,,,2025-01-14,1,,,,,ティーケーショウジ,0
1394,6011705001870,新規,0,2025-01-14,2025-01-14,農事組合法人Ｍ１,,その他の設立登記法人,東京都,江戸川区,北葛西２丁目１６番６号サニーコート北葛西ＩＩＩ１０７,00137621,13,123,1340081,,,,,,,2025-01-14,1,,,,,エムワン,0
1398,6011801045417,新規,0,2025-01-14,2025-01-14,株式会社コンテ,,株式会社,東京都,足立区,佐野２丁目２０番１１号,,13,121,1210053,,,,,,,2025-01-14,1,,,,,コンテ,0
1404,6012801023684,新規,0,2025-01-14,2025-01-14,株式会社アスカル,,株式会社,東京都,立川市,曙町２丁目２３番１号,00137614,13,202,1900012,,,,,,,2025-01-14,1,,,,,アスカル,0
1408,6013303007473,新規,0,2025-01-14,2025-01-14,合同会社スターメモリー,,合同会社,東京都,豊島区,東池袋４丁目２１番１号ｏｗｌｔｏｗｅｒ２８０７,,13,116,1700013,,,,,,,2025-01-14,1,,,,,スターメモリー,0
1417,6020001160785,新規,0,2025-01-14,2025-01-14,株式会社ウィーラック,,株式会社,神奈川県,横浜市港北区,菊名３丁目１９番２９－９０５号,,14,109,2220011,,,,,,,2025-01-14,1,,,,,ウィーラック,0
1418,6020001160876,新規,0,2025-01-14,2025-01-14,株式会社ｅｍＤＡＳＨＴＯＹ,,株式会社,神奈川県,横浜市西区,浅間町１丁目４番３号ウィザードビル４０２,,14,103,2200072,,,,,,,2025-01-14,1,,,,,エムダッシュトイ,0
1420,6020003027578,新規,0,2025-01-14,2025-01-14,合同会社Ｔｈｅ　Ｃｈａｌｌｅｎｇｅｄ,,合同会社,神奈川県,横浜市青葉区,新石川１丁目１６番地７シダークレストあざみ野Ｂ－３１２,,14,117,2250003,,,,,,,2025-01-14,1,,,,,ザチャレンジド,0
1429,6030001164257,新規,0,2025-01-14,2025-01-14,あんしんサポート株式会社,,株式会社,埼玉県,川口市,西川口６丁目４－６第二荻島ビル２階２２４,,11,203,3320021,,,,,,,2025-01-14,1,,,,,アンシンサポート,0
1430,6030001164315,新規,0,2025-01-14,2025-01-14,株式会社幸建工業,,株式会社,埼玉県,川口市,大字安行原６８５番地の２クレストール２０１号,,11,203,3340057,,,,,,,2025-01-14,1,,,,,コウケンコウギョウ,0
1431,6030001164323,新規,0,2025-01-14,2025-01-14,株式会社Ｌｕｖａ,,株式会社,埼玉県,さいたま市北区,東大成町２丁目２７７番地９ＡＤＯビル１Ｆ,,11,102,3310814,,,,,,,2025-01-14,1,,,,,ルヴァ,0
1432,6030001164331,新規,0,2025-01-14,2025-01-14,株式会社Ｓｈｉｒｏ．,,株式会社,埼玉県,桶川市,西２丁目１０番２３号,,11,231,3630017,,,,,,,2025-01-14,1,,,,,シロ,0
1433,6030001164356,新規,0,2025-01-14,2025-01-14,株式会社Ｔ＆Ｃ,,株式会社,埼玉県,北葛飾郡杉戸町,内田４丁目３番１１号,,11,464,3450035,,,,,,,2025-01-14,1,,,,,ティーアンドシー,0
1434,6030001164364,新規,0,2025-01-14,2025-01-14,ケアトランスポート株式会社,,株式会社,埼玉県,越谷市,東越谷９丁目７番５号越谷司法ビル１階,,11,222,3430023,,,,,,,2025-01-14,1,,,,,ケアトランスポート,0
1435,6030001164372,新規,0,2025-01-14,2025-01-14,日中通商株式会社,,株式会社,埼玉県,北葛飾郡杉戸町,大字下高野３１３－７１,,11,464,3450043,,,,,,,2025-01-14,1,,,,,ニッチュウツウショウ,0
1444,6030003025837,新規,0,2025-01-14,2025-01-14,ＦｏｒｔｕｎｅＣｏｒｅ合同会社,,合同会社,埼玉県,さいたま市南区,沼影１丁目１０番１－１４１０号,,11,108,3360027,,,,,,,2025-01-14,1,,,,,フォーチュンコア,0
1446,6040001136924,新規,0,2025-01-14,2025-01-14,株式会社エスマークスカンパニー,,株式会社,千葉県,市川市,南八幡２丁目８番５－３０３号,,12,203,2720023,,,,,,,2025-01-14,1,,,,,エスマークスカンパニー,0
1447,6040001136949,新規,0,2025-01-14,2025-01-14,ＭＩＮＡＭＩＢＯＳＯ‐ＢＡＳＥ株式会社,,株式会社,千葉県,南房総市,久枝３０７番地１１,,12,234,2992216,,,,,,,2025-01-14,1,,,,,ミナミボウソウベース,0
1448,6040001136965,新規,0,2025-01-14,2025-01-14,株式会社ブレイクワン,,株式会社,千葉県,柏市,松葉町５丁目１３－１２,,12,217,2770827,,,,,,,2025-01-14,1,,,,,ブレイクワン,0
1453,6040003026561,新規,0,2025-01-14,2025-01-14,Ｂｉｌｉ　Ｂｏｕｔｉｑｕｅ合同会社,,合同会社,千葉県,八千代市,上高野１５２９番地４,,12,221,2760022,,,,,,,2025-01-14,1,,,,,ビリブティック,0
1454,6040003026594,新規,0,2025-01-14,2025-01-14,合同会社スタベル,,合同会社,千葉県,八千代市,勝田台北３丁目２４番２３号アーバン村上２０１号,,12,221,2760020,,,,,,,2025-01-14,1,,,,,スタベル,0
1455,6050001055974,新規,0,2025-01-14,2025-01-14,株式会社おしどり不動産,,株式会社,茨城県,坂東市,沓掛４２３７番地１,,08,228,3060515,,,,,,,2025-01-14,1,,,,,オシドリフドウサン,0
1456,6050001055982,新規,0,2025-01-14,2025-01-14,株式会社東日本管工社,,株式会社,茨城県,つくば市,柴崎６８番地９６ベルハウス１０１号,,08,220,3050004,,,,,,,2025-01-14,1,,,,,ヒガシニホンカンコウシャ,0
1457,6050001056007,新規,0,2025-01-14,2025-01-14,株式会社ＨＦ,,株式会社,茨城県,日立市,大みか町２丁目２５番４号宝ビル,,08,202,3191221,,,,,,,2025-01-14,1,,,,,エイチエフ,0
1458,6050005013540,新規,0,2025-01-14,2025-01-14,社会保険労務士法人坂入事務所,,その他の設立登記法人,茨城県,取手市,宮和田４８９番地,,08,217,3001514,,,,,,,2025-01-14,1,,,,,サカイリジムショ,0
1460,6060001037815,新規,0,2025-01-14,2025-01-14,株式会社細野メディカル,,株式会社,栃木県,小山市,大字羽川４７８番地１,,09,208,3230012,,,,,,,2025-01-14,1,,,,,ホソノメディカル,0
1470,6090001019083,新規,0,2025-01-14,2025-01-14,株式会社Ａｄｖａｎｃｅ　Ｃｏｎｎｅｃｔ,,株式会社,山梨県,都留市,下谷４丁目４番１０号,,19,204,4020051,,,,,,,2025-01-14,1,,,,,アドバンスコネクト,0
1471,6090001019091,新規,0,2025-01-14,2025-01-14,株式会社ＬＵＳＨ　ＧＲＥＥＮ,,株式会社,山梨県,南都留郡富士河口湖町,精進３０１番地,,19,430,4010336,,,,,,,2025-01-14,1,,,,,ラッシュグリーン,0
1473,6090003002715,新規,0,2025-01-14,2025-01-14,合同会社Ｎｅｌｋ,,合同会社,山梨県,甲州市,塩山下於曽１０４１番地２,,19,213,4040043,,,,,,,2025-01-14,1,,,,,ネルク,0
1475,6100001038197,新規,0,2025-01-14,2025-01-14,株式会社ＤＩＯ,,株式会社,長野県,小諸市,大字滋野甲７２８－１６,,20,208,3840809,,,,,,,2025-01-14,1,,,,,ディオ,0
1480,6110003005632,新規,0,2025-01-14,2025-01-14,Ｃｉｎｔｅｒ　Ｃａｒｅｅｒ　Ｊａｐａｎ合同会社,,合同会社,新潟県,上越市,大和２丁目３番５４号,,15,222,9430861,,,,,,,2025-01-14,1,,,,,シンターキャリアジャパン,0
1481,6110005017163,新規,0,2025-01-14,2025-01-14,一般社団法人ふぇりーちぇ,,その他の設立登記法人,新潟県,新発田市,五十公野４６８５番地７,,15,206,9570021,,,,,,,2025-01-14,1,,,,,フェリーチェ,0
1482,6110005017171,新規,0,2025-01-14,2025-01-14,新潟建設業ネットワーク協同組合,,その他の設立登記法人,新潟県,新発田市,米倉１２８７番地,,15,206,9570036,,,,,,,2025-01-14,1,,,,,ニイガタケンセツギョウネットワーク,0
1488,6120001271779,新規,0,2025-01-14,2025-01-14,株式会社ＡＣＴ,,株式会社,大阪府,寝屋川市,太間町６番２３号,,27,215,5720078,,,,,,,2025-01-14,1,,,,,アクト,0
1489,6120001271787,新規,0,2025-01-14,2025-01-14,株式会社ＬＩＢＳＯＬ,,株式会社,大阪府,大阪市北区,梅田１丁目２番２号大阪駅前第２ビル１２－１２,,27,127,5300001,,,,,,,2025-01-14,1,,,,,リブソル,0
1490,6120001271829,新規,0,2025-01-14,2025-01-14,逸帆株式会社,,株式会社,大阪府,大阪市住之江区,粉浜１丁目３番２５－３０２号,,27,125,5590001,,,,,,,2025-01-14,1,,,,,イツホ,0
1491,6120001271878,新規,0,2025-01-14,2025-01-14,三和医学マネジメント株式会社,,株式会社,大阪府,大阪市淀川区,西中島５丁目７番１７－７０１号,,27,123,5320011,,,,,,,2025-01-14,1,,,,,ミツワイガクマネジメント,0
1496,6120003028343,新規,0,2025-01-14,2025-01-14,ｓｈｉｎｗａ２１合同会社,,合同会社,大阪府,大阪市中央区,今橋１丁目７番３号トラスティルグループ内,,27,128,5410042,,,,,,,2025-01-14,1,,,,,シンワニイチ,0
1497,6120101070841,新規,0,2025-01-14,2025-01-14,株式会社エステック,,株式会社,大阪府,和泉市,池田下町１７７９番地の３（３－６０７）,,27,219,5940032,,,,,,,2025-01-14,1,,,,,エステック,0
1498,6120101070874,新規,0,2025-01-14,2025-01-14,株式会社ライズ,,株式会社,大阪府,泉大津市,板原町１丁目５番４号,,27,206,5950033,,,,,,,2025-01-14,1,,,,,ライズ,0
1499,6120101070882,新規,0,2025-01-14,2025-01-14,株式会社オーバーフィフティー,,株式会社,大阪府,堺市西区,上野芝町２丁５番１－１２１１号,,27,144,5938301,,,,,,,2025-01-14,1,,,,,オーバーフィフティー,0
1505,6120901050266,新規,0,2025-01-14,2025-01-14,株式会社Ｒｉｒｕｈａ．ｗｏｒｋｓ,,株式会社,大阪府,豊中市,刀根山２丁目８番５の１号,,27,203,5600045,,,,,,,2025-01-14,1,,,,,リルハワークス,0
1506,6120901050290,新規,0,2025-01-14,2025-01-14,株式会社ＦＭＳ,,株式会社,大阪府,豊中市,少路２丁目３番１－４１５号,,27,203,5600004,,,,,,,2025-01-14,1,,,,,エフエムエス,0
1508,6120903005508,新規,0,2025-01-14,2025-01-14,合同会社クオベックス,,合同会社,大阪府,茨木市,耳原３丁目９番８号の５,,27,211,5670006,,,,,,,2025-01-14,1,,,,,クオベックス,0
1510,6122003003078,新規,0,2025-01-14,2025-01-14,合同会社鞍明商事,,合同会社,大阪府,八尾市,龍華町１丁目４番２－３９１５号,,27,212,5810069,,,,,,,2025-01-14,1,,,,,アンメイショウジ,0
1514,6130001078752,新規,0,2025-01-14,2025-01-14,株式会社ドラゴンエナジー,,株式会社,京都府,京都市下京区,玉津島町２９４番地,,26,106,6008427,,,,,,,2025-01-14,1,,,,,ドラゴンエナジー,0
1515,6130001078760,新規,0,2025-01-14,2025-01-14,株式会社リンクベース,,株式会社,京都府,京都市中京区,両替町通御池下る龍池町４２４番地１キョウトホーム御池ビル３階,,26,104,6048176,,,,,,,2025-01-14,1,,,,,リンクベース,0
1517,6130003010135,新規,0,2025-01-14,2025-01-14,合同会社イエッサ,,合同会社,京都府,京都市中京区,西ノ京南両町３１番地グランハイツ西ノ京１０５,,26,104,6048493,,,,,,,2025-01-14,1,,,,,イエッサ,0
1522,6140001136971,新規,0,2025-01-14,2025-01-14,株式会社ｄｅｃｅｍｂｅｒ,,株式会社,兵庫県,神戸市垂水区,学が丘４丁目４－２１,,28,108,6550004,,,,,,,2025-01-14,1,,,,,ディッセンバー,0
1523,6140001137004,新規,0,2025-01-14,2025-01-14,株式会社雄大,,株式会社,兵庫県,丹波市,春日町棚原２１００番地,,28,223,6694274,,,,,,,2025-01-14,1,,,,,ユウダイ,0
1529,6140003021494,新規,0,2025-01-14,2025-01-14,合同会社エンライト,,合同会社,兵庫県,神戸市灘区,高徳町６丁目１番４－１号,,28,102,6570025,,,,,,,2025-01-14,1,,,,,エンライト,0
1530,6150001027815,新規,0,2025-01-14,2025-01-14,株式会社Ｓｕｉｓｅｉ,,株式会社,奈良県,生駒市,谷田町１６１５,,29,209,6300251,,,,,,,2025-01-14,1,,,,,スイセイ,0
1547,6180005020879,新規,0,2025-01-14,2025-01-14,医療法人望楓会,,その他の設立登記法人,愛知県,名古屋市中区,錦３丁目１７番１１号ＴＨＥＭＩＤＷＥＳＴＨＯＵＳＥ５階,,23,106,4600003,,,,,,,2025-01-14,1,,,,,ミハヤカイ,0
1556,6200003006646,新規,0,2025-01-14,2025-01-14,合同会社ブラックボックス,,合同会社,岐阜県,大垣市,中川町１丁目９０番地中村第１３ビル１０７,,21,202,5030017,,,,,,,2025-01-14,1,,,,,ブラックボックス,0
1567,6250001020966,新規,0,2025-01-14,2025-01-14,株式会社Ｂ．Ｗ．Ｐ,,株式会社,山口県,周南市,大字須々万本郷字長迫２８５０番地２,,35,215,7450122,,,,,,,2025-01-14,1,,,,,ビーダブリューピー,0
1572,6260005011440,新規,0,2025-01-14,2025-01-14,一般社団法人木質資源安定供給協議会,,その他の設立登記法人,岡山県,真庭市,三田１３１番地,,33,214,7170022,,,,,,,2025-01-14,1,,,,,モクシツシゲンアンテイキョウキュウキョウギカイ,0
1573,6270001009124,新規,0,2025-01-14,2025-01-14,株式会社アシード,,株式会社,鳥取県,倉吉市,福庭町１丁目３６番地,,31,203,6820018,,,,,,,2025-01-14,1,,,,,アシード,0
1578,6290003016281,新規,0,2025-01-14,2025-01-14,川越龍治合同会社,,合同会社,福岡県,朝倉市,牛木２１７－１,,40,228,8380067,,,,,,,2025-01-14,1,,,,,カワゴエリュウジ,0
1592,6330003010726,新規,0,2025-01-14,2025-01-14,スマイル合同会社,,合同会社,熊本県,熊本市東区,新外１丁目４番２９号,,43,102,8620921,,,,,,,2025-01-14,1,,,,,スマイル,0
1598,6340003004710,新規,0,2025-01-14,2025-01-14,合同会社ふるさと美建,,合同会社,鹿児島県,霧島市,国分福島１丁目１５番８号,,46,218,8994322,,,,,,,2025-01-14,1,,,,,フルサトビケン,0
1600,6370001052072,新規,0,2025-01-14,2025-01-14,株式会社ＫＡＧＥＮ,,株式会社,宮城県,仙台市宮城野区,宮城野１丁目１１番２２号グリーンハイツ宮城野１０１,,04,102,9830045,,,,,,,2025-01-14,1,,,,,カゲン,0
1603,6410001014027,新規,0,2025-01-14,2025-01-14,株式会社織しげ,,株式会社,秋田県,大館市,字大田面３４６番地８,,05,204,0170041,,,,,,,2025-01-14,1,,,,,オリシゲ,0
1609,6450003002587,新規,0,2025-01-14,2025-01-14,合同会社ジンポーフーズ,,合同会社,北海道,礼文郡礼文町,大字香深村字フンベネフ７３番地,,01,517,0971201,,,,,,,2025-01-14,1,,,,,ジンポーフーズ,0
1610,6460003001027,新規,0,2025-01-14,2025-01-14,合同会社ＣＬＩＭＢＥＲＳ,,合同会社,北海道,釧路市,白樺台１丁目７番７号,,01,206,0850804,,,,,,,2025-01-14,1,,,,,クライマーズ,0
1613,6490003001965,新規,0,2025-01-14,2025-01-14,合同会社ＡＴ,,合同会社,高知県,高知市,鴨部３丁目１番４７－６０５号,,39,201,7808052,,,,,,,2025-01-14,1,,,,,エーティー,0
1614,6490005006970,新規,0,2025-01-14,2025-01-14,弁護士法人藤宗法律事務所,,その他の設立登記法人,高知県,高知市,はりまや町１丁目５番２８号はりまや橋ビル４階,,39,201,7800822,,,,,,,2025-01-14,1,,,,,フジソウホウリツジムショ,0
1615,6700150128671,新規,0,2025-01-14,2025-01-14,ＡＵＲＯＮＡ　ＩＮＤＵＳＴＲＩＥＳ，ＩＮＣ．,,外国会社等,,,,,,,,台湾台南市佳里区海澄里莱＿寮１２－２７号,00137633,,,,,2025-01-14,1,,,,,キヨゾウキギヨウコブンユウゲンコウシ,0
1616,6700150128705,新規,0,2025-01-14,2025-01-14,ＣｏｍｐａｓｓＣｏｎｔｒａｃｔＳｅｒｖｉｃｅｓ（ＵＫ）Ｌｉｍｉｔｅｄ,,外国会社等,,,,,,,,Ｐａｒｋｌａｎｄｓ　Ｃｏｕｒｔ，２４　Ｐａｒｋｌａｎｄｓ，Ｂｉｒｍｉｎｇｈａｍ　Ｇｒｅａｔ　Ｐａｒｋ，Ｒｕｂｅｒｙ，Ｂｉｒｍｉｎｇｈａｍ，Ｗｅｓｔ　Ｍｉｄｌａｎｄｓ，Ｂ４５　９ＰＺ,,,,,,2025-01-14,1,,,,,コンパスコントラクトサービスユーケーリミテツド,0
1628,7010001251205,新規,0,2025-01-14,2025-01-14,株式会社リーププロジェクト,,株式会社,東京都,中央区,日本橋室町１丁目１１番１２号日本橋水野ビル７階,,13,102,1030022,,,,,,,2025-01-14,1,,,,,リーププロジェクト,0
1629,7010001251238,新規,0,2025-01-14,2025-01-14,株式会社雉,,株式会社,東京都,中央区,築地４丁目１２番２号ライオンズマンション東銀座５０５,,13,102,1040045,,,,,,,2025-01-14,1,,,,,キジ,0
1630,7010001251304,新規,0,2025-01-14,2025-01-14,株式会社プラベスト・ジャパン,,株式会社,東京都,千代田区,麹町２丁目１０番地３エキスパートオフィス麹町,,13,101,1020083,,,,,,,2025-01-14,1,,,,,プラベストジャパン,0
1631,7010001251312,新規,0,2025-01-14,2025-01-14,佃デザイン株式会社,,株式会社,東京都,中央区,佃２丁目７－８,,13,102,1040051,,,,,,,2025-01-14,1,,,,,ツクダデザイン,0
1632,7010001251329,新規,0,2025-01-14,2025-01-14,株式会社正林アドバイザリ,,株式会社,東京都,千代田区,平河町２丁目１６番２－２２０７号,,13,101,1020093,,,,,,,2025-01-14,1,,,,,ショウバヤシアドバイザリ,0
1633,7010001251337,新規,0,2025-01-14,2025-01-14,株式会社ＧＯＯＤ　ＥＮＯＵＧＨ,,株式会社,東京都,千代田区,平河町１丁目７番３号,,13,101,1020093,,,,,,,2025-01-14,1,,,,,グッドイナフ,0
1634,7010001251345,新規,0,2025-01-14,2025-01-14,Ｆｌｏｃｋ株式会社,,株式会社,東京都,千代田区,四番町２番地１クレール東郷坂１ＦＭ－４４,,13,101,1020081,,,,,,,2025-01-14,1,,,,,フロック,0
1635,7010001251378,新規,0,2025-01-14,2025-01-14,株式会社Ｐａｒｔｙ,,株式会社,東京都,千代田区,富士見１丁目３番１１号富士見デュープレックスＢ′ｓ４階,,13,101,1020071,,,,,,,2025-01-14,1,,,,,パーティ,0
1638,7010003045992,新規,0,2025-01-14,2025-01-14,ＡＭＰ１２合同会社,,合同会社,東京都,千代田区,内神田１丁目３番７号４０１あすな会計事務所内,,13,101,1010047,,,,,,,2025-01-14,1,,,,,アンプトゥエルブ,0
1639,7010003046017,新規,0,2025-01-14,2025-01-14,合同会社リンケージ,,合同会社,東京都,千代田区,四番町２番地１,,13,101,1020081,,,,,,,2025-01-14,1,,,,,リンケージ,0
1640,7010003046041,新規,0,2025-01-14,2025-01-14,合同会社ＯＣＰＦ４号,,合同会社,東京都,中央区,日本橋１丁目４番１号,,13,102,1030027,,,,,,,2025-01-14,1,,,,,オーシーピーエフヨンゴウ,0
1654,7010401187437,新規,0,2025-01-14,2025-01-14,株式会社Ａｍａｚｉｎｇ,,株式会社,東京都,港区,南青山３丁目１番３６号青山丸竹ビル６Ｆ,,13,103,1070062,,,,,,,2025-01-14,1,,,,,アメイジング,0
1658,7010601066580,新規,0,2025-01-14,2025-01-14,株式会社ホワイト,,株式会社,東京都,墨田区,堤通２丁目６番７－６０７号,,13,107,1310034,,,,,,,2025-01-14,1,,,,,ホワイト,0
1659,7010701047084,新規,0,2025-01-14,2025-01-14,株式会社タカシテクノロジーズ,,株式会社,東京都,品川区,旗の台６丁目２５番５号,,13,109,1420064,,,,,,,2025-01-14,1,,,,,タカシテクノロジーズ,0
1668,7010901056620,新規,0,2025-01-14,2025-01-14,株式会社Ｍｉａ,,株式会社,東京都,世田谷区,経堂１丁目２２番２０号,,13,112,1560052,,,,,,,2025-01-14,1,,,,,ミア,0
1672,7011001167085,新規,0,2025-01-14,2025-01-14,ミエルストーリー株式会社,,株式会社,東京都,渋谷区,渋谷２丁目１９番１５号宮益坂ビルディング６０９,,13,113,1500002,,,,,,,2025-01-14,1,,,,,ミエルストーリー,0
1673,7011001167151,新規,0,2025-01-14,2025-01-14,ｅｃｘ株式会社,,株式会社,東京都,渋谷区,神宮前６丁目１９－２０,,13,113,1500001,,,,,,,2025-01-14,1,,,,,イーシーエックス,0
1674,7011003020770,新規,0,2025-01-14,2025-01-14,Ｋｅｙｓ合同会社,,合同会社,東京都,渋谷区,鉢山町９番２１号細野ビル１０２,,13,113,1500035,,,,,,,2025-01-14,1,,,,,キーズ,0
1675,7011003020787,新規,0,2025-01-14,2025-01-14,合同会社Ａｐｏｒｉａ,,合同会社,東京都,渋谷区,渋谷２丁目１９－１５宮益坂ビルディング６０９,,13,113,1500002,,,,,,,2025-01-14,1,,,,,アポリア,0
1677,7011103015407,新規,0,2025-01-14,2025-01-14,合同会社ジェイ・ジー・ディー,,合同会社,東京都,新宿区,下宮比町１番４号,,13,104,1620822,,,,,,,2025-01-14,1,,,,,ジェイジーディー,0
1678,7011105011296,新規,0,2025-01-14,2025-01-14,一般社団法人コア・セブン,,その他の設立登記法人,東京都,新宿区,西新宿８丁目５番１号,,13,104,1600023,,,,,,,2025-01-14,1,,,,,コアセブン,0
1679,7011201026041,新規,0,2025-01-14,2025-01-14,株式会社エースライン,,株式会社,東京都,中野区,若宮２丁目７番７号,,13,114,1650033,,,,,,,2025-01-14,1,,,,,エースライン,0
1682,7011501031575,新規,0,2025-01-14,2025-01-14,株式会社アスカヤマート,,株式会社,東京都,北区,滝野川１丁目１５番１２号,,13,117,1140023,,,,,,,2025-01-14,1,,,,,アスカヤマート,0
1685,7011601028348,新規,0,2025-01-14,2025-01-14,株式会社ＩＣＥＷＡＶＥ,,株式会社,東京都,練馬区,西大泉４丁目１６番９号,,13,120,1780065,,,,,,,2025-01-14,1,,,,,,0
1687,7011703004081,新規,0,2025-01-14,2025-01-14,合同会社ＳＵＵ,,合同会社,東京都,江戸川区,松江５丁目１１番１６号,,13,123,1320025,,,,,,,2025-01-14,1,,,,,スー,0
1688,7011801045408,新規,0,2025-01-14,2025-01-14,株式会社ＥＴＯ,,株式会社,東京都,足立区,西伊興２丁目５番地３１号,,13,121,1210824,,,,,,,2025-01-14,1,,,,,エト,0
1689,7011801045440,新規,0,2025-01-14,2025-01-14,株式会社久保タイル,,株式会社,東京都,足立区,南花畑５丁目１８番１４号,,13,121,1210062,,,,,,,2025-01-14,1,,,,,クボタイル,0
1690,7011803006639,新規,0,2025-01-14,2025-01-14,合同会社幸楽苑,,合同会社,東京都,足立区,千住東１丁目１３番１０号ハイツカワシマ２０１,,13,121,1200025,,,,,,,2025-01-14,1,,,,,コウラクエン,0
1691,7012303002095,新規,0,2025-01-14,2025-01-14,合同会社フューエル成田屋,,合同会社,東京都,町田市,小山町１０９９番地３,,13,209,1940212,,,,,,,2025-01-14,1,,,,,フューエルナリタヤ,0
1693,7012701018643,新規,0,2025-01-14,2025-01-14,株式会社セントソフィア小平,,株式会社,東京都,東久留米市,柳窪４丁目８－４,,13,222,2030044,,,,,,,2025-01-14,1,,,,,セントソフィアコダイラ,0
1697,7012801023659,新規,0,2025-01-14,2025-01-14,株式会社Ｄｕｏ,,株式会社,東京都,立川市,砂川町７丁目５４－３,,13,202,1900031,,,,,,,2025-01-14,1,,,,,デュオ,0
1699,7013301053584,新規,0,2025-01-14,2025-01-14,中日商事株式会社,,株式会社,東京都,豊島区,東池袋３丁目７－１１東カングランドマンション池袋キャッスル９０３,,13,116,1700013,,,,,,,2025-01-14,1,,,,,チュウニチショウジ,0
1700,7013301053626,新規,0,2025-01-14,2025-01-14,株式会社梅ノ屋,,株式会社,東京都,豊島区,東池袋１丁目３４番５号いちご東池袋ビル６階,,13,116,1700013,,,,,,,2025-01-14,1,,,,,ウメノヤ,0
1701,7013301053634,新規,0,2025-01-14,2025-01-14,株式会社ＧＲＩＰ,,株式会社,東京都,豊島区,南大塚１丁目６０番２０号天翔大塚駅前ビル,,13,116,1700005,,,,,,,2025-01-14,1,,,,,グリップ,0
1702,7013303007480,新規,0,2025-01-14,2025-01-14,インベル合同会社,,合同会社,東京都,豊島区,巣鴨５丁目２６番５号,,13,116,1700002,,,,,,,2025-01-14,1,,,,,インベル,0
1705,7020001160784,新規,0,2025-01-14,2025-01-14,ｊ‐ｔｏｃ株式会社,,株式会社,神奈川県,横浜市港南区,日野５丁目２９番３６－２号,,14,111,2340051,,,,,,,2025-01-14,1,,,,,ジェイトック,0
1706,7020001160801,新規,0,2025-01-14,2025-01-14,株式会社あはば,,株式会社,神奈川県,横浜市戸塚区,平戸町４０１番地９０,,14,110,2440803,,,,,,,2025-01-14,1,,,,,アハバ,0
1710,7020003027544,新規,0,2025-01-14,2025-01-14,合同会社ファイブスターズ,,合同会社,神奈川県,横浜市西区,高島２丁目７－２－１２０９,,14,103,2200011,,,,,,,2025-01-14,1,,,,,ファイブスターズ,0
1711,7020003027560,新規,0,2025-01-14,2025-01-14,合同会社タカツクラフト,,合同会社,神奈川県,川崎市中原区,井田１丁目１番２６号,,14,133,2110035,,,,,,,2025-01-14,1,,,,,タカツクラフト,0
1712,7020003027577,新規,0,2025-01-14,2025-01-14,合同会社フォトオフィス加寿,,合同会社,神奈川県,横浜市鶴見区,北寺尾５丁目４番４７号,,14,101,2300074,,,,,,,2025-01-14,1,,,,,フォトオフィスカズ,0
1714,7021003015431,新規,0,2025-01-14,2025-01-14,レモン合同会社,,合同会社,神奈川県,藤沢市,辻堂新町３丁目８番３３－２０２号,,14,205,2510042,,,,,,,2025-01-14,1,,,,,レモン,0
1718,7030001164256,新規,0,2025-01-14,2025-01-14,吉陽株式会社,,株式会社,埼玉県,さいたま市南区,大字大谷口７８５－１３,,11,108,3360042,,,,,,,2025-01-14,1,,,,,キチヨウ,0
1719,7030001164297,新規,0,2025-01-14,2025-01-14,株式会社ＫＤＣ,,株式会社,埼玉県,川口市,芝中田２丁目２１番１７号,,11,203,3330847,,,,,,,2025-01-14,1,,,,,ケーディーシー,0
1720,7030001164322,新規,0,2025-01-14,2025-01-14,株式会社ＮＲＢ,,株式会社,埼玉県,所沢市,けやき台１丁目２１番地の５ライフプレイスシーマ２－３０５,,11,208,3591118,,,,,,,2025-01-14,1,,,,,エヌアールビー,0
1721,7030001164339,新規,0,2025-01-14,2025-01-14,株式会社力昇重量,,株式会社,埼玉県,久喜市,久喜東２丁目４番２１号,,11,232,3460016,,,,,,,2025-01-14,1,,,,,リキショウジュウリョウ,0
1726,7030003025852,新規,0,2025-01-14,2025-01-14,合名会社藍,,合名会社,埼玉県,坂戸市,大字片柳２２２８番地,,11,239,3500219,,,,,,,2025-01-14,1,,,,,アイ,0
1727,7030003025860,新規,0,2025-01-14,2025-01-14,合同会社ドロップ,,合同会社,埼玉県,富士見市,羽沢３丁目１６番２１号,,11,235,3540033,,,,,,,2025-01-14,1,,,,,ドロップ,0
1728,7030005022006,新規,0,2025-01-14,2025-01-14,一般社団法人ゴルフネイルトレーナー協会,,その他の設立登記法人,埼玉県,川口市,芝塚原１丁目１７－７,,11,203,3330856,,,,,,,2025-01-14,1,,,,,ゴルフネイルトレーナーキョウカイ,0
1731,7040001136923,新規,0,2025-01-14,2025-01-14,株式会社焼肉大黒や,,株式会社,千葉県,旭市,横根３２５９番地１,,12,215,2892712,,,,,,,2025-01-14,1,,,,,ヤキニクダイコクヤ,0
1732,7040001136931,新規,0,2025-01-14,2025-01-14,株式会社デイジー,,株式会社,千葉県,船橋市,行田町４７番地５,,12,204,2730043,,,,,,,2025-01-14,1,,,,,デイジー,0
1733,7040001136980,新規,0,2025-01-14,2025-01-14,Ｈｅｙ　ｓｏｆｔ株式会社,,株式会社,千葉県,佐倉市,宮前３丁目２２番地４ＧＡＲＤＥＮＥＬＥＧＡＮＴ２２０号室,,12,212,2850005,,,,,,,2025-01-14,1,,,,,ヘイソフト,0
1736,7040003026577,新規,0,2025-01-14,2025-01-14,合同会社ＡＳＫＡＩ,,合同会社,千葉県,船橋市,前原西３丁目５番１５号マルトビル２０５,,12,204,2740825,,,,,,,2025-01-14,1,,,,,アスカイ,0
1737,7040005022624,新規,0,2025-01-14,2025-01-14,行政書士法人Ｍｉｕｒａ,,その他の設立登記法人,千葉県,千葉市若葉区,桜木６丁目１５番２１号桜木ビル２階２０２号,,12,104,2640028,,,,,,,2025-01-14,1,,,,,ミウラ,0
1742,7050003008921,新規,0,2025-01-14,2025-01-14,Ｖｉｓｉｏｎ　ＡＩ合同会社,,合同会社,茨城県,つくば市,谷田部１０７７番地５８,,08,220,3050861,,,,,,,2025-01-14,1,,,,,ヴィジョンエーアイ,0
1743,7060001037822,新規,0,2025-01-14,2025-01-14,株式会社ユキヒラポートリー,,株式会社,栃木県,那須烏山市,熊田２５９４番地２８,,09,215,3210502,,,,,,,2025-01-14,1,,,,,ユキヒラポートリー,0
1744,7060003005389,新規,0,2025-01-14,2025-01-14,合同会社ＡｉｒＳｍｉｔｈ,,合同会社,栃木県,塩谷郡高根沢町,大字宝積寺２４３８番地４４ベネフィ・エクセルシア１０３,,09,386,3291233,,,,,,,2025-01-14,1,,,,,エアスミス,0
1749,7080103003233,新規,0,2025-01-14,2025-01-14,合同会社ｃｏｔｔｏｎ　ｃａｎｄｙ,,合同会社,静岡県,三島市,中島６４番地の２０,,22,206,4110814,,,,,,,2025-01-14,1,,,,,コットンキャンディー,0
1752,7080403005177,新規,0,2025-01-14,2025-01-14,合同会社てまり屋,,合同会社,静岡県,浜松市中央区,住吉２丁目１２番２１号,,22,138,4300906,,,,,,,2025-01-14,1,,,,,テマリヤ,0
1753,7090001019090,新規,0,2025-01-14,2025-01-14,株式会社クライムラージ,,株式会社,山梨県,甲府市,千塚１丁目９番１７号,,19,201,4000074,,,,,,,2025-01-14,1,,,,,クライムラージ,0
1755,7100001038188,新規,0,2025-01-14,2025-01-14,株式会社エクセルシオール,,株式会社,長野県,松本市,大字島内１８９８番地１,,20,202,3900851,,,,,,,2025-01-14,1,,,,,エクセルシオール,0
1756,7100001038196,新規,0,2025-01-14,2025-01-14,株式会社ＣＯＮＮＥＸ,,株式会社,長野県,小諸市,田町２丁目６番２号,,20,208,3840028,,,,,,,2025-01-14,1,,,,,コネックス,0
1758,7110001038996,新規,0,2025-01-14,2025-01-14,株式会社ＢｒｉｇｈｔＰａｔｈ,,株式会社,新潟県,新潟市西区,五十嵐２の町８０５０新潟大学産学連携共同研究棟１号棟ＮＯＴＴＨＥＵＮＩＶＥＲＳＩＴＹ,,15,107,9502102,,,,,,,2025-01-14,1,,,,,ブライトパス,0
1765,7120001271571,新規,0,2025-01-14,2025-01-14,株式会社スケール,,株式会社,大阪府,大阪市中央区,本町橋２番２３号,,27,128,5400029,,,,,,,2025-01-14,1,,,,,スケール,0
1766,7120001271679,新規,0,2025-01-14,2025-01-14,株式会社デイジー,,株式会社,大阪府,大阪市北区,浪花町１４番３３号ＯＭビル２０５号,,27,127,5300022,,,,,,,2025-01-14,1,,,,,デイジー,0
1768,7120003028318,新規,0,2025-01-14,2025-01-14,ＳＮ　ＧＲＯＵＰ合同会社,,合同会社,大阪府,大阪市東成区,東小橋２丁目９番２２号都マンション３０５号,,27,115,5370024,,,,,,,2025-01-14,1,,,,,エスエヌグループ,0
1769,7120003028342,新規,0,2025-01-14,2025-01-14,ｓｈｉｎｗａ　ｔｗｏ合同会社,,合同会社,大阪府,大阪市中央区,今橋１丁目７番３号トラスティルグループ内,,27,128,5410042,,,,,,,2025-01-14,1,,,,,シンワツー,0
1770,7120003028350,新規,0,2025-01-14,2025-01-14,Ｓａｎａ合同会社,,合同会社,大阪府,大阪市北区,梅田１丁目２番２号大阪駅前第２ビル１２－１２,,27,127,5300001,,,,,,,2025-01-14,1,,,,,サナ,0
1771,7120005024703,新規,0,2025-01-14,2025-01-14,クレディシップ税理士法人,,その他の設立登記法人,大阪府,大阪市中央区,北浜２丁目１番２号昭和興産北浜ビル１０階,,27,128,5410041,,,,,,,2025-01-14,1,,,,,クレディシップ,0
1773,7120101070881,新規,0,2025-01-14,2025-01-14,株式会社ｉｔｏ．,,株式会社,大阪府,藤井寺市,西古室２丁目９－１０－１Ｆ,,27,226,5830018,,,,,,,2025-01-14,1,,,,,イト,0
1776,7120901050208,新規,0,2025-01-14,2025-01-14,株式会社Ｍａｕｖｅ,,株式会社,大阪府,吹田市,天道町１０番１９－６０２号,,27,205,5640003,,,,,,,2025-01-14,1,,,,,モーブ,0
1777,7120901050257,新規,0,2025-01-14,2025-01-14,株式会社凛,,株式会社,大阪府,豊中市,緑丘３丁目１１番２０－４０５号,,27,203,5600002,,,,,,,2025-01-14,1,,,,,リン,0
1778,7120901050273,新規,0,2025-01-14,2025-01-14,株式会社ＭＪ　ＯＮＥ,,株式会社,大阪府,摂津市,南千里丘５番１３－２９０１号,,27,224,5660021,,,,,,,2025-01-14,1,,,,,エムジェイワン,0
1779,7120901050281,新規,0,2025-01-14,2025-01-14,メリック株式会社,,株式会社,大阪府,吹田市,江坂町２丁目２番２０号,,27,205,5640063,,,,,,,2025-01-14,1,,,,,メリック,0
1781,7120903005507,新規,0,2025-01-14,2025-01-14,合同会社エモーツ,,合同会社,大阪府,吹田市,古江台２丁目８番１７－３号,,27,205,5650874,,,,,,,2025-01-14,1,,,,,エモーツ,0
1783,7122001038810,新規,0,2025-01-14,2025-01-14,株式会社ミカ製作所,,株式会社,大阪府,八尾市,北木の本４丁目２０（ろ号屋）,,27,212,5810041,,,,,,,2025-01-14,1,,,,,ミカセイサクショ,0
1784,7122003003093,新規,0,2025-01-14,2025-01-14,合同会社わかな,,合同会社,大阪府,八尾市,沼３丁目１１０－１,,27,212,5810036,,,,,,,2025-01-14,1,,,,,ワカナ,0
1788,7140001136979,新規,0,2025-01-14,2025-01-14,株式会社ＴＫＭ,,株式会社,兵庫県,南あわじ市,福良丙７７５番地３９,,28,224,6560503,,,,,,,2025-01-14,1,,,,,ティーケーエム,0
1789,7140001136995,新規,0,2025-01-14,2025-01-14,株式会社ＬＩＴＡ,,株式会社,兵庫県,姫路市,手柄３７２番地１,,28,201,6700972,,,,,,,2025-01-14,1,,,,,リタ,0
1793,7140005027340,新規,0,2025-01-14,2025-01-14,税理士法人みなと会計,,その他の設立登記法人,兵庫県,神戸市中央区,下山手通３丁目１２番１－２０１号,,28,110,6500011,,,,,,,2025-01-14,1,,,,,ミナトカイケイ,0
1804,7180001164786,新規,0,2025-01-14,2025-01-14,榊原工業株式会社,00137616,株式会社,愛知県,名古屋市守山区,大森北１丁目３００６番地,,23,113,4630802,,,,,,,2025-01-14,1,,,,,サカキバラコウギョウ,0
1805,7180001164828,新規,0,2025-01-14,2025-01-14,株式会社ＣＯＣＯＨＯＵＳＥ,,株式会社,愛知県,名古屋市千種区,桜が丘１１９番地,,23,101,4640025,,,,,,,2025-01-14,1,,,,,ココハウス,0
1807,7180005020903,新規,0,2025-01-14,2025-01-14,特定非営利活動法人小牧福祉事業支援友の会,,その他の設立登記法人,愛知県,小牧市,下小針中島２丁目１５番地,,23,219,4850051,,,,,,,2025-01-14,1,,,,,コマキフクシジギョウシエントモノカイ,0
1815,7200003006653,新規,0,2025-01-14,2025-01-14,合同会社ＡＹＥＳＨＡ　ＴＲＡＤＩＮＧ,,合同会社,岐阜県,海津市,南濃町津屋字中屋敷２３４１番地１,,21,221,5030401,,,,,,,2025-01-14,1,,,,,アイシャトレーディング,0
1820,7220001026429,新規,0,2025-01-14,2025-01-14,株式会社アグリ西三階,,株式会社,石川県,七尾市,西三階町ノ部５８番地,,17,202,9260835,,,,,,,2025-01-14,1,,,,,アグリニシミカイ,0
1824,7240001064369,新規,0,2025-01-14,2025-01-14,株式会社ＯＬ・ＳＴＵＤＹ,,株式会社,広島県,広島市西区,己斐上２丁目２番１０－３号シトラスコート己斐上,,34,104,7330815,,,,,,,2025-01-14,1,,,,,オルスタディ,0
1826,7250005008973,新規,0,2025-01-14,2025-01-14,社会保険労務士法人やまぐち人事力向上研究所,,その他の設立登記法人,山口県,山口市,中河原町３番１３号ベルエール中河原３－Ａ,,35,203,7530088,,,,,,,2025-01-14,1,,,,,ヤマグチジンジリョクコウジョウケンキュウショ,0
1832,7290001108617,新規,0,2025-01-14,2025-01-14,ＧＲＡＣＥ株式会社,,株式会社,福岡県,八女市,蒲原３１番地１,,40,210,8340064,,,,,,,2025-01-14,1,,,,,グレース,0
1833,7290003016280,新規,0,2025-01-14,2025-01-14,合同会社セントラルグリーン,,合同会社,福岡県,福岡市東区,香椎照葉６丁目３－１２,,40,131,8130017,,,,,,,2025-01-14,1,,,,,,0
1834,7290003016289,新規,0,2025-01-14,2025-01-14,ルミナワークス合同会社,,合同会社,福岡県,福岡市中央区,六本松１丁目８番１９号,,40,133,8100044,,,,,,,2025-01-14,1,,,,,ルミナワークス,0
1838,7320001020891,新規,0,2025-01-14,2025-01-14,サクシア株式会社,,株式会社,大分県,別府市,山の手町８番１５号,,44,202,8740828,,,,,,,2025-01-14,1,,,,,サクシア,0
1840,7330003010725,新規,0,2025-01-14,2025-01-14,熊参合同会社,,合同会社,熊本県,熊本市北区,植木町舟島８３番地１,,43,105,8610114,,,,,,,2025-01-14,1,,,,,クマサン,0
1841,7330005010863,新規,0,2025-01-14,2025-01-14,特定非営利活動法人ビジネス・金銭教育研究会,,その他の設立登記法人,熊本県,熊本市中央区,上通町２－１７びぷれす熊日会館７階,,43,101,8600845,,,,,,,2025-01-14,1,,,,,ビジネスキンセンキョウイクケンキュウカイ,0
1845,7350005006281,新規,0,2025-01-14,2025-01-14,司法書士法人瀬戸山・深澤事務所,,その他の設立登記法人,宮崎県,小林市,細野２６５番地１,,45,205,8860004,,,,,,,2025-01-14,1,,,,,セトヤマフカザワジムショ,0
1852,7390005009099,新規,0,2025-01-14,2025-01-14,農事組合法人いのおか,,その他の設立登記法人,山形県,鶴岡市,井岡甲２２６番地,,06,203,9970842,,,,,,,2025-01-14,1,,,,,イノオカ,0
1857,7430001093464,新規,0,2025-01-14,2025-01-14,株式会社ディヴェルシテ,,株式会社,北海道,余市郡余市町,黒川町３丁目２７番地クラージュＹＯＩＣＨＩ　Ａ棟３０１室,,01,408,0460003,,,,,,,2025-01-14,1,,,,,ディヴェルシテ,0
1858,7450001014492,新規,0,2025-01-14,2025-01-14,株式会社ウレシカ,,株式会社,北海道,旭川市,南七条通２５丁目８番地の１５０,,01,204,0788337,,,,,,,2025-01-14,1,,,,,ウレシカ,0
1868,7700150128670,新規,0,2025-01-14,2025-01-14,ＣＡＲＳ　ＣＯＲＮＥＲ　ＡＵＴＯ　ＴＲＡＤＩＮＧ　ＰＶＴ　ＬＴＤ,,外国会社等,千葉県,山武市,白幡２７３６番地３オフィスＢ,,12,237,2891306,スリランカ民主社会主義共和国、キャンディ、ペラデニヤロード、Ｎｏ．１４６／Ｃ／３,,,,,,2025-01-14,1,,,,,カーズコーナーオートトレーデイングプライベートリミテツド,0
1869,7700150128695,新規,0,2025-01-14,2025-01-14,Ｙｉｗｕ　Ｄｉｎｉ　Ｕｍｂｒｅｌｌａ　Ｃｏ．，Ｌｔｄ,,外国会社等,,,,,,,,２Ｆ，Ｂｕｉｌｄｉｎｇ　６，Ｂｌｏｃｋ　Ｂ，Ｓｈｕａｎｇｃｈｕａｎｇ　Ｓｔｒｅｅｔ，Ｅ２１，Ｘｉｎｋｅ　Ｒｏａｄ，Ｃｈｏｕｊｉａｎｇ　Ｓｔｒｅｅｔ，Ｙｉｗｕ　Ｃｉｔｙ，Ｊｉｎｈｕａ　Ｃｉｔｙ，Ｚｈｅｊｉａｎｇ　Ｐｒｏｖｉｎｃｅ,,,,,,2025-01-14,1,,,,,ギウシテキジサンギヨウユウゲンコウシ,0
1875,8010001251138,新規,0,2025-01-14,2025-01-14,株式会社八百鶴商店,,株式会社,東京都,千代田区,富士見２丁目１５番８－９０２号,,13,101,1020071,,,,,,,2025-01-14,1,,,,,ヤオツルショウテン,0
1876,8010001251352,新規,0,2025-01-14,2025-01-14,ＨａｐｐｙＥａｓｙＧｏ　Ｊａｐａｎ株式会社,,株式会社,東京都,中央区,銀座３丁目４番１号大倉別館５階５２９室,,13,102,1040061,,,,,,,2025-01-14,1,,,,,ハッピーイージーゴージャパン,0
1877,8010001251369,新規,0,2025-01-14,2025-01-14,株式会社アイアス・コーポレーション,,株式会社,東京都,千代田区,神田須田町１丁目７－８Ｖｏｒｔ秋葉原ＩＶ２Ｆ,00137627,13,101,1010041,,,,,,,2025-01-14,1,,,,,アイアスコーポレーション,0
1880,8010003045959,新規,0,2025-01-14,2025-01-14,合同会社山中湖,,合同会社,東京都,千代田区,霞が関３丁目２番５号,,13,101,1000013,,,,,,,2025-01-14,1,,,,,ヤマナカコ,0
1881,8010003045975,新規,0,2025-01-14,2025-01-14,合同会社ＡｌｌＳｐｅｃｔ,,合同会社,東京都,中央区,銀座１丁目１２番４号Ｎ＆ＥＢＬＤ．６Ｆ,,13,102,1040061,,,,,,,2025-01-14,1,,,,,オールスペクト,0
1882,8010003045991,新規,0,2025-01-14,2025-01-14,ＡＭＰ１１合同会社,,合同会社,東京都,千代田区,内神田１丁目３番７号４０１あすな会計事務所内,,13,101,1010047,,,,,,,2025-01-14,1,,,,,アンプイレブン,0
1883,8010003046040,新規,0,2025-01-14,2025-01-14,合同会社ＳＨＵＭＥＩ,,合同会社,東京都,中央区,銀座１丁目１２番４号Ｎ＆ＥＢＬＤ．７階,,13,102,1040061,,,,,,,2025-01-14,1,,,,,シュメイ,0
1884,8010003046049,新規,0,2025-01-14,2025-01-14,トロワサンテ合同会社,,合同会社,東京都,中央区,湊３丁目１番１２号ドゥーエ銀座イースト８０３号室,,13,102,1040043,,,,,,,2025-01-14,1,,,,,トロワサンテ,0
1889,8010401187436,新規,0,2025-01-14,2025-01-14,ＫａｔｅｅＳｗｅｅｔｓ株式会社,,株式会社,東京都,港区,麻布十番１丁目２番７号ラフィネ麻布十番７０１号室,,13,103,1060045,,,,,,,2025-01-14,1,,,,,ケイティスイーツ,0
1890,8010401187493,新規,0,2025-01-14,2025-01-14,ＩＴＡＯビジネスサポート株式会社,,株式会社,東京都,港区,西新橋３丁目５番２号,,13,103,1050003,,,,,,,2025-01-14,1,,,,,イタオビジネスサポート,0
1891,8010401187527,新規,0,2025-01-14,2025-01-14,株式会社ｈｙｍｙ,,株式会社,東京都,港区,白金台３丁目１６番１８号株式会社ボックス・コーポレーション内,,13,103,1080071,,,,,,,2025-01-14,1,,,,,エイチワイエムワイ,0
1895,8010501053447,新規,0,2025-01-14,2025-01-14,株式会社叶桜,,株式会社,東京都,台東区,浅草橋３丁目３３番９号渡辺ビル４Ｆ,,13,106,1110053,,,,,,,2025-01-14,1,,,,,カナオウ,0
1896,8010701047083,新規,0,2025-01-14,2025-01-14,株式会社ＥＳＧ,,株式会社,東京都,品川区,豊町３丁目２番１０号劉ビル,,13,109,1420042,,,,,,,2025-01-14,1,,,,,イーエスジー,0
1897,8010703007515,新規,0,2025-01-14,2025-01-14,合同会社サベージ,,合同会社,東京都,品川区,大崎４丁目２－５３、３０３,,13,109,1410032,,,,,,,2025-01-14,1,,,,,サベージ,0
1904,8010901056636,新規,0,2025-01-14,2025-01-14,株式会社クラシェルジュ,,株式会社,東京都,世田谷区,太子堂４丁目１番１号キャロットタワー２２階,,13,112,1540004,,,,,,,2025-01-14,1,,,,,クラシェルジュ,0
1905,8010903009609,新規,0,2025-01-14,2025-01-14,Ｚｉｐａｎｇ合同会社,,合同会社,東京都,世田谷区,経堂５丁目３８番２９－１０６号,,13,112,1560052,,,,,,,2025-01-14,1,,,,,ジパング,0
1912,8011001167084,新規,0,2025-01-14,2025-01-14,株式会社ＬＩＶＥ　Ｘ　ＪＡＰＡＮ,,株式会社,東京都,渋谷区,道玄坂１丁目１２番１号渋谷マークシティ２２階,,13,113,1500043,,,,,,,2025-01-14,1,,,,,ライブエックスジャパン,0
1913,8011003020778,新規,0,2025-01-14,2025-01-14,合同会社金福,,合同会社,東京都,目黒区,自由が丘３丁目１８番３１号,,13,110,1520035,,,,,,,2025-01-14,1,,,,,キンフク,0
1916,8011101110200,新規,0,2025-01-14,2025-01-14,ウェルスサポート株式会社,,株式会社,東京都,新宿区,富久町３１番８号,,13,104,1620067,,,,,,,2025-01-14,1,,,,,ウェルスサポート,0
1917,8011103015397,新規,0,2025-01-14,2025-01-14,合同会社ＫＴトラスト,,合同会社,東京都,新宿区,西新宿６丁目２０番７－２５０４号,,13,104,1600023,,,,,,,2025-01-14,1,,,,,ケーティートラスト,0
1923,8011403004587,新規,0,2025-01-14,2025-01-14,Ｔ＆Ｌ合同会社,,合同会社,東京都,板橋区,板橋２丁目６４－１３Ｇ・Ｌ・Ｏ板橋７階,,13,119,1730004,,,,,,,2025-01-14,1,,,,,ティーアンドエル,0
1924,8011501031574,新規,0,2025-01-14,2025-01-14,株式会社ルミエール,,株式会社,東京都,荒川区,荒川３丁目５８番１号,,13,118,1160002,,,,,,,2025-01-14,1,,,,,ルミエール,0
1926,8011605002629,新規,0,2025-01-14,2025-01-14,税理士法人ＳＮＫ,,その他の設立登記法人,東京都,練馬区,豊玉北５丁目２５番１７号,,13,120,1760012,,,,,,,2025-01-14,1,,,,,エスエヌケー,0
1928,8011701027975,新規,0,2025-01-14,2025-01-14,株式会社キッズゴルフクラブ,,株式会社,東京都,江戸川区,平井５丁目２１番４号１Ｆ,,13,123,1320035,,,,,,,2025-01-14,1,,,,,キッズゴルフクラブ,0
1930,8011703004080,新規,0,2025-01-14,2025-01-14,合同会社Ｏｆｆ　Ｗｈｉｔｅ,,合同会社,東京都,江戸川区,北小岩３丁目１番地１５号１０１号室,,13,123,1330051,,,,,,,2025-01-14,1,,,,,オフホワイト,0
1931,8011705001869,新規,0,2025-01-14,2025-01-14,農事組合法人Ｄ２,,その他の設立登記法人,東京都,江戸川区,北葛西２丁目１６番６号サニーコート北葛西ＩＩＩ１０７,00137620,13,123,1340081,,,,,,,2025-01-14,1,,,,,ディーツー,0
1934,8011801045431,新規,0,2025-01-14,2025-01-14,株式会社天晴,,株式会社,東京都,葛飾区,亀有３丁目３０番１５号,,13,122,1250061,,,,,,,2025-01-14,1,,,,,テンセイ,0
1941,8012701018642,新規,0,2025-01-14,2025-01-14,株式会社ダイヤモンドサプライ,,株式会社,東京都,西東京市,ひばりが丘１丁目５番１８号,,13,229,2020001,,,,,,,2025-01-14,1,,,,,ダイヤモンドサプライ,0
1942,8012803003600,新規,0,2025-01-14,2025-01-14,猫印ＤＥＳＩＧＮ合同会社,,合同会社,東京都,国分寺市,西恋ヶ窪３丁目２０－２７アイリスコーポ２０１,,13,214,1850013,,,,,,,2025-01-14,1,,,,,ネコジルシデザイン,0
1944,8013301053641,新規,0,2025-01-14,2025-01-14,株式会社ＹＡＮＡ‐ＪＡＰＡＮ,,株式会社,東京都,豊島区,南長崎１丁目８－３,,13,116,1710052,,,,,,,2025-01-14,1,,,,,ヤナジャパン,0
1948,8020001160775,新規,0,2025-01-14,2025-01-14,株式会社Ｖｏｌｖｉｃ,,株式会社,神奈川県,横浜市南区,永田台２番１２－９１１号,,14,105,2320076,,,,,,,2025-01-14,1,,,,,ボルヴィック,0
1949,8020001160817,新規,0,2025-01-14,2025-01-14,株式会社ｍ’Ａｉｎａ,,株式会社,神奈川県,横浜市港北区,大倉山３丁目１番１号,,14,109,2220037,,,,,,,2025-01-14,1,,,,,マイナ,0
1950,8020001161030,新規,0,2025-01-14,2025-01-14,株式会社みんぷろ,,株式会社,神奈川県,川崎市麻生区,片平６丁目５番１号プラウディア片平２０１,,14,137,2150023,,,,,,,2025-01-14,1,,,,,ミンプロ,0
1951,8020003027543,新規,0,2025-01-14,2025-01-14,Ｋ　Ｉｎｎｏｖａｔｉｏｎ　Ｌａｂ　Ａｓｓｏｃｉａｔｅｓ合同会社,,合同会社,神奈川県,横浜市青葉区,あざみ野南４丁目１５－５,,14,117,2250012,,,,,,,2025-01-14,1,,,,,ケイイノベーションラボアソシエイツ,0
1954,8021003015447,新規,0,2025-01-14,2025-01-14,トゥールーズ合同会社,,合同会社,神奈川県,茅ヶ崎市,松浪２丁目９番５０－３６号,,14,207,2530022,,,,,,,2025-01-14,1,,,,,トゥールーズ,0
1958,8030001164197,新規,0,2025-01-14,2025-01-14,株式会社Ｇｏｌｉａｔｈ,,株式会社,埼玉県,川越市,霞ケ関東１丁目３番地１５霞ヶ関ビル,,11,201,3501103,,,,,,,2025-01-14,1,,,,,ゴリアス,0
1959,8030001164296,新規,0,2025-01-14,2025-01-14,株式会社リクスパーク,,株式会社,埼玉県,草加市,氷川町２１２７番地１３ケイユービル５階Ｂ,,11,221,3400034,,,,,,,2025-01-14,1,,,,,リクスパーク,0
1960,8030001164313,新規,0,2025-01-14,2025-01-14,株式会社ｏｔｏｎｏｗａ,,株式会社,埼玉県,所沢市,寿町２１番１２号,,11,208,3591122,,,,,,,2025-01-14,1,,,,,オトノワ,0
1961,8030001164346,新規,0,2025-01-14,2025-01-14,株式会社Ｔｅｒｒａ,,株式会社,埼玉県,川口市,東川口１丁目２７番２５号,,11,203,3330801,,,,,,,2025-01-14,1,,,,,テラ,0
1962,8030001164370,新規,0,2025-01-14,2025-01-14,ＨＯＭＥ　ＢＡＴＯＮ株式会社,,株式会社,埼玉県,羽生市,南羽生３丁目９番１５号,,11,216,3480071,,,,,,,2025-01-14,1,,,,,ホームバトン,0
1970,8030003025851,新規,0,2025-01-14,2025-01-14,合同会社カツミパートナー,,合同会社,埼玉県,深谷市,大谷１１０２,,11,218,3660814,,,,,,,2025-01-14,1,,,,,カツミパートナー,0
1974,8040001136971,新規,0,2025-01-14,2025-01-14,株式会社安藤農業機械サービス,,株式会社,千葉県,君津市,俵田２５６番地１,,12,225,2920455,,,,,,,2025-01-14,1,,,,,アンドウノウギョウキカイサービス,0
1975,8040003026543,新規,0,2025-01-14,2025-01-14,合同会社あおら,,合同会社,千葉県,茂原市,高師台３丁目５番地８,,12,210,2970078,,,,,,,2025-01-14,1,,,,,アオラ,0
1976,8040003026584,新規,0,2025-01-14,2025-01-14,大和合同会社,,合同会社,千葉県,松戸市,小根本２０番地の２１,,12,207,2710073,,,,,,,2025-01-14,1,,,,,ダイワ,0
1978,8050001055989,新規,0,2025-01-14,2025-01-14,株式会社徳田新聞店,,株式会社,茨城県,牛久市,南３丁目４番地２２,,08,219,3001222,,,,,,,2025-01-14,1,,,,,トクダシンブンテン,0
1979,8050001056005,新規,0,2025-01-14,2025-01-14,株式会社ＲＩＳＥ,,株式会社,茨城県,ひたちなか市,西大島２丁目１２番４１,,08,221,3120041,,,,,,,2025-01-14,1,,,,,ライズ,0
1984,8060001037821,新規,0,2025-01-14,2025-01-14,株式会社ＶＩＶＥＲＥ,,株式会社,栃木県,宇都宮市,宝木町２丁目２５５４－６６,,09,201,3200061,,,,,,,2025-01-14,1,,,,,ヴィーヴェレ,0
1994,8080401027676,新規,0,2025-01-14,2025-01-14,大草建設株式会社,,株式会社,静岡県,浜松市浜名区,根堅２４９番地の１８,,22,139,4340016,,,,,,,2025-01-14,1,,,,,オオクサケンセツ,0
2003,8090001019081,新規,0,2025-01-14,2025-01-14,株式会社ＹＯＣＨＩ,,株式会社,山梨県,北杜市,須玉町東向２８７５番地,,19,209,4080105,,,,,,,2025-01-14,1,,,,,ヨチ,0
2007,8100001038187,新規,0,2025-01-14,2025-01-14,株式会社ｂｅＬＬｅ．,,株式会社,長野県,佐久市,岩村田北１丁目６番８号,,20,217,3850023,,,,,,,2025-01-14,1,,,,,ベル,0
2008,8100001038195,新規,0,2025-01-14,2025-01-14,株式会社わくわく伊那,,株式会社,長野県,飯田市,松尾寺所７０４３番地１,,20,205,3950822,,,,,,,2025-01-14,1,,,,,ワクワクイナ,0
2010,8110001038995,新規,0,2025-01-14,2025-01-14,株式会社スマイルオート,,株式会社,新潟県,新潟市中央区,美の里１１番５号,,15,103,9500924,,,,,,,2025-01-14,1,,,,,スマイルオート,0
2016,8120001271678,新規,0,2025-01-14,2025-01-14,株式会社ブレーン,,株式会社,大阪府,大阪市浪速区,難波中３丁目６番９号５０４号室,,27,111,5560011,,,,,,,2025-01-14,1,,,,,ブレーン,0
2017,8120001271711,新規,0,2025-01-14,2025-01-14,株式会社みんなにやさしい,,株式会社,大阪府,大阪市北区,梅田１丁目１番３号大阪駅前第３ビル２９階１－１－１号室,,27,127,5300001,,,,,,,2025-01-14,1,,,,,ミンナニヤサシイ,0
2018,8120001271785,新規,0,2025-01-14,2025-01-14,スタンバイ株式会社,,株式会社,大阪府,大阪市住之江区,粉浜西１丁目１番４号トモエビル３階,,27,125,5590007,,,,,,,2025-01-14,1,,,,,スタンバイ,0
2019,8120001271827,新規,0,2025-01-14,2025-01-14,株式会社ＲＥＥＣＯＭアシスト,,株式会社,大阪府,大阪市西区,西本町１丁目６番６号,,27,106,5500005,,,,,,,2025-01-14,1,,,,,リーコムアシスト,0
2020,8120001271868,新規,0,2025-01-14,2025-01-14,株式会社篠瀬,00137613,株式会社,大阪府,大阪市北区,西天満４丁目３番７号,,27,127,5300047,,,,,,,2025-01-14,1,,,,,シノセ,0
2024,8120005024702,新規,0,2025-01-14,2025-01-14,クレディシップ社会保険労務士法人,,その他の設立登記法人,大阪府,大阪市中央区,北浜２丁目１番２号昭和興産北浜ビル１０階,,27,128,5410041,,,,,,,2025-01-14,1,,,,,クレディシップ,0
2026,8120101070823,新規,0,2025-01-14,2025-01-14,株式会社共翔,,株式会社,大阪府,堺市南区,和田５５８番地,,27,145,5900152,,,,,,,2025-01-14,1,,,,,キョウショウ,0
2027,8120101070872,新規,0,2025-01-14,2025-01-14,広域建材株式会社,,株式会社,大阪府,和泉市,伯太町５丁目６番１４号,,27,219,5940023,,,,,,,2025-01-14,1,,,,,コウイキケンザイ,0
2028,8120101070889,新規,0,2025-01-14,2025-01-14,株式会社よつばグリーン,,株式会社,大阪府,堺市中区,伏尾７６１番地１,,27,142,5998254,,,,,,,2025-01-14,1,,,,,ヨツバグリーン,0
2029,8120103006222,新規,0,2025-01-14,2025-01-14,合同会社ベストコンサルティング,,合同会社,大阪府,羽曳野市,伊賀１丁目１７－１６ステラウッド伊賀２０４号,,27,222,5830876,,,,,,,2025-01-14,1,,,,,ベストコンサルティング,0
2032,8120901050280,新規,0,2025-01-14,2025-01-14,株式会社ＲＥ‐ＳＴＡＲＴ,,株式会社,大阪府,吹田市,元町１８番３４号（２０１）,,27,205,5640031,,,,,,,2025-01-14,1,,,,,リスタート,0
2034,8120903005506,新規,0,2025-01-14,2025-01-14,合同会社リバーツリー,,合同会社,大阪府,茨木市,上中条１丁目２－３１,,27,211,5670881,,,,,,,2025-01-14,1,,,,,リバーツリー,0
2035,8122003003092,新規,0,2025-01-14,2025-01-14,ＰＴＤ合同会社,,合同会社,大阪府,東大阪市,水走１丁目３－４５－２０８室,,27,227,5780921,,,,,,,2025-01-14,1,,,,,ピーティーディー,0
2040,8130001078750,新規,0,2025-01-14,2025-01-14,火吉櫻株式会社,,株式会社,京都府,京都市右京区,西院春日町１０番地２,,26,108,6150015,,,,,,,2025-01-14,1,,,,,ヒヨシザクラ,0
2055,8180001164827,新規,0,2025-01-14,2025-01-14,株式会社マインドフルサポート,,株式会社,愛知県,岩倉市,栄町２丁目５３番地３０３号,,23,228,4820022,,,,,,,2025-01-14,1,,,,,マインドフルサポート,0
2056,8180001164942,新規,0,2025-01-14,2025-01-14,株式会社ＮＬＳ,,株式会社,愛知県,名古屋市中村区,森末町４丁目１０２番地,,23,105,4530052,,,,,,,2025-01-14,1,,,,,エヌエルエス,0
2064,8180305009645,新規,0,2025-01-14,2025-01-14,一般社団法人ＣＯＬＯＲＦＵＬ　ＣＡＲＥ,,その他の設立登記法人,愛知県,刈谷市,東境町緑ケ丘６３番地４,,23,210,4480007,,,,,,,2025-01-14,1,,,,,カラフルケア,0
2067,8190001031935,新規,0,2025-01-14,2025-01-14,株式会社片岡建築,,株式会社,三重県,員弁郡東員町,大字長深３０５３番地４,,24,324,5110255,,,,,,,2025-01-14,1,,,,,カタオカ,0
2069,8200001043326,新規,0,2025-01-14,2025-01-14,岐阜寺院企画株式会社,,株式会社,岐阜県,揖斐郡大野町,大字稲富１３００番地,,21,403,5010501,,,,,,,2025-01-14,1,,,,,ギフジインキカク,0
2073,8220001026428,新規,0,2025-01-14,2025-01-14,株式会社ＭＳＫ,,株式会社,石川県,能美市,松が岡４丁目６１番地,,17,211,9231225,,,,,,,2025-01-14,1,,,,,エムエスケー,0
2074,8230001020693,新規,0,2025-01-14,2025-01-14,オークスフラワー株式会社,,株式会社,富山県,富山市,中島２丁目３番８号,,16,201,9300801,,,,,,,2025-01-14,1,,,,,オークスフラワー,0
2075,8230001020702,新規,0,2025-01-14,2025-01-14,株式会社中田インシュレーション,,株式会社,富山県,富山市,田中町２丁目７番２０号,,16,201,9300985,,,,,,,2025-01-14,1,,,,,ナカダインシュレーション,0
2080,8240001064376,新規,0,2025-01-14,2025-01-14,株式会社ＷＨＩＴＥ　ＢＡＤＧＥ,,株式会社,広島県,広島市東区,尾長西１丁目８番２８号,,34,102,7320047,,,,,,,2025-01-14,1,,,,,ホワイトバッジ,0
2092,8290001108616,新規,0,2025-01-14,2025-01-14,株式会社ｎｏｍａｔｔｅｒ,,株式会社,福岡県,那珂川市,大字不入道２７７番地２,,40,231,8111231,,,,,,,2025-01-14,1,,,,,ノーマター,0
2094,8290801031190,新規,0,2025-01-14,2025-01-14,ＳＧＰ株式会社,,株式会社,福岡県,田川郡添田町,大字添田１０７３番地の８,,40,602,8240602,,,,,,,2025-01-14,1,,,,,エスジーピー,0
2099,8320001020890,新規,0,2025-01-14,2025-01-14,株式会社五郎丸,,株式会社,大分県,佐伯市,蒲江大字畑野浦２９４５番地,,44,205,8762201,,,,,,,2025-01-14,1,,,,,ゴロウマル,0
2102,8330003010732,新規,0,2025-01-14,2025-01-14,合同会社ＳＵＢＡＲＵ,,合同会社,熊本県,熊本市北区,植木町一木２１番地１,,43,105,8610135,,,,,,,2025-01-14,1,,,,,スバル,0
2108,8350001019336,新規,0,2025-01-14,2025-01-14,株式会社ＰＳＲ,,株式会社,宮崎県,宮崎市,中央通６－５ウエストビル２Ｆ,,45,201,8800002,,,,,,,2025-01-14,1,,,,,ピーエスアール,0
2112,8370001052129,新規,0,2025-01-14,2025-01-14,株式会社石巻スクールランチパートナーズ,,株式会社,宮城県,石巻市,大街道南４丁目２番１２号,,04,202,9860856,,,,,,,2025-01-14,1,,,,,イシノマキスクールランチパートナーズ,0
2122,8430001093471,新規,0,2025-01-14,2025-01-14,鶴雅ワイン＆ファーム株式会社,,株式会社,北海道,有珠郡壮瞥町,字壮瞥温泉８８番地２６,,01,575,0520103,,,,,,,2025-01-14,1,,,,,ツルガワインアンドファーム,0
2130,8500001026093,新規,0,2025-01-14,2025-01-14,株式会社川端自動車,,株式会社,愛媛県,松山市,下難波甲１４６番地４,,38,201,7992407,,,,,,,2025-01-14,1,,,,,カワバタジドウシャ,0
2144,9010001251293,新規,0,2025-01-14,2025-01-14,ＥＳＳＥＮＣＥ　Ｐｒｏｐｅｒｔｙ＆Ｄｅｓｉｇｎ株式会社,,株式会社,東京都,中央区,京橋２丁目２番１号京橋エドグラン２６Ｆ,,13,102,1040031,,,,,,,2025-01-14,1,,,,,エッセンスプロパティアンドデザイン,0
2145,9010001251327,新規,0,2025-01-14,2025-01-14,オンＪＯＢ出版株式会社,,株式会社,東京都,中央区,日本橋小舟町８番１３号天翔日本橋ビル４階,,13,102,1030024,,,,,,,2025-01-14,1,,,,,オンジョブシュッパン,0
2146,9010001251351,新規,0,2025-01-14,2025-01-14,株式会社ＩＮＴＥＣＨＴ,,株式会社,東京都,千代田区,丸の内２丁目３－２郵船ビルディング１階,,13,101,1000005,,,,,,,2025-01-14,1,,,,,インテクト,0
2149,9010003045917,新規,0,2025-01-14,2025-01-14,合同会社Ｈｅａｖｙ　Ｒｅｓｃｕｅ　Ｊａｐａｎ,,合同会社,東京都,千代田区,神田須田町１丁目７番８号ＶＯＲＴ秋葉原ＩＶ２Ｆ,00137626,13,101,1010041,,,,,,,2025-01-14,1,,,,,ヘビーレスキュージャパン,0
2150,9010003045999,新規,0,2025-01-14,2025-01-14,パンダマン商貿合同会社,,合同会社,東京都,千代田区,六番町１５番２号,,13,101,1020085,,,,,,,2025-01-14,1,,,,,パンダマンショウボウ,0
2151,9010005039396,新規,0,2025-01-14,2025-01-14,東池袋プロパティー特定目的会社,,その他の設立登記法人,東京都,千代田区,丸の内１丁目１１番１号,,13,101,1000005,,,,,,,2025-01-14,1,,,,,ヒガシイケブクロプロパティー,0
2161,9010401187492,新規,0,2025-01-14,2025-01-14,株式会社ＳＯＬＵＮＡ,,株式会社,東京都,港区,北青山１丁目３番１号アールキューブ青山３階,,13,103,1070061,,,,,,,2025-01-14,1,,,,,ソルナ,0
2162,9010401187567,新規,0,2025-01-14,2025-01-14,株式会社リンドインベスト,,株式会社,東京都,港区,赤坂９丁目６番３９－５０２号,,13,103,1070052,,,,,,,2025-01-14,1,,,,,リンドインベスト,0
2163,9010403034148,新規,0,2025-01-14,2025-01-14,合同会社とろたく,,合同会社,東京都,港区,赤坂９丁目１番２－５０９号,,13,103,1070052,,,,,,,2025-01-14,1,,,,,トロタク,0
2166,9010501053462,新規,0,2025-01-14,2025-01-14,株式会社Ｔｏｍｍｙ　Ｓｅｗｉｎｇ,,株式会社,東京都,台東区,東浅草２丁目１０番１号,,13,106,1110025,,,,,,,2025-01-14,1,,,,,トミィソーイング,0
2169,9010503007689,新規,0,2025-01-14,2025-01-14,Ｂｅａｕｔｙ　Ｅｎｊｏｙ合同会社,,合同会社,東京都,台東区,浅草橋４丁目７番２号,,13,106,1110053,,,,,,,2025-01-14,1,,,,,ビューティーインジョイ,0
2170,9010503007706,新規,0,2025-01-14,2025-01-14,合同会社ＢｒａｎｄｎｅｗＣＲＥＡ,,合同会社,東京都,台東区,上野６丁目１番６号御徒町グリーンハイツ１００５号,,13,106,1100005,,,,,,,2025-01-14,1,,,,,ブランニュークレア,0
2173,9010601066579,新規,0,2025-01-14,2025-01-14,株式会社ＣＲＥＡＶＥＣ,,株式会社,東京都,墨田区,錦糸１丁目２番１号１４階,,13,107,1300013,,,,,,,2025-01-14,1,,,,,クリーベック,0
2176,9010801035739,新規,0,2025-01-14,2025-01-14,株式会社安永技研,,株式会社,東京都,大田区,北糀谷１丁目２２番２１号,,13,111,1440032,,,,,,,2025-01-14,1,,,,,ヤスナガギケン,0
2180,9010901056627,新規,0,2025-01-14,2025-01-14,Ａｌｔｉｏｒａ　Ｍａｎａｇｅｍｅｎｔ株式会社,,株式会社,東京都,世田谷区,奥沢１丁目５番１３号,,13,112,1580083,,,,,,,2025-01-14,1,,,,,アルティオラマネジメント,0
2181,9010901056635,新規,0,2025-01-14,2025-01-14,株式会社ＢｌｕｅＬｉｎｃ,,株式会社,東京都,世田谷区,赤堤３丁目１２－２２,,13,112,1560044,,,,,,,2025-01-14,1,,,,,ブルーリンク,0
2182,9010903009608,新規,0,2025-01-14,2025-01-14,ＷａｔｅｒＢａｎｋ合同会社,,合同会社,東京都,世田谷区,経堂５丁目３８番２９－１０６号,,13,112,1560052,,,,,,,2025-01-14,1,,,,,ウォーターバンク,0
2185,9011001166853,新規,0,2025-01-14,2025-01-14,Ａ．Ｋ．Ｉｎｔｅｒｎａｔｉｏｎａｌ株式会社,,株式会社,東京都,渋谷区,渋谷２丁目１９番１５号宮益坂ビルディング６０９,,13,113,1500002,,,,,,,2025-01-14,1,,,,,エーケーインターナショナル,0
2186,9011001167067,新規,0,2025-01-14,2025-01-14,株式会社ＴＨＥ　ＥＬＲＩＣ,,株式会社,東京都,渋谷区,幡ヶ谷３丁目２番６号,,13,113,1510072,,,,,,,2025-01-14,1,,,,,ジエルリック,0
2190,9011003020736,新規,0,2025-01-14,2025-01-14,ＲＩＢＥＳＴＡ合同会社,,合同会社,東京都,渋谷区,神南１丁目１２－１４宮田ビル６，７，８階,,13,113,1500041,,,,,,,2025-01-14,1,,,,,リベスタ,0
2191,9011003020769,新規,0,2025-01-14,2025-01-14,ボルテックス合同会社,,合同会社,東京都,目黒区,下目黒１丁目３番８号目黒行人坂ハイツ３０１,,13,110,1530064,,,,,,,2025-01-14,1,,,,,ボルテックス,0
2200,9011501031532,新規,0,2025-01-14,2025-01-14,＿美旅行株式会社,00137618,株式会社,東京都,荒川区,東日暮里３丁目２６－１２－６０１号室,,13,118,1160014,,,,,,,2025-01-14,1,,,,,タイビリョコウ,0
2202,9011601028354,新規,0,2025-01-14,2025-01-14,株式会社ＯＮＥＢＬＯＯＭ,,株式会社,東京都,練馬区,練馬３丁目２３番１号ベルデ４１０,,13,120,1760001,,,,,,,2025-01-14,1,,,,,ワンブルーム,0
2203,9011705001868,新規,0,2025-01-14,2025-01-14,農事組合法人Ｄ１,,その他の設立登記法人,東京都,江戸川区,北葛西２丁目１６番６号サニーコート北葛西ＩＩＩ１０７,00137625,13,123,1340081,,,,,,,2025-01-14,1,,,,,ディーワン,0
2205,9011801045430,新規,0,2025-01-14,2025-01-14,株式会社ソリッド,,株式会社,東京都,葛飾区,東四つ木２丁目２番７号,,13,122,1240014,,,,,,,2025-01-14,1,,,,,ソリッド,0
2206,9011803006637,新規,0,2025-01-14,2025-01-14,Ｏｎｅ’ｓアドバイザリー合同会社,,合同会社,東京都,足立区,加平１丁目１９番１３－３０８号,,13,121,1210055,,,,,,,2025-01-14,1,,,,,ワンズアドバイザリー,0
2210,9012801023681,新規,0,2025-01-14,2025-01-14,株式会社ＨａｒｍｏｎｙＨｏｍｅ’ｓ,,株式会社,東京都,昭島市,福島町２丁目２８番２０号立川酸素ビル２Ｆ,,13,207,1960031,,,,,,,2025-01-14,1,,,,,,0
2213,9020001160816,新規,0,2025-01-14,2025-01-14,ＬｕｐｉａＳＵ株式会社,,株式会社,神奈川県,横浜市中区,伊勢佐木町１丁目３番地１第一イセビル３０５,,14,104,2310045,,,,,,,2025-01-14,1,,,,,ルピアス,0
2223,9030001164130,新規,0,2025-01-14,2025-01-14,Ｍｙａｎｍａｒ　Ｐａｌａｃｅ株式会社,,株式会社,埼玉県,白岡市,太田新井４０５番地２０,,11,246,3490225,,,,,,,2025-01-14,1,,,,,ミャンマーパレス,0
2224,9030001164337,新規,0,2025-01-14,2025-01-14,株式会社新岡工業,,株式会社,埼玉県,草加市,金明町７２５番地１ベルドゥムール草加金明通り２０７号,,11,221,3400052,,,,,,,2025-01-14,1,,,,,ニイオカコウギョウ,0
2225,9030001164345,新規,0,2025-01-14,2025-01-14,株式会社ＥＮＡＫＯ,,株式会社,埼玉県,坂戸市,大字塚越４６番地３,,11,239,3500209,,,,,,,2025-01-14,1,,,,,エナコ,0
2226,9030001164353,新規,0,2025-01-14,2025-01-14,株式会社Ｉ・Ｂ・Ｃ,,株式会社,埼玉県,狭山市,大字南入曽４１９番地の１９,,11,215,3501316,,,,,,,2025-01-14,1,,,,,アイビーシー,0
2232,9030003025850,新規,0,2025-01-14,2025-01-14,合同会社ｃｒｅｓｔｅｄ,,合同会社,埼玉県,蕨市,中央６丁目１５番３０号,,11,223,3350004,,,,,,,2025-01-14,1,,,,,クレステッド,0
2233,9030003025867,新規,0,2025-01-14,2025-01-14,合同会社ＬＵＣＫ,,合同会社,埼玉県,川越市,砂新田３丁目３２－２,,11,201,3501137,,,,,,,2025-01-14,1,,,,,ラック,0
2235,9040001136863,新規,0,2025-01-14,2025-01-14,テイカギン企画株式会社,,株式会社,千葉県,市川市,鬼高２丁目１１番１２－５０１号,,12,203,2720015,,,,,,,2025-01-14,1,,,,,テイカギンキカク,0
2236,9040001136938,新規,0,2025-01-14,2025-01-14,株式会社ｗｉｔｈ,,株式会社,千葉県,習志野市,津田沼５丁目６－１４松本ビル２Ｆ,,12,216,2750016,,,,,,,2025-01-14,1,,,,,ウィズ,0
2237,9040001136970,新規,0,2025-01-14,2025-01-14,株式会社丸晃,,株式会社,千葉県,君津市,賀恵渕３７３番地５,,12,225,2920404,,,,,,,2025-01-14,1,,,,,マルコウ,0
2240,9040003026575,新規,0,2025-01-14,2025-01-14,星旺合同会社,,合同会社,千葉県,松戸市,小山３－３－４０２ジュネパレス松戸第９７,,12,207,2710093,,,,,,,2025-01-14,1,,,,,セイオウ,0
2242,9050001055971,新規,0,2025-01-14,2025-01-14,株式会社ライフアップ,,株式会社,茨城県,北相馬郡利根町,大字布川２９９４番地,,08,564,3001622,,,,,,,2025-01-14,1,,,,,ライフアップ,0
2243,9050001056004,新規,0,2025-01-14,2025-01-14,株式会社ヨシクン,,株式会社,茨城県,水戸市,住吉町８９番地の３,,08,201,3100844,,,,,,,2025-01-14,1,,,,,ヨシクン,0
2244,9050001056012,新規,0,2025-01-14,2025-01-14,株式会社アーキ・アライブ,,株式会社,茨城県,水戸市,白梅４丁目１－１６－１０２,,08,201,3100804,,,,,,,2025-01-14,1,,,,,アーキアライブ,0
2246,9060001037820,新規,0,2025-01-14,2025-01-14,城南さく泉株式会社,,株式会社,栃木県,小山市,大字横倉１３４６番地５,,09,208,3230813,,,,,,,2025-01-14,1,,,,,ジョウナンサクセン,0
2251,9080003003372,新規,0,2025-01-14,2025-01-14,合同会社アイエスアール,,合同会社,静岡県,静岡市葵区,鷹匠ニ丁目４番８－４０６号,,22,101,4220000,,,,,,,2025-01-14,1,,,,,アイエスアール,0
2253,9080101025228,新規,0,2025-01-14,2025-01-14,株式会社Ｎａｒｃ,,株式会社,静岡県,田方郡函南町,畑字小草切５２７番地４３５,,22,325,4190104,,,,,,,2025-01-14,1,,,,,,0
2258,9090001019080,新規,0,2025-01-14,2025-01-14,株式会社ＯＰＵＳ,,株式会社,山梨県,北杜市,小淵沢町１０１５３番地,,19,209,4080044,,,,,,,2025-01-14,1,,,,,オプス,0
2264,9110001038986,新規,0,2025-01-14,2025-01-14,八幡モータース株式会社,,株式会社,新潟県,村上市,碁石８８８番地,,15,212,9593941,,,,,,,2025-01-14,1,,,,,ヤワタモータース,0
2276,9120001271743,新規,0,2025-01-14,2025-01-14,株式会社ミライベース,,株式会社,大阪府,大阪市北区,曾根崎２丁目１５番２４号曽根崎東ビル９Ｆ,,27,127,5300057,,,,,,,2025-01-14,1,,,,,ミライベース,0
2277,9120001271801,新規,0,2025-01-14,2025-01-14,株式会社Ｍ’ｓコネクト,,株式会社,大阪府,大阪市西成区,橘３丁目１４番１１号,,27,122,5570051,,,,,,,2025-01-14,1,,,,,エムズコネクト,0
2283,9120101070871,新規,0,2025-01-14,2025-01-14,Ｒｅｃｏｈｅｌｐ株式会社,,株式会社,大阪府,堺市堺区,砂道町１丁７番２０号,,27,141,5900002,,,,,,,2025-01-14,1,,,,,リコヘルプ,0
2284,9120101070888,新規,0,2025-01-14,2025-01-14,株式会社オンワーク,,株式会社,大阪府,堺市堺区,中安井町３丁３番９号,,27,141,5900063,,,,,,,2025-01-14,1,,,,,オンワーク,0
2285,9120101070896,新規,0,2025-01-14,2025-01-14,株式会社山崎樹脂,,株式会社,大阪府,岸和田市,山直中町４７９番地,,27,202,5960102,,,,,,,2025-01-14,1,,,,,ヤマザキジュシ,0
2288,9122003003083,新規,0,2025-01-14,2025-01-14,ａｋｕｒａ合同会社,,合同会社,大阪府,東大阪市,鴻池町２丁目５番１－２０１号,,27,227,5780972,,,,,,,2025-01-14,1,,,,,アクラ,0
2289,9122003003091,新規,0,2025-01-14,2025-01-14,青竹合同会社,,合同会社,大阪府,東大阪市,水走１丁目３－４５－２０７室,,27,227,5780921,,,,,,,2025-01-14,1,,,,,アオタケ,0
2292,9130001078758,新規,0,2025-01-14,2025-01-14,株式会社ＳＵＳｋｅｎ,,株式会社,京都府,京都市伏見区,北寝小屋町３１番地エイテルフラッツ１－Ｃ号,,26,109,6128388,,,,,,,2025-01-14,1,,,,,サスケン,0
2298,9140005027339,新規,0,2025-01-14,2025-01-14,医療法人社団米澤デンタルクリニック,,その他の設立登記法人,兵庫県,明石市,山下町７番２０号,,28,203,6730878,,,,,,,2025-01-14,1,,,,,ヨネザワデンタルクリニック,0
2303,9170001018446,新規,0,2025-01-14,2025-01-14,株式会社ＦＰ‐Ｌａｎｄ,,株式会社,和歌山県,田辺市,上秋津４６７４番地,,30,206,6460001,,,,,,,2025-01-14,1,,,,,エフピーランド,0
2306,9180001164974,新規,0,2025-01-14,2025-01-14,株式会社サンラックスホールディングス,,株式会社,愛知県,名古屋市南区,七条町１丁目２番地,,23,112,4570854,,,,,,,2025-01-14,1,,,,,サンラックスホールディングス,0
2307,9180001164982,新規,0,2025-01-14,2025-01-14,キャリアアップ株式会社,,株式会社,愛知県,一宮市,牛野通４丁目１５ｓｈａｒｅ－ｉ１１２,,23,203,4910846,,,,,,,2025-01-14,1,,,,,キャリアアップ,0
2309,9200001043325,新規,0,2025-01-14,2025-01-14,株式会社わいとおいと,,株式会社,岐阜県,大垣市,赤花町１丁目２６番地１,,21,202,5030013,,,,,,,2025-01-14,1,,,,,ワイトオイト,0
2314,9220001026419,新規,0,2025-01-14,2025-01-14,株式会社ワシノ,,株式会社,石川県,小松市,平面町へ１８２番地,,17,203,9230036,,,,,,,2025-01-14,1,,,,,ワシノ,0
2315,9220001026427,新規,0,2025-01-14,2025-01-14,株式会社エクサハッシュセキュリティ,,株式会社,石川県,金沢市,三口町金１０４番地１２,,17,201,9200018,,,,,,,2025-01-14,1,,,,,エクサハッシュセキュリティ,0
2317,9220003003928,新規,0,2025-01-14,2025-01-14,合同会社野澤瓦店,,合同会社,石川県,七尾市,矢田町ヤ部２２番地５２,,17,202,9260014,,,,,,,2025-01-14,1,,,,,ノザワカワラテン,0
2320,9240001064367,新規,0,2025-01-14,2025-01-14,株式会社Ｋ・ｍｉｎｄ,,株式会社,広島県,広島市中区,本通７番２９号,,34,101,7300035,,,,,,,2025-01-14,1,,,,,ケイマインド,0
2323,9260001039796,新規,0,2025-01-14,2025-01-14,株式会社ほそや防水工業,,株式会社,岡山県,備前市,東片上１２９６番地２,,33,211,7050022,,,,,,,2025-01-14,1,,,,,ホソヤボウスイコウギョウ,0
2325,9260003005029,新規,0,2025-01-14,2025-01-14,合同会社Ｃａｎ,,合同会社,岡山県,岡山市中区,中井２丁目６番２２－１号,,33,102,7038205,,,,,,,2025-01-14,1,,,,,キャン,0
2326,9270001009121,新規,0,2025-01-14,2025-01-14,株式会社ティーケイエス,,株式会社,鳥取県,米子市,米原１丁目１０番２２号,,31,202,6830804,,,,,,,2025-01-14,1,,,,,ティーケイエス,0
2327,9270003001704,新規,0,2025-01-14,2025-01-14,合同会社Ｓｏｕｒｉｒｅ,,合同会社,鳥取県,鳥取市,安長２７１番地１１,,31,201,6800913,,,,,,,2025-01-14,1,,,,,,0
2335,9290001108474,新規,0,2025-01-14,2025-01-14,松山株式会社,,株式会社,福岡県,福岡市東区,馬出４丁目４番２５号エーデル箱崎１０２号,,40,131,8120054,,,,,,,2025-01-14,1,,,,,マツヤマ,0
2336,9290001108598,新規,0,2025-01-14,2025-01-14,株式会社Ｔ‐ＬＥＧＥＮＤ,,株式会社,福岡県,福岡市早良区,原５丁目１７番２,,40,137,8140022,,,,,,,2025-01-14,1,,,,,ティーレジェンド,0
2345,9300001014051,新規,0,2025-01-14,2025-01-14,株式会社アーネスト,,株式会社,佐賀県,西松浦郡有田町,黒牟田丙３２８９番地４０,,41,401,8440022,,,,,,,2025-01-14,1,,,,,アーネスト,0
2347,9310001019405,新規,0,2025-01-14,2025-01-14,株式会社富川オートサービス,,株式会社,長崎県,五島市,下大津町７２２番地３,,42,211,8530011,,,,,,,2025-01-14,1,,,,,トミカワオートサービス,0
2352,9350003004822,新規,0,2025-01-14,2025-01-14,合同会社大和,,合同会社,宮崎県,小林市,堤２８７８番地１サンローゼ堤ＩＩ－Ｆ棟,00137617,45,205,8860003,,,,,,,2025-01-14,1,,,,,ヤマト,0
2356,9360001034647,新規,0,2025-01-14,2025-01-14,株式会社アンリミテッド,,株式会社,沖縄県,八重山郡竹富町,字南風見２０１番１２５,,47,381,9071434,,,,,,,2025-01-14,1,,,,,アンリミテッド,0
2358,9370001052094,新規,0,2025-01-14,2025-01-14,フジビューロ株式会社,,株式会社,宮城県,仙台市若林区,なないろの里１丁目１８番地の１４,,04,103,9840017,,,,,,,2025-01-14,1,,,,,フジビューロ,0
2368,9420001018973,新規,0,2025-01-14,2025-01-14,株式会社からあげ屋さん,,株式会社,青森県,八戸市,大字白銀町字左岩淵通２９番地６,,02,203,0310822,,,,,,,2025-01-14,1,,,,,カラアゲヤサン,0
2378,9490001010932,新規,0,2025-01-14,2025-01-14,株式会社北岡ホールディングス,,株式会社,高知県,高知市,幸町１５番７号,,39,201,7800045,,,,,,,2025-01-14,1,,,,,キタオカホールディングス,0
2383,9700150128669,新規,0,2025-01-14,2025-01-14,ＳＨＩＮＥ　ＷＯＲＬＤ　ＨＯＬＤＩＮＧＳ　ＰＶＴ　ＬＴＤ,,外国会社等,三重県,鈴鹿市,山本町４０番地８,,24,207,5190315,スリランカ民主社会主義共和国、クルネガラ、コロンボロード、Ｎｏ．６５／１,,,,,,2025-01-14,1,,,,,シヤインワールドホールデイングスプライベートリミテツド,0
