sequenceNumber,corporateNumber,process,correct,updateDate,changeDate,name,nameImageId,kind,prefectureName,cityName,streetNumber,addressImageId,prefectureCode,cityCode,postCode,addressOutside,addressOutsideImageId,closeDate,closeCause,successorCorporateNumber,changeCause,assignmentDate,latest,enName,enPrefectureName,enCityName,enAddressOutside,furigana,hihyoji
10,1010001238133,新規,0,2023-09-05,2023-09-05,ＬＩ　Ｈｏｌｄｉｎｇｓ株式会社,,株式会社,東京都,中央区,八丁堀１丁目３番９号坂根八重洲ビル３階,,13,102,1040032,,,,,,,2023-09-05,1,,,,,エルアイホールディングス,0
11,1010001238158,新規,0,2023-09-05,2023-09-05,みつる株式会社,,株式会社,東京都,千代田区,有楽町１丁目６番６号,,13,101,1000006,,,,,,,2023-09-05,1,,,,,ミツル,0
12,1010001238224,新規,0,2023-09-05,2023-09-05,株式会社サンカク総合研究所,,株式会社,東京都,中央区,晴海２丁目２番４２－４４２３号,,13,102,1040053,,,,,,,2023-09-05,1,,,,,サンカクソウゴウケンキュウジョ,0
14,1010003041576,新規,0,2023-09-05,2023-09-05,合同会社ｓｔｕｄｉｏ　Ｃｔｒｌ　ｚ,,合同会社,東京都,千代田区,神田和泉町１番地３の２サフランビル１号館５階,,13,101,1010024,,,,,,,2023-09-05,1,,,,,スタジオアンドゥ,0
16,1010005037218,新規,0,2023-09-05,2023-09-05,一般社団法人パールハウス１,,その他の設立登記法人,東京都,千代田区,丸の内３丁目１番１号東京共同会計事務所内,,13,101,1000005,,,,,,,2023-09-05,1,,,,,パールハウスワン,0
19,1010403030889,新規,0,2023-09-05,2023-09-05,合同会社セルポの実,,合同会社,東京都,港区,北青山１丁目３番１号アールキューブ青山３階,,13,103,1070061,,,,,,,2023-09-05,1,,,,,セルポノミ,0
20,1010405022422,新規,0,2023-09-05,2023-09-05,ＵＩ　Ａｎｐａｃｈｉ特定目的会社,,その他の設立登記法人,東京都,港区,元赤坂１丁目１番７号,,13,103,1070051,,,,,,,2023-09-05,1,,,,,ユーアイアンパチ,0
24,1010501050979,新規,0,2023-09-05,2023-09-05,株式会社たか建,,株式会社,東京都,台東区,千束２丁目５番１号,,13,106,1110031,,,,,,,2023-09-05,1,,,,,タカケン,0
25,1010505003446,新規,0,2023-09-05,2023-09-05,ＵＮＩＴＥ税理士法人,,その他の設立登記法人,東京都,台東区,上野５丁目１６番１６号天美ビル２階,,13,106,1100005,,,,,,,2023-09-05,1,,,,,ユナイト,0
28,1010601063708,新規,0,2023-09-05,2023-09-05,ホットカン東京国際株式会社,,株式会社,東京都,墨田区,墨田２丁目１１番１１号,,13,107,1310031,,,,,,,2023-09-05,1,,,,,ホットカントウキョウコクサイ,0
29,1010603010336,新規,0,2023-09-05,2023-09-05,合同会社ＳＲＭＡ,,合同会社,東京都,江東区,牡丹１丁目１３－６－４０３,,13,108,1350046,,,,,,,2023-09-05,1,,,,,エスアールエムエー,0
33,1010801034302,新規,0,2023-09-05,2023-09-05,株式会社ソウアンリープ,,株式会社,東京都,大田区,東矢口３丁目２番１号,,13,111,1460094,,,,,,,2023-09-05,1,,,,,ソウアンリープ,0
37,1010903008427,新規,0,2023-09-05,2023-09-05,合同会社Ｍａｓｈｕｐ　Ｂａｓｅ,,合同会社,東京都,世田谷区,太子堂１丁目１２－２７コンフォートテラス１００５号,,13,112,1540004,,,,,,,2023-09-05,1,,,,,マッシュアップベース,0
42,1011001156647,新規,0,2023-09-05,2023-09-05,株式会社ＰＲＯＪＥＣＴ　Ａ,,株式会社,東京都,渋谷区,道玄坂１丁目１０番８号渋谷道玄坂東急ビル２階－Ｃ,,13,113,1500043,,,,,,,2023-09-05,1,,,,,プロジェクトエー,0
43,1011001156738,新規,0,2023-09-05,2023-09-05,株式会社ＹＡＡＤ,,株式会社,東京都,渋谷区,代々木３丁目１－３プラムガーデン４０１,,13,113,1510053,,,,,,,2023-09-05,1,,,,,ヤード,0
44,1011003017491,新規,0,2023-09-05,2023-09-05,合同会社アルク,,合同会社,東京都,渋谷区,渋谷２丁目１９－１５宮益坂ビルディング６０９,,13,113,1500002,,,,,,,2023-09-05,1,,,,,アルク,0
49,1011101104167,新規,0,2023-09-05,2023-09-05,株式会社ｂｋ　ｃｏｒｐｏｒａｔｉｏｎ,,株式会社,東京都,新宿区,西新宿３丁目３番１３号西新宿水間ビル６階,,13,104,1600023,,,,,,,2023-09-05,1,,,,,ビーケーコーポレーション,0
52,1011201024892,新規,0,2023-09-05,2023-09-05,フロントソニック株式会社,,株式会社,東京都,中野区,中央５丁目８番１４号,,13,114,1640011,,,,,,,2023-09-05,1,,,,,フロントソニック,0
55,1011501029708,新規,0,2023-09-05,2023-09-05,攀達株式会社,,株式会社,東京都,荒川区,東尾久４丁目２５番２－４０１号,,13,118,1160012,,,,,,,2023-09-05,1,,,,,ハンタツ,0
56,1011501029724,新規,0,2023-09-05,2023-09-05,株式会社ＣＯＳＭＯ　ＪＡＰＡＮ,,株式会社,東京都,荒川区,東日暮里５丁目４８番３－３０５号レジェンド日暮里,,13,118,1160014,,,,,,,2023-09-05,1,,,,,コスモジャパン,0
57,1011503005748,新規,0,2023-09-05,2023-09-05,アリガトール合同会社,,合同会社,東京都,北区,上中里１丁目９番６号,,13,117,1140016,,,,,,,2023-09-05,1,,,,,アリガトール,0
58,1011603004039,新規,0,2023-09-05,2023-09-05,合同会社内田会計社,,合同会社,東京都,練馬区,石神井町７丁目３番１０号,,13,120,1770041,,,,,,,2023-09-05,1,,,,,ウチダカイケイシャ,0
60,1011701026562,新規,0,2023-09-05,2023-09-05,株式会社テンプロテクト,,株式会社,東京都,江戸川区,南小岩５丁目６番８号,,13,123,1330056,,,,,,,2023-09-05,1,,,,,テンプロテクト,0
61,1011701026570,新規,0,2023-09-05,2023-09-05,株式会社ＳｅａＷａｖｅ,,株式会社,東京都,江戸川区,西小岩２丁目１９番９－７０３号ルネサンス西小岩,,13,123,1330057,,,,,,,2023-09-05,1,,,,,シーウェーブ,0
67,1011801042988,新規,0,2023-09-05,2023-09-05,株式会社ＭＴＷ,,株式会社,東京都,葛飾区,南水元２丁目２８－６,,13,122,1250035,,,,,,,2023-09-05,1,,,,,エムティーダブリュ,0
70,1012401040960,新規,0,2023-09-05,2023-09-05,株式会社ｅｎ　ｗｉｎｇｓ,,株式会社,東京都,武蔵野市,吉祥寺本町２丁目８番４号ｉ－ｏｆｆｉｃｅ吉祥寺,,13,203,1800004,,,,,,,2023-09-05,1,,,,,エンウィングス,0
71,1012801022617,新規,0,2023-09-05,2023-09-05,株式会社Ｍａｍｅｋｉ,,株式会社,東京都,立川市,高松町２丁目２５番２号,,13,202,1900011,,,,,,,2023-09-05,1,,,,,マメキ,0
80,1020001153158,新規,0,2023-09-05,2023-09-05,ＤＥＣＩＳＩＯＮ株式会社,,株式会社,神奈川県,川崎市幸区,塚越３丁目１４１番地１２,,14,132,2120024,,,,,,,2023-09-05,1,,,,,ディシジョン,0
81,1020001153298,新規,0,2023-09-05,2023-09-05,株式会社Ｆ．Ｅ．Ｌ,,株式会社,神奈川県,川崎市麻生区,千代ケ丘５丁目５番地１７,,14,137,2150005,,,,,,,2023-09-05,1,,,,,エフイーエル,0
82,1020001153397,新規,0,2023-09-05,2023-09-05,伊藤園株式会社,,株式会社,神奈川県,横浜市中区,不老町１丁目１－１１－７ＦＣ号室,,14,104,2310032,,,,,,,2023-09-05,1,,,,,イトウエン,0
86,1020003024514,新規,0,2023-09-05,2023-09-05,合同会社ウシゾー,,合同会社,神奈川県,横浜市港南区,上永谷１丁目２５番１６号レオパレス上永谷第５・１０２号,,14,111,2330012,,,,,,,2023-09-05,1,,,,,ウシゾー,0
87,1020003024530,新規,0,2023-09-05,2023-09-05,合同会社イーブランドジャパン,,合同会社,神奈川県,横浜市南区,中島町４丁目６８―１４,,14,105,2320055,,,,,,,2023-09-05,1,,,,,イーブランドジャパン,0
94,1021005012886,新規,0,2023-09-05,2023-09-05,一般社団法人夢・Ｄｒｅａｍキッチンカー協会,,その他の設立登記法人,神奈川県,横須賀市,浦賀１丁目５番９号,,14,201,2390822,,,,,,,2023-09-05,1,,,,,ユメドリームキッチンカーキョウカイ,0
111,1040003023233,新規,0,2023-09-05,2023-09-05,合同会社リブラエステート,,合同会社,千葉県,市川市,平田３丁目１８番１７号,,12,203,2720031,,,,,,,2023-09-05,1,,,,,リブラエステート,0
114,1050003007763,新規,0,2023-09-05,2023-09-05,真和鋼材合同会社,,合同会社,茨城県,取手市,山王１６５４番地,,08,217,3001544,,,,,,,2023-09-05,1,,,,,シンワコウザイ,0
116,1070001040814,新規,0,2023-09-05,2023-09-05,株式会社ＡＷＡＮ　ＴＲＡＤＥＲＳ,,株式会社,群馬県,邑楽郡邑楽町,大字赤堀４０３５番地２階－６,,10,525,3700614,,,,,,,2023-09-05,1,,,,,アワントレーダーズ,0
117,1070001040822,新規,0,2023-09-05,2023-09-05,Ｊｉｚｚａｉ株式会社,,株式会社,群馬県,高崎市,下小鳥町３４－１１,,10,202,3700074,,,,,,,2023-09-05,1,,,,,ジザイ,0
119,1070005010169,新規,0,2023-09-05,2023-09-05,弁護士法人石原・関・猿谷法律事務所,,その他の設立登記法人,群馬県,前橋市,大手町３丁目４番１６号,,10,201,3710026,,,,,,,2023-09-05,1,,,,,イシハラセキサルヤホウリツジムショ,0
121,1080001025847,新規,0,2023-09-05,2023-09-05,株式会社ヨネマス,,株式会社,静岡県,静岡市葵区,北安東３丁目５番１９号,,22,101,4200881,,,,,,,2023-09-05,1,,,,,ヨネマス,0
126,1080401026701,新規,0,2023-09-05,2023-09-05,株式会社Ｔ．Ｋ．エンジニア,,株式会社,静岡県,磐田市,千手堂９４４番地２,,22,211,4380057,,,,,,,2023-09-05,1,,,,,ティケイエンジニア,0
135,1110001037822,新規,0,2023-09-05,2023-09-05,ふるまち不動産株式会社,,株式会社,新潟県,新潟市中央区,一番堀通町５０５番地１,,15,103,9518132,,,,,,,2023-09-05,1,,,,,フルマチフドウサン,0
148,1120001257329,新規,0,2023-09-05,2023-09-05,和の風株式会社,,株式会社,大阪府,大阪市天王寺区,生玉町９－１６サメジマビル５Ｆ,,27,109,5430071,,,,,,,2023-09-05,1,,,,,ワノカゼ,0
149,1120001257601,新規,0,2023-09-05,2023-09-05,靈川株式会社,,株式会社,大阪府,大阪市平野区,平野馬場１丁目５番２５号,,27,126,5470048,,,,,,,2023-09-05,1,,,,,レイセン,0
150,1120001257709,新規,0,2023-09-05,2023-09-05,レイズカンパニー株式会社,,株式会社,大阪府,大阪市西区,西本町２丁目１番４１号,,27,106,5500005,,,,,,,2023-09-05,1,,,,,レイズカンパニー,0
151,1120001257790,新規,0,2023-09-05,2023-09-05,ＩＮＯ　ＢＡＫＥ株式会社,,株式会社,大阪府,大阪市北区,南森町２丁目４番１２号,,27,127,5300054,,,,,,,2023-09-05,1,,,,,イノベイク,0
152,1120001257816,新規,0,2023-09-05,2023-09-05,株式会社フットビルド,,株式会社,大阪府,守口市,桜町４番１７号,,27,209,5700027,,,,,,,2023-09-05,1,,,,,フットビルド,0
153,1120001257849,新規,0,2023-09-05,2023-09-05,株式会社ＨＫＨ,,株式会社,大阪府,大阪市浪速区,難波中３丁目１６番３号,,27,111,5560011,,,,,,,2023-09-05,1,,,,,エイチケーエイチ,0
154,1120001257907,新規,0,2023-09-05,2023-09-05,株式会社阿部機工,,株式会社,大阪府,大阪市此花区,高見１丁目６番２１－４０７号,,27,104,5540001,,,,,,,2023-09-05,1,,,,,アベキコウ,0
161,1120005023867,新規,0,2023-09-05,2023-09-05,一司法書士法人,,その他の設立登記法人,大阪府,大阪市淀川区,東三国５丁目７番４号２Ｆ,,27,123,5320002,,,,,,,2023-09-05,1,,,,,イチ,0
169,1122001037322,新規,0,2023-09-05,2023-09-05,稼軒株式会社,,株式会社,大阪府,八尾市,大竹７丁目１６９番地,,27,212,5810854,,,,,,,2023-09-05,1,,,,,カケン,0
170,1122003002654,新規,0,2023-09-05,2023-09-05,大阪蓄電池事業１合同会社,,合同会社,大阪府,大東市,大字龍間９４３番地の１,,27,218,5740012,,,,,,,2023-09-05,1,,,,,オオサカチクデンチジギョウイチ,0
183,1140001131432,新規,0,2023-09-05,2023-09-05,カクノウ株式会社,,株式会社,兵庫県,宝塚市,小林５丁目９番５４号,,28,214,6650034,,,,,,,2023-09-05,1,,,,,カクノウ,0
184,1140001131457,新規,0,2023-09-05,2023-09-05,ＡＣ　ＨＩＭＥＪＩ株式会社,,株式会社,兵庫県,姫路市,安田４丁目３６番地,,28,201,6700955,,,,,,,2023-09-05,1,,,,,エーシーヒメジ,0
185,1140001131465,新規,0,2023-09-05,2023-09-05,株式会社ｂｅｔｈｅＹＥＡＳＴ,,株式会社,兵庫県,神戸市垂水区,松風台１丁目７番２８号,,28,108,6550871,,,,,,,2023-09-05,1,,,,,ビーザイースト,0
186,1140001131481,新規,0,2023-09-05,2023-09-05,株式会社タフショット,,株式会社,兵庫県,神戸市灘区,畑原通２丁目２番２２－２号,,28,102,6570822,,,,,,,2023-09-05,1,,,,,タフショット,0
187,1140003019493,新規,0,2023-09-05,2023-09-05,合同会社かけはし出版,,合同会社,兵庫県,神戸市西区,学園東町５丁目１番地、５１３－３０２号,,28,111,6512102,,,,,,,2023-09-05,1,,,,,カケハシシュッパン,0
188,1140003019502,新規,0,2023-09-05,2023-09-05,合同会社つなぐ,,合同会社,兵庫県,三田市,三輪３丁目６番２８－１０１号,,28,219,6691513,,,,,,,2023-09-05,1,,,,,ツナグ,0
189,1140005026728,新規,0,2023-09-05,2023-09-05,学校法人神戸こども総合専門学院,,その他の設立登記法人,兵庫県,神戸市北区,山田町小部字東山５６－２,,28,109,6511101,,,,,,,2023-09-05,1,,,,,コウベコドモソウゴウセンモンガクイン,0
190,1150001026689,新規,0,2023-09-05,2023-09-05,株式会社タケノリ,,株式会社,奈良県,天理市,川原城町７８１番地２楠本第２ビル７０５,,29,204,6320016,,,,,,,2023-09-05,1,,,,,タケノリ,0
191,1150001026697,新規,0,2023-09-05,2023-09-05,アシストホーム株式会社,,株式会社,奈良県,奈良市,朱雀３丁目５番地の４,,29,201,6310806,,,,,,,2023-09-05,1,,,,,アシストホーム,0
192,1150003003050,新規,0,2023-09-05,2023-09-05,合同会社けしび,,合同会社,奈良県,奈良市,三条町４７５松田ビル２階,,29,201,6308244,,,,,,,2023-09-05,1,,,,,ケシビ,0
194,1160001025302,新規,0,2023-09-05,2023-09-05,株式会社ヒーローホーム,,株式会社,滋賀県,大津市,枝３丁目２番５０号,,25,201,5202275,,,,,,,2023-09-05,1,,,,,ヒーローホーム,0
195,1160001025310,新規,0,2023-09-05,2023-09-05,株式会社安土興業,,株式会社,滋賀県,大津市,大江６丁目４０番２４号,,25,201,5202141,,,,,,,2023-09-05,1,,,,,アヅチコウギョウ,0
201,1180001157861,新規,0,2023-09-05,2023-09-05,株式会社ＭＩＮＯＭＩＮ,,株式会社,愛知県,一宮市,西五城字中川田４番地３,,23,203,4940005,,,,,,,2023-09-05,1,,,,,ミノミン,0
202,1180001157960,新規,0,2023-09-05,2023-09-05,株式会社レッドリッチ,,株式会社,愛知県,名古屋市中区,栄３丁目２番３号名古屋日興証券ビル４階,,23,106,4600008,,,,,,,2023-09-05,1,,,,,レッドリッチ,0
203,1180003025686,新規,0,2023-09-05,2023-09-05,Ａ＆Ｅ設備設計室合同会社,,合同会社,愛知県,名古屋市中川区,高畑２丁目２番地,,23,110,4540911,,,,,,,2023-09-05,1,,,,,エーアンドイーセツビセッケイシツ,0
204,1180003025711,新規,0,2023-09-05,2023-09-05,合同会社エクスプライ,,合同会社,愛知県,名古屋市天白区,島田４丁目２４０２番地の４,,23,116,4680056,,,,,,,2023-09-05,1,,,,,エクスプライ,0
207,1180301037771,新規,0,2023-09-05,2023-09-05,株式会社ＱＮＫ,,株式会社,愛知県,西尾市,住崎６丁目５９番地４,,23,213,4450879,,,,,,,2023-09-05,1,,,,,キュエヌケイ,0
209,1190001030712,新規,0,2023-09-05,2023-09-05,株式会社キャラック,,株式会社,三重県,志摩市,阿児町鵜方１０４７番地６７,,24,215,5170501,,,,,,,2023-09-05,1,,,,,キャラック,0
211,1200001041674,新規,0,2023-09-05,2023-09-05,株式会社ＣＤＣ,,株式会社,岐阜県,岐阜市,長森本町１丁目２０番地１９,,21,201,5008228,,,,,,,2023-09-05,1,,,,,シーディーシー,0
212,1200001041690,新規,0,2023-09-05,2023-09-05,西電工株式会社,,株式会社,岐阜県,瑞穂市,居倉１２２番地１７,,21,216,5010302,,,,,,,2023-09-05,1,,,,,ニシデンコウ,0
214,1210001019447,新規,0,2023-09-05,2023-09-05,株式会社Ｒ＆Ｈアセットマネジメント,,株式会社,福井県,福井市,順化１丁目５番４号福井ファミリービル４０１号,,18,201,9100023,,,,,,,2023-09-05,1,,,,,アールアンドエイチアセットマネジメント,0
217,1220001025592,新規,0,2023-09-05,2023-09-05,株式会社ＶＩＡ,,株式会社,石川県,金沢市,茨木町６３番地ドリームいばらぎ１０１号室,,17,201,9200994,,,,,,,2023-09-05,1,,,,,ウィア,0
219,1230003002077,新規,0,2023-09-05,2023-09-05,合同会社七福,,合同会社,富山県,小矢部市,柳原７８番地,,16,209,9320807,,,,,,,2023-09-05,1,,,,,ナナフク,0
220,1240001062056,新規,0,2023-09-05,2023-09-05,ｅＭｏホールディングス株式会社,,株式会社,広島県,広島市中区,大手町２丁目１１番１０号ＮＨＫ広島放送センタービル１３階,,34,101,7300051,,,,,,,2023-09-05,1,,,,,イーエムオーホールディングス,0
221,1240001062080,新規,0,2023-09-05,2023-09-05,株式会社Ａｋａｒｉ,,株式会社,広島県,広島市中区,猫屋町４番２３－７０２号,,34,101,7300852,,,,,,,2023-09-05,1,,,,,アカリ,0
222,1240001062089,新規,0,2023-09-05,2023-09-05,株式会社アストラコンサルタント,,株式会社,広島県,広島市東区,中山上２丁目４１番２８号,,34,102,7320027,,,,,,,2023-09-05,1,,,,,アストラコンサルタント,0
223,1240001062097,新規,0,2023-09-05,2023-09-05,株式会社ベアーズインパクト,,株式会社,広島県,三原市,旭町２丁目６番３０号,,34,204,7230012,,,,,,,2023-09-05,1,,,,,ベアーズインパクト,0
226,1240003006283,新規,0,2023-09-05,2023-09-05,合同会社エクスシャフト,,合同会社,広島県,広島市佐伯区,五日市７丁目２番１１号,,34,108,7315127,,,,,,,2023-09-05,1,,,,,エクスシャフト,0
229,1260001038285,新規,0,2023-09-05,2023-09-05,ＵＤトラックス中四国株式会社,,株式会社,岡山県,岡山市北区,平野６３０番地の１,,33,101,7010151,,,,,,,2023-09-05,1,,,,,ユーディートラックスチュウシコク,0
230,1260001038293,新規,0,2023-09-05,2023-09-05,株式会社日也建設,,株式会社,岡山県,笠岡市,十一番町８番地１,,33,205,7140098,,,,,,,2023-09-05,1,,,,,ニチヤケンセツ,0
236,1290001102856,新規,0,2023-09-05,2023-09-05,株式会社ミライホールディングス,,株式会社,福岡県,福岡市東区,香椎駅東３丁目２８番４４号,,40,131,8130012,,,,,,,2023-09-05,1,,,,,ミライホールディングス,0
237,1290001102872,新規,0,2023-09-05,2023-09-05,株式会社エアフォルク,,株式会社,福岡県,福岡市南区,的場１丁目２４番４－１０３号,,40,134,8111314,,,,,,,2023-09-05,1,,,,,エアフォルク,0
238,1290001102914,新規,0,2023-09-05,2023-09-05,株式会社ＯＮＥ　ＰＬＵＳ,,株式会社,福岡県,福岡市博多区,諸岡４丁目３０番２４－３０１号,,40,132,8120894,,,,,,,2023-09-05,1,,,,,ワンプラス,0
239,1290001102922,新規,0,2023-09-05,2023-09-05,株式会社ＬｉＬＡ’Ｓ,,株式会社,福岡県,福岡市博多区,中洲２丁目３番１号中洲Ｆビル３階,,40,132,8100801,,,,,,,2023-09-05,1,,,,,リラ,0
240,1290003014315,新規,0,2023-09-05,2023-09-05,３ｒｄ　Ｓｔｕｄｉｏ合同会社,,合同会社,福岡県,福岡市中央区,舞鶴３丁目６番７号８０１,,40,133,8100073,,,,,,,2023-09-05,1,,,,,サードスタジオ,0
244,1290801029844,新規,0,2023-09-05,2023-09-05,株式会社ワールド物流,,株式会社,福岡県,北九州市小倉南区,大字志井１９２８番地７,,40,107,8020985,,,,,,,2023-09-05,1,,,,,ワールドブツリュウ,0
248,1310001018595,新規,0,2023-09-05,2023-09-05,株式会社新建設,,株式会社,長崎県,諫早市,高来町汲水９７番地５,,42,204,8590141,,,,,,,2023-09-05,1,,,,,アラタケンセツ,0
250,1310003004635,新規,0,2023-09-05,2023-09-05,合同会社川口動物病院,,合同会社,長崎県,西海市,西海町水浦郷４６６番地,,42,212,8513511,,,,,,,2023-09-05,1,,,,,カワグチドウブツビョウイン,0
252,1320003004163,新規,0,2023-09-05,2023-09-05,合同会社おおいた産直市場まるもりん,,合同会社,大分県,大分市,大字下戸次１２４０番地,,44,201,8797763,,,,,,,2023-09-05,1,,,,,オオイタサンチョクイチバマルモリン,0
256,1340001025861,新規,0,2023-09-05,2023-09-05,松井商事株式会社,,株式会社,鹿児島県,奄美市,名瀬浦上町３９番地９,,46,222,8940068,,,,,,,2023-09-05,1,,,,,マツイショウジ,0
259,1340003004244,新規,0,2023-09-05,2023-09-05,合同会社寿,,合同会社,鹿児島県,鹿児島市,下荒田１丁目３５－３グレイス荒田壱番館２０７号室,,46,201,8900056,,,,,,,2023-09-05,1,,,,,コトブキ,0
265,1360001032501,新規,0,2023-09-05,2023-09-05,株式会社ＫＲ　Ｄｏｎｔｉｃｓ,,株式会社,沖縄県,南城市,玉城字仲村渠７６９番地,,47,215,9010602,,,,,,,2023-09-05,1,,,,,ケイアールドンティクス,0
266,1360001032518,新規,0,2023-09-05,2023-09-05,株式会社テルヤクリーン．,,株式会社,沖縄県,うるま市,字具志川１２１６番地,,47,213,9042223,,,,,,,2023-09-05,1,,,,,テルヤクリーン,0
269,1380001033951,新規,0,2023-09-05,2023-09-05,株式会社ＢＮＭ．,,株式会社,福島県,いわき市,平字作町二丁目３番地３,,07,204,9708026,,,,,,,2023-09-05,1,,,,,ビーエヌエム,0
270,1380001033968,新規,0,2023-09-05,2023-09-05,株式会社Ｋ’ｓ工業,,株式会社,福島県,郡山市,大槻町字北寺１２番地の６,,07,203,9630201,,,,,,,2023-09-05,1,,,,,ケーズコウギョウ,0
272,1390001017367,新規,0,2023-09-05,2023-09-05,株式会社Ｍ．ＦＯＲＣＥ,,株式会社,山形県,寒河江市,高田２丁目３番地の１１,,06,206,9910013,,,,,,,2023-09-05,1,,,,,エムフォース,0
274,1390003002136,新規,0,2023-09-05,2023-09-05,富樫塗装合同会社,,合同会社,山形県,東田川郡庄内町,余目字沢田１４２番地１,,06,428,9997781,,,,,,,2023-09-05,1,,,,,トガシトソウ,0
276,1400001016359,新規,0,2023-09-05,2023-09-05,株式会社エーアイ・ジーニアス,,株式会社,岩手県,胆沢郡金ケ崎町,西根中谷地３０－９,,03,381,0294503,,,,,,,2023-09-05,1,,,,,エーアイジーニアス,0
282,1430001089947,新規,0,2023-09-05,2023-09-05,トライロ不動産株式会社,,株式会社,北海道,恵庭市,黄金南２丁目４番地７,,01,231,0611409,,,,,,,2023-09-05,1,,,,,トライロフドウサン,0
286,1440001009318,新規,0,2023-09-05,2023-09-05,株式会社北斗開発工業,,株式会社,北海道,函館市,赤川１丁目３０番１８号,,01,202,0410805,,,,,,,2023-09-05,1,,,,,ホクトカイハツコウギョウ,0
288,1450001014085,新規,0,2023-09-05,2023-09-05,株式会社わらい八,,株式会社,北海道,旭川市,四条通６丁目８２５番地の１,,01,204,0700034,,,,,,,2023-09-05,1,,,,,ワライヤ,0
296,1700150119782,新規,0,2023-09-05,2023-09-05,Ｇｕａｎｇｚｈｏｕ　ＺｈｅｎｚｈｉＸｉｎｘｉＫｅｊｉ　ＹｏｕｘｉａｎＧｏｎｇｓｉ,,外国会社等,,,,,,,,ＰＡＮＹＵＱＵ　ＤＡＬＯＮＧＪＩＥ　ＤＯＮＧＸＩＮＧＬＵ３１７ＨＡＯ　３１２　ＧＵＡＮＧＺＨＯＵ　ＧＵＡＮＧＤＯＮＧ,,,,,,2023-09-05,1,,,,,コウシュウゼンジシンシケジユウゲンコウシ,0
297,1700150119790,新規,0,2023-09-05,2023-09-05,ｘｕｚｈｏｕ　ｔｉａｉｓｉｓｈａｎｇｍａｏ　ｙｏｕｘｉａｎｇｏｎｇｓｉ,,外国会社等,,,,,,,,ｘｕｚｈｏｕｓｈｉｙｕｎｌｏｎｇｑｕｓａｎｈｕａｎｄｏｎｇｌｕ２０ｈａｏｒｕｉｌｏｎｇｄｏｎｇｆａｎｇｇｕａｎｇｃｈａｎｇＡｚｕｏ１２０４ｓｈｉ,,,,,,2023-09-05,1,,,,,シュウゾォウティアイシシャンマオユウゲンコウシ,0
311,2010001238140,新規,0,2023-09-05,2023-09-05,株式会社企画探偵事務所ＤＥＵＳ,,株式会社,東京都,千代田区,内神田１丁目１５番１０号ｔｈｅ・ｃ７０３号,,13,101,1010047,,,,,,,2023-09-05,1,,,,,キカクタンテイジムショデウス,0
312,2010001238165,新規,0,2023-09-05,2023-09-05,なかのアセットマネジメント株式会社,,株式会社,東京都,中央区,日本橋兜町５番１号,,13,102,1030026,,,,,,,2023-09-05,1,,,,,ナカノアセットマネジメント,0
314,2010003041575,新規,0,2023-09-05,2023-09-05,合同会社ＫＡＺＵＨＡ,,合同会社,東京都,中央区,銀座７丁目１３番２０号銀座ＴＨビル９階,,13,102,1040061,,,,,,,2023-09-05,1,,,,,カズハ,0
315,2010003041583,新規,0,2023-09-05,2023-09-05,合同会社クリスタル・クリア・ルーフトップ,,合同会社,東京都,千代田区,丸の内３丁目１番１号東京共同会計事務所内,,13,101,1000005,,,,,,,2023-09-05,1,,,,,クリスタルクリアルーフトップ,0
316,2010003041600,新規,0,2023-09-05,2023-09-05,合同会社マキナエージェント,,合同会社,東京都,中央区,銀座１丁目２２番１１号銀座大竹ビジデンス２Ｆ,,13,102,1040061,,,,,,,2023-09-05,1,,,,,マキナエージェント,0
318,2010005037200,新規,0,2023-09-05,2023-09-05,一般社団法人ミヤコジマ,,その他の設立登記法人,東京都,千代田区,霞が関３丁目２番５号,,13,101,1000013,,,,,,,2023-09-05,1,,,,,ミヤコジマ,0
325,2010401176989,新規,0,2023-09-05,2023-09-05,株式会社ＮＯＶＯ,,株式会社,東京都,港区,浜松町２丁目２番１５号浜松町ダイヤビル２Ｆ,,13,103,1050013,,,,,,,2023-09-05,1,,,,,ノーヴォ,0
333,2010601063715,新規,0,2023-09-05,2023-09-05,ＣＥＳＩＮ株式会社,,株式会社,東京都,江東区,南砂２丁目３６番７－２１０４号,,13,108,1360076,,,,,,,2023-09-05,1,,,,,セイシン,0
335,2010603010335,新規,0,2023-09-05,2023-09-05,ジェイピー自動車合同会社,,合同会社,東京都,江東区,森下２丁目１７番８号フォルム森下８０２,,13,108,1350004,,,,,,,2023-09-05,1,,,,,ジェイピージドウシャ,0
337,2010701044796,新規,0,2023-09-05,2023-09-05,ｓｔａｂｌｅ株式会社,,株式会社,東京都,品川区,西五反田１丁目２６番２号五反田サンハイツ９１１,,13,109,1410031,,,,,,,2023-09-05,1,,,,,ステーブル,0
344,2010803004665,新規,0,2023-09-05,2023-09-05,Ｔ’ｓ　ＭＭＳ合同会社,,合同会社,東京都,大田区,上池台５丁目２４番７号,,13,111,1450064,,,,,,,2023-09-05,1,,,,,ティーズエムエムエス,0
346,2010901053754,新規,0,2023-09-05,2023-09-05,株式会社Ｔａｌｅｎｔｅａｍ,,株式会社,東京都,世田谷区,上馬４丁目４０－３Ｓ－ＦＯＲＴ駒沢大学３０３,,13,112,1540011,,,,,,,2023-09-05,1,,,,,タレンティーム,0
349,2011001156729,新規,0,2023-09-05,2023-09-05,株式会社Ｌｙｎｘ　ｅｙｅｄ,,株式会社,東京都,目黒区,碑文谷５丁目２番５号Ｔ＆Ａビル５Ｆ,,13,110,1520003,,,,,,,2023-09-05,1,,,,,リンクスアイド,0
350,2011001156745,新規,0,2023-09-05,2023-09-05,株式会社Ｊｅｖｉｅ　Ｊａｐａｎ,,株式会社,東京都,目黒区,自由が丘１丁目２８－８,,13,110,1520035,,,,,,,2023-09-05,1,,,,,ジェヴィジャパン,0
351,2011001156794,新規,0,2023-09-05,2023-09-05,株式会社Ｋａｎａｇｌｅｅ,,株式会社,東京都,渋谷区,桜丘町２３番３号,,13,113,1500031,,,,,,,2023-09-05,1,,,,,カナグリー,0
353,2011003017482,新規,0,2023-09-05,2023-09-05,合同会社Ｄ‐Ａｃｃｏｕｎｔｉｎｇ,,合同会社,東京都,渋谷区,渋谷２丁目１９－１５宮益坂ビルディング６０９,,13,113,1500002,,,,,,,2023-09-05,1,,,,,ディーアカウンティング,0
362,2011201024891,新規,0,2023-09-05,2023-09-05,株式会社コリーナ,,株式会社,東京都,中野区,上高田１丁目３１番２２号,,13,114,1640002,,,,,,,2023-09-05,1,,,,,コリーナ,0
366,2011301028990,新規,0,2023-09-05,2023-09-05,株式会社ＰＯＰＳ　ＧＡＲＡＧＥ,,株式会社,東京都,杉並区,高円寺南４丁目１７－１７,,13,115,1660003,,,,,,,2023-09-05,1,,,,,ポップスガレージ,0
369,2011501029723,新規,0,2023-09-05,2023-09-05,株式会社縁繋ぎ屋,,株式会社,東京都,北区,浮間３丁目１番３７－１４０１号,,13,117,1150051,,,,,,,2023-09-05,1,,,,,エンツナギヤ,0
371,2011503005747,新規,0,2023-09-05,2023-09-05,合同会社アクシル,,合同会社,東京都,荒川区,西日暮里６丁目５４番８号椎野ビル１階,,13,118,1160013,,,,,,,2023-09-05,1,,,,,アクシル,0
373,2011601027107,新規,0,2023-09-05,2023-09-05,株式会社成蹊,,株式会社,東京都,練馬区,高松４丁目６－１ビズテラス光が丘Ｂ－０２号,,13,120,1790075,,,,,,,2023-09-05,1,,,,,セイケイ,0
375,2011701026561,新規,0,2023-09-05,2023-09-05,株式会社江戸川興業,,株式会社,東京都,江戸川区,大杉５丁目３７番７号メゾン上野２０２,,13,123,1320022,,,,,,,2023-09-05,1,,,,,エドガワコウギョウ,0
376,2011703003583,新規,0,2023-09-05,2023-09-05,合同会社Ｔ‐ＯＰ,,合同会社,東京都,江戸川区,松島１丁目４２番２２号小松川ビル３階,,13,123,1320031,,,,,,,2023-09-05,1,,,,,トップ,0
378,2011801042979,新規,0,2023-09-05,2023-09-05,株式会社グッドビスタ,,株式会社,東京都,葛飾区,亀有２丁目５０番２号,,13,122,1250061,,,,,,,2023-09-05,1,,,,,グッドビスタ,0
379,2011801042995,新規,0,2023-09-05,2023-09-05,ＤＯＵＢＬＥホールディングス株式会社,,株式会社,東京都,足立区,堀之内１丁目１７番４号,,13,121,1230874,,,,,,,2023-09-05,1,,,,,ダブルホールディングス,0
381,2012305002057,新規,0,2023-09-05,2023-09-05,一般社団法人まちだむら,,その他の設立登記法人,東京都,町田市,薬師台１丁目２６番地１１薬師台メディカルＴＥＲＲＡＣＥＡＮＮＥＸ,,13,209,1950073,,,,,,,2023-09-05,1,,,,,マチダムラ,0
383,2012401040968,新規,0,2023-09-05,2023-09-05,Ｂｌｕｅ株式会社,,株式会社,東京都,武蔵野市,御殿山２丁目１７番８－１０９号リストレジデンス武蔵野御殿山,,13,203,1800005,,,,,,,2023-09-05,1,,,,,ブルー,0
385,2012403006158,新規,0,2023-09-05,2023-09-05,転轍合同会社,,合同会社,東京都,武蔵野市,吉祥寺東町２丁目４５番１２号,,13,203,1800002,,,,,,,2023-09-05,1,,,,,テンテツ,0
391,2013101009238,新規,0,2023-09-05,2023-09-05,株式会社Ｓ．Ｂ．Ｌｉｎｋ,,株式会社,東京都,西多摩郡瑞穂町,大字長岡長谷部２５３番地１０,,13,303,1901231,,,,,,,2023-09-05,1,,,,,エスビーリンク,0
402,2020003024505,新規,0,2023-09-05,2023-09-05,合同会社ワクワク,,合同会社,神奈川県,横浜市南区,別所５丁目２８番３－４０１号,,14,105,2320064,,,,,,,2023-09-05,1,,,,,ワクワク,0
403,2020003024521,新規,0,2023-09-05,2023-09-05,ＧＥＥＫＤＥＶＩＣＥＲＥＳＥＡＲＣＨ合同会社,,合同会社,神奈川県,横浜市港南区,大久保２丁目３０番８号,,14,111,2330007,,,,,,,2023-09-05,1,,,,,ギークデバイスリサーチ,0
406,2021001079846,新規,0,2023-09-05,2023-09-05,ｋｕｒｕｒｉ株式会社,,株式会社,神奈川県,逗子市,小坪１丁目２６－１０,,14,208,2490008,,,,,,,2023-09-05,1,,,,,クルリ,0
407,2021003013539,新規,0,2023-09-05,2023-09-05,合同会社ＭＡＮＮＡＴ,,合同会社,神奈川県,秦野市,南矢名２丁目２３番１２号１０１号室,,14,211,2570003,,,,,,,2023-09-05,1,,,,,,0
412,2030001155615,新規,0,2023-09-05,2023-09-05,株式会社ｄｉｓｅ　ｃｏｍｐａｎｙ,,株式会社,埼玉県,三郷市,幸房７８８番地３オータムリーフＩＩ１０１,00131767,11,237,3410026,,,,,,,2023-09-05,1,,,,,ダイスカンパニー,0
413,2030001155680,新規,0,2023-09-05,2023-09-05,ＤＫ　ＴＨＵＮＤＥＲ株式会社,,株式会社,埼玉県,川口市,芝下１丁目７番２８号－２Ｆ,,11,203,3330848,,,,,,,2023-09-05,1,,,,,ディーケーサンダー,0
414,2030001155730,新規,0,2023-09-05,2023-09-05,日本敬義株式会社,,株式会社,埼玉県,熊谷市,弥生１丁目４１番地熊谷朝日館４０５,,11,202,3600044,,,,,,,2023-09-05,1,,,,,ニホンケイギ,0
420,2040001129964,新規,0,2023-09-05,2023-09-05,株式会社ＶＩＳ,,株式会社,千葉県,山武市,成東３０１４,,12,237,2891326,,,,,,,2023-09-05,1,,,,,ビス,0
421,2040003023249,新規,0,2023-09-05,2023-09-05,Ｌ‐マスターズ合同会社,,合同会社,千葉県,柏市,松ケ崎１２６番地１８,,12,217,2770835,,,,,,,2023-09-05,1,,,,,エルマスターズ,0
422,2040005022109,新規,0,2023-09-05,2023-09-05,特定非営利活動法人ネット心理教育ピアサポート,,その他の設立登記法人,千葉県,浦安市,舞浜２丁目３９番３号,,12,227,2790031,,,,,,,2023-09-05,1,,,,,ネットシンリキョウイクピアサポート,0
424,2050001053370,新規,0,2023-09-05,2023-09-05,アイリン商事株式会社,,株式会社,茨城県,つくば市,天久保２丁目３番１ホソダビルテナント１０１号,,08,220,3050005,,,,,,,2023-09-05,1,,,,,アイリンショウジ,0
425,2050001053437,新規,0,2023-09-05,2023-09-05,株式会社ＤＥＶＥＬＯＰＴＯＮＩＡ,,株式会社,茨城県,日立市,西成沢町２丁目２０番１号,,08,202,3160032,,,,,,,2023-09-05,1,,,,,デベロップトニア,0
431,2060001036300,新規,0,2023-09-05,2023-09-05,ＪＡＳＩＮＧＧＥ　ＩＮＴＥＲＮＡＴＩＯＮＡＬ株式会社,,株式会社,栃木県,小山市,大字中久喜２９１番地１９,,09,208,3230806,,,,,,,2023-09-05,1,,,,,ジャシンゲインターナショナル,0
434,2070001040821,新規,0,2023-09-05,2023-09-05,株式会社Ｈｏｍｅ　ｐｌｕｓ,,株式会社,群馬県,前橋市,上細井町２１７７番地２,,10,201,3710051,,,,,,,2023-09-05,1,,,,,ホームプラス,0
436,2070003005079,新規,0,2023-09-05,2023-09-05,ＳＯＮＵ合同会社,,合同会社,群馬県,邑楽郡大泉町,坂田４丁目２番１６号パークハウスモリＩＩ２０２号,00131770,10,524,3700532,,,,,,,2023-09-05,1,,,,,,0
438,2080001025838,新規,0,2023-09-05,2023-09-05,株式会社ＤＩＡ　ＪＡＰＡＮ,,株式会社,静岡県,静岡市葵区,日出町６番地の９－６０３号,,22,101,4200837,,,,,,,2023-09-05,1,,,,,ダイアジャパン,0
444,2080403004860,新規,0,2023-09-05,2023-09-05,合同会社ＡＶＡＮＴ,,合同会社,静岡県,掛川市,掛川８７７番地の１,,22,213,4360079,,,,,,,2023-09-05,1,,,,,アヴァン,0
448,2110001037821,新規,0,2023-09-05,2023-09-05,株式会社オートサービスＬＥＡＤ,,株式会社,新潟県,新潟市東区,寺山１丁目２０番２９号,,15,102,9500892,,,,,,,2023-09-05,1,,,,,オートサービスリード,0
456,2120001257798,新規,0,2023-09-05,2023-09-05,株式会社あゆぷら,,株式会社,大阪府,大阪市北区,梅田１丁目１番３号大阪駅前第３ビル２９階１－１－１号室,,27,127,5300001,,,,,,,2023-09-05,1,,,,,アユプラ,0
457,2120001257807,新規,0,2023-09-05,2023-09-05,株式会社ＰＲＡＹ,,株式会社,大阪府,寝屋川市,高柳２丁目５４番８号,,27,215,5720051,,,,,,,2023-09-05,1,,,,,プレイ,0
458,2120001257815,新規,0,2023-09-05,2023-09-05,オンザ・エッジ・ＪＡＰＡＮ株式会社,,株式会社,大阪府,大阪市中央区,北新町２番１２号北新町センタービル６階,,27,128,5400023,,,,,,,2023-09-05,1,,,,,オンザエッジジャパン,0
459,2120001257848,新規,0,2023-09-05,2023-09-05,株式会社伸和,,株式会社,大阪府,大阪市北区,天神橋８丁目１０－１メゾンドール天神橋１０１号,,27,127,5310041,,,,,,,2023-09-05,1,,,,,シンワ,0
460,2120001257889,新規,0,2023-09-05,2023-09-05,株式会社志宣フーズ,,株式会社,大阪府,枚方市,上島町４番７号,,27,210,5731127,,,,,,,2023-09-05,1,,,,,シヨシフーズ,0
474,2120005023858,新規,0,2023-09-05,2023-09-05,一般社団法人雅亮会,,その他の設立登記法人,大阪府,大阪市浪速区,大国２丁目２番２７号願泉寺内,,27,111,5560014,,,,,,,2023-09-05,1,,,,,ガリョウカイ,0
477,2120901048000,新規,0,2023-09-05,2023-09-05,株式会社一番星,,株式会社,大阪府,摂津市,一津屋１丁目２１番１１号,,27,224,5660043,,,,,,,2023-09-05,1,,,,,イチバンボシ,0
478,2122001037321,新規,0,2023-09-05,2023-09-05,株式会社樋本米穀,,株式会社,大阪府,大東市,赤井２丁目１６番５号,,27,218,5740046,,,,,,,2023-09-05,1,,,,,ヒモトベイコク,0
479,2122003002653,新規,0,2023-09-05,2023-09-05,大阪蓄電池事業２合同会社,,合同会社,大阪府,大東市,大字龍間９４３番地の１,,27,218,5740012,,,,,,,2023-09-05,1,,,,,オオサカチクデンチジギョウニ,0
483,2130001075134,新規,0,2023-09-05,2023-09-05,株式会社京都ニホンミツバチ研究所,,株式会社,京都府,京都市中京区,杉屋町６２９番地,,26,104,6040822,,,,,,,2023-09-05,1,,,,,キョウトニホンミツバチケンキュウショ,0
486,2140001131456,新規,0,2023-09-05,2023-09-05,株式会社Ｒｅｉ,,株式会社,兵庫県,神戸市西区,神出町東１０２８－４,,28,111,6512311,,,,,,,2023-09-05,1,,,,,レイ,0
487,2140001131530,新規,0,2023-09-05,2023-09-05,ＰＬＩＮ株式会社,,株式会社,兵庫県,神戸市東灘区,向洋町中５丁目１番５２２号ウエストコート４番街９０６号室,,28,101,6580032,,,,,,,2023-09-05,1,,,,,プリン,0
488,2140003019518,新規,0,2023-09-05,2023-09-05,合同会社たけち企画,,合同会社,兵庫県,たつの市,龍野町富永７７８番地１,,28,229,6794167,,,,,,,2023-09-05,1,,,,,タケチキカク,0
492,2140005026727,新規,0,2023-09-05,2023-09-05,一般社団法人建設業企業協力会絆,,その他の設立登記法人,兵庫県,姫路市,城見町７１番地,,28,201,6700831,,,,,,,2023-09-05,1,,,,,ケンセツギョウキギョウキョウリョクカイキズナ,0
495,2150003003058,新規,0,2023-09-05,2023-09-05,藤建合同会社,,合同会社,奈良県,生駒郡三郷町,立野南１丁目７－２１,,29,343,6360822,,,,,,,2023-09-05,1,,,,,フジケン,0
498,2160001025301,新規,0,2023-09-05,2023-09-05,株式会社六角,,株式会社,滋賀県,近江八幡市,安土町石寺１０７５番地,,25,204,5211331,,,,,,,2023-09-05,1,,,,,ロッカク,0
499,2160001025318,新規,0,2023-09-05,2023-09-05,株式会社ＳＴＡＤ　ＶＡＮ　ＫＥＲＳ,,株式会社,滋賀県,大津市,におの浜４丁目５番２０－２１４号,,25,201,5200801,,,,,,,2023-09-05,1,,,,,スタッドヴァンケルス,0
501,2170003001919,新規,0,2023-09-05,2023-09-05,ｃ‐ｈａｐｐｉｌｙ合同会社,,合同会社,和歌山県,岩出市,曽屋７９番地１号,,30,209,6496236,,,,,,,2023-09-05,1,,,,,シーハピリー,0
508,2180001157893,新規,0,2023-09-05,2023-09-05,ゆうゆう薬局株式会社,,株式会社,愛知県,名古屋市天白区,植田１丁目２１１６番地,,23,116,4680051,,,,,,,2023-09-05,1,,,,,ユウユウヤッキョク,0
509,2180001157927,新規,0,2023-09-05,2023-09-05,尾張屋外広告株式会社,,株式会社,愛知県,丹羽郡扶桑町,大字斎藤字旭２９４番地,,23,362,4800104,,,,,,,2023-09-05,1,,,,,オワリオクガイコウコク,0
510,2180001157935,新規,0,2023-09-05,2023-09-05,Ｓｋｙ　Ｄｒｅａｍｉｎ株式会社,,株式会社,愛知県,名古屋市港区,藤前５丁目６０３,,23,111,4550855,,,,,,,2023-09-05,1,,,,,スカイドリーミン,0
511,2180001157943,新規,0,2023-09-05,2023-09-05,株式会社ケイツーシー,,株式会社,愛知県,名古屋市天白区,八事山４２８番地の１パークナード八事３０２号,,23,116,4680077,,,,,,,2023-09-05,1,,,,,ケイツーシー,0
512,2180001157951,新規,0,2023-09-05,2023-09-05,株式会社ショートカット,,株式会社,愛知県,半田市,有楽町１１２番３,,23,205,4750000,,,,,,,2023-09-05,1,,,,,ショートカット,0
516,2180301037770,新規,0,2023-09-05,2023-09-05,株式会社ＡＩＣ,,株式会社,愛知県,豊田市,桝塚西町北小畔８３番地,,23,211,4701213,,,,,,,2023-09-05,1,,,,,エーアイシー,0
517,2180301037779,新規,0,2023-09-05,2023-09-05,株式会社ｏｎｅ　ｆｉｎｅ　ｄａｙ,,株式会社,愛知県,安城市,横山町浜畔上３３－１ＭＣスクエア２０５,,23,212,4460045,,,,,,,2023-09-05,1,,,,,ワンファインデイ,0
520,2180303005817,新規,0,2023-09-05,2023-09-05,合同会社旭鋳造販売,,合同会社,愛知県,西尾市,国森町郷北１４番地１,,23,213,4440312,,,,,,,2023-09-05,1,,,,,アサヒチュウゾウハンバイ,0
522,2190001030694,新規,0,2023-09-05,2023-09-05,株式会社ＡＣＯＲＳＡ,,株式会社,三重県,松阪市,曽原町８１０番地,,24,204,5152112,,,,,,,2023-09-05,1,,,,,アコルサ,0
524,2190003004432,新規,0,2023-09-05,2023-09-05,合同会社サイとパン,,合同会社,三重県,伊勢市,楠部町２０３番地７２,,24,203,5160014,,,,,,,2023-09-05,1,,,,,サイトパン,0
525,2200001041665,新規,0,2023-09-05,2023-09-05,株式会社ＣＨＡＲＴＩＥＲ,,株式会社,岐阜県,岐阜市,茜部野瀬２丁目３番地１名和ビル１０２,,21,201,5008283,,,,,,,2023-09-05,1,,,,,シャルイティエ,0
531,2240001062055,新規,0,2023-09-05,2023-09-05,株式会社ウィスタリアフィールドプランシュ,,株式会社,広島県,安芸郡府中町,本町２丁目９番２７号,,34,302,7350006,,,,,,,2023-09-05,1,,,,,ウィスタリアフィールドプランシュ,0
532,2240001062088,新規,0,2023-09-05,2023-09-05,株式会社株式会社サリー・プロジェクト,,株式会社,広島県,福山市,東村町９８５番地１福山大学内,,34,207,7290251,,,,,,,2023-09-05,1,,,,,サリープロジェクト,0
533,2240003006290,新規,0,2023-09-05,2023-09-05,ＮＩＫＫＯ　ＳＯＬＡＲ　ＰＬＡＮＴ３合同会社,,合同会社,広島県,広島市安佐北区,落合２丁目３０番１８号,,34,106,7391731,,,,,,,2023-09-05,1,,,,,ニッコウソーラープラントスリー,0
534,2250001020268,新規,0,2023-09-05,2023-09-05,株式会社ＥＭＩ　Ｂｌａｎｃ,,株式会社,山口県,下関市,秋根西町１丁目２番１９－５０３号,,35,201,7510873,,,,,,,2023-09-05,1,,,,,エミブラン,0
538,2260001038284,新規,0,2023-09-05,2023-09-05,株式会社幸栄建設工業,,株式会社,岡山県,浅口市,寄島町７５６２番地１０,,33,216,7140101,,,,,,,2023-09-05,1,,,,,コウエイケンセツコウギョウ,0
545,2290001102855,新規,0,2023-09-05,2023-09-05,株式会社ネクストジェネレーション,,株式会社,福岡県,糟屋郡志免町,片峰中央３丁目１９番８－２０３号,,40,343,8112246,,,,,,,2023-09-05,1,,,,,ネクストジェネレーション,0
546,2290001102905,新規,0,2023-09-05,2023-09-05,株式会社あさひ,,株式会社,福岡県,福岡市西区,戸切３丁目３８番２７号,,40,135,8190032,,,,,,,2023-09-05,1,,,,,アサヒ,0
547,2290001102921,新規,0,2023-09-05,2023-09-05,株式会社プルーフオブパワー,,株式会社,福岡県,福岡市中央区,大名１丁目２－４９,,40,133,8100041,,,,,,,2023-09-05,1,,,,,プルーフオブパワー,0
550,2290801029843,新規,0,2023-09-05,2023-09-05,株式会社プルーフィールド,,株式会社,福岡県,遠賀郡岡垣町,旭台２丁目２番１５号,,40,383,8114215,,,,,,,2023-09-05,1,,,,,プルーフィールド,0
552,2320001019988,新規,0,2023-09-05,2023-09-05,トマジ株式会社,,株式会社,大分県,豊後高田市,新地１０７６番地７,,44,209,8790627,,,,,,,2023-09-05,1,,,,,トマジ,0
565,2340003004243,新規,0,2023-09-05,2023-09-05,合同会社大野家,,合同会社,鹿児島県,奄美市,笠利町中金久５８５―２,,46,222,8940000,,,,,,,2023-09-05,1,,,,,オオノヤ,0
566,2360001032517,新規,0,2023-09-05,2023-09-05,株式会社ＣＯＮＮＥＣＴ,,株式会社,沖縄県,浦添市,牧港３丁目１５番２号,,47,208,9012131,,,,,,,2023-09-05,1,,,,,コネクト,0
567,2360003013259,新規,0,2023-09-05,2023-09-05,合同会社国宝建設,,合同会社,沖縄県,名護市,字我部祖河４０番地１,,47,209,9051155,,,,,,,2023-09-05,1,,,,,コクホウケンセツ,0
568,2360003013267,新規,0,2023-09-05,2023-09-05,ｍ．ｍ．ａ合同会社,,合同会社,沖縄県,島尻郡南風原町,字津嘉山２１番地１,,47,350,9011117,,,,,,,2023-09-05,1,,,,,エムエムエー,0
569,2370001050360,新規,0,2023-09-05,2023-09-05,マチオコシ株式会社,,株式会社,宮城県,仙台市青葉区,花京院２丁目１－６１,,04,101,9800013,,,,,,,2023-09-05,1,,,,,マチオコシ,0
575,2390001017366,新規,0,2023-09-05,2023-09-05,エーマックス株式会社,,株式会社,山形県,酒田市,下安町１８番地の１６,,06,204,9980012,,,,,,,2023-09-05,1,,,,,エーマックス,0
590,2440001009317,新規,0,2023-09-05,2023-09-05,株式会社エムズ,,株式会社,北海道,亀田郡七飯町,字上藤城１８２番地５,,01,337,0411104,,,,,,,2023-09-05,1,,,,,エムズ,0
593,2450001014084,新規,0,2023-09-05,2023-09-05,株式会社ケイプラス,,株式会社,北海道,旭川市,緑町１５丁目３００３番２,,01,204,0700823,,,,,,,2023-09-05,1,,,,,ケイプラス,0
597,2500001025175,新規,0,2023-09-05,2023-09-05,株式会社ＭＬ．,,株式会社,愛媛県,松山市,大手町１丁目１１番地１愛媛新聞愛媛電算ビル２Ｆ,,38,201,7900067,,,,,,,2023-09-05,1,,,,,エムエル,0
598,2700150119781,新規,0,2023-09-05,2023-09-05,Ｈｅｎａｎ　Ｑｉａｎｙｉ　Ｎｅｔｗｏｒｋ　Ｔｅｃｈｎｏｌｏｇｙ　Ｃｏ．，Ｌｔｄ．,,外国会社等,,,,,,,,Ｚｈｏｎｇｇｕｏ，Ｈｅｎａｎｓｈｅｎｇ，Ｓｈａｎｇｑｉｕｓｈｉ，Ｎｉｎｇｌｉｎｇｘｉａｎ，Ｃｈｅｎｇｊｉａｏｘｉａｎｇ　Ｃｈａｎｇｊｉａｎｇｌｕ　ｙｕ　Ｇｅｔｉａｎｄａｄａｏｊｉａｏｃｈａｋｏｕ　Ｊｉｕｒｏｎｇｙｉｈａｏｙｕａｎ，Ｗｕｄｏｎｇｙｉｄａｎｙｕａｎ３０１,,,,,,2023-09-05,1,,,,,ヘナンチェンイネットワークテクノロジーカンパニーリミテッド,0
599,2700150119798,新規,0,2023-09-05,2023-09-05,ＳＨＥＮＺＨＥＮＳＨＩ　ＴＯＮＧＤＡ　ＫＥＪＩ　ＹＯＵＸＩＡＮ　ＧＯＮＧＳＩ,,外国会社等,,,,,,,,ＬＯＮＧＨＵＡＱＵＭＩＮＺＨＩＪＩＥＤＡＯＸＩＮＮＩＵＳＨＥＱＵ　ＷＡＮＺＨＯＮＧＣＨＥＮＧＦＵＺＨＵＡＮＧＰＩＦＡＳＨＩＣＨＡＮＧＡ３１１　ＳＨＥＮＺＨＥＮＳＨＩ,,,,,,2023-09-05,1,,,,,シンセンシトンダカギユウゲンコウシ,0
605,3010001238098,新規,0,2023-09-05,2023-09-05,Ｌｕｍｉｎａｒａ株式会社,,株式会社,東京都,中央区,日本橋室町１丁目１１番１２号日本橋水野ビル７階,,13,102,1030022,,,,,,,2023-09-05,1,,,,,ルミナラ,0
606,3010001238123,新規,0,2023-09-05,2023-09-05,ｐｌａｙ　ｏｎ　ｅａｒｔｈ株式会社,,株式会社,東京都,中央区,日本橋兜町１７番１号,,13,102,1030026,,,,,,,2023-09-05,1,,,,,プレイオンアース,0
607,3010001238197,新規,0,2023-09-05,2023-09-05,株式会社Ａｗｅｓｏｍｅ　Ｔｏｋｙｏ,,株式会社,東京都,中央区,築地４丁目３番１２号秀和第二築地レジデンス１１０５号,,13,102,1040045,,,,,,,2023-09-05,1,,,,,オーサムトウキョウ,0
608,3010001238206,新規,0,2023-09-05,2023-09-05,株式会社ヴェリマス,,株式会社,東京都,中央区,日本橋室町１丁目１１番１２号日本橋水野ビル７階,,13,102,1030022,,,,,,,2023-09-05,1,,,,,ヴェリマス,0
609,3010001238222,新規,0,2023-09-05,2023-09-05,株式会社Ｍ＆Ａリンクス,,株式会社,東京都,千代田区,麹町２丁目１０番地３,,13,101,1020083,,,,,,,2023-09-05,1,,,,,エムアンドエーリンクス,0
614,3010003041566,新規,0,2023-09-05,2023-09-05,合同会社ミヤコジマ,,合同会社,東京都,千代田区,霞が関３丁目２番５号,,13,101,1000013,,,,,,,2023-09-05,1,,,,,ミヤコジマ,0
615,3010003041590,新規,0,2023-09-05,2023-09-05,合同会社ＧｅｎＧｏｋａ,,合同会社,東京都,文京区,本駒込１丁目２５－２２ウェルフラッツ本駒込１０２,,13,105,1130021,,,,,,,2023-09-05,1,,,,,ゲンゴカ,0
619,3010005037199,新規,0,2023-09-05,2023-09-05,一般社団法人メガビット,,その他の設立登記法人,東京都,中央区,八丁堀４丁目２番１０号ＡＯＪ税理士法人内,,13,102,1040032,,,,,,,2023-09-05,1,,,,,メガビット,0
621,3010401176897,新規,0,2023-09-05,2023-09-05,ＣＣＭ　Ｊａｐａｎ株式会社,,株式会社,東京都,港区,愛宕１丁目６番８号,,13,103,1050002,,,,,,,2023-09-05,1,,,,,シーシーエムジャパン,0
622,3010401176906,新規,0,2023-09-05,2023-09-05,株式会社スタッフテック,,株式会社,東京都,港区,港南１丁目７番１８号,,13,103,1080075,,,,,,,2023-09-05,1,,,,,スタッフテック,0
626,3010405022412,新規,0,2023-09-05,2023-09-05,巨大特定目的会社,,その他の設立登記法人,東京都,港区,虎ノ門５丁目１番４号,,13,103,1050001,,,,,,,2023-09-05,1,,,,,ビヨンド,0
631,3010501050969,新規,0,2023-09-05,2023-09-05,海富アーバン株式会社,,株式会社,東京都,台東区,東上野５丁目１８番１号上野アインスタワー１５０６,,13,106,1100015,,,,,,,2023-09-05,1,,,,,カイプアーバン,0
633,3010603010342,新規,0,2023-09-05,2023-09-05,合同会社Ｋ．Ｓ　ＴＲＡＤＩＮＧ,,合同会社,東京都,墨田区,緑３丁目１１番８－６０３号,,13,107,1300021,,,,,,,2023-09-05,1,,,,,ケイエストレーディング,0
637,3010703006827,新規,0,2023-09-05,2023-09-05,タナカオフィス合同会社,,合同会社,東京都,品川区,西五反田４丁目３１番２３－４０７号,,13,109,1410031,,,,,,,2023-09-05,1,,,,,タナカオフィス,0
638,3010703006851,新規,0,2023-09-05,2023-09-05,合同会社サム,,合同会社,東京都,品川区,北品川４丁目８番１４号,,13,109,1400001,,,,,,,2023-09-05,1,,,,,サム,0
641,3010803004664,新規,0,2023-09-05,2023-09-05,黄吉合同会社,,合同会社,東京都,大田区,北糀谷２丁目１番１号１０１,,13,111,1440032,,,,,,,2023-09-05,1,,,,,コウキチ,0
642,3010805003053,新規,0,2023-09-05,2023-09-05,医療法人社団都英会,,その他の設立登記法人,東京都,大田区,久が原５丁目１１番１１号Ａｄａｃｈｉ・ｃｌｉｎｉｃ・Ｍａｌｌ・１，２階,,13,111,1460085,,,,,,,2023-09-05,1,,,,,トエイカイ,0
643,3010901053745,新規,0,2023-09-05,2023-09-05,株式会社ニッチメディア,,株式会社,東京都,世田谷区,代沢４丁目４０番１０号Ｅ,,13,112,1550032,,,,,,,2023-09-05,1,,,,,ニッチメディア,0
649,3011001156686,新規,0,2023-09-05,2023-09-05,アンドブースター株式会社,,株式会社,東京都,渋谷区,道玄坂１丁目１０番８号渋谷道玄坂東急ビル２Ｆ－Ｃ,,13,113,1500043,,,,,,,2023-09-05,1,,,,,アンドブースター,0
650,3011001156777,新規,0,2023-09-05,2023-09-05,株式会社Ｅ‐ＣＵＥ,,株式会社,東京都,渋谷区,道玄坂１丁目２番３号渋谷フクラス１７階,,13,113,1500043,,,,,,,2023-09-05,1,,,,,イーキュー,0
652,3011003017498,新規,0,2023-09-05,2023-09-05,合同会社ＩＮＵＧＯＹＡ,,合同会社,東京都,渋谷区,道玄坂１丁目１６－６二葉ビル８ｂ,,13,113,1500043,,,,,,,2023-09-05,1,,,,,イヌゴヤ,0
659,3011101104207,新規,0,2023-09-05,2023-09-05,株式会社ＩＮＡＺＵＭＡ　ＬＩＦＥ,,株式会社,東京都,新宿区,西新宿１丁目２６番２号,,13,104,1600023,,,,,,,2023-09-05,1,,,,,イナズマライフ,0
660,3011101104215,新規,0,2023-09-05,2023-09-05,株式会社ＢＵＳＨＩＤＯ,,株式会社,東京都,新宿区,山吹町３１４番地９－１０４号,,13,104,1620801,,,,,,,2023-09-05,1,,,,,ブシドー,0
661,3011101104223,新規,0,2023-09-05,2023-09-05,株式会社東京学習会,,株式会社,東京都,新宿区,下落合３丁目１７番４２号目白Ｆ＆Ａ１号館２０７,,13,104,1610033,,,,,,,2023-09-05,1,,,,,トウキョウガクシュウカイ,0
662,3011101104231,新規,0,2023-09-05,2023-09-05,株式会社創建管財,,株式会社,東京都,新宿区,西新宿１丁目２５番１号,,13,104,1600023,,,,,,,2023-09-05,1,,,,,ソウケンカンザイ,0
665,3011305002933,新規,0,2023-09-05,2023-09-05,医療法人社団ルネサンス,,その他の設立登記法人,東京都,杉並区,永福４丁目１番４号永福ランドビル１階,,13,115,1680064,,,,,,,2023-09-05,1,,,,,ルネサンス,0
670,3011501029730,新規,0,2023-09-05,2023-09-05,株式会社エスイーアール,,株式会社,東京都,荒川区,町屋１丁目２０番２－１０４号,,13,118,1160001,,,,,,,2023-09-05,1,,,,,エスイーアール,0
675,3011801042994,新規,0,2023-09-05,2023-09-05,株式会社マックスケア,,株式会社,東京都,葛飾区,四つ木２丁目６番２３－４０５号,,13,122,1240011,,,,,,,2023-09-05,1,,,,,マックスケア,0
677,3012401040950,新規,0,2023-09-05,2023-09-05,ＫＳファシリティ株式会社,,株式会社,東京都,調布市,国領町５丁目７６番地５,,13,208,1820022,,,,,,,2023-09-05,1,,,,,ケーエスファシリティ,0
678,3012401040959,新規,0,2023-09-05,2023-09-05,株式会社ムサシリフォーム,,株式会社,東京都,三鷹市,上連雀４丁目９番９号,,13,204,1810012,,,,,,,2023-09-05,1,,,,,ムサシリフォーム,0
679,3012403006149,新規,0,2023-09-05,2023-09-05,合同会社糸くり屋,,合同会社,東京都,三鷹市,下連雀３丁目３５‐１Ｎ・Ｅ・ＯＣＩＴＹＭＩＴＡＫＡ６Ｆ,,13,204,1810013,,,,,,,2023-09-05,1,,,,,イトクリヤ,0
680,3012403006157,新規,0,2023-09-05,2023-09-05,合同会社ＭＡＴＳＵＫＡ,,合同会社,東京都,狛江市,和泉本町１丁目１０番１号,,13,219,2010003,,,,,,,2023-09-05,1,,,,,マツカ,0
684,3012801022607,新規,0,2023-09-05,2023-09-05,株式会社Ｋ‐ＣＡＲＧＯ,,株式会社,東京都,立川市,羽衣町３丁目２３－１３,,13,202,1900021,,,,,,,2023-09-05,1,,,,,ケーカーゴ,0
685,3012801022615,新規,0,2023-09-05,2023-09-05,株式会社洸建,,株式会社,東京都,立川市,一番町２丁目３８番地の７５,,13,202,1900033,,,,,,,2023-09-05,1,,,,,コウケン,0
697,3020001153296,新規,0,2023-09-05,2023-09-05,株式会社ステップエデュケーション,,株式会社,神奈川県,横浜市神奈川区,片倉４丁目４番１号,,14,102,2210865,,,,,,,2023-09-05,1,,,,,ステップエデュケーション,0
702,3020003024504,新規,0,2023-09-05,2023-09-05,合同会社ニコニコ,,合同会社,神奈川県,横浜市南区,別所５丁目２８番３－４０１号,,14,105,2320064,,,,,,,2023-09-05,1,,,,,ニコニコ,0
703,3020003024512,新規,0,2023-09-05,2023-09-05,合同会社ＮＯＢＵＯＴ．ｂｉｚ,,合同会社,神奈川県,横浜市都筑区,加賀原１丁目２３番３０－２号,,14,118,2240055,,,,,,,2023-09-05,1,,,,,ノブオットドットビズ,0
715,3040001129914,新規,0,2023-09-05,2023-09-05,株式会社ポテンシャル,,株式会社,千葉県,松戸市,秋山１丁目９番地の１２ＢＥＬＩＳＴＡ秋山駅前６１２号,,12,207,2702223,,,,,,,2023-09-05,1,,,,,ポテンシャル,0
716,3040001129963,新規,0,2023-09-05,2023-09-05,株式会社麗和企画,,株式会社,千葉県,市原市,国分寺台中央１丁目５番地３,,12,219,2900073,,,,,,,2023-09-05,1,,,,,レイワキカク,0
717,3040001129971,新規,0,2023-09-05,2023-09-05,株式会社Ｓ＆Ｔ,,株式会社,千葉県,白井市,桜台２丁目１６番８棟１０３号,,12,232,2701412,,,,,,,2023-09-05,1,,,,,エスアンドティー,0
719,3040003023248,新規,0,2023-09-05,2023-09-05,合同会社フォトン,,合同会社,千葉県,市川市,東菅野３丁目９番１７号,,12,203,2720823,,,,,,,2023-09-05,1,,,,,フォトン,0
720,3040003023256,新規,0,2023-09-05,2023-09-05,合同会社あいふぁーむ,,合同会社,千葉県,君津市,福岡２２４番地,,12,225,2921157,,,,,,,2023-09-05,1,,,,,アイファーム,0
728,3050003007761,新規,0,2023-09-05,2023-09-05,良玉ファーム合同会社,,合同会社,茨城県,東茨城郡茨城町,大字宮ヶ崎１８５０番地１,,08,302,3113136,,,,,,,2023-09-05,1,,,,,リョウギョクファーム,0
731,3060003004709,新規,0,2023-09-05,2023-09-05,合同会社クレド,,合同会社,栃木県,宇都宮市,中一の沢町１番１３号ルベージュ２０１,,09,201,3200045,,,,,,,2023-09-05,1,,,,,クレド,0
733,3070001040812,新規,0,2023-09-05,2023-09-05,株式会社丸福食品,,株式会社,群馬県,前橋市,鳥取町１２３番地,,10,201,3710131,,,,,,,2023-09-05,1,,,,,マルフクショクヒン,0
737,3080001025829,新規,0,2023-09-05,2023-09-05,株式会社マルヤス青果,,株式会社,静岡県,静岡市葵区,流通センター３番２号,,22,101,4200922,,,,,,,2023-09-05,1,,,,,マルヤスセイカ,0
738,3080001025837,新規,0,2023-09-05,2023-09-05,株式会社ノバルティオ,,株式会社,静岡県,静岡市清水区,谷津町１丁目４９７番地の２,,22,103,4240211,,,,,,,2023-09-05,1,,,,,ノバルティオ,0
739,3080001025845,新規,0,2023-09-05,2023-09-05,株式会社ＳＷＡＴ,,株式会社,静岡県,静岡市駿河区,高松１８２７番地Ａハイツ１０１,,22,102,4228034,,,,,,,2023-09-05,1,,,,,スワット,0
740,3080003003048,新規,0,2023-09-05,2023-09-05,合同会社ＣＤＯ,,合同会社,静岡県,静岡市清水区,楠新田３６６―６,,22,103,4240882,,,,,,,2023-09-05,1,,,,,シーディーオー,0
744,3080101024193,新規,0,2023-09-05,2023-09-05,ＨＥイノベーション株式会社,,株式会社,静岡県,御殿場市,川島田７７７番地－２０５号,,22,215,4120045,,,,,,,2023-09-05,1,,,,,エイチイーイノベーション,0
751,3110001037820,新規,0,2023-09-05,2023-09-05,ＳＴＳ機工株式会社,,株式会社,新潟県,岩船郡関川村,大字大島２３３番地,,15,581,9593241,,,,,,,2023-09-05,1,,,,,エスティエスキコウ,0
752,3110001037829,新規,0,2023-09-05,2023-09-05,株式会社サドテック,,株式会社,新潟県,佐渡市,千種甲１４９６番地,,15,224,9521209,,,,,,,2023-09-05,1,,,,,サドテック,0
764,3120001257780,新規,0,2023-09-05,2023-09-05,株式会社智遠,,株式会社,大阪府,門真市,月出町６番１０－１号,,27,223,5710052,,,,,,,2023-09-05,1,,,,,チエン,0
765,3120001257797,新規,0,2023-09-05,2023-09-05,株式会社ＫＵＬＢＡＹ,,株式会社,大阪府,大阪市都島区,片町２丁目５番６号,,27,102,5340025,,,,,,,2023-09-05,1,,,,,クルベイ,0
766,3120001257855,新規,0,2023-09-05,2023-09-05,ＪＳＴサービス株式会社,,株式会社,大阪府,大阪市中央区,内本町１丁目１－６本町カノヤビル５０１,,27,128,5400026,,,,,,,2023-09-05,1,,,,,ジェイエスティサービス,0
768,3120003024832,新規,0,2023-09-05,2023-09-05,合同会社ＳＴＵＤＩＯ　ＣＯＮＮＥＣＴ,,合同会社,大阪府,大阪市東淀川区,井高野３丁目２‐６４‐７０３,,27,114,5330001,,,,,,,2023-09-05,1,,,,,スタジオコネクト,0
769,3120005023857,新規,0,2023-09-05,2023-09-05,一般社団法人全国柔整支援協会,,その他の設立登記法人,大阪府,大阪市北区,梅田１丁目２番２号大阪駅前第２ビル１２－１２,,27,127,5300001,,,,,,,2023-09-05,1,,,,,ゼンコクジュウセイシエンキョウカイ,0
771,3120103005402,新規,0,2023-09-05,2023-09-05,合同会社エンパワメント＆アドボカシーサービス・ハルジオン,,合同会社,大阪府,岸和田市,下野町１丁目９番１６号,,27,202,5960041,,,,,,,2023-09-05,1,,,,,エンパワメントアンドアドボカシーサービスハルジオン,0
772,3120903004801,新規,0,2023-09-05,2023-09-05,合同会社ヒカサ,,合同会社,大阪府,豊中市,庄内栄町４丁目１１－１１,,27,203,5610834,,,,,,,2023-09-05,1,,,,,ヒカサ,0
777,3140001131430,新規,0,2023-09-05,2023-09-05,株式会社ＣＲＡＺＹ　ＣＨＡＲＭＭＹ,,株式会社,兵庫県,西宮市,山口町下山口５丁目１６－１２,,28,204,6511412,,,,,,,2023-09-05,1,,,,,クレイジーチャーミー,0
778,3140001131463,新規,0,2023-09-05,2023-09-05,株式会社クリプテート,,株式会社,兵庫県,神戸市長田区,前原町１丁目４番２３－１号,,28,106,6530803,,,,,,,2023-09-05,1,,,,,クリプテート,0
782,3140003019500,新規,0,2023-09-05,2023-09-05,合同会社ＩＮＳ　ＬＬＣ,,合同会社,兵庫県,神戸市東灘区,岡本３丁目１２番８－４０３号,,28,101,6580072,,,,,,,2023-09-05,1,,,,,アイエヌエスエルエルシー,0
783,3140005026734,新規,0,2023-09-05,2023-09-05,一般社団法人災害伝承普及協会,,その他の設立登記法人,兵庫県,神戸市中央区,磯辺通１丁目１番１８号カサベラ国際プラザビル７０７,,28,110,6510084,,,,,,,2023-09-05,1,,,,,サイガイデンショウフキュウキョウカイ,0
784,3150003003057,新規,0,2023-09-05,2023-09-05,ＣＡＮＩＳＴＯ合同会社,,合同会社,奈良県,吉野郡吉野町,大字橋屋８１－３０,,29,441,6393118,,,,,,,2023-09-05,1,,,,,キャニスト,0
788,3160001025309,新規,0,2023-09-05,2023-09-05,藤塚工業株式会社,,株式会社,滋賀県,彦根市,柳川町２８番地,,25,202,5211146,,,,,,,2023-09-05,1,,,,,フジツカコウギョウ,0
793,3180001157876,新規,0,2023-09-05,2023-09-05,株式会社功明,,株式会社,愛知県,名古屋市天白区,植田南２丁目１５２７番地の３,,23,116,4680053,,,,,,,2023-09-05,1,,,,,コウメイ,0
795,3180003025684,新規,0,2023-09-05,2023-09-05,合同会社リレーション,,合同会社,愛知県,名古屋市天白区,梅が丘３丁目２３０２番地の１,,23,116,4680004,,,,,,,2023-09-05,1,,,,,リレーション,0
796,3180301037761,新規,0,2023-09-05,2023-09-05,３８１ＳＨＡＢＢＩＲ．ＴＲＡＤＩＮＧ株式会社,,株式会社,愛知県,安城市,桜井町伝左４６番地１,,23,212,4441154,,,,,,,2023-09-05,1,,,,,サンハチイチシャビールトレーディング,0
798,3190001030702,新規,0,2023-09-05,2023-09-05,株式会社シャンティクラシカル,,株式会社,三重県,津市,安濃町草生２７４番地２,,24,201,5142328,,,,,,,2023-09-05,1,,,,,シャンティクラシカル,0
800,3200001041664,新規,0,2023-09-05,2023-09-05,おし學株式会社,,株式会社,岐阜県,各務原市,那加桜町１丁目１３０番地１,,21,213,5040912,,,,,,,2023-09-05,1,,,,,オシガク,0
801,3200001041680,新規,0,2023-09-05,2023-09-05,株式会社マシンメンテ,,株式会社,岐阜県,岐阜市,沖ノ橋町３丁目１番地２,,21,201,5008305,,,,,,,2023-09-05,1,,,,,マシンメンテ,0
802,3210001019445,新規,0,2023-09-05,2023-09-05,株式会社大一電機,,株式会社,福井県,丹生郡越前町,小曽原第７６号１９番地,,18,423,9160273,,,,,,,2023-09-05,1,,,,,ダイイチデンキ,0
803,3210001019453,新規,0,2023-09-05,2023-09-05,株式会社ヒロコーポレーション,,株式会社,福井県,福井市,左内町６番３号カサマツアパート２階Ｂ,,18,201,9188002,,,,,,,2023-09-05,1,,,,,ヒロコーポレーション,0
806,3220001025590,新規,0,2023-09-05,2023-09-05,株式会社ユタカーナ,,株式会社,石川県,加賀市,豊町イ９１番地,,17,206,9220563,,,,,,,2023-09-05,1,,,,,ユタカーナ,0
812,3240001062054,新規,0,2023-09-05,2023-09-05,株式会社国テック,,株式会社,広島県,大竹市,小方ケ丘３番３８号,,34,211,7390628,,,,,,,2023-09-05,1,,,,,クニテック,0
813,3240001062070,新規,0,2023-09-05,2023-09-05,株式会社隆建工,,株式会社,広島県,呉市,押込西平町２１番１６号,,34,202,7370914,,,,,,,2023-09-05,1,,,,,,0
814,3240001062079,新規,0,2023-09-05,2023-09-05,株式会社ＦＭＫ,,株式会社,広島県,広島市中区,南竹屋町２番９－１４０２号,,34,101,7300049,,,,,,,2023-09-05,1,,,,,エフエムケー,0
815,3240001062087,新規,0,2023-09-05,2023-09-05,株式会社ティーエムアイ,,株式会社,広島県,広島市中区,胡町２番１７号,,34,101,7300021,,,,,,,2023-09-05,1,,,,,ティーエムアイ,0
817,3250001020267,新規,0,2023-09-05,2023-09-05,株式会社キャトルズ,,株式会社,山口県,宇部市,今村南２丁目１０番３６号,,35,202,7550154,,,,,,,2023-09-05,1,,,,,キャトルズ,0
823,3260001038275,新規,0,2023-09-05,2023-09-05,株式会社谷岡電機,,株式会社,岡山県,岡山市南区,平福１丁目９番４号,,33,104,7028043,,,,,,,2023-09-05,1,,,,,タニオカデンキ,0
828,3290001102838,新規,0,2023-09-05,2023-09-05,株式会社ＳＰＥＣＴ,,株式会社,福岡県,福岡市博多区,博多駅南３丁目１９－２０ラフレシーサ博多駅南４－８０６,,40,132,8120016,,,,,,,2023-09-05,1,,,,,スペクト,0
829,3290001102854,新規,0,2023-09-05,2023-09-05,アズメイド株式会社,,株式会社,福岡県,福岡市中央区,舞鶴２丁目１－８赤坂レフトバンクビル８Ｆ,,40,133,8100073,,,,,,,2023-09-05,1,,,,,アズメイド,0
830,3290001102862,新規,0,2023-09-05,2023-09-05,エスティテクノ株式会社,,株式会社,福岡県,福岡市博多区,博多駅南５丁目９番１６号,,40,132,8120016,,,,,,,2023-09-05,1,,,,,エスティテクノ,0
831,3290001102879,新規,0,2023-09-05,2023-09-05,株式会社クラッシィ,,株式会社,福岡県,福岡市早良区,内野３丁目２番３１－１号サンロジュマンＡ２０１号,,40,137,8111123,,,,,,,2023-09-05,1,,,,,クラッシィ,0
832,3290001102887,新規,0,2023-09-05,2023-09-05,株式会社レイオン,,株式会社,福岡県,福岡市中央区,春吉２丁目１４番５号,,40,133,8100003,,,,,,,2023-09-05,1,,,,,レイオン,0
833,3290001102895,新規,0,2023-09-05,2023-09-05,株式会社彌田工業,,株式会社,福岡県,飯塚市,伊岐須４６８番地９,,40,205,8200053,,,,,,,2023-09-05,1,,,,,ヤダコウギョウ,0
834,3290001102929,新規,0,2023-09-05,2023-09-05,株式会社ＪＳＫ,,株式会社,福岡県,糸島市,曽根５６６番地８,,40,230,8191561,,,,,,,2023-09-05,1,,,,,ジェイエスケイ,0
838,3290801029826,新規,0,2023-09-05,2023-09-05,株式会社ＹＨ,,株式会社,福岡県,北九州市小倉北区,京町３丁目７番１号,,40,106,8020002,,,,,,,2023-09-05,1,,,,,ワイエイチ,0
843,3310001018577,新規,0,2023-09-05,2023-09-05,株式会社宝船,,株式会社,長崎県,平戸市,田平町山内免３４４－５,,42,207,8594825,,,,,,,2023-09-05,1,,,,,タカラブネ,0
850,3360001032516,新規,0,2023-09-05,2023-09-05,ＵＴＡＧＥ３．０株式会社,,株式会社,沖縄県,中頭郡嘉手納町,字水釜２５９番地,,47,325,9040204,,,,,,,2023-09-05,1,,,,,ウタゲサンテンゼロ,0
854,3370001050376,新規,0,2023-09-05,2023-09-05,株式会社ＭＩＲＡＩ不動産エージェント,,株式会社,宮城県,仙台市青葉区,みやぎ台３丁目１６番６－１号,,04,101,9893214,,,,,,,2023-09-05,1,,,,,ミライフドウサンエージェント,0
858,3390001017365,新規,0,2023-09-05,2023-09-05,株式会社横澤建装,,株式会社,山形県,上山市,みはらしの丘１３番地８,,06,207,9993107,,,,,,,2023-09-05,1,,,,,ヨコザワケンソウ,0
859,3390005009029,新規,0,2023-09-05,2023-09-05,一般社団法人火災予防のＯＮＥ　ＬＯＶＥ,,その他の設立登記法人,山形県,東根市,神町北３丁目６番２０－３号ラ・ヴィータＦ,,06,211,9993762,,,,,,,2023-09-05,1,,,,,カサイヨボウノワンラブ,0
866,3440001009316,新規,0,2023-09-05,2023-09-05,株式会社ＴＯＭＹ,,株式会社,北海道,亀田郡七飯町,字大沼町４７０－１０７,,01,337,0411354,,,,,,,2023-09-05,1,,,,,トミー,0
873,3450003002383,新規,0,2023-09-05,2023-09-05,合同会社ｍｏｔｔｏ,,合同会社,北海道,名寄市,西十条南１１丁目６４番地１９,,01,221,0960020,,,,,,,2023-09-05,1,,,,,モットー,0
875,3480003002018,新規,0,2023-09-05,2023-09-05,合同会社Ｏｙｓｔｅｒ　Ｐｒｏｆｅｓｓｉｏｎａｌ,,合同会社,徳島県,鳴門市,鳴門町高島字中島３９１番地,,36,202,7720051,,,,,,,2023-09-05,1,,,,,オイスタープロフェッショナル,0
877,3500001025174,新規,0,2023-09-05,2023-09-05,株式会社ユニテーブル,,株式会社,愛媛県,松山市,二番町１丁目６番地４,,38,201,7900002,,,,,,,2023-09-05,1,,,,,ユニテーブル,0
878,3500003003095,新規,0,2023-09-05,2023-09-05,合同会社大海ＦＣ,,合同会社,愛媛県,宇和島市,御殿町２番３号,,38,203,7980061,,,,,,,2023-09-05,1,,,,,ヒロミエフシー,0
879,3700150119780,新規,0,2023-09-05,2023-09-05,Ｄｏｎｇｇｕａｎ　Ｓｉｙａｎ　Ｅｌｅｃｔｒｏｎｉｃｓ　Ｃｏ．，Ｌｔｄ,,外国会社等,,,,,,,,ＮＯ．１，ＳＨＡＮＧＺＨＥＮ　ＥＲ　ＲＯＡＤ，ＳＨＡＮＧＪＩＡＯ，ＣＨＡＮＧＡＮ，ＤＯＮＧＧＵＡＮ　ＧＵＡＮＧＤＯＮＧ,,,,,,2023-09-05,1,,,,,トウカンシイェンイレクトゥロニクスカンパニーリミテッド,0
880,3700150119789,新規,0,2023-09-05,2023-09-05,ｓｈｅｎｚｈｅｎｓｈｉ　ｊｉａｔｕｃｈｕａｎｇｘｉｎ　ｄｉａｎｚｉｓｈａｎｇｗｕ　ｙｏｕｘｉａｎｇｏｎｇｓｉ,,外国会社等,,,,,,,,Ｍａ’ａｎｔａｎｇ　Ｃｏｍｍｕｎｉｔｙ，Ｂａｎｔｉａｎ　Ｓｔｒｅｅｔ，Ｌｏｎｇｇａｎｇ　Ｄｉｓｔｒｉｃｔ　Ｒｏｏｍ　１２０２，１２ｔｈ　Ｆｌｏｏｒ，Ｒｕｆｅｎｇ　Ｂｕｉｌｄｉｎｇ，Ｎｏ．５７３　Ｂｕｌｏｎｇ　Ｒｏａｄ　Ｓｈｅｎｚｈｅｎ,,,,,,2023-09-05,1,,,,,シンセンシジャトチワンシンデンシショウムユウゲンコウシ,0
881,3700150119797,新規,0,2023-09-05,2023-09-05,ｓｈｅｎｚｈｅｎｓｈｉ　ｓｉｂｉｔｅｋｅｊｉ　ｙｏｕｘｉａｎｇｏｎｇｓｉ,,外国会社等,,,,,,,,Ｒｏｏｍ７１８　Ｎｏ３８　ＴｉａｎａｎＲｏａｄ　ＢａｎｔｉａｎＣｏｍｍｕｎｉｔｙ　ＢａｎｔｉａｎＳｔｒｅｅｔ　ＬｏｎｇｇａｎｇＤｉｓｔｒｉｃｔ　Ｓｈｅｎｚｈｅｎ,,,,,,2023-09-05,1,,,,,シンセンシシビテカギユウゲンコウシ,0
894,4010001238163,新規,0,2023-09-05,2023-09-05,株式会社Ｐ‐ＵＰ,,株式会社,東京都,千代田区,有楽町２丁目１０番１号,,13,101,1000006,,,,,,,2023-09-05,1,,,,,ピーアップ,0
895,4010001238171,新規,0,2023-09-05,2023-09-05,株式会社シービーティー,,株式会社,東京都,中央区,日本橋本町３丁目２番１３号,,13,102,1030023,,,,,,,2023-09-05,1,,,,,シービーティー,0
896,4010001238221,新規,0,2023-09-05,2023-09-05,株式会社キックス,,株式会社,東京都,千代田区,神田神保町１丁目５２番地４,,13,101,1010051,,,,,,,2023-09-05,1,,,,,キックス,0
898,4010003041565,新規,0,2023-09-05,2023-09-05,ＴＲ１合同会社,,合同会社,東京都,中央区,日本橋１丁目４番１号日本橋一丁目ビルディング,,13,102,1030027,,,,,,,2023-09-05,1,,,,,ティーアールワン,0
899,4010003041573,新規,0,2023-09-05,2023-09-05,合同会社ＬＫ　ＴＯＫＹＯ,,合同会社,東京都,中央区,日本橋茅場町１丁目３番７号千代田ビル５階,,13,102,1030025,,,,,,,2023-09-05,1,,,,,エルケートウキョウ,0
908,4010401176896,新規,0,2023-09-05,2023-09-05,株式会社スマートエステート,,株式会社,東京都,港区,東新橋２丁目３番１７－１７０３号,,13,103,1050021,,,,,,,2023-09-05,1,,,,,スマートエステート,0
911,4010501051000,新規,0,2023-09-05,2023-09-05,ほうせんか株式会社,,株式会社,東京都,台東区,寿１丁目１番９号,,13,106,1110042,,,,,,,2023-09-05,1,,,,,ホウセンカ,0
914,4010601063721,新規,0,2023-09-05,2023-09-05,株式会社神永商会,,株式会社,東京都,江東区,古石場３丁目１１番２４号,,13,108,1350045,,,,,,,2023-09-05,1,,,,,カミナガショウカイ,0
915,4010603010341,新規,0,2023-09-05,2023-09-05,セイネン合同会社,,合同会社,東京都,江東区,大島３丁目９－４,,13,108,1360072,,,,,,,2023-09-05,1,,,,,セイネン,0
916,4010701044803,新規,0,2023-09-05,2023-09-05,株式会社ＫＡＬＭＡ,,株式会社,東京都,品川区,西五反田１丁目２６番２号五反田サンハイツ９１１,,13,109,1410031,,,,,,,2023-09-05,1,,,,,カルマ,0
921,4010801034299,新規,0,2023-09-05,2023-09-05,株式会社ｅｘＡｎｉｍａｌ,,株式会社,東京都,大田区,仲池上２丁目１４番５号パークアクシス西馬込４０４号室,,13,111,1460081,,,,,,,2023-09-05,1,,,,,エクスアニマル,0
922,4010803004663,新規,0,2023-09-05,2023-09-05,合同会社ＬＢＭ,,合同会社,東京都,大田区,鵜の木１丁目６番１５号,,13,111,1460091,,,,,,,2023-09-05,1,,,,,エルビーエム,0
929,4011001156776,新規,0,2023-09-05,2023-09-05,株式会社ＢＰＸ,,株式会社,東京都,渋谷区,渋谷２丁目１４番６号第２かわなビル７階,,13,113,1500002,,,,,,,2023-09-05,1,,,,,ビーピーエックス,0
930,4011001156784,新規,0,2023-09-05,2023-09-05,株式会社ＬＩＡＮＯ,,株式会社,東京都,渋谷区,宇田川町３２番１２号アソルティ渋谷ビル６Ｆ,,13,113,1500042,,,,,,,2023-09-05,1,,,,,リアーノ,0
931,4011001156792,新規,0,2023-09-05,2023-09-05,株式会社ＢＬＡＮＣ．,,株式会社,東京都,渋谷区,桜丘町２３番１７号シティコート桜丘４０８,,13,113,1500031,,,,,,,2023-09-05,1,,,,,ブラン,0
933,4011003017497,新規,0,2023-09-05,2023-09-05,合同会社ＭＨＣ,,合同会社,東京都,渋谷区,道玄坂１丁目１０番８号渋谷道玄坂東急ビル２Ｆ－Ｃ,,13,113,1500043,,,,,,,2023-09-05,1,,,,,エムエイチシー,0
941,4011101104206,新規,0,2023-09-05,2023-09-05,株式会社夢挑成,,株式会社,東京都,新宿区,西新宿７丁目４－７イマス浜田ビル５階,,13,104,1600023,,,,,,,2023-09-05,1,,,,,ユメチョウジョウ,0
942,4011101104222,新規,0,2023-09-05,2023-09-05,株式会社ＴＡオルタナティブ,,株式会社,東京都,新宿区,歌舞伎町１丁目２番１３号新光ビル７階ＥＦ号室,,13,104,1600021,,,,,,,2023-09-05,1,,,,,ティーエーオルタナティブ,0
946,4011203004163,新規,0,2023-09-05,2023-09-05,合同会社ＥＸＥ．ＲＯＣＫＥｎｔｅｒｔａｉｎｍｅｎｔ,,合同会社,東京都,中野区,中野３丁目２６－１６ＡＢ・１・１０１,,13,114,1640001,,,,,,,2023-09-05,1,,,,,エグゼロックエンタテイメント,0
947,4011303004897,新規,0,2023-09-05,2023-09-05,ＳＮＣ合同会社,,合同会社,東京都,杉並区,西荻南４丁目４番１１号,,13,115,1670053,,,,,,,2023-09-05,1,,,,,エスエヌシー,0
948,4011401025424,新規,0,2023-09-05,2023-09-05,株式会社ワイズテック,,株式会社,東京都,板橋区,蓮根３丁目９－１７－５０１,,13,119,1740046,,,,,,,2023-09-05,1,,,,,ワイズテック,0
949,4011403004104,新規,0,2023-09-05,2023-09-05,合同会社ＲＭＫ綜合事務所,,合同会社,東京都,板橋区,三園１丁目２９番１７－１０８号,,13,119,1750091,,,,,,,2023-09-05,1,,,,,アールエムケイソウゴウジムショ,0
952,4011503005745,新規,0,2023-09-05,2023-09-05,合同会社ＴＭ,,合同会社,東京都,北区,浮間４丁目１２－１８－２０２号イナミビル,,13,117,1150051,,,,,,,2023-09-05,1,,,,,ティエム,0
953,4011701026568,新規,0,2023-09-05,2023-09-05,株式会社Ｋ‐Ａｒｃｓ,,株式会社,東京都,江戸川区,北小岩５丁目７番２号,,13,123,1330051,,,,,,,2023-09-05,1,,,,,ケーアークス,0
955,4011801042977,新規,0,2023-09-05,2023-09-05,Ｌａｄｙｂｕｇ株式会社,,株式会社,東京都,足立区,南花畑３丁目１８番２９－１０１号,,13,121,1210062,,,,,,,2023-09-05,1,,,,,レディバグ,0
960,4011805003298,新規,0,2023-09-05,2023-09-05,医療法人社団紬幸会,,その他の設立登記法人,東京都,足立区,千住３丁目７６番地１階,,13,121,1200034,,,,,,,2023-09-05,1,,,,,ジュコウカイ,0
962,4012401040958,新規,0,2023-09-05,2023-09-05,株式会社アマル,,株式会社,東京都,武蔵野市,吉祥寺本町１丁目２０番１４号,,13,203,1800004,,,,,,,2023-09-05,1,,,,,アマル,0
964,4012403006156,新規,0,2023-09-05,2023-09-05,一三合同会社,,合同会社,東京都,三鷹市,中原４丁目７番１５号,,13,204,1810005,,,,,,,2023-09-05,1,,,,,イチサン,0
967,4012801022606,新規,0,2023-09-05,2023-09-05,株式会社ビッグバンブー,,株式会社,東京都,立川市,錦町１丁目１０番１８号ＣａｓａｄｅＴａｃｈｉｋａｗａ２０１,,13,202,1900022,,,,,,,2023-09-05,1,,,,,ビッグバンブー,0
970,4013301051277,新規,0,2023-09-05,2023-09-05,株式会社ＫＪ　ＭＡＮＡ　ＥＮＴＥＲＴＡＩＮＭＥＮＴ,,株式会社,東京都,豊島区,西池袋３丁目２１番１３－２２０９号,,13,116,1710021,,,,,,,2023-09-05,1,,,,,ケージェイマナエンターテイメント,0
976,4020001153295,新規,0,2023-09-05,2023-09-05,株式会社ＣＮ　Ｂｒｉｄｇｅ,,株式会社,神奈川県,横浜市西区,高島２丁目１１番２号スカイメナー横浜５１９,,14,103,2200011,,,,,,,2023-09-05,1,,,,,シーエヌブリッジ,0
980,4020003024544,新規,0,2023-09-05,2023-09-05,Ｕｎｉ　Ｆａｃａｄｅ　Ｄｅｓｉｇｎ合同会社,,合同会社,神奈川県,川崎市宮前区,宮崎３丁目１１―１９,,14,136,2160033,,,,,,,2023-09-05,1,,,,,ユニファサードデザイン,0
994,4030001155794,新規,0,2023-09-05,2023-09-05,ダイシン株式会社,,株式会社,埼玉県,八潮市,大字大曽根３６８番地ガラクシー３０３号,,11,234,3400834,,,,,,,2023-09-05,1,,,,,ダイシン,0
995,4030001155877,新規,0,2023-09-05,2023-09-05,ＴＲＡＩＬ　ＪＡＰＡＮ株式会社,,株式会社,埼玉県,春日部市,永沼４１６番地２,,11,214,3440123,,,,,,,2023-09-05,1,,,,,,0
996,4030001155968,新規,0,2023-09-05,2023-09-05,シンクバリュー株式会社,,株式会社,埼玉県,さいたま市西区,西大宮２丁目２６番地６,,11,101,3310078,,,,,,,2023-09-05,1,,,,,シンクバリュー,0
1012,4040003023214,新規,0,2023-09-05,2023-09-05,ＢＵＹＢＵＬＬ合同会社,,合同会社,千葉県,印西市,小林大門下２丁目１１番地５,,12,231,2701316,,,,,,,2023-09-05,1,,,,,バイブル,0
1013,4040003023255,新規,0,2023-09-05,2023-09-05,合同会社エントロピー,,合同会社,千葉県,松戸市,新松戸３丁目３２７番地の２ａｒｇｅｎｔｏ１０２号,,12,207,2700034,,,,,,,2023-09-05,1,,,,,エントロピー,0
1014,4050001053419,新規,0,2023-09-05,2023-09-05,おまかせ株式会社,,株式会社,茨城県,守谷市,松ケ丘５丁目２７番地６,,08,224,3020127,,,,,,,2023-09-05,1,,,,,オマカセ,0
1024,4070003005085,新規,0,2023-09-05,2023-09-05,セブンプランニング合同会社,,合同会社,群馬県,前橋市,富士見町石井１３２５,,10,201,3710105,,,,,,,2023-09-05,1,,,,,,0
1027,4080001025844,新規,0,2023-09-05,2023-09-05,株式会社小川商店,,株式会社,静岡県,藤枝市,青葉町４丁目３－２ライフガーデン１０２,,22,214,4260066,,,,,,,2023-09-05,1,,,,,オガワショウテン,0
1030,4080101024192,新規,0,2023-09-05,2023-09-05,株式会社孝貴,,株式会社,静岡県,御殿場市,川島田９７７番地の３７,,22,215,4120045,,,,,,,2023-09-05,1,,,,,コウキ,0
1032,4080103002881,新規,0,2023-09-05,2023-09-05,合同会社ＴＫＲ,,合同会社,静岡県,伊豆の国市,原木１２０５番地,,22,225,4102124,,,,,,,2023-09-05,1,,,,,ティーケーアール,0
1038,4090001018310,新規,0,2023-09-05,2023-09-05,株式会社Ｃ・Ａ・Ｒ・Ｏ・Ｌ,,株式会社,山梨県,西八代郡市川三郷町,市川大門９２９番地,,19,346,4093601,,,,,,,2023-09-05,1,,,,,キャロル,0
1039,4090003002378,新規,0,2023-09-05,2023-09-05,合同会社住宅リメイク専門店アヴァンセ,,合同会社,山梨県,甲府市,小松町５７０番４号,,19,201,4000002,,,,,,,2023-09-05,1,,,,,ジュウタクリメイクセンモンテンアヴァンセ,0
1041,4110001037828,新規,0,2023-09-05,2023-09-05,株式会社大栄,,株式会社,新潟県,長岡市,宝３丁目２番地３７,,15,202,9400016,,,,,,,2023-09-05,1,,,,,ダイエイ,0
1044,4110003005147,新規,0,2023-09-05,2023-09-05,合同会社エルスール,,合同会社,新潟県,新潟市西区,五十嵐３の町北４番９号,,15,107,9502176,,,,,,,2023-09-05,1,,,,,エルスール,0
1053,4120001257788,新規,0,2023-09-05,2023-09-05,株式会社汀屋,,株式会社,大阪府,大阪市東住吉区,南田辺３丁目２０番７号,,27,121,5460033,,,,,,,2023-09-05,1,,,,,ナギサヤ,0
1054,4120001257805,新規,0,2023-09-05,2023-09-05,Ａｌｍｉｃｋ株式会社,,株式会社,大阪府,枚方市,香里ケ丘８丁目１４番地の７,,27,210,5730084,,,,,,,2023-09-05,1,,,,,アルミック,0
1055,4120001257813,新規,0,2023-09-05,2023-09-05,株式会社ガミン,,株式会社,大阪府,大阪市北区,本庄西２丁目１７番１１号－４階Ｂ号室,,27,127,5310073,,,,,,,2023-09-05,1,,,,,ガミン,0
1056,4120001257887,新規,0,2023-09-05,2023-09-05,株式会社スモモブルーム,,株式会社,大阪府,大阪市天王寺区,生玉前町５番１４号,,27,109,5430072,,,,,,,2023-09-05,1,,,,,スモモブルーム,0
1057,4120001257895,新規,0,2023-09-05,2023-09-05,株式会社ＮＫＣ０,,株式会社,大阪府,大阪市北区,堂島２丁目１番３１号,,27,127,5300003,,,,,,,2023-09-05,1,,,,,エヌケーシーゼロ,0
1058,4120001257912,新規,0,2023-09-05,2023-09-05,株式会社ＳＡＮＳＵＮ,,株式会社,大阪府,大阪市中央区,谷町８丁目１番４３－２０５号,,27,128,5420012,,,,,,,2023-09-05,1,,,,,サンスン,0
1059,4120001257920,新規,0,2023-09-05,2023-09-05,ミスミ商事株式会社,,株式会社,大阪府,守口市,菊水通３丁目１２番１９号,,27,209,5700032,,,,,,,2023-09-05,1,,,,,ミスミショウジ,0
1062,4120005023856,新規,0,2023-09-05,2023-09-05,弁護士法人岡田法律事務所,,その他の設立登記法人,大阪府,大阪市北区,西天満６丁目７番４号大阪弁護士ビル７０９号,,27,127,5300047,,,,,,,2023-09-05,1,,,,,オカダホウリツジムショ,0
1064,4120901048023,新規,0,2023-09-05,2023-09-05,株式会社ピースフルサービス,,株式会社,大阪府,三島郡島本町,若山台２丁目２－２３－１０２,,27,301,6180024,,,,,,,2023-09-05,1,,,,,ピースフルサービス,0
1066,4122001037328,新規,0,2023-09-05,2023-09-05,株式会社ＪＩＮ,,株式会社,大阪府,東大阪市,中野１丁目１９番１号,,27,227,5780913,,,,,,,2023-09-05,1,,,,,ジン,0
1079,4140001131470,新規,0,2023-09-05,2023-09-05,株式会社アースエステート,,株式会社,兵庫県,明石市,小久保６丁目１５番地の５,,28,203,6730005,,,,,,,2023-09-05,1,,,,,アースエステート,0
1080,4140001131504,新規,0,2023-09-05,2023-09-05,株式会社エルシェード,,株式会社,兵庫県,神戸市兵庫区,荒田町１丁目２０番１号,,28,105,6520032,,,,,,,2023-09-05,1,,,,,エルシェード,0
1081,4140001131520,新規,0,2023-09-05,2023-09-05,株式会社Ｊｅｗｅｌｒｙ　Ｂｏｘ,,株式会社,兵庫県,神戸市長田区,四番町３丁目４番地８,,28,106,6530004,,,,,,,2023-09-05,1,,,,,ジュエリーボックス,0
1082,4140003019482,新規,0,2023-09-05,2023-09-05,ＶＩＥ．Ｄ合同会社,,合同会社,兵庫県,神戸市兵庫区,西上橘通２丁目８－３高田屋アパート３号,00131766,28,105,6520033,,,,,,,2023-09-05,1,,,,,ブイアイイーディー,0
1083,4140003019499,新規,0,2023-09-05,2023-09-05,Ａｎｄａｎｔｅ合同会社,,合同会社,兵庫県,神戸市須磨区,磯馴町５丁目１番２１号６０１号室,,28,107,6540047,,,,,,,2023-09-05,1,,,,,アンダンテ,0
1085,4140005026733,新規,0,2023-09-05,2023-09-05,一般社団法人こうべ創造みらい研究所,,その他の設立登記法人,兵庫県,神戸市垂水区,塩屋町７丁目２番６号,,28,108,6550872,,,,,,,2023-09-05,1,,,,,コウベソウゾウミライケンキュウショ,0
1087,4150003003056,新規,0,2023-09-05,2023-09-05,合同会社プラス,,合同会社,奈良県,大和郡山市,矢田山町７番地１８,,29,203,6391055,,,,,,,2023-09-05,1,,,,,プラス,0
1088,4160001025308,新規,0,2023-09-05,2023-09-05,株式会社内藤工務店,,株式会社,滋賀県,高島市,今津町下弘部５８５番地,,25,212,5201612,,,,,,,2023-09-05,1,,,,,ナイトウコウムテン,0
1090,4180301037777,新規,0,2023-09-05,2023-09-05,株式会社ゴルフラボ,,株式会社,愛知県,蒲郡市,神明町３番６号シティライフ蒲郡駅前１０２,,23,214,4430056,,,,,,,2023-09-05,1,,,,,ゴルフラボ,0
1091,4180301037793,新規,0,2023-09-05,2023-09-05,株式会社Ｋｉｙｏｂａｎ,,株式会社,愛知県,碧南市,霞浦町５丁目９５番地５,,23,209,4470881,,,,,,,2023-09-05,1,,,,,キヨバン,0
1092,4180303005815,新規,0,2023-09-05,2023-09-05,合同会社ヨミんち,,合同会社,愛知県,刈谷市,半城土西町２丁目３ー１０サンマンションアトレ刈谷ミササガパーク２０５,,23,210,4480816,,,,,,,2023-09-05,1,,,,,ヨミンチ,0
1093,4180303005823,新規,0,2023-09-05,2023-09-05,ウィズアス合同会社,,合同会社,愛知県,豊田市,曙町５丁目７４,,23,211,4710835,,,,,,,2023-09-05,1,,,,,ウィズアス,0
1098,4200001041655,新規,0,2023-09-05,2023-09-05,株式会社Ｉメカテック,,株式会社,岐阜県,瑞浪市,稲津町小里９８０番地の３,,21,208,5096103,,,,,,,2023-09-05,1,,,,,アイメカテック,0
1099,4200001041663,新規,0,2023-09-05,2023-09-05,株式会社Ｐａｒｆａｅｉｍｅ,,株式会社,岐阜県,養老郡養老町,船附１３５２番地１,,21,341,5031382,,,,,,,2023-09-05,1,,,,,パッファエイメ,0
1100,4210001019444,新規,0,2023-09-05,2023-09-05,株式会社ＩＣＨＩ,,株式会社,福井県,福井市,浅水二日町第２６号２９番地４,,18,201,9188182,,,,,,,2023-09-05,1,,,,,イチ,0
1101,4220001025581,新規,0,2023-09-05,2023-09-05,株式会社エーオ電設,,株式会社,石川県,小松市,荒木田町乙１１０番地,,17,203,9230823,,,,,,,2023-09-05,1,,,,,エーオデンセツ,0
1107,4240001062078,新規,0,2023-09-05,2023-09-05,株式会社鶴亀商事,,株式会社,広島県,呉市,阿賀北３丁目２０番１０号,,34,202,7370001,,,,,,,2023-09-05,1,,,,,ツルカメショウジ,0
1108,4240001062086,新規,0,2023-09-05,2023-09-05,サンファーストワン株式会社,,株式会社,広島県,福山市,新涯町２丁目３番１５－３０４号,,34,207,7210955,,,,,,,2023-09-05,1,,,,,サンファーストワン,0
1109,4240003006289,新規,0,2023-09-05,2023-09-05,合同会社ゆきのした,,合同会社,広島県,福山市,大門町１丁目２３番３４号,,34,207,7210926,,,,,,,2023-09-05,1,,,,,ユキノシタ,0
1110,4250001020266,新規,0,2023-09-05,2023-09-05,山黎工業株式会社,,株式会社,山口県,宇部市,西宇部北７丁目４番１５号,,35,202,7590211,,,,,,,2023-09-05,1,,,,,サンレイコウギョウ,0
1114,4260003004407,新規,0,2023-09-05,2023-09-05,合同会社Ｎｉｈｏｎ　ｓｈｏｋａｉ,,合同会社,岡山県,倉敷市,玉島富１７０番地,,33,202,7138116,,,,,,,2023-09-05,1,,,,,ニホンショウカイ,0
1118,4280003001765,新規,0,2023-09-05,2023-09-05,合同会社精神医学の学び舎,,合同会社,島根県,松江市,浜乃木７丁目２２－１２サンハイツＡ２０２号室,,32,201,6900044,,,,,,,2023-09-05,1,,,,,セイシンイガクノマナビヤ,0
1120,4290001102812,新規,0,2023-09-05,2023-09-05,株式会社Ｔｈｕｎｄｅｒ　Ｘ,,株式会社,福岡県,糸島市,加布里５丁目１１６４番地２,,40,230,8191124,,,,,,,2023-09-05,1,,,,,サンダーエックス,0
1121,4290001102861,新規,0,2023-09-05,2023-09-05,ツカサ・ゼン株式会社,,株式会社,福岡県,福岡市南区,柳瀬１丁目１１番５号,,40,134,8111321,,,,,,,2023-09-05,1,,,,,ツカサゼン,0
1122,4290001102878,新規,0,2023-09-05,2023-09-05,株式会社甲栄,,株式会社,福岡県,大川市,大字下牟田口１３５１番地,,40,212,8310023,,,,,,,2023-09-05,1,,,,,コウエイ,0
1123,4290001102886,新規,0,2023-09-05,2023-09-05,株式会社ｍｉｒｉ．,,株式会社,福岡県,久留米市,国分町１１４５番地３,,40,203,8390863,,,,,,,2023-09-05,1,,,,,ミリ,0
1124,4290001102894,新規,0,2023-09-05,2023-09-05,株式会社ＮＯＶＵＳ,,株式会社,福岡県,久留米市,山川安居野３丁目５番１３号,,40,203,8390812,,,,,,,2023-09-05,1,,,,,ノーバス,0
1125,4290001102903,新規,0,2023-09-05,2023-09-05,株式会社志美づ,,株式会社,福岡県,福岡市博多区,綱場町６番３号,,40,132,8120024,,,,,,,2023-09-05,1,,,,,シミヅ,0
1126,4290001102928,新規,0,2023-09-05,2023-09-05,株式会社Ｋコネクト,,株式会社,福岡県,那珂川市,中原６丁目６番２５－４０５号,,40,231,8111213,,,,,,,2023-09-05,1,,,,,ケイコネクト,0
1127,4290001102936,新規,0,2023-09-05,2023-09-05,株式会社ＤＩＣ,,株式会社,福岡県,福岡市博多区,竹下４丁目２番１６号４階,,40,132,8120895,,,,,,,2023-09-05,1,,,,,ディーアイシー,0
1128,4290003014312,新規,0,2023-09-05,2023-09-05,Ｂｉ　Ｓｏｕｌ合同会社,,合同会社,福岡県,福岡市博多区,中洲５丁目４－１０－２２１０,,40,132,8100801,,,,,,,2023-09-05,1,,,,,ビソウル,0
1129,4290801029825,新規,0,2023-09-05,2023-09-05,株式会社ＹＴ,,株式会社,福岡県,北九州市小倉北区,京町３丁目７番１号,,40,106,8020002,,,,,,,2023-09-05,1,,,,,ワイティ,0
1136,4320003004160,新規,0,2023-09-05,2023-09-05,合同会社インクリメントワン,,合同会社,大分県,津久見市,中央町１０―１,,44,207,8792441,,,,,,,2023-09-05,1,,,,,インクリメントワン,0
1138,4330001031230,新規,0,2023-09-05,2023-09-05,株式会社ＣＳクリエイト,,株式会社,熊本県,宇土市,松山町３９４１,,43,211,8690416,,,,,,,2023-09-05,1,,,,,シーエスクリエイト,0
1140,4330003009951,新規,0,2023-09-05,2023-09-05,合同会社Ｏｎｅ　Ｌｉｎｋ,,合同会社,熊本県,熊本市南区,城南町丹生宮５２６番地,,43,104,8614233,,,,,,,2023-09-05,1,,,,,ワンリンク,0
1141,4340001025867,新規,0,2023-09-05,2023-09-05,株式会社ＬＦＹ,,株式会社,鹿児島県,鹿児島市,坂之上６丁目４番３７号,,46,201,8910150,,,,,,,2023-09-05,1,,,,,エルエフワイ,0
1143,4350001018548,新規,0,2023-09-05,2023-09-05,ＭＦマテリアル株式会社,,株式会社,宮崎県,延岡市,天下町１２０３番地３,,45,203,8820071,,,,,,,2023-09-05,1,,,,,エムエフマテリアル,0
1150,4360001032481,新規,0,2023-09-05,2023-09-05,株式会社ミライズ,,株式会社,沖縄県,那覇市,繁多川５丁目１１－９ワイズエステムコート繁多川６０３,,47,201,9020071,,,,,,,2023-09-05,1,,,,,ミライズ,0
1153,4370001050359,新規,0,2023-09-05,2023-09-05,株式会社Ｇｒａｃｅｆｕｌ,,株式会社,宮城県,仙台市泉区,上谷刈字治郎兵衛下４４番地,,04,105,9813121,,,,,,,2023-09-05,1,,,,,グレイスフル,0
1154,4370001050375,新規,0,2023-09-05,2023-09-05,株式会社丸元,,株式会社,宮城県,名取市,愛島台６丁目３番地の１３,,04,207,9811251,,,,,,,2023-09-05,1,,,,,マルゲン,0
1155,4370005010680,新規,0,2023-09-05,2023-09-05,司法書士法人大野事務所,,その他の設立登記法人,宮城県,仙台市青葉区,国見ケ丘３丁目３２番地の３,,04,101,9893201,,,,,,,2023-09-05,1,,,,,オオノジムショ,0
1157,4380005012742,新規,0,2023-09-05,2023-09-05,福島県農産物集荷協同組合,,その他の設立登記法人,福島県,会津若松市,インター西２９番地,,07,202,9650059,,,,,,,2023-09-05,1,,,,,フクシマケンノウサンブツシュウカ,0
1162,4410001013591,新規,0,2023-09-05,2023-09-05,Ｃ　ｐｌａｎ株式会社,,株式会社,秋田県,秋田市,新屋前野町１５番８号,,05,201,0101635,,,,,,,2023-09-05,1,,,,,,0
1182,4480003002017,新規,0,2023-09-05,2023-09-05,ＨＹＴ合同会社,,合同会社,徳島県,小松島市,間新田町字ヤケ木１３０番地の２３,,36,203,7730024,,,,,,,2023-09-05,1,,,,,エイチワイティー,0
1183,4480005006981,新規,0,2023-09-05,2023-09-05,一般社団法人とくしまＣＳＡ風土,,その他の設立登記法人,徳島県,鳴門市,撫養町南浜字東浜１５８番地１３第５西谷ビル６０５号室,,36,202,7720003,,,,,,,2023-09-05,1,,,,,トクシマシーエスエーフウド,0
1187,4500001025165,新規,0,2023-09-05,2023-09-05,白猫クリエイト株式会社,,株式会社,愛媛県,松山市,千舟町４丁目３番地７,,38,201,7900011,,,,,,,2023-09-05,1,,,,,シロネコクリエイト,0
1188,4500001025173,新規,0,2023-09-05,2023-09-05,株式会社Ｈ＆Ａ,,株式会社,愛媛県,今治市,八町西３丁目６番３８号,,38,202,7940832,,,,,,,2023-09-05,1,,,,,,0
1190,4500003003094,新規,0,2023-09-05,2023-09-05,合同会社ＣＬＡＭＰＳ．,,合同会社,愛媛県,松山市,下伊台町１２１２番地１１,,38,201,7910112,,,,,,,2023-09-05,1,,,,,クランプス,0
1191,4700150119788,新規,0,2023-09-05,2023-09-05,ｇｕａｎｇｄｏｎｇ　ｈａｎｄａｋｅｈｕａｎｊｉｎｇｇｏｎｇｃｈｅｎｇ　ｙｏｕｘｉａｎｇｏｎｇｓｉ,,外国会社等,,,,,,,,ｂａｉｙｕｎｑｕｚｈｅｎｄｏｎｇｎａｎｌｕｚｉｂｉａｎ１８８ｈａｏ５１０－１ｓｈｉ　ｇｕａｎｇｚｈｏｕｓｈｉ,,,,,,2023-09-05,1,,,,,カントンハンダケホゥアンジンゴンチェンユウゲンコウシ,0
1192,4700150119796,新規,0,2023-09-05,2023-09-05,ｓｈｅｎｚｈｅｎｓｈｉ　ｗｅｉｙｉｘｉｏｎｇｄｉｊｉｎｃｈｕｋｏｕ　ｙｏｕｘｉａｎｇｏｎｇｓｉ,,外国会社等,,,,,,,,ｌｏｎｇｇａｎｇｑｕｐｉｎｇｈｕｊｉｅｄａｏｓｈａｎｇｍｕｇｕｓｈｅｑｕｘｉｎｈｅｌｕ７７ｈａｏ４ｌｏｕ４０１　ｓｈｅｎｚｈｅｎｓｈｉ,,,,,,2023-09-05,1,,,,,シンセンシウェイイションディジンチュコユウゲンコウシ,0
1203,5010001238170,新規,0,2023-09-05,2023-09-05,株式会社和酒膳寛,,株式会社,東京都,千代田区,岩本町２丁目１６番５号,,13,101,1010032,,,,,,,2023-09-05,1,,,,,ワシュゼンカン,0
1204,5010001238220,新規,0,2023-09-05,2023-09-05,株式会社ｅｎｊｏｙ　ｍａｋｅｒ,,株式会社,東京都,文京区,大塚６丁目４番２－３０３号,,13,105,1120012,,,,,,,2023-09-05,1,,,,,エンジョイメーカー,0
1207,5010003041589,新規,0,2023-09-05,2023-09-05,合同会社プラビダ,,合同会社,東京都,文京区,本郷６丁目７番９号実用本郷マンション４０１,,13,105,1130033,,,,,,,2023-09-05,1,,,,,プラビダ,0
1212,5010401176978,新規,0,2023-09-05,2023-09-05,株式会社５ｆｉｖｅ,,株式会社,東京都,港区,虎ノ門１丁目１２番１４号虎ノ門マスターズ地下１階,,13,103,1050001,,,,,,,2023-09-05,1,,,,,ファイブ,0
1213,5010401177010,新規,0,2023-09-05,2023-09-05,サザンカパートナーズ株式会社,,株式会社,東京都,港区,麻布台１丁目７番２号,,13,103,1060041,,,,,,,2023-09-05,1,,,,,サザンカパートナーズ,0
1218,5010405022443,新規,0,2023-09-05,2023-09-05,一般社団法人Ａｉｒｉｓ　Ｇｉｌｄ,,その他の設立登記法人,東京都,港区,芝浦４丁目１０番１－４７０１号,,13,103,1080023,,,,,,,2023-09-05,1,,,,,アイリスギルド,0
1225,5010601063720,新規,0,2023-09-05,2023-09-05,ＳＨＵ株式会社,,株式会社,東京都,墨田区,立川２丁目１２－１１－４０２,,13,107,1300023,,,,,,,2023-09-05,1,,,,,エスエイチユー,0
1226,5010601063729,新規,0,2023-09-05,2023-09-05,株式会社春芳,,株式会社,東京都,墨田区,立花６丁目６番１３号,,13,107,1310043,,,,,,,2023-09-05,1,,,,,シュンホウ,0
1231,5010801034298,新規,0,2023-09-05,2023-09-05,アッセンブル株式会社,,株式会社,東京都,大田区,西馬込２丁目５番８号,,13,111,1430026,,,,,,,2023-09-05,1,,,,,アッセンブル,0
1233,5011001156684,新規,0,2023-09-05,2023-09-05,株式会社ＳｅｒｅｎＭａｔｅ,,株式会社,東京都,渋谷区,神宮前６丁目２３番４号桑野ビル２階,,13,113,1500001,,,,,,,2023-09-05,1,,,,,セレンメイト,0
1234,5011001156692,新規,0,2023-09-05,2023-09-05,株式会社ＰＡＬ,,株式会社,東京都,渋谷区,代官山町８－７Ｄａｉｗａ代官山ビル,,13,113,1500034,,,,,,,2023-09-05,1,,,,,パル,0
1237,5011003017463,新規,0,2023-09-05,2023-09-05,Ｇｉｇｇｌｙ　Ｃｒｅａｔｉｖｅ　Ｃｏ合同会社,,合同会社,東京都,渋谷区,神宮前６丁目２３番４号桑野ビル２階,,13,113,1500001,,,,,,,2023-09-05,1,,,,,ギグリークリエイティブコー,0
1244,5011101104147,新規,0,2023-09-05,2023-09-05,千月株式会社,,株式会社,東京都,新宿区,百人町１丁目１７－５メゾンオグラ３０３号,,13,104,1690073,,,,,,,2023-09-05,1,,,,,センヅキ,0
1245,5011101104205,新規,0,2023-09-05,2023-09-05,株式会社Ｒｏｔａｓｐｅｃｔ,,株式会社,東京都,新宿区,西新宿３丁目３番１３号西新宿水間ビル２Ｆ,,13,104,1600023,,,,,,,2023-09-05,1,,,,,ロータスペクト,0
1246,5011101104213,新規,0,2023-09-05,2023-09-05,信能ネットワーク株式会社,,株式会社,東京都,新宿区,西新宿７丁目５番５号,,13,104,1600023,,,,,,,2023-09-05,1,,,,,シンノウネットワーク,0
1251,5011103013437,新規,0,2023-09-05,2023-09-05,合同会社ハーモニー,,合同会社,東京都,新宿区,荒木町１０番地３０コムロンド四谷荒木町２０１,,13,104,1600007,,,,,,,2023-09-05,1,,,,,ハーモニー,0
1252,5011201024889,新規,0,2023-09-05,2023-09-05,日ケミクリカ株式会社,,株式会社,東京都,中野区,中野５丁目６７番７号プラザ中野８０１,,13,114,1640001,,,,,,,2023-09-05,1,,,,,ニッケミクリカ,0
1253,5011203004162,新規,0,2023-09-05,2023-09-05,エースオンエス合同会社,,合同会社,東京都,中野区,中野５丁目６７番７号プラザ中野８０１,,13,114,1640001,,,,,,,2023-09-05,1,,,,,エースオンエス,0
1254,5011303004896,新規,0,2023-09-05,2023-09-05,合同会社松本考業,,合同会社,東京都,杉並区,荻窪５丁目１６番７号,,13,115,1670051,,,,,,,2023-09-05,1,,,,,マツモトコウギョウ,0
1257,5011501029720,新規,0,2023-09-05,2023-09-05,株式会社ｍｙｓｉｇ,,株式会社,東京都,北区,西が丘１丁目２８番４号,,13,117,1150056,,,,,,,2023-09-05,1,,,,,ミューシグ,0
1261,5011601027104,新規,0,2023-09-05,2023-09-05,株式会社ａｓｈｉｔａ,,株式会社,東京都,練馬区,土支田１丁目２０番１号,,13,120,1790076,,,,,,,2023-09-05,1,,,,,アシタ,0
1262,5011703003580,新規,0,2023-09-05,2023-09-05,合同会社Ｈａｐｐｉｎｅｓｓ,,合同会社,東京都,江戸川区,平井３丁目２３番５号桜コーポ２０１号室,,13,123,1320035,,,,,,,2023-09-05,1,,,,,ハピネス,0
1271,5012401040957,新規,0,2023-09-05,2023-09-05,フェブラリーファースト株式会社,,株式会社,東京都,調布市,布田１丁目４０番地２アクシス調布８０５,,13,208,1820024,,,,,,,2023-09-05,1,,,,,フェブラリーファースト,0
1272,5012403006139,新規,0,2023-09-05,2023-09-05,合同会社さな,,合同会社,東京都,府中市,小柳町１丁目２６－１２,,13,206,1830013,,,,,,,2023-09-05,1,,,,,サナ,0
1273,5012403006155,新規,0,2023-09-05,2023-09-05,ＩＴＳＵ樹合同会社,,合同会社,東京都,三鷹市,下連雀５丁目１番１－６７２号,,13,204,1810013,,,,,,,2023-09-05,1,,,,,イツキ,0
1280,5012705002364,新規,0,2023-09-05,2023-09-05,特定非営利活動法人Ｍｅｇｕｒｉｅ,,その他の設立登記法人,東京都,西東京市,富士町５丁目７番２３号６,,13,229,2020014,,,,,,,2023-09-05,1,,,,,メグリエ,0
1281,5012801022613,新規,0,2023-09-05,2023-09-05,株式会社Ｏｍｂａｋ,,株式会社,東京都,東大和市,湖畔２丁目１０４４番地の２２,,13,220,2070002,,,,,,,2023-09-05,1,,,,,オンバック,0
1290,5020001153278,新規,0,2023-09-05,2023-09-05,株式会社只野,,株式会社,神奈川県,横浜市港北区,綱島東５丁目６番２３－６０４号,,14,109,2230052,,,,,,,2023-09-05,1,,,,,タダノ,0
1291,5020001153352,新規,0,2023-09-05,2023-09-05,株式会社Ａｃｏｌｏｒ,,株式会社,神奈川県,横浜市西区,北幸２丁目１０番地２８むつみビル３Ｆ,,14,103,2200004,,,,,,,2023-09-05,1,,,,,エーカラー,0
1295,5020003024527,新規,0,2023-09-05,2023-09-05,ムイデザイン合同会社,,合同会社,神奈川県,横浜市南区,山谷６９番地,,14,105,2320036,,,,,,,2023-09-05,1,,,,,ムイデザイン,0
1299,5030001155851,新規,0,2023-09-05,2023-09-05,ＭＯＳ・ＣＯ株式会社,,株式会社,埼玉県,川口市,東領家３丁目１番地１,,11,203,3320003,,,,,,,2023-09-05,1,,,,,モスコ,0
1300,5030001155950,新規,0,2023-09-05,2023-09-05,株式会社リベシア,,株式会社,埼玉県,さいたま市南区,白幡６丁目８番１９号２０９,,11,108,3360022,,,,,,,2023-09-05,1,,,,,リベシア,0
1309,5040003023246,新規,0,2023-09-05,2023-09-05,合同会社Ｓｔｕｄｉｏ１５０,,合同会社,千葉県,船橋市,新高根５丁目１４番１４号,,12,204,2740814,,,,,,,2023-09-05,1,,,,,スタジオイチゴウマル,0
1313,5050001053376,新規,0,2023-09-05,2023-09-05,株式会社システムハウスＡＳＵＫＡ,,株式会社,茨城県,つくば市,緑が丘１１番地８,,08,220,3050863,,,,,,,2023-09-05,1,,,,,システムハウスアスカ,0
1317,5070003005084,新規,0,2023-09-05,2023-09-05,合同会社双晶,,合同会社,群馬県,甘楽郡甘楽町,大字上野１４０－１,,10,384,3702201,,,,,,,2023-09-05,1,,,,,ソウショウ,0
1320,5080001025835,新規,0,2023-09-05,2023-09-05,カワセイ技研株式会社,,株式会社,静岡県,焼津市,中新田９５３番地の５,,22,212,4250068,,,,,,,2023-09-05,1,,,,,カワセイギケン,0
1321,5080001025843,新規,0,2023-09-05,2023-09-05,株式会社山本総業,,株式会社,静岡県,藤枝市,南駿河台４丁目７番３号,,22,214,4260078,,,,,,,2023-09-05,1,,,,,ヤマモトソウギョウ,0
1323,5080101024200,新規,0,2023-09-05,2023-09-05,株式会社Ｄｉａｍｏｎｄｓ＆Ｃｏ．,,株式会社,静岡県,沼津市,江浦５１４番地の６７,,22,203,4100103,,,,,,,2023-09-05,1,,,,,ダイヤモンズアンドコー,0
1325,5080401026706,新規,0,2023-09-05,2023-09-05,株式会社ＭＫフェリーチェ,,株式会社,静岡県,浜松市中区,下池川町５番８号,,22,131,4300905,,,,,,,2023-09-05,1,,,,,エムケイフェリーチェ,0
1326,5080403004858,新規,0,2023-09-05,2023-09-05,合同会社Ｂｉｃｔ,,合同会社,静岡県,浜松市東区,神立町１３７番地の９、１Ｆ,,22,132,4300801,,,,,,,2023-09-05,1,,,,,ビクト,0
1329,5110001037819,新規,0,2023-09-05,2023-09-05,株式会社Ｉ．Ｄ．Ａｄｄｉｔｉｏｎａｌ’ｓ,,株式会社,新潟県,新潟市江南区,亀田中島２丁目１番５号,,15,104,9500161,,,,,,,2023-09-05,1,,,,,アイディーアディショナルズ,0
1330,5110001037827,新規,0,2023-09-05,2023-09-05,眞成株式会社,,株式会社,新潟県,新潟市中央区,天神１丁目１９番地３、１Ｆ,,15,103,9500917,,,,,,,2023-09-05,1,,,,,シンセイ,0
1341,5120001257795,新規,0,2023-09-05,2023-09-05,株式会社ｓｐｅａｒ,,株式会社,大阪府,大阪市中央区,東心斎橋２丁目３－３２サンプラザ１２３ビル４Ｆ,,27,128,5420083,,,,,,,2023-09-05,1,,,,,スピア,0
1342,5120001257845,新規,0,2023-09-05,2023-09-05,株式会社ＡＡＲＤＥＥ,,株式会社,大阪府,大阪市北区,芝田２丁目４番１１号,,27,127,5300012,,,,,,,2023-09-05,1,,,,,アールディー,0
1344,5120003024830,新規,0,2023-09-05,2023-09-05,合同会社ＳＨＵＵＵ,,合同会社,大阪府,大阪市西区,江戸堀２丁目７番１０－５０４号,,27,106,5500002,,,,,,,2023-09-05,1,,,,,シュー,0
1345,5120003024847,新規,0,2023-09-05,2023-09-05,北大阪興産合名会社,,合名会社,大阪府,大阪市東淀川区,西淡路４丁目１０番１５号,,27,114,5330031,,,,,,,2023-09-05,1,,,,,キタオオサカコウサン,0
1347,5120005023863,新規,0,2023-09-05,2023-09-05,弁理士法人青藍国際特許事務所,,その他の設立登記法人,大阪府,大阪市北区,西天満４丁目３番２５号,,27,127,5300047,,,,,,,2023-09-05,1,,,,,セイランコクサイトッキョジムショ,0
1350,5120903004824,新規,0,2023-09-05,2023-09-05,ＫＡＮＭＡ合同会社,,合同会社,大阪府,茨木市,星見町１番２０号の１０２,,27,211,5670843,,,,,,,2023-09-05,1,,,,,カンマ,0
1354,5140001131461,新規,0,2023-09-05,2023-09-05,株式会社ＧＢＴ,,株式会社,兵庫県,神戸市須磨区,西落合１丁目１番２－８２７号,,28,107,6540155,,,,,,,2023-09-05,1,,,,,ジービーティー,0
1355,5140001131486,新規,0,2023-09-05,2023-09-05,株式会社笠井商会,,株式会社,兵庫県,神戸市灘区,大石東町３丁目４番８号,,28,102,6570043,,,,,,,2023-09-05,1,,,,,カサイショウカイ,0
1356,5140001131503,新規,0,2023-09-05,2023-09-05,福井興業株式会社,,株式会社,兵庫県,揖保郡太子町,東保４９９番地１１,,28,464,6711524,,,,,,,2023-09-05,1,,,,,フクイコウギョウ,0
1358,5140003019515,新規,0,2023-09-05,2023-09-05,合同会社Ｊ　Ｓｅｒｅｎｉｔｙ,,合同会社,兵庫県,神戸市中央区,下山手通３丁目１番１５号,,28,110,6500011,,,,,,,2023-09-05,1,,,,,ジェイセレニティ,0
1360,5150001026685,新規,0,2023-09-05,2023-09-05,小林土木株式会社,,株式会社,奈良県,五條市,今井４丁目６番４号,,29,207,6370004,,,,,,,2023-09-05,1,,,,,コバヤシドボク,0
1363,5160001025307,新規,0,2023-09-05,2023-09-05,ＫＡＭ株式会社,,株式会社,滋賀県,草津市,大路１丁目７番１－３２０５号ＴＯＷＥＲ・１１１,,25,206,5250032,,,,,,,2023-09-05,1,,,,,ケーエーエム,0
1366,5170005007036,新規,0,2023-09-05,2023-09-05,行政書士法人福島事務所,,その他の設立登記法人,和歌山県,和歌山市,湊１２６１番地３,,30,201,6408404,,,,,,,2023-09-05,1,,,,,フクシマジムショ,0
1371,5180301037768,新規,0,2023-09-05,2023-09-05,株式会社ＫＯＨｃｏｍｐａｎｙ,,株式会社,愛知県,岡崎市,稲熊町字滝道２３番地１,,23,202,4440071,,,,,,,2023-09-05,1,,,,,コーカンパニー,0
1372,5180301037776,新規,0,2023-09-05,2023-09-05,株式会社加藤熔接,,株式会社,愛知県,岡崎市,井田西町９番地８,,23,202,4440912,,,,,,,2023-09-05,1,,,,,カトウヨウセツ,0
1373,5180303005814,新規,0,2023-09-05,2023-09-05,合同会社青空,,合同会社,愛知県,刈谷市,若松町５丁目３ベルハイム刈谷１０１,,23,210,4480858,,,,,,,2023-09-05,1,,,,,ソラ,0
1374,5180305009508,新規,0,2023-09-05,2023-09-05,特定非営利活動法人いこまい刈谷,,その他の設立登記法人,愛知県,刈谷市,東新町５丁目２０９番地,,23,210,4480031,,,,,,,2023-09-05,1,,,,,イコマイカリヤ,0
1375,5190005011861,新規,0,2023-09-05,2023-09-05,一般社団法人Ｓｍｉｌｅ　Ｔｒｅｅつむぎ,,その他の設立登記法人,三重県,度会郡南伊勢町,伊勢路字猪屋敷１１４８番地１３,,24,472,5160112,,,,,,,2023-09-05,1,,,,,スマイルツリーツムギ,0
1379,5200001041654,新規,0,2023-09-05,2023-09-05,株式会社岐央興産,,株式会社,岐阜県,各務原市,蘇原中央町３丁目５０番地,,21,213,5040813,,,,,,,2023-09-05,1,,,,,ギオウコウサン,0
1380,5200001041670,新規,0,2023-09-05,2023-09-05,株式会社幸翠園,,株式会社,岐阜県,瑞浪市,土岐町１５０番地５,,21,208,5096101,,,,,,,2023-09-05,1,,,,,コウスイエン,0
1385,5220003003584,新規,0,2023-09-05,2023-09-05,ワイテック合同会社,,合同会社,石川県,金沢市,上荒屋３丁目２８８‐１,,17,201,9218065,,,,,,,2023-09-05,1,,,,,ワイテック,0
1387,5240001062052,新規,0,2023-09-05,2023-09-05,株式会社プラナ,,株式会社,広島県,広島市安芸区,船越４丁目２１番５７号,,34,107,7360081,,,,,,,2023-09-05,1,,,,,プラナ,0
1388,5240001062069,新規,0,2023-09-05,2023-09-05,株式会社冨田工業,,株式会社,広島県,広島市南区,東雲２丁目１２番３４－２０１号,,34,103,7340022,,,,,,,2023-09-05,1,,,,,トミタコウギョウ,0
1389,5240003006288,新規,0,2023-09-05,2023-09-05,ＮＩＫＫＯ　ＳＯＬＡＲ　ＰＬＡＮＴ１合同会社,,合同会社,広島県,広島市安佐北区,落合２丁目３０番１８号,,34,106,7391731,,,,,,,2023-09-05,1,,,,,ニッコウソーラープラントワン,0
1390,5240003006296,新規,0,2023-09-05,2023-09-05,合同会社ＫＣ,,合同会社,広島県,広島市西区,井口明神２丁目１番３２ー５０１号,,34,104,7330841,,,,,,,2023-09-05,1,,,,,ケーシー,0
1392,5250001020265,新規,0,2023-09-05,2023-09-05,成晃株式会社,,株式会社,山口県,宇部市,東琴芝２丁目１番１３号,,35,202,7550034,,,,,,,2023-09-05,1,,,,,セイコウ,0
1393,5260001038273,新規,0,2023-09-05,2023-09-05,株式会社トラスト,,株式会社,岡山県,倉敷市,中島１７６２番地３,,33,202,7100803,,,,,,,2023-09-05,1,,,,,トラスト,0
1396,5290001102919,新規,0,2023-09-05,2023-09-05,株式会社ＡＴＥＬＩＥＲ‐Ｑ,,株式会社,福岡県,福岡市中央区,天神１丁目４－１西日本新聞会館１６階,,40,133,8100001,,,,,,,2023-09-05,1,,,,,アトリエキュー,0
1401,5290801029840,新規,0,2023-09-05,2023-09-05,株式会社ティーイーケイ・ホールディングス,,株式会社,福岡県,京都郡苅田町,京町１丁目３番地８,,40,621,8000351,,,,,,,2023-09-05,1,,,,,ティーイーケイホールディングス,0
1402,5290803004494,新規,0,2023-09-05,2023-09-05,Ｗｏｎｄｅｒ　Ｗａｌｌ合同会社,,合同会社,福岡県,北九州市若松区,本町２丁目１４番３０号,,40,103,8080034,,,,,,,2023-09-05,1,,,,,ワンダーウォール,0
1403,5300001013453,新規,0,2023-09-05,2023-09-05,株式会社Ｓａ‐ＳａＭｉ,,株式会社,佐賀県,神埼郡吉野ヶ里町,吉田１９４８番地１３６,,41,327,8420031,,,,,,,2023-09-05,1,,,,,ササミ,0
1404,5310001018583,新規,0,2023-09-05,2023-09-05,Ｄａｉｔｏアセットマネジメント株式会社,,株式会社,長崎県,長崎市,三景台町１２番２号,,42,201,8500824,,,,,,,2023-09-05,1,,,,,ダイトウアセットマネジメント,0
1405,5320001019985,新規,0,2023-09-05,2023-09-05,株式会社ＳａｎＥｉ,,株式会社,大分県,別府市,大字北石垣１１７０番地の３,,44,202,8740000,,,,,,,2023-09-05,1,,,,,サンエイ,0
1407,5320003004168,新規,0,2023-09-05,2023-09-05,テレベース合同会社,,合同会社,大分県,大分市,中島中央１丁目１番１０号,,44,201,8700049,,,,,,,2023-09-05,1,,,,,テレベース,0
1409,5330003009959,新規,0,2023-09-05,2023-09-05,合同会社ｈａｉｒ　Ｌｉｅｎ,,合同会社,熊本県,熊本市北区,武蔵ケ丘１丁目１５番８号,,43,105,8618001,,,,,,,2023-09-05,1,,,,,ヘアーリアン,0
1412,5340001025858,新規,0,2023-09-05,2023-09-05,株式会社ＬＩＮＫ繋,00131768,株式会社,鹿児島県,鹿児島市,上之園町５番２０－７０３号,,46,201,8900052,,,,,,,2023-09-05,1,,,,,リンクツナグ,0
1413,5340001025874,新規,0,2023-09-05,2023-09-05,株式会社ヒロフリーデザイン,,株式会社,鹿児島県,鹿児島市,伊敷３丁目１１番１号淵之上ビル２０３号,,46,201,8900008,,,,,,,2023-09-05,1,,,,,ヒロフリーデザイン,0
1414,5350001018555,新規,0,2023-09-05,2023-09-05,株式会社リアルエステート中央マエムラ,,株式会社,宮崎県,宮崎市,橘通西３丁目６番３号,,45,201,8800001,,,,,,,2023-09-05,1,,,,,リアルエステートチュウオウマエムラ,0
1416,5360001032497,新規,0,2023-09-05,2023-09-05,石川エンタープライズ株式会社,,株式会社,沖縄県,那覇市,三原１丁目１８番２５－１１０４号ライオンズ那覇三原マスターズゲート,,47,201,9020063,,,,,,,2023-09-05,1,,,,,イシカワエンタープライズ,0
1417,5360001032506,新規,0,2023-09-05,2023-09-05,光工務店株式会社,,株式会社,沖縄県,南城市,佐敷字伊原２８８番地,,47,215,9011401,,,,,,,2023-09-05,1,,,,,ヒカリコウムテン,0
1418,5360003013256,新規,0,2023-09-05,2023-09-05,合同会社エス企画,,合同会社,沖縄県,豊見城市,字翁長８４５番地４２,,47,212,9010223,,,,,,,2023-09-05,1,,,,,エスキカク,0
1420,5390001017363,新規,0,2023-09-05,2023-09-05,株式会社トガシ,,株式会社,山形県,鶴岡市,桂荒俣字下桂１４７番地,,06,203,9970343,,,,,,,2023-09-05,1,,,,,トガシ,0
1422,5400003003137,新規,0,2023-09-05,2023-09-05,合同会社菊一,,合同会社,岩手県,北上市,北鬼柳３地割６２番地１９,,03,206,0240072,,,,,,,2023-09-05,1,,,,,キクイチ,0
1428,5430001089910,新規,0,2023-09-05,2023-09-05,株式会社Ｎｏｒｄ　ｃｈｅｚ‐ｍｏｉ,,株式会社,北海道,樺戸郡新十津川町,字大和４６番地５,,01,432,0731102,,,,,,,2023-09-05,1,,,,,ノードシェモア,0
1439,5460301005168,新規,0,2023-09-05,2023-09-05,北海金属株式会社,,株式会社,北海道,北見市,美山町西２丁目５８番地１９２,,01,208,0900070,,,,,,,2023-09-05,1,,,,,ホッカイキンゾク,0
1441,5480003002016,新規,0,2023-09-05,2023-09-05,合同会社やまぐち動物病院,,合同会社,徳島県,美馬市,脇町大字猪尻字若宮南１４４番地１,,36,207,7793602,,,,,,,2023-09-05,1,,,,,ヤマグチドウブツビョウイン,0
1444,5500001025164,新規,0,2023-09-05,2023-09-05,株式会社ＪＨＤ,,株式会社,愛媛県,松山市,中村２丁目８番１号,,38,201,7900964,,,,,,,2023-09-05,1,,,,,ジェイエイチディー,0
1447,5700150119779,新規,0,2023-09-05,2023-09-05,ｓｈｅｎ　ｚｈｅｎ　ｓｈｉ　ｒｕｉ　ｈｏｎｇ　ｆｕ　ｓｈｉ　ｙｏｕ　ｘｉａｎ　ｇｏｎｇ　ｓｉ,,外国会社等,,,,,,,,Ｒｏｏｍ　５０１，Ｂｕｉｌｄｉｎｇ　Ｅ，Ｈｕａｃｈｕａｎｇｄａ　Ｂｕｓｉｎｅｓｓ　Ｂｕｉｌｄｉｎｇ，Ｘｉｎｇｈｕａ　１ｓｔ　Ｒｏａｄ，Ｄｉｓｔｒｉｃｔ　４２，Ｘｉｎ’ａｎ　Ｓｔｒｅｅｔ，Ｂａｏ’ａｎ　Ｄｉｓｔｒｉｃｔ，Ｓｈｅｎｚｈｅｎ,,,,,,2023-09-05,1,,,,,シンセンシルイホンフシユウゲンコウシ,0
1448,5700150119787,新規,0,2023-09-05,2023-09-05,ＳｈｅｎＺｈｅｎＳｈｉ　ＸｉｎＹｏｕＤａＤｉａｎＺｉ　ＹｏｕＸｉａｎＧｏｎｇＳｉ,,外国会社等,,,,,,,,ＳｈｅｎＺｈｅｎＳｈｉ　ＬｏｎｇＨｕａＱｕＭｉｎＺｈｉＪｉｅＤａｏＭｉｎＺｈｉＳｈｅＱｕ　ＨａｉＹｕｎＤａＳｈａ２１１３,,,,,,2023-09-05,1,,,,,シンセンシシンヨダデンシユウゲンコウシ,0
1449,5700150119795,新規,0,2023-09-05,2023-09-05,Ｓｈｅｎｚｈｅｎ　Ｃｈａｏｘｉｎｄａ　Ｔｅｃｈｎｏｌｏｇｙ　ｃｏ．，ｌｔｄ,,外国会社等,,,,,,,,ｓｈｅｎｚｈｅｎｓｈｉ　ｌｏｎｇｇａｎｇｑｕ　ｊｉｈｕａｊｉｅｄａｏｓｈｕｉｊｉｎｇｓｈｅｑｕｓｈａｎｇｓｈｕｉｊｉｎｇ　ｓｈａｎｇｙｅｄａｓｈａ　１０Ｂ０６,,,,,,2023-09-05,1,,,,,シンセンチャオシンダテクノロジーカンパニーリミテッド,0
1460,6010001238070,新規,0,2023-09-05,2023-09-05,株式会社Ｇｏｏｎｅｒ,,株式会社,東京都,千代田区,九段南２丁目４番１１号パシフィックスクエア九段南７０１,,13,101,1020074,,,,,,,2023-09-05,1,,,,,グーナー,0
1461,6010001238228,新規,0,2023-09-05,2023-09-05,エバーグリーンパートナーズ株式会社,,株式会社,東京都,中央区,銀座７丁目１３番２０号銀座ＴＨビル９階,,13,102,1040061,,,,,,,2023-09-05,1,,,,,エバーグリーンパートナーズ,0
1462,6010001238252,新規,0,2023-09-05,2023-09-05,株式会社ＰｌａｎｔＥｇｇ,,株式会社,東京都,千代田区,神田佐久間町１丁目１４番地第２東ビル８階,,13,101,1010025,,,,,,,2023-09-05,1,,,,,プラントエッグ,0
1467,6010003041571,新規,0,2023-09-05,2023-09-05,合同会社Ｚｅｐｈｙｒ,,合同会社,東京都,千代田区,紀尾井町１番３号,,13,101,1020094,,,,,,,2023-09-05,1,,,,,ゼファー,0
1468,6010003041588,新規,0,2023-09-05,2023-09-05,合同会社Ｂｉｚｓｍｉｔｈ,,合同会社,東京都,中央区,日本橋箱崎町３８－１,,13,102,1030015,,,,,,,2023-09-05,1,,,,,ビズスミス,0
1469,6010003041596,新規,0,2023-09-05,2023-09-05,合同会社ＢＳＰＶ３号,,合同会社,東京都,千代田区,九段南１丁目６番５号九段会館テラス,,13,101,1020074,,,,,,,2023-09-05,1,,,,,ビーエスピーブイサンゴウ,0
1476,6010401177018,新規,0,2023-09-05,2023-09-05,株式会社Ｎｏａｈ,,株式会社,東京都,港区,南麻布４丁目９番３４－６０２号,,13,103,1060047,,,,,,,2023-09-05,1,,,,,ノア,0
1480,6010501050990,新規,0,2023-09-05,2023-09-05,仁勇武道具株式会社,,株式会社,東京都,台東区,東上野３丁目１６番３号,,13,106,1100015,,,,,,,2023-09-05,1,,,,,ジンユウブドウグ,0
1481,6010501050999,新規,0,2023-09-05,2023-09-05,株式会社しま正,,株式会社,東京都,台東区,浅草５丁目７２番８－１００１号ヴェレーナ浅草,,13,106,1110032,,,,,,,2023-09-05,1,,,,,シマショウ,0
1483,6010601063711,新規,0,2023-09-05,2023-09-05,株式会社クリエイティブ・クリニック,,株式会社,東京都,江東区,東陽６丁目３番２７－１０１号,,13,108,1350016,,,,,,,2023-09-05,1,,,,,クリエイティブクリニック,0
1489,6010701044801,新規,0,2023-09-05,2023-09-05,ＴＲＹ‐Ｐａｒｔｎｅｒｓ株式会社,,株式会社,東京都,品川区,大崎２丁目５－７－３１８号,,13,109,1410032,,,,,,,2023-09-05,1,,,,,ティーアールワイパートナーズ,0
1496,6010901053701,新規,0,2023-09-05,2023-09-05,株式会社Ａｇａｉｎ,,株式会社,東京都,世田谷区,松原３丁目２７番３４号はづきハイツ２０１,,13,112,1560043,,,,,,,2023-09-05,1,,,,,アゲイン,0
1503,6011001156477,新規,0,2023-09-05,2023-09-05,株式会社Ｌｉｌｌｙ’ｓ　Ｈｏｕｓｅ,,株式会社,東京都,目黒区,五本木１丁目１６番６号,,13,110,1530053,,,,,,,2023-09-05,1,,,,,リリズハウス,0
1504,6011001156683,新規,0,2023-09-05,2023-09-05,株式会社ＨＫ　ｈｏｌｄｉｎｇｓ,,株式会社,東京都,渋谷区,神宮前６丁目８番４－３０２号,,13,113,1500001,,,,,,,2023-09-05,1,,,,,エイチケーホールディングス,0
1506,6011003017479,新規,0,2023-09-05,2023-09-05,ＴＳ合同会社,,合同会社,東京都,渋谷区,東３丁目１７番１２号,,13,113,1500011,,,,,,,2023-09-05,1,,,,,ティーエス,0
1515,6011101104212,新規,0,2023-09-05,2023-09-05,株式会社Ｖｅｒｔｅｘ,,株式会社,東京都,新宿区,西新宿３丁目３番１３号西新宿水間ビル２Ｆ,,13,104,1600023,,,,,,,2023-09-05,1,,,,,ヴァーテックス,0
1521,6011201024888,新規,0,2023-09-05,2023-09-05,アトラスホールディングス株式会社,,株式会社,東京都,中野区,丸山１丁目１０番１２号,,13,114,1650021,,,,,,,2023-09-05,1,,,,,アトラスホールディングス,0
1522,6011201024896,新規,0,2023-09-05,2023-09-05,株式会社システムコネクト,,株式会社,東京都,中野区,本町３丁目８番３－１０２号,,13,114,1640012,,,,,,,2023-09-05,1,,,,,システムコネクト,0
1524,6011203004161,新規,0,2023-09-05,2023-09-05,合同会社Ｒｅｎｏｓｔｅｒ,,合同会社,東京都,中野区,野方２丁目５７番１３－２０１号,,13,114,1650027,,,,,,,2023-09-05,1,,,,,レノスター,0
1530,6011801042991,新規,0,2023-09-05,2023-09-05,虎や株式会社,,株式会社,東京都,足立区,千住１丁目３９－８,,13,121,1200034,,,,,,,2023-09-05,1,,,,,トラヤ,0
1532,6012303001866,新規,0,2023-09-05,2023-09-05,合同会社ＦＲＩＫＫＡ,,合同会社,東京都,町田市,金森１丁目５２－１０,,13,209,1940012,,,,,,,2023-09-05,1,,,,,フリッカ,0
1533,6012401040964,新規,0,2023-09-05,2023-09-05,株式会社ＴＩＡＤ　ｃｒｅａｔｉｖｅ,,株式会社,東京都,武蔵野市,吉祥寺南町２丁目２－５,,13,203,1800003,,,,,,,2023-09-05,1,,,,,ティアドクリエイティブ,0
1534,6012403006146,新規,0,2023-09-05,2023-09-05,合同会社め組,,合同会社,東京都,武蔵野市,吉祥寺本町１丁目１７番１０号,,13,203,1800004,,,,,,,2023-09-05,1,,,,,メグミ,0
1536,6012801022604,新規,0,2023-09-05,2023-09-05,株式会社カトウ住建,,株式会社,東京都,昭島市,朝日町３丁目１２番６号,,13,207,1960025,,,,,,,2023-09-05,1,,,,,カトウジュウケン,0
1537,6012801022612,新規,0,2023-09-05,2023-09-05,株式会社きゅいきゅいらんど,,株式会社,東京都,国分寺市,東元町３丁目１９番４０－１０７,,13,214,1850022,,,,,,,2023-09-05,1,,,,,キュイキュイランド,0
1547,6020001153285,新規,0,2023-09-05,2023-09-05,株式会社Ｄａｉｋｅｎ,,株式会社,神奈川県,横浜市港北区,小机町２９５番地１,,14,109,2220036,,,,,,,2023-09-05,1,,,,,ダイケン,0
1548,6020001153302,新規,0,2023-09-05,2023-09-05,株式会社ＳｔａｒｔＯｖｅｒ,,株式会社,神奈川県,横浜市青葉区,市ケ尾町１６７８－２０８,,14,117,2250024,,,,,,,2023-09-05,1,,,,,スタートオーバー,0
1549,6020003024526,新規,0,2023-09-05,2023-09-05,合同会社カインドネス,,合同会社,神奈川県,横浜市都筑区,荏田東４丁目３－１３－３０３,,14,118,2240006,,,,,,,2023-09-05,1,,,,,カインドネス,0
1550,6020003024550,新規,0,2023-09-05,2023-09-05,合同会社いすら,,合同会社,神奈川県,川崎市麻生区,百合丘３丁目１３番地１パークシティ新百合ヶ丘ＡＷ６０７,,14,137,2150011,,,,,,,2023-09-05,1,,,,,イスラ,0
1553,6020005016109,新規,0,2023-09-05,2023-09-05,一般社団法人Ｍｉｒａｉａｌｌかわさき,,その他の設立登記法人,神奈川県,川崎市高津区,末長１丁目１５番１９号コテージ梶ヶ谷１０１,,14,134,2130013,,,,,,,2023-09-05,1,,,,,ミライアルカワサキ,0
1558,6021003013535,新規,0,2023-09-05,2023-09-05,合同会社ＴＲ　ＣＯＲＰＯＲＡＴＩＯＮ,,合同会社,神奈川県,横須賀市,根岸町３丁目８番２号,,14,201,2390807,,,,,,,2023-09-05,1,,,,,ティーアールコーポレーション,0
1568,6030001155611,新規,0,2023-09-05,2023-09-05,株式会社ビルド建工,,株式会社,埼玉県,越谷市,赤山町１丁目２０２番地４,,11,222,3430807,,,,,,,2023-09-05,1,,,,,,0
1574,6030003022396,新規,0,2023-09-05,2023-09-05,Ｈ・Ｃサポート合同会社,,合同会社,埼玉県,川口市,金山町２－３イニシア川口５０１,,11,203,3320014,,,,,,,2023-09-05,1,,,,,エイチシーサポート,0
1575,6040001129903,新規,0,2023-09-05,2023-09-05,橘株式会社,,株式会社,千葉県,千葉市若葉区,金親町２０５番地８,,12,104,2640001,,,,,,,2023-09-05,1,,,,,タチバナ,0
1589,6070003005075,新規,0,2023-09-05,2023-09-05,ＰＲＰ合同会社,,合同会社,群馬県,太田市,西新町３番地５吉田ハイツ２１１号,,10,205,3730847,,,,,,,2023-09-05,1,,,,,ピアルピ,0
1591,6080001025834,新規,0,2023-09-05,2023-09-05,株式会社Ａｉｒ‐Ｉ,,株式会社,静岡県,静岡市葵区,足久保口組９６４番地の１５,,22,101,4212124,,,,,,,2023-09-05,1,,,,,エアーアイ,0
1594,6080101024190,新規,0,2023-09-05,2023-09-05,株式会社ソラーダ,,株式会社,静岡県,富士市,川成島６５４番地の１０アスティ新富士内,,22,210,4160939,,,,,,,2023-09-05,1,,,,,ソラーダ,0
1596,6080103002871,新規,0,2023-09-05,2023-09-05,合同会社Ｂｅａｃｈ　Ｇｕａｒｄｉａｎ　Ｖｉｓｉｔ,,合同会社,静岡県,下田市,白浜２６７９‐２０,,22,219,4150012,,,,,,,2023-09-05,1,,,,,ビーチガーディアンヴィジット,0
1599,6080401026696,新規,0,2023-09-05,2023-09-05,株式会社タケヤマ,,株式会社,静岡県,浜松市東区,天王町８５４番地,,22,132,4350052,,,,,,,2023-09-05,1,,,,,タケヤマ,0
1601,6100005013064,新規,0,2023-09-05,2023-09-05,ＣＯＣＯＤＡＫＡＲＡ企業組合,,その他の設立登記法人,長野県,岡谷市,長地権現町４丁目３番３７号,,20,204,3940081,,,,,,,2023-09-05,1,,,,,ココダカラ,0
1604,6110001037826,新規,0,2023-09-05,2023-09-05,株式会社眞島鍛冶工業,,株式会社,新潟県,新潟市中央区,天神１丁目１９番地３、２Ｆ,,15,103,9500917,,,,,,,2023-09-05,1,,,,,マシマカジコウギョウ,0
1614,6120001257794,新規,0,2023-09-05,2023-09-05,環太平洋投資開発株式会社,,株式会社,大阪府,大阪市東淀川区,小松５丁目３番４号,,27,114,5330004,,,,,,,2023-09-05,1,,,,,カンタイヘイヨウトウシカイハツ,0
1615,6120001257811,新規,0,2023-09-05,2023-09-05,ニチハン株式会社,,株式会社,大阪府,大阪市平野区,平野本町２丁目７番２１号,,27,126,5470044,,,,,,,2023-09-05,1,,,,,ニチハン,0
1616,6120001257828,新規,0,2023-09-05,2023-09-05,株式会社ＡＵＭＩＣ　ＤＥＳＩＧＮ　ＪＡＰＡＮ,,株式会社,大阪府,大阪市西成区,玉出中２丁目９番６号,,27,122,5570044,,,,,,,2023-09-05,1,,,,,オーエムアイシーデザインジャパン,0
1617,6120001257844,新規,0,2023-09-05,2023-09-05,株式会社キューブマネジメント,,株式会社,大阪府,大阪市城東区,野江４丁目９番５号,,27,118,5360006,,,,,,,2023-09-05,1,,,,,キューブマネジメント,0
1618,6120001257902,新規,0,2023-09-05,2023-09-05,株式会社ＬＡＯＮＭＥＩＬ,,株式会社,大阪府,大阪市北区,大淀南２丁目２番９－３７１２号,,27,127,5310075,,,,,,,2023-09-05,1,,,,,ラオンメイル,0
1623,6120003024862,新規,0,2023-09-05,2023-09-05,合同会社もりわきよつば,,合同会社,大阪府,大阪市北区,梅田１丁目２番２号大阪駅前第２ビル１２－１２,,27,127,5300001,,,,,,,2023-09-05,1,,,,,モリワキヨツバ,0
1626,6120901047997,新規,0,2023-09-05,2023-09-05,ＪＲＰ株式会社,,株式会社,大阪府,箕面市,桜ケ丘４丁目５番２６号,,27,220,5620046,,,,,,,2023-09-05,1,,,,,ジェイアールピー,0
1627,6120901048021,新規,0,2023-09-05,2023-09-05,ＬＵＣＫ　ｍｏｂｉｌｅ　ｓａｌｅｓ株式会社,,株式会社,大阪府,豊中市,南桜塚４丁目１１番１５号ヴェルデュール南桜塚５０２,,27,203,5610882,,,,,,,2023-09-05,1,,,,,ラックモバイルセールス,0
1632,6130003008955,新規,0,2023-09-05,2023-09-05,合同会社オフィス・ボンバイエ,,合同会社,京都府,長岡京市,久貝２丁目９番８号,,26,209,6170837,,,,,,,2023-09-05,1,,,,,オフィスボンバイエ,0
1641,6150001026684,新規,0,2023-09-05,2023-09-05,株式会社ＴＡＭ,,株式会社,奈良県,奈良市,学園南２丁目１２番１号,,29,201,6310034,,,,,,,2023-09-05,1,,,,,タム,0
1642,6150001026692,新規,0,2023-09-05,2023-09-05,株式会社ＢａｍＢｌｕｅＡｕｔｏ,,株式会社,奈良県,桜井市,大字東新堂５３番地の１,,29,206,6330068,,,,,,,2023-09-05,1,,,,,バンブルーオート,0
1643,6160001025322,新規,0,2023-09-05,2023-09-05,株式会社セルサポ,,株式会社,滋賀県,大津市,馬場３丁目１４番２－２号,,25,201,5200802,,,,,,,2023-09-05,1,,,,,セルサポ,0
1645,6170001017764,新規,0,2023-09-05,2023-09-05,みくまの測地株式会社,,株式会社,和歌山県,東牟婁郡那智勝浦町,大字市野々２８０８番地,,30,421,6495302,,,,,,,2023-09-05,1,,,,,ミクマノソクチ,0
1646,6170001017772,新規,0,2023-09-05,2023-09-05,株式会社ＰＲＯｇｒｅｓｓ,,株式会社,和歌山県,伊都郡かつらぎ町,大字妙寺１２６番地の３５,,30,341,6497113,,,,,,,2023-09-05,1,,,,,プログレス,0
1653,6180001157832,新規,0,2023-09-05,2023-09-05,株式会社ＢＵ,,株式会社,愛知県,名古屋市北区,金城３丁目２番２６号,,23,103,4620847,,,,,,,2023-09-05,1,,,,,ビーユー,0
1654,6180001157849,新規,0,2023-09-05,2023-09-05,ＫＳＨ株式会社,,株式会社,愛知県,海部郡大治町,大字西條字附田１００番地１,,23,424,4901144,,,,,,,2023-09-05,1,,,,,ケイエスエイチ,0
1655,6180001157873,新規,0,2023-09-05,2023-09-05,株式会社ファイアスカイ,,株式会社,愛知県,清須市,西枇杷島町古城１丁目１２番地１７,,23,233,4520001,,,,,,,2023-09-05,1,,,,,ファイアスカイ,0
1656,6180001157898,新規,0,2023-09-05,2023-09-05,株式会社ＴＫＳ　Ｍｅｄｉｃａｌ　Ｓｅｒｖｉｃｅ,,株式会社,愛知県,名古屋市中川区,好本町１丁目５８番地の１,,23,110,4540825,,,,,,,2023-09-05,1,,,,,ティーケーエスメディカルサービス,0
1657,6180001157956,新規,0,2023-09-05,2023-09-05,株式会社ｂｕｉｌｄｉｎｇ　ｍａｔｅｒｉａｌｓ　ｓｔｏｒｅ,,株式会社,愛知県,名古屋市東区,泉１丁目７番３８号星和泉コーポラス７０４号,,23,102,4610001,,,,,,,2023-09-05,1,,,,,ビルディングマテリアルズストアー,0
1665,6180003025640,新規,0,2023-09-05,2023-09-05,合同会社Ｌｅｎｏｉｒ,,合同会社,愛知県,一宮市,公園通６丁目３０番地２ガレージハウスポールリカールＳ０１号,,23,203,4910842,,,,,,,2023-09-05,1,,,,,ルノアール,0
1667,6180301037767,新規,0,2023-09-05,2023-09-05,大河内不動産株式会社,,株式会社,愛知県,西尾市,羽塚町宮前１番地,,23,213,4440316,,,,,,,2023-09-05,1,,,,,オオコウチフドウサン,0
1668,6180305009507,新規,0,2023-09-05,2023-09-05,一般社団法人日本空手道不動会宗家,,その他の設立登記法人,愛知県,豊田市,緑ケ丘７丁目６３番地１６,,23,211,4710838,,,,,,,2023-09-05,1,,,,,ニホンカラテドウフドウカイソウケ,0
1674,6200001041686,新規,0,2023-09-05,2023-09-05,株式会社優高装建,,株式会社,岐阜県,多治見市,赤坂町７丁目１２９番地,,21,204,5070057,,,,,,,2023-09-05,1,,,,,ユウコウソウケン,0
1676,6210001019442,新規,0,2023-09-05,2023-09-05,デリシアバンク北陸株式会社,,株式会社,福井県,あわら市,二面３丁目７０６番地２,,18,208,9104103,,,,,,,2023-09-05,1,,,,,デリシアバンクホクリク,0
1678,6220003003575,新規,0,2023-09-05,2023-09-05,合同会社琉球ホノテック,,合同会社,石川県,小松市,吉竹町５丁目１２１,,17,203,9230835,,,,,,,2023-09-05,1,,,,,リュウキュウホノテック,0
1679,6220003003583,新規,0,2023-09-05,2023-09-05,合同会社ａｒｏｍａ,,合同会社,石川県,金沢市,元菊町１７番５３号,,17,201,9200036,,,,,,,2023-09-05,1,,,,,アロマ,0
1681,6230001019993,新規,0,2023-09-05,2023-09-05,瑞穂ガーデン株式会社,,株式会社,富山県,高岡市,野村８１番地２,,16,202,9330014,,,,,,,2023-09-05,1,,,,,ミズホガーデン,0
1685,6240001062076,新規,0,2023-09-05,2023-09-05,株式会社川田工業,,株式会社,広島県,安芸郡府中町,浜田本町１０番１‐２０１号,,34,302,7350023,,,,,,,2023-09-05,1,,,,,カワダコウギョウ,0
1686,6240001062084,新規,0,2023-09-05,2023-09-05,株式会社Ｒ．ｍａｄｅ,,株式会社,広島県,広島市安佐北区,口田南６丁目２１番１１号,,34,106,7391733,,,,,,,2023-09-05,1,,,,,アールメイド,0
1687,6240001062092,新規,0,2023-09-05,2023-09-05,株式会社ＤＡＩＫＯＵ,,株式会社,広島県,呉市,中央６丁目８番４号中央イン２０５,,34,202,7370051,,,,,,,2023-09-05,1,,,,,ダイコウ,0
1688,6240003006287,新規,0,2023-09-05,2023-09-05,スマイルサービス合同会社,,合同会社,広島県,東広島市,西条西本町１４番３８－２０２号,,34,212,7390043,,,,,,,2023-09-05,1,,,,,スマイルサービス,0
1689,6240003006295,新規,0,2023-09-05,2023-09-05,ｅプロパティ合同会社,,合同会社,広島県,広島市南区,松原町３番２－３３０７号,,34,103,7320822,,,,,,,2023-09-05,1,,,,,イープロパティ,0
1694,6260001038289,新規,0,2023-09-05,2023-09-05,株式会社エルオート,,株式会社,岡山県,倉敷市,西阿知１１７８番地２,,33,202,7100000,,,,,,,2023-09-05,1,,,,,エルオート,0
1701,6290001102843,新規,0,2023-09-05,2023-09-05,株式会社優建工業,,株式会社,福岡県,糟屋郡宇美町,とびたけ１丁目９番１７号,,40,341,8112107,,,,,,,2023-09-05,1,,,,,ユウケンコウギョウ,0
1702,6290001102892,新規,0,2023-09-05,2023-09-05,ワイエヌフーズ株式会社,,株式会社,福岡県,福岡市中央区,福浜１丁目６番７号,,40,133,8100066,,,,,,,2023-09-05,1,,,,,ワイエヌフーズ,0
1703,6290001102918,新規,0,2023-09-05,2023-09-05,株式会社ＭＡＫＩｓｍ,,株式会社,福岡県,福岡市南区,大橋１丁目４番６号ＦＯＸＢｌｄｇ６０４,,40,134,8150033,,,,,,,2023-09-05,1,,,,,マキズム,0
1704,6290001102926,新規,0,2023-09-05,2023-09-05,株式会社ｂｅ,,株式会社,福岡県,福岡市中央区,赤坂１丁目８番２３号,,40,133,8100042,,,,,,,2023-09-05,1,,,,,ビー,0
1705,6290003014310,新規,0,2023-09-05,2023-09-05,合同会社ラックライン,,合同会社,福岡県,糸島市,二丈波呂１１０２番地６,,40,230,8191626,,,,,,,2023-09-05,1,,,,,ラックライン,0
1710,6290801029848,新規,0,2023-09-05,2023-09-05,株式会社ＤｉＴ,,株式会社,福岡県,北九州市若松区,桜町２０番２７号,,40,103,8080026,,,,,,,2023-09-05,1,,,,,ディアイティ,0
1711,6290801029856,新規,0,2023-09-05,2023-09-05,株式会社ＬＩＢ,,株式会社,福岡県,北九州市八幡西区,大字楠橋４３７９番地,,40,109,8071151,,,,,,,2023-09-05,1,,,,,リブ,0
1712,6290803004493,新規,0,2023-09-05,2023-09-05,合同会社リブサポート,,合同会社,福岡県,北九州市八幡西区,鉄王２丁目７番２０号,,40,109,8060057,,,,,,,2023-09-05,1,,,,,リブサポート,0
1713,6300001013452,新規,0,2023-09-05,2023-09-05,株式会社ＧＬＡＭＯＲＯＵＳ,,株式会社,佐賀県,佐賀市,嘉瀬町大字荻野４３６番地,,41,201,8400864,,,,,,,2023-09-05,1,,,,,グラマラス,0
1717,6350001018554,新規,0,2023-09-05,2023-09-05,株式会社川越鈑金塗装工場,,株式会社,宮崎県,宮崎市,大字赤江８７５番地９,,45,201,8800912,,,,,,,2023-09-05,1,,,,,カワゴエバンキントソウコウジョウ,0
1721,6360001032496,新規,0,2023-09-05,2023-09-05,株式会社ゆき設備工業,,株式会社,沖縄県,宜野湾市,我如古４丁目１９番１－１号,,47,205,9012214,,,,,,,2023-09-05,1,,,,,ユキセツビコウギョウ,0
1722,6360001032505,新規,0,2023-09-05,2023-09-05,株式会社ＧＬＡＢ,,株式会社,沖縄県,豊見城市,字豊崎１番地１２６９,,47,212,9010225,,,,,,,2023-09-05,1,,,,,グラブ,0
1725,6370001050357,新規,0,2023-09-05,2023-09-05,株式会社Ｆｌａｔ　Ｂｅｌｌ,,株式会社,宮城県,仙台市宮城野区,福田町２丁目１２番１８－４０６号,,04,102,9830023,,,,,,,2023-09-05,1,,,,,フラットベル,0
1752,6480003002015,新規,0,2023-09-05,2023-09-05,渡辺電気合同会社,,合同会社,徳島県,阿南市,見能林町青木２５３番地９,,36,204,7740017,,,,,,,2023-09-05,1,,,,,ワタナベデンキ,0
1755,6500001025163,新規,0,2023-09-05,2023-09-05,株式会社ＴＡＧ　ｄｅｓｉｇｎ,,株式会社,愛媛県,八幡浜市,仲之町３５８番地１,,38,204,7960075,,,,,,,2023-09-05,1,,,,,タグデザイン,0
1756,6500003003092,新規,0,2023-09-05,2023-09-05,合同会社木原店,,合同会社,愛媛県,今治市,朝倉北２０８番地,,38,202,7991604,,,,,,,2023-09-05,1,,,,,キハラダナ,0
1757,6700150119225,新規,0,2023-09-05,2023-08-23,滋賀県溶接協会,,その他,滋賀県,大津市,南郷５丁目２－１４滋賀県事業内職業訓練センター　内,,25,201,5200865,,,,,,,2023-08-23,1,,,,,シガケンヨウセツキヨウカイ,0
1758,6700150119778,新規,0,2023-09-05,2023-09-05,ｓｈｅｎｚｈｅｎｓｈｉ　ｙｉｎｇｆｅｉｋｅｄｉａｎｚｉ　ｙｏｕｘｉａｎｇｏｎｇｓｉ,,外国会社等,,,,,,,,２４０５，２４／Ｆ，Ｊｉｎｈｕａ　Ｂｕｉｌｄｉｎｇ，Ｌｏｎｇｆｅｎｇ　３ｒｄ　Ｒｏａｄ，Ｄａｌａｎｇ　Ｓｔｒｅｅｔ，Ｌｏｎｇｈｕａ　Ｄｉｓｔｒｉｃｔ，Ｓｈｅｎｚｈｅｎ,,,,,,2023-09-05,1,,,,,シンセンシインフェイケデンシユウゲンコウシ,0
1759,6700150119786,新規,0,2023-09-05,2023-09-05,ＳｈｅｎＺｈｅｎＳｈｉ　ＡｎＳｈｕｎＴａｉＹｅＫｅＪｉ　ＹｏｕＸｉａｎＧｏｎｇＳｉ,,外国会社等,,,,,,,,６１０，Ｎｏ．３，Ｘｉｔｏｕ　Ｉｎｄｕｓｔｒｉａｌ　Ｚｏｎｅ，Ｓｈａｎｇｆｅｎ　Ｃｏｍｍｕｎｉｔｙ，Ｍｉｎｚｈｉ　Ｓｔｒｅｅｔ，Ｌｏｎｇｈｕａ　Ｄｉｓｔｒｉｃｔ，Ｓｈｅｎｚｈｅｎ　Ｃｉｔｙ,,,,,,2023-09-05,1,,,,,シンセンシアンスンタイイェカギユウゲンコウシ,0
1760,6700150119794,新規,0,2023-09-05,2023-09-05,Ｄｕｐｌｅｘ　Ｉｎｔｅｒｎａｔｉｏｎａｌ　Ｔｒａｄｉｎｇ　Ｌｉｍｉｔｅｄ,,外国会社等,,,,,,,,Ｆｌａｔ　Ｂ１，１０／Ｆ，Ｂｌｏｃｋ　２，Ｇｏｌｄｅｎ　Ｄｒａｇｏｎ　Ｉｎｄ　Ｃｅｎｔｒｅ　１６２－１７０　Ｔａｉ　Ｌｉｎ　Ｐａｉ　Ｒｄ，Ｋｗａｉ　Ｃｈｕｎｇ，Ｎ．Ｔ，ＨｏｎｇＫｏｎｇ,,,,,,2023-09-05,1,,,,,デュプレックスインターナショナルトレーディングリミテッド,0
1765,7010001238169,新規,0,2023-09-05,2023-09-05,Ｙ’ｓキャリア株式会社,,株式会社,東京都,中央区,八重洲１丁目８番１７号新槇町ビル６階,,13,102,1030028,,,,,,,2023-09-05,1,,,,,ワイズキャリア,0
1766,7010001238177,新規,0,2023-09-05,2023-09-05,株式会社ウィルスター,,株式会社,東京都,千代田区,神田三崎町３丁目２番８号グランバレー三崎町１階,,13,101,1010061,,,,,,,2023-09-05,1,,,,,ウィルスター,0
1769,7010003041570,新規,0,2023-09-05,2023-09-05,合同会社Ｙ企画,,合同会社,東京都,千代田区,紀尾井町１番３号,,13,101,1020094,,,,,,,2023-09-05,1,,,,,ワイキカク,0
1771,7010005037204,新規,0,2023-09-05,2023-09-05,クレジット・ギャランティ８号一般社団法人,,その他の設立登記法人,東京都,千代田区,内神田２丁目２番６号５階あすな会計事務所内,,13,101,1010047,,,,,,,2023-09-05,1,,,,,クレジットギャランティハチゴウ,0
1775,7010403029942,新規,0,2023-09-05,2023-09-05,サンクシード合同会社,,合同会社,東京都,港区,六本木５丁目１２－１１－２０１,,13,103,1060032,,,,,,,2023-09-05,1,,,,,サンクシード,0
1778,7010701044791,新規,0,2023-09-05,2023-09-05,株式会社ミスター,,株式会社,東京都,品川区,北品川５丁目１０番６－６０２号,,13,109,1410001,,,,,,,2023-09-05,1,,,,,ミスター,0
1782,7010801034296,新規,0,2023-09-05,2023-09-05,株式会社隆馬重設,,株式会社,東京都,大田区,仲六郷３丁目１０番１２号,,13,111,1440055,,,,,,,2023-09-05,1,,,,,タカマジュウセツ,0
1784,7010903008405,新規,0,2023-09-05,2023-09-05,合同会社ひよこまめ,,合同会社,東京都,世田谷区,羽根木２丁目２８－１５コオリナクリスタル羽根木３階,,13,112,1560042,,,,,,,2023-09-05,1,,,,,ヒヨコマメ,0
1785,7010903008413,新規,0,2023-09-05,2023-09-05,ｄｒｏｐ　ｂｙ合同会社,,合同会社,東京都,世田谷区,砧２丁目１４番１２号,,13,112,1570073,,,,,,,2023-09-05,1,,,,,ドロップバイ,0
1790,7011001156699,新規,0,2023-09-05,2023-09-05,オンラインヘルスケア株式会社,,株式会社,東京都,目黒区,緑が丘１丁目２２番１８号,,13,110,1520034,,,,,,,2023-09-05,1,,,,,オンラインヘルスケア,0
1791,7011003017478,新規,0,2023-09-05,2023-09-05,合同会社ライクワーク,,合同会社,東京都,渋谷区,神宮前６丁目２３番４号桑野ビル２階,,13,113,1500001,,,,,,,2023-09-05,1,,,,,ライフワーク,0
1794,7011101103551,新規,0,2023-09-05,2023-09-05,Ｔｒａｓｈ　Ｌｅｎｓ株式会社,,株式会社,東京都,新宿区,西新宿３丁目３番１３号西新宿水間ビル６階,,13,104,1600023,,,,,,,2023-09-05,1,,,,,トラッシュレンズ,0
1795,7011101104228,新規,0,2023-09-05,2023-09-05,株式会社匠,,株式会社,東京都,新宿区,新宿１丁目３６番２号新宿第七葉山ビル３Ｆ,,13,104,1600022,,,,,,,2023-09-05,1,,,,,タクミ,0
1796,7011101104252,新規,0,2023-09-05,2023-09-05,クレドホールディングス株式会社,,株式会社,東京都,新宿区,西新宿１丁目１３番１２号,,13,104,1600023,,,,,,,2023-09-05,1,,,,,クレドホールディングス,0
1797,7011103013443,新規,0,2023-09-05,2023-09-05,合同会社ゼオライトハイドロゲン,,合同会社,東京都,新宿区,歌舞伎町２丁目１３－２ＫＮビル,,13,104,1600021,,,,,,,2023-09-05,1,,,,,ゼオライトハイドロゲン,0
1798,7011201024887,新規,0,2023-09-05,2023-09-05,ｅｄｉｋ株式会社,,株式会社,東京都,中野区,中野２丁目１９番２号,,13,114,1640001,,,,,,,2023-09-05,1,,,,,エディック,0
1799,7011203004160,新規,0,2023-09-05,2023-09-05,若月塗装合同会社,,合同会社,東京都,中野区,野方４丁目３９番１０号,,13,114,1650027,,,,,,,2023-09-05,1,,,,,ワカツキトソウ,0
1800,7011401025421,新規,0,2023-09-05,2023-09-05,株式会社リフィックス,,株式会社,東京都,板橋区,相生町１５番５－８０３号,,13,119,1740044,,,,,,,2023-09-05,1,,,,,リフィックス,0
1802,7011501029727,新規,0,2023-09-05,2023-09-05,竹奈川株式会社,,株式会社,東京都,荒川区,町屋３丁目２４番２号面川ビル３０６号室,,13,118,1160001,,,,,,,2023-09-05,1,,,,,タケナガワ,0
1805,7011601027093,新規,0,2023-09-05,2023-09-05,株式会社ＴＫコーポレーション,,株式会社,東京都,練馬区,大泉学園町８丁目７番２１号レクリオ１０１,,13,120,1780061,,,,,,,2023-09-05,1,,,,,ティーケーコーポレーション,0
1806,7011603004041,新規,0,2023-09-05,2023-09-05,合同会社ＳＯＬＯ　ｃｒｅａｔｅ,,合同会社,東京都,練馬区,関町南３丁目１２番３４号,,13,120,1770053,,,,,,,2023-09-05,1,,,,,ソロクリエイト,0
1807,7011801042982,新規,0,2023-09-05,2023-09-05,株式会社Ｒｅｂｏｏｔ,,株式会社,東京都,葛飾区,細田５丁目２４番１２号,,13,122,1240021,,,,,,,2023-09-05,1,,,,,リブート,0
1808,7011801042999,新規,0,2023-09-05,2023-09-05,株式会社ブルーマイト,,株式会社,東京都,葛飾区,東立石３丁目１２番１４号,,13,122,1240013,,,,,,,2023-09-05,1,,,,,ブルーマイト,0
1809,7011805003295,新規,0,2023-09-05,2023-09-05,医療法人社団優思会,,その他の設立登記法人,東京都,葛飾区,奥戸３丁目２２番９号２階,,13,122,1240022,,,,,,,2023-09-05,1,,,,,シャダンユウシカイ,0
1811,7012401040955,新規,0,2023-09-05,2023-09-05,株式会社ＦＲＩＥＮＤＳ,,株式会社,東京都,稲城市,矢野口２０７１番地の１,,13,225,2060812,,,,,,,2023-09-05,1,,,,,フレンズ,0
1812,7012401040963,新規,0,2023-09-05,2023-09-05,東京住宅ホールディングス株式会社,,株式会社,東京都,武蔵野市,境南町４丁目１２番１４号,,13,203,1800023,,,,,,,2023-09-05,1,,,,,トウキョウジュウタクホールディングス,0
1822,7020003024491,新規,0,2023-09-05,2023-09-05,合同会社ＢＡＯ,,合同会社,神奈川県,横浜市鶴見区,鶴見中央３丁目２２－２１－７０４号,,14,101,2300051,,,,,,,2023-09-05,1,,,,,ビーエーオー,0
1823,7020003024517,新規,0,2023-09-05,2023-09-05,Ｒｅｃｓｓｉｖｅ合同会社,,合同会社,神奈川県,川崎市高津区,諏訪３丁目１８番６―４０３号,,14,134,2130004,,,,,,,2023-09-05,1,,,,,リクシブ,0
1830,7021003013526,新規,0,2023-09-05,2023-09-05,Ｐｌｅａｓｕｒｅ合同会社,,合同会社,神奈川県,相模原市中央区,相生３丁目２番１９号,,14,152,2520235,,,,,,,2023-09-05,1,,,,,プレジャー,0
1839,7040001129951,新規,0,2023-09-05,2023-09-05,ベイホーム株式会社,,株式会社,千葉県,市原市,辰巳台東３丁目２番地４２,,12,219,2900003,,,,,,,2023-09-05,1,,,,,ベイホーム,0
1842,7050001053382,新規,0,2023-09-05,2023-09-05,株式会社Ｒｉ‐Ｌｉｆｅ,,株式会社,茨城県,猿島郡境町,大字長井戸９８０番地２,,08,546,3060404,,,,,,,2023-09-05,1,,,,,リーライフ,0
1854,7080001025833,新規,0,2023-09-05,2023-09-05,株式会社武倉工業,,株式会社,静岡県,静岡市清水区,押切１２５３番地の５,,22,103,4240008,,,,,,,2023-09-05,1,,,,,タケクラコウギョウ,0
1865,7080401026712,新規,0,2023-09-05,2023-09-05,株式会社風楽暮,,株式会社,静岡県,浜松市南区,松島町１７２番地,,22,134,4300834,,,,,,,2023-09-05,1,,,,,フラク,0
1873,7110001037809,新規,0,2023-09-05,2023-09-05,ａｌ．ｊａｐａｎ株式会社,,株式会社,新潟県,新潟市江南区,五月町１丁目４番４１号,,15,104,9500167,,,,,,,2023-09-05,1,,,,,エイエルジャパン,0
1882,7120001257851,新規,0,2023-09-05,2023-09-05,ＫＲＳ株式会社,,株式会社,大阪府,大阪市東成区,中本５丁目２７番１８号,,27,115,5370022,,,,,,,2023-09-05,1,,,,,ケイアールエス,0
1889,7120003024837,新規,0,2023-09-05,2023-09-05,合同会社ｐｒｅｓｅｎｃｅ,,合同会社,大阪府,大阪市西区,江戸堀１丁目６番１７－３８０５号,,27,106,5500002,,,,,,,2023-09-05,1,,,,,プレセンス,0
1891,7120101068166,新規,0,2023-09-05,2023-09-05,株式会社岡田商事,,株式会社,大阪府,泉大津市,臨海町２丁目２,,27,206,5950075,,,,,,,2023-09-05,1,,,,,オカダショウジ,0
1894,7120901048004,新規,0,2023-09-05,2023-09-05,株式会社Ｓｕｐクリエーション,,株式会社,大阪府,茨木市,春日２丁目２番１８号前羽ビル２階,,27,211,5670031,,,,,,,2023-09-05,1,,,,,サップクリエーション,0
1895,7120903004822,新規,0,2023-09-05,2023-09-05,合同会社リベジョイ,,合同会社,大阪府,高槻市,日吉台六番町２４－５,,27,207,5691022,,,,,,,2023-09-05,1,,,,,リベジョイ,0
1899,7130003008938,新規,0,2023-09-05,2023-09-05,合同会社Ａｎａｔｏｍｉｃａｌ　Ｍａｃｈｉｎｅｓ,,合同会社,京都府,京都市北区,平野鳥居前町９０番地１,,26,101,6038321,,,,,,,2023-09-05,1,,,,,アナトミカルマシーンズ,0
1901,7140001131468,新規,0,2023-09-05,2023-09-05,ソルテック株式会社,,株式会社,兵庫県,神戸市西区,伊川谷町潤和１６４１番地の４,,28,111,6512124,,,,,,,2023-09-05,1,,,,,ソルテック,0
1902,7140001131518,新規,0,2023-09-05,2023-09-05,株式会社ＥＲＫ,,株式会社,兵庫県,尼崎市,水堂町２丁目６番２－５０２号,,28,202,6610026,,,,,,,2023-09-05,1,,,,,イーアールケー,0
1903,7140001131534,新規,0,2023-09-05,2023-09-05,株式会社ＡＸＩＳ,,株式会社,兵庫県,姫路市,駅前町２６２,,28,201,6700927,,,,,,,2023-09-05,1,,,,,アクシス,0
1907,7140005026730,新規,0,2023-09-05,2023-09-05,一般社団法人やまふく,,その他の設立登記法人,兵庫県,三田市,上槻瀬３７５番地,,28,219,6691415,,,,,,,2023-09-05,1,,,,,ヤマフク,0
1910,7150001026683,新規,0,2023-09-05,2023-09-05,株式会社Ａ‐ｕｐ　ｂｕｉｌｄ,,株式会社,奈良県,大和高田市,大字市場７９８番地３－２０２,,29,202,6350074,,,,,,,2023-09-05,1,,,,,エーアップビルド,0
1911,7160001025305,新規,0,2023-09-05,2023-09-05,株式会社ｙａｃｔ,,株式会社,滋賀県,大津市,松が丘５丁目７番６号,,25,201,5202102,,,,,,,2023-09-05,1,,,,,ワイエーシーティ,0
1912,7160001025321,新規,0,2023-09-05,2023-09-05,山建株式会社,,株式会社,滋賀県,甲賀市,水口町山３４５０－２,,25,209,5280067,,,,,,,2023-09-05,1,,,,,ヤマケン,0
1913,7160003002979,新規,0,2023-09-05,2023-09-05,合同会社空色ワイナリー,,合同会社,滋賀県,近江八幡市,野村町７７８番地,,25,204,5230075,,,,,,,2023-09-05,1,,,,,ソライロワイナリー,0
1915,7170001017763,新規,0,2023-09-05,2023-09-05,株式会社ＷＯＲＬＤ　ＭＡＲＣＨＥ,,株式会社,和歌山県,和歌山市,中６４９番地３フォレストヒルズふじと台７０７,,30,201,6408451,,,,,,,2023-09-05,1,,,,,ワールドマルシェ,0
1917,7180001157823,新規,0,2023-09-05,2023-09-05,株式会社大坂屋薬局,,株式会社,愛知県,名古屋市西区,城西４丁目１番１号,,23,104,4510031,,,,,,,2023-09-05,1,,,,,オオサカヤヤッキョク,0
1918,7180001157947,新規,0,2023-09-05,2023-09-05,株式会社ビーホワイト,,株式会社,愛知県,小牧市,元町１丁目６９番地２,,23,219,4850072,,,,,,,2023-09-05,1,,,,,ビーホワイト,0
1919,7180001157955,新規,0,2023-09-05,2023-09-05,ＦＯＲＥＸ株式会社,,株式会社,愛知県,名古屋市西区,牛島町６番１号名古屋ルーセントタワー４０Ｆ,,23,104,4510046,,,,,,,2023-09-05,1,,,,,フォレックス,0
1922,7180301037774,新規,0,2023-09-05,2023-09-05,株式会社ファーストステラ,,株式会社,愛知県,岡崎市,元能見町１２０番地,,23,202,4440063,,,,,,,2023-09-05,1,,,,,ファーストステラ,0
1923,7190001030715,新規,0,2023-09-05,2023-09-05,株式会社ＷＥＳＴＤＥＳＩＧＮ,,株式会社,三重県,津市,一志町日置２６６番地１７,,24,201,5152503,,,,,,,2023-09-05,1,,,,,ウエストデザイン,0
1924,7190001030723,新規,0,2023-09-05,2023-09-05,キャッチ株式会社,,株式会社,三重県,鈴鹿市,若松西４丁目１５番２１号,,24,207,5100222,,,,,,,2023-09-05,1,,,,,キャッチ,0
1931,7200001041669,新規,0,2023-09-05,2023-09-05,株式会社まさみ,,株式会社,岐阜県,可児市,下切４２６番地３,,21,214,5090245,,,,,,,2023-09-05,1,,,,,マサミ,0
1933,7200003006075,新規,0,2023-09-05,2023-09-05,合同会社コログアセット,,合同会社,岐阜県,各務原市,鵜沼朝日町５丁目３５５番地６,,21,213,5090145,,,,,,,2023-09-05,1,,,,,コログアセット,0
1937,7210001019441,新規,0,2023-09-05,2023-09-05,Ｔ・Ｋエンジニア株式会社,,株式会社,福井県,勝山市,旭町２丁目６番５９号,,18,206,9110803,,,,,,,2023-09-05,1,,,,,ティーケーエンジニア,0
1943,7240001062059,新規,0,2023-09-05,2023-09-05,株式会社ＢＯＫＥＮＳＨＡ,,株式会社,広島県,広島市西区,竜王町１２番１－１０１３号,,34,104,7330803,,,,,,,2023-09-05,1,,,,,ボウケンシャ,0
1944,7240001062067,新規,0,2023-09-05,2023-09-05,株式会社アオラ,,株式会社,広島県,広島市中区,舟入川口町１９番１１号,,34,101,7300845,,,,,,,2023-09-05,1,,,,,アオラ,0
1945,7240001062083,新規,0,2023-09-05,2023-09-05,株式会社ＲＡＹＳ,,株式会社,広島県,広島市中区,堀川町１－１１,,34,101,7300033,,,,,,,2023-09-05,1,,,,,レイズ,0
1946,7240001062091,新規,0,2023-09-05,2023-09-05,株式会社ＷＡＫＡ,,株式会社,広島県,庄原市,東城町川東１１５８番地１,,34,210,7295121,,,,,,,2023-09-05,1,,,,,ワカ,0
1953,7280001009031,新規,0,2023-09-05,2023-09-05,株式会社ＥＴＳＵ,,株式会社,島根県,松江市,西津田９丁目４番４１号,,32,201,6900017,,,,,,,2023-09-05,1,,,,,エツ,0
1956,7290001102917,新規,0,2023-09-05,2023-09-05,株式会社ＹＳＲ,,株式会社,福岡県,大牟田市,明治町２丁目２０番地９,,40,202,8360012,,,,,,,2023-09-05,1,,,,,ワイエスアール,0
1957,7290001102925,新規,0,2023-09-05,2023-09-05,株式会社ｍｅｉｒｙｏｕ,,株式会社,福岡県,福岡市中央区,荒戸１丁目６番１－５０５号,,40,133,8100062,,,,,,,2023-09-05,1,,,,,メイリョウ,0
1961,7290801029830,新規,0,2023-09-05,2023-09-05,株式会社にしかわ測量技術,,株式会社,福岡県,北九州市八幡西区,沖田３丁目４番１９号,,40,109,8070077,,,,,,,2023-09-05,1,,,,,ニシカワソクリョウギジュツ,0
1962,7290801029839,新規,0,2023-09-05,2023-09-05,株式会社アグリハニー,,株式会社,福岡県,直方市,大字上頓野４４３２番地,,40,204,8220003,,,,,,,2023-09-05,1,,,,,アグリハニー,0
1965,7290805009671,新規,0,2023-09-05,2023-09-05,一般社団法人スマイルフューチャー,,その他の設立登記法人,福岡県,北九州市門司区,矢筈町６番１８号,,40,101,8000006,,,,,,,2023-09-05,1,,,,,スマイルフューチャー,0
1976,7330001031211,新規,0,2023-09-05,2023-09-05,株式会社ＳＷ勝,,株式会社,熊本県,阿蘇郡南阿蘇村,大字白川２０９６番地１,,43,433,8691502,,,,,,,2023-09-05,1,,,,,エスダブリュウショウ,0
1977,7330003009957,新規,0,2023-09-05,2023-09-05,合同会社ＣｏｏＱＷｅｓｔ,,合同会社,熊本県,合志市,竹迫２１３１番地３,,43,216,8611114,,,,,,,2023-09-05,1,,,,,クックウエスト,0
1980,7340003004239,新規,0,2023-09-05,2023-09-05,合同会社ｎｏｉｓｍ,,合同会社,鹿児島県,鹿児島市,東谷山２丁目８番１５号,,46,201,8910113,,,,,,,2023-09-05,1,,,,,ノイズム,0
1982,7360001032495,新規,0,2023-09-05,2023-09-05,株式会社Ｒｙｕｋｙｕ　Ｈｏｕｓｉｎｇ,,株式会社,沖縄県,沖縄市,登川１丁目２５番５号,,47,211,9042142,,,,,,,2023-09-05,1,,,,,リュウキュウハウジング,0
1984,7360003013262,新規,0,2023-09-05,2023-09-05,農地所有適格法人北部地区開発合同会社ノースファーム,,合同会社,沖縄県,石垣市,字宮良３５８番地２７,,47,207,9070243,,,,,,,2023-09-05,1,,,,,ノースファーム,0
1985,7370003006273,新規,0,2023-09-05,2023-09-05,イーアンドベイ合同会社,,合同会社,宮城県,栗原市,瀬峰長者原３８－２０,,04,213,9894516,,,,,,,2023-09-05,1,,,,,イーアンドベイ,0
1986,7380001033962,新規,0,2023-09-05,2023-09-05,株式会社やね太郎さん,,株式会社,福島県,田村郡三春町,桜ケ丘３丁目２番地の８ホワイトガーデンＢ－１０２号,,07,521,9637711,,,,,,,2023-09-05,1,,,,,ヤネタロウサン,0
1987,7380001033970,新規,0,2023-09-05,2023-09-05,藤川総業株式会社,,株式会社,福島県,いわき市,小名浜大原字東田７４番地渡辺ランビル１０１,,07,204,9718111,,,,,,,2023-09-05,1,,,,,フジカワソウギョウ,0
1992,7380003005563,新規,0,2023-09-05,2023-09-05,Ｆｉｎｅｓｓｅ合同会社,,合同会社,福島県,相馬市,中村字新町４８番地の１ベルレージュ新町Ｂ,,07,209,9760042,,,,,,,2023-09-05,1,,,,,フィネス,0
1995,7400003003143,新規,0,2023-09-05,2023-09-05,合同会社下村林業,,合同会社,岩手県,盛岡市,西青山１丁目１５番２４号,,03,201,0200132,,,,,,,2023-09-05,1,,,,,シモムラリンギョウ,0
1997,7420001018397,新規,0,2023-09-05,2023-09-05,株式会社ｃａｒｉｎａ,,株式会社,青森県,青森市,篠田１丁目２６番２４号,,02,201,0380011,,,,,,,2023-09-05,1,,,,,カリーナ,0
2016,7440001009312,新規,0,2023-09-05,2023-09-05,株式会社函館ステッカー,,株式会社,北海道,函館市,的場町２０番１９号,,01,202,0400021,,,,,,,2023-09-05,1,,,,,ハコダテステッカー,0
2028,7500001025162,新規,0,2023-09-05,2023-09-05,株式会社ＫＣ,,株式会社,愛媛県,西条市,周布４１８番地１,,38,206,7991371,,,,,,,2023-09-05,1,,,,,ケーシー,0
2030,7500003003091,新規,0,2023-09-05,2023-09-05,合同会社ダイバース,,合同会社,愛媛県,今治市,国分１丁目９番４号,,38,202,7991533,,,,,,,2023-09-05,1,,,,,ダイバース,0
2031,7700150119777,新規,0,2023-09-05,2023-09-05,Ｓｈｅｎｚｈｅｎｓｈｉ　Ｈｏｎｇｔａｉｄａｋｅｊｉ　Ｙｏｕｘｉａｎｇｏｎｇｓｉ,,外国会社等,,,,,,,,Ｂａｏａｎｑｕ　ｆｕｈａｉｊｉｅｄａｏ　ｑｉａｏｔｏｕｓｈｅｑｕ　ｔｏｎｇｔａｉｚｏｎｇｂｕｃｈａｎｙｅｙｕａｎ　ｃｈａｎｇｆａｎｇ　４ｄｏｎｇ　ｔｏｎｇｔａｉｓｈｉｄａｉｚｈｏｎｇｘｉｎ　４ｄｏｎｇ７０６　ｓｈｅｎｚｈｅｎ,,,,,,2023-09-05,1,,,,,シンセンシホンタイダカギユウゲンコウシ,0
2032,7700150119785,新規,0,2023-09-05,2023-09-05,ＨＡＮＧＺＨＯＵ　ＴＩＡＮＲＵＩ　ＴＥＸＴＩＬＥ　ＣＯ．，ＬＴＤ,,外国会社等,,,,,,,,Ｂｕｉｌｄｉｎｇ　Ｎｏ．１，Ｇｒｏｕｐ３，Ｔａｎｇｗａｎ　Ｖｉｌｌａｇｅ，Ｄｏｎｇｈｕ　Ｓｔｒｅｅｔ，Ｙｕｈａｎｇ　Ｄｉｓｔｒｉｃｔ，Ｈａｎｇｚｈｏｕ　Ｃｉｔｙ，Ｚｈｅｊｉａｎｇ　Ｐｒｏｖｉｎｃｅ,,,,,,2023-09-05,1,,,,,コウシュウテンルイテクスタイルカンパニーリミテッド,0
2033,7700150119793,新規,0,2023-09-05,2023-09-05,ｓｈｅｎｚｈｅｎ　ｂｏｋａｎｇｋｅｊｉｆａｚｈａｎ　ｙｏｕｘｉａｎｇｏｎｇｓｉ,,外国会社等,,,,,,,,ｓｈｅｎｚｈｅｎｓｈｉ　ｌｏｎｇｇａｎｇｑｕ　ｂａｎｔｉａｎｊｉｅｄａｏ　ｍａａｎｔａｎｇｓｈｅｑｕ　ｚｈｏｎｇｘｉｎｇ　ｌｕｘｉｎｔａｎｇｇｏｎｇｙｅｙｕａｎ　ｃｄｏｎｇ　３１９,,,,,,2023-09-05,1,,,,,シンセンボカンカギファザンユウゲンコウシ,0
2039,8010001238168,新規,0,2023-09-05,2023-09-05,株式会社マネージリンク,,株式会社,東京都,文京区,湯島２丁目１２番４号,,13,105,1130034,,,,,,,2023-09-05,1,,,,,マネージリンク,0
2040,8010001238176,新規,0,2023-09-05,2023-09-05,株式会社クリアテックケミカルジャパン,,株式会社,東京都,中央区,日本橋３丁目２番１４号新槇町ビル別館第一２階,,13,102,1030027,,,,,,,2023-09-05,1,,,,,クリアテックケミカルジャパン,0
2041,8010001238192,新規,0,2023-09-05,2023-09-05,ナロー・アンド・ワイド株式会社,,株式会社,東京都,中央区,銀座７丁目１３番６号,,13,102,1040061,,,,,,,2023-09-05,1,,,,,ナローアンドワイド,0
2043,8010003041578,新規,0,2023-09-05,2023-09-05,Ｎｏｖｕｓ　Ａｖｉａｔｉｏｎ　Ｃａｐｉｔａｌ　Ｊａｐａｎ合同会社,,合同会社,東京都,中央区,日本橋３丁目６番２号,,13,102,1030027,,,,,,,2023-09-05,1,,,,,ノヴァスアビエーションキャピタルジャパン,0
2047,8010401176942,新規,0,2023-09-05,2023-09-05,株式会社Ｂｌａｎｃｈｉｒ,,株式会社,東京都,港区,南青山６丁目７番１２号コンシェリア南青山１２０２,,13,103,1070062,,,,,,,2023-09-05,1,,,,,ブランシール,0
2049,8010403030833,新規,0,2023-09-05,2023-09-05,合同会社ＪＡＰＡＮＥＸＰＯＲＴＳ,,合同会社,東京都,港区,白金台５丁目５番５号ＲＥＸ白金１３０８,,13,103,1080071,,,,,,,2023-09-05,1,,,,,ジャパンエクスポーツ,0
2051,8010405022416,新規,0,2023-09-05,2023-09-05,一般社団法人日本肺活協会,,その他の設立登記法人,東京都,港区,南青山２丁目１１番１７号第一法規本社ビル３階,,13,103,1070062,,,,,,,2023-09-05,1,,,,,ニホンハイカツキョウカイ,0
2054,8010501050931,新規,0,2023-09-05,2023-09-05,シーエフシーグッズ株式会社,,株式会社,東京都,台東区,東上野６丁目２３番９号豊田シャルム４０２号室,,13,106,1100015,,,,,,,2023-09-05,1,,,,,シーエフシーグッズ,0
2055,8010601063718,新規,0,2023-09-05,2023-09-05,株式会社フリードプラン,,株式会社,東京都,墨田区,亀沢４丁目１８番１０号,,13,107,1300014,,,,,,,2023-09-05,1,,,,,フリードプラン,0
2056,8010605004239,新規,0,2023-09-05,2023-09-05,医療法人社団輝跡会,,その他の設立登記法人,東京都,墨田区,本所４丁目２９番２２号１０１号室,,13,107,1300004,,,,,,,2023-09-05,1,,,,,キセキカイ,0
2061,8010905004525,新規,0,2023-09-05,2023-09-05,特定非営利活動法人ピスカリ,,その他の設立登記法人,東京都,世田谷区,上用賀２丁目１－１ＪＲＡ馬事公苑内,,13,112,1580098,,,,,,,2023-09-05,1,,,,,ピスカリ,0
2063,8011001156715,新規,0,2023-09-05,2023-09-05,株式会社エンカレ,,株式会社,東京都,渋谷区,恵比寿１丁目１５番９号,,13,113,1500013,,,,,,,2023-09-05,1,,,,,エンカレ,0
2065,8011003017460,新規,0,2023-09-05,2023-09-05,合同会社エイド,,合同会社,東京都,渋谷区,代々木２丁目１８番４号細川ビル４Ｆ,,13,113,1510053,,,,,,,2023-09-05,1,,,,,エイド,0
2066,8011003017477,新規,0,2023-09-05,2023-09-05,シルバースプーン合同会社,,合同会社,東京都,目黒区,南１丁目２０番１９号モーメンタム１０２,,13,110,1520013,,,,,,,2023-09-05,1,,,,,シルバースプーン,0
2069,8011101104193,新規,0,2023-09-05,2023-09-05,株式会社イレミア,,株式会社,東京都,新宿区,西新宿３丁目３番１３号西新宿水間ビル６階,,13,104,1600023,,,,,,,2023-09-05,1,,,,,イレミア,0
2070,8011201024894,新規,0,2023-09-05,2023-09-05,株式会社Ｓ　ＡＲＴ　ＧＡＬＬＥＲＹ,,株式会社,東京都,中野区,中央２丁目１４番４号,,13,114,1640011,,,,,,,2023-09-05,1,,,,,エスアートギャラリー,0
2072,8011601027101,新規,0,2023-09-05,2023-09-05,株式会社左官都倉,,株式会社,東京都,練馬区,大泉学園町５丁目３３番１０号,,13,120,1780061,,,,,,,2023-09-05,1,,,,,サカントクラ,0
2073,8011603004040,新規,0,2023-09-05,2023-09-05,合同会社ＷＩＮ　ＷＩＮ,,合同会社,東京都,練馬区,春日町６丁目７番２４号,,13,120,1790074,,,,,,,2023-09-05,1,,,,,ウィンウィン,0
2075,8011705001794,新規,0,2023-09-05,2023-09-05,医療法人社団ともえ会,,その他の設立登記法人,東京都,江戸川区,船堀４丁目７番８号グランシャリオ１階,,13,123,1340091,,,,,,,2023-09-05,1,,,,,トモエカイ,0
2080,8011801042981,新規,0,2023-09-05,2023-09-05,株式会社ＮＥＷ　ＦＩＶＥ,,株式会社,東京都,足立区,椿２丁目２２番２号,,13,121,1230871,,,,,,,2023-09-05,1,,,,,ニューファイブ,0
2081,8011801042998,新規,0,2023-09-05,2023-09-05,株式会社シスコム,,株式会社,東京都,足立区,青井４丁目４５番１０－６１０号,,13,121,1210012,,,,,,,2023-09-05,1,,,,,シスコム,0
2082,8011801043006,新規,0,2023-09-05,2023-09-05,株式会社Ｐｏｄｌｉｎｋ,,株式会社,東京都,足立区,綾瀬５丁目１９番３号ライオンズ綾瀬セントマークス５０２,,13,121,1200005,,,,,,,2023-09-05,1,,,,,ポッドリンク,0
2083,8011803005813,新規,0,2023-09-05,2023-09-05,合同会社三永,,合同会社,東京都,葛飾区,新小岩１丁目２０番４－３０３号レクノスＩ,00131765,13,122,1240024,,,,,,,2023-09-05,1,,,,,サンエイ,0
2085,8012401040962,新規,0,2023-09-05,2023-09-05,株式会社ホンダプラミング,,株式会社,東京都,三鷹市,北野４丁目１５番４７号,,13,204,1810003,,,,,,,2023-09-05,1,,,,,ホンダプラミング,0
2094,8013301051298,新規,0,2023-09-05,2023-09-05,株式会社スプリングヒルズ,,株式会社,東京都,豊島区,北大塚３丁目３１番３－６０１号,,13,116,1700004,,,,,,,2023-09-05,1,,,,,スプリングヒルズ,0
2102,8020001153291,新規,0,2023-09-05,2023-09-05,株式会社若水社,,株式会社,神奈川県,横浜市港北区,大倉山５丁目３８番２１号,,14,109,2220037,,,,,,,2023-09-05,1,,,,,ジャクスイシャ,0
2104,8020003024508,新規,0,2023-09-05,2023-09-05,ＲＳ商会合同会社,,合同会社,神奈川県,横浜市戸塚区,舞岡町３３２０－２７,,14,110,2440813,,,,,,,2023-09-05,1,,,,,アルエスショカイ,0
2114,8030001155601,新規,0,2023-09-05,2023-09-05,東澤株式会社,,株式会社,埼玉県,川口市,芝４丁目２５番１２号,,11,203,3330866,,,,,,,2023-09-05,1,,,,,トウザワ,0
2121,8040001129967,新規,0,2023-09-05,2023-09-05,株式会社ゆきしば物産,,株式会社,千葉県,船橋市,西習志野３丁目１番２３号,,12,204,2740815,,,,,,,2023-09-05,1,,,,,ユキシバブッサン,0
2132,8050001053381,新規,0,2023-09-05,2023-09-05,株式会社山陽工業,,株式会社,茨城県,神栖市,知手７０７番地１１ココハイムＩＩＡ号室,00131764,08,232,3140115,,,,,,,2023-09-05,1,,,,,サンヨウコウギョウ,0
2135,8060003004704,新規,0,2023-09-05,2023-09-05,合同会社ＥＭＩ,,合同会社,栃木県,鹿沼市,幸町１丁目３番２７号,,09,205,3220023,,,,,,,2023-09-05,1,,,,,イーエムアイ,0
2137,8070003005081,新規,0,2023-09-05,2023-09-05,ＡＣＰ合同会社,,合同会社,群馬県,邑楽郡大泉町,坂田４丁目２番１５号パークハウスモリＩ－１０２号,00131769,10,524,3700532,,,,,,,2023-09-05,1,,,,,,0
2138,8080001025832,新規,0,2023-09-05,2023-09-05,株式会社ＡＢＩＥＳ,,株式会社,静岡県,静岡市駿河区,栗原７番１２号,,22,102,4228008,,,,,,,2023-09-05,1,,,,,アビエス,0
2142,8090001018315,新規,0,2023-09-05,2023-09-05,株式会社ＴｒｅｓｏＲ,,株式会社,山梨県,上野原市,八ツ沢８７番地,,19,212,4090133,,,,,,,2023-09-05,1,,,,,トレゾール,0
2143,8090003002382,新規,0,2023-09-05,2023-09-05,ＯＳＣ＆デザイン合同会社,,合同会社,山梨県,南アルプス市,百々２０７５番地４６,,19,208,4000214,,,,,,,2023-09-05,1,,,,,オーエスシーアンドデザイン,0
2148,8110003005151,新規,0,2023-09-05,2023-09-05,合同会社Ｅｎｎプラス,,合同会社,新潟県,上越市,大町５丁目５番３６号,,15,222,9430833,,,,,,,2023-09-05,1,,,,,エンプラス,0
2160,8120001257792,新規,0,2023-09-05,2023-09-05,株式会社グローリー,,株式会社,大阪府,大阪市西成区,北開１丁目１－２１－Ｋ－フロント壱番館４０４号室,,27,122,5570021,,,,,,,2023-09-05,1,,,,,グローリー,0
2161,8120001257826,新規,0,2023-09-05,2023-09-05,株式会社パレット,,株式会社,大阪府,大阪市西区,南堀江３丁目１５番３号,,27,106,5500015,,,,,,,2023-09-05,1,,,,,パレット,0
2162,8120001257842,新規,0,2023-09-05,2023-09-05,株式会社新森興業,,株式会社,大阪府,大阪市旭区,新森２丁目６番２２号新森ハイツ４０１号室,,27,117,5350022,,,,,,,2023-09-05,1,,,,,シンモリコウギョウ,0
2163,8120001257875,新規,0,2023-09-05,2023-09-05,株式会社ｍｏｋｒａｋｕ,,株式会社,大阪府,大阪市中央区,島之内１丁目１５番１号１階,,27,128,5420082,,,,,,,2023-09-05,1,,,,,モクラク,0
2164,8120001257917,新規,0,2023-09-05,2023-09-05,ＪＡＰＡＮ　ＷＯＯＤ　ＨＯＵＳＥ株式会社,,株式会社,大阪府,大阪市住之江区,平林南２丁目１１番１０８号,,27,125,5590025,,,,,,,2023-09-05,1,,,,,ジャパンウッドハウス,0
2167,8120005023860,新規,0,2023-09-05,2023-09-05,一般社団法人あおてぃすと,,その他の設立登記法人,大阪府,大阪市北区,梅田１丁目２番２号大阪駅前第２ビル１２－１２,,27,127,5300001,,,,,,,2023-09-05,1,,,,,アオティスト,0
2172,8130001075087,新規,0,2023-09-05,2023-09-05,株式会社松田住建,,株式会社,京都府,城陽市,寺田宮ノ谷２９番地の１７２,,26,207,6100121,,,,,,,2023-09-05,1,,,,,マツダジュウケン,0
2173,8130003008953,新規,0,2023-09-05,2023-09-05,合同会社かみのその設計事務所,,合同会社,京都府,京都市伏見区,深草出羽屋敷町１０番地３７,,26,109,6120088,,,,,,,2023-09-05,1,,,,,カミノソノセッケイジムショ,0
2176,8140001131327,新規,0,2023-09-05,2023-09-05,新生株式会社,,株式会社,兵庫県,宝塚市,山手台東３丁目２４番７号,,28,214,6650887,,,,,,,2023-09-05,1,,,,,シンセイ,0
2178,8140001131509,新規,0,2023-09-05,2023-09-05,株式会社ＷＨＫ,,株式会社,兵庫県,神戸市中央区,中山手通１丁目２２番１８号２Ｆ東,,28,110,6500004,,,,,,,2023-09-05,1,,,,,ダブリューエイチケー,0
2179,8140001131517,新規,0,2023-09-05,2023-09-05,株式会社Ａ‐ＢＲＡＮＣＨＥ,,株式会社,兵庫県,尼崎市,潮江１丁目１１番１－９０３号,,28,202,6610976,,,,,,,2023-09-05,1,,,,,エーブランシェ,0
2185,8150003003052,新規,0,2023-09-05,2023-09-05,合同会社ミキヤ・インターナショナル,,合同会社,奈良県,大和郡山市,柳５丁目３０番地３,,29,203,6391134,,,,,,,2023-09-05,1,,,,,ミキヤインターナショナル,0
2187,8160001025320,新規,0,2023-09-05,2023-09-05,株式会社なないち,,株式会社,滋賀県,近江八幡市,金剛寺町１５５番地１０,,25,204,5230001,,,,,,,2023-09-05,1,,,,,ナナイチ,0
2192,8180001157830,新規,0,2023-09-05,2023-09-05,株式会社ｅｃｌｉｐｓｅ,,株式会社,愛知県,あま市,七宝町伊福壱之割５２番地,,23,237,4970005,,,,,,,2023-09-05,1,,,,,エクリプス,0
2193,8180001157847,新規,0,2023-09-05,2023-09-05,株式会社ＲＩＮＣＡ,,株式会社,愛知県,名古屋市千種区,神田町１６番１０号,,23,101,4640077,,,,,,,2023-09-05,1,,,,,リンカ,0
2196,8180301037757,新規,0,2023-09-05,2023-09-05,ＳＴＥＬＬＡ株式会社,,株式会社,愛知県,岡崎市,伝馬通５丁目５８番地,,23,202,4440038,,,,,,,2023-09-05,1,,,,,ステラ,0
2197,8180301037765,新規,0,2023-09-05,2023-09-05,株式会社弐開,,株式会社,愛知県,岡崎市,上里１丁目７番地１４,,23,202,4442136,,,,,,,2023-09-05,1,,,,,ニカイ,0
2200,8190001030722,新規,0,2023-09-05,2023-09-05,株式会社中森工業,,株式会社,三重県,四日市市,大井手３丁目１０番２１－１号,,24,202,5100835,,,,,,,2023-09-05,1,,,,,ナカモリコウギョウ,0
2205,8200001041668,新規,0,2023-09-05,2023-09-05,暮らし株式会社,,株式会社,岐阜県,関市,山王通西六丁目２３番地,,21,205,5013251,,,,,,,2023-09-05,1,,,,,クラシ,0
2206,8200003006074,新規,0,2023-09-05,2023-09-05,合同会社Ａ２Ｓｔｕｄｉｏ,,合同会社,岐阜県,大垣市,西之川町１丁目１５７番地１,,21,202,5030018,,,,,,,2023-09-05,1,,,,,エイツースタジオ,0
2207,8210001019440,新規,0,2023-09-05,2023-09-05,株式会社ＰＲＩＭＡＶＥＲＡ,,株式会社,福井県,福井市,文京３丁目２８番２１号,,18,201,9100017,,,,,,,2023-09-05,1,,,,,プリマヴェーラ,0
2208,8210003001693,新規,0,2023-09-05,2023-09-05,合同会社越前,,合同会社,福井県,丹生郡越前町,朝日第２号１６番地１,,18,423,9160146,,,,,,,2023-09-05,1,,,,,エチゼン,0
2209,8220001025586,新規,0,2023-09-05,2023-09-05,エ・アール・ティ・ワークス株式会社,,株式会社,石川県,金沢市,小立野３丁目１８番７号,,17,201,9200942,,,,,,,2023-09-05,1,,,,,エアールティワークス,0
2210,8220001025594,新規,0,2023-09-05,2023-09-05,金沢萬株式会社,,株式会社,石川県,金沢市,専光寺町ツ５７番地１０,,17,201,9200356,,,,,,,2023-09-05,1,,,,,カナザワヨロズ,0
2217,8240001062058,新規,0,2023-09-05,2023-09-05,株式会社ＨＩＦ‐Ｇ,,株式会社,広島県,広島市中区,中町７番１６号ポレスター広島２階,,34,101,7300037,,,,,,,2023-09-05,1,,,,,エイチアイエフジー,0
2218,8240001062082,新規,0,2023-09-05,2023-09-05,株式会社ＣＬＵＢ,,株式会社,広島県,広島市西区,田方３丁目９１３,,34,104,7330851,,,,,,,2023-09-05,1,,,,,クラブ,0
2220,8240003006277,新規,0,2023-09-05,2023-09-05,合同会社ＵＷ,,合同会社,広島県,三原市,本郷南６丁目２４－２７,,34,204,7290417,,,,,,,2023-09-05,1,,,,,ユーダブリュウ,0
2221,8240003006285,新規,0,2023-09-05,2023-09-05,ミライト合同会社,,合同会社,広島県,広島市安芸区,中野７丁目５０番３７号,,34,107,7390321,,,,,,,2023-09-05,1,,,,,ミライト,0
2222,8240003006293,新規,0,2023-09-05,2023-09-05,ＨＹＯＵＤ合同会社,,合同会社,広島県,福山市,西深津町６丁目３番３０号,,34,207,7210975,,,,,,,2023-09-05,1,,,,,エイチワイオーユーディー,0
2224,8250001020270,新規,0,2023-09-05,2023-09-05,ナチュラルカラー株式会社,,株式会社,山口県,岩国市,関戸１丁目１０２番地８,,35,208,7410063,,,,,,,2023-09-05,1,,,,,ナチュラルカラー,0
2226,8260001038270,新規,0,2023-09-05,2023-09-05,株式会社アリーナ,,株式会社,岡山県,岡山市北区,南方５丁目４番２号４０１,,33,101,7000807,,,,,,,2023-09-05,1,,,,,アリーナ,0
2227,8260001038287,新規,0,2023-09-05,2023-09-05,株式会社平山設備,,株式会社,岡山県,和気郡和気町,田原下１１７９番地１,,33,346,7090464,,,,,,,2023-09-05,1,,,,,ヒラヤマセツビ,0
2231,8270001008834,新規,0,2023-09-05,2023-09-05,株式会社岡田急便,,株式会社,鳥取県,西伯郡大山町,野田６６番地３,,31,386,6893307,,,,,,,2023-09-05,1,,,,,オカダキュウビン,0
2233,8290001102899,新規,0,2023-09-05,2023-09-05,日家家具株式会社,,株式会社,福岡県,大川市,大字大野島１３９６番地１,,40,212,8310045,,,,,,,2023-09-05,1,,,,,ニッカカグ,0
2234,8290001102916,新規,0,2023-09-05,2023-09-05,ＵＤトラックス九州株式会社,,株式会社,福岡県,福岡市東区,多の津１丁目３９番地４,,40,131,8130034,,,,,,,2023-09-05,1,,,,,ユーディートラックスキュウシュウ,0
2235,8290001102924,新規,0,2023-09-05,2023-09-05,株式会社ハリウッド企画,,株式会社,福岡県,福岡市城南区,松山２丁目２１番５号,,40,136,8140131,,,,,,,2023-09-05,1,,,,,ハリウッドキカク,0
2239,8290801029838,新規,0,2023-09-05,2023-09-05,株式会社Ｐａｌ,,株式会社,福岡県,北九州市小倉北区,江南町４－２,,40,106,8020083,,,,,,,2023-09-05,1,,,,,パル,0
2240,8290801029846,新規,0,2023-09-05,2023-09-05,株式会社小野,,株式会社,福岡県,北九州市小倉北区,京町１丁目６番３６－７０１号,,40,106,8020002,,,,,,,2023-09-05,1,,,,,オノ,0
2242,8300001013459,新規,0,2023-09-05,2023-09-05,ジョイキャス株式会社,,株式会社,佐賀県,神埼市,神埼町田道ヶ里２３３２番地１,,41,210,8420002,,,,,,,2023-09-05,1,,,,,ジョイキャス,0
2245,8320001019982,新規,0,2023-09-05,2023-09-05,Ａｌｌｕｒｅ株式会社,,株式会社,大分県,大分市,久原南１丁目１１番３号,,44,201,8700326,,,,,,,2023-09-05,1,,,,,アリュール,0
2246,8320003004157,新規,0,2023-09-05,2023-09-05,合同会社ａｎｄ　ｍｅ,,合同会社,大分県,豊後高田市,新地１０８１番地５,,44,209,8790627,,,,,,,2023-09-05,1,,,,,アンドミー,0
2247,8320003004165,新規,0,2023-09-05,2023-09-05,Ｒ＆Ｍ合同会社,,合同会社,大分県,別府市,石垣東１０丁目５番３ハウジング野上１０３,,44,202,8740919,,,,,,,2023-09-05,1,,,,,アールアンドエム,0
2249,8340001025863,新規,0,2023-09-05,2023-09-05,Ｍ　Ｗｏｒｌｄ　Ｔｒａｄｅ株式会社,,株式会社,鹿児島県,鹿児島市,郡元１丁目５番６号ファーネスト鹿大前レジデンス６０３号,,46,201,8900065,,,,,,,2023-09-05,1,,,,,エムワールドトレード,0
2250,8350001018544,新規,0,2023-09-05,2023-09-05,株式会社スターオフィス,,株式会社,宮崎県,日南市,中央通１丁目２番１９スターアミ１０１,,45,204,8870021,,,,,,,2023-09-05,1,,,,,スターオフィス,0
2251,8350001018552,新規,0,2023-09-05,2023-09-05,株式会社陽なた,,株式会社,宮崎県,宮崎市,橘通東３丁目４番８号第２中村ビル１階,,45,201,8800805,,,,,,,2023-09-05,1,,,,,ヒナタ,0
2257,8370001050371,新規,0,2023-09-05,2023-09-05,株式会社スタイル,,株式会社,宮城県,仙台市青葉区,立町７－３－２０３,,04,101,9800822,,,,,,,2023-09-05,1,,,,,スタイル,0
2259,8370005010677,新規,0,2023-09-05,2023-09-05,社会保険労務士法人ＴＡＸＥＬ,,その他の設立登記法人,宮城県,仙台市太白区,長町１丁目３番２６号ヴェーネ長町２０５号,,04,104,9820011,,,,,,,2023-09-05,1,,,,,タクセル,0
2282,8460103001552,新規,0,2023-09-05,2023-09-05,合同会社煌,,合同会社,北海道,帯広市,西十七条南３４丁目３番地３,,01,207,0800027,,,,,,,2023-09-05,1,,,,,キラメキ,0
2284,8700150119776,新規,0,2023-09-05,2023-09-05,Ａｎｊｉ　Ｙａｏｃｈｅｎ　Ｚｈｉｎｅｎｇ　Ｊｉａｊｕ　Ｙｏｕｘｉａｎｇｏｎｇｓｉ,,外国会社等,,,,,,,,Ａｎｊｉｘｉａｎ　Ｘｉａｏｆｅｎｇｚｈｅｎ　Ｃｈｉｗｕｃｕｎ　Ｘｉｘｉａｚｉｒａｎｃｕｎ　１　ｈａｏ　Ｈｕｚｈｏｕｓｈｉ　Ｚｈｅｊｉａｎｇ,,,,,,2023-09-05,1,,,,,アンジヤオチェンジネンジャジュユウゲンコウシ,0
2285,8700150119784,新規,0,2023-09-05,2023-09-05,ＳｈｅｎｚｈｅｎＳｈｉ　ＡｏｙｏｕＳｈｕｙｕＫｅｊｉ　ＹｏｕｘｉａｎＧｏｎｇｓｉ,,外国会社等,,,,,,,,Ｓｈｅｎｚｈｅｎ　Ｓｈｉ　Ｂａｏ’ａｎ　Ｑｕ　Ｘｉｘｉａｎｇ　Ｊｉｅｄａｏ　Ｇｏｎｇｌｅ　Ｓｈｅｑｕ　Ｇｏｎｇｈｅ　Ｇｏｎｇｙｅ　Ｌｕ　Ｘｉｆａ　Ｂ　Ｑｕ　Ｘｕｓｈｅｎｇ　Ｙａｎｆａ　Ｄａｓｈａ５ｃｅｎｇ,,,,,,2023-09-05,1,,,,,シンセンシアオヨウスユカギユウゲンコウシ,0
2286,8700150119792,新規,0,2023-09-05,2023-09-05,Ｓｈｅｎｚｈｅｎｓｈｉ　ｓｈａｎｇｙｕｙｉｑｉ　ｙｏｕｘｉａｎｇｏｎｇｓｉ,,外国会社等,,,,,,,,ｌｏｎｇｇａｎｇｑｕｐｉｎｇｈｕｊｉｅｄａｏｊｉａｎｔｏｕｌｉｎｇｃｕｎｙｉｍｉｎｌｕ２３ｈａｏ　Ｓｈｅｎｚｈｅｎｓｈｉ,,,,,,2023-09-05,1,,,,,シンセンシシャンユイチユウゲンコウシ,0
2290,9010001238142,新規,0,2023-09-05,2023-09-05,ＧＥＮＳＥＮ　ＨＯＬＤＩＮＧＳ株式会社,,株式会社,東京都,千代田区,丸の内１丁目６番５号,,13,101,1000005,,,,,,,2023-09-05,1,,,,,ゲンセンホールディングス,0
2291,9010001238167,新規,0,2023-09-05,2023-09-05,株式会社グレイスキャピタル,,株式会社,東京都,中央区,日本橋兜町９番１４－９１１号,,13,102,1030026,,,,,,,2023-09-05,1,,,,,グレイスキャピタル,0
2292,9010001238217,新規,0,2023-09-05,2023-09-05,株式会社ＧＲＡＮＤ　ＢＵＩＬＤ,,株式会社,東京都,千代田区,丸の内２丁目２番１号,,13,101,1000005,,,,,,,2023-09-05,1,,,,,グランビルド,0
2296,9010003041569,新規,0,2023-09-05,2023-09-05,合同会社Ｙマネジメント,,合同会社,東京都,千代田区,紀尾井町１番３号,,13,101,1020094,,,,,,,2023-09-05,1,,,,,ワイマネジメント,0
2297,9010005037227,新規,0,2023-09-05,2023-09-05,一般社団法人新聞輸送同盟会,,その他の設立登記法人,東京都,中央区,銀座６丁目７番１６号,,13,102,1040061,,,,,,,2023-09-05,1,,,,,シンブンユソウドウメイカイ,0
2302,9010403030881,新規,0,2023-09-05,2023-09-05,ＧｅｅｋＯｕｔ　Ｄｅｖｅｌｏｐｍｅｎｔ合同会社,,合同会社,東京都,港区,麻布十番２丁目２０番７号,,13,103,1060045,,,,,,,2023-09-05,1,,,,,ギークアウトディベロップメント,0
2304,9010405022415,新規,0,2023-09-05,2023-09-05,一般社団法人福寿海,,その他の設立登記法人,東京都,港区,芝大門２丁目７番１号ハイリーフ芝大門１０５,,13,103,1050012,,,,,,,2023-09-05,1,,,,,フクジュカイ,0
2305,9010501050988,新規,0,2023-09-05,2023-09-05,株式会社ＪＴＭグローバル,,株式会社,東京都,台東区,上野１丁目１２番６号国際宝石会館ビル６０１,,13,106,1100005,,,,,,,2023-09-05,1,,,,,ジェイティーエムグローバル,0
2306,9010501051004,新規,0,2023-09-05,2023-09-05,株式会社小林建設,,株式会社,東京都,台東区,東上野５丁目１３番１２－２０１号,,13,106,1100015,,,,,,,2023-09-05,1,,,,,コバヤシケンセツ,0
2307,9010503007144,新規,0,2023-09-05,2023-09-05,ＬｉＮＫ合同会社,,合同会社,東京都,台東区,蔵前３丁目７－４ソサエティ蔵前９０１号,,13,106,1110051,,,,,,,2023-09-05,1,,,,,リンク,0
2308,9010601063717,新規,0,2023-09-05,2023-09-05,株式会社フィットネス・リーチ,,株式会社,東京都,江東区,有明２丁目１番２－２１１２号,,13,108,1350063,,,,,,,2023-09-05,1,,,,,フィットネスリーチ,0
2310,9010603010337,新規,0,2023-09-05,2023-09-05,合同会社永田スタジオ,,合同会社,東京都,江東区,海辺１９番１６号,,13,108,1350012,,,,,,,2023-09-05,1,,,,,ナガタスタジオ,0
2311,9010701044798,新規,0,2023-09-05,2023-09-05,株式会社ＥＺＯＮＥ,,株式会社,東京都,品川区,平塚３丁目４番４号サザンクロス戸越２０１,,13,109,1420051,,,,,,,2023-09-05,1,,,,,イーゾーン,0
2315,9010801034303,新規,0,2023-09-05,2023-09-05,株式会社ＴＨＳ,,株式会社,東京都,大田区,蒲田２丁目２番１号,,13,111,1440052,,,,,,,2023-09-05,1,,,,,ティーエイチエス,0
2317,9010901053715,新規,0,2023-09-05,2023-09-05,株式会社キーストーンパートナーズ,,株式会社,東京都,世田谷区,深沢５丁目３７－１０,,13,112,1580081,,,,,,,2023-09-05,1,,,,,キーストーンパートナーズ,0
2321,9011001156747,新規,0,2023-09-05,2023-09-05,株式会社ＮＥＷ　ＶＥＮＴＵＲＥＳ,,株式会社,東京都,渋谷区,神宮前２丁目１８番１９号,,13,113,1500001,,,,,,,2023-09-05,1,,,,,ニューベンチャーズ,0
2322,9011003017451,新規,0,2023-09-05,2023-09-05,合同会社光彩メディア,,合同会社,東京都,渋谷区,東２丁目２４番１号第３ＫＹビル６０２,,13,113,1500011,,,,,,,2023-09-05,1,,,,,コウサイメディア,0
2323,9011003017484,新規,0,2023-09-05,2023-09-05,合同会社ＧＡＺＯＴＴＯ　ＦＩＬＭ,,合同会社,東京都,渋谷区,神宮前６丁目２９番４号原宿ｋｏｍｉｙａビル６階,,13,113,1500001,,,,,,,2023-09-05,1,,,,,ガゾットフィルム,0
2326,9011105010767,新規,0,2023-09-05,2023-09-05,弁護士法人岡本,,その他の設立登記法人,東京都,新宿区,新宿１丁目９番３号ＮＢＫビル４階,,13,104,1600022,,,,,,,2023-09-05,1,,,,,オカモト,0
2331,9011203004159,新規,0,2023-09-05,2023-09-05,合同会社幸栄,,合同会社,東京都,中野区,弥生町２丁目４１番３号ビューラー中野新橋２０５,,13,114,1640013,,,,,,,2023-09-05,1,,,,,コウエイ,0
2332,9011301028984,新規,0,2023-09-05,2023-09-05,振英商事株式会社,,株式会社,東京都,杉並区,高円寺北２丁目４０番１３号ｈａｎａ高円寺１０１号室,,13,115,1660002,,,,,,,2023-09-05,1,,,,,シンエイショウジ,0
2333,9011303004901,新規,0,2023-09-05,2023-09-05,アイプランニング合同会社,,合同会社,東京都,杉並区,久我山４丁目２５番１２号ＣｏｒｎＦｌａｔ１０３,,13,115,1680082,,,,,,,2023-09-05,1,,,,,アイプランニング,0
2336,9011401025428,新規,0,2023-09-05,2023-09-05,Ｍａｋｅｌｉｔ株式会社,,株式会社,東京都,板橋区,大山金井町４番２号ノエル板橋１０３,,13,119,1730024,,,,,,,2023-09-05,1,,,,,メイクリット,0
2343,9011703003585,新規,0,2023-09-05,2023-09-05,合同会社フェリース,,合同会社,東京都,江戸川区,南葛西１丁目１５番７―２０４号,,13,123,1340085,,,,,,,2023-09-05,1,,,,,フェリース,0
2345,9011801042907,新規,0,2023-09-05,2023-09-05,株式会社トータルコンサルティング,,株式会社,東京都,足立区,西新井３丁目４番１６号,,13,121,1230841,,,,,,,2023-09-05,1,,,,,,0
2346,9011801043005,新規,0,2023-09-05,2023-09-05,株式会社タツヒロ,,株式会社,東京都,足立区,古千谷本町２丁目１番２５号親水公園ダイヤモンドマンション２０７号室,,13,121,1210832,,,,,,,2023-09-05,1,,,,,タツヒロ,0
2348,9012401040953,新規,0,2023-09-05,2023-09-05,株式会社ＴＡＫＡ,,株式会社,東京都,府中市,天神町４丁目２３番地の３２,,13,206,1830053,,,,,,,2023-09-05,1,,,,,タカ,0
2349,9012401040961,新規,0,2023-09-05,2023-09-05,〇次郎株式会社,,株式会社,東京都,調布市,染地２丁目３１番地１サンヴェール調布３１０,,13,208,1820023,,,,,,,2023-09-05,1,,,,,マルジロウ,0
2364,9020001153241,新規,0,2023-09-05,2023-09-05,株式会社ＳｈｉｎｎｏｏＫＴ,,株式会社,神奈川県,横浜市旭区,小高町１１８,,14,112,2410015,,,,,,,2023-09-05,1,,,,,シンノオケーティー,0
2365,9020001153290,新規,0,2023-09-05,2023-09-05,株式会社世和,,株式会社,神奈川県,横浜市中区,本牧三之谷３番３－１号,,14,104,2310824,,,,,,,2023-09-05,1,,,,,セワ,0
2370,9020003024465,新規,0,2023-09-05,2023-09-05,Ｊ＆Ｓ蓄電合同会社,,合同会社,神奈川県,横浜市鶴見区,末広町２丁目１,,14,101,2300045,,,,,,,2023-09-05,1,,,,,ジェイアンドエスチクデン,0
2383,9030001155906,新規,0,2023-09-05,2023-09-05,株式会社メイシン,,株式会社,埼玉県,上尾市,大字西門前４３２番地１３,,11,219,3620005,,,,,,,2023-09-05,1,,,,,メイシン,0
2400,9040003023242,新規,0,2023-09-05,2023-09-05,合同会社貴光興業,,合同会社,千葉県,木更津市,祇園２丁目３１番２９号プリムローズＡ－２０１,00131775,12,206,2920052,,,,,,,2023-09-05,1,,,,,タカミツコウギョウ,0
2401,9040003023291,新規,0,2023-09-05,2023-09-05,合同会社まるかい設備,,合同会社,千葉県,習志野市,大久保２丁目１１－４７,,12,216,2750011,,,,,,,2023-09-05,1,,,,,マルカイセツビ,0
2408,9050001053380,新規,0,2023-09-05,2023-09-05,株式会社ソックマネットコーポレーション,,株式会社,茨城県,下妻市,下妻丁３３番地３,,08,210,3040068,,,,,,,2023-09-05,1,,,,,ソックマネットコーポレーション,0
2413,9070001040823,新規,0,2023-09-05,2023-09-05,株式会社Ｃｏｚｙ　Ｈｏｕｓｅ,,株式会社,群馬県,伊勢崎市,波志江町５０７番地１,,10,204,3720001,,,,,,,2023-09-05,1,,,,,コージーハウス,0
2417,9070003005080,新規,0,2023-09-05,2023-09-05,ＫＥＮＩＬ合同会社,,合同会社,群馬県,邑楽郡大泉町,坂田４丁目２番１６号パークハウスモリＩＩ２０２号,00131771,10,524,3700532,,,,,,,2023-09-05,1,,,,,,0
2421,9080401026693,新規,0,2023-09-05,2023-09-05,Ｋ．Ｊ．Ｐ株式会社,,株式会社,静岡県,浜松市中区,神田町４３０番地の１,,22,131,4328047,,,,,,,2023-09-05,1,,,,,ケイジェイピー,0
2422,9080401026710,新規,0,2023-09-05,2023-09-05,株式会社ワンアップソリューションズ,,株式会社,静岡県,浜松市北区,三方原町２１９４番地,,22,135,4338105,,,,,,,2023-09-05,1,,,,,ワンアップソリューションズ,0
2429,9110001037823,新規,0,2023-09-05,2023-09-05,株式会社ｇｒｏｗ,,株式会社,新潟県,新潟市中央区,神道寺南１丁目１１番９号,,15,103,9500986,,,,,,,2023-09-05,1,,,,,グロウ,0
2436,9120003024843,新規,0,2023-09-05,2023-09-05,ｉｓｍ合同会社,,合同会社,大阪府,守口市,南寺方東通４丁目１２－２６,,27,209,5700043,,,,,,,2023-09-05,1,,,,,イズム,0
2438,9120903004804,新規,0,2023-09-05,2023-09-05,合同会社ＴＯＯＬＳ,,合同会社,大阪府,豊中市,春日町５丁目２番１１号,,27,203,5600052,,,,,,,2023-09-05,1,,,,,トゥールズ,0
2440,9122001037331,新規,0,2023-09-05,2023-09-05,ＲＩＳＥ株式会社,,株式会社,大阪府,八尾市,久宝寺１丁目１番３９号,,27,212,5810072,,,,,,,2023-09-05,1,,,,,ライズ,0
2441,9122003002655,新規,0,2023-09-05,2023-09-05,合同会社ＯＦＦＩＣＥ　ＴＡＫＥ,,合同会社,大阪府,八尾市,太子堂５丁目１番５０号,,27,212,5810063,,,,,,,2023-09-05,1,,,,,オフィスタケ,0
2445,9140001131433,新規,0,2023-09-05,2023-09-05,株式会社ＲＳ,,株式会社,兵庫県,姫路市,白国３丁目１番３０－８０８号リベール白国,,28,201,6700808,,,,,,,2023-09-05,1,,,,,アールエス,0
2451,9150003003051,新規,0,2023-09-05,2023-09-05,合同会社トラストアーム,,合同会社,奈良県,北葛城郡王寺町,元町２丁目１９番１－４号,,29,425,6360013,,,,,,,2023-09-05,1,,,,,トラストアーム,0
2454,9160001025328,新規,0,2023-09-05,2023-09-05,株式会社ウィッシュ,,株式会社,滋賀県,大津市,大江３丁目７番２３号,,25,201,5202141,,,,,,,2023-09-05,1,,,,,ウィッシュ,0
2458,9170003001920,新規,0,2023-09-05,2023-09-05,ＤＢＢｓ合同会社,,合同会社,和歌山県,橋本市,吉原６４８,,30,203,6480087,,,,,,,2023-09-05,1,,,,,ディービービーズ,0
2460,9180001157838,新規,0,2023-09-05,2023-09-05,株式会社ＳＫＤラボ,,株式会社,愛知県,春日井市,鳥居松町６丁目１１９番地,,23,206,4860844,,,,,,,2023-09-05,1,,,,,エスケーディーラボ,0
2461,9180001157862,新規,0,2023-09-05,2023-09-05,株式会社Ｎｓｔｙｌｅ,,株式会社,愛知県,稲沢市,祖父江町森上本郷四８３番地３,,23,220,4950011,,,,,,,2023-09-05,1,,,,,エヌスタイル,0
2466,9180301037780,新規,0,2023-09-05,2023-09-05,株式会社ＳＯＲＡＯ,,株式会社,愛知県,岡崎市,羽根町字若宮３０番地１,,23,202,4440813,,,,,,,2023-09-05,1,,,,,ソラオ,0
2467,9180305009504,新規,0,2023-09-05,2023-09-05,西三河塗装連合協同組合,,その他の設立登記法人,愛知県,西尾市,吉良町吉田上浜７番地１１,,23,213,4440516,,,,,,,2023-09-05,1,,,,,ニシミカワトソウレンゴウ,0
2469,9190001030721,新規,0,2023-09-05,2023-09-05,森本商事株式会社,,株式会社,三重県,津市,上浜町６丁目２２４－１１０,,24,201,5140008,,,,,,,2023-09-05,1,,,,,モリモトショウジ,0
2470,9190003004434,新規,0,2023-09-05,2023-09-05,合同会社ライズ,,合同会社,三重県,松阪市,光町１０２５番地４,,24,204,5150051,,,,,,,2023-09-05,1,,,,,ライズ,0
2474,9200001041675,新規,0,2023-09-05,2023-09-05,株式会社Ｍｏｂ　Ｔｉｅｓ,,株式会社,岐阜県,大垣市,上石津町牧田３８３４番地１,,21,202,5031602,,,,,,,2023-09-05,1,,,,,モブタイズ,0
2475,9200001041683,新規,0,2023-09-05,2023-09-05,株式会社吉田鉄工所,00131777,株式会社,岐阜県,羽島市,正木町曲利１３０４番地,,21,209,5016227,,,,,,,2023-09-05,1,,,,,ヨシダテッコウショ,0
2476,9200001041691,新規,0,2023-09-05,2023-09-05,株式会社波多野建装,,株式会社,岐阜県,羽島郡岐南町,上印食６丁目５１番地,,21,302,5016001,,,,,,,2023-09-05,1,,,,,ハタノケンソウ,0
2479,9210001019448,新規,0,2023-09-05,2023-09-05,Ｐａｙ　Ｉｔ　Ｆｏｒｗａｒｄ株式会社,,株式会社,福井県,鯖江市,鳥羽３丁目１１３３－２,,18,207,9160013,,,,,,,2023-09-05,1,,,,,ペイフォワード,0
2483,9230003002078,新規,0,2023-09-05,2023-09-05,合同会社タマシビプロジェクト,,合同会社,富山県,富山市,月見町４丁目６１番地,,16,201,9398136,,,,,,,2023-09-05,1,,,,,タマシビプロジェクト,0
2484,9240001062057,新規,0,2023-09-05,2023-09-05,株式会社Ｋａｊｉｋｅｎ,,株式会社,広島県,広島市西区,南観音町１７番１４号,,34,104,7330034,,,,,,,2023-09-05,1,,,,,カジケン,0
2485,9240001062073,新規,0,2023-09-05,2023-09-05,株式会社藤久,,株式会社,広島県,三原市,久井町江木１０３番地２３,,34,204,7221304,,,,,,,2023-09-05,1,,,,,フジキュウ,0
2490,9260001038294,新規,0,2023-09-05,2023-09-05,株式会社ＩＮＤＵＳＴＲＩＡＬ　ＴＥＣＨＮＯＬＯＧＹ,,株式会社,岡山県,岡山市北区,中山下１丁目１１番１５号新田第１ビル４０２,,33,101,7000821,,,,,,,2023-09-05,1,,,,,インダストリアルテクノロジー,0
2496,9290001102873,新規,0,2023-09-05,2023-09-05,株式会社吉岡サポートａｎｄサービス,,株式会社,福岡県,福岡市中央区,大名２丁目２番１２号,,40,133,8100041,,,,,,,2023-09-05,1,,,,,ヨシオカサポートアンドサービス,0
2497,9290001102923,新規,0,2023-09-05,2023-09-05,株式会社ＭＡＩアセットマネジメント,,株式会社,福岡県,大野城市,筒井２丁目４番１１号,,40,219,8160931,,,,,,,2023-09-05,1,,,,,エムエーアイアセットマネジメント,0
2498,9290001102931,新規,0,2023-09-05,2023-09-05,Ｎｉｐｐｏｎ　Ｃａｒｚ株式会社,,株式会社,福岡県,小郡市,三沢４１５９－１７第二福田コーポ２０１号,,40,216,8380106,,,,,,,2023-09-05,1,,,,,ニッポンカーズ,0
2501,9290801029837,新規,0,2023-09-05,2023-09-05,株式会社Ｂ‐Ｃｏｍｐ,,株式会社,福岡県,鞍手郡鞍手町,大字古門６６０－１,,40,402,8071306,,,,,,,2023-09-05,1,,,,,ビーコンプ,0
2502,9290801029845,新規,0,2023-09-05,2023-09-05,株式会社デントサービス北九州,,株式会社,福岡県,北九州市八幡東区,白川町９番１３号,,40,108,8050007,,,,,,,2023-09-05,1,,,,,デントサービスキタキュウシュウ,0
2503,9290801029853,新規,0,2023-09-05,2023-09-05,株式会社ＳＷＡＧ,,株式会社,福岡県,北九州市八幡東区,上本町２丁目１２番２５号,,40,108,8050018,,,,,,,2023-09-05,1,,,,,スワッグ,0
2507,9320001019973,新規,0,2023-09-05,2023-09-05,株式会社野上農園,,株式会社,大分県,速見郡日出町,大字川崎６６番地７,,44,341,8791505,,,,,,,2023-09-05,1,,,,,ノガミノウエン,0
2508,9320001019981,新規,0,2023-09-05,2023-09-05,株式会社アン・グラフィック,,株式会社,大分県,大分市,中央町１丁目４番２４号大分セントラルビル２Ｆ,,44,201,8700035,,,,,,,2023-09-05,1,,,,,アングラフィック,0
2509,9320003004164,新規,0,2023-09-05,2023-09-05,ピジョンスマート合同会社,,合同会社,大分県,大分市,中央町１丁目４番２４号大分セントラルビル２Ｆ,,44,201,8700035,,,,,,,2023-09-05,1,,,,,ピジョンスマート,0
2512,9340001025870,新規,0,2023-09-05,2023-09-05,株式会社エムグループ,,株式会社,鹿児島県,南九州市,知覧町郡６１３４番地４,,46,223,8970302,,,,,,,2023-09-05,1,,,,,エムグループ,0
2513,9340001025879,新規,0,2023-09-05,2023-09-05,ｅｉｋｏ　Ｔｅｃ株式会社,,株式会社,鹿児島県,鹿児島市,松原町２番１８－６０７号,,46,201,8920833,,,,,,,2023-09-05,1,,,,,エイコーテック,0
2516,9340005009647,新規,0,2023-09-05,2023-09-05,一般社団法人あわい,,その他の設立登記法人,鹿児島県,肝属郡錦江町,田代麓３５３４番地,,46,490,8932401,,,,,,,2023-09-05,1,,,,,アワイ,0
2518,9360001032493,新規,0,2023-09-05,2023-09-05,株式会社メリット販売,,株式会社,沖縄県,豊見城市,字高嶺３６０番地２,,47,212,9010213,,,,,,,2023-09-05,1,,,,,メリットハンバイ,0
2519,9360001032502,新規,0,2023-09-05,2023-09-05,株式会社キンジョウ左官工業,,株式会社,沖縄県,浦添市,宮城２丁目２０番８号ソレイユ宮城Ａ棟,,47,208,9012126,,,,,,,2023-09-05,1,,,,,キンジョウサカンコウギョウ,0
2520,9360001032510,新規,0,2023-09-05,2023-09-05,株式会社やーにんじゅ,,株式会社,沖縄県,那覇市,松山１丁目３３番２号ＨＡＭＡＳＨＩＮビル４－Ａ,,47,201,9000032,,,,,,,2023-09-05,1,,,,,ヤーニンジュ,0
2524,9380001033969,新規,0,2023-09-05,2023-09-05,株式会社Ｔｒｕｓｔ　Ｅａｓｅ,,株式会社,福島県,白河市,久田野４３番地１,,07,205,9610011,,,,,,,2023-09-05,1,,,,,トラストイーズ,0
2547,9450001014086,新規,0,2023-09-05,2023-09-05,株式会社アライ商店,,株式会社,北海道,旭川市,四条西２丁目２番２号,,01,204,0700054,,,,,,,2023-09-05,1,,,,,アライショウテン,0
2549,9460105002267,新規,0,2023-09-05,2023-09-05,一般社団法人資源再読機構,,その他の設立登記法人,北海道,広尾郡大樹町,字芽武１５８－１,,01,641,0892113,,,,,,,2023-09-05,1,,,,,,0
2553,9480005006977,新規,0,2023-09-05,2023-09-05,阿波かつうらワークス協同組合,,その他の設立登記法人,徳島県,勝浦郡勝浦町,大字久国字久保田３番地１,,36,301,7714305,,,,,,,2023-09-05,1,,,,,アワカツウラワークス,0
2558,9700150119783,新規,0,2023-09-05,2023-09-05,ｓｈｅｎｚｈｅｎｓｈｉ　ｚｈｕｏｙｉｎｇｍａｏｙｉ　ｙｏｕｘｉａｎｇｏｎｇｓｉ,,外国会社等,,,,,,,,ＬｏｎｇＨｕａＱｕ　ＤａＬａｎｇＪｉｅＤａｏ　ＧａｏＦｅｎｇＳｈｅＱｕ　ＱｕｅＳｈａｎＹｕｎＦｅｎｇＬｕ３Ｈａｏ４９Ｄｏｎｇ１３０５Ｓｈｉ　ＳｈｅｎＺｈｅｎＳｈｉ,,,,,,2023-09-05,1,,,,,シンセンシゾォウインマオイユウゲンコウシ,0
2559,9700150119791,新規,0,2023-09-05,2023-09-05,ＮｉｎｇＢｏ　ＨａｏＮａｎ　ＪｉｎＳｈｕＺｈｉＰｉｎ　ＹｏｕＸｉａｎＧｏｎｇＳｉ,,外国会社等,,,,,,,,４ｔｈ　Ｆｌｏｏｒ，Ｂｕｉｌｄｉｎｇ　３，Ｎｏ．１９７，Ｊｉａｎｇｂｅｉ　Ａｖｅｎｕｅ，Ｊｉａｎｇｂｅｉ　Ｄｉｓｔｒｉｃｔ，Ｎｉｎｇｂｏ，Ｚｈｅｊｉａｎｇ,,,,,,2023-09-05,1,,,,,ニンボハオナンジンスジピンユウゲンコウシ,0
