sequenceNumber,corporateNumber,process,correct,updateDate,changeDate,name,nameImageId,kind,prefectureName,cityName,streetNumber,addressImageId,prefectureCode,cityCode,postCode,addressOutside,addressOutsideImageId,closeDate,closeCause,successorCorporateNumber,changeCause,assignmentDate,latest,enName,enPrefectureName,enCityName,enAddressOutside,furigana,hihyoji
13,1010005035725,登記記録の閉鎖等,0,2023-12-05,2023-11-30,一般社団法人オルタナ１９,,その他の設立登記法人,東京都,千代田区,丸の内３丁目１番１号東京共同会計事務所内,,13,101,1000005,,,2023-11-30,清算の結了等,,,2022-10-31,1,,,,,オルタナナインティーン,0
15,1010401010109,登記記録の閉鎖等,0,2023-12-05,2023-11-29,株式会社コンセプション,,株式会社,東京都,世田谷区,弦巻４丁目２３番１８号,,13,112,1540016,,,2023-11-29,清算の結了等,,,2015-10-05,1,,,,,コンセプション,0
17,1010401157809,登記記録の閉鎖等,0,2023-12-05,2023-11-24,ワークコリモート株式会社,,株式会社,東京都,港区,赤坂２丁目１４番１１号,,13,103,1070052,,,2023-11-24,清算の結了等,,,2021-01-22,1,,,,,ワークコリモート,0
24,1010601046514,登記記録の閉鎖等,0,2023-12-05,2023-12-01,マジュジャヤジャパン株式会社,,株式会社,東京都,中央区,築地７丁目３番１０－９０９号,,13,102,1040045,,,2023-12-01,清算の結了等,,,2015-10-05,1,,,,,マジュジャヤジャパン,0
30,1010703004824,登記記録の閉鎖等,0,2023-12-05,2023-12-04,合同会社くまんばち,,合同会社,東京都,品川区,豊町１丁目１０番６号,,13,109,1420042,,,2023-12-04,清算の結了等,,,2019-06-07,1,,,,,クマンバチ,0
40,1011001115487,登記記録の閉鎖等,0,2023-12-05,2023-12-01,株式会社プレスト,,株式会社,東京都,渋谷区,桜丘町３０番１２号,,13,113,1500031,,,2023-12-01,清算の結了等,,,2017-03-23,1,,,,,プレスト,0
56,1011103006931,登記記録の閉鎖等,0,2023-12-05,2023-11-30,合同会社レゴ,,合同会社,東京都,新宿区,四谷２丁目９番地１５あると綜合事務所内,,13,104,1600004,,,2023-11-30,清算の結了等,,,2017-03-24,1,,,,,レゴ,0
67,1011801027576,登記記録の閉鎖等,0,2023-12-05,2023-12-01,株式会社ネクスト東金町,,株式会社,東京都,葛飾区,東金町８丁目１６番１７号,,13,122,1250041,,,2023-12-01,合併による解散等,8010401140353,令和５年５月２５日東京都品川区東五反田一丁目２３番１号株式会社最高のホテル（8010401140353）に合併し解散,2015-10-05,1,,,,,ネクストヒガシカナマチ,0
72,1013301030374,登記記録の閉鎖等,0,2023-12-05,2023-12-01,株式会社ネオ・イースト,,株式会社,東京都,豊島区,東池袋１丁目３７番９号,,13,116,1700013,,,2023-12-01,合併による解散等,8010401140353,令和５年５月２５日東京都品川区東五反田一丁目２３番１号株式会社最高のホテル（8010401140353）に合併し解散,2015-10-05,1,,,,,ネオイースト,0
83,1020002018392,登記記録の閉鎖等,0,2023-12-05,2023-11-30,有限会社川久保工務店,,有限会社,神奈川県,横浜市港南区,日野中央２丁目１２番２号,,14,111,2340053,,,2023-11-30,清算の結了等,,,2015-10-05,1,,,,,カワクボコウムテン,0
84,1020002021710,登記記録の閉鎖等,0,2023-12-05,2023-11-15,荘園企業有限会社,,有限会社,神奈川県,横浜市旭区,上白根１丁目１番１９－１０１号,,14,112,2410002,,,2023-11-15,清算の結了等,,,2023-06-16,1,,,,,ショウエンキギョウ,0
85,1020002085466,登記記録の閉鎖等,0,2023-12-05,2023-11-30,有限会社八百徳,,有限会社,東京都,墨田区,八広２丁目１３番１１－３１１号,,13,107,1310041,,,2023-11-30,清算の結了等,,,2015-10-05,1,,,,,ヤオトク,0
88,1021002015504,登記記録の閉鎖等,0,2023-12-05,2023-12-01,有限会社ふくや製菓舖,,有限会社,神奈川県,鎌倉市,大船１丁目５番４号,,14,204,2470056,,,2023-12-01,清算の結了等,,,2015-10-05,1,,,,,,0
89,1021003007211,登記記録の閉鎖等,0,2023-12-05,2023-11-30,ＲＡＩＮＢＯＷ　ＭＡＧＩＣ合同会社,,合同会社,神奈川県,平塚市,片岡９２９番地の３１,,14,203,2591213,,,2023-11-30,清算の結了等,,,2018-01-17,1,,,,,レインボーマジック,0
101,1040002037085,登記記録の閉鎖等,0,2023-12-05,2023-11-29,有限会社山内産業,,有限会社,千葉県,市川市,高谷新町７番地の１,,12,203,2720011,,,2023-11-29,清算の結了等,,,2015-10-05,1,,,,,ヤマウチサンギョウ,0
102,1040002044321,登記記録の閉鎖等,0,2023-12-05,2023-11-20,有限会社伊藤住設,,有限会社,千葉県,松戸市,大金平４丁目２６７番地,,12,207,2700006,,,2023-11-20,清算の結了等,,,2023-05-29,1,,,,,イトウジュウセツ,0
105,1040003012698,登記記録の閉鎖等,0,2023-12-05,2023-11-29,歩洋花伝合資会社,,合資会社,千葉県,松戸市,金ケ作３０５－１０－２Ｆ,,12,207,2702251,,,2023-11-29,清算の結了等,,,2019-01-11,1,,,,,フヨウカデン,0
111,1050001041327,登記記録の閉鎖等,0,2023-12-05,2023-12-04,ＨＡＰＰＹＲＵＮ株式会社,,株式会社,大阪府,和泉市,伏屋町４丁目９－３３,,27,219,5940031,,,2023-12-04,清算の結了等,,,2016-07-15,1,,,,,ハッピーラン,0
115,1060002039410,登記記録の閉鎖等,0,2023-12-05,2023-12-04,有限会社藤沼人形本店,,有限会社,栃木県,佐野市,天明町２７１９番地,,09,204,3270014,,,2023-12-04,清算の結了等,,,2015-10-05,1,,,,,フジヌマニンギョウホンテン,0
163,1120903003953,登記記録の閉鎖等,0,2023-12-05,2023-11-30,合同会社ＭＫ看護,,合同会社,大阪府,高槻市,松が丘３丁目２５番２１号,,27,207,5691031,,,2023-11-30,清算の結了等,,,2021-12-21,1,,,,,エムケイカンゴ,0
171,1130002028042,登記記録の閉鎖等,0,2023-12-05,2023-12-01,有限会社サンメイ・ジェイジェイ,,有限会社,京都府,久世郡久御山町,佐山双置７１番地の２０,,26,322,6130034,,,2023-12-01,清算の結了等,,,2015-10-05,1,,,,,サンメイジェイジェイ,0
178,1140002034667,登記記録の閉鎖等,0,2023-12-05,2023-11-29,有限会社松下きのこプラント,,有限会社,兵庫県,丹波市,柏原町南多田７００番地,,28,223,6693301,,,2023-11-29,清算の結了等,,,2015-10-05,1,,,,,マツシタキノコプラント,0
198,1180002055817,登記記録の閉鎖等,0,2023-12-05,2023-11-30,有限会社中島設計事務所,,有限会社,愛知県,名古屋市緑区,尾崎山１丁目９０３番地,,23,114,4580024,,,2023-11-30,清算の結了等,,,2015-10-05,1,,,,,ナカシマセッケイジムショ,0
203,1180302007550,登記記録の閉鎖等,0,2023-12-05,2023-11-30,有限会社佐藤眼鏡,,有限会社,愛知県,豊橋市,新吉町３７番地,,23,201,4400871,,,2023-11-30,清算の結了等,,,2015-10-05,1,,,,,サトウガンキョウ,0
205,1190002011199,登記記録の閉鎖等,0,2023-12-05,2023-12-01,有限会社磯井モータース,,有限会社,三重県,志摩市,阿児町国府２８５９番地,,24,215,5170506,,,2023-12-01,清算の結了等,,,2015-10-05,1,,,,,イソイモータース,0
211,1210002004423,登記記録の閉鎖等,0,2023-12-05,2023-11-29,有限会社福吉ブラシ商店,,有限会社,福井県,福井市,新保２丁目１０３番地の２,,18,201,9100833,,,2023-11-29,清算の結了等,,,2015-10-05,1,,,,,フクヨシブラシショウテン,0
215,1230001009355,登記記録の閉鎖等,0,2023-12-05,2023-11-30,株式会社新エネルギーシステム技術研究所,,株式会社,富山県,南砺市,戸板８番地,,16,210,9320253,,,2023-11-30,清算の結了等,,,2015-10-05,1,,,,,シンエネルギーシステムギジュツケンキュウショ,0
218,1240002051090,登記記録の閉鎖等,0,2023-12-05,2023-11-17,有限会社中屋本舖,,有限会社,広島県,尾道市,久保１丁目２番４号,,34,205,7220045,,,2023-11-17,清算の結了等,,,2015-10-05,1,,,,,ナカヤホンポ,0
223,1260002025902,登記記録の閉鎖等,0,2023-12-05,2023-11-30,有限会社ナカヤマ乳販,,有限会社,岡山県,井原市,西江原町１８３０番地の３,,33,207,7150006,,,2023-11-30,清算の結了等,,,2015-10-05,1,,,,,ナカヤマニュウハン,0
237,1310001012549,登記記録の閉鎖等,0,2023-12-05,2023-11-30,株式会社愛宕,,株式会社,長崎県,壱岐市,石田町池田東触９８４番地９,,42,210,8115221,,,2023-11-30,清算の結了等,,,2015-10-05,1,,,,,アタゴ,0
257,1420002003651,登記記録の閉鎖等,0,2023-12-05,2023-11-29,有限会社ブーム,,有限会社,青森県,青森市,浪館前田４丁目１２番１１号,,02,201,0380024,,,2023-11-29,清算の結了等,,,2015-10-05,1,,,,,ブーム,0
259,1430001046898,登記記録の閉鎖等,0,2023-12-05,2023-11-27,株式会社松本建設,,株式会社,北海道,美唄市,東二条南７丁目３番９号,,01,215,0720013,,,2023-11-27,清算の結了等,,,2015-10-05,1,,,,,マツモトケンセツ,0
260,1430001053432,登記記録の閉鎖等,0,2023-12-05,2023-11-29,株式会社苫小牧イエローハット,,株式会社,北海道,苫小牧市,明野新町１丁目２番２３号,,01,213,0530054,,,2023-11-29,清算の結了等,,,2015-10-05,1,,,,,トマコマイイエローハット,0
265,1430005009752,登記記録の閉鎖等,0,2023-12-05,2023-11-30,医療法人緑風会,,その他の設立登記法人,北海道,虻田郡洞爺湖町,本町１９５番地,,01,584,0495615,,,2023-11-30,清算の結了等,,,2015-10-05,1,,,,,リョクフウカイ,0
268,1440001004450,登記記録の閉鎖等,0,2023-12-05,2023-12-01,株式会社大清水産業,,株式会社,北海道,亀田郡七飯町,字上藤城２２番地,,01,337,0411104,,,2023-12-01,清算の結了等,,,2015-10-05,1,,,,,オオシミズサンギョウ,0
269,1450001013228,登記記録の閉鎖等,0,2023-12-05,2023-12-04,株式会社ファームテスター,,株式会社,北海道,旭川市,流通団地二条３丁目２６番地５,,01,204,0798442,,,2023-12-04,清算の結了等,,,2021-02-09,1,,,,,ファームテスター,0
275,1500001002596,登記記録の閉鎖等,0,2023-12-05,2023-12-04,株式会社多賀住宅設備,,株式会社,愛媛県,松山市,松前町３丁目２番地９,,38,201,7900812,,,2023-12-04,清算の結了等,,,2015-10-05,1,,,,,タガジュウタクセツビ,0
276,1500001008073,登記記録の閉鎖等,0,2023-12-05,2023-12-01,丸井建設株式会社,,株式会社,愛媛県,西予市,三瓶町朝立３番耕地７番地２,,38,214,7960907,,,2023-12-01,清算の結了等,,,2015-10-05,1,,,,,マルイケンセツ,0
292,2010005034759,登記記録の閉鎖等,0,2023-12-05,2023-11-29,岡山早島デベロップメント一般社団法人,,その他の設立登記法人,東京都,中央区,日本橋１丁目４番１号日本橋一丁目ビルディング,,13,102,1030027,,,2023-11-29,清算の結了等,,,2022-03-23,1,,,,,オカヤマハヤシマデベロップメント,0
293,2010005035724,登記記録の閉鎖等,0,2023-12-05,2023-11-30,一般社団法人オルタナ２０,,その他の設立登記法人,東京都,千代田区,丸の内３丁目１番１号東京共同会計事務所内,,13,101,1000005,,,2023-11-30,清算の結了等,,,2022-10-31,1,,,,,オルタナトゥウェンティ,0
308,2010901014509,登記記録の閉鎖等,0,2023-12-05,2023-11-29,株式会社エスエーアドバンス,,株式会社,東京都,世田谷区,世田谷２丁目２２番１４号,,13,112,1540017,,,2023-11-29,清算の結了等,,,2015-10-05,1,,,,,エスエーアドバンス,0
310,2011001000465,登記記録の閉鎖等,0,2023-12-05,2023-11-20,株式会社アーバンインターナショナル,,株式会社,東京都,渋谷区,代々木２丁目２３番１号,,13,113,1510053,,,2023-11-20,清算の結了等,,,2023-06-26,1,,,,,アーバンインターナショナル,0
317,2011003014678,登記記録の閉鎖等,0,2023-12-05,2023-11-30,合同会社ＫＲＥＷＬＡ,,合同会社,東京都,渋谷区,神宮前６丁目２３－４桑野ビル２階,,13,113,1500001,,,2023-11-30,清算の結了等,,,2022-05-12,1,,,,,クルーラ,0
320,2011201022136,登記記録の閉鎖等,0,2023-12-05,2023-12-01,株式会社マイラボ,,株式会社,東京都,中野区,南台４丁目２０番１０号グランヒーロー１０１号室,,13,114,1640014,,,2023-12-01,清算の結了等,,,2020-05-12,1,,,,,マイラボ,0
328,2011701022560,登記記録の閉鎖等,0,2023-12-05,2023-11-30,株式会社ＧＫ．ＷＯＲＬＤ．ＪＡＰＡＮ,,株式会社,東京都,江戸川区,北小岩２丁目６－１４小島館３０５,,13,123,1330051,,,2023-11-30,清算の結了等,,,2019-04-03,1,,,,,ジーケーワールドジャパン,0
329,2011702008823,登記記録の閉鎖等,0,2023-12-05,2023-11-30,有限会社西野商店,,有限会社,東京都,江戸川区,東葛西３丁目１３番２０号,,13,123,1340084,,,2023-11-30,清算の結了等,,,2015-10-05,1,,,,,ニシノショウテン,0
334,2012403003741,登記記録の閉鎖等,0,2023-12-05,2023-11-27,ＮＯＭＡＤＯＷＡ合同会社,,合同会社,東京都,三鷹市,下連雀９丁目４番８号産業住宅協会三鷹第８－３１,,13,204,1810013,,,2023-11-27,清算の結了等,,,2019-01-24,1,,,,,ノマドワ,0
340,2013302009796,登記記録の閉鎖等,0,2023-12-05,2023-11-30,有限会社雅,,有限会社,東京都,立川市,羽衣町２丁目３０番６号,,13,202,1900021,,,2023-11-30,清算の結了等,,,2015-10-05,1,,,,,,0
352,2020005006625,登記記録の閉鎖等,0,2023-12-05,2023-11-30,特定非営利活動法人歌い人,,その他の設立登記法人,神奈川県,横浜市神奈川区,大口通３１番地２カンタービレ横浜３０３,,14,102,2210002,,,2023-11-30,清算の結了等,,,2015-10-05,1,,,,,ウタイビト,0
368,2030002115337,登記記録の閉鎖等,0,2023-12-05,2023-11-28,有限会社ライズコーポレーション,,有限会社,埼玉県,比企郡鳩山町,松ヶ丘１丁目１８番１２号,,11,348,3500313,,,2023-11-28,清算の結了等,,,2015-10-05,1,,,,,ライズコーポレーション,0
371,2040001049262,登記記録の閉鎖等,0,2023-12-05,2023-11-29,シティーハウス工業株式会社,,株式会社,千葉県,八街市,希望ヶ丘２８２番地４９,,12,230,2891131,,,2023-11-29,清算の結了等,,,2015-10-05,1,,,,,シティーハウスコウギョウ,0
379,2050002006699,登記記録の閉鎖等,0,2023-12-05,2023-12-01,有限会社オーク,,有限会社,茨城県,水戸市,米沢町４１５番地の１,,08,201,3100847,,,2023-12-01,合併による解散等,5050001004775,令和５年１２月１日茨城県水戸市米沢町４１５番地の１株式会社メディックス（5050001004775）に合併し解散,2015-10-05,1,,,,,オーク,0
380,2060001025476,登記記録の閉鎖等,0,2023-12-05,2023-12-01,株式会社結城土地整備,,株式会社,栃木県,小山市,大字羽川１９１番地１４,,09,208,3230012,,,2023-12-01,清算の結了等,,,2015-10-05,1,,,,,ユウキトチセイビ,0
387,2070005000524,登記記録の閉鎖等,0,2023-12-05,2023-11-29,群馬県給食協同組合連合会,,その他の設立登記法人,群馬県,前橋市,大手町３丁目３番１号,,10,201,3710026,,,2023-11-29,清算の結了等,,,2015-10-05,1,,,,,,0
391,2080001025301,登記記録の閉鎖等,0,2023-12-05,2023-12-01,株式会社関根工務店,,株式会社,静岡県,焼津市,宗高１３５７番地の５ナイスプラザ１０１,,22,212,4210205,,,2023-12-01,清算の結了等,,,2022-11-17,1,,,,,セキネコウムテン,0
394,2080401013715,登記記録の閉鎖等,0,2023-12-05,2023-12-01,株式会社ＡＷＧ研究所,,株式会社,静岡県,浜松市北区,東三方町４７７番地の１１,,22,135,4338104,,,2023-12-01,清算の結了等,,,2015-10-05,1,,,,,エーダブリュージーケンキュウジョ,0
399,2110002021460,登記記録の閉鎖等,0,2023-12-05,2023-11-07,有限会社カツモク,,有限会社,新潟県,村上市,檜原７９０番地,,15,212,9580215,,,2023-11-07,清算の結了等,,,2015-10-05,1,,,,,カツモク,0
411,2120001235556,登記記録の閉鎖等,0,2023-12-05,2023-12-01,株式会社ＣＬフード,,株式会社,大阪府,大阪市淀川区,西中島３丁目３－４,,27,123,5320011,,,2023-12-01,合併による解散等,6120901039334,令和５年１２月１日大阪市淀川区西中島三丁目３番４号株式会社コンサルリンク（6120901039334）に合併し解散,2021-03-01,1,,,,,シーエルフード,0
418,2120101021633,登記記録の閉鎖等,0,2023-12-05,2023-12-01,株式会社椿野精研,,株式会社,大阪府,堺市美原区,太井６５４番地,,27,147,5870062,,,2023-12-01,清算の結了等,,,2015-10-05,1,,,,,ツバキノセイケン,0
458,2180001131790,登記記録の閉鎖等,0,2023-12-05,2023-11-30,ライフハーモニー株式会社,,株式会社,愛知県,名古屋市名東区,桜が丘１番地,,23,115,4650096,,,2023-11-30,清算の結了等,,,2018-04-06,1,,,,,ライフハーモニー,0
462,2180002068207,登記記録の閉鎖等,0,2023-12-05,2023-12-01,有限会社大興商事,,有限会社,愛知県,春日井市,高山町４丁目１５番地の１１,,23,206,4860912,,,2023-12-01,清算の結了等,,,2015-10-05,1,,,,,ダイコウショウジ,0
465,2180003018805,登記記録の閉鎖等,0,2023-12-05,2023-12-04,合同会社ＳＫＫ,,合同会社,愛知県,豊明市,阿野町北上ノ山８０－２,,23,229,4701145,,,2023-12-04,清算の結了等,,,2018-03-28,1,,,,,エスケイケイ,0
468,2180301012963,登記記録の閉鎖等,0,2023-12-05,2023-11-30,株式会社新安城ホテル,,株式会社,愛知県,安城市,東栄町１丁目９番１０号,,23,212,4460007,,,2023-11-30,清算の結了等,,,2015-10-05,1,,,,,シンアンジョウホテル,0
477,2200001013111,登記記録の閉鎖等,0,2023-12-05,2023-11-30,株式会社オキドキ,,株式会社,岐阜県,羽島郡岐南町,三宅１丁目２０１番地,,21,302,5016002,,,2023-11-30,清算の結了等,,,2015-10-05,1,,,,,オキドキ,0
478,2200001015041,登記記録の閉鎖等,0,2023-12-05,2023-11-30,株式会社ドナーテツク,,株式会社,岐阜県,養老郡養老町,大場４８４番地,,21,341,5031272,,,2023-11-30,清算の結了等,,,2015-10-05,1,,,,,ドナーテック,0
479,2200001031039,登記記録の閉鎖等,0,2023-12-05,2023-12-04,株式会社シーアンドエス,,株式会社,岐阜県,大垣市,墨俣町上宿２９１番地１,,21,202,5030103,,,2023-12-04,清算の結了等,,,2015-10-05,1,,,,,シーアンドエス,0
486,2220005002570,登記記録の閉鎖等,0,2023-12-05,2023-11-14,特定非営利活動法人ＪＷＰ,,その他の設立登記法人,石川県,金沢市,里見町１６番地１,,17,201,9200998,,,2023-11-14,清算の結了等,,,2015-10-05,1,,,,,ジェイダブリュウピー,0
490,2250002016975,登記記録の閉鎖等,0,2023-12-05,2023-11-30,有限会社山州計装,,有限会社,山口県,光市,室積２丁目１４番２１号,,35,210,7430007,,,2023-11-30,清算の結了等,,,2015-10-05,1,,,,,サンシュウケイソウ,0
521,2390001011344,登記記録の閉鎖等,0,2023-12-05,2023-11-30,斎藤建設株式会社,,株式会社,山形県,西置賜郡小国町,大字岩井沢８３０番地,,06,401,9991352,,,2023-11-30,清算の結了等,,,2015-10-05,1,,,,,,0
527,2410002002711,登記記録の閉鎖等,0,2023-12-05,2023-11-29,有限会社土肥土木,,有限会社,秋田県,秋田市,新屋北浜町３番１７号,,05,201,0101608,,,2023-11-29,清算の結了等,,,2015-10-05,1,,,,,ドイドボク,0
560,3010005018133,登記記録の閉鎖等,0,2023-12-05,2023-11-24,一般社団法人ソーシャルビジネス支援協会,,その他の設立登記法人,東京都,千代田区,九段南１丁目５番６号りそな九段ビル５階ＫＳフロア,,13,101,1020074,,,2023-11-24,清算の結了等,,,2015-10-05,1,,,,,ソーシャルビジネスシエンキョウカイ,0
598,3011103003415,登記記録の閉鎖等,0,2023-12-05,2023-12-01,合同会社アーキテクツ２４,,合同会社,静岡県,熱海市,西熱海町２丁目３０番１０号,,22,205,4130038,,,2023-12-01,清算の結了等,,,2015-10-05,1,,,,,アーキテクツニジュウヨン,0
607,3011702003633,登記記録の閉鎖等,0,2023-12-05,2023-11-29,田安門管理株式会社,,株式会社,東京都,千代田区,丸の内３丁目１番１号,,13,101,1000005,,,2023-11-29,清算の結了等,,,2015-10-05,1,,,,,タヤスモンカンリ,0
618,3013301041171,登記記録の閉鎖等,0,2023-12-05,2023-11-30,株式会社セミコロン,,株式会社,東京都,新宿区,下落合３丁目１４－１６目白センター／ｃｏｍｍｏｎ,,13,104,1610033,,,2023-11-30,清算の結了等,,,2017-09-26,1,,,,,セミコロン,0
622,3020001038869,登記記録の閉鎖等,0,2023-12-05,2023-11-30,株式会社コムエイド,,株式会社,神奈川県,横浜市神奈川区,羽沢南１丁目４１番１３号,,14,102,2210866,,,2023-11-30,清算の結了等,,,2015-10-05,1,,,,,コムエイド,0
623,3020001077710,登記記録の閉鎖等,0,2023-12-05,2023-11-30,株式会社クロス・フュージョン,,株式会社,神奈川県,川崎市高津区,向ケ丘７６番地３,,14,134,2130035,,,2023-11-30,清算の結了等,,,2015-10-05,1,,,,,クロスフュージョン,0
636,3021002060804,登記記録の閉鎖等,0,2023-12-05,2023-12-04,有限会社三城寿司,,有限会社,神奈川県,中郡二宮町,一色３０２６番地,,14,342,2590134,,,2023-12-04,清算の結了等,,,2015-10-05,1,,,,,サンジョウズシ,0
641,3030002016501,登記記録の閉鎖等,0,2023-12-05,2023-11-30,有限会社マイテック,,有限会社,埼玉県,さいたま市見沼区,大字深作２０９番地３７,,11,104,3370003,,,2023-11-30,清算の結了等,,,2015-10-05,1,,,,,マイテック,0
654,3040002017985,登記記録の閉鎖等,0,2023-12-05,2023-11-30,有限会社石川工務店,,有限会社,千葉県,習志野市,藤崎６丁目２０番５号,,12,216,2750017,,,2023-11-30,清算の結了等,,,2015-10-05,1,,,,,イシカワコウムテン,0
655,3040002044658,登記記録の閉鎖等,0,2023-12-05,2023-11-29,有限会社エヌ・テック・ジヤパン,,有限会社,千葉県,松戸市,下矢切１９０番地,,12,207,2710096,,,2023-11-29,清算の結了等,,,2015-10-05,1,,,,,エヌテックジヤパン,0
660,3040005001061,登記記録の閉鎖等,0,2023-12-05,2023-11-28,医療法人社団彰美会,,その他の設立登記法人,千葉県,千葉市緑区,おゆみ野中央６丁目１４番地８,,12,105,2660032,,,2023-11-28,清算の結了等,,,2015-10-05,1,,,,,ショウビカイ,0
677,3090002010283,登記記録の閉鎖等,0,2023-12-05,2023-12-04,有限会社新郷,,有限会社,山梨県,都留市,十日市場６０９番地,,19,204,4020031,,,2023-12-04,清算の結了等,,,2015-10-05,1,,,,,,0
678,3090002014334,登記記録の閉鎖等,0,2023-12-05,2023-12-01,有限会社八ケ岳土地開発,,有限会社,山梨県,北杜市,高根町東井出２４６番地,,19,209,4080003,,,2023-12-01,清算の結了等,,,2015-10-05,1,,,,,,0
681,3120001042695,登記記録の閉鎖等,0,2023-12-05,2023-11-28,協弥産業株式会社,,株式会社,大阪府,吹田市,藤白台２丁目１５番１号,,27,205,5650873,,,2023-11-28,清算の結了等,,,2015-10-05,1,,,,,キョウヤサンギョウ,0
684,3120001203413,登記記録の閉鎖等,0,2023-12-05,2023-11-14,エタニティ１株式会社,,株式会社,大阪府,大阪市中央区,日本橋１丁目１０番１２号シャンクレール日本橋１００１号,,27,128,5420073,,,2023-11-14,清算の結了等,,,2017-02-02,1,,,,,エタニティワン,0
694,3120005018188,登記記録の閉鎖等,0,2023-12-05,2023-12-01,一般社団法人あいともに,,その他の設立登記法人,大阪府,大阪市北区,南森町１丁目１番２５号,,27,127,5300054,,,2023-12-01,清算の結了等,,,2015-10-05,1,,,,,アイトモニ,0
699,3120101065241,登記記録の閉鎖等,0,2023-12-05,2023-12-01,株式会社Ｇｏ,,株式会社,大阪府,堺市堺区,中安井町３丁４－１１,,27,141,5900063,,,2023-12-01,清算の結了等,,,2022-03-17,1,,,,,ゴー,0
720,3150002001383,登記記録の閉鎖等,0,2023-12-05,2023-12-04,有限会社西田建設資材,,有限会社,奈良県,奈良市,高樋町１１０９番地,00043272,29,201,6308411,,,2023-12-04,清算の結了等,,,2015-10-05,1,,,,,ニシダケンセツシザイ,0
729,3180001118093,登記記録の閉鎖等,0,2023-12-05,2023-12-01,株式会社パシフィックラーニング,,株式会社,愛知県,名古屋市名東区,上社２丁目４６番地の１,,23,115,4650025,,,2023-12-01,清算の結了等,,,2015-10-05,1,,,,,パシフィックラーニング,0
733,3180001153000,登記記録の閉鎖等,0,2023-12-05,2023-11-27,Ｆｏｏｔｂａｌｌ　Ｃｏｎｓｕｌ株式会社,,株式会社,愛知県,愛知郡東郷町,白鳥１丁目２番４号ライオンズマンション東郷西２０１,,23,302,4700155,,,2023-11-27,清算の結了等,,,2022-09-13,1,,,,,フットボールコンサル,0
734,3180001153578,登記記録の閉鎖等,0,2023-12-05,2023-12-01,株式会社ＡＧＡＩＮ,,株式会社,愛知県,名古屋市昭和区,五軒家町３０番地の１７,,23,107,4660838,,,2023-12-01,清算の結了等,,,2022-10-28,1,,,,,アゲイン,0
739,3180301022326,登記記録の閉鎖等,0,2023-12-05,2023-11-29,株式会社東商開発,,株式会社,愛知県,西尾市,高畠町３丁目２３番地１,,23,213,4450064,,,2023-11-29,清算の結了等,,,2015-10-05,1,,,,,トウショウカイハツ,0
742,3190001004524,登記記録の閉鎖等,0,2023-12-05,2023-11-29,長島造船株式会社,,株式会社,三重県,北牟婁郡紀北町,紀伊長島区長島１８８９番地の１２,,24,543,5193400,,,2023-11-29,清算の結了等,,,2023-09-12,1,,,,,ナガシマゾウセン,0
761,3260001027798,登記記録の閉鎖等,0,2023-12-05,2023-11-30,株式会社山下地域建築設計事務所,,株式会社,岡山県,笠岡市,西大島６６４番地,,33,205,7140032,,,2023-11-30,清算の結了等,,,2015-10-05,1,,,,,ヤマシタチイキケンチクセッケイジムショ,0
775,3300005003700,登記記録の閉鎖等,0,2023-12-05,2023-12-01,聖天教,,その他の設立登記法人,佐賀県,鹿島市,大字中村２０１２番地,,41,207,8491304,,,2023-12-01,清算の結了等,,,2015-10-05,1,,,,,セイテンキョウ,0
778,3310002020763,登記記録の閉鎖等,0,2023-12-05,2023-12-01,有限会社恵理丸水産,,有限会社,長崎県,五島市,玉之浦町玉之浦１５０番地３,,42,211,8530411,,,2023-12-01,清算の結了等,,,2015-10-05,1,,,,,エリマルスイサン,0
780,3320002015028,登記記録の閉鎖等,0,2023-12-05,2023-11-30,有限会社アド・ゼピロス,,有限会社,大分県,国東市,安岐町下原１３８３番地の１,,44,214,8730231,,,2023-11-30,清算の結了等,,,2015-10-05,1,,,,,,0
794,3360001026187,登記記録の閉鎖等,0,2023-12-05,2023-11-27,株式会社５ｔｈ　Ｋｉｎｄ　Ｇａｍｅｓ,,株式会社,沖縄県,宜野湾市,上原１丁目８番２号ＯＳビル３０３号室,,47,205,9012204,,,2023-11-27,清算の結了等,,,2019-09-10,1,,,,,フィフスカインドゲームズ,0
807,3410001013031,登記記録の閉鎖等,0,2023-12-05,2023-11-30,山二アダモ株式会社,,株式会社,秋田県,大仙市,協和境字苅谷沢３０番地４２,,05,212,0192411,,,2023-11-30,合併による解散等,2410001002084,令和５年１１月３０日秋田市御所野湯本三丁目１番５号山二建設資材株式会社（2410001002084）に合併し解散,2021-12-02,1,,,,,ヤマニアダモ,0
816,3450001013969,登記記録の閉鎖等,0,2023-12-05,2023-11-22,株式会社緑十字産業,,株式会社,北海道,富良野市,栄町１５番３号,,01,229,0760023,,,2023-11-22,清算の結了等,,,2023-05-08,1,,,,,ミドリジュウジサンギョウ,0
818,3480001004866,登記記録の閉鎖等,0,2023-12-05,2023-12-04,株式会社ユニホーム,,株式会社,徳島県,徳島市,助任本町５丁目２９番地,,36,201,7700816,,,2023-12-04,清算の結了等,,,2015-10-05,1,,,,,ユニホーム,0
819,3480001007027,登記記録の閉鎖等,0,2023-12-05,2023-12-01,株式会社久保組,,株式会社,徳島県,那賀郡那賀町,木頭和無田字ヒガシタイラ１８番地,,36,368,7716403,,,2023-12-01,清算の結了等,,,2015-10-05,1,,,,,,0
834,4010003033364,登記記録の閉鎖等,0,2023-12-05,2023-11-30,チェントミリアルド２号合同会社,,合同会社,東京都,中央区,日本橋１丁目４番１号日本橋一丁目ビルディング,,13,102,1030027,,,2023-11-30,清算の結了等,,,2020-10-26,1,,,,,チェントミリアルドニゴウ,0
838,4010005034170,登記記録の閉鎖等,0,2023-12-05,2023-12-01,アキュレイトパートナーズ税理士法人,,その他の設立登記法人,東京都,千代田区,内神田３丁目１０番５号満留賀ビル４階,,13,101,1010047,,,2023-12-01,清算の結了等,,,2021-11-09,1,,,,,アキュレイトパートナーズ,0
860,4010801025199,登記記録の閉鎖等,0,2023-12-05,2023-11-30,株式会社オルビスタ,,株式会社,東京都,大田区,南馬込２丁目２７番１２号,,13,111,1430025,,,2023-11-30,清算の結了等,,,2015-10-05,1,,,,,オルビスタ,0
862,4010802004557,登記記録の閉鎖等,0,2023-12-05,2023-11-30,有限会社グリーン興産,,有限会社,東京都,大田区,東蒲田２丁目６番７号,,13,111,1440031,,,2023-11-30,清算の結了等,,,2015-10-05,1,,,,,グリーンコウサン,0
869,4010901039586,登記記録の閉鎖等,0,2023-12-05,2023-11-28,株式会社ハッピービューティクリエイト,,株式会社,東京都,世田谷区,上野毛４丁目３１番１２号,,13,112,1580093,,,2023-11-28,清算の結了等,,,2017-02-16,1,,,,,ハッピービューティクリエイト,0
883,4011101011815,登記記録の閉鎖等,0,2023-12-05,2023-12-01,株式会社宮庭建物,,株式会社,東京都,新宿区,新宿７丁目１２番９号宮庭東新宿ビル１０１号室,,13,104,1600022,,,2023-12-01,合併による解散等,5011101043948,令和５年１２月１日東京都新宿区新宿七丁目１２番９号宮庭東新宿ビル１０１号室株式会社宮庭ビル管理（5011101043948）に合併し解散,2015-10-05,1,,,,,キュウテイタテモノ,0
906,4012301000558,登記記録の閉鎖等,0,2023-12-05,2023-12-04,株式会社加藤建築構造設計事務所,,株式会社,東京都,町田市,原町田５丁目７番８号,,13,209,1940013,,,2023-12-04,清算の結了等,,,2015-10-05,1,,,,,カトウケンチクコウゾウセッケイジムショ,0
918,4020002064979,登記記録の閉鎖等,0,2023-12-05,2023-11-30,有限会社流通ビジネスコンサルティング,,有限会社,神奈川県,横浜市中区,北仲通３丁目３３番地関内フューチャーセンター内,,14,104,2310003,,,2023-11-30,清算の結了等,,,2015-10-05,1,,,,,リュウツウビジネスコンサルティング,0
928,4030003017919,登記記録の閉鎖等,0,2023-12-05,2023-11-30,Ａｍｕｓｅ　Ｐａｒｔｎｅｒ合同会社,,合同会社,埼玉県,さいたま市北区,日進町２丁目１５２４番地９,,11,102,3310823,,,2023-11-30,清算の結了等,,,2021-09-08,1,,,,,アミューゼパートナー,0
950,4080001015143,登記記録の閉鎖等,0,2023-12-05,2023-11-16,富士水産株式会社,,株式会社,静岡県,焼津市,中港２丁目２番１０号,,22,212,4250021,,,2023-11-16,清算の結了等,,,2015-10-05,1,,,,,フジスイサン,0
960,4110001019776,登記記録の閉鎖等,0,2023-12-05,2023-12-01,株式会社上建生コン,,株式会社,新潟県,上越市,大字福橋字東割１３５６番３,,15,222,9420033,,,2023-12-01,清算の結了等,,,2015-10-05,1,,,,,ジョウケンナマコン,0
964,4110002024445,登記記録の閉鎖等,0,2023-12-05,2023-11-30,有限会社Ｇ．Ｆ．Ｃｏｒｐ,,有限会社,新潟県,上越市,寺町２丁目１番１１号,,15,222,9430892,,,2023-11-30,清算の結了等,,,2015-10-05,1,,,,,ジーエフコーポ,0
996,4120905005160,登記記録の閉鎖等,0,2023-12-05,2023-11-30,一般社団法人Ｓｏｃｉａｌ　Ｃａｓｔ　Ｐｒｏｄｕｃｔｏｒｓ,,その他の設立登記法人,大阪府,吹田市,岸部北３丁目１２－２－３０６,,27,205,5640001,,,2023-11-30,清算の結了等,,,2015-10-05,1,,,,,ソーシャルキャストプロダクターズ,0
1014,4140001033774,登記記録の閉鎖等,0,2023-12-05,2023-11-27,株式会社ＳＭＡＬＬ　ＳＴＯＮＥ,,株式会社,兵庫県,尼崎市,武庫之荘東２丁目２４－１,,28,202,6610032,,,2023-11-27,清算の結了等,,,2015-10-05,1,,,,,スモールストーン,0
1030,4180001118893,登記記録の閉鎖等,0,2023-12-05,2023-12-01,マーベラスリンク株式会社,,株式会社,愛知県,海部郡大治町,大字北間島字宮西５番地Ｌｅｃｏｎｆｏｒｔ２０５号,,23,424,4901132,,,2023-12-01,清算の結了等,,,2015-10-05,1,,,,,マーベラスリンク,0
1039,4190001024868,登記記録の閉鎖等,0,2023-12-05,2023-12-01,新生テック株式会社,,株式会社,三重県,津市,一色町２９６番地,,24,201,5140057,,,2023-12-01,清算の結了等,,,2017-08-03,1,,,,,シンセイテック,0
1041,4200002021094,登記記録の閉鎖等,0,2023-12-05,2023-12-04,有限会社河村上絵付工場,,有限会社,岐阜県,土岐市,泉町大富９６５番地の１９,,21,212,5095132,,,2023-12-04,清算の結了等,,,2015-10-05,1,,,,,,0
1042,4200002027455,登記記録の閉鎖等,0,2023-12-05,2023-12-01,有限会社今井土工,,有限会社,岐阜県,下呂市,萩原町大ヶ洞１３６番地,,21,220,5092512,,,2023-12-01,清算の結了等,,,2015-10-05,1,,,,,イマイドコウ,0
1051,4260002013730,登記記録の閉鎖等,0,2023-12-05,2023-12-01,ジェックスケアサービス株式会社,,株式会社,岡山県,岡山市北区,富田２７３－９,,33,101,7000936,,,2023-12-01,合併による解散等,6260001022573,令和５年１２月１日岡山県倉敷市西富井６５４番地６株式会社オージェックス（6260001022573）に合併し解散,2015-10-05,1,,,,,ジェックスケアサービス,0
1056,4290002049276,登記記録の閉鎖等,0,2023-12-05,2023-11-28,有限会社末安酒店,,有限会社,福岡県,久留米市,諏訪野町１７９２番地の３,,40,203,8300037,,,2023-11-28,清算の結了等,,,2015-10-05,1,,,,,,0
1062,4310002011324,登記記録の閉鎖等,0,2023-12-05,2023-11-29,有限会社平石金物店,,有限会社,長崎県,佐世保市,俵町１３番２２号,,42,202,8570016,,,2023-11-29,清算の結了等,,,2015-10-05,1,,,,,ヒライシカナモノテン,0
1063,4320001016810,登記記録の閉鎖等,0,2023-12-05,2023-12-04,株式会社ウルーズハウス,,株式会社,大分県,大分市,大字三芳２０６０番地の７,,44,201,8700030,,,2023-12-04,清算の結了等,,,2019-01-15,1,,,,,ウルーズハウス,0
1064,4320002008864,登記記録の閉鎖等,0,2023-12-05,2023-12-04,有限会社恭倫会,,有限会社,大分県,大分市,大道町３丁目３番６３号,,44,201,8700822,,,2023-12-04,清算の結了等,,,2015-10-05,1,,,,,,0
1074,4390001000691,登記記録の閉鎖等,0,2023-12-05,2023-11-10,蔵王温泉ガス株式会社,,株式会社,山形県,山形市,蔵王温泉字堰神６８１番地１,,06,201,9902301,,,2023-11-10,清算の結了等,,,2015-10-05,1,,,,,ザオウオンセンガス,0
1094,4480001006028,登記記録の閉鎖等,0,2023-12-05,2023-12-04,株式会社南プランニング,,株式会社,徳島県,板野郡松茂町,広島字三番越１０番地,,36,401,7710220,,,2023-12-04,清算の結了等,,,2015-10-05,1,,,,,ミナミプランニング,0
1100,5010001032499,登記記録の閉鎖等,0,2023-12-05,2023-11-30,ロベルタディカメリーノファーイースト株式会社,,株式会社,東京都,中央区,銀座３丁目１０番９号,,13,102,1040061,,,2023-11-30,清算の結了等,,,2015-10-05,1,,,,,ロベルタディカメリーノファーイースト,0
1102,5010001169507,登記記録の閉鎖等,0,2023-12-05,2023-11-30,アストロナット株式会社,,株式会社,東京都,千代田区,丸の内２丁目３－２郵船ビルディング１階,,13,101,1000005,,,2023-11-30,清算の結了等,,,2015-10-05,1,,,,,アストロナット,0
1109,5010002045970,登記記録の閉鎖等,0,2023-12-05,2023-11-30,有限会社ＧＱ,,有限会社,東京都,文京区,春日２丁目１０番１６号,,13,105,1120003,,,2023-11-30,清算の結了等,,,2015-10-05,1,,,,,ジーキュー,0
1122,5010501018709,登記記録の閉鎖等,0,2023-12-05,2023-11-30,ティエージー・アミ株式会社,,株式会社,東京都,台東区,東上野４丁目２６番８号福田ビル,,13,106,1100015,,,2023-11-30,清算の結了等,,,2015-10-05,1,,,,,,0
1127,5010705001650,登記記録の閉鎖等,0,2023-12-05,2023-11-28,一般財団法人国際アイティー財団,,その他の設立登記法人,東京都,千代田区,平河町２丁目１３番１２号,,13,101,1020093,,,2023-11-28,清算の結了等,,,2015-10-05,1,,,,,コクサイアイティーザイダン,0
1129,5010802020306,登記記録の閉鎖等,0,2023-12-05,2023-11-30,有限会社精晃プラスチック,,有限会社,東京都,大田区,西六郷１丁目２９番１号１Ｆ,,13,111,1440056,,,2023-11-30,清算の結了等,,,2015-10-05,1,,,,,,0
1135,5011001121317,登記記録の閉鎖等,0,2023-12-05,2023-12-01,株式会社お江戸ビューティー,,株式会社,東京都,渋谷区,恵比寿３丁目３６－３,,13,113,1500013,,,2023-12-01,清算の結了等,,,2018-03-26,1,,,,,オエドビューティー,0
1143,5011002010972,登記記録の閉鎖等,0,2023-12-05,2023-11-30,有限会社平澤酒店,,有限会社,東京都,渋谷区,千駄ヶ谷３丁目２３番１０号,,13,113,1510051,,,2023-11-30,清算の結了等,,,2015-10-05,1,,,,,ヒラサワサケテン,0
1159,5011602011230,登記記録の閉鎖等,0,2023-12-05,2023-11-29,有限会社ワイコーシン,,有限会社,東京都,練馬区,下石神井２丁目２６番９号,,13,120,1770042,,,2023-11-29,清算の結了等,,,2015-10-05,1,,,,,ワイコーシン,0
1182,5021001021185,登記記録の閉鎖等,0,2023-12-05,2023-12-01,株式会社タナカモータース,,株式会社,神奈川県,伊勢原市,西富岡８５５番地,,14,214,2591111,,,2023-12-01,清算の結了等,,,2015-10-05,1,,,,,タナカモータース,0
1192,5030001089661,登記記録の閉鎖等,0,2023-12-05,2023-11-28,株式会社エービーモデル川越工場,,株式会社,埼玉県,日高市,大字田波目４６８番地８,,11,242,3501201,,,2023-11-28,清算の結了等,,,2015-10-05,1,,,,,エービーモデルカワゴエコウジョウ,0
1196,5030002010015,登記記録の閉鎖等,0,2023-12-05,2023-11-30,有限会社南條,,有限会社,埼玉県,さいたま市南区,南浦和２丁目１４番８号,,11,108,3360017,,,2023-11-30,清算の結了等,,,2015-10-05,1,,,,,ナンジョウ,0
1223,5070002011918,登記記録の閉鎖等,0,2023-12-05,2023-11-30,有限会社ベル・エキップ,,有限会社,群馬県,高崎市,剣崎町１１８６番地１２,,10,202,3700883,,,2023-11-30,清算の結了等,,,2015-10-05,1,,,,,ベルエキップ,0
1225,5080102019281,登記記録の閉鎖等,0,2023-12-05,2023-12-01,有限会社相京フーズ,,有限会社,静岡県,伊東市,竹の内１丁目３番１２号ベルプラス伊東５０５,,22,208,4140027,,,2023-12-01,清算の結了等,,,2015-10-05,1,,,,,アイキョウフーズ,0
1260,5140002012116,登記記録の閉鎖等,0,2023-12-05,2023-11-28,有限会社平成産業,,有限会社,兵庫県,神戸市兵庫区,切戸町１番２３号,,28,105,6520847,,,2023-11-28,清算の結了等,,,2015-10-05,1,,,,,,0
1276,5180001116665,登記記録の閉鎖等,0,2023-12-05,2023-11-30,株式会社久松事務所,,株式会社,愛知県,名古屋市中区,金山２丁目１０番２号,,23,106,4600022,,,2023-11-30,清算の結了等,,,2015-10-05,1,,,,,ヒサマツジムショ,0
1287,5180002082898,登記記録の閉鎖等,0,2023-12-05,2023-12-04,有限会社アイエンス,,有限会社,愛知県,江南市,小郷町粟田木１６３番地,,23,217,4838135,,,2023-12-04,清算の結了等,,,2015-10-05,1,,,,,アイエンス,0
1290,5190005004576,登記記録の閉鎖等,0,2023-12-05,2023-12-01,津西部木材流通協同組合,,その他の設立登記法人,三重県,津市,美杉町八知５４１２番地,,24,201,5153421,,,2023-12-01,清算の結了等,,,2015-10-05,1,,,,,ツセイブモクザイリュウツウ,0
1295,5200002018718,登記記録の閉鎖等,0,2023-12-05,2023-11-30,有限会社沢村印刷,,有限会社,岐阜県,関市,倉知３２２４番地２,,21,205,5013936,,,2023-11-30,清算の結了等,,,2015-10-05,1,,,,,サワムラインサツ,0
1297,5220001020598,登記記録の閉鎖等,0,2023-12-05,2023-12-01,ドリームファロス株式会社,,株式会社,石川県,金沢市,光が丘１丁目１６２番地２,,17,201,9218142,,,2023-12-01,清算の結了等,,,2015-10-05,1,,,,,ドリームファロス,0
1303,5250001005282,登記記録の閉鎖等,0,2023-12-05,2023-12-04,株式会社勧財コーポレーション,,株式会社,山口県,下関市,王司上町１丁目１番３２号,,35,201,7520916,,,2023-12-04,清算の結了等,,,2015-10-05,1,,,,,カンザイコーポレーション,0
1325,5320001017320,登記記録の閉鎖等,0,2023-12-05,2023-12-04,サンエスファーム株式会社,,株式会社,大分県,宇佐市,大字長洲３１９４番地の１,,44,211,8720001,,,2023-12-04,清算の結了等,,,2019-10-03,1,,,,,サンエスファーム,0
1355,5430005011003,登記記録の閉鎖等,0,2023-12-05,2023-11-30,特定非営利活動法人北海道地域政策調査会,,その他の設立登記法人,北海道,北広島市,北進町１丁目５番地１ロイヤルシャトー北広島Ｎ－８０７,,01,234,0611132,,,2023-11-30,清算の結了等,,,2015-10-05,1,,,,,ホッカイドウチイキセイサクチョウサカイ,0
1366,5500002011535,登記記録の閉鎖等,0,2023-12-05,2023-12-01,有限会社いの水道設備,,有限会社,愛媛県,大洲市,田口甲１０４６番地２,,38,207,7950063,,,2023-12-01,清算の結了等,,,2015-10-05,1,,,,,イノスイドウセツビ,0
1378,6010002003119,登記記録の閉鎖等,0,2023-12-05,2023-12-01,有限会社昭美堂印刷所,,有限会社,東京都,板橋区,坂下２丁目１番１－５０８号,,13,119,1740043,,,2023-12-01,清算の結了等,,,2015-10-05,1,,,,,,0
1380,6010002045805,登記記録の閉鎖等,0,2023-12-05,2023-12-01,有限会社マサキジャパン,,有限会社,東京都,千代田区,一番町２２番地２,,13,101,1020082,,,2023-12-01,合併による解散等,3010001069634,令和５年１２月１日東京都千代田区一番町２２番地２株式会社ニックス（3010001069634）に合併し解散,2015-10-05,1,,,,,マサキジャパン,0
1385,6010005030688,登記記録の閉鎖等,0,2023-12-05,2023-12-01,Ｏｒａｎｇｅ　Ｍａｐ３一般社団法人,,その他の設立登記法人,東京都,千代田区,丸の内３丁目１番１号東京共同会計事務所内,,13,101,1000005,,,2023-12-01,清算の結了等,,,2019-09-02,1,,,,,オレンジマップスリー,0
1386,6010005030762,登記記録の閉鎖等,0,2023-12-05,2023-12-04,一般社団法人エステック長崎時津,,その他の設立登記法人,東京都,中央区,京橋２丁目７番１９号,,13,102,1040031,,,2023-12-04,清算の結了等,,,2019-09-12,1,,,,,エステックナガサキトギツ,0
1393,6010401124119,登記記録の閉鎖等,0,2023-12-05,2023-11-30,株式会社ケーユー,,株式会社,神奈川県,横浜市港北区,錦が丘８番２１号,,14,109,2220013,,,2023-11-30,清算の結了等,,,2016-04-12,1,,,,,ケーユー,0
1397,6010501032080,登記記録の閉鎖等,0,2023-12-05,2023-11-30,株式会社幸樹,,株式会社,東京都,台東区,元浅草２丁目７番１７号,,13,106,1110041,,,2023-11-30,清算の結了等,,,2015-10-05,1,,,,,コウジュ,0
1407,6010801034058,登記記録の閉鎖等,0,2023-12-05,2023-11-20,東洋セフコン株式会社,,株式会社,東京都,大田区,新蒲田２丁目２３番１８号,,13,111,1440054,,,2023-11-20,清算の結了等,,,2023-06-21,1,,,,,トウヨウセフコン,0
1432,6011402017798,登記記録の閉鎖等,0,2023-12-05,2023-11-28,有限会社ドリーム・ワークス,,有限会社,東京都,豊島区,高松３丁目２番１７－３０５号,,13,116,1710042,,,2023-11-28,清算の結了等,,,2015-10-05,1,,,,,ドリームワークス,0
1437,6011601003310,登記記録の閉鎖等,0,2023-12-05,2023-11-29,ジャコビー・エム・アイ株式会社,,株式会社,東京都,練馬区,大泉学園町５丁目２１番２１号,,13,120,1780061,,,2023-11-29,清算の結了等,,,2015-10-05,1,,,,,ジャコビーエムアイ,0
1454,6020002035490,登記記録の閉鎖等,0,2023-12-05,2023-11-30,有限会社平野板金加工所,,有限会社,神奈川県,横浜市港北区,新吉田東８丁目４６番３－１０４号,,14,109,2230058,,,2023-11-30,清算の結了等,,,2015-10-05,1,,,,,ヒラノバンキンカコウジョ,0
1485,6040002032461,登記記録の閉鎖等,0,2023-12-05,2023-11-29,有限会社イシイモータース,,有限会社,千葉県,市川市,田尻２丁目５番１５号,,12,203,2720014,,,2023-11-29,清算の結了等,,,2015-10-05,1,,,,,イシイモータース,0
1492,6050002003593,登記記録の閉鎖等,0,2023-12-05,2023-11-27,有限会社レストラン三笠,,有限会社,茨城県,水戸市,河和田１丁目１６５３番地１９,,08,201,3114152,,,2023-11-27,清算の結了等,,,2015-10-05,1,,,,,レストランミカサ,0
1505,6080102008993,登記記録の閉鎖等,0,2023-12-05,2023-12-01,有限会社岩城自動車工業,,有限会社,静岡県,伊豆の国市,奈古谷９５４番地,,22,225,4102132,,,2023-12-01,清算の結了等,,,2015-10-05,1,,,,,イワキジドウシャコウギョウ,0
1506,6080103000859,登記記録の閉鎖等,0,2023-12-05,2023-11-30,合資会社小宮商店,,合資会社,静岡県,熱海市,銀座町７番７号,,22,205,4130013,,,2023-11-30,清算の結了等,,,2015-10-05,1,,,,,コミヤショウテン,0
1509,6110001008819,登記記録の閉鎖等,0,2023-12-05,2023-12-01,株式会社ナゴヤサポートエンジニア,,株式会社,新潟県,新潟市中央区,紫竹山４丁目２番７号,,15,103,9500914,,,2023-12-01,清算の結了等,,,2015-10-05,1,,,,,ナゴヤサポートエンジニア,0
1511,6110002034194,登記記録の閉鎖等,0,2023-12-05,2023-11-30,有限会社仲丸工業,,有限会社,新潟県,魚沼市,吉田６５番地,,15,225,9460075,,,2023-11-30,清算の結了等,,,2015-10-05,1,,,,,ナカマルコウギョウ,0
1524,6120002005005,登記記録の閉鎖等,0,2023-12-05,2023-12-01,淀川酒販有限会社,,有限会社,大阪府,大阪市都島区,片町２丁目９番３７号,,27,102,5340025,,,2023-12-01,清算の結了等,,,2015-10-05,1,,,,,ヨドガワシュハン,0
1528,6120901008470,登記記録の閉鎖等,0,2023-12-05,2023-11-30,丸市運送株式会社,,株式会社,大阪府,吹田市,西の庄町３番２号,,27,205,5640071,,,2023-11-30,清算の結了等,,,2015-10-05,1,,,,,マルイチウンソウ,0
1531,6120902010500,登記記録の閉鎖等,0,2023-12-05,2023-12-01,有限会社スペースオペレート,,有限会社,大阪府,高槻市,北園町１５番１４号,,27,207,5690802,,,2023-12-01,清算の結了等,,,2015-10-05,1,,,,,スペースオペレート,0
1537,6140001039431,登記記録の閉鎖等,0,2023-12-05,2023-11-30,和泉建設株式会社,,株式会社,兵庫県,揖保郡太子町,松ケ下１１９番地の６,,28,464,6711574,,,2023-11-30,清算の結了等,,,2015-10-05,1,,,,,,0
1540,6140001129372,登記記録の閉鎖等,0,2023-12-05,2023-11-30,株式会社Ｅｘｔａｓｙ,,株式会社,兵庫県,神戸市垂水区,学が丘１丁目１７－３３,,28,108,6550004,,,2023-11-30,清算の結了等,,,2023-03-06,1,,,,,エクスタジー,0
1543,6140003015827,登記記録の閉鎖等,0,2023-12-05,2023-11-29,天子合同会社,,合同会社,兵庫県,神戸市東灘区,住吉台１６番２号,,28,101,6580062,,,2023-11-29,清算の結了等,,,2021-01-18,1,,,,,テンシ,0
1547,6150001006521,登記記録の閉鎖等,0,2023-12-05,2023-12-04,株式会社上志屋呉服店,,株式会社,奈良県,天理市,三島町３９１番地,,29,204,6320015,,,2023-12-04,清算の結了等,,,2015-10-05,1,,,,,ジョウシヤゴフクテン,0
1556,6180001113331,登記記録の閉鎖等,0,2023-12-05,2023-11-30,ワイアンドティートレーディング株式会社,,株式会社,愛知県,名古屋市中川区,明徳町１丁目１０２番地の１,,23,110,4540857,,,2023-11-30,清算の結了等,,,2015-10-05,1,,,,,ワイアンドティートレーディング,0
1557,6180001122729,登記記録の閉鎖等,0,2023-12-05,2023-12-01,株式会社花の木でざいん,,株式会社,愛知県,名古屋市中区,丸の内３丁目１５番１５号,,23,106,4600002,,,2023-12-01,清算の結了等,,,2016-04-11,1,,,,,ハナノキデザイン,0
1560,6180003020410,登記記録の閉鎖等,0,2023-12-05,2023-11-21,合同会社ＡＱＵＡ,,合同会社,愛知県,丹羽郡扶桑町,大字高雄字北東川２３８番地,,23,362,4800102,,,2023-11-21,清算の結了等,,,2019-10-08,1,,,,,アクア,0
1569,6180302017033,登記記録の閉鎖等,0,2023-12-05,2023-11-27,有限会社ニホンキ工業,,有限会社,愛知県,安城市,二本木新町１丁目６番地１０,,23,212,4460075,,,2023-11-27,清算の結了等,,,2015-10-05,1,,,,,ニホンキコウギョウ,0
1570,6180303001894,登記記録の閉鎖等,0,2023-12-05,2023-11-30,合同会社加久小本店,,合同会社,愛知県,蒲郡市,元町１７番４号,,23,214,4430043,,,2023-11-30,清算の結了等,,,2015-10-05,1,,,,,カクコホンテン,0
1572,6200001004032,登記記録の閉鎖等,0,2023-12-05,2023-12-04,日研工業株式会社,,株式会社,岐阜県,岐阜市,又丸柳町２３番地の１,,21,201,5011154,,,2023-12-04,清算の結了等,,,2015-10-05,1,,,,,ニッケンコウギョウ,0
1573,6200001013099,登記記録の閉鎖等,0,2023-12-05,2023-12-04,株式会社ｆｕｎｅｒａｌ,,株式会社,岐阜県,岐阜市,金園町１丁目３番地３クリスタルビル８Ｂ,,21,201,5008113,,,2023-12-04,清算の結了等,,,2015-10-05,1,,,,,フューネラル,0
1577,6220002006216,登記記録の閉鎖等,0,2023-12-05,2023-12-01,有限会社ヨシダ製作所,,有限会社,石川県,金沢市,打木町東３０２番地１,,17,201,9200377,,,2023-12-01,清算の結了等,,,2015-10-05,1,,,,,ヨシダセイサクショ,0
1612,6320001009564,登記記録の閉鎖等,0,2023-12-05,2023-12-04,株式会社九州高原牧場,,株式会社,大分県,竹田市,久住町大字栢木３８１１番地の３９,,44,208,8780204,,,2023-12-04,清算の結了等,,,2015-10-05,1,,,,,キュウシュウコウゲンボクジョウ,0
1628,6380001033419,登記記録の閉鎖等,0,2023-12-05,2023-11-30,福島環境機材株式会社,,株式会社,福島県,福島市,新町６番３３号,,07,201,9608036,,,2023-11-30,清算の結了等,,,2023-01-26,1,,,,,フクシマカンキョウキザイ,0
1654,7010001132363,登記記録の閉鎖等,0,2023-12-05,2023-11-30,ＢＫ　Ｍｅｄｉｃａｌ　Ｊａｐａｎ株式会社,,株式会社,東京都,港区,麻布台３丁目４番２３号３ＦＪＭＣ株式会社内,,13,103,1060041,,,2023-11-30,清算の結了等,,,2015-10-05,1,,,,,ビーケーメディカルジャパン,0
1678,7010602011164,登記記録の閉鎖等,0,2023-12-05,2023-11-30,有限会社小高産業,00051668,有限会社,東京都,墨田区,太平４丁目１２番５号,,13,107,1300012,,,2023-11-30,清算の結了等,,,2015-10-05,1,,,,,,0
1679,7010602012328,登記記録の閉鎖等,0,2023-12-05,2023-11-27,有限会社太平紙業,,有限会社,東京都,墨田区,太平４丁目７番２号,,13,107,1300012,,,2023-11-27,清算の結了等,,,2015-10-05,1,,,,,,0
1684,7010802004488,登記記録の閉鎖等,0,2023-12-05,2023-11-30,有限会社國井興業,,有限会社,東京都,大田区,西馬込１丁目２１番９号,,13,111,1430026,,,2023-11-30,清算の結了等,,,2015-10-05,1,,,,,,0
1710,7011102030150,登記記録の閉鎖等,0,2023-12-05,2023-12-01,有限会社ネオ・リフォーム,,有限会社,東京都,新宿区,西新宿６丁目１２番１号,,13,104,1600023,,,2023-12-01,合併による解散等,8010401140353,令和５年５月２５日東京都品川区東五反田一丁目２３番１号株式会社最高のホテル（8010401140353）に合併し解散,2015-10-05,1,,,,,ネオリフォーム,0
1711,7011103005804,登記記録の閉鎖等,0,2023-12-05,2023-11-30,ブルーレンディングＧＰ合同会社,,合同会社,東京都,新宿区,四谷２丁目９番地１５あると綜合事務所内,,13,104,1600004,,,2023-11-30,清算の結了等,,,2015-10-05,1,,,,,ブルーレンディングジーピー,0
1726,7013301045078,登記記録の閉鎖等,0,2023-12-05,2023-11-28,株式会社角花,,株式会社,東京都,豊島区,南長崎４丁目２番１号,,13,116,1710052,,,2023-11-28,清算の結了等,,,2020-01-20,1,,,,,スミカ,0
1735,7021001074867,登記記録の閉鎖等,0,2023-12-05,2023-12-01,サクサプロアシスト株式会社,,株式会社,神奈川県,相模原市中央区,宮下３丁目１４番１５号,,14,152,2520212,,,2023-12-01,合併による解散等,4010401060019,令和５年１１月１日東京都港区白金一丁目１７番３号ＮＢＦプラチナタワーサクサ株式会社（4010401060019）に合併し解散,2022-01-12,1,,,,,サクサプロアシスト,0
1744,7030005019852,登記記録の閉鎖等,0,2023-12-05,2023-11-30,一般社団法人やしま共生会,,その他の設立登記法人,埼玉県,さいたま市南区,白幡１丁目１１－１第２八洲ビル２階,,11,108,3360022,,,2023-11-30,清算の結了等,,,2020-03-25,1,,,,,ヤシマキョウセイカイ,0
1749,7040002056963,登記記録の閉鎖等,0,2023-12-05,2023-11-29,有限会社板倉一級建築士事務所,,有限会社,千葉県,印西市,大森２５２８番地１,,12,231,2701327,,,2023-11-29,清算の結了等,,,2015-10-05,1,,,,,イタクライッキュウケンチクシジムショ,0
1759,7070001011396,登記記録の閉鎖等,0,2023-12-05,2023-11-29,株式会社コーエイ,,株式会社,群馬県,高崎市,双葉町２５番６１号,,10,202,3700843,,,2023-11-29,清算の結了等,,,2015-10-05,1,,,,,,0
1765,7070002011692,登記記録の閉鎖等,0,2023-12-05,2023-11-30,有限会社日高電装,,有限会社,群馬県,高崎市,日高町１６４番地４,,10,202,3700002,,,2023-11-30,清算の結了等,,,2015-10-05,1,,,,,ヒダカデンソウ,0
1777,7110002008809,登記記録の閉鎖等,0,2023-12-05,2023-11-30,有限会社イー・エス・アイ,,有限会社,新潟県,新潟市東区,船江町２丁目６番１５号,,15,102,9500031,,,2023-11-30,清算の結了等,,,2015-10-05,1,,,,,イーエスアイ,0
1792,7120902013898,登記記録の閉鎖等,0,2023-12-05,2023-12-04,有限会社ジイ・システムズ,,有限会社,大阪府,吹田市,樫切山２１番Ｄ－８０７号,,27,205,5650806,,,2023-12-04,清算の結了等,,,2015-10-05,1,,,,,ジイシステムズ,0
1800,7140001008625,登記記録の閉鎖等,0,2023-12-05,2023-11-29,株式会社スーパーヒロタ,,株式会社,兵庫県,神戸市中央区,下山手通８丁目９番３０号,,28,110,6500011,,,2023-11-29,清算の結了等,,,2015-10-05,1,,,,,スーパーヒロタ,0
1813,7170001002328,登記記録の閉鎖等,0,2023-12-05,2023-12-04,株式会社内藤ビルディング,,株式会社,和歌山県,和歌山市,新雑賀町２５番地,,30,201,6408101,,,2023-12-04,清算の結了等,,,2015-10-05,1,,,,,ナイトウビルディング,0
1826,7180002063327,登記記録の閉鎖等,0,2023-12-05,2023-12-04,空間工房ジッタ有限会社,,有限会社,愛知県,瀬戸市,幡野町８１番地の１２４,,23,204,4890874,,,2023-12-04,清算の結了等,,,2015-10-05,1,,,,,クウカンコウボウジッタ,0
1831,7180302011415,登記記録の閉鎖等,0,2023-12-05,2023-11-29,有限会社エバーグリーン,,有限会社,愛知県,豊橋市,飯村北１丁目６番地の１,,23,201,4400834,,,2023-11-29,清算の結了等,,,2015-10-05,1,,,,,エバーグリーン,0
1833,7190002013355,登記記録の閉鎖等,0,2023-12-05,2023-11-30,有限会社福本商店,,有限会社,三重県,名張市,東町１７７３番地,,24,208,5180711,,,2023-11-30,清算の結了等,,,2015-10-05,1,,,,,フクモトショウテン,0
1836,7200003004137,登記記録の閉鎖等,0,2023-12-05,2023-11-16,合同会社ＩＮＩＴ,,合同会社,岐阜県,可児市,川合３４９－１マウンティンわたなべ５１５,,21,214,5090201,,,2023-11-16,合併による解散等,5200001040326,令和５年１０月１日岐阜県可児市川合７７２番地３株式会社ＩＮＩＴ（5200001040326）に合併し解散,2018-03-09,1,,,,,イニット,0
1843,7240001053124,登記記録の閉鎖等,0,2023-12-05,2023-11-30,株式会社べじたぶる四季,,株式会社,広島県,世羅郡世羅町,大字宇津戸４９０番地,,34,462,7220411,,,2023-11-30,清算の結了等,,,2018-07-26,1,,,,,ベジタブルシキ,0
1851,7250001013424,登記記録の閉鎖等,0,2023-12-05,2023-11-24,防府土地建物株式会社,,株式会社,山口県,防府市,戎町１丁目７番７号,,35,206,7470036,,,2023-11-24,清算の結了等,,,2016-01-12,1,,,,,ホウフトチタテモノ,0
1857,7290001081054,登記記録の閉鎖等,0,2023-12-05,2023-11-28,株式会社河津工業,,株式会社,福岡県,春日市,宝町２丁目３３番地,,40,218,8160807,,,2023-11-28,清算の結了等,,,2018-04-10,1,,,,,カワヅコウギョウ,0
1863,7290802006011,登記記録の閉鎖等,0,2023-12-05,2023-12-01,有限会社マル樹,,有限会社,福岡県,北九州市小倉南区,守恒１丁目１１番１６－１００４号,,40,107,8020972,,,2023-12-01,清算の結了等,,,2015-10-05,1,,,,,マルキ,0
1921,8010002032660,登記記録の閉鎖等,0,2023-12-05,2023-11-30,有限会社スタジオフォーカス,,有限会社,東京都,文京区,本郷４丁目８番３－６０５号,,13,105,1130033,,,2023-11-30,清算の結了等,,,2015-10-05,1,,,,,スタジオフォーカス,0
1928,8010101001509,登記記録の閉鎖等,0,2023-12-05,2023-11-29,株式会社サムソン東京西メンテナンス,,株式会社,東京都,八王子市,大谷町３９３番地,,13,201,1920034,,,2023-11-29,清算の結了等,,,2015-10-05,1,,,,,サムソントウキョウニシメンテナンス,0
1931,8010401061450,登記記録の閉鎖等,0,2023-12-05,2023-11-30,メモリー・マネジメント株式会社,,株式会社,東京都,港区,港南４丁目６番６－６０１号,,13,103,1080075,,,2023-11-30,清算の結了等,,,2015-10-05,1,,,,,メモリーマネジメント,0
1957,8010902018189,登記記録の閉鎖等,0,2023-12-05,2023-11-29,有限会社輝葉エンジニアリング,,有限会社,東京都,世田谷区,砧５丁目１７番１０号,,13,112,1570073,,,2023-11-29,清算の結了等,,,2015-10-05,1,,,,,キヨウエンジニアリング,0
1966,8011101059207,登記記録の閉鎖等,0,2023-12-05,2023-11-30,株式会社トライポッド,,株式会社,東京都,新宿区,天神町２２番地３,,13,104,1620808,,,2023-11-30,清算の結了等,,,2015-10-05,1,,,,,トライポッド,0
1979,8011201021792,登記記録の閉鎖等,0,2023-12-05,2023-11-30,株式会社ａｍａｇｉ,,株式会社,東京都,中野区,東中野１丁目１番２号プライマリービル４階,,13,114,1640003,,,2023-11-30,清算の結了等,,,2019-11-22,1,,,,,アマギ,0
1983,8011302004432,登記記録の閉鎖等,0,2023-12-05,2023-11-27,有限会社ジェメオス,,有限会社,東京都,杉並区,阿佐谷北２丁目９番２３号,,13,115,1660001,,,2023-11-27,清算の結了等,,,2015-10-05,1,,,,,ジェメオス,0
1988,8011505000071,登記記録の閉鎖等,0,2023-12-05,2023-11-29,北区個人タクシー協同組合,,その他の設立登記法人,東京都,北区,上中里２丁目１８番１号,,13,117,1140016,,,2023-11-29,清算の結了等,,,2015-10-05,1,,,,,キタクコジンタクシー,0
1995,8012703001530,登記記録の閉鎖等,0,2023-12-05,2023-12-01,合同会社ワイズ商會,,合同会社,東京都,清瀬市,竹丘１丁目１７番２６号７１１号室,,13,221,2040023,,,2023-12-01,清算の結了等,,,2017-10-27,1,,,,,ワイズショウカイ,0
1996,8012803001315,登記記録の閉鎖等,0,2023-12-05,2023-11-30,合同会社エスペランサ,,合同会社,東京都,日野市,平山１丁目１番地の２,,13,212,1910043,,,2023-11-30,清算の結了等,,,2015-10-05,1,,,,,エスペランサ,0
2008,8021001002117,登記記録の閉鎖等,0,2023-12-05,2023-12-01,松浪産業株式会社,,株式会社,神奈川県,藤沢市,辻堂元町４丁目４番１９号,00012203,14,205,2510043,,,2023-12-01,清算の結了等,,,2015-10-05,1,,,,,,0
2011,8021001024920,登記記録の閉鎖等,0,2023-12-05,2023-11-08,株式会社ステージ,,株式会社,神奈川県,大和市,大和南２丁目１番１号,,14,213,2420016,,,2023-11-08,清算の結了等,,,2016-08-02,1,,,,,ステージ,0
2016,8021002028474,登記記録の閉鎖等,0,2023-12-05,2023-12-01,有限会社協同精工,,有限会社,神奈川県,相模原市緑区,橋本台２丁目７番３４号,,14,151,2520132,,,2023-12-01,清算の結了等,,,2015-10-05,1,,,,,キョウドウセイコウ,0
2018,8030001064265,登記記録の閉鎖等,0,2023-12-05,2023-11-30,株式会社ゼネラル商事,,株式会社,埼玉県,越谷市,東大沢１丁目４４番地１,,11,222,3430022,,,2023-11-30,清算の結了等,,,2015-10-05,1,,,,,ゼネラルショウジ,0
2030,8040001091696,登記記録の閉鎖等,0,2023-12-05,2023-10-25,千葉センター不動産株式会社,,株式会社,千葉県,千葉市中央区,富士見１丁目１３番９号,,12,101,2600015,,,2023-10-25,清算の結了等,,,2015-10-05,1,,,,,チバセンターフドウサン,0
2037,8040002037079,登記記録の閉鎖等,0,2023-12-05,2023-11-29,有限会社矢部商会,,有限会社,千葉県,市川市,塩焼５丁目１１番２９号,,12,203,2720114,,,2023-11-29,清算の結了等,,,2015-10-05,1,,,,,ヤベショウカイ,0
2042,8040003019118,登記記録の閉鎖等,0,2023-12-05,2023-11-29,Ｋｉｎｔｅｘ　Ｊａｐａｎ合同会社,,合同会社,東京都,千代田区,神田佐久間町３丁目２８－５Ｆ,,13,101,1010025,,,2023-11-29,清算の結了等,,,2021-12-15,1,,,,,キンテックスジャパン,0
2046,8040005001676,登記記録の閉鎖等,0,2023-12-05,2023-11-29,特定非営利活動法人生活サポートグループぱれっと,,その他の設立登記法人,千葉県,千葉市緑区,あすみが丘７丁目２１番地４,,12,105,2670066,,,2023-11-29,清算の結了等,,,2015-10-05,1,,,,,セイカツサポートグループパレット,0
2050,8070003001766,登記記録の閉鎖等,0,2023-12-05,2023-11-29,合同会社藤の木,,合同会社,群馬県,安中市,下秋間１８５４番地８,,10,211,3790104,,,2023-11-29,清算の結了等,,,2015-10-05,1,,,,,フジノキ,0
2055,8080002004802,登記記録の閉鎖等,0,2023-12-05,2023-11-28,有限会社ＶＡＣ,,有限会社,静岡県,静岡市葵区,伝馬町１８番８号,,22,101,4200858,,,2023-11-28,清算の結了等,,,2015-10-05,1,,,,,ブイエーシー,0
2072,8120001196652,登記記録の閉鎖等,0,2023-12-05,2023-12-01,株式会社Ａｘｉｓ,,株式会社,大阪府,大阪市北区,豊崎３丁目１７番９号豊崎旭ビル２階,,27,127,5310072,,,2023-12-01,合併による解散等,7120001196653,令和５年１２月１日大阪市北区中津一丁目１５番１５号中津第２リッチビル５階北側株式会社スマホスピタル（7120001196653）に合併し解散,2016-03-03,1,,,,,アクシス,0
2097,8120901011142,登記記録の閉鎖等,0,2023-12-05,2023-12-01,株式会社スペース開発,,株式会社,大阪府,高槻市,北園町１５番１４号,,27,207,5690802,,,2023-12-01,清算の結了等,,,2015-10-05,1,,,,,スペースカイハツ,0
2107,8122001005999,登記記録の閉鎖等,0,2023-12-05,2023-11-22,日光ミシン工業株式会社,,株式会社,大阪府,東大阪市,森河内西２丁目２６番２２号,,27,227,5770061,,,2023-11-22,清算の結了等,,,2015-10-05,1,,,,,ニッコウミシンコウギョウ,0
2118,8140002061878,登記記録の閉鎖等,0,2023-12-05,2023-11-30,有限会社徳岡正商店,,有限会社,兵庫県,多可郡多可町,加美区西脇５０５番地,,28,365,6791212,,,2023-11-30,清算の結了等,,,2015-10-05,1,,,,,トクオカマサショウテン,0
2125,8160001018605,登記記録の閉鎖等,0,2023-12-05,2023-12-04,株式会社Ｗｅｌｌ－ｂｅｉｎｇ,,株式会社,滋賀県,大津市,雄琴６丁目２３番１１号,,25,201,5200101,,,2023-12-04,清算の結了等,,,2015-10-05,1,,,,,ウェルビーイング,0
2132,8180001015476,登記記録の閉鎖等,0,2023-12-05,2023-11-27,株式会社星崎精機製作所,,株式会社,愛知県,名古屋市南区,石元町２丁目２番地の２,,23,112,4570075,,,2023-11-27,清算の結了等,,,2015-10-05,1,,,,,ホシザキセイキセイサクショ,0
2134,8180001033032,登記記録の閉鎖等,0,2023-12-05,2023-11-30,株式会社名西工業,,株式会社,愛知県,名古屋市中村区,猪之越町３丁目４番１８号,,23,105,4530038,,,2023-11-30,清算の結了等,,,2015-10-05,1,,,,,メイセイコウギョウ,0
2147,8180301012504,登記記録の閉鎖等,0,2023-12-05,2023-11-30,株式会社ＵＳＣ,,株式会社,愛知県,岡崎市,竜美東１丁目７番地１４,,23,202,4440878,,,2023-11-30,清算の結了等,,,2015-10-05,1,,,,,ユーエスシー,0
2158,8210001014656,登記記録の閉鎖等,0,2023-12-05,2023-11-29,若狭ベイリゾート株式会社,,株式会社,福井県,三方上中郡若狭町,海山第５１号１３番地,,18,501,9191461,,,2023-11-29,清算の結了等,,,2015-10-05,1,,,,,ワカサベイリゾート,0
2165,8250001003696,登記記録の閉鎖等,0,2023-12-05,2023-12-01,山口旅行センター株式会社,,株式会社,山口県,宇部市,東梶返１丁目１０番８号,,35,202,7550039,,,2023-12-01,清算の結了等,,,2015-10-05,1,,,,,ヤマグチリョコウセンター,0
2168,8250002010741,登記記録の閉鎖等,0,2023-12-05,2023-12-01,有限会社藤瀬工業,,有限会社,山口県,下関市,楠乃５丁目９番４３号,,35,201,7510804,,,2023-12-01,清算の結了等,,,2015-10-05,1,,,,,,0
2180,8290001085938,登記記録の閉鎖等,0,2023-12-05,2023-11-30,ＲｉＡ株式会社,,株式会社,兵庫県,神戸市中央区,磯上通８丁目１番２９号カサベラビルＣ＆Ｍ４０３号室,,28,110,6510086,,,2023-11-30,清算の結了等,,,2019-07-19,1,,,,,リア,0
2189,8310002020536,登記記録の閉鎖等,0,2023-12-05,2023-12-01,有限会社野崎電機,00096264,有限会社,長崎県,五島市,中央町４番地３３,,42,211,8530002,,,2023-12-01,清算の結了等,,,2015-10-05,1,,,,,ノザキデンキ,0
2194,8330002001006,登記記録の閉鎖等,0,2023-12-05,2023-11-28,有限会社岩本石油,,有限会社,熊本県,熊本市北区,麻生田１丁目４番１号,,43,105,8618081,,,2023-11-28,清算の結了等,,,2015-10-05,1,,,,,イワモトセキユ,0
2195,8330002026291,登記記録の閉鎖等,0,2023-12-05,2023-11-28,有限会社ヤスダ不動産,,有限会社,熊本県,八代市,高下東町８６１番地,00097915,43,202,8660071,,,2023-11-28,清算の結了等,,,2015-10-05,1,,,,,ヤスダフドウサン,0
2201,8380001004707,登記記録の閉鎖等,0,2023-12-05,2023-12-01,株式会社エム・ジー・ハウス,,株式会社,福島県,郡山市,富田町字大徳南１７－５０,,07,203,9638041,,,2023-12-01,清算の結了等,,,2015-10-05,1,,,,,エムジーハウス,0
2209,8410002010931,登記記録の閉鎖等,0,2023-12-05,2023-11-29,有限会社森田製麺所,00086847,有限会社,秋田県,能代市,二ツ井町字比井野９３番地の５,,05,202,0183155,,,2023-11-29,清算の結了等,,,2015-10-05,1,,,,,モリタセイメンショ,0
2211,8420005005903,登記記録の閉鎖等,0,2023-12-05,2023-11-29,おいらせ商業協同組合,,その他の設立登記法人,青森県,上北郡おいらせ町,中下田１２３番地７,,02,412,0392136,,,2023-11-29,清算の結了等,,,2015-10-05,1,,,,,オイラセショウギョウ,0
2231,9010001058854,登記記録の閉鎖等,0,2023-12-05,2023-11-27,株式会社メディカル・アイ・エフ,,株式会社,東京都,中央区,日本橋久松町１１番２号,,13,102,1030005,,,2023-11-27,清算の結了等,,,2015-10-05,1,,,,,メディカルアイエフ,0
2240,9010002042221,登記記録の閉鎖等,0,2023-12-05,2023-11-30,有限会社スタジオ・コラボ,,有限会社,東京都,文京区,小石川３丁目２６番１８－５０３号,,13,105,1120002,,,2023-11-30,清算の結了等,,,2015-10-05,1,,,,,スタジオコラボ,0
2254,9010401040379,登記記録の閉鎖等,0,2023-12-05,2023-11-30,メモリー販売株式会社,,株式会社,東京都,港区,港南４丁目６番６－６０１号,,13,103,1080075,,,2023-11-30,清算の結了等,,,2015-10-05,1,,,,,メモリーハンバイ,0
2269,9010502019578,登記記録の閉鎖等,0,2023-12-05,2023-11-30,有限会社Ｙ＆Ｙコーポレーション,,有限会社,東京都,台東区,東上野１丁目１８番１０号,,13,106,1100015,,,2023-11-30,清算の結了等,,,2015-10-05,1,,,,,ワイアンドワイコーポレーション,0
2276,9010801000643,登記記録の閉鎖等,0,2023-12-05,2023-10-31,株式会社荒井組,,株式会社,東京都,大田区,西蒲田７丁目３６番７号,,13,111,1440051,,,2023-10-31,清算の結了等,,,2015-10-05,1,,,,,アライグミ,0
2279,9010902000245,登記記録の閉鎖等,0,2023-12-05,2023-11-30,有限会社サンワードエステート,,有限会社,東京都,世田谷区,北沢１丁目４番１０号,,13,112,1550031,,,2023-11-30,清算の結了等,,,2015-10-05,1,,,,,サンワードエステート,0
2282,9010902015350,登記記録の閉鎖等,0,2023-12-05,2023-11-28,有限会社森興産,,有限会社,東京都,世田谷区,桜新町１丁目３６番１８号,,13,112,1540015,,,2023-11-28,清算の結了等,,,2015-10-05,1,,,,,モリコウサン,0
2304,9011105007895,登記記録の閉鎖等,0,2023-12-05,2023-11-30,ブルーレンディングＧＰ一般社団法人,,その他の設立登記法人,東京都,新宿区,四谷２丁目９番地１５あると綜合事務所内,,13,104,1600004,,,2023-11-30,清算の結了等,,,2017-07-20,1,,,,,ブルーレンディングジーピー,0
2310,9011501021624,登記記録の閉鎖等,0,2023-12-05,2023-11-29,株式会社Ｊｏｌｌｙ　Ｊｏｂｓ,,株式会社,東京都,北区,赤羽１丁目１５番１号,,13,117,1150045,,,2023-11-29,清算の結了等,,,2016-05-25,1,,,,,ジョリージョブス,0
2326,9012702009656,登記記録の閉鎖等,0,2023-12-05,2023-12-01,有限会社兼雄,,有限会社,東京都,東久留米市,学園町１丁目８番７４号－６０３,,13,222,2030021,,,2023-12-01,清算の結了等,,,2015-10-05,1,,,,,,0
2342,9020002046725,登記記録の閉鎖等,0,2023-12-05,2023-11-29,小暮設備有限会社,,有限会社,神奈川県,横浜市緑区,中山６丁目２番４８号,,14,113,2260019,,,2023-11-29,清算の結了等,,,2015-10-05,1,,,,,コグレセツビ,0
2352,9030001013196,登記記録の閉鎖等,0,2023-12-05,2023-12-01,株式会社秀コーポレーション,,株式会社,埼玉県,さいたま市浦和区,北浦和４丁目５番８号,,11,107,3300074,,,2023-12-01,清算の結了等,,,2015-10-05,1,,,,,シュウコーポレーション,0
2366,9060001009423,登記記録の閉鎖等,0,2023-12-05,2023-12-04,株式会社ハクホー,,株式会社,栃木県,真岡市,寺内１５８０番地１７,,09,209,3214345,,,2023-12-04,清算の結了等,,,2015-10-05,1,,,,,ハクホー,0
2370,9070001014422,商号の登記の抹消,0,2023-12-05,2023-11-09,株式会社クマガイカンパニー,,株式会社,群馬県,伊勢崎市,下植木町７２７番地,,10,204,3720024,,,,,,,2015-10-05,0,,,,,クマガイカンパニー,0
2376,9070002013398,登記記録の閉鎖等,0,2023-12-05,2023-11-30,有限会社テーワイセイコー,,有限会社,群馬県,高崎市,中里町６６番地６,,10,202,3703532,,,2023-11-30,清算の結了等,,,2015-10-05,1,,,,,テーワイセイコー,0
2379,9080001016277,登記記録の閉鎖等,0,2023-12-05,2023-11-30,イーアンドイープロモーション株式会社,,株式会社,静岡県,静岡市駿河区,用宗４丁目１７番２０号,,22,102,4210122,,,2023-11-30,清算の結了等,,,2015-10-05,1,,,,,イーアンドイープロモーション,0
2382,9080101022340,登記記録の閉鎖等,0,2023-12-05,2023-12-01,株式会社ＬＩＦＩＸ　ＨＯＵＳＩＮＧ,,株式会社,静岡県,熱海市,泉８２番地の１下田アパート１階,,22,205,4130001,,,2023-12-01,清算の結了等,,,2021-02-25,1,,,,,リフィックスハウジング,0
2384,9090001001476,登記記録の閉鎖等,0,2023-12-05,2023-11-22,株式会社ビー・アドベンチャー,,株式会社,山梨県,甲府市,丸の内３丁目３３番７号,,19,201,4000031,,,2023-11-22,清算の結了等,,,2023-07-12,1,,,,,ビーアドベンチャー,0
2394,9120001033796,登記記録の閉鎖等,0,2023-12-05,2023-11-20,丸中ハウジング株式会社,,株式会社,大阪府,大阪市住吉区,苅田９丁目１４番３０号,,27,120,5580011,,,2023-11-20,清算の結了等,,,2023-09-11,1,,,,,マルナカハウジング,0
2431,9140002035030,登記記録の閉鎖等,0,2023-12-05,2023-11-28,有限会社フェイスポート,,有限会社,兵庫県,丹波篠山市,見内９９番地,,28,221,6692121,,,2023-11-28,清算の結了等,,,2015-10-05,1,,,,,フェイスポート,0
2435,9160001021905,登記記録の閉鎖等,0,2023-12-05,2023-12-04,ＣｈｉｍｅｒａＣｏｎｎｅｃｔ株式会社,,株式会社,滋賀県,大津市,大萱１丁目１番４－３０３号,,25,201,5202144,,,2023-12-04,清算の結了等,,,2019-09-04,1,,,,,キメラコネクト,0
2438,9170002008652,登記記録の閉鎖等,0,2023-12-05,2023-12-04,堅山農林有限会社,,有限会社,和歌山県,田辺市,下三栖１４７５番地の１４３,,30,206,6460216,,,2023-12-04,清算の結了等,,,2015-10-05,1,,,,,カタヤマノウリン,0
2439,9170005001968,登記記録の閉鎖等,0,2023-12-05,2023-12-04,海南小売酒販組合,,その他の設立登記法人,和歌山県,海南市,日方１０２７番地の１,,30,202,6420002,,,2023-12-04,清算の結了等,,,2015-10-05,1,,,,,カイナンコウリ,0
2460,9180002071484,登記記録の閉鎖等,0,2023-12-05,2023-11-30,有限会社イデア,,有限会社,愛知県,瀬戸市,上水野町７０６番地の４,,23,204,4890062,,,2023-11-30,清算の結了等,,,2015-10-05,1,,,,,イデア,0
2463,9180003004583,登記記録の閉鎖等,0,2023-12-05,2023-11-29,合資会社平松,,合資会社,愛知県,名古屋市千種区,朝岡町３丁目６１番地,,23,101,4640811,,,2023-11-29,清算の結了等,,,2015-10-05,1,,,,,ヒラマツ,0
2470,9200002020612,登記記録の閉鎖等,0,2023-12-05,2023-11-30,有限会社藤田建材,,有限会社,岐阜県,多治見市,明和町４丁目５番地の４８７,,21,204,5070072,,,2023-11-30,清算の結了等,,,2015-10-05,1,,,,,フジタケンザイ,0
2472,9230001007459,登記記録の閉鎖等,0,2023-12-05,2023-11-15,若栗土建工業株式会社,,株式会社,富山県,黒部市,若栗７７５８番地,,16,207,9380802,,,2023-11-15,清算の結了等,,,2023-04-24,1,,,,,ワカクリドケンコウギョウ,0
2473,9230001007764,登記記録の閉鎖等,0,2023-12-05,2023-12-01,いしざか薬局株式会社,,株式会社,富山県,滑川市,中町１４７１番地,,16,206,9360036,,,2023-12-01,清算の結了等,,,2015-10-05,1,,,,,イシザカヤッキョク,0
2478,9260001016861,登記記録の閉鎖等,0,2023-12-05,2023-11-30,株式会社リング,,株式会社,岡山県,倉敷市,有城６６２番地２,,33,202,7100031,,,2023-11-30,清算の結了等,,,2015-10-05,1,,,,,リング,0
2480,9280002000152,登記記録の閉鎖等,0,2023-12-05,2023-12-01,株式会社山陰図書サービス,,株式会社,島根県,松江市,北陵町６０番地,,32,201,6900816,,,2023-12-01,合併による解散等,5270001003994,令和５年１２月１日島根県松江市殿町６３番地株式会社今井書店（5270001003994）に合併し解散,2015-10-05,1,,,,,サンイントショサービス,0
2486,9290002050576,登記記録の閉鎖等,0,2023-12-05,2023-11-28,有限会社目黒リカーズ,,有限会社,福岡県,久留米市,荒木町荒木９２８番地,,40,203,8300063,,,2023-11-28,清算の結了等,,,2015-10-05,1,,,,,,0
2506,9370001031494,登記記録の閉鎖等,0,2023-12-05,2023-11-30,瑠璃工業株式会社,,株式会社,宮城県,仙台市泉区,明石南６丁目１２番地の１インターシティＩ－１０２号,00115553,04,105,9813101,,,2023-11-30,清算の結了等,,,2015-10-05,1,,,,,ルリコウギョウ,0
2512,9390002013903,登記記録の閉鎖等,0,2023-12-05,2023-11-29,有限会社サンリヴ,,有限会社,山形県,東置賜郡高畠町,大字二井宿１９８３番地,,06,381,9920301,,,2023-11-29,清算の結了等,,,2015-10-05,1,,,,,サンリヴ,0
2523,9450002003939,登記記録の閉鎖等,0,2023-12-05,2023-12-04,有限会社ニーズ,,有限会社,北海道,旭川市,流通団地二条３丁目２６番地５,,01,204,0798442,,,2023-12-04,清算の結了等,,,2015-10-05,1,,,,,ニーズ,0
