sequenceNumber,corporateNumber,process,correct,updateDate,changeDate,name,nameImageId,kind,prefectureName,cityName,streetNumber,addressImageId,prefectureCode,cityCode,postCode,addressOutside,addressOutsideImageId,closeDate,closeCause,successorCorporateNumber,changeCause,assignmentDate,latest,enName,enPrefectureName,enCityName,enAddressOutside,furigana,hihyoji
7,1010003043341,新規,0,2024-03-29,2024-03-29,合同会社エー商事,,合同会社,東京都,中央区,日本橋兜町１７－１－７０７,,13,102,1030026,,,,,,,2024-03-29,1,,,,,エーショウジ,0
12,1010401181024,新規,0,2024-03-29,2024-03-29,久能株式会社,,株式会社,東京都,港区,愛宕２丁目５番１号愛宕グリーンヒルズＭＯＲＩタワー３４階,,13,103,1050002,,,,,,,2024-03-29,1,,,,,クノウ,0
17,1010403032290,新規,0,2024-03-29,2024-03-29,ＴＫ６合同会社,,合同会社,東京都,港区,北青山１丁目６番５－１０４号,,13,103,1070061,,,,,,,2024-03-29,1,,,,,ティーケーシックス,0
22,1010603010724,新規,0,2024-03-29,2024-03-29,合同会社海と緑の技術研究舎,,合同会社,東京都,江東区,有明３丁目７番２６号有明フロンティアビルＢ棟９階,,13,108,1350063,,,,,,,2024-03-29,1,,,,,ウミトミドリノギジュツケンキュウシャ,0
24,1010703007117,新規,0,2024-03-29,2024-03-29,合同会社ｎａｋａｙａ,,合同会社,東京都,品川区,西品川１丁目１番１号住友不動産大崎ガーデンタワー９Ｆトンネル東京オフィス,,13,109,1410033,,,,,,,2024-03-29,1,,,,,ナカヤ,0
26,1010801034896,新規,0,2024-03-29,2024-03-29,株式会社Ａｅｔｈｅｒ,,株式会社,東京都,大田区,東糀谷３丁目１０番１２号ＡｌｐｈａＰｒｉｍｅ羽田大鳥居５０２,,13,111,1440033,,,,,,,2024-03-29,1,,,,,アイテール,0
27,1010801034905,新規,0,2024-03-29,2024-03-29,株式会社ＹＡＳ　Ａｓｓｅｔ,,株式会社,東京都,大田区,萩中３丁目１９番１７号,,13,111,1440047,,,,,,,2024-03-29,1,,,,,ヤスアセット,0
29,1010901054976,新規,0,2024-03-29,2024-03-29,株式会社クラフトキャット,,株式会社,東京都,世田谷区,池尻４丁目２９番１－２０７号,,13,112,1540001,,,,,,,2024-03-29,1,,,,,クラフトキャット,0
41,1011001160905,新規,0,2024-03-29,2024-03-29,株式会社ＢＵＵＭ,,株式会社,東京都,渋谷区,神宮前３丁目６－２６ＧＲＥＥＮ’ＳＷＥＬＬ,,13,113,1500001,,,,,,,2024-03-29,1,,,,,ブーム,0
42,1011001160938,新規,0,2024-03-29,2024-03-29,Ｍｏｎｏｔｏｎｅ株式会社,,株式会社,東京都,渋谷区,千駄ヶ谷４丁目２番２号パークサイドフラット２０２,,13,113,1510051,,,,,,,2024-03-29,1,,,,,モノトーン,0
43,1011003018820,新規,0,2024-03-29,2024-03-29,パワフルマインド合同会社,,合同会社,東京都,渋谷区,道玄坂１丁目１０番８号渋谷道玄坂東急ビル２Ｆ－Ｃ,,13,113,1500043,,,,,,,2024-03-29,1,,,,,パワフルマインド,0
45,1011101106766,新規,0,2024-03-29,2024-03-29,株式会社ＥｔｈｉｃａｌＦａｃｔｏｒｙ,,株式会社,東京都,新宿区,市谷田町２丁目１７八重洲市谷ビル１０Ｆ,,13,104,1620843,,,,,,,2024-03-29,1,,,,,エシカルファクトリー,0
47,1011201025362,新規,0,2024-03-29,2024-03-29,株式会社源,,株式会社,東京都,中野区,南台３丁目６番１９号４階,,13,114,1640014,,,,,,,2024-03-29,1,,,,,ミナモト,0
63,1011701027131,新規,0,2024-03-29,2024-03-29,株式会社ＳＣＡＦＦＯＬＤ,,株式会社,東京都,江戸川区,西篠崎１丁目６番２９号,,13,123,1330055,,,,,,,2024-03-29,1,,,,,スカフォード,0
71,1013101009379,新規,0,2024-03-29,2024-03-29,株式会社Ｋ．Ｂ．Ｓ,,株式会社,東京都,羽村市,五ノ神１丁目８番地の６エーケービル羽村３０２号,,13,227,2050011,,,,,,,2024-03-29,1,,,,,,0
80,1020001156490,新規,0,2024-03-29,2024-03-29,株式会社清邦,,株式会社,神奈川県,横浜市中区,翁町２丁目７－１０－９０５,,14,104,2310028,,,,,,,2024-03-29,1,,,,,キヨクニ,0
82,1020003025826,新規,0,2024-03-29,2024-03-29,８次元合同会社,,合同会社,神奈川県,横浜市青葉区,みすずが丘１４番地１ビエント２０８,,14,117,2250016,,,,,,,2024-03-29,1,,,,,ハチジゲン,0
83,1020003025842,新規,0,2024-03-29,2024-03-29,Ｂ＆Ｂ合同会社,,合同会社,神奈川県,横浜市神奈川区,新子安１丁目１３番２１号コーポ林１０４号,,14,102,2210013,,,,,,,2024-03-29,1,,,,,ビーアンドビー,0
90,1030001159468,新規,0,2024-03-29,2024-03-29,株式会社三哲グループ,,株式会社,埼玉県,蕨市,北町４丁目１０－２０（１０１室）,,11,223,3350001,,,,,,,2024-03-29,1,,,,,サンテツグループ,0
93,1030003023903,新規,0,2024-03-29,2024-03-29,ＰＨＯＴＯＯＦＦＩＣＥ写人合同会社,,合同会社,埼玉県,川口市,元郷５丁目８－１２ＭＡＬＩＢＵａｐａｒｔｍｅｎｔ２０１,,11,203,3320011,,,,,,,2024-03-29,1,,,,,フォトオフィスシャト,0
94,1030003023928,新規,0,2024-03-29,2024-03-29,合同会社ＯＮＥ,,合同会社,埼玉県,さいたま市大宮区,下町２丁目６０番地１,,11,103,3300844,,,,,,,2024-03-29,1,,,,,ワン,0
100,1040001132903,新規,0,2024-03-29,2024-03-29,唐科学機器株式会社,,株式会社,千葉県,佐倉市,宮前３丁目２２番地４ＧＡＲＤＥＮＥＬＥＧＡＮＴ３１８,,12,212,2850005,,,,,,,2024-03-29,1,,,,,トウカガクキキ,0
109,1050003008241,新規,0,2024-03-29,2024-03-29,合同会社ビクトリー自動車,,合同会社,茨城県,古河市,女沼８１６番地１,,08,204,3060226,,,,,,,2024-03-29,1,,,,,ビクトリージドウシャ,0
117,1070001041548,新規,0,2024-03-29,2024-03-29,株式会社アグリスターズ,,株式会社,群馬県,伊勢崎市,境小此木字北川原２０３０－２,,10,204,3700135,,,,,,,2024-03-29,1,,,,,アグリスターズ,0
118,1070001041556,新規,0,2024-03-29,2024-03-29,株式会社美縁,,株式会社,群馬県,前橋市,元総社町２丁目３１番地４,,10,201,3710846,,,,,,,2024-03-29,1,,,,,ビエン,0
133,1110005017069,新規,0,2024-03-29,2024-03-29,一般社団法人ＮＡＬＵエンターテイメント,,その他の設立登記法人,新潟県,新潟市中央区,南笹口１丁目１番３８号,,15,103,9500912,,,,,,,2024-03-29,1,,,,,ナルエンターテイメント,0
140,1120001263558,新規,0,2024-03-29,2024-03-29,衣百氏株式会社,,株式会社,大阪府,大阪市生野区,小路東６丁目８番１７号昭和エクセルビュー東大阪１０３－Ｇ２７,,27,116,5440003,,,,,,,2024-03-29,1,,,,,イヒャクシ,0
141,1120001263566,新規,0,2024-03-29,2024-03-29,株式会社洋江,,株式会社,大阪府,大阪市西成区,山王３丁目６番１７－５０１号,,27,122,5570001,,,,,,,2024-03-29,1,,,,,ヨウコウ,0
142,1120001263616,新規,0,2024-03-29,2024-03-29,株式会社ＥＪＩＴＥ,,株式会社,大阪府,枚方市,大垣内町３丁目９番９－２０１号,,27,210,5730027,,,,,,,2024-03-29,1,,,,,エジテ,0
143,1120001263681,新規,0,2024-03-29,2024-03-29,金山株式会社,,株式会社,大阪府,大阪市東淀川区,大桐３丁目１０番１８号Ｌｉｖｅｓｐａｃｅ大桐１０２号室,,27,114,5330011,,,,,,,2024-03-29,1,,,,,カナヤマ,0
149,1122001037958,新規,0,2024-03-29,2024-03-29,株式会社ストーリー,,株式会社,大阪府,東大阪市,長堂１丁目８番２８－６１０号,,27,227,5770056,,,,,,,2024-03-29,1,,,,,ストーリー,0
151,1130001076694,新規,0,2024-03-29,2024-03-29,株式会社ハグルマワークス,,株式会社,京都府,京都市伏見区,深草鳥居崎町６１０番地１,,26,109,6120864,,,,,,,2024-03-29,1,,,,,ハグルマワークス,0
156,1140001133866,新規,0,2024-03-29,2024-03-29,株式会社アースクリエイション,,株式会社,兵庫県,神戸市中央区,東川崎町１丁目５番９号ザ・パークハウス神戸ハーバーランドタワー２５０３,,28,110,6500044,,,,,,,2024-03-29,1,,,,,アースクリエイション,0
162,1140003020344,新規,0,2024-03-29,2024-03-29,合同会社もるねん,,合同会社,兵庫県,神戸市中央区,磯辺通１丁目１番１８号カサベラ国際プラザビル７０７号室,,28,110,6510084,,,,,,,2024-03-29,1,,,,,モルネン,0
165,1160001025772,新規,0,2024-03-29,2024-03-29,株式会社リス,,株式会社,滋賀県,甲賀市,水口町水口６１１０番地１,,25,209,5280005,,,,,,,2024-03-29,1,,,,,リス,0
173,1180001160790,新規,0,2024-03-29,2024-03-29,株式会社Ｌｕ‐Ｒｕ,,株式会社,愛知県,尾張旭市,東栄町２丁目１番地１６,,23,226,4880011,,,,,,,2024-03-29,1,,,,,ルル,0
175,1180003026569,新規,0,2024-03-29,2024-03-29,合同会社アシスト,,合同会社,愛知県,名古屋市緑区,浦里３丁目２８１サーパスシティ鳴海６０２,,23,114,4580847,,,,,,,2024-03-29,1,,,,,アシスト,0
177,1180301038472,新規,0,2024-03-29,2024-03-29,白繁ＡＭＣ株式会社,,株式会社,愛知県,豊橋市,湊町１４０番地,,23,201,4400073,,,,,,,2024-03-29,1,,,,,ハクシゲエーエムシー,0
178,1180301038480,新規,0,2024-03-29,2024-03-29,株式会社ＴｅｃｈｎｏＩｎｄｕｓｔｒｙ,,株式会社,愛知県,安城市,箕輪町切戸２８番８,,23,212,4460051,,,,,,,2024-03-29,1,,,,,テクノインダストリー,0
189,1210001019694,新規,0,2024-03-29,2024-03-29,福井石材株式会社,,株式会社,福井県,吉田郡永平寺町,松岡観音３丁目２１０番地,,18,322,9101137,,,,,,,2024-03-29,1,,,,,フクイセキザイ,0
191,1230001020270,新規,0,2024-03-29,2024-03-29,株式会社スマートネクスト,,株式会社,富山県,富山市,桜町１丁目６番１３号,,16,201,9300003,,,,,,,2024-03-29,1,,,,,スマートネクスト,0
198,1240003006556,新規,0,2024-03-29,2024-03-29,合同会社てくてく,,合同会社,広島県,広島市安佐南区,相田２丁目１０番３－４号,,34,105,7310141,,,,,,,2024-03-29,1,,,,,テクテク,0
204,1290001105248,新規,0,2024-03-29,2024-03-29,株式会社萬誠,,株式会社,福岡県,春日市,昇町３丁目２１０,,40,218,8160851,,,,,,,2024-03-29,1,,,,,マンセイ,0
205,1290001105272,新規,0,2024-03-29,2024-03-29,株式会社ＩＮＶＩＧＯＲＩＳＥ,,株式会社,福岡県,福岡市中央区,天神２丁目３番１０－７０４号,,40,133,8100001,,,,,,,2024-03-29,1,,,,,インヴィゴライズ,0
215,1320003004320,新規,0,2024-03-29,2024-03-29,合同会社藤野屋昇一郎,,合同会社,大分県,竹田市,大字菅生９８２番地２,,44,208,8796184,,,,,,,2024-03-29,1,,,,,フジノヤショウイチロウ,0
225,1360003013846,新規,0,2024-03-29,2024-03-29,初栄合同会社,,合同会社,沖縄県,島尻郡南風原町,字新川１８５番地３ニューリバーハイツＩ２０１,00134241,47,350,9011105,,,,,,,2024-03-29,1,,,,,ハツエ,0
227,1370001051112,新規,0,2024-03-29,2024-03-29,株式会社アイリン,,株式会社,宮城県,白石市,字長町３５番地２,,04,206,9890274,,,,,,,2024-03-29,1,,,,,アイリン,0
228,1370003006543,新規,0,2024-03-29,2024-03-29,ハイランド合同会社,,合同会社,宮城県,多賀城市,高橋２丁目２番１５号,,04,209,9850853,,,,,,,2024-03-29,1,,,,,ハイランド,0
231,1420001018642,新規,0,2024-03-29,2024-03-29,六大陸株式会社,,株式会社,青森県,青森市,長島２丁目１３－１アクア青森スクエア４Ｆ・６Ｆ,,02,201,0300861,,,,,,,2024-03-29,1,,,,,ロクタイリク,0
232,1420001018659,新規,0,2024-03-29,2024-03-29,小鹿商事株式会社,,株式会社,青森県,東津軽郡蓬田村,大字阿弥陀川字汐干１９８番地１８３,,02,304,0301212,,,,,,,2024-03-29,1,,,,,コシカショウジ,0
235,1430001091416,新規,0,2024-03-29,2024-03-29,株式会社こうちゃん,,株式会社,北海道,札幌市中央区,南四条西４丁目２番地１,,01,101,0640804,,,,,,,2024-03-29,1,,,,,コウチャン,0
236,1430001091424,新規,0,2024-03-29,2024-03-29,株式会社Ａｓｅｎｔｏ,,株式会社,北海道,札幌市東区,中沼町２８番地１２,,01,103,0070890,,,,,,,2024-03-29,1,,,,,アセント,0
239,1430003016148,新規,0,2024-03-29,2024-03-29,合同会社Ｍａ‐ｍｉ,,合同会社,北海道,札幌市中央区,界川２丁目８番８号,,01,101,0640943,,,,,,,2024-03-29,1,,,,,マーミ,0
247,1700150104818,新規,0,2024-03-29,2021-09-21,Ｐｏｗｅｒ　ｏｆ　ｔｈｅ　ｆｕｔｕｒｅ,,その他,三重県,伊勢市,曽祢１丁目１４－１５　２Ｆ（アイ・ミュージック内）,,24,203,5160078,,,,,,,2021-09-21,1,,,,,パワーオブザフユーチヤー,0
248,1700150122415,新規,0,2024-03-29,2024-03-29,Ｑｉｎｇｄａｏ　ｖａｎｋｉｎｇ　ｈｏｍｅ　ｆｕｒｎｉｓｈｉｎｇｓ　ｃｏ．，ｌｔｄ,,外国会社等,,,,,,,,中国山東省青島市労山区深セン路１５６号国金中心９号楼５０１室,,,,,,2024-03-29,1,,,,,チンタオバンキングホームフアニツシングカンパニーリミテツド,0
256,2010001243495,新規,0,2024-03-29,2024-03-29,株式会社エディス,,株式会社,東京都,千代田区,神田三崎町２丁目１０番１１（Ｐｅｇビル）３Ａ－５号室,,13,101,1010061,,,,,,,2024-03-29,1,,,,,エディス,0
264,2010401181386,新規,0,2024-03-29,2024-03-29,株式会社ｏｔｏｚ．Ａｉ　Ｊａｐａｎ,,株式会社,東京都,港区,南麻布２丁目１０－１３,,13,103,1060047,,,,,,,2024-03-29,1,,,,,オートズエーアイジャパン,0
272,2010403032273,新規,0,2024-03-29,2024-03-29,グレイスフィルム合同会社,,合同会社,東京都,港区,芝浦１丁目６番４１号－８０２号,,13,103,1050023,,,,,,,2024-03-29,1,,,,,グレイスフィルム,0
275,2010501052009,新規,0,2024-03-29,2024-03-29,株式会社ＹＪＪ,,株式会社,東京都,台東区,日本堤２丁目３５番４－５０１号,,13,106,1110021,,,,,,,2024-03-29,1,,,,,ワイジェイジェイ,0
277,2010601064878,新規,0,2024-03-29,2024-03-29,トラストミー株式会社,,株式会社,東京都,江東区,清澄１丁目３番１－１１０５号,,13,108,1350024,,,,,,,2024-03-29,1,,,,,トラストミー,0
292,2011001160771,新規,0,2024-03-29,2024-03-29,株式会社ｕｃ,,株式会社,東京都,渋谷区,恵比寿西２丁目８番４号ＥＸ恵比寿西ビル５階,,13,113,1500021,,,,,,,2024-03-29,1,,,,,ユーシー,0
293,2011001160887,新規,0,2024-03-29,2024-03-29,株式会社チェック,,株式会社,東京都,渋谷区,道玄坂１丁目１０番８号渋谷道玄坂東急ビル２Ｆ－Ｃ,,13,113,1500043,,,,,,,2024-03-29,1,,,,,チェック,0
296,2011003018778,新規,0,2024-03-29,2024-03-29,合同会社フューチャーパレット,,合同会社,東京都,目黒区,自由が丘２丁目１６番１２号,,13,110,1520035,,,,,,,2024-03-29,1,,,,,フューチャーパレット,0
303,2011101106765,新規,0,2024-03-29,2024-03-29,一株式会社,,株式会社,東京都,新宿区,西新宿３丁目１８番１４号ＺＥＳＴＹ西新宿ＩＩＩ２０２,00134245,13,104,1600023,,,,,,,2024-03-29,1,,,,,ハジメ,0
304,2011103014280,新規,0,2024-03-29,2024-03-29,ＪＩエクスポート合同会社,,合同会社,東京都,新宿区,西新宿４丁目５番１０－７２２号,,13,104,1600023,,,,,,,2024-03-29,1,,,,,ジェーアイエクスポート,0
305,2011201025361,新規,0,2024-03-29,2024-03-29,ＺＯＥＮ‐ＴＥＣＨ株式会社,,株式会社,東京都,中野区,江古田２丁目１０‐２３ブライズ中野江古田１１１号室,,13,114,1650022,,,,,,,2024-03-29,1,,,,,ゾウエンテック,0
314,2012401041685,新規,0,2024-03-29,2024-03-29,ユニバース株式会社,,株式会社,東京都,三鷹市,牟礼４丁目２１番２５号,,13,204,1810002,,,,,,,2024-03-29,1,,,,,ユニバース,0
317,2013301052269,新規,0,2024-03-29,2024-03-29,株式会社共進商事,,株式会社,東京都,豊島区,南大塚１丁目５１番１８号大塚ＮＯＺＡＫＩビル２０１号室,,13,116,1700005,,,,,,,2024-03-29,1,,,,,キョウシンショウジ,0
319,2020001156465,新規,0,2024-03-29,2024-03-29,株式会社フラワーヒルプロジェクト,,株式会社,神奈川県,川崎市高津区,末長１丁目４９番１－２０６４号田園ステーションテラス,,14,134,2130013,,,,,,,2024-03-29,1,,,,,フラワーヒルプロジェクト,0
330,2030001159459,新規,0,2024-03-29,2024-03-29,株式会社光実,,株式会社,埼玉県,北葛飾郡杉戸町,清地１丁目６番１２号,,11,464,3450025,,,,,,,2024-03-29,1,,,,,ミツザネ,0
339,2030003023902,新規,0,2024-03-29,2024-03-29,合同会社Ｇｏｌｄ　Ｈｅａｒｔ　Ｐａｒｔｎｅｒｓ,,合同会社,埼玉県,新座市,大和田１丁目１３－２－１０９,,11,230,3520004,,,,,,,2024-03-29,1,,,,,ゴールドハートパートナーズ,0
340,2030003023919,新規,0,2024-03-29,2024-03-29,ｆｉｎｄｉｎｇｓ合同会社,,合同会社,埼玉県,富士見市,ふじみ野東２丁目１３－３ヴィラフェルト＃１０３,,11,235,3540036,,,,,,,2024-03-29,1,,,,,ファインディングス,0
341,2030005021607,新規,0,2024-03-29,2024-03-29,医療法人誠昌会,,その他の設立登記法人,埼玉県,ふじみ野市,うれし野１丁目６番６号,,11,245,3560056,,,,,,,2024-03-29,1,,,,,セイショウカイ,0
348,2040001132893,新規,0,2024-03-29,2024-03-29,Ｗ＆Ｃｏ．株式会社,,株式会社,千葉県,船橋市,夏見６丁目１７番１０－１号,,12,204,2730865,,,,,,,2024-03-29,1,,,,,ダブリューアンドカンパニー,0
349,2040001132902,新規,0,2024-03-29,2024-03-29,ＡＫディエス株式会社,,株式会社,千葉県,匝瑳市,若潮町７番地１５,,12,235,2892145,,,,,,,2024-03-29,1,,,,,エーケーディエス,0
363,2060003005006,新規,0,2024-03-29,2024-03-29,合同会社アンドライド,,合同会社,栃木県,宇都宮市,簗瀬３丁目３０番１１号,,09,201,3210934,,,,,,,2024-03-29,1,,,,,アンドライド,0
366,2070001041547,新規,0,2024-03-29,2024-03-29,株式会社赤城ユニット,,株式会社,群馬県,渋川市,石原６０２番地１,,10,208,3770007,,,,,,,2024-03-29,1,,,,,アカギユニット,0
369,2080401016370,新規,0,2024-03-29,2024-03-29,豊洋クロステック株式会社,,株式会社,静岡県,磐田市,南平松１０番地の１,,22,211,4380221,,,,,,,2024-03-29,1,,,,,ホウヨウクロステック,0
370,2080401027079,新規,0,2024-03-29,2024-03-29,ＭＴ日本貿易株式会社,,株式会社,静岡県,浜松市中央区,笠井町１００１番地の１,,22,138,4313107,,,,,,,2024-03-29,1,,,,,エムティニッポンボウエキ,0
372,2090001018618,新規,0,2024-03-29,2024-03-29,啓航株式会社,,株式会社,山梨県,南都留郡鳴沢村,字富士山８５４５番地１０７９－１０５号室,,19,429,4010320,,,,,,,2024-03-29,1,,,,,ケイコウ,0
384,2120001263581,新規,0,2024-03-29,2024-03-29,株式会社ＣｏＣｏ,,株式会社,大阪府,大阪市中央区,安土町１丁目８番１５号野村不動産大阪ビル１２階,,27,128,5410052,,,,,,,2024-03-29,1,,,,,ココ,0
385,2120003026227,新規,0,2024-03-29,2024-03-29,ＧＡＦＵ　ｉｎｔｅｒｎａｔｉｏｎａｌ合同会社,,合同会社,大阪府,大阪市西区,北堀江３丁目１０番１７号３０９,,27,106,5500014,,,,,,,2024-03-29,1,,,,,ガフインターナショナル,0
386,2120003026243,新規,0,2024-03-29,2024-03-29,合同会社ジェダイト,,合同会社,大阪府,枚方市,星丘４丁目３番２５号,,27,210,5730013,,,,,,,2024-03-29,1,,,,,ジェダイト,0
396,2140001133849,新規,0,2024-03-29,2024-03-29,株式会社輝陽,,株式会社,兵庫県,伊丹市,瑞ケ丘１丁目４４番地１－２０１,,28,207,6640017,,,,,,,2024-03-29,1,,,,,キヨウ,0
397,2140003020351,新規,0,2024-03-29,2024-03-29,合同会社ｗａｒａｆｕ,,合同会社,兵庫県,神戸市北区,藤原台北町４丁目１番１２号,,28,109,6511301,,,,,,,2024-03-29,1,,,,,ワラフ,0
398,2150001027174,新規,0,2024-03-29,2024-03-29,東海株式会社,,株式会社,奈良県,生駒郡平群町,菊美台２丁目２１番２５号,,29,342,6360906,,,,,,,2024-03-29,1,,,,,トウカイ,0
407,2180001160773,新規,0,2024-03-29,2024-03-29,株式会社ウェルネス・リンクス,,株式会社,愛知県,名古屋市中区,栄５丁目２６番３９号ＧＳ栄ビル３Ｆ,,23,106,4600008,,,,,,,2024-03-29,1,,,,,ウェルネスリンクス,0
408,2180001160781,新規,0,2024-03-29,2024-03-29,株式会社ペンギンジェット,,株式会社,愛知県,日進市,浅田町上ノ山３８番地５３,,23,230,4700124,,,,,,,2024-03-29,1,,,,,ペンギンジェット,0
409,2180001160798,新規,0,2024-03-29,2024-03-29,株式会社バンフィスト,,株式会社,愛知県,名古屋市北区,楠３丁目４０２番地,,23,103,4620012,,,,,,,2024-03-29,1,,,,,バンフィスト,0
412,2180003026568,新規,0,2024-03-29,2024-03-29,合同会社アールブリック,,合同会社,愛知県,名古屋市千種区,霞ケ丘１丁目１０番１１号,,23,101,4640041,,,,,,,2024-03-29,1,,,,,アールブリック,0
414,2180005020569,新規,0,2024-03-29,2024-03-29,医療法人愛岐会,,その他の設立登記法人,愛知県,江南市,大間町南大間５番地,,23,217,4838252,,,,,,,2024-03-29,1,,,,,アイギカイ,0
419,2200003006278,新規,0,2024-03-29,2024-03-29,合同会社クローズ,,合同会社,岐阜県,高山市,片野町２丁目８２番地,,21,203,5060824,,,,,,,2024-03-29,1,,,,,クローズ,0
424,2220003003711,新規,0,2024-03-29,2024-03-29,合同会社灯,,合同会社,石川県,金沢市,諸江町下丁１８８番地１（Ｄ－ＢＯＸ諸江・Ｂ－５号）,,17,201,9200017,,,,,,,2024-03-29,1,,,,,トモシビ,0
430,2240001063004,新規,0,2024-03-29,2024-03-29,株式会社Ｔ‐ＲＩＳＥ,,株式会社,広島県,三次市,西酒屋町１２番地１,,34,209,7280022,,,,,,,2024-03-29,1,,,,,ティーライズ,0
431,2240001063012,新規,0,2024-03-29,2024-03-29,東広島ロードサービス株式会社,,株式会社,広島県,東広島市,八本松町正力９９４番地１,,34,212,7390132,,,,,,,2024-03-29,1,,,,,ヒガシヒロシマロードサービス,0
437,2290001105222,新規,0,2024-03-29,2024-03-29,クレストサーブ株式会社,,株式会社,福岡県,福岡市中央区,大名２丁目２番１－６０３号,,40,133,8100041,,,,,,,2024-03-29,1,,,,,クレストサーブ,0
451,2360001033399,新規,0,2024-03-29,2024-03-29,株式会社みらいそ沖縄,,株式会社,沖縄県,那覇市,銘苅２丁目３－６,,47,201,9000004,,,,,,,2024-03-29,1,,,,,ミライソオキナワ,0
462,2430001091415,新規,0,2024-03-29,2024-03-29,Ｏｆｆｉｃｅ　Ｓｈｕ株式会社,,株式会社,北海道,札幌市南区,真駒内南町５丁目７番３号,,01,106,0050016,,,,,,,2024-03-29,1,,,,,オフィスシュウ,0
463,2430001091423,新規,0,2024-03-29,2024-03-29,株式会社一柳架設,00134233,株式会社,北海道,千歳市,若草３丁目５－４,,01,224,0660057,,,,,,,2024-03-29,1,,,,,イチヤナギカセツ,0
469,2460101007524,新規,0,2024-03-29,2024-03-29,株式会社ネクストＰＲ,,株式会社,北海道,帯広市,西二十条南５丁目２１－１４,,01,207,0802470,,,,,,,2024-03-29,1,,,,,ネクストピーアール,0
471,2470001020106,新規,0,2024-03-29,2024-03-29,緑心エンジニアリング株式会社,,株式会社,香川県,高松市,扇町２丁目１０番１６号,,37,201,7600013,,,,,,,2024-03-29,1,,,,,リョクシンエンジニアリング,0
472,2490001010732,新規,0,2024-03-29,2024-03-29,森澤電設株式会社,,株式会社,高知県,香南市,野市町下井６２６番地１野市町下井ＳＭ１０１号室,,39,211,7815235,,,,,,,2024-03-29,1,,,,,モリサワデンセツ,0
482,3010001243528,新規,0,2024-03-29,2024-03-29,株式会社ＤＯＬＥＭＩ,,株式会社,東京都,中央区,日本橋富沢町５番５号エクセルシオール日本橋３０３,,13,102,1030006,,,,,,,2024-03-29,1,,,,,ドレミ,0
484,3010003043315,新規,0,2024-03-29,2024-03-29,ＳＫ　ＦＵＳＩＯＮ　ＷＯＲＫＳ合同会社,,合同会社,東京都,中央区,新川２丁目２９番地３号,,13,102,1040033,,,,,,,2024-03-29,1,,,,,エスケーフュージョンワークス,0
491,3010401181336,新規,0,2024-03-29,2024-03-29,株式会社ＩＮＶＩＳＩＯＮ,,株式会社,東京都,港区,三田３丁目１３番１６号,,13,103,1080073,,,,,,,2024-03-29,1,,,,,インビジョン,0
492,3010401181377,新規,0,2024-03-29,2024-03-29,株式会社Ｑｕａｔｒｅ　Ｍａｒｃｈｅ,,株式会社,東京都,港区,南青山２丁目２番１５号ウィン青山１２２９号,,13,103,1070062,,,,,,,2024-03-29,1,,,,,キャトルマルシェ,0
494,3010403032248,新規,0,2024-03-29,2024-03-29,Ｓ・Ｓ開発合同会社,,合同会社,東京都,港区,六本木４丁目３番１１－１２３号,,13,103,1060032,,,,,,,2024-03-29,1,,,,,エスエスカイハツ,0
495,3010403032272,新規,0,2024-03-29,2024-03-29,ＢＲＯＵＧＥＴＡＲＩＡ合同会社,,合同会社,東京都,港区,東麻布１丁目２９番９号プリンセスコート東麻布６０１,,13,103,1060044,,,,,,,2024-03-29,1,,,,,ブルジュタリア,0
497,3010601064910,新規,0,2024-03-29,2024-03-29,盛京エンターテイメント株式会社,,株式会社,東京都,墨田区,錦糸２丁目４番３－６０１号錦糸町セントラルハイツ,,13,107,1300013,,,,,,,2024-03-29,1,,,,,セイキョウエンターテイメント,0
499,3010603010730,新規,0,2024-03-29,2024-03-29,ｒｅｖｅｒｓａｌ合同会社,,合同会社,東京都,江東区,塩浜２丁目１１‐３４プロスペリティ４０１,,13,108,1350043,,,,,,,2024-03-29,1,,,,,リバーサル,0
501,3010701045760,新規,0,2024-03-29,2024-03-29,株式会社中本商事,,株式会社,東京都,品川区,西五反田８丁目２番１２号アール五反田７Ａ,,13,109,1410031,,,,,,,2024-03-29,1,,,,,ナカモトショウジ,0
502,3010801034894,新規,0,2024-03-29,2024-03-29,株式会社ことぶき佐藤商店,,株式会社,東京都,大田区,上池台３丁目４０番３号,,13,111,1450064,,,,,,,2024-03-29,1,,,,,コトブキサトウショウテン,0
504,3010803004895,新規,0,2024-03-29,2024-03-29,合同会社４Ｓ,,合同会社,東京都,大田区,中央６丁目２０番５号,,13,111,1430024,,,,,,,2024-03-29,1,,,,,ヨンエス,0
508,3010903008937,新規,0,2024-03-29,2024-03-29,合同会社１０８企画,,合同会社,東京都,世田谷区,成城５丁目１８－７,,13,112,1570066,,,,,,,2024-03-29,1,,,,,イチマルハチキカク,0
515,3011001160886,新規,0,2024-03-29,2024-03-29,株式会社ＨＩＴＯＡＩ,,株式会社,東京都,渋谷区,渋谷１丁目１２番２クロスオフィス渋谷５０２,,13,113,1500002,,,,,,,2024-03-29,1,,,,,,0
516,3011001160894,新規,0,2024-03-29,2024-03-29,株式会社永利,,株式会社,東京都,渋谷区,千駄ヶ谷３丁目２１－１０ハイツ千駄ヶ谷４０７,,13,113,1510051,,,,,,,2024-03-29,1,,,,,エイリ,0
517,3011001160903,新規,0,2024-03-29,2024-03-29,株式会社Ｓ・ｓｅｃｏｎｄ,,株式会社,東京都,渋谷区,千駄ヶ谷１丁目３番１９号タケモトビル２Ｆ,,13,113,1510051,,,,,,,2024-03-29,1,,,,,エスセカンド,0
518,3011001160993,新規,0,2024-03-29,2024-03-29,ＭＡＣキャピタル株式会社,,株式会社,東京都,渋谷区,恵比寿西２丁目８番４号ＥＸ恵比寿西ビル５階,,13,113,1500021,,,,,,,2024-03-29,1,,,,,マックキャピタル,0
524,3011101106756,新規,0,2024-03-29,2024-03-29,ＷＧフーズ株式会社,,株式会社,東京都,新宿区,歌舞伎町１丁目１２番２号第５８東京ビル地下１階,,13,104,1600021,,,,,,,2024-03-29,1,,,,,ダブリュージーフーズ,0
526,3011103014271,新規,0,2024-03-29,2024-03-29,合同会社ｊｅｗｅｌｓ,,合同会社,東京都,新宿区,新宿６丁目１０番１号ＮｉｓｓｅｉＳｈｉｎｊｕｋｕビル４階,,13,104,1600022,,,,,,,2024-03-29,1,,,,,ジュエルズ,0
531,3011303005112,新規,0,2024-03-29,2024-03-29,合同会社ぷぷろあ,,合同会社,東京都,杉並区,上井草２丁目４５－１－２０２号,,13,115,1670023,,,,,,,2024-03-29,1,,,,,ププロア,0
537,3011503006001,新規,0,2024-03-29,2024-03-29,合同会社Ｌａｐｈｔ,,合同会社,東京都,荒川区,西日暮里３丁目２番１５号,,13,118,1160013,,,,,,,2024-03-29,1,,,,,ラプト,0
538,3011601027650,新規,0,2024-03-29,2024-03-29,Ｔ‐ＯＮＥ株式会社,,株式会社,東京都,練馬区,南大泉５丁目２０番１７号,,13,120,1780064,,,,,,,2024-03-29,1,,,,,ティーワン,0
550,3013301052292,新規,0,2024-03-29,2024-03-29,株式会社Ｂａｎａｎａ,,株式会社,東京都,豊島区,東池袋３丁目１－１サンシャイン６０－４５階,,13,116,1700013,,,,,,,2024-03-29,1,,,,,バナナ,0
559,3020001156456,新規,0,2024-03-29,2024-03-29,株式会社キャルスタイル,,株式会社,神奈川県,横浜市中区,相生町１丁目２３番地１,,14,104,2310012,,,,,,,2024-03-29,1,,,,,キャルスタイル,0
560,3020001156489,新規,0,2024-03-29,2024-03-29,株式会社ＨＯＳＨＩＮ,,株式会社,神奈川県,横浜市旭区,南希望が丘７６番地６,,14,112,2410824,,,,,,,2024-03-29,1,,,,,ホーシン,0
561,3020001156522,新規,0,2024-03-29,2024-03-29,株式会社Ｍ’ｓ　ＰＡＲＴＮＥＲＳ,,株式会社,神奈川県,横浜市神奈川区,上反町１丁目６番地４,,14,102,2210831,,,,,,,2024-03-29,1,,,,,エムズパートナーズ,0
563,3020003025840,新規,0,2024-03-29,2024-03-29,合同会社Ｔｙ,,合同会社,神奈川県,川崎市幸区,古市場２丁目９６－１９,,14,132,2120052,,,,,,,2024-03-29,1,,,,,ティーワイ,0
570,3021003014321,新規,0,2024-03-29,2024-03-29,ＫＧコンサルティング合同会社,,合同会社,神奈川県,藤沢市,片瀬海岸２丁目１３－１７,,14,205,2510035,,,,,,,2024-03-29,1,,,,,ケージーコンサルティング,0
575,3030001159458,新規,0,2024-03-29,2024-03-29,株式会社ＦＯＯＤ　ＦＡＶＥ,,株式会社,埼玉県,戸田市,笹目北町１６番地の１０（チサンマンション戸田３０２号室）,,11,224,3350033,,,,,,,2024-03-29,1,,,,,フードフェブ,0
576,3030001159490,新規,0,2024-03-29,2024-03-29,福澤株式会社,,株式会社,埼玉県,川口市,西川口１丁目２８－１６－４Ｆ,,11,203,3320021,,,,,,,2024-03-29,1,,,,,フクザワ,0
580,3030003023876,新規,0,2024-03-29,2024-03-29,ジン・サービス合同会社,,合同会社,埼玉県,川口市,宮町１４－２２アトリオ１０１,,11,203,3320028,,,,,,,2024-03-29,1,,,,,ジンサービス,0
581,3030003023934,新規,0,2024-03-29,2024-03-29,合同会社繋,,合同会社,埼玉県,所沢市,北中２丁目１５０－８,,11,208,3591101,,,,,,,2024-03-29,1,,,,,ツナグ,0
583,3030005021606,新規,0,2024-03-29,2024-03-29,特定非営利活動法人笑顔の種,,その他の設立登記法人,埼玉県,比企郡嵐山町,大字吉田１５３１番地,,11,342,3550202,,,,,,,2024-03-29,1,,,,,エガオノタネ,0
588,3040001132686,新規,0,2024-03-29,2024-03-29,軒武株式会社,,株式会社,千葉県,松戸市,古ケ崎３丁目３３０４番地の２,,12,207,2710068,,,,,,,2024-03-29,1,,,,,ケンブ,0
589,3040001132851,新規,0,2024-03-29,2024-03-29,株式会社大塩予防医学研究所,,株式会社,千葉県,浦安市,北栄１丁目３番２６－４０６号グレイスコートＥＪ,,12,227,2790002,,,,,,,2024-03-29,1,,,,,オオシオヨボウイガクケンキュウジョ,0
590,3040001132918,新規,0,2024-03-29,2024-03-29,株式会社クラウン,,株式会社,千葉県,我孫子市,下ケ戸５０９番地の５－１０２号,,12,222,2701138,,,,,,,2024-03-29,1,,,,,クラウン,0
592,3040003024650,新規,0,2024-03-29,2024-03-29,合同会社ぺんぎん,,合同会社,千葉県,船橋市,三咲５丁目３２番２３－２０１号,,12,204,2740812,,,,,,,2024-03-29,1,,,,,ペンギン,0
593,3040003024667,新規,0,2024-03-29,2024-03-29,合同会社広斗,,合同会社,千葉県,旭市,泉川２１８番地,,12,215,2892534,,,,,,,2024-03-29,1,,,,,ヒロト,0
600,3060003005005,新規,0,2024-03-29,2024-03-29,ＡＺＡＭ　ＴＲＡＤＩＮＧ合同会社,,合同会社,栃木県,栃木市,岩舟町新里１３０４番地５７号室,,09,203,3294316,,,,,,,2024-03-29,1,,,,,アザムトレーディング,0
602,3070001041554,新規,0,2024-03-29,2024-03-29,株式会社Ｆｅａｒｌｅｓｓ９,,株式会社,群馬県,太田市,小舞木町４７２番地１,,10,205,3730818,,,,,,,2024-03-29,1,,,,,フィアレスナイン,0
611,3110001038281,新規,0,2024-03-29,2024-03-29,株式会社アイワン,,株式会社,新潟県,長岡市,福住３丁目４番３８号,,15,202,9400034,,,,,,,2024-03-29,1,,,,,アイワン,0
613,3110003005346,新規,0,2024-03-29,2024-03-29,ドリームステージ合同会社,,合同会社,新潟県,五泉市,赤海１丁目１６番３４－１号,,15,218,9591821,,,,,,,2024-03-29,1,,,,,ドリームステージ,0
622,3120001263589,新規,0,2024-03-29,2024-03-29,株式会社ＹＯＳＨＩＴＯ,,株式会社,大阪府,大阪市阿倍野区,美章園２丁目１３番８号,,27,119,5450003,,,,,,,2024-03-29,1,,,,,ヨシト,0
629,3122001037956,新規,0,2024-03-29,2024-03-29,株式会社北恵,,株式会社,大阪府,東大阪市,北石切町７番５号,,27,227,5798015,,,,,,,2024-03-29,1,,,,,キタケイ,0
631,3122003002842,新規,0,2024-03-29,2024-03-29,あずさ合同会社,,合同会社,大阪府,柏原市,旭ケ丘３丁目１番１８号ウフルケア旭ヶ丘１階,,27,221,5820026,,,,,,,2024-03-29,1,,,,,アズサ,0
639,3130005017049,新規,0,2024-03-29,2024-03-29,一般社団法人ＦａｒｍＳＡＳＵＧＡ,,その他の設立登記法人,京都府,福知山市,大字私市小字栗田２６番地の１,,26,201,6200003,,,,,,,2024-03-29,1,,,,,ファームサスガ,0
646,3140001133889,新規,0,2024-03-29,2024-03-29,株式会社Ｆｌｙｓｐｅｃｋ,,株式会社,兵庫県,神戸市灘区,水道筋６丁目１番３号,,28,102,6570831,,,,,,,2024-03-29,1,,,,,フライスペック,0
648,3140003020342,新規,0,2024-03-29,2024-03-29,合同会社サンオータニ,,合同会社,兵庫県,明石市,大蔵天神町２２番２５－１０８号,,28,203,6730875,,,,,,,2024-03-29,1,,,,,サンオータニ,0
664,3180301038470,新規,0,2024-03-29,2024-03-29,プラスアルファ交通株式会社,,株式会社,愛知県,西尾市,道光寺町堰板２１番地８,,23,213,4450811,,,,,,,2024-03-29,1,,,,,プラスアルファコウツウ,0
665,3180301038479,新規,0,2024-03-29,2024-03-29,株式会社七楽園,,株式会社,愛知県,安城市,城ケ入町本郷７７番地,,23,212,4441206,,,,,,,2024-03-29,1,,,,,シチラクエン,0
667,3190003004621,新規,0,2024-03-29,2024-03-29,コマース・パイロット合同会社,,合同会社,三重県,桑名市,大字本願寺２２４番地１,,24,205,5110835,,,,,,,2024-03-29,1,,,,,コマースパイロット,0
673,3210001019692,新規,0,2024-03-29,2024-03-29,ＹＫＦ株式会社,,株式会社,福井県,坂井市,丸岡町北横地第３４号１１番地１,,18,210,9100374,,,,,,,2024-03-29,1,,,,,ワイケーエフ,0
676,3220003003710,新規,0,2024-03-29,2024-03-29,合同会社アイネット,,合同会社,石川県,鳳珠郡能登町,字九里川尻９字８３番地,,17,463,9270604,,,,,,,2024-03-29,1,,,,,アイネット,0
681,3240001063011,新規,0,2024-03-29,2024-03-29,エイショー株式会社,,株式会社,広島県,東広島市,豊栄町清武１２３１番地,,34,212,7392313,,,,,,,2024-03-29,1,,,,,エイショー,0
688,3270005005584,新規,0,2024-03-29,2024-03-29,一般社団法人にちなんスポーツクラブ,,その他の設立登記法人,鳥取県,日野郡日南町,生山４５０番地,,31,401,6895211,,,,,,,2024-03-29,1,,,,,ニチナンスポーツクラブ,0
691,3290003015105,新規,0,2024-03-29,2024-03-29,ＲＯＡＭＡ　ＴＲＡＤＥ合同会社,,合同会社,福岡県,大川市,大字本木室５２２番地７,,40,212,8310015,,,,,,,2024-03-29,1,,,,,ロアマトレード,0
704,3330003010290,新規,0,2024-03-29,2024-03-29,合同会社ＫＳＨ,,合同会社,熊本県,熊本市東区,上南部２丁目７番２９号,,43,102,8618010,,,,,,,2024-03-29,1,,,,,ケーエスエイチ,0
719,3420001018657,新規,0,2024-03-29,2024-03-29,株式会社白戸工業,,株式会社,青森県,弘前市,大字大町１丁目１３番地２,,02,202,0368004,,,,,,,2024-03-29,1,,,,,シロトコウギョウ,0
720,3430001091315,新規,0,2024-03-29,2024-03-29,株式会社拓世建設,,株式会社,北海道,札幌市中央区,南二十一条西１０丁目１番２７号,,01,101,0640921,,,,,,,2024-03-29,1,,,,,タクセイケンセツ,0
723,3430003016138,新規,0,2024-03-29,2024-03-29,合同会社Ｋａ　ｐｉｌｉｎａ,,合同会社,北海道,札幌市豊平区,月寒西四条７丁目３番６号,,01,105,0620024,,,,,,,2024-03-29,1,,,,,カピリナ,0
725,3460101007523,新規,0,2024-03-29,2024-03-29,株式会社ネクストクリエイト,,株式会社,北海道,帯広市,西二十条南５丁目２１－１４,,01,207,0802470,,,,,,,2024-03-29,1,,,,,ネクストクリエイト,0
727,3490003001877,新規,0,2024-03-29,2024-03-29,合同会社くう,,合同会社,高知県,高知市,北秦泉寺２８６－４,,39,201,7800022,,,,,,,2024-03-29,1,,,,,クウ,0
730,3500001025538,新規,0,2024-03-29,2024-03-29,株式会社ＥＫＹ,,株式会社,愛媛県,松山市,千舟町５丁目１番地６,,38,201,7900011,,,,,,,2024-03-29,1,,,,,イーケイワイ,0
733,3700150040623,新規,0,2024-03-29,2015-10-09,北俣地区環境保全会,,その他,山形県,酒田市,北俣字上中村２７,,06,204,9996741,,,,,,,2015-10-09,1,,,,,キタマタチクカンキヨウホゼンカイ,0
739,4010001243502,新規,0,2024-03-29,2024-03-29,安途商事株式会社,,株式会社,東京都,文京区,千石４丁目２６－２－５０２,,13,105,1120011,,,,,,,2024-03-29,1,,,,,アントショウジ,0
740,4010001243535,新規,0,2024-03-29,2024-03-29,株式会社ＧｅｎｅＭｏｔｉｏｎｓ,,株式会社,東京都,中央区,銀座１丁目２２番１１号銀座大竹ビジデンス２Ｆ,,13,102,1040061,,,,,,,2024-03-29,1,,,,,ジーンモーションズ,0
748,4010401181293,新規,0,2024-03-29,2024-03-29,株式会社タイム,,株式会社,東京都,港区,港南４丁目１番６号ウエストアーバン品川タワー１３０７,,13,103,1080075,,,,,,,2024-03-29,1,,,,,タイム,0
749,4010401181376,新規,0,2024-03-29,2024-03-29,セレブレーズ株式会社,,株式会社,東京都,港区,高輪１丁目４番２４号,,13,103,1080074,,,,,,,2024-03-29,1,,,,,セレブレーズ,0
765,4010901054973,新規,0,2024-03-29,2024-03-29,ＥＶＥマネジメント株式会社,,株式会社,東京都,世田谷区,砧８丁目２９番１４号,,13,112,1570073,,,,,,,2024-03-29,1,,,,,イーブイイーマネジメント,0
772,4011001160844,新規,0,2024-03-29,2024-03-29,アクアオーブ株式会社,,株式会社,東京都,渋谷区,道玄坂１丁目１０番８号,,13,113,1500043,,,,,,,2024-03-29,1,,,,,アクアオーブ,0
773,4011001160919,新規,0,2024-03-29,2024-03-29,株式会社嵐,,株式会社,東京都,渋谷区,恵比寿４丁目２０番３号恵比寿ガーデンプレイスタワー１８階,,13,113,1500013,,,,,,,2024-03-29,1,,,,,アラシ,0
775,4011005010442,新規,0,2024-03-29,2024-03-29,一般社団法人Ｊａｐａｎ　Ｅｖｅｎｔ　Ｓｏｃｉｅｔｙ,,その他の設立登記法人,東京都,渋谷区,渋谷３丁目５番１６号渋谷三丁目スクエアビル２Ｆ,,13,113,1500002,,,,,,,2024-03-29,1,,,,,ジャパンイベントソサイエティ,0
778,4011101106706,新規,0,2024-03-29,2024-03-29,株式会社ＳｔａｎｄＯｕｔ,,株式会社,東京都,新宿区,西新宿４丁目２１番２３号,,13,104,1600023,,,,,,,2024-03-29,1,,,,,スタンドアウト,0
780,4011105010986,新規,0,2024-03-29,2024-03-29,一般社団法人良貢会,,その他の設立登記法人,東京都,新宿区,歌舞伎町１丁目１６番５号７階,,13,104,1600021,,,,,,,2024-03-29,1,,,,,リョウコウカイ,0
783,4011303005111,新規,0,2024-03-29,2024-03-29,ＮｏｎＰａｎｙ合同会社,,合同会社,東京都,杉並区,堀ノ内２丁目４－１１－１０６,,13,115,1660013,,,,,,,2024-03-29,1,,,,,ノンパニー,0
792,4012703002945,新規,0,2024-03-29,2024-03-29,合同会社ディアゴ,,合同会社,東京都,西東京市,南町５丁目３－５サウスタウン２０１,,13,229,1880012,,,,,,,2024-03-29,1,,,,,ディアゴ,0
794,4013103001323,新規,0,2024-03-29,2024-03-29,合同会社Ｄａｒｉｎｇｔａｃｔ,,合同会社,東京都,あきる野市,山田６５３番地１２,,13,228,1900144,,,,,,,2024-03-29,1,,,,,デアリングタクト,0
796,4013303007070,新規,0,2024-03-29,2024-03-29,合同会社アーク・トロピカル,,合同会社,東京都,豊島区,目白１丁目４番１５番アーバンライフ目白エキマエ３号棟３０６号,,13,116,1710031,,,,,,,2024-03-29,1,,,,,アークトロピカル,0
797,4013305003588,新規,0,2024-03-29,2024-03-29,特定非営利活動法人東京都ローラースポーツ連盟,,その他の設立登記法人,東京都,豊島区,東池袋１丁目４４番１０号タイガースビル４０５号室,,13,116,1700013,,,,,,,2024-03-29,1,,,,,トウキョウトローラースポーツレンメイ,0
800,4020001156455,新規,0,2024-03-29,2024-03-29,榮興株式会社,,株式会社,神奈川県,横浜市中区,福富町西通１番地７セントレー横浜関内７０２号室,,14,104,2310042,,,,,,,2024-03-29,1,,,,,エイコウ,0
803,4020003025815,新規,0,2024-03-29,2024-03-29,ニッポン・マーケット・ジャパン合同会社,,合同会社,神奈川県,横浜市神奈川区,六角橋４丁目１７番１６－２号,,14,102,2210802,,,,,,,2024-03-29,1,,,,,ニッポンマーケットジャパン,0
816,4030001159457,新規,0,2024-03-29,2024-03-29,株式会社ベニネクスト,,株式会社,埼玉県,桶川市,東１丁目９番２１号,,11,231,3630013,,,,,,,2024-03-29,1,,,,,ベニネクスト,0
817,4030001159481,新規,0,2024-03-29,2024-03-29,株式会社Ｋ３,,株式会社,埼玉県,さいたま市南区,内谷１丁目２－２３,,11,108,3360034,,,,,,,2024-03-29,1,,,,,ケイスリー,0
818,4030001159498,新規,0,2024-03-29,2024-03-29,株式会社エミシアン,,株式会社,埼玉県,川口市,西川口５丁目１５番７号,,11,203,3320021,,,,,,,2024-03-29,1,,,,,エミシアン,0
819,4030001159507,新規,0,2024-03-29,2024-03-29,株式会社アーティーズ,,株式会社,埼玉県,南埼玉郡宮代町,本田４丁目５番２－２号,,11,442,3450827,,,,,,,2024-03-29,1,,,,,アーティーズ,0
820,4030003023933,新規,0,2024-03-29,2024-03-29,マエスティ合同会社,,合同会社,埼玉県,さいたま市大宮区,堀の内町１丁目２０６番地８号,,11,103,3300804,,,,,,,2024-03-29,1,,,,,マエスティ,0
827,4040001132751,新規,0,2024-03-29,2024-03-29,木山建設株式会社,,株式会社,千葉県,市川市,八幡２丁目３番１８号,,12,203,2720021,,,,,,,2024-03-29,1,,,,,キヤマケンセツ,0
828,4040001132850,新規,0,2024-03-29,2024-03-29,株式会社シフトファクトリー,,株式会社,千葉県,千葉市若葉区,御成台１丁目１６番地９,,12,104,2650077,,,,,,,2024-03-29,1,,,,,シフトファクトリー,0
829,4040001132859,新規,0,2024-03-29,2024-03-29,水代ホールディングス株式会社,,株式会社,千葉県,流山市,向小金３丁目１７９番地,,12,220,2700143,,,,,,,2024-03-29,1,,,,,ミズシロホールディングス,0
830,4040001132900,新規,0,2024-03-29,2024-03-29,株式会社ＷＯＬＦ,,株式会社,千葉県,浦安市,当代島１丁目１６番１９号大塚ビル５階,,12,227,2790001,,,,,,,2024-03-29,1,,,,,ウルフ,0
835,4040003024658,新規,0,2024-03-29,2024-03-29,Ｗｅｉｋ合同会社,,合同会社,千葉県,八千代市,八千代台北７丁目８番地４サンノーブル八千代台２番館２０２,,12,221,2760031,,,,,,,2024-03-29,1,,,,,ウエック,0
845,4050003008239,新規,0,2024-03-29,2024-03-29,合同会社Ｋ’Ｓ　ＲＵＮ,,合同会社,茨城県,常総市,水海道宝町２７０６－３イーストヴィラ３０２,,08,211,3030023,,,,,,,2024-03-29,1,,,,,ケーズラン,0
854,4060003005004,新規,0,2024-03-29,2024-03-29,ロスアルトスコンサルティング合同会社,,合同会社,栃木県,小山市,大字中島５１８,,09,208,3230156,,,,,,,2024-03-29,1,,,,,ロスアルトスコンサルティング,0
856,4070001041545,新規,0,2024-03-29,2024-03-29,株式会社Ｄｅｓｉｇｎ　ｏｆｆｉｃｅ６６,,株式会社,群馬県,前橋市,鼻毛石町２００番地５９,,10,201,3710244,,,,,,,2024-03-29,1,,,,,デザインオフィスロクロク,0
863,4090003002535,新規,0,2024-03-29,2024-03-29,合同会社きたりもん,,合同会社,山梨県,甲斐市,中下条１１１０－１ゴルフプラッツ４０５,,19,210,4000124,,,,,,,2024-03-29,1,,,,,キタリモン,0
864,4110001038280,新規,0,2024-03-29,2024-03-29,株式会社ＦＲＯＮＴＬＩＮＥ,,株式会社,新潟県,上越市,大字下荒浜８１５番地３６,,15,222,9420022,,,,,,,2024-03-29,1,,,,,フロントライン,0
877,4120001263547,新規,0,2024-03-29,2024-03-29,株式会社ジェニュインヒデト,,株式会社,大阪府,門真市,本町４３番７号,,27,223,5710046,,,,,,,2024-03-29,1,,,,,ジェニュインヒデト,0
878,4120001263563,新規,0,2024-03-29,2024-03-29,ＸＺＴ株式会社,,株式会社,大阪府,大阪市住之江区,御崎１丁目１１番１９－１０１号,,27,125,5590013,,,,,,,2024-03-29,1,,,,,エックスゼットティー,0
879,4120001263588,新規,0,2024-03-29,2024-03-29,アークレグルス株式会社,,株式会社,大阪府,守口市,大日町１丁目３番１９号,,27,209,5700003,,,,,,,2024-03-29,1,,,,,アークレグルス,0
880,4120001263613,新規,0,2024-03-29,2024-03-29,株式会社ＫＡＩＫＥＮ,,株式会社,大阪府,大阪市北区,梅田１丁目２番２号大阪駅前第２ビル１２－１２,,27,127,5300001,,,,,,,2024-03-29,1,,,,,カイケン,0
885,4120103005748,新規,0,2024-03-29,2024-03-29,合同会社ＬＥＯＮＥ,,合同会社,大阪府,堺市堺区,翁橋町１丁１０番１３号－６０２号,,27,141,5900061,,,,,,,2024-03-29,1,,,,,レオーネ,0
895,4130001076691,新規,0,2024-03-29,2024-03-29,株式会社京西,,株式会社,京都府,京都市伏見区,深草泓ノ壺町１６番地３４スペリオン伏見４０８号,,26,109,6128435,,,,,,,2024-03-29,1,,,,,キョウサイ,0
898,4130005017048,新規,0,2024-03-29,2024-03-29,一般社団法人カルマテッシュウリン,,その他の設立登記法人,京都府,京都市中京区,衣棚通竹屋町上る玉植町２４１番地,00134244,26,104,6040005,,,,,,,2024-03-29,1,,,,,カルマテッシュウリン,0
901,4140001133863,新規,0,2024-03-29,2024-03-29,ワンセブンホールディングス株式会社,,株式会社,兵庫県,神戸市中央区,波止場町６番１７号,,28,110,6500042,,,,,,,2024-03-29,1,,,,,ワンセブンホールディングス,0
902,4140001133888,新規,0,2024-03-29,2024-03-29,Ｔａｔｓｕ・アセット株式会社,,株式会社,兵庫県,姫路市,御立西３丁目１４番２０号,,28,201,6700074,,,,,,,2024-03-29,1,,,,,タツアセット,0
911,4180001160796,新規,0,2024-03-29,2024-03-29,株式会社ＣａｐｉｔａｌＣｏｎｎｅｃｔ,,株式会社,愛知県,名古屋市東区,泉１丁目１１番６号ミソカビル１階,,23,102,4610001,,,,,,,2024-03-29,1,,,,,キャピタルコネクト,0
916,4190003004629,新規,0,2024-03-29,2024-03-29,合同会社さとちゃん家,,合同会社,三重県,員弁郡東員町,大字長深２９３３番地１,,24,324,5110255,,,,,,,2024-03-29,1,,,,,サトチャンチ,0
920,4220005008822,新規,0,2024-03-29,2024-03-29,一般社団法人里山創建,,その他の設立登記法人,石川県,七尾市,国分町ヤ部５８番地,,17,202,9260821,,,,,,,2024-03-29,1,,,,,サトヤマソウケン,0
922,4230001020268,新規,0,2024-03-29,2024-03-29,ｎｖｍ株式会社,,株式会社,富山県,富山市,桜橋通り３番１号富山電気ビルディング本館２Ｆ,,16,201,9300004,,,,,,,2024-03-29,1,,,,,エヌヴイエム,0
933,4250003003467,新規,0,2024-03-29,2024-03-29,合同会社ＲｏＤＨ,,合同会社,山口県,山口市,湯田温泉１丁目１０－１９－２階,,35,203,7530056,,,,,,,2024-03-29,1,,,,,ロード,0
937,4290001105261,新規,0,2024-03-29,2024-03-29,株式会社Ｂａｓｉｃ９スタジオ,,株式会社,福岡県,福岡市中央区,薬院２丁目３番３０号ＣＡＳＥＢＬＤＧ２０２,,40,133,8100022,,,,,,,2024-03-29,1,,,,,ベーシックナインスタジオ,0
944,4300001013660,新規,0,2024-03-29,2024-03-29,新時代株式会社,,株式会社,佐賀県,神埼市,千代田町直鳥３２０番地１,,41,210,8420053,,,,,,,2024-03-29,1,,,,,シンジダイ,0
963,4340003004415,新規,0,2024-03-29,2024-03-29,合同会社アップル,,合同会社,鹿児島県,鹿児島市,郡元１丁目４番２４号レジデンス川路２０６号,,46,201,8900065,,,,,,,2024-03-29,1,,,,,アップル,0
969,4410001013773,新規,0,2024-03-29,2024-03-29,株式会社ＪＡＤＯ,,株式会社,秋田県,秋田市,東通１丁目８番５号アルカサーノ駅東２Ｇ,,05,201,0100003,,,,,,,2024-03-29,1,,,,,ジャドー,0
978,4430003016145,新規,0,2024-03-29,2024-03-29,合同会社ティ・エフ企画,,合同会社,北海道,札幌市中央区,南十二条西２３丁目１番１７－１００１号,,01,101,0640912,,,,,,,2024-03-29,1,,,,,ティエフキカク,0
987,4470001020104,新規,0,2024-03-29,2024-03-29,株式会社Ｇｙｍ　ｌｅａｄ,,株式会社,香川県,高松市,太田上町６２８番地１,,37,201,7618074,,,,,,,2024-03-29,1,,,,,ジムリード,0
989,4470003002612,新規,0,2024-03-29,2024-03-29,惠合同会社,,合同会社,香川県,坂出市,川津町３７９８番地１,,37,203,7620025,,,,,,,2024-03-29,1,,,,,メグミ,0
993,4500003003210,新規,0,2024-03-29,2024-03-29,合同会社タノクボ機工,,合同会社,愛媛県,東温市,田窪１８１８,,38,215,7910212,,,,,,,2024-03-29,1,,,,,タノクボキコウ,0
996,5010001243476,新規,0,2024-03-29,2024-03-29,株式会社上野隆博事務所,,株式会社,東京都,中央区,日本橋室町１丁目１０番１号宮永ビル５Ｆ,,13,102,1030022,,,,,,,2024-03-29,1,,,,,ウエノタカヒロジムショ,0
997,5010001243484,新規,0,2024-03-29,2024-03-29,ＣＬＩＰＰＲＯＶＥ　ＪＡＰＡＮ株式会社,,株式会社,東京都,中央区,銀座８丁目１８番３号加藤ビル６階,,13,102,1040061,,,,,,,2024-03-29,1,,,,,クリップルブジャパン,0
998,5010001243518,新規,0,2024-03-29,2024-03-29,Ｇｉｎｚａ　Ｉｋｅｄａ　Ｃｏｓｍｅｔｉｃｓ株式会社,,株式会社,東京都,中央区,銀座２丁目１５番１０号,,13,102,1040061,,,,,,,2024-03-29,1,,,,,ギンザイケダコスメティックス,0
999,5010001243559,新規,0,2024-03-29,2024-03-29,株式会社みらい,,株式会社,東京都,千代田区,麹町３丁目２番地１３ＴＨＥ千代田麹町ＴＯＷＥＲ５０１号,,13,101,1020083,,,,,,,2024-03-29,1,,,,,ミライ,0
1003,5010003042942,新規,0,2024-03-29,2024-03-29,ＳＵＩＳＥＮ合同会社,,合同会社,東京都,文京区,白山２丁目１４番１３号,,13,105,1120001,,,,,,,2024-03-29,1,,,,,スイセン,0
1005,5010005038105,新規,0,2024-03-29,2024-03-29,一般社団法人ＵＩ湖南Ｉ,,その他の設立登記法人,東京都,中央区,八丁堀４丁目２番１０号ＡＯＪ税理士法人内,,13,102,1040032,,,,,,,2024-03-29,1,,,,,ユーアイコナンイチ,0
1020,5010401181359,新規,0,2024-03-29,2024-03-29,株式会社ギャバン,,株式会社,東京都,港区,北青山１丁目３番１号アールキューブ青山３階,,13,103,1070061,,,,,,,2024-03-29,1,,,,,ギャバン,0
1021,5010401181375,新規,0,2024-03-29,2024-03-29,株式会社弥右ェ門,,株式会社,東京都,港区,白金６丁目１２番３０号ハウス庄川２０２号室,,13,103,1080072,,,,,,,2024-03-29,1,,,,,ヤエモン,0
1022,5010401181400,新規,0,2024-03-29,2024-03-29,株式会社Ｓｋｙ　Ｓｔａｒ,,株式会社,東京都,港区,新橋４丁目２１番８号４階,,13,103,1050004,,,,,,,2024-03-29,1,,,,,スカイスター,0
1028,5010501052014,新規,0,2024-03-29,2024-03-29,桃花源株式会社,,株式会社,東京都,台東区,根岸２丁目１－９小島ビル３０３室,,13,106,1100003,,,,,,,2024-03-29,1,,,,,トウカゲン,0
1031,5010605004308,新規,0,2024-03-29,2024-03-29,医療法人社団修誠会,,その他の設立登記法人,東京都,江東区,新砂３丁目１番９号１階,,13,108,1360075,,,,,,,2024-03-29,1,,,,,シュウセイカイ,0
1040,5011001160892,新規,0,2024-03-29,2024-03-29,株式会社神天地,,株式会社,東京都,渋谷区,渋谷２丁目１９－１５宮益坂ビルディング６０９,,13,113,1500002,,,,,,,2024-03-29,1,,,,,シンテンチ,0
1041,5011001160934,新規,0,2024-03-29,2024-03-29,株式会社うのき情報,,株式会社,東京都,渋谷区,渋谷２丁目１９－１５宮益坂ビルディング６０９,,13,113,1500002,,,,,,,2024-03-29,1,,,,,ウノキジョウホウ,0
1042,5011001160959,新規,0,2024-03-29,2024-03-29,株式会社ＴＧＩ　Ｃｏｒｐｏｒａｔｉｏｎ,,株式会社,東京都,目黒区,青葉台３丁目１番１ザ・パークハビオ渋谷クロス９１７号,,13,110,1530042,,,,,,,2024-03-29,1,,,,,ティージーアイコーポレーション,0
1043,5011001160991,新規,0,2024-03-29,2024-03-29,星遠商事株式会社,,株式会社,東京都,渋谷区,広尾５丁目４番１２号大成鋼機ビル５１２号室,,13,113,1500012,,,,,,,2024-03-29,1,,,,,セイエンショウジ,0
1045,5011003018676,新規,0,2024-03-29,2024-03-29,合同会社花,,合同会社,東京都,渋谷区,神宮前６丁目２３番４号桑野ビル２階,,13,113,1500001,,,,,,,2024-03-29,1,,,,,ハナ,0
1050,5011101106754,新規,0,2024-03-29,2024-03-29,佐佑株式会社,,株式会社,東京都,新宿区,四谷三栄町１２番４４号東洋四谷ビルＢ１－９号室,,13,104,1600008,,,,,,,2024-03-29,1,,,,,サユウ,0
1054,5011105010985,新規,0,2024-03-29,2024-03-29,特定非営利活動法人校外プログラム大全,,その他の設立登記法人,東京都,新宿区,西早稲田２丁目１８番２５号ＵＳｈａｒｅ西早稲田Ｂ１Ｆ,,13,104,1690051,,,,,,,2024-03-29,1,,,,,コウガイプログラムタイゼン,0
1055,5011301029524,新規,0,2024-03-29,2024-03-29,株式会社ＨＳＢｅ,,株式会社,東京都,杉並区,阿佐谷南３丁目１６－２,,13,115,1660004,,,,,,,2024-03-29,1,,,,,エイチエスビー,0
1057,5011501030439,新規,0,2024-03-29,2024-03-29,株式会社ユートピア,,株式会社,東京都,北区,堀船３丁目２４－４梶原銀座ビル４ＦＤ－０１,,13,117,1140004,,,,,,,2024-03-29,1,,,,,ユートピア,0
1058,5011501030488,新規,0,2024-03-29,2024-03-29,天永株式会社,,株式会社,東京都,北区,堀船３丁目２４－４－１０２,,13,117,1140004,,,,,,,2024-03-29,1,,,,,テンエイ,0
1071,5012401041690,新規,0,2024-03-29,2024-03-29,アセットゲート株式会社,,株式会社,東京都,調布市,入間町２丁目２８－１６－５１４,,13,208,1820004,,,,,,,2024-03-29,1,,,,,アセットゲート,0
1073,5012703002944,新規,0,2024-03-29,2024-03-29,まごのてケア合同会社,,合同会社,東京都,東村山市,久米川町５丁目１１番３９号,,13,213,1890003,,,,,,,2024-03-29,1,,,,,マゴノテケア,0
1077,5013303007045,新規,0,2024-03-29,2024-03-29,ＢｅａｒＤｏｗｎ合同会社,,合同会社,東京都,豊島区,池袋３丁目１６－１３ビリーハウス３０３,,13,116,1710014,,,,,,,2024-03-29,1,,,,,ベアダウン,0
1078,5013305003587,新規,0,2024-03-29,2024-03-29,東京住宅設備協同組合,,その他の設立登記法人,東京都,豊島区,東池袋３丁目２１番２１号ヴァンガードタワー２７１１,,13,116,1700013,,,,,,,2024-03-29,1,,,,,トウキョウジュウタクセツビ,0
1082,5020001156454,新規,0,2024-03-29,2024-03-29,株式会社ＮＩＴホールディングス,,株式会社,神奈川県,横浜市南区,別所３丁目１２番１３号上大岡パーク・ホームズ弐番館３０９号,,14,105,2320064,,,,,,,2024-03-29,1,,,,,エヌアイティーホールディングス,0
1083,5020001156462,新規,0,2024-03-29,2024-03-29,株式会社ＭｅｄＳｙｎｃ,,株式会社,神奈川県,横浜市泉区,和泉町７７０番地１アンジュ１０２号,,14,116,2450016,,,,,,,2024-03-29,1,,,,,メドシンク,0
1084,5020001156495,新規,0,2024-03-29,2024-03-29,株式会社ＰＲＯＦＵＮＤＯ,,株式会社,神奈川県,横浜市青葉区,鴨志田町５６９番地１グリーンヒル鴨志田西団地２６棟３０７号,,14,117,2270033,,,,,,,2024-03-29,1,,,,,プロファウンド,0
1088,5020003025822,新規,0,2024-03-29,2024-03-29,サンタクス合同会社,,合同会社,神奈川県,横浜市港北区,新吉田東６丁目４３－５,,14,109,2230058,,,,,,,2024-03-29,1,,,,,サンタクス,0
1098,5030001159456,新規,0,2024-03-29,2024-03-29,株式会社ＢＬＵＥ　ＥＤＧＥ　ＰＡＲＴＮＥＲＳ,,株式会社,埼玉県,深谷市,東方町１丁目９番地１６,,11,218,3660042,,,,,,,2024-03-29,1,,,,,ブルーエッジパートナーズ,0
1099,5030001159464,新規,0,2024-03-29,2024-03-29,株式会社彩重機エンジニアリング,,株式会社,埼玉県,熊谷市,中奈良２９２番地１,,11,202,3600801,,,,,,,2024-03-29,1,,,,,サイジュウキエンジニアリング,0
1103,5030003023932,新規,0,2024-03-29,2024-03-29,ＲＡＧＯＵＴ合同会社,,合同会社,埼玉県,さいたま市浦和区,領家２丁目４－１０,,11,107,3300072,,,,,,,2024-03-29,1,,,,,ラグー,0
1110,5040001132916,新規,0,2024-03-29,2024-03-29,Ａｎｉｉｉ株式会社,,株式会社,千葉県,松戸市,本町１７－１１芹澤ビル６Ｆ,,12,207,2710091,,,,,,,2024-03-29,1,,,,,アニー,0
1114,5040003024640,新規,0,2024-03-29,2024-03-29,合同会社ａｓｓｏｒｔ,,合同会社,千葉県,館山市,北条１８８０番地１房州第一ビル５Ｆ,,12,205,2940045,,,,,,,2024-03-29,1,,,,,アソート,0
1115,5040003024657,新規,0,2024-03-29,2024-03-29,合同会社高田,,合同会社,千葉県,柏市,塚崎８０６－４,,12,217,2770923,,,,,,,2024-03-29,1,,,,,タカタ,0
1116,5040003024665,新規,0,2024-03-29,2024-03-29,合同会社ＳＫインテリア,,合同会社,千葉県,千葉市若葉区,西都賀４丁目２番１９号アイキョーライブリービル２０２号,,12,104,2640026,,,,,,,2024-03-29,1,,,,,エスケーインテリア,0
1118,5050003008238,新規,0,2024-03-29,2024-03-29,合同会社厚河,,合同会社,茨城県,北相馬郡利根町,大字布川２５７７番地１２,,08,564,3001622,,,,,,,2024-03-29,1,,,,,コウガ,0
1121,5070001041552,新規,0,2024-03-29,2024-03-29,株式会社Ａ‐ｐｌｉｓｈ,,株式会社,群馬県,前橋市,元総社町１６０９番地,,10,201,3710846,,,,,,,2024-03-29,1,,,,,エープリッシュ,0
1143,5120001263562,新規,0,2024-03-29,2024-03-29,日本経済出版株式会社,,株式会社,大阪府,大阪市淀川区,西中島３丁目８番１５号,,27,123,5320011,,,,,,,2024-03-29,1,,,,,ニホンケイザイシュッパン,0
1144,5120001263595,新規,0,2024-03-29,2024-03-29,株式会社アクア・ジャパン・プロジェクト,,株式会社,大阪府,大阪市生野区,小路東４丁目３番３号,,27,116,5440003,,,,,,,2024-03-29,1,,,,,アクアジャパンプロジェクト,0
1146,5120003026249,新規,0,2024-03-29,2024-03-29,ａｌｌｏｎｓ合同会社,,合同会社,大阪府,大阪市福島区,鷺洲２丁目５番３０－１６０１号,,27,103,5530002,,,,,,,2024-03-29,1,,,,,アロン,0
1147,5120005024226,新規,0,2024-03-29,2024-03-29,一般社団法人１００年ライフビジネス協会,,その他の設立登記法人,大阪府,門真市,末広町４３番１号,,27,223,5710030,,,,,,,2024-03-29,1,,,,,ヒャクネンライフビジネスキョウカイ,0
1149,5120101069315,新規,0,2024-03-29,2024-03-29,Ｃｒｏｓｓ　Ｒｏａｄ株式会社,,株式会社,大阪府,松原市,天美我堂７丁目５３７－２池本コンパクトオフィスＣ号,,27,217,5800026,,,,,,,2024-03-29,1,,,,,クロスロード,0
1150,5120901048971,新規,0,2024-03-29,2024-03-29,株式会社舶フーズ,,株式会社,大阪府,豊中市,庄内東町１丁目８番５号,,27,203,5610831,,,,,,,2024-03-29,1,,,,,ハクフーズ,0
1153,5122001037954,新規,0,2024-03-29,2024-03-29,株式会社ＭＳＫ,,株式会社,大阪府,八尾市,八尾木５丁目１６１番,,27,212,5810027,,,,,,,2024-03-29,1,,,,,エムエスケー,0
1155,5130001076699,新規,0,2024-03-29,2024-03-29,株式会社青翔,,株式会社,京都府,京都市北区,鷹峯旧土居町１番地２２２,,26,101,6038448,,,,,,,2024-03-29,1,,,,,アオショウ,0
1157,5130005017047,新規,0,2024-03-29,2024-03-29,特定非営利活動法人Ｙｕｂｕｎｅ,,その他の設立登記法人,京都府,相楽郡和束町,大字湯船小字五ノ瀬２５０番地,,26,365,6191203,,,,,,,2024-03-29,1,,,,,ユブネ,0
1163,5140001133887,新規,0,2024-03-29,2024-03-29,株式会社ＮｏＡ,,株式会社,兵庫県,尼崎市,久々知３丁目１２番９４号,,28,202,6610977,,,,,,,2024-03-29,1,,,,,ノア,0
1164,5140001133895,新規,0,2024-03-29,2024-03-29,セイコー株式会社,,株式会社,兵庫県,西宮市,山口町上山口１丁目１９番３６号,,28,204,6511421,,,,,,,2024-03-29,1,,,,,セイコー,0
1170,5160001025785,新規,0,2024-03-29,2024-03-29,株式会社ＡＬＫＬＴ,,株式会社,滋賀県,彦根市,竹ケ鼻町３１９番地４,,25,202,5220044,,,,,,,2024-03-29,1,,,,,アラカルト,0
1175,5180001160779,新規,0,2024-03-29,2024-03-29,井上ホールディングス株式会社,,株式会社,愛知県,名古屋市緑区,篭山２丁目１０４番地,,23,114,4580007,,,,,,,2024-03-29,1,,,,,イノウエホールディングス,0
1181,5190003004628,新規,0,2024-03-29,2024-03-29,エンディングカットピュア合同会社,,合同会社,三重県,員弁郡東員町,笹尾西２丁目２５番６,,24,324,5110231,,,,,,,2024-03-29,1,,,,,エンディングカットピュア,0
1186,5230001020267,新規,0,2024-03-29,2024-03-29,株式会社はせがわ,,株式会社,富山県,高岡市,上関１１０８番地３,,16,202,9330851,,,,,,,2024-03-29,1,,,,,ハセガワ,0
1190,5230005009372,新規,0,2024-03-29,2024-03-29,一般社団法人相倉活性化プロジェクト,,その他の設立登記法人,富山県,南砺市,相倉４２１番地,,16,210,9391915,,,,,,,2024-03-29,1,,,,,アイノクラカッセイカプロジェクト,0
1199,5260001038901,新規,0,2024-03-29,2024-03-29,株式会社ＤＹＯＮ,,株式会社,岡山県,岡山市北区,奉還町１丁目１１番８号ポレスターガーデンシティ清心１３０２号,,33,101,7000026,,,,,,,2024-03-29,1,,,,,ディオン,0
1200,5270005005582,新規,0,2024-03-29,2024-03-29,労働者協同組合ＢａｒｒｉｅｒＨｏｕｓｅＰｒｏｊｅｃｔＹＡＺＵ,,その他の設立登記法人,鳥取県,八頭郡八頭町,安井宿１１７４,,31,329,6800521,,,,,,,2024-03-29,1,,,,,バリアハウスプロジェクトヤズ,0
1205,5290003015128,新規,0,2024-03-29,2024-03-29,合同会社アソウ,,合同会社,福岡県,福岡市東区,原田１丁目２番－７,,40,131,8120063,,,,,,,2024-03-29,1,,,,,アソウ,0
1206,5290003015144,新規,0,2024-03-29,2024-03-29,合同会社Ｋｏｍｐａｓｓ　Ｌａｂ．,,合同会社,福岡県,福岡市中央区,天神４丁目６‐２８天神ファーストビル７階,,40,133,8100001,,,,,,,2024-03-29,1,,,,,コンパスラボ,0
1224,5360001033405,新規,0,2024-03-29,2024-03-29,株式会社日縁ホールディングス,,株式会社,沖縄県,沖縄市,松本５丁目１１番３号,,47,211,9042151,,,,,,,2024-03-29,1,,,,,ニチエンホールディングス,0
1230,5380001034392,新規,0,2024-03-29,2024-03-29,アイパルグループ株式会社,,株式会社,福島県,いわき市,泉滝尻２丁目２７番地の１０,,07,204,9718189,,,,,,,2024-03-29,1,,,,,アイパルグループ,0
1246,5430003016152,新規,0,2024-03-29,2024-03-29,ハートエンタープライズ合同会社,,合同会社,北海道,札幌市中央区,界川２丁目７－１５,,01,101,0640943,,,,,,,2024-03-29,1,,,,,ハートエンタープライズ,0
1256,5460101007521,新規,0,2024-03-29,2024-03-29,株式会社ＣＩＳファーム,,株式会社,北海道,河東郡鹿追町,幌内西２４線２８番地１５,,01,634,0810227,,,,,,,2024-03-29,1,,,,,シーアイエスファーム,0
1258,5480005007013,新規,0,2024-03-29,2024-03-29,特定非営利活動法人Ｃｏｌｏｒｓ,,その他の設立登記法人,徳島県,板野郡北島町,新喜来字南ハリ３２番地７,,36,402,7710207,,,,,,,2024-03-29,1,,,,,カラーズ,0
1260,5700150124647,新規,0,2024-03-29,2024-03-29,不動土地改良区,,その他,徳島県,徳島市,不動西町４丁目１９７３－５,,36,201,7700064,,,,,,,2024-03-29,1,,,,,フドウトチカイリヨウク,0
1265,6010001242956,新規,0,2024-03-29,2024-03-29,株式会社ＡＩ　ＳＴＵＤＩＯ,,株式会社,東京都,中央区,銀座１丁目１２番４号Ｎ＆ＥＢＬＤ．６Ｆ,,13,102,1040061,,,,,,,2024-03-29,1,,,,,エーアイスタジオ,0
1266,6010001243500,新規,0,2024-03-29,2024-03-29,株式会社オリジナル,,株式会社,東京都,中央区,日本橋室町１丁目５番２号東洋ビル５階,,13,102,1030022,,,,,,,2024-03-29,1,,,,,オリジナル,0
1281,6010403032286,新規,0,2024-03-29,2024-03-29,合同会社ＨＩＲＯ＆ＰＡＲＴＮＥＲＳ,,合同会社,東京都,港区,高輪４丁目２３番６号ハイホーム高輪７０８,,13,103,1080074,,,,,,,2024-03-29,1,,,,,ヒロアンドパートナーズ,0
1282,6010403032294,新規,0,2024-03-29,2024-03-29,ＣＳＴ　Ｊａｐａｎ合同会社,,合同会社,東京都,港区,港南２丁目１５番１号品川インターシティＡ棟,,13,103,1080075,,,,,,,2024-03-29,1,,,,,シーエスティージャパン,0
1284,6010501052005,新規,0,2024-03-29,2024-03-29,アルチザンファクトリー株式会社,,株式会社,東京都,台東区,上野５丁目９番４号２ｋ５４０、Ｂ－１、ＳＴＵＤＩＵＭ,,13,106,1100005,,,,,,,2024-03-29,1,,,,,アルチザンファクトリー,0
1289,6010603010728,新規,0,2024-03-29,2024-03-29,ＰＬＡＮＴＥＣＨ合同会社,,合同会社,東京都,江東区,常盤２丁目１０－９－８０２,,13,108,1350006,,,,,,,2024-03-29,1,,,,,プランテック,0
1290,6010603010736,新規,0,2024-03-29,2024-03-29,ＭＡ　ＦＬＥＵＲ合同会社,,合同会社,東京都,江東区,亀戸６丁目３１番２－２４１１号,,13,108,1360071,,,,,,,2024-03-29,1,,,,,マフルール,0
1298,6010903008934,新規,0,2024-03-29,2024-03-29,合同会社ＲＥＶＯＳＴ,,合同会社,東京都,世田谷区,船橋１丁目５番１１号コーター１０１,,13,112,1560055,,,,,,,2024-03-29,1,,,,,レボスト,0
1302,6011001160875,新規,0,2024-03-29,2024-03-29,倭文貿易株式会社,,株式会社,東京都,渋谷区,代官山町８－７,,13,113,1500034,,,,,,,2024-03-29,1,,,,,シズボウエキ,0
1303,6011001160883,新規,0,2024-03-29,2024-03-29,ＡＩＦＩＴ国際株式会社,,株式会社,東京都,渋谷区,千駄ヶ谷１丁目２８番８号２０８室,,13,113,1510051,,,,,,,2024-03-29,1,,,,,アイフィットコクサイ,0
1304,6011001160933,新規,0,2024-03-29,2024-03-29,パサージュ株式会社,,株式会社,東京都,目黒区,青葉台３丁目７－１７ソプラタワー１６０４,,13,110,1530042,,,,,,,2024-03-29,1,,,,,パサージュ,0
1306,6011005010440,新規,0,2024-03-29,2024-03-29,ＮＰＯ法人フードバンク目黒,,その他の設立登記法人,東京都,目黒区,上目黒４丁目１８番２５号,,13,110,1530051,,,,,,,2024-03-29,1,,,,,フードバンクメグロ,0
1310,6011101106753,新規,0,2024-03-29,2024-03-29,株式会社誠豊国際,,株式会社,東京都,新宿区,西新宿３丁目１８－２－１０１,,13,104,1600023,,,,,,,2024-03-29,1,,,,,セイホウコクサイ,0
1312,6011301029531,新規,0,2024-03-29,2024-03-29,株式会社Ｋカリカ,,株式会社,東京都,杉並区,久我山２丁目１２－７マルスズ,,13,115,1680082,,,,,,,2024-03-29,1,,,,,ケーカリカ,0
1320,6011803006152,新規,0,2024-03-29,2024-03-29,合同会社Ｂ　ＰＡＲＫ,,合同会社,東京都,葛飾区,亀有５丁目５番１４号ホワイトコート１０１,,13,122,1250061,,,,,,,2024-03-29,1,,,,,ビーパーク,0
1322,6012401041673,新規,0,2024-03-29,2024-03-29,株式会社ゆず,,株式会社,東京都,小金井市,貫井南町１丁目５番１号,,13,210,1840014,,,,,,,2024-03-29,1,,,,,ユズ,0
1325,6013103001321,新規,0,2024-03-29,2024-03-29,ＭＡＹ合同会社,,合同会社,東京都,福生市,武蔵野台１丁目３番地２センチュリーヒルズ３０１号室,,13,218,1970013,,,,,,,2024-03-29,1,,,,,,0
1335,6020003025838,新規,0,2024-03-29,2024-03-29,合同会社シューティングバーパラダイスＭ４,,合同会社,神奈川県,横浜市中区,福富町仲通３４番地国際ビル３０１,,14,104,2310043,,,,,,,2024-03-29,1,,,,,シューティングバーパラダイスエムフォー,0
1347,6030001159447,新規,0,2024-03-29,2024-03-29,株式会社カイト,,株式会社,埼玉県,さいたま市見沼区,大字南中丸８６０番地１,,11,104,3370041,,,,,,,2024-03-29,1,,,,,カイト,0
1348,6030001159488,新規,0,2024-03-29,2024-03-29,株式会社白くま,,株式会社,埼玉県,蕨市,南町３丁目１７番１６号マーブルコレクション３０２,,11,223,3350003,,,,,,,2024-03-29,1,,,,,シロクマ,0
1366,6040003024648,新規,0,2024-03-29,2024-03-29,合同会社ＳＨ　ＭＯＢＩＬＥ,,合同会社,千葉県,船橋市,若松２丁目６番１棟２４４号,,12,204,2730013,,,,,,,2024-03-29,1,,,,,エスエッチモバイル,0
1367,6040003024656,新規,0,2024-03-29,2024-03-29,合同会社いつとき,,合同会社,千葉県,流山市,三輪野山１丁目９６３番地の１１,,12,220,2700175,,,,,,,2024-03-29,1,,,,,イツトキ,0
1369,6050003008220,新規,0,2024-03-29,2024-03-29,華龍合同会社,,合同会社,茨城県,水戸市,見川町２１３１番地の１４８５,,08,201,3100913,,,,,,,2024-03-29,1,,,,,カリュウ,0
1370,6050003008229,新規,0,2024-03-29,2024-03-29,ＧＵＶＥＮ合同会社,,合同会社,茨城県,つくば市,南中妻３７７番１５号,,08,220,3050065,,,,,,,2024-03-29,1,,,,,ギュヴェン,0
1375,6060001036940,新規,0,2024-03-29,2024-03-29,株式会社戸開,,株式会社,栃木県,小山市,天神町１丁目２番２８号,,09,208,3230032,,,,,,,2024-03-29,1,,,,,トビラキ,0
1376,6060001036957,新規,0,2024-03-29,2024-03-29,株式会社アプロ開発,,株式会社,栃木県,宇都宮市,竹林町４３３番地１ル・ボヌール２０２,,09,201,3210974,,,,,,,2024-03-29,1,,,,,アプロカイハツ,0
1378,6060003005002,新規,0,2024-03-29,2024-03-29,ノトス合同会社,,合同会社,栃木県,宇都宮市,細谷町６５４,,09,201,3200074,,,,,,,2024-03-29,1,,,,,ノトス,0
1379,6060005010181,新規,0,2024-03-29,2024-03-29,医療法人ＮａｒｕＭｅｄｉｃａｌ,,その他の設立登記法人,栃木県,宇都宮市,ゆいの杜６丁目２番２８号,,09,201,3213226,,,,,,,2024-03-29,1,,,,,ナルメディカル,0
1380,6070001041551,新規,0,2024-03-29,2024-03-29,株式会社とようけ,,株式会社,群馬県,太田市,藤阿久町９５１番地８,,10,205,3730034,,,,,,,2024-03-29,1,,,,,トヨウケ,0
1392,6100001037323,新規,0,2024-03-29,2024-03-29,株式会社プリマベラ,,株式会社,長野県,長野市,鬼無里２６４１－２,,20,201,3814301,,,,,,,2024-03-29,1,,,,,プリマベラ,0
1393,6100003007472,新規,0,2024-03-29,2024-03-29,合同会社横山果樹園,,合同会社,長野県,須坂市,大字井上２２７８番地,,20,207,3820045,,,,,,,2024-03-29,1,,,,,ヨコヤマカジュエン,0
1405,6120001263586,新規,0,2024-03-29,2024-03-29,株式会社ノヴァライト,,株式会社,大阪府,大阪市北区,大淀南２丁目１番１－３２０６号,,27,127,5310075,,,,,,,2024-03-29,1,,,,,ノヴァライト,0
1406,6120001263611,新規,0,2024-03-29,2024-03-29,Ｗｉｔｈ　Ｂｒｕｓｈ株式会社,,株式会社,大阪府,大阪市中央区,南久宝寺町３丁目４番１５号加藤ビル南館４０５,,27,128,5410058,,,,,,,2024-03-29,1,,,,,ウィズブラッシュ,0
1418,6120901048970,新規,0,2024-03-29,2024-03-29,株式会社Ｒｅ．ｒａｙｚｎｅｒ,,株式会社,大阪府,吹田市,原町２丁目７番５号,,27,205,5640004,,,,,,,2024-03-29,1,,,,,リレイズナー,0
1422,6122001037953,新規,0,2024-03-29,2024-03-29,樹生アーキ株式会社,,株式会社,大阪府,大東市,氷野３丁目３番１３号ヒノビル３Ｆ,,27,218,5740062,,,,,,,2024-03-29,1,,,,,イツキアーキ,0
1426,6130001076698,新規,0,2024-03-29,2024-03-29,株式会社Ｏａｓｉｓ,,株式会社,京都府,京都市下京区,松原通東入松原中之町４９７番地２０２,,26,106,6000000,,,,,,,2024-03-29,1,,,,,オアシス,0
1431,6140001133837,新規,0,2024-03-29,2024-03-29,株式会社ケーテック,,株式会社,兵庫県,赤穂市,東有年１３８５番地１,,28,212,6781185,,,,,,,2024-03-29,1,,,,,ケーテック,0
1433,6140003020356,新規,0,2024-03-29,2024-03-29,合同会社ｂｌｕｅ　ｓｋｙ　ｓｐｒｉｎｇ,,合同会社,兵庫県,神戸市垂水区,高丸４丁目７－２２,,28,108,6550016,,,,,,,2024-03-29,1,,,,,ブルースカイスプリング,0
1434,6160003003152,新規,0,2024-03-29,2024-03-29,Ｔｅｎ　Ｔｈｒｅｅ　Ｈｏｍｅ合同会社,,合同会社,滋賀県,長浜市,神前町４番８号グランブルー御坊東２０２号室,,25,203,5260052,,,,,,,2024-03-29,1,,,,,テンスリーホーム,0
1440,6180001160786,新規,0,2024-03-29,2024-03-29,株式会社ＭｇＧＴ,,株式会社,愛知県,名古屋市守山区,向台３丁目２０１番地の２,,23,113,4630036,,,,,,,2024-03-29,1,,,,,エムジージーティー,0
1447,6190003004627,新規,0,2024-03-29,2024-03-29,合同会社ストーリー,,合同会社,三重県,伊勢市,御薗町小林２１３２番地,,24,203,5160801,,,,,,,2024-03-29,1,,,,,ストーリー,0
1454,6200003006282,新規,0,2024-03-29,2024-03-29,合同会社未来トレーディング,,合同会社,岐阜県,安八郡安八町,森部字山之神７４番地,,21,383,5030114,,,,,,,2024-03-29,1,,,,,ミライトレーディング,0
1456,6210005010141,新規,0,2024-03-29,2024-03-29,一般社団法人灯明寺区有資産管理事務所,,その他の設立登記法人,福井県,福井市,灯明寺３丁目２３１５番地,,18,201,9100063,,,,,,,2024-03-29,1,,,,,トウミョウジクユウシサンカンリジムショ,0
1466,6250003003465,新規,0,2024-03-29,2024-03-29,Ｌ．Ｔ．Ｅ合同会社,,合同会社,山口県,山口市,糸米２丁目１１－２８アルケミラ糸米２０２,,35,203,7530079,,,,,,,2024-03-29,1,,,,,エルティーイー,0
1473,6260001038900,新規,0,2024-03-29,2024-03-29,株式会社Ｂｕｄｄｙ　Ａｕｔｏ,,株式会社,岡山県,岡山市北区,西古松６０３－９Ｃｕｏｒｅ７０３,,33,101,7000927,,,,,,,2024-03-29,1,,,,,バディオート,0
1482,6280005007602,新規,0,2024-03-29,2024-03-29,一般社団法人サポートセンターゆれは,,その他の設立登記法人,島根県,松江市,本郷町６番７号,,32,201,6900053,,,,,,,2024-03-29,1,,,,,サポートセンターユレハ,0
1484,6290001105227,新規,0,2024-03-29,2024-03-29,株式会社ライフテラス,,株式会社,福岡県,福岡市博多区,博多駅前４丁目１６番６号,,40,132,8120011,,,,,,,2024-03-29,1,,,,,ライフテラス,0
1497,6330003010288,新規,0,2024-03-29,2024-03-29,合同会社ティーエスエフ,,合同会社,熊本県,合志市,須屋１９３２番１－２０２号,,43,216,8611102,,,,,,,2024-03-29,1,,,,,,0
1500,6360001033412,新規,0,2024-03-29,2024-03-29,株式会社オール・エー,,株式会社,沖縄県,那覇市,識名２丁目５番１６号,,47,201,9020078,,,,,,,2024-03-29,1,,,,,オールエー,0
1506,6400001016602,新規,0,2024-03-29,2024-03-29,株式会社ヤナテック,,株式会社,岩手県,盛岡市,北天昌寺町１６番４５号,,03,201,0200136,,,,,,,2024-03-29,1,,,,,ヤナテック,0
1507,6400003003235,新規,0,2024-03-29,2024-03-29,合同会社青いペン,,合同会社,岩手県,盛岡市,浅岸２丁目２２番４５号,,03,201,0200801,,,,,,,2024-03-29,1,,,,,アオイペン,0
1513,6430001091411,新規,0,2024-03-29,2024-03-29,株式会社マリンテック,,株式会社,北海道,様似郡様似町,本町２丁目１１５番地,,01,608,0580026,,,,,,,2024-03-29,1,,,,,マリンテック,0
1515,6430003016143,新規,0,2024-03-29,2024-03-29,つきてらすジャパン合同会社,,合同会社,北海道,札幌市手稲区,西宮の沢四条４丁目１８番２２号,,01,109,0060004,,,,,,,2024-03-29,1,,,,,ツキテラスジャパン,0
1524,7010001243458,新規,0,2024-03-29,2024-03-29,新光エンタープライズ株式会社,,株式会社,東京都,中央区,日本橋蛎殻町１丁目５番６号,,13,102,1030014,,,,,,,2024-03-29,1,,,,,シンコウエンタープライズ,0
1525,7010001243499,新規,0,2024-03-29,2024-03-29,松澤株式会社,,株式会社,東京都,千代田区,神田駿河台２丁目１１－７－３０８,,13,101,1010062,,,,,,,2024-03-29,1,,,,,マツザワ,0
1526,7010001243557,新規,0,2024-03-29,2024-03-29,ＡＮＥＬＡ　ＳＰＡ株式会社,,株式会社,東京都,中央区,築地２丁目５－７ＡＣＮ築地二丁目ビル３階,,13,102,1040045,,,,,,,2024-03-29,1,,,,,アネラスパ,0
1527,7010003043344,新規,0,2024-03-29,2024-03-29,ＡＫＩＢＡＢＩＴ合同会社,,合同会社,東京都,千代田区,神田和泉町１番地６－１６ヤマトビル４０５,,13,101,1010024,,,,,,,2024-03-29,1,,,,,アキバビット,0
1537,7010401181381,新規,0,2024-03-29,2024-03-29,株式会社ＵＮＩＣＯＲＮＳ８,,株式会社,東京都,港区,南青山３丁目８番２７号,,13,103,1070062,,,,,,,2024-03-29,1,,,,,ユニコーンズエイト,0
1539,7010403032285,新規,0,2024-03-29,2024-03-29,ポイントトレード合同会社,,合同会社,東京都,港区,南青山３丁目１番３６号青山丸竹ビル６Ｆ,,13,103,1070062,,,,,,,2024-03-29,1,,,,,ポイントトレード,0
1540,7010403032302,新規,0,2024-03-29,2024-03-29,ＫＳＦ合同会社,,合同会社,東京都,港区,浜松町２丁目２番１５号浜松町ダイヤビル２Ｆ,,13,103,1050013,,,,,,,2024-03-29,1,,,,,ケイエスエフ,0
1549,7010701045757,新規,0,2024-03-29,2024-03-29,株式会社ＣＯＭＰＡＳＳ,,株式会社,東京都,品川区,平塚１丁目２－１６－５０２,,13,109,1420051,,,,,,,2024-03-29,1,,,,,コンパス,0
1551,7010901054979,新規,0,2024-03-29,2024-03-29,株式会社ＭＡＲＣＨ,,株式会社,東京都,世田谷区,桜丘２丁目７－２０,,13,112,1560054,,,,,,,2024-03-29,1,,,,,マーチ,0
1557,7011001160932,新規,0,2024-03-29,2024-03-29,株式会社ＤＡＣ,,株式会社,東京都,渋谷区,神泉町２０番２１号クロスシー渋谷神泉ビル７－１７,,13,113,1500045,,,,,,,2024-03-29,1,,,,,ディーエーシー,0
1558,7011001160940,新規,0,2024-03-29,2024-03-29,株式会社Ｐｒｏｏｆ　ｏｆ　Ｙｏｕｒ　Ｌｉｆｅ,,株式会社,東京都,渋谷区,道玄坂１丁目１０番８号渋谷道玄坂東急ビル２Ｆ－Ｃ,,13,113,1500043,,,,,,,2024-03-29,1,,,,,プルーフオブユアライフ,0
1560,7011003018740,新規,0,2024-03-29,2024-03-29,ＨＵＢ合同会社,,合同会社,東京都,目黒区,上目黒２丁目２５番１３号ＥＭＳＳ（エムス）東５０２,,13,110,1530051,,,,,,,2024-03-29,1,,,,,エイチュービー,0
1564,7011101106744,新規,0,2024-03-29,2024-03-29,株式会社モーダポリティカホールディングス,,株式会社,東京都,新宿区,西新宿３丁目９番３号第三梅村ビル５０２号室,,13,104,1600023,,,,,,,2024-03-29,1,,,,,モーダポリティカホールディングス,0
1565,7011101106752,新規,0,2024-03-29,2024-03-29,株式会社ＧｉｆｔｅｄＧｒｏｕｐ,,株式会社,東京都,新宿区,西新宿３丁目１１番１６号第２太閤ビル３－Ｂ,,13,104,1600023,,,,,,,2024-03-29,1,,,,,ギフテッドグループ,0
1570,7011303005109,新規,0,2024-03-29,2024-03-29,合同会社ワエリア,,合同会社,東京都,杉並区,高井戸東２丁目２９－２３,,13,115,1680072,,,,,,,2024-03-29,1,,,,,ワエリア,0
1574,7011503006006,新規,0,2024-03-29,2024-03-29,合同会社ＩＳプロモーティング,,合同会社,東京都,北区,赤羽１丁目７－９赤羽第一葉山ビル,,13,117,1150045,,,,,,,2024-03-29,1,,,,,アイエスプロモーティング,0
1577,7011701027159,新規,0,2024-03-29,2024-03-29,盈盛商事株式会社,,株式会社,東京都,江戸川区,北小岩６丁目１５－１８－２０５,,13,123,1330051,,,,,,,2024-03-29,1,,,,,エイセイショウジ,0
1583,7012403006483,新規,0,2024-03-29,2024-03-29,合同会社スリーエイト,,合同会社,東京都,三鷹市,牟礼２丁目６番５号アルティプラーノ２‐１０２,,13,204,1810002,,,,,,,2024-03-29,1,,,,,スリーエイト,0
1588,7013301052272,新規,0,2024-03-29,2024-03-29,株式会社ラース,,株式会社,東京都,豊島区,池袋２丁目４０－４トキワビル１階,,13,116,1710014,,,,,,,2024-03-29,1,,,,,ラース,0
1597,7020001156452,新規,0,2024-03-29,2024-03-29,株式会社キハル,,株式会社,神奈川県,横浜市旭区,小高町１７２番地２６,,14,112,2410015,,,,,,,2024-03-29,1,,,,,キハル,0
1598,7020001156485,新規,0,2024-03-29,2024-03-29,株式会社河野工業,,株式会社,神奈川県,川崎市川崎区,観音２丁目１０番７号,,14,131,2100831,,,,,,,2024-03-29,1,,,,,カワノコウギョウ,0
1599,7020001156510,新規,0,2024-03-29,2024-03-29,株式会社クロスウェーブ,,株式会社,神奈川県,横浜市青葉区,荏田北２丁目２０番地２９,,14,117,2250015,,,,,,,2024-03-29,1,,,,,クロスウェーブ,0
1601,7020003025837,新規,0,2024-03-29,2024-03-29,横浜研究開発合同会社,,合同会社,神奈川県,横浜市神奈川区,西神奈川１丁目８番地１３山崎ビル２階,,14,102,2210822,,,,,,,2024-03-29,1,,,,,ヨコハマケンキュウカイハツ,0
1605,7030001005344,新規,0,2024-03-29,2024-03-29,田代建設株式会社,,株式会社,埼玉県,さいたま市大宮区,宮町１丁目３５番地２,,11,103,3300802,,,,,,,2024-03-29,1,,,,,タシロケンセツ,0
1612,7030003023930,新規,0,2024-03-29,2024-03-29,テイルウインド合同会社,,合同会社,埼玉県,さいたま市大宮区,桜木町２丁目３番地大宮マルイ７階,,11,103,3300854,,,,,,,2024-03-29,1,,,,,テイルウインド,0
1616,7040001132872,新規,0,2024-03-29,2024-03-29,株式会社ルシェロ,,株式会社,千葉県,柏市,南逆井４丁目１番１９号,,12,217,2770043,,,,,,,2024-03-29,1,,,,,ルシェロ,0
1617,7040001132880,新規,0,2024-03-29,2024-03-29,心源株式会社,,株式会社,千葉県,佐倉市,大蛇町４１１番地１３８,,12,212,2850043,,,,,,,2024-03-29,1,,,,,シンゲン,0
1618,7040001132889,新規,0,2024-03-29,2024-03-29,ブルーステラホームズ株式会社,,株式会社,千葉県,柏市,増尾１丁目５番２号,,12,217,2770033,,,,,,,2024-03-29,1,,,,,ブルーステラホームズ,0
1619,7040001132906,新規,0,2024-03-29,2024-03-29,日本健康株式会社,,株式会社,千葉県,千葉市中央区,仁戸名町３６３－１２,,12,101,2600801,,,,,,,2024-03-29,1,,,,,ニホンケンコウ,0
1624,7050001054463,新規,0,2024-03-29,2024-03-29,株式会社マザレ,,株式会社,茨城県,龍ケ崎市,中里３丁目４番地１８,,08,208,3010854,,,,,,,2024-03-29,1,,,,,マザレ,0
1625,7050001054513,新規,0,2024-03-29,2024-03-29,ＣＯＮＴＡＩ株式会社,,株式会社,茨城県,つくば市,花畑１丁目１番地４１号フラワーレジデンス花畑１０２,,08,220,3003261,,,,,,,2024-03-29,1,,,,,コンタイ,0
1636,7080001026212,新規,0,2024-03-29,2024-03-29,株式会社ＥＫ＆ｃｏ．,,株式会社,静岡県,静岡市駿河区,広野３丁目１番１７号,,22,102,4210121,,,,,,,2024-03-29,1,,,,,イーケーアンドコー,0
1637,7080101024628,新規,0,2024-03-29,2024-03-29,＿成株式会社,00134242,株式会社,静岡県,田方郡函南町,平井１７５３番１０４３ラッキークレスト２０２室,,22,325,4190107,,,,,,,2024-03-29,1,,,,,イクセイ,0
1640,7080103003019,新規,0,2024-03-29,2024-03-29,合同会社ＭＯＲＩＮＥ,,合同会社,静岡県,三島市,初音台１３番地の１０,,22,206,4110018,,,,,,,2024-03-29,1,,,,,モリネ,0
1644,7110001038286,新規,0,2024-03-29,2024-03-29,ひなたコンサルティング株式会社,,株式会社,新潟県,新潟市中央区,上近江４丁目６－２エステート近江Ａ２０３,,15,103,9500973,,,,,,,2024-03-29,1,,,,,ヒナタコンサルティング,0
1647,7110003005342,新規,0,2024-03-29,2024-03-29,合同会社ノースヴィレッジ,,合同会社,新潟県,新潟市東区,竹尾３丁目１５番１３号,,15,102,9500862,,,,,,,2024-03-29,1,,,,,ノースヴィレッジ,0
1653,7120001263593,新規,0,2024-03-29,2024-03-29,株式会社ＵＥ５,,株式会社,大阪府,大阪市天王寺区,上本町５丁目２番１２号ＵＥ５ビル４０１号室,,27,109,5430001,,,,,,,2024-03-29,1,,,,,ウエゴ,0
1654,7120001263602,新規,0,2024-03-29,2024-03-29,株式会社ＬＡＰ　Ｊａｐａｎ,,株式会社,大阪府,大阪市西区,靱本町１丁目４番８号,,27,106,5500004,,,,,,,2024-03-29,1,,,,,エルエーピージャパン,0
1655,7120001263619,新規,0,2024-03-29,2024-03-29,株式会社和京,,株式会社,大阪府,枚方市,茄子作北町２７番１４号,,27,210,5730083,,,,,,,2024-03-29,1,,,,,ワキョウ,0
1657,7120003026263,新規,0,2024-03-29,2024-03-29,辰一合同会社,,合同会社,大阪府,大阪市此花区,梅香３丁目２８番２号,,27,104,5540013,,,,,,,2024-03-29,1,,,,,タツイチ,0
1660,7120101069296,新規,0,2024-03-29,2024-03-29,Ｈ‐ＡＭ株式会社,,株式会社,大阪府,和泉市,府中町２丁目１番３号南海和泉府中ビル３階３Ｃ,,27,219,5940071,,,,,,,2024-03-29,1,,,,,エイチエーエム,0
1666,7130001076697,新規,0,2024-03-29,2024-03-29,株式会社フューチャーイノベーション,,株式会社,京都府,久世郡久御山町,島田ミスノ３番地１アーチスト島田５１０号,,26,322,6130043,,,,,,,2024-03-29,1,,,,,フューチャーイノベーション,0
1671,7140003020347,新規,0,2024-03-29,2024-03-29,合同会社アーモンドＥＹＥ　ＢＥＡＵＴＹ,,合同会社,兵庫県,姫路市,書写２３２７－７,,28,201,6712201,,,,,,,2024-03-29,1,,,,,アーモンドアイビューティ,0
1681,7180301038467,新規,0,2024-03-29,2024-03-29,株式会社近田バラ園,,株式会社,愛知県,豊川市,豊津町中石塚１８番地,,23,207,4411222,,,,,,,2024-03-29,1,,,,,コンダバラエン,0
1682,7180301038475,新規,0,2024-03-29,2024-03-29,株式会社リレイト,,株式会社,愛知県,刈谷市,小垣江町御茶屋下３８番地３,,23,210,4480813,,,,,,,2024-03-29,1,,,,,リレイト,0
1689,7220001025892,新規,0,2024-03-29,2024-03-29,株式会社アースリバイバル,,株式会社,石川県,金沢市,長田２丁目２６番５号ＭＴＫスカイビル８０３号,,17,201,9200043,,,,,,,2024-03-29,1,,,,,アースリバイバル,0
1690,7230001020265,新規,0,2024-03-29,2024-03-29,株式会社ＫＡＭＩＩＣＨＩチャレンジ,,株式会社,富山県,中新川郡上市町,西中町２４番地,,16,322,9300334,,,,,,,2024-03-29,1,,,,,カミイチチャレンジ,0
1707,7290001105259,新規,0,2024-03-29,2024-03-29,株式会社ＦＳ,,株式会社,福岡県,福岡市中央区,黒門６－４－５０８号,,40,133,8100055,,,,,,,2024-03-29,1,,,,,エフエス,0
1725,7340001026400,新規,0,2024-03-29,2024-03-29,株式会社ＢＬＥＳＳ,,株式会社,鹿児島県,熊毛郡屋久島町,安房５４０番地６１,,46,505,8914311,,,,,,,2024-03-29,1,,,,,ブレス,0
1739,7400003003234,新規,0,2024-03-29,2024-03-29,ｃｏｌｏｒｌｅｓｓ合同会社,,合同会社,岩手県,北上市,鬼柳町都鳥８２番地７,,03,206,0240056,,,,,,,2024-03-29,1,,,,,カラーレス,0
1742,7420001018661,新規,0,2024-03-29,2024-03-29,株式会社グリーンハーバー,,株式会社,青森県,八戸市,西白山台６丁目９番４５号,,02,203,0391113,,,,,,,2024-03-29,1,,,,,グリーンハーバー,0
1750,7430003016126,新規,0,2024-03-29,2024-03-29,合同会社プレイバック,,合同会社,北海道,札幌市中央区,南三条西７丁目７番地３エステラ南３条館Ｂ９０２号,,01,101,0600063,,,,,,,2024-03-29,1,,,,,プレイバック,0
1751,7430003016150,新規,0,2024-03-29,2024-03-29,Ｌｉｎｋｓ合同会社,,合同会社,北海道,札幌市豊平区,美園十条４丁目２－２８,,01,105,0620010,,,,,,,2024-03-29,1,,,,,リンクス,0
1755,7700150123399,新規,0,2024-03-29,2024-03-29,ＥＸＰＯ　２０２５　Ｈｕｎｇａｒｙ　Ｎｏｎ－Ｐｒｏｆｉｔ　Ｌｔｄ．,,外国会社等,,,,,,,,Ｈｕｎｇａｒｙ，１０３７　Ｂｕｄａｐｅｓｔ，Ｂｏｋｏｒ　ｓｔｒｅｅｔ　２３－２５．,,,,,,2024-03-29,1,,,,,エキスポニセンニジユウゴハンガリーノンプロフイツトリミテツド,0
1760,8010001243531,新規,0,2024-03-29,2024-03-29,ｈｏｂｂｙ株式会社,,株式会社,東京都,文京区,本郷３丁目４４番７号,,13,105,1130033,,,,,,,2024-03-29,1,,,,,ホビー,0
1761,8010001243548,新規,0,2024-03-29,2024-03-29,株式会社２６３,,株式会社,東京都,中央区,銀座６丁目６番１号銀座風月堂ビル５Ｆ,,13,102,1040061,,,,,,,2024-03-29,1,,,,,ニロクサン,0
1765,8010003043335,新規,0,2024-03-29,2024-03-29,ＨＡＰＰＹ　ＧＲＯＵＰ合同会社,,合同会社,東京都,中央区,東日本橋２丁目２８番４号日本橋ＣＥＴビル２階,,13,102,1030004,,,,,,,2024-03-29,1,,,,,ハッピーグループ,0
1766,8010003043343,新規,0,2024-03-29,2024-03-29,合同会社エーファーム,,合同会社,東京都,中央区,日本橋兜町１７－１－７０７,,13,102,1030026,,,,,,,2024-03-29,1,,,,,エーファーム,0
1768,8010005038102,新規,0,2024-03-29,2024-03-29,ＦＫＧ一般社団法人,,その他の設立登記法人,東京都,中央区,八丁堀４丁目２番１０号ＡＯＪ税理士法人内,,13,102,1040032,,,,,,,2024-03-29,1,,,,,エフケイジー,0
1773,8010401181380,新規,0,2024-03-29,2024-03-29,日本エクイティバンク株式会社,,株式会社,東京都,港区,赤坂９丁目７番１号ミッドタウン・タワー２２階,,13,103,1070052,,,,,,,2024-03-29,1,,,,,ニホンエクイティバンク,0
1776,8010403032268,新規,0,2024-03-29,2024-03-29,Ａｒｉｇａｔａｙａ合同会社,,合同会社,東京都,港区,虎ノ門５丁目２番７号,,13,103,1050001,,,,,,,2024-03-29,1,,,,,アリガタヤ,0
1777,8010403032284,新規,0,2024-03-29,2024-03-29,ＢＦコンシェルジュ合同会社,,合同会社,東京都,港区,北青山２丁目１４番４号,,13,103,1070061,,,,,,,2024-03-29,1,,,,,ビーエフコンシェルジュ,0
1782,8010601064914,新規,0,2024-03-29,2024-03-29,発酵フード株式会社,,株式会社,東京都,江東区,有明３丁目７番２６号Ｂ棟９階,,13,108,1350063,,,,,,,2024-03-29,1,,,,,ハッコウフード,0
1789,8010901054978,新規,0,2024-03-29,2024-03-29,株式会社ＳＵＢＴＡＮＫ,,株式会社,東京都,世田谷区,三宿１丁目１０番２２号,,13,112,1540005,,,,,,,2024-03-29,1,,,,,サブタンク,0
1790,8010901054986,新規,0,2024-03-29,2024-03-29,株式会社ＯＣＴＡＧＯＮ,,株式会社,東京都,世田谷区,池尻３丁目１９番２４号ヴィラ池尻２０１,,13,112,1540001,,,,,,,2024-03-29,1,,,,,オクタゴン,0
1794,8011001160931,新規,0,2024-03-29,2024-03-29,株式会社バベル,,株式会社,東京都,渋谷区,道玄坂１丁目１０番８号渋谷道玄坂東急ビル２Ｆ－Ｃ,,13,113,1500043,,,,,,,2024-03-29,1,,,,,バベル,0
1798,8011003018789,新規,0,2024-03-29,2024-03-29,さき合同会社,,合同会社,東京都,渋谷区,代々木５丁目５５番６号コンフォール参宮橋４０１,,13,113,1510053,,,,,,,2024-03-29,1,,,,,サキ,0
1799,8011003018806,新規,0,2024-03-29,2024-03-29,ＫＹＺ　Ｉｎｖｅｓｔｍｅｎｔ合同会社,,合同会社,東京都,渋谷区,渋谷２丁目１９番１５号宮益坂ビルディング６０９,,13,113,1500002,,,,,,,2024-03-29,1,,,,,ケーワイズィーインベストメント,0
1800,8011003018822,新規,0,2024-03-29,2024-03-29,スエズ商会合同会社,,合同会社,東京都,渋谷区,恵比寿西２丁目８番４号ＥＸ恵比寿西ビル５階,,13,113,1500021,,,,,,,2024-03-29,1,,,,,スエズショウカイ,0
1808,8011303005116,新規,0,2024-03-29,2024-03-29,ハース・タート合同会社,,合同会社,東京都,杉並区,和泉１丁目３３番１８－２０５号,,13,115,1680063,,,,,,,2024-03-29,1,,,,,ハースタート,0
1815,8011801043930,新規,0,2024-03-29,2024-03-29,株式会社グローバルヴォーグ,,株式会社,東京都,足立区,北加平町９番１６号クラヴィス北綾瀬１０３,,13,121,1210056,,,,,,,2024-03-29,1,,,,,グローバルヴォーグ,0
1818,8011803006150,新規,0,2024-03-29,2024-03-29,日本桜桃企画合同会社,,合同会社,東京都,足立区,神明３丁目１４番９号,,13,121,1210051,,,,,,,2024-03-29,1,,,,,ニホンオウトウキカク,0
1822,8012803003344,新規,0,2024-03-29,2024-03-29,合同会社シバ,,合同会社,東京都,国分寺市,本多３丁目１７－１７アルペジオＮ２０１,,13,214,1850011,,,,,,,2024-03-29,1,,,,,シバ,0
1825,8013301052271,新規,0,2024-03-29,2024-03-29,株式会社コミュニティバンク,,株式会社,東京都,豊島区,池袋４丁目６－８クリフマンション５０１号室,,13,116,1710014,,,,,,,2024-03-29,1,,,,,コミュニティバンク,0
1848,8030001159445,新規,0,2024-03-29,2024-03-29,株式会社東京車輌サービス,,株式会社,埼玉県,草加市,吉町５丁目１１番２５号,,11,221,3400017,,,,,,,2024-03-29,1,,,,,トウキョウシャリョウサービス,0
1849,8030001159453,新規,0,2024-03-29,2024-03-29,株式会社Ｐｒｕｇ,,株式会社,埼玉県,入間市,下藤沢５丁目２７番地２２,,11,225,3580011,,,,,,,2024-03-29,1,,,,,プラグ,0
1853,8030003023822,新規,0,2024-03-29,2024-03-29,ＤＫ　Ｍａｒｔ合同会社,,合同会社,埼玉県,所沢市,緑町４丁目１５番２０号２Ｆ,,11,208,3591111,,,,,,,2024-03-29,1,,,,,ディケマート,0
1854,8030005021601,新規,0,2024-03-29,2024-03-29,一般社団法人スマイル,,その他の設立登記法人,埼玉県,坂戸市,西坂戸５丁目６番３号,,11,239,3500247,,,,,,,2024-03-29,1,,,,,スマイル,0
1869,8040001132772,新規,0,2024-03-29,2024-03-29,株式会社ＰａｒＡｄｅ,,株式会社,千葉県,船橋市,二宮２丁目４０番６号,,12,204,2740823,,,,,,,2024-03-29,1,,,,,パレード,0
1870,8040001132839,新規,0,2024-03-29,2024-03-29,株式会社クアリタ工業,,株式会社,千葉県,柏市,篠籠田６８３番地１２,,12,217,2770862,,,,,,,2024-03-29,1,,,,,クアリタコウギョウ,0
1871,8040001132896,新規,0,2024-03-29,2024-03-29,株式会社ファンシフト,,株式会社,千葉県,松戸市,樋野口５８０番地ラルーチェ１０３号,,12,207,2710067,,,,,,,2024-03-29,1,,,,,ファンシフト,0
1872,8040001132905,新規,0,2024-03-29,2024-03-29,ＡＳＥＢＯ．株式会社,,株式会社,千葉県,市川市,高谷２丁目７番２－２０３号クレスト飯塚,,12,203,2720013,,,,,,,2024-03-29,1,,,,,アセボ,0
1877,8040003024638,新規,0,2024-03-29,2024-03-29,合同会社竹取物語,,合同会社,千葉県,印旛郡栄町,安食３２１番地の２,,12,329,2701516,,,,,,,2024-03-29,1,,,,,タケトリモノガタリ,0
1878,8040003024654,新規,0,2024-03-29,2024-03-29,宮坂商事合同会社,,合同会社,千葉県,市川市,北国分２丁目２９番８号,,12,203,2720836,,,,,,,2024-03-29,1,,,,,ミヤサカショウジ,0
1879,8040003024662,新規,0,2024-03-29,2024-03-29,合同会社ＨａｔｃｈＥｓｔａｔｅ,,合同会社,千葉県,市川市,奉免町２６番地３４,,12,203,2720803,,,,,,,2024-03-29,1,,,,,ハッチエステート,0
1880,8040005022334,新規,0,2024-03-29,2024-03-29,弁護士法人しおかぜ,,その他の設立登記法人,千葉県,千葉市中央区,中央４丁目１０番１６号,,12,101,2600013,,,,,,,2024-03-29,1,,,,,シオカゼ,0
1884,8050003008243,新規,0,2024-03-29,2024-03-29,ＪＨＥＬＵＭ　ＴＲＡＤＩＮＧ合同会社,,合同会社,茨城県,桜川市,真壁町服部９８１－８,,08,231,3091200,,,,,,,2024-03-29,1,,,,,ジェラムトレーディング,0
1887,8080003003159,新規,0,2024-03-29,2024-03-29,合同会社ＤＲＥＡＭ,,合同会社,静岡県,藤枝市,田中３丁目２番１号,,22,214,4260012,,,,,,,2024-03-29,1,,,,,ドリーム,0
1888,8080101024627,新規,0,2024-03-29,2024-03-29,プラトンラボラトリー株式会社,,株式会社,静岡県,富士宮市,青木平２７９番地,,22,207,4180048,,,,,,,2024-03-29,1,,,,,プラトンラボラトリー,0
1892,8100001037321,新規,0,2024-03-29,2024-03-29,株式会社ＰＶ　Ｓｏｌｕｔｉｏｎｓ,,株式会社,長野県,佐久市,猿久保７９３番地３,,20,217,3850011,,,,,,,2024-03-29,1,,,,,ピーブイソリューションズ,0
1904,8120001263502,新規,0,2024-03-29,2024-03-29,株式会社Ｄａｗｎ,,株式会社,大阪府,大阪市東住吉区,公園南矢田３丁目２４番６号,,27,121,5460024,,,,,,,2024-03-29,1,,,,,ドーン,0
1905,8120001263568,新規,0,2024-03-29,2024-03-29,ＬｉｆｅＱｕｅｓｔ株式会社,,株式会社,大阪府,大阪市阿倍野区,阿倍野筋１丁目１番４３号あべのハルカス２９階,,27,119,5450052,,,,,,,2024-03-29,1,,,,,ライフクエスト,0
1906,8120001263626,新規,0,2024-03-29,2024-03-29,Ｍ３ウエスト株式会社,,株式会社,大阪府,大阪市此花区,常吉２丁目１３番１８号,,27,104,5540052,,,,,,,2024-03-29,1,,,,,エムスリーウエスト,0
1907,8120001263650,新規,0,2024-03-29,2024-03-29,株式会社澤語,,株式会社,大阪府,大阪市中央区,徳井町２丁目４番５号－６０２号,,27,128,5400025,,,,,,,2024-03-29,1,,,,,サワゴ,0
1913,8120003026254,新規,0,2024-03-29,2024-03-29,合同会社ＨＯＵＳＥ　ＢＯＡＴ　ＪＡＰＡＮ,,合同会社,大阪府,大阪市淀川区,西中島７丁目１番２６号オリエンタル新大阪ビル１階,,27,123,5320011,,,,,,,2024-03-29,1,,,,,ハウスボートジャパン,0
1915,8120103005752,新規,0,2024-03-29,2024-03-29,合同会社ｍｉｓａｋｉ,,合同会社,大阪府,岸和田市,加守町２丁目３番１８号,,27,202,5960042,,,,,,,2024-03-29,1,,,,,ミサキ,0
1921,8122001037943,新規,0,2024-03-29,2024-03-29,パズル株式会社,,株式会社,大阪府,東大阪市,新庄４丁目３番８－２０３号,,27,227,5780963,,,,,,,2024-03-29,1,,,,,パズル,0
1926,8130001076696,新規,0,2024-03-29,2024-03-29,株式会社京都ＤＥＮＩＸ,,株式会社,京都府,京都市山科区,御陵荒巻町５６番地１５－１０２号,,26,110,6078429,,,,,,,2024-03-29,1,,,,,キョウトデニックス,0
1932,8140001133793,新規,0,2024-03-29,2024-03-29,株式会社アドミット,,株式会社,兵庫県,西宮市,枝川町１４番５８ローレルコート西宮甲子園７１４号,,28,204,6638143,,,,,,,2024-03-29,1,,,,,アドミット,0
1933,8140001133868,新規,0,2024-03-29,2024-03-29,株式会社桜人,,株式会社,兵庫県,芦屋市,茶屋之町１０番９号２階,,28,206,6590067,,,,,,,2024-03-29,1,,,,,サクラビト,0
1943,8180001160784,新規,0,2024-03-29,2024-03-29,株式会社ブライダルサポート,,株式会社,愛知県,名古屋市昭和区,花見通１丁目７番地ハセガワビルＢ１Ｆ,,23,107,4660831,,,,,,,2024-03-29,1,,,,,ブライダルサポート,0
1946,8180301038466,新規,0,2024-03-29,2024-03-29,大義工業株式会社,,株式会社,愛知県,安城市,古井町釈迦山５４番地５,,23,212,4460025,,,,,,,2024-03-29,1,,,,,ダイヨシコウギョウ,0
1953,8200001042328,新規,0,2024-03-29,2024-03-29,株式会社ＨＲｒ,,株式会社,岐阜県,岐阜市,長良６１２番地５,,21,201,5020071,,,,,,,2024-03-29,1,,,,,エイチアールアール,0
1954,8200003006280,新規,0,2024-03-29,2024-03-29,合同会社ＲＡＮＡ　ＴＲＡＤＥＲＳ,,合同会社,岐阜県,岐阜市,黒野９９番地１（ぐりむぎほく５号室）,,21,201,5011131,,,,,,,2024-03-29,1,,,,,ラナトレーダース,0
1964,8240005015755,新規,0,2024-03-29,2024-03-29,一般社団法人広島地域振興会,,その他の設立登記法人,広島県,広島市佐伯区,楽々園２丁目２番６号,,34,108,7315136,,,,,,,2024-03-29,1,,,,,ヒロシマチイキシンコウカイ,0
1966,8250003003463,新規,0,2024-03-29,2024-03-29,合同会社司,,合同会社,山口県,下関市,秋根北町２番４０号ウィンディ村崎３０２号,,35,201,7510876,,,,,,,2024-03-29,1,,,,,ツカサ,0
1968,8270003001606,新規,0,2024-03-29,2024-03-29,合同会社グラビティ,,合同会社,鳥取県,米子市,車尾５丁目８－９,,31,202,6830006,,,,,,,2024-03-29,1,,,,,グラビティ,0
1975,8290001105274,新規,0,2024-03-29,2024-03-29,株式会社Ｍｉｌｌｉｏｎ　Ｐｒｏｄｕｃｔｉｏｎ,,株式会社,福岡県,福岡市中央区,天神４丁目６－２８天神ファーストビル７階,,40,133,8100001,,,,,,,2024-03-29,1,,,,,ミリオンプロダクション,0
1980,8290803004665,新規,0,2024-03-29,2024-03-29,合同会社Ｈ＆Ｙ,,合同会社,福岡県,北九州市小倉南区,葛原本町５丁目１３番１９号,,40,107,8000253,,,,,,,2024-03-29,1,,,,,エイチアンドワイ,0
1994,8330001012276,新規,0,2024-03-29,2024-03-29,株式会社中島組,,株式会社,熊本県,阿蘇市,南宮原８９番地,,43,214,8692306,,,,,,,2024-03-29,1,,,,,ナカジマグミ,0
2014,8430001091368,新規,0,2024-03-29,2024-03-29,株式会社クリアエステイト,,株式会社,北海道,恵庭市,恵み野北７丁目１４番１４号,,01,231,0611374,,,,,,,2024-03-29,1,,,,,クリアエステイト,0
2018,8430005014944,新規,0,2024-03-29,2024-03-29,医療法人公善会,,その他の設立登記法人,北海道,石狩市,花川北三条３丁目６番地３,,01,235,0613213,,,,,,,2024-03-29,1,,,,,コウゼンカイ,0
2021,8460101007519,新規,0,2024-03-29,2024-03-29,十勝人材株式会社,,株式会社,北海道,帯広市,西十七条北１丁目３０番４号,,01,207,0800047,,,,,,,2024-03-29,1,,,,,トカチジンザイ,0
2025,8470005006558,新規,0,2024-03-29,2024-03-29,特定非営利活動法人国分寺北部校区コミュニティ協議会,,その他の設立登記法人,香川県,高松市,国分寺町新居１８４０番地６,,37,201,7690101,,,,,,,2024-03-29,1,,,,,コクブンジホクブコウクコミュニティキョウギカイ,0
2026,8480003002112,新規,0,2024-03-29,2024-03-29,合同会社ヒトラボ,,合同会社,徳島県,徳島市,多家良町北内９３－１２－２,,36,201,7714264,,,,,,,2024-03-29,1,,,,,ヒトラボ,0
2037,8700150055781,新規,0,2024-03-29,2015-10-09,国富あおぞら児童クラブ運営委員会,,その他,島根県,出雲市,国富町３８１,,32,203,6910011,,,,,,,2015-10-09,1,,,,,クニドミアオゾラジドウクラブウンエイイインカイ,0
2044,9010001243448,新規,0,2024-03-29,2024-03-29,株式会社ヨビワン,,株式会社,東京都,中央区,銀座１丁目１５番７号,,13,102,1040061,,,,,,,2024-03-29,1,,,,,ヨビワン,0
2045,9010001243555,新規,0,2024-03-29,2024-03-29,株式会社Ｓｅａｆｏｏｄ,,株式会社,東京都,文京区,湯島２丁目３０番８－７０３号,,13,105,1130034,,,,,,,2024-03-29,1,,,,,シーフード,0
2049,9010003043318,新規,0,2024-03-29,2024-03-29,ＲＰ１Ｊａｐａｎ合同会社,,合同会社,東京都,中央区,日本橋茅場町１丁目３番７号千代田ビル５階,,13,102,1030025,,,,,,,2024-03-29,1,,,,,アールピーワンジャパン,0
2055,9010401181322,新規,0,2024-03-29,2024-03-29,株式会社トライアングル,,株式会社,東京都,港区,元麻布３丁目４番２９－４０１号,,13,103,1060046,,,,,,,2024-03-29,1,,,,,トライアングル,0
2056,9010401181330,新規,0,2024-03-29,2024-03-29,エリシアンハーモニクス株式会社,,株式会社,東京都,港区,北青山１丁目３番１号アールキューブ青山３階,,13,103,1070061,,,,,,,2024-03-29,1,,,,,エリシアンハーモニクス,0
2057,9010401181396,新規,0,2024-03-29,2024-03-29,ＩＦＲ株式会社,,株式会社,東京都,港区,南青山１丁目２４番１８号ザ・ドチェスター南青山１０２,,13,103,1070062,,,,,,,2024-03-29,1,,,,,アイエフアール,0
2058,9010401181462,新規,0,2024-03-29,2024-03-29,阿蘇ホテルマネジメント株式会社,,株式会社,東京都,港区,西新橋１丁目１番１号ＥＰコンサルティングサービス内,,13,103,1050003,,,,,,,2024-03-29,1,,,,,アソホテルマネジメント,0
2063,9010403032226,新規,0,2024-03-29,2024-03-29,合同会社東京赤富士,,合同会社,東京都,港区,南麻布４丁目１１番２号ＨＯＭＡＴＶＩＲＧＩＮＩＡ１０４,,13,103,1060047,,,,,,,2024-03-29,1,,,,,トウキョウアカフジ,0
2070,9010801034897,新規,0,2024-03-29,2024-03-29,株式会社ＭＫ,,株式会社,東京都,大田区,西蒲田７丁目５１番１３号３階,,13,111,1440051,,,,,,,2024-03-29,1,,,,,エムケー,0
2073,9010901054960,新規,0,2024-03-29,2024-03-29,ｗｏｒｔｈｙ株式会社,,株式会社,東京都,世田谷区,千歳台３丁目７番３号,,13,112,1570071,,,,,,,2024-03-29,1,,,,,ワージー,0
2076,9011001160889,新規,0,2024-03-29,2024-03-29,株式会社ｉｎｓｐｅｃｔ,,株式会社,東京都,渋谷区,恵比寿西２丁目８番４号ＥＸ恵比寿西ビル５階,,13,113,1500021,,,,,,,2024-03-29,1,,,,,インスペクト,0
2077,9011001160906,新規,0,2024-03-29,2024-03-29,株式会社Ｂｌｏｃｋｉｎ,,株式会社,東京都,渋谷区,道玄坂１丁目１０番８号渋谷道玄坂東急ビル２Ｆ－Ｃ,,13,113,1500043,,,,,,,2024-03-29,1,,,,,ブロッキン,0
2078,9011001160939,新規,0,2024-03-29,2024-03-29,株式会社匠経,,株式会社,東京都,渋谷区,広尾５丁目１番４３号広尾ＺＥＲＯ７０１,,13,113,1500012,,,,,,,2024-03-29,1,,,,,ショウケイ,0
2082,9011101106726,新規,0,2024-03-29,2024-03-29,株式会社ＲＩＮＫ,,株式会社,東京都,新宿区,大久保１丁目１２番１９号,,13,104,1690072,,,,,,,2024-03-29,1,,,,,リンク,0
2083,9011101106742,新規,0,2024-03-29,2024-03-29,株式会社ＳＥＳＡＭＯ,,株式会社,東京都,新宿区,富久町３１番３号,,13,104,1620067,,,,,,,2024-03-29,1,,,,,セサモ,0
2084,9011101106759,新規,0,2024-03-29,2024-03-29,マジック株式会社,,株式会社,東京都,新宿区,市谷田町３丁目８番地,,13,104,1620843,,,,,,,2024-03-29,1,,,,,マジック,0
2090,9011801044003,新規,0,2024-03-29,2024-03-29,ＡＬＬ　ＬＩＮＫ株式会社,,株式会社,東京都,葛飾区,東新小岩２丁目２８番１号,,13,122,1240023,,,,,,,2024-03-29,1,,,,,オールリンク,0
2093,9012401041670,新規,0,2024-03-29,2024-03-29,株式会社宏基商事,,株式会社,東京都,武蔵野市,緑町２丁目３番３５号,,13,203,1800012,,,,,,,2024-03-29,1,,,,,ヒロキショウジ,0
2096,9013303007066,新規,0,2024-03-29,2024-03-29,あんずのあかり合同会社,,合同会社,東京都,豊島区,南池袋１丁目９番１８号,,13,116,1710022,,,,,,,2024-03-29,1,,,,,アンズノアカリ,0
2101,9020001156475,新規,0,2024-03-29,2024-03-29,株式会社ＲＩＺＥ,,株式会社,神奈川県,横浜市旭区,中希望が丘２２９番地１４－１０２号,,14,112,2410825,,,,,,,2024-03-29,1,,,,,ライズ,0
2102,9020001156509,新規,0,2024-03-29,2024-03-29,株式会社８７ＢＵＩＬＤＥＲＳ,,株式会社,神奈川県,横浜市旭区,市沢町３２０番地１,,14,112,2410014,,,,,,,2024-03-29,1,,,,,ハチナナビルダーズ,0
2104,9020003025827,新規,0,2024-03-29,2024-03-29,合同会社ＳＫ,,合同会社,神奈川県,横浜市南区,万世町２丁目２９番地１ジェノビア阪東橋ＩＩスカイガーデン１１１６,00134230,14,105,2320032,,,,,,,2024-03-29,1,,,,,エスケイ,0
2105,9020003025843,新規,0,2024-03-29,2024-03-29,ＨＡＢＩ合同会社,,合同会社,神奈川県,横浜市港南区,笹下２丁目１１番２０号ピオーネＩ番館２０１,00134243,14,111,2340052,,,,,,,2024-03-29,1,,,,,ハビ,0
2113,9030001159493,新規,0,2024-03-29,2024-03-29,株式会社Ｋｓ,,株式会社,埼玉県,志木市,本町５丁目２３－２４第３本吉ビル４階４４０号室,,11,228,3530004,,,,,,,2024-03-29,1,,,,,ケーズ,0
2121,9040001132854,新規,0,2024-03-29,2024-03-29,株式会社ＡＺＵＦ,,株式会社,千葉県,市川市,広尾１丁目２番６－１０３号（パークサイド広尾）,,12,203,2720146,,,,,,,2024-03-29,1,,,,,アズフ,0
2122,9040001132887,新規,0,2024-03-29,2024-03-29,株式会社モナケア,,株式会社,千葉県,流山市,おおたかの森北１丁目２３番地の３,,12,220,2700119,,,,,,,2024-03-29,1,,,,,モナケア,0
2123,9040005022333,新規,0,2024-03-29,2024-03-29,一般社団法人酒々井スポーツアカデミー,,その他の設立登記法人,千葉県,佐倉市,白銀４丁目１６番地１,,12,212,2850045,,,,,,,2024-03-29,1,,,,,シスイスポーツアカデミー,0
2134,9070001041557,新規,0,2024-03-29,2024-03-29,株式会社Ｄ　ＡＮＤ　Ｊ,,株式会社,群馬県,前橋市,平和町１丁目７番５号ルネサンス平和１Ｆ,,10,201,3710027,,,,,,,2024-03-29,1,,,,,ディアンドジェ,0
2136,9080103003017,新規,0,2024-03-29,2024-03-29,合同会社リブリッジ,,合同会社,静岡県,富士市,伝法１６６８番地１６,,22,210,4170061,,,,,,,2024-03-29,1,,,,,リブルッジ,0
2137,9100001037329,新規,0,2024-03-29,2024-03-29,株式会社タカラ基地,,株式会社,長野県,岡谷市,郷田２丁目１－６０,,20,204,3940021,,,,,,,2024-03-29,1,,,,,タカラキチ,0
2148,9120001263591,新規,0,2024-03-29,2024-03-29,株式会社ｅ‐ｓｐａｃｅ,,株式会社,大阪府,守口市,八雲西町１丁目１１番４号,,27,209,5700006,,,,,,,2024-03-29,1,,,,,イースペース,0
2149,9120001263633,新規,0,2024-03-29,2024-03-29,株式会社ＴＡＮＩＧＵＴＩ,,株式会社,大阪府,大阪市東淀川区,豊里６丁目２３番２０号,,27,114,5330013,,,,,,,2024-03-29,1,,,,,タニグチ,0
2150,9120001263699,新規,0,2024-03-29,2024-03-29,興達株式会社,,株式会社,大阪府,大阪市住吉区,長居東３丁目４番１８－６０２号,,27,120,5580004,,,,,,,2024-03-29,1,,,,,コウタツ,0
2157,9120101069311,新規,0,2024-03-29,2024-03-29,株式会社ロングライヴ,,株式会社,大阪府,松原市,立部２丁目２番５号,,27,217,5800012,,,,,,,2024-03-29,1,,,,,ロングライヴ,0
2161,9122001037942,新規,0,2024-03-29,2024-03-29,恒翰永成株式会社,,株式会社,大阪府,東大阪市,岸田堂南町７番２０号,,27,227,5770847,,,,,,,2024-03-29,1,,,,,コウカンエイセイ,0
2167,9130001076679,新規,0,2024-03-29,2024-03-29,株式会社Ｔｒｅｎｔａｎｏｖｅ,,株式会社,京都府,城陽市,枇杷庄鹿背田７２番地,,26,207,6100117,,,,,,,2024-03-29,1,,,,,トレンタノーヴェ,0
2168,9130003009406,新規,0,2024-03-29,2024-03-29,合同会社アチマリカム,,合同会社,京都府,京都市南区,唐橋花園町６３番地伊龍荘２Ｆ,,26,107,6018465,,,,,,,2024-03-29,1,,,,,アチマリカム,0
2172,9140001133867,新規,0,2024-03-29,2024-03-29,株式会社永来権,,株式会社,兵庫県,芦屋市,大桝町７番９号１階,,28,206,6590066,,,,,,,2024-03-29,1,,,,,エラゴン,0
2173,9140001133891,新規,0,2024-03-29,2024-03-29,株式会社三和金属,,株式会社,兵庫県,朝来市,山東町大月９２５番地３,,28,225,6695153,,,,,,,2024-03-29,1,,,,,サンワキンゾク,0
2178,9140005026992,新規,0,2024-03-29,2024-03-29,一般社団法人地球屋,,その他の設立登記法人,兵庫県,神戸市西区,平野町慶明２４５番地の１,,28,111,6512255,,,,,,,2024-03-29,1,,,,,チキュウヤ,0
2179,9150001027168,新規,0,2024-03-29,2024-03-29,株式会社うみか,,株式会社,奈良県,北葛城郡河合町,泉台３丁目１８－２１,,29,427,6360091,,,,,,,2024-03-29,1,,,,,ウミカ,0
2180,9150001027176,新規,0,2024-03-29,2024-03-29,若草メディカルサービス株式会社,,株式会社,奈良県,奈良市,柏木町４２１－１柏木ビル１ＦＢ２,,29,201,6308031,,,,,,,2024-03-29,1,,,,,ワカクサメディカルサービス,0
2191,9180005020570,新規,0,2024-03-29,2024-03-29,一般社団法人全国高齢者身元保証協会,,その他の設立登記法人,愛知県,名古屋市東区,主税町４丁目７７番地藤本ビル２０１号,,23,102,4610018,,,,,,,2024-03-29,1,,,,,ゼンコクコウレイシャミモトホショウキョウカイ,0
2192,9180301038481,新規,0,2024-03-29,2024-03-29,株式会社海建,,株式会社,愛知県,豊田市,曙町５丁目７４サンハイツＡＫＥＢＯＮＯ２１１,,23,211,4710835,,,,,,,2024-03-29,1,,,,,カイケン,0
2196,9190003004624,新規,0,2024-03-29,2024-03-29,合同会社大通得商事,,合同会社,三重県,四日市市,松原町７‐１２,,24,202,5108015,,,,,,,2024-03-29,1,,,,,ダイツウトクショウジ,0
2205,9240001063014,新規,0,2024-03-29,2024-03-29,株式会社三羽,,株式会社,広島県,広島市安佐南区,祇園３丁目３６番３－１０１号,,34,105,7310138,,,,,,,2024-03-29,1,,,,,ミツバ,0
2214,9260003004617,新規,0,2024-03-29,2024-03-29,合同会社Ｒｕｕｍ,,合同会社,岡山県,岡山市南区,妹尾１１６１番地５,,33,104,7010205,,,,,,,2024-03-29,1,,,,,ルーム,0
2215,9260003004625,新規,0,2024-03-29,2024-03-29,合同会社Ｌｉｔｔｌｅ　ｗｏｏｄｓ,,合同会社,岡山県,岡山市東区,君津６０６－２,,33,103,7048166,,,,,,,2024-03-29,1,,,,,リトルウッズ,0
2231,9350005006222,新規,0,2024-03-29,2024-03-29,一般社団法人ＣＯＤＯＮＡ,,その他の設立登記法人,宮崎県,宮崎市,大塚町竹下５２０番地４０,,45,201,8800951,,,,,,,2024-03-29,1,,,,,コドナ,0
2244,9370001051113,新規,0,2024-03-29,2024-03-29,株式会社エステック,,株式会社,宮城県,石巻市,大街道北４丁目７番３３号,,04,202,9860854,,,,,,,2024-03-29,1,,,,,エステック,0
2248,9430001091400,新規,0,2024-03-29,2024-03-29,株式会社アイシン,,株式会社,北海道,石狩市,新港西１丁目７００－７,,01,235,0613241,,,,,,,2024-03-29,1,,,,,アイシン,0
2249,9430001091417,新規,0,2024-03-29,2024-03-29,株式会社ＴＳＵＧＡＷＡ,,株式会社,北海道,札幌市白石区,本通１８丁目北３－６０稲津ビル,,01,104,0030027,,,,,,,2024-03-29,1,,,,,ツガワ,0
2251,9430003016099,新規,0,2024-03-29,2024-03-29,山本ガーデン合同会社,,合同会社,北海道,札幌市南区,真駒内３３２番地３５８,,01,106,0050861,,,,,,,2024-03-29,1,,,,,ヤマモトガーデン,0
2252,9430003016140,新規,0,2024-03-29,2024-03-29,Ｈａｋｕｂａ　Ｃａｐｉｔａｌ合同会社,,合同会社,北海道,虻田郡倶知安町,ニセコひらふ二条２丁目１５番１８号,,01,400,0440089,,,,,,,2024-03-29,1,,,,,ハクバキャピタル,0
2253,9430003016149,新規,0,2024-03-29,2024-03-29,Ｂｅｌｕｇａ　Ｃａｐｉｔａｌ合同会社,,合同会社,北海道,虻田郡倶知安町,ニセコひらふ二条２丁目１５番１８号,,01,400,0440089,,,,,,,2024-03-29,1,,,,,ベルーガキャピタル,0
