sequenceNumber,corporateNumber,process,correct,updateDate,changeDate,name,nameImageId,kind,prefectureName,cityName,streetNumber,addressImageId,prefectureCode,cityCode,postCode,addressOutside,addressOutsideImageId,closeDate,closeCause,successorCorporateNumber,changeCause,assignmentDate,latest,enName,enPrefectureName,enCityName,enAddressOutside,furigana,hihyoji
15,1010103002230,登記記録の閉鎖等,0,2024-04-17,2024-04-10,ＱＳグローバル合同会社,,合同会社,東京都,八王子市,別所１丁目１７番４号リヴェール大関１０１,,13,201,1920363,,,2024-04-10,清算の結了等,,,2023-10-18,1,,,,,キューエスグローバル,0
57,1011401024593,登記記録の閉鎖等,0,2024-04-17,2024-04-05,Ｒｅａｌ　ｅｓｔａｔｅ　ｔｅａｍ株式会社,,株式会社,東京都,板橋区,大谷口上町２－５北村第一ビル３Ｆ,,13,119,1730032,,,2024-04-05,清算の結了等,,,2022-10-07,1,,,,,リアルエステイトチーム,0
72,1011802007305,登記記録の閉鎖等,0,2024-04-17,2024-04-12,丸桂金町青果有限会社,,有限会社,東京都,葛飾区,東水元１丁目１２番５号,,13,122,1250033,,,2024-04-12,清算の結了等,,,2015-10-05,1,,,,,マルケイカナマチセイカ,0
77,1012802003442,登記記録の閉鎖等,0,2024-04-17,2024-04-08,有限会社ティー・ケーシステム,,有限会社,東京都,昭島市,緑町４丁目１７番１２号,,13,207,1960004,,,2024-04-08,清算の結了等,,,2015-10-05,1,,,,,ティーケーシステム,0
80,1020001125735,登記記録の閉鎖等,0,2024-04-17,2024-04-10,リバーチューブ株式会社,,株式会社,神奈川県,横浜市金沢区,鳥浜町７番地,,14,108,2360002,,,2024-04-10,合併による解散等,1120001043596,令和６年４月１日大阪市西区新町二丁目１５番２７号サンキン株式会社（1120001043596）に合併し解散,2018-04-06,1,,,,,リバーチューブ,0
88,1021002050542,登記記録の閉鎖等,0,2024-04-17,2024-04-15,有限会社せりざわ荘,,有限会社,神奈川県,足柄下郡箱根町,仙石原２１番地,,14,382,2500631,,,2024-04-15,清算の結了等,,,2015-10-05,1,,,,,セリザワソウ,0
111,1040005007705,登記記録の閉鎖等,0,2024-04-17,2024-03-29,農事組合法人八街産直会生産部会,,その他の設立登記法人,千葉県,八街市,榎戸４５８,,12,230,2891106,,,2024-03-29,清算の結了等,,,2015-10-05,1,,,,,ヤチマタサンチョクカイセイサンブカイ,0
123,1080101002300,登記記録の閉鎖等,0,2024-04-17,2024-04-15,トヨタホームふじ株式会社,,株式会社,静岡県,沼津市,岡宮１２７０番地の１,,22,203,4100011,,,2024-04-15,合併による解散等,1080401025570,令和６年４月１日静岡県浜松市中央区西塚町３０３番地の７トヨタホーム静岡株式会社（1080401025570）に合併し解散,2015-10-05,1,,,,,トヨタホームフジ,0
126,1080103001928,登記記録の閉鎖等,0,2024-04-17,2024-04-12,トリップスタイル合同会社,,合同会社,静岡県,熱海市,西熱海町２丁目１９－５,,22,205,4130038,,,2024-04-12,清算の結了等,,,2018-12-27,1,,,,,トリップスタイル,0
149,1120001229039,登記記録の閉鎖等,0,2024-04-17,2024-04-05,株式会社住まい工房ｓｈｉｎ,,株式会社,大阪府,寝屋川市,太秦桜が丘７番１３号,,27,215,5720840,,,2024-04-05,清算の結了等,,,2020-05-13,1,,,,,スマイコウボウシン,0
162,1120102028182,登記記録の閉鎖等,0,2024-04-17,2024-04-10,有限会社里中美容室,,有限会社,大阪府,阪南市,黒田４３５番地の８,,27,232,5990203,,,2024-04-10,清算の結了等,,,2015-10-05,1,,,,,サトナカビヨウシツ,0
185,1160001006244,登記記録の閉鎖等,0,2024-04-17,2024-04-11,ＪＰＣ株式会社,,株式会社,滋賀県,甲賀市,水口町北脇３５４番地４,,25,209,5280057,,,2024-04-11,清算の結了等,,,2015-10-05,1,,,,,ジェーピーシー,0
194,1180001126809,登記記録の閉鎖等,0,2024-04-17,2024-04-04,株式会社ＫＩＣ,,株式会社,愛知県,名古屋市守山区,瀬古東３丁目１２０６番地,,23,113,4630090,,,2024-04-04,清算の結了等,,,2017-03-09,1,,,,,ケーアイシー,0
195,1180001134910,登記記録の閉鎖等,0,2024-04-17,2024-04-02,株式会社ＮＴインターナショナル,,株式会社,愛知県,弥富市,東末広９丁目２番,,23,235,4980063,,,2024-04-02,清算の結了等,,,2018-12-27,1,,,,,エヌティーインターナショナル,0
212,1190002000714,登記記録の閉鎖等,0,2024-04-17,2024-04-10,有限会社システムクラフト,,有限会社,三重県,津市,垂水６７３番地,,24,201,5140821,,,2024-04-10,清算の結了等,,,2015-10-05,1,,,,,システムクラフト,0
239,1300002009033,登記記録の閉鎖等,0,2024-04-17,2024-04-12,有限会社ウーマン,,有限会社,佐賀県,鳥栖市,京町７２６番地５,,41,203,8410034,,,2024-04-12,清算の結了等,,,2015-10-05,1,,,,,ウーマン,0
248,1340002006381,登記記録の閉鎖等,0,2024-04-17,2024-04-12,有限会社ティー・ティー・シィー,,有限会社,鹿児島県,鹿児島市,皇徳寺台３丁目２４番２号,,46,201,8910103,,,2024-04-12,清算の結了等,,,2015-10-05,1,,,,,ティーティーシィー,0
267,1430001069313,登記記録の閉鎖等,0,2024-04-17,2024-04-10,北海道ガリレオファーム株式会社,,株式会社,北海道,札幌市手稲区,富丘二条７丁目１番１５号１Ｆ,,01,109,0060012,,,2024-04-10,清算の結了等,,,2015-10-05,1,,,,,ホッカイドウガリレオファーム,0
289,2010001019689,登記記録の閉鎖等,0,2024-04-17,2024-04-01,スターゼンＩＴソリューションズ株式会社,,株式会社,東京都,港区,港南２丁目５番７号,,13,103,1080075,,,2024-04-01,合併による解散等,9010401015760,令和６年４月１日東京都港区港南二丁目５番７号スターゼン株式会社（9010401015760）に合併し解散,2015-10-05,1,,,,,スターゼンアイティーソリューションズ,0
290,2010001166746,登記記録の閉鎖等,0,2024-04-17,2024-04-03,株式会社オプトインキュベート,,株式会社,東京都,千代田区,四番町６番,,13,101,1020081,,,2024-04-03,合併による解散等,5010001166909,令和６年４月１日東京都千代田区四番町６番株式会社オプト（5010001166909）に合併し解散,2015-10-05,1,,,,,オプトインキュベート,0
306,2010401136167,登記記録の閉鎖等,0,2024-04-17,2024-04-10,株式会社ユニメイト,,株式会社,東京都,千代田区,神田錦町１丁目１番地,,13,101,1010054,,,2024-04-10,合併による解散等,9010401174755,令和６年４月１日東京都港区虎ノ門五丁目１１番１号オランダヒルズ森タワーＲｏＰ株式会社ユニメイト（9010401174755）に合併し解散,2018-01-24,1,,,,,ユニメイト,0
307,2010401139797,登記記録の閉鎖等,0,2024-04-17,2024-04-05,株式会社インサイト,,株式会社,東京都,目黒区,目黒１丁目４番１６号目黒Ｇビル７階,,13,110,1530063,,,2024-04-05,清算の結了等,,,2018-07-25,1,,,,,インサイト,0
309,2010401155357,登記記録の閉鎖等,0,2024-04-17,2024-04-12,株式会社ＭＯＮＯＭＥＤＩＣＡ,,株式会社,東京都,港区,南麻布３丁目６番１７号,,13,103,1060047,,,2024-04-12,合併による解散等,3011101056423,令和６年４月１日東京都渋谷区渋谷二丁目１２番１９号ファビウス株式会社（3011101056423）に合併し解散,2020-09-24,1,,,,,モノメディカ,0
343,2011001126236,登記記録の閉鎖等,0,2024-04-17,2024-04-08,株式会社Ｍ．Ｉ．Ｔ,,株式会社,東京都,新宿区,西新宿１丁目２５番１号,,13,104,1600023,,,2024-04-08,合併による解散等,5011101035359,令和６年４月１日東京都新宿区西新宿一丁目２５番１号Ｇ－ＦＡＣＴＯＲＹ株式会社（5011101035359）に合併し解散,2019-01-24,1,,,,,エムアイティー,0
351,2011101061291,登記記録の閉鎖等,0,2024-04-17,2024-04-08,株式会社ＯＵＮＴ,,株式会社,東京都,新宿区,新宿２丁目１６番６号,,13,104,1600022,,,2024-04-08,清算の結了等,,,2015-10-05,1,,,,,オーユーエヌティー,0
363,2011601025473,登記記録の閉鎖等,0,2024-04-17,2024-04-09,株式会社ＫＳ,,株式会社,東京都,新宿区,住吉町２－１８,,13,104,1620065,,,2024-04-09,清算の結了等,,,2021-10-19,1,,,,,ケーエス,0
376,2013201013783,登記記録の閉鎖等,0,2024-04-17,2024-04-15,ミックコーポレーション株式会社,,株式会社,東京都,目黒区,碑文谷４丁目８番３号,,13,110,1520003,,,2024-04-15,清算の結了等,,,2015-10-05,1,,,,,ミックコーポレーション,0
380,2020001001357,登記記録の閉鎖等,0,2024-04-17,2024-04-08,才賀建設株式会社,,株式会社,神奈川県,横浜市旭区,笹野台１丁目１７番８号,,14,112,2410816,,,2024-04-08,清算の結了等,,,2015-10-05,1,,,,,サイガケンセツ,0
417,2040001016196,登記記録の閉鎖等,0,2024-04-17,2024-04-12,株式会社ホンダカーズ千葉,,株式会社,千葉県,千葉市中央区,南町２丁目１９番１５号,,12,101,2600842,,,2024-04-12,合併による解散等,5030001007680,令和６年４月１日埼玉県さいたま市中央区上落合五丁目３番６号株式会社ホンダモビリティ南関東（5030001007680）に合併し解散,2015-10-05,1,,,,,ホンダカーズチバ,0
421,2040001109487,登記記録の閉鎖等,0,2024-04-17,2024-04-08,株式会社オーティウム,,株式会社,千葉県,柏市,小青田１丁目６番地１１ＣｏｍｅＣｏｍｅＴｏｗｎウィズ柏２０５号,,12,217,2770803,,,2024-04-08,清算の結了等,,,2019-06-07,1,,,,,オーティウム,0
440,2080102013964,登記記録の閉鎖等,0,2024-04-17,2024-04-12,有限会社サカモト・ドゥ,,有限会社,静岡県,富士市,浅間本町１番３５号,,22,210,4170073,,,2024-04-12,清算の結了等,,,2015-10-05,1,,,,,サカモトドゥ,0
452,2120001227264,登記記録の閉鎖等,0,2024-04-17,2024-04-02,株式会社徳岡,00119021,株式会社,大阪府,大阪市中央区,南船場３丁目５番２５号,,27,128,5420081,,,2024-04-02,合併による解散等,6090001009506,令和６年４月１日大阪市中央区南船場三丁目５番２５号株式会社徳岡ホールディングス（6090001009506）に合併し解散,2020-02-19,1,,,,,トクオカ,0
476,2130001075968,登記記録の閉鎖等,0,2024-04-17,2024-04-11,しまだい興業株式会社,,株式会社,京都府,京都市中京区,御池通東洞院西入ル仲保利町１９１番地,,26,104,6040000,,,2024-04-11,清算の結了等,,,2023-12-26,1,,,,,シマダイコウギョウ,0
488,2150003002076,登記記録の閉鎖等,0,2024-04-17,2024-04-05,ワイティケー合同会社,,合同会社,東京都,西東京市,田無町４丁目１１番７－７０１号,,13,229,1880011,,,2024-04-05,清算の結了等,,,2020-01-22,1,,,,,ワイティケー,0
498,2180001152382,登記記録の閉鎖等,0,2024-04-17,2024-04-04,株式会社ＹＵＳＡ企画事務所,,株式会社,愛知県,名古屋市中村区,名駅２丁目４５番１４号東進名駅ビル４Ｆ,,23,105,4500002,,,2024-04-04,清算の結了等,,,2022-08-02,1,,,,,ユサキカクジムショ,0
500,2180003007139,登記記録の閉鎖等,0,2024-04-17,2024-04-04,合名会社高木商店,00073858,合名会社,愛知県,名古屋市緑区,池上台２丁目１５８番地,,23,114,4580044,,,2024-04-04,清算の結了等,,,2015-10-05,1,,,,,タカギショウテン,0
509,2200005012571,登記記録の閉鎖等,0,2024-04-17,2024-04-01,一般社団法人成年後見センターぎふ,,その他の設立登記法人,埼玉県,さいたま市見沼区,大和田町１丁目９８９番地１,,11,104,3370053,,,2024-04-01,清算の結了等,,,2016-12-06,1,,,,,セイネンコウケンセンターギフ,0
544,2370001014786,登記記録の閉鎖等,0,2024-04-17,2024-04-08,株式会社三友資材,,株式会社,宮城県,仙台市青葉区,本町２丁目１４番２６号,,04,101,9800014,,,2024-04-08,清算の結了等,,,2015-10-05,1,,,,,サンユウシザイ,0
545,2370001043711,登記記録の閉鎖等,0,2024-04-17,2024-04-04,株式会社サンケイメンテ・エンジニアリング,,株式会社,宮城県,仙台市宮城野区,榴岡４丁目３番１０号,,04,102,9830852,,,2024-04-04,清算の結了等,,,2018-11-05,1,,,,,サンケイメンテエンジニアリング,0
547,2380003000486,登記記録の閉鎖等,0,2024-04-17,2024-04-05,合資会社量子エネルギー研究所,,合資会社,福島県,郡山市,大槻町字原田前３番地の４６,,07,203,9630201,,,2024-04-05,清算の結了等,,,2015-10-05,1,,,,,リョウシエネルギーケンキュウジョ,0
556,2430001037673,登記記録の閉鎖等,0,2024-04-17,2024-04-09,富士工機株式会社,,株式会社,北海道,札幌市南区,簾舞四条３丁目１０番１号,,01,106,0612264,,,2024-04-09,清算の結了等,,,2015-10-05,1,,,,,フジコウキ,0
570,3010001159303,登記記録の閉鎖等,0,2024-04-17,2024-04-03,株式会社コネクトム,,株式会社,東京都,千代田区,四番町６番,,13,101,1020081,,,2024-04-03,合併による解散等,5010001166909,令和６年４月１日東京都千代田区四番町６番株式会社オプト（5010001166909）に合併し解散,2015-10-05,1,,,,,コネクトム,0
590,3010402015699,登記記録の閉鎖等,0,2024-04-17,2024-04-05,有限会社ターフ・ナナマルニ,,有限会社,東京都,港区,芝２丁目３番２１号,,13,103,1050014,,,2024-04-05,清算の結了等,,,2015-10-05,1,,,,,ターフナナマルニ,0
597,3010502014592,登記記録の閉鎖等,0,2024-04-17,2024-04-08,ワイ・エ一商事有限会社,,有限会社,東京都,台東区,浅草５丁目４番２号伊予ビル２階,,13,106,1110032,,,2024-04-08,清算の結了等,,,2015-10-05,1,,,,,ワイエイチショウジ,0
599,3010601029946,登記記録の閉鎖等,0,2024-04-17,2024-04-10,株式会社リオンスタッフ,,株式会社,栃木県,宇都宮市,桜２丁目１番２６号,,09,201,3200043,,,2024-04-10,清算の結了等,,,2015-10-05,1,,,,,リオンスタッフ,0
601,3010602024194,登記記録の閉鎖等,0,2024-04-17,2024-04-15,有限会社ワイエス,,有限会社,神奈川県,中郡大磯町,西小磯８２０番地,,14,341,2550005,,,2024-04-15,清算の結了等,,,2015-10-05,1,,,,,ワイエス,0
603,3010701021274,登記記録の閉鎖等,0,2024-04-17,2024-04-01,株式会社あすき,,株式会社,東京都,品川区,西五反田２丁目９番７号,,13,109,1410031,,,2024-04-01,合併による解散等,1010701039426,令和６年４月１日東京都品川区西五反田二丁目９番７号株式会社あすき（1010701039426）に合併し解散,2015-10-05,1,,,,,アスキ,0
617,3011001025222,登記記録の閉鎖等,0,2024-04-17,2024-04-15,株式会社ルックイン,,株式会社,東京都,渋谷区,恵比寿西２丁目５番１号,,13,113,1500021,,,2024-04-15,清算の結了等,,,2015-10-05,1,,,,,ルックイン,0
635,3011301005601,登記記録の閉鎖等,0,2024-04-17,2024-04-01,株式会社根本協栄,,株式会社,東京都,杉並区,上荻１丁目１５番４号オギタビル,,13,115,1670043,,,2024-04-01,合併による解散等,2011301005602,令和６年４月１日東京都杉並区上荻一丁目１５番１号丸三ビル内根本特殊化学株式会社（2011301005602）に合併し解散,2015-10-05,1,,,,,ネモトキョウエイ,0
640,3011501020466,登記記録の閉鎖等,0,2024-04-17,2024-04-05,株式会社オーシャン,,株式会社,東京都,荒川区,西日暮里６丁目３７番１号１５号室,,13,118,1160013,,,2024-04-05,清算の結了等,,,2015-10-05,1,,,,,オーシャン,0
666,3021001012260,登記記録の閉鎖等,0,2024-04-17,2024-04-15,株式会社サンエツ,,株式会社,神奈川県,綾瀬市,小園８８３番地１,,14,218,2521121,,,2024-04-15,清算の結了等,,,2015-10-05,1,,,,,,0
673,3021002010560,登記記録の閉鎖等,0,2024-04-17,2024-04-15,有限会社神奈川住研ホーム,,有限会社,神奈川県,茅ヶ崎市,浜須賀７番５０号,,14,207,2530035,,,2024-04-15,清算の結了等,,,2015-10-05,1,,,,,カナガワジュウケンホーム,0
731,3120002023892,登記記録の閉鎖等,0,2024-04-17,2024-04-04,有限会社昭輝,,有限会社,大阪府,大阪市西淀川区,野里１丁目２９番１０号,,27,113,5550024,,,2024-04-04,清算の結了等,,,2015-10-05,1,,,,,ショウキ,0
738,3120101059111,登記記録の閉鎖等,0,2024-04-17,2024-04-15,Ｃｒａｆｔｓ　Ｇａｒｄｅｎ株式会社,,株式会社,大阪府,堺市東区,西野９１番地１２号,,27,143,5998125,,,2024-04-15,清算の結了等,,,2018-12-06,1,,,,,クラフトガーデン,0
743,3120102027587,登記記録の閉鎖等,0,2024-04-17,2024-04-11,有限会社シー・ワイ・エヌ,,有限会社,大阪府,泉南市,樽井２丁目１３番２２号３階,,27,228,5900521,,,2024-04-11,清算の結了等,,,2015-10-05,1,,,,,シーワイエヌ,0
758,3140001080074,登記記録の閉鎖等,0,2024-04-17,2024-04-11,株式会社ライフアシスト,,株式会社,兵庫県,伊丹市,西台１丁目２番６号,,28,207,6640858,,,2024-04-11,清算の結了等,,,2015-10-05,1,,,,,ライフアシスト,0
762,3140002002102,登記記録の閉鎖等,0,2024-04-17,2024-04-08,バイオオルソドンティックサービス有限会社,,有限会社,兵庫県,神戸市東灘区,住吉本町３丁目１１番１３－１０２号,,28,101,6580051,,,2024-04-08,清算の結了等,,,2015-10-05,1,,,,,バイオオルソドンティックサービス,0
764,3140003012447,登記記録の閉鎖等,0,2024-04-17,2024-04-11,合同会社ｔｓｕｎａｇａｒｕ,,合同会社,兵庫県,神戸市中央区,下山手通２丁目１３－３－８Ｆ４３,,28,110,6500011,,,2024-04-11,清算の結了等,,,2017-10-05,1,,,,,,0
769,3150002007711,登記記録の閉鎖等,0,2024-04-17,2024-04-15,有限会社ベーシック・システム,,有限会社,奈良県,橿原市,白橿町５丁目２番２－３０５号,,29,205,6340051,,,2024-04-15,清算の結了等,,,2015-10-05,1,,,,,ベーシックシステム,0
770,3160002008452,登記記録の閉鎖等,0,2024-04-17,2024-04-11,有限会社野村ビル,,有限会社,滋賀県,彦根市,銀座町２番２２号,,25,202,5220088,,,2024-04-11,清算の結了等,,,2015-10-05,1,,,,,ノムラビル,0
772,3170002001670,登記記録の閉鎖等,0,2024-04-17,2024-04-12,有限会社サンエイト,,有限会社,和歌山県,和歌山市,西釘貫丁３丁目１３番地１,,30,201,6408063,,,2024-04-12,清算の結了等,,,2015-10-05,1,,,,,サンエイト,0
776,3180002064064,登記記録の閉鎖等,0,2024-04-17,2024-04-03,有限会社島津建設,,有限会社,愛知県,春日井市,牛山町１８５６番地３,,23,206,4860901,,,2024-04-03,清算の結了等,,,2015-10-05,1,,,,,シマヅケンセツ,0
792,3240001012802,登記記録の閉鎖等,0,2024-04-17,2024-04-15,株式会社美容室ジユリエツト,,株式会社,広島県,広島市中区,袋町３番２８号,,34,101,7300036,,,2024-04-15,清算の結了等,,,2015-10-05,1,,,,,,0
804,3280002010470,登記記録の閉鎖等,0,2024-04-17,2024-04-12,有限会社石州館,,有限会社,島根県,鹿足郡津和野町,町田イ２２８番地,,32,501,6995611,,,2024-04-12,清算の結了等,,,2023-09-11,1,,,,,セキシュウカン,0
818,3290802011139,登記記録の閉鎖等,0,2024-04-17,2024-04-08,有限会社建築工房貴,,有限会社,福岡県,北九州市小倉南区,湯川新町４丁目２６番３４－２０３号,,40,107,8000256,,,2024-04-08,清算の結了等,,,2015-10-05,1,,,,,ケンチクコウボウタカ,0
825,3320001010418,登記記録の閉鎖等,0,2024-04-17,2024-04-08,玖珠ウインドファーム株式会社,,株式会社,大分県,玖珠郡玖珠町,大字戸畑９２１２番の１,,44,462,8794331,,,2024-04-08,合併による解散等,1010401095059,令和６年４月１日東京都千代田区霞が関三丁目２番５号エネクス電力株式会社（1010401095059）に合併し解散,2015-10-05,1,,,,,クスウインドファーム,0
830,3340002027616,登記記録の閉鎖等,0,2024-04-17,2024-04-11,有限会社大崎自動車,,有限会社,鹿児島県,曽於郡大崎町,神領２０４３番地１,,46,468,8997302,,,2024-04-11,清算の結了等,,,2015-10-05,1,,,,,オオサキジドウシャ,0
842,3370002009710,登記記録の閉鎖等,0,2024-04-17,2024-04-08,有限会社インテリヤモイズミ,,有限会社,宮城県,仙台市青葉区,芋沢字新田５６番地の６,,04,101,9893212,,,2024-04-08,清算の結了等,,,2015-10-05,1,,,,,インテリヤモイズミ,0
843,3380001004595,登記記録の閉鎖等,0,2024-04-17,2024-04-08,株式会社今泉商店,,株式会社,福島県,郡山市,本町１丁目１番３号,,07,203,9638871,,,2024-04-08,清算の結了等,,,2015-10-05,1,,,,,イマイズミショウテン,0
853,3430001048059,登記記録の閉鎖等,0,2024-04-17,2024-04-08,株式会社ささえる,,株式会社,北海道,岩見沢市,緑が丘４丁目２２１番地８７,,01,210,0680835,,,2024-04-08,清算の結了等,,,2015-10-05,1,,,,,ササエル,0
857,3430001074914,登記記録の閉鎖等,0,2024-04-17,2024-04-08,株式会社ケーズサポート,,株式会社,北海道,札幌市東区,伏古八条３丁目６番１０－４０５号,,01,103,0070868,,,2024-04-08,清算の結了等,,,2017-09-08,1,,,,,ケーズサポート,0
864,3460105002033,登記記録の閉鎖等,0,2024-04-17,2024-04-12,特定非営利活動法人十勝経営労務相談センター,,その他の設立登記法人,北海道,帯広市,西十七条南４丁目４９番１号,,01,207,0800027,,,2024-04-12,清算の結了等,,,2015-10-05,1,,,,,トカチケイエイロウムソウダンセンター,0
872,4010001034463,登記記録の閉鎖等,0,2024-04-17,2024-04-01,株式会社東京ライニング,,株式会社,東京都,中央区,日本橋箱崎町３６番２号,,13,102,1030015,,,2024-04-01,合併による解散等,6010001065457,令和６年４月１日東京都中央区日本橋箱崎町３６番２号日本設備工業株式会社（6010001065457）に合併し解散,2015-10-05,1,,,,,トウキョウライニング,0
886,4010401039392,登記記録の閉鎖等,0,2024-04-17,2024-04-15,伊東電機販売株式会社,,株式会社,東京都,台東区,東上野１丁目１１番４号,,13,106,1100015,,,2024-04-15,合併による解散等,3010001231953,令和６年４月１日東京都中央区東日本橋一丁目１番７号岩崎電気株式会社（3010001231953）に合併し解散,2015-10-05,1,,,,,イトウデンキハンバイ,0
910,4010803002428,登記記録の閉鎖等,0,2024-04-17,2024-04-15,合同会社フレームワーク,,合同会社,東京都,港区,芝４丁目７番６号芝ビルディング７０４,,13,103,1080014,,,2024-04-15,合併による解散等,1011003005380,令和６年４月１日東京都豊島区東池袋一丁目１７番１１号パークハイツ池袋１１０５号合同会社コンテクスト（1011003005380）に合併し解散,2017-07-21,1,,,,,フレームワーク,0
911,4010803002700,登記記録の閉鎖等,0,2024-04-17,2024-04-15,合同会社田村芳夫,,合同会社,東京都,港区,南青山２丁目２番１５号ウィン青山１２１４号,,13,103,1070062,,,2024-04-15,合併による解散等,1011003005380,令和６年４月１日東京都豊島区東池袋一丁目１７番１１号パークハイツ池袋１１０５号合同会社コンテクスト（1011003005380）に合併し解散,2018-05-28,1,,,,,タムラヨシオ,0
915,4011001067651,登記記録の閉鎖等,0,2024-04-17,2024-04-15,株式会社芝浦サンテ,,株式会社,東京都,渋谷区,幡ヶ谷３丁目１９番２号ＳＫビル１Ｆ,,13,113,1510072,,,2024-04-15,清算の結了等,,,2015-10-05,1,,,,,シバウラサンテ,0
928,4011101099264,登記記録の閉鎖等,0,2024-04-17,2024-04-12,株式会社セカラボ,,株式会社,東京都,新宿区,西新宿３丁目３－１３西新宿水間ビル６Ｆ,,13,104,1600023,,,2024-04-12,合併による解散等,6010001233336,令和６年３月３１日東京都中央区銀座一丁目２２番１１号銀座大竹ビジデンス２ＦＡＢＣＤ株式会社（6010001233336）に合併し解散,2022-06-20,1,,,,,セカラボ,0
936,4011402017560,登記記録の閉鎖等,0,2024-04-17,2024-04-08,有限会社Ｒｉｎａｃｋ,,有限会社,東京都,板橋区,前野町３丁目３８番８号,,13,119,1740063,,,2024-04-08,清算の結了等,,,2015-10-05,1,,,,,リナック,0
940,4012302002974,登記記録の閉鎖等,0,2024-04-17,2024-04-11,有限会社田口,,有限会社,東京都,町田市,成瀬台２丁目２０番地８,,13,209,1940043,,,2024-04-11,清算の結了等,,,2015-10-05,1,,,,,タグチ,0
943,4012401038548,登記記録の閉鎖等,0,2024-04-17,2024-04-09,株式会社ＫＪＳ,,株式会社,東京都,府中市,美好町３丁目３番地の２０,,13,206,1830045,,,2024-04-09,清算の結了等,,,2021-11-18,1,,,,,ケイジェイエス,0
971,4040002097647,登記記録の閉鎖等,0,2024-04-17,2024-04-08,有限会社松下,,有限会社,千葉県,野田市,山崎２６３７番地の９,,12,208,2780022,,,2024-04-08,清算の結了等,,,2015-10-05,1,,,,,マツシタ,0
979,4050002041703,登記記録の閉鎖等,0,2024-04-17,2024-04-11,有限会社マブゼ,,有限会社,茨城県,牛久市,ひたち野西４丁目６番地１５,,08,219,3001206,,,2024-04-11,清算の結了等,,,2015-10-05,1,,,,,,0
987,4060002019541,登記記録の閉鎖等,0,2024-04-17,2024-04-10,有限会社市川商店,,有限会社,栃木県,鹿沼市,御成橋町１丁目２２６５番地３,,09,205,3220005,,,2024-04-10,清算の結了等,,,2015-10-05,1,,,,,イチカワショウテン,0
992,4080402018125,登記記録の閉鎖等,0,2024-04-17,2024-04-12,有限会社山崎鉄工所,,有限会社,静岡県,掛川市,横須賀２５０番地,,22,213,4371301,,,2024-04-12,清算の結了等,,,2015-10-05,1,,,,,ヤマザキテッコウジョ,0
997,4100005011466,登記記録の閉鎖等,0,2024-04-17,2024-04-01,一般社団法人野沢温泉観光協会,,その他の設立登記法人,長野県,下高井郡野沢温泉村,大字豊郷９７８０－４,,20,563,3892502,,,2024-04-01,合併による解散等,5100005012967,令和６年４月１日長野県下高井郡野沢温泉村大字豊郷９７８０番地４一般社団法人野沢温泉マウンテンリゾート観光局（5100005012967）に合併し解散,2015-10-05,1,,,,,ノザワオンセンカンコウキョウカイ,0
1002,4120001146479,登記記録の閉鎖等,0,2024-04-17,2024-04-12,株式会社ＦＥＲＩＡ,,株式会社,大阪府,大阪市福島区,福島６丁目１５番１８号,,27,103,5530003,,,2024-04-12,合併による解散等,7011001155073,令和６年４月１日東京都渋谷区代官山町８番１３号株式会社ＦＥＲＩＡ（7011001155073）に合併し解散,2015-10-05,1,,,,,フェリア,0
1014,4120102018387,登記記録の閉鎖等,0,2024-04-17,2024-04-12,有限会社宮前建設,,有限会社,大阪府,羽曳野市,河原城４８２番地の７,,27,222,5830867,,,2024-04-12,清算の結了等,,,2015-10-05,1,,,,,ミヤマエケンセツ,0
1043,4180001083337,登記記録の閉鎖等,0,2024-04-17,2024-04-11,クリタ東海株式会社,,株式会社,愛知県,一宮市,新生１丁目２番８号,,23,203,4910912,,,2024-04-11,合併による解散等,2140001031573,令和６年４月１日神戸市兵庫区水木通四丁目１番６号クリタ西日本株式会社（2140001031573）に合併し解散,2015-10-05,1,,,,,クリタトウカイ,0
1044,4180001152785,登記記録の閉鎖等,0,2024-04-17,2024-04-04,株式会社街づくりデザインファクトリー,,株式会社,愛知県,知多市,長浦３丁目８４番地,,23,224,4780042,,,2024-04-04,清算の結了等,,,2022-08-29,1,,,,,マチヅクリデザインファクトリー,0
1046,4180002072702,登記記録の閉鎖等,0,2024-04-17,2024-04-04,有限会社小林,,有限会社,愛知県,尾張旭市,庄南町４丁目６４番地の１０,,23,226,4880823,,,2024-04-04,清算の結了等,,,2015-10-05,1,,,,,コバヤシ,0
1065,4240002023129,登記記録の閉鎖等,0,2024-04-17,2024-04-15,有限会社白井商会,,有限会社,広島県,広島市安佐南区,祇園５丁目１３番４号,00120395,34,105,7310138,,,2024-04-15,清算の結了等,,,2015-10-05,1,,,,,シライショウカイ,0
1067,4240005002658,登記記録の閉鎖等,0,2024-04-17,2024-04-12,広島かき生産者協同組合,,その他の設立登記法人,広島県,廿日市市,地御前５丁目２番２０号,,34,213,7380042,,,2024-04-12,清算の結了等,,,2015-10-05,1,,,,,ヒロシマカキセイサンシャ,0
1071,4260002026492,登記記録の閉鎖等,0,2024-04-17,2024-04-02,有限会社イケダ工業,,有限会社,岡山県,井原市,上稲木町１２７番地１,,33,207,7150018,,,2024-04-02,清算の結了等,,,2015-10-05,1,,,,,イケダコウギョウ,0
1074,4260003002831,登記記録の閉鎖等,0,2024-04-17,2024-04-04,合同会社ＰＯＲＴＡ,,合同会社,岡山県,岡山市北区,辰巳２８番１１９号チスカワケＡ２０３,,33,101,7000976,,,2024-04-04,清算の結了等,,,2019-04-12,1,,,,,ポルタ,0
1094,4310002012652,登記記録の閉鎖等,0,2024-04-17,2024-04-08,有限会社池野建設,,有限会社,長崎県,東彼杵郡川棚町,新谷郷１４８番地１,,42,322,8593619,,,2024-04-08,清算の結了等,,,2015-10-05,1,,,,,イケノケンセツ,0
1105,4330002017674,登記記録の閉鎖等,0,2024-04-17,2024-04-09,有限会社カメラのさくら屋,,有限会社,熊本県,菊池市,隈府２２０番地,,43,210,8611331,,,2024-04-09,清算の結了等,,,2015-10-05,1,,,,,カメラノサクラヤ,0
1172,5010403031751,登記記録の閉鎖等,0,2024-04-17,2024-04-03,合同会社Ｌｅａｇｕｅ,,合同会社,東京都,港区,南青山３丁目１番３６号青山丸竹ビル６Ｆ,,13,103,1070062,,,2024-04-03,清算の結了等,,,2024-01-19,1,,,,,リーグ,0
1174,5010501009625,登記記録の閉鎖等,0,2024-04-17,2024-04-11,株式会社中初,,株式会社,東京都,中央区,日本橋浜町３丁目３番２号,,13,102,1030007,,,2024-04-11,合併による解散等,1180001025507,令和６年４月１日名古屋市西区花の木三丁目９番１３号クロスプラス株式会社（1180001025507）に合併し解散,2015-10-05,1,,,,,ナカハツ,0
1190,5011001010189,登記記録の閉鎖等,0,2024-04-17,2024-04-15,ハートフルインターナショナル株式会社,,株式会社,東京都,渋谷区,道玄坂１丁目１９番１１号,,13,113,1500043,,,2024-04-15,清算の結了等,,,2015-10-05,1,,,,,ハートフルインターナショナル,0
1192,5011001091857,登記記録の閉鎖等,0,2024-04-17,2024-04-15,コントラリード株式会社,,株式会社,東京都,渋谷区,千駄ヶ谷３丁目３１番５号,,13,113,1510051,,,2024-04-15,清算の結了等,,,2015-10-05,1,,,,,コントラリード,0
1226,5012402011759,登記記録の閉鎖等,0,2024-04-17,2024-04-10,有限会社多摩川青果食品店,,有限会社,東京都,調布市,小島町３丁目５０番地９,,13,208,1820026,,,2024-04-10,清算の結了等,,,2015-10-05,1,,,,,タマガワセイカショクヒンテン,0
1227,5013301017285,登記記録の閉鎖等,0,2024-04-17,2024-04-11,株式会社東京メディカルサプライ,,株式会社,東京都,千代田区,丸の内１丁目１番１号,,13,101,1000005,,,2024-04-11,合併による解散等,7030001009733,令和６年４月１日大阪府大阪市北区神山町１４番２２号株式会社ジョイプランニング（7030001009733）に合併し解散,2015-10-05,1,,,,,トウキョウメディカルサプライ,0
1230,5013401002328,登記記録の閉鎖等,0,2024-04-17,2024-04-12,株式会社プランディット,,株式会社,東京都,多摩市,落合１丁目３４番,,13,224,2060033,,,2024-04-12,合併による解散等,1260001011820,令和６年４月１日岡山市北区南方三丁目７番１７号株式会社ベネッセコーポレーション（1260001011820）に合併し解散,2015-10-05,1,,,,,プランディット,0
1243,5021001056149,登記記録の閉鎖等,0,2024-04-17,2024-04-04,株式会社Ｐａｎ　Ａｓｉａ　Ａｄｖｉｓｅｒｓ,,株式会社,神奈川県,鎌倉市,梶原３丁目７番２号,,14,204,2470063,,,2024-04-04,清算の結了等,,,2015-10-05,1,,,,,パンアジアアドバイザーズ,0
1247,5021001072014,登記記録の閉鎖等,0,2024-04-17,2024-04-15,永寿デザイン株式会社,,株式会社,神奈川県,大和市,大和東１丁目７番２２号ますみビル７０１号室,,14,213,2420017,,,2024-04-15,清算の結了等,,,2021-02-03,1,,,,,エイジュデザイン,0
1266,5050001032784,登記記録の閉鎖等,0,2024-04-17,2024-04-12,株式会社ぴーす,,株式会社,茨城県,結城市,大字山川新宿４９１番地の４１,,08,207,3070033,,,2024-04-12,清算の結了等,,,2015-10-05,1,,,,,ピース,0
1292,5100001010842,登記記録の閉鎖等,0,2024-04-17,2024-04-01,日栄産業株式会社,,株式会社,長野県,東御市,祢津３０７４番地,,20,219,3890506,,,2024-04-01,合併による解散等,2100001010192,令和６年４月１日長野県上田市国分一丁目１番９号日信サービス株式会社（2100001010192）に合併し解散,2015-10-05,1,,,,,ニチエイサンギョウ,0
1294,5110001027299,登記記録の閉鎖等,0,2024-04-17,2024-04-10,株式会社イエスディー,,株式会社,新潟県,柏崎市,宮場町１番２１号,,15,205,9450827,,,2024-04-10,清算の結了等,,,2015-10-05,1,,,,,イエスディー,0
1300,5120001060027,登記記録の閉鎖等,0,2024-04-17,2024-04-12,株式会社アサヒ・ファミリー・ニュース社,,株式会社,大阪府,大阪市北区,中之島２丁目３番１８号,,27,127,5300005,,,2024-04-12,合併による解散等,7010001068525,令和６年４月１日東京都中央区築地五丁目３番２号株式会社朝日新聞メディアプロダクション（7010001068525）に合併し解散,2015-10-05,1,,,,,アサヒファミリーニュースシャ,0
1301,5120001063112,登記記録の閉鎖等,0,2024-04-17,2024-04-12,株式会社クラウン,,株式会社,大阪府,大阪市北区,西天満３丁目６番３５号,,27,127,5300047,,,2024-04-12,合併による解散等,8010001068350,令和６年４月１日東京都千代田区神田司町二丁目６番地ＡＤＥＫＡ食品販売株式会社（8010001068350）に合併し解散,2015-10-05,1,,,,,クラウン,0
1321,5130001013470,登記記録の閉鎖等,0,2024-04-17,2024-04-09,山科紙工株式会社,,株式会社,京都府,京都市山科区,大宅古海道町１４番地,,26,110,6078177,,,2024-04-09,清算の結了等,,,2015-10-05,1,,,,,ヤマシナシコウ,0
1350,5180002006601,登記記録の閉鎖等,0,2024-04-17,2024-04-05,有限会社高橋精機,,有限会社,愛知県,名古屋市港区,入場２丁目４１１番地,,23,111,4550803,,,2024-04-05,清算の結了等,,,2015-10-05,1,,,,,タカハシセイキ,0
1352,5180301023909,登記記録の閉鎖等,0,2024-04-17,2024-04-15,株式会社Ｄｅｎｋｅｎ,,株式会社,愛知県,安城市,小川町三ツ塚２５番地,,23,212,4441162,,,2024-04-15,清算の結了等,,,2015-10-05,1,,,,,デンケン,0
1369,5240005009058,登記記録の閉鎖等,0,2024-04-17,2024-04-15,瀬戸内アパレル協同組合,,その他の設立登記法人,広島県,府中市,高木町１９０１番地２,,34,208,7260013,,,2024-04-15,清算の結了等,,,2015-10-05,1,,,,,セトウチアパレル,0
1372,5240005015329,登記記録の閉鎖等,0,2024-04-17,2024-04-12,一般社団法人お墓奉心協会,,その他の設立登記法人,広島県,府中市,上下町小堀１７８番地１,,34,208,7293402,,,2024-04-12,清算の結了等,,,2022-02-10,1,,,,,オハカホウシンキョウカイ,0
1377,5290001095353,登記記録の閉鎖等,0,2024-04-17,2024-04-01,はなまる株式会社,,株式会社,福岡県,福岡市東区,奈多３丁目１番８号,,40,131,8110204,,,2024-04-01,合併による解散等,2290001068196,令和６年４月１日福岡市東区奈多三丁目１番８号はなまる株式会社（2290001068196）に合併し解散,2021-11-16,1,,,,,ハナマル,0
1409,5430001039238,登記記録の閉鎖等,0,2024-04-17,2024-04-08,株式会社イオル,,株式会社,北海道,札幌市厚別区,厚別中央一条２丁目４番１９号,,01,108,0040051,,,2024-04-08,清算の結了等,,,2015-10-05,1,,,,,イオル,0
1418,5500001013409,登記記録の閉鎖等,0,2024-04-17,2024-04-09,シーアンドアイ株式会社,,株式会社,愛媛県,今治市,河南町２丁目４番２４号,,38,202,7940822,,,2024-04-09,清算の結了等,,,2015-10-05,1,,,,,シーアンドアイ,0
1419,5500002003879,登記記録の閉鎖等,0,2024-04-17,2024-04-09,有限会社ダイニホーム,,有限会社,愛媛県,松山市,余戸南４丁目３番３９号,,38,201,7900047,,,2024-04-09,清算の結了等,,,2015-10-05,1,,,,,ダイニホーム,0
1424,6010001089076,登記記録の閉鎖等,0,2024-04-17,2024-04-10,株式会社ビビッド・ジャム,,株式会社,東京都,中央区,築地４丁目５番５号池田ビル４階,,13,102,1040045,,,2024-04-10,合併による解散等,1040002016279,令和６年４月１日千葉市美浜区中瀬１－６エムベイポイント幕張１４階株式会社ＧＩＦＴＶＯＸ（1040002016279）に合併し解散,2015-10-05,1,,,,,ビビッドジャム,0
1427,6010001217116,登記記録の閉鎖等,0,2024-04-17,2024-04-09,株式会社世界文化ブックス,,株式会社,東京都,千代田区,九段北４丁目２番２９号,,13,101,1020073,,,2024-04-09,合併による解散等,3010001208860,令和６年４月１日東京都千代田区九段北四丁目２番２９号株式会社世界文化社（3010001208860）に合併し解散,2021-04-09,1,,,,,セカイブンカブックス,0
1458,6010901014959,登記記録の閉鎖等,0,2024-04-17,2024-04-15,オーサム株式会社,,株式会社,東京都,渋谷区,宇田川町３２番７号,,13,113,1500042,,,2024-04-15,清算の結了等,,,2015-10-05,1,,,,,オーサム,0
1466,6011001100930,登記記録の閉鎖等,0,2024-04-17,2024-04-15,子ども子育て総合研究所株式会社,,株式会社,東京都,目黒区,上目黒５丁目５番８号,,13,110,1530051,,,2024-04-15,合併による解散等,8040001071764,令和６年３月３１日千葉県野田市中野台５６４番地の２株式会社コビーアンドアソシエイツ（8040001071764）に合併し解散,2015-10-05,1,,,,,コドモコソダテソウゴウケンキュウジョ,0
1468,6011003004972,登記記録の閉鎖等,0,2024-04-17,2024-04-15,合同会社ランドバンキング,,合同会社,東京都,港区,南青山２丁目２番１５号ウィン青山９４２,,13,103,1070062,,,2024-04-15,合併による解散等,1011003005380,令和６年４月１日東京都豊島区東池袋一丁目１７番１１号パークハイツ池袋１１０５号合同会社コンテクスト（1011003005380）に合併し解散,2015-10-05,1,,,,,ランドバンキング,0
1478,6011601019075,登記記録の閉鎖等,0,2024-04-17,2024-04-15,株式会社アール,,株式会社,神奈川県,逗子市,桜山１丁目３番３１号,,14,208,2490005,,,2024-04-15,清算の結了等,,,2015-10-05,1,,,,,アール,0
1479,6011601024059,登記記録の閉鎖等,0,2024-04-17,2024-04-11,株式会社Ｎａｔｅ,,株式会社,東京都,練馬区,西大泉３丁目２９番３２号,,13,120,1780065,,,2024-04-11,清算の結了等,,,2020-03-13,1,,,,,ネイト,0
1488,6012402011964,登記記録の閉鎖等,0,2024-04-17,2024-04-10,有限会社トランスオーシヤン・トレーダース・インコーポレイテツド,,有限会社,東京都,調布市,布田１丁目４７番地４調布ツインズ,,13,208,1820024,,,2024-04-10,清算の結了等,,,2015-10-05,1,,,,,トランスオーシヤントレーダースインコーポレイテツド,0
1505,6021001021960,登記記録の閉鎖等,0,2024-04-17,2024-04-12,御園商業株式会社,,株式会社,神奈川県,厚木市,下荻野４７３番地７,,14,212,2430203,,,2024-04-12,清算の結了等,,,2015-10-05,1,,,,,ミソノショウギョウ,0
1519,6030002084322,登記記録の閉鎖等,0,2024-04-17,2024-04-11,有限会社ケーアイファーム,,有限会社,埼玉県,鴻巣市,屈巣３８４３番地１１,,11,217,3650014,,,2024-04-11,合併による解散等,7030001009733,令和６年４月１日大阪府大阪市北区神山町１４番２２号株式会社ジョイプランニング（7030001009733）に合併し解散,2015-10-05,1,,,,,ケーアイファーム,0
1546,6080001014333,登記記録の閉鎖等,0,2024-04-17,2024-04-04,株式会社テイクス,,株式会社,静岡県,島田市,金谷２５０６番地の８,,22,209,4280022,,,2024-04-04,清算の結了等,,,2015-10-05,1,,,,,テイクス,0
1547,6080001023268,登記記録の閉鎖等,0,2024-04-17,2024-04-05,株式会社Ｎｏｍｕ,,株式会社,静岡県,静岡市駿河区,国吉田６丁目１５番２０号,,22,102,4228004,,,2024-04-05,清算の結了等,,,2019-12-23,1,,,,,ノム,0
1550,6080401001699,登記記録の閉鎖等,0,2024-04-17,2024-04-11,幸和紙業株式会社,,株式会社,静岡県,浜松市中央区,植松町５２番地の１０,,22,138,4300803,,,2024-04-11,清算の結了等,,,2015-10-05,1,,,,,コウワシギョウ,0
1556,6100001018471,登記記録の閉鎖等,0,2024-04-17,2024-04-03,株式会社ダイワドライ,,株式会社,長野県,諏訪市,大和３丁目９番２２号,,20,206,3920001,,,2024-04-03,清算の結了等,,,2015-10-05,1,,,,,ダイワドライ,0
1558,6110001023248,登記記録の閉鎖等,0,2024-04-17,2024-04-11,株式会社韮澤製作所,,株式会社,新潟県,長岡市,石内１丁目１番３号,,15,202,9400026,,,2024-04-11,清算の結了等,,,2015-10-05,1,,,,,ニラサワセイサクショ,0
1595,6140001058489,登記記録の閉鎖等,0,2024-04-17,2024-04-05,株式会社北村商店,,株式会社,兵庫県,姫路市,延末２９５番地姫路中央卸売市場内,,28,201,6700966,,,2024-04-05,清算の結了等,,,2015-10-05,1,,,,,キタムラショウテン,0
1622,6190002007498,登記記録の閉鎖等,0,2024-04-17,2024-04-11,有限会社田中ウエルテク,,有限会社,三重県,鈴鹿市,白子３丁目９番３６号,,24,207,5100243,,,2024-04-11,清算の結了等,,,2015-10-05,1,,,,,タナカウエルテク,0
1623,6190002008034,登記記録の閉鎖等,0,2024-04-17,2024-04-10,有限会社鈴建,,有限会社,三重県,鈴鹿市,追分町２１３番地３,,24,207,5190313,,,2024-04-10,清算の結了等,,,2015-10-05,1,,,,,レイケン,0
1628,6200003006084,登記記録の閉鎖等,0,2024-04-17,2024-04-15,合同会社シティプランニング可児,,合同会社,岐阜県,可児市,土田字大脇４８００－１,,21,214,5090206,,,2024-04-15,清算の結了等,,,2023-09-25,1,,,,,シティプランニングカニ,0
1633,6240001022831,登記記録の閉鎖等,0,2024-04-17,2024-04-15,新栄工業株式会社,,株式会社,広島県,東広島市,西条町吉行１１３３番地,,34,212,7390002,,,2024-04-15,清算の結了等,,,2015-10-05,1,,,,,シンエイコウギョウ,0
1637,6250001003285,登記記録の閉鎖等,0,2024-04-17,2024-04-12,新興電気工事株式会社,,株式会社,山口県,宇部市,明神町３丁目６番４２号,,35,202,7550008,,,2024-04-12,合併による解散等,4120001064499,令和６年４月１日東京都渋谷区東二丁目２９番１２号三栄電気工業株式会社（4120001064499）に合併し解散,2015-10-05,1,,,,,シンコウデンキコウジ,0
1686,6470002002289,登記記録の閉鎖等,0,2024-04-17,2024-04-04,有限会社きのと,,有限会社,香川県,高松市,南新町３番地の８,,37,201,7600051,,,2024-04-04,清算の結了等,,,2015-10-05,1,,,,,キノト,0
1708,7010403018020,登記記録の閉鎖等,0,2024-04-17,2024-04-05,ＭＴ－Ｔｅｃ合同会社,,合同会社,東京都,港区,西新橋１丁目６番１３号,,13,103,1050003,,,2024-04-05,清算の結了等,,,2018-02-02,1,,,,,エムティーテック,0
1709,7010403021998,登記記録の閉鎖等,0,2024-04-17,2024-03-28,Ｄｏｇ＆Ｃｏｍｍｕｎｉｔｙ合同会社,,合同会社,東京都,港区,高輪３丁目１１番１号,,13,103,1080074,,,2024-03-28,清算の結了等,,,2019-12-11,1,,,,,ドッグアンドコミュニティ,0
1717,7010801027647,登記記録の閉鎖等,0,2024-04-17,2024-04-08,株式会社ケアサービスヒューマンキャピタル,,株式会社,東京都,大田区,大森北１丁目２番３号,,13,111,1430016,,,2024-04-08,清算の結了等,,,2017-04-07,1,,,,,ケアサービスヒューマンキャピタル,0
1724,7011001009403,登記記録の閉鎖等,0,2024-04-17,2024-04-15,三明興業株式会社,,株式会社,神奈川県,川崎市高津区,千年１１９７番地,,14,134,2130022,,,2024-04-15,合併による解散等,7010701012492,令和６年４月１日東京都品川区東五反田四丁目５番３号サコス株式会社（7010701012492）に合併し解散,2015-10-05,1,,,,,サンメイコウギョウ,0
1732,7011003008139,登記記録の閉鎖等,0,2024-04-17,2024-04-15,合同会社ゼロベース,,合同会社,東京都,台東区,上野６丁目１番６号御徒町グリーンハイツ１００５号,,13,106,1100005,,,2024-04-15,合併による解散等,1011003005380,令和６年４月１日東京都豊島区東池袋一丁目１７番１１号パークハイツ池袋１１０５号合同会社コンテクスト（1011003005380）に合併し解散,2017-10-19,1,,,,,ゼロベース,0
1747,7011602003738,登記記録の閉鎖等,0,2024-04-17,2024-03-27,有限会社光庸通信,,有限会社,東京都,練馬区,西大泉６丁目１３番１１号,,13,120,1780065,,,2024-03-27,清算の結了等,,,2015-10-05,1,,,,,コウヨウツウシン,0
1754,7011802025929,登記記録の閉鎖等,0,2024-04-17,2024-04-11,有限会社ハートプライムカンパニー,,有限会社,東京都,足立区,入谷４丁目１８番１６号,,13,121,1210836,,,2024-04-11,清算の結了等,,,2015-10-05,1,,,,,ハートプライムカンパニー,0
1762,7012401035286,登記記録の閉鎖等,0,2024-04-17,2024-04-10,株式会社ＥａｓｔＨｉｌｌ　Ｔｒａｄｉｎｇ,,株式会社,東京都,狛江市,中和泉２丁目１０番１４－２０２号,,13,219,2010012,,,2024-04-10,清算の結了等,,,2019-05-22,1,,,,,イーストヒルトレーディング,0
1769,7020001030855,登記記録の閉鎖等,0,2024-04-17,2024-04-11,株式会社大村薬局,,株式会社,神奈川県,横浜市中区,麦田町４丁目１０２番地,,14,104,2310849,,,2024-04-11,合併による解散等,7030001009733,令和６年４月１日大阪府大阪市北区神山町１４番２２号株式会社ジョイプランニング（7030001009733）に合併し解散,2015-10-05,1,,,,,オオムラヤッキョク,0
1783,7021002043202,登記記録の閉鎖等,0,2024-04-17,2024-04-15,有限会社ウチダシステムサービス,,有限会社,神奈川県,座間市,ひばりが丘５丁目３８番２３号,,14,216,2520003,,,2024-04-15,清算の結了等,,,2015-10-05,1,,,,,,0
1802,7050001033418,登記記録の閉鎖等,0,2024-04-17,2024-04-10,協和テクノ株式会社,,株式会社,茨城県,土浦市,烏山３丁目９３３番地５,,08,203,3000836,,,2024-04-10,清算の結了等,,,2015-10-05,1,,,,,キョウワテクノ,0
1809,7060002027252,登記記録の閉鎖等,0,2024-04-17,2024-04-09,有限会社村研,,有限会社,栃木県,矢板市,木幡１６５９番地８,,09,211,3292142,,,2024-04-09,清算の結了等,,,2015-10-05,1,,,,,ムラケン,0
1835,7120001010830,登記記録の閉鎖等,0,2024-04-17,2024-04-05,株式会社平井商店,,株式会社,大阪府,大阪市東住吉区,鷹合１丁目１１番２１号,,27,121,5460014,,,2024-04-05,清算の結了等,,,2015-10-05,1,,,,,ヒライショウテン,0
1841,7120001207757,登記記録の閉鎖等,0,2024-04-17,2024-04-11,株式会社ＣＬ,,株式会社,大阪府,大阪市東淀川区,西淡路１丁目３番２６号,,27,114,5330031,,,2024-04-11,合併による解散等,8010001077624,令和６年３月３１日東京都港区港南一丁目８番２３号株式会社フォーバルテレコム（8010001077624）に合併し解散,2017-08-24,1,,,,,シーエル,0
1861,7122001032631,登記記録の閉鎖等,0,2024-04-17,2024-04-02,株式会社ブレッシング,,株式会社,大阪府,箕面市,船場東２丁目４番１号フレスデザインビル,,27,220,5620035,,,2024-04-02,合併による解散等,8120901028780,令和６年４月１日大阪府箕面市船場東二丁目４番１号フレスデザインビルフレスデザイン株式会社（8120901028780）に合併し解散,2019-06-03,1,,,,,ブレッシング,0
1862,7130001023476,登記記録の閉鎖等,0,2024-04-17,2024-04-08,株式会社ハネダ,,株式会社,京都府,京都市上京区,今出川通烏丸東入相国寺門前町６３６番地１,,26,102,6020898,,,2024-04-08,清算の結了等,,,2015-10-05,1,,,,,ハネダ,0
1863,7130001051262,登記記録の閉鎖等,0,2024-04-17,2024-04-12,株式会社ホーユー京都,,株式会社,京都府,京都市左京区,岡崎円勝寺町１４９番地,,26,103,6068344,,,2024-04-12,清算の結了等,,,2015-10-05,1,,,,,,0
1864,7130001055420,登記記録の閉鎖等,0,2024-04-17,2024-04-11,株式会社イブー,,株式会社,京都府,福知山市,荒河東町１５５番地,,26,201,6200061,,,2024-04-11,清算の結了等,,,2015-10-05,1,,,,,,0
1874,7140001065014,登記記録の閉鎖等,0,2024-04-17,2024-04-10,株式会社レクセス,,株式会社,兵庫県,姫路市,香寺町中屋２４番地１,,28,201,6792144,,,2024-04-10,合併による解散等,8030001009229,令和６年４月１日東京都港区虎ノ門三丁目１８番５号株式会社ジェッセ（8030001009229）に合併し解散,2015-10-05,1,,,,,レクセス,0
1883,7150002002304,登記記録の閉鎖等,0,2024-04-17,2024-04-15,有限会社インタープロダクツ,,有限会社,奈良県,奈良市,あやめ池南８丁目６番４８号,,29,201,6310033,,,2024-04-15,清算の結了等,,,2015-10-05,1,,,,,インタープロダクツ,0
1884,7150003002889,登記記録の閉鎖等,0,2024-04-17,2024-04-15,合同会社Ｐｒｅｓｉａ,,合同会社,奈良県,香芝市,真美ヶ丘４丁目６番４号,,29,210,6390223,,,2024-04-15,清算の結了等,,,2023-02-16,1,,,,,プレシア,0
1885,7160001006610,登記記録の閉鎖等,0,2024-04-17,2024-04-11,株式会社ゴルフシティナガハマ,,株式会社,滋賀県,長浜市,西上坂町１５２番地,,25,203,5260803,,,2024-04-11,清算の結了等,,,2015-10-05,1,,,,,ゴルフシティナガハマ,0
1897,7180003018585,登記記録の閉鎖等,0,2024-04-17,2024-04-03,フルフル合同会社,,合同会社,愛知県,名古屋市守山区,天子田１丁目１００３番地メゾン天子田３０３号室,,23,113,4630037,,,2024-04-03,清算の結了等,,,2018-01-15,1,,,,,フルフル,0
1901,7180303005168,登記記録の閉鎖等,0,2024-04-17,2024-03-18,合同会社Ｒａｎｇｅｒｓ,,合同会社,愛知県,西尾市,東幡豆町田中６９番地１,,23,213,4440701,,,2024-03-18,清算の結了等,,,2021-11-16,1,,,,,レンジャーズ,0
1903,7190001005196,登記記録の閉鎖等,0,2024-04-17,2024-04-03,中部重機工業株式会社,,株式会社,三重県,鈴鹿市,矢橋３丁目５番４０号,,24,207,5130036,,,2024-04-03,清算の結了等,,,2024-01-25,1,,,,,チュウブジュウキコウギョウ,0
1910,7200003000400,登記記録の閉鎖等,0,2024-04-17,2024-04-15,合資会社古金軒,,合資会社,岐阜県,岐阜市,日ノ出町１丁目１９番地,,21,201,5008876,,,2024-04-15,清算の結了等,,,2015-10-05,1,,,,,コガネケン,0
1913,7210001004682,登記記録の閉鎖等,0,2024-04-17,2024-04-11,クリタ明希株式会社,,株式会社,福井県,福井市,高木中央１丁目２９１３番地,,18,201,9100804,,,2024-04-11,合併による解散等,2140001031573,令和６年４月１日神戸市兵庫区水木通四丁目１番６号クリタ西日本株式会社（2140001031573）に合併し解散,2015-10-05,1,,,,,クリタメイキ,0
1917,7220001019564,登記記録の閉鎖等,0,2024-04-17,2024-04-08,ＳＨＩＮＤＥＸ株式会社,,株式会社,石川県,金沢市,疋田１丁目１００番地,,17,201,9200003,,,2024-04-08,清算の結了等,,,2015-10-05,1,,,,,,0
1924,7240001051094,登記記録の閉鎖等,0,2024-04-17,2024-04-12,株式会社ＣＲＣビジネスブレイン,,株式会社,広島県,広島市東区,二葉の里２丁目２番３２－１０５号,,34,102,7320057,,,2024-04-12,清算の結了等,,,2017-05-11,1,,,,,,0
1930,7260001030690,登記記録の閉鎖等,0,2024-04-17,2024-04-04,株式会社ＭＥＮＴＡＬＤＲＥＡＭＥＲ,,株式会社,岡山県,岡山市南区,福富西１丁目９－３４－５,,33,104,7028031,,,2024-04-04,清算の結了等,,,2017-04-11,1,,,,,メンタルドリーマー,0
1933,7260002002615,登記記録の閉鎖等,0,2024-04-17,2024-04-04,有限会社片山水産,,有限会社,岡山県,岡山市北区,大和町１丁目２番１号,,33,101,7000808,,,2024-04-04,清算の結了等,,,2015-10-05,1,,,,,カタヤマスイサン,0
1936,7270002001839,登記記録の閉鎖等,0,2024-04-17,2024-04-12,有限会社前場瓦製作所,,有限会社,鳥取県,鳥取市,馬場１７１番地３,,31,201,6801131,,,2024-04-12,清算の結了等,,,2015-10-05,1,,,,,マエバカワラセイサクショ,0
1938,7290001029012,登記記録の閉鎖等,0,2024-04-17,2024-04-10,ベルモントコミュニケーションズウエスト株式会社,,株式会社,福岡県,福岡市博多区,金の隈１丁目３３番４６号,,40,132,8120863,,,2024-04-10,合併による解散等,5120001095221,令和６年４月１日大阪市中央区東心斎橋二丁目１番１号ベルモントコミュニケーションズ株式会社（5120001095221）に合併し解散,2015-10-05,1,,,,,ベルモントコミュニケーションズウエスト,0
1953,7310002010851,登記記録の閉鎖等,0,2024-04-17,2024-04-12,有限会社内外興業,,有限会社,長崎県,佐世保市,木風町１４５１番地２,,42,202,8571166,,,2024-04-12,清算の結了等,,,2015-10-05,1,,,,,ナイガイコウギョウ,0
1955,7320001017013,登記記録の閉鎖等,0,2024-04-17,2024-04-08,株式会社アクト合成九州,,株式会社,大分県,宇佐市,大字上田２１１１番地の１,,44,211,8790453,,,2024-04-08,清算の結了等,,,2019-04-16,1,,,,,アクトゴウセイキュウシュウ,0
1958,7340001017275,登記記録の閉鎖等,0,2024-04-17,2024-04-11,ウィルビィ株式会社,,株式会社,鹿児島県,鹿児島市,谷山中央６丁目５１番８号,,46,201,8910141,,,2024-04-11,清算の結了等,,,2015-10-05,1,,,,,ウィルビィ,0
1967,7370001043319,登記記録の閉鎖等,0,2024-04-17,2024-04-08,株式会社エイシン,,株式会社,宮城県,大崎市,三本木桑折字都松１７番地５８,,04,215,9896301,,,2024-04-08,清算の結了等,,,2018-07-18,1,,,,,,0
1996,7500003002060,登記記録の閉鎖等,0,2024-04-17,2024-04-02,合同会社フィルクローバー,,合同会社,愛媛県,伊予市,下三谷１８７６番地１,,38,210,7993105,,,2024-04-02,清算の結了等,,,2018-02-21,1,,,,,,0
1999,8010001069035,登記記録の閉鎖等,0,2024-04-17,2024-04-08,株式会社マイパック,,株式会社,東京都,墨田区,錦糸１丁目２番１号,,13,107,1300013,,,2024-04-08,合併による解散等,7010001074242,令和６年４月１日東京都墨田区錦糸一丁目２番１号エムオーツーリスト株式会社（7010001074242）に合併し解散,2015-10-05,1,,,,,マイパック,0
2002,8010001198222,登記記録の閉鎖等,0,2024-04-17,2024-04-04,株式会社Ｈ＆Ｇ,,株式会社,東京都,千代田区,神田錦町２丁目２番地１,,13,101,1010054,,,2024-04-04,合併による解散等,5010001183004,令和６年４月１日東京都千代田区神田錦町二丁目２番地１株式会社Ｈ＆Ｈホールディングス（5010001183004）に合併し解散,2019-02-05,1,,,,,エイチアンドジー,0
2003,8010001208856,登記記録の閉鎖等,0,2024-04-17,2024-04-03,株式会社リテイギ,,株式会社,東京都,千代田区,四番町６番,,13,101,1020081,,,2024-04-03,合併による解散等,5010001166909,令和６年４月１日東京都千代田区四番町６番株式会社オプト（5010001166909）に合併し解散,2020-04-22,1,,,,,リテイギ,0
2041,8010801014009,登記記録の閉鎖等,0,2024-04-17,2024-04-15,森ヶ崎エナジーサービス株式会社,,株式会社,東京都,大田区,昭和島２丁目５番１号,,13,111,1430004,,,2024-04-15,合併による解散等,9011101030975,令和６年４月１日東京都品川区大崎一丁目６番４号日本ファシリティ・ソリューション株式会社（9011101030975）に合併し解散,2015-10-05,1,,,,,モリガサキエナジーサービス,0
2044,8010803002663,登記記録の閉鎖等,0,2024-04-17,2024-04-15,合同会社キャッシュフロー,,合同会社,神奈川県,横浜市西区,高島２丁目１１番２号スカイメナー横浜４２２,,14,103,2200011,,,2024-04-15,合併による解散等,1011003005380,令和６年４月１日東京都豊島区東池袋一丁目１７番１１号パークハイツ池袋１１０５号合同会社コンテクスト（1011003005380）に合併し解散,2018-04-24,1,,,,,キャッシュフロー,0
2049,8010903005120,登記記録の閉鎖等,0,2024-04-17,2024-04-11,サンライズ合同会社,,合同会社,東京都,世田谷区,中町３丁目２７番１０－１０２号,,13,112,1580091,,,2024-04-11,清算の結了等,,,2019-07-29,1,,,,,サンライズ,0
2060,8011002026652,登記記録の閉鎖等,0,2024-04-17,2024-04-15,ＰＲＯＦＯＵＮＤ有限会社,,有限会社,東京都,渋谷区,渋谷４丁目３番１７号,,13,113,1500002,,,2024-04-15,清算の結了等,,,2015-10-05,1,,,,,,0
2061,8011003005754,登記記録の閉鎖等,0,2024-04-17,2024-04-15,合同会社リレーションシップ,,合同会社,東京都,世田谷区,玉川３丁目２０番２号マノア玉川第３ビル５０１号室,,13,112,1580094,,,2024-04-15,合併による解散等,1011003005380,令和６年４月１日東京都豊島区東池袋一丁目１７番１１号パークハイツ池袋１１０５号合同会社コンテクスト（1011003005380）に合併し解散,2015-10-05,1,,,,,リレーションシップ,0
2064,8011101080609,登記記録の閉鎖等,0,2024-04-17,2024-04-12,株式会社学力評価研究機構,,株式会社,東京都,新宿区,西新宿２丁目１番１号,,13,104,1600023,,,2024-04-12,合併による解散等,1260001011820,令和６年４月１日岡山市北区南方三丁目７番１７号株式会社ベネッセコーポレーション（1260001011820）に合併し解散,2017-05-22,1,,,,,ガクリョクヒョウカケンキュウキコウ,0
2072,8011301008913,登記記録の閉鎖等,0,2024-04-17,2024-04-15,ミサワホームＭＪ株式会社,,株式会社,東京都,杉並区,高井戸東２丁目４番５号,,13,115,1680072,,,2024-04-15,合併による解散等,5011101035813,令和６年４月１日東京都新宿区西新宿二丁目４番１号ミサワホーム株式会社（5011101035813）に合併し解散,2015-10-05,1,,,,,ミサワホームエムジェイ,0
2076,8011402019710,登記記録の閉鎖等,0,2024-04-17,2024-04-04,有限会社新環境計画,,有限会社,愛知県,一宮市,三条字屋敷５８６番地１,,23,203,4940003,,,2024-04-04,清算の結了等,,,2015-10-05,1,,,,,シンカンキョウケイカク,0
2096,8020002014880,登記記録の閉鎖等,0,2024-04-17,2024-04-03,有限会社寺島建装,,有限会社,神奈川県,横浜市青葉区,あざみ野南３丁目７番地２４,,14,117,2250012,,,2024-04-03,清算の結了等,,,2015-10-05,1,,,,,テラジマケンソウ,0
2097,8020002072210,登記記録の閉鎖等,0,2024-04-17,2024-04-08,有限会社ペア・フレンズ,,有限会社,神奈川県,横浜市港南区,港南４丁目１２番３９－４０５号,,14,111,2330003,,,2024-04-08,合併による解散等,6020001041382,令和６年４月１日横浜市神奈川区鶴屋町二丁目２０番地１ＹＴＵビル３階株式会社ジェーピーエー（6020001041382）に合併し解散,2015-10-05,1,,,,,ペアフレンズ,0
2102,8021001043383,登記記録の閉鎖等,0,2024-04-17,2024-04-16,株式会社イソベ,,株式会社,神奈川県,三浦市,三崎２丁目３番２号,,14,210,2380243,,,2024-04-16,清算の結了等,,,2015-10-05,1,,,,,イソベ,0
2131,8040001079650,登記記録の閉鎖等,0,2024-04-17,2024-04-04,株式会社内千,,株式会社,千葉県,市川市,福栄２丁目２番９号,,12,203,2720137,,,2024-04-04,清算の結了等,,,2015-10-05,1,,,,,ウチセン,0
2135,8040002031791,登記記録の閉鎖等,0,2024-04-17,2024-04-08,有限会社ブライトン,,有限会社,千葉県,船橋市,松が丘５丁目３９番１号,,12,204,2740064,,,2024-04-08,清算の結了等,,,2015-10-05,1,,,,,ブライトン,0
2161,8110003004541,登記記録の閉鎖等,0,2024-04-17,2024-04-10,リビングプロモート合同会社,,合同会社,新潟県,新潟市西区,五十嵐２の町８６８０番地１１,,15,107,9502102,,,2024-04-10,清算の結了等,,,2021-08-04,1,,,,,リビングプロモート,0
2162,8120001008964,登記記録の閉鎖等,0,2024-04-17,2024-04-05,株式会社リバティ,,株式会社,大阪府,大阪市都島区,高倉町２丁目１番２号,,27,102,5340011,,,2024-04-05,清算の結了等,,,2015-10-05,1,,,,,リバティ,0
2195,8140001005555,登記記録の閉鎖等,0,2024-04-17,2024-04-08,株式会社環境戦略研究所,,株式会社,兵庫県,神戸市西区,竹の台４丁目１０番地の７,,28,111,6512274,,,2024-04-08,清算の結了等,,,2015-10-05,1,,,,,カンキョウセンリャクケンキュウショ,0
2203,8170002001609,登記記録の閉鎖等,0,2024-04-17,2024-04-12,坂本貨物運輸有限会社,,有限会社,和歌山県,和歌山市,北島４２７番地の１,,30,201,6408403,,,2024-04-12,清算の結了等,,,2015-10-05,1,,,,,サカモトカモツウンユ,0
2206,8180001097705,登記記録の閉鎖等,0,2024-04-17,2024-04-11,リーマン株式会社,,株式会社,愛知県,愛西市,西保町南川原６８番地１,,23,232,4960911,,,2024-04-11,合併による解散等,4120001086023,令和６年３月３１日大阪市中央区北浜東１番２０号ナカバヤシ株式会社（4120001086023）に合併し解散,2015-10-05,1,,,,,リーマン,0
2223,8230001001850,登記記録の閉鎖等,0,2024-04-17,2024-04-09,東洋ゴム北陸販売株式会社,,株式会社,富山県,富山市,呉羽町７２７１番地の１,,16,201,9300138,,,2024-04-09,合併による解散等,1230001010544,令和６年４月１日富山県高岡市昭和町一丁目２番１０号トナミ商事株式会社（1230001010544）に合併し解散,2015-10-05,1,,,,,トウヨウゴムホクリクハンバイ,0
2230,8260002012704,登記記録の閉鎖等,0,2024-04-17,2024-04-05,有限会社ユウケン,,有限会社,岡山県,岡山市北区,庭瀬９５７番地１,,33,101,7010153,,,2024-04-05,清算の結了等,,,2015-10-05,1,,,,,,0
2231,8260002032280,登記記録の閉鎖等,0,2024-04-17,2024-04-04,有限会社クワトロファンド,,有限会社,岡山県,瀬戸内市,牛窓町牛窓４９４９番地１２,,33,212,7014302,,,2024-04-04,清算の結了等,,,2015-10-05,1,,,,,クワトロファンド,0
2246,8320002017630,登記記録の閉鎖等,0,2024-04-17,2024-04-01,有限会社亀の甲,,有限会社,大分県,佐伯市,直川大字横川字大ツル８１７番地,,44,205,8793105,,,2024-04-01,合併による解散等,1320001009180,令和６年４月１日大分県佐伯市直川大字横川字亀の甲７８９番地４ぶんご銘醸株式会社（1320001009180）に合併し解散,2015-10-05,1,,,,,カメノコウ,0
2247,8320003003456,登記記録の閉鎖等,0,2024-04-17,2024-04-08,合同会社チャレンジワン,,合同会社,大分県,宇佐市,大字上田２１１１番地の１,,44,211,8790453,,,2024-04-08,清算の結了等,,,2021-02-22,1,,,,,チャレンジワン,0
2249,8340001015443,登記記録の閉鎖等,0,2024-04-17,2024-04-11,株式会社川野,,株式会社,鹿児島県,志布志市,松山町泰野３１４番地３,,46,221,8997602,,,2024-04-11,清算の結了等,,,2015-10-05,1,,,,,カワノ,0
2257,8370001009632,登記記録の閉鎖等,0,2024-04-17,2024-04-01,株式会社アコード,,株式会社,宮城県,仙台市若林区,卸町４丁目７番地の１,,04,103,9840015,,,2024-04-01,合併による解散等,1370001020926,令和６年４月１日仙台市若林区卸町四丁目７番地の１株式会社アコードセキュリティ（1370001020926）に合併し解散,2015-10-05,1,,,,,アコード,0
2258,8370001047863,登記記録の閉鎖等,0,2024-04-17,2024-04-04,株式会社リベタス,,株式会社,宮城県,角田市,角田字泉町３４番地３,,04,208,9811505,,,2024-04-04,清算の結了等,,,2021-11-25,1,,,,,リベタス,0
2260,8370802000104,登記記録の閉鎖等,0,2024-04-17,2024-04-05,有限会社エンタープライズ新栄,,有限会社,宮城県,名取市,ゆりが丘３丁目５番地１０号,,04,207,9811245,,,2024-04-05,清算の結了等,,,2015-10-05,1,,,,,エンタープライズシンエイ,0
2272,8430003015267,登記記録の閉鎖等,0,2024-04-17,2024-04-10,合同会社札幌医療コンサルティング,,合同会社,北海道,札幌市豊平区,月寒中央通１０丁目６－１８,,01,105,0620020,,,2024-04-10,清算の結了等,,,2023-08-23,1,,,,,サッポロイリョウコンサルティング,0
2288,9010001134754,登記記録の閉鎖等,0,2024-04-17,2024-04-15,アイグラフィックス株式会社,,株式会社,東京都,墨田区,錦糸３丁目２番１号,,13,107,1300013,,,2024-04-15,合併による解散等,3010001231953,令和６年４月１日東京都中央区東日本橋一丁目１番７号岩崎電気株式会社（3010001231953）に合併し解散,2015-10-05,1,,,,,アイグラフィックス,0
2289,9010001137914,登記記録の閉鎖等,0,2024-04-17,2024-04-03,株式会社デジタルシフト,,株式会社,東京都,千代田区,四番町６番,,13,101,1020081,,,2024-04-03,合併による解散等,5010001166909,令和６年４月１日東京都千代田区四番町６番株式会社オプト（5010001166909）に合併し解散,2015-10-05,1,,,,,デジタルシフト,0
2304,9010401078576,登記記録の閉鎖等,0,2024-04-17,2024-04-03,株式会社ＩＮＰＥＸトレーディング,,株式会社,東京都,港区,赤坂５丁目３番１号,,13,103,1070052,,,2024-04-03,合併による解散等,7010401078520,令和６年４月１日東京都港区赤坂五丁目３番１号株式会社ＩＮＰＥＸ（7010401078520）に合併し解散,2015-10-05,1,,,,,インペックストレーディング,0
2339,9011003005381,登記記録の閉鎖等,0,2024-04-17,2024-04-15,合同会社タムラ,,合同会社,東京都,港区,六本木４丁目３番１１号六本木ユニハウス２２３号,,13,103,1060032,,,2024-04-15,合併による解散等,1011003005380,令和６年４月１日東京都豊島区東池袋一丁目１７番１１号パークハイツ池袋１１０５号合同会社コンテクスト（1011003005380）に合併し解散,2015-10-05,1,,,,,タムラ,0
2365,9020002080402,登記記録の閉鎖等,0,2024-04-17,2024-04-09,有限会社押切工業,,有限会社,神奈川県,川崎市幸区,塚越４丁目３２０の７,,14,132,2120024,,,2024-04-09,清算の結了等,,,2015-10-05,1,,,,,オシリキコウギョウ,0
2368,9020005006321,登記記録の閉鎖等,0,2024-04-17,2024-04-09,特定非営利活動法人水地探会カルカロドン,,その他の設立登記法人,神奈川県,横浜市港北区,錦が丘７番６号,,14,109,2220013,,,2024-04-09,清算の結了等,,,2015-10-05,1,,,,,スイチタンカイカルカロドン,0
2369,9021001047235,登記記録の閉鎖等,0,2024-04-17,2024-04-15,株式会社Ｈ・Ｍ・Ｋ,,株式会社,神奈川県,相模原市緑区,橋本６丁目４番１５号,,14,151,2520143,,,2024-04-15,清算の結了等,,,2015-10-05,1,,,,,エイチエムケイ,0
2371,9021002015281,登記記録の閉鎖等,0,2024-04-17,2024-04-08,有限会社中村正昭建築設計事務所,,有限会社,神奈川県,鎌倉市,腰越３丁目２０番８号,,14,204,2480033,,,2024-04-08,清算の結了等,,,2015-10-05,1,,,,,ナカムラマサアキケンチクセッケイジムショ,0
2372,9021002035544,登記記録の閉鎖等,0,2024-04-17,2024-04-12,有限会社丸正クリーニング,,有限会社,神奈川県,伊勢原市,上粕屋１２６１番地,,14,214,2591141,,,2024-04-12,清算の結了等,,,2015-10-05,1,,,,,マルショウクリーニング,0
2373,9021002064790,登記記録の閉鎖等,0,2024-04-17,2024-04-15,有限会社島林設計事務所,,有限会社,神奈川県,横須賀市,池田町６丁目３８番６号,,14,201,2390806,,,2024-04-15,清算の結了等,,,2015-10-05,1,,,,,,0
2412,9080002010329,登記記録の閉鎖等,0,2024-04-17,2024-04-08,有限会社セイナン,,有限会社,静岡県,静岡市清水区,梅田町５番１７号,,22,103,4240948,,,2024-04-08,清算の結了等,,,2015-10-05,1,,,,,セイナン,0
2418,9080402016990,登記記録の閉鎖等,0,2024-04-17,2024-04-11,有限会社わたなべすたいる,,有限会社,静岡県,浜松市中央区,村櫛町２５８０番地の１２,,22,138,4311207,,,2024-04-11,清算の結了等,,,2015-10-05,1,,,,,ワタナベスタイル,0
2423,9120001152489,登記記録の閉鎖等,0,2024-04-17,2024-04-04,三和金属株式会社,,株式会社,大阪府,交野市,星田９丁目５５番２号,,27,230,5760016,,,2024-04-04,清算の結了等,,,2015-10-05,1,,,,,サンワキンゾク,0
2425,9120001211245,登記記録の閉鎖等,0,2024-04-17,2024-04-03,坂田ロジスティクスジャパン株式会社,,株式会社,大阪府,大阪市西区,靱本町３丁目９－９,,27,106,5500004,,,2024-04-03,清算の結了等,,,2018-02-15,1,,,,,サカダロジスティクスジャパン,0
2432,9120002076753,登記記録の閉鎖等,0,2024-04-17,2024-04-05,有限会社ハヤシサービス,,有限会社,大阪府,寝屋川市,中神田町１８番２８号,,27,215,5720053,,,2024-04-05,清算の結了等,,,2015-10-05,1,,,,,ハヤシサービス,0
2439,9120901002891,登記記録の閉鎖等,0,2024-04-17,2024-04-15,エ・ル・デザイン株式会社,,株式会社,大阪府,茨木市,西中条町２番３０号,,27,211,5670887,,,2024-04-15,合併による解散等,9130001021073,令和６年４月１日京都市中京区西ノ京桑原町１番地島津ロジスティクスサービス株式会社（9130001021073）に合併し解散,2015-10-05,1,,,,,エルデザイン,0
2443,9120905003630,登記記録の閉鎖等,0,2024-04-17,2024-04-09,農事組合法人野間西山営農会,,その他の設立登記法人,大阪府,豊能郡能勢町,野間西山１５０番地の１,,27,322,5630135,,,2024-04-09,清算の結了等,,,2015-10-05,1,,,,,ノマニシヤマエイノウカイ,0
2475,9180002021324,登記記録の閉鎖等,0,2024-04-17,2024-04-04,有限会社木之和,,有限会社,愛知県,名古屋市天白区,中砂町９２番地,,23,116,4680065,,,2024-04-04,清算の結了等,,,2015-10-05,1,,,,,キノワ,0
2481,9180301011273,登記記録の閉鎖等,0,2024-04-17,2024-04-04,株式会社ファミリードラッグすずき,,株式会社,愛知県,蒲郡市,形原町北新田６３番地１,,23,214,4430104,,,2024-04-04,清算の結了等,,,2015-10-05,1,,,,,ファミリードラッグスズキ,0
2499,9290001031602,登記記録の閉鎖等,0,2024-04-17,2024-04-09,みらいアグリ株式会社,,株式会社,福岡県,福岡市博多区,祇園町２番８号,,40,132,8120038,,,2024-04-09,合併による解散等,4010401073672,令和６年４月１日東京都港区芝浦三丁目１番１号ＮＣＴアグリ株式会社（4010401073672）に合併し解散,2015-10-05,1,,,,,ミライアグリ,0
2508,9290802004095,登記記録の閉鎖等,0,2024-04-17,2024-04-15,有限会社千原工業,,有限会社,福岡県,北九州市小倉南区,津田新町１丁目３番５号,,40,107,8000227,,,2024-04-15,清算の結了等,,,2015-10-05,1,,,,,チハラコウギョウ,0
2512,9320003003091,登記記録の閉鎖等,0,2024-04-17,2024-04-08,ＴＨＣ合同会社,,合同会社,大分県,宇佐市,大字石田４８番地の６,,44,211,8790444,,,2024-04-08,清算の結了等,,,2019-09-24,1,,,,,ティーエイチシー,0
2536,9430001022272,登記記録の閉鎖等,0,2024-04-17,2024-04-11,北海道トッパン・フォームズ株式会社,,株式会社,北海道,札幌市西区,二十四軒四条１丁目１番３０号,,01,107,0630804,,,2024-04-11,合併による解散等,4010501029335,令和６年４月１日東京都台東区台東一丁目５番１号株式会社トッパンコミュニケーションプロダクツ（4010501029335）に合併し解散,2015-10-05,1,,,,,ホッカイドウトッパンフォームズ,0
2543,9430002051329,登記記録の閉鎖等,0,2024-04-17,2024-04-08,有限会社中央美容室,,有限会社,北海道,夕張郡長沼町,銀座南１丁目５番２号,,01,428,0691331,,,2024-04-08,清算の結了等,,,2015-10-05,1,,,,,チュウオウビヨウシツ,0
2554,9480005005806,登記記録の閉鎖等,0,2024-04-17,2024-04-10,特定非営利活動法人ヒューマンライツ文化・福祉ネットワーク,,その他の設立登記法人,徳島県,美馬市,美馬町字北東原１３番地,,36,207,7712106,,,2024-04-10,清算の結了等,,,2015-10-05,1,,,,,ヒューマンライツブンカフクシネットワーク,0
2555,9490001002418,登記記録の閉鎖等,0,2024-04-17,2024-04-09,株式会社ビコムＭＣＩ,,株式会社,福岡県,久留米市,上津１丁目１０番１号,,40,203,8300055,,,2024-04-09,合併による解散等,7140001028895,令和６年４月１日大阪市中央区安土町三丁目５－６ナカヒロビル６階アウデオＳＡＤ株式会社（7140001028895）に合併し解散,2015-10-05,1,,,,,ビコムエムシーアイ,0
2560,9500001020797,登記記録の閉鎖等,0,2024-04-17,2024-04-16,株式会社七福,,株式会社,東京都,足立区,西伊興２丁目１１番３０号,,13,121,1210824,,,2024-04-16,清算の結了等,,,2017-08-04,1,,,,,ナナフク,0
