sequenceNumber,corporateNumber,process,correct,updateDate,changeDate,name,nameImageId,kind,prefectureName,cityName,streetNumber,addressImageId,prefectureCode,cityCode,postCode,addressOutside,addressOutsideImageId,closeDate,closeCause,successorCorporateNumber,changeCause,assignmentDate,latest,enName,enPrefectureName,enCityName,enAddressOutside,furigana,hihyoji
8,1010001258718,新規,0,2025-10-02,2025-10-02,理歩資産管理株式会社,,株式会社,東京都,中央区,銀座１丁目１２－４Ｎ＆ＥＢＬＤ７階,,13,102,1040061,,,,,,,2025-10-02,1,,,,,リホシサンカンリ,0
9,1010001258866,新規,0,2025-10-02,2025-10-02,ＮＲＴエナジーブリッジ株式会社,,株式会社,東京都,中央区,日本橋兜町１７番２号兜町第６葉山ビル４Ｆ,,13,102,1030026,,,,,,,2025-10-02,1,,,,,エヌアールティーエナジーブリッジ,0
10,1010001258940,新規,0,2025-10-02,2025-10-02,株式会社ＳＴＯＣＫ１９６,,株式会社,東京都,千代田区,永田町２丁目１２番４号,,13,101,1000014,,,,,,,2025-10-02,1,,,,,ストックヒャクキュウジュウロク,0
13,1010003048852,新規,0,2025-10-02,2025-10-02,合同会社Ａｌｇｏ　Ｓｐａｃｅ　Ｔｅｃｈｎｏｌｏｇｉｅｓ,,合同会社,東京都,中央区,日本橋室町１丁目１１番１２号日本橋水野ビル７階,,13,102,1030022,,,,,,,2025-10-02,1,,,,,アルゴスペーステクノロジーズ,0
14,1010003048869,新規,0,2025-10-02,2025-10-02,カラカルリサーチ合同会社,,合同会社,東京都,中央区,銀座１丁目２２番１１号銀座大竹ビジデンス２階,,13,102,1040061,,,,,,,2025-10-02,1,,,,,カラカルリサーチ,0
15,1010003048893,新規,0,2025-10-02,2025-10-02,中野合同会社,,合同会社,東京都,千代田区,神田小川町３丁目２６番８号神田小川町三丁目ビル６階,,13,101,1010052,,,,,,,2025-10-02,1,,,,,ナカノ,0
16,1010003048910,新規,0,2025-10-02,2025-10-02,飯塚勢田蓄電所合同会社,,合同会社,東京都,中央区,京橋２丁目１２番６号ＡＯＪ税理士法人内,,13,102,1040031,,,,,,,2025-10-02,1,,,,,イイヅカセイタチクデンショ,0
17,1010003048935,新規,0,2025-10-02,2025-10-02,Ｎｕｄｅｌ合同会社,,合同会社,東京都,中央区,銀座１丁目１２－４Ｎ＆ＥＢＬＤ．７階,,13,102,1040061,,,,,,,2025-10-02,1,,,,,ヌーデル,0
21,1010005040733,新規,0,2025-10-02,2025-10-02,一般社団法人ＬＱ１号,,その他の設立登記法人,東京都,中央区,日本橋１丁目４番１号日本橋一丁目ビルディング,,13,102,1030027,,,,,,,2025-10-02,1,,,,,エルキューイチゴウ,0
27,1010401192814,新規,0,2025-10-02,2025-10-02,株式会社パウィーナ,,株式会社,東京都,港区,海岸３丁目１９－２－３１７,,13,103,1080022,,,,,,,2025-10-02,1,,,,,パウィーナ,0
28,1010401193283,新規,0,2025-10-02,2025-10-02,株式会社ＨＡＬＵ,,株式会社,東京都,港区,芝４丁目６番１３－１２０４号,,13,103,1080014,,,,,,,2025-10-02,1,,,,,ハル,0
36,1010601068021,新規,0,2025-10-02,2025-10-02,株式会社ＵＰＭ,,株式会社,東京都,江東区,門前仲町１丁目６－１１トレディパーチェ門前仲町４階,,13,108,1350048,,,,,,,2025-10-02,1,,,,,ユーピーエム,0
37,1010601068038,新規,0,2025-10-02,2025-10-02,株式会社Ｃｉ　ｓａｒａ,,株式会社,東京都,江東区,木場２丁目６番７－４０２号,,13,108,1350042,,,,,,,2025-10-02,1,,,,,チサラ,0
39,1010701048393,新規,0,2025-10-02,2025-10-02,株式会社ネクサ,,株式会社,東京都,品川区,東五反田２丁目５番１号３階,,13,109,1410022,,,,,,,2025-10-02,1,,,,,ネクサ,0
41,1010703007926,新規,0,2025-10-02,2025-10-02,前路合同会社,,合同会社,東京都,品川区,東品川２丁目２番４号天王洲ファーストタワー天翔オフィス天王洲ファーストタワー７階７３３号室,,13,109,1400002,,,,,,,2025-10-02,1,,,,,ゼンロ,0
45,1010901058168,新規,0,2025-10-02,2025-10-02,株式会社盤双六,,株式会社,東京都,世田谷区,松原６丁目３０番１２－１０１号,,13,112,1560043,,,,,,,2025-10-02,1,,,,,バンスゴロク,0
48,1011001172280,新規,0,2025-10-02,2025-10-02,株式会社Ｌｅｒｖａｎ,,株式会社,東京都,渋谷区,初台１丁目５１番１号初台センタービル４１９号室,,13,113,1510061,,,,,,,2025-10-02,1,,,,,レーヴァン,0
54,1011503006721,新規,0,2025-10-02,2025-10-02,合同会社鉄運,,合同会社,東京都,荒川区,町屋５丁目３番１３号,,13,118,1160001,,,,,,,2025-10-02,1,,,,,テツウン,0
57,1011801046840,新規,0,2025-10-02,2025-10-02,知意株式会社,,株式会社,東京都,足立区,千住５丁目１９番８号２０６号室,,13,121,1200034,,,,,,,2025-10-02,1,,,,,チイ,0
58,1012401043633,新規,0,2025-10-02,2025-10-02,株式会社ジーリンクス,,株式会社,東京都,調布市,小島町２丁目５２番地１調布住宅６０４号,,13,208,1820026,,,,,,,2025-10-02,1,,,,,ジーリンクス,0
59,1012403007363,新規,0,2025-10-02,2025-10-02,筒井電工合同会社,,合同会社,東京都,小金井市,貫井南町５丁目２１番３１－１０３号アーバンヒルズ武蔵小金井,,13,210,1840014,,,,,,,2025-10-02,1,,,,,ツツイデンコウ,0
70,1020001165038,新規,0,2025-10-02,2025-10-02,七福地所株式会社,,株式会社,神奈川県,川崎市川崎区,南町１番地８,,14,131,2100015,,,,,,,2025-10-02,1,,,,,ナナフクジショ,0
72,1020003029414,新規,0,2025-10-02,2025-10-02,合同会社日栄社,,合同会社,神奈川県,川崎市中原区,上丸子山王町２丁目１３３２グランデュール山王１０２,,14,133,2110002,,,,,,,2025-10-02,1,,,,,ニチエイシャ,0
73,1020005016996,新規,0,2025-10-02,2025-10-02,一般社団法人日本紹興酒ソムリエ協会,,その他の設立登記法人,神奈川県,横浜市中区,山下町２０２番地,,14,104,2310023,,,,,,,2025-10-02,1,,,,,ニホンショウコウシュソムリエキョウカイ,0
77,1021001086372,新規,0,2025-10-02,2025-10-02,ｐｌａｎ　ＫＤ株式会社,,株式会社,神奈川県,茅ヶ崎市,中海岸１丁目１番５９号,,14,207,2530055,,,,,,,2025-10-02,1,,,,,プランケーディー,0
84,1030001168849,新規,0,2025-10-02,2025-10-02,株式会社鈴,,株式会社,埼玉県,入間市,大字仏子１６９３番地２－１Ｆ,,11,225,3580053,,,,,,,2025-10-02,1,,,,,スズ,0
90,1030003027706,新規,0,2025-10-02,2025-10-02,合同会社ｔａｂｂｙ　ｃａｔ,,合同会社,埼玉県,さいたま市見沼区,丸ヶ崎町３番地１３,,11,104,3370007,,,,,,,2025-10-02,1,,,,,,0
91,1030003027730,新規,0,2025-10-02,2025-10-02,ＡＳ　ＳＡＬＡＡＭ合同会社,,合同会社,埼玉県,羽生市,大字今泉５４４番地イエロータウンＤ,,11,216,3480017,,,,,,,2025-10-02,1,,,,,アスサラーム,0
92,1030003027763,新規,0,2025-10-02,2025-10-02,ＬＯＵＡ＆ＦＲＥＲＥ　ＭＵＬＴＩ　ＳＥＲＶＩＣＥＳ合同会社,,合同会社,埼玉県,熊谷市,久下２丁目３６コーポいちご畑１０２号室,,11,202,3600026,,,,,,,2025-10-02,1,,,,,ロアアンドフレールマルチサービス,0
100,1040001140385,新規,0,2025-10-02,2025-10-02,東俊株式会社,,株式会社,千葉県,千葉市稲毛区,作草部町１０２５番地１３作草部コーポ４０５号室,,12,103,2630014,,,,,,,2025-10-02,1,,,,,トウシュン,0
101,1040001140609,新規,0,2025-10-02,2025-10-02,太和国際株式会社,,株式会社,千葉県,千葉市中央区,白旗１丁目４番７棟４０８号,,12,101,2600841,,,,,,,2025-10-02,1,,,,,タイワコクサイ,0
102,1040001140658,新規,0,2025-10-02,2025-10-02,株式会社ｓｈｏｕｌｄ　ｂｅ,,株式会社,千葉県,松戸市,西馬橋蔵元町１９６番地の１,,12,207,2710046,,,,,,,2025-10-02,1,,,,,シュッドビー,0
103,1040001140682,新規,0,2025-10-02,2025-10-02,株式会社ベルメゾンアパートメント,,株式会社,千葉県,富里市,七栄３２９番地９２,,12,233,2860221,,,,,,,2025-10-02,1,,,,,ベルメゾンアパートメント,0
104,1040003028496,新規,0,2025-10-02,2025-10-02,合同会社岩崎グローバル,00140900,合同会社,千葉県,佐倉市,上志津１７８９－１３ハーモニー志津Ｂ２０１,,12,212,2850846,,,,,,,2025-10-02,1,,,,,イワサキグローバル,0
105,1050001057348,新規,0,2025-10-02,2025-10-02,株式会社石原工業,,株式会社,茨城県,古河市,女沼８５４－１ハイツＢＳ、Ａ－１０２,,08,204,3060226,,,,,,,2025-10-02,1,,,,,イシハラコウギョウ,0
121,1080005007726,新規,0,2025-10-02,2025-10-02,一般社団法人つながり教育推進機構,,その他の設立登記法人,静岡県,静岡市葵区,本通７丁目４番地の８セードル本通４０４,,22,101,4200064,,,,,,,2025-10-02,1,,,,,ツナガリキョウイクスイシンキコウ,0
125,1090001019534,新規,0,2025-10-02,2025-10-02,株式会社Ｓｃｈａｔｚやまなし,,株式会社,山梨県,笛吹市,御坂町二之宮２６４１番地,,19,211,4060807,,,,,,,2025-10-02,1,,,,,シャッツヤマナシ,0
133,1110001039579,新規,0,2025-10-02,2025-10-02,澤坤株式会社,,株式会社,新潟県,上越市,浦川原区横川３９５番地１,,15,222,9420315,,,,,,,2025-10-02,1,,,,,サワコン,0
134,1110001039595,新規,0,2025-10-02,2025-10-02,株式会社アップステアーズ,,株式会社,新潟県,新潟市中央区,女池上山２丁目２２番１２号,,15,103,9500945,,,,,,,2025-10-02,1,,,,,アップステアーズ,0
142,1120001280215,新規,0,2025-10-02,2025-10-02,一頭牛株式会社,,株式会社,大阪府,大阪市西成区,山王２丁目２番２０号永益山王ハイツ２－２０１号,,27,122,5570001,,,,,,,2025-10-02,1,,,,,イットウギュウ,0
143,1120001280537,新規,0,2025-10-02,2025-10-02,ＳＨＡＭＡＳ　ＴＲＡＤＩＮＧ株式会社,,株式会社,大阪府,大阪市此花区,春日出中２丁目５番１６号,,27,104,5540022,,,,,,,2025-10-02,1,,,,,シャマストレーディング,0
144,1120001280628,新規,0,2025-10-02,2025-10-02,頤美株式会社,00140898,株式会社,大阪府,大阪市東住吉区,矢田２丁目１７番１０号,,27,121,5460023,,,,,,,2025-10-02,1,,,,,イビ,0
160,1120903005891,新規,0,2025-10-02,2025-10-02,Ａｊｅｓｈ　Ｎｏｖａ合同会社,,合同会社,大阪府,豊中市,庄内栄町３丁目２番２号,,27,203,5610834,,,,,,,2025-10-02,1,,,,,アジェッシュノヴァ,0
161,1122003003347,新規,0,2025-10-02,2025-10-02,ＳＡＩＦ　ＭＵＨＡＭＭＡＤ　ＳＯＮＳ合同会社,,合同会社,大阪府,八尾市,大竹７丁目１６９番地,,27,212,5810854,,,,,,,2025-10-02,1,,,,,サイフムハンマドソンズ,0
166,1130001080671,新規,0,2025-10-02,2025-10-02,株式会社サードクリエイト,,株式会社,京都府,京都市下京区,河原町通松原上る清水町２９３番地１－５０２号,,26,106,6008025,,,,,,,2025-10-02,1,,,,,サードクリエイト,0
171,1140001140103,新規,0,2025-10-02,2025-10-02,株式会社５５９豊穣,,株式会社,兵庫県,神戸市中央区,元町通５丁目８番３号,,28,110,6500022,,,,,,,2025-10-02,1,,,,,ゴコクホウジョウ,0
172,1140001140160,新規,0,2025-10-02,2025-10-02,株式会社ＴＨＲ,,株式会社,兵庫県,神戸市西区,樫野台１丁目７番地の１０,,28,111,6512275,,,,,,,2025-10-02,1,,,,,ティーエイチアール,0
173,1140001140185,新規,0,2025-10-02,2025-10-02,神戸通商株式会社,,株式会社,兵庫県,神戸市西区,玉津町水谷３３１－１,,28,111,6512121,,,,,,,2025-10-02,1,,,,,コウベツウショウ,0
178,1170001018809,新規,0,2025-10-02,2025-10-02,株式会社苑田,,株式会社,和歌山県,有田郡有田川町,大字野田４５３番地１,,30,366,6430031,,,,,,,2025-10-02,1,,,,,ソノダ,0
190,1180001168834,新規,0,2025-10-02,2025-10-02,Ｕｎｉｃａｒａ株式会社,,株式会社,愛知県,名古屋市中区,栄４丁目１２番２６号栄ＣＤビル６Ｆ,,23,106,4600008,,,,,,,2025-10-02,1,,,,,ユニカラ,0
194,1180301040296,新規,0,2025-10-02,2025-10-02,株式会社スコラ,,株式会社,愛知県,豊田市,小坂本町４丁目７－１,,23,211,4710034,,,,,,,2025-10-02,1,,,,,スコラ,0
197,1200001044297,新規,0,2025-10-02,2025-10-02,株式会社音色,,株式会社,岐阜県,山県市,椎倉２８５番地,,21,215,5012103,,,,,,,2025-10-02,1,,,,,ネイロ,0
203,1220001026946,新規,0,2025-10-02,2025-10-02,Ｔｅｎ株式会社,,株式会社,石川県,金沢市,西泉６丁目３７番地１,,17,201,9218043,,,,,,,2025-10-02,1,,,,,テン,0
208,1260001040605,新規,0,2025-10-02,2025-10-02,株式会社エイコス,,株式会社,岡山県,岡山市中区,神下５７－３７,,33,102,7038225,,,,,,,2025-10-02,1,,,,,エイコス,0
209,1260003005374,新規,0,2025-10-02,2025-10-02,パズルピーストレード合同会社,,合同会社,岡山県,倉敷市,児島味野上２丁目３番４号,,33,202,7110917,,,,,,,2025-10-02,1,,,,,パズルピーストレード,0
214,1290001111543,新規,0,2025-10-02,2025-10-02,株式会社ボヌール,,株式会社,福岡県,福岡市西区,姪の浜４丁目２３番１０号,,40,135,8190002,,,,,,,2025-10-02,1,,,,,ボヌール,0
218,1290003017466,新規,0,2025-10-02,2025-10-02,ＫＵＲＯＣＯ　ＭＯＮＳＴＥＲＳ合同会社,,合同会社,福岡県,福岡市博多区,博多駅前１丁目２３番２号ＰａｒｋＦｒｏｎｔ博多駅前１丁目５Ｆ－Ｂ,,40,132,8120011,,,,,,,2025-10-02,1,,,,,クロコモンスターズ,0
223,1290801031908,新規,0,2025-10-02,2025-10-02,龍臣工業株式会社,,株式会社,福岡県,北九州市門司区,恒見町３３番１２号,,40,101,8000116,,,,,,,2025-10-02,1,,,,,タツミコウギョウ,0
224,1300001014356,新規,0,2025-10-02,2025-10-02,Ｓｐｉｒｉｔ　Ｅｔｅｒｎａｌ株式会社,,株式会社,佐賀県,佐賀市,東与賀町大字田中８３５番地,,41,201,8402222,,,,,,,2025-10-02,1,,,,,スピリットエターナル,0
226,1310001019809,新規,0,2025-10-02,2025-10-02,株式会社ＧＯＤＯＵ,,株式会社,長崎県,長崎市,本石灰町２番２１号３階,,42,201,8500901,,,,,,,2025-10-02,1,,,,,ゴドウ,0
229,1320001021359,新規,0,2025-10-02,2025-10-02,株式会社ＳＭ　Ｔｒａｄｉｎｇ,,株式会社,大分県,別府市,田の湯町３番７号４階,,44,202,8740909,,,,,,,2025-10-02,1,,,,,エスエムトレーディング,0
245,1370001053083,新規,0,2025-10-02,2025-10-02,株式会社ＨＯＷＬ,,株式会社,宮城県,仙台市青葉区,一番町２丁目３番３０号いろは横丁６２号,,04,101,9800811,,,,,,,2025-10-02,1,,,,,ハウル,0
246,1370003007310,新規,0,2025-10-02,2025-10-02,合同会社Ｔ・Ｋ,,合同会社,宮城県,仙台市太白区,大野田２丁目２番１９－１００５号,,04,104,9820014,,,,,,,2025-10-02,1,,,,,ティーケー,0
252,1380001035601,新規,0,2025-10-02,2025-10-02,株式会社五十嵐プリント,,株式会社,福島県,本宮市,糠沢字赤木３７５番地２,,07,214,9691204,,,,,,,2025-10-02,1,,,,,イガラシプリント,0
253,1380005013009,新規,0,2025-10-02,2025-10-02,一般社団法人つながる,,その他の設立登記法人,福島県,石川郡浅川町,大字浅川字本町西裏４７番地３,,07,504,9636204,,,,,,,2025-10-02,1,,,,,ツナガル,0
255,1390001018118,新規,0,2025-10-02,2025-10-02,ＨＡＹＡＳＨＩホールディングス株式会社,,株式会社,山形県,酒田市,幸町１丁目６番６号,,06,204,9980023,,,,,,,2025-10-02,1,,,,,ハヤシホールディングス,0
261,1460301005312,新規,0,2025-10-02,2025-10-02,Ｊｐ　Ｔｒａｄｉｎｇ株式会社,,株式会社,北海道,北見市,東相内町７２番地１８,,01,208,0990878,,,,,,,2025-10-02,1,,,,,ジェイピートレーディング,0
262,1470001020908,新規,0,2025-10-02,2025-10-02,株式会社ファーブラ,,株式会社,香川県,高松市,古馬場町８番地３０松本ビル１階,,37,201,7600045,,,,,,,2025-10-02,1,,,,,ファーブラ,0
264,1500001026546,新規,0,2025-10-02,2025-10-02,株式会社メガネのクギミヤ,,株式会社,愛媛県,松山市,二番町２丁目８番地８,,38,201,7900002,,,,,,,2025-10-02,1,,,,,メガネノクギミヤ,0
265,1500001026554,新規,0,2025-10-02,2025-10-02,株式会社Ｇｒｏｗ　Ｕｐ　Ｗｏｒｋｓ．,,株式会社,愛媛県,伊予郡松前町,大字浜４７１番地,,38,401,7913110,,,,,,,2025-10-02,1,,,,,グロウアップワークス,0
273,2010001258485,新規,0,2025-10-02,2025-10-02,株式会社ａｏ,,株式会社,東京都,中央区,東日本橋１丁目３番３号ＴＹＤビル４Ｆ,,13,102,1030004,,,,,,,2025-10-02,1,,,,,アオ,0
274,2010001258691,新規,0,2025-10-02,2025-10-02,株式会社ウィズ朝日,,株式会社,東京都,千代田区,平河町２丁目７番４号,,13,101,1020093,,,,,,,2025-10-02,1,,,,,ウィズアサヒ,0
275,2010001258758,新規,0,2025-10-02,2025-10-02,株式会社Ｒｅｕｓｅ　Ｗｏｒｌｄ,,株式会社,東京都,中央区,晴海２丁目３－３０ザ・パークハウス晴海タワーズクロノレジデンス２９０３,,13,102,1040053,,,,,,,2025-10-02,1,,,,,リユースワールド,0
280,2010005040724,新規,0,2025-10-02,2025-10-02,一般社団法人アワジマチ,,その他の設立登記法人,東京都,中央区,日本橋１丁目４番１号,,13,102,1030027,,,,,,,2025-10-02,1,,,,,アワジマチ,0
292,2010405024731,新規,0,2025-10-02,2025-10-02,弁護士法人愛宕虎ノ門法律事務所,,その他の設立登記法人,東京都,港区,愛宕２丁目５番１号愛宕グリーンヒルズＭＯＲＩタワー２４階,,13,103,1050002,,,,,,,2025-10-02,1,,,,,アタゴトラノモンホウリツジムショ,0
294,2010501054731,新規,0,2025-10-02,2025-10-02,株式会社ＧＲＥＷ　Ｒｅａｌｔｙ,,株式会社,東京都,台東区,台東２丁目３０番１１号ＧＲＥＷ秋葉原ＢＬＤ．Ｂ１Ｆ,,13,106,1100016,,,,,,,2025-10-02,1,,,,,グルーリアルティ,0
296,2010701048384,新規,0,2025-10-02,2025-10-02,ミライノハナ株式会社,,株式会社,東京都,品川区,東大井１丁目２２番５号,,13,109,1400011,,,,,,,2025-10-02,1,,,,,ミライノハナ,0
297,2010701048401,新規,0,2025-10-02,2025-10-02,アイレアセットマネジメント株式会社,,株式会社,東京都,品川区,二葉１丁目３番７－４０９号,,13,109,1420043,,,,,,,2025-10-02,1,,,,,アイレアセットマネジメント,0
299,2010901058142,新規,0,2025-10-02,2025-10-02,株式会社ＤＫ　Ａｄｖｉｓｏｒｙ,,株式会社,東京都,世田谷区,瀬田２丁目２４－６－４０３,,13,112,1580095,,,,,,,2025-10-02,1,,,,,ディーケーアドバイザリー,0
305,2011001172321,新規,0,2025-10-02,2025-10-02,株式会社ベイクルーズグループホールディングス,,株式会社,東京都,渋谷区,渋谷１丁目２３番２１号,,13,113,1500002,,,,,,,2025-10-02,1,,,,,ベイクルーズグループホールディングス,0
306,2011001172791,新規,0,2025-10-02,2025-10-02,株式会社ビリーブ,,株式会社,東京都,渋谷区,恵比寿西２丁目４番８号ウィンド恵比寿ビル８Ｆ,,13,113,1500021,,,,,,,2025-10-02,1,,,,,ビリーブ,0
314,2011203004834,新規,0,2025-10-02,2025-10-02,合同会社春夏秋冬,,合同会社,東京都,中野区,本町６丁目２７番８号,,13,114,1640012,,,,,,,2025-10-02,1,,,,,ヒトトセ,0
316,2011601029020,新規,0,2025-10-02,2025-10-02,株式会社Ｋマジックスタジオ,,株式会社,東京都,練馬区,小竹町１丁目２４－１６,,13,120,1760004,,,,,,,2025-10-02,1,,,,,ケイマジックスタジオ,0
322,2011801046798,新規,0,2025-10-02,2025-10-02,和信運輸株式会社,,株式会社,東京都,足立区,保木間４丁目１－１５－３０１,,13,121,1210064,,,,,,,2025-10-02,1,,,,,ワシンウンユ,0
323,2011801046848,新規,0,2025-10-02,2025-10-02,株式会社Ｔｏｔｏｎｏｖａ,,株式会社,東京都,葛飾区,奥戸８丁目４番１３－３０３号,,13,122,1240022,,,,,,,2025-10-02,1,,,,,トトノヴァ,0
325,2012303002224,新規,0,2025-10-02,2025-10-02,合同会社いのはなや,,合同会社,東京都,町田市,金森４丁目４７－３－２,,13,209,1940012,,,,,,,2025-10-02,1,,,,,イノハナヤ,0
329,2012403007346,新規,0,2025-10-02,2025-10-02,オンファロスピクチャーズ合同会社,,合同会社,東京都,武蔵野市,吉祥寺本町２丁目３３番６－１０３号ＡＬＢＡ・ＰＬＡＺＡ,,13,203,1800004,,,,,,,2025-10-02,1,,,,,オンファロスピクチャーズ,0
330,2013101009808,新規,0,2025-10-02,2025-10-02,株式会社ＣＧＳ,,株式会社,東京都,福生市,大字福生８７５番地１９,,13,218,1970011,,,,,,,2025-10-02,1,,,,,シージーエス,0
331,2013101009816,新規,0,2025-10-02,2025-10-02,株式会社坂本建装,,株式会社,東京都,西多摩郡日の出町,大字平井８８１番地１,,13,305,1900182,,,,,,,2025-10-02,1,,,,,サカモトケンソウ,0
342,2020001164848,新規,0,2025-10-02,2025-10-02,株式会社ＫＲ,,株式会社,神奈川県,横浜市南区,別所中里台１番１０号,,14,105,2320065,,,,,,,2025-10-02,1,,,,,ケーアール,0
343,2020001165012,新規,0,2025-10-02,2025-10-02,株式会社クモナリ,,株式会社,神奈川県,横浜市金沢区,柳町３５番地４６,,14,108,2360026,,,,,,,2025-10-02,1,,,,,クモナリ,0
344,2020001165128,新規,0,2025-10-02,2025-10-02,株式会社インスピニティ,,株式会社,神奈川県,川崎市川崎区,駅前本町１１番地２川崎フロンティアビル４階,,14,131,2100007,,,,,,,2025-10-02,1,,,,,インスピニティ,0
350,2020003029462,新規,0,2025-10-02,2025-10-02,Ｓｙｅｄ　Ｍｏｔｏｒｓ合同会社,,合同会社,神奈川県,横浜市港北区,新横浜２丁目６番地２３金子第２ビル６Ｆ６５２号,,14,109,2220033,,,,,,,2025-10-02,1,,,,,サイドモーターズ,0
351,2020003029487,新規,0,2025-10-02,2025-10-02,合同会社丸三多喜,,合同会社,神奈川県,横浜市戸塚区,川上町９８番地２,,14,110,2440805,,,,,,,2025-10-02,1,,,,,マルサンタキ,0
352,2020003029495,新規,0,2025-10-02,2025-10-02,アオイロマーケティング合同会社,,合同会社,神奈川県,横浜市栄区,犬山町７２番４号,,14,115,2470026,,,,,,,2025-10-02,1,,,,,アオイロマーケティング,0
366,2030003027762,新規,0,2025-10-02,2025-10-02,合同会社Ｌｉｔｔｌｅ　Ｐｏｃｏ,,合同会社,埼玉県,さいたま市浦和区,常盤１０丁目１９番地１５号,,11,107,3300061,,,,,,,2025-10-02,1,,,,,リトルポコ,0
367,2030003027787,新規,0,2025-10-02,2025-10-02,合同会社ｍｏｃｈｉｙｏｒｕ,,合同会社,埼玉県,さいたま市見沼区,大字蓮沼５７４番地１エクセル大宮東２番館７０３,,11,104,3370015,,,,,,,2025-10-02,1,,,,,モチヨル,0
379,2040003028594,新規,0,2025-10-02,2025-10-02,合同会社ＤｅｍｉＴｅｃｈ,,合同会社,千葉県,柏市,若柴２７６番地１中央１６２街区１サウスマークタワー１５０６号,,12,217,2770871,,,,,,,2025-10-02,1,,,,,デミテック,0
380,2040003028628,新規,0,2025-10-02,2025-10-02,ＭＩＲＡＣＬＥ　ＣＯＭＰＡＮＹ　ＩＮＴＥＲＮＡＴＩＯＮＡＬ合同会社,,合同会社,千葉県,野田市,尾崎８１５－９２コート・グランメール２階２０２号室,,12,208,2700235,,,,,,,2025-10-02,1,,,,,ミラクルカンパニーインターナショナル,0
381,2040003028636,新規,0,2025-10-02,2025-10-02,合同会社リスタート,,合同会社,千葉県,柏市,根戸４７０－５８,,12,217,2770831,,,,,,,2025-10-02,1,,,,,リスタート,0
382,2040003028660,新規,0,2025-10-02,2025-10-02,未来商事合同会社,,合同会社,千葉県,市川市,柏井町２丁目８４５－７,,12,203,2720802,,,,,,,2025-10-02,1,,,,,ミライショウジ,0
383,2040003028710,新規,0,2025-10-02,2025-10-02,合同会社アルパインキャピタル,,合同会社,千葉県,市川市,本北方２丁目３２番７号,,12,203,2720816,,,,,,,2025-10-02,1,,,,,アルパインキャピタル,0
404,2080003003569,新規,0,2025-10-02,2025-10-02,合同会社ＫＴ,,合同会社,静岡県,島田市,湯日２３８番地,,22,209,4270113,,,,,,,2025-10-02,1,,,,,ケーティー,0
408,2080401028201,新規,0,2025-10-02,2025-10-02,ＳＥＡ＆ＳＴＡＲ株式会社,,株式会社,静岡県,浜松市中央区,有玉南町８７２番地の１,,22,138,4313122,,,,,,,2025-10-02,1,,,,,シーアンドスター,0
409,2080403005355,新規,0,2025-10-02,2025-10-02,合同会社ＳｍａｒｔＣａｒｇｏ,,合同会社,静岡県,掛川市,中２８５番地,,22,213,4371405,,,,,,,2025-10-02,1,,,,,スマートカーゴ,0
410,2090001019533,新規,0,2025-10-02,2025-10-02,株式会社フューチャー・オーク,,株式会社,山梨県,甲斐市,玉川２４番地１,,19,210,4000116,,,,,,,2025-10-02,1,,,,,フューチャーオーク,0
411,2100001038993,新規,0,2025-10-02,2025-10-02,株式会社チェリービー,,株式会社,長野県,長野市,大字赤沼２０１９番２,,20,201,3810001,,,,,,,2025-10-02,1,,,,,チェリービー,0
413,2110001039603,新規,0,2025-10-02,2025-10-02,株式会社一陽,,株式会社,新潟県,長岡市,宮沢１３６番地２,,15,202,9402301,,,,,,,2025-10-02,1,,,,,イチヨウ,0
421,2120001280247,新規,0,2025-10-02,2025-10-02,太初株式会社,,株式会社,大阪府,大阪市西成区,玉出西１丁目２番２７号ホワイトコーポ３Ｃ号,,27,122,5570045,,,,,,,2025-10-02,1,,,,,タイショ,0
422,2120001280536,新規,0,2025-10-02,2025-10-02,ＭＡＬＩＫ　ＴＲＡＤＩＮＧ株式会社,,株式会社,大阪府,大阪市大正区,北村１丁目４番３号,,27,108,5510032,,,,,,,2025-10-02,1,,,,,マリクトレーディング,0
423,2120001280627,新規,0,2025-10-02,2025-10-02,雲暢株式会社,,株式会社,大阪府,大阪市西淀川区,野里２丁目１４番１３号,,27,113,5550024,,,,,,,2025-10-02,1,,,,,ウンチョウ,0
431,2120003030765,新規,0,2025-10-02,2025-10-02,Ｉｎｎｏｃｔｅｔ合同会社,,合同会社,大阪府,大阪市北区,梅田１丁目２番２号大阪駅前第２ビル１２－１２,,27,127,5300001,,,,,,,2025-10-02,1,,,,,イノクテット,0
432,2120003030897,新規,0,2025-10-02,2025-10-02,合同会社ＸＶ,,合同会社,大阪府,大阪市北区,天神橋３丁目１‐４３東邦ビル４０２号,,27,127,5300041,,,,,,,2025-10-02,1,,,,,フィフティーン,0
435,2120901051565,新規,0,2025-10-02,2025-10-02,株式会社アルテック,,株式会社,大阪府,茨木市,西河原１丁目６番２４号,,27,211,5670023,,,,,,,2025-10-02,1,,,,,アルテック,0
438,2122001039689,新規,0,2025-10-02,2025-10-02,株式会社沐川,,株式会社,大阪府,東大阪市,小若江１丁目６番８号４０４,,27,227,5770818,,,,,,,2025-10-02,1,,,,,モクカワ,0
439,2122001039706,新規,0,2025-10-02,2025-10-02,株式会社匯穂,,株式会社,大阪府,東大阪市,小若江１丁目６番８号２０１,,27,227,5770818,,,,,,,2025-10-02,1,,,,,メグホ,0
441,2130001080662,新規,0,2025-10-02,2025-10-02,株式会社ジェーオーワイ,,株式会社,京都府,宇治市,槙島町石橋３７番地,,26,204,6110000,,,,,,,2025-10-02,1,,,,,ジェーオーワイ,0
445,2140001140184,新規,0,2025-10-02,2025-10-02,株式会社ＣＵＢＥ,,株式会社,兵庫県,西宮市,和上町２番３５号テルヴェ２０２,,28,204,6620971,,,,,,,2025-10-02,1,,,,,キューブ,0
446,2150001028437,新規,0,2025-10-02,2025-10-02,美瑛小水力発電株式会社,,株式会社,奈良県,吉野郡下市町,大字新住１１１８番地,,29,443,6380045,,,,,,,2025-10-02,1,,,,,ビエイショウスイリョクハツデン,0
447,2170001018808,新規,0,2025-10-02,2025-10-02,株式会社ジーエストレーディング,,株式会社,和歌山県,和歌山市,吐前１４番地３,,30,201,6496275,,,,,,,2025-10-02,1,,,,,ジーエストレーディング,0
448,2170001018816,新規,0,2025-10-02,2025-10-02,サニソース株式会社,,株式会社,和歌山県,和歌山市,和歌浦東１丁目４－９,,30,201,6410021,,,,,,,2025-10-02,1,,,,,サニソース,0
457,2180301040287,新規,0,2025-10-02,2025-10-02,株式会社齋藤商事,,株式会社,愛知県,豊田市,山之手８丁目１４０番地２,,23,211,4710833,,,,,,,2025-10-02,1,,,,,,0
469,2240001065578,新規,0,2025-10-02,2025-10-02,株式会社サンミ,,株式会社,広島県,広島市安佐南区,沼田町阿戸５２２－１,,34,105,7310100,,,,,,,2025-10-02,1,,,,,サンミ,0
477,2290001111518,新規,0,2025-10-02,2025-10-02,万泰株式会社,,株式会社,福岡県,福岡市博多区,博多駅南１丁目７番１４号ボイス博多７０８号室,,40,132,8120016,,,,,,,2025-10-02,1,,,,,マンタイ,0
481,2290003017515,新規,0,2025-10-02,2025-10-02,Ｓｍａｒｔ　Ｌｉｎｋ合同会社,,合同会社,福岡県,福岡市中央区,大名２丁目９番３５号トウセン天神ビル９Ｆ,,40,133,8100041,,,,,,,2025-10-02,1,,,,,スマートリンク,0
485,2290803005173,新規,0,2025-10-02,2025-10-02,合同会社Ｊ・Ｕ・Ｓ,,合同会社,福岡県,北九州市八幡西区,屋敷１丁目９番１７号,,40,109,8060006,,,,,,,2025-10-02,1,,,,,ジェーユーエス,0
491,2320001021366,新規,0,2025-10-02,2025-10-02,株式会社Ａ　Ｋ　Ｈａｙａｍａ,,株式会社,大分県,宇佐市,安心院町折敷田字屋敷１２２番地,,44,211,8720522,,,,,,,2025-10-02,1,,,,,エーケーハヤマ,0
494,2330005010959,新規,0,2025-10-02,2025-10-02,土地家屋調査士法人田中正三事務所,,その他の設立登記法人,熊本県,熊本市北区,楠１丁目１０番１９号,,43,105,8618003,,,,,,,2025-10-02,1,,,,,タナカショウゾウジムショ,0
497,2340001027667,新規,0,2025-10-02,2025-10-02,徳之島アフリカＮＦＴ美術館株式会社,,株式会社,鹿児島県,大島郡徳之島町,亀津７３５３番地,,46,530,8917101,,,,,,,2025-10-02,1,,,,,トクノシマアフリカエヌエフティービジュツカン,0
519,3010001258740,新規,0,2025-10-02,2025-10-02,株式会社ＢＢ１,,株式会社,東京都,千代田区,大手町１丁目６－１大手町ビル,,13,101,1000004,,,,,,,2025-10-02,1,,,,,ビービーワン,0
520,3010001258872,新規,0,2025-10-02,2025-10-02,株式会社カサブランカ,,株式会社,東京都,中央区,銀座８丁目５番１０号金成ビル７Ｆ,,13,102,1040061,,,,,,,2025-10-02,1,,,,,カサブランカ,0
521,3010001258880,新規,0,2025-10-02,2025-10-02,ＴＯＲＣＨＥＳ　Ｆｉｎａｎｃｅ株式会社,,株式会社,東京都,中央区,八重洲２丁目２番１号,,13,102,1040028,,,,,,,2025-10-02,1,,,,,トーチーズファイナンス,0
522,3010001258930,新規,0,2025-10-02,2025-10-02,株式会社東京ＤＲＵＧ,,株式会社,東京都,文京区,本郷２丁目２８番１号ＳＫビル,,13,105,1130033,,,,,,,2025-10-02,1,,,,,トウキョウドラッグ,0
523,3010001258939,新規,0,2025-10-02,2025-10-02,株式会社ＳＴＯＣＫ１９５,,株式会社,東京都,千代田区,永田町２丁目１２番４号,,13,101,1000014,,,,,,,2025-10-02,1,,,,,ストックヒャクキュウジュウゴ,0
524,3010001258947,新規,0,2025-10-02,2025-10-02,花岡コーポレーション株式会社,,株式会社,東京都,中央区,日本橋茅場町２丁目１５番４号,,13,102,1030025,,,,,,,2025-10-02,1,,,,,ハナオカコーポレーション,0
525,3010001259029,新規,0,2025-10-02,2025-10-02,フォーチュンウッズ株式会社,,株式会社,東京都,中央区,日本橋２丁目１６－４ｒｅｍｉｘ日本橋６階,,13,102,1030027,,,,,,,2025-10-02,1,,,,,フォーチュンウッズ,0
526,3010003048875,新規,0,2025-10-02,2025-10-02,合同会社Ｙｕｍｅｓｈｉｍａ　Ｄｅｖｅｌｏｐｍｅｎｔ　Ｆｕｎｄ１,,合同会社,東京都,千代田区,五番町６番地２,,13,101,1020076,,,,,,,2025-10-02,1,,,,,ユメシマデベロップメントファンドワン,0
531,3010401192804,新規,0,2025-10-02,2025-10-02,株式会社銀杏,,株式会社,東京都,港区,南青山３丁目１番３６号青山丸竹ビル６Ｆ,,13,103,1070062,,,,,,,2025-10-02,1,,,,,イチョウ,0
532,3010401193331,新規,0,2025-10-02,2025-10-02,ＯＮＥ　ＭＡＮＡＧＥＭＥＮＴ株式会社,,株式会社,東京都,港区,三田５丁目２０番１２号エクセリア白金高輪１１０１号室,,13,103,1080073,,,,,,,2025-10-02,1,,,,,ワンマネジメント,0
533,3010403036141,新規,0,2025-10-02,2025-10-02,Ａ　ｌａ　ｖｉｅ合同会社,,合同会社,東京都,港区,南青山２丁目２番１５号,,13,103,1070062,,,,,,,2025-10-02,1,,,,,アラヴィエ,0
534,3010403036166,新規,0,2025-10-02,2025-10-02,Ｎｅｏ　Ｃｒｙｐｔｏ　Ｂａｎｋ合同会社,,合同会社,東京都,港区,西新橋１丁目６番１１号,,13,103,1050003,,,,,,,2025-10-02,1,,,,,ネオクリプトバンク,0
536,3010405024656,新規,0,2025-10-02,2025-10-02,一般社団法人Ｙｕｃｈｅｌｉｎ,,その他の設立登記法人,東京都,港区,新橋４丁目１４番１新橋ＡＵＮＢＬＤＧ４階ＹＯＫＵＳＵＬＵ合同会社内,,13,103,1050004,,,,,,,2025-10-02,1,,,,,ユシュラン,0
537,3010405024730,新規,0,2025-10-02,2025-10-02,医療法人社団ＮＭＣ,,その他の設立登記法人,東京都,港区,南麻布５丁目１０番２６号ヒューリック広尾ビル７階,,13,103,1060047,,,,,,,2025-10-02,1,,,,,エヌエムシー,0
539,3010601067896,新規,0,2025-10-02,2025-10-02,株式会社ｍａｋｉｔｏｒｉ,,株式会社,東京都,江東区,富岡１丁目８番５－１１０２号,,13,108,1350047,,,,,,,2025-10-02,1,,,,,マキトリ,0
541,3010701048375,新規,0,2025-10-02,2025-10-02,株式会社ＳＣＮ,,株式会社,東京都,品川区,西品川３丁目２０－３ミリアレジデンス大崎４０１,,13,109,1410033,,,,,,,2025-10-02,1,,,,,エスシーエヌ,0
542,3010701048383,新規,0,2025-10-02,2025-10-02,株式会社ＷＢＳ,,株式会社,東京都,品川区,西五反田６丁目２番７号,,13,109,1410031,,,,,,,2025-10-02,1,,,,,ダブルビーエス,0
547,3011001172353,新規,0,2025-10-02,2025-10-02,株式会社イベントエキサイト,,株式会社,東京都,渋谷区,代々木４丁目３５番５号,,13,113,1510053,,,,,,,2025-10-02,1,,,,,イベントエキサイト,0
548,3011001172881,新規,0,2025-10-02,2025-10-02,株式会社Ｓｔｕｄｉｏ　Ｍｏｎｋｉｉ,,株式会社,東京都,渋谷区,神宮前３丁目４２番１１号グンジビル３０１号室,,13,113,1500001,,,,,,,2025-10-02,1,,,,,スタジオモンキ,0
551,3011003022655,新規,0,2025-10-02,2025-10-02,合同会社ＮＩＫＯＨＥＮ,,合同会社,東京都,渋谷区,神宮前５丁目５３－４吉澤ビル,,13,113,1500001,,,,,,,2025-10-02,1,,,,,ニコーエン,0
554,3011101113380,新規,0,2025-10-02,2025-10-02,和洋株式会社,,株式会社,東京都,新宿区,百人町２丁目５－４土屋ビル２Ｆ・ＬｉｎｋＳｐａｃｅＮ１５,,13,104,1690073,,,,,,,2025-10-02,1,,,,,ワヨウ,0
555,3011101113406,新規,0,2025-10-02,2025-10-02,大遠株式会社,,株式会社,東京都,新宿区,新宿１丁目１７番１６号第一遠藤ビル３１２号室,,13,104,1600022,,,,,,,2025-10-02,1,,,,,ダイエン,0
557,3011203004833,新規,0,2025-10-02,2025-10-02,合同会社ハイアーコンサルティング,,合同会社,東京都,中野区,本町４丁目４４番１３号新中野オフィス２階１６号室,,13,114,1640012,,,,,,,2025-10-02,1,,,,,ハイアーコンサルティング,0
558,3011401027438,新規,0,2025-10-02,2025-10-02,株式会社ネクストラン,,株式会社,東京都,板橋区,成増３丁目９番１８号ブラックペッパー１０３,,13,119,1750094,,,,,,,2025-10-02,1,,,,,ネクストラン,0
560,3011501032635,新規,0,2025-10-02,2025-10-02,未来国際コンサルティング株式会社,,株式会社,東京都,北区,浮間１丁目１－１４－３０４,,13,117,1150051,,,,,,,2025-10-02,1,,,,,ミライコクサイコンサルティング,0
562,3011503006703,新規,0,2025-10-02,2025-10-02,合同会社ＭＵＳＵＢＩ,,合同会社,東京都,北区,田端新町３丁目１９－８神明ハイツ１Ｆ,,13,117,1140012,,,,,,,2025-10-02,1,,,,,ムスビ,0
565,3011705001915,新規,0,2025-10-02,2025-10-02,一般社団法人マジカルスクール,,その他の設立登記法人,東京都,江戸川区,西葛西７丁目２１番１１号２０７号室,,13,123,1340088,,,,,,,2025-10-02,1,,,,,マジカルスクール,0
566,3012301014550,新規,0,2025-10-02,2025-10-02,株式会社つくし野カーレスキュー,,株式会社,東京都,町田市,つくし野１丁目１１番地１１,,13,209,1940001,,,,,,,2025-10-02,1,,,,,ツクシノカーレスキュー,0
567,3012403007361,新規,0,2025-10-02,2025-10-02,合同会社ＡＶＥＮＩＳ,,合同会社,東京都,武蔵野市,吉祥寺本町２丁目１６番１５号ＨＡＮＡ三ＴＳＵＧＩビルＢ１Ｆ,,13,203,1800004,,,,,,,2025-10-02,1,,,,,アヴェニス,0
580,3020001165044,新規,0,2025-10-02,2025-10-02,株式会社Ｍ‐ｆｌａｔ,,株式会社,神奈川県,横浜市都筑区,池辺町３８５０番地フレンドシップいこのべ２－３０３,,14,118,2240053,,,,,,,2025-10-02,1,,,,,エムフラット,0
581,3020001165069,新規,0,2025-10-02,2025-10-02,株式会社Ｌｅｘｅｏｎ,,株式会社,神奈川県,横浜市瀬谷区,竹村町６番地２２,,14,114,2460005,,,,,,,2025-10-02,1,,,,,レクシオン,0
584,3020003029461,新規,0,2025-10-02,2025-10-02,合同会社サンサンサポート,,合同会社,神奈川県,横浜市緑区,白山４丁目６１番１８号,,14,113,2260006,,,,,,,2025-10-02,1,,,,,サンサンサポート,0
605,3030001168938,新規,0,2025-10-02,2025-10-02,アンカーワークス株式会社,,株式会社,埼玉県,越谷市,レイクタウン１丁目５番地８,,11,222,3430828,,,,,,,2025-10-02,1,,,,,アンカーワークス,0
610,3030003027704,新規,0,2025-10-02,2025-10-02,合同会社ａｎｄ　ｍｏｉ,,合同会社,埼玉県,坂戸市,大字戸宮２７２番地,,11,239,3500208,,,,,,,2025-10-02,1,,,,,アンドモワ,0
616,3040003028585,新規,0,2025-10-02,2025-10-02,ＨＲサービス合同会社,,合同会社,千葉県,市川市,曽谷８丁目２２番１２号,,12,203,2720832,,,,,,,2025-10-02,1,,,,,エイチアールサービス,0
617,3040003028593,新規,0,2025-10-02,2025-10-02,合同会社カインドエンジニアリング,,合同会社,千葉県,山武郡九十九里町,片貝３４８９―２,,12,403,2830104,,,,,,,2025-10-02,1,,,,,カインドエンジニアリング,0
618,3040003028635,新規,0,2025-10-02,2025-10-02,金＿合同会社,00140892,合同会社,千葉県,船橋市,三咲５丁目２８番４号,,12,204,2740812,,,,,,,2025-10-02,1,,,,,キンシン,0
625,3050003009568,新規,0,2025-10-02,2025-10-02,Ｓ＆Ｃ　ｃｅｙｌｏｎ　ｍａｒｔ合同会社,,合同会社,茨城県,水戸市,若宮２丁目５番地１３,,08,201,3100013,,,,,,,2025-10-02,1,,,,,エスアンドシーセイロンマート,0
636,3080401028183,新規,0,2025-10-02,2025-10-02,０４ＤＥＳＩＧＮ　ＢＡＮＫ株式会社,,株式会社,静岡県,浜松市中央区,西都台町１０番２号,,22,138,4328071,,,,,,,2025-10-02,1,,,,,ゼロヨンデザインバンク,0
637,3080401028191,新規,0,2025-10-02,2025-10-02,株式会社ノレル,,株式会社,静岡県,磐田市,見付３９０８番地１０,,22,211,4380086,,,,,,,2025-10-02,1,,,,,ノレル,0
638,3080403005354,新規,0,2025-10-02,2025-10-02,ＥＭＩ合同会社,,合同会社,静岡県,浜松市中央区,上新屋町２００番地の２６,,22,138,4350053,,,,,,,2025-10-02,1,,,,,エミ,0
640,3090003002908,新規,0,2025-10-02,2025-10-02,合同会社ＣＨＩＮＯ,,合同会社,山梨県,甲府市,国玉町６３５－１６,,19,201,4000815,,,,,,,2025-10-02,1,,,,,チノ,0
655,3120001280015,新規,0,2025-10-02,2025-10-02,春希株式会社,,株式会社,大阪府,大阪市平野区,長吉川辺２丁目３番８号,,27,126,5470014,,,,,,,2025-10-02,1,,,,,ハルキ,0
656,3120001280080,新規,0,2025-10-02,2025-10-02,光進株式会社,,株式会社,大阪府,大阪市阿倍野区,天王寺町南２丁目２２番３号ＮＡＧＡＩメゾン天王寺南４０２,,27,119,5450002,,,,,,,2025-10-02,1,,,,,コウシン,0
657,3120001280196,新規,0,2025-10-02,2025-10-02,栄欣株式会社,,株式会社,大阪府,大阪市中央区,内久宝寺町３丁目１－１５ウエストワン５０１号室,,27,128,5400013,,,,,,,2025-10-02,1,,,,,エイキン,0
658,3120003030772,新規,0,2025-10-02,2025-10-02,ＡＭ　ＮＡＱＶＩ　ＴＲＡＤＩＮＧ合同会社,,合同会社,大阪府,大阪市西区,土佐堀３丁目２－９,,27,106,5500001,,,,,,,2025-10-02,1,,,,,エーエムナクヴィトレーディング,0
659,3120003030780,新規,0,2025-10-02,2025-10-02,合同会社ステッピー,,合同会社,大阪府,大阪市西成区,天下茶屋１丁目４番１１号,,27,122,5570014,,,,,,,2025-10-02,1,,,,,ステッピー,0
660,3120003030896,新規,0,2025-10-02,2025-10-02,Ａｈｍｅｄ　Ｔｒａｄｉｎｇ合同会社,,合同会社,大阪府,寝屋川市,萱島東１丁目９－２１アパートメント寝屋川ＩＩ－１０２,00140885,27,215,5720824,,,,,,,2025-10-02,1,,,,,アハマドトレーディング,0
666,3120903005881,新規,0,2025-10-02,2025-10-02,博然商事合同会社,,合同会社,大阪府,池田市,井口堂２丁目３番４号,,27,204,5630023,,,,,,,2025-10-02,1,,,,,ハクゼンショウジ,0
667,3122001039705,新規,0,2025-10-02,2025-10-02,思盈株式会社,,株式会社,大阪府,東大阪市,小若江１丁目６番８号３０１,,27,227,5770818,,,,,,,2025-10-02,1,,,,,シエイ,0
668,3122001039721,新規,0,2025-10-02,2025-10-02,株式会社桃太郎ヘルシーサービス,,株式会社,大阪府,東大阪市,新家３丁目９番３１号,,27,227,5770025,,,,,,,2025-10-02,1,,,,,モモタロウヘルシーサービス,0
669,3122003003329,新規,0,2025-10-02,2025-10-02,Ｈｉ’ｓ　Ｆｏｏｄ合同会社,,合同会社,大阪府,八尾市,南本町９丁目１８番２８号,,27,212,5810081,,,,,,,2025-10-02,1,,,,,ヒズフード,0
674,3130003010807,新規,0,2025-10-02,2025-10-02,合同会社デスペラード,,合同会社,京都府,京都市中京区,壬生坊城町５３番地６壬生坊城ビル３－３,,26,104,6048804,,,,,,,2025-10-02,1,,,,,デスペラード,0
675,3130003010823,新規,0,2025-10-02,2025-10-02,合同会社スタジオＣｉｅｌ,,合同会社,京都府,長岡京市,久貝１丁目２－９－５セントフィオーレ西山天王山Ｂ,,26,209,6170837,,,,,,,2025-10-02,1,,,,,スタジオシエル,0
680,3140001140150,新規,0,2025-10-02,2025-10-02,バックフィールドマネジメント株式会社,,株式会社,兵庫県,芦屋市,朝日ケ丘町３番５ー５０３号,,28,206,6590012,,,,,,,2025-10-02,1,,,,,バックフィールドマネジメント,0
681,3140001140183,新規,0,2025-10-02,2025-10-02,雅川株式会社,,株式会社,兵庫県,神戸市灘区,六甲台町６－６シャトレ六甲１０１,,28,102,6570013,,,,,,,2025-10-02,1,,,,,カガワ,0
682,3140001140191,新規,0,2025-10-02,2025-10-02,Ｊａｐａｎ　Ａｕｔｏ　Ｔｒａｄｉｎｇ株式会社,,株式会社,兵庫県,加古郡稲美町,下草谷３７８番地の４８,,28,381,6751101,,,,,,,2025-10-02,1,,,,,ジャパンオートトレーディング,0
684,3140003022660,新規,0,2025-10-02,2025-10-02,ＯＸＯＬ合同会社,,合同会社,兵庫県,神戸市西区,南別府１丁目６番地の５ローズハイツ５０８号,,28,111,6512116,,,,,,,2025-10-02,1,,,,,オクソル,0
691,3180001168857,新規,0,2025-10-02,2025-10-02,株式会社福べえ,,株式会社,愛知県,名古屋市西区,那古野１丁目１７番１７号,,23,104,4510042,,,,,,,2025-10-02,1,,,,,フクベエ,0
692,3180005021244,新規,0,2025-10-02,2025-10-02,一般社団法人アニハピしっぽの会,,その他の設立登記法人,愛知県,名古屋市中区,錦１丁目１６番１４号,,23,106,4600003,,,,,,,2025-10-02,1,,,,,アニハピシッポノカイ,0
698,3190003005198,新規,0,2025-10-02,2025-10-02,ＧＨＡＮＩ　ＣＯＲＰＯＲＡＴＩＯＮ合同会社,,合同会社,三重県,桑名市,大字和泉５７８,,24,205,5110838,,,,,,,2025-10-02,1,,,,,ガニコーポレーション,0
702,3220003004130,新規,0,2025-10-02,2025-10-02,合同会社ＮＥＸＵＳ,,合同会社,石川県,金沢市,諸江町３７番２６号（ＩＩ－１０１）,00140886,17,201,9200014,,,,,,,2025-10-02,1,,,,,ネクサス,0
705,3230003002513,新規,0,2025-10-02,2025-10-02,合同会社みなでん,,合同会社,富山県,砺波市,安川３７６番地４,,16,208,9391438,,,,,,,2025-10-02,1,,,,,ミナデン,0
707,3240001065569,新規,0,2025-10-02,2025-10-02,株式会社やまえ,,株式会社,広島県,広島市安佐北区,口田４丁目１３番２１号,,34,106,7391734,,,,,,,2025-10-02,1,,,,,ヤマエ,0
708,3240001065593,新規,0,2025-10-02,2025-10-02,株式会社米山住設,,株式会社,広島県,広島市安佐南区,沼田町大字阿戸７３８番地,,34,105,7313271,,,,,,,2025-10-02,1,,,,,ヨネヤマジュウセツ,0
714,3270001009291,新規,0,2025-10-02,2025-10-02,ｆｒｕｃｔｕｓ２号株式会社,,株式会社,鳥取県,境港市,幸神町３５３番地,,31,204,6840056,,,,,,,2025-10-02,1,,,,,フラクタスニゴウ,0
720,3290001111500,新規,0,2025-10-02,2025-10-02,天神不動産株式会社,,株式会社,福岡県,福岡市中央区,今泉１丁目１７番２２－５０７号,,40,133,8100021,,,,,,,2025-10-02,1,,,,,テンジンフドウサン,0
721,3290001111525,新規,0,2025-10-02,2025-10-02,Ｈｏｒｉｚｏｎ　Ｌｉｎｋ株式会社,,株式会社,福岡県,福岡市東区,箱崎４丁目９番２３－５０２号,,40,131,8120053,,,,,,,2025-10-02,1,,,,,ホライゾンリンク,0
723,3290801031906,新規,0,2025-10-02,2025-10-02,Ｓｔｅｐ　Ｆｏｒｗａｒｄ株式会社,,株式会社,福岡県,中間市,長津２丁目４番１６号,,40,215,8090036,,,,,,,2025-10-02,1,,,,,ステップフォワード,0
724,3310001019798,新規,0,2025-10-02,2025-10-02,株式会社Ｂｌｕｅ　Ｏｃｅａｎ,,株式会社,長崎県,対馬市,厳原町今屋敷６５５番地,,42,209,8170021,,,,,,,2025-10-02,1,,,,,ブルーオーシャン,0
735,3350003005033,新規,0,2025-10-02,2025-10-02,合同会社アスワン不動産,,合同会社,宮崎県,日南市,南郷町中村乙２６２５番地２,,45,204,8893204,,,,,,,2025-10-02,1,,,,,アスワンフドウサン,0
736,3360001035832,新規,0,2025-10-02,2025-10-02,大阪通商株式会社,,株式会社,沖縄県,那覇市,首里石嶺町２丁目１７６番地２階,,47,201,9030804,,,,,,,2025-10-02,1,,,,,オオサカツウショウ,0
738,3370003007309,新規,0,2025-10-02,2025-10-02,合同会社コモン,,合同会社,宮城県,仙台市宮城野区,萩野町４丁目６番２０号,,04,102,9830043,,,,,,,2025-10-02,1,,,,,コモン,0
739,3380001035599,新規,0,2025-10-02,2025-10-02,ヴィレッジアップ株式会社,,株式会社,福島県,白河市,転坂６７番地２,,07,205,9610852,,,,,,,2025-10-02,1,,,,,ヴィレッジアップ,0
743,3380003006144,新規,0,2025-10-02,2025-10-02,みちのく承継合同会社,,合同会社,福島県,安達郡大玉村,大山字木ノ下５１－５,,07,322,9691301,,,,,,,2025-10-02,1,,,,,ミチノクショウケイ,0
745,3410001014285,新規,0,2025-10-02,2025-10-02,株式会社Ｒ‐ＣＯＮＮＥＣＴ,,株式会社,秋田県,秋田市,飯島字飯島水尻２２１番地３,,05,201,0110911,,,,,,,2025-10-02,1,,,,,アールコネクト,0
751,3430005015311,新規,0,2025-10-02,2025-10-02,一般社団法人ＨＵＰ,,その他の設立登記法人,北海道,札幌市手稲区,稲穂三条６丁目１番２５－４０６号,,01,109,0060033,,,,,,,2025-10-02,1,,,,,ハップ,0
752,3440005002804,新規,0,2025-10-02,2025-10-02,医療法人社団Ｃ．Ｓ．Ｃ．Ｌ会,,その他の設立登記法人,北海道,函館市,本通１丁目４番２５号,,01,202,0410851,,,,,,,2025-10-02,1,,,,,シーエスシーエルカイ,0
753,3450003002722,新規,0,2025-10-02,2025-10-02,合同会社匠モバイル,,合同会社,北海道,旭川市,末広東三条３丁目３番３号,,01,204,0718123,,,,,,,2025-10-02,1,,,,,タクミモバイル,0
756,3500001026552,新規,0,2025-10-02,2025-10-02,株式会社オーケー化学松山,,株式会社,愛媛県,松山市,別府町４２６番地１０,,38,201,7918056,,,,,,,2025-10-02,1,,,,,オーケーカガクマツヤマ,0
765,4010001258665,新規,0,2025-10-02,2025-10-02,株式会社ズーティー,,株式会社,東京都,中央区,日本橋大伝馬町１１番８号,,13,102,1030011,,,,,,,2025-10-02,1,,,,,ズーティー,0
766,4010001258756,新規,0,2025-10-02,2025-10-02,株式会社Ｌｉｆｅｔｉｍｅｒｓ,,株式会社,東京都,千代田区,神田駿河台２丁目１１番地７,,13,101,1010062,,,,,,,2025-10-02,1,,,,,ライフタイマーズ,0
767,4010001258855,新規,0,2025-10-02,2025-10-02,Ａｒｃ　Ｎｏｖａ株式会社,,株式会社,東京都,千代田区,神田錦町１丁目１４番地１１,,13,101,1010054,,,,,,,2025-10-02,1,,,,,アークノバ,0
768,4010001258871,新規,0,2025-10-02,2025-10-02,ＪＩＡＲＥ第６号株式会社,,株式会社,東京都,千代田区,霞が関３丁目２番１号,,13,101,1000013,,,,,,,2025-10-02,1,,,,,ジェイアイエーアールイーダイロクゴウ,0
769,4010001258888,新規,0,2025-10-02,2025-10-02,株式会社エグゼクティブクラブ,,株式会社,東京都,中央区,日本橋兜町１７番１号日本橋ロイヤルプラザ７Ｆ,,13,102,1030026,,,,,,,2025-10-02,1,,,,,エグゼクティブクラブ,0
770,4010001258905,新規,0,2025-10-02,2025-10-02,Ｓｃｈｎｉｒｏ株式会社,,株式会社,東京都,千代田区,神田三崎町２丁目１０番１１号Ｐｅｇビル５Ａ－６号室,,13,101,1010061,,,,,,,2025-10-02,1,,,,,シュニーロ,0
771,4010001258921,新規,0,2025-10-02,2025-10-02,株式会社Ａｖｅｎｕｅ,,株式会社,東京都,中央区,銀座８丁目５番４号８Ｆ,,13,102,1040061,,,,,,,2025-10-02,1,,,,,アヴェニュー,0
772,4010001258938,新規,0,2025-10-02,2025-10-02,株式会社ＳＴＯＣＫ１９４,,株式会社,東京都,千代田区,永田町２丁目１２番４号,,13,101,1000014,,,,,,,2025-10-02,1,,,,,ストックヒャクキュウジュウヨン,0
773,4010001258946,新規,0,2025-10-02,2025-10-02,株式会社動脈,,株式会社,東京都,千代田区,丸の内１丁目８番３号丸の内トラストタワー本館２０階,,13,101,1000005,,,,,,,2025-10-02,1,,,,,ドウミャク,0
777,4010003048874,新規,0,2025-10-02,2025-10-02,ｉプロパティ２５合同会社,,合同会社,東京都,千代田区,永田町２丁目１４番２号－３階スリーアイズキャピタル株式会社内,,13,101,1000014,,,,,,,2025-10-02,1,,,,,アイプロパティトゥエンティファイブ,0
779,4010005040722,新規,0,2025-10-02,2025-10-02,一般社団法人日本次世代エネルギー機構,,その他の設立登記法人,東京都,千代田区,霞が関３丁目７－１霞が関東急ビル,,13,101,1000013,,,,,,,2025-10-02,1,,,,,ニホンジセダイエネルギーキコウ,0
791,4010603011819,新規,0,2025-10-02,2025-10-02,ＹＵＺ合同会社,,合同会社,東京都,江東区,東陽５丁目２３－１０－２１０号,,13,108,1350016,,,,,,,2025-10-02,1,,,,,ユズ,0
792,4010603011827,新規,0,2025-10-02,2025-10-02,合同会社グリーンワークス,,合同会社,東京都,墨田区,立花６丁目４－１０－１０１,,13,107,1310043,,,,,,,2025-10-02,1,,,,,グリーンワークス,0
795,4010901058157,新規,0,2025-10-02,2025-10-02,株式会社海浅幸,,株式会社,東京都,世田谷区,玉川１丁目１５番２－１２０４号,,13,112,1580094,,,,,,,2025-10-02,1,,,,,カイセンコウ,0
802,4011001172336,新規,0,2025-10-02,2025-10-02,株式会社本舗ＴＡＯ,,株式会社,東京都,渋谷区,道玄坂１丁目１０番８号渋谷道玄坂東急ビル２Ｆ－Ｃ,,13,113,1500043,,,,,,,2025-10-02,1,,,,,ホンポタオ,0
803,4011001172402,新規,0,2025-10-02,2025-10-02,株式会社ｎａｎａｉｒｏ,,株式会社,東京都,渋谷区,広尾１丁目２番１号ヒカリビル４階,,13,113,1500012,,,,,,,2025-10-02,1,,,,,ナナイロ,0
804,4011001172765,新規,0,2025-10-02,2025-10-02,ＦＡＲＳＩＧＨＴＥＤ株式会社,,株式会社,東京都,目黒区,目黒本町５丁目２０番７号ＫＯＫＩ武蔵小山ビル,,13,110,1520002,,,,,,,2025-10-02,1,,,,,ファーサイティッド,0
805,4011003022489,新規,0,2025-10-02,2025-10-02,フロンティア・リンクス・パートナーズ合同会社,,合同会社,東京都,渋谷区,恵比寿南１丁目４番２号紀伊國屋ビル４階,,13,113,1500022,,,,,,,2025-10-02,1,,,,,フロンティアリンクスパートナーズ,0
807,4011101113339,新規,0,2025-10-02,2025-10-02,ＥＹＥＫＡ株式会社,,株式会社,東京都,新宿区,百人町２丁目１１番２４－６０２号,,13,104,1690073,,,,,,,2025-10-02,1,,,,,アイカ,0
808,4011101113405,新規,0,2025-10-02,2025-10-02,浦鵬商事株式会社,,株式会社,東京都,新宿区,新宿１丁目２４番７号ルネ御苑プラザ１３１７号室,,13,104,1600022,,,,,,,2025-10-02,1,,,,,ウラホウショウジ,0
810,4011303005730,新規,0,2025-10-02,2025-10-02,ＧＹパートナーズ合同会社,,合同会社,東京都,杉並区,永福２丁目３番５号,,13,115,1680064,,,,,,,2025-10-02,1,,,,,ジーワイパートナーズ,0
812,4011501032626,新規,0,2025-10-02,2025-10-02,Ｊａｄｅ　Ａｚｕｒｅ株式会社,,株式会社,東京都,荒川区,西尾久６丁目２４番３－１０３号,,13,118,1160011,,,,,,,2025-10-02,1,,,,,ジェイドアズール,0
813,4011701028787,新規,0,2025-10-02,2025-10-02,和美株式会社,,株式会社,東京都,江戸川区,一之江３丁目１８－７コーポ百合ＩＩ１Ｆ,00140888,13,123,1320024,,,,,,,2025-10-02,1,,,,,ワビ,0
817,4011801046796,新規,0,2025-10-02,2025-10-02,僑和株式会社,,株式会社,東京都,足立区,梅島１丁目２８番６号２０２室,,13,121,1210816,,,,,,,2025-10-02,1,,,,,キョウワ,0
818,4011801046838,新規,0,2025-10-02,2025-10-02,義合成株式会社,,株式会社,東京都,葛飾区,鎌倉２丁目２４番２０号１Ｆ,,13,122,1250053,,,,,,,2025-10-02,1,,,,,ギゴウセイ,0
819,4012401043647,新規,0,2025-10-02,2025-10-02,３Ｔ株式会社,,株式会社,東京都,狛江市,西野川１丁目１７番１５号,,13,219,2010001,,,,,,,2025-10-02,1,,,,,スリーティー,0
826,4013101009822,新規,0,2025-10-02,2025-10-02,株式会社壽和,,株式会社,東京都,羽村市,羽西２丁目６番１１号,,13,227,2050017,,,,,,,2025-10-02,1,,,,,ショウワ,0
841,4020001165010,新規,0,2025-10-02,2025-10-02,株式会社サプライ電気,,株式会社,神奈川県,横浜市神奈川区,大口仲町１１７－１－１０５,,14,102,2210003,,,,,,,2025-10-02,1,,,,,サプライデンキ,0
848,4020003029403,新規,0,2025-10-02,2025-10-02,ＬＵＶＵ合同会社,,合同会社,神奈川県,川崎市中原区,宮内２丁目３２番１８－１号,,14,133,2110051,,,,,,,2025-10-02,1,,,,,ルヴー,0
856,4021003016597,新規,0,2025-10-02,2025-10-02,合同会社アンリミテッド,,合同会社,神奈川県,厚木市,旭町４丁目４－４ラインハイツ１０２,,14,212,2430014,,,,,,,2025-10-02,1,,,,,アンリミテッド,0
860,4030001168920,新規,0,2025-10-02,2025-10-02,株式会社ＢＥＬＩＥＦ,,株式会社,埼玉県,川口市,西青木５丁目１０番１８号ＣｏｒｅＨｏｕｓｅ２－１０４号室,,11,203,3320035,,,,,,,2025-10-02,1,,,,,ビリーフ,0
861,4030001168945,新規,0,2025-10-02,2025-10-02,Ａｕｒｅｏ　Ｓ株式会社,,株式会社,埼玉県,川越市,田町８番地１０（カサル・ミーサ１０６号室）,,11,201,3501113,,,,,,,2025-10-02,1,,,,,アウレオエス,0
870,4030003027769,新規,0,2025-10-02,2025-10-02,合同会社ＫＵＭＡＲＩ,,合同会社,埼玉県,さいたま市緑区,東浦和２丁目４－１２,,11,109,3360926,,,,,,,2025-10-02,1,,,,,クマリ,0
875,4040003028527,新規,0,2025-10-02,2025-10-02,恒聖合同会社,,合同会社,千葉県,八千代市,八千代台東３丁目１２番３８－２０４号,,12,221,2760032,,,,,,,2025-10-02,1,,,,,コウセイ,0
876,4040003028601,新規,0,2025-10-02,2025-10-02,合同会社仁温,,合同会社,千葉県,千葉市緑区,おゆみ野中央６丁目３７番地６,,12,105,2660032,,,,,,,2025-10-02,1,,,,,ジンオン,0
877,4040003028634,新規,0,2025-10-02,2025-10-02,Ｐｉｔｏｎ　Ｐｌａｎｎｉｎｇ合同会社,,合同会社,千葉県,八千代市,萱田町７４２番地５ベルパーク八千代Ｒ－３０４号,,12,221,2760044,,,,,,,2025-10-02,1,,,,,ピトンプランニング,0
886,4050001057345,新規,0,2025-10-02,2025-10-02,株式会社榊,,株式会社,茨城県,稲敷郡阿見町,大字若栗１３０７－２１－１１号室,,08,443,3000333,,,,,,,2025-10-02,1,,,,,サカキ,0
888,4060001038617,新規,0,2025-10-02,2025-10-02,出流原石灰岩水株式会社,,株式会社,栃木県,佐野市,出流原町７０番地,,09,204,3270102,,,,,,,2025-10-02,1,,,,,イズルハラセッカイガンスイ,0
902,4100003008398,新規,0,2025-10-02,2025-10-02,合同会社Ｂｏｔｈｗｉｎ,,合同会社,長野県,松本市,浅間温泉１丁目２６番５号,,20,202,3900303,,,,,,,2025-10-02,1,,,,,ボスウィン,0
905,4110001039592,新規,0,2025-10-02,2025-10-02,株式会社エヌスケッチ,,株式会社,新潟県,新潟市中央区,神道寺３丁目２番１２号ハイム神道寺２Ａ,,15,103,9500983,,,,,,,2025-10-02,1,,,,,エヌスケッチ,0
911,4120001280030,新規,0,2025-10-02,2025-10-02,株式会社Ｌｅｍｏｎ,,株式会社,大阪府,大阪市西区,靱本町１丁目１０番４号本町井出ビル７階,,27,106,5500004,,,,,,,2025-10-02,1,,,,,レモン,0
912,4120001280204,新規,0,2025-10-02,2025-10-02,株式会社Ｅｓｐｏｉｒ　Ｂｏｎｄ,,株式会社,大阪府,大阪市生野区,巽西１丁目１－１８－７１２,,27,116,5440012,,,,,,,2025-10-02,1,,,,,エスポワールボンド,0
913,4120003030763,新規,0,2025-10-02,2025-10-02,合同会社Ｈｅａｌ　ｔｈｅ　Ｗｏｒｌｄ,,合同会社,大阪府,大阪市北区,長柄東２丁目８番３６－１４０２号,,27,127,5310063,,,,,,,2025-10-02,1,,,,,ヒールザワールド,0
914,4120003030846,新規,0,2025-10-02,2025-10-02,エバライン合同会社,,合同会社,大阪府,大阪市住之江区,南港北２丁目１番１０号,,27,125,5590034,,,,,,,2025-10-02,1,,,,,エバライン,0
915,4120003030895,新規,0,2025-10-02,2025-10-02,Ｋｈｕｒｒａｍ　Ｔｒａｄｉｎｇ合同会社,,合同会社,大阪府,寝屋川市,萱島東１丁目９－２１アパートメント寝屋川ＩＩ－１０５,00140884,27,215,5720824,,,,,,,2025-10-02,1,,,,,クッラムトレーディング,0
920,4130001080644,新規,0,2025-10-02,2025-10-02,株式会社むつぼし,,株式会社,京都府,京都市中京区,笹屋町４３６永和御池ビル６０６号,,26,104,6040983,,,,,,,2025-10-02,1,,,,,ムツボシ,0
921,4130001080660,新規,0,2025-10-02,2025-10-02,株式会社ＭＯＫ,,株式会社,京都府,京都市左京区,上高野大湯手町５－７,,26,103,6060048,,,,,,,2025-10-02,1,,,,,モック,0
925,4140001140109,新規,0,2025-10-02,2025-10-02,株式会社Ｋ＆Ｒ,,株式会社,兵庫県,尼崎市,若王寺２丁目１７番１５－３０２号,,28,202,6610974,,,,,,,2025-10-02,1,,,,,ケイアンドアール,0
937,4180003029148,新規,0,2025-10-02,2025-10-02,合同会社栄仁,,合同会社,愛知県,名古屋市守山区,大森５丁目７２２,,23,113,4630021,,,,,,,2025-10-02,1,,,,,エイジン,0
940,4180301040277,新規,0,2025-10-02,2025-10-02,株式会社ｉｂｓ,,株式会社,愛知県,安城市,小川町鹿乗１番地１０６,,23,212,4441162,,,,,,,2025-10-02,1,,,,,アイビーエス,0
950,4220001026951,新規,0,2025-10-02,2025-10-02,株式会社オートまつもとコーポレーション,,株式会社,石川県,金沢市,長土塀３丁目８番２５号,,17,201,9200867,,,,,,,2025-10-02,1,,,,,オートマツモトコーポレーション,0
952,4230005009497,新規,0,2025-10-02,2025-10-02,一般社団法人ＦＵＮ,,その他の設立登記法人,富山県,富山市,大泉１４６６番地１６,,16,201,9398058,,,,,,,2025-10-02,1,,,,,ファン,0
962,4250005009033,新規,0,2025-10-02,2025-10-02,長澤神社,,その他の設立登記法人,山口県,山口市,鋳銭司８４４番地７,,35,203,7471221,,,,,,,2025-10-02,1,,,,,ナガサワジンジャ,0
967,4260001040602,新規,0,2025-10-02,2025-10-02,株式会社ＰｒｉｓｍＰｌａｔ,,株式会社,岡山県,岡山市中区,江崎１５７－３,,33,102,7028005,,,,,,,2025-10-02,1,,,,,プリズムプラット,0
969,4280001009513,新規,0,2025-10-02,2025-10-02,ベストチップ株式会社,,株式会社,島根県,安来市,伯太町安田１７５２番地,,32,206,6920206,,,,,,,2025-10-02,1,,,,,ベストチップ,0
973,4290001111524,新規,0,2025-10-02,2025-10-02,株式会社ＧＲＡＣＩＡＳ,,株式会社,福岡県,福岡市中央区,渡辺通２丁目９－９モアナ渡辺通ビル４Ｆ,,40,133,8100004,,,,,,,2025-10-02,1,,,,,グラシアス,0
974,4290001111532,新規,0,2025-10-02,2025-10-02,株式会社ＴＲＵＥＴＲＥＥ,,株式会社,福岡県,久留米市,東合川１丁目９番５７－３号室,,40,203,8390809,,,,,,,2025-10-02,1,,,,,トゥルーツリー,0
975,4290001111540,新規,0,2025-10-02,2025-10-02,Ｔａｋａｒａ株式会社,,株式会社,福岡県,福岡市西区,大町団地３－１大町ビル２階,,40,135,8190021,,,,,,,2025-10-02,1,,,,,タカラ,0
976,4290001111615,新規,0,2025-10-02,2025-10-02,辰昇株式会社,,株式会社,福岡県,福岡市博多区,博多駅中央街５番１１号,,40,132,8120012,,,,,,,2025-10-02,1,,,,,タツショウ,0
977,4290001111722,新規,0,2025-10-02,2025-10-02,株式会社リオ経営コンサルティング,,株式会社,福岡県,福岡市中央区,今泉１丁目７－１９ティアラ今泉５０３,,40,133,8100021,,,,,,,2025-10-02,1,,,,,リオケイエイコンサルティング,0
979,4290801031913,新規,0,2025-10-02,2025-10-02,株式会社Ｋ　ｓｏｌｕｔｉｏｎ,,株式会社,福岡県,北九州市小倉南区,上曽根１丁目２番２２号,,40,107,8000223,,,,,,,2025-10-02,1,,,,,ケイソリューション,0
1006,4380001035598,新規,0,2025-10-02,2025-10-02,株式会社スマートホテル,,株式会社,福島県,福島市,栄町７番３号,,07,201,9608031,,,,,,,2025-10-02,1,,,,,スマートホテル,0
1010,4430001095380,新規,0,2025-10-02,2025-10-02,アルファスポーツ株式会社,,株式会社,北海道,伊達市,松ヶ枝町６５番地,,01,233,0520012,,,,,,,2025-10-02,1,,,,,アルファスポーツ,0
1026,5010001258813,新規,0,2025-10-02,2025-10-02,ＧｅｎＱ株式会社,,株式会社,東京都,中央区,日本橋室町１丁目１１番１２号日本橋水野ビル７階,,13,102,1030022,,,,,,,2025-10-02,1,,,,,ジェンキュー,0
1027,5010001258846,新規,0,2025-10-02,2025-10-02,株式会社エンノッツ,,株式会社,東京都,中央区,日本橋室町１丁目１１番１２号日本橋水野ビル７階,,13,102,1030022,,,,,,,2025-10-02,1,,,,,エンノッツ,0
1028,5010001258887,新規,0,2025-10-02,2025-10-02,株式会社Ｍｏｎｏｉｄ,,株式会社,東京都,千代田区,三番町２６番地１ザ・パークハウスグラン三番町２６、３０６号,,13,101,1020075,,,,,,,2025-10-02,1,,,,,モノイド,0
1029,5010001258929,新規,0,2025-10-02,2025-10-02,株式会社コンテンツモンスター,,株式会社,東京都,千代田区,神田松永町１３番地ＶＯＲＴ秋葉原ＩＩ,00140887,13,101,1010023,,,,,,,2025-10-02,1,,,,,コンテンツモンスター,0
1030,5010001258937,新規,0,2025-10-02,2025-10-02,株式会社ＳＴＯＣＫ１９３,,株式会社,東京都,千代田区,永田町２丁目１２番４号,,13,101,1000014,,,,,,,2025-10-02,1,,,,,ストックヒャクキュウジュウサン,0
1033,5010003048865,新規,0,2025-10-02,2025-10-02,ＪＰＳ第４０号合同会社,,合同会社,東京都,千代田区,霞が関３丁目２番１号,,13,101,1000013,,,,,,,2025-10-02,1,,,,,ジェイピーエスダイヨンジュウゴウ,0
1047,5010603011818,新規,0,2025-10-02,2025-10-02,ＳｙｌｏｇｉｃＸ合同会社,,合同会社,東京都,江東区,東砂７丁目１０番３－１２２号,,13,108,1360074,,,,,,,2025-10-02,1,,,,,サイロジックエックス,0
1048,5010701048381,新規,0,2025-10-02,2025-10-02,株式会社ＧＭ,,株式会社,東京都,品川区,小山７丁目１６番５－１０５号,,13,109,1420062,,,,,,,2025-10-02,1,,,,,ジーエム,0
1054,5011001172310,新規,0,2025-10-02,2025-10-02,ｆｏｉ株式会社,,株式会社,東京都,渋谷区,神宮前４丁目７－１２,,13,113,1500001,,,,,,,2025-10-02,1,,,,,フォア,0
1065,5011101113404,新規,0,2025-10-02,2025-10-02,株式会社信拓,,株式会社,東京都,新宿区,新宿１丁目１７番１６号第一遠藤ビル３０７号室,,13,104,1600022,,,,,,,2025-10-02,1,,,,,シンタク,0
1075,5011503006684,新規,0,2025-10-02,2025-10-02,合同会社ＬＵＣＫＹ　ＳＥＶＥＮ,,合同会社,東京都,北区,西ケ原１丁目４８番８－２０１号エースハイム,,13,117,1140024,,,,,,,2025-10-02,1,,,,,ラッキーセブン,0
1076,5011701028786,新規,0,2025-10-02,2025-10-02,ＣｙｂｅｒＦｌａｒｅ株式会社,,株式会社,東京都,江戸川区,西小岩５丁目１３番地１３小出マンション１１０号室,,13,123,1330057,,,,,,,2025-10-02,1,,,,,サイバーフレア,0
1077,5011801046829,新規,0,2025-10-02,2025-10-02,電気保安株式会社,,株式会社,東京都,葛飾区,亀有５丁目４１番１－１３０１号,,13,122,1250061,,,,,,,2025-10-02,1,,,,,デンキホアン,0
1078,5011801046861,新規,0,2025-10-02,2025-10-02,株式会社伸板金工業,,株式会社,東京都,足立区,神明２丁目１１番１５号,,13,121,1210051,,,,,,,2025-10-02,1,,,,,シンバンキンコウギョウ,0
1082,5013101009821,新規,0,2025-10-02,2025-10-02,鳥井興業株式会社,,株式会社,東京都,あきる野市,雨間５５８番地１,,13,228,1970825,,,,,,,2025-10-02,1,,,,,トリイコウギョウ,0
1092,5020003029419,新規,0,2025-10-02,2025-10-02,合同会社トリニティ,,合同会社,神奈川県,横浜市西区,浅間台７１－３０アーヴェル浅間台１０１,,14,103,2200071,,,,,,,2025-10-02,1,,,,,トリニティ,0
1098,5021003016613,新規,0,2025-10-02,2025-10-02,合同会社ＡＫＡＴＳＵＫＩ,,合同会社,神奈川県,茅ヶ崎市,東海岸北２丁目１４－３－１,,14,207,2530053,,,,,,,2025-10-02,1,,,,,アカツキ,0
1116,5040001140654,新規,0,2025-10-02,2025-10-02,ＡＬ　ＱＡＳＷＡ　ＴＲＡＤＩＮＧ株式会社,,株式会社,千葉県,柏市,富里３丁目３番１６号,,12,217,2770081,,,,,,,2025-10-02,1,,,,,アルカシュワトレーディング,0
1117,5040001140662,新規,0,2025-10-02,2025-10-02,ＭａｘＣｅｌｌ株式会社,,株式会社,千葉県,千葉市中央区,宮崎町５２４－７３第１タウニィ宮崎１０３号室,,12,101,2600805,,,,,,,2025-10-02,1,,,,,マックスセル,0
1120,5040003028617,新規,0,2025-10-02,2025-10-02,Ｙ・Ｓ合同会社,,合同会社,千葉県,鎌ケ谷市,西道野辺１番２－４０３号,,12,224,2730117,,,,,,,2025-10-02,1,,,,,ワイエス,0
1121,5040003028633,新規,0,2025-10-02,2025-10-02,Ｔｕａｎ　Ａｎｈ　Ｇｒｏｕｐ合同会社,,合同会社,千葉県,千葉市美浜区,真砂２丁目４番１棟２０７号,,12,106,2610011,,,,,,,2025-10-02,1,,,,,トランアングループ,0
1122,5040003028658,新規,0,2025-10-02,2025-10-02,合同会社ウィルプラス,,合同会社,千葉県,柏市,若柴６番地１６－１００２,,12,217,2770871,,,,,,,2025-10-02,1,,,,,ウィルプラス,0
1123,5040003028699,新規,0,2025-10-02,2025-10-02,合同会社Ｐａｄｍａｙｕｒ,,合同会社,千葉県,我孫子市,つくし野３丁目１１－２０５,,12,222,2701164,,,,,,,2025-10-02,1,,,,,パドマユール,0
1126,5050001057352,新規,0,2025-10-02,2025-10-02,ＡＲＶＡＩ株式会社,,株式会社,茨城県,稲敷郡阿見町,大字若栗１３０７－２１－１０号室,,08,443,3000333,,,,,,,2025-10-02,1,,,,,アルヴァイ,0
1128,5060001038624,新規,0,2025-10-02,2025-10-02,株式会社リアンコーポレーション,,株式会社,栃木県,宇都宮市,東簗瀬１丁目６番６号,,09,201,3210925,,,,,,,2025-10-02,1,,,,,リアンコーポレーション,0
1137,5080401028198,新規,0,2025-10-02,2025-10-02,株式会社エーコンフィールド,,株式会社,静岡県,浜松市天竜区,春野町気田７５５番地,,22,140,4370605,,,,,,,2025-10-02,1,,,,,エーコンフィールド,0
1139,5090003002906,新規,0,2025-10-02,2025-10-02,合同会社ＧＥＮＩＥ,,合同会社,山梨県,北杜市,高根町清里３５４５－３６８,,19,209,4070301,,,,,,,2025-10-02,1,,,,,,0
1142,5100001039007,新規,0,2025-10-02,2025-10-02,株式会社ＰＡＷＮＳ,,株式会社,長野県,松本市,野溝東１丁目１１番３０号,,20,202,3990034,,,,,,,2025-10-02,1,,,,,ポーンズ,0
1149,5110001039591,新規,0,2025-10-02,2025-10-02,株式会社前田組,,株式会社,新潟県,上越市,頸城区森本１３３３番地１,,15,222,9420223,,,,,,,2025-10-02,1,,,,,マエダグミ,0
1160,5120001280467,新規,0,2025-10-02,2025-10-02,中野不動産管理株式会社,,株式会社,大阪府,枚方市,牧野本町１丁目３６番２２号,,27,210,5731144,,,,,,,2025-10-02,1,,,,,ナカノフドウサンカンリ,0
1161,5120001280517,新規,0,2025-10-02,2025-10-02,北図株式会社,,株式会社,大阪府,大阪市東淀川区,瑞光４丁目２番２１－２０５号,,27,114,5330005,,,,,,,2025-10-02,1,,,,,キタズ,0
1164,5120101072525,新規,0,2025-10-02,2025-10-02,株式会社ＡＺａｎｔ　Ｃｏｎｓｕｌ,,株式会社,大阪府,堺市堺区,向陵中町４丁７番２５号,,27,141,5900024,,,,,,,2025-10-02,1,,,,,アザントコンサル,0
1171,5122001039686,新規,0,2025-10-02,2025-10-02,松本自動車株式会社,,株式会社,大阪府,東大阪市,菱屋東３丁目１－１,,27,227,5780948,,,,,,,2025-10-02,1,,,,,マツモトジドウシャ,0
1173,5130001080668,新規,0,2025-10-02,2025-10-02,聯誠株式会社,,株式会社,京都府,京都市伏見区,深草下川原町５０番地４未来ビル２１１号,,26,109,6128401,,,,,,,2025-10-02,1,,,,,レンセイ,0
1184,5140001140165,新規,0,2025-10-02,2025-10-02,株式会社ラヴィミュー,,株式会社,兵庫県,神戸市灘区,篠原中町６丁目５番２１－２０４号,,28,102,6570066,,,,,,,2025-10-02,1,,,,,ラヴィミュー,0
1189,5160003003616,新規,0,2025-10-02,2025-10-02,Ｃｒａｎｋｙｓ合同会社,,合同会社,滋賀県,大津市,里３丁目８－２８,,25,201,5202276,,,,,,,2025-10-02,1,,,,,クランキーズ,0
1191,5170001018805,新規,0,2025-10-02,2025-10-02,株式会社市起,,株式会社,和歌山県,伊都郡かつらぎ町,大字佐野７５３－８,,30,341,6497174,,,,,,,2025-10-02,1,,,,,イチキ,0
1193,5180001168913,新規,0,2025-10-02,2025-10-02,株式会社ＴＫＧ,,株式会社,愛知県,名古屋市熱田区,須賀町６０１番地の２（ル・マン１０３号）,,23,109,4560042,,,,,,,2025-10-02,1,,,,,ティーケージー,0
1194,5180001168921,新規,0,2025-10-02,2025-10-02,株式会社ＱＵＡＲＴＩＯＮＥ,,株式会社,愛知県,名古屋市中区,栄２丁目９番５号東海ビル６Ｆ,,23,106,4600008,,,,,,,2025-10-02,1,,,,,カルティオン,0
1195,5180005021250,新規,0,2025-10-02,2025-10-02,医療法人おやま耳鼻咽喉科,,その他の設立登記法人,愛知県,日進市,香久山２丁目２１０４番地,,23,230,4700134,,,,,,,2025-10-02,1,,,,,オヤマジビインコウカ,0
1200,5190001032572,新規,0,2025-10-02,2025-10-02,エアクル株式会社,,株式会社,三重県,員弁郡東員町,大字南大社６１２番３,,24,324,5110256,,,,,,,2025-10-02,1,,,,,エアクル,0
1207,5220001026950,新規,0,2025-10-02,2025-10-02,株式会社ｍ．ｃ．ｍ,,株式会社,石川県,野々市市,太平寺２丁目２３８番地１,,17,212,9218845,,,,,,,2025-10-02,1,,,,,エムシーエム,0
1219,5250003003813,新規,0,2025-10-02,2025-10-02,合同会社ステップ,,合同会社,山口県,下関市,秋根西町２丁目３番３号,,35,201,7510873,,,,,,,2025-10-02,1,,,,,,0
1227,5270003001798,新規,0,2025-10-02,2025-10-02,合同会社トップギア,,合同会社,鳥取県,鳥取市,用瀬町古用瀬４１番地２,,31,201,6891221,,,,,,,2025-10-02,1,,,,,トップギア,0
1233,5290003017479,新規,0,2025-10-02,2025-10-02,ユナイテッド・デベロップメント合同会社,,合同会社,福岡県,福岡市博多区,博多駅前１丁目２３番２号ＰａｒｋＦｒｏｎｔ博多駅前１丁目５Ｆ－Ｂ,,40,132,8120011,,,,,,,2025-10-02,1,,,,,ユナイテッドデベロップメント,0
1243,5320003004779,新規,0,2025-10-02,2025-10-02,ユー・モア合同会社,,合同会社,大分県,大分市,坂ノ市中央１丁目４番２８号,,44,201,8700307,,,,,,,2025-10-02,1,,,,,ユーモア,0
1246,5340001027680,新規,0,2025-10-02,2025-10-02,株式会社ＨＡＦＳＡトレーディング,,株式会社,鹿児島県,日置市,日吉町日置３８３番地１,,46,216,8993101,,,,,,,2025-10-02,1,,,,,ハフサトレーディング,0
1249,5340003004967,新規,0,2025-10-02,2025-10-02,心守合同会社,,合同会社,鹿児島県,鹿児島市,広木２丁目６０番３７号プロヌーブＭ２０２号,,46,201,8900037,,,,,,,2025-10-02,1,,,,,シンシュ,0
1260,5360001035855,新規,0,2025-10-02,2025-10-02,株式会社ショッピー,,株式会社,沖縄県,那覇市,首里石嶺町４丁目２３９番地１フリースピュア１０１,,47,201,9030804,,,,,,,2025-10-02,1,,,,,ショッピー,0
1266,5380003006150,新規,0,2025-10-02,2025-10-02,合同会社ＷＯＮＤＥＲ　ＶＩＳＩＯＮ,,合同会社,福島県,いわき市,郷ケ丘３丁目２番地の１２１,,07,204,9708045,,,,,,,2025-10-02,1,,,,,ワンダービジョン,0
1268,5390001018122,新規,0,2025-10-02,2025-10-02,株式会社ＤＭＩ,,株式会社,山形県,山形市,小立１丁目３番１－３０１号ベレオカヘ,,06,201,9902402,,,,,,,2025-10-02,1,,,,,ディーエムアイ,0
1271,5410001014283,新規,0,2025-10-02,2025-10-02,株式会社ウォープ,,株式会社,秋田県,秋田市,雄和相川字銅屋１７９番地２,,05,201,0101231,,,,,,,2025-10-02,1,,,,,ウォープ,0
1273,5440003001715,新規,0,2025-10-02,2025-10-02,合同会社ニシマサ,,合同会社,北海道,函館市,若松町３２－６,,01,202,0400063,,,,,,,2025-10-02,1,,,,,ニシマサ,0
1278,5700150017603,新規,0,2025-10-02,2015-10-09,三井精機労働組合,,その他,埼玉県,比企郡川島町,八幡６丁目１３,,11,346,3500151,,,,,,,2015-10-09,1,,,,,ミツイセイキロウドウクミアイ,0
1284,6010001258754,新規,0,2025-10-02,2025-10-02,星橋株式会社,,株式会社,東京都,中央区,日本橋３丁目２番１４号新槇町ビル別館第一２階,,13,102,1030027,,,,,,,2025-10-02,1,,,,,ホシバシ,0
1285,6010001258878,新規,0,2025-10-02,2025-10-02,株式会社ＳＯＬ,,株式会社,東京都,中央区,銀座１丁目１２番４号６Ｆ,,13,102,1040061,,,,,,,2025-10-02,1,,,,,ソル,0
1286,6010001258894,新規,0,2025-10-02,2025-10-02,株式会社ＰＬＡＩＮＳ,,株式会社,東京都,中央区,日本橋室町１丁目１１番１２号日本橋水野ビル７階,,13,102,1030022,,,,,,,2025-10-02,1,,,,,プレインズ,0
1287,6010001258928,新規,0,2025-10-02,2025-10-02,ＢＹＳ資産管理株式会社,,株式会社,東京都,中央区,日本橋大伝馬町９番１１－８０３号,,13,102,1030011,,,,,,,2025-10-02,1,,,,,ビーワイエスシサンカンリ,0
1288,6010001258969,新規,0,2025-10-02,2025-10-02,太平洋株式会社,,株式会社,東京都,中央区,築地５丁目４番１９号,,13,102,1040045,,,,,,,2025-10-02,1,,,,,タイヘイヨウ,0
1292,6010003048823,新規,0,2025-10-02,2025-10-02,スタジオ化け猫合同会社,,合同会社,東京都,千代田区,神田錦町３丁目１５番,,13,101,1010054,,,,,,,2025-10-02,1,,,,,スタジオバケネコ,0
1294,6010005040712,新規,0,2025-10-02,2025-10-02,一般財団法人日本モンゴル未来財団,,その他の設立登記法人,東京都,千代田区,霞が関３丁目６番１４号三久ビル７階,,13,101,1000013,,,,,,,2025-10-02,1,,,,,ニホンモンゴルミライザイダン,0
1308,6010703007938,新規,0,2025-10-02,2025-10-02,Ｌｕｕｐ車両管理５号合同会社,,合同会社,東京都,品川区,西五反田８丁目９番５号ＦＯＲＥＣＡＳＴ五反田ＷＥＳＴ７階,,13,109,1410031,,,,,,,2025-10-02,1,,,,,ループシャリョウカンリゴゴウ,0
1310,6010801036649,新規,0,2025-10-02,2025-10-02,株式会社ｄｅＬｕｎｅ,,株式会社,東京都,大田区,中央５丁目２７番８号,,13,111,1430024,,,,,,,2025-10-02,1,,,,,デルーン,0
1313,6011001172292,新規,0,2025-10-02,2025-10-02,株式会社ｆｕｌｌｆｉｒｓｔ,,株式会社,東京都,目黒区,中目黒５丁目７番３３－３０３号ハイツ自然園,,13,110,1530061,,,,,,,2025-10-02,1,,,,,フルファースト,0
1316,6011003022636,新規,0,2025-10-02,2025-10-02,トランシュール合同会社,,合同会社,東京都,渋谷区,道玄坂１丁目１０番８号渋谷道玄坂東急ビル２Ｆ－Ｃ,,13,113,1500043,,,,,,,2025-10-02,1,,,,,トランシュール,0
1317,6011003022685,新規,0,2025-10-02,2025-10-02,ＦＲＡＭＥ　ＢＥＡＴ合同会社,,合同会社,東京都,渋谷区,道玄坂１丁目１０番８号渋谷道玄坂東急ビル２Ｆ－Ｃ,,13,113,1500043,,,,,,,2025-10-02,1,,,,,フレームビート,0
1324,6011101113345,新規,0,2025-10-02,2025-10-02,絆ｇｌｏｂａｌ防衛研究所株式会社,,株式会社,東京都,新宿区,市谷本村町三丁目２０番,,13,104,1620845,,,,,,,2025-10-02,1,,,,,キズナグローバルボウエイケンキュウジョ,0
1325,6011101113403,新規,0,2025-10-02,2025-10-02,新昇商事株式会社,,株式会社,東京都,新宿区,新宿５丁目２番１６号市川ビル２０５号室,,13,104,1600022,,,,,,,2025-10-02,1,,,,,シンショウショウジ,0
1332,6011501032616,新規,0,2025-10-02,2025-10-02,ＢＳＡ株式会社,,株式会社,東京都,荒川区,東尾久１丁目３１番２号ＳＴオオタニビレッジ３０２,,13,118,1160012,,,,,,,2025-10-02,1,,,,,ビエスエイ,0
1333,6011501032632,新規,0,2025-10-02,2025-10-02,華強株式会社,,株式会社,東京都,北区,王子３丁目２２－２３協成ビル,,13,117,1140002,,,,,,,2025-10-02,1,,,,,カキョウ,0
1334,6011501032640,新規,0,2025-10-02,2025-10-02,ＡＩ革命株式会社,,株式会社,東京都,北区,赤羽１丁目５９－８ヒノデビル４Ｆ,,13,117,1150045,,,,,,,2025-10-02,1,,,,,エーアイカクメイ,0
1337,6011801046828,新規,0,2025-10-02,2025-10-02,株式会社日昇建材,,株式会社,東京都,葛飾区,青戸８丁目７番５号ＫＳ亀有３０３,,13,122,1250062,,,,,,,2025-10-02,1,,,,,ニッショウケンザイ,0
1355,6020001164910,新規,0,2025-10-02,2025-10-02,株式会社ＰＲＡＳＵＢＨ,,株式会社,神奈川県,横浜市中区,扇町２丁目４－５ＹＳビル３０１,,14,104,2310027,,,,,,,2025-10-02,1,,,,,プラスブ,0
1362,6021003016604,新規,0,2025-10-02,2025-10-02,ＭＣＬ合同会社,,合同会社,神奈川県,大和市,大和東１丁目７番２号福澤ビル１階Ｓ号室,,14,213,2420017,,,,,,,2025-10-02,1,,,,,エムシーエル,0
1366,6030001168860,新規,0,2025-10-02,2025-10-02,株式会社ライラックホーム,,株式会社,埼玉県,富士見市,羽沢１丁目２番４号,,11,235,3540033,,,,,,,2025-10-02,1,,,,,ライラックホーム,0
1374,6030003027750,新規,0,2025-10-02,2025-10-02,合同会社ＪＪ　ＷＯＲＫＳ,,合同会社,埼玉県,所沢市,南住吉１３番４号,,11,208,3591125,,,,,,,2025-10-02,1,,,,,ジェイジェイワークス,0
1375,6030003027767,新規,0,2025-10-02,2025-10-02,合同会社アール・ワン,,合同会社,埼玉県,越谷市,赤山本町３番地２４ライオンズグローベル越谷ステーションプラザ１２０１号,,11,222,3430808,,,,,,,2025-10-02,1,,,,,アールワン,0
1378,6040001140570,新規,0,2025-10-02,2025-10-02,株式会社ＦＯＲＥＶＩＳＩＯＮ,,株式会社,千葉県,船橋市,二和西５丁目１８番地,,12,204,2740806,,,,,,,2025-10-02,1,,,,,フォービジョン,0
1380,6040003028005,新規,0,2025-10-02,2025-10-02,合同会社ＢＪＢ　Ｐｒｏｊｅｃｔ,,合同会社,千葉県,松戸市,日暮７丁目１１２－４３,,12,207,2702253,,,,,,,2025-10-02,1,,,,,ビージェービープロジェクト,0
1381,6040003028624,新規,0,2025-10-02,2025-10-02,ＣＡＲＢＯＲＮ合同会社,,合同会社,千葉県,富里市,十倉５１８番地３,,12,233,2860212,,,,,,,2025-10-02,1,,,,,カーボーン,0
1382,6040003028632,新規,0,2025-10-02,2025-10-02,合同会社ひかり,,合同会社,千葉県,野田市,蕃昌２８１番地の８,,12,208,2780041,,,,,,,2025-10-02,1,,,,,ヒカリ,0
1383,6040003028681,新規,0,2025-10-02,2025-10-02,合同会社ＡｎｄＣＢ,,合同会社,千葉県,柏市,加賀３丁目１９番４号増尾アルファビル３階,,12,217,2770051,,,,,,,2025-10-02,1,,,,,アンドシービー,0
1386,6050001057310,新規,0,2025-10-02,2025-10-02,龍樹株式会社,,株式会社,茨城県,龍ケ崎市,２８８６－１,,08,208,3010000,,,,,,,2025-10-02,1,,,,,リュウジュ,0
1387,6050001057351,新規,0,2025-10-02,2025-10-02,株式会社Ｎビジネスプランニング,,株式会社,茨城県,守谷市,久保ケ丘２丁目１２番地７,,08,224,3020104,,,,,,,2025-10-02,1,,,,,エヌビジネスプランニング,0
1390,6060001038623,新規,0,2025-10-02,2025-10-02,株式会社巴,,株式会社,栃木県,足利市,巴町２５４１番地,,09,202,3260805,,,,,,,2025-10-02,1,,,,,トモエ,0
1398,6080105006540,新規,0,2025-10-02,2025-10-02,医療法人社団ＰＡＲＣ,,その他の設立登記法人,静岡県,三島市,広小路町９番１６号クボタビル１階,,22,206,4110856,,,,,,,2025-10-02,1,,,,,パーク,0
1399,6080401028189,新規,0,2025-10-02,2025-10-02,株式会社サルースジャパン,,株式会社,静岡県,浜松市中央区,泉４丁目１４番２８号,,22,138,4338124,,,,,,,2025-10-02,1,,,,,サルースジャパン,0
1400,6080401028197,新規,0,2025-10-02,2025-10-02,株式会社Ｐ．Ｒ．Ｏ,,株式会社,静岡県,掛川市,国包１７５９番地の２,,22,213,4371414,,,,,,,2025-10-02,1,,,,,ピーアールオー,0
1403,6100003008405,新規,0,2025-10-02,2025-10-02,合同会社島城,,合同会社,長野県,長野市,大字栗田２１２５番地長栄長野東口ビル１Ｆ・２Ｆ,,20,201,3800921,,,,,,,2025-10-02,1,,,,,シマジョウ,0
1417,6120001280053,新規,0,2025-10-02,2025-10-02,株式会社東辰科技,,株式会社,大阪府,大阪市西区,江之子島１丁目８番２０号福和楽ビル６Ｆ,,27,106,5500006,,,,,,,2025-10-02,1,,,,,トウシンカギ,0
1418,6120001280193,新規,0,2025-10-02,2025-10-02,株式会社ＪＩＯ,,株式会社,大阪府,大阪市東住吉区,東田辺３丁目２５－１３,,27,121,5460032,,,,,,,2025-10-02,1,,,,,ジオ,0
1419,6120001280219,新規,0,2025-10-02,2025-10-02,Ｃａｍｅｌｌｉａ株式会社,,株式会社,大阪府,大阪市城東区,今福南２丁目１５番２号,,27,118,5360003,,,,,,,2025-10-02,1,,,,,カメリア,0
1420,6120001280350,新規,0,2025-10-02,2025-10-02,株式会社静好,,株式会社,大阪府,大阪市中央区,内平野町２丁目３番１１－６０２号,,27,128,5400037,,,,,,,2025-10-02,1,,,,,セイコウ,0
1421,6120001280417,新規,0,2025-10-02,2025-10-02,株式会社和,,株式会社,大阪府,大阪市西区,南堀江３丁目１６番２１－１７０５号,,27,106,5500015,,,,,,,2025-10-02,1,,,,,ワ,0
1422,6120001280433,新規,0,2025-10-02,2025-10-02,株式会社筆,,株式会社,大阪府,大阪市北区,梅田１丁目２番２号大阪駅前第２ビル１２－１２,,27,127,5300001,,,,,,,2025-10-02,1,,,,,ヒツ,0
1423,6120001280458,新規,0,2025-10-02,2025-10-02,株式会社大阪ホームショップ,,株式会社,大阪府,大阪市西淀川区,姫島１丁目２３番２３号　近藤ハイツ１階,,27,113,5550033,,,,,,,2025-10-02,1,,,,,オオサカホームショップ,0
1424,6120001280532,新規,0,2025-10-02,2025-10-02,卓盛国際株式会社,,株式会社,大阪府,大阪市住之江区,中加賀屋２丁目２番２５号プレアール中加賀屋３Ｂ号室,,27,125,5590017,,,,,,,2025-10-02,1,,,,,タクセイコクサイ,0
1425,6120001280739,新規,0,2025-10-02,2025-10-02,株式会社ｈｉｔｏ,,株式会社,大阪府,大阪市中央区,安堂寺町２丁目６‐１１‐１２０５,,27,128,5420061,,,,,,,2025-10-02,1,,,,,ヒト,0
1427,6120003030720,新規,0,2025-10-02,2025-10-02,聞博合同会社,,合同会社,大阪府,大阪市西成区,萩之茶屋２丁目６番４号ニューかめや１１０号室,,27,122,5570004,,,,,,,2025-10-02,1,,,,,ブンバク,0
1428,6120003030761,新規,0,2025-10-02,2025-10-02,Ｇ‐ＭＩＳＳＩＯＮ合同会社,,合同会社,大阪府,大阪市西成区,橘２丁目１番８－１０１号室,,27,122,5570051,,,,,,,2025-10-02,1,,,,,ジーミッション,0
1446,6150001028433,新規,0,2025-10-02,2025-10-02,株式会社スズヤ,,株式会社,奈良県,生駒郡平群町,初香台２丁目１番１８号,,29,342,6360934,,,,,,,2025-10-02,1,,,,,スズヤ,0
1456,6180301040250,新規,0,2025-10-02,2025-10-02,Ｋアセット株式会社,,株式会社,愛知県,刈谷市,野田町東出口６４番地,,23,210,4480803,,,,,,,2025-10-02,1,,,,,ケーアセット,0
1457,6180301040259,新規,0,2025-10-02,2025-10-02,株式会社蒼和建設,,株式会社,愛知県,額田郡幸田町,大字深溝字西向野８番地アパ．ピスカトピア２０３,,23,501,4440124,,,,,,,2025-10-02,1,,,,,ソウワケンセツ,0
1458,6180301040275,新規,0,2025-10-02,2025-10-02,株式会社ＲＡＹｓ　ｐａｒｔｎｅｒｓ,,株式会社,愛知県,岡崎市,真福寺町字落合２７番地５,,23,202,4442106,,,,,,,2025-10-02,1,,,,,レイズパートナーズ,0
1460,6180303006753,新規,0,2025-10-02,2025-10-02,合同会社ＬＷ,,合同会社,愛知県,西尾市,熊味町南十五夜１０番地３,,23,213,4450071,,,,,,,2025-10-02,1,,,,,エルダブリュー,0
1468,6200003007074,新規,0,2025-10-02,2025-10-02,Ｍｉｕｎｏ合同会社,,合同会社,岐阜県,高山市,三福寺町４５２８番地３,,21,203,5060807,,,,,,,2025-10-02,1,,,,,ミウノ,0
1469,6200003007082,新規,0,2025-10-02,2025-10-02,ＭＡＬＩＫ　ＡＨＭＡＤ　ＴＲＡＤＩＮＧ合同会社,,合同会社,岐阜県,岐阜市,折立長瀬４７９－１８朝霧コーポ１０２,,21,201,5011132,,,,,,,2025-10-02,1,,,,,マリックアハマドトレーディング,0
1474,6220001026941,新規,0,2025-10-02,2025-10-02,ＳＨＵＫＥ株式会社,,株式会社,石川県,金沢市,太陽が丘２丁目１０５番地,,17,201,9201154,,,,,,,2025-10-02,1,,,,,シュケ,0
1478,6240001065582,新規,0,2025-10-02,2025-10-02,株式会社Ａｕｔｏ　Ｆｏｃｕｓ,,株式会社,広島県,廿日市市,阿品台３丁目１１番２５号,,34,213,7380053,,,,,,,2025-10-02,1,,,,,オートフォーカス,0
1480,6240003007426,新規,0,2025-10-02,2025-10-02,合同会社Ａｊ　ｌｉｎＫｓ,,合同会社,広島県,呉市,広吉松２丁目７番３－２号,,34,202,7370121,,,,,,,2025-10-02,1,,,,,エージェーリンクス,0
1482,6260001040583,新規,0,2025-10-02,2025-10-02,株式会社ＭＯＳＡｄｅｍｙ,,株式会社,岡山県,岡山市北区,津島中３丁目１番－１号岡山大学共創イノベーションラボＫＩＢＩＮＯＶＥ,,33,101,7000082,,,,,,,2025-10-02,1,,,,,モサデミー,0
1484,6270003001797,新規,0,2025-10-02,2025-10-02,合同会社ほうきぼし農園,,合同会社,鳥取県,西伯郡伯耆町,久古１０４２番地,,31,390,6894105,,,,,,,2025-10-02,1,,,,,ホウキボシノウエン,0
1486,6280001009511,新規,0,2025-10-02,2025-10-02,株式会社ＮＯ‐ＭＩ,,株式会社,島根県,松江市,天神町１０６番地アルファステイツ天神町４０３,,32,201,6900064,,,,,,,2025-10-02,1,,,,,ノウミ,0
1489,6280003001994,新規,0,2025-10-02,2025-10-02,合同会社おそうじだんだん,,合同会社,島根県,松江市,上乃木１丁目１１番３８号塩野アパート右側,,32,201,6900015,,,,,,,2025-10-02,1,,,,,オソウジダンダン,0
1493,6290001111530,新規,0,2025-10-02,2025-10-02,ＫＹＯＹＡ株式会社,,株式会社,福岡県,福岡市早良区,田村５丁目２４番２０号,,40,137,8140175,,,,,,,2025-10-02,1,,,,,キョウヤ,0
1498,6290003017536,新規,0,2025-10-02,2025-10-02,合同会社匠一入,,合同会社,福岡県,大野城市,下大利１丁目９－２３－１４０４,,40,219,8160952,,,,,,,2025-10-02,1,,,,,タクミヒトシオ,0
1501,6290801031903,新規,0,2025-10-02,2025-10-02,株式会社宮崎建設,00140899,株式会社,福岡県,鞍手郡鞍手町,大字新延９０１番地２,,40,402,8071305,,,,,,,2025-10-02,1,,,,,ミヤザキケンセツ,0
1503,6310001019804,新規,0,2025-10-02,2025-10-02,株式会社リアライズコーポレーション,,株式会社,長崎県,大村市,池田２丁目５５９番地３,,42,205,8560026,,,,,,,2025-10-02,1,,,,,リアライズコーポレーション,0
1507,6320003004778,新規,0,2025-10-02,2025-10-02,Ｋ＆Ｍ　ＧＬＯＢＡＬ合同会社,,合同会社,大分県,別府市,田の湯町３番７号４階,,44,202,8740909,,,,,,,2025-10-02,1,,,,,ケーエンドエムグローバル,0
1508,6330001033621,新規,0,2025-10-02,2025-10-02,Ｒｅｔｕｒｎ株式会社,,株式会社,熊本県,熊本市西区,島崎３丁目４番３７号,,43,103,8600073,,,,,,,2025-10-02,1,,,,,リターン,0
1511,6350005006332,新規,0,2025-10-02,2025-10-02,無限責任西塩町負債整理組合,,その他の設立登記法人,宮崎県,串間市,,,45,207,8880000,,,,,,,2025-10-02,1,,,,,,0
1522,6390005009133,新規,0,2025-10-02,2025-10-02,宗教法人寒河江キリスト教会,,その他の設立登記法人,山形県,寒河江市,大字島字島東７２番地,,06,206,9910043,,,,,,,2025-10-02,1,,,,,,0
1542,7010001258803,新規,0,2025-10-02,2025-10-02,株式会社善経営デザイン,,株式会社,東京都,文京区,小石川３丁目８番９号,,13,105,1120002,,,,,,,2025-10-02,1,,,,,ゼンケイエイデザイン,0
1543,7010001258836,新規,0,2025-10-02,2025-10-02,スマイルライフ株式会社,,株式会社,東京都,中央区,月島１丁目５番１－２５１０号,,13,102,1040052,,,,,,,2025-10-02,1,,,,,スマイルライフ,0
1544,7010001258844,新規,0,2025-10-02,2025-10-02,ＹＢＫ株式会社,,株式会社,東京都,中央区,日本橋室町１丁目１２番１２号３Ｆ,,13,102,1030022,,,,,,,2025-10-02,1,,,,,ワイビーケー,0
1545,7010001258869,新規,0,2025-10-02,2025-10-02,株式会社ＩＳＡＩＡＨ　ＲＥＳＥＡＲＣＨ,,株式会社,東京都,千代田区,丸の内３丁目４番１号新国際ビル８階８０３号室,,13,101,1000005,,,,,,,2025-10-02,1,,,,,イザヤリサーチ,0
1546,7010001258893,新規,0,2025-10-02,2025-10-02,ＢｉｔｃｏｉｎＰａｙ株式会社,,株式会社,東京都,中央区,日本橋室町１丁目１１番１２号日本橋水野ビル７階,,13,102,1030022,,,,,,,2025-10-02,1,,,,,ビットコインペイ,0
1547,7010001258943,新規,0,2025-10-02,2025-10-02,Ｏｒａｌｉｆｉｔ株式会社,,株式会社,東京都,文京区,白山１丁目６番４－２２８,,13,105,1130001,,,,,,,2025-10-02,1,,,,,オラリフィット,0
1548,7010001258976,新規,0,2025-10-02,2025-10-02,オーナーズクラス株式会社,,株式会社,東京都,千代田区,内幸町２丁目２番３号日比谷国際ビル,,13,101,1000011,,,,,,,2025-10-02,1,,,,,オーナーズクラス,0
1549,7010001259041,新規,0,2025-10-02,2025-10-02,株式会社ナナイロ総合研究所,,株式会社,東京都,千代田区,麹町４丁目８番１号,,13,101,1020083,,,,,,,2025-10-02,1,,,,,ナナイロソウゴウケンキュウショ,0
1550,7010003048847,新規,0,2025-10-02,2025-10-02,Ｇ３エンターテイメント合同会社,,合同会社,東京都,中央区,銀座６丁目２番６号銀座ウエストビル６階,,13,102,1040061,,,,,,,2025-10-02,1,,,,,ジースリーエンターテイメント,0
1551,7010003048896,新規,0,2025-10-02,2025-10-02,ＬＶＪホールディングス合同会社,,合同会社,東京都,千代田区,丸の内２丁目１番１号,,13,101,1000005,,,,,,,2025-10-02,1,,,,,エルブイジェイホールディングス,0
1552,7010003048905,新規,0,2025-10-02,2025-10-02,もばら合同会社,,合同会社,東京都,千代田区,霞が関３丁目２番５号,,13,101,1000013,,,,,,,2025-10-02,1,,,,,モバラ,0
1566,7010601068049,新規,0,2025-10-02,2025-10-02,青楓株式会社,,株式会社,東京都,墨田区,京島１丁目４３番２号１－Ｅ室,,13,107,1310046,,,,,,,2025-10-02,1,,,,,セイフウ,0
1568,7010603011824,新規,0,2025-10-02,2025-10-02,幸一合同会社,,合同会社,東京都,墨田区,江東橋４丁目５番５－８０５トーア錦糸町マンション,,13,107,1300022,,,,,,,2025-10-02,1,,,,,コウイチ,0
1572,7010701048405,新規,0,2025-10-02,2025-10-02,株式会社こんぴら茶屋,,株式会社,東京都,品川区,上大崎３丁目３－１,,13,109,1410021,,,,,,,2025-10-02,1,,,,,コンピラチャヤ,0
1578,7011001172309,新規,0,2025-10-02,2025-10-02,株式会社ゆきなり,,株式会社,東京都,渋谷区,神宮前３丁目１番１４号,,13,113,1500001,,,,,,,2025-10-02,1,,,,,ユキナリ,0
1579,7011001172366,新規,0,2025-10-02,2025-10-02,ＥｎｔＭｏｔｉｏｎ株式会社,,株式会社,東京都,渋谷区,神南１丁目１１番４号ＦＰＧリンクス神南５階,,13,113,1500041,,,,,,,2025-10-02,1,,,,,エンタモーション,0
1580,7011001172804,新規,0,2025-10-02,2025-10-02,株式会社エクラ,,株式会社,東京都,渋谷区,恵比寿南１丁目１０番６号,,13,113,1500022,,,,,,,2025-10-02,1,,,,,エクラ,0
1582,7011003022486,新規,0,2025-10-02,2025-10-02,合同会社クロノフレンズ,,合同会社,東京都,渋谷区,桜丘町２３番１７号シティコート桜丘４０４,,13,113,1500031,,,,,,,2025-10-02,1,,,,,クロノフレンズ,0
1583,7011003022602,新規,0,2025-10-02,2025-10-02,セイガサイ合同会社,,合同会社,東京都,渋谷区,大山町６番１２号レジデンスたちばな２０３,,13,113,1510065,,,,,,,2025-10-02,1,,,,,セイガサイ,0
1588,7011401027450,新規,0,2025-10-02,2025-10-02,株式会社琥龍,,株式会社,東京都,板橋区,成増１丁目８番１５号,,13,119,1750094,,,,,,,2025-10-02,1,,,,,コリュウ,0
1589,7011403004877,新規,0,2025-10-02,2025-10-02,ＩｎｏｃｈｉＨＵＢ合同会社,,合同会社,東京都,板橋区,富士見町１４－５,,13,119,1740062,,,,,,,2025-10-02,1,,,,,イノチハブ,0
1591,7011501032557,新規,0,2025-10-02,2025-10-02,悠和進株式会社,,株式会社,東京都,荒川区,西日暮里１丁目５９－３－２１４室,,13,118,1160013,,,,,,,2025-10-02,1,,,,,ユウワシン,0
1593,7011603004859,新規,0,2025-10-02,2025-10-02,合同会社リーラ,,合同会社,東京都,練馬区,中村北４丁目１９番１３号,,13,120,1760023,,,,,,,2025-10-02,1,,,,,,0
1595,7011801046827,新規,0,2025-10-02,2025-10-02,株式会社プレイガール,,株式会社,東京都,足立区,綾瀬１丁目３３番１４号,,13,121,1200005,,,,,,,2025-10-02,1,,,,,プレイガール,0
1596,7011801046835,新規,0,2025-10-02,2025-10-02,株式会社匠皇,,株式会社,東京都,葛飾区,柴又３丁目３－８,,13,122,1250052,,,,,,,2025-10-02,1,,,,,タクミ,0
1600,7012401043652,新規,0,2025-10-02,2025-10-02,株式会社Ｐ．Ｙ．Ｎ,,株式会社,東京都,調布市,多摩川２丁目１４番地４,,13,208,1820025,,,,,,,2025-10-02,1,,,,,,0
1601,7012403007374,新規,0,2025-10-02,2025-10-02,合同会社ＨＲコンサルタンツ,,合同会社,東京都,多摩市,連光寺１丁目２番地の１ライオンズ聖蹟桜ヶ丘パシーナ１１１７,,13,224,2060021,,,,,,,2025-10-02,1,,,,,エイチアールコンサルタンツ,0
1602,7012701019105,新規,0,2025-10-02,2025-10-02,Ｗｈｉｒｌｉｎｇ　Ｖｉｓｉｏｎ東京株式会社,,株式会社,東京都,清瀬市,元町１丁目１３番２１号エメラルドハイツ１０１－１０１号室－Ｓ,,13,221,2040021,,,,,,,2025-10-02,1,,,,,ホワーリングビジョントウキョウ,0
1604,7013103001493,新規,0,2025-10-02,2025-10-02,合同会社月桂樹,,合同会社,東京都,青梅市,友田町１丁目１０３５番地の５６,,13,205,1980051,,,,,,,2025-10-02,1,,,,,ゲッケイジュ,0
1615,7020003029417,新規,0,2025-10-02,2025-10-02,合同会社ｒｉｈｙｔｏ,,合同会社,神奈川県,横浜市都筑区,茅ケ崎南２丁目１３－２－２０３,,14,118,2240037,,,,,,,2025-10-02,1,,,,,リヒト,0
1618,7021001086391,新規,0,2025-10-02,2025-10-02,水渚株式会社,,株式会社,神奈川県,相模原市南区,鵜野森２丁目１７－５ハイマート町田４１１,,14,153,2520301,,,,,,,2025-10-02,1,,,,,ミズナギサ,0
1620,7021003016603,新規,0,2025-10-02,2025-10-02,合同会社ＰｏｓｔＬｉｎｋ,,合同会社,神奈川県,相模原市緑区,橋本５丁目１６－１１－２０３,,14,151,2520143,,,,,,,2025-10-02,1,,,,,ポストリンク,0
1628,7030001168926,新規,0,2025-10-02,2025-10-02,株式会社セイシン工業,,株式会社,埼玉県,さいたま市西区,三橋６丁目１１０９番地３，１－４０３,,11,101,3310052,,,,,,,2025-10-02,1,,,,,セイシンコウギョウ,0
1636,7040001140660,新規,0,2025-10-02,2025-10-02,ＡＬＰＩＮＥＳＴＡＲＳ　ＪＡＰＡＮ株式会社,,株式会社,千葉県,千葉市中央区,中央３丁目１８番３号加瀬ビル１５８－６０４号室,,12,101,2600013,,,,,,,2025-10-02,1,,,,,アルパインスターズジャパン,0
1640,7040003028672,新規,0,2025-10-02,2025-10-02,ＮＩＺＩＫＡＩ合同会社,,合同会社,千葉県,船橋市,芝山５丁目４４－２,,12,204,2740816,,,,,,,2025-10-02,1,,,,,ニジカイ,0
1642,7040005022896,新規,0,2025-10-02,2025-10-02,医療法人Ｄｅｎｓｋｅ,,その他の設立登記法人,千葉県,鎌ケ谷市,新鎌ケ谷４丁目７番２６号１階,,12,224,2730107,,,,,,,2025-10-02,1,,,,,デンスケ,0
1644,7050001057342,新規,0,2025-10-02,2025-10-02,Ｒ．Ｋ　ＦＯＯＤＳ　ＳＵＰＰＬＹ株式会社,,株式会社,茨城県,稲敷市,浮島字前浦６９７７－１４４－１号室,,08,229,3000641,,,,,,,2025-10-02,1,,,,,アルケフウドサプラヤ,0
1649,7080101025808,新規,0,2025-10-02,2025-10-02,株式会社Ｌｉｎｏ　ｒｅａｌｅｓｔａｔｅ,,株式会社,静岡県,三島市,一番町１２番１３号,,22,206,4110036,,,,,,,2025-10-02,1,,,,,リノリアルエステート,0
1650,7080401028188,新規,0,2025-10-02,2025-10-02,株式会社Ｉ’ｍ,,株式会社,静岡県,浜松市中央区,上新屋町１番地,,22,138,4350053,,,,,,,2025-10-02,1,,,,,アイム,0
1651,7090001019529,新規,0,2025-10-02,2025-10-02,株式会社Ｎプラスター,,株式会社,山梨県,南アルプス市,東南湖１２１３番地,,19,208,4000412,,,,,,,2025-10-02,1,,,,,エヌプラスター,0
1659,7110003005904,新規,0,2025-10-02,2025-10-02,合同会社２‐ｓｈｉｔｏ,,合同会社,新潟県,南魚沼郡湯沢町,大字湯沢２１５０トーコー湯沢５５０３,,15,461,9496101,,,,,,,2025-10-02,1,,,,,トゥシット,0
1666,7120001280093,新規,0,2025-10-02,2025-10-02,ＰＡ株式会社,,株式会社,大阪府,大阪市西成区,松３丁目１１－２２－２０２室,,27,122,5570034,,,,,,,2025-10-02,1,,,,,ピーエー,0
1667,7120001280201,新規,0,2025-10-02,2025-10-02,株式会社ＣＬＯＵＤ,,株式会社,大阪府,大阪市中央区,西心斎橋２丁目２番３号Ａ－Ｐｌａｃｅ心斎橋５階,,27,128,5420086,,,,,,,2025-10-02,1,,,,,クラウド,0
1668,7120001280283,新規,0,2025-10-02,2025-10-02,株式会社Ｓｔａｒｒｙ　Ｌｉｂｒａ,,株式会社,大阪府,大阪市東成区,玉津２丁目５番１４－１２０号,,27,115,5370023,,,,,,,2025-10-02,1,,,,,スターリーリブラ,0
1669,7120001280408,新規,0,2025-10-02,2025-10-02,株式会社ソワーレ,,株式会社,大阪府,大阪市東淀川区,大桐４丁目４番６７－９０１号,,27,114,5330011,,,,,,,2025-10-02,1,,,,,ソワーレ,0
1670,7120001280507,新規,0,2025-10-02,2025-10-02,啓程一灯株式会社,,株式会社,大阪府,大阪市西区,立売堀４丁目３番１６号５１３室,,27,106,5500012,,,,,,,2025-10-02,1,,,,,ケイテイイットウ,0
1671,7120003030744,新規,0,2025-10-02,2025-10-02,ＪＰＮＺ　ＧＲＯＵＰ合同会社,,合同会社,大阪府,大阪市港区,弁天３丁目１０番２０号港ＯＧＩビル３１１号室,,27,107,5520007,,,,,,,2025-10-02,1,,,,,ジェイピーエヌゼットグループ,0
1680,7130001080575,新規,0,2025-10-02,2025-10-02,旺家株式会社,,株式会社,京都府,京都市東山区,小松町１５３ザ・レジデンス京都祇園八坂通１０８号室,,26,105,6050811,,,,,,,2025-10-02,1,,,,,オウカ,0
1681,7130001080740,新規,0,2025-10-02,2025-10-02,株式会社クロスラボ,,株式会社,京都府,京都市中京区,町頭町１１２,,26,104,6048206,,,,,,,2025-10-02,1,,,,,クロスラボ,0
1687,7140001140188,新規,0,2025-10-02,2025-10-02,株式会社リンクル,,株式会社,兵庫県,神戸市東灘区,御影石町１丁目２番３－３０６号,,28,101,6580045,,,,,,,2025-10-02,1,,,,,リンクル,0
1691,7140003022640,新規,0,2025-10-02,2025-10-02,合同会社真葉,,合同会社,兵庫県,神戸市灘区,友田町１丁目１番５号プリュネ六甲２階号室,,28,102,6570035,,,,,,,2025-10-02,1,,,,,シンバ,0
1700,7180001168787,新規,0,2025-10-02,2025-10-02,株式会社Ｏｆｆｉｃｅ　Ｈａｙａｓｈｉ,,株式会社,愛知県,名古屋市瑞穂区,牛巻町１０番２６号１‐１０４,,23,108,4670863,,,,,,,2025-10-02,1,,,,,オフィスハヤシ,0
1701,7180001168820,新規,0,2025-10-02,2025-10-02,騰飛貿易株式会社,,株式会社,愛知県,稲沢市,松下２丁目７番地２４号ハイツリトル松下３０１室,,23,220,4928208,,,,,,,2025-10-02,1,,,,,トウヒボウエキ,0
1702,7180001168952,新規,0,2025-10-02,2025-10-02,株式会社晴れたらいいね,,株式会社,愛知県,春日井市,篠木町１丁目２６番地,,23,206,4860851,,,,,,,2025-10-02,1,,,,,ハレタライイネ,0
1707,7180005021249,新規,0,2025-10-02,2025-10-02,医療法人珀翔会,,その他の設立登記法人,愛知県,一宮市,千秋町小山字城６６番６,,23,203,4910814,,,,,,,2025-10-02,1,,,,,ハクトカイ,0
1715,7200003007073,新規,0,2025-10-02,2025-10-02,合同会社ＳＵＲＹＡ　ＧＡＮＥＳＨ,,合同会社,岐阜県,下呂市,萩原町尾崎１９３番地１ＨＯＰＥ尾崎団地Ｃ棟５号,,21,220,5092508,,,,,,,2025-10-02,1,,,,,スルヤガネシュ,0
1727,7260001040608,新規,0,2025-10-02,2025-10-02,株式会社ＴＥＮ,,株式会社,岡山県,岡山市北区,新屋敷町１丁目２－２２－６０３,,33,101,7000986,,,,,,,2025-10-02,1,,,,,テン,0
1729,7280003001993,新規,0,2025-10-02,2025-10-02,合同会社コーポウエスミ,,合同会社,島根県,松江市,山代町４９７番地３,,32,201,6900031,,,,,,,2025-10-02,1,,,,,コーポウエスミ,0
1733,7290003017444,新規,0,2025-10-02,2025-10-02,リムクラフト合同会社,,合同会社,福岡県,福岡市博多区,吉塚２丁目１３番２１号,,40,132,8120041,,,,,,,2025-10-02,1,,,,,リムクラフト,0
1734,7290003017493,新規,0,2025-10-02,2025-10-02,合同会社ＰＬ‐ＬＩＮＥ,,合同会社,福岡県,福岡市博多区,古門戸町７番１５号,,40,132,8120029,,,,,,,2025-10-02,1,,,,,ピーエルライン,0
1735,7290005019843,新規,0,2025-10-02,2025-10-02,監査法人篠原パートナーズ,,その他の設立登記法人,福岡県,福岡市中央区,警固２丁目１２番５号,,40,133,8100023,,,,,,,2025-10-02,1,,,,,シノハラパートナーズ,0
1737,7290801031910,新規,0,2025-10-02,2025-10-02,株式会社アルビ,,株式会社,福岡県,北九州市小倉南区,田原２丁目１７番１７－８１２号,,40,107,8000225,,,,,,,2025-10-02,1,,,,,アルビ,0
1738,7290801031919,新規,0,2025-10-02,2025-10-02,株式会社Ｃａｒ　Ｔｒｕｓｔ　Ｕ,,株式会社,福岡県,遠賀郡水巻町,下二東２丁目１５番２６号,,40,382,8070053,,,,,,,2025-10-02,1,,,,,カートラストユー,0
1744,7310001019803,新規,0,2025-10-02,2025-10-02,株式会社ＬｉｌＡｄｅｍ,,株式会社,長崎県,長崎市,桜馬場１丁目９番２２号,,42,201,8500015,,,,,,,2025-10-02,1,,,,,リラデム,0
1749,7330003011236,新規,0,2025-10-02,2025-10-02,合同会社ＲｅＴＲｅｅ．,,合同会社,熊本県,熊本市中央区,河原町２番地,,43,101,8600023,,,,,,,2025-10-02,1,,,,,リツリー,0
1750,7330005010954,新規,0,2025-10-02,2025-10-02,一般社団法人台湾華語・台湾留学アカデミー,,その他の設立登記法人,熊本県,熊本市中央区,水道町８番４号４階,,43,101,8600844,,,,,,,2025-10-02,1,,,,,タイワンカゴタイワンリュウガクアカデミー,0
1751,7340003004965,新規,0,2025-10-02,2025-10-02,ＰＡＢＢｉＴＲＡＤＩＮＧ合同会社,,合同会社,鹿児島県,霧島市,隼人町内４１３番地ＡＳＴＲＯＢ棟２０１号室,,46,218,8995116,,,,,,,2025-10-02,1,,,,,パビトレーディング,0
1754,7360003015291,新規,0,2025-10-02,2025-10-02,合同会社Ｐｄ,,合同会社,沖縄県,中頭郡西原町,字呉屋１８０番地の２美容室ポケット,,47,329,9030124,,,,,,,2025-10-02,1,,,,,ピーディー,0
1763,7380003006149,新規,0,2025-10-02,2025-10-02,合同会社ネクストベース,,合同会社,福島県,いわき市,小名浜字隼人１０９番地の２ラフィーネ隼人ＩＩ３０３,00140891,07,204,9718101,,,,,,,2025-10-02,1,,,,,,0
1764,7390001018120,新規,0,2025-10-02,2025-10-02,シナリーＬｓｎｏｗ株式会社,,株式会社,山形県,米沢市,門東町３丁目１番１２号,,06,202,9920039,,,,,,,2025-10-02,1,,,,,シナリーエルスノー,0
1774,7500001026549,新規,0,2025-10-02,2025-10-02,株式会社森生花店,,株式会社,愛媛県,伊予郡砥部町,千足１１７番地,,38,402,7912122,,,,,,,2025-10-02,1,,,,,モリセイカテン,0
1783,8010001258793,新規,0,2025-10-02,2025-10-02,株式会社ＪＯＹＮＴ,,株式会社,東京都,中央区,京橋３丁目１２番１号エコー京橋ビル１０階,,13,102,1040031,,,,,,,2025-10-02,1,,,,,ジョイント,0
1784,8010001258810,新規,0,2025-10-02,2025-10-02,ＢＥＩＩＮＧＣＯＭＩＮＧ株式会社,,株式会社,東京都,千代田区,神田佐久間町３丁目２８星野ビル４Ｆ１６号室,,13,101,1010025,,,,,,,2025-10-02,1,,,,,ビーイングカミング,0
1785,8010001258868,新規,0,2025-10-02,2025-10-02,株式会社ＤＳＳテクノロジー,,株式会社,東京都,文京区,本郷４丁目１６番６号天翔オフィス後楽園６０８号室,,13,105,1130033,,,,,,,2025-10-02,1,,,,,ディーエスエステクノロジー,0
1786,8010001258892,新規,0,2025-10-02,2025-10-02,株式会社ＡＮＹＧＲＩＤ,,株式会社,東京都,千代田区,二番町１番地２－３２７,,13,101,1020084,,,,,,,2025-10-02,1,,,,,エニーグリッド,0
1787,8010001258926,新規,0,2025-10-02,2025-10-02,ロンザジャパン株式会社,,株式会社,東京都,中央区,日本橋２丁目１番１４号日本橋加藤ビルデイング９階,,13,102,1030027,,,,,,,2025-10-02,1,,,,,ロンザジャパン,0
1788,8010001258934,新規,0,2025-10-02,2025-10-02,Ａ＆Ｊ　Ｆｒｏｎｔｉｅｒ株式会社,,株式会社,東京都,中央区,日本橋３丁目７番７号日本橋アーバンビルヂング４階,,13,102,1030027,,,,,,,2025-10-02,1,,,,,エイアンドジェイフロンティア,0
1789,8010001258942,新規,0,2025-10-02,2025-10-02,ＡＢＣ株式会社,,株式会社,東京都,文京区,大塚６丁目１５－９、１Ｆ,,13,105,1120012,,,,,,,2025-10-02,1,,,,,エービーシー,0
1790,8010001258959,新規,0,2025-10-02,2025-10-02,株式会社未来ＶＩＳＩＯＮ,,株式会社,東京都,千代田区,四番町２番地１クレール東郷坂１Ｆ,,13,101,1020081,,,,,,,2025-10-02,1,,,,,ミライヴィジョン,0
1791,8010001258983,新規,0,2025-10-02,2025-10-02,株式会社ドローンポート,,株式会社,東京都,中央区,銀座３丁目４番１号大倉別館５階,,13,102,1040061,,,,,,,2025-10-02,1,,,,,ドローンポート,0
1793,8010003048573,新規,0,2025-10-02,2025-10-02,ｏｓエネクト合同会社,,合同会社,東京都,千代田区,内神田３丁目４－１４朝陽ビル２階,,13,101,1010047,,,,,,,2025-10-02,1,,,,,オーエスエネクト,0
1794,8010003048821,新規,0,2025-10-02,2025-10-02,ヤナコＲＰＧｓ合同会社,,合同会社,東京都,千代田区,神田錦町３丁目１５,,13,101,1010054,,,,,,,2025-10-02,1,,,,,ヤナコアールピージーエス,0
1795,8010003048862,新規,0,2025-10-02,2025-10-02,滝井プロパティ合同会社,,合同会社,東京都,中央区,勝どき１丁目３番１－４３０７号,,13,102,1040054,,,,,,,2025-10-02,1,,,,,タキイプロパティ,0
1796,8010003048895,新規,0,2025-10-02,2025-10-02,合同会社アワジマチ,,合同会社,東京都,中央区,日本橋１丁目４番１号,,13,102,1030027,,,,,,,2025-10-02,1,,,,,アワジマチ,0
1797,8010003048945,新規,0,2025-10-02,2025-10-02,弊社合同会社,,合同会社,東京都,中央区,新富１丁目９番２－８０２号,,13,102,1040041,,,,,,,2025-10-02,1,,,,,ヘイシャ,0
1801,8010103002661,新規,0,2025-10-02,2025-10-02,ＡＫサービス合同会社,,合同会社,東京都,八王子市,越野２６－３ファミール京王堀之内１０３,,13,201,1920361,,,,,,,2025-10-02,1,,,,,エーケーサービス,0
1811,8010501054800,新規,0,2025-10-02,2025-10-02,ＪＹ企画株式会社,,株式会社,東京都,台東区,清川１丁目１番１０号松井荘１０５号,,13,106,1110022,,,,,,,2025-10-02,1,,,,,ジェイワイキカク,0
1812,8010701048346,新規,0,2025-10-02,2025-10-02,株式会社ＳＥＮＣＥ,,株式会社,東京都,品川区,上大崎２丁目１５番１９号,,13,109,1410021,,,,,,,2025-10-02,1,,,,,センス,0
1813,8010701048404,新規,0,2025-10-02,2025-10-02,株式会社ユリオナ,,株式会社,東京都,品川区,上大崎１丁目２０番３１－４０７号,,13,109,1410021,,,,,,,2025-10-02,1,,,,,ユリオナ,0
1823,8011001172274,新規,0,2025-10-02,2025-10-02,株式会社Ｍｉｌｌｉｏｎ,,株式会社,東京都,渋谷区,道玄坂１丁目１６番６号二葉ビル８ｂ,,13,113,1500043,,,,,,,2025-10-02,1,,,,,ミリオン,0
1826,8011101113293,新規,0,2025-10-02,2025-10-02,ｂａｃｋ　ｃｈｅｃｋ株式会社,,株式会社,東京都,新宿区,西新宿３丁目６番４号,,13,104,1600023,,,,,,,2025-10-02,1,,,,,バックチェック,0
1827,8011101113392,新規,0,2025-10-02,2025-10-02,亜美康聯株式会社,,株式会社,東京都,新宿区,弁天町８３田中パークハイツ５０２号室,,13,104,1620851,,,,,,,2025-10-02,1,,,,,アビコウレン,0
1837,8011501032630,新規,0,2025-10-02,2025-10-02,ＶＥＲＩＤＡ株式会社,,株式会社,東京都,北区,志茂２丁目５９番１６号,,13,117,1150042,,,,,,,2025-10-02,1,,,,,ヴェリダ,0
1838,8011501032639,新規,0,2025-10-02,2025-10-02,優の道株式会社,,株式会社,東京都,北区,浮間１丁目１－１４リムジンビル３４３,,13,117,1150051,,,,,,,2025-10-02,1,,,,,ユノミチ,0
1841,8011801046842,新規,0,2025-10-02,2025-10-02,Ｇｒｅｅｎ　Ｔｕｒｆ株式会社,,株式会社,東京都,葛飾区,亀有３丁目１３番２号善一ビル,,13,122,1250061,,,,,,,2025-10-02,1,,,,,グリーンターフ,0
1842,8011803007108,新規,0,2025-10-02,2025-10-02,合同会社ななは防災,,合同会社,東京都,足立区,足立４丁目２３－１０パティーナ１０２号室,,13,121,1200015,,,,,,,2025-10-02,1,,,,,ナナハボウサイ,0
1843,8011803007116,新規,0,2025-10-02,2025-10-02,合同会社Ｍ　Ｉｎｆｉｎｉｔｙ　Ｗｏｒｋｓ,,合同会社,東京都,足立区,西新井４丁目２８番１０号ウィスタリア７－２０３,,13,121,1230841,,,,,,,2025-10-02,1,,,,,エムインフィニティワークス,0
1844,8012301014546,新規,0,2025-10-02,2025-10-02,株式会社Ｔｏｗａ,,株式会社,東京都,町田市,本町田３６７０番地,,13,209,1940032,,,,,,,2025-10-02,1,,,,,トワ,0
1847,8012401043635,新規,0,2025-10-02,2025-10-02,株式会社Ａｌｔａｒｅ,,株式会社,東京都,三鷹市,新川３丁目１５番１２号,,13,204,1810004,,,,,,,2025-10-02,1,,,,,アルターレ,0
1848,8013103001492,新規,0,2025-10-02,2025-10-02,猟のお仕事合同会社,,合同会社,東京都,あきる野市,養沢５４７番地,,13,228,1900171,,,,,,,2025-10-02,1,,,,,リョウノオシゴト,0
1853,8020001164735,新規,0,2025-10-02,2025-10-02,株式会社Ｃｒｅａｔｉｖｅ　ｓｔｕｄｉｏ,,株式会社,神奈川県,横浜市西区,みなとみらい３丁目３番１号ＫＤＸ横浜みなとみらいタワー８階,,14,103,2200012,,,,,,,2025-10-02,1,,,,,クリエイティブスタジオ,0
1854,8020001164909,新規,0,2025-10-02,2025-10-02,株式会社雅,,株式会社,神奈川県,川崎市高津区,新作３丁目１４－７－２０７キャニオンマンション溝の口,,14,134,2130014,,,,,,,2025-10-02,1,,,,,ミヤビ,0
1855,8020001165056,新規,0,2025-10-02,2025-10-02,Ｊａｎｄｉ株式会社,,株式会社,神奈川県,川崎市川崎区,中島２丁目２番２号,,14,131,2100806,,,,,,,2025-10-02,1,,,,,ジャンディ,0
1860,8021005013440,新規,0,2025-10-02,2025-10-02,一般社団法人マリーナ・ビーチ振興協会,,その他の設立登記法人,神奈川県,藤沢市,片瀬海岸１丁目１２番４号,,14,205,2510035,,,,,,,2025-10-02,1,,,,,マリーナビーチシンコウキョウカイ,0
1864,8030001168883,新規,0,2025-10-02,2025-10-02,株式会社バリューシフト,,株式会社,埼玉県,さいたま市大宮区,三橋１丁目１１１５番地４,,11,103,3300856,,,,,,,2025-10-02,1,,,,,バリューシフト,0
1870,8030003027749,新規,0,2025-10-02,2025-10-02,合同会社Ｎ‐Ｓｔｙｌｅ,,合同会社,埼玉県,北足立郡伊奈町,大字小室１２６２番地３,,11,301,3620806,,,,,,,2025-10-02,1,,,,,エヌスタイル,0
1871,8030003027773,新規,0,2025-10-02,2025-10-02,モトマチプラス合同会社,,合同会社,埼玉県,川口市,並木元町７番４０号,,11,203,3320033,,,,,,,2025-10-02,1,,,,,モトマチプラス,0
1876,8040001140668,新規,0,2025-10-02,2025-10-02,株式会社スキルペイ,,株式会社,千葉県,千葉市花見川区,長作町９３８番地２プレステージ８番館２０２,,12,102,2620044,,,,,,,2025-10-02,1,,,,,スキルペイ,0
1877,8040001140767,新規,0,2025-10-02,2025-10-02,株式会社オーケーエム,,株式会社,千葉県,市原市,椎津７９番地４２,,12,219,2990118,,,,,,,2025-10-02,1,,,,,オーケーエム,0
1898,8110001039589,新規,0,2025-10-02,2025-10-02,株式会社ｉＲＯＨＡ,,株式会社,新潟県,新潟市西区,坂井２丁目３番６号,,15,107,9502042,,,,,,,2025-10-02,1,,,,,イロハ,0
1899,8110001039597,新規,0,2025-10-02,2025-10-02,株式会社桑原建築,,株式会社,新潟県,十日町市,山野田３８１番地１８,,15,210,9480143,,,,,,,2025-10-02,1,,,,,クワバラケンチク,0
1900,8110003005903,新規,0,2025-10-02,2025-10-02,合同会社Ｍａｈａｌｏ　Ｐａｒｔｎｅｒｓ,,合同会社,新潟県,佐渡市,吉井本郷８３１－２,,15,224,9521202,,,,,,,2025-10-02,1,,,,,マハロパートナーズ,0
1908,8120001280398,新規,0,2025-10-02,2025-10-02,株式会社ＢＲＡＩＮ　ＬＵＫＥ,,株式会社,大阪府,大阪市中央区,瓦町１丁目５番８号日宝ダイヤビル２０２,,27,128,5410048,,,,,,,2025-10-02,1,,,,,ブレインルーク,0
1909,8120001280506,新規,0,2025-10-02,2025-10-02,日本天成株式会社,,株式会社,大阪府,大阪市西区,立売堀４丁目３番１６号５１５室,,27,106,5500012,,,,,,,2025-10-02,1,,,,,ニホンテンセイ,0
1926,8130003010819,新規,0,2025-10-02,2025-10-02,合同会社リンダホーム,,合同会社,京都府,京都市下京区,不明門通五条上る玉屋町５０８番地２０４,,26,106,6008409,,,,,,,2025-10-02,1,,,,,リンダホーム,0
1932,8140001140154,新規,0,2025-10-02,2025-10-02,株式会社Ｏｄｅ．,,株式会社,兵庫県,神戸市中央区,磯上通８丁目１番２９号カサベラビルＣ＆Ｍ４０３号室,,28,110,6510086,,,,,,,2025-10-02,1,,,,,オーデ,0
1933,8140001140162,新規,0,2025-10-02,2025-10-02,株式会社医真,,株式会社,兵庫県,芦屋市,西芦屋町６番２１－２号,00140889,28,206,6590085,,,,,,,2025-10-02,1,,,,,イシン,0
1934,8140001140187,新規,0,2025-10-02,2025-10-02,株式会社シェノン,,株式会社,兵庫県,川西市,清和台東１丁目１－６３,,28,217,6660142,,,,,,,2025-10-02,1,,,,,シェノン,0
1936,8140003022598,新規,0,2025-10-02,2025-10-02,合同会社Ｗｏｎｄｅｒ　Ｍ,,合同会社,兵庫県,神戸市東灘区,住吉東町１丁目６番地４８,,28,101,6580052,,,,,,,2025-10-02,1,,,,,ワンダーエム,0
1937,8140005027637,新規,0,2025-10-02,2025-10-02,ＲＴＧ事業協同組合,,その他の設立登記法人,兵庫県,神戸市東灘区,本山北町６丁目１３番３５－２０３号,,28,101,6580003,,,,,,,2025-10-02,1,,,,,アールティージー,0
1941,8160001027093,新規,0,2025-10-02,2025-10-02,中偉株式会社,,株式会社,滋賀県,長浜市,勝町１１５番地松風ビル１Ｆ・１０２号,,25,203,5260042,,,,,,,2025-10-02,1,,,,,ナカイ,0
1944,8170001018810,新規,0,2025-10-02,2025-10-02,株式会社高城工機,,株式会社,和歌山県,和歌山市,西庄１０５６番地２６７,,30,201,6400112,,,,,,,2025-10-02,1,,,,,タカジョウコウキ,0
1950,8180001168761,新規,0,2025-10-02,2025-10-02,株式会社Ｓｐｒｉｎｇ,,株式会社,愛知県,一宮市,木曽川町黒田字酉新田東ノ切４１番地サンハウス木曽川２Ｅ,,23,203,4930001,,,,,,,2025-10-02,1,,,,,スプリング,0
1967,8220001026948,新規,0,2025-10-02,2025-10-02,株式会社藤村電気,,株式会社,石川県,金沢市,金石松前町２番１１号,,17,201,9200312,,,,,,,2025-10-02,1,,,,,フジムラデンキ,0
1968,8220001026956,新規,0,2025-10-02,2025-10-02,株式会社畠経理パートナーズ,,株式会社,石川県,金沢市,疋田１丁目３３番地,,17,201,9200003,,,,,,,2025-10-02,1,,,,,ハタケケイリパートナーズ,0
1974,8240001065572,新規,0,2025-10-02,2025-10-02,ハルクロス株式会社,,株式会社,広島県,福山市,引野町２丁目４７－９－１０１,,34,207,7210942,,,,,,,2025-10-02,1,,,,,ハルクロス,0
1976,8250001021351,新規,0,2025-10-02,2025-10-02,株式会社ｄｏｔ．あぶ,,株式会社,山口県,阿武郡阿武町,大字木与字松原１０００１番地８,,35,502,7593621,,,,,,,2025-10-02,1,,,,,ドットアブ,0
1987,8290001111545,新規,0,2025-10-02,2025-10-02,株式会社ＡＱＵＡＲＩＵＳ,,株式会社,福岡県,筑紫野市,原田５丁目１番地１４（アルバガーデンパークサイド原田１３０１号）,,40,217,8180024,,,,,,,2025-10-02,1,,,,,アクエリアス,0
1988,8290003017468,新規,0,2025-10-02,2025-10-02,ＪＷ　ｋｉｍｉｘ合同会社,,合同会社,福岡県,福岡市博多区,吉塚１丁目４番１０号ジャンティ１３０－１０４号室,,40,132,8120041,,,,,,,2025-10-02,1,,,,,ジェイダブリューキミックス,0
1992,8290801031901,新規,0,2025-10-02,2025-10-02,ＦＨ食品株式会社,,株式会社,福岡県,北九州市小倉北区,末広２丁目３番７号,,40,106,8020012,,,,,,,2025-10-02,1,,,,,エフエイチショクヒン,0
1993,8290803005168,新規,0,2025-10-02,2025-10-02,合同会社瑞和春養生館,,合同会社,福岡県,北九州市小倉北区,黒原３丁目２３番２３号,,40,106,8020051,,,,,,,2025-10-02,1,,,,,ズイワシュンヨウジョウカン,0
1999,8310003005098,新規,0,2025-10-02,2025-10-02,合同会社Ａｃｔ　ｏｎｅ,,合同会社,長崎県,大村市,武部町２４７番地１０,,42,205,8560035,,,,,,,2025-10-02,1,,,,,アクトワン,0
2010,8350001019740,新規,0,2025-10-02,2025-10-02,株式会社Ｄａｉｓｈｉｎ,,株式会社,宮崎県,宮崎市,中村東３丁目５番２号南興ビル５０５号,,45,201,8800904,,,,,,,2025-10-02,1,,,,,ダイシン,0
2011,8350003005037,新規,0,2025-10-02,2025-10-02,合同会社光,,合同会社,宮崎県,北諸県郡三股町,大字蓼池３６６８番地９,,45,341,8891914,,,,,,,2025-10-02,1,,,,,ヒカリ,0
2012,8360001035844,新規,0,2025-10-02,2025-10-02,ＧＩＶＥ・ＯＮＥ株式会社,,株式会社,沖縄県,那覇市,字真地１４５－４ウィングシャトー真地ヒルズ２０４,,47,201,9020072,,,,,,,2025-10-02,1,,,,,ギブワン,0
2014,8370001053085,新規,0,2025-10-02,2025-10-02,株式会社ワンプラスセブン,,株式会社,宮城県,宮城郡松島町,磯崎字蟹松５番地の９,,04,401,9810212,,,,,,,2025-10-02,1,,,,,ワンプラスセブン,0
2016,8380003006148,新規,0,2025-10-02,2025-10-02,合同会社ｓｈｉｎｙａ．ｐｒｏｄｕｃｔｓ,,合同会社,福島県,いわき市,平北白土字穂積４８番地の９穂積ハイツ１Ｆ,,07,204,9708024,,,,,,,2025-10-02,1,,,,,シンヤプロダクツ,0
2017,8380005013010,新規,0,2025-10-02,2025-10-02,一般社団法人ＰＥＡＮＵＴＳ　ＨＵＢ　ＡＩＺＵ,,その他の設立登記法人,福島県,喜多方市,熱塩加納町加納字堰東甲４９９６番地２,,07,208,9660103,,,,,,,2025-10-02,1,,,,,ピーナツハブアイヅ,0
2037,9010001258669,新規,0,2025-10-02,2025-10-02,Ｄｙｎａｍｏ　Ｃａｐｉｔａｌ株式会社,,株式会社,東京都,千代田区,神田司町２丁目１０番４Ｏｒｉｚｚｏｎｔｅ１００１号,,13,101,1010048,,,,,,,2025-10-02,1,,,,,ダイナモキャピタル,0
2038,9010001258776,新規,0,2025-10-02,2025-10-02,株式会社ホロスコープコーチング,,株式会社,東京都,中央区,銀座１丁目１２番４号Ｎ＆ＥＢＬＤ．６Ｆ,,13,102,1040061,,,,,,,2025-10-02,1,,,,,ホロスコープコーチング,0
2039,9010001258941,新規,0,2025-10-02,2025-10-02,株式会社ＳＴＯＣＫ１９７,,株式会社,東京都,千代田区,永田町２丁目１２番４号,,13,101,1000014,,,,,,,2025-10-02,1,,,,,ストックヒャクキュウジュウナナ,0
2040,9010001258966,新規,0,2025-10-02,2025-10-02,株式会社Ｃｏｌｏｒ,,株式会社,東京都,中央区,日本橋３丁目２番１４号,,13,102,1030027,,,,,,,2025-10-02,1,,,,,カラー,0
2042,9010003048705,新規,0,2025-10-02,2025-10-02,合同会社ＢＴＩ,,合同会社,東京都,文京区,本郷４丁目１番６号本郷四丁目アトラスビル２階,,13,105,1130033,,,,,,,2025-10-02,1,,,,,ビーティーアイ,0
2043,9010003048795,新規,0,2025-10-02,2025-10-02,ＥＩＣ　ＪＡＰＡＮ合同会社,,合同会社,東京都,千代田区,神田佐久間町１丁目８－４、Ａｌｔｅｒ秋葉原７０８,,13,101,1010025,,,,,,,2025-10-02,1,,,,,イアイシジャパン,0
2044,9010003048837,新規,0,2025-10-02,2025-10-02,合同会社ＪＯＫ,,合同会社,東京都,中央区,日本橋３丁目２－２オオタケ第７ビル７階,,13,102,1030027,,,,,,,2025-10-02,1,,,,,ジェイオーケー,0
2045,9010003048903,新規,0,2025-10-02,2025-10-02,ミュジニー合同会社,,合同会社,東京都,千代田区,霞が関３丁目２番５号,,13,101,1000013,,,,,,,2025-10-02,1,,,,,ミュジニー,0
2058,9010401193284,新規,0,2025-10-02,2025-10-02,株式会社ＭＡＲＳ,,株式会社,東京都,港区,三田２丁目７番１５－９０１号,,13,103,1080073,,,,,,,2025-10-02,1,,,,,マーズ,0
2063,9010403036144,新規,0,2025-10-02,2025-10-02,合同会社食事を考える会,,合同会社,東京都,港区,赤坂２丁目１５番１３号,,13,103,1070052,,,,,,,2025-10-02,1,,,,,ショクジヲカンガエルカイ,0
2066,9010701048403,新規,0,2025-10-02,2025-10-02,アウルリプルズ株式会社,,株式会社,東京都,品川区,西五反田１丁目２６番２号五反田サンハイツ９１１,,13,109,1410031,,,,,,,2025-10-02,1,,,,,アウルリプルズ,0
2076,9011001172323,新規,0,2025-10-02,2025-10-02,株式会社ＵＰＰＥＲ　ＣＵＴ,,株式会社,東京都,渋谷区,代々木２丁目２２番１号エディフィス代々木２階,,13,113,1510053,,,,,,,2025-10-02,1,,,,,アッパーカット,0
2077,9011001172521,新規,0,2025-10-02,2025-10-02,トイ・ラボ株式会社,,株式会社,東京都,渋谷区,大山町３９番２２号カーサドゥレイズ代々木上原１０３,,13,113,1510065,,,,,,,2025-10-02,1,,,,,トイラボ,0
2078,9011001172819,新規,0,2025-10-02,2025-10-02,ＲａｋＡｓｈｉ株式会社,,株式会社,東京都,渋谷区,道玄坂１丁目１０番８号渋谷道玄坂東急ビル２Ｆ－Ｃ,,13,113,1500043,,,,,,,2025-10-02,1,,,,,ラクアシ,0
2079,9011001172884,新規,0,2025-10-02,2025-10-02,遊筆商事株式会社,,株式会社,東京都,渋谷区,本町６丁目２５番８－３０６号,,13,113,1510071,,,,,,,2025-10-02,1,,,,,ユウヒツショウジ,0
2082,9011005011139,新規,0,2025-10-02,2025-10-02,一般社団法人日本ＩＴ支援機構,,その他の設立登記法人,東京都,渋谷区,東２丁目１０－１０,,13,113,1500011,,,,,,,2025-10-02,1,,,,,ニホンアイティーシエンキコウ,0
2083,9011101113391,新規,0,2025-10-02,2025-10-02,株式会社ＬＥＥｕｍ,,株式会社,東京都,新宿区,百人町１丁目８番２号新宿１８２ビル,,13,104,1690073,,,,,,,2025-10-02,1,,,,,リウム,0
2089,9011703004393,新規,0,2025-10-02,2025-10-02,合同会社ＮＧＡ　ＴＵＹＥＮ,,合同会社,東京都,江戸川区,南小岩２丁目１７－６中村荘１０２号室,,13,123,1330056,,,,,,,2025-10-02,1,,,,,ガートウエン,0
2090,9011703004402,新規,0,2025-10-02,2025-10-02,空間プラス合同会社,,合同会社,東京都,江戸川区,中葛西８丁目１６番１７号,,13,123,1340083,,,,,,,2025-10-02,1,,,,,クウカンプラス,0
2091,9011801046627,新規,0,2025-10-02,2025-10-02,アークセル株式会社,,株式会社,東京都,足立区,鹿浜７丁目２２番１６－２０３号,,13,121,1230864,,,,,,,2025-10-02,1,,,,,アークセル,0
2092,9011801046825,新規,0,2025-10-02,2025-10-02,株式会社ＴＮＳ,,株式会社,東京都,葛飾区,四つ木４丁目１２番２２－１０１号,,13,122,1240011,,,,,,,2025-10-02,1,,,,,ティーエヌエス,0
2093,9011803007115,新規,0,2025-10-02,2025-10-02,合同会社カネシン,,合同会社,東京都,足立区,東保木間２丁目１４番９－３０４号,,13,121,1210063,,,,,,,2025-10-02,1,,,,,カネシン,0
2094,9012301014545,新規,0,2025-10-02,2025-10-02,株式会社本間工務店,,株式会社,東京都,町田市,真光寺町８９１番地１,,13,209,1950051,,,,,,,2025-10-02,1,,,,,ホンマコウムテン,0
2096,9012401043626,新規,0,2025-10-02,2025-10-02,ウェルビーイングライフサポート株式会社,,株式会社,東京都,府中市,是政２丁目４番地の４,,13,206,1830014,,,,,,,2025-10-02,1,,,,,ウェルビーイングライフサポート,0
2097,9012401043634,新規,0,2025-10-02,2025-10-02,隆和ジャパンコネクト株式会社,,株式会社,東京都,多摩市,落合１丁目３６番地ザ・パークハウス多摩センター９０９号,,13,224,2060033,,,,,,,2025-10-02,1,,,,,リュウワジャパンコネクト,0
2098,9012403007364,新規,0,2025-10-02,2025-10-02,Ｖ‐Ｈｏｌｄｉｎｇｓ合同会社,,合同会社,東京都,武蔵野市,吉祥寺南町２丁目１２番１０号ＭＯビル３０２,,13,203,1800003,,,,,,,2025-10-02,1,,,,,ヴィーホルディングズ,0
2107,9020001165047,新規,0,2025-10-02,2025-10-02,ＲｉｎＧｏ株式会社,,株式会社,神奈川県,横浜市鶴見区,上末吉２丁目１１番２６－５０６号,,14,101,2300011,,,,,,,2025-10-02,1,,,,,リンゴー,0
2108,9020001165063,新規,0,2025-10-02,2025-10-02,ｉｉｊｉ株式会社,,株式会社,神奈川県,横浜市保土ケ谷区,上菅田町３２番地サンフェロー１０１号,,14,106,2400051,,,,,,,2025-10-02,1,,,,,イイジー,0
2109,9020001165071,新規,0,2025-10-02,2025-10-02,株式会社ＮＡＭＩＫＩ　ＬＡＢ,,株式会社,神奈川県,横浜市神奈川区,三枚町１６０番地４エクレール岸根１０３,,14,102,2210862,,,,,,,2025-10-02,1,,,,,ナミキラボ,0
2111,9020003029480,新規,0,2025-10-02,2025-10-02,合同会社ＳＡＬＵＳ　Ｐｒｅ‐Ｍｅｄｉｃａｌ　Ｌａｂ,,合同会社,神奈川県,横浜市栄区,桂台西２丁目３－２,,14,115,2470035,,,,,,,2025-10-02,1,,,,,サルースプレメディカルラボ,0
2112,9020003029489,新規,0,2025-10-02,2025-10-02,オフィス宇根合同会社,,合同会社,神奈川県,横浜市港南区,上大岡西１丁目１５番１号横浜ヘリオスタワー,,14,111,2330002,,,,,,,2025-10-02,1,,,,,オフィスウネ,0
2115,9021001086373,新規,0,2025-10-02,2025-10-02,株式会社サステナ法人ＭＥＲＯＣＫ,,株式会社,神奈川県,藤沢市,鵠沼石上１丁目７－８ビッグライズビル５階,,14,205,2510025,,,,,,,2025-10-02,1,,,,,サステナホウジンミーロック,0
2116,9021001086415,新規,0,2025-10-02,2025-10-02,ＡＲ　ＪＡＰＡＮ　ＴＲＡＤＩＮＧ株式会社,,株式会社,神奈川県,秦野市,北矢名４９０番地コーポ府川２１０号室,,14,211,2570006,,,,,,,2025-10-02,1,,,,,エーアールジャパントレーディング,0
2128,9030003027748,新規,0,2025-10-02,2025-10-02,吉原グループ合同会社,,合同会社,埼玉県,草加市,谷塚上町５４７番地リヴェール谷塚２０１号,,11,221,3400024,,,,,,,2025-10-02,1,,,,,ヨシハラグループ,0
2129,9030003027756,新規,0,2025-10-02,2025-10-02,天順貿易合同会社,,合同会社,埼玉県,蕨市,塚越７丁目３７－１,00140901,11,223,3350002,,,,,,,2025-10-02,1,,,,,テンジュンボウエキ,0
2134,9040001140675,新規,0,2025-10-02,2025-10-02,ＶＩＴＡ　ＹＡＣＨＴ株式会社,,株式会社,千葉県,袖ケ浦市,神納２丁目１６番地３,,12,229,2990257,,,,,,,2025-10-02,1,,,,,ビタヨット,0
2137,9040003028588,新規,0,2025-10-02,2025-10-02,合同会社Ｃｕｃａ,,合同会社,千葉県,船橋市,田喜野井６丁目３５－４,,12,204,2740073,,,,,,,2025-10-02,1,,,,,クウカ,0
2138,9040003028596,新規,0,2025-10-02,2025-10-02,彩雲の南合同会社,,合同会社,千葉県,佐倉市,上志津１７９５番地２１,,12,212,2850846,,,,,,,2025-10-02,1,,,,,サイウンノナン,0
2139,9040003028654,新規,0,2025-10-02,2025-10-02,合同会社ｃｈｉｐｐｕ,,合同会社,千葉県,佐倉市,ユーカリが丘４丁目１－１スカイプラザ・モール３Ｆ,,12,212,2850858,,,,,,,2025-10-02,1,,,,,チップ,0
2144,9050001057340,新規,0,2025-10-02,2025-10-02,株式会社ＮａａＤ　Ｐｌｕｓ,,株式会社,茨城県,稲敷郡阿見町,大字若栗１３０７－２１－５号室,,08,443,3000333,,,,,,,2025-10-02,1,,,,,ナードプラス,0
2145,9050001057349,新規,0,2025-10-02,2025-10-02,株式会社よりどこ,,株式会社,茨城県,結城郡八千代町,大字松本８９０番３,,08,521,3003565,,,,,,,2025-10-02,1,,,,,ヨリドコ,0
2159,9080105006538,新規,0,2025-10-02,2025-10-02,医療法人社団ＹＤＣ,,その他の設立登記法人,静岡県,伊豆の国市,南江間１１０７番地の８,,22,225,4102221,,,,,,,2025-10-02,1,,,,,ワイディーシー,0
2160,9090001019527,新規,0,2025-10-02,2025-10-02,株式会社ｉ‐Ｒａｎｄ,,株式会社,山梨県,富士吉田市,上吉田４２０４番地の４小林ビル第一１０２,,19,202,4030005,,,,,,,2025-10-02,1,,,,,アイランド,0
2165,9100003008410,新規,0,2025-10-02,2025-10-02,合同会社宮条新聞店,,合同会社,長野県,長野市,戸隠豊岡２７３７番地４,,20,201,3814102,,,,,,,2025-10-02,1,,,,,ミヤジョウシンブンテン,0
2169,9100005013391,新規,0,2025-10-02,2025-10-02,一般社団法人日本衣生活支援機構,,その他の設立登記法人,長野県,上伊那郡南箕輪村,９６０７番地６,,20,385,3994511,,,,,,,2025-10-02,1,,,,,ニホンイセイカツシエンキコウ,0
2173,9110001039596,新規,0,2025-10-02,2025-10-02,株式会社ＣＯＴＥＷＥＬ,,株式会社,新潟県,新潟市西区,ときめき東１丁目１６番地１５,,15,107,9501105,,,,,,,2025-10-02,1,,,,,コートウェル,0
2176,9110003005902,新規,0,2025-10-02,2025-10-02,きずな市場合同会社,,合同会社,新潟県,長岡市,福井町１１０番地１,,15,202,9400893,,,,,,,2025-10-02,1,,,,,キズナイチバ,0
2182,9120001280166,新規,0,2025-10-02,2025-10-02,ウイング・パートナー・ホールディング株式会社,,株式会社,大阪府,大阪市住之江区,南港北１丁目１７番１９－１３１２号,,27,125,5590034,,,,,,,2025-10-02,1,,,,,ウイングパートナーホールディング,0
2183,9120001280307,新規,0,2025-10-02,2025-10-02,森和株式会社,,株式会社,大阪府,大阪市淀川区,東三国６丁目２３番１７－２０３号,,27,123,5320002,,,,,,,2025-10-02,1,,,,,モリワ,0
2184,9120001280455,新規,0,2025-10-02,2025-10-02,株式会社輝,,株式会社,大阪府,大阪市大正区,小林西２丁目１５番３号春日大正ビル２１３号室,,27,108,5510013,,,,,,,2025-10-02,1,,,,,カガヤキ,0
2185,9120001280488,新規,0,2025-10-02,2025-10-02,ＯＮＭＩ株式会社,,株式会社,大阪府,大阪市大正区,小林西２丁目１１番１号,,27,108,5510013,,,,,,,2025-10-02,1,,,,,オンミ,0
2186,9120001280505,新規,0,2025-10-02,2025-10-02,安路馳株式会社,,株式会社,大阪府,大阪市生野区,新今里６丁目９番２０号三太樹ビル１Ｆ東事務所,,27,116,5440001,,,,,,,2025-10-02,1,,,,,アンロジ,0
2192,9120101072538,新規,0,2025-10-02,2025-10-02,株式会社東燈旅,,株式会社,大阪府,堺市堺区,南半町西１丁１番２１－１２０５号,,27,141,5900967,,,,,,,2025-10-02,1,,,,,トトロ,0
2195,9122001039690,新規,0,2025-10-02,2025-10-02,株式会社ＣＲＡＵＤ,,株式会社,大阪府,東大阪市,若江西新町４丁目６番１０号,,27,227,5780944,,,,,,,2025-10-02,1,,,,,クラウド,0
2207,9140005027644,新規,0,2025-10-02,2025-10-02,一般社団法人狩野派美術振興会,,その他の設立登記法人,兵庫県,加古川市,平岡町新在家１１９２番地の２９４,,28,210,6750101,,,,,,,2025-10-02,1,,,,,カノウハビジュツシンコウカイ,0
2208,9150003003712,新規,0,2025-10-02,2025-10-02,カルム合同会社,,合同会社,奈良県,北葛城郡広陵町,馬見北５丁目６番７号,,29,426,6350831,,,,,,,2025-10-02,1,,,,,カルム,0
2219,9180001168752,新規,0,2025-10-02,2025-10-02,株式会社ＳＥＥＬＥ,,株式会社,愛知県,名古屋市西区,名駅２丁目３４番１７号セントラル名古屋１１０１号,,23,104,4510045,,,,,,,2025-10-02,1,,,,,シール,0
2239,9220001026947,新規,0,2025-10-02,2025-10-02,株式会社ブランク,,株式会社,石川県,金沢市,米泉町８丁目２３番地３,,17,201,9218044,,,,,,,2025-10-02,1,,,,,ブランク,0
2242,9230001021113,新規,0,2025-10-02,2025-10-02,エス・グレイス株式会社,,株式会社,富山県,下新川郡入善町,上野１３６０番地１３サラリーハイツ上野１０３,,16,342,9390642,,,,,,,2025-10-02,1,,,,,エスグレイス,0
2246,9250001021350,新規,0,2025-10-02,2025-10-02,ＳＴＲＵＣＴＳ株式会社,,株式会社,山口県,下関市,豊浦町大字吉永１２４６,,35,201,7596311,,,,,,,2025-10-02,1,,,,,ストラクツ,0
2249,9260001040614,新規,0,2025-10-02,2025-10-02,株式会社まん福,,株式会社,岡山県,岡山市中区,高屋３０８番地１,,33,102,7038233,,,,,,,2025-10-02,1,,,,,マンプク,0
2253,9290001111511,新規,0,2025-10-02,2025-10-02,日天株式会社,,株式会社,福岡県,福岡市早良区,野芥３丁目１４番１７号,,40,137,8140171,,,,,,,2025-10-02,1,,,,,ヒテン,0
2254,9290001111528,新規,0,2025-10-02,2025-10-02,株式会社ＯＫＯＳＵ,,株式会社,福岡県,福岡市中央区,唐人町１丁目２番１０－５０３号,,40,133,8100063,,,,,,,2025-10-02,1,,,,,オコス,0
2256,9290003017467,新規,0,2025-10-02,2025-10-02,合同会社ＳＴＮ,,合同会社,福岡県,福岡市博多区,東那珂３丁目７－１９－３号室,,40,132,8120892,,,,,,,2025-10-02,1,,,,,エスティエヌ,0
2261,9290801031900,新規,0,2025-10-02,2025-10-02,株式会社アイジーアールサービス,,株式会社,福岡県,北九州市小倉南区,下曽根新町５番５号,,40,107,8000221,,,,,,,2025-10-02,1,,,,,アイジーアールサービス,0
2263,9310003005097,新規,0,2025-10-02,2025-10-02,合同会社ＣＯＺＣＯ,,合同会社,長崎県,対馬市,厳原町久田３６５番地２　２０３号,,42,209,8170032,,,,,,,2025-10-02,1,,,,,コズコ,0
2274,9370001053084,新規,0,2025-10-02,2025-10-02,株式会社千葉流通企画,,株式会社,宮城県,東松島市,赤井字川前二２６１番地１,,04,214,9810501,,,,,,,2025-10-02,1,,,,,チバリュウツウキカク,0
2275,9370001053101,新規,0,2025-10-02,2025-10-02,株式会社パーフェクトデンタルＨＩＲＯ,,株式会社,宮城県,登米市,南方町山成９５番地１,,04,212,9870401,,,,,,,2025-10-02,1,,,,,パーフェクトデンタルヒロ,0
2279,9380001035602,新規,0,2025-10-02,2025-10-02,ＦｏｏｄｓラボＴ．Ｎ．Ｇ株式会社,,株式会社,福島県,相馬市,沖ノ内１丁目２番地の６,,07,209,9760016,,,,,,,2025-10-02,1,,,,,フーズラボティーエヌジー,0
2280,9380001035619,新規,0,2025-10-02,2025-10-02,株式会社巴電機設備,,株式会社,福島県,郡山市,喜久田町字入ノ内６番地の１０カーサ・ガティート１０１号,,07,203,9630551,,,,,,,2025-10-02,1,,,,,トモエデンキセツビ,0
2281,9380003006147,新規,0,2025-10-02,2025-10-02,合同会社Ｐｌｕｍａ,,合同会社,福島県,本宮市,白岩字桑内３２番地５５,,07,214,9691203,,,,,,,2025-10-02,1,,,,,プルマ,0
2284,9410005006661,新規,0,2025-10-02,2025-10-02,一般社団法人ちよだ五城目交流館,,その他の設立登記法人,秋田県,南秋田郡五城目町,字下タ町１９０番地,,05,361,0181706,,,,,,,2025-10-02,1,,,,,チヨダゴジョウメコウリュウカン,0
2286,9430003018178,新規,0,2025-10-02,2025-10-02,合同会社コン・クオーレ,,合同会社,北海道,札幌市中央区,北一条西２０丁目１番６－５０３号,,01,101,0640821,,,,,,,2025-10-02,1,,,,,コンクオーレ,0
2287,9430005015306,新規,0,2025-10-02,2025-10-02,特定非営利活動法人ＨＡＫＵ,,その他の設立登記法人,北海道,札幌市白石区,南郷通１８丁目南５番１３号久保沼ビル３階,,01,104,0030022,,,,,,,2025-10-02,1,,,,,ハク,0
2288,9460301005313,新規,0,2025-10-02,2025-10-02,株式会社エピソード,,株式会社,北海道,北見市,本町１丁目１番８号,,01,208,0900818,,,,,,,2025-10-02,1,,,,,エピソード,0
2289,9462501001042,新規,0,2025-10-02,2025-10-02,株式会社萠,,株式会社,北海道,野付郡別海町,泉川２９番地の９,,01,691,0882578,,,,,,,2025-10-02,1,,,,,モエ,0
2291,9480003002318,新規,0,2025-10-02,2025-10-02,合同会社健翔ライフ,,合同会社,徳島県,三好郡東みよし町,中庄９８６－７,,36,489,7794703,,,,,,,2025-10-02,1,,,,,ケンショウライフ,0
2294,9500001026539,新規,0,2025-10-02,2025-10-02,Ｈ＆Ｍ　ｈｏｌｄｉｎｇｓ株式会社,,株式会社,愛媛県,四国中央市,土居町上野甲３１９６,,38,213,7990721,,,,,,,2025-10-02,1,,,,,エイチアンドエムホールディングス,0
2295,9500001026547,新規,0,2025-10-02,2025-10-02,株式会社ＭＩＲＲＯＲ,,株式会社,愛媛県,松山市,住吉２丁目１２番１９号角田倉庫,,38,201,7918062,,,,,,,2025-10-02,1,,,,,ミラー,0
2296,9500001026555,新規,0,2025-10-02,2025-10-02,Ｒｈｉｎｏ株式会社,,株式会社,愛媛県,大洲市,常磐町３番地１,,38,207,7950053,,,,,,,2025-10-02,1,,,,,ライノ,0
