sequenceNumber,corporateNumber,process,correct,updateDate,changeDate,name,nameImageId,kind,prefectureName,cityName,streetNumber,addressImageId,prefectureCode,cityCode,postCode,addressOutside,addressOutsideImageId,closeDate,closeCause,successorCorporateNumber,changeCause,assignmentDate,latest,enName,enPrefectureName,enCityName,enAddressOutside,furigana,hihyoji
5,1010001061460,登記記録の閉鎖等,0,2025-02-14,2025-02-03,株式会社東京建物ファイナンス,,株式会社,東京都,中央区,八重洲１丁目９番９号,,13,102,1030028,,,2025-02-03,清算の結了等,,,2015-10-05,1,,,,,トウキョウタテモノファイナンス,0
13,1010003041452,登記記録の閉鎖等,0,2025-02-14,2025-02-03,合同会社Ｉｎｆｉｎｉｔａｍ,,合同会社,東京都,文京区,千駄木５丁目１４番７号,,13,105,1130022,,,2025-02-03,清算の結了等,,,2023-08-23,1,,,,,インフィニタム,0
23,1010401165472,登記記録の閉鎖等,0,2025-02-14,2025-01-15,株式会社ＧＲＡＶＩＸ　ＪＡＰＡＮ,,株式会社,東京都,港区,南青山３丁目１番３６号青山丸竹ビル６Ｆ,,13,103,1070062,,,2025-01-15,清算の結了等,,,2022-02-09,1,,,,,グラビックスジャパン,0
37,1010501028323,登記記録の閉鎖等,0,2025-02-14,2025-02-03,株式会社三樹,,株式会社,東京都,台東区,上野５丁目６番１１号,,13,106,1100005,,,2025-02-03,合併による解散等,2010501031152,令和７年２月２日東京都台東区上野五丁目６番１１号株式会社ビリーフ（2010501031152）に合併し解散,2015-10-05,1,,,,,サンキ,0
42,1010802013247,登記記録の閉鎖等,0,2025-02-14,2025-02-03,有限会社前田精業,,有限会社,東京都,大田区,南馬込１丁目４６番２号,,13,111,1430025,,,2025-02-03,清算の結了等,,,2015-10-05,1,,,,,マエダセイギョウ,0
77,1012702005092,登記記録の閉鎖等,0,2025-02-14,2025-02-06,有限会社ワールド,,有限会社,東京都,西東京市,泉町２丁目１３番１６号,,13,229,2020011,,,2025-02-06,清算の結了等,,,2015-10-05,1,,,,,ワールド,0
82,1020001101562,登記記録の閉鎖等,0,2025-02-14,2025-02-12,株式会社ＳＲハイクリーンシステム,,株式会社,東京都,世田谷区,深沢５丁目２４番１４号,,13,112,1580081,,,2025-02-12,合併による解散等,6010901022805,令和７年２月１日東京都世田谷区等々力二丁目３２番１９－２０２号株式会社ティエヌ企画（6010901022805）に合併し解散,2015-10-05,1,,,,,エスアールハイクリーンシステム,0
120,1030005000719,登記記録の閉鎖等,0,2025-02-14,2025-02-03,協同組合行政手続研究機構,,その他の設立登記法人,埼玉県,さいたま市浦和区,高砂３丁目１２番２４号小峰ビル２階,,11,107,3300063,,,2025-02-03,清算の結了等,,,2015-10-05,1,,,,,ギョウセイテツヅキケンキュウキコウ,0
149,1110001003675,登記記録の閉鎖等,0,2025-02-14,2025-02-10,株式会社新潟印刷,,株式会社,新潟県,新潟市江南区,曙町３丁目５番５号,,15,104,9500134,,,2025-02-10,清算の結了等,,,2015-10-05,1,,,,,ニイガタインサツ,0
150,1110002010885,登記記録の閉鎖等,0,2025-02-14,2025-02-12,有限会社山京,,有限会社,新潟県,新潟市北区,木崎２８３１番地３５,,15,101,9503304,,,2025-02-12,清算の結了等,,,2015-10-05,1,,,,,ヤマキョウ,0
152,1120001069699,登記記録の閉鎖等,0,2025-02-14,2025-02-05,株式会社フォーラムエー企画,,株式会社,大阪府,大阪市北区,兎我野町１５番１３号ミユキビル,00028485,27,127,5300056,,,2025-02-05,合併による解散等,6120001065883,令和７年２月１日大阪市北区曽根崎二丁目１１番１６号株式会社清風堂書店（6120001065883）に合併し解散,2015-10-05,1,,,,,フォーラムエーキカク,0
153,1120001099688,登記記録の閉鎖等,0,2025-02-14,2025-02-10,アズリード株式会社,,株式会社,大阪府,大阪市淀川区,西中島７丁目７番２号新大阪ビル西館２０６号,,27,123,5320011,,,2025-02-10,清算の結了等,,,2015-10-05,1,,,,,,0
183,1120902010091,登記記録の閉鎖等,0,2025-02-14,2025-02-06,有限会社グローリー建設,,有限会社,大阪府,高槻市,竹の内町８番３１号,,27,207,5690043,,,2025-02-06,清算の結了等,,,2015-10-05,1,,,,,グローリーケンセツ,0
203,1180001089709,登記記録の閉鎖等,0,2025-02-14,2025-02-10,株式会社オフィスユー,,株式会社,愛知県,名古屋市中村区,亀島２丁目５番１８号１３０３,,23,105,4530013,,,2025-02-10,清算の結了等,,,2015-10-05,1,,,,,オフィスユー,0
223,1210002013903,登記記録の閉鎖等,0,2025-02-14,2025-02-12,有限会社ベルジエ,,有限会社,福井県,小浜市,大手町５番３号,,18,204,9170078,,,2025-02-12,清算の結了等,,,2015-10-05,1,,,,,ベルジェ,0
233,1290001086595,登記記録の閉鎖等,0,2025-02-14,2025-01-31,株式会社ジャパンコンサルティング,,株式会社,福岡県,福岡市博多区,美野島２丁目１番３１号,,40,132,8120017,,,2025-01-31,清算の結了等,,,2019-09-27,1,,,,,ジャパンコンサルティング,0
234,1290001105025,登記記録の閉鎖等,0,2025-02-14,2025-01-29,ＭＩＡＭＩ　ＡＩＬＬＩＯ株式会社,,株式会社,福岡県,久留米市,東合川２丁目５番１５号,,40,203,8390809,,,2025-01-29,清算の結了等,,,2024-03-14,1,,,,,ミアミエーリオ,0
260,1410002010624,登記記録の閉鎖等,0,2025-02-14,2025-02-06,有限会社リカーショップとらや,,有限会社,秋田県,能代市,西通町１６番６号,,05,202,0160891,,,2025-02-06,清算の結了等,,,2015-10-05,1,,,,,リカーショップトラヤ,0
262,1430001032790,登記記録の閉鎖等,0,2025-02-14,2025-02-10,株式会社メディトピア,,株式会社,北海道,札幌市厚別区,厚別北四条３丁目１２番１１号,,01,108,0040074,,,2025-02-10,清算の結了等,,,2015-10-05,1,,,,,メディトピア,0
284,2010401044766,登記記録の閉鎖等,0,2025-02-14,2025-02-03,花木商事株式会社,,株式会社,東京都,大田区,本羽田２丁目９番９号,,13,111,1440044,,,2025-02-03,清算の結了等,,,2015-10-05,1,,,,,ハナキショウジ,0
287,2010401116202,登記記録の閉鎖等,0,2025-02-14,2025-01-22,株式会社渋い,,株式会社,東京都,港区,麻布十番１丁目５番２９－５０４号,,13,103,1060045,,,2025-01-22,清算の結了等,,,2015-10-05,1,,,,,シブイ,0
303,2010702008627,登記記録の閉鎖等,0,2025-02-14,2025-01-31,有限会社ユーシー,,有限会社,東京都,品川区,平塚２丁目１２番１６－１２０５号,,13,109,1420051,,,2025-01-31,清算の結了等,,,2015-10-05,1,,,,,,0
304,2010802017395,登記記録の閉鎖等,0,2025-02-14,2025-02-04,有限会社ワイアンドエヌ,,有限会社,東京都,大田区,山王２丁目３４番２０号,,13,111,1430023,,,2025-02-04,清算の結了等,,,2015-10-05,1,,,,,ワイアンドエヌ,0
336,2011702001340,登記記録の閉鎖等,0,2025-02-14,2025-02-07,有限会社岩田機工,,有限会社,東京都,江戸川区,松江４丁目３１番２２号,,13,123,1320025,,,2025-02-07,清算の結了等,,,2015-10-05,1,,,,,イワタキコウ,0
348,2012702012674,登記記録の閉鎖等,0,2025-02-14,2025-02-07,有限会社エンデバー,,有限会社,東京都,西東京市,谷戸町３丁目２８番１６－３２２号,,13,229,1880001,,,2025-02-07,清算の結了等,,,2015-10-05,1,,,,,エンデバー,0
389,2070003005450,登記記録の閉鎖等,0,2025-02-14,2025-02-10,合同会社サイトウブロイ,,合同会社,群馬県,前橋市,堀越町９２６番地１８,,10,201,3710231,,,2025-02-10,清算の結了等,,,2024-06-07,1,,,,,サイトウブロイ,0
391,2080402004226,登記記録の閉鎖等,0,2025-02-14,2025-02-05,有限会社鈴木業務店,,有限会社,静岡県,浜松市中央区,新橋町１５９８番地の２,,22,138,4328058,,,2025-02-05,清算の結了等,,,2015-10-05,1,,,,,スズキギョウムテン,0
397,2120001026427,登記記録の閉鎖等,0,2025-02-14,2025-02-13,株式会社シー・シー・エス,,株式会社,大阪府,大阪市此花区,春日出中２丁目７番１３号,,27,104,5540022,,,2025-02-13,清算の結了等,,,2015-10-05,1,,,,,シーシーエス,0
400,2120001149731,登記記録の閉鎖等,0,2025-02-14,2025-02-10,株式会社エフ・シキシマ,,株式会社,大阪府,枚方市,西禁野１丁目１１番１３号,,27,210,5731192,,,2025-02-10,清算の結了等,,,2015-10-05,1,,,,,エフシキシマ,0
403,2120001202201,登記記録の閉鎖等,0,2025-02-14,2025-02-12,株式会社つばさ工務店,,株式会社,大阪府,大阪市中央区,道修町４丁目７番７号,,27,128,5410045,,,2025-02-12,清算の結了等,,,2016-12-02,1,,,,,ツバサコウムテン,0
439,2180001071839,登記記録の閉鎖等,0,2025-02-14,2025-02-07,株式会社コスモアイ,,株式会社,愛知県,名古屋市天白区,元八事３丁目３４０番地,,23,116,4680066,,,2025-02-07,清算の結了等,,,2015-10-05,1,,,,,コスモアイ,0
440,2180001129414,登記記録の閉鎖等,0,2025-02-14,2025-02-06,株式会社シャルミル,,株式会社,愛知県,名古屋市中区,栄４丁目９番１０号,,23,106,4600008,,,2025-02-06,清算の結了等,,,2017-09-14,1,,,,,シャルミル,0
454,2190001030249,登記記録の閉鎖等,0,2025-02-14,2025-02-12,スカイパイロット株式会社,,株式会社,三重県,津市,東丸之内１７番１号,,24,201,5140028,,,2025-02-12,清算の結了等,,,2023-03-15,1,,,,,スカイパイロット,0
455,2190003004721,登記記録の閉鎖等,0,2025-02-14,2025-02-05,合同会社三二三,,合同会社,三重県,津市,美里町桂畑２９５番地,,24,201,5142115,,,2025-02-05,清算の結了等,,,2024-06-20,1,,,,,サンニイサン,0
459,2240002002670,登記記録の閉鎖等,0,2025-02-14,2025-02-13,有限会社エレガンテ・ヒロ,,有限会社,広島県,広島市安芸区,中野東１丁目２８番２３号,,34,107,7390323,,,2025-02-13,清算の結了等,,,2015-10-05,1,,,,,エレガンテヒロ,0
466,2280002007484,登記記録の閉鎖等,0,2025-02-14,2025-02-12,有限会社石橋紙業店,,有限会社,島根県,大田市,大田町大田イ２８４番地２,,32,205,6940064,,,2025-02-12,清算の結了等,,,2015-10-05,1,,,,,イシバシシギョウテン,0
467,2280002009778,登記記録の閉鎖等,0,2025-02-14,2025-02-12,有限会社アイマックス,,有限会社,島根県,益田市,中島町イ１０５２番地,,32,204,6980043,,,2025-02-12,清算の結了等,,,2015-10-05,1,,,,,アイマックス,0
485,2330002020085,登記記録の閉鎖等,0,2025-02-14,2025-02-10,有限会社高遊原グリーンシステム,,有限会社,熊本県,熊本市東区,弓削町６４４番地１,,43,102,8618013,,,2025-02-10,清算の結了等,,,2015-10-05,1,,,,,タカユウバルグリーンシステム,0
491,2360001014226,登記記録の閉鎖等,0,2025-02-14,2025-02-13,株式会社童夢幼児園・保育園,,株式会社,沖縄県,那覇市,繁多川２丁目１５番１号,,47,201,9020071,,,2025-02-13,清算の結了等,,,2015-10-05,1,,,,,ドウムヨウジエンホイクエン,0
508,2470001010123,登記記録の閉鎖等,0,2025-02-14,2025-02-12,株式会社森川釣具店,,株式会社,香川県,観音寺市,柞田町甲２４４４番地２,,37,205,7680040,,,2025-02-12,清算の結了等,,,2015-10-05,1,,,,,モリカワツリグテン,0
510,2480001007011,登記記録の閉鎖等,0,2025-02-14,2025-02-12,木沢開発株式会社,,株式会社,徳島県,那賀郡那賀町,木頭字仁義２９番地１,,36,368,7716105,,,2025-02-12,清算の結了等,,,2015-10-05,1,,,,,キサワカイハツ,0
514,2490005006537,登記記録の閉鎖等,0,2025-02-14,2025-02-10,一般社団法人セルフ・キャリア開発協会,,その他の設立登記法人,高知県,高知市,南宝永町５番１１号山二ビル３階,,39,201,7800816,,,2025-02-10,清算の結了等,,,2017-06-09,1,,,,,セルフキャリアカイハツ,0
544,3010402002788,登記記録の閉鎖等,0,2025-02-14,2025-01-23,有限会社オーミヤ,,有限会社,東京都,港区,芝２丁目１２番１４号,,13,103,1050014,,,2025-01-23,清算の結了等,,,2015-10-05,1,,,,,オーミヤ,0
558,3011001119791,登記記録の閉鎖等,0,2025-02-14,2025-01-16,株式会社テル,,株式会社,東京都,渋谷区,初台２丁目５番８号,,13,113,1510061,,,2025-01-16,清算の結了等,,,2017-12-20,1,,,,,テル,0
597,3012701008870,登記記録の閉鎖等,0,2025-02-14,2025-02-06,株式会社ウリ企画,,株式会社,東京都,東久留米市,前沢２丁目１番２４号,,13,222,2030032,,,2025-02-06,清算の結了等,,,2015-10-05,1,,,,,ウリキカク,0
600,3020001044652,登記記録の閉鎖等,0,2025-02-14,2025-01-29,株式会社世田谷部品製作所,,株式会社,神奈川県,横浜市都筑区,折本町３１８番地９,,14,118,2240043,,,2025-01-29,清算の結了等,,,2015-10-05,1,,,,,セタガヤブヒンセイサクショ,0
620,3080101012396,登記記録の閉鎖等,0,2025-02-14,2025-02-10,株式会社イナック,,株式会社,静岡県,三島市,東本町１丁目１３番４８号シティウインズ三島３１３,,22,206,4110831,,,2025-02-10,清算の結了等,,,2015-10-05,1,,,,,イナック,0
621,3080403004554,登記記録の閉鎖等,0,2025-02-14,2025-02-05,合同会社太厚興産,,合同会社,静岡県,袋井市,川井１３９８番地の１,,22,216,4370064,,,2025-02-05,清算の結了等,,,2022-06-03,1,,,,,タイコウコウサン,0
637,3120001239878,登記記録の閉鎖等,0,2025-02-14,2025-02-12,株式会社ＭＯＴ,,株式会社,大阪府,大阪市東住吉区,鷹合２丁目２番１５号,,27,121,5460014,,,2025-02-12,清算の結了等,,,2021-09-01,1,,,,,エムオーティー,0
668,3120901007302,登記記録の閉鎖等,0,2025-02-14,2025-02-06,大栄通信サービス株式会社,,株式会社,大阪府,吹田市,南吹田３丁目８番３４号,,27,205,5640043,,,2025-02-06,合併による解散等,9120101044933,令和７年２月１日兵庫県尼崎市南武庫之荘三丁目２４番９号株式会社シースパン（9120101044933）に合併し解散,2015-10-05,1,,,,,ダイエイツウシンサービス,0
679,3140001089603,登記記録の閉鎖等,0,2025-02-14,2025-02-10,株式会社ＭＯＧ,,株式会社,兵庫県,伊丹市,中央５丁目４－９エクセル中央４０１号,,28,207,6640851,,,2025-02-10,清算の結了等,,,2015-10-05,1,,,,,エムオージー,0
687,3140005024192,登記記録の閉鎖等,0,2025-02-14,2025-02-13,一般社団法人ケアサポート絆,,その他の設立登記法人,兵庫県,神戸市西区,伊川谷町有瀬２６９－１－２０１,,28,111,6512113,,,2025-02-13,清算の結了等,,,2018-07-05,1,,,,,ケアサポートキズナ,0
697,3180002089210,登記記録の閉鎖等,0,2025-02-14,2025-02-07,有限会社カワイ建築事務所,,有限会社,愛知県,津島市,橘町４丁目３５番地の１,,23,208,4960038,,,2025-02-07,清算の結了等,,,2015-10-05,1,,,,,カワイケンチクジムショ,0
706,3190003004753,登記記録の閉鎖等,0,2025-02-14,2025-02-05,合同会社トキワ,,合同会社,三重県,津市,美里町南長野７５番地４,,24,201,5142114,,,2025-02-05,清算の結了等,,,2024-07-25,1,,,,,トキワ,0
710,3220001016458,登記記録の閉鎖等,0,2025-02-14,2025-02-06,ラ・セン株式会社,,株式会社,石川県,七尾市,和倉町６号５番地１,,17,202,9260175,,,2025-02-06,清算の結了等,,,2015-10-05,1,,,,,ラセン,0
712,3220002005484,登記記録の閉鎖等,0,2025-02-14,2025-02-05,有限会社松下テクニカル,,有限会社,石川県,金沢市,東力２丁目９９番地,,17,201,9218015,,,2025-02-05,清算の結了等,,,2015-10-05,1,,,,,マツシタテクニカル,0
717,3260001021446,登記記録の閉鎖等,0,2025-02-14,2025-02-07,株式会社ポレポレ,,株式会社,岡山県,瀬戸内市,邑久町豊安５９番地の１,,33,212,7014222,,,2025-02-07,清算の結了等,,,2015-10-05,1,,,,,ポレポレ,0
723,3290001030733,登記記録の閉鎖等,0,2025-02-14,2025-01-29,株式会社ＣＲＯＳＳ－Ｔ　ＪＡＰＡＮ,,株式会社,福岡県,福岡市早良区,室見２丁目８番１８－３０３号,,40,137,8140015,,,2025-01-29,清算の結了等,,,2015-10-05,1,,,,,クロスティージャパン,0
731,3290003010923,登記記録の閉鎖等,0,2025-02-14,2025-01-31,合同会社トライビーム,,合同会社,福岡県,福岡市博多区,中洲３丁目１－２川丈ビル４－Ｄ,,40,132,8100801,,,2025-01-31,清算の結了等,,,2021-02-19,1,,,,,トライビーム,0
735,3320001016150,登記記録の閉鎖等,0,2025-02-14,2025-02-03,ＲＥＧＩＮＡ株式会社,,株式会社,大分県,大分市,城南北１丁目３番２７号,,44,201,8700827,,,2025-02-03,合併による解散等,5320001017188,令和７年２月１日大分市城南北一丁目３番２７号ＲＥＧＩＮＡ株式会社（5320001017188）に合併し解散,2018-02-02,1,,,,,レジーナ,0
736,3320002003445,登記記録の閉鎖等,0,2025-02-14,2025-02-12,有限会社清水整備工場,,有限会社,大分県,大分市,広瀬町２丁目３番４６号,,44,201,8700847,,,2025-02-12,清算の結了等,,,2015-10-05,1,,,,,,0
740,3340001016628,登記記録の閉鎖等,0,2025-02-14,2025-02-10,アトラス株式会社,,株式会社,鹿児島県,薩摩川内市,宮崎町３３３１番地１,,46,215,8950013,,,2025-02-10,清算の結了等,,,2015-10-05,1,,,,,アトラス,0
751,3370201004033,登記記録の閉鎖等,0,2025-02-14,2025-02-10,株式会社渡辺工業,,株式会社,宮城県,大崎市,古川北稲葉２丁目６番２８号,,04,215,9896145,,,2025-02-10,清算の結了等,,,2015-10-05,1,,,,,,0
754,3380002013141,登記記録の閉鎖等,0,2025-02-14,2025-02-05,有限会社渡正工業,,有限会社,福島県,郡山市,富久山町久保田字恩田３８番地,,07,203,9638071,,,2025-02-05,清算の結了等,,,2015-10-05,1,,,,,ワタショウコウギョウ,0
770,4010001001042,登記記録の閉鎖等,0,2025-02-14,2025-02-05,株式会社エイティコーポレーシヨン,,株式会社,東京都,立川市,錦町１丁目４番４号,,13,202,1900022,,,2025-02-05,清算の結了等,,,2015-10-05,1,,,,,エイティコーポレーシヨン,0
782,4010003026203,登記記録の閉鎖等,0,2025-02-14,2025-01-24,合同会社ヴォール,,合同会社,東京都,港区,北青山１丁目４番１号ランジェ青山４０７号室,,13,103,1070061,,,2025-01-24,清算の結了等,,,2017-10-11,1,,,,,ヴォール,0
797,4010601040002,登記記録の閉鎖等,0,2025-02-14,2025-01-16,株式会社蒼天,,株式会社,東京都,渋谷区,恵比寿４丁目２０番３号,,13,113,1500013,,,2025-01-16,合併による解散等,6010401098453,令和７年１月１日東京都渋谷区恵比寿四丁目２０番３号株式会社クラウドワークス（6010401098453）に合併し解散,2015-10-05,1,,,,,ソウテン,0
810,4011001117869,登記記録の閉鎖等,0,2025-02-14,2025-01-14,Ｒｅｓｉｌｙ株式会社,,株式会社,東京都,目黒区,上目黒２丁目１番１号,,13,110,1530051,,,2025-01-14,合併による解散等,8013201007846,令和７年１月１日東京都目黒区上目黒二丁目１番１号株式会社アドバンテッジリスクマネジメント（8013201007846）に合併し解散,2017-08-16,1,,,,,リシリー,0
843,4012401033458,登記記録の閉鎖等,0,2025-02-14,2025-01-30,株式会社コギトスム,,株式会社,東京都,千代田区,一番町８番地ウィスタリアハイツ一番町９０１号,,13,101,1020082,,,2025-01-30,清算の結了等,,,2017-12-14,1,,,,,コギトスム,0
848,4020001088459,登記記録の閉鎖等,0,2025-02-14,2025-01-29,株式会社スリーアイズ,,株式会社,神奈川県,横浜市戸塚区,平戸３丁目１７番１０号,,14,110,2440802,,,2025-01-29,清算の結了等,,,2015-10-05,1,,,,,スリーアイズ,0
866,4030002114618,登記記録の閉鎖等,0,2025-02-14,2025-02-04,有限会社スドウ塗装工芸,,有限会社,埼玉県,熊谷市,妻沼１４０７番地１,,11,202,3600201,,,2025-02-04,清算の結了等,,,2015-10-05,1,,,,,スドウトソウコウゲイ,0
869,4030005017909,登記記録の閉鎖等,0,2025-02-14,2025-02-04,特定非営利活動法人ちぇぶら,,その他の設立登記法人,埼玉県,戸田市,本町４丁目４－６ＴＢＣ,,11,224,3350023,,,2025-02-04,清算の結了等,,,2016-04-18,1,,,,,チェブラ,0
870,4040001002987,登記記録の閉鎖等,0,2025-02-14,2025-02-06,株式会社シーエムティー,,株式会社,千葉県,市川市,大野町３丁目１４２７番地６,,12,203,2720805,,,2025-02-06,清算の結了等,,,2015-10-05,1,,,,,シーエムティー,0
877,4040002056272,登記記録の閉鎖等,0,2025-02-14,2025-02-07,有限会社スカイウェイインターナショナル,,有限会社,東京都,江戸川区,臨海町５丁目３番１－１４１４号,,13,123,1340086,,,2025-02-07,清算の結了等,,,2015-10-05,1,,,,,スカイウェイインターナショナル,0
878,4040003022653,登記記録の閉鎖等,0,2025-02-14,2025-02-07,ＯＣＥＡＮ　ＢＥＡＣＨ合同会社,,合同会社,千葉県,松戸市,古ケ崎１９２番地の６,,12,207,2710068,,,2025-02-07,清算の結了等,,,2023-05-22,1,,,,,オーシャンビーチ,0
891,4080403004157,登記記録の閉鎖等,0,2025-02-14,2025-02-04,合同会社ユージン,,合同会社,静岡県,袋井市,愛野東１丁目６番地２クラールハウスＡ２,,22,216,4370039,,,2025-02-04,清算の結了等,,,2020-11-19,1,,,,,ユージン,0
899,4110001000835,登記記録の閉鎖等,0,2025-02-14,2025-01-31,大久保設計株式会社,,株式会社,新潟県,新潟市西区,青山６丁目５番１号,,15,107,9502002,,,2025-01-31,清算の結了等,,,2015-10-05,1,,,,,オオクボセッケイ,0
904,4120001019081,登記記録の閉鎖等,0,2025-02-14,2025-02-07,株式会社森田製作所,,株式会社,大阪府,大阪市生野区,勝山南４丁目１４番８号,,27,116,5440021,,,2025-02-07,清算の結了等,,,2015-10-05,1,,,,,モリタセイサクショ,0
905,4120001101780,登記記録の閉鎖等,0,2025-02-14,2025-02-10,大阪化工紙工業株式会社,,株式会社,大阪府,大阪市福島区,鷺洲５丁目６番４５号,,27,103,5530002,,,2025-02-10,清算の結了等,,,2015-10-05,1,,,,,,0
907,4120001180404,登記記録の閉鎖等,0,2025-02-14,2025-02-10,株式会社ＸＳ,,株式会社,大阪府,大阪市北区,梅田１丁目１－３大阪駅前第３ビル２３０７,,27,127,5300001,,,2025-02-10,清算の結了等,,,2015-10-05,1,,,,,エックスエス,0
910,4120001231082,登記記録の閉鎖等,0,2025-02-14,2025-02-12,株式会社Ｓａｍｕｒａｉ　Ａｇｅｎｃｙ,,株式会社,大阪府,大阪市中央区,南船場２丁目９番１４号,,27,128,5420081,,,2025-02-12,清算の結了等,,,2020-08-18,1,,,,,サムライエージェンシー,0
921,4120005006555,登記記録の閉鎖等,0,2025-02-14,2025-02-06,大阪大促青果卸商業協同組合,,その他の設立登記法人,大阪府,八尾市,山城町５丁目２番３０号,,27,212,5810801,,,2025-02-06,清算の結了等,,,2015-10-05,1,,,,,オオサカダイソクセイカオロシショウギョウ,0
926,4120901014561,登記記録の閉鎖等,0,2025-02-14,2025-02-06,株式会社ユー．エス．ビー,,株式会社,大阪府,吹田市,千里丘上３４番７１４号,,27,205,5650811,,,2025-02-06,清算の結了等,,,2015-10-05,1,,,,,ユーエスビー,0
941,4140002000889,登記記録の閉鎖等,0,2025-02-14,2025-02-06,有限会社アトリエオタイコ,,有限会社,兵庫県,芦屋市,大原町５番４号,,28,206,6590092,,,2025-02-06,清算の結了等,,,2015-10-05,1,,,,,アトリエオタイコ,0
954,4180302026523,登記記録の閉鎖等,0,2025-02-14,2025-02-12,有限会社丸征建設興業,,有限会社,愛知県,西尾市,吉良町駮馬内ノ山２３番地６６,,23,213,4440501,,,2025-02-12,清算の結了等,,,2015-10-05,1,,,,,,0
955,4190001025016,登記記録の閉鎖等,0,2025-02-14,2025-02-10,株式会社ＴＲＤ,,株式会社,三重県,鈴鹿市,白子町１９３５番地ラウムズ白子３０３,,24,207,5100244,,,2025-02-10,清算の結了等,,,2017-10-12,1,,,,,ティーアールディー,0
975,4290001089538,登記記録の閉鎖等,0,2025-02-14,2025-01-30,株式会社永水土木建設,,株式会社,福岡県,嘉麻市,平１１０９番地,,40,227,8200203,,,2025-01-30,清算の結了等,,,2020-07-16,1,,,,,ナガミズドボクケンセツ,0
979,4290005018699,登記記録の閉鎖等,0,2025-02-14,2025-01-20,一般社団法人博多シティ能古島リゾート,,その他の設立登記法人,福岡県,福岡市中央区,那の津４丁目８番２５号,,40,133,8100071,,,2025-01-20,清算の結了等,,,2022-05-30,1,,,,,ハカタシティノコノシマリゾート,0
980,4290801009397,登記記録の閉鎖等,0,2025-02-14,2025-02-12,福北電気株式会社,,株式会社,福岡県,北九州市八幡東区,昭和１丁目９番２号,,40,108,8050013,,,2025-02-12,清算の結了等,,,2015-10-05,1,,,,,フクホクデンキ,0
982,4290805006325,登記記録の閉鎖等,0,2025-02-14,2025-02-06,上毛町土地開発公社,,その他の設立登記法人,福岡県,築上郡上毛町,大字垂水１３２１番地１,,40,646,8710913,,,2025-02-06,清算の結了等,,,2015-10-05,1,,,,,コウゲマチ,0
983,4300002005905,登記記録の閉鎖等,0,2025-02-14,2025-02-12,有限会社共進産業,,有限会社,佐賀県,武雄市,朝日町大字中野５８５５番地,,41,206,8430002,,,2025-02-12,清算の結了等,,,2015-10-05,1,,,,,キョウシンサンギョウ,0
987,4330002011586,登記記録の閉鎖等,0,2025-02-14,2025-02-10,有限会社ワイ・エス・グループ,,有限会社,熊本県,熊本市西区,二本木５丁目２番１号,,43,103,8600051,,,2025-02-10,清算の結了等,,,2015-10-05,1,,,,,ワイエスグループ,0
1001,4370101000214,登記記録の閉鎖等,0,2025-02-14,2025-02-10,株式会社北海屋,,株式会社,宮城県,柴田郡柴田町,船岡東４丁目１６番２号,,04,323,9891604,,,2025-02-10,清算の結了等,,,2015-10-05,1,,,,,,0
1012,4500002004812,登記記録の閉鎖等,0,2025-02-14,2025-02-12,有限会社トム・コーポレーション,,有限会社,愛媛県,松山市,石手４丁目１１番２９号,,38,201,7900852,,,2025-02-12,清算の結了等,,,2015-10-05,1,,,,,トムコーポレーション,0
1013,4500002017640,登記記録の閉鎖等,0,2025-02-14,2025-02-10,有限会社アサイ薬局,,有限会社,愛媛県,今治市,旭町１丁目２番地４,,38,202,7940042,,,2025-02-10,清算の結了等,,,2015-10-05,1,,,,,アサイヤッキョク,0
1033,5010002025907,登記記録の閉鎖等,0,2025-02-14,2025-02-03,有限会社山県商店,,有限会社,東京都,中央区,日本橋蛎殻町１丁目６番５号,,13,102,1030014,,,2025-02-03,清算の結了等,,,2015-10-05,1,,,,,ヤマガタショウテン,0
1038,5010401091649,登記記録の閉鎖等,0,2025-02-14,2025-01-20,株式会社りく・マネジメント・パートナーズ,,株式会社,東京都,港区,赤坂９丁目１番７－４５１号,,13,103,1070052,,,2025-01-20,清算の結了等,,,2015-10-05,1,,,,,リクマネジメントパートナーズ,0
1039,5010401118815,登記記録の閉鎖等,0,2025-02-14,2025-01-16,ラペルラジャパン株式会社,,株式会社,東京都,渋谷区,神宮前３丁目１７番１１－３０６号,,13,113,1500001,,,2025-01-16,清算の結了等,,,2015-10-05,1,,,,,ラペルラジャパン,0
1061,5010801017682,登記記録の閉鎖等,0,2025-02-14,2025-02-03,株式会社ＡＴホームズ,,株式会社,東京都,大田区,南千束２丁目１１番１－２０５号,,13,111,1450063,,,2025-02-03,清算の結了等,,,2015-10-05,1,,,,,エーティーホームズ,0
1072,5011001130045,登記記録の閉鎖等,0,2025-02-14,2025-01-14,株式会社キラッキ商事,,株式会社,東京都,渋谷区,大山町２０番１１号キラッキ上原１０１,,13,113,1510065,,,2025-01-14,合併による解散等,7011001116364,令和７年１月１１日東京都渋谷区大山町２０番１１号キラッキ上原１０１株式会社キラッキジャパン（7011001116364）に合併し解散,2019-09-24,1,,,,,キラッキショウジ,0
1104,5020001086593,登記記録の閉鎖等,0,2025-02-14,2025-01-29,株式会社ブランニュートイズ,,株式会社,神奈川県,横浜市港南区,日野２丁目６４番２６－２１３号,,14,111,2340051,,,2025-01-29,清算の結了等,,,2015-10-05,1,,,,,ブランニュートイズ,0
1119,5021002013504,登記記録の閉鎖等,0,2025-02-14,2025-02-10,有限会社扇若ジャパン,,有限会社,神奈川県,茅ヶ崎市,堤４０番地８,,14,207,2530006,,,2025-02-10,清算の結了等,,,2015-10-05,1,,,,,センジャクジャパン,0
1124,5030001052727,登記記録の閉鎖等,0,2025-02-14,2025-02-06,株式会社チヨダマシナリー,,株式会社,埼玉県,北葛飾郡杉戸町,大字本郷６３８番地１,,11,464,3450023,,,2025-02-06,合併による解散等,7260001009925,令和７年２月１日岡山市北区野田四丁目４番３号株式会社タイガーインターナショナル（7260001009925）に合併し解散,2015-10-05,1,,,,,チヨダマシナリー,0
1148,5080101006396,登記記録の閉鎖等,0,2025-02-14,2025-02-10,株式会社渡辺工務店,,株式会社,静岡県,田方郡函南町,平井８３２番地の７,,22,325,4190107,,,2025-02-10,清算の結了等,,,2015-10-05,1,,,,,,0
1149,5080102018432,登記記録の閉鎖等,0,2025-02-14,2025-02-10,有限会社東海監設,,有限会社,静岡県,熱海市,山手町６番５号,,22,205,4130042,,,2025-02-10,清算の結了等,,,2015-10-05,1,,,,,トウカイカンセツ,0
1150,5080103001825,登記記録の閉鎖等,0,2025-02-14,2025-02-10,カーリーコア合同会社,,合同会社,静岡県,駿東郡長泉町,竹原３４５番地の１,,22,342,4110944,,,2025-02-10,清算の結了等,,,2018-05-28,1,,,,,カーリーコア,0
1151,5080105000057,登記記録の閉鎖等,0,2025-02-14,2025-02-07,東静浦水産物加工業協同組合,,その他の設立登記法人,静岡県,沼津市,江浦５２５番地の３１,,22,203,4100103,,,2025-02-07,清算の結了等,,,2015-10-05,1,,,,,ヒガシシズウラスイサンブツカコウギョウ,0
1152,5080402005502,登記記録の閉鎖等,0,2025-02-14,2025-02-05,有限会社トップエンジニア,,有限会社,静岡県,浜松市中央区,豊岡町３０６番地の１,,22,138,4338103,,,2025-02-05,清算の結了等,,,2015-10-05,1,,,,,トップエンジニア,0
1197,5150001007009,登記記録の閉鎖等,0,2025-02-14,2025-02-10,株式会社プレミアムダイニング,,株式会社,奈良県,生駒郡三郷町,信貴山西３番２７号,,29,343,6360832,,,2025-02-10,合併による解散等,7150001000614,令和７年２月１日大阪市西区北堀江一丁目２番１９号株式会社レイアパートナーズ（7150001000614）に合併し解散,2015-10-05,1,,,,,プレミアムダイニング,0
1199,5160001012024,登記記録の閉鎖等,0,2025-02-14,2025-02-12,株式会社橋本ハウジング,,株式会社,滋賀県,高島市,安曇川町北船木１７５２番地,,25,212,5201232,,,2025-02-12,清算の結了等,,,2015-10-05,1,,,,,ハシモトハウジング,0
1217,5190001026269,登記記録の閉鎖等,0,2025-02-14,2025-02-10,株式会社ビルズ,,株式会社,三重県,鈴鹿市,白子町１９３５番地ラウムズ白子３０３,,24,207,5100244,,,2025-02-10,清算の結了等,,,2019-03-18,1,,,,,ビルズ,0
1224,5240001007701,登記記録の閉鎖等,0,2025-02-14,2025-02-13,冨弘建設株式会社,,株式会社,広島県,広島市南区,大州２丁目６番２号,,34,103,7320802,,,2025-02-13,清算の結了等,,,2015-10-05,1,,,,,トミヒロケンセツ,0
1227,5240002048752,登記記録の閉鎖等,0,2025-02-14,2025-02-12,有限会社村雲製本,,有限会社,広島県,安芸郡海田町,西浜１１番２５号,,34,304,7360024,,,2025-02-12,清算の結了等,,,2015-10-05,1,,,,,ムラクモセイホン,0
1236,5290002042882,登記記録の閉鎖等,0,2025-02-14,2025-01-29,有限会社ブルージェイ,,有限会社,福岡県,春日市,白水ヶ丘３丁目３１番地,,40,218,8160845,,,2025-01-29,清算の結了等,,,2015-10-05,1,,,,,ブルージェイ,0
1239,5300002010623,登記記録の閉鎖等,0,2025-02-14,2025-02-10,有限会社富士見町米穀販売店,,有限会社,佐賀県,唐津市,富士見町７番７号,,41,202,8470851,,,2025-02-10,清算の結了等,,,2015-10-05,1,,,,,フジミチョウベイコクハンバイテン,0
1240,5300005004151,登記記録の閉鎖等,0,2025-02-14,2025-02-12,一般社団法人伊万里青年会議所,,その他の設立登記法人,佐賀県,伊万里市,立花町１５４２番地１６,,41,205,8480027,,,2025-02-12,清算の結了等,,,2015-10-05,1,,,,,イマリセイネンカイギショ,0
1272,5430002028009,登記記録の閉鎖等,0,2025-02-14,2025-02-10,有限会社サワダ,,有限会社,北海道,札幌市豊平区,月寒東一条４丁目１番２２－１１０３号,,01,105,0620051,,,2025-02-10,清算の結了等,,,2015-10-05,1,,,,,サワダ,0
1280,5480001007297,登記記録の閉鎖等,0,2025-02-14,2025-02-12,協和建設株式会社,,株式会社,徳島県,美馬郡つるぎ町,一宇字十家４９６番地５,,36,468,7794303,,,2025-02-12,清算の結了等,,,2015-10-05,1,,,,,キョウワケンセツ,0
1296,6010401059174,登記記録の閉鎖等,0,2025-02-14,2025-01-23,株式会社アナザーコミュニティ,,株式会社,東京都,港区,三田２丁目１３番６－２０５号藤和シティスクエア三田サウスウィング,,13,103,1080073,,,2025-01-23,清算の結了等,,,2015-10-05,1,,,,,アナザーコミュニティ,0
1319,6010601029134,登記記録の閉鎖等,0,2025-02-14,2025-02-03,ケーワイプランニング株式会社,,株式会社,東京都,千代田区,霞が関３丁目２番５号霞が関ビルディング６階（エクスプレス・タックス株式会社内）,,13,101,1000013,,,2025-02-03,清算の結了等,,,2015-10-05,1,,,,,ケーワイプランニング,0
1336,6011001070380,登記記録の閉鎖等,0,2025-02-14,2025-02-10,株式会社パブリックスペース,,株式会社,東京都,世田谷区,下馬５丁目４－８,,13,112,1540002,,,2025-02-10,清算の結了等,,,2015-10-05,1,,,,,パブリックスペース,0
1355,6011801042380,登記記録の閉鎖等,0,2025-02-14,2025-02-06,株式会社スラッシュクリエイティブ,,株式会社,東京都,足立区,新田３丁目３５番２０－５１６号,,13,121,1230865,,,2025-02-06,清算の結了等,,,2023-05-11,1,,,,,スラッシュクリエイティブ,0
1362,6013402002879,登記記録の閉鎖等,0,2025-02-14,2025-02-12,有限会社ブロッサム,,有限会社,東京都,多摩市,落合１丁目１番地１９－１０２,,13,224,2060033,,,2025-02-12,清算の結了等,,,2015-10-05,1,,,,,ブロッサム,0
1371,6020003024402,登記記録の閉鎖等,0,2025-02-14,2025-01-29,合同会社ｓｏｔｏ,,合同会社,神奈川県,川崎市多摩区,登戸２３８４番地１０,,14,135,2140014,,,2025-01-29,清算の結了等,,,2023-08-15,1,,,,,ソト,0
1399,6040001042866,登記記録の閉鎖等,0,2025-02-14,2025-02-07,株式会社堺屋,,株式会社,千葉県,成田市,上町５４６番地,,12,211,2860032,,,2025-02-07,清算の結了等,,,2015-10-05,1,,,,,サカイヤ,0
1419,6080401019064,登記記録の閉鎖等,0,2025-02-14,2025-02-05,株式会社アムズ,,株式会社,静岡県,浜松市浜名区,新都田５丁目２２番１０号,,22,139,4312103,,,2025-02-05,清算の結了等,,,2015-10-05,1,,,,,アムズ,0
1431,6120001056016,登記記録の閉鎖等,0,2025-02-14,2025-02-07,伸和商事株式会社,,株式会社,大阪府,大阪市淀川区,三津屋南３丁目１４番地,,27,123,5320035,,,2025-02-07,清算の結了等,,,2015-10-05,1,,,,,シンワショウジ,0
1438,6120001157284,登記記録の閉鎖等,0,2025-02-14,2025-02-12,門真水道商会株式会社,,株式会社,大阪府,門真市,栄町２９番１６号,,27,223,5710047,,,2025-02-12,清算の結了等,,,2015-10-05,1,,,,,カドマスイドウショウカイ,0
1451,6120002035308,登記記録の閉鎖等,0,2025-02-14,2025-02-12,有限会社熊澤文庫,,有限会社,大阪府,大阪市中央区,高麗橋１丁目５番１４号,,27,128,5410043,,,2025-02-12,清算の結了等,,,2015-10-05,1,,,,,クマザワブンコ,0
1464,6140001026396,登記記録の閉鎖等,0,2025-02-14,2025-02-07,イーライリリー・ＡＤＨＤ・ドメイン株式会社,,株式会社,兵庫県,神戸市中央区,磯上通５丁目１番２８号,,28,110,6510086,,,2025-02-07,清算の結了等,,,2015-10-05,1,,,,,イーライリリーエィディエイチディドメイン,0
1477,6180001066158,登記記録の閉鎖等,0,2025-02-14,2025-02-07,Ｔｏｐ　Ｔｕｎａ株式会社,,株式会社,愛知県,名古屋市中区,錦３丁目１０番１４号協和錦ビル４階,,23,106,4600003,,,2025-02-07,清算の結了等,,,2015-10-05,1,,,,,トップツナ,0
1482,6180002078012,登記記録の閉鎖等,0,2025-02-14,2025-02-07,ジャパン音響有限会社,,有限会社,愛知県,一宮市,光明寺字古屋敷２６番地１,,23,203,4910135,,,2025-02-07,清算の結了等,,,2015-10-05,1,,,,,ジャパンオンキョウ,0
1486,6180301020863,登記記録の閉鎖等,0,2025-02-14,2025-02-06,株式会社山路,,株式会社,愛知県,豊田市,元城町３丁目３１番地１レジデンス元城１階,,23,211,4710024,,,2025-02-06,清算の結了等,,,2015-10-05,1,,,,,ヤマジ,0
1497,6240002041847,登記記録の閉鎖等,0,2025-02-14,2025-02-13,有限会社ティップ,,有限会社,広島県,福山市,大谷台１丁目４番２８号,,34,207,7210914,,,2025-02-13,清算の結了等,,,2015-10-05,1,,,,,ティップ,0
1501,6290005010332,登記記録の閉鎖等,0,2025-02-14,2025-01-27,福岡県ダンススクール協同組合,,その他の設立登記法人,福岡県,久留米市,東町６３９番地１,,40,203,8300032,,,2025-01-27,清算の結了等,,,2015-10-05,1,,,,,フクオカケンダンススクール,0
1509,6340001013820,登記記録の閉鎖等,0,2025-02-14,2025-02-12,おおすみエンタープライズ株式会社,,株式会社,鹿児島県,鹿屋市,串良町上小原１６５４番地,,46,203,8931605,,,2025-02-12,清算の結了等,,,2015-10-05,1,,,,,オオスミエンタープライズ,0
1511,6340002001139,登記記録の閉鎖等,0,2025-02-14,2025-02-10,有限会社アロマ総業,,有限会社,鹿児島県,鹿児島市,喜入瀬々串町６０４番地４０７,,46,201,8910201,,,2025-02-10,清算の結了等,,,2015-10-05,1,,,,,アロマソウギョウ,0
1521,6370001049341,登記記録の閉鎖等,0,2025-02-14,2025-02-10,北十字星株式会社,,株式会社,宮城県,白石市,大鷹沢大町字矢ノ口下５１番地の１,,04,206,9890212,,,2025-02-10,清算の結了等,,,2022-12-06,1,,,,,キタジュウジセイ,0
1523,6370002008742,登記記録の閉鎖等,0,2025-02-14,2025-02-10,丸良商事有限会社,,有限会社,山形県,東村山郡中山町,大字柳沢２７番地,,06,302,9900406,,,2025-02-10,清算の結了等,,,2015-10-05,1,,,,,マルヨシショウジ,0
1527,6380005010604,登記記録の閉鎖等,0,2025-02-14,2025-02-06,郡山市除染支援事業協同組合,,その他の設立登記法人,福島県,郡山市,長者２丁目１４番２２号グランセ長者１０２号,,07,203,9638017,,,2025-02-06,清算の結了等,,,2015-10-05,1,,,,,コオリヤマシジョセンシエン,0
1528,6390002001076,登記記録の閉鎖等,0,2025-02-14,2025-02-10,有限会社笹原デンキ,,有限会社,山形県,山形市,東原町４丁目７番６号,,06,201,9900034,,,2025-02-10,清算の結了等,,,2015-10-05,1,,,,,ササハラデンキ,0
1530,6390002013930,登記記録の閉鎖等,0,2025-02-14,2025-02-07,有限会社柴田設備,,有限会社,山形県,東置賜郡高畠町,大字糠野目５９１番地,,06,381,9992176,,,2025-02-07,清算の結了等,,,2015-10-05,1,,,,,シバタセツビ,0
1548,6470002011711,登記記録の閉鎖等,0,2025-02-14,2025-02-07,有限会社サカイ,,有限会社,香川県,綾歌郡宇多津町,２０９９番地,,37,386,7690210,,,2025-02-07,清算の結了等,,,2015-10-05,1,,,,,サカイ,0
1551,6700150126378,削除,,2025-02-14,,,,,,,,,,,,,,,,,,,,,,,,,
1584,7010901006402,登記記録の閉鎖等,0,2025-02-14,2025-02-10,株式会社世界堂,,株式会社,東京都,世田谷区,太子堂４丁目１番１号,,13,112,1540004,,,2025-02-10,清算の結了等,,,2015-10-05,1,,,,,セカイドウ,0
1586,7010901053015,登記記録の閉鎖等,0,2025-02-14,2025-02-07,株式会社プルースト,,株式会社,東京都,世田谷区,太子堂１丁目１２－２７コンフォートテラス１００５号,,13,112,1540004,,,2025-02-07,清算の結了等,,,2023-05-12,1,,,,,プルースト,0
1594,7011001125084,登記記録の閉鎖等,0,2025-02-14,2025-01-06,池袋ダイタンフード株式会社,,株式会社,東京都,渋谷区,代々木１丁目３６番１号オダカビル３階,,13,113,1510053,,,2025-01-06,合併による解散等,5011001125086,令和７年１月１日東京都渋谷区代々木一丁目３６番１号オダカビル３階ダイタンイート株式会社（5011001125086）に合併し解散,2018-11-08,1,,,,,イケブクロダイタンフード,0
1609,7011501015058,登記記録の閉鎖等,0,2025-02-14,2025-02-10,株式会社ロバスト,,株式会社,東京都,荒川区,西日暮里６丁目２７番３号,,13,118,1160013,,,2025-02-10,清算の結了等,,,2015-10-05,1,,,,,ロバスト,0
1619,7012302004472,登記記録の閉鎖等,0,2025-02-14,2025-02-10,有限会社町田園芸,,有限会社,東京都,町田市,野津田町９２５番地,,13,209,1950063,,,2025-02-10,清算の結了等,,,2015-10-05,1,,,,,マチダエンゲイ,0
1633,7020002072995,登記記録の閉鎖等,0,2025-02-14,2025-01-14,有限会社クリート,,有限会社,神奈川県,横浜市鶴見区,寺谷２丁目１５番６－１号,,14,101,2300015,,,2025-01-14,清算の結了等,,,2015-10-05,1,,,,,クリート,0
1648,7030002120068,登記記録の閉鎖等,0,2025-02-14,2025-02-06,有限会社大沢洋品店,,有限会社,埼玉県,日高市,大字高萩６０９番地,,11,242,3501213,,,2025-02-06,清算の結了等,,,2015-10-05,1,,,,,オオサワヨウヒンテン,0
1668,7050001048151,登記記録の閉鎖等,0,2025-02-14,2025-01-30,株式会社オカラボ,,株式会社,茨城県,ひたちなか市,大字武田５７０番地,,08,221,3120025,,,2025-01-30,清算の結了等,,,2020-10-06,1,,,,,,0
1676,7080002013853,登記記録の閉鎖等,0,2025-02-14,2025-02-12,有限会社波多野永生堂薬局,,有限会社,静岡県,島田市,本通１丁目４６９５番地の２,,22,209,4270022,,,2025-02-12,清算の結了等,,,2015-10-05,1,,,,,ハタノエイセイドウヤッキョク,0
1680,7100002015095,登記記録の閉鎖等,0,2025-02-14,2025-02-06,有限会社コジマ,,有限会社,長野県,上田市,菅平高原１２２３番地５４３,,20,203,3862204,,,2025-02-06,清算の結了等,,,2015-10-05,1,,,,,コジマ,0
1701,7120901018171,登記記録の閉鎖等,0,2025-02-14,2025-02-06,株式会社ナカノ,,株式会社,大阪府,吹田市,古江台３丁目４番１－９１６号,,27,205,5650874,,,2025-02-06,清算の結了等,,,2015-10-05,1,,,,,ナカノ,0
1703,7120902009905,登記記録の閉鎖等,0,2025-02-14,2025-02-06,有限会社亀八寿司,,有限会社,大阪府,高槻市,高槻町９番２１号,,27,207,5690803,,,2025-02-06,清算の結了等,,,2015-10-05,1,,,,,カメハチズシ,0
1715,7140001026395,登記記録の閉鎖等,0,2025-02-14,2025-02-07,イーライリリー・ダイアビィティズ・ドメイン株式会社,,株式会社,兵庫県,神戸市中央区,磯上通５丁目１番２８号,,28,110,6510086,,,2025-02-07,清算の結了等,,,2015-10-05,1,,,,,イーライリリーダイアビィティズドメイン,0
1727,7180002064028,登記記録の閉鎖等,0,2025-02-14,2025-02-06,有限会社シキタ商工,,有限会社,愛知県,豊明市,間米町敷田１２２５番地の３３０,,23,229,4701132,,,2025-02-06,清算の結了等,,,2015-10-05,1,,,,,シキタショウコウ,0
1739,7240002007335,登記記録の閉鎖等,0,2025-02-14,2025-02-12,有限会社ジー・シー・ピー・アール,,有限会社,広島県,広島市東区,上温品１丁目２番２５号,,34,102,7320032,,,2025-02-12,清算の結了等,,,2015-10-05,1,,,,,,0
1745,7290001018304,登記記録の閉鎖等,0,2025-02-14,2025-01-24,株式会社データリンク,,株式会社,福岡県,福岡市中央区,薬院４丁目３番５号セレス薬院６階,,40,133,8100022,,,2025-01-24,清算の結了等,,,2015-10-05,1,,,,,データリンク,0
1747,7290001057319,登記記録の閉鎖等,0,2025-02-14,2025-01-28,株式会社シエル,,株式会社,福岡県,福岡市城南区,鳥飼５丁目１８－６－１０１,,40,136,8140103,,,2025-01-28,清算の結了等,,,2015-10-05,1,,,,,シエル,0
1750,7290002017189,登記記録の閉鎖等,0,2025-02-14,2025-01-29,有限会社福岡コミュニケーションセンター,,有限会社,福岡県,福岡市博多区,博多駅東２丁目５番３７号博多ニッコービル５階,,40,132,8120013,,,2025-01-29,清算の結了等,,,2015-10-05,1,,,,,フクオカコミュニケーションセンター,0
1763,7330001010099,登記記録の閉鎖等,0,2025-02-14,2025-02-07,株式会社冨永教育経営研究所,,株式会社,熊本県,合志市,須屋１９２１番地２,,43,216,8611102,,,2025-02-07,清算の結了等,,,2015-10-05,1,,,,,,0
1776,7370001031703,登記記録の閉鎖等,0,2025-02-14,2025-02-10,シンエイ・ファシリティーズ株式会社,,株式会社,宮城県,仙台市青葉区,春日町１１番２号,,04,101,9800821,,,2025-02-10,清算の結了等,,,2015-10-05,1,,,,,シンエイファシリティーズ,0
1779,7370801001104,登記記録の閉鎖等,0,2025-02-14,2025-02-10,株式会社Ｂｅｎｉｎｏ,,株式会社,宮城県,亘理郡亘理町,逢隈高屋字柴北９５番地１,00081674,04,361,9892324,,,2025-02-10,清算の結了等,,,2015-10-05,1,,,,,ベニーノ,0
1801,7700150126798,削除,,2025-02-14,,,,,,,,,,,,,,,,,,,,,,,,,
1806,8010001109055,登記記録の閉鎖等,0,2025-02-14,2025-02-07,株式会社トリムメディカルホールディングス,,株式会社,大阪府,大阪市北区,大淀中１丁目８番３４号,,27,127,5310076,,,2025-02-07,合併による解散等,8120001072952,令和７年２月１日大阪市北区大淀中一丁目８番３４号株式会社日本トリム（8120001072952）に合併し解散,2015-10-05,1,,,,,トリムメディカルホールディングス,0
1810,8010001141306,登記記録の閉鎖等,0,2025-02-14,2025-02-06,株式会社布袋長,,株式会社,埼玉県,草加市,神明１丁目８番８号,,11,221,3400012,,,2025-02-06,清算の結了等,,,2015-10-05,1,,,,,ホテイチョウ,0
1819,8010005034761,登記記録の閉鎖等,0,2025-02-14,2025-02-10,ＲＢソーラーシャインホールディングス一般社団法人,,その他の設立登記法人,東京都,千代田区,麹町２丁目８番地ＭＬＣ麹町ビル４階フィンポート税理士法人内,,13,101,1020083,,,2025-02-10,清算の結了等,,,2022-03-22,1,,,,,アールビーソーラーシャインホールディングス,0
1831,8010401184607,登記記録の閉鎖等,0,2025-02-14,2024-12-27,株式会社ｔｈｅ　ｆｉｒｓｔ　ｖｅｓｓｅｌ,,株式会社,東京都,港区,南青山２丁目１４番１４号,,13,103,1070062,,,2024-12-27,清算の結了等,,,2024-08-19,1,,,,,ザファーストベッセル,0
1833,8010403023853,登記記録の閉鎖等,0,2025-02-14,2025-01-24,ＳＣＧ６２合同会社,,合同会社,東京都,港区,虎ノ門２丁目６番１号,,13,103,1050001,,,2025-01-24,清算の結了等,,,2020-10-05,1,,,,,エスシージーシックスティツー,0
1837,8010405017597,登記記録の閉鎖等,0,2025-02-14,2025-01-24,一般社団法人欲しかった暮らしをしよう２,,その他の設立登記法人,東京都,港区,赤坂７丁目６番１５号,,13,103,1070052,,,2025-01-24,清算の結了等,,,2019-04-02,1,,,,,ホシカッタクラシヲシヨウツー,0
1878,8011801039193,登記記録の閉鎖等,0,2025-02-14,2025-02-04,株式会社建雄,,株式会社,東京都,足立区,大谷田５丁目１０番３,,13,121,1200001,,,2025-02-04,清算の結了等,,,2021-05-25,1,,,,,ケンユウ,0
1884,8020001083571,登記記録の閉鎖等,0,2025-02-14,2025-01-29,株式会社カラン,,株式会社,神奈川県,横浜市鶴見区,東寺尾中台２４番６号,,14,101,2300017,,,2025-01-29,清算の結了等,,,2015-10-05,1,,,,,カラン,0
1885,8020001117577,登記記録の閉鎖等,0,2025-02-14,2025-02-10,株式会社ジーティーライン,,株式会社,東京都,江戸川区,中葛西５丁目７番１５号,,13,123,1340083,,,2025-02-10,清算の結了等,,,2016-08-23,1,,,,,ジーティーライン,0
1894,8020002018114,登記記録の閉鎖等,0,2025-02-14,2025-01-29,有限会社入江商店,,有限会社,神奈川県,横浜市港南区,芹が谷１丁目２番５号,,14,111,2330006,,,2025-01-29,清算の結了等,,,2015-10-05,1,,,,,,0
1905,8021002002677,登記記録の閉鎖等,0,2025-02-14,2025-02-13,有限会社修文堂,,有限会社,神奈川県,藤沢市,藤沢５５６番地,,14,205,2510052,,,2025-02-13,清算の結了等,,,2015-10-05,1,,,,,シュウブンドウ,0
1908,8021003009977,登記記録の閉鎖等,0,2025-02-14,2025-02-14,合同会社小松製作所,,合同会社,神奈川県,横須賀市,久里浜７丁目２番１－２１４号,,14,201,2390831,,,2025-02-14,清算の結了等,,,2020-12-24,1,,,,,コマツセイサクショ,0
1915,8030002084411,登記記録の閉鎖等,0,2025-02-14,2025-02-06,有限会社南風,,有限会社,埼玉県,鴻巣市,新宿１丁目５番地３,,11,217,3690111,,,2025-02-06,清算の結了等,,,2015-10-05,1,,,,,ミナミカゼ,0
1916,8030002092785,登記記録の閉鎖等,0,2025-02-14,2025-02-06,橋本商事有限会社,,有限会社,埼玉県,坂戸市,清水町４６番２号,,11,239,3500222,,,2025-02-06,清算の結了等,,,2015-10-05,1,,,,,ハシモトショウジ,0
1928,8040002070162,登記記録の閉鎖等,0,2025-02-14,2025-02-05,有限会社タナカ,,有限会社,千葉県,君津市,東坂田２丁目４番１号,,12,225,2991144,,,2025-02-05,清算の結了等,,,2015-10-05,1,,,,,タナカ,0
1938,8080103001632,登記記録の閉鎖等,0,2025-02-14,2025-02-10,合同会社Ｈ＆Ｙ,,合同会社,静岡県,伊東市,南町２丁目４番１９号,,22,208,4140035,,,2025-02-10,清算の結了等,,,2017-01-13,1,,,,,エイチアンドワイ,0
1939,8080402009062,登記記録の閉鎖等,0,2025-02-14,2025-02-05,有限会社蓮華,,有限会社,静岡県,浜松市中央区,初生町７６５番地の４,,22,138,4338112,,,2025-02-05,清算の結了等,,,2015-10-05,1,,,,,レンゲ,0
1949,8120001140998,登記記録の閉鎖等,0,2025-02-14,2025-02-07,十七八株式会社,,株式会社,大阪府,大阪市西区,阿波座１丁目３番１５号,,27,106,5500011,,,2025-02-07,清算の結了等,,,2015-10-05,1,,,,,トナハチ,0
1981,8130001000862,登記記録の閉鎖等,0,2025-02-14,2025-02-07,株式会社さら,,株式会社,京都府,京都市右京区,山ノ内西裏町１５番地の６７,,26,108,6150071,,,2025-02-07,合併による解散等,7010001238020,令和７年１月２６日東京都千代田区丸の内一丁目６番１号株式会社ＳＲホールディングス（7010001238020）に合併し解散,2015-10-05,1,,,,,サラ,0
2009,8180002086062,登記記録の閉鎖等,0,2025-02-14,2025-02-07,澤田組有限会社,,有限会社,愛知県,常滑市,古場町５丁目２４番地,,23,216,4790818,,,2025-02-07,清算の結了等,,,2015-10-05,1,,,,,サワダグミ,0
2015,8190001030210,登記記録の閉鎖等,0,2025-02-14,2025-02-10,株式会社みらいストーリー,,株式会社,三重県,鈴鹿市,神戸地子町２７６番２号,,24,207,5130801,,,2025-02-10,清算の結了等,,,2023-03-10,1,,,,,ミライストーリー,0
2020,8220001024365,登記記録の閉鎖等,0,2025-02-14,2025-02-06,三豊技研株式会社,,株式会社,石川県,金沢市,平和町２丁目２８番７６号,,17,201,9218105,,,2025-02-06,清算の結了等,,,2021-08-13,1,,,,,ミツトヨギケン,0
2031,8290001085509,登記記録の閉鎖等,0,2025-02-14,2025-01-27,株式会社Ｃ＆Ｈコネクトｃｏ．,,株式会社,福岡県,福岡市博多区,諸岡５丁目２３番６号池の上ハイツ１０２号,,40,132,8120894,,,2025-01-27,清算の結了等,,,2019-06-07,1,,,,,シーアンドエイチコネクト,0
2032,8290001098766,登記記録の閉鎖等,0,2025-02-14,2025-01-31,ＫＡＳＨＩＭＵＲＡ不動産レジデンス株式会社,,株式会社,福岡県,福岡市中央区,白金１丁目２１番１３号３階,,40,133,8100012,,,2025-01-31,合併による解散等,8290001071987,令和６年１１月３０日福岡市中央区白金一丁目２１番１３号３階株式会社カシムラホールディングス（8290001071987）に合併し解散,2022-09-01,1,,,,,カシムラフドウサンレジデンス,0
2037,8290002020778,登記記録の閉鎖等,0,2025-02-14,2025-01-29,有限会社オフィス　ミス・ケイ,,有限会社,福岡県,福岡市中央区,那の川２丁目１１番１０－７０４号,,40,133,8100015,,,2025-01-29,清算の結了等,,,2015-10-05,1,,,,,オフィスミスケイ,0
2063,8380001026305,登記記録の閉鎖等,0,2025-02-14,2025-02-06,株式会社ドリームコーポレーション,,株式会社,福島県,石川郡古殿町,大字竹貫字立町６番地１,,07,505,9638305,,,2025-02-06,清算の結了等,,,2016-01-07,1,,,,,,0
2067,8390001007790,登記記録の閉鎖等,0,2025-02-14,2025-02-10,株式会社ブレーントラスト,,株式会社,山形県,鶴岡市,民田字十二前２７番地,,06,203,9970361,,,2025-02-10,清算の結了等,,,2015-10-05,1,,,,,ブレーントラスト,0
2068,8400001015263,登記記録の閉鎖等,0,2025-02-14,2025-02-03,株式会社ネクサスインターナショナル,,株式会社,岩手県,花巻市,北湯口第１地割４６番地４０,,03,205,0250301,,,2025-02-03,合併による解散等,3370001024124,令和７年２月１日岩手県花巻市北湯口第１地割４６番地４０株式会社ネクサス（3370001024124）に合併し解散,2021-01-06,1,,,,,ネクサスインターナショナル,0
2069,8410001009784,登記記録の閉鎖等,0,2025-02-14,2025-02-07,株式会社小林水産販売,,株式会社,秋田県,潟上市,天王字北野１３０番地３７,,05,211,0100201,,,2025-02-07,清算の結了等,,,2015-10-05,1,,,,,コバヤシスイサンハンバイ,0
2072,8420002019781,登記記録の閉鎖等,0,2025-02-14,2025-02-10,有限会社ハヤシ宅建,,有限会社,青森県,むつ市,新町４７番１４号,,02,208,0350051,,,2025-02-10,清算の結了等,,,2015-10-05,1,,,,,ハヤシタッケン,0
2080,8450002004079,登記記録の閉鎖等,0,2025-02-14,2025-02-10,有限会社中村商店,,有限会社,北海道,札幌市手稲区,富丘三条２丁目５番１３号,,01,109,0060013,,,2025-02-10,清算の結了等,,,2015-10-05,1,,,,,ナカムラショウテン,0
2086,8500002016242,登記記録の閉鎖等,0,2025-02-14,2025-02-04,有限会社ケインズ,,有限会社,愛媛県,新居浜市,西連寺町２丁目５番６号,,38,205,7920831,,,2025-02-04,清算の結了等,,,2015-10-05,1,,,,,,0
2100,9010003032923,登記記録の閉鎖等,0,2025-02-14,2025-02-03,合同会社ＫＲＦ９３,,合同会社,東京都,千代田区,内幸町２丁目１番６号,,13,101,1000011,,,2025-02-03,清算の結了等,,,2020-08-31,1,,,,,ケイアールエフナインティスリー,0
2109,9010401179135,登記記録の閉鎖等,0,2025-02-14,2025-01-22,Ｈｉｒａｋｕ．ａｉ株式会社,,株式会社,東京都,港区,東麻布１丁目２２番１－８０３号,,13,103,1060044,,,2025-01-22,清算の結了等,,,2023-12-13,1,,,,,ヒラクドットエーアイ,0
2114,9010405004644,登記記録の閉鎖等,0,2025-02-14,2025-02-12,特定非営利活動法人健康食品フォーラム,,その他の設立登記法人,東京都,中央区,京橋２丁目６番６号藤木ビル５階,,13,102,1040031,,,2025-02-12,清算の結了等,,,2015-10-05,1,,,,,ケンコウショクヒンフォーラム,0
2115,9010405016697,登記記録の閉鎖等,0,2025-02-14,2025-01-24,ＫＹＵＴＡＲＯ特定目的会社,,その他の設立登記法人,東京都,港区,元赤坂１丁目１番７号,,13,103,1070051,,,2025-01-24,清算の結了等,,,2018-05-09,1,,,,,キュウタロウ,0
2116,9010501010959,登記記録の閉鎖等,0,2025-02-14,2025-01-20,株式会社ハセガワ,,株式会社,東京都,大田区,西蒲田７丁目２２番４号,,13,111,1440051,,,2025-01-20,清算の結了等,,,2015-10-05,1,,,,,ハセガワ,0
2119,9010601058295,登記記録の閉鎖等,0,2025-02-14,2025-02-12,浩博株式会社,,株式会社,大阪府,大阪市生野区,田島５丁目１９－７－２号室,,27,116,5440011,,,2025-02-12,清算の結了等,,,2020-11-13,1,,,,,コウハク,0
2120,9010601063725,登記記録の閉鎖等,0,2025-02-14,2025-02-12,株式会社石史,,株式会社,東京都,墨田区,太平３丁目１１番２号２０８,,13,107,1300012,,,2025-02-12,清算の結了等,,,2023-09-15,1,,,,,イシシ,0
2129,9010901051487,登記記録の閉鎖等,0,2025-02-14,2025-02-10,株式会社Ｗａｑｏｏメディカルサポート,,株式会社,東京都,世田谷区,上馬２丁目１４番１号,,13,112,1540011,,,2025-02-10,清算の結了等,,,2022-08-26,1,,,,,ワクーメディカルサポート,0
2141,9011102003410,登記記録の閉鎖等,0,2025-02-14,2025-02-04,有限会社河村紙工所,,有限会社,東京都,新宿区,西落合１丁目１７番１８号,,13,104,1610031,,,2025-02-04,清算の結了等,,,2015-10-05,1,,,,,,0
2151,9012701000442,登記記録の閉鎖等,0,2025-02-14,2025-02-07,新発田建設株式会社,,株式会社,東京都,小平市,花小金井４丁目１３番１１号,,13,211,1870002,,,2025-02-07,清算の結了等,,,2015-10-05,1,,,,,,0
2154,9020001060941,登記記録の閉鎖等,0,2025-02-14,2025-01-29,株式会社タケショウ,,株式会社,神奈川県,横浜市戸塚区,平戸２丁目８番１４－Ａ号,,14,110,2440802,,,2025-01-29,清算の結了等,,,2015-10-05,1,,,,,タケショウ,0
2168,9030002043738,登記記録の閉鎖等,0,2025-02-14,2025-02-05,柏産業有限会社,,有限会社,埼玉県,草加市,金明町２９６番地１,,11,221,3400052,,,2025-02-05,清算の結了等,,,2015-10-05,1,,,,,カシワサンギョウ,0
2218,9120903003104,登記記録の閉鎖等,0,2025-02-14,2025-02-06,バレルアセットマネジメント合同会社,,合同会社,大阪府,吹田市,古江台３丁目７番２２－６０２号,,27,205,5650874,,,2025-02-06,清算の結了等,,,2020-01-24,1,,,,,バレルアセットマネジメント,0
2227,9140001026393,登記記録の閉鎖等,0,2025-02-14,2025-02-07,イーライリリー・ＧＨ・ドメイン株式会社,,株式会社,兵庫県,神戸市中央区,磯上通５丁目１番２８号,,28,110,6510086,,,2025-02-07,清算の結了等,,,2015-10-05,1,,,,,イーライリリージィエイチドメイン,0
2246,9180302000597,登記記録の閉鎖等,0,2025-02-14,2025-02-07,有限会社大嶋石材商店,,有限会社,愛知県,岡崎市,中町字大門通１９番地,,23,202,4440015,,,2025-02-07,清算の結了等,,,2015-10-05,1,,,,,オオシマセキザイショウテン,0
2252,9190002006984,登記記録の閉鎖等,0,2025-02-14,2025-02-10,古市木工有限会社,,有限会社,三重県,鈴鹿市,白子１丁目９番９号,,24,207,5100243,,,2025-02-10,清算の結了等,,,2015-10-05,1,,,,,フルイチモッコウ,0
2253,9210001017187,登記記録の閉鎖等,0,2025-02-14,2025-02-13,株式会社アイディ,,株式会社,福井県,福井市,成和２丁目９０４番地１,,18,201,9188239,,,2025-02-13,清算の結了等,,,2018-06-19,1,,,,,アイディ,0
2257,9240001023554,登記記録の閉鎖等,0,2025-02-14,2025-02-10,ＨＰＥＳシステム株式会社,,株式会社,広島県,東広島市,高屋高美が丘３丁目７番３号,,34,212,7392115,,,2025-02-10,清算の結了等,,,2015-10-05,1,,,,,エイチピーイーエスシステム,0
2260,9240002052387,登記記録の閉鎖等,0,2025-02-14,2025-02-10,グリーンサンコウ有限会社,,有限会社,広島県,尾道市,瀬戸田町宮原５２３番地の２,,34,205,7222402,,,2025-02-10,清算の結了等,,,2015-10-05,1,,,,,グリーンサンコウ,0
2266,9290001021371,登記記録の閉鎖等,0,2025-02-14,2025-01-30,株式会社フジショウ,,株式会社,福岡県,福岡市博多区,博多駅前２丁目１０番１９号,,40,132,8120011,,,2025-01-30,清算の結了等,,,2015-10-05,1,,,,,,0
2295,9380001028903,登記記録の閉鎖等,0,2025-02-14,2025-02-06,株式会社なんごう建設,,株式会社,福島県,南会津郡南会津町,界字十分取２２８６番地,,07,368,9670631,,,2025-02-06,清算の結了等,,,2018-03-06,1,,,,,ナンゴウケンセツ,0
2303,9460102002526,登記記録の閉鎖等,0,2025-02-14,2025-02-07,有限会社日産火災十勝総代理店,,有限会社,北海道,帯広市,東一条南１１丁目１０番地,,01,207,0800801,,,2025-02-07,清算の結了等,,,2015-10-05,1,,,,,ニッサンカサイトカチソウダイリテン,0
2306,9490001006484,登記記録の閉鎖等,0,2025-02-14,2025-02-10,大三株式会社,,株式会社,高知県,香南市,赤岡町２２５８番地３,,39,211,7815310,,,2025-02-10,合併による解散等,8500001008439,令和７年２月１日愛媛県八幡浜市松柏丙８３１番地丸三産業株式会社（8500001008439）に合併し解散,2015-10-05,1,,,,,ダイサン,0
