sequenceNumber,corporateNumber,process,correct,updateDate,changeDate,name,nameImageId,kind,prefectureName,cityName,streetNumber,addressImageId,prefectureCode,cityCode,postCode,addressOutside,addressOutsideImageId,closeDate,closeCause,successorCorporateNumber,changeCause,assignmentDate,latest,enName,enPrefectureName,enCityName,enAddressOutside,furigana,hihyoji
5,1010001066906,登記記録の閉鎖等,0,2024-04-08,2024-04-01,オークラヤビーピーエス株式会社,,株式会社,東京都,千代田区,麹町４丁目５番地２２,,13,101,1020083,,,2024-04-01,合併による解散等,4011101003779,令和６年４月１日東京都千代田区麹町四丁目５番地２２オークラヤ住宅株式会社（4011101003779）に合併し解散,2015-10-05,1,,,,,オークラヤビーピーエス,0
7,1010001077473,登記記録の閉鎖等,0,2024-04-08,2024-04-01,株式会社エヌ・ティ・ティ・データ・オーロラ,,株式会社,東京都,渋谷区,千駄ヶ谷１丁目１４番５号,,13,113,1510051,,,2024-04-01,合併による解散等,9011001038945,令和６年４月１日東京都渋谷区千駄ヶ谷一丁目１４番５号株式会社エヌ・ティ・ティ・データ・ウェーブ（9011001038945）に合併し解散,2015-10-05,1,,,,,エヌティティデータオーロラ,0
20,1010001224249,登記記録の閉鎖等,0,2024-04-08,2024-03-29,株式会社Ｃｌｏｕｄｉｖｅ,,株式会社,東京都,江東区,豊洲５丁目６番２９－１３１０号,,13,108,1350061,,,2024-03-29,清算の結了等,,,2022-02-02,1,,,,,クラウディブ,0
39,1010401118629,登記記録の閉鎖等,0,2024-04-08,2024-03-29,株式会社Ｃｉｅｌ,,株式会社,東京都,港区,六本木５丁目１８番１号,,13,103,1060032,,,2024-03-29,清算の結了等,,,2015-10-05,1,,,,,シエル,0
57,1010603009485,登記記録の閉鎖等,0,2024-04-08,2024-03-29,芽面都合同会社,,合同会社,東京都,新宿区,西新宿３丁目３番１３号西新宿水間ビル２階,,13,104,1600023,,,2024-03-29,清算の結了等,,,2022-04-11,1,,,,,メメント,0
76,1011101033754,登記記録の閉鎖等,0,2024-04-08,2024-04-01,ライフサポート株式会社,,株式会社,東京都,新宿区,河田町３番１０号,,13,104,1620054,,,2024-04-01,合併による解散等,4011101029023,令和６年４月１日東京都新宿区市谷仲之町３番１９号ミアヘルサ株式会社（4011101029023）に合併し解散,2015-10-05,1,,,,,ライフサポート,0
106,1013301039597,登記記録の閉鎖等,0,2024-04-08,2024-04-01,株式会社Ｂｅｓｔ　Ｄｅｌｉｇｈｔ　Ｃｈｉｂａ,,株式会社,大阪府,大阪市都島区,中野町１丁目１３番４号,,27,102,5340027,,,2024-04-01,合併による解散等,6120001180212,令和６年４月１日大阪市都島区中野町一丁目１３番４号株式会社Ｂｅｓｔ　Ｄｅｌｉｇｈｔ　Ｇｒｏｕｐ（6120001180212）に合併し解散,2016-10-31,1,,,,,ベストディライトチバ,0
112,1020001042212,登記記録の閉鎖等,0,2024-04-08,2024-04-02,株式会社いちよし不動産,,株式会社,静岡県,浜松市浜名区,引佐町井伊谷１２５３番地の１１,,22,139,4312212,,,2024-04-02,清算の結了等,,,2015-10-05,1,,,,,イチヨシフドウサン,0
121,1020003020736,登記記録の閉鎖等,0,2024-04-08,2024-04-01,合同会社ＳＵＮ,,合同会社,神奈川県,川崎市川崎区,砂子２丁目８番１０号ジャパンビル２Ｄ号室,,14,131,2100006,,,2024-04-01,清算の結了等,,,2021-11-02,1,,,,,サン,0
133,1030001044315,登記記録の閉鎖等,0,2024-04-08,2024-04-01,ＲＣクリエイト株式会社,,株式会社,埼玉県,上尾市,愛宕２丁目２番３号,,11,219,3620034,,,2024-04-01,清算の結了等,,,2015-10-05,1,,,,,アールシークリエイト,0
150,1040001059502,登記記録の閉鎖等,0,2024-04-08,2024-04-01,保川建設株式会社,,株式会社,千葉県,茂原市,長谷１０７４番地１,,12,210,2970063,,,2024-04-01,合併による解散等,8040001059586,令和６年４月１日千葉県茂原市茂原１０４７番地９株式会社小沢工務店（8040001059586）に合併し解散,2015-10-05,1,,,,,ヤスカワケンセツ,0
177,1080401026973,登記記録の閉鎖等,0,2024-04-08,2024-04-01,株式会社Ｔ＆Ｍ,,株式会社,静岡県,磐田市,豊岡６１１５番地の５,,22,211,4380231,,,2024-04-01,合併による解散等,1080401016628,令和６年４月１日静岡県磐田市豊岡６１１５番地の５ＳＭＴ株式会社（1080401016628）に合併し解散,2024-01-29,1,,,,,ティーアンドエム,0
182,1090001013322,登記記録の閉鎖等,0,2024-04-08,2024-04-03,株式会社御宿箱根八里の湯,,株式会社,神奈川県,足柄下郡箱根町,宮城野１１６番地,,14,382,2500401,,,2024-04-03,清算の結了等,,,2015-10-05,1,,,,,オヤドハコネハチリノユ,0
207,1130001007476,登記記録の閉鎖等,0,2024-04-08,2024-04-01,株式会社八百民,,株式会社,京都府,京都市左京区,山端川原町１番地,,26,103,6068003,,,2024-04-01,合併による解散等,4130001006450,令和６年４月１日京都市左京区山端川原町１番地酒井産業株式会社（4130001006450）に合併し解散,2015-10-05,1,,,,,ヤオタミ,0
216,1140001040526,登記記録の閉鎖等,0,2024-04-08,2024-04-02,双和興産株式会社,,株式会社,兵庫県,たつの市,御津町朝臣８５４番地,,28,229,6711342,,,2024-04-02,清算の結了等,,,2015-10-05,1,,,,,ソウワコウサン,0
219,1140001070804,登記記録の閉鎖等,0,2024-04-08,2024-04-01,株式会社隆盛ゼミナール,,株式会社,兵庫県,西宮市,甲風園１丁目５番５号,,28,204,6620832,,,2024-04-01,清算の結了等,,,2015-10-05,1,,,,,リュウセイゼミナール,0
242,1180001083249,登記記録の閉鎖等,0,2024-04-08,2024-04-01,株式会社徳永建築,,株式会社,愛知県,一宮市,大和町毛受字浜田４３番地の３,,23,203,4910932,,,2024-04-01,清算の結了等,,,2015-10-05,1,,,,,トクナガケンセツ,0
243,1180001115373,登記記録の閉鎖等,0,2024-04-08,2024-04-01,株式会社エポック,,株式会社,愛知県,春日井市,西山町大池１６３０番５,,23,206,4860803,,,2024-04-01,合併による解散等,5180002066240,令和６年４月１日愛知県春日井市西山町大池１６３０番５株式会社下村仮設工業（5180002066240）に合併し解散,2015-10-05,1,,,,,エポック,0
269,1240002051660,登記記録の閉鎖等,0,2024-04-08,2024-04-01,有限会社桃谷,,有限会社,広島県,尾道市,神田町１番１５－４号,,34,205,7220016,,,2024-04-01,清算の結了等,,,2015-10-05,1,,,,,モモタニ,0
274,1260001018832,登記記録の閉鎖等,0,2024-04-08,2024-04-01,株式会社井原セフティ,,株式会社,岡山県,井原市,西江原町３３０３番地５,,33,207,7150006,,,2024-04-01,合併による解散等,7260001008092,令和６年４月１日岡山市北区東古松三丁目１１番１２号株式会社さくら警備保障（7260001008092）に合併し解散,2015-10-05,1,,,,,イバラセフティ,0
301,1320002016663,登記記録の閉鎖等,0,2024-04-08,2024-04-01,有限会社広栄工業,,有限会社,大分県,佐伯市,中の島３丁目９番６号,,44,205,8760843,,,2024-04-01,清算の結了等,,,2015-10-05,1,,,,,,0
303,1320002020541,登記記録の閉鎖等,0,2024-04-08,2024-04-01,有限会社角青果,,有限会社,大分県,中津市,丸山町２０番地の１,,44,203,8710047,,,2024-04-01,清算の結了等,,,2015-10-05,1,,,,,スミセイカ,0
318,1360001004293,登記記録の閉鎖等,0,2024-04-08,2024-04-01,株式会社オキチュウ,,株式会社,沖縄県,中頭郡西原町,字小那覇９５８番地,,47,329,9030103,,,2024-04-01,合併による解散等,6360001004306,令和６年４月１日沖縄県中頭郡西原町字小那覇９５８番地沖縄鋳鉄工業株式会社（6360001004306）に合併し解散,2015-10-05,1,,,,,オキチュウ,0
330,1390002009149,登記記録の閉鎖等,0,2024-04-08,2024-04-01,有限会社大滝製餡所,,有限会社,山形県,鶴岡市,本町３丁目９番１７号,,06,203,9970034,,,2024-04-01,清算の結了等,,,2015-10-05,1,,,,,オオタキセイアンショ,0
338,1430001049505,登記記録の閉鎖等,0,2024-04-08,2024-04-02,株式会社ライトナウ,,株式会社,北海道,札幌市中央区,南七条西４丁目４２４番地１２,,01,101,0640807,,,2024-04-02,清算の結了等,,,2015-10-05,1,,,,,ライトナウ,0
349,1460302004627,登記記録の閉鎖等,0,2024-04-08,2024-04-01,有限会社三晃測地設計,,有限会社,北海道,網走郡大空町,女満別西一条４丁目２番２８号,,01,564,0992321,,,2024-04-01,合併による解散等,4460302000755,令和６年４月１日北海道北見市田端町７４番７株式会社三晃測地設計（4460302000755）に合併し解散,2015-10-05,1,,,,,サンコウソクチセッケイ,0
357,1490002007679,登記記録の閉鎖等,0,2024-04-08,2024-04-02,有限会社くろしお保険事務所,,有限会社,高知県,高知市,神田８５５番地１７,,39,201,7808040,,,2024-04-02,清算の結了等,,,2015-10-05,1,,,,,クロシオホケンジムショ,0
370,2010001142813,登記記録の閉鎖等,0,2024-04-08,2024-04-01,日鉄総研株式会社,,株式会社,東京都,千代田区,大手町１丁目６番１号,,13,101,1000004,,,2024-04-01,合併による解散等,5140001049415,令和６年４月１日東京都千代田区大手町一丁目６番１号日鉄テクノロジー株式会社（5140001049415）に合併し解散,2015-10-05,1,,,,,ニッテツソウケン,0
390,2010003030867,登記記録の閉鎖等,0,2024-04-08,2024-03-29,合同会社強羅,,合同会社,東京都,千代田区,霞が関３丁目２番５号,,13,101,1000013,,,2024-03-29,清算の結了等,,,2019-10-21,1,,,,,ゴウラ,0
391,2010003033960,登記記録の閉鎖等,0,2024-04-08,2024-03-29,合同会社ＪＲＷＥＳＴファンド第１号,,合同会社,東京都,中央区,日本橋１丁目４番１号日本橋一丁目ビルディング,,13,102,1030027,,,2024-03-29,清算の結了等,,,2021-01-26,1,,,,,ジェイアールウエストファンドダイイチゴウ,0
392,2010003038646,登記記録の閉鎖等,0,2024-04-08,2024-04-01,クイントエース合同会社,,合同会社,東京都,中央区,銀座１丁目２２番１１号銀座大竹ビジデンス２階,,13,102,1040061,,,2024-04-01,清算の結了等,,,2022-09-13,1,,,,,クイントエース,0
395,2010005031293,登記記録の閉鎖等,0,2024-04-08,2024-04-01,一般社団法人勝どき橋ホールディングス,,その他の設立登記法人,東京都,千代田区,丸の内３丁目１番１号東京共同会計事務所内,,13,101,1000005,,,2024-04-01,清算の結了等,,,2020-01-14,1,,,,,カチドキバシホールディングス,0
404,2010401154524,登記記録の閉鎖等,0,2024-04-08,2024-03-28,日本フローテック株式会社,,株式会社,東京都,港区,愛宕１丁目６－８小西ビル２Ｆ,,13,103,1050002,,,2024-03-28,清算の結了等,,,2020-08-17,1,,,,,ニホンフローテック,0
421,2010801008619,登記記録の閉鎖等,0,2024-04-08,2024-03-29,株式会社直井工務店,,株式会社,東京都,大田区,下丸子１丁目１３番４号,,13,111,1460092,,,2024-03-29,清算の結了等,,,2015-10-05,1,,,,,ナオイコウムテン,0
441,2011401004826,登記記録の閉鎖等,0,2024-04-08,2024-03-29,株式会社中川医科器械,,株式会社,東京都,板橋区,大谷口北町１８番５号,,13,119,1730031,,,2024-03-29,清算の結了等,,,2015-10-05,1,,,,,ナカガワイカキカイ,0
449,2011801012115,登記記録の閉鎖等,0,2024-04-08,2024-04-01,丸孝企画株式会社,,株式会社,東京都,足立区,鹿浜４丁目６番１５号,,13,121,1230864,,,2024-04-01,合併による解散等,4011801012113,令和６年４月１日東京都足立区鹿浜四丁目６番１５号丸孝運輸倉庫株式会社（4011801012113）に合併し解散,2015-10-05,1,,,,,マルコウキカク,0
463,2020001093766,登記記録の閉鎖等,0,2024-04-08,2024-04-01,株式会社アンカープライド向ヶ丘遊園,,株式会社,神奈川県,川崎市多摩区,宿河原３丁目２３番４０号,,14,135,2140021,,,2024-04-01,合併による解散等,7020001051728,令和６年４月１日川崎市多摩区宿河原三丁目２３番４０号株式会社アンカープライド（7020001051728）に合併し解散,2015-10-05,1,,,,,アンカープライドムコウガオカユウエン,0
493,2030001088179,登記記録の閉鎖等,0,2024-04-08,2024-04-01,株式会社高橋園芸,00015527,株式会社,埼玉県,深谷市,常盤町６１番地７,,11,218,3660034,,,2024-04-01,清算の結了等,,,2015-10-05,1,,,,,,0
495,2030001106634,登記記録の閉鎖等,0,2024-04-08,2024-03-29,ＧＴＮ株式会社,,株式会社,東京都,文京区,本駒込３丁目３１番１－１５０１号,,13,105,1130021,,,2024-03-29,清算の結了等,,,2015-10-05,1,,,,,ジーティーエヌ,0
501,2030002022517,登記記録の閉鎖等,0,2024-04-08,2024-04-01,有限会社村樽産業,,有限会社,埼玉県,蓮田市,関山１丁目８番３４号,,11,238,3490121,,,2024-04-01,清算の結了等,,,2015-10-05,1,,,,,ムラタルサンギョウ,0
504,2030002098805,登記記録の閉鎖等,0,2024-04-08,2024-03-29,有限会社カラハシマシン,,有限会社,埼玉県,川口市,三ツ和２丁目１８番地の３,,11,203,3340011,,,2024-03-29,清算の結了等,,,2015-10-05,1,,,,,カラハシマシン,0
530,2060001009504,登記記録の閉鎖等,0,2024-04-08,2024-04-01,株式会社リフォームハウス,,株式会社,栃木県,真岡市,大根田５９番地,,09,209,3214506,,,2024-04-01,清算の結了等,,,2015-10-05,1,,,,,リフォームハウス,0
531,2060001030633,登記記録の閉鎖等,0,2024-04-08,2024-04-01,株式会社イクサス,,株式会社,栃木県,宇都宮市,御幸本町４７３２－２シグマビル,,09,201,3210983,,,2024-04-01,清算の結了等,,,2018-06-14,1,,,,,イクサス,0
545,2090001000550,登記記録の閉鎖等,0,2024-04-08,2024-04-01,株式会社キリン自動車,,株式会社,山梨県,甲府市,国母５丁目１０番１２号,,19,201,4000043,,,2024-04-01,合併による解散等,8090001000520,令和６年４月１日山梨県甲府市国母五丁目１０番１７号株式会社キムラ（8090001000520）に合併し解散,2015-10-05,1,,,,,キリンジドウシャ,0
573,2120901040618,登記記録の閉鎖等,0,2024-04-08,2024-04-01,株式会社８,,株式会社,大阪府,池田市,鉢塚２丁目８番２８号,,27,204,5630024,,,2024-04-01,合併による解散等,9120901042426,令和６年３月３１日大阪府池田市鉢塚二丁目８番２８号株式会社ｅｉｇｈｔ－ｉ（9120901042426）に合併し解散,2018-11-20,1,,,,,エイト,0
576,2122002013296,登記記録の閉鎖等,0,2024-04-08,2024-04-01,有限会社エルフィン,,有限会社,大阪府,八尾市,北本町４丁目８番１５号,,27,212,5810802,,,2024-04-01,清算の結了等,,,2015-10-05,1,,,,,エルフィン,0
586,2140001114469,登記記録の閉鎖等,0,2024-04-08,2024-04-01,株式会社キール,,株式会社,兵庫県,神戸市中央区,海岸通２丁目２番３号,,28,110,6500024,,,2024-04-01,合併による解散等,3140001090957,令和６年４月１日神戸市中央区海岸通二丁目２番３号株式会社プリンシプル（3140001090957）に合併し解散,2019-08-07,1,,,,,キール,0
596,2140002063062,登記記録の閉鎖等,0,2024-04-08,2024-04-02,有限会社スタイルアップ,,有限会社,兵庫県,西脇市,郷瀬町１１０番地の１,,28,213,6770014,,,2024-04-02,清算の結了等,,,2015-10-05,1,,,,,スタイルアップ,0
612,2180001080823,登記記録の閉鎖等,0,2024-04-08,2024-03-29,中央化工株式会社,,株式会社,愛知県,犬山市,大字羽黒字河北東２５番地１,,23,215,4840894,,,2024-03-29,清算の結了等,,,2015-10-05,1,,,,,チュウオウカコウ,0
630,2210002009834,登記記録の閉鎖等,0,2024-04-08,2024-04-01,有限会社中村エンタープライズ,,有限会社,福井県,勝山市,片瀬町１丁目１１１番地,,18,206,9110811,,,2024-04-01,清算の結了等,,,2015-10-05,1,,,,,ナカムラエンタープライズ,0
633,2240001026175,登記記録の閉鎖等,0,2024-04-08,2024-04-01,ダイクレエンジニアリング千葉株式会社,,株式会社,広島県,呉市,築地町１番２４号,,34,202,7370822,,,2024-04-01,合併による解散等,1240001026093,令和６年４月１日広島県呉市築地町１番２４号株式会社ダイクレ（1240001026093）に合併し解散,2015-10-05,1,,,,,ダイクレエンジニアリングチバ,0
645,2290001040436,登記記録の閉鎖等,0,2024-04-08,2024-03-21,株式会社アツミ住建,,株式会社,福岡県,太宰府市,梅香苑４丁目１６番２１号,,40,221,8180124,,,2024-03-21,清算の結了等,,,2015-10-05,1,,,,,アツミジュウケン,0
709,2700150066487,削除,,2024-04-08,,,,,,,,,,,,,,,,,,,,,,,,,
714,3010001050940,登記記録の閉鎖等,0,2024-04-08,2024-04-01,ディー・エス・エフ株式会社,,株式会社,東京都,中央区,日本橋馬喰町１丁目７番６号,,13,102,1030002,,,2024-04-01,合併による解散等,4010001034868,令和６年４月１日東京都中央区日本橋馬喰町一丁目７番６号大日精化工業株式会社（4010001034868）に合併し解散,2015-10-05,1,,,,,ディーエスエフ,0
729,3010002010282,登記記録の閉鎖等,0,2024-04-08,2024-04-01,有限会社サンズ・コーポレーション,,有限会社,東京都,千代田区,神田駿河台３丁目３番１０号,,13,101,1010062,,,2024-04-01,清算の結了等,,,2015-10-05,1,,,,,サンズコーポレーション,0
735,3010005023174,登記記録の閉鎖等,0,2024-04-08,2024-04-01,一般社団法人伊東ソーラーホールディングス,,その他の設立登記法人,東京都,千代田区,丸の内３丁目１番１号東京共同会計事務所内,,13,101,1000005,,,2024-04-01,清算の結了等,,,2015-10-05,1,,,,,イトウソーラーホールディングス,0
742,3010401158185,登記記録の閉鎖等,0,2024-04-08,2024-04-01,ＡＲＩＡＳ株式会社,,株式会社,東京都,港区,南青山５丁目１７番２号,,13,103,1070062,,,2024-04-01,清算の結了等,,,2021-02-15,1,,,,,アリアス,0
763,3011001073155,登記記録の閉鎖等,0,2024-04-08,2024-04-01,株式会社幻冬舎総合財産コンサルティング,,株式会社,東京都,渋谷区,千駄ヶ谷４丁目９番７号,,13,113,1510051,,,2024-04-01,合併による解散等,8011001045042,令和６年４月１日東京都渋谷区千駄ケ谷四丁目９番７号株式会社幻冬舎メディアコンサルティング（8011001045042）に合併し解散,2015-10-05,1,,,,,ゲントウシャソウゴウザイサンコンサルティング,0
764,3011001135681,登記記録の閉鎖等,0,2024-04-08,2024-03-29,株式会社ソーシャルスタジオ,,株式会社,東京都,渋谷区,渋谷２丁目２１番１号,,13,113,1500002,,,2024-03-29,清算の結了等,,,2020-09-15,1,,,,,ソーシャルスタジオ,0
771,3011005007530,登記記録の閉鎖等,0,2024-04-08,2024-03-21,一般社団法人世界の平和を願う会,,その他の設立登記法人,東京都,渋谷区,恵比寿３丁目３３番６号,,13,113,1500013,,,2024-03-21,清算の結了等,,,2018-02-09,1,,,,,セカイノヘイワヲネガウカイ,0
780,3011201014850,登記記録の閉鎖等,0,2024-04-08,2024-04-03,株式会社啓,,株式会社,東京都,中野区,鷺宮６丁目８番２８号,,13,114,1650032,,,2024-04-03,清算の結了等,,,2015-10-05,1,,,,,ヒロ,0
782,3011302006375,登記記録の閉鎖等,0,2024-04-08,2024-04-03,有限会社常盤山,,有限会社,東京都,杉並区,西荻北３丁目１９番２号,,13,115,1670042,,,2024-04-03,清算の結了等,,,2015-10-05,1,,,,,トキワヤマ,0
801,3020001040429,登記記録の閉鎖等,0,2024-04-08,2024-04-01,株式会社インターネット教育アカデミー,,株式会社,神奈川県,横浜市青葉区,たちばな台２丁目３番地３４,,14,117,2270046,,,2024-04-01,清算の結了等,,,2015-10-05,1,,,,,,0
805,3020001090077,登記記録の閉鎖等,0,2024-04-08,2024-04-01,株式会社ユニプレス技術研究所,,株式会社,神奈川県,横浜市港北区,新横浜３丁目１９番地１号,,14,109,2220033,,,2024-04-01,合併による解散等,7020001045218,令和６年４月１日横浜市港北区新横浜一丁目１９番２０号ユニプレス株式会社（7020001045218）に合併し解散,2015-10-05,1,,,,,ユニプレスギジュツケンキュウジョ,0
806,3020001116864,登記記録の閉鎖等,0,2024-04-08,2024-04-01,ＭＨＣ株式会社,,株式会社,神奈川県,横浜市中区,日本大通６０朝日生命横浜ビル,,14,104,2310021,,,2024-04-01,合併による解散等,5020001006840,令和６年４月１日横浜市中区日本大通６０朝日生命横浜ビル株式会社マーフィード（5020001006840）に合併し解散,2016-07-06,1,,,,,エムエイチシー,0
819,3021002062668,登記記録の閉鎖等,0,2024-04-08,2024-04-03,有限会社池本種苗店,,有限会社,神奈川県,横須賀市,林２丁目１番１号,,14,201,2380315,,,2024-04-03,清算の結了等,,,2015-10-05,1,,,,,イケモトシュビョウテン,0
823,3030001047150,登記記録の閉鎖等,0,2024-04-08,2024-04-01,エー・オー・エス株式会社,,株式会社,埼玉県,新座市,東北２丁目２０番３号,,11,230,3520001,,,2024-04-01,清算の結了等,,,2015-10-05,1,,,,,エーオーエス,0
824,3030001053693,登記記録の閉鎖等,0,2024-04-08,2024-04-01,株式会社Ｓｕｎｂｅｌｌｓ,,株式会社,埼玉県,春日部市,豊野町１丁目８番地１１,,11,214,3440014,,,2024-04-01,清算の結了等,,,2015-10-05,1,,,,,,0
826,3030001107276,登記記録の閉鎖等,0,2024-04-08,2024-04-01,株式会社ＮＡＮＢＡ,,株式会社,埼玉県,大里郡寄居町,大字桜沢６７９番地１,,11,408,3691202,,,2024-04-01,清算の結了等,,,2015-10-05,1,,,,,ナンバ,0
845,3040005001136,登記記録の閉鎖等,0,2024-04-08,2024-03-28,医療法人社団本郷会,,その他の設立登記法人,千葉県,千葉市花見川区,幕張本郷１丁目１１番２６号リビエール本郷１０２,,12,102,2620033,,,2024-03-28,清算の結了等,,,2015-10-05,1,,,,,ホンゴウカイ,0
849,3060001030129,登記記録の閉鎖等,0,2024-04-08,2024-04-01,株式会社喜共,,株式会社,栃木県,那須塩原市,南郷屋２丁目１４９番地５,,09,213,3292705,,,2024-04-01,清算の結了等,,,2018-01-15,1,,,,,キキョウ,0
857,3070002036181,登記記録の閉鎖等,0,2024-04-08,2024-04-01,有限会社いち川,,有限会社,群馬県,吾妻郡嬬恋村,大字田代１０１７番地の１２８,,10,425,3771614,,,2024-04-01,清算の結了等,,,2015-10-05,1,,,,,イチカワ,0
872,3120001132240,登記記録の閉鎖等,0,2024-04-08,2024-04-01,株式会社リファー,,株式会社,兵庫県,神戸市中央区,八幡通３丁目１番１４号サンシポートビル５Ｆ,,28,110,6510085,,,2024-04-01,合併による解散等,4140001119276,令和６年４月１日神戸市中央区八幡通３－１－１４サンシポートビル５Ｆ株式会社ウーミー（4140001119276）に合併し解散,2015-10-05,1,,,,,リファー,0
911,3130005014806,登記記録の閉鎖等,0,2024-04-08,2024-04-01,一般社団法人Ｒｕｂａｎ　Ｂｌｅｕ,,その他の設立登記法人,京都府,京都市西京区,松尾大利町２０番地の７６,,26,111,6158282,,,2024-04-01,清算の結了等,,,2016-12-16,1,,,,,ルバンブルー,0
916,3140001023719,登記記録の閉鎖等,0,2024-04-08,2024-04-01,株式会社リセット,,株式会社,兵庫県,神戸市中央区,元町通５丁目５番１０号,,28,110,6500022,,,2024-04-01,清算の結了等,,,2015-10-05,1,,,,,リセット,0
931,3140002040382,登記記録の閉鎖等,0,2024-04-08,2024-04-01,有限会社カギヤ商事,,有限会社,兵庫県,尼崎市,下坂部３丁目２１番５号,,28,202,6610975,,,2024-04-01,清算の結了等,,,2015-10-05,1,,,,,カギヤショウジ,0
954,3190001008599,登記記録の閉鎖等,0,2024-04-08,2024-04-01,株式会社二光自動車,,株式会社,三重県,伊賀市,服部町７２２番地の３,,24,216,5180007,,,2024-04-01,清算の結了等,,,2015-10-05,1,,,,,ニコウジドウシャ,0
961,3200002017119,登記記録の閉鎖等,0,2024-04-08,2024-04-01,有限会社高間,,有限会社,岐阜県,可児市,下恵土５５００番地１,,21,214,5090203,,,2024-04-01,合併による解散等,7200001018502,令和６年４月１日岐阜県可児市下恵土５５００番地１株式会社新高間（7200001018502）に合併し解散,2015-10-05,1,,,,,,0
968,3230001014997,登記記録の閉鎖等,0,2024-04-08,2024-04-01,ウェルス株式会社,,株式会社,富山県,高岡市,野村１５４８番地１,,16,202,9330014,,,2024-04-01,合併による解散等,5230001012223,令和６年４月１日富山県高岡市野村１５４８番地１ユニバーサル株式会社（5230001012223）に合併し解散,2015-10-05,1,,,,,ウェルス,0
969,3230002012562,登記記録の閉鎖等,0,2024-04-08,2024-04-02,有限会社ミヤビルド,,有限会社,富山県,高岡市,五福町６番１３号,,16,202,9330906,,,2024-04-02,清算の結了等,,,2015-10-05,1,,,,,ミヤビルド,0
974,3240001034417,登記記録の閉鎖等,0,2024-04-08,2024-04-03,北斗商事株式会社,,株式会社,広島県,府中市,本山町１６７５番地６,,34,208,7260001,,,2024-04-03,清算の結了等,,,2015-10-05,1,,,,,ホクトショウジ,0
975,3240001053169,登記記録の閉鎖等,0,2024-04-08,2024-04-02,株式会社サイカイ,,株式会社,広島県,尾道市,向島町５５８２番地８,,34,205,7220073,,,2024-04-02,清算の結了等,,,2018-08-07,1,,,,,サイカイ,0
1001,3310002005194,登記記録の閉鎖等,0,2024-04-08,2024-04-03,有限会社松下建鈑,,有限会社,長崎県,長崎市,大浜町２９８番地１５,,42,201,8500066,,,2024-04-03,清算の結了等,,,2015-10-05,1,,,,,マツシタケンバン,0
1008,3340001007511,登記記録の閉鎖等,0,2024-04-08,2024-04-02,日本フードパッカー鹿児島株式会社,,株式会社,鹿児島県,伊佐市,大口宮人５１９番地,,46,224,8952526,,,2024-04-02,清算の結了等,,,2015-10-05,1,,,,,ニホンフードパッカーカゴシマ,0
1017,3360005000353,登記記録の閉鎖等,0,2024-04-08,2024-04-01,学校法人那覇情報学院,,その他の設立登記法人,沖縄県,那覇市,牧志３丁目１８番５号プロムナード牧志１０１号室,,47,201,9000013,,,2024-04-01,清算の結了等,,,2015-10-05,1,,,,,ナハジョウホウガクイン,0
1018,3370001050186,登記記録の閉鎖等,0,2024-04-08,2024-04-01,北落師門株式会社,,株式会社,宮城県,仙台市宮城野区,小田原１丁目８番１０号４３０号室,,04,102,9830803,,,2024-04-01,清算の結了等,,,2023-07-20,1,,,,,ホクラクシモン,0
1020,3380001012796,登記記録の閉鎖等,0,2024-04-08,2024-04-01,株式会社クレハエンジニアリング,,株式会社,福島県,いわき市,錦町落合１３５番地,,07,204,9748232,,,2024-04-01,合併による解散等,6380001012793,令和６年４月１日福島県いわき市錦町綾ノ町１６番地クレハ建設株式会社（6380001012793）に合併し解散,2015-10-05,1,,,,,クレハエンジニアリング,0
1036,3450002001048,登記記録の閉鎖等,0,2024-04-08,2024-04-01,有限会社エスケー創建工業,,有限会社,北海道,旭川市,旭町一条１２丁目６８８番地の１９０,,01,204,0700831,,,2024-04-01,清算の結了等,,,2015-10-05,1,,,,,,0
1054,4010001218628,登記記録の閉鎖等,0,2024-04-08,2024-04-01,株式会社ＷＥＢ　ＳＴＡＧＥ,,株式会社,東京都,千代田区,神田三崎町２丁目４番１号,,13,101,1010061,,,2024-04-01,合併による解散等,1010401084920,令和６年４月１日東京都千代田区神田三崎町二丁目４番１号株式会社バックステージ（1010401084920）に合併し解散,2021-06-08,1,,,,,ウェブステージ,0
1073,4010102011444,登記記録の閉鎖等,0,2024-04-08,2024-03-26,有限会社ケヅカオートパーツ,,有限会社,東京都,八王子市,鑓水１９２４－１,,13,201,1920375,,,2024-03-26,清算の結了等,,,2015-10-05,1,,,,,ケヅカオートパーツ,0
1092,4010602022668,登記記録の閉鎖等,0,2024-04-08,2024-04-01,有限会社ツチハル,,有限会社,東京都,江東区,富岡１丁目２１番９号竹内第一ビル１階,,13,108,1350047,,,2024-04-01,清算の結了等,,,2015-10-05,1,,,,,ツチハル,0
1093,4010602026280,登記記録の閉鎖等,0,2024-04-08,2024-04-01,有限会社ミトヨ,,有限会社,東京都,墨田区,向島３丁目２２番２号,,13,107,1310033,,,2024-04-01,清算の結了等,,,2015-10-05,1,,,,,ミトヨ,0
1097,4010801025422,登記記録の閉鎖等,0,2024-04-08,2024-03-29,株式会社Ｋ．Ｋ．Ｃ．,,株式会社,東京都,大田区,山王３丁目１５番６－２０８号,,13,111,1430023,,,2024-03-29,清算の結了等,,,2015-10-05,1,,,,,,0
1122,4011101008811,登記記録の閉鎖等,0,2024-04-08,2024-04-01,株式会社シケン東京,,株式会社,東京都,新宿区,西新宿７丁目４番６号,,13,104,1600023,,,2024-04-01,合併による解散等,9011101006257,令和６年４月１日東京都新宿区西新宿七丁目４番６号株式会社ケンコー（9011101006257）に合併し解散,2015-10-05,1,,,,,シケントウキョウ,0
1130,4011202012365,登記記録の閉鎖等,0,2024-04-08,2024-04-04,有限会社柴商店,,有限会社,東京都,中野区,中央３丁目２５番１号,,13,114,1640011,,,2024-04-04,清算の結了等,,,2015-10-05,1,,,,,シバショウテン,0
1131,4011301011796,登記記録の閉鎖等,0,2024-04-08,2024-04-01,日露エコノミックスセンター株式会社,,株式会社,東京都,杉並区,高円寺南１丁目７番１－５０１号,,13,115,1660003,,,2024-04-01,合併による解散等,5011301011795,令和６年４月１日東京都杉並区高円寺南一丁目７番１－５０１号東海グランドコンサルタンツ株式会社（5011301011795）に合併し解散,2015-10-05,1,,,,,ニチロエコノミックスセンター,0
1137,4011802005561,登記記録の閉鎖等,0,2024-04-08,2024-04-02,有限会社登崎塗装工業,,有限会社,東京都,葛飾区,東堀切１丁目１９番地６号,,13,122,1240004,,,2024-04-02,清算の結了等,,,2015-10-05,1,,,,,トザキトソウコウギョウ,0
1164,4021001032076,登記記録の閉鎖等,0,2024-04-08,2024-04-01,箱根観光船株式会社,,株式会社,神奈川県,足柄下郡箱根町,箱根１６１番地,,14,382,2500521,,,2024-04-01,合併による解散等,8021001033616,令和６年４月１日神奈川県小田原市城山一丁目１５番１号株式会社小田急箱根（8021001033616）に合併し解散,2015-10-05,1,,,,,ハコネカンコウセン,0
1180,4030002080827,登記記録の閉鎖等,0,2024-04-08,2024-04-01,有限会社橋本甚平商店,,有限会社,埼玉県,本庄市,東台３丁目１番７号,,11,211,3670021,,,2024-04-01,清算の結了等,,,2015-10-05,1,,,,,ハシモトジンペイショウテン,0
1209,4070001028674,登記記録の閉鎖等,0,2024-04-08,2024-04-03,四季菜株式会社,,株式会社,群馬県,前橋市,粕川町女渕５８８番地３,,10,201,3710214,,,2024-04-03,清算の結了等,,,2015-10-05,1,,,,,,0
1213,4080001012710,登記記録の閉鎖等,0,2024-04-08,2024-04-01,静岡葵不動産株式会社,,株式会社,静岡県,静岡市葵区,呉服町１丁目１番地,,22,101,4200031,,,2024-04-01,合併による解散等,5080001002941,令和６年４月１日静岡市葵区呉服町一丁目１番地静岡不動産株式会社（5080001002941）に合併し解散,2015-10-05,1,,,,,シズオカアオイフドウサン,0
1231,4120003021481,登記記録の閉鎖等,0,2024-04-08,2024-03-28,イーバイス合同会社,,合同会社,大阪府,大阪市生野区,中川４丁目１５番６号,,27,116,5440005,,,2024-03-28,清算の結了等,,,2022-04-13,1,,,,,イーバイス,0
1239,4120105001241,登記記録の閉鎖等,0,2024-04-08,2024-04-03,医療法人小川クリニック,,その他の設立登記法人,大阪府,堺市北区,蔵前町２丁６番６号,,27,146,5918004,,,2024-04-03,清算の結了等,,,2015-10-05,1,,,,,オガワクリニック,0
1242,4120902008810,登記記録の閉鎖等,0,2024-04-08,2024-03-29,有限会社タキモトワークス,,有限会社,大阪府,摂津市,鳥飼和道１丁目７番７号,,27,224,5660073,,,2024-03-29,合併による解散等,4120901038123,令和６年３月２９日大阪府摂津市鳥飼和道一丁目７番７号株式会社フォース（4120901038123）に合併し解散,2015-10-05,1,,,,,タキモトワークス,0
1243,4122005000323,登記記録の閉鎖等,0,2024-04-08,2024-04-01,大阪金属工業協同組合,,その他の設立登記法人,大阪府,東大阪市,岸田堂西２丁目１１番１０号,,27,227,5770848,,,2024-04-01,合併による解散等,3122005000324,令和６年４月１日大阪府東大阪市岸田堂西二丁目１１番１０号大阪府化成工業協同組合（3122005000324）に合併し解散,2015-10-05,1,,,,,オオサカキンゾクコウギョウ,0
1244,4130001000759,登記記録の閉鎖等,0,2024-04-08,2024-04-04,株式会社古都,,株式会社,京都府,京都市北区,紫野大徳寺町３５番地１,,26,101,6038231,,,2024-04-04,清算の結了等,,,2015-10-05,1,,,,,コト,0
1285,4180303000080,登記記録の閉鎖等,0,2024-04-08,2024-04-01,合資会社市川食品,,合資会社,愛知県,岡崎市,明大寺町字沢田１７番地,,23,202,4440864,,,2024-04-01,清算の結了等,,,2015-10-05,1,,,,,イチカワショクヒン,0
1289,4200001038577,登記記録の閉鎖等,0,2024-04-08,2024-04-04,株式会社ｉｎｔｅｒｉｏｒ　ＤＲＥＡＭ,,株式会社,岐阜県,本巣市,下真桑４７２番地１,,21,218,5010466,,,2024-04-04,清算の結了等,,,2021-04-22,1,,,,,インテリアドリーム,0
1298,4220003002562,登記記録の閉鎖等,0,2024-04-08,2024-04-01,ｍｐｍ合同会社,,合同会社,石川県,金沢市,寺町１丁目８番５３号,,17,201,9218033,,,2024-04-01,合併による解散等,8220001025578,令和６年４月１日石川県金沢市広岡二丁目１番２７号株式会社松村（8220001025578）に合併し解散,2019-03-01,1,,,,,エムピーエム,0
1341,4330003005050,登記記録の閉鎖等,0,2024-04-08,2024-04-01,合同会社ｂｅａｔｓ,,合同会社,熊本県,熊本市北区,飛田町４５７番地１１,,43,105,8610000,,,2024-04-01,合併による解散等,4330003004936,令和６年４月１日熊本市北区武蔵ケ丘八丁目８番４０号Ａｍｉｔｉｅ１Ｆ合同会社ＳＨＥＬＬ（4330003004936）に合併し解散,2015-10-05,1,,,,,ビーツ,0
1356,4380001021920,登記記録の閉鎖等,0,2024-04-08,2024-04-01,ベル須賀川株式会社,,株式会社,福島県,須賀川市,岩作４０番地１,,07,207,9620033,,,2024-04-01,合併による解散等,8380001004517,令和６年４月１日福島県郡山市鶴見坦二丁目４番５号アルファクラブ株式会社（8380001004517）に合併し解散,2015-10-05,1,,,,,ベルスカガワ,0
1357,4380002028766,登記記録の閉鎖等,0,2024-04-08,2024-03-28,有限会社花とも本店,,有限会社,福島県,相馬市,馬場野字福迫５８番地,,07,209,9760036,,,2024-03-28,清算の結了等,,,2015-10-05,1,,,,,ハナトモホンテン,0
1372,4430002013110,登記記録の閉鎖等,0,2024-04-08,2024-04-01,有限会社ディスクポイント,,有限会社,北海道,札幌市南区,澄川四条２丁目９番２１号,,01,106,0050004,,,2024-04-01,清算の結了等,,,2015-10-05,1,,,,,ディスクポイント,0
1380,4460302003394,登記記録の閉鎖等,0,2024-04-08,2024-04-03,有限会社谷本商事,,有限会社,北海道,網走郡津別町,字本町６番地,,01,544,0920236,,,2024-04-03,清算の結了等,,,2015-10-05,1,,,,,,0
1381,4462502000477,登記記録の閉鎖等,0,2024-04-08,2024-04-02,有限会社トミサワ商事,,有限会社,北海道,標津郡中標津町,西五条北２丁目２番地,,01,692,0861125,,,2024-04-02,清算の結了等,,,2015-10-05,1,,,,,トミサワショウジ,0
1390,5010001129444,登記記録の閉鎖等,0,2024-04-08,2024-03-29,ジュピターエンタテインメント株式会社,,株式会社,東京都,千代田区,丸の内１丁目８番１号,,13,101,1000005,,,2024-03-29,清算の結了等,,,2015-10-05,1,,,,,ジュピターエンタテインメント,0
1392,5010001206994,登記記録の閉鎖等,0,2024-04-08,2024-04-01,株式会社Ｃｒｅｄｄ　Ｆｉｎａｎｃｅ,,株式会社,東京都,千代田区,丸の内１丁目６番１号,,13,101,1000005,,,2024-04-01,清算の結了等,,,2020-01-27,1,,,,,クレドファイナンス,0
1394,5010001216878,登記記録の閉鎖等,0,2024-04-08,2024-03-29,掌楽科技株式会社,,株式会社,東京都,中央区,東日本橋２丁目２８番５号５０８,,13,102,1030004,,,2024-03-29,清算の結了等,,,2021-04-06,1,,,,,ショウラクカギ,0
1408,5010002039700,登記記録の閉鎖等,0,2024-04-08,2024-03-29,有限会社ＹＯＵキャピタル,,有限会社,東京都,千代田区,六番町２番地８番町Ｍビル３Ｆ,,13,101,1020085,,,2024-03-29,清算の結了等,,,2015-10-05,1,,,,,ユーキャピタル,0
1419,5010401101192,登記記録の閉鎖等,0,2024-04-08,2024-03-29,Ｎビジネスサービス株式会社,,株式会社,東京都,港区,港南２丁目１５番３号,,13,103,1080075,,,2024-03-29,清算の結了等,,,2015-10-05,1,,,,,エヌビジネスサービス,0
1435,5010502021884,登記記録の閉鎖等,0,2024-04-08,2024-04-01,有限会社アポロシステム,,有限会社,東京都,台東区,浅草橋１丁目１２番４号６階,,13,106,1110053,,,2024-04-01,清算の結了等,,,2015-10-05,1,,,,,,0
1455,5011001148112,登記記録の閉鎖等,0,2024-04-08,2024-03-22,株式会社Ｇｏｌｄｅｎ　Ｃｌｏｓｅｔ,,株式会社,東京都,渋谷区,神宮前６丁目２３番４号,,13,113,1500001,,,2024-03-22,清算の結了等,,,2022-06-16,1,,,,,ゴールデンクローゼット,0
1463,5011101003415,登記記録の閉鎖等,0,2024-04-08,2024-04-01,株式会社エフ・プラネット,,株式会社,東京都,新宿区,若松町１５番１４号,,13,104,1620056,,,2024-04-01,清算の結了等,,,2015-10-05,1,,,,,エフプラネット,0
1470,5011101071313,登記記録の閉鎖等,0,2024-04-08,2024-04-01,株式会社シミズ企画,,株式会社,埼玉県,志木市,中宗岡３丁目１２番３０号,,11,228,3530002,,,2024-04-01,清算の結了等,,,2015-10-05,1,,,,,シミズキカク,0
1488,5011801012120,登記記録の閉鎖等,0,2024-04-08,2024-04-01,丸孝デリバリー株式会社,,株式会社,東京都,足立区,椿２丁目１０番８号,,13,121,1230871,,,2024-04-01,合併による解散等,4011801012113,令和６年４月１日東京都足立区鹿浜四丁目６番１５号丸孝運輸倉庫株式会社（4011801012113）に合併し解散,2015-10-05,1,,,,,マルコウデリバリー,0
1491,5011802013877,登記記録の閉鎖等,0,2024-04-08,2024-04-02,有限会社シンフォニー,,有限会社,東京都,足立区,西新井本町１丁目２４番７号,,13,121,1230845,,,2024-04-02,清算の結了等,,,2015-10-05,1,,,,,シンフォニー,0
1504,5020001107481,登記記録の閉鎖等,0,2024-04-08,2024-04-01,株式会社ＴＯＷＡ,,株式会社,神奈川県,横浜市港北区,新横浜１丁目２９番地７,,14,109,2220033,,,2024-04-01,清算の結了等,,,2015-10-05,1,,,,,トウワ,0
1513,5020003021672,登記記録の閉鎖等,0,2024-04-08,2024-03-26,合同会社ニカ,,合同会社,神奈川県,横浜市南区,白妙町２丁目７番２７－６０１号,,14,105,2320023,,,2024-03-26,清算の結了等,,,2022-04-22,1,,,,,ニカ,0
1524,5021001050440,登記記録の閉鎖等,0,2024-04-08,2024-04-03,ＦＴＬ株式会社,,株式会社,神奈川県,藤沢市,鵠沼海岸７丁目５番９号,,14,205,2510037,,,2024-04-03,合併による解散等,5010001150061,令和６年３月２５日東京都中央区京橋一丁目１１番１号サークレイス株式会社（5010001150061）に合併し解散,2015-10-05,1,,,,,,0
1526,5021001065620,登記記録の閉鎖等,0,2024-04-08,2024-04-01,Ａ－ｓｏｆｔ株式会社,,株式会社,神奈川県,相模原市中央区,相模原２丁目１３番２号服部相模原ビル３０３号,,14,152,2520231,,,2024-04-01,合併による解散等,5021001016334,令和６年４月１日神奈川県相模原市中央区相模原二丁目１３番２号服部相模原ビル４０６号アウェイクアイ株式会社（5021001016334）に合併し解散,2018-09-13,1,,,,,エイソフト,0
1534,5030001077105,登記記録の閉鎖等,0,2024-04-08,2024-04-01,株式会社ＦＢ,,株式会社,埼玉県,川口市,戸塚東３丁目２０番２０号,,11,203,3330802,,,2024-04-01,清算の結了等,,,2015-10-05,1,,,,,エフビー,0
1543,5030002021879,登記記録の閉鎖等,0,2024-04-08,2024-03-29,有限会社森田鉄工所,,有限会社,埼玉県,さいたま市岩槻区,仲町２丁目１０番３６号,,11,110,3390054,,,2024-03-29,清算の結了等,,,2015-10-05,1,,,,,モリタテッコウショ,0
1557,5040001056132,登記記録の閉鎖等,0,2024-04-08,2024-04-01,ナミツー陸運株式会社,,株式会社,千葉県,市原市,五所９０番地７,,12,219,2900066,,,2024-04-01,合併による解散等,4040001056620,令和６年４月１日千葉県市原市五所９０番地７株式会社ナミツー（4040001056620）に合併し解散,2015-10-05,1,,,,,ナミツーリクウン,0
1569,5050001041728,登記記録の閉鎖等,0,2024-04-08,2024-04-03,株式会社りとらい,,株式会社,茨城県,笠間市,下郷４５４２番地１４６,,08,216,3190202,,,2024-04-03,清算の結了等,,,2016-10-14,1,,,,,リトライ,0
1582,5070001004947,登記記録の閉鎖等,0,2024-04-08,2024-04-03,株式会社ＷＡＯ,,株式会社,群馬県,前橋市,六供町１０２９番地２,,10,201,3710804,,,2024-04-03,清算の結了等,,,2015-10-05,1,,,,,ワオ,0
1583,5070001030448,登記記録の閉鎖等,0,2024-04-08,2024-03-26,株式会社ブレーンワークス,,株式会社,群馬県,高崎市,江木町１４７７番地,,10,202,3700046,,,2024-03-26,清算の結了等,,,2015-10-05,1,,,,,ブレーンワークス,0
1585,5070002011686,登記記録の閉鎖等,0,2024-04-08,2024-04-01,有限会社ビジネスサポート,,有限会社,群馬県,高崎市,住吉町１５番地,,10,202,3700804,,,2024-04-01,清算の結了等,,,2015-10-05,1,,,,,ビジネスサポート,0
1589,5080101010035,登記記録の閉鎖等,0,2024-04-08,2024-04-02,株式会社ビジネスホテル新富士,,株式会社,静岡県,富士市,横割６丁目１３番７号,,22,210,4160944,,,2024-04-02,清算の結了等,,,2015-10-05,1,,,,,ビジネスホテルシンフジ,0
1605,5120001200771,登記記録の閉鎖等,0,2024-04-08,2024-04-01,株式会社ＤＲＥＡＭ　ＯＮＥ,,株式会社,大阪府,大阪市都島区,中野町１丁目１３番４号,,27,102,5340027,,,2024-04-01,合併による解散等,6120001180212,令和６年４月１日大阪市都島区中野町一丁目１３番４号株式会社Ｂｅｓｔ　Ｄｅｌｉｇｈｔ　Ｇｒｏｕｐ（6120001180212）に合併し解散,2016-09-16,1,,,,,ドリームワン,0
1616,5120002054341,登記記録の閉鎖等,0,2024-04-08,2024-04-04,株式会社メディコム大阪,,株式会社,大阪府,大阪市中央区,大手前１丁目７－３１,,27,128,5400008,,,2024-04-04,合併による解散等,9120101020827,令和６年４月１日大阪府堺市堺区宿院町西四丁２－６ザ・ウエスト宿院壱番館ビル３階メディクロス株式会社（9120101020827）に合併し解散,2015-10-05,1,,,,,メディコムオオサカ,0
1628,5120901028123,登記記録の閉鎖等,0,2024-04-08,2024-04-01,株式会社立花ＡＤＭ,,株式会社,大阪府,豊中市,服部寿町５丁目１５７番地の１,,27,203,5610857,,,2024-04-01,合併による解散等,7120901024616,令和６年４月１日大阪府豊中市服部寿町五丁目１５７番地の１株式会社立花マテリアル（7120901024616）に合併し解散,2015-10-05,1,,,,,タチバナエイディエム,0
1634,5130005015018,登記記録の閉鎖等,0,2024-04-08,2024-04-01,特定非営利活動法人はるか,,その他の設立登記法人,京都府,京都市伏見区,醍醐大高町６番９,,26,109,6011311,,,2024-04-01,清算の結了等,,,2017-08-03,1,,,,,ハルカ,0
1647,5140002003998,登記記録の閉鎖等,0,2024-04-08,2024-04-02,有限会社レヤア電気,,有限会社,兵庫県,神戸市灘区,岩屋北町２丁目３番１５号,,28,102,6570846,,,2024-04-02,清算の結了等,,,2015-10-05,1,,,,,レヤアデンキ,0
1649,5140002008857,登記記録の閉鎖等,0,2024-04-08,2024-04-02,有限会社タツナカ電設,,有限会社,兵庫県,神戸市長田区,長楽町６丁目２番３１,,28,106,6530054,,,2024-04-02,清算の結了等,,,2015-10-05,1,,,,,タツナカデンセツ,0
1652,5140002037526,登記記録の閉鎖等,0,2024-04-08,2024-04-01,有限会社古宮水産,,有限会社,兵庫県,加古郡播磨町,古宮５丁目５番１８号,,28,382,6750163,,,2024-04-01,清算の結了等,,,2015-10-05,1,,,,,コミヤスイサン,0
1654,5140002046931,登記記録の閉鎖等,0,2024-04-08,2024-04-01,有限会社中村建材運輸,,有限会社,兵庫県,美方郡香美町,村岡区長板２６番地の２,,28,585,6671352,,,2024-04-01,合併による解散等,1140001056662,令和６年４月１日兵庫県美方郡香美町村岡区長板２６番地の２株式会社中村建材（1140001056662）に合併し解散,2015-10-05,1,,,,,ナカムラケンザイウンユ,0
1667,5150001015176,登記記録の閉鎖等,0,2024-04-08,2024-04-02,株式会社コマ設備企画,,株式会社,奈良県,北葛城郡王寺町,久度１丁目８－１グリーンコーポ王寺４０６号,,29,425,6360003,,,2024-04-02,清算の結了等,,,2015-10-05,1,,,,,コマセツビキカク,0
1675,5160002007758,登記記録の閉鎖等,0,2024-04-08,2024-04-01,有限会社ＭＹ企画,,有限会社,滋賀県,米原市,上野２８１番地１,,25,214,5210312,,,2024-04-01,清算の結了等,,,2015-10-05,1,,,,,エムワイキカク,0
1696,5200001027653,登記記録の閉鎖等,0,2024-04-08,2024-03-29,株式会社キクヤ,,株式会社,岐阜県,多治見市,前畑町３丁目７６番地の５,,21,204,5070042,,,2024-03-29,清算の結了等,,,2015-10-05,1,,,,,キクヤ,0
1706,5240001007230,登記記録の閉鎖等,0,2024-04-08,2024-04-01,手島商事株式会社,,株式会社,広島県,広島市東区,牛田東４丁目９番１６号,,34,102,7320063,,,2024-04-01,清算の結了等,,,2015-10-05,1,,,,,テシマショウジ,0
1723,5290002018858,登記記録の閉鎖等,0,2024-04-08,2024-03-21,有限会社大吉,,有限会社,福岡県,那珂川市,今光２丁目１１３番,,40,231,8111211,,,2024-03-21,清算の結了等,,,2015-10-05,1,,,,,,0
1724,5290002045241,登記記録の閉鎖等,0,2024-04-08,2024-03-21,有限会社飯塚緑化建設,,有限会社,福岡県,飯塚市,相田８８４番地の４,,40,205,8200052,,,2024-03-21,清算の結了等,,,2015-10-05,1,,,,,イイヅカリョクカケンセツ,0
1766,5380001020574,登記記録の閉鎖等,0,2024-04-08,2024-04-01,ベル会津株式会社,,株式会社,福島県,会津若松市,平安町２番８８号,,07,202,9650026,,,2024-04-01,合併による解散等,9380001007709,令和６年４月１日福島県郡山市開成三丁目６番１５号アルファクラブ東北株式会社（9380001007709）に合併し解散,2015-10-05,1,,,,,ベルシアイヅ,0
1772,5430001076272,登記記録の閉鎖等,0,2024-04-08,2024-04-01,株式会社アーバンホームズアーキテクツ,,株式会社,北海道,札幌市中央区,北一条西１９丁目１番地１４,,01,101,0600001,,,2024-04-01,合併による解散等,8430001000270,令和６年４月１日札幌市中央区北一条西十九丁目１番地１４株式会社アーバンホームズ（8430001000270）に合併し解散,2018-04-06,1,,,,,アーバンホームズアーキテクツ,0
1793,5490002004292,登記記録の閉鎖等,0,2024-04-08,2024-04-01,有限会社光商事,,有限会社,高知県,高知市,農人町４番１５号,,39,201,7800825,,,2024-04-01,合併による解散等,3490001001144,令和６年４月１日高知市萩町一丁目６番４７号パワーコムエンジニアリング株式会社（3490001001144）に合併し解散,2015-10-05,1,,,,,ヒカリショウジ,0
1795,6010001017672,登記記録の閉鎖等,0,2024-04-08,2024-04-01,サンコー・エンタープライズ株式会社,,株式会社,東京都,千代田区,神田神保町３丁目１０番２号,,13,101,1010051,,,2024-04-01,合併による解散等,7010001017671,令和６年４月１日東京都千代田区神田神保町三丁目１０番地２サンコー・エア・セルテック株式会社（7010001017671）に合併し解散,2015-10-05,1,,,,,サンコーエンタープライズ,0
1796,6010001044287,登記記録の閉鎖等,0,2024-04-08,2024-04-01,三門興産株式会社,,株式会社,東京都,中央区,新富１丁目１９番２号,,13,102,1040041,,,2024-04-01,合併による解散等,7010001035153,令和６年４月１日東京都中央区新富一丁目１９番２号株式会社アカギ（7010001035153）に合併し解散,2015-10-05,1,,,,,ミカドコウサン,0
1837,6010401027321,登記記録の閉鎖等,0,2024-04-08,2024-04-01,北條コンサルティング株式会社,,株式会社,東京都,港区,芝大門１丁目２番９号,,13,103,1050012,,,2024-04-01,清算の結了等,,,2015-10-05,1,,,,,ホウジョウコンサルティング,0
1838,6010401093198,登記記録の閉鎖等,0,2024-04-08,2024-04-01,図書館スタッフ株式会社,,株式会社,東京都,千代田区,神田淡路町２丁目６番地,,13,101,1010063,,,2024-04-01,合併による解散等,2010001034952,令和６年４月１日東京都中央区日本橋二丁目３番１０号丸善雄松堂株式会社（2010001034952）に合併し解散,2015-10-05,1,,,,,トショカンスタッフ,0
1839,6010401116875,登記記録の閉鎖等,0,2024-04-08,2024-04-01,株式会社ヒューマニックホールディングス,,株式会社,東京都,新宿区,新宿４丁目３番１７号,,13,104,1600022,,,2024-04-01,合併による解散等,2011101031419,令和６年３月３０日東京都新宿区新宿四丁目３番１７号株式会社ヒューマニック（2011101031419）に合併し解散,2015-10-05,1,,,,,ヒューマニックホールディングス,0
1843,6010401163265,登記記録の閉鎖等,0,2024-04-08,2024-04-01,ナロ株式会社,,株式会社,東京都,港区,虎ノ門１丁目１７番１号,,13,103,1050001,,,2024-04-01,清算の結了等,,,2021-10-18,1,,,,,ナロ,0
1854,6010501042030,登記記録の閉鎖等,0,2024-04-08,2024-04-03,株式会社ＯＯＢ,,株式会社,東京都,台東区,蔵前２丁目６番２号,,13,106,1110051,,,2024-04-03,合併による解散等,8110001014261,令和６年４月１日新潟県三条市西本成寺二丁目２８番１２号ＪＥＪアステージ株式会社（8110001014261）に合併し解散,2018-01-09,1,,,,,オーオービー,0
1858,6010602028119,登記記録の閉鎖等,0,2024-04-08,2024-04-01,有限会社プラッサム,,有限会社,東京都,江東区,千石１丁目８番１２号－１０１,,13,108,1350015,,,2024-04-01,清算の結了等,,,2015-10-05,1,,,,,プラッサム,0
1859,6010801010050,登記記録の閉鎖等,0,2024-04-08,2024-04-01,株式会社ピノキオ,,株式会社,東京都,大田区,池上６丁目３番１号,,13,111,1460082,,,2024-04-01,清算の結了等,,,2015-10-05,1,,,,,ピノキオ,0
1860,6010801028522,登記記録の閉鎖等,0,2024-04-08,2024-04-01,チャレンジドリーム株式会社,,株式会社,東京都,大田区,池上３丁目２７番３号,,13,111,1460082,,,2024-04-01,清算の結了等,,,2018-02-02,1,,,,,チャレンジドリーム,0
1867,6011001011566,登記記録の閉鎖等,0,2024-04-08,2024-03-29,株式会社小西設備管財,,株式会社,東京都,渋谷区,代々木３丁目４６番１６号小野木ビル,,13,113,1510053,,,2024-03-29,清算の結了等,,,2015-10-05,1,,,,,コニシセツビカンザイ,0
1872,6011101003777,登記記録の閉鎖等,0,2024-04-08,2024-04-01,オークラヤエージェンシー株式会社,,株式会社,東京都,千代田区,麹町４丁目５番地２２,,13,101,1020083,,,2024-04-01,合併による解散等,4011101003779,令和６年４月１日東京都千代田区麹町四丁目５番地２２オークラヤ住宅株式会社（4011101003779）に合併し解散,2015-10-05,1,,,,,オークラヤエージェンシー,0
1884,6011701002220,登記記録の閉鎖等,0,2024-04-08,2024-04-01,株式会社カマクラ住建,,株式会社,東京都,江戸川区,北小岩２丁目６番１号サニーハイム３０３,,13,123,1330051,,,2024-04-01,清算の結了等,,,2015-10-05,1,,,,,カマクラジュウケン,0
1915,6020003013941,登記記録の閉鎖等,0,2024-04-08,2024-04-01,株式会社Ｒｅ－ａｌ,,株式会社,神奈川県,川崎市幸区,新川崎７－７ＫＢＩＣ２０２,,14,132,2120032,,,2024-04-01,清算の結了等,,,2018-02-14,1,,,,,リアル,0
1921,6021001033089,登記記録の閉鎖等,0,2024-04-08,2024-04-01,箱根プレザント株式会社,,株式会社,神奈川県,小田原市,城山１丁目１５番１号,,14,206,2500045,,,2024-04-01,合併による解散等,7021001033088,令和６年４月１日神奈川県小田原市城山三丁目２２番６号箱根プレザントサービス株式会社（7021001033088）に合併し解散,2015-10-05,1,,,,,ハコネプレザント,0
1978,6080102020098,登記記録の閉鎖等,0,2024-04-08,2024-04-01,有限会社大黒屋,,有限会社,静岡県,伊東市,猪戸１丁目５番４３号,,22,208,4140004,,,2024-04-01,清算の結了等,,,2015-10-05,1,,,,,ダイコクヤ,0
1984,6120001209556,登記記録の閉鎖等,0,2024-04-08,2024-04-04,株式会社関西みらいフィナンシャルグループ,,株式会社,大阪府,大阪市中央区,備後町２丁目２番１号,,27,128,5410051,,,2024-04-04,合併による解散等,5010601039654,令和６年４月１日東京都江東区木場一丁目５番６５号株式会社りそなホールディングス（5010601039654）に合併し解散,2017-11-16,1,,,,,カンサイミライフィナンシャルグループ,0
1992,6120003019664,登記記録の閉鎖等,0,2024-04-08,2024-03-26,合同会社Ｉｄｅａｌ,,合同会社,埼玉県,川口市,飯塚１丁目２番１６号川口ホームズマンション１Ｆ,,11,203,3320023,,,2024-03-26,清算の結了等,,,2021-06-21,1,,,,,アイデアル,0
1997,6120101028518,登記記録の閉鎖等,0,2024-04-08,2024-04-01,株式会社亀井青果卸売市場,,株式会社,大阪府,堺市北区,中村町７４４番地１,,27,146,5918012,,,2024-04-01,合併による解散等,8120101001126,令和６年４月１日大阪府堺市北区中村町７４４番地の１大阪南部合同青果株式会社（8120101001126）に合併し解散,2015-10-05,1,,,,,カメイセイカオロシウリイチバ,0
2002,6120901009881,登記記録の閉鎖等,0,2024-04-08,2024-04-01,日新興運株式会社,,株式会社,大阪府,摂津市,東別府４丁目１番４９号,,27,224,5660042,,,2024-04-01,合併による解散等,6120901009353,令和６年４月１日大阪府摂津市鳥飼上四丁目１番１９号株式会社プレジャー関西（6120901009353）に合併し解散,2015-10-05,1,,,,,ニッシンコウウン,0
2006,6122003001486,登記記録の閉鎖等,0,2024-04-08,2024-04-01,合同会社茶屋吉兵衛,,合同会社,大阪府,八尾市,恩智中町３丁目１番地,,27,212,5810883,,,2024-04-01,合併による解散等,3122001020978,令和６年４月１日大阪府柏原市堂島町２番２０号株式会社シンコー（3122001020978）に合併し解散,2018-04-17,1,,,,,チャヤキチベー,0
2013,6130001058408,登記記録の閉鎖等,0,2024-04-08,2024-04-01,株式会社吉祥院プロセス,,株式会社,京都府,京都市南区,吉祥院嶋野間詰町５０６番地,,26,107,6018363,,,2024-04-01,合併による解散等,9130001011958,令和６年３月３１日京都市南区吉祥院嶋樫山町５番地１株式会社八幡印刷紙業（9130001011958）に合併し解散,2016-10-06,1,,,,,キッショウインプロセス,0
2018,6140001089427,登記記録の閉鎖等,0,2024-04-08,2024-04-01,株式会社ナガイ住設,,株式会社,兵庫県,姫路市,北今宿２丁目６番１４号メゾンジエルメＭ３０３号,,28,201,6700057,,,2024-04-01,清算の結了等,,,2015-10-05,1,,,,,ナガイジュウセツ,0
2019,6140001096308,登記記録の閉鎖等,0,2024-04-08,2024-03-28,岡野食品産業株式会社,,株式会社,兵庫県,姫路市,御国野町国分寺３９１番地,,28,201,6710234,,,2024-03-28,合併による解散等,6140001058159,令和６年３月１９日兵庫県姫路市御国野町国分寺３９１番地岡野食品ホールディングス株式会社（6140001058159）に合併し解散,2015-10-05,1,,,,,オカノショクヒンサンギョウ,0
2021,6140002064932,登記記録の閉鎖等,0,2024-04-08,2024-04-01,有限会社若葉商事,,有限会社,兵庫県,川西市,中央町５番５号ＯＨＭＩビル５階,,28,217,6660016,,,2024-04-01,清算の結了等,,,2015-10-05,1,,,,,ワカバショウジ,0
2022,6140003010010,登記記録の閉鎖等,0,2024-04-08,2024-04-02,合同会社松井建装,,合同会社,兵庫県,姫路市,北平野南の町８番４－５０３号,,28,201,6700887,,,2024-04-02,清算の結了等,,,2015-10-05,1,,,,,マツイケンソウ,0
2027,6180001074029,登記記録の閉鎖等,0,2024-04-08,2024-04-01,株式会社カトウ美容室,,株式会社,愛知県,春日井市,高蔵寺町３丁目３番地の１２,,23,206,4870013,,,2024-04-01,清算の結了等,,,2015-10-05,1,,,,,カトウビヨウシツ,0
2028,6180001102912,登記記録の閉鎖等,0,2024-04-08,2024-04-01,株式会社Ａｌｉ’ｉ,,株式会社,愛知県,名古屋市守山区,吉根３丁目３０２番地の１,,23,113,4630004,,,2024-04-01,清算の結了等,,,2015-10-05,1,,,,,アリイ,0
2033,6180001137669,登記記録の閉鎖等,0,2024-04-08,2024-03-29,株式会社ＫＧＬＩＮＥ,,株式会社,愛知県,名古屋市港区,善進本町３３２センチュリーパーク善進本町１番館８０２号,,23,111,4550813,,,2024-03-29,清算の結了等,,,2019-08-06,1,,,,,,0
2070,6240001026171,登記記録の閉鎖等,0,2024-04-08,2024-04-01,ダイクレエンジニアリング滋賀株式会社,,株式会社,広島県,呉市,築地町１番２４号,,34,202,7370822,,,2024-04-01,合併による解散等,1240001026093,令和６年４月１日広島県呉市築地町１番２４号株式会社ダイクレ（1240001026093）に合併し解散,2015-10-05,1,,,,,ダイクレエンジニアリングシガ,0
2106,6330001011453,登記記録の閉鎖等,0,2024-04-08,2024-04-01,玉名金属株式会社,,株式会社,熊本県,玉名市,山部田２１３番地,,43,206,8650012,,,2024-04-01,合併による解散等,8330001009157,令和６年４月１日熊本県玉名郡長洲町名石浜３５－１２熊本鋼機株式会社（8330001009157）に合併し解散,2015-10-05,1,,,,,タマナキンゾク,0
2115,6360001013158,登記記録の閉鎖等,0,2024-04-08,2024-04-01,日新産業株式会社,,株式会社,沖縄県,那覇市,通堂町１番１号,,47,201,9000035,,,2024-04-01,清算の結了等,,,2015-10-05,1,,,,,,0
2116,6360001027430,登記記録の閉鎖等,0,2024-04-08,2024-04-04,桃丸株式会社,,株式会社,沖縄県,宜野湾市,伊佐２丁目１１－３メゾンクレパス２０１,,47,205,9012221,,,2024-04-04,清算の結了等,,,2020-07-10,1,,,,,モモマル,0
2117,6360001027579,登記記録の閉鎖等,0,2024-04-08,2024-04-01,株式会社富,,株式会社,愛知県,大府市,共栄町８丁目１１番地の６,,23,223,4740074,,,2024-04-01,清算の結了等,,,2020-08-20,1,,,,,トミ,0
2123,6380001020573,登記記録の閉鎖等,0,2024-04-08,2024-04-01,ベル白河株式会社,,株式会社,福島県,白河市,東小丸山２４番地,,07,205,9610883,,,2024-04-01,合併による解散等,9380001007709,令和６年４月１日福島県郡山市開成三丁目６番１５号アルファクラブ東北株式会社（9380001007709）に合併し解散,2015-10-05,1,,,,,ベルシラカワ,0
2144,7010001121234,登記記録の閉鎖等,0,2024-04-08,2024-04-01,株式会社日本メディア,,株式会社,大阪府,大阪市北区,豊崎３丁目２番１号,,27,127,5310072,,,2024-04-01,清算の結了等,,,2015-10-05,1,,,,,ニホンメディア,0
2145,7010001129054,登記記録の閉鎖等,0,2024-04-08,2024-04-01,出光グリーンパワー株式会社,,株式会社,東京都,千代田区,大手町１丁目２番１号,,13,101,1000004,,,2024-04-01,合併による解散等,9010001011318,令和６年４月１日東京都千代田区大手町一丁目２番１号出光興産株式会社（9010001011318）に合併し解散,2015-10-05,1,,,,,イデミツグリーンパワー,0
2147,7010001182268,登記記録の閉鎖等,0,2024-04-08,2024-04-01,南あわじソーラーファーム株式会社,,株式会社,東京都,千代田区,霞が関３丁目２番５号,,13,101,1000013,,,2024-04-01,合併による解散等,1010401095059,令和６年４月１日東京都千代田区霞が関三丁目２番５号エネクス電力株式会社（1010401095059）に合併し解散,2017-03-22,1,,,,,ミナミアワジソーラーファーム,0
2172,7010401054926,登記記録の閉鎖等,0,2024-04-08,2024-04-01,株式会社安川メカトレック,,株式会社,東京都,港区,海岸１丁目１６番１号,,13,103,1050022,,,2024-04-01,合併による解散等,8290001013972,令和６年３月１日福岡市博多区東那珂一丁目１４番２０号安川メカトレック末松九機株式会社（8290001013972）に合併し解散,2015-10-05,1,,,,,ヤスカワメカトレック,0
2177,7010403028044,登記記録の閉鎖等,0,2024-04-08,2024-03-29,ＲＢソーラーデュオ合同会社,,合同会社,東京都,港区,虎ノ門３丁目２２番１０－２０１号,,13,103,1050001,,,2024-03-29,合併による解散等,1010001132014,令和６年３月２９日東京都港区東新橋一丁目５番２号汐留シティセンター８階Ｓｋｙ　Ｓｏｌａｒ　Ｊａｐａｎ株式会社（1010001132014）に合併し解散,2022-07-06,1,,,,,アールビーソーラーデュオ,0
2180,7010405018530,登記記録の閉鎖等,0,2024-04-08,2024-03-29,特定目的会社ベンチャーＢ,,その他の設立登記法人,東京都,港区,虎ノ門３丁目２２番１０－２０１号,,13,103,1050001,,,2024-03-29,清算の結了等,,,2020-02-19,1,,,,,ベンチャービー,0
2195,7011001158844,登記記録の閉鎖等,0,2024-04-08,2024-04-01,株式会社ＲＹアセット,,株式会社,東京都,渋谷区,渋谷２丁目１９番１５－６０８号宮益坂ビルディング,,13,113,1500002,,,2024-04-01,清算の結了等,,,2023-12-14,1,,,,,アールワイアセット,0
2212,7011101022355,登記記録の閉鎖等,0,2024-04-08,2024-04-01,ラックライフエンジニアリング株式会社,,株式会社,東京都,台東区,元浅草１丁目１９番４－３０２号,,13,106,1110041,,,2024-04-01,清算の結了等,,,2015-10-05,1,,,,,,0
2214,7011101062005,登記記録の閉鎖等,0,2024-04-08,2024-04-01,富士通クラウドテクノロジーズ株式会社,,株式会社,神奈川県,川崎市幸区,大宮町１番地５,,14,132,2120014,,,2024-04-01,合併による解散等,1020001071491,令和６年４月１日川崎市中原区上小田中四丁目１番１号富士通株式会社（1020001071491）に合併し解散,2015-10-05,1,,,,,フジツウクラウドテクノロジーズ,0
2231,7020001032637,登記記録の閉鎖等,0,2024-04-08,2024-04-01,日本アールオーメンテナンスサービス株式会社,,株式会社,神奈川県,横浜市中区,日本大通６０朝日生命横浜ビル,,14,104,2310021,,,2024-04-01,合併による解散等,5020001006840,令和６年４月１日横浜市中区日本大通６０朝日生命横浜ビル株式会社マーフィード（5020001006840）に合併し解散,2015-10-05,1,,,,,ニホンアールオーメンテナンスサービス,0
2260,7030001134837,登記記録の閉鎖等,0,2024-04-08,2024-03-28,株式会社レモンソフト,,株式会社,埼玉県,上尾市,今泉１丁目３０番地２５,,11,219,3620047,,,2024-03-28,清算の結了等,,,2020-01-24,1,,,,,レモンソフト,0
2267,7030002125439,登記記録の閉鎖等,0,2024-04-08,2024-04-01,柴崎製絲有限会社,00134142,有限会社,埼玉県,秩父郡小鹿野町,大字下小鹿野１４８４番地,,11,365,3680100,,,2024-04-01,清算の結了等,,,2024-03-26,1,,,,,シバサキセイシ,0
2269,7030003006638,登記記録の閉鎖等,0,2024-04-08,2024-04-01,Ｍ’ｓ　Ｎｅｔｗｏｒｋ　Ｓｙｓｔｅｍ合同会社,,合同会社,埼玉県,深谷市,血洗島２２８番地１,,11,218,3660006,,,2024-04-01,清算の結了等,,,2015-10-05,1,,,,,エムズネットワークシステム,0
2270,7030003012099,登記記録の閉鎖等,0,2024-04-08,2024-04-01,合同会社ツバメサービス,,合同会社,埼玉県,川口市,東領家５丁目２０番２１号,,11,203,3320003,,,2024-04-01,清算の結了等,,,2018-07-03,1,,,,,ツバメサービス,0
2281,7050001011332,登記記録の閉鎖等,0,2024-04-08,2024-04-03,株式会社小川ガス,,株式会社,茨城県,小美玉市,小川１４８番地,,08,236,3113423,,,2024-04-03,清算の結了等,,,2015-10-05,1,,,,,オガワガス,0
2294,7070001028366,登記記録の閉鎖等,0,2024-04-08,2024-04-03,自然治癒力研究所株式会社,,株式会社,群馬県,太田市,龍舞町４８１５番地,,10,205,3730806,,,2024-04-03,清算の結了等,,,2015-10-05,1,,,,,シゼンチユリョクケンキュウショ,0
2296,7070002004531,登記記録の閉鎖等,0,2024-04-08,2024-04-02,有限会社福島鋼建,,有限会社,群馬県,前橋市,天川町１６７５番地８,,10,201,3710802,,,2024-04-02,清算の結了等,,,2015-10-05,1,,,,,フクシマコウケン,0
2328,7120003016090,登記記録の閉鎖等,0,2024-04-08,2024-04-01,合同会社てんとうむし,,合同会社,大阪府,大阪市中央区,平野町１丁目２番１号,,27,128,5410046,,,2024-04-01,清算の結了等,,,2019-08-06,1,,,,,テントウムシ,0
2332,7120101004988,登記記録の閉鎖等,0,2024-04-08,2024-04-01,大一産業株式会社,,株式会社,大阪府,堺市西区,鳳北町９丁５０８番地,,27,144,5938328,,,2024-04-01,合併による解散等,9120101042433,令和６年４月１日大阪府泉大津市臨海町一丁目１番地大一機工株式会社（9120101042433）に合併し解散,2015-10-05,1,,,,,ダイイチサンギョウ,0
2348,7140001031973,登記記録の閉鎖等,0,2024-04-08,2024-03-29,株式会社近藤特許翻訳サービス,,株式会社,兵庫県,神戸市灘区,徳井町４丁目３番２４－９０１号,,28,102,6570033,,,2024-03-29,清算の結了等,,,2015-10-05,1,,,,,コンドウトッキョホンヤクサービス,0
2351,7140001073693,登記記録の閉鎖等,0,2024-04-08,2024-04-02,株式会社一吉,,株式会社,兵庫県,西宮市,今在家町３番６号,,28,204,6620972,,,2024-04-02,清算の結了等,,,2015-10-05,1,,,,,イチヨシ,0
2356,7140001096307,登記記録の閉鎖等,0,2024-04-08,2024-03-28,株式会社オカノベーカリー,,株式会社,兵庫県,姫路市,御国野町国分寺３９１番地,,28,201,6710234,,,2024-03-28,合併による解散等,6140001058159,令和６年３月１９日兵庫県姫路市御国野町国分寺３９１番地岡野食品ホールディングス株式会社（6140001058159）に合併し解散,2015-10-05,1,,,,,オカノベーカリー,0
2362,7140002009333,登記記録の閉鎖等,0,2024-04-08,2024-04-01,有限会社三原鉄工商事,,有限会社,兵庫県,神戸市長田区,苅藻通７丁目４番１号,,28,106,6530032,,,2024-04-01,合併による解散等,9140001016948,令和６年３月３１日神戸市長田区苅藻通七丁目４番１号株式会社三原製作所（9140001016948）に合併し解散,2015-10-05,1,,,,,ミハラテッコウショウジ,0
2402,7220001006934,登記記録の閉鎖等,0,2024-04-08,2024-04-01,ＴＫエンジニアリング株式会社,,株式会社,石川県,金沢市,無量寺町ハ７０番地１,,17,201,9200332,,,2024-04-01,合併による解散等,5220001004205,令和６年３月３１日石川県金沢市無量寺町ハ６１番地１タマダ株式会社（5220001004205）に合併し解散,2015-10-05,1,,,,,ティーケーエンジニアリング,0
2404,7230002007022,登記記録の閉鎖等,0,2024-04-08,2024-04-02,有限会社想始舎,,有限会社,富山県,富山市,金泉寺４５０番地６,,16,201,9300906,,,2024-04-02,清算の結了等,,,2015-10-05,1,,,,,ソウシシャ,0
2421,7290001019582,登記記録の閉鎖等,0,2024-04-08,2024-03-21,株式会社三連工業,,株式会社,福岡県,福岡市博多区,千代４丁目２９番６５－３０１号,,40,132,8120044,,,2024-03-21,清算の結了等,,,2015-10-05,1,,,,,サンレンコウギョウ,0
2434,7300001005507,登記記録の閉鎖等,0,2024-04-08,2024-04-04,株式会社金丸建設,,株式会社,佐賀県,伊万里市,波多津町畑津２２９８番地４,,41,205,8480102,,,2024-04-04,清算の結了等,,,2015-10-05,1,,,,,カナマルケンセツ,0
2454,7360001014213,登記記録の閉鎖等,0,2024-04-08,2024-04-01,株式会社南国食楽Ｚｕ,,株式会社,沖縄県,宮古島市,平良字下里１２８４番地８,,47,214,9060013,,,2024-04-01,清算の結了等,,,2015-10-05,1,,,,,,0
2460,7370601003127,登記記録の閉鎖等,0,2024-04-08,2024-04-01,コシェル株式会社,,株式会社,宮城県,塩竈市,西玉川町７番３７号,,04,203,9850045,,,2024-04-01,清算の結了等,,,2015-10-05,1,,,,,コシェル,0
2462,7380001020572,登記記録の閉鎖等,0,2024-04-08,2024-04-01,ベル郡山株式会社,,株式会社,福島県,郡山市,山根町８番７号,,07,203,9638832,,,2024-04-01,合併による解散等,8380001004517,令和６年４月１日福島県郡山市鶴見坦二丁目４番５号アルファクラブ株式会社（8380001004517）に合併し解散,2015-10-05,1,,,,,ベルコオリヤマ,0
2482,7440005002123,登記記録の閉鎖等,0,2024-04-08,2024-04-01,特定非営利活動法人シルバータウン・ネットワーク,,その他の設立登記法人,北海道,檜山郡上ノ国町,字大留１５３番地の８,,01,362,0490611,,,2024-04-01,清算の結了等,,,2015-10-05,1,,,,,シルバータウンネットワーク,0
2485,7460102000201,登記記録の閉鎖等,0,2024-04-08,2024-04-03,伊香保ビル有限会社,,有限会社,北海道,帯広市,西二条南９丁目１０番地,,01,207,0800012,,,2024-04-03,清算の結了等,,,2015-10-05,1,,,,,イカホビル,0
2488,7470002009606,登記記録の閉鎖等,0,2024-04-08,2024-04-01,有限会社山久組,,有限会社,香川県,高松市,香川町浅野５０２番地１３,,37,201,7611703,,,2024-04-01,清算の結了等,,,2015-10-05,1,,,,,ヤマヒサグミ,0
2516,8010003013528,登記記録の閉鎖等,0,2024-04-08,2024-03-29,多摩堤合同会社,,合同会社,東京都,千代田区,丸の内３丁目１番１号東京共同会計事務所内,,13,101,1000005,,,2024-03-29,清算の結了等,,,2015-10-05,1,,,,,タマツツミ,0
2519,8010003019632,登記記録の閉鎖等,0,2024-04-08,2024-04-01,合同会社ジーケーゼロキュウ,,合同会社,東京都,千代田区,丸の内３丁目１番１号,,13,101,1000005,,,2024-04-01,清算の結了等,,,2015-10-05,1,,,,,ジーケーゼロキュウ,0
2525,8010005029522,登記記録の閉鎖等,0,2024-04-08,2024-03-19,一般社団法人日本ポーランド青少年協会,,その他の設立登記法人,東京都,文京区,水道１丁目２番１７－６１１号,,13,105,1120005,,,2024-03-19,清算の結了等,,,2019-01-09,1,,,,,ニホンポーランドセイショウネンキョウカイ,0
2549,8010501031989,登記記録の閉鎖等,0,2024-04-08,2024-04-01,株式会社ＦＣＥトレーニング・カンパニー,,株式会社,東京都,新宿区,西新宿２丁目４番１号,,13,104,1600023,,,2024-04-01,合併による解散等,5011101080339,令和６年４月１日東京都新宿区西新宿二丁目４番１号株式会社ＦＣＥ（5011101080339）に合併し解散,2015-10-05,1,,,,,エフシーイートレーニングカンパニー,0
2578,8011101012710,登記記録の閉鎖等,0,2024-04-08,2024-04-01,株式会社東都企画,,株式会社,東京都,新宿区,西新宿５丁目１０番４号,,13,104,1600023,,,2024-04-01,清算の結了等,,,2015-10-05,1,,,,,トウトキカク,0
2601,8013201006880,登記記録の閉鎖等,0,2024-04-08,2024-03-29,株式会社フジフードサービス,,株式会社,東京都,大田区,上池台４丁目３８番５号,,13,111,1450064,,,2024-03-29,清算の結了等,,,2015-10-05,1,,,,,フジフードサービス,0
2610,8020002066303,登記記録の閉鎖等,0,2024-04-08,2024-03-27,有限会社ツルギサンゴ,,有限会社,神奈川県,横浜市神奈川区,菅田町７３９番地４４,,14,102,2210864,,,2024-03-27,清算の結了等,,,2015-10-05,1,,,,,ツルギサンゴ,0
2628,8030001088628,登記記録の閉鎖等,0,2024-04-08,2024-04-01,株式会社よなちゅう商事,,株式会社,埼玉県,熊谷市,柿沼８９２番地７,,11,202,3600803,,,2024-04-01,合併による解散等,8030001087852,令和６年４月１日埼玉県熊谷市柿沼８９２番地７株式会社ヨナハ（8030001087852）に合併し解散,2015-10-05,1,,,,,ヨナチュウショウジ,0
2633,8030002066129,登記記録の閉鎖等,0,2024-04-08,2024-03-28,有限会社サイキョウ空間,,有限会社,埼玉県,富士見市,羽沢３丁目８番３８号,,11,235,3540033,,,2024-03-28,清算の結了等,,,2015-10-05,1,,,,,サイキョウクウカン,0
2646,8040005016848,登記記録の閉鎖等,0,2024-04-08,2024-04-01,公益財団法人船橋市文化・スポーツ公社,,その他の設立登記法人,千葉県,船橋市,本町２丁目１番１号,,12,204,2730005,,,2024-04-01,合併による解散等,2040005016903,令和６年４月１日千葉県船橋市本町四丁目４１番１９号公益財団法人船橋市公園協会（2040005016903）に合併し解散,2015-10-05,1,,,,,フナバシシブンカスポーツコウシャ,0
2672,8110002025027,登記記録の閉鎖等,0,2024-04-08,2024-04-01,有限会社朝日ビジネス,,有限会社,新潟県,妙高市,朝日町１丁目６番３号,,15,217,9440043,,,2024-04-01,清算の結了等,,,2015-10-05,1,,,,,アサヒビジネス,0
2699,8122003001328,登記記録の閉鎖等,0,2024-04-08,2024-03-29,合同会社年金ステーション,,合同会社,大阪府,八尾市,小阪合町３丁目８番２０号,,27,212,5810012,,,2024-03-29,清算の結了等,,,2017-04-07,1,,,,,ネンキンステーション,0
2705,8140001043679,登記記録の閉鎖等,0,2024-04-08,2024-04-01,株式会社明姫食品,,株式会社,兵庫県,加古川市,別府町新野辺北町５丁目９８番地,,28,210,6750121,,,2024-04-01,清算の結了等,,,2015-10-05,1,,,,,メイキショクヒン,0
2738,8180002090130,登記記録の閉鎖等,0,2024-04-08,2024-03-28,有限会社大喜建設,,有限会社,愛知県,弥富市,五之三町焼田６９番地,,23,235,4980012,,,2024-03-28,清算の結了等,,,2015-10-05,1,,,,,ダイキケンセツ,0
2756,8230001005199,登記記録の閉鎖等,0,2024-04-08,2024-04-01,株式会社ヘーヤ,,株式会社,富山県,富山市,下大久保２４１２番地の９,,16,201,9392251,,,2024-04-01,合併による解散等,6230001005192,令和６年４月１日富山市下大久保２４１２番地の９平野電業株式会社（6230001005192）に合併し解散,2015-10-05,1,,,,,ヘーヤ,0
2757,8230001008284,登記記録の閉鎖等,0,2024-04-08,2024-04-02,株式会社祖山林産,,株式会社,富山県,砺波市,千代２１６番地,,16,208,9391351,,,2024-04-02,清算の結了等,,,2015-10-05,1,,,,,ソヤマリンサン,0
2760,8240001046481,登記記録の閉鎖等,0,2024-04-08,2024-04-01,東和工業株式会社,,株式会社,広島県,福山市,東村町７番地,,34,207,7290251,,,2024-04-01,合併による解散等,3240001031455,令和６年４月１日広島県福山市東村町７番地東和工業株式会社（3240001031455）に合併し解散,2015-10-05,1,,,,,トウワコウギョウ,0
2762,8260001029055,登記記録の閉鎖等,0,2024-04-08,2024-04-01,株式会社エスライフステージ,,株式会社,岡山県,岡山市中区,藤原西町２丁目７番２８号,,33,102,7038244,,,2024-04-01,合併による解散等,9260001007927,令和６年４月１日岡山市中区藤原西町二丁目７番２８号株式会社創拓（9260001007927）に合併し解散,2015-12-14,1,,,,,エスライフステージ,0
2763,8260001038551,登記記録の閉鎖等,0,2024-04-08,2024-04-01,株式会社ＣＣＰ‐２,,株式会社,岡山県,倉敷市,日畑２９４番地,,33,202,7010101,,,2024-04-01,合併による解散等,5260001013367,令和６年４月１日岡山県倉敷市日畑２９４番地株式会社山陽エンタープライズ（5260001013367）に合併し解散,2023-12-11,1,,,,,シーシーピーツー,0
2766,8280002004294,登記記録の閉鎖等,0,2024-04-08,2024-04-03,有限会社ＳＢＳ,,有限会社,島根県,松江市,国屋町３４９番地,,32,201,6900859,,,2024-04-03,清算の結了等,,,2015-10-05,1,,,,,エスビーエス,0
2769,8280003001514,登記記録の閉鎖等,0,2024-04-08,2024-04-02,合同会社ＳＨ測定サービス,,合同会社,島根県,出雲市,枝大津町１３番地５,,32,203,6930017,,,2024-04-02,清算の結了等,,,2021-07-07,1,,,,,エスエッチソクテイサービス,0
2779,8290002033482,登記記録の閉鎖等,0,2024-04-08,2024-03-22,有限会社アドバンス・シミズ,,有限会社,福岡県,福岡市博多区,博多駅東２丁目５番１９号,,40,132,8120013,,,2024-03-22,清算の結了等,,,2015-10-05,1,,,,,アドバンスシミズ,0
2784,8290801020103,登記記録の閉鎖等,0,2024-04-08,2024-03-29,株式会社セルフケア,,株式会社,福岡県,遠賀郡岡垣町,野間２丁目１５番１９号,,40,383,8114233,,,2024-03-29,清算の結了等,,,2015-10-05,1,,,,,セルフケア,0
2811,8370005003053,登記記録の閉鎖等,0,2024-04-08,2024-04-01,一般財団法人スモリ,,その他の設立登記法人,宮城県,仙台市宮城野区,中野１丁目５番地の９,,04,102,9830013,,,2024-04-01,清算の結了等,,,2015-10-05,1,,,,,スモリ,0
2812,8380001020571,登記記録の閉鎖等,0,2024-04-08,2024-04-01,ベル福島株式会社,,株式会社,福島県,福島市,西中央５丁目４９番１号,,07,201,9608074,,,2024-04-01,合併による解散等,8380001004517,令和６年４月１日福島県郡山市鶴見坦二丁目４番５号アルファクラブ株式会社（8380001004517）に合併し解散,2015-10-05,1,,,,,ベルフクシマ,0
2829,8460102000175,登記記録の閉鎖等,0,2024-04-08,2024-04-01,株式会社ＲＥＲＵＤ北海道,,株式会社,北海道,帯広市,西四条南１０丁目２３番地,,01,207,0800014,,,2024-04-01,合併による解散等,6460101000715,令和６年３月３１日北海道帯広市西四条南十丁目２３番地篠河建設株式会社（6460101000715）に合併し解散,2015-10-05,1,,,,,レルドホッカイドウ,0
2858,9010401028498,登記記録の閉鎖等,0,2024-04-08,2024-04-01,株式会社味覚春秋モンド,,株式会社,東京都,港区,赤坂９丁目６番４２号パレドール乃木坂４０４号,,13,103,1070052,,,2024-04-01,清算の結了等,,,2015-10-05,1,,,,,ミカクシュンジュウモンド,0
2859,9010401070376,登記記録の閉鎖等,0,2024-04-08,2024-04-01,株式会社天夢人,,株式会社,東京都,千代田区,神田神保町１丁目１０５番地,,13,101,1010051,,,2024-04-01,合併による解散等,3011101001718,令和６年４月１日東京都千代田区神田神保町一丁目１０５番地イカロス出版株式会社（3011101001718）に合併し解散,2015-10-05,1,,,,,テムジン,0
2873,9010501048669,登記記録の閉鎖等,0,2024-04-08,2024-04-03,株式会社ＮＣＬ,,株式会社,東京都,台東区,上野５丁目１８番１０号,,13,106,1100005,,,2024-04-03,合併による解散等,1011001041279,令和６年４月１日東京都新宿区西新宿六丁目１８番１号日本ゲームカード株式会社（1011001041279）に合併し解散,2022-04-04,1,,,,,エヌシーエル,0
2883,9011001016975,登記記録の閉鎖等,0,2024-04-08,2024-04-01,株式会社ニシオ,,株式会社,東京都,渋谷区,猿楽町５番１７号,,13,113,1500033,,,2024-04-01,清算の結了等,,,2015-10-05,1,,,,,ニシオ,0
2913,9011801027453,登記記録の閉鎖等,0,2024-04-08,2024-04-01,日商ネクスト株式会社,,株式会社,東京都,足立区,宮城１丁目６番５号,,13,121,1200047,,,2024-04-01,合併による解散等,9011801010995,令和６年４月１日東京都足立区宮城一丁目６番５号日商印刷株式会社（9011801010995）に合併し解散,2015-10-05,1,,,,,ニッショウネクスト,0
2928,9020001056840,登記記録の閉鎖等,0,2024-04-08,2024-04-01,株式会社Ｓｈｉｎｊｉ,,株式会社,神奈川県,横浜市金沢区,富岡東１丁目１１番３号,,14,108,2360051,,,2024-04-01,清算の結了等,,,2015-10-05,1,,,,,シンジ,0
2932,9020001095715,登記記録の閉鎖等,0,2024-04-08,2024-04-02,エース設備株式会社,,株式会社,東京都,杉並区,和泉２丁目１８番１３号,,13,115,1680063,,,2024-04-02,清算の結了等,,,2015-10-05,1,,,,,,0
2942,9020002012173,登記記録の閉鎖等,0,2024-04-08,2024-04-01,有限会社田辺製作所,,有限会社,神奈川県,横浜市戸塚区,名瀬町１７５４番地,,14,110,2450051,,,2024-04-01,清算の結了等,,,2015-10-05,1,,,,,タナベセイサクショ,0
2950,9021001033012,登記記録の閉鎖等,0,2024-04-08,2024-04-01,小田急箱根ホールディングス株式会社,,株式会社,神奈川県,小田原市,城山１丁目１５番１号,,14,206,2500045,,,2024-04-01,合併による解散等,8021001033616,令和６年４月１日神奈川県小田原市城山一丁目１５番１号株式会社小田急箱根（8021001033616）に合併し解散,2015-10-05,1,,,,,オダキュウハコネホールディングス,0
2964,9030002024110,登記記録の閉鎖等,0,2024-04-08,2024-03-29,有限会社けん作,,有限会社,埼玉県,戸田市,喜沢１丁目４７番３７号,,11,224,3350013,,,2024-03-29,清算の結了等,,,2015-10-05,1,,,,,ケンサク,0
2965,9030003004210,登記記録の閉鎖等,0,2024-04-08,2024-03-29,合同会社三和バッテリー,,合同会社,埼玉県,川口市,飯塚４丁目１４番３号,,11,203,3320023,,,2024-03-29,清算の結了等,,,2015-10-05,1,,,,,サンワバッテリー,0
2966,9030005010735,登記記録の閉鎖等,0,2024-04-08,2024-04-01,医療法人星砂会,,その他の設立登記法人,埼玉県,越谷市,越ヶ谷５丁目２番２号Ｋ’レセンテＡ,,11,222,3430813,,,2024-04-01,清算の結了等,,,2015-10-05,1,,,,,セイサカイ,0
2968,9040001008897,登記記録の閉鎖等,0,2024-04-08,2024-03-29,株式会社インテリジェンス,,株式会社,東京都,千代田区,平河町１丁目３番６号,,13,101,1020093,,,2024-03-29,清算の結了等,,,2015-10-05,1,,,,,インテリジェンス,0
2985,9050002034982,登記記録の閉鎖等,0,2024-04-08,2024-04-02,有限会社サンワード,,有限会社,茨城県,土浦市,神立町６７３番地１１猪瀬ハイツ２０１,,08,203,3000013,,,2024-04-02,清算の結了等,,,2015-10-05,1,,,,,サンワード,0
2987,9060001005190,登記記録の閉鎖等,0,2024-04-08,2024-04-01,パワースタッフ株式会社,,株式会社,栃木県,宇都宮市,御幸本町４７３２－２シグマビル,,09,201,3210983,,,2024-04-01,清算の結了等,,,2015-10-05,1,,,,,パワースタッフ,0
3033,9130001042334,登記記録の閉鎖等,0,2024-04-08,2024-04-01,株式会社エフケイイノベーション,,株式会社,京都府,京都市左京区,松ケ崎河原田町８番地８,,26,103,6060941,,,2024-04-01,合併による解散等,2010401097376,令和６年４月１日京都市下京区諏訪町通五条下る上諏訪町２９４番地５株式会社バティックス（2010401097376）に合併し解散,2015-10-05,1,,,,,エフケイイノベーション,0
3039,9140001026286,登記記録の閉鎖等,0,2024-04-08,2024-04-02,株式会社セムコシステム阪神,,株式会社,兵庫県,神戸市須磨区,古川町３丁目２番２５号,,28,107,6540041,,,2024-04-02,清算の結了等,,,2015-10-05,1,,,,,セムコシステムハンシン,0
3051,9140002029585,登記記録の閉鎖等,0,2024-04-08,2024-04-01,有限会社藤井運送,,有限会社,兵庫県,明石市,林崎町２丁目２番１１号,,28,203,6730033,,,2024-04-01,清算の結了等,,,2015-10-05,1,,,,,フジイウンソウ,0
3070,9180002040217,登記記録の閉鎖等,0,2024-04-08,2024-04-01,有限会社アイケーサービス,,有限会社,愛知県,清須市,春日県１５１番地,,23,233,4520962,,,2024-04-01,合併による解散等,8180001088522,令和６年４月１日愛知県清須市春日県１５１番地株式会社石川機工（8180001088522）に合併し解散,2015-10-05,1,,,,,アイケーサービス,0
3076,9190001008296,登記記録の閉鎖等,0,2024-04-08,2024-04-01,株式会社エフシーテクノ,,株式会社,三重県,伊勢市,村松町１３８９番地１８,,24,203,5150507,,,2024-04-01,合併による解散等,3190001015091,令和６年４月１日三重県松阪市嬉野一志町字口山田９５５番地７株式会社シーキューブ三重（3190001015091）に合併し解散,2015-10-05,1,,,,,エフシーテクノ,0
3088,9220001007682,登記記録の閉鎖等,0,2024-04-08,2024-04-01,アジアニッカイ株式会社,,株式会社,石川県,金沢市,観音堂町イ２５番地,,17,201,9200352,,,2024-04-01,合併による解散等,4220001004949,令和６年４月１日石川県金沢市観音堂町ヘ４１番地４日海不二サッシ株式会社（4220001004949）に合併し解散,2015-10-05,1,,,,,アジアニッカイ,0
3102,9290001075483,登記記録の閉鎖等,0,2024-04-08,2024-04-03,アサヒプロパティマネジメント株式会社,,株式会社,福岡県,久留米市,東町１番地３７アサヒビル３階,,40,203,8300032,,,2024-04-03,清算の結了等,,,2016-10-13,1,,,,,アサヒプロパティマネジメント,0
3122,9360001007644,登記記録の閉鎖等,0,2024-04-08,2024-04-01,株式会社ジーデリカ,,株式会社,沖縄県,うるま市,字州崎１２番地９０,,47,213,9042234,,,2024-04-01,合併による解散等,7360001007844,令和６年４月１日沖縄県うるま市字州崎１２番地９０株式会社ぐしけん（7360001007844）に合併し解散,2015-10-05,1,,,,,ジーデリカ,0
3126,9370001017056,登記記録の閉鎖等,0,2024-04-08,2024-04-01,株式会社Ｏ・Ｓ・Ｔ,,株式会社,宮城県,仙台市青葉区,柏木１丁目９番７号,,04,101,9810933,,,2024-04-01,清算の結了等,,,2015-10-05,1,,,,,オーエスティー,0
3136,9400501000978,登記記録の閉鎖等,0,2024-04-08,2024-03-29,株式会社伊藤製作所,,株式会社,岩手県,一関市,赤荻字上袋１９４番地１,,03,209,0210041,,,2024-03-29,清算の結了等,,,2015-10-05,1,,,,,イトウセイサクジョ,0
3158,9470001005249,登記記録の閉鎖等,0,2024-04-08,2024-03-29,四国トウペ販売株式会社,,株式会社,香川県,高松市,田村町４０９番地１,,37,201,7618057,,,2024-03-29,清算の結了等,,,2015-10-05,1,,,,,シコクトウペハンバイ,0
