sequenceNumber,corporateNumber,process,correct,updateDate,changeDate,name,nameImageId,kind,prefectureName,cityName,streetNumber,addressImageId,prefectureCode,cityCode,postCode,addressOutside,addressOutsideImageId,closeDate,closeCause,successorCorporateNumber,changeCause,assignmentDate,latest,enName,enPrefectureName,enCityName,enAddressOutside,furigana,hihyoji
13,1010003039307,登記記録の閉鎖等,0,2024-11-13,2024-10-31,合同会社ＣＣＦ２号,,合同会社,東京都,中央区,八丁堀４丁目２番１０号ＡＯＪ税理士法人内,,13,102,1040032,,,2024-10-31,清算の結了等,,,2022-12-15,1,,,,,シーシーエフニゴウ,0
37,1010401050030,登記記録の閉鎖等,0,2024-11-13,2024-10-24,株式会社マーシャルジャパン,,株式会社,東京都,港区,南麻布１丁目６番３６号,,13,103,1060047,,,2024-10-24,清算の結了等,,,2015-10-05,1,,,,,マーシャルジャパン,0
51,1010502014355,登記記録の閉鎖等,0,2024-11-13,2024-11-05,有限会社イメージアート,,有限会社,東京都,台東区,台東１丁目４番６号,,13,106,1100016,,,2024-11-05,清算の結了等,,,2015-10-05,1,,,,,イメージアート,0
54,1010602026176,登記記録の閉鎖等,0,2024-11-13,2024-11-06,有限会社松碩社,,有限会社,東京都,墨田区,本所２丁目４番５号－４０５,,13,107,1300004,,,2024-11-06,清算の結了等,,,2015-10-05,1,,,,,ショウセキシャ,0
61,1010705000540,登記記録の閉鎖等,0,2024-11-13,2024-11-05,東京都畳材料商業協同組合,,その他の設立登記法人,東京都,品川区,東品川３丁目２１番１５号,,13,109,1400002,,,2024-11-05,清算の結了等,,,2015-10-05,1,,,,,,0
64,1010902019219,登記記録の閉鎖等,0,2024-11-13,2024-11-05,有限会社テクノウエア,,有限会社,東京都,世田谷区,南烏山１丁目２９番１－２０４号,,13,112,1570062,,,2024-11-05,清算の結了等,,,2015-10-05,1,,,,,,0
79,1011202005677,登記記録の閉鎖等,0,2024-11-13,2024-11-11,株式会社丸亀,,株式会社,東京都,中野区,新井１丁目２５番４号,,13,114,1650026,,,2024-11-11,清算の結了等,,,2015-10-05,1,,,,,マルカメ,0
80,1011203003820,登記記録の閉鎖等,0,2024-11-13,2024-11-06,伊予合同会社,,合同会社,東京都,新宿区,下落合２丁目５番３号千成ビル２０３,,13,104,1610033,,,2024-11-06,合併による解散等,8011203003624,令和６年１１月１日東京都中野区江原町二丁目２１番７－５０４号松山合同会社（8011203003624）に合併し解散,2022-05-27,1,,,,,イヨ,0
82,1011403002564,登記記録の閉鎖等,0,2024-11-13,2024-10-01,株式会社ＳＩＳ,,株式会社,東京都,板橋区,双葉町３１番７号,,13,119,1730011,,,2024-10-01,合併による解散等,1011402001591,令和６年１０月１日東京都板橋区双葉町３１番７号株式会社エフエスシー（1011402001591）に合併し解散,2018-12-12,1,,,,,エスアイエス,0
90,1012401003918,登記記録の閉鎖等,0,2024-11-13,2024-11-11,日本バーテルト株式会社,,株式会社,東京都,小金井市,東町１丁目１１番８号,,13,210,1840011,,,2024-11-11,清算の結了等,,,2015-10-05,1,,,,,ニホンバーテルト,0
102,1013305003104,登記記録の閉鎖等,0,2024-11-13,2024-11-07,一般社団法人日本チップ普及協会,,その他の設立登記法人,東京都,豊島区,東池袋３丁目２番４号,,13,116,1700013,,,2024-11-07,清算の結了等,,,2020-07-15,1,,,,,ニホンチップフキュウキョウカイ,0
118,1021002008838,登記記録の閉鎖等,0,2024-11-13,2024-11-12,有限会社ハートＭプランニング,,有限会社,神奈川県,藤沢市,片瀬５丁目１０番７～２０６号,,14,205,2510032,,,2024-11-12,清算の結了等,,,2015-10-05,1,,,,,,0
121,1030001059511,登記記録の閉鎖等,0,2024-11-13,2024-11-08,株式会社リューキ,,株式会社,埼玉県,川越市,旭町１丁目１０番地１２,,11,201,3501126,,,2024-11-08,清算の結了等,,,2015-10-05,1,,,,,リューキ,0
135,1040002086578,登記記録の閉鎖等,0,2024-11-13,2024-11-05,有限会社リフォーム専科,,有限会社,千葉県,銚子市,長塚町３丁目１５９番地,,12,202,2880837,,,2024-11-05,清算の結了等,,,2015-10-05,1,,,,,,0
149,1070002018628,登記記録の閉鎖等,0,2024-11-13,2024-11-08,オザワコンピュータサービス有限会社,,有限会社,群馬県,伊勢崎市,喜多町５４番地１,,10,204,3720056,,,2024-11-08,清算の結了等,,,2015-10-05,1,,,,,オザワコンピュータサービス,0
153,1080003001895,登記記録の閉鎖等,0,2024-11-13,2024-11-08,株式会社兼子商店,,株式会社,静岡県,静岡市清水区,興津中町９９０番地,,22,103,4240204,,,2024-11-08,合併による解散等,3010001239798,令和６年１１月１日東京都千代田区平河町二丁目１６番１号平河町森タワー１０階ＫＧホールディングス株式会社（3010001239798）に合併し解散,2016-08-12,1,,,,,カネコショウテン,0
154,1080101024501,登記記録の閉鎖等,0,2024-11-13,2024-11-08,株式会社アクロス,,株式会社,静岡県,富士市,厚原４６７番地の９富士美マンション１０３,,22,210,4190201,,,2024-11-08,清算の結了等,,,2024-02-02,1,,,,,アクロス,0
156,1080102003677,登記記録の閉鎖等,0,2024-11-13,2024-11-08,有限会社山大水産,,有限会社,静岡県,沼津市,千本緑町３丁目１４番地の３,,22,203,4100855,,,2024-11-08,清算の結了等,,,2015-10-05,1,,,,,ヤマダイスイサン,0
157,1080103001853,登記記録の閉鎖等,0,2024-11-13,2024-11-08,合同会社ＤＮＡＴ,,合同会社,静岡県,富士市,厚原１８６５番地の２１,,22,210,4190201,,,2024-11-08,清算の結了等,,,2018-07-10,1,,,,,ディーナット,0
165,1100002010250,登記記録の閉鎖等,0,2024-11-13,2024-11-01,有限会社浅川商店,,有限会社,長野県,佐久市,田口２４８１番地,,20,217,3840412,,,2024-11-01,清算の結了等,,,2015-10-05,1,,,,,アサカワショウテン,0
166,1110001026296,登記記録の閉鎖等,0,2024-11-13,2024-10-16,株式会社エム・エフ・テック,,株式会社,新潟県,南魚沼市,津久野１１１２番地１４,,15,226,9496771,,,2024-10-16,合併による解散等,4010001035429,令和６年９月３０日東京都中央区八丁堀二丁目２１番１１号アコーダー・ビジネス・フォーム株式会社（4010001035429）に合併し解散,2015-10-05,1,,,,,エムエフテック,0
169,1120001133001,登記記録の閉鎖等,0,2024-11-13,2024-11-11,株式会社トレイト,,株式会社,大阪府,大阪市平野区,加美西２丁目５番１７－２０１号,,27,126,5470005,,,2024-11-11,清算の結了等,,,2015-10-05,1,,,,,,0
186,1120002038414,登記記録の閉鎖等,0,2024-11-13,2024-11-12,有限会社プラスクラフト,,有限会社,大阪府,大阪市北区,東天満２丁目１０－３５宗石ビル４０１,,27,127,5300044,,,2024-11-12,清算の結了等,,,2015-10-05,1,,,,,プラスクラフト,0
187,1120003010215,登記記録の閉鎖等,0,2024-11-13,2024-11-12,合同会社ＭＩＤＣＯＭ,,合同会社,大阪府,大阪市中央区,島之内１丁目２２番２０号堺筋ビルディング６０１－３,,27,128,5420082,,,2024-11-12,清算の結了等,,,2015-10-05,1,,,,,,0
196,1122002011012,登記記録の閉鎖等,0,2024-11-13,2024-11-05,有限会社エル・エス・アール,,有限会社,大阪府,大東市,末広町１番２２０８号,,27,218,5740036,,,2024-11-05,清算の結了等,,,2015-10-05,1,,,,,エルエスアール,0
200,1130002032127,登記記録の閉鎖等,0,2024-11-13,2024-11-08,有限会社梅渓,,有限会社,京都府,宮津市,字文珠６４４番地,,26,205,6260001,,,2024-11-08,清算の結了等,,,2015-10-05,1,,,,,,0
222,1180302006404,登記記録の閉鎖等,0,2024-11-13,2024-11-06,有限会社井土畜産,00074909,有限会社,愛知県,豊橋市,杉山町字屋敷２０番地,,23,201,4413302,,,2024-11-06,清算の結了等,,,2015-10-05,1,,,,,イヅチチクサン,0
230,1210002007178,登記記録の閉鎖等,0,2024-11-13,2024-11-07,有限会社ファーム高橋,,有限会社,福井県,坂井市,三国町平山５３号５番地１,,18,210,9130004,,,2024-11-07,清算の結了等,,,2015-10-05,1,,,,,ファームタカハシ,0
234,1240001035466,登記記録の閉鎖等,0,2024-11-13,2024-11-06,株式会社Ｈ＆Ａ,,株式会社,広島県,福山市,水呑町４６０５番地水呑三新田６７－１－２－１,,34,207,7200832,,,2024-11-06,清算の結了等,,,2015-10-05,1,,,,,エイチアンドエイ,0
235,1240001048303,登記記録の閉鎖等,0,2024-11-13,2024-11-01,株式会社せんだ,,株式会社,広島県,福山市,千田町２丁目５０番３号,,34,207,7200017,,,2024-11-01,合併による解散等,8240001043289,令和６年１１月１日広島県尾道市平原二丁目５９番地１株式会社平原（8240001043289）に合併し解散,2015-10-05,1,,,,,,0
243,1290003010982,登記記録の閉鎖等,0,2024-11-13,2024-10-07,合同会社ＥＸＩＴ,,合同会社,福岡県,福岡市中央区,薬院３丁目１２番４１－１１０３号ナビールコート薬院,,40,133,8100022,,,2024-10-07,清算の結了等,,,2021-03-15,1,,,,,イグジット,0
246,1290005018256,登記記録の閉鎖等,0,2024-11-13,2024-10-10,一般社団法人九州アドベンチャーツーリズム協議会,,その他の設立登記法人,福岡県,福岡市中央区,港２丁目１番４－１０５号メゾンボナール,,40,133,8100075,,,2024-10-10,清算の結了等,,,2021-06-25,1,,,,,キュウシュウアドベンチャーツーリズムキョウギカイ,0
256,1350001015754,登記記録の閉鎖等,0,2024-11-13,2024-10-10,株式会社ワイズカンパニー,,株式会社,宮崎県,宮崎市,大塚町馬場崎３５９０番地３,00116172,45,201,8800951,,,2024-10-10,合併による解散等,6030001114468,令和６年１０月１日埼玉県さいたま市西区大字佐知川２２８番地６株式会社センスクレア（6030001114468）に合併し解散,2019-04-03,1,,,,,ワイズカンパニー,0
258,1350005002146,登記記録の閉鎖等,0,2024-11-13,2024-10-08,天理教日向都農分教会,,その他の設立登記法人,宮崎県,児湯郡都農町,大字川北４５９９番地,,45,406,8891201,,,2024-10-08,合併による解散等,3140005009490,令和６年９月２６日兵庫県加古郡稲美町蛸草１１１４番地の１天理教加古大教会（3140005009490）に合併し解散,2015-10-05,1,,,,,テンリキョウヒュウガツノブンキョウカイ,0
269,1400002004412,登記記録の閉鎖等,0,2024-11-13,2024-11-01,有限会社アイエフイー・テクニカル本舗,,有限会社,岩手県,盛岡市,緑が丘１丁目９番２９号,,03,201,0200117,,,2024-11-01,清算の結了等,,,2015-10-05,1,,,,,アイエフイーテクニカルホンポ,0
283,1470003001435,登記記録の閉鎖等,0,2024-11-13,2024-11-07,合同会社三粒,,合同会社,香川県,仲多度郡まんのう町,吉野２１２９番地１,,37,406,7660023,,,2024-11-07,清算の結了等,,,2018-07-20,1,,,,,サンリュウ,0
302,2010003031007,登記記録の閉鎖等,0,2024-11-13,2024-10-31,ＡＦ１８合同会社,,合同会社,東京都,中央区,京橋１丁目１１番１号,,13,102,1040031,,,2024-10-31,清算の結了等,,,2019-11-07,1,,,,,エーエフエイティーン,0
339,2011001001769,登記記録の閉鎖等,0,2024-11-13,2024-10-16,株式会社アルフア・エンタープライズ,,株式会社,東京都,渋谷区,恵比寿西１丁目８番２－５１１号,,13,113,1500021,,,2024-10-16,清算の結了等,,,2015-10-05,1,,,,,アルフアエンタープライズ,0
341,2011001039066,登記記録の閉鎖等,0,2024-11-13,2024-10-08,株式会社ベネッセＭＣＭ,,株式会社,東京都,新宿区,西新宿２丁目３番１号新宿モノリスビル,,13,104,1600023,,,2024-10-08,合併による解散等,7010001091023,令和６年１０月１日東京都千代田区神田神保町二丁目４番株式会社ハートメディカルケア（7010001091023）に合併し解散,2015-10-05,1,,,,,ベネッセエムシーエム,0
348,2011003006741,登記記録の閉鎖等,0,2024-11-13,2024-10-16,ＡＳＨＩ　ＦＩＬＭＳ合同会社,,合同会社,東京都,目黒区,青葉台３丁目３－１１みどり荘２Ｆ,,13,110,1530042,,,2024-10-16,清算の結了等,,,2016-04-20,1,,,,,アシフィルムズ,0
350,2011101013879,登記記録の閉鎖等,0,2024-11-13,2024-11-12,株式会社東基,,株式会社,東京都,調布市,野水１丁目９番地９号,,13,208,1820031,,,2024-11-12,清算の結了等,,,2015-10-05,1,,,,,トウキ,0
359,2011701005870,登記記録の閉鎖等,0,2024-11-13,2024-11-01,株式会社中川興業所,,株式会社,東京都,江戸川区,南葛西１丁目１３番６号,,13,123,1340085,,,2024-11-01,清算の結了等,,,2015-10-05,1,,,,,ナカガワコウギョウショ,0
364,2011801036130,登記記録の閉鎖等,0,2024-11-13,2024-10-22,株式会社Ｖｉｖｉａｎ＆Ｃ,,株式会社,東京都,足立区,舎人１丁目１７－１１,,13,121,1210831,,,2024-10-22,清算の結了等,,,2019-05-27,1,,,,,ヴィヴィアンアンドシー,0
365,2011801041527,登記記録の閉鎖等,0,2024-11-13,2024-10-30,株式会社ＴＡＢＥＬＵＣＫ,,株式会社,東京都,葛飾区,西新小岩１丁目１番５－１０１０号プラウド新小岩,,13,122,1240025,,,2024-10-30,清算の結了等,,,2022-11-10,1,,,,,タベラク,0
385,2020001014664,登記記録の閉鎖等,0,2024-11-13,2024-10-28,株式会社協和商会,,株式会社,神奈川県,横浜市港南区,野庭町４９番地１シティウインズ横浜スカイヒルズ２１５号,,14,111,2340056,,,2024-10-28,清算の結了等,,,2015-10-05,1,,,,,キョウワショウカイ,0
404,2040002037571,登記記録の閉鎖等,0,2024-11-13,2024-11-06,有限会社イシイ,,有限会社,千葉県,鎌ケ谷市,西佐津間１丁目１７番２１号,,12,224,2730134,,,2024-11-06,清算の結了等,,,2015-10-05,1,,,,,イシイ,0
407,2040005017926,登記記録の閉鎖等,0,2024-11-13,2024-11-07,特定非営利活動法人白井助け合いネット,,その他の設立登記法人,千葉県,白井市,清水口１丁目２番地１０号,,12,232,2701435,,,2024-11-07,清算の結了等,,,2015-10-05,1,,,,,シロイタスケアイネット,0
409,2050001010735,登記記録の閉鎖等,0,2024-11-13,2024-10-31,株式会社東洋建設,,株式会社,茨城県,かすみがうら市,三ツ木５５５番地,,08,230,3000125,,,2024-10-31,合併による解散等,9050001010142,令和６年１０月２９日茨城県かすみがうら市三ツ木５５５番地株式会社斉藤鉄工建設（9050001010142）に合併し解散,2015-10-05,1,,,,,トウヨウケンセツ,0
416,2070001038956,登記記録の閉鎖等,0,2024-11-13,2024-11-11,株式会社さとり,,株式会社,群馬県,高崎市,飯塚町１２０５番地１３ＨＯＸ１０－１０５,,10,202,3700069,,,2024-11-11,清算の結了等,,,2022-02-18,1,,,,,サトリ,0
419,2080001020764,登記記録の閉鎖等,0,2024-11-13,2024-11-05,株式会社アブソリュートデュオ,,株式会社,静岡県,藤枝市,宮原５３４番地の２,,22,214,4260133,,,2024-11-05,清算の結了等,,,2016-02-24,1,,,,,アブソリュートデュオ,0
439,2120001159292,登記記録の閉鎖等,0,2024-11-13,2024-11-11,株式会社ホウジョウ,,株式会社,大阪府,門真市,殿島町８番１－４０１号,,27,223,5710045,,,2024-11-11,清算の結了等,,,2015-10-05,1,,,,,ホウジョウ,0
451,2120101028793,登記記録の閉鎖等,0,2024-11-13,2024-10-02,株式会社ＭＡＥＤＡ,,株式会社,大阪府,堺市堺区,市之町東４丁２番３３号,,27,141,5900952,,,2024-10-02,合併による解散等,6120102004550,令和６年１０月１日大阪府堺市堺区市之町東四丁２番３３号前田商事株式会社（6120102004550）に合併し解散,2015-10-05,1,,,,,マエダ,0
473,2140002025756,登記記録の閉鎖等,0,2024-11-13,2024-11-11,有限会社岡田商事,,有限会社,兵庫県,神戸市兵庫区,中之島１丁目１番４号,,28,105,6520844,,,2024-11-11,清算の結了等,,,2015-10-05,1,,,,,,0
500,2200002025725,登記記録の閉鎖等,0,2024-11-13,2024-11-11,有限会社ハシモトハウス,,有限会社,岐阜県,高山市,松之木町１０４０番地の２７,,21,203,5060802,,,2024-11-11,清算の結了等,,,2015-10-05,1,,,,,ハシモトハウス,0
507,2240002003776,登記記録の閉鎖等,0,2024-11-13,2024-11-08,有限会社管財サービス,,有限会社,広島県,広島市安佐北区,亀山４丁目８番２１号,,34,106,7310231,,,2024-11-08,清算の結了等,,,2015-10-05,1,,,,,カンザイサービス,0
512,2260002021842,登記記録の閉鎖等,0,2024-11-13,2024-11-07,有限会社ヤマトギ,,有限会社,岡山県,倉敷市,生坂１２７１番地の３,,33,202,7100002,,,2024-11-07,清算の結了等,,,2015-10-05,1,,,,,ヤマトギ,0
519,2290001069491,登記記録の閉鎖等,0,2024-11-13,2024-10-04,株式会社オカクラフト,,株式会社,福岡県,大川市,大字三丸１５７４番地,,40,212,8310026,,,2024-10-04,清算の結了等,,,2015-10-05,1,,,,,オカクラフト,0
535,2340001025935,登記記録の閉鎖等,0,2024-11-13,2024-11-06,株式会社ネクスト,,株式会社,鹿児島県,薩摩川内市,白和町７番２号サンパーク川内駅テラス７０５,,46,215,8950022,,,2024-11-06,清算の結了等,,,2023-10-02,1,,,,,ネクスト,0
545,2370001016799,登記記録の閉鎖等,0,2024-11-13,2024-11-01,株式会社メディアウェイブジャパン,,株式会社,宮城県,仙台市青葉区,一番町１丁目１７番２３シャンボール第２片平１０４号,,04,101,9800811,,,2024-11-01,清算の結了等,,,2015-10-05,1,,,,,メディアウェイブジャパン,0
553,2400502000174,登記記録の閉鎖等,0,2024-11-13,2024-11-05,有限会社アイビー商事,,有限会社,岩手県,一関市,銅谷町５番６号,,03,209,0210023,,,2024-11-05,清算の結了等,,,2015-10-05,1,,,,,アイビーショウジ,0
567,2470005000632,登記記録の閉鎖等,0,2024-11-13,2024-11-11,医療法人社団米岡歯科医院,,その他の設立登記法人,香川県,高松市,今里町２丁目１８番地８,,37,201,7600078,,,2024-11-11,清算の結了等,,,2015-10-05,1,,,,,ヨネオカシカイイン,0
573,2500005005900,登記記録の閉鎖等,0,2024-11-13,2024-10-08,平野神社,,その他の設立登記法人,愛媛県,四国中央市,富郷町豊坂７６番地,,38,213,7990644,,,2024-10-08,合併による解散等,1500005005868,令和６年１０月８日愛媛県四国中央市豊岡町大町１番地厳島神社（1500005005868）に合併し解散,2015-10-05,1,,,,,,0
605,3010005029394,登記記録の閉鎖等,0,2024-11-13,2024-11-06,一般社団法人Ｇ６ＳＣ－ＳＵＢ,,その他の設立登記法人,東京都,千代田区,九段南３丁目７番７号成和綜合会計事務所内,,13,101,1020074,,,2024-11-06,清算の結了等,,,2018-11-22,1,,,,,ジーシックスエスシーサブ,0
623,3010503006531,登記記録の閉鎖等,0,2024-11-13,2024-10-30,合同会社ＭＡＴ,,合同会社,東京都,千代田区,内神田１丁目１１－１１－２０２,,13,101,1010047,,,2024-10-30,清算の結了等,,,2022-03-14,1,,,,,マット,0
625,3010601061965,登記記録の閉鎖等,0,2024-11-13,2024-11-11,株式会社アマイファーム,,株式会社,東京都,江東区,新木場４丁目６番地８号,,13,108,1360082,,,2024-11-11,清算の結了等,,,2022-10-17,1,,,,,アマイファーム,0
635,3010801027254,登記記録の閉鎖等,0,2024-11-13,2024-11-01,株式会社あやめえん,,株式会社,東京都,大田区,蒲田３丁目３番９号,,13,111,1440052,,,2024-11-01,合併による解散等,7010801011089,令和６年１１月１日東京都大田区蒲田三丁目１９番４号株式会社アイリスコーポレーション（7010801011089）に合併し解散,2016-11-28,1,,,,,アヤメエン,0
651,3011101059442,登記記録の閉鎖等,0,2024-11-13,2024-11-01,株式会社エーワンメディカル,,株式会社,東京都,新宿区,百人町２丁目８－２金子ビル２階,,13,104,1690073,,,2024-11-01,清算の結了等,,,2015-10-05,1,,,,,エーワンメディカル,0
652,3011101071133,登記記録の閉鎖等,0,2024-11-13,2024-10-31,株式会社ウルトラマリン,,株式会社,東京都,新宿区,西新宿７丁目４番４号武蔵ビル５Ｆ,,13,104,1600023,,,2024-10-31,清算の結了等,,,2015-10-05,1,,,,,ウルトラマリン,0
675,3012302002331,登記記録の閉鎖等,0,2024-11-13,2024-11-06,有限会社ジョウゲンジ,,有限会社,東京都,町田市,原町田６丁目２１番２８号,,13,209,1940013,,,2024-11-06,清算の結了等,,,2015-10-05,1,,,,,ジョウゲンジ,0
698,3030001052555,登記記録の閉鎖等,0,2024-11-13,2024-11-08,日本ロジネットサービス株式会社,,株式会社,埼玉県,北葛飾郡杉戸町,大字堤根１４２３番地２,,11,464,3450024,,,2024-11-08,清算の結了等,,,2015-10-05,1,,,,,ニホンロジネットサービス,0
705,3030001155201,登記記録の閉鎖等,0,2024-11-13,2024-11-05,株式会社ｈｉｙａｋｕ,,株式会社,埼玉県,さいたま市桜区,大字白鍬１３８番地１８,,11,106,3380811,,,2024-11-05,清算の結了等,,,2023-08-09,1,,,,,ヒヤク,0
706,3030002018885,登記記録の閉鎖等,0,2024-11-13,2024-11-08,有限会社マサキ自販,,有限会社,埼玉県,さいたま市見沼区,大字南中野２４６番地,,11,104,3370042,,,2024-11-08,清算の結了等,,,2015-10-05,1,,,,,マサキジハン,0
707,3030002120435,登記記録の閉鎖等,0,2024-11-13,2024-11-01,有限会社フジカワ,,有限会社,埼玉県,日高市,大字猿田１２８番地１,,11,242,3501236,,,2024-11-01,清算の結了等,,,2015-10-05,1,,,,,フジカワ,0
709,3040001015263,登記記録の閉鎖等,0,2024-11-13,2024-11-01,株式会社Ｓｕｎｍａｌｌ，Ｉｎｃ．,,株式会社,東京都,墨田区,江東橋５丁目１３番１０号,,13,107,1300022,,,2024-11-01,合併による解散等,1010603005393,令和６年１１月１日東京都墨田区江東橋五丁目１３番１０号合同会社ＭＯＲＥ　ＲＩＣＨＥＬＬ（1010603005393）に合併し解散,2015-10-05,1,,,,,サンモールインク,0
715,3040002013076,登記記録の閉鎖等,0,2024-11-13,2024-11-07,有限会社山瀧塗装興業,,有限会社,千葉県,千葉市中央区,蘇我１丁目２番１４－１０５号,,12,101,2600822,,,2024-11-07,清算の結了等,,,2015-10-05,1,,,,,ヤマタキトソウコウギョウ,0
717,3040002085850,登記記録の閉鎖等,0,2024-11-13,2024-11-05,有限会社名雪工務店,,有限会社,千葉県,銚子市,長塚町３丁目１５９番地,,12,202,2880837,,,2024-11-05,清算の結了等,,,2015-10-05,1,,,,,ナユキコウムテン,0
729,3080001011102,登記記録の閉鎖等,0,2024-11-13,2024-11-07,株式会社木下,,株式会社,静岡県,静岡市駿河区,下川原６丁目２８番１２号,,22,102,4210113,,,2024-11-07,清算の結了等,,,2015-10-05,1,,,,,キノシタ,0
734,3080101019078,登記記録の閉鎖等,0,2024-11-13,2024-11-08,株式会社パバックス,,株式会社,静岡県,富士宮市,源道寺町１４１０番地の１,,22,207,4180074,,,2024-11-08,清算の結了等,,,2016-05-09,1,,,,,パバックス,0
740,3100001017708,登記記録の閉鎖等,0,2024-11-13,2024-11-05,株式会社岩屋本店,,株式会社,長野県,木曽郡木曽町,福島５１６９番地,,20,432,3970001,,,2024-11-05,清算の結了等,,,2015-10-05,1,,,,,イワヤホンテン,0
745,3120001063436,登記記録の閉鎖等,0,2024-11-13,2024-11-11,株式会社ケイテック,,株式会社,大阪府,大阪市北区,堂島２丁目１番２５－８０３号,,27,127,5300003,,,2024-11-11,清算の結了等,,,2015-10-05,1,,,,,ケイテック,0
759,3120902018281,登記記録の閉鎖等,0,2024-11-13,2024-10-31,有限会社ケージー興産,,有限会社,大阪府,豊中市,蛍池東町四丁目６番２１号,,27,203,5600000,,,2024-10-31,清算の結了等,,,2015-10-05,1,,,,,ケージーコウサン,0
760,3130001063732,登記記録の閉鎖等,0,2024-11-13,2024-11-07,株式会社ロングライフ,,株式会社,京都府,京都市上京区,日暮通丸太町下る南伊勢屋町７６０番地三信ビル４Ｆ,,26,102,6028153,,,2024-11-07,清算の結了等,,,2019-01-17,1,,,,,ロングライフ,0
769,3140001060241,登記記録の閉鎖等,0,2024-11-13,2024-11-06,株式会社東洋物産,,株式会社,兵庫県,神戸市中央区,中町通２丁目３－２三共神戸ツインビル,,28,110,6500027,,,2024-11-06,合併による解散等,5140001061493,令和６年１１月１日神戸市中央区中町通二丁目３－２三共神戸ツインビル豊国不動産株式会社（5140001061493）に合併し解散,2015-10-05,1,,,,,トウヨウブッサン,0
784,3180001071862,登記記録の閉鎖等,0,2024-11-13,2024-11-01,フィールド株式会社,,株式会社,愛知県,名古屋市守山区,日の後６０８番地プラクティスビル４Ｆ－Ｂ,,23,113,4630803,,,2024-11-01,清算の結了等,,,2015-10-05,1,,,,,フィールド,0
793,3190001015091,登記記録の閉鎖等,0,2024-11-13,2024-10-10,株式会社シーキューブ三重,,株式会社,三重県,松阪市,嬉野一志町字口山田９５５番地７,,24,204,5152305,,,2024-10-10,合併による解散等,2180001097165,令和６年１０月１日愛知県春日井市田楽町字更屋敷１４８５番６株式会社シーキューブ愛知（2180001097165）に合併し解散,2015-10-05,1,,,,,シーキューブミエ,0
795,3190002005496,登記記録の閉鎖等,0,2024-11-13,2024-11-06,徳栄丸水産有限会社,,有限会社,三重県,尾鷲市,朝日町１４番１１号,,24,209,5193611,,,2024-11-06,清算の結了等,,,2015-10-05,1,,,,,トクエイマルスイサン,0
826,3300005007032,登記記録の閉鎖等,0,2024-11-13,2024-11-11,一般社団法人ｌｅａ,,その他の設立登記法人,佐賀県,神埼市,神埼町姉川３００番地３,,41,210,8420014,,,2024-11-11,清算の結了等,,,2021-09-28,1,,,,,レア,0
842,3340005009594,登記記録の閉鎖等,0,2024-11-13,2024-11-08,いちき串木野・東市来環境整備事業協同組合,,その他の設立登記法人,鹿児島県,いちき串木野市,八房２９１０番地１,,46,219,8960056,,,2024-11-08,清算の結了等,,,2023-04-27,1,,,,,イチキクシキノヒガシイチキカンキョウセイビ,0
848,3370405000613,登記記録の閉鎖等,0,2024-11-13,2024-10-28,特定非営利活動法人ハピふるネット,,その他の設立登記法人,宮城県,登米市,迫町佐沼字大網２１８番地１,,04,212,9870511,,,2024-10-28,清算の結了等,,,2015-10-05,1,,,,,ハピフルネット,0
856,3430001059766,登記記録の閉鎖等,0,2024-11-13,2024-11-07,株式会社エムズアルミ,,株式会社,北海道,札幌市北区,太平十一条６丁目２－１３,,01,102,0028011,,,2024-11-07,清算の結了等,,,2015-10-05,1,,,,,エムズアルミ,0
857,3430001088798,登記記録の閉鎖等,0,2024-11-13,2024-11-07,株式会社ブラバス,,株式会社,北海道,苫小牧市,日新町６丁目９番１７号,,01,213,0530833,,,2024-11-07,清算の結了等,,,2023-04-28,1,,,,,ブラバス,0
864,3450005002209,登記記録の閉鎖等,0,2024-11-13,2024-10-10,天理教養富分教会,,その他の設立登記法人,北海道,富良野市,本町５番２３号,,01,229,0760031,,,2024-10-10,合併による解散等,1450005001708,令和６年１０月１０日北海道深川市六条７番１号天理教雨龍大教会（1450005001708）に合併し解散,2015-10-05,1,,,,,,0
869,3500001004839,登記記録の閉鎖等,0,2024-11-13,2024-10-10,伊藤忠エネクスホームライフ四国株式会社,,株式会社,愛媛県,松山市,千舟町５丁目５番地３,,38,201,7900011,,,2024-10-10,合併による解散等,3240001017355,令和６年１０月１日広島市中区橋本町１０番１０号伊藤忠エネクスホームライフ西日本株式会社（3240001017355）に合併し解散,2015-10-05,1,,,,,イトウチュウエネクスホームライフシコク,0
870,3500001016553,登記記録の閉鎖等,0,2024-11-13,2024-11-08,魚鮮水産株式会社,,株式会社,愛媛県,八幡浜市,向灘２４５３番地,00007582,38,204,7960001,,,2024-11-08,清算の結了等,,,2015-10-05,1,,,,,ウオセンスイサン,0
872,4010001000440,登記記録の閉鎖等,0,2024-11-13,2024-10-30,株式会社アマノ,,株式会社,東京都,文京区,湯島４丁目６番１２号湯島ハイタウンＢ棟１階,,13,105,1130034,,,2024-10-30,清算の結了等,,,2015-10-05,1,,,,,アマノ,0
887,4010001202598,登記記録の閉鎖等,0,2024-11-13,2024-10-30,丸紅テクノロジーズ２株式会社,,株式会社,東京都,千代田区,大手町１丁目４番２号,,13,101,1000004,,,2024-10-30,清算の結了等,,,2019-07-19,1,,,,,マルベニテクノロジーズツー,0
897,4010003037852,登記記録の閉鎖等,0,2024-11-13,2024-10-30,和工業合同会社,,合同会社,東京都,中央区,銀座１丁目２２－１１銀座大竹ビジデンス２Ｆ,,13,102,1040061,,,2024-10-30,清算の結了等,,,2022-06-08,1,,,,,ナゴミコウギョウ,0
907,4010005030483,登記記録の閉鎖等,0,2024-11-13,2024-11-06,シスル一般社団法人,,その他の設立登記法人,東京都,千代田区,丸の内３丁目１番１号東京共同会計事務所内,,13,101,1000005,,,2024-11-06,清算の結了等,,,2019-07-19,1,,,,,シスル,0
921,4010502019863,登記記録の閉鎖等,0,2024-11-13,2024-11-01,有限会社荒井総合事務所,,有限会社,東京都,台東区,浅草橋３丁目２２番８号,,13,106,1110053,,,2024-11-01,清算の結了等,,,2015-10-05,1,,,,,アライソウゴウジムショ,0
923,4010601058647,登記記録の閉鎖等,0,2024-11-13,2024-11-11,株式会社Ｈｉｇｈ－ｐｏｓｉｔｉｏｎ,,株式会社,東京都,墨田区,両国４丁目１８番９－５０３号パラッツオ両国,,13,107,1300026,,,2024-11-11,清算の結了等,,,2021-01-18,1,,,,,ハイポジション,0
927,4010801015547,登記記録の閉鎖等,0,2024-11-13,2024-10-08,株式会社丸冨士,,株式会社,東京都,大田区,南蒲田２丁目２０番７号,,13,111,1440035,,,2024-10-08,合併による解散等,7010001091023,令和６年１０月１日東京都千代田区神田神保町二丁目４番株式会社ハートメディカルケア（7010001091023）に合併し解散,2015-10-05,1,,,,,マルフジ,0
929,4010802004672,登記記録の閉鎖等,0,2024-11-13,2024-11-05,有限会社桑田製作所,,有限会社,東京都,大田区,羽田６丁目１４番７号,,13,111,1440043,,,2024-11-05,清算の結了等,,,2015-10-05,1,,,,,,0
945,4011301003554,登記記録の閉鎖等,0,2024-11-13,2024-11-06,スカイマイヤージャパン株式会社,,株式会社,東京都,杉並区,和田３丁目５４番１０号,,13,115,1660012,,,2024-11-06,清算の結了等,,,2015-10-05,1,,,,,スカイマイヤージャパン,0
957,4012305000315,登記記録の閉鎖等,0,2024-11-13,2024-11-05,医療法人社団菜の花会,,その他の設立登記法人,東京都,町田市,南成瀬７丁目１４番地１,,13,209,1940045,,,2024-11-05,清算の結了等,,,2015-10-05,1,,,,,ナノハナカイ,0
958,4012402023557,登記記録の閉鎖等,0,2024-11-13,2024-11-07,有限会社ＦＡＩＮ,,有限会社,千葉県,勝浦市,川津１番地１セレブラール勝浦１２２０号,,12,218,2995232,,,2024-11-07,清算の結了等,,,2015-10-05,1,,,,,ファイン,0
961,4012805003032,登記記録の閉鎖等,0,2024-11-13,2024-10-29,一般社団法人オリンピア,,その他の設立登記法人,東京都,日野市,大字上田３３９番地の５,,13,212,1910014,,,2024-10-29,清算の結了等,,,2021-07-02,1,,,,,オリンピア,0
963,4013102002727,登記記録の閉鎖等,0,2024-11-13,2024-11-08,有限会社久保田金型,,有限会社,東京都,西多摩郡瑞穂町,大字武蔵３４９番地２,,13,303,1901213,,,2024-11-08,清算の結了等,,,2015-10-05,1,,,,,クボタカナガタ,0
968,4020001030528,登記記録の閉鎖等,0,2024-11-13,2024-10-25,石黒木材株式会社,,株式会社,神奈川県,横浜市神奈川区,神大寺３丁目３１番５号,,14,102,2210801,,,2024-10-25,清算の結了等,,,2015-10-05,1,,,,,イシグロモクザイ,0
970,4020001102731,登記記録の閉鎖等,0,2024-11-13,2024-10-25,株式会社ライズコム,,株式会社,神奈川県,横浜市鶴見区,生麦３丁目３番２４号,,14,101,2300052,,,2024-10-25,清算の結了等,,,2015-10-05,1,,,,,ライズコム,0
978,4020002066281,登記記録の閉鎖等,0,2024-11-13,2024-10-25,有限会社ベリッシュ,,有限会社,神奈川県,横浜市緑区,青砥町３５８番地,,14,113,2260022,,,2024-10-25,清算の結了等,,,2015-10-05,1,,,,,ベリッシュ,0
998,4030002033124,登記記録の閉鎖等,0,2024-11-13,2024-11-08,有限会社アルコン,,有限会社,埼玉県,狭山市,大字中新田１６６１番地６,,11,215,3501311,,,2024-11-08,清算の結了等,,,2015-10-05,1,,,,,アルコン,0
1007,4040002023611,登記記録の閉鎖等,0,2024-11-13,2024-11-06,有限会社田中塗装工業,,有限会社,千葉県,船橋市,駿河台２丁目２５番２５号,,12,204,2730862,,,2024-11-06,清算の結了等,,,2015-10-05,1,,,,,タナカトソウコウギョウ,0
1015,4050001002581,登記記録の閉鎖等,0,2024-11-13,2024-11-05,株式会社水戸洋紙店,,株式会社,茨城県,水戸市,笠原町１７１１番地の１５,,08,201,3100852,,,2024-11-05,清算の結了等,,,2015-10-05,1,,,,,ミトヨウシテン,0
1018,4050002034871,登記記録の閉鎖等,0,2024-11-13,2024-11-05,有限会社Ｋ・Ｓ・Ｆ,,有限会社,茨城県,稲敷市,浮島４４０４番地１,,08,229,3000641,,,2024-11-05,清算の結了等,,,2015-10-05,1,,,,,ケイエスエフ,0
1042,4120001069936,登記記録の閉鎖等,0,2024-11-13,2024-11-05,株式会社不動産市場研究所,,株式会社,大阪府,堺市南区,城山台３丁４番４９号,,27,145,5900137,,,2024-11-05,清算の結了等,,,2015-10-05,1,,,,,フドウサンシジョウケンキュウショ,0
1063,4120002059358,登記記録の閉鎖等,0,2024-11-13,2024-11-11,有限会社ＦＩＶＥ・ＴＥＮ,,有限会社,大阪府,大阪市北区,中崎１丁目１番１９号,,27,127,5300016,,,2024-11-11,清算の結了等,,,2015-10-05,1,,,,,ファイブテン,0
1076,4130005006777,登記記録の閉鎖等,0,2024-11-13,2024-11-08,医療法人社団高橋内科医院,,その他の設立登記法人,京都府,宇治市,広野町一里山３４番地の２,,26,204,6110031,,,2024-11-08,清算の結了等,,,2015-10-05,1,,,,,タカハシナイカイイン,0
1088,4160001024012,登記記録の閉鎖等,0,2024-11-13,2024-11-07,エンゼルＳＣＭ株式会社,,株式会社,滋賀県,東近江市,青野町４６００番地,,25,213,5270232,,,2024-11-07,合併による解散等,9120001076036,令和６年１１月７日滋賀県東近江市青野町４６００番地エンゼルグループ株式会社（9120001076036）に合併し解散,2022-02-28,1,,,,,エンゼルエスシーエム,0
1098,4180301017481,登記記録の閉鎖等,0,2024-11-13,2024-11-05,愛知酸素株式会社,,株式会社,愛知県,安城市,赤松町的場２０９番地１,,23,212,4460046,,,2024-11-05,清算の結了等,,,2015-10-05,1,,,,,アイチサンソ,0
1100,4190005000213,登記記録の閉鎖等,0,2024-11-13,2024-11-11,学校法人下村学園,,その他の設立登記法人,三重県,津市,新町１丁目１番３６号,,24,201,5140042,,,2024-11-11,清算の結了等,,,2015-10-05,1,,,,,シモムラガクエン,0
1113,4230001015020,登記記録の閉鎖等,0,2024-11-13,2024-11-06,株式会社つなぐ南砺,,株式会社,富山県,南砺市,野口２４番地,,16,210,9391844,,,2024-11-06,清算の結了等,,,2015-10-05,1,,,,,ツナグナント,0
1114,4240001008345,登記記録の閉鎖等,0,2024-11-13,2024-11-08,ニシダ建設工業株式会社,,株式会社,広島県,広島市佐伯区,五月が丘４丁目２４番１４号,,34,108,7315101,,,2024-11-08,清算の結了等,,,2015-10-05,1,,,,,ニシダケンセツコウギョウ,0
1116,4240001037179,登記記録の閉鎖等,0,2024-11-13,2024-11-05,レインボー食品株式会社,,株式会社,広島県,竹原市,忠海中町１丁目１番２５号,,34,203,7292316,,,2024-11-05,合併による解散等,3240001037171,令和６年１１月１日広島県竹原市忠海中町一丁目１番２５号アヲハタ株式会社（3240001037171）に合併し解散,2015-10-05,1,,,,,レインボーショクヒン,0
1119,4240002036964,登記記録の閉鎖等,0,2024-11-13,2024-11-08,有限会社村上造林,,有限会社,広島県,廿日市市,可愛６番２７号,,34,213,7380016,,,2024-11-08,清算の結了等,,,2015-10-05,1,,,,,ムラカミゾウリン,0
1127,4260005008463,登記記録の閉鎖等,0,2024-11-13,2024-11-07,医療法人高田医院,,その他の設立登記法人,岡山県,真庭市,福田２７８番地,,33,214,7193117,,,2024-11-07,清算の結了等,,,2015-10-05,1,,,,,タカタイイン,0
1134,4290805008057,登記記録の閉鎖等,0,2024-11-13,2024-10-30,特定非営利活動法人スマイル,,その他の設立登記法人,福岡県,北九州市若松区,大字安瀬６４番地９９,,40,103,8080022,,,2024-10-30,清算の結了等,,,2015-10-05,1,,,,,スマイル,0
1137,4300002009757,登記記録の閉鎖等,0,2024-11-13,2024-11-11,有限会社アヤベエンジニアリング,,有限会社,佐賀県,三養基郡みやき町,大字簑原３５１４番地２,,41,346,8490102,,,2024-11-11,清算の結了等,,,2015-10-05,1,,,,,アヤベエンジニアリング,0
1145,4340001006529,登記記録の閉鎖等,0,2024-11-13,2024-11-11,株式会社Ｓ・Ｈ・Ｋ企画,,株式会社,鹿児島県,日置市,伊集院町徳重７７番地１,,46,216,8992502,,,2024-11-11,清算の結了等,,,2015-10-05,1,,,,,エスエイチケイキカク,0
1146,4340002016007,登記記録の閉鎖等,0,2024-11-13,2024-11-08,有限会社長崎花屋,,有限会社,鹿児島県,姶良市,加治木町本町１０番地,,46,225,8995215,,,2024-11-08,清算の結了等,,,2015-10-05,1,,,,,ナガサキハナヤ,0
1152,4360005002084,登記記録の閉鎖等,0,2024-11-13,2024-11-11,沖縄市銀天街商店街振興組合,,その他の設立登記法人,沖縄県,沖縄市,照屋１丁目１４番１３号,,47,211,9040011,,,2024-11-11,清算の結了等,,,2015-10-05,1,,,,,オキナワシギンテンガイ,0
1171,4450001008159,登記記録の閉鎖等,0,2024-11-13,2024-11-08,株式会社田畑組,,株式会社,北海道,稚内市,はまなす１丁目１２番１号,,01,214,0970011,,,2024-11-08,清算の結了等,,,2015-10-05,1,,,,,タバタグミ,0
1172,4450002001501,登記記録の閉鎖等,0,2024-11-13,2024-11-11,有限会社上川学校用品協会,,有限会社,北海道,旭川市,三条通１１丁目右２号,,01,204,0700033,,,2024-11-11,清算の結了等,,,2015-10-05,1,,,,,カミカワガッコウヨウヒンキョウカイ,0
1177,4470002010236,登記記録の閉鎖等,0,2024-11-13,2024-10-31,株式会社イーエムラボ,,株式会社,東京都,中央区,日本橋久松町９番１３号,,13,102,1030005,,,2024-10-31,清算の結了等,,,2015-10-05,1,,,,,イーエムラボ,0
1191,5010001031732,登記記録の閉鎖等,0,2024-11-13,2024-10-01,株式会社読売ハートサービス,,株式会社,東京都,千代田区,平河町２丁目１３番３号,,13,101,1020093,,,2024-10-01,合併による解散等,9010001031720,令和６年１０月１日東京都千代田区平河町二丁目１３番３号株式会社読売情報開発（9010001031720）に合併し解散,2015-10-05,1,,,,,ヨミウリハートサービス,0
1192,5010001055293,登記記録の閉鎖等,0,2024-11-13,2024-10-29,株式会社ヒロカワ,,株式会社,東京都,中央区,新富１丁目９番１０号,,13,102,1040041,,,2024-10-29,清算の結了等,,,2015-10-05,1,,,,,ヒロカワ,0
1195,5010001188845,登記記録の閉鎖等,0,2024-11-13,2024-10-29,アジリティー・ホールディングス株式会社,,株式会社,東京都,中央区,新川１丁目１７番１８号,,13,102,1040033,,,2024-10-29,合併による解散等,5010001126722,令和６年１０月２９日東京都中央区新川一丁目１７番１８号アジリティー・アセット・アドバイザーズ株式会社（5010001126722）に合併し解散,2018-01-12,1,,,,,アジリティーホールディングス,0
1229,5010401171293,登記記録の閉鎖等,0,2024-11-13,2024-11-11,株式会社スマートライフ,,株式会社,東京都,新宿区,西早稲田２丁目２０番９号,,13,104,1690051,,,2024-11-11,合併による解散等,5430001062826,令和６年１０月１日東京都新宿区西早稲田二丁目２０番９号株式会社Ｈ２（5430001062826）に合併し解散,2022-12-12,1,,,,,スマートライフ,0
1241,5010703004192,登記記録の閉鎖等,0,2024-11-13,2024-11-05,ハイパーリアルエステート合同会社,,合同会社,東京都,品川区,東品川４丁目１３番２４－１００５号,,13,109,1400002,,,2024-11-05,清算の結了等,,,2018-03-30,1,,,,,ハイパーリアルエステート,0
1270,5011802010998,登記記録の閉鎖等,0,2024-11-13,2024-11-06,有限会社オクムラ美術,,有限会社,東京都,足立区,本木西町２１番１８号,,13,121,1230856,,,2024-11-06,清算の結了等,,,2015-10-05,1,,,,,オクムラビジュツ,0
1278,5013101007073,登記記録の閉鎖等,0,2024-11-13,2024-11-07,株式会社港コーポレーション,,株式会社,東京都,青梅市,新町１丁目２２番地の１２,,13,205,1980024,,,2024-11-07,清算の結了等,,,2015-10-05,1,,,,,ミナトコーポレーション,0
1287,5020001080043,登記記録の閉鎖等,0,2024-11-13,2024-11-08,株式会社きらり,,株式会社,埼玉県,秩父市,みどりが丘２９番地１,,11,207,3680067,,,2024-11-08,清算の結了等,,,2015-10-05,1,,,,,キラリ,0
1307,5030001113801,登記記録の閉鎖等,0,2024-11-13,2024-11-08,株式会社新桐生,,株式会社,埼玉県,羽生市,東７丁目１１番地２,,11,216,3480052,,,2024-11-08,清算の結了等,,,2016-04-14,1,,,,,シンキリュウ,0
1308,5030002078688,登記記録の閉鎖等,0,2024-11-13,2024-11-08,有限会社カツマタ,,有限会社,埼玉県,入間郡三芳町,大字藤久保８５番地８,,11,324,3540041,,,2024-11-08,清算の結了等,,,2015-10-05,1,,,,,カツマタ,0
1315,5040001117660,登記記録の閉鎖等,0,2024-11-13,2024-11-07,株式会社Ｋ－ｎｕｐ,,株式会社,千葉県,市川市,市川３丁目２９番７号ＫＳビル４階,,12,203,2720034,,,2024-11-07,清算の結了等,,,2021-03-29,1,,,,,ケーナップ,0
1332,5070001026248,登記記録の閉鎖等,0,2024-11-13,2024-11-11,株式会社ｐｅｒｍａｎｅｎｔ,,株式会社,群馬県,高崎市,矢中町２４番地７,,10,202,3701203,,,2024-11-11,清算の結了等,,,2015-10-05,1,,,,,パーマネント,0
1340,5080401013951,登記記録の閉鎖等,0,2024-11-13,2024-11-06,株式会社リバホープ,,株式会社,静岡県,浜松市中央区,瓜内町８３２番地,,22,138,4300854,,,2024-11-06,清算の結了等,,,2015-10-05,1,,,,,リバホープ,0
1353,5120001250998,登記記録の閉鎖等,0,2024-11-13,2024-11-07,莫馬株式会社,,株式会社,大阪府,大阪市中央区,松屋町９番２０号ローレルステート松屋町１４０５Ａ,,27,128,5420067,,,2024-11-07,清算の結了等,,,2022-12-15,1,,,,,バクバ,0
1363,5120005017691,登記記録の閉鎖等,0,2024-11-13,2024-11-11,特定非営利活動法人認定講師育成機構,,その他の設立登記法人,大阪府,大阪市中央区,今橋１丁目７番１９号,,27,128,5410042,,,2024-11-11,清算の結了等,,,2015-10-05,1,,,,,ニンテイコウシイクセイキコウ,0
1382,5130005003600,登記記録の閉鎖等,0,2024-11-13,2024-11-05,京都府共済協同組合,,その他の設立登記法人,京都府,京都市下京区,四条通室町東入函谷鉾町７８番地京都経済センター４階,,26,106,6008009,,,2024-11-05,合併による解散等,2130005003355,令和６年１０月１日京都市中京区寺町通二条下る妙満寺前町４５０番地京都共済協同組合（2130005003355）に合併し解散,2015-10-05,1,,,,,キョウトフキョウサイ,0
1404,5180002091370,登記記録の閉鎖等,0,2024-11-13,2024-10-31,中部システムサービス有限会社,,有限会社,愛知県,弥富市,鍋田町稲山３９３番地５７,,23,235,4980068,,,2024-10-31,清算の結了等,,,2015-10-05,1,,,,,チュウブシステムサービス,0
1405,5180301027802,登記記録の閉鎖等,0,2024-11-13,2024-11-06,ケースペック・ビルマネジメント株式会社,,株式会社,愛知県,碧南市,立山町４丁目３２番地２,,23,209,4470075,,,2024-11-06,清算の結了等,,,2015-10-05,1,,,,,ケースペックビルマネジメント,0
1424,5240002037458,登記記録の閉鎖等,0,2024-11-13,2024-11-05,有限会社徳風商事,,有限会社,広島県,廿日市市,永原字戸屋野山５番地の９６,,34,213,7380201,,,2024-11-05,合併による解散等,9240001029023,令和６年１１月１日広島県廿日市市永原字戸屋野山５番地の９６株式会社ＡＣＯＲＮ徳の風プロジェクト（9240001029023）に合併し解散,2015-10-05,1,,,,,トクフウショウジ,0
1452,5370001004669,登記記録の閉鎖等,0,2024-11-13,2024-10-10,伊藤忠エネクスホームライフ東北株式会社,,株式会社,宮城県,仙台市宮城野区,榴岡３丁目４番１号,,04,102,9830852,,,2024-10-10,合併による解散等,3240001017355,令和６年１０月１日広島市中区橋本町１０番１０号伊藤忠エネクスホームライフ西日本株式会社（3240001017355）に合併し解散,2015-10-05,1,,,,,,0
1457,5380001031266,登記記録の閉鎖等,0,2024-11-13,2024-10-31,株式会社ｓｈｉｏｎ,,株式会社,福島県,岩瀬郡鏡石町,前山１８番地１,,07,342,9690401,,,2024-10-31,清算の結了等,,,2020-10-08,1,,,,,シオン,0
1482,6010001149937,登記記録の閉鎖等,0,2024-11-13,2024-11-07,イースタンジャパン株式会社,,株式会社,千葉県,市川市,南行徳３丁目１番６－６０３号,,12,203,2720138,,,2024-11-07,清算の結了等,,,2015-10-05,1,,,,,イースタンジャパン,0
1519,6010501043656,登記記録の閉鎖等,0,2024-11-13,2024-11-01,株式会社エウレカ,,株式会社,東京都,台東区,竜泉３丁目３５番１２号大森ビル３階,,13,106,1100012,,,2024-11-01,清算の結了等,,,2019-02-05,1,,,,,エウレカ,0
1520,6010801022590,登記記録の閉鎖等,0,2024-11-13,2024-11-05,株式会社エニシコーポレーション,,株式会社,東京都,大田区,西馬込１丁目２番８号,,13,111,1430026,,,2024-11-05,清算の結了等,,,2015-10-05,1,,,,,エニシコーポレーション,0
1571,6020002071874,登記記録の閉鎖等,0,2024-11-13,2024-10-25,有限会社ミネ・コーポレーション,,有限会社,神奈川県,横浜市緑区,新治町７０６番地１,,14,113,2260017,,,2024-10-25,清算の結了等,,,2015-10-05,1,,,,,ミネコーポレーション,0
1576,6021001011730,登記記録の閉鎖等,0,2024-11-13,2024-11-11,株式会社金物センターきまた,,株式会社,神奈川県,相模原市南区,東林間４丁目１６番１４号,,14,153,2520311,,,2024-11-11,清算の結了等,,,2015-10-05,1,,,,,カナモノセンターキマタ,0
1587,6040001134424,登記記録の閉鎖等,0,2024-11-13,2024-11-06,株式会社Ｇｏｏｄ　ｂｒｏｔｈｅｒｓ,,株式会社,千葉県,市川市,鬼高３丁目２９番１６号,,12,203,2720015,,,2024-11-06,清算の結了等,,,2024-07-08,1,,,,,グッドブラザーズ,0
1596,6060002003254,登記記録の閉鎖等,0,2024-11-13,2024-11-07,有限会社木屋源,,有限会社,栃木県,宇都宮市,中央１丁目１１番２号,,09,201,3200806,,,2024-11-07,清算の結了等,,,2015-10-05,1,,,,,キヤゲン,0
1599,6070005001650,登記記録の閉鎖等,0,2024-11-13,2024-11-11,特定非営利活動法人群馬県ＰＦＩ・ＰＰＰ協会,,その他の設立登記法人,群馬県,前橋市,鳥羽町３６番地の１,,10,201,3710845,,,2024-11-11,清算の結了等,,,2015-10-05,1,,,,,グンマケンピーエフアイピーピーピーキョウカイ,0
1621,6120001112727,登記記録の閉鎖等,0,2024-11-13,2024-11-11,てなもんやシステムズ株式会社,,株式会社,大阪府,門真市,野里町２１－１８,,27,223,5710079,,,2024-11-11,清算の結了等,,,2015-10-05,1,,,,,テナモンヤシステムズ,0
1638,6120005017609,登記記録の閉鎖等,0,2024-11-13,2024-11-12,ＮＰＯ法人マンション管理支援ネットＯＳＡＫＡ,,その他の設立登記法人,大阪府,大阪市北区,同心１丁目１番１１号シルバーハイツ東寺町１階,,27,127,5300035,,,2024-11-12,清算の結了等,,,2015-10-05,1,,,,,マンションカンリシエンネットオオサカ,0
1643,6120902010351,登記記録の閉鎖等,0,2024-11-13,2024-11-11,有限会社サンワ工業,,有限会社,大阪府,高槻市,辻子１丁目１６番７号,00033808,27,207,5690036,,,2024-11-11,清算の結了等,,,2015-10-05,1,,,,,サンワコウギョウ,0
1648,6130001024260,登記記録の閉鎖等,0,2024-11-13,2024-10-15,株式会社デ・マッセ,,株式会社,京都府,京都市右京区,梅津南広町１番地の１,,26,108,6150901,,,2024-10-15,合併による解散等,3011101049757,令和６年１０月１日東京都千代田区内神田三丁目１６番４号株式会社悠暉（3011101049757）に合併し解散,2015-10-05,1,,,,,デマッセ,0
1683,6180002070431,登記記録の閉鎖等,0,2024-11-13,2024-11-01,株式会社ＰＲＩＭＥ　ＦＯＯＤ　ＣＯＮＳＵＬＴＩＮＧ,,株式会社,愛知県,名古屋市東区,泉３丁目１７番１０号泉ビル３Ｆ,,23,102,4610001,,,2024-11-01,清算の結了等,,,2015-10-05,1,,,,,プライムフードコンサルティング,0
1689,6180303002315,登記記録の閉鎖等,0,2024-11-13,2024-11-06,小針設備工業合同会社,,合同会社,愛知県,知立市,弘法町小針下１５番地３,,23,225,4720046,,,2024-11-06,清算の結了等,,,2015-10-05,1,,,,,コバリセツビコウギョウ,0
1692,6190002016417,登記記録の閉鎖等,0,2024-11-13,2024-11-08,有限会社岡工作所,,有限会社,三重県,桑名市,大字蛎塚新田５７２番地,,24,205,5110861,,,2024-11-08,清算の結了等,,,2015-10-05,1,,,,,オカコウサクショ,0
1695,6200002004114,登記記録の閉鎖等,0,2024-11-13,2024-11-07,有限会社プランニングワン,,有限会社,岐阜県,岐阜市,長良有楽町１番地,,21,201,5020033,,,2024-11-07,清算の結了等,,,2015-10-05,1,,,,,プランニングワン,0
1711,6260001003895,登記記録の閉鎖等,0,2024-11-13,2024-11-06,株式会社タイガーエンジニアリング,,株式会社,岡山県,岡山市北区,野田４丁目４番３号,,33,101,7000971,,,2024-11-06,清算の結了等,,,2015-10-05,1,,,,,タイガーエンジニアリング,0
1719,6270005004699,登記記録の閉鎖等,0,2024-11-13,2024-11-11,医療法人社団房修会,,その他の設立登記法人,鳥取県,倉吉市,福光２２５番地,,31,203,6820944,,,2024-11-11,清算の結了等,,,2015-10-05,1,,,,,ボウシュウカイ,0
1725,6290003008634,登記記録の閉鎖等,0,2024-11-13,2024-10-07,合同会社和フーズ,,合同会社,福岡県,嘉麻市,上山田１３１６番地１５,,40,227,8210012,,,2024-10-07,清算の結了等,,,2019-01-04,1,,,,,ナゴミフーズ,0
1730,6290801021706,登記記録の閉鎖等,0,2024-11-13,2024-10-29,株式会社ｍｅトレーディング,,株式会社,福岡県,北九州市八幡西区,本城学研台２丁目２０番１０号,,40,109,8070807,,,2024-10-29,合併による解散等,8290801021084,令和６年１０月２８日北九州市八幡西区本城学研台二丁目２０番１０号株式会社ｍｅコーポレーション（8290801021084）に合併し解散,2015-10-05,1,,,,,エムイートレーディング,0
1735,6320001012873,登記記録の閉鎖等,0,2024-11-13,2024-11-11,株式会社ＳＡＮＯ,,株式会社,大分県,大分市,三佐３丁目８番２４号,,44,201,8700108,,,2024-11-11,清算の結了等,,,2015-10-05,1,,,,,,0
1741,6360001019618,登記記録の閉鎖等,0,2024-11-13,2024-11-08,株式会社ＷＩＳＥ　ＤＥＶＥＬＯＰＭＥＮＴ,,株式会社,沖縄県,那覇市,具志３丁目１２－１７かなえビル３０１,,47,201,9010146,,,2024-11-08,清算の結了等,,,2015-10-05,1,,,,,ワイズデベロップメント,0
1806,7010902026234,登記記録の閉鎖等,0,2024-11-13,2024-11-07,有限会社大野商店,,有限会社,東京都,世田谷区,駒沢３丁目１番３号シャトレー駒沢１０５号室,,13,112,1540012,,,2024-11-07,清算の結了等,,,2015-10-05,1,,,,,オオノショウテン,0
1832,7011103011133,登記記録の閉鎖等,0,2024-11-13,2024-11-01,ＡＰＦＬ合同会社,,合同会社,東京都,新宿区,西新宿４丁目１０－２ＭＫｈｏｐｅ１０１,,13,104,1600023,,,2024-11-01,清算の結了等,,,2021-11-02,1,,,,,エーピーエフエル,0
1834,7011601025139,登記記録の閉鎖等,0,2024-11-13,2024-11-05,株式会社ＯＳＦ　ＡＳＭＯ,,株式会社,東京都,練馬区,豊玉中２丁目１番１３－１０６号,,13,120,1760013,,,2024-11-05,清算の結了等,,,2021-06-04,1,,,,,オーエスエフアスモ,0
1835,7011702010519,登記記録の閉鎖等,0,2024-11-13,2024-11-07,有限会社堀口組,,有限会社,東京都,江戸川区,上篠崎２丁目５番６号,,13,123,1330054,,,2024-11-07,清算の結了等,,,2015-10-05,1,,,,,ホリグチグミ,0
1837,7012401031038,登記記録の閉鎖等,0,2024-11-13,2024-10-28,株式会社エイトアンドワン,,株式会社,東京都,日野市,東豊田３丁目２番地の１４,,13,212,1910052,,,2024-10-28,清算の結了等,,,2016-02-08,1,,,,,エイアンドワン,0
1842,7012403001996,登記記録の閉鎖等,0,2024-11-13,2024-11-06,合同会社瑞穂,,合同会社,東京都,三鷹市,牟礼３丁目１１番２５号,,13,204,1810002,,,2024-11-06,清算の結了等,,,2015-10-05,1,,,,,ミズホ,0
1862,7020003014154,登記記録の閉鎖等,0,2024-11-13,2024-10-24,エンミッション合同会社,,合同会社,神奈川県,横浜市旭区,川井本町３９番地３６,,14,112,2410803,,,2024-10-24,清算の結了等,,,2018-04-06,1,,,,,エンミッション,0
1868,7021002023872,登記記録の閉鎖等,0,2024-11-13,2024-11-11,有限会社ふとんの朝倉,,有限会社,神奈川県,相模原市南区,相模台２丁目１番７号,,14,153,2520321,,,2024-11-11,清算の結了等,,,2015-10-05,1,,,,,フトンノアサクラ,0
1873,7030001046479,登記記録の閉鎖等,0,2024-11-13,2024-11-08,株式会社三和皮革,,株式会社,埼玉県,富士見市,羽沢３丁目６番２９号,,11,235,3540033,,,2024-11-08,清算の結了等,,,2015-10-05,1,,,,,サンワヒカク,0
1887,7040002004344,登記記録の閉鎖等,0,2024-11-13,2024-11-11,寿屋住設有限会社,,有限会社,千葉県,千葉市中央区,新千葉３丁目１２番１７号,,12,101,2600031,,,2024-11-11,清算の結了等,,,2015-10-05,1,,,,,コトブキヤジュウセツ,0
1904,7060002013070,登記記録の閉鎖等,0,2024-11-13,2024-11-07,有限会社直井組,,有限会社,栃木県,塩谷郡高根沢町,大字宝積寺２３４７番地,,09,386,3291233,,,2024-11-07,清算の結了等,,,2015-10-05,1,,,,,ナオイグミ,0
1915,7080402005756,登記記録の閉鎖等,0,2024-11-13,2024-11-07,中村サービス有限会社,,有限会社,静岡県,浜松市中央区,白羽町２７００番地の１３,,22,138,4300846,,,2024-11-07,清算の結了等,,,2015-10-05,1,,,,,ナカムラサービス,0
1922,7100002023313,登記記録の閉鎖等,0,2024-11-13,2024-11-05,有限会社あづみ野宅建,,有限会社,長野県,安曇野市,穂高有明２５７２番地１,,20,220,3998301,,,2024-11-05,清算の結了等,,,2015-10-05,1,,,,,アヅミノタクケン,0
1931,7120001189153,登記記録の閉鎖等,0,2024-11-13,2024-11-01,株式会社奥誠ウォーターソリューション,,株式会社,大阪府,大阪市西区,新町１丁目５番７号,,27,106,5500013,,,2024-11-01,合併による解散等,7120001138250,令和６年１０月３１日大阪市西区新町一丁目５番７号株式会社奥誠環境商事（7120001138250）に合併し解散,2015-10-05,1,,,,,オウセイウォーターソリューション,0
1946,7120901005236,登記記録の閉鎖等,0,2024-11-13,2024-11-11,株式会社アリック,,株式会社,大阪府,吹田市,円山町９番２１号,,27,205,5640061,,,2024-11-11,清算の結了等,,,2015-10-05,1,,,,,アリック,0
1972,7150002006858,登記記録の閉鎖等,0,2024-11-13,2024-11-08,有限会社タナカ屋根工事店,,有限会社,奈良県,桜井市,大字芝１４４２番地の４,,29,206,6330074,,,2024-11-08,清算の結了等,,,2015-10-05,1,,,,,タナカヤネコウジテン,0
1987,7180002064184,登記記録の閉鎖等,0,2024-11-13,2024-10-22,有限会社長屋商事,,有限会社,愛知県,豊明市,栄町大根１番地の３０３,,23,229,4701166,,,2024-10-22,清算の結了等,,,2015-10-05,1,,,,,ナガヤショウジ,0
1994,7180303003634,登記記録の閉鎖等,0,2024-11-13,2024-11-06,まるき農園合同会社,,合同会社,愛知県,豊橋市,伊古部町字東荒子１０６番地,,23,201,4413211,,,2024-11-06,清算の結了等,,,2016-06-13,1,,,,,マルキノウエン,0
2005,7210002012866,登記記録の閉鎖等,0,2024-11-13,2024-11-11,有限会社カトウ精機,,有限会社,福井県,鯖江市,二丁掛町３０号９番地,,18,207,9160068,,,2024-11-11,清算の結了等,,,2015-10-05,1,,,,,カトウセイキ,0
2016,7260002031523,登記記録の閉鎖等,0,2024-11-13,2024-11-06,有限会社むつみ,,有限会社,岡山県,瀬戸内市,邑久町尾張６２２番地３,,33,212,7014221,,,2024-11-06,清算の結了等,,,2015-10-05,1,,,,,ムツミ,0
2017,7290001036594,登記記録の閉鎖等,0,2024-11-13,2024-10-07,株式会社ジェット,,株式会社,福岡県,宗像市,稲元６丁目１５番２７号,,40,220,8113406,,,2024-10-07,清算の結了等,,,2015-10-05,1,,,,,ジェット,0
2019,7290002031537,登記記録の閉鎖等,0,2024-11-13,2024-10-07,有限会社ＴＡＫＥＤＡ,,有限会社,福岡県,福岡市中央区,桜坂２丁目９番２４－３０５号,,40,133,8100024,,,2024-10-07,清算の結了等,,,2015-10-05,1,,,,,タケダ,0
2024,7300002001686,登記記録の閉鎖等,0,2024-11-13,2024-11-11,有限会社若楠コンタクトレンズセンター,,有限会社,佐賀県,佐賀市,若宮２丁目１７番２号,,41,201,8490926,,,2024-11-11,清算の結了等,,,2015-10-05,1,,,,,ワカクスコンタクトレンズセンター,0
2027,7310001012023,登記記録の閉鎖等,0,2024-11-13,2024-11-06,株式会社ＮＡＭ　ＣＯＲＰＯＲＡＴＩＯＮ,,株式会社,長崎県,長崎市,千歳町１番５号,,42,201,8528135,,,2024-11-06,合併による解散等,4310001016646,令和６年１０月３１日長崎市千歳町１番５号ＥＩＫＡＷＡホールディングス株式会社（4310001016646）に合併し解散,2015-10-05,1,,,,,エヌエーエムコーポレーション,0
2056,7430002043880,登記記録の閉鎖等,0,2024-11-13,2024-11-08,サンワビルダース有限会社,,有限会社,北海道,石狩市,花川北二条６丁目１２７番地,,01,235,0613212,,,2024-11-08,清算の結了等,,,2015-10-05,1,,,,,サンワビルダース,0
2059,7450003002272,登記記録の閉鎖等,0,2024-11-13,2024-11-11,合同会社タチカワ商販,,合同会社,北海道,中川郡音威子府村,字物満内５８番地,,01,470,0982500,,,2024-11-11,清算の結了等,,,2022-11-24,1,,,,,タチカワショウハン,0
2060,7450005002213,登記記録の閉鎖等,0,2024-11-13,2024-10-10,天理教甲富分教会,,その他の設立登記法人,北海道,空知郡上富良野町,字富良野原野３４６番地の１,,01,460,,,,2024-10-10,合併による解散等,6450005002692,令和６年１０月１０日北海道上川郡剣淵町東町２２８８番地天理教東剣渕分教会（6450005002692）に合併し解散,2015-10-05,1,,,,,テンリキョウコウフブンキョウカイ,1
2066,7480001003435,登記記録の閉鎖等,0,2024-11-13,2024-11-11,寿寿香蒲鉾株式会社,,株式会社,徳島県,小松島市,南小松島町７番５号,,36,203,7730005,,,2024-11-11,清算の結了等,,,2015-10-05,1,,,,,スズカカマボコ,0
2093,8010003024376,登記記録の閉鎖等,0,2024-11-13,2024-10-31,合同会社大和グリーンエネルギー,,合同会社,東京都,千代田区,内幸町１丁目１番１号帝国ホテルタワー１５階,,13,101,1000011,,,2024-10-31,清算の結了等,,,2016-11-17,1,,,,,ダイワグリーンエネルギー,0
2104,8010003040381,登記記録の閉鎖等,0,2024-11-13,2024-10-30,エム・アール・イー合同会社,,合同会社,東京都,千代田区,丸の内３丁目１番１号東京共同会計事務所内,,13,101,1000005,,,2024-10-30,清算の結了等,,,2023-04-20,1,,,,,エムアールイー,0
2158,8012401018199,登記記録の閉鎖等,0,2024-11-13,2024-11-11,株式会社ｂｉｓｍ,,株式会社,東京都,武蔵野市,吉祥寺本町１丁目２７番３号,,13,203,1800004,,,2024-11-11,清算の結了等,,,2015-10-05,1,,,,,ビズム,0
2161,8012403005823,登記記録の閉鎖等,0,2024-11-13,2024-10-31,合同会社ＦＥＲＮＡ,,合同会社,東京都,中央区,銀座１丁目１２番４号Ｎ＆ＥＢＬＤ．７階,,13,102,1040061,,,2024-10-31,清算の結了等,,,2023-02-14,1,,,,,フェルナ,0
2167,8013102006798,登記記録の閉鎖等,0,2024-11-13,2024-11-07,有限会社丸木,,有限会社,東京都,青梅市,本町１２０番地,,13,205,1980083,,,2024-11-07,清算の結了等,,,2015-10-05,1,,,,,マルキ,0
2189,8030001111819,登記記録の閉鎖等,0,2024-11-13,2024-11-08,株式会社コーブ,,株式会社,埼玉県,さいたま市南区,大字大谷口１８４４番地１８,,11,108,3360042,,,2024-11-08,清算の結了等,,,2015-12-10,1,,,,,コーブ,0
2203,8040001078520,登記記録の閉鎖等,0,2024-11-13,2024-11-06,株式会社登建産業,,株式会社,千葉県,山武市,戸田１４９９番地８,,12,237,2891204,,,2024-11-06,清算の結了等,,,2015-10-05,1,,,,,トウケンサンギョウ,0
2213,8040002067489,登記記録の閉鎖等,0,2024-11-13,2024-11-06,有限会社ハトヤ釦店,,有限会社,千葉県,木更津市,富士見１丁目５番１２号,,12,206,2920831,,,2024-11-06,清算の結了等,,,2015-10-05,1,,,,,ハトヤボタンテン,0
2228,8080101009826,登記記録の閉鎖等,0,2024-11-13,2024-11-08,村松肥料株式会社,,株式会社,静岡県,富士市,大渕５１１番地の１,,22,210,4170000,,,2024-11-08,清算の結了等,,,2015-10-05,1,,,,,ムラマツヒリョウ,0
2245,8100001016622,登記記録の閉鎖等,0,2024-11-13,2024-11-05,株式会社グランドホームジャパン,,株式会社,長野県,松本市,城西１丁目４番１５号,,20,202,3900875,,,2024-11-05,清算の結了等,,,2015-10-05,1,,,,,グランドホームジャパン,0
2248,8120001123689,登記記録の閉鎖等,0,2024-11-13,2024-11-05,千里物産株式会社,,株式会社,大阪府,大阪市北区,豊崎３丁目１１番１４号,,27,127,5310072,,,2024-11-05,清算の結了等,,,2015-10-05,1,,,,,センリブッサン,0
2250,8120001204506,登記記録の閉鎖等,0,2024-11-13,2024-11-11,株式会社トータルクリエイト,,株式会社,大阪府,大阪市中央区,徳井町２丁目１番１１号,,27,128,5400025,,,2024-11-11,清算の結了等,,,2017-03-22,1,,,,,,0
2270,8120003015876,登記記録の閉鎖等,0,2024-11-13,2024-11-11,合同会社ライフパートナー,,合同会社,大阪府,大阪市浪速区,敷津西２丁目１番２６号２階,,27,111,5560015,,,2024-11-11,清算の結了等,,,2019-06-21,1,,,,,ライフパートナー,0
2294,8140001086018,登記記録の閉鎖等,0,2024-11-13,2024-11-08,株式会社しばゑもん,,株式会社,兵庫県,淡路市,佐野新島９番地６,,28,226,6562213,,,2024-11-08,清算の結了等,,,2015-10-05,1,,,,,シバエモン,0
2300,8140005016160,登記記録の閉鎖等,0,2024-11-13,2024-11-08,医療法人社団堅田医院,,その他の設立登記法人,兵庫県,西宮市,浜甲子園２丁目５番１２号,,28,204,6638154,,,2024-11-08,清算の結了等,,,2015-10-05,1,,,,,カタダイイン,0
2326,8180301030431,登記記録の閉鎖等,0,2024-11-13,2024-11-11,株式会社ＦＩＮＥ,,株式会社,愛知県,豊田市,日之出町１丁目２番地６Ｄ棟,,23,211,4710075,,,2024-11-11,清算の結了等,,,2017-06-14,1,,,,,,0
2333,8210002007642,登記記録の閉鎖等,0,2024-11-13,2024-11-11,有限会社三上設備工業,,有限会社,福井県,あわら市,河間第９号８番地,,18,208,9104142,,,2024-11-11,清算の結了等,,,2015-10-05,1,,,,,ミカミセツビコウギョウ,0
2334,8210002014341,登記記録の閉鎖等,0,2024-11-13,2024-11-08,有限会社ベルグ,,有限会社,福井県,小浜市,山手３丁目８番１８号,,18,204,9170092,,,2024-11-08,清算の結了等,,,2015-10-05,1,,,,,ベルグ,0
2335,8220001023549,登記記録の閉鎖等,0,2024-11-13,2024-11-08,株式会社ｎｏｎｏｄｅｎＬＡＢＯ,,株式会社,石川県,野々市市,本町３丁目９番１２号,,17,212,9218815,,,2024-11-08,清算の結了等,,,2020-05-13,1,,,,,ノノデンラボ,0
2339,8240002008514,登記記録の閉鎖等,0,2024-11-13,2024-11-08,有限会社すばる社,,有限会社,広島県,広島市東区,尾長東３丁目１番１号,,34,102,7320046,,,2024-11-08,清算の結了等,,,2015-10-05,1,,,,,スバルシャ,0
2344,8260001034617,登記記録の閉鎖等,0,2024-11-13,2024-11-01,株式会社アグリテック美作,,株式会社,岡山県,美作市,赤田１３番地１,,33,215,7070432,,,2024-11-01,清算の結了等,,,2020-08-13,1,,,,,アグリテックミマサカ,0
2351,8290005004588,登記記録の閉鎖等,0,2024-11-13,2024-09-26,特定非営利活動法人九州地域振興協会,,その他の設立登記法人,福岡県,大野城市,御笠川２丁目１２番１０－１号,,40,219,8160912,,,2024-09-26,清算の結了等,,,2015-10-05,1,,,,,キュウシュウチイキシンコウキョウカイ,0
2356,8310001007336,登記記録の閉鎖等,0,2024-11-13,2024-11-01,親西道路建設株式会社,,株式会社,長崎県,佐世保市,大塔町１５９６番地６,,42,202,8571161,,,2024-11-01,合併による解散等,3310001005591,令和６年１１月１日長崎県佐世保市福石町４番１９号西部道路株式会社（3310001005591）に合併し解散,2015-10-05,1,,,,,シンセイドウロ,0
2362,8330001023728,登記記録の閉鎖等,0,2024-11-13,2024-11-06,ＥＰＲメディシン・ジャパン株式会社,,株式会社,熊本県,熊本市東区,湖東３丁目２１番２４号,,43,102,8620909,,,2024-11-06,清算の結了等,,,2017-02-13,1,,,,,イーピーアールメディシンジャパン,0
2363,8340001012275,登記記録の閉鎖等,0,2024-11-13,2024-11-07,山野ソーイング株式会社,,株式会社,鹿児島県,伊佐市,大口原田７２０番地,,46,224,8952506,,,2024-11-07,清算の結了等,,,2015-10-05,1,,,,,ヤマノソーイング,0
2365,8340002024071,登記記録の閉鎖等,0,2024-11-13,2024-11-08,有限会社晴友茶園,,有限会社,鹿児島県,枕崎市,茅野町１７０番地,,46,204,8980098,,,2024-11-08,清算の結了等,,,2015-10-05,1,,,,,セイユウチャエン,0
2374,8370601000981,登記記録の閉鎖等,0,2024-11-13,2024-11-05,青葉建設株式会社,,株式会社,宮城県,多賀城市,東田中２丁目７番１９号,,04,209,9850863,,,2024-11-05,清算の結了等,,,2015-10-05,1,,,,,アオバケンセツ,0
2380,8430002031133,登記記録の閉鎖等,0,2024-11-13,2024-11-07,有限会社エムアンドケイ・ハマ,,有限会社,北海道,札幌市北区,篠路六条６丁目１０番３号,,01,102,0028026,,,2024-11-07,清算の結了等,,,2015-10-05,1,,,,,エムアンドケイハマ,0
2381,8430002035068,登記記録の閉鎖等,0,2024-11-13,2024-11-05,有限会社モイスティーヌ吉田,,有限会社,北海道,札幌市中央区,南四条西８丁目２,,01,101,0640804,,,2024-11-05,清算の結了等,,,2015-10-05,1,,,,,モイスティーヌヨシダ,0
2405,9010002053078,登記記録の閉鎖等,0,2024-11-13,2024-11-07,有限会社リンガフランカ,,有限会社,千葉県,市川市,二俣１丁目１１－２１－２０１,,12,203,2720001,,,2024-11-07,清算の結了等,,,2015-10-05,1,,,,,リンガフランカ,0
2406,9010003033070,登記記録の閉鎖等,0,2024-11-13,2024-10-30,ガンマＭＬ合同会社,,合同会社,東京都,千代田区,丸の内３丁目１番１号東京共同会計事務所内,,13,101,1000005,,,2024-10-30,清算の結了等,,,2020-09-17,1,,,,,ガンマエムエル,0
2407,9010003035488,登記記録の閉鎖等,0,2024-11-13,2024-10-31,ＤＨＳＷＦ１合同会社,,合同会社,東京都,千代田区,永田町２丁目４番８号,,13,101,1000014,,,2024-10-31,清算の結了等,,,2021-08-03,1,,,,,ディーエイチエスダブリューエフワン,0
2441,9010901016416,登記記録の閉鎖等,0,2024-11-13,2024-10-30,株式会社ＳＥＰＴ　ＨＵＩＴ,,株式会社,東京都,千代田区,麹町２丁目４番地,,13,101,1020083,,,2024-10-30,合併による解散等,1010401091339,令和６年１０月１日東京都千代田区麹町二丁目４番地豊通ファッションエクスプレス株式会社（1010401091339）に合併し解散,2015-10-05,1,,,,,セットゥユイットゥ,0
2446,9010905004549,登記記録の閉鎖等,0,2024-11-13,2024-10-31,税理士法人ＡＲＴ会計事務所,,その他の設立登記法人,東京都,世田谷区,経堂１丁目１９番１４号第六経堂ビル３０３,,13,112,1560052,,,2024-10-31,清算の結了等,,,2023-12-11,1,,,,,アルトカイケイジムショ,0
2460,9011203003425,登記記録の閉鎖等,0,2024-11-13,2024-11-06,潮風合同会社,,合同会社,東京都,練馬区,練馬１丁目２０番８号日建練馬ビル２Ｆ,,13,120,1760001,,,2024-11-06,合併による解散等,8011203003624,令和６年１１月１日東京都中野区江原町二丁目２１番７－５０４号松山合同会社（8011203003624）に合併し解散,2020-11-13,1,,,,,シオカゼ,0
2463,9011501029709,登記記録の閉鎖等,0,2024-11-13,2024-11-08,夏木立株式会社,,株式会社,東京都,北区,中里１丁目２１番２号中里ビル１Ｆ,,13,117,1140015,,,2024-11-08,清算の結了等,,,2023-08-31,1,,,,,ナツコダチ,0
2468,9011802018708,登記記録の閉鎖等,0,2024-11-13,2024-11-07,有限会社松電西新井店,,有限会社,東京都,足立区,西新井栄町１丁目６番１４号,,13,121,1230843,,,2024-11-07,清算の結了等,,,2015-10-05,1,,,,,マツデンニシアライテン,0
2473,9012402003595,登記記録の閉鎖等,0,2024-11-13,2024-10-29,有限会社さとみ薬局,,有限会社,東京都,国分寺市,本多５丁目３番１号,,13,214,1850011,,,2024-10-29,清算の結了等,,,2015-10-05,1,,,,,サトミヤッキョク,0
2474,9012402017109,登記記録の閉鎖等,0,2024-11-13,2024-11-11,有限会社セシール,,有限会社,東京都,武蔵野市,吉祥寺本町２丁目１３番１号,,13,203,1800004,,,2024-11-11,清算の結了等,,,2015-10-05,1,,,,,セシール,0
2502,9020002011943,登記記録の閉鎖等,0,2024-11-13,2024-10-25,有限会社三立電機製作所,,有限会社,神奈川県,横浜市戸塚区,上矢部町２番地,,14,110,2450053,,,2024-10-25,清算の結了等,,,2015-10-05,1,,,,,サンリツデンキセイサクショ,0
2504,9020005000258,登記記録の閉鎖等,0,2024-11-13,2024-09-26,宗教法人稲荷社,,その他の設立登記法人,神奈川県,横浜市鶴見区,上末吉２丁目２０番６号,,14,101,2300011,,,2024-09-26,合併による解散等,4020005000304,令和６年９月２６日横浜市鶴見区上末吉四丁目１４番１４号宗教法人末吉神社（4020005000304）に合併し解散,2015-10-05,1,,,,,,0
2521,9040001130692,登記記録の閉鎖等,0,2024-11-13,2024-11-06,サンミライ株式会社,,株式会社,千葉県,流山市,三輪野山１丁目１００１番地の２インペリアルタイガー２０１,,12,220,2700175,,,2024-11-06,清算の結了等,,,2023-11-07,1,,,,,サンミライ,0
2536,9080401005929,登記記録の閉鎖等,0,2024-11-13,2024-11-12,株式会社ＯＢ商事,,株式会社,静岡県,浜松市中央区,安松町６４番地の１３,,22,138,4350034,,,2024-11-12,清算の結了等,,,2015-10-05,1,,,,,オービーショウジ,0
2551,9100002023220,登記記録の閉鎖等,0,2024-11-13,2024-11-05,有限会社アーストレーディング,,有限会社,長野県,安曇野市,穂高有明７３５７番地１,,20,220,3998301,,,2024-11-05,清算の結了等,,,2015-10-05,1,,,,,アーストレーディング,0
2564,9120001237892,登記記録の閉鎖等,0,2024-11-13,2024-11-12,株式会社Ｎｅｘｔ　Ｐｒｏｊｅｃｔ,,株式会社,大阪府,大阪市中央区,谷町３丁目４番２号名阪第一ビル７０５号,,27,128,5400012,,,2024-11-12,清算の結了等,,,2021-06-04,1,,,,,ネクストプロジェクト,0
2576,9120101035461,登記記録の閉鎖等,0,2024-11-13,2024-11-11,株式会社たつぐみ,,株式会社,大阪府,富田林市,甲田３丁目７番２２－３０４号,,27,214,5840036,,,2024-11-11,清算の結了等,,,2015-10-05,1,,,,,タツグミ,0
2612,9180002071055,登記記録の閉鎖等,0,2024-11-13,2024-11-05,有限会社ケン・アンド・ユリ,,有限会社,愛知県,小牧市,大字岩崎１８８９番地,,23,219,4850011,,,2024-11-05,清算の結了等,,,2015-10-05,1,,,,,ケンアンドユリ,0
2630,9240001035434,登記記録の閉鎖等,0,2024-11-13,2024-11-08,株式会社協和コーポレーション,,株式会社,広島県,福山市,新市町大字新市４８６番地６,,34,207,7293103,,,2024-11-08,清算の結了等,,,2015-10-05,1,,,,,キョウワコーポレーション,0
2631,9240001044559,登記記録の閉鎖等,0,2024-11-13,2024-11-08,株式会社坂田興業,,株式会社,広島県,福山市,南手城町２丁目２３番６号,,34,207,7210963,,,2024-11-08,清算の結了等,,,2015-10-05,1,,,,,,0
2652,9350005000836,登記記録の閉鎖等,0,2024-11-13,2024-10-08,天理教宮崎中央分教会,,その他の設立登記法人,宮崎県,宮崎市,旭１丁目６番２６号,,45,201,8800803,,,2024-10-08,合併による解散等,3140005009490,令和６年９月２６日兵庫県加古郡稲美町蛸草１１１４番地の１天理教加古大教会（3140005009490）に合併し解散,2015-10-05,1,,,,,テンリキョウミヤザキチュウオウブンキョウカイ,0
2663,9370801001291,登記記録の閉鎖等,0,2024-11-13,2024-11-01,株式会社杜の都調剤薬局,,株式会社,宮城県,岩沼市,館下２丁目１番２１号,,04,211,9892441,,,2024-11-01,清算の結了等,,,2015-10-05,1,,,,,モリノミヤコチョウザイヤッキョク,0
2665,9380002035709,登記記録の閉鎖等,0,2024-11-13,2024-10-31,有限会社若松屋ストアー,,有限会社,福島県,南会津郡南会津町,古町字居平１８番地の８,,07,368,9670501,,,2024-10-31,清算の結了等,,,2015-10-05,1,,,,,ワカマツヤストアー,0
2677,9430002055635,登記記録の閉鎖等,0,2024-11-13,2024-11-08,有限会社ヨシヤ,,有限会社,北海道,小樽市,稲穂１丁目１番９号,,01,203,0470032,,,2024-11-08,清算の結了等,,,2015-10-05,1,,,,,ヨシヤ,0
