sequenceNumber,corporateNumber,process,correct,updateDate,changeDate,name,nameImageId,kind,prefectureName,cityName,streetNumber,addressImageId,prefectureCode,cityCode,postCode,addressOutside,addressOutsideImageId,closeDate,closeCause,successorCorporateNumber,changeCause,assignmentDate,latest,enName,enPrefectureName,enCityName,enAddressOutside,furigana,hihyoji
15,1010103001827,新規,0,2021-12-20,2021-12-20,合同会社ぶんぶん,,合同会社,東京都,八王子市,中野山王３丁目５－９,,13,201,1920042,,,,,,,2021-12-20,1,,,,,,0
16,1010401164565,新規,0,2021-12-20,2021-12-20,第一シモビル管財株式会社,,株式会社,東京都,港区,白金４丁目１０番１号,,13,103,1080072,,,,,,,2021-12-20,1,,,,,ダイイチシモビルカンザイ,0
21,1010403026615,新規,0,2021-12-20,2021-12-20,合同会社グリーンパワー石狩ホールディングス,,合同会社,東京都,港区,赤坂１丁目１１番地４４号赤坂インターシティ,,13,103,1070052,,,,,,,2021-12-20,1,,,,,グリーンパワーイシカリホールディングス,0
22,1010403026747,新規,0,2021-12-20,2021-12-20,糸満３Ｒバイオガス発電合同会社,,合同会社,東京都,港区,新橋６丁目１７番２１号住友不動産御成門駅前ビル１０階,,13,103,1050004,,,,,,,2021-12-20,1,,,,,イトマンスリーアールバイオガスハツデン,0
25,1010601060408,新規,0,2021-12-20,2021-12-20,株式会社Ｔｈｅ　Ｃｅｎｔｒａｌ　ＴＯＹＯＳＵ,,株式会社,東京都,江東区,豊洲４丁目４番２５号,,13,108,1350061,,,,,,,2021-12-20,1,,,,,ザセントラルトヨス,0
30,1010701041951,新規,0,2021-12-20,2021-12-20,かむろ坂コンサルティング株式会社,,株式会社,東京都,品川区,西五反田３丁目１５－６リードシー目黒不動前ビル７－２０,,13,109,1410031,,,,,,,2021-12-20,1,,,,,カムロザカコンサルティング,0
32,1010801032586,新規,0,2021-12-20,2021-12-20,株式会社Ｍ＆ＴｒｙＳ,,株式会社,東京都,大田区,西糀谷４丁目２１番１１号ＧＯＮタウン１０５,,13,111,1440034,,,,,,,2021-12-20,1,,,,,エムアンドトライス,0
34,1010901050018,新規,0,2021-12-20,2021-12-20,株式会社Ｋ,,株式会社,東京都,世田谷区,砧２丁目１６番１号,,13,112,1570073,,,,,,,2021-12-20,1,,,,,ケー,0
43,1011003013697,新規,0,2021-12-20,2021-12-20,合同会社Ｌｉｎｋ　Ｕｐ,,合同会社,東京都,渋谷区,幡ヶ谷２丁目３０－１第一笹塚ビル２０４,,13,113,1510072,,,,,,,2021-12-20,1,,,,,リンクアップ,0
44,1011003013887,新規,0,2021-12-20,2021-12-20,クアドラフォニック合同会社,,合同会社,東京都,渋谷区,神宮前６丁目２３番４号桑野ビル２階,,13,113,1500001,,,,,,,2021-12-20,1,,,,,クアドラフォニック,0
62,1012401038666,新規,0,2021-12-20,2021-12-20,株式会社ＮＫリーゾス,,株式会社,東京都,狛江市,東和泉４丁目６番２３号,,13,219,2010014,,,,,,,2021-12-20,1,,,,,エヌケーリーゾス,0
69,1013303005960,新規,0,2021-12-20,2021-12-20,ブルースカイ合同会社,,合同会社,東京都,豊島区,池袋２丁目４７番１２号第ＩＩ絆ビル４階,00125183,13,116,1710014,,,,,,,2021-12-20,1,,,,,ブルースカイ,0
79,1020005015305,新規,0,2021-12-20,2021-12-20,医療法人社団青佑会,,その他の設立登記法人,神奈川県,川崎市多摩区,登戸２４２７番５メディカルプレイスタナカ２階,,14,135,2140014,,,,,,,2021-12-20,1,,,,,セイユウカイ,0
81,1021001074757,新規,0,2021-12-20,2021-12-20,株式会社Ｒｉｒｉａｎ　Ｌａｂｏ,,株式会社,神奈川県,相模原市緑区,橋本３丁目２９番６号橋本センタービル１Ｆ,,14,151,2520143,,,,,,,2021-12-20,1,,,,,リリアンラボ,0
85,1021003011196,新規,0,2021-12-20,2021-12-20,合同会社Ｔｈｒｅｅ,,合同会社,神奈川県,相模原市中央区,田名３９９６番地２,,14,152,2520244,,,,,,,2021-12-20,1,,,,,スリー,0
86,1021003011205,新規,0,2021-12-20,2021-12-20,合同会社手酒手,,合同会社,神奈川県,藤沢市,本鵠沼１丁目１８－４,,14,205,2510028,,,,,,,2021-12-20,1,,,,,シュシュシュ,0
92,1030001145906,新規,0,2021-12-20,2021-12-20,株式会社ＳＡＺＡＮ,,株式会社,埼玉県,さいたま市西区,大字高木３４１番地５,,11,101,3310071,,,,,,,2021-12-20,1,,,,,サザン,0
102,1040003019124,新規,0,2021-12-20,2021-12-20,合同会社日本自然エネルギー開発,,合同会社,千葉県,八街市,八街ほ３７８番地２２,,12,230,2891115,,,,,,,2021-12-20,1,,,,,ニホンシゼンエネルギーカイハツ,0
103,1040003019157,新規,0,2021-12-20,2021-12-20,合同会社２２６Ｃｏｒｐｏｒａｔｉｏｎ,,合同会社,千葉県,香取市,佐原イ７４番地６,,12,236,2870003,,,,,,,2021-12-20,1,,,,,ニーニーロクコーポレーション,0
106,1070001038750,新規,0,2021-12-20,2021-12-20,株式会社赤ドラ,,株式会社,群馬県,前橋市,粕川町深津１６１３番地１２,,10,201,3710215,,,,,,,2021-12-20,1,,,,,アカドラ,0
111,1080401025538,新規,0,2021-12-20,2021-12-20,株式会社ＪＯＥ,,株式会社,静岡県,掛川市,中央２丁目４番２７号中央ビル２階,,22,213,4360056,,,,,,,2021-12-20,1,,,,,ジョー,0
117,1100001034903,新規,0,2021-12-20,2021-12-20,すえひろファーム株式会社,,株式会社,長野県,大町市,大町１２５２番地５,,20,212,3980002,,,,,,,2021-12-20,1,,,,,スエヒロファーム,0
131,1120001242594,新規,0,2021-12-20,2021-12-20,株式会社ＴＰＣ実行委員会,,株式会社,大阪府,大阪市中央区,鎗屋町２丁目４番１３－８０３号,,27,128,5400027,,,,,,,2021-12-20,1,,,,,ティーピーシージッコウイインカイ,0
132,1120001242603,新規,0,2021-12-20,2021-12-20,株式会社ベーシックリサーチ,,株式会社,大阪府,大阪市中央区,北久宝寺町１丁目５番６号堺筋本町アーバンライフ５０８号室,,27,128,5410057,,,,,,,2021-12-20,1,,,,,ベーシックリサーチ,0
133,1120003020800,新規,0,2021-12-20,2021-12-20,アッセンブリ合同会社,,合同会社,大阪府,大阪市淀川区,新高３丁目１０番８号２０３,,27,123,5320033,,,,,,,2021-12-20,1,,,,,アッセンブリ,0
138,1120101064807,新規,0,2021-12-20,2021-12-20,株式会社ＳＨＯＭａ,,株式会社,大阪府,堺市堺区,栄橋町２丁５番１号平和ガーデンハイツ２０２,,27,141,5900971,,,,,,,2021-12-20,1,,,,,ショーマ,0
150,1140001124188,新規,0,2021-12-20,2021-12-20,株式会社ジベル,,株式会社,兵庫県,宝塚市,小浜２丁目１番４８号,,28,214,6650827,,,,,,,2021-12-20,1,,,,,ジベル,0
151,1140001124246,新規,0,2021-12-20,2021-12-20,株式会社Ｌｉｅｔｏ,,株式会社,兵庫県,西宮市,名塩さくら台１丁目１９番地７,,28,204,6691146,,,,,,,2021-12-20,1,,,,,リエート,0
155,1140003017126,新規,0,2021-12-20,2021-12-20,合同会社ガネーシャダイニング,,合同会社,兵庫県,神戸市兵庫区,荒田町４丁目１番２３号,,28,105,6520032,,,,,,,2021-12-20,1,,,,,ガネーシャダイニング,0
157,1170001016911,新規,0,2021-12-20,2021-12-20,株式会社関西ワークス,,株式会社,和歌山県,和歌山市,毛見１０２４番地５,,30,201,6410014,,,,,,,2021-12-20,1,,,,,カンサイワークス,0
158,1170003001671,新規,0,2021-12-20,2021-12-20,合同会社Ｊａｐａｎ　Ｃｒｅａｔｅ　Ｌｉｎｋ,,合同会社,和歌山県,田辺市,本宮町本宮４０６番１,,30,206,6471731,,,,,,,2021-12-20,1,,,,,ジャパンクリエイトリンク,0
162,1180001149157,新規,0,2021-12-20,2021-12-20,株式会社ＨＥＲＯ,,株式会社,愛知県,一宮市,公園通４丁目４０番地２,,23,203,4910842,,,,,,,2021-12-20,1,,,,,ヒーロー,0
163,1180001149165,新規,0,2021-12-20,2021-12-20,株式会社藤海,,株式会社,愛知県,小牧市,小牧原２丁目３００番地１,,23,219,4850829,,,,,,,2021-12-20,1,,,,,フジミ,0
164,1180001149173,新規,0,2021-12-20,2021-12-20,株式会社ユナイテッドＫＪ,,株式会社,愛知県,名古屋市中村区,名駅４丁目１１番３号,,23,105,4500002,,,,,,,2021-12-20,1,,,,,ユナイテッドケイジェイ,0
165,1180001149207,新規,0,2021-12-20,2021-12-20,株式会社クレアティブ,,株式会社,愛知県,名古屋市中区,新栄１丁目３番３号,,23,106,4600007,,,,,,,2021-12-20,1,,,,,クレアティブ,0
168,1180003023285,新規,0,2021-12-20,2021-12-20,合同会社虹色,,合同会社,愛知県,知多市,南粕谷１丁目２０番地の６５,,23,224,4780024,,,,,,,2021-12-20,1,,,,,ニジイロ,0
169,1180003023302,新規,0,2021-12-20,2021-12-20,アラタ合同会社,,合同会社,愛知県,名古屋市昭和区,荒田町３丁目２番地,,23,107,4660844,,,,,,,2021-12-20,1,,,,,アラタ,0
170,1180003023310,新規,0,2021-12-20,2021-12-20,七曜合同会社,,合同会社,愛知県,知多郡美浜町,大字奥田字石亀１１６番地,,23,446,4703233,,,,,,,2021-12-20,1,,,,,シチヨウ,0
176,1180303005198,新規,0,2021-12-20,2021-12-20,合同会社コスモス,,合同会社,愛知県,新城市,作手中河内字細沢連２７番地１,,23,221,4411424,,,,,,,2021-12-20,1,,,,,コスモス,0
177,1190001028946,新規,0,2021-12-20,2021-12-20,ＡＢＤＵＬＬＡＨＡ　ＴＲＡＤＩＮＧ株式会社,,株式会社,三重県,鈴鹿市,竹野２丁目９番２１号竹野ハイツ２０４号室,,24,207,5130025,,,,,,,2021-12-20,1,,,,,アブドゥラトレーディング,0
178,1190003003848,新規,0,2021-12-20,2021-12-20,合同会社あゆみ野,,合同会社,三重県,津市,夢が丘１丁目６番地２,,24,201,5140116,,,,,,,2021-12-20,1,,,,,アユミノ,0
179,1200001039545,新規,0,2021-12-20,2021-12-20,ＵＮＩＴＥ株式会社,,株式会社,岐阜県,岐阜市,明神町２丁目１番地,,21,201,5020922,,,,,,,2021-12-20,1,,,,,ユナイト,0
181,1220001024603,新規,0,2021-12-20,2021-12-20,株式会社イクジットカンパニー,,株式会社,石川県,金沢市,稚日野町南９２番地２,,17,201,9200355,,,,,,,2021-12-20,1,,,,,イクジットカンパニー,0
191,1260005011008,新規,0,2021-12-20,2021-12-20,医療法人社団涛徳会,,その他の設立登記法人,岡山県,倉敷市,松島１１５４番地２マルナカマスカット店ドーム棟２階,,33,202,7010114,,,,,,,2021-12-20,1,,,,,トウトクカイ,0
210,1290801028094,新規,0,2021-12-20,2021-12-20,株式会社ＮＥＸＴ‐ＮＥＴ,,株式会社,福岡県,北九州市八幡西区,木屋瀬５丁目４番１４号,,40,109,8071261,,,,,,,2021-12-20,1,,,,,ネクストネット,0
212,1290803004011,新規,0,2021-12-20,2021-12-20,合同会社サードギア,,合同会社,福岡県,北九州市八幡東区,槻田２丁目９番５号ハイネス槻田９０５号,,40,108,8050031,,,,,,,2021-12-20,1,,,,,サードギア,0
215,1310001017630,新規,0,2021-12-20,2021-12-20,株式会社Ｔｏａ,,株式会社,長崎県,長崎市,横尾２丁目１９－１０　２０１,,42,201,8528065,,,,,,,2021-12-20,1,,,,,トア,0
216,1310001017639,新規,0,2021-12-20,2021-12-20,株式会社Ｂｌｕｅ　Ｓｅａｗｅｅｄ,,株式会社,長崎県,長崎市,出島町１番４３号Ｄ－ＦＬＡＧ４０６号室,,42,201,8500862,,,,,,,2021-12-20,1,,,,,ブルーシーウィード,0
219,1320001018792,新規,0,2021-12-20,2021-12-20,高建株式会社,00125173,株式会社,大分県,大分市,大字光吉１９１３番地の６６,,44,201,8701132,,,,,,,2021-12-20,1,,,,,タカケン,0
222,1350001017478,新規,0,2021-12-20,2021-12-20,株式会社松葉工業,,株式会社,宮崎県,日向市,比良町４丁目５９番地,,45,206,8830031,,,,,,,2021-12-20,1,,,,,マツバコウギョウ,0
226,1360001029778,新規,0,2021-12-20,2021-12-20,ホワイトニングポッズ株式会社,,株式会社,沖縄県,那覇市,久米２丁目３－１５ＣＯＩ那覇ビル５階,,47,201,9000033,,,,,,,2021-12-20,1,,,,,ホワイトニングポッズ,0
227,1360001029794,新規,0,2021-12-20,2021-12-20,株式会社ハーベル,,株式会社,沖縄県,那覇市,首里寒川町１丁目２４番地１１,,47,201,9030826,,,,,,,2021-12-20,1,,,,,ハーベル,0
237,1380005012514,新規,0,2021-12-20,2021-12-20,一般社団法人Ｆｕｋｕｓｈｉｍａ‐ＢＡＳＥ,,その他の設立登記法人,福島県,福島市,本町２番地１０,,07,201,9608035,,,,,,,2021-12-20,1,,,,,フクシマベース,0
247,1420001017677,新規,0,2021-12-20,2021-12-20,株式会社えのき,,株式会社,青森県,八戸市,大字湊町字ホロキ長根９番地１６,,02,203,0310812,,,,,,,2021-12-20,1,,,,,エノキ,0
252,1430001085574,新規,0,2021-12-20,2021-12-20,株式会社ＦＡＫＥ,,株式会社,北海道,札幌市中央区,南六条西４丁目４番３ＬＣ壱番館８階,,01,101,0640806,,,,,,,2021-12-20,1,,,,,フェイク,0
253,1430001085616,新規,0,2021-12-20,2021-12-20,株式会社ハウステリアやまと,,株式会社,北海道,苫小牧市,栄町２丁目１番１号大下ビル１Ｆ,,01,213,0530017,,,,,,,2021-12-20,1,,,,,ハウステリアヤマト,0
254,1430001085624,新規,0,2021-12-20,2021-12-20,株式会社苫米地左官,,株式会社,北海道,石狩市,花川南八条２丁目１８３番地,,01,235,0613208,,,,,,,2021-12-20,1,,,,,トマベチサカン,0
256,1430003013467,新規,0,2021-12-20,2021-12-20,Ｆｏｒｅｓｔ　Ｌｉｆｅ合同会社,,合同会社,北海道,札幌市中央区,宮の森三条１１丁目４番７号,,01,101,0640953,,,,,,,2021-12-20,1,,,,,,0
263,1470003002094,新規,0,2021-12-20,2021-12-20,合同会社すまいる,,合同会社,香川県,高松市,多肥上町１８７１番地１,,37,201,7618076,,,,,,,2021-12-20,1,,,,,スマイル,0
265,1480001011583,新規,0,2021-12-20,2021-12-20,株式会社泊宝丸,,株式会社,徳島県,阿南市,福井町大原３５５番地１６,,36,204,7791620,,,,,,,2021-12-20,1,,,,,ハクホウマル,0
270,1500003002735,新規,0,2021-12-20,2021-12-20,合同会社ニューライフ,,合同会社,愛媛県,松山市,東野５丁目乙２２１番地４９,,38,201,7900903,,,,,,,2021-12-20,1,,,,,ニューライフ,0
290,2010001223308,新規,0,2021-12-20,2021-12-20,株式会社ソエルテ,,株式会社,東京都,中央区,日本橋２丁目１番１７号丹生ビル２階,,13,102,1030027,,,,,,,2021-12-20,1,,,,,ソエルテ,0
291,2010001223398,新規,0,2021-12-20,2021-12-20,株式会社シモビルエステート,,株式会社,東京都,中央区,京橋２丁目６番１３号第二下村ビル,,13,102,1040031,,,,,,,2021-12-20,1,,,,,シモビルエステート,0
300,2010401164548,新規,0,2021-12-20,2021-12-20,株式会社エラスト,,株式会社,東京都,港区,新橋４丁目２５番６号ヤスヰビル２,,13,103,1050004,,,,,,,2021-12-20,1,,,,,エラスト,0
305,2010403026746,新規,0,2021-12-20,2021-12-20,石垣３Ｒバイオガス発電合同会社,,合同会社,東京都,港区,新橋６丁目１７番２１号住友不動産御成門駅前ビル１０階,,13,103,1050004,,,,,,,2021-12-20,1,,,,,イシガキスリーアールバイオガスハツデン,0
311,2010601060407,新規,0,2021-12-20,2021-12-20,ＩＲ　Ｃａｐｉｔａｌ　Ｊａｐａｎ株式会社,,株式会社,東京都,江東区,青海２丁目７番４号ｔｈｅＳＯＨＯ１００１号室,,13,108,1350064,,,,,,,2021-12-20,1,,,,,アイアールキャピタルジャパン,0
313,2010701041959,新規,0,2021-12-20,2021-12-20,株式会社ＧＲＩＴ,,株式会社,東京都,品川区,東中延２丁目１０番１３号,,13,109,1420052,,,,,,,2021-12-20,1,,,,,グリット,0
314,2010703006043,新規,0,2021-12-20,2021-12-20,合同会社Ａｇｉｌｅ　Ａｐｏｔｈｅｃａｒｙ,,合同会社,東京都,品川区,小山３丁目１４－２－１７０６,,13,109,1420062,,,,,,,2021-12-20,1,,,,,アジャイルアポセカリー,0
317,2010803003989,新規,0,2021-12-20,2021-12-20,合同会社イージスビジョン,,合同会社,東京都,大田区,羽田１丁目１３番１－１００１号,,13,111,1440043,,,,,,,2021-12-20,1,,,,,イージスビジョン,0
322,2010901050033,新規,0,2021-12-20,2021-12-20,株式会社ｌｉｅｎ．,,株式会社,東京都,世田谷区,奥沢７丁目４番１４号,,13,112,1580083,,,,,,,2021-12-20,1,,,,,リアン,0
324,2011001144659,新規,0,2021-12-20,2021-12-20,Ｒｉｏ３６９株式会社,,株式会社,東京都,渋谷区,神南１丁目４－１６アピス渋谷神南１１０４,,13,113,1500041,,,,,,,2021-12-20,1,,,,,リオミロク,0
330,2011103011278,新規,0,2021-12-20,2021-12-20,合同会社ａｎｔ,,合同会社,東京都,新宿区,西新宿４丁目２番１５－４０６号,,13,104,1600023,,,,,,,2021-12-20,1,,,,,アント,0
332,2011201023489,新規,0,2021-12-20,2021-12-20,ＴＡコンサルティング株式会社,,株式会社,東京都,中野区,中野４丁目１－１,,13,114,1640001,,,,,,,2021-12-20,1,,,,,ティーエーコンサルティング,0
337,2011401023917,新規,0,2021-12-20,2021-12-20,株式会社トミコ,,株式会社,東京都,板橋区,小豆沢２丁目１８番６－１２０１号,,13,119,1740051,,,,,,,2021-12-20,1,,,,,トミコ,0
338,2011501027578,新規,0,2021-12-20,2021-12-20,株式会社ＨＡＦ,,株式会社,東京都,荒川区,南千住６丁目４９番１９号,,13,118,1160003,,,,,,,2021-12-20,1,,,,,エイチエーエフ,0
339,2011501027586,新規,0,2021-12-20,2021-12-20,株式会社佐藤会,,株式会社,東京都,荒川区,西尾久７丁目２３番８－７０１ピアース東京尾久,,13,118,1160011,,,,,,,2021-12-20,1,,,,,,0
354,2020001144387,新規,0,2021-12-20,2021-12-20,株式会社ＫＲＭ,,株式会社,神奈川県,横浜市瀬谷区,相沢５丁目５５番地３,,14,114,2460013,,,,,,,2021-12-20,1,,,,,ケイアールエム,0
355,2020001144412,新規,0,2021-12-20,2021-12-20,株式会社シーフラット,,株式会社,神奈川県,横浜市神奈川区,菅田町２９３２,,14,102,2210864,,,,,,,2021-12-20,1,,,,,シーフラット,0
356,2020001144429,新規,0,2021-12-20,2021-12-20,株式会社山本重量,,株式会社,神奈川県,横浜市保土ケ谷区,峰岡町３丁目４２７番地１６,,14,106,2400064,,,,,,,2021-12-20,1,,,,,ヤマモトジュウリョウ,0
370,2030001145954,新規,0,2021-12-20,2021-12-20,Ｌｉｆｅ　ｉｓ株式会社,,株式会社,埼玉県,深谷市,針ヶ谷６９０番地２,,11,218,3690213,,,,,,,2021-12-20,1,,,,,ライフイズ,0
376,2030003018522,新規,0,2021-12-20,2021-12-20,合同会社月光,,合同会社,埼玉県,さいたま市大宮区,三橋２丁目１０２番地６,,11,103,3300856,,,,,,,2021-12-20,1,,,,,ゲッコウ,0
379,2040001121434,新規,0,2021-12-20,2021-12-20,株式会社齋藤物産,,株式会社,千葉県,千葉市緑区,おゆみ野３丁目７番地５,,12,105,2660031,,,,,,,2021-12-20,1,,,,,サイトウブッサン,0
384,2040003019148,新規,0,2021-12-20,2021-12-20,ＢＬＵＥ　ＳＰＡＣＥ合同会社,,合同会社,千葉県,千葉市中央区,祐光１丁目４番１８号グリーンハイツ１０２号室,,12,101,2600007,,,,,,,2021-12-20,1,,,,,ブルースペース,0
385,2050001050293,新規,0,2021-12-20,2021-12-20,ムラカミラーンハート株式会社,,株式会社,茨城県,那珂郡東海村,大字石神内宿１１６７番地１３,,08,341,3191102,,,,,,,2021-12-20,1,,,,,ムラカミラーンハート,0
387,2060001034394,新規,0,2021-12-20,2021-12-20,株式会社ｂｒｉｇｈｔｅｒ　ａｈｃ,,株式会社,栃木県,宇都宮市,上戸祭町６９２番地１３,,09,201,3200051,,,,,,,2021-12-20,1,,,,,ブライターエーエッチシー,0
388,2070003004337,新規,0,2021-12-20,2021-12-20,合同会社ＭＩＬＯＷ,,合同会社,群馬県,伊勢崎市,国定町２丁目２０７７番地,,10,204,3792221,,,,,,,2021-12-20,1,,,,,ミロウ,0
389,2070005009929,新規,0,2021-12-20,2021-12-20,医療法人慶真会,,その他の設立登記法人,群馬県,前橋市,東片貝町７２０番地,,10,201,3710012,,,,,,,2021-12-20,1,,,,,ケイシンカイ,0
392,2080003002703,新規,0,2021-12-20,2021-12-20,合同会社リテ,,合同会社,静岡県,静岡市葵区,鷹匠１丁目４番５号１Ｆ,,22,101,4200839,,,,,,,2021-12-20,1,,,,,リテ,0
399,2100001034902,新規,0,2021-12-20,2021-12-20,株式会社センキョー,,株式会社,長野県,中野市,大字小田中５６８番地４,,20,211,3830037,,,,,,,2021-12-20,1,,,,,センキョー,0
401,2100003006321,新規,0,2021-12-20,2021-12-20,合同会社浅間電話サービス,,合同会社,長野県,佐久市,新子田８７７番地,,20,217,3850007,,,,,,,2021-12-20,1,,,,,アサマデンワサービス,0
402,2110001036278,新規,0,2021-12-20,2021-12-20,アーキテクト・シビル株式会社,,株式会社,新潟県,新潟市西蒲区,川崎１０４番地２,,15,108,9590432,,,,,,,2021-12-20,1,,,,,アーキテクトシビル,0
414,2120001242494,新規,0,2021-12-20,2021-12-20,株式会社Ｐａｒｋｓ　Ｒａｉｓｅ,,株式会社,大阪府,大阪市浪速区,稲荷１丁目４－１０－７０８,,27,111,5560023,,,,,,,2021-12-20,1,,,,,パークスレイズ,0
415,2120001242602,新規,0,2021-12-20,2021-12-20,住設イマイ株式会社,,株式会社,大阪府,枚方市,堂山２丁目２２番７号,,27,210,5730007,,,,,,,2021-12-20,1,,,,,ジュウセツイマイ,0
416,2120001242610,新規,0,2021-12-20,2021-12-20,株式会社葉山エンタープライズ,,株式会社,大阪府,大阪市中央区,久太郎町４丁目１番３大阪センタービル６Ｆ－１６９,,27,128,5410056,,,,,,,2021-12-20,1,,,,,ハヤマエンタープライズ,0
417,2120001242635,新規,0,2021-12-20,2021-12-20,株式会社Ｐ．Ｃ．Ｔｒａｄｉｎｇ,,株式会社,大阪府,大阪市淀川区,西中島６丁目２番３号チサン第７新大阪,,27,123,5320011,,,,,,,2021-12-20,1,,,,,ピーシートレーディング,0
421,2120101064806,新規,0,2021-12-20,2021-12-20,Ｄａｉｓｙ　ｋｉｄｓ株式会社,,株式会社,大阪府,堺市中区,小阪３９９番地１,,27,142,5998276,,,,,,,2021-12-20,1,,,,,デイジーキッズ,0
422,2120103004479,新規,0,2021-12-20,2021-12-20,ネストル合同会社,,合同会社,大阪府,泉北郡忠岡町,忠岡東２丁目１６番１３号カルム忠岡３０５,,27,341,5950805,,,,,,,2021-12-20,1,,,,,ネストル,0
423,2120903003952,新規,0,2021-12-20,2021-12-20,合同会社ＫＡＩＮＯＡ,,合同会社,大阪府,高槻市,西町１５番１９号,,27,207,5690854,,,,,,,2021-12-20,1,,,,,カイノア,0
442,2150001025178,新規,0,2021-12-20,2021-12-20,株式会社大和造園グループ,,株式会社,奈良県,宇陀市,榛原赤瀬６２５番地,,29,212,6330207,,,,,,,2021-12-20,1,,,,,ヤマトゾウエングループ,0
445,2160001023890,新規,0,2021-12-20,2021-12-20,株式会社西日本水道メンテナンスサービス,,株式会社,滋賀県,高島市,安曇川町西万木１１２２番地４５,,25,212,5201212,,,,,,,2021-12-20,1,,,,,ニシニホンスイドウメンテナンスサービス,0
447,2170003001670,新規,0,2021-12-20,2021-12-20,合同会社ＡＵＴＯ　ＣＯＬＬＥＣＴＩＯＮ,,合同会社,和歌山県,岩出市,西野１７５－１１,,30,209,6496235,,,,,,,2021-12-20,1,,,,,,0
457,2180001149148,新規,0,2021-12-20,2021-12-20,株式会社横山建装,,株式会社,愛知県,名古屋市中川区,助光３丁目１２０１番地,,23,110,4540947,,,,,,,2021-12-20,1,,,,,ヨコヤマケンソウ,0
458,2180001149156,新規,0,2021-12-20,2021-12-20,株式会社ＩＫＵ,,株式会社,愛知県,名古屋市名東区,藤森１丁目２０４番地,,23,115,4650026,,,,,,,2021-12-20,1,,,,,アイケーユー,0
459,2180001149164,新規,0,2021-12-20,2021-12-20,株式会社多音,,株式会社,愛知県,名古屋市昭和区,川名町１丁目３０番地（５０５）,,23,107,4660856,,,,,,,2021-12-20,1,,,,,トオン,0
475,2190001028953,新規,0,2021-12-20,2021-12-20,株式会社ＬＩＦＥ　ＤＯＯＲ,,株式会社,三重県,津市,中央９番１号,,24,201,5140032,,,,,,,2021-12-20,1,,,,,ライフドア,0
483,2200001039544,新規,0,2021-12-20,2021-12-20,ＢＣＨＩＫＯ株式会社,,株式会社,岐阜県,関市,千疋１０６１番地１９,,21,205,5013954,,,,,,,2021-12-20,1,,,,,ブチコ,0
489,2220001024602,新規,0,2021-12-20,2021-12-20,株式会社トロワ,,株式会社,石川県,金沢市,福久町ホ１３番地１,,17,201,9203122,,,,,,,2021-12-20,1,,,,,トロワ,0
490,2230001019139,新規,0,2021-12-20,2021-12-20,株式会社富山常備健康クラブ,,株式会社,富山県,富山市,丸の内１丁目８番１７号,,16,201,9300085,,,,,,,2021-12-20,1,,,,,トヤマジョウビケンコウクラブ,0
493,2240001059076,新規,0,2021-12-20,2021-12-20,株式会社ワカヤコーポレーション,,株式会社,広島県,呉市,川尻町西３丁目９番２３号,,34,202,7372603,,,,,,,2021-12-20,1,,,,,ワカヤコーポレーション,0
494,2240003005409,新規,0,2021-12-20,2021-12-20,３６９合同会社,,合同会社,広島県,広島市東区,山根町２７番１－７０７号,,34,102,7320048,,,,,,,2021-12-20,1,,,,,ミロク,0
497,2260005011007,新規,0,2021-12-20,2021-12-20,医療法人社団極美会,,その他の設立登記法人,岡山県,岡山市北区,白石西新町６番地１０６,,33,101,7010142,,,,,,,2021-12-20,1,,,,,キワミカイ,0
510,2290001095793,新規,0,2021-12-20,2021-12-20,株式会社アンドナインビューティー,,株式会社,福岡県,福岡市博多区,博多駅東１丁目１－２５宝ビル７０１,,40,132,8120013,,,,,,,2021-12-20,1,,,,,アンドナインビューティー,0
514,2290801028093,新規,0,2021-12-20,2021-12-20,株式会社いつか,,株式会社,福岡県,遠賀郡芦屋町,大字山鹿１５１０番地,,40,381,8070141,,,,,,,2021-12-20,1,,,,,イツカ,0
521,2330005010447,新規,0,2021-12-20,2021-12-20,一般財団法人江原会支援財団,,その他の設立登記法人,熊本県,熊本市中央区,新大江１丁目８番江原会館,,43,101,8620972,,,,,,,2021-12-20,1,,,,,コウゲンカイシエンザイダン,0
527,2360001029777,新規,0,2021-12-20,2021-12-20,昭和開発株式会社,,株式会社,沖縄県,中頭郡中城村,字奥間１９３番地４,,47,328,9012412,,,,,,,2021-12-20,1,,,,,ショウワカイハツ,0
528,2360003011667,新規,0,2021-12-20,2021-12-20,合同会社琉球映画社,,合同会社,沖縄県,南城市,大里字仲間７３５番地,,47,215,9011206,,,,,,,2021-12-20,1,,,,,リュウキュウエイガシャ,0
550,2450003002161,新規,0,2021-12-20,2021-12-20,合同会社ＨＡＣＨＩＹＡ,,合同会社,北海道,名寄市,西八条南５丁目１９番地,,01,221,0960018,,,,,,,2021-12-20,1,,,,,ハチヤ,0
557,2700150106037,新規,0,2021-12-20,2021-12-01,岐阜駅北中央東地区市街地再開発準備組合,,その他,岐阜県,岐阜市,手力町３１－１３,,21,201,5008236,,,,,,,2021-12-01,1,,,,,ギフエキキタチユウオウヒガシチクシガイチサイカイハツジユンビクミアイ,0
562,3010001223249,新規,0,2021-12-20,2021-12-20,Ｃｒｏｓｓ　ｏｆ　ｗｈｉｔｅ株式会社,,株式会社,東京都,中央区,日本橋本町１丁目８番１３号日本橋滄浪閣ビル２階Ｒフロア,,13,102,1030023,,,,,,,2021-12-20,1,,,,,クロスオブホワイト,0
563,3010001223356,新規,0,2021-12-20,2021-12-20,株式会社ａｐｐａｒｔｅ,,株式会社,東京都,中央区,日本橋久松町９番３号山竹ビル１Ｆ,,13,102,1030005,,,,,,,2021-12-20,1,,,,,アパルト,0
566,3010005034345,新規,0,2021-12-20,2021-12-20,一般社団法人医療・医薬総合研究所,,その他の設立登記法人,東京都,千代田区,内神田２丁目５番３号児谷ビル３Ｆ,,13,101,1010047,,,,,,,2021-12-20,1,,,,,イリョウイヤクソウゴウケンキュウジョ,0
573,3010401164530,新規,0,2021-12-20,2021-12-20,第二シモビル管財株式会社,,株式会社,東京都,港区,白金４丁目１０番１号,,13,103,1080072,,,,,,,2021-12-20,1,,,,,ダイニシモビルカンザイ,0
574,3010401164539,新規,0,2021-12-20,2021-12-20,株式会社ＳＲＴ,,株式会社,東京都,港区,芝浦２丁目１番１１号,,13,103,1080023,,,,,,,2021-12-20,1,,,,,エスアールティー,0
577,3010403026745,新規,0,2021-12-20,2021-12-20,鹿児島姶良バイオマス発電合同会社,,合同会社,東京都,港区,新橋６丁目１７番２１号住友不動産御成門駅前ビル１０階,,13,103,1050004,,,,,,,2021-12-20,1,,,,,カゴシマアイラバイオマスハツデン,0
578,3010405020515,新規,0,2021-12-20,2021-12-20,一般社団法人日本ＦＩＲＥ協会,,その他の設立登記法人,東京都,港区,西麻布３丁目２番１２号ソニックビル６階,,13,103,1060031,,,,,,,2021-12-20,1,,,,,ニホンファイアキョウカイ,0
579,3010405020531,新規,0,2021-12-20,2021-12-20,ＩＫＥＵＣＨＩ　ＧＡＴＥ特定目的会社,,その他の設立登記法人,東京都,港区,元赤坂１丁目１番７号,,13,103,1070051,,,,,,,2021-12-20,1,,,,,イケウチゲート,0
581,3010703006042,新規,0,2021-12-20,2021-12-20,合同会社Ｓｈｉｎｅ　Ｆａｃｔｏｒｙ,,合同会社,東京都,品川区,北品川５丁目９番２５号リビオメゾン大崎７０４,,13,109,1410001,,,,,,,2021-12-20,1,,,,,シャインファクトリー,0
589,3010903007022,新規,0,2021-12-20,2021-12-20,合同会社エム,,合同会社,東京都,世田谷区,桜新町２丁目２４番５－５１３号,,13,112,1540015,,,,,,,2021-12-20,1,,,,,エム,0
593,3011001144625,新規,0,2021-12-20,2021-12-20,株式会社ＲＥＳＯＮＡＴＥ,,株式会社,東京都,渋谷区,代官山町８－７Ｄａｉｗａ代官山ビル１Ｆ,,13,113,1500034,,,,,,,2021-12-20,1,,,,,リゾネート,0
597,3011003013885,新規,0,2021-12-20,2021-12-20,合同会社ＳＴＶ,,合同会社,東京都,目黒区,中町１丁目２５番３１号目黒サンフラット２０２,,13,110,1530065,,,,,,,2021-12-20,1,,,,,エスティーヴィー,0
601,3011101097211,新規,0,2021-12-20,2021-12-20,ＯＯＨＬ株式会社,,株式会社,東京都,新宿区,四谷４丁目３３番２号,,13,104,1600004,,,,,,,2021-12-20,1,,,,,オール,0
602,3011101097252,新規,0,2021-12-20,2021-12-20,株式会社ＺＩ,,株式会社,東京都,新宿区,大久保３丁目８番１号スカイフォレストレジデンス４０６,,13,104,1690072,,,,,,,2021-12-20,1,,,,,ザイ,0
603,3011103011285,新規,0,2021-12-20,2021-12-20,パクミンｂｎｂ合同会社,,合同会社,東京都,新宿区,新宿２丁目１２番１３号新宿アントレサロンビル２階,,13,104,1600022,,,,,,,2021-12-20,1,,,,,パクミンビーアンドビー,0
609,3011401023916,新規,0,2021-12-20,2021-12-20,東京美研株式会社,,株式会社,東京都,板橋区,南常盤台１丁目１１番６号レフア南常盤台１０１,,13,119,1740072,,,,,,,2021-12-20,1,,,,,トウキョウビケン,0
619,3013101008800,新規,0,2021-12-20,2021-12-20,株式会社ＭＳＷ,,株式会社,東京都,羽村市,小作台１丁目２６番地４小作サンケイビル２０１,,13,227,2050001,,,,,,,2021-12-20,1,,,,,エムエスダブリュー,0
636,3020001144386,新規,0,2021-12-20,2021-12-20,ＣＯＵＲＡＧＥ　ＬＩＦＥ株式会社,,株式会社,神奈川県,横浜市青葉区,千草台１２番地２８,,14,117,2270051,,,,,,,2021-12-20,1,,,,,カレッジライフ,0
637,3020001144394,新規,0,2021-12-20,2021-12-20,株式会社みらい,,株式会社,神奈川県,横浜市中区,山下町７０番地１５ライオンズマンション山下公園６０７号,,14,104,2310023,,,,,,,2021-12-20,1,,,,,ミライ,0
638,3020003020998,新規,0,2021-12-20,2021-12-20,合同会社ビジョナーズ・マネジメント,,合同会社,神奈川県,川崎市中原区,今井南町２８番２－３０４号ロイヤルハイツ,,14,133,2110064,,,,,,,2021-12-20,1,,,,,ビジョナーズマネジメント,0
639,3020003021006,新規,0,2021-12-20,2021-12-20,ライブハピリィ合同会社,,合同会社,神奈川県,横浜市南区,庚台６４番地９号エスアールコーポＡ棟１０１,,14,105,2320008,,,,,,,2021-12-20,1,,,,,ライブハピリィ,0
641,3021001074788,新規,0,2021-12-20,2021-12-20,株式会社紺,,株式会社,神奈川県,逗子市,久木８丁目１４番２４号,,14,208,2490001,,,,,,,2021-12-20,1,,,,,コン,0
644,3021003011203,新規,0,2021-12-20,2021-12-20,合同会社ＶＥＮＣＥＲ,,合同会社,神奈川県,厚木市,中町４丁目２番８号ハイストーンビル３Ｆ,,14,212,2430018,,,,,,,2021-12-20,1,,,,,ヴェンサー,0
646,3030001145887,新規,0,2021-12-20,2021-12-20,株式会社Ｍクリエイション,,株式会社,埼玉県,さいたま市岩槻区,大字岩槻５２３６番地４,,11,110,3390061,,,,,,,2021-12-20,1,,,,,エムクリエイション,0
647,3030001145945,新規,0,2021-12-20,2021-12-20,株式会社アステールプラス,,株式会社,埼玉県,八潮市,大瀬５丁目１６番６,,11,234,3400822,,,,,,,2021-12-20,1,,,,,アステールプラス,0
653,3030003018513,新規,0,2021-12-20,2021-12-20,ＡＤＮＡＮ　ＴＲＡＤＩＮＧ合同会社,,合同会社,埼玉県,北葛飾郡杉戸町,大字鷲巣１１４番地８,,11,464,3450002,,,,,,,2021-12-20,1,,,,,アドナントレーディング,0
654,3030003018521,新規,0,2021-12-20,2021-12-20,ＲＫ合同会社,,合同会社,埼玉県,狭山市,入間川２丁目５番４号コーポみのる２０２,,11,215,3501305,,,,,,,2021-12-20,1,,,,,アールケー,0
658,3040001121441,新規,0,2021-12-20,2021-12-20,株式会社Ｋ＆Ａｌｉｎｋｓ,,株式会社,千葉県,八千代市,勝田台南２丁目９番地１９号,,12,221,2760025,,,,,,,2021-12-20,1,,,,,ケーアンドエーリンクス,0
662,3050001050326,新規,0,2021-12-20,2021-12-20,株式会社花見インターナショナル,,株式会社,茨城県,下妻市,皆葉１６８６番地４,,08,210,3040822,,,,,,,2021-12-20,1,,,,,ハナミインターナショナル,0
664,3070001038749,新規,0,2021-12-20,2021-12-20,株式会社前ドラ,,株式会社,群馬県,前橋市,嶺町２００１番地,,10,201,3710125,,,,,,,2021-12-20,1,,,,,マエドラ,0
671,3100003006320,新規,0,2021-12-20,2021-12-20,興農ＧＰＳＳインベストメント・マネジメント合同会社,,合同会社,長野県,長野市,大字南長野西後町６１０－１２Ｒ－Ｄｅｐｏｔ３階Ｎ－西,,20,201,3800845,,,,,,,2021-12-20,1,,,,,コウノウジーピーエスエスインベストメントマネジメント,0
672,3110001036277,新規,0,2021-12-20,2021-12-20,株式会社Ｐ－Ｓｅｔ,,株式会社,新潟県,新潟市北区,木崎７７８番地４３,,15,101,9503304,,,,,,,2021-12-20,1,,,,,ピーセット,0
684,3120001242592,新規,0,2021-12-20,2021-12-20,陽明株式会社,,株式会社,大阪府,大阪市中央区,南船場１丁目３番２７号ＮＩＬ南船場ビル３Ｄ号室,,27,128,5420081,,,,,,,2021-12-20,1,,,,,,0
688,3120101064813,新規,0,2021-12-20,2021-12-20,めちゃラク株式会社,,株式会社,大阪府,堺市南区,城山台４丁９番４号,,27,145,5900137,,,,,,,2021-12-20,1,,,,,メチャラク,0
697,3130001070737,新規,0,2021-12-20,2021-12-20,株式会社誠康ホーム,,株式会社,京都府,京都市右京区,常盤御池町１４番地２１,,26,108,6168211,,,,,,,2021-12-20,1,,,,,セイコウホーム,0
711,3150001025185,新規,0,2021-12-20,2021-12-20,株式会社ＤＲＥＡＭ　ＮＥＴ　ＷＯＲＫ,,株式会社,奈良県,香芝市,磯壁６丁目２３８番地上田住宅北棟２号,,29,210,6390236,,,,,,,2021-12-20,1,,,,,ドリームネットワーク,0
719,3180001149163,新規,0,2021-12-20,2021-12-20,株式会社ｅｎ　ｆａｃｔｏｒｙ,,株式会社,愛知県,北名古屋市,西之保宮前２番地ブルーハイツ１階東,,23,234,4810033,,,,,,,2021-12-20,1,,,,,エンファクトリー,0
720,3180001149171,新規,0,2021-12-20,2021-12-20,株式会社虹,,株式会社,愛知県,名古屋市守山区,幸心１丁目５１１番地リバティハイツ新守山３０３号室,,23,113,4630079,,,,,,,2021-12-20,1,,,,,ニジ,0
721,3180001149205,新規,0,2021-12-20,2021-12-20,株式会社東海レベック,,株式会社,愛知県,あま市,上萱津白髭２８番地１,,23,237,4901112,,,,,,,2021-12-20,1,,,,,トウカイレベック,0
722,3180001149213,新規,0,2021-12-20,2021-12-20,株式会社ＣＲＥＡ,,株式会社,愛知県,名古屋市昭和区,広路町字石坂３８－２,,23,107,4660834,,,,,,,2021-12-20,1,,,,,クレア,0
730,3180005019569,新規,0,2021-12-20,2021-12-20,医療法人康翔会,,その他の設立登記法人,愛知県,北名古屋市,高田寺出口２５番地１号,,23,234,4810011,,,,,,,2021-12-20,1,,,,,コウトカイ,0
732,3180301035740,新規,0,2021-12-20,2021-12-20,山口椎茸園株式会社,,株式会社,愛知県,豊川市,御津町泙野餅田７３番地２,00125181,23,207,4410313,,,,,,,2021-12-20,1,,,,,ヤマグチシイタケエン,0
734,3190001028952,新規,0,2021-12-20,2021-12-20,株式会社ナカショー,,株式会社,三重県,伊勢市,船江２丁目１５９１番地,,24,203,5160008,,,,,,,2021-12-20,1,,,,,ナカショー,0
737,3200001039543,新規,0,2021-12-20,2021-12-20,株式会社Ｍ’ｓ　Ｇａｒａｇｅ,,株式会社,岐阜県,土岐市,大沼町二丁目３２番地,,21,212,5095100,,,,,,,2021-12-20,1,,,,,エムズガレージ,0
742,3210001018736,新規,0,2021-12-20,2021-12-20,株式会社エエザ,,株式会社,福井県,越前市,国中町第６３号１１番地,,18,209,9150254,,,,,,,2021-12-20,1,,,,,エエザ,0
744,3220001024601,新規,0,2021-12-20,2021-12-20,株式会社ＳＫＩＮ　ＨＯＵＳＥ,,株式会社,石川県,金沢市,片町１丁目１２番２３号,,17,201,9200981,,,,,,,2021-12-20,1,,,,,スキンハウス,0
749,3240001059075,新規,0,2021-12-20,2021-12-20,株式会社ＣＡＮＯＷ,,株式会社,広島県,広島市佐伯区,旭園５番５８号２階,,34,108,7315133,,,,,,,2021-12-20,1,,,,,カナウ,0
751,3240003005416,新規,0,2021-12-20,2021-12-20,合同会社アート制作,,合同会社,広島県,広島市安佐北区,白木町大字三田１０８６番地２１,,34,106,7391521,,,,,,,2021-12-20,1,,,,,アートセイサク,0
768,3290801028092,新規,0,2021-12-20,2021-12-20,シンセイ工業株式会社,,株式会社,福岡県,北九州市小倉南区,城野４丁目３番８－６０２号,,40,107,8020802,,,,,,,2021-12-20,1,,,,,シンセイコウギョウ,0
772,3310001017637,新規,0,2021-12-20,2021-12-20,株式会社ミナミホールディングス,,株式会社,長崎県,長崎市,草住町２７４番地,,42,201,8500981,,,,,,,2021-12-20,1,,,,,ミナミホールディングス,0
781,3330001029283,新規,0,2021-12-20,2021-12-20,株式会社シルバーレスキュー,,株式会社,熊本県,天草市,本渡町本渡２５７６番地１,,43,215,8630003,,,,,,,2021-12-20,1,,,,,シルバーレスキュー,0
785,3340001024341,新規,0,2021-12-20,2021-12-20,株式会社ＥＶＯＬＦ,,株式会社,鹿児島県,鹿児島市,甲突町１７番１号ＲａｙＦｕｔｕｒｅＢＬＤ２０１号,,46,201,8920837,,,,,,,2021-12-20,1,,,,,イボルフ,0
791,3360003011658,新規,0,2021-12-20,2021-12-20,合同会社Ｒｅ．ｌｉｆｅ,,合同会社,沖縄県,南城市,玉城字愛地３２３番地２,,47,215,9010617,,,,,,,2021-12-20,1,,,,,リライフ,0
797,3430001085614,新規,0,2021-12-20,2021-12-20,株式会社ｍｙ　ｒｏｏｍ,,株式会社,北海道,札幌市豊平区,美園三条４丁目３番１０号日拓ビル２階,,01,105,0620003,,,,,,,2021-12-20,1,,,,,マイルーム,0
798,3430001085622,新規,0,2021-12-20,2021-12-20,株式会社ＨＯＵＳＥ　ＬＡＢＯ,,株式会社,北海道,江別市,野幌住吉町１８番地１１,,01,217,0690816,,,,,,,2021-12-20,1,,,,,ハウスラボ,0
800,3450005004320,新規,0,2021-12-20,2021-12-20,特定非営利活動法人Ｒｅｔｈｉｎｋ　ｔｈｅ　Ｎａｔｕｒｅ,,その他の設立登記法人,北海道,富良野市,字信濃沢１１１１番１２,,01,229,0760039,,,,,,,2021-12-20,1,,,,,リシンクザネイチャー,0
806,3700150106102,新規,0,2021-12-20,2021-12-07,ダイアパレス横浜戸塚管理組合,,その他,神奈川県,横浜市栄区,長沼町６４４－４,,14,115,2440841,,,,,,,2021-12-07,1,,,,,ダイアパレスヨコハマトツカカンリクミアイ,0
824,4010001223289,新規,0,2021-12-20,2021-12-20,エムキャップ十号株式会社,,株式会社,東京都,千代田区,丸の内３丁目１番１号,,13,101,1000005,,,,,,,2021-12-20,1,,,,,エムキャップジュウゴウ,0
825,4010001223297,新規,0,2021-12-20,2021-12-20,Ｂｕｄｄｙ５株式会社,,株式会社,東京都,中央区,銀座７丁目１５番５号,,13,102,1040061,,,,,,,2021-12-20,1,,,,,バディイファイブ,0
826,4010001223339,新規,0,2021-12-20,2021-12-20,グリーンＳＡＦ株式会社,,株式会社,東京都,千代田区,一ツ橋２丁目５番５号,,13,101,1010003,,,,,,,2021-12-20,1,,,,,グリーンサフ,0
827,4010001223355,新規,0,2021-12-20,2021-12-20,株式会社ＷＯＲＬＤ　ＭＡＲＫＥＴ,,株式会社,東京都,中央区,銀座１丁目１２番４号Ｎ＆ＥＢＬＤ．７階,,13,102,1040061,,,,,,,2021-12-20,1,,,,,ワールドマーケット,0
828,4010001223363,新規,0,2021-12-20,2021-12-20,株式会社ｍｙｓａ　ｔｕｕｌｉ,,株式会社,東京都,中央区,日本橋人形町１丁目１０番３号１Ｆ,,13,102,1030013,,,,,,,2021-12-20,1,,,,,ミーサトゥーリ,0
830,4010003036573,新規,0,2021-12-20,2021-12-20,合同会社アシュリンジャパン,,合同会社,東京都,中央区,銀座７丁目１５番８号タウンハイツ銀座４０６,,13,102,1040061,,,,,,,2021-12-20,1,,,,,アシュリンジャパン,0
855,4010601060405,新規,0,2021-12-20,2021-12-20,株式会社オイシン,,株式会社,東京都,墨田区,東向島１丁目１５番１２号,,13,107,1310032,,,,,,,2021-12-20,1,,,,,オイシン,0
857,4010701041949,新規,0,2021-12-20,2021-12-20,株式会社ルカ,,株式会社,東京都,品川区,大崎５丁目８番５－８０４号,,13,109,1410032,,,,,,,2021-12-20,1,,,,,ルカ,0
860,4010803003987,新規,0,2021-12-20,2021-12-20,合同会社七七七,,合同会社,東京都,大田区,北糀谷２丁目９番４号,,13,111,1440032,,,,,,,2021-12-20,1,,,,,ヨロコビ,0
863,4010901050023,新規,0,2021-12-20,2021-12-20,オフィスＲ株式会社,,株式会社,東京都,世田谷区,北烏山８丁目２４番１７－２０１号,,13,112,1570061,,,,,,,2021-12-20,1,,,,,オフィスアール,0
872,4011001144649,新規,0,2021-12-20,2021-12-20,Ｂｅｌｌｅ＆Ｍｉｌａｎ株式会社,,株式会社,東京都,渋谷区,広尾５丁目１４番２号,,13,113,1500012,,,,,,,2021-12-20,1,,,,,ベルミラン,0
876,4011101097210,新規,0,2021-12-20,2021-12-20,株式会社フィールドコネクト,,株式会社,東京都,新宿区,西新宿３丁目３番１３号西新宿水間ビル６階,,13,104,1600023,,,,,,,2021-12-20,1,,,,,フィールドコネクト,0
877,4011101097268,新規,0,2021-12-20,2021-12-20,澤田インベストメント株式会社,,株式会社,東京都,新宿区,西新宿７丁目１番１２号,,13,104,1600023,,,,,,,2021-12-20,1,,,,,サワダインベストメント,0
883,4011401023915,新規,0,2021-12-20,2021-12-20,株式会社ニシイズム,,株式会社,東京都,板橋区,南町２５番地７,,13,119,1730027,,,,,,,2021-12-20,1,,,,,ニシイズム,0
892,4011801040080,新規,0,2021-12-20,2021-12-20,株式会社ＴＧＳ,,株式会社,東京都,足立区,梅島１丁目２４番１号マック梅島コート８０６号,,13,121,1210816,,,,,,,2021-12-20,1,,,,,ティージーエス,0
898,4012401038671,新規,0,2021-12-20,2021-12-20,株式会社三鷹吉祥,,株式会社,東京都,三鷹市,中原３丁目１０番２７号三鷹ＨＬＤＧＳビル,,13,204,1810005,,,,,,,2021-12-20,1,,,,,ミタカキッショウ,0
900,4012801021285,新規,0,2021-12-20,2021-12-20,株式会社ＫＨＹ,,株式会社,東京都,立川市,柴崎町３丁目７－１７,,13,202,1900023,,,,,,,2021-12-20,1,,,,,ケイエイチワイ,0
906,4020001144377,新規,0,2021-12-20,2021-12-20,株式会社ＤＯＮ’Ｔ　ＴＨＩＮＫ　ＦＥＥＬ,,株式会社,神奈川県,横浜市港北区,新吉田町５６２７番地,,14,109,2230056,,,,,,,2021-12-20,1,,,,,ドンティンクフィール,0
907,4020001144410,新規,0,2021-12-20,2021-12-20,矢野建設株式会社,,株式会社,神奈川県,川崎市高津区,久末６０４番地ウィステリアガーデンｗｅｓｔ１０２,,14,134,2130026,,,,,,,2021-12-20,1,,,,,ヤノケンセツ,0
908,4020001144419,新規,0,2021-12-20,2021-12-20,株式会社ｔ－ｌｏｇｉ,,株式会社,神奈川県,川崎市川崎区,渡田１丁目１６番５パワーハウス／ＢＷ６０１,,14,131,2100837,,,,,,,2021-12-20,1,,,,,ティーロジ,0
909,4020003021005,新規,0,2021-12-20,2021-12-20,合同会社ＮＡＺ,,合同会社,神奈川県,横浜市神奈川区,羽沢南３丁目８－１,,14,102,2210866,,,,,,,2021-12-20,1,,,,,ナズ,0
928,4030001145928,新規,0,2021-12-20,2021-12-20,株式会社エムエー制作,,株式会社,埼玉県,深谷市,人見５４８番地３,,11,218,3660811,,,,,,,2021-12-20,1,,,,,エムエーセイサク,0
929,4030001145944,新規,0,2021-12-20,2021-12-20,株式会社おとなりさん,,株式会社,埼玉県,富士見市,関沢２丁目２６番６号,,11,235,3540025,,,,,,,2021-12-20,1,,,,,オトナリサン,0
932,4030003018520,新規,0,2021-12-20,2021-12-20,Ｊ’ｓ　ｂｕｓｉｎｅｓｓ合同会社,,合同会社,埼玉県,さいたま市大宮区,桜木町２丁目３番地大宮マルイ７階,,11,103,3300854,,,,,,,2021-12-20,1,,,,,ジェイズビジネス,0
933,4030003018529,新規,0,2021-12-20,2021-12-20,合同会社ＳｃＩＦ,,合同会社,埼玉県,川口市,南鳩ヶ谷６丁目７－２,,11,203,3340013,,,,,,,2021-12-20,1,,,,,シフ,0
938,4040001121424,新規,0,2021-12-20,2021-12-20,株式会社ＭＡＣＨＩＮＥＲＹ　ＳＥＲＶＩＣＥ　ＳＹＳＴＥＭ,,株式会社,千葉県,流山市,おおたかの森東２丁目８番地の３,,12,220,2700138,,,,,,,2021-12-20,1,,,,,マシーナリーサービスシステム,0
943,4040003019162,新規,0,2021-12-20,2021-12-20,合同会社Ｔ＆Ｔ　Ｐａｒｔｎｅｒｓ,,合同会社,千葉県,千葉市美浜区,打瀬１丁目７番地５,,12,106,2610013,,,,,,,2021-12-20,1,,,,,ティーアンドティーパートナーズ,0
948,4070001038748,新規,0,2021-12-20,2021-12-20,株式会社高ドラ,,株式会社,群馬県,高崎市,大八木町４３６番地１,,10,202,3700072,,,,,,,2021-12-20,1,,,,,タカドラ,0
949,4070001038756,新規,0,2021-12-20,2021-12-20,株式会社アシスト,,株式会社,群馬県,館林市,成島町９２７番地,,10,207,3740055,,,,,,,2021-12-20,1,,,,,アシスト,0
957,4100001034900,新規,0,2021-12-20,2021-12-20,株式会社エキスパートママ,,株式会社,長野県,飯田市,鼎下山８５６番地５,,20,205,3950803,,,,,,,2021-12-20,1,,,,,エキスパートママ,0
960,4110001036276,新規,0,2021-12-20,2021-12-20,すずめのお宿株式会社,,株式会社,新潟県,新潟市江南区,元町５丁目１番９号,,15,104,9500143,,,,,,,2021-12-20,1,,,,,スズメノオヤド,0
970,4120001242600,新規,0,2021-12-20,2021-12-20,株式会社ＵＰＳＥＴ,,株式会社,大阪府,大阪市浪速区,元町３丁目３番４号２Ｆ,,27,111,5560016,,,,,,,2021-12-20,1,,,,,アップセット,0
971,4120001242617,新規,0,2021-12-20,2021-12-20,株式会社エムアイ,,株式会社,大阪府,大阪市東淀川区,菅原４丁目６番４号,,27,114,5330022,,,,,,,2021-12-20,1,,,,,エムアイ,0
972,4120001242658,新規,0,2021-12-20,2021-12-20,株式会社ミラクリンラボ,,株式会社,大阪府,大阪市北区,堂島浜２丁目２番２８号堂島アクシスビル４Ｆ,,27,127,5300004,,,,,,,2021-12-20,1,,,,,ミラクリンラボ,0
976,4120003020780,新規,0,2021-12-20,2021-12-20,日本グリーンアース商事合同会社,,合同会社,大阪府,大阪市中央区,高津１丁目９番１０－５０７号,,27,128,5420072,,,,,,,2021-12-20,1,,,,,ニホングリーンアースショウジ,0
979,4120101064812,新規,0,2021-12-20,2021-12-20,森川株式会社,,株式会社,大阪府,堺市西区,上６４３番１,,27,144,5938311,,,,,,,2021-12-20,1,,,,,モリカワ,0
980,4120105009490,新規,0,2021-12-20,2021-12-20,一般社団法人ことのね,,その他の設立登記法人,大阪府,松原市,天美北６丁目５０６番地の１０,,27,217,5800031,,,,,,,2021-12-20,1,,,,,コトノネ,0
982,4120903003942,新規,0,2021-12-20,2021-12-20,Ｒｏｂｏ合同会社,,合同会社,大阪府,豊能郡能勢町,天王２８５－１７７,,27,322,5630371,,,,,,,2021-12-20,1,,,,,ロボ,0
983,4120903003950,新規,0,2021-12-20,2021-12-20,合同会社彩哲,,合同会社,大阪府,吹田市,朝日町５－２４,,27,205,5640027,,,,,,,2021-12-20,1,,,,,イサト,0
990,4130001070736,新規,0,2021-12-20,2021-12-20,株式会社キョウマツ,,株式会社,京都府,京都市山科区,東野中井ノ上町１９番地９,,26,110,6078142,,,,,,,2021-12-20,1,,,,,キョウマツ,0
996,4140001124235,新規,0,2021-12-20,2021-12-20,株式会社フルミネイト,,株式会社,兵庫県,神戸市東灘区,向洋町中１丁目１０番地１０１号棟３８０２号室,,28,101,6580032,,,,,,,2021-12-20,1,,,,,フルミネイト,0
997,4140001124243,新規,0,2021-12-20,2021-12-20,株式会社ＡＫＵＢＩ,,株式会社,兵庫県,神戸市須磨区,潮見台町２丁目１番１３－４０８号,,28,107,6540075,,,,,,,2021-12-20,1,,,,,アクビ,0
1006,4160001023889,新規,0,2021-12-20,2021-12-20,株式会社山崎電設,00125174,株式会社,滋賀県,近江八幡市,若葉町１丁目１７番地８４,,25,204,5230815,,,,,,,2021-12-20,1,,,,,ヤマザキデンセツ,0
1014,4180001149162,新規,0,2021-12-20,2021-12-20,株式会社ネオライフ不動産,,株式会社,愛知県,名古屋市中区,栄４丁目６番１５号フォーティーンヒルズセンタービル９階,,23,106,4600008,,,,,,,2021-12-20,1,,,,,ネオライフフドウサン,0
1015,4180001149187,新規,0,2021-12-20,2021-12-20,松田装飾株式会社,,株式会社,愛知県,愛知郡東郷町,大字春木字西前６０５２番地８,,23,302,4700162,,,,,,,2021-12-20,1,,,,,マツダソウショク,0
1016,4180001149212,新規,0,2021-12-20,2021-12-20,株式会社Ｄ＆Ｒ,,株式会社,愛知県,名古屋市東区,東大曽根町４８番３４号,,23,102,4610022,,,,,,,2021-12-20,1,,,,,ディーアンドアール,0
1023,4180005019568,新規,0,2021-12-20,2021-12-20,一般社団法人日本臨床リカレント教育研究センター,,その他の設立登記法人,愛知県,名古屋市中区,新栄３丁目２０番２８号,,23,106,4600007,,,,,,,2021-12-20,1,,,,,ニホンリンショウリカレントキョウイクケンキュウセンター,0
1029,4200001039542,新規,0,2021-12-20,2021-12-20,小野寺商事株式会社,,株式会社,岐阜県,関市,倉知１７４１番地５,,21,205,5013936,,,,,,,2021-12-20,1,,,,,オノデラショウジ,0
1036,4240003005407,新規,0,2021-12-20,2021-12-20,フィルワークス合同会社,,合同会社,広島県,安芸郡府中町,本町２丁目１６－２４－３０１,,34,302,7350006,,,,,,,2021-12-20,1,,,,,フィルワークス,0
1039,4250001019309,新規,0,2021-12-20,2021-12-20,ツバメエンジニアリング株式会社,,株式会社,山口県,岩国市,玖珂町４１１１番地２１,,35,208,7420344,,,,,,,2021-12-20,1,,,,,ツバメエンジニアリング,0
1040,4250003002964,新規,0,2021-12-20,2021-12-20,合同会社十兵衛,,合同会社,山口県,宇部市,西宇部北７丁目１２番２５号,,35,202,7590211,,,,,,,2021-12-20,1,,,,,ジュウベイ,0
1041,4260003003747,新規,0,2021-12-20,2021-12-20,ＣＩＲＣＬＥ合同会社,,合同会社,岡山県,倉敷市,真備町尾崎９４３番地１,,33,202,7101304,,,,,,,2021-12-20,1,,,,,サークル,0
1058,4290003011953,新規,0,2021-12-20,2021-12-20,合同会社フチ,,合同会社,福岡県,福岡市南区,花畑２丁目５３番６－１０５号,,40,134,8111356,,,,,,,2021-12-20,1,,,,,フチ,0
1059,4290805009501,新規,0,2021-12-20,2021-12-20,医療法人トラノ会,,その他の設立登記法人,福岡県,遠賀郡水巻町,頃末北４丁目２番８号,,40,382,8070022,,,,,,,2021-12-20,1,,,,,トラノカイ,0
1068,4340003003656,新規,0,2021-12-20,2021-12-20,合同会社ＳＩＮｃｒｅａｔｅ,,合同会社,鹿児島県,鹿児島市,岡之原町４９０,,46,201,8911201,,,,,,,2021-12-20,1,,,,,シンクリエイト,0
1069,4350001017475,新規,0,2021-12-20,2021-12-20,株式会社匠貴,,株式会社,宮崎県,延岡市,天下町６４８番地,,45,203,8820071,,,,,,,2021-12-20,1,,,,,ショウキ,0
1070,4350003003993,新規,0,2021-12-20,2021-12-20,合同会社太陽牧場,,合同会社,宮崎県,日向市,美々津町４１４番地,,45,206,8891111,,,,,,,2021-12-20,1,,,,,タイヨウボクジョウ,0
1076,4360001029767,新規,0,2021-12-20,2021-12-20,株式会社ＧＫ５５５,,株式会社,沖縄県,浦添市,内間４丁目２２－２３,,47,208,9012121,,,,,,,2021-12-20,1,,,,,ジーケーゴーゴーゴ,0
1096,4430001085605,新規,0,2021-12-20,2021-12-20,Ａｌｔｅｒｎａｔｉｖｅ　Ｗｏｒｋｅｒ株式会社,,株式会社,北海道,札幌市西区,山の手一条１１丁目１番１６号,,01,107,0630001,,,,,,,2021-12-20,1,,,,,オルタナティブワーカー,0
1097,4430001085613,新規,0,2021-12-20,2021-12-20,株式会社プリコーション,,株式会社,北海道,札幌市白石区,南郷通７丁目北５番１６号第１中澤ビル２０１号室,,01,104,0030023,,,,,,,2021-12-20,1,,,,,プリコーション,0
1112,4700150015987,新規,0,2021-12-20,2015-10-09,長南町笠森霊園管理事業組合,,その他,千葉県,長生郡長南町,笠森３３３,,12,427,2970125,,,,,,,2015-10-09,1,,,,,チヨウナンマチカサモリレイエンカンリジギヨウクミアイ,0
1113,4700150105499,新規,0,2021-12-20,2021-10-26,関音楽事務所,,その他,東京都,目黒区,目黒本町５丁目３０－１,,13,110,1520002,,,,,,,2021-10-26,1,,,,,セキオンガクジムシヨ,0
1114,4700150106290,新規,0,2021-12-20,2021-12-15,福岡県風力発電産業振興会議,,その他,福岡県,福岡市博多区,東公園７－７福岡県庁エネルギー政策室内,,40,132,8120045,,,,,,,2021-12-15,1,,,,,フクオカケンフウリヨクハツデンサンギヨウシンコウカイギ,0
1121,5010001223288,新規,0,2021-12-20,2021-12-20,株式会社Ｎ．Ｙ,,株式会社,東京都,中央区,築地１丁目９番２号イセツネビル５階,,13,102,1040045,,,,,,,2021-12-20,1,,,,,エヌワイ,0
1122,5010001223338,新規,0,2021-12-20,2021-12-20,グリーンパーク株式会社,,株式会社,東京都,千代田区,一ツ橋２丁目５番５号,,13,101,1010003,,,,,,,2021-12-20,1,,,,,グリーンパーク,0
1123,5010001223346,新規,0,2021-12-20,2021-12-20,株式会社ＪＡＭ,,株式会社,東京都,中央区,晴海３丁目１３番１－１２０６号,,13,102,1040053,,,,,,,2021-12-20,1,,,,,ジェイエーエム,0
1124,5010001223379,新規,0,2021-12-20,2021-12-20,三城キャピタル株式会社,,株式会社,東京都,文京区,本駒込６丁目１５番１１号,,13,105,1130021,,,,,,,2021-12-20,1,,,,,サンジョウキャピタル,0
1126,5010003036597,新規,0,2021-12-20,2021-12-20,合同会社ＧＤワーカーズ,,合同会社,東京都,中央区,銀座１丁目２２番１１号銀座大竹ビジデンス２階,,13,102,1040061,,,,,,,2021-12-20,1,,,,,ジーディーワーカーズ,0
1127,5010005034351,新規,0,2021-12-20,2021-12-20,一般社団法人労働運動総合研究所,,その他の設立登記法人,東京都,千代田区,平河町１丁目９番１号メゾン平河町５０１号室,,13,101,1020093,,,,,,,2021-12-20,1,,,,,ロウドウウンドウソウゴウケンキュウジョ,0
1136,5010401164529,新規,0,2021-12-20,2021-12-20,株式会社シモシモ,,株式会社,東京都,港区,白金台５丁目１２番２－２０２号,,13,103,1080071,,,,,,,2021-12-20,1,,,,,シモシモ,0
1138,5010403026735,新規,0,2021-12-20,2021-12-20,丸亀市太井池太陽光発電所合同会社,,合同会社,東京都,港区,港南２丁目１６番４号品川グランドセントラルタワー,,13,103,1080075,,,,,,,2021-12-20,1,,,,,マルガメシタイイケタイヨウコウハツデンショ,0
1139,5010405020513,新規,0,2021-12-20,2021-12-20,一般社団法人ヘルスケアアクセラレーター,,その他の設立登記法人,東京都,港区,港南１丁目９番３６号,,13,103,1080075,,,,,,,2021-12-20,1,,,,,ヘルスケアアクセラレーター,0
1151,5011001144706,新規,0,2021-12-20,2021-12-20,アクアノート・クロスリンク株式会社,,株式会社,東京都,渋谷区,渋谷１丁目５番５号デュラス青山３Ｆ,,13,113,1500002,,,,,,,2021-12-20,1,,,,,アクアノートクロスリンク,0
1156,5011101097226,新規,0,2021-12-20,2021-12-20,株式会社ＳＴＲＥＥＴＬＡＢＯ,,株式会社,東京都,新宿区,弁天町８７番地,,13,104,1620851,,,,,,,2021-12-20,1,,,,,,0
1157,5011101097234,新規,0,2021-12-20,2021-12-20,株式会社Ａｃｒｏｓｓ,,株式会社,東京都,新宿区,西新宿３丁目３番１３－６Ｆ,,13,104,1600023,,,,,,,2021-12-20,1,,,,,アクロス,0
1158,5011101097300,新規,0,2021-12-20,2021-12-20,株式会社エレファント,,株式会社,東京都,新宿区,神楽坂１丁目１５番地神楽坂一丁目ビル８階,,13,104,1620825,,,,,,,2021-12-20,1,,,,,エレファント,0
1163,5011603003474,新規,0,2021-12-20,2021-12-20,ＭＹ’ＤＬＡＮＤ合同会社,,合同会社,東京都,練馬区,貫井４丁目３７番２３号,,13,120,1760021,,,,,,,2021-12-20,1,,,,,マイドランド,0
1171,5012403005165,新規,0,2021-12-20,2021-12-20,合同会社Ｌａ－Ｌａ－Ｂｅ,,合同会社,東京都,調布市,深大寺南町１丁目９番地１７,,13,208,1820013,,,,,,,2021-12-20,1,,,,,ララビー,0
1172,5012701016822,新規,0,2021-12-20,2021-12-20,ＫＡＺＵこみね株式会社,,株式会社,東京都,西東京市,向台町２丁目３番３４号,,13,229,1880013,,,,,,,2021-12-20,1,,,,,カズコミネ,0
1173,5012801021284,新規,0,2021-12-20,2021-12-20,株式会社ｅａｔ　ｃｏｒｒｅｃｔｌｙ,,株式会社,東京都,国分寺市,本町２丁目２５番５号森山ビル１Ｆ,,13,214,1850012,,,,,,,2021-12-20,1,,,,,イートコレクトリィ,0
1179,5013301048438,新規,0,2021-12-20,2021-12-20,株式会社センセーション,,株式会社,東京都,豊島区,南池袋１丁目９－１８－１３１号室,,13,116,1710022,,,,,,,2021-12-20,1,,,,,センセーション,0
1180,5013301048446,新規,0,2021-12-20,2021-12-20,株式会社ＡＥＱＵＩＴＡＳ,,株式会社,東京都,豊島区,池袋１丁目８番５号４Ｆ,,13,116,1700014,,,,,,,2021-12-20,1,,,,,アクトゥス,0
1187,5020001144418,新規,0,2021-12-20,2021-12-20,株式会社ＤＨ,,株式会社,神奈川県,横浜市港北区,大倉山７丁目１０番１号,,14,109,2220037,,,,,,,2021-12-20,1,,,,,ディーエイチ,0
1191,5020003020996,新規,0,2021-12-20,2021-12-20,合同会社おもてなし研究所,,合同会社,神奈川県,横浜市中区,野毛町３丁目１２２番地,,14,104,2310064,,,,,,,2021-12-20,1,,,,,オモテナシケンキュウジョ,0
1192,5020005015276,新規,0,2021-12-20,2021-12-20,一般社団法人沖縄ティーンチャレンジ・ジャパン,,その他の設立登記法人,神奈川県,横浜市旭区,上川井町２５３－２,,14,112,2410802,,,,,,,2021-12-20,1,,,,,オキナワティーンチャレンジジャパン,0
1194,5021001074778,新規,0,2021-12-20,2021-12-20,株式会社西晃工務店,,株式会社,神奈川県,大和市,上和田１７０１番地４３,,14,213,2420014,,,,,,,2021-12-20,1,,,,,セイコウコウムテン,0
1196,5021003011192,新規,0,2021-12-20,2021-12-20,三孫商店合同会社,,合同会社,神奈川県,鎌倉市,山ノ内７０２,,14,204,2470062,,,,,,,2021-12-20,1,,,,,サンマゴショウテン,0
1203,5030001145902,新規,0,2021-12-20,2021-12-20,株式会社ＨＡＹＡＴＯＭａｇｉｃ,,株式会社,埼玉県,所沢市,美原町２丁目２９６６番地の１オハナ新所沢５１８,,11,208,3590045,,,,,,,2021-12-20,1,,,,,ハヤトマジック,0
1204,5030001145919,新規,0,2021-12-20,2021-12-20,今成株式会社,,株式会社,埼玉県,和光市,諏訪原団地２番３号－３０６,,11,229,3510103,,,,,,,2021-12-20,1,,,,,イマナリ,0
1205,5030001145951,新規,0,2021-12-20,2021-12-20,株式会社自動車修理費研究所,,株式会社,埼玉県,児玉郡上里町,大字七本木１４２７番地２,,11,385,3690306,,,,,,,2021-12-20,1,,,,,ジドウシャシュウリヒケンキュウジョ,0
1209,5030003018528,新規,0,2021-12-20,2021-12-20,合同会社まるみ,,合同会社,埼玉県,三郷市,早稲田５丁目６番地１８,,11,237,3410018,,,,,,,2021-12-20,1,,,,,マルミ,0
1213,5040001121448,新規,0,2021-12-20,2021-12-20,株式会社よいしょ,,株式会社,千葉県,千葉市中央区,道場北２丁目２番８号道場北町マンション３０７号室,,12,101,2600006,,,,,,,2021-12-20,1,,,,,ヨイショ,0
1216,5040003019161,新規,0,2021-12-20,2021-12-20,ＩＳＨＡ　ＭＡＲＫＥＴＩＮＧ合同会社,,合同会社,千葉県,山武市,埴谷３８１番地２０,,12,237,2891223,,,,,,,2021-12-20,1,,,,,イシャマーケティング,0
1222,5070001038755,新規,0,2021-12-20,2021-12-20,株式会社キラリ,,株式会社,群馬県,太田市,長手町４８０番地,,10,205,3730054,,,,,,,2021-12-20,1,,,,,キラリ,0
1224,5080103002484,新規,0,2021-12-20,2021-12-20,ソル・ハブ合同会社,,合同会社,静岡県,富士宮市,星山２３７番地の２９,,22,207,4180035,,,,,,,2021-12-20,1,,,,,ソルハブ,0
1225,5080401025534,新規,0,2021-12-20,2021-12-20,株式会社愛美,,株式会社,静岡県,浜松市天竜区,佐久間町奥領家１５１９番地の３,,22,137,4314112,,,,,,,2021-12-20,1,,,,,マナミ,0
1229,5110001036275,新規,0,2021-12-20,2021-12-20,株式会社栄計電機,,株式会社,新潟県,新潟市東区,河渡３丁目６番３３号,,15,102,9500024,,,,,,,2021-12-20,1,,,,,エイケイデンキ,0
1246,5120001242459,新規,0,2021-12-20,2021-12-20,株式会社青木商事,,株式会社,大阪府,大阪市生野区,新今里６丁目４－９ウナカサローサＹ１０１,,27,116,5440001,,,,,,,2021-12-20,1,,,,,アオキショウジ,0
1247,5120001242599,新規,0,2021-12-20,2021-12-20,Ａｌｔｈａｅａ株式会社,,株式会社,大阪府,大阪市西区,江戸堀１丁目１６番２９号,,27,106,5500002,,,,,,,2021-12-20,1,,,,,アルテア,0
1252,5120003020796,新規,0,2021-12-20,2021-12-20,合同会社Ｂｌｕｖｅ,,合同会社,大阪府,大阪市北区,万歳町３番１２－４０４号,,27,127,5300028,,,,,,,2021-12-20,1,,,,,ブルーブ,0
1253,5120005022659,新規,0,2021-12-20,2021-12-20,特定非営利活動法人スポルティフジャパン,,その他の設立登記法人,大阪府,大阪市東住吉区,駒川２丁目４－１ピア駒川２階,,27,121,5460043,,,,,,,2021-12-20,1,,,,,スポルティフジャパン,0
1255,5120101064811,新規,0,2021-12-20,2021-12-20,株式会社谷口工業,,株式会社,大阪府,泉大津市,東豊中町１丁目１５番７－２０６号,,27,206,5950021,,,,,,,2021-12-20,1,,,,,タニグチコウギョウ,0
1256,5120103004484,新規,0,2021-12-20,2021-12-20,合同会社ラブアフェクション,,合同会社,大阪府,河内長野市,汐の宮町３３番３５号,,27,216,5860011,,,,,,,2021-12-20,1,,,,,ラブアフェクション,0
1260,5122001035446,新規,0,2021-12-20,2021-12-20,株式会社Ｕ,,株式会社,大阪府,東大阪市,御厨南１丁目１番３２,,27,227,5770034,,,,,,,2021-12-20,1,,,,,ユー,0
1270,5140003017122,新規,0,2021-12-20,2021-12-20,合同会社いたまるま,,合同会社,兵庫県,神戸市東灘区,深江北町１丁目１１番３５－５０２号,,28,101,6580013,,,,,,,2021-12-20,1,,,,,イタマルマ,0
1274,5160001023888,新規,0,2021-12-20,2021-12-20,株式会社山翔興業,,株式会社,滋賀県,草津市,青地町１１２１番地１－３０７グランボナール,,25,206,5250041,,,,,,,2021-12-20,1,,,,,ヤマショウコウギョウ,0
1282,5180001149178,新規,0,2021-12-20,2021-12-20,浅見メディカル株式会社,,株式会社,愛知県,大府市,東新町２丁目１６５番地,,23,223,4740073,,,,,,,2021-12-20,1,,,,,アサミメディカル,0
1283,5180001149186,新規,0,2021-12-20,2021-12-20,株式会社光羊社,,株式会社,愛知県,名古屋市東区,泉２丁目１３番１０号プレミスト泉レジデンス８０３号,,23,102,4610001,,,,,,,2021-12-20,1,,,,,コウヨウシャ,0
1286,5180301035739,新規,0,2021-12-20,2021-12-20,聚豊株式会社,,株式会社,愛知県,額田郡幸田町,大字大草字下六條５４番地,,23,501,4440103,,,,,,,2021-12-20,1,,,,,シュウホウ,0
1291,5200001039541,新規,0,2021-12-20,2021-12-20,株式会社Ｇテック,,株式会社,岐阜県,各務原市,那加西市場町４丁目１６１番地１,,21,213,5040018,,,,,,,2021-12-20,1,,,,,ジーテック,0
1292,5210001018734,新規,0,2021-12-20,2021-12-20,ＡＬＯＨＡＺ　ＧＲＯＵＰ株式会社,,株式会社,福井県,福井市,豊島１丁目５番２６号アトリエ・リッチランド４Ｆ,,18,201,9100857,,,,,,,2021-12-20,1,,,,,アロハズグループ,0
1294,5230005009182,新規,0,2021-12-20,2021-12-20,一般社団法人コズミック・ロータス協会,,その他の設立登記法人,富山県,富山市,町村２丁目４番地,,16,201,9300952,,,,,,,2021-12-20,1,,,,,,0
1296,5240001059073,新規,0,2021-12-20,2021-12-20,アイン株式会社,,株式会社,広島県,広島市西区,井口３丁目１０番２２号広沢ビル１０１号室,,34,104,7330842,,,,,,,2021-12-20,1,,,,,アイン,0
1299,5250003002963,新規,0,2021-12-20,2021-12-20,ＢＯＮＯ合同会社,,合同会社,山口県,山口市,吉敷中東１丁目２９番１号,,35,203,7530813,,,,,,,2021-12-20,1,,,,,ボーノ,0
1307,5280001008588,新規,0,2021-12-20,2021-12-20,株式会社ｍｉｃａｔａ,,株式会社,島根県,松江市,天神町１２７番地,,32,201,6900064,,,,,,,2021-12-20,1,,,,,ミカタ,0
1316,5290801028090,新規,0,2021-12-20,2021-12-20,株式会社リシェス,,株式会社,福岡県,北九州市八幡西区,香月中央４丁目７番１６号,,40,109,8071102,,,,,,,2021-12-20,1,,,,,リシェス,0
1328,5350001017474,新規,0,2021-12-20,2021-12-20,株式会社アルバ宮崎,,株式会社,宮崎県,西都市,大字三納８２７２番地,,45,208,8810101,,,,,,,2021-12-20,1,,,,,アルバミヤザキ,0
1331,5350003003992,新規,0,2021-12-20,2021-12-20,ＳＹ．ＪＯＹ合同会社,,合同会社,宮崎県,都城市,太郎坊町７７８３番地,,45,202,8850002,,,,,,,2021-12-20,1,,,,,エスワイドットジェイオーワイ,0
1340,5400001015712,新規,0,2021-12-20,2021-12-20,株式会社マーケティングプラス,,株式会社,岩手県,盛岡市,北飯岡２丁目１番１１号,,03,201,0200857,,,,,,,2021-12-20,1,,,,,マーケティングプラス,0
1341,5430001085612,新規,0,2021-12-20,2021-12-20,株式会社島田建設,,株式会社,北海道,札幌市清田区,平岡四条２丁目１２番１１号ディアコート平岡１０１号,,01,110,0040874,,,,,,,2021-12-20,1,,,,,シマダケンセツ,0
1348,5470001018873,新規,0,2021-12-20,2021-12-20,川滝設備工業株式会社,,株式会社,香川県,高松市,今里町２丁目１９番地２３,,37,201,7600078,,,,,,,2021-12-20,1,,,,,カワタキセツビコウギョウ,0
1352,5700150105531,新規,0,2021-12-20,2021-10-27,帯広市危険物安全協会,,その他,北海道,帯広市,西六条南６丁目３番地１,,01,207,0800016,,,,,,,2021-10-27,1,,,,,オビヒロシキケンブツアンゼンキヨウカイ,0
1353,5700150106166,新規,0,2021-12-20,2021-12-09,都万地区農泊推進協議会,,その他,島根県,隠岐郡隠岐の島町,中町目貫の四５４－３隠岐ポートプラザ１Ｆ　隠岐旅工舎内,,32,528,6850013,,,,,,,2021-12-09,1,,,,,ツマチクノウハクスイシンキヨウギカイ,0
1364,6010001223337,新規,0,2021-12-20,2021-12-20,グリーンパワー株式会社,,株式会社,東京都,千代田区,一ツ橋２丁目５番５号,,13,101,1010003,,,,,,,2021-12-20,1,,,,,グリーンパワー,0
1367,6010003036332,新規,0,2021-12-20,2021-12-20,合同会社ＲｅＭｉ,,合同会社,東京都,千代田区,外神田３丁目５－５－９０５,,13,101,1010021,,,,,,,2021-12-20,1,,,,,レミ,0
1377,6010401164528,新規,0,2021-12-20,2021-12-20,株式会社ソフィアコーポレーション,,株式会社,東京都,港区,白金４丁目１０番１号,,13,103,1080072,,,,,,,2021-12-20,1,,,,,ソフィアコーポレーション,0
1382,6010403026734,新規,0,2021-12-20,2021-12-20,丸亀市田村池太陽光発電所合同会社,,合同会社,東京都,港区,港南２丁目１６番４号品川グランドセントラルタワー,,13,103,1080075,,,,,,,2021-12-20,1,,,,,マルガメシタムライケタイヨウコウハツデンショ,0
1384,6010405020529,新規,0,2021-12-20,2021-12-20,Ｔインフラホールディングス６号一般社団法人,,その他の設立登記法人,東京都,港区,元赤坂１丁目１番７号,,13,103,1070051,,,,,,,2021-12-20,1,,,,,ティーインフラホールディングスロクゴウ,0
1402,6011001144655,新規,0,2021-12-20,2021-12-20,株式会社Ｌｉｌｙ,,株式会社,東京都,渋谷区,神宮前６丁目２３番４号桑野ビル２階,,13,113,1500001,,,,,,,2021-12-20,1,,,,,リリー,0
1406,6011101097209,新規,0,2021-12-20,2021-12-20,らいどう・プロ株式会社,,株式会社,東京都,新宿区,袋町５番地１ＦＡＲＯ神楽坂１階,,13,104,1620828,,,,,,,2021-12-20,1,,,,,ライドウプロ,0
1407,6011101097217,新規,0,2021-12-20,2021-12-20,株式会社ハイジェイケイ,,株式会社,東京都,新宿区,北新宿１丁目３６番２号,,13,104,1690074,,,,,,,2021-12-20,1,,,,,ハイジェイケイ,0
1413,6011103011266,新規,0,2021-12-20,2021-12-20,カニデンス合同会社,,合同会社,東京都,新宿区,西新宿３丁目３番１３号西新宿水間ビル６階,,13,104,1600023,,,,,,,2021-12-20,1,,,,,カニデンス,0
1414,6011103011299,新規,0,2021-12-20,2021-12-20,合同会社ＣＦＯ,,合同会社,東京都,新宿区,百人町１丁目１６番７号,,13,104,1690073,,,,,,,2021-12-20,1,,,,,シーエフオー,0
1416,6011201023493,新規,0,2021-12-20,2021-12-20,株式会社京屋コンサルタント,,株式会社,東京都,中野区,野方４丁目１８番４号,,13,114,1650027,,,,,,,2021-12-20,1,,,,,キョウヤコンサルタント,0
1420,6011301027436,新規,0,2021-12-20,2021-12-20,株式会社奥川美装,,株式会社,東京都,杉並区,上井草３丁目１２番１６号,,13,115,1670023,,,,,,,2021-12-20,1,,,,,オクガワビソウ,0
1422,6011501027582,新規,0,2021-12-20,2021-12-20,アドバネクスＰＬＵＳ株式会社,,株式会社,東京都,北区,田端６丁目１番１号,,13,117,1140014,,,,,,,2021-12-20,1,,,,,アドバネクスプラス,0
1431,6012403005164,新規,0,2021-12-20,2021-12-20,合同会社ＰＩＳＴＥ,,合同会社,東京都,三鷹市,下連雀３丁目３３番３－１０２号,,13,204,1810013,,,,,,,2021-12-20,1,,,,,ピステ,0
1435,6012801021283,新規,0,2021-12-20,2021-12-20,株式会社リロード,,株式会社,東京都,日野市,三沢３丁目５番地の３,,13,212,1910032,,,,,,,2021-12-20,1,,,,,リロード,0
1445,6020001144417,新規,0,2021-12-20,2021-12-20,株式会社頁,,株式会社,神奈川県,横浜市緑区,中山５丁目９－１,,14,113,2260019,,,,,,,2021-12-20,1,,,,,ページ,0
1457,6021001074785,新規,0,2021-12-20,2021-12-20,株式会社ＳｕｎＲｉｓｅ,,株式会社,神奈川県,海老名市,社家３丁目２番１０号,,14,215,2430424,,,,,,,2021-12-20,1,,,,,サンライズ,0
1468,6030001145942,新規,0,2021-12-20,2021-12-20,株式会社スズカコネクト,,株式会社,埼玉県,新座市,石神１丁目５番９号,,11,230,3520033,,,,,,,2021-12-20,1,,,,,スズカコネクト,0
1469,6030003018519,新規,0,2021-12-20,2021-12-20,合同会社齋藤科学,,合同会社,埼玉県,加須市,花崎３丁目１５番地１日新花崎ヴィレッジＤ棟２０１号,,11,210,3470032,,,,,,,2021-12-20,1,,,,,サイトウカガク,0
1474,6040001121439,新規,0,2021-12-20,2021-12-20,株式会社未来自動車,,株式会社,千葉県,市原市,姉崎７９１－８,,12,219,2990111,,,,,,,2021-12-20,1,,,,,ミライジドウシャ,0
1475,6040001121447,新規,0,2021-12-20,2021-12-20,株式会社Ｐａｌｅｔｔｅ,,株式会社,千葉県,船橋市,二和東３丁目９番５号,,12,204,2740805,,,,,,,2021-12-20,1,,,,,パレット,0
1477,6040003019152,新規,0,2021-12-20,2021-12-20,合同会社ＫＥＳＨＡＬ　ＩＮＴＥＲＮＡＴＩＯＮＡＬ,,合同会社,千葉県,山武市,板中新田３２番地２１,,12,237,2891222,,,,,,,2021-12-20,1,,,,,ケシャルインターナショナル,0
1478,6050001050331,新規,0,2021-12-20,2021-12-20,ＢＭＶ株式会社,,株式会社,茨城県,つくば市,二の宮３丁目１５番地１３,,08,220,3050051,,,,,,,2021-12-20,1,,,,,ビーエムブイ,0
1482,6070001038746,新規,0,2021-12-20,2021-12-20,株式会社５ｗａｔｅｒｓ　ｃｏｍｐａｎｙ,,株式会社,群馬県,伊勢崎市,南千木町２３６９番地１,,10,204,3720033,,,,,,,2021-12-20,1,,,,,ファイブウオーターズカンパニー,0
1484,6080005007416,新規,0,2021-12-20,2021-12-20,一般社団法人Ｍｏｔｏ　Ｒｉｄｅｒｓ　Ｓｕｐｐｏｒｔ　ｏｆ　Ｊａｐａｎ,,その他の設立登記法人,静岡県,静岡市清水区,村松６２４－３８,,22,103,4240926,,,,,,,2021-12-20,1,,,,,モトライダースサポートオブジャパン,0
1490,6110001036274,新規,0,2021-12-20,2021-12-20,株式会社メユイ,,株式会社,新潟県,新潟市中央区,大島３５番地５,,15,103,9500953,,,,,,,2021-12-20,1,,,,,メユイ,0
1491,6110001036282,新規,0,2021-12-20,2021-12-20,共和産業株式会社,,株式会社,新潟県,柏崎市,大字南下２８６１番地,,15,205,9451112,,,,,,,2021-12-20,1,,,,,キョウワサンギョウ,0
1497,6120001242607,新規,0,2021-12-20,2021-12-20,ＪＶ株式会社,,株式会社,大阪府,大阪市平野区,瓜破２丁目１－５０アビタシオン２３、１０２室,,27,126,5470024,,,,,,,2021-12-20,1,,,,,ジェイブイ,0
1505,6120101064810,新規,0,2021-12-20,2021-12-20,Ｆｅｅｌ　Ｙｏｕｒｓ株式会社,,株式会社,大阪府,富田林市,南旭ケ丘町１３－１２,,27,214,5840007,,,,,,,2021-12-20,1,,,,,フィールユアーズ,0
1506,6120103004483,新規,0,2021-12-20,2021-12-20,ＱＭ　ＴＲＡＤＩＮＧ合同会社,,合同会社,大阪府,和泉市,富秋町２丁目２５番１２号,,27,219,5940082,,,,,,,2021-12-20,1,,,,,キューエムトレーディング,0
1507,6120105009489,新規,0,2021-12-20,2021-12-20,一般社団法人Ｍ＆Ｉ,,その他の設立登記法人,大阪府,和泉市,内田町３丁目１番４０号,,27,219,5941156,,,,,,,2021-12-20,1,,,,,エムアンドアイ,0
1511,6120903003949,新規,0,2021-12-20,2021-12-20,１０１．ＬＡＢＯ合同会社,,合同会社,大阪府,摂津市,昭和園８番１１－４０６号,,27,224,5660031,,,,,,,2021-12-20,1,,,,,ワンオーワンラボ,0
1520,6160001023887,新規,0,2021-12-20,2021-12-20,株式会社ＧＷＣ,,株式会社,滋賀県,守山市,金森町８９６番地,,25,207,5240045,,,,,,,2021-12-20,1,,,,,ジーダブリュシー,0
1528,6180001149136,新規,0,2021-12-20,2021-12-20,株式会社ＵＰ　ＴＯ　ＤＡＴＥ,,株式会社,愛知県,瀬戸市,東寺山町３１番地の３コンフォール瀬戸１０４,,23,204,4890928,,,,,,,2021-12-20,1,,,,,アップトゥデイト,0
1529,6180001149144,新規,0,2021-12-20,2021-12-20,株式会社ヤマヨシロジスティクス,,株式会社,愛知県,春日井市,朝宮町３丁目６番地１,,23,206,4860846,,,,,,,2021-12-20,1,,,,,ヤマヨシロジスティクス,0
1530,6180001149177,新規,0,2021-12-20,2021-12-20,株式会社ＫＩＳＡ,,株式会社,愛知県,津島市,蛭間町字弁日１９番地２,,23,208,4960004,,,,,,,2021-12-20,1,,,,,キサ,0
1536,6180301035738,新規,0,2021-12-20,2021-12-20,株式会社星建,,株式会社,愛知県,西尾市,吉良町小牧梶見堂４番地１,,23,213,4440535,,,,,,,2021-12-20,1,,,,,ホシケン,0
1539,6190003003851,新規,0,2021-12-20,2021-12-20,合同会社ケアサポート・ゼロワン,,合同会社,三重県,南牟婁郡紀宝町,鵜殿１３０２－３,,24,562,5195701,,,,,,,2021-12-20,1,,,,,ケアサポートゼロワン,0
1541,6200001039549,新規,0,2021-12-20,2021-12-20,株式会社ＺＥＲＯＢＡＣＳ,,株式会社,岐阜県,大垣市,築捨町４丁目３０番地１,,21,202,5030854,,,,,,,2021-12-20,1,,,,,ゼロバックス,0
1546,6210001018733,新規,0,2021-12-20,2021-12-20,株式会社シゲイン,,株式会社,福井県,坂井市,三国町池見第１７号８番地１,,18,210,9130024,,,,,,,2021-12-20,1,,,,,シゲイン,0
1548,6210003001431,新規,0,2021-12-20,2021-12-20,スリー・バイ・スリー合同会社,,合同会社,福井県,福井市,米松２丁目２４番８号,,18,201,9100851,,,,,,,2021-12-20,1,,,,,スリーバイスリー,0
1551,6250001019307,新規,0,2021-12-20,2021-12-20,トウヨウ建工株式会社,,株式会社,山口県,下松市,東陽１丁目６番２号,,35,207,7440043,,,,,,,2021-12-20,1,,,,,トウヨウケンコウ,0
1556,6280001008587,新規,0,2021-12-20,2021-12-20,Ｎｃｏｌｏｒ株式会社,,株式会社,島根県,出雲市,西園町１１８３番地１,,32,203,6930041,,,,,,,2021-12-20,1,,,,,エヌカラー,0
1560,6290001095773,新規,0,2021-12-20,2021-12-20,株式会社ｓａｎ‐Ｃ,,株式会社,福岡県,朝倉市,頓田５０３番地３０,,40,228,8380064,,,,,,,2021-12-20,1,,,,,サンシー,0
1565,6300005007054,新規,0,2021-12-20,2021-12-20,税理士法人ＴＭサポート,,その他の設立登記法人,佐賀県,佐賀市,鍋島２丁目２番１３号,,41,201,8490937,,,,,,,2021-12-20,1,,,,,ティーエムサポート,0
1570,6310003004234,新規,0,2021-12-20,2021-12-20,加藤合同会社,,合同会社,長崎県,長崎市,界２丁目９番１７－１３０２号,,42,201,8510122,,,,,,,2021-12-20,1,,,,,カトウ,0
1574,6340005009385,新規,0,2021-12-20,2021-12-20,一般財団法人大樹,,その他の設立登記法人,鹿児島県,出水市,麓町１３４５番地,,46,208,8990204,,,,,,,2021-12-20,1,,,,,タイジュ,0
1575,6350001017473,新規,0,2021-12-20,2021-12-20,株式会社ユー構造設計,,株式会社,宮崎県,東臼杵郡門川町,加草２丁目４６番地,,45,421,8890603,,,,,,,2021-12-20,1,,,,,ユーコウゾウセッケイ,0
1591,6400001015711,新規,0,2021-12-20,2021-12-20,株式会社ＡＫＩＣＨＩ,,株式会社,岩手県,奥州市,水沢字多賀８９番地１,,03,215,0230032,,,,,,,2021-12-20,1,,,,,アキチ,0
1595,6420001017680,新規,0,2021-12-20,2021-12-20,株式会社ビッグプロー,,株式会社,青森県,青森市,中佃１丁目７番４１号,,02,201,0300963,,,,,,,2021-12-20,1,,,,,ビッグプロー,0
1606,6470001018864,新規,0,2021-12-20,2021-12-20,株式会社スリーエスフランチャイズ,,株式会社,香川県,三豊市,高瀬町下麻８６４－１,,37,208,7670013,,,,,,,2021-12-20,1,,,,,スリーエスフランチャイズ,0
1627,7010401164527,新規,0,2021-12-20,2021-12-20,株式会社オフィスサチ,,株式会社,東京都,港区,白金４丁目１０番１号,,13,103,1080072,,,,,,,2021-12-20,1,,,,,オフィスサチ,0
1628,7010401164568,新規,0,2021-12-20,2021-12-20,第一シモビル管財弐株式会社,,株式会社,東京都,港区,白金４丁目１０番１号,,13,103,1080072,,,,,,,2021-12-20,1,,,,,ダイイチシモビルカンザイニ,0
1631,7010403026733,新規,0,2021-12-20,2021-12-20,高松市小田池太陽光発電所合同会社,,合同会社,東京都,港区,港南２丁目１６番４号品川グランドセントラルタワー,,13,103,1080075,,,,,,,2021-12-20,1,,,,,タカマツシオダイケタイヨウコウハツデンショ,0
1635,7010601060410,新規,0,2021-12-20,2021-12-20,株式会社ＫＯ,,株式会社,東京都,墨田区,東向島３丁目１２－３ベルシード東向島３０２,,13,107,1310032,,,,,,,2021-12-20,1,,,,,ケーオー,0
1637,7010701041954,新規,0,2021-12-20,2021-12-20,Ｓｍｏｏｏｔｈ株式会社,,株式会社,東京都,品川区,東五反田４丁目８－９－３階ＧＡＴＥＢＡＳＥ,,13,109,1410022,,,,,,,2021-12-20,1,,,,,スムース,0
1649,7011101097216,新規,0,2021-12-20,2021-12-20,石橋メディカルラボ株式会社,,株式会社,東京都,新宿区,西新宿３丁目３番１３号西新宿水間ビル６階,,13,104,1600023,,,,,,,2021-12-20,1,,,,,イシバシメディカルラボ,0
1650,7011101097232,新規,0,2021-12-20,2021-12-20,ＩＦＩＳ株式会社,,株式会社,東京都,新宿区,大久保２丁目２０番１４号,,13,104,1690072,,,,,,,2021-12-20,1,,,,,アイフィス,0
1656,7011403003524,新規,0,2021-12-20,2021-12-20,合同会社せつこ,,合同会社,東京都,板橋区,舟渡２丁目１６番２－１０１号,,13,119,1740041,,,,,,,2021-12-20,1,,,,,セツコ,0
1657,7011501027581,新規,0,2021-12-20,2021-12-20,株式会社テックナイン,,株式会社,東京都,北区,赤羽西２丁目１６番２号シュロスシェーンボーン２０３号,,13,117,1150055,,,,,,,2021-12-20,1,,,,,テックナイン,0
1661,7011801040078,新規,0,2021-12-20,2021-12-20,裕泉株式会社,,株式会社,東京都,足立区,西新井本町５丁目２番４－１０４号,,13,121,1230845,,,,,,,2021-12-20,1,,,,,ユウセン,0
1662,7012403005163,新規,0,2021-12-20,2021-12-20,ＡＮコンサルティング合同会社,,合同会社,東京都,三鷹市,井の頭５丁目２番８号,,13,204,1810001,,,,,,,2021-12-20,1,,,,,エーエヌコンサルティング,0
1667,7013301048444,新規,0,2021-12-20,2021-12-20,Ｌｉｎｋ　Ｅａｓｔ株式会社,,株式会社,東京都,豊島区,高田２丁目１０番５号玉川ハイツ２０５号,,13,116,1710033,,,,,,,2021-12-20,1,,,,,リンクイースト,0
1668,7013301048452,新規,0,2021-12-20,2021-12-20,株式会社絵ヂカラ,,株式会社,東京都,豊島区,東池袋１丁目３４番５号いちご東池袋ビル６階,,13,116,1700013,,,,,,,2021-12-20,1,,,,,エヂカラ,0
1675,7020001144390,新規,0,2021-12-20,2021-12-20,株式会社中山地所,,株式会社,神奈川県,横浜市鶴見区,本町通３丁目１６７－１,,14,101,2300048,,,,,,,2021-12-20,1,,,,,ナカヤマジショ,0
1676,7020001144408,新規,0,2021-12-20,2021-12-20,広壱防水株式会社,,株式会社,神奈川県,横浜市都筑区,川和町７９５番地１コンフォール川和３０２,,14,118,2240057,,,,,,,2021-12-20,1,,,,,ヒロイチボウスイ,0
1677,7020001144424,新規,0,2021-12-20,2021-12-20,株式会社湘南ＢＵＩＬＤ,,株式会社,神奈川県,横浜市瀬谷区,本郷３丁目６６番地２,,14,114,2460015,,,,,,,2021-12-20,1,,,,,ショウナンビルド,0
1678,7020003020994,新規,0,2021-12-20,2021-12-20,合同会社エディラボ,,合同会社,神奈川県,横浜市西区,北幸１丁目１１番５号,,14,103,2200004,,,,,,,2021-12-20,1,,,,,エディラボ,0
1682,7021003011190,新規,0,2021-12-20,2021-12-20,合同会社Ｐ－スタイル,,合同会社,神奈川県,座間市,小松原１丁目３０番１３号,,14,216,2520002,,,,,,,2021-12-20,1,,,,,ピースタイル,0
1683,7021003011199,新規,0,2021-12-20,2021-12-20,合同会社ＢＩＳＭＩＬＬＡＨ　ＣＯＲＰＯＲＡＴＩＯＮ,,合同会社,神奈川県,相模原市南区,相模台１丁目９－３,,14,153,2520321,,,,,,,2021-12-20,1,,,,,ビスミラーコーポレーション,0
1684,7021005012393,新規,0,2021-12-20,2021-12-20,特定非営利活動法人万屋,,その他の設立登記法人,神奈川県,相模原市緑区,青根１１６１番地１地下１階１号室,,14,151,2520162,,,,,,,2021-12-20,1,,,,,ヨロズヤ,0
1692,7030001145941,新規,0,2021-12-20,2021-12-20,株式会社ライフハウジング,,株式会社,埼玉県,さいたま市中央区,上落合２丁目１１番７－３００１号,,11,105,3380001,,,,,,,2021-12-20,1,,,,,,0
1698,7030003018518,新規,0,2021-12-20,2021-12-20,ａｍｙホールディングス合同会社,,合同会社,埼玉県,所沢市,大字上山口１９１７番地の７,,11,208,3591153,,,,,,,2021-12-20,1,,,,,エーエムワイホールディングス,0
1703,7040001121421,新規,0,2021-12-20,2021-12-20,メーテルリンク株式会社,,株式会社,千葉県,松戸市,六実２丁目１４番地の３７,,12,207,2702204,,,,,,,2021-12-20,1,,,,,メーテルリンク,0
1709,7050001050289,新規,0,2021-12-20,2021-12-20,ＣｒｅｓｔｅｃＢｉｏ株式会社,,株式会社,茨城県,つくば市,吾妻２丁目５番地１,,08,220,3050031,,,,,,,2021-12-20,1,,,,,クレステックバイオ,0
1720,7100003006325,新規,0,2021-12-20,2021-12-20,合同会社Ａｒｔｅｍｉｓ,,合同会社,長野県,安曇野市,穂高柏原４３３３番地４,,20,220,3998304,,,,,,,2021-12-20,1,,,,,アルテミス,0
1737,7120001242580,新規,0,2021-12-20,2021-12-20,株式会社誠,,株式会社,大阪府,大阪市北区,万歳町５番１２－１３０５号,,27,127,5300028,,,,,,,2021-12-20,1,,,,,セイ,0
1738,7120001242606,新規,0,2021-12-20,2021-12-20,株式会社Ｈｏｏｄｉｅｓ,,株式会社,大阪府,大阪市中央区,本町橋５番１４－５０３号,,27,128,5400029,,,,,,,2021-12-20,1,,,,,フーディーズ,0
1745,7120103004482,新規,0,2021-12-20,2021-12-20,合同会社Ｏｎｅ－Ｆａｉｔｈ,,合同会社,大阪府,堺市西区,上４３７番地１,,27,144,5938311,,,,,,,2021-12-20,1,,,,,ワンフェイス,0
1750,7120901045372,新規,0,2021-12-20,2021-12-20,由賢株式会社,,株式会社,大阪府,茨木市,若園町７番７号,,27,211,5670894,,,,,,,2021-12-20,1,,,,,ユウケン,0
1754,7130001070741,新規,0,2021-12-20,2021-12-20,株式会社京都あんしん相続相談室,,株式会社,京都府,京都市下京区,烏丸通仏光寺下る大政所町６８５番地,,26,106,6008413,,,,,,,2021-12-20,1,,,,,キョウトアンシンソウゾクソウダンシツ,0
1763,7140001124240,新規,0,2021-12-20,2021-12-20,株式会社大命フーズ,,株式会社,兵庫県,神戸市中央区,脇浜町１丁目２番２号－１０５号,,28,110,6510072,,,,,,,2021-12-20,1,,,,,ダイメイフーズ,0
1764,7140001124249,新規,0,2021-12-20,2021-12-20,株式会社フェリスタ,,株式会社,兵庫県,尼崎市,塚口町１丁目２９番地の２,,28,202,6610002,,,,,,,2021-12-20,1,,,,,フェリスタ,0
1766,7140003017104,新規,0,2021-12-20,2021-12-20,合同会社ＦＵＫＵＭＯＴＯ,,合同会社,兵庫県,姫路市,飾磨区下野田２丁目４２０番地２５,,28,201,6728044,,,,,,,2021-12-20,1,,,,,フクモト,0
1775,7180001149201,新規,0,2021-12-20,2021-12-20,福井グローバルコンサルティング株式会社,,株式会社,愛知県,小牧市,光ケ丘５丁目１７番地４,,23,219,4850811,,,,,,,2021-12-20,1,,,,,フクイグローバルコンサルティング,0
1779,7180303005201,新規,0,2021-12-20,2021-12-20,合同会社１,,合同会社,愛知県,豊田市,志賀町香九礼１番地３３７,,23,211,4710802,,,,,,,2021-12-20,1,,,,,イチ,0
1782,7200001039548,新規,0,2021-12-20,2021-12-20,株式会社Ｎｏｂａ,,株式会社,岐阜県,岐阜市,旦島１丁目１番６号,,21,201,5020926,,,,,,,2021-12-20,1,,,,,ノバ,0
1784,7210003001430,新規,0,2021-12-20,2021-12-20,合同会社ＨＲＳ,,合同会社,福井県,福井市,江端町第６号６番地１ビジュードゥモナ花堂２０４,,18,201,9188016,,,,,,,2021-12-20,1,,,,,エイチアールエス,0
1787,7240001059071,新規,0,2021-12-20,2021-12-20,株式会社Ｈ・Ｋ・Ｃホールディングス,,株式会社,広島県,広島市安佐南区,高取南１丁目１２番１１号,,34,105,7310142,,,,,,,2021-12-20,1,,,,,エイチケーシーホールディング,0
1792,7250001019306,新規,0,2021-12-20,2021-12-20,株式会社トクヤマゆうゆうファーム,,株式会社,山口県,柳井市,余田１４０９番地,,35,212,7420034,,,,,,,2021-12-20,1,,,,,トクヤマユウユウファーム,0
1794,7260001036325,新規,0,2021-12-20,2021-12-20,株式会社タマちゃん,,株式会社,岡山県,備前市,日生町寒河１１１８番地,,33,211,7013202,,,,,,,2021-12-20,1,,,,,タマチャン,0
1811,7290001095748,新規,0,2021-12-20,2021-12-20,カーディナルリンクス株式会社,,株式会社,福岡県,太宰府市,梅香苑１丁目１０番２３号,,40,221,8180124,,,,,,,2021-12-20,1,,,,,カーディナルリンクス,0
1814,7290003011950,新規,0,2021-12-20,2021-12-20,ＭＯＫＵ‐ＤＣ合同会社,,合同会社,福岡県,福岡市南区,柏原３丁目８番２２号,,40,134,8111353,,,,,,,2021-12-20,1,,,,,モクディーシ,0
1816,7290801028089,新規,0,2021-12-20,2021-12-20,株式会社ＬＩＦＡＣＴ,,株式会社,福岡県,北九州市門司区,大里本町３丁目８番２０－８１１号,,40,101,8000063,,,,,,,2021-12-20,1,,,,,リファクト,0
1818,7300001012750,新規,0,2021-12-20,2021-12-20,株式会社クラン,,株式会社,佐賀県,神埼市,神埼町本堀３１８６番地１１,,41,210,8420003,,,,,,,2021-12-20,1,,,,,クラン,0
1828,7340003003653,新規,0,2021-12-20,2021-12-20,アイセキュリティサービス合同会社,,合同会社,鹿児島県,姶良市,西餅田３５６８番地１,,46,225,8995431,,,,,,,2021-12-20,1,,,,,アイセキュリティサービス,0
1833,7350001017472,新規,0,2021-12-20,2021-12-20,ヒムカダイニング株式会社,,株式会社,宮崎県,宮崎市,城ケ崎３丁目７番地２　１階,,45,201,8800917,,,,,,,2021-12-20,1,,,,,ヒムカダイニング,0
1834,7360001029780,新規,0,2021-12-20,2021-12-20,株式会社誠電設,,株式会社,沖縄県,南城市,大里字古堅７８２番地５,,47,215,9011207,,,,,,,2021-12-20,1,,,,,マコトデンセツ,0
1836,7360003011662,新規,0,2021-12-20,2021-12-20,合同会社ＦＲＩＥＮＤＳ,,合同会社,沖縄県,うるま市,石川２丁目３４番３５号,,47,213,9041106,,,,,,,2021-12-20,1,,,,,フレンドズ,0
1837,7360003011670,新規,0,2021-12-20,2021-12-20,ＭＤＯパートナーズ合同会社,,合同会社,沖縄県,豊見城市,字翁長８６９－３,,47,212,9010223,,,,,,,2021-12-20,1,,,,,エムディーオーパートナーズ,0
1848,7460101007107,新規,0,2021-12-20,2021-12-20,株式会社若原農場,,株式会社,北海道,河東郡鹿追町,上幌内２７番地３８,,01,634,0810226,,,,,,,2021-12-20,1,,,,,ワカハラノウジョウ,0
1864,8010001223335,新規,0,2021-12-20,2021-12-20,株式会社スマート・ケア,,株式会社,東京都,千代田区,三番町２４番地２５,,13,101,1020075,,,,,,,2021-12-20,1,,,,,スマートケア,0
1871,8010005034365,新規,0,2021-12-20,2021-12-20,弁護士法人中崎・佐藤法律事務所,,その他の設立登記法人,東京都,千代田区,九段北１丁目７番５号九段飯田ビル２階,,13,101,1020073,,,,,,,2021-12-20,1,,,,,ナカサキサトウホウリツジムショ,0
1874,8010101014989,新規,0,2021-12-20,2021-12-20,ＳＤ株式会社,,株式会社,東京都,八王子市,横川町４２０番地８アンテウスＡ棟３号,,13,201,1930823,,,,,,,2021-12-20,1,,,,,エスデー,0
1891,8010401164567,新規,0,2021-12-20,2021-12-20,第一シモビル管財壱株式会社,,株式会社,東京都,港区,白金４丁目１０番１号,,13,103,1080072,,,,,,,2021-12-20,1,,,,,ダイイチシモビルカンザイイチ,0
1896,8010403026732,新規,0,2021-12-20,2021-12-20,Ｔインフラ６号合同会社,,合同会社,東京都,港区,元赤坂１丁目１番７号,,13,103,1070051,,,,,,,2021-12-20,1,,,,,ティーインフラロクゴウ,0
1902,8010603009314,新規,0,2021-12-20,2021-12-20,ＢｅｌｌＴｒｅｅ合同会社,,合同会社,東京都,江東区,東砂１丁目３番２－７１７号,,13,108,1360074,,,,,,,2021-12-20,1,,,,,ベルトゥリー,0
1903,8010701041961,新規,0,2021-12-20,2021-12-20,株式会社Ｃａｆｅ　ａｕ　ｌａｉｔ　Ｔｏｋｙｏ,,株式会社,東京都,品川区,東五反田５丁目１５番８－３０１号,,13,109,1410022,,,,,,,2021-12-20,1,,,,,カフェオレトーキョー,0
1904,8010801032588,新規,0,2021-12-20,2021-12-20,株式会社鈴龍,,株式会社,東京都,大田区,南六郷２丁目１９番９号,,13,111,1440045,,,,,,,2021-12-20,1,,,,,スズタツ,0
1910,8010905004236,新規,0,2021-12-20,2021-12-20,一般社団法人ミンガヤ・コレクティブ,,その他の設立登記法人,東京都,世田谷区,喜多見７丁目２番２０号レオハイム２０２,,13,112,1570067,,,,,,,2021-12-20,1,,,,,ミンガヤコレクティブ,0
1923,8011101097223,新規,0,2021-12-20,2021-12-20,ヒーナ株式会社,,株式会社,東京都,新宿区,西新宿３丁目３－１３西新宿水間ビル６Ｆ,,13,104,1600023,,,,,,,2021-12-20,1,,,,,ヒーナ,0
1924,8011101097256,新規,0,2021-12-20,2021-12-20,株式会社アンドビルド,,株式会社,東京都,新宿区,西新宿７丁目６番２号,,13,104,1600023,,,,,,,2021-12-20,1,,,,,アンドビルド,0
1925,8011103011264,新規,0,2021-12-20,2021-12-20,箱根湯本管理合同会社,,合同会社,東京都,新宿区,四谷４丁目８番地,,13,104,1600004,,,,,,,2021-12-20,1,,,,,ハコネユモトカンリ,0
1927,8011501027564,新規,0,2021-12-20,2021-12-20,ウーアシュプルング株式会社,,株式会社,東京都,北区,田端新町２丁目５番２－７０２号ウィルローズ田端,,13,117,1140012,,,,,,,2021-12-20,1,,,,,ウーアシュプルング,0
1930,8011603003471,新規,0,2021-12-20,2021-12-20,Ｗｈｉｔｅ合同会社,,合同会社,東京都,練馬区,南大泉３丁目２０－５サンハイツ橋本第一２０２,,13,120,1780064,,,,,,,2021-12-20,1,,,,,ホワイト,0
1939,8012401038676,新規,0,2021-12-20,2021-12-20,株式会社コーラル,,株式会社,東京都,多摩市,聖ヶ丘１丁目２８番地の２６,,13,224,2060022,,,,,,,2021-12-20,1,,,,,コーラル,0
1942,8012701016828,新規,0,2021-12-20,2021-12-20,株式会社クロスイノベーション,,株式会社,東京都,西東京市,ひばりが丘北１丁目７番１９号,,13,229,2020002,,,,,,,2021-12-20,1,,,,,クロスイノベーション,0
1944,8013105001788,新規,0,2021-12-20,2021-12-20,ＮＰＯ法人明日へ向かって,,その他の設立登記法人,東京都,あきる野市,引田８２６番地５,,13,228,1970834,,,,,,,2021-12-20,1,,,,,アシタヘムカッテ,0
1950,8013301048443,新規,0,2021-12-20,2021-12-20,株式会社エー・アンド・デイ分割準備会社,,株式会社,東京都,豊島区,東池袋３丁目２３番１４号,,13,116,1700013,,,,,,,2021-12-20,1,,,,,エーアンドデイブンカツジュンビガイシャ,0
1951,8013301048451,新規,0,2021-12-20,2021-12-20,ＴＲＥＮＩＴＩ株式会社,,株式会社,東京都,豊島区,東池袋２丁目２４番８号池袋メゾン摩周閣１０３号,,13,116,1700013,,,,,,,2021-12-20,1,,,,,トリニティ,0
1956,8020001144266,新規,0,2021-12-20,2021-12-20,ＮＥＷＦＯＵＮＤ　Ｄ．Ｈ．株式会社,,株式会社,神奈川県,川崎市高津区,北見方１丁目３０－６,,14,134,2130005,,,,,,,2021-12-20,1,,,,,ニューファウンドディーエイチ,0
1957,8020001144373,新規,0,2021-12-20,2021-12-20,株式会社エイスリーラボ,,株式会社,神奈川県,横浜市西区,楠町１－３ＢＬＡ横浜西口ビル２０４,,14,103,2200003,,,,,,,2021-12-20,1,,,,,エイスリーラボ,0
1958,8020001144423,新規,0,2021-12-20,2021-12-20,株式会社エムリンクス,,株式会社,神奈川県,川崎市川崎区,渡田３丁目１７番１４号,,14,131,2100837,,,,,,,2021-12-20,1,,,,,エムリンクス,0
1962,8020003020993,新規,0,2021-12-20,2021-12-20,合同会社ＢＲＵＥ,,合同会社,神奈川県,川崎市中原区,小杉陣屋町１丁目２０番１９号,,14,133,2110062,,,,,,,2021-12-20,1,,,,,ブルー,0
1963,8020005015315,新規,0,2021-12-20,2021-12-20,一般財団法人チェンバロ振興財団クープラン,,その他の設立登記法人,神奈川県,横浜市神奈川区,大口通１３７番地の５,,14,102,2210002,,,,,,,2021-12-20,1,,,,,チェンバロシンコウザイダンクープラン,0
1988,8040001121395,新規,0,2021-12-20,2021-12-20,株式会社上砂食品,,株式会社,千葉県,八街市,上砂１２０番地１,,12,230,2891125,,,,,,,2021-12-20,1,,,,,カミイサゴショクヒン,0
1989,8040001121429,新規,0,2021-12-20,2021-12-20,野中企画株式会社,,株式会社,千葉県,千葉市稲毛区,稲毛東６丁目６番１２号コスモ稲毛ロイヤルステージ８０３号,,12,103,2630031,,,,,,,2021-12-20,1,,,,,ノナカキカク,0
1997,8050005012986,新規,0,2021-12-20,2021-12-20,学校法人正栄学院,,その他の設立登記法人,茨城県,土浦市,小松３丁目３番８号,,08,203,3000823,,,,,,,2021-12-20,1,,,,,セイエイガクイン,0
1998,8060005009932,新規,0,2021-12-20,2021-12-20,一般社団法人ライフベースキャンプ,,その他の設立登記法人,栃木県,那須郡那須町,大字高久丙３２２７番地７,,09,407,3250302,,,,,,,2021-12-20,1,,,,,ライフベースキャンプ,0
2005,8100003006324,新規,0,2021-12-20,2021-12-20,合同会社ｕｒａｎｏｓ,,合同会社,長野県,安曇野市,三郷温２５５６番地３,,20,220,3998102,,,,,,,2021-12-20,1,,,,,ウラノス,0
2020,8120001242613,新規,0,2021-12-20,2021-12-20,株式会社シャッタースピード,,株式会社,大阪府,大阪市西成区,旭１丁目１１番２９号,,27,122,5570032,,,,,,,2021-12-20,1,,,,,シャッタースピード,0
2022,8120003020793,新規,0,2021-12-20,2021-12-20,吉盛合同会社,,合同会社,大阪府,大阪市西成区,花園北２丁目７番１１号－２０４号室,,27,122,5570016,,,,,,,2021-12-20,1,,,,,ヨシモリ,0
2025,8120901045363,新規,0,2021-12-20,2021-12-20,株式会社ＨＡＪＩＭＥ,,株式会社,大阪府,茨木市,北春日丘３丁目６番３２号,,27,211,5670048,,,,,,,2021-12-20,1,,,,,ハジメ,0
2032,8130001070740,新規,0,2021-12-20,2021-12-20,柳小路建物管理株式会社,,株式会社,京都府,京都市中京区,六角通室町西入玉蔵町１２１番地美濃利ビル５１１,,26,104,6048211,,,,,,,2021-12-20,1,,,,,ヤナギコウジタテモノカンリ,0
2033,8130001070749,新規,0,2021-12-20,2021-12-20,株式会社Ｃｉｒｃｌｅ,,株式会社,京都府,京都市右京区,梅津尻溝町８－３７,,26,108,6150924,,,,,,,2021-12-20,1,,,,,サークル,0
2051,8180001149159,新規,0,2021-12-20,2021-12-20,株式会社ＳＡＳＡＧＥ,,株式会社,愛知県,一宮市,木曽川町黒田八ノ通り１００番１,,23,203,4930001,,,,,,,2021-12-20,1,,,,,ササゲ,0
2052,8180001149175,新規,0,2021-12-20,2021-12-20,株式会社デザインバース,,株式会社,愛知県,名古屋市緑区,鳴海町字下汐田３１－１サンハウス大高駅ＩＩ１０１,00125182,23,114,4580801,,,,,,,2021-12-20,1,,,,,デザインバース,0
2053,8180001149183,新規,0,2021-12-20,2021-12-20,株式会社東海フードコンサルティング,,株式会社,愛知県,名古屋市中区,丸の内２丁目１４番４号エグゼ丸の内７階,,23,106,4600002,,,,,,,2021-12-20,1,,,,,トウカイフードコンサルティング,0
2054,8180001149191,新規,0,2021-12-20,2021-12-20,株式会社大楠,,株式会社,愛知県,名古屋市千種区,新池町２丁目８番地,,23,101,4640027,,,,,,,2021-12-20,1,,,,,オオクス,0
2060,8180003023312,新規,0,2021-12-20,2021-12-20,Ｈｕｂ　Ｕｎｉｏｎ合同会社,,合同会社,愛知県,名古屋市名東区,平和が丘５丁目６８番地の２,,23,115,4650097,,,,,,,2021-12-20,1,,,,,ハブユニオン,0
2064,8180303005200,新規,0,2021-12-20,2021-12-20,合同会社祥屋,,合同会社,愛知県,みよし市,三好町＿子１３番地４,00125175,23,236,4700224,,,,,,,2021-12-20,1,,,,,ショウヤ,0
2065,8190001028948,新規,0,2021-12-20,2021-12-20,株式会社水谷フーズ,,株式会社,三重県,熊野市,有馬町５３０９番地２,,24,212,5194325,,,,,,,2021-12-20,1,,,,,ミズタニフーズ,0
2074,8240003005411,新規,0,2021-12-20,2021-12-20,合同会社ＧＡＳＨＥ,,合同会社,広島県,広島市東区,温品４丁目７番５号,,34,102,7320033,,,,,,,2021-12-20,1,,,,,ガーシェ,0
2077,8250001019305,新規,0,2021-12-20,2021-12-20,株式会社イチニチ,,株式会社,山口県,宇部市,大字妻崎開作１０１４番地３,,35,202,7590204,,,,,,,2021-12-20,1,,,,,イチニチ,0
2080,8280003001563,新規,0,2021-12-20,2021-12-20,合同会社ＢＥ　ＬＩＦＥ,,合同会社,島根県,安来市,広瀬町布部１１６４－２４,,32,206,6920623,,,,,,,2021-12-20,1,,,,,,0
2087,8290005018464,新規,0,2021-12-20,2021-12-20,一般社団法人全日本ジュニアプロゴルフ協会,,その他の設立登記法人,福岡県,福岡市南区,野間４丁目２－１５,,40,134,8150041,,,,,,,2021-12-20,1,,,,,ゼンニホンジュニアプロゴルフキョウカイ,0
2088,8290801028096,新規,0,2021-12-20,2021-12-20,株式会社ＴＡＧ,,株式会社,福岡県,北九州市門司区,寺内１丁目３番２５号－３０４号,,40,101,8000015,,,,,,,2021-12-20,1,,,,,ティーエージー,0
2099,8320003003679,新規,0,2021-12-20,2021-12-20,運来合同会社,,合同会社,大分県,大分市,敷戸北町１番１４号,,44,201,8701101,,,,,,,2021-12-20,1,,,,,ウンライ,0
2100,8330001029287,新規,0,2021-12-20,2021-12-20,株式会社サングーテ,,株式会社,熊本県,熊本市北区,植木町岩野３番地１,,43,105,8610136,,,,,,,2021-12-20,1,,,,,サングーテ,0
2118,8360001029771,新規,0,2021-12-20,2021-12-20,株式会社イナマイン,,株式会社,沖縄県,豊見城市,宜保１丁目５番地１１,,47,212,9010244,,,,,,,2021-12-20,1,,,,,イナマイン,0
2119,8360001029788,新規,0,2021-12-20,2021-12-20,株式会社クリエーション,,株式会社,沖縄県,宜野湾市,字宇地泊３２番地みどりアパート１０１,,47,205,9012227,,,,,,,2021-12-20,1,,,,,クリエーション,0
2120,8370001047962,新規,0,2021-12-20,2021-12-20,株式会社ＨＹＤ,,株式会社,宮城県,富谷市,日吉台１丁目２０番地１４,,04,216,9813362,,,,,,,2021-12-20,1,,,,,エイチワイディー,0
2130,8390001016718,新規,0,2021-12-20,2021-12-20,協同薬品株式会社,,株式会社,山形県,東置賜郡川西町,大字西大塚９３０番地,,06,382,9920601,,,,,,,2021-12-20,1,,,,,キョウドウヤクヒン,0
2131,8410003003595,新規,0,2021-12-20,2021-12-20,秋田ソーラーエナジー合同会社,,合同会社,秋田県,湯沢市,田町２丁目３番４号,,05,207,0120844,,,,,,,2021-12-20,1,,,,,アキタソーラーエナジー,0
2132,8420001017679,新規,0,2021-12-20,2021-12-20,株式会社北洲企業会計,,株式会社,青森県,五所川原市,字末広町９番地３７,,02,205,0370056,,,,,,,2021-12-20,1,,,,,ホクシュウキギョウカイケイ,0
2138,8430001085568,新規,0,2021-12-20,2021-12-20,華味株式会社,,株式会社,北海道,札幌市西区,発寒十四条２丁目３番１号,,01,107,0630834,,,,,,,2021-12-20,1,,,,,カミ,0
2139,8430001085626,新規,0,2021-12-20,2021-12-20,株式会社Ｎｏｒｔｈ　Ｍａｒｋｅｔ,,株式会社,北海道,札幌市東区,北十四条東１４丁目４番１２号,,01,103,0650014,,,,,,,2021-12-20,1,,,,,ノースマーケット,0
2140,8430003013469,新規,0,2021-12-20,2021-12-20,合同会社Ｂｒｅａｄｂｏａｒｄ,,合同会社,北海道,札幌市手稲区,富丘三条３丁目１番８号,,01,109,0060013,,,,,,,2021-12-20,1,,,,,ブレッドボード,0
2142,8460101007106,新規,0,2021-12-20,2021-12-20,あらた物産株式会社,,株式会社,北海道,帯広市,西九条南１７丁目１番地１,,01,207,0800019,,,,,,,2021-12-20,1,,,,,アラタブッサン,0
2144,8480001011585,新規,0,2021-12-20,2021-12-20,株式会社Ｎｉｓｓｈｏ．スマイルケア,,株式会社,徳島県,徳島市,国府町府中８４番地の１ユウコウビル５０１,,36,201,7793122,,,,,,,2021-12-20,1,,,,,ニッショウスマイルケア,0
2145,8500001023875,新規,0,2021-12-20,2021-12-20,株式会社Ｒ,,株式会社,愛媛県,松山市,小栗５丁目７番１６号,,38,201,7900036,,,,,,,2021-12-20,1,,,,,アール,0
2153,9010401164566,新規,0,2021-12-20,2021-12-20,第一シモビル管財零株式会社,,株式会社,東京都,港区,白金４丁目１０番１号,,13,103,1080072,,,,,,,2021-12-20,1,,,,,ダイイチシモビルカンザイレイ,0
2154,9010401164574,新規,0,2021-12-20,2021-12-20,株式会社Ｊ’ｓ　Ｔｒａｄｅ,,株式会社,東京都,港区,赤坂９丁目５番２６号,,13,103,1070052,,,,,,,2021-12-20,1,,,,,ジェイズトレード,0
2157,9010403026558,新規,0,2021-12-20,2021-12-20,合同会社グリーンパワー深浦ホールディングス,,合同会社,東京都,港区,赤坂１丁目１１番地４４号赤坂インターシティ,,13,103,1070052,,,,,,,2021-12-20,1,,,,,グリーンパワーフカウラホールディングス,0
2163,9010603009313,新規,0,2021-12-20,2021-12-20,Ｓｉｘｔｙ－ｏｎｅ合同会社,,合同会社,東京都,江東区,南砂４丁目１６番３号,,13,108,1360076,,,,,,,2021-12-20,1,,,,,シックスティワン,0
2165,9010701041952,新規,0,2021-12-20,2021-12-20,株式会社アカツキゲームス,,株式会社,東京都,品川区,上大崎２丁目１３番３０号ｏａｋｍｅｇｕｒｏ８階,,13,109,1410021,,,,,,,2021-12-20,1,,,,,アカツキゲームス,0
2166,9010701041960,新規,0,2021-12-20,2021-12-20,Ｓｍｉｌｅ株式会社,,株式会社,東京都,品川区,北品川３丁目１１番５号プレミスト北品川１３０６,,13,109,1400001,,,,,,,2021-12-20,1,,,,,スマイル,0
2172,9010801032587,新規,0,2021-12-20,2021-12-20,株式会社杉山コーポレーション,,株式会社,東京都,大田区,新蒲田３丁目９番４号,,13,111,1440054,,,,,,,2021-12-20,1,,,,,スギヤマコーポレーション,0
2176,9010901050010,新規,0,2021-12-20,2021-12-20,株式会社ＥＭパーテーション,,株式会社,東京都,世田谷区,三軒茶屋１丁目９番１号,,13,112,1540024,,,,,,,2021-12-20,1,,,,,イーエムパーテーション,0
2177,9010901050019,新規,0,2021-12-20,2021-12-20,株式会社マフモ,,株式会社,東京都,世田谷区,太子堂４丁目１４番１号,,13,112,1540004,,,,,,,2021-12-20,1,,,,,マフモ,0
2183,9011001144677,新規,0,2021-12-20,2021-12-20,Ａｉｋｕ株式会社,,株式会社,東京都,渋谷区,神宮前４丁目３１番１１号,,13,113,1500001,,,,,,,2021-12-20,1,,,,,アイク,0
2185,9011101097230,新規,0,2021-12-20,2021-12-20,株式会社アールス,,株式会社,東京都,新宿区,四谷３丁目１番地,,13,104,1600004,,,,,,,2021-12-20,1,,,,,アールス,0
2186,9011101097239,新規,0,2021-12-20,2021-12-20,株式会社ＭＨＭ,,株式会社,東京都,新宿区,四谷１丁目６番５号,,13,104,1600004,,,,,,,2021-12-20,1,,,,,エムエイチエム,0
2187,9011101097247,新規,0,2021-12-20,2021-12-20,株式会社リノケロス,,株式会社,東京都,新宿区,四谷２丁目１４四谷小林ビル５階,,13,104,1600004,,,,,,,2021-12-20,1,,,,,リノケロス,0
2189,9011201023490,新規,0,2021-12-20,2021-12-20,株式会社ＳＫＣｒｅｗ,,株式会社,東京都,中野区,松が丘１丁目２９番２１号,,13,114,1650024,,,,,,,2021-12-20,1,,,,,エスケークルー,0
2206,9011803004896,新規,0,2021-12-20,2021-12-20,Ｔ９６合同会社,,合同会社,東京都,葛飾区,新小岩１丁目１９番１１号,,13,122,1240024,,,,,,,2021-12-20,1,,,,,ティキュウロク,0
2207,9012403005161,新規,0,2021-12-20,2021-12-20,ソラ合同会社,,合同会社,東京都,府中市,武蔵台２丁目１９－８ディアコート西国分寺１Ｆ,,13,206,1830042,,,,,,,2021-12-20,1,,,,,ソラ,0
2209,9012805003077,新規,0,2021-12-20,2021-12-20,一般社団法人太楽事業創発機構,,その他の設立登記法人,東京都,立川市,錦町１丁目１９番４号,,13,202,1900022,,,,,,,2021-12-20,1,,,,,タラクジギョウソウハツキコウ,0
2211,9013301048450,新規,0,2021-12-20,2021-12-20,株式会社Ｅｉｇｈｔ,,株式会社,東京都,豊島区,池袋２丁目４９番１４－４０３号,,13,116,1710014,,,,,,,2021-12-20,1,,,,,エイト,0
2223,9020001144422,新規,0,2021-12-20,2021-12-20,株式会社新輝,,株式会社,神奈川県,横浜市神奈川区,菅田町１６２２番地,,14,102,2210864,,,,,,,2021-12-20,1,,,,,シンキ,0
2224,9020001144430,新規,0,2021-12-20,2021-12-20,青葉電設株式会社,,株式会社,神奈川県,横浜市青葉区,榎が丘１４番地４サンクレスト青葉台２０２,,14,117,2270063,,,,,,,2021-12-20,1,,,,,アオバデンセツ,0
2228,9020003021009,新規,0,2021-12-20,2021-12-20,合同会社マネット,,合同会社,神奈川県,横浜市栄区,笠間２丁目４番１３号１０２,,14,115,2470006,,,,,,,2021-12-20,1,,,,,マネット,0
2234,9030001145907,新規,0,2021-12-20,2021-12-20,株式会社共栄,,株式会社,埼玉県,川越市,霞ケ関北４丁目２１番地１１,,11,201,3501109,,,,,,,2021-12-20,1,,,,,キョウエイ,0
2235,9030001145931,新規,0,2021-12-20,2021-12-20,竹田商事株式会社,,株式会社,埼玉県,さいたま市岩槻区,大字掛５２７番地５,,11,110,3390078,,,,,,,2021-12-20,1,,,,,タケダショウジ,0
2236,9030001145956,新規,0,2021-12-20,2021-12-20,株式会社オオヒラ,,株式会社,埼玉県,桶川市,大字川田谷４７７２番地の２,,11,231,3630027,,,,,,,2021-12-20,1,,,,,オオヒラ,0
2239,9030003018516,新規,0,2021-12-20,2021-12-20,合同会社フラヴ,,合同会社,埼玉県,所沢市,元町２１番２９号,,11,208,3591121,,,,,,,2021-12-20,1,,,,,フラヴ,0
2240,9030003018524,新規,0,2021-12-20,2021-12-20,合同会社ウタウカンパニー,,合同会社,埼玉県,さいたま市南区,辻６丁目７番１３号,,11,108,3360026,,,,,,,2021-12-20,1,,,,,ウタウカンパニー,0
2250,9040001121444,新規,0,2021-12-20,2021-12-20,幕張総合地所株式会社,,株式会社,千葉県,千葉市花見川区,幕張町５丁目２２８番地５,,12,102,2620032,,,,,,,2021-12-20,1,,,,,マクハリソウゴウジショ,0
2251,9040001121452,新規,0,2021-12-20,2021-12-20,サポートプロジェクト株式会社,,株式会社,千葉県,千葉市若葉区,若松町２３９２番地１５,,12,104,2640021,,,,,,,2021-12-20,1,,,,,サポートプロジェクト,0
2254,9040003019158,新規,0,2021-12-20,2021-12-20,ａｔｅ合同会社,,合同会社,千葉県,四街道市,和良比２２２－１７７サンステップハウス２０１,,12,228,2840044,,,,,,,2021-12-20,1,,,,,エイト,0
2256,9050001050320,新規,0,2021-12-20,2021-12-20,株式会社Ｏテック,,株式会社,茨城県,水戸市,元石川町２２５４番地の３３,,08,201,3100843,,,,,,,2021-12-20,1,,,,,オーテック,0
2269,9080001024643,新規,0,2021-12-20,2021-12-20,株式会社ＴＩＭＥ,,株式会社,静岡県,静岡市清水区,庵原町１４８番地の１,,22,103,4240114,,,,,,,2021-12-20,1,,,,,タイム,0
2278,9100003006323,新規,0,2021-12-20,2021-12-20,合同会社ＨＡＳＥ　ｄｅ　ＫＯＤＡＷＡＡＲ,,合同会社,長野県,松本市,大字惣社１００番地５,,20,202,3900305,,,,,,,2021-12-20,1,,,,,ハセドコダワール,0
2290,9120001242612,新規,0,2021-12-20,2021-12-20,株式会社ＬｉｆｅＮｅｘｔ,,株式会社,大阪府,大阪市淀川区,木川西４丁目３－３９,,27,123,5320013,,,,,,,2021-12-20,1,,,,,ライフネクスト,0
2291,9120001242620,新規,0,2021-12-20,2021-12-20,株式会社ＧＲＥＥＮ,,株式会社,大阪府,大阪市中央区,久太郎町３丁目１番２７号船場大西ビル１Ｆ,,27,128,5410056,,,,,,,2021-12-20,1,,,,,グリーン,0
2292,9120003020801,新規,0,2021-12-20,2021-12-20,合同会社れんげ,,合同会社,大阪府,大阪市淀川区,三津屋南１丁目７番９号,,27,123,5320035,,,,,,,2021-12-20,1,,,,,レンゲ,0
2298,9120103004480,新規,0,2021-12-20,2021-12-20,合同会社Ｈｏｍｅ　Ｒｅｐａｉｒ安芸,,合同会社,大阪府,泉佐野市,日根野２１５６番地の２１,,27,213,5980021,,,,,,,2021-12-20,1,,,,,ホームリペアアキ,0
2303,9120901045362,新規,0,2021-12-20,2021-12-20,ＨｕｍａｎＦｕｔｕｒｅ株式会社,,株式会社,大阪府,高槻市,宮野町２番１７号,,27,207,5690081,,,,,,,2021-12-20,1,,,,,ヒューマンフューチャー,0
2308,9130001070748,新規,0,2021-12-20,2021-12-20,株式会社イワノ電化サービス,,株式会社,京都府,向日市,寺戸町久々相８番地の２,,26,208,6170002,,,,,,,2021-12-20,1,,,,,イワノデンカサービス,0
2318,9140001124247,新規,0,2021-12-20,2021-12-20,株式会社アドア,,株式会社,兵庫県,西宮市,小松西町２丁目１番鳴尾小松住宅１０１号,,28,204,6638125,,,,,,,2021-12-20,1,,,,,アドア,0
2320,9140003017127,新規,0,2021-12-20,2021-12-20,エレクトローンチ合同会社,,合同会社,兵庫県,神戸市北区,有馬町１８０番地の７谷田有馬マンション１０２,,28,109,6511401,,,,,,,2021-12-20,1,,,,,エレクトローンチ,0
2323,9160001023884,新規,0,2021-12-20,2021-12-20,株式会社たか峰,,株式会社,滋賀県,大津市,島の関６番１０号,,25,201,5200042,,,,,,,2021-12-20,1,,,,,タカミネ,0
2331,9180001149117,新規,0,2021-12-20,2021-12-20,株式会社ＨＩＴＯ－ＩＫＩ,,株式会社,愛知県,名古屋市中村区,名駅５丁目１０番７号花車ビル中館１０３号,,23,105,4500002,,,,,,,2021-12-20,1,,,,,ヒトイキ,0
2332,9180001149174,新規,0,2021-12-20,2021-12-20,株式会社Ｆ・Ｉｎｖｅｓｔｍｅｎｔ,,株式会社,愛知県,名古屋市中村区,日吉町２５番地,,23,105,4530029,,,,,,,2021-12-20,1,,,,,エフインベストメント,0
2333,9180001149216,新規,0,2021-12-20,2021-12-20,株式会社ＫＩＲＩＢＡＳＳ,,株式会社,愛知県,名古屋市熱田区,野立町３丁目１７番地,,23,109,4560066,,,,,,,2021-12-20,1,,,,,キリバス,0
2336,9180301035727,新規,0,2021-12-20,2021-12-20,株式会社ラッキーヘブン,,株式会社,愛知県,豊橋市,上野町字上原１９,,23,201,4418157,,,,,,,2021-12-20,1,,,,,ラッキーヘブン,0
2337,9180301035735,新規,0,2021-12-20,2021-12-20,株式会社ワイエスフード,,株式会社,愛知県,豊川市,馬場町上石畑４７番地,,23,207,4420811,,,,,,,2021-12-20,1,,,,,ワイエスフード,0
2339,9180303005199,新規,0,2021-12-20,2021-12-20,合同会社ヒュドール,,合同会社,愛知県,豊橋市,つつじが丘２丁目２２番地２０,,23,201,4400858,,,,,,,2021-12-20,1,,,,,ヒュドール,0
2340,9190001028947,新規,0,2021-12-20,2021-12-20,株式会社森下組,,株式会社,三重県,鈴鹿市,江島町３８４５番地,,24,207,5100237,,,,,,,2021-12-20,1,,,,,モリシタグミ,0
2341,9190001028955,新規,0,2021-12-20,2021-12-20,株式会社軸屋工業,,株式会社,三重県,鈴鹿市,石薬師町２３９７番地の９,,24,207,5130012,,,,,,,2021-12-20,1,,,,,ジクヤコウギョウ,0
2343,9190003003849,新規,0,2021-12-20,2021-12-20,合同会社ＹＳＣ,,合同会社,三重県,津市,観音寺町６０４番地５８,,24,201,5140062,,,,,,,2021-12-20,1,,,,,ワイエスシー,0
2344,9210001018730,新規,0,2021-12-20,2021-12-20,株式会社ＮＫ機材,,株式会社,福井県,敦賀市,金山３１号６番地の５,,18,202,9140146,,,,,,,2021-12-20,1,,,,,エヌケーキザイ,0
2349,9230001019140,新規,0,2021-12-20,2021-12-20,株式会社ＲｉＣメンテナンス,,株式会社,富山県,富山市,新庄町２丁目９番８号,,16,201,9300992,,,,,,,2021-12-20,1,,,,,リックメンテナンス,0
2354,9240005015309,新規,0,2021-12-20,2021-12-20,一般社団法人自立と共生のくらし,,その他の設立登記法人,広島県,福山市,多治米町３丁目２１番２０号,,34,207,7200824,,,,,,,2021-12-20,1,,,,,ジリツトキョウセイノクラシ,0
2355,9250001019304,新規,0,2021-12-20,2021-12-20,株式会社凛と,,株式会社,山口県,山陽小野田市,北竜王町１７番２９号,,35,216,7560833,,,,,,,2021-12-20,1,,,,,リント,0
2358,9260001036331,新規,0,2021-12-20,2021-12-20,株式会社ＮＥＶＥＲＬＡＮＤ,,株式会社,岡山県,倉敷市,新田３２０２番地６,,33,202,7100038,,,,,,,2021-12-20,1,,,,,ネバーランド,0
2363,9290001095622,新規,0,2021-12-20,2021-12-20,株式会社ｓＵｎ’ｓ,,株式会社,福岡県,朝倉市,上秋月１２２２番地７,,40,228,8380019,,,,,,,2021-12-20,1,,,,,サンズ,0
2367,9290801028095,新規,0,2021-12-20,2021-12-20,株式会社山栄,,株式会社,福岡県,北九州市小倉北区,西港町３４番７,,40,106,8030801,,,,,,,2021-12-20,1,,,,,サンエイ,0
2368,9290803004012,新規,0,2021-12-20,2021-12-20,合同会社ＴＳＵＭＵＧＩ,,合同会社,福岡県,遠賀郡水巻町,猪熊８丁目１１－３,,40,382,8070001,,,,,,,2021-12-20,1,,,,,ツムギ,0
2370,9320001018793,新規,0,2021-12-20,2021-12-20,株式会社Ｇａｒｄｅｎ工房,,株式会社,大分県,大分市,大字荏隈３８１番地の１ラポール荏隈新町４０１,,44,201,8700889,,,,,,,2021-12-20,1,,,,,ガーデンコウボウ,0
2371,9320003003678,新規,0,2021-12-20,2021-12-20,ワイワイワークス合同会社,,合同会社,大分県,大分市,府内町２丁目６番１６号,,44,201,8700021,,,,,,,2021-12-20,1,,,,,ワイワイワークス,0
2373,9330001029286,新規,0,2021-12-20,2021-12-20,株式会社コッコファームホールディングス,,株式会社,熊本県,菊池市,森北１０７７番地,,43,210,8611312,,,,,,,2021-12-20,1,,,,,コッコファームホールディングス,0
2379,9360001029762,新規,0,2021-12-20,2021-12-20,ＴＩＥ株式会社,,株式会社,沖縄県,名護市,今帰仁古宇利２８１,,47,209,9050000,,,,,,,2021-12-20,1,,,,,ティアイイー,0
2380,9360001029787,新規,0,2021-12-20,2021-12-20,金竜組株式会社,,株式会社,沖縄県,豊見城市,宜保４丁目２－２４ルミエール宜保４０３,,47,212,9010244,,,,,,,2021-12-20,1,,,,,キンリュウグミ,0
2395,9430001085575,新規,0,2021-12-20,2021-12-20,株式会社ＳＴＡＲ,,株式会社,北海道,札幌市中央区,南五条西５丁目２１番地３第３旭観光ビル２階,,01,101,0640805,,,,,,,2021-12-20,1,,,,,スター,0
2396,9430001085625,新規,0,2021-12-20,2021-12-20,株式会社３Ｌ,,株式会社,北海道,札幌市白石区,東札幌二条３丁目４番２５号,,01,104,0030002,,,,,,,2021-12-20,1,,,,,スリーエル,0
2400,9440001008997,新規,0,2021-12-20,2021-12-20,ｎａｏｓ　ｐｌａｎ株式会社,,株式会社,北海道,亀田郡七飯町,大川９丁目１３番８号,,01,337,0411122,,,,,,,2021-12-20,1,,,,,ナオスプラン,0
2406,9470003002095,新規,0,2021-12-20,2021-12-20,合同会社ＴｏｒａｏＮａｔｉｏｎＳｔａｔｅ,,合同会社,香川県,高松市,常磐町１丁目９番地２５－２Ｆ,,37,201,7600054,,,,,,,2021-12-20,1,,,,,トラオネーションステイト,0
