sequenceNumber,corporateNumber,process,correct,updateDate,changeDate,name,nameImageId,kind,prefectureName,cityName,streetNumber,addressImageId,prefectureCode,cityCode,postCode,addressOutside,addressOutsideImageId,closeDate,closeCause,successorCorporateNumber,changeCause,assignmentDate,latest,enName,enPrefectureName,enCityName,enAddressOutside,furigana,hihyoji
15,1010005023787,登記記録の閉鎖等,0,2022-03-01,2022-02-28,一般社団法人東京あんしん相続おたすけ隊,,その他の設立登記法人,東京都,葛飾区,水元４丁目３番２４号,,13,122,1250032,,,2022-02-28,清算の結了等,,,2015-10-05,1,,,,,トウキョウアンシンソウゾクオタスケタイ,0
18,1010401066605,登記記録の閉鎖等,0,2022-03-01,2022-02-22,ケイ・エム・シー・コンサルティング株式会社,,株式会社,東京都,港区,赤坂８丁目６番９－６０６号,,13,103,1070052,,,2022-02-22,清算の結了等,,,2015-10-05,1,,,,,ケイエムシーコンサルティング,0
63,1020001022718,登記記録の閉鎖等,0,2022-03-01,2022-02-25,株式会社神奈川電子,,株式会社,神奈川県,横浜市保土ケ谷区,新井町６１４番地の２２コスモファミーユ西谷１０４号,,14,106,2400053,,,2022-02-25,清算の結了等,,,2015-10-05,1,,,,,カナガワデンシ,0
67,1020002016504,登記記録の閉鎖等,0,2022-03-01,2022-02-24,有限会社航文社,,有限会社,神奈川県,横浜市港南区,日野４丁目２４番２１号,,14,111,2340051,,,2022-02-24,清算の結了等,,,2015-10-05,1,,,,,,0
68,1020002046781,登記記録の閉鎖等,0,2022-03-01,2022-02-24,有限会社橋口電工,,有限会社,神奈川県,横浜市旭区,小高町１５５－２５,,14,112,2410015,,,2022-02-24,清算の結了等,,,2015-10-05,1,,,,,ハシグチデンコウ,0
71,1020003018053,登記記録の閉鎖等,0,2022-03-01,2022-02-24,合同会社Ｓｔａｙ　Ｈｕｎｇｒｙ,,合同会社,神奈川県,横浜市西区,花咲町５丁目１３２番地４－３０２号,,14,103,2200022,,,2022-02-24,清算の結了等,,,2020-06-23,1,,,,,ステイハングリー,0
84,1030002109579,登記記録の閉鎖等,0,2022-03-01,2022-02-22,有限会社チャンプ,,有限会社,埼玉県,さいたま市南区,大字円正寺３２番地３,,11,108,3360043,,,2022-02-22,清算の結了等,,,2015-10-05,1,,,,,チャンプ,0
88,1040001088286,登記記録の閉鎖等,0,2022-03-01,2022-02-18,株式会社通販の佐藤,,株式会社,千葉県,流山市,大字東深井４８２番地の７１,,12,220,2700101,,,2022-02-18,清算の結了等,,,2015-10-05,1,,,,,ツウハンノサトウ,0
117,1080401020786,登記記録の閉鎖等,0,2022-03-01,2022-02-28,株式会社Ｄｉａｒｙ,,株式会社,静岡県,浜松市南区,新貝町１８６番地の２,,22,134,4350023,,,2022-02-28,清算の結了等,,,2015-10-05,1,,,,,ダイアリー,0
137,1120101051631,登記記録の閉鎖等,0,2022-03-01,2022-02-24,株式会社ファミリーワールド,,株式会社,大阪府,大阪市阿倍野区,松崎町４丁目３番６号,,27,119,5450053,,,2022-02-24,清算の結了等,,,2015-10-05,1,,,,,ファミリーワールド,0
142,1120903001924,登記記録の閉鎖等,0,2022-03-01,2022-02-28,合同会社ａｌｃｈｅｍｉｓｔ,,合同会社,大阪府,吹田市,千里山西１丁目３６番５号,,27,205,5650851,,,2022-02-28,清算の結了等,,,2016-05-16,1,,,,,アルケミスト,0
144,1122001014239,登記記録の閉鎖等,0,2022-03-01,2022-02-25,株式会社カミタケ,,株式会社,大阪府,東大阪市,長田西３丁目２番１３号,,27,227,5770016,,,2022-02-25,清算の結了等,,,2015-10-05,1,,,,,カミタケ,0
153,1140003015872,登記記録の閉鎖等,0,2022-03-01,2022-02-25,合同会社ＤＴＩ　ＳＡＶＥ,,合同会社,兵庫県,三田市,南が丘２丁目３番２３号,,28,219,6691535,,,2022-02-25,清算の結了等,,,2021-02-02,1,,,,,ディーティアイセーブ,0
154,1140005008767,登記記録の閉鎖等,0,2022-03-01,2022-02-16,天理教古京分教会,,その他の設立登記法人,兵庫県,丹波篠山市,油井６８６番地の１,,28,221,6692114,,,2022-02-16,合併による解散等,4140005008764,令和４年２月１６日兵庫県丹波篠山市波賀野新田１４９番地の３天理教古今味分教会（4140005008764）に合併し解散,2015-10-05,1,,,,,テンリキョウコキョウブンキョウカイ,0
175,1180302012195,登記記録の閉鎖等,0,2022-03-01,2022-02-25,有限会社ひまわり動物病院,,有限会社,愛知県,豊橋市,北山町２０番１,,23,201,4418105,,,2022-02-25,清算の結了等,,,2015-10-05,1,,,,,ヒマワリドウブツビョウイン,0
176,1180303002889,登記記録の閉鎖等,0,2022-03-01,2022-02-18,合資会社桑原自動車修理工場,,合資会社,愛知県,新城市,字南畑３７番地の１,,23,221,4411386,,,2022-02-18,清算の結了等,,,2015-10-05,1,,,,,クワハラジドウシャシュウリコウジョウ,0
218,1310005001985,登記記録の閉鎖等,0,2022-03-01,2022-02-21,協同組合長与ショッピングセンター,,その他の設立登記法人,長崎県,西彼杵郡長与町,嬉里郷１０９８番地,,42,307,8512128,,,2022-02-21,清算の結了等,,,2015-10-05,1,,,,,ナガヨショッピングセンター,0
219,1310005002760,登記記録の閉鎖等,0,2022-03-01,2022-02-15,天理教日出岡分教会,,その他の設立登記法人,長崎県,佐世保市,潮見町２２番１４号,,42,202,8570834,,,2022-02-15,合併による解散等,1310005000574,令和４年２月１５日長崎市清水町７番２３号天理教鶴濱分教会（1310005000574）に合併し解散,2015-10-05,1,,,,,テンリキョウヒデオカブンキョウカイ,0
228,1370001044198,登記記録の閉鎖等,0,2022-03-01,2022-02-22,宮城橋爪株式会社,,株式会社,宮城県,仙台市若林区,鶴代町２番地１４,,04,103,9840001,,,2022-02-22,清算の結了等,,,2019-04-05,1,,,,,ミヤギハシヅメ,0
237,1410005001463,登記記録の閉鎖等,0,2022-03-01,2022-02-14,天理教羽後天王分教会,,その他の設立登記法人,秋田県,潟上市,天王字上の台５０番地,,05,211,0100201,,,2022-02-14,合併による解散等,5410005000890,令和４年２月１４日秋田市牛島東一丁目６番１６号天理教秋都分教会（5410005000890）に合併し解散,2015-10-05,1,,,,,,0
299,2011101074748,登記記録の閉鎖等,0,2022-03-01,2022-02-24,株式会社表参道フォースプラザ,,株式会社,東京都,千代田区,霞が関３丁目２番５号,,13,101,1000013,,,2022-02-24,清算の結了等,,,2015-10-05,1,,,,,オモテサンドウフォースプラザ,0
347,2030001073651,登記記録の閉鎖等,0,2022-03-01,2022-02-21,株式会社アルフアーキテクト,,株式会社,埼玉県,川口市,東川口６丁目８番２号,,11,203,3330801,,,2022-02-21,清算の結了等,,,2015-10-05,1,,,,,アルフアーキテクト,0
364,2040002010529,登記記録の閉鎖等,0,2022-03-01,2022-02-22,有限会社細内光機,,有限会社,千葉県,千葉市美浜区,高洲３丁目３番１棟２０９号,,12,106,2610004,,,2022-02-22,清算の結了等,,,2015-10-05,1,,,,,ホソウチコウキ,0
366,2040003016962,登記記録の閉鎖等,0,2022-03-01,2022-02-22,ＯＨ合同会社,,合同会社,千葉県,船橋市,芝山５丁目５番地３３号キャトルセゾン伊藤ＩＩ－１０３号,00122102,12,204,2740816,,,2022-02-22,清算の結了等,,,2021-02-08,1,,,,,オウ,0
374,2070005004979,登記記録の閉鎖等,0,2022-03-01,2022-02-24,桐生石油商業協同組合,,その他の設立登記法人,群馬県,桐生市,錦町３丁目１番３６号,,10,203,3760023,,,2022-02-24,清算の結了等,,,2015-10-05,1,,,,,キリュウセキユショウギョウ,0
383,2100002034257,登記記録の閉鎖等,0,2022-03-01,2022-02-25,有限会社トモノ,,有限会社,長野県,上伊那郡宮田村,３９１６番地,,20,388,3994301,,,2022-02-25,清算の結了等,,,2015-10-05,1,,,,,トモノ,0
385,2110003002617,登記記録の閉鎖等,0,2022-03-01,2022-02-22,合同会社ＥＦＦＯＲＴ,,合同会社,新潟県,燕市,吉田文京町１４番８号,,15,213,9590266,,,2022-02-22,清算の結了等,,,2015-10-05,1,,,,,エフォート,0
397,2120001222439,登記記録の閉鎖等,0,2022-03-01,2022-02-24,株式会社グローリライアンス,,株式会社,大阪府,大阪市東淀川区,大桐３丁目２６番９号,,27,114,5330011,,,2022-02-24,清算の結了等,,,2019-07-17,1,,,,,グローリライアンス,0
399,2120001236967,登記記録の閉鎖等,0,2022-03-01,2022-02-24,若井バルブ製造株式会社,,株式会社,大阪府,大阪市平野区,長吉長原１丁目８番１５－７０８号,,27,126,5470016,,,2022-02-24,清算の結了等,,,2021-06-23,1,,,,,ワカイバルブセイゾウ,0
404,2120102020857,登記記録の閉鎖等,0,2022-03-01,2022-02-24,有限会社エム・ワイ・コーポレーション,,有限会社,大阪府,岸和田市,葛城町８６７番地の１４,,27,202,5960824,,,2022-02-24,清算の結了等,,,2015-10-05,1,,,,,エムワイコーポレーション,0
407,2120902011568,登記記録の閉鎖等,0,2022-03-01,2022-02-25,有限会社横井調査設計,,有限会社,大阪府,高槻市,高西町１番２５号,,27,207,5690061,,,2022-02-25,清算の結了等,,,2015-10-05,1,,,,,ヨコイチョウサセッケイ,0
409,2130001040360,登記記録の閉鎖等,0,2022-03-01,2022-02-25,株式会社グッドランナー,,株式会社,京都府,向日市,鶏冠井町南七反田１１番１,,26,208,6170004,,,2022-02-25,清算の結了等,,,2015-10-05,1,,,,,グッドランナー,0
439,2180003012972,登記記録の閉鎖等,0,2022-03-01,2022-02-22,合資会社千鳥屋,,合資会社,愛知県,知多郡東浦町,大字緒川字竹塚８番地の４３,,23,442,4702102,,,2022-02-22,清算の結了等,,,2015-10-05,1,,,,,チドリヤ,0
461,2240002052542,登記記録の閉鎖等,0,2022-03-01,2022-02-21,有限会社オクダ,,有限会社,広島県,尾道市,御調町本２７６番地,,34,205,7220321,,,2022-02-21,清算の結了等,,,2015-10-05,1,,,,,オクダ,0
472,2260002013443,登記記録の閉鎖等,0,2022-03-01,2022-02-28,有限会社トシ,,有限会社,岡山県,岡山市中区,湊１０９番地３５,,33,102,7038266,,,2022-02-28,清算の結了等,,,2015-10-05,1,,,,,トシ,0
506,2370102000116,登記記録の閉鎖等,0,2022-03-01,2022-02-21,有限会社大原製作所,,有限会社,宮城県,柴田郡柴田町,大字上名生字新大原１２１番地,,04,323,9891611,,,2022-02-21,清算の結了等,,,2015-10-05,1,,,,,オオハラセイサクショ,0
509,2380001029338,登記記録の閉鎖等,0,2022-03-01,2022-02-25,アクティブクックジャパン株式会社,,株式会社,福島県,福島市,五月町３番２０号,,07,201,9608061,,,2022-02-25,合併による解散等,3380001000405,令和４年２月２５日福島市五月町３番２０号キョウワプロテック株式会社（3380001000405）に合併し解散,2018-08-03,1,,,,,アクティブクックジャパン,0
560,3010402013645,登記記録の閉鎖等,0,2022-03-01,2022-02-24,有限会社ライム機設,,有限会社,東京都,港区,芝浦２丁目１３番６号,,13,103,1080023,,,2022-02-24,清算の結了等,,,2015-10-05,1,,,,,ライムキセツ,0
566,3010501001204,登記記録の閉鎖等,0,2022-03-01,2022-02-28,サンイーグル装身具株式会社,,株式会社,東京都,台東区,柳橋２丁目１９番８号,,13,106,1110052,,,2022-02-28,清算の結了等,,,2015-10-05,1,,,,,サンイーグルソウシング,0
576,3010803002890,登記記録の閉鎖等,0,2022-03-01,2022-02-22,ユリイカ合同会社,,合同会社,茨城県,東茨城郡大洗町,桜道４０７番地の３,,08,309,3111307,,,2022-02-22,清算の結了等,,,2018-12-28,1,,,,,ユリイカ,0
581,3011001025610,登記記録の閉鎖等,0,2022-03-01,2022-02-17,株式会社ロッキーマウントサークル,,株式会社,東京都,渋谷区,本町２丁目４６番１号,,13,113,1510071,,,2022-02-17,清算の結了等,,,2015-10-05,1,,,,,ロッキーマウントサークル,0
604,3011102024412,登記記録の閉鎖等,0,2022-03-01,2022-02-22,有限会社スクランブル,,有限会社,東京都,新宿区,弁天町９番地,,13,104,1620851,,,2022-02-22,清算の結了等,,,2015-10-05,1,,,,,,0
611,3011401022174,登記記録の閉鎖等,0,2022-03-01,2022-02-25,株式会社ＥＴジャパン,,株式会社,東京都,板橋区,成増１丁目１３－２０,,13,119,1750094,,,2022-02-25,清算の結了等,,,2019-11-06,1,,,,,イーティージャパン,0
623,3012701012872,登記記録の閉鎖等,0,2022-03-01,2022-02-22,クラウドインボイス株式会社,,株式会社,東京都,新宿区,西新宿７丁目１８番２号ＴＡＰビル３階,,13,104,1600023,,,2022-02-22,清算の結了等,,,2015-10-05,1,,,,,クラウドインボイス,0
630,3020001138941,登記記録の閉鎖等,0,2022-03-01,2022-02-25,株式会社ネクスト,,株式会社,神奈川県,横浜市鶴見区,本町通２丁目４９番地,,14,101,2300048,,,2022-02-25,清算の結了等,,,2020-12-08,1,,,,,ネクスト,0
640,3021001036318,登記記録の閉鎖等,0,2022-03-01,2022-02-22,株式会社加川商事,,株式会社,神奈川県,平塚市,錦町２番２５号,,14,203,2540044,,,2022-02-22,清算の結了等,,,2015-10-05,1,,,,,カガワショウジ,0
648,3030001124379,登記記録の閉鎖等,0,2022-03-01,2022-02-25,佐藤農業株式会社,,株式会社,埼玉県,春日部市,小渕１９１２番地１８,,11,214,3440007,,,2022-02-25,清算の結了等,,,2018-02-21,1,,,,,サトウノウギョウ,0
662,3040002012425,登記記録の閉鎖等,0,2022-03-01,2022-02-22,有限会社ラックサービス,,有限会社,千葉県,千葉市中央区,宮崎町５４６番地の４５,,12,101,2600805,,,2022-02-22,清算の結了等,,,2015-10-05,1,,,,,ラックサービス,0
676,3070005003336,登記記録の閉鎖等,0,2022-03-01,2022-02-18,医療法人薫波会,,その他の設立登記法人,群馬県,高崎市,井野町９９６番地３,,10,202,3700004,,,2022-02-18,清算の結了等,,,2015-10-05,1,,,,,クンパカイ,0
688,3100002017236,登記記録の閉鎖等,0,2022-03-01,2022-02-25,有限会社戸狩興産,,有限会社,長野県,飯山市,大字照里１１８８番地２号,,20,213,3892413,,,2022-02-25,清算の結了等,,,2015-10-05,1,,,,,トガリコウサン,0
706,3120001213494,登記記録の閉鎖等,0,2022-03-01,2022-02-22,株式会社ＥＩＧＨＴ,,株式会社,大阪府,大阪市中央区,日本橋１丁目２５番１６号７０４,,27,128,5420073,,,2022-02-22,清算の結了等,,,2018-05-18,1,,,,,エイト,0
723,3130001016616,登記記録の閉鎖等,0,2022-03-01,2022-02-25,株式会社サン・ウォーター,,株式会社,京都府,京都市下京区,西木屋町通正面下る八王子町１１１番地,,26,106,6008139,,,2022-02-25,清算の結了等,,,2015-10-05,1,,,,,サンウォーター,0
739,3140003013255,登記記録の閉鎖等,0,2022-03-01,2022-02-24,合同会社みつばち,,合同会社,兵庫県,宝塚市,安倉中５丁目１３番５号,,28,214,6650822,,,2022-02-24,清算の結了等,,,2018-08-20,1,,,,,ミツバチ,0
743,3180001023178,登記記録の閉鎖等,0,2022-03-01,2022-02-17,株式会社青山鑑定,,株式会社,愛知県,名古屋市天白区,海老山町１７０９番地,,23,116,4680042,,,2022-02-17,清算の結了等,,,2015-10-05,1,,,,,アオヤマカンテイ,0
744,3180001077760,登記記録の閉鎖等,0,2022-03-01,2022-02-22,株式会社アーキテクトブレイン,,株式会社,愛知県,春日井市,中切町３丁目３番地の１３,,23,206,4860925,,,2022-02-22,合併による解散等,6180001127083,令和４年２月２２日名古屋市中村区名駅一丁目１番１号ＪＰタワー名古屋２１階株式会社ワンダー（6180001127083）に合併し解散,2015-10-05,1,,,,,アーキテクトブレイン,0
754,3180301006353,登記記録の閉鎖等,0,2022-03-01,2022-02-24,株式会社東部サービスショップ,,株式会社,愛知県,豊橋市,東小鷹野４丁目２１番地の２２,,23,201,4400012,,,2022-02-24,清算の結了等,,,2022-01-28,1,,,,,トウブサービスショップ,0
768,3240002027650,登記記録の閉鎖等,0,2022-03-01,2022-02-28,有限会社佐伯建設,,有限会社,広島県,東広島市,黒瀬町乃美尾４１０番地の４,,34,212,7392622,,,2022-02-28,清算の結了等,,,2015-10-05,1,,,,,サエキケンセツ,0
774,3260002012717,登記記録の閉鎖等,0,2022-03-01,2022-03-01,有限会社アリスシステムサービス,,有限会社,岡山県,岡山市中区,赤田２２３番地の１,,33,102,7038231,,,2022-03-01,清算の結了等,,,2015-10-05,1,,,,,アリスシステムサービス,0
790,3290802012491,登記記録の閉鎖等,0,2022-03-01,2022-02-22,有限会社北九州カラーラボ,,有限会社,福岡県,北九州市八幡東区,西本町２丁目７番１９号,,40,108,8050061,,,2022-02-22,清算の結了等,,,2015-10-05,1,,,,,キタキュウシュウカラーラボ,0
810,3380002006871,登記記録の閉鎖等,0,2022-03-01,2022-02-24,有限会社サトー工建,,有限会社,福島県,伊達市,霊山町下小国字繕木２０番地の１,,07,213,9600808,,,2022-02-24,清算の結了等,,,2015-10-05,1,,,,,サトーコウケン,0
822,3470002007398,登記記録の閉鎖等,0,2022-03-01,2022-02-25,ランサー池下有限会社,,有限会社,香川県,高松市,中間町４５２番地１,,37,201,7618043,,,2022-02-25,清算の結了等,,,2015-10-05,1,,,,,ランサーイケシタ,0
830,3500002009762,登記記録の閉鎖等,0,2022-03-01,2022-02-28,有限会社昭和ダイニング,,有限会社,愛媛県,松山市,星岡４丁目２１番２４号,,38,201,7900922,,,2022-02-28,清算の結了等,,,2015-10-05,1,,,,,,0
837,4010003022490,登記記録の閉鎖等,0,2022-03-01,2022-02-24,合同会社こうめインベストメント,,合同会社,東京都,千代田区,霞が関３丁目２番６号東京倶楽部ビルディング１１階,,13,101,1000013,,,2022-02-24,清算の結了等,,,2015-10-14,1,,,,,コウメインベストメント,0
852,4010502020482,登記記録の閉鎖等,0,2022-03-01,2022-02-24,有限会社ウイル　ワン,,有限会社,東京都,台東区,松が谷２丁目１６番１０号,,13,106,1110036,,,2022-02-24,清算の結了等,,,2015-10-05,1,,,,,ウイルワン,0
860,4010801010481,登記記録の閉鎖等,0,2022-03-01,2022-02-22,藤原電設株式会社,,株式会社,東京都,大田区,矢口２丁目１８番１号,,13,111,1460093,,,2022-02-22,清算の結了等,,,2015-10-05,1,,,,,フジワラデンセツ,0
876,4011002020097,登記記録の閉鎖等,0,2022-03-01,2022-02-17,有限会社ステージメディア,,有限会社,東京都,渋谷区,幡ヶ谷２丁目１９番１号,,13,113,1510072,,,2022-02-17,清算の結了等,,,2015-10-05,1,,,,,ステージメディア,0
884,4011102000098,登記記録の閉鎖等,0,2022-03-01,2022-02-22,アイ・ジー・ビル有限会社,,有限会社,東京都,新宿区,歌舞伎町２丁目１０番１号石黒商事ビル,,13,104,1600021,,,2022-02-22,清算の結了等,,,2015-10-05,1,,,,,アイジービル,0
892,4011502004707,登記記録の閉鎖等,0,2022-03-01,2022-02-25,有限会社橋本製作所,,有限会社,東京都,北区,豊島８丁目１２番地１２号,,13,117,1140003,,,2022-02-25,清算の結了等,,,2015-10-05,1,,,,,ハシモトセイサクショ,0
902,4011803004587,登記記録の閉鎖等,0,2022-03-01,2022-02-22,合同会社ビューティフルエイジング,,合同会社,東京都,葛飾区,亀有３丁目５番６－３０２号ロイヤルシオン刈部,,13,122,1250061,,,2022-02-22,清算の結了等,,,2021-04-20,1,,,,,ビューティフルエイジング,0
923,4020002037720,登記記録の閉鎖等,0,2022-03-01,2022-02-24,有限会社キング・ランドリー,,有限会社,神奈川県,横浜市鶴見区,梶山２丁目２８番４号,,14,101,2300072,,,2022-02-24,清算の結了等,,,2015-10-05,1,,,,,キングランドリー,0
942,4030001109651,登記記録の閉鎖等,0,2022-03-01,2022-02-24,株式会社ＬＩＮＸＧＡＴＥ,,株式会社,埼玉県,さいたま市桜区,道場２丁目１番１号,,11,106,3380835,,,2022-02-24,清算の結了等,,,2015-10-05,1,,,,,リンクスゲート,0
961,4050002033329,登記記録の閉鎖等,0,2022-03-01,2022-02-24,有限会社寺田製作所,,有限会社,茨城県,龍ケ崎市,小通幸谷町４６番地の２,,08,208,3010034,,,2022-02-24,清算の結了等,,,2015-10-05,1,,,,,テラダセイサクショ,0
962,4050003002472,登記記録の閉鎖等,0,2022-03-01,2022-02-22,合同会社ビーネット,,合同会社,茨城県,常総市,菅生町１６３５,,08,211,3030044,,,2022-02-22,清算の結了等,,,2015-10-05,1,,,,,ビーネット,0
965,4070001003066,登記記録の閉鎖等,0,2022-03-01,2022-02-25,株式会社マツフジ,,株式会社,群馬県,前橋市,元総社町字寺田６１番地１,,10,201,3710846,,,2022-02-25,清算の結了等,,,2015-10-05,1,,,,,マツフジ,0
966,4070001017801,登記記録の閉鎖等,0,2022-03-01,2022-02-28,堤住宅株式会社,,株式会社,群馬県,北群馬郡吉岡町,大字小倉５４７番地の１,,10,345,3703607,,,2022-02-28,清算の結了等,,,2015-10-05,1,,,,,ツツミジュウタク,0
967,4080001001630,登記記録の閉鎖等,0,2022-03-01,2022-02-28,三興紙器株式会社,,株式会社,静岡県,静岡市葵区,日出町１０－２,,22,101,4200837,,,2022-02-28,清算の結了等,,,2015-10-05,1,,,,,サンコウシキ,0
968,4080005007327,登記記録の閉鎖等,0,2022-03-01,2022-02-28,特定非営利活動法人さくらいろ静岡,,その他の設立登記法人,静岡県,静岡市駿河区,大谷６８５番地の１リージェント大谷Ａ棟１０２号室,,22,102,4228017,,,2022-02-28,清算の結了等,,,2021-01-12,1,,,,,サクライロシズオカ,0
995,4130005012602,登記記録の閉鎖等,0,2022-03-01,2022-02-25,特定非営利活動法人日本予防医学代替医療学院,,その他の設立登記法人,京都府,京田辺市,草内鐘鉦割４２番地の１４、２－４２２号,,26,211,6100311,,,2022-02-25,清算の結了等,,,2015-10-05,1,,,,,,0
1012,4140003010739,登記記録の閉鎖等,0,2022-03-01,2022-02-16,ノアルエンジ合同会社,,合同会社,兵庫県,加古川市,西神吉町辻４４６番地の２６,00041893,28,210,6750046,,,2022-02-16,清算の結了等,,,2015-10-05,1,,,,,ノアルエンジ,0
1014,4150001016563,登記記録の閉鎖等,0,2022-03-01,2022-02-25,スリー・デバイス株式会社,,株式会社,奈良県,橿原市,西池尻町２７０番地４,,29,205,6340821,,,2022-02-25,合併による解散等,2120001029941,令和４年２月２１日大阪市港区波除一丁目１番１７号ミヤイ機工株式会社（2120001029941）に合併し解散,2015-10-05,1,,,,,スリーデバイス,0
1015,4150001021497,登記記録の閉鎖等,0,2022-03-01,2022-02-28,株式会社道艸舎,,株式会社,奈良県,奈良市,東九条町１１１２番地の１,,29,201,6308144,,,2022-02-28,合併による解散等,7150001001554,令和４年２月２８日奈良市東九条町１１１２番地の１株式会社中川政七商店（7150001001554）に合併し解散,2017-05-11,1,,,,,ミチクサヤ,0
1022,4180001071746,登記記録の閉鎖等,0,2022-03-01,2022-02-25,スターフ株式会社,,株式会社,東京都,新宿区,四谷３丁目１３番７号三栄ビル３Ａ,,13,104,1600004,,,2022-02-25,清算の結了等,,,2015-10-05,1,,,,,スターフ,0
1033,4200002013653,登記記録の閉鎖等,0,2022-03-01,2022-02-25,有限会社アクト東海,,有限会社,岐阜県,不破郡垂井町,栗原２３７番地,,21,361,5032123,,,2022-02-25,清算の結了等,,,2015-10-05,1,,,,,アクトトウカイ,0
1035,4200003005435,登記記録の閉鎖等,0,2022-03-01,2022-02-22,合名会社斉藤組,,合名会社,岐阜県,多治見市,（可児郡池田村池田町屋８４９番地）,,21,204,5070000,,,2022-02-22,清算の結了等,,,2022-02-02,1,,,,,,0
1049,4240003003105,登記記録の閉鎖等,0,2022-03-01,2022-02-17,合同会社シャクティ電工,,合同会社,広島県,呉市,長谷町７番１５号,,34,202,7370871,,,2022-02-17,清算の結了等,,,2015-10-16,1,,,,,シャクティデンコウ,0
1057,4280005003322,登記記録の閉鎖等,0,2022-03-01,2022-02-25,平田鋳造鉄工協同組合,,その他の設立登記法人,島根県,出雲市,西代町１０８７番地１,,32,203,6910012,,,2022-02-25,清算の結了等,,,2015-10-05,1,,,,,ヒラタチュウゾウテッコウ,0
1079,4390001014774,登記記録の閉鎖等,0,2022-03-01,2022-02-24,ＳＴＥＡＭＷＯＲＫＳ株式会社,,株式会社,山形県,村山市,大字大久保甲８８７番地１,,06,208,9950111,,,2022-02-24,清算の結了等,,,2017-01-25,1,,,,,スチームワークス,0
1090,4470005004854,登記記録の閉鎖等,0,2022-03-01,2022-02-09,天理教姫島分教会,00005752,その他の設立登記法人,香川県,小豆郡小豆島町,神浦甲４５９番地,,37,324,7614308,,,2022-02-09,合併による解散等,3470005004855,令和４年２月９日香川県小豆郡土庄町甲８８３番地天理教鐸姫分教会（3470005004855）に合併し解散,2015-10-05,1,,,,,テンリキョウヒメシマブンキョウカイ,0
1096,4490002003295,登記記録の閉鎖等,0,2022-03-01,2022-02-28,有限会社タブレット,,有限会社,高知県,高知市,介良乙３７２６番地２,,39,201,7815106,,,2022-02-28,清算の結了等,,,2015-10-05,1,,,,,タブレット,0
1123,5010401154430,登記記録の閉鎖等,0,2022-03-01,2022-02-04,株式会社Ｇｒｏｗｉｎｇ　Ｕｐ,,株式会社,東京都,港区,六本木３丁目７番１－２０１２号,,13,103,1060032,,,2022-02-04,清算の結了等,,,2020-08-07,1,,,,,グローイングアップ,0
1129,5010402020796,登記記録の閉鎖等,0,2022-03-01,2022-02-24,有限会社マスヤ,,有限会社,東京都,港区,白金台１丁目１番２１－４０４号,,13,103,1080071,,,2022-02-24,清算の結了等,,,2015-10-05,1,,,,,マスヤ,0
1134,5010501032461,登記記録の閉鎖等,0,2022-03-01,2022-02-24,株式会社遊扇,,株式会社,神奈川県,横浜市南区,前里町３丁目６１番地,,14,105,2320004,,,2022-02-24,清算の結了等,,,2015-10-05,1,,,,,ユウセン,0
1160,5011101074745,登記記録の閉鎖等,0,2022-03-01,2022-02-24,株式会社表参道ファーストタウン,,株式会社,東京都,中央区,日本橋１丁目４番１号,,13,102,1030027,,,2022-02-24,清算の結了等,,,2015-10-05,1,,,,,オモテサンドウファーストタウン,0
1176,5011801038066,登記記録の閉鎖等,0,2022-03-01,2022-02-25,株式会社Ｇｒｅｅｎ　Ｃａｐｉｔａｌ,,株式会社,東京都,葛飾区,奥戸７丁目１番４号,,13,122,1240022,,,2022-02-25,清算の結了等,,,2020-09-04,1,,,,,グリーンキャピタル,0
1214,5060001019285,登記記録の閉鎖等,0,2022-03-01,2022-02-17,モトミクロス工業株式会社,,株式会社,栃木県,足利市,大町５３１番地,,09,202,3260056,,,2022-02-17,清算の結了等,,,2015-10-05,1,,,,,,0
1224,5070002026908,登記記録の閉鎖等,0,2022-03-01,2022-02-24,有限会社水出建設,,有限会社,群馬県,渋川市,渋川２５１４番地,,10,208,3770008,,,2022-02-24,清算の結了等,,,2015-10-05,1,,,,,ミズイデケンセツ,0
1239,5100001028876,登記記録の閉鎖等,0,2022-03-01,2022-02-25,株式会社木曽路青空工房,,株式会社,長野県,木曽郡上松町,大字荻原１３５０番地２,,20,422,3995608,,,2022-02-25,清算の結了等,,,2015-12-02,1,,,,,キソジアオゾラコウボウ,0
1280,5140003016149,登記記録の閉鎖等,0,2022-03-01,2022-02-25,合同会社Ｓｃｏｂ　Ｌｉｆｅ,,合同会社,兵庫県,加古川市,尾上町養田１３３５番地の１,,28,210,6750025,,,2022-02-25,清算の結了等,,,2021-04-08,1,,,,,スコビライフ,0
1282,5140005005158,登記記録の閉鎖等,0,2022-03-01,2022-02-28,公益財団法人阪神・淡路大震災復興基金,,その他の設立登記法人,兵庫県,神戸市中央区,下山手通５丁目１０番１号,,28,110,6500011,,,2022-02-28,清算の結了等,,,2015-10-05,1,,,,,ハンシンアワジダイシンサイフッコウキキン,0
1288,5180001131680,登記記録の閉鎖等,0,2022-03-01,2022-02-25,株式会社ルジアーダ,,株式会社,愛知県,名古屋市西区,栄生１丁目４番１号,,23,104,4510052,,,2022-02-25,清算の結了等,,,2018-04-02,1,,,,,ルジアーダ,0
1300,5180301026028,登記記録の閉鎖等,0,2022-03-01,2022-02-25,株式会社浅岡歯研,,株式会社,愛知県,安城市,里町阿賀多１５番地２,,23,212,4460001,,,2022-02-25,清算の結了等,,,2015-10-05,1,,,,,アサオカシケン,0
1307,5200001017828,登記記録の閉鎖等,0,2022-03-01,2022-02-25,株式会社カンダ,,株式会社,岐阜県,可児市,土田３６３０番地,,21,214,5090206,,,2022-02-25,清算の結了等,,,2015-10-05,1,,,,,カンダ,0
1325,5260002002889,登記記録の閉鎖等,0,2022-03-01,2022-02-28,有限会社岸本戴男商店,,有限会社,岡山県,岡山市北区,西崎本町３番３号,,33,101,7000056,,,2022-02-28,清算の結了等,,,2015-10-05,1,,,,,キシモトマスオショウテン,0
1334,5290005009722,登記記録の閉鎖等,0,2022-03-01,2022-02-25,医療法人境胃腸科内科医院,,その他の設立登記法人,福岡県,久留米市,善導寺町木塚３８７番地の３,,40,203,8390822,,,2022-02-25,清算の結了等,,,2015-10-05,1,,,,,サカイイチョウカナイカイイン,0
1353,5380002004551,登記記録の閉鎖等,0,2022-03-01,2022-02-25,有限会社信夫開拓配送センター,,有限会社,福島県,福島市,大笹生字作田３３番地,,07,201,9600251,,,2022-02-25,清算の結了等,,,2015-10-05,1,,,,,シノブカイタクハイソウセンター,0
1360,5410005000908,登記記録の閉鎖等,0,2022-03-01,2022-02-17,日本山妙法寺秋田中僧伽,,その他の設立登記法人,秋田県,秋田市,楢山金照町６番１０号,,05,201,0100036,,,2022-02-17,清算の結了等,,,2015-10-05,1,,,,,ニッポンザンミョウホウジアキタチュウサンガ,0
1361,5430001064228,登記記録の閉鎖等,0,2022-03-01,2022-02-25,株式会社サンスィーズ,,株式会社,北海道,札幌市北区,北二十五条西１３丁目６番１４号,,01,102,0010025,,,2022-02-25,清算の結了等,,,2015-10-05,1,,,,,サンスィーズ,0
1388,6010105000649,登記記録の閉鎖等,0,2022-03-01,2022-02-09,天理教錦榮分教会,,その他の設立登記法人,東京都,八王子市,大和田町１丁目３４番１７号,,13,201,1920045,,,2022-02-09,合併による解散等,6010005000542,令和４年１月２７日東京都千代田区神田錦町一丁目１１番地天理教錦江大教会（6010005000542）に合併し解散,2015-10-05,1,,,,,テンリキョウキンエイブンキョウカイ,0
1403,6010605000900,登記記録の閉鎖等,0,2022-03-01,2022-02-21,東京都工作機械協同組合,,その他の設立登記法人,東京都,墨田区,石原４丁目２２番１号,,13,107,1300011,,,2022-02-21,清算の結了等,,,2015-10-05,1,,,,,トウキョウトコウサクキカイ,0
1408,6010901003268,登記記録の閉鎖等,0,2022-03-01,2022-02-24,株式会社キャサリンハーネル,,株式会社,東京都,世田谷区,経堂１丁目９番１９号,,13,112,1560052,,,2022-02-24,清算の結了等,,,2015-10-05,1,,,,,キャサリンハーネル,0
1424,6011301004955,登記記録の閉鎖等,0,2022-03-01,2022-02-24,東洋機材株式会社,,株式会社,東京都,府中市,宮町３丁目９番地の２０,,13,206,1830023,,,2022-02-24,清算の結了等,,,2015-10-05,1,,,,,トウヨウキザイ,0
1426,6011405001312,登記記録の閉鎖等,0,2022-03-01,2022-02-24,医療法人社団早佑会,,その他の設立登記法人,東京都,板橋区,大山町２６番７号,,13,119,1730023,,,2022-02-24,清算の結了等,,,2015-10-05,1,,,,,ソウユウカイ,0
1438,6012405002507,登記記録の閉鎖等,0,2022-03-01,2022-02-18,一般社団法人フォーチュン・ラボ,,その他の設立登記法人,東京都,町田市,原町田６丁目２９番８号,,13,209,1940013,,,2022-02-18,清算の結了等,,,2015-10-05,1,,,,,フォーチュンラボ,0
1446,6020001016913,登記記録の閉鎖等,0,2022-03-01,2022-02-24,株式会社関東総業,,株式会社,神奈川県,横浜市鶴見区,矢向１丁目３番２５号,,14,101,2300001,,,2022-02-24,清算の結了等,,,2015-10-05,1,,,,,,0
1452,6020003010146,登記記録の閉鎖等,0,2022-03-01,2022-02-25,合同会社ランスタット,,合同会社,神奈川県,川崎市川崎区,砂子２丁目５番地２２高木ビル４階,,14,131,2100006,,,2022-02-25,清算の結了等,,,2015-10-05,1,,,,,ランスタット,0
1476,6040002065767,登記記録の閉鎖等,0,2022-03-01,2022-02-22,有限会社クエスト,,有限会社,千葉県,四街道市,さちが丘１丁目２５番１１号,,12,228,2840025,,,2022-02-22,清算の結了等,,,2015-10-05,1,,,,,クエスト,0
1484,6070002033151,登記記録の閉鎖等,0,2022-03-01,2022-02-28,有限会社太田製作所,,有限会社,群馬県,館林市,緑町２丁目１０番１０号,,10,207,3740025,,,2022-02-28,清算の結了等,,,2015-10-05,1,,,,,,0
1486,6070003001017,登記記録の閉鎖等,0,2022-03-01,2022-02-22,合資会社花月旅館,,合資会社,群馬県,桐生市,宮前町２丁目７番１０号,,10,203,3760046,,,2022-02-22,清算の結了等,,,2021-08-30,1,,,,,カゲツリョカン,0
1487,6080001010555,登記記録の閉鎖等,0,2022-03-01,2022-02-28,株式会社ソッリーゾ,,株式会社,静岡県,静岡市清水区,銀座３番８号銀座スペースワン１Ｆ,,22,103,4240817,,,2022-02-28,清算の結了等,,,2015-10-05,1,,,,,,0
1538,6180003022274,登記記録の閉鎖等,0,2022-03-01,2022-02-21,合同会社Ｙｕｍｅｋｏ　Ｌａｂｏ,,合同会社,愛知県,名古屋市東区,泉１丁目１１－６ミソカビル２Ｆ,,23,102,4610001,,,2022-02-21,清算の結了等,,,2021-03-22,1,,,,,ユメコラボ,0
1544,6180303002777,登記記録の閉鎖等,0,2022-03-01,2022-02-28,合資会社まるき給食センター,,合資会社,愛知県,西尾市,矢曽根町寺後８２番地,,23,213,4450872,,,2022-02-28,清算の結了等,,,2015-10-05,1,,,,,マルキキュウショクセンター,0
1545,6190001007235,登記記録の閉鎖等,0,2022-03-01,2022-02-28,三興設計株式会社,,株式会社,三重県,伊勢市,藤里町６７１番地２,,24,203,5160043,,,2022-02-28,清算の結了等,,,2015-10-05,1,,,,,サンコウセッケイ,0
1553,6210002011968,登記記録の閉鎖等,0,2022-03-01,2022-02-24,宮原商事有限会社,,有限会社,福井県,越前市,村国１丁目７番１号,,18,209,9150084,,,2022-02-24,清算の結了等,,,2015-10-05,1,,,,,,0
1567,6260003001468,登記記録の閉鎖等,0,2022-03-01,2022-02-25,Ｍ’ｓファミリア合同会社,,合同会社,岡山県,新見市,馬塚５７番地１,,33,210,7180004,,,2022-02-25,清算の結了等,,,2015-10-05,1,,,,,エムズファミリア,0
1580,6290802020483,登記記録の閉鎖等,0,2022-03-01,2022-02-25,有限会社中尾鉄工所,,有限会社,福岡県,直方市,大字下新入４４０番地６,,40,204,8220032,,,2022-02-25,清算の結了等,,,2015-10-05,1,,,,,ナカオテッコウショ,0
1582,6310001006364,登記記録の閉鎖等,0,2022-03-01,2022-02-25,株式会社サン,,株式会社,長崎県,佐世保市,もみじが丘町４０番地１５,,42,202,8571153,,,2022-02-25,清算の結了等,,,2015-10-05,1,,,,,サン,0
1583,6310002014515,登記記録の閉鎖等,0,2022-03-01,2022-02-24,有限会社山添運送,,有限会社,長崎県,南松浦郡新上五島町,津和崎郷６４３番地３,,42,411,8574604,,,2022-02-24,清算の結了等,,,2015-10-05,1,,,,,ヤマゾエウンソウ,0
1590,6350001009611,登記記録の閉鎖等,0,2022-03-01,2022-02-25,株式会社トラベルパス・ツール,,株式会社,宮崎県,串間市,大字本城１１５１８番地,,45,207,8880008,,,2022-02-25,清算の結了等,,,2015-10-05,1,,,,,トラベルパスツール,0
1596,6370002007604,登記記録の閉鎖等,0,2022-03-01,2022-02-22,有限会社シーアイ企画,,有限会社,宮城県,仙台市宮城野区,安養寺２丁目３１番１２号,,04,102,9830832,,,2022-02-22,清算の結了等,,,2015-10-05,1,,,,,,0
1597,6370601003144,登記記録の閉鎖等,0,2022-03-01,2022-02-22,株式会社宝山産業,,株式会社,宮城県,宮城郡七ヶ浜町,汐見台６丁目２番地の１１１,,04,404,9850821,,,2022-02-22,清算の結了等,,,2015-10-05,1,,,,,ホウザンサンギョウ,0
1599,6390002013427,登記記録の閉鎖等,0,2022-03-01,2022-02-24,有限会社丸万旅館,,有限会社,山形県,米沢市,中央３丁目９番２８号,,06,202,9920045,,,2022-02-24,清算の結了等,,,2015-10-05,1,,,,,,0
1604,6430001065274,登記記録の閉鎖等,0,2022-03-01,2022-02-25,株式会社ユーシステム,,株式会社,北海道,札幌市東区,東苗穂十二条３丁目１番２８号,,01,103,0070812,,,2022-02-25,清算の結了等,,,2015-10-05,1,,,,,ユーシステム,0
1611,6480001008187,登記記録の閉鎖等,0,2022-03-01,2022-02-22,株式会社ＳＡ,,株式会社,千葉県,市川市,八幡３丁目３番２号グランドターミナルタワー本八幡４０４号室,,12,203,2720021,,,2022-02-22,清算の結了等,,,2015-10-05,1,,,,,エスエー,0
1614,6480005000875,登記記録の閉鎖等,0,2022-03-01,2022-02-28,徳島工芸協同組合,,その他の設立登記法人,徳島県,徳島市,南末広町２番８－１７号,,36,201,7700865,,,2022-02-28,清算の結了等,,,2015-10-05,1,,,,,,0
1626,7010003031522,登記記録の閉鎖等,0,2022-03-01,2022-02-17,ＡＤＳコンサルティング合同会社,,合同会社,東京都,千代田区,麹町４丁目５番２０号ＫＳビル８階,,13,101,1020083,,,2022-02-17,合併による解散等,5010003025377,令和４年２月１４日東京都中央区新富一丁目１１番１０－９０１号合同会社ダブルエイアイ（5010003025377）に合併し解散,2020-01-28,1,,,,,エイディエスコンサルティング,0
1649,7010703003333,登記記録の閉鎖等,0,2022-03-01,2022-02-28,合同会社上村マネージメント,,合同会社,東京都,品川区,東品川１丁目１９番１０号１階,,13,109,1400002,,,2022-02-28,清算の結了等,,,2016-11-07,1,,,,,ウエムラマネージメント,0
1664,7011101074751,登記記録の閉鎖等,0,2022-03-01,2022-02-24,株式会社表参道セブンプラザ,,株式会社,東京都,千代田区,麹町１丁目６番地９,,13,101,1020083,,,2022-02-24,清算の結了等,,,2015-10-05,1,,,,,オモテサンドウセブンプラザ,0
1671,7011201014698,登記記録の閉鎖等,0,2022-03-01,2022-02-21,株式会社ＩＧＳ総合研究所,,株式会社,東京都,中野区,鷺宮６丁目４番１５号,,13,114,1650032,,,2022-02-21,清算の結了等,,,2015-10-05,1,,,,,アイジーエスソウゴウケンキュウジョ,0
1679,7011401016288,登記記録の閉鎖等,0,2022-03-01,2022-02-24,株式会社ファミリーワーク,,株式会社,東京都,板橋区,舟渡３丁目１５番１２号,,13,119,1740041,,,2022-02-24,清算の結了等,,,2015-10-05,1,,,,,,0
1683,7011702010411,登記記録の閉鎖等,0,2022-03-01,2022-02-24,有限会社星川土木興業,,有限会社,東京都,江戸川区,興宮町２９番２号,,13,123,1330042,,,2022-02-24,清算の結了等,,,2015-10-05,1,,,,,ホシカワドボクコウギョウ,0
1693,7012805002618,登記記録の閉鎖等,0,2022-03-01,2022-02-24,一般社団法人ソーシャルワークぽむ,,その他の設立登記法人,東京都,日野市,西平山５丁目２３番地の２１,,13,212,1910055,,,2022-02-24,清算の結了等,,,2016-11-11,1,,,,,ソーシャルワークポム,0
1714,7021001024483,登記記録の閉鎖等,0,2022-03-01,2022-02-24,株式会社ガーネット,,株式会社,神奈川県,秦野市,堀山下７１３番地の４,,14,211,2591304,,,2022-02-24,清算の結了等,,,2015-10-05,1,,,,,ガーネット,0
1742,7070002018580,登記記録の閉鎖等,0,2022-03-01,2022-02-17,大島自動車工業有限会社,,有限会社,群馬県,伊勢崎市,三和町１２７７番地１,,10,204,3720011,,,2022-02-17,清算の結了等,,,2015-10-05,1,,,,,,0
1746,7080102016582,登記記録の閉鎖等,0,2022-03-01,2022-02-24,有限会社加藤木型製作所,,有限会社,静岡県,富士宮市,万野原新田３３２６番地,,22,207,4180001,,,2022-02-24,清算の結了等,,,2015-10-05,1,,,,,カトウキガタセイサクジョ,0
1750,7080401000312,登記記録の閉鎖等,0,2022-03-01,2022-02-24,株式会社アミトモ,,株式会社,静岡県,浜松市中区,西浅田２丁目４番３１号,,22,131,4328045,,,2022-02-24,清算の結了等,,,2015-10-05,1,,,,,アミトモ,0
1752,7090001007104,登記記録の閉鎖等,0,2022-03-01,2022-02-24,ＦＨ株式会社,,株式会社,山梨県,中央市,大鳥居２９４８番地の３,,19,214,4001513,,,2022-02-24,清算の結了等,,,2015-10-05,1,,,,,エフエイチ,0
1772,7120002014293,登記記録の閉鎖等,0,2022-03-01,2022-02-25,有限会社西川メリヤス,,有限会社,大阪府,大阪市此花区,梅香２丁目１番２１号,,27,104,5540013,,,2022-02-25,清算の結了等,,,2015-10-05,1,,,,,ニシカワメリヤス,0
1780,7120902015705,登記記録の閉鎖等,0,2022-03-01,2022-02-25,有限会社ファーストステージ,,有限会社,大阪府,池田市,伏尾台３丁目３番地の３５,,27,204,5630017,,,2022-02-25,清算の結了等,,,2015-10-05,1,,,,,ファーストステージ,0
1790,7140002052812,登記記録の閉鎖等,0,2022-03-01,2022-02-24,有限会社イチヤマ,,有限会社,兵庫県,姫路市,三条町１丁目６９番地,,28,201,6700953,,,2022-02-24,清算の結了等,,,2015-10-05,1,,,,,,0
1792,7140005008745,登記記録の閉鎖等,0,2022-03-01,2022-02-16,天理教河喜多分教会,,その他の設立登記法人,兵庫県,丹波篠山市,乾新町４３番地の４,,28,221,6692335,,,2022-02-16,合併による解散等,4140005008764,令和４年２月１６日兵庫県丹波篠山市波賀野新田１４９番地の３天理教古今味分教会（4140005008764）に合併し解散,2015-10-05,1,,,,,テンリキョウカワキタブンキョウカイ,0
1797,7170001016939,登記記録の閉鎖等,0,2022-03-01,2022-02-25,片山住宅株式会社,00125365,株式会社,和歌山県,和歌山市,吉田２２６番地,,30,201,6408343,,,2022-02-25,清算の結了等,,,2022-01-17,1,,,,,カタヤマジュウタク,0
1804,7180001114857,登記記録の閉鎖等,0,2022-03-01,2022-02-28,株式会社洸工業,,株式会社,三重県,桑名郡木曽岬町,大字和泉２８８番地２,,24,303,4980803,,,2022-02-28,清算の結了等,,,2015-10-05,1,,,,,ミツコウギョウ,0
1816,7180301025894,登記記録の閉鎖等,0,2022-03-01,2022-02-28,ナカノ建商株式会社,,株式会社,愛知県,岡崎市,大門５丁目１６番地７,,23,202,4442135,,,2022-02-28,清算の結了等,,,2015-10-05,1,,,,,,0
1817,7190001015633,登記記録の閉鎖等,0,2022-03-01,2022-02-25,株式会社東海ショーテック,,株式会社,三重県,四日市市,鵜の森２丁目３番１２号,,24,202,5100074,,,2022-02-25,合併による解散等,4190001014274,令和４年２月２５日三重県四日市市鵜の森二丁目３番１２号株式会社石かわ（4190001014274）に合併し解散,2015-10-05,1,,,,,トウカイショーテック,0
1823,7200005002683,登記記録の閉鎖等,0,2022-03-01,2022-02-28,特定非営利活動法人サイエンスものづくり塾・エジソンの会,,その他の設立登記法人,岐阜県,岐阜市,柳津町上佐波４丁目３１７番地,,21,201,5016121,,,2022-02-28,清算の結了等,,,2015-10-05,1,,,,,サイエンスモノヅクリジュクエジソンノカイ,0
1824,7210002001266,登記記録の閉鎖等,0,2022-03-01,2022-02-22,有限会社近藤設備機工,,有限会社,福井県,福井市,東今泉町第１２号５番地の１,,18,201,9188214,,,2022-02-22,清算の結了等,,,2015-10-05,1,,,,,コンドウセツビキコウ,0
1829,7220002011330,登記記録の閉鎖等,0,2022-03-01,2022-02-25,有限会社山田建設,,有限会社,石川県,小松市,南浅井町ハ１３番地,,17,203,9230852,,,2022-02-25,清算の結了等,,,2015-10-05,1,,,,,ヤマダケンセツ,0
1835,7240001011692,登記記録の閉鎖等,0,2022-03-01,2022-02-28,明設工業株式会社,,株式会社,広島県,大竹市,新町１丁目８番１８の１００４号,,34,211,7390611,,,2022-02-28,清算の結了等,,,2015-10-05,1,,,,,メイセツコウギョウ,0
1840,7240003004570,登記記録の閉鎖等,0,2022-03-01,2022-02-17,合同会社千龍荘,,合同会社,広島県,広島市安佐北区,口田南８丁目２３番３号,,34,106,7391733,,,2022-02-17,清算の結了等,,,2020-02-19,1,,,,,センリュウソウ,0
1841,7250001013424,登記記録の閉鎖等,0,2022-03-01,2022-02-22,防府土地建物株式会社,,株式会社,山口県,防府市,戎町１丁目７番７号,,35,206,7470036,,,2022-02-22,清算の結了等,,,2016-01-12,1,,,,,ホウフトチタテモノ,0
1846,7260002008158,登記記録の閉鎖等,0,2022-03-01,2022-02-28,有限会社久岡タイル,,有限会社,岡山県,岡山市南区,郡３６０番地の３,,33,104,7028011,,,2022-02-28,清算の結了等,,,2015-10-05,1,,,,,ヒサオカタイル,0
1867,7320002017301,登記記録の閉鎖等,0,2022-03-01,2022-02-28,有限会社政栄水産,,有限会社,大分県,佐伯市,大字荒網代浦４２９番地,,44,205,8760004,,,2022-02-28,清算の結了等,,,2015-10-05,1,,,,,マサエイスイサン,0
1869,7330002027951,登記記録の閉鎖等,0,2022-03-01,2022-02-25,有限会社日光自動車整備工場,,有限会社,熊本県,水俣市,塩浜町２番３号,,43,205,8670067,,,2022-02-25,清算の結了等,,,2015-10-05,1,,,,,ニッコウジドウシャセイビコウジョウ,0
1896,7460002003618,登記記録の閉鎖等,0,2022-03-01,2022-02-24,有限会社オフィスマル,,有限会社,北海道,釧路市,文苑１丁目４７番１３号,,01,206,0850063,,,2022-02-24,清算の結了等,,,2015-10-05,1,,,,,オフィスマル,0
1923,8010602012921,登記記録の閉鎖等,0,2022-03-01,2022-02-21,東和鋼業有限会社,,有限会社,東京都,墨田区,本所１丁目２０番７号,,13,107,1300004,,,2022-02-21,清算の結了等,,,2015-10-05,1,,,,,トウワコウギョウ,0
1957,8011803003940,登記記録の閉鎖等,0,2022-03-01,2022-02-24,日本順絡電子合同会社,,合同会社,東京都,葛飾区,新宿１丁目２２－１４,,13,122,1250051,,,2022-02-24,清算の結了等,,,2020-01-22,1,,,,,ニホンジュンラクデンシ,0
1972,8020001135595,登記記録の閉鎖等,0,2022-03-01,2022-02-24,ＢＤテクニカル株式会社,,株式会社,神奈川県,横浜市磯子区,汐見台２丁目５番地１ヒルコートテラス横浜汐見台Ａ棟４０７号,,14,107,2350022,,,2022-02-24,清算の結了等,,,2020-04-15,1,,,,,ビーディーテクニカル,0
1976,8021001034936,登記記録の閉鎖等,0,2022-03-01,2022-02-18,株式会社エス・パック・システム,,株式会社,神奈川県,足柄下郡真鶴町,岩８７４番地１８４,,14,383,2590202,,,2022-02-18,合併による解散等,3021001032804,令和４年１月３１日神奈川県足柄下郡真鶴町岩８７４番地１８４号西湘株式会社（3021001032804）に合併し解散,2015-10-05,1,,,,,エスパックシステム,0
1993,8040001029630,登記記録の閉鎖等,0,2022-03-01,2022-02-18,株式会社昭和土地,,株式会社,千葉県,浦安市,当代島３丁目１４番１０号,,12,227,2790001,,,2022-02-18,清算の結了等,,,2015-10-05,1,,,,,ショウワトチ,0
2010,8060005001559,登記記録の閉鎖等,0,2022-03-01,2022-02-22,特定非営利活動法人アディクションサポートセンターとちぎ,,その他の設立登記法人,栃木県,宇都宮市,下栗町２２９２－７,,09,201,3210923,,,2022-02-22,清算の結了等,,,2015-10-05,1,,,,,アディクションサポートセンタートチギ,0
2020,8100003005474,登記記録の閉鎖等,0,2022-03-01,2022-02-24,株式会社ＳＱＵＡＤ,,株式会社,大阪府,大阪市浪速区,難波中２丁目１０番７０号パークスタワー１９階,,27,111,5560011,,,2022-02-24,清算の結了等,,,2019-11-07,1,,,,,スクワッド,0
2023,8100005002040,登記記録の閉鎖等,0,2022-03-01,2022-02-24,特定非営利活動法人ふるさと研究所,,その他の設立登記法人,長野県,佐久市,甲４８番地２,,20,217,3842104,,,2022-02-24,清算の結了等,,,2015-10-05,1,,,,,フルサトケンキュウショ,0
2024,8110001011341,登記記録の閉鎖等,0,2022-03-01,2022-02-15,株式会社菅瀬商店,,株式会社,栃木県,宇都宮市,簗瀬町１８３７番地２,,09,201,3210933,,,2022-02-15,清算の結了等,,,2015-10-05,1,,,,,スガセショウテン,0
2056,8140001054890,登記記録の閉鎖等,0,2022-03-01,2022-02-24,株式会社ナインハンドレッドコーポレーション,,株式会社,兵庫県,尼崎市,下坂部２丁目２７番１２号,,28,202,6610975,,,2022-02-24,清算の結了等,,,2015-10-05,1,,,,,ナインハンドレッドコーポレーション,0
2069,8180001021805,登記記録の閉鎖等,0,2022-03-01,2022-02-24,株式会社広朋,,株式会社,愛知県,愛西市,立石町中１０３番地,,23,232,4968047,,,2022-02-24,清算の結了等,,,2015-10-05,1,,,,,コウホウ,0
2081,8180301030836,登記記録の閉鎖等,0,2022-03-01,2022-02-25,ＴＮＳ株式会社,,株式会社,愛知県,高浜市,神明町１丁目１１番地２９,,23,227,4441305,,,2022-02-25,清算の結了等,,,2017-10-13,1,,,,,ティーエヌエス,0
2117,8260002012019,登記記録の閉鎖等,0,2022-03-01,2022-02-28,有限会社松永建設,,有限会社,岡山県,岡山市南区,東畦３３番地の２,,33,104,7010211,,,2022-02-28,清算の結了等,,,2015-10-05,1,,,,,マツナガケンセツ,0
2128,8300001007667,登記記録の閉鎖等,0,2022-03-01,2022-02-21,ベンチャーライフ株式会社,,株式会社,佐賀県,唐津市,原１６７３番地４,,41,202,8470031,,,2022-02-21,清算の結了等,,,2015-10-05,1,,,,,ベンチャーライフ,0
2130,8320002017044,登記記録の閉鎖等,0,2022-03-01,2022-02-28,中浦水産有限会社,,有限会社,大分県,佐伯市,鶴見大字羽出浦５７６番地,,44,205,8761205,,,2022-02-28,清算の結了等,,,2015-10-05,1,,,,,,0
2139,8370001017230,登記記録の閉鎖等,0,2022-03-01,2022-02-22,株式会社Ｍ・Ｊ・Ｋ・ＳＯＬＵＴＩＯＮ,,株式会社,宮城県,仙台市若林区,沖野６丁目２番５号,,04,103,9840831,,,2022-02-22,清算の結了等,,,2015-10-05,1,,,,,,0
2143,8370302000686,登記記録の閉鎖等,0,2022-03-01,2022-02-22,有限会社河南葬儀社,,有限会社,宮城県,石巻市,広渕字町５６番地,,04,202,9871222,,,2022-02-22,清算の結了等,,,2015-10-05,1,,,,,カナンソウギシャ,0
2155,8470005004850,登記記録の閉鎖等,0,2022-03-01,2022-02-09,天理教金ヶ崎分教会,,その他の設立登記法人,香川県,小豆郡土庄町,肥土山甲１９７０番地,,37,322,7614151,,,2022-02-09,合併による解散等,3470005004855,令和４年２月９日香川県小豆郡土庄町甲８８３番地天理教鐸姫分教会（3470005004855）に合併し解散,2015-10-05,1,,,,,テンリキョウカナガサキブンキョウカイ,0
2165,9010001129977,登記記録の閉鎖等,0,2022-03-01,2022-02-24,バンコクキッチン株式会社,,株式会社,東京都,千代田区,飯田橋３丁目１番３号,,13,101,1020072,,,2022-02-24,清算の結了等,,,2015-10-05,1,,,,,バンコクキッチン,0
2202,9010702011343,登記記録の閉鎖等,0,2022-03-01,2022-02-25,有限会社三千代,,有限会社,東京都,品川区,上大崎２丁目２４番１８－３０１号,,13,109,1410021,,,2022-02-25,清算の結了等,,,2015-10-05,1,,,,,ミチヨ,0
2240,9011703002364,登記記録の閉鎖等,0,2022-03-01,2022-02-24,合同会社クリエイティブ彩,,合同会社,東京都,江戸川区,南篠崎町２丁目２９番７号,,13,123,1330065,,,2022-02-24,清算の結了等,,,2019-09-19,1,,,,,クリエイティブアヤ,0
2246,9012301010296,登記記録の閉鎖等,0,2022-03-01,2022-02-21,株式会社林華,,株式会社,東京都,町田市,原町田３丁目２番９号,,13,209,1940013,,,2022-02-21,清算の結了等,,,2015-10-22,1,,,,,リンカ,0
2263,9021002046888,登記記録の閉鎖等,0,2022-03-01,2022-02-24,古川重機有限会社,,有限会社,神奈川県,綾瀬市,落合南１丁目１０番１９号,,14,218,2521115,,,2022-02-24,清算の結了等,,,2015-10-05,1,,,,,フルカワジュウキ,0
2267,9030001069775,登記記録の閉鎖等,0,2022-03-01,2022-02-28,株式会社浜里電気,,株式会社,埼玉県,坂戸市,大字紺屋４１３番地３,,11,239,3500204,,,2022-02-28,清算の結了等,,,2015-10-05,1,,,,,ハマザトデンキ,0
2328,9120102026369,登記記録の閉鎖等,0,2022-03-01,2022-02-24,有限会社広栄工務店,,有限会社,大阪府,堺市南区,富蔵３６２７番,,27,145,5900127,,,2022-02-24,清算の結了等,,,2015-10-05,1,,,,,コウエイコウムテン,0
2334,9140005016226,登記記録の閉鎖等,0,2022-03-01,2022-02-25,医療法人社団成恵会中川眼科,,その他の設立登記法人,兵庫県,西宮市,甲子園口３丁目１５番１０号,,28,204,6638113,,,2022-02-25,清算の結了等,,,2015-10-05,1,,,,,セイケイカイナカガワガンカ,0
2335,9160001016178,登記記録の閉鎖等,0,2022-03-01,2022-02-25,株式会社キャッスルジャパン,,株式会社,滋賀県,野洲市,虫生２０１３番地８,,25,210,5202432,,,2022-02-25,清算の結了等,,,2015-10-05,1,,,,,,0
2360,9190002019978,登記記録の閉鎖等,0,2022-03-01,2022-02-25,有限会社久保見,,有限会社,三重県,四日市市,鵜の森２丁目３番１２号,,24,202,5100074,,,2022-02-25,合併による解散等,4190001014274,令和４年２月２５日三重県四日市市鵜の森二丁目３番１２号株式会社石かわ（4190001014274）に合併し解散,2015-10-05,1,,,,,クボミ,0
2364,9200002014622,登記記録の閉鎖等,0,2022-03-01,2022-02-25,有限会社サンバイオ中部,,有限会社,岐阜県,海津市,海津町平原６３番地,,21,221,5030651,,,2022-02-25,清算の結了等,,,2015-10-05,1,,,,,サンバイオチュウブ,0
2366,9220002012392,登記記録の閉鎖等,0,2022-03-01,2022-02-24,株式会社三栄ビル,,株式会社,石川県,加賀市,加茂町１０１番地３,,17,206,9220241,,,2022-02-24,清算の結了等,,,2015-10-05,1,,,,,サンエイビル,0
2370,9240002001807,登記記録の閉鎖等,0,2022-03-01,2022-02-25,有限会社うえの商事,,有限会社,広島県,広島市安芸区,中野２丁目６３番８号,,34,107,7390321,,,2022-02-25,清算の結了等,,,2015-10-05,1,,,,,ウエノショウジ,0
2380,9260002003826,登記記録の閉鎖等,0,2022-03-01,2022-02-28,コスモ・プランニング有限会社,,有限会社,岡山県,岡山市北区,十日市東町４番３号,,33,101,7000854,,,2022-02-28,清算の結了等,,,2015-10-05,1,,,,,コスモプランニング,0
2385,9290002036864,登記記録の閉鎖等,0,2022-03-01,2022-02-24,有限会社バンテック,,有限会社,福岡県,糟屋郡宇美町,障子岳南１丁目１１番８号,,40,341,8112126,,,2022-02-24,清算の結了等,,,2015-10-05,1,,,,,バンテック,0
2403,9370002006883,登記記録の閉鎖等,0,2022-03-01,2022-02-24,有限会社エムケーサービス,,有限会社,宮城県,仙台市宮城野区,中野１丁目３番地の２９,,04,102,9830013,,,2022-02-24,清算の結了等,,,2015-10-05,1,,,,,,0
