sequenceNumber,corporateNumber,process,correct,updateDate,changeDate,name,nameImageId,kind,prefectureName,cityName,streetNumber,addressImageId,prefectureCode,cityCode,postCode,addressOutside,addressOutsideImageId,closeDate,closeCause,successorCorporateNumber,changeCause,assignmentDate,latest,enName,enPrefectureName,enCityName,enAddressOutside,furigana,hihyoji
11,1010001245591,新規,0,2024-06-11,2024-06-11,ＮｅｘＳｐａｒｋ株式会社,,株式会社,東京都,中央区,勝どき４丁目６番２－３４０４号,,13,102,1040054,,,,,,,2024-06-11,1,,,,,ネクスパーク,0
12,1010001245600,新規,0,2024-06-11,2024-06-11,株式会社ＴＨＧ,,株式会社,東京都,中央区,勝どき５丁目３番１－４２１４号,,13,102,1040054,,,,,,,2024-06-11,1,,,,,ティーエイチジー,0
13,1010001245633,新規,0,2024-06-11,2024-06-11,株式会社Ｄｅｌｖａｎｃｅ,,株式会社,東京都,中央区,月島３丁目１３番４号,,13,102,1040052,,,,,,,2024-06-11,1,,,,,ディルバンス,0
14,1010001245674,新規,0,2024-06-11,2024-06-11,東京レスキュー助人サービス株式会社,,株式会社,東京都,中央区,佃２丁目２１番１１号,,13,102,1040051,,,,,,,2024-06-11,1,,,,,トウキョウレスキュースケットサービス,0
15,1010001245682,新規,0,2024-06-11,2024-06-11,株式会社才能集団,,株式会社,東京都,千代田区,神田和泉町１番地６－１６ヤマトビル４０５,,13,101,1010024,,,,,,,2024-06-11,1,,,,,サイノウシュウダン,0
16,1010001245690,新規,0,2024-06-11,2024-06-11,株式会社Ｇ７,,株式会社,東京都,中央区,銀座７丁目１５番８－４０４号,,13,102,1040061,,,,,,,2024-06-11,1,,,,,ジーセブン,0
20,1010003043993,新規,0,2024-06-11,2024-06-11,ＮＩＰＰＯＮ　ＴＵ合同会社,,合同会社,東京都,中央区,日本橋室町１丁目１１番１２号日本橋水野ビル７階,,13,102,1030022,,,,,,,2024-06-11,1,,,,,ニッポンティーユー,0
21,1010003044018,新規,0,2024-06-11,2024-06-11,ＥＶＯＬＩＮＫ合同会社,,合同会社,東京都,中央区,銀座１丁目１２番４号Ｎ＆ＥＢＬＤ．６Ｆ,,13,102,1040061,,,,,,,2024-06-11,1,,,,,エボリンク,0
22,1010005038397,新規,0,2024-06-11,2024-06-11,一般社団法人先進教育支援機構,,その他の設立登記法人,東京都,文京区,小石川２丁目１番２－２０１号,,13,105,1120002,,,,,,,2024-06-11,1,,,,,センシンキョウイクシエンキコウ,0
23,1010101016182,新規,0,2024-06-11,2024-06-11,ＹＳＴＳ株式会社,,株式会社,東京都,八王子市,旭町１番１２－１８０１号,,13,201,1920083,,,,,,,2024-06-11,1,,,,,ワイエスティーエス,0
24,1010101016190,新規,0,2024-06-11,2024-06-11,株式会社ディーフラックスジャパン,,株式会社,東京都,八王子市,東町１２番８号長澤ビル５Ｆ,,13,201,1920082,,,,,,,2024-06-11,1,,,,,ディーフラックスジャパン,0
35,1010401182922,新規,0,2024-06-11,2024-06-11,株式会社ｆｏｒｍｅｎｔ,,株式会社,東京都,港区,南麻布１丁目８番２１号,,13,103,1060047,,,,,,,2024-06-11,1,,,,,フォーメント,0
36,1010401183037,新規,0,2024-06-11,2024-06-11,株式会社あちゃ,,株式会社,東京都,港区,西麻布１丁目１５番７号４階,,13,103,1060031,,,,,,,2024-06-11,1,,,,,アチャ,0
37,1010401183045,新規,0,2024-06-11,2024-06-11,株式会社Ｔｉｅｒｒａ,,株式会社,東京都,港区,南青山３丁目１番３６号青山丸竹ビル６Ｆ,,13,103,1070062,,,,,,,2024-06-11,1,,,,,ティエラ,0
38,1010401183094,新規,0,2024-06-11,2024-06-11,一丸株式会社,,株式会社,東京都,港区,赤坂２丁目１７番６４－４０４号,,13,103,1070052,,,,,,,2024-06-11,1,,,,,イチマル,0
47,1010701046117,新規,0,2024-06-11,2024-06-11,Ｋ＆Ａ株式会社,,株式会社,東京都,品川区,北品川４丁目８番３３号御殿山ハウス６１８,,13,109,1400001,,,,,,,2024-06-11,1,,,,,ケイアンドエー,0
48,1010701046125,新規,0,2024-06-11,2024-06-11,ＭＡＳＯ株式会社,,株式会社,東京都,品川区,西大井１丁目１－２,,13,109,1400015,,,,,,,2024-06-11,1,,,,,マソ,0
51,1010801035127,新規,0,2024-06-11,2024-06-11,株式会社日本入れ歯情報センター,,株式会社,東京都,大田区,東嶺町３２番２１号,,13,111,1450074,,,,,,,2024-06-11,1,,,,,ニホンイレバジョウホウセンター,0
52,1010801035135,新規,0,2024-06-11,2024-06-11,株式会社ＷＢＪＳＯＦＴ,,株式会社,東京都,大田区,仲六郷３丁目２８番１号,,13,111,1440055,,,,,,,2024-06-11,1,,,,,ダブリュービージェイソフト,0
53,1010903009136,新規,0,2024-06-11,2024-06-11,合同会社ガラメキグループ,,合同会社,東京都,世田谷区,千歳台３丁目６番９－３０３号,,13,112,1570071,,,,,,,2024-06-11,1,,,,,ガラメキグループ,0
56,1011001162521,新規,0,2024-06-11,2024-06-11,エヌ＆リーヴス株式会社,,株式会社,東京都,渋谷区,渋谷１丁目２４番４渋谷こうゆうビル５０４号,,13,113,1500002,,,,,,,2024-06-11,1,,,,,エヌアンドリーヴス,0
57,1011001162661,新規,0,2024-06-11,2024-06-11,株式会社ＴＫＩ,,株式会社,東京都,渋谷区,鉢山町５番１８－２０２号,,13,113,1500035,,,,,,,2024-06-11,1,,,,,ティーケーアイ,0
62,1011101107616,新規,0,2024-06-11,2024-06-11,株式会社朝日エンジニアリングスタッフ,,株式会社,東京都,新宿区,下宮比町２番１号,,13,104,1620822,,,,,,,2024-06-11,1,,,,,アサヒエンジニアリングスタッフ,0
63,1011101107640,新規,0,2024-06-11,2024-06-11,Ｔｏｋｙｏ　Ｔｒａｎｓｆｅｒ　Ａｇｅｎｔ株式会社,,株式会社,東京都,新宿区,西新宿１丁目２０番３号西新宿高木ビル８階,00135109,13,104,1600023,,,,,,,2024-06-11,1,,,,,トウキョウトランスファーエージェント,0
64,1011101107649,新規,0,2024-06-11,2024-06-11,株式会社東京経営ばんく,,株式会社,東京都,新宿区,西新宿３丁目３－１３西新宿水間ビル２階,,13,104,1600023,,,,,,,2024-06-11,1,,,,,トウキョウケイエイバンク,0
65,1011101107657,新規,0,2024-06-11,2024-06-11,株式会社紅,,株式会社,東京都,新宿区,新宿１丁目２４番７－１１０１号,,13,104,1600022,,,,,,,2024-06-11,1,,,,,クレナイ,0
69,1011301029750,新規,0,2024-06-11,2024-06-11,株式会社ＦＪＭ,,株式会社,東京都,杉並区,西荻南４丁目１６番６号,,13,115,1670053,,,,,,,2024-06-11,1,,,,,エフジェイエム,0
70,1011401026160,新規,0,2024-06-11,2024-06-11,株式会社ジョブソリューションズ,,株式会社,東京都,板橋区,蓮根２丁目２７番１２号,,13,119,1740046,,,,,,,2024-06-11,1,,,,,ジョブソリューションズ,0
72,1011501030789,新規,0,2024-06-11,2024-06-11,鈴洋商事株式会社,,株式会社,東京都,荒川区,南千住４丁目９リバーハープタワー南千住第２号棟３５１０,,13,118,1160003,,,,,,,2024-06-11,1,,,,,レイヨウショウジ,0
78,1012401041950,新規,0,2024-06-11,2024-06-11,株式会社エムズコーポレーション,,株式会社,東京都,武蔵野市,中町３丁目５番１９号,,13,203,1800006,,,,,,,2024-06-11,1,,,,,エムズコーポレーション,0
79,1012401041967,新規,0,2024-06-11,2024-06-11,株式会社ＴＲＥＥ　ＯＮＥ,,株式会社,東京都,稲城市,長峰２丁目２６番地２０９号,,13,225,2060821,,,,,,,2024-06-11,1,,,,,ツリーワン,0
80,1012403006605,新規,0,2024-06-11,2024-06-11,合同会社栗原事務所,,合同会社,東京都,武蔵野市,吉祥寺本町１丁目２０番１号吉祥寺永谷シティプラザ８０８号室,,13,203,1800004,,,,,,,2024-06-11,1,,,,,クリハラジムショ,0
82,1012405005002,新規,0,2024-06-11,2024-06-11,一般社団法人ｋｉｋｉ,,その他の設立登記法人,東京都,小金井市,貫井北町４丁目１番１号,,13,210,1840015,,,,,,,2024-06-11,1,,,,,キキ,0
84,1012703003013,新規,0,2024-06-11,2024-06-11,合同会社ｂｍｓ,,合同会社,東京都,清瀬市,中里３丁目９５８番地２２,,13,221,2040003,,,,,,,2024-06-11,1,,,,,ビーエムエス,0
91,1020001157646,新規,0,2024-06-11,2024-06-11,株式会社にけ,,株式会社,神奈川県,横浜市栄区,田谷町１５３４番地３,,14,115,2440844,,,,,,,2024-06-11,1,,,,,ニケ,0
92,1020001157654,新規,0,2024-06-11,2024-06-11,大王国際貿易株式会社,,株式会社,神奈川県,横浜市青葉区,美しが丘西３丁目６３－１－３０１,,14,117,2250001,,,,,,,2024-06-11,1,,,,,,0
94,1020003026329,新規,0,2024-06-11,2024-06-11,合同会社ｓｔ　ｗｒｉｔｉｎｇ,,合同会社,神奈川県,川崎市麻生区,虹ケ丘１丁目１１番９号,,14,137,2150015,,,,,,,2024-06-11,1,,,,,エスティーライティング,0
95,1021001082438,新規,0,2024-06-11,2024-06-11,株式会社ファインドコーポレーション,,株式会社,神奈川県,座間市,緑ケ丘１丁目１８番２７号,,14,216,2520021,,,,,,,2024-06-11,1,,,,,ファインドコーポレーション,0
96,1021001082454,新規,0,2024-06-11,2024-06-11,株式会社坂尻モータース,00135097,株式会社,神奈川県,平塚市,夕陽ケ丘５６番７号,,14,203,2540806,,,,,,,2024-06-11,1,,,,,サカジリモータース,0
97,1021001082462,新規,0,2024-06-11,2024-06-11,株式会社ＢＯＲＤＥＲＬＥＳＳ,,株式会社,神奈川県,鎌倉市,扇ガ谷２丁目１７番６号,,14,204,2480011,,,,,,,2024-06-11,1,,,,,ボーダレス,0
98,1021001082470,新規,0,2024-06-11,2024-06-11,株式会社ＰＯＷＥＲＳ,,株式会社,神奈川県,茅ヶ崎市,松が丘２丁目１２番４号,,14,207,2530025,,,,,,,2024-06-11,1,,,,,パワーズ,0
107,1030001160772,新規,0,2024-06-11,2024-06-11,イーバイツ株式会社,,株式会社,埼玉県,越谷市,蒲生旭町１２－９ジュネパレス蒲生第２－３０６,,11,222,3430842,,,,,,,2024-06-11,1,,,,,イーバイツ,0
108,1030001160822,新規,0,2024-06-11,2024-06-11,株式会社新井工業,,株式会社,埼玉県,所沢市,中富南２丁目２５番地の１３,,11,208,3590003,,,,,,,2024-06-11,1,,,,,アライコウギョウ,0
109,1030001160863,新規,0,2024-06-11,2024-06-11,株式会社スエジ,,株式会社,埼玉県,上尾市,大字平塚９００番地７,00135113,11,219,3620000,,,,,,,2024-06-11,1,,,,,スエジ,0
110,1030001160871,新規,0,2024-06-11,2024-06-11,ＣＩＢ株式会社,,株式会社,埼玉県,川口市,前川２丁目１６番１７号,,11,203,3330842,,,,,,,2024-06-11,1,,,,,シーアイビー,0
119,1040001133983,新規,0,2024-06-11,2024-06-11,プラスワン株式会社,,株式会社,千葉県,柏市,西原１丁目４番３１－２０１号,,12,217,2770885,,,,,,,2024-06-11,1,,,,,プラスワン,0
120,1040001133991,新規,0,2024-06-11,2024-06-11,株式会社酒井自動車工業,,株式会社,千葉県,鴨川市,横渚１７２番地,,12,223,2960001,,,,,,,2024-06-11,1,,,,,サカイジドウシャコウギョウ,0
121,1040001134016,新規,0,2024-06-11,2024-06-11,Ｂｉｇ　Ｂｅａｔ株式会社,,株式会社,千葉県,浦安市,北栄１丁目１番３号,,12,227,2790002,,,,,,,2024-06-11,1,,,,,ビッグビート,0
126,1050001054898,新規,0,2024-06-11,2024-06-11,サカイハウジング株式会社,,株式会社,茨城県,高萩市,大字高戸２９４番地の１,,08,214,3180002,,,,,,,2024-06-11,1,,,,,サカイハウジング,0
127,1050001054931,新規,0,2024-06-11,2024-06-11,株式会社ＫＥＮＱ,,株式会社,茨城県,つくば市,吾妻２丁目５番地１号つくばスタートアップパーク,,08,220,3050031,,,,,,,2024-06-11,1,,,,,ケンク,0
130,1050003008431,新規,0,2024-06-11,2024-06-11,合同会社ドドド,,合同会社,茨城県,水戸市,宮町１丁目２番４号,,08,201,3100015,,,,,,,2024-06-11,1,,,,,ドドド,0
135,1060001037183,新規,0,2024-06-11,2024-06-11,株式会社ｕｎ,,株式会社,栃木県,宇都宮市,上戸祭町３８９番地７,,09,201,3200051,,,,,,,2024-06-11,1,,,,,アン,0
136,1060001037191,新規,0,2024-06-11,2024-06-11,パワーサービス株式会社,,株式会社,栃木県,小山市,城北２丁目１８番地１６,,09,208,3230029,,,,,,,2024-06-11,1,,,,,パワーサービス,0
144,1070005010284,新規,0,2024-06-11,2024-06-11,税理士法人いずみ,,その他の設立登記法人,群馬県,伊勢崎市,宮子町３２２０番地,,10,204,3720801,,,,,,,2024-06-11,1,,,,,イズミ,0
150,1100001037534,新規,0,2024-06-11,2024-06-11,ＧＳ　Ｌｅｄｇｅｒ株式会社,,株式会社,長野県,北佐久郡軽井沢町,軽井沢東２３番地２－２Ｆ,,20,321,3890104,,,,,,,2024-06-11,1,,,,,ジーエスレジャー,0
156,1110001038473,新規,0,2024-06-11,2024-06-11,株式会社オルファス,,株式会社,新潟県,新潟市秋葉区,あおば通１丁目４‐２３,,15,105,9560017,,,,,,,2024-06-11,1,,,,,オルファス,0
157,1110003005422,新規,0,2024-06-11,2024-06-11,合同会社リージョンアップ,,合同会社,新潟県,上越市,南本町３丁目５番４号,,15,222,9430841,,,,,,,2024-06-11,1,,,,,リージョンアップ,0
170,1120001265686,新規,0,2024-06-11,2024-06-11,株式会社亮晶晶,,株式会社,大阪府,大阪市浪速区,塩草２丁目７番８号,,27,111,5560024,,,,,,,2024-06-11,1,,,,,キララ,0
171,1120001265694,新規,0,2024-06-11,2024-06-11,株式会社ＬＹＮＸ,,株式会社,大阪府,門真市,三ツ島６丁目２５番２１号,,27,223,5710015,,,,,,,2024-06-11,1,,,,,リンクス,0
172,1120001265752,新規,0,2024-06-11,2024-06-11,株式会社ＡＧガード,,株式会社,大阪府,交野市,私市２丁目８番７－１０１号,,27,230,5760033,,,,,,,2024-06-11,1,,,,,エージーガード,0
173,1120001265785,新規,0,2024-06-11,2024-06-11,株式会社関西創建,,株式会社,大阪府,守口市,金田町３丁目１４番２号,,27,209,5700011,,,,,,,2024-06-11,1,,,,,カンサイソウケン,0
180,1120003026756,新規,0,2024-06-11,2024-06-11,合同会社五十五鈴,,合同会社,大阪府,大阪市東淀川区,東淡路２丁目２番５号モリホーム東淡路文化１０５号,,27,114,5330023,,,,,,,2024-06-11,1,,,,,ゴジュウゴリン,0
189,1120103005882,新規,0,2024-06-11,2024-06-11,三郎合同会社,,合同会社,大阪府,泉大津市,なぎさ町２－７－１６０５,,27,206,5950055,,,,,,,2024-06-11,1,,,,,サブロウ,0
190,1120103005890,新規,0,2024-06-11,2024-06-11,ＪＤ　ＩＮＴＥＲＮＡＴＩＯＮＡＬ合同会社,,合同会社,大阪府,河内長野市,松ケ丘東町１８１４番地の１,,27,216,5860007,,,,,,,2024-06-11,1,,,,,ジェイディーインターナショナル,0
193,1120901049296,新規,0,2024-06-11,2024-06-11,株式会社テイルビート,,株式会社,大阪府,高槻市,南松原町１６番５号,,27,207,5690085,,,,,,,2024-06-11,1,,,,,テイルビート,0
194,1120901049313,新規,0,2024-06-11,2024-06-11,株式会社ＭＡＨＡＲＯ,,株式会社,大阪府,吹田市,南金田１丁目７番３３号,,27,205,5640044,,,,,,,2024-06-11,1,,,,,マハロ,0
206,1140001134732,新規,0,2024-06-11,2024-06-11,株式会社ＡＣＫ,,株式会社,兵庫県,西宮市,津門仁辺町２番２１－６０５号,,28,204,6638246,,,,,,,2024-06-11,1,,,,,エーシーケー,0
207,1140001134740,新規,0,2024-06-11,2024-06-11,株式会社スリルアンドリアルティ,,株式会社,兵庫県,芦屋市,若葉町２番１－１４２４号,,28,206,6590041,,,,,,,2024-06-11,1,,,,,スリルアンドリアルティ,0
208,1140003020559,新規,0,2024-06-11,2024-06-11,合同会社まんてん,,合同会社,兵庫県,南あわじ市,賀集八幡南８番地２,,28,224,6560511,,,,,,,2024-06-11,1,,,,,マンテン,0
209,1140003020682,新規,0,2024-06-11,2024-06-11,暁合同会社,,合同会社,兵庫県,加古川市,別府町新野辺２２３９番地,,28,210,6750131,,,,,,,2024-06-11,1,,,,,アカツキ,0
210,1140005027107,新規,0,2024-06-11,2024-06-11,一般社団法人日本の杜づくり協会,,その他の設立登記法人,兵庫県,神戸市中央区,加納町６丁目３－２、７０７,,28,110,6500001,,,,,,,2024-06-11,1,,,,,ニッポンノモリヅクリキョウカイ,0
215,1160001025987,新規,0,2024-06-11,2024-06-11,株式会社ＭＪＩ,,株式会社,滋賀県,大津市,大萱２丁目１９番３５号,,25,201,5202144,,,,,,,2024-06-11,1,,,,,エムジェイアイ,0
216,1160001025995,新規,0,2024-06-11,2024-06-11,若葉工業株式会社,,株式会社,滋賀県,大津市,下阪本１丁目２１番５号,,25,201,5200105,,,,,,,2024-06-11,1,,,,,ワカバコウギョウ,0
217,1160003003207,新規,0,2024-06-11,2024-06-11,ＵＣＡ合同会社,,合同会社,滋賀県,大津市,鳥居川町６－３５－７０６,,25,201,5200854,,,,,,,2024-06-11,1,,,,,ユーシーエー,0
227,1180001161847,新規,0,2024-06-11,2024-06-11,Ｓｅｂａｓｔｉａｎ　Ｄｅｓｉｇｎ株式会社,,株式会社,愛知県,名古屋市緑区,池上台１丁目８２－５４,,23,114,4580044,,,,,,,2024-06-11,1,,,,,セバスチャンデザイン,0
228,1180001161855,新規,0,2024-06-11,2024-06-11,株式会社Ｗｅｌｌｎｅｓｓ　Ｅｎｇｉｎｅｅｒｉｎｇ,,株式会社,愛知県,名古屋市中村区,名駅４丁目２４番５号第２森ビル４０１,,23,105,4500002,,,,,,,2024-06-11,1,,,,,ウェルネスエンジニアリング,0
232,1190001031405,新規,0,2024-06-11,2024-06-11,株式会社ＭＩ,,株式会社,三重県,桑名市,松ノ木２丁目１７番地１２,,24,205,5110902,,,,,,,2024-06-11,1,,,,,エムアイ,0
235,1190003004706,新規,0,2024-06-11,2024-06-11,合同会社晟順,,合同会社,三重県,四日市市,ときわ５丁目２番４０号ヴィラときわ２Ｂ,,24,202,5100834,,,,,,,2024-06-11,1,,,,,セジュン,0
236,1190003004714,新規,0,2024-06-11,2024-06-11,合同会社シリトク,,合同会社,三重県,鈴鹿市,岡田２丁目８‐１６,,24,207,5130027,,,,,,,2024-06-11,1,,,,,シリトク,0
240,1200001042581,新規,0,2024-06-11,2024-06-11,天恵商事株式会社,,株式会社,岐阜県,岐阜市,中西郷１丁目１５４番地４,,21,201,5011177,,,,,,,2024-06-11,1,,,,,テンケイショウジ,0
257,1290001106048,新規,0,2024-06-11,2024-06-11,株式会社合同車体,,株式会社,福岡県,八女郡広川町,大字広川１２５２番地１１,,40,544,8340121,,,,,,,2024-06-11,1,,,,,ゴウドウシャタイ,0
258,1290001106106,新規,0,2024-06-11,2024-06-11,株式会社給設,,株式会社,福岡県,福岡市早良区,田村７丁目１０番２０号,,40,137,8140175,,,,,,,2024-06-11,1,,,,,キュウセツ,0
264,1330001032149,新規,0,2024-06-11,2024-06-11,株式会社優バスクマモト,,株式会社,熊本県,宇城市,小川町河江１０４番地５,,43,213,8690606,,,,,,,2024-06-11,1,,,,,ユウバスクマモト,0
268,1330003010409,新規,0,2024-06-11,2024-06-11,合同会社ＭＫアルパライズ,,合同会社,熊本県,球磨郡あさぎり町,免田東１９８１番地１８,,43,514,8680408,,,,,,,2024-06-11,1,,,,,エムケーアルパライズ,0
271,1340005009745,新規,0,2024-06-11,2024-06-11,クラウドＢＰＯ社会保険労務士法人,,その他の設立登記法人,鹿児島県,鹿児島市,山之口町１番１０号鹿児島中央ビルディング１１階,,46,201,8920844,,,,,,,2024-06-11,1,,,,,クラウドビーピーオー,0
273,1370001051392,新規,0,2024-06-11,2024-06-11,株式会社ＡＬＢＡＲＩＳＥ,,株式会社,宮城県,岩沼市,大手町４番３３－２号,,04,211,9892442,,,,,,,2024-06-11,1,,,,,アルバライズ,0
274,1370003006642,新規,0,2024-06-11,2024-06-11,合同会社ＮＩＣ,,合同会社,宮城県,登米市,迫町佐沼字北散田３３番地６,,04,212,9870511,,,,,,,2024-06-11,1,,,,,エヌアイシー,0
278,1380001034603,新規,0,2024-06-11,2024-06-11,株式会社長嶺鉄工所,,株式会社,福島県,岩瀬郡鏡石町,笠石１５８番地,,07,342,9690404,,,,,,,2024-06-11,1,,,,,ナガミネテッコウジョ,0
279,1380003005783,新規,0,2024-06-11,2024-06-11,合同会社富作,,合同会社,福島県,郡山市,西田町高柴字富作２１番地,,07,203,9630902,,,,,,,2024-06-11,1,,,,,トミサク,0
284,1430001091993,新規,0,2024-06-11,2024-06-11,株式会社北海道トリップ,,株式会社,北海道,千歳市,朝日町８丁目１２０６番地５１,,01,224,0660043,,,,,,,2024-06-11,1,,,,,ホッカイドウトリップ,0
285,1430001092001,新規,0,2024-06-11,2024-06-11,株式会社パイオビア,,株式会社,北海道,札幌市白石区,東札幌五条１丁目１番１号札幌市産業振興センター,,01,104,0030005,,,,,,,2024-06-11,1,,,,,パイオビア,0
286,1430001092018,新規,0,2024-06-11,2024-06-11,株式会社ルシェル,,株式会社,北海道,札幌市東区,北十一条東８丁目１番３号,,01,103,0650011,,,,,,,2024-06-11,1,,,,,ルシェル,0
287,1430003016445,新規,0,2024-06-11,2024-06-11,ＪＡＬＥＥＮＡ　ＭＯＴＯＲＳ合同会社,,合同会社,北海道,札幌市南区,澄川六条１０丁目１０番１号クリスタル５１０－２０１,,01,106,0050006,,,,,,,2024-06-11,1,,,,,ジャリーナモーターズ,0
291,1500001025688,新規,0,2024-06-11,2024-06-11,株式会社ＨＳＴ,,株式会社,愛媛県,松山市,空港通２丁目１７番４１号,,38,201,7900054,,,,,,,2024-06-11,1,,,,,エイチエスティ,0
296,1700150122927,新規,0,2024-06-11,2023-12-21,東地区コミュニティ推進協議会,,その他,青森県,十和田市,大字三本木字里ノ沢１－２４０,,02,206,0340001,,,,,,,2023-12-21,1,,,,,ヒガシチクコミユニテイスイシンキヨウギカイ,0
297,1700150125871,新規,0,2024-06-11,2024-06-11,ＳＡＫＵＲＡ　ＬＡＮＫＡ　ＥＮＴＥＲＰＲＩＳＥＳ,,外国会社等,神奈川県,厚木市,山際５０番地３－１０６号室,,14,212,2430803,スリランカ民主社会主義共和国、キャンディ、アクラナ、タルガハカンダ、Ｎｏ．２４９,,,,,,2024-06-11,1,,,,,サクラランカエンタプライセス,0
313,2010001245566,新規,0,2024-06-11,2024-06-11,株式会社ケーメディカル,,株式会社,東京都,千代田区,九段北４丁目１番３５号ＧＬＡＸ市ヶ谷一口坂１１０２,,13,101,1020073,,,,,,,2024-06-11,1,,,,,ケーメディカル,0
314,2010001245574,新規,0,2024-06-11,2024-06-11,株式会社ピクセルキャット,,株式会社,東京都,中央区,銀座１丁目１２番４号Ｎ＆ＥＢＬＤ．６Ｆ,,13,102,1040061,,,,,,,2024-06-11,1,,,,,ピクセルキャット,0
315,2010001245599,新規,0,2024-06-11,2024-06-11,株式会社レトム,,株式会社,東京都,中央区,八丁堀４丁目１２番４号６０６,,13,102,1040032,,,,,,,2024-06-11,1,,,,,レトム,0
316,2010001245608,新規,0,2024-06-11,2024-06-11,株式会社ＳＵＮＡＯ,,株式会社,東京都,中央区,日本橋室町１丁目２番６号日本橋大栄ビル７階,,13,102,1030022,,,,,,,2024-06-11,1,,,,,スナオ,0
317,2010001245624,新規,0,2024-06-11,2024-06-11,株式会社技術百科,,株式会社,東京都,中央区,入船１丁目２番８－７０６号,,13,102,1040042,,,,,,,2024-06-11,1,,,,,ギジュツヒャッカ,0
318,2010001245632,新規,0,2024-06-11,2024-06-11,株式会社ｈａｓｖｉｅｗ,,株式会社,東京都,千代田区,九段南１丁目５番６号りそな九段ビル５ＦＫＳフロア,,13,101,1020074,,,,,,,2024-06-11,1,,,,,ハズビュー,0
319,2010001245657,新規,0,2024-06-11,2024-06-11,株式会社ｇｒａｃｅ,,株式会社,東京都,千代田区,神田猿楽町２丁目８番５号,,13,101,1010064,,,,,,,2024-06-11,1,,,,,グレイス,0
321,2010003043992,新規,0,2024-06-11,2024-06-11,レディーバードキャピタル合同会社,,合同会社,東京都,中央区,日本橋兜町５番１号兜町第１平和ビル３Ｆ,,13,102,1030026,,,,,,,2024-06-11,1,,,,,レディーバードキャピタル,0
322,2010003044000,新規,0,2024-06-11,2024-06-11,Ｎｅｗ　Ｗｏｒｌｄ合同会社,,合同会社,東京都,文京区,小石川５丁目２３番３号,,13,105,1120002,,,,,,,2024-06-11,1,,,,,ニューワールド,0
323,2010005038396,新規,0,2024-06-11,2024-06-11,一般社団法人ナショナルパーキングマネジメント協会,,その他の設立登記法人,東京都,中央区,日本橋３丁目７番７号,,13,102,1030027,,,,,,,2024-06-11,1,,,,,ナショナルパーキングマネジメントキョウカイ,0
340,2010401183044,新規,0,2024-06-11,2024-06-11,株式会社一程,,株式会社,東京都,港区,南麻布１丁目１０番７号,,13,103,1060047,,,,,,,2024-06-11,1,,,,,ワンジャーニー,0
341,2010401183077,新規,0,2024-06-11,2024-06-11,株式会社リング,,株式会社,東京都,港区,南青山２丁目１９番２号,,13,103,1070062,,,,,,,2024-06-11,1,,,,,リング,0
346,2010403032785,新規,0,2024-06-11,2024-06-11,合同会社ＡＹＧ,,合同会社,東京都,港区,白金６丁目５番２－１４０２号,,13,103,1080072,,,,,,,2024-06-11,1,,,,,エーワイジー,0
352,2010701046099,新規,0,2024-06-11,2024-06-11,株式会社マジックラフト,,株式会社,東京都,品川区,大崎１丁目１番１号ル・サンク大崎シティタワー２７０１,,13,109,1410032,,,,,,,2024-06-11,1,,,,,マジックラフト,0
353,2010701046124,新規,0,2024-06-11,2024-06-11,株式会社レガートラック,,株式会社,東京都,品川区,北品川５丁目１２番４号リードシー御殿山ビル７Ｆ－０７,,13,109,1410001,,,,,,,2024-06-11,1,,,,,レガートラック,0
355,2010703007215,新規,0,2024-06-11,2024-06-11,合同会社ＫＩＤ,,合同会社,東京都,品川区,東大井２丁目１９番１０号,,13,109,1400011,,,,,,,2024-06-11,1,,,,,キッド,0
361,2010901055429,新規,0,2024-06-11,2024-06-11,株式会社ＴＲＩＮＩＴＹ,,株式会社,東京都,世田谷区,桜新町１丁目８番８号フラット１－５０１,,13,112,1540015,,,,,,,2024-06-11,1,,,,,トリニティー,0
363,2010903009135,新規,0,2024-06-11,2024-06-11,合同会社Ｊｕｃａｒｉ　Ｍｕｓｉｋ,,合同会社,東京都,世田谷区,成城７丁目２９番１０号,,13,112,1570066,,,,,,,2024-06-11,1,,,,,ユカリムジーク,0
366,2011003019347,新規,0,2024-06-11,2024-06-11,合同会社ｋｏｋｏｋａｒａ,,合同会社,東京都,渋谷区,渋谷２丁目１９番１５－６０９号宮益坂ビルディング,,13,113,1500002,,,,,,,2024-06-11,1,,,,,ココカラ,0
370,2011101107648,新規,0,2024-06-11,2024-06-11,株式会社トニーハウジング,,株式会社,東京都,新宿区,西新宿３丁目３番１３号西新宿水間ビル２階,,13,104,1600023,,,,,,,2024-06-11,1,,,,,トニーハウジング,0
371,2011101107656,新規,0,2024-06-11,2024-06-11,株式会社ＬＯＲＥ,,株式会社,東京都,新宿区,富久町１５番１号クロスコンフォートタワー５０１９号,,13,104,1620067,,,,,,,2024-06-11,1,,,,,ロア,0
373,2011103014529,新規,0,2024-06-11,2024-06-11,合同会社Ｎｉｈｏｎ　Ｄｉｓｃｏｖｅｒｙ,,合同会社,東京都,新宿区,西新宿３丁目３－１３西新宿水間ビル２Ｆ,,13,104,1600023,,,,,,,2024-06-11,1,,,,,ニホンディスカバリー,0
377,2011501030788,新規,0,2024-06-11,2024-06-11,株式会社ディアープロダクション,,株式会社,東京都,北区,赤羽１丁目７番９号赤羽第一葉山ビル４Ｆ,,13,117,1150045,,,,,,,2024-06-11,1,,,,,ディアープロダクション,0
383,2011701027353,新規,0,2024-06-11,2024-06-11,株式会社Ｙ．Ｎフーズ,,株式会社,東京都,江戸川区,平井５丁目１５番６号,,13,123,1320035,,,,,,,2024-06-11,1,,,,,ワイエヌフーズ,0
385,2012401041974,新規,0,2024-06-11,2024-06-11,株式会社エレクトリックサーカス,,株式会社,東京都,三鷹市,下連雀３丁目３５番１号,,13,204,1810013,,,,,,,2024-06-11,1,,,,,エレクトリックサーカス,0
388,2013301052665,新規,0,2024-06-11,2024-06-11,株式会社ｓａｋｕｋａｒ,,株式会社,東京都,豊島区,池袋２丁目５９番２号,,13,116,1710014,,,,,,,2024-06-11,1,,,,,サクカラ,0
400,2020001157587,新規,0,2024-06-11,2024-06-11,株式会社美愛,,株式会社,神奈川県,川崎市幸区,古市場２丁目７３－３６,,14,132,2120052,,,,,,,2024-06-11,1,,,,,ミイアイ,0
401,2020001157595,新規,0,2024-06-11,2024-06-11,株式会社コーワ,,株式会社,神奈川県,横浜市神奈川区,菅田町１８３１番地１ベルハーモニー１０２号,,14,102,2210864,,,,,,,2024-06-11,1,,,,,コーワ,0
402,2020001157637,新規,0,2024-06-11,2024-06-11,キレイマネジメント株式会社,,株式会社,神奈川県,横浜市西区,北幸１丁目５番１０号ＪＰＲ横浜ビル８階,,14,103,2200004,,,,,,,2024-06-11,1,,,,,キレイマネジメント,0
403,2020001157653,新規,0,2024-06-11,2024-06-11,株式会社Ｂｅｔｔｅｒ　Ｔｈａｎ,,株式会社,神奈川県,横浜市西区,北幸２丁目１０番４８号むつみビル３階,,14,103,2200004,,,,,,,2024-06-11,1,,,,,ベターザン,0
404,2020001157661,新規,0,2024-06-11,2024-06-11,ＴＳシステムソリューションズ株式会社,,株式会社,神奈川県,横浜市西区,みなとみらい３丁目６番３号,,14,103,2200012,,,,,,,2024-06-11,1,,,,,ティエスシステムソリューションズ,0
407,2020003026294,新規,0,2024-06-11,2024-06-11,ＫＪＩインベストメント合同会社,,合同会社,神奈川県,川崎市中原区,小杉町２丁目２２８番地１Ｗ６０４,,14,133,2110063,,,,,,,2024-06-11,1,,,,,ケイジェイアイインベストメント,0
408,2020003026311,新規,0,2024-06-11,2024-06-11,合同会社サラトガ,,合同会社,神奈川県,川崎市幸区,幸町３丁目５４７番地１グレイスガーデン多摩川２０３,,14,132,2120011,,,,,,,2024-06-11,1,,,,,サラトガ,0
409,2021001082437,新規,0,2024-06-11,2024-06-11,ゑびす堂株式会社,,株式会社,神奈川県,相模原市中央区,星が丘４丁目１番１９号,,14,152,2520238,,,,,,,2024-06-11,1,,,,,エビスドウ,0
410,2021001082461,新規,0,2024-06-11,2024-06-11,株式会社青木建設,,株式会社,神奈川県,小田原市,前川８３４番地の４,,14,206,2560813,,,,,,,2024-06-11,1,,,,,アオキケンセツ,0
418,2030001160813,新規,0,2024-06-11,2024-06-11,株式会社たけ設備設計,,株式会社,埼玉県,入間市,大字野田５７６番地１１,,11,225,3580054,,,,,,,2024-06-11,1,,,,,タケセツビセッケイ,0
419,2030001160821,新規,0,2024-06-11,2024-06-11,株式会社ＺＥＲＯ　ＵＮＩＴＥＤ,,株式会社,埼玉県,さいたま市北区,宮原町１丁目４６１番地,,11,102,3310812,,,,,,,2024-06-11,1,,,,,ゼロユナイテッド,0
420,2030001160838,新規,0,2024-06-11,2024-06-11,株式会社セブン,,株式会社,埼玉県,さいたま市大宮区,仲町２丁目２４番地４仲町Ｆ１ビル３０２,,11,103,3300845,,,,,,,2024-06-11,1,,,,,セブン,0
421,2030001160846,新規,0,2024-06-11,2024-06-11,株式会社ＡＪＫ国際,,株式会社,埼玉県,さいたま市大宮区,上小町１２１９番地３メゾン渋谷２０５,,11,103,3300855,,,,,,,2024-06-11,1,,,,,エージェーケーコクサイ,0
422,2030001160862,新規,0,2024-06-11,2024-06-11,株式会社スリーエアー,,株式会社,埼玉県,蕨市,中央６丁目１３番７号,,11,223,3350004,,,,,,,2024-06-11,1,,,,,スリーエアー,0
428,2030003024462,新規,0,2024-06-11,2024-06-11,合同会社Ｔｅｌｌｅｓ,,合同会社,埼玉県,さいたま市大宮区,宮町３丁目１アグレアーブル１１０１,,11,103,3300802,,,,,,,2024-06-11,1,,,,,テレス,0
432,2040001133958,新規,0,2024-06-11,2024-06-11,株式会社ファイン,,株式会社,千葉県,浦安市,堀江３丁目１９番５号,,12,227,2790041,,,,,,,2024-06-11,1,,,,,ファイン,0
433,2040001133982,新規,0,2024-06-11,2024-06-11,むつみレンタル株式会社,,株式会社,千葉県,佐倉市,青菅１０８９番地,,12,212,2850852,,,,,,,2024-06-11,1,,,,,ムツミレンタル,0
434,2040001133990,新規,0,2024-06-11,2024-06-11,株式会社双盟工業,,株式会社,千葉県,印西市,大森２０４１番地１,,12,231,2701327,,,,,,,2024-06-11,1,,,,,ソウメイコウギョウ,0
435,2040001134015,新規,0,2024-06-11,2024-06-11,株式会社Ｑｕｎｉｖｅｒｓｅ,,株式会社,千葉県,印西市,牧の原４丁目１３番地６,,12,231,2701331,,,,,,,2024-06-11,1,,,,,クニバース,0
438,2040003025162,新規,0,2024-06-11,2024-06-11,エルエスサプライ合同会社,,合同会社,千葉県,千葉市花見川区,幕張本郷７丁目５番１２号,,12,102,2620033,,,,,,,2024-06-11,1,,,,,エルエスサプライ,0
453,2080101024806,新規,0,2024-06-11,2024-06-11,株式会社ヒトツウエノ,,株式会社,静岡県,伊東市,吉田６４０番地の１７,,22,208,4140051,,,,,,,2024-06-11,1,,,,,ヒトツウエノ,0
454,2080101024814,新規,0,2024-06-11,2024-06-11,株式会社ＳＫＩＬＬＰＯＲＴ,,株式会社,静岡県,下田市,柿崎７０７番地の１,,22,219,4150013,,,,,,,2024-06-11,1,,,,,スキルポート,0
456,2080401027236,新規,0,2024-06-11,2024-06-11,株式会社ＨＯＵＳＥ　ＭＯＲＥ,,株式会社,静岡県,浜松市中央区,天王町２７８番地,,22,138,4350052,,,,,,,2024-06-11,1,,,,,ハウスモア,0
457,2080405007639,新規,0,2024-06-11,2024-06-11,税理士法人しんむら会計,,その他の設立登記法人,静岡県,浜松市中央区,大蒲町１２４番地の５,,22,138,4350014,,,,,,,2024-06-11,1,,,,,シンムラカイケイ,0
461,2090003002578,新規,0,2024-06-11,2024-06-11,合同会社ＫＹ企画,,合同会社,山梨県,甲斐市,玉川１３７３番地５,,19,210,4000116,,,,,,,2024-06-11,1,,,,,ケーワイキカク,0
467,2100001037509,新規,0,2024-06-11,2024-06-11,信州池田アグリ株式会社,,株式会社,長野県,北安曇郡池田町,大字池田３１８０番地１,,20,481,3998601,,,,,,,2024-06-11,1,,,,,シンシュウイケダアグリ,0
473,2110001038472,新規,0,2024-06-11,2024-06-11,ＮＯＧＥＮ株式会社,,株式会社,新潟県,新潟市江南区,亀田向陽１丁目７－１２,,15,104,9500121,,,,,,,2024-06-11,1,,,,,ノーゲン,0
475,2110003005413,新規,0,2024-06-11,2024-06-11,アジャストシステム合同会社,,合同会社,新潟県,上越市,三和区中野１３７番地１,,15,222,9430236,,,,,,,2024-06-11,1,,,,,アジャストシステム,0
476,2110003005421,新規,0,2024-06-11,2024-06-11,合同会社ＡＯエステート,,合同会社,新潟県,阿賀野市,緑岡１０２番地２８,,15,223,9592113,,,,,,,2024-06-11,1,,,,,エーオーエステート,0
487,2120001265702,新規,0,2024-06-11,2024-06-11,株式会社ＮＡＭＩＪＵホールディングス,,株式会社,大阪府,大阪市東住吉区,湯里２丁目１８番３号,,27,121,5460013,,,,,,,2024-06-11,1,,,,,ナミジュウホールディングス,0
488,2120001265710,新規,0,2024-06-11,2024-06-11,株式会社ＭＵＬＴＩＬＩＡＳＯＮ　ＡＧＥＮＴ,,株式会社,大阪府,大阪市天王寺区,勝山３丁目５番２３号,,27,109,5430043,,,,,,,2024-06-11,1,,,,,マルチリエゾンエージェント,0
489,2120001265719,新規,0,2024-06-11,2024-06-11,Ｗａｔｃｈ　Ｃｈｒｏｎｉｃｌｅ株式会社,,株式会社,大阪府,大阪市北区,堂山町１５番２３－１００７号,,27,127,5300027,,,,,,,2024-06-11,1,,,,,ウォッチクロニクル,0
490,2120001265727,新規,0,2024-06-11,2024-06-11,株式会社ｍｏｄｅｌｌａｔｏｒｉ,,株式会社,大阪府,大阪市中央区,内久宝寺町３丁目１番１－１８０８号,,27,128,5400013,,,,,,,2024-06-11,1,,,,,モデラトーリ,0
491,2120001265743,新規,0,2024-06-11,2024-06-11,株式会社総務・経理サポートシステムズ,,株式会社,大阪府,大阪市北区,豊崎５丁目２番２号－４０１号室,,27,127,5310072,,,,,,,2024-06-11,1,,,,,ソウムケイリサポートシステムズ,0
492,2120001265751,新規,0,2024-06-11,2024-06-11,株式会社ｄｅｋｕ,,株式会社,大阪府,大阪市北区,梅田１丁目２番２号大阪駅前第２ビル１２－１２,,27,127,5300001,,,,,,,2024-06-11,1,,,,,デク,0
493,2120001265784,新規,0,2024-06-11,2024-06-11,東山株式会社,,株式会社,大阪府,大阪市住吉区,殿辻１丁目５－１０,00135101,27,120,5580042,,,,,,,2024-06-11,1,,,,,ヒガシヤマ,0
495,2120003026755,新規,0,2024-06-11,2024-06-11,合同会社五十四鈴,,合同会社,大阪府,大阪市東淀川区,東淡路２丁目２番５号モリホーム東淡路文化１０５号,,27,114,5330023,,,,,,,2024-06-11,1,,,,,ゴジュウヨンリン,0
496,2120003026796,新規,0,2024-06-11,2024-06-11,合同会社景宮,,合同会社,大阪府,守口市,藤田町１丁目２番２７－２０５号,,27,209,5700014,,,,,,,2024-06-11,1,,,,,カゲミヤ,0
503,2120101069755,新規,0,2024-06-11,2024-06-11,株式会社Ｍ‐ＢＡＳＥ,,株式会社,大阪府,河内長野市,錦町１１番２号,,27,216,5860031,,,,,,,2024-06-11,1,,,,,エムベイス,0
509,2120901049295,新規,0,2024-06-11,2024-06-11,株式会社ｔａｎｕｋｕ,,株式会社,大阪府,池田市,旭丘３丁目３番３９号,,27,204,5630022,,,,,,,2024-06-11,1,,,,,タヌク,0
510,2120901049304,新規,0,2024-06-11,2024-06-11,株式会社Ｂｌｕｅ＆Ｍ,,株式会社,大阪府,豊中市,三和町２丁目１番ロイヤルコート豊中弐番館５０５号室,,27,203,5610828,,,,,,,2024-06-11,1,,,,,ブルーアンドエム,0
519,2130001077205,新規,0,2024-06-11,2024-06-11,株式会社Ｊａｄｅ　Ｐｒｏｓｐｅｒ,,株式会社,京都府,京都市中京区,新シ町通錦小路下る藤岡町４９３,,26,104,6048364,,,,,,,2024-06-11,1,,,,,ジェイドプロスパー,0
520,2130001077213,新規,0,2024-06-11,2024-06-11,ＳＫホールディングス株式会社,,株式会社,京都府,綾部市,西町２丁目９３番地,,26,203,6230016,,,,,,,2024-06-11,1,,,,,エスケーホールディングス,0
521,2130001077238,新規,0,2024-06-11,2024-06-11,ＣＯＭＯＳＳ電子株式会社,,株式会社,京都府,木津川市,山城町上狛曽根１,,26,214,6190204,,,,,,,2024-06-11,1,,,,,コモスデンシ,0
522,2130001077270,新規,0,2024-06-11,2024-06-11,株式会社エー・エス・ティー,,株式会社,京都府,京都市伏見区,羽束師菱川町６１０番地２４,,26,109,6128487,,,,,,,2024-06-11,1,,,,,エーエスティー,0
526,2130003009610,新規,0,2024-06-11,2024-06-11,合同会社ＭａｒｏＭｏｎｔｏ,,合同会社,京都府,京都市西京区,川島粟田町１４－３グリーン川島１０３,,26,111,6158194,,,,,,,2024-06-11,1,,,,,マーロモント,0
527,2130003009627,新規,0,2024-06-11,2024-06-11,合同会社クワトロ,,合同会社,京都府,京都市伏見区,竹田浄菩提院町２番地－２０２,,26,109,6128445,,,,,,,2024-06-11,1,,,,,クワトロ,0
530,2140001134715,新規,0,2024-06-11,2024-06-11,株式会社Ｓｏｉｌ,,株式会社,兵庫県,明石市,大久保町大久保町８６８番地の３１,,28,203,6740067,,,,,,,2024-06-11,1,,,,,ソイル,0
531,2140001134748,新規,0,2024-06-11,2024-06-11,三伸ホールディングス株式会社,,株式会社,兵庫県,神戸市長田区,二番町２丁目２番地の１,,28,106,6530012,,,,,,,2024-06-11,1,,,,,サンシンホールディングス,0
532,2140001134764,新規,0,2024-06-11,2024-06-11,株式会社ｋｅｅｌ地域計画事務所,,株式会社,兵庫県,西宮市,南郷町４番７号,,28,204,6620038,,,,,,,2024-06-11,1,,,,,キールチイキケイカクジムショ,0
536,2160001025986,新規,0,2024-06-11,2024-06-11,株式会社ＺＯＮＯ　Ｇａｒｄｅｎ　Ｏｆｆｉｃｅ,,株式会社,滋賀県,栗東市,小柿２丁目３－２２,,25,208,5203024,,,,,,,2024-06-11,1,,,,,ゾノガーデンオフィス,0
537,2160003003206,新規,0,2024-06-11,2024-06-11,合同会社ガードストーン,,合同会社,滋賀県,彦根市,長曽根南町５４８番地アシストビル２階,,25,202,5220052,,,,,,,2024-06-11,1,,,,,ガードストーン,0
539,2160005011314,新規,0,2024-06-11,2024-06-11,ＮＰＯ法人猫の事務所ＫＩＮＤ,,その他の設立登記法人,滋賀県,大津市,南志賀４丁目１６番２５号,,25,201,5200011,,,,,,,2024-06-11,1,,,,,ネコノジムショ,0
546,2180001161796,新規,0,2024-06-11,2024-06-11,株式会社フジカネ,,株式会社,愛知県,小牧市,小牧２丁目９番地,,23,219,4850041,,,,,,,2024-06-11,1,,,,,フジカネ,0
547,2180001161920,新規,0,2024-06-11,2024-06-11,株式会社Ｌａｓｅｌｅｎｅ,,株式会社,愛知県,名古屋市千種区,内山３丁目１８番５号ｃｏｕｌｅｕｒｓＮＯＩＲ３Ａ号室,,23,101,4640075,,,,,,,2024-06-11,1,,,,,ラセレーネ,0
548,2180001161937,新規,0,2024-06-11,2024-06-11,株式会社ＤＤ　Ｊａｐａｎ,,株式会社,愛知県,瀬戸市,幡野町２９７番地の２,,23,204,4890874,,,,,,,2024-06-11,1,,,,,ディーディージャパン,0
549,2180001161945,新規,0,2024-06-11,2024-06-11,株式会社サクシードエンジニア,,株式会社,愛知県,名古屋市中区,丸の内２丁目１４番１６号,,23,106,4600002,,,,,,,2024-06-11,1,,,,,サクシードエンジニア,0
551,2180003026923,新規,0,2024-06-11,2024-06-11,合同会社プロデュースＫｏｎａｎ,,合同会社,愛知県,江南市,小脇町小脇２６７番地,,23,217,4838406,,,,,,,2024-06-11,1,,,,,プロデュースコウナン,0
552,2180003026931,新規,0,2024-06-11,2024-06-11,合同会社Ｌａｌａｓｏ,,合同会社,愛知県,名古屋市港区,正徳町５丁目１１５番地の２,,23,111,4550075,,,,,,,2024-06-11,1,,,,,ララソ,0
557,2190001031404,新規,0,2024-06-11,2024-06-11,株式会社ＴＤＭ,,株式会社,三重県,津市,栗真町屋町８６８番地,,24,201,5140102,,,,,,,2024-06-11,1,,,,,ティーディーエム,0
558,2190003004705,新規,0,2024-06-11,2024-06-11,合同会社Ｈ＆Ｎ,,合同会社,三重県,桑名市,長島町西川５０４番地１,,24,205,5111102,,,,,,,2024-06-11,1,,,,,エイチアンドエヌ,0
562,2220001026045,新規,0,2024-06-11,2024-06-11,株式会社アペックス,,株式会社,石川県,金沢市,東蚊爪町ラ４７番地１,,17,201,9200209,,,,,,,2024-06-11,1,,,,,アペックス,0
572,2230001020385,新規,0,2024-06-11,2024-06-11,株式会社ＴＯＯＮ　ＢＯＸ,,株式会社,富山県,高岡市,御旅屋町１５番地４,,16,202,9330029,,,,,,,2024-06-11,1,,,,,トゥーンボックス,0
573,2230001020393,新規,0,2024-06-11,2024-06-11,株式会社ナチュラル,,株式会社,富山県,中新川郡上市町,神田３２４－１,,16,322,9300365,,,,,,,2024-06-11,1,,,,,ナチュラル,0
576,2260001039159,新規,0,2024-06-11,2024-06-11,株式会社いまやエンジニアリング,,株式会社,岡山県,倉敷市,有城３５３番地,,33,202,7100031,,,,,,,2024-06-11,1,,,,,イマヤエンジニアリング,0
577,2260001039167,新規,0,2024-06-11,2024-06-11,株式会社ＴＭプロテクト,,株式会社,岡山県,岡山市北区,富町２丁目５番１５号,,33,101,7000031,,,,,,,2024-06-11,1,,,,,ティエムプロテクト,0
578,2260001039175,新規,0,2024-06-11,2024-06-11,株式会社ＳＷＡＧ,,株式会社,岡山県,津山市,下横野１４５８番地,,33,203,7080807,,,,,,,2024-06-11,1,,,,,スワッグ,0
579,2260001039183,新規,0,2024-06-11,2024-06-11,株式会社Ｂａｓｅ,,株式会社,岡山県,岡山市南区,当新田４６７番地１８,,33,104,7000956,,,,,,,2024-06-11,1,,,,,ベース,0
580,2270003001636,新規,0,2024-06-11,2024-06-11,合同会社ＧｏＲｉ,,合同会社,鳥取県,鳥取市,浜坂３丁目４番２３号,,31,201,6800001,,,,,,,2024-06-11,1,,,,,ゴリ,0
586,2290001106039,新規,0,2024-06-11,2024-06-11,株式会社政商店,,株式会社,福岡県,久留米市,津福本町２１８番地７－４０１号,,40,203,8300047,,,,,,,2024-06-11,1,,,,,マサショウテン,0
587,2290001106063,新規,0,2024-06-11,2024-06-11,株式会社荒巻マリンサービス,,株式会社,福岡県,柳川市,吉原１６０番地２,,40,207,8320085,,,,,,,2024-06-11,1,,,,,アラマキマリンサービス,0
592,2290803004753,新規,0,2024-06-11,2024-06-11,合同会社Ａｌｉｖｅ,,合同会社,福岡県,北九州市八幡西区,黒崎５丁目５番２２号,,40,109,8060021,,,,,,,2024-06-11,1,,,,,アライブ,0
604,2320001020500,新規,0,2024-06-11,2024-06-11,株式会社日本一のバジルの里,,株式会社,大分県,杵築市,大字狩宿１９２３番地１,,44,210,8730031,,,,,,,2024-06-11,1,,,,,ニッポンイチノバジルノサト,0
606,2330001032164,新規,0,2024-06-11,2024-06-11,株式会社リーフノーツ,,株式会社,熊本県,菊池市,旭志新明２５０７番地１,,43,210,8691207,,,,,,,2024-06-11,1,,,,,リーフノーツ,0
609,2330003010416,新規,0,2024-06-11,2024-06-11,合同会社ＩＴａｋｔ,,合同会社,熊本県,熊本市北区,武蔵ケ丘９丁目６番８号エレガンス光の森８０１号室,,43,105,8618001,,,,,,,2024-06-11,1,,,,,アイタクト,0
610,2350005006237,新規,0,2024-06-11,2024-06-11,司法書士法人ロック,,その他の設立登記法人,宮崎県,都城市,都北町５８８２番地１Ａ棟,,45,202,8850004,,,,,,,2024-06-11,1,,,,,ロック,0
615,2360001033795,新規,0,2024-06-11,2024-06-11,株式会社トラストワン,,株式会社,沖縄県,那覇市,字安謝６５３番地国際重機ビル４１６号,,47,201,9000003,,,,,,,2024-06-11,1,,,,,トラストワン,0
619,2370001051391,新規,0,2024-06-11,2024-06-11,株式会社東日本サービス,,株式会社,宮城県,仙台市泉区,南光台２丁目２１番２０号,,04,105,9818003,,,,,,,2024-06-11,1,,,,,ヒガシニホンサービス,0
621,2370003006641,新規,0,2024-06-11,2024-06-11,合同会社セイコーライフ相澤,,合同会社,宮城県,大崎市,三本木蒜袋字向屋敷８番地１,,04,215,9896317,,,,,,,2024-06-11,1,,,,,セイコーライフアイザワ,0
627,2380001034593,新規,0,2024-06-11,2024-06-11,株式会社ワタ塗装,,株式会社,福島県,郡山市,安積町日出山３丁目１７番地の２,,07,203,9630101,,,,,,,2024-06-11,1,,,,,ワタトソウ,0
629,2380003005782,新規,0,2024-06-11,2024-06-11,合同会社ＷＡＮ　ＶＯＩＣＥ,,合同会社,福島県,福島市,南矢野目字日照原２番地の１,,07,201,9600112,,,,,,,2024-06-11,1,,,,,ワンヴォイス,0
640,2430001092000,新規,0,2024-06-11,2024-06-11,ユーワ株式会社,,株式会社,北海道,札幌市南区,石山一条２丁目１４番５号,,01,106,0050841,,,,,,,2024-06-11,1,,,,,ユーワ,0
641,2430001092009,新規,0,2024-06-11,2024-06-11,株式会社マルプロ,,株式会社,北海道,室蘭市,築地町１４７番地１０,,01,205,0510031,,,,,,,2024-06-11,1,,,,,マルプロ,0
643,2430003016436,新規,0,2024-06-11,2024-06-11,合同会社ＬＯＧＩＱＬＥ,,合同会社,北海道,札幌市東区,伏古十一条２丁目９番１６号リステージ伏古２０３号,,01,103,0070871,,,,,,,2024-06-11,1,,,,,ロジクル,0
646,2440003001602,新規,0,2024-06-11,2024-06-11,合同会社シニアサポート青い鳥,,合同会社,北海道,函館市,山の手３丁目２６番１３号,,01,202,0410836,,,,,,,2024-06-11,1,,,,,シニアサポートアオイトリ,0
654,2500001025687,新規,0,2024-06-11,2024-06-11,株式会社プロップス,,株式会社,愛媛県,今治市,石井町２丁目３番１号,,38,202,7940006,,,,,,,2024-06-11,1,,,,,プロップス,0
655,2700150038107,新規,0,2024-06-11,2015-10-09,いわきウイング建設組合,,その他,福島県,いわき市,平字三倉３６－２,,07,204,9708026,,,,,,,2015-10-09,1,,,,,イワキウイングケンセツクミアイ,0
658,2700150125870,新規,0,2024-06-11,2024-06-11,ＷＡＹＡＭＢＡ　ＡＵＴＯ　ＣＨＯＩＣＥ,,外国会社等,神奈川県,厚木市,長谷１１３番地パールハイツＣ１０３,,14,212,2430036,スリランカ民主社会主義共和国、クルネーガラ、ウェハラ、コロンボロード３４３／Ｃ,,,,,,2024-06-11,1,,,,,ワヤンバオートチヨイス,0
673,3010001245557,新規,0,2024-06-11,2024-06-11,Ｔｒａｖｅｌｏｋａ　Ｊａｐａｎ株式会社,,株式会社,東京都,中央区,日本橋室町４丁目３番９号,,13,102,1030022,,,,,,,2024-06-11,1,,,,,トラベロカジャパン,0
674,3010001245631,新規,0,2024-06-11,2024-06-11,株式会社フィノジェン,,株式会社,東京都,中央区,日本橋室町１丁目１１番１２号日本橋水野ビル７階,,13,102,1030022,,,,,,,2024-06-11,1,,,,,フィノジェン,0
675,3010001245648,新規,0,2024-06-11,2024-06-11,株式会社タイムコネクト,,株式会社,東京都,中央区,銀座１丁目１２番４号Ｎ＆Ｅ・ＢＬＤ．６Ｆ,,13,102,1040061,,,,,,,2024-06-11,1,,,,,タイムコネクト,0
676,3010001245664,新規,0,2024-06-11,2024-06-11,アトレ株式会社,,株式会社,東京都,中央区,勝どき４丁目６番２号パークタワー勝どきミッド,,13,102,1040054,,,,,,,2024-06-11,1,,,,,アトレ,0
677,3010001245680,新規,0,2024-06-11,2024-06-11,カワバラ株式会社,,株式会社,東京都,千代田区,神田和泉町１番地６－１６ヤマトビル４０５,,13,101,1010024,,,,,,,2024-06-11,1,,,,,カワバラ,0
681,3010003043975,新規,0,2024-06-11,2024-06-11,合同会社Ｌ開発,,合同会社,東京都,中央区,京橋２丁目１２番６号ＡＯＪ税理士法人内,,13,102,1040031,,,,,,,2024-06-11,1,,,,,エルカイハツ,0
684,3010005038395,新規,0,2024-06-11,2024-06-11,一般社団法人Ｌ開発,,その他の設立登記法人,東京都,中央区,京橋２丁目１２番６号ＡＯＪ税理士法人内,,13,102,1040031,,,,,,,2024-06-11,1,,,,,エルカイハツ,0
686,3010401182994,新規,0,2024-06-11,2024-06-11,株式会社ＴｏＵ　ｐｒｏｍｏｔｉｏｎ,,株式会社,東京都,港区,南青山４丁目１番１５号ベルテ南青山８０１,,13,103,1070062,,,,,,,2024-06-11,1,,,,,トゥーユープロモーション,0
687,3010401183035,新規,0,2024-06-11,2024-06-11,ＧＣＪＩ１６株式会社,,株式会社,東京都,港区,元赤坂１丁目１番８号株式会社赤坂国際会計内,,13,103,1070051,,,,,,,2024-06-11,1,,,,,ジーシージェイアイシックスティーン,0
688,3010401183076,新規,0,2024-06-11,2024-06-11,株式会社ＩＬＣＡ,,株式会社,東京都,港区,白金台３丁目１４番２５号Ｂ,,13,103,1080071,,,,,,,2024-06-11,1,,,,,イルカ,0
692,3010403032776,新規,0,2024-06-11,2024-06-11,ＫＤＣＲ　Ｊａｐａｎ１合同会社,,合同会社,東京都,港区,西新橋１丁目２２番５号６階,,13,103,1050003,,,,,,,2024-06-11,1,,,,,ケーディーシーアールジャパンワン,0
695,3010501052429,新規,0,2024-06-11,2024-06-11,株式会社完食社,,株式会社,東京都,台東区,清川１丁目９番１０号,,13,106,1110022,,,,,,,2024-06-11,1,,,,,カンショクシャ,0
696,3010501052445,新規,0,2024-06-11,2024-06-11,グリーンストーンジャパン株式会社,,株式会社,東京都,台東区,台東１丁目２４番９号ブライト秋葉原Ｂ１Ｆ,,13,106,1100016,,,,,,,2024-06-11,1,,,,,グリーンストーンジャパン,0
700,3010701046115,新規,0,2024-06-11,2024-06-11,株式会社Ｂ１,,株式会社,東京都,品川区,大井６丁目４番４号,,13,109,1400014,,,,,,,2024-06-11,1,,,,,ビーワン,0
701,3010801035125,新規,0,2024-06-11,2024-06-11,株式会社橋本設備工業,,株式会社,東京都,大田区,西糀谷１丁目１９－３,,13,111,1440034,,,,,,,2024-06-11,1,,,,,ハシモトセツビコウギョウ,0
702,3010801035133,新規,0,2024-06-11,2024-06-11,株式会社トーシカ,,株式会社,東京都,大田区,下丸子２丁目１２番１５－２１５号,,13,111,1460092,,,,,,,2024-06-11,1,,,,,トーシカ,0
705,3010901055428,新規,0,2024-06-11,2024-06-11,よりみち株式会社,,株式会社,東京都,世田谷区,三軒茶屋１丁目７番１５号,,13,112,1540024,,,,,,,2024-06-11,1,,,,,ヨリミチ,0
706,3010901055444,新規,0,2024-06-11,2024-06-11,Ｐｅａｋ　Ｃａｒｅ株式会社,,株式会社,東京都,世田谷区,祖師谷４丁目２６番３号アトリエンテ祖師谷Ｂ１階,,13,112,1570072,,,,,,,2024-06-11,1,,,,,ピークケア,0
710,3011001162619,新規,0,2024-06-11,2024-06-11,ＢｕｚｚＳｅｌｌ株式会社,,株式会社,東京都,渋谷区,神宮前６丁目２３番４号桑野ビル２階,,13,113,1500001,,,,,,,2024-06-11,1,,,,,バズセル,0
711,3011003019338,新規,0,2024-06-11,2024-06-11,合同会社Ｒｅｈｏｒｍｓ　Ｅｎｔｅｒｔａｉｎｍｅｎｔ,,合同会社,東京都,渋谷区,道玄坂１丁目１０番８号渋谷道玄坂東急ビル２Ｆ－Ｃ,,13,113,1500043,,,,,,,2024-06-11,1,,,,,リフォームズエンターテイメント,0
714,3011101107647,新規,0,2024-06-11,2024-06-11,株式会社ｇ‐ｂｌｏｏｍ,,株式会社,東京都,新宿区,新宿３丁目５番６号キュープラザ新宿三丁目４階,,13,104,1600022,,,,,,,2024-06-11,1,,,,,ジーブルーム,0
715,3011301029749,新規,0,2024-06-11,2024-06-11,株式会社Ｅｉｇｈｔ　Ｃｏｎｓｕｌｔａｎｔ,,株式会社,東京都,杉並区,荻窪５丁目３０－１２グローリア荻窪７１３,,13,115,1670051,,,,,,,2024-06-11,1,,,,,エイトコンサルタント,0
716,3011303005194,新規,0,2024-06-11,2024-06-11,合同会社Ｑｕａｄｓ,,合同会社,東京都,杉並区,上井草１丁目９番１３号,,13,115,1670023,,,,,,,2024-06-11,1,,,,,クワッズ,0
720,3011501030779,新規,0,2024-06-11,2024-06-11,東騰株式会社,,株式会社,東京都,荒川区,西日暮里２丁目２６番１０－９Ｆ,,13,118,1160013,,,,,,,2024-06-11,1,,,,,トウトウ,0
731,3012301013949,新規,0,2024-06-11,2024-06-11,株式会社小野工業,,株式会社,東京都,町田市,金井５丁目９番３２号,,13,209,1950072,,,,,,,2024-06-11,1,,,,,オノコウギョウ,0
732,3012403006611,新規,0,2024-06-11,2024-06-11,グローバル合同会社,,合同会社,東京都,小金井市,東町２丁目１５番１８号ハイブリッドタウンＩ,,13,210,1840011,,,,,,,2024-06-11,1,,,,,グローバル,0
733,3012701018309,新規,0,2024-06-11,2024-06-11,エクスフード株式会社,,株式会社,東京都,西東京市,芝久保町５丁目３－６,,13,229,1880014,,,,,,,2024-06-11,1,,,,,エクスフード,0
734,3012703003011,新規,0,2024-06-11,2024-06-11,合同会社三四郎市場,,合同会社,東京都,西東京市,住吉町３丁目１７番２２－２号,,13,229,2020005,,,,,,,2024-06-11,1,,,,,サンシロウイチバ,0
740,3013301052672,新規,0,2024-06-11,2024-06-11,株式会社ムネアツ,,株式会社,東京都,豊島区,南池袋１丁目９－１８ＧＯＧＯオフィス池袋３２１,,13,116,1710022,,,,,,,2024-06-11,1,,,,,ムネアツ,0
746,3020001157611,新規,0,2024-06-11,2024-06-11,株式会社Ｂｏａｒ,,株式会社,神奈川県,横浜市都筑区,川和町２５７３番地６ドルフ城所ＩＩＩ２０５,00135111,14,118,2240057,,,,,,,2024-06-11,1,,,,,ボアー,0
747,3020001157644,新規,0,2024-06-11,2024-06-11,ＳＯＰ株式会社,,株式会社,神奈川県,横浜市西区,浅間町１丁目４番３号ウィザードビル４０２,,14,103,2200072,,,,,,,2024-06-11,1,,,,,エスオーピー,0
748,3020001157652,新規,0,2024-06-11,2024-06-11,ジェイサポート株式会社,,株式会社,神奈川県,横浜市中区,弁天通４丁目５３番地２馬車道ＤＯＭＯＮビル４階,,14,104,2310007,,,,,,,2024-06-11,1,,,,,ジェイサポート,0
749,3020001157660,新規,0,2024-06-11,2024-06-11,株式会社ＮＳ．ｐｒｏｊｅｃｔ,,株式会社,神奈川県,川崎市幸区,鹿島田２丁目１７番１５号,,14,132,2120058,,,,,,,2024-06-11,1,,,,,エヌエスプロジェクト,0
753,3021001082436,新規,0,2024-06-11,2024-06-11,レイケン株式会社,,株式会社,神奈川県,足柄下郡箱根町,元箱根１５９番地の１８６ＵＩＪ,,14,382,2500522,,,,,,,2024-06-11,1,,,,,レイケン,0
754,3021001082444,新規,0,2024-06-11,2024-06-11,株式会社Ｌａｎｄ　Ａｒｔ,,株式会社,神奈川県,座間市,座間１丁目３１４３番地の３,,14,216,2520027,,,,,,,2024-06-11,1,,,,,ランドアート,0
755,3021001082452,新規,0,2024-06-11,2024-06-11,株式会社坂本電工土木,,株式会社,神奈川県,横須賀市,林３丁目４３４番地６３,,14,201,2380315,,,,,,,2024-06-11,1,,,,,サカモトデンコウドボク,0
759,3021003014619,新規,0,2024-06-11,2024-06-11,朝陽合同会社,,合同会社,神奈川県,小田原市,荻窪８７６番地,,14,206,2500042,,,,,,,2024-06-11,1,,,,,アサヒ,0
768,3030001160804,新規,0,2024-06-11,2024-06-11,株式会社北川工務店,,株式会社,埼玉県,三郷市,鷹野４丁目１５８番地,,11,237,3410035,,,,,,,2024-06-11,1,,,,,キタガワコウムテン,0
769,3030001160820,新規,0,2024-06-11,2024-06-11,株式会社フジムラホールディングス,,株式会社,埼玉県,川口市,領家３丁目１２番１０号,,11,203,3320004,,,,,,,2024-06-11,1,,,,,フジムラホールディングス,0
770,3030001160829,新規,0,2024-06-11,2024-06-11,株式会社オクテット,,株式会社,埼玉県,吉川市,大字下内川４５１番地２,,11,243,3420002,,,,,,,2024-06-11,1,,,,,オクテット,0
771,3030001160845,新規,0,2024-06-11,2024-06-11,株式会社ＳＫＹ,,株式会社,埼玉県,富士見市,大字下南畑３９３,,11,235,3540004,,,,,,,2024-06-11,1,,,,,スカイ,0
772,3030001160878,新規,0,2024-06-11,2024-06-11,株式会社ＤＹＫ,,株式会社,埼玉県,川口市,元郷２丁目１５番１－４１０１号エルザタワー５５,,11,203,3320011,,,,,,,2024-06-11,1,,,,,ディーワイケー,0
773,3030001160894,新規,0,2024-06-11,2024-06-11,Ｌｉｌ’ｉｎｆｉｎｉｔｙ株式会社,,株式会社,埼玉県,さいたま市浦和区,木崎１丁目９番１７号ＳＮビル２階,,11,107,3300042,,,,,,,2024-06-11,1,,,,,リルインフィニティー,0
777,3040001133965,新規,0,2024-06-11,2024-06-11,株式会社浅八,,株式会社,千葉県,船橋市,高野台５丁目２０番３４号,,12,204,2740801,,,,,,,2024-06-11,1,,,,,アサヤ,0
778,3040001133973,新規,0,2024-06-11,2024-06-11,株式会社あれ,,株式会社,千葉県,松戸市,常盤平３丁目２９番地の１ときわ平サニーハイツＳ－６,,12,207,2702261,,,,,,,2024-06-11,1,,,,,アレ,0
779,3040001134014,新規,0,2024-06-11,2024-06-11,株式会社ＶｉＶｉＴＯ　ＪＡＰＡＮ,,株式会社,千葉県,茂原市,本小轡１２４６番地８,,12,210,2970005,,,,,,,2024-06-11,1,,,,,ヴィヴィットジャパン,0
780,3040001134030,新規,0,2024-06-11,2024-06-11,貿聖株式会社,,株式会社,千葉県,市原市,東五所６番地１１,,12,219,2900064,,,,,,,2024-06-11,1,,,,,ボウセイ,0
786,3050001054913,新規,0,2024-06-11,2024-06-11,株式会社昌司,,株式会社,茨城県,結城市,大字結城９７６２番地６,,08,207,3070001,,,,,,,2024-06-11,1,,,,,ショウジ,0
790,3060003005112,新規,0,2024-06-11,2024-06-11,合同会社ミライアル,,合同会社,栃木県,那須塩原市,北和田１３５番地３,,09,213,3293151,,,,,,,2024-06-11,1,,,,,ミライアル,0
791,3070001041843,新規,0,2024-06-11,2024-06-11,株式会社犬童商店,,株式会社,群馬県,前橋市,下細井町１番地２１,,10,201,3710054,,,,,,,2024-06-11,1,,,,,イヌドウショウテン,0
792,3070001041851,新規,0,2024-06-11,2024-06-11,株式会社コンテンツデータイメージング,,株式会社,群馬県,前橋市,元総社町７３番地５,,10,201,3710846,,,,,,,2024-06-11,1,,,,,コンテンツデータイメージング,0
793,3080101024796,新規,0,2024-06-11,2024-06-11,マックステックプレシジョン株式会社,,株式会社,静岡県,駿東郡小山町,用沢１０９２番地,,22,344,4101326,,,,,,,2024-06-11,1,,,,,マックステックプレシジョン,0
794,3080101024805,新規,0,2024-06-11,2024-06-11,株式会社日誠ホールディングス,,株式会社,静岡県,富士宮市,小泉２２１７番地の１,,22,207,4180022,,,,,,,2024-06-11,1,,,,,ニッセイホールディングス,0
795,3080101024813,新規,0,2024-06-11,2024-06-11,玉井リサーチ＆コンサルティング株式会社,,株式会社,静岡県,熱海市,伊豆山２６２－２４ヴィンテージ熱海・桃山,,22,205,4130002,,,,,,,2024-06-11,1,,,,,タマイリサーチアンドコンサルティング,0
801,3090001018765,新規,0,2024-06-11,2024-06-11,ＬＩＢＥＬＵＣＫ株式会社,,株式会社,山梨県,笛吹市,石和町東高橋９９番地４－３,,19,211,4060041,,,,,,,2024-06-11,1,,,,,リベラック,0
808,3110001038463,新規,0,2024-06-11,2024-06-11,株式会社ＦＬＯＷ,,株式会社,新潟県,長岡市,中瀬２丁目６番地１８号,,15,202,9400017,,,,,,,2024-06-11,1,,,,,フロー,0
809,3110001038471,新規,0,2024-06-11,2024-06-11,株式会社技装,,株式会社,新潟県,長岡市,浦５０５１番地,,15,202,9495406,,,,,,,2024-06-11,1,,,,,ギソウ,0
811,3110003005420,新規,0,2024-06-11,2024-06-11,Ｍｙｏｋｏ　Ｋａｚｏｋｕ合同会社,,合同会社,新潟県,妙高市,大字赤倉４２６番地４６,,15,217,9492111,,,,,,,2024-06-11,1,,,,,ミョウコウカゾク,0
818,3120001265461,新規,0,2024-06-11,2024-06-11,鴻遠国際株式会社,,株式会社,大阪府,大阪市西区,本田２丁目８－７－１Ｄ号室,,27,106,5500022,,,,,,,2024-06-11,1,,,,,コウエンコクサイ,0
819,3120001265627,新規,0,2024-06-11,2024-06-11,株式会社Ｂｅ　ｒｕｎ　ｆｉｒｅ,,株式会社,大阪府,大阪市中央区,北久宝寺町１丁目５番６－５１４号,,27,128,5410057,,,,,,,2024-06-11,1,,,,,ビーランファイア,0
820,3120001265734,新規,0,2024-06-11,2024-06-11,アイク電機株式会社,,株式会社,大阪府,守口市,南寺方北通２丁目１８－２,,27,209,5700046,,,,,,,2024-06-11,1,,,,,アイクデンキ,0
827,3120003026754,新規,0,2024-06-11,2024-06-11,合同会社五十三鈴,,合同会社,大阪府,大阪市東淀川区,東淡路２丁目２番５号モリホーム東淡路文化１０５号,,27,114,5330023,,,,,,,2024-06-11,1,,,,,ゴジュウサンリン,0
828,3120003026795,新規,0,2024-06-11,2024-06-11,Ｓｏａｒｅｒｓ合同会社,,合同会社,大阪府,大阪市浪速区,立葉２丁目１－２９,,27,111,5560020,,,,,,,2024-06-11,1,,,,,ソーラーズ,0
829,3120005024368,新規,0,2024-06-11,2024-06-11,一般社団法人ミラクルズ,,その他の設立登記法人,大阪府,大阪市東成区,東小橋３丁目１番２４号,,27,115,5370024,,,,,,,2024-06-11,1,,,,,ミラクルズ,0
831,3120101069738,新規,0,2024-06-11,2024-06-11,株式会社Ｉｉｊｉｍａ工務店,,株式会社,大阪府,堺市南区,大庭寺９４６番地１－１５号,,27,145,5900153,,,,,,,2024-06-11,1,,,,,イイジマコウムテン,0
832,3120101069762,新規,0,2024-06-11,2024-06-11,南一建設株式会社,,株式会社,大阪府,貝塚市,三ツ松５４７番地１,,27,208,5970105,,,,,,,2024-06-11,1,,,,,ナンイチケンセツ,0
842,3130001077245,新規,0,2024-06-11,2024-06-11,省塵齋株式会社,,株式会社,京都府,京都市上京区,西三本木通丸太町上る真町４８３アビ岡本３０１号室,,26,102,6020866,,,,,,,2024-06-11,1,,,,,ショウジンサイ,0
843,3130001077261,新規,0,2024-06-11,2024-06-11,株式会社ａｏ　ｈｏｕｓｅ　ｄｅｓｉｇｎ,,株式会社,京都府,京都市下京区,釘隠町２５５小川京都ビル２０２号室,,26,106,6008423,,,,,,,2024-06-11,1,,,,,アオハウスデザイン,0
851,3140001134664,新規,0,2024-06-11,2024-06-11,株式会社Ｇ‐ＲＡＩＺＥ,,株式会社,兵庫県,三田市,屋敷町７番１５号,,28,219,6691532,,,,,,,2024-06-11,1,,,,,ジーライズ,0
852,3140001134672,新規,0,2024-06-11,2024-06-11,株式会社フォード,,株式会社,兵庫県,芦屋市,翠ケ丘町２０番９－３０１号,,28,206,6590014,,,,,,,2024-06-11,1,,,,,フォード,0
853,3140001134730,新規,0,2024-06-11,2024-06-11,株式会社Ｎコミュニケーション,,株式会社,兵庫県,伊丹市,藤ノ木３丁目７番１－１４１９号,,28,207,6640847,,,,,,,2024-06-11,1,,,,,エヌコミュニケーション,0
854,3140001134755,新規,0,2024-06-11,2024-06-11,株式会社Ｕ‐ネクスト,,株式会社,兵庫県,宝塚市,栄町３丁目９番３７－７０３号,,28,214,6650845,,,,,,,2024-06-11,1,,,,,ユーネクスト,0
858,3140003020680,新規,0,2024-06-11,2024-06-11,ＭＭパートナーズ合同会社,,合同会社,兵庫県,神戸市中央区,上筒井通７丁目２番５号,,28,110,6510061,,,,,,,2024-06-11,1,,,,,エムエムパートナーズ,0
859,3140003020689,新規,0,2024-06-11,2024-06-11,合同会社コネクト,,合同会社,兵庫県,伊丹市,池尻３丁目２３８番地４,,28,207,6640027,,,,,,,2024-06-11,1,,,,,コネクト,0
862,3140005027105,新規,0,2024-06-11,2024-06-11,一般社団法人エンシエイト,,その他の設立登記法人,兵庫県,たつの市,龍野町島田３７５,,28,229,6794121,,,,,,,2024-06-11,1,,,,,エンシエイト,0
866,3160001025993,新規,0,2024-06-11,2024-06-11,株式会社ＨＡＮＡ,,株式会社,滋賀県,東近江市,東沖野３丁目８番１２－５号,,25,213,5270033,,,,,,,2024-06-11,1,,,,,ハナ,0
876,3180001161861,新規,0,2024-06-11,2024-06-11,株式会社ワンダー,,株式会社,愛知県,一宮市,真清田１丁目３番３号桃花館１Ｂ,,23,203,4910043,,,,,,,2024-06-11,1,,,,,ワンダー,0
877,3180001161886,新規,0,2024-06-11,2024-06-11,株式会社プロライン,,株式会社,愛知県,名古屋市熱田区,旗屋１丁目６番１０号バンベール西高蔵２０５号,,23,109,4560027,,,,,,,2024-06-11,1,,,,,プロライン,0
878,3180001161928,新規,0,2024-06-11,2024-06-11,株式会社ＴＡＩＳＥＩ　ＪＡＰＡＮ,,株式会社,愛知県,名古屋市中川区,露橋２丁目１１番１６号,,23,110,4540022,,,,,,,2024-06-11,1,,,,,タイセイジャパン,0
879,3180001161944,新規,0,2024-06-11,2024-06-11,株式会社アークポート,,株式会社,愛知県,名古屋市千種区,見附町３丁目３番地の３,,23,101,4640817,,,,,,,2024-06-11,1,,,,,アークポート,0
882,3180003026914,新規,0,2024-06-11,2024-06-11,合同会社洋勝,,合同会社,愛知県,名古屋市千種区,猪高町大字猪子石字猪々道１４４,,23,101,4640012,,,,,,,2024-06-11,1,,,,,ヨウショウ,0
888,3190001031411,新規,0,2024-06-11,2024-06-11,株式会社大新,,株式会社,三重県,三重郡菰野町,大字福村１５６番地４,,24,341,5101234,,,,,,,2024-06-11,1,,,,,ダイシン,0
895,3230001020392,新規,0,2024-06-11,2024-06-11,株式会社ＥＮＥＲＧＹ　ＬＯＧＩＣ,,株式会社,富山県,滑川市,上小泉２８４６番地７,,16,206,9360053,,,,,,,2024-06-11,1,,,,,エナジーロジック,0
902,3240001063358,新規,0,2024-06-11,2024-06-11,株式会社いけだ,,株式会社,広島県,広島市佐伯区,八幡東３丁目２２番７号,,34,108,7315115,,,,,,,2024-06-11,1,,,,,イケダ,0
903,3240001063374,新規,0,2024-06-11,2024-06-11,株式会社メープル,,株式会社,広島県,広島市中区,大手町１丁目１番２６号大手町一番ビル３０５,,34,101,7300051,,,,,,,2024-06-11,1,,,,,メープル,0
912,3260001039158,新規,0,2024-06-11,2024-06-11,ＭＡＲＵＴＡ株式会社,,株式会社,岡山県,苫田郡鏡野町,大町２５１番地,,33,606,7080303,,,,,,,2024-06-11,1,,,,,マルタ,0
913,3260001039174,新規,0,2024-06-11,2024-06-11,株式会社Ａｓｔｅｒａｓ,,株式会社,岡山県,岡山市北区,表町２丁目３番５７号,,33,101,7000822,,,,,,,2024-06-11,1,,,,,アステラス,0
914,3270001008995,新規,0,2024-06-11,2024-06-11,株式会社ＧＮ　ｗｏｒｋｓ,,株式会社,鳥取県,境港市,夕日ヶ丘１丁目１８７番地県営夕日ヶ丘団地Ｆ棟１４２号,,31,204,6840076,,,,,,,2024-06-11,1,,,,,ジーエヌワークス,0
918,3290001106079,新規,0,2024-06-11,2024-06-11,株式会社エクステリア出雲,,株式会社,福岡県,糟屋郡粕屋町,長者原東５丁目２番２号,,40,349,8112317,,,,,,,2024-06-11,1,,,,,エクステリアイズモ,0
919,3290001106112,新規,0,2024-06-11,2024-06-11,未来工研株式会社,,株式会社,福岡県,福岡市博多区,博多駅南４丁目１６番３５号,,40,132,8120016,,,,,,,2024-06-11,1,,,,,ミライコウケン,0
921,3290003015419,新規,0,2024-06-11,2024-06-11,合同会社ＬＬＣ　Ｃｕｏｒｅ,,合同会社,福岡県,福岡市中央区,薬院２丁目５番３０号タイタス薬院ＩＩＩ５０３号,00135102,40,133,8100022,,,,,,,2024-06-11,1,,,,,クオレ,0
923,3300005007197,新規,0,2024-06-11,2024-06-11,一般社団法人灯すラボ,,その他の設立登記法人,佐賀県,西松浦郡有田町,上内野丙３６７４番地１,,41,401,8494162,,,,,,,2024-06-11,1,,,,,トモスラボ,0
925,3330001032139,新規,0,2024-06-11,2024-06-11,株式会社ＴＦリアルティ,,株式会社,熊本県,熊本市北区,楠７丁目１２番３２号,,43,105,8618003,,,,,,,2024-06-11,1,,,,,ティーエフリアルティ,0
926,3330001032147,新規,0,2024-06-11,2024-06-11,花響国際株式会社,,株式会社,熊本県,八代市,松江本町３番３６号,,43,202,8660882,,,,,,,2024-06-11,1,,,,,ハナヒビキコクサイ,0
931,3360003014033,新規,0,2024-06-11,2024-06-11,合同会社アシスト石垣,,合同会社,沖縄県,石垣市,字石垣１６１２番地２,,47,207,9070023,,,,,,,2024-06-11,1,,,,,アシストイシガキ,0
935,3370001051390,新規,0,2024-06-11,2024-06-11,株式会社ｂｌｏｏｍ,,株式会社,宮城県,名取市,田高字南９番地の１,,04,207,9811221,,,,,,,2024-06-11,1,,,,,ブルーム,0
936,3370001051399,新規,0,2024-06-11,2024-06-11,株式会社ファクトリーＫＨ,,株式会社,宮城県,富谷市,富谷狸屋敷１９９番地７,,04,216,9813311,,,,,,,2024-06-11,1,,,,,ファクトリーケイエイチ,0
937,3370001051408,新規,0,2024-06-11,2024-06-11,株式会社ＡｔｏＳ,,株式会社,宮城県,仙台市青葉区,台原６丁目１２番１９－４１０号,,04,101,9810911,,,,,,,2024-06-11,1,,,,,エートゥエス,0
938,3370003006640,新規,0,2024-06-11,2024-06-11,合同会社さくらパートナーズ,,合同会社,宮城県,仙台市宮城野区,萩野町３丁目８番地の１９京急仙台プラザ６２６,,04,102,9830043,,,,,,,2024-06-11,1,,,,,サクラパートナーズ,0
939,3380003005781,新規,0,2024-06-11,2024-06-11,おこめカンパニー合同会社,,合同会社,福島県,南相馬市,原町区東町１丁目２７番地の１,,07,212,9750002,,,,,,,2024-06-11,1,,,,,オコメカンパニー,0
940,3380005012842,新規,0,2024-06-11,2024-06-11,一般社団法人アイエスエスキャプテン,,その他の設立登記法人,福島県,郡山市,大槻町字牛道２番地の２７,,07,203,9630201,,,,,,,2024-06-11,1,,,,,アイエスエスキャプテン,0
943,3410001013849,新規,0,2024-06-11,2024-06-11,株式会社栄翔興業,,株式会社,秋田県,大館市,芦田子字天下道上８２番地１,,05,204,0170025,,,,,,,2024-06-11,1,,,,,エイトコウギョウ,0
946,3430001091991,新規,0,2024-06-11,2024-06-11,株式会社ラフェルモ,,株式会社,北海道,札幌市中央区,北五条西６丁目１番地２３北海道通信ビル１Ｆ,,01,101,0600005,,,,,,,2024-06-11,1,,,,,ラフェルモ,0
947,3430001092016,新規,0,2024-06-11,2024-06-11,株式会社ＰＨＯＴＯＮ　ＷＡＶＥ,,株式会社,北海道,白老郡白老町,字石山２８番地８１,,01,578,0590921,,,,,,,2024-06-11,1,,,,,フォトンウェーブ,0
950,3430003016443,新規,0,2024-06-11,2024-06-11,ｉＤｅａｎａ合同会社,,合同会社,北海道,札幌市西区,琴似一条３丁目１番１０－６０２号,,01,107,0630811,,,,,,,2024-06-11,1,,,,,アイディーナ,0
951,3430005014998,新規,0,2024-06-11,2024-06-11,特定非営利活動法人北海道ケージフットボール協会,,その他の設立登記法人,北海道,江別市,向ケ丘４５番地の１,,01,217,0670075,,,,,,,2024-06-11,1,,,,,ホッカイドウケージフットボールキョウカイ,0
956,3480003002141,新規,0,2024-06-11,2024-06-11,合同会社ＮＨＭ　ＧＲＯＵＰ,,合同会社,徳島県,徳島市,住吉１丁目４番４６号サンハイツ住吉３Ａ号室,,36,201,7700861,,,,,,,2024-06-11,1,,,,,エヌエイチエムグループ,0
958,3500001025694,新規,0,2024-06-11,2024-06-11,株式会社新松園,,株式会社,愛媛県,松山市,新浜町９番１５号,,38,201,7918083,,,,,,,2024-06-11,1,,,,,シンショウエン,0
961,3700150125432,新規,0,2024-06-11,2024-05-16,吉本作次展実行委員会,00134600,その他,愛知県,名古屋市中区,栄２丁目１７番２５号,,23,106,4600008,,,,,,,2024-05-16,1,,,,,ヨシモトサクジテンジツコウイインカイ,0
962,3700150125630,新規,0,2024-06-11,2024-05-28,志屋地区エルモ運営委員会,,その他,広島県,広島市安佐北区,白木町大字志路５５１１－６多目的ホール,,34,106,7391303,,,,,,,2024-05-28,1,,,,,シヤチクエルモウンエイイインカイ,0
969,4010001245564,新規,0,2024-06-11,2024-06-11,株式会社ＣＬＡＳＳＹＳ　ＪＡＰＡＮ,,株式会社,東京都,中央区,銀座１丁目１６番７号,,13,102,1040061,,,,,,,2024-06-11,1,,,,,クレシスジャパン,0
970,4010001245572,新規,0,2024-06-11,2024-06-11,株式会社Ｎｅｘｔ　Ｓｏｌｕｔｉｏｎ,,株式会社,東京都,中央区,勝どき６丁目３番１－３９０８号,,13,102,1040054,,,,,,,2024-06-11,1,,,,,ネクストソリューション,0
971,4010001245589,新規,0,2024-06-11,2024-06-11,エンデバー株式会社,,株式会社,東京都,千代田区,神田駿河台１丁目７番地ＹＫ駿河台ビル７階,,13,101,1010062,,,,,,,2024-06-11,1,,,,,エンデバー,0
972,4010001245597,新規,0,2024-06-11,2024-06-11,ＷＡＳＨＯＫＵ．ＡＩ株式会社,,株式会社,東京都,中央区,新川２丁目１８番４－５０３号,,13,102,1040033,,,,,,,2024-06-11,1,,,,,ワショクエーアイ,0
973,4010001245630,新規,0,2024-06-11,2024-06-11,株式会社Ｃｒｅｓｃｅｎｄｏ,,株式会社,東京都,千代田区,内神田１丁目１８番１１号東京ロイヤルプラザ１階,,13,101,1010047,,,,,,,2024-06-11,1,,,,,クレッシェンド,0
977,4010003043990,新規,0,2024-06-11,2024-06-11,合同会社８ＣＯＮＮＥＣＴ,,合同会社,東京都,中央区,日本橋室町１丁目１１番１２号日本橋水野ビル７階,,13,102,1030022,,,,,,,2024-06-11,1,,,,,エイトコネクト,0
990,4010401183042,新規,0,2024-06-11,2024-06-11,トータルトレカエクスチェンジ株式会社,,株式会社,東京都,港区,赤坂６丁目４番２２号三沖ビル５階,,13,103,1070052,,,,,,,2024-06-11,1,,,,,トータルトレカエクスチェンジ,0
991,4010401183075,新規,0,2024-06-11,2024-06-11,ステイゴールド株式会社,,株式会社,東京都,港区,三田１丁目７番１－２１０８号,,13,103,1080073,,,,,,,2024-06-11,1,,,,,ステイゴールド,0
995,4010501052428,新規,0,2024-06-11,2024-06-11,株式会社ノンスプレッド,,株式会社,東京都,台東区,東上野３丁目１５番地４号ほていビル２階,,13,106,1100015,,,,,,,2024-06-11,1,,,,,ノンスプレッド,0
996,4010503007479,新規,0,2024-06-11,2024-06-11,Ｔｅｃｎｉａｒｔ合同会社,,合同会社,東京都,台東区,浅草２丁目２０番１０号,,13,106,1110032,,,,,,,2024-06-11,1,,,,,テクニアート,0
1000,4010801035124,新規,0,2024-06-11,2024-06-11,株式会社ＤＨｗｉｎｃｙｃｌｅ,,株式会社,東京都,大田区,北千束３丁目３５番５－２０２号,,13,111,1450062,,,,,,,2024-06-11,1,,,,,ディーエイチウィンクル,0
1001,4010901055443,新規,0,2024-06-11,2024-06-11,株式会社アーツオプティックジャパン,,株式会社,東京都,世田谷区,成城６丁目８番８号,,13,112,1570066,,,,,,,2024-06-11,1,,,,,アーツオプティックジャパン,0
1006,4011001162618,新規,0,2024-06-11,2024-06-11,株式会社ＡＳＡＮＯＹＡ,,株式会社,東京都,渋谷区,恵比寿３丁目３８番２２号,,13,113,1500013,,,,,,,2024-06-11,1,,,,,アサノヤ,0
1010,4011003019386,新規,0,2024-06-11,2024-06-11,合同会社ｙ‐ｌａｂ,,合同会社,東京都,渋谷区,道玄坂１丁目１０番８号渋谷道玄坂東急ビル２Ｆ－Ｃ,,13,113,1500043,,,,,,,2024-06-11,1,,,,,ワイラボ,0
1014,4011101107654,新規,0,2024-06-11,2024-06-11,株式会社キャリアーク,,株式会社,東京都,新宿区,西新宿３丁目５番３号西新宿ダイヤモンドパレス８０２,,13,104,1600023,,,,,,,2024-06-11,1,,,,,キャリアーク,0
1016,4011103014527,新規,0,2024-06-11,2024-06-11,小林木村家ホールディングス合同会社,,合同会社,東京都,新宿区,矢来町１２０番地,,13,104,1620805,,,,,,,2024-06-11,1,,,,,コバヤシキムラヤホールディングス,0
1017,4011103014535,新規,0,2024-06-11,2024-06-11,合同会社ホーミーズ,,合同会社,東京都,新宿区,北新宿１丁目３２番２０号－３０７号,,13,104,1690074,,,,,,,2024-06-11,1,,,,,ホーミーズ,0
1018,4011105011051,新規,0,2024-06-11,2024-06-11,医療法人社団桜蔵会,,その他の設立登記法人,東京都,新宿区,馬場下町６２番地１８早稲田武蔵野ビル２階,,13,104,1620045,,,,,,,2024-06-11,1,,,,,オウクラカイ,0
1019,4011201025541,新規,0,2024-06-11,2024-06-11,株式会社ＭＥＯＬ,,株式会社,東京都,中野区,中央２丁目３０番９号,,13,114,1640011,,,,,,,2024-06-11,1,,,,,ミオル,0
1023,4011303005193,新規,0,2024-06-11,2024-06-11,Ｋ‐Ｐｌａｎ合同会社,,合同会社,東京都,杉並区,和田３丁目２番８－２０４号シャラナム東高円寺,,13,115,1660012,,,,,,,2024-06-11,1,,,,,ケイプラン,0
1025,4011401026182,新規,0,2024-06-11,2024-06-11,株式会社吾妻,,株式会社,東京都,板橋区,中台２丁目３７番６号,,13,119,1740064,,,,,,,2024-06-11,1,,,,,アヅマ,0
1026,4011501030786,新規,0,2024-06-11,2024-06-11,株式会社ＡＲＡＴＡ,,株式会社,東京都,北区,豊島８丁目２５番１号,,13,117,1140003,,,,,,,2024-06-11,1,,,,,アラタ,0
1028,4011505002633,新規,0,2024-06-11,2024-06-11,一般社団法人Ｗｈｅｅｌ　Ｗｏｒｋｓ,,その他の設立登記法人,東京都,北区,赤羽１丁目７番９号赤羽第一葉山ビル４Ｆ,,13,117,1150045,,,,,,,2024-06-11,1,,,,,ウィールワークス,0
1029,4011603004358,新規,0,2024-06-11,2024-06-11,パキラメゾン合同会社,,合同会社,東京都,練馬区,練馬３丁目１９－１７－６０３号,,13,120,1760001,,,,,,,2024-06-11,1,,,,,パキラメゾン,0
1031,4012301013948,新規,0,2024-06-11,2024-06-11,株式会社ラプラス,,株式会社,東京都,町田市,金井ヶ丘４丁目５２番２７,,13,209,1950076,,,,,,,2024-06-11,1,,,,,ラプラス,0
1034,4012703003019,新規,0,2024-06-11,2024-06-11,合同会社アテナキャンパス,,合同会社,東京都,東久留米市,柳窪４丁目１番２２号,,13,222,2030044,,,,,,,2024-06-11,1,,,,,アテナキャンパス,0
1035,4012803003422,新規,0,2024-06-11,2024-06-11,ＣＸ　ｉｎｔｅｒｎａｔｉｏｎａｌ合同会社,,合同会社,東京都,国立市,中３丁目３番地の３３ラナイグレース国立２０７,,13,215,1860004,,,,,,,2024-06-11,1,,,,,シーエックスインターナショナル,0
1037,4013301052663,新規,0,2024-06-11,2024-06-11,株式会社ＦｉｖｅＦｏｒｔｕｎｅ,,株式会社,東京都,豊島区,北大塚２丁目２０番６号,,13,116,1700004,,,,,,,2024-06-11,1,,,,,ファイヴフォーチュン,0
1039,4020001157585,新規,0,2024-06-11,2024-06-11,株式会社ＨＲＭセンター,,株式会社,神奈川県,横浜市中区,不老町２丁目１１－８税経研修センター３階,,14,104,2310032,,,,,,,2024-06-11,1,,,,,エイチアールエムセンター,0
1040,4020001157635,新規,0,2024-06-11,2024-06-11,株式会社リブレステート,,株式会社,神奈川県,横浜市戸塚区,影取町２１８番地１,,14,110,2450064,,,,,,,2024-06-11,1,,,,,リブレステート,0
1041,4020001157643,新規,0,2024-06-11,2024-06-11,株式会社ＦＬＡＴＳ,,株式会社,神奈川県,横浜市港北区,大豆戸町６２３番地１メビウスブレイン菊名ウェルズ７０４号,,14,109,2220032,,,,,,,2024-06-11,1,,,,,フラッツ,0
1046,4021001082476,新規,0,2024-06-11,2024-06-11,株式会社タイムクリア,,株式会社,神奈川県,座間市,座間２丁目２８８６番地－１０６,,14,216,2520027,,,,,,,2024-06-11,1,,,,,タイムクリア,0
1049,4030001160794,新規,0,2024-06-11,2024-06-11,株式会社ＶＥＣ,,株式会社,埼玉県,さいたま市浦和区,高砂２丁目１２番２０号３マガザン浦和１階,,11,107,3300063,,,,,,,2024-06-11,1,,,,,ヴイイーシー,0
1050,4030001160828,新規,0,2024-06-11,2024-06-11,株式会社ｎａｎａｓａｉ,,株式会社,埼玉県,川越市,大字池辺６２９番地２,,11,201,3501171,,,,,,,2024-06-11,1,,,,,ナナサイ,0
1051,4030001160836,新規,0,2024-06-11,2024-06-11,株式会社ＭＩＹＡＢＩ屋,,株式会社,埼玉県,北葛飾郡松伏町,田中３丁目１３番地１５,,11,465,3430117,,,,,,,2024-06-11,1,,,,,ミヤビヤ,0
1052,4030001160844,新規,0,2024-06-11,2024-06-11,株式会社キートス,,株式会社,埼玉県,さいたま市大宮区,天沼町１丁目４４６－１定登ビル１Ｆ,,11,103,3300834,,,,,,,2024-06-11,1,,,,,キートス,0
1053,4030001160852,新規,0,2024-06-11,2024-06-11,株式会社ＳＴＯＮＥ　ＨＯＭＥ,,株式会社,埼玉県,越谷市,東大沢１丁目３７番地１７,,11,222,3430022,,,,,,,2024-06-11,1,,,,,ストーンホーム,0
1054,4030001160877,新規,0,2024-06-11,2024-06-11,株式会社ＧＯ,,株式会社,埼玉県,草加市,草加１丁目１２番５号,,11,221,3400043,,,,,,,2024-06-11,1,,,,,ジーオー,0
1058,4030003024452,新規,0,2024-06-11,2024-06-11,Ｋ＆ＳリハＯＮＥ合同会社,,合同会社,埼玉県,飯能市,栄町１４番地１２,,11,209,3570025,,,,,,,2024-06-11,1,,,,,ケーアンドエスリハワン,0
1059,4030003024460,新規,0,2024-06-11,2024-06-11,合同会社ＭＳＧ,,合同会社,埼玉県,富士見市,西みずほ台１丁目２６番地２７,,11,235,3540018,,,,,,,2024-06-11,1,,,,,エムエスジー,0
1068,4040001133980,新規,0,2024-06-11,2024-06-11,株式会社ＳＳＣ,,株式会社,千葉県,千葉市美浜区,高浜３丁目５番７棟５０２号,,12,106,2610003,,,,,,,2024-06-11,1,,,,,エスエスシー,0
1069,4040001133989,新規,0,2024-06-11,2024-06-11,株式会社矢口内装,,株式会社,千葉県,山武郡九十九里町,片貝１６２９番地１,,12,403,2830104,,,,,,,2024-06-11,1,,,,,ヤグチナイソウ,0
1070,4040001133997,新規,0,2024-06-11,2024-06-11,株式会社アグミ,,株式会社,千葉県,富里市,七栄３５－６３,,12,233,2860221,,,,,,,2024-06-11,1,,,,,アグミ,0
1084,4070001041859,新規,0,2024-06-11,2024-06-11,株式会社ＫＡＮＡＹＡ,,株式会社,群馬県,邑楽郡大泉町,大字吉田１６７９番地の１,,10,524,3700523,,,,,,,2024-06-11,1,,,,,カナヤ,0
1103,4110001038462,新規,0,2024-06-11,2024-06-11,株式会社ＴＯ．３ｒｄ,,株式会社,新潟県,新潟市中央区,水道町２丁目５９３２番地５５グリーンコート水道町１０１号,,15,103,9518121,,,,,,,2024-06-11,1,,,,,トウーサード,0
1104,4110001038470,新規,0,2024-06-11,2024-06-11,加藤金属株式会社,,株式会社,新潟県,新潟市江南区,楚川乙４０８番地１,,15,104,9501142,,,,,,,2024-06-11,1,,,,,カトウキンゾク,0
1105,4110001038479,新規,0,2024-06-11,2024-06-11,株式会社和佐,,株式会社,新潟県,新潟市秋葉区,中沢町７番６号,,15,105,9560831,,,,,,,2024-06-11,1,,,,,カズサ,0
1111,4120001265709,新規,0,2024-06-11,2024-06-11,株式会社ＭａｓａＫｉｙｏ,,株式会社,大阪府,大阪市浪速区,大国１丁目７番１６－１００５号,,27,111,5560014,,,,,,,2024-06-11,1,,,,,マサキヨ,0
1112,4120001265717,新規,0,2024-06-11,2024-06-11,株式会社エスライフカンパニー,,株式会社,大阪府,大阪市北区,豊崎４丁目１１番２－１２０３号,,27,127,5310072,,,,,,,2024-06-11,1,,,,,エスライフカンパニー,0
1113,4120001265741,新規,0,2024-06-11,2024-06-11,株式会社スリーエレメント,,株式会社,大阪府,大阪市北区,梅田１丁目２番２号大阪駅前第２ビル１２－１２,,27,127,5300001,,,,,,,2024-06-11,1,,,,,スリーエレメント,0
1114,4120001265758,新規,0,2024-06-11,2024-06-11,チャレンジ株式会社,,株式会社,大阪府,大阪市中央区,大手通１丁目４番１０号大手前フタバビル９階,,27,128,5400021,,,,,,,2024-06-11,1,,,,,チャレンジ,0
1115,4120001265774,新規,0,2024-06-11,2024-06-11,株式会社松原工業,,株式会社,大阪府,大阪市旭区,千林２丁目１６番７号,,27,117,5350012,,,,,,,2024-06-11,1,,,,,マツバラコウギョウ,0
1116,4120001265808,新規,0,2024-06-11,2024-06-11,盛源株式会社,,株式会社,大阪府,大阪市住吉区,万代４丁目１３番１５号,,27,120,5580055,,,,,,,2024-06-11,1,,,,,スンウェン,0
1117,4120001265816,新規,0,2024-06-11,2024-06-11,株式会社Ｓｔｏｎｅ,,株式会社,大阪府,枚方市,大垣内町３丁目３－２ＣＦビル３階,,27,210,5730027,,,,,,,2024-06-11,1,,,,,ストーン,0
1121,4120003026753,新規,0,2024-06-11,2024-06-11,合同会社五十二鈴,,合同会社,大阪府,大阪市東淀川区,東淡路２丁目２番５号モリホーム東淡路文化１０５号,,27,114,5330023,,,,,,,2024-06-11,1,,,,,ゴジュウニリン,0
1122,4120003026794,新規,0,2024-06-11,2024-06-11,合同会社ｋｉｃｈｉ’ｔ,,合同会社,大阪府,大阪市住吉区,我孫子東３丁目８番２－１４０４号,,27,120,5580013,,,,,,,2024-06-11,1,,,,,キチット,0
1130,4120101069737,新規,0,2024-06-11,2024-06-11,株式会社ノーヴィス,,株式会社,大阪府,岸和田市,内畑町１３８８番地,,27,202,5960105,,,,,,,2024-06-11,1,,,,,ノーヴィス,0
1131,4120101069753,新規,0,2024-06-11,2024-06-11,株式会社ＢＥＬ,,株式会社,大阪府,堺市堺区,東雲西町２丁４番３１号,,27,141,5900013,,,,,,,2024-06-11,1,,,,,ベル,0
1134,4120901049293,新規,0,2024-06-11,2024-06-11,株式会社ＥＬＶＩＸ電工,,株式会社,大阪府,高槻市,須賀町６８番５－３０２号,,27,207,5690022,,,,,,,2024-06-11,1,,,,,エルビックスデンコウ,0
1140,4130001077236,新規,0,2024-06-11,2024-06-11,株式会社Ｓ‐ｒｉｓｅ,,株式会社,京都府,京都市下京区,七条通油小路東入大黒町２２７番地第２キョートビル４０２,,26,106,6008223,,,,,,,2024-06-11,1,,,,,エスライズ,0
1141,4130001077244,新規,0,2024-06-11,2024-06-11,蒲月株式会社,,株式会社,京都府,京都市右京区,西院東今田町３７－４ラトゥール西院３０２,,26,108,6160000,,,,,,,2024-06-11,1,,,,,ホヅキ,0
1143,4130003009625,新規,0,2024-06-11,2024-06-11,合同会社ＬＯＬ,,合同会社,京都府,八幡市,西山和気２１番地７,,26,210,6148352,,,,,,,2024-06-11,1,,,,,ロル,0
1153,4140001134746,新規,0,2024-06-11,2024-06-11,株式会社９月８日,,株式会社,兵庫県,姫路市,四郷町東阿保７４３番地７,,28,201,6710247,,,,,,,2024-06-11,1,,,,,クガツヨウカ,0
1154,4140001134762,新規,0,2024-06-11,2024-06-11,株式会社ソウケン,,株式会社,兵庫県,三田市,宮脇１０７番地６,,28,219,6691317,,,,,,,2024-06-11,1,,,,,ソウケン,0
1155,4140001134770,新規,0,2024-06-11,2024-06-11,株式会社センターコード,,株式会社,兵庫県,神戸市須磨区,高倉台２丁目１３番５号,,28,107,6540081,,,,,,,2024-06-11,1,,,,,センターコード,0
1158,4140003020696,新規,0,2024-06-11,2024-06-11,合同会社ｍｉｌｋｙ　ｗａｙ,,合同会社,兵庫県,明石市,西明石南町１丁目６－７、１階,,28,203,6730041,,,,,,,2024-06-11,1,,,,,ミルキーウェイ,0
1160,4160001025992,新規,0,2024-06-11,2024-06-11,Ｓ．ＡＮＴ株式会社,,株式会社,滋賀県,近江八幡市,若宮町６６９番地１６（２０１号）,,25,204,5230034,,,,,,,2024-06-11,1,,,,,エスアント,0
1177,4180003026905,新規,0,2024-06-11,2024-06-11,合同会社せーの,,合同会社,愛知県,名古屋市中区,錦２丁目９番６号名和丸の内ビル４Ｃ,,23,106,4600003,,,,,,,2024-06-11,1,,,,,セーノ,0
1178,4180005020658,新規,0,2024-06-11,2024-06-11,一般社団法人煌,,その他の設立登記法人,愛知県,名古屋市守山区,西川原町２５５番地,,23,113,4630089,,,,,,,2024-06-11,1,,,,,キラメク,0
1184,4190001031402,新規,0,2024-06-11,2024-06-11,株式会社三和,,株式会社,三重県,四日市市,中野町２１６５番地９,,24,202,5121304,,,,,,,2024-06-11,1,,,,,サンワ,0
1185,4190001031410,新規,0,2024-06-11,2024-06-11,株式会社ＴＭ,,株式会社,三重県,四日市市,伊倉２丁目９番７号,,24,202,5100832,,,,,,,2024-06-11,1,,,,,ティーエム,0
1187,4190003004711,新規,0,2024-06-11,2024-06-11,合同会社青木総業,,合同会社,三重県,四日市市,楠町本郷１７６８番地,,24,202,5100106,,,,,,,2024-06-11,1,,,,,アオキソウギョウ,0
1192,4220001026051,新規,0,2024-06-11,2024-06-11,株式会社ＲＥＣＯＶＥＲ　ＮＯＴＯ,,株式会社,石川県,輪島市,杉平町蝦夷穴５５番地６,,17,204,9280011,,,,,,,2024-06-11,1,,,,,リカバーノト,0
1196,4240001063365,新規,0,2024-06-11,2024-06-11,ＳＡＩＺＥＮ警備保障株式会社,,株式会社,広島県,広島市西区,横川町３丁目７番８－３０６号,,34,104,7330011,,,,,,,2024-06-11,1,,,,,サイゼンケイビホショウ,0
1197,4240001063373,新規,0,2024-06-11,2024-06-11,株式会社ＳＯＵＫＯＫＵ．Ｍ,,株式会社,広島県,広島市西区,草津新町１丁目２０番５７‐４０４号,,34,104,7330834,,,,,,,2024-06-11,1,,,,,ソウコクドットエム,0
1200,4250001020679,新規,0,2024-06-11,2024-06-11,株式会社海響みらい電力,,株式会社,山口県,下関市,古屋町１丁目１８番１号下関市リサイクルプラザ,,35,201,7510847,,,,,,,2024-06-11,1,,,,,カイキョウミライデンリョク,0
1205,4260001039149,新規,0,2024-06-11,2024-06-11,すなみ小物株式会社,,株式会社,岡山県,倉敷市,児島小川町３６８２番地４５,,33,202,7110912,,,,,,,2024-06-11,1,,,,,スナミコモノ,0
1206,4260001039173,新規,0,2024-06-11,2024-06-11,株式会社イフライン,,株式会社,岡山県,岡山市北区,今保５７１番３金森ビル１Ｆ,,33,101,7010145,,,,,,,2024-06-11,1,,,,,イフライン,0
1209,4260003004786,新規,0,2024-06-11,2024-06-11,合同会社レイワ．Ｓ,,合同会社,岡山県,岡山市北区,横井上１９２９番地,,33,101,7011145,,,,,,,2024-06-11,1,,,,,レイワエス,0
1210,4270001008994,新規,0,2024-06-11,2024-06-11,株式会社ＳＴＥＬＬＡ,,株式会社,鳥取県,米子市,安倍１８７番地１,,31,202,6830846,,,,,,,2024-06-11,1,,,,,ステラ,0
1213,4290001106053,新規,0,2024-06-11,2024-06-11,株式会社ＶＯＲＤＥＲ,,株式会社,福岡県,久留米市,荒木町白口３００１番地１,,40,203,8300062,,,,,,,2024-06-11,1,,,,,ボーダー,0
1214,4290001106078,新規,0,2024-06-11,2024-06-11,株式会社オレンジブリッジ,,株式会社,福岡県,福岡市中央区,天神２丁目２番１２号Ｔ＆Ｊビルディング７Ｆ,,40,133,8100001,,,,,,,2024-06-11,1,,,,,オレンジブリッジ,0
1219,4290003015426,新規,0,2024-06-11,2024-06-11,エクステリア松勝合同会社,,合同会社,福岡県,福岡市東区,筥松新町６番９－１０５号スカイマンションＢ－１０５,,40,131,8120067,,,,,,,2024-06-11,1,,,,,エクステリアマツカツ,0
1224,4320001020531,新規,0,2024-06-11,2024-06-11,株式会社ミライテック九州,,株式会社,大分県,大分市,新貝６番７号,,44,201,8700911,,,,,,,2024-06-11,1,,,,,,0
1225,4330005010800,新規,0,2024-06-11,2024-06-11,一般財団法人同仁化学学術振興財団,,その他の設立登記法人,熊本県,上益城郡益城町,大字田原２０２５番地５,,43,443,8612202,,,,,,,2024-06-11,1,,,,,ドウジンカガクガクジュツシンコウザイダン,0
1226,4340003004506,新規,0,2024-06-11,2024-06-11,合同会社ＩＣＨＩ,,合同会社,鹿児島県,薩摩郡さつま町,永野９８６番地３,,46,392,8952203,,,,,,,2024-06-11,1,,,,,イチ,0
1227,4360001033802,新規,0,2024-06-11,2024-06-11,株式会社Ｉｎｎｉｓｆａｉｌ,,株式会社,沖縄県,宮古島市,下地字与那覇１０９６番地１,,47,214,9060305,,,,,,,2024-06-11,1,,,,,イニスフェイル,0
1228,4360001033810,新規,0,2024-06-11,2024-06-11,株式会社ＨＯＵＳＥ　ＴＯＰ,,株式会社,沖縄県,那覇市,字上間３６６番地１大城産業ビル２－２０２,,47,201,9020073,,,,,,,2024-06-11,1,,,,,ハウストップ,0
1232,4370001051398,新規,0,2024-06-11,2024-06-11,株式会社ミライシキ,,株式会社,宮城県,仙台市青葉区,本町１丁目５番２８号カーニープレイス仙台駅前通６０３号室,,04,101,9800014,,,,,,,2024-06-11,1,,,,,ミライシキ,0
1233,4370001051407,新規,0,2024-06-11,2024-06-11,株式会社Ｇｒａ　Ｌｉｒ,,株式会社,宮城県,仙台市青葉区,柏木２丁目３番１７号朝日プラザ柏木６１２,,04,101,9810933,,,,,,,2024-06-11,1,,,,,グラリル,0
1239,4380003005780,新規,0,2024-06-11,2024-06-11,合同会社ＳＨＩＮＥ,,合同会社,福島県,郡山市,喜久田町堀之内字堂城前３番地の４３,,07,203,9630541,,,,,,,2024-06-11,1,,,,,シャイン,0
1240,4380005012841,新規,0,2024-06-11,2024-06-11,一般社団法人虫の里・福島奥久慈設立の会,,その他の設立登記法人,福島県,白河市,影鬼越３０番地１１０,,07,205,9610886,,,,,,,2024-06-11,1,,,,,ムシノサトフクシマオククジセツリツノカイ,0
1248,4430001091966,新規,0,2024-06-11,2024-06-11,ソワホールディングス株式会社,,株式会社,北海道,虻田郡倶知安町,ニセコひらふ二条１丁目１２番１号,,01,400,0440089,,,,,,,2024-06-11,1,,,,,ソワホールディングス,0
1249,4430001091974,新規,0,2024-06-11,2024-06-11,株式会社明向電設,,株式会社,北海道,登別市,桜木町６丁目７番地２８,,01,230,0590023,,,,,,,2024-06-11,1,,,,,メイコウデンセツ,0
1250,4430001091990,新規,0,2024-06-11,2024-06-11,株式会社ＬＡＰＩＳ,,株式会社,北海道,苫小牧市,ときわ町３丁目７番２２号,,01,213,0591261,,,,,,,2024-06-11,1,,,,,ラピス,0
1251,4430001092015,新規,0,2024-06-11,2024-06-11,株式会社アドバンスフィルム,,株式会社,北海道,札幌市中央区,南二十条西８丁目２番３号,,01,101,0640920,,,,,,,2024-06-11,1,,,,,アドバンスフィルム,0
1253,4430003016434,新規,0,2024-06-11,2024-06-11,合同会社奏勇姫,,合同会社,北海道,千歳市,北陽６丁目１７番５号,,01,224,0660032,,,,,,,2024-06-11,1,,,,,ソウユウキ,0
1255,4450001014339,新規,0,2024-06-11,2024-06-11,株式会社ＧＹＮ,,株式会社,北海道,旭川市,春光四条９丁目１番２号,,01,204,0700874,,,,,,,2024-06-11,1,,,,,ジーワイエヌ,0
1261,4480001012505,新規,0,2024-06-11,2024-06-11,株式会社ＫＡＪＹＵＭＡＲＵ　ｃｏｍｐａｎｙ,,株式会社,徳島県,美馬市,美馬町字上野４０－２,,36,207,7712107,,,,,,,2024-06-11,1,,,,,,0
1262,4500001025685,新規,0,2024-06-11,2024-06-11,ｎｉｐｅｎ株式会社,,株式会社,愛媛県,松山市,来住町１２０６番地５,,38,201,7911102,,,,,,,2024-06-11,1,,,,,ニペン,0
1265,4700150125621,新規,0,2024-06-11,2024-05-28,川西市スポーツ少年団,,その他,兵庫県,川西市,火打１丁目１番４号,,28,217,6660017,,,,,,,2024-05-28,1,,,,,カワニシシスポーツシヨウネンダン,0
1266,4700150125869,新規,0,2024-06-11,2024-06-11,東方電気成都工程設計諮詢有限公司,,外国会社等,大阪府,大阪市港区,市岡２丁目２－４５,,27,107,5520012,中華人民共和国四川省成都高新区西芯大道１８号２棟４階７、８号,,,,,,2024-06-11,1,,,,,トウホウデンキセイトコウテイセツケイシジユンユウゲンコウシ,0
1275,5010001245480,新規,0,2024-06-11,2024-06-11,株式会社ＴＯＫＹＯ　ＰＣＮ,,株式会社,東京都,中央区,日本橋室町１丁目１１番１２号,,13,102,1030022,,,,,,,2024-06-11,1,,,,,トウキョウピーシーエヌ,0
1276,5010001245588,新規,0,2024-06-11,2024-06-11,株式会社日庄サインテック,,株式会社,東京都,中央区,日本橋人形町１丁目１番１１号,,13,102,1030013,,,,,,,2024-06-11,1,,,,,ニッショウサインテック,0
1277,5010001245596,新規,0,2024-06-11,2024-06-11,株式会社ＫＭＴ,,株式会社,東京都,千代田区,神田須田町２丁目２５番ＧＹＢ秋葉原,,13,101,1010041,,,,,,,2024-06-11,1,,,,,ケーエムティー,0
1278,5010001245646,新規,0,2024-06-11,2024-06-11,株式会社ＳＥＲＥＮＴＩＡ,,株式会社,東京都,文京区,本郷６丁目２５番１４号,,13,105,1130033,,,,,,,2024-06-11,1,,,,,セレンティア,0
1279,5010001245662,新規,0,2024-06-11,2024-06-11,ＫＩＮＭＡＸ　ＴＥＣＨＮＯＬＯＧＹ　ＪＡＰＡＮ株式会社,,株式会社,東京都,中央区,銀座３丁目１０番９号ＫＥＣ銀座ビル８階,,13,102,1040061,,,,,,,2024-06-11,1,,,,,キンマックステクノロジージャパン,0
1284,5010003043981,新規,0,2024-06-11,2024-06-11,ＨＭＴ　Ｍａｎａｇｅｍｅｎｔ合同会社,,合同会社,東京都,中央区,勝どき１丁目１３－６,,13,102,1040054,,,,,,,2024-06-11,1,,,,,エイチエムティマネジメント,0
1285,5010101016195,新規,0,2024-06-11,2024-06-11,青木空調設備株式会社,,株式会社,東京都,八王子市,石川町１０００番地３,,13,201,1920032,,,,,,,2024-06-11,1,,,,,アオキクウチョウセツビ,0
1296,5010401182976,新規,0,2024-06-11,2024-06-11,株式会社ＹＫＧ,,株式会社,東京都,港区,海岸３丁目２１－９アルバ６０３号室,,13,103,1080022,,,,,,,2024-06-11,1,,,,,ワイケージー,0
1297,5010403032766,新規,0,2024-06-11,2024-06-11,合同会社ａｓｓｉｓｔ,,合同会社,東京都,港区,南青山２丁目２番１５号,,13,103,1070062,,,,,,,2024-06-11,1,,,,,アシスト,0
1298,5010403032799,新規,0,2024-06-11,2024-06-11,ＬｏｃｏＤｏｄｇｅｒｓ合同会社,,合同会社,東京都,港区,南青山３丁目１番３６号青山丸竹ビル６Ｆ,,13,103,1070062,,,,,,,2024-06-11,1,,,,,ロコドジャース,0
1302,5010501052451,新規,0,2024-06-11,2024-06-11,ＴＤ株式会社,,株式会社,東京都,台東区,上野３丁目１４番２号ＵｅｎｏＹｏｕｒ２ｎｄ５０２号室,,13,106,1100005,,,,,,,2024-06-11,1,,,,,ティーディー,0
1304,5010503007478,新規,0,2024-06-11,2024-06-11,合同会社Ｈｉ‐ｄｏｍｏ,,合同会社,東京都,台東区,西浅草２丁目２５番６号,,13,106,1110035,,,,,,,2024-06-11,1,,,,,ハイドーモ,0
1308,5010701046113,新規,0,2024-06-11,2024-06-11,株式会社サイバーサンタ,,株式会社,東京都,品川区,小山３丁目２２番４－３０２号,,13,109,1420062,,,,,,,2024-06-11,1,,,,,サイバーサンタ,0
1310,5010801035123,新規,0,2024-06-11,2024-06-11,株式会社ＵＴＡＣＡ,,株式会社,東京都,大田区,田園調布５丁目１４－１３,,13,111,1450071,,,,,,,2024-06-11,1,,,,,ウタカ,0
1311,5010801035131,新規,0,2024-06-11,2024-06-11,株式会社ＢＥＬＰＥＲ,,株式会社,東京都,大田区,大森西２丁目３２番８－１７０５号,,13,111,1430015,,,,,,,2024-06-11,1,,,,,ベルパー,0
1323,5011101107637,新規,0,2024-06-11,2024-06-11,Ｌ＆Ｐ株式会社,,株式会社,東京都,新宿区,西新宿６丁目１５番１－２３１９号,,13,104,1600023,,,,,,,2024-06-11,1,,,,,エルアンドピー,0
1324,5011101107653,新規,0,2024-06-11,2024-06-11,Ｌｉｆｅｐａｎｄ株式会社,,株式会社,東京都,新宿区,西新宿３丁目３番１３号西新宿水間ビル２Ｆ,,13,104,1600023,,,,,,,2024-06-11,1,,,,,ライフパンド,0
1325,5011103014526,新規,0,2024-06-11,2024-06-11,合同会社Ｌｅｔｔｅｒ,,合同会社,東京都,新宿区,西新宿３丁目３番１３号西新宿水間ビル２Ｆ,,13,104,1600023,,,,,,,2024-06-11,1,,,,,レター,0
1326,5011105011050,新規,0,2024-06-11,2024-06-11,一般社団法人ホスピタリティ・サービス支援機構,,その他の設立登記法人,東京都,新宿区,戸山１丁目１５番１０号,,13,104,1620052,,,,,,,2024-06-11,1,,,,,ホスピタリティサービスシエンキコウ,0
1331,5011303005192,新規,0,2024-06-11,2024-06-11,ウェルサーチ合同会社,,合同会社,東京都,杉並区,梅里２丁目３４番３０号,,13,115,1660011,,,,,,,2024-06-11,1,,,,,ウェルサーチ,0
1333,5011401026181,新規,0,2024-06-11,2024-06-11,リザーブシステム株式会社,,株式会社,東京都,板橋区,常盤台３丁目２番１０号,,13,119,1740071,,,,,,,2024-06-11,1,,,,,リザーブシステム,0
1335,5011501030760,新規,0,2024-06-11,2024-06-11,ＯＳＭＡＮ株式会社,,株式会社,東京都,北区,赤羽北３丁目２３番１号,,13,117,1150052,,,,,,,2024-06-11,1,,,,,オスマン,0
1336,5011501030785,新規,0,2024-06-11,2024-06-11,株式会社明泰,,株式会社,東京都,荒川区,町屋６丁目３８番２号,,13,118,1160001,,,,,,,2024-06-11,1,,,,,メイタイ,0
1337,5011503006098,新規,0,2024-06-11,2024-06-11,合同会社ＨＩＮＡＫＡＲＩ,,合同会社,東京都,北区,岩淵町３９番１８－４０５号,,13,117,1150041,,,,,,,2024-06-11,1,,,,,ヒナカリ,0
1343,5013301052654,新規,0,2024-06-11,2024-06-11,株式会社パートナーリンク,,株式会社,東京都,豊島区,西池袋１丁目４番１０号,,13,116,1710021,,,,,,,2024-06-11,1,,,,,パートナーリンク,0
1344,5013301052662,新規,0,2024-06-11,2024-06-11,株式会社ＷＡＹＳ,,株式会社,東京都,豊島区,南長崎３丁目３９－１サンハイム３０１,,13,116,1710052,,,,,,,2024-06-11,1,,,,,ウエイズ,0
1346,5020001157592,新規,0,2024-06-11,2024-06-11,Ｎｅｘｔ　Ｒｅｎｏｖａｔｉｏｎ　Ｃｒｅａｔｉｖｅ株式会社,,株式会社,神奈川県,横浜市瀬谷区,南瀬谷１丁目５５番地１４,,14,114,2460034,,,,,,,2024-06-11,1,,,,,ネクストリノベーションクリエイティブ,0
1347,5020001157634,新規,0,2024-06-11,2024-06-11,ナカノ建設株式会社,,株式会社,神奈川県,川崎市中原区,井田杉山町１３番１７号さくら元住吉２０１,,14,133,2110036,,,,,,,2024-06-11,1,,,,,ナカノケンセツ,0
1349,5020003026300,新規,0,2024-06-11,2024-06-11,合同会社ＤＥＡＳアセット,,合同会社,神奈川県,横浜市鶴見区,馬場３丁目２６番９号,,14,101,2300076,,,,,,,2024-06-11,1,,,,,ディーズアセット,0
1350,5020003026309,新規,0,2024-06-11,2024-06-11,合同会社ニアリスト,,合同会社,神奈川県,横浜市南区,花之木町２丁目２２番１号ウインベルソロ南太田第二５０９号,,14,105,2320018,,,,,,,2024-06-11,1,,,,,ニアリスト,0
1351,5020003026317,新規,0,2024-06-11,2024-06-11,合同会社蒼翠,,合同会社,神奈川県,横浜市西区,みなとみらい６丁目３番４－１２１１号,,14,103,2200012,,,,,,,2024-06-11,1,,,,,ソウスイ,0
1358,5021003014617,新規,0,2024-06-11,2024-06-11,合同会社ひょうげん教育,,合同会社,神奈川県,平塚市,四之宮６丁目１６番２９号,,14,203,2540014,,,,,,,2024-06-11,1,,,,,ヒョウゲンキョウイク,0
1364,5030001160819,新規,0,2024-06-11,2024-06-11,株式会社タマテック,,株式会社,埼玉県,行田市,持田３丁目３番９号,,11,206,3610056,,,,,,,2024-06-11,1,,,,,タマテック,0
1365,5030001160827,新規,0,2024-06-11,2024-06-11,Ｋ‐ＢＵＳＩＮＥＳＳ株式会社,,株式会社,埼玉県,越谷市,大字大道７２７番地３,,11,222,3430035,,,,,,,2024-06-11,1,,,,,ケービジネス,0
1366,5030001160868,新規,0,2024-06-11,2024-06-11,株式会社さくらの里,,株式会社,埼玉県,さいたま市大宮区,桜木町２丁目３番地大宮マルイ７階,,11,103,3300854,,,,,,,2024-06-11,1,,,,,サクラノサト,0
1367,5030001160876,新規,0,2024-06-11,2024-06-11,株式会社翼榮,,株式会社,埼玉県,八潮市,大字木曽根９６２番地１,,11,234,3400813,,,,,,,2024-06-11,1,,,,,ヨクハ,0
1368,5030001160884,新規,0,2024-06-11,2024-06-11,株式会社リロテクノサービス,,株式会社,埼玉県,川口市,芝東町１９番４－３号,,11,203,3330867,,,,,,,2024-06-11,1,,,,,リロテクノサービス,0
1376,5040001133988,新規,0,2024-06-11,2024-06-11,株式会社ウチデン,,株式会社,千葉県,富津市,二間塚２０４２番地１,,12,226,2930002,,,,,,,2024-06-11,1,,,,,ウチデン,0
1377,5040001133996,新規,0,2024-06-11,2024-06-11,株式会社華盛,,株式会社,千葉県,松戸市,古ケ崎４丁目３５３７番地の７,,12,207,2710068,,,,,,,2024-06-11,1,,,,,カセイ,0
1378,5040001134012,新規,0,2024-06-11,2024-06-11,株式会社ＭＡＨＡＭＥＲＵ　ＪＡＰＡＮ,,株式会社,千葉県,松戸市,本町６番地の８平野ビル,,12,207,2710091,,,,,,,2024-06-11,1,,,,,マハメルジャパン,0
1382,5040003025168,新規,0,2024-06-11,2024-06-11,合同会社オールウィン,,合同会社,千葉県,市原市,五井２４３５番地１グランシュミネアイ３０２号,,12,219,2900056,,,,,,,2024-06-11,1,,,,,オールウィン,0
1392,5060001037188,新規,0,2024-06-11,2024-06-11,株式会社佳音技研,,株式会社,栃木県,足利市,田中町９２０番地９－２０１,,09,202,3260822,,,,,,,2024-06-11,1,,,,,カノンギケン,0
1395,5070003005456,新規,0,2024-06-11,2024-06-11,ＣＵＥＬＰＯ合同会社,,合同会社,群馬県,前橋市,三河町１丁目２９番１２号,,10,201,3710015,,,,,,,2024-06-11,1,,,,,クエルポ,0
1399,5080101024811,新規,0,2024-06-11,2024-06-11,ＳＫＹ．Ｕ株式会社,,株式会社,静岡県,裾野市,富沢１９４番地,,22,220,4101125,,,,,,,2024-06-11,1,,,,,スカイユー,0
1404,5090003002583,新規,0,2024-06-11,2024-06-11,合同会社４ＤＣＣ,,合同会社,山梨県,北杜市,須玉町穴平６０番地,,19,209,4080111,,,,,,,2024-06-11,1,,,,,フォーディーシーシー,0
1410,5110001038461,新規,0,2024-06-11,2024-06-11,株式会社ＡｉＧＩＶＥ,,株式会社,新潟県,長岡市,大手通２丁目２番地６,,15,202,9400062,,,,,,,2024-06-11,1,,,,,アイギブ,0
1434,5120001265690,新規,0,2024-06-11,2024-06-11,株式会社ｉｒｏｈａ,,株式会社,大阪府,大阪市天王寺区,堂ケ芝１丁目２番３７－４０２号,,27,109,5430033,,,,,,,2024-06-11,1,,,,,イロハ,0
1435,5120001265699,新規,0,2024-06-11,2024-06-11,株式会社松生,,株式会社,大阪府,枚方市,茄子作２丁目２９番２－３０３号,,27,210,5730071,,,,,,,2024-06-11,1,,,,,マツオイ,0
1436,5120001265724,新規,0,2024-06-11,2024-06-11,株式会社ワイオーステータス,,株式会社,大阪府,大阪市東住吉区,南田辺３丁目８番２号ＡＧハイム５０１号,,27,121,5460033,,,,,,,2024-06-11,1,,,,,ワイオーステータス,0
1437,5120001265749,新規,0,2024-06-11,2024-06-11,株式会社ＡＶＡＮＣＥ,,株式会社,大阪府,大阪市東住吉区,杭全６丁目５番９号２Ｆ,,27,121,5460002,,,,,,,2024-06-11,1,,,,,アヴァンス,0
1438,5120001265765,新規,0,2024-06-11,2024-06-11,道古株式会社,,株式会社,大阪府,大阪市城東区,関目５丁目１９番９号関目花博公館６０８Ｂ,,27,118,5360008,,,,,,,2024-06-11,1,,,,,ドウコ,0
1442,5120003026760,新規,0,2024-06-11,2024-06-11,合同会社Ｓａｎｚｕｉ,,合同会社,大阪府,大阪市阿倍野区,阿倍野筋４丁目５番９号,,27,119,5450052,,,,,,,2024-06-11,1,,,,,サンズイ,0
1443,5120003026793,新規,0,2024-06-11,2024-06-11,Ｉｎｂｏｕｎｄ　Ｊａｐａｎ合同会社,,合同会社,大阪府,大阪市住之江区,南港北２丁目１－１０,,27,125,5590034,,,,,,,2024-06-11,1,,,,,インバウンドジャパン,0
1444,5120003026810,新規,0,2024-06-11,2024-06-11,合同会社ｅｉｇｈｔ８,,合同会社,大阪府,寝屋川市,高宮新町２９－１５,,27,215,5720847,,,,,,,2024-06-11,1,,,,,エイト,0
1445,5120005024374,新規,0,2024-06-11,2024-06-11,一般社団法人大阪美食会,,その他の設立登記法人,大阪府,大阪市此花区,島屋４丁目３番２５号,,27,104,5540024,,,,,,,2024-06-11,1,,,,,オオサカビショクカイ,0
1450,5120901049292,新規,0,2024-06-11,2024-06-11,株式会社芦田コンサルティング,,株式会社,大阪府,高槻市,白梅町５番２０－１１０６号,,27,207,5691116,,,,,,,2024-06-11,1,,,,,アシダコンサルティング,0
1451,5120903005211,新規,0,2024-06-11,2024-06-11,ファヴォリ合同会社,,合同会社,大阪府,高槻市,月見町３番３,,27,207,5691122,,,,,,,2024-06-11,1,,,,,ファヴォリ,0
1459,5130001077219,新規,0,2024-06-11,2024-06-11,株式会社ＫｙｏｔｏＡＩ,,株式会社,京都府,京都市下京区,七条通油小路東入大黒町２２７番地第二キョートビル４０２,,26,106,6008223,,,,,,,2024-06-11,1,,,,,キョウトエーアイ,0
1460,5130001077227,新規,0,2024-06-11,2024-06-11,株式会社ｉｎｏｕｅ,,株式会社,京都府,京都市伏見区,羽束師鴨川町２７０番地１３６,,26,109,6128484,,,,,,,2024-06-11,1,,,,,イノウエ,0
1461,5130001077235,新規,0,2024-06-11,2024-06-11,ＴＡＱ株式会社,,株式会社,京都府,京都市下京区,猪熊通高辻下る高辻猪熊町３５９番地,00135099,26,106,6008353,,,,,,,2024-06-11,1,,,,,タク,0
1462,5130001077243,新規,0,2024-06-11,2024-06-11,日本黙然株式会社,,株式会社,京都府,京都市右京区,西院東今田町３７－４ラトゥール西院２０２,,26,108,6160000,,,,,,,2024-06-11,1,,,,,ニホンモクゼン,0
1470,5140001134720,新規,0,2024-06-11,2024-06-11,株式会社アビック赤穂,,株式会社,兵庫県,神戸市中央区,琴ノ緒町５丁目６番１号,,28,110,6510094,,,,,,,2024-06-11,1,,,,,アビックアコウ,0
1471,5140001134778,新規,0,2024-06-11,2024-06-11,株式会社ＨＰＫ,,株式会社,兵庫県,姫路市,飾磨区英賀清水町３丁目９２番地,,28,201,6728084,,,,,,,2024-06-11,1,,,,,エイチピーケー,0
1473,5140003020687,新規,0,2024-06-11,2024-06-11,合同会社ファイブ・ユニテック,,合同会社,兵庫県,伊丹市,口酒井１丁目２番１－２０１号,,28,207,6640844,,,,,,,2024-06-11,1,,,,,ファイブユニテック,0
1474,5140003020704,新規,0,2024-06-11,2024-06-11,ヘッジホッグワークス合同会社,,合同会社,兵庫県,三田市,武庫が丘７丁目４番地Ｆ棟１０３号,,28,219,6691544,,,,,,,2024-06-11,1,,,,,ヘッジホッグワークス,0
1478,5170001018177,新規,0,2024-06-11,2024-06-11,株式会社ＭＳＯ,,株式会社,和歌山県,岩出市,野上野４０２番地の１０,,30,209,6496216,,,,,,,2024-06-11,1,,,,,エムエスオー,0
1486,5180001161892,新規,0,2024-06-11,2024-06-11,株式会社アムゴナ,,株式会社,愛知県,名古屋市熱田区,一番３丁目２番７３号－１,,23,109,4560053,,,,,,,2024-06-11,1,,,,,アムゴナ,0
1487,5180001161950,新規,0,2024-06-11,2024-06-11,株式会社インフィニティ,,株式会社,愛知県,一宮市,野口２丁目１２番９号,,23,203,4910911,,,,,,,2024-06-11,1,,,,,インフィニティ,0
1488,5180001161967,新規,0,2024-06-11,2024-06-11,名古屋ビジネスサポート株式会社,,株式会社,愛知県,名古屋市中区,丸の内３丁目２１番１９号,,23,106,4600002,,,,,,,2024-06-11,1,,,,,ナゴヤビジネスサポート,0
1499,5190003004710,新規,0,2024-06-11,2024-06-11,ｍａｓｕｉｂａｓｅ合同会社,,合同会社,三重県,志摩市,大王町畔名７２５番地１,,24,215,5170601,,,,,,,2024-06-11,1,,,,,マスイベース,0
1511,5230001020382,新規,0,2024-06-11,2024-06-11,株式会社エネリア富山,,株式会社,富山県,富山市,婦中町下轡田４９６番地２,,16,201,9392716,,,,,,,2024-06-11,1,,,,,エネリアトヤマ,0
1512,5230003002230,新規,0,2024-06-11,2024-06-11,合同会社Ｎｕｍｂｅｒ,,合同会社,富山県,高岡市,大野２６７番地２,,16,202,9330016,,,,,,,2024-06-11,1,,,,,,0
1514,5240001063364,新規,0,2024-06-11,2024-06-11,株式会社雅興業,,株式会社,広島県,福山市,引野町南１丁目７番１６号,,34,207,7210945,,,,,,,2024-06-11,1,,,,,ミヤビコウギョウ,0
1521,5260003004785,新規,0,2024-06-11,2024-06-11,合同会社プロローグライズ,,合同会社,岡山県,美作市,湯郷９７９番地１,,33,215,7070062,,,,,,,2024-06-11,1,,,,,プロローグライズ,0
1523,5270001008993,新規,0,2024-06-11,2024-06-11,株式会社なべでん,,株式会社,鳥取県,米子市,大篠津町４４７７番地９,,31,202,6830101,,,,,,,2024-06-11,1,,,,,ナベデン,0
1524,5270003001633,新規,0,2024-06-11,2024-06-11,合同会社Ｔａｃｕ,,合同会社,鳥取県,鳥取市,晩稲５００番地セピアパロス１０４号,,31,201,6800904,,,,,,,2024-06-11,1,,,,,タキュ,0
1525,5280001009198,新規,0,2024-06-11,2024-06-11,株式会社トライテッド,,株式会社,島根県,松江市,西津田３丁目７番２１号,,32,201,6900017,,,,,,,2024-06-11,1,,,,,トライテッド,0
1530,5290001106077,新規,0,2024-06-11,2024-06-11,インテリアＺＥＲＯ株式会社,,株式会社,福岡県,大野城市,旭ケ丘２丁目１２番６号,,40,219,8160953,,,,,,,2024-06-11,1,,,,,インテリアゼロ,0
1532,5290003015409,新規,0,2024-06-11,2024-06-11,合同会社ｂａｎｄ,,合同会社,福岡県,福岡市中央区,今泉１丁目１０番３－５０１号ソシアル天神,,40,133,8100021,,,,,,,2024-06-11,1,,,,,バンド,0
1533,5290003015417,新規,0,2024-06-11,2024-06-11,合同会社Ｃｈｕａｎ．,,合同会社,福岡県,福岡市中央区,大手門１丁目２番１８号１１０５号,,40,133,8100074,,,,,,,2024-06-11,1,,,,,チュアン,0
1538,5290801030633,新規,0,2024-06-11,2024-06-11,株式会社ＧＯＡＴ,,株式会社,福岡県,北九州市若松区,ひびきの北９番４７号レジェンドハイムＥ棟２０１号,,40,103,8080138,,,,,,,2024-06-11,1,,,,,ゴート,0
1544,5340001026567,新規,0,2024-06-11,2024-06-11,株式会社ひらはらテクノ,,株式会社,鹿児島県,姶良郡湧水町,川西７９０番地５,,46,452,8996104,,,,,,,2024-06-11,1,,,,,ヒラハラテクノ,0
1546,5360001033801,新規,0,2024-06-11,2024-06-11,株式会社Ｓｍｉｔｈｆｉｅｌｄ,,株式会社,沖縄県,宮古島市,下地字与那覇１０９６番地１,,47,214,9060305,,,,,,,2024-06-11,1,,,,,スミスフィールド,0
1550,5370001051372,新規,0,2024-06-11,2024-06-11,株式会社ガスワン東北,,株式会社,宮城県,仙台市宮城野区,中野字神明１３０番地,,04,102,9830013,,,,,,,2024-06-11,1,,,,,ガスワントウホク,0
1551,5370001051389,新規,0,2024-06-11,2024-06-11,右投げ左打ちソフトテクノロジーズ株式会社,,株式会社,宮城県,登米市,迫町北方字地粮２３６―１,,04,212,9870513,,,,,,,2024-06-11,1,,,,,ミギナゲヒダリウチソフトテクノロジーズ,0
1552,5370003006639,新規,0,2024-06-11,2024-06-11,合同会社ラシュラン,,合同会社,宮城県,仙台市泉区,紫山５丁目３０－１０,,04,105,9813205,,,,,,,2024-06-11,1,,,,,ラシュラン,0
1554,5380001034599,新規,0,2024-06-11,2024-06-11,株式会社Ｗｅｒｆｅｎ,,株式会社,福島県,いわき市,好間町中好間字鍛冶内１９番地の５,,07,204,9701152,,,,,,,2024-06-11,1,,,,,ヴェルフェン,0
1558,5390001017644,新規,0,2024-06-11,2024-06-11,株式会社Ｈｕｉ‐ｈｏｎｕ,,株式会社,山形県,山形市,香澄町２丁目６番１９号,,06,201,9900039,,,,,,,2024-06-11,1,,,,,フイホヌ,0
1559,5390001017652,新規,0,2024-06-11,2024-06-11,株式会社やまの庭,,株式会社,山形県,天童市,大字川原子３０２８―１,,06,210,9940103,,,,,,,2024-06-11,1,,,,,ヤマノニワ,0
1562,5410001013847,新規,0,2024-06-11,2024-06-11,純設備工業株式会社,,株式会社,秋田県,秋田市,新屋朝日町１２番２５号,,05,201,0101613,,,,,,,2024-06-11,1,,,,,ジュンセツビコウギョウ,0
1567,5430001092006,新規,0,2024-06-11,2024-06-11,株式会社斗翔,,株式会社,北海道,苫小牧市,のぞみ町３丁目８番９号,,01,213,0591272,,,,,,,2024-06-11,1,,,,,トワ,0
1568,5430003016433,新規,0,2024-06-11,2024-06-11,合同会社ＥＺＯ　ＳＮＯＷＳＰＯＲＴＳ,,合同会社,北海道,虻田郡喜茂別町,字伏見１番地の２１,,01,398,0440221,,,,,,,2024-06-11,1,,,,,エゾスノースポーツ,0
1571,5450003002497,新規,0,2024-06-11,2024-06-11,合同会社呉風,,合同会社,北海道,富良野市,朝日町６番３３号,,01,229,0760026,,,,,,,2024-06-11,1,,,,,ゴウフ,0
1572,5460101007562,新規,0,2024-06-11,2024-06-11,株式会社ＧＯＯＤ　ＪＯＢ,,株式会社,北海道,帯広市,南の森西７丁目８番１１号,,01,207,0800862,,,,,,,2024-06-11,1,,,,,グッドジョブ,0
1578,5500001025684,新規,0,2024-06-11,2024-06-11,株式会社Ｊプロパティ,,株式会社,愛媛県,松山市,喜与町１丁目６番地２２,,38,201,7900802,,,,,,,2024-06-11,1,,,,,ジェイプロパティ,0
1580,5700150125356,新規,0,2024-06-11,2024-05-14,クレヴィア大阪同心セントラル管理組合,,その他,大阪府,大阪市北区,同心２丁目１４－８,,27,127,5300035,,,,,,,2024-05-14,1,,,,,クレヴイアオオサカドウシンセントラルカンリクミアイ,0
1581,5700150125876,新規,0,2024-06-11,2024-06-11,東中延一丁目１１番地区防災街区整備事業組合,,その他,東京都,港区,芝浦３丁目９番１号,,13,103,1080023,,,,,,,2024-06-11,1,,,,,ヒガシナカノブイツチヨウメジユウイチバンチクボウサイガイクセイビジギヨウクミアイ,0
1591,6010001245579,新規,0,2024-06-11,2024-06-11,株式会社マリンケファ・アドバイザーズ,,株式会社,東京都,中央区,日本橋箱崎町３番１４号,,13,102,1030015,,,,,,,2024-06-11,1,,,,,マリンケファアドバイザーズ,0
1592,6010001245595,新規,0,2024-06-11,2024-06-11,アリルジュ株式会社,,株式会社,東京都,千代田区,神田錦町１丁目２７番地,,13,101,1010054,,,,,,,2024-06-11,1,,,,,アリルジュ,0
1593,6010001245629,新規,0,2024-06-11,2024-06-11,ＣＯＣＯ株式会社,,株式会社,東京都,中央区,銀座１丁目１２番４号Ｎ＆ＥＢＬＤ．６Ｆ,,13,102,1040061,,,,,,,2024-06-11,1,,,,,ココ,0
1594,6010001245645,新規,0,2024-06-11,2024-06-11,株式会社ゴーサバイバー,,株式会社,東京都,中央区,日本橋大伝馬町１１番８号５Ｆ,,13,102,1030011,,,,,,,2024-06-11,1,,,,,ゴーサバイバー,0
1595,6010001245686,新規,0,2024-06-11,2024-06-11,株式会社Ｍ‐ａｇｅｎｃｙ,,株式会社,東京都,中央区,銀座１丁目１２番４号Ｎ＆ＥＢＬＤ．６Ｆ,,13,102,1040061,,,,,,,2024-06-11,1,,,,,エムエージェンシー,0
1596,6010003043980,新規,0,2024-06-11,2024-06-11,ＭＩトラスト合同会社,,合同会社,東京都,中央区,晴海３丁目１６番１－１００３号,,13,102,1040053,,,,,,,2024-06-11,1,,,,,エムアイトラスト,0
1609,6010401183040,新規,0,2024-06-11,2024-06-11,株式会社ＣＡＮＶＡＳ,,株式会社,東京都,港区,芝浦４丁目１３番２３号,,13,103,1080023,,,,,,,2024-06-11,1,,,,,キャンバス,0
1610,6010401183049,新規,0,2024-06-11,2024-06-11,株式会社ＭＴ,,株式会社,東京都,港区,芝浦１丁目６番４１－１１１２号,,13,103,1050023,,,,,,,2024-06-11,1,,,,,エムティー,0
1611,6010401183081,新規,0,2024-06-11,2024-06-11,豐株式会社,,株式会社,東京都,港区,赤坂８丁目６番１７号,,13,103,1070052,,,,,,,2024-06-11,1,,,,,ユタカ,0
1617,6010501052442,新規,0,2024-06-11,2024-06-11,新京和株式会社,,株式会社,東京都,台東区,上野３丁目１９番１号３階,,13,106,1100005,,,,,,,2024-06-11,1,,,,,シンキョウワ,0
1621,6010801035130,新規,0,2024-06-11,2024-06-11,株式会社ＢＡＬＡＮＣＥ,,株式会社,東京都,大田区,新蒲田１丁目２２－１６グランイーグル新蒲田ＩＩ２０２,00135096,13,111,1440054,,,,,,,2024-06-11,1,,,,,バランス,0
1622,6010801035139,新規,0,2024-06-11,2024-06-11,株式会社リワーズ,,株式会社,東京都,大田区,羽田５丁目１８番１７号,,13,111,1440043,,,,,,,2024-06-11,1,,,,,リワーズ,0
1623,6010901055433,新規,0,2024-06-11,2024-06-11,株式会社Ｌｅ　ｌｉｅｎ,,株式会社,東京都,世田谷区,祖師谷４丁目９番４号,,13,112,1570072,,,,,,,2024-06-11,1,,,,,ルリアン,0
1624,6010901055441,新規,0,2024-06-11,2024-06-11,株式会社コネクタ,,株式会社,東京都,世田谷区,松原５丁目６０番６号,,13,112,1560043,,,,,,,2024-06-11,1,,,,,コネクタ,0
1629,6011001162715,新規,0,2024-06-11,2024-06-11,株式会社オークラ,,株式会社,東京都,渋谷区,松濤１丁目２６番２２号松濤１丁目ビル４０１,,13,113,1500046,,,,,,,2024-06-11,1,,,,,オークラ,0
1632,6011101107561,新規,0,2024-06-11,2024-06-11,Ｘ‐Ｆａｃｔｏｒ株式会社,,株式会社,東京都,新宿区,西新宿３丁目３番１３号西新宿水間ビル２Ｆ,,13,104,1600023,,,,,,,2024-06-11,1,,,,,エックスファクター,0
1633,6011101107644,新規,0,2024-06-11,2024-06-11,株式会社Ｋａｋｕｈａｎ,,株式会社,東京都,新宿区,新宿３丁目１２番４号新宿Ｎタウンプラザ３０９号,,13,104,1600022,,,,,,,2024-06-11,1,,,,,カクハン,0
1635,6011103014533,新規,0,2024-06-11,2024-06-11,ＡＡＡ合同会社,,合同会社,東京都,新宿区,新宿６丁目７番４号,,13,104,1600022,,,,,,,2024-06-11,1,,,,,トリプルエー,0
1636,6011501030792,新規,0,2024-06-11,2024-06-11,株式会社野口ドライビングスクール,,株式会社,東京都,北区,赤羽北２丁目３５番１３号,,13,117,1150052,,,,,,,2024-06-11,1,,,,,ノグチドライビングスクール,0
1644,6012801023247,新規,0,2024-06-11,2024-06-11,株式会社シーアールイー,,株式会社,東京都,国分寺市,東元町２丁目２番９号,,13,214,1850022,,,,,,,2024-06-11,1,,,,,シーアールイー,0
1646,6013301052653,新規,0,2024-06-11,2024-06-11,株式会社曙光,,株式会社,東京都,豊島区,南池袋１丁目１６番１５号ダイヤゲート池袋５階,,13,116,1710022,,,,,,,2024-06-11,1,,,,,ショコウ,0
1648,6013303007176,新規,0,2024-06-11,2024-06-11,星月合同会社,,合同会社,東京都,豊島区,長崎５丁目２５番５号,,13,116,1710051,,,,,,,2024-06-11,1,,,,,セイゲツ,0
1650,6020001157641,新規,0,2024-06-11,2024-06-11,ゾウＥＶレンタル株式会社,,株式会社,神奈川県,川崎市高津区,久地１丁目２３－８－２,,14,134,2130032,,,,,,,2024-06-11,1,,,,,ゾウイーブイレンタル,0
1651,6020001157658,新規,0,2024-06-11,2024-06-11,株式会社クイーンズ,,株式会社,神奈川県,横浜市神奈川区,六角橋２丁目２８番１７号ヨコハマベイダイヤモンドストリーム４０１,,14,102,2210802,,,,,,,2024-06-11,1,,,,,クイーンズ,0
1652,6020003026282,新規,0,2024-06-11,2024-06-11,合同会社Ｒ＆Ａ,,合同会社,神奈川県,横浜市南区,真金町２丁目２０－９－２０５,,14,105,2320021,,,,,,,2024-06-11,1,,,,,アールアンドエー,0
1653,6020003026349,新規,0,2024-06-11,2024-06-11,合同会社ＰｒｅＣａｒｅｅｒ,,合同会社,神奈川県,横浜市青葉区,藤が丘１丁目２８番地１２シーズ・レフィネ３０３,,14,117,2270043,,,,,,,2024-06-11,1,,,,,プリキャリア,0
1658,6021001082441,新規,0,2024-06-11,2024-06-11,株式会社美輝工業,,株式会社,神奈川県,海老名市,勝瀬１番５－７０１号,,14,215,2430404,,,,,,,2024-06-11,1,,,,,ミキコウギョウ,0
1659,6021001082458,新規,0,2024-06-11,2024-06-11,株式会社ＭｏＡ‐ｅ,,株式会社,神奈川県,相模原市南区,南台５丁目１２番２１号,,14,153,2520314,,,,,,,2024-06-11,1,,,,,モアイー,0
1660,6021001082482,新規,0,2024-06-11,2024-06-11,ディエスエル株式会社,,株式会社,神奈川県,大和市,下鶴間２５７０―１―５０４,,14,213,2420001,,,,,,,2024-06-11,1,,,,,ディエスエル,0
1661,6021003014624,新規,0,2024-06-11,2024-06-11,らうらう合同会社,,合同会社,神奈川県,藤沢市,藤沢１００３－８クリオ藤沢弐番館９０２,,14,205,2510052,,,,,,,2024-06-11,1,,,,,ラウラウ,0
1666,6030001160826,新規,0,2024-06-11,2024-06-11,スターリースカイズ株式会社,,株式会社,埼玉県,さいたま市西区,大字佐知川３８８番地７,,11,101,3310064,,,,,,,2024-06-11,1,,,,,スターリースカイズ,0
1667,6030001160859,新規,0,2024-06-11,2024-06-11,株式会社於母影舎,,株式会社,埼玉県,さいたま市緑区,大字大間木７５５,,11,109,3360923,,,,,,,2024-06-11,1,,,,,オモカゲシャ,0
1668,6030001160867,新規,0,2024-06-11,2024-06-11,株式会社島建,,株式会社,埼玉県,川口市,大字安行北谷５６１番地の２,,11,203,3340054,,,,,,,2024-06-11,1,,,,,シマケン,0
1669,6030001160875,新規,0,2024-06-11,2024-06-11,株式会社キヤタ,,株式会社,埼玉県,飯能市,大字下名栗４１４－１,,11,209,3570112,,,,,,,2024-06-11,1,,,,,キヤタ,0
1678,6040001133979,新規,0,2024-06-11,2024-06-11,株式会社明月,,株式会社,千葉県,千葉市若葉区,大草町５８５番地,,12,104,2640011,,,,,,,2024-06-11,1,,,,,メイゲツ,0
1679,6040001133987,新規,0,2024-06-11,2024-06-11,雅国際交流株式会社,,株式会社,千葉県,千葉市花見川区,朝日ケ丘５丁目１９番４号,,12,102,2620019,,,,,,,2024-06-11,1,,,,,ミヤビコクサイコウリュウ,0
1680,6040001134011,新規,0,2024-06-11,2024-06-11,株式会社グリーン・リバティ,,株式会社,千葉県,千葉市美浜区,ひび野１丁目４番３新日本ビル１階,,12,106,2610021,,,,,,,2024-06-11,1,,,,,グリーンリバティ,0
1681,6040001134052,新規,0,2024-06-11,2024-06-11,株式会社アンソレイユ,,株式会社,千葉県,浦安市,入船１丁目８―１ー１６０２,,12,227,2790012,,,,,,,2024-06-11,1,,,,,アンソレイユ,0
1687,6040003025183,新規,0,2024-06-11,2024-06-11,Ｃｒｅａｔｉｖｅ　Ｌｅａｒｎｉｎｇ　Ｌｏｕｎｇｅ合同会社,,合同会社,千葉県,市川市,南行徳１丁目３－８－２０２,,12,203,2720138,,,,,,,2024-06-11,1,,,,,クリエイティブラーニングラウンジ,0
1689,6050001054910,新規,0,2024-06-11,2024-06-11,ＳｈａｄｏｗＰｏｗｅｒＧＯＬＦ株式会社,,株式会社,茨城県,小美玉市,西郷地１４６８番地２,,08,236,3190102,,,,,,,2024-06-11,1,,,,,シャドウパワーゴルフ,0
1690,6050001054927,新規,0,2024-06-11,2024-06-11,株式会社常陸乃計画,,株式会社,茨城県,常陸太田市,中城町４５０９番地,,08,212,3130061,,,,,,,2024-06-11,1,,,,,ヒタチノケイカク,0
1692,6050003008435,新規,0,2024-06-11,2024-06-11,ＧＯＥＮ合同会社,,合同会社,茨城県,古河市,坂間３３７番地２,,08,204,3060056,,,,,,,2024-06-11,1,,,,,ゴエン,0
1693,6050003008443,新規,0,2024-06-11,2024-06-11,合同会社ＴＷＭ,,合同会社,茨城県,水戸市,住吉町１９３番地の５,,08,201,3100844,,,,,,,2024-06-11,1,,,,,ティダブリュウエム,0
1696,6070001041849,新規,0,2024-06-11,2024-06-11,株式会社Ｏｎｃｅ　Ｌｉｆｅ,,株式会社,群馬県,高崎市,天神町２３ＦＵＪＩオフィシィズ１０１,,10,202,3700061,,,,,,,2024-06-11,1,,,,,ワンスライフ,0
1697,6070001041857,新規,0,2024-06-11,2024-06-11,株式会社ＭＩ,,株式会社,群馬県,高崎市,西横手町５２－２,,10,202,3700021,,,,,,,2024-06-11,1,,,,,エムアイ,0
1700,6070005010288,新規,0,2024-06-11,2024-06-11,一般社団法人地域のチカラ,,その他の設立登記法人,群馬県,富岡市,内匠４７５番地３,,10,210,3702331,,,,,,,2024-06-11,1,,,,,チイキノチカラ,0
1708,6080101024802,新規,0,2024-06-11,2024-06-11,株式会社安藤ＥＸ,,株式会社,静岡県,富士市,今泉３２４７番地の２６,,22,210,4170001,,,,,,,2024-06-11,1,,,,,アンドウイーエックス,0
1709,6080101024810,新規,0,2024-06-11,2024-06-11,株式会社ＧＥＭＩＮＩ,,株式会社,静岡県,三島市,梅名４０３番地の１,,22,206,4110816,,,,,,,2024-06-11,1,,,,,ジェミニ,0
1711,6080401027216,新規,0,2024-06-11,2024-06-11,株式会社オーラトレーディング,,株式会社,静岡県,浜松市中央区,新橋町２２番地の１,,22,138,4328058,,,,,,,2024-06-11,1,,,,,オーラトレーディング,0
1720,6110003005418,新規,0,2024-06-11,2024-06-11,合同会社踊り場,,合同会社,新潟県,新潟市中央区,古町通３番町６５３,,15,103,9518063,,,,,,,2024-06-11,1,,,,,オドリバ,0
1732,6120001265707,新規,0,2024-06-11,2024-06-11,株式会社小栗建設,,株式会社,大阪府,大阪市東淀川区,豊新３丁目２２番２２号,,27,114,5330014,,,,,,,2024-06-11,1,,,,,オグリケンセツ,0
1733,6120001265723,新規,0,2024-06-11,2024-06-11,株式会社Ｍｅｎａｉｌ,,株式会社,大阪府,大阪市中央区,心斎橋筋１丁目１０番１２号,,27,128,5420085,,,,,,,2024-06-11,1,,,,,ミーネイル,0
1734,6120001265748,新規,0,2024-06-11,2024-06-11,ＹＭＢ株式会社,,株式会社,大阪府,大阪市淀川区,西中島５丁目８番２９－７１０号,,27,123,5320011,,,,,,,2024-06-11,1,,,,,ワイエムビー,0
1735,6120001265764,新規,0,2024-06-11,2024-06-11,株式会社ＭＩＳＯＯ,,株式会社,大阪府,大阪市西区,北堀江１丁目２番６－１５０４号,,27,106,5500014,,,,,,,2024-06-11,1,,,,,ミス,0
1736,6120001265814,新規,0,2024-06-11,2024-06-11,鴻福株式会社,,株式会社,大阪府,大阪市都島区,友渕町１丁目３番１７－４０９号,,27,102,5340016,,,,,,,2024-06-11,1,,,,,コウフク,0
1741,6120101069743,新規,0,2024-06-11,2024-06-11,株式会社樹,,株式会社,大阪府,泉南市,岡田５丁目２０番１６号,,27,228,5900531,,,,,,,2024-06-11,1,,,,,イツキ,0
1749,6130001077242,新規,0,2024-06-11,2024-06-11,株式会社ＶＩＳＩＯＮ,,株式会社,京都府,城陽市,寺田深谷７番地の１１６,,26,207,6100121,,,,,,,2024-06-11,1,,,,,ビジョン,0
1750,6130005017112,新規,0,2024-06-11,2024-06-11,一般社団法人ＮＥＸＵＳ　ＣＯＬＬＥＧＥ,,その他の設立登記法人,京都府,京都市下京区,東塩小路町６１４番地－２階,,26,106,6000000,,,,,,,2024-06-11,1,,,,,ネクサスカレッジ,0
1756,6140001134728,新規,0,2024-06-11,2024-06-11,ユーシン技研株式会社,,株式会社,兵庫県,神戸市西区,押部谷町高和堂東１３６４－１４,,28,111,6512204,,,,,,,2024-06-11,1,,,,,ユーシンギケン,0
1763,6160001025990,新規,0,2024-06-11,2024-06-11,株式会社きもと工務店,,株式会社,滋賀県,大津市,大平２丁目２５番１７号,,25,201,5200867,,,,,,,2024-06-11,1,,,,,キモトコウムテン,0
1764,6160001025999,新規,0,2024-06-11,2024-06-11,株式会社翔,,株式会社,滋賀県,大津市,月輪２丁目２２番６３号,,25,201,5202152,,,,,,,2024-06-11,1,,,,,カケル,0
1765,6160003003210,新規,0,2024-06-11,2024-06-11,ＯＴＴＯジャパン合同会社,,合同会社,滋賀県,湖南市,吉永５０７番地２９,,25,211,5203222,,,,,,,2024-06-11,1,,,,,,0
1767,6170001018176,新規,0,2024-06-11,2024-06-11,株式会社きり松,,株式会社,和歌山県,和歌山市,福島５７２番地３８,,30,201,6408401,,,,,,,2024-06-11,1,,,,,キリマツ,0
1772,6180001161859,新規,0,2024-06-11,2024-06-11,株式会社ＨＲ　Ｂｕｔｌｅｒ,,株式会社,愛知県,名古屋市北区,大曽根３丁目１０番７号,,23,103,4620825,,,,,,,2024-06-11,1,,,,,エイチアールバトラー,0
1773,6180001161891,新規,0,2024-06-11,2024-06-11,株式会社ぴくしー,,株式会社,愛知県,稲沢市,子生和町中屋敷８７５番地５,,23,220,4928106,,,,,,,2024-06-11,1,,,,,ピクシー,0
1774,6180001161900,新規,0,2024-06-11,2024-06-11,株式会社エムズテクニカルズ,,株式会社,愛知県,北名古屋市,九之坪石ノ戸１０番地,,23,234,4810041,,,,,,,2024-06-11,1,,,,,エムズテクニカルズ,0
1775,6180001161917,新規,0,2024-06-11,2024-06-11,株式会社ここちいい,,株式会社,愛知県,名古屋市東区,矢田南３丁目７番８号－５,,23,102,4610048,,,,,,,2024-06-11,1,,,,,ココチイイ,0
1781,6190001031409,新規,0,2024-06-11,2024-06-11,株式会社しのびと,,株式会社,三重県,伊賀市,中友田６５５‐２,,24,216,5181304,,,,,,,2024-06-11,1,,,,,シノビト,0
1782,6200001042577,新規,0,2024-06-11,2024-06-11,株式会社瑞穂テクニカ,,株式会社,岐阜県,瑞穂市,古橋９１０番地２,,21,216,5010322,,,,,,,2024-06-11,1,,,,,ミズホテクニカ,0
1783,6210001019789,新規,0,2024-06-11,2024-06-11,株式会社果樹園,,株式会社,福井県,福井市,中央１丁目９番２３号,,18,201,9100006,,,,,,,2024-06-11,1,,,,,カジュエン,0
1786,6240001063371,新規,0,2024-06-11,2024-06-11,ひのでＨｏｌｄｉｎｇｓ株式会社,,株式会社,広島県,広島市南区,段原日出１丁目１２－１８－３０２,,34,103,7320818,,,,,,,2024-06-11,1,,,,,ヒノデホールディングス,0
1787,6260001039163,新規,0,2024-06-11,2024-06-11,＿園ＫＭ不動産株式会社,00135108,株式会社,岡山県,岡山市北区,下石井２丁目１０番１２号,,33,101,7000907,,,,,,,2024-06-11,1,,,,,テイエンケーエムフドウサン,0
1788,6260001039171,新規,0,2024-06-11,2024-06-11,株式会社ＥＧＯＩＳＴＡ　ＷＥＤＤＩＮＧ,,株式会社,岡山県,真庭市,上水田８３５２番地,,33,214,7161411,,,,,,,2024-06-11,1,,,,,エゴイスタウェディング,0
1789,6260003004784,新規,0,2024-06-11,2024-06-11,合同会社スターポンテ,,合同会社,岡山県,岡山市北区,吉備津１９０３番地３,,33,101,7011341,,,,,,,2024-06-11,1,,,,,スターポンテ,0
1790,6270001008992,新規,0,2024-06-11,2024-06-11,株式会社グローウィング・ガーデン,,株式会社,鳥取県,鳥取市,福部町湯山４２２番地,,31,201,6890105,,,,,,,2024-06-11,1,,,,,グローウィングガーデン,0
1797,6290001106051,新規,0,2024-06-11,2024-06-11,株式会社ホームアセットアルファー,,株式会社,福岡県,福岡市博多区,奈良屋町１番１５号,,40,132,8120023,,,,,,,2024-06-11,1,,,,,ホームアセットアルファー,0
1798,6290001106076,新規,0,2024-06-11,2024-06-11,株式会社ＬＯＬ　Ｆａｍｉｌｉａ,,株式会社,福岡県,福岡市中央区,清川３丁目２６番１９号,,40,133,8100005,,,,,,,2024-06-11,1,,,,,ロルファミリア,0
1800,6290003015416,新規,0,2024-06-11,2024-06-11,合同会社ＳｉｍｐｌｅＰｌａｎＤｉｒｅｃｔｉｏｎ,,合同会社,福岡県,福岡市南区,大橋１丁目１１番６－３０２号,,40,134,8150033,,,,,,,2024-06-11,1,,,,,シンプルプランディレクション,0
1805,6330001032160,新規,0,2024-06-11,2024-06-11,株式会社錦ケ丘ホールディングス,,株式会社,熊本県,熊本市東区,錦ケ丘５番１０号,,43,102,8620912,,,,,,,2024-06-11,1,,,,,ニシキガオカホールディング,0
1807,6340003004504,新規,0,2024-06-11,2024-06-11,合同会社ＹＳＭＣ,,合同会社,鹿児島県,鹿児島市,西田２丁目１３番１６号,,46,201,8900046,,,,,,,2024-06-11,1,,,,,ワイエスエムシィ,0
1811,6360001033800,新規,0,2024-06-11,2024-06-11,株式会社Ｋｕｒａｎｄａ,,株式会社,沖縄県,宮古島市,下地字与那覇１０９６番地１,,47,214,9060305,,,,,,,2024-06-11,1,,,,,キュランダ,0
1812,6360003013965,新規,0,2024-06-11,2024-06-11,合同会社ハウスクリーニングＨｏｌｏｉ,,合同会社,沖縄県,国頭郡本部町,字新里６４６番地,,47,308,9050208,,,,,,,2024-06-11,1,,,,,ハウスクリーニングホロイ,0
1813,6360003014063,新規,0,2024-06-11,2024-06-11,合同会社みずたま,,合同会社,沖縄県,石垣市,字大浜１１７２番地９０,,47,207,9070001,,,,,,,2024-06-11,1,,,,,ミズタマ,0
1814,6370001051396,新規,0,2024-06-11,2024-06-11,株式会社ハルメノス,,株式会社,宮城県,登米市,中田町浅水字新田２６８番地１,,04,212,9870611,,,,,,,2024-06-11,1,,,,,ハルメノス,0
1815,6370001051413,新規,0,2024-06-11,2024-06-11,株式会社スタジオフッド,,株式会社,宮城県,石巻市,中央２丁目１０番２号新田屋ビル３階,,04,202,9860822,,,,,,,2024-06-11,1,,,,,スタジオフッド,0
1817,6370003006646,新規,0,2024-06-11,2024-06-11,合同会社結,,合同会社,宮城県,仙台市青葉区,中央４丁目４番１９号アーバンネット仙台中央ビル２Ｆ,,04,101,9800021,,,,,,,2024-06-11,1,,,,,ムスビ,0
1821,6380001034598,新規,0,2024-06-11,2024-06-11,株式会社メディカルケア,,株式会社,福島県,いわき市,平中平窪１丁目１番地１,,07,204,9708002,,,,,,,2024-06-11,1,,,,,メディカルケア,0
1822,6380003005779,新規,0,2024-06-11,2024-06-11,ＡＳＡＨＩ　ＴＲＡＤＩＮＧ合同会社,,合同会社,福島県,白河市,会津町２６番地７朝日コーポ２０１号,,07,205,9610075,,,,,,,2024-06-11,1,,,,,アサヒトレーディング,0
1833,6430001091980,新規,0,2024-06-11,2024-06-11,株式会社ススキノクラス,,株式会社,北海道,札幌市中央区,南五条西３丁目１０番地ニューすすきのビル３階,,01,101,0640805,,,,,,,2024-06-11,1,,,,,ススキノクラス,0
1834,6430001091989,新規,0,2024-06-11,2024-06-11,株式会社ＫＯＴＯＢＵＫＩ,,株式会社,北海道,苫小牧市,青雲町３丁目３番８号,,01,213,0591263,,,,,,,2024-06-11,1,,,,,コトブキ,0
1835,6430001091997,新規,0,2024-06-11,2024-06-11,株式会社ＣＲＡＦＴ,,株式会社,北海道,札幌市清田区,清田七条１丁目２７番８号,,01,110,0040847,,,,,,,2024-06-11,1,,,,,クラフト,0
1836,6430001092021,新規,0,2024-06-11,2024-06-11,株式会社ＮＥＸＴ,,株式会社,北海道,札幌市中央区,大通東９丁目９９－５３－Ｂ,,01,101,0600041,,,,,,,2024-06-11,1,,,,,ネクスト,0
1844,6460101007561,新規,0,2024-06-11,2024-06-11,株式会社北の匠,,株式会社,北海道,帯広市,西三条南１９丁目２番地,,01,207,0800013,,,,,,,2024-06-11,1,,,,,キタノタクミ,0
1846,6490001010794,新規,0,2024-06-11,2024-06-11,株式会社彩アート,,株式会社,高知県,南国市,上末松９４８番地,,39,204,7830026,,,,,,,2024-06-11,1,,,,,イロアート,0
1848,6490005006946,新規,0,2024-06-11,2024-06-11,一般社団法人Ｔｗｉｌｉｇｈｔ,,その他の設立登記法人,高知県,高知市,二葉町６－９,,39,201,7810815,,,,,,,2024-06-11,1,,,,,トワイライト,0
1852,6500001025683,新規,0,2024-06-11,2024-06-11,株式会社Ｒｅｌａｎｃｅ,,株式会社,愛媛県,松山市,久万ノ台７０６－３,,38,201,7918016,,,,,,,2024-06-11,1,,,,,リランス,0
1860,6700150125231,新規,0,2024-06-11,2024-05-13,佐世保市クルーズ受入協議会,,その他,長崎県,佐世保市,新港町８番１号,,42,202,8570855,,,,,,,2024-05-13,1,,,,,サセボシクルーズウケイレキヨウギカイ,0
1863,7010001245438,新規,0,2024-06-11,2024-06-11,株式会社アジアメディカルソリューション,,株式会社,東京都,中央区,銀座７丁目８番８号,,13,102,1040061,,,,,,,2024-06-11,1,,,,,,0
1864,7010001245446,新規,0,2024-06-11,2024-06-11,モデレートパートナーズ株式会社,,株式会社,東京都,中央区,日本橋兜町５番１号兜町第一平和ビル３階,,13,102,1030026,,,,,,,2024-06-11,1,,,,,モデレートパートナーズ,0
1865,7010001245545,新規,0,2024-06-11,2024-06-11,株式会社ミクセリア,,株式会社,東京都,千代田区,丸の内１丁目１１番１号パシフィックセンチュリープレイス丸の内１３階,,13,101,1000005,,,,,,,2024-06-11,1,,,,,ミクセリア,0
1866,7010001245561,新規,0,2024-06-11,2024-06-11,Ｓｉｌｖｅｒｐｕｓｈ株式会社,,株式会社,東京都,中央区,八丁堀４丁目４番４号３階,,13,102,1040032,,,,,,,2024-06-11,1,,,,,シルバープッシュ,0
1867,7010001245594,新規,0,2024-06-11,2024-06-11,株式会社クレドボヌール,,株式会社,東京都,中央区,銀座１丁目１２番４号Ｎ＆Ｅ，ＢＬＤ．６Ｆ,,13,102,1040061,,,,,,,2024-06-11,1,,,,,クレドボヌール,0
1868,7010001245603,新規,0,2024-06-11,2024-06-11,株式会社ＨＡＫＵＢＩ,,株式会社,東京都,中央区,銀座１丁目２２番１１号銀座大竹ビジデンス２階,,13,102,1040061,,,,,,,2024-06-11,1,,,,,ハクビ,0
1869,7010001245628,新規,0,2024-06-11,2024-06-11,Ａｄｖａｎｃｅｄ　Ｂｕｓｉｎｅｓｓ　Ｓｅｒｖｉｃｅｓ株式会社,,株式会社,東京都,中央区,晴海３丁目１３番１－２３０９号,,13,102,1040053,,,,,,,2024-06-11,1,,,,,アドバンスビジネスサービス,0
1870,7010001245636,新規,0,2024-06-11,2024-06-11,株式会社構造技術アドバイザリー,,株式会社,東京都,中央区,日本橋室町１丁目１１番１２号日本橋水野ビル７階,,13,102,1030022,,,,,,,2024-06-11,1,,,,,コウゾウギジュツアドバイザリー,0
1871,7010001245660,新規,0,2024-06-11,2024-06-11,株式会社ＺＥＮ,,株式会社,東京都,中央区,日本橋３丁目２番１４号新槇町ビル別館第一１階,,13,102,1030027,,,,,,,2024-06-11,1,,,,,ゼン,0
1872,7010001245693,新規,0,2024-06-11,2024-06-11,三一不動産株式会社,,株式会社,東京都,中央区,勝どき４丁目６－１パークタワー勝どきサウス５８１３号,,13,102,1040054,,,,,,,2024-06-11,1,,,,,サンイチフドウサン,0
1875,7010003043996,新規,0,2024-06-11,2024-06-11,合同会社Ｊ＆Ｙ,,合同会社,東京都,千代田区,三番町３番地９番町千鳥ケ淵アビタシオン６０１号,,13,101,1020075,,,,,,,2024-06-11,1,,,,,ジェイアンドワイ,0
1876,7010003044020,新規,0,2024-06-11,2024-06-11,ＫＭＳ合同会社,,合同会社,東京都,中央区,日本橋浜町３丁目３２番３－９０３号,,13,102,1030007,,,,,,,2024-06-11,1,,,,,ケイエムエス,0
1883,7010403032780,新規,0,2024-06-11,2024-06-11,ハニカム１０３合同会社,,合同会社,東京都,港区,浜松町２丁目２番１５号,,13,103,1050013,,,,,,,2024-06-11,1,,,,,ハニカムワンゼロスリー,0
1886,7010501052441,新規,0,2024-06-11,2024-06-11,株式会社ＲＹＵ,,株式会社,東京都,台東区,三ノ輪１丁目７番５号,,13,106,1100011,,,,,,,2024-06-11,1,,,,,リュウ,0
1892,7010801035138,新規,0,2024-06-11,2024-06-11,株式会社康福旅行社,,株式会社,東京都,大田区,東蒲田２丁目３０番１２号ＣｉｒｃｌｅＧａｒｄｅｎｋａｍａｔａ１０３,,13,111,1440031,,,,,,,2024-06-11,1,,,,,コウフクリョコウシャ,0
1896,7010901055432,新規,0,2024-06-11,2024-06-11,株式会社ＭＯＧＵＭＯＧＵ,,株式会社,東京都,世田谷区,代沢２丁目３３番３号代沢ヒルズ１０１,,13,112,1550032,,,,,,,2024-06-11,1,,,,,モグモグ,0
1897,7010901055440,新規,0,2024-06-11,2024-06-11,株式会社タケダクリーニング,,株式会社,東京都,世田谷区,上北沢４丁目１１番１０号,,13,112,1560057,,,,,,,2024-06-11,1,,,,,タケダクリーニング,0
1898,7010903009139,新規,0,2024-06-11,2024-06-11,合同会社ＬＵＣＩＡ,,合同会社,東京都,世田谷区,深沢５丁目１５番１５号ラフィーネ０１５Ｂ,,13,112,1580081,,,,,,,2024-06-11,1,,,,,ルシア,0
1899,7010903009147,新規,0,2024-06-11,2024-06-11,タバカリ合同会社,,合同会社,東京都,世田谷区,松原２丁目３６番１０号育成ビル５階,,13,112,1560043,,,,,,,2024-06-11,1,,,,,タバカリ,0
1902,7011001162532,新規,0,2024-06-11,2024-06-11,株式会社ＡｎＴｅｔｓｕ,,株式会社,東京都,渋谷区,松濤１丁目２５番８号,,13,113,1500046,,,,,,,2024-06-11,1,,,,,アンテツ,0
1904,7011003019359,新規,0,2024-06-11,2024-06-11,ワイエス合同会社,,合同会社,東京都,渋谷区,神宮前６丁目２３番４号桑野ビル２階,,13,113,1500001,,,,,,,2024-06-11,1,,,,,ワイエス,0
1911,7011101107478,新規,0,2024-06-11,2024-06-11,株式会社バズマッチ,,株式会社,東京都,新宿区,西新宿３丁目３番１３号西新宿水間ビル２Ｆ,,13,104,1600023,,,,,,,2024-06-11,1,,,,,バズマッチ,0
1912,7011101107635,新規,0,2024-06-11,2024-06-11,Ｆｏｒｔｕｎｅ　Ｒｏｓｅ株式会社,,株式会社,東京都,新宿区,新宿１丁目６番８号新宿鈴木ビルＢ館３Ｆ,,13,104,1600022,,,,,,,2024-06-11,1,,,,,フォーチュンローズ,0
1913,7011101107643,新規,0,2024-06-11,2024-06-11,株式会社ジェイトレンド,,株式会社,東京都,新宿区,大久保２丁目２番１２－８０５号,,13,104,1690072,,,,,,,2024-06-11,1,,,,,ジェイトレンド,0
1915,7011203004409,新規,0,2024-06-11,2024-06-11,合同会社Ａｋｅｒ‐ｎｅｔ,,合同会社,東京都,中野区,野方５丁目１４‐３,,13,114,1650027,,,,,,,2024-06-11,1,,,,,アーカーネット,0
1917,7011501030767,新規,0,2024-06-11,2024-06-11,燕飛株式会社,,株式会社,東京都,北区,浮間１丁目１番１４号リムジンビル１３８,,13,117,1150051,,,,,,,2024-06-11,1,,,,,エンヒ,0
1918,7011501030775,新規,0,2024-06-11,2024-06-11,株式会社緒方組,,株式会社,東京都,荒川区,荒川４丁目２３番２号,,13,118,1160002,,,,,,,2024-06-11,1,,,,,オガタグミ,0
1919,7011502016889,新規,0,2024-06-11,2024-06-11,有限会社エムケイ企画,,有限会社,東京都,荒川区,東尾久３丁目１番６号,,13,118,1160012,,,,,,,2024-06-11,1,,,,,エムケイキカク,0
1934,7012701018288,新規,0,2024-06-11,2024-06-11,株式会社ＣＲＯＳＳ　ＣＯＭＰＡＮＹ,,株式会社,東京都,西東京市,谷戸町１丁目１８番３号,,13,229,1880001,,,,,,,2024-06-11,1,,,,,クロスカンパニー,0
1935,7012703003016,新規,0,2024-06-11,2024-06-11,ＦＰＴ合同会社,,合同会社,東京都,東久留米市,八幡町３丁目３番１２号,,13,222,2030042,,,,,,,2024-06-11,1,,,,,エフピーティー,0
1936,7013301052660,新規,0,2024-06-11,2024-06-11,株式会社ＮＹカンパニー,,株式会社,東京都,豊島区,北大塚３丁目１８番１２号,,13,116,1700004,,,,,,,2024-06-11,1,,,,,エヌワイカンパニー,0
1937,7013301052669,新規,0,2024-06-11,2024-06-11,ＳｔａｒＢｒｉｄｇｅ株式会社,,株式会社,東京都,豊島区,西池袋３丁目３３番２４号,,13,116,1710021,,,,,,,2024-06-11,1,,,,,スターブリッジ,0
1946,7020001157418,新規,0,2024-06-11,2024-06-11,駿株式会社,,株式会社,神奈川県,横浜市神奈川区,神大寺１丁目３６番８号アムズ神大寺１０２号室,,14,102,2210801,,,,,,,2024-06-11,1,,,,,シュン,0
1947,7020001157640,新規,0,2024-06-11,2024-06-11,サンシーズン株式会社,,株式会社,神奈川県,川崎市川崎区,大島１丁目２１－５ひかり荘１号室,,14,131,2100834,,,,,,,2024-06-11,1,,,,,サンシーズン,0
1948,7020001157657,新規,0,2024-06-11,2024-06-11,株式会社ライトシーズ,,株式会社,神奈川県,川崎市宮前区,有馬２丁目１番１７号,,14,136,2160003,,,,,,,2024-06-11,1,,,,,ライトシーズ,0
1953,7020003026307,新規,0,2024-06-11,2024-06-11,ＰｌａｎｔＴｒｅｅ合同会社,,合同会社,神奈川県,横浜市栄区,飯島町３１４－３ダイアパレスワンダースケープ３１４,,14,115,2440842,,,,,,,2024-06-11,1,,,,,プラントツリー,0
1962,7021001082416,新規,0,2024-06-11,2024-06-11,株式会社フルールドリス,,株式会社,神奈川県,三浦郡葉山町,堀内８９５番地の１,,14,301,2400112,,,,,,,2024-06-11,1,,,,,フルールドリス,0
1963,7021001082449,新規,0,2024-06-11,2024-06-11,株式会社湘南機業,,株式会社,神奈川県,中郡二宮町,山西５７６番地の１,,14,342,2590124,,,,,,,2024-06-11,1,,,,,ショウナンキギョウ,0
1964,7021001082465,新規,0,2024-06-11,2024-06-11,株式会社アクティブエフピー,,株式会社,神奈川県,相模原市緑区,橋本３丁目２７－６－４階,,14,151,2520143,,,,,,,2024-06-11,1,,,,,アクティブエフピー,0
1968,7021003014615,新規,0,2024-06-11,2024-06-11,合同会社クリアランス,,合同会社,神奈川県,海老名市,国分南３丁目４番１０号アンフィニティ３－Ａ,,14,215,2430405,,,,,,,2024-06-11,1,,,,,クリアランス,0
1969,7021003014623,新規,0,2024-06-11,2024-06-11,Ｌｉｌｙ　Ｃｒｅａｔｉｖｅ合同会社,,合同会社,神奈川県,鎌倉市,大町４丁目１４―１０,,14,204,2480007,,,,,,,2024-06-11,1,,,,,リリークリエイティブ,0
1981,7030001160701,新規,0,2024-06-11,2024-06-11,株式会社ｂａｂｙ’ｓ　ｂｒｅａｔｈ,,株式会社,埼玉県,加須市,花崎４丁目１６番地３３,,11,210,3470032,,,,,,,2024-06-11,1,,,,,ベイビーズブレス,0
1982,7030001160791,新規,0,2024-06-11,2024-06-11,株式会社ＲＵＤＯＷＯＲＫＳ,,株式会社,埼玉県,草加市,新里町１４２２－１－４１４,,11,221,3400031,,,,,,,2024-06-11,1,,,,,ルードワークス,0
1983,7030001160817,新規,0,2024-06-11,2024-06-11,ローカルワークス株式会社,,株式会社,埼玉県,行田市,桜町３丁目１６番７号,,11,206,3610022,,,,,,,2024-06-11,1,,,,,ローカルワークス,0
1984,7030001160825,新規,0,2024-06-11,2024-06-11,恒栄グループ株式会社,,株式会社,埼玉県,吉川市,中曽根１丁目１９番地８,,11,243,3420033,,,,,,,2024-06-11,1,,,,,コウエイグループ,0
1985,7030001160833,新規,0,2024-06-11,2024-06-11,株式会社Ｂ＆Ｍ,,株式会社,埼玉県,ふじみ野市,ふじみ野４丁目１３－７リンクＩＩＩ２０１,00135107,11,245,3560050,,,,,,,2024-06-11,1,,,,,ビーアンドエム,0
1986,7030001160841,新規,0,2024-06-11,2024-06-11,株式会社トライアングル,,株式会社,埼玉県,北足立郡伊奈町,栄１丁目１４９番地４,,11,301,3620805,,,,,,,2024-06-11,1,,,,,トライアングル,0
1987,7030001160858,新規,0,2024-06-11,2024-06-11,アストライズホールディングス株式会社,,株式会社,埼玉県,さいたま市大宮区,桜木町４丁目４１９－８アストライズ大宮ビル,,11,103,3300854,,,,,,,2024-06-11,1,,,,,アストライズホールディングス,0
1988,7030001160866,新規,0,2024-06-11,2024-06-11,株式会社Ｃｒａｙｏｎ都市開発設計,,株式会社,埼玉県,春日部市,梅田本町２丁目５番地３,,11,214,3440053,,,,,,,2024-06-11,1,,,,,クレヨントシカイハツセッケイ,0
1989,7030001160874,新規,0,2024-06-11,2024-06-11,株式会社ＶＢＤ,,株式会社,埼玉県,さいたま市大宮区,大成町１丁目４７５番地１－２Ｆ,,11,103,3300852,,,,,,,2024-06-11,1,,,,,ブイビーディー,0
1990,7030001160899,新規,0,2024-06-11,2024-06-11,海辰株式会社,,株式会社,埼玉県,蕨市,塚越７丁目３５－１６,,11,223,3350002,,,,,,,2024-06-11,1,,,,,カイシン,0
1993,7030003024466,新規,0,2024-06-11,2024-06-11,合同会社シンガ,,合同会社,埼玉県,久喜市,佐間１３９７番地１６,,11,232,3491124,,,,,,,2024-06-11,1,,,,,シンガ,0
2000,7040001133953,新規,0,2024-06-11,2024-06-11,株式会社ＲＣＵ,,株式会社,千葉県,船橋市,市場３丁目１６－２０マルシェ１－１０５,,12,204,2730001,,,,,,,2024-06-11,1,,,,,アールシーユー,0
2001,7040001133978,新規,0,2024-06-11,2024-06-11,橙光産業株式会社,,株式会社,千葉県,千葉市若葉区,貝塚町３９５番地１、１０２号室,,12,104,2640023,,,,,,,2024-06-11,1,,,,,トウコウサンギョウ,0
2002,7040001133994,新規,0,2024-06-11,2024-06-11,株式会社ＰＧＣＡＲＳ,,株式会社,千葉県,八千代市,大和田新田１３５番地６,,12,221,2760046,,,,,,,2024-06-11,1,,,,,ピージーカーズ,0
2008,7040003025174,新規,0,2024-06-11,2024-06-11,合同会社ＯＧＡＴＡ,,合同会社,千葉県,香取市,香取１６３６番地,,12,236,2870017,,,,,,,2024-06-11,1,,,,,オガタ,0
2012,7060001037186,新規,0,2024-06-11,2024-06-11,マロニエホールディングス株式会社,,株式会社,栃木県,宇都宮市,弥生１丁目１１番９号,,09,201,3200837,,,,,,,2024-06-11,1,,,,,マロニエホールディングス,0
2016,7080103003076,新規,0,2024-06-11,2024-06-11,オビワン合同会社,,合同会社,静岡県,三島市,大場２１２番地の３サンコート大場２０１,,22,206,4110803,,,,,,,2024-06-11,1,,,,,オビワン,0
2027,7080405007642,新規,0,2024-06-11,2024-06-11,一般社団法人おんくり,,その他の設立登記法人,静岡県,掛川市,吉岡７３３番地の１,,22,213,4360115,,,,,,,2024-06-11,1,,,,,オンクリ,0
2029,7090001018753,新規,0,2024-06-11,2024-06-11,株式会社ＤＩＮＧ,,株式会社,山梨県,甲府市,中央３丁目８番１０号,,19,201,4000032,,,,,,,2024-06-11,1,,,,,ディーイング,0
2031,7100003007604,新規,0,2024-06-11,2024-06-11,合同会社ＳＯＬＥＸ,,合同会社,長野県,北安曇郡白馬村,大字北城３０２０番地５１２,,20,485,3999301,,,,,,,2024-06-11,1,,,,,ソレックス,0
2034,7110003005417,新規,0,2024-06-11,2024-06-11,ナマステトレーディング合同会社,,合同会社,新潟県,新発田市,則清字中沢前１１８２番１,,15,206,9570077,,,,,,,2024-06-11,1,,,,,ナマステトレーディング,0
2045,7120001265656,新規,0,2024-06-11,2024-06-11,株式会社ｆｒｅｅ　ｔｉｍｅ,,株式会社,大阪府,枚方市,岡山手町１１番１１０号,,27,210,5730034,,,,,,,2024-06-11,1,,,,,フリータイム,0
2046,7120001265689,新規,0,2024-06-11,2024-06-11,ＬＩＮＧＳＡＮ株式会社,,株式会社,大阪府,大阪市旭区,今市１丁目１４番５号,,27,117,5350011,,,,,,,2024-06-11,1,,,,,リンサン,0
2047,7120001265739,新規,0,2024-06-11,2024-06-11,株式会社エーフィックス,,株式会社,大阪府,大阪市福島区,海老江７丁目３－１６パレス都６－Ａ,,27,103,5530001,,,,,,,2024-06-11,1,,,,,エーフィックス,0
2048,7120001265755,新規,0,2024-06-11,2024-06-11,ＮＧＩＦＴ株式会社,,株式会社,大阪府,大阪市城東区,鴫野西５丁目１３番３９号,,27,118,5360014,,,,,,,2024-06-11,1,,,,,エヌギフト,0
2049,7120001265763,新規,0,2024-06-11,2024-06-11,株式会社ＡＬＬ　ＩＮ,,株式会社,大阪府,大阪市中央区,南船場３丁目２番地２２号おおきに南船場ビル２０５,,27,128,5420081,,,,,,,2024-06-11,1,,,,,オールイン,0
2050,7120001265813,新規,0,2024-06-11,2024-06-11,株式会社Ｄａｎｉｅｌ　Ｌ,,株式会社,大阪府,大阪市東住吉区,中野４丁目１２番７－５０３号,,27,121,5460012,,,,,,,2024-06-11,1,,,,,ダニエルエル,0
2057,7120003026809,新規,0,2024-06-11,2024-06-11,合同会社えむ・わい,,合同会社,大阪府,大阪市東成区,大今里西３丁目１０番９号パディーブレイドＩＩ９０１,00135098,27,115,5370014,,,,,,,2024-06-11,1,,,,,エムワイ,0
2058,7120005024372,新規,0,2024-06-11,2024-06-11,一般社団法人国際規格臨床検査室マネージメント協会,,その他の設立登記法人,大阪府,大阪市北区,梅田１丁目２番２号大阪駅前第２ビル１２－１２,,27,127,5300001,,,,,,,2024-06-11,1,,,,,コクサイキカクリンショウケンサシツマネージメントキョウカイ,0
2060,7120101069734,新規,0,2024-06-11,2024-06-11,株式会社新生設備工業,,株式会社,大阪府,堺市北区,中百舌鳥町６丁１０４０番地４０‐１０３号,,27,146,5918023,,,,,,,2024-06-11,1,,,,,シンセイセツビコウギョウ,0
2062,7120901049299,新規,0,2024-06-11,2024-06-11,株式会社三木輪業,,株式会社,大阪府,高槻市,緑が丘１丁目４番２号,,27,207,5691026,,,,,,,2024-06-11,1,,,,,ミキリンギョウ,0
2063,7120901049316,新規,0,2024-06-11,2024-06-11,英工業株式会社,,株式会社,大阪府,高槻市,淀の原町１８番１４号,,27,207,5690001,,,,,,,2024-06-11,1,,,,,ハナブサコウギョウ,0
2067,7130001077225,新規,0,2024-06-11,2024-06-11,株式会社Ｍｒ財務屋,,株式会社,京都府,京都市下京区,七条通油小路東入大黒町２２７番地第２キョートビル４０２,,26,106,6008223,,,,,,,2024-06-11,1,,,,,ミスターザイムヤ,0
2068,7130001077233,新規,0,2024-06-11,2024-06-11,京都聡苑株式会社,,株式会社,京都府,木津川市,相楽姫子１３番地１,,26,214,6190222,,,,,,,2024-06-11,1,,,,,キョウトソウエン,0
2069,7130001077241,新規,0,2024-06-11,2024-06-11,品潤株式会社,,株式会社,京都府,京都市北区,上賀茂葵之森町５番地８５－２０１,,26,101,6038034,,,,,,,2024-06-11,1,,,,,ヒンジュン,0
2078,7140001134719,新規,0,2024-06-11,2024-06-11,株式会社Ｓｕｎ　Ｓａｉｌ,,株式会社,兵庫県,西宮市,川西町１５－６川西町ビル２０１号室,,28,204,6620951,,,,,,,2024-06-11,1,,,,,サンセイル,0
2079,7140001134727,新規,0,2024-06-11,2024-06-11,環境防犯計測株式会社,,株式会社,兵庫県,三田市,ゆりのき台４丁目２２番地１３１,,28,219,6691324,,,,,,,2024-06-11,1,,,,,カンキョウボウハンケイソク,0
2080,7140001134735,新規,0,2024-06-11,2024-06-11,株式会社ＢＩＧ　ＵＰ,,株式会社,兵庫県,神戸市垂水区,神陵台５丁目１番７号,,28,108,6550041,,,,,,,2024-06-11,1,,,,,ビッグアップ,0
2081,7140001134743,新規,0,2024-06-11,2024-06-11,株式会社ファイン,,株式会社,兵庫県,明石市,魚住町中尾２５０番地４,,28,203,6740082,,,,,,,2024-06-11,1,,,,,,0
2082,7140001134792,新規,0,2024-06-11,2024-06-11,ジゲンパートナーズ株式会社,,株式会社,兵庫県,神戸市中央区,下山手通２丁目１３番３号,,28,110,6500011,,,,,,,2024-06-11,1,,,,,ジゲンパートナーズ,0
2089,7140003020685,新規,0,2024-06-11,2024-06-11,合同会社ＳＤＡアイホールディングス,,合同会社,兵庫県,神戸市中央区,小野柄通４丁目１番１５号,,28,110,6510088,,,,,,,2024-06-11,1,,,,,エスディーエーアイホールディングス,0
2094,7170001018183,新規,0,2024-06-11,2024-06-11,二兎株式会社,,株式会社,和歌山県,和歌山市,松江東４丁目１番４０号,,30,201,6408422,,,,,,,2024-06-11,1,,,,,ニト,0
2099,7180001161809,新規,0,2024-06-11,2024-06-11,株式会社中陽貿易,,株式会社,愛知県,名古屋市港区,高木町１丁目３３番地レジデンス光和ＩＩＩ２０１号,00135095,23,111,4550821,,,,,,,2024-06-11,1,,,,,チュウヨウボウエキ,0
2100,7180001161932,新規,0,2024-06-11,2024-06-11,株式会社Ｋａｋｕｎｉ,,株式会社,愛知県,名古屋市緑区,滝ノ水３丁目１３０２番地,,23,114,4580021,,,,,,,2024-06-11,1,,,,,カクニ,0
2109,7190003004709,新規,0,2024-06-11,2024-06-11,ＩＦＯ合同会社,,合同会社,三重県,津市,半田４６８番地２,,24,201,5140823,,,,,,,2024-06-11,1,,,,,アイエフオー,0
2110,7190005011959,新規,0,2024-06-11,2024-06-11,一般社団法人うか,,その他の設立登記法人,三重県,度会郡度会町,棚橋３２２番地,,24,470,5162103,,,,,,,2024-06-11,1,,,,,ウカ,0
2115,7230001020389,新規,0,2024-06-11,2024-06-11,株式会社窪田自動車,,株式会社,富山県,魚津市,持光寺４０７番地１,,16,204,9370003,,,,,,,2024-06-11,1,,,,,クボタジドウシャ,0
2116,7240001063362,新規,0,2024-06-11,2024-06-11,株式会社カフ．ウェブ．システム,,株式会社,広島県,福山市,西町１丁目１－１ｉｔｉＳＥＴＯＵＣＨＩコワーキングスペースｔｏｖｉｏ,,34,207,7200067,,,,,,,2024-06-11,1,,,,,カフウェブシステム,0
2117,7240003006716,新規,0,2024-06-11,2024-06-11,バイフレックス合同会社,,合同会社,広島県,広島市安佐南区,山本新町３丁目４０番１６号,,34,105,7310139,,,,,,,2024-06-11,1,,,,,バイフレックス,0
2127,7290001106158,新規,0,2024-06-11,2024-06-11,株式会社Ｍｙ　Ｓｔｙｌｅ,,株式会社,福岡県,福岡市東区,香椎照葉３丁目１番１３－１９１０号,,40,131,8130017,,,,,,,2024-06-11,1,,,,,マイスタイル,0
2128,7290003015398,新規,0,2024-06-11,2024-06-11,合同会社ＴＣ機工,,合同会社,福岡県,柳川市,大和町皿垣開２００２番地,,40,207,8390261,,,,,,,2024-06-11,1,,,,,ティーシーキコウ,0
2135,7320005010162,新規,0,2024-06-11,2024-06-11,ＮＰＯ法人ひだまり,,その他の設立登記法人,大分県,豊後高田市,中央通６９８番地,,44,209,8790618,,,,,,,2024-06-11,1,,,,,,0
2138,7330001032143,新規,0,2024-06-11,2024-06-11,株式会社ひまわり,,株式会社,熊本県,葦北郡津奈木町,大字岩城２１２４番地１,,43,484,8695603,,,,,,,2024-06-11,1,,,,,ヒマワリ,0
2144,7360001033799,新規,0,2024-06-11,2024-06-11,株式会社Ｍｅｄｉ　Ｏｋｉ,,株式会社,沖縄県,糸満市,字真栄平８１７番地の１,,47,210,9010331,,,,,,,2024-06-11,1,,,,,メディオキ,0
2146,7360003014046,新規,0,2024-06-11,2024-06-11,ＪＡＳ　Ｉｎｔｅｒｎａｔｉｏｎａｌ合同会社,,合同会社,沖縄県,沖縄市,上地２丁目８番２８号・３Ｆ,,47,211,9040031,,,,,,,2024-06-11,1,,,,,ジェイエーエスインターナショナル,0
2148,7370001051387,新規,0,2024-06-11,2024-06-11,ＧＬＣ株式会社,,株式会社,宮城県,東松島市,大曲字上納南８８番地,,04,214,9810502,,,,,,,2024-06-11,1,,,,,グラック,0
2149,7370001051404,新規,0,2024-06-11,2024-06-11,ノースフィールド株式会社,,株式会社,宮城県,仙台市太白区,西の平１丁目１１番２３号,,04,104,9820825,,,,,,,2024-06-11,1,,,,,ノースフィールド,0
2150,7370005010802,新規,0,2024-06-11,2024-06-11,医療法人恵晴会,,その他の設立登記法人,宮城県,仙台市泉区,桂３丁目２番地２,,04,105,9813134,,,,,,,2024-06-11,1,,,,,ケイセイカイ,0
2154,7380001034597,新規,0,2024-06-11,2024-06-11,株式会社ＹＵＺ,,株式会社,福島県,白河市,北堀切８０番地４,,07,205,9610974,,,,,,,2024-06-11,1,,,,,ユーズィー,0
2155,7380001034606,新規,0,2024-06-11,2024-06-11,株式会社Ｋ’ｓコーポレーション,,株式会社,福島県,いわき市,泉町黒須野字早稲田８０番地の１２,,07,204,9718184,,,,,,,2024-06-11,1,,,,,ケーズコーポレーション,0
2160,7420003002936,新規,0,2024-06-11,2024-06-11,合同会社ハヤシサーベイオフィス,,合同会社,青森県,八戸市,諏訪１丁目１０番４号,,02,203,0310803,,,,,,,2024-06-11,1,,,,,ハヤシサーベイオフィス,0
2161,7430001091963,新規,0,2024-06-11,2024-06-11,株式会社ビクエコ,,株式会社,北海道,苫小牧市,字錦岡１６６番地５,,01,213,0591275,,,,,,,2024-06-11,1,,,,,ビクエコ,0
2162,7430001091996,新規,0,2024-06-11,2024-06-11,株式会社ＫＰ,,株式会社,北海道,札幌市中央区,南一条西２丁目１番地,,01,101,0600061,,,,,,,2024-06-11,1,,,,,ケーピー,0
2164,7430003016381,新規,0,2024-06-11,2024-06-11,合同会社ＵＢＵＮ,,合同会社,北海道,札幌市北区,北二十九条西４丁目１番１７－２０１号,,01,102,0010029,,,,,,,2024-06-11,1,,,,,ウブン,0
2165,7440001009452,新規,0,2024-06-11,2024-06-11,リメイル株式会社,,株式会社,北海道,北斗市,七重浜４丁目３９番１１号,,01,236,0490111,,,,,,,2024-06-11,1,,,,,リメイル,0
2169,7480003002138,新規,0,2024-06-11,2024-06-11,合同会社下小原蓄電所,,合同会社,徳島県,板野郡松茂町,中喜来字群恵３９番地１,,36,401,7710212,,,,,,,2024-06-11,1,,,,,シモオバルチクデンショ,0
2189,8010001245503,新規,0,2024-06-11,2024-06-11,リードブレーンＢＰＯ株式会社,,株式会社,東京都,千代田区,神田平河町１番地第３東ビル３０１,,13,101,1010027,,,,,,,2024-06-11,1,,,,,リードブレーンビーピーオー,0
2190,8010001245569,新規,0,2024-06-11,2024-06-11,株式会社メドウェルビレッジ,,株式会社,東京都,千代田区,九段南２丁目３番２５号平安堂ビル４Ｆ,,13,101,1020074,,,,,,,2024-06-11,1,,,,,メドウェルビレッジ,0
2191,8010001245577,新規,0,2024-06-11,2024-06-11,株式会社ｍａｒｅ,,株式会社,東京都,中央区,銀座８丁目６番２０号幸佑ビル４階,,13,102,1040061,,,,,,,2024-06-11,1,,,,,マーレ,0
2192,8010001245635,新規,0,2024-06-11,2024-06-11,株式会社アンドセブン,,株式会社,東京都,中央区,銀座１丁目１２番４号Ｎ＆ＥＢＬＤ．７階,,13,102,1040061,,,,,,,2024-06-11,1,,,,,アンドセブン,0
2194,8010003043979,新規,0,2024-06-11,2024-06-11,ワイエムキャピタル合同会社,,合同会社,東京都,千代田区,神田司町２丁目４番地９ＧＲＥＥＮＰＡＲＫ神田司町１００２号,,13,101,1010048,,,,,,,2024-06-11,1,,,,,ワイエムキャピタル,0
2195,8010003043987,新規,0,2024-06-11,2024-06-11,ＳＭＢグロースパートナーズ合同会社,,合同会社,東京都,中央区,銀座１丁目１２－４Ｎ＆ＥＢＬＤ．７階,,13,102,1040061,,,,,,,2024-06-11,1,,,,,エスエムビーグロースパートナーズ,0
2196,8010003043995,新規,0,2024-06-11,2024-06-11,合同会社ＭＡ,,合同会社,東京都,文京区,湯島２丁目３２番１０号ＫＡＮＡＰＬＥＸ５０１,,13,105,1130034,,,,,,,2024-06-11,1,,,,,エムエー,0
2197,8010003044011,新規,0,2024-06-11,2024-06-11,合同会社ＤＡＩＷＡ　ＨＯＵＳＩＮＧ,,合同会社,東京都,中央区,銀座１丁目１２－４Ｎ＆ＥＢＬＤ．７階,,13,102,1040061,,,,,,,2024-06-11,1,,,,,ダイワハウジング,0
2198,8010005038390,新規,0,2024-06-11,2024-06-11,一般社団法人ＲＧ　Ｈｏｌｄｉｎｇｓ,,その他の設立登記法人,東京都,千代田区,内幸町２丁目１番６号,,13,101,1000011,,,,,,,2024-06-11,1,,,,,アールジーホールディングス,0
2199,8010101016192,新規,0,2024-06-11,2024-06-11,株式会社８０,,株式会社,東京都,八王子市,中野上町２丁目６番６号,,13,201,1920041,,,,,,,2024-06-11,1,,,,,ハチゼロ,0
2200,8010103002364,新規,0,2024-06-11,2024-06-11,ＤＣＴ　ＪＡＰＡＮ合同会社,,合同会社,東京都,八王子市,子安町１丁目４８番９号２０２号室,,13,201,1920904,,,,,,,2024-06-11,1,,,,,ディーシーティージャパン,0
2204,8010403032788,新規,0,2024-06-11,2024-06-11,ラクセラ合同会社,,合同会社,東京都,港区,南青山５丁目１７番２号シドニービル５０２,,13,103,1070062,,,,,,,2024-06-11,1,,,,,ラクセラ,0
2205,8010501052440,新規,0,2024-06-11,2024-06-11,株式会社レノン,,株式会社,東京都,台東区,浅草橋５丁目８番１１号大富ビル５０３,,13,106,1110053,,,,,,,2024-06-11,1,,,,,レノン,0
2208,8010801035120,新規,0,2024-06-11,2024-06-11,株式会社清,,株式会社,東京都,大田区,蒲田１丁目９－２２,,13,111,1440052,,,,,,,2024-06-11,1,,,,,キヨシ,0
2213,8010901055241,新規,0,2024-06-11,2024-06-11,株式会社５６,,株式会社,東京都,世田谷区,野沢３丁目１５番１－３０３号,,13,112,1540003,,,,,,,2024-06-11,1,,,,,ゴジュウロク,0
2214,8010901055448,新規,0,2024-06-11,2024-06-11,株式会社ファイマケ,,株式会社,東京都,世田谷区,駒沢４丁目２３－１８加瀬ビル１６６,,13,112,1540012,,,,,,,2024-06-11,1,,,,,ファイマケ,0
2215,8010903009138,新規,0,2024-06-11,2024-06-11,合同会社ＮＤＰ,,合同会社,東京都,世田谷区,下馬１丁目３０番３号,,13,112,1540002,,,,,,,2024-06-11,1,,,,,エヌディーピー,0
2227,8011101107592,新規,0,2024-06-11,2024-06-11,恒旭株式会社,,株式会社,東京都,新宿区,新宿２丁目１６番９号,,13,104,1600022,,,,,,,2024-06-11,1,,,,,コウキョク,0
2228,8011101107642,新規,0,2024-06-11,2024-06-11,株式会社リトルターフ,,株式会社,東京都,新宿区,若松町２２番２４号プラサート２２－１０１号室,,13,104,1620056,,,,,,,2024-06-11,1,,,,,リトルターフ,0
2229,8011101107659,新規,0,2024-06-11,2024-06-11,株式会社ＯＧ＆Ｅ　Ｍｅｄｉａ,,株式会社,東京都,新宿区,西新宿３丁目３番１３号西新宿水間ビル２Ｆ,,13,104,1600023,,,,,,,2024-06-11,1,,,,,オージーアンドイーメディア,0
2231,8011103014523,新規,0,2024-06-11,2024-06-11,合同会社Ｔｏｋｙｏ　Ｍｙ　ｈｏｍｅ,,合同会社,東京都,新宿区,百人町１丁目７番２６号,,13,104,1690073,,,,,,,2024-06-11,1,,,,,トウキョウマイホーム,0
2232,8011103014531,新規,0,2024-06-11,2024-06-11,ミカンベイビー合同会社,,合同会社,東京都,新宿区,西新宿３丁目３番１３号西新宿水間ビル６階,,13,104,1600023,,,,,,,2024-06-11,1,,,,,ミカンベイビー,0
2234,8011201025546,新規,0,2024-06-11,2024-06-11,銀湖株式会社,,株式会社,東京都,中野区,江古田４丁目３０番１９―１０２号,,13,114,1650022,,,,,,,2024-06-11,1,,,,,ギンコ,0
2235,8011203004408,新規,0,2024-06-11,2024-06-11,合同会社をりふし,,合同会社,東京都,中野区,中野１丁目３０番２４号,,13,114,1640001,,,,,,,2024-06-11,1,,,,,ヲリフシ,0
2237,8011301029744,新規,0,2024-06-11,2024-06-11,株式会社和陣弓,,株式会社,東京都,杉並区,和泉３丁目１７番１号赤池荘１２号室,,13,115,1680063,,,,,,,2024-06-11,1,,,,,ワダツミノジン,0
2240,8011405002300,新規,0,2024-06-11,2024-06-11,一般社団法人クリルオイル振興協会,,その他の設立登記法人,東京都,板橋区,常盤台１丁目５９番３号,,13,119,1740071,,,,,,,2024-06-11,1,,,,,クリルオイルシンコウキョウカイ,0
2248,8013103001344,新規,0,2024-06-11,2024-06-11,ＲＩＳＩＮＧ合同会社,,合同会社,東京都,福生市,大字熊川１４９２‐１９丸信マンション１０２号室,,13,218,1970003,,,,,,,2024-06-11,1,,,,,,0
2249,8013301052676,新規,0,2024-06-11,2024-06-11,セレンドリーム株式会社,,株式会社,東京都,豊島区,池袋１丁目１２－１ハニービーＤ室,,13,116,1700014,,,,,,,2024-06-11,1,,,,,セレンドリーム,0
2250,8013303007174,新規,0,2024-06-11,2024-06-11,合同会社ハーモニー,,合同会社,東京都,豊島区,東池袋３丁目１－４－８２１,,13,116,1700013,,,,,,,2024-06-11,1,,,,,ハーモニー,0
2257,8020001157607,新規,0,2024-06-11,2024-06-11,株式会社スーア,,株式会社,神奈川県,横浜市港北区,綱島上町１番地１グリーンサラウンドシティ３番街８０７号,,14,109,2230055,,,,,,,2024-06-11,1,,,,,スーア,0
2259,8020003026306,新規,0,2024-06-11,2024-06-11,合同会社リトルベル,,合同会社,神奈川県,横浜市金沢区,釜利谷西３丁目５６番３２号,,14,108,2360046,,,,,,,2024-06-11,1,,,,,リトルベル,0
2261,8021001082448,新規,0,2024-06-11,2024-06-11,株式会社ＳＴＵＤＩＯ　ＲＯＫＨ,,株式会社,神奈川県,逗子市,小坪７丁目１５番５号１０１,,14,208,2490008,,,,,,,2024-06-11,1,,,,,スタジオロク,0
2262,8021001082456,新規,0,2024-06-11,2024-06-11,株式会社窪田架設,,株式会社,神奈川県,相模原市中央区,上溝６丁目６番８号エトワール本町３０１,,14,152,2520243,,,,,,,2024-06-11,1,,,,,クボタカセツ,0
2263,8021001082472,新規,0,2024-06-11,2024-06-11,株式会社子安松阪,,株式会社,神奈川県,横須賀市,子安７番地２,,14,201,2400106,,,,,,,2024-06-11,1,,,,,コヤスマツザカ,0
2264,8021001082480,新規,0,2024-06-11,2024-06-11,さがみ総合不動産株式会社,,株式会社,神奈川県,厚木市,旭町５丁目４３番８－６０１号,,14,212,2430014,,,,,,,2024-06-11,1,,,,,サガミソウゴウフドウサン,0
2265,8021003014622,新規,0,2024-06-11,2024-06-11,クロス５合同会社,,合同会社,神奈川県,藤沢市,藤沢２２３番地の２,,14,205,2510052,,,,,,,2024-06-11,1,,,,,クロスファイブ,0
2267,8021005013127,新規,0,2024-06-11,2024-06-11,一般社団法人アジア獣医皮膚科専門医協会,,その他の設立登記法人,神奈川県,藤沢市,菖蒲沢９１０番地,,14,205,2520823,,,,,,,2024-06-11,1,,,,,アジアジュウイヒフカセンモンイキョウカイ,0
2273,8030001160790,新規,0,2024-06-11,2024-06-11,株式会社ＡＲＴ　ＯＦ　ＬＩＦＥ,,株式会社,埼玉県,春日部市,下柳１３４９－１,,11,214,3440122,,,,,,,2024-06-11,1,,,,,アートオブライフ,0
2274,8030001160824,新規,0,2024-06-11,2024-06-11,株式会社佐々木興業,,株式会社,埼玉県,草加市,旭町６丁目１３番１４号ラ・フィーネ１０１号,,11,221,3400053,,,,,,,2024-06-11,1,,,,,ササキコウギョウ,0
2275,8030001160832,新規,0,2024-06-11,2024-06-11,株式会社正翔工業,,株式会社,埼玉県,さいたま市岩槻区,本町５丁目１２番３－１号－２０２,,11,110,3390057,,,,,,,2024-06-11,1,,,,,セイショウコウギョウ,0
2276,8030001160840,新規,0,2024-06-11,2024-06-11,株式会社Ｆｏｒｔｕｎａｔｅ,,株式会社,埼玉県,春日部市,西金野井１５５番地１,,11,214,3440112,,,,,,,2024-06-11,1,,,,,フォーチュネイト,0
2279,8030003024449,新規,0,2024-06-11,2024-06-11,合同会社木村薬局,,合同会社,埼玉県,幸手市,大字下川崎４４－１１,,11,240,3400162,,,,,,,2024-06-11,1,,,,,キムラヤッキョク,0
2280,8030003024457,新規,0,2024-06-11,2024-06-11,合同会社ＨａｉｒＣａｒｅＳａｌｏｎ　ＡＺ,,合同会社,埼玉県,さいたま市大宮区,桜木町２丁目４０１番地アップビル２Ｆ,,11,103,3300854,,,,,,,2024-06-11,1,,,,,ヘアケアサロンアズ,0
2281,8030003024465,新規,0,2024-06-11,2024-06-11,合同会社大村カーサービス,,合同会社,埼玉県,幸手市,南２丁目４番４号,,11,240,3400156,,,,,,,2024-06-11,1,,,,,オオムラカーサービス,0
2282,8030003024473,新規,0,2024-06-11,2024-06-11,合同会社ムサシノ重建,,合同会社,埼玉県,日高市,大字高萩６９０番地４６,,11,242,3501213,,,,,,,2024-06-11,1,,,,,ムサシノジュウケン,0
2286,8040001133960,新規,0,2024-06-11,2024-06-11,株式会社創造コンコース,,株式会社,千葉県,市川市,相之川４丁目４番２０－２０１号,,12,203,2720143,,,,,,,2024-06-11,1,,,,,ソウゾウコンコース,0
2287,8040001133969,新規,0,2024-06-11,2024-06-11,株式会社結越,,株式会社,千葉県,印西市,小林北２丁目６番地３３,,12,231,2701313,,,,,,,2024-06-11,1,,,,,ユエン,0
2288,8040001133977,新規,0,2024-06-11,2024-06-11,株式会社マナＶＩＶＡ,,株式会社,千葉県,船橋市,南三咲２丁目５番３－１０１号,,12,204,2740813,,,,,,,2024-06-11,1,,,,,マナビバ,0
2291,8040003025165,新規,0,2024-06-11,2024-06-11,合同会社フラット,,合同会社,千葉県,八千代市,八千代台西４丁目６番９号,,12,221,2760034,,,,,,,2024-06-11,1,,,,,フラット,0
2299,8060001037185,新規,0,2024-06-11,2024-06-11,株式会社ザ・ちゃりんこや,,株式会社,栃木県,栃木市,河合町８番２４号,,09,203,3280041,,,,,,,2024-06-11,1,,,,,ザチャリンコヤ,0
2305,8070005010286,新規,0,2024-06-11,2024-06-11,ＮＰＯ法人ＳＡＫＵＲＡ社,,その他の設立登記法人,群馬県,邑楽郡邑楽町,大字中野４９２２番地７,,10,525,3700603,,,,,,,2024-06-11,1,,,,,サクラシャ,0
2307,8080101024809,新規,0,2024-06-11,2024-06-11,株式会社寛設備,,株式会社,静岡県,富士市,厚原１８６５番地の７５,,22,210,4190201,,,,,,,2024-06-11,1,,,,,カンセツビ,0
2309,8080401027239,新規,0,2024-06-11,2024-06-11,東通工販売株式会社,,株式会社,静岡県,浜松市中央区,中島１丁目１３番１６号,,22,138,4300856,,,,,,,2024-06-11,1,,,,,トウツウコウハンバイ,0
2313,8090001018752,新規,0,2024-06-11,2024-06-11,株式会社あぐりファームＪＡ南アルプス市,,株式会社,山梨県,南アルプス市,藤田１６００－３,,19,208,4000334,,,,,,,2024-06-11,1,,,,,アグリファームジェイエーミナミアルプスシ,0
2314,8090003002580,新規,0,2024-06-11,2024-06-11,合同会社ＳｐａｃｅＢｉｔ,,合同会社,山梨県,甲斐市,万才２８０－２,,19,210,4000114,,,,,,,2024-06-11,1,,,,,スペースビット,0
2320,8110001038450,新規,0,2024-06-11,2024-06-11,株式会社フォーンドール,,株式会社,新潟県,上越市,栄町７番１７号,,15,222,9430827,,,,,,,2024-06-11,1,,,,,フォーンドール,0
2321,8110001038475,新規,0,2024-06-11,2024-06-11,株式会社Ｒｕｅｄａ,,株式会社,新潟県,新潟市中央区,古町通８番町１４３６番地新道ジョイナスビル２階,,15,103,9518063,,,,,,,2024-06-11,1,,,,,ルエダ,0
2322,8110001038483,新規,0,2024-06-11,2024-06-11,株式会社ＤＩＧ　ＩＴ,,株式会社,新潟県,長岡市,大手通２丁目３番１０,,15,202,9400062,,,,,,,2024-06-11,1,,,,,ディグイット,0
2324,8110003005424,新規,0,2024-06-11,2024-06-11,郷合同会社,,合同会社,新潟県,新潟市西蒲区,平野４６８番地１,,15,108,9590431,,,,,,,2024-06-11,1,,,,,ゴウ,0
2337,8120001265580,新規,0,2024-06-11,2024-06-11,株式会社ブルースター,,株式会社,大阪府,大阪市北区,西天満４丁目９番２号西天満ビル４１５号室,,27,127,5300047,,,,,,,2024-06-11,1,,,,,ブルースター,0
2338,8120001265655,新規,0,2024-06-11,2024-06-11,株式会社宮内商店,,株式会社,大阪府,大阪市住吉区,遠里小野７丁目４番１２号,,27,120,5580032,,,,,,,2024-06-11,1,,,,,ミヤウチショウテン,0
2339,8120001265705,新規,0,2024-06-11,2024-06-11,エスケイソリューションズ株式会社,,株式会社,大阪府,大阪市北区,梅田２丁目５番１３号桜橋第一ビル３０４号,,27,127,5300001,,,,,,,2024-06-11,1,,,,,エスケイソリューションズ,0
2340,8120001265713,新規,0,2024-06-11,2024-06-11,ＳＢトラスト株式会社,,株式会社,大阪府,大阪市東住吉区,田辺１丁目３番９号,,27,121,5460031,,,,,,,2024-06-11,1,,,,,エスビートラスト,0
2341,8120001265754,新規,0,2024-06-11,2024-06-11,春香株式会社,,株式会社,大阪府,大阪市生野区,桃谷３丁目２０番２５号桃谷ハイツ１０１号室,,27,116,5440034,,,,,,,2024-06-11,1,,,,,ハルカ,0
2342,8120001265779,新規,0,2024-06-11,2024-06-11,株式会社クレド,,株式会社,大阪府,大阪市北区,西天満５丁目１０番１６号植月ビル６Ｆ,,27,127,5300047,,,,,,,2024-06-11,1,,,,,クレド,0
2343,8120001265804,新規,0,2024-06-11,2024-06-11,株式会社みちくさ訪問看護,,株式会社,大阪府,大阪市東淀川区,豊新２丁目９番２７号ハイムプレセア２０６号室,,27,114,5330014,,,,,,,2024-06-11,1,,,,,ミチクサホウモンカンゴ,0
2349,8120003026799,新規,0,2024-06-11,2024-06-11,アンビエントエージェンシー合同会社,,合同会社,大阪府,大阪市北区,梅田１丁目２番２－２００号大阪駅前第２ビル２階３－１－２,,27,127,5300001,,,,,,,2024-06-11,1,,,,,アンビエントエージェンシー,0
2350,8120003026824,新規,0,2024-06-11,2024-06-11,合同会社カラダクション,,合同会社,大阪府,大阪市西区,江戸堀１丁目２３－１９グラン・ビルド江戸堀５０４,,27,106,5500002,,,,,,,2024-06-11,1,,,,,カラダクション,0
2357,8120101069741,新規,0,2024-06-11,2024-06-11,株式会社櫛野組,00135110,株式会社,大阪府,堺市堺区,出島海岸通１丁１６番１５号,,27,141,5900833,,,,,,,2024-06-11,1,,,,,クシノグミ,0
2360,8120901049298,新規,0,2024-06-11,2024-06-11,株式会社ＴＭプランニング,,株式会社,大阪府,茨木市,南春日丘３丁目１０番１１号の９,,27,211,5670046,,,,,,,2024-06-11,1,,,,,ティーエムプランニング,0
2361,8120903005209,新規,0,2024-06-11,2024-06-11,来泉合同会社,,合同会社,大阪府,池田市,旭丘１丁目４番７号,,27,204,5630022,,,,,,,2024-06-11,1,,,,,ライセン,0
2365,8122003002904,新規,0,2024-06-11,2024-06-11,合同会社ネコヒゲ,,合同会社,大阪府,東大阪市,西堤楠町３丁目８－１シャーメゾンオリエント２０３,,27,227,5770047,,,,,,,2024-06-11,1,,,,,ネコヒゲ,0
2370,8130001077208,新規,0,2024-06-11,2024-06-11,株式会社山内建築,,株式会社,京都府,京都市西京区,松室荒堀町８８番地,,26,111,6158203,,,,,,,2024-06-11,1,,,,,ヤマウチケンチク,0
2371,8130001077216,新規,0,2024-06-11,2024-06-11,株式会社斉藤工設ＰＲＯ,,株式会社,京都府,八幡市,八幡石不動１６１－６,,26,210,6148088,,,,,,,2024-06-11,1,,,,,サイトウコウセツプロ,0
2372,8130001077232,新規,0,2024-06-11,2024-06-11,株式会社蛭子野,,株式会社,京都府,八幡市,男山金振１１番地１５サンコート男山Ｃ１０５号室,,26,210,6148365,,,,,,,2024-06-11,1,,,,,エビスノ,0
2373,8130003009621,新規,0,2024-06-11,2024-06-11,ＭＴ　Ｔｒａｄｉｎｇ合同会社,,合同会社,京都府,京田辺市,宮津佐牙垣内１２３番地１,,26,211,6100314,,,,,,,2024-06-11,1,,,,,エムティートレーディング,0
2379,8140001134718,新規,0,2024-06-11,2024-06-11,株式会社ＴＯＫＵ　ＨＯＭＥ,,株式会社,兵庫県,神戸市長田区,宮川町２丁目１１番地の２、５０１号,,28,106,6530813,,,,,,,2024-06-11,1,,,,,トクホーム,0
2380,8140001134726,新規,0,2024-06-11,2024-06-11,株式会社Ｔ＆Ｃ　ｔｒａｄｉｎｇ,,株式会社,兵庫県,姫路市,保城１１５１番地の５,,28,201,6700804,,,,,,,2024-06-11,1,,,,,ティーアンドシートレーディング,0
2381,8140001134734,新規,0,2024-06-11,2024-06-11,ＰＥＤＡＬ　ＳＴＡＮＤＡＲＤ株式会社,,株式会社,兵庫県,神戸市中央区,磯辺通１丁目１番１８号カサベラ国際プラザビル７０７号室,,28,110,6510084,,,,,,,2024-06-11,1,,,,,ペダルスタンダード,0
2384,8140003020684,新規,0,2024-06-11,2024-06-11,合同会社ＨＡＹＳ,,合同会社,兵庫県,神戸市灘区,永手町５丁目５番５－２０１号,,28,102,6570027,,,,,,,2024-06-11,1,,,,,ヘイズ,0
2385,8140003020692,新規,0,2024-06-11,2024-06-11,合同会社黒衣,,合同会社,兵庫県,伊丹市,南本町４丁目１番地２,,28,207,6640852,,,,,,,2024-06-11,1,,,,,クロコ,0
2390,8180001161881,新規,0,2024-06-11,2024-06-11,株式会社ＴＥＮｅＸ,,株式会社,愛知県,あま市,七宝町徳実郷東２８番地,,23,237,4970016,,,,,,,2024-06-11,1,,,,,テネックス,0
2391,8180001161956,新規,0,2024-06-11,2024-06-11,ＷＯＲＬＤＬＩＮＥ株式会社,,株式会社,愛知県,東海市,加木屋町２丁目２６３番地,,23,222,4770032,,,,,,,2024-06-11,1,,,,,ワールドライン,0
2406,8190001031398,新規,0,2024-06-11,2024-06-11,ＣＫソリューション株式会社,,株式会社,三重県,桑名郡木曽岬町,新輪１丁目１２番地２２,,24,303,4980824,,,,,,,2024-06-11,1,,,,,シイケイソリューション,0
2407,8190001031407,新規,0,2024-06-11,2024-06-11,ＩＧＫ株式会社,,株式会社,三重県,四日市市,ときわ３丁目１５番９号,,24,202,5100834,,,,,,,2024-06-11,1,,,,,アイジーケー,0
2418,8240003006715,新規,0,2024-06-11,2024-06-11,合同会社８８ｃｏｍｅｓ,,合同会社,広島県,広島市中区,大手町３丁目１番３号,,34,101,7300051,,,,,,,2024-06-11,1,,,,,ハチハチカムズ,0
2420,8280001009195,新規,0,2024-06-11,2024-06-11,株式会社Ｎｏａｈ,,株式会社,島根県,邑智郡邑南町,井原２２３７‐１０,,32,449,6960101,,,,,,,2024-06-11,1,,,,,ノア,0
2425,8290001106082,新規,0,2024-06-11,2024-06-11,株式会社ｃｏｎｓｔ,,株式会社,福岡県,福岡市博多区,博多駅前１丁目２３番２号ＰａｒｋＦｒｏｎｔ博多駅前１丁目５Ｆ－Ｂ,,40,132,8120011,,,,,,,2024-06-11,1,,,,,コンスト,0
2426,8290001106157,新規,0,2024-06-11,2024-06-11,株式会社ＩｏＴｏｎｅ　Ｊａｐａｎ,,株式会社,福岡県,福岡市城南区,茶山４丁目７番１２号,,40,136,8140111,,,,,,,2024-06-11,1,,,,,アイオートーンジャパン,0
2431,8300001013780,新規,0,2024-06-11,2024-06-11,株式会社ＢＬＵＥ　ＬＩＦＥ,,株式会社,佐賀県,唐津市,原１４７１番地１,,41,202,8470031,,,,,,,2024-06-11,1,,,,,ブルーライフ,0
2432,8310001019059,新規,0,2024-06-11,2024-06-11,株式会社鬼橋電気,,株式会社,長崎県,松浦市,志佐町浦免１２７４番地エクセレントビル２－Ｄ,,42,208,8594501,,,,,,,2024-06-11,1,,,,,オニハシデンキ,0
2434,8330001032159,新規,0,2024-06-11,2024-06-11,株式会社から王,,株式会社,熊本県,熊本市中央区,西子飼町８番２７号,,43,101,8600853,,,,,,,2024-06-11,1,,,,,カラオウ,0
2437,8340001026548,新規,0,2024-06-11,2024-06-11,株式会社Ｆｏｒｅｓｔ　Ｓｔｕｄｉｏ,,株式会社,鹿児島県,大島郡龍郷町,赤尾木１５１－３さとのアパート２０２,,46,527,8940411,,,,,,,2024-06-11,1,,,,,フォレストスタジオ,0
2446,8370001051386,新規,0,2024-06-11,2024-06-11,エース株式会社,,株式会社,宮城県,塩竈市,清水沢３丁目３１番１１号,,04,203,9850061,,,,,,,2024-06-11,1,,,,,エース,0
2447,8370001051394,新規,0,2024-06-11,2024-06-11,株式会社ＧＬＯＯＷアソシエイト,,株式会社,宮城県,仙台市若林区,若林７丁目６番４０号,,04,103,9840826,,,,,,,2024-06-11,1,,,,,グローアソシエイト,0
2448,8370001051411,新規,0,2024-06-11,2024-06-11,株式会社フローイング,,株式会社,宮城県,仙台市青葉区,国分町１丁目４番９号ｅｎｓｐａｃｅ,,04,101,9800803,,,,,,,2024-06-11,1,,,,,フローイング,0
2459,8390001017633,新規,0,2024-06-11,2024-06-11,株式会社飯塚ホールディングス,,株式会社,山形県,酒田市,宮海字中砂畑２７番地の２１,,06,204,9980005,,,,,,,2024-06-11,1,,,,,イイヅカホールディングス,0
2467,8410003003942,新規,0,2024-06-11,2024-06-11,堀部林業合同会社,,合同会社,秋田県,北秋田市,七日市字比留古岱６２番地２,,05,213,0183452,,,,,,,2024-06-11,1,,,,,ホリベリンギョウ,0
2470,8430001091979,新規,0,2024-06-11,2024-06-11,マイルズ株式会社,,株式会社,北海道,札幌市清田区,清田七条１丁目２７番３号,,01,110,0040847,,,,,,,2024-06-11,1,,,,,マイルズ,0
2471,8430001091995,新規,0,2024-06-11,2024-06-11,株式会社岩渕総合ＦＰ事務所,,株式会社,北海道,札幌市北区,北二十九条西４丁目１番１－５０３号,,01,102,0010029,,,,,,,2024-06-11,1,,,,,イワブチソウゴウエフピージムショ,0
2473,8430003016414,新規,0,2024-06-11,2024-06-11,合同会社Ｑ２,,合同会社,北海道,札幌市豊平区,平岸五条７丁目７番１２－４０３,,01,105,0620935,,,,,,,2024-06-11,1,,,,,キューツー,0
2474,8430005015001,新規,0,2024-06-11,2024-06-11,一般社団法人ＨＡＬａＰ,,その他の設立登記法人,北海道,札幌市南区,真駒内柏丘８丁目３番１０号,,01,106,0050022,,,,,,,2024-06-11,1,,,,,ハラッパ,0
2481,8480003002137,新規,0,2024-06-11,2024-06-11,合同会社串良蓄電所,,合同会社,徳島県,板野郡松茂町,中喜来字群恵３９番地１,,36,401,7710212,,,,,,,2024-06-11,1,,,,,クシラチクデンショ,0
2485,8700150035486,新規,0,2024-06-11,2015-10-09,東北国税労働組合,,その他,宮城県,仙台市青葉区,本町３丁目３－１仙台合同庁舎,,04,101,9800014,,,,,,,2015-10-09,1,,,,,トウホクコクゼイロウドウクミアイ,0
2486,8700150094813,新規,0,2024-06-11,2019-06-14,飛島村観光交流協会,,その他,愛知県,海部郡飛島村,竹之郷３丁目１番地,,23,427,4901436,,,,,,,2019-06-14,1,,,,,トビシマムラカンコウコウリユウキヨウカイ,0
2488,8700150125873,新規,0,2024-06-11,2024-06-11,ＯＫＡＳＡ　ＥＮＴＥＲＰＲＩＳＥＳ,,外国会社等,神奈川県,愛甲郡愛川町,中津５４３５－１－２０３,,14,401,2430303,スリランカ民主社会主義共和国、キャンディ、アクラナ、ドヌビラロード，Ｎｏ．１６８／Ｂ,,,,,,2024-06-11,1,,,,,オカサエンタープライセス,0
2492,9010001245568,新規,0,2024-06-11,2024-06-11,株式会社メドウェルアカデミー,,株式会社,東京都,千代田区,九段南２丁目３番２５号平安堂ビル４Ｆ,,13,101,1020074,,,,,,,2024-06-11,1,,,,,メドウェルアカデミー,0
2493,9010001245592,新規,0,2024-06-11,2024-06-11,株式会社Ａｌｐｈａ　Ｐｉｘｅｌ,,株式会社,東京都,中央区,勝どき５丁目３番１－４０２４号,,13,102,1040054,,,,,,,2024-06-11,1,,,,,アルファピクセル,0
2494,9010001245650,新規,0,2024-06-11,2024-06-11,ステラスター株式会社,,株式会社,東京都,中央区,日本橋堀留町１丁目１番９号和久井ビル６階,,13,102,1030012,,,,,,,2024-06-11,1,,,,,ステラスター,0
2495,9010001245667,新規,0,2024-06-11,2024-06-11,株式会社カモネギブラザーズ,,株式会社,東京都,千代田区,一番町２０番地５,,13,101,1020082,,,,,,,2024-06-11,1,,,,,カモネギブラザーズ,0
2496,9010001245675,新規,0,2024-06-11,2024-06-11,株式会社ＭＶＪ　ｎｅｘｕｓ,,株式会社,東京都,中央区,銀座１丁目２３－１０グランドガーラ銀座４０３号,,13,102,1040061,,,,,,,2024-06-11,1,,,,,エムブイジェイネクサス,0
2511,9010401182956,新規,0,2024-06-11,2024-06-11,北宇田商事株式会社,,株式会社,東京都,港区,虎ノ門４丁目１－１神谷町トラストタワーオフィス２２－１２１,,13,103,1050001,,,,,,,2024-06-11,1,,,,,キタウタショウジ,0
2512,9010401182997,新規,0,2024-06-11,2024-06-11,スピードファクター株式会社,,株式会社,東京都,港区,芝公園３丁目６番２３号光輪会館６Ｆ,,13,103,1050011,,,,,,,2024-06-11,1,,,,,スピードファクター,0
2513,9010401183046,新規,0,2024-06-11,2024-06-11,ＫＩＹＯＭＩ　ＭＥＤＥＩＲＯＳ株式会社,,株式会社,東京都,港区,六本木４丁目２番４１－２０４号,,13,103,1060032,,,,,,,2024-06-11,1,,,,,キヨミメディロス,0
2514,9010403032779,新規,0,2024-06-11,2024-06-11,ハニカム１０２合同会社,,合同会社,東京都,港区,浜松町２丁目２番１５号,,13,103,1050013,,,,,,,2024-06-11,1,,,,,ハニカムワンゼロツー,0
2515,9010503007474,新規,0,2024-06-11,2024-06-11,ファイナンシャル・トレーニング・カンパニー合同会社,,合同会社,東京都,台東区,根岸３丁目１番１－２０２号ライオンズ東京根岸グランフォート,,13,106,1100003,,,,,,,2024-06-11,1,,,,,ファイナンシャルトレーニングカンパニー,0
2525,9010901055430,新規,0,2024-06-11,2024-06-11,株式会社Ｐｉｌｌａｒ,,株式会社,東京都,世田谷区,弦巻４丁目１１番２号ソウ桜新町２０３,,13,112,1540016,,,,,,,2024-06-11,1,,,,,ピラー,0
2526,9010901055447,新規,0,2024-06-11,2024-06-11,株式会社ＳＴＥＬＡＢＵＬＡ,,株式会社,東京都,世田谷区,深沢７丁目１３番１８号,,13,112,1580081,,,,,,,2024-06-11,1,,,,,ステラブラ,0
2527,9010903009137,新規,0,2024-06-11,2024-06-11,合同会社嘉粋堂,,合同会社,東京都,世田谷区,深沢５丁目３番１１号ベルメゾン国沢４０１,,13,112,1580081,,,,,,,2024-06-11,1,,,,,カスイドウ,0
2535,9011003019332,新規,0,2024-06-11,2024-06-11,合同会社コンフィエ,,合同会社,東京都,渋谷区,渋谷２丁目１９―１５宮益坂ビルディング６０９,,13,113,1500002,,,,,,,2024-06-11,1,,,,,コンフィエ,0
2536,9011101107600,新規,0,2024-06-11,2024-06-11,株式会社ムサシナイソー,,株式会社,東京都,新宿区,高田馬場２丁目１４番２７号高橋ビル２０２号室,,13,104,1690075,,,,,,,2024-06-11,1,,,,,ムサシナイソー,0
2537,9011103014497,新規,0,2024-06-11,2024-06-11,合同会社ＡＳＫＲ,,合同会社,東京都,新宿区,西新宿４丁目１２番７－２０５号,,13,104,1600023,,,,,,,2024-06-11,1,,,,,エーエスケーアール,0
2538,9011103014530,新規,0,2024-06-11,2024-06-11,Ｖｉｎｃｅｎｔ合同会社,,合同会社,東京都,新宿区,西新宿３丁目３番１３号西新宿水間ビル２Ｆ,,13,104,1600023,,,,,,,2024-06-11,1,,,,,フィンセント,0
2539,9011103014539,新規,0,2024-06-11,2024-06-11,合同会社Ｋｏｓｈｉｙａｍａ　ＡＩ,,合同会社,東京都,新宿区,西新宿３丁目３番１３号西新宿水間ビル６階,,13,104,1600023,,,,,,,2024-06-11,1,,,,,コシヤマエーアイ,0
2544,9011401026178,新規,0,2024-06-11,2024-06-11,株式会社ｅＦＵＮＳ　ＬＡＢ．,,株式会社,東京都,板橋区,加賀１丁目２１番１号プラウドシティ加賀学園通り４１２,,13,119,1730003,,,,,,,2024-06-11,1,,,,,イーファンズラボ,0
2545,9011501030781,新規,0,2024-06-11,2024-06-11,株式会社滝川設備,,株式会社,東京都,北区,浮間２丁目２１番１１号,,13,117,1150051,,,,,,,2024-06-11,1,,,,,タキカワセツビ,0
2552,9012301013951,新規,0,2024-06-11,2024-06-11,Ａ‐ｓｏｌｕｔｉｏｎ株式会社,,株式会社,東京都,町田市,木曽東２丁目５番１号,,13,209,1940036,,,,,,,2024-06-11,1,,,,,エーソリューション,0
2554,9012701018303,新規,0,2024-06-11,2024-06-11,株式会社ＫＲＩ,,株式会社,東京都,東久留米市,滝山７丁目２番１２号,,13,222,2030033,,,,,,,2024-06-11,1,,,,,ケーアールアイ,0
2557,9013301052659,新規,0,2024-06-11,2024-06-11,株式会社パレットグリーン,,株式会社,東京都,豊島区,南長崎３丁目３７番１１－３０１号,,13,116,1710052,,,,,,,2024-06-11,1,,,,,パレットグリーン,0
2562,9020001157639,新規,0,2024-06-11,2024-06-11,株式会社ヒルトップタートル,,株式会社,神奈川県,川崎市幸区,堀川町７２番地２１－２４１０,,14,132,2120013,,,,,,,2024-06-11,1,,,,,ヒルトップタートル,0
2563,9020001157738,新規,0,2024-06-11,2024-06-11,株式会社ＨＯＰＥ,,株式会社,神奈川県,川崎市川崎区,堀之内町１２番地１６,,14,131,2100003,,,,,,,2024-06-11,1,,,,,ホープ,0
2565,9020003026016,新規,0,2024-06-11,2024-06-11,合同会社トリガー,,合同会社,神奈川県,横浜市金沢区,六浦４丁目１４番１３号サンハイツ六浦１－Ｅ,,14,108,2360031,,,,,,,2024-06-11,1,,,,,トリガー,0
2566,9020003026288,新規,0,2024-06-11,2024-06-11,合同会社ＩＣＭコンサルティング,,合同会社,神奈川県,横浜市旭区,東希望が丘７１番地２６,,14,112,2410826,,,,,,,2024-06-11,1,,,,,アイシームコンサルティング,0
2567,9020003026313,新規,0,2024-06-11,2024-06-11,合同会社横浜ＨＡＲＴ,,合同会社,神奈川県,横浜市港北区,篠原台町３１番１４号,,14,109,2220024,,,,,,,2024-06-11,1,,,,,ヨコハマハート,0
2571,9021001082364,新規,0,2024-06-11,2024-06-11,株式会社フィラスト,,株式会社,神奈川県,相模原市緑区,大島２１８３番地１３,,14,151,2520135,,,,,,,2024-06-11,1,,,,,フィラスト,0
2572,9021001082447,新規,0,2024-06-11,2024-06-11,株式会社ネクストリフォーム,,株式会社,神奈川県,小田原市,北ノ窪２９５番地の２,,14,206,2500051,,,,,,,2024-06-11,1,,,,,ネクストリフォーム,0
2573,9021001082455,新規,0,2024-06-11,2024-06-11,株式会社クローバーファーム,,株式会社,神奈川県,横須賀市,津久井５丁目１９番７号,,14,201,2390843,,,,,,,2024-06-11,1,,,,,クローバーファーム,0
2574,9021001082463,新規,0,2024-06-11,2024-06-11,ヨコスカエンジニアリング株式会社,,株式会社,神奈川県,横須賀市,久里浜２丁目２７番８号,,14,201,2390831,,,,,,,2024-06-11,1,,,,,ヨコスカエンジニアリング,0
2575,9021005013126,新規,0,2024-06-11,2024-06-11,一般財団法人オルタナティブスクール・ジャパン,,その他の設立登記法人,神奈川県,藤沢市,片瀬４丁目１６番２１号２階,,14,205,2510032,,,,,,,2024-06-11,1,,,,,オルタナティブスクールジャパン,0
2584,9030001160798,新規,0,2024-06-11,2024-06-11,株式会社バレルワン,,株式会社,埼玉県,川口市,大字東内野３９２番地の８,,11,203,3330821,,,,,,,2024-06-11,1,,,,,バレルワン,0
2585,9030001160823,新規,0,2024-06-11,2024-06-11,株式会社Ｒ．ＢａｌｂｏＡ,,株式会社,埼玉県,さいたま市北区,奈良町１６８番地９,,11,102,3310822,,,,,,,2024-06-11,1,,,,,アールバルボア,0
2586,9030001160856,新規,0,2024-06-11,2024-06-11,株式会社エイト工業,,株式会社,埼玉県,加須市,花崎１丁目２８番地９エルディム鈴木２０３号,,11,210,3470032,,,,,,,2024-06-11,1,,,,,エイトコウギョウ,0
2587,9030001160864,新規,0,2024-06-11,2024-06-11,株式会社遍照コーポレーション,,株式会社,埼玉県,さいたま市浦和区,上木崎２丁目７番２７－１３０７号,,11,107,3300071,,,,,,,2024-06-11,1,,,,,ヘンジョウコーポレーション,0
2588,9030001160872,新規,0,2024-06-11,2024-06-11,株式会社ハナイロ,,株式会社,埼玉県,吉川市,大字保８１番地１,,11,243,3420041,,,,,,,2024-06-11,1,,,,,ハナイロ,0
2592,9030003024456,新規,0,2024-06-11,2024-06-11,合同会社カンパニー,,合同会社,埼玉県,北足立郡伊奈町,内宿台１丁目３８番地３,,11,301,3620812,,,,,,,2024-06-11,1,,,,,カンパニー,0
2597,9040001133919,新規,0,2024-06-11,2024-06-11,八幡テック株式会社,,株式会社,千葉県,市原市,八幡１２８８番地１アーバンライフ八幡３－Ａ,,12,219,2900062,,,,,,,2024-06-11,1,,,,,ヤワタテック,0
2598,9040001133976,新規,0,2024-06-11,2024-06-11,ウィングキャピタル株式会社,,株式会社,千葉県,市川市,欠真間１丁目１０番５号,,12,203,2720142,,,,,,,2024-06-11,1,,,,,ウィングキャピタル,0
2599,9040001134017,新規,0,2024-06-11,2024-06-11,株式会社ＫＮＯＴ　ＣＯＬＯＲ,,株式会社,千葉県,八千代市,緑が丘西６丁目１２番地７６,,12,221,2760040,,,,,,,2024-06-11,1,,,,,ノットカラー,0
2606,9050001054890,新規,0,2024-06-11,2024-06-11,株式会社ワイズコネクト,,株式会社,茨城県,水戸市,上水戸１丁目９番７号,,08,201,3100041,,,,,,,2024-06-11,1,,,,,ワイズコネクト,0
2607,9050003008440,新規,0,2024-06-11,2024-06-11,合同会社ＳＫ企画,,合同会社,茨城県,神栖市,居切１番地１１,,08,232,3140141,,,,,,,2024-06-11,1,,,,,エスケーキカク,0
2608,9050003008449,新規,0,2024-06-11,2024-06-11,おおね合同会社,,合同会社,茨城県,神栖市,日川１７５６番地７５ビューロ・ジェンテＡ号室,,08,232,3140114,,,,,,,2024-06-11,1,,,,,オオネ,0
2611,9060001037184,新規,0,2024-06-11,2024-06-11,株式会社ヤマシチ,,株式会社,栃木県,宇都宮市,東簗瀬１丁目８番地１６,,09,201,3210925,,,,,,,2024-06-11,1,,,,,ヤマシチ,0
2616,9080101024816,新規,0,2024-06-11,2024-06-11,ＨＯＲＩＺＯ株式会社,,株式会社,静岡県,伊東市,赤沢３４３番地の６４,,22,208,4130233,,,,,,,2024-06-11,1,,,,,ホライゾ,0
2617,9080405007640,新規,0,2024-06-11,2024-06-11,一般社団法人互産互生オープンベース,,その他の設立登記法人,静岡県,掛川市,城下５番地の１０,,22,213,4360091,,,,,,,2024-06-11,1,,,,,ゴサンゴショウオープンベース,0
2622,9110001038458,新規,0,2024-06-11,2024-06-11,株式会社アビーロード,,株式会社,新潟県,三条市,南四日町１丁目８番５号,,15,204,9550852,,,,,,,2024-06-11,1,,,,,アビーロード,0
2623,9110001038474,新規,0,2024-06-11,2024-06-11,株式会社黒姫農文塾,,株式会社,新潟県,柏崎市,高柳町岡田３８１４番地１,,15,205,9451501,,,,,,,2024-06-11,1,,,,,クロヒメノウブンジュク,0
2624,9110001038482,新規,0,2024-06-11,2024-06-11,株式会社プラチナム,,株式会社,新潟県,新潟市中央区,南笹口２丁目１番１２号リッカ南笹口,,15,103,9500912,,,,,,,2024-06-11,1,,,,,プラチナム,0
2641,9120001265695,新規,0,2024-06-11,2024-06-11,株式会社ＧｏＺｏｏ６,,株式会社,大阪府,大阪市港区,市岡２丁目６番２２号１Ｆ,,27,107,5520012,,,,,,,2024-06-11,1,,,,,ゴーズーシックス,0
2642,9120001265704,新規,0,2024-06-11,2024-06-11,株式会社ゼロスタ,,株式会社,大阪府,守口市,浜町１丁目６番２号華那ビル３階,,27,209,5700093,,,,,,,2024-06-11,1,,,,,ゼロスタ,0
2643,9120001265720,新規,0,2024-06-11,2024-06-11,ｍｏｍｅｎｔｏ株式会社,,株式会社,大阪府,大阪市淀川区,西宮原２丁目６番１６号新大阪コーポビアネーズ６２４,,27,123,5320004,,,,,,,2024-06-11,1,,,,,モメント,0
2644,9120001265729,新規,0,2024-06-11,2024-06-11,株式会社イチイロペイント,,株式会社,大阪府,交野市,郡津４丁目２５番１１－４号,,27,230,5760053,,,,,,,2024-06-11,1,,,,,イチイロペイント,0
2645,9120001265753,新規,0,2024-06-11,2024-06-11,仁和株式会社,,株式会社,大阪府,大阪市北区,大淀南２丁目２番９－１８１７号,,27,127,5310075,,,,,,,2024-06-11,1,,,,,ニンワ,0
2646,9120001265778,新規,0,2024-06-11,2024-06-11,株式会社桃の花フーズ,,株式会社,大阪府,大阪市天王寺区,大道１丁目４番１号Ｓパレス天王寺４０１号,,27,109,5430052,,,,,,,2024-06-11,1,,,,,モモノハナフーズ,0
2647,9120001265811,新規,0,2024-06-11,2024-06-11,ＳＴＭ株式会社,,株式会社,大阪府,大阪市城東区,蒲生１丁目８番９号,,27,118,5360016,,,,,,,2024-06-11,1,,,,,エスティーエム,0
2653,9120003026757,新規,0,2024-06-11,2024-06-11,合同会社五十六鈴,,合同会社,大阪府,大阪市東淀川区,東淡路２丁目２番５号モリホーム東淡路文化１０５号,,27,114,5330023,,,,,,,2024-06-11,1,,,,,ゴジュウロクリン,0
2659,9120101069716,新規,0,2024-06-11,2024-06-11,株式会社大和美装,,株式会社,大阪府,泉南市,新家８６番地の１０,,27,228,5900503,,,,,,,2024-06-11,1,,,,,ヤマトビソウ,0
2660,9120101069732,新規,0,2024-06-11,2024-06-11,株式会社とうま創建,,株式会社,大阪府,羽曳野市,桃山台２丁目２番４号,,27,222,5830873,,,,,,,2024-06-11,1,,,,,トウマソウケン,0
2661,9120101069749,新規,0,2024-06-11,2024-06-11,株式会社ＭＡＸ,,株式会社,大阪府,藤井寺市,小山４丁目１１番２８号,,27,226,5830033,,,,,,,2024-06-11,1,,,,,マックス,0
2662,9120101069765,新規,0,2024-06-11,2024-06-11,株式会社ｍｉｄｏｒｉ,,株式会社,大阪府,堺市堺区,中三国ヶ丘町６丁４番３号,,27,141,5900022,,,,,,,2024-06-11,1,,,,,ミドリ,0
2663,9120103005883,新規,0,2024-06-11,2024-06-11,合同会社Ｗｉｌｌｍｉｘ,,合同会社,大阪府,富田林市,本町２０番２５号,,27,214,5840093,,,,,,,2024-06-11,1,,,,,ウィルミックス,0
2667,9120901049297,新規,0,2024-06-11,2024-06-11,株式会社ＷＫＴ,,株式会社,大阪府,摂津市,鳥飼中２丁目１番９９号,,27,224,5660064,,,,,,,2024-06-11,1,,,,,ダブリュケイティ,0
2673,9130001077256,新規,0,2024-06-11,2024-06-11,和合堂株式会社,,株式会社,京都府,京都市下京区,深草町５７２番地２グラン・ドムール五条烏丸６０３号室,,26,106,6008408,,,,,,,2024-06-11,1,,,,,ワゴウドウ,0
2677,9130003009629,新規,0,2024-06-11,2024-06-11,Ｐｅｄｅｓｔａｌ合同会社,,合同会社,京都府,京都市下京区,大黒町２２７番地第２キョートビル４０２,,26,106,6008043,,,,,,,2024-06-11,1,,,,,ペデスタル,0
2687,9140001134717,新規,0,2024-06-11,2024-06-11,株式会社ヤマセン,,株式会社,兵庫県,姫路市,岩端町１３番地,,28,201,6700028,,,,,,,2024-06-11,1,,,,,ヤマセン,0
2688,9140001134733,新規,0,2024-06-11,2024-06-11,株式会社Ｍａｒｕｄａｉ　Ｅｘｔｅｒｉｏｒ,,株式会社,兵庫県,丹波篠山市,今田町上立杭３４３番地,,28,221,6692135,,,,,,,2024-06-11,1,,,,,マルダイエクステリア,0
2689,9140001134758,新規,0,2024-06-11,2024-06-11,株式会社兼菊,,株式会社,兵庫県,神戸市兵庫区,神田町９番８号神田町アパート２号室,,28,105,6520006,,,,,,,2024-06-11,1,,,,,カネギク,0
2691,9140003020683,新規,0,2024-06-11,2024-06-11,Ｄ‐ＡＣＥ合同会社,,合同会社,兵庫県,姫路市,野里４６９番地１０,,28,201,6700811,,,,,,,2024-06-11,1,,,,,ディーエース,0
2692,9140003020691,新規,0,2024-06-11,2024-06-11,合同会社ＲＬ,,合同会社,兵庫県,伊丹市,中野西３丁目１番地の１マイシティ伊丹３－６０２号,,28,207,6640023,,,,,,,2024-06-11,1,,,,,アールエル,0
2699,9160001025988,新規,0,2024-06-11,2024-06-11,株式会社恭建,,株式会社,滋賀県,草津市,木川町９３７番地３,,25,206,5250051,,,,,,,2024-06-11,1,,,,,キョウケン,0
2700,9160003003208,新規,0,2024-06-11,2024-06-11,合同会社アドナイ,,合同会社,滋賀県,草津市,追分南２丁目１６番３号,,25,206,5250048,,,,,,,2024-06-11,1,,,,,アドナイ,0
2708,9180001161732,新規,0,2024-06-11,2024-06-11,日源サポート株式会社,,株式会社,愛知県,名古屋市西区,樋の口町１番１５号ホーワビル３階１６号,,23,104,4510034,,,,,,,2024-06-11,1,,,,,ニチゲンサポート,0
2709,9180001161880,新規,0,2024-06-11,2024-06-11,株式会社Ｈ．Ｂ．Ｆ．Ｆ,,株式会社,愛知県,半田市,青山３丁目２７番地の７,,23,205,4750836,,,,,,,2024-06-11,1,,,,,エイチビーエフエフ,0
2710,9180001161922,新規,0,2024-06-11,2024-06-11,株式会社中日園芸,,株式会社,愛知県,あま市,甚目寺松山４９番地２,,23,237,4901111,,,,,,,2024-06-11,1,,,,,チュウニチエンゲイ,0
2711,9180001161955,新規,0,2024-06-11,2024-06-11,株式会社キャリアリード,,株式会社,愛知県,名古屋市中区,錦２丁目７番７号プラウドタワー名古屋錦６０１号,,23,106,4600003,,,,,,,2024-06-11,1,,,,,キャリアリード,0
2718,9190001031397,新規,0,2024-06-11,2024-06-11,エフピー・アライアンス株式会社,,株式会社,三重県,四日市市,山之一色町１０３３番地１２０,,24,202,5120906,,,,,,,2024-06-11,1,,,,,エフピーアライアンス,0
2719,9190001031406,新規,0,2024-06-11,2024-06-11,株式会社ＴＳＣ,,株式会社,三重県,四日市市,八千代台２丁目１番地２９０,,24,202,5128047,,,,,,,2024-06-11,1,,,,,ティーエスシー,0
2720,9190003004698,新規,0,2024-06-11,2024-06-11,ＳＳＳ合同会社,,合同会社,三重県,四日市市,楠町本郷１８０６番地,,24,202,5100106,,,,,,,2024-06-11,1,,,,,スリーエス,0
2721,9190003004707,新規,0,2024-06-11,2024-06-11,合同会社ｍｊ,,合同会社,三重県,員弁郡東員町,大字鳥取８１５番地２,,24,324,5110241,,,,,,,2024-06-11,1,,,,,エムジェイ,0
2723,9200001042566,新規,0,2024-06-11,2024-06-11,Ｓｕｎｓｈｉｎｅ　Ｗｏｒｌｄ　１６８株式会社,,株式会社,岐阜県,本巣郡北方町,芝原東町１丁目２６番地,,21,421,5010423,,,,,,,2024-06-11,1,,,,,サンシャインワールドイチロクハチ,0
2724,9200001042590,新規,0,2024-06-11,2024-06-11,Ｓ＆Ｓ株式会社,,株式会社,岐阜県,大垣市,寺内町３丁目７番地,,21,202,5030865,,,,,,,2024-06-11,1,,,,,エスアンドエス,0
2727,9220001026055,新規,0,2024-06-11,2024-06-11,株式会社ＧＬＵＴＴＯＮ　ＣＯＭＰＡＮＹ,,株式会社,石川県,能美市,緑が丘５丁目２８‐４,,17,211,9231226,,,,,,,2024-06-11,1,,,,,グラトンカンパニー,0
2731,9240001063369,新規,0,2024-06-11,2024-06-11,ＴＨＡＩＫＯモータース株式会社,,株式会社,広島県,広島市安佐北区,白木町大字三田３６０４番地１１みたハウス２,,34,106,7391521,,,,,,,2024-06-11,1,,,,,タイコモータース,0
2733,9250001020682,新規,0,2024-06-11,2024-06-11,株式会社絆周南,,株式会社,山口県,周南市,大字下上２３２８番地,,35,215,7460082,,,,,,,2024-06-11,1,,,,,キズナシュウナン,0
2735,9260001039169,新規,0,2024-06-11,2024-06-11,株式会社ＯＮＥクリエイト,,株式会社,岡山県,岡山市南区,福富中１丁目２番９号シティー福富１０３号,,33,104,7028032,,,,,,,2024-06-11,1,,,,,ワンクリエイト,0
2739,9290001106098,新規,0,2024-06-11,2024-06-11,株式会社ｒｉｔａ,,株式会社,福岡県,福岡市城南区,鳥飼６丁目２３－４３－４０９,,40,136,8140103,,,,,,,2024-06-11,1,,,,,リタ,0
2740,9290001106131,新規,0,2024-06-11,2024-06-11,株式会社Ｒｏｎｄｅ,,株式会社,福岡県,糟屋郡粕屋町,大字仲原２７６１番地１,,40,349,8112304,,,,,,,2024-06-11,1,,,,,ロンド,0
2741,9290003015388,新規,0,2024-06-11,2024-06-11,スマイル・ワン合同会社,,合同会社,福岡県,福岡市城南区,別府６丁目１９番２－１０２号,,40,136,8140104,,,,,,,2024-06-11,1,,,,,スマイルワン,0
2742,9290003015405,新規,0,2024-06-11,2024-06-11,合同会社ブライト,,合同会社,福岡県,福岡市中央区,六本松３丁目５－３５－５０２,,40,133,8100044,,,,,,,2024-06-11,1,,,,,ブライト,0
2749,9310001019058,新規,0,2024-06-11,2024-06-11,株式会社コーケン,,株式会社,長崎県,長崎市,大宮町１９番１２号,,42,201,8528056,,,,,,,2024-06-11,1,,,,,コーケン,0
2750,9330001032158,新規,0,2024-06-11,2024-06-11,株式会社ナカノ企画,,株式会社,熊本県,熊本市西区,八島１丁目５－２,,43,103,8600054,,,,,,,2024-06-11,1,,,,,ナカノキカク,0
2756,9340001026571,新規,0,2024-06-11,2024-06-11,株式会社エグゼ,,株式会社,鹿児島県,鹿児島市,山之口町８番１０号ＳＡＫＵＲＡ　ＢＵＩＲＤ　Ｂ館３Ｆ,,46,201,8920844,,,,,,,2024-06-11,1,,,,,エグゼ,0
2760,9360001033780,新規,0,2024-06-11,2024-06-11,株式会社ＳｏＷｈａｔ,,株式会社,沖縄県,那覇市,首里崎山町４丁目６７番地１１,,47,201,9030814,,,,,,,2024-06-11,1,,,,,ソーホワット,0
2761,9360001033789,新規,0,2024-06-11,2024-06-11,辰希株式会社,,株式会社,沖縄県,那覇市,字小禄１２８９番地７,,47,201,9010152,,,,,,,2024-06-11,1,,,,,タツキ,0
2765,9370001051385,新規,0,2024-06-11,2024-06-11,株式会社ＮｕｒＯｎｅ,,株式会社,宮城県,仙台市青葉区,川平２丁目２１番３７号,,04,101,9810954,,,,,,,2024-06-11,1,,,,,ヌーアワン,0
2766,9370001051393,新規,0,2024-06-11,2024-06-11,株式会社Ｂｅａｕｔｉｆｕｌ　Ｒａｉｎ,,株式会社,宮城県,仙台市青葉区,国分町２丁目８番４号,,04,101,9800803,,,,,,,2024-06-11,1,,,,,ビューティフルレイン,0
2767,9370001051402,新規,0,2024-06-11,2024-06-11,株式会社Ｙｓ８,,株式会社,宮城県,仙台市宮城野区,榴岡４丁目１２番２号,,04,102,9830852,,,,,,,2024-06-11,1,,,,,ワイエスエイト,0
2768,9370001051410,新規,0,2024-06-11,2024-06-11,株式会社Ｓ・Ｋ朝日駐車場,,株式会社,宮城県,名取市,下増田字小沼２９番地,,04,207,9811201,,,,,,,2024-06-11,1,,,,,エスケーアサヒチュウシャジョウ,0
2774,9390001017632,新規,0,2024-06-11,2024-06-11,佐竹ボーリング株式会社,,株式会社,山形県,寒河江市,大字高屋３８７番地の１,,06,206,9910042,,,,,,,2024-06-11,1,,,,,サタケボーリング,0
2775,9390003002252,新規,0,2024-06-11,2024-06-11,合同会社Ｖｉｅ　Ｎｏｕｖｅｌｌｅ,,合同会社,山形県,東根市,神町北２丁目１２番１１号,,06,211,9993762,,,,,,,2024-06-11,1,,,,,ビノーベル,0
2777,9410003003941,新規,0,2024-06-11,2024-06-11,合同会社ＬｉｖｅＷｉｒｅ,,合同会社,秋田県,秋田市,添川字地ノ内９７番地２１,,05,201,0100822,,,,,,,2024-06-11,1,,,,,ライブワイアー,0
2782,9420003002934,新規,0,2024-06-11,2024-06-11,才カンパニー合同会社,,合同会社,青森県,上北郡野辺地町,字新町裏４７番地１１,,02,401,0393163,,,,,,,2024-06-11,1,,,,,サイカンパニー,0
2783,9430001091986,新規,0,2024-06-11,2024-06-11,株式会社竹田電気商会,,株式会社,北海道,小樽市,朝里２丁目１１番２７号,,01,203,0470151,,,,,,,2024-06-11,1,,,,,タケダデンキショウカイ,0
2784,9430001091994,新規,0,2024-06-11,2024-06-11,株式会社イーストライフ,,株式会社,北海道,札幌市中央区,南一条東２丁目１番地３和興ビル６階,,01,101,0600051,,,,,,,2024-06-11,1,,,,,イーストライフ,0
2785,9430001092002,新規,0,2024-06-11,2024-06-11,株式会社ルボンエールリビング,,株式会社,北海道,札幌市豊平区,美園五条３丁目１番２９－１０３号,,01,105,0620005,,,,,,,2024-06-11,1,,,,,ルボンエールリビング,0
2786,9430001092019,新規,0,2024-06-11,2024-06-11,ＭＩＬＯＬＯ株式会社,,株式会社,北海道,札幌市東区,北二十六条東１６丁目１番３８号,,01,103,0650026,,,,,,,2024-06-11,1,,,,,ミロロ,0
2795,9470001020248,新規,0,2024-06-11,2024-06-11,株式会社ソルスト,,株式会社,香川県,高松市,木太町６０８－７０中山ビル２Ｆ北,,37,201,7600080,,,,,,,2024-06-11,1,,,,,ソルスト,0
2797,9500001025689,新規,0,2024-06-11,2024-06-11,株式会社和工房,,株式会社,愛媛県,伊予郡松前町,大字北黒田４８２番地１０,,38,401,7913102,,,,,,,2024-06-11,1,,,,,ナゴミコウボウ,0
2799,9700150125872,新規,0,2024-06-11,2024-06-11,ＳＩＮＧＨＥ　ＭＯＴＯＲＳ,,外国会社等,神奈川県,厚木市,山際５１－１,,14,212,2430803,スリランカ民主主義社会共和国、ボララスガムワ、レイクロード、Ｎｏ．４２１／１号,,,,,,2024-06-11,1,,,,,シンヘモータース,0
