sequenceNumber,corporateNumber,process,correct,updateDate,changeDate,name,nameImageId,kind,prefectureName,cityName,streetNumber,addressImageId,prefectureCode,cityCode,postCode,addressOutside,addressOutsideImageId,closeDate,closeCause,successorCorporateNumber,changeCause,assignmentDate,latest,enName,enPrefectureName,enCityName,enAddressOutside,furigana,hihyoji
52,1010802010491,登記記録の閉鎖等,0,2025-05-14,2025-04-28,有限会社ドリーミン,,有限会社,東京都,大田区,中央３丁目２１番３号,,13,111,1430024,,,2025-04-28,清算の結了等,,,2015-10-05,1,,,,,,0
54,1010902016959,登記記録の閉鎖等,0,2025-05-14,2025-05-12,有限会社大塚クリエイティブ,,有限会社,東京都,世田谷区,祖師谷５丁目５番３号,,13,112,1570072,,,2025-05-12,清算の結了等,,,2015-10-05,1,,,,,,0
57,1011001059338,登記記録の閉鎖等,0,2025-05-14,2025-05-01,株式会社ＳＭＴプランニング,,株式会社,東京都,渋谷区,千駄ヶ谷３丁目２３番８号,,13,113,1510051,,,2025-05-01,合併による解散等,6030001039797,令和７年５月１日東京都渋谷区千駄ヶ谷三丁目２３番８号株式会社デイズ（6030001039797）に合併し解散,2015-10-05,1,,,,,エスエムティプランニング,0
87,1012301008430,登記記録の閉鎖等,0,2025-05-14,2025-05-07,株式会社マユミ,,株式会社,東京都,町田市,森野４丁目１８番２５号,,13,209,1940022,,,2025-05-07,清算の結了等,,,2015-10-05,1,,,,,マユミ,0
98,1013405000315,登記記録の閉鎖等,0,2025-05-14,2025-05-02,農事組合法人多摩市農産加工組合,,その他の設立登記法人,東京都,多摩市,関戸６丁目２３番地２,,13,224,2060011,,,2025-05-02,清算の結了等,,,2015-10-05,1,,,,,タマシノウサンカコウクミアイ,0
110,1020002001811,登記記録の閉鎖等,0,2025-05-14,2025-05-08,有限会社野坂興業,,有限会社,神奈川県,横浜市瀬谷区,宮沢２丁目５０番地２,,14,114,2460038,,,2025-05-08,清算の結了等,,,2015-10-05,1,,,,,ノサカコウギョウ,0
115,1020005004076,登記記録の閉鎖等,0,2025-05-14,2025-04-25,特定非営利活動法人新桜ケ丘パートナー,,その他の設立登記法人,神奈川県,横浜市保土ケ谷区,新桜ケ丘１丁目１１番６号,,14,106,2400036,,,2025-04-25,清算の結了等,,,2015-10-05,1,,,,,シンサクラガオカパートナー,0
124,1021005011649,登記記録の閉鎖等,0,2025-05-14,2025-05-02,ファーストクラス相模大野第２管理組合法人,,その他の設立登記法人,神奈川県,相模原市南区,相模大野６丁目１５番３１号,,14,153,2520303,,,2025-05-02,清算の結了等,,,2019-06-25,1,,,,,ファーストクラスサガミオオノダイニ,0
131,1030001151210,登記記録の閉鎖等,0,2025-05-14,2025-05-08,ひだまり薬局株式会社,,株式会社,埼玉県,戸田市,美女木２丁目２８番地の１０,,11,224,3350031,,,2025-05-08,清算の結了等,,,2022-11-28,1,,,,,ヒダマリヤッキョク,0
138,1030002079624,登記記録の閉鎖等,0,2025-05-14,2025-05-08,太陽機材有限会社,,有限会社,埼玉県,川越市,芳野台１丁目１０３番地１４,,11,201,3500833,,,2025-05-08,清算の結了等,,,2015-10-05,1,,,,,タイヨウキザイ,0
139,1030003010975,登記記録の閉鎖等,0,2025-05-14,2025-05-12,合同会社関商事トラスト,,合同会社,埼玉県,草加市,谷塚町１２４０番地,,11,221,3400023,,,2025-05-12,清算の結了等,,,2017-11-01,1,,,,,セキショウジトラスト,0
144,1040001023697,登記記録の閉鎖等,0,2025-05-14,2025-04-24,株式会社コウラテクノ,,株式会社,千葉県,八千代市,吉橋１１７０番地３,,12,221,2760047,,,2025-04-24,清算の結了等,,,2015-10-05,1,,,,,コウラテクノ,0
145,1040001066531,登記記録の閉鎖等,0,2025-05-14,2025-04-23,ロータリー株式会社,,株式会社,千葉県,柏市,豊住３丁目１１番７号パナハイツ幹２０２号,,12,217,2770071,,,2025-04-23,清算の結了等,,,2015-10-05,1,,,,,ロータリー,0
151,1040002102459,登記記録の閉鎖等,0,2025-05-14,2025-04-15,有限会社アロウコンサルタント,,有限会社,千葉県,夷隅郡御宿町,御宿台３０８番地５,,12,443,2995112,,,2025-04-15,清算の結了等,,,2015-10-05,1,,,,,アロウコンサルタント,0
154,1050001042275,登記記録の閉鎖等,0,2025-05-14,2025-05-01,株式会社ケアハーモニー,,株式会社,茨城県,水戸市,笠原町１３６１番地の２,,08,201,3100852,,,2025-05-01,合併による解散等,4110001027911,令和７年４月１日新潟県中魚沼郡津南町大字下船渡戊９４４番地１株式会社スマイルパートナーズ（4110001027911）に合併し解散,2017-02-14,1,,,,,ケアハーモニー,0
168,1090005007618,登記記録の閉鎖等,0,2025-05-14,2025-05-07,一般社団法人ジェンダー・多様性政策推進機構,,その他の設立登記法人,山梨県,西八代郡市川三郷町,市川大門３５０－１,,19,346,4093601,,,2025-05-07,清算の結了等,,,2024-03-11,1,,,,,ジェンダータヨウセイセイサクスイシンキコウ,0
175,1110002001950,登記記録の閉鎖等,0,2025-05-14,2025-04-25,有限会社玉露園,,有限会社,新潟県,新潟市東区,東中島４丁目７番３号,,15,102,9500823,,,2025-04-25,清算の結了等,,,2015-10-05,1,,,,,ギョクロエン,0
176,1110005000891,登記記録の閉鎖等,0,2025-05-14,2025-04-01,黒埼商工会,,その他の設立登記法人,新潟県,新潟市西区,大野町３０２１番地,,15,107,9501111,,,2025-04-01,合併による解散等,4110005017215,令和７年４月１日新潟市西区内野町５３７番地新潟西商工会（9110005000892）と新潟市西区赤塚５４０５番地８赤塚商工会（4110005000889）と合併して新潟県新潟市西区大野町３０２１番地西新潟商工会（4110005017215）を設立し解散,2015-10-05,1,,,,,クロサキ,0
194,1120002063651,登記記録の閉鎖等,0,2025-05-14,2025-04-21,有限会社ｏｆｆｉｃｅＢＡＮ,,有限会社,大阪府,大阪市中央区,島之内１丁目１４番１４号織田ビル,,27,128,5420082,,,2025-04-21,清算の結了等,,,2015-10-05,1,,,,,オフィスバン,0
207,1120901024472,登記記録の閉鎖等,0,2025-05-14,2025-05-02,ダイツー・シールドエンジニアリング株式会社,,株式会社,大阪府,摂津市,鳥飼銘木町８番１２号,,27,224,5660063,,,2025-05-02,清算の結了等,,,2015-10-05,1,,,,,ダイツーシールドエンジニアリング,0
211,1120902016279,登記記録の閉鎖等,0,2025-05-14,2025-05-02,有限会社サイプス,,有限会社,大阪府,箕面市,箕面７丁目６番２１号,,27,220,5620001,,,2025-05-02,清算の結了等,,,2015-10-05,1,,,,,サイプス,0
220,1130002034701,登記記録の閉鎖等,0,2025-05-14,2025-05-08,有限会社本井器械店,,有限会社,京都府,舞鶴市,倉梯町１５番地の５,,26,202,6250056,,,2025-05-08,清算の結了等,,,2015-10-05,1,,,,,モトイキカイテン,0
230,1140005002266,登記記録の閉鎖等,0,2025-05-14,2025-04-17,学校法人トヨタ神戸整備学園,,その他の設立登記法人,兵庫県,神戸市西区,学園東町４丁目１番,,28,111,6512102,,,2025-04-17,合併による解散等,7010105000219,令和７年４月１日東京都八王子市館町２１９３番地学校法人トヨタ整備学園（7010105000219）に合併し解散,2015-10-05,1,,,,,トヨタコウベセイビガクエン,0
239,1170005004029,登記記録の閉鎖等,0,2025-05-14,2025-04-17,社会福祉法人清英会,,その他の設立登記法人,和歌山県,日高郡みなべ町,埴田１４５０番地１,,30,391,6450004,,,2025-04-17,合併による解散等,3010805001445,令和７年４月１日東京都大田区東糀谷六丁目４番１７号社会福祉法人善光会（3010805001445）に合併し解散,2015-10-05,1,,,,,セイエイカイ,0
253,1180003023764,登記記録の閉鎖等,0,2025-05-14,2025-05-07,ＩＲＦＡＮ工業合同会社,,合同会社,愛知県,あま市,篠田一之沢５６番地,,23,237,4901211,,,2025-05-07,清算の結了等,,,2022-05-02,1,,,,,イルファンコウギョウ,0
278,1260002027196,登記記録の閉鎖等,0,2025-05-14,2025-04-28,広栄重機工業有限会社,,有限会社,岡山県,新見市,高尾２２６７番地,,33,210,7180003,,,2025-04-28,清算の結了等,,,2015-10-05,1,,,,,コウエイジュウキコウギョウ,0
279,1270002004079,登記記録の閉鎖等,0,2025-05-14,2025-05-13,有限会社モリモト興機,,有限会社,鳥取県,鳥取市,気高町宝木１５６２番地１３０,,31,201,6890216,,,2025-05-13,清算の結了等,,,2015-10-05,1,,,,,モリモトコウキ,0
282,1290003006246,登記記録の閉鎖等,0,2025-05-14,2025-04-24,山口総合企画合資会社,,合資会社,福岡県,八女市,立花町兼松１５８３番地,,40,210,8340082,,,2025-04-24,清算の結了等,,,2016-01-22,1,,,,,ヤマグチソウゴウキカク,0
300,1330002031067,登記記録の閉鎖等,0,2025-05-14,2025-05-02,有限会社ヒラタ架設,,有限会社,熊本県,球磨郡多良木町,大字多良木１４２２番地,,43,505,8680501,,,2025-05-02,清算の結了等,,,2015-10-05,1,,,,,ヒラタカセツ,0
305,1340002011035,登記記録の閉鎖等,0,2025-05-14,2025-05-08,ウォーターキング南九州有限会社,,有限会社,鹿児島県,鹿児島市,吉野町２５３０番地,,46,201,8920871,,,2025-05-08,清算の結了等,,,2015-10-05,1,,,,,ウォーターキングミナミキュウシュウ,0
318,1390002016161,登記記録の閉鎖等,0,2025-05-14,2025-04-10,有限会社地球耕望,,有限会社,山形県,西村山郡朝日町,大字宮宿１３５３番地１,,06,323,9901442,,,2025-04-10,合併による解散等,1390001012178,令和７年４月１日山形県西村山郡朝日町大字宮宿１３５３番地１株式会社朝日町総合産業開発（1390001012178）に合併し解散,2015-10-05,1,,,,,チキュウコウボウ,0
335,1700150044493,登記記録の閉鎖等,0,2025-05-14,2025-01-31,あさはたじまん市加工グループ,,その他,静岡県,静岡市葵区,北１丁目８－５３,,22,101,4200961,,,2025-01-31,その他の清算の結了等,,,2015-10-09,1,,,,,アサハタジマンイチカコウグループ,0
358,2010401131903,登記記録の閉鎖等,0,2025-05-14,2025-05-07,株式会社パーソナルＣＨＩＮＴＡＩ,,株式会社,東京都,港区,元赤坂１丁目２番７号,,13,103,1070051,,,2025-05-07,清算の結了等,,,2017-06-08,1,,,,,パーソナルチンタイ,0
368,2010501052529,登記記録の閉鎖等,0,2025-05-14,2025-04-17,Ｗｌｓｙ　Ｂｉｏｔｅｃｈ株式会社,,株式会社,東京都,台東区,清川１丁目２１－５ＷＡＬＬａｐａｒｔｍｅｎｔ５階大区画号室,,13,106,1110022,,,2025-04-17,清算の結了等,,,2024-07-03,1,,,,,ウィルシーバイオテック,0
378,2010802007314,登記記録の閉鎖等,0,2025-05-14,2025-04-30,有限会社修和鉄工,,有限会社,東京都,大田区,東嶺町３６番１６号,,13,111,1450074,,,2025-04-30,清算の結了等,,,2015-10-05,1,,,,,シュウワテッコウ,0
379,2010901017726,登記記録の閉鎖等,0,2025-05-14,2025-05-12,株式会社インスパイア,,株式会社,東京都,世田谷区,鎌田４丁目５番１６－１３９号,,13,112,1570077,,,2025-05-12,清算の結了等,,,2015-10-05,1,,,,,インスパイア,0
385,2010905003664,登記記録の閉鎖等,0,2025-05-14,2025-05-12,一般社団法人トータル・ヘルスケア研究機構,,その他の設立登記法人,東京都,世田谷区,奥沢４丁目５番１－５０１号,,13,112,1580083,,,2025-05-12,清算の結了等,,,2018-10-03,1,,,,,トータルヘルスケアケンキュウキコウ,0
387,2011001072728,登記記録の閉鎖等,0,2025-05-14,2025-04-30,株式会社エスパープロデューサーズ,,株式会社,東京都,大田区,南千束１丁目２６番６号,,13,111,1450063,,,2025-04-30,清算の結了等,,,2015-10-05,1,,,,,エスパープロデューサーズ,0
398,2011001147050,登記記録の閉鎖等,0,2025-05-14,2025-04-08,アイオライト株式会社,,株式会社,東京都,渋谷区,渋谷２丁目１９番１５－６０９号,,13,113,1500002,,,2025-04-08,清算の結了等,,,2022-04-21,1,,,,,アイオライト,0
412,2011402009849,登記記録の閉鎖等,0,2025-05-14,2025-05-09,有限会社板橋紙器製作所,,有限会社,埼玉県,戸田市,大字新曽３３２,,11,224,3350021,,,2025-05-09,清算の結了等,,,2015-10-05,1,,,,,イタバシシキセイサクショ,0
427,2012301000898,登記記録の閉鎖等,0,2025-05-14,2025-05-02,株式会社サニーコーポレーション,,株式会社,東京都,町田市,原町田６丁目２６番１９号,,13,209,1940013,,,2025-05-02,清算の結了等,,,2015-10-05,1,,,,,,0
461,2021002003516,登記記録の閉鎖等,0,2025-05-14,2025-05-08,有限会社東信設備設計,,有限会社,神奈川県,藤沢市,高倉９９６番地１４,,14,205,2520802,,,2025-05-08,清算の結了等,,,2015-10-05,1,,,,,トウシンセツビセッケイ,0
466,2030001060014,登記記録の閉鎖等,0,2025-05-14,2025-05-12,ジャストホーム企画株式会社,,株式会社,埼玉県,川越市,大字砂新田８８番地５,,11,201,3501137,,,2025-05-12,清算の結了等,,,2015-10-05,1,,,,,ジャストホームキカク,0
481,2040001109017,登記記録の閉鎖等,0,2025-05-14,2025-05-12,株式会社ライブ,,株式会社,東京都,渋谷区,桜丘町２３番１７号シティコート桜丘４０８,,13,113,1500031,,,2025-05-12,清算の結了等,,,2019-05-09,1,,,,,ライブ,0
486,2040002006849,登記記録の閉鎖等,0,2025-05-14,2025-04-21,有限会社大和アート,,有限会社,千葉県,千葉市美浜区,磯辺６丁目１番１棟２０４号,,12,106,2610012,,,2025-04-21,清算の結了等,,,2015-10-05,1,,,,,ダイワアート,0
489,2040002059797,登記記録の閉鎖等,0,2025-05-14,2025-04-24,有限会社菅澤自動車,,有限会社,千葉県,成田市,名古屋１２１４番地の４０,,12,211,2890116,,,2025-04-24,清算の結了等,,,2015-10-05,1,,,,,スガサワジドウシャ,0
505,2070001002458,登記記録の閉鎖等,0,2025-05-14,2025-05-09,株式会社ニッキ,,株式会社,群馬県,前橋市,青柳町１９８番地,,10,201,3710056,,,2025-05-09,清算の結了等,,,2015-10-05,1,,,,,ニッキ,0
521,2100002027319,登記記録の閉鎖等,0,2025-05-14,2025-05-08,有限会社加納電気サービスセンター,,有限会社,長野県,木曽郡大桑村,大字野尻１８０３番地,,20,430,3995504,,,2025-05-08,清算の結了等,,,2015-10-05,1,,,,,カノウデンキサービス,0
525,2110001023185,登記記録の閉鎖等,0,2025-05-14,2025-04-25,株式会社ナガタイ,,株式会社,新潟県,長岡市,喜多町４５８番地１,,15,202,9402121,,,2025-04-25,清算の結了等,,,2015-10-05,1,,,,,ナガタイ,0
530,2110002015009,登記記録の閉鎖等,0,2025-05-14,2025-04-25,有限会社グリーンスタジアム,,有限会社,新潟県,新発田市,下中４４３番地,,15,206,9592451,,,2025-04-25,清算の結了等,,,2015-10-05,1,,,,,グリーンスタジアム,0
531,2110002015603,登記記録の閉鎖等,0,2025-05-14,2025-04-28,有限会社山口製材所,,有限会社,新潟県,新発田市,五十公野３４４７番地,,15,206,9570021,,,2025-04-28,清算の結了等,,,2015-10-05,1,,,,,ヤマグチセイザイショ,0
578,2160001016762,登記記録の閉鎖等,0,2025-05-14,2025-05-07,株式会社中島建窓,,株式会社,滋賀県,守山市,守山１丁目２番３－４０２号,,25,207,5240022,,,2025-05-07,清算の結了等,,,2015-10-05,1,,,,,ナカシマケンソウ,0
587,2180001065345,登記記録の閉鎖等,0,2025-05-14,2025-05-07,株式会社ジェーピーマネジメント,,株式会社,愛知県,名古屋市千種区,豊年町１７番１１号,,23,101,4640076,,,2025-05-07,清算の結了等,,,2015-10-05,1,,,,,ジェーピーマネジメント,0
594,2180002042698,登記記録の閉鎖等,0,2025-05-14,2025-05-07,有限会社東海ブックサービス,,有限会社,愛知県,名古屋市中区,栄３丁目１１番５号,,23,106,4600008,,,2025-05-07,清算の結了等,,,2015-10-05,1,,,,,トウカイブックサービス,0
595,2180002092009,登記記録の閉鎖等,0,2025-05-14,2025-05-08,有限会社濟田組,,有限会社,愛知県,海部郡大治町,大字堀之内字郷中２４７番地,,23,424,4901137,,,2025-05-08,清算の結了等,,,2015-10-05,1,,,,,サイダグミ,0
607,2200002019553,登記記録の閉鎖等,0,2025-05-14,2025-05-07,有限会社プランターム,,有限会社,岐阜県,関市,桜台２丁目４番１２号,,21,205,5013931,,,2025-05-07,清算の結了等,,,2015-10-05,1,,,,,プランターム,0
620,2260002018368,登記記録の閉鎖等,0,2025-05-14,2025-04-30,有限会社三輝電設,,有限会社,岡山県,倉敷市,福田町古新田８６６番地４５,,33,202,7128046,,,2025-04-30,清算の結了等,,,2015-10-05,1,,,,,サンキデンセツ,0
650,2350005002087,登記記録の閉鎖等,0,2025-05-14,2025-04-18,天理教西和州分教会,,その他の設立登記法人,宮崎県,児湯郡川南町,大字川南３７９６番地２,,45,405,8891301,,,2025-04-18,合併による解散等,2470005004096,令和７年４月８日香川県観音寺市豊浜町和田浜１２０３番地天理教和田濱分教会（2470005004096）に合併し解散,2015-10-05,1,,,,,テンリキョウニシワシュウブンキョウカイ,0
658,2400002007819,登記記録の閉鎖等,0,2025-05-14,2025-04-23,有限会社カンヤ建材,,有限会社,岩手県,岩手郡葛巻町,葛巻第８地割１番地１５,,03,302,0285402,,,2025-04-23,清算の結了等,,,2015-10-05,1,,,,,カンヤケンザイ,0
676,2470002001360,登記記録の閉鎖等,0,2025-05-14,2025-05-13,有限会社エステート松岡,,有限会社,香川県,高松市,高松町４４１番地８,,37,201,7610104,,,2025-05-13,清算の結了等,,,2015-10-05,1,,,,,エステートマツオカ,0
680,2500005000752,登記記録の閉鎖等,0,2025-05-14,2025-05-09,医療法人戸田内科,,その他の設立登記法人,愛媛県,松山市,西垣生町５８５番地,,38,201,7918044,,,2025-05-09,清算の結了等,,,2015-10-05,1,,,,,トダナイカ,0
684,3010001028251,登記記録の閉鎖等,0,2025-05-14,2025-04-21,株式会社フジタクト,,株式会社,東京都,千代田区,神田錦町２丁目９番地麻生ビル,,13,101,1010054,,,2025-04-21,清算の結了等,,,2015-10-05,1,,,,,フジタクト,0
697,3010001219890,登記記録の閉鎖等,0,2025-05-14,2025-04-18,株式会社Ｓｔｕｄｉｏ弁天,,株式会社,東京都,千代田区,二番町９番３号,,13,101,1020084,,,2025-04-18,清算の結了等,,,2021-07-21,1,,,,,スタジオベンテン,0
702,3010002017988,登記記録の閉鎖等,0,2025-05-14,2025-04-30,有限会社エムアイ企画サービス,,有限会社,東京都,大田区,鵜の木３丁目４番１７号,,13,111,1460091,,,2025-04-30,清算の結了等,,,2015-10-05,1,,,,,エムアイキカクサービス,0
704,3010003016270,登記記録の閉鎖等,0,2025-05-14,2025-04-21,サンテミリオン・プロパティー合同会社,,合同会社,東京都,中央区,日本橋１丁目４番１号,,13,102,1030027,,,2025-04-21,清算の結了等,,,2015-10-05,1,,,,,サンテミリオンプロパティー,0
729,3010802007791,登記記録の閉鎖等,0,2025-05-14,2025-04-30,有限会社ステラ・ミュージック,,有限会社,東京都,大田区,鵜の木２丁目２５番４号,,13,111,1460091,,,2025-04-30,清算の結了等,,,2015-10-05,1,,,,,ステラミュージック,0
731,3010902004292,登記記録の閉鎖等,0,2025-05-14,2025-05-12,有限会社川合,,有限会社,東京都,世田谷区,八幡山３丁目１２番１２号,,13,112,1560056,,,2025-05-12,清算の結了等,,,2015-10-05,1,,,,,カワイ,0
752,3011101085455,登記記録の閉鎖等,0,2025-05-14,2025-05-01,株式会社スピーカーズ,,株式会社,神奈川県,足柄上郡山北町,向原３９８番地１２,,14,364,2580111,,,2025-05-01,清算の結了等,,,2018-09-27,1,,,,,スピーカーズ,0
764,3011202011459,登記記録の閉鎖等,0,2025-05-14,2025-05-08,有限会社オフィス・ケイキャプス,,有限会社,東京都,中野区,本町３丁目１４番１２号,,13,114,1640012,,,2025-05-08,清算の結了等,,,2015-10-05,1,,,,,オフィスケイキャプス,0
765,3011301026936,登記記録の閉鎖等,0,2025-05-14,2025-04-28,株式会社クラウドハーツ,,株式会社,東京都,杉並区,阿佐谷北２丁目１５番１７号,,13,115,1660001,,,2025-04-28,清算の結了等,,,2021-06-09,1,,,,,クラウドハーツ,0
769,3011402007620,登記記録の閉鎖等,0,2025-05-14,2025-05-09,有限会社ファーマ・トラスト,,有限会社,東京都,板橋区,成増３丁目４８番２２号,,13,119,1750094,,,2025-05-09,合併による解散等,4030001047232,令和７年５月１日埼玉県富士見市東みずほ台一丁目９番地４株式会社パル・オネスト（4030001047232）に合併し解散,2015-10-05,1,,,,,,0
790,3013102000946,登記記録の閉鎖等,0,2025-05-14,2025-05-08,有限会社アイコーポレーション,,有限会社,東京都,羽村市,緑ヶ丘５丁目１７番地２４,,13,227,2050003,,,2025-05-08,清算の結了等,,,2015-10-05,1,,,,,アイコーポレーション,0
814,3021001055350,登記記録の閉鎖等,0,2025-05-14,2025-05-08,株式会社イズミリフォーム,,株式会社,神奈川県,秦野市,堀西４９８番地,,14,211,2591331,,,2025-05-08,清算の結了等,,,2015-10-05,1,,,,,イズミリフォーム,0
818,3021002022515,登記記録の閉鎖等,0,2025-05-14,2025-05-02,有限会社テクノワーク,,有限会社,神奈川県,相模原市中央区,横山台２丁目３４番１６号,,14,152,2520241,,,2025-05-02,清算の結了等,,,2015-10-05,1,,,,,テクノワーク,0
823,3030001077701,登記記録の閉鎖等,0,2025-05-14,2025-05-01,株式会社友輪緑化,,株式会社,埼玉県,川口市,戸塚南２丁目５番１０号,,11,203,3330817,,,2025-05-01,清算の結了等,,,2015-10-05,1,,,,,ユウワリョクカ,0
829,3030002049864,登記記録の閉鎖等,0,2025-05-14,2025-05-12,有限会社松山,,有限会社,埼玉県,三郷市,早稲田１丁目２番地６,,11,237,3410018,,,2025-05-12,清算の結了等,,,2015-10-05,1,,,,,マツヤマ,0
847,3050002044392,登記記録の閉鎖等,0,2025-05-14,2025-05-09,有限会社池内新聞店,,有限会社,茨城県,鉾田市,新鉾田２丁目１８番１０号,,08,234,3111516,,,2025-05-09,清算の結了等,,,2015-10-05,1,,,,,イケウチシンブンテン,0
857,3080105003920,登記記録の閉鎖等,0,2025-05-14,2025-05-07,熱海小売酒販組合,,その他の設立登記法人,静岡県,熱海市,渚町８番２号,,22,205,4130014,,,2025-05-07,清算の結了等,,,2015-10-05,1,,,,,アタミコウリ,0
859,3080401023770,登記記録の閉鎖等,0,2025-05-14,2025-05-12,株式会社プロマル,,株式会社,静岡県,浜松市中央区,高丘東５丁目４番８号榊原コーポ１０３,,22,138,4338117,,,2025-05-12,清算の結了等,,,2019-07-26,1,,,,,プロマル,0
865,3100005004297,登記記録の閉鎖等,0,2025-05-14,2025-05-08,医療法人高野外科医院,00069988,その他の設立登記法人,長野県,上田市,秋和４９３番地,,20,203,3860041,,,2025-05-08,清算の結了等,,,2015-10-05,1,,,,,タカノゲカイイン,0
867,3110005006516,登記記録の閉鎖等,0,2025-05-14,2025-04-25,税理士法人吉田会計,,その他の設立登記法人,新潟県,燕市,吉田大保町１２番６５号,,15,213,9590242,,,2025-04-25,清算の結了等,,,2015-10-05,1,,,,,ヨシダカイケイ,0
868,3110005008066,登記記録の閉鎖等,0,2025-05-14,2025-04-01,大潟商工会,,その他の設立登記法人,新潟県,上越市,大潟区四ツ屋浜７７３番地,,15,222,9493111,,,2025-04-01,合併による解散等,5110005017214,令和７年４月１日新潟県上越市吉川区下町１１２６番地吉川コミュニティプラザ３階吉川商工会（8110005008986）、新潟県上越市名立区名立大町１９３番地４名立商工会（5110005009624）及び新潟県上越市頸城区百間町６１５番地の２頸城商工会（5110005008163）と合併して新潟県上越市大潟区四ツ屋浜７７３番地くびきの商工会（5110005017214）を設立し解散,2015-10-05,1,,,,,オオガタ,0
871,3120001255768,登記記録の閉鎖等,0,2025-05-14,2025-05-08,株式会社Ｗｏｒｋ１１,,株式会社,京都府,京都市伏見区,深草泓ノ壺町２８－６,,26,109,6128435,,,2025-05-08,清算の結了等,,,2023-06-19,1,,,,,ワークイレブン,0
913,3140002031514,登記記録の閉鎖等,0,2025-05-14,2025-05-08,有限会社ネットプランニング,,有限会社,兵庫県,三木市,吉川町有安１８６番地の５,,28,215,6731107,,,2025-05-08,清算の結了等,,,2015-10-05,1,,,,,ネットプランニング,0
922,3180001084328,登記記録の閉鎖等,0,2025-05-14,2025-05-09,株式会社富田瓦店,,株式会社,愛知県,一宮市,冨田字砂原２１５１番地,,23,203,4940018,,,2025-05-09,清算の結了等,,,2015-10-05,1,,,,,トミタカワラテン,0
923,3180001087479,登記記録の閉鎖等,0,2025-05-14,2025-05-07,杉原硝子株式会社,,株式会社,愛知県,江南市,赤童子町南野１番地２,,23,217,4838167,,,2025-05-07,清算の結了等,,,2015-10-05,1,,,,,スギハラガラス,0
924,3180001088650,登記記録の閉鎖等,0,2025-05-14,2025-05-08,株式会社Ｍ－Ｂｒｏｓ,,株式会社,愛知県,小牧市,大字小牧原新田１８０１番地７,,23,219,4850012,,,2025-05-08,清算の結了等,,,2015-10-05,1,,,,,エムブロス,0
933,3180002009696,登記記録の閉鎖等,0,2025-05-14,2025-05-01,有限会社スギウラ,,有限会社,愛知県,名古屋市瑞穂区,宝田町３丁目１番地の５,,23,108,4670866,,,2025-05-01,清算の結了等,,,2015-10-05,1,,,,,スギウラ,0
940,3180005013266,登記記録の閉鎖等,0,2025-05-14,2025-04-16,天理教本心朋分教会,,その他の設立登記法人,愛知県,愛西市,東保町権右８７番地,,23,232,4960912,,,2025-04-16,合併による解散等,7180005000649,令和７年４月１６日名古屋市中川区小本一丁目７番５号天理教本心分教会（7180005000649）に合併し解散,2015-10-05,1,,,,,テンリキョウホンシンホウブンキョウカイ,0
970,3290005000039,登記記録の閉鎖等,0,2025-05-14,2025-04-04,歌換神社,,その他の設立登記法人,福岡県,福岡市博多区,吉塚３丁目８番２８号,00102316,40,132,8120041,,,2025-04-04,合併による解散等,9290005000561,令和７年４月４日福岡市博多区吉塚三丁目１１番１９号飛来神社（9290005000561）に合併し解散,2015-10-05,1,,,,,ウタカエジンジャ,0
974,3290802025659,登記記録の閉鎖等,0,2025-05-14,2025-05-09,有限会社やま祥,,有限会社,福岡県,田川郡川崎町,大字池尻１４５９番地１,,40,605,8270002,,,2025-05-09,清算の結了等,,,2015-10-05,1,,,,,ヤマショウ,0
988,3360001006932,登記記録の閉鎖等,0,2025-05-14,2025-04-02,株式会社小禄パーキング,,株式会社,沖縄県,那覇市,久茂地１丁目４番１号くもいちビル１Ｆ,,47,201,9000015,,,2025-04-02,合併による解散等,1360001001084,令和７年２月２０日沖縄県那覇市久茂地一丁目４番１号くもいちビル１Ｆ株式会社ジョイントハウス（1360001001084）に合併し解散,2015-10-05,1,,,,,オロクパーキング,0
990,3360001018226,登記記録の閉鎖等,0,2025-05-14,2025-04-17,ＳｕｎＬａｋｅ株式会社,,株式会社,沖縄県,那覇市,泊２丁目１番地１８Ｔ＆Ｃ泊ビル４階,,47,201,9000012,,,2025-04-17,清算の結了等,,,2015-10-05,1,,,,,サンレイク,0
993,3360002005306,登記記録の閉鎖等,0,2025-05-14,2025-04-28,有限会社白翔コンサルタント,,有限会社,沖縄県,豊見城市,字豊見城１０４１番地６,,47,212,9010241,,,2025-04-28,清算の結了等,,,2015-10-05,1,,,,,ハクショウコンサルタント,0
1010,3430001015331,登記記録の閉鎖等,0,2025-05-14,2025-04-07,プラス化成工業株式会社,,株式会社,北海道,札幌市手稲区,曙二条５丁目１番１５号,00088311,01,109,0060832,,,2025-04-07,合併による解散等,5430001008011,令和７年４月１日札幌市西区発寒十六条十四丁目４番１０号昭レＰＬＵＳ株式会社（5430001008011）に合併し解散,2015-10-05,1,,,,,プラスカセイコウギョウ,0
1028,4010001043076,登記記録の閉鎖等,0,2025-05-14,2025-04-18,株式会社国際技術交流会,,株式会社,東京都,中央区,日本橋２丁目５番７号,,13,102,1030027,,,2025-04-18,清算の結了等,,,2015-10-05,1,,,,,コクサイギジュツコウリュウカイ,0
1046,4010003022210,登記記録の閉鎖等,0,2025-05-14,2025-04-17,合同会社セブンシーズファンディング,,合同会社,東京都,千代田区,内幸町２丁目２番２号セブンシーズアドバイザーズ株式会社内,,13,101,1000011,,,2025-04-17,合併による解散等,2010003015694,令和７年４月１７日東京都千代田区内幸町二丁目２番２号セブンシーズアドバイザーズ株式会社内株式会社紀の国坂管理（2010003015694）に合併し解散,2015-10-05,1,,,,,セブンシーズファンディング,0
1049,4010005030913,登記記録の閉鎖等,0,2025-05-14,2025-05-09,一般社団法人アセットファイナンスとなみ,,その他の設立登記法人,東京都,中央区,京橋２丁目７番１９号,,13,102,1040031,,,2025-05-09,清算の結了等,,,2019-10-18,1,,,,,アセットファイナンストナミ,0
1053,4010401078325,登記記録の閉鎖等,0,2025-05-14,2025-05-08,株式会社三鈴エージェンシー,,株式会社,東京都,港区,西新橋３丁目２４番地８号,,13,103,1050003,,,2025-05-08,合併による解散等,7012401004316,令和７年４月２４日東京都府中市日新町五丁目６８番地１株式会社三鈴（7012401004316）に合併し解散,2015-10-05,1,,,,,,0
1062,4010501011012,登記記録の閉鎖等,0,2025-05-14,2025-05-12,株式会社パル,,株式会社,埼玉県,草加市,旭町２丁目２番１８号,,11,221,3400053,,,2025-05-12,清算の結了等,,,2015-10-05,1,,,,,パル,0
1117,4013301014325,登記記録の閉鎖等,0,2025-05-14,2025-04-24,株式会社豊基,,株式会社,東京都,豊島区,巣鴨５丁目３２番７号,,13,116,1700002,,,2025-04-24,清算の結了等,,,2015-10-05,1,,,,,トヨモト,0
1120,4020001041054,登記記録の閉鎖等,0,2025-05-14,2025-04-17,ニデックエレシス株式会社,,株式会社,神奈川県,川崎市幸区,新川崎２番８号,,14,132,2120032,,,2025-04-17,合併による解散等,9180001088975,令和７年４月１日愛知県小牧市大草年上坂６３６８番地ニデックモビリティ株式会社（9180001088975）に合併し解散,2015-10-05,1,,,,,ニデックエレシス,0
1134,4021001016913,登記記録の閉鎖等,0,2025-05-14,2025-05-02,株式会社エステイ工業,,株式会社,神奈川県,相模原市中央区,田名３８３３番地４,,14,152,2520244,,,2025-05-02,清算の結了等,,,2015-10-05,1,,,,,エステイコウギョウ,0
1154,4030002109840,登記記録の閉鎖等,0,2025-05-14,2025-05-09,有限会社とこや参士朗,,有限会社,埼玉県,川口市,戸塚３丁目３４番地７号,,11,203,3330811,,,2025-05-09,清算の結了等,,,2015-10-05,1,,,,,トコヤサンシロウ,0
1170,4060001000898,登記記録の閉鎖等,0,2025-05-14,2025-04-30,株式会社エバーグリーン研究所,,株式会社,栃木県,宇都宮市,仲町３番１６号,,09,201,3200023,,,2025-04-30,合併による解散等,1060001001115,令和７年４月８日栃木県宇都宮市仲町３番１６号関東グリーン商事株式会社（1060001001115）に合併し解散,2015-10-05,1,,,,,エバーグリーンケンキュウジョ,0
1191,4110002004091,登記記録の閉鎖等,0,2025-05-14,2025-04-25,有限会社田村長助商店,,有限会社,新潟県,新潟市江南区,丸山５４４番地,,15,104,9500115,,,2025-04-25,清算の結了等,,,2015-10-05,1,,,,,タムラチョウスケショウテン,0
1193,4110005000889,登記記録の閉鎖等,0,2025-05-14,2025-04-01,赤塚商工会,,その他の設立登記法人,新潟県,新潟市西区,赤塚５４０５番地８,,15,107,9502261,,,2025-04-01,合併による解散等,4110005017215,令和７年４月１日新潟県新潟市西区大野町３０２１番地黒埼商工会（1110005000891）と新潟市西区内野町５３７番地新潟西商工会（9110005000892）と合併して新潟県新潟市西区大野町３０２１番地西新潟商工会（4110005017215）を設立し解散,2015-10-05,1,,,,,アカツカ,0
1237,4130001068549,登記記録の閉鎖等,0,2025-05-14,2025-05-01,株式会社ＣＡＢＯＳ,,株式会社,京都府,京都市中京区,高倉通三条下る丸屋町１６４番地３階,,26,104,6048132,,,2025-05-01,合併による解散等,8130001059379,令和７年４月１８日京都市中京区高倉通三条下る丸屋町１６４番地３階株式会社花形（8130001059379）に合併し解散,2021-02-03,1,,,,,カボス,0
1260,4160001017585,登記記録の閉鎖等,0,2025-05-14,2025-05-12,大登株式会社,,株式会社,滋賀県,大津市,一里山４丁目２７－５エイコーン１０３号,,25,201,5202153,,,2025-05-12,清算の結了等,,,2015-10-05,1,,,,,ダイトウ,0
1266,4180001003427,登記記録の閉鎖等,0,2025-05-14,2025-05-07,株式会社一晃建設,,株式会社,愛知県,名古屋市千種区,山添町２丁目６６番地,,23,101,4640832,,,2025-05-07,清算の結了等,,,2015-10-05,1,,,,,イッコウケンセツ,0
1287,4180005004669,登記記録の閉鎖等,0,2025-05-14,2025-04-17,学校法人トヨタ名古屋整備学園,,その他の設立登記法人,愛知県,清須市,春日一番割１番地,,23,233,4520961,,,2025-04-17,合併による解散等,7010105000219,令和７年４月１日東京都八王子市館町２１９３番地学校法人トヨタ整備学園（7010105000219）に合併し解散,2015-10-05,1,,,,,トヨタナゴヤセイビガクエン,0
1298,4220005007428,登記記録の閉鎖等,0,2025-05-14,2025-05-09,特定非営利活動法人金沢創造会議,,その他の設立登記法人,石川県,金沢市,問屋町１丁目２０番地,,17,201,9200061,,,2025-05-09,清算の結了等,,,2015-10-05,1,,,,,カナザワソウゾウカイギ,0
1299,4240001003032,登記記録の閉鎖等,0,2025-05-14,2025-05-12,株式会社経営易学研究室,,株式会社,広島県,広島市南区,大須賀町２０番１３号,,34,103,7320821,,,2025-05-12,清算の結了等,,,2015-10-05,1,,,,,ケイエイエキガクケンキュウシツ,0
1310,4250002018739,登記記録の閉鎖等,0,2025-05-14,2025-05-07,有限会社安田商事,,有限会社,山口県,岩国市,車町２丁目７番２６号,,35,208,7400026,,,2025-05-07,清算の結了等,,,2015-10-05,1,,,,,ヤスダショウジ,0
1313,4260002030486,登記記録の閉鎖等,0,2025-05-14,2025-04-28,有限会社重平組,,有限会社,岡山県,美作市,長内４３１番地,,33,215,7070056,,,2025-04-28,清算の結了等,,,2015-10-05,1,,,,,シゲヒラグミ,0
1321,4290001108982,登記記録の閉鎖等,0,2025-05-14,2025-04-23,貝島炭礦株式会社,,株式会社,福岡県,福岡市中央区,天神２丁目８番３８号,,40,133,8100001,,,2025-04-23,清算の結了等,,,2025-02-19,1,,,,,カイジマタンコウ,0
1324,4290005018154,登記記録の閉鎖等,0,2025-05-14,2025-05-02,一般社団法人ひよこｓｍｉｌｅ,,その他の設立登記法人,福岡県,三井郡大刀洗町,大字下高橋字日明前５１番７,,40,503,8301225,,,2025-05-02,清算の結了等,,,2021-04-08,1,,,,,ヒヨコスマイル,0
1325,4290801018761,登記記録の閉鎖等,0,2025-05-14,2025-05-09,株式会社ＮＩＴＥＣ,,株式会社,福岡県,北九州市小倉南区,蒲生４丁目１５番４６号,,40,107,8020978,,,2025-05-09,清算の結了等,,,2015-10-05,1,,,,,,0
1339,4320001008361,登記記録の閉鎖等,0,2025-05-14,2025-04-11,ＢＸケンセイ株式会社,,株式会社,大分県,杵築市,山香町大字野原３７２６番地,,44,210,8791307,,,2025-04-11,合併による解散等,2120101010116,令和７年４月１日大阪府松原市南新町四丁目５０番地１ＢＸルーテス株式会社（2120101010116）に合併し解散,2015-10-05,1,,,,,ビーエックスケンセイ,0
1342,4330002025545,登記記録の閉鎖等,0,2025-05-14,2025-05-01,有限会社井樋口鉄工,00097887,有限会社,熊本県,八代市,葭牟田町５５４番地の２,,43,202,8695161,,,2025-05-01,清算の結了等,,,2015-10-05,1,,,,,イヒグチテッコウ,0
1348,4360002000743,登記記録の閉鎖等,0,2025-05-14,2025-04-30,有限会社沖縄一心産業,,有限会社,沖縄県,那覇市,古島１丁目１４番地１０,,47,201,9020061,,,2025-04-30,清算の結了等,,,2015-10-05,1,,,,,オキナワイッシンサンギョウ,0
1374,4470002009113,登記記録の閉鎖等,0,2025-05-14,2025-05-13,有限会社田村昭事務所,,有限会社,香川県,高松市,成合町１３１８番地,,37,201,7618081,,,2025-05-13,清算の結了等,,,2015-10-05,1,,,,,タムラアキラジムショ,0
1379,4490002007271,登記記録の閉鎖等,0,2025-05-14,2025-05-12,有限会社ジオメトリテクノロジー,,有限会社,高知県,高知市,高須１丁目９番８号,,39,201,7818104,,,2025-05-12,清算の結了等,,,2015-10-05,1,,,,,ジオメトリテクノロジー,0
1381,4700150060372,登記記録の閉鎖等,0,2025-05-14,2025-01-30,筑後北部土地改良区,,その他,福岡県,筑後市,大字山ノ井８９８,,40,211,8330031,,,2025-01-30,その他の清算の結了等,,,2015-10-09,1,,,,,チクゴホクブトチカイリヨウク,0
1406,5010403011332,登記記録の閉鎖等,0,2025-05-14,2025-04-09,東京サイコセラピー合同会社,,合同会社,東京都,中野区,中野５丁目１３番８号ヴィラ赤坂２０１,,13,114,1640001,,,2025-04-09,清算の結了等,,,2015-10-05,1,,,,,トウキョウサイコセラピー,0
1413,5010601062111,登記記録の閉鎖等,0,2025-05-14,2025-05-01,株式会社Ｐｏｎｏ,,株式会社,東京都,江東区,豊洲５丁目１番１３号,,13,108,1350061,,,2025-05-01,清算の結了等,,,2022-11-08,1,,,,,ポノ,0
1445,5011301027098,登記記録の閉鎖等,0,2025-05-14,2025-04-25,株式会社ＲＯＪ　ＪＡＰＡＮ,,株式会社,東京都,杉並区,井草２丁目７番１４号ガーデンハウス東山２０５,,13,115,1670021,,,2025-04-25,清算の結了等,,,2021-08-12,1,,,,,ロジジャパン,0
1446,5011303004657,登記記録の閉鎖等,0,2025-05-14,2025-04-30,合同会社ｄｉｇｎｏ,,合同会社,東京都,杉並区,高井戸東４丁目９番１－６０４号,,13,115,1680072,,,2025-04-30,清算の結了等,,,2023-02-01,1,,,,,ディグノ,0
1481,5013401000901,登記記録の閉鎖等,0,2025-05-14,2025-04-14,株式会社市村コンサルティングアンドファイナンス,,株式会社,宮城県,仙台市太白区,八木山東２丁目５－３,,04,104,9820802,,,2025-04-14,清算の結了等,,,2015-10-05,1,,,,,イチムラコンサルティングアンドファイナンス,0
1504,5021002066634,登記記録の閉鎖等,0,2025-05-14,2025-05-07,有限会社ブリーズエコー,,有限会社,神奈川県,横須賀市,大矢部４丁目３２番８号,,14,201,2380024,,,2025-05-07,清算の結了等,,,2015-10-05,1,,,,,ブリーズエコー,0
1537,5060001008362,登記記録の閉鎖等,0,2025-05-14,2025-05-01,株式会社今市まごころホール菊屋,,株式会社,栃木県,日光市,倉ケ崎３７番地１,,09,206,3212412,,,2025-05-01,合併による解散等,1060001000439,令和７年５月１日栃木県宇都宮市大通り五丁目３番９号アルファクラブ株式会社（1060001000439）に合併し解散,2015-10-05,1,,,,,イマイチマゴコロホールキクヤ,0
1543,5070001028574,登記記録の閉鎖等,0,2025-05-14,2025-05-09,ＨＳＪホールディング株式会社,,株式会社,群馬県,伊勢崎市,富塚町６３６番地１,,10,204,3720833,,,2025-05-09,清算の結了等,,,2015-10-05,1,,,,,エイチエスジェイホールディング,0
1545,5080001002719,登記記録の閉鎖等,0,2025-05-14,2025-05-09,株式会社静岡コミュニケーション,,株式会社,静岡県,静岡市葵区,田町５丁目９５番地,,22,101,4200068,,,2025-05-09,清算の結了等,,,2015-10-05,1,,,,,シズオカコミュニケーション,0
1546,5080002003138,登記記録の閉鎖等,0,2025-05-14,2025-05-07,静岡製茶有限会社,,有限会社,静岡県,静岡市葵区,土太夫町１５番地の２,,22,101,4200018,,,2025-05-07,清算の結了等,,,2015-10-05,1,,,,,シズオカセイチャ,0
1548,5080003001693,登記記録の閉鎖等,0,2025-05-14,2025-05-08,合同会社原工業,,合同会社,静岡県,静岡市清水区,由比町屋原６１５番地,,22,103,4213105,,,2025-05-08,清算の結了等,,,2015-10-05,1,,,,,ハラコウギョウ,0
1549,5080101009011,登記記録の閉鎖等,0,2025-05-14,2025-05-07,株式会社宝屋,,株式会社,静岡県,富士市,永田北町６番６号,,22,210,4170058,,,2025-05-07,清算の結了等,,,2015-10-05,1,,,,,タカラヤ,0
1554,5110002003068,登記記録の閉鎖等,0,2025-05-14,2025-04-28,有限会社信成科学,,有限会社,新潟県,新潟市西区,新通西１丁目４番８号,,15,107,9502036,,,2025-04-28,清算の結了等,,,2015-10-05,1,,,,,シンセイカガク,0
1558,5110005008163,登記記録の閉鎖等,0,2025-05-14,2025-04-01,頸城商工会,,その他の設立登記法人,新潟県,上越市,頸城区百間町６１５番地の２,,15,222,9420127,,,2025-04-01,合併による解散等,5110005017214,令和７年４月１日新潟県上越市大潟区四ツ屋浜７７３番地大潟商工会（3110005008066）、新潟県上越市吉川区下町１１２６番地吉川コミュニティプラザ３階吉川商工会（8110005008986）及び新潟県上越市名立区名立大町１９３番地４名立商工会（5110005009624）と合併して新潟県上越市大潟区四ツ屋浜７７３番地くびきの商工会（5110005017214）を設立し解散,2015-10-05,1,,,,,クビキ,0
1559,5110005009624,登記記録の閉鎖等,0,2025-05-14,2025-04-01,名立商工会,,その他の設立登記法人,新潟県,上越市,名立区名立大町１９３番地４,,15,222,9491602,,,2025-04-01,合併による解散等,5110005017214,令和７年４月１日新潟県上越市大潟区四ツ屋浜７７３番地大潟商工会（3110005008066）、新潟県上越市吉川区下町１１２６番地吉川コミュニティプラザ３階吉川商工会（8110005008986）及び新潟県上越市頸城区百間町６１５番地の２頸城商工会（5110005008163）と合併して新潟県上越市大潟区四ツ屋浜７７３番地くびきの商工会（5110005017214）を設立し解散,2015-10-05,1,,,,,ナダチ,0
1590,5120902017851,登記記録の閉鎖等,0,2025-05-14,2025-04-30,有限会社扇,,有限会社,大阪府,豊中市,名神口３丁目７番６号,,27,203,5610841,,,2025-04-30,清算の結了等,,,2015-10-05,1,,,,,オオギ,0
1604,5140001069173,登記記録の閉鎖等,0,2025-05-14,2025-05-07,精栄商事株式会社,,株式会社,兵庫県,西宮市,甲陽園目神山町２７－５１,,28,204,6620011,,,2025-05-07,清算の結了等,,,2015-10-05,1,,,,,セイエイショウジ,0
1614,5180001119412,登記記録の閉鎖等,0,2025-05-14,2025-05-07,株式会社Ｐａｃｉｏ,,株式会社,愛知県,名古屋市天白区,植田３丁目１８１１番地カ・ドーロムロガ４Ｃ,,23,116,4680051,,,2025-05-07,清算の結了等,,,2015-10-05,1,,,,,パシオ,0
1619,5180002069144,登記記録の閉鎖等,0,2025-05-14,2025-05-12,有限会社三和,,有限会社,愛知県,小牧市,小木南１丁目２２番地の１,,23,219,4850056,,,2025-05-12,清算の結了等,,,2015-10-05,1,,,,,サンワ,0
1628,5180305002611,登記記録の閉鎖等,0,2025-05-14,2025-04-15,中部たばこ耕作組合,,その他の設立登記法人,愛知県,豊橋市,南大清水町字元町２６８番地,,23,201,4418132,,,2025-04-15,合併による解散等,2050005011671,令和７年４月１日茨城県石岡市若宮三丁目１番４０号中日本たばこ耕作組合（2050005011671）に合併し解散,2015-10-05,1,,,,,チュウブタバコ,0
1632,5200001028560,登記記録の閉鎖等,0,2025-05-14,2025-04-17,株式会社クラフティーズ,,株式会社,岐阜県,岐阜市,東鶉３丁目３１番地３,,21,201,5008281,,,2025-04-17,合併による解散等,9180001085337,令和７年４月１日愛知県一宮市萩原町富田方字上畑１９番地１株式会社ライオンハート（9180001085337）に合併し解散,2015-10-05,1,,,,,クラフティーズ,0
1639,5220002010128,登記記録の閉鎖等,0,2025-05-14,2025-05-12,有限会社アクアヴィーテ,,有限会社,石川県,金沢市,三口町火７４番地,,17,201,9200018,,,2025-05-12,清算の結了等,,,2015-10-05,1,,,,,アクアヴィーテ,0
1645,5240001025331,登記記録の閉鎖等,0,2025-05-14,2025-05-09,株式会社睦インテグリティ,,株式会社,広島県,広島市中区,橋本町９番７号８階,,34,101,7300015,,,2025-05-09,清算の結了等,,,2015-10-05,1,,,,,ムツミインテグリティ,0
1653,5270001003433,登記記録の閉鎖等,0,2025-05-14,2025-05-12,東京シーリング株式会社,,株式会社,鳥取県,米子市,両三柳９２８番地,,31,202,6830853,,,2025-05-12,清算の結了等,,,2015-10-05,1,,,,,,0
1654,5280002000180,登記記録の閉鎖等,0,2025-05-14,2025-05-12,有限会社石原,,有限会社,島根県,松江市,西尾町１０２３番地１,,32,201,6900835,,,2025-05-12,清算の結了等,,,2015-10-05,1,,,,,イシハラ,0
1662,5290005015860,登記記録の閉鎖等,0,2025-05-14,2025-05-07,ＮＰＯ法人糸島山農海,,その他の設立登記法人,福岡県,糸島市,志摩津和崎１５０番地,,40,230,8191311,,,2025-05-07,清算の結了等,,,2016-04-04,1,,,,,イトシマサンノウカイ,0
1677,5360001006757,登記記録の閉鎖等,0,2025-05-14,2025-04-30,株式会社ホテル総合プランニング,,株式会社,沖縄県,那覇市,安里２丁目４番２－１号,,47,201,9020067,,,2025-04-30,清算の結了等,,,2015-10-05,1,,,,,,0
1685,5370001008018,登記記録の閉鎖等,0,2025-05-14,2025-04-28,株式会社大久エージェンシー,,株式会社,宮城県,仙台市青葉区,一番町２丁目３番１０号,,04,101,9800811,,,2025-04-28,清算の結了等,,,2015-10-05,1,,,,,ダイキュウエージェンシー,0
1714,5440002002978,登記記録の閉鎖等,0,2025-05-14,2025-05-12,有限会社道南船舶無線,,有限会社,北海道,函館市,末広町１６番１号,,01,202,0400053,,,2025-05-12,清算の結了等,,,2015-10-05,1,,,,,ドウナンセンパクムセン,0
1717,5480003001018,登記記録の閉鎖等,0,2025-05-14,2025-05-09,ＡＡプロジェクト合同会社,,合同会社,徳島県,吉野川市,鴨島町上浦７１０番地１５,,36,205,7760037,,,2025-05-09,清算の結了等,,,2016-05-16,1,,,,,エーエープロジェクト,0
1721,5700150057707,登記記録の閉鎖等,0,2025-05-14,2024-09-29,吉野川土地改良区,,その他,徳島県,徳島市,川内町榎瀬８４４－２,,36,201,7710144,,,2024-09-29,その他の清算の結了等,,,2015-10-09,1,,,,,ヨシノガワトチカイリヨウク,0
1725,6010001023530,登記記録の閉鎖等,0,2025-05-14,2025-05-07,株式会社テクノアソーシエイツ,,株式会社,神奈川県,横浜市金沢区,並木３丁目３番地２－３０１号,,14,108,2360005,,,2025-05-07,清算の結了等,,,2015-10-05,1,,,,,テクノアソーシエイツ,0
1727,6010001094324,登記記録の閉鎖等,0,2025-05-14,2025-05-01,安全サポート株式会社,,株式会社,東京都,港区,西新橋１丁目２番９号,,13,103,1050003,,,2025-05-01,合併による解散等,5010401182464,令和７年５月１日東京都港区西新橋一丁目２番９号安全サポート株式会社（5010401182464）に合併し解散,2015-10-05,1,,,,,アンゼンサポート,0
1731,6010001136828,登記記録の閉鎖等,0,2025-05-14,2025-04-10,株式会社エース,,株式会社,東京都,港区,麻布台１丁目３番１号,,13,103,1060041,,,2025-04-10,合併による解散等,2010401149805,令和７年４月１日東京都港区麻布台一丁目３番１号株式会社エースホールディングス（2010401149805）に合併し解散,2015-10-05,1,,,,,エース,0
1732,6010001160472,登記記録の閉鎖等,0,2025-05-14,2025-04-22,山佐ＣＭＰ２リース株式会社,,株式会社,東京都,千代田区,丸の内１丁目４番１号東京共同会計事務所内,,13,101,1000005,,,2025-04-22,清算の結了等,,,2015-10-05,1,,,,,ヤマサシーエムピーニリース,0
1742,6010003028305,登記記録の閉鎖等,0,2025-05-14,2025-04-21,合同会社ＨＩＴＯＮＡＲＩ,,合同会社,東京都,千代田区,神田神保町２丁目４８番地,,13,101,1010051,,,2025-04-21,清算の結了等,,,2018-09-21,1,,,,,ヒトナリ,0
1749,6010401021134,登記記録の閉鎖等,0,2025-05-14,2025-05-09,株式会社永谷園ホールディングス,,株式会社,東京都,港区,西新橋２丁目３６番１号,,13,103,1050003,,,2025-05-09,合併による解散等,9010001244355,令和７年３月３１日東京都千代田区丸の内二丁目７番２号株式会社永谷園ホールディングス（9010001244355）に合併し解散,2015-10-05,1,,,,,ナガタニエンホールディングス,0
1754,6010401179708,登記記録の閉鎖等,0,2025-05-14,2025-04-09,株式会社ポラリス,,株式会社,東京都,港区,南青山２丁目２番１５号ウィン青山９４２,,13,103,1070062,,,2025-04-09,清算の結了等,,,2024-01-16,1,,,,,ポラリス,0
1761,6010601012684,登記記録の閉鎖等,0,2025-05-14,2025-05-08,株式会社鈴木篤商店,,株式会社,東京都,墨田区,八広５丁目１３番１１号,,13,107,1310041,,,2025-05-08,清算の結了等,,,2015-10-05,1,,,,,スズキアツシショウテン,0
1763,6010601030307,登記記録の閉鎖等,0,2025-05-14,2025-05-01,第一電子工業株式会社,,株式会社,東京都,江東区,木場１丁目５番１号,,13,108,1350042,,,2025-05-01,合併による解散等,2010601007861,令和７年５月１日東京都江東区木場一丁目５番１号株式会社フジクラ（2010601007861）に合併し解散,2015-10-05,1,,,,,ダイイチデンシコウギョウ,0
1780,6011001138368,登記記録の閉鎖等,0,2025-05-14,2025-04-02,教室ドットコム株式会社,,株式会社,東京都,渋谷区,渋谷２丁目２－１１－２０２,,13,113,1500002,,,2025-04-02,清算の結了等,,,2021-02-08,1,,,,,キョウシツドットコム,0
1789,6011101051140,登記記録の閉鎖等,0,2025-05-14,2025-04-16,株式会社Ｃｉｎｔｉａ．,,株式会社,東京都,新宿区,歌舞伎町１丁目２番７号,,13,104,1600021,,,2025-04-16,清算の結了等,,,2015-10-05,1,,,,,シンティア,0
1803,6011703003737,登記記録の閉鎖等,0,2025-05-14,2025-04-25,和潤合同会社,,合同会社,東京都,江戸川区,本一色２丁目１８－２,,13,123,1330044,,,2025-04-25,清算の結了等,,,2024-02-22,1,,,,,ワジュン,0
1812,6012401036863,登記記録の閉鎖等,0,2025-05-14,2025-04-18,株式会社パスデザイン,,株式会社,東京都,多摩市,一ノ宮２丁目１３番地の１１,,13,224,2060002,,,2025-04-18,清算の結了等,,,2020-08-17,1,,,,,パスデザイン,0
1838,6021001060851,登記記録の閉鎖等,0,2025-05-14,2025-05-08,株式会社ハイブリッジ,,株式会社,神奈川県,横須賀市,富士見町１丁目３０番地,,14,201,2380021,,,2025-05-08,清算の結了等,,,2016-12-08,1,,,,,ハイブリッジ,0
1844,6021002053838,登記記録の閉鎖等,0,2025-05-14,2025-05-09,有限会社輪真電設,,有限会社,神奈川県,小田原市,曽比１２１８番地の３,,14,206,2500851,,,2025-05-09,清算の結了等,,,2015-10-05,1,,,,,マルシンデンセツ,0
1848,6030001008521,登記記録の閉鎖等,0,2025-05-14,2025-05-09,八重洲電機株式会社,,株式会社,埼玉県,さいたま市見沼区,東宮下３丁目４５番地,,11,104,3370012,,,2025-05-09,清算の結了等,,,2015-10-05,1,,,,,ヤエスデンキ,0
1866,6030002090873,登記記録の閉鎖等,0,2025-05-14,2025-05-08,有限会社ティー・オー・アイ・エス,,有限会社,埼玉県,越谷市,大字花田７１３番地,,11,222,3430015,,,2025-05-08,清算の結了等,,,2015-10-05,1,,,,,ティーオーアイエス,0
1867,6030002117858,登記記録の閉鎖等,0,2025-05-14,2025-05-09,有限会社秀英舎印刷,,有限会社,埼玉県,行田市,行田２０番２７号,,11,206,3610073,,,2025-05-09,清算の結了等,,,2015-10-05,1,,,,,シュウエイシャインサツ,0
1875,6040003015374,登記記録の閉鎖等,0,2025-05-14,2025-04-24,合同会社オニキス,,合同会社,千葉県,千葉市中央区,都町６丁目２２番１号都町リハイムＡ棟１０８号室,,12,101,2600001,,,2025-04-24,清算の結了等,,,2020-05-21,1,,,,,オニキス,0
1891,6070001026536,登記記録の閉鎖等,0,2025-05-14,2025-05-07,日本アフリカ開発株式会社,,株式会社,群馬県,渋川市,赤城町持柏木９８１番地,,10,208,3791116,,,2025-05-07,清算の結了等,,,2015-10-05,1,,,,,ニホンアフリカカイハツ,0
1899,6080401002334,登記記録の閉鎖等,0,2025-05-14,2025-05-12,株式会社週刊テレビ,,株式会社,静岡県,浜松市中央区,有玉南町１７５８番地の１,,22,138,4313122,,,2025-05-12,清算の結了等,,,2015-10-05,1,,,,,シュウカンテレビ,0
1903,6090005000386,登記記録の閉鎖等,0,2025-05-14,2025-05-01,心霊界教団三森教会,,その他の設立登記法人,山梨県,甲府市,湯田町１８番地,,19,201,4000000,,,2025-05-01,清算の結了等,,,2015-10-05,1,,,,,シンレイカイキョウダンミツモリキョウカイ,0
1909,6110001009981,登記記録の閉鎖等,0,2025-05-14,2025-04-25,三岡木材株式会社,,株式会社,新潟県,新潟市西区,寺尾台３丁目２３番２３号,,15,107,9502063,,,2025-04-25,清算の結了等,,,2015-10-05,1,,,,,ミツオカモクザイ,0
1914,6110002022323,登記記録の閉鎖等,0,2025-05-14,2025-04-28,有限会社岩本薬局,,有限会社,新潟県,上越市,本町６丁目４番２２号,,15,222,9430832,,,2025-04-28,清算の結了等,,,2015-10-05,1,,,,,イワモトヤッキョク,0
1949,6120903001003,登記記録の閉鎖等,0,2025-05-14,2025-05-01,合同会社セキ・キャピタル・マネジメント,,合同会社,大阪府,豊中市,蛍池西町二丁目６番２２号,,27,203,5600000,,,2025-05-01,清算の結了等,,,2015-10-05,1,,,,,セキキャピタルマネジメント,0
1966,6140002055808,登記記録の閉鎖等,0,2025-05-14,2025-05-07,有限会社エコ・インターナショナル,,有限会社,兵庫県,西宮市,甲陽園目神山町２７番５１号,,28,204,6620011,,,2025-05-07,清算の結了等,,,2015-10-05,1,,,,,エコインターナショナル,0
1967,6140002058785,登記記録の閉鎖等,0,2025-05-14,2025-05-07,有限会社瑞泉工業,,有限会社,兵庫県,西宮市,樋ノ口町２丁目６番１７号,,28,204,6638011,,,2025-05-07,清算の結了等,,,2015-10-05,1,,,,,ズイセンコウギョウ,0
1969,6140003008847,登記記録の閉鎖等,0,2025-05-14,2025-05-08,リッチフィールズ合同会社,,合同会社,兵庫県,赤穂市,浜市３４５番地８,,28,212,6780173,,,2025-05-08,清算の結了等,,,2015-10-05,1,,,,,リッチフィールズ,0
1984,6170003000479,登記記録の閉鎖等,0,2025-05-14,2025-05-13,合資会社テンダリィ,,合資会社,和歌山県,伊都郡高野町,大字花坂７４５番地,,30,344,6480263,,,2025-05-13,清算の結了等,,,2015-10-05,1,,,,,テンダリィ,0
1986,6180001015932,登記記録の閉鎖等,0,2025-05-14,2025-05-07,株式会社アイメット,,株式会社,愛知県,名古屋市昭和区,滝子町１５番１４号,,23,107,4660053,,,2025-05-07,清算の結了等,,,2015-10-05,1,,,,,アイメット,0
1987,6180001027985,登記記録の閉鎖等,0,2025-05-14,2025-04-18,株式会社カルチベーター,,株式会社,愛知県,名古屋市南区,星崎１丁目３４１番地,,23,112,4570064,,,2025-04-18,清算の結了等,,,2015-10-05,1,,,,,カルチベーター,0
2000,6180002078152,登記記録の閉鎖等,0,2025-05-14,2025-05-07,有限会社開成ボデー,,有限会社,愛知県,一宮市,篭屋１丁目２番１５号,,23,203,4940002,,,2025-05-07,清算の結了等,,,2015-10-05,1,,,,,カイセイボデー,0
2013,6230001013823,登記記録の閉鎖等,0,2025-05-14,2025-05-09,株式会社ＴＯＰＵバイオ研究所,,株式会社,富山県,富山市,梅沢町２丁目９番１号,,16,201,9300055,,,2025-05-09,清算の結了等,,,2015-10-05,1,,,,,トップバイオ,0
2015,6240001049908,登記記録の閉鎖等,0,2025-05-14,2025-05-09,株式会社サロス,,株式会社,広島県,福山市,神辺町字道上５３６番地８,,34,207,7202104,,,2025-05-09,清算の結了等,,,2016-09-06,1,,,,,サロス,0
2018,6250001015958,登記記録の閉鎖等,0,2025-05-14,2025-05-08,株式会社周防大島アグリ,,株式会社,山口県,大島郡周防大島町,大字東三蒲１１０７番地１,,35,305,7422102,,,2025-05-08,合併による解散等,4240001012553,令和７年５月１日広島市佐伯区石内上一丁目５番１号リジョー株式会社（4240001012553）に合併し解散,2016-05-16,1,,,,,スオウオオシマアグリ,0
2019,6260001009224,登記記録の閉鎖等,0,2025-05-14,2025-05-08,株式会社信榮,,株式会社,岡山県,和気郡和気町,日笠下８９０番地４,,33,346,7090403,,,2025-05-08,清算の結了等,,,2015-10-05,1,,,,,シンエイ,0
2020,6260001012384,登記記録の閉鎖等,0,2025-05-14,2025-04-28,株式会社浅尾商店,,株式会社,岡山県,倉敷市,福島６５５番地,,33,202,7100048,,,2025-04-28,清算の結了等,,,2015-10-05,1,,,,,アサオショウテン,0
2030,6290005014176,登記記録の閉鎖等,0,2025-05-14,2025-04-08,一般財団法人都市エクイティ財団,,その他の設立登記法人,福岡県,福岡市中央区,笹丘１丁目２５番１７－７０１号,,40,133,8100034,,,2025-04-08,清算の結了等,,,2015-10-05,1,,,,,トシエクイティザイダン,0
2031,6290005018359,登記記録の閉鎖等,0,2025-05-14,2025-04-30,ＮＰＯ法人Ａｒｔ　ｉｓ,,その他の設立登記法人,福岡県,福岡市中央区,荒戸３丁目４番７６号大産西公園マンション８０３号室,,40,133,8100062,,,2025-04-30,清算の結了等,,,2021-09-22,1,,,,,アートイズ,0
2051,6370003006084,登記記録の閉鎖等,0,2025-05-14,2025-04-28,合同会社ＲＮ,,合同会社,宮城県,仙台市宮城野区,鶴ケ谷東１丁目３番１０‐３号,,04,102,9830826,,,2025-04-28,清算の結了等,,,2023-04-12,1,,,,,アールエヌ,0
2059,6380005011800,登記記録の閉鎖等,0,2025-05-14,2025-04-14,一般社団法人まちづくり伊達,,その他の設立登記法人,福島県,伊達市,本町３９番地１,,07,213,9600462,,,2025-04-14,合併による解散等,6380005001982,令和７年４月１日福島県伊達市梁川町青葉町１番地一般社団法人伊達市振興公社（6380005001982）に合併し解散,2017-03-06,1,,,,,マチヅクリダテ,0
2071,6430001074325,登記記録の閉鎖等,0,2025-05-14,2025-05-08,株式会社三愛技研,,株式会社,北海道,札幌市清田区,清田三条２丁目７番１２号,,01,110,0040843,,,2025-05-08,清算の結了等,,,2017-06-12,1,,,,,サンアイギケン,0
2084,6500005002043,登記記録の閉鎖等,0,2025-05-14,2025-05-09,医療法人せなは整形外科,,その他の設立登記法人,愛媛県,松山市,西垣生町４７５番地１,,38,201,7918044,,,2025-05-09,清算の結了等,,,2015-10-05,1,,,,,セナハセイケイゲカ,0
2093,7010001160471,登記記録の閉鎖等,0,2025-05-14,2025-04-22,山佐ＣＭＰ１リース株式会社,,株式会社,東京都,千代田区,丸の内１丁目４番１号東京共同会計事務所内,,13,101,1000005,,,2025-04-22,清算の結了等,,,2015-10-05,1,,,,,ヤマサシーエムピーイチリース,0
2094,7010001232031,登記記録の閉鎖等,0,2025-05-14,2025-04-24,株式会社オリジナルブレイン,,株式会社,東京都,中央区,銀座１丁目２２番１１号,,13,102,1040061,,,2025-04-24,清算の結了等,,,2023-01-10,1,,,,,オリジナルブレイン,0
2118,7010801005553,登記記録の閉鎖等,0,2025-05-14,2025-04-30,昌栄電機株式会社,,株式会社,東京都,大田区,大森南１丁目２２番７号,,13,111,1430013,,,2025-04-30,清算の結了等,,,2015-10-05,1,,,,,ショウエイデンキ,0
2133,7011101035365,登記記録の閉鎖等,0,2025-05-14,2025-04-16,株式会社ｓａｋｕｒａｍｏｍｏ,,株式会社,東京都,新宿区,新宿１丁目２４番７号,,13,104,1600022,,,2025-04-16,清算の結了等,,,2015-10-05,1,,,,,,0
2137,7011101080056,登記記録の閉鎖等,0,2025-05-14,2025-04-16,株式会社Ｔ．Ｄｅｌｉｇｈｔ,,株式会社,東京都,新宿区,新宿３丁目８番２号,,13,104,1600022,,,2025-04-16,清算の結了等,,,2017-04-03,1,,,,,,0
2156,7011802018239,登記記録の閉鎖等,0,2025-05-14,2025-05-08,有限会社平和エンタープライズ,,有限会社,東京都,足立区,千住旭町４０番１８号,,13,121,1200026,,,2025-05-08,清算の結了等,,,2015-10-05,1,,,,,ヘイワエンタープライズ,0
2168,7013301011047,登記記録の閉鎖等,0,2025-05-14,2025-04-28,紅矢食品工業株式会社,,株式会社,東京都,豊島区,池袋３丁目６０番４号,,13,116,1710014,,,2025-04-28,清算の結了等,,,2015-10-05,1,,,,,ベニヤショクヒンコウギョウ,0
2180,7020005012668,登記記録の閉鎖等,0,2025-05-14,2025-04-24,ＮＰＯ法人Ｄ－ＹＣＡＰ・ダイバーシティ横浜市民アートプランナー,,その他の設立登記法人,神奈川県,横浜市保土ケ谷区,和田２丁目２０番３６号,,14,106,2400065,,,2025-04-24,清算の結了等,,,2016-06-10,1,,,,,ディーワイキャップダイバーシティヨコハマシミンアートプランナー,0
2200,7030001157144,登記記録の閉鎖等,0,2025-05-14,2025-05-12,株式会社ＮＤＯ,,株式会社,埼玉県,川越市,大字南田島５７０番地１,,11,201,3500027,,,2025-05-12,清算の結了等,,,2023-11-20,1,,,,,エヌディーオー,0
2205,7040001028138,登記記録の閉鎖等,0,2025-05-14,2025-04-01,新京成電鉄株式会社,,株式会社,千葉県,鎌ケ谷市,くぬぎ山４丁目１番１２号,,12,224,2730128,,,2025-04-01,合併による解散等,7010601012155,令和７年４月１日千葉県市川市八幡三丁目３番１号京成電鉄株式会社（7010601012155）に合併し解散,2015-10-05,1,,,,,シンケイセイデンテツ,0
2211,7040002063753,登記記録の閉鎖等,0,2025-05-14,2025-04-23,有限会社前田製作所,,有限会社,千葉県,八街市,大関１９３番地２１川島ビル,,12,230,2891142,,,2025-04-23,清算の結了等,,,2015-10-05,1,,,,,マエダセイサクショ,0
2221,7070001017022,登記記録の閉鎖等,0,2025-05-14,2025-05-08,辻織物株式会社,00025259,株式会社,群馬県,桐生市,三吉町１丁目１番８号,,10,203,3760005,,,2025-05-08,清算の結了等,,,2015-10-05,1,,,,,ツジオリモノ,0
2237,7110002027668,登記記録の閉鎖等,0,2025-05-14,2025-04-28,有限会社三敬設備,,有限会社,新潟県,長岡市,乙吉町５３０番地１,,15,202,9400812,,,2025-04-28,清算の結了等,,,2015-10-05,1,,,,,サンケイセツビ,0
2260,7120003005663,登記記録の閉鎖等,0,2025-05-14,2025-04-28,合資会社ＴＫプランニング,,合資会社,大阪府,大阪市東成区,深江南３丁目１９番１９号,,27,115,5370002,,,2025-04-28,清算の結了等,,,2015-10-05,1,,,,,テイケイプランニング,0
2263,7120101000764,登記記録の閉鎖等,0,2025-05-14,2025-05-07,株式会社魚住オルゴール研究所,,株式会社,大阪府,堺市堺区,西湊町４丁２番２０号,,27,141,5900835,,,2025-05-07,清算の結了等,,,2015-10-05,1,,,,,ウオズミオルゴールケンキュウショ,0
2305,7180002088919,登記記録の閉鎖等,0,2025-05-14,2025-05-07,有限会社Ｎ＆Ｂ,,有限会社,愛知県,半田市,彦洲町１丁目１９５番地,,23,205,4750975,,,2025-05-07,清算の結了等,,,2015-10-05,1,,,,,エヌアンドビー,0
2309,7180301038228,登記記録の閉鎖等,0,2025-05-14,2025-05-08,クマラソ株式会社,,株式会社,愛知県,西尾市,吉良町饗庭神ノ木１６番地,,23,213,4440523,,,2025-05-08,清算の結了等,,,2024-01-15,1,,,,,クマラソ,0
2319,7230003000298,登記記録の閉鎖等,0,2025-05-14,2025-05-08,鷹嘴ネットワークサービス合資会社,,合資会社,富山県,魚津市,村木町９番１０号,,16,204,9370053,,,2025-05-08,清算の結了等,,,2015-10-05,1,,,,,タカハシネットワークサービス,0
2329,7270001000429,登記記録の閉鎖等,0,2025-05-14,2025-05-12,株式会社高田,,株式会社,鳥取県,鳥取市,吉成６７２番地２１,,31,201,6800864,,,2025-05-12,清算の結了等,,,2015-10-05,1,,,,,タカタ,0
2336,7290001053623,登記記録の閉鎖等,0,2025-05-14,2025-04-24,株式会社大坪商店,,株式会社,福岡県,みやま市,高田町江浦町４３０番地,,40,229,8390212,,,2025-04-24,清算の結了等,,,2015-10-05,1,,,,,オオツボショウテン,0
2339,7290003005201,登記記録の閉鎖等,0,2025-05-14,2025-04-28,合同会社中央シティビジネスセンター,,合同会社,福岡県,大牟田市,本町４丁目１０番地４麻布フロント,,40,202,8360046,,,2025-04-28,清算の結了等,,,2015-10-05,1,,,,,チュウオウシティビジネスセンター,0
2360,7380001014236,登記記録の閉鎖等,0,2025-05-14,2025-04-17,本多電機株式会社,,株式会社,福島県,いわき市,小名浜島字高田町２１番地,,07,204,9718125,,,2025-04-17,合併による解散等,8010701009026,令和７年４月１日東京都品川区上大崎四丁目５番３７号ＨＤホールディングス株式会社（8010701009026）に合併し解散,2015-10-05,1,,,,,ホンダデンキ,0
2361,7400001004515,登記記録の閉鎖等,0,2025-05-14,2025-05-02,株式会社新羅,,株式会社,北海道,札幌市清田区,清田二条１丁目４番１３号,,01,110,0040842,,,2025-05-02,合併による解散等,2430001075806,令和７年４月３０日札幌市清田区清田二条一丁目４番１３号大榮開発株式会社（2430001075806）に合併し解散,2015-10-05,1,,,,,シンラ,0
2371,7430001087920,登記記録の閉鎖等,0,2025-05-14,2025-05-08,新都心開発株式会社,,株式会社,東京都,中野区,上鷺宮１丁目２４番２７号第５ホワイトパレス１０２,,13,114,1650031,,,2025-05-08,清算の結了等,,,2022-11-25,1,,,,,シントシンカイハツ,0
2372,7430002002564,登記記録の閉鎖等,0,2025-05-14,2025-05-08,有限会社エムケイケー事務所,,有限会社,北海道,札幌市北区,太平十一条６丁目６番５号,,01,102,0028011,,,2025-05-08,清算の結了等,,,2015-10-05,1,,,,,エムケイケージムショ,0
2395,8010401052012,登記記録の閉鎖等,0,2025-05-14,2025-04-23,株式会社サン企画,,株式会社,神奈川県,横浜市中区,万代町１丁目２番地１２,,14,104,2310031,,,2025-04-23,清算の結了等,,,2015-10-05,1,,,,,サンキカク,0
2403,8010402019571,登記記録の閉鎖等,0,2025-05-14,2025-04-09,有限会社グリーン・ミレニアム,,有限会社,東京都,港区,白金台５丁目２２番１１号,,13,103,1080071,,,2025-04-09,清算の結了等,,,2015-10-05,1,,,,,,0
2442,8011601017110,登記記録の閉鎖等,0,2025-05-14,2025-05-07,株式会社永井プロジェクト,,株式会社,東京都,練馬区,南大泉６丁目１０番２７号,,13,120,1780064,,,2025-05-07,清算の結了等,,,2015-10-05,1,,,,,ナガイプロジェクト,0
2458,8020001030235,登記記録の閉鎖等,0,2025-05-14,2025-05-07,株式会社オフィスミヤタ,,株式会社,神奈川県,横浜市保土ケ谷区,星川１丁目１４番１７号,,14,106,2400006,,,2025-05-07,清算の結了等,,,2015-10-05,1,,,,,オフィスミヤタ,0
2460,8020001098859,登記記録の閉鎖等,0,2025-05-14,2025-04-28,株式会社スイミー,,株式会社,神奈川県,川崎市高津区,上作延４３８,,14,134,2130034,,,2025-04-28,清算の結了等,,,2015-10-05,1,,,,,スイミー,0
2468,8020002087539,登記記録の閉鎖等,0,2025-05-14,2025-04-28,有限会社明乳菅生宅配センター,,有限会社,神奈川県,川崎市宮前区,菅生５丁目５番６号,,14,136,2160015,,,2025-04-28,清算の結了等,,,2015-10-05,1,,,,,メイニュウスガオタクハイセンター,0
2485,8030001070429,登記記録の閉鎖等,0,2025-05-14,2025-05-08,株式会社ケイ・プラニング,,株式会社,埼玉県,入間郡越生町,大字越生６５８番地４８,,11,327,3500416,,,2025-05-08,清算の結了等,,,2015-10-05,1,,,,,ケイプラニング,0
2490,8030002003924,登記記録の閉鎖等,0,2025-05-14,2025-05-09,有限会社喜多寿司,,有限会社,埼玉県,さいたま市緑区,道祖土１丁目２４番４号,,11,109,3360907,,,2025-05-09,清算の結了等,,,2015-10-05,1,,,,,キタズシ,0
2491,8030002014277,登記記録の閉鎖等,0,2025-05-14,2025-05-09,有限会社ユニオン電機,,有限会社,埼玉県,さいたま市西区,西大宮３丁目４４番地１０,,11,101,3310078,,,2025-05-09,清算の結了等,,,2015-10-05,1,,,,,ユニオンデンキ,0
2494,8030002092926,登記記録の閉鎖等,0,2025-05-14,2025-05-08,丸台物産有限会社,,有限会社,埼玉県,坂戸市,末広町８番１８号,,11,239,3500272,,,2025-05-08,清算の結了等,,,2015-10-05,1,,,,,マルダイブッサン,0
2495,8030002095689,登記記録の閉鎖等,0,2025-05-14,2025-05-08,有限会社太田商事,,有限会社,埼玉県,東松山市,大字新郷２８５番地,,11,212,3550071,,,2025-05-08,清算の結了等,,,2015-10-05,1,,,,,,0
2497,8030005015743,登記記録の閉鎖等,0,2025-05-14,2025-05-08,一般社団法人セゾン住環境システム,,その他の設立登記法人,埼玉県,さいたま市南区,文蔵５丁目１５番３－４０６号,,11,108,3360025,,,2025-05-08,清算の結了等,,,2015-10-05,1,,,,,セゾンジュウカンキョウシステム,0
2499,8040001120001,登記記録の閉鎖等,0,2025-05-14,2025-04-23,株式会社Ａ．Ｍ．サポート,,株式会社,千葉県,船橋市,北本町２丁目６４番１２号,,12,204,2730864,,,2025-04-23,清算の結了等,,,2021-09-06,1,,,,,エーエムサポート,0
2523,8080002009479,登記記録の閉鎖等,0,2025-05-14,2025-05-07,有限会社大高測量,00067472,有限会社,静岡県,静岡市清水区,宮加三７０７番地の２,,22,103,4240911,,,2025-05-07,清算の結了等,,,2015-10-05,1,,,,,オオタカソクリョウ,0
2537,8110005008986,登記記録の閉鎖等,0,2025-05-14,2025-04-01,吉川商工会,,その他の設立登記法人,新潟県,上越市,吉川区下町１１２６番地吉川コミュニティプラザ３階,,15,222,9493443,,,2025-04-01,合併による解散等,5110005017214,令和７年４月１日新潟県上越市大潟区四ツ屋浜７７３番地大潟商工会（3110005008066）、新潟県上越市名立区名立大町１９３番地４名立商工会（5110005009624）及び新潟県上越市頸城区百間町６１５番地の２頸城商工会（5110005008163）と合併して新潟県上越市大潟区四ツ屋浜７７３番地くびきの商工会（5110005017214）を設立し解散,2015-10-05,1,,,,,ヨシカワ,0
2540,8120001159519,登記記録の閉鎖等,0,2025-05-14,2025-04-24,株式会社ワールド・エム,,株式会社,大阪府,門真市,千石東町２４番１４号,,27,223,5710013,,,2025-04-24,清算の結了等,,,2015-10-05,1,,,,,ワールドエム,0
2552,8120002010358,登記記録の閉鎖等,0,2025-05-14,2025-04-30,有限会社ヒカル,,有限会社,大阪府,箕面市,半町２丁目１３番２１号の４,,27,220,5620044,,,2025-04-30,清算の結了等,,,2015-10-05,1,,,,,ヒカル,0
2567,8122002011699,登記記録の閉鎖等,0,2025-05-14,2025-05-07,有限会社吉川不動産,,有限会社,大阪府,大東市,諸福１丁目４番１３号,,27,218,5740044,,,2025-05-07,清算の結了等,,,2015-10-05,1,,,,,ヨシカワフドウサン,0
2612,8220002013961,登記記録の閉鎖等,0,2025-05-14,2025-05-09,有限会社七尾保険センター,,有限会社,石川県,七尾市,松百町五部８番地の１,,17,202,9260841,,,2025-05-09,清算の結了等,,,2015-10-05,1,,,,,ナナオホケンセンター,0
2629,8290001067812,登記記録の閉鎖等,0,2025-05-14,2025-05-01,株式会社エースモバイル,,株式会社,福岡県,福岡市南区,大池１丁目２番１１号,,40,134,8150073,,,2025-05-01,清算の結了等,,,2015-10-05,1,,,,,エースモバイル,0
2652,8340002025887,登記記録の閉鎖等,0,2025-05-14,2025-05-07,有限会社たまや,,有限会社,鹿児島県,鹿屋市,串良町細山田４９４５番地８,,46,203,8931601,,,2025-05-07,清算の結了等,,,2015-10-05,1,,,,,タマヤ,0
2655,8370103000737,登記記録の閉鎖等,0,2025-05-14,2025-04-28,アトリエ・アサヒ合同会社,,合同会社,宮城県,柴田郡大河原町,字高砂町１０番地１１,,04,321,9891202,,,2025-04-28,清算の結了等,,,2015-10-05,1,,,,,アトリエアサヒ,0
2658,8380005011872,登記記録の閉鎖等,0,2025-05-14,2025-04-30,特定非営利活動法人キッズスペースキャン,,その他の設立登記法人,福島県,福島市,南沢又字明神北４番地の１,,07,201,9608254,,,2025-04-30,清算の結了等,,,2017-06-27,1,,,,,キッズスペースキャン,0
2659,8400002003639,登記記録の閉鎖等,0,2025-05-14,2025-04-24,有限会社ライズ,,有限会社,岩手県,盛岡市,神明町６番６－４１０号,,03,201,0200884,,,2025-04-24,清算の結了等,,,2015-10-05,1,,,,,ライズ,0
2679,8450002009276,登記記録の閉鎖等,0,2025-05-14,2025-05-08,有限会社きゃらうえいふらの,,有限会社,北海道,空知郡上富良野町,字富良野原野１０８５番地４２,,01,460,,,,2025-05-08,清算の結了等,,,2015-10-05,1,,,,,キャラウエイフラノ,1
2681,8470001010068,登記記録の閉鎖等,0,2025-05-14,2025-05-12,株式会社富士電算センター,,株式会社,香川県,観音寺市,中田井町５３３番地２,,37,205,7680024,,,2025-05-12,清算の結了等,,,2015-10-05,1,,,,,フジデンサンセンター,0
2691,8700150124999,登記記録の閉鎖等,0,2025-05-14,2025-01-31,あまくさ苓北観光協会,,その他,熊本県,天草郡苓北町,志岐６６０,,43,531,8632503,,,2025-01-31,その他の清算の結了等,,,2024-04-22,1,,,,,アマクサレイホクカンコウキヨウカイ,0
2701,9010002011639,登記記録の閉鎖等,0,2025-05-14,2025-04-21,有限会社セルジユ,,有限会社,東京都,千代田区,神田神保町１丁目１２番地,,13,101,1010051,,,2025-04-21,清算の結了等,,,2015-10-05,1,,,,,セルジユ,0
2704,9010003044828,登記記録の閉鎖等,0,2025-05-14,2025-04-21,合同会社ＥＲＩ,,合同会社,東京都,中央区,晴海２丁目２番４２－５０７号,,13,102,1040053,,,2025-04-21,清算の結了等,,,2024-09-09,1,,,,,エリ,0
2724,9010801027331,登記記録の閉鎖等,0,2025-05-14,2025-04-30,株式会社ロデック,,株式会社,東京都,大田区,鵜の木１丁目２番１８－８０４号,,13,111,1460091,,,2025-04-30,清算の結了等,,,2016-12-16,1,,,,,ロデック,0
2738,9011102007428,登記記録の閉鎖等,0,2025-05-14,2025-04-16,有限会社創林,,有限会社,東京都,新宿区,四谷三栄町１４番４号,,13,104,1600008,,,2025-04-16,清算の結了等,,,2015-10-05,1,,,,,ソウリン,0
2741,9011201015744,登記記録の閉鎖等,0,2025-05-14,2025-04-08,株式会社ホライゾンズ,,株式会社,東京都,渋谷区,道玄坂１丁目１０番８号渋谷道玄坂東急ビル２Ｆ－Ｃ,,13,113,1500043,,,2025-04-08,清算の結了等,,,2015-10-05,1,,,,,ホライゾンズ,0
2742,9011301026063,登記記録の閉鎖等,0,2025-05-14,2025-04-25,バスクホールディングス株式会社,,株式会社,東京都,杉並区,成田東４丁目３番４号Ｄ３０４,,13,115,1660015,,,2025-04-25,清算の結了等,,,2020-07-20,1,,,,,バスクホールディングス,0
2753,9012401014024,登記記録の閉鎖等,0,2025-05-14,2025-04-25,株式会社アーバネスト,,株式会社,神奈川県,横浜市青葉区,千草台６番地１１,,14,117,2270051,,,2025-04-25,清算の結了等,,,2015-10-05,1,,,,,アーバネスト,0
2790,9030001047054,登記記録の閉鎖等,0,2025-05-14,2025-05-08,株式会社アイテック,,株式会社,埼玉県,朝霞市,三原２丁目５番３号,,11,227,3510025,,,2025-05-08,清算の結了等,,,2015-10-05,1,,,,,アイテック,0
2792,9030001077159,登記記録の閉鎖等,0,2025-05-14,2025-05-12,株式会社星野紙器製作所,,株式会社,埼玉県,川口市,並木１丁目１０番２７号,,11,203,3320034,,,2025-05-12,清算の結了等,,,2015-10-05,1,,,,,ホシノシキセイサクショ,0
2820,9060002014835,登記記録の閉鎖等,0,2025-05-14,2025-05-01,有限会社菊屋造花店,,有限会社,栃木県,日光市,倉ケ崎３７番地１,,09,206,3212412,,,2025-05-01,合併による解散等,1060001000439,令和７年５月１日栃木県宇都宮市大通り五丁目３番９号アルファクラブ株式会社（1060001000439）に合併し解散,2015-10-05,1,,,,,キクヤゾウカテン,0
2827,9080105003898,登記記録の閉鎖等,0,2025-05-14,2025-05-07,熱海酒類小売業協同組合,,その他の設立登記法人,静岡県,熱海市,渚町８番２号熱海商工会議所内,,22,205,4130014,,,2025-05-07,清算の結了等,,,2015-10-05,1,,,,,アタミサケルイコウリギョウ,0
2832,9080401012735,登記記録の閉鎖等,0,2025-05-14,2025-05-01,株式会社トラスト,,株式会社,静岡県,浜松市中央区,貴平町１７４５番地,,22,138,4313104,,,2025-05-01,清算の結了等,,,2015-10-05,1,,,,,トラスト,0
2840,9110005000892,登記記録の閉鎖等,0,2025-05-14,2025-04-01,新潟西商工会,,その他の設立登記法人,新潟県,新潟市西区,内野町５３７番地,,15,107,9502112,,,2025-04-01,合併による解散等,4110005017215,令和７年４月１日新潟県新潟市西区大野町３０２１番地黒埼商工会（1110005000891）と新潟市西区赤塚５４０５番地８赤塚商工会（4110005000889）と合併して新潟県新潟市西区大野町３０２１番地西新潟商工会（4110005017215）を設立し解散,2015-10-05,1,,,,,ニイガタニシ,0
2890,9140001037333,登記記録の閉鎖等,0,2025-05-14,2025-05-08,株式会社ジラソーレ,,株式会社,兵庫県,三木市,大村１丁目４０番地の１,,28,215,6730404,,,2025-05-08,清算の結了等,,,2015-10-05,1,,,,,ジラソーレ,0
2901,9140002020180,登記記録の閉鎖等,0,2025-05-14,2025-05-01,有限会社酒肴,,有限会社,兵庫県,神戸市東灘区,住吉山手５丁目１６番１号,,28,101,6580063,,,2025-05-01,清算の結了等,,,2015-10-05,1,,,,,シュコウ,0
2908,9160005006935,登記記録の閉鎖等,0,2025-05-14,2025-04-15,池福寺,,その他の設立登記法人,滋賀県,近江八幡市,池田本町６５１番地,,25,204,5230043,,,2025-04-15,合併による解散等,7160005006945,令和７年４月１５日滋賀県近江八幡市加茂町１６９２番地圓珠寺（7160005006945）に合併し解散,2015-10-05,1,,,,,チフクジ,0
2916,9180002092852,登記記録の閉鎖等,0,2025-05-14,2025-05-07,有限会社ケー・エス・ケー,,有限会社,愛知県,愛西市,早尾町川並４３９５番地１,,23,232,4960931,,,2025-05-07,清算の結了等,,,2015-10-05,1,,,,,ケーエスケー,0
2917,9180003004328,登記記録の閉鎖等,0,2025-05-14,2025-05-02,合資会社珪,,合資会社,愛知県,名古屋市千種区,高見２丁目１番２６号セントラルガーデン・レジデンスＩＩＥ－３０１号,00135990,23,101,4640073,,,2025-05-02,清算の結了等,,,2015-10-05,1,,,,,ケイ,0
2918,9180005019209,登記記録の閉鎖等,0,2025-05-14,2025-05-13,一般社団法人いきいきライフ協会西尾張,,その他の設立登記法人,愛知県,海部郡蟹江町,大字西之森字硴場５０番地１,,23,425,4970052,,,2025-05-13,清算の結了等,,,2021-04-07,1,,,,,イキイキライフキョウカイニシオワリ,0
2928,9220001024562,登記記録の閉鎖等,0,2025-05-14,2025-05-01,株式会社サウンド,,株式会社,東京都,中央区,銀座５丁目１番先銀座ファイブ,,13,102,1040061,,,2025-05-01,合併による解散等,3010001151210,令和７年５月１日東京都中央区銀座五丁目１番先銀座ファイブ株式会社ブランドバンク（3010001151210）に合併し解散,2021-11-26,1,,,,,サウンド,0
2943,9290003011321,登記記録の閉鎖等,0,2025-05-14,2025-05-01,アオ合同会社,,合同会社,福岡県,福岡市博多区,博多駅前２丁目１９番１７号トーカン博多第５ビル内,,40,132,8120011,,,2025-05-01,清算の結了等,,,2021-06-17,1,,,,,アオ,0
2961,9370001013484,登記記録の閉鎖等,0,2025-05-14,2025-04-28,株式会社アステップ,,株式会社,宮城県,仙台市泉区,南光台４丁目７番３５号,,04,105,9818003,,,2025-04-28,清算の結了等,,,2015-10-05,1,,,,,,0
2964,9370002018210,登記記録の閉鎖等,0,2025-05-14,2025-04-25,有限会社アクアクリーン東北,,有限会社,宮城県,仙台市青葉区,川内川前丁２０番地,,04,101,9800852,,,2025-04-25,清算の結了等,,,2015-10-05,1,,,,,アクアクリーントウホク,0
2969,9390001013986,登記記録の閉鎖等,0,2025-05-14,2025-04-10,株式会社りんごの森,,株式会社,山形県,西村山郡朝日町,大字和合２７２４番地,,06,323,9901411,,,2025-04-10,合併による解散等,1390001012178,令和７年４月１日山形県西村山郡朝日町大字宮宿１３５３番地１株式会社朝日町総合産業開発（1390001012178）に合併し解散,2015-10-05,1,,,,,リンゴノモリ,0
2985,9430003013609,登記記録の閉鎖等,0,2025-05-14,2025-05-08,合同会社フィーライン,,合同会社,北海道,札幌市中央区,南十二条西１２丁目１番４３－４０５号,,01,101,0640912,,,2025-05-08,清算の結了等,,,2022-02-07,1,,,,,フィーライン,0
2991,9480001006279,登記記録の閉鎖等,0,2025-05-14,2025-05-09,株式会社タケイチ,,株式会社,徳島県,徳島市,津田町３丁目２番１３号,,36,201,7708002,,,2025-05-09,清算の結了等,,,2015-10-05,1,,,,,タケイチ,0
