sequenceNumber,corporateNumber,process,correct,updateDate,changeDate,name,nameImageId,kind,prefectureName,cityName,streetNumber,addressImageId,prefectureCode,cityCode,postCode,addressOutside,addressOutsideImageId,closeDate,closeCause,successorCorporateNumber,changeCause,assignmentDate,latest,enName,enPrefectureName,enCityName,enAddressOutside,furigana,hihyoji
1,1010001019715,登記記録の閉鎖等,0,2024-11-27,2024-11-19,システム・ブレーン株式会社,,株式会社,東京都,練馬区,大泉町４丁目７番４号,,13,120,1780062,,,2024-11-19,清算の結了等,,,2015-10-05,1,,,,,システムブレーン,0
10,1010102002660,登記記録の閉鎖等,0,2024-11-27,2024-11-22,有限会社コピック,,有限会社,東京都,八王子市,明神町１丁目１７番２号,,13,201,1920046,,,2024-11-22,清算の結了等,,,2015-10-05,1,,,,,コピック,0
14,1010401177071,登記記録の閉鎖等,0,2024-11-27,2024-11-11,ＴｈｉｎｋＡＩ　Ｃｏｎｓｏｒｔｉｕｍ株式会社,,株式会社,東京都,港区,赤坂９丁目７番１号ミッドタウンタワー７Ｆ,,13,103,1070052,,,2024-11-11,清算の結了等,,,2023-09-11,1,,,,,シンクエーアイコンソーシアム,0
16,1010403013398,登記記録の閉鎖等,0,2024-11-27,2024-11-12,合同会社マリナ,,合同会社,東京都,港区,愛宕１丁目３番４号愛宕東洋ビル３階,,13,103,1050002,,,2024-11-12,清算の結了等,,,2015-10-05,1,,,,,マリナ,0
23,1010801020624,登記記録の閉鎖等,0,2024-11-27,2024-11-19,株式会社鋲英,,株式会社,東京都,大田区,東雪谷３丁目２９番６号,,13,111,1450065,,,2024-11-19,清算の結了等,,,2015-10-05,1,,,,,ビョウエイ,0
51,1011802014870,登記記録の閉鎖等,0,2024-11-27,2024-11-21,有限会社創和設備,,有限会社,東京都,足立区,青井３丁目１８番１８号,,13,121,1200012,,,2024-11-21,清算の結了等,,,2015-10-05,1,,,,,ソウワセツビ,0
66,1020002025637,登記記録の閉鎖等,0,2024-11-27,2024-11-15,有限会社エイ・ピー・スタジオ,,有限会社,神奈川県,横浜市神奈川区,東神奈川２丁目４０番８号,,14,102,2210044,,,2024-11-15,清算の結了等,,,2015-10-05,1,,,,,エイピースタジオ,0
78,1030001078073,登記記録の閉鎖等,0,2024-11-27,2024-11-21,日本精機製造株式会社,,株式会社,埼玉県,川口市,川口１丁目９番８号,,11,203,3320015,,,2024-11-21,清算の結了等,,,2015-10-05,1,,,,,ニホンセイキセイゾウ,0
79,1030002011719,登記記録の閉鎖等,0,2024-11-27,2024-11-25,有限会社不動産スエミツ,,有限会社,埼玉県,さいたま市中央区,上落合２丁目４番２－７０７号,,11,105,3380001,,,2024-11-25,清算の結了等,,,2015-10-05,1,,,,,フドウサンスエミツ,0
88,1040002035725,登記記録の閉鎖等,0,2024-11-27,2024-11-21,有限会社ナナネット,,有限会社,千葉県,市川市,市川３丁目５番１１号,,12,203,2720034,,,2024-11-21,清算の結了等,,,2015-10-05,1,,,,,ナナネット,0
93,1050001035246,登記記録の閉鎖等,0,2024-11-27,2024-11-20,株式会社おてつだい,,株式会社,茨城県,常陸大宮市,野上２４８番地の１,,08,225,3193114,,,2024-11-20,清算の結了等,,,2015-10-05,1,,,,,オテツダイ,0
102,1070001039591,登記記録の閉鎖等,0,2024-11-27,2024-11-26,株式会社デュアルテック,,株式会社,群馬県,前橋市,大手町２丁目１５－８首都圏ＮＳプラザｉｎ前橋４１２０号室,,10,201,3710026,,,2024-11-26,清算の結了等,,,2022-09-05,1,,,,,デュアルテック,0
109,1100002002339,登記記録の閉鎖等,0,2024-11-27,2024-11-21,有限会社新東竹,,有限会社,長野県,長野市,大字鶴賀４８９番地１３,,20,201,3800907,,,2024-11-21,清算の結了等,,,2015-10-05,1,,,,,シントウチク,0
129,1122001016557,登記記録の閉鎖等,0,2024-11-27,2024-11-25,株式会社マイクロテクス,,株式会社,大阪府,大東市,新田北町３番５２号,,27,218,5740052,,,2024-11-25,清算の結了等,,,2015-10-05,1,,,,,マイクロテクス,0
143,1140001076669,登記記録の閉鎖等,0,2024-11-27,2024-11-15,金星園芸工業株式会社,,株式会社,兵庫県,小野市,大島町７４３番地,,28,218,6751334,,,2024-11-15,合併による解散等,2140001076668,令和６年１１月１日兵庫県小野市本町１０番地キンボシ株式会社（2140001076668）に合併し解散,2015-10-05,1,,,,,キンボシエンゲイコウギョウ,0
154,1150001010536,登記記録の閉鎖等,0,2024-11-27,2024-11-25,佐藤薬品販売株式会社,,株式会社,奈良県,橿原市,観音寺町５番地の１,,29,205,6340825,,,2024-11-25,清算の結了等,,,2015-10-05,1,,,,,サトウヤクヒンハンバイ,0
167,1180002053036,登記記録の閉鎖等,0,2024-11-27,2024-11-19,有限会社ハッピーエンジェル,,有限会社,愛知県,名古屋市熱田区,旗屋１丁目３番３号,,23,109,4560027,,,2024-11-19,清算の結了等,,,2015-10-05,1,,,,,ハッピーエンジェル,0
174,1180303003482,登記記録の閉鎖等,0,2024-11-27,2024-10-10,合同会社Ｈａｐｐｉｎｅｓｓ,,合同会社,愛知県,岡崎市,戸崎町字上り場東１９番地,,23,202,4440840,,,2024-10-10,清算の結了等,,,2015-10-05,1,,,,,,0
175,1190001026487,登記記録の閉鎖等,0,2024-11-27,2024-11-22,株式会社豊富,,株式会社,三重県,四日市市,海山道町１丁目１４２６番１,,24,202,5100845,,,2024-11-22,清算の結了等,,,2019-06-13,1,,,,,トヨフミ,0
178,1200001010860,登記記録の閉鎖等,0,2024-11-27,2024-11-25,株式会社片岡組,,株式会社,岐阜県,羽島市,竹鼻町狐穴８２５番地,,21,209,5016232,,,2024-11-25,清算の結了等,,,2015-10-05,1,,,,,カタオカグミ,0
181,1200002007096,登記記録の閉鎖等,0,2024-11-27,2024-11-21,有限会社エリア,,有限会社,岐阜県,各務原市,小佐野町６丁目３４番地,,21,213,5040942,,,2024-11-21,清算の結了等,,,2015-10-05,1,,,,,エリア,0
187,1230003002077,登記記録の閉鎖等,0,2024-11-27,2024-11-21,合同会社七福,,合同会社,富山県,小矢部市,柳原７８番地,,16,209,9320807,,,2024-11-21,清算の結了等,,,2023-09-05,1,,,,,ナナフク,0
188,1230005006043,登記記録の閉鎖等,0,2024-11-27,2024-11-21,高岡銅器団地協同組合,,その他の設立登記法人,富山県,高岡市,戸出栄町４３番１,,16,202,9391118,,,2024-11-21,清算の結了等,,,2015-10-05,1,,,,,タカオカドウキダンチ,0
191,1240003002175,登記記録の閉鎖等,0,2024-11-27,2024-11-22,合同会社創建工房,,合同会社,広島県,尾道市,向島町１６０３３番地３０,,34,205,7220073,,,2024-11-22,清算の結了等,,,2015-10-05,1,,,,,ソウケンコウボウ,0
193,1250002005582,登記記録の閉鎖等,0,2024-11-27,2024-11-22,有限会社福田左官工業,,有限会社,山口県,宇部市,大字小野２９０６番地,,35,202,7541311,,,2024-11-22,清算の結了等,,,2015-10-05,1,,,,,フクダサカンコウギョウ,0
227,1440001005481,登記記録の閉鎖等,0,2024-11-27,2024-11-22,株式会社ウタリ共働社,,株式会社,北海道,函館市,新川町２１番５号,,01,202,0400032,,,2024-11-22,清算の結了等,,,2015-10-05,1,,,,,,0
228,1460302004338,登記記録の閉鎖等,0,2024-11-27,2024-11-25,有限会社シオン,,有限会社,北海道,網走市,南五条西３丁目１２番地,,01,211,0930015,,,2024-11-25,清算の結了等,,,2015-10-05,1,,,,,シオン,0
229,1462501000118,登記記録の閉鎖等,0,2024-11-27,2024-11-25,株式会社須田建設,,株式会社,北海道,標津郡中標津町,西一条南３丁目２番地,,01,692,0861101,,,2024-11-25,清算の結了等,,,2015-10-05,1,,,,,スダケンセツ,0
230,1480001005742,登記記録の閉鎖等,0,2024-11-27,2024-11-22,大和通信工業株式会社,,株式会社,徳島県,徳島市,新浜町４丁目３番１７号,,36,201,7708006,,,2024-11-22,清算の結了等,,,2015-10-05,1,,,,,ダイワツウシンコウギョウ,0
234,2010001138563,登記記録の閉鎖等,0,2024-11-27,2024-11-20,株式会社モノトライブ,,株式会社,東京都,台東区,浅草橋１丁目３１番１１号,,13,106,1110053,,,2024-11-20,清算の結了等,,,2015-10-05,1,,,,,モノトライブ,0
235,2010001176431,登記記録の閉鎖等,0,2024-11-27,2024-11-25,株式会社ＡＴＯＺ,,株式会社,東京都,墨田区,押上３丁目３０番８－３０２号ダイヤモンドレジデンス,,13,107,1310045,,,2024-11-25,清算の結了等,,,2016-06-16,1,,,,,アトス,0
247,2010002031957,登記記録の閉鎖等,0,2024-11-27,2024-11-22,有限会社モネール,,有限会社,神奈川県,綾瀬市,寺尾釜田３丁目８番２０号,,14,218,2521135,,,2024-11-22,清算の結了等,,,2015-10-05,1,,,,,,0
255,2010401009793,登記記録の閉鎖等,0,2024-11-27,2024-11-12,株式会社コーヒー・ブレィク,,株式会社,東京都,港区,北青山３丁目５番１１号,,13,103,1070061,,,2024-11-12,清算の結了等,,,2015-10-05,1,,,,,コーヒーブレイク,0
265,2010403013397,登記記録の閉鎖等,0,2024-11-27,2024-11-12,合同会社ナラン,,合同会社,東京都,港区,愛宕１丁目３番４号愛宕東洋ビル３階,,13,103,1050002,,,2024-11-12,清算の結了等,,,2015-10-05,1,,,,,ナラン,0
271,2010803001308,登記記録の閉鎖等,0,2024-11-27,2024-11-25,合同会社ｅｎｎｅ,,合同会社,東京都,大田区,南雪谷２丁目１５番１８号,,13,111,1450066,,,2024-11-25,清算の結了等,,,2015-10-05,1,,,,,エンネ,0
275,2011001109199,登記記録の閉鎖等,0,2024-11-27,2024-11-18,株式会社セルリア,,株式会社,東京都,新宿区,新宿６丁目２８番８号ラ・ベルティ新宿１０階,,13,104,1600022,,,2024-11-18,清算の結了等,,,2016-01-21,1,,,,,セルリア,0
296,2011702013757,登記記録の閉鎖等,0,2024-11-27,2024-11-21,有限会社キャリア・デザイン,,有限会社,東京都,江戸川区,清新町１丁目４番２号,,13,123,1340087,,,2024-11-21,清算の結了等,,,2015-10-05,1,,,,,キャリアデザイン,0
298,2011801014425,登記記録の閉鎖等,0,2024-11-27,2024-11-25,株式会社カムズ,,株式会社,東京都,葛飾区,水元２丁目１４番９号,,13,122,1250032,,,2024-11-25,清算の結了等,,,2015-10-05,1,,,,,カムズ,0
302,2012302008858,登記記録の閉鎖等,0,2024-11-27,2024-11-18,有限会社翼工芸,,有限会社,東京都,町田市,忠生１丁目２３番７号,,13,209,1940035,,,2024-11-18,清算の結了等,,,2015-10-05,1,,,,,ツバサコウゲイ,0
310,2013301042311,登記記録の閉鎖等,0,2024-11-27,2024-10-11,Ｍａｃｈｉｐｏｐｏ株式会社,,株式会社,東京都,豊島区,北大塚１丁目１９番１２号,,13,116,1700004,,,2024-10-11,清算の結了等,,,2018-05-22,1,,,,,マチポポ,0
313,2020002007857,登記記録の閉鎖等,0,2024-11-27,2024-11-18,有限会社カナメ商事,,有限会社,神奈川県,横浜市金沢区,富岡西６丁目６番１号,,14,108,2360052,,,2024-11-18,清算の結了等,,,2015-10-05,1,,,,,カナメショウジ,0
333,2040002043108,登記記録の閉鎖等,0,2024-11-27,2024-11-22,有限会社アーキグラフ,,有限会社,千葉県,市川市,市川１丁目２２番１１号ドエル市川弐番館２０５,,12,203,2720034,,,2024-11-22,清算の結了等,,,2015-10-05,1,,,,,アーキグラフ,0
334,2040002065589,登記記録の閉鎖等,0,2024-11-27,2024-11-22,有限会社中野工業,,有限会社,東京都,江東区,毛利１丁目８番１－１２０８号,,13,108,1350001,,,2024-11-22,清算の結了等,,,2015-10-05,1,,,,,ナカノコウギョウ,0
342,2070005002685,登記記録の閉鎖等,0,2024-11-27,2024-11-22,医療法人彦根会,,その他の設立登記法人,群馬県,高崎市,上小塙町８５０番地１,,10,202,3700077,,,2024-11-22,清算の結了等,,,2015-10-05,1,,,,,ヒコネカイ,0
353,2090005007030,登記記録の閉鎖等,0,2024-11-27,2024-11-22,一般社団法人特殊高圧洗浄協会,,その他の設立登記法人,山梨県,大月市,大月町花咲５５７番地,,19,206,4010015,,,2024-11-22,清算の結了等,,,2016-12-28,1,,,,,トクシュコウアツセンジョウキョウカイ,0
356,2100002030215,登記記録の閉鎖等,0,2024-11-27,2024-11-21,有限会社天翔,,有限会社,長野県,茅野市,玉川９２７番地８３,,20,214,3910011,,,2024-11-21,清算の結了等,,,2015-10-05,1,,,,,テンショウ,0
359,2120001023738,登記記録の閉鎖等,0,2024-11-27,2024-11-20,株式会社ウィズクライアント,,株式会社,大阪府,大阪市住之江区,南港中５丁目６－２２－７１０,,27,125,5590033,,,2024-11-20,清算の結了等,,,2015-10-05,1,,,,,ウィズクライアント,0
363,2120001087394,登記記録の閉鎖等,0,2024-11-27,2024-11-26,浜本化学工業株式会社,,株式会社,大阪府,大阪市中央区,久太郎町１丁目６番１３号,,27,128,5410056,,,2024-11-26,清算の結了等,,,2024-11-07,1,,,,,ハマモトカガクコウギョウ,0
364,2120001090497,登記記録の閉鎖等,0,2024-11-27,2024-11-21,ミニコンデジタルワーク株式会社,,株式会社,大阪府,大阪市中央区,北浜２丁目１番２１号,,27,128,5410041,,,2024-11-21,清算の結了等,,,2015-10-05,1,,,,,ミニコンデジタルワーク,0
372,2120002062958,登記記録の閉鎖等,0,2024-11-27,2024-11-25,有限会社アイテン製作所,,有限会社,大阪府,大阪市旭区,新森４丁目２番１８号,,27,117,5350022,,,2024-11-25,清算の結了等,,,2015-10-05,1,,,,,アイテンセイサクショ,0
420,2250002001275,登記記録の閉鎖等,0,2024-11-27,2024-11-25,有限会社美工,,有限会社,山口県,山口市,小郡上郷字上光成１４９７番地の５,,35,203,7540001,,,2024-11-25,清算の結了等,,,2015-10-05,1,,,,,,0
425,2280002009654,登記記録の閉鎖等,0,2024-11-27,2024-11-25,有限会社瑞穂石油店,,有限会社,島根県,邑智郡邑南町,山田９７番地２,,32,449,6960313,,,2024-11-25,清算の結了等,,,2015-10-05,1,,,,,ミズホセキユテン,0
428,2290001074582,登記記録の閉鎖等,0,2024-11-27,2024-10-23,株式会社ＭＩＴＯＳＨＩ,,株式会社,福岡県,福岡市南区,野多目１丁目８番２－１０２号,,40,134,8111347,,,2024-10-23,清算の結了等,,,2016-07-19,1,,,,,ミトシ,0
429,2290001098730,登記記録の閉鎖等,0,2024-11-27,2024-10-31,株式会社Ｋｅｅｐ,,株式会社,福岡県,福岡市中央区,天神５丁目６番１４号リビング天神３階,,40,133,8100001,,,2024-10-31,清算の結了等,,,2022-08-30,1,,,,,キープ,0
432,2290002035765,登記記録の閉鎖等,0,2024-11-27,2024-11-18,有限会社エース技研,,有限会社,福島県,いわき市,常磐西郷町落合２８８番地,,07,204,9728316,,,2024-11-18,清算の結了等,,,2015-10-05,1,,,,,エースギケン,0
443,2340005006213,登記記録の閉鎖等,0,2024-11-27,2024-11-25,農事組合法人ふれあい緑館,,その他の設立登記法人,鹿児島県,鹿児島市,川上町１９６５番地,,46,201,8920875,,,2024-11-25,清算の結了等,,,2015-10-05,1,,,,,フレアイミドリカン,0
459,2460302004873,登記記録の閉鎖等,0,2024-11-27,2024-11-26,有限会社清野精肉店,,有限会社,北海道,斜里郡斜里町,本町２８番地２６,,01,545,0994113,,,2024-11-26,清算の結了等,,,2015-10-05,1,,,,,セイノセイニクテン,0
490,3010402026226,登記記録の閉鎖等,0,2024-11-27,2024-11-07,有限会社フリースタイル,,有限会社,東京都,港区,港南３丁目７番１,,13,103,1080075,,,2024-11-07,清算の結了等,,,2015-10-05,1,,,,,フリースタイル,0
491,3010403013396,登記記録の閉鎖等,0,2024-11-27,2024-11-12,合同会社ダジボーグ,,合同会社,東京都,港区,愛宕１丁目３番４号愛宕東洋ビル３階,,13,103,1050002,,,2024-11-12,清算の結了等,,,2015-10-05,1,,,,,ダジボーグ,0
518,3011101082493,登記記録の閉鎖等,0,2024-11-27,2024-11-18,株式会社ＩＯＲＩ　ＣＯＭＰＡＮＹ,,株式会社,東京都,新宿区,西新宿６丁目１５番１号,,13,104,1600023,,,2024-11-18,清算の結了等,,,2017-12-07,1,,,,,,0
529,3011502009748,登記記録の閉鎖等,0,2024-11-27,2024-11-22,有限会社千歳ウインド,,有限会社,東京都,北区,昭和町２丁目１３番１４－３０７号ライオンズマンション尾久第１,,13,117,1140011,,,2024-11-22,清算の結了等,,,2015-10-05,1,,,,,チトセウインド,0
545,3020001013839,登記記録の閉鎖等,0,2024-11-27,2024-11-18,株式会社ミタコーポレーション,,株式会社,神奈川県,横浜市南区,井土ケ谷中町１５７番地３１３,,14,105,2320052,,,2024-11-18,清算の結了等,,,2015-10-05,1,,,,,ミタコーポレーション,0
550,3020001126698,登記記録の閉鎖等,0,2024-11-27,2024-11-15,Ｓｋｙ　Ｆｒｏｎｔ株式会社,,株式会社,神奈川県,横浜市中区,相生町６丁目１１３番地オーク桜木町ビル７階,,14,104,2310012,,,2024-11-15,清算の結了等,,,2018-06-11,1,,,,,スカイフロント,0
553,3020003025064,登記記録の閉鎖等,0,2024-11-27,2024-11-25,合同会社ＦＬＡＩＲ,,合同会社,神奈川県,川崎市宮前区,菅生ケ丘１８－１０,,14,136,2160014,,,2024-11-25,清算の結了等,,,2023-11-27,1,,,,,フレア,0
555,3021001051234,登記記録の閉鎖等,0,2024-11-27,2024-11-25,株式会社ＬＩＴＥＮ,,株式会社,神奈川県,足柄下郡箱根町,湯本６９１番地１０浅野ビル４階,,14,382,2500311,,,2024-11-25,清算の結了等,,,2015-10-05,1,,,,,,0
560,3021003003704,登記記録の閉鎖等,0,2024-11-27,2024-11-22,シン合同会社,,合同会社,神奈川県,小田原市,穴部１７４番地の１６若林テラス１０２,,14,206,2500053,,,2024-11-22,清算の結了等,,,2015-10-05,1,,,,,シン,0
568,3040001032341,登記記録の閉鎖等,0,2024-11-27,2024-10-25,株式会社ｂｐ１,,株式会社,千葉県,浦安市,北栄１丁目６番２３－１０１号,,12,227,2790002,,,2024-10-25,清算の結了等,,,2015-10-05,1,,,,,ビーピーワン,0
607,3130002025434,登記記録の閉鎖等,0,2024-11-27,2024-11-25,有限会社原子電気工業,,有限会社,京都府,長岡京市,奥海印寺普毛１１番地１,,26,209,6170853,,,2024-11-25,清算の結了等,,,2015-10-05,1,,,,,ハラコデンキコウギョウ,0
613,3140002034186,登記記録の閉鎖等,0,2024-11-27,2024-11-22,有限会社斎藤写真館,,有限会社,兵庫県,赤穂市,加里屋中洲３丁目６３番地,,28,212,6780233,,,2024-11-22,清算の結了等,,,2015-10-05,1,,,,,サイトウシャシンカン,0
617,3180001010143,登記記録の閉鎖等,0,2024-11-27,2024-11-20,株式会社クラタヤ,,株式会社,愛知県,名古屋市瑞穂区,瑞穂通１丁目５番地,,23,108,4670806,,,2024-11-20,清算の結了等,,,2015-10-05,1,,,,,クラタヤ,0
638,3240001037147,登記記録の閉鎖等,0,2024-11-27,2024-11-26,株式会社ＫＮ情報経営研究所,,株式会社,広島県,安芸郡坂町,坂西２丁目４番１０号,,34,309,7314314,,,2024-11-26,清算の結了等,,,2015-10-05,1,,,,,,0
645,3290001057909,登記記録の閉鎖等,0,2024-11-27,2024-11-01,株式会社ビースパ,,株式会社,福岡県,福岡市南区,塩原４丁目１番３１号,,40,134,8150032,,,2024-11-01,合併による解散等,7290001007562,令和６年１１月１日福岡市中央区天神五丁目１０番１１号株式会社コミュニティサービス（7290001007562）に合併し解散,2015-10-05,1,,,,,ビースパ,0
652,3290003014528,登記記録の閉鎖等,0,2024-11-27,2024-10-29,ファミリーオフィス合同会社,,合同会社,福岡県,福岡市中央区,唐人町１丁目２番３－１３０５号,,40,133,8100063,,,2024-10-29,清算の結了等,,,2023-10-25,1,,,,,ファミリーオフィス,0
655,3310002002183,登記記録の閉鎖等,0,2024-11-27,2024-11-25,有限会社サロン長崎,,有限会社,長崎県,長崎市,万屋町２番２１号,,42,201,8500852,,,2024-11-25,清算の結了等,,,2015-10-05,1,,,,,サロンナガサキ,0
656,3310002011250,登記記録の閉鎖等,0,2024-11-27,2024-11-22,有限会社パルコム,,有限会社,長崎県,佐世保市,柚木元町２６１０番地,,42,202,8570115,,,2024-11-22,清算の結了等,,,2015-10-05,1,,,,,パルコム,0
661,3350001006248,登記記録の閉鎖等,0,2024-11-27,2024-11-25,株式会社甲輝建設,,株式会社,宮崎県,東臼杵郡椎葉村,大字松尾１１１５番地５,,45,430,8831604,,,2024-11-25,清算の結了等,,,2015-10-05,1,,,,,コウキケンセツ,0
668,3370002009272,登記記録の閉鎖等,0,2024-11-27,2024-11-15,有限会社アース不動産,,有限会社,宮城県,仙台市青葉区,片平１丁目３番３－６０４号,,04,101,9800812,,,2024-11-15,清算の結了等,,,2015-10-05,1,,,,,アースフドウサン,0
670,3370301002630,登記記録の閉鎖等,0,2024-11-27,2024-11-18,株式会社タイヘイ,,株式会社,宮城県,石巻市,蛇田字下中埣２番地３,,04,202,9860861,,,2024-11-18,清算の結了等,,,2015-10-05,1,,,,,タイヘイ,0
676,3400001014237,登記記録の閉鎖等,0,2024-11-27,2024-11-20,株式会社ジェーエーシーアグリ,,株式会社,宮城県,刈田郡蔵王町,大字小村崎字山崎１４番地１,,04,301,9890841,,,2024-11-20,清算の結了等,,,2018-07-25,1,,,,,ジェーエーシーアグリ,0
678,3400005007625,登記記録の閉鎖等,0,2024-11-27,2024-11-20,特定非営利活動法人自閉症スペクトラム個別早期療育室じゃじゃじゃロケット,,その他の設立登記法人,岩手県,岩手郡雫石町,中沼３番地３,,03,301,0200504,,,2024-11-20,清算の結了等,,,2016-01-28,1,,,,,ジヘイショウスペクトラムコベツソウキリョウイクシツジャジャジャロケット,0
679,3410001007966,登記記録の閉鎖等,0,2024-11-27,2024-11-20,山王商市株式会社,,株式会社,秋田県,仙北郡美郷町,本堂城回字川囗道北３６３番地１,,05,434,0191512,,,2024-11-20,清算の結了等,,,2015-10-05,1,,,,,サンノウショウジ,0
703,4010001228593,登記記録の閉鎖等,0,2024-11-27,2024-11-14,株式会社Ｍｉｘｅｄ　Ｎｕｔｓ,,株式会社,東京都,中央区,銀座１丁目１２－４Ｎ＆ＥＢＬＤ．７階,,13,102,1040061,,,2024-11-14,清算の結了等,,,2022-08-04,1,,,,,ミックスナッツ,0
714,4010401169603,登記記録の閉鎖等,0,2024-11-27,2024-10-24,Ｓｐａｒｋｌｅ’ｓ株式会社,,株式会社,東京都,港区,芝２丁目２番１５号芝２丁目ビル５Ｆ,,13,103,1050014,,,2024-10-24,清算の結了等,,,2022-09-12,1,,,,,スパークルス,0
716,4010403014963,登記記録の閉鎖等,0,2024-11-27,2024-11-11,合同会社ライフＤ,,合同会社,東京都,港区,虎ノ門３丁目１８番１２－５０２号,,13,103,1050001,,,2024-11-11,清算の結了等,,,2016-06-24,1,,,,,ライフディー,0
723,4010405010952,登記記録の閉鎖等,0,2024-11-27,2024-11-21,一般財団法人希望日本,,その他の設立登記法人,東京都,千代田区,霞が関３丁目３番１号尚友会館６階,,13,101,1000013,,,2024-11-21,清算の結了等,,,2015-10-05,1,,,,,キボウニッポン,0
724,4010405019110,登記記録の閉鎖等,0,2024-11-27,2024-11-12,Ｎａｇｏｙａ　Ｙａｔｏｍｉ　Ｄｅｖｅｌｏｐｍｅｎｔ特定目的会社,,その他の設立登記法人,東京都,港区,六本木１丁目９番１０号アークヒルズ仙石山森タワー４０階,,13,103,1060032,,,2024-11-12,清算の結了等,,,2020-09-17,1,,,,,,0
728,4010501015376,登記記録の閉鎖等,0,2024-11-27,2024-11-21,株式会社ワイ．エム．ディー建築設計研究所,00051162,株式会社,東京都,台東区,浅草１丁目１１番１号,,13,106,1110032,,,2024-11-21,清算の結了等,,,2015-10-05,1,,,,,ワイエムディーケンチクセッケイケンキュウジョ,0
744,4011001019850,登記記録の閉鎖等,0,2024-11-27,2024-11-08,株式会社瓢月堂,,株式会社,東京都,渋谷区,広尾４丁目１番４－１０４号,,13,113,1500012,,,2024-11-08,清算の結了等,,,2015-10-05,1,,,,,ヒョウゲツドウ,0
745,4011001107390,登記記録の閉鎖等,0,2024-11-27,2024-11-11,株式会社保険サポート,,株式会社,埼玉県,上尾市,大字瓦葺２４２１番地１５,,11,219,3620022,,,2024-11-11,清算の結了等,,,2015-10-05,1,,,,,ホケンサポート,0
753,4011101086287,登記記録の閉鎖等,0,2024-11-27,2024-11-22,株式会社ａｔａｒａｙｏ,,株式会社,東京都,新宿区,百人町２丁目２６番５号マイルドビル７０２,,13,104,1690073,,,2024-11-22,合併による解散等,4012701011510,令和６年１１月１日東京都西東京市芝久保町一丁目１２番５０号パークウエスト東京Ｉ－４０１タチバナ・グローバルインシュアランス株式会社（4012701011510）に合併し解散,2018-12-12,1,,,,,アタラヨ,0
754,4011101088762,登記記録の閉鎖等,0,2024-11-27,2024-11-18,協友印刷株式会社,,株式会社,東京都,新宿区,東榎町１０－３市川製本所ビル２Ｆ,,13,104,1620807,,,2024-11-18,清算の結了等,,,2019-08-27,1,,,,,キョウユウインサツ,0
761,4011501006803,登記記録の閉鎖等,0,2024-11-27,2024-11-25,株式会社シーズプロダクツ,,株式会社,東京都,荒川区,東日暮里１丁目１１番４－６０２号,,13,118,1160014,,,2024-11-25,清算の結了等,,,2015-10-05,1,,,,,シーズプロダクツ,0
775,4020002097731,登記記録の閉鎖等,0,2024-11-27,2024-11-15,有限会社田代,,有限会社,神奈川県,川崎市川崎区,中瀬２丁目４番３号,,14,131,2100818,,,2024-11-15,清算の結了等,,,2015-10-05,1,,,,,タシロ,0
788,4030001139566,登記記録の閉鎖等,0,2024-11-27,2024-11-22,株式会社マットエンタープライズ,,株式会社,埼玉県,春日部市,牛島１３４８番地,,11,214,3440004,,,2024-11-22,清算の結了等,,,2020-12-03,1,,,,,マットエンタープライズ,0
793,4040001018265,登記記録の閉鎖等,0,2024-11-27,2024-11-25,中島ウール株式会社,,株式会社,千葉県,船橋市,藤原７丁目７番１０号,,12,204,2730047,,,2024-11-25,清算の結了等,,,2015-10-05,1,,,,,ナカジマウール,0
794,4040001026763,登記記録の閉鎖等,0,2024-11-27,2024-11-22,太陽警備保障株式会社,,株式会社,千葉県,市川市,南八幡４丁目８番９号ニューグリーンビル４階,,12,203,2720023,,,2024-11-22,清算の結了等,,,2015-10-05,1,,,,,タイヨウケイビホショウ,0
800,4050001019816,登記記録の閉鎖等,0,2024-11-27,2024-11-20,株式会社創森住宅,,株式会社,茨城県,石岡市,石岡１３４６２番地２０,,08,205,3150001,,,2024-11-20,清算の結了等,,,2015-10-05,1,,,,,ソウシンジュウタク,0
805,4070001029887,登記記録の閉鎖等,0,2024-11-27,2024-11-26,株式会社カムラッド,,株式会社,群馬県,高崎市,京目町２４７番地１,,10,202,3700011,,,2024-11-26,清算の結了等,,,2015-10-05,1,,,,,カムラッド,0
807,4080401009967,登記記録の閉鎖等,0,2024-11-27,2024-11-25,浜松グリーンウェーブ株式会社,,株式会社,静岡県,浜松市中央区,篠原町２６０９８番地の１,,22,138,4310201,,,2024-11-25,清算の結了等,,,2015-10-05,1,,,,,ハママツグリーンウェーブ,0
817,4100005011359,登記記録の閉鎖等,0,2024-11-27,2024-11-25,一般財団法人浅間山麓スポーツ医学研究所,,その他の設立登記法人,長野県,小諸市,大字滝原１２５７番地１,,20,208,3840045,,,2024-11-25,清算の結了等,,,2015-10-05,1,,,,,アサマサンロクスポーツイガクケンキュウジョ,0
831,4120103002308,登記記録の閉鎖等,0,2024-11-27,2024-11-25,合同会社ＭＹコンサルティング,,合同会社,大阪府,羽曳野市,はびきの３丁目９番１０号,,27,222,5830872,,,2024-11-25,清算の結了等,,,2015-11-04,1,,,,,エムワイコンサルティング,0
841,4140002062450,登記記録の閉鎖等,0,2024-11-27,2024-11-21,北条神姫タクシー有限会社,,有限会社,兵庫県,加西市,北条町横尾６１３番地の３,,28,220,6752311,,,2024-11-21,清算の結了等,,,2015-10-05,1,,,,,イズミガラス,0
860,4180301024610,登記記録の閉鎖等,0,2024-11-27,2024-11-18,株式会社エイ・ゼットクラフト,,株式会社,愛知県,豊田市,水源町２丁目３３番９,,23,211,4710822,,,2024-11-18,合併による解散等,7180302020845,令和６年１１月１８日愛知県豊田市水源町二丁目３３番９株式会社エイ・ゼットサービス（7180302020845）に合併し解散,2015-10-05,1,,,,,エイゼットクラフト,0
870,4230001006894,登記記録の閉鎖等,0,2024-11-27,2024-11-25,ホスピスライフサポート株式会社,,株式会社,富山県,富山市,栃谷２４４番地,,16,201,9300163,,,2024-11-25,清算の結了等,,,2015-10-05,1,,,,,ホスピスライフサポート,0
880,4260002014976,登記記録の閉鎖等,0,2024-11-27,2024-11-26,かもや製菓有限会社,,有限会社,岡山県,赤磐市,周匝７２５番地の１,,33,213,7012503,,,2024-11-26,清算の結了等,,,2015-10-05,1,,,,,カモヤセイカ,0
896,4320002007560,登記記録の閉鎖等,0,2024-11-27,2024-11-25,有限会社宮東,,有限会社,大分県,大分市,大字旦野原８５７番地の６,,44,201,8701124,,,2024-11-25,清算の結了等,,,2015-10-05,1,,,,,ミヤヒデ,0
903,4340002014910,登記記録の閉鎖等,0,2024-11-27,2024-11-25,有限会社くりの高原製茶,,有限会社,鹿児島県,姶良郡湧水町,木場２４８５番地,,46,452,8996201,,,2024-11-25,清算の結了等,,,2015-10-05,1,,,,,クリノコウゲンセイチャ,0
908,4380002017439,登記記録の閉鎖等,0,2024-11-27,2024-11-15,有限会社阿部会計事務センター,,有限会社,福島県,西白河郡矢吹町,新町２２９番地２,,07,466,9690202,,,2024-11-15,清算の結了等,,,2015-10-05,1,,,,,アベカイケイジムセンター,0
911,4400002003312,登記記録の閉鎖等,0,2024-11-27,2024-11-21,有限会社明治屋,,有限会社,岩手県,盛岡市,上ノ橋町８番８号,,03,201,0200887,,,2024-11-21,清算の結了等,,,2015-10-05,1,,,,,メイジヤ,0
912,4400002004500,登記記録の閉鎖等,0,2024-11-27,2024-11-20,有限会社藤原建築板金,,有限会社,岩手県,盛岡市,上鹿妻竹花前６４番地６,,03,201,0200855,,,2024-11-20,清算の結了等,,,2015-10-05,1,,,,,フジワラケンチクバンキン,0
918,4420002006214,登記記録の閉鎖等,0,2024-11-27,2024-11-22,有限会社上野総合断熱,,有限会社,青森県,八戸市,大字白銀町字右新井田道１３番地２３,,02,203,0310822,,,2024-11-22,清算の結了等,,,2015-10-05,1,,,,,ウワノソウゴウダンネツ,0
919,4420002014142,登記記録の閉鎖等,0,2024-11-27,2024-11-25,有限会社福士精肉店,,有限会社,青森県,弘前市,大字文京町１６番地６,,02,202,0368224,,,2024-11-25,清算の結了等,,,2015-10-05,1,,,,,フクシセイニクテン,0
923,4470001019947,登記記録の閉鎖等,0,2024-11-27,2024-11-22,株式会社Ｃｉｇａｒ　Ｖｉｓｉｏｎ,,株式会社,香川県,高松市,亀井町４番地３,,37,201,7600050,,,2024-11-22,清算の結了等,,,2023-12-21,1,,,,,シガービジョン,0
928,4500001001711,登記記録の閉鎖等,0,2024-11-27,2024-11-22,サークルケイ四国株式会社,,株式会社,愛媛県,松山市,勝山町１丁目１４番地１,,38,201,7900878,,,2024-11-22,清算の結了等,,,2015-10-05,1,,,,,サークルケイシコク,0
929,4500001001744,登記記録の閉鎖等,0,2024-11-27,2024-11-22,サンクス西四国株式会社,,株式会社,愛媛県,松山市,勝山町１丁目１４番地１,,38,201,7900878,,,2024-11-22,清算の結了等,,,2015-10-05,1,,,,,サンクスニシシコク,0
952,5010005025086,登記記録の閉鎖等,0,2024-11-27,2024-11-22,一般社団法人中立第三者法人,,その他の設立登記法人,東京都,千代田区,神田神保町１丁目１１番地さくら綜合事務所内,,13,101,1010051,,,2024-11-22,清算の結了等,,,2016-03-11,1,,,,,チュウリツダイサンシャホウジン,0
957,5010401135232,登記記録の閉鎖等,0,2024-11-27,2024-11-12,智同日本株式会社,,株式会社,東京都,港区,三田１丁目２番１８号ＴＴＤビル,,13,103,1080073,,,2024-11-12,清算の結了等,,,2017-11-28,1,,,,,チドウニホン,0
960,5010501016497,登記記録の閉鎖等,0,2024-11-27,2024-11-20,株式会社ペルシャンワールド,,株式会社,東京都,台東区,柳橋２丁目２１－１２エクセレント浅草橋６０３号,,13,106,1110052,,,2024-11-20,清算の結了等,,,2015-10-05,1,,,,,ペルシャンワールド,0
964,5010801002429,登記記録の閉鎖等,0,2024-11-27,2024-11-15,株式会社角市,,株式会社,東京都,大田区,東海３丁目２番６号,,13,111,1430001,,,2024-11-15,合併による解散等,9010801009552,令和６年１１月１日東京都大田区東海三丁目２番６号株式会社野富（9010801009552）に合併し解散,2015-10-05,1,,,,,カドイチ,0
970,5010902002311,登記記録の閉鎖等,0,2024-11-27,2024-11-21,有限会社エイボン,,有限会社,東京都,世田谷区,成城５丁目１８番８号,,13,112,1570066,,,2024-11-21,清算の結了等,,,2015-10-05,1,,,,,エイボン,0
986,5011601015356,登記記録の閉鎖等,0,2024-11-27,2024-11-19,株式会社ライアンシステム,,株式会社,東京都,練馬区,下石神井５丁目１１番１号,,13,120,1770042,,,2024-11-19,清算の結了等,,,2015-10-05,1,,,,,ライアンシステム,0
1005,5020002022168,登記記録の閉鎖等,0,2024-11-27,2024-11-18,有限会社蓮本設備,,有限会社,神奈川県,横浜市旭区,南本宿町８５番地の１８,,14,112,2410833,,,2024-11-18,清算の結了等,,,2015-10-05,1,,,,,ハスモトセツビ,0
1006,5020003009552,登記記録の閉鎖等,0,2024-11-27,2024-11-15,合同会社リーガル・マーケ,,合同会社,神奈川県,横浜市金沢区,六浦南４丁目２０番２－２１４号,,14,108,2360038,,,2024-11-15,清算の結了等,,,2015-10-05,1,,,,,リーガルマーケ,0
1012,5021003013065,登記記録の閉鎖等,0,2024-11-27,2024-11-26,ｅ‐ＱＯＬ合同会社,,合同会社,東京都,稲城市,押立１１４４－１ビラ多摩川１０２,,13,225,2060811,,,2024-11-26,清算の結了等,,,2023-05-11,1,,,,,イークォル,0
1026,5040001046736,登記記録の閉鎖等,0,2024-11-27,2024-11-22,株式会社ク・ム・ス・プラニング,,株式会社,千葉県,佐倉市,石川６２９番地９,,12,212,2850813,,,2024-11-22,清算の結了等,,,2015-10-05,1,,,,,クムスプラニング,0
1027,5040001099263,登記記録の閉鎖等,0,2024-11-27,2024-11-20,株式会社柳橋テクニカルデザイン,,株式会社,千葉県,大網白里市,柳橋７９９番地２６,,12,239,2993263,,,2024-11-20,清算の結了等,,,2017-03-10,1,,,,,ヤナギハシテクニカルデザイン,0
1036,5040002017942,登記記録の閉鎖等,0,2024-11-27,2024-11-22,アイテック有限会社,,有限会社,千葉県,習志野市,袖ケ浦５丁目７番２０号,,12,216,2750021,,,2024-11-22,清算の結了等,,,2015-10-05,1,,,,,アイテック,0
1038,5040003011622,登記記録の閉鎖等,0,2024-11-27,2024-11-25,金鈴商事株式会社,,株式会社,東京都,荒川区,南千住１丁目５番５号,,13,118,1160003,,,2024-11-25,清算の結了等,,,2018-05-09,1,,,,,キンレイショウジ,0
1045,5050003007941,登記記録の閉鎖等,0,2024-11-27,2024-11-19,ＨＡＣＨＩ合同会社,,合同会社,茨城県,稲敷郡美浦村,大字土屋３１２６番地３５２,,08,442,3000426,,,2024-11-19,清算の結了等,,,2023-11-13,1,,,,,ハチ,0
1059,5110001026904,登記記録の閉鎖等,0,2024-11-27,2024-11-21,株式会社黒島工業,,株式会社,新潟県,魚沼市,堀之内３２９５番地１,,15,225,9497413,,,2024-11-21,清算の結了等,,,2015-10-05,1,,,,,クロシマコウギョウ,0
1082,5130001001228,登記記録の閉鎖等,0,2024-11-27,2024-11-25,大和都産業株式会社,,株式会社,京都府,京都市右京区,花園扇野町１２番地グリーンハイツ大和１０７号,,26,108,6168044,,,2024-11-25,清算の結了等,,,2015-10-05,1,,,,,ダイワミヤコサンギョウ,0
1084,5130001058375,登記記録の閉鎖等,0,2024-11-27,2024-11-25,株式会社ぜにや,,株式会社,京都府,宇治市,広野町尖山４番地の９５９,,26,204,6110031,,,2024-11-25,清算の結了等,,,2016-10-06,1,,,,,ゼニヤ,0
1089,5140001038987,登記記録の閉鎖等,0,2024-11-27,2024-11-22,協和建設株式会社,,株式会社,兵庫県,宍粟市,山崎町庄能１４３番地の６,,28,227,6712572,,,2024-11-22,清算の結了等,,,2015-10-05,1,,,,,キョウワケンセツ,0
1096,5140002020102,登記記録の閉鎖等,0,2024-11-27,2024-11-25,有限会社ウーノ,,有限会社,兵庫県,神戸市灘区,岩屋中町５丁目２番２１,,28,102,6570845,,,2024-11-25,清算の結了等,,,2015-10-05,1,,,,,ウーノ,0
1115,5180003025609,登記記録の閉鎖等,0,2024-11-27,2024-11-18,合同会社イチナナ,,合同会社,愛知県,名古屋市名東区,藤見が丘９８Ｌａｃａｎｇ３０２,,23,115,4650048,,,2024-11-18,清算の結了等,,,2023-10-18,1,,,,,イチナナ,0
1125,5190003001518,登記記録の閉鎖等,0,2024-11-27,2024-11-25,株式会社ＪＯＩＮＴ　ＥＤＧＥ,,株式会社,三重県,四日市市,西新地７番３号,,24,202,5100087,,,2024-11-25,清算の結了等,,,2015-10-05,1,,,,,ジョイントエッジ,0
1128,5200001027785,登記記録の閉鎖等,0,2024-11-27,2024-11-22,株式会社エヌケー,,株式会社,岐阜県,加茂郡川辺町,鹿塩５１８番地,,21,503,5090307,,,2024-11-22,清算の結了等,,,2015-10-05,1,,,,,エヌケー,0
1148,5290801024263,登記記録の閉鎖等,0,2024-11-27,2024-11-25,株式会社ソフィールコーポレーション,,株式会社,福岡県,北九州市小倉北区,弁天町５番２号,,40,106,8030856,,,2024-11-25,清算の結了等,,,2018-01-10,1,,,,,ソフィールコーポレーション,0
1151,5290802003258,登記記録の閉鎖等,0,2024-11-27,2024-11-20,有限会社城東モータース,,有限会社,福岡県,北九州市小倉北区,明和町９番３号,,40,106,8020017,,,2024-11-20,清算の結了等,,,2015-10-05,1,,,,,ジョウトウモータース,0
1173,5430001021625,登記記録の閉鎖等,0,2024-11-27,2024-11-22,株式会社北海道オーレス,,株式会社,北海道,札幌市白石区,東札幌五条５丁目４番３０－５０１号,,01,104,0030005,,,2024-11-22,清算の結了等,,,2015-10-05,1,,,,,ホッカイドウオーレス,0
1176,5470001016803,登記記録の閉鎖等,0,2024-11-27,2024-11-26,株式会社セイユウ,,株式会社,東京都,中野区,東中野５丁目１１番８号Ｂ１,,13,114,1640003,,,2024-11-26,清算の結了等,,,2018-04-04,1,,,,,セイユウ,0
1210,6010602022996,登記記録の閉鎖等,0,2024-11-27,2024-11-22,有限会社イイダ,,有限会社,東京都,江東区,木場２丁目３番２号,,13,108,1350042,,,2024-11-22,清算の結了等,,,2015-10-05,1,,,,,イイダ,0
1218,6010802004043,登記記録の閉鎖等,0,2024-11-27,2024-11-18,有限会社共栄鍍金工業所,,有限会社,東京都,大田区,東糀谷６丁目３番１号,,13,111,1440033,,,2024-11-18,清算の結了等,,,2015-10-05,1,,,,,キョウエイメッキ,0
1219,6010901014315,登記記録の閉鎖等,0,2024-11-27,2024-11-22,株式会社アイマックスメディカルシステム,,株式会社,東京都,世田谷区,岡本１丁目２番５号,,13,112,1570076,,,2024-11-22,清算の結了等,,,2015-10-05,1,,,,,アイマックスメディカルシステム,0
1239,6011503005603,登記記録の閉鎖等,0,2024-11-27,2024-11-25,合同会社ＨＥＡＤＳ,,合同会社,東京都,北区,上中里１丁目４１番３号,,13,117,1140016,,,2024-11-25,清算の結了等,,,2023-05-15,1,,,,,ヘッズ,0
1264,6021003000921,登記記録の閉鎖等,0,2024-11-27,2024-11-21,合資会社清富商店,,合資会社,神奈川県,鎌倉市,材木座３丁目９番３１号,,14,204,2480013,,,2024-11-21,清算の結了等,,,2015-10-05,1,,,,,キヨトミショウテン,0
1271,6030001143509,登記記録の閉鎖等,0,2024-11-27,2024-11-22,株式会社ＺＹＬ,,株式会社,埼玉県,さいたま市大宮区,桜木町１丁目１８８番地１大宮ニチエイビル４Ｆ,,11,103,3300854,,,2024-11-22,清算の結了等,,,2021-07-28,1,,,,,ジール,0
1279,6040001005402,登記記録の閉鎖等,0,2024-11-27,2024-11-22,トーヨー千葉株式会社,,株式会社,千葉県,千葉市中央区,春日２丁目１８番３号,,12,101,2600033,,,2024-11-22,清算の結了等,,,2015-10-05,1,,,,,,0
1289,6040005022229,登記記録の閉鎖等,0,2024-11-27,2024-11-18,一般社団法人いちかわ未来の学校,,その他の設立登記法人,千葉県,市川市,八幡３丁目７－２ｃｏ，ｄｏ本八幡,,12,203,2720021,,,2024-11-18,清算の結了等,,,2023-12-25,1,,,,,イチカワミライノガッコウ,0
1292,6060002032930,登記記録の閉鎖等,0,2024-11-27,2024-11-21,有限会社熊倉住宅,,有限会社,栃木県,栃木市,大平町川連５０３番地,,09,203,3294407,,,2024-11-21,清算の結了等,,,2015-10-05,1,,,,,クマクラジュウタク,0
1293,6070001007263,登記記録の閉鎖等,0,2024-11-27,2024-11-26,株式会社シュウワエンジニアリング,,株式会社,群馬県,高崎市,下豊岡町１４８２番地,,10,202,3700873,,,2024-11-26,清算の結了等,,,2015-10-05,1,,,,,シュウワエンジニアリング,0
1309,6110002021688,登記記録の閉鎖等,0,2024-11-27,2024-11-21,有限会社新飯田屋,,有限会社,新潟県,村上市,岩船上町３番６号,,15,212,9580051,,,2024-11-21,清算の結了等,,,2015-10-05,1,,,,,ニイダヤ,0
1310,6120001021812,登記記録の閉鎖等,0,2024-11-27,2024-11-25,宮崎＿工金型株式会社,00110853,株式会社,大阪府,八尾市,西高安町４丁目３１番地の１,,27,212,5810852,,,2024-11-25,清算の結了等,,,2015-10-05,1,,,,,ミヤザキテッコウカナガタ,0
1311,6120001025887,登記記録の閉鎖等,0,2024-11-27,2024-11-25,株式会社ワールド交通社,,株式会社,大阪府,大阪市生野区,小路東３丁目１８番１５号,,27,116,5440003,,,2024-11-25,清算の結了等,,,2015-10-05,1,,,,,ワールドコウツウシャ,0
1320,6120001200135,登記記録の閉鎖等,0,2024-11-27,2024-11-22,株式会社カルヴォ,,株式会社,大阪府,大阪市西区,江戸堀１丁目９番１号肥後橋センタービル１８階,,27,106,5500002,,,2024-11-22,清算の結了等,,,2016-08-15,1,,,,,カルヴォ,0
1330,6120003015572,登記記録の閉鎖等,0,2024-11-27,2024-11-25,メガソーラー開発１号合同会社,,合同会社,大阪府,大阪市中央区,淡路町２丁目６番１１号,,27,128,5410047,,,2024-11-25,清算の結了等,,,2019-04-11,1,,,,,メガソーラーカイハツイチゴウ,0
1331,6120003017008,登記記録の閉鎖等,0,2024-11-27,2024-11-25,合同会社Ｙ,,合同会社,大阪府,大阪市中央区,島之内１丁目１５－２９－７０９,,27,128,5420082,,,2024-11-25,清算の結了等,,,2020-02-19,1,,,,,ワイ,0
1336,6120102014608,登記記録の閉鎖等,0,2024-11-27,2024-11-21,有限会社マルエム,,有限会社,大阪府,松原市,丹南５丁目６１０－１,,27,217,5800013,,,2024-11-21,清算の結了等,,,2015-10-05,1,,,,,マルエム,0
1358,6160001022071,登記記録の閉鎖等,0,2024-11-27,2024-11-26,株式会社ゴトウマネージメント,,株式会社,滋賀県,栗東市,大橋４丁目１番５号,,25,208,5203046,,,2024-11-26,清算の結了等,,,2019-11-06,1,,,,,ゴトウマネージメント,0
1378,6200002002852,登記記録の閉鎖等,0,2024-11-27,2024-11-26,有限会社竹村商店,,有限会社,岐阜県,岐阜市,美園町４丁目１７番地,,21,201,5008104,,,2024-11-26,清算の結了等,,,2015-10-05,1,,,,,タケムラショウテン,0
1383,6210002013097,登記記録の閉鎖等,0,2024-11-27,2024-11-25,有限会社スリーエス・アイ,,有限会社,福井県,鯖江市,水落町３丁目１０番２２号,,18,207,9160022,,,2024-11-25,清算の結了等,,,2015-10-05,1,,,,,スリーエスアイ,0
1384,6220002005795,登記記録の閉鎖等,0,2024-11-27,2024-11-25,有限会社味蘭,,有限会社,石川県,金沢市,駅西本町１丁目３番２２号,,17,201,9200025,,,2024-11-25,清算の結了等,,,2015-10-05,1,,,,,ミラン,0
1386,6230001015051,登記記録の閉鎖等,0,2024-11-27,2024-11-25,株式会社生活支援,,株式会社,富山県,富山市,八尾町福島字牧野５１番地,,16,201,9392376,,,2024-11-25,清算の結了等,,,2015-10-05,1,,,,,セイカツシエン,0
1388,6240001048348,登記記録の閉鎖等,0,2024-11-27,2024-11-25,日建工株式会社,,株式会社,広島県,福山市,大門町４丁目１３番２７号,,34,207,7210926,,,2024-11-25,清算の結了等,,,2015-10-20,1,,,,,ニッケンコウ,0
1389,6240001054635,登記記録の閉鎖等,0,2024-11-27,2024-11-21,株式会社岳盆栽,,株式会社,香川県,高松市,天神前１０番５号高松セントラルスカイビルディング３Ｆｓｏｕｔｈ,,37,201,7600018,,,2024-11-21,清算の結了等,,,2019-07-08,1,,,,,ガクボンサイ,0
1395,6290001041562,登記記録の閉鎖等,0,2024-11-27,2024-10-28,フタバ住宅株式会社,,株式会社,福岡県,大野城市,中３丁目１４番６号,,40,219,8160906,,,2024-10-28,清算の結了等,,,2015-10-05,1,,,,,,0
1396,6290001043476,登記記録の閉鎖等,0,2024-11-27,2024-10-30,心フーズ株式会社,,株式会社,福岡県,大野城市,畑ケ坂１丁目８番１０号,,40,219,8160982,,,2024-10-30,清算の結了等,,,2015-10-05,1,,,,,ココロフーズ,0
1410,6290801017225,登記記録の閉鎖等,0,2024-11-27,2024-11-20,株式会社えびす商会,,株式会社,福岡県,鞍手郡鞍手町,大字室木７１４番地,,40,402,8071307,,,2024-11-20,清算の結了等,,,2015-10-05,1,,,,,エビスショウカイ,0
1421,6310002006990,登記記録の閉鎖等,0,2024-11-27,2024-11-26,有限会社大伸技研,,有限会社,長崎県,長崎市,平瀬町８０番地１三浦ビル２Ｆ,,42,201,8500985,,,2024-11-26,清算の結了等,,,2015-10-05,1,,,,,,0
1423,6320001014738,登記記録の閉鎖等,0,2024-11-27,2024-11-25,株式会社ＴＳＫ,,株式会社,大分県,大分市,乙津町１番１６号,,44,201,8700145,,,2024-11-25,清算の結了等,,,2016-02-17,1,,,,,ティーエスケー,0
1424,6330002018877,登記記録の閉鎖等,0,2024-11-27,2024-11-20,有限会社アーク工業,,有限会社,熊本県,山鹿市,菊鹿町上永野２１９４番地の１,,43,208,8610404,,,2024-11-20,清算の結了等,,,2015-10-05,1,,,,,,0
1430,6360001002004,登記記録の閉鎖等,0,2024-11-27,2024-11-25,株式会社マトリックス,,株式会社,沖縄県,那覇市,久茂地２丁目２番２号,,47,201,9000015,,,2024-11-25,清算の結了等,,,2015-10-05,1,,,,,マトリックス,0
1435,6380002026702,登記記録の閉鎖等,0,2024-11-27,2024-11-13,有限会社吉治総合設計事務所,,有限会社,福島県,いわき市,山田町塙沢１５２番地の４,,07,204,9748241,,,2024-11-13,清算の結了等,,,2015-10-05,1,,,,,ヨシハルソウゴウセッケイジムショ,0
1436,6390002003568,登記記録の閉鎖等,0,2024-11-27,2024-11-19,有限会社大滝工務店,,有限会社,山形県,山形市,大字沼木４３３番地４５,,06,201,9902474,,,2024-11-19,清算の結了等,,,2015-10-05,1,,,,,オオタキコウムテン,0
1438,6400002009373,登記記録の閉鎖等,0,2024-11-27,2024-11-22,有限会社さわだ商店,,有限会社,岩手県,北上市,村崎野２４地割４６番地１５,,03,206,0240004,,,2024-11-22,清算の結了等,,,2015-10-05,1,,,,,サワダショウテン,0
1447,6420002006534,登記記録の閉鎖等,0,2024-11-27,2024-11-22,有限会社カニサワ工務店,,有限会社,青森県,八戸市,大字新井田字長宝野１２番地５９,,02,203,0310813,,,2024-11-22,清算の結了等,,,2015-10-05,1,,,,,カニサワコウムテン,0
1456,7010001097854,登記記録の閉鎖等,0,2024-11-27,2024-11-25,株式会社ボイス,,株式会社,東京都,江東区,塩浜１丁目６番８号１５０２室,,13,108,1350043,,,2024-11-25,清算の結了等,,,2015-10-05,1,,,,,ボイス,0
1457,7010001154515,登記記録の閉鎖等,0,2024-11-27,2024-11-13,大樹リスクマネジメント株式会社,,株式会社,東京都,中央区,銀座７丁目２番２２号銀座同和ビル３階,,13,102,1040061,,,2024-11-13,清算の結了等,,,2015-10-05,1,,,,,タイジュリスクマネジメント,0
1477,7010405013531,登記記録の閉鎖等,0,2024-11-27,2024-11-11,Ａｓｌａｎ特定目的会社,,その他の設立登記法人,東京都,港区,虎ノ門２丁目６番１号,,13,103,1050001,,,2024-11-11,清算の結了等,,,2015-10-05,1,,,,,アスラン,0
1483,7010602021956,登記記録の閉鎖等,0,2024-11-27,2024-11-22,有限会社マエダ,,有限会社,東京都,墨田区,本所１丁目３１番２号,,13,107,1300004,,,2024-11-22,清算の結了等,,,2015-10-05,1,,,,,マエダ,0
1499,7011001143417,登記記録の閉鎖等,0,2024-11-27,2024-11-01,株式会社ＳＬＴ,,株式会社,東京都,渋谷区,神宮前６丁目２３番４号桑野ビル２階,,13,113,1500001,,,2024-11-01,清算の結了等,,,2021-10-14,1,,,,,エスエルティー,0
1502,7011001156575,登記記録の閉鎖等,0,2024-11-27,2024-11-07,介護Ｍ＆Ａパートナーズ株式会社,,株式会社,東京都,渋谷区,恵比寿４丁目２０－３恵比寿ガーデンプレイスタワー９Ｆ,,13,113,1500013,,,2024-11-07,清算の結了等,,,2023-08-25,1,,,,,カイゴエムアンドエー,0
1514,7011501017376,登記記録の閉鎖等,0,2024-11-27,2024-11-01,中産業株式会社,,株式会社,東京都,杉並区,阿佐谷北６丁目４８番７号,,13,115,1660001,,,2024-11-01,清算の結了等,,,2015-10-05,1,,,,,ナカサンギョウ,0
1519,7011801021961,登記記録の閉鎖等,0,2024-11-27,2024-11-25,エスプラ株式会社,,株式会社,東京都,葛飾区,小菅４丁目１４番５－６０１号,,13,122,1240001,,,2024-11-25,清算の結了等,,,2015-10-05,1,,,,,エスプラ,0
1531,7021001030300,登記記録の閉鎖等,0,2024-11-27,2024-11-25,株式会社チーエンジニアリング,,株式会社,神奈川県,大和市,西鶴間５丁目４番１１号,,14,213,2420005,,,2024-11-25,清算の結了等,,,2015-10-05,1,,,,,チーエンジニアリング,0
1532,7021002055346,登記記録の閉鎖等,0,2024-11-27,2024-11-26,甲斐建設有限会社,,有限会社,神奈川県,小田原市,飯田岡４２番地１８,,14,206,2500854,,,2024-11-26,清算の結了等,,,2015-10-05,1,,,,,カイケンセツ,0
1537,7030001135109,登記記録の閉鎖等,0,2024-11-27,2024-11-22,株式会社マットエンタープライズジャパン,,株式会社,埼玉県,春日部市,牛島１３４８番地,,11,214,3440004,,,2024-11-22,清算の結了等,,,2020-02-12,1,,,,,マットエンタープライズジャパン,0
1539,7030002014022,登記記録の閉鎖等,0,2024-11-27,2024-11-22,有限会社ヤマ建設アシスト,,有限会社,埼玉県,さいたま市見沼区,堀崎町１２４７番地の２,,11,104,3370052,,,2024-11-22,清算の結了等,,,2015-10-05,1,,,,,ヤマケンセツアシスト,0
1540,7030002042312,登記記録の閉鎖等,0,2024-11-27,2024-11-25,有限会社齊藤製作所,,有限会社,埼玉県,加須市,細間５６０番地,,11,210,3491156,,,2024-11-25,清算の結了等,,,2015-10-05,1,,,,,サイトウセイサクジョ,0
1550,7040002019367,登記記録の閉鎖等,0,2024-11-27,2024-11-22,有限会社村山製作所,,有限会社,千葉県,習志野市,本大久保１丁目１４番２２号,,12,216,2750012,,,2024-11-22,清算の結了等,,,2015-10-05,1,,,,,ムラヤマセイサクショ,0
1562,7070001035040,登記記録の閉鎖等,0,2024-11-27,2024-11-26,ＣＬＣ株式会社,,株式会社,群馬県,高崎市,京目町２４７番地１,,10,202,3700011,,,2024-11-26,清算の結了等,,,2018-09-07,1,,,,,シーエルシー,0
1571,7100001015352,登記記録の閉鎖等,0,2024-11-27,2024-11-11,株式会社三郷農業振興公社,,株式会社,長野県,安曇野市,三郷小倉４９０６番地６号,,20,220,3998103,,,2024-11-11,清算の結了等,,,2015-10-05,1,,,,,ミサトノウギョウシンコウコウシャ,0
1577,7120001087506,登記記録の閉鎖等,0,2024-11-27,2024-11-25,株式会社パルファビジネス,,株式会社,大阪府,大阪市北区,天満２丁目７番２２号,,27,127,5300043,,,2024-11-25,清算の結了等,,,2015-10-05,1,,,,,パルファビジネス,0
1583,7120002060197,登記記録の閉鎖等,0,2024-11-27,2024-11-25,有限会社ファミリーケアーサービス,,有限会社,大阪府,大阪市此花区,春日出北１丁目１３番６号,,27,104,5540021,,,2024-11-25,清算の結了等,,,2015-10-05,1,,,,,,0
1585,7120003014474,登記記録の閉鎖等,0,2024-11-27,2024-11-25,合同会社ＮＯＥＬ．Ｊ＆Ｋ．,,合同会社,大阪府,大阪市福島区,玉川２丁目３番１６号ユニライフ福島Ｂ－１１２３,,27,103,5530004,,,2024-11-25,清算の結了等,,,2018-07-09,1,,,,,ノエルジェイアンドケー,0
1592,7120901040935,登記記録の閉鎖等,0,2024-11-27,2024-11-25,株式会社リトルモア,,株式会社,大阪府,和泉市,はつが野５丁目１５番１号,,27,219,5941106,,,2024-11-25,合併による解散等,1140001112853,令和６年１１月１日兵庫県西宮市羽衣町２－７株式会社ベビーリーフ（1140001112853）に合併し解散,2019-02-18,1,,,,,リトルモア,0
1612,7150002003616,登記記録の閉鎖等,0,2024-11-27,2024-11-25,有限会社ケイエストレーディング,,有限会社,奈良県,奈良市,学園大和町６丁目１５４２番地の３９２（５０４号）,,29,201,6310041,,,2024-11-25,清算の結了等,,,2015-10-05,1,,,,,,0
1615,7170005005046,登記記録の閉鎖等,0,2024-11-27,2024-11-21,特定非営利活動法人ドクターＭＡＹＡ人道基金,,その他の設立登記法人,奈良県,奈良市,中山町西２丁目９５０番地の３７,,29,201,6310013,,,2024-11-21,清算の結了等,,,2015-10-05,1,,,,,ドクターマヤジンドウキキン,0
1619,7180001114725,登記記録の閉鎖等,0,2024-11-27,2024-11-20,株式会社ＦＴＫ,,株式会社,愛知県,名古屋市東区,葵１丁目２５番１号ニッシンビル９０１,,23,102,4610004,,,2024-11-20,清算の結了等,,,2015-10-05,1,,,,,エフティーケー,0
1625,7180003027215,登記記録の閉鎖等,0,2024-11-27,2024-11-20,合同会社鈴木商会,,合同会社,愛知県,名古屋市中村区,名駅４丁目２４番５号第２森ビル４０１,,23,105,4500002,,,2024-11-20,清算の結了等,,,2024-08-09,1,,,,,スズキショウカイ,0
1628,7190001009511,登記記録の閉鎖等,0,2024-11-27,2024-11-22,丸和産業株式会社,,株式会社,三重県,名張市,桔梗が丘５番町六街区４０番地,,24,208,5180625,,,2024-11-22,合併による解散等,1011601001855,令和６年１１月１日東京都練馬区東大泉二丁目３４番５号株式会社紀和美建（1011601001855）に合併し解散,2015-10-05,1,,,,,マルワサンギョウ,0
1634,7200005012559,登記記録の閉鎖等,0,2024-11-27,2024-11-22,特定非営利活動法人ｈａｐｐｙ　ｎｅｔみのかも,,その他の設立登記法人,岐阜県,美濃加茂市,加茂野町鷹之巣３６６番地３,,21,211,5050051,,,2024-11-22,清算の結了等,,,2016-11-01,1,,,,,ハッピーネットミノカモ,0
1647,7290001086986,登記記録の閉鎖等,0,2024-11-27,2024-11-25,株式会社アップトゥアス,,株式会社,沖縄県,うるま市,与那城照間１６７８番地グラッチェ１０３号,,47,213,9042301,,,2024-11-25,清算の結了等,,,2019-11-05,1,,,,,アップトゥアス,0
1649,7290001092910,登記記録の閉鎖等,0,2024-11-27,2024-10-30,株式会社金剛園,,株式会社,福岡県,福岡市東区,八田１丁目１１番２１号第２森ビル１Ｆ,,40,131,8130031,,,2024-10-30,清算の結了等,,,2021-04-22,1,,,,,コンゴウエン,0
1673,7430001074183,登記記録の閉鎖等,0,2024-11-27,2024-11-22,株式会社オープンコンテンツサービス,,株式会社,北海道,札幌市北区,北六条西６丁目２番地２４,,01,102,0600806,,,2024-11-22,清算の結了等,,,2017-05-29,1,,,,,オープンコンテンツサービス,0
1675,7500001020634,登記記録の閉鎖等,0,2024-11-27,2024-11-25,青空建装株式会社,,株式会社,愛媛県,東温市,横河原１３１６番地１１,,38,215,7910203,,,2024-11-25,清算の結了等,,,2017-05-23,1,,,,,アオゾラケンソウ,0
1685,8010002003918,登記記録の閉鎖等,0,2024-11-27,2024-11-14,有限会社津久井製作所,,有限会社,東京都,文京区,本郷３丁目２５番４号,,13,105,1130033,,,2024-11-14,清算の結了等,,,2015-10-05,1,,,,,ツクイセイサクショ,0
1721,8011001108105,登記記録の閉鎖等,0,2024-11-27,2024-11-13,歩歩高Ｊａｐａｎ株式会社,,株式会社,東京都,中央区,湊３丁目１３－８,,13,102,1040043,,,2024-11-13,清算の結了等,,,2015-11-06,1,,,,,ブブガオジャパン,0
1740,8011301018920,登記記録の閉鎖等,0,2024-11-27,2024-11-26,株式会社サムセータージャパン,,株式会社,山口県,下関市,生野町２丁目３０－１４,,35,201,7510832,,,2024-11-26,清算の結了等,,,2015-10-05,1,,,,,サムセータージャパン,0
1754,8013301019056,登記記録の閉鎖等,0,2024-11-27,2024-11-19,株式会社目白ポセンシア,,株式会社,東京都,豊島区,目白３丁目５番１２号,,13,116,1710031,,,2024-11-19,清算の結了等,,,2015-10-05,1,,,,,メジロポセンシア,0
1759,8020001065660,登記記録の閉鎖等,0,2024-11-27,2024-11-15,株式会社森興産,,株式会社,神奈川県,川崎市麻生区,王禅寺西７丁目２９番１６号,,14,137,2150017,,,2024-11-15,清算の結了等,,,2015-10-05,1,,,,,モリコウサン,0
1760,8020001081212,登記記録の閉鎖等,0,2024-11-27,2024-11-15,ランド・エンジニアリング株式会社,,株式会社,神奈川県,川崎市川崎区,駅前本町５－２,,14,131,2100007,,,2024-11-15,清算の結了等,,,2015-10-05,1,,,,,ランドエンジニアリング,0
1761,8020001090295,登記記録の閉鎖等,0,2024-11-27,2024-11-15,株式会社アートプロ,,株式会社,神奈川県,川崎市宮前区,野川本町１丁目１９番２９号,,14,136,2160041,,,2024-11-15,清算の結了等,,,2015-10-05,1,,,,,アートプロ,0
1765,8020002088652,登記記録の閉鎖等,0,2024-11-27,2024-11-15,有限会社カワセミ,,有限会社,神奈川県,川崎市高津区,千年４１４番地６,,14,134,2130022,,,2024-11-15,清算の結了等,,,2015-10-05,1,,,,,カワセミ,0
1780,8040002042962,登記記録の閉鎖等,0,2024-11-27,2024-11-22,有限会社アップドラフト,,有限会社,東京都,足立区,千住橋戸町１番地４オーベルグランディオ千住大橋５０９号室,,13,121,1200038,,,2024-11-22,清算の結了等,,,2015-10-05,1,,,,,アップドラフト,0
1785,8050002031741,登記記録の閉鎖等,0,2024-11-27,2024-11-20,株式会社三光サービス,,株式会社,茨城県,日立市,鮎川町１丁目８番１３号,,08,202,3160036,,,2024-11-20,清算の結了等,,,2015-10-05,1,,,,,サンコウサービス,0
1803,8120001060156,登記記録の閉鎖等,0,2024-11-27,2024-11-25,ユニテム株式会社,,株式会社,大阪府,大阪市北区,豊崎３丁目１５番１９号,,27,127,5310072,,,2024-11-25,清算の結了等,,,2015-10-05,1,,,,,ユニテム,0
1827,8140001076266,登記記録の閉鎖等,0,2024-11-27,2024-11-21,神姫ビルデイング株式会社,,株式会社,兵庫県,加西市,北条町横尾６１３番地の３,,28,220,6752311,,,2024-11-21,清算の結了等,,,2015-10-05,1,,,,,シンキビルデイング,0
1830,8140005003043,登記記録の閉鎖等,0,2024-11-27,2024-11-25,輸入品販売チェーンストア協同組合,,その他の設立登記法人,兵庫県,神戸市中央区,元町通３丁目１３番９号,,28,110,6500022,,,2024-11-25,清算の結了等,,,2015-10-05,1,,,,,ユニュウヒンハンバイチェーンストア,0
1831,8140005019436,登記記録の閉鎖等,0,2024-11-27,2024-11-25,協同組合産直赤い屋根,,その他の設立登記法人,兵庫県,淡路市,中田４１３９番地の４,,28,226,6562163,,,2024-11-25,清算の結了等,,,2015-10-05,1,,,,,サンチョクアカイヤネ,0
1834,8180001077723,登記記録の閉鎖等,0,2024-11-27,2024-11-18,華美株式会社,,株式会社,愛知県,春日井市,東野町３丁目４番地１６,,23,206,4860817,,,2024-11-18,清算の結了等,,,2015-10-05,1,,,,,カヨシ,0
1839,8180002044490,登記記録の閉鎖等,0,2024-11-27,2024-11-20,有限会社ビルトップ,,有限会社,愛知県,名古屋市緑区,鳴丘２丁目２３０３番地２,,23,114,4580005,,,2024-11-20,清算の結了等,,,2015-10-05,1,,,,,ビルトップ,0
1850,8260001004306,登記記録の閉鎖等,0,2024-11-27,2024-11-25,株式会社中国ペスト管理センター,,株式会社,岡山県,岡山市北区,野田２丁目５番１０号１０１号室,,33,101,7000971,,,2024-11-25,清算の結了等,,,2015-10-05,1,,,,,チュウゴクペストカンリセンター,0
1863,8290805007220,登記記録の閉鎖等,0,2024-11-27,2024-11-25,医療法人月脚医院,,その他の設立登記法人,福岡県,田川市,桜町１５番１０号,,40,206,8260021,,,2024-11-25,清算の結了等,,,2015-10-05,1,,,,,ツキアシイイン,0
1868,8320001009595,登記記録の閉鎖等,0,2024-11-27,2024-11-25,サンセラミックス株式会社,,株式会社,大分県,大分市,富士見が丘西１丁目１６番３号,,44,201,8701177,,,2024-11-25,清算の結了等,,,2015-10-05,1,,,,,,0
1876,8340002003216,登記記録の閉鎖等,0,2024-11-27,2024-11-15,有限会社佐藤フーズ,,有限会社,鹿児島県,鹿児島市,薬師１丁目１８番２０号,,46,201,8900042,,,2024-11-15,清算の結了等,,,2015-10-05,1,,,,,サトウフーズ,0
1918,9010403013399,登記記録の閉鎖等,0,2024-11-27,2024-11-12,合同会社レグバ,,合同会社,東京都,港区,愛宕１丁目３番４号愛宕東洋ビル３階,,13,103,1050002,,,2024-11-12,清算の結了等,,,2015-10-05,1,,,,,レグバ,0
1921,9010405021581,登記記録の閉鎖等,0,2024-11-27,2024-11-08,一般社団法人ＳＭ理論協会,,その他の設立登記法人,東京都,港区,南青山２丁目２番１５号,,13,103,1070062,,,2024-11-08,清算の結了等,,,2022-11-22,1,,,,,エスエムリロンキョウカイ,0
1923,9010501036962,登記記録の閉鎖等,0,2024-11-27,2024-11-21,株式会社黒川企画,,株式会社,東京都,台東区,浅草橋１丁目３６番７号中田ビル３階,,13,106,1110053,,,2024-11-21,清算の結了等,,,2015-10-05,1,,,,,,0
1927,9010601060961,登記記録の閉鎖等,0,2024-11-27,2024-11-22,株式会社フルール,,株式会社,東京都,江東区,亀戸２丁目３３番１０号ＳＴプラザ亀戸４０２号室,,13,108,1360071,,,2024-11-22,清算の結了等,,,2022-04-19,1,,,,,フルール,0
1929,9010602011550,登記記録の閉鎖等,0,2024-11-27,2024-11-22,有限会社志摩,,有限会社,東京都,墨田区,墨田５丁目４３番９号,,13,107,1310031,,,2024-11-22,清算の結了等,,,2015-10-05,1,,,,,シマ,0
1945,9011001095870,登記記録の閉鎖等,0,2024-11-27,2024-11-26,ルディメント株式会社,,株式会社,東京都,目黒区,八雲３丁目２５番２１号,,13,110,1520023,,,2024-11-26,清算の結了等,,,2015-10-05,1,,,,,ルディメント,0
1952,9011101104127,登記記録の閉鎖等,0,2024-11-27,2024-11-15,エイチツーヘルステック株式会社,,株式会社,東京都,新宿区,荒木町１１番地２４,,13,104,1600007,,,2024-11-15,清算の結了等,,,2023-08-25,1,,,,,エイチツーヘルステック,0
1963,9011401012814,登記記録の閉鎖等,0,2024-11-27,2024-11-19,Ｓｍａｒｔ　Ｐｌａｎｎｅｒ株式会社,,株式会社,東京都,板橋区,南常盤台１丁目１１－７ＭＴビル１０２号,,13,119,1740072,,,2024-11-19,清算の結了等,,,2015-10-05,1,,,,,スマートプランナー,0
1971,9011602007497,登記記録の閉鎖等,0,2024-11-27,2024-11-21,有限会社中嶋電設,,有限会社,東京都,世田谷区,砧８丁目３４番１３号,,13,112,1570073,,,2024-11-21,清算の結了等,,,2015-10-05,1,,,,,ナカジマデンセツ,0
2015,9040001117260,登記記録の閉鎖等,0,2024-11-27,2024-11-20,株式会社ミモリ,,株式会社,千葉県,茂原市,東部台２丁目２１番地２１,,12,210,2970015,,,2024-11-20,清算の結了等,,,2021-03-01,1,,,,,ミモリ,0
2028,9100002021075,登記記録の閉鎖等,0,2024-11-27,2024-11-21,有限会社日税サービス長野,,有限会社,長野県,松本市,寿北５丁目３番１２号,,20,202,3990011,,,2024-11-21,清算の結了等,,,2015-10-05,1,,,,,ニチゼイサービスナガノ,0
2030,9110002008468,登記記録の閉鎖等,0,2024-11-27,2024-11-20,有限会社アイ・アール,,有限会社,新潟県,新潟市江南区,藤山１丁目２番１９号,,15,104,9500202,,,2024-11-20,清算の結了等,,,2015-10-05,1,,,,,,0
2032,9110003004706,登記記録の閉鎖等,0,2024-11-27,2024-11-22,阿賀野バイオ合同会社,,合同会社,新潟県,阿賀野市,かがやき５９１１番地２８,,15,223,9592206,,,2024-11-22,清算の結了等,,,2022-02-28,1,,,,,アガノバイオ,0
2036,9120001171150,登記記録の閉鎖等,0,2024-11-27,2024-11-15,株式会社Ｖｉｃｔｏｒｉａ,,株式会社,東京都,新宿区,北新宿１丁目８番１０－４０２号,,13,104,1690074,,,2024-11-15,清算の結了等,,,2015-10-05,1,,,,,ヴィクトリア,0
2054,9130001036633,登記記録の閉鎖等,0,2024-11-27,2024-11-25,角丸株式会社,,株式会社,京都府,相楽郡和束町,大字釜塚小字生水２９番地,,26,365,6191212,,,2024-11-25,清算の結了等,,,2015-10-05,1,,,,,カクマル,0
2056,9130002003343,登記記録の閉鎖等,0,2024-11-27,2024-11-25,有限会社井上花葉園,,有限会社,京都府,京都市北区,上賀茂東後藤町３５番地,,26,101,6038022,,,2024-11-25,清算の結了等,,,2015-10-05,1,,,,,イノウエカヨウエン,0
2059,9140001043736,登記記録の閉鎖等,0,2024-11-27,2024-11-21,株式会社ローヤルビルディング,,株式会社,兵庫県,加古川市,尾上町長田２４６番地の１,,28,210,6750024,,,2024-11-21,清算の結了等,,,2015-10-05,1,,,,,ローヤルビルディング,0
2060,9140001068857,登記記録の閉鎖等,0,2024-11-27,2024-11-25,阪本産業株式会社,,株式会社,兵庫県,西宮市,高畑町２番２－９０７号,,28,204,6638202,,,2024-11-25,清算の結了等,,,2015-10-05,1,,,,,サカモトサンギョウ,0
2066,9150001008250,登記記録の閉鎖等,0,2024-11-27,2024-11-22,セイコウ技研株式会社,,株式会社,奈良県,生駒郡三郷町,勢野東４丁目８番２５号,,29,343,6360811,,,2024-11-22,清算の結了等,,,2015-10-05,1,,,,,セイコウギケン,0
2070,9160001012912,登記記録の閉鎖等,0,2024-11-27,2024-11-25,瀬川忠商事株式会社,,株式会社,滋賀県,草津市,追分４丁目２番３号,,25,206,5250047,,,2024-11-25,清算の結了等,,,2015-10-05,1,,,,,セガワチュウショウジ,0
2071,9170002002242,登記記録の閉鎖等,0,2024-11-27,2024-11-26,有限会社ダイケイ,,有限会社,和歌山県,和歌山市,上三毛１０６５番地,,30,201,6496262,,,2024-11-26,清算の結了等,,,2015-10-05,1,,,,,ダイケイ,0
2080,9200001038077,登記記録の閉鎖等,0,2024-11-27,2024-11-22,株式会社エ－・ワイ・エー,,株式会社,岐阜県,羽島市,福寿町平方３３８番地８,,21,209,5016257,,,2024-11-22,清算の結了等,,,2020-12-04,1,,,,,エイワイエー,0
2082,9200003002551,登記記録の閉鎖等,0,2024-11-27,2024-11-21,合資会社片野衛電社,,合資会社,岐阜県,高山市,片野町４丁目６６３番地,,21,203,5060824,,,2024-11-21,清算の結了等,,,2015-10-05,1,,,,,カタノエイデンシャ,0
2083,9210001003146,登記記録の閉鎖等,0,2024-11-27,2024-11-19,株式会社藤井機料店,,株式会社,福井県,坂井市,春江町為国幸１１番地３,,18,210,9190435,,,2024-11-19,清算の結了等,,,2015-10-05,1,,,,,フジイキリョウテン,0
2101,9290002017567,登記記録の閉鎖等,0,2024-11-27,2024-10-30,有限会社井相田企画,,有限会社,福岡県,福岡市博多区,井相田１丁目８番９号,,40,132,8120881,,,2024-10-30,清算の結了等,,,2015-10-05,1,,,,,イソウダキカク,0
2102,9290002045213,登記記録の閉鎖等,0,2024-11-27,2024-10-28,荒巻建築有限会社,,有限会社,福岡県,飯塚市,鯰田２４２５番地１５４,,40,205,8200001,,,2024-10-28,清算の結了等,,,2015-10-05,1,,,,,アラマキケンチク,0
2105,9290003012625,登記記録の閉鎖等,0,2024-11-27,2024-10-18,合同会社Ｂｅｌｌｉｓｓｉｍｏ,,合同会社,福岡県,福岡市東区,土井４丁目２５－２３,,40,131,8130032,,,2024-10-18,清算の結了等,,,2022-06-17,1,,,,,ベリッシモ,0
2124,9410001001526,登記記録の閉鎖等,0,2024-11-27,2024-11-22,ジェイ．ビイ．ブライアン株式会社,,株式会社,秋田県,秋田市,八橋新川向１０番１５号,,05,201,0100965,,,2024-11-22,清算の結了等,,,2015-10-05,1,,,,,ジェイビイブライアン,0
