sequenceNumber,corporateNumber,process,correct,updateDate,changeDate,name,nameImageId,kind,prefectureName,cityName,streetNumber,addressImageId,prefectureCode,cityCode,postCode,addressOutside,addressOutsideImageId,closeDate,closeCause,successorCorporateNumber,changeCause,assignmentDate,latest,enName,enPrefectureName,enCityName,enAddressOutside,furigana,hihyoji
7,1010001219819,新規,0,2021-07-21,2021-07-21,株式会社リバティア,,株式会社,東京都,中央区,日本橋本町４丁目８番１５号,,13,102,1030023,,,,,,,2021-07-21,1,,,,,リバティア,0
8,1010001219843,新規,0,2021-07-21,2021-07-21,ハリーコンサルティング株式会社,,株式会社,東京都,千代田区,神田佐久間町３丁目２１番地７熊谷ビル３階Ｂ号室,,13,101,1010025,,,,,,,2021-07-21,1,,,,,ハリーコンサルティング,0
12,1010003035347,新規,0,2021-07-21,2021-07-21,ＴＳＵＫＵＮＥ合同会社,,合同会社,東京都,中央区,東日本橋２丁目６－７本間ビル１Ｆ,,13,102,1030004,,,,,,,2021-07-21,1,,,,,ツクネ,0
17,1010401161562,新規,0,2021-07-21,2021-07-21,Ｍｏｄｅｒｎ　Ｇｏｕｒｍｅｔ　Ｆｏｏｄｓ　Ｊａｐａｎ株式会社,,株式会社,東京都,港区,芝大門２丁目１２番１０号Ｔ＆Ｇ浜松町ビル６階,,13,103,1050012,,,,,,,2021-07-21,1,,,,,モダングルメフーズジャパン,0
18,1010401161612,新規,0,2021-07-21,2021-07-21,株式会社Ｇｏｏｄ　Ｆｌａｔ,,株式会社,東京都,港区,東新橋２丁目１０番１０東新橋ビル６０８号室,,13,103,1050021,,,,,,,2021-07-21,1,,,,,グッドフラット,0
20,1010403025749,新規,0,2021-07-21,2021-07-21,合同会社ハピオル,,合同会社,東京都,港区,虎ノ門３丁目１８番６号朝日虎ノ門マンション６１４号室,,13,103,1050001,,,,,,,2021-07-21,1,,,,,ハピオル,0
21,1010403025765,新規,0,2021-07-21,2021-07-21,合同会社赤坂管財,,合同会社,東京都,港区,赤坂７丁目６番３７号,,13,103,1070052,,,,,,,2021-07-21,1,,,,,アカサカカンザイ,0
28,1010601059680,新規,0,2021-07-21,2021-07-21,易沃株式会社,,株式会社,東京都,墨田区,横川３丁目６番７号３－Ｒ室,,13,107,1300003,,,,,,,2021-07-21,1,,,,,イヨク,0
30,1010603009048,新規,0,2021-07-21,2021-07-21,セブンエール合同会社,,合同会社,東京都,江東区,平野３丁目２番１２－１１０２号,,13,108,1350023,,,,,,,2021-07-21,1,,,,,セブンエール,0
36,1010903006678,新規,0,2021-07-21,2021-07-21,合同会社レイ,,合同会社,東京都,世田谷区,松原１丁目２４番５号,,13,112,1560043,,,,,,,2021-07-21,1,,,,,レイ,0
40,1011005009124,新規,0,2021-07-21,2021-07-21,一般社団法人ウェルネスホライゾン創生機構,,その他の設立登記法人,東京都,渋谷区,神宮前６丁目２３番４号桑野ビル２階,,13,113,1500001,,,,,,,2021-07-21,1,,,,,ウェルネスホライゾンソウセイキコウ,0
43,1011103010867,新規,0,2021-07-21,2021-07-21,イージークリーン合同会社,,合同会社,東京都,新宿区,神楽坂３丁目６番１０号ヒルサイド神楽坂２階,,13,104,1620825,,,,,,,2021-07-21,1,,,,,イージークリーン,0
44,1011103010875,新規,0,2021-07-21,2021-07-21,ＣＳ茨城高見原合同会社,,合同会社,東京都,新宿区,西新宿２丁目１番１号新宿三井ビル５０階,,13,104,1600023,,,,,,,2021-07-21,1,,,,,シーエスイバラキタカミハラ,0
46,1011201023127,新規,0,2021-07-21,2021-07-21,株式会社Ｍａｌｉｋａｍａ,,株式会社,東京都,中野区,上高田１丁目２７番２３号コーポみどり１０１,,13,114,1640002,,,,,,,2021-07-21,1,,,,,マリカマ,0
47,1011301027060,新規,0,2021-07-21,2021-07-21,株式会社Ａｚｕｌ　Ｍａｒｉｎｏ,,株式会社,東京都,杉並区,下高井戸４丁目８－３フローラ美栄３０５,,13,115,1680073,,,,,,,2021-07-21,1,,,,,アスールマリノ,0
72,1013301047749,新規,0,2021-07-21,2021-07-21,株式会社ＨＡＫＯＢＵＮＥ,,株式会社,東京都,豊島区,池袋２丁目３６番１号ＩｎｆｉｎｉｔｙＩｋｅｂｕｋｕｒｏ６Ｆ,,13,116,1710014,,,,,,,2021-07-21,1,,,,,ハコブネ,0
74,1013303005754,新規,0,2021-07-21,2021-07-21,３０合同会社,,合同会社,東京都,豊島区,北大塚１丁目１４番９号,,13,116,1700004,,,,,,,2021-07-21,1,,,,,サンゼロ,0
79,1020001142292,新規,0,2021-07-21,2021-07-21,株式会社ＬＩＳ,,株式会社,神奈川県,横浜市戸塚区,名瀬町８００番地１０ライオンズマンション東戸塚３０２号,,14,110,2450051,,,,,,,2021-07-21,1,,,,,エルアイエス,0
80,1020003020216,新規,0,2021-07-21,2021-07-21,合同会社ＦＩＲＥ,,合同会社,神奈川県,川崎市多摩区,登戸２６６２番地１プラザ向ヶ丘遊園４０８,,14,135,2140014,,,,,,,2021-07-21,1,,,,,ファイア,0
85,1021001073445,新規,0,2021-07-21,2021-07-21,株式会社エム・テイ・アイシステム,,株式会社,神奈川県,平塚市,幸町２５番１５号,,14,203,2540804,,,,,,,2021-07-21,1,,,,,エムテイアイシステム,0
86,1021001073453,新規,0,2021-07-21,2021-07-21,株式会社テイル・アップ,,株式会社,神奈川県,茅ヶ崎市,甘沼５８７番地５メゾンドルーチェ２０１,,14,207,2530004,,,,,,,2021-07-21,1,,,,,テイルアップ,0
87,1021001073461,新規,0,2021-07-21,2021-07-21,ＧＭＫ株式会社,,株式会社,神奈川県,相模原市中央区,上溝４丁目８番１９号,,14,152,2520243,,,,,,,2021-07-21,1,,,,,ジーエムケー,0
91,1021003010702,新規,0,2021-07-21,2021-07-21,クラウドデザイン合同会社,,合同会社,神奈川県,海老名市,東柏ケ谷５丁目１１番１６－１号,,14,215,2430401,,,,,,,2021-07-21,1,,,,,クラウドデザイン,0
95,1030001143315,新規,0,2021-07-21,2021-07-21,株式会社吉田設備,,株式会社,埼玉県,朝霞市,栄町３丁目１番２９号,,11,227,3510012,,,,,,,2021-07-21,1,,,,,ヨシダセツビ,0
96,1030001143430,新規,0,2021-07-21,2021-07-21,株式会社七三不動産,,株式会社,埼玉県,坂戸市,大字石井２７８９番地３,,11,239,3500212,,,,,,,2021-07-21,1,,,,,シチサンフドウサン,0
97,1030001143439,新規,0,2021-07-21,2021-07-21,ＫＵＳ株式会社,,株式会社,埼玉県,越谷市,千間台西２丁目５番地７,,11,222,3430041,,,,,,,2021-07-21,1,,,,,ケーユーエス,0
98,1030001143447,新規,0,2021-07-21,2021-07-21,氷川通商株式会社,,株式会社,埼玉県,さいたま市北区,東大成町１丁目１５１番地７,,11,102,3310814,,,,,,,2021-07-21,1,,,,,ヒカワツウショウ,0
99,1030001143463,新規,0,2021-07-21,2021-07-21,東光電機株式会社,,株式会社,埼玉県,三郷市,鷹野４丁目１８９番地,,11,237,3410035,,,,,,,2021-07-21,1,,,,,トウコウデンキ,0
100,1030003017649,新規,0,2021-07-21,2021-07-21,合同会社萩コーポレーション,,合同会社,埼玉県,北本市,石戸宿２丁目２５４番地,,11,233,3640025,,,,,,,2021-07-21,1,,,,,ハギコーポレーション,0
107,1040001119446,新規,0,2021-07-21,2021-07-21,株式会社デイリーベース,,株式会社,千葉県,松戸市,三矢小台４丁目１０番地８,,12,207,2710087,,,,,,,2021-07-21,1,,,,,デイリーベース,0
108,1040001119454,新規,0,2021-07-21,2021-07-21,株式会社Ｓ・プレジール,,株式会社,千葉県,市川市,南大野２丁目２番２２号,,12,203,2720804,,,,,,,2021-07-21,1,,,,,エスプレジール,0
111,1040003018191,新規,0,2021-07-21,2021-07-21,合同会社Ｔｉｎｔ,,合同会社,千葉県,市川市,南八幡４丁目６番１６号ビラヨーコソ２０１,,12,203,2720023,,,,,,,2021-07-21,1,,,,,ティント,0
112,1040003018200,新規,0,2021-07-21,2021-07-21,合同会社Ｔｈｒｅｅ・ｍｏｒｅ,,合同会社,千葉県,鎌ケ谷市,南鎌ケ谷１丁目１５番２２号,,12,224,2730106,,,,,,,2021-07-21,1,,,,,スリーモア,0
124,1060001033926,新規,0,2021-07-21,2021-07-21,株式会社エメット,,株式会社,栃木県,佐野市,山形町７２１番地２,,09,204,3270324,,,,,,,2021-07-21,1,,,,,エメット,0
126,1070001038296,新規,0,2021-07-21,2021-07-21,株式会社ｇｒｏｗｍ,,株式会社,群馬県,北群馬郡吉岡町,大字大久保１２１１番地２,,10,345,3703602,,,,,,,2021-07-21,1,,,,,グロウム,0
128,1080003002613,新規,0,2021-07-21,2021-07-21,合同会社ｂｅ　ａ　ｓｕｃｃｅｓｓ,,合同会社,静岡県,静岡市駿河区,向手越１丁目１番２号,,22,102,4210107,,,,,,,2021-07-21,1,,,,,ビーアサクセス,0
131,1080403004309,新規,0,2021-07-21,2021-07-21,合同会社富士山,,合同会社,静岡県,袋井市,梅山８９番地の１,,22,216,4371105,,,,,,,2021-07-21,1,,,,,フジヤマ,0
137,1110001035925,新規,0,2021-07-21,2021-07-21,株式会社ジャパンファーマケイ,,株式会社,新潟県,長岡市,福住１丁目６番２８号エクセレンス長岡３０３号室,,15,202,9400034,,,,,,,2021-07-21,1,,,,,ジャパンファーマケイ,0
145,1120001239137,新規,0,2021-07-21,2021-07-21,Ｒｅｇｉｉｓ株式会社,,株式会社,大阪府,大阪市北区,堂山町１番５号三共梅田ビル６Ｆ,,27,127,5300027,,,,,,,2021-07-21,1,,,,,レジース,0
146,1120001239178,新規,0,2021-07-21,2021-07-21,西日本いづみ運輸株式会社,,株式会社,大阪府,大阪市中央区,本町３丁目４番８号,,27,128,5410053,,,,,,,2021-07-21,1,,,,,ニシニホンイヅミウンユ,0
147,1120001239228,新規,0,2021-07-21,2021-07-21,株式会社ヲタロードスタジオ,,株式会社,大阪府,大阪市港区,弁天３丁目１９番１５号第二市福荘１Ｆ,,27,107,5520007,,,,,,,2021-07-21,1,,,,,ヲタロードスタジオ,0
148,1120001239244,新規,0,2021-07-21,2021-07-21,ＳＩＭ株式会社,,株式会社,大阪府,寝屋川市,香里北之町７番１９号４Ｆ,,27,215,5720080,,,,,,,2021-07-21,1,,,,,エスアイエム,0
156,1120005022407,新規,0,2021-07-21,2021-07-21,特定非営利活動法人農産物加工協会,,その他の設立登記法人,大阪府,大阪市阿倍野区,阿倍野筋１丁目１番４３号２９階,,27,119,5450052,,,,,,,2021-07-21,1,,,,,ノウサンブツカコウキョウカイ,0
163,1120903003755,新規,0,2021-07-21,2021-07-21,合同会社善,,合同会社,大阪府,摂津市,正雀１丁目８番８－１１１９号,,27,224,5660023,,,,,,,2021-07-21,1,,,,,ゼン,0
167,1122001035012,新規,0,2021-07-21,2021-07-21,株式会社オスプレイ,,株式会社,大阪府,八尾市,大竹１丁目８５番地,,27,212,5810854,,,,,,,2021-07-21,1,,,,,オスプレイ,0
177,1130001069764,新規,0,2021-07-21,2021-07-21,侑和創建株式会社,,株式会社,京都府,京都市山科区,御陵別所町８６番地１１,,26,110,6078417,,,,,,,2021-07-21,1,,,,,ユウワソウケン,0
181,1140001122274,新規,0,2021-07-21,2021-07-21,株式会社巽建設,,株式会社,兵庫県,神戸市兵庫区,荒田町３丁目５５番１号,,28,105,6520032,,,,,,,2021-07-21,1,,,,,タツミケンセツ,0
189,1140005025746,新規,0,2021-07-21,2021-07-21,一般社団法人尼崎家守舎,,その他の設立登記法人,兵庫県,尼崎市,東園田町６丁目１１４番地の５,,28,202,6610953,,,,,,,2021-07-21,1,,,,,アマガサキヤモリシャ,0
196,1160001023479,新規,0,2021-07-21,2021-07-21,株式会社フォーシーム,,株式会社,滋賀県,野洲市,行畑２丁目１７番１２号,,25,210,5202341,,,,,,,2021-07-21,1,,,,,フォーシーム,0
213,1180301035189,新規,0,2021-07-21,2021-07-21,株式会社Ｌｉｆｅ　ｓｔｏｒｙ,,株式会社,愛知県,岡崎市,上和田町字荒野１８番地県営上和田住宅７棟３０２号室,,23,202,4440201,,,,,,,2021-07-21,1,,,,,,0
215,1180303005066,新規,0,2021-07-21,2021-07-21,まるたま合同会社,,合同会社,愛知県,北設楽郡東栄町,大字本郷字南万場３‐１２,,23,562,4490214,,,,,,,2021-07-21,1,,,,,,0
216,1190005011601,新規,0,2021-07-21,2021-07-21,一般社団法人アズワンネットワーク,,その他の設立登記法人,三重県,鈴鹿市,算所町１２４４番地,,24,207,5130805,,,,,,,2021-07-21,1,,,,,アズワンネットワーク,0
230,1230001018918,新規,0,2021-07-21,2021-07-21,株式会社カズミコーティング,,株式会社,富山県,魚津市,三ケ２２７番地６,,16,204,9370857,,,,,,,2021-07-21,1,,,,,カズミコーティング,0
235,1240003005203,新規,0,2021-07-21,2021-07-21,オフィスハピネス合同会社,,合同会社,広島県,広島市西区,庚午南２丁目３６番２８号,,34,104,7330823,,,,,,,2021-07-21,1,,,,,オフィスハピネス,0
244,1290001093955,新規,0,2021-07-21,2021-07-21,株式会社Ｔｅｌｉｈａ,,株式会社,福岡県,福岡市中央区,大名２丁目６－１１,,40,133,8100041,,,,,,,2021-07-21,1,,,,,テリハ,0
245,1290001093988,新規,0,2021-07-21,2021-07-21,株式会社レイリンクス,,株式会社,福岡県,福岡市博多区,博多駅前３丁目４番２５号,,40,132,8120011,,,,,,,2021-07-21,1,,,,,レイリンクス,0
246,1290005018289,新規,0,2021-07-21,2021-07-21,一般社団法人日本樹上作業協会,,その他の設立登記法人,福岡県,福岡市西区,大字吉武７６０番地１,,40,135,8190036,,,,,,,2021-07-21,1,,,,,ニホンジュジョウサギョウキョウカイ,0
249,1300001012558,新規,0,2021-07-21,2021-07-21,株式会社Ｔ’ｓ　Ｃｏｍｐａｎｙ,,株式会社,佐賀県,佐賀市,鍋島町森田２４７０番２号,,41,201,8490936,,,,,,,2021-07-21,1,,,,,ティーズカンパニー,0
250,1300001012566,新規,0,2021-07-21,2021-07-21,株式会社ｔ．ｏ,,株式会社,佐賀県,鳥栖市,高田町４７番地１,,41,203,8410044,,,,,,,2021-07-21,1,,,,,ティドットオー,0
251,1300003001699,新規,0,2021-07-21,2021-07-21,合同会社天和,,合同会社,佐賀県,鹿島市,大字納富分４１１４－１１,,41,207,8491312,,,,,,,2021-07-21,1,,,,,テンホウ,0
258,1330001028824,新規,0,2021-07-21,2021-07-21,株式会社アポロ,,株式会社,熊本県,熊本市西区,春日４丁目２番１５号,,43,103,8600047,,,,,,,2021-07-21,1,,,,,アポロ,0
264,1340003003493,新規,0,2021-07-21,2021-07-21,合同会社どぅどぅ,,合同会社,鹿児島県,大島郡徳之島町,亀津４９６７番地４,,46,530,8917101,,,,,,,2021-07-21,1,,,,,ドゥドゥ,0
269,1360001029118,新規,0,2021-07-21,2021-07-21,株式会社拓企画,,株式会社,沖縄県,石垣市,字大浜３８０番地３,,47,207,9070001,,,,,,,2021-07-21,1,,,,,タクキカク,0
271,1360003011313,新規,0,2021-07-21,2021-07-21,合同会社エイトペイ,,合同会社,沖縄県,中頭郡中城村,字当間３番地２新垣アパート２０１号,,47,328,9012406,,,,,,,2021-07-21,1,,,,,エイトペイ,0
294,1430001084584,新規,0,2021-07-21,2021-07-21,株式会社ＣＡＴＣＨ２２,,株式会社,北海道,札幌市清田区,平岡七条１丁目１７番５号,,01,110,0040877,,,,,,,2021-07-21,1,,,,,キャッチトゥエンティトゥ,0
295,1430001084642,新規,0,2021-07-21,2021-07-21,株式会社田中国際会計事務所,,株式会社,北海道,札幌市中央区,北四条西４丁目１－７ＭＭＳ札幌駅前ビル１Ｆ,,01,101,0600004,,,,,,,2021-07-21,1,,,,,タナカコクサイカイケイジムショ,0
299,1440003001405,新規,0,2021-07-21,2021-07-21,合同会社オフィスすぎやま,,合同会社,北海道,函館市,本通４丁目１０番１１号,,01,202,0410851,,,,,,,2021-07-21,1,,,,,オフィススギヤマ,0
312,2010001219776,新規,0,2021-07-21,2021-07-21,株式会社ｍｅｌｎ,,株式会社,東京都,中央区,銀座１丁目２２番１１号銀座大竹ビジデンス２階,,13,102,1040061,,,,,,,2021-07-21,1,,,,,メルン,0
313,2010001219818,新規,0,2021-07-21,2021-07-21,ＴｏｐｏＬｏｇｉｃ株式会社,,株式会社,東京都,千代田区,富士見１丁目３番１１号,,13,101,1020071,,,,,,,2021-07-21,1,,,,,トポロジック,0
314,2010001219826,新規,0,2021-07-21,2021-07-21,株式会社ココ,,株式会社,東京都,中央区,銀座１丁目２２番１１号,,13,102,1040061,,,,,,,2021-07-21,1,,,,,ココ,0
315,2010001219891,新規,0,2021-07-21,2021-07-21,株式会社ＴＡＣ,,株式会社,東京都,中央区,銀座６丁目１３番１６号銀座ＷａｌｌビルＵＣＦ５０１,,13,102,1040061,,,,,,,2021-07-21,1,,,,,ティーエーシー,0
317,2010003035346,新規,0,2021-07-21,2021-07-21,合同会社パワーフルネス,,合同会社,東京都,文京区,千駄木２丁目２９番６号,,13,105,1130022,,,,,,,2021-07-21,1,,,,,パワーフルネス,0
327,2010401161669,新規,0,2021-07-21,2021-07-21,株式会社Ｗ,,株式会社,東京都,港区,赤坂６丁目１９番４０号,,13,103,1070052,,,,,,,2021-07-21,1,,,,,ダブリュ,0
328,2010401161677,新規,0,2021-07-21,2021-07-21,株式会社Ｗｅｂ　Ｂａｎｋ,,株式会社,東京都,港区,高輪３丁目５番２０－７０４号,,13,103,1080074,,,,,,,2021-07-21,1,,,,,ウェブバンク,0
331,2010601059671,新規,0,2021-07-21,2021-07-21,株式会社マルヨシ,,株式会社,東京都,江東区,東陽５丁目３０番６－６０４号,,13,108,1350016,,,,,,,2021-07-21,1,,,,,マルヨシ,0
332,2010601059688,新規,0,2021-07-21,2021-07-21,徳美堂株式会社,,株式会社,東京都,江東区,有明３丁目７－１８有明セントラルタワー１６Ｆ,,13,108,1350063,,,,,,,2021-07-21,1,,,,,トクビドウ,0
339,2010901049133,新規,0,2021-07-21,2021-07-21,株式会社カルベネ,,株式会社,東京都,世田谷区,弦巻２丁目４０番６号メゾン・ドゥ・ソレイユ１０３,,13,112,1540016,,,,,,,2021-07-21,1,,,,,カルベネ,0
347,2011001141813,新規,0,2021-07-21,2021-07-21,株式会社ＳＯＲＡ,,株式会社,東京都,渋谷区,本町１丁目２０番２号,,13,113,1510071,,,,,,,2021-07-21,1,,,,,ソラ,0
348,2011001141838,新規,0,2021-07-21,2021-07-21,ＲＥＩＮＦＯＲＣＥ株式会社,,株式会社,東京都,渋谷区,渋谷３丁目２７番１５号坂上ビル,,13,113,1500002,,,,,,,2021-07-21,1,,,,,リーンフォース,0
349,2011001141920,新規,0,2021-07-21,2021-07-21,Ｅｘｅｃｕｔｉｖｅ　Ｃｈｏｉｃｅ　Ｊａｐａｎ株式会社,,株式会社,東京都,渋谷区,渋谷１丁目１番３号,,13,113,1500002,,,,,,,2021-07-21,1,,,,,エグゼクティブチョイスジャパン,0
356,2011101095793,新規,0,2021-07-21,2021-07-21,ＭＴＳ株式会社,,株式会社,東京都,新宿区,西新宿４丁目１４番３号ライフコーポ土屋１階,,13,104,1600023,,,,,,,2021-07-21,1,,,,,エムティーエス,0
357,2011101095802,新規,0,2021-07-21,2021-07-21,株式会社ふぇあり,,株式会社,東京都,新宿区,西新宿６丁目２０番１２号第二山口ビル８Ｆ,,13,104,1600023,,,,,,,2021-07-21,1,,,,,フェアリ,0
359,2011103010882,新規,0,2021-07-21,2021-07-21,合同会社佐藤,,合同会社,東京都,新宿区,四谷１丁目６番５号,,13,104,1600004,,,,,,,2021-07-21,1,,,,,サトウ,0
370,2011501027149,新規,0,2021-07-21,2021-07-21,株式会社帆,,株式会社,東京都,荒川区,東日暮里５丁目１６番１号,,13,118,1160014,,,,,,,2021-07-21,1,,,,,セイル,0
373,2011801039488,新規,0,2021-07-21,2021-07-21,株式会社オフィス晃月,,株式会社,東京都,葛飾区,奥戸５丁目６番６号,,13,122,1240022,,,,,,,2021-07-21,1,,,,,オフィスコウヅキ,0
379,2013301047764,新規,0,2021-07-21,2021-07-21,株式会社ＬＥＦ,,株式会社,東京都,豊島区,池袋本町１丁目２１番６号エクセルハナブサ３０３,,13,116,1700011,,,,,,,2021-07-21,1,,,,,レフ,0
384,2020001142275,新規,0,2021-07-21,2021-07-21,株式会社Ｂｉｇ　Ｕｐ,,株式会社,神奈川県,横浜市西区,宮ケ谷２５番地の２－３－３０５号,,14,103,2200006,,,,,,,2021-07-21,1,,,,,ビックアップ,0
385,2020001142291,新規,0,2021-07-21,2021-07-21,株式会社吾妻塗装,,株式会社,神奈川県,横浜市泉区,和泉中央北５丁目２５番１９－３０１号,,14,116,2450024,,,,,,,2021-07-21,1,,,,,アヅマトソウ,0
386,2020001142300,新規,0,2021-07-21,2021-07-21,松浦建設株式会社,,株式会社,神奈川県,横浜市瀬谷区,二ツ橋町２９７番地３千草荘１号室,,14,114,2460021,,,,,,,2021-07-21,1,,,,,マツウラケンセツ,0
388,2020003020215,新規,0,2021-07-21,2021-07-21,合同会社Ｒｉｖｅｒ　ｐｏｉｎｔ,,合同会社,神奈川県,川崎市宮前区,南野川２丁目２－１７－２０１,,14,136,2160042,,,,,,,2021-07-21,1,,,,,リバーポイント,0
391,2021001073436,新規,0,2021-07-21,2021-07-21,アタッシュインターナショナル株式会社,,株式会社,神奈川県,相模原市緑区,二本松２丁目１４番４号,,14,151,2520137,,,,,,,2021-07-21,1,,,,,アタッシュインターナショナル,0
392,2021001073460,新規,0,2021-07-21,2021-07-21,株式会社Ｇｒｅａｓｅｎｔ,,株式会社,神奈川県,大和市,中央５丁目６番２４－３１０号,,14,213,2420021,,,,,,,2021-07-21,1,,,,,グレセント,0
393,2021001073477,新規,0,2021-07-21,2021-07-21,株式会社日栄,,株式会社,神奈川県,厚木市,上依知２４１０番地３大塚ビル３０３,,14,212,2430801,,,,,,,2021-07-21,1,,,,,ニチエイ,0
406,2030001143438,新規,0,2021-07-21,2021-07-21,ＫＢＳ株式会社,,株式会社,埼玉県,越谷市,千間台西２丁目５番地７,,11,222,3430041,,,,,,,2021-07-21,1,,,,,ケービーエス,0
407,2030001143454,新規,0,2021-07-21,2021-07-21,株式会社ＨＩＢＩＫＩ力,,株式会社,埼玉県,草加市,谷塚町８２８番地３,,11,221,3400023,,,,,,,2021-07-21,1,,,,,ヒビキチカラ,0
408,2030001143462,新規,0,2021-07-21,2021-07-21,株式会社ツー・ウインズ,,株式会社,埼玉県,比企郡川島町,大字中山１３８８番地６,,11,346,3500165,,,,,,,2021-07-21,1,,,,,ツーウインズ,0
411,2030003017664,新規,0,2021-07-21,2021-07-21,合同会社ｊｏｕｅｔ　ｂｏｉｔｅ,,合同会社,埼玉県,朝霞市,田島１丁目１１番２０号,,11,227,3510032,,,,,,,2021-07-21,1,,,,,ジュエボワット,0
436,2070001038295,新規,0,2021-07-21,2021-07-21,株式会社ファームフレッシュ,,株式会社,群馬県,高崎市,砂賀町９３番地東光堂ビル２Ｆ,,10,202,3700832,,,,,,,2021-07-21,1,,,,,ファームフレッシュ,0
439,2080101022669,新規,0,2021-07-21,2021-07-21,株式会社豆桜,,株式会社,静岡県,伊東市,大原３丁目６番１６号,,22,208,4140046,,,,,,,2021-07-21,1,,,,,マメザクラ,0
442,2080401025207,新規,0,2021-07-21,2021-07-21,株式会社ＨＡＣＫ,,株式会社,静岡県,浜松市中区,佐鳴台６丁目８－３０,,22,131,4328021,,,,,,,2021-07-21,1,,,,,ハック,0
443,2080405007374,新規,0,2021-07-21,2021-07-21,一般社団法人はまこや,,その他の設立登記法人,静岡県,浜松市中区,上島６丁目１番４３号,,22,131,4338122,,,,,,,2021-07-21,1,,,,,ハマコヤ,0
467,2120001239185,新規,0,2021-07-21,2021-07-21,株式会社ＭＥＬＯＮ,,株式会社,大阪府,大阪市中央区,南船場３丁目２番２８号ＮＩＰＰＯタイヨービル５１１号,,27,128,5420081,,,,,,,2021-07-21,1,,,,,メロン,0
468,2120001239202,新規,0,2021-07-21,2021-07-21,株式会社プロシャス,,株式会社,大阪府,大阪市中央区,久太郎町２丁目５番３１号寺田ビルディング１００２号,,27,128,5410056,,,,,,,2021-07-21,1,,,,,プロシャス,0
469,2120001239235,新規,0,2021-07-21,2021-07-21,高橋ビルアセット株式会社,00123719,株式会社,大阪府,大阪市中央区,安土町３丁目２番８号,,27,128,5410052,,,,,,,2021-07-21,1,,,,,タカハシビルアセット,0
472,2120003019890,新規,0,2021-07-21,2021-07-21,ＴＡＫＡＮＯ合同会社,,合同会社,大阪府,枚方市,長尾元町４丁目８番２０号,,27,210,5730163,,,,,,,2021-07-21,1,,,,,,0
478,2120105009427,新規,0,2021-07-21,2021-07-21,医療法人春晄会,,その他の設立登記法人,大阪府,松原市,三宅中１丁目２番２５号,,27,217,5800046,,,,,,,2021-07-21,1,,,,,シュンコウカイ,0
479,2120901044651,新規,0,2021-07-21,2021-07-21,株式会社Ｄ－ｇａｒｄｅｎ,,株式会社,大阪府,高槻市,東天川１丁目３０番６号,,27,207,5690012,,,,,,,2021-07-21,1,,,,,ディーガーデン,0
480,2122001035011,新規,0,2021-07-21,2021-07-21,株式会社奏,,株式会社,大阪府,東大阪市,水走５丁目５番４５号,,27,227,5780921,,,,,,,2021-07-21,1,,,,,カナデ,0
481,2122003002141,新規,0,2021-07-21,2021-07-21,ｇｒｅｅｎａｒｒｏｗ合同会社,,合同会社,大阪府,東大阪市,吉田３丁目１２－１１,,27,227,5780924,,,,,,,2021-07-21,1,,,,,グリーンアロー,0
492,2140001122380,新規,0,2021-07-21,2021-07-21,株式会社スーパーコア,,株式会社,兵庫県,伊丹市,野間７丁目１１番４－２０２号,,28,207,6640873,,,,,,,2021-07-21,1,,,,,スーパーコア,0
497,2160001023486,新規,0,2021-07-21,2021-07-21,株式会社ＦＭＩガーメント,,株式会社,滋賀県,守山市,赤野井町１０３８番地,,25,207,5240061,,,,,,,2021-07-21,1,,,,,エフエムアイガーメント,0
502,2180001146962,新規,0,2021-07-21,2021-07-21,ＲＥＳＯＵＲＣＥ　ＤＥＳＩＧＮ株式会社,,株式会社,愛知県,名古屋市名東区,亀の井２丁目１５９番地,,23,115,4650094,,,,,,,2021-07-21,1,,,,,リソースデザイン,0
503,2180001147036,新規,0,2021-07-21,2021-07-21,株式会社ＳＡＮＤＢＯＸ　ＷＯＭＡＮ,,株式会社,愛知県,名古屋市中区,栄１丁目１８番１号,,23,106,4600008,,,,,,,2021-07-21,1,,,,,サンドボックスウーマン,0
506,2190001028524,新規,0,2021-07-21,2021-07-21,株式会社Ｆａｃｔｏｒｙ,,株式会社,三重県,伊勢市,西豊浜町５０６５番地２,,24,203,5150505,,,,,,,2021-07-21,1,,,,,ファクトリー,0
513,2200003005263,新規,0,2021-07-21,2021-07-21,合同会社テールウエスト,,合同会社,岐阜県,多治見市,金岡町２丁目７９番地,,21,204,5070016,,,,,,,2021-07-21,1,,,,,テールウエスト,0
533,2260001035785,新規,0,2021-07-21,2021-07-21,株式会社常盤新聞販売,,株式会社,岡山県,総社市,溝口２１８番地,,33,208,7191135,,,,,,,2021-07-21,1,,,,,トキワシンブンハンバイ,0
539,2290001093913,新規,0,2021-07-21,2021-07-21,株式会社フォレストハウス,,株式会社,福岡県,糸島市,南風台８丁目１１番６号,,40,230,8191137,,,,,,,2021-07-21,1,,,,,フォレストハウス,0
540,2290001093987,新規,0,2021-07-21,2021-07-21,株式会社ＴＲＵＴＨ,,株式会社,福岡県,福岡市南区,老司１丁目１１番２１号,,40,134,8111346,,,,,,,2021-07-21,1,,,,,トゥルース,0
541,2290003011443,新規,0,2021-07-21,2021-07-21,合同会社光真,,合同会社,福岡県,福岡市中央区,平尾５丁目２２番３０－２０６号ライオンズマンション平尾台２号棟,,40,133,8100014,,,,,,,2021-07-21,1,,,,,コウシン,0
542,2290005018296,新規,0,2021-07-21,2021-07-21,博多織多々良工場協同組合,,その他の設立登記法人,福岡県,福岡市東区,原田４丁目１番４１号,,40,131,8120063,,,,,,,2021-07-21,1,,,,,ハカタオリタタラコウジョウ,0
543,2290801027640,新規,0,2021-07-21,2021-07-21,株式会社シノダ,,株式会社,福岡県,北九州市八幡西区,萩原２丁目１２番３４－５０１号,,40,109,8060059,,,,,,,2021-07-21,1,,,,,シノダ,0
544,2300001012565,新規,0,2021-07-21,2021-07-21,株式会社Ｋｎｏｔ,,株式会社,佐賀県,唐津市,和多田天満町１丁目４番３号,,41,202,8470082,,,,,,,2021-07-21,1,,,,,ノット,0
553,2330001028798,新規,0,2021-07-21,2021-07-21,ｅ－Ｒｅａｌｉｚｅ株式会社,,株式会社,熊本県,熊本市東区,月出２丁目４番４０－７０３号シティライフ県立大通り,,43,102,8620920,,,,,,,2021-07-21,1,,,,,イーリアライズ,0
554,2330001028823,新規,0,2021-07-21,2021-07-21,株式会社阿蘇夢舞台,,株式会社,熊本県,阿蘇市,内牧９８７番地７,,43,214,8692301,,,,,,,2021-07-21,1,,,,,アソユメブタイ,0
559,2360001029075,新規,0,2021-07-21,2021-07-21,沖縄参逗株式会社,,株式会社,沖縄県,名護市,字辺野古３６０番地６６豊島アパート２０２号,,47,209,9052171,,,,,,,2021-07-21,1,,,,,,0
560,2360001029109,新規,0,2021-07-21,2021-07-21,株式会社よしみ商会,,株式会社,沖縄県,宮古島市,平良字下里６７４番地１,,47,214,9060013,,,,,,,2021-07-21,1,,,,,ヨシミショウカイ,0
561,2360001029117,新規,0,2021-07-21,2021-07-21,和力株式会社,,株式会社,沖縄県,那覇市,字国場９６３番地２－３０１室,,47,201,9020075,,,,,,,2021-07-21,1,,,,,ワリキ,0
564,2360003011312,新規,0,2021-07-21,2021-07-21,グランクリュ合同会社,,合同会社,沖縄県,那覇市,久茂地２丁目１３番１４号ヨーロピアンビル５階,,47,201,9000015,,,,,,,2021-07-21,1,,,,,グランクリュ,0
601,2430001084591,新規,0,2021-07-21,2021-07-21,北海道ごちそう倶楽部株式会社,,株式会社,北海道,札幌市中央区,南二条西６丁目１７番地２,,01,101,0600062,,,,,,,2021-07-21,1,,,,,ホッカイドウゴチソウクラブ,0
603,2430003012955,新規,0,2021-07-21,2021-07-21,合同会社ｔｉｅｓフードサービス,,合同会社,北海道,札幌市東区,北二十六条東１０丁目３番２５号ピュア２６　３０１号室,,01,103,0650026,,,,,,,2021-07-21,1,,,,,タイズフードサービス,0
604,2430005014231,新規,0,2021-07-21,2021-07-21,一般社団法人北海道任意売却・競売救済支援協会,,その他の設立登記法人,北海道,札幌市中央区,大通西１７丁目２番地２６イー・エフ大通１７ビル２階,,01,101,0600042,,,,,,,2021-07-21,1,,,,,ホッカイドウニンイバイキャクケイバイキュウサイシエンキョウカイ,0
612,2480001011434,新規,0,2021-07-21,2021-07-21,万福株式会社,,株式会社,徳島県,徳島市,住吉４丁目４番３８号,,36,201,7700861,,,,,,,2021-07-21,1,,,,,マンプク,0
614,2500001001779,新規,0,2021-07-21,2021-07-21,サクラホーム株式会社,,株式会社,愛媛県,松山市,山越５丁目９番６号,,38,201,7918013,,,,,,,2021-07-21,1,,,,,サクラホーム,0
627,3010001219800,新規,0,2021-07-21,2021-07-21,アクトアライズ株式会社,,株式会社,東京都,千代田区,内神田３丁目１２番４号第一岸ビル５Ｆ,,13,101,1010047,,,,,,,2021-07-21,1,,,,,アクトアライズ,0
628,3010001219890,新規,0,2021-07-21,2021-07-21,株式会社Ｓｔｕｄｉｏ弁天,,株式会社,東京都,千代田区,二番町９番３号,,13,101,1020084,,,,,,,2021-07-21,1,,,,,スタジオベンテン,0
630,3010003035394,新規,0,2021-07-21,2021-07-21,アートジアース合同会社,,合同会社,東京都,文京区,小石川５丁目１９番地２号イチョウテラス２０４,,13,105,1120002,,,,,,,2021-07-21,1,,,,,アートジアース,0
645,3010401161610,新規,0,2021-07-21,2021-07-21,株式会社ＨＷＪコンサルティング,,株式会社,東京都,港区,六本木３丁目４－３３マルマン六本木ビル３Ｆ,,13,103,1060032,,,,,,,2021-07-21,1,,,,,エイチダブリュージェイコンサルティング,0
646,3010403025771,新規,0,2021-07-21,2021-07-21,Ａｒｋｏｓｅ　Ｌａｂｓ　Ｊａｐａｎ合同会社,,合同会社,東京都,港区,虎ノ門４丁目３番１号城山トラストタワー２１階,,13,103,1050001,,,,,,,2021-07-21,1,,,,,アルコーズラボジャパン,0
653,3010601059613,新規,0,2021-07-21,2021-07-21,株式会社ｐｕｔ　Ｔｏｇｅｔｈｅｒ,,株式会社,東京都,墨田区,錦糸１丁目２番１号アルカセントラル１４階,,13,107,1300013,,,,,,,2021-07-21,1,,,,,プットトゥギャザー,0
654,3010601059679,新規,0,2021-07-21,2021-07-21,株式会社フォルツァ,,株式会社,東京都,江東区,森下２丁目２０番３号サンハイツ森下１０１号,,13,108,1350004,,,,,,,2021-07-21,1,,,,,フォルツァ,0
655,3010601059687,新規,0,2021-07-21,2021-07-21,フォーチュンクリエイター株式会社,,株式会社,東京都,江東区,亀戸２丁目１番２２号アーバンライフ亀戸,,13,108,1360071,,,,,,,2021-07-21,1,,,,,フォーチュンクリエイター,0
656,3010603009054,新規,0,2021-07-21,2021-07-21,合同会社ＴＭＢ,,合同会社,東京都,墨田区,緑２丁目１８番３号,,13,107,1300021,,,,,,,2021-07-21,1,,,,,ティーエムビー,0
661,3010701041248,新規,0,2021-07-21,2021-07-21,日本ＬＩＬＦ株式会社,,株式会社,東京都,品川区,西五反田２丁目１１番１５－６０３室,,13,109,1410031,,,,,,,2021-07-21,1,,,,,ニホンリルフ,0
680,3011001141639,新規,0,2021-07-21,2021-07-21,ハルトナル株式会社,,株式会社,東京都,渋谷区,恵比寿西１丁目２１番５号,,13,113,1500021,,,,,,,2021-07-21,1,,,,,ハルトナル,0
682,3011101012450,新規,0,2021-07-21,2021-07-21,株式会社高山建設,,株式会社,東京都,新宿区,西新宿３丁目２番２号,,13,104,1600023,,,,,,,2021-07-21,1,,,,,,0
690,3011101095768,新規,0,2021-07-21,2021-07-21,株式会社ＴＣＧ,,株式会社,東京都,新宿区,歌舞伎町２丁目３番２１号明治通りビル４０４,,13,104,1600021,,,,,,,2021-07-21,1,,,,,ティーシージー,0
691,3011101095784,新規,0,2021-07-21,2021-07-21,株式会社ベータ,,株式会社,東京都,新宿区,西新宿７丁目５－６－７０４,,13,104,1600023,,,,,,,2021-07-21,1,,,,,ベータ,0
692,3011103010881,新規,0,2021-07-21,2021-07-21,ライナス合同会社,,合同会社,東京都,新宿区,若宮町２３番地,,13,104,1620827,,,,,,,2021-07-21,1,,,,,ライナス,0
693,3011201023125,新規,0,2021-07-21,2021-07-21,株式会社ＡＳＥＡＮ　ＨＯＵＳＥ,,株式会社,東京都,中野区,中央２丁目２９番地１１号ＴｏｋｙｏＬｉｖｉｎｇ中野坂上,,13,114,1640011,,,,,,,2021-07-21,1,,,,,アセアンハウス,0
704,3011703002898,新規,0,2021-07-21,2021-07-21,合同会社フジモトソフト,,合同会社,東京都,江戸川区,南小岩７丁目４番７号アーク小岩ウエスト１０１,,13,123,1330056,,,,,,,2021-07-21,1,,,,,フジモトソフト,0
710,3013301047755,新規,0,2021-07-21,2021-07-21,株式会社Ｓ－ｃｒｅｗ,,株式会社,東京都,豊島区,池袋２丁目４３番３号田村ビル４Ｆ,,13,116,1710014,,,,,,,2021-07-21,1,,,,,エスクルー,0
716,3020001142290,新規,0,2021-07-21,2021-07-21,株式会社こころび,,株式会社,神奈川県,横浜市南区,大岡３丁目３４番３６コンフォートパレス上大岡３０６号室,,14,105,2320061,,,,,,,2021-07-21,1,,,,,ココロビ,0
717,3020001142332,新規,0,2021-07-21,2021-07-21,株式会社リワークス,,株式会社,神奈川県,川崎市多摩区,三田４丁目６番地１１,,14,135,2140034,,,,,,,2021-07-21,1,,,,,リワークス,0
725,3021001073476,新規,0,2021-07-21,2021-07-21,株式会社ラムジュラー,,株式会社,神奈川県,厚木市,中町２丁目１２番３号３階,,14,212,2430018,,,,,,,2021-07-21,1,,,,,ラムジュラー,0
728,3030001143445,新規,0,2021-07-21,2021-07-21,株式会社ほけんの立石,,株式会社,埼玉県,本庄市,若泉１丁目６番１８－１１２号,,11,211,3670055,,,,,,,2021-07-21,1,,,,,ホケンノタツイシ,0
729,3030001143453,新規,0,2021-07-21,2021-07-21,株式会社カンフォーラ,,株式会社,埼玉県,越谷市,登戸町２６番４号,,11,222,3430846,,,,,,,2021-07-21,1,,,,,カンフォーラ,0
730,3030001143461,新規,0,2021-07-21,2021-07-21,株式会社ネイシス,,株式会社,埼玉県,新座市,大和田１丁目８番４３号,,11,230,3520004,,,,,,,2021-07-21,1,,,,,ネイシス,0
737,3030003017663,新規,0,2021-07-21,2021-07-21,合同会社宮下,,合同会社,埼玉県,戸田市,中町１丁目３１番地の５－２０１号,,11,224,3350012,,,,,,,2021-07-21,1,,,,,ミヤシタ,0
748,3040001119411,新規,0,2021-07-21,2021-07-21,株式会社高幸,00123720,株式会社,千葉県,袖ケ浦市,横田２６７５番地１２,,12,229,2990236,,,,,,,2021-07-21,1,,,,,タカコウ,0
749,3040001119436,新規,0,2021-07-21,2021-07-21,株式会社ＫＩＮＤＳ,,株式会社,千葉県,野田市,関宿台町２５４６番地１,,12,208,2700202,,,,,,,2021-07-21,1,,,,,カインズ,0
750,3040001119444,新規,0,2021-07-21,2021-07-21,株式会社Ｋｅｎ　ｃｏｍｐａｎｙ,,株式会社,千葉県,市原市,君塚４丁目７番地１４,,12,219,2900051,,,,,,,2021-07-21,1,,,,,ケンカンパニー,0
751,3040001119460,新規,0,2021-07-21,2021-07-21,株式会社マスダ土建,,株式会社,千葉県,いすみ市,岬町鴨根３４６番地２,,12,238,2994624,,,,,,,2021-07-21,1,,,,,マスダドケン,0
763,3060001033924,新規,0,2021-07-21,2021-07-21,プロセスイノベーション株式会社,,株式会社,栃木県,宇都宮市,簗瀬町２５１６番地１３,,09,201,3210933,,,,,,,2021-07-21,1,,,,,プロセスイノベーション,0
795,3120001239085,新規,0,2021-07-21,2021-07-21,風和怡安株式会社,,株式会社,大阪府,大阪市西成区,千本南１丁目１７番２１号２０５－Ｄ室,,27,122,5570055,,,,,,,2021-07-21,1,,,,,フウワイアン,0
796,3120001239201,新規,0,2021-07-21,2021-07-21,株式会社ノムラ,,株式会社,大阪府,大阪市生野区,中川４丁目１４番５号,,27,116,5440005,,,,,,,2021-07-21,1,,,,,ノムラ,0
797,3120001239218,新規,0,2021-07-21,2021-07-21,株式会社ＣＢＣ,,株式会社,大阪府,大阪市生野区,田島６丁目１６番１１号,,27,116,5440011,,,,,,,2021-07-21,1,,,,,シービーシー,0
798,3120001239234,新規,0,2021-07-21,2021-07-21,株式会社ＥＮＡＢＬＥ,,株式会社,大阪府,大阪市北区,曾根崎１丁目６番１３号サウスビル６階,,27,127,5300057,,,,,,,2021-07-21,1,,,,,エネイブル,0
804,3120901044650,新規,0,2021-07-21,2021-07-21,株式会社Ｓｏｉｌ,,株式会社,大阪府,豊中市,東寺内町５番１６号,,27,203,5610871,,,,,,,2021-07-21,1,,,,,ソイル,0
805,3120901044659,新規,0,2021-07-21,2021-07-21,株式会社ＤＳＲＫ,,株式会社,大阪府,高槻市,成合東の町２１番２号,,27,207,5691014,,,,,,,2021-07-21,1,,,,,ディーエスアールケイ,0
807,3122003002140,新規,0,2021-07-21,2021-07-21,合同会社眞瑠,,合同会社,大阪府,大東市,泉町２丁目１６番１号サーパス大東泉町７１０号,,27,218,5740024,,,,,,,2021-07-21,1,,,,,マル,0
821,3140003016539,新規,0,2021-07-21,2021-07-21,合同会社フクナガ事務所,,合同会社,兵庫県,姫路市,千代田町６１７番地,,28,201,6700993,,,,,,,2021-07-21,1,,,,,フクナガジムショ,0
826,3160001023485,新規,0,2021-07-21,2021-07-21,株式会社ＦＭＩ九州,,株式会社,滋賀県,彦根市,高宮町１４２番地１馬場ビル３階,,25,202,5220201,,,,,,,2021-07-21,1,,,,,エフエムアイキュウシュウ,0
830,3180001147084,新規,0,2021-07-21,2021-07-21,善水株式会社,,株式会社,愛知県,名古屋市守山区,瀬古東３丁目１９０３番地の２,,23,113,4630090,,,,,,,2021-07-21,1,,,,,ゼンスイ,0
831,3180001147092,新規,0,2021-07-21,2021-07-21,株式会社ひまわり,,株式会社,愛知県,名古屋市東区,泉１丁目１番３０号,,23,102,4610001,,,,,,,2021-07-21,1,,,,,ヒマワリ,0
836,3180303005064,新規,0,2021-07-21,2021-07-21,合同会社Ｔ＆Ｙ総合建設,,合同会社,愛知県,豊橋市,牟呂市場町８番地１９,,23,201,4418088,,,,,,,2021-07-21,1,,,,,ティーアンドワイソウゴウケンセツ,0
844,3200005013222,新規,0,2021-07-21,2021-07-21,特定非営利活動法人セブンシーズ,,その他の設立登記法人,岐阜県,関市,武芸川町小知野８２０番地１,,21,205,5012602,,,,,,,2021-07-21,1,,,,,セブンシーズ,0
855,3240003005201,新規,0,2021-07-21,2021-07-21,合同会社ＦＡＣＴ,,合同会社,広島県,安芸郡海田町,三迫３丁目１９番３４－６号,,34,304,7360014,,,,,,,2021-07-21,1,,,,,ファクト,0
858,3250003002874,新規,0,2021-07-21,2021-07-21,合同会社ＦｉｖｅＤｏｇｓ,,合同会社,山口県,山口市,小郡かぜの丘１３番１号,,35,203,7540034,,,,,,,2021-07-21,1,,,,,ファイブドッグズ,0
861,3260001035784,新規,0,2021-07-21,2021-07-21,株式会社オカサポ中小企業診断士事務所,,株式会社,岡山県,岡山市北区,東古松３丁目５番１５号,,33,101,7000921,,,,,,,2021-07-21,1,,,,,オカサポチュウショウキギョウシンダンシジムショ,0
868,3290001093904,新規,0,2021-07-21,2021-07-21,株式会社フリークス,,株式会社,福岡県,福岡市博多区,博多駅前４丁目１８番１９号,,40,132,8120011,,,,,,,2021-07-21,1,,,,,フリークス,0
869,3290001093953,新規,0,2021-07-21,2021-07-21,株式会社Ｄ＆Ｎ,,株式会社,福岡県,福岡市博多区,博多駅南３丁目１７－１９,,40,132,8120016,,,,,,,2021-07-21,1,,,,,ディアンドエヌ,0
870,3290001093978,新規,0,2021-07-21,2021-07-21,株式会社久我組,,株式会社,福岡県,太宰府市,朱雀３丁目９番２６号,,40,221,8180103,,,,,,,2021-07-21,1,,,,,クガグミ,0
887,3340001023954,新規,0,2021-07-21,2021-07-21,株式会社カクイックスブリッジ,,株式会社,鹿児島県,鹿児島市,加治屋町３番１号,,46,201,8920846,,,,,,,2021-07-21,1,,,,,カクイックスブリッジ,0
891,3360001029124,新規,0,2021-07-21,2021-07-21,株式会社ＰＦ　ｇｒｏｕｐ,,株式会社,沖縄県,中頭郡北中城村,字渡口４５６番地１,,47,327,9012302,,,,,,,2021-07-21,1,,,,,ピーエフグループ,0
895,3370001047364,新規,0,2021-07-21,2021-07-21,仙台金時株式会社,,株式会社,宮城県,仙台市太白区,青山１丁目１２－２１パレスＭシード１０５号室,,04,104,9820834,,,,,,,2021-07-21,1,,,,,センダイキントキ,0
928,3430001084582,新規,0,2021-07-21,2021-07-21,株式会社ＬОＫＡ３７５,,株式会社,北海道,札幌市中央区,南六条西１４丁目１番１６－６０２号,,01,101,0640806,,,,,,,2021-07-21,1,,,,,ロカサンナナゴ,0
929,3430001084608,新規,0,2021-07-21,2021-07-21,株式会社はまだ,,株式会社,北海道,札幌市北区,新川西二条２丁目１１番１７号,,01,102,0010932,,,,,,,2021-07-21,1,,,,,ハマダ,0
930,3430003012946,新規,0,2021-07-21,2021-07-21,関羽合同会社,,合同会社,北海道,札幌市厚別区,もみじ台北６丁目３番３９－５０７号,,01,108,0040014,,,,,,,2021-07-21,1,,,,,カンウ,0
931,3430003012962,新規,0,2021-07-21,2021-07-21,合同会社Ｉワークス,,合同会社,北海道,札幌市白石区,平和通１４丁目南２番２３－１０３号,,01,104,0030028,,,,,,,2021-07-21,1,,,,,アイワークス,0
932,3430003012979,新規,0,2021-07-21,2021-07-21,合同会社セレタン,,合同会社,北海道,札幌市中央区,大通西３丁目６北海道新聞本社ビル２Ｆ,,01,101,0600042,,,,,,,2021-07-21,1,,,,,セレタン,0
940,3480003001688,新規,0,2021-07-21,2021-07-21,合同会社ＫＩＫｉｉ,,合同会社,徳島県,徳島市,栄町１丁目６２－１,,36,201,7700921,,,,,,,2021-07-21,1,,,,,キキ,0
943,3500001023574,新規,0,2021-07-21,2021-07-21,株式会社ＢｉＫＯ,,株式会社,愛媛県,松山市,辻町１１番２８号クローバーハイツ１Ｆ,,38,201,7900063,,,,,,,2021-07-21,1,,,,,ビコー,0
954,4010001219824,新規,0,2021-07-21,2021-07-21,株式会社Ｋマッチング,,株式会社,東京都,文京区,湯島２丁目２番２号ＪＳ令和ビル２Ｆ,,13,105,1130034,,,,,,,2021-07-21,1,,,,,ケーマッチング,0
955,4010001219840,新規,0,2021-07-21,2021-07-21,株式会社アイムザットアイム,,株式会社,東京都,中央区,銀座１丁目２２番１１号銀座大竹ビジデンス２階,,13,102,1040061,,,,,,,2021-07-21,1,,,,,アイムザットアイム,0
956,4010001219857,新規,0,2021-07-21,2021-07-21,Ｈｙｕｔｔｏ株式会社,,株式会社,東京都,中央区,銀座１丁目２２番１１号銀座大竹ビジデンス２階,,13,102,1040061,,,,,,,2021-07-21,1,,,,,ヒュット,0
971,4010401161642,新規,0,2021-07-21,2021-07-21,株式会社ダブルエヌマネジメント,,株式会社,東京都,港区,虎ノ門３丁目１１番９号シュミット虎ノ門ビル５階,,13,103,1050001,,,,,,,2021-07-21,1,,,,,ダブルエヌマネジメント,0
975,4010501047584,新規,0,2021-07-21,2021-07-21,株式会社創意,,株式会社,東京都,台東区,花川戸２丁目３番地３号中ビル１Ｆ,,13,106,1110033,,,,,,,2021-07-21,1,,,,,ソウイ,0
978,4010601059678,新規,0,2021-07-21,2021-07-21,株式会社ＡＲＳ,,株式会社,東京都,江東区,森下１丁目５番７号小幡ビル３Ｆ,,13,108,1350004,,,,,,,2021-07-21,1,,,,,エーアールエス,0
979,4010601059686,新規,0,2021-07-21,2021-07-21,ＰＯＩＮＰＡＹ株式会社,,株式会社,東京都,墨田区,文花２丁目１０－２ローヤルコーポ浅野１０１,,13,107,1310044,,,,,,,2021-07-21,1,,,,,ポインペイ,0
988,4010901049148,新規,0,2021-07-21,2021-07-21,株式会社ジョーショー,,株式会社,東京都,世田谷区,瀬田５丁目３番１０号,,13,112,1580095,,,,,,,2021-07-21,1,,,,,ジョーショー,0
1004,4011101095791,新規,0,2021-07-21,2021-07-21,株式会社Ｊ企画,,株式会社,東京都,新宿区,富久町３４番１３号市谷富久町シティハウス２０７,,13,104,1620067,,,,,,,2021-07-21,1,,,,,ジェイキカク,0
1005,4011101095800,新規,0,2021-07-21,2021-07-21,株式会社フロンティアライフパートナーズ,,株式会社,東京都,新宿区,西新宿６丁目１０番１号日土地西新宿ビル８Ｆ,,13,104,1600023,,,,,,,2021-07-21,1,,,,,フロンティアライフパートナーズ,0
1009,4011201023124,新規,0,2021-07-21,2021-07-21,株式会社グロリアス,,株式会社,東京都,中野区,東中野４丁目４番５号,,13,114,1640003,,,,,,,2021-07-21,1,,,,,グロリアス,0
1011,4011301027058,新規,0,2021-07-21,2021-07-21,ｉｎ　ｔｈｅ　ｐｉｎｋ株式会社,,株式会社,東京都,杉並区,浜田山４丁目２番１８号メゾネット浜田山２０５,,13,115,1680065,,,,,,,2021-07-21,1,,,,,インザピンク,0
1012,4011401023551,新規,0,2021-07-21,2021-07-21,株式会社サオバ,,株式会社,東京都,板橋区,中丸町３３－１５,,13,119,1730026,,,,,,,2021-07-21,1,,,,,サオバ,0
1016,4011701024563,新規,0,2021-07-21,2021-07-21,株式会社アキテックス,,株式会社,東京都,江戸川区,臨海町４丁目２番２号東丸運輸ビル４Ｆ,,13,123,1340086,,,,,,,2021-07-21,1,,,,,,0
1025,4013301047762,新規,0,2021-07-21,2021-07-21,株式会社ＳＴＦ,,株式会社,東京都,豊島区,西池袋１丁目４４番６号,,13,116,1710021,,,,,,,2021-07-21,1,,,,,エスティエフ,0
1028,4020001142307,新規,0,2021-07-21,2021-07-21,株式会社庭工房,,株式会社,神奈川県,横浜市都筑区,大丸１８番２号,,14,118,2240061,,,,,,,2021-07-21,1,,,,,ニワコウボウ,0
1029,4020002033026,新規,0,2021-07-21,2021-07-21,有限会社川原工務店,,有限会社,神奈川県,横浜市港北区,綱島西１丁目１０番地１８号,,14,109,2230053,,,,,,,2021-07-21,1,,,,,カワハラコウムテン,0
1033,4021001073459,新規,0,2021-07-21,2021-07-21,つつみこみ企画株式会社,,株式会社,神奈川県,相模原市南区,旭町２４番３９号ファーストアベニュー相模原１０３,,14,153,2520304,,,,,,,2021-07-21,1,,,,,ツツミコミキカク,0
1034,4021001073467,新規,0,2021-07-21,2021-07-21,株式会社ローカリティーデザイン,,株式会社,神奈川県,横須賀市,小川町２７番地１６,,14,201,2380004,,,,,,,2021-07-21,1,,,,,ローカリティーデザイン,0
1035,4021003010708,新規,0,2021-07-21,2021-07-21,合同会社Ｓｖｉｎａ　Ｒｅｉ,,合同会社,神奈川県,茅ヶ崎市,松浪１丁目１番１２号,,14,207,2530022,,,,,,,2021-07-21,1,,,,,スウィーナレイ,0
1051,4040001119443,新規,0,2021-07-21,2021-07-21,株式会社ブレードプランニング,,株式会社,千葉県,習志野市,東習志野８丁目２番１８－３号,,12,216,2750001,,,,,,,2021-07-21,1,,,,,ブレードプランニング,0
1052,4040001119451,新規,0,2021-07-21,2021-07-21,株式会社たかはし,,株式会社,千葉県,木更津市,東太田２丁目１４番２２号,,12,206,2920043,,,,,,,2021-07-21,1,,,,,タカハシ,0
1053,4040001119484,新規,0,2021-07-21,2021-07-21,株式会社ナガノコーポレーション,,株式会社,千葉県,船橋市,海神４丁目１６番７－２号,,12,204,2730021,,,,,,,2021-07-21,1,,,,,ナガノコーポレーション,0
1054,4040003018197,新規,0,2021-07-21,2021-07-21,君悦合同会社,,合同会社,千葉県,鎌ケ谷市,東初富３丁目７番４６号,,12,224,2730122,,,,,,,2021-07-21,1,,,,,クンエツ,0
1058,4050001049573,新規,0,2021-07-21,2021-07-21,株式会社ｅｎｈａｎｃｅ,,株式会社,茨城県,石岡市,東大橋２１２０番地８９,,08,205,3150031,,,,,,,2021-07-21,1,,,,,エンハンス,0
1059,4050001049581,新規,0,2021-07-21,2021-07-21,永正建設株式会社,,株式会社,茨城県,水戸市,笠原町１２３８－５,,08,201,3100852,,,,,,,2021-07-21,1,,,,,エイセイケンセツ,0
1078,4100001034446,新規,0,2021-07-21,2021-07-21,株式会社小幡ビル,,株式会社,長野県,上田市,材木町１丁目９番１５号,,20,203,3860014,,,,,,,2021-07-21,1,,,,,オバタビル,0
1082,4100005012745,新規,0,2021-07-21,2021-07-21,一般社団法人Ｆｒｏｍ　Ｓｃｉｅｎｃｅ　Ｔｏ　Ａｒｔ,,その他の設立登記法人,長野県,大町市,平２０８２番地３,,20,212,3980001,,,,,,,2021-07-21,1,,,,,フロムサイエンストウアート,0
1094,4120001239084,新規,0,2021-07-21,2021-07-21,一念株式会社,,株式会社,大阪府,大阪市西成区,千本南１丁目１７番２１号２０５－Ｃ室,,27,122,5570055,,,,,,,2021-07-21,1,,,,,イチネン,0
1095,4120001239159,新規,0,2021-07-21,2021-07-21,株式会社Ｄｅｌｉｖｅｒｙ,,株式会社,大阪府,寝屋川市,高宮栄町２５番３２号,,27,215,5720846,,,,,,,2021-07-21,1,,,,,デリバリー,0
1096,4120001239233,新規,0,2021-07-21,2021-07-21,施意概念株式会社,,株式会社,大阪府,大阪市生野区,巽中３丁目１１番４号,00123718,27,116,5440013,,,,,,,2021-07-21,1,,,,,シイガイネン,0
1113,4140001122346,新規,0,2021-07-21,2021-07-21,株式会社ＴＡＫＡ,,株式会社,兵庫県,神戸市中央区,加納町３丁目１２番１１－７０２号,,28,110,6500001,,,,,,,2021-07-21,1,,,,,タカ,0
1114,4140001122370,新規,0,2021-07-21,2021-07-21,株式会社Ｂ’ＪＵＢＩＬＡＴＩＯＮ,,株式会社,兵庫県,芦屋市,松ノ内町３番１４号チェリービュウ芦屋川,00123721,28,206,6590094,,,,,,,2021-07-21,1,,,,,ビージュビレーション,0
1121,4160001023484,新規,0,2021-07-21,2021-07-21,株式会社ＦＭＩディライト,,株式会社,滋賀県,彦根市,高宮町１４２番地１馬場ビル３階,,25,202,5220201,,,,,,,2021-07-21,1,,,,,エフエムアイディライト,0
1125,4180001147059,新規,0,2021-07-21,2021-07-21,株式会社青和工業,,株式会社,愛知県,一宮市,千秋町佐野字弁財天浦３２５０番地１,,23,203,4910804,,,,,,,2021-07-21,1,,,,,セイワコウギョウ,0
1168,4290001093952,新規,0,2021-07-21,2021-07-21,株式会社Ｎｅｗ　Ｗｉｎｄ,,株式会社,福岡県,福岡市中央区,大名２丁目９番２９－４０８号,,40,133,8100041,,,,,,,2021-07-21,1,,,,,ニューウインド,0
1169,4290001093977,新規,0,2021-07-21,2021-07-21,株式会社Ｎ－ＤＥＮ,,株式会社,福岡県,糟屋郡粕屋町,大字仲原２９２７番地１３,,40,349,8112304,,,,,,,2021-07-21,1,,,,,エヌデン,0
1170,4290001093993,新規,0,2021-07-21,2021-07-21,ぷらむエステート株式会社,,株式会社,福岡県,太宰府市,水城４丁目１０番１３号,,40,221,8180131,,,,,,,2021-07-21,1,,,,,プラムエステート,0
1172,4290003011425,新規,0,2021-07-21,2021-07-21,合同会社松永鍼灸マッサージ院,,合同会社,福岡県,久留米市,東櫛原町１３４５番地３,,40,203,8300003,,,,,,,2021-07-21,1,,,,,マツナガシンキュウマッサージイン,0
1178,4300001012563,新規,0,2021-07-21,2021-07-21,株式会社トラスト・メンテ,,株式会社,佐賀県,佐賀市,高木瀬町東高木１４３１－１,,41,201,,,,,,,,2021-07-21,1,,,,,トラストメンテ,0
1197,4360001029115,新規,0,2021-07-21,2021-07-21,共同元素株式会社,,株式会社,沖縄県,那覇市,前島３丁目２５番２号泊ポートビル５階,,47,201,9000016,,,,,,,2021-07-21,1,,,,,キョウドウゲンソ,0
1200,4360003011319,新規,0,2021-07-21,2021-07-21,合同会社キートン,,合同会社,沖縄県,宜野湾市,真栄原１丁目６番９号２Ｆ,,47,205,9012215,,,,,,,2021-07-21,1,,,,,キートン,0
1202,4370005010318,新規,0,2021-07-21,2021-07-21,司法書士法人わたりやまもと,,その他の設立登記法人,宮城県,亘理郡山元町,山寺字山下８９番地,,04,362,9892201,,,,,,,2021-07-21,1,,,,,ワタリヤマモト,0
1220,4420001017526,新規,0,2021-07-21,2021-07-21,南郷ひなた農園株式会社,,株式会社,青森県,八戸市,南郷大字大森字与次郎３番地３,,02,203,0310112,,,,,,,2021-07-21,1,,,,,ナンゴウヒナタノウエン,0
1232,4430003012953,新規,0,2021-07-21,2021-07-21,Ｂｅａｎ＆Ｓｉｍｂａ合同会社,,合同会社,北海道,札幌市中央区,南三条西２丁目７番地１,,01,101,0600063,,,,,,,2021-07-21,1,,,,,ビーンアンドシンバ,0
1233,4430003012978,新規,0,2021-07-21,2021-07-21,合同会社モナカ,,合同会社,北海道,札幌市中央区,宮の森一条１４丁目５番２８－３０３号,,01,101,0640951,,,,,,,2021-07-21,1,,,,,モナカ,0
1256,5010003035368,新規,0,2021-07-21,2021-07-21,ＲＢソーラークローバー合同会社,,合同会社,東京都,中央区,八丁堀４丁目２番１０号ＡＯＪ税理士法人内,,13,102,1040032,,,,,,,2021-07-21,1,,,,,アールビーソーラークローバー,0
1266,5010401161625,新規,0,2021-07-21,2021-07-21,Ｍ－ｚｏｍｉａ株式会社,,株式会社,東京都,港区,南青山２丁目２番１５号ウィン青山９４２,,13,103,1070062,,,,,,,2021-07-21,1,,,,,ミューゾミア,0
1272,5010501047567,新規,0,2021-07-21,2021-07-21,株式会社日新国際,,株式会社,東京都,台東区,北上野２丁目２５番９号－３０７号室,,13,106,1100014,,,,,,,2021-07-21,1,,,,,ニッシンコクサイ,0
1275,5010601059685,新規,0,2021-07-21,2021-07-21,株式会社エブリイ,,株式会社,東京都,江東区,辰巳１丁目６番１７,,13,108,1350053,,,,,,,2021-07-21,1,,,,,エブリイ,0
1276,5010601059693,新規,0,2021-07-21,2021-07-21,宮下製作所株式会社,,株式会社,東京都,江東区,豊洲３丁目４番２－４２０８号,,13,108,1350061,,,,,,,2021-07-21,1,,,,,ミヤシタセイサクジョ,0
1282,5010701041279,新規,0,2021-07-21,2021-07-21,株式会社サイバーファクトリー,,株式会社,東京都,品川区,大崎５丁目４番８号,,13,109,1410032,,,,,,,2021-07-21,1,,,,,サイバーファクトリー,0
1290,5010903006658,新規,0,2021-07-21,2021-07-21,ｍｙｋｏ合同会社,,合同会社,東京都,世田谷区,駒沢２丁目６番１４,,13,112,1540012,,,,,,,2021-07-21,1,,,,,ミコ,0
1291,5010903006666,新規,0,2021-07-21,2021-07-21,ウィンフィールド合同会社,,合同会社,東京都,世田谷区,代田３丁目１７番１４号,,13,112,1550033,,,,,,,2021-07-21,1,,,,,ウィンフィールド,0
1299,5011001141835,新規,0,2021-07-21,2021-07-21,株式会社Ｌａｃｏ　Ｌｉｆｅ,,株式会社,東京都,渋谷区,円山町５番５号,,13,113,1500044,,,,,,,2021-07-21,1,,,,,ラコライフ,0
1302,5011101095799,新規,0,2021-07-21,2021-07-21,株式会社Ｇｐｌａｎｎｉｎｇ,,株式会社,東京都,新宿区,四谷１丁目２２番地５,,13,104,1600004,,,,,,,2021-07-21,1,,,,,ジープランニング,0
1308,5011401023550,新規,0,2021-07-21,2021-07-21,ＳＫ技術株式会社,,株式会社,東京都,板橋区,幸町１７番１号,,13,119,1730034,,,,,,,2021-07-21,1,,,,,エスケーギジュツ,0
1313,5011501027154,新規,0,2021-07-21,2021-07-21,縁湧国際株式会社,,株式会社,東京都,北区,王子本町２丁目９番８号,,13,117,1140022,,,,,,,2021-07-21,1,,,,,エンユウコクサイ,0
1326,5012403004951,新規,0,2021-07-21,2021-07-21,サンタ・カンパニー合同会社,,合同会社,東京都,小金井市,本町５丁目３８番２５－３０６号アストロ武蔵小金井,,13,210,1840004,,,,,,,2021-07-21,1,,,,,サンタカンパニー,0
1328,5012701016590,新規,0,2021-07-21,2021-07-21,株式会社スペシャルティサービス,,株式会社,東京都,小平市,上水本町６丁目５番８－１０６号,,13,211,1870022,,,,,,,2021-07-21,1,,,,,スペシャルティサービス,0
1329,5013301047761,新規,0,2021-07-21,2021-07-21,株式会社ＨＴＡ,,株式会社,東京都,豊島区,池袋２丁目６５番１９号,,13,116,1710014,,,,,,,2021-07-21,1,,,,,エイチティエー,0
1335,5020001142306,新規,0,2021-07-21,2021-07-21,株式会社川崎ウチダシステム,,株式会社,神奈川県,川崎市川崎区,小川町１６番地１７,,14,131,2100023,,,,,,,2021-07-21,1,,,,,カワサキウチダシステム,0
1338,5020003020204,新規,0,2021-07-21,2021-07-21,合同会社ＮＫ　Ｃｏｍｐａｎｙ,,合同会社,神奈川県,横浜市保土ケ谷区,川島町５３２番地４,,14,106,2400045,,,,,,,2021-07-21,1,,,,,エヌケーカンパニー,0
1342,5021001073458,新規,0,2021-07-21,2021-07-21,株式会社センターヴィレッジ,,株式会社,神奈川県,大和市,上草柳１７７番地１０,,14,213,2420029,,,,,,,2021-07-21,1,,,,,センターヴィレッジ,0
1346,5021003010707,新規,0,2021-07-21,2021-07-21,合同会社チャムフィールド,,合同会社,神奈川県,綾瀬市,寺尾北３丁目１７番２２号,,14,218,2521131,,,,,,,2021-07-21,1,,,,,チャムフィールド,0
1349,5030001143443,新規,0,2021-07-21,2021-07-21,株式会社広芳,,株式会社,埼玉県,朝霞市,本町３丁目７番４号,,11,227,3510011,,,,,,,2021-07-21,1,,,,,ヒロヨシ,0
1360,5040001119418,新規,0,2021-07-21,2021-07-21,株式会社美浜インテリア,,株式会社,千葉県,千葉市花見川区,幕張町１丁目１３７８幕張シティハイツＳＳⅡ－２号,00123712,12,102,2620032,,,,,,,2021-07-21,1,,,,,ミハマインテリア,0
1361,5040001119450,新規,0,2021-07-21,2021-07-21,菅谷牧場株式会社,00123711,株式会社,千葉県,香取郡東庄町,小南１９７３番地,,12,349,2890624,,,,,,,2021-07-21,1,,,,,スガヤボクジョウ,0
1364,5040003018196,新規,0,2021-07-21,2021-07-21,ＮＫ企画合同会社,,合同会社,千葉県,市川市,菅野６丁目２２番１０号,,12,203,2720824,,,,,,,2021-07-21,1,,,,,エヌケイキカク,0
1366,5050001049564,新規,0,2021-07-21,2021-07-21,大塚材木株式会社,,株式会社,茨城県,かすみがうら市,加茂３５９番地１,,08,230,3000135,,,,,,,2021-07-21,1,,,,,オオツカザイモク,0
1367,5050001049572,新規,0,2021-07-21,2021-07-21,東島株式会社,,株式会社,茨城県,つくば市,北条３４６,,08,220,3004231,,,,,,,2021-07-21,1,,,,,トウジマ,0
1368,5050001049580,新規,0,2021-07-21,2021-07-21,株式会社エーワン,,株式会社,茨城県,神栖市,神栖２丁目３番５０号,,08,232,3140143,,,,,,,2021-07-21,1,,,,,エーワン,0
1386,5100003006178,新規,0,2021-07-21,2021-07-21,合同会社ＰＯＣＯ,,合同会社,長野県,安曇野市,穂高有明２２５６－４１,,20,220,3998301,,,,,,,2021-07-21,1,,,,,ポコ,0
1405,5120901044649,新規,0,2021-07-21,2021-07-21,ＧＲホールディングス株式会社,,株式会社,大阪府,摂津市,鳥飼上４丁目５番１１号,,27,224,5660062,,,,,,,2021-07-21,1,,,,,ジーアールホールディングス,0
1406,5120901044657,新規,0,2021-07-21,2021-07-21,株式会社ＡＱＵＡ,,株式会社,大阪府,池田市,旭丘２丁目５番１０号,,27,204,5630022,,,,,,,2021-07-21,1,,,,,アクア,0
1413,5130003007363,新規,0,2021-07-21,2021-07-21,Ａｍａｒａｎｔｈ　Ｌｉｖｅｒ　Ａｇｅｎｃｙ合同会社,,合同会社,京都府,京都市中京区,御池通東洞院東入笹屋町４３６永和御池ビル６０６号,,26,104,6048187,,,,,,,2021-07-21,1,,,,,アマランスライバーエージェンシー,0
1423,5140001122403,新規,0,2021-07-21,2021-07-21,ＧｒａｎＰｒｏｐｅｒｔｙＭａｎａｇｅｍｅｎｔ株式会社,,株式会社,兵庫県,姫路市,西駅前町３５番地１－２Ｆ,,28,201,6700913,,,,,,,2021-07-21,1,,,,,グランプロパティマネジメント,0
1424,5140001122411,新規,0,2021-07-21,2021-07-21,前田建設株式会社,,株式会社,兵庫県,小野市,広渡町４１０番地,,28,218,6751365,,,,,,,2021-07-21,1,,,,,マエダケンセツ,0
1427,5140003016537,新規,0,2021-07-21,2021-07-21,Ｇｏｌｄｍａｎ　Ｓｔａｎｌｅｙ　Ｃａｐｉｔａｌ　Ｊａｐａｎ合同会社,,合同会社,兵庫県,川西市,けやき坂２丁目５４番地の５,,28,217,6660145,,,,,,,2021-07-21,1,,,,,ゴールドマンスタンレーキャピタルジャパン,0
1438,5180001147033,新規,0,2021-07-21,2021-07-21,株式会社コスモ精工,,株式会社,愛知県,春日井市,鳥居松町４丁目１４６番１号グランドメゾン鳥居松４０２号,,23,206,4860844,,,,,,,2021-07-21,1,,,,,コスモセイコウ,0
1439,5180001147090,新規,0,2021-07-21,2021-07-21,コディーノ株式会社,,株式会社,愛知県,名古屋市天白区,井口２丁目７０６番地ラハイナハイツパートⅢ１０２号,00123710,23,116,4680052,,,,,,,2021-07-21,1,,,,,コディーノ,0
1455,5190001028513,新規,0,2021-07-21,2021-07-21,株式会社Ｓｐａｒｋｌｅ,,株式会社,三重県,伊勢市,船江２丁目２５番２０号,,24,203,5160008,,,,,,,2021-07-21,1,,,,,スパークル,0
1469,5220003003089,新規,0,2021-07-21,2021-07-21,合同会社ブレイン・ハート,,合同会社,石川県,小松市,打越町丙１０６番地３,,17,203,9230831,,,,,,,2021-07-21,1,,,,,ブレインハート,0
1483,5290001093860,新規,0,2021-07-21,2021-07-21,株式会社Ｌｉａｍ,,株式会社,福岡県,大野城市,錦町２丁目５－１６安倍ビル２階,,40,219,8160935,,,,,,,2021-07-21,1,,,,,リアム,0
1484,5290001093943,新規,0,2021-07-21,2021-07-21,株式会社ＪＴリハウス,,株式会社,福岡県,福岡市南区,横手４丁目１番３－１０３号,,40,134,8111311,,,,,,,2021-07-21,1,,,,,ジェイティーリハウス,0
1485,5290001093976,新規,0,2021-07-21,2021-07-21,株式会社ｅｅｌ,,株式会社,福岡県,福岡市博多区,奈良屋町１番１号,,40,132,8120023,,,,,,,2021-07-21,1,,,,,イール,0
1486,5290001093984,新規,0,2021-07-21,2021-07-21,株式会社Ｙ，ｓ,,株式会社,福岡県,福岡市東区,和白東２丁目２１番２１号,,40,131,8110214,,,,,,,2021-07-21,1,,,,,ワイズ,0
1496,5310001017387,新規,0,2021-07-21,2021-07-21,グローバル人材育成株式会社,,株式会社,長崎県,大村市,桜馬場２丁目３３３番地９,,42,205,8560812,,,,,,,2021-07-21,1,,,,,グローバルジンザイイクセイ,0
1504,5350001017210,新規,0,2021-07-21,2021-07-21,株式会社一平本舗,,株式会社,宮崎県,宮崎市,松山１丁目８番８号,,45,201,8800865,,,,,,,2021-07-21,1,,,,,イッペイホンポ,0
1507,5360001029106,新規,0,2021-07-21,2021-07-21,株式会社ＭＡＨＡＬＯリゾート不動産,,株式会社,沖縄県,石垣市,浜崎町３丁目３－２０－２０５,,47,207,9070013,,,,,,,2021-07-21,1,,,,,,0
1508,5360003011318,新規,0,2021-07-21,2021-07-21,合同会社ライフアドバンス,,合同会社,沖縄県,那覇市,真嘉比２丁目２０番１９号メゾネットＺＥＮ－Ｄ,,47,201,9020068,,,,,,,2021-07-21,1,,,,,ライフアドバンス,0
1510,5370001047370,新規,0,2021-07-21,2021-07-21,株式会社Ｎ．ｇｌａｃｅ,,株式会社,宮城県,東松島市,矢本字南浦３０番地３,,04,214,9810503,,,,,,,2021-07-21,1,,,,,エヌグレース,0
1512,5370003005310,新規,0,2021-07-21,2021-07-21,合同会社ＭＫ．ＭＡＲＫ,,合同会社,宮城県,柴田郡柴田町,大字船岡字古河２７－１,,04,323,9891606,,,,,,,2021-07-21,1,,,,,エムケーマーク,0
1513,5370003005319,新規,0,2021-07-21,2021-07-21,ｍｙｂｏｏｍ合同会社,,合同会社,宮城県,宮城郡松島町,松島字普賢堂７１番地,,04,401,9810213,,,,,,,2021-07-21,1,,,,,マイブーム,0
1536,5430003012960,新規,0,2021-07-21,2021-07-21,合同会社ｃｏｌｏｒ,,合同会社,北海道,札幌市手稲区,稲穂二条１丁目６番２５－１０６号,,01,109,0060032,,,,,,,2021-07-21,1,,,,,カラー,0
1549,6010001219780,新規,0,2021-07-21,2021-07-21,ソムリエ株式会社,,株式会社,東京都,中央区,銀座１丁目２２番１１号,,13,102,1040061,,,,,,,2021-07-21,1,,,,,ソムリエ,0
1550,6010001219822,新規,0,2021-07-21,2021-07-21,株式会社ＵＥＮＯＡ　ａｒｃｈｉｔｅｃｔｓ,,株式会社,東京都,文京区,湯島４丁目６番１２－１１１１号,,13,105,1130034,,,,,,,2021-07-21,1,,,,,ウエノアアーキテクツ,0
1551,6010001219855,新規,0,2021-07-21,2021-07-21,にっぽんインキュベーション株式会社,,株式会社,東京都,中央区,月島１丁目２番１３号ワイズビルディング４Ｆ,,13,102,1040052,,,,,,,2021-07-21,1,,,,,ニッポンインキュベーション,0
1552,6010001219863,新規,0,2021-07-21,2021-07-21,ＦＴＰ株式会社,,株式会社,東京都,中央区,京橋２丁目１４番１号,,13,102,1040031,,,,,,,2021-07-21,1,,,,,エフティーピー,0
1553,6010001219871,新規,0,2021-07-21,2021-07-21,株式会社中央電力保安協会,,株式会社,東京都,中央区,日本橋蛎殻町１丁目３６番５号,,13,102,1030014,,,,,,,2021-07-21,1,,,,,チュウオウデンリョクホアンキョウカイ,0
1554,6010001219888,新規,0,2021-07-21,2021-07-21,株式会社ナレタン,,株式会社,東京都,千代田区,神田三崎町１丁目４番９号,,13,101,1010061,,,,,,,2021-07-21,1,,,,,,0
1557,6010003035367,新規,0,2021-07-21,2021-07-21,ＲＢソーラールピナス合同会社,,合同会社,東京都,中央区,八丁堀４丁目２番１０号ＡＯＪ税理士法人内,,13,102,1040032,,,,,,,2021-07-21,1,,,,,アールビーソーラールピナス,0
1559,6010103001731,新規,0,2021-07-21,2021-07-21,合同会社０,,合同会社,東京都,八王子市,大和田町３丁目１４番１６号,,13,201,1920045,,,,,,,2021-07-21,1,,,,,ゼロ,0
1562,6010401161616,新規,0,2021-07-21,2021-07-21,ユコカツ株式会社,,株式会社,東京都,港区,芝浦４丁目１０番１号,,13,103,1080023,,,,,,,2021-07-21,1,,,,,ユコカツ,0
1563,6010401161673,新規,0,2021-07-21,2021-07-21,株式会社ＲｅＡｌｉｖｅ,,株式会社,東京都,港区,六本木７丁目１４番２３号,,13,103,1060032,,,,,,,2021-07-21,1,,,,,リアライブ,0
1566,6010403025760,新規,0,2021-07-21,2021-07-21,ＬＬパートナーズ合同会社,,合同会社,東京都,港区,高輪３丁目１０番２号グラスプラス高輪,,13,103,1080074,,,,,,,2021-07-21,1,,,,,エルエルパートナーズ,0
1568,6010501047566,新規,0,2021-07-21,2021-07-21,株式会社ｋ９,,株式会社,東京都,台東区,上野３丁目１５番７号,,13,106,1100005,,,,,,,2021-07-21,1,,,,,ケーナイン,0
1569,6010601059676,新規,0,2021-07-21,2021-07-21,株式会社シーズコンサルティング,,株式会社,東京都,墨田区,菊川１丁目１７番１７号新菊川ビル２０４号室,,13,107,1300024,,,,,,,2021-07-21,1,,,,,シーズコンサルティング,0
1570,6010603009051,新規,0,2021-07-21,2021-07-21,ＣｏｎｅＤｏ合同会社,,合同会社,東京都,江東区,東陽２丁目３番６－３１１号,,13,108,1350016,,,,,,,2021-07-21,1,,,,,コネド,0
1586,6011001141818,新規,0,2021-07-21,2021-07-21,株式会社ＭＴＢ,,株式会社,東京都,渋谷区,恵比寿南２丁目２３－２恵比寿ＮＨ第二ビル２階,,13,113,1500022,,,,,,,2021-07-21,1,,,,,エムティービー,0
1587,6011001141834,新規,0,2021-07-21,2021-07-21,株式会社Ａｆｆａｓｃｉｎａｒｅ,,株式会社,東京都,渋谷区,恵比寿３丁目３０番１２号,,13,113,1500013,,,,,,,2021-07-21,1,,,,,アファシナーレ,0
1593,6011101095724,新規,0,2021-07-21,2021-07-21,ＹＯＮＥＭＡ　Ｇｌｏｂａｌ　Ｔｒａｄｉｎｇ株式会社,,株式会社,東京都,新宿区,西新宿１丁目２６番２号新宿野村ビル３２階,,13,104,1600023,,,,,,,2021-07-21,1,,,,,ヨネマグローバルトレーディング,0
1594,6011103010879,新規,0,2021-07-21,2021-07-21,総合サービス合同会社,,合同会社,東京都,新宿区,新宿１丁目４番１３号,,13,104,1600022,,,,,,,2021-07-21,1,,,,,ソウゴウサービス,0
1595,6011201023122,新規,0,2021-07-21,2021-07-21,株式会社ベネファーマ,,株式会社,東京都,中野区,本町４丁目４４－１３西京城西ビル２階,,13,114,1640012,,,,,,,2021-07-21,1,,,,,ベネファーマ,0
1608,6012401038117,新規,0,2021-07-21,2021-07-21,株式会社ＪＢ,,株式会社,東京都,多摩市,関戸２丁目２４番１４号ダイヤメイト聖蹟２－１０２,,13,224,2060011,,,,,,,2021-07-21,1,,,,,ジェービー,0
1614,6013103001065,新規,0,2021-07-21,2021-07-21,合同会社新洋ネクスト,,合同会社,東京都,羽村市,川崎４丁目１番１１号,,13,227,2050021,,,,,,,2021-07-21,1,,,,,シンヨウネクスト,0
1619,6013303005758,新規,0,2021-07-21,2021-07-21,合同会社ピオレオ,,合同会社,東京都,豊島区,東池袋１丁目３４番５号いちご東池袋ビル６階,,13,116,1700013,,,,,,,2021-07-21,1,,,,,ピオレオ,0
1624,6020003020203,新規,0,2021-07-21,2021-07-21,合同会社Ｂｅｌｌ　Ｐｒｏｊｅｃｔ,,合同会社,神奈川県,川崎市川崎区,渡田山王町１１番１３号,,14,131,2100845,,,,,,,2021-07-21,1,,,,,ベルプロジェクト,0
1625,6020003020211,新規,0,2021-07-21,2021-07-21,新川崎経営情報合同会社,,合同会社,神奈川県,川崎市幸区,新川崎５番１－５１５号,,14,132,2120032,,,,,,,2021-07-21,1,,,,,シンカワサキケイエイジョウホウ,0
1630,6021001073457,新規,0,2021-07-21,2021-07-21,株式会社アトリエアンジェ,,株式会社,神奈川県,平塚市,南原２丁目４番２５号,,14,203,2540065,,,,,,,2021-07-21,1,,,,,アトリエアンジェ,0
1639,6030003017660,新規,0,2021-07-21,2021-07-21,合同会社天風アソシエイツ,,合同会社,埼玉県,さいたま市浦和区,岸町３丁目１番地１号,,11,107,3300064,,,,,,,2021-07-21,1,,,,,テンプウアソシエイツ,0
1646,6040001119409,新規,0,2021-07-21,2021-07-21,株式会社ｈ２ｃ,,株式会社,千葉県,柏市,船戸１丁目１０番地９,,12,217,2770802,,,,,,,2021-07-21,1,,,,,エイチツウシー,0
1647,6040001119425,新規,0,2021-07-21,2021-07-21,イーストサンズジャパン株式会社,,株式会社,千葉県,浦安市,堀江３丁目２０－２３,,12,227,2790041,,,,,,,2021-07-21,1,,,,,イーストサンズジャパン,0
1660,6050003005993,新規,0,2021-07-21,2021-07-21,合同会社ＳＨＡＳＨＩＮＩ　ＥＮＴＥＲＰＲＩＳＥＳ,,合同会社,茨城県,鉾田市,阿玉９６６番地４５,,08,234,3112118,,,,,,,2021-07-21,1,,,,,シャシニエンタープライセス,0
1674,6110003004535,新規,0,2021-07-21,2021-07-21,合同会社Ｓａｌｖａ,,合同会社,新潟県,新潟市中央区,天神１丁目１プラーカ３、２Ｆ,,15,103,9500917,,,,,,,2021-07-21,1,,,,,サルヴァ,0
1684,6120001239207,新規,0,2021-07-21,2021-07-21,アセットアロケーション株式会社,,株式会社,大阪府,大阪市中央区,島之内１丁目２１番３０号アスティオンカズ,,27,128,5420082,,,,,,,2021-07-21,1,,,,,アセットアロケーション,0
1688,6120003019870,新規,0,2021-07-21,2021-07-21,合同会社ＯｒＡｎｇｅ,,合同会社,大阪府,大阪市西区,江戸堀１丁目１４番１号平和相互肥後橋ビル４０４,,27,106,5500002,,,,,,,2021-07-21,1,,,,,オレンジ,0
1691,6120005022410,新規,0,2021-07-21,2021-07-21,医療法人有健会,,その他の設立登記法人,大阪府,門真市,垣内町１２番３２号,,27,223,5710065,,,,,,,2021-07-21,1,,,,,ユウケンカイ,0
1698,6120901044648,新規,0,2021-07-21,2021-07-21,株式会社あさみはる,,株式会社,大阪府,豊中市,熊野町４丁目５番５号,,27,203,5600014,,,,,,,2021-07-21,1,,,,,アサミハル,0
1699,6120901044656,新規,0,2021-07-21,2021-07-21,みらいサポートサービス株式会社,,株式会社,大阪府,吹田市,青葉丘北８番２８号,,27,205,5650801,,,,,,,2021-07-21,1,,,,,ミライサポートサービス,0
1701,6120903003750,新規,0,2021-07-21,2021-07-21,合同会社アトランティス,,合同会社,大阪府,豊中市,浜１丁目１４番３５号,,27,203,5610817,,,,,,,2021-07-21,1,,,,,アトランティス,0
1703,6122001035008,新規,0,2021-07-21,2021-07-21,株式会社ＣＺアチーブメント,,株式会社,大阪府,大東市,大字龍間１２６６番５,,27,218,5740012,,,,,,,2021-07-21,1,,,,,シーゼットアチーブメント,0
1704,6122001035016,新規,0,2021-07-21,2021-07-21,株式会社ウェブゲート,,株式会社,大阪府,東大阪市,近江堂１丁目６－６－２０２号室,,27,227,5770817,,,,,,,2021-07-21,1,,,,,ウェブゲート,0
1710,6130005016238,新規,0,2021-07-21,2021-07-21,医療法人なみかわ歯科クリニック,,その他の設立登記法人,京都府,福知山市,字前田小字池部１６１６番地１,,26,201,6200867,,,,,,,2021-07-21,1,,,,,ナミカワシカクリニック,0
1716,6140001122360,新規,0,2021-07-21,2021-07-21,株式会社エスダブリューグループ,,株式会社,兵庫県,西宮市,甲子園浜２丁目１８番地,,28,204,6638155,,,,,,,2021-07-21,1,,,,,エスダブリューグループ,0
1717,6140001122393,新規,0,2021-07-21,2021-07-21,ＫＴｗｏ株式会社,,株式会社,兵庫県,神戸市中央区,波止場町６番３号,,28,110,6500042,,,,,,,2021-07-21,1,,,,,ケーツー,0
1722,6160001023482,新規,0,2021-07-21,2021-07-21,株式会社ホーンズ,,株式会社,滋賀県,大津市,大萱３丁目７番２５号,,25,201,5202144,,,,,,,2021-07-21,1,,,,,ホーンズ,0
1723,6160003002336,新規,0,2021-07-21,2021-07-21,合同会社Ｅ－ＳＰＡＲＫ,,合同会社,滋賀県,甲賀市,土山町頓宮１９１番地２,,25,209,5280231,,,,,,,2021-07-21,1,,,,,イースパーク,0
1753,6220003003088,新規,0,2021-07-21,2021-07-21,合同会社元気になあれ,,合同会社,石川県,小松市,安宅町リ１４番地４５,,17,203,9230003,,,,,,,2021-07-21,1,,,,,ゲンキニナアレ,0
1774,6260001035765,新規,0,2021-07-21,2021-07-21,株式会社一心會,,株式会社,岡山県,岡山市東区,西大寺松崎２４４番地１ミロワール壱番館１０５,,33,103,7048183,,,,,,,2021-07-21,1,,,,,イッシンカイ,0
1778,6290001093991,新規,0,2021-07-21,2021-07-21,株式会社ワイズ設計企画,,株式会社,福岡県,那珂川市,下梶原２丁目３番１９号,,40,231,8111222,,,,,,,2021-07-21,1,,,,,,0
1787,6320003003581,新規,0,2021-07-21,2021-07-21,豊盛合同会社,,合同会社,大分県,別府市,朝見２丁目２２番４１号,,44,202,8740812,,,,,,,2021-07-21,1,,,,,トヨモリ,0
1802,6360001029113,新規,0,2021-07-21,2021-07-21,株式会社タイムスアドネクスト,,株式会社,沖縄県,那覇市,久茂地２丁目２番２号タイムスビル１０階,,47,201,9000015,,,,,,,2021-07-21,1,,,,,タイムスアドネクスト,0
1803,6360001029121,新規,0,2021-07-21,2021-07-21,株式会社トータルアレンジ,,株式会社,沖縄県,中頭郡中城村,字南上原５６２番地２、２７街区３画地,,47,328,9012424,,,,,,,2021-07-21,1,,,,,トータルアレンジ,0
1824,6410001012906,新規,0,2021-07-21,2021-07-21,株式会社ｆｉｒｓｔｆｉｒｍ,,株式会社,秋田県,由利本荘市,中梵天９７番地２,,05,210,0150851,,,,,,,2021-07-21,1,,,,,ファストファーム,0
1828,6420003002350,新規,0,2021-07-21,2021-07-21,合同会社大地,,合同会社,青森県,三戸郡階上町,大字赤保内字耳ケ吠３番地９,,02,446,0391202,,,,,,,2021-07-21,1,,,,,ダイチ,0
1829,6420005007760,新規,0,2021-07-21,2021-07-21,弁護士法人いずみ法律事務所,,その他の設立登記法人,青森県,十和田市,西一番町１７番６号２階,,02,206,0340092,,,,,,,2021-07-21,1,,,,,イズミホウリツジムショ,0
1831,6430001084596,新規,0,2021-07-21,2021-07-21,株式会社クリエイトサービス,,株式会社,北海道,札幌市南区,川沿六条３丁目２番３８号,,01,106,0050806,,,,,,,2021-07-21,1,,,,,クリエイトサービス,0
1847,7010001219838,新規,0,2021-07-21,2021-07-21,株式会社七福セフティ,,株式会社,東京都,中央区,銀座１丁目２２番１１号銀座大竹ビジデンス２Ｆ,,13,102,1040061,,,,,,,2021-07-21,1,,,,,ナナフクセフティ,0
1848,7010001219887,新規,0,2021-07-21,2021-07-21,株式会社オダニ,,株式会社,東京都,文京区,本郷１丁目２２番６－８０１号,,13,105,1130033,,,,,,,2021-07-21,1,,,,,,0
1851,7010101014775,新規,0,2021-07-21,2021-07-21,株式会社金子ビル,,株式会社,東京都,八王子市,めじろ台１丁目５番地３,,13,201,1930833,,,,,,,2021-07-21,1,,,,,カネコビル,0
1861,7010401161623,新規,0,2021-07-21,2021-07-21,株式会社タルシル,,株式会社,東京都,港区,西麻布２丁目２１番２３号,,13,103,1060031,,,,,,,2021-07-21,1,,,,,タルシル,0
1862,7010401161631,新規,0,2021-07-21,2021-07-21,株式会社Ｓｐｉｎａｃｈ,,株式会社,東京都,港区,南青山５丁目６－２５永和ビル４Ｆ,,13,103,1070062,,,,,,,2021-07-21,1,,,,,スピニッチ,0
1863,7010403025768,新規,0,2021-07-21,2021-07-21,サーティーウィザーズ合同会社,,合同会社,東京都,港区,南青山２丁目２番１５号,,13,103,1070062,,,,,,,2021-07-21,1,,,,,サーティーウィザーズ,0
1864,7010403025776,新規,0,2021-07-21,2021-07-21,合同会社Ａ．Ｐ．１７,,合同会社,東京都,港区,元赤坂１丁目１番８号赤坂コミュニティビル４階,,13,103,1070051,,,,,,,2021-07-21,1,,,,,エーピーセブンティーン,0
1869,7010601059667,新規,0,2021-07-21,2021-07-21,ｃ．ｏ．ａ株式会社,,株式会社,東京都,江東区,亀戸４丁目２６番３－６０２号,,13,108,1360071,,,,,,,2021-07-21,1,,,,,シーオーエー,0
1870,7010601059683,新規,0,2021-07-21,2021-07-21,株式会社ＧＥＮＰＵＫＵ,,株式会社,東京都,墨田区,横網２丁目１０番９号１Ｆ,,13,107,1300015,,,,,,,2021-07-21,1,,,,,ゲンプク,0
1876,7010901049137,新規,0,2021-07-21,2021-07-21,株式会社ベルフィオレ,,株式会社,東京都,世田谷区,玉川１丁目７番９－２０５号,,13,112,1580094,,,,,,,2021-07-21,1,,,,,ベルフィオレ,0
1882,7011001141825,新規,0,2021-07-21,2021-07-21,株式会社ビータサリーレ,,株式会社,東京都,渋谷区,恵比寿南３丁目９番１５号,,13,113,1500022,,,,,,,2021-07-21,1,,,,,ビータサリーレ,0
1883,7011001141866,新規,0,2021-07-21,2021-07-21,株式会社ＡＯＩ　Ｓｔｙｌｅ,,株式会社,東京都,渋谷区,恵比寿１丁目１９番１９号恵比寿ビジネスタワー,,13,113,1500013,,,,,,,2021-07-21,1,,,,,アオイスタイル,0
1886,7011101095789,新規,0,2021-07-21,2021-07-21,令和農畜水輸出入株式会社,,株式会社,東京都,新宿区,高田馬場３丁目１４番２号,,13,104,1690075,,,,,,,2021-07-21,1,,,,,レイワノウチクスイユシュツニュウ,0
1887,7011101095797,新規,0,2021-07-21,2021-07-21,２ｗｉｎ株式会社,,株式会社,東京都,新宿区,西新宿３丁目９番７号,,13,104,1600023,,,,,,,2021-07-21,1,,,,,ツーウィン,0
1888,7011101095806,新規,0,2021-07-21,2021-07-21,株式会社ＵＮＤＥＲ　ＭＯＢ,,株式会社,東京都,新宿区,西新宿８丁目２－３４－４０１,,13,104,1600023,,,,,,,2021-07-21,1,,,,,アンダーモブ,0
1889,7011303004102,新規,0,2021-07-21,2021-07-21,サニーライン合同会社,,合同会社,東京都,杉並区,永福３丁目３８番１５号,,13,115,1680064,,,,,,,2021-07-21,1,,,,,サニーライン,0
1890,7011305002756,新規,0,2021-07-21,2021-07-21,一般社団法人全日本空手道剛柔会,,その他の設立登記法人,東京都,杉並区,善福寺１丁目１６番２３号,,13,115,1670041,,,,,,,2021-07-21,1,,,,,ゼンニホンカラテドウゴウジュウカイ,0
1900,7012701016589,新規,0,2021-07-21,2021-07-21,株式会社僕のご飯,,株式会社,東京都,小平市,小川東町１丁目２９－１１－２０１,,13,211,1870031,,,,,,,2021-07-21,1,,,,,ボクノゴハン,0
1908,7020001142287,新規,0,2021-07-21,2021-07-21,株式会社Ｍａｔｅｎｉ,,株式会社,神奈川県,横浜市青葉区,美しが丘３丁目６６番地４７,,14,117,2250002,,,,,,,2021-07-21,1,,,,,マテニ,0
1909,7020001142295,新規,0,2021-07-21,2021-07-21,株式会社Ｅ＆Ｎ　ＯＨＡＮＡ,,株式会社,神奈川県,横浜市中区,元町３丁目１３２番地,,14,104,2310861,,,,,,,2021-07-21,1,,,,,イーアンドエヌオハナ,0
1910,7020001142312,新規,0,2021-07-21,2021-07-21,株式会社牧建設,,株式会社,神奈川県,横浜市瀬谷区,三ツ境３６番地１５,,14,114,2460022,,,,,,,2021-07-21,1,,,,,マキケンセツ,0
1912,7020003020210,新規,0,2021-07-21,2021-07-21,合同会社ＰＴＫ,,合同会社,神奈川県,横浜市保土ケ谷区,東川島町５９－４,,14,106,2400041,,,,,,,2021-07-21,1,,,,,ピーティーケー,0
1915,7021001073489,新規,0,2021-07-21,2021-07-21,株式会社Ｎｕｔｓ,,株式会社,神奈川県,相模原市中央区,東淵野辺５丁目２０番５号,,14,152,2520203,,,,,,,2021-07-21,1,,,,,ナッツ,0
1920,7030001143409,新規,0,2021-07-21,2021-07-21,クリエーションＬａｂ株式会社,,株式会社,埼玉県,さいたま市大宮区,仲町１丁目１２３番地,,11,103,3300845,,,,,,,2021-07-21,1,,,,,クリエーションラボ,0
1921,7030001143466,新規,0,2021-07-21,2021-07-21,株式会社ベリーベリーベリー,,株式会社,埼玉県,志木市,本町５丁目２２番２６号,,11,228,3530004,,,,,,,2021-07-21,1,,,,,ベリーベリーベリー,0
1927,7040001119341,新規,0,2021-07-21,2021-07-21,株式会社ＨＯＭ,,株式会社,千葉県,千葉市美浜区,真砂３丁目１８番地検見川マリンタウン団地３棟１２０４号室,,12,106,2610011,,,,,,,2021-07-21,1,,,,,エイチオーエム,0
1928,7040001119390,新規,0,2021-07-21,2021-07-21,株式会社Ｂｌｏｏｍ,,株式会社,千葉県,茂原市,早野２９０３番地８,,12,210,2970037,,,,,,,2021-07-21,1,,,,,ブルーム,0
1929,7040001119473,新規,0,2021-07-21,2021-07-21,株式会社デック防水企画,,株式会社,千葉県,市川市,市川南４丁目３番１３号,,12,203,2720033,,,,,,,2021-07-21,1,,,,,デックボウスイキカク,0
1951,7110001035928,新規,0,2021-07-21,2021-07-21,株式会社大宮,,株式会社,新潟県,長岡市,滝谷町３８５番地,,15,202,9401138,,,,,,,2021-07-21,1,,,,,オオミヤ,0
1958,7120001239164,新規,0,2021-07-21,2021-07-21,株式会社アロイテクノロジー,,株式会社,大阪府,大阪市鶴見区,鶴見４丁目１６番４３号,,27,124,5380053,,,,,,,2021-07-21,1,,,,,アロイテクノロジー,0
1959,7120001239189,新規,0,2021-07-21,2021-07-21,株式会社イーエイチアイ,,株式会社,大阪府,大阪市福島区,福島３丁目１番６５号,,27,103,5530003,,,,,,,2021-07-21,1,,,,,イーエイチアイ,0
1960,7120001239197,新規,0,2021-07-21,2021-07-21,株式会社オーシャンファンクション,,株式会社,大阪府,大阪市西区,阿波座１丁目１２番２１号３階,,27,106,5500011,,,,,,,2021-07-21,1,,,,,オーシャンファンクション,0
1961,7120001239206,新規,0,2021-07-21,2021-07-21,アールサポート株式会社,,株式会社,大阪府,枚方市,長尾家具町３丁目７番地の６１,,27,210,5730102,,,,,,,2021-07-21,1,,,,,アールサポート,0
1962,7120001239222,新規,0,2021-07-21,2021-07-21,株式会社ＨＡｋＵＷＡ,,株式会社,大阪府,大阪市天王寺区,舟橋町１７番１４号,,27,109,5430024,,,,,,,2021-07-21,1,,,,,ハクワ,0
1989,7140001122376,新規,0,2021-07-21,2021-07-21,株式会社ｍｏｘｉｅ,,株式会社,兵庫県,神戸市中央区,磯上通８丁目１番２９号カサベラビルＣ＆Ｍ４０３号室,,28,110,6510086,,,,,,,2021-07-21,1,,,,,モクシー,0
1990,7140001122401,新規,0,2021-07-21,2021-07-21,株式会社近藤建設,,株式会社,兵庫県,加古川市,別府町東町５番地の２リバーハイツ２０１号室,,28,210,6750135,,,,,,,2021-07-21,1,,,,,コンドウケンセツ,0
1999,7180001147072,新規,0,2021-07-21,2021-07-21,株式会社ＨＬＴ,,株式会社,愛知県,名古屋市昭和区,御器所通３丁目２５番地の１,,23,107,4660015,,,,,,,2021-07-21,1,,,,,エイチエルティー,0
2000,7180005019375,新規,0,2021-07-21,2021-07-21,ブラザー税理士法人,,その他の設立登記法人,愛知県,名古屋市中区,新栄３丁目１番１９号,,23,106,4600007,,,,,,,2021-07-21,1,,,,,ブラザー,0
2011,7220001024309,新規,0,2021-07-21,2021-07-21,株式会社Ｌｉｖｉｋ　Ｉｎｎｏｖａｔｉｏｎ,,株式会社,石川県,金沢市,高柳町２の１３番地１アベニューヒルズＫ４０７号室,,17,201,9200005,,,,,,,2021-07-21,1,,,,,リビックイノベーション,0
2013,7240001058305,新規,0,2021-07-21,2021-07-21,株式会社シンワテクノ,,株式会社,広島県,福山市,神辺町字西中条１７９４番地１,,34,207,7202103,,,,,,,2021-07-21,1,,,,,シンワテクノ,0
2016,7240003005206,新規,0,2021-07-21,2021-07-21,たちまち合同会社,,合同会社,広島県,福山市,神辺町大字川南７２５番地１９,,34,207,7202124,,,,,,,2021-07-21,1,,,,,タチマチ,0
2026,7290001093974,新規,0,2021-07-21,2021-07-21,ＨｅｌｐＴｅｃｈ株式会社,,株式会社,福岡県,福岡市中央区,今泉１丁目３番２３号セルクル今泉４０４号室,,40,133,8100021,,,,,,,2021-07-21,1,,,,,ヘルプテック,0
2027,7290001093990,新規,0,2021-07-21,2021-07-21,株式会社ＧＲＩＮ,,株式会社,福岡県,筑紫野市,紫６丁目２６番２９号,,40,217,8180061,,,,,,,2021-07-21,1,,,,,グリン,0
2029,7290003011397,新規,0,2021-07-21,2021-07-21,合同会社フリーマンループ,,合同会社,福岡県,福岡市東区,美和台７丁目１０－８,,40,131,8110212,,,,,,,2021-07-21,1,,,,,フリーマンループ,0
2042,7330003008983,新規,0,2021-07-21,2021-07-21,合同会社Ｉｎｎｏｖａｔｉｏｎ,,合同会社,熊本県,熊本市中央区,中央街７番２号銀座スカイビル３Ｆ,,43,101,8600802,,,,,,,2021-07-21,1,,,,,イノベーション,0
2045,7340001023950,新規,0,2021-07-21,2021-07-21,ワイイーエス株式会社,,株式会社,鹿児島県,霧島市,隼人町内４４２番地１,,46,218,8995116,,,,,,,2021-07-21,1,,,,,ワイイーエス,0
2048,7350001017209,新規,0,2021-07-21,2021-07-21,みやざき新富ファーム株式会社,,株式会社,宮崎県,児湯郡新富町,大字三納代２３２３,,45,402,8891402,,,,,,,2021-07-21,1,,,,,ミヤザキシントミファーム,0
2049,7360001029129,新規,0,2021-07-21,2021-07-21,琉球光和ファシリティーズ株式会社,,株式会社,沖縄県,那覇市,東町１８番１号,,47,201,9000034,,,,,,,2021-07-21,1,,,,,リュウキュウコウワファシリティーズ,0
2050,7360003011316,新規,0,2021-07-21,2021-07-21,合同会社Ｈ　ｃｒｅａｔｉｖｅ,,合同会社,沖縄県,沖縄市,海邦２丁目２７番２８号,,47,211,9042162,,,,,,,2021-07-21,1,,,,,エイチクリエイティブ,0
2052,7370001047360,新規,0,2021-07-21,2021-07-21,株式会社ｉ－Ｐｌａｉｎ,,株式会社,宮城県,仙台市泉区,根白石字宝積寺前５１番地の４,,04,105,9813221,,,,,,,2021-07-21,1,,,,,アイプレイン,0
2057,7380001032056,新規,0,2021-07-21,2021-07-21,株式会社弘原,,株式会社,福島県,いわき市,常磐湯本町三函２４４番地スパサイド三函２０１,,07,204,9728321,,,,,,,2021-07-21,1,,,,,コウゲン,0
2083,7430001084562,新規,0,2021-07-21,2021-07-21,株式会社フレンドライフ,,株式会社,北海道,岩見沢市,四条東１０丁目１番地２,,01,210,0680004,,,,,,,2021-07-21,1,,,,,フレンドライフ,0
2084,7430001084587,新規,0,2021-07-21,2021-07-21,株式会社トータルフード北海道,,株式会社,北海道,空知郡南幌町,南１２線西１３番地,,01,423,0690212,,,,,,,2021-07-21,1,,,,,トータルフードホッカイドウ,0
2090,7430003012959,新規,0,2021-07-21,2021-07-21,合同会社優信,,合同会社,北海道,札幌市東区,北二十一条東１５丁目４番１２号エフォートビル３階,,01,103,0650021,,,,,,,2021-07-21,1,,,,,ユウシン,0
2098,7460101007032,新規,0,2021-07-21,2021-07-21,株式会社北海道タクティク,,株式会社,北海道,帯広市,西一条南１１丁目１番地１,,01,207,0800011,,,,,,,2021-07-21,1,,,,,ホッカイドウタクティク,0
2111,8010001219837,新規,0,2021-07-21,2021-07-21,株式会社ティーケイコンサルティング,,株式会社,東京都,文京区,白山２丁目１２番１２－５０３号,,13,105,1120001,,,,,,,2021-07-21,1,,,,,ティーケイコンサルティング,0
2112,8010001219878,新規,0,2021-07-21,2021-07-21,清和アドバイザリーパートナーズ株式会社,,株式会社,東京都,千代田区,飯田橋１丁目３番２号曙杉館４階,,13,101,1020072,,,,,,,2021-07-21,1,,,,,セイワアドバイザリーパートナーズ,0
2113,8010001219894,新規,0,2021-07-21,2021-07-21,日本漢森生物株式会社,,株式会社,東京都,中央区,東日本橋２丁目２８番５号５０８,,13,102,1030004,,,,,,,2021-07-21,1,,,,,ニホンカンシンセイブツ,0
2124,8010401161614,新規,0,2021-07-21,2021-07-21,株式会社ＩＮＮＯＶＡＴＩＯＮ　ＷＯＲＬＤ　Ｃ,,株式会社,東京都,港区,港南４丁目６－８ワールドシティータワー１７０４,,13,103,1080075,,,,,,,2021-07-21,1,,,,,イノヴェションワイドシ,0
2125,8010401161630,新規,0,2021-07-21,2021-07-21,Ｌｙｌａｃ株式会社,,株式会社,東京都,港区,西麻布４丁目１１－４西麻布尾花ビル３Ｆ,,13,103,1060031,,,,,,,2021-07-21,1,,,,,ライラック,0
2126,8010401161639,新規,0,2021-07-21,2021-07-21,ＡＤ　Ｃｏｍｍｕｎｉｃａｔｉｏｎ＆Ｈｏｍｅ株式会社,,株式会社,東京都,港区,赤坂２丁目２０番５号デニス赤坂ビル３Ｆ,,13,103,1070052,,,,,,,2021-07-21,1,,,,,エーディーコミュニケーションアンドホーム,0
2127,8010401161655,新規,0,2021-07-21,2021-07-21,株式会社市川,,株式会社,東京都,港区,港南１丁目８番２７号テラス日新１３０４,,13,103,1080075,,,,,,,2021-07-21,1,,,,,イチカワ,0
2129,8010403025767,新規,0,2021-07-21,2021-07-21,合同会社ＮＯＲＡ,,合同会社,東京都,港区,南青山２丁目２番１５号,,13,103,1070062,,,,,,,2021-07-21,1,,,,,ノラ,0
2130,8010403025775,新規,0,2021-07-21,2021-07-21,合同会社みなとプロダクション,,合同会社,東京都,港区,麻布十番２丁目２１－１４－５０５,,13,103,1060045,,,,,,,2021-07-21,1,,,,,ミナトプロダクション,0
2131,8010405019998,新規,0,2021-07-21,2021-07-21,一般社団法人日本こども教育振興協会,,その他の設立登記法人,東京都,港区,南青山２丁目２番１５号,,13,103,1070062,,,,,,,2021-07-21,1,,,,,ニホンコドモキョウイクシンコウキョウカイ,0
2132,8010601059674,新規,0,2021-07-21,2021-07-21,株式会社ファーストイレブン,,株式会社,東京都,墨田区,押上１丁目４０番１－３０３号プルメリア,,13,107,1310045,,,,,,,2021-07-21,1,,,,,ファーストイレブン,0
2141,8010701041276,新規,0,2021-07-21,2021-07-21,株式会社アクリオ,,株式会社,東京都,品川区,小山５丁目１８番－１７,,13,109,1420062,,,,,,,2021-07-21,1,,,,,アクリオ,0
2152,8011001141790,新規,0,2021-07-21,2021-07-21,ＪＰＡＭ株式会社,,株式会社,東京都,渋谷区,宇田川町１番１２－１１０４号,,13,113,1500042,,,,,,,2021-07-21,1,,,,,ジェパアム,0
2156,8011203003599,新規,0,2021-07-21,2021-07-21,合同会社クロック,,合同会社,東京都,中野区,上鷺宮３丁目１０番１２号エクセルコート富士見台１０３,,13,114,1650031,,,,,,,2021-07-21,1,,,,,クロック,0
2165,8011503004842,新規,0,2021-07-21,2021-07-21,翔和合同会社,,合同会社,東京都,荒川区,荒川５丁目２２番６号,,13,118,1160002,,,,,,,2021-07-21,1,,,,,ショウワ,0
2170,8012301012640,新規,0,2021-07-21,2021-07-21,株式会社ＴＷＹ,,株式会社,東京都,町田市,成瀬４丁目１番２１号ＮＫハイツⅡ１０５号,00123716,13,209,1940044,,,,,,,2021-07-21,1,,,,,ティーダブリューワイ,0
2180,8013301047759,新規,0,2021-07-21,2021-07-21,株式会社太和,,株式会社,東京都,豊島区,南大塚１丁目４６－１４アーバンヒルズ大塚１０１号室,,13,116,1700005,,,,,,,2021-07-21,1,,,,,タイワ,0
2181,8013303005756,新規,0,2021-07-21,2021-07-21,合同会社Ｅｔｙｍｏ,,合同会社,東京都,豊島区,東池袋１丁目３４番５号いちご東池袋ビル６階,,13,116,1700013,,,,,,,2021-07-21,1,,,,,エティモ,0
2186,8020001142253,新規,0,2021-07-21,2021-07-21,株式会社Ｇ・ＬＩＦＩＸ,,株式会社,神奈川県,横浜市鶴見区,東寺尾６丁目１番１１－１０３号,,14,101,2300077,,,,,,,2021-07-21,1,,,,,ジーリフィックス,0
2187,8020001142303,新規,0,2021-07-21,2021-07-21,親和建設株式会社,,株式会社,神奈川県,横浜市戸塚区,上矢部町２８１番地６,,14,110,2450053,,,,,,,2021-07-21,1,,,,,シンワケンセツ,0
2188,8020001142311,新規,0,2021-07-21,2021-07-21,Ｍｏｍｅｎｔｕｍ　Ｐａｒｔｎｅｒｓ株式会社,,株式会社,神奈川県,横浜市戸塚区,品濃町５３５番地２中央街区Ｄ棟６０６号,,14,110,2440801,,,,,,,2021-07-21,1,,,,,モメンタムパートナーズ,0
2193,8020003020201,新規,0,2021-07-21,2021-07-21,Ｐｓｙｃｈｏ－Ｂｉｚ．Ｉｎｃ．合同会社,,合同会社,神奈川県,横浜市港北区,大倉山２丁目１７－２５－２,,14,109,2220037,,,,,,,2021-07-21,1,,,,,サイコビズインク,0
2198,8021001073455,新規,0,2021-07-21,2021-07-21,株式会社恭翔,,株式会社,神奈川県,厚木市,上落合５３９番地１,,14,212,2430025,,,,,,,2021-07-21,1,,,,,キョウショウ,0
2199,8021001073463,新規,0,2021-07-21,2021-07-21,株式会社伊藤板金店,,株式会社,神奈川県,鎌倉市,笛田５丁目４６番１６号,,14,204,2480027,,,,,,,2021-07-21,1,,,,,イトウバンキンテン,0
2211,8030001143440,新規,0,2021-07-21,2021-07-21,ＫＶＳ株式会社,,株式会社,埼玉県,越谷市,千間台西２丁目５番地７,,11,222,3430041,,,,,,,2021-07-21,1,,,,,ケーブイエス,0
2225,8040003018177,新規,0,2021-07-21,2021-07-21,合同会社アグリクリエイト,,合同会社,千葉県,木更津市,本郷１丁目１１番３０号,,12,206,2920015,,,,,,,2021-07-21,1,,,,,アグリクリエイト,0
2226,8040003018202,新規,0,2021-07-21,2021-07-21,合同会社林美千男商店,,合同会社,千葉県,市原市,大作１０１番地１６５,,12,219,2900172,,,,,,,2021-07-21,1,,,,,ハヤシミチオショウテン,0
2234,8060001014151,新規,0,2021-07-21,2021-07-21,株式会社関東ロードメンテナンス,,株式会社,栃木県,小山市,駅南町２丁目２６番地２第２旭ビル,,09,208,3230822,,,,,,,2021-07-21,1,,,,,カントウロードメンテナンス,0
2259,8110001035927,新規,0,2021-07-21,2021-07-21,株式会社ブロック,,株式会社,新潟県,柏崎市,藤元町１４番４号,,15,205,9450026,,,,,,,2021-07-21,1,,,,,ブロック,0
2268,8120001239196,新規,0,2021-07-21,2021-07-21,株式会社オーシャンファーム,,株式会社,大阪府,大阪市西区,西本町２丁目５番１０－４１１号,,27,106,5500005,,,,,,,2021-07-21,1,,,,,オーシャンファーム,0
2272,8120003019869,新規,0,2021-07-21,2021-07-21,合同会社Ｙ．Ｋ　Ｌａｂｏ,,合同会社,大阪府,大阪市北区,豊崎２丁目６番１１号グランディＴ梅田６０２号室,,27,127,5310072,,,,,,,2021-07-21,1,,,,,ワイケーラボ,0
2273,8120003019885,新規,0,2021-07-21,2021-07-21,グリュック合同会社,,合同会社,大阪府,大阪市中央区,馬場町１番８－２４０６号,,27,128,5400007,,,,,,,2021-07-21,1,,,,,グリュック,0
2278,8120901044654,新規,0,2021-07-21,2021-07-21,株式会社健寿,,株式会社,大阪府,豊中市,二葉町１丁目１７番４号,,27,203,5610825,,,,,,,2021-07-21,1,,,,,ケンジュ,0
2280,8122001035014,新規,0,2021-07-21,2021-07-21,ＢＩＡＮＧＬＥ　ＤＥＳＩＧＮ株式会社,,株式会社,大阪府,東大阪市,花園東町２丁目３番１６号フォーレスト１－３０２号室,,27,227,5780931,,,,,,,2021-07-21,1,,,,,バイアンガルデザイン,0
2282,8122003002136,新規,0,2021-07-21,2021-07-21,合同会社ＩＮＦＩＮＩＴＹ,,合同会社,大阪府,大東市,北条２丁目１８番１３号エスポワール仙寿４０２号,,27,218,5740011,,,,,,,2021-07-21,1,,,,,インフィニティ,0
2295,8140001122383,新規,0,2021-07-21,2021-07-21,株式会社ｍｅｒｃ．,,株式会社,兵庫県,姫路市,神屋町３丁目２８番地ＹＳビル１０２号,,28,201,6700836,,,,,,,2021-07-21,1,,,,,メルク,0
2301,8160001023480,新規,0,2021-07-21,2021-07-21,株式会社京国,,株式会社,滋賀県,大津市,萱野浦２５番２４－２０１号,,25,201,5202143,,,,,,,2021-07-21,1,,,,,キョウゴク,0
2338,8230001018911,新規,0,2021-07-21,2021-07-21,株式会社徳総業,,株式会社,富山県,富山市,大町７番地ラフィネ堀川２０２号,,16,201,9398073,,,,,,,2021-07-21,1,,,,,トクソウギョウ,0
2355,8250001019016,新規,0,2021-07-21,2021-07-21,株式会社アグリ建設,,株式会社,山口県,山口市,下小鯖４３７３番地,,35,203,7530212,,,,,,,2021-07-21,1,,,,,アグリケンセツ,0
2366,8290001093957,新規,0,2021-07-21,2021-07-21,株式会社前原不動産,,株式会社,福岡県,大牟田市,八本町５７番地１,,40,202,8360816,,,,,,,2021-07-21,1,,,,,マエハラフドウサン,0
2367,8290001093973,新規,0,2021-07-21,2021-07-21,株式会社ＯＲ７,,株式会社,福岡県,福岡市中央区,大名１丁目１番１６号６階,,40,133,8100041,,,,,,,2021-07-21,1,,,,,オーアールセブン,0
2369,8290003011446,新規,0,2021-07-21,2021-07-21,合同会社ＦＣＰ１９,,合同会社,福岡県,福岡市中央区,天神２丁目１２番１号,,40,133,8100001,,,,,,,2021-07-21,1,,,,,エフシーピージュウキュウ,0
2370,8290003011454,新規,0,2021-07-21,2021-07-21,合同会社スターマイン,,合同会社,福岡県,糟屋郡粕屋町,若宮２丁目１０番２４号,,40,349,8112314,,,,,,,2021-07-21,1,,,,,スターマイン,0
2372,8290801027651,新規,0,2021-07-21,2021-07-21,株式会社ＯＤＥ,,株式会社,福岡県,北九州市小倉北区,大畠３丁目１番２１号,,40,106,8020026,,,,,,,2021-07-21,1,,,,,オーディーイー,0
2373,8300001012568,新規,0,2021-07-21,2021-07-21,株式会社オレンジ,,株式会社,佐賀県,佐賀市,本庄町大字本庄４６１番地１,,41,201,8400027,,,,,,,2021-07-21,1,,,,,オレンジ,0
2376,8310003004117,新規,0,2021-07-21,2021-07-21,フクシン合同会社,,合同会社,長崎県,諫早市,有喜町２５５番地４,,42,204,8540121,,,,,,,2021-07-21,1,,,,,フクシン,0
2391,8360001029111,新規,0,2021-07-21,2021-07-21,株式会社ワタシノイエ,,株式会社,沖縄県,那覇市,久米１丁目１１番９号ＶＢ２０２,,47,201,9000033,,,,,,,2021-07-21,1,,,,,ワタシノイエ,0
2393,8360003011307,新規,0,2021-07-21,2021-07-21,合同会社エレテック沖縄,,合同会社,沖縄県,那覇市,字上間４１３琉電アパート１－５,,47,201,9020073,,,,,,,2021-07-21,1,,,,,,0
2394,8360005006478,新規,0,2021-07-21,2021-07-21,一般社団法人やんばる観光推進協議会,,その他の設立登記法人,沖縄県,名護市,字宇茂佐２６８番地,,47,209,9050006,,,,,,,2021-07-21,1,,,,,ヤンバルカンコウスイシンキョウギカイ,0
2395,8370001047368,新規,0,2021-07-21,2021-07-21,株式会社ＭＡＫＥ,,株式会社,宮城県,富谷市,富谷原前南７１番地,,04,216,9813311,,,,,,,2021-07-21,1,,,,,メーク,0
2396,8370005010322,新規,0,2021-07-21,2021-07-21,一般社団法人アイマットアセットマネジメント,,その他の設立登記法人,宮城県,仙台市太白区,青山１丁目３０番１７号,,04,104,9820834,,,,,,,2021-07-21,1,,,,,アイマットアセットマネジメント,0
2404,8380003004977,新規,0,2021-07-21,2021-07-21,ハルート合同会社,,合同会社,福島県,田村郡三春町,字尼ケ谷１９番地の１,,07,521,9637745,,,,,,,2021-07-21,1,,,,,,0
2421,8400005008172,新規,0,2021-07-21,2021-07-21,特定非営利活動法人穐吉敏子ジャズミュージアム,,その他の設立登記法人,岩手県,盛岡市,開運橋通５番９号,,03,201,0200026,,,,,,,2021-07-21,1,,,,,アキヨシトシコジャズミュージアム,0
2432,8430001084586,新規,0,2021-07-21,2021-07-21,株式会社ＫＯＵ,,株式会社,北海道,札幌市中央区,南十一条西２２丁目２番３号,,01,101,0640811,,,,,,,2021-07-21,1,,,,,コウ,0
2433,8430001084603,新規,0,2021-07-21,2021-07-21,株式会社ぷらす電設,,株式会社,北海道,苫小牧市,のぞみ町３丁目８番地８号,,01,213,0591272,,,,,,,2021-07-21,1,,,,,プラスデンセツ,0
2438,8430003012966,新規,0,2021-07-21,2021-07-21,合同会社斉藤機械サービス,,合同会社,北海道,石狩市,花川南四条１丁目１０７番地,,01,235,0613204,,,,,,,2021-07-21,1,,,,,サイトウキカイサービス,0
2439,8430003012982,新規,0,2021-07-21,2021-07-21,合同会社ＳｎｅａｋｙＳｎｅａｋｙ,,合同会社,北海道,札幌市白石区,北郷二条１２丁目１４番１５号,,01,104,0030832,,,,,,,2021-07-21,1,,,,,スネーキースネーキー,0
2440,8450003002107,新規,0,2021-07-21,2021-07-21,Ｍ企画合同会社,,合同会社,北海道,旭川市,緑町２０丁目２７４９番地の３,,01,204,0700823,,,,,,,2021-07-21,1,,,,,エムキカク,0
2442,8460101007031,新規,0,2021-07-21,2021-07-21,株式会社和ら美,,株式会社,北海道,河東郡鹿追町,仲町２丁目８番地,,01,634,0810211,,,,,,,2021-07-21,1,,,,,ワラビ,0
2451,8490001009934,新規,0,2021-07-21,2021-07-21,株式会社リボーン,,株式会社,高知県,高知市,寿町４番５号ＹＭビル６Ｆ,,39,201,7800043,,,,,,,2021-07-21,1,,,,,リボーン,0
2469,9010001219753,新規,0,2021-07-21,2021-07-21,株式会社Ｆ＆Ｓ,,株式会社,東京都,中央区,日本橋２丁目２番３号,,13,102,1030027,,,,,,,2021-07-21,1,,,,,エフアンドエス,0
2470,9010001219893,新規,0,2021-07-21,2021-07-21,日本美源研究所株式会社,,株式会社,東京都,中央区,日本橋蛎殻町１丁目３－５共同ビル２階２３号,,13,102,1030014,,,,,,,2021-07-21,1,,,,,ニホンミゲンケンキュウジョ,0
2474,9010003035356,新規,0,2021-07-21,2021-07-21,合同会社ｃｏｎ－Ｔｒｕｓｔ,,合同会社,東京都,中央区,銀座７丁目１５番７－９０３号,,13,102,1040061,,,,,,,2021-07-21,1,,,,,コントラスト,0
2478,9010103001737,新規,0,2021-07-21,2021-07-21,Ｔｏｋｙｏ　Ｄｅｌｉｖｅｒｙ合同会社,,合同会社,東京都,八王子市,横川町１１７２番地３,,13,201,1930823,,,,,,,2021-07-21,1,,,,,トーキョーデリバリー,0
2484,9010401161646,新規,0,2021-07-21,2021-07-21,株式会社ＮＣ,,株式会社,東京都,港区,浜松町２丁目２番１５号,,13,103,1050013,,,,,,,2021-07-21,1,,,,,エヌシー,0
2488,9010403025766,新規,0,2021-07-21,2021-07-21,ＨＩＦ　ＦＵＮＤ合同会社,,合同会社,東京都,港区,西新橋１丁目２２番１４号,,13,103,1050003,,,,,,,2021-07-21,1,,,,,エイチアイエフファンド,0
2489,9010405020030,新規,0,2021-07-21,2021-07-21,一般社団法人日本債権流動化企画,,その他の設立登記法人,東京都,港区,西新橋１丁目２２番１４号,,13,103,1050003,,,,,,,2021-07-21,1,,,,,ニホンサイケンリュウドウカキカク,0
2493,9010601059673,新規,0,2021-07-21,2021-07-21,株式会社ピュアリーフ,,株式会社,東京都,墨田区,太平２丁目９番５号フォレシティ錦糸町１３０２,,13,107,1300012,,,,,,,2021-07-21,1,,,,,ピュアリーフ,0
2506,9011003013095,新規,0,2021-07-21,2021-07-21,ＮＥＵＴＲＡＬ　ＴＨＩＮＫ合同会社,,合同会社,東京都,渋谷区,代々木４丁目２８番８号村田ビル,,13,113,1510053,,,,,,,2021-07-21,1,,,,,ニュートラルシンク,0
2508,9011203003598,新規,0,2021-07-21,2021-07-21,合同会社おすすめ節子,,合同会社,東京都,中野区,鷺宮３丁目２０番１０号,,13,114,1650032,,,,,,,2021-07-21,1,,,,,オススメセツコ,0
2513,9011603003355,新規,0,2021-07-21,2021-07-21,合同会社ダイブリッジ,,合同会社,東京都,練馬区,向山４丁目３番１０号第３パークサイド関口３０２号,,13,120,1760022,,,,,,,2021-07-21,1,,,,,ダイブリッジ,0
2517,9012403004948,新規,0,2021-07-21,2021-07-21,合同会社トミザワ,,合同会社,東京都,三鷹市,北野１丁目７番４８号,,13,204,1810003,,,,,,,2021-07-21,1,,,,,トミザワ,0
2527,9013303005755,新規,0,2021-07-21,2021-07-21,ＴＡＫＥ合同会社,,合同会社,東京都,豊島区,西池袋３丁目１７番２２,,13,116,1710021,,,,,,,2021-07-21,1,,,,,タケ,0
2531,9020001142310,新規,0,2021-07-21,2021-07-21,株式会社Ｄホールディングス,,株式会社,神奈川県,横浜市戸塚区,戸塚町３６３０番地２５戸塚ヒルズ５０５号,,14,110,2440003,,,,,,,2021-07-21,1,,,,,ディーホールディングス,0
2535,9021001073446,新規,0,2021-07-21,2021-07-21,株式会社ＬＩＮＯＨＯＰＥ,,株式会社,神奈川県,相模原市中央区,千代田５丁目１１番５－１号,,14,152,2520237,,,,,,,2021-07-21,1,,,,,リノホープ,0
2536,9021001073462,新規,0,2021-07-21,2021-07-21,株式会社シノブエンタープライズ,,株式会社,神奈川県,茅ヶ崎市,堤８５０番地４,,14,207,2530006,,,,,,,2021-07-21,1,,,,,シノブエンタープライズ,0
2538,9021003010678,新規,0,2021-07-21,2021-07-21,合同会社ぶれえめん平塚,,合同会社,神奈川県,平塚市,紅谷町４－３,,14,203,2540043,,,,,,,2021-07-21,1,,,,,ブレエメンヒラツカ,0
2544,9030001143357,新規,0,2021-07-21,2021-07-21,株式会社夢現亭,,株式会社,埼玉県,八潮市,八潮１丁目１３番地３カーサディアスＢ棟２０２号室,,11,234,3400815,,,,,,,2021-07-21,1,,,,,ムゲンテイ,0
2549,9030003017666,新規,0,2021-07-21,2021-07-21,合同会社ＡＴＭ工業,,合同会社,埼玉県,川口市,前川１丁目１９番５号エクセレント前川２０２号,,11,203,3330842,,,,,,,2021-07-21,1,,,,,エーティーエムコウギョウ,0
2558,9050001049560,新規,0,2021-07-21,2021-07-21,株式会社デワンインターナショナル,,株式会社,茨城県,常総市,豊岡町乙１１１７－１－５号,,08,211,3030041,,,,,,,2021-07-21,1,,,,,デワンインターナショナル,0
2571,9110001035926,新規,0,2021-07-21,2021-07-21,株式会社大塚農園,,株式会社,新潟県,小千谷市,平沢２丁目２６番３号,,15,208,9470042,,,,,,,2021-07-21,1,,,,,オオツカノウエン,0
2581,9120001239204,新規,0,2021-07-21,2021-07-21,ＳＨＩＶＡＭ株式会社,,株式会社,大阪府,大阪市西成区,花園南２丁目７番１６号ベルメゾン３０２,,27,122,5570015,,,,,,,2021-07-21,1,,,,,シヴァム,0
2582,9120001239237,新規,0,2021-07-21,2021-07-21,Ｃｙｂｅｒ　Ｄｉｖｅ株式会社,,株式会社,大阪府,大阪市北区,梅田２丁目５番１３号,,27,127,5300001,,,,,,,2021-07-21,1,,,,,サイバーダイブ,0
2587,9120003019876,新規,0,2021-07-21,2021-07-21,合同会社ＴＨＩＥＮ　ＫＩＭ,,合同会社,大阪府,大阪市生野区,新今里４丁目１１番２号,,27,116,5440001,,,,,,,2021-07-21,1,,,,,ティエンキム,0
2589,9120101064015,新規,0,2021-07-21,2021-07-21,株式会社ＭＳロジック,,株式会社,大阪府,富田林市,高辺台２丁目１９番６号,,27,214,5840072,,,,,,,2021-07-21,1,,,,,エムエスロジック,0
2590,9120901044653,新規,0,2021-07-21,2021-07-21,ＯＲＡＭ株式会社,,株式会社,大阪府,吹田市,江の木町２９番１号,,27,205,5640053,,,,,,,2021-07-21,1,,,,,オラン,0
2593,9122005003569,新規,0,2021-07-21,2021-07-21,一般財団法人関通物流技術振興財団,,その他の設立登記法人,大阪府,東大阪市,長田１丁目８番１３号,,27,227,5770015,,,,,,,2021-07-21,1,,,,,カンツウブツリュウギジュツシンコウザイダン,0
2610,9140005025755,新規,0,2021-07-21,2021-07-21,一般社団法人淡河町地域振興推進協議会,,その他の設立登記法人,兵庫県,神戸市北区,淡河町木津５４番地,,28,109,6511614,,,,,,,2021-07-21,1,,,,,オウゴチョウチイキシンコウスイシンキョウギカイ,0
2626,9180001147021,新規,0,2021-07-21,2021-07-21,Ｉ＆Ｍホールディングス株式会社,,株式会社,愛知県,名古屋市東区,東桜１丁目９番２９号,,23,102,4610005,,,,,,,2021-07-21,1,,,,,アイアンドエムホールディングス,0
2629,9180003022767,新規,0,2021-07-21,2021-07-21,合同会社菜の花,,合同会社,愛知県,小牧市,古雅３丁目９８番地５４,,23,219,4850814,,,,,,,2021-07-21,1,,,,,ナノハナ,0
2630,9180005019373,新規,0,2021-07-21,2021-07-21,一般社団法人メディカブライト,,その他の設立登記法人,愛知県,名古屋市東区,葵２丁目３番１５号ふぁみ～ゆ葵ビル２階２０４号室,,23,102,4610004,,,,,,,2021-07-21,1,,,,,メディカブライト,0
2643,9230001018910,新規,0,2021-07-21,2021-07-21,株式会社映音堂,,株式会社,富山県,富山市,新庄銀座２丁目１番１５号,,16,201,9300991,,,,,,,2021-07-21,1,,,,,エイオンドウ,0
2649,9240003005204,新規,0,2021-07-21,2021-07-21,ローズ合同会社,,合同会社,広島県,福山市,地吹町９番１７号,,34,207,7200816,,,,,,,2021-07-21,1,,,,,ローズ,0
2668,9290001093980,新規,0,2021-07-21,2021-07-21,株式会社ＲＩＫＩ,,株式会社,福岡県,福岡市博多区,博多駅前２丁目１９番１７号トーカン博多第５ビル３１２号室,,40,132,8120011,,,,,,,2021-07-21,1,,,,,リキ,0
2669,9290001093989,新規,0,2021-07-21,2021-07-21,株式会社エム・アセットベース,,株式会社,福岡県,福岡市早良区,次郎丸２丁目８番１５号,,40,137,8140165,,,,,,,2021-07-21,1,,,,,エムアセットベース,0
2672,9290003011453,新規,0,2021-07-21,2021-07-21,合同会社リフリサク,,合同会社,福岡県,福岡市中央区,天神４丁目１番１７号博多天神ビル７Ｆ,,40,133,8100001,,,,,,,2021-07-21,1,,,,,リフリサク,0
2674,9300003001700,新規,0,2021-07-21,2021-07-21,合同会社ネクステップ,,合同会社,佐賀県,佐賀市,久保泉町大字川久保８４２番地１３グランデ川久保Ｃ棟,,41,201,8490901,,,,,,,2021-07-21,1,,,,,ネクステップ,0
2679,9330001028825,新規,0,2021-07-21,2021-07-21,株式会社南阿蘇緑化,,株式会社,熊本県,阿蘇郡高森町,大字上色見７５５番地,,43,428,8691601,,,,,,,2021-07-21,1,,,,,ミアミアソリョッカ,0
2691,9360001029110,新規,0,2021-07-21,2021-07-21,株式会社あらかわ食堂,,株式会社,沖縄県,石垣市,字新川２３７６番地１６浩園マンション１－Ｂ,,47,207,9070024,,,,,,,2021-07-21,1,,,,,アラカワショクドウ,0
2692,9360001029127,新規,0,2021-07-21,2021-07-21,株式会社ＣＨＡＭＰ　ＣＨＩＣＫＥＮ,,株式会社,沖縄県,国頭郡金武町,字金武４２５０－１,,47,314,9041201,,,,,,,2021-07-21,1,,,,,チャンプチキン,0
2695,9360005006477,新規,0,2021-07-21,2021-07-21,一般社団法人沖縄銅イオン抗菌・ウイルス予防協会,,その他の設立登記法人,沖縄県,豊見城市,字豊崎１番地９２７,,47,212,9010225,,,,,,,2021-07-21,1,,,,,オキナワドウイオンコウキンウイルスヨボウキョウカイ,0
2697,9370003005315,新規,0,2021-07-21,2021-07-21,合同会社大崎マイクロバスクラブ,,合同会社,宮城県,大崎市,古川金五輪１丁目４－２８,,04,215,9896131,,,,,,,2021-07-21,1,,,,,オオサキマイクロバスクラブ,0
2728,9430001084593,新規,0,2021-07-21,2021-07-21,末永組株式会社,,株式会社,北海道,札幌市豊平区,西岡三条４丁目１番１０号ハウジングビル４０１号,,01,105,0620033,,,,,,,2021-07-21,1,,,,,スエナガグミ,0
