sequenceNumber,corporateNumber,process,correct,updateDate,changeDate,name,nameImageId,kind,prefectureName,cityName,streetNumber,addressImageId,prefectureCode,cityCode,postCode,addressOutside,addressOutsideImageId,closeDate,closeCause,successorCorporateNumber,changeCause,assignmentDate,latest,enName,enPrefectureName,enCityName,enAddressOutside,furigana,hihyoji
10,1010001205637,登記記録の閉鎖等,0,2023-02-07,2023-02-03,アイビーインターナショナル株式会社,,株式会社,東京都,江戸川区,中葛西３丁目１１番８号,,13,123,1340083,,,2023-02-03,清算の結了等,,,2019-11-26,1,,,,,アイビーインターナショナル,0
23,1010401163583,登記記録の閉鎖等,0,2023-02-07,2023-02-03,株式会社Ｃａｔｈｙ　Ａｔｔｒａｃｔｉｖｅ,,株式会社,東京都,港区,西新橋３丁目１４－８,,13,103,1050003,,,2023-02-03,合併による解散等,4010401110657,令和５年２月１日福島県郡山市駅前二丁目１０－１５三共郡山ビル北館１Ｆ＆２Ｆ株式会社メディカルフロンティア（4010401110657）に合併し解散,2021-11-02,1,,,,,キャシーアトラクティブ,0
88,1020001118466,登記記録の閉鎖等,0,2023-02-07,2023-02-02,株式会社エフ・テクノ製作所,,株式会社,神奈川県,横浜市港南区,下永谷３丁目７２－３,,14,111,2330016,,,2023-02-02,清算の結了等,,,2016-11-04,1,,,,,エフテクノセイサクショ,0
92,1020001144867,登記記録の閉鎖等,0,2023-02-07,2023-02-02,株式会社ＦＡＳグループ,,株式会社,神奈川県,横浜市戸塚区,上柏尾町３２３番地４２,,14,110,2440811,,,2023-02-02,清算の結了等,,,2022-01-20,1,,,,,エフエーエスグループ,0
107,1021002068097,登記記録の閉鎖等,0,2023-02-07,2023-02-01,有限会社金澤建物,,有限会社,神奈川県,逗子市,逗子６丁目８番１２号,,14,208,2490006,,,2023-02-01,合併による解散等,2010701018577,令和５年２月１日神奈川県横須賀市汐入町二丁目１１番４号カナザワ株式会社（2010701018577）に合併し解散,2015-10-05,1,,,,,カナザワタテモノ,0
116,1030001122442,登記記録の閉鎖等,0,2023-02-07,2023-01-12,株式会社プリファードＱＱ,,株式会社,埼玉県,さいたま市北区,盆栽町２３７番地３,,11,102,3310805,,,2023-01-12,清算の結了等,,,2017-10-10,1,,,,,,0
120,1030003014019,登記記録の閉鎖等,0,2023-02-07,2023-02-02,合同会社ｍｂｄ,,合同会社,埼玉県,上尾市,大字上５６０番地１３,,11,219,3620001,,,2023-02-02,清算の結了等,,,2019-08-29,1,,,,,エムビィーディー,0
146,1080001024568,登記記録の閉鎖等,0,2023-02-07,2023-02-03,株式会社ＭＵＬＡＮ,,株式会社,静岡県,静岡市葵区,吉野町４番７号,,22,101,4200046,,,2023-02-03,清算の結了等,,,2021-11-11,1,,,,,ムーラン,0
147,1080002003281,登記記録の閉鎖等,0,2023-02-07,2023-02-03,有限会社静興物産,,有限会社,静岡県,静岡市駿河区,聖一色７９番地の８,,22,102,4228007,,,2023-02-03,清算の結了等,,,2015-10-05,1,,,,,セイコウブッサン,0
151,1100001019359,登記記録の閉鎖等,0,2023-02-07,2023-02-01,株式会社海老浜,,株式会社,長野県,岡谷市,若宮２丁目５番５号,,20,204,3940032,,,2023-02-01,清算の結了等,,,2015-10-05,1,,,,,エビハマ,0
152,1100002018970,登記記録の閉鎖等,0,2023-02-07,2023-02-01,有限会社エヌワン,,有限会社,長野県,松本市,中央１丁目４番２０号日本生命松本駅前ビル８階,,20,202,3900811,,,2023-02-01,清算の結了等,,,2015-10-05,1,,,,,エヌワン,0
157,1110003004754,登記記録の閉鎖等,0,2023-02-07,2023-02-03,合同会社樺澤不動産,,合同会社,新潟県,長岡市,上富岡２丁目１９１７－２,,15,202,9402136,,,2023-02-03,清算の結了等,,,2022-05-06,1,,,,,カバサワフドウサン,0
165,1120001163824,登記記録の閉鎖等,0,2023-02-07,2023-01-31,株式会社トラベル・フロンティア,,株式会社,大阪府,大阪市北区,大淀中１丁目１－３０,,27,127,5310076,,,2023-01-31,合併による解散等,7120001122213,令和５年１月３１日大阪市北区大淀中１－１－３０梅田スカイビルタワーウエスト株式会社アリーズカンパニー（7120001122213）に合併し解散,2015-10-05,1,,,,,トラベルフロンティア,0
178,1120101039692,登記記録の閉鎖等,0,2023-02-07,2023-01-20,阪本商事株式会社,,株式会社,大阪府,泉佐野市,上之郷２０５６の６,,27,213,5980024,,,2023-01-20,清算の結了等,,,2015-10-05,1,,,,,サカモトショウジ,0
184,1120102018935,登記記録の閉鎖等,0,2023-02-07,2023-02-06,有限会社信和工業,,有限会社,大阪府,羽曳野市,駒ケ谷１１９９番地,,27,222,5830841,,,2023-02-06,清算の結了等,,,2015-10-05,1,,,,,シンワコウギョウ,0
212,1180001143663,登記記録の閉鎖等,0,2023-02-07,2023-02-03,ＮＥＷＧＡＴＥ株式会社,,株式会社,愛知県,名古屋市西区,中小田井３丁目３７３番地２アユタシス中小田井２０１号室,,23,104,4520822,,,2023-02-03,清算の結了等,,,2020-11-19,1,,,,,ニューゲート,0
213,1180001144141,登記記録の閉鎖等,0,2023-02-07,2023-02-02,株式会社Ｌａｎｄｌｏｒｄ　Ｉｎｎｏｖａｔｉｏｎ,,株式会社,愛知県,知多市,梅が丘１丁目３３１番地,,23,224,4780016,,,2023-02-02,清算の結了等,,,2020-12-24,1,,,,,ランドロードイノベーション,0
227,1210005005220,登記記録の閉鎖等,0,2023-02-07,2023-02-03,協同組合エス・ナック,,その他の設立登記法人,福井県,福井市,串野町第９号３５番地,,18,201,9103145,,,2023-02-03,清算の結了等,,,2015-10-05,1,,,,,エスナック,0
232,1220002012573,登記記録の閉鎖等,0,2023-02-07,2023-02-03,有限会社たにさく,,有限会社,石川県,加賀市,大聖寺弓町３番地,,17,206,9220813,,,2023-02-03,清算の結了等,,,2015-10-05,1,,,,,タニサク,0
238,1240001010527,登記記録の閉鎖等,0,2023-02-07,2023-02-02,株式会社ブルーマーリン,,株式会社,広島県,広島市中区,舟入町２番２０－９０３号,,34,101,7300841,,,2023-02-02,清算の結了等,,,2015-10-05,1,,,,,ブルーマーリン,0
240,1250002005566,登記記録の閉鎖等,0,2023-02-07,2023-02-02,有限会社富士屋,,有限会社,山口県,宇部市,西宇部南２丁目１４番３１号,,35,202,7590208,,,2023-02-02,清算の結了等,,,2015-10-05,1,,,,,フジヤ,0
241,1250003002190,登記記録の閉鎖等,0,2023-02-07,2023-02-01,合同会社ＢＩＲＴＨ,,合同会社,山口県,山口市,平井８６４－１０,,35,203,7530831,,,2023-02-01,合併による解散等,6250003002343,令和５年２月１日山口県山口市平井１１４－８合同会社ペドロヒメネス（6250003002343）に合併し解散,2018-01-16,1,,,,,バース,0
246,1270002011364,登記記録の閉鎖等,0,2023-02-07,2023-02-01,有限会社河本服装,,有限会社,鳥取県,東伯郡三朝町,大字大瀬４７８番地１０,,31,364,6820121,,,2023-02-01,清算の結了等,,,2022-07-26,1,,,,,カワモトフクソウ,0
259,1310002005948,登記記録の閉鎖等,0,2023-02-07,2023-02-06,有限会社ユニバース,,有限会社,長崎県,長崎市,出島町１３番１２号,,42,201,8500862,,,2023-02-06,清算の結了等,,,2015-10-05,1,,,,,ユニバース,0
261,1320001017919,登記記録の閉鎖等,0,2023-02-07,2023-02-03,株式会社松実館,,株式会社,大分県,別府市,大字南立石２２７０番地の４ドゥペール観海寺４０２号,,44,202,8740000,,,2023-02-03,清算の結了等,,,2020-09-17,1,,,,,マツミカン,0
285,1420001014674,登記記録の閉鎖等,0,2023-02-07,2023-02-06,株式会社つしま工建,,株式会社,青森県,青森市,大字滝沢字住吉７１番地２,,02,201,0393524,,,2023-02-06,清算の結了等,,,2015-10-05,1,,,,,ツシマコウケン,0
302,1470002013596,登記記録の閉鎖等,0,2023-02-07,2023-02-03,有限会社みの,,有限会社,香川県,綾歌郡宇多津町,浜三番丁２１番地１５,,37,386,7690203,,,2023-02-03,清算の結了等,,,2015-10-05,1,,,,,ミノ,0
322,2010401125566,登記記録の閉鎖等,0,2023-02-07,2023-01-25,ドレイクス・ジャパン株式会社,,株式会社,東京都,港区,南青山５丁目１４番１号,,13,103,1070062,,,2023-01-25,清算の結了等,,,2016-07-04,1,,,,,ドレイクスジャパン,0
358,2011003014075,登記記録の閉鎖等,0,2023-02-07,2023-01-30,Ｗａｆｆｙ合同会社,,合同会社,東京都,渋谷区,渋谷２丁目１９－１５宮益坂ビルディング６０９,,13,113,1500002,,,2023-01-30,清算の結了等,,,2022-01-31,1,,,,,ワッフィー,0
369,2011701005581,登記記録の閉鎖等,0,2023-02-07,2023-02-06,東新産業株式会社,,株式会社,東京都,江戸川区,南小岩１丁目１０番１５号,,13,123,1330056,,,2023-02-06,清算の結了等,,,2015-10-05,1,,,,,トウシンサンギョウ,0
377,2013301002570,登記記録の閉鎖等,0,2023-02-07,2023-01-31,株式会社企業通信社,00059847,株式会社,東京都,豊島区,北大塚２丁目９番７号,,13,116,1700004,,,2023-01-31,合併による解散等,9013301012464,令和５年１月１日東京都豊島区北大塚二丁目４番５号株式会社労働調査会（9013301012464）に合併し解散,2015-10-05,1,,,,,キギョウツウシンシャ,0
378,2013303001447,登記記録の閉鎖等,0,2023-02-07,2023-02-01,合同会社Ｗｉｔｈ,,合同会社,東京都,豊島区,東池袋３丁目１３番１１号,,13,116,1700013,,,2023-02-01,清算の結了等,,,2015-10-05,1,,,,,ウィズ,0
395,2021002040121,登記記録の閉鎖等,0,2023-02-07,2023-02-02,有限会社ウイニングスポーツ,,有限会社,神奈川県,大和市,下鶴間３０３０番地の３２,,14,213,2420001,,,2023-02-02,清算の結了等,,,2015-10-05,1,,,,,ウイニングスポーツ,0
403,2030002097006,登記記録の閉鎖等,0,2023-02-07,2023-02-02,有限会社ミントグリーン,,有限会社,埼玉県,東松山市,大字上野本１２７６番地３,,11,212,3550073,,,2023-02-02,清算の結了等,,,2015-10-05,1,,,,,ミントグリーン,0
429,2080105005752,登記記録の閉鎖等,0,2023-02-07,2023-02-06,一般社団法人チャンクス,,その他の設立登記法人,静岡県,沼津市,戸田１３０７番地の５,,22,203,4103402,,,2023-02-06,清算の結了等,,,2017-05-16,1,,,,,チャンクス,0
454,2120002080010,登記記録の閉鎖等,0,2023-02-07,2023-02-03,有限会社徳廣左官工業,,有限会社,大阪府,枚方市,高野道２丁目６番２号,,27,210,5731131,,,2023-02-03,清算の結了等,,,2015-10-05,1,,,,,トクヒロサカンコウギョウ,0
481,2140001091015,登記記録の閉鎖等,0,2023-02-07,2023-02-01,株式会社人良舎,,株式会社,兵庫県,洲本市,本町８丁目９番２３号,,28,205,6560025,,,2023-02-01,清算の結了等,,,2015-10-05,1,,,,,,0
485,2140002001600,登記記録の閉鎖等,0,2023-02-07,2023-01-31,三起家具有限会社,,有限会社,兵庫県,神戸市東灘区,住吉宮町１丁目４番１６号,,28,101,6580053,,,2023-01-31,清算の結了等,,,2015-10-05,1,,,,,サンキカグ,0
510,2210005006944,登記記録の閉鎖等,0,2023-02-07,2023-02-02,農事組合法人鞍谷,,その他の設立登記法人,福井県,越前市,蓑脇町第１３号１８番地,,18,209,9150033,,,2023-02-02,清算の結了等,,,2015-10-05,1,,,,,クラタニ,0
511,2220001011468,登記記録の閉鎖等,0,2023-02-07,2023-02-03,ライビング株式会社,,株式会社,東京都,大田区,山王２丁目５番６号,,13,111,1430023,,,2023-02-03,合併による解散等,6122001012188,令和５年２月１日大阪府東大阪市高井田中一丁目８番２０号株式会社サン・クリーンサービス（6122001012188）に合併し解散,2015-10-05,1,,,,,ライビング,0
514,2240001000782,登記記録の閉鎖等,0,2023-02-07,2023-02-06,株式会社出雲寿司,,株式会社,広島県,広島市東区,山根町１０番１０号,,34,102,7320048,,,2023-02-06,清算の結了等,,,2015-10-05,1,,,,,イズモズシ,0
522,2240005007741,登記記録の閉鎖等,0,2023-02-07,2023-02-03,医療法人社団シンシア会,,その他の設立登記法人,広島県,福山市,南手城町４丁目１番６号,,34,207,7210963,,,2023-02-03,清算の結了等,,,2015-10-05,1,,,,,シンシアカイ,0
530,2290001015264,登記記録の閉鎖等,0,2023-02-07,2023-02-03,日本通信サービス株式会社,,株式会社,福岡県,福岡市中央区,渡辺通５丁目１４番１２号,,40,133,8100004,,,2023-02-03,合併による解散等,5010601058423,令和５年２月１日東京都江東区豊洲三丁目２番２４号ｍａテレコム株式会社（5010601058423）に合併し解散,2015-10-05,1,,,,,,0
541,2290802010876,登記記録の閉鎖等,0,2023-02-07,2023-02-06,有限会社藤義設備,,有限会社,福岡県,北九州市小倉南区,八幡町２５番１１号,,40,107,8020805,,,2023-02-06,清算の結了等,,,2015-10-05,1,,,,,フジヨシセツビ,0
544,2300003001509,登記記録の閉鎖等,0,2023-02-07,2023-02-01,合同会社ＳＭＳ,,合同会社,佐賀県,佐賀市,川副町大字犬井道１６２３番地３,,41,201,8402212,,,2023-02-01,合併による解散等,3300003001508,令和５年２月１日佐賀市川副町大字犬井道１６２３番地３合同会社拓（3300003001508）に合併し解散,2020-01-24,1,,,,,エスエムエス,0
567,2430001014078,登記記録の閉鎖等,0,2023-02-07,2023-01-31,平出商事株式会社,,株式会社,北海道,札幌市中央区,南十四条西１５丁目１番６号,,01,101,0640914,,,2023-01-31,清算の結了等,,,2015-10-05,1,,,,,ヒラデショウジ,0
586,3010001163040,登記記録の閉鎖等,0,2023-02-07,2023-02-03,株式会社ＧＬＯＷＬ,,株式会社,東京都,港区,新橋６丁目２２番１号,,13,103,1050004,,,2023-02-03,合併による解散等,2430001059395,令和５年１月３１日札幌市中央区南一条西二十丁目１番２５号株式会社アウル（2430001059395）に合併し解散,2015-10-05,1,,,,,グロール,0
600,3010401057107,登記記録の閉鎖等,0,2023-02-07,2023-02-03,株式会社ウェルネスプランニング,,株式会社,東京都,港区,赤坂１丁目７番１号,,13,103,1070052,,,2023-02-03,合併による解散等,9290001018995,令和５年２月１日福岡市中央区清川一丁目３番１号株式会社創生事業団（9290001018995）に合併し解散,2015-10-05,1,,,,,ウエルネスプランニング,0
617,3010701036272,登記記録の閉鎖等,0,2023-02-07,2023-02-02,スネイルジャパン株式会社,,株式会社,東京都,品川区,西五反田７丁目２４番５号,,13,109,1410031,,,2023-02-02,清算の結了等,,,2018-08-17,1,,,,,スネイルジャパン,0
618,3010702008618,登記記録の閉鎖等,0,2023-02-07,2023-02-02,有限会社ゆう,,有限会社,東京都,品川区,東大井２丁目２３番７号,,13,109,1400011,,,2023-02-02,清算の結了等,,,2015-10-05,1,,,,,ユウ,0
622,3010901047788,登記記録の閉鎖等,0,2023-02-07,2023-02-02,みんなの薬局株式会社,,株式会社,東京都,世田谷区,等々力４丁目１３番２３号,,13,112,1580082,,,2023-02-02,清算の結了等,,,2021-01-06,1,,,,,ミンナノヤッキョク,0
637,3011102001023,登記記録の閉鎖等,0,2023-02-07,2023-02-06,有限会社石川製靴,,有限会社,東京都,新宿区,百人町１丁目１８番８号,,13,104,1690073,,,2023-02-06,清算の結了等,,,2015-10-05,1,,,,,イシカワセイカ,0
644,3012402019589,登記記録の閉鎖等,0,2023-02-07,2023-02-03,有限会社藤井住建,,有限会社,東京都,三鷹市,下連雀４丁目１９番２４号,,13,204,1810013,,,2023-02-03,清算の結了等,,,2015-10-05,1,,,,,,0
648,3012801020271,登記記録の閉鎖等,0,2023-02-07,2023-02-02,株式会社ＯＮＥＳＥＡＴ,,株式会社,東京都,国立市,東１丁目１５番１１号４４８ビル３階,,13,215,1860002,,,2023-02-02,清算の結了等,,,2020-07-27,1,,,,,ワンシート,0
654,3021001000612,登記記録の閉鎖等,0,2023-02-07,2023-02-02,グローバルチヤータリング株式会社,,株式会社,神奈川県,藤沢市,鵠沼海岸４丁目６番４号,,14,205,2510037,,,2023-02-02,清算の結了等,,,2015-10-05,1,,,,,グローバルチヤータリング,0
657,3021001063675,登記記録の閉鎖等,0,2023-02-07,2023-02-03,福日商事株式会社,,株式会社,神奈川県,相模原市中央区,田名４０９４番地,,14,152,2520244,,,2023-02-03,合併による解散等,1011701010533,令和５年２月１日東京都江戸川区松島三丁目１４番７号福日観光株式会社（1011701010533）に合併し解散,2017-12-06,1,,,,,,0
665,3030001070061,登記記録の閉鎖等,0,2023-02-07,2023-02-02,株式会社エムアンドアールサトーインターナショナル,,株式会社,埼玉県,坂戸市,花影町１０番９号,,11,239,3500236,,,2023-02-02,清算の結了等,,,2015-10-05,1,,,,,エムアンドアールサトーインターナショナル,0
684,3050001045557,登記記録の閉鎖等,0,2023-02-07,2023-02-01,株式会社いえづくりカンパニー,,株式会社,茨城県,日立市,国分町１丁目２番２号,,08,202,3160035,,,2023-02-01,清算の結了等,,,2019-02-08,1,,,,,イエヅクリカンパニー,0
698,3080102006793,登記記録の閉鎖等,0,2023-02-07,2022-12-09,有限会社かつまたクツ，カバン店,,有限会社,静岡県,裾野市,富沢４３５番地の５,,22,220,4101125,,,2022-12-09,清算の結了等,,,2015-10-05,1,,,,,カツマタクツカバンテン,0
700,3080403002649,登記記録の閉鎖等,0,2023-02-07,2023-02-03,合同会社オネストワーク俊英,,合同会社,静岡県,磐田市,立野２０１３番地１,,22,211,4380821,,,2023-02-03,清算の結了等,,,2015-10-05,1,,,,,オネストワークシュンエイ,0
744,3140001064639,登記記録の閉鎖等,0,2023-02-07,2023-02-01,株式会社建築現場派遣,,株式会社,兵庫県,姫路市,元塩町１２０番地,,28,201,6700937,,,2023-02-01,清算の結了等,,,2015-10-05,1,,,,,ケンチクゲンバハケン,0
754,3140005006505,登記記録の閉鎖等,0,2023-02-07,2023-02-03,協同組合龍野一番街,,その他の設立登記法人,兵庫県,たつの市,龍野町堂本２６０番地の１,,28,229,6794129,,,2023-02-03,清算の結了等,,,2015-10-05,1,,,,,タツノイチバンガイ,0
760,3180001101900,登記記録の閉鎖等,0,2023-02-07,2023-02-02,株式会社Ｇサービス,,株式会社,愛知県,長久手市,前熊根ノ上１０番地,,23,238,4801102,,,2023-02-02,清算の結了等,,,2015-10-05,1,,,,,ジーサービス,0
809,3330001018971,登記記録の閉鎖等,0,2023-02-07,2023-02-03,Ｓａｌパートナーズ株式会社,,株式会社,熊本県,阿蘇郡南阿蘇村,大字長野字表ケ迫１８０９番地４リゾートマンション阿蘇２　２０５号,,43,433,8691403,,,2023-02-03,合併による解散等,5340001025255,令和５年２月１日鹿児島県曽於郡大崎町野方字迫谷５９５６番地１６Ｓａｌパートナーズ株式会社（5340001025255）に合併し解散,2015-10-05,1,,,,,セールパートナーズ,0
841,4010001229121,登記記録の閉鎖等,0,2023-02-07,2023-02-03,株式会社田中モータース,,株式会社,東京都,千代田区,神田東松下町２５番地,,13,101,1010042,,,2023-02-03,合併による解散等,8011701004561,令和５年２月１日東京都江戸川区新堀二丁目８番３号株式会社高橋自動車（8011701004561）に合併し解散,2022-08-31,1,,,,,タナカモータース,0
853,4010401089116,登記記録の閉鎖等,0,2023-02-07,2023-01-30,株式会社エスデー・アソシエイツ,,株式会社,東京都,渋谷区,広尾１丁目１０番６号,,13,113,1500012,,,2023-01-30,清算の結了等,,,2015-10-05,1,,,,,エスデーアソシエイツ,0
860,4010401119491,登記記録の閉鎖等,0,2023-02-07,2023-01-31,クリスメディカルソリューションズ株式会社,,株式会社,東京都,墨田区,江東橋４丁目２４番３号,,13,107,1300022,,,2023-01-31,清算の結了等,,,2015-10-05,1,,,,,クリスメディカルソリューションズ,0
861,4010401141082,登記記録の閉鎖等,0,2023-02-07,2023-02-03,株式会社メディカルエステート,,株式会社,東京都,港区,芝２丁目２９－１０,,13,103,1050014,,,2023-02-03,合併による解散等,4010401110657,令和５年２月１日福島県郡山市駅前二丁目１０－１５三共郡山ビル北館１Ｆ＆２Ｆ株式会社メディカルフロンティア（4010401110657）に合併し解散,2018-09-27,1,,,,,メディカルエステート,0
862,4010401142056,登記記録の閉鎖等,0,2023-02-07,2023-02-02,株式会社紬コンサルティング,,株式会社,東京都,新宿区,大京町１７番地８,,13,104,1600015,,,2023-02-02,清算の結了等,,,2018-11-15,1,,,,,ツムギコンサルティング,0
900,4011005006390,登記記録の閉鎖等,0,2023-02-07,2023-02-02,一般社団法人日本アカペラ協会,,その他の設立登記法人,東京都,渋谷区,桜丘町２６番１号セルリアンタワー１５階,,13,113,1500031,,,2023-02-02,清算の結了等,,,2015-10-05,1,,,,,ニホンアカペラキョウカイ,0
908,4011305002354,登記記録の閉鎖等,0,2023-02-07,2023-01-30,特定非営利活動法人きらく工房,,その他の設立登記法人,東京都,杉並区,高円寺北３丁目４１番１７号ファミーユ太田１０２,,13,115,1660002,,,2023-01-30,清算の結了等,,,2016-11-21,1,,,,,キラクコウボウ,0
924,4020003012400,登記記録の閉鎖等,0,2023-02-07,2023-02-02,ＭＧＦ合同会社,,合同会社,神奈川県,横浜市鶴見区,尻手１丁目１番１６－４４５号,,14,101,2300003,,,2023-02-02,清算の結了等,,,2017-02-20,1,,,,,エムジーエフ,0
926,4021001034790,登記記録の閉鎖等,0,2023-02-07,2023-02-02,株式会社ファイブスター・コーポレーション,,株式会社,神奈川県,小田原市,飯田岡５５０番地の１,,14,206,2500854,,,2023-02-02,清算の結了等,,,2015-10-05,1,,,,,ファイブスターコーポレーション,0
931,4030001098647,登記記録の閉鎖等,0,2023-02-07,2023-02-02,株式会社夕映え,,株式会社,埼玉県,川越市,大字鴨田９９４番地１,,11,201,3500844,,,2023-02-02,清算の結了等,,,2015-10-05,1,,,,,ユウバエ,0
937,4030002110963,登記記録の閉鎖等,0,2023-02-07,2023-02-01,有限会社カナメ興業,,有限会社,埼玉県,川口市,大字蓮沼３０２番地,,11,203,3340064,,,2023-02-01,合併による解散等,8011401001438,令和５年２月１日埼玉県川口市大字東本郷１１２１番地１かなめビル３階要産業株式会社（8011401001438）に合併し解散,2015-10-05,1,,,,,カナメコウギョウ,0
945,4040002069828,登記記録の閉鎖等,0,2023-02-07,2023-02-01,有限会社ケイ・ワイ・コミュニケーションズ,,有限会社,千葉県,君津市,南子安４丁目２１番８号,,12,225,2991162,,,2023-02-01,合併による解散等,3040001051795,令和５年２月１日千葉県君津市南子安四丁目２１番８号株式会社ケイ・ワイ・コーポレーション（3040001051795）に合併し解散,2015-10-05,1,,,,,ケイワイコミュニケーションズ,0
958,4080001009616,登記記録の閉鎖等,0,2023-02-07,2023-02-06,株式会社はなまる,,株式会社,静岡県,静岡市駿河区,中原３５９番地の２,,22,102,4228058,,,2023-02-06,清算の結了等,,,2015-10-05,1,,,,,ハナマル,0
962,4080103001941,登記記録の閉鎖等,0,2023-02-07,2023-02-02,合同会社ＹＭＲＡ,,合同会社,静岡県,沼津市,新沢田町１８番６号,,22,203,4100003,,,2023-02-02,清算の結了等,,,2019-02-07,1,,,,,ワイエムアールエー,0
965,4080402013745,登記記録の閉鎖等,0,2023-02-07,2023-02-06,オフィスタケダ有限会社,,有限会社,静岡県,浜松市東区,天王町２４６番地の３,,22,132,4350052,,,2023-02-06,清算の結了等,,,2015-10-05,1,,,,,オフィスタケダ,0
968,4110005009220,登記記録の閉鎖等,0,2023-02-07,2023-02-01,板山生産森林組合,,その他の設立登記法人,新潟県,上越市,大島区板山１６８０番地,,15,222,9421107,,,2023-02-01,清算の結了等,,,2015-10-05,1,,,,,イタヤマ,0
969,4120001004075,登記記録の閉鎖等,0,2023-02-07,2023-02-06,株式会社ノーマジーン,,株式会社,大阪府,池田市,緑丘２丁目４番１１２－１０１号,,27,204,5630026,,,2023-02-06,清算の結了等,,,2015-10-05,1,,,,,ノーマジーン,0
972,4120001049517,登記記録の閉鎖等,0,2023-02-07,2023-02-03,空気設備工業株式会社,,株式会社,大阪府,大阪市西淀川区,佃５丁目９番２号,,27,113,5550001,,,2023-02-03,合併による解散等,1010401164739,令和５年２月１日東京都港区元赤坂一丁目１番８号株式会社赤坂国際会計内空気設備工業株式会社（1010401164739）に合併し解散,2015-10-05,1,,,,,クウキセツビコウギョウ,0
977,4120001199634,登記記録の閉鎖等,0,2023-02-07,2023-02-03,株式会社アドスター,,株式会社,大阪府,大阪市淀川区,西中島４丁目２番６号,,27,123,5320011,,,2023-02-03,清算の結了等,,,2016-07-27,1,,,,,アドスター,0
993,4120005014368,登記記録の閉鎖等,0,2023-02-07,2023-01-30,特定非営利活動法人あなたのために,,その他の設立登記法人,大阪府,大阪市西成区,千本中１丁目１番１－７０６号,,27,122,5570054,,,2023-01-30,清算の結了等,,,2015-10-05,1,,,,,アナタノタメニ,0
997,4120101048476,登記記録の閉鎖等,0,2023-02-07,2023-02-02,シマントパシフィック株式会社,,株式会社,大阪府,岸和田市,上松町３５８番地の２６４,,27,202,5960827,,,2023-02-02,合併による解散等,2120101036953,令和５年２月１日大阪府岸和田市木材町１５番地４株式会社センエイ（2120101036953）に合併し解散,2015-10-05,1,,,,,シマントパシフィック,0
1002,4120901017746,登記記録の閉鎖等,0,2023-02-07,2023-02-03,株式会社ナチュレフーズ,,株式会社,大阪府,茨木市,山手台５丁目２５番１号,,27,211,5670009,,,2023-02-03,清算の結了等,,,2015-10-05,1,,,,,ナチュレフーズ,0
1013,4140001050150,登記記録の閉鎖等,0,2023-02-07,2023-02-01,東京溶接棒株式会社,,株式会社,兵庫県,尼崎市,西昆陽１丁目２１番２６号,,28,202,6610047,,,2023-02-01,清算の結了等,,,2015-10-05,1,,,,,トウキョウヨウセツボウ,0
1058,4250001017980,登記記録の閉鎖等,0,2023-02-07,2023-02-03,株式会社蓮想,,株式会社,山口県,山陽小野田市,南竜王町１５番２号,,35,216,7560832,,,2023-02-03,清算の結了等,,,2019-11-07,1,,,,,,0
1060,4260001007403,登記記録の閉鎖等,0,2023-02-07,2023-02-06,藤東コーポレーション株式会社,,株式会社,岡山県,岡山市南区,藤田６７９番地,,33,104,7010221,,,2023-02-06,清算の結了等,,,2015-10-05,1,,,,,フジトウコーポレーション,0
1062,4260001034190,登記記録の閉鎖等,0,2023-02-07,2023-02-06,株式会社アクシオン,,株式会社,岡山県,倉敷市,加須山１６２番地１,,33,202,7100026,,,2023-02-06,清算の結了等,,,2020-04-02,1,,,,,アクシオン,0
1063,4260002024249,登記記録の閉鎖等,0,2023-02-07,2023-02-03,有限会社Ｓｉｌｋ,,有限会社,岡山県,倉敷市,福島６４９番地１２,,33,202,7100048,,,2023-02-03,清算の結了等,,,2015-10-05,1,,,,,シルク,0
1077,4290005009483,登記記録の閉鎖等,0,2023-02-07,2023-02-06,特定非営利活動法人ふるさと黒木応援会,,その他の設立登記法人,福岡県,八女市,黒木町田本１８５番地２,,40,210,8341214,,,2023-02-06,清算の結了等,,,2015-10-05,1,,,,,フルサトクロギオウエンカイ,0
1086,4330002009572,登記記録の閉鎖等,0,2023-02-07,2023-02-03,有限会社本田産業,,有限会社,熊本県,熊本市南区,平田１丁目２番１９号,,43,104,8600826,,,2023-02-03,清算の結了等,,,2015-10-05,1,,,,,ホンダサンギョウ,0
1096,4380005003238,登記記録の閉鎖等,0,2023-02-07,2023-02-06,特定非営利活動法人語りと方言の会,,その他の設立登記法人,福島県,郡山市,柏山町３番地,,07,203,9630202,,,2023-02-06,清算の結了等,,,2015-10-05,1,,,,,,0
1098,4390005005638,登記記録の閉鎖等,0,2023-02-07,2023-02-01,医療法人社団千宏会,,その他の設立登記法人,山形県,村山市,大字本飯田字柳堤２４８６番地の６５,,06,208,9950003,,,2023-02-01,清算の結了等,,,2015-10-05,1,,,,,チヒロカイ,0
1099,4400002000739,登記記録の閉鎖等,0,2023-02-07,2023-02-01,有限会社オバラメディカル,,有限会社,岩手県,盛岡市,前九年３丁目１番６号,,03,201,0200127,,,2023-02-01,清算の結了等,,,2015-10-05,1,,,,,オバラメディカル,0
1107,4430001019463,登記記録の閉鎖等,0,2023-02-07,2023-02-01,札幌バス株式会社,,株式会社,北海道,札幌市清田区,真栄一条２丁目３３番１０号,,01,110,0040831,,,2023-02-01,合併による解散等,9430001021456,令和５年２月１日札幌市清田区真栄一条二丁目３３番１０号北海道バス株式会社（9430001021456）に合併し解散,2015-10-05,1,,,,,サッポロバス,0
1108,4430001058164,登記記録の閉鎖等,0,2023-02-07,2023-02-03,株式会社ステア,,株式会社,北海道,札幌市白石区,平和通５丁目北６番２１号,,01,104,0030029,,,2023-02-03,清算の結了等,,,2015-10-05,1,,,,,ステア,0
1114,4460101006846,登記記録の閉鎖等,0,2023-02-07,2023-02-03,株式会社丸松,,株式会社,北海道,帯広市,西六条南５丁目３番地８,,01,207,0800016,,,2023-02-03,合併による解散等,5460101001714,令和５年１月３１日北海道帯広市西六条南五丁目３番地丸宝繊維株式会社（5460101001714）に合併し解散,2020-10-06,1,,,,,マルマツ,0
1122,4500003002724,登記記録の閉鎖等,0,2023-02-07,2023-02-03,幸福合同会社,,合同会社,愛媛県,松山市,平和通２丁目３番地１,,38,201,7900807,,,2023-02-03,清算の結了等,,,2021-11-30,1,,,,,コウフク,0
1124,4700150069843,登記記録の閉鎖等,0,2023-02-07,2022-11-07,不二製油企業年金基金,,その他,大阪府,泉佐野市,住吉町１番地,,27,213,5980061,,,2022-11-07,その他の清算の結了等,,,2016-01-19,1,,,,,フジセイユキギョウネンキンキキン,0
1127,5010001023853,登記記録の閉鎖等,0,2023-02-07,2023-02-01,株式会社東広マンションセンター,,株式会社,東京都,千代田区,六番町４番地２,,13,101,1020085,,,2023-02-01,清算の結了等,,,2015-10-05,1,,,,,トウコウマンションセンター,0
1128,5010001049865,登記記録の閉鎖等,0,2023-02-07,2023-02-01,株式会社ダイヤモンドセツテイング,,株式会社,東京都,千代田区,平河町１丁目１番８号,,13,101,1020093,,,2023-02-01,合併による解散等,7010001047537,令和５年１月３１日東京都千代田区平河町一丁目１番８号諏訪貿易株式会社（7010001047537）に合併し解散,2015-10-05,1,,,,,ダイヤモンドセッティング,0
1154,5010901039635,登記記録の閉鎖等,0,2023-02-07,2023-02-03,株式会社ボンボン,,株式会社,東京都,世田谷区,世田谷４丁目２番１２号,,13,112,1540017,,,2023-02-03,清算の結了等,,,2017-02-28,1,,,,,,0
1165,5011002025814,登記記録の閉鎖等,0,2023-02-07,2023-01-31,有限会社タスインターナショナル,,有限会社,東京都,渋谷区,桜丘町２３番１７号シティコート桜丘４０８,,13,113,1500031,,,2023-01-31,清算の結了等,,,2015-10-05,1,,,,,タスインターナショナル,0
1172,5011503002428,登記記録の閉鎖等,0,2023-02-07,2023-01-31,合同会社アップルサービス,,合同会社,東京都,北区,赤羽１丁目５２番１０号,,13,117,1150045,,,2023-01-31,清算の結了等,,,2015-10-05,1,,,,,,0
1176,5011701022277,登記記録の閉鎖等,0,2023-02-07,2022-12-23,ＫＯＫＥＮ株式会社,,株式会社,東京都,江戸川区,平井５丁目２３番５－７０１号,,13,123,1320035,,,2022-12-23,清算の結了等,,,2018-11-28,1,,,,,コーケン,0
1195,5020001058452,登記記録の閉鎖等,0,2023-02-07,2023-02-02,株式会社ティ・エムテック,,株式会社,神奈川県,横浜市南区,共進町２丁目３７番地１４,,14,105,2320015,,,2023-02-02,清算の結了等,,,2015-10-05,1,,,,,ティエムテック,0
1216,5021001071726,登記記録の閉鎖等,0,2023-02-07,2023-02-03,株式会社ＫＴＫ,,株式会社,神奈川県,座間市,緑ケ丘４丁目２０番６号,,14,216,2520021,,,2023-02-03,清算の結了等,,,2021-01-05,1,,,,,ケーティーケー,0
1222,5030001015304,登記記録の閉鎖等,0,2023-02-07,2023-02-02,株式会社ＩＫ,,株式会社,埼玉県,さいたま市西区,大字植田谷本１３７番地１加茂川団地８－５０６,,11,101,3310053,,,2023-02-02,清算の結了等,,,2015-10-05,1,,,,,アイケイ,0
1255,5080401017259,登記記録の閉鎖等,0,2023-02-07,2023-02-03,株式会社都市建築寺田設計,,株式会社,静岡県,袋井市,堀越５丁目２０番地の４,,22,216,4370065,,,2023-02-03,清算の結了等,,,2015-10-05,1,,,,,トシケンチクテラダセッケイ,0
1260,5110001014280,登記記録の閉鎖等,0,2023-02-07,2023-02-02,株式会社十見商店,,株式会社,新潟県,三条市,石上２丁目１３番２号,,15,204,9550084,,,2023-02-02,清算の結了等,,,2015-10-05,1,,,,,ジュウミショウテン,0
1268,5120001066701,登記記録の閉鎖等,0,2023-02-07,2023-02-02,株式会社大和,,株式会社,大阪府,大阪市北区,梅田１丁目１番３号大阪駅前第３ビル２６階,,27,127,5300001,,,2023-02-02,合併による解散等,4010001031808,令和５年１月３１日東京都千代田区紀尾井町１番９号株式会社ライダース・パブリシティ（4010001031808）に合併し解散,2015-10-05,1,,,,,ダイワ,0
1289,5120901031259,登記記録の閉鎖等,0,2023-02-07,2023-02-03,ナノテク商事株式会社,,株式会社,大阪府,吹田市,江坂町２丁目４番２５－４０５号,,27,205,5640063,,,2023-02-03,清算の結了等,,,2015-10-05,1,,,,,ナノテクショウジ,0
1376,5420001015669,登記記録の閉鎖等,0,2023-02-07,2023-02-02,株式会社Ｙ．Ｅエンジニア,,株式会社,青森県,青森市,第二問屋町３丁目３番１８号,,02,201,0300113,,,2023-02-02,合併による解散等,4420001013616,令和５年２月１日青森市第二問屋町三丁目３番１８号株式会社ヤブシタエンジニアリング（4420001013616）に合併し解散,2017-04-06,1,,,,,ワイイーエンジニア,0
1378,5420003001196,登記記録の閉鎖等,0,2023-02-07,2023-02-02,株式会社リーベルビータ,,株式会社,青森県,青森市,第二問屋町４丁目１番７号,,02,201,0300113,,,2023-02-02,合併による解散等,6130001031595,令和５年２月１日青森市第二問屋町四丁目１番７号株式会社マキュレ（6130001031595）に合併し解散,2015-10-05,1,,,,,リーベルビータ,0
1381,5430001054526,登記記録の閉鎖等,0,2023-02-07,2023-02-01,株式会社カープロジェクト,,株式会社,北海道,苫小牧市,光洋町１丁目５番１０号,,01,213,0530811,,,2023-02-01,清算の結了等,,,2015-10-05,1,,,,,カープロジェクト,0
1410,6010002005890,登記記録の閉鎖等,0,2023-02-07,2023-02-01,有限会社水上製本所,,有限会社,東京都,文京区,小石川３丁目３７番５号,,13,105,1120002,,,2023-02-01,清算の結了等,,,2015-10-05,1,,,,,ミズカミセイホンジョ,0
1445,6010901045491,登記記録の閉鎖等,0,2023-02-07,2023-02-02,株式会社Ｖ．Ｃ．,,株式会社,東京都,世田谷区,用賀３丁目１５番１８号,,13,112,1580097,,,2023-02-02,清算の結了等,,,2020-01-14,1,,,,,ブイシー,0
1464,6011202000153,登記記録の閉鎖等,0,2023-02-07,2023-02-03,有限会社アーバン・プレイン,,有限会社,東京都,中野区,本町６丁目１５番１０号,,13,114,1640012,,,2023-02-03,清算の結了等,,,2015-10-05,1,,,,,アーバンプレイン,0
1470,6013101006124,登記記録の閉鎖等,0,2023-02-07,2023-02-02,株式会社黒澤建装,,株式会社,東京都,福生市,大字熊川１３４０番地２,,13,218,1970003,,,2023-02-02,清算の結了等,,,2015-10-05,1,,,,,,0
1481,6020002039995,登記記録の閉鎖等,0,2023-02-07,2023-02-02,有限会社プレシード,,有限会社,神奈川県,横浜市鶴見区,鶴見中央１丁目２７番３号,,14,101,2300051,,,2023-02-02,清算の結了等,,,2015-10-05,1,,,,,プレシード,0
1490,6021002005319,登記記録の閉鎖等,0,2023-02-07,2023-02-02,有限会社ワイ・アンド・ケイ,,有限会社,神奈川県,藤沢市,南藤沢２０番１５号,,14,205,2510055,,,2023-02-02,清算の結了等,,,2015-10-05,1,,,,,ワイアンドケイ,0
1512,6050002030340,登記記録の閉鎖等,0,2023-02-07,2023-02-01,有限会社大川屋,,有限会社,茨城県,日立市,久慈町３丁目３番２０号,,08,202,3191222,,,2023-02-01,清算の結了等,,,2015-10-05,1,,,,,,0
1516,6060001024367,登記記録の閉鎖等,0,2023-02-07,2023-02-06,株式会社石川炉工,,株式会社,栃木県,日光市,大室９９５番地,,09,206,3212332,,,2023-02-06,清算の結了等,,,2015-10-05,1,,,,,イシカワロコウ,0
1519,6060002011166,登記記録の閉鎖等,0,2023-02-07,2023-02-02,有限会社高田産業,00024376,有限会社,栃木県,真岡市,柳林５１９番地４,,09,209,3214365,,,2023-02-02,清算の結了等,,,2015-10-05,1,,,,,タカダサンギョウ,0
1520,6060002037649,登記記録の閉鎖等,0,2023-02-07,2023-02-03,有限会社山司プラスチック工業所,,有限会社,栃木県,足利市,寺岡町５９２番地の１,,09,202,3294213,,,2023-02-03,清算の結了等,,,2015-10-05,1,,,,,ヤマジプラスチックコウギョウショ,0
1526,6080401000321,登記記録の閉鎖等,0,2023-02-07,2023-02-06,株式会社アメリオ,,株式会社,静岡県,浜松市西区,西山町１８３４番地,,22,133,4328001,,,2023-02-06,清算の結了等,,,2015-10-05,1,,,,,アメリオ,0
1528,6100002011624,登記記録の閉鎖等,0,2023-02-07,2023-02-01,有限会社イタリア文学研究センター,,有限会社,長野県,北佐久郡御代田町,大字御代田字大林４１０８番地１０７４,,20,323,3890206,,,2023-02-01,清算の結了等,,,2015-10-05,1,,,,,イタリアブンガクケンキュウセンター,0
1533,6110005005572,登記記録の閉鎖等,0,2023-02-07,2023-02-02,協同組合三条利工センター共同工場,,その他の設立登記法人,新潟県,三条市,金子新田丙９８５番地１,,15,204,9550814,,,2023-02-02,清算の結了等,,,2015-10-05,1,,,,,サンジョウリコウセンターキョウドウコウジョウ,0
1534,6120001157805,登記記録の閉鎖等,0,2023-02-07,2023-02-03,辻産業株式会社,00029479,株式会社,大阪府,門真市,大池町１２番３号,,27,223,5710076,,,2023-02-03,清算の結了等,,,2015-10-05,1,,,,,ツジサンギョウ,0
1555,6120102016926,登記記録の閉鎖等,0,2023-02-07,2023-02-03,有限会社千代田メンテナンス,,有限会社,大阪府,富田林市,錦織東３丁目１９番６号,,27,214,5840069,,,2023-02-03,清算の結了等,,,2015-10-05,1,,,,,チヨダメンテナンス,0
1560,6120905005704,登記記録の閉鎖等,0,2023-02-07,2023-02-02,一般社団法人事業支援機構,,その他の設立登記法人,大阪府,箕面市,彩都粟生南２丁目８番１号,,27,220,5620028,,,2023-02-02,清算の結了等,,,2018-04-09,1,,,,,ジギョウシエンキコウ,0
1564,6122002005125,登記記録の閉鎖等,0,2023-02-07,2023-02-03,有限会社結プランニング,,有限会社,大阪府,東大阪市,西岩田３丁目３番１３－１１３５号,,27,227,5780947,,,2023-02-03,清算の結了等,,,2015-10-05,1,,,,,ユイプランニング,0
1568,6130001041891,登記記録の閉鎖等,0,2023-02-07,2023-02-03,ライト建設株式会社,,株式会社,京都府,綾部市,味方町鴨ノ堂３９番地の１,,26,203,6230031,,,2023-02-03,清算の結了等,,,2015-10-05,1,,,,,ライトケンセツ,0
1590,6170002000637,登記記録の閉鎖等,0,2023-02-07,2023-02-06,有限会社岡市産業,,有限会社,和歌山県,和歌山市,新堀東１丁目２番４３号,,30,201,6410042,,,2023-02-06,清算の結了等,,,2015-10-05,1,,,,,オカイチサンギョウ,0
1594,6180001063188,登記記録の閉鎖等,0,2023-02-07,2023-02-01,株式会社装司堂,,株式会社,山口県,山口市,古熊３丁目２番２－１１０２号,,35,203,7530031,,,2023-02-01,清算の結了等,,,2015-10-05,1,,,,,ソウシドウ,0
1596,6180001123017,登記記録の閉鎖等,0,2023-02-07,2023-02-01,株式会社イノベーション,,株式会社,愛知県,名古屋市中区,大須１丁目２２番４７号,,23,106,4600011,,,2023-02-01,合併による解散等,2180001044539,令和５年２月１日名古屋市中区大須一丁目２２番４７号株式会社綜建社（2180001044539）に合併し解散,2016-04-26,1,,,,,イノベーション,0
1601,6180002038841,登記記録の閉鎖等,0,2023-02-07,2023-02-02,有限会社村井塗装,,有限会社,愛知県,名古屋市東区,矢田２丁目１６番４４号,,23,102,4610040,,,2023-02-02,清算の結了等,,,2015-10-05,1,,,,,ムライトソウ,0
1605,6180303005144,登記記録の閉鎖等,0,2023-02-07,2023-01-31,Ｍｏｏｉ合同会社,,合同会社,愛知県,豊田市,美里４丁目３番地３豊田ハイタウン１‐３０２号,,23,211,4710805,,,2023-01-31,清算の結了等,,,2021-10-27,1,,,,,モーアイ,0
1624,6240002039742,登記記録の閉鎖等,0,2023-02-07,2023-02-01,有限会社大塚金属工業所,,有限会社,広島県,福山市,神島町２０番３号,,34,207,7200091,,,2023-02-01,合併による解散等,4240001036057,令和５年２月１日広島県福山市神島町２０番３号株式会社大塚金属（4240001036057）に合併し解散,2015-10-05,1,,,,,オオツカキンゾクコウギョウショ,0
1639,6290002048664,登記記録の閉鎖等,0,2023-02-07,2023-02-02,兼弘食品有限会社,,有限会社,福岡県,久留米市,御井旗崎３丁目１３番２２号,,40,203,8390841,,,2023-02-02,清算の結了等,,,2015-10-05,1,,,,,カネヒロショクヒン,0
1645,6290805000020,登記記録の閉鎖等,0,2023-02-07,2023-02-03,北九州コンクリート製品協同組合,,その他の設立登記法人,福岡県,北九州市小倉北区,霧ケ丘３丁目１１番１０号,,40,106,8020052,,,2023-02-03,清算の結了等,,,2015-10-05,1,,,,,キタキュウシュウコンクリートセイヒン,0
1669,6380002030068,登記記録の閉鎖等,0,2023-02-07,2023-02-03,有限会社秀和建設,,有限会社,福島県,双葉郡富岡町,大字上手岡字上千里１６９番地の２,,07,543,9791141,,,2023-02-03,清算の結了等,,,2015-10-05,1,,,,,シュウワケンセツ,0
1682,6460101006687,登記記録の閉鎖等,0,2023-02-07,2023-02-02,株式会社バジリオン,,株式会社,北海道,帯広市,緑ケ丘一条通６丁目２２番地,,01,207,0800841,,,2023-02-02,清算の結了等,,,2020-01-06,1,,,,,バジリオン,0
1687,6470002016462,登記記録の閉鎖等,0,2023-02-07,2023-02-01,有限会社サンライフ野菜センター,,有限会社,香川県,三豊市,高瀬町上麻乙２５５番地９７,,37,208,7670014,,,2023-02-01,合併による解散等,4470001003265,令和５年２月１日香川県高松市寿町一丁目４番３号日生開発株式会社（4470001003265）に合併し解散,2015-10-05,1,,,,,サンライフヤサイセンター,0
1688,6470002017989,登記記録の閉鎖等,0,2023-02-07,2023-02-03,有限会社ムーラン,,有限会社,香川県,さぬき市,鴨部６２１５番地１,,37,206,7692104,,,2023-02-03,清算の結了等,,,2015-10-05,1,,,,,ムーラン,0
1706,7010401025200,登記記録の閉鎖等,0,2023-02-07,2023-01-24,株式会社ピンナップ,,株式会社,東京都,港区,南青山２丁目８番２７号,,13,103,1070062,,,2023-01-24,清算の結了等,,,2015-10-05,1,,,,,ピンナップ,0
1708,7010501009375,登記記録の閉鎖等,0,2023-02-07,2023-02-06,東京鳥梅株式会社,,株式会社,東京都,台東区,下谷２丁目１５番４号エクセル入谷２号館,,13,106,1100004,,,2023-02-06,清算の結了等,,,2015-10-05,1,,,,,トウキョウトリウメ,0
1747,7011401013467,登記記録の閉鎖等,0,2023-02-07,2023-02-03,立石総業株式会社,,株式会社,東京都,板橋区,双葉町３３番１３号,,13,119,1730011,,,2023-02-03,清算の結了等,,,2015-10-05,1,,,,,タテイシソウギョウ,0
1777,7020003017248,登記記録の閉鎖等,0,2023-02-07,2023-02-02,合同会社ツースリーファイブ,,合同会社,神奈川県,川崎市宮前区,宮前平２丁目８番１０号４０４号室,,14,136,2160006,,,2023-02-02,清算の結了等,,,2020-01-21,1,,,,,ツースリーファイブ,0
1787,7030002059496,登記記録の閉鎖等,0,2023-02-07,2023-02-02,有限会社朝日屋原薬局,,有限会社,埼玉県,志木市,本町２丁目４番４３号,,11,228,3530004,,,2023-02-02,清算の結了等,,,2015-10-05,1,,,,,アサヒヤハラヤッキョク,0
1806,7070002018837,登記記録の閉鎖等,0,2023-02-07,2023-02-01,有限会社久保田光器,,有限会社,群馬県,伊勢崎市,三光町７番１０号,,10,204,3720046,,,2023-02-01,清算の結了等,,,2015-10-05,1,,,,,クボタコウキ,0
1833,7120001181721,登記記録の閉鎖等,0,2023-02-07,2023-02-02,株式会社クリオ,,株式会社,大阪府,大阪市中央区,南船場１丁目１８番１７号,,27,128,5420081,,,2023-02-02,合併による解散等,4120001079679,令和５年２月１日大阪市中央区南船場一丁目１８番１７号株式会社コンゼ（4120001079679）に合併し解散,2015-10-05,1,,,,,クリオ,0
1838,7120001214464,登記記録の閉鎖等,0,2023-02-07,2023-01-31,アクアバンク株式会社,,株式会社,大阪府,大阪市中央区,博労町４丁目６番８号,,27,128,5410059,,,2023-01-31,合併による解散等,1120001099622,令和５年１月３１日大阪市中央区博労町四丁目６番８号株式会社アクアリンク（1120001099622）に合併し解散,2018-07-09,1,,,,,アクアバンク,0
1871,7130001028962,登記記録の閉鎖等,0,2023-02-07,2023-02-03,株式会社ｌｉｂｅｒ,,株式会社,京都府,京都市東山区,清水４丁目１６８番地３,,26,105,6050862,,,2023-02-03,清算の結了等,,,2015-10-05,1,,,,,リーベル,0
1905,7220002011850,登記記録の閉鎖等,0,2023-02-07,2023-02-03,有限会社阿部建設,,有限会社,石川県,小松市,今江町２丁目３６７番地２,,17,203,9230964,,,2023-02-03,清算の結了等,,,2015-10-05,1,,,,,アベケンセツ,0
1926,7310001005803,登記記録の閉鎖等,0,2023-02-07,2023-02-03,株式会社永田實産業,,株式会社,長崎県,佐世保市,針尾中町９１番地４,,42,202,8593452,,,2023-02-03,清算の結了等,,,2015-10-05,1,,,,,ナガタミノルサンギョウ,0
1928,7330001010735,登記記録の閉鎖等,0,2023-02-07,2023-02-06,飛龍企画株式会社,,株式会社,熊本県,熊本市中央区,中央街６番３１号,,43,101,8600802,,,2023-02-06,清算の結了等,,,2015-10-05,1,,,,,ヒリュウキカク,0
1956,7470002000168,登記記録の閉鎖等,0,2023-02-07,2023-02-03,有限会社馬場瓦工業所,,有限会社,香川県,高松市,庵治町３２０番地２,,37,201,7610130,,,2023-02-03,清算の結了等,,,2015-10-05,1,,,,,ババカワラコウギョウショ,0
1983,8010005018293,登記記録の閉鎖等,0,2023-02-07,2023-02-03,特定非営利活動法人再エネ事業を支援する法律実務の会,,その他の設立登記法人,東京都,千代田区,大手町２丁目６番１号朝日生命大手町ビル７階,,13,101,1000004,,,2023-02-03,清算の結了等,,,2015-10-05,1,,,,,サイエネジギョウヲシエンスルホウリツジツムノカイ,0
1986,8010401110364,登記記録の閉鎖等,0,2023-02-07,2023-01-25,マウナゲート株式会社,,株式会社,東京都,港区,赤坂７丁目８番１号,,13,103,1070052,,,2023-01-25,清算の結了等,,,2015-10-05,1,,,,,マウナゲート,0
2001,8010902011755,登記記録の閉鎖等,0,2023-02-07,2023-02-03,ハウスアンドグリーン有限会社,,有限会社,東京都,世田谷区,宮坂２丁目６番１１号,,13,112,1560051,,,2023-02-03,清算の結了等,,,2015-10-05,1,,,,,,0
2007,8011001136510,登記記録の閉鎖等,0,2023-02-07,2023-01-30,株式会社ビッグヒットプロダクト,,株式会社,東京都,渋谷区,千駄ヶ谷５丁目３２番５号４０２,,13,113,1510051,,,2023-01-30,清算の結了等,,,2020-10-21,1,,,,,ビッグヒットプロダクト,0
2024,8011202007279,登記記録の閉鎖等,0,2023-02-07,2023-02-03,有限会社ワークテール,,有限会社,東京都,中野区,新井３丁目２８番１０号,,13,114,1650026,,,2023-02-03,清算の結了等,,,2015-10-05,1,,,,,ワークテール,0
2085,8040002003064,登記記録の閉鎖等,0,2023-02-07,2023-01-31,有限会社川上設備工業,,有限会社,千葉県,千葉市花見川区,こてはし台４丁目１７番１０号,,12,102,2620005,,,2023-01-31,清算の結了等,,,2015-10-05,1,,,,,カワカミセツビコウギョウ,0
2097,8050002033894,登記記録の閉鎖等,0,2023-02-07,2023-02-01,有限会社越前屋金物店,,有限会社,茨城県,稲敷市,江戸崎甲２６６５番地,,08,229,3000504,,,2023-02-01,清算の結了等,,,2015-10-05,1,,,,,エチゼンヤカナモノテン,0
2116,8100001021135,登記記録の閉鎖等,0,2023-02-07,2023-02-01,株式会社石川医科器械店,,株式会社,長野県,駒ヶ根市,赤穂１３８８番地３,,20,210,3994117,,,2023-02-01,清算の結了等,,,2015-10-05,1,,,,,イシカワイカキカイテン,0
2117,8100001025078,登記記録の閉鎖等,0,2023-02-07,2023-02-01,株式会社大福通商,,株式会社,長野県,埴科郡坂城町,大字南条２７８番地２サープラスピュアＩＩ－１０３号室,00069326,20,521,3890603,,,2023-02-01,清算の結了等,,,2015-10-05,1,,,,,ダイフクツウショウ,0
2118,8100002012785,登記記録の閉鎖等,0,2023-02-07,2023-02-01,有限会社依田内装,,有限会社,長野県,小諸市,己１２６番地２,,20,208,3840805,,,2023-02-01,清算の結了等,,,2015-10-05,1,,,,,ヨダナイソウ,0
2120,8100002027791,登記記録の閉鎖等,0,2023-02-07,2023-02-01,有限会社牛山精工,,有限会社,長野県,諏訪郡下諏訪町,社１１９番地,,20,361,3930000,,,2023-02-01,清算の結了等,,,2015-10-05,1,,,,,ウシヤマセイコウ,0
2125,8110005005570,登記記録の閉鎖等,0,2023-02-07,2023-02-02,協同組合三条鍛造センター共同工場,,その他の設立登記法人,新潟県,三条市,金子新田丙９６７番地２,,15,204,9550814,,,2023-02-02,清算の結了等,,,2015-10-05,1,,,,,サンジョウタンゾウセンターキョウドウコウジョウ,0
2138,8120001231459,登記記録の閉鎖等,0,2023-02-07,2023-02-03,株式会社ドゥ・プレジャー,,株式会社,大阪府,枚方市,菊丘町９番５２号,,27,210,5730091,,,2023-02-03,合併による解散等,6120002052815,令和５年２月１日大阪府豊中市名神口一丁目１番３２号株式会社エヌ・ジー・ユー（6120002052815）に合併し解散,2020-09-04,1,,,,,ドゥプレジャー,0
2150,8120902006075,登記記録の閉鎖等,0,2023-02-07,2023-02-01,有限会社ケイ商事,,有限会社,大阪府,吹田市,金田町２７番１１号,,27,205,5640045,,,2023-02-01,合併による解散等,2120901016527,令和５年２月１日大阪府吹田市金田町３０番８号株式会社建成（2120901016527）に合併し解散,2015-10-05,1,,,,,ケイショウジ,0
2160,8140001083824,登記記録の閉鎖等,0,2023-02-07,2023-01-30,共立商事株式会社,,株式会社,兵庫県,伊丹市,千僧２丁目１８８番地の６,,28,207,6640898,,,2023-01-30,清算の結了等,,,2015-10-05,1,,,,,キョウリツショウジ,0
2175,8180001029749,登記記録の閉鎖等,0,2023-02-07,2023-02-02,桑名螺子工業株式会社,,株式会社,三重県,桑名市,多度町御衣野字金ケ谷３６３９番地１,,24,205,5110118,,,2023-02-02,合併による解散等,2120001021304,令和５年２月１日大阪市平野区加美北六丁目１５番１４号ハシダ技研工業株式会社（2120001021304）に合併し解散,2015-10-05,1,,,,,クワナラシコウギョウ,0
2180,8180002026704,登記記録の閉鎖等,0,2023-02-07,2023-02-01,株式会社名晃工業,,株式会社,愛知県,名古屋市中区,大須１丁目２２番４７号,,23,106,4600011,,,2023-02-01,合併による解散等,2180001044539,令和５年２月１日名古屋市中区大須一丁目２２番４７号株式会社綜建社（2180001044539）に合併し解散,2015-10-05,1,,,,,メイコウコウギョウ,0
2217,8340002025144,登記記録の閉鎖等,0,2023-02-07,2023-02-02,鏡原製茶有限会社お茶の緑峰園,,有限会社,鹿児島県,鹿屋市,寿２丁目３番３２号,,46,203,8930014,,,2023-02-02,清算の結了等,,,2015-10-05,1,,,,,カガミハラセイチャオチャノリョクホウエン,0
2226,8380002002189,登記記録の閉鎖等,0,2023-02-07,2023-02-06,有限会社丹治不動産,,有限会社,福島県,福島市,東浜町１０番１６号エルフィリア,,07,201,9608132,,,2023-02-06,清算の結了等,,,2015-10-05,1,,,,,タンジフドウサン,0
2246,8430002039176,登記記録の閉鎖等,0,2023-02-07,2023-01-31,有限会社ケーオーエヌ,,有限会社,北海道,札幌市手稲区,稲穂二条１丁目６番２７号,,01,109,0060032,,,2023-01-31,清算の結了等,,,2015-10-05,1,,,,,ケーオーエヌ,0
2278,9010401150236,登記記録の閉鎖等,0,2023-02-07,2023-02-06,シックスセンス株式会社,,株式会社,東京都,港区,芝浦３丁目１番２１号,,13,103,1080023,,,2023-02-06,清算の結了等,,,2020-01-09,1,,,,,シックスセンス,0
2311,9011102019010,登記記録の閉鎖等,0,2023-02-07,2023-02-01,有限会社ビープ・フーズ,,有限会社,東京都,新宿区,水道町２番２号,,13,104,1620811,,,2023-02-01,清算の結了等,,,2015-10-05,1,,,,,ビープフーズ,0
2320,9011801016571,登記記録の閉鎖等,0,2023-02-07,2023-02-03,株式会社ウェルネスフロンティア,,株式会社,東京都,墨田区,江東橋４丁目２６番５号,,13,107,1300022,,,2023-02-03,合併による解散等,3470001004116,令和５年２月１日香川県高松市田村町３９７番地株式会社ヤマウチ（3470001004116）に合併し解散,2015-10-05,1,,,,,ウェルネスフロンティア,0
2322,9012402010864,登記記録の閉鎖等,0,2023-02-07,2023-02-02,有限会社クニタカ,,有限会社,東京都,調布市,若葉町３丁目１２番地３リーフレットパークＫ・Ａ３０３,,13,208,1820003,,,2023-02-02,清算の結了等,,,2015-10-05,1,,,,,クニタカ,0
2325,9013202001525,登記記録の閉鎖等,0,2023-02-07,2023-02-02,有限会社オグニ,,有限会社,東京都,世田谷区,新町１丁目８番２４号,,13,112,1540014,,,2023-02-02,清算の結了等,,,2015-10-05,1,,,,,オグニ,0
2366,9040005007937,登記記録の閉鎖等,0,2023-02-07,2023-02-03,特定非営利活動法人たすけあい虹,,その他の設立登記法人,千葉県,木更津市,清見台東１丁目１１番３号,,12,206,2920041,,,2023-02-03,清算の結了等,,,2015-10-05,1,,,,,タスケアイニジ,0
2372,9070002028727,登記記録の閉鎖等,0,2023-02-07,2023-01-27,有限会社神藤工業,,有限会社,群馬県,太田市,東矢島町１３２５番地４,,10,205,3730816,,,2023-01-27,清算の結了等,,,2015-10-05,1,,,,,カンドウコウギョウ,0
2386,9110001002389,登記記録の閉鎖等,0,2023-02-07,2023-02-03,株式会社信越,,株式会社,新潟県,新潟市中央区,親松１５５番地５,,15,103,9500952,,,2023-02-03,清算の結了等,,,2015-10-05,1,,,,,,0
2387,9110001019664,登記記録の閉鎖等,0,2023-02-07,2023-02-01,グリーンアート株式会社,,株式会社,新潟県,上越市,浦川原区印内６９６番地２,,15,222,9420338,,,2023-02-01,合併による解散等,1110001019671,令和５年２月１日新潟県上越市浦川原区虫川１６７５番地株式会社武江組（1110001019671）に合併し解散,2015-10-05,1,,,,,グリーンアート,0
2398,9120001201626,登記記録の閉鎖等,0,2023-02-07,2023-02-02,株式会社Ｏｎｅ　Ｓｈｉｎｅ,,株式会社,大阪府,大阪市西区,新町１丁目１４－２１－３００３,,27,106,5500013,,,2023-02-02,清算の結了等,,,2016-11-01,1,,,,,ワンシャイン,0
2416,9130001011108,登記記録の閉鎖等,0,2023-02-07,2023-02-03,タキモト株式会社,,株式会社,京都府,京都市南区,久世築山町３７８番地の１,,26,107,6018203,,,2023-02-03,清算の結了等,,,2015-10-05,1,,,,,タキモト,0
2432,9170002003174,登記記録の閉鎖等,0,2023-02-07,2023-02-06,有限会社美龍,,有限会社,和歌山県,和歌山市,中島３８３番地の４１,,30,201,6410006,,,2023-02-06,清算の結了等,,,2015-10-05,1,,,,,,0
2435,9180001092077,登記記録の閉鎖等,0,2023-02-07,2023-02-02,南知多開発株式会社,,株式会社,愛知県,半田市,雁宿町１丁目５６番地の１,,23,205,4750918,,,2023-02-02,清算の結了等,,,2015-10-05,1,,,,,ミナミチタカイハツ,0
2454,9190005011552,登記記録の閉鎖等,0,2023-02-07,2023-02-02,一般社団法人鳥羽の未来を守る会,,その他の設立登記法人,三重県,鳥羽市,安楽島町１０７５番地６５鳥羽シ－アイフル５－Ｃ,,24,211,5170021,,,2023-02-02,清算の結了等,,,2021-04-07,1,,,,,トバノミライヲマモルカイ,0
2467,9250002017224,登記記録の閉鎖等,0,2023-02-07,2023-02-03,有限会社うめもと化粧品店,,有限会社,山口県,光市,大字岩田２５０４番地の４７,,35,210,7430103,,,2023-02-03,清算の結了等,,,2015-10-05,1,,,,,ウメモトケショウヒンテン,0
2473,9270001003818,登記記録の閉鎖等,0,2023-02-07,2023-02-06,弥生管財株式会社,,株式会社,鳥取県,米子市,加茂町１丁目１４番地,,31,202,6830823,,,2023-02-06,清算の結了等,,,2015-10-05,1,,,,,ヤヨイカンザイ,0
2484,9290801011885,登記記録の閉鎖等,0,2023-02-07,2023-02-06,中央興産株式会社,,株式会社,福岡県,北九州市若松区,浜町１丁目１９番９号,,40,103,8080024,,,2023-02-06,清算の結了等,,,2015-10-05,1,,,,,チュウオウコウサン,0
2487,9320202000138,登記記録の閉鎖等,0,2023-02-07,2023-02-03,有限会社大分総業,,有限会社,大分県,臼杵市,大字井村２０１８番地の２,,44,206,8750083,,,2023-02-03,清算の結了等,,,2015-10-05,1,,,,,オオイタソウギョウ,0
2493,9330002021589,登記記録の閉鎖等,0,2023-02-07,2023-02-06,有限会社マルマン,,有限会社,熊本県,玉名市,横島町横島４３３４番地,,43,206,8650072,,,2023-02-06,清算の結了等,,,2015-10-05,1,,,,,マルマン,0
2503,9380002016386,登記記録の閉鎖等,0,2023-02-07,2023-02-03,玉美有限会社,,有限会社,福島県,二本松市,岳温泉１丁目１１９番地,,07,210,9640074,,,2023-02-03,清算の結了等,,,2015-10-05,1,,,,,タマミ,0
2512,9450002003955,登記記録の閉鎖等,0,2023-02-07,2023-02-06,有限会社西川米穀店,,有限会社,北海道,旭川市,緑が丘一条４丁目２番地の２,,01,204,0788301,,,2023-02-06,清算の結了等,,,2015-10-05,1,,,,,ニシカワベイコクテン,0
