sequenceNumber,corporateNumber,process,correct,updateDate,changeDate,name,nameImageId,kind,prefectureName,cityName,streetNumber,addressImageId,prefectureCode,cityCode,postCode,addressOutside,addressOutsideImageId,closeDate,closeCause,successorCorporateNumber,changeCause,assignmentDate,latest,enName,enPrefectureName,enCityName,enAddressOutside,furigana,hihyoji
17,1010401194983,新規,0,2025-12-08,2025-12-08,株式会社Ａｍ,,株式会社,東京都,港区,港南１丁目９番３６号アレア品川１３階,,13,103,1080075,,,,,,,2025-12-08,1,,,,,エイエム,0
18,1010401194991,新規,0,2025-12-08,2025-12-08,株式会社Ｇｅｎａｌｕｎｅ,,株式会社,東京都,港区,六本木３丁目１６－１２Ｋｓビル５Ｆ,,13,103,1060032,,,,,,,2025-12-08,1,,,,,ジェナルーン,0
19,1010403036770,新規,0,2025-12-08,2025-12-08,ＶＩＶＡＣＥ合同会社,,合同会社,東京都,港区,三田５丁目１３番８－３１１号,,13,103,1080073,,,,,,,2025-12-08,1,,,,,ビバーチェ,0
21,1010405025111,新規,0,2025-12-08,2025-12-08,Ｒｕｂｙ特定目的会社,,その他の設立登記法人,東京都,港区,元赤坂１丁目１番７－１２０９号株式会社赤坂国際会計内,,13,103,1070051,,,,,,,2025-12-08,1,,,,,ルビー,0
25,1010503008109,新規,0,2025-12-08,2025-12-08,瑞樹資産合同会社,,合同会社,東京都,台東区,元浅草２丁目６番４号,,13,106,1110041,,,,,,,2025-12-08,1,,,,,ミズキシサン,0
29,1010603011945,新規,0,2025-12-08,2025-12-08,合同会社Ｒｅｅｙａ,,合同会社,東京都,江東区,亀戸５丁目３８－２９,,13,108,1360071,,,,,,,2025-12-08,1,,,,,レエヤ,0
30,1010603011953,新規,0,2025-12-08,2025-12-08,合同会社陣内装リノベート,,合同会社,東京都,江東区,豊洲４丁目５番７号４０７号,,13,108,1350061,,,,,,,2025-12-08,1,,,,,ジンナイソウリノベート,0
34,1010701048716,新規,0,2025-12-08,2025-12-08,株式会社ＷＳＢ,,株式会社,東京都,品川区,北品川４丁目７番３５号御殿山トラストタワー１階,,13,109,1400001,,,,,,,2025-12-08,1,,,,,ダブルユーエスビー,0
41,1011001174021,新規,0,2025-12-08,2025-12-08,株式会社ＥＬ,,株式会社,東京都,渋谷区,神宮前３丁目１５番２１号ヒルトップ原宿,,13,113,1500001,,,,,,,2025-12-08,1,,,,,エル,0
42,1011001174269,新規,0,2025-12-08,2025-12-08,株式会社アルケー,,株式会社,東京都,渋谷区,道玄坂１丁目１０番８号渋谷道玄坂東急ビル２Ｆ－Ｃ,,13,113,1500043,,,,,,,2025-12-08,1,,,,,アルケー,0
43,1011001174277,新規,0,2025-12-08,2025-12-08,株式会社Ｗｉｒｉａ,,株式会社,東京都,渋谷区,渋谷２丁目１９番１９号ワコー宮益坂ビル５階,,13,113,1500002,,,,,,,2025-12-08,1,,,,,ウィリア,0
44,1011001174285,新規,0,2025-12-08,2025-12-08,株式会社ｏｆｆｉｃｅ　ＢＲＡＩＮ,,株式会社,東京都,渋谷区,渋谷２丁目１９番１５号宮益坂ビルディング６０９,,13,113,1500002,,,,,,,2025-12-08,1,,,,,オフィスブレイン,0
45,1011001174302,新規,0,2025-12-08,2025-12-08,株式会社ルミナスリアリティー,,株式会社,東京都,渋谷区,神宮前６丁目２３－６ＡＳＡＩビル９Ｆ,,13,113,1500001,,,,,,,2025-12-08,1,,,,,ルミナスリアリティー,0
46,1011003023060,新規,0,2025-12-08,2025-12-08,Ｇｒｏｐｅｌ合同会社,,合同会社,東京都,渋谷区,渋谷２丁目１９－１９ワコー宮益坂ビル５Ｆ,,13,113,1500002,,,,,,,2025-12-08,1,,,,,グロペル,0
47,1011003023069,新規,0,2025-12-08,2025-12-08,合同会社ｂｕｌｌｅｔ,,合同会社,東京都,渋谷区,道玄坂１丁目１０番８号渋谷道玄坂東急ビル２Ｆ－Ｃ,,13,113,1500043,,,,,,,2025-12-08,1,,,,,バレット,0
48,1011003023127,新規,0,2025-12-08,2025-12-08,Ｗａｄｅｌ合同会社,,合同会社,東京都,渋谷区,道玄坂１丁目１０番８号渋谷道玄坂東急ビル２Ｆ－Ｃ,,13,113,1500043,,,,,,,2025-12-08,1,,,,,ワデル,0
50,1011101114257,新規,0,2025-12-08,2025-12-08,株式会社Ｏｐｅｎ　Ｓｔｏｒｅ,,株式会社,東京都,新宿区,西新宿３丁目３番１３号西新宿水間ビル２階,,13,104,1600023,,,,,,,2025-12-08,1,,,,,オープンストア,0
51,1011301031104,新規,0,2025-12-08,2025-12-08,株式会社Ｌｉｎａ　ｂｅｌｌ,,株式会社,東京都,杉並区,井草１丁目２６番１１－３０１号,,13,115,1670021,,,,,,,2025-12-08,1,,,,,リーナベル,0
59,1011803007221,新規,0,2025-12-08,2025-12-08,合同会社Ｐ＆Ｒ,,合同会社,東京都,足立区,伊興３丁目２３－２９,,13,121,1210823,,,,,,,2025-12-08,1,,,,,ピーアンドアール,0
63,1012403007487,新規,0,2025-12-08,2025-12-08,合同会社ＧＲＥＥＮ　ＡＰＰＬＥ,,合同会社,東京都,武蔵野市,吉祥寺南町２丁目１０－１６ユニアスコスモエイト４０２,,13,203,1800003,,,,,,,2025-12-08,1,,,,,グリーンアップル,0
65,1012701019218,新規,0,2025-12-08,2025-12-08,株式会社マフティスタイル,,株式会社,東京都,清瀬市,中里５丁目１０５５番地フローラルガーデン２０３号,,13,221,2040003,,,,,,,2025-12-08,1,,,,,マフティスタイル,0
66,1012801024407,新規,0,2025-12-08,2025-12-08,株式会社未来・わくわくラボ,,株式会社,東京都,国立市,富士見台１丁目３５番地の８,,13,215,1860003,,,,,,,2025-12-08,1,,,,,ミライワクワクラボ,0
75,1020001166127,新規,0,2025-12-08,2025-12-08,鏡商会株式会社,,株式会社,神奈川県,横浜市泉区,下飯田町６８３－４,,14,116,2450017,,,,,,,2025-12-08,1,,,,,カガミショウカイ,0
76,1020001166135,新規,0,2025-12-08,2025-12-08,株式会社シェイド,,株式会社,神奈川県,横浜市都筑区,勝田町８６０番地,,14,118,2240034,,,,,,,2025-12-08,1,,,,,シェイド,0
77,1020001166218,新規,0,2025-12-08,2025-12-08,ＲＣファーマ株式会社,,株式会社,神奈川県,横浜市都筑区,茅ケ崎南３丁目１３番１号,,14,118,2240037,,,,,,,2025-12-08,1,,,,,アールシーファーマ,0
81,1020003029876,新規,0,2025-12-08,2025-12-08,合同会社ｉｎａｒｅ,,合同会社,神奈川県,川崎市麻生区,上麻生５丁目１５番７－６１３号,,14,137,2150021,,,,,,,2025-12-08,1,,,,,イナリ,0
90,1030001170020,新規,0,2025-12-08,2025-12-08,株式会社人ｅ・ヘルスサポート,,株式会社,埼玉県,越谷市,谷中町２丁目３８１番地７,,11,222,3430856,,,,,,,2025-12-08,1,,,,,ヒトイーヘルスサポート,0
93,1030003028217,新規,0,2025-12-08,2025-12-08,ＫＳＰ合同会社,,合同会社,埼玉県,比企郡鳩山町,大字今宿５２７番地７,,11,348,3500322,,,,,,,2025-12-08,1,,,,,ケーエスピー,0
112,1070003006210,新規,0,2025-12-08,2025-12-08,合同会社チームＪＯＫ,,合同会社,群馬県,高崎市,沖町４８６番地１５３,,10,202,3700086,,,,,,,2025-12-08,1,,,,,チームジェーオーケー,0
115,1080101025945,新規,0,2025-12-08,2025-12-08,株式会社パーシモン・タカダ,,株式会社,静岡県,三島市,幸原町１丁目６番６号,,22,206,4110031,,,,,,,2025-12-08,1,,,,,パーシモンタカダ,0
116,1080105006553,新規,0,2025-12-08,2025-12-08,一般社団法人やさしい風プロジェクト,,その他の設立登記法人,静岡県,沼津市,原１７６６番地の２,,22,203,4100312,,,,,,,2025-12-08,1,,,,,ヤサシイカゼプロジェクト,0
119,1090003002942,新規,0,2025-12-08,2025-12-08,Ａ‐ＳＰＩＲＩＴ合同会社,,合同会社,山梨県,富士吉田市,上暮地４丁目６－２,,19,202,4030001,,,,,,,2025-12-08,1,,,,,エースピリット,0
120,1100001039175,新規,0,2025-12-08,2025-12-08,株式会社信州圧送,,株式会社,長野県,松本市,大字岡田伊深８６８番地１,,20,202,3900314,,,,,,,2025-12-08,1,,,,,シンシュウアッソウ,0
124,1110001039769,新規,0,2025-12-08,2025-12-08,株式会社中央塗装,,株式会社,新潟県,上越市,三和区柳林５６３番地,,15,222,9420272,,,,,,,2025-12-08,1,,,,,チュウオウトソウ,0
126,1110005017300,新規,0,2025-12-08,2025-12-08,農事組合法人ファームＭＡＧＩＺＯＮＥ,,その他の設立登記法人,新潟県,新潟市南区,味方１５０番地,,15,106,9501261,,,,,,,2025-12-08,1,,,,,ファームマギゾネ,0
135,1120001282525,新規,0,2025-12-08,2025-12-08,株式会社Ｍｏｏｇｏｎｅ,,株式会社,大阪府,大阪市中央区,東心斎橋１丁目７番２３号Ｔ’ｚビル３階,,27,128,5420083,,,,,,,2025-12-08,1,,,,,ムーグワン,0
136,1120001282533,新規,0,2025-12-08,2025-12-08,ＣＨＥＣＨＥＬＩＮＥ株式会社,,株式会社,大阪府,大阪市淀川区,宮原４丁目１番４６－４０１号,,27,123,5320003,,,,,,,2025-12-08,1,,,,,チェチェライン,0
137,1120001282558,新規,0,2025-12-08,2025-12-08,株式会社ミラージュ,,株式会社,大阪府,大阪市中央区,高津３丁目１４番３２－１０５号,,27,128,5420072,,,,,,,2025-12-08,1,,,,,ミラージュ,0
138,1120001282582,新規,0,2025-12-08,2025-12-08,大工職人ファースト株式会社,,株式会社,大阪府,大阪市住之江区,新北島７丁目１番５５号,,27,125,5590024,,,,,,,2025-12-08,1,,,,,ダイクショクニンファースト,0
140,1120003031392,新規,0,2025-12-08,2025-12-08,合同会社照島音響,,合同会社,大阪府,大阪市淀川区,十八条１丁目１３番１６号,,27,123,5320001,,,,,,,2025-12-08,1,,,,,テルシマオンキョウ,0
141,1120003031442,新規,0,2025-12-08,2025-12-08,Ｌｅｚａｌｉｓ合同会社,,合同会社,大阪府,大阪市天王寺区,烏ケ辻２丁目１０番４－１３０６号,,27,109,5430042,,,,,,,2025-12-08,1,,,,,レザリス,0
142,1120101072842,新規,0,2025-12-08,2025-12-08,株式会社三番叟,,株式会社,大阪府,高石市,羽衣２丁目２－４８,,27,225,5920002,,,,,,,2025-12-08,1,,,,,サンバソウ,0
143,1120101072909,新規,0,2025-12-08,2025-12-08,株式会社おすすめ,,株式会社,大阪府,貝塚市,石才５３７番地１,,27,208,5970082,,,,,,,2025-12-08,1,,,,,オススメ,0
144,1120101072925,新規,0,2025-12-08,2025-12-08,株式会社ハヤシホールディングス,,株式会社,大阪府,堺市東区,日置荘田中町３５２番地２,,27,143,5998113,,,,,,,2025-12-08,1,,,,,ハヤシホールディングス,0
153,1130003010940,新規,0,2025-12-08,2025-12-08,合同会社トラベルパートナーズ,,合同会社,京都府,京都市北区,紫竹西野山町４８－４カレッジアンハウス玄塚３１１,00141782,26,101,6038443,,,,,,,2025-12-08,1,,,,,トラベルパートナーズ,0
154,1130003010949,新規,0,2025-12-08,2025-12-08,国際流通販売合同会社,,合同会社,京都府,京都市北区,衣笠開キ町８１－１２ビラ衣笠ルーム１０２,,26,101,6038452,,,,,,,2025-12-08,1,,,,,コクサイリュウツウハンバイ,0
162,1140001140978,新規,0,2025-12-08,2025-12-08,株式会社ＬＯＶＥＬ,,株式会社,兵庫県,宝塚市,小林４丁目７番７－４０３号,,28,214,6650034,,,,,,,2025-12-08,1,,,,,ラブエル,0
165,1140003022910,新規,0,2025-12-08,2025-12-08,合同会社トラストリンクイノベーティブマネジメント,,合同会社,兵庫県,姫路市,下寺町５４番地２,,28,201,6700932,,,,,,,2025-12-08,1,,,,,トラストリンクイノベーティブマネジメント,0
166,1140003022943,新規,0,2025-12-08,2025-12-08,合同会社てぃーだリンク,,合同会社,兵庫県,高砂市,荒井町小松原１丁目１６番５号,,28,216,6760011,,,,,,,2025-12-08,1,,,,,ティーダリンク,0
177,1180001169790,新規,0,2025-12-08,2025-12-08,ソラミル株式会社,,株式会社,愛知県,名古屋市千種区,今池５丁目２２－１６ＯＳＵＫＡビル４Ｆ,,23,101,4640850,,,,,,,2025-12-08,1,,,,,ソラミル,0
178,1180001169799,新規,0,2025-12-08,2025-12-08,株式会社エッセーヴ,,株式会社,愛知県,名古屋市天白区,野並１丁目１５５番地の１,,23,116,4680045,,,,,,,2025-12-08,1,,,,,エッセーヴ,0
185,1190003005290,新規,0,2025-12-08,2025-12-08,ワンライフサポート合同会社,,合同会社,三重県,桑名市,大字下深谷部４６９１番地１,,24,205,5110808,,,,,,,2025-12-08,1,,,,,ワンライフサポート,0
186,1190005012095,新規,0,2025-12-08,2025-12-08,一般社団法人ＩＮＴＥＲＮＡＴＩＯＮＡＬ　ＣＨＲＩＳＴ　ＣＥＮＴＥＲＥＤ　ＦＥＬＬＯＷＳＨＩＰ　ＭＩＮＩＳＴＲＩＥＳ，ＩＮＣ．ＭＩＥ　ＯＦＦＩＣＥ,,その他の設立登記法人,三重県,津市,港町１４番３１号,,24,201,5140014,,,,,,,2025-12-08,1,,,,,インターナショナルクライストセンタードフェローシップミニストリーズインクミエオフィス,0
189,1200001044479,新規,0,2025-12-08,2025-12-08,株式会社オーシマ,,株式会社,岐阜県,土岐市,駄知町４９８番地の３,,21,212,5095401,,,,,,,2025-12-08,1,,,,,オーシマ,0
190,1200003007161,新規,0,2025-12-08,2025-12-08,合同会社このは,,合同会社,岐阜県,岐阜市,大洞緑山２丁目６番７号,,21,201,5013125,,,,,,,2025-12-08,1,,,,,コノハ,0
196,1240001065868,新規,0,2025-12-08,2025-12-08,Ｆｏｒｅｓｔ　Ｈｉｌｌｓ株式会社,,株式会社,広島県,福山市,春日町浦上１７５０番地５,,34,207,7210902,,,,,,,2025-12-08,1,,,,,フォレストヒルズ,0
197,1240001065884,新規,0,2025-12-08,2025-12-08,株式会社フィオーレ,,株式会社,広島県,広島市南区,東青崎町７番１２号,,34,103,7340051,,,,,,,2025-12-08,1,,,,,フィオーレ,0
212,1290001112368,新規,0,2025-12-08,2025-12-08,株式会社Ａｖｉｅ,,株式会社,福岡県,福岡市中央区,天神２丁目２番１２号Ｔ＆Ｊビルディング７Ｆ,,40,133,8100001,,,,,,,2025-12-08,1,,,,,アヴィ,0
213,1290001112384,新規,0,2025-12-08,2025-12-08,株式会社ＩＺＺＹ,,株式会社,福岡県,久留米市,城南町１２－４０ダイヤモンドビル２０１,,40,203,8300022,,,,,,,2025-12-08,1,,,,,イジ,0
214,1290001112426,新規,0,2025-12-08,2025-12-08,株式会社ＳＯＬＵＮＡＨ,,株式会社,福岡県,福岡市東区,和白１丁目３番２２－３１０号,,40,131,8110202,,,,,,,2025-12-08,1,,,,,ソルーナ,0
221,1290801032071,新規,0,2025-12-08,2025-12-08,ＲＡＮＲＡＮＦＡＲＭ株式会社,,株式会社,福岡県,築上郡上毛町,大字吉岡６０９番地１９,,40,646,8710912,,,,,,,2025-12-08,1,,,,,ランランファーム,0
222,1290803005216,新規,0,2025-12-08,2025-12-08,合同会社ナガノ,,合同会社,福岡県,築上郡築上町,大字下深野３番地２,,40,647,8290116,,,,,,,2025-12-08,1,,,,,ナガノ,0
225,1320001021482,新規,0,2025-12-08,2025-12-08,株式会社サンサン企画,,株式会社,大分県,大分市,大字千歳２１６０番地の１８,,44,201,8700132,,,,,,,2025-12-08,1,,,,,サンサンキカク,0
228,1320003004849,新規,0,2025-12-08,2025-12-08,Ｂｋｕｎｎｐｕ合同会社,,合同会社,大分県,大分市,大字本神崎２７９－２６,,44,201,8792111,,,,,,,2025-12-08,1,,,,,ビークンプー,0
231,1320005010275,新規,0,2025-12-08,2025-12-08,医療法人ｅｎ,,その他の設立登記法人,大分県,大分市,大字猪野１０７６番地,,44,201,8700134,,,,,,,2025-12-08,1,,,,,エン,0
235,1330003011332,新規,0,2025-12-08,2025-12-08,合同会社森永商会,,合同会社,熊本県,阿蘇郡南阿蘇村,大字下野３４番地グリタハウスＢ２０１号,,43,433,8691402,,,,,,,2025-12-08,1,,,,,モリナガショウカイ,0
236,1330005010968,新規,0,2025-12-08,2025-12-08,一般社団法人ちいきのコト,,その他の設立登記法人,熊本県,菊池市,隈府２４０,,43,210,8611331,,,,,,,2025-12-08,1,,,,,チイキノコト,0
241,1360001036097,新規,0,2025-12-08,2025-12-08,株式会社伊波建設,,株式会社,沖縄県,豊見城市,字高安８０３番地９３,,47,212,9010242,,,,,,,2025-12-08,1,,,,,イハケンセツ,0
246,1360003015454,新規,0,2025-12-08,2025-12-08,合同会社ＣＨＵＲＡ　ＡＹＵＳ,,合同会社,沖縄県,宜野湾市,大謝名４丁目１３番２７号,,47,205,9012225,,,,,,,2025-12-08,1,,,,,チュラアーユス,0
250,1370003007392,新規,0,2025-12-08,2025-12-08,合同会社じえもん,,合同会社,宮城県,仙台市太白区,八木山南３丁目１５番地の９,,04,104,9820807,,,,,,,2025-12-08,1,,,,,ジエモン,0
259,1410001014337,新規,0,2025-12-08,2025-12-08,株式会社ＦＵＪＩＹＡ　ＪＡＰＡＮ,,株式会社,秋田県,大仙市,若竹町２３－１９ヴィラ若竹Ｒ－８８,,05,212,0140016,,,,,,,2025-12-08,1,,,,,フジヤジャパン,0
260,1420001019327,新規,0,2025-12-08,2025-12-08,株式会社Ｋｕｄｏ　Ｔｒａｄｉｎｇ,,株式会社,青森県,南津軽郡大鰐町,大字虹貝字中熊沢７５番地４,,02,362,0380221,,,,,,,2025-12-08,1,,,,,クドウトレーディング,0
265,1430003018409,新規,0,2025-12-08,2025-12-08,合同会社矢野農園,,合同会社,北海道,樺戸郡浦臼町,字晩生内２２７番地の１０６,,01,431,0610600,,,,,,,2025-12-08,1,,,,,ヤノノウエン,0
272,1460101007789,新規,0,2025-12-08,2025-12-08,株式会社十勝さらべつ共創カンパニー,,株式会社,北海道,河西郡更別村,字更別南二線９６番地１４,,01,639,0891542,,,,,,,2025-12-08,1,,,,,トカチサラベツキョウソウカンパニー,0
276,1490001011228,新規,0,2025-12-08,2025-12-08,トマグ株式会社,,株式会社,高知県,高知市,介良甲９８４番地１,,39,201,7815105,,,,,,,2025-12-08,1,,,,,トマグ,0
279,1700150133239,新規,0,2025-12-08,2025-12-08,ＡＳＩＡＮ　ＴＲＡＤＥＲＳ,,外国会社等,千葉県,富里市,十倉２３１５番地１,,12,233,2860212,スリランカ民主社会主義共和国キャンディ市アクラナ・クルゴダ１２４／Ｄ,,,,,,2025-12-08,1,,,,,アジアントレーダーズ,0
289,2010001260887,新規,0,2025-12-08,2025-12-08,ＢＲＩＤＧＥ　Ｉｎｄｉａ株式会社,,株式会社,東京都,中央区,日本橋小網町１７番１０号,,13,102,1030016,,,,,,,2025-12-08,1,,,,,ブリッジインディア,0
291,2010003049635,新規,0,2025-12-08,2025-12-08,ＲＥＬＡインベストメント１号合同会社,,合同会社,東京都,中央区,日本橋１丁目４番１号,,13,102,1030027,,,,,,,2025-12-08,1,,,,,リラインベストメントイチゴウ,0
293,2010005041029,新規,0,2025-12-08,2025-12-08,一般社団法人日本国際創薬エコシステム協会,,その他の設立登記法人,東京都,千代田区,丸の内３丁目３番１号新東京ビル８Ｆ,,13,101,1000005,,,,,,,2025-12-08,1,,,,,ニホンコクサイソウヤクエコシステム,0
304,2010401194867,新規,0,2025-12-08,2025-12-08,株式会社ＪＭＧ,,株式会社,東京都,港区,南青山１丁目１番１号新青山ビル東館１９階,,13,103,1070062,,,,,,,2025-12-08,1,,,,,ジェイエムジー,0
305,2010401194883,新規,0,2025-12-08,2025-12-08,六本木キャピタル株式会社,,株式会社,東京都,港区,六本木７丁目１２番１５号ＶＯＲＴ六本木ＩＩ４０１,00141772,13,103,1060032,,,,,,,2025-12-08,1,,,,,ロッポンギキャピタル,0
306,2010401195015,新規,0,2025-12-08,2025-12-08,株式会社ファンクラブテクノロジーズ,,株式会社,東京都,港区,六本木３丁目１６番１２号六本木ＫＳビル５Ｆ,,13,103,1060032,,,,,,,2025-12-08,1,,,,,ファンクラブテクノロジーズ,0
307,2010401195031,新規,0,2025-12-08,2025-12-08,ＫＩＳＨＩＮ　ＳＨＩＮＯＹＡＭＡ　ＬＥＧＡＣＹ株式会社,,株式会社,東京都,港区,赤坂９丁目６番１７号,,13,103,1070052,,,,,,,2025-12-08,1,,,,,キシンシノヤマレガシー,0
310,2010405025011,新規,0,2025-12-08,2025-12-08,Ｂ・ＧＡＲＤＥＮ税理士法人,,その他の設立登記法人,東京都,港区,新橋２丁目１６番１号ニュー新橋ビル６１５－２,,13,103,1050004,,,,,,,2025-12-08,1,,,,,ビーガーデン,0
312,2010501055135,新規,0,2025-12-08,2025-12-08,株式会社タッチアップ,,株式会社,東京都,台東区,浅草５丁目５１番３号,,13,106,1110032,,,,,,,2025-12-08,1,,,,,タッチアップ,0
316,2010601068375,新規,0,2025-12-08,2025-12-08,株式会社Ｓａｎｋｉ　Ｎｅｘｔ　Ｒｅｐａｉｒ,,株式会社,東京都,江東区,亀戸２丁目２６番１０号,,13,108,1360071,,,,,,,2025-12-08,1,,,,,サンキネクストリペア,0
321,2010701048715,新規,0,2025-12-08,2025-12-08,株式会社ミラポス,,株式会社,東京都,品川区,西大井１丁目１番２－２０３号Ｊタワー西大井イーストタワー２階,,13,109,1400015,,,,,,,2025-12-08,1,,,,,ミラポス,0
328,2011001173798,新規,0,2025-12-08,2025-12-08,株式会社Ｇｒｏｗｔｈ＆Ｃｏ．,,株式会社,東京都,渋谷区,道玄坂１丁目１０番８号渋谷道玄坂東急ビル２Ｆ－Ｃ,,13,113,1500043,,,,,,,2025-12-08,1,,,,,グロースアンドコー,0
329,2011001174037,新規,0,2025-12-08,2025-12-08,株式会社リラボ,,株式会社,東京都,渋谷区,神宮前６丁目１９番１３号Ｊ－６ビル５階,,13,113,1500001,,,,,,,2025-12-08,1,,,,,リラボ,0
330,2011001174152,新規,0,2025-12-08,2025-12-08,株式会社ＣＨｉＰ　ＣｉＴＹ　ＪＡＰＡＮ,,株式会社,東京都,渋谷区,神宮前４丁目１８番１５号,,13,113,1500001,,,,,,,2025-12-08,1,,,,,チップシティジャパン,0
331,2011001174268,新規,0,2025-12-08,2025-12-08,株式会社ハートラブプレジャー,,株式会社,東京都,渋谷区,恵比寿１丁目８番３号,,13,113,1500013,,,,,,,2025-12-08,1,,,,,ハートラブプレジャー,0
333,2011003023126,新規,0,2025-12-08,2025-12-08,合同会社ＬＡＥＴＵＳ,,合同会社,東京都,渋谷区,円山町５番５号Ｎａｖｉ渋谷Ｖ３階,,13,113,1500044,,,,,,,2025-12-08,1,,,,,ラエトゥス,0
335,2011005011277,新規,0,2025-12-08,2025-12-08,特定非営利活動法人ＡＩ福祉ラボ,,その他の設立登記法人,東京都,渋谷区,神南１丁目１１－４ＦＰＧリンクス神南５Ｆ,,13,113,1500041,,,,,,,2025-12-08,1,,,,,エーアイフクシラボ,0
340,2011101114074,新規,0,2025-12-08,2025-12-08,ＡＯＮＯＶＡ株式会社,,株式会社,東京都,新宿区,北新宿１丁目１３－１９弘林ビル７階,,13,104,1690074,,,,,,,2025-12-08,1,,,,,アオノバ,0
345,2011301031111,新規,0,2025-12-08,2025-12-08,株式会社Ａｄｕｃｔｉｏｎ,,株式会社,東京都,杉並区,高円寺南１丁目４番４１号ＬＵＸＥＮＡ東高円寺４０２,,13,115,1660003,,,,,,,2025-12-08,1,,,,,エダクション,0
347,2011501032891,新規,0,2025-12-08,2025-12-08,ＡＫＡＴＳＵＫＩ株式会社,,株式会社,東京都,北区,上中里２丁目７番１０－３０１号エムワイコーポ,,13,117,1140016,,,,,,,2025-12-08,1,,,,,アカツキ,0
348,2011603004946,新規,0,2025-12-08,2025-12-08,ミレコンサルティング合同会社,,合同会社,東京都,練馬区,南大泉３丁目２４番１３号,,13,120,1780064,,,,,,,2025-12-08,1,,,,,ミレコンサルティング,0
352,2011801047152,新規,0,2025-12-08,2025-12-08,弁屋白米株式会社,,株式会社,東京都,足立区,足立２丁目４７－２吉田ビル１階,,13,121,1200015,,,,,,,2025-12-08,1,,,,,ベンヤハクマイ,0
353,2012301014618,新規,0,2025-12-08,2025-12-08,株式会社ａｎ　ｋｅｔ,,株式会社,東京都,町田市,南成瀬２丁目１３番地３３,,13,209,1940045,,,,,,,2025-12-08,1,,,,,アンケット,0
354,2012305002156,新規,0,2025-12-08,2025-12-08,特定非営利活動法人まなクロ,,その他の設立登記法人,東京都,町田市,中町３丁目１０番６号,,13,209,1940021,,,,,,,2025-12-08,1,,,,,マナクロ,0
366,2020001166126,新規,0,2025-12-08,2025-12-08,ｐｉｎｏ株式会社,,株式会社,神奈川県,横浜市瀬谷区,三ツ境５番１－１０３,,14,114,2460022,,,,,,,2025-12-08,1,,,,,ピノ,0
367,2020001166134,新規,0,2025-12-08,2025-12-08,株式会社スタジオｉ３,,株式会社,神奈川県,横浜市磯子区,磯子台１６番１２号,,14,107,2350019,,,,,,,2025-12-08,1,,,,,スタジオアイスリー,0
375,2020005017077,新規,0,2025-12-08,2025-12-08,医療法人社団こまめ,,その他の設立登記法人,神奈川県,横浜市緑区,長津田みなみ台５丁目２５番地８,,14,113,2260018,,,,,,,2025-12-08,1,,,,,コマメ,0
383,2030001169821,新規,0,2025-12-08,2025-12-08,株式会社ＯＧＡＴＡ　ＣＯＭＰＡＮＹ,,株式会社,埼玉県,鴻巣市,宮地５丁目４－４－１０２コーポライラック,,11,217,3650075,,,,,,,2025-12-08,1,,,,,オガタカンパニー,0
386,2030003028199,新規,0,2025-12-08,2025-12-08,合同会社ルミナス東京,,合同会社,埼玉県,ふじみ野市,上福岡１丁目１０番３３号,,11,245,3560004,,,,,,,2025-12-08,1,,,,,ルミナストウキョウ,0
394,2040001141639,新規,0,2025-12-08,2025-12-08,株式会社オーブルネスト,,株式会社,千葉県,松戸市,稔台１丁目１１番地の２８－１０２号,,12,207,2702231,,,,,,,2025-12-08,1,,,,,オーブルネスト,0
395,2040001141713,新規,0,2025-12-08,2025-12-08,株式会社オープンテックソリューションズ,,株式会社,千葉県,柏市,豊四季９７２－１１松崎ハイツ１０５,,12,217,2770863,,,,,,,2025-12-08,1,,,,,オープンテックソリューションズ,0
400,2040003029114,新規,0,2025-12-08,2025-12-08,合同会社ＢＡＮ‐ＢＡ,,合同会社,千葉県,松戸市,上本郷２６８５－１グリーンエステート１０６,,12,207,2710064,,,,,,,2025-12-08,1,,,,,バンバ,0
403,2050003009791,新規,0,2025-12-08,2025-12-08,合同会社Ｋｉｒａｎａｈ,,合同会社,茨城県,つくば市,みどりの２丁目２－５９,,08,220,3050881,,,,,,,2025-12-08,1,,,,,キラナ,0
405,2060001038817,新規,0,2025-12-08,2025-12-08,リョクキン・バイオテクノロジー株式会社,,株式会社,栃木県,宇都宮市,屋板町６９８番地６,,09,201,3210112,,,,,,,2025-12-08,1,,,,,リョクキンバイオテクノロジー,0
411,2070001043626,新規,0,2025-12-08,2025-12-08,株式会社よしむら,,株式会社,群馬県,藤岡市,藤岡１５５９番地１,,10,209,3750024,,,,,,,2025-12-08,1,,,,,,0
417,2100003008508,新規,0,2025-12-08,2025-12-08,Ｔｈｅ　Ｐａｄ合同会社,,合同会社,長野県,北安曇郡小谷村,大字千国乙１２８４０番地１、ＴｈｅＰｈａｔＰａｃｋｅｒｓ,,20,486,3999422,,,,,,,2025-12-08,1,,,,,ザパッド,0
418,2110001039768,新規,0,2025-12-08,2025-12-08,株式会社レリオン,,株式会社,新潟県,新潟市西区,小新大通２丁目４番１７号,,15,107,9502027,,,,,,,2025-12-08,1,,,,,レリオン,0
429,2120001282482,新規,0,2025-12-08,2025-12-08,株式会社石堂エンジニアリング,,株式会社,大阪府,大阪市天王寺区,上本町６丁目３番３１－１００１号,,27,109,5430001,,,,,,,2025-12-08,1,,,,,イシドウエンジニアリング,0
430,2120001282516,新規,0,2025-12-08,2025-12-08,株式会社エルセチア,,株式会社,大阪府,大阪市北区,梅田１丁目１番３号大阪駅前第３ビル２５階,,27,127,5300001,,,,,,,2025-12-08,1,,,,,エルセチア,0
431,2120001282565,新規,0,2025-12-08,2025-12-08,株式会社ＲＥＶＥＲＥＮＴ　ＦＩＲＳＴ,,株式会社,大阪府,大阪市北区,堂山町１番５号三共梅田ビル７Ｆ,,27,127,5300027,,,,,,,2025-12-08,1,,,,,レヴァレントファースト,0
434,2120003031359,新規,0,2025-12-08,2025-12-08,もっくんＤｅキッチン合同会社,,合同会社,大阪府,大阪市東住吉区,駒川４丁目１３番４号,,27,121,5460043,,,,,,,2025-12-08,1,,,,,モックンデキッチン,0
435,2120101072908,新規,0,2025-12-08,2025-12-08,株式会社ＯＺＡＫＩ,,株式会社,大阪府,堺市南区,御池台４丁２４番９２号,,27,145,5900134,,,,,,,2025-12-08,1,,,,,オザキ,0
436,2120101072924,新規,0,2025-12-08,2025-12-08,株式会社ＣｌａｒｉｏｎＭｅｄ,,株式会社,大阪府,富田林市,藤沢台３丁目３番１５号,,27,214,5840071,,,,,,,2025-12-08,1,,,,,クラリオンメッド,0
437,2120101072932,新規,0,2025-12-08,2025-12-08,株式会社ＴＫホールディングス,,株式会社,大阪府,堺市堺区,市之町東１丁１番１０号,,27,141,5900952,,,,,,,2025-12-08,1,,,,,ティーケーホールディングス,0
444,2122003003412,新規,0,2025-12-08,2025-12-08,合同会社月影,,合同会社,大阪府,八尾市,松山町２丁目１－５,,27,212,5810088,,,,,,,2025-12-08,1,,,,,ツキカゲ,0
446,2130001081173,新規,0,2025-12-08,2025-12-08,ＯｎｅＫｉｔｃｈｅｎ株式会社,,株式会社,京都府,京都市右京区,嵯峨新宮町１５番地７,,26,108,6168355,,,,,,,2025-12-08,1,,,,,ワンキッチン,0
447,2130003010989,新規,0,2025-12-08,2025-12-08,合同会社すたーとらいん,,合同会社,京都府,京都市右京区,太秦百合ケ本町８－２３１,,26,108,6168144,,,,,,,2025-12-08,1,,,,,スタートライン,0
452,2140001140969,新規,0,2025-12-08,2025-12-08,新屋石油株式会社,,株式会社,兵庫県,南あわじ市,湊１３４９番地,,28,224,6560332,,,,,,,2025-12-08,1,,,,,シンヤセキユ,0
467,2180001169831,新規,0,2025-12-08,2025-12-08,株式会社ＩＡＫ,,株式会社,愛知県,弥富市,鯏浦町南前新田６０番地,,23,235,4980027,,,,,,,2025-12-08,1,,,,,アイエーケー,0
469,2180003029430,新規,0,2025-12-08,2025-12-08,中部蓄電所１号合同会社,,合同会社,愛知県,名古屋市西区,那古野２丁目１６番７号,00141796,23,104,4510042,,,,,,,2025-12-08,1,,,,,チュウブチクデンショイチゴウ,0
479,2200005013826,新規,0,2025-12-08,2025-12-08,医療法人光友会,,その他の設立登記法人,岐阜県,美濃加茂市,本郷町９丁目１８番２６号,,21,211,5050027,,,,,,,2025-12-08,1,,,,,コウユウカイ,0
483,2230001021202,新規,0,2025-12-08,2025-12-08,株式会社ｋｏｍｏｒｅｂｉ,,株式会社,富山県,富山市,中川原１６０番地１１,,16,201,9398015,,,,,,,2025-12-08,1,,,,,コモレビ,0
492,2250003003857,新規,0,2025-12-08,2025-12-08,合同会社Ｄｉａｎｅ,,合同会社,山口県,宇部市,大字東須恵２９４９－５テンダーハウスキクヤ１０２,,35,202,7590206,,,,,,,2025-12-08,1,,,,,ダイアン,0
498,2270001009342,新規,0,2025-12-08,2025-12-08,株式会社Ｎｅｘｔ　ｉｎｎｏｖａｔｉｏｎ,,株式会社,鳥取県,米子市,吉岡１９０番地１,,31,202,6893545,,,,,,,2025-12-08,1,,,,,ネクストイノベーション,0
513,2290001112359,新規,0,2025-12-08,2025-12-08,株式会社ＫＲ２,,株式会社,福岡県,宗像市,冨地原３９７番地１,,40,220,8114154,,,,,,,2025-12-08,1,,,,,ケーアールツー,0
514,2290001112400,新規,0,2025-12-08,2025-12-08,株式会社日昇商事,,株式会社,福岡県,福岡市中央区,渡辺通５丁目２４番３０号－５０５号室東カン福岡第一ビル,,40,133,8100004,,,,,,,2025-12-08,1,,,,,ニッショウショウジ,0
515,2290001112409,新規,0,2025-12-08,2025-12-08,株式会社Ｇｙｍ　Ｒｉｎｇ,,株式会社,福岡県,福岡市博多区,竹丘町２丁目１－１１パルム雑餉１０１,,40,132,8120878,,,,,,,2025-12-08,1,,,,,ジムリング,0
519,2290003017795,新規,0,2025-12-08,2025-12-08,合同会社ｙａｙａｍａｒｕ,,合同会社,福岡県,朝倉市,持丸４２５番地９,,40,228,8380015,,,,,,,2025-12-08,1,,,,,ヤヤマル,0
522,2290801032070,新規,0,2025-12-08,2025-12-08,株式会社スマートセレクト,,株式会社,福岡県,北九州市八幡西区,引野３丁目１２番１２－６０１号,,40,109,8060067,,,,,,,2025-12-08,1,,,,,スマートセレクト,0
523,2290801032087,新規,0,2025-12-08,2025-12-08,株式会社ＣＡＳＵＡＬ　ＲＥＦＯＲＭ,,株式会社,福岡県,北九州市小倉北区,浅野３丁目８番１号ＡＩＭビル６階,,40,106,8020001,,,,,,,2025-12-08,1,,,,,カジュアルリフォーム,0
526,2290803005215,新規,0,2025-12-08,2025-12-08,合同会社シンエイ,,合同会社,福岡県,遠賀郡遠賀町,大字木守１５０１－６,,40,384,8114313,,,,,,,2025-12-08,1,,,,,シンエイ,0
544,2370001053289,新規,0,2025-12-08,2025-12-08,株式会社ＮＯＡ建設,,株式会社,宮城県,仙台市青葉区,西勝山４１－５,,04,101,9810953,,,,,,,2025-12-08,1,,,,,ノアケンセツ,0
549,2380003006203,新規,0,2025-12-08,2025-12-08,合同会社ＦＩＮＥＣＵＬ,,合同会社,福島県,郡山市,御前南４丁目５３番地の１,,07,203,9630209,,,,,,,2025-12-08,1,,,,,ファインカル,0
552,2410001014336,新規,0,2025-12-08,2025-12-08,株式会社最上製作所,,株式会社,秋田県,雄勝郡羽後町,貝沢字拾三本塚６５番地６,,05,463,0121123,,,,,,,2025-12-08,1,,,,,モガミセイサクショ,0
553,2430001095787,新規,0,2025-12-08,2025-12-08,株式会社ＴＥＲＩＡ,,株式会社,北海道,札幌市中央区,南四条西２丁目１０－１,,01,101,0640804,,,,,,,2025-12-08,1,,,,,テリア,0
558,2490001011227,新規,0,2025-12-08,2025-12-08,辰巳組株式会社,,株式会社,高知県,四万十市,西土佐用井６３８番地１,,39,210,7871603,,,,,,,2025-12-08,1,,,,,タツミグミ,0
559,2700150133238,新規,0,2025-12-08,2025-12-08,ＳＩＲＡＪ　ＡＵＴＯ　ＴＲＡＤＩＮＧ　ＰＶＴ　ＬＴＤ,,外国会社等,千葉県,山武市,早船８６８番地１,,12,237,2891311,スリランカ民主社会主義共和国キャンディ、カトゥガストタ、ウグレッサピティヤ、ウガッラ８８番地,,,,,,2025-12-08,1,,,,,シラジユオートトレーデイングプライベートリミテツド,0
568,3010001260886,新規,0,2025-12-08,2025-12-08,株式会社吉野家準備会社,00141776,株式会社,東京都,中央区,日本橋箱崎町３６番２号,,13,102,1030015,,,,,,,2025-12-08,1,,,,,ヨシノヤジュンビガイシャ,0
572,3010005041028,新規,0,2025-12-08,2025-12-08,一般社団法人日本デジタル分散型金融協会,,その他の設立登記法人,東京都,千代田区,内幸町２丁目２番１号日本プレスセンタービル４階,,13,101,1000011,,,,,,,2025-12-08,1,,,,,ニホンデジタルブンサンガタキンユウキョウカイ,0
573,3010101016998,新規,0,2025-12-08,2025-12-08,株式会社おはよう,,株式会社,東京都,八王子市,中野町２７０４番地１、１階,,13,201,1920015,,,,,,,2025-12-08,1,,,,,オハヨウ,0
578,3010401194866,新規,0,2025-12-08,2025-12-08,サイノマ株式会社,,株式会社,東京都,港区,北青山１丁目３番１号アールキューブ青山３階,,13,103,1070061,,,,,,,2025-12-08,1,,,,,サイノマ,0
579,3010401194957,新規,0,2025-12-08,2025-12-08,株式会社Ｍｉｎｉｍａ,,株式会社,東京都,港区,南青山３丁目１番３６号青山丸竹ビル６Ｆ,,13,103,1070062,,,,,,,2025-12-08,1,,,,,ミニマ,0
580,3010401194973,新規,0,2025-12-08,2025-12-08,サーヴェイ株式会社,,株式会社,東京都,港区,北青山１丁目３番１号アールキューブ青山３階,,13,103,1070061,,,,,,,2025-12-08,1,,,,,サーヴェイ,0
581,3010401194981,新規,0,2025-12-08,2025-12-08,Ｄ＆Ｍアセットマネジメント株式会社,,株式会社,東京都,港区,南青山２丁目２番１５号ＷｉｎＡｏｙａｍａビルＵＣＦ６階,,13,103,1070062,,,,,,,2025-12-08,1,,,,,ディーアンドエムアセットマネジメント,0
582,3010401195039,新規,0,2025-12-08,2025-12-08,株式会社ＹＯＪＯ,,株式会社,東京都,港区,浜松町２丁目２番１５号浜松町ダイヤビル２Ｆ,,13,103,1050013,,,,,,,2025-12-08,1,,,,,ヨウジョウ,0
585,3010403036760,新規,0,2025-12-08,2025-12-08,森山企画合同会社,,合同会社,東京都,港区,芝浦４丁目１９番１号,,13,103,1080023,,,,,,,2025-12-08,1,,,,,モリヤマキカク,0
586,3010403036769,新規,0,2025-12-08,2025-12-08,Ｐｈｏｅｎｉｘ　ＭＬ合同会社,,合同会社,東京都,港区,六本木１丁目９番１０号アークヒルズ仙石山森タワー２６０３,,13,103,1060032,,,,,,,2025-12-08,1,,,,,フェニックスエムエル,0
590,3010501055150,新規,0,2025-12-08,2025-12-08,株式会社ダイキリパートナーズ,,株式会社,東京都,台東区,上野１丁目１７番６号広小路ビル８Ｆ－Ｂ,,13,106,1100005,,,,,,,2025-12-08,1,,,,,ダイキリパートナーズ,0
599,3010701048714,新規,0,2025-12-08,2025-12-08,株式会社Ｔｈｅ　Ｗｉｓｈ　Ｃｏｍｅ　Ｔｒｕｅ,,株式会社,東京都,品川区,小山２丁目１７番２９号ハーヴェストガーデン２Ｂ,,13,109,1420062,,,,,,,2025-12-08,1,,,,,ザウィッシュカムトゥルー,0
610,3011001174044,新規,0,2025-12-08,2025-12-08,ＦＯＯＴ　ＧＲＡＣＥ株式会社,,株式会社,東京都,渋谷区,円山町５番５号Ｎａｖｉ渋谷Ｖ３階,,13,113,1500044,,,,,,,2025-12-08,1,,,,,フットグレイス,0
611,3011001174060,新規,0,2025-12-08,2025-12-08,株式会社菱田屋,,株式会社,東京都,目黒区,駒場１丁目２７番１２号,,13,110,1530041,,,,,,,2025-12-08,1,,,,,ヒシダヤ,0
612,3011001174110,新規,0,2025-12-08,2025-12-08,クリサク株式会社,,株式会社,東京都,渋谷区,恵比寿西２丁目４番８号ウィンド恵比寿ビル８Ｆ,,13,113,1500021,,,,,,,2025-12-08,1,,,,,クリサク,0
613,3011001174119,新規,0,2025-12-08,2025-12-08,ＬＹＫ株式会社,,株式会社,東京都,渋谷区,代々木１丁目２４－５－１０１,,13,113,1510053,,,,,,,2025-12-08,1,,,,,エルワイケー,0
614,3011001174275,新規,0,2025-12-08,2025-12-08,株式会社オクトフォリア,,株式会社,東京都,渋谷区,千駄ヶ谷４丁目５番１１号,,13,113,1510051,,,,,,,2025-12-08,1,,,,,オクトフォリア,0
624,3011601029218,新規,0,2025-12-08,2025-12-08,ＫＡＺＵＭＩＣＨＩ　Ｃｏｎｓｕｌｔｉｎｇ　Ｆａｒｍ株式会社,,株式会社,東京都,練馬区,石神井町８丁目１０番１号,,13,120,1770041,,,,,,,2025-12-08,1,,,,,カズミチコンサルティングファーム,0
625,3011601029226,新規,0,2025-12-08,2025-12-08,ＦＵＬＯ　ＡＮＤ株式会社,,株式会社,東京都,練馬区,大泉学園町７丁目１９番１６号ベルデ・大泉２０５,,13,120,1780061,,,,,,,2025-12-08,1,,,,,フロアンド,0
626,3011603004945,新規,0,2025-12-08,2025-12-08,合同会社Ｎｅｏ光が丘,,合同会社,東京都,練馬区,田柄５丁目１５番７号,,13,120,1790073,,,,,,,2025-12-08,1,,,,,ネオヒカリガオカ,0
628,3011703004473,新規,0,2025-12-08,2025-12-08,合同会社ＫＵＫＵＮＡ．,,合同会社,東京都,江戸川区,西一之江３丁目３６番９号,,13,123,1320023,,,,,,,2025-12-08,1,,,,,ククナ,0
630,3011801047151,新規,0,2025-12-08,2025-12-08,株式会社やわらぎ,,株式会社,東京都,葛飾区,小菅４丁目１１番１－１２０３号,,13,122,1240001,,,,,,,2025-12-08,1,,,,,ヤワラギ,0
631,3012301014625,新規,0,2025-12-08,2025-12-08,株式会社ＭＩＺＵＫＩ,,株式会社,東京都,町田市,野津田町１０３１番地３,,13,209,1950063,,,,,,,2025-12-08,1,,,,,ミズキ,0
632,3012301014633,新規,0,2025-12-08,2025-12-08,株式会社ＹｅｌｌｏｗＴａｉｌ　Ｓｏｕｎｄ　Ｄｅｓｉｇｎ,,株式会社,東京都,町田市,小川６丁目１５番１４号,,13,209,1940003,,,,,,,2025-12-08,1,,,,,イエローテイルサウンドデザイン,0
634,3012701019216,新規,0,2025-12-08,2025-12-08,株式会社キトカゼ,,株式会社,東京都,東村山市,栄町２丁目１８番地３,,13,213,1890013,,,,,,,2025-12-08,1,,,,,キトカゼ,0
635,3012801024371,新規,0,2025-12-08,2025-12-08,株式会社不動信用,,株式会社,東京都,立川市,曙町１丁目３１番５号宝ビル内,,13,202,1900012,,,,,,,2025-12-08,1,,,,,フドウシンヨウ,0
636,3012801024405,新規,0,2025-12-08,2025-12-08,株式会社ＮＹＫホーム,,株式会社,東京都,日野市,西平山３丁目２１番地の２６,,13,212,1910055,,,,,,,2025-12-08,1,,,,,エヌワイケイホーム,0
638,3013101009880,新規,0,2025-12-08,2025-12-08,株式会社ＴＡＳＴＡＳ,,株式会社,東京都,あきる野市,牛沼１３番地４,,13,228,1970826,,,,,,,2025-12-08,1,,,,,タスタス,0
644,3020001166166,新規,0,2025-12-08,2025-12-08,株式会社キャロット,,株式会社,神奈川県,横浜市青葉区,あざみ野南１丁目１９番地３２,,14,117,2250012,,,,,,,2025-12-08,1,,,,,キャロット,0
645,3020001166182,新規,0,2025-12-08,2025-12-08,株式会社リシュネ,,株式会社,神奈川県,横浜市戸塚区,川上町９３３番地,,14,110,2440805,,,,,,,2025-12-08,1,,,,,リシュネ,0
646,3020001166208,新規,0,2025-12-08,2025-12-08,株式会社ｈｉｙｏｃｏｏｍａ,,株式会社,神奈川県,横浜市神奈川区,金港町５－１４クアドリフォリオ８階,,14,102,2210056,,,,,,,2025-12-08,1,,,,,ヒヨクーマ,0
648,3020005017068,新規,0,2025-12-08,2025-12-08,一般社団法人傷病手当金申請支援協会,,その他の設立登記法人,神奈川県,川崎市多摩区,登戸５０番地３,,14,135,2140014,,,,,,,2025-12-08,1,,,,,ショウビョウテアテキンシンセイシエンキョウカイ,0
653,3021001086932,新規,0,2025-12-08,2025-12-08,スパイラル株式会社,,株式会社,神奈川県,綾瀬市,吉岡１９７０番地２,,14,218,2521124,,,,,,,2025-12-08,1,,,,,スパイラル,0
669,3040001141646,新規,0,2025-12-08,2025-12-08,株式会社ゐろは,,株式会社,千葉県,我孫子市,船戸３丁目５番７号,,12,222,2701158,,,,,,,2025-12-08,1,,,,,イロハ,0
670,3040001141712,新規,0,2025-12-08,2025-12-08,株式会社武内興業,,株式会社,千葉県,茂原市,早野１７５４－５,,12,210,2970037,,,,,,,2025-12-08,1,,,,,タケウチコウギョウ,0
673,3040003029105,新規,0,2025-12-08,2025-12-08,合同会社Ｔｒｙ‐Ａｎｇｌｅ,,合同会社,千葉県,千葉市花見川区,幕張本郷３丁目８番１７号,,12,102,2620033,,,,,,,2025-12-08,1,,,,,トライアングル,0
676,3050001057676,新規,0,2025-12-08,2025-12-08,関東清水物産株式会社,,株式会社,茨城県,稲敷市,清水２０６０番地１,,08,229,3000614,,,,,,,2025-12-08,1,,,,,カントウシミズブッサン,0
679,3050003009774,新規,0,2025-12-08,2025-12-08,合同会社ＭＥＩＳＨＩ,,合同会社,茨城県,つくば市,吾妻３丁目１４番７吾妻パレス４０２号,,08,220,3050031,,,,,,,2025-12-08,1,,,,,メイシ,0
683,3060001038824,新規,0,2025-12-08,2025-12-08,株式会社山聖,,株式会社,栃木県,さくら市,桜ヶ丘１丁目２番１号,,09,214,3291416,,,,,,,2025-12-08,1,,,,,ヤマセイ,0
685,3070001043625,新規,0,2025-12-08,2025-12-08,株式会社ビッグベジ,,株式会社,群馬県,伊勢崎市,境東新井３３１番地,,10,204,3700101,,,,,,,2025-12-08,1,,,,,ビッグベジ,0
686,3070001043633,新規,0,2025-12-08,2025-12-08,メディケージ株式会社,,株式会社,群馬県,前橋市,朝倉町４丁目３番地７ＲＯＯＴＳ朝倉町２Ｂ,,10,201,3710811,,,,,,,2025-12-08,1,,,,,,0
693,3080101025943,新規,0,2025-12-08,2025-12-08,株式会社静岡用地,,株式会社,静岡県,富士市,伝法２７４８番地の２,,22,210,4170061,,,,,,,2025-12-08,1,,,,,シズオカヨウチ,0
695,3080103003476,新規,0,2025-12-08,2025-12-08,ソライト合同会社,,合同会社,静岡県,伊豆の国市,奈古谷２２２５－９５,,22,225,4102132,,,,,,,2025-12-08,1,,,,,ソライト,0
696,3080401028308,新規,0,2025-12-08,2025-12-08,株式会社ディカイロス,,株式会社,静岡県,掛川市,秋葉路２０番地１５号,,22,213,4360041,,,,,,,2025-12-08,1,,,,,ディカイロス,0
697,3100001039173,新規,0,2025-12-08,2025-12-08,株式会社ＡＧＲＩＰＬＵＳ,,株式会社,長野県,上田市,住吉６１４番地５,,20,203,3860002,,,,,,,2025-12-08,1,,,,,アグリプラス,0
711,3120001282548,新規,0,2025-12-08,2025-12-08,株式会社アステリアゲート,,株式会社,大阪府,大阪市淀川区,木川西４丁目２番１６号朝日プラザ梅田北デラリブジェ３０４,,27,123,5320013,,,,,,,2025-12-08,1,,,,,アステリアゲート,0
712,3120001282580,新規,0,2025-12-08,2025-12-08,株式会社ＣＥＳＴＰＡＲＴＹ,,株式会社,大阪府,大阪市北区,豊崎５丁目５番２４号サンハイム第２中津１１０５号,,27,127,5310072,,,,,,,2025-12-08,1,,,,,セパティ,0
716,3120003031399,新規,0,2025-12-08,2025-12-08,合同会社ＢＡＳＥ,,合同会社,大阪府,大阪市生野区,鶴橋５丁目２１番２０号エステムコート鶴橋パルテピア８０２号室,,27,116,5440031,,,,,,,2025-12-08,1,,,,,ベース,0
717,3120003031408,新規,0,2025-12-08,2025-12-08,合同会社Ｔｒｕｓｔａｔｅ,,合同会社,大阪府,大阪市生野区,小路東３丁目１８番３号,,27,116,5440003,,,,,,,2025-12-08,1,,,,,トラステート,0
722,3120101072923,新規,0,2025-12-08,2025-12-08,株式会社Ｃｌａｒｉｏｎ　Ｒｅｓｅａｒｃｈ,,株式会社,大阪府,富田林市,藤沢台３丁目３番１５号,,27,214,5840071,,,,,,,2025-12-08,1,,,,,クラリオンリサーチ,0
732,3130001081172,新規,0,2025-12-08,2025-12-08,株式会社ＩＫＵＴＡ　ＺＩＱＵ　Ｌａｂ．,,株式会社,京都府,京都市伏見区,横大路下三栖辻堂町６番地,,26,109,6128241,,,,,,,2025-12-08,1,,,,,イクタジクラボ,0
737,3140001140984,新規,0,2025-12-08,2025-12-08,ワイズホールディングス株式会社,,株式会社,兵庫県,西宮市,門戸荘２番１８号,,28,204,6620825,,,,,,,2025-12-08,1,,,,,ワイズホールディングス,0
738,3140001141009,新規,0,2025-12-08,2025-12-08,株式会社はなまるＨｏｍｅ,,株式会社,兵庫県,神戸市西区,伊川谷町有瀬３１６番地の２,,28,111,6512113,,,,,,,2025-12-08,1,,,,,ハナマルホーム,0
740,3150003003775,新規,0,2025-12-08,2025-12-08,合同会社とびらの向こう,,合同会社,奈良県,生駒市,俵口町８１４－１－３０１,,29,209,6300243,,,,,,,2025-12-08,1,,,,,トビラノムコウ,0
761,3200001044477,新規,0,2025-12-08,2025-12-08,株式会社光喜,00141770,株式会社,岐阜県,多治見市,三の倉町西洞７９番地２,,21,204,5070045,,,,,,,2025-12-08,1,,,,,コウキ,0
762,3200001044493,新規,0,2025-12-08,2025-12-08,株式会社加藤商事,,株式会社,岐阜県,各務原市,鵜沼小伊木町１丁目１５５番地,,21,213,5090143,,,,,,,2025-12-08,1,,,,,カトウショウジ,0
764,3200005013825,新規,0,2025-12-08,2025-12-08,医療法人シエルブル,,その他の設立登記法人,岐阜県,岐阜市,島田東町４１番地１,,21,201,5008315,,,,,,,2025-12-08,1,,,,,シエルブル,0
774,3240001065866,新規,0,2025-12-08,2025-12-08,株式会社Ｄｅｓｐａｃｉｏ,,株式会社,広島県,広島市安佐南区,長束３丁目３７番２４号,,34,105,7310135,,,,,,,2025-12-08,1,,,,,デスパシオ,0
795,3290001112399,新規,0,2025-12-08,2025-12-08,株式会社ハローニューミー,,株式会社,福岡県,福岡市博多区,博多駅東２丁目９番２５－３０１号アバンダント８４,,40,132,8120013,,,,,,,2025-12-08,1,,,,,ハローニューミー,0
796,3290001112424,新規,0,2025-12-08,2025-12-08,株式会社Ｋ‐ＤＥＮＳＯ,,株式会社,福岡県,大野城市,月の浦４丁目３番１１号,,40,219,8160983,,,,,,,2025-12-08,1,,,,,ケーデンソー,0
804,3290801032086,新規,0,2025-12-08,2025-12-08,株式会社ｏｆｆｉｃｅ遼栄,,株式会社,福岡県,北九州市八幡西区,星ケ丘４丁目７番１３号,,40,109,8071264,,,,,,,2025-12-08,1,,,,,オフィスリョウエイ,0
806,3330001033789,新規,0,2025-12-08,2025-12-08,株式会社２８Ｈｉ,,株式会社,熊本県,合志市,竹迫１５９１－１,,43,216,8611114,,,,,,,2025-12-08,1,,,,,ニジュウハチハイ,0
811,3340001027831,新規,0,2025-12-08,2025-12-08,株式会社ジャパン・メディカル・コンサルタンツ,,株式会社,鹿児島県,鹿児島市,西田２丁目２８番１３号,,46,201,8900046,,,,,,,2025-12-08,1,,,,,ジャパンメディカルコンサルタンツ,0
814,3340003005034,新規,0,2025-12-08,2025-12-08,合同会社ＡＮＤ．,,合同会社,鹿児島県,鹿屋市,新川町５７６８番地２,,46,203,8930015,,,,,,,2025-12-08,1,,,,,アンドット,0
816,3360003015452,新規,0,2025-12-08,2025-12-08,合同会社三恩,,合同会社,沖縄県,宜野湾市,新城２丁目４５番１０号,,47,205,9012201,,,,,,,2025-12-08,1,,,,,サンオン,0
818,3370003007399,新規,0,2025-12-08,2025-12-08,合同会社ＳＨＩＮＰＡＮ,,合同会社,宮城県,登米市,石越町東郷字大根沢６２番地６,,04,212,9894702,,,,,,,2025-12-08,1,,,,,シンパン,0
821,3380001035723,新規,0,2025-12-08,2025-12-08,株式会社工房ＬＯＯＰ,,株式会社,福島県,会津若松市,湊町大字赤井字屋敷２４番地の１,,07,202,9650201,,,,,,,2025-12-08,1,,,,,コウボウループ,0
824,3390003002472,新規,0,2025-12-08,2025-12-08,合同会社ＤＭＣもがみテラス,,合同会社,山形県,新庄市,住吉町３番８号（新庄商工会議所内）,,06,205,9960022,,,,,,,2025-12-08,1,,,,,ディーエムシーモガミテラス,0
842,3700150133237,新規,0,2025-12-08,2025-12-08,Ｆ　Ｈ　ＬＡＮＫＡ　ＰＶＴ　ＬＴＤ,,外国会社等,千葉県,山武郡九十九里町,西野１４０４番地１０８－Ｃ,,12,403,2830116,スリランカ民主社会主義共和国、アンバテンナ、カハワッタ４３番,,,,,,2025-12-08,1,,,,,エフエイチランカプライベートリミテツド,0
851,4010101017005,新規,0,2025-12-08,2025-12-08,株式会社ＮＡＯＫＩＹＡ,,株式会社,東京都,八王子市,元八王子町２丁目３３１０番地６,,13,201,1930826,,,,,,,2025-12-08,1,,,,,ナオキヤ,0
854,4010401195021,新規,0,2025-12-08,2025-12-08,株式会社１３,,株式会社,東京都,港区,南青山６丁目１２番１０号南青ユニティ２階,,13,103,1070062,,,,,,,2025-12-08,1,,,,,ジュウサン,0
859,4010403036710,新規,0,2025-12-08,2025-12-08,合同会社８ａｒｍｓ,,合同会社,東京都,港区,北青山１丁目３－３三橋ビル３階,,13,103,1070061,,,,,,,2025-12-08,1,,,,,エイトアームス,0
864,4010805003226,新規,0,2025-12-08,2025-12-08,一般社団法人宮古会Ｔｈｅ　Ｆａｓｔ　Ｃｌｉｎｉｃ,,その他の設立登記法人,東京都,大田区,山王２丁目１番６号－９０２,,13,111,1430023,,,,,,,2025-12-08,1,,,,,ミヤコカイザファストクリニック,0
867,4010905004875,新規,0,2025-12-08,2025-12-08,一般社団法人東京都民泊旅館事業者協会,,その他の設立登記法人,東京都,世田谷区,代沢５丁目３３番５号,,13,112,1550032,,,,,,,2025-12-08,1,,,,,トウキョウトミンパクリョカンジギョウシャキョウカイ,0
873,4011001174043,新規,0,2025-12-08,2025-12-08,株式会社ＡＴＡＰ　Ｗｏｒｋｓ,,株式会社,東京都,渋谷区,渋谷２丁目１９番１９号ワコー宮益坂ビル５階,,13,113,1500002,,,,,,,2025-12-08,1,,,,,アタップワークス,0
874,4011001174076,新規,0,2025-12-08,2025-12-08,株式会社グッド,,株式会社,東京都,渋谷区,東１丁目２５番２号,,13,113,1500011,,,,,,,2025-12-08,1,,,,,グッド,0
875,4011001174282,新規,0,2025-12-08,2025-12-08,株式会社ＤＧアセットマネジメント,,株式会社,東京都,渋谷区,恵比寿南３丁目５番７号,,13,113,1500022,,,,,,,2025-12-08,1,,,,,ディージーアセットマネジメント,0
876,4011003023082,新規,0,2025-12-08,2025-12-08,シンプルビリング合同会社,,合同会社,東京都,渋谷区,恵比寿西２丁目８番４号ＥＸ恵比寿西ビル５階,,13,113,1500021,,,,,,,2025-12-08,1,,,,,シンプルビリング,0
877,4011005011291,新規,0,2025-12-08,2025-12-08,弁護士法人ＦＯＲＷＡＲＤジャパン,,その他の設立登記法人,東京都,渋谷区,円山町５番３号ＭＩＥＵＸ渋谷ビル３階,,13,113,1500044,,,,,,,2025-12-08,1,,,,,フォワードジャパン,0
888,4011101114254,新規,0,2025-12-08,2025-12-08,株式会社Ｒｅｖｉ‐ｖａｌ,,株式会社,東京都,新宿区,西新宿３丁目３番１３号西新宿水間ビル６階,,13,104,1600023,,,,,,,2025-12-08,1,,,,,リバイバル,0
892,4011303005788,新規,0,2025-12-08,2025-12-08,合同会社Ａｍｂルーフ,,合同会社,東京都,杉並区,清水３丁目２２番１６号,,13,115,1670033,,,,,,,2025-12-08,1,,,,,エーエムビールーフ,0
893,4011403004962,新規,0,2025-12-08,2025-12-08,強盛合同会社,,合同会社,東京都,板橋区,栄町３２番５－８２３号大山ローヤルコーポ,,13,119,1730015,,,,,,,2025-12-08,1,,,,,キョウセイ,0
900,4012301014624,新規,0,2025-12-08,2025-12-08,株式会社チームロータス,,株式会社,東京都,町田市,南大谷４丁目３３番１号,,13,209,1940031,,,,,,,2025-12-08,1,,,,,チームロータス,0
901,4012701019215,新規,0,2025-12-08,2025-12-08,Ｒｉｇｈｔｆｉｔ　Ｃｏｎｓｕｌｔｉｎｇ株式会社,,株式会社,東京都,小平市,たかの台４０番１０－１号,,13,211,1870024,,,,,,,2025-12-08,1,,,,,ライトフィットコンサルティング,0
902,4012703003423,新規,0,2025-12-08,2025-12-08,Ｈｏｕｓｅ　Ｃｕｓｔｏｍ合同会社,,合同会社,東京都,清瀬市,旭が丘２丁目３番５－４０４号,,13,221,2040002,,,,,,,2025-12-08,1,,,,,ハウスカスタム,0
910,4020001166124,新規,0,2025-12-08,2025-12-08,株式会社ベストパートナー,,株式会社,神奈川県,川崎市幸区,幸町３丁目５４７番地１－１５０７号,,14,132,2120011,,,,,,,2025-12-08,1,,,,,ベストパートナー,0
911,4020001166149,新規,0,2025-12-08,2025-12-08,カナオリ不動産株式会社,,株式会社,神奈川県,川崎市麻生区,上麻生１丁目１０番６号,,14,137,2150021,,,,,,,2025-12-08,1,,,,,カナオリフドウサン,0
916,4021001086881,新規,0,2025-12-08,2025-12-08,株式会社Ａｍｅｌｔｈｅａ,,株式会社,神奈川県,相模原市南区,相南３丁目３５－４－１０３,,14,153,2520312,,,,,,,2025-12-08,1,,,,,アメルシア,0
917,4021001086931,新規,0,2025-12-08,2025-12-08,株式会社Ｍ＆Ｙ,,株式会社,神奈川県,平塚市,紅谷町１３－５大真ビルＩＩ１０１号室,00141778,14,203,2540043,,,,,,,2025-12-08,1,,,,,エムアンドワイ,0
918,4021003016861,新規,0,2025-12-08,2025-12-08,仁立ライディングギア合同会社,,合同会社,神奈川県,相模原市南区,若松５丁目１３－１７－２,,14,153,2520334,,,,,,,2025-12-08,1,,,,,ジンリツライディングギア,0
920,4030001169976,新規,0,2025-12-08,2025-12-08,Ｒｅｏｎｐａｒｔｎｅｒｓ株式会社,,株式会社,埼玉県,三郷市,さつき平２丁目４番１－９０４号,,11,237,3410021,,,,,,,2025-12-08,1,,,,,レオンパートナーズ,0
922,4030003028115,新規,0,2025-12-08,2025-12-08,合同会社内屋みらい堂,,合同会社,埼玉県,上尾市,春日２丁目１０番８,,11,219,3620074,,,,,,,2025-12-08,1,,,,,ウチヤミライドウ,0
928,4040001141595,新規,0,2025-12-08,2025-12-08,株式会社ＲａｍＰｙｅｅｓ,,株式会社,千葉県,千葉市花見川区,幕張町５丁目４５７バンチグレイス宮葉１０３号室,,12,102,2620032,,,,,,,2025-12-08,1,,,,,ランピーズ,0
933,4040003029104,新規,0,2025-12-08,2025-12-08,合同会社Ａｇｅｓ,,合同会社,千葉県,いすみ市,大原３５８７番地,,12,238,2980004,,,,,,,2025-12-08,1,,,,,エイジズ,0
934,4040003029120,新規,0,2025-12-08,2025-12-08,合同会社Ｎｉｔｓ,,合同会社,千葉県,八千代市,緑が丘西８丁目５―１５,,12,221,2760040,,,,,,,2025-12-08,1,,,,,ニッツ,0
938,4050001057675,新規,0,2025-12-08,2025-12-08,清水物産関東ＦＰ株式会社,,株式会社,茨城県,稲敷市,清水２０６０番地１,,08,229,3000614,,,,,,,2025-12-08,1,,,,,シミズブッサンカントウエフピー,0
939,4050003009658,新規,0,2025-12-08,2025-12-08,合同会社ｄｏｇｈｕｂ,,合同会社,茨城県,つくば市,梅園２丁目１番１５号スプリングテックつくばビル４０１,,08,220,3050045,,,,,,,2025-12-08,1,,,,,ドッグハブ,0
943,4070001043616,新規,0,2025-12-08,2025-12-08,株式会社ｎｅｉｒｏ　ｗｉｔｈ,,株式会社,群馬県,伊勢崎市,市場町１丁目１５１８番,,10,204,3792211,,,,,,,2025-12-08,1,,,,,,0
944,4070001043624,新規,0,2025-12-08,2025-12-08,三和株式会社,,株式会社,群馬県,前橋市,二之宮町８８０番地２,,10,201,3792117,,,,,,,2025-12-08,1,,,,,サンワ,0
950,4080101025950,新規,0,2025-12-08,2025-12-08,株式会社ＦＡＴＯＭＳ　ＨＤ,,株式会社,静岡県,富士市,前田７４番地の１,,22,210,4160937,,,,,,,2025-12-08,1,,,,,エフエイトムスエイチディー,0
951,4080401028307,新規,0,2025-12-08,2025-12-08,株式会社Ｍｉｔｏｒｉ　ＨＤ,,株式会社,静岡県,磐田市,白羽４１７番地,,22,211,4380235,,,,,,,2025-12-08,1,,,,,マイトリホールディングス,0
955,4100001039180,新規,0,2025-12-08,2025-12-08,Ｓｈｉｎｓｈｕ　Ｂａｓｅ株式会社,,株式会社,長野県,北佐久郡御代田町,大字草越１２０７－２３Ｇｏｋａｌａｂ,,20,323,3890202,,,,,,,2025-12-08,1,,,,,シンシュウベース,0
958,4110001039774,新規,0,2025-12-08,2025-12-08,株式会社コーズライジング,,株式会社,新潟県,長岡市,石動町３５３番地,,15,202,9402032,,,,,,,2025-12-08,1,,,,,コーズライジング,0
974,4120001282472,新規,0,2025-12-08,2025-12-08,原川商事株式会社,,株式会社,大阪府,大阪市天王寺区,大道１丁目２－２２,,27,109,5430052,,,,,,,2025-12-08,1,,,,,ハラカワショウジ,0
975,4120001282514,新規,0,2025-12-08,2025-12-08,株式会社方美庵,,株式会社,大阪府,大阪市北区,中津１丁目１３番１７－９０９号,,27,127,5310071,,,,,,,2025-12-08,1,,,,,マサミアン,0
976,4120001282539,新規,0,2025-12-08,2025-12-08,株式会社縁満,,株式会社,大阪府,大阪市北区,同心１丁目４番２号,,27,127,5300035,,,,,,,2025-12-08,1,,,,,エンマン,0
977,4120001282547,新規,0,2025-12-08,2025-12-08,株式会社ＨＡＫＫＥＩ,,株式会社,大阪府,大阪市大正区,泉尾２丁目１９番３号,,27,108,5510031,,,,,,,2025-12-08,1,,,,,ハッケイ,0
978,4120001282555,新規,0,2025-12-08,2025-12-08,株式会社ｌｉｖｅｌｙ,,株式会社,大阪府,大阪市淀川区,木川東３丁目２－２２,,27,123,5320012,,,,,,,2025-12-08,1,,,,,リブリー,0
979,4120001282563,新規,0,2025-12-08,2025-12-08,株式会社サードテイストジャパン,,株式会社,大阪府,大阪市浪速区,恵美須東１丁目４番６号,,27,111,5560002,,,,,,,2025-12-08,1,,,,,サードテイストジャパン,0
980,4120001282588,新規,0,2025-12-08,2025-12-08,株式会社Ｔ＆Ｔグランドエステート,,株式会社,大阪府,大阪市東成区,神路４丁目１０番１６号,,27,115,5370003,,,,,,,2025-12-08,1,,,,,ティーアンドティーグランドエステート,0
986,4120005025290,新規,0,2025-12-08,2025-12-08,一般社団法人事業承継支援パートナーズ,,その他の設立登記法人,大阪府,大阪市福島区,福島７丁目１８番２０号シエリアタワー大阪福島２５０４号,,27,103,5530003,,,,,,,2025-12-08,1,,,,,ジギョウショウケイシエンパートナーズ,0
987,4120101072922,新規,0,2025-12-08,2025-12-08,株式会社Ｒｅｍａｉｎ,,株式会社,大阪府,富田林市,藤沢台３丁目３番１５号,,27,214,5840071,,,,,,,2025-12-08,1,,,,,リメイン,0
990,4120901051910,新規,0,2025-12-08,2025-12-08,ＢＩＺＥＮ株式会社,,株式会社,大阪府,豊中市,刀根山４丁目２番３１号,,27,203,5600045,,,,,,,2025-12-08,1,,,,,ビゼン,0
997,4122005003862,新規,0,2025-12-08,2025-12-08,一般社団法人アークス,,その他の設立登記法人,大阪府,東大阪市,長堂１丁目２６番８号１Ｆ,,27,227,5770056,,,,,,,2025-12-08,1,,,,,アークス,0
1001,4130001081163,新規,0,2025-12-08,2025-12-08,Ｋｙｏｔｏ　Ｗａｎｋｏ　Ｖｉｌｌａｇｅ株式会社,,株式会社,京都府,京都市北区,北野下白梅町４９番地,,26,101,6038326,,,,,,,2025-12-08,1,,,,,キョウトワンコビィレッジ,0
1002,4130001081171,新規,0,2025-12-08,2025-12-08,株式会社レスペート,,株式会社,京都府,亀岡市,篠町見晴７丁目２番１４号,,26,206,6210824,,,,,,,2025-12-08,1,,,,,レスペート,0
1003,4130003010987,新規,0,2025-12-08,2025-12-08,合同会社ＩＮＢ,,合同会社,京都府,長岡京市,長法寺南谷４番地１０,,26,209,6170812,,,,,,,2025-12-08,1,,,,,アイエヌビー,0
1007,4140001140983,新規,0,2025-12-08,2025-12-08,株式会社ＳＮＲ不動産,,株式会社,兵庫県,明石市,大久保町大窪２２０４番地の３セルサス大久保３階,,28,203,6740051,,,,,,,2025-12-08,1,,,,,エスエヌアールフドウサン,0
1008,4140001141032,新規,0,2025-12-08,2025-12-08,科丸株式会社,,株式会社,兵庫県,神戸市長田区,四番町７丁目５アロバス第二ビル３０３号室,,28,106,6530004,,,,,,,2025-12-08,1,,,,,カマル,0
1010,4140005027723,新規,0,2025-12-08,2025-12-08,一般社団法人コトノハ,,その他の設立登記法人,兵庫県,西宮市,高座町５番２７号,,28,204,6620872,,,,,,,2025-12-08,1,,,,,コトノハ,0
1013,4150003003774,新規,0,2025-12-08,2025-12-08,合同会社奥大和,,合同会社,奈良県,宇陀市,大字陀岩室７５７番地,,29,212,6330200,,,,,,,2025-12-08,1,,,,,オクヤマト,0
1017,4170001018896,新規,0,2025-12-08,2025-12-08,株式会社フローシス,,株式会社,和歌山県,和歌山市,和歌川町３番１６号,,30,201,6410055,,,,,,,2025-12-08,1,,,,,フローシス,0
1023,4180001169796,新規,0,2025-12-08,2025-12-08,積村ホールディングス株式会社,,株式会社,愛知県,名古屋市中村区,横前町６６番地,,23,105,4530864,,,,,,,2025-12-08,1,,,,,セキムラホールディングス,0
1028,4200005013824,新規,0,2025-12-08,2025-12-08,一般社団法人サポートシステム,,その他の設立登記法人,岐阜県,各務原市,鵜沼各務原町６丁目５０番,,21,213,5090141,,,,,,,2025-12-08,1,,,,,サポートシステム,0
1033,4240003007510,新規,0,2025-12-08,2025-12-08,合同会社キッズブレス,,合同会社,広島県,広島市西区,東観音町２１－１６,,34,104,7330032,,,,,,,2025-12-08,1,,,,,キッズブレス,0
1036,4250003003855,新規,0,2025-12-08,2025-12-08,合同会社青木建設,,合同会社,山口県,柳井市,古開作１１６３番地１サン・ガーデンＡ２０３号,,35,212,7420032,,,,,,,2025-12-08,1,,,,,アオキケンセツ,0
1042,4260001040791,新規,0,2025-12-08,2025-12-08,株式会社Ｊスタイル,,株式会社,岡山県,岡山市北区,大内田６６５－１,,33,101,7010165,,,,,,,2025-12-08,1,,,,,ジェイスタイル,0
1044,4260003005446,新規,0,2025-12-08,2025-12-08,合同会社Ｎｅｘｅｌ,,合同会社,岡山県,岡山市北区,高柳西町２３番２５号エスポワール都ＩＩＩ２０２,00141793,33,101,7000035,,,,,,,2025-12-08,1,,,,,ネクセル,0
1045,4270003001816,新規,0,2025-12-08,2025-12-08,合同会社中小企業伴走経営研究所,,合同会社,鳥取県,米子市,茶町２６番地,,31,202,6830041,,,,,,,2025-12-08,1,,,,,チュウショウキギョウバンソウケイエイケンキュウジョ,0
1054,4290001112365,新規,0,2025-12-08,2025-12-08,株式会社ぺんぎん農水産,,株式会社,福岡県,柳川市,大和町六合１６０５番地,,40,207,8390244,,,,,,,2025-12-08,1,,,,,ペンギンノウスイサン,0
1055,4290001112373,新規,0,2025-12-08,2025-12-08,蒼誠メディカル株式会社,,株式会社,福岡県,福岡市中央区,赤坂１丁目７番５号ロマネスク赤坂第２－３０３号,,40,133,8100042,,,,,,,2025-12-08,1,,,,,ソウセイメディカル,0
1056,4290001112398,新規,0,2025-12-08,2025-12-08,株式会社ｓｕｎｌｉｋｅ,,株式会社,福岡県,太宰府市,大字北谷２９７番地１,,40,221,8180114,,,,,,,2025-12-08,1,,,,,サンライク,0
1057,4290001112423,新規,0,2025-12-08,2025-12-08,トライアグリ株式会社,,株式会社,福岡県,福岡市東区,香椎照葉３丁目２番１号,,40,131,8130017,,,,,,,2025-12-08,1,,,,,トライアグリ,0
1060,4290003017752,新規,0,2025-12-08,2025-12-08,合同会社グッドライフ,,合同会社,福岡県,大川市,大字津２５０－１,,40,212,8310035,,,,,,,2025-12-08,1,,,,,グッドライフ,0
1061,4290003017793,新規,0,2025-12-08,2025-12-08,合同会社ＯｂｊｅｃｔｉｆＰｌａｃｅ,,合同会社,福岡県,福岡市中央区,今泉２丁目３－３８－４０２,,40,133,8100021,,,,,,,2025-12-08,1,,,,,オブジェクティフプラス,0
1063,4290801032077,新規,0,2025-12-08,2025-12-08,株式会社ＶｅｔＢｉｚＬａｂ,,株式会社,福岡県,田川市,大字糒６９９番地１,,40,206,8250005,,,,,,,2025-12-08,1,,,,,ベットビズラボ,0
1064,4290801032085,新規,0,2025-12-08,2025-12-08,ＫＧ　ＣＲＯＳＳ　ＪＡＰＡＮ株式会社,,株式会社,福岡県,北九州市若松区,大字小敷１９１番地５,,40,103,8080132,,,,,,,2025-12-08,1,,,,,ケージークロスジャパン,0
1079,4340001027822,新規,0,2025-12-08,2025-12-08,ＢＯＲＭＡ株式会社,,株式会社,鹿児島県,日置市,伊集院町妙円寺２丁目９２番地３９,,46,216,8992503,,,,,,,2025-12-08,1,,,,,ボーマ,0
1084,4370001053287,新規,0,2025-12-08,2025-12-08,株式会社ゆう動物病院,,株式会社,宮城県,仙台市宮城野区,新田４丁目３３番５号オリゾンＩＩＩＤ１階,00141791,04,102,9830038,,,,,,,2025-12-08,1,,,,,ユウドウブツビョウイン,0
1089,4400003003575,新規,0,2025-12-08,2025-12-08,合同会社グローカルブリッジ,,合同会社,岩手県,盛岡市,清水町３番１０号,,03,201,0200875,,,,,,,2025-12-08,1,,,,,グローカルブリッジ,0
1093,4420005007985,新規,0,2025-12-08,2025-12-08,ウェルネスワーク社会保険労務士法人,,その他の設立登記法人,青森県,八戸市,湊高台５丁目２５番１８号,,02,203,0310823,,,,,,,2025-12-08,1,,,,,ウェルネスワーク,0
1099,4430003018406,新規,0,2025-12-08,2025-12-08,合同会社萬開,,合同会社,北海道,札幌市西区,発寒四条７丁目４番８－２０７号,,01,107,0630824,,,,,,,2025-12-08,1,,,,,バンカイ,0
1107,4700150133236,新規,0,2025-12-08,2025-12-08,ＤＩＬＵＫＳＨＩ　ＥＮＴＥＲＰＲＩＳＥＳ,,外国会社等,千葉県,佐倉市,大篠塚１３２７番地,,12,212,2850806,スリランカ民主社会主義共和国、ハットン、ディンブッラロード、Ｎｏ．１７６,,,,,,2025-12-08,1,,,,,デイルクシエンタープライズ,0
1108,4700150133244,新規,0,2025-12-08,2025-12-08,Ｂｅｒｋｓｈｉｒｅ　Ｈａｔｈａｗａｙ　Ｓｐｅｃｉａｌｔｙ　Ｉｎｓｕｒａｎｃｅ　Ｃｏｍｐａｎｙ,,外国会社等,東京都,港区,元赤坂１丁目２番７号,,13,103,1070051,アメリカ合衆国ネブラスカ州オマハ、ダグラス・ストリート１３１４番地スイート１４００,,,,,,2025-12-08,1,,,,,バークシヤーハサウエイスペシヤルテイインシユアランスカンパニー,0
1109,5010001260827,新規,0,2025-12-08,2025-12-08,Ｌｅｔ’ｓ　Ｗｏｒｋ　ｉｎ　Ｊａｐａｎ株式会社,,株式会社,東京都,千代田区,東神田２丁目４番７号ＴＨＥＢＡＳＥ秋葉原６階,,13,101,1010031,,,,,,,2025-12-08,1,,,,,レッツワークインジャパン,0
1110,5010001261040,新規,0,2025-12-08,2025-12-08,美光エナジー株式会社,,株式会社,東京都,中央区,晴海３丁目１３番１号ＤＥＵＸＴＯＵＲＳ４５１２,,13,102,1040053,,,,,,,2025-12-08,1,,,,,ミコウエナジー,0
1111,5010003049459,新規,0,2025-12-08,2025-12-08,合同会社ＩｎＯｕｔ　Ｖｉｌｌａｇｅ,,合同会社,東京都,中央区,銀座１丁目２７番８号セントラルビル７０３号室,,13,102,1040061,,,,,,,2025-12-08,1,,,,,インアウトビレッジ,0
1112,5010003049525,新規,0,2025-12-08,2025-12-08,晴美貿易合同会社,,合同会社,東京都,中央区,晴海２丁目３－３０－３２０９,,13,102,1040053,,,,,,,2025-12-08,1,,,,,ハルミボウエキ,0
1113,5010103002706,新規,0,2025-12-08,2025-12-08,合同会社造物者ラボ,,合同会社,東京都,八王子市,打越町１２９０番地１,,13,201,1920911,,,,,,,2025-12-08,1,,,,,ゾウブツシャラボ,0
1121,5010401194880,新規,0,2025-12-08,2025-12-08,株式会社くしま,,株式会社,東京都,港区,元麻布３丁目１１－２カドル麻布十番Ｂ１,,13,103,1060046,,,,,,,2025-12-08,1,,,,,クシマ,0
1122,5010401194996,新規,0,2025-12-08,2025-12-08,株式会社ｓｅｌｅｃｔ,,株式会社,東京都,港区,南青山３丁目１番３６号青山丸竹ビル６Ｆ,,13,103,1070062,,,,,,,2025-12-08,1,,,,,セレクト,0
1123,5010401195037,新規,0,2025-12-08,2025-12-08,株式会社Ｐｒｅｓｈ,,株式会社,東京都,港区,東新橋２丁目９番６号,,13,103,1050021,,,,,,,2025-12-08,1,,,,,プレッシュ,0
1124,5010401195053,新規,0,2025-12-08,2025-12-08,株式会社Ｏｒａｎｇｅ,,株式会社,東京都,港区,南麻布３丁目５番２０号,,13,103,1060047,,,,,,,2025-12-08,1,,,,,オレンジ,0
1126,5010403036718,新規,0,2025-12-08,2025-12-08,Ｌｅ　ｐｒｅｍｉｅｒ　ｊｕｉｌｌｅｔ合同会社,,合同会社,東京都,港区,北青山１丁目３番１号アールキューブ青山３階,,13,103,1070061,,,,,,,2025-12-08,1,,,,,ルプルミエジュイエ,0
1127,5010403036759,新規,0,2025-12-08,2025-12-08,合同会社ＣＨＭ,,合同会社,東京都,港区,南青山２丁目２番１５号,,13,103,1070062,,,,,,,2025-12-08,1,,,,,シーエイチエム,0
1129,5010501055149,新規,0,2025-12-08,2025-12-08,株式会社ＭＯＳＬ,,株式会社,東京都,台東区,台東３丁目３９番８号,,13,106,1100016,,,,,,,2025-12-08,1,,,,,エムオーエスエル,0
1131,5010503008105,新規,0,2025-12-08,2025-12-08,合同会社Ｇｏ＆Ｄｏ　ＩＷＡＨＡＲＡ,,合同会社,東京都,台東区,東上野２丁目５番１６号,,13,106,1100015,,,,,,,2025-12-08,1,,,,,ゴーアンドドゥイワハラ,0
1135,5010705003829,新規,0,2025-12-08,2025-12-08,一般社団法人金庫安全リサイクル協会,,その他の設立登記法人,東京都,品川区,戸越２丁目５番２２号パークヒルズ２０１号室,,13,109,1420041,,,,,,,2025-12-08,1,,,,,キンコアンゼンリサイクルキョウカイ,0
1142,5010903010478,新規,0,2025-12-08,2025-12-08,合同会社Ｂ４,,合同会社,東京都,世田谷区,深沢１丁目２７番１３号,,13,112,1580081,,,,,,,2025-12-08,1,,,,,ビリヨン,0
1147,5011001173878,新規,0,2025-12-08,2025-12-08,株式会社しんぷりーじーホールディングス,,株式会社,東京都,渋谷区,道玄坂１丁目１２番１号渋谷マークシティ２２階,,13,113,1500043,,,,,,,2025-12-08,1,,,,,シンプリージーホールディングス,0
1148,5011001174026,新規,0,2025-12-08,2025-12-08,株式会社Ｅｕｎｉ,,株式会社,東京都,渋谷区,神南１丁目１１－４ＦＰＧリンクス神南５階,,13,113,1500041,,,,,,,2025-12-08,1,,,,,ユニ,0
1149,5011001174042,新規,0,2025-12-08,2025-12-08,株式会社Ｋａｎａｎ,,株式会社,東京都,目黒区,青葉台１丁目１０番１１－１０６号,,13,110,1530042,,,,,,,2025-12-08,1,,,,,カナン,0
1150,5011001174059,新規,0,2025-12-08,2025-12-08,株式会社臣茶,,株式会社,東京都,渋谷区,代々木３丁目４１番９号山田コートビレッジ１０２号室,,13,113,1510053,,,,,,,2025-12-08,1,,,,,シンチャ,0
1158,5011101114047,新規,0,2025-12-08,2025-12-08,恒月日本株式会社,,株式会社,東京都,新宿区,新宿２丁目１６－９新宿五城ビル５階,,13,104,1600022,,,,,,,2025-12-08,1,,,,,コウゲツニホン,0
1159,5011101114261,新規,0,2025-12-08,2025-12-08,株式会社ＭＯＲＥＤＡＹ,,株式会社,東京都,新宿区,西新宿３丁目３番１３号西新宿水間ビル２Ｆ,,13,104,1600023,,,,,,,2025-12-08,1,,,,,モアデイ,0
1164,5011503006800,新規,0,2025-12-08,2025-12-08,合同会社ＭｙＥｔｈｉｋ,,合同会社,東京都,北区,浮間２丁目３２番地１浮間公園内,,13,117,1150051,,,,,,,2025-12-08,1,,,,,マイエシック,0
1168,5011701029000,新規,0,2025-12-08,2025-12-08,株式会社プレーデル,,株式会社,東京都,江戸川区,松島１丁目４２番１６号,,13,123,1320031,,,,,,,2025-12-08,1,,,,,プレーデル,0
1172,5011801047158,新規,0,2025-12-08,2025-12-08,株式会社ＲＯＳＥ,,株式会社,東京都,足立区,入谷９丁目１５番４号,,13,121,1210836,,,,,,,2025-12-08,1,,,,,ローズ,0
1177,5012403007500,新規,0,2025-12-08,2025-12-08,合同会社アップグレード,,合同会社,東京都,武蔵野市,吉祥寺本町１丁目２５番３号丸ビル２Ｆ,,13,203,1800004,,,,,,,2025-12-08,1,,,,,アップグレード,0
1178,5012701019214,新規,0,2025-12-08,2025-12-08,株式会社大昌建設,,株式会社,東京都,西東京市,保谷町５丁目７番６号,,13,229,2020015,,,,,,,2025-12-08,1,,,,,ダイショウケンセツ,0
1181,5013103001512,新規,0,2025-12-08,2025-12-08,明賀タイル工業合同会社,,合同会社,東京都,西多摩郡瑞穂町,大字高根２１３番地１６,,13,303,1901203,,,,,,,2025-12-08,1,,,,,ミョウガタイルコウギョウ,0
1197,5020001165901,新規,0,2025-12-08,2025-12-08,株式会社Ｅｄｉｔｆｏｒｃｅ,,株式会社,神奈川県,横浜市神奈川区,金港町５－１４クアドリフォリオ８階,,14,102,2210056,,,,,,,2025-12-08,1,,,,,エディットフォース,0
1198,5020001166164,新規,0,2025-12-08,2025-12-08,株式会社モアデンタルラボ,,株式会社,神奈川県,横浜市中区,末吉町４丁目６８番地７階,,14,104,2310055,,,,,,,2025-12-08,1,,,,,モアデンタルラボ,0
1199,5020001166239,新規,0,2025-12-08,2025-12-08,株式会社ＴＮＲ　Ｄｅｓｉｇｎ,,株式会社,神奈川県,横浜市神奈川区,金港町５―１４クアドリフォリオ８階,,14,102,2210056,,,,,,,2025-12-08,1,,,,,ティエヌアールデザイン,0
1204,5020003029930,新規,0,2025-12-08,2025-12-08,合同会社ハイファイブ,,合同会社,神奈川県,横浜市鶴見区,下末吉５丁目３２－１７－２０１,,14,101,2300012,,,,,,,2025-12-08,1,,,,,ハイファイブ,0
1208,5021001086864,新規,0,2025-12-08,2025-12-08,株式会社ＨＥＸＡＭＯＲＩ,,株式会社,神奈川県,秦野市,鶴巻南５丁目８－４鶴巻ガーデンシティひかりの丘４号棟６０５,,14,211,2570002,,,,,,,2025-12-08,1,,,,,ヘシャモリ,0
1209,5021001086939,新規,0,2025-12-08,2025-12-08,株式会社チルットラボ,,株式会社,神奈川県,厚木市,妻田東３丁目３１番１４号リヴェール１０２,,14,212,2430813,,,,,,,2025-12-08,1,,,,,チルットラボ,0
1216,5030001170009,新規,0,2025-12-08,2025-12-08,ニコリンク株式会社,,株式会社,埼玉県,大里郡寄居町,大字牟礼１４９５番地１５,,11,408,3691215,,,,,,,2025-12-08,1,,,,,ニコリンク,0
1220,5030003028221,新規,0,2025-12-08,2025-12-08,合同会社あまてらす,,合同会社,埼玉県,入間郡毛呂山町,岩井東１丁目６番地２９,,11,326,3500467,,,,,,,2025-12-08,1,,,,,アマテラス,0
1228,5040001141628,新規,0,2025-12-08,2025-12-08,株式会社ＦＭ　ＴＲＡＤＩＮＧ　ＣＯ．,,株式会社,千葉県,松戸市,六高台９丁目４１番地六高台市営住宅１－４０２号,,12,207,2702203,,,,,,,2025-12-08,1,,,,,エフエムトレーディングコ,0
1229,5040001141644,新規,0,2025-12-08,2025-12-08,株式会社ハウス・トゥ・ハウス,,株式会社,千葉県,流山市,松ケ丘５丁目７０９番地の２９,,12,220,2700141,,,,,,,2025-12-08,1,,,,,ハウストゥハウス,0
1230,5040001141652,新規,0,2025-12-08,2025-12-08,株式会社ラストリゾート,,株式会社,千葉県,柏市,千代田３丁目８番７号,,12,217,2770025,,,,,,,2025-12-08,1,,,,,ラストリゾート,0
1231,5040001141660,新規,0,2025-12-08,2025-12-08,サムライイメージングパートナーズ株式会社,,株式会社,千葉県,千葉市中央区,弁天１丁目１５番地３リードシー千葉駅前ビルＢ１Ｆ,,12,101,2600045,,,,,,,2025-12-08,1,,,,,サムライイメージングパートナーズ,0
1232,5040001141710,新規,0,2025-12-08,2025-12-08,株式会社和創グローバル,,株式会社,千葉県,佐倉市,ユーカリが丘４丁目１番Ｓ－２１０１号,,12,212,2850858,,,,,,,2025-12-08,1,,,,,ワソウグローバル,0
1240,5040003029045,新規,0,2025-12-08,2025-12-08,合同会社アルシアス,,合同会社,千葉県,松戸市,牧の原１丁目１１２番地,,12,207,2702267,,,,,,,2025-12-08,1,,,,,アルシアス,0
1241,5040003029111,新規,0,2025-12-08,2025-12-08,合同会社夢扇,,合同会社,千葉県,市川市,大洲３丁目１５－５－５０８,,12,203,2720032,,,,,,,2025-12-08,1,,,,,ユメオオギ,0
1243,5050001057674,新規,0,2025-12-08,2025-12-08,株式会社浅野農園,,株式会社,茨城県,潮来市,小泉２１６３番地１,,08,223,3112442,,,,,,,2025-12-08,1,,,,,アサノノウエン,0
1245,5060001038814,新規,0,2025-12-08,2025-12-08,ＹＭＫ株式会社,,株式会社,栃木県,那須烏山市,小倉８１４番地,,09,215,3210528,,,,,,,2025-12-08,1,,,,,ワイエムケー,0
1248,5070001043623,新規,0,2025-12-08,2025-12-08,株式会社アクト,,株式会社,群馬県,高崎市,緑町３丁目８番地６,,10,202,3700073,,,,,,,2025-12-08,1,,,,,アクト,0
1249,5070001043631,新規,0,2025-12-08,2025-12-08,株式会社コト・ソレース,,株式会社,群馬県,太田市,飯塚町１５９８番地グレイスコートＡ－１０２号,,10,205,3730817,,,,,,,2025-12-08,1,,,,,コトソレース,0
1251,5080001027311,新規,0,2025-12-08,2025-12-08,株式会社Ｓｕｍｉｋｅｎ,,株式会社,静岡県,静岡市葵区,唐瀬１丁目１６番２５,,22,101,4200937,,,,,,,2025-12-08,1,,,,,スミケン,0
1254,5080403005402,新規,0,2025-12-08,2025-12-08,Ｌ・Ｍ　ｃｏ．合同会社,,合同会社,静岡県,浜松市中央区,田尻町４０１番地の２,,22,138,4328054,,,,,,,2025-12-08,1,,,,,エルエムコーポ,0
1258,5100001039171,新規,0,2025-12-08,2025-12-08,株式会社ＮＩＴＴＯホールディングス,,株式会社,長野県,須坂市,大字八重森２番地２,,20,207,3820903,,,,,,,2025-12-08,1,,,,,ニットーホールディングス,0
1277,5120001282538,新規,0,2025-12-08,2025-12-08,株式会社Ｒｉｃｈｅｓｓｅ,,株式会社,大阪府,大阪市中央区,本町３丁目１－１０ＰＭＯＥＸ本町１２階貸室４,,27,128,5410053,,,,,,,2025-12-08,1,,,,,リセス,0
1278,5120001282546,新規,0,2025-12-08,2025-12-08,都市鉱業株式会社,,株式会社,大阪府,大阪市中央区,南本町４丁目５－７東亜ビル５階,,27,128,5410054,,,,,,,2025-12-08,1,,,,,トシコウギョウ,0
1279,5120001282562,新規,0,2025-12-08,2025-12-08,株式会社ソースネクスト,,株式会社,大阪府,大阪市中央区,南船場１丁目５番１８号南船場第２クロスビル７０３号室,,27,128,5420081,,,,,,,2025-12-08,1,,,,,ソースネクスト,0
1284,5120003031397,新規,0,2025-12-08,2025-12-08,合同会社ＯＳＳ,,合同会社,大阪府,大阪市中央区,南船場３丁目２番２２号おおきに南船場ビル２０５,,27,128,5420081,,,,,,,2025-12-08,1,,,,,オーエスエス,0
1285,5120003031406,新規,0,2025-12-08,2025-12-08,Ｗａｑａｓ　Ｔｒａｄｉｎｇ合同会社,,合同会社,大阪府,守口市,大庭町１丁目２番４号,,27,209,5700009,,,,,,,2025-12-08,1,,,,,ワカーストレーディング,0
1288,5120101072921,新規,0,2025-12-08,2025-12-08,トータル株式会社,,株式会社,大阪府,松原市,東新町５丁目１１番２１－Ｂ号,,27,217,5800024,,,,,,,2025-12-08,1,,,,,トータル,0
1294,5120901051653,新規,0,2025-12-08,2025-12-08,株式会社ＺＥＲＯＡ,,株式会社,大阪府,豊中市,宮山町３丁目３番４６号,,27,203,5600056,,,,,,,2025-12-08,1,,,,,ゼロア,0
1295,5120901051892,新規,0,2025-12-08,2025-12-08,Ａｕｂｅ株式会社,,株式会社,大阪府,高槻市,白梅町４番８－４０１号,,27,207,5691116,,,,,,,2025-12-08,1,,,,,オーブ,0
1296,5120901051934,新規,0,2025-12-08,2025-12-08,株式会社おだやか高槻,,株式会社,大阪府,高槻市,松が丘１丁目９番３号,,27,207,5691031,,,,,,,2025-12-08,1,,,,,オダヤカタカツキ,0
1304,5130001081138,新規,0,2025-12-08,2025-12-08,株式会社赤坂商店,,株式会社,京都府,京都市上京区,室町通丸太町上る大門町２６７番地,,26,102,6028024,,,,,,,2025-12-08,1,,,,,アカサカショウテン,0
1305,5130001081170,新規,0,2025-12-08,2025-12-08,株式会社ＲＥＶＩＶＥ,,株式会社,京都府,京都市西京区,嵐山谷ケ辻子町５２番地９,00141795,26,111,6160014,,,,,,,2025-12-08,1,,,,,リバイブ,0
1308,5130003010978,新規,0,2025-12-08,2025-12-08,合同会社にじのえ,,合同会社,京都府,京都市西京区,松室吾田神町１０７番地の２,,26,111,6158202,,,,,,,2025-12-08,1,,,,,ニジノエ,0
1309,5130003010994,新規,0,2025-12-08,2025-12-08,ＡＷＡＫＩＲＡＭ合同会社,,合同会社,京都府,京都市東山区,本町７丁目１９番地２,,26,105,6050981,,,,,,,2025-12-08,1,,,,,アワキラム,0
1318,5140001141015,新規,0,2025-12-08,2025-12-08,株式会社ｎｉｃｏ　ｌａｂ,,株式会社,兵庫県,西宮市,甲子園口北町３－３－２Ｆ,,28,204,6638112,,,,,,,2025-12-08,1,,,,,ニコラボ,0
1320,5140003022907,新規,0,2025-12-08,2025-12-08,ウェルネス善正合同会社,,合同会社,兵庫県,高砂市,西畑２丁目３番１１号,,28,216,6760025,,,,,,,2025-12-08,1,,,,,ウェルネスゼンショウ,0
1325,5180001169795,新規,0,2025-12-08,2025-12-08,株式会社ｓｉｎｃｅｒｉｔｅ,,株式会社,愛知県,小牧市,大字大草字檀之上５４４６番地１,,23,219,4850802,,,,,,,2025-12-08,1,,,,,サンセリテ,0
1326,5180001169837,新規,0,2025-12-08,2025-12-08,株式会社つどう,,株式会社,愛知県,海部郡蟹江町,学戸４丁目７８番,,23,425,4970050,,,,,,,2025-12-08,1,,,,,ツドウ,0
1330,5180303006820,新規,0,2025-12-08,2025-12-08,スマイルリンク合同会社,,合同会社,愛知県,岡崎市,針崎町字宮前２０番地１,,23,202,4440827,,,,,,,2025-12-08,1,,,,,,0
1341,5220001027065,新規,0,2025-12-08,2025-12-08,株式会社スマートフル,,株式会社,石川県,能美郡川北町,字田子島１０９番地５,,17,324,9231271,,,,,,,2025-12-08,1,,,,,スマートフル,0
1347,5240001065856,新規,0,2025-12-08,2025-12-08,創八株式会社,,株式会社,広島県,呉市,仁方宮上町５番３４号,,34,202,7370146,,,,,,,2025-12-08,1,,,,,ソウヤ,0
1348,5240001065897,新規,0,2025-12-08,2025-12-08,ル・リアン株式会社,,株式会社,広島県,広島市佐伯区,美の里１丁目８番－２２号,,34,108,7315137,,,,,,,2025-12-08,1,,,,,ルリアン,0
1351,5250001021453,新規,0,2025-12-08,2025-12-08,ＡＳＭＰ株式会社,,株式会社,山口県,岩国市,周東町西長野５７９番地２,,35,208,7420425,,,,,,,2025-12-08,1,,,,,アスンプ,0
1356,5290001112364,新規,0,2025-12-08,2025-12-08,大神農園株式会社,,株式会社,福岡県,飯塚市,八木山１１１３番地,,40,205,8200047,,,,,,,2025-12-08,1,,,,,オオガミノウエン,0
1357,5290001112414,新規,0,2025-12-08,2025-12-08,株式会社ＳｋｅｔｃｈＢｏｏｋ,,株式会社,福岡県,福岡市南区,南大橋２丁目３４番４号,,40,134,8150034,,,,,,,2025-12-08,1,,,,,スケッチブック,0
1363,5290003017801,新規,0,2025-12-08,2025-12-08,合同会社ＴＫフード,,合同会社,福岡県,太宰府市,高雄１丁目３６６８－２,,40,221,8180122,,,,,,,2025-12-08,1,,,,,ティーケイ,0
1365,5290801032068,新規,0,2025-12-08,2025-12-08,株式会社ヒューマントラスト,,株式会社,福岡県,北九州市小倉南区,沼本町１丁目１－１５・２階,,40,107,8000208,,,,,,,2025-12-08,1,,,,,ヒューマントラスト,0
1366,5290801032084,新規,0,2025-12-08,2025-12-08,三通商事株式会社,,株式会社,福岡県,北九州市門司区,黒川西１丁目２番２号,,40,101,8010825,,,,,,,2025-12-08,1,,,,,ミツウショウジ,0
1367,5290803005220,新規,0,2025-12-08,2025-12-08,合同会社ＦＵＮ,,合同会社,福岡県,遠賀郡岡垣町,大字手野１１３８番地５,,40,383,8114204,,,,,,,2025-12-08,1,,,,,ファン,0
1370,5300005007278,新規,0,2025-12-08,2025-12-08,ＮＰＯ法人ＫｉｃｋＳｔａ,,その他の設立登記法人,佐賀県,小城市,三日月町堀江１５８２番地２エトワール堤Ａ２０２号,,41,208,8450031,,,,,,,2025-12-08,1,,,,,キックスタ,0
1371,5310003005134,新規,0,2025-12-08,2025-12-08,合同会社訪問介護事業所リザータ,,合同会社,長崎県,大村市,今富町６４７番地１０,,42,205,8560018,,,,,,,2025-12-08,1,,,,,ホウモンカイゴジギョウショリザータ,0
1372,5310003005142,新規,0,2025-12-08,2025-12-08,合同会社ＥＮＩＳＩＡ,,合同会社,長崎県,東彼杵郡波佐見町,長野郷２６２番地１２,,42,323,8593725,,,,,,,2025-12-08,1,,,,,エニシア,0
1373,5320001021479,新規,0,2025-12-08,2025-12-08,佐々木生コン株式会社,,株式会社,大分県,豊後高田市,佐野１４８０番地,,44,209,8790612,,,,,,,2025-12-08,1,,,,,ササキナマコン,0
1379,5330003011337,新規,0,2025-12-08,2025-12-08,合同会社ＩＯＨＭ,,合同会社,熊本県,上益城郡御船町,大字御船９１２番地７,,43,441,8613207,,,,,,,2025-12-08,1,,,,,アイオーエイチエム,0
1380,5340003005032,新規,0,2025-12-08,2025-12-08,一蒸一笑合同会社,,合同会社,鹿児島県,いちき串木野市,生福９８７４番地１６６,,46,219,8960078,,,,,,,2025-12-08,1,,,,,イチムイチエ,0
1383,5360001036110,新規,0,2025-12-08,2025-12-08,株式会社シードッグ,,株式会社,沖縄県,中頭郡嘉手納町,水釜６丁目５番１２号１Ｆ右,,47,325,9040204,,,,,,,2025-12-08,1,,,,,シードッグ,0
1388,5360003015450,新規,0,2025-12-08,2025-12-08,合同会社はいさい,,合同会社,沖縄県,石垣市,字大川２１５番地イレイアパート１Ｆ,,47,207,9070022,,,,,,,2025-12-08,1,,,,,ハイサイ,0
1400,5370003007406,新規,0,2025-12-08,2025-12-08,合同会社一生,,合同会社,宮城県,仙台市太白区,東郡山１丁目１６番２０号,,04,104,9820006,,,,,,,2025-12-08,1,,,,,イッセイ,0
1405,5380003006200,新規,0,2025-12-08,2025-12-08,合同会社フルハウス,,合同会社,福島県,いわき市,植田町中央３丁目１１－１６－１０２,,07,204,9748261,,,,,,,2025-12-08,1,,,,,フルハウス,0
1406,5380005013038,新規,0,2025-12-08,2025-12-08,特定非営利活動法人ＮＳＫ‐ＡＩＺＵ,,その他の設立登記法人,福島県,会津若松市,八角町３番１７号,,07,202,9650009,,,,,,,2025-12-08,1,,,,,エヌエスケーアイヅ,0
1413,5420005007984,新規,0,2025-12-08,2025-12-08,弁護士法人沼田・熨斗法律事務所,,その他の設立登記法人,青森県,青森市,長島２丁目１９番１１号,,02,201,0300861,,,,,,,2025-12-08,1,,,,,ヌマタノシホウリツジムショ,0
1416,5430001095818,新規,0,2025-12-08,2025-12-08,株式会社丸貴,,株式会社,北海道,札幌市東区,伏古十三条５丁目２番１号,,01,103,0070873,,,,,,,2025-12-08,1,,,,,マルタカ,0
1419,5430003018405,新規,0,2025-12-08,2025-12-08,合同会社アトム,,合同会社,北海道,札幌市南区,北ノ沢１８０３番地１８,,01,106,0050832,,,,,,,2025-12-08,1,,,,,アトム,0
1421,5470001021002,新規,0,2025-12-08,2025-12-08,株式会社ハウスグット,,株式会社,香川県,高松市,塩上町１丁目５番１８号,,37,201,7600062,,,,,,,2025-12-08,1,,,,,ハウスグット,0
1424,5500001026666,新規,0,2025-12-08,2025-12-08,Ｆｕｊｉ　Ｌｉｎｋｓ株式会社,,株式会社,愛媛県,新居浜市,船木甲４２８３番地の１,,38,205,7920856,,,,,,,2025-12-08,1,,,,,フジリンクス,0
1428,5700150133235,新規,0,2025-12-08,2025-12-08,カゴメ健康保険組合,,その他,愛知県,名古屋市中区,錦３丁目１４番１５号,,23,106,4600003,,,,,,,2025-12-08,1,,,,,カゴメケンコウホケンクミアイ,0
1432,6010001260867,新規,0,2025-12-08,2025-12-08,コバヤシファミリーオフィス株式会社,,株式会社,東京都,中央区,勝どき５丁目３番１－２０２７号,,13,102,1040054,,,,,,,2025-12-08,1,,,,,コバヤシファミリーオフィス,0
1433,6010001260883,新規,0,2025-12-08,2025-12-08,オープンビジオ株式会社,,株式会社,東京都,中央区,日本橋室町１丁目１１番１２号日本橋水野ビル７階,,13,102,1030022,,,,,,,2025-12-08,1,,,,,オープンビジオ,0
1436,6010003049326,新規,0,2025-12-08,2025-12-08,合同会社ぽぽぽえ,,合同会社,東京都,千代田区,岩本町１丁目１２－１１トーア岩本町６０３,,13,101,1010032,,,,,,,2025-12-08,1,,,,,ポポポエ,0
1440,6010101017003,新規,0,2025-12-08,2025-12-08,株式会社Ｌｕｍｉｖｅｓｔ,,株式会社,東京都,八王子市,南陽台２丁目２９番地５号,,13,201,1920371,,,,,,,2025-12-08,1,,,,,ルミベスト,0
1451,6010401194938,新規,0,2025-12-08,2025-12-08,Ｍｅｋｏｒ株式会社,,株式会社,東京都,港区,南青山７丁目１２番１６－３０６号,,13,103,1070062,,,,,,,2025-12-08,1,,,,,メコール,0
1452,6010401194946,新規,0,2025-12-08,2025-12-08,株式会社ＡｘｉＨＵＢ,,株式会社,東京都,港区,東新橋２丁目１２番１号ＰＭＯ東新橋６階,,13,103,1050021,,,,,,,2025-12-08,1,,,,,アクシブ,0
1453,6010401194979,新規,0,2025-12-08,2025-12-08,株式会社Ｓｔａｎｉｅｒ,,株式会社,東京都,港区,北青山１丁目３番１号アールキューブ青山３階,,13,103,1070061,,,,,,,2025-12-08,1,,,,,スタニア,0
1454,6010401194995,新規,0,2025-12-08,2025-12-08,株式会社リバレイトホールディング,,株式会社,東京都,港区,北青山１丁目３番１号アールキューブ青山３階,,13,103,1070061,,,,,,,2025-12-08,1,,,,,リバレイトホールディングス,0
1455,6010401195011,新規,0,2025-12-08,2025-12-08,ＺＡＰ　ＪＡＰＡＮ株式会社,,株式会社,東京都,港区,麻布台３丁目５番５－４０１号,,13,103,1060041,,,,,,,2025-12-08,1,,,,,ザップジャパン,0
1456,6010401195052,新規,0,2025-12-08,2025-12-08,株式会社双輝,,株式会社,東京都,港区,虎ノ門５丁目３番２０号仙石山アネックス１０７号,,13,103,1050001,,,,,,,2025-12-08,1,,,,,ソウキ,0
1457,6010401195060,新規,0,2025-12-08,2025-12-08,株式会社Ｄｏｌｆｙｎｎ,,株式会社,東京都,港区,虎ノ門４丁目１－１神谷町トラストタワー２３階,,13,103,1050001,,,,,,,2025-12-08,1,,,,,ドルフィン,0
1458,6010403036758,新規,0,2025-12-08,2025-12-08,合同会社ｆｌｅｕｒ,,合同会社,東京都,港区,愛宕１丁目１番１号虎ノ門ヒルズレジデンシャルタワー２１０５号室,,13,103,1050002,,,,,,,2025-12-08,1,,,,,フルール,0
1461,6010503008112,新規,0,2025-12-08,2025-12-08,合同会社Ｃｒｏｃｏ　ｄｅｌｉｖｅｒｙ,,合同会社,東京都,台東区,東上野２丁目２２－１０ダスタビル２階,,13,106,1100015,,,,,,,2025-12-08,1,,,,,クロコデリバリー,0
1463,6010603011924,新規,0,2025-12-08,2025-12-08,Ｓｅｖｅｎｔｈ　Ｓｅｎｓｅ　Ｓｙｓｔｅｍｓ合同会社,,合同会社,東京都,墨田区,千歳２丁目５番－５号,,13,107,1300025,,,,,,,2025-12-08,1,,,,,セブンスセンスシステムズ,0
1472,6010901058510,新規,0,2025-12-08,2025-12-08,株式会社仁望,,株式会社,東京都,世田谷区,用賀１丁目１５－１２－２０８,,13,112,1580097,,,,,,,2025-12-08,1,,,,,ジンボウ,0
1479,6011001173613,新規,0,2025-12-08,2025-12-08,株式会社ＮＯＭＵ,,株式会社,東京都,渋谷区,恵比寿西２丁目４番８号ウィンド恵比寿ビル８Ｆ,,13,113,1500021,,,,,,,2025-12-08,1,,,,,ノーム,0
1480,6011001174058,新規,0,2025-12-08,2025-12-08,株式会社Ｔｒｉｓｅｃ　Ｆｉｄｕｃｉａ,,株式会社,東京都,渋谷区,道玄坂１丁目１０番８号渋谷道玄坂東急ビル２Ｆ－Ｃ,,13,113,1500043,,,,,,,2025-12-08,1,,,,,トライセックフィデューシア,0
1481,6011001174066,新規,0,2025-12-08,2025-12-08,株式会社ビーコンサルティングＪＡＰＡＮ,,株式会社,東京都,目黒区,中目黒３丁目６番２号,,13,110,1530061,,,,,,,2025-12-08,1,,,,,ビーコンサルティングジャパン,0
1482,6011001174124,新規,0,2025-12-08,2025-12-08,株式会社Ａｒｃｂｒｉｄｇｅ,,株式会社,東京都,目黒区,南２丁目４－６－３０８,,13,110,1520013,,,,,,,2025-12-08,1,,,,,アークブリッジ,0
1490,6011301031108,新規,0,2025-12-08,2025-12-08,瑞光アーバンスターライフ株式会社,,株式会社,東京都,杉並区,和田３丁目２８番２号３０２,,13,115,1660012,,,,,,,2025-12-08,1,,,,,ズイコウアーバンスターライフ,0
1494,6011601029223,新規,0,2025-12-08,2025-12-08,株式会社マカナケア,,株式会社,東京都,練馬区,高松３丁目１９番２５号,,13,120,1790075,,,,,,,2025-12-08,1,,,,,マカナケア,0
1497,6011801047149,新規,0,2025-12-08,2025-12-08,清伸建設株式会社,,株式会社,東京都,葛飾区,西亀有１丁目１４番地１３号,,13,122,1240002,,,,,,,2025-12-08,1,,,,,セイシンケンセツ,0
1500,6012303002253,新規,0,2025-12-08,2025-12-08,合同会社ストアサポート,,合同会社,東京都,町田市,小野路町２９５４番地１５,,13,209,1950064,,,,,,,2025-12-08,1,,,,,ストアサポート,0
1505,6012803003940,新規,0,2025-12-08,2025-12-08,合同会社グランシステム,,合同会社,東京都,昭島市,田中町１丁目９番８９号,,13,207,1960014,,,,,,,2025-12-08,1,,,,,グランシステム,0
1510,6020001166130,新規,0,2025-12-08,2025-12-08,株式会社飯田園芸,,株式会社,神奈川県,横浜市旭区,中希望が丘４１番地,,14,112,2410825,,,,,,,2025-12-08,1,,,,,イイダエンゲイ,0
1511,6020003029913,新規,0,2025-12-08,2025-12-08,合同会社アドバンス,,合同会社,神奈川県,川崎市中原区,宮内１丁目１８－１１大場ハイツ１Ｆ,,14,133,2110051,,,,,,,2025-12-08,1,,,,,アドバンス,0
1515,6021001086921,新規,0,2025-12-08,2025-12-08,Ｙｕｎｉ株式会社,,株式会社,神奈川県,厚木市,中町２丁目５番１４－１４１７号,,14,212,2430018,,,,,,,2025-12-08,1,,,,,ユニ,0
1526,6040001141635,新規,0,2025-12-08,2025-12-08,Ａｃｅ株式会社,,株式会社,千葉県,君津市,人見５丁目４番１３号,,12,225,2991147,,,,,,,2025-12-08,1,,,,,エース,0
1527,6040001141718,新規,0,2025-12-08,2025-12-08,株式会社ＰＵＮＧＩ,,株式会社,千葉県,千葉市中央区,中央２丁目５番１号千葉中央ツインビル２号館７階ＣＨＩＢＡ－ＬＡＢＯ,,12,101,2600013,,,,,,,2025-12-08,1,,,,,プンギ,0
1530,6040003029060,新規,0,2025-12-08,2025-12-08,合同会社こゆき,,合同会社,千葉県,浦安市,日の出４丁目２番６－２２０号プラウド新浦安パークマリーナ,,12,227,2790013,,,,,,,2025-12-08,1,,,,,コユキ,0
1531,6040003029093,新規,0,2025-12-08,2025-12-08,合同会社プロシード,,合同会社,千葉県,柏市,松葉町３丁目３番地１９,,12,217,2770827,,,,,,,2025-12-08,1,,,,,プロシード,0
1532,6040003029102,新規,0,2025-12-08,2025-12-08,合同会社ＭＰＭＳ,,合同会社,千葉県,浦安市,堀江１丁目２４番２７カーサアルカディア３０３号,,12,227,2790041,,,,,,,2025-12-08,1,,,,,エムピーエムエス,0
1538,6060001038821,新規,0,2025-12-08,2025-12-08,株式会社田村建設,,株式会社,栃木県,宇都宮市,塙田２丁目３番３号ブランシエラ宇都宮４０２,,09,201,3200027,,,,,,,2025-12-08,1,,,,,タムラケンセツ,0
1546,6080001027310,新規,0,2025-12-08,2025-12-08,株式会社ｄｅｅｐ,,株式会社,静岡県,静岡市葵区,松富上組５３番地の３,,22,101,4200942,,,,,,,2025-12-08,1,,,,,ディープ,0
1547,6080001027319,新規,0,2025-12-08,2025-12-08,Ｃａｌｍ　Ｌｉｆｅ株式会社,,株式会社,静岡県,静岡市駿河区,中野新田５７番地の１１５第３コスモビル２階,,22,102,4228051,,,,,,,2025-12-08,1,,,,,カームライフ,0
1550,6080101025932,新規,0,2025-12-08,2025-12-08,スマートライフホーム株式会社,,株式会社,静岡県,富士市,中里２９４番地６,,22,210,4170826,,,,,,,2025-12-08,1,,,,,スマートライフホーム,0
1558,6100001039146,新規,0,2025-12-08,2025-12-08,株式会社ＦＯＲＥＳＴクリエイト,,株式会社,長野県,伊那市,小沢７３５２番地１,,20,209,3960032,,,,,,,2025-12-08,1,,,,,フォレストクリエイト,0
1559,6100001039179,新規,0,2025-12-08,2025-12-08,株式会社Ｋ＆Ｋ造園土木,,株式会社,長野県,駒ヶ根市,北町９番１６号,,20,210,3994111,,,,,,,2025-12-08,1,,,,,ケイアンドケイゾウエンドボク,0
1560,6100001039187,新規,0,2025-12-08,2025-12-08,Ｔｒａｖｅｌｗｉｌｄ株式会社,,株式会社,長野県,大町市,平４１５５－２９,,20,212,3980001,,,,,,,2025-12-08,1,,,,,トラベルワイルド,0
1564,6110001039772,新規,0,2025-12-08,2025-12-08,ケネリクス株式会社,,株式会社,新潟県,新潟市東区,卸新町３丁目１番７,,15,102,9500863,,,,,,,2025-12-08,1,,,,,ケネリクス,0
1567,6110003005995,新規,0,2025-12-08,2025-12-08,合同会社岩崎サービス,00141769,合同会社,新潟県,佐渡市,上長木３６２番地７,,15,224,9521305,,,,,,,2025-12-08,1,,,,,イワサキサービス,0
1576,6120001282289,新規,0,2025-12-08,2025-12-08,株式会社Ｋ‐ＨＯＭＥ,,株式会社,大阪府,大阪市城東区,中浜３丁目２６－１０（フレンドビル５Ｆ）,,27,118,5360024,,,,,,,2025-12-08,1,,,,,ケーホーム,0
1577,6120001282454,新規,0,2025-12-08,2025-12-08,株式会社ＧＡＫＵ,,株式会社,大阪府,大阪市北区,天神橋５丁目８番６号川端ビル１階,,27,127,5300041,,,,,,,2025-12-08,1,,,,,ガク,0
1578,6120001282529,新規,0,2025-12-08,2025-12-08,株式会社ＲｉＴＡ,,株式会社,大阪府,大阪市中央区,日本橋１丁目１６番２１号,,27,128,5420073,,,,,,,2025-12-08,1,,,,,リタ,0
1579,6120001282578,新規,0,2025-12-08,2025-12-08,株式会社ＤＥＣエフォート,,株式会社,大阪府,大阪市北区,梅田１丁目１番３－３２０７号,,27,127,5300001,,,,,,,2025-12-08,1,,,,,ディーイーシーエフォート,0
1581,6120003031405,新規,0,2025-12-08,2025-12-08,合同会社ＭＩＯＳ,,合同会社,大阪府,大阪市港区,磯路２丁目１１番３－２０１号,,27,107,5520003,,,,,,,2025-12-08,1,,,,,ミオス,0
1584,6120101072895,新規,0,2025-12-08,2025-12-08,株式会社グッジョブ・プロ,,株式会社,大阪府,堺市堺区,向陵中町４丁３番１５号,,27,141,5900024,,,,,,,2025-12-08,1,,,,,グッジョブプロ,0
1585,6120101072920,新規,0,2025-12-08,2025-12-08,株式会社Ａｄｖａｎｃｅ,,株式会社,大阪府,泉佐野市,岡本３丁目３番２１号,,27,213,5980036,,,,,,,2025-12-08,1,,,,,アドヴァンス,0
1587,6120103006884,新規,0,2025-12-08,2025-12-08,合同会社ミオリ,,合同会社,大阪府,岸和田市,上町２６番１１号,,27,202,5960077,,,,,,,2025-12-08,1,,,,,ミオリ,0
1603,6140001141006,新規,0,2025-12-08,2025-12-08,株式会社グレープズ,,株式会社,兵庫県,神戸市垂水区,千鳥が丘３丁目８番５６号サンシャトー千鳥が丘２０１号,,28,108,6550011,,,,,,,2025-12-08,1,,,,,グレープズ,0
1604,6140001141022,新規,0,2025-12-08,2025-12-08,株式会社ＧＤＰ,,株式会社,兵庫県,神戸市中央区,北長狭通８丁目６番１４号,,28,110,6500012,,,,,,,2025-12-08,1,,,,,ジーディーピー,0
1612,6150003003772,新規,0,2025-12-08,2025-12-08,合同会社Ｇ．Ａ．ＬＩＦＥ,,合同会社,奈良県,橿原市,八木町３丁目４番２３号,,29,205,6340078,,,,,,,2025-12-08,1,,,,,ジーエーライフ,0
1621,6180001169803,新規,0,2025-12-08,2025-12-08,株式会社ＭＯＧＵ,,株式会社,愛知県,名古屋市緑区,浦里３丁目２８７番地,,23,114,4580847,,,,,,,2025-12-08,1,,,,,モグ,0
1626,6180303006836,新規,0,2025-12-08,2025-12-08,合同会社Ｂｏｎ・Ｌｉｎａ,,合同会社,愛知県,豊田市,高上２丁目２３番地４,,23,211,4710013,,,,,,,2025-12-08,1,,,,,,0
1638,6240001065888,新規,0,2025-12-08,2025-12-08,株式会社平沢獣医科,,株式会社,広島県,呉市,本通５丁目６番１３号,,34,202,7370045,,,,,,,2025-12-08,1,,,,,ヒラサワジュウイカ,0
1657,6290003017783,新規,0,2025-12-08,2025-12-08,Ｒ＆Ｄ　Ｆｕｋｕｏｋａ合同会社,,合同会社,福岡県,福岡市中央区,平和３丁目２０番１０号,,40,133,8100016,,,,,,,2025-12-08,1,,,,,アールアンドディーフクオカ,0
1662,6330001033811,新規,0,2025-12-08,2025-12-08,株式会社Ｋａｉｒｏｓ,,株式会社,熊本県,熊本市北区,麻生田５丁目２０番３号,,43,105,8618081,,,,,,,2025-12-08,1,,,,,カイロス,0
1672,6380001035729,新規,0,2025-12-08,2025-12-08,株式会社紀修興業,,株式会社,福島県,いわき市,植田町館山１番地の６メゾン館山Ｃ,,07,204,9748261,,,,,,,2025-12-08,1,,,,,キシュウコウギョウ,0
1677,6380003006199,新規,0,2025-12-08,2025-12-08,カンノデンタルサポート合同会社,,合同会社,福島県,伊達市,霊山町中川字柳ノ内２５番地１,,07,213,9600805,,,,,,,2025-12-08,1,,,,,カンノデンタルサポート,0
1678,6380005013037,新規,0,2025-12-08,2025-12-08,特定非営利活動法人自立成長推進協会,,その他の設立登記法人,福島県,南相馬市,鹿島区南柚木字宮前３９番１号,,07,212,9792302,,,,,,,2025-12-08,1,,,,,ジリツセイチョウスイシンキョウカイ,0
1686,6430001095833,新規,0,2025-12-08,2025-12-08,株式会社山田電設,,株式会社,北海道,札幌市中央区,南六条西９丁目１０２４番地９ハイドパーク１００３号,,01,101,0640806,,,,,,,2025-12-08,1,,,,,ヤマダデンセツ,0
1689,6430003018387,新規,0,2025-12-08,2025-12-08,合同会社ｃａｒｖｅ,,合同会社,北海道,札幌市中央区,南八条西５丁目２８９－１２９インダスカル３０５号,,01,101,0640808,,,,,,,2025-12-08,1,,,,,カーブ,0
1690,6430003018404,新規,0,2025-12-08,2025-12-08,合同会社匡世,,合同会社,北海道,恵庭市,黄金中央３丁目２番地３アマン恵庭１１３号,,01,231,0611449,,,,,,,2025-12-08,1,,,,,キョウセイ,0
1693,6440001009726,新規,0,2025-12-08,2025-12-08,株式会社サラチネ,,株式会社,北海道,北斗市,飯生１丁目４番４７号,,01,236,0490161,,,,,,,2025-12-08,1,,,,,サラチネ,0
1694,6450001014799,新規,0,2025-12-08,2025-12-08,株式会社リプレゼント,,株式会社,北海道,旭川市,六条通８丁目３６番地３８第５パレスハイツ２Ｆ,,01,204,0700036,,,,,,,2025-12-08,1,,,,,リプレゼント,0
1696,6490001011223,新規,0,2025-12-08,2025-12-08,株式会社三共住宅サービス,,株式会社,高知県,高知市,南久保４番３８号,,39,201,7810087,,,,,,,2025-12-08,1,,,,,サンキョウジュウタクサービス,0
1698,6700150120694,新規,0,2025-12-08,2025-12-08,Ｓｔａｒｒｙｓｋｙ　Ｉｎｔｅｒｎａｔｉｏｎａｌ　Ｔｒａｄｅ　Ｃｏ．，Ｌｉｍｉｔｅｄ,,外国会社等,,,,,,,,ＵＮＩＴ　１８　８／Ｆ　ＰＥＴＥＲ　ＬＥＵＮＧ　ＩＮＤＵＳＴＲＩＡＬ　ＢＵＩＬＤＩＮＧ　１０３　ＷＡＩ　ＹＩＰ　ＳＴＲＥＥＴ　ＫＷＵＮ　ＴＯＮＧ　ＫＬ,,,,,,2025-12-08,1,,,,,スターリースカイインターナショナルトレードカンパニーリミテッド,0
1699,6700150133234,新規,0,2025-12-08,2025-12-08,日本金属健康保険組合,,その他,東京都,板橋区,舟渡４丁目１０番１号,,13,119,1740041,,,,,,,2025-12-08,1,,,,,ニッポンキンゾクケンコウホケンクミアイ,0
1700,6700150133242,新規,0,2025-12-08,2025-12-08,ＤＲＰ　Ｉｎｔｅｒｎａｔｉｏｎａｌ　Ｌｔｄ．，,,外国会社等,東京都,墨田区,錦糸１丁目２番１号　アルカセントラル１４階,,13,107,1300013,カナダ、オンタリオ州ハミルトン、ジェームズ・ストリート・サウス１３５、ユニット８０Ｂ,,,,,,2025-12-08,1,,,,,デイーアールピーインターナシヨナルエルテイーデイー,0
1706,7010003049639,新規,0,2025-12-08,2025-12-08,Ｅ＆Ｅ　Ｒ７合同会社,,合同会社,東京都,中央区,佃２丁目１－１－１１０８,,13,102,1040051,,,,,,,2025-12-08,1,,,,,イーアンドイーアールセブン,0
1707,7010003049663,新規,0,2025-12-08,2025-12-08,合同会社Ｂｅｌｌｐａｔｈ,,合同会社,東京都,中央区,銀座１丁目１２番４号Ｎ＆ＥＢＬＤ．６Ｆ,,13,102,1040061,,,,,,,2025-12-08,1,,,,,ベルパス,0
1709,7010101017002,新規,0,2025-12-08,2025-12-08,株式会社Ａｓｈ,,株式会社,東京都,八王子市,椚田町５１５番地５プリミエールくぬぎだＤ２０１号,,13,201,1930942,,,,,,,2025-12-08,1,,,,,アッシュ,0
1713,7010401194945,新規,0,2025-12-08,2025-12-08,株式会社ＡｘｉＨＲ,,株式会社,東京都,港区,東新橋２丁目１２番１号ＰＭＯ東新橋６階,,13,103,1050021,,,,,,,2025-12-08,1,,,,,アクシーエイチアール,0
1714,7010401194986,新規,0,2025-12-08,2025-12-08,ｓｉａａ株式会社,,株式会社,東京都,港区,六本木３丁目１６番１２号六本木ＫＳビル５Ｆ,,13,103,1060032,,,,,,,2025-12-08,1,,,,,,0
1715,7010401194994,新規,0,2025-12-08,2025-12-08,株式会社リバレイトクオンタム,,株式会社,東京都,港区,北青山１丁目３番１号アールキューブ青山３階,,13,103,1070061,,,,,,,2025-12-08,1,,,,,リバレイトクオンタム,0
1716,7010401195035,新規,0,2025-12-08,2025-12-08,株式会社モリモリ,,株式会社,東京都,港区,西新橋２丁目２２－１,,13,103,1050003,,,,,,,2025-12-08,1,,,,,モリモリ,0
1717,7010401195043,新規,0,2025-12-08,2025-12-08,株式会社シナプスケアセンター,,株式会社,東京都,港区,高輪４丁目１１番２４号ヒルズ高輪Ａ棟２０１号室,,13,103,1080074,,,,,,,2025-12-08,1,,,,,シナプスケアセンター,0
1718,7010401195051,新規,0,2025-12-08,2025-12-08,ミニャルディーズ株式会社,,株式会社,東京都,港区,南青山７丁目１番２７号,,13,103,1070062,,,,,,,2025-12-08,1,,,,,ミニャルディーズ,0
1719,7010401195068,新規,0,2025-12-08,2025-12-08,株式会社Ａｌｐｈａ　Ｆｌｏｗ,,株式会社,東京都,港区,新橋５丁目３５番６号,,13,103,1050004,,,,,,,2025-12-08,1,,,,,アルファフロー,0
1720,7010401195092,新規,0,2025-12-08,2025-12-08,株式会社ピクセルズ,,株式会社,東京都,港区,北青山１丁目３‐３三橋ビル３階,,13,103,1070061,,,,,,,2025-12-08,1,,,,,ピクセルズ,0
1722,7010403036749,新規,0,2025-12-08,2025-12-08,合同会社ＤＩＮＥＲ,,合同会社,東京都,港区,六本木７丁目１２番２号Ｒ７ビルディング７０８号,,13,103,1060032,,,,,,,2025-12-08,1,,,,,ダイナー,0
1723,7010403036757,新規,0,2025-12-08,2025-12-08,ＰａｗｓＲｅｌｉｅｆ　Ｌａｂ合同会社,,合同会社,東京都,港区,南青山３丁目１番３６号青山丸竹ビル６Ｆ,,13,103,1070062,,,,,,,2025-12-08,1,,,,,パウズリリーフラボ,0
1726,7010405025031,新規,0,2025-12-08,2025-12-08,一般社団法人予防医学研究会,,その他の設立登記法人,東京都,港区,麻布十番１丁目８－１３ＦＩＬＭ－１０、４階,,13,103,1060045,,,,,,,2025-12-08,1,,,,,ヨボウイガクケンキュウカイ,0
1730,7010603011956,新規,0,2025-12-08,2025-12-08,合同会社サカイ,,合同会社,東京都,江東区,木場３丁目４番１５－４０１号,,13,108,1350042,,,,,,,2025-12-08,1,,,,,サカイ,0
1732,7010701048685,新規,0,2025-12-08,2025-12-08,エリット株式会社,,株式会社,東京都,品川区,北品川６丁目１番１２号,,13,109,1410001,,,,,,,2025-12-08,1,,,,,エリット,0
1738,7011001174065,新規,0,2025-12-08,2025-12-08,株式会社Ｒｅｇａｌ　Ｂｌｕｅ　Ｉｎｔｅｒｎａｔｉｏｎａｌ,,株式会社,東京都,渋谷区,東３丁目１３－１１Ａ－ＰＬＡＣＥ恵比寿東９階,,13,113,1500011,,,,,,,2025-12-08,1,,,,,リーガルブルーインターナショナル,0
1739,7011001174081,新規,0,2025-12-08,2025-12-08,ＴＯＫＩ株式会社,,株式会社,東京都,渋谷区,代々木５丁目７番５号,,13,113,1510053,,,,,,,2025-12-08,1,,,,,トキ,0
1740,7011001174255,新規,0,2025-12-08,2025-12-08,ＣＴＰ　Ｃｏｎｓｕｌｔｉｎｇ＆Ｉｎｖｅｓｔｍｅｎｔ株式会社,,株式会社,東京都,渋谷区,桜丘町２２番１９号４階,,13,113,1500031,,,,,,,2025-12-08,1,,,,,シーティーピーコンサルティングアンドインベストメント,0
1741,7011001174313,新規,0,2025-12-08,2025-12-08,株式会社スナップフーズ,,株式会社,東京都,目黒区,鷹番３丁目１４番２１号アリオーソ鷹番１０１,,13,110,1520004,,,,,,,2025-12-08,1,,,,,スナップフーズ,0
1750,7011103016727,新規,0,2025-12-08,2025-12-08,Ｇｅｎｅｒｏｕｓ合同会社,,合同会社,東京都,新宿区,西新宿３丁目３番１３号西新宿水間ビル２Ｆ,,13,104,1600023,,,,,,,2025-12-08,1,,,,,ジェネラス,0
1751,7011105011668,新規,0,2025-12-08,2025-12-08,特定目的会社ＳＰＶ１６,,その他の設立登記法人,東京都,新宿区,四谷２丁目９番地１５東京ユナイテッド綜合事務所内,,13,104,1600004,,,,,,,2025-12-08,1,,,,,エスピーブイジュウロク,0
1752,7011301031107,新規,0,2025-12-08,2025-12-08,株式会社グレースプラネット,,株式会社,東京都,杉並区,高井戸西２丁目１６番８号,,13,115,1680071,,,,,,,2025-12-08,1,,,,,グレースプラネット,0
1753,7011303005793,新規,0,2025-12-08,2025-12-08,合同会社ｔｕｒｑｕｏｉｓｅ,,合同会社,東京都,杉並区,和田２丁目４０－８－ＳＰＡＺＩＯ東高円寺２０１,,13,115,1660012,,,,,,,2025-12-08,1,,,,,ターコイズ,0
1755,7011401027640,新規,0,2025-12-08,2025-12-08,株式会社アミタス,,株式会社,東京都,板橋区,常盤台４丁目６番９号,,13,119,1740071,,,,,,,2025-12-08,1,,,,,アミタス,0
1759,7011501032895,新規,0,2025-12-08,2025-12-08,株式会社Ｓ＆Ｙキャピタル,,株式会社,東京都,荒川区,荒川７丁目２０番１号,,13,118,1160002,,,,,,,2025-12-08,1,,,,,エスアンドワイキャピタル,0
1763,7011503006798,新規,0,2025-12-08,2025-12-08,合同会社渡辺博事務所,,合同会社,東京都,荒川区,荒川６丁目１９番２号,,13,118,1160002,,,,,,,2025-12-08,1,,,,,ワタナベヒロシジムショ,0
1768,7011803007224,新規,0,2025-12-08,2025-12-08,合同会社ブラーノ,,合同会社,東京都,葛飾区,白鳥４丁目３番４－８０１号ガーデンレジデンスお花茶屋,,13,122,1250063,,,,,,,2025-12-08,1,,,,,ブラーノ,0
1780,7020001166113,新規,0,2025-12-08,2025-12-08,株式会社ホロムア,,株式会社,神奈川県,横浜市中区,本牧元町５０番５２－１０７号,,14,104,2310822,,,,,,,2025-12-08,1,,,,,ホロムア,0
1781,7020001166170,新規,0,2025-12-08,2025-12-08,株式会社潤誠,,株式会社,神奈川県,横浜市南区,日枝町１丁目９番地３,,14,105,2320011,,,,,,,2025-12-08,1,,,,,ジュンセイ,0
1791,7030001169949,新規,0,2025-12-08,2025-12-08,株式会社フルアクト,,株式会社,埼玉県,川口市,大字安行領根岸５１４番地１０,,11,203,3330834,,,,,,,2025-12-08,1,,,,,フルアクト,0
1801,7040001141634,新規,0,2025-12-08,2025-12-08,株式会社栄昇,,株式会社,千葉県,習志野市,津田沼２丁目１番１０号,,12,216,2750016,,,,,,,2025-12-08,1,,,,,エイショウ,0
1802,7040001141642,新規,0,2025-12-08,2025-12-08,株式会社ＵＮＤＯ　ＢＥＡＵＴＹ,,株式会社,千葉県,習志野市,谷津７丁目５番５号ローズパーク十番館３０１号,,12,216,2750026,,,,,,,2025-12-08,1,,,,,アンドゥビューティ,0
1803,7040001141650,新規,0,2025-12-08,2025-12-08,白石商事株式会社,,株式会社,千葉県,船橋市,葛飾町２丁目４０３－５第３小森ビル３０３,,12,204,2730032,,,,,,,2025-12-08,1,,,,,シライシショウジ,0
1817,7060003005876,新規,0,2025-12-08,2025-12-08,合同会社ファースト・アロー,,合同会社,栃木県,小山市,大字大行寺１０５９番地４,,09,208,3230041,,,,,,,2025-12-08,1,,,,,ファーストアロー,0
1819,7070003006213,新規,0,2025-12-08,2025-12-08,合同会社おりーぶ,,合同会社,群馬県,北群馬郡榛東村,大字新井２３８５番地１,,10,344,3703503,,,,,,,2025-12-08,1,,,,,,0
1820,7080001027318,新規,0,2025-12-08,2025-12-08,株式会社ベルメゾン中村,,株式会社,静岡県,静岡市駿河区,八幡５丁目３２番２５号,,22,102,4228076,,,,,,,2025-12-08,1,,,,,ベルメゾンナカムラ,0
1824,7080101025948,新規,0,2025-12-08,2025-12-08,株式会社アクシス,,株式会社,静岡県,熱海市,咲見町九丁目２番熱海シティヴィラ咲見町９０１号,,22,205,4130019,,,,,,,2025-12-08,1,,,,,アクシス,0
1827,7090001019628,新規,0,2025-12-08,2025-12-08,株式会社千客万来,,株式会社,山梨県,甲府市,丸の内１丁目１７番５号,,19,201,4000031,,,,,,,2025-12-08,1,,,,,センキャクバンライ,0
1828,7100001039178,新規,0,2025-12-08,2025-12-08,虎翼興業株式会社,,株式会社,長野県,佐久市,岩村田３９２５番地８,,20,217,3850022,,,,,,,2025-12-08,1,,,,,コヨクコウギョウ,0
1843,7120001282544,新規,0,2025-12-08,2025-12-08,株式会社田中青果,,株式会社,大阪府,大阪市生野区,桃谷５丁目１０番１２号,,27,116,5440034,,,,,,,2025-12-08,1,,,,,タナカセイカ,0
1846,7120003031387,新規,0,2025-12-08,2025-12-08,ＳＯＮＧ　ＴＨＵ合同会社,,合同会社,大阪府,門真市,小路町１５－７トキワパレスＩＩ３Ａ,00141773,27,223,5710058,,,,,,,2025-12-08,1,,,,,ソントゥ,0
1847,7120003031404,新規,0,2025-12-08,2025-12-08,合同会社グラスプラン,,合同会社,大阪府,大阪市東淀川区,豊里２丁目１６番１６号,,27,114,5330013,,,,,,,2025-12-08,1,,,,,グラスプラン,0
1848,7120003031420,新規,0,2025-12-08,2025-12-08,合同会社ｅｎｚｉｎｅ　ｒｏｏｍ北浜,,合同会社,大阪府,大阪市中央区,備後町２丁目４番１４号ピカソ備後町ビル６階,,27,128,5410051,,,,,,,2025-12-08,1,,,,,エンジンルームキタハマ,0
1850,7120101072911,新規,0,2025-12-08,2025-12-08,株式会社Ｌｉｅｎ,,株式会社,大阪府,堺市南区,豊田１６５５番地,,27,145,5900106,,,,,,,2025-12-08,1,,,,,リアン,0
1851,7120105010090,新規,0,2025-12-08,2025-12-08,ＭＩＭＯＳＡ協同組合,,その他の設立登記法人,大阪府,堺市堺区,楠町３丁３番１０号ＧＯ＆ＳＯＮ・ＧＲＡＮＤ１０３号室,,27,141,5900836,,,,,,,2025-12-08,1,,,,,ミモザ,0
1854,7120901051908,新規,0,2025-12-08,2025-12-08,香不動産株式会社,,株式会社,大阪府,吹田市,岸部中４丁目１０番２号,,27,205,5640002,,,,,,,2025-12-08,1,,,,,カオリフドウサン,0
1861,7130001081169,新規,0,2025-12-08,2025-12-08,セールス・フォース株式会社,,株式会社,京都府,京都市左京区,静市野中町２５０番地７０,,26,103,6011122,,,,,,,2025-12-08,1,,,,,セールスフォース,0
1862,7130003010992,新規,0,2025-12-08,2025-12-08,ＡＰＳＧ合同会社,,合同会社,京都府,京都市南区,西九条東島町１７番地１３,,26,107,6018432,,,,,,,2025-12-08,1,,,,,エーピーエスジー,0
1865,7140001140964,新規,0,2025-12-08,2025-12-08,ＱＤＣＡＭ株式会社,,株式会社,兵庫県,神戸市中央区,京町８０番地クリエイト神戸３階,,28,110,6500034,,,,,,,2025-12-08,1,,,,,キューディーカム,0
1866,7140001141013,新規,0,2025-12-08,2025-12-08,株式会社順,,株式会社,兵庫県,神戸市須磨区,大池町４丁目１番８－１０１６号,,28,107,6540026,,,,,,,2025-12-08,1,,,,,ジュン,0
1872,7150005009742,新規,0,2025-12-08,2025-12-08,特定非営利活動法人ひとまちルリヱ,,その他の設立登記法人,奈良県,高市郡高取町,大字森４５５番地１,,29,401,6350132,,,,,,,2025-12-08,1,,,,,ヒトマチルリエ,0
1881,7170001018902,新規,0,2025-12-08,2025-12-08,コア・プラス株式会社,,株式会社,和歌山県,和歌山市,紀三井寺１０１０番地Ｄ,,30,201,6410012,,,,,,,2025-12-08,1,,,,,コアプラス,0
1887,7180001169694,新規,0,2025-12-08,2025-12-08,株式会社ミライ,,株式会社,愛知県,名古屋市中区,錦２丁目７－７プラウドタワー名古屋錦１４１３号室,,23,106,4600003,,,,,,,2025-12-08,1,,,,,ミライ,0
1892,7180303006835,新規,0,2025-12-08,2025-12-08,合同会社ＢＸＩＺ,,合同会社,愛知県,新城市,徳定３００番地,,23,221,4411353,,,,,,,2025-12-08,1,,,,,,0
1897,7190005012098,新規,0,2025-12-08,2025-12-08,特定非営利活動法人ＲＩＤＥＡＩＤ　ＪＡＰＡＮ,,その他の設立登記法人,三重県,鈴鹿市,寺家５丁目１番２７号,,24,207,5100254,,,,,,,2025-12-08,1,,,,,ライドエイドジャパン,0
1898,7200001044498,新規,0,2025-12-08,2025-12-08,株式会社ＭＩＣホールディングス,,株式会社,岐阜県,大垣市,直江町字沼２３８－１,,21,202,5030815,,,,,,,2025-12-08,1,,,,,エムアイシーホールディングス,0
1901,7220001027047,新規,0,2025-12-08,2025-12-08,株式会社ｗｉｔｈ,,株式会社,石川県,金沢市,西都１丁目１２５番地,,17,201,9208202,,,,,,,2025-12-08,1,,,,,ウィズ,0
1905,7240001065879,新規,0,2025-12-08,2025-12-08,株式会社楽習計画,,株式会社,広島県,廿日市市,宮内２丁目６番３９－７１２号,,34,213,7380034,,,,,,,2025-12-08,1,,,,,ガクシュウケイカク,0
1906,7250003003860,新規,0,2025-12-08,2025-12-08,錦水産合同会社,,合同会社,山口県,防府市,大字向島１４０３－１,,35,206,7470831,,,,,,,2025-12-08,1,,,,,ニシキスイサン,0
1910,7260003005443,新規,0,2025-12-08,2025-12-08,合同会社ＫＩＬＩＧ,,合同会社,岡山県,倉敷市,酒津２６０２番地３,,33,202,7100801,,,,,,,2025-12-08,1,,,,,キリグ,0
1918,7290001112370,新規,0,2025-12-08,2025-12-08,株式会社ＭＩＹＵＲＥＡ,,株式会社,福岡県,福岡市中央区,天神３丁目１０番３２－５０１号,,40,133,8100001,,,,,,,2025-12-08,1,,,,,ミユレア,0
1919,7290001112387,新規,0,2025-12-08,2025-12-08,株式会社ＳＡＣＲＥＤ　ＴＥＭＰＬＥ,,株式会社,福岡県,福岡市中央区,天神２丁目２番１２号７Ｆ,,40,133,8100001,,,,,,,2025-12-08,1,,,,,セイクレッドテンプル,0
1920,7290001112429,新規,0,2025-12-08,2025-12-08,株式会社加月建設,,株式会社,福岡県,久留米市,高良内町１０６１番地,,40,203,8390852,,,,,,,2025-12-08,1,,,,,カツキケンセツ,0
1924,7290003017808,新規,0,2025-12-08,2025-12-08,合同会社福利支援協会,,合同会社,福岡県,久留米市,荒木町白口３００１番地２８ツインドリーム荒木一番館８０３号,,40,203,8300062,,,,,,,2025-12-08,1,,,,,フクリシエンキョウカイ,0
1927,7290803005219,新規,0,2025-12-08,2025-12-08,福福合同会社,,合同会社,福岡県,北九州市八幡東区,西本町３丁目２番１４号ミリオンコーポラス白帆８０３号,,40,108,8050061,,,,,,,2025-12-08,1,,,,,フクフク,0
1928,7300003002386,新規,0,2025-12-08,2025-12-08,合同会社Ｇａｒａｇｅ　Ｐａｒｔｓ　Ｓｅｒｖｉｃｅ,,合同会社,佐賀県,杵島郡白石町,大字福富５０４番地,,41,425,8490401,,,,,,,2025-12-08,1,,,,,ガレージパーツサービス,0
1931,7320001021485,新規,0,2025-12-08,2025-12-08,株式会社カンザキデンキ,,株式会社,大分県,宇佐市,大字城井２４３番地の１,,44,211,8790442,,,,,,,2025-12-08,1,,,,,カンザキデンキ,0
1936,7340001027828,新規,0,2025-12-08,2025-12-08,ＭｕｓｅｅＹｏｚａｎＡｓｓｅｔ株式会社,,株式会社,鹿児島県,鹿児島市,山下町７番８号３Ｆ,,46,201,8920816,,,,,,,2025-12-08,1,,,,,ミュゼヨウザンアセット,0
1944,7370003007404,新規,0,2025-12-08,2025-12-08,合同会社ＩＴＯＥ,,合同会社,宮城県,仙台市泉区,山の寺２丁目２８番５号,,04,105,9813103,,,,,,,2025-12-08,1,,,,,イトエ,0
1957,7430001095816,新規,0,2025-12-08,2025-12-08,株式会社ミラテラス,,株式会社,北海道,札幌市中央区,南二条西３丁目１３番地４カタオカビル３Ｆ,,01,101,0600062,,,,,,,2025-12-08,1,,,,,ミラテラス,0
1958,7430001095824,新規,0,2025-12-08,2025-12-08,ＫｅｎｋｏＡｉ株式会社,,株式会社,北海道,北広島市,Ｆビレッジ２１番地Ｆビレッジメディカルスクエア１階,,01,234,0611116,,,,,,,2025-12-08,1,,,,,ケンコウエーアイ,0
1962,7430003018403,新規,0,2025-12-08,2025-12-08,合同会社Ｌａｖｉｅ,,合同会社,北海道,登別市,登別東町１丁目１２番地１６,,01,230,0590464,,,,,,,2025-12-08,1,,,,,ラヴィ,0
1963,7430003018411,新規,0,2025-12-08,2025-12-08,合同会社カズワークス,,合同会社,北海道,札幌市厚別区,もみじ台東２丁目１４番５号,,01,108,0040011,,,,,,,2025-12-08,1,,,,,カズワークス,0
1964,7440001009725,新規,0,2025-12-08,2025-12-08,株式会社末廣軒,,株式会社,北海道,北斗市,中央２丁目１番４号,,01,236,0490162,,,,,,,2025-12-08,1,,,,,スエヒロケン,0
1968,7460103001768,新規,0,2025-12-08,2025-12-08,グリーン冷媒北海道合同会社,,合同会社,北海道,帯広市,西二十三条北１丁目８番地１０,,01,207,0802463,,,,,,,2025-12-08,1,,,,,グリーンレイバイホッカイドウ,0
1970,7462501001052,新規,0,2025-12-08,2025-12-08,アクシスフィールド株式会社,,株式会社,北海道,標津郡中標津町,西町５丁目１４番地２０,,01,692,0861157,,,,,,,2025-12-08,1,,,,,アクシスフィールド,0
1971,7470001021000,新規,0,2025-12-08,2025-12-08,株式会社ＳｏｓｈｉＧ,,株式会社,香川県,高松市,寿町１丁目４番地８,,37,201,7600023,,,,,,,2025-12-08,1,,,,,,0
1972,7470001021009,新規,0,2025-12-08,2025-12-08,株式会社マルガメスライヴ,,株式会社,香川県,丸亀市,土居町３丁目１２番２７号,,37,202,7630012,,,,,,,2025-12-08,1,,,,,マルガメスライヴ,0
1975,7700150133241,新規,0,2025-12-08,2025-12-08,ＳＡＭＣＯ　ＭＯＴＯＲＳ,,外国会社等,千葉県,八街市,沖１６７０番地１４Ａ,,12,230,2891126,スリランカ民主社会主義共和国、中央州、キャンディ地区、ゴナワラ、マヒヤンガナ、Ｎｏ．４７,,,,,,2025-12-08,1,,,,,サムコモータース,0
1984,8010101017001,新規,0,2025-12-08,2025-12-08,ＣＵＣ株式会社,,株式会社,東京都,八王子市,八幡町１０番１３－６０２号,,13,201,1920053,,,,,,,2025-12-08,1,,,,,シーユーシー,0
1992,8010401194969,新規,0,2025-12-08,2025-12-08,株式会社イベントワールド,,株式会社,東京都,港区,南青山１丁目２０番２号乃木坂ビジネスコート３階３０４Ｓ号室,,13,103,1070062,,,,,,,2025-12-08,1,,,,,イベントワールド,0
1993,8010401195001,新規,0,2025-12-08,2025-12-08,Ｉｎｎｏｖａｔｉｏｎ　Ｃｏｒｅ株式会社,,株式会社,東京都,港区,麻布十番２丁目２０番７号麻布十番高木ビル１Ｆ,00141768,13,103,1060045,,,,,,,2025-12-08,1,,,,,イノベーションコア,0
1994,8010401195083,新規,0,2025-12-08,2025-12-08,水野総合産業株式会社,,株式会社,東京都,港区,白金６丁目１６番２５－３００２号,,13,103,1080072,,,,,,,2025-12-08,1,,,,,ミズノソウゴウサンギョウ,0
1995,8010403036632,新規,0,2025-12-08,2025-12-08,ソーラーキャロル合同会社,,合同会社,東京都,港区,東新橋１丁目５番２号汐留シティセンター８階,,13,103,1050021,,,,,,,2025-12-08,1,,,,,ソーラーキャロル,0
1996,8010403036748,新規,0,2025-12-08,2025-12-08,Ｍｅｉｌｉｖ合同会社,,合同会社,東京都,港区,六本木７丁目１７番１０－３１１号,,13,103,1060032,,,,,,,2025-12-08,1,,,,,メイリヴ,0
1997,8010403036764,新規,0,2025-12-08,2025-12-08,合同会社フェーズアドバンス,,合同会社,東京都,港区,北青山１丁目３番１号アールキューブ青山３階,,13,103,1070061,,,,,,,2025-12-08,1,,,,,フェーズアドバンス,0
1999,8010501055162,新規,0,2025-12-08,2025-12-08,株式会社さいとうテックプラス,,株式会社,東京都,台東区,上野１丁目１７番６号広小路ビル８Ｆ－Ｂ,,13,106,1100005,,,,,,,2025-12-08,1,,,,,サイトウテックプラス,0
2003,8010603011955,新規,0,2025-12-08,2025-12-08,合同会社ＸＩＮＳＨＩＦＴ,,合同会社,東京都,江東区,白河２丁目１４番２号ＷＯＲＫＬＡＢＥＬ清澄白河３１６号室,,13,108,1350021,,,,,,,2025-12-08,1,,,,,シンシフト,0
2008,8010701048718,新規,0,2025-12-08,2025-12-08,株式会社みちのく,,株式会社,東京都,品川区,大崎１丁目１１番２号,,13,109,1410032,,,,,,,2025-12-08,1,,,,,ミチノク,0
2011,8010801036861,新規,0,2025-12-08,2025-12-08,株式会社ナカトモ,,株式会社,東京都,大田区,池上７丁目２－７インキュベーションハウス池上,,13,111,1460082,,,,,,,2025-12-08,1,,,,,ナカトモ,0
2020,8011001173603,新規,0,2025-12-08,2025-12-08,株式会社ＰｉＴｏｌｏｇｉ,,株式会社,東京都,渋谷区,円山町５番３号ＭＩＥＵＸ渋谷ビル８階,,13,113,1500044,,,,,,,2025-12-08,1,,,,,ピトロジ,0
2021,8011001174056,新規,0,2025-12-08,2025-12-08,株式会社ＭＡＨＨＡＵＳ,,株式会社,東京都,渋谷区,道玄坂１丁目１０番８号渋谷道玄坂東急ビル２Ｆ－Ｃ,,13,113,1500043,,,,,,,2025-12-08,1,,,,,マウス,0
2022,8011001174064,新規,0,2025-12-08,2025-12-08,ＭｉｒａｉＬｉｎｋ株式会社,,株式会社,東京都,渋谷区,富ヶ谷１丁目１４番１４号３階・４階,,13,113,1510063,,,,,,,2025-12-08,1,,,,,ミライリンク,0
2023,8011001174080,新規,0,2025-12-08,2025-12-08,株式会社ＳＰＹ,,株式会社,東京都,渋谷区,道玄坂１丁目１５番３号,,13,113,1500043,,,,,,,2025-12-08,1,,,,,エスピーワイ,0
2024,8011001174221,新規,0,2025-12-08,2025-12-08,ＩＰＨＯＬＩＣ株式会社,,株式会社,東京都,渋谷区,広尾２丁目１１番２号グランクルール広尾３０１号室,,13,113,1500012,,,,,,,2025-12-08,1,,,,,アイピーホリック,0
2025,8011001174287,新規,0,2025-12-08,2025-12-08,ＷａｚａＵｐ株式会社,,株式会社,東京都,渋谷区,道玄坂１丁目１０番８号渋谷道玄坂東急ビル２Ｆ－Ｃ,,13,113,1500043,,,,,,,2025-12-08,1,,,,,ワザップ,0
2034,8011501032894,新規,0,2025-12-08,2025-12-08,株式会社優花,,株式会社,東京都,北区,浮間３丁目１番４０号,,13,117,1150051,,,,,,,2025-12-08,1,,,,,ユウカ,0
2039,8011703004477,新規,0,2025-12-08,2025-12-08,合同会社ＳＴ　ＭＵＳＩＣ,,合同会社,東京都,江戸川区,南篠崎町１丁目１２番７－１０１号アメニティ芦田マンション,,13,123,1330065,,,,,,,2025-12-08,1,,,,,エスティミュージック,0
2040,8011801047139,新規,0,2025-12-08,2025-12-08,株式会社ＣＣ,,株式会社,東京都,足立区,加賀１丁目１６－１３浅香ハイツ１０５,,13,121,1230861,,,,,,,2025-12-08,1,,,,,シーシー,0
2051,8020001166112,新規,0,2025-12-08,2025-12-08,株式会社日能研関東分割準備会社,,株式会社,神奈川県,横浜市港北区,日吉本町１丁目６番２０号,,14,109,2230062,,,,,,,2025-12-08,1,,,,,ニチノウケンカントウブンカツジュンビガイシャ,0
2054,8020003029911,新規,0,2025-12-08,2025-12-08,合同会社クルクマ,,合同会社,神奈川県,川崎市高津区,溝口３丁目１５番６号,,14,134,2130001,,,,,,,2025-12-08,1,,,,,クルクマ,0
2056,8021001086894,新規,0,2025-12-08,2025-12-08,株式会社ｎｅｗｗａｖｅｓ,,株式会社,神奈川県,鎌倉市,常盤２００ゴールドネイルＩ２０２,00141774,14,204,2480022,,,,,,,2025-12-08,1,,,,,ニューウェーブス,0
2057,8021001086936,新規,0,2025-12-08,2025-12-08,株式会社ＤＣＰ,,株式会社,神奈川県,平塚市,明石町２１番６号,,14,203,2540042,,,,,,,2025-12-08,1,,,,,ディーシーピー,0
2064,8030001169881,新規,0,2025-12-08,2025-12-08,株式会社参希工業,,株式会社,埼玉県,加須市,多門寺２６２番地１６,,11,210,3470012,,,,,,,2025-12-08,1,,,,,サンキコンギョウ,0
2065,8030001169956,新規,0,2025-12-08,2025-12-08,ＭＩＮＯＲＩ　ＥＮＴＥＲＰＲＩＳＥ株式会社,,株式会社,埼玉県,川口市,芝新町４番８号ＵＲＢＡＮＦＯＲＵＭ蕨０２６号室,,11,203,3330851,,,,,,,2025-12-08,1,,,,,ミノリエンタープライズ,0
2066,8030001170006,新規,0,2025-12-08,2025-12-08,株式会社セプエトワール,,株式会社,埼玉県,川口市,桜町６丁目１１番２５号,,11,203,3340001,,,,,,,2025-12-08,1,,,,,セプエトワール,0
2067,8030001170014,新規,0,2025-12-08,2025-12-08,株式会社雅塗装,,株式会社,埼玉県,所沢市,東所沢１丁目２０番地の９ラジカルジム３０２,,11,208,3590021,,,,,,,2025-12-08,1,,,,,ミヤビトソウ,0
2069,8030003028202,新規,0,2025-12-08,2025-12-08,合同会社ＹＡＹＡ,,合同会社,埼玉県,羽生市,大字藤井上組４０７番地５,,11,216,3480064,,,,,,,2025-12-08,1,,,,,ヤヤ,0
2070,8030003028243,新規,0,2025-12-08,2025-12-08,合同会社Ｙ，Ｔ，Ｙ　Ｆｏｒ　ｔｈｅ　Ｆｕｔｕｒｅ,,合同会社,埼玉県,蕨市,中央２丁目２５番７号,,11,223,3350004,,,,,,,2025-12-08,1,,,,,ワイティワイフォーザフューチャー,0
2072,8040001141600,新規,0,2025-12-08,2025-12-08,株式会社曙,,株式会社,千葉県,松戸市,紙敷１丁目１３－１グランディオーズ松飛台６０３,,12,207,2702221,,,,,,,2025-12-08,1,,,,,アケボノ,0
2081,8050003009794,新規,0,2025-12-08,2025-12-08,合同会社Ｇａｕｒａ　Ｓｔｙｌｅ,,合同会社,茨城県,稲敷郡阿見町,本郷１丁目１番地２０,,08,443,3001159,,,,,,,2025-12-08,1,,,,,ゴウラスタイル,0
2087,8060003005875,新規,0,2025-12-08,2025-12-08,ルミナスメディケア合同会社,,合同会社,栃木県,宇都宮市,豊郷台２丁目３５番地７,,09,201,3200003,,,,,,,2025-12-08,1,,,,,ルミナスメディケア,0
2088,8070001043629,新規,0,2025-12-08,2025-12-08,ＨＭＢ　ＴＲＡＤＩＮＧ株式会社,,株式会社,群馬県,太田市,小舞木町２３９番地１ＭＢＣ－ＶＩＩ－２２１号,00141780,10,205,3730818,,,,,,,2025-12-08,1,,,,,,0
2092,8080101025939,新規,0,2025-12-08,2025-12-08,株式会社ＣＭＴ,,株式会社,静岡県,富士宮市,黒田１２４番地の２,,22,207,4180034,,,,,,,2025-12-08,1,,,,,シーエムティー,0
2093,8080101025947,新規,0,2025-12-08,2025-12-08,株式会社ｏｍｂｌｉｇｏ‐ｍ,,株式会社,静岡県,賀茂郡東伊豆町,奈良本２４９番地の１,,22,301,4130302,,,,,,,2025-12-08,1,,,,,オンブリゴーエム,0
2094,8080403005399,新規,0,2025-12-08,2025-12-08,ＫＮ技術開発合同会社,,合同会社,静岡県,周智郡森町,中川２０７番地,,22,461,4370223,,,,,,,2025-12-08,1,,,,,ケイエヌギジュツカイハツ,0
2095,8090001019635,新規,0,2025-12-08,2025-12-08,山と風のホールディングス株式会社,,株式会社,山梨県,甲府市,丸の内１丁目１５番２号第５丸銀ビル２階,,19,201,4000031,,,,,,,2025-12-08,1,,,,,ヤマトカゼノホールディングス,0
2096,8090001019643,新規,0,2025-12-08,2025-12-08,櫻木精密株式会社,,株式会社,山梨県,北杜市,大泉町西井出８３４５番地２,,19,209,4091501,,,,,,,2025-12-08,1,,,,,サクラギセイミツ,0
2102,8110001039779,新規,0,2025-12-08,2025-12-08,株式会社サンユーパッケージ,,株式会社,新潟県,三条市,東光寺３６８９番地１,,15,204,9591104,,,,,,,2025-12-08,1,,,,,サンユーパッケージ,0
2114,8120001282519,新規,0,2025-12-08,2025-12-08,株式会社ＬＵＸ,,株式会社,大阪府,大阪市中央区,宗右衛門町１番１４号ＢＲＡＶＥ宗右衛門町ＩＩ地下１階,00141777,27,128,5420084,,,,,,,2025-12-08,1,,,,,ルクス,0
2116,8120003031403,新規,0,2025-12-08,2025-12-08,アイホームシステム合同会社,,合同会社,大阪府,枚方市,岡山手町１１番７５－２０３号,,27,210,5730034,,,,,,,2025-12-08,1,,,,,アイホームシステム,0
2117,8120003031411,新規,0,2025-12-08,2025-12-08,インビリーフ合同会社,,合同会社,大阪府,大阪市中央区,船場中央１丁目３番船場センタービル２号館南通り地上１階１３１号,,27,128,5410055,,,,,,,2025-12-08,1,,,,,インビリーフ,0
2120,8120101072902,新規,0,2025-12-08,2025-12-08,株式会社ＫＡＭＩ’Ｓカンパニー,,株式会社,大阪府,堺市東区,南野田２０２番地２,,27,143,5998124,,,,,,,2025-12-08,1,,,,,カミズカンパニー,0
2121,8120101072927,新規,0,2025-12-08,2025-12-08,株式会社リーフ,,株式会社,大阪府,泉佐野市,日根野６６５番地の５,,27,213,5980021,,,,,,,2025-12-08,1,,,,,リーフ,0
2123,8120901051915,新規,0,2025-12-08,2025-12-08,株式会社日本ビジネスセンター,,株式会社,大阪府,吹田市,南金田２丁目１４－８ルミエール江坂３０１,,27,205,5640044,,,,,,,2025-12-08,1,,,,,ニホンビジネスセンター,0
2133,8130001081135,新規,0,2025-12-08,2025-12-08,株式会社京の都,,株式会社,京都府,京都市東山区,東大路七条下る東瓦町６９０,,26,105,6050951,,,,,,,2025-12-08,1,,,,,キョウノミヤコ,0
2138,8130003010983,新規,0,2025-12-08,2025-12-08,ＫＡＫＡＲＯ合同会社,,合同会社,京都府,京都市下京区,小稲荷町８５－２Ｇｒａｎｄ－Ｋ京都駅前ビル２０１,,26,106,6008208,,,,,,,2025-12-08,1,,,,,カカロ,0
2142,8140001140996,新規,0,2025-12-08,2025-12-08,株式会社セレンディップ,,株式会社,兵庫県,川西市,花屋敷山手町１０番８号,,28,217,6660036,,,,,,,2025-12-08,1,,,,,セレンディップ,0
2145,8140003022937,新規,0,2025-12-08,2025-12-08,ミライノゲート合同会社,,合同会社,兵庫県,姫路市,豊沢町１２９番地あさひビル５０３号,,28,201,6700964,,,,,,,2025-12-08,1,,,,,ミライノゲート,0
2150,8150003003770,新規,0,2025-12-08,2025-12-08,合同会社ＫＳＨ,,合同会社,奈良県,奈良市,四条大路２丁目８１５－１,,29,201,6308014,,,,,,,2025-12-08,1,,,,,ケイエスエイチ,0
2159,8180001169792,新規,0,2025-12-08,2025-12-08,慎一株式会社,,株式会社,愛知県,名古屋市中区,栄２丁目１５番２７号シャンボール白川公園７０４号,,23,106,4600008,,,,,,,2025-12-08,1,,,,,シンイチ,0
2162,8180003029474,新規,0,2025-12-08,2025-12-08,構知創研合同会社,,合同会社,愛知県,名古屋市中区,丸の内１丁目５番７号シティタワー丸の内１００４号,,23,106,4600002,,,,,,,2025-12-08,1,,,,,コウチソウケン,0
2166,8180301040463,新規,0,2025-12-08,2025-12-08,ＢｅＦＩＲＳＴ株式会社,,株式会社,愛知県,豊橋市,松葉町２丁目６６番地２ロッキービル２階,,23,201,4400897,,,,,,,2025-12-08,1,,,,,ビーファースト,0
2170,8190001032743,新規,0,2025-12-08,2025-12-08,株式会社ＧＯＡＴＡＢＬＥ,,株式会社,三重県,名張市,赤目町長坂７０７番地２,,24,208,5180469,,,,,,,2025-12-08,1,,,,,ゴータブル,0
2172,8190003005292,新規,0,2025-12-08,2025-12-08,合同会社ＴＲ　ＥＮＴＥＲＰＲＩＳＥＳ,,合同会社,三重県,桑名市,大字和泉５１７番地,,24,205,5110838,,,,,,,2025-12-08,1,,,,,ティーアールエンタープライセス,0
2179,8220005009024,新規,0,2025-12-08,2025-12-08,特定非営利活動法人日本ホーリーバジル協会,,その他の設立登記法人,石川県,金沢市,高畠２丁目６番,,17,201,9218001,,,,,,,2025-12-08,1,,,,,ニホンホーリーバジルキョウカイ,0
2180,8230001021205,新規,0,2025-12-08,2025-12-08,和創株式会社,,株式会社,富山県,魚津市,大海寺野７２９番地７,,16,204,9370816,,,,,,,2025-12-08,1,,,,,ワソウ,0
2181,8230005009510,新規,0,2025-12-08,2025-12-08,特定非営利活動法人おおやまＭＩＲＡＩデザイン研究所,,その他の設立登記法人,富山県,富山市,上滝５０７番地１,,16,201,9301312,,,,,,,2025-12-08,1,,,,,オオヤマミライデザインケンキュウショ,0
2182,8240001065878,新規,0,2025-12-08,2025-12-08,株式会社ヴォルファート,,株式会社,広島県,廿日市市,串戸２丁目１７番５号,,34,213,7380033,,,,,,,2025-12-08,1,,,,,ヴォルファート,0
2183,8240001065894,新規,0,2025-12-08,2025-12-08,株式会社ＯＧＵＭＡ,,株式会社,広島県,福山市,駅家町近田４６１番地,,34,207,7210000,,,,,,,2025-12-08,1,,,,,オグマ,0
2188,8250001021459,新規,0,2025-12-08,2025-12-08,株式会社マインテラス,,株式会社,山口県,美祢市,美東町真名１４９４番地,,35,213,7540122,,,,,,,2025-12-08,1,,,,,マインテラス,0
2194,8270003001820,新規,0,2025-12-08,2025-12-08,合同会社トリステップ,,合同会社,鳥取県,鳥取市,気高町浜村１０－１５,,31,201,6890331,,,,,,,2025-12-08,1,,,,,トリステップ,0
2203,8290001112353,新規,0,2025-12-08,2025-12-08,株式会社Ｌｉｂｅｒｔａｓ,,株式会社,福岡県,福岡市博多区,吉塚７丁目２番８５－８０１号,,40,132,8120041,,,,,,,2025-12-08,1,,,,,リベルタス,0
2204,8290001112386,新規,0,2025-12-08,2025-12-08,株式会社福農開発,,株式会社,福岡県,福岡市早良区,有田１丁目３番１０号大産原ビル３１０号,,40,137,8140033,,,,,,,2025-12-08,1,,,,,フクノウカイハツ,0
2205,8290001112403,新規,0,2025-12-08,2025-12-08,株式会社キュレ,,株式会社,福岡県,春日市,上白水９丁目１１７番地,,40,218,8160844,,,,,,,2025-12-08,1,,,,,キュレ,0
2206,8290001112411,新規,0,2025-12-08,2025-12-08,株式会社メディカルサンクジャパン,,株式会社,福岡県,福岡市南区,弥永５丁目１５番６－１０４号,,40,134,8111323,,,,,,,2025-12-08,1,,,,,メディカルサンクジャパン,0
2212,8290801032081,新規,0,2025-12-08,2025-12-08,株式会社パシアン,,株式会社,福岡県,北九州市八幡東区,前田２丁目９番９号,,40,108,8050069,,,,,,,2025-12-08,1,,,,,パシアン,0
2213,8310001019876,新規,0,2025-12-08,2025-12-08,株式会社ＫＴＳ,,株式会社,長崎県,大村市,中里町１３１５番地１,,42,205,8560842,,,,,,,2025-12-08,1,,,,,ケーティーエス,0
2216,8320001021484,新規,0,2025-12-08,2025-12-08,株式会社豊高,,株式会社,大分県,豊後高田市,浜町６６７番地１,,44,209,8790619,,,,,,,2025-12-08,1,,,,,ブンタカ,0
2222,8340001027827,新規,0,2025-12-08,2025-12-08,株式会社トラストホーム,,株式会社,鹿児島県,鹿児島市,草牟田２丁目３５番５９号,,46,201,8900014,,,,,,,2025-12-08,1,,,,,トラストホーム,0
2225,8340003005038,新規,0,2025-12-08,2025-12-08,ＧＬＯＢＡＬ　ＥＹＥ合同会社,,合同会社,鹿児島県,日置市,伊集院町飯牟礼９０８番地１５,,46,216,8992522,,,,,,,2025-12-08,1,,,,,グローバルアイ,0
2232,8370001053275,新規,0,2025-12-08,2025-12-08,ｉｋｏグループ株式会社,,株式会社,宮城県,仙台市太白区,山田本町８番１８号,,04,104,9820816,,,,,,,2025-12-08,1,,,,,イコウグループ,0
2236,8380005013035,新規,0,2025-12-08,2025-12-08,一般社団法人福島県バレーボール協会,,その他の設立登記法人,福島県,福島市,五老内町２番１０号,,07,201,9608111,,,,,,,2025-12-08,1,,,,,フクシマケンバレーボールキョウカイ,0
2244,8430001095807,新規,0,2025-12-08,2025-12-08,株式会社サヴァイヴ,,株式会社,北海道,札幌市中央区,南五条西７丁目１０番地２,,01,101,0640805,,,,,,,2025-12-08,1,,,,,サバイブ,0
2245,8430001095815,新規,0,2025-12-08,2025-12-08,株式会社ＢＵＲＧ　ＰＬＵＳ,,株式会社,北海道,札幌市豊平区,月寒西一条７丁目１番２２号,,01,105,0620021,,,,,,,2025-12-08,1,,,,,ブルクプラス,0
2246,8430003018393,新規,0,2025-12-08,2025-12-08,合同会社アルヴェル,,合同会社,北海道,赤平市,若木町東８丁目３番地,,01,218,0791113,,,,,,,2025-12-08,1,,,,,アルヴェル,0
2250,8450001014797,新規,0,2025-12-08,2025-12-08,株式会社Ｂｌａｄｅ,,株式会社,北海道,旭川市,神居四条１３丁目２－４－２,,01,204,0708014,,,,,,,2025-12-08,1,,,,,ブレード,0
2253,8470005006665,新規,0,2025-12-08,2025-12-08,一般社団法人バイオダイバーシティ,,その他の設立登記法人,香川県,三豊市,高瀬町比地２８８０番地,,37,208,7670004,,,,,,,2025-12-08,1,,,,,バイオダイバーシティ,0
2255,8700150133240,新規,0,2025-12-08,2025-12-08,Ｖ　ＬＡＮＫＡ,,外国会社等,千葉県,山武郡横芝光町,宮川１９６７番地６８オフィス１,,12,410,2891727,スリランカ民主社会主義共和国、キャンディ、カトゥガストッタ・ロード、Ｎｏ．１６２,,,,,,2025-12-08,1,,,,,ブイランカ,0
2268,9010403036755,新規,0,2025-12-08,2025-12-08,ルイスエムエル合同会社,,合同会社,東京都,港区,浜松町１丁目２０番１０号ライオネス浜松町５０６号室,,13,103,1050013,,,,,,,2025-12-08,1,,,,,ルイスエムエル,0
2271,9010405025038,新規,0,2025-12-08,2025-12-08,ソーラーキャロルホールディングス一般社団法人,,その他の設立登記法人,東京都,港区,東新橋１丁目５番２号汐留シティセンター８階,,13,103,1050021,,,,,,,2025-12-08,1,,,,,ソーラーキャロルホールディングス,0
2277,9010801036852,新規,0,2025-12-08,2025-12-08,Ｅａｓｔ　Ｈｏｒｉｚｏｎ　Ｈｏｌｄｉｎｇｓ株式会社,,株式会社,東京都,大田区,南久が原１丁目６番１２号,,13,111,1460084,,,,,,,2025-12-08,1,,,,,イーストホライズンホールディングス,0
2280,9010901058540,新規,0,2025-12-08,2025-12-08,ＧＨＤ株式会社,,株式会社,東京都,世田谷区,桜丘４丁目１０番７号,,13,112,1560054,,,,,,,2025-12-08,1,,,,,ジーエイチディー,0
2290,9011001173478,新規,0,2025-12-08,2025-12-08,Ｈｏｇｏ株式会社,,株式会社,東京都,渋谷区,道玄坂１丁目１０番８号渋谷道玄坂東急ビル２Ｆ－Ｃ,,13,113,1500043,,,,,,,2025-12-08,1,,,,,ホゴ,0
2291,9011001173791,新規,0,2025-12-08,2025-12-08,株式会社スリーコーン,,株式会社,東京都,目黒区,下目黒１丁目１番１４号コノトラビル７Ｆ,,13,110,1530064,,,,,,,2025-12-08,1,,,,,スリーコーン,0
2292,9011001174014,新規,0,2025-12-08,2025-12-08,株式会社Ｅｎｔｅｒｏｏｔｓ,,株式会社,東京都,渋谷区,桜丘町１８－４二宮ビル１Ｆ－９０,,13,113,1500031,,,,,,,2025-12-08,1,,,,,エンタルーツ,0
2293,9011001174071,新規,0,2025-12-08,2025-12-08,株式会社ＹＯＡＪＵＮＧ　ＪＡＰＡＮ,,株式会社,東京都,渋谷区,代々木３丁目２４－３－９Ｆ,,13,113,1510053,,,,,,,2025-12-08,1,,,,,ヨアジョンジャパン,0
2294,9011001174138,新規,0,2025-12-08,2025-12-08,株式会社ＹＯ,,株式会社,東京都,渋谷区,恵比寿西２丁目４番８号ウィンド恵比寿ビル８Ｆ,,13,113,1500021,,,,,,,2025-12-08,1,,,,,ヨオ,0
2296,9011003023128,新規,0,2025-12-08,2025-12-08,Ｔｈｅ　Ｊａｐａｎｅｓｅ　Ｆａｃｔｏｒｙ合同会社,,合同会社,東京都,渋谷区,渋谷２丁目１９番１５号宮益坂ビルディング６０９,,13,113,1500002,,,,,,,2025-12-08,1,,,,,ザジャパニーズファクトリー,0
2305,9011303005791,新規,0,2025-12-08,2025-12-08,合同会社蟻ノ巣企画,,合同会社,東京都,杉並区,荻窪２丁目４１番１６号,,13,115,1670051,,,,,,,2025-12-08,1,,,,,アリノスキカク,0
2308,9011503006796,新規,0,2025-12-08,2025-12-08,ＧＰＴ合同会社,,合同会社,東京都,荒川区,南千住７丁目２４番２４－２２２号,,13,118,1160003,,,,,,,2025-12-08,1,,,,,ジーピーティー,0
2309,9011601029212,新規,0,2025-12-08,2025-12-08,株式会社ＳＯＲＴＥＶＩＡ,,株式会社,東京都,練馬区,早宮２丁目１７番２８号カーサ・プリモ５０８,,13,120,1790085,,,,,,,2025-12-08,1,,,,,ソルテヴィア,0
2310,9011703004476,新規,0,2025-12-08,2025-12-08,合同会社Ｌｅｉ,,合同会社,東京都,江戸川区,北葛西１丁目３番５号,,13,123,1340081,,,,,,,2025-12-08,1,,,,,レイ,0
2312,9011801047146,新規,0,2025-12-08,2025-12-08,株式会社ノヴァス,,株式会社,東京都,足立区,舎人３丁目４番１３号,,13,121,1210831,,,,,,,2025-12-08,1,,,,,ノヴァス,0
2313,9011801047162,新規,0,2025-12-08,2025-12-08,株式会社堀中水道,,株式会社,東京都,足立区,入谷４丁目１７番７号,,13,121,1210836,,,,,,,2025-12-08,1,,,,,ホリナカスイドウ,0
2324,9012803003938,新規,0,2025-12-08,2025-12-08,合同会社ＳｏＲａ,,合同会社,東京都,立川市,栄町４丁目９番地の１１,,13,202,1900003,,,,,,,2025-12-08,1,,,,,ソラ,0
2332,9020001165591,新規,0,2025-12-08,2025-12-08,株式会社アンビシャス,,株式会社,神奈川県,川崎市川崎区,小川町１７－１１ステーションイン１０５号室,,14,131,2100023,,,,,,,2025-12-08,1,,,,,アンビシャス,0
2333,9020001166152,新規,0,2025-12-08,2025-12-08,株式会社ＮＯ　ＢＵＬＬ,,株式会社,神奈川県,川崎市幸区,南幸町３丁目１９番地１グレース川崎ＩＶ,00141771,14,132,2120016,,,,,,,2025-12-08,1,,,,,ノーブル,0
2337,9020003029869,新規,0,2025-12-08,2025-12-08,合同会社ＹＣＹ,,合同会社,神奈川県,川崎市多摩区,三田１丁目７－２５ウィン生田レジデンス２０１,,14,135,2140034,,,,,,,2025-12-08,1,,,,,ワイシーワイ,0
2339,9020005017070,新規,0,2025-12-08,2025-12-08,一般社団法人退職給付金受給支援センター,,その他の設立登記法人,神奈川県,川崎市多摩区,登戸５０番地３,,14,135,2140014,,,,,,,2025-12-08,1,,,,,タイショクキュウフキンジュキュウシエンセンター,0
2340,9021001086935,新規,0,2025-12-08,2025-12-08,株式会社力電設,,株式会社,神奈川県,相模原市中央区,清新４丁目１３番３号,,14,152,2520216,,,,,,,2025-12-08,1,,,,,リキデンセツ,0
2345,9021003016865,新規,0,2025-12-08,2025-12-08,合同会社ＣＯＭＩＴ,,合同会社,神奈川県,厚木市,下荻野１１３９－１,,14,212,2430203,,,,,,,2025-12-08,1,,,,,コミット,0
2347,9030001169914,新規,0,2025-12-08,2025-12-08,株式会社ＭＳトラスト,,株式会社,埼玉県,越谷市,新川町２丁目４７番地,,11,222,3430852,,,,,,,2025-12-08,1,,,,,エムエストラスト,0
2348,9030001169996,新規,0,2025-12-08,2025-12-08,株式会社ＩＫＤ,,株式会社,埼玉県,所沢市,小手指町１丁目６番地小手指タワーズディアスカイタワー１５０５,,11,208,3591141,,,,,,,2025-12-08,1,,,,,アイケイディー,0
2349,9030001170013,新規,0,2025-12-08,2025-12-08,株式会社エスティービルド,,株式会社,埼玉県,ふじみ野市,桜ケ丘１丁目２３番２２号,,11,245,3560059,,,,,,,2025-12-08,1,,,,,エスティービルド,0
2355,9030003028201,新規,0,2025-12-08,2025-12-08,ＡＳＩＦ合同会社,,合同会社,埼玉県,行田市,大字長野１８２９番地３ビレッジハウス行田４－４０８,,11,206,3610023,,,,,,,2025-12-08,1,,,,,アシフ,0
2361,9040001141665,新規,0,2025-12-08,2025-12-08,株式会社紙ひこうき,,株式会社,千葉県,千葉市稲毛区,緑町１丁目２３番１１号,,12,103,2630023,,,,,,,2025-12-08,1,,,,,カミヒコウキ,0
2362,9040001141698,新規,0,2025-12-08,2025-12-08,株式会社チバエステート,,株式会社,千葉県,船橋市,上山町３丁目６０５番５２,,12,204,2730046,,,,,,,2025-12-08,1,,,,,チバエステート,0
2366,9040003028992,新規,0,2025-12-08,2025-12-08,Ｏｒｉｇｉｎａｌ　Ｉｎ　Ｔａｌｉａ合同会社,,合同会社,千葉県,流山市,南流山９丁目１０‐１,,12,220,2700163,,,,,,,2025-12-08,1,,,,,オリジナルインタリア,0
2367,9040003029066,新規,0,2025-12-08,2025-12-08,合同会社ＦＦＦ,,合同会社,千葉県,松戸市,千駄堀１０５８番地の１２,,12,207,2702252,,,,,,,2025-12-08,1,,,,,エフエフエフ,0
2368,9040003029082,新規,0,2025-12-08,2025-12-08,合同会社ＧＯＳＨＮ,,合同会社,千葉県,鎌ケ谷市,東中沢３丁目１７番４５号,,12,224,2730112,,,,,,,2025-12-08,1,,,,,ゴウシュン,0
2372,9050003009777,新規,0,2025-12-08,2025-12-08,合同会社ＺＥＮＩＴＨ　ＧＬＯＢＡＬ　ＨＯＬＤＩＮＧＳ,,合同会社,茨城県,石岡市,山崎２１０１番地１１小池住宅３号棟,,08,205,3150125,,,,,,,2025-12-08,1,,,,,ゼニスグローバルホールディングス,0
2381,9080001027316,新規,0,2025-12-08,2025-12-08,株式会社晴川,,株式会社,静岡県,島田市,道悦３丁目１５番９号,,22,209,4270019,,,,,,,2025-12-08,1,,,,,ハルカワ,0
2382,9080105006554,新規,0,2025-12-08,2025-12-08,特定非営利活動法人西伊豆みらい創造,,その他の設立登記法人,静岡県,賀茂郡西伊豆町,田子２６３４番地の１８,,22,306,4103515,,,,,,,2025-12-08,1,,,,,,0
2384,9100001039176,新規,0,2025-12-08,2025-12-08,株式会社龍巳,,株式会社,長野県,下伊那郡高森町,吉田２１９６番地２,,20,403,3993102,,,,,,,2025-12-08,1,,,,,タツミ,0
2398,9120001282534,新規,0,2025-12-08,2025-12-08,株式会社アイワ,,株式会社,大阪府,大阪市住吉区,長居西１丁目１３番２号仲谷マンション２０３号,,27,120,5580002,,,,,,,2025-12-08,1,,,,,アイワ,0
2403,9120101072926,新規,0,2025-12-08,2025-12-08,ベアーズ・コーポレーション株式会社,,株式会社,大阪府,堺市堺区,向陵中町４丁２番２０－３０３号,,27,141,5900024,,,,,,,2025-12-08,1,,,,,ベアーズコーポレーション,0
2414,9130001081183,新規,0,2025-12-08,2025-12-08,株式会社クレイズ,,株式会社,京都府,京都市下京区,小稲荷町８５番２Ｇｒａｎｄ－Ｋ京都駅前ビル２０１号,,26,106,6008208,,,,,,,2025-12-08,1,,,,,クレイズ,0
2418,9130005017530,新規,0,2025-12-08,2025-12-08,一般社団法人ハートストリングス京都,,その他の設立登記法人,京都府,長岡京市,今里細塚４番地１９,00141794,26,209,6170814,,,,,,,2025-12-08,1,,,,,ハートストリングスキョウト,0
2425,9140001140987,新規,0,2025-12-08,2025-12-08,株式会社Ｃｌａｎ,,株式会社,兵庫県,芦屋市,春日町１２－４－１０６,,28,206,6590021,,,,,,,2025-12-08,1,,,,,クラン,0
2426,9140001140995,新規,0,2025-12-08,2025-12-08,可以株式会社,,株式会社,兵庫県,芦屋市,月若町７番１９号ルナメゾン芦屋４０２号,00141779,28,206,6590084,,,,,,,2025-12-08,1,,,,,カイ,0
2427,9140001141036,新規,0,2025-12-08,2025-12-08,株式会社ココロミライ,,株式会社,兵庫県,神戸市北区,鈴蘭台東町１丁目１０番６号,,28,109,6511112,,,,,,,2025-12-08,1,,,,,ココロミライ,0
2435,9180001169800,新規,0,2025-12-08,2025-12-08,クリウムホールディングス株式会社,,株式会社,愛知県,名古屋市西区,那古野２丁目１２番２１号－１,,23,104,4510042,,,,,,,2025-12-08,1,,,,,クリウムホールディングス,0
2436,9180001169825,新規,0,2025-12-08,2025-12-08,株式会社英侑,,株式会社,愛知県,名古屋市中村区,名駅４丁目２４番５号第２森ビル４０１,,23,105,4500002,,,,,,,2025-12-08,1,,,,,エイユウ,0
2438,9180301040487,新規,0,2025-12-08,2025-12-08,株式会社プロト,,株式会社,愛知県,岡崎市,舳越町字東沖８２番地１‐２０１,,23,202,4440902,,,,,,,2025-12-08,1,,,,,プロト,0
2441,9190001032742,新規,0,2025-12-08,2025-12-08,株式会社三重リフォーム,,株式会社,三重県,四日市市,笹川２丁目６７番地,,24,202,5100944,,,,,,,2025-12-08,1,,,,,ミエリフォーム,0
2445,9200001044496,新規,0,2025-12-08,2025-12-08,株式会社ＮｅＸ‐Ｔ,,株式会社,岐阜県,羽島郡岐南町,八剣２丁目１０９番地の２,,21,302,5016012,,,,,,,2025-12-08,1,,,,,ネクスト,0
2450,9240001065877,新規,0,2025-12-08,2025-12-08,株式会社健崇ＷＯＲＫ,,株式会社,広島県,広島市中区,西川口町８番２６‐１号,,34,101,7300846,,,,,,,2025-12-08,1,,,,,ケンソウワーク,0
2451,9240001065885,新規,0,2025-12-08,2025-12-08,株式会社三原合同会計,,株式会社,広島県,三原市,宮沖２丁目９番１３号,,34,204,7230016,,,,,,,2025-12-08,1,,,,,ミハラゴウドウカイケイ,0
2453,9240003007514,新規,0,2025-12-08,2025-12-08,合同会社オルカ,,合同会社,広島県,広島市中区,住吉町２番１１－９０３号,,34,101,7300813,,,,,,,2025-12-08,1,,,,,オルカ,0
2456,9250003003859,新規,0,2025-12-08,2025-12-08,合同会社長州サーモン,,合同会社,山口県,周南市,福川１丁目１１番１１号,,35,215,7460038,,,,,,,2025-12-08,1,,,,,チョウシュウサーモン,0
2457,9260001040770,新規,0,2025-12-08,2025-12-08,株式会社ＳＷＩＴＣＨ　ＷＯＲＫＳ,,株式会社,岡山県,岡山市中区,八幡７３番地,,33,102,7038254,,,,,,,2025-12-08,1,,,,,スイッチワークス,0
2465,9290001112369,新規,0,2025-12-08,2025-12-08,株式会社おいさ,,株式会社,福岡県,福岡市博多区,住吉５丁目１６番１号,,40,132,8120018,,,,,,,2025-12-08,1,,,,,オイサ,0
2466,9290001112402,新規,0,2025-12-08,2025-12-08,株式会社中村もぉたぁす,,株式会社,福岡県,糟屋郡志免町,南里２丁目２５番１５号,,40,343,8112207,,,,,,,2025-12-08,1,,,,,ナカムラモォタァス,0
2467,9290001112419,新規,0,2025-12-08,2025-12-08,株式会社ティファ,,株式会社,福岡県,福岡市博多区,東比恵２丁目１２番１２－５０１号,,40,132,8120007,,,,,,,2025-12-08,1,,,,,ティファ,0
2470,9290003017789,新規,0,2025-12-08,2025-12-08,合同会社むちょすコーヒー,,合同会社,福岡県,福岡市南区,大橋４丁目１６－４１－１０１,,40,134,8150033,,,,,,,2025-12-08,1,,,,,ムチョスコーヒー,0
2471,9290003017797,新規,0,2025-12-08,2025-12-08,ＴＳＵＮＡＧＵ合同会社,,合同会社,福岡県,福岡市中央区,大名１丁目８番２５号,,40,133,8100041,,,,,,,2025-12-08,1,,,,,ツナグ,0
2473,9290801032080,新規,0,2025-12-08,2025-12-08,株式会社ＫＣＣ,,株式会社,福岡県,北九州市八幡西区,夕原町１０番９号,,40,109,8070813,,,,,,,2025-12-08,1,,,,,ケーシーシー,0
2474,9290803005217,新規,0,2025-12-08,2025-12-08,合同会社アドバンス,,合同会社,福岡県,北九州市小倉北区,足原１丁目１２番６－２０２号,,40,106,8020043,,,,,,,2025-12-08,1,,,,,アドバンス,0
2476,9290805009884,新規,0,2025-12-08,2025-12-08,曽根・北九州東部漁業協同組合,,その他の設立登記法人,福岡県,北九州市小倉南区,曽根新田北３丁目１３番７号,,40,107,8000219,,,,,,,2025-12-08,1,,,,,ソネキタキュウシュウトウブ,0
2479,9340001027826,新規,0,2025-12-08,2025-12-08,株式会社リアン,,株式会社,鹿児島県,鹿屋市,野里町９１５番地６,,46,203,8930055,,,,,,,2025-12-08,1,,,,,リアン,0
2481,9340003005037,新規,0,2025-12-08,2025-12-08,合同会社Ｃａｒｅ　Ｃｏｍｍｕｎｉｃａｔｉｏｎ,,合同会社,鹿児島県,鹿児島市,下伊敷２丁目３１番３号第６コーポ幸Ｂ棟２号,,46,201,8900005,,,,,,,2025-12-08,1,,,,,ケアコミュニケーション,0
2488,9370001053299,新規,0,2025-12-08,2025-12-08,株式会社セブンティセブンズ,,株式会社,宮城県,仙台市太白区,西の平１丁目１０番５号,,04,104,9820825,,,,,,,2025-12-08,1,,,,,セブンティセブンズ,0
2493,9380001035726,新規,0,2025-12-08,2025-12-08,株式会社新横向高原リゾート,,株式会社,福島県,耶麻郡猪苗代町,大字若宮字吾妻山国有林１９４林班,,07,408,9692751,,,,,,,2025-12-08,1,,,,,シンヨコムキコウゲンリゾート,0
2497,9420001019360,新規,0,2025-12-08,2025-12-08,株式会社企画広告Ｐａｒａｌｌｅｌ,,株式会社,青森県,青森市,長島４丁目２０番７号,,02,201,0300861,,,,,,,2025-12-08,1,,,,,キカクコウコクパラレル,0
2504,9430003018376,新規,0,2025-12-08,2025-12-08,合同会社暦,,合同会社,北海道,札幌市西区,発寒十二条１丁目１－１５リーセント発寒４０７号室,,01,107,0630832,,,,,,,2025-12-08,1,,,,,コヨミ,0
