sequenceNumber,corporateNumber,process,correct,updateDate,changeDate,name,nameImageId,kind,prefectureName,cityName,streetNumber,addressImageId,prefectureCode,cityCode,postCode,addressOutside,addressOutsideImageId,closeDate,closeCause,successorCorporateNumber,changeCause,assignmentDate,latest,enName,enPrefectureName,enCityName,enAddressOutside,furigana,hihyoji
8,1010003044612,新規,0,2024-08-29,2024-08-29,田中商店合同会社,,合同会社,東京都,中央区,新川１丁目２７番１０－４０５号,,13,102,1040033,,,,,,,2024-08-29,1,,,,,タナカショウテン,0
10,1010005038728,新規,0,2024-08-29,2024-08-29,エラブルインフラファンドホールディングス一般社団法人,,その他の設立登記法人,東京都,千代田区,麹町２丁目８番地ＭＬＣ麹町ビル４階フィンポート税理士法人内,,13,101,1020083,,,,,,,2024-08-29,1,,,,,エラブルインフラファンドホールディングス,0
19,1010401184786,新規,0,2024-08-29,2024-08-29,株式会社マルカイＡｓｓｅｔＭａｎａｇｅｍｅｎｔ,,株式会社,東京都,港区,虎ノ門１丁目１７番１号虎ノ門ヒルズビジネスタワー１５階,,13,103,1050001,,,,,,,2024-08-29,1,,,,,マルカイアセットマネジメント,0
20,1010401184803,新規,0,2024-08-29,2024-08-29,株式会社Ｅｍｅｍａｈ,,株式会社,東京都,港区,元麻布３丁目１―６,,13,103,1060046,,,,,,,2024-08-29,1,,,,,エメマ,0
22,1010501052744,新規,0,2024-08-29,2024-08-29,ＴＢ　Ｐｌａｎｎｉｎｇ株式会社,,株式会社,東京都,台東区,花川戸１丁目１３－１５ＳＣＲビル６Ｂ号室,,13,106,1110033,,,,,,,2024-08-29,1,,,,,ティービープランニング,0
23,1010501052835,新規,0,2024-08-29,2024-08-29,スカイシス株式会社,,株式会社,東京都,台東区,台東１丁目２４番９号ブライト秋葉原Ｂ１Ｆ,,13,106,1100016,,,,,,,2024-08-29,1,,,,,スカイシス,0
25,1010605004369,新規,0,2024-08-29,2024-08-29,特定非営利活動法人日本わくわくキッズ実行委員会,,その他の設立登記法人,東京都,墨田区,両国２丁目１８番４号パラッツォ１０１,,13,107,1300026,,,,,,,2024-08-29,1,,,,,ニホンワクワクキッズジッコウイインカイ,0
32,1010701046455,新規,0,2024-08-29,2024-08-29,株式会社ｉｎｆｉｎｉｔｅｅｅ,,株式会社,東京都,品川区,東五反田２丁目５番２号,,13,109,1410022,,,,,,,2024-08-29,1,,,,,インフィニティー,0
33,1010701046471,新規,0,2024-08-29,2024-08-29,株式会社ＪＲＣ,,株式会社,東京都,品川区,南品川４丁目１５番５‐５０３号,,13,109,1400004,,,,,,,2024-08-29,1,,,,,ジェイアールシー,0
40,1010901055867,新規,0,2024-08-29,2024-08-29,株式会社アンコール,,株式会社,東京都,世田谷区,上北沢４丁目３３番２１号ヴィラロンド４１７,,13,112,1560057,,,,,,,2024-08-29,1,,,,,アンコール,0
41,1010901055883,新規,0,2024-08-29,2024-08-29,株式会社ＣＩＴＹＢＯＹ,,株式会社,東京都,世田谷区,世田谷４丁目３－２５－３０２,,13,112,1540017,,,,,,,2024-08-29,1,,,,,シティーボーイ,0
44,1010903009326,新規,0,2024-08-29,2024-08-29,Ｚｅｕｒｏｏ合同会社,,合同会社,東京都,世田谷区,弦巻５丁目１１番９号,,13,112,1540016,,,,,,,2024-08-29,1,,,,,ゼウロー,0
50,1011001164261,新規,0,2024-08-29,2024-08-29,株式会社ｅｎｃｅｒ,,株式会社,東京都,渋谷区,道玄坂１丁目１０番８号渋谷道玄坂東急ビル２Ｆ－Ｃ,,13,113,1500043,,,,,,,2024-08-29,1,,,,,エンサー,0
51,1011001164352,新規,0,2024-08-29,2024-08-29,株式会社Ｌｕｃｋ　Ｖｉｌｌａｇｅ　Ａｇｅｎｃｙ　Ｓｅｒｖｉｃｅ,,株式会社,東京都,目黒区,自由が丘２丁目１６番１２号ＲＪ３,,13,110,1520035,,,,,,,2024-08-29,1,,,,,ラックヴィレッジエージェンシーサービス,0
62,1011401026383,新規,0,2024-08-29,2024-08-29,株式会社ｔ．ａ．ｃ．ｔ．,,株式会社,東京都,板橋区,蓮根２丁目２５番９号,,13,119,1740046,,,,,,,2024-08-29,1,,,,,ティーエーシーティー,0
64,1011501031085,新規,0,2024-08-29,2024-08-29,花の田株式会社,,株式会社,東京都,荒川区,町屋３丁目１８番１２号ＮＤビル２１９,,13,118,1160001,,,,,,,2024-08-29,1,,,,,ハナノタ,0
65,1011501031093,新規,0,2024-08-29,2024-08-29,株式会社ａｎｉｐｌｕｓ,,株式会社,東京都,荒川区,町屋３丁目３番１１号ＡＮ・ウィステリアＩＩ１０２,00136107,13,118,1160001,,,,,,,2024-08-29,1,,,,,アニプラス,0
68,1011701027577,新規,0,2024-08-29,2024-08-29,株式会社Ｓｈｉｍｙｙｙ’ｓ,,株式会社,東京都,江戸川区,東葛西１丁目５番２－６１５号,,13,123,1340084,,,,,,,2024-08-29,1,,,,,シミーズ,0
72,1013301053045,新規,0,2024-08-29,2024-08-29,株式会社ビーザワンテクノロジー,,株式会社,東京都,豊島区,東池袋１丁目１８番１号ハレザタワー２０Ｆ,,13,116,1700013,,,,,,,2024-08-29,1,,,,,ビーザワンテクノロジー,0
82,1020001158909,新規,0,2024-08-29,2024-08-29,株式会社ＴＯＢＥ,,株式会社,神奈川県,横浜市西区,戸部町３丁目８３,,14,103,2200042,,,,,,,2024-08-29,1,,,,,トゥービー,0
83,1020001158917,新規,0,2024-08-29,2024-08-29,株式会社Ｂｌｕｅｔｅｃｈ,,株式会社,神奈川県,横浜市磯子区,丸山１丁目９番１号,,14,107,2350011,,,,,,,2024-08-29,1,,,,,ブルーテック,0
92,1021001083089,新規,0,2024-08-29,2024-08-29,株式会社ＬＩＢ,,株式会社,神奈川県,座間市,相模が丘３丁目４８番９－２０２号,,14,216,2520001,,,,,,,2024-08-29,1,,,,,エルアイビー,0
93,1021001083122,新規,0,2024-08-29,2024-08-29,株式会社ＬＶ‐ＣＯＮ,,株式会社,神奈川県,伊勢原市,高森９７－１,,14,214,2591114,,,,,,,2024-08-29,1,,,,,レベコン,0
95,1021003014892,新規,0,2024-08-29,2024-08-29,合同会社リズハウス,,合同会社,神奈川県,藤沢市,辻堂４丁目２番２５号,,14,205,2510047,,,,,,,2024-08-29,1,,,,,リズハウス,0
102,1030001162182,新規,0,2024-08-29,2024-08-29,ポールポジションカーズ株式会社,,株式会社,埼玉県,比企郡吉見町,大字田甲１０４４番地６,,11,347,3550167,,,,,,,2024-08-29,1,,,,,ポールポジションカーズ,0
103,1030001162199,新規,0,2024-08-29,2024-08-29,株式会社城戸型枠工業,,株式会社,埼玉県,川口市,前川４丁目９番９－１号,,11,203,3330842,,,,,,,2024-08-29,1,,,,,キドカタワクコウギョウ,0
104,1030001162224,新規,0,2024-08-29,2024-08-29,金路株式会社,,株式会社,埼玉県,川口市,戸塚東１丁目２６番地８号アンビシャス東川口３０２室,,11,203,3330802,,,,,,,2024-08-29,1,,,,,キンロ,0
108,1030003025008,新規,0,2024-08-29,2024-08-29,合同会社アークス,,合同会社,埼玉県,川越市,大字藤間５４９番地３,,11,201,3501142,,,,,,,2024-08-29,1,,,,,アークス,0
113,1040001135179,新規,0,2024-08-29,2024-08-29,アールエムシー株式会社,,株式会社,千葉県,大網白里市,大網３６０７番地,,12,239,2993251,,,,,,,2024-08-29,1,,,,,アールエムシー,0
116,1040005022480,新規,0,2024-08-29,2024-08-29,ＮＰＯ法人子どもオアシス光月荘,,その他の設立登記法人,千葉県,千葉市緑区,おゆみ野中央４丁目７番地１１,,12,105,2660032,,,,,,,2024-08-29,1,,,,,コドモオアシスコウゲツソウ,0
119,1050001055327,新規,0,2024-08-29,2024-08-29,ＦＫ　ＴＲＡＤＩＮＧ株式会社,,株式会社,茨城県,古河市,水海２３７８番地４,,08,204,3060215,,,,,,,2024-08-29,1,,,,,エフケイトレイディング,0
120,1050001055335,新規,0,2024-08-29,2024-08-29,株式会社Ｕ．Ｅ,,株式会社,茨城県,つくば市,上郷３３１５番地,,08,220,3002645,,,,,,,2024-08-29,1,,,,,ユーイー,0
122,1050003008638,新規,0,2024-08-29,2024-08-29,ＳＵＦＩ　ＴＲＡＤＩＮＧ合同会社,,合同会社,茨城県,下妻市,鎌庭３９８－３,,08,210,3040819,,,,,,,2024-08-29,1,,,,,スフィトレーディング,0
123,1050003008646,新規,0,2024-08-29,2024-08-29,合同会社トロワ,,合同会社,茨城県,水戸市,見川町２５６３番地の１２２６,,08,201,3100913,,,,,,,2024-08-29,1,,,,,トロワ,0
130,1080001026465,新規,0,2024-08-29,2024-08-29,株式会社トビセイ,,株式会社,静岡県,静岡市清水区,神田町４番５２号,,22,103,4240852,,,,,,,2024-08-29,1,,,,,トビセイ,0
132,1080101024971,新規,0,2024-08-29,2024-08-29,株式会社エムズランド,,株式会社,静岡県,熱海市,熱海１７３９－３４－２４０２,,22,205,4130033,,,,,,,2024-08-29,1,,,,,エムズランド,0
140,1120001268111,新規,0,2024-08-29,2024-08-29,株式会社宙,,株式会社,大阪府,大阪市中央区,島之内２丁目２－２０－２０７,,27,128,5420082,,,,,,,2024-08-29,1,,,,,チュウ,0
141,1120001268136,新規,0,2024-08-29,2024-08-29,韓芸株式会社,,株式会社,大阪府,大阪市中央区,島之内２丁目８番２９－３０２号,,27,128,5420082,,,,,,,2024-08-29,1,,,,,カンゲイ,0
142,1120001268193,新規,0,2024-08-29,2024-08-29,株式会社ＳＢ　ＯＮＥ,,株式会社,大阪府,大阪市中央区,常盤町２丁目２番２６号１階,,27,128,5400028,,,,,,,2024-08-29,1,,,,,エスビーワン,0
144,1120003027408,新規,0,2024-08-29,2024-08-29,合同会社酒丸,,合同会社,大阪府,大阪市西淀川区,御幣島３丁目８番２２号,,27,113,5550012,,,,,,,2024-08-29,1,,,,,サカマル,0
145,1120003027416,新規,0,2024-08-29,2024-08-29,合同会社Ｋ‐ＣＲＥＷ．ｃｏｍｐａｎｙ,,合同会社,大阪府,大阪市東成区,中本２丁目１０番１３号,,27,115,5370022,,,,,,,2024-08-29,1,,,,,ケイクルーカンパニー,0
146,1120003027432,新規,0,2024-08-29,2024-08-29,合同会社沖縄ファンド,,合同会社,大阪府,大阪市中央区,南船場２丁目８番１１号,,27,128,5420081,,,,,,,2024-08-29,1,,,,,オキナワファンド,0
148,1120101070210,新規,0,2024-08-29,2024-08-29,泉州梅田交通株式会社,,株式会社,大阪府,泉北郡忠岡町,忠岡東３丁目６番１０号,,27,341,5950805,,,,,,,2024-08-29,1,,,,,センシュウウメダコウツウ,0
149,1120101070219,新規,0,2024-08-29,2024-08-29,株式会社ＬＣ　ｇｒｏｕｐ,,株式会社,大阪府,堺市北区,長曽根町３０７９－２０,,27,146,5918025,,,,,,,2024-08-29,1,,,,,エルシーグループ,0
155,1130001077825,新規,0,2024-08-29,2024-08-29,稲本工業株式会社,,株式会社,京都府,京都市右京区,西院巽町５番地１メゾン春日２０２,,26,108,6150014,,,,,,,2024-08-29,1,,,,,イナモトコウギョウ,0
156,1130001077833,新規,0,2024-08-29,2024-08-29,株式会社Ｇｒｏｐｕｓ,,株式会社,京都府,京都市南区,東九条東山王町１７－２,,26,107,6018004,,,,,,,2024-08-29,1,,,,,グローパス,0
162,1140001135656,新規,0,2024-08-29,2024-08-29,インカムプライム株式会社,,株式会社,兵庫県,姫路市,飯田３丁目９９番地１５,,28,201,6700974,,,,,,,2024-08-29,1,,,,,インカムプライム,0
165,1150001027530,新規,0,2024-08-29,2024-08-29,株式会社光和電気,,株式会社,奈良県,葛城市,八川１１２番地２,,29,211,6392163,,,,,,,2024-08-29,1,,,,,コウワデンキ,0
172,1180001163042,新規,0,2024-08-29,2024-08-29,テラナスカ株式会社,,株式会社,愛知県,愛西市,六輪町塩川６５９番地３,,23,232,4968010,,,,,,,2024-08-29,1,,,,,テラナスカ,0
173,1180001163050,新規,0,2024-08-29,2024-08-29,ＨＴ．ＢＲＯＴＨＥＲＳ　ＩＮＴＥＲＮＡＴＩＯＮＡＬ株式会社,,株式会社,愛知県,岩倉市,中央町２丁目３８番地,,23,228,4820023,,,,,,,2024-08-29,1,,,,,エイチティブラザーズインターナショナル,0
178,1180301039000,新規,0,2024-08-29,2024-08-29,株式会社光誠,,株式会社,愛知県,岡崎市,宇頭町字後久１７番地１２,,23,202,4440905,,,,,,,2024-08-29,1,,,,,コウセイ,0
182,1180303006246,新規,0,2024-08-29,2024-08-29,合同会社Ｏａｋ,,合同会社,愛知県,豊田市,御幸本町７丁目３０３ー６ー１０２,,23,211,4730901,,,,,,,2024-08-29,1,,,,,オーク,0
186,1200001042862,新規,0,2024-08-29,2024-08-29,株式会社ＡＲＴＩＳＴＩＣ＆ＣＯ．　ＩＰ　ＭＡＮＡＧＥＭＥＮＴ,,株式会社,岐阜県,岐阜市,高田３丁目１５－９,,21,201,5008224,,,,,,,2024-08-29,1,,,,,アーティスティックアンドシーオーアイピーマネジメント,0
187,1200001042870,新規,0,2024-08-29,2024-08-29,Ｌｕｃｅ　ｄ’ａｍｏｒｅ株式会社,,株式会社,岐阜県,岐阜市,野一色２丁目５番１５号,,21,201,5008226,,,,,,,2024-08-29,1,,,,,ルーチェダモーレ,0
200,1260001039408,新規,0,2024-08-29,2024-08-29,株式会社ＦＡＭＩＬＩＡＲ,,株式会社,岡山県,倉敷市,真備町箭田３８３１番地７,,33,202,7101301,,,,,,,2024-08-29,1,,,,,ファミリア,0
201,1270005005611,新規,0,2024-08-29,2024-08-29,一般社団法人淀江ロマン遺跡回廊,,その他の設立登記法人,鳥取県,米子市,淀江町淀江８２２番地２,,31,202,6893402,,,,,,,2024-08-29,1,,,,,ヨドエロマンイセキカイロウ,0
208,1290001107070,新規,0,2024-08-29,2024-08-29,株式会社ウエストライン,,株式会社,福岡県,久留米市,西町１１３２番地１０サンリヤン花畑Ｉ１２０５号,00136106,40,203,8300038,,,,,,,2024-08-29,1,,,,,ウエストライン,0
217,1360001034126,新規,0,2024-08-29,2024-08-29,株式会社Ｔａｄａｙｏｓｈｉ,,株式会社,沖縄県,宜野湾市,野嵩２丁目１３－１－２０１,,47,205,9012203,,,,,,,2024-08-29,1,,,,,タダヨシ,0
218,1360003014266,新規,0,2024-08-29,2024-08-29,合同会社ガジュマール,,合同会社,沖縄県,豊見城市,字豊崎１－１１７９Ｆステージ豊崎リバーフロント１２０８号室,,47,212,9010225,,,,,,,2024-08-29,1,,,,,ガジュマール,0
220,1360005007094,新規,0,2024-08-29,2024-08-29,ＮＰＯ法人ＥＮ,,その他の設立登記法人,沖縄県,南城市,知念字久手堅９３番地,,47,215,9011511,,,,,,,2024-08-29,1,,,,,エン,0
230,1430001092546,新規,0,2024-08-29,2024-08-29,株式会社北海道ステーブルマン,,株式会社,北海道,岩見沢市,栗沢町上幌１９０８番地,,01,210,0680112,,,,,,,2024-08-29,1,,,,,ホッカイドウステーブルマン,0
231,1430001092562,新規,0,2024-08-29,2024-08-29,株式会社ＧｏｏｄＡｎｓｗｅｒｓ,,株式会社,北海道,札幌市西区,発寒十一条６丁目３番１３号,,01,107,0630831,,,,,,,2024-08-29,1,,,,,グッドアンサーズ,0
237,1500001025853,新規,0,2024-08-29,2024-08-29,株式会社ｖｐａ,,株式会社,愛媛県,松山市,北条辻１４１０番地８,00136116,38,201,7992430,,,,,,,2024-08-29,1,,,,,ブイピーエー,0
239,1700150126936,新規,0,2024-08-29,2024-08-29,ＡＬＩＺＡＲ　ＴＲＡＤＥＲＳ,,外国会社等,神奈川県,厚木市,妻田東３丁目２３番５号ガヴァナーズアームスＡ－２０１,,14,212,2430813,スリランカ民主社会主義共和国、キリンディエラ、キャンディロード、Ｎｏ．３６４,,,,,,2024-08-29,1,,,,,アライザートレーダーズ,0
243,2010001247827,新規,0,2024-08-29,2024-08-29,ＭａｒｓＲｅｎｅｗａｂｌｅＪａｐａｎ株式会社,,株式会社,東京都,千代田区,丸の内２丁目２番１号,,13,101,1000005,,,,,,,2024-08-29,1,,,,,マーズリニューアブルジャパン,0
246,2010103002411,新規,0,2024-08-29,2024-08-29,合同会社ＦＡＳ,,合同会社,東京都,八王子市,片倉町２５８７番地９,,13,201,1920914,,,,,,,2024-08-29,1,,,,,ファス,0
252,2010401184686,新規,0,2024-08-29,2024-08-29,株式会社ＡＳＡ　ＧＬＯＢＡＬ　Ｈｏｌｄｉｎｇｓ,,株式会社,東京都,港区,虎ノ門２丁目１０番４号,,13,103,1050001,,,,,,,2024-08-29,1,,,,,エーエスエーグローバルホールディングス,0
253,2010401184752,新規,0,2024-08-29,2024-08-29,Ｒｅｄａｒｅ株式会社,,株式会社,東京都,港区,南青山３丁目１番３６号青山丸竹ビル６Ｆ,,13,103,1070062,,,,,,,2024-08-29,1,,,,,リデア,0
254,2010401184802,新規,0,2024-08-29,2024-08-29,株式会社クレーリナ,,株式会社,東京都,港区,芝公園２丁目６番１５号,,13,103,1050011,,,,,,,2024-08-29,1,,,,,クレーリナ,0
260,2010403033288,新規,0,2024-08-29,2024-08-29,合同会社Ｓグリーンインフィニティ,,合同会社,東京都,港区,愛宕１丁目６番８号,,13,103,1050002,,,,,,,2024-08-29,1,,,,,エスグリーンインフィニティ,0
269,2010501052834,新規,0,2024-08-29,2024-08-29,瑞祥栄株式会社,,株式会社,東京都,台東区,台東２丁目６番６号,,13,106,1100016,,,,,,,2024-08-29,1,,,,,ズイショウエイ,0
282,2010901055874,新規,0,2024-08-29,2024-08-29,株式会社Ｋａｉｔ,,株式会社,東京都,世田谷区,等々力８丁目１番５号,,13,112,1580082,,,,,,,2024-08-29,1,,,,,カイト,0
288,2011001164129,新規,0,2024-08-29,2024-08-29,株式会社Ｍｉｍｏｎ,,株式会社,東京都,渋谷区,道玄坂１丁目１０番８号渋谷道玄坂東急ビル２Ｆ‐Ｃ,,13,113,1500043,,,,,,,2024-08-29,1,,,,,ミモン,0
289,2011001164244,新規,0,2024-08-29,2024-08-29,立青山風株式会社,,株式会社,東京都,渋谷区,富ヶ谷１丁目１４－１４スタンフォードアネックスビル３Ｆ・４Ｆ,,13,113,1510063,,,,,,,2024-08-29,1,,,,,リッショウサンフウ,0
290,2011001164351,新規,0,2024-08-29,2024-08-29,エスユー株式会社,,株式会社,東京都,渋谷区,神宮前２丁目３３番８号原宿ビューパレー１００１号,,13,113,1500001,,,,,,,2024-08-29,1,,,,,エスユー,0
293,2011103014834,新規,0,2024-08-29,2024-08-29,合同会社Ｃｌｅｍａｔｈｙｓ,,合同会社,東京都,新宿区,西新宿３丁目７番２６号ハイネスロワイヤル６０５,,13,104,1600023,,,,,,,2024-08-29,1,,,,,クレマーティス,0
303,2011703003955,新規,0,2024-08-29,2024-08-29,合同会社ウォーキングスポーツラボ,,合同会社,東京都,江戸川区,中葛西１丁目３３番１１号アルファグランデ葛西５０１,,13,123,1340083,,,,,,,2024-08-29,1,,,,,ウォーキングスポーツラボ,0
317,2013303007279,新規,0,2024-08-29,2024-08-29,Ｃｏｃｏｒｏ　Ｊａｐａｎ合同会社,,合同会社,東京都,豊島区,南大塚２丁目１１番２号,,13,116,1700005,,,,,,,2024-08-29,1,,,,,ココロジャパン,0
323,2020001158833,新規,0,2024-08-29,2024-08-29,Ｎｅｏ　ＡｌｇｏＴｅｃｈ株式会社,,株式会社,神奈川県,横浜市西区,戸部町４丁目１５１－７ハヤシビル２０１号室,,14,103,2200042,,,,,,,2024-08-29,1,,,,,ネオアルゴテック,0
324,2020001158916,新規,0,2024-08-29,2024-08-29,日本マルコインターナショナル株式会社,,株式会社,神奈川県,横浜市港北区,新横浜２丁目８番８号,,14,109,2220033,,,,,,,2024-08-29,1,,,,,ニホンマルコインターナショナル,0
327,2021001083113,新規,0,2024-08-29,2024-08-29,ケーワイエス株式会社,,株式会社,神奈川県,藤沢市,並木台２丁目１２番地の３３,,14,205,2510005,,,,,,,2024-08-29,1,,,,,ケーワイエス,0
332,2030001162181,新規,0,2024-08-29,2024-08-29,株式会社ユーワンホールディングス,,株式会社,埼玉県,春日部市,武里中野１０５番地５,,11,214,3440026,,,,,,,2024-08-29,1,,,,,ユーワンホールディングス,0
333,2030001162198,新規,0,2024-08-29,2024-08-29,株式会社コザン,,株式会社,埼玉県,川口市,芝下３丁目１０番１６号コーポ沢田Ｂ－２０３,,11,203,3330848,,,,,,,2024-08-29,1,,,,,コザン,0
334,2030001162215,新規,0,2024-08-29,2024-08-29,郷栄工株式会社,,株式会社,埼玉県,川口市,大字東本郷８５９番地,,11,203,3340063,,,,,,,2024-08-29,1,,,,,ゴウエイコウ,0
357,2050003008645,新規,0,2024-08-29,2024-08-29,合同会社ＩＳＴ,,合同会社,茨城県,稲敷郡美浦村,大字木原６７９－１,,08,442,3000421,,,,,,,2024-08-29,1,,,,,アイエスティー,0
360,2060001037439,新規,0,2024-08-29,2024-08-29,株式会社ＲｉｉＭＹ,,株式会社,栃木県,宇都宮市,上横田町８１５番地１６,,09,201,3210106,,,,,,,2024-08-29,1,,,,,リーエムワイ,0
363,2070003005566,新規,0,2024-08-29,2024-08-29,合同会社Ｔ＆Ｓ,,合同会社,群馬県,伊勢崎市,宮子町１１６２番地１３,,10,204,3720801,,,,,,,2024-08-29,1,,,,,ティーアンドエス,0
364,2080001026464,新規,0,2024-08-29,2024-08-29,やどりぎ座株式会社,,株式会社,静岡県,静岡市葵区,川合２丁目２９番４号,,22,101,4200923,,,,,,,2024-08-29,1,,,,,ヤドリギザ,0
369,2100003007740,新規,0,2024-08-29,2024-08-29,合同会社和道,,合同会社,長野県,上田市,古里１１１番地１０,,20,203,3860005,,,,,,,2024-08-29,1,,,,,ワドウ,0
371,2110001038662,新規,0,2024-08-29,2024-08-29,株式会社拓新リサイクル工業,,株式会社,新潟県,村上市,山辺里１８０番地１,,15,212,9580821,,,,,,,2024-08-29,1,,,,,タクシンリサイクルコウギョウ,0
382,2120001268077,新規,0,2024-08-29,2024-08-29,株式会社ＫＡＺＵ,,株式会社,大阪府,大阪市北区,天神橋４丁目２番１号３Ｆ,,27,127,5300041,,,,,,,2024-08-29,1,,,,,カズ,0
384,2120005024518,新規,0,2024-08-29,2024-08-29,一般社団法人沖縄建物管理協会,,その他の設立登記法人,大阪府,大阪市中央区,南船場２丁目８番１１号,,27,128,5420081,,,,,,,2024-08-29,1,,,,,オキナワタテモノカンリキョウカイ,0
386,2120101070218,新規,0,2024-08-29,2024-08-29,株式会社ニシタカクリエイト,,株式会社,大阪府,堺市北区,百舌鳥西之町２丁２０６番地,,27,146,5918033,,,,,,,2024-08-29,1,,,,,ニシタカクリエイト,0
396,2140001135647,新規,0,2024-08-29,2024-08-29,株式会社アスライト,,株式会社,兵庫県,姫路市,増位本町２丁目１２番２号Ａｃａｃｉａビル,,28,201,6700807,,,,,,,2024-08-29,1,,,,,アスライト,0
398,2140003021011,新規,0,2024-08-29,2024-08-29,合同会社アルバライズ,,合同会社,兵庫県,神戸市中央区,加納町２丁目９番１８号,,28,110,6500001,,,,,,,2024-08-29,1,,,,,アルバライズ,0
408,2180001163009,新規,0,2024-08-29,2024-08-29,リフォーム職人株式会社,,株式会社,愛知県,長久手市,戸田谷１４０５番地,,23,238,4801124,,,,,,,2024-08-29,1,,,,,リフォームショクニン,0
409,2180001163033,新規,0,2024-08-29,2024-08-29,株式会社ＦＳＣＨＤ,,株式会社,愛知県,名古屋市中区,錦１丁目７番２８号Ｊスクエア丸の内ビル８階,,23,106,4600003,,,,,,,2024-08-29,1,,,,,エフエスシーエッチディー,0
410,2180001163041,新規,0,2024-08-29,2024-08-29,株式会社カトー建設,,株式会社,愛知県,東海市,高横須賀町３丁目２１番地,,23,222,4770037,,,,,,,2024-08-29,1,,,,,カトーケンセツ,0
411,2180001163066,新規,0,2024-08-29,2024-08-29,株式会社ライフコンシェル,,株式会社,愛知県,長久手市,西原２３番地２,,23,238,4801183,,,,,,,2024-08-29,1,,,,,ライフコンシェル,0
423,2240003006828,新規,0,2024-08-29,2024-08-29,合同会社小塩工業,,合同会社,広島県,福山市,千田町大字千田３７４４番地４千田ドリームハイツＡ,,34,207,7200013,,,,,,,2024-08-29,1,,,,,コシオコウギョウ,0
425,2250001020788,新規,0,2024-08-29,2024-08-29,株式会社不動産テラス,,株式会社,山口県,下松市,桜町３丁目１６番２１号,,35,207,7440019,,,,,,,2024-08-29,1,,,,,フドウサンテラス,0
428,2260001039407,新規,0,2024-08-29,2024-08-29,株式会社ＮＯＩＣＥ,,株式会社,岡山県,岡山市南区,内尾１５０番地１,,33,104,7010212,,,,,,,2024-08-29,1,,,,,ノイス,0
436,2290001106864,新規,0,2024-08-29,2024-08-29,株式会社ＲｏＬａ不動産,,株式会社,福岡県,福岡市中央区,清川３丁目１４－７ファーストビル５０３,,40,133,8100005,,,,,,,2024-08-29,1,,,,,ローラフドウサン,0
438,2290003015626,新規,0,2024-08-29,2024-08-29,カバ合同会社,,合同会社,福岡県,福岡市中央区,今川１丁目１６番１６号,,40,133,8100054,,,,,,,2024-08-29,1,,,,,カバ,0
454,2370001051680,新規,0,2024-08-29,2024-08-29,株式会社リサイクルジャパン,,株式会社,宮城県,仙台市若林区,蒲町４０番６号,,04,103,9840037,,,,,,,2024-08-29,1,,,,,リサイクルジャパン,0
457,2380001034742,新規,0,2024-08-29,2024-08-29,株式会社ＦＲＥＡＫ,,株式会社,福島県,福島市,南沢又字北川原２４番地の２０,,07,201,9608254,,,,,,,2024-08-29,1,,,,,フリーク,0
458,2380003005849,新規,0,2024-08-29,2024-08-29,合同会社ＡｉｒＲｏｙ,,合同会社,福島県,郡山市,西田町鬼生田字西原３２９番地の２,,07,203,9630921,,,,,,,2024-08-29,1,,,,,エアーロイ,0
463,2430003016725,新規,0,2024-08-29,2024-08-29,合同会社ことのは,,合同会社,北海道,石狩市,花川東二条２丁目１１７番地,,01,235,0613262,,,,,,,2024-08-29,1,,,,,コトノハ,0
465,2470001020361,新規,0,2024-08-29,2024-08-29,株式会社ｗｉｌｌｏｗｓ,,株式会社,香川県,高松市,太田下町３０２７番地１８,,37,201,7618073,,,,,,,2024-08-29,1,,,,,ウィローズ,0
473,3010003044676,新規,0,2024-08-29,2024-08-29,ＳＭＭ合同会社,,合同会社,東京都,千代田区,岩本町３丁目１０番７号東自機ビル７Ｆ－３６号室,,13,101,1010032,,,,,,,2024-08-29,1,,,,,エスエムエム,0
474,3010003044742,新規,0,2024-08-29,2024-08-29,共栄合同会社,,合同会社,東京都,千代田区,鍛冶町２丁目８番１０号３階,,13,101,1010044,,,,,,,2024-08-29,1,,,,,キョウエイ,0
478,3010401184652,新規,0,2024-08-29,2024-08-29,Ｂ．ｅｓｓｅｎｃｅ株式会社,,株式会社,東京都,港区,北青山１丁目３番１号アールキューブ青山３階,,13,103,1070061,,,,,,,2024-08-29,1,,,,,ビーエッセンス,0
479,3010401184751,新規,0,2024-08-29,2024-08-29,株式会社Ｆｏｒ　ＳＤＧｓ,,株式会社,東京都,港区,南青山２丁目２番１５号ウィン青山１３０２,,13,103,1070062,,,,,,,2024-08-29,1,,,,,フォーエスディージーズ,0
480,3010401184784,新規,0,2024-08-29,2024-08-29,株式会社Ｔ‐ＨＯＰＥ,,株式会社,東京都,港区,南青山７丁目１番２７－１００１号,,13,103,1070062,,,,,,,2024-08-29,1,,,,,ティーホープ,0
481,3010401184801,新規,0,2024-08-29,2024-08-29,株式会社マーティーフード,,株式会社,東京都,港区,浜松町２丁目７番１７号イーグル浜松町ビル５階５５１号室,,13,103,1050013,,,,,,,2024-08-29,1,,,,,マーティーフード,0
483,3010403033304,新規,0,2024-08-29,2024-08-29,合同会社Ｗｉｌｌｂｅｏｋ,,合同会社,東京都,港区,南青山２丁目２番１５号,,13,103,1070062,,,,,,,2024-08-29,1,,,,,ウィルビーク,0
485,3010405023518,新規,0,2024-08-29,2024-08-29,一般社団法人Ｓソーラーインフィニティ,,その他の設立登記法人,東京都,港区,愛宕１丁目６番８号,,13,103,1050002,,,,,,,2024-08-29,1,,,,,エスソーラーインフィニティ,0
497,3010801035356,新規,0,2024-08-29,2024-08-29,株式会社ゆり着物トータルサービス,,株式会社,東京都,大田区,東雪谷４丁目８番１号シャンブル洗足池１０３,,13,111,1450065,,,,,,,2024-08-29,1,,,,,ユリキモノトータルサービス,0
500,3010901055865,新規,0,2024-08-29,2024-08-29,株式会社ＭＯＳＴ,,株式会社,東京都,世田谷区,大蔵２丁目９番２－２０９号,,13,112,1570074,,,,,,,2024-08-29,1,,,,,モスト,0
501,3010901055881,新規,0,2024-08-29,2024-08-29,株式会社デイジーパレット,,株式会社,東京都,世田谷区,北沢２丁目１３番６－４０６号,,13,112,1550031,,,,,,,2024-08-29,1,,,,,デイジーパレット,0
509,3011001164301,新規,0,2024-08-29,2024-08-29,株式会社齊藤哲也音楽事務所,,株式会社,東京都,渋谷区,神宮前２丁目２－２２青山熊野神社ビル３Ｆ,,13,113,1500001,,,,,,,2024-08-29,1,,,,,サイトウテツヤオンガクジムショ,0
510,3011001164326,新規,0,2024-08-29,2024-08-29,株式会社ｓｈｉｔａ．ｋｋｅ．,,株式会社,東京都,渋谷区,神宮前５丁目４７番８号,,13,113,1500001,,,,,,,2024-08-29,1,,,,,シタッケ,0
515,3011101108587,新規,0,2024-08-29,2024-08-29,株式会社丸平商事,,株式会社,東京都,新宿区,歌舞伎町１丁目２２番１－６Ｆ,,13,104,1600021,,,,,,,2024-08-29,1,,,,,マルダイラショウジ,0
516,3011103014791,新規,0,2024-08-29,2024-08-29,合同会社オープア,,合同会社,東京都,新宿区,市谷山伏町２番５－２０１号,,13,104,1620857,,,,,,,2024-08-29,1,,,,,オープア,0
517,3011301029955,新規,0,2024-08-29,2024-08-29,株式会社ＫＮリサーチ,,株式会社,東京都,杉並区,高円寺南２丁目３８番１６号,,13,115,1660003,,,,,,,2024-08-29,1,,,,,ケイエヌリサーチ,0
519,3011401026381,新規,0,2024-08-29,2024-08-29,東盛株式会社,,株式会社,東京都,板橋区,栄町１５番４号プレステージ栄３０４,,13,119,1730015,,,,,,,2024-08-29,1,,,,,トウセイ,0
522,3011503006199,新規,0,2024-08-29,2024-08-29,合同会社ＳＫＲＴ,,合同会社,東京都,北区,浮間３丁目１番２５－５０８号,,13,117,1150051,,,,,,,2024-08-29,1,,,,,エスケーアールティー,0
524,3011603004441,新規,0,2024-08-29,2024-08-29,合同会社ヒューマンライフ,,合同会社,東京都,練馬区,関町北４丁目２１番５８号カルチェラタン関２０５,,13,120,1770051,,,,,,,2024-08-29,1,,,,,ヒューマンライフ,0
525,3012705002416,新規,0,2024-08-29,2024-08-29,一般社団法人Ｄａｎｎａｃｙ,,その他の設立登記法人,東京都,西東京市,東町４丁目１１番１８号,,13,229,2020012,,,,,,,2024-08-29,1,,,,,ダンナシー,0
533,3020001158915,新規,0,2024-08-29,2024-08-29,株式会社ＳＹＮＣＹ,,株式会社,神奈川県,横浜市瀬谷区,五貫目町１０番地１３５マークスプリングス・メゾンＣ４０１,,14,114,2460008,,,,,,,2024-08-29,1,,,,,シンシー,0
534,3020001158923,新規,0,2024-08-29,2024-08-29,株式会社なんていい日だなぁ,,株式会社,神奈川県,横浜市保土ケ谷区,仏向町４３４番地３３ドギーハウスＢ－１０１号,,14,106,2400044,,,,,,,2024-08-29,1,,,,,ナンテイイヒダナァ,0
535,3020001158931,新規,0,2024-08-29,2024-08-29,株式会社Ｔｒａｄｅ　Ｓｕｎ　Ｊａｐａｎ,,株式会社,神奈川県,横浜市保土ケ谷区,岩井町２３６番地,,14,106,2400023,,,,,,,2024-08-29,1,,,,,トレードサンジャパン,0
536,3020001158948,新規,0,2024-08-29,2024-08-29,株式会社ａｒｒｏｗ,,株式会社,神奈川県,川崎市宮前区,小台１丁目６番地２シーアイマンション鷺沼５０６,,14,136,2160007,,,,,,,2024-08-29,1,,,,,アロー,0
541,3021001083112,新規,0,2024-08-29,2024-08-29,相模キャピタル株式会社,,株式会社,神奈川県,小田原市,栄町１丁目１４番２８号ＮＴＴ小田原ビル１階,,14,206,2500011,,,,,,,2024-08-29,1,,,,,サガミキャピタル,0
545,3030001162180,新規,0,2024-08-29,2024-08-29,株式会社丸上,,株式会社,埼玉県,さいたま市南区,別所７丁目２番１－２９１０号,,11,108,3360021,,,,,,,2024-08-29,1,,,,,マルカミ,0
546,3030001162214,新規,0,2024-08-29,2024-08-29,株式会社ヤナセ工業,,株式会社,埼玉県,越谷市,西方２丁目２１番地１３会田ビル３Ｂ,,11,222,3430822,,,,,,,2024-08-29,1,,,,,ヤナセコウギョウ,0
557,3040001135160,新規,0,2024-08-29,2024-08-29,株式会社ソナーレ,,株式会社,千葉県,柏市,高柳１４８３番地５,,12,217,2770941,,,,,,,2024-08-29,1,,,,,ソナーレ,0
558,3040001135185,新規,0,2024-08-29,2024-08-29,株式会社ｃａｓａ　ｄｅｌｌ　ｏｒｓｏ,,株式会社,千葉県,船橋市,前原西１丁目７番１１号,,12,204,2740825,,,,,,,2024-08-29,1,,,,,カーサデルオルソ,0
564,3040003025707,新規,0,2024-08-29,2024-08-29,ユアンリフ合同会社,,合同会社,千葉県,佐倉市,王子台２丁目２７－１３,,12,212,2850837,,,,,,,2024-08-29,1,,,,,ユアンリフ,0
570,3060001037438,新規,0,2024-08-29,2024-08-29,株式会社つむぎ,,株式会社,栃木県,那須塩原市,二区町４８３番地２５,,09,213,3292733,,,,,,,2024-08-29,1,,,,,ツムギ,0
576,3070001042115,新規,0,2024-08-29,2024-08-29,株式会社ナツハゼ,,株式会社,群馬県,高崎市,中尾町５５７番地６,,10,202,3700001,,,,,,,2024-08-29,1,,,,,ナツハゼ,0
577,3070001042123,新規,0,2024-08-29,2024-08-29,株式会社ワンケー,,株式会社,群馬県,利根郡昭和村,大字川額１３９７－１,,10,448,3791205,,,,,,,2024-08-29,1,,,,,ワンケー,0
589,3120001268084,新規,0,2024-08-29,2024-08-29,株式会社どんぶら,,株式会社,大阪府,大阪市旭区,高殿３丁目１５番７－７０６号,,27,117,5350031,,,,,,,2024-08-29,1,,,,,ドンブラ,0
590,3120001268092,新規,0,2024-08-29,2024-08-29,ＨｏｔＭａｘｘＪａｐａｎ株式会社,,株式会社,大阪府,大阪市中央区,南久宝寺町１丁目３番８号,,27,128,5410058,,,,,,,2024-08-29,1,,,,,ホットマックスジャパン,0
591,3120001268126,新規,0,2024-08-29,2024-08-29,株式会社はるの家,,株式会社,大阪府,大阪市生野区,勝山南１丁目２１番１４号,,27,116,5440021,,,,,,,2024-08-29,1,,,,,ハルノイエ,0
592,3120001268175,新規,0,2024-08-29,2024-08-29,シンクリエイト株式会社,,株式会社,大阪府,大阪市北区,堂島浜１丁目４番４号,,27,127,5300004,,,,,,,2024-08-29,1,,,,,シンクリエイト,0
595,3120005024509,新規,0,2024-08-29,2024-08-29,特定非営利活動法人おうち‐ＯＵＣＨＩ,,その他の設立登記法人,大阪府,大阪市浪速区,桜川１丁目２番２０号桜川シティハイツ４０７,,27,111,5560022,,,,,,,2024-08-29,1,,,,,オウチオウチ,0
597,3120101070209,新規,0,2024-08-29,2024-08-29,株式会社ｄｏｗｎ　ｔｏ　ｅａｒｔｈ,,株式会社,大阪府,高石市,綾園１丁目３－１４高石ＤＳビル３０１,,27,225,5920014,,,,,,,2024-08-29,1,,,,,ダウントゥアース,0
598,3120901049625,新規,0,2024-08-29,2024-08-29,チームプラスケミカルジャパン株式会社,,株式会社,大阪府,豊中市,庄内西町１丁目１番８号,,27,203,5610832,,,,,,,2024-08-29,1,,,,,チームプラスケミカルジャパン,0
599,3120901049682,新規,0,2024-08-29,2024-08-29,ＹＵＫＩ株式会社,,株式会社,大阪府,吹田市,原町２丁目５５番４８号,,27,205,5640004,,,,,,,2024-08-29,1,,,,,ユキ,0
600,3120901049699,新規,0,2024-08-29,2024-08-29,株式会社Ｔ２,,株式会社,大阪府,豊中市,曽根南町１丁目２２－８－２０６,,27,203,5610804,,,,,,,2024-08-29,1,,,,,ティーツー,0
606,3130001077831,新規,0,2024-08-29,2024-08-29,京聯株式会社,,株式会社,京都府,京都市右京区,太秦三尾町１－３３０,,26,108,6168192,,,,,,,2024-08-29,1,,,,,キョウレン,0
609,3130005017172,新規,0,2024-08-29,2024-08-29,一般社団法人ＧＬＯＢＡＬ　ＵＮＩＴＹ　ＪＡＰＡＮ,,その他の設立登記法人,京都府,京都市伏見区,竹田七瀬川町８６番地８,,26,109,6128422,,,,,,,2024-08-29,1,,,,,グローバルユニティージャパン,0
613,3140001135621,新規,0,2024-08-29,2024-08-29,株式会社ＨＯＴＴＡＮホーム,,株式会社,兵庫県,尼崎市,道意町２丁目５番地,,28,202,6600083,,,,,,,2024-08-29,1,,,,,ホッタンホーム,0
626,3180301038999,新規,0,2024-08-29,2024-08-29,株式会社小池テクノホールディングス,,株式会社,愛知県,豊橋市,西橋良町３９番地２,,23,201,4418039,,,,,,,2024-08-29,1,,,,,コイケテクノホールディングス,0
632,3200003006483,新規,0,2024-08-29,2024-08-29,Ｔ＆Ｈメンター合同会社,,合同会社,岐阜県,安八郡神戸町,大字神戸１０９２番地の３,,21,381,5032305,,,,,,,2024-08-29,1,,,,,ティーアンドエイチメンター,0
635,3230005009408,新規,0,2024-08-29,2024-08-29,一般社団法人ＷＩＮＧ,,その他の設立登記法人,富山県,南砺市,福光１１８４番地３,,16,210,9391610,,,,,,,2024-08-29,1,,,,,ウイング,0
636,3240001063754,新規,0,2024-08-29,2024-08-29,株式会社ＭＥＴ,,株式会社,広島県,広島市中区,上八丁堀４番１－４１０１号,,34,101,7300012,,,,,,,2024-08-29,1,,,,,メット,0
645,3290001107060,新規,0,2024-08-29,2024-08-29,福澤商事株式会社,,株式会社,福岡県,福岡市東区,香椎浜２丁目６番４－４０３号香椎浜サンハイツ,,40,131,8130016,,,,,,,2024-08-29,1,,,,,フクザワショウジ,0
646,3290003015724,新規,0,2024-08-29,2024-08-29,タカフ合同会社,,合同会社,福岡県,福岡市中央区,渡辺通３丁目１番２０号天神南マンション１００１号室,,40,133,8100004,,,,,,,2024-08-29,1,,,,,,0
649,3310001019187,新規,0,2024-08-29,2024-08-29,株式会社アクト,,株式会社,長崎県,佐世保市,矢峰町６５番地４,,42,202,8570133,,,,,,,2024-08-29,1,,,,,アクト,0
650,3320003004459,新規,0,2024-08-29,2024-08-29,合同会社Ｔ．Ｅ．Ｎ,,合同会社,大分県,日田市,上城内町３番２７－２０１号,,44,204,8770003,,,,,,,2024-08-29,1,,,,,テイイエヌ,0
653,3330001032411,新規,0,2024-08-29,2024-08-29,株式会社緒方印刷所,,株式会社,熊本県,熊本市東区,月出２丁目３番４２号,,43,102,8620920,,,,,,,2024-08-29,1,,,,,オガタインサツショ,0
656,3340003004589,新規,0,2024-08-29,2024-08-29,合同会社愛ソフト,,合同会社,鹿児島県,鹿児島市,西伊敷３丁目４０番３２－４４号,,46,201,8900002,,,,,,,2024-08-29,1,,,,,アイソフト,0
659,3350001019159,新規,0,2024-08-29,2024-08-29,株式会社クオリスエデュケーション,,株式会社,宮崎県,宮崎市,広島１丁目１４番３号桂ビル５０７号,,45,201,8800806,,,,,,,2024-08-29,1,,,,,クオリスエデュケーション,0
669,3380001034758,新規,0,2024-08-29,2024-08-29,株式会社ランドリソース,,株式会社,福島県,郡山市,日和田町字宇類原６０番地の１,,07,203,9630534,,,,,,,2024-08-29,1,,,,,ランドリソース,0
682,3440001009489,新規,0,2024-08-29,2024-08-29,株式会社ＳＴＥＥＬ,,株式会社,北海道,函館市,梁川町６番９号,,01,202,0400015,,,,,,,2024-08-29,1,,,,,スティール,0
683,3460101007597,新規,0,2024-08-29,2024-08-29,株式会社ｏｄｅｎ,,株式会社,北海道,帯広市,新町東１１丁目３９番地,,01,207,0800052,,,,,,,2024-08-29,1,,,,,オデン,0
700,4010005038717,新規,0,2024-08-29,2024-08-29,一般社団法人国際未来共創機構,,その他の設立登記法人,東京都,千代田区,二番町９番地３,,13,101,1020084,,,,,,,2024-08-29,1,,,,,コクサイミライキョウソウキコウ,0
704,4010401184783,新規,0,2024-08-29,2024-08-29,株式会社Ｈａｒｍｏｎｙ　ｆｉｔｎｅｓｓ,,株式会社,東京都,港区,赤坂３丁目７番１６号越川ビル４階,,13,103,1070052,,,,,,,2024-08-29,1,,,,,ハーモニーフィットネス,0
720,4010701046460,新規,0,2024-08-29,2024-08-29,ＧＧＭＤ株式会社,,株式会社,東京都,品川区,西五反田１丁目２６番３号第二白井ビルＢ１Ｆ,,13,109,1410031,,,,,,,2024-08-29,1,,,,,ジージーエムディー,0
723,4010901055880,新規,0,2024-08-29,2024-08-29,ラベルヴィ株式会社,,株式会社,東京都,世田谷区,代田６丁目５番２２号,,13,112,1550033,,,,,,,2024-08-29,1,,,,,ラベルヴィ,0
730,4011001164085,新規,0,2024-08-29,2024-08-29,ＮＥＷ　ＯＣＥＡＮ株式会社,,株式会社,東京都,渋谷区,渋谷２丁目１９番１５号宮益坂ビルディング６０９,,13,113,1500002,,,,,,,2024-08-29,1,,,,,ニューオーシャン,0
731,4011001164300,新規,0,2024-08-29,2024-08-29,株式会社ＩＮＡＪＩ　ＦＡＲＭ,,株式会社,東京都,渋谷区,恵比寿南２丁目１番１０号,,13,113,1500022,,,,,,,2024-08-29,1,,,,,イナジファーム,0
732,4011001164325,新規,0,2024-08-29,2024-08-29,株式会社イノアス,,株式会社,東京都,渋谷区,道玄坂１丁目１０番８号渋谷道玄坂東急ビル２Ｆ－Ｃ,,13,113,1500043,,,,,,,2024-08-29,1,,,,,イノアス,0
733,4011001164341,新規,0,2024-08-29,2024-08-29,株式会社夏休みプロジェクト,,株式会社,東京都,渋谷区,道玄坂１丁目１０番８号渋谷道玄坂東急ビル２Ｆ－Ｃ,,13,113,1500043,,,,,,,2024-08-29,1,,,,,ナツヤスミプロジェクト,0
736,4011101108586,新規,0,2024-08-29,2024-08-29,株式会社ゴールドピッグ,,株式会社,東京都,新宿区,大久保１丁目１１番１０号,,13,104,1690072,,,,,,,2024-08-29,1,,,,,ゴールドピッグ,0
738,4011201025748,新規,0,2024-08-29,2024-08-29,日本マイブルロボットテクノロジー株式会社,,株式会社,東京都,中野区,野方２丁目３４－１６クレセント野方２０１号室,,13,114,1650027,,,,,,,2024-08-29,1,,,,,ニホンマイブルロボットテクノロジー,0
741,4011601028020,新規,0,2024-08-29,2024-08-29,株式会社ＡＫＥ,,株式会社,東京都,練馬区,中村南１丁目４－１３－１０３,,13,120,1760025,,,,,,,2024-08-29,1,,,,,エイク,0
742,4011603004440,新規,0,2024-08-29,2024-08-29,ＰＧ合同会社,,合同会社,東京都,練馬区,田柄２丁目２８番２７号リバティプラザ練馬田柄２０４号室,,13,120,1790073,,,,,,,2024-08-29,1,,,,,ピージー,0
743,4011703003953,新規,0,2024-08-29,2024-08-29,合同会社Ｈｅｎｃｅｆｏｒｔｈ,,合同会社,東京都,江戸川区,西葛西６丁目３番１７号Ｓｏｌａｒｅｍｉｗａ２０１号室,,13,123,1340088,,,,,,,2024-08-29,1,,,,,ヘンスフォース,0
744,4011705001848,新規,0,2024-08-29,2024-08-29,医療法人社団月明会,,その他の設立登記法人,東京都,江戸川区,東葛西６丁目１番２８号武企画ビルＩＩＩ１階１０１号室,00136112,13,123,1340084,,,,,,,2024-08-29,1,,,,,ゲツメイカイ,0
749,4012401042228,新規,0,2024-08-29,2024-08-29,株式会社ホワイトナイトプロモーション,,株式会社,東京都,狛江市,東和泉１丁目３４番１７号,,13,219,2010014,,,,,,,2024-08-29,1,,,,,ホワイトナイトプロモーション,0
750,4012403006726,新規,0,2024-08-29,2024-08-29,合同会社ラスタス,,合同会社,東京都,武蔵野市,吉祥寺本町１丁目２０番１号吉祥寺永谷シティプラザ１００２,,13,203,1800004,,,,,,,2024-08-29,1,,,,,ラスタス,0
760,4020001158690,新規,0,2024-08-29,2024-08-29,株式会社ＭｏｔｏＧｙｍ,,株式会社,神奈川県,横浜市南区,永田東２丁目３３番１号,,14,105,2320072,,,,,,,2024-08-29,1,,,,,モトジム,0
761,4020001158947,新規,0,2024-08-29,2024-08-29,株式会社ＪｕＪｕ,,株式会社,神奈川県,横浜市青葉区,しらとり台２番地３３クリスタルビュー青葉台２０３,,14,117,2270054,,,,,,,2024-08-29,1,,,,,ジュジュ,0
762,4020003026813,新規,0,2024-08-29,2024-08-29,Ｏｋａｎｏｋｏ　Ｗｏｒｋｓ合同会社,,合同会社,神奈川県,横浜市港北区,日吉７丁目９－９コンフォーレ日吉２、２０６号室,,14,109,2230061,,,,,,,2024-08-29,1,,,,,オカノコワークス,0
767,4021001083103,新規,0,2024-08-29,2024-08-29,株式会社山幸,,株式会社,神奈川県,足柄下郡箱根町,湯本３２９番地,,14,382,2500311,,,,,,,2024-08-29,1,,,,,ヤマコウ,0
768,4021003014907,新規,0,2024-08-29,2024-08-29,丸御土木合同会社,,合同会社,神奈川県,逗子市,久木８丁目５番３２号,,14,208,2490001,,,,,,,2024-08-29,1,,,,,マルゴドボク,0
769,4021003014956,新規,0,2024-08-29,2024-08-29,ＴＡＦＬ合同会社,,合同会社,神奈川県,藤沢市,片瀬山５丁目３番６～１号,,14,205,2510033,,,,,,,2024-08-29,1,,,,,タフル,0
776,4040001135060,新規,0,2024-08-29,2024-08-29,株式会社青春ファクトリー,,株式会社,千葉県,印旛郡酒々井町,上岩橋２１７５番地,,12,322,2850905,,,,,,,2024-08-29,1,,,,,セイシュンファクトリー,0
783,4040003025689,新規,0,2024-08-29,2024-08-29,合同会社ＫＩ　Ａｓｓｅｔ　Ｃｒｅａｔｉｏｎ,,合同会社,千葉県,柏市,青葉台２丁目１６－５３,,12,217,2770055,,,,,,,2024-08-29,1,,,,,ケーアイアセットクリエーション,0
784,4040003025706,新規,0,2024-08-29,2024-08-29,合同会社サムズアップ,,合同会社,千葉県,鎌ケ谷市,南初富４丁目１５番８号,,12,224,2730123,,,,,,,2024-08-29,1,,,,,サムズアップ,0
790,4060001037437,新規,0,2024-08-29,2024-08-29,Ｃｈｅｓｔ株式会社,,株式会社,栃木県,宇都宮市,石井町２５２９番地１９,,09,201,3210912,,,,,,,2024-08-29,1,,,,,チェスト,0
796,4090001018847,新規,0,2024-08-29,2024-08-29,株式会社Ｔａｎｋ　Ｂａｓｅ,,株式会社,山梨県,甲府市,東光寺１丁目１－１４１０２,,19,201,4000807,,,,,,,2024-08-29,1,,,,,タンクベース,0
806,4120001268083,新規,0,2024-08-29,2024-08-29,株式会社タクト,,株式会社,大阪府,寝屋川市,萱島東１丁目１４番２７号萱島東ライゼホビー１号,,27,215,5720824,,,,,,,2024-08-29,1,,,,,タクト,0
807,4120001268125,新規,0,2024-08-29,2024-08-29,寺西白丁株式会社,,株式会社,大阪府,大阪市東住吉区,湯里２丁目６番１３号,,27,121,5460013,,,,,,,2024-08-29,1,,,,,テラニシハクチョウ,0
808,4120001268141,新規,0,2024-08-29,2024-08-29,聖殿ＧＡＭＥ株式会社,,株式会社,大阪府,大阪市東住吉区,矢田３丁目１２－８,,27,121,5460023,,,,,,,2024-08-29,1,,,,,セイデンゲーム,0
811,4120101070224,新規,0,2024-08-29,2024-08-29,りんず株式会社,,株式会社,大阪府,堺市東区,大美野５１番地２６,,27,143,5998126,,,,,,,2024-08-29,1,,,,,リンズ,0
815,4120901049681,新規,0,2024-08-29,2024-08-29,株式会社ＳＰＷオペレーションズ,,株式会社,大阪府,吹田市,岸部北５丁目１１番１号,,27,205,5640001,,,,,,,2024-08-29,1,,,,,エスピーダブルオペレーションズ,0
819,4130001077822,新規,0,2024-08-29,2024-08-29,株式会社Ｌ　ＣＬＥＡＮＬＹ,,株式会社,京都府,京都市下京区,西七条東御前田町１３シャリマー五条２０１,,26,106,6008898,,,,,,,2024-08-29,1,,,,,エルクリーンリィ,0
820,4130001077830,新規,0,2024-08-29,2024-08-29,株式会社ＭＩＮＡＺ,,株式会社,京都府,京都市北区,小山下総町５３－９コルネリオビル２階,,26,101,6038151,,,,,,,2024-08-29,1,,,,,ミナジー,0
827,4140001135653,新規,0,2024-08-29,2024-08-29,株式会社木目塗装ダイコク,,株式会社,兵庫県,伊丹市,北伊丹２丁目５２番地の１,,28,207,6640831,,,,,,,2024-08-29,1,,,,,モクメトソウダイコク,0
829,4140005027194,新規,0,2024-08-29,2024-08-29,一般社団法人兵庫県ライフセービング協会,,その他の設立登記法人,兵庫県,神戸市中央区,磯部通一丁目１番１８号カサベラ国際プラザビル７０７号室,,28,110,6500000,,,,,,,2024-08-29,1,,,,,ヒョウゴケンライフセービングキョウカイ,0
832,4170003002097,新規,0,2024-08-29,2024-08-29,合同会社ＬＯＶＥ　ＡＮＤ　ＣＯＭＥＤＹ,,合同会社,和歌山県,橋本市,東家４丁目１７－１３,,30,203,6480072,,,,,,,2024-08-29,1,,,,,ラブアンドコメディ,0
838,4180001163031,新規,0,2024-08-29,2024-08-29,ジュールズコンサルティング株式会社,,株式会社,愛知県,一宮市,三条字ヱグロ７０番地２,,23,203,4940003,,,,,,,2024-08-29,1,,,,,ジュールズコンサルティング,0
839,4180001163048,新規,0,2024-08-29,2024-08-29,株式会社Ｆｏｒｔｉｓｓｉｍｏ,,株式会社,愛知県,名古屋市東区,東桜２丁目１２番３４号,,23,102,4610005,,,,,,,2024-08-29,1,,,,,フォルティッシモ,0
844,4180003027283,新規,0,2024-08-29,2024-08-29,ウェルネスハート合同会社,,合同会社,愛知県,名古屋市千種区,新池町４丁目８４,,23,101,4640027,,,,,,,2024-08-29,1,,,,,ウェルネスハート,0
846,4180301038998,新規,0,2024-08-29,2024-08-29,株式会社オルトラスト,,株式会社,愛知県,西尾市,一色町前野東浦５０番地１,,23,213,4440407,,,,,,,2024-08-29,1,,,,,オルトラスト,0
847,4180301039006,新規,0,2024-08-29,2024-08-29,長坂メディカルパートナーズ株式会社,,株式会社,愛知県,安城市,南町９番２２号,,23,212,4460034,,,,,,,2024-08-29,1,,,,,ナガサカメディカルパートナーズ,0
863,4240001063753,新規,0,2024-08-29,2024-08-29,株式会社ＥｖｏＨ,,株式会社,広島県,広島市安佐南区,上安２丁目１６－２４アイゼンルーム２０１号,,34,105,7310154,,,,,,,2024-08-29,1,,,,,エボリューションヒューマニー,0
866,4240003006826,新規,0,2024-08-29,2024-08-29,合同会社ブルーネクスト,,合同会社,広島県,呉市,下蒲刈町下島甲３２９３番地の２,,34,202,7370303,,,,,,,2024-08-29,1,,,,,ブルーネクスト,0
874,4290001106846,新規,0,2024-08-29,2024-08-29,株式会社Ｍａｋｅ　Ｌｉｆｅ,,株式会社,福岡県,福岡市中央区,舞鶴１丁目３番３１号,,40,133,8100073,,,,,,,2024-08-29,1,,,,,メイクライフ,0
877,4290003015731,新規,0,2024-08-29,2024-08-29,合同会社りんサポート,,合同会社,福岡県,福岡市城南区,友丘５丁目１５番１８－３０５号,,40,136,8140112,,,,,,,2024-08-29,1,,,,,リンサポート,0
880,4320001020688,新規,0,2024-08-29,2024-08-29,建新プランテック株式会社,,株式会社,大分県,大分市,高松１丁目７番８号サンメゾン高城１０２,,44,201,8700917,,,,,,,2024-08-29,1,,,,,ケンシンプランテック,0
881,4320003004458,新規,0,2024-08-29,2024-08-29,合同会社いるしるし,,合同会社,大分県,中津市,大字牛神４０９番地２,,44,203,8710015,,,,,,,2024-08-29,1,,,,,イルシルシ,0
887,4340001026766,新規,0,2024-08-29,2024-08-29,株式会社スパークル,,株式会社,鹿児島県,鹿児島市,桜ヶ丘５丁目３０番地８,,46,201,8910175,,,,,,,2024-08-29,1,,,,,スパークル,0
891,4360001034123,新規,0,2024-08-29,2024-08-29,株式会社ＯＧ,,株式会社,沖縄県,那覇市,松山２丁目９－７クリスタルビル４Ｆ－Ｃ,,47,201,9000032,,,,,,,2024-08-29,1,,,,,オージー,0
895,4370001051679,新規,0,2024-08-29,2024-08-29,株式会社ａｍｐｌｅ,,株式会社,宮城県,仙台市泉区,南光台７丁目４０番２４号スール・ローマ１０１,,04,105,9818003,,,,,,,2024-08-29,1,,,,,アンプル,0
906,4380003005847,新規,0,2024-08-29,2024-08-29,合同会社オーケイ商事,,合同会社,福島県,白河市,東栃本字後栃本３８番地２,,07,205,9610307,,,,,,,2024-08-29,1,,,,,オーケイショウジ,0
911,4430001092568,新規,0,2024-08-29,2024-08-29,株式会社ＦＡＩＲＩＥＳ,,株式会社,北海道,札幌市南区,澄川六条３丁目２番３８号,,01,106,0050006,,,,,,,2024-08-29,1,,,,,フェアリーズ,0
914,4430003016731,新規,0,2024-08-29,2024-08-29,合同会社オールイン,,合同会社,北海道,札幌市手稲区,新発寒六条４丁目１番１６号,,01,109,0060806,,,,,,,2024-08-29,1,,,,,オールイン,0
915,4430005015054,新規,0,2024-08-29,2024-08-29,一般社団法人国際福祉医療研修センター,,その他の設立登記法人,北海道,札幌市豊平区,豊平四条５丁目３番７号,,01,105,0620904,,,,,,,2024-08-29,1,,,,,コクサイフクシイリョウケンシュウセンター,0
918,4460101007596,新規,0,2024-08-29,2024-08-29,株式会社リブアウト,,株式会社,北海道,上川郡清水町,御影西一条４丁目２番地４,,01,636,0890351,,,,,,,2024-08-29,1,,,,,リブアウト,0
920,4470003002703,新規,0,2024-08-29,2024-08-29,合同会社ムーヴオン,,合同会社,香川県,高松市,円座町１３００番地１４,,37,201,7618044,,,,,,,2024-08-29,1,,,,,ムーヴオン,0
928,4700150126941,新規,0,2024-08-29,2024-08-29,Ｆｕｎｃｈｉｃ　Ｔｅｃｈｎｏｌｏｇｙ　Ｌｉｍｉｔｅｄ,,外国会社等,,,,,,,,Ｒｏｏｍ　８３７，８／Ｆ，Ｂａｉｌｅｙ　Ｃｏｍｍｅｒｃｉａｌ　Ｃｅｎｔｒｅ，８７－１０５　Ｃｈａｔｈａｍ　Ｒｏａｄ　Ｓｏｕｔｈ，Ｔｓｉｍ　Ｓｈａ　Ｔｓｕｉ　ＨＫ,,,,,,2024-08-29,1,,,,,ファンチックテクノロジーリミテッド,0
937,5010001247774,新規,0,2024-08-29,2024-08-29,株式会社Ｏｐｕｓ　Ｓｙｓｔｅｍ,,株式会社,東京都,千代田区,神田須田町１丁目７番８号ＶＯＲＴ秋葉原ＩＶ２Ｆ,00136108,13,101,1010041,,,,,,,2024-08-29,1,,,,,オーパスシステム,0
938,5010001247832,新規,0,2024-08-29,2024-08-29,株式会社ＫＳＪ,,株式会社,東京都,中央区,銀座７丁目１４番３号,,13,102,1040061,,,,,,,2024-08-29,1,,,,,ケイエスジェイ,0
939,5010001247873,新規,0,2024-08-29,2024-08-29,株式会社みやび商事,,株式会社,東京都,千代田区,平河町２丁目３番１０号,,13,101,1020093,,,,,,,2024-08-29,1,,,,,ミヤビショウジ,0
945,5010101016303,新規,0,2024-08-29,2024-08-29,株式会社ソラ・テラ,,株式会社,東京都,八王子市,寺田町１１２－８,,13,201,1930943,,,,,,,2024-08-29,1,,,,,ソラテラ,0
950,5010401184766,新規,0,2024-08-29,2024-08-29,株式会社美苗,,株式会社,東京都,港区,北青山２丁目１２番４号坂本ビル３階,,13,103,1070061,,,,,,,2024-08-29,1,,,,,ミナエ,0
953,5010403033302,新規,0,2024-08-29,2024-08-29,ＳｙｎａｐｓｅＡｓｉａ合同会社,,合同会社,東京都,港区,赤坂２丁目５番８号ヒューリックＪＰ赤坂ビル３Ｆ－６Ｆ,,13,103,1070052,,,,,,,2024-08-29,1,,,,,シナプスアジア,0
954,5010403033335,新規,0,2024-08-29,2024-08-29,合同会社ベストスタイル,,合同会社,東京都,港区,南青山３丁目１－３６,,13,103,1070062,,,,,,,2024-08-29,1,,,,,ベストスタイル,0
959,5010801035354,新規,0,2024-08-29,2024-08-29,株式会社スースースタッフサービス,,株式会社,東京都,大田区,大森北１丁目８番２号,,13,111,1430016,,,,,,,2024-08-29,1,,,,,スースースタッフサービス,0
967,5011001164332,新規,0,2024-08-29,2024-08-29,株式会社Ｖ．Ａ．Ｍ,,株式会社,東京都,渋谷区,千駄ヶ谷５丁目１５番６号マークス北参道５階,,13,113,1510051,,,,,,,2024-08-29,1,,,,,ヴァム,0
968,5011001164340,新規,0,2024-08-29,2024-08-29,株式会社ｎａｄａ　ｏｒｉｇｉｎ,,株式会社,東京都,渋谷区,恵比寿２丁目２０番７号,,13,113,1500013,,,,,,,2024-08-29,1,,,,,ナダオリジン,0
969,5011001164349,新規,0,2024-08-29,2024-08-29,株式会社Ｔ・Ａ,,株式会社,東京都,渋谷区,神宮前６丁目２３番４号桑野ビル２階,,13,113,1500001,,,,,,,2024-08-29,1,,,,,ティーエー,0
970,5011001164365,新規,0,2024-08-29,2024-08-29,ＰＯＰ株式会社,,株式会社,東京都,目黒区,三田２丁目１０番６８号マスターズＹハウス３０２,,13,110,1530062,,,,,,,2024-08-29,1,,,,,ポップ,0
975,5011201025747,新規,0,2024-08-29,2024-08-29,株式会社セイリュウ,,株式会社,東京都,中野区,野方４丁目２４番６号,,13,114,1650027,,,,,,,2024-08-29,1,,,,,セイリュウ,0
976,5011205002619,新規,0,2024-08-29,2024-08-29,一般社団法人ミィクラブ,,その他の設立登記法人,東京都,中野区,中野３丁目３４番１６号,,13,114,1640001,,,,,,,2024-08-29,1,,,,,ミィクラブ,0
979,5011503006197,新規,0,2024-08-29,2024-08-29,ＢＲＩＧＨＴ合同会社,,合同会社,東京都,北区,岸町２丁目６－２アップハウス十条２０２,,13,117,1140021,,,,,,,2024-08-29,1,,,,,ブライト,0
981,5011605002598,新規,0,2024-08-29,2024-08-29,一般社団法人脱サラ起業ライター協会,,その他の設立登記法人,東京都,練馬区,練馬１丁目２０番８号日建練馬ビル２Ｆ,,13,120,1760001,,,,,,,2024-08-29,1,,,,,,0
982,5011701027581,新規,0,2024-08-29,2024-08-29,株式会社ＴＴＳＳＭＭ,,株式会社,東京都,江戸川区,小松川１丁目５番８－２０８号,,13,123,1320034,,,,,,,2024-08-29,1,,,,,ティーティーエスエスエムエム,0
987,5012401042227,新規,0,2024-08-29,2024-08-29,株式会社Ｔｏｐ　Ｊｅａｎｎｅ,,株式会社,東京都,府中市,美好町１丁目３２－１１,,13,206,1830045,,,,,,,2024-08-29,1,,,,,トップジャンヌ,0
1002,5020001158681,新規,0,2024-08-29,2024-08-29,株式会社ＨＯＬＯＬＩＮＯ,,株式会社,神奈川県,横浜市港北区,大豆戸町９３１番地１グリーンコーポ大倉山Ｃ－１０８,,14,109,2220032,,,,,,,2024-08-29,1,,,,,ホロリノ,0
1003,5020001158772,新規,0,2024-08-29,2024-08-29,株式会社ｍｏｕ,,株式会社,神奈川県,横浜市南区,前里町３丁目６７番地４,,14,105,2320004,,,,,,,2024-08-29,1,,,,,ムウ,0
1011,5021001083102,新規,0,2024-08-29,2024-08-29,Ｌｅｔｍｅｄａｎｃｅ株式会社,,株式会社,神奈川県,相模原市緑区,橋本２丁目１０番１７号,,14,151,2520143,,,,,,,2024-08-29,1,,,,,レットミーダンス,0
1012,5021001083110,新規,0,2024-08-29,2024-08-29,株式会社市五郎,,株式会社,神奈川県,相模原市南区,古淵６丁目１９番１号,,14,153,2520344,,,,,,,2024-08-29,1,,,,,イチゴロウ,0
1013,5021003014939,新規,0,2024-08-29,2024-08-29,合同会社新瀧,,合同会社,神奈川県,小田原市,中里１８５－４０,,14,206,2500872,,,,,,,2024-08-29,1,,,,,シンタキ,0
1014,5021003014947,新規,0,2024-08-29,2024-08-29,合同会社Ｓｔａｒｄｕｓｔ　Ｄａｔａ,,合同会社,神奈川県,茅ヶ崎市,本村４丁目１４－１０,,14,207,2530042,,,,,,,2024-08-29,1,,,,,スターダストデータ,0
1015,5021003014955,新規,0,2024-08-29,2024-08-29,ｚａｆｆｅｒａｎｏ合同会社,,合同会社,神奈川県,藤沢市,辻堂元町６丁目２４番１号,,14,205,2510043,,,,,,,2024-08-29,1,,,,,ザッフェラーノ,0
1022,5030001162162,新規,0,2024-08-29,2024-08-29,株式会社ハーモニースタイル,,株式会社,埼玉県,川口市,柳根町６番２０号,,11,203,3330864,,,,,,,2024-08-29,1,,,,,ハーモニースタイル,0
1023,5030001162220,新規,0,2024-08-29,2024-08-29,株式会社すいぱんち,,株式会社,埼玉県,越谷市,大沢３丁目２４番２３号,,11,222,3430025,,,,,,,2024-08-29,1,,,,,スイパンチ,0
1034,5040001135159,新規,0,2024-08-29,2024-08-29,株式会社ボアソルテ,,株式会社,千葉県,茂原市,高師町３丁目３番地１１,,12,210,2970021,,,,,,,2024-08-29,1,,,,,ボアソルテ,0
1035,5040001135175,新規,0,2024-08-29,2024-08-29,株式会社吉福,,株式会社,千葉県,野田市,目吹１６８６番地,,12,208,2780001,,,,,,,2024-08-29,1,,,,,ヨシフク,0
1036,5040001135183,新規,0,2024-08-29,2024-08-29,株式会社ＬＯＲＥ,,株式会社,千葉県,千葉市中央区,本千葉町九丁目１２番地アンビシャスプラザ千葉中央１４０６号室,,12,101,2600014,,,,,,,2024-08-29,1,,,,,ロア,0
1039,5040003025705,新規,0,2024-08-29,2024-08-29,Ａｓｈａ合同会社,,合同会社,千葉県,市原市,古市場１６３番地２ハイツ恵２０８号室,,12,219,2900008,,,,,,,2024-08-29,1,,,,,アサ,0
1045,5060001037444,新規,0,2024-08-29,2024-08-29,ＨＭ　ＴＲＡＤＩＮＧ株式会社,,株式会社,栃木県,小山市,東城南１丁目１０－１順ハイツ３０２,,09,208,3230829,,,,,,,2024-08-29,1,,,,,エイチエムトレーディング,0
1051,5070003005563,新規,0,2024-08-29,2024-08-29,Ｌｉｂｅｒａｌ　Ｆｉｒｓｔ　Ｊａｐａｎ合同会社,,合同会社,群馬県,桐生市,新里町新川３３０９－１３,,10,203,3760121,,,,,,,2024-08-29,1,,,,,,0
1054,5090005007647,新規,0,2024-08-29,2024-08-29,無限責任大井村古市場負債整理組合,,その他の設立登記法人,山梨県,南アルプス市,（中巨摩郡大井村）,,19,208,4000400,,,,,,,2024-08-29,1,,,,,ムゲンセキニンオオイムラフルイチバフサイセイリクミアイ,0
1057,5100001037803,新規,0,2024-08-29,2024-08-29,アーキテックファクトリー株式会社,,株式会社,長野県,茅野市,ちの２６１５番地１,,20,214,3910001,,,,,,,2024-08-29,1,,,,,アーキテックファクトリー,0
1058,5100003007738,新規,0,2024-08-29,2024-08-29,合同会社ＴＯＳＨＩＭＩ,,合同会社,長野県,上水内郡小川村,大字高府３４９２番地,,20,588,3813302,,,,,,,2024-08-29,1,,,,,トシミ,0
1064,5120001267860,新規,0,2024-08-29,2024-08-29,まさゑ商店株式会社,,株式会社,大阪府,大阪市中央区,本町１丁目６番１８号,,27,128,5410053,,,,,,,2024-08-29,1,,,,,マサエショウテン,0
1065,5120001267992,新規,0,2024-08-29,2024-08-29,レドバンスジャパン株式会社,,株式会社,大阪府,大阪市北区,梅田３丁目４番５号毎日新聞ビル８階,,27,127,5300001,,,,,,,2024-08-29,1,,,,,レドバンスジャパン,0
1066,5120001268082,新規,0,2024-08-29,2024-08-29,株式会社ｂｙ’Ａ,,株式会社,大阪府,大阪市阿倍野区,松崎町３丁目６番３７号２Ｂ,,27,119,5450053,,,,,,,2024-08-29,1,,,,,バイエー,0
1067,5120001268198,新規,0,2024-08-29,2024-08-29,株式会社ＡＰＩＬＡ,,株式会社,大阪府,大阪市住吉区,千躰２丁目２番２号,,27,120,5580047,,,,,,,2024-08-29,1,,,,,アピラ,0
1068,5120003027404,新規,0,2024-08-29,2024-08-29,合同会社ＴＥＡＭ　Ｋ,,合同会社,大阪府,大阪市住吉区,遠里小野２丁目４番２０－２０１号,,27,120,5580032,,,,,,,2024-08-29,1,,,,,チームケー,0
1071,5120101070215,新規,0,2024-08-29,2024-08-29,株式会社吉田工業所,00136111,株式会社,大阪府,泉大津市,清水町８番８号,,27,206,5950043,,,,,,,2024-08-29,1,,,,,ヨシダコウギョウショ,0
1074,5120901049631,新規,0,2024-08-29,2024-08-29,株式会社トラスト,,株式会社,大阪府,高槻市,南松原町４－１７,,27,207,5690085,,,,,,,2024-08-29,1,,,,,トラスト,0
1075,5120901049680,新規,0,2024-08-29,2024-08-29,株式会社ドリーム＆ビジョン,,株式会社,大阪府,池田市,槻木町１番６－６０１号,,27,204,5630057,,,,,,,2024-08-29,1,,,,,ドリームアンドビジョン,0
1092,5180001163047,新規,0,2024-08-29,2024-08-29,株式会社ＱＵＯＲＩＸ,,株式会社,愛知県,名古屋市中区,新栄２丁目４６番１号－１００１号,,23,106,4600007,,,,,,,2024-08-29,1,,,,,クオリックス,0
1093,5180001163055,新規,0,2024-08-29,2024-08-29,株式会社冨士商事,,株式会社,愛知県,名古屋市中区,錦１丁目１７番２６号,,23,106,4600003,,,,,,,2024-08-29,1,,,,,フジショウジ,0
1096,5180003027282,新規,0,2024-08-29,2024-08-29,合同会社アリアンス,,合同会社,愛知県,名古屋市守山区,笹ヶ根２丁目１５１４番地,,23,113,4630812,,,,,,,2024-08-29,1,,,,,アリアンス,0
1097,5180003027290,新規,0,2024-08-29,2024-08-29,合同会社ＨＫ,,合同会社,愛知県,一宮市,本町４丁目３番１号,,23,203,4910859,,,,,,,2024-08-29,1,,,,,エイチケー,0
1101,5190001031590,新規,0,2024-08-29,2024-08-29,ＩＭＡＳＨＡ株式会社,,株式会社,三重県,桑名市,長島町押付５３４番地１４ハイツさざんか‐１０３,,24,205,5111113,,,,,,,2024-08-29,1,,,,,イマシャ,0
1103,5200001042875,新規,0,2024-08-29,2024-08-29,株式会社Ｍｋホーム侍,,株式会社,岐阜県,大垣市,東前１丁目４０番地１,,21,202,5030835,,,,,,,2024-08-29,1,,,,,エムケーホームサムライ,0
1106,5200003006481,新規,0,2024-08-29,2024-08-29,ＩＲＫ合同会社,,合同会社,岐阜県,岐阜市,芥見長山１丁目３０４番地１（アーバンヒルズ長山１０２）,,21,201,5013132,,,,,,,2024-08-29,1,,,,,アイアールケー,0
1124,5340003004587,新規,0,2024-08-29,2024-08-29,合同会社スタートライン,,合同会社,鹿児島県,霧島市,溝辺町麓２１２３番地４,,46,218,8996404,,,,,,,2024-08-29,1,,,,,スタートライン,0
1127,5350002018133,新規,0,2024-08-29,2024-08-29,有限会社小林旅行センター,,有限会社,宮崎県,小林市,真方４６４番地１２,,45,205,8860007,,,,,,,2024-08-29,1,,,,,コバヤシリョコウセンター,0
1128,5360001034122,新規,0,2024-08-29,2024-08-29,株式会社ドライブＣ,,株式会社,沖縄県,宜野湾市,真栄原３丁目３５番５号,,47,205,9012215,,,,,,,2024-08-29,1,,,,,ドライブシー,0
1133,5380003005846,新規,0,2024-08-29,2024-08-29,合同会社城栄,,合同会社,福島県,白河市,東栃本字後栃本３８番地２,,07,205,9610307,,,,,,,2024-08-29,1,,,,,ジョウエイ,0
1139,5400001016768,新規,0,2024-08-29,2024-08-29,ＫＨＡＷＡＪＡ　ＴＲＡＤＩＮＧ株式会社,,株式会社,岩手県,花巻市,石鳥谷町猪鼻第６地割１番地１,,03,205,0283131,,,,,,,2024-08-29,1,,,,,カワジャトレーディング,0
1140,5420001018845,新規,0,2024-08-29,2024-08-29,株式会社ゆうき,,株式会社,青森県,上北郡東北町,字上笹橋２３番地１１,,02,408,0392661,,,,,,,2024-08-29,1,,,,,ユウキ,0
1147,5430001092559,新規,0,2024-08-29,2024-08-29,株式会社高橋記帳事務センター,00136113,株式会社,北海道,札幌市豊平区,月寒中央通８丁目４番２５号第二有田ビル３階,,01,105,0620020,,,,,,,2024-08-29,1,,,,,タカハシキチョウジムセンター,0
1149,5430003016739,新規,0,2024-08-29,2024-08-29,合同会社ＵＮＰＯＣＯ,,合同会社,北海道,札幌市西区,福井７丁目１０番６号,,01,107,0630012,,,,,,,2024-08-29,1,,,,,ウンポコ,0
1155,5460103001646,新規,0,2024-08-29,2024-08-29,合同会社シマエナガ,,合同会社,北海道,帯広市,東九条南１５丁目１番地３８,,01,207,0800809,,,,,,,2024-08-29,1,,,,,シマエナガ,0
1167,5700150126940,新規,0,2024-08-29,2024-08-29,Ｆｕｎｗｉｌｌ　Ｔｅｃｈｎｏｌｏｇｙ　Ｌｉｍｉｔｅｄ,,外国会社等,,,,,,,,ＦＬＡＴ／ＲＭ　８３６　８／Ｆ　ＢＥＶＥＲＬＥＹ　ＣＯＭＭＥＲＣＩＡＬ　ＣＥＮＴＲＥ　８７－１０５　ＣＨＡＴＨＡＭ　ＲＯＡＤ　ＳＯＵＴＨ　ＴＳＩＭ　ＳＨＡ　ＴＳＵＩ　ＫＬ，ＨＫ,,,,,,2024-08-29,1,,,,,ファンウィルテクノロジーリミテッド,0
1171,6010001247781,新規,0,2024-08-29,2024-08-29,株式会社コンティニュウム・ソーシャル,,株式会社,東京都,中央区,銀座７丁目５－４毛利ビル５階Ｓ,,13,102,1040061,,,,,,,2024-08-29,1,,,,,コンティニュウムソーシャル,0
1172,6010001247831,新規,0,2024-08-29,2024-08-29,株式会社ＮＩＮＥ　ＳＴＡＲ　ＣＯＮＳＵＬＴＩＮＧ,,株式会社,東京都,中央区,日本橋兜町１１番７号ビーエム兜町ビル５Ｆ,,13,102,1030026,,,,,,,2024-08-29,1,,,,,ナインスターコンサルティング,0
1173,6010001247872,新規,0,2024-08-29,2024-08-29,株式会社天文台,,株式会社,東京都,千代田区,紀尾井町３番３２号サンフラット紀尾井町,,13,101,1020094,,,,,,,2024-08-29,1,,,,,テンモンダイ,0
1178,6010005038723,新規,0,2024-08-29,2024-08-29,一般社団法人ＴＦＪ１０,,その他の設立登記法人,東京都,中央区,新川１丁目１７番１８号,,13,102,1040033,,,,,,,2024-08-29,1,,,,,ティーエフジェイテン,0
1184,6010401184807,新規,0,2024-08-29,2024-08-29,株式会社ＷＡＶＥＮＥＴ　ＭＡＲＭＯＴ　ＪＡＰＡＮ,,株式会社,東京都,港区,赤坂６丁目９番１７号赤坂メープルヒル４階,,13,103,1070052,,,,,,,2024-08-29,1,,,,,ウェーブネットマーモットジャパン,0
1190,6010403033326,新規,0,2024-08-29,2024-08-29,合同会社Ｃｏｇｎｉｆｙ,,合同会社,東京都,港区,白金１丁目５番３号,,13,103,1080072,,,,,,,2024-08-29,1,,,,,コグニファイ,0
1191,6010501052764,新規,0,2024-08-29,2024-08-29,Ｓｕｒｐａｓｓｉｎｇ　Ｒｅｓｏｒｔ　Ｉｎｖｅｓｔｍｅｎｔ株式会社,,株式会社,東京都,台東区,浅草３丁目４番１０号,,13,106,1110032,,,,,,,2024-08-29,1,,,,,サーパースィングリゾートインヴェストゥメント,0
1196,6010901055879,新規,0,2024-08-29,2024-08-29,株式会社スパーク,,株式会社,東京都,世田谷区,駒沢５丁目２５番１１号,,13,112,1540012,,,,,,,2024-08-29,1,,,,,スパーク,0
1198,6010903009321,新規,0,2024-08-29,2024-08-29,合同会社ＥＳＰＥＲＡＮＺＡ,,合同会社,東京都,世田谷区,野沢２丁目２番１５－３０２号,,13,112,1540003,,,,,,,2024-08-29,1,,,,,エスペランサ,0
1205,6011001164265,新規,0,2024-08-29,2024-08-29,株式会社ＮｏＴｅａｒｓ,,株式会社,東京都,目黒区,下目黒１丁目１番１４号コノトラビル７Ｆ,,13,110,1530064,,,,,,,2024-08-29,1,,,,,ノーティアーズ,0
1206,6011001164315,新規,0,2024-08-29,2024-08-29,株式会社ＭａｒｉＥＲＡ,,株式会社,東京都,渋谷区,初台２丁目２９－３－１０３,,13,113,1510061,,,,,,,2024-08-29,1,,,,,マリエラ,0
1208,6011101108592,新規,0,2024-08-29,2024-08-29,鯤宿株式会社,,株式会社,東京都,新宿区,榎町３４－３榎町ビル７階－２５室,,13,104,1620806,,,,,,,2024-08-29,1,,,,,コンジュク,0
1209,6011103014847,新規,0,2024-08-29,2024-08-29,合同会社ＯＩＸＩＡ,,合同会社,東京都,新宿区,西新宿３丁目３番１３号西新宿水間ビル２Ｆ,,13,104,1600023,,,,,,,2024-08-29,1,,,,,オイシア,0
1212,6011401026387,新規,0,2024-08-29,2024-08-29,大景株式会社,,株式会社,東京都,板橋区,蓮根２丁目２０－１７トップ蓮根２０４Ａ,,13,119,1740046,,,,,,,2024-08-29,1,,,,,ダイケイ,0
1216,6011601028019,新規,0,2024-08-29,2024-08-29,株式会社ｔｒｕｓｔ,,株式会社,東京都,練馬区,南大泉５丁目３８番９号１０３室,,13,120,1780064,,,,,,,2024-08-29,1,,,,,トラスト,0
1220,6011701027564,新規,0,2024-08-29,2024-08-29,石井エンジニアリング株式会社,,株式会社,東京都,江戸川区,平井４丁目２６番３号,,13,123,1320035,,,,,,,2024-08-29,1,,,,,イシイエンジニアリング,0
1221,6011701027572,新規,0,2024-08-29,2024-08-29,株式会社白米ＦＡＮ,,株式会社,東京都,江戸川区,南小岩３丁目１番１４号プランドールＭ１０３号室,,13,123,1330056,,,,,,,2024-08-29,1,,,,,ハクマイファーン,0
1224,6011805003387,新規,0,2024-08-29,2024-08-29,一般社団法人世界うどん普及協会,,その他の設立登記法人,東京都,足立区,新田３丁目３６番１２－５０３号,,13,121,1230865,,,,,,,2024-08-29,1,,,,,セカイウドンフキュウキョウカイ,0
1237,6020001158697,新規,0,2024-08-29,2024-08-29,株式会社ココテラ,,株式会社,神奈川県,横浜市西区,高島１丁目２番５号横濱ゲートタワー３Ｆ,,14,103,2200011,,,,,,,2024-08-29,1,,,,,ココテラ,0
1238,6020001158846,新規,0,2024-08-29,2024-08-29,リージョンマネジメント株式会社,,株式会社,神奈川県,横浜市青葉区,荏田西３丁目３０番地４,,14,117,2250014,,,,,,,2024-08-29,1,,,,,リージョンマネジメント,0
1239,6020001158937,新規,0,2024-08-29,2024-08-29,株式会社十色,,株式会社,神奈川県,横浜市中区,池袋１６－７１０,,14,104,2310834,,,,,,,2024-08-29,1,,,,,トイロ,0
1250,6030001162178,新規,0,2024-08-29,2024-08-29,株式会社ゆるりらいふ,,株式会社,埼玉県,比企郡吉見町,大字地頭方２７４番地２,,11,347,3550104,,,,,,,2024-08-29,1,,,,,ユルリライフ,0
1255,6040001135158,新規,0,2024-08-29,2024-08-29,株式会社ＴＨホールディングス,,株式会社,千葉県,野田市,山崎２６３２番地の１,,12,208,2780022,,,,,,,2024-08-29,1,,,,,ティーエイチホールディングス,0
1259,6040003025704,新規,0,2024-08-29,2024-08-29,金谷企画合同会社,,合同会社,千葉県,千葉市稲毛区,稲毛２丁目７番１１号,,12,103,2630034,,,,,,,2024-08-29,1,,,,,カナヤキカク,0
1265,6050003008641,新規,0,2024-08-29,2024-08-29,ＷＤ　ＥＮＴＥＲＰＲＩＳＥＳ合同会社,,合同会社,茨城県,取手市,配松４７８番地１－２０６号室,,08,217,3001541,,,,,,,2024-08-29,1,,,,,ダブリューディーエンタープライゼス,0
1266,6060003005225,新規,0,2024-08-29,2024-08-29,合同会社ＳＭＡＫ,,合同会社,栃木県,栃木市,片柳町２丁目４２番９号,,09,203,3280053,,,,,,,2024-08-29,1,,,,,スマック,0
1270,6080005007639,新規,0,2024-08-29,2024-08-29,特定非営利活動法人オーガニックコミュニティ静岡,,その他の設立登記法人,静岡県,静岡市葵区,大岩３丁目２３‐５‐４,,22,101,4200886,,,,,,,2024-08-29,1,,,,,オーガニックコミュニティシズオカ,0
1274,6080401027406,新規,0,2024-08-29,2024-08-29,株式会社オセロカンパニー,,株式会社,静岡県,掛川市,南西郷４０１番地の３６,,22,213,4360024,,,,,,,2024-08-29,1,,,,,オセロカンパニー,0
1278,6100003007745,新規,0,2024-08-29,2024-08-29,あづみのシステム開発合同会社,,合同会社,長野県,松本市,野溝木工２丁目９番第二協立厚生会館Ｃ棟２１２号室,,20,202,3990005,,,,,,,2024-08-29,1,,,,,アヅミノシステムカイハツ,0
1279,6110001038667,新規,0,2024-08-29,2024-08-29,株式会社Ｂ‐ＬＩＮＫＳ,,株式会社,新潟県,上越市,大字大道福田２９番地７,,15,222,9430172,,,,,,,2024-08-29,1,,,,,ビーリンクス,0
1284,6120001268081,新規,0,2024-08-29,2024-08-29,株式会社ＭＣＦＧ,,株式会社,大阪府,大阪市住吉区,東粉浜３丁目１５番１３号,,27,120,5580051,,,,,,,2024-08-29,1,,,,,エムシーエフジー,0
1285,6120001268156,新規,0,2024-08-29,2024-08-29,株式会社ナノテック,,株式会社,大阪府,大阪市天王寺区,真田山町２番２号東興ビル８階,,27,109,5430015,,,,,,,2024-08-29,1,,,,,ナノテック,0
1286,6120001268189,新規,0,2024-08-29,2024-08-29,新河商事株式会社,,株式会社,大阪府,大阪市阿倍野区,北畠１丁目１３番７号,,27,119,5450035,,,,,,,2024-08-29,1,,,,,シンカワショウジ,0
1287,6120003027428,新規,0,2024-08-29,2024-08-29,合同会社Ｓｏａｒａ,,合同会社,大阪府,大阪市北区,梅田１丁目２番２号大阪駅前第２ビル１２－１２,,27,127,5300001,,,,,,,2024-08-29,1,,,,,ソアラ,0
1293,6120101070214,新規,0,2024-08-29,2024-08-29,株式会社ノアコーポレーション,,株式会社,大阪府,阪南市,自然田７７０－３緑ケ丘ビル２０２号室,,27,232,5990212,,,,,,,2024-08-29,1,,,,,ノアコーポレーション,0
1296,6120901049688,新規,0,2024-08-29,2024-08-29,株式会社ハートフル,,株式会社,大阪府,高槻市,塚原３丁目１４番１０－２１２号,,27,207,5691046,,,,,,,2024-08-29,1,,,,,ハートフル,0
1301,6140001135619,新規,0,2024-08-29,2024-08-29,Ｔａｒｏ．Ｅ．Ｓ株式会社,,株式会社,兵庫県,芦屋市,上宮川町１番５－７０４号,,28,206,6590061,,,,,,,2024-08-29,1,,,,,タロウイーエス,0
1303,6140003021016,新規,0,2024-08-29,2024-08-29,合同会社ヘルスリンク,,合同会社,兵庫県,神戸市中央区,磯辺通１丁目１番１８号カサベラ国際プラザビル７０７号室,,28,110,6510084,,,,,,,2024-08-29,1,,,,,ヘルスリンク,0
1306,6150003003351,新規,0,2024-08-29,2024-08-29,合同会社ええやん,,合同会社,奈良県,御所市,大字茅原１９４番地の３,,29,208,6392241,,,,,,,2024-08-29,1,,,,,エエヤン,0
1308,6160003003276,新規,0,2024-08-29,2024-08-29,翔運送合同会社,,合同会社,滋賀県,大津市,里５丁目３番５２号,,25,201,5202276,,,,,,,2024-08-29,1,,,,,カケルウンソウ,0
1318,6180001163038,新規,0,2024-08-29,2024-08-29,株式会社セントラルビズ,,株式会社,愛知県,名古屋市中区,錦３丁目２番３２号,,23,106,4600003,,,,,,,2024-08-29,1,,,,,セントラルビズ,0
1319,6180001163046,新規,0,2024-08-29,2024-08-29,株式会社ポーカールリアン,,株式会社,愛知県,名古屋市中川区,広住町７番６号,,23,110,4540007,,,,,,,2024-08-29,1,,,,,ポーカールリアン,0
1324,6200001042866,新規,0,2024-08-29,2024-08-29,株式会社おんわ,,株式会社,岐阜県,岐阜市,粟野台３０７番地１７４,,21,201,5020007,,,,,,,2024-08-29,1,,,,,オンワ,0
1325,6200001042874,新規,0,2024-08-29,2024-08-29,株式会社Ｅ‐ｕｓ,,株式会社,岐阜県,岐阜市,市ノ坪町５丁目１０番地２,,21,201,5008155,,,,,,,2024-08-29,1,,,,,イーアス,0
1332,6240001063751,新規,0,2024-08-29,2024-08-29,株式会社ｒｏｏｔ．,,株式会社,広島県,廿日市市,佐方４丁目６番５４号,,34,213,7380001,,,,,,,2024-08-29,1,,,,,ルート,0
1334,6260003004875,新規,0,2024-08-29,2024-08-29,スタジオつばめ合同会社,,合同会社,岡山県,岡山市北区,北長瀬表町２丁目１７番８０号ＢＲＡＮＣＨ岡山北長瀬ハッシュタグ岡山コワーキングスペース,,33,101,7000962,,,,,,,2024-08-29,1,,,,,スタジオツバメ,0
1340,6290001107041,新規,0,2024-08-29,2024-08-29,株式会社Ｇｌｏｂａｌ　Ｌｅａｐ,,株式会社,福岡県,福岡市博多区,比恵町１６番２８－２０２号,,40,132,8120014,,,,,,,2024-08-29,1,,,,,グローバルリープ,0
1346,6310001019184,新規,0,2024-08-29,2024-08-29,ＳＫＵホールディングス株式会社,,株式会社,長崎県,佐世保市,万津町７番４７号,,42,202,8570877,,,,,,,2024-08-29,1,,,,,エスケーユーホールディングス,0
1348,6320001020686,新規,0,2024-08-29,2024-08-29,株式会社中山間専門総合商社,,株式会社,大分県,由布市,挾間町来鉢２９９６番地２,,44,213,8795512,,,,,,,2024-08-29,1,,,,,チュウサンカンセンモンソウゴウショウシャ,0
1366,6380001034755,新規,0,2024-08-29,2024-08-29,四家塗装店株式会社,,株式会社,福島県,いわき市,四倉町白岩字戸ノ内３１番地,,07,204,9790211,,,,,,,2024-08-29,1,,,,,シケトソウテン,0
1395,7010001247310,新規,0,2024-08-29,2024-08-29,株式会社ＲＤＡ,,株式会社,東京都,中央区,銀座１丁目２２番１１号銀座大竹ビジデンス２Ｆ,,13,102,1040061,,,,,,,2024-08-29,1,,,,,アールディーエー,0
1396,7010001247822,新規,0,2024-08-29,2024-08-29,株式会社二度言う,,株式会社,東京都,中央区,銀座１丁目１２－４Ｎ＆ＥＢＬＤ．７階,,13,102,1040061,,,,,,,2024-08-29,1,,,,,ニドイウ,0
1397,7010001247830,新規,0,2024-08-29,2024-08-29,株式会社オリバー,,株式会社,東京都,千代田区,永田町２丁目１７番３号フレッシア永田町６０３,,13,101,1000014,,,,,,,2024-08-29,1,,,,,オリバー,0
1398,7010001247847,新規,0,2024-08-29,2024-08-29,メノー株式会社,,株式会社,東京都,中央区,日本橋箱崎町３０番１号Ａ．ｉ．ＮｉｈｏｍｂａｓｈｉＥＡＳＴ１階,,13,102,1030015,,,,,,,2024-08-29,1,,,,,メノー,0
1424,7011001164058,新規,0,2024-08-29,2024-08-29,株式会社シサリーア,,株式会社,東京都,渋谷区,恵比寿西１丁目８番２号恵比寿ウエストパレス５１３号室,,13,113,1500021,,,,,,,2024-08-29,1,,,,,シサリーア,0
1425,7011001164297,新規,0,2024-08-29,2024-08-29,株式会社バンディーボ,,株式会社,東京都,渋谷区,宇田川町３－７ヒューリック渋谷公園通りビル５Ｆ－１０５,,13,113,1500042,,,,,,,2024-08-29,1,,,,,バンディーボ,0
1426,7011001164330,新規,0,2024-08-29,2024-08-29,株式会社ｗｏｏ,,株式会社,東京都,渋谷区,神宮前６丁目８番４号,,13,113,1500001,,,,,,,2024-08-29,1,,,,,ウー,0
1427,7011001164347,新規,0,2024-08-29,2024-08-29,株式会社ＪＷＪ,,株式会社,東京都,渋谷区,恵比寿西２丁目８番５号高麗羅ビル３階,,13,113,1500021,,,,,,,2024-08-29,1,,,,,ジェーダブルジェー,0
1433,7011003019904,新規,0,2024-08-29,2024-08-29,合同会社ｒｅｍｙ,,合同会社,東京都,渋谷区,本町４丁目３１番９号ラ・ブランシュＫＫビル４０１,,13,113,1510071,,,,,,,2024-08-29,1,,,,,レミー,0
1434,7011005010646,新規,0,2024-08-29,2024-08-29,一般社団法人国際Ｓｅｐｔｏｒｈｉｎｏｐｌａｓｔｙ治療学会,,その他の設立登記法人,東京都,渋谷区,東１丁目３２番１２号,,13,113,1500011,,,,,,,2024-08-29,1,,,,,コクサイセプトライノプラスティチリョウガッカイ,0
1436,7011101108591,新規,0,2024-08-29,2024-08-29,株式会社足軽,,株式会社,東京都,新宿区,西新宿３丁目３番１３号西新宿水間ビル６階,,13,104,1600023,,,,,,,2024-08-29,1,,,,,アシガル,0
1438,7011103014846,新規,0,2024-08-29,2024-08-29,合同会社Ｙ‐ｋｎｏｔ,,合同会社,東京都,新宿区,高田馬場４丁目４番３２号,,13,104,1690075,,,,,,,2024-08-29,1,,,,,ワイノット,0
1440,7011201025753,新規,0,2024-08-29,2024-08-29,ｅｄｏ株式会社,,株式会社,東京都,中野区,丸山２丁目８番１０号,,13,114,1650021,,,,,,,2024-08-29,1,,,,,エド,0
1441,7011501031096,新規,0,2024-08-29,2024-08-29,健康第一株式会社,,株式会社,東京都,荒川区,町屋３丁目４番３号ハローライフ町屋１０１,,13,118,1160001,,,,,,,2024-08-29,1,,,,,ケンコウダイイチ,0
1445,7011701027571,新規,0,2024-08-29,2024-08-29,成一通商株式会社,,株式会社,東京都,江戸川区,上一色３丁目２３番１,,13,123,1330041,,,,,,,2024-08-29,1,,,,,セイイチツウショウ,0
1454,7021001083125,新規,0,2024-08-29,2024-08-29,株式会社継三,,株式会社,神奈川県,厚木市,三田２丁目２２－５,,14,212,2430211,,,,,,,2024-08-29,1,,,,,ツギサン,0
1456,7021003014961,新規,0,2024-08-29,2024-08-29,合同会社エフィシエント,,合同会社,神奈川県,相模原市中央区,鹿沼台１丁目１－１５－２階,,14,152,2520233,,,,,,,2024-08-29,1,,,,,エフィシエント,0
1460,7030005021817,新規,0,2024-08-29,2024-08-29,特定非営利活動法人家庭養育支援機構,,その他の設立登記法人,埼玉県,所沢市,くすのき台１丁目１３－２,,11,208,3590037,,,,,,,2024-08-29,1,,,,,カテイヨウシクシエンキコウ,0
1469,7040003025703,新規,0,2024-08-29,2024-08-29,ミクロンテックサービス合同会社,,合同会社,千葉県,浦安市,入船５丁目３１番１０３号,,12,227,2790012,,,,,,,2024-08-29,1,,,,,ミクロンテックサービス,0
1470,7050001055313,新規,0,2024-08-29,2024-08-29,株式会社Ｎｇｉｆｔ,,株式会社,茨城県,古河市,女沼６１６番地１,,08,204,3060226,,,,,,,2024-08-29,1,,,,,エヌギフト,0
1473,7050003008599,新規,0,2024-08-29,2024-08-29,合同会社ｖｉｔａ,,合同会社,茨城県,牛久市,ひたち野東３丁目２３－９,,08,219,3001207,,,,,,,2024-08-29,1,,,,,ヴィータ,0
1474,7050003008649,新規,0,2024-08-29,2024-08-29,合同会社ワールドキーボード,,合同会社,茨城県,鉾田市,上釜４２４５－４ニューシャンドリーム６１４,,08,234,3111403,,,,,,,2024-08-29,1,,,,,ワールドキーボード,0
1478,7060003005224,新規,0,2024-08-29,2024-08-29,合同会社訪問事業所ひだまり,,合同会社,栃木県,足利市,五十部町５３１番地１,,09,202,3260843,,,,,,,2024-08-29,1,,,,,ホウモンジギョウショヒダマリ,0
1483,7090003002631,新規,0,2024-08-29,2024-08-29,吉祥合同会社,,合同会社,山梨県,甲府市,下石田２丁目１８番３－６５号,,19,201,4000046,,,,,,,2024-08-29,1,,,,,キッショウ,0
1484,7100001037792,新規,0,2024-08-29,2024-08-29,株式会社ＯＥ,,株式会社,長野県,飯田市,東栄町３１４７番地６,,20,205,3950024,,,,,,,2024-08-29,1,,,,,オーイー,0
1485,7100001037801,新規,0,2024-08-29,2024-08-29,フローレン株式会社,,株式会社,長野県,下高井郡野沢温泉村,大字豊郷６６３６番地１,,20,563,3892502,,,,,,,2024-08-29,1,,,,,フローレン,0
1494,7120003027419,新規,0,2024-08-29,2024-08-29,エスベアード合同会社,,合同会社,大阪府,大阪市中央区,瓦町４丁目３－１４御堂アーバンライフ８０８,,27,128,5410048,,,,,,,2024-08-29,1,,,,,エスベアード,0
1495,7120003027427,新規,0,2024-08-29,2024-08-29,合同会社キャリア・エンカレッジ・ラボ,,合同会社,大阪府,大阪市東住吉区,南田辺３丁目１０番１号,,27,121,5460033,,,,,,,2024-08-29,1,,,,,キャリアエンカレッジラボ,0
1498,7120901049687,新規,0,2024-08-29,2024-08-29,株式会社デスモス,,株式会社,大阪府,豊中市,上野坂２丁目２１番３－１０７号,,27,203,5600012,,,,,,,2024-08-29,1,,,,,デスモス,0
1499,7120901049695,新規,0,2024-08-29,2024-08-29,アイル株式会社,,株式会社,大阪府,吹田市,円山町３３番３０号,,27,205,5640061,,,,,,,2024-08-29,1,,,,,アイル,0
1501,7122001038397,新規,0,2024-08-29,2024-08-29,クレセア株式会社,,株式会社,大阪府,大東市,大字龍間１９２０番地の８４,,27,218,5740012,,,,,,,2024-08-29,1,,,,,クレセア,0
1502,7122001038406,新規,0,2024-08-29,2024-08-29,ＮＯＮ　ＬＡ株式会社,,株式会社,大阪府,東大阪市,柏田西２丁目１４号９号,,27,227,5770835,,,,,,,2024-08-29,1,,,,,ノンラー,0
1506,7140001135618,新規,0,2024-08-29,2024-08-29,Ｋｏｈｅｉ．Ｅ．Ｓ株式会社,,株式会社,兵庫県,芦屋市,上宮川町１番５－７０４号,,28,206,6590061,,,,,,,2024-08-29,1,,,,,コウヘイイーエス,0
1520,7180001162963,新規,0,2024-08-29,2024-08-29,株式会社タツミホールディングス,,株式会社,愛知県,大府市,横根町新江１５番地１２,,23,223,4740011,,,,,,,2024-08-29,1,,,,,タツミホールディングス,0
1521,7180001163029,新規,0,2024-08-29,2024-08-29,ＭＴＫ株式会社,,株式会社,愛知県,一宮市,大和町馬引字郷東２５番地１,,23,203,4910931,,,,,,,2024-08-29,1,,,,,エムティーケー,0
1522,7180001163045,新規,0,2024-08-29,2024-08-29,ＳＳＹ株式会社,,株式会社,愛知県,名古屋市瑞穂区,白砂町２丁目３５番地の１９,,23,108,4670056,,,,,,,2024-08-29,1,,,,,エスエスワイ,0
1526,7180003027289,新規,0,2024-08-29,2024-08-29,合同会社ｏｃｈｙａｎ,,合同会社,愛知県,名古屋市昭和区,楽園町３３番地プラウド昭和楽園町テラス４２１号,,23,107,4660822,,,,,,,2024-08-29,1,,,,,オーチャン,0
1533,7190003004782,新規,0,2024-08-29,2024-08-29,Ｔ’ｓ　Ｔｒｉｂｅ合同会社,,合同会社,三重県,亀山市,関町新所１４９１番地６,,24,210,5191111,,,,,,,2024-08-29,1,,,,,ティーズトライブ,0
1534,7200001042873,新規,0,2024-08-29,2024-08-29,山県産業株式会社,,株式会社,岐阜県,山県市,東深瀬６７９番地１,,21,215,5012104,,,,,,,2024-08-29,1,,,,,ヤマガタサンギョウ,0
1541,7250001020791,新規,0,2024-08-29,2024-08-29,株式会社はなえむ,,株式会社,山口県,周南市,大字須々万本郷３８５番地の１,,35,215,7450122,,,,,,,2024-08-29,1,,,,,ハナエム,0
1544,7260001039410,新規,0,2024-08-29,2024-08-29,株式会社グレジャー,,株式会社,岡山県,岡山市北区,問屋町９－１０１タイルビル３Ｆｆａｂｂｉｔ岡山問屋町,,33,101,7000977,,,,,,,2024-08-29,1,,,,,グレジャー,0
1548,7290001107098,新規,0,2024-08-29,2024-08-29,株式会社ｍｅｒｃｉ,,株式会社,福岡県,福岡市中央区,薬院４丁目１４－２－１１０２,,40,133,8100022,,,,,,,2024-08-29,1,,,,,メルシー,0
1549,7290801030838,新規,0,2024-08-29,2024-08-29,中村産業農業事業部株式会社,,株式会社,福岡県,田川市,大字弓削田８０番地,,40,206,8260041,,,,,,,2024-08-29,1,,,,,ナカムラサンギョウノウギョウジギョウブ,0
1572,7430001092557,新規,0,2024-08-29,2024-08-29,株式会社ケイズ,,株式会社,北海道,札幌市厚別区,大谷地東２丁目５番６０号,,01,108,0040041,,,,,,,2024-08-29,1,,,,,ケイズ,0
1582,7700150126939,新規,0,2024-08-29,2024-08-29,Ｃａｒｅｊｏｙ　Ｔｅｃｈｎｏｌｏｇｙ　Ｌｉｍｉｔｅｄ,,外国会社等,,,,,,,,ＲＯＯＭ　１，１６／Ｆ，ＥＭＰＲＥＳＳ　ＰＬＡＺＡ　１７－１９　ＣＨＡＴＨＡＭ　ＲＯＡＤ　ＴＳＩＭ　ＳＨＡ　ＴＳＵＩ，ＫＬ，ＨＫ,,,,,,2024-08-29,1,,,,,ケアジョイテクノロジーリミテッド,0
1587,8010001247870,新規,0,2024-08-29,2024-08-29,株式会社ヴァース,,株式会社,東京都,中央区,晴海３丁目１３番１－５００４号,,13,102,1040053,,,,,,,2024-08-29,1,,,,,ヴァース,0
1589,8010005038721,新規,0,2024-08-29,2024-08-29,Ｂ‐ＦＬＡＧ特定目的会社,,その他の設立登記法人,東京都,千代田区,神田神保町１丁目１１番地さくら綜合事務所内,,13,101,1010051,,,,,,,2024-08-29,1,,,,,ビーフラッグ,0
1596,8010401184788,新規,0,2024-08-29,2024-08-29,株式会社Ｄｏｔｓ　Ｒｅｓｅａｒｃｈ,,株式会社,東京都,港区,芝浦４丁目２０－２ブルームタワー２３１８,,13,103,1080023,,,,,,,2024-08-29,1,,,,,ドッツリサーチ,0
1597,8010401184805,新規,0,2024-08-29,2024-08-29,株式会社ＶＯＩＣＥ,,株式会社,東京都,港区,赤坂８丁目１２番２８号パレス赤坂５０２,,13,103,1070052,,,,,,,2024-08-29,1,,,,,ヴォイス,0
1598,8010403033299,新規,0,2024-08-29,2024-08-29,合同会社雙,,合同会社,東京都,港区,赤坂６丁目２－１２－２０１,,13,103,1070052,,,,,,,2024-08-29,1,,,,,ソウ,0
1602,8010501052738,新規,0,2024-08-29,2024-08-29,株式会社ｓｕｎｒｉｓｅ,,株式会社,東京都,台東区,鳥越１丁目３０―１０―７０２,,13,106,1110054,,,,,,,2024-08-29,1,,,,,サンライズ,0
1603,8010501052812,新規,0,2024-08-29,2024-08-29,ＢｌａｄｅＰｕｐｐｅｔ株式会社,,株式会社,東京都,台東区,台東３丁目５番１０号－１０２－２Ｈ,,13,106,1100016,,,,,,,2024-08-29,1,,,,,ブレードパペット,0
1604,8010501052820,新規,0,2024-08-29,2024-08-29,復晟株式会社,,株式会社,東京都,台東区,上野１丁目１３－４エスペランサ湯島７Ｆ,,13,106,1100005,,,,,,,2024-08-29,1,,,,,フクセイ,0
1621,8011001164346,新規,0,2024-08-29,2024-08-29,株式会社Ｏｖｅｒ‐Ｔｏｎｅ,,株式会社,東京都,渋谷区,道玄坂１丁目１０番８号渋谷道玄坂東急ビル２Ｆ－Ｃ,,13,113,1500043,,,,,,,2024-08-29,1,,,,,オーバートーン,0
1624,8011003019886,新規,0,2024-08-29,2024-08-29,ｙｕａｌａ　ｈａｌｕ合同会社,,合同会社,東京都,渋谷区,渋谷２丁目１９－１５宮益坂ビルディング６０９,,13,113,1500002,,,,,,,2024-08-29,1,,,,,ユアラハル,0
1625,8011003019894,新規,0,2024-08-29,2024-08-29,合同会社ｒｅｇｉａ,,合同会社,東京都,渋谷区,西原１丁目３６番３号,,13,113,1510066,,,,,,,2024-08-29,1,,,,,レジーア,0
1628,8011101108608,新規,0,2024-08-29,2024-08-29,株式会社メディアジョッキー,,株式会社,東京都,新宿区,高田馬場３丁目８番５号安永ビル２階２０１号室,,13,104,1690075,,,,,,,2024-08-29,1,,,,,メディアジョッキー,0
1630,8011201025752,新規,0,2024-08-29,2024-08-29,株式会社秀俊,,株式会社,東京都,中野区,新井１丁目３７番３号,,13,114,1650026,,,,,,,2024-08-29,1,,,,,シュウシュン,0
1639,8011403004488,新規,0,2024-08-29,2024-08-29,Ｓｕｉｓｅｉ合同会社,,合同会社,東京都,板橋区,南常盤台１丁目１１－６レフア南常盤台１０１号室,,13,119,1740072,,,,,,,2024-08-29,1,,,,,スイセイ,0
1643,8011503006203,新規,0,2024-08-29,2024-08-29,ツヨシ合同会社,,合同会社,東京都,荒川区,東日暮里６丁目１９番３号セージハイム３０５,,13,118,1160014,,,,,,,2024-08-29,1,,,,,ツヨシ,0
1648,8012401042216,新規,0,2024-08-29,2024-08-29,株式会社Ｊ．Ｂ‐Ｏｎｅ,,株式会社,東京都,稲城市,百村１４４番地,,13,225,2060804,,,,,,,2024-08-29,1,,,,,ジェイビーワン,0
1649,8012405005037,新規,0,2024-08-29,2024-08-29,一般社団法人Ｇｌｏｃａｌ　Ｙｏｕｔｈ　Ｐａｒｔｎｅｒｓ,,その他の設立登記法人,東京都,三鷹市,大沢１丁目２番４４号,,13,204,1810015,,,,,,,2024-08-29,1,,,,,グローカルユースパートナーズ,0
1657,8013301052973,新規,0,2024-08-29,2024-08-29,華宏商事株式会社,,株式会社,東京都,豊島区,南大塚３丁目１６－２信和マンション２０３,,13,116,1700005,,,,,,,2024-08-29,1,,,,,カコウショウジ,0
1664,8020001158794,新規,0,2024-08-29,2024-08-29,株式会社リサリティ,,株式会社,神奈川県,川崎市高津区,溝口１丁目１３番１６－１５０３号,,14,134,2130001,,,,,,,2024-08-29,1,,,,,リサリティ,0
1671,8021001083124,新規,0,2024-08-29,2024-08-29,ＩＢＩ株式会社,,株式会社,神奈川県,茅ヶ崎市,萩園１８１９番地,,14,207,2530071,,,,,,,2024-08-29,1,,,,,アイビーアイ,0
1673,8021003014960,新規,0,2024-08-29,2024-08-29,合同会社ＲｅＬＡＮＤ,,合同会社,神奈川県,座間市,緑ケ丘３丁目４０－４,,14,216,2520021,,,,,,,2024-08-29,1,,,,,リランド,0
1678,8030001162176,新規,0,2024-08-29,2024-08-29,株式会社アールズカンパニー,,株式会社,埼玉県,和光市,本町６番５号和光エイノビル４階,,11,229,3510114,,,,,,,2024-08-29,1,,,,,アールズカンパニー,0
1679,8030001162184,新規,0,2024-08-29,2024-08-29,株式会社Ａｏｎｅｌａ埼玉,,株式会社,埼玉県,さいたま市緑区,大字大門１３７０番地５,,11,109,3360963,,,,,,,2024-08-29,1,,,,,アネラサイタマ,0
1680,8030001162218,新規,0,2024-08-29,2024-08-29,株式会社ＣＡＲＲＹ,,株式会社,埼玉県,新座市,新堀２丁目８番４１号,,11,230,3520032,,,,,,,2024-08-29,1,,,,,キャリー,0
1687,8040001135156,新規,0,2024-08-29,2024-08-29,株式会社Ｋ‐ｏｎｅ,,株式会社,千葉県,千葉市美浜区,若葉３丁目１番地１８幕張ベイパーククロスレジデンス棟２Ｆ,,12,106,2610014,,,,,,,2024-08-29,1,,,,,ケーワン,0
1688,8040001135180,新規,0,2024-08-29,2024-08-29,株式会社ＣＨＴＴ,,株式会社,千葉県,成田市,本三里塚１８１－１４エムケイ２０６号,,12,211,2860118,,,,,,,2024-08-29,1,,,,,シエチティティ,0
1697,8060005010238,新規,0,2024-08-29,2024-08-29,一般社団法人アストロ,,その他の設立登記法人,栃木県,那須塩原市,東赤田３４３番地１３,,09,213,3292742,,,,,,,2024-08-29,1,,,,,アストロ,0
1710,8090001018868,新規,0,2024-08-29,2024-08-29,株式会社Ｍｅｒｃｉ,,株式会社,山梨県,甲府市,大里町２９９０－１６７雨宮店舗１階,,19,201,4000053,,,,,,,2024-08-29,1,,,,,メルシー,0
1715,8100003007735,新規,0,2024-08-29,2024-08-29,合同会社東盈,,合同会社,長野県,北安曇郡白馬村,大字北城字平川入２９４２番地８,,20,485,3999301,,,,,,,2024-08-29,1,,,,,トウエイ,0
1716,8100003007743,新規,0,2024-08-29,2024-08-29,合同会社ＳＯＬ３６,,合同会社,長野県,飯山市,大字飯山９７８番地,,20,213,3892253,,,,,,,2024-08-29,1,,,,,ソルサンロク,0
1721,8110003005498,新規,0,2024-08-29,2024-08-29,合同会社スターｏｎｅ,,合同会社,新潟県,新潟市江南区,亀田水道町５丁目２番３号,,15,104,9500123,,,,,,,2024-08-29,1,,,,,スターワン,0
1729,8120001268063,新規,0,2024-08-29,2024-08-29,フォーエスインダストリー株式会社,,株式会社,大阪府,大阪市城東区,諏訪３丁目１６番３５号,,27,118,5360021,,,,,,,2024-08-29,1,,,,,フォーエスインダストリー,0
1730,8120001268138,新規,0,2024-08-29,2024-08-29,株式会社ａｎｏｔｈｅｒ,,株式会社,大阪府,大阪市大正区,泉尾５丁目８番３６号,,27,108,5510031,,,,,,,2024-08-29,1,,,,,アナザー,0
1731,8120001268154,新規,0,2024-08-29,2024-08-29,神戸プレクック株式会社,,株式会社,大阪府,大阪市住吉区,苅田７丁目３番１０号,,27,120,5580011,,,,,,,2024-08-29,1,,,,,コウベプレクック,0
1736,8120101070195,新規,0,2024-08-29,2024-08-29,コムレイド株式会社,,株式会社,大阪府,泉南郡岬町,淡輪６８７番地の１６,,27,366,5990301,,,,,,,2024-08-29,1,,,,,コムレイド,0
1737,8120101070204,新規,0,2024-08-29,2024-08-29,ＲＯＳＴＯＣＫ　ＪＡＰＡＮ　ＨＯＬＤＩＮＧＳ株式会社,,株式会社,大阪府,羽曳野市,駒ケ谷１１２番１号,,27,222,5830841,,,,,,,2024-08-29,1,,,,,ロストックジャパンホールディングス,0
1738,8120103006032,新規,0,2024-08-29,2024-08-29,ＯＮＤ合同会社,,合同会社,大阪府,泉佐野市,上町３丁目１０番１５号３階,,27,213,5980007,,,,,,,2024-08-29,1,,,,,オーエヌディー,0
1755,8140001135625,新規,0,2024-08-29,2024-08-29,株式会社福翔,,株式会社,兵庫県,揖保郡太子町,立岡４１１番地,,28,464,6711531,,,,,,,2024-08-29,1,,,,,フクショウ,0
1767,8180001163011,新規,0,2024-08-29,2024-08-29,ＹｕｍｅＹｕｋｉ　Ｊａｐａｎ株式会社,,株式会社,愛知県,名古屋市南区,柴田町６丁目１１番２号,,23,112,4570815,,,,,,,2024-08-29,1,,,,,ユメユキジャパン,0
1768,8180001163028,新規,0,2024-08-29,2024-08-29,株式会社シャナブ,,株式会社,愛知県,知多郡美浜町,大字小野浦字福島３６番地２,,23,446,4703236,,,,,,,2024-08-29,1,,,,,シャナブ,0
1769,8180001163036,新規,0,2024-08-29,2024-08-29,株式会社Ｗｉｎ　Ｃｕｂｅ,,株式会社,愛知県,名古屋市中村区,名駅３丁目２６番８号,,23,105,4500002,,,,,,,2024-08-29,1,,,,,ウィンキューブ,0
1770,8180001163044,新規,0,2024-08-29,2024-08-29,株式会社＿辰,00136115,株式会社,愛知県,小牧市,常普請２丁目２９０番地,,23,219,4850044,,,,,,,2024-08-29,1,,,,,シンチン,0
1771,8180001163060,新規,0,2024-08-29,2024-08-29,ＫＡＹＯ　ＪＡＰＡＮ株式会社,,株式会社,愛知県,名古屋市南区,豊４丁目２２番１０号,,23,112,4570863,,,,,,,2024-08-29,1,,,,,カヨージャパン,0
1774,8180005020745,新規,0,2024-08-29,2024-08-29,特定非営利活動法人春のかぜ,,その他の設立登記法人,愛知県,春日井市,東野町西３丁目１６番地１,,23,206,4860818,,,,,,,2024-08-29,1,,,,,ハルノカゼ,0
1780,8190001031588,新規,0,2024-08-29,2024-08-29,株式会社ＩＫＴ,,株式会社,三重県,四日市市,高花平１丁目１番地１２３,,24,202,5100945,,,,,,,2024-08-29,1,,,,,アイケイティ,0
1787,8240003006830,新規,0,2024-08-29,2024-08-29,合同会社Ｎｏａ’ｓＡｒｋｓ,,合同会社,広島県,広島市中区,本川町３丁目１番５号２Ｆ,,34,101,7300802,,,,,,,2024-08-29,1,,,,,ノアズアークス,0
1789,8250001020790,新規,0,2024-08-29,2024-08-29,株式会社ホコサキ,,株式会社,山口県,宇部市,相生町５－１０城南ビル３階,,35,202,7550043,,,,,,,2024-08-29,1,,,,,ホコサキ,0
1800,8280001009245,新規,0,2024-08-29,2024-08-29,株式会社スカイファクト,,株式会社,島根県,松江市,八束町江島１１２８番地６０,,32,201,6901401,,,,,,,2024-08-29,1,,,,,スカイファクト,0
1813,8290001107064,新規,0,2024-08-29,2024-08-29,株式会社ＬＡ,,株式会社,福岡県,福岡市早良区,小田部２丁目１９番１号第一佐田ビル２０５号,,40,137,8140032,,,,,,,2024-08-29,1,,,,,エルエー,0
1815,8290801030837,新規,0,2024-08-29,2024-08-29,株式会社九州図書センター,,株式会社,福岡県,北九州市八幡西区,力丸町２４番２５号,,40,109,8070802,,,,,,,2024-08-29,1,,,,,キュウシュウトショセンター,0
1818,8330005010821,新規,0,2024-08-29,2024-08-29,一般社団法人アンサンヒーロー,,その他の設立登記法人,熊本県,熊本市西区,新土河原２丁目１番１号,,43,103,8600056,,,,,,,2024-08-29,1,,,,,アンサンヒーロー,0
1826,8360001034128,新規,0,2024-08-29,2024-08-29,株式会社寛設備,,株式会社,沖縄県,那覇市,古波蔵３丁目３番３７－７０５号ブランシエラ那覇古波蔵,,47,201,9000024,,,,,,,2024-08-29,1,,,,,カンセツビ,0
1838,8380001034761,新規,0,2024-08-29,2024-08-29,株式会社ミライソウサク,,株式会社,福島県,いわき市,鹿島町久保字反町１１－２３,,07,204,9718144,,,,,,,2024-08-29,1,,,,,ミライソウサク,0
1843,8430003016736,新規,0,2024-08-29,2024-08-29,合同会社リンゴの木,,合同会社,北海道,小樽市,緑２丁目１９番８号,,01,203,0470034,,,,,,,2024-08-29,1,,,,,リンゴノキ,0
1844,8450001014392,新規,0,2024-08-29,2024-08-29,株式会社ｔｕｋａｎｎｙ,,株式会社,北海道,旭川市,三条通６丁目３３１－１ヨシタケ７号館３階,,01,204,0700033,,,,,,,2024-08-29,1,,,,,ツカニー,0
1854,8700150125824,新規,0,2024-08-29,2024-06-10,宮城県臨床心理士会,,その他,宮城県,仙台市宮城野区,幸町４丁目７番２号,,04,102,9830836,,,,,,,2024-06-10,1,,,,,ミヤギケンリンシヨウシンリシカイ,0
1855,8700150126938,新規,0,2024-08-29,2024-08-29,ＺＨＳ　Ａｕｔｏ　Ｔｒａｄｉｎｇ　Ｃｏｍｐａｎｙ,,外国会社等,神奈川県,厚木市,妻田東３丁目２３番４号ガヴァナーズアームスＢ－１０２,,14,212,2430813,スリランカ民主社会主義共和国、ガラゲダラ、マディゲ、アッカレイ、Ｎｏ．１１０,,,,,,2024-08-29,1,,,,,ゼツトエイチエスオートトレーデイングカンパニー,0
1859,9010001247853,新規,0,2024-08-29,2024-08-29,中央産業振興株式会社,,株式会社,東京都,千代田区,内神田２丁目１２番１２号,,13,101,1010047,,,,,,,2024-08-29,1,,,,,チュウオウサンギョウシンコウ,0
1862,9010003044729,新規,0,2024-08-29,2024-08-29,合同会社ＴＭＹオフィス,,合同会社,東京都,千代田区,神田小川町１丁目１０番地２,,13,101,1010052,,,,,,,2024-08-29,1,,,,,ティーエムワイオフィス,0
1864,9010005038720,新規,0,2024-08-29,2024-08-29,一般社団法人Ｃ・Ｃ・Ｅホールディング,,その他の設立登記法人,東京都,千代田区,丸の内１丁目４番１号東京共同会計事務所内,,13,101,1000005,,,,,,,2024-08-29,1,,,,,シーシーイーホールディング,0
1867,9010401184770,新規,0,2024-08-29,2024-08-29,株式会社イーグル,,株式会社,東京都,港区,白金４丁目１０番１８号,,13,103,1080072,,,,,,,2024-08-29,1,,,,,イーグル,0
1868,9010401184787,新規,0,2024-08-29,2024-08-29,株式会社Ｊｏｂｌａｂ　Ｔｅｃｈｎｏｌｏｇｉｅｓ,,株式会社,東京都,港区,赤坂１丁目４番６号,,13,103,1070052,,,,,,,2024-08-29,1,,,,,ジョブラボテクノロジーズ,0
1869,9010401184795,新規,0,2024-08-29,2024-08-29,株式会社ガトラボ,,株式会社,東京都,港区,六本木１丁目４－５アークヒルズサウスタワー４Ｆ,,13,103,1060032,,,,,,,2024-08-29,1,,,,,ガトラボ,0
1870,9010401184804,新規,0,2024-08-29,2024-08-29,株式会社パートンキャピタル,,株式会社,東京都,港区,港南４丁目６番８－４００２号,,13,103,1080075,,,,,,,2024-08-29,1,,,,,パートンキャピタル,0
1875,9010701046472,新規,0,2024-08-29,2024-08-29,株式会社焔幸,,株式会社,東京都,品川区,中延５丁目６－１２－２０１インベストビギン中延６,,13,109,1420053,,,,,,,2024-08-29,1,,,,,エンコ,0
1880,9010901055868,新規,0,2024-08-29,2024-08-29,株式会社ラ・ペピニエール,,株式会社,東京都,世田谷区,赤堤１丁目３４番３号,,13,112,1560044,,,,,,,2024-08-29,1,,,,,ラペピニエール,0
1884,9011001164279,新規,0,2024-08-29,2024-08-29,株式会社ビジョンエリート,,株式会社,東京都,渋谷区,渋谷２丁目１６番５号宮益坂プレイス渋谷１２階,,13,113,1500002,,,,,,,2024-08-29,1,,,,,,0
1885,9011001164361,新規,0,2024-08-29,2024-08-29,株式会社Ｍｅｍｅｎｔｏ　Ｆｉｌｍ,,株式会社,東京都,渋谷区,渋谷１丁目１０番２号,,13,113,1500002,,,,,,,2024-08-29,1,,,,,メメントフィルム,0
1888,9011003019860,新規,0,2024-08-29,2024-08-29,合同会社ＧＬＴ,,合同会社,東京都,渋谷区,本町６丁目３６－２（１０４号室）,,13,113,1510071,,,,,,,2024-08-29,1,,,,,ジーエルティー,0
1889,9011003019885,新規,0,2024-08-29,2024-08-29,フロンテラ合同会社,,合同会社,東京都,渋谷区,恵比寿西２丁目８番４号ＥＸ恵比寿西ビル５階,,13,113,1500021,,,,,,,2024-08-29,1,,,,,フロンテラ,0
1890,9011003019893,新規,0,2024-08-29,2024-08-29,合同会社Ｐｕｓｚｔａ,,合同会社,東京都,渋谷区,本町６丁目３７番１０号,,13,113,1510071,,,,,,,2024-08-29,1,,,,,プスタ,0
1903,9011103014844,新規,0,2024-08-29,2024-08-29,合同会社Ｐｌｕｓ　Ｕｌｔｒａ,,合同会社,東京都,新宿区,西新宿３丁目３番１３号西新宿水間ビル２Ｆ,,13,104,1600023,,,,,,,2024-08-29,1,,,,,プルスウルトラ,0
1911,9011603004411,新規,0,2024-08-29,2024-08-29,合同会社ＦＩＲＳＴ　ＳＵＮＲＩＳＥ,,合同会社,東京都,練馬区,旭町１丁目２９－１４,,13,120,1790071,,,,,,,2024-08-29,1,,,,,ファーストサンライズ,0
1913,9011701027578,新規,0,2024-08-29,2024-08-29,吉野不動産管理サービス株式会社,,株式会社,東京都,江戸川区,東葛西５丁目１８番２０号,,13,123,1340084,,,,,,,2024-08-29,1,,,,,ヨシノフドウサンカンリサービス,0
1919,9013301053046,新規,0,2024-08-29,2024-08-29,株式会社アルファ,,株式会社,東京都,豊島区,巣鴨２丁目１番２号太平味のビル５階,,13,116,1700002,,,,,,,2024-08-29,1,,,,,アルファ,0
1920,9013305003633,新規,0,2024-08-29,2024-08-29,医療法人社団Ｕｌｔｉｍａ　Ｄｅｎｔ,,その他の設立登記法人,東京都,豊島区,南大塚３丁目４４番１４号シティハウス南大塚レジデンス１階,,13,116,1700005,,,,,,,2024-08-29,1,,,,,ウルティマデント,0
1926,9020001158752,新規,0,2024-08-29,2024-08-29,ＦＵＮ　ＳＭＩＬＥ株式会社,,株式会社,神奈川県,川崎市川崎区,駅前本町１１番地２川崎フロンティアビル４階,,14,131,2100007,,,,,,,2024-08-29,1,,,,,ファンスマイル,0
1927,9020001158918,新規,0,2024-08-29,2024-08-29,夢人株式会社,,株式会社,神奈川県,横浜市西区,浅間町１丁目４番３号ウィザードビル４０２,,14,103,2200072,,,,,,,2024-08-29,1,,,,,ユメンチュ,0
1932,9020003026809,新規,0,2024-08-29,2024-08-29,合同会社グッドパーソン,,合同会社,神奈川県,横浜市旭区,鶴ケ峰本町３丁目２１番７号,,14,112,2410021,,,,,,,2024-08-29,1,,,,,グッドパーソン,0
1946,9030001162175,新規,0,2024-08-29,2024-08-29,株式会社碧春興業,,株式会社,埼玉県,川口市,青木４丁目２５番２０－４０２号,,11,203,3320031,,,,,,,2024-08-29,1,,,,,アオハルコウギョウ,0
1947,9030001162191,新規,0,2024-08-29,2024-08-29,株式会社Ｓ．Ｋ．Ｙ,,株式会社,埼玉県,八潮市,大字大曽根３４５番地７,,11,234,3400834,,,,,,,2024-08-29,1,,,,,,0
1948,9030001162217,新規,0,2024-08-29,2024-08-29,株式会社菅間建板,,株式会社,埼玉県,久喜市,菖蒲町菖蒲４６８番地１,,11,232,3460106,,,,,,,2024-08-29,1,,,,,スガマケンバン,0
1953,9030003025017,新規,0,2024-08-29,2024-08-29,合同会社陸送ドットコム,,合同会社,埼玉県,さいたま市桜区,西堀３丁目２１番３４－１０１号,,11,106,3380832,,,,,,,2024-08-29,1,,,,,リクソウドットコム,0
1957,9040001135155,新規,0,2024-08-29,2024-08-29,株式会社山小屋,,株式会社,千葉県,市原市,柿木台３６７番地の２,,12,219,2900548,,,,,,,2024-08-29,1,,,,,ヤマゴヤ,0
1958,9040001135196,新規,0,2024-08-29,2024-08-29,株式会社エナジーホームサービス,,株式会社,千葉県,習志野市,袖ケ浦５丁目７番８号袖ヶ浦ビル２０２,,12,216,2750021,,,,,,,2024-08-29,1,,,,,エナジーホームサービス,0
1965,9050003008647,新規,0,2024-08-29,2024-08-29,合同会社ＩＮＮＯＲＩＮＧＳ,,合同会社,茨城県,水戸市,見川４丁目４５０番地の１８,,08,201,3100912,,,,,,,2024-08-29,1,,,,,イノリングス,0
1971,9060001037440,新規,0,2024-08-29,2024-08-29,株式会社思いは導く,,株式会社,栃木県,那須塩原市,弥生町４番１号,,09,213,3250044,,,,,,,2024-08-29,1,,,,,オモイハミチビク,0
1976,9080001026466,新規,0,2024-08-29,2024-08-29,友和国際水産株式会社,,株式会社,静岡県,静岡市清水区,天神１丁目１番７号２Ｆ,,22,103,4240809,,,,,,,2024-08-29,1,,,,,ユウワコクサイスイサン,0
1978,9100003007742,新規,0,2024-08-29,2024-08-29,あすなろ合同会社,,合同会社,長野県,上田市,常田２丁目３番８号,,20,203,3860018,,,,,,,2024-08-29,1,,,,,アスナロ,0
1980,9110001038664,新規,0,2024-08-29,2024-08-29,株式会社ＡＹＭＥＮ,,株式会社,新潟県,新潟市秋葉区,結１６４－３,,15,105,9560803,,,,,,,2024-08-29,1,,,,,アイメン,0
1981,9110001038672,新規,0,2024-08-29,2024-08-29,株式会社Ｎ．ｎｏｒ,,株式会社,新潟県,長岡市,大手通２丁目２－６,,15,202,9400062,,,,,,,2024-08-29,1,,,,,エヌノア,0
1987,9120001268095,新規,0,2024-08-29,2024-08-29,株式会社雄風観光,,株式会社,大阪府,大阪市住之江区,北島２丁目８番９－３０１,,27,125,5590014,,,,,,,2024-08-29,1,,,,,ユウフウカンコウ,0
1988,9120001268186,新規,0,2024-08-29,2024-08-29,株式会社Ｐｉｌａｔｅｓ　ｏｆ　Ｊａｐａｎ,,株式会社,大阪府,大阪市北区,堂山町１５番４－１０１５号,,27,127,5300027,,,,,,,2024-08-29,1,,,,,ピラティスオブジャパン,0
1994,9120003027409,新規,0,2024-08-29,2024-08-29,合同会社武鉄筋,,合同会社,大阪府,守口市,八雲北町３丁目９番５号,,27,209,5700008,,,,,,,2024-08-29,1,,,,,タケテッキン,0
2000,9130001077792,新規,0,2024-08-29,2024-08-29,株式会社フリーレン,,株式会社,京都府,京都市東山区,下河原通八坂鳥居前下る三丁目南町４２４番地ライオンズマンション高台寺３０５号,,26,105,6050000,,,,,,,2024-08-29,1,,,,,フリーレン,0
2004,9140001135616,新規,0,2024-08-29,2024-08-29,丹波ＧＦ株式会社,,株式会社,兵庫県,丹波市,氷上町西中４９３番地１,,28,223,6693603,,,,,,,2024-08-29,1,,,,,タンバジーエフ,0
2005,9140001135657,新規,0,2024-08-29,2024-08-29,株式会社Ｆｉｌｅｒ,,株式会社,兵庫県,姫路市,五軒邸４丁目５０,,28,201,6700854,,,,,,,2024-08-29,1,,,,,フィレール,0
2007,9140003021005,新規,0,2024-08-29,2024-08-29,ＴＭＧＥ合同会社,,合同会社,兵庫県,神戸市西区,糀台２丁目９番地の７,,28,111,6512273,,,,,,,2024-08-29,1,,,,,ティーエムジーイー,0
2008,9140003021021,新規,0,2024-08-29,2024-08-29,合同会社くらげ,,合同会社,兵庫県,神戸市須磨区,桜の杜２丁目６番５号,,28,107,6540114,,,,,,,2024-08-29,1,,,,,クラゲ,0
2016,9180001163035,新規,0,2024-08-29,2024-08-29,株式会社ＭＦポート,,株式会社,愛知県,名古屋市天白区,鴻の巣２丁目１６１０番地２,,23,116,4680003,,,,,,,2024-08-29,1,,,,,エムエフポート,0
2020,9180003027295,新規,0,2024-08-29,2024-08-29,みずのわ合同会社,,合同会社,愛知県,名古屋市守山区,中新７番２０号,,23,113,4630057,,,,,,,2024-08-29,1,,,,,ミズノワ,0
2031,9210001019893,新規,0,2024-08-29,2024-08-29,ヘッドスプリングホールディングス株式会社,,株式会社,福井県,坂井市,春江町境第１７号６番地,,18,210,9190434,,,,,,,2024-08-29,1,,,,,ヘッドスプリングホールディングス,0
2037,9240005015812,新規,0,2024-08-29,2024-08-29,一般社団法人Ｎｅｘｔ　Ｐｌａｙｅｒ’ｓ　Ｆｏｕｎｄａｔｉｏｎ,,その他の設立登記法人,広島県,広島市西区,三滝本町２丁目２４番２９号,,34,104,7330802,,,,,,,2024-08-29,1,,,,,ネクストプレイヤーズファウンデーション,0
2049,9290003015751,新規,0,2024-08-29,2024-08-29,合同会社ふうりん,,合同会社,福岡県,福岡市早良区,百道浜４丁目３１－１０,,40,137,8140001,,,,,,,2024-08-29,1,,,,,フウリン,0
2052,9290005019478,新規,0,2024-08-29,2024-08-29,一般社団法人シマゾエビレッジ,,その他の設立登記法人,福岡県,福岡市西区,今宿駅前１丁目３－１８なまりやビル２階２０２,,40,135,8190168,,,,,,,2024-08-29,1,,,,,シマゾエビレッジ,0
2054,9290801030844,新規,0,2024-08-29,2024-08-29,Ｌｉｂｅｒｔｙ株式会社,,株式会社,福岡県,北九州市小倉北区,中津口１丁目１番３８－３０５号,,40,106,8020018,,,,,,,2024-08-29,1,,,,,リバティ,0
2056,9320001020683,新規,0,2024-08-29,2024-08-29,株式会社ＮＡＴＩＶＥ,,株式会社,大分県,中津市,新博多町１７７４,,44,203,8710041,,,,,,,2024-08-29,1,,,,,,0
2060,9340001026761,新規,0,2024-08-29,2024-08-29,株式会社ｙｕｉｎｏｎ,,株式会社,鹿児島県,曽於市,末吉町上町６丁目１３番地２,,46,217,8998609,,,,,,,2024-08-29,1,,,,,ユイノン,0
2072,9430001092571,新規,0,2024-08-29,2024-08-29,本丸商産株式会社,,株式会社,北海道,札幌市中央区,南十五条西１６丁目１番６９－４０１号,,01,101,0640915,,,,,,,2024-08-29,1,,,,,ホンマルショウサン,0
2073,9430003016735,新規,0,2024-08-29,2024-08-29,Ｌｉｍｉｔｌｅｓｓ　Ｅｘｐｅｒｉｅｎｃｅｓ合同会社,,合同会社,北海道,虻田郡倶知安町,ニセコひらふ一条３丁目２番１８号,,01,400,0440080,,,,,,,2024-08-29,1,,,,,リミットレスエクスペリエンシズ,0
2081,9500001025854,新規,0,2024-08-29,2024-08-29,株式会社Ｄ‐ａｓｓｉｓｔ,,株式会社,愛媛県,伊予市,宮下４６９番地３,,38,210,7993102,,,,,,,2024-08-29,1,,,,,ディーアシスト,0
2085,9700150126937,新規,0,2024-08-29,2024-08-29,ＡＬＦＡ　ＴＲＡＤＩＮＧ,,外国会社等,神奈川県,厚木市,関口１０１３番地１コーポ一心１－２０２,,14,212,2430804,スリランカ民主社会主義共和国、キャンディ、ウェレラガマ、クルンドゥゴラ、Ｎｏ．８８／６,,,,,,2024-08-29,1,,,,,アルフアトレーデイング,0
