sequenceNumber,corporateNumber,process,correct,updateDate,changeDate,name,nameImageId,kind,prefectureName,cityName,streetNumber,addressImageId,prefectureCode,cityCode,postCode,addressOutside,addressOutsideImageId,closeDate,closeCause,successorCorporateNumber,changeCause,assignmentDate,latest,enName,enPrefectureName,enCityName,enAddressOutside,furigana,hihyoji
17,1010401147891,登記記録の閉鎖等,0,2024-10-04,2024-09-10,株式会社ルクス,,株式会社,東京都,港区,赤坂４丁目１２番５号ＦＡＤ２０地下１階,,13,103,1070052,,,2024-09-10,合併による解散等,7010001123478,令和６年９月１日東京都港区赤坂四丁目１２番５号ＦＡＤ２０地下１階、地下２階株式会社ｓｍｏｏｔｈ（7010001123478）に合併し解散,2019-09-09,1,,,,,ルクス,0
18,1010401154211,登記記録の閉鎖等,0,2024-10-04,2024-09-09,Ｈｏｍｅｍａｄｅ　ｅｎｅｒｇｙ株式会社,,株式会社,東京都,港区,芝２丁目１０番４号,,13,103,1050014,,,2024-09-09,合併による解散等,9010401018540,令和６年８月３１日東京都港区芝二丁目１０番４号株式会社電巧社（9010401018540）に合併し解散,2020-07-29,1,,,,,ホームメイドエナジー,0
20,1010401161694,登記記録の閉鎖等,0,2024-10-04,2024-09-10,ＩＮＦＬＵＸ　ＦＬＯＴＡＴＩＯＮ　ＷＩＮＤ　ＰＯＷＥＲ　ＨＤ株式会社,,株式会社,東京都,港区,新橋６丁目１７番２１号住友不動産御成門駅前ビル１０階,,13,103,1050004,,,2024-09-10,清算の結了等,,,2021-07-28,1,,,,,インフラックスフロテーションウィンドパワーエイチディー,0
23,1010403023876,登記記録の閉鎖等,0,2024-10-04,2024-09-10,遊佐洋上風力発電合同会社,,合同会社,東京都,港区,新橋６丁目１７番２１号,,13,103,1050004,,,2024-09-10,清算の結了等,,,2020-10-14,1,,,,,ユザヨウジョウフウリョクハツデン,0
26,1010603007299,登記記録の閉鎖等,0,2024-10-04,2024-10-01,合同会社グリーンワークス,,合同会社,東京都,江東区,亀戸４丁目５３番３－３０３号,,13,108,1360071,,,2024-10-01,清算の結了等,,,2018-06-20,1,,,,,グリーンワークス,0
39,1011001059486,登記記録の閉鎖等,0,2024-10-04,2024-09-20,株式会社ニットプランナー,,株式会社,東京都,中央区,新川１丁目２４番８号東熱新川ビル８階,,13,102,1040033,,,2024-09-20,清算の結了等,,,2015-10-05,1,,,,,ニットプランナー,0
82,1020002027641,登記記録の閉鎖等,0,2024-10-04,2024-09-18,有限会社日光陶器,,有限会社,神奈川県,横浜市神奈川区,大口通８番地,,14,102,2210002,,,2024-09-18,清算の結了等,,,2015-10-05,1,,,,,ニッコウトウキ,0
85,1021001009135,登記記録の閉鎖等,0,2024-10-04,2024-10-01,澤田商事株式会社,,株式会社,神奈川県,鎌倉市,植木３５９番地１,,14,204,2470073,,,2024-10-01,清算の結了等,,,2015-10-05,1,,,,,サワダショウジ,0
94,1021002072165,登記記録の閉鎖等,0,2024-10-04,2024-09-30,有限会社パワークラフト,,有限会社,千葉県,館山市,加賀名２０４番地の１,,12,205,2940306,,,2024-09-30,清算の結了等,,,2015-10-05,1,,,,,パワークラフト,0
99,1030002053199,登記記録の閉鎖等,0,2024-10-04,2024-09-26,有限会社イメージメーク・ハウス,,有限会社,埼玉県,上尾市,大字小敷谷１１７４番地１５,,11,219,3620064,,,2024-09-26,清算の結了等,,,2015-10-05,1,,,,,イメージメークハウス,0
100,1030002055030,登記記録の閉鎖等,0,2024-10-04,2024-09-30,有限会社谷平園,,有限会社,埼玉県,上尾市,大字小敷谷８８０番地,,11,219,3620064,,,2024-09-30,清算の結了等,,,2015-10-05,1,,,,,タニヒラエン,0
102,1030002114760,登記記録の閉鎖等,0,2024-10-04,2024-09-26,有限会社レッドサン,,有限会社,埼玉県,熊谷市,妻沼６０７番地６,,11,202,3600201,,,2024-09-26,清算の結了等,,,2015-10-05,1,,,,,レッドサン,0
116,1040002027813,登記記録の閉鎖等,0,2024-10-04,2024-09-30,有限会社東京マネキン紹介所,,有限会社,千葉県,船橋市,行田３丁目１番７棟６０２号,,12,204,2730044,,,2024-09-30,清算の結了等,,,2015-10-05,1,,,,,トウキョウマネキンショウカイジョ,0
123,1050002035583,登記記録の閉鎖等,0,2024-10-04,2024-09-27,有限会社克翔,,有限会社,茨城県,常陸大宮市,宇留野３９２番地,,08,225,3192145,,,2024-09-27,清算の結了等,,,2015-10-05,1,,,,,コクショウ,0
129,1060002036770,登記記録の閉鎖等,0,2024-10-04,2024-09-25,有限会社テーアンドワイ,,有限会社,栃木県,足利市,宮北町１番地の３１,,09,202,3260027,,,2024-09-25,清算の結了等,,,2015-10-05,1,,,,,テーアンドワイ,0
133,1070001013844,登記記録の閉鎖等,0,2024-10-04,2024-10-02,株式会社両毛防水,,株式会社,群馬県,伊勢崎市,柴町１６１番地,,10,204,3720824,,,2024-10-02,清算の結了等,,,2015-10-05,1,,,,,,0
152,1120001003740,登記記録の閉鎖等,0,2024-10-04,2024-10-02,太平不動産株式会社,,株式会社,大阪府,大阪市西成区,天下茶屋東１丁目１１番２号,,27,122,5570011,,,2024-10-02,清算の結了等,,,2015-10-05,1,,,,,タイヘイフドウサン,0
157,1120001164764,登記記録の閉鎖等,0,2024-10-04,2024-09-30,レクラ株式会社,,株式会社,大阪府,大阪市浪速区,日本橋３丁目４番９号エグゼレジデンスタワー１階,,27,111,5560005,,,2024-09-30,合併による解散等,4120001145539,令和６年９月３０日大阪市浪速区日本橋三丁目４番１０号ｎｉｎｅ株式会社（4120001145539）に合併し解散,2015-10-05,1,,,,,レクラ,0
183,1122001025401,登記記録の閉鎖等,0,2024-10-04,2024-09-30,株式会社ナカヤ製作所,,株式会社,大阪府,大東市,新田西町２－２８,,27,218,5740057,,,2024-09-30,清算の結了等,,,2015-10-05,1,,,,,ナカヤセイサクショ,0
196,1140002002822,登記記録の閉鎖等,0,2024-10-04,2024-10-01,有限会社石山商店,,有限会社,兵庫県,神戸市灘区,水道筋１丁目７番地,,28,102,6570831,,,2024-10-01,清算の結了等,,,2015-10-05,1,,,,,イシヤマショウテン,0
199,1140002023694,登記記録の閉鎖等,0,2024-10-04,2024-10-01,有限会社デザインＣｕｂｅ,,有限会社,兵庫県,神戸市東灘区,御影石町３丁目１１番１４－１４０２号,,28,101,6580045,,,2024-10-01,清算の結了等,,,2015-10-05,1,,,,,デザインキューブ,0
200,1140002059012,登記記録の閉鎖等,0,2024-10-04,2024-09-30,有限会社ステーション薬局,,有限会社,兵庫県,西宮市,池田町９番６号２０１,,28,204,6620911,,,2024-09-30,清算の結了等,,,2015-10-05,1,,,,,ステーションヤッキョク,0
203,1150001017606,登記記録の閉鎖等,0,2024-10-04,2024-10-01,株式会社ロセット,,株式会社,奈良県,奈良市,池田町２０３－５,,29,201,6308445,,,2024-10-01,合併による解散等,9150001020453,令和６年１０月１日奈良市三条大路一丁目１０－４３フォレストスクエア３階Ｅ号室株式会社ａｒＸｄｅｓｉｇｎ－Ｌａｂ（9150001020453）に合併し解散,2015-10-05,1,,,,,ロセット,0
212,1180002079790,登記記録の閉鎖等,0,2024-10-04,2024-10-03,有限会社アプロ,,有限会社,愛知県,一宮市,向山町１丁目３８番地３,,23,203,4910869,,,2024-10-03,清算の結了等,,,2015-10-05,1,,,,,アプロ,0
226,1200001007444,登記記録の閉鎖等,0,2024-10-04,2024-10-02,原正工業株式会社,,株式会社,岐阜県,各務原市,つつじが丘１丁目１１２番地,,21,213,5090131,,,2024-10-02,清算の結了等,,,2015-10-05,1,,,,,ハラショウコウギョウ,0
227,1200001027673,登記記録の閉鎖等,0,2024-10-04,2024-10-01,株式会社ミドリ商事,,株式会社,岐阜県,多治見市,喜多町５丁目１２８番地の１,,21,204,5070055,,,2024-10-01,合併による解散等,5200002020525,令和６年１０月１日岐阜県多治見市喜多町五丁目１２８番地の１株式会社ノア（5200002020525）に合併し解散,2015-10-05,1,,,,,ミドリショウジ,0
228,1200001030371,登記記録の閉鎖等,0,2024-10-04,2024-10-01,株式会社テイコク・テクノ,,株式会社,岐阜県,岐阜市,日光町７丁目２７番地,,21,201,5020933,,,2024-10-01,合併による解散等,6200001017934,令和６年１０月１日岐阜県美濃加茂市加茂川町一丁目４番２９号大紘ジオテクノ株式会社（6200001017934）に合併し解散,2015-10-05,1,,,,,テイコクテクノ,0
232,1200002013152,登記記録の閉鎖等,0,2024-10-04,2024-10-02,株式会社ホンダカーズ大垣南,,株式会社,岐阜県,大垣市,割田町５２５番地の１,,21,202,5030952,,,2024-10-02,合併による解散等,3200001011493,令和６年１０月１日岐阜県羽島郡岐南町上印食七丁目１番地株式会社ホンダカーズ岐阜（3200001011493）に合併し解散,2015-10-05,1,,,,,ホンダカーズオオガキミナミ,0
238,1220001021030,登記記録の閉鎖等,0,2024-10-04,2024-09-30,株式会社ユーキ電装,,株式会社,石川県,鳳珠郡能登町,字宇出津山分４字２６番地４,,17,463,9270431,,,2024-09-30,清算の結了等,,,2016-06-09,1,,,,,ユーキデンソウ,0
239,1220003000908,登記記録の閉鎖等,0,2024-10-04,2024-09-19,合名会社カメリア,,合名会社,石川県,加賀市,山中温泉栢野町ハ３６番地,,17,206,9220138,,,2024-09-19,清算の結了等,,,2015-10-05,1,,,,,カメリア,0
243,1240001009619,登記記録の閉鎖等,0,2024-10-04,2024-09-30,広島銘木株式会社,,株式会社,広島県,広島市中区,舟入本町１番１の１１０８号,,34,101,7300843,,,2024-09-30,清算の結了等,,,2015-10-05,1,,,,,ヒロシマメイボク,0
254,1250002010203,登記記録の閉鎖等,0,2024-10-04,2024-10-01,有限会社ナカスイ,,有限会社,山口県,下関市,大和町１丁目１６番１号,,35,201,7500067,,,2024-10-01,清算の結了等,,,2015-10-05,1,,,,,ナカスイ,0
265,1270002009045,登記記録の閉鎖等,0,2024-10-04,2024-10-02,有限会社ホットハート,,有限会社,鳥取県,米子市,旗ヶ崎９丁目１３番１５号,,31,202,6830845,,,2024-10-02,清算の結了等,,,2015-10-05,1,,,,,,0
282,1310002020567,登記記録の閉鎖等,0,2024-10-04,2024-09-27,有限会社ヒラヤマ,,有限会社,長崎県,五島市,吉久木町１２４８番地４,,42,211,8530031,,,2024-09-27,清算の結了等,,,2015-10-05,1,,,,,ヒラヤマ,0
290,1350002003485,登記記録の閉鎖等,0,2024-10-04,2024-10-01,有限会社ニッコー設備,,有限会社,宮崎県,宮崎市,大字跡江８３５番地,,45,201,8802101,,,2024-10-01,清算の結了等,,,2015-10-05,1,,,,,ニッコーセツビ,0
297,1370001046525,登記記録の閉鎖等,0,2024-10-04,2024-09-18,たいようケアクリーン株式会社,,株式会社,宮城県,白石市,寿山８番６号,,04,206,9890241,,,2024-09-18,清算の結了等,,,2020-12-28,1,,,,,タイヨウケアクリーン,0
299,1370002003566,登記記録の閉鎖等,0,2024-10-04,2024-09-24,有限会社長町鈴木板金,,有限会社,宮城県,仙台市太白区,長町南１丁目１１番４７号,,04,104,9820012,,,2024-09-24,清算の結了等,,,2015-10-05,1,,,,,ナガマチスズキバンキン,0
315,1450002002287,登記記録の閉鎖等,0,2024-10-04,2024-09-30,有限会社小林勝市商事,,有限会社,北海道,旭川市,神楽岡五条６丁目３番４号,,01,204,0788315,,,2024-09-30,清算の結了等,,,2015-10-05,1,,,,,コバヤシカツイチショウジ,0
321,1500003000169,登記記録の閉鎖等,0,2024-10-04,2024-09-30,合資会社ハイツフォーラム,,合資会社,愛媛県,今治市,常盤町８丁目４番３８号,,38,202,7940015,,,2024-09-30,清算の結了等,,,2015-10-05,1,,,,,ハイツフォーラム,0
323,2010001107386,登記記録の閉鎖等,0,2024-10-04,2024-07-26,株式会社ハブロッツ,,株式会社,東京都,千代田区,岩本町３丁目１０番７号,,13,101,1010032,,,2024-07-26,合併による解散等,1010001117774,令和６年７月２６日東京都千代田区岩本町三丁目１０番７号株式会社ゲインズ（1010001117774）に合併し解散,2015-10-05,1,,,,,ハブロッツ,0
324,2010001169930,登記記録の閉鎖等,0,2024-10-04,2024-09-20,Ｇｉｎｚａ　Ｂｅｎｇａｌｓ株式会社,,株式会社,東京都,中央区,築地１丁目４番８－１２０２号リビオレゾン東銀座,,13,102,1040045,,,2024-09-20,清算の結了等,,,2015-10-05,1,,,,,ギンザベンガルズ,0
326,2010001214521,登記記録の閉鎖等,0,2024-10-04,2024-09-20,Ｅｃｏｃａｒｂｏｎ　Ａｓｉａ株式会社,,株式会社,東京都,千代田区,丸の内１丁目１１－１号パシフィックセンチュリープレイス丸の内１３階,,13,101,1000005,,,2024-09-20,清算の結了等,,,2020-12-21,1,,,,,エコカーボンアジア,0
350,2010403028742,登記記録の閉鎖等,0,2024-10-04,2024-09-10,石川富来大坂山陸上風力発電合同会社,,合同会社,東京都,港区,新橋６丁目１７番２１号１０階,,13,103,1050004,,,2024-09-10,清算の結了等,,,2022-10-20,1,,,,,イシカワトギオオサカヤマリクジョウフウリョクハツデン,0
353,2010405020672,登記記録の閉鎖等,0,2024-10-04,2024-09-10,ＲＢソーラートーラスホールディングス一般社団法人,,その他の設立登記法人,東京都,港区,虎ノ門３丁目２２番１０－２０１号,,13,103,1050001,,,2024-09-10,清算の結了等,,,2022-02-08,1,,,,,アールビーソーラートーラスホールディングス,0
382,2011502006184,登記記録の閉鎖等,0,2024-10-04,2024-09-30,有限会社ヤマモトトレーディング,,有限会社,東京都,北区,赤羽西１丁目６番１号,,13,117,1150055,,,2024-09-30,清算の結了等,,,2015-10-05,1,,,,,ヤマモトトレーディング,0
385,2011801002504,登記記録の閉鎖等,0,2024-10-04,2024-09-27,相互金属株式会社,,株式会社,茨城県,筑西市,向上野１５００番地７,,08,227,3004522,,,2024-09-27,清算の結了等,,,2015-10-05,1,,,,,ソウゴキンゾク,0
392,2012402005598,登記記録の閉鎖等,0,2024-10-04,2024-10-02,有限会社宮沢,,有限会社,東京都,小金井市,東町４丁目１６番２３号,,13,210,1840011,,,2024-10-02,清算の結了等,,,2015-10-05,1,,,,,ミヤザワ,0
402,2020001145039,登記記録の閉鎖等,0,2024-10-04,2024-09-18,株式会社サニーサイドデザイン,,株式会社,神奈川県,横浜市中区,太田町３丁目３５番地３－９０２号,,14,104,2310011,,,2024-09-18,清算の結了等,,,2022-02-02,1,,,,,サニーサイドデザイン,0
408,2021001019323,登記記録の閉鎖等,0,2024-10-04,2024-09-30,株式会社亜洲物産,,株式会社,東京都,八王子市,大和田町７丁目１９番７号,,13,201,1920045,,,2024-09-30,合併による解散等,1010102011141,令和６年９月３０日東京都八王子市大和田町七丁目１９番７号株式会社あすみ（1010102011141）に合併し解散,2015-10-05,1,,,,,アシュウブッサン,0
409,2021001045798,登記記録の閉鎖等,0,2024-10-04,2024-10-02,高森建設株式会社,,株式会社,神奈川県,藤沢市,石川２丁目２０番地の２,,14,205,2520815,,,2024-10-02,清算の結了等,,,2015-10-05,1,,,,,タカモリケンセツ,0
422,2030001110594,登記記録の閉鎖等,0,2024-10-04,2024-09-27,株式会社金子保険事務所,,株式会社,埼玉県,さいたま市西区,大字西遊馬２０７４番地,,11,101,3310061,,,2024-09-27,清算の結了等,,,2015-10-05,1,,,,,カネコホケンジムショ,0
423,2030001159252,登記記録の閉鎖等,0,2024-10-04,2024-09-27,Ｍ企画株式会社,,株式会社,埼玉県,八潮市,大字大曽根８５３番地３,,11,234,3400834,,,2024-09-27,清算の結了等,,,2024-03-21,1,,,,,エムキカク,0
425,2030002080473,登記記録の閉鎖等,0,2024-10-04,2024-09-27,有限会社宇津木牧場,,有限会社,埼玉県,本庄市,小和瀬８８２番地,,11,211,3670011,,,2024-09-27,清算の結了等,,,2015-10-05,1,,,,,ウツギボクジョウ,0
427,2030003009983,登記記録の閉鎖等,0,2024-10-04,2024-09-27,アイセット合同会社,,合同会社,埼玉県,三郷市,高州１丁目９３番地,,11,237,3410037,,,2024-09-27,清算の結了等,,,2017-03-02,1,,,,,アイセット,0
434,2040002010198,登記記録の閉鎖等,0,2024-10-04,2024-09-30,有限会社フレキ開発,,有限会社,千葉県,千葉市若葉区,小倉台６丁目２６番２号,,12,104,2640006,,,2024-09-30,清算の結了等,,,2015-10-05,1,,,,,フレキカイハツ,0
437,2040002068765,登記記録の閉鎖等,0,2024-10-04,2024-09-19,有限会社ホンダ通信,,有限会社,千葉県,袖ケ浦市,今井２丁目９２番地２,,12,229,2990264,,,2024-09-19,清算の結了等,,,2015-10-05,1,,,,,ホンダツウシン,0
445,2050002022754,登記記録の閉鎖等,0,2024-10-04,2024-09-10,有限会社花室装飾,,有限会社,茨城県,つくば市,花室７１０番地,,08,220,3050025,,,2024-09-10,清算の結了等,,,2015-10-05,1,,,,,ハナムロソウショク,0
452,2080102008444,登記記録の閉鎖等,0,2024-10-04,2024-10-01,有限会社千代田工業,,有限会社,静岡県,伊豆の国市,北江間１１６４番地の１７,,22,225,4102223,,,2024-10-01,清算の結了等,,,2015-10-05,1,,,,,チヨダコウギョウ,0
464,2120001012393,登記記録の閉鎖等,0,2024-10-04,2024-10-01,株式会社サンエックス,,株式会社,大阪府,大阪市東成区,玉津１丁目２番３号,,27,115,5370023,,,2024-10-01,合併による解散等,1120001012709,令和６年１０月１日大阪市東成区玉津一丁目２番３号株式会社タイヤーサービスセンター（1120001012709）に合併し解散,2015-10-05,1,,,,,サンエックス,0
505,2140002010790,登記記録の閉鎖等,0,2024-10-04,2024-10-01,有限会社井高海運,,有限会社,兵庫県,神戸市兵庫区,小河通３丁目１番１８号,,28,105,6520895,,,2024-10-01,清算の結了等,,,2015-10-05,1,,,,,イダカカイウン,0
514,2170001008882,登記記録の閉鎖等,0,2024-10-04,2024-10-01,株式会社フェスタ二十一,,株式会社,和歌山県,田辺市,新庄町１０番地の７,,30,206,6460011,,,2024-10-01,合併による解散等,6170001008565,令和６年１０月１日和歌山県田辺市新庄町１０番地の７株式会社英陽（6170001008565）に合併し解散,2015-10-05,1,,,,,フェスタニジュウイチ,0
516,2180001024870,登記記録の閉鎖等,0,2024-10-04,2024-09-24,株式会社エーワ,,株式会社,愛知県,名古屋市西区,あし原町８番地,,23,104,4520823,,,2024-09-24,合併による解散等,9180001027157,令和６年９月２１日名古屋市西区あし原町８番地マリーブ化粧品株式会社（9180001027157）に合併し解散,2015-10-05,1,,,,,エーワ,0
578,2300001011154,登記記録の閉鎖等,0,2024-10-04,2024-09-27,株式会社エグチ商事,,株式会社,佐賀県,佐賀市,巨勢町大字牛島７８１－１牛島団地３棟３３号室,,41,201,8400008,,,2024-09-27,清算の結了等,,,2018-02-06,1,,,,,エグチショウジ,0
590,2340001009756,登記記録の閉鎖等,0,2024-10-04,2024-10-02,株式会社まつもと,,株式会社,鹿児島県,熊毛郡中種子町,野間５１７０番地３,,46,501,8913604,,,2024-10-02,清算の結了等,,,2015-10-05,1,,,,,マツモト,0
600,2370001044651,登記記録の閉鎖等,0,2024-10-04,2024-09-05,フラットフォーカス株式会社,,株式会社,宮城県,仙台市太白区,大野田４丁目２０番１４号,,04,104,9820014,,,2024-09-05,合併による解散等,4370801001040,令和６年８月１日宮城県仙台市太白区長町七丁目１９番２３号株式会社ひよこグループ（4370801001040）に合併し解散,2019-07-23,1,,,,,フラットフォーカス,0
607,2390002002549,登記記録の閉鎖等,0,2024-10-04,2024-09-25,有限会社松源,,有限会社,山形県,山形市,あさひ町２４番２号,,06,201,9900024,,,2024-09-25,清算の結了等,,,2015-10-05,1,,,,,マツゲン,0
610,2410001004840,登記記録の閉鎖等,0,2024-10-04,2024-09-30,株式会社サイトウ時計店,,株式会社,秋田県,由利本荘市,中竪町４５番地の３,,05,210,0150803,,,2024-09-30,清算の結了等,,,2015-10-05,1,,,,,サイトウトケイテン,0
618,2450002005702,登記記録の閉鎖等,0,2024-10-04,2024-10-01,有限会社ヤマワ機械工業,,有限会社,北海道,旭川市,南七条通２３丁目１９７６番地９１,,01,204,0788337,,,2024-10-01,清算の結了等,,,2015-10-05,1,,,,,ヤマワキカイコウギョウ,0
621,2480001008323,登記記録の閉鎖等,0,2024-10-04,2024-09-30,ウイナス株式会社,,株式会社,徳島県,名西郡石井町,石井字白鳥３２３番地１,,36,341,7793234,,,2024-09-30,清算の結了等,,,2015-10-05,1,,,,,ウイナス,0
622,2480002004940,登記記録の閉鎖等,0,2024-10-04,2024-10-03,有限会社村井建設,,有限会社,徳島県,徳島市,山城町西浜傍示１５１番地の２,,36,201,7708055,,,2024-10-03,清算の結了等,,,2015-10-05,1,,,,,ムライケンセツ,0
635,3010001222003,登記記録の閉鎖等,0,2024-10-04,2024-09-20,株式会社ａｍｂｏｒｅｌｌａ,,株式会社,東京都,中央区,築地７丁目４番４号恒陽サンクレスト１０４,,13,102,1040045,,,2024-09-20,清算の結了等,,,2021-10-25,1,,,,,アンボレラ,0
642,3010101010778,登記記録の閉鎖等,0,2024-10-04,2024-10-01,テクノ・エンジニアリング株式会社,,株式会社,東京都,八王子市,上野町１０２番地２,,13,201,1920902,,,2024-10-01,清算の結了等,,,2015-10-05,1,,,,,テクノエンジニアリング,0
658,3010602009063,登記記録の閉鎖等,0,2024-10-04,2024-10-01,有限会社板倉モータース,,有限会社,東京都,墨田区,菊川３丁目１４番１号,,13,107,1300024,,,2024-10-01,清算の結了等,,,2015-10-05,1,,,,,イタクラモータース,0
704,3012401008394,登記記録の閉鎖等,0,2024-10-04,2024-10-01,日建設備工業株式会社,,株式会社,東京都,調布市,多摩川７丁目３３番地１,,13,208,1820025,,,2024-10-01,清算の結了等,,,2015-10-05,1,,,,,ニッケンセツビコウギョウ,0
721,3021001076999,登記記録の閉鎖等,0,2024-10-04,2024-10-01,株式会社杏樹,,株式会社,神奈川県,大和市,中央林間７丁目９番３号,,14,213,2420007,,,2024-10-01,清算の結了等,,,2022-09-16,1,,,,,アンジュ,0
728,3030002094919,登記記録の閉鎖等,0,2024-10-04,2024-09-26,有限会社ファイン紙工,,有限会社,埼玉県,川越市,大字下広谷１２００番地３１,,11,201,3500804,,,2024-09-26,清算の結了等,,,2015-10-05,1,,,,,,0
743,3050002007366,登記記録の閉鎖等,0,2024-10-04,2024-09-25,有限会社アイピーアール,,有限会社,茨城県,水戸市,酒門町４２６９番地６,,08,201,3100841,,,2024-09-25,清算の結了等,,,2015-10-05,1,,,,,アイピーアール,0
747,3060002022505,登記記録の閉鎖等,0,2024-10-04,2024-09-30,有限会社戸崎会計事務所,,有限会社,栃木県,那須塩原市,桜町４番１６号,,09,213,3250042,,,2024-09-30,清算の結了等,,,2015-10-05,1,,,,,トザキカイケイジムショ,0
749,3070001041397,登記記録の閉鎖等,0,2024-10-04,2024-10-02,株式会社ｊ．ｗｈｉｔｅ,,株式会社,群馬県,邑楽郡明和町,下江黒５６０番地１,,10,522,3700703,,,2024-10-02,清算の結了等,,,2024-02-22,1,,,,,ジェイホワイト,0
758,3100005011649,登記記録の閉鎖等,0,2024-10-04,2024-09-30,一般社団法人プレメディカルコミュニティ協会,,その他の設立登記法人,長野県,長野市,南千歳１丁目２０番地２の１,,20,201,3800823,,,2024-09-30,清算の結了等,,,2015-10-05,1,,,,,プレメディカルコミュニティキョウカイ,0
760,3110002007384,登記記録の閉鎖等,0,2024-10-04,2024-09-26,有限会社ランプス,,有限会社,新潟県,新潟市中央区,西堀通８番町１５８１番地,,15,103,9518061,,,2024-09-26,清算の結了等,,,2015-10-05,1,,,,,,0
767,3120001239176,登記記録の閉鎖等,0,2024-10-04,2024-10-01,株式会社Ｍｏｎｏｌｉｔｈ　Ｃａｐｉｔａｌ,,株式会社,大阪府,大阪市西区,西本町１丁目５番９号,,27,106,5500005,,,2024-10-01,清算の結了等,,,2021-07-19,1,,,,,モノリスキャピタル,0
812,3170001003016,登記記録の閉鎖等,0,2024-10-04,2024-10-01,株式会社マキカンパニー,,株式会社,和歌山県,和歌山市,新通６丁目２９番地,,30,201,6408111,,,2024-10-01,合併による解散等,3170001002216,令和６年１０月１日和歌山市新通六丁目２９番地ドッグ繊維株式会社（3170001002216）に合併し解散,2015-10-05,1,,,,,マキカンパニー,0
813,3170001008832,登記記録の閉鎖等,0,2024-10-04,2024-10-01,株式会社二十一世紀,,株式会社,和歌山県,田辺市,新庄町１０番地の７,,30,206,6460011,,,2024-10-01,合併による解散等,6170001008565,令和６年１０月１日和歌山県田辺市新庄町１０番地の７株式会社英陽（6170001008565）に合併し解散,2015-10-05,1,,,,,ニジュウイッセイキ,0
814,3180001113251,登記記録の閉鎖等,0,2024-10-04,2024-09-11,コンティニュー株式会社,,株式会社,東京都,渋谷区,恵比寿４丁目２０番３号,,13,113,1500013,,,2024-09-11,清算の結了等,,,2015-10-05,1,,,,,コンティニュー,0
828,3200002002145,登記記録の閉鎖等,0,2024-10-04,2024-10-01,株式会社ジオサービス,,株式会社,岐阜県,岐阜市,日光町７丁目２８番地,,21,201,5020933,,,2024-10-01,合併による解散等,6200001017934,令和６年１０月１日岐阜県美濃加茂市加茂川町一丁目４番２９号大紘ジオテクノ株式会社（6200001017934）に合併し解散,2015-10-05,1,,,,,ジオサービス,0
837,3240002039398,登記記録の閉鎖等,0,2024-10-04,2024-09-30,有限会社井上のこ専門店,,有限会社,広島県,福山市,三吉町４丁目１番３３号,,34,207,7200031,,,2024-09-30,清算の結了等,,,2015-10-05,1,,,,,,0
856,3290002056694,登記記録の閉鎖等,0,2024-10-04,2024-08-28,有限会社はーとらっぷ,,有限会社,福岡県,うきは市,吉井町宮田５７９番地１,,40,225,8391303,,,2024-08-28,清算の結了等,,,2015-10-05,1,,,,,ハートラップ,0
860,3290805000948,登記記録の閉鎖等,0,2024-10-04,2024-10-02,ユートクコーポ赤坂管理組合法人,,その他の設立登記法人,福岡県,北九州市小倉北区,赤坂１丁目７番５０号,,40,106,8020032,,,2024-10-02,清算の結了等,,,2015-10-05,1,,,,,ユートクコーポアカサカカンリクミアイ,0
882,3390002005708,登記記録の閉鎖等,0,2024-10-04,2024-09-26,有限会社ビューティサロンムツミ,,有限会社,山形県,天童市,大字蔵増６５５番地の５,,06,210,9940075,,,2024-09-26,清算の結了等,,,2015-10-05,1,,,,,ビューティサロンムツミ,0
897,3460305001041,登記記録の閉鎖等,0,2024-10-04,2024-10-04,美幌管工事業協同組合,,その他の設立登記法人,北海道,網走郡美幌町,字仲町１丁目１４３番地,,01,543,0920004,,,2024-10-04,清算の結了等,,,2015-10-05,1,,,,,ビホロカンコウ,0
900,3480002002539,登記記録の閉鎖等,0,2024-10-04,2024-09-30,総合印刷有限会社,,有限会社,徳島県,徳島市,南昭和町６丁目１７番地,,36,201,7700944,,,2024-09-30,清算の結了等,,,2015-10-05,1,,,,,ソウゴウインサツ,0
903,4010001171323,登記記録の閉鎖等,0,2024-10-04,2024-08-14,株式会社新雪,,株式会社,東京都,港区,南青山２丁目２番１５－８２５号,,13,103,1070062,,,2024-08-14,合併による解散等,4450001013844,令和６年８月１４日東京都港区南青山二丁目２番１５－８２５号株式会社トマムプロパティ（4450001013844）に合併し解散,2015-10-23,1,,,,,シンセツ,0
907,4010002010587,登記記録の閉鎖等,0,2024-10-04,2024-09-20,有限会社清水商事,,有限会社,東京都,千代田区,内神田３丁目１０番６号,,13,101,1010047,,,2024-09-20,清算の結了等,,,2015-10-05,1,,,,,シミズショウジ,0
908,4010003020370,登記記録の閉鎖等,0,2024-10-04,2024-09-09,太陽Ｒｅｓｅｒｖｅ４合同会社,,合同会社,東京都,港区,高輪１丁目３番１３号ＮＢＦ高輪ビル７階,,13,103,1080074,,,2024-09-09,清算の結了等,,,2015-10-05,1,,,,,タイヨウリザーブフォー,0
915,4010401099552,登記記録の閉鎖等,0,2024-10-04,2024-09-18,アイクリード株式会社,,株式会社,東京都,中央区,銀座７丁目１３番６号,,13,102,1040061,,,2024-09-18,清算の結了等,,,2015-10-05,1,,,,,アイクリード,0
923,4010403022801,登記記録の閉鎖等,0,2024-10-04,2024-09-10,七ヶ宿陸上風力発電合同会社,,合同会社,東京都,港区,新橋６丁目１７番２１号,,13,103,1050004,,,2024-09-10,清算の結了等,,,2020-04-09,1,,,,,シチカシュクリクジョウフウリョクハツデン,0
925,4010601057418,登記記録の閉鎖等,0,2024-10-04,2024-08-26,Ｗｅｂｉｎａｒ　Ｊａｐａｎ株式会社,,株式会社,東京都,江東区,南砂２丁目２番７号,,13,108,1360076,,,2024-08-26,合併による解散等,1120901013293,令和６年７月３１日大阪府吹田市豊津町１２番５号株式会社日本創造教育研究所（1120901013293）に合併し解散,2020-06-08,1,,,,,ウェビナージャパン,0
930,4010803004192,登記記録の閉鎖等,0,2024-10-04,2024-09-25,チャココンサルティング合同会社,,合同会社,東京都,大田区,大森中１丁目１８－１１プレシャスウエストＩ－３０２号,00126799,13,111,1430014,,,2024-09-25,清算の結了等,,,2022-06-07,1,,,,,チャココンサルティング,0
948,4011201014734,登記記録の閉鎖等,0,2024-10-04,2024-10-02,株式会社オフィスエービス,,株式会社,東京都,中野区,上高田１丁目２４番１２号,,13,114,1640002,,,2024-10-02,清算の結了等,,,2015-10-05,1,,,,,オフィスエービス,0
949,4011201024799,登記記録の閉鎖等,0,2024-10-04,2024-09-25,大島土地株式会社,,株式会社,東京都,中野区,東中野１丁目５１番４、５、７号,,13,114,1640003,,,2024-09-25,清算の結了等,,,2023-08-01,1,,,,,オオシマトチ,0
951,4011301017579,登記記録の閉鎖等,0,2024-10-04,2024-10-01,株式会社ヴィクソン,,株式会社,東京都,江東区,青海２丁目７番４号ｔｈｅＳＯＨＯ４１１,,13,108,1350064,,,2024-10-01,清算の結了等,,,2015-10-05,1,,,,,ヴィクソン,0
955,4011601005911,登記記録の閉鎖等,0,2024-10-04,2024-09-30,株式会社富士商会,,株式会社,東京都,練馬区,石神井台４丁目１８番１６号,,13,120,1770045,,,2024-09-30,清算の結了等,,,2015-10-05,1,,,,,フジショウカイ,0
961,4012403004069,登記記録の閉鎖等,0,2024-10-04,2024-10-01,合同会社Ｇｏｏｄｃｙｔｅ,,合同会社,東京都,江東区,大島１丁目３３番４号,,13,108,1360072,,,2024-10-01,清算の結了等,,,2019-10-17,1,,,,,グッドサイト,0
973,4020002101567,登記記録の閉鎖等,0,2024-10-04,2024-09-18,有限会社ヒューリスティックス科学研究所,,有限会社,神奈川県,川崎市幸区,小向町１５番４号,,14,132,2120003,,,2024-09-18,清算の結了等,,,2015-10-05,1,,,,,ヒューリスティックスカガクケンキュウジョ,0
991,4040001101005,登記記録の閉鎖等,0,2024-10-04,2024-09-30,株式会社ＪＢＳ商事,,株式会社,千葉県,船橋市,小室町２８０番地４,,12,204,2701471,,,2024-09-30,清算の結了等,,,2017-07-19,1,,,,,ジェービーエスショウジ,0
1006,4060002018097,登記記録の閉鎖等,0,2024-10-04,2024-09-30,有限会社小出工業,,有限会社,栃木県,芳賀郡益子町,大字塙２５０８番地,,09,342,3214216,,,2024-09-30,清算の結了等,,,2015-10-05,1,,,,,コイデコウギョウ,0
1009,4070002022239,登記記録の閉鎖等,0,2024-10-04,2024-10-02,有限会社サンケイ商会,,有限会社,群馬県,伊勢崎市,茂呂町２丁目３５３３番地６,,10,204,3720034,,,2024-10-02,清算の結了等,,,2015-10-05,1,,,,,サンケイショウカイ,0
1016,4080102011421,登記記録の閉鎖等,0,2024-10-04,2024-10-01,有限会社フードセンターシラスナ,,有限会社,静岡県,駿東郡長泉町,納米里２０８番地,,22,342,4110933,,,2024-10-01,清算の結了等,,,2015-10-05,1,,,,,フードセンターシラスナ,0
1021,4090002000085,登記記録の閉鎖等,0,2024-10-04,2024-09-30,有限会社Ｓｐｏｒｔｓ　１,,有限会社,山梨県,甲州市,塩山下塩後２２７番地,,19,213,4040044,,,2024-09-30,清算の結了等,,,2015-10-05,1,,,,,,0
1022,4100002016369,登記記録の閉鎖等,0,2024-10-04,2024-09-25,有限会社平山製作所,,有限会社,長野県,上田市,塩川１３６７番地１,,20,203,3860401,,,2024-09-25,清算の結了等,,,2015-10-05,1,,,,,ヒラヤマセイサクジョ,0
1023,4110001019165,登記記録の閉鎖等,0,2024-10-04,2024-09-27,株式会社セントラル建装,,株式会社,新潟県,上越市,大字上中田字野畔１１８４番地３,,15,222,9430884,,,2024-09-27,清算の結了等,,,2015-10-05,1,,,,,セントラルケンソウ,0
1048,4120102004841,登記記録の閉鎖等,0,2024-10-04,2024-10-02,有限会社明治堂,,有限会社,大阪府,堺市堺区,綾之町東１丁１番１４号,,27,141,5900925,,,2024-10-02,清算の結了等,,,2015-10-05,1,,,,,メイジドウ,0
1093,4180002040031,登記記録の閉鎖等,0,2024-10-04,2024-09-24,有限会社アド・イースト,,有限会社,愛知県,名古屋市名東区,引山１丁目１４０７番地の２,,23,115,4650002,,,2024-09-24,清算の結了等,,,2015-10-05,1,,,,,アドイースト,0
1094,4180003023332,登記記録の閉鎖等,0,2024-10-04,2024-09-24,合同会社アレン,,合同会社,愛知県,津島市,橘町６丁目９５番地,,23,208,4960038,,,2024-09-24,清算の結了等,,,2022-01-04,1,,,,,アレン,0
1103,4220005008046,登記記録の閉鎖等,0,2024-10-04,2024-09-30,社会保険労務士法人丸の内労務管理事務所,,その他の設立登記法人,石川県,金沢市,丸の内５番１２号,,17,201,9200937,,,2024-09-30,清算の結了等,,,2016-01-12,1,,,,,マルノウチロウムカンリジムショ,0
1115,4250001013419,登記記録の閉鎖等,0,2024-10-04,2024-10-01,あすなろ株式会社,,株式会社,山口県,山口市,大内御堀３２７３番地５,,35,203,7530214,,,2024-10-01,清算の結了等,,,2015-10-05,1,,,,,アスナロ,0
1118,4260001023292,登記記録の閉鎖等,0,2024-10-04,2024-09-30,株式会社メッサ,,株式会社,岡山県,岡山市南区,大福４３５番地２３,,33,104,7010204,,,2024-09-30,清算の結了等,,,2015-10-05,1,,,,,メッサ,0
1122,4260002001883,登記記録の閉鎖等,0,2024-10-04,2024-09-27,有限会社大井設備工業,,有限会社,岡山県,岡山市南区,藤田１０９０番地,,33,104,7010221,,,2024-09-27,清算の結了等,,,2015-10-05,1,,,,,オオイセツビコウギョウ,0
1123,4260005002540,登記記録の閉鎖等,0,2024-10-04,2024-10-01,医療法人梅村皮膚科医院,,その他の設立登記法人,岡山県,岡山市北区,富田１５７番地,,33,101,7000936,,,2024-10-01,清算の結了等,,,2015-10-05,1,,,,,ウメムラヒフカイイン,0
1125,4270005002309,登記記録の閉鎖等,0,2024-10-04,2024-08-26,小畑上神社,,その他の設立登記法人,鳥取県,八頭郡八頭町,茂谷１６１番地,,31,329,6800542,,,2024-08-26,合併による解散等,2270005002319,令和６年８月２６日鳥取県八頭郡八頭町才代２５９番地澤神社（2270005002319）に合併し解散,2015-10-05,1,,,,,,0
1142,4290005002975,登記記録の閉鎖等,0,2024-10-04,2024-08-21,特定非営利活動法人ひまわりの会,,その他の設立登記法人,福岡県,福岡市東区,和白東２丁目１１番５号,,40,131,8110214,,,2024-08-21,清算の結了等,,,2015-10-05,1,,,,,ヒマワリノカイ,0
1151,4310002009871,登記記録の閉鎖等,0,2024-10-04,2024-09-27,有限会社幸商,,有限会社,長崎県,佐世保市,上京町５番１号,,42,202,8570872,,,2024-09-27,清算の結了等,,,2015-10-05,1,,,,,コウショウ,0
1179,4430001026518,登記記録の閉鎖等,0,2024-10-04,2024-09-30,サーバー・テクノロジーズ株式会社,,株式会社,北海道,札幌市北区,北九条西４丁目１９番地３,,01,102,0600809,,,2024-09-30,清算の結了等,,,2015-10-05,1,,,,,サーバーテクノロジーズ,0
1184,4430003014314,登記記録の閉鎖等,0,2024-10-04,2024-09-30,合同会社サンチケット,,合同会社,北海道,函館市,富岡町１丁目２７番１２号,,01,202,0410811,,,2024-09-30,清算の結了等,,,2022-09-28,1,,,,,,0
1187,4450001002608,登記記録の閉鎖等,0,2024-10-04,2024-09-30,藤田建設工業株式会社,,株式会社,北海道,上川郡東川町,東町３丁目６番５号,,01,458,0711423,,,2024-09-30,清算の結了等,,,2015-10-05,1,,,,,フジタケンセツコウギョウ,0
1191,4460301004690,登記記録の閉鎖等,0,2024-10-04,2024-10-01,Ｎｏｒｔｈｅｒｎ　Ａｒｃ商事株式会社,,株式会社,北海道,北見市,端野町二区８２９番地,,01,208,0992102,,,2024-10-01,合併による解散等,4460301002991,令和６年１０月１日北海道北見市端野町二区８２９番地Ｎｏｒｔｈｅｒｎ　Ａｒｃ　Ｒｅｓｏｒｔ株式会社（4460301002991）に合併し解散,2018-04-11,1,,,,,ノーザンアークショウジ,0
1200,5010001089259,登記記録の閉鎖等,0,2024-10-04,2024-08-22,総合足場エンジニアリング株式会社,,株式会社,東京都,中央区,日本橋蛎殼町一丁目１０番１号,,13,102,1030000,,,2024-08-22,合併による解散等,5010001053248,令和６年７月１日千葉県千葉市美浜区中瀬一丁目３番地日綜産業株式会社（5010001053248）に合併し解散,2015-10-05,1,,,,,ソウゴウアシバエンジニアリング,0
1225,5010401094833,登記記録の閉鎖等,0,2024-10-04,2024-09-24,株式会社プレミア・ジェイ・キャピタル,,株式会社,東京都,千代田区,永田町２丁目１１番１号山王パークタワー３Ｆ,,13,101,1000014,,,2024-09-24,清算の結了等,,,2015-10-05,1,,,,,,0
1230,5010403027048,登記記録の閉鎖等,0,2024-10-04,2024-09-10,ＲＢソーラートーラス合同会社,,合同会社,東京都,港区,虎ノ門３丁目２２番１０－２０１号,,13,103,1050001,,,2024-09-10,清算の結了等,,,2022-02-08,1,,,,,アールビーソーラートーラス,0
1232,5010601036610,登記記録の閉鎖等,0,2024-10-04,2024-09-06,株式会社ケイヨー物流システム,,株式会社,東京都,江東区,千石２丁目３番６号,,13,108,1350015,,,2024-09-06,合併による解散等,6010601029051,令和６年９月１日東京都江東区千石二丁目３番６号株式会社埼京通商（6010601029051）に合併し解散,2015-10-05,1,,,,,ケイヨーブツリュウシステム,0
1243,5011001008786,登記記録の閉鎖等,0,2024-10-04,2024-09-20,三興運輸倉庫株式会社,,株式会社,東京都,千代田区,麹町４丁目８番地,,13,101,1020083,,,2024-09-20,清算の結了等,,,2015-10-05,1,,,,,サンコウウンユソウコ,0
1245,5011001054921,登記記録の閉鎖等,0,2024-10-04,2024-10-01,ジャパン・オーガニック株式会社,,株式会社,東京都,渋谷区,渋谷１丁目１７番１４号,,13,113,1500002,,,2024-10-01,合併による解散等,1030001124026,令和６年９月１日埼玉県川越市芳野台二丁目８番５９株式会社ちふれ化粧品（1030001124026）に合併し解散,2015-10-05,1,,,,,ジャパンオーガニック,0
1246,5011001138674,登記記録の閉鎖等,0,2024-10-04,2024-09-09,株式会社スリーエス・ファクトリー,,株式会社,東京都,渋谷区,円山町５番５号Ｎａｖｉ渋谷Ｖ３階,,13,113,1500044,,,2024-09-09,清算の結了等,,,2021-02-25,1,,,,,スリーエスファクトリー,0
1256,5011101081246,登記記録の閉鎖等,0,2024-10-04,2024-09-20,株式会社ヒューネルホールディングス,,株式会社,東京都,新宿区,北新宿１丁目５番２号,,13,104,1690074,,,2024-09-20,清算の結了等,,,2017-07-24,1,,,,,ヒューネルホールディングス,0
1259,5011301004130,登記記録の閉鎖等,0,2024-10-04,2024-09-30,株式会社拓進,,株式会社,東京都,杉並区,井草３丁目２４番１５号,,13,115,1670021,,,2024-09-30,清算の結了等,,,2015-10-05,1,,,,,タクシン,0
1260,5011302014590,登記記録の閉鎖等,0,2024-10-04,2024-09-30,有限会社ケイケイクリエイション,,有限会社,東京都,杉並区,阿佐谷南３丁目３９番６号,,13,115,1660004,,,2024-09-30,清算の結了等,,,2015-10-05,1,,,,,ケイケイクリエイション,0
1264,5011701016634,登記記録の閉鎖等,0,2024-10-04,2024-09-25,株式会社アノール,,株式会社,東京都,江戸川区,上篠崎３丁目１２番２号,,13,123,1330054,,,2024-09-25,清算の結了等,,,2015-10-05,1,,,,,アノール,0
1293,5020002019981,登記記録の閉鎖等,0,2024-10-04,2024-09-17,有限会社みちのく,,有限会社,神奈川県,横浜市港南区,日野中央２丁目３６番５－１０２号,,14,111,2340053,,,2024-09-17,清算の結了等,,,2015-10-05,1,,,,,ミチノク,0
1295,5020003020303,登記記録の閉鎖等,0,2024-10-04,2024-09-19,ＪＬＣ合同会社,,合同会社,神奈川県,横浜市港北区,綱島東６丁目１１－３０－７０１,,14,109,2230052,,,2024-09-19,清算の結了等,,,2021-08-12,1,,,,,ジェイエルシー,0
1313,5030001065365,登記記録の閉鎖等,0,2024-10-04,2024-09-30,タカデンリース株式会社,,株式会社,埼玉県,北葛飾郡松伏町,大字金杉１２５３番地,,11,465,3430103,,,2024-09-30,清算の結了等,,,2015-10-05,1,,,,,タカデンリース,0
1316,5030001076008,登記記録の閉鎖等,0,2024-10-04,2024-09-30,達建興株式会社,,株式会社,埼玉県,川口市,西川口３丁目２９番２０－９０２号,,11,203,3320021,,,2024-09-30,清算の結了等,,,2015-10-05,1,,,,,イタルケンコウ,0
1321,5030002045928,登記記録の閉鎖等,0,2024-10-04,2024-09-26,有限会社ミツワ,,有限会社,埼玉県,草加市,青柳３丁目２５番２８号,,11,221,3400002,,,2024-09-26,清算の結了等,,,2015-10-05,1,,,,,ミツワ,0
1323,5040001111044,登記記録の閉鎖等,0,2024-10-04,2024-09-30,株式会社兄友,,株式会社,千葉県,富里市,日吉台３丁目２４番２号,,12,233,2860201,,,2024-09-30,清算の結了等,,,2019-10-09,1,,,,,ケイユウ,0
1337,5050003007066,登記記録の閉鎖等,0,2024-10-04,2024-09-25,合同会社ＪＡＰＡＮ・ＳＤＧｓ,,合同会社,茨城県,水戸市,見川５丁目１２５１番地の３８,,08,201,3100912,,,2024-09-25,清算の結了等,,,2022-12-06,1,,,,,ジャパンエスディージーズ,0
1345,5070001011530,登記記録の閉鎖等,0,2024-10-04,2024-10-02,株式会社ＡＧＡＴＡ　Ｃｏ．，Ｌｔｄ．,,株式会社,群馬県,高崎市,双葉町６番２２－１号,,10,202,3700843,,,2024-10-02,清算の結了等,,,2015-10-05,1,,,,,アガタコーポレーション,0
1391,5140002030134,登記記録の閉鎖等,0,2024-10-04,2024-09-30,有限会社サンステップ,,有限会社,兵庫県,明石市,南貴崎町１番１号,,28,203,6730035,,,2024-09-30,清算の結了等,,,2015-10-05,1,,,,,サンステップ,0
1405,5180301012424,登記記録の閉鎖等,0,2024-10-04,2024-09-24,株式会社Ｇ．Ｓ．Ｓ,,株式会社,愛知県,豊橋市,牛川町字田中１８番地２９,,23,201,4400016,,,2024-09-24,清算の結了等,,,2015-10-05,1,,,,,ジーエスエス,0
1415,5220001010673,登記記録の閉鎖等,0,2024-10-04,2024-10-01,株式会社チャンピオンコア,,株式会社,石川県,金沢市,横川６丁目９４番地,,17,201,9218163,,,2024-10-01,合併による解散等,4220001014683,令和６年１０月１日石川県金沢市伏見台一丁目１０番８号株式会社キムラ３９（4220001014683）に合併し解散,2015-10-05,1,,,,,チャンピオンコア,0
1416,5230002012874,登記記録の閉鎖等,0,2024-10-04,2024-09-30,佐藤鉄工有限会社,,有限会社,富山県,氷見市,島尾８７番地１,,16,205,9350032,,,2024-09-30,清算の結了等,,,2015-10-05,1,,,,,サトウテッコウ,0
1431,5290801003556,登記記録の閉鎖等,0,2024-10-04,2024-08-21,丸栄産業株式会社,,株式会社,福岡県,北九州市小倉南区,大字石原町１３０番地１２,,40,107,8030185,,,2024-08-21,合併による解散等,8010001240314,令和６年８月１日東京都千代田区大手町一丁目７番２号丸栄産業株式会社（8010001240314）に合併し解散,2015-10-05,1,,,,,マルエイサンギョウ,0
1432,5290801006848,登記記録の閉鎖等,0,2024-10-04,2024-08-21,アルテック防食株式会社,,株式会社,福岡県,北九州市小倉南区,大字石原町１３０番地１２,,40,107,8030185,,,2024-08-21,合併による解散等,8010001240314,令和６年８月１日東京都千代田区大手町一丁目７番２号丸栄産業株式会社（8010001240314）に合併し解散,2015-10-05,1,,,,,アルテックボウショク,0
1439,5310002004558,登記記録の閉鎖等,0,2024-10-04,2024-09-27,有限会社美術工藝社,,有限会社,長崎県,長崎市,麹屋町６番２１号,00102495,42,201,8500871,,,2024-09-27,清算の結了等,,,2015-10-05,1,,,,,ビジュツコウゲイシャ,0
1441,5320002001752,登記記録の閉鎖等,0,2024-10-04,2024-10-02,有限会社外苑不動産,,有限会社,大分県,大分市,荷揚町６番２１号,,44,201,8700046,,,2024-10-02,清算の結了等,,,2015-10-05,1,,,,,ガイエンフドウサン,0
1478,5430005013866,登記記録の閉鎖等,0,2024-10-04,2024-10-01,一般社団法人日本目標達成普及協会,,その他の設立登記法人,北海道,札幌市中央区,北四条西２４丁目２－１２－３０３,,01,101,0640824,,,2024-10-01,清算の結了等,,,2020-03-06,1,,,,,ニホンモクヒョウタッセイフキュウキョウカイ,0
1480,5460105001826,登記記録の閉鎖等,0,2024-10-04,2024-10-01,特定非営利活動法人よりそい倶楽部,,その他の設立登記法人,北海道,足寄郡陸別町,字陸別基線３１２番地３４,,01,648,0894300,,,2024-10-01,清算の結了等,,,2015-10-05,1,,,,,ヨリソイクラブ,0
1481,5470002009995,登記記録の閉鎖等,0,2024-10-04,2024-09-27,有限会社末澤築炉,,有限会社,香川県,高松市,国分寺町新居１５４４番地４,,37,201,7690101,,,2024-09-27,清算の結了等,,,2015-10-05,1,,,,,スエザワチクロ,0
1485,5500003001543,登記記録の閉鎖等,0,2024-10-04,2024-09-30,合同会社ケアサービス金子,,合同会社,愛媛県,今治市,黄金町５丁目６番地１４,,38,202,7940037,,,2024-09-30,清算の結了等,,,2015-10-05,1,,,,,ケアサービスカネコ,0
1490,6010001073468,登記記録の閉鎖等,0,2024-10-04,2024-09-18,中島水産バイオアンドテクノ株式会社,,株式会社,東京都,中央区,築地６丁目１９番２０号,,13,102,1040045,,,2024-09-18,合併による解散等,9010001083729,令和６年９月１３日東京都中央区築地六丁目１９番２０号株式会社中与（9010001083729）に合併し解散,2015-10-05,1,,,,,ナカジマスイサンバイオアンドテクノ,0
1504,6010003033726,登記記録の閉鎖等,0,2024-10-04,2024-09-20,小石川３丁目プロジェクト合同会社,,合同会社,東京都,千代田区,丸の内２丁目３番２号,,13,101,1000005,,,2024-09-20,清算の結了等,,,2020-12-16,1,,,,,コイシカワサンチョウメプロジェクト,0
1528,6011003012703,登記記録の閉鎖等,0,2024-10-04,2024-09-09,合同会社Ｃｒｅａ,,合同会社,東京都,目黒区,自由が丘１丁目３番１９号,,13,110,1520035,,,2024-09-09,清算の結了等,,,2021-05-17,1,,,,,クレア,0
1531,6011101095410,登記記録の閉鎖等,0,2024-10-04,2024-10-02,Ｔａｉｙｏ株式会社,,株式会社,大阪府,富田林市,中野町３丁目３番２３号１０１号室,,27,214,5840021,,,2024-10-02,清算の結了等,,,2021-06-17,1,,,,,タイヨウ,0
1537,6011403003995,登記記録の閉鎖等,0,2024-10-04,2024-09-27,合同会社ＨＣＣ,,合同会社,東京都,板橋区,中丸町１７－１２ＭＡＸＩＶ大山ＤＵＥ８０１,,13,119,1730026,,,2024-09-27,清算の結了等,,,2023-06-01,1,,,,,エイチシーシー,0
1543,6011801041779,登記記録の閉鎖等,0,2024-10-04,2024-09-26,ＭＨ株式会社,,株式会社,東京都,足立区,栗原３丁目２６番１号２Ｆ,,13,121,1230842,,,2024-09-26,清算の結了等,,,2023-01-12,1,,,,,エムエイチ,0
1552,6013201005026,登記記録の閉鎖等,0,2024-10-04,2024-09-11,株式会社フェニックス,,株式会社,東京都,目黒区,五本木２丁目４８番１４号,,13,110,1530053,,,2024-09-11,清算の結了等,,,2015-10-05,1,,,,,フェニックス,0
1558,6020001150852,登記記録の閉鎖等,0,2024-10-04,2024-07-12,株式会社ベストブロッサム,,株式会社,神奈川県,川崎市高津区,溝口１丁目１８番６号溝ノ口第７三信ビル３階,,14,134,2130001,,,2024-07-12,清算の結了等,,,2023-03-31,1,,,,,ベストブロッサム,0
1571,6021002018436,登記記録の閉鎖等,0,2024-10-04,2024-10-02,有限会社エヌ・ケー・エンジニアリング,,有限会社,神奈川県,相模原市中央区,淵野辺本町２丁目３番７号,,14,152,2520202,,,2024-10-02,清算の結了等,,,2015-10-05,1,,,,,エヌケーエンジニアリング,0
1587,6040001111670,登記記録の閉鎖等,0,2024-10-04,2024-09-27,株式会社岡山工業所,,株式会社,千葉県,千葉市若葉区,桜木３丁目１６番３号,,12,104,2640028,,,2024-09-27,清算の結了等,,,2019-12-02,1,,,,,オカヤマコウギョウショ,0
1620,6080001014911,登記記録の閉鎖等,0,2024-10-04,2024-10-01,株式会社ジャパンプライニング,,株式会社,石川県,金沢市,広岡１丁目１１番６号,,17,201,9200031,,,2024-10-01,合併による解散等,7220001002735,令和６年１０月１日石川県金沢市広岡一丁目１１番６号株式会社Ｋ・Ｓ・Ｄコンサルティング（7220001002735）に合併し解散,2015-10-05,1,,,,,ジャパンプライニング,0
1628,6080405000466,登記記録の閉鎖等,0,2024-10-04,2024-09-25,協同組合静商連経営計算センター,,その他の設立登記法人,静岡県,浜松市中央区,和地山１丁目７番２１１号,,22,138,4328003,,,2024-09-25,清算の結了等,,,2015-10-05,1,,,,,シズショウレンケイエイケイサンセンター,0
1647,6120005004268,登記記録の閉鎖等,0,2024-10-04,2024-10-02,三泉商店街振興組合,,その他の設立登記法人,大阪府,大阪市大正区,泉尾１丁目１３番７号,,27,108,5510031,,,2024-10-02,清算の結了等,,,2015-10-05,1,,,,,,0
1679,6180005001706,登記記録の閉鎖等,0,2024-10-04,2024-08-20,天理教名赤誠分教会,,その他の設立登記法人,愛知県,名古屋市南区,元桜田町４１番地の６,,23,112,4570032,,,2024-08-20,合併による解散等,4180005008983,令和６年８月２０日愛知県尾張旭市霞ケ丘町南２９２番地天理教名古屋大教会（4180005008983）に合併し解散,2015-10-05,1,,,,,テンリキョウメイセキセイブンキョウカイ,0
1690,6220001010697,登記記録の閉鎖等,0,2024-10-04,2024-10-01,株式会社アゲインフーズコア,,株式会社,石川県,金沢市,横川６丁目９４番地,,17,201,9218163,,,2024-10-01,合併による解散等,4220001014683,令和６年１０月１日石川県金沢市伏見台一丁目１０番８号株式会社キムラ３９（4220001014683）に合併し解散,2015-10-05,1,,,,,アゲインフーズコア,0
1709,6290802019451,登記記録の閉鎖等,0,2024-10-04,2024-10-01,有限会社ユリシーズ,,有限会社,福岡県,北九州市若松区,浜町２丁目１２番５号,,40,103,8080024,,,2024-10-01,清算の結了等,,,2015-10-05,1,,,,,ユリシーズ,0
1712,6320002003211,登記記録の閉鎖等,0,2024-10-04,2024-10-01,有限会社伸栄自動車工業,,有限会社,大分県,大分市,顕徳町１丁目１３番１５号,,44,201,8700025,,,2024-10-01,清算の結了等,,,2015-10-05,1,,,,,,0
1716,6350002003778,登記記録の閉鎖等,0,2024-10-04,2024-09-13,有限会社美術センター宮崎,,有限会社,宮崎県,宮崎市,吉村町曽師中甲３０９４番地１１,,45,201,8800841,,,2024-09-13,清算の結了等,,,2015-10-05,1,,,,,ビジュツセンターミヤザキ,0
1725,6370001046082,登記記録の閉鎖等,0,2024-10-04,2024-09-19,ワールド・パートナーズ設計株式会社,,株式会社,宮城県,塩竈市,松陽台２丁目４番１３号,,04,203,9850071,,,2024-09-19,清算の結了等,,,2020-08-27,1,,,,,ワールドパートナーズセッケイ,0
1731,6410002013498,登記記録の閉鎖等,0,2024-10-04,2024-09-30,有限会社エス・ケー・アシスト,,有限会社,秋田県,横手市,大雄字中館合２９４番地の５,,05,203,0130424,,,2024-09-30,清算の結了等,,,2015-10-05,1,,,,,エスケーアシスト,0
1741,6450001003125,登記記録の閉鎖等,0,2024-10-04,2024-09-30,株式会社明治屋,,株式会社,北海道,旭川市,一条通５丁目左５号,,01,204,0700031,,,2024-09-30,清算の結了等,,,2015-10-05,1,,,,,メイジヤ,0
1753,7010001123916,登記記録の閉鎖等,0,2024-10-04,2024-09-17,デジタルガーディアン株式会社,,株式会社,東京都,千代田区,大手町１丁目５－１ファーストスクエアイーストタワー４階,,13,101,1000004,,,2024-09-17,清算の結了等,,,2015-10-05,1,,,,,デジタルガーディアン,0
1765,7010003034054,登記記録の閉鎖等,0,2024-10-04,2024-09-20,ＥｘｐＤａｔａ合同会社,,合同会社,東京都,千代田区,一番町６番地相模屋本社ビル７Ｆ,,13,101,1020082,,,2024-09-20,清算の結了等,,,2021-01-28,1,,,,,エクスピーデータ,0
1768,7010102006623,登記記録の閉鎖等,0,2024-10-04,2024-10-01,有限会社三河屋太助鮨,,有限会社,東京都,八王子市,明神町４丁目３番１３号,,13,201,1920046,,,2024-10-01,清算の結了等,,,2015-10-05,1,,,,,ミカワヤタスケズシ,0
1775,7010405021138,登記記録の閉鎖等,0,2024-10-04,2024-09-10,ルカニア特定目的会社,,その他の設立登記法人,東京都,港区,六本木１丁目６番１号泉ガーデンタワーＫＰＭＧ税理士法人内,,13,103,1060032,,,2024-09-10,清算の結了等,,,2022-06-27,1,,,,,ルカニア,0
1777,7010501037087,登記記録の閉鎖等,0,2024-10-04,2024-09-25,株式会社創建築研究所,,株式会社,東京都,台東区,谷中３丁目４番８号,,13,106,1100001,,,2024-09-25,清算の結了等,,,2015-10-05,1,,,,,ソウケンチクケンキュウジョ,0
1778,7010601046483,登記記録の閉鎖等,0,2024-10-04,2024-10-01,株式会社ラウダー,,株式会社,東京都,墨田区,石原１丁目２８番９号竹村ビル１Ｆ,,13,107,1300011,,,2024-10-01,清算の結了等,,,2015-10-05,1,,,,,ラウダー,0
1795,7011101099625,登記記録の閉鎖等,0,2024-10-04,2024-09-20,Ｒｅａｌ　Ｓｕｃｃｅｓｓ株式会社,,株式会社,東京都,新宿区,大久保２丁目３３番１４号ＳｔｕｄｉｏＡｐａｒｔｍｅｎｔ大久保１０２,,13,104,1690072,,,2024-09-20,清算の結了等,,,2022-07-22,1,,,,,リアルサクセス,0
1799,7011103009193,登記記録の閉鎖等,0,2024-10-04,2024-10-01,もふもふファクトリー合同会社,,合同会社,東京都,新宿区,岩戸町５番地１－１００３号ブリリアンコート神楽坂,,13,104,1620832,,,2024-10-01,合併による解散等,6011103009541,令和６年１０月１日東京都新宿区岩戸町５番地１－１００３号ブリリアンコート神楽坂合同会社ＤＥＣＯ（6011103009541）に合併し解散,2019-10-28,1,,,,,モフモフファクトリー,0
1802,7011301019052,登記記録の閉鎖等,0,2024-10-04,2024-09-27,Ｈｙｂｒｉｄ　ＩＴ　Ｌａｂｏｒａｔｏｒｉｅｓ株式会社,,株式会社,東京都,杉並区,天沼３丁目３４番３０号,,13,115,1670032,,,2024-09-27,清算の結了等,,,2015-10-05,1,,,,,,0
1817,7012403005824,登記記録の閉鎖等,0,2024-10-04,2024-09-24,合同会社ＩＳＥＥ,,合同会社,東京都,千代田区,神田和泉町１番地６－１６ヤマトビル４０５,,13,101,1010024,,,2024-09-24,清算の結了等,,,2023-02-09,1,,,,,アイシー,0
1838,7021001075064,登記記録の閉鎖等,0,2024-10-04,2024-10-02,株式会社２ＷＤ　ｐｒｏ,,株式会社,神奈川県,藤沢市,長後６２４番地ＮＫＨＩＬＬ’ＳＩＩＤ棟,00125610,14,205,2520801,,,2024-10-02,清算の結了等,,,2022-02-03,1,,,,,,0
1844,7030001094585,登記記録の閉鎖等,0,2024-10-04,2024-09-30,埼玉断熱株式会社,,株式会社,埼玉県,川口市,本蓮２丁目１３番１３号,,11,203,3340076,,,2024-09-30,清算の結了等,,,2015-10-05,1,,,,,サイタマダンネツ,0
1852,7040001101423,登記記録の閉鎖等,0,2024-10-04,2024-09-30,ＮＥＸＴ　ＣＲＥＡＴＩＯＮ株式会社,,株式会社,千葉県,君津市,大戸見２６９３番地,,12,225,2920512,,,2024-09-30,清算の結了等,,,2017-08-18,1,,,,,ネクストクリエイション,0
1882,7080001023548,登記記録の閉鎖等,0,2024-10-04,2024-09-26,株式会社ＭＫ７,,株式会社,静岡県,静岡市駿河区,中原７９６番地の１－５００３号,,22,102,4228058,,,2024-09-26,清算の結了等,,,2020-05-19,1,,,,,エムケーセブン,0
1902,7120001012265,登記記録の閉鎖等,0,2024-10-04,2024-10-01,耕文堂印刷工業株式会社,,株式会社,大阪府,柏原市,清州２丁目２番１６号,,27,221,5820006,,,2024-10-01,清算の結了等,,,2015-10-05,1,,,,,コウブンドウインサツコウギョウ,0
1941,7140001133134,登記記録の閉鎖等,0,2024-10-04,2024-10-01,株式会社弐番館,,株式会社,大阪府,大阪市西区,西本町１丁目２番８号,,27,106,5500005,,,2024-10-01,合併による解散等,8120001074271,令和６年１０月１日大阪市西区西本町一丁目２番８号アンダーツリー株式会社（8120001074271）に合併し解散,2024-01-29,1,,,,,ニバンカン,0
1944,7140002027806,登記記録の閉鎖等,0,2024-10-04,2024-09-30,有限会社電装設備技術社,,有限会社,兵庫県,神戸市須磨区,高倉台３丁目７番５４－４０２号,,28,107,6540081,,,2024-09-30,清算の結了等,,,2015-10-05,1,,,,,デンソウセツビギジュツシャ,0
1950,7150002005158,登記記録の閉鎖等,0,2024-10-04,2024-10-01,有限会社ニユーヤマグチ,,有限会社,奈良県,大和郡山市,小泉町９６２番地,,29,203,6391042,,,2024-10-01,清算の結了等,,,2015-10-05,1,,,,,ニューヤマグチ,0
1966,7200002025332,登記記録の閉鎖等,0,2024-10-04,2024-10-01,有限会社清水屋,,有限会社,岐阜県,高山市,昭和町２丁目１２０番地の１,,21,203,5060053,,,2024-10-01,合併による解散等,1200002025387,令和６年１０月１日岐阜県高山市下之切町６３番地の１７株式会社シンワ（1200002025387）に合併し解散,2015-10-05,1,,,,,シミズヤ,0
1967,7210001012090,登記記録の閉鎖等,0,2024-10-04,2024-10-01,株式会社吉田商店,,株式会社,福井県,越前市,松森町３４号４番地,,18,209,9150852,,,2024-10-01,清算の結了等,,,2015-10-05,1,,,,,ヨシダショウテン,0
2000,7300002004458,登記記録の閉鎖等,0,2024-10-04,2024-09-30,有限会社坂井石油,,有限会社,佐賀県,小城市,牛津町上砥川２５０番地１,,41,208,8490305,,,2024-09-30,清算の結了等,,,2015-10-05,1,,,,,サカイセキユ,0
2001,7310005005130,登記記録の閉鎖等,0,2024-10-04,2024-09-26,特定非営利活動法人ふれあいフレンド,,その他の設立登記法人,長崎県,諫早市,久山町１７２８番地,,42,204,8540066,,,2024-09-26,清算の結了等,,,2015-10-05,1,,,,,フレアイフレンド,0
2009,7340005007339,登記記録の閉鎖等,0,2024-10-04,2024-10-01,医療法人慈幼会,,その他の設立登記法人,鹿児島県,志布志市,志布志町志布志３２２７番地１,,46,221,8997103,,,2024-10-01,清算の結了等,,,2015-10-05,1,,,,,ジヨウカイ,0
2016,7370002009475,登記記録の閉鎖等,0,2024-10-04,2024-09-19,有限会社阿部秀陽写場,,有限会社,宮城県,仙台市宮城野区,東仙台５丁目３５番３０号,,04,102,9830833,,,2024-09-19,合併による解散等,3370001006997,令和６年９月１日仙台市青葉区一番町一丁目１２番１６号株式会社アドステージ（3370001006997）に合併し解散,2015-10-05,1,,,,,アベシュウヨウシャジョウ,0
2021,7380002003741,登記記録の閉鎖等,0,2024-10-04,2024-09-24,有限会社弥栄商事,,有限会社,福島県,福島市,道前５４番地の３,,07,201,9608212,,,2024-09-24,清算の結了等,,,2015-10-05,1,,,,,ヤサカショウジ,0
2027,7400002013119,登記記録の閉鎖等,0,2024-10-04,2024-09-20,有限会社陸中測量,,有限会社,岩手県,九戸郡野田村,大字野田第２５地割３０番地８,,03,503,0288201,,,2024-09-20,清算の結了等,,,2015-10-05,1,,,,,リクチュウソクリョウ,0
2040,7450002011027,登記記録の閉鎖等,0,2024-10-04,2024-09-30,有限会社大壹,,有限会社,北海道,稚内市,富岡２丁目１番２１号,,01,214,0970012,,,2024-09-30,合併による解散等,3450001008250,令和６年９月３０日北海道稚内市富岡二丁目１番２１号株式会社萩見綜合食品センター（3450001008250）に合併し解散,2015-10-05,1,,,,,ダイイチ,0
2054,8010001142295,登記記録の閉鎖等,0,2024-10-04,2024-09-30,ＴＲＵＥ　ＧＲＡＣＥ株式会社,,株式会社,広島県,広島市南区,本浦町１－１,,34,103,7340047,,,2024-09-30,清算の結了等,,,2015-10-05,1,,,,,トゥルーグレイス,0
2070,8010005026131,登記記録の閉鎖等,0,2024-10-04,2024-10-01,一般社団法人ＡＤＨＤリソースセンター,,その他の設立登記法人,東京都,中央区,銀座７丁目１３番６号,,13,102,1040061,,,2024-10-01,清算の結了等,,,2016-12-16,1,,,,,エイディーエイチディーリソースセンター,0
2075,8010401129578,登記記録の閉鎖等,0,2024-10-04,2024-09-30,ＳＴＨ　Ｊａｐａｎ株式会社,,株式会社,東京都,大田区,北千束１丁目１４番２号,,13,111,1450062,,,2024-09-30,清算の結了等,,,2017-02-07,1,,,,,エスティーエイチジャパン,0
2085,8010601036954,登記記録の閉鎖等,0,2024-10-04,2024-10-01,株式会社イーシー・チャイナ,,株式会社,東京都,江東区,豊洲６丁目２番３１－４３０１号,,13,108,1350061,,,2024-10-01,清算の結了等,,,2015-10-05,1,,,,,イーシーチャイナ,0
2136,8020002035365,登記記録の閉鎖等,0,2024-10-04,2024-09-18,有限会社畑中工業所,,有限会社,神奈川県,横浜市港北区,小机町１４９１番地,,14,109,2220036,,,2024-09-18,清算の結了等,,,2015-10-05,1,,,,,,0
2162,8030002083041,登記記録の閉鎖等,0,2024-10-04,2024-09-27,有限会社レントサービスネット,,有限会社,埼玉県,鴻巣市,箕田５２４番地１,,11,217,3650062,,,2024-09-27,清算の結了等,,,2015-10-05,1,,,,,レントサービスネット,0
2163,8030002083215,登記記録の閉鎖等,0,2024-10-04,2024-09-30,有限会社共立製作所,,有限会社,埼玉県,北本市,本宿２丁目１１７番地,,11,233,3640005,,,2024-09-30,清算の結了等,,,2015-10-05,1,,,,,キョウリツセイサクショ,0
2165,8030005014811,登記記録の閉鎖等,0,2024-10-04,2024-09-27,特定非営利活動法人はんしんエヌピーオー,,その他の設立登記法人,埼玉県,飯能市,栄町２４番地９飯能信用金庫本店７階事務室,,11,209,3570025,,,2024-09-27,清算の結了等,,,2015-10-05,1,,,,,ハンシンエヌピーオー,0
2167,8040001095334,登記記録の閉鎖等,0,2024-10-04,2024-09-30,株式会社拓進興業,,株式会社,千葉県,市川市,相之川４丁目２番８号,,12,203,2720143,,,2024-09-30,清算の結了等,,,2016-05-23,1,,,,,,0
2174,8040002100340,登記記録の閉鎖等,0,2024-10-04,2024-09-30,有限会社荒井商店,,有限会社,千葉県,南房総市,千倉町川口５９５番地,,12,234,2950023,,,2024-09-30,清算の結了等,,,2015-10-05,1,,,,,アライショウテン,0
2185,8080001015197,登記記録の閉鎖等,0,2024-10-04,2024-09-26,株式会社丸豊見崎綱次商店,,株式会社,静岡県,焼津市,本町５丁目１４番１３号,,22,212,4250022,,,2024-09-26,清算の結了等,,,2015-10-05,1,,,,,マルトヨミサキツナジショウテン,0
2196,8120001075336,登記記録の閉鎖等,0,2024-10-04,2024-10-01,エイスター株式会社,,株式会社,兵庫県,神戸市灘区,灘北通１０丁目２番２３－２０２号,,28,102,6570835,,,2024-10-01,清算の結了等,,,2015-10-05,1,,,,,エイスター,0
2197,8120001148380,登記記録の閉鎖等,0,2024-10-04,2024-10-01,ニシウラ株式会社,,株式会社,大阪府,寝屋川市,豊野町５番１７号,,27,215,5720831,,,2024-10-01,清算の結了等,,,2015-10-05,1,,,,,ニシウラ,0
2198,8120001169807,登記記録の閉鎖等,0,2024-10-04,2024-09-30,株式会社ジェイワークス,,株式会社,大阪府,大阪市旭区,高殿２丁目５番１４－３０２号,,27,117,5350031,,,2024-09-30,清算の結了等,,,2015-10-05,1,,,,,ジェイワークス,0
2201,8120001213176,登記記録の閉鎖等,0,2024-10-04,2024-10-01,明成電気株式会社,,株式会社,大阪府,守口市,金田町２丁目４８番１１号,,27,209,5700011,,,2024-10-01,清算の結了等,,,2018-05-09,1,,,,,メイセイデンキ,0
2207,8120102005266,登記記録の閉鎖等,0,2024-10-04,2024-10-03,有限会社ワールドオート,,有限会社,大阪府,堺市中区,東山３０３－４,,27,142,5998247,,,2024-10-03,清算の結了等,,,2015-10-05,1,,,,,ワールドオート,0
2220,8140001089318,登記記録の閉鎖等,0,2024-10-04,2024-10-01,株式会社オフィスアール,,株式会社,兵庫県,姫路市,駅前町２３２番地,,28,201,6700927,,,2024-10-01,合併による解散等,2140001063807,令和６年１０月１日兵庫県姫路市駅前町２３２番地株式会社御幸苑（2140001063807）に合併し解散,2015-10-05,1,,,,,オフィスアール,0
2227,8140002069871,登記記録の閉鎖等,0,2024-10-04,2024-10-01,有限会社ビャクレン,,有限会社,兵庫県,南あわじ市,福良乙９３４番地２２,,28,224,6560502,,,2024-10-01,清算の結了等,,,2015-10-05,1,,,,,ビャクレン,0
2231,8160002007078,登記記録の閉鎖等,0,2024-10-04,2024-10-01,有限会社森西,,有限会社,滋賀県,長浜市,森町２６９番地の４,,25,203,5260018,,,2024-10-01,清算の結了等,,,2015-10-05,1,,,,,モリニシ,0
2232,8170001009735,登記記録の閉鎖等,0,2024-10-04,2024-10-01,株式会社ハーヴェスト二十一,,株式会社,和歌山県,田辺市,新庄町１０番地の７,,30,206,6460011,,,2024-10-01,合併による解散等,6170001008565,令和６年１０月１日和歌山県田辺市新庄町１０番地の７株式会社英陽（6170001008565）に合併し解散,2015-10-05,1,,,,,ハーヴェストニジュウイチ,0
2259,8240002044773,登記記録の閉鎖等,0,2024-10-04,2024-09-27,有限会社食彩館,,有限会社,広島県,福山市,東手城町１丁目３１番１号,,34,207,7210962,,,2024-09-27,清算の結了等,,,2015-10-05,1,,,,,ショクサイカン,0
2264,8260001013397,登記記録の閉鎖等,0,2024-10-04,2024-09-30,山陽食品株式会社,,株式会社,岡山県,倉敷市,大島４２５番地の１,,33,202,7100047,,,2024-09-30,清算の結了等,,,2015-10-05,1,,,,,サンヨウショクヒン,0
2265,8260005009103,登記記録の閉鎖等,0,2024-10-04,2024-10-03,特定非営利活動法人地域ＩＣＴ普及協議会,,その他の設立登記法人,岡山県,倉敷市,阿知１丁目７番２くらしきシティプラザ西ビル７０６,,33,202,7100055,,,2024-10-03,清算の結了等,,,2015-10-05,1,,,,,チイキアイシーティフキュウキョウギカイ,0
2267,8290001010128,登記記録の閉鎖等,0,2024-10-04,2024-08-28,株式会社フードボックス,,株式会社,福岡県,福岡市中央区,薬院３丁目１５番３号,,40,133,8100022,,,2024-08-28,清算の結了等,,,2015-10-05,1,,,,,フードボックス,0
2295,8370002017626,登記記録の閉鎖等,0,2024-10-04,2024-09-20,有限会社ティー・エス・エー,,有限会社,宮城県,仙台市青葉区,中山台２丁目１７番地の１１,,04,101,9893202,,,2024-09-20,清算の結了等,,,2015-10-05,1,,,,,ティーエスエー,0
2299,8380005012169,登記記録の閉鎖等,0,2024-10-04,2024-09-26,特定非営利活動法人いわきふれあいサポート,,その他の設立登記法人,福島県,いわき市,平字堂根町２番地の１２,,07,204,9708026,,,2024-09-26,清算の結了等,,,2019-05-31,1,,,,,イワキフレアイサポート,0
2302,8400005005293,登記記録の閉鎖等,0,2024-10-04,2024-09-25,特定非営利活動法人岩手自殺防止センター,,その他の設立登記法人,岩手県,盛岡市,盛岡駅前北通５番１０号２階,,03,201,0200033,,,2024-09-25,清算の結了等,,,2015-10-05,1,,,,,イワテジサツボウシセンター,0
2303,8410001000999,登記記録の閉鎖等,0,2024-10-04,2024-09-30,株式会社清三屋,,株式会社,秋田県,秋田市,御所野地蔵田４丁目２７番１号,,05,201,0101413,,,2024-09-30,清算の結了等,,,2015-10-05,1,,,,,キヨミヤ,0
2310,8420005007354,登記記録の閉鎖等,0,2024-10-04,2024-09-30,特定非営利活動法人コミュサーあおもり,,その他の設立登記法人,青森県,青森市,長島２丁目４番１９号,,02,201,0300861,,,2024-09-30,清算の結了等,,,2015-10-05,1,,,,,コミュサーアオモリ,0
2312,8430001016060,登記記録の閉鎖等,0,2024-10-04,2024-09-30,株式会社槙不動産鑑定事務所,,株式会社,北海道,札幌市南区,真駒内緑町１丁目１番地,,01,106,0050013,,,2024-09-30,清算の結了等,,,2015-10-05,1,,,,,マキフドウサンカンテイジムショ,0
2339,9010001180591,登記記録の閉鎖等,0,2024-10-04,2024-09-02,株式会社アップルレンド,,株式会社,東京都,港区,元麻布３丁目２番１３号,,13,103,1060046,,,2024-09-02,清算の結了等,,,2017-01-18,1,,,,,アップルレンド,0
2368,9010803003009,登記記録の閉鎖等,0,2024-10-04,2024-09-10,合同会社ＦＩＴ,,合同会社,東京都,港区,高輪３丁目１９番２２－２４０３号,,13,103,1080074,,,2024-09-10,清算の結了等,,,2019-05-27,1,,,,,フィット,0
2403,9011801011829,登記記録の閉鎖等,0,2024-10-04,2024-09-27,株式会社ホーヤ,,株式会社,東京都,足立区,栗原２丁目２２番５号,,13,121,1230842,,,2024-09-27,清算の結了等,,,2015-10-05,1,,,,,ホーヤ,0
2414,9013303003882,登記記録の閉鎖等,0,2024-10-04,2024-09-27,合同会社ココナッツ,,合同会社,東京都,豊島区,南大塚２丁目１１番１０号ミモザビル３階,,13,116,1700005,,,2024-09-27,合併による解散等,4010403019310,令和６年９月１日東京都港区芝五丁目２７番３号ＭＢＣ合同会社シバレジデンス（4010403019310）に合併し解散,2017-10-10,1,,,,,,0
2415,9020001034532,登記記録の閉鎖等,0,2024-10-04,2024-09-18,株式会社アカイ,,株式会社,神奈川県,横浜市戸塚区,深谷町４１７番地の２,,14,110,2450067,,,2024-09-18,清算の結了等,,,2015-10-05,1,,,,,アカイ,0
2432,9021001040958,登記記録の閉鎖等,0,2024-10-04,2024-09-17,株式会社ビー・シー・シー,,株式会社,神奈川県,横浜市中区,吉浜町２番地３６ＢＣＣビル６０２,,14,104,2310024,,,2024-09-17,清算の結了等,,,2015-10-05,1,,,,,ビーシーシー,0
2469,9070002031037,登記記録の閉鎖等,0,2024-10-04,2024-09-30,有限会社マルエス眼鏡院,,有限会社,群馬県,太田市,飯田町１１９０番地,,10,205,3730851,,,2024-09-30,清算の結了等,,,2015-10-05,1,,,,,マルエスガンキョウイン,0
2484,9100002018625,登記記録の閉鎖等,0,2024-10-04,2024-09-27,有限会社丁子屋旅館,,有限会社,長野県,下高井郡山ノ内町,大字平穏３０８９番地,,20,561,3810401,,,2024-09-27,清算の結了等,,,2015-10-05,1,,,,,チョウジヤリョカン,0
2487,9110003004904,登記記録の閉鎖等,0,2024-10-04,2024-09-26,合同会社Ｃａｌｍｅ,,合同会社,新潟県,新潟市秋葉区,古津２１２０,,15,105,9560847,,,2024-09-26,清算の結了等,,,2022-11-04,1,,,,,カルム,0
2502,9120101040189,登記記録の閉鎖等,0,2024-10-04,2024-09-30,株式会社マキノ,,株式会社,大阪府,泉佐野市,新町３丁目１番３６号,,27,213,5980051,,,2024-09-30,清算の結了等,,,2015-10-05,1,,,,,マキノ,0
2522,9140001034628,登記記録の閉鎖等,0,2024-10-04,2024-09-30,株式会社オーエス産業,,株式会社,兵庫県,明石市,大久保町西島４１８番地の１,,28,203,6740065,,,2024-09-30,清算の結了等,,,2015-10-05,1,,,,,オーエスサンギョウ,0
2534,9140003008844,登記記録の閉鎖等,0,2024-10-04,2024-10-02,合同会社ＡＥＣ,,合同会社,兵庫県,三田市,狭間が丘４丁目１０番地１４,,28,219,6691545,,,2024-10-02,清算の結了等,,,2015-10-05,1,,,,,エーイーシー,0
2545,9180002019995,登記記録の閉鎖等,0,2024-10-04,2024-09-24,有限会社石田商店,,有限会社,愛知県,名古屋市熱田区,木之免町６０８番地,,23,109,4560046,,,2024-09-24,清算の結了等,,,2015-10-05,1,,,,,イシダショウテン,0
2548,9180303000308,登記記録の閉鎖等,0,2024-10-04,2024-09-27,合資会社林泉舎,,合資会社,愛知県,岡崎市,稲熊町字１丁目１１４番地,,23,202,4440071,,,2024-09-27,清算の結了等,,,2015-10-05,1,,,,,リンセンシャ,0
2550,9190002021612,登記記録の閉鎖等,0,2024-10-04,2024-10-01,有限会社樋尾設備,00076134,有限会社,三重県,四日市市,平尾町２５５９番地の３,,24,202,5121205,,,2024-10-01,清算の結了等,,,2015-10-05,1,,,,,ヒオセツビ,0
2553,9190005006899,登記記録の閉鎖等,0,2024-10-04,2024-08-28,天理教西勢分教会,,その他の設立登記法人,三重県,松阪市,田牧町１５３番地,,24,204,5150842,,,2024-08-28,合併による解散等,3190005007382,令和６年８月２８日三重県松阪市飯高町波瀬５２０番地天理教波瀬分教会（3190005007382）に合併し解散,2015-10-05,1,,,,,テンリキョウサイセイブンキョウカイ,0
2598,9340002001994,登記記録の閉鎖等,0,2024-10-04,2024-10-02,有限会社エムワン,,有限会社,鹿児島県,鹿児島市,真砂本町１６番８号,,46,201,8900067,,,2024-10-02,清算の結了等,,,2015-10-05,1,,,,,エムワン,0
2606,9370002005506,登記記録の閉鎖等,0,2024-10-04,2024-09-20,有限会社高橋五郎酒店,00081873,有限会社,宮城県,仙台市若林区,河原町１丁目２番５号,,04,103,9840816,,,2024-09-20,清算の結了等,,,2015-10-05,1,,,,,タカハシゴロウサカテン,0
2619,9410001012622,登記記録の閉鎖等,0,2024-10-04,2024-09-30,総険株式会社,,株式会社,秋田県,秋田市,上新城中字川端９番地２,,05,201,0100136,,,2024-09-30,清算の結了等,,,2020-09-15,1,,,,,,0
2620,9410002000428,登記記録の閉鎖等,0,2024-10-04,2024-09-30,有限会社秋田ツーバイフォー,,有限会社,秋田県,秋田市,新屋元町２３番４号,,05,201,0101631,,,2024-09-30,清算の結了等,,,2015-10-05,1,,,,,アキタツーバイフォー,0
2631,9460102006683,登記記録の閉鎖等,0,2024-10-04,2024-09-30,有限会社すずき,,有限会社,北海道,広尾郡大樹町,寿通１丁目８番地３,,01,641,0892146,,,2024-09-30,清算の結了等,,,2015-10-05,1,,,,,スズキ,0
