sequenceNumber,corporateNumber,process,correct,updateDate,changeDate,name,nameImageId,kind,prefectureName,cityName,streetNumber,addressImageId,prefectureCode,cityCode,postCode,addressOutside,addressOutsideImageId,closeDate,closeCause,successorCorporateNumber,changeCause,assignmentDate,latest,enName,enPrefectureName,enCityName,enAddressOutside,furigana,hihyoji
12,1010003040413,新規,0,2023-04-27,2023-04-27,合同会社小上馬,,合同会社,東京都,中央区,築地４丁目１０番１０号,,13,102,1040045,,,,,,,2023-04-27,1,,,,,コジョウマ,0
13,1010005036574,新規,0,2023-04-27,2023-04-27,一般社団法人マナラボプラス,,その他の設立登記法人,東京都,中央区,日本橋室町１丁目１３番７号ＰＭＯ日本橋室町３Ｆ－３０７,,13,102,1030022,,,,,,,2023-04-27,1,,,,,マナラボプラス,0
18,1010401173896,新規,0,2023-04-27,2023-04-27,株式会社ｎｏｌｕｄ,,株式会社,東京都,港区,南青山２丁目２番１５号ＷｉｎＡｏｙａｍａビルＵＣＦ６階,,13,103,1070062,,,,,,,2023-04-27,1,,,,,ノル,0
21,1010403029997,新規,0,2023-04-27,2023-04-27,オフィスおね合同会社,,合同会社,東京都,港区,白金５丁目１０番１７－５０９号,,13,103,1080072,,,,,,,2023-04-27,1,,,,,オフィスオネ,0
23,1010405022075,新規,0,2023-04-27,2023-04-27,バジル特定目的会社,,その他の設立登記法人,東京都,港区,六本木１丁目６番１号泉ガーデンタワー,,13,103,1060032,,,,,,,2023-04-27,1,,,,,バジル,0
26,1010503006970,新規,0,2023-04-27,2023-04-27,ＳＴＡＮＤ　ＵＰ　ＥＩＧＨＴ合同会社,,合同会社,東京都,台東区,上野５丁目１６番１６号天美ビル２階,,13,106,1100005,,,,,,,2023-04-27,1,,,,,スタンドアップエイト,0
27,1010601063022,新規,0,2023-04-27,2023-04-27,株式会社Ｂａｍｂｏｏ　Ｖｉｌｌａｇｅ,,株式会社,東京都,江東区,東砂２丁目１５番２０－１３０２号,,13,108,1360074,,,,,,,2023-04-27,1,,,,,バンブービレッジ,0
28,1010603010121,新規,0,2023-04-27,2023-04-27,グリード合同会社,,合同会社,東京都,江東区,亀戸６丁目３１－２,,13,108,1360071,,,,,,,2023-04-27,1,,,,,グリード,0
40,1011001154080,新規,0,2023-04-27,2023-04-27,ＧＲＩＮＤ　Ｄｅｓｉｇｎｓ株式会社,,株式会社,東京都,渋谷区,渋谷１丁目１５番１２号ＬＡＩＤＯＵＴＳＨＩＢＵＹＡ２０６,,13,113,1500002,,,,,,,2023-04-27,1,,,,,グラインドデザイン,0
42,1011101102666,新規,0,2023-04-27,2023-04-27,株式会社ＫＥＮ,,株式会社,東京都,新宿区,西落合２丁目３番６号,,13,104,1610031,,,,,,,2023-04-27,1,,,,,ケン,0
43,1011101102674,新規,0,2023-04-27,2023-04-27,株式会社Ｖａｌｌｅｙ,,株式会社,東京都,新宿区,新宿１丁目１１－３ＭｏｄｅｒｎＲｅｓｉｄｅｎｃｅ新宿御苑８０２,,13,104,1600022,,,,,,,2023-04-27,1,,,,,,0
50,1011803005621,新規,0,2023-04-27,2023-04-27,合同会社イグニス,,合同会社,東京都,足立区,東和３丁目１２－３６,,13,121,1200003,,,,,,,2023-04-27,1,,,,,イグニス,0
52,1012801022311,新規,0,2023-04-27,2023-04-27,株式会社ＬａｐｉｓＬａｚｕｌｉＷｏｒｋｓ,,株式会社,東京都,国分寺市,西恋ヶ窪２丁目７番地１１,,13,214,1850013,,,,,,,2023-04-27,1,,,,,ラピスラズリワークス,0
58,1020001151319,新規,0,2023-04-27,2023-04-27,株式会社ティーエムエス,,株式会社,神奈川県,川崎市川崎区,東門前１丁目１７番１－３０３号クリエイトビル川崎大師,,14,131,2100812,,,,,,,2023-04-27,1,,,,,ティーエムエス,0
65,1021001078881,新規,0,2023-04-27,2023-04-27,株式会社ＴＧ,,株式会社,神奈川県,平塚市,菫平２２番１８号,,14,203,2540822,,,,,,,2023-04-27,1,,,,,ティージー,0
67,1021003012995,新規,0,2023-04-27,2023-04-27,エースコネクト合同会社,,合同会社,神奈川県,伊勢原市,岡崎６４９８－１－３０１,,14,214,2591135,,,,,,,2023-04-27,1,,,,,エースコネクト,0
75,1030001153611,新規,0,2023-04-27,2023-04-27,株式会社山宝エンジニアリング,,株式会社,埼玉県,比企郡小川町,東小川４丁目１番地１８,,11,343,3550322,,,,,,,2023-04-27,1,,,,,サンポウエンジニアリング,0
77,1030003021667,新規,0,2023-04-27,2023-04-27,合同会社ＲＯＭＡＮＡＴＯ,,合同会社,埼玉県,和光市,南２丁目１－６－１０２南大和団地,,11,229,3510104,,,,,,,2023-04-27,1,,,,,ロマナト,0
82,1040005021978,新規,0,2023-04-27,2023-04-27,一般社団法人千葉県木育コーディネーター協会,,その他の設立登記法人,千葉県,千葉市中央区,千葉寺町１２２０番地４,,12,101,2600844,,,,,,,2023-04-27,1,,,,,チバケンモクイクコーディネーターキョウカイ,0
84,1050003007400,新規,0,2023-04-27,2023-04-27,合同会社カプリ,,合同会社,茨城県,取手市,取手２丁目１９－１７,,08,217,3020004,,,,,,,2023-04-27,1,,,,,カプリ,0
86,1060005010087,新規,0,2023-04-27,2023-04-27,行政書士法人合同事務所,,その他の設立登記法人,栃木県,佐野市,堀米町６０２番地２３,,09,204,3270843,,,,,,,2023-04-27,1,,,,,ゴウドウジムショ,0
106,1120001254433,新規,0,2023-04-27,2023-04-27,株式会社コネクトブリッジ,,株式会社,大阪府,大阪市北区,梅田１丁目２番２号大阪駅前第２ビル１２－１２,,27,127,5300001,,,,,,,2023-04-27,1,,,,,コネクトブリッジ,0
107,1120001254458,新規,0,2023-04-27,2023-04-27,株式会社１７１開発,,株式会社,大阪府,大阪市中央区,今橋３丁目２番１２号,,27,128,5410042,,,,,,,2023-04-27,1,,,,,イナイチカイハツ,0
108,1120001254474,新規,0,2023-04-27,2023-04-27,株式会社ＫＹＳ設備,,株式会社,大阪府,大阪市大正区,北恩加島１丁目２番６号,,27,108,5510033,,,,,,,2023-04-27,1,,,,,ケイワイエスセツビ,0
109,1120001254482,新規,0,2023-04-27,2023-04-27,株式会社関東トラックス,,株式会社,大阪府,大阪市西区,阿波座１丁目７番１２号東新ビル１０階,,27,106,5500011,,,,,,,2023-04-27,1,,,,,カントウトラックス,0
113,1120901047465,新規,0,2023-04-27,2023-04-27,株式会社ジーネクストリー,,株式会社,大阪府,高槻市,芝生町２丁目３－４,,27,207,5690823,,,,,,,2023-04-27,1,,,,,ジーネクストリー,0
127,1140001129955,新規,0,2023-04-27,2023-04-27,株式会社ちどり,,株式会社,兵庫県,川西市,小花２丁目２２番２０－２０１号,,28,217,6660015,,,,,,,2023-04-27,1,,,,,チドリ,0
128,1140001129988,新規,0,2023-04-27,2023-04-27,安仁合興株式会社,,株式会社,兵庫県,神戸市中央区,海岸通３番地シップ神戸海岸ビル７Ｆ,,28,110,6500024,,,,,,,2023-04-27,1,,,,,アンニンゴウコウ,0
132,1140003019007,新規,0,2023-04-27,2023-04-27,合同会社ａｏ,,合同会社,兵庫県,明石市,材木町６番２４号,,28,203,6730893,,,,,,,2023-04-27,1,,,,,アオ,0
133,1140003019023,新規,0,2023-04-27,2023-04-27,合同会社パフォーム,,合同会社,兵庫県,神戸市北区,唐櫃六甲台２３番地の１２,,28,109,6511334,,,,,,,2023-04-27,1,,,,,パフォーム,0
139,1180001156021,新規,0,2023-04-27,2023-04-27,株式会社ミヨオーガニック,,株式会社,愛知県,名古屋市昭和区,川名町５丁目５番地の１,,23,107,4660856,,,,,,,2023-04-27,1,,,,,ミヨオーガニック,0
142,1180003025141,新規,0,2023-04-27,2023-04-27,合同会社ＡｎｇｅＬｉｆｅ,,合同会社,愛知県,名古屋市守山区,大字上志段味字東谷２０８６番地３７,,23,113,4630001,,,,,,,2023-04-27,1,,,,,アンジェライフ,0
143,1180003025158,新規,0,2023-04-27,2023-04-27,合同会社ＹＯＳ,,合同会社,愛知県,名古屋市中村区,太閤１丁目２０番１０号名古屋プレミアム医療モール太閤４階,,23,105,4530801,,,,,,,2023-04-27,1,,,,,ワイオーエス,0
153,1250003003263,新規,0,2023-04-27,2023-04-27,合同会社リブレ,,合同会社,山口県,宇部市,黒石北３丁目１－４１－１９,,35,202,7590213,,,,,,,2023-04-27,1,,,,,リブレ,0
154,1260001037898,新規,0,2023-04-27,2023-04-27,Ｙ‐ＬＩＮＫ株式会社,,株式会社,岡山県,岡山市北区,小山２４３番地５,,33,101,7011352,,,,,,,2023-04-27,1,,,,,ワイリンク,0
160,1290001009457,新規,0,2023-04-27,2023-04-27,日新汽船株式会社,,株式会社,福岡県,福岡市中央区,大名２丁目４番３８号,,40,133,8100041,,,,,,,2023-04-27,1,,,,,ニッシンキセン,0
161,1290001101338,新規,0,2023-04-27,2023-04-27,株式会社ＫＮＫ,,株式会社,福岡県,福岡市博多区,中洲２丁目２番２－１３０２号,,40,132,8100801,,,,,,,2023-04-27,1,,,,,ケーエヌケー,0
162,1290001101346,新規,0,2023-04-27,2023-04-27,株式会社ａｒｔ　ｃａｎｔｉｅｒｅ　ｍａｉｍａｉ,,株式会社,福岡県,福岡市中央区,桜坂３丁目１２番７８号,,40,133,8100024,,,,,,,2023-04-27,1,,,,,,0
166,1290003013845,新規,0,2023-04-27,2023-04-27,合同会社ＭｉｒａｒＣｈｉ,,合同会社,福岡県,福岡市博多区,博多駅前１丁目２３番１号ＰａｒｋＦｒｏｎｔ博多駅前１丁目５Ｆ－Ｂ,,40,132,8120011,,,,,,,2023-04-27,1,,,,,ミラーチ,0
168,1290005018990,新規,0,2023-04-27,2023-04-27,一般社団法人イドベタ,,その他の設立登記法人,福岡県,糸島市,志摩桜井４５５８－３,,40,230,8191304,,,,,,,2023-04-27,1,,,,,イドベタ,0
195,1390005009006,新規,0,2023-04-27,2023-04-27,ＮＰＯ法人ｄ・ｃ・ｐ,,その他の設立登記法人,山形県,天童市,南町２丁目１０番４０号,,06,210,9940049,,,,,,,2023-04-27,1,,,,,デーシーピー,0
205,1430003014977,新規,0,2023-04-27,2023-04-27,合同会社ＲＳネットワーク,,合同会社,北海道,苫小牧市,柳町４丁目１０番２号,,01,213,0530053,,,,,,,2023-04-27,1,,,,,アールエスネットワーク,0
207,1460101007376,新規,0,2023-04-27,2023-04-27,株式会社梅田牧場,,株式会社,北海道,足寄郡足寄町,大誉地７７０番地１０,,01,647,0894251,,,,,,,2023-04-27,1,,,,,ウメダボクジョウ,0
210,1470003002409,新規,0,2023-04-27,2023-04-27,ワンネス合同会社,,合同会社,香川県,高松市,由良町１２２１番地８,,37,201,7610441,,,,,,,2023-04-27,1,,,,,ワンネス,0
214,1700150115798,新規,0,2023-04-27,2023-04-27,ＧｕａｎｇＺｈｏｕＳａｎＷｅｎＸｉｎＸｉＫｅＪｉＹｏｕＸｉａｎＧｏｎｇＳｉ,,外国会社等,,,,,,,,ＺｉＢｉａｎＨａｏＣ１０ＨａｏＬｏｕＴａｉＲｏｎｇＳｈａｎｇＷｕＺｈｏｎｇＸｉｎ３０２Ｓｈｉ　ＬｉＷａｎＱｕＸｉＺｅｎｇＬｕ６３Ｈａｏ　ＧｕａｎｇＺｈｏｕＳｈｉ,,,,,,2023-04-27,1,,,,,コウシユウサンモンインフオメーシヨンテクノロジーユウゲンコウシ,0
215,1700150115807,新規,0,2023-04-27,2023-04-27,ＱＵＡＮＺＨＯＵ　ＦＥＮＧＺＥ　ＪＩＡＣＨＥＮＧ　ＣＯＭＭＵＮＩＣＡＴＩＯＮ　ＣＯ　ＬＩＭＩＴＥＤ,,外国会社等,,,,,,,,Ｄｒａｇｏｎ　Ｂｕｉｌｄｉｎｇ　Ｎｏ．１４４　Ｗｅｎｌｉｎ　Ｓｏｕｔｈ　Ｒｏａｄ，ＦｅｎｇＺｅ　ｄｉｓｔｒｉｃｔ　Ｑｕａｎｚｈｏｕ　Ｆｕｊｉａｎ　３６２０００　ＣＮ,,,,,,2023-04-27,1,,,,,センシユウホウサワカセイツウジンセツビユウゲンコウシ,0
216,1700150115815,新規,0,2023-04-27,2023-04-27,ＧｕａｎｇＺｈｏｕＪｉｎｇＪｉｕＬｏｎｇｍａｏｙｉｙｏｕｘｉａｎｇｏｎｇｓｉ,,外国会社等,,,,,,,,ＧＵＡＮＧＺＨＯＵＳＨＩＮＡＮＳＨＡＱＵＪＩＮＧＡＮＧＤＡＤＡ０８０ＨＡ０６０１ＦＡＮＧ，ＧｕａｎｇＺｈｏｕ，ＧｕａｎｇＤｏｎｇ，５１１４５７，ＣＮ,,,,,,2023-04-27,1,,,,,コウシユウキヨウクリユウボウエキユウゲンコウシ,0
217,1700150115848,新規,0,2023-04-27,2023-04-27,ｓｈｅｎｚｈｅｎ　ｄａｉｐｕｓｅｎｘｉｎｎｅｎｇｙｕａｎｊｉｓｈｕ　ｙｏｕｘｉａｎｇｏｎｇｓｉ,,外国会社等,,,,,,,,ｇｕａｎｇｄｏｎｇ　ｓｈｅｎｇ　ｓｈｅｎｚｈｅｎ　ｓｈｉ　ｙｕｅ　ｈａｉ　ｊｉｅｄａｏ　ｇａｏｘｉｎｑｕ　ｓｈｅｑｕ　ｋｅｊｉ　ｎａｎｌｕ　１８　ｈａｏ　ｎａｎｓｈａｎｑｕ　ｓｈｅｎｚｈｅｎ　ｗａｎ　ｋｅｊｉ　ｓｈｅｎｇｔａｉ　ｙｕａｎ　１２　ｄｏｎｇ　ｑｕｎｌｏｕ　４０１　５１８０００ＣＮ,,,,,,2023-04-27,1,,,,,シンセンダイプセンシンネンユェンジスヨウシェンゴンスー,0
218,1700150115856,新規,0,2023-04-27,2023-04-27,ｓｈｅｎｚｈｅｎ　ｓｈｅｎｌｉａｎｃｈｕａｎｇ　ｅｌｅｃｔｒｏｎｉｃ　ｃｏ．，ｌｔｄ,,外国会社等,,,,,,,,Ｆｌｏｏｒ　４，Ｂｕｉｌｄｉｎｇ　Ｂ，Ｍｉｎｇｓｈｅｎｇ　Ｉｎｄｕｓｔｒｉａｌ，Ｌｏｎｇｍｅｉ　Ｒｏａｄ　Ｇａｏｆｅｎｇ　Ｃｏｍｍｕｎｉｔｙ，Ｄａｌａｎｇ　Ｓｔｒｅｅｔ，Ｌｏｎｇｈｕａ　Ｄｉｓｔｒｉｃｔ　ｓｈｅｎｚｈｅｎ　Ｇｕａｎｇｄｏｎｇ　５１８０００　ＣＮ,,,,,,2023-04-27,1,,,,,シェンジェンシーシェンチュワンリエンディエンズーヨウシエンゴンスー,0
230,2010001234742,新規,0,2023-04-27,2023-04-27,小池コンサルティング株式会社,,株式会社,東京都,千代田区,九段南１丁目５番６号りそな九段ビル５階ＫＳフロア,,13,101,1020074,,,,,,,2023-04-27,1,,,,,コイケコンサルティング,0
234,2010101015613,新規,0,2023-04-27,2023-04-27,株式会社ＢＵＲＮＥＹＦＩＥＬＤＳ,,株式会社,東京都,八王子市,みつい台２丁目２番５号,,13,201,1920014,,,,,,,2023-04-27,1,,,,,バーニーフィールズ,0
239,2010401174035,新規,0,2023-04-27,2023-04-27,コスモホールディングス株式会社,,株式会社,東京都,港区,新橋１丁目１２－９－１０Ｆ,,13,103,1050004,,,,,,,2023-04-27,1,,,,,コスモホールディングス,0
241,2010405022033,新規,0,2023-04-27,2023-04-27,一般社団法人Ｃｒｅａｔｉｖｅ　Ｇｕｉｌｄ,,その他の設立登記法人,東京都,港区,芝５丁目３６番４号札の辻スクエア９Ｆ港区立産業振興センター,,13,103,1080014,,,,,,,2023-04-27,1,,,,,クリエイティブギルド,0
247,2010901052954,新規,0,2023-04-27,2023-04-27,株式会社ｂｒａｉｎ　ｋｉｔｃｈｅｎ,,株式会社,東京都,世田谷区,太子堂３丁目３７番１－Ｄ３０１号,,13,112,1540004,,,,,,,2023-04-27,1,,,,,ブレインキッチン,0
256,2011001154105,新規,0,2023-04-27,2023-04-27,株式会社Ｃｏｍｂｌｅ,,株式会社,東京都,渋谷区,道玄坂１丁目１０番８号渋谷道玄坂東急ビル２Ｆ－Ｃ,,13,113,1500043,,,,,,,2023-04-27,1,,,,,コンブル,0
259,2011101102673,新規,0,2023-04-27,2023-04-27,令和国際株式会社,,株式会社,東京都,新宿区,大久保１丁目３番３号セイントマンション３０２号室,,13,104,1690072,,,,,,,2023-04-27,1,,,,,レイワコクサイ,0
260,2011101102681,新規,0,2023-04-27,2023-04-27,株式会社ＡｔｏＺ　Ｍａｒｋｅｔｉｎｇ,,株式会社,東京都,新宿区,富久町１５番１号,,13,104,1620067,,,,,,,2023-04-27,1,,,,,エートゥージーマーケティング,0
265,2011201024611,新規,0,2023-04-27,2023-04-27,株式会社ごえもん,,株式会社,東京都,中野区,弥生町１丁目３３番５号,,13,114,1640013,,,,,,,2023-04-27,1,,,,,ゴエモン,0
272,2011403003982,新規,0,2023-04-27,2023-04-27,万春合同会社,,合同会社,東京都,板橋区,大山金井町１４－１２プチメゾンアップル１０２,,13,119,1730024,,,,,,,2023-04-27,1,,,,,マンシュン,0
282,2011801042310,新規,0,2023-04-27,2023-04-27,株式会社カネタカ食品,,株式会社,東京都,足立区,谷在家３丁目８番４号,,13,121,1230863,,,,,,,2023-04-27,1,,,,,カネタカショクヒン,0
286,2012801022302,新規,0,2023-04-27,2023-04-27,株式会社ワンタラント,,株式会社,東京都,日野市,旭が丘２丁目３番地の１,,13,212,1910065,,,,,,,2023-04-27,1,,,,,ワンタラント,0
287,2013301050685,新規,0,2023-04-27,2023-04-27,クロスランド株式会社,,株式会社,東京都,豊島区,上池袋１丁目３７番２２－３１２号,,13,116,1700012,,,,,,,2023-04-27,1,,,,,クロスランド,0
302,2021001078872,新規,0,2023-04-27,2023-04-27,株式会社ＲＯＡＭＥＲ　ＷＯＲＫＳ,,株式会社,神奈川県,藤沢市,辻堂西海岸２丁目１番４～２１号,,14,205,2510046,,,,,,,2023-04-27,1,,,,,ローマーワークス,0
310,2030001153486,新規,0,2023-04-27,2023-04-27,株式会社レマンゼ,,株式会社,埼玉県,さいたま市浦和区,常盤９丁目１４－３,,11,107,3300061,,,,,,,2023-04-27,1,,,,,レマンゼ,0
311,2030001153536,新規,0,2023-04-27,2023-04-27,株式会社Ｅ‐ｒｅａｃｔｉｏｎ,,株式会社,埼玉県,上尾市,緑丘１丁目７－２９,,11,219,3620015,,,,,,,2023-04-27,1,,,,,イーリアクション,0
312,2030001153602,新規,0,2023-04-27,2023-04-27,株式会社蔀,,株式会社,埼玉県,川口市,上青木西２丁目２番２８号,,11,203,3330845,,,,,,,2023-04-27,1,,,,,シトミ,0
313,2030001153610,新規,0,2023-04-27,2023-04-27,株式会社よつばパートナーズ,,株式会社,埼玉県,さいたま市南区,沼影１丁目１１番２号,,11,108,3360027,,,,,,,2023-04-27,1,,,,,ヨツバパートナーズ,0
316,2030003021666,新規,0,2023-04-27,2023-04-27,合同会社ＯＹＧ,,合同会社,埼玉県,大里郡寄居町,大字鉢形１４７６番地１,,11,408,3691224,,,,,,,2023-04-27,1,,,,,オーワイジー,0
320,2040003022399,新規,0,2023-04-27,2023-04-27,合同会社ＪＵＮＯＮ,,合同会社,千葉県,船橋市,高野台３丁目１７番６５号,,12,204,2740801,,,,,,,2023-04-27,1,,,,,ジュノン,0
321,2040003022498,新規,0,2023-04-27,2023-04-27,合同会社Ｔ＆Ｈ,,合同会社,千葉県,市川市,新井３丁目３番１０－２０３号（コーポ瀬尾）,,12,203,2720144,,,,,,,2023-04-27,1,,,,,ティアンドエッチ,0
323,2050001052752,新規,0,2023-04-27,2023-04-27,ＳＨＯＰ　ＴＯＤＡＹ株式会社,,株式会社,茨城県,下妻市,下妻戊６１９番地２０２,,08,210,3040062,,,,,,,2023-04-27,1,,,,,ショップトゥデイ,0
325,2050003007449,新規,0,2023-04-27,2023-04-27,合同会社ぶらぼう,,合同会社,茨城県,つくば市,梅園２丁目１番地１５スプリングテックつくばビル４０１,,08,220,3050045,,,,,,,2023-04-27,1,,,,,ブラボウ,0
328,2060001035946,新規,0,2023-04-27,2023-04-27,株式会社ピーシー,,株式会社,栃木県,宇都宮市,戸祭台３７番地６,,09,201,3200017,,,,,,,2023-04-27,1,,,,,ピーシー,0
329,2080003002967,新規,0,2023-04-27,2023-04-27,合同会社静岡福祉協力会,,合同会社,静岡県,静岡市葵区,羽鳥４丁目２１番１３号,,22,101,4211215,,,,,,,2023-04-27,1,,,,,シズオカフクシキョウリョクカイ,0
332,2080103002792,新規,0,2023-04-27,2023-04-27,合同会社ＮＩＪＩ,,合同会社,静岡県,三島市,佐野見晴台１丁目１７－４,,22,206,4110041,,,,,,,2023-04-27,1,,,,,ニジ,0
334,2100001036353,新規,0,2023-04-27,2023-04-27,株式会社ＲＯＮＤＥＬ,,株式会社,長野県,諏訪市,城南１丁目２５５１番地１,,20,206,3920017,,,,,,,2023-04-27,1,,,,,ロンデル,0
335,2110001037482,新規,0,2023-04-27,2023-04-27,株式会社ｃｏｃｏチロル,,株式会社,新潟県,新潟市北区,太夫浜新町２丁目２番２３号,,15,101,9503111,,,,,,,2023-04-27,1,,,,,ココチロル,0
342,2120001253921,新規,0,2023-04-27,2023-04-27,株式会社ＲＩＦＩＸ,,株式会社,大阪府,大阪市中央区,南船場２丁目１０番２８号ＮＫビル４０５号室,,27,128,5420081,,,,,,,2023-04-27,1,,,,,リフィックス,0
343,2120001254416,新規,0,2023-04-27,2023-04-27,株式会社ＰＬＡＹＰＩＴ,,株式会社,大阪府,大阪市北区,天神橋１丁目１９番１６－２０２号,,27,127,5300041,,,,,,,2023-04-27,1,,,,,プレイピット,0
344,2120001254457,新規,0,2023-04-27,2023-04-27,トゥースチューブ株式会社,,株式会社,大阪府,大阪市西区,靱本町１丁目４番１７号ＡＣＮ信濃橋ビル１階,,27,106,5500004,,,,,,,2023-04-27,1,,,,,トゥースチューブ,0
345,2120001254465,新規,0,2023-04-27,2023-04-27,株式会社三智,,株式会社,大阪府,大阪市中央区,内本町２丁目４－１０－８０１,,27,128,5400026,,,,,,,2023-04-27,1,,,,,サンチ,0
348,2120003023876,新規,0,2023-04-27,2023-04-27,合同会社のあ,,合同会社,大阪府,大阪市西区,江戸堀１丁目２３番１９号グラン・ビルド江戸堀６０１,,27,106,5500002,,,,,,,2023-04-27,1,,,,,ノア,0
349,2120003023942,新規,0,2023-04-27,2023-04-27,合同会社フルラボ,,合同会社,大阪府,大阪市北区,梅田１丁目２番２号大阪駅前第２ビル１２－１２,,27,127,5300001,,,,,,,2023-04-27,1,,,,,フルラボ,0
350,2120005023593,新規,0,2023-04-27,2023-04-27,一般財団法人アンヌ財団,,その他の設立登記法人,大阪府,大阪市中央区,北浜１丁目１番１４号,,27,128,5410041,,,,,,,2023-04-27,1,,,,,アンヌザイダン,0
353,2120903004612,新規,0,2023-04-27,2023-04-27,合同会社ｈｉｒａｋｕｓｈａｓｈｉｎ,,合同会社,大阪府,茨木市,並木町３番５号,,27,211,5670892,,,,,,,2023-04-27,1,,,,,ヒラクシャシン,0
354,2130001011626,新規,0,2023-04-27,2023-04-27,株式会社文功社,,株式会社,京都府,京都市南区,上鳥羽南唐戸町１０３番地,,26,107,6018107,,,,,,,2023-04-27,1,,,,,ブンコウシャ,0
358,2130003008686,新規,0,2023-04-27,2023-04-27,合同会社ＤＡＬＩ,,合同会社,京都府,京都市南区,西九条南田町４８番地,,26,107,6018441,,,,,,,2023-04-27,1,,,,,ダリ,0
367,2140001129962,新規,0,2023-04-27,2023-04-27,株式会社みなとバックオフィス,,株式会社,兵庫県,明石市,野々上３丁目１６番地の３清水ビル２０１号,,28,203,6730017,,,,,,,2023-04-27,1,,,,,ミナトバックオフィス,0
368,2140001129970,新規,0,2023-04-27,2023-04-27,株式会社青蘭,,株式会社,兵庫県,尼崎市,水堂町３丁目１７番２７号デイグラン武庫之荘２１５,,28,202,6610026,,,,,,,2023-04-27,1,,,,,セイラン,0
370,2140003019022,新規,0,2023-04-27,2023-04-27,合同会社ＬｅｅＬ,,合同会社,兵庫県,伊丹市,大鹿４丁目５７番地２,,28,207,6640899,,,,,,,2023-04-27,1,,,,,リール,0
376,2180001156012,新規,0,2023-04-27,2023-04-27,株式会社ラフィック,,株式会社,愛知県,一宮市,平和１丁目４番２２号,,23,203,4910905,,,,,,,2023-04-27,1,,,,,ラフィック,0
377,2180001156029,新規,0,2023-04-27,2023-04-27,株式会社中央ライフラボ,,株式会社,愛知県,名古屋市中区,錦１丁目１７番１３号名興ビル７１１,,23,106,4600003,,,,,,,2023-04-27,1,,,,,チュウオウライフラボ,0
380,2180005020189,新規,0,2023-04-27,2023-04-27,一般社団法人ＷＡＴＣＨ,,その他の設立登記法人,愛知県,名古屋市緑区,大高台２丁目１１０２番地の１,,23,114,4598003,,,,,,,2023-04-27,1,,,,,ウォッチ,0
382,2180301037341,新規,0,2023-04-27,2023-04-27,株式会社ほてる小柳津,00130296,株式会社,愛知県,岡崎市,上六名３丁目９番地１（Ｂ２０１）,,23,202,4440858,,,,,,,2023-04-27,1,,,,,ホテルオヤイズ,0
385,2200001041236,新規,0,2023-04-27,2023-04-27,株式会社Ｌｉｖｅｌｉｈｏｏｄ,,株式会社,岐阜県,岐阜市,加納清田町１番地,,21,201,5008417,,,,,,,2023-04-27,1,,,,,ライブリフッド,0
388,2240005015570,新規,0,2023-04-27,2023-04-27,ａ．ｓｏｗｄａ社会保険労務士法人,,その他の設立登記法人,広島県,広島市中区,上幟町１０番１２号,,34,101,7300014,,,,,,,2023-04-27,1,,,,,アソウダ,0
389,2250001020061,新規,0,2023-04-27,2023-04-27,株式会社リガート,,株式会社,山口県,下関市,伊倉新町２丁目２番１１号,,35,201,7510869,,,,,,,2023-04-27,1,,,,,リガート,0
394,2260005011221,新規,0,2023-04-27,2023-04-27,ウエストヒル協同組合,,その他の設立登記法人,岡山県,岡山市北区,神田町１丁目７番９号,,33,101,7000935,,,,,,,2023-04-27,1,,,,,ウエストヒル,0
402,2290003013852,新規,0,2023-04-27,2023-04-27,Ｎｉｎｊｏ合同会社,,合同会社,福岡県,福岡市博多区,博多駅前１丁目２３番１号ＰａｒｋＦｒｏｎｔ博多駅前１丁目５Ｆ－Ｂ,,40,132,8120011,,,,,,,2023-04-27,1,,,,,ニンジョウ,0
406,2320001019724,新規,0,2023-04-27,2023-04-27,株式会社ｆｕｎ’ｇ,,株式会社,大分県,大分市,大字迫１３２４番地,,44,201,8700272,,,,,,,2023-04-27,1,,,,,ファング,0
407,2320003004071,新規,0,2023-04-27,2023-04-27,合同会社八幡急便,,合同会社,大分県,杵築市,大字狩宿１１０３番地３シーサイド杵築４－１０７号,,44,210,8730031,,,,,,,2023-04-27,1,,,,,ハチマンキュウビン,0
424,2390003002085,新規,0,2023-04-27,2023-04-27,合同会社Ｋ‐Ｔｕｎｅ,,合同会社,山形県,東田川郡庄内町,余目字長畑３３番地,,06,428,9997781,,,,,,,2023-04-27,1,,,,,ケイチューン,0
440,2430003014976,新規,0,2023-04-27,2023-04-27,ＳＯＵ合同会社,,合同会社,北海道,札幌市豊平区,月寒東四条１０丁目３番１５－２号,,01,105,0620054,,,,,,,2023-04-27,1,,,,,ソウ,0
441,2430003014984,新規,0,2023-04-27,2023-04-27,Ｒトラスト合同会社,,合同会社,北海道,伊達市,舟岡町３５７番地２２,,01,233,0520014,,,,,,,2023-04-27,1,,,,,アールトラスト,0
443,2700150115789,新規,0,2023-04-27,2023-04-27,ＧｕａｎｇＺｈｏｕ　ＨｅｎｇＭｉｎｇ　ｅｌｅｃｔｉｒｃ　Ｃｏ．，ｌｔｄ,,外国会社等,,,,,,,,Ｎｏ．３８　Ｒｄ　ＢａｉＹｕｎ，ＹｕｅＸｉｕ　Ｄｉｓｔｒｉｃｔ　Ｒｏｏｍ　７０１，ｚｉｂｉａｎｈａｏ７０１　ＧｕａｎｇＺｈｏｕ　ＧｕａｎｇＤｏｎｇ　５１００００,,,,,,2023-04-27,1,,,,,コウシユウシコウメイデンシユウゲンコウシ,0
444,2700150115797,新規,0,2023-04-27,2023-04-27,ＧｕａｎｇＺｈｏｕＪｕＺｈｉＹｉＸｉｎＸｉＫｅＪｉＹｏｕＸｉａｎＧｏｎｇＳｉ,,外国会社等,,,,,,,,ＬｉＷａｎＱｕＸｉＺｅｎｇＬｕ６３ＨａｏＺｉＢｉａｎＨａｏ　Ｃ１０ＨａｏＬｏｕＴａｉＲｏｎｇＳｈａｎｇＷｕＺｈｏｎｇＸｉｎ３１１　ＧｕａｎｇＺｈｏｕ　Ｇｕａｎｇｄｏｎｇ,,,,,,2023-04-27,1,,,,,コウシユウキヨシギインフオメーシヨンユウゲンコウシ,0
445,2700150115806,新規,0,2023-04-27,2023-04-27,Ｃｈｅｎｇｄｕ　Ｌｕｏｄｅｄａｏ　Ｔｅｃｈｎｏｌｏｇｙ　ＣＯ．，ＬＴＤ,,外国会社等,,,,,,,,Ｓｈｕｙｕａｎ　ｘｉｊｉｅ　１ｈａｏ　Ｆｌｏｏｒ　１２，Ａ１－Ａ２　Ｃｈｅｎｇｄｕ　Ｓｉｃｈｕａｎ　６１００００　ＣＮ,,,,,,2023-04-27,1,,,,,セイトラツトクトウカギユウゲンコウシ,0
446,2700150115814,新規,0,2023-04-27,2023-04-27,ｓｈｅｎｚｈｅｎｓｈｉｊｉａｍｉｋｅｙｉｊｉｙｏｕｘｉａｎｇｏｎｇｓｉ,,外国会社等,,,,,,,,ｓｈｅｎｚｈｅｎｓｈｉｌｏｎｇｇａｎｇｑｕｐｉｎｇｈｕｊｉｅｄａｏ　ｓｈａｎｇｍｕｇｕｓｈｅｑｕｃａｉｚｉｎａｎｌｕ８９ｈａｏ４０９　ｓｈｅｎｚｈｅｎｓｈｉ　ｇｕａｎｇｄｏｎｇｓｈｅｎｇ　Ｃｈｉｎａ　５１８０００,,,,,,2023-04-27,1,,,,,シンセンシカビカギユウゲンコウシ,0
447,2700150115847,新規,0,2023-04-27,2023-04-27,ｓｈｅｎｚｈｅｎｓｈｉ　ｄｉｎｇｚｈｉｍａｏｙｉ　ｙｏｕｘｉａｎｇｏｎｇｓｉ,,外国会社等,,,,,,,,ｆｕｈｕａｓｈｅｑｕ　ｆｕａｎ１ｌｕ　１３８ｈａｏ　ｇｕｏｊｉｓｈａｎｇｈｕｉｄａｓｈａ　Ａｄｏｎｇ７０９－Ｆ２１　Ｓｈｅｎｚｈｅｎｓｈｉ　Ｇｕａｎｇｄｏｎｇｓｈｅｎｇ　ｆｕｔｉａｎｊｉｅｄａｏ　５１８０００ＣＮ,,,,,,2023-04-27,1,,,,,シンセンシディンジマォイヨウシェンゴンスー,0
448,2700150115855,新規,0,2023-04-27,2023-04-27,Ｃｈｅｎｇ　ｄｏｕ　ｑｉａｎ　ｚｈｅｎｇ　ｈｕａ　ｋｅ　ｊｉ　ｙｏｕ　ｘｉａｎ　ｇｏｎｇ　ｓｉ,,外国会社等,,,,,,,,Ｊｉｎｊｉａｎｇｑｕｊｉｎｈｕａｇｕａｎｊｉｅ１６ｈａｏ５ｌｏｕ２ｈａｏ　Ｃｈｅｎｇ　Ｄｕ　Ｓｉ　Ｃｈｕａｎ　６１００１６　ＣＮ,,,,,,2023-04-27,1,,,,,チョンドウチエンジョンフワーコージーヨウシエンゴンスー,0
450,3010001021231,新規,0,2023-04-27,2023-04-27,株式会社倉栄建設,,株式会社,東京都,千代田区,富士見１丁目２番３１号,,13,101,1020071,,,,,,,2023-04-27,1,,,,,クラエイケンセツ,0
463,3010001234799,新規,0,2023-04-27,2023-04-27,Ｐａｒａｄｉｇｍ　Ｓｈｉｆｔ株式会社,,株式会社,東京都,千代田区,三番町５番地１９－５０１号,,13,101,1020075,,,,,,,2023-04-27,1,,,,,パラダイムシフト,0
465,3010003040428,新規,0,2023-04-27,2023-04-27,Ｘｅｎｏｖａｔｅ合同会社,,合同会社,東京都,中央区,銀座１丁目１２－４－６階,,13,102,1040061,,,,,,,2023-04-27,1,,,,,ゼノベート,0
466,3010005036572,新規,0,2023-04-27,2023-04-27,一般社団法人太陽光パネル再生推進協会,,その他の設立登記法人,東京都,中央区,日本橋久松町９番１２号,,13,102,1030005,,,,,,,2023-04-27,1,,,,,タイヨウコウパネルサイセイスイシンキョウカイ,0
468,3010101015620,新規,0,2023-04-27,2023-04-27,株式会社青木シーリング,,株式会社,東京都,八王子市,長沼町１１０２番地１４,,13,201,1920907,,,,,,,2023-04-27,1,,,,,アオキシーリング,0
475,3010401174091,新規,0,2023-04-27,2023-04-27,株式会社ＡＤＫ,,株式会社,東京都,港区,北青山２丁目７番２７号７階,,13,103,1070061,,,,,,,2023-04-27,1,,,,,エーディーケー,0
476,3010401174100,新規,0,2023-04-27,2023-04-27,株式会社Ｒ,,株式会社,東京都,港区,六本木５丁目１６－５－１－１Ｆ,,13,103,1060032,,,,,,,2023-04-27,1,,,,,アール,0
482,3010403029995,新規,0,2023-04-27,2023-04-27,アルファ・ファイナンシャル・アドバイザーズ合同会社,,合同会社,東京都,港区,南麻布５丁目１３番６－１０３号,,13,103,1060047,,,,,,,2023-04-27,1,,,,,アルファファイナンシャルアドバイザーズ,0
483,3010403030020,新規,0,2023-04-27,2023-04-27,Ｔｏｍａｌ合同会社,,合同会社,東京都,港区,南麻布１丁目２６－１０－３０３,,13,103,1060047,,,,,,,2023-04-27,1,,,,,トゥマール,0
484,3010405022098,新規,0,2023-04-27,2023-04-27,一般社団法人滝山開発,,その他の設立登記法人,東京都,港区,元赤坂１丁目１番８号赤坂コミュニティビル４階,,13,103,1070051,,,,,,,2023-04-27,1,,,,,タキヤマカイハツ,0
489,3010601063029,新規,0,2023-04-27,2023-04-27,株式会社至和,,株式会社,東京都,江東区,富岡１丁目２２番２６－７０５号門前仲町ダイヤマンション,,13,108,1350047,,,,,,,2023-04-27,1,,,,,シワ,0
494,3010701044176,新規,0,2023-04-27,2023-04-27,株式会社ＩＳＳミッションクリティカルシステムズ,,株式会社,東京都,品川区,西五反田１丁目２４番４号,,13,109,1410031,,,,,,,2023-04-27,1,,,,,アイエスエスミッションクリティカルシステムズ,0
499,3010903008128,新規,0,2023-04-27,2023-04-27,合同会社ＭＹＴ２４７,,合同会社,東京都,世田谷区,宮坂１丁目１０番８号ユアスタイル世田谷２０１,,13,112,1560051,,,,,,,2023-04-27,1,,,,,エムワイティニヨンナナ,0
502,3011001154104,新規,0,2023-04-27,2023-04-27,株式会社Ｒｅｔａｉｌ　Ｐｌａｃｅ,,株式会社,東京都,渋谷区,道玄坂１丁目１０番８号渋谷道玄坂東急ビル２Ｆ－Ｃ,,13,113,1500043,,,,,,,2023-04-27,1,,,,,リテールプレイス,0
507,3011103012993,新規,0,2023-04-27,2023-04-27,合同会社Ｓ＆Ｊ　ｉｎｔｅｒｎａｔｉｏｎａｌ,,合同会社,東京都,新宿区,早稲田鶴巻町５３１,,13,104,1620041,,,,,,,2023-04-27,1,,,,,エスアンドゼインターナショナル,0
514,3011401025004,新規,0,2023-04-27,2023-04-27,株式会社はると,,株式会社,東京都,板橋区,大山金井町１４番１２号レジェンド大山１０１Ｎｏ１１,,13,119,1730024,,,,,,,2023-04-27,1,,,,,ハルト,0
516,3011403003981,新規,0,2023-04-27,2023-04-27,合同会社ＳＷＭＢカンパニー,,合同会社,東京都,板橋区,桜川３丁目１番２－４０５号,,13,119,1740075,,,,,,,2023-04-27,1,,,,,エスダブルエムビーカンパニー,0
523,3011803005628,新規,0,2023-04-27,2023-04-27,富士合同会社,,合同会社,東京都,葛飾区,東四つ木４丁目５番１８号２０２号室,,13,122,1240014,,,,,,,2023-04-27,1,,,,,フジ,0
524,3011805003266,新規,0,2023-04-27,2023-04-27,一般社団法人ソロギターネットワーク,,その他の設立登記法人,東京都,葛飾区,奥戸７丁目１４番１０－４０２号フェイム小岩レジデンスタワー,,13,122,1240022,,,,,,,2023-04-27,1,,,,,ソロギターネットワーク,0
531,3013303006602,新規,0,2023-04-27,2023-04-27,合同会社ＷｅＡｒｅＴｅａｍ,,合同会社,東京都,豊島区,池袋４丁目２２－１０－３０１,,13,116,1710014,,,,,,,2023-04-27,1,,,,,ウィーアーチーム,0
535,3020001151325,新規,0,2023-04-27,2023-04-27,株式会社ミタケベース,,株式会社,神奈川県,川崎市多摩区,宿河原２丁目１５番６号,,14,135,2140021,,,,,,,2023-04-27,1,,,,,ミタケベース,0
544,3030001153601,新規,0,2023-04-27,2023-04-27,株式会社ジェンゴ,,株式会社,埼玉県,さいたま市南区,太田窪５丁目２３番９号ファミール菜穂３０１,,11,108,3360015,,,,,,,2023-04-27,1,,,,,ジェンゴ,0
548,3030003021657,新規,0,2023-04-27,2023-04-27,ラジサービスサポート合同会社,,合同会社,埼玉県,富士見市,水谷東１丁目１５番７号,,11,235,3540013,,,,,,,2023-04-27,1,,,,,ラジサービスサポート,0
562,3050003007448,新規,0,2023-04-27,2023-04-27,合同会社生活おうえん団だいぞう,,合同会社,茨城県,筑西市,みどり町１丁目１７番６,,08,227,3080042,,,,,,,2023-04-27,1,,,,,セイカツオウエンダンダイゾウ,0
564,3060001035929,新規,0,2023-04-27,2023-04-27,ナカヤ株式会社,,株式会社,栃木県,宇都宮市,石井町２５０１番地２０,,09,201,3210912,,,,,,,2023-04-27,1,,,,,ナカヤ,0
570,3070003004922,新規,0,2023-04-27,2023-04-27,合同会社ケアサポート華,,合同会社,群馬県,吾妻郡中之条町,大字伊勢町１４８１番地７,,10,421,3770423,,,,,,,2023-04-27,1,,,,,,0
573,3080003002966,新規,0,2023-04-27,2023-04-27,合同会社Ｂ．Ｍラボ,,合同会社,静岡県,静岡市葵区,七間町１１－５イマココビル１－１３,,22,101,4200035,,,,,,,2023-04-27,1,,,,,ビーエムラボ,0
576,3080103002783,新規,0,2023-04-27,2023-04-27,伊豆未来農林水産再生合同会社,,合同会社,静岡県,伊豆市,上白岩１４６０番地の１,,22,222,4102502,,,,,,,2023-04-27,1,,,,,イズミライノウリンスイサンサイセイ,0
588,3120001254398,新規,0,2023-04-27,2023-04-27,株式会社グランドコーポレーション,,株式会社,大阪府,大阪市北区,西天満３丁目１番１３号清洲西天満ビル３０３号室,,27,127,5300047,,,,,,,2023-04-27,1,,,,,グランドコーポレーション,0
589,3120001254456,新規,0,2023-04-27,2023-04-27,新工坊株式会社,,株式会社,大阪府,大阪市北区,大淀南２丁目２番９－３９０７号,,27,127,5310075,,,,,,,2023-04-27,1,,,,,シンコウボウ,0
590,3120001254464,新規,0,2023-04-27,2023-04-27,愛慕日本株式会社,,株式会社,大阪府,大阪市西成区,千本北１丁目８番２号,,27,122,5570053,,,,,,,2023-04-27,1,,,,,アイマニッポン,0
591,3120001254472,新規,0,2023-04-27,2023-04-27,株式会社ＢＡ,,株式会社,大阪府,大阪市西区,京町堀１丁目６番２３号,,27,106,5500003,,,,,,,2023-04-27,1,,,,,ビーエー,0
593,3120003023933,新規,0,2023-04-27,2023-04-27,合同会社ルクス,,合同会社,大阪府,寝屋川市,大成町１６番２号,,27,215,5720819,,,,,,,2023-04-27,1,,,,,ルクス,0
594,3120005023592,新規,0,2023-04-27,2023-04-27,一般社団法人福祉の杜,,その他の設立登記法人,大阪府,大阪市東淀川区,菅原５丁目５－２７－３Ｆ,,27,114,5330022,,,,,,,2023-04-27,1,,,,,フクシノモリ,0
610,3140001129978,新規,0,2023-04-27,2023-04-27,福崎警備株式会社,,株式会社,兵庫県,神崎郡福崎町,西田原１７６１番地１０１,,28,443,6792204,,,,,,,2023-04-27,1,,,,,フクサキケイビ,0
615,3150001026332,新規,0,2023-04-27,2023-04-27,株式会社七福,,株式会社,奈良県,香芝市,今泉７０２,,29,210,6390264,,,,,,,2023-04-27,1,,,,,シチフク,0
619,3170001017569,新規,0,2023-04-27,2023-04-27,株式会社えん,,株式会社,和歌山県,日高郡みなべ町,西岩代６０８番地,,30,391,6450014,,,,,,,2023-04-27,1,,,,,エン,0
625,3180001155979,新規,0,2023-04-27,2023-04-27,株式会社アテッサ,,株式会社,愛知県,名古屋市北区,大杉１丁目３番１９号,,23,103,4620837,,,,,,,2023-04-27,1,,,,,アテッサ,0
626,3180001156036,新規,0,2023-04-27,2023-04-27,株式会社奥田建設,,株式会社,愛知県,名古屋市中川区,明徳町２丁目７番地パストラルハイム明徳２－１０４号室,,23,110,4540857,,,,,,,2023-04-27,1,,,,,オクダケンセツ,0
645,3240003006117,新規,0,2023-04-27,2023-04-27,合同会社井ノ口邸広島,,合同会社,広島県,広島市西区,井口２丁目２６番３５号,,34,104,7330842,,,,,,,2023-04-27,1,,,,,イノクチテイヒロシマ,0
647,3250005008820,新規,0,2023-04-27,2023-04-27,下関飲食業協同組合,,その他の設立登記法人,山口県,下関市,竹崎町１丁目１６番１１号,,35,201,7500025,,,,,,,2023-04-27,1,,,,,シモノセキインショクギョウ,0
648,3260001037896,新規,0,2023-04-27,2023-04-27,株式会社ティーターン,,株式会社,岡山県,瀬戸内市,長船町磯上１０９０－４,,33,212,7014273,,,,,,,2023-04-27,1,,,,,ティーターン,0
651,3290001101328,新規,0,2023-04-27,2023-04-27,ひとつづき株式会社,,株式会社,福岡県,福岡市中央区,天神２丁目３番１０号天神パインクレスト７１９号,,40,133,8100001,,,,,,,2023-04-27,1,,,,,ヒトツヅキ,0
652,3290001101336,新規,0,2023-04-27,2023-04-27,株式会社ｓｙｃ,,株式会社,福岡県,福岡市中央区,赤坂１丁目１３－２,,40,133,8100042,,,,,,,2023-04-27,1,,,,,エスワイシー,0
662,3320001019723,新規,0,2023-04-27,2023-04-27,株式会社Ｋ‐Ｃ,,株式会社,大分県,大分市,住吉町２丁目２番３０号,,44,201,8700032,,,,,,,2023-04-27,1,,,,,ケーシー,0
666,3340003004110,新規,0,2023-04-27,2023-04-27,合同会社Ｓ‐ＰＡＲＫ，Ｉｎｃ．,,合同会社,鹿児島県,鹿児島市,星ヶ峯６丁目４３－２,,46,201,8910102,,,,,,,2023-04-27,1,,,,,エスパーク,0
667,3340005009594,新規,0,2023-04-27,2023-04-27,いちき串木野・東市来環境整備事業協同組合,,その他の設立登記法人,鹿児島県,いちき串木野市,八房２９１０番地１,,46,219,8960056,,,,,,,2023-04-27,1,,,,,イチキクシキノヒガシイチキカンキョウセイビ,0
669,3360001031939,新規,0,2023-04-27,2023-04-27,株式会社ａｒａｎｏｖａ,,株式会社,沖縄県,うるま市,喜仲１丁目６番２７号ユニキューブテラスＢ,,47,213,9042236,,,,,,,2023-04-27,1,,,,,アラノバ,0
680,3420003002709,新規,0,2023-04-27,2023-04-27,ナカテック合同会社,,合同会社,青森県,弘前市,大字小比内１丁目５番地７,,02,202,0368102,,,,,,,2023-04-27,1,,,,,ナカテック,0
686,3430001088947,新規,0,2023-04-27,2023-04-27,株式会社エストレア,,株式会社,北海道,札幌市厚別区,厚別中央四条２丁目５番２６号パークプラザＡ２０１号,,01,108,0040054,,,,,,,2023-04-27,1,,,,,エストレア,0
687,3430001088955,新規,0,2023-04-27,2023-04-27,株式会社レヴールハウス,,株式会社,北海道,千歳市,緑町１丁目２番２７号２０２,,01,224,0660074,,,,,,,2023-04-27,1,,,,,レヴールハウス,0
688,3430001088971,新規,0,2023-04-27,2023-04-27,株式会社ＡＫＲ,,株式会社,北海道,小樽市,塩谷２丁目１３番１７号,,01,203,0482672,,,,,,,2023-04-27,1,,,,,エイケイアール,0
689,3430003014975,新規,0,2023-04-27,2023-04-27,合同会社春兎,,合同会社,北海道,札幌市手稲区,西宮の沢二条５丁目４－１,,01,109,0060002,,,,,,,2023-04-27,1,,,,,ハルト,0
690,3430003014983,新規,0,2023-04-27,2023-04-27,合同会社オリーブサポート,,合同会社,北海道,札幌市白石区,本通１８丁目北２番１０号,,01,104,0030027,,,,,,,2023-04-27,1,,,,,オリーブサポート,0
697,3700150115788,新規,0,2023-04-27,2023-04-27,Ｓｈｅｎｚｈｅｎ　ＳｈｅｎＦｕ　Ｅｌｅｃｔｒｏｎｉｃ　Ｔｅｃｈｎｏｌｏｇｙ　ＣＯ．，Ｌｔｄ,,外国会社等,,,,,,,,Ｒｏｏｍ　４Ａ０９－４Ａ１０，Ｂｌｏｃｋ　Ａ，ＧＵＡＮＧＢＯ　ＸＩＡＮＤＡＩＺＨＩＣＨＵＡＮＧ　Ｍａｎｓｉｏｎ，１０５８　ＨｕａＱｉａｎｇ　Ｎｏｒｔｈ　Ｒｏａｄ，Ｆｕｔｉａｎ　Ｄｉｓｔｒｉｃｔ　Ｇｕａｎｇｄｏｎｇ　５１８１１０　ＣＮ,,,,,,2023-04-27,1,,,,,シンセンセンフエレクトロニクテクノロジーカンパニーリミテツド,0
698,3700150115796,新規,0,2023-04-27,2023-04-27,ＲＵＩ　ＰＵ　ＥＬＥＣＴＲＯＮＩＣ　ＴＥＣＨＮＯＬＯＧＹ　ＬＩＭＩＴＥＤ,,外国会社等,,,,,,,,ＲＯＯＭ　Ｆ　６／Ｆ　ＭＥＧＡ　ＣＵＢＥ　ＮＯ．８　ＷＡＮＧ　ＫＷＯＮＧ　ＲＯＡＤ　ＫＬ　ＨＫ,,,,,,2023-04-27,1,,,,,リプエレクトロニツクテクノロジーカンパニーリミテツト,0
699,3700150115805,新規,0,2023-04-27,2023-04-27,Ｘｉａｍｅｎ　ＨａｎＸｉａｏＹｉｎ　Ｔｒａｄｉｎｇ　Ｃｏ．，Ｌｔｄ．,,外国会社等,,,,,,,,Ｎｏ．０３８９　Ｕｎｉｔ　２０９，ＣｈｅｎｇＹｉ　Ｎｏｒｔｈ　Ｓｔｒｅｅｔ，ｓｏｆｔｗａｒｅ　ｐａｒｋ　ＩＩＩ，Ｔｏｒｃｈ　Ｈｉｇｈ－ｔｅｃｈ　Ｚｏｎｅ，Ｘｉａｍｅｎ,00130288,,,,,2023-04-27,1,,,,,アモイハンシヨウインボウエキカンパニーリミテツト,0
700,3700150115813,新規,0,2023-04-27,2023-04-27,ＧｕａｎｇｚｈｏｕＲｕｉＫｅＸｕｎ　Ｅｌｅｃｔｒｏｎｉｃ　Ｃｏｍｍｅｒｃｅ　Ｃｏ．，Ｌｔｄ,,外国会社等,,,,,,,,Ｒｏｏｍ　７１０，Ｇｕａｎｇｚｈｏｕｓｈｉ　Ｈｅａｎｂａｏ　Ｂｕｓｉｎｅｓｓ　Ｃｅｎｔｅｒ，Ｎｏ．１０　Ｌｉｘｉａｎｇ　Ｒｏａｄ，Ｈｕａｎｇｐｕ　Ｄｉｓｔｒｉｃｔ，Ｇｕａｎｇｚｈｏｕ，Ｇｕａｎｇｄｏｎｇ，５１０７９９，ＣＮ,,,,,,2023-04-27,1,,,,,コウシユウズイカクンデンシシヨウムユウゲンコウシ,0
701,3700150115846,新規,0,2023-04-27,2023-04-27,ＳＨＥＮＺＨＥＮＳＨＩ　ＷＥＩＭＩＣＨＵＡＮＧＸＩＮＫＥＪＩ　ＹＯＵＸＩＡＮＺＥＲＥＮＧＯＮＧＳＩ,,外国会社等,,,,,,,,１０１，Ｎｏ．３，Ｔｏｎｇｙｉ　Ｎｏｒｔｈ　Ｔｈｉｒｄ　Ｌａｎｅ，Ｈｅｐｉｎｇ　Ｃｏｍｍｕｎｉｔｙ　Ｆｕｈａｉ　Ｓｔｒｅｅｔ，Ｂａｏ’ａｎ　Ｄｉｓｔｒｉｃｔ　Ｓｈｅｎｚｈｅｎ　Ｇｕａｎｇｄｏｎｇ　５１８１０２ＣＮ,,,,,,2023-04-27,1,,,,,シンセンシウェイミチュアンシンケジヨウシェンザァレンゴンスー,0
702,3700150115854,新規,0,2023-04-27,2023-04-27,Ｈａｉ　Ｋｏｕ　Ｓｈｉ　Ｓｈｉ　Ｐｉ　Ｄｉａｎ　Ｚｉ　Ｓｈａｎｇ　Ｗｕ　Ｙｏｕ　Ｘｉａｎ　Ｇｏｎｇ　Ｓｉ,,外国会社等,,,,,,,,Ｈａｉｎａｎｓｈｅｎｇ　ｈａｉｋоｕｓｈｉ　ｌｏｎｇｈｕａｑｕ　ｚｈｏｎｇｓｈａｎｊｉｅｄａｏ　ｘｉｎｈｕａｂｅｉｌｕ　２４ｈａｏｚｈｉｓａｎ　１０１ｆａｎｇ,,,,,,2023-04-27,1,,,,,ハイコウシーシーピーディエンズーシャンウーヨウシエンゴンスー,0
717,4010003040443,新規,0,2023-04-27,2023-04-27,ＤＡＮＧ　ＯＮＥ合同会社,,合同会社,東京都,千代田区,霞が関３丁目２番５号,,13,101,1000013,,,,,,,2023-04-27,1,,,,,ダンワン,0
718,4010003040451,新規,0,2023-04-27,2023-04-27,東日本土地開発２号合同会社,,合同会社,東京都,中央区,銀座１丁目１２番４号Ｎ＆ＥＢＬＤ．７階,,13,102,1040061,,,,,,,2023-04-27,1,,,,,ヒガシニホントチカイハツニゴウ,0
721,4010401173919,新規,0,2023-04-27,2023-04-27,株式会社Ｃ＆Ｄダイニング,,株式会社,東京都,港区,西新橋３丁目２５番３１号愛宕山ＰＲＥＸ７階,,13,103,1050003,,,,,,,2023-04-27,1,,,,,シーアンドディーダイニング,0
722,4010401173984,新規,0,2023-04-27,2023-04-27,株式会社Ａｂｉｌｉｔｙ　Ｐａｒｔｎｅｒｓ　Ｃｏｎｓｕｌｔｉｎｇ,,株式会社,東京都,港区,南青山２丁目２－８ＤＦビル６階,,13,103,1070062,,,,,,,2023-04-27,1,,,,,アビリティパートナーズコンサルティング,0
723,4010401174033,新規,0,2023-04-27,2023-04-27,株式会社ＨＩＴＡＣＨＩＮＯ　ＬＡＢ,,株式会社,東京都,港区,南麻布５丁目３番２３－１０２号,,13,103,1060047,,,,,,,2023-04-27,1,,,,,ヒタチノラボ,0
727,4010403029994,新規,0,2023-04-27,2023-04-27,合同会社ＵＮＩＯＮ　ＳＴＵＤＩＯＳ　ＰＬＵＳ,,合同会社,東京都,港区,南青山２丁目２番１５号,,13,103,1070062,,,,,,,2023-04-27,1,,,,,ユニオンストゥディオズプラス,0
747,4011101102696,新規,0,2023-04-27,2023-04-27,株式会社ｓｕｉｖｒｅ,,株式会社,東京都,新宿区,歌舞伎町２丁目１１番４号,,13,104,1600021,,,,,,,2023-04-27,1,,,,,スイーブル,0
760,4011303004740,新規,0,2023-04-27,2023-04-27,合同会社ＩＣＥ‐Ｋ,,合同会社,東京都,杉並区,高円寺南４丁目２５番９号,,13,115,1660003,,,,,,,2023-04-27,1,,,,,アイスケイ,0
768,4011705001781,新規,0,2023-04-27,2023-04-27,一般社団法人亮啓会,,その他の設立登記法人,東京都,江戸川区,東葛西５丁目４０番１号サンエクセル英１０１,,13,123,1340084,,,,,,,2023-04-27,1,,,,,リョウケイカイ,0
774,4012801022309,新規,0,2023-04-27,2023-04-27,株式会社アズアーキテクト,,株式会社,東京都,立川市,錦町４丁目４番２号,,13,202,1900022,,,,,,,2023-04-27,1,,,,,アズアーキテクト,0
783,4020001151332,新規,0,2023-04-27,2023-04-27,株式会社ｆｉｔ,,株式会社,神奈川県,横浜市泉区,岡津町２５５９番地２,,14,116,2450003,,,,,,,2023-04-27,1,,,,,フィット,0
785,4020003023769,新規,0,2023-04-27,2023-04-27,日本・ベスト・スポーツ合同会社,,合同会社,神奈川県,横浜市青葉区,すみよし台３番地５メープルハイム５０５,,14,117,2270035,,,,,,,2023-04-27,1,,,,,ニホンベストスポーツ,0
786,4021001078879,新規,0,2023-04-27,2023-04-27,ＬＤＫＴ株式会社,,株式会社,神奈川県,相模原市中央区,中央３丁目１１番４号佐溝ビル２０３,,14,152,2520239,,,,,,,2023-04-27,1,,,,,エルディーケイティ,0
798,4030003021615,新規,0,2023-04-27,2023-04-27,合同会社オフィス長谷川,,合同会社,埼玉県,入間市,黒須１丁目１０番３８号,,11,225,3580007,,,,,,,2023-04-27,1,,,,,オフィスハセガワ,0
799,4030003021672,新規,0,2023-04-27,2023-04-27,合同会社ＲＤ,,合同会社,埼玉県,さいたま市緑区,東浦和７丁目１３－１４－２０４,,11,109,3360926,,,,,,,2023-04-27,1,,,,,アールディー,0
812,4050001052759,新規,0,2023-04-27,2023-04-27,エムズコンサルタンツ株式会社,,株式会社,茨城県,牛久市,さくら台３丁目８番地１９,,08,219,3001217,,,,,,,2023-04-27,1,,,,,エムズコンサルタンツ,0
834,4120001254380,新規,0,2023-04-27,2023-04-27,ＭＥＮＧＹＡＯ株式会社,,株式会社,大阪府,大阪市城東区,蒲生３丁目１５番１２号セザンヌ藤４０１Ｂ,,27,118,5360016,,,,,,,2023-04-27,1,,,,,ムヨウ,0
835,4120001254455,新規,0,2023-04-27,2023-04-27,株式会社ノンスタイル,,株式会社,大阪府,枚方市,長尾谷町２丁目２番地の１９,,27,210,5730164,,,,,,,2023-04-27,1,,,,,ノンスタイル,0
837,4120003023899,新規,0,2023-04-27,2023-04-27,合同会社ＡＲＥ,,合同会社,大阪府,大阪市東淀川区,西淡路２丁目１４番９号,,27,114,5330031,,,,,,,2023-04-27,1,,,,,アルエ,0
850,4130001074191,新規,0,2023-04-27,2023-04-27,ＦＳＩ株式会社,,株式会社,京都府,京都市西京区,桂南巽町１０番地２エクラ桂駅前５０１号,,26,111,6158074,,,,,,,2023-04-27,1,,,,,エフエスアイ,0
858,4140001129960,新規,0,2023-04-27,2023-04-27,株式会社Ｓ．ＣｒｅａｔｅＳｅｒｖｉｃｅ,,株式会社,兵庫県,尼崎市,大庄北３丁目１４番２５号,,28,202,6600063,,,,,,,2023-04-27,1,,,,,エスクリエイトサービス,0
859,4140001129969,新規,0,2023-04-27,2023-04-27,株式会社土間道,,株式会社,兵庫県,尼崎市,常吉１丁目３番１５－１１０号,,28,202,6610042,,,,,,,2023-04-27,1,,,,,ドマドウ,0
860,4140001129985,新規,0,2023-04-27,2023-04-27,株式会社フレッシュ・フルーツ神戸,,株式会社,兵庫県,神戸市兵庫区,中之島１丁目１番１号,,28,105,6520844,,,,,,,2023-04-27,1,,,,,フレッシュフルーツコウベ,0
862,4140003019037,新規,0,2023-04-27,2023-04-27,譯誠合同会社,,合同会社,兵庫県,神戸市垂水区,舞多聞西７丁目９番６号,,28,108,6550051,,,,,,,2023-04-27,1,,,,,ヤクセイ,0
864,4140005026568,新規,0,2023-04-27,2023-04-27,一般社団法人ピアハウスＳＴＡＲＳ,,その他の設立登記法人,兵庫県,尼崎市,武庫之荘４丁目２１番１号武富レジデンス１－１０８号,,28,202,6610035,,,,,,,2023-04-27,1,,,,,ピアハウススターズ,0
866,4150001026356,新規,0,2023-04-27,2023-04-27,株式会社フェリス,,株式会社,奈良県,北葛城郡王寺町,明神１丁目５番９号,,29,425,6360022,,,,,,,2023-04-27,1,,,,,フェリス,0
869,4170001017568,新規,0,2023-04-27,2023-04-27,株式会社森川建設,,株式会社,和歌山県,有田市,古江見１６番地,,30,204,6490317,,,,,,,2023-04-27,1,,,,,モリカワケンセツ,0
872,4180001156002,新規,0,2023-04-27,2023-04-27,日本エコウィズ株式会社,,株式会社,愛知県,名古屋市中村区,岩塚町字郷中１０８番地の３ＥＳＰＲＥＳＳＯ岩塚２Ｅ号室,,23,105,4530862,,,,,,,2023-04-27,1,,,,,ニホンエコウィズ,0
873,4180001156027,新規,0,2023-04-27,2023-04-27,株式会社アドクルー,,株式会社,愛知県,名古屋市中村区,名駅３丁目４－１０アルティメイト名駅１ｓｔ２階,,23,105,4500002,,,,,,,2023-04-27,1,,,,,アドクルー,0
875,4180003025163,新規,0,2023-04-27,2023-04-27,合同会社ＮＥＷＭＡ,,合同会社,愛知県,名古屋市中区,大須１丁目３５番９号エスリード大須プレシア１４０１号,,23,106,4600011,,,,,,,2023-04-27,1,,,,,ニューマ,0
884,4200001041242,新規,0,2023-04-27,2023-04-27,株式会社えいちえむ,,株式会社,岐阜県,関市,上白金５８６番地１,,21,205,5013947,,,,,,,2023-04-27,1,,,,,エイチエム,0
894,4240001061427,新規,0,2023-04-27,2023-04-27,天照ビルサービス株式会社,,株式会社,広島県,広島市中区,宝町７番１６号,,34,101,7300044,,,,,,,2023-04-27,1,,,,,テンショウビルサービス,0
896,4240003006116,新規,0,2023-04-27,2023-04-27,ＯＴＡＮＩ　ＢＡＳＥ合同会社,,合同会社,広島県,三原市,須波ハイツ３丁目１１番１２号,,34,204,7230035,,,,,,,2023-04-27,1,,,,,オオタニベース,0
901,4290001101310,新規,0,2023-04-27,2023-04-27,株式会社ルグナ,,株式会社,福岡県,筑後市,大字山ノ井１１２８番地,,40,211,8330031,,,,,,,2023-04-27,1,,,,,ルグナ,0
912,4360001031938,新規,0,2023-04-27,2023-04-27,株式会社ひかる,,株式会社,沖縄県,名護市,字為又１０８－２プレサンスロジェ名護為又ヴォール７０５号,,47,209,9050005,,,,,,,2023-04-27,1,,,,,ヒカル,0
920,4380003005450,新規,0,2023-04-27,2023-04-27,合同会社ＯＮＥ’Ｓ,,合同会社,福島県,福島市,黒岩字榎平１５番地の２、２階,,07,201,9608153,,,,,,,2023-04-27,1,,,,,ワンズ,0
925,4410005006518,新規,0,2023-04-27,2023-04-27,一般社団法人Ａｋｉｔａ　Ａｓｔｅｒｓ,,その他の設立登記法人,秋田県,にかほ市,平沢字町田１０８番地１,,05,214,0180402,,,,,,,2023-04-27,1,,,,,アキタアスターズ,0
930,4430001088954,新規,0,2023-04-27,2023-04-27,株式会社トラストワン,,株式会社,北海道,札幌市東区,伏古十条１丁目２番１４号,,01,103,0070870,,,,,,,2023-04-27,1,,,,,トラストワン,0
931,4430001088979,新規,0,2023-04-27,2023-04-27,株式会社こころ設備,,株式会社,北海道,札幌市豊平区,西岡二条４丁目１１番１１号竹田アパート２－１０３,,01,105,0620032,,,,,,,2023-04-27,1,,,,,ココロセツビ,0
941,4480005006957,新規,0,2023-04-27,2023-04-27,一般社団法人徳島県橋梁塗装協会,,その他の設立登記法人,徳島県,阿南市,那賀川町上福井南川渕１６８番地の８,,36,204,7791243,,,,,,,2023-04-27,1,,,,,トクシマケンキョウリョウトソウキョウカイ,0
942,4490001010466,新規,0,2023-04-27,2023-04-27,株式会社ＭＡＳＴ,,株式会社,高知県,高知市,朝倉横町２２番２３－８０４号,,39,201,7808074,,,,,,,2023-04-27,1,,,,,マスト,0
946,4700150115787,新規,0,2023-04-27,2023-04-27,ｈｅｆｅｉｘｉｎｇｙｕｃｈｕａｎｑｉｗａｎｊｕｙｏｕｘｉａｎｇｏｎｇｓｉ,,外国会社等,,,,,,,,ｈｅｆｅｉｓｈｉｂａｏｈｅｊｉｎｇｊｉｋａｉｆａｑｕｈｕａｙｕａｎｄａｄａｏ１７ｈａｏ３ｈａｏｌｏｕｙｉｃｅｎｇ０７９,,,,,,2023-04-27,1,,,,,ゴウヒセイイキデンキガングユウゲンコウシ,0
947,4700150115795,新規,0,2023-04-27,2023-04-27,ｓｈｅｎｚｈｅｎｓｈｉｙｕｎｔｏｎｇｔｉａｎｘａｉｋｅｊｉｙｏｕｘｉａｎｇｏｎｇｓｉ,,外国会社等,,,,,,,,ｓｈｅｎｚｈｅｎｓｈｉ，ｂａｏａｎｑｕ，ｓｈｉｙａｎｊｉｅｄａｏ，ｔａｎｇｔｏｕｓｈｅｑｕ，ｓａｎｌｉａｎｇｏｎｇｙｅｑｕ，Ｄｄｏｎｇｓｉｃｅｎｇ,,,,,,2023-04-27,1,,,,,シンセンシウンツウテンカカギユウゲンコウシ,0
948,4700150115804,新規,0,2023-04-27,2023-04-27,ＧｕａｎｇＺｈｏｕＷａｎＴｕｏＸｉｎＸｉＫｅＪｉＹｏｕＸｉａｎＧｏｎｇＳｉ,,外国会社等,,,,,,,,ＬｉＷａｎＱｕ，ＸｉＺｅｎｇＬｕ６３ＨａｏＺｉＢｉａｎＣ１０，ＴａｉＲｏｎｇＳｈａｎｇＷｕＺｈｏｎｇＸｉｎ３０８－１Ｓｈｉ，Ｇｕａｎｇｄｏｎｇ，Ｇｕａｎｇｚｈｏｕ,,,,,,2023-04-27,1,,,,,コウシユウマンタクインフオメーシヨンテクノロジーユウゲンコウシ,0
949,4700150115812,新規,0,2023-04-27,2023-04-27,Ｘｉａｍｅｎ　Ｋｕａｎｇｙｕａｎ　Ｔｒａｄｅ　ｃｏ，　Ｌｔｄ,,外国会社等,,,,,,,,４２Ｒｏｏｍ，ＨＮｅｉｇｈｂｏｒｈｏｏｄ，１０１Ｕｎｉｔ，Ｎｏ．２８７－３０９，Ｌｉａｎｑｉａ，２２０３Ｒｏｏｍ，Ｎｏ．８　Ｂｕｉｌｄｉｎｇ，Ｈｕａｎｇｔｉｎｇｊｕｎｊｉｎｇ　Ｎｅｉｇｈｂｏｒ，Ｘｉａｍｅｎ　ｃｉｔｙ，Ｆｕｊｉａｎ　Ｐｒｏｖｉｎｃｅ，３６１００１，ＣＮ,,,,,,2023-04-27,1,,,,,アモイコウゲンボウエキユウゲンコウシ,0
950,4700150115845,新規,0,2023-04-27,2023-04-27,ＭＩＲＡＧＥ　ＭＯＴＯＲＳ,,外国会社等,千葉県,山武市,木原８７－Ｄ,,12,237,2891212,スリランカ民主社会主義共和国、クルネガラ、ワドラガラ、コロンボロードＮｏ．２３３号,,,,,,2023-04-27,1,,,,,ミラジユモータース,0
951,4700150115853,新規,0,2023-04-27,2023-04-27,ｈａｉｋｏｕｇｕａｎｔａｎｇｋａｉｄｉａｎｚｉｓｈａｎｇｗｕｙｏｕｘｉａｎｇｏｎｇｓｉ,,外国会社等,,,,,,,,Ｈａｉｎａｎｓｈｅｎｇ　ｈａｉｋｏｕｓｈｉ　ｌｏｎｇｈｕａｑｕ　ｊｉｎｍａｏｊｉｅｄａｏ　ｈａｉｙａｇｕｏｊｉｄａｓｈａ９０１ｓｈｉ,,,,,,2023-04-27,1,,,,,ハイコウグワンタンカイディエンズーシャンウーヨウシエンゴンスー,0
962,5010003040450,新規,0,2023-04-27,2023-04-27,東日本土地開発１号合同会社,,合同会社,東京都,中央区,銀座１丁目１２番４号Ｎ＆ＥＢＬＤ．７階,,13,102,1040061,,,,,,,2023-04-27,1,,,,,ヒガシニホントチカイハツイチゴウ,0
963,5010005036579,新規,0,2023-04-27,2023-04-27,一般社団法人中医と再生医学研究院,,その他の設立登記法人,東京都,中央区,晴海２丁目３番２－７１０号,,13,102,1040053,,,,,,,2023-04-27,1,,,,,チュウイトサイセイイガクケンキュウイン,0
964,5010101015619,新規,0,2023-04-27,2023-04-27,ワーク・スクエア・ジャパン株式会社,,株式会社,東京都,八王子市,別所２丁目２９番地２－３０６,,13,201,1920363,,,,,,,2023-04-27,1,,,,,ワークスクエアジャパン,0
968,5010401173942,新規,0,2023-04-27,2023-04-27,株式会社エスシナジー,,株式会社,東京都,港区,新橋１丁目５番５号国際善隣会館４Ｂ,,13,103,1050004,,,,,,,2023-04-27,1,,,,,エスシナジー,0
969,5010401173967,新規,0,2023-04-27,2023-04-27,株式会社ＤＲ,,株式会社,東京都,港区,東麻布２丁目３５番１ＫＣビル６Ｆ,,13,103,1060044,,,,,,,2023-04-27,1,,,,,ディーアール,0
970,5010401174098,新規,0,2023-04-27,2023-04-27,株式会社ドルフィン・バリュー・アップ９号,,株式会社,東京都,港区,芝公園１丁目１番１号住友不動産御成門タワー７階,,13,103,1050011,,,,,,,2023-04-27,1,,,,,ドルフィンバリューアップキュウゴウ,0
971,5010403029977,新規,0,2023-04-27,2023-04-27,ボンサイ合同会社,,合同会社,東京都,港区,六本木１丁目６番１号泉ガーデンタワー,,13,103,1060032,,,,,,,2023-04-27,1,,,,,ボンサイ,0
972,5010403029993,新規,0,2023-04-27,2023-04-27,合同会社Ｈａｂｉｔ．,,合同会社,東京都,港区,南青山３丁目１番３６号,,13,103,1070062,,,,,,,2023-04-27,1,,,,,ハビット,0
977,5010901052943,新規,0,2023-04-27,2023-04-27,株式会社ＧＩＮＺＡ１３ＷＡＴＣＨ,,株式会社,東京都,世田谷区,南烏山５丁目１１番７号シャンブル烏山３０３,,13,112,1570062,,,,,,,2023-04-27,1,,,,,ギンザワンスリーウォッチ,0
980,5011001154052,新規,0,2023-04-27,2023-04-27,リバー株式会社,,株式会社,東京都,目黒区,平町２丁目１６番２１号,,13,110,1520032,,,,,,,2023-04-27,1,,,,,リバー,0
981,5011001154077,新規,0,2023-04-27,2023-04-27,サルス・ラボ株式会社,,株式会社,東京都,目黒区,三田２丁目１０－５５－５０１号室,,13,110,1530062,,,,,,,2023-04-27,1,,,,,サルスラボ,0
982,5011001154093,新規,0,2023-04-27,2023-04-27,株式会社Ｅｄｏｍ,,株式会社,東京都,渋谷区,恵比寿４丁目２０番４号（恵比寿ガーデンプレイス）グラススクエアＢ１Ｆ－ＦＤ－０６,,13,113,1500013,,,,,,,2023-04-27,1,,,,,イドム,0
984,5011101102613,新規,0,2023-04-27,2023-04-27,株式会社ＭＡＫＥ　Ａ　ＣＵＬＴＵＲＥ,,株式会社,東京都,新宿区,西新宿１丁目２５番１号新宿センタービル４９階,,13,104,1600023,,,,,,,2023-04-27,1,,,,,メイクアカルチャー,0
1000,5011803005626,新規,0,2023-04-27,2023-04-27,合同会社スマイル,,合同会社,東京都,葛飾区,新宿１丁目１５－１２,,13,122,1250051,,,,,,,2023-04-27,1,,,,,スマイル,0
1009,5020001151224,新規,0,2023-04-27,2023-04-27,模株式会社,00130295,株式会社,神奈川県,川崎市宮前区,土橋３丁目４番地１２,,14,136,2160005,,,,,,,2023-04-27,1,,,,,ブナ,0
1010,5020001151323,新規,0,2023-04-27,2023-04-27,株式会社アイセル,,株式会社,神奈川県,川崎市中原区,木月３丁目４４番１５号,,14,133,2110025,,,,,,,2023-04-27,1,,,,,アイセル,0
1011,5020001151331,新規,0,2023-04-27,2023-04-27,Ｊ　ｓｐｒｏｕｔ株式会社,,株式会社,神奈川県,横浜市中区,元町４丁目１６８,,14,104,2310861,,,,,,,2023-04-27,1,,,,,,0
1016,5021001078878,新規,0,2023-04-27,2023-04-27,ケー・エン・ケーテクノ株式会社,,株式会社,神奈川県,大和市,中央林間３丁目１３番４号リベラ林間１階,,14,213,2420007,,,,,,,2023-04-27,1,,,,,ケーエンケーテクノ,0
1020,5030001153608,新規,0,2023-04-27,2023-04-27,株式会社和菓子はしもと,,株式会社,埼玉県,朝霞市,岡２丁目４番３０－２０５号,,11,227,3510007,,,,,,,2023-04-27,1,,,,,ワガシハシモト,0
1021,5030001153624,新規,0,2023-04-27,2023-04-27,株式会社イーサンネットワークス,,株式会社,埼玉県,春日部市,栄町３丁目２６０番地３,,11,214,3440058,,,,,,,2023-04-27,1,,,,,イーサンネットワークス,0
1026,5030003021663,新規,0,2023-04-27,2023-04-27,合同会社ＤＥＰＡＲＴＵＲＥ,,合同会社,埼玉県,八潮市,大瀬１丁目１１番地１プライムスクエア８０２号,,11,234,3400822,,,,,,,2023-04-27,1,,,,,デパーチャー,0
1031,5050001052592,新規,0,2023-04-27,2023-04-27,ＡＲＩＺ　ＴＲＡＤＩＮＧ株式会社,,株式会社,茨城県,古河市,東牛谷２１５番地３,,08,204,3060232,,,,,,,2023-04-27,1,,,,,アリズトレーディング,0
1033,5050003007454,新規,0,2023-04-27,2023-04-27,合同会社ＡＵＴＯ　ＴＥＣＨ,,合同会社,茨城県,筑西市,布川７５０番地１１,,08,227,3080846,,,,,,,2023-04-27,1,,,,,オートテック,0
1047,5120001254479,新規,0,2023-04-27,2023-04-27,株式会社ＮＣサポート,,株式会社,大阪府,大阪市平野区,加美西１丁目１５番２号ホリデイコート加美２０１号室,,27,126,5470005,,,,,,,2023-04-27,1,,,,,エヌシーサポート,0
1062,5130003008683,新規,0,2023-04-27,2023-04-27,Ｋ２ｔｅｃｎｉｃａ合同会社,,合同会社,京都府,京都市左京区,松ケ崎堀町３７,,26,103,6060945,,,,,,,2023-04-27,1,,,,,ケーツーテクニカ,0
1065,5140001129968,新規,0,2023-04-27,2023-04-27,株式会社Ｌａｍｐ,,株式会社,兵庫県,西宮市,柏堂町１０番１１－１号,,28,204,6620097,,,,,,,2023-04-27,1,,,,,ランプ,0
1066,5140001129984,新規,0,2023-04-27,2023-04-27,株式会社ＡＤＬＡＢＯ　Ｒｅｆｏｒｍ　ｅｉｇｈｔ,,株式会社,兵庫県,神戸市中央区,磯辺通１丁目１番２０号ＫＯＷＡビル３Ｆ,,28,110,6510084,,,,,,,2023-04-27,1,,,,,アドラボリフォームエイト,0
1082,5180001156026,新規,0,2023-04-27,2023-04-27,株式会社Ｅｆｆｏｒｔ,,株式会社,愛知県,愛西市,佐屋町道西１９８番地,,23,232,4960901,,,,,,,2023-04-27,1,,,,,エフォート,0
1099,5260005011219,新規,0,2023-04-27,2023-04-27,一般社団法人岡山クラウドファンディング協会,,その他の設立登記法人,岡山県,岡山市東区,西大寺川口５３－１２,,33,103,7048125,,,,,,,2023-04-27,1,,,,,オカヤマクラウドファンディングキョウカイ,0
1104,5290001101334,新規,0,2023-04-27,2023-04-27,ハウジング悠株式会社,,株式会社,福岡県,福岡市中央区,天神２丁目２番１２号Ｔ＆Ｊビルディング７階,,40,133,8100001,,,,,,,2023-04-27,1,,,,,ハウジングユウ,0
1105,5290001101342,新規,0,2023-04-27,2023-04-27,株式会社ＴＲＵＳＴ　ＷＩＤＥ,,株式会社,福岡県,福津市,本木１２１０番地の１１,,40,224,8113203,,,,,,,2023-04-27,1,,,,,トラストワイド,0
1117,5350003004347,新規,0,2023-04-27,2023-04-27,合同会社Ｇａｋｕ,,合同会社,宮崎県,都城市,太郎坊町１４７８番地１,,45,202,8850002,,,,,,,2023-04-27,1,,,,,ガク,0
1123,5360003012919,新規,0,2023-04-27,2023-04-27,クバノハ合同会社,,合同会社,沖縄県,南城市,玉城字垣花１２４番地,,47,215,9010601,,,,,,,2023-04-27,1,,,,,クバノハ,0
1128,5380001033642,新規,0,2023-04-27,2023-04-27,株式会社Ｔ・Ｋワークス,,株式会社,福島県,福島市,南矢野目字高畑２０番地の３ル・プランＫ弐番館３０５,,07,201,9600112,,,,,,,2023-04-27,1,,,,,ティーケイワークス,0
1139,5430001088961,新規,0,2023-04-27,2023-04-27,株式会社啓北自動車工業,,株式会社,北海道,札幌市東区,北二十条東６丁目２－３２,,01,103,0650020,,,,,,,2023-04-27,1,,,,,ケイホクジドウシャコウギョウ,0
1147,5430003014973,新規,0,2023-04-27,2023-04-27,正心工軌合同会社,,合同会社,北海道,札幌市中央区,南十五条西９丁目２番４７号リベルテ南１５条１０２号室,,01,101,0640915,,,,,,,2023-04-27,1,,,,,セイシンコウキ,0
1148,5430003014981,新規,0,2023-04-27,2023-04-27,合同会社蘭建築工房,,合同会社,北海道,登別市,柏木町５丁目１９番地２,,01,230,0590017,,,,,,,2023-04-27,1,,,,,ランケンチクコウボウ,0
1152,5490003001768,新規,0,2023-04-27,2023-04-27,合同会社筒井オフィス,,合同会社,高知県,四万十市,平野４１９６番地２,,39,210,7870154,,,,,,,2023-04-27,1,,,,,ツツイオフィス,0
1153,5700150115794,新規,0,2023-04-27,2023-04-27,Ｓｈｅｎｚｈｅｎ　Ｊｉａｎｇｘｉｎｈｕｉ　Ｔｅｃｈｎｏｌｏｇｙ　ＣＯ．，Ｌｔｄ,,外国会社等,,,,,,,,Ａ１－２４，Ｘｉｎｎｉｕ　Ｃｏｍｍｕｎｉｔｙ，Ｘｉｎｎｉｕ　Ｃｏｍｍｕｎｉｔｙ　Ｍｉｎｚｈｉ　Ｓｔｒｅｅｔ，Ｌｏｎｇｈｕａ　Ｄｉｓｔｒｉｃｔ　Ｓｈｅｎｚｈｅｎ　Ｇｕａｎｇｄｏｎｇ　５１８０００　ＣＮ,,,,,,2023-04-27,1,,,,,シンセンシゾウシンハイカギユウゲンコウシ,0
1154,5700150115803,新規,0,2023-04-27,2023-04-27,ＧｕａｎｇＺｈｏｕＳｈｉＭｅｉＺｈｏｎｇＸｉｎＸｉＫｅＪｉＹｏｕＸｉａｎＧｏｎｇＳｉ,,外国会社等,,,,,,,,ＬｉＷａｎＱｕＸｉＺｅｎｇＬｕ６３ＨａｏＺｉＢｉａｎＣ１０ＴａｉＲｏｎｇＳｈａｎｇＷｕＺｈｏｎｇＸｉｎ２０６－２Ｓｈｉ，ＧｕａｎｇＤｏｎｇ，ＧｕａｎｇＺｈｏｕ，ＣＮ－５１０１６０,,,,,,2023-04-27,1,,,,,コウシユウジミチユウインフオメーシヨンテクノロジーユウゲンコウシ,0
1155,5700150115811,新規,0,2023-04-27,2023-04-27,Ｘｉａｍｅｎ　Ｒｕｉｓｉｙｕａｎ　Ｔｒａｄｅ　Ｃｏ．，Ｌｔｄ,,外国会社等,,,,,,,,Ｘｉａｎｇｙｕｎ　Ｒｏａｄ，Ｘｉａｍｅｎｇｕｏｊｉｈａｎｇｙｕｎ　Ｃｅｎｔｅｒ，Ｂｕｉｌｄｉｎｇ０，Ｘｉａｍｅｎ　Ｃｉｔｙ，Ｆｕｊｉａｎ　Ｐｒｏｖｉｎｃｅ，３５１１００　ＣＮ,,,,,,2023-04-27,1,,,,,カモンスイシゲンユウゲンコウシ,0
1156,5700150115844,新規,0,2023-04-27,2023-04-27,熊本市西南土地改良区,,その他,熊本県,熊本市南区,会富町１３３３－１,,43,104,8614121,,,,,,,2023-04-27,1,,,,,クマモトシセイナントチカイリヨウク,0
1157,5700150115852,新規,0,2023-04-27,2023-04-27,ｓｈｅｎｚｈｅｎｓｈｉ　ｙｏｕｙｉｂａｎｓｈｉｙｅ　ｙｏｕｘｉａｎｇｏｎｇｓｉ,,外国会社等,,,,,,,,６３６，Ｂｕｉｌｄｉｎｇ　５２３，Ｂａｇｕａｌｉｎｇ　Ｉｎｄｕｓｔｒｉａｌ　Ｚｏｎｅ　Ｂａｇｕａ　Ｓｅｃｏｎｄ　Ｒｏａｄ，Ｙｕａｎｌｉｎｇ　Ｓｔｒｅｅｔ，Ｆｕｔｉａｎ　Ｄｉｓｔｒｉｃｔ　ＳＨＥＮＺＨＥＮ　ＧＵＡＮＧＤＯＮＧ　５１８０２８ＣＮ,,,,,,2023-04-27,1,,,,,シンセンシユウイバンスイェヨウシェンゴンスー,0
1158,5700150115860,新規,0,2023-04-27,2023-04-27,ｓｈｅｎｚｈｅｎｓｈｉｘｉｎｒｕｉｘｕａｎｋｕａｊｉｎｇｓｈａｎｇｍａｏｙｏｕｘｉａｎｇｏｎｇｓｉ,,外国会社等,,,,,,,,ｌｏｎｇｈｕａｑｕ　ｄａｌａｎｇｊｉｅｄａｏ　ｇａｏｆｅｎｇｓｈｅｑｕ　ｃｈｉｌｉｎｇｈｕａｙｕａｎ２ｄｏｎｇ１３０１　ｓｈｅｎｚｈｅｎｓｈｉ　ｇｕａｎｇｄｏｎｇｓｈｅｎｇ　５１８１１０　ＣＮ,,,,,,2023-04-27,1,,,,,シェンジェンシーシンルイシュエンクワージンシャンマオヨウシエンゴンスー,0
1168,6010001234862,新規,0,2023-04-27,2023-04-27,株式会社ＣＨＣＰ‐ＣＳ,,株式会社,東京都,千代田区,丸の内１丁目８番１号,,13,101,1000005,,,,,,,2023-04-27,1,,,,,シーエイチシーピーシーエス,0
1176,6010401173958,新規,0,2023-04-27,2023-04-27,株式会社テンライノーズ,,株式会社,東京都,港区,浜松町２丁目２番１５号浜松町ダイヤビル２Ｆ,,13,103,1050013,,,,,,,2023-04-27,1,,,,,テンライノーズ,0
1177,6010401173990,新規,0,2023-04-27,2023-04-27,株式会社ＲＥＡＬｉｚｅ,,株式会社,東京都,港区,赤坂２丁目６－１５,,13,103,1070052,,,,,,,2023-04-27,1,,,,,リアライズ,0
1180,6010403030001,新規,0,2023-04-27,2023-04-27,合同会社カミキカイ,,合同会社,東京都,港区,浜松町２丁目２番１５号浜松町ダイヤビル２Ｆ,,13,103,1050013,,,,,,,2023-04-27,1,,,,,カミキカイ,0
1190,6010901052950,新規,0,2023-04-27,2023-04-27,株式会社グループヴィズ,,株式会社,東京都,世田谷区,野沢２丁目１７番７号,,13,112,1540003,,,,,,,2023-04-27,1,,,,,グループヴィズ,0
1196,6011001154051,新規,0,2023-04-27,2023-04-27,ダイタン商事株式会社,,株式会社,東京都,渋谷区,代々木１丁目３６番１号オダカビル３階,,13,113,1510053,,,,,,,2023-04-27,1,,,,,ダイタンショウジ,0
1197,6011001154084,新規,0,2023-04-27,2023-04-27,株式会社フローコーチング,,株式会社,東京都,渋谷区,神宮前６丁目２３番４号桑野ビル２階,,13,113,1500001,,,,,,,2023-04-27,1,,,,,フローコーチング,0
1198,6011005010044,新規,0,2023-04-27,2023-04-27,一般財団法人杏の杜財団,,その他の設立登記法人,東京都,渋谷区,千駄ヶ谷４丁目２０番１号神宮北参道プレックス７階,,13,113,1510051,,,,,,,2023-04-27,1,,,,,アンズノモリザイダン,0
1203,6011103012990,新規,0,2023-04-27,2023-04-27,合同会社ウェルカバリー,,合同会社,東京都,新宿区,西新宿３丁目３番１３号西新宿水間ビル２Ｆ,,13,104,1600023,,,,,,,2023-04-27,1,,,,,ウェルカバリー,0
1206,6011201024590,新規,0,2023-04-27,2023-04-27,株式会社ＲＦＣ,,株式会社,東京都,中野区,東中野１丁目５８番８号パークハビオ東中野３０８,,13,114,1640003,,,,,,,2023-04-27,1,,,,,アールエフシー,0
1207,6011201024608,新規,0,2023-04-27,2023-04-27,株式会社Ｇｒｅｅｎ　Ｐｏｉｎｔ　Ｈｏｕｓｅ,,株式会社,東京都,中野区,東中野５丁目７－７－３０９,,13,114,1640003,,,,,,,2023-04-27,1,,,,,グリーンポイントハウス,0
1217,6011303004739,新規,0,2023-04-27,2023-04-27,ＯｒａｎｇｅＡｒｒｏｗ合同会社,,合同会社,東京都,杉並区,西荻北３丁目９番１号オープンレジデンシア西荻窪３０８,,13,115,1670042,,,,,,,2023-04-27,1,,,,,オレンジアロー,0
1218,6011501029208,新規,0,2023-04-27,2023-04-27,株式会社ｋａａ,,株式会社,東京都,北区,王子本町１丁目１８－９根岸ビル３０１,,13,117,1140022,,,,,,,2023-04-27,1,,,,,ケーエーエー,0
1220,6011601026773,新規,0,2023-04-27,2023-04-27,株式会社エービープラス,,株式会社,東京都,練馬区,大泉町６丁目２９番１６－６０１号,,13,120,1780062,,,,,,,2023-04-27,1,,,,,エービープラス,0
1222,6011801042307,新規,0,2023-04-27,2023-04-27,株式会社エムシーエル,,株式会社,東京都,足立区,梅田８丁目１４番２－１３９号,,13,121,1230851,,,,,,,2023-04-27,1,,,,,エムシーエル,0
1223,6011801042315,新規,0,2023-04-27,2023-04-27,株式会社ユーアンド,,株式会社,東京都,葛飾区,西新小岩４丁目２１番２１－８１３号ライオンズガーデン新小岩,,13,122,1240025,,,,,,,2023-04-27,1,,,,,ユーアンド,0
1227,6013301050673,新規,0,2023-04-27,2023-04-27,株式会社ＡＢＳ,,株式会社,東京都,豊島区,南池袋２丁目２４番１号八大ビル２階,,13,116,1710022,,,,,,,2023-04-27,1,,,,,エービーエス,0
1240,6020001151330,新規,0,2023-04-27,2023-04-27,株式会社ＹＯＮＥＫＵＲＡ,,株式会社,神奈川県,横浜市鶴見区,獅子ケ谷２丁目３７番１８号ユナイト大倉山デヴィトリー１１８,,14,101,2300073,,,,,,,2023-04-27,1,,,,,ヨネクラ,0
1245,6021001078869,新規,0,2023-04-27,2023-04-27,株式会社ｆｉｔｌｙ,,株式会社,神奈川県,藤沢市,城南４丁目１０－２２クオス藤沢４０８,,14,205,2510057,,,,,,,2023-04-27,1,,,,,フィットリー,0
1246,6021001078877,新規,0,2023-04-27,2023-04-27,エニーズ株式会社,,株式会社,神奈川県,横須賀市,久里浜７丁目２番１－１３１４号,,14,201,2390831,,,,,,,2023-04-27,1,,,,,エニーズ,0
1255,6030001153607,新規,0,2023-04-27,2023-04-27,株式会社ムライ企画,,株式会社,埼玉県,川口市,幸町２丁目８番２４号,,11,203,3320016,,,,,,,2023-04-27,1,,,,,ムライキカク,0
1258,6030003021638,新規,0,2023-04-27,2023-04-27,合同会社ミニーク,,合同会社,埼玉県,戸田市,大字新曽２２２０番地の１－９０６号,,11,224,3350021,,,,,,,2023-04-27,1,,,,,ミニーク,0
1259,6030003021662,新規,0,2023-04-27,2023-04-27,合同会社アールアンドエル,,合同会社,埼玉県,川口市,大字赤山１４１６番地の６,,11,203,3330825,,,,,,,2023-04-27,1,,,,,アールアンドエル,0
1260,6040001128161,新規,0,2023-04-27,2023-04-27,株式会社小島組,,株式会社,千葉県,流山市,駒木５５４番地４,,12,220,2700132,,,,,,,2023-04-27,1,,,,,コジマグミ,0
1264,6040003022494,新規,0,2023-04-27,2023-04-27,Ｓ・Ｈゴールド電設合同会社,,合同会社,千葉県,東金市,道庭８６８－２,,12,213,2830003,,,,,,,2023-04-27,1,,,,,エスエイチゴールドデンセツ,0
1266,6040005021981,新規,0,2023-04-27,2023-04-27,一般社団法人千葉南部災害支援センター,,その他の設立登記法人,千葉県,鴨川市,金束５番地,,12,223,2960233,,,,,,,2023-04-27,1,,,,,チバナンブサイガイシエンセンター,0
1268,6050001052757,新規,0,2023-04-27,2023-04-27,株式会社翔栄建設,,株式会社,茨城県,常総市,水海道栄町１５９１番地４落合ビル２０１,,08,211,3030024,,,,,,,2023-04-27,1,,,,,ショウエイケンセツ,0
1270,6050003007453,新規,0,2023-04-27,2023-04-27,合同会社Ｈａｕｔｅ,,合同会社,茨城県,神栖市,萩原９－１,,08,232,3140122,,,,,,,2023-04-27,1,,,,,,0
1272,6060001035942,新規,0,2023-04-27,2023-04-27,株式会社ジョイネクト,,株式会社,栃木県,小山市,美しが丘２丁目１８番地８,,09,208,3290207,,,,,,,2023-04-27,1,,,,,ジョイネクト,0
1276,6070005010115,新規,0,2023-04-27,2023-04-27,特定非営利活動法人リリーフ・プラント,,その他の設立登記法人,群馬県,吾妻郡東吾妻町,大字植栗３４４番地３,,10,429,3770805,,,,,,,2023-04-27,1,,,,,リリーフプラント,0
1277,6080001025586,新規,0,2023-04-27,2023-04-27,株式会社ＣＲＥＡＭ,,株式会社,静岡県,静岡市葵区,安東１丁目８番７号,,22,101,4200882,,,,,,,2023-04-27,1,,,,,クリーム,0
1278,6080101023960,新規,0,2023-04-27,2023-04-27,株式会社温まる合間に,,株式会社,静岡県,熱海市,銀座町８－７,,22,205,4130013,,,,,,,2023-04-27,1,,,,,アタタマルアイマニ,0
1281,6080405007544,新規,0,2023-04-27,2023-04-27,一般社団法人子どもいじめ防止学会,,その他の設立登記法人,静岡県,浜松市中区,中央１丁目３番６－２０１号,,22,131,4300929,,,,,,,2023-04-27,1,,,,,コドモイジメボウシガッカイ,0
1282,6090005007563,新規,0,2023-04-27,2023-04-27,一般社団法人鈴木塾,,その他の設立登記法人,山梨県,甲斐市,龍地２５４番地６,,19,210,4000104,,,,,,,2023-04-27,1,,,,,スズキジュク,0
1287,6100005013007,新規,0,2023-04-27,2023-04-27,一般社団法人おんたき資源再生機構,,その他の設立登記法人,長野県,木曽郡王滝村,４１５１番地１,,20,429,3970201,,,,,,,2023-04-27,1,,,,,オンタキシゲンサイセイキコウ,0
1301,6120001254486,新規,0,2023-04-27,2023-04-27,株式会社グレージュ,,株式会社,大阪府,大阪市中央区,瓦屋町２丁目１８番７号コンフォートマンション７０３号室,,27,128,5420066,,,,,,,2023-04-27,1,,,,,グレージュ,0
1312,6120901047469,新規,0,2023-04-27,2023-04-27,株式会社ヌーテック,,株式会社,大阪府,茨木市,駅前１丁目８番２０号,,27,211,5670888,,,,,,,2023-04-27,1,,,,,ヌーテック,0
1313,6120903004609,新規,0,2023-04-27,2023-04-27,合同会社ＳＫ,,合同会社,大阪府,高槻市,松が丘２丁目１０番１２号,,27,207,5691031,,,,,,,2023-04-27,1,,,,,エスケイ,0
1316,6122001036914,新規,0,2023-04-27,2023-04-27,株式会社Ｌｉｎｅｕｓ,,株式会社,大阪府,八尾市,太田６丁目１６０番地,,27,212,5810037,,,,,,,2023-04-27,1,,,,,ライナス,0
1319,6122003002567,新規,0,2023-04-27,2023-04-27,合同会社Ｆｒｅｃｈｉ,,合同会社,大阪府,東大阪市,新町２１－３５,,27,227,5798037,,,,,,,2023-04-27,1,,,,,フレッチ,0
1334,6150003002948,新規,0,2023-04-27,2023-04-27,合同会社鷹の羽,,合同会社,奈良県,奈良市,五条西１丁目３６番９－２号,,29,201,6308034,,,,,,,2023-04-27,1,,,,,タカノハ,0
1336,6170003001865,新規,0,2023-04-27,2023-04-27,合同会社ライフサポート裕喜,,合同会社,和歌山県,岩出市,新田広芝２８－１１,,30,209,6496212,,,,,,,2023-04-27,1,,,,,ライフサポートユウキ,0
1341,6180001156025,新規,0,2023-04-27,2023-04-27,株式会社おのざわ,,株式会社,愛知県,名古屋市中川区,八熊１丁目５番２０号Ｓ－ＦＯＲＴ金山９０２号,,23,110,4540013,,,,,,,2023-04-27,1,,,,,オノザワ,0
1342,6180001156033,新規,0,2023-04-27,2023-04-27,株式会社アルファベット,,株式会社,愛知県,名古屋市中区,栄２丁目２番１号広小路伏見中駒ビル５Ｆ,,23,106,4600008,,,,,,,2023-04-27,1,,,,,アルファベット,0
1367,6260001037893,新規,0,2023-04-27,2023-04-27,株式会社Ｌｕｆｆ　Ｇｒｏｕｐ　Ｉｎｋ．,,株式会社,岡山県,岡山市北区,本町５－１３ｆｏｏｌｉｓｈビル４Ｆ,,33,101,7000901,,,,,,,2023-04-27,1,,,,,ラフグループインク,0
1373,6290001101242,新規,0,2023-04-27,2023-04-27,株式会社Ｐｌａｎ．Ｕ,,株式会社,福岡県,福岡市中央区,薬院４丁目１５番３１号,,40,133,8100022,,,,,,,2023-04-27,1,,,,,プランユー,0
1374,6290001101333,新規,0,2023-04-27,2023-04-27,株式会社トーラス,,株式会社,福岡県,久留米市,国分町１９５２－２サンコーポ国分１０３,,40,203,8390863,,,,,,,2023-04-27,1,,,,,トーラス,0
1375,6290001101341,新規,0,2023-04-27,2023-04-27,株式会社ＣＴＦ,,株式会社,福岡県,福岡市博多区,板付５丁目７－４１－３,,40,132,8120888,,,,,,,2023-04-27,1,,,,,シーティーエフ,0
1376,6290001101358,新規,0,2023-04-27,2023-04-27,萬成株式会社,,株式会社,福岡県,福岡市博多区,千代１丁目１２番２号,,40,132,8120044,,,,,,,2023-04-27,1,,,,,マンセイ,0
1377,6290003013832,新規,0,2023-04-27,2023-04-27,合同会社棚田屋．ｊｐ,,合同会社,福岡県,朝倉郡東峰村,大字小石原９７３－１,,40,448,8381601,,,,,,,2023-04-27,1,,,,,,0
1381,6300001013279,新規,0,2023-04-27,2023-04-27,株式会社ルラシオン,,株式会社,佐賀県,唐津市,鏡４６４７番地５村山ビル２Ｆ,,41,202,8470022,,,,,,,2023-04-27,1,,,,,ルラシオン,0
1385,6310005008679,新規,0,2023-04-27,2023-04-27,一般社団法人こころ教育相談所,,その他の設立登記法人,長崎県,諫早市,幸町２４番３３号山本ビル２階,,42,204,8540022,,,,,,,2023-04-27,1,,,,,ココロキョウイクソウダンジョ,0
1402,6380001033641,新規,0,2023-04-27,2023-04-27,株式会社ＵＰフィールド,,株式会社,福島県,郡山市,喜久田町字寺久保３４番地の２３,,07,203,9630551,,,,,,,2023-04-27,1,,,,,アップフィールド,0
1410,6430001088928,新規,0,2023-04-27,2023-04-27,株式会社ＣＲＥＶＯ,,株式会社,北海道,札幌市北区,屯田六条８丁目９番７－４０３号,,01,102,0020856,,,,,,,2023-04-27,1,,,,,クリエボ,0
1411,6430001088944,新規,0,2023-04-27,2023-04-27,株式会社ＫＳＲ,,株式会社,北海道,札幌市中央区,南四条西３丁目３－１第二グリーンビル５Ｆ,,01,101,0640804,,,,,,,2023-04-27,1,,,,,ケーエスアール,0
1412,6430001088960,新規,0,2023-04-27,2023-04-27,株式会社侑ハピネス,,株式会社,北海道,小樽市,末広町２２番９号,,01,203,0470042,,,,,,,2023-04-27,1,,,,,ユウハピネス,0
1415,6430003014980,新規,0,2023-04-27,2023-04-27,合同会社Ｋ．トランスポート,,合同会社,北海道,札幌市豊平区,平岸四条１４丁目５番２－１０４号,,01,105,0620934,,,,,,,2023-04-27,1,,,,,ケイトランスポート,0
1418,6700150115793,新規,0,2023-04-27,2023-04-27,ｓｈｅｎｚｈｅｎｓｈｉ　ｇｕａｎｇｙｕｌｏｎｇ　ｍａｏｙｉ　ｙｏｕｘｉａｎｇｏｎｇｓｉ,,外国会社等,,,,,,,,５０２，Ｎｏ．３，Ｗｅｓｔ　１３ｔｈ　Ｌａｎｅ，Ｘｉａｓｈｕｉｊｉｎｇ　Ｎｅｗ　Ｖｉｌｌａｇｅ，Ｃｕｉｈｕ　Ｃｏｍｍｕｎｉｔｙ，Ｊｉｈｕａ　Ｓｔｒｅｅｔ，Ｌｏｎｇｇａｎｇ　Ｄｉｓｔｒｉｃｔ，Ｓｈｅｎｚｈｅｎ,,,,,,2023-04-27,1,,,,,シンセンシコウウボウエキユウゲンコウシ,0
1419,6700150115802,新規,0,2023-04-27,2023-04-27,Ｇｕａｎｇｚｈｏｕ　Ｃｉｔｙ　ｑｉａｎｌｕｏ　Ｔｒａｄｉｎｇ　Ｃｏ．，ＬＴＤ,,外国会社等,,,,,,,,Ｒｏｏｍ　２４０１，Ｎｏ．３８６　Ｅａｓｔ　Ｈａｎｘｉ　Ａｖｅｎｕｅ　Ｇｕａｎｇｚｈｏｕ　Ｇｕａｎｇｄｏｎｇ,,,,,,2023-04-27,1,,,,,コウシユウシセンラクボウエキカンパニーリミテツト,0
1420,6700150115810,新規,0,2023-04-27,2023-04-27,ｇｕａｎｇｚｈｏｕｈａｎｓｏｎｇｄｉａｎｚｉｋｅｊｉｙｏｕｘｉａｎｇｏｎｇｓｉ,,外国会社等,,,,,,,,ｇｕａｎｇｚｈｏｕｓｈｉｈｕａｄｕｑｕｔａｎｂｕｚｈｅｎｘｉａｏｔａｎｇｌｕ１ｈａｏ,,,,,,2023-04-27,1,,,,,コウシユウカンソウデンシカギユウゲンコウシ,0
1421,6700150115851,新規,0,2023-04-27,2023-04-27,ｗｕｈａｎｓｈｉ　ｍｅｎｇｍｅｎｇｆａｎｇｆａｎｇｓｈａｎｇｍａｏ　ｙｏｕｘｉａｎｇｏｎｇｓｉ,,外国会社等,,,,,,,,ｗｕｈａｎｄｏｎｇｈｕｘｉｎｊｉｓｈｕｋａｉｆａｑｕ　ｇｕａｎｇｇｕｄａｄａｏ１２０ｈａｏ　ｘｉａｎｄａｉｓｅｎｌｉｎｘｉａｏｚｈｅｎ３ｄｏｎｇ３ｄａｎｙｕａｎ３ｃｅｎｇ０１ｓｈｉｗｕｈａｎｓｈｉ　ｈｕｂｅｉｓｈｅｎｇ　４３００００ＣＮ,,,,,,2023-04-27,1,,,,,ウーハンシメンメンファンファンシャンマオウヨウシェンゴンスー,0
1428,7010001234812,新規,0,2023-04-27,2023-04-27,株式会社ウェブワン,,株式会社,東京都,中央区,銀座１丁目２２番１１号銀座大竹ビジデンス２Ｆ,,13,102,1040061,,,,,,,2023-04-27,1,,,,,ウェブワン,0
1429,7010001234829,新規,0,2023-04-27,2023-04-27,株式会社ＳＹＭＭＥＴＲＹ,,株式会社,東京都,千代田区,神田猿楽町１丁目５番１８号,,13,101,1010064,,,,,,,2023-04-27,1,,,,,シンメトリー,0
1436,7010101015609,新規,0,2023-04-27,2023-04-27,星野商事株式会社,,株式会社,東京都,八王子市,美山町１２１２番地１５,,13,201,1920152,,,,,,,2023-04-27,1,,,,,ホシノショウジ,0
1441,7010401173957,新規,0,2023-04-27,2023-04-27,リクルーター株式会社,,株式会社,東京都,港区,赤坂３丁目１番１６号,,13,103,1070052,,,,,,,2023-04-27,1,,,,,リクルーター,0
1456,7010901052941,新規,0,2023-04-27,2023-04-27,ＲＥｆａｒｍ株式会社,,株式会社,東京都,世田谷区,粕谷３丁目９番２５号,,13,112,1570063,,,,,,,2023-04-27,1,,,,,リファーム,0
1463,7011001154075,新規,0,2023-04-27,2023-04-27,株式会社アプリ調味,,株式会社,東京都,渋谷区,桜丘町１８－４二宮ビル１Ｆ－２５,,13,113,1500031,,,,,,,2023-04-27,1,,,,,アプリチョウミ,0
1464,7011001154109,新規,0,2023-04-27,2023-04-27,ブルームパートナーズ株式会社,,株式会社,東京都,渋谷区,道玄坂１丁目１６－６二葉ビル８ｂ,,13,113,1500043,,,,,,,2023-04-27,1,,,,,ブルームパートナーズ,0
1465,7011003016736,新規,0,2023-04-27,2023-04-27,合同会社ｙａｃｈｔ,,合同会社,東京都,渋谷区,本町６丁目３８番１０号,,13,113,1510071,,,,,,,2023-04-27,1,,,,,ヨット,0
1467,7011301028664,新規,0,2023-04-27,2023-04-27,株式会社Ｇｒｉｄｇｅ,,株式会社,東京都,杉並区,成田東５丁目５番４号ノヴェルズ６１－２０１号,,13,115,1660015,,,,,,,2023-04-27,1,,,,,グリッジ,0
1468,7011303004738,新規,0,2023-04-27,2023-04-27,合同会社Ｃｏｒｅ　ｅｎｔｅｒｔａｉｎｍｅｎｔ,,合同会社,東京都,杉並区,上高井戸１丁目６番２０号Ｆｅｌｉｚｔｒｅｓ,,13,115,1680074,,,,,,,2023-04-27,1,,,,,,0
1476,7011603003910,新規,0,2023-04-27,2023-04-27,合同会社Ｈａｐｐｉｎｅｓｓ,,合同会社,東京都,練馬区,豊玉南１丁目９－１６ドルチェ・シーダ２０３,,13,120,1760014,,,,,,,2023-04-27,1,,,,,ハピネス,0
1477,7011605002514,新規,0,2023-04-27,2023-04-27,一般社団法人地域の文化スポーツを応援する会,,その他の設立登記法人,東京都,練馬区,平和台１丁目６番１６号,,13,120,1790083,,,,,,,2023-04-27,1,,,,,チイキノブンカスポーツヲオウエンスルカイ,0
1480,7011703003455,新規,0,2023-04-27,2023-04-27,合同会社かぶき屋,,合同会社,東京都,江戸川区,鹿骨５丁目２６番８号,,13,123,1330073,,,,,,,2023-04-27,1,,,,,カブキヤ,0
1481,7011801042306,新規,0,2023-04-27,2023-04-27,株式会社アイアールイー,,株式会社,東京都,足立区,梅田８丁目１４番２－５１７号,,13,121,1230851,,,,,,,2023-04-27,1,,,,,アイアールイー,0
1482,7011801042314,新規,0,2023-04-27,2023-04-27,株式会社Ｏｍｃ,,株式会社,東京都,葛飾区,亀有５丁目３４番１１号ハンドレッドビル１階,,13,122,1250061,,,,,,,2023-04-27,1,,,,,オーエムシー,0
1485,7012703002694,新規,0,2023-04-27,2023-04-27,合同会社タマリバ,,合同会社,東京都,東村山市,栄町２丁目１－１１サンライズマンション東村山１階１０６号室,,13,213,1890013,,,,,,,2023-04-27,1,,,,,タマリバ,0
1489,7012801022314,新規,0,2023-04-27,2023-04-27,株式会社ＭＭＣ,,株式会社,東京都,立川市,富士見町１丁目２番７号,,13,202,1900013,,,,,,,2023-04-27,1,,,,,エムエムシー,0
1494,7013301050672,新規,0,2023-04-27,2023-04-27,株式会社テクノフリーダム,,株式会社,東京都,豊島区,南池袋３丁目１３番５号,,13,116,1710022,,,,,,,2023-04-27,1,,,,,テクノフリーダム,0
1501,7020001151338,新規,0,2023-04-27,2023-04-27,株式会社Ｋ’ｓコーポレーション,,株式会社,神奈川県,川崎市中原区,小杉町３丁目４３０番地１,,14,133,2110063,,,,,,,2023-04-27,1,,,,,ケイズコーポレーション,0
1504,7020003023824,新規,0,2023-04-27,2023-04-27,合同会社ネクスト,,合同会社,神奈川県,川崎市川崎区,南町１５番地８,,14,131,2100015,,,,,,,2023-04-27,1,,,,,ネクスト,0
1510,7021001078868,新規,0,2023-04-27,2023-04-27,株式会社Ｃｏｎｃｏｒｄ,,株式会社,神奈川県,藤沢市,辻堂元町２丁目７番２３号,,14,205,2510043,,,,,,,2023-04-27,1,,,,,コンコード,0
1511,7021001078876,新規,0,2023-04-27,2023-04-27,株式会社波及,,株式会社,神奈川県,茅ヶ崎市,白浜町１番７－８号,,14,207,2530036,,,,,,,2023-04-27,1,,,,,ハキュウ,0
1522,7030001153548,新規,0,2023-04-27,2023-04-27,株式会社ＫＡＴＯ,,株式会社,埼玉県,熊谷市,中央４丁目１番１１号グランドプレステージ熊谷５０３室,,11,202,3600018,,,,,,,2023-04-27,1,,,,,カトー,0
1523,7030001153622,新規,0,2023-04-27,2023-04-27,株式会社グリーンコーナー,,株式会社,埼玉県,川越市,大字古谷上６０８３番地８,,11,201,3500001,,,,,,,2023-04-27,1,,,,,グリーンコーナー,0
1532,7050001052723,新規,0,2023-04-27,2023-04-27,株式会社Ｏｋｅｙ　Ｉｎｔｅｒｎａｔｉｏｎａｌ,,株式会社,茨城県,水戸市,見川５丁目２番地の２６シャルムＢ棟１０１号,,08,201,3100912,,,,,,,2023-04-27,1,,,,,オッケーインターナショナル,0
1533,7050001052748,新規,0,2023-04-27,2023-04-27,Ｉ‐Ｎ‐Ｄ株式会社,,株式会社,茨城県,常陸太田市,大里町１４２５番地の１０メゾネット大里２０２,,08,212,3130125,,,,,,,2023-04-27,1,,,,,アイエヌディー,0
1534,7050001052756,新規,0,2023-04-27,2023-04-27,Ｆｕｊｉ　Ｇｌｏｒｙ株式会社,,株式会社,茨城県,潮来市,日の出２丁目２８番地１,,08,223,3112423,,,,,,,2023-04-27,1,,,,,フジグローリー,0
1535,7060001035941,新規,0,2023-04-27,2023-04-27,株式会社沼尾測量,,株式会社,栃木県,日光市,倉ケ崎７番地,,09,206,3212412,,,,,,,2023-04-27,1,,,,,ヌマオソクリョウ,0
1537,7080105006333,新規,0,2023-04-27,2023-04-27,社会福祉法人翼会,,その他の設立登記法人,静岡県,裾野市,石脇５５番地の１,,22,220,4101117,,,,,,,2023-04-27,1,,,,,ツバサカイ,0
1543,7110001037486,新規,0,2023-04-27,2023-04-27,株式会社ｔａｋｅｚｏｕ,,株式会社,新潟県,村上市,小町１番８号,,15,212,9580841,,,,,,,2023-04-27,1,,,,,タケゾウ,0
1555,7120001254485,新規,0,2023-04-27,2023-04-27,啓源株式会社,,株式会社,大阪府,大阪市生野区,新今里６丁目１４番１０号,,27,116,5440001,,,,,,,2023-04-27,1,,,,,ケイゲン,0
1558,7120003023946,新規,0,2023-04-27,2023-04-27,合同会社ハイポ,,合同会社,大阪府,大阪市北区,国分寺２丁目２番３２号,,27,127,5310064,,,,,,,2023-04-27,1,,,,,ハイポ,0
1559,7120005023589,新規,0,2023-04-27,2023-04-27,一般社団法人共鳴会,,その他の設立登記法人,大阪府,大阪市淀川区,西中島６丁目１番３号,,27,123,5320011,,,,,,,2023-04-27,1,,,,,キョウメイカイ,0
1566,7140001129966,新規,0,2023-04-27,2023-04-27,株式会社Ｐｏｒｔ　Ｖｉｓｔａ,,株式会社,兵庫県,明石市,大久保町ゆりのき通２丁目５０番地の６Ｂ棟１４０８号,,28,203,6740068,,,,,,,2023-04-27,1,,,,,ポートビスタ,0
1567,7140001129974,新規,0,2023-04-27,2023-04-27,スポーツＡＣＥ株式会社,,株式会社,兵庫県,姫路市,北八代１丁目７番２号,,28,201,6700877,,,,,,,2023-04-27,1,,,,,スポーツエース,0
1569,7140003019026,新規,0,2023-04-27,2023-04-27,地域事業合同会社,,合同会社,兵庫県,宍粟市,山崎町鹿沢１３３－８,,28,227,6712576,,,,,,,2023-04-27,1,,,,,チイキジギョウ,0
1572,7150001026353,新規,0,2023-04-27,2023-04-27,サクラ重機株式会社,,株式会社,奈良県,吉野郡大淀町,大字土田５０７番地の７０５,,29,442,6380811,,,,,,,2023-04-27,1,,,,,サクラジュウキ,0
1576,7150003002947,新規,0,2023-04-27,2023-04-27,合同会社ｔｏｕｓｋｅｔ,,合同会社,奈良県,奈良市,敷島町２丁目５５３番地の２３,,29,201,6310031,,,,,,,2023-04-27,1,,,,,トースケット,0
1580,7160003002863,新規,0,2023-04-27,2023-04-27,合同会社Ｎコーポレーション,,合同会社,滋賀県,栗東市,十里４１７番地１０,,25,208,5203036,,,,,,,2023-04-27,1,,,,,エヌコーポレーション,0
1585,7180001155959,新規,0,2023-04-27,2023-04-27,株式会社奥業務店,,株式会社,愛知県,一宮市,花池２丁目２４番７号コーポたまき１－Ｄ,,23,203,4910914,,,,,,,2023-04-27,1,,,,,オクギョウムテン,0
1586,7180001156024,新規,0,2023-04-27,2023-04-27,Ｈ．ＯｗｅＮ株式会社,,株式会社,愛知県,東海市,中央町５丁目２１番地ＨＡＩＳＡＩビル２階,,23,222,4760013,,,,,,,2023-04-27,1,,,,,エイチドットオーウェン,0
1587,7180001156032,新規,0,2023-04-27,2023-04-27,株式会社ＥＬＭ,,株式会社,愛知県,小牧市,大字小松寺１１１８番地３３０,,23,219,4850828,,,,,,,2023-04-27,1,,,,,エルム,0
1592,7180003025160,新規,0,2023-04-27,2023-04-27,合同会社Ｓｍｉｌｅｅｄ,,合同会社,愛知県,名古屋市千種区,今池１丁目６－４シンエーハイツ千種５０９,,23,101,4640850,,,,,,,2023-04-27,1,,,,,スマイリード,0
1599,7210001019292,新規,0,2023-04-27,2023-04-27,ｔｒａｎｚｅａＫ株式会社,,株式会社,福井県,福井市,みのり４丁目６番２９号,,18,201,9188005,,,,,,,2023-04-27,1,,,,,トランジーク,0
1600,7220005008753,新規,0,2023-04-27,2023-04-27,医療法人社団匠歯科医院,,その他の設立登記法人,石川県,金沢市,米泉町１０丁目１番地７８,,17,201,9218044,,,,,,,2023-04-27,1,,,,,タクミシカイイン,0
1601,7230001019811,新規,0,2023-04-27,2023-04-27,株式会社花の森,,株式会社,富山県,高岡市,戸出町７丁目２番地３３,,16,202,9391104,,,,,,,2023-04-27,1,,,,,ハナノモリ,0
1614,7290001101332,新規,0,2023-04-27,2023-04-27,株式会社リブラ,,株式会社,福岡県,久留米市,諏訪野町２５４４－１,,40,203,8300037,,,,,,,2023-04-27,1,,,,,リブラ,0
1615,7290001101349,新規,0,2023-04-27,2023-04-27,ＢＯＦ株式会社,,株式会社,福岡県,福岡市西区,下山門３丁目９番２－４０５号,,40,135,8190052,,,,,,,2023-04-27,1,,,,,ビーオーエフ,0
1616,7290003013848,新規,0,2023-04-27,2023-04-27,合同会社ＭｉｉＢｏｔｓ,,合同会社,福岡県,福岡市博多区,博多駅前１丁目２３番１号ＰａｒｋＦｒｏｎｔ博多駅前１丁目５Ｆ－Ｂ,,40,132,8120011,,,,,,,2023-04-27,1,,,,,,0
1617,7290005019026,新規,0,2023-04-27,2023-04-27,医療法人たかこ皮膚科クリニック,,その他の設立登記法人,福岡県,福岡市西区,周船寺１丁目５番２５号サンリット周船寺ビル４階,,40,135,8190373,,,,,,,2023-04-27,1,,,,,タカコヒフカクリニック,0
1619,7300001013278,新規,0,2023-04-27,2023-04-27,株式会社ＪＩＣＵ,,株式会社,佐賀県,鳥栖市,宿町１４１１－５,,41,203,8410052,,,,,,,2023-04-27,1,,,,,ジク,0
1626,7350001018297,新規,0,2023-04-27,2023-04-27,株式会社ＮＯＵＧＹＯ,,株式会社,宮崎県,都城市,梅北町６９０２番地６,,45,202,8850063,,,,,,,2023-04-27,1,,,,,ノウギョウ,0
1633,7370001049885,新規,0,2023-04-27,2023-04-27,株式会社Ｆｉｒｓｔ　ｂｕｉｌｄ,,株式会社,宮城県,仙台市宮城野区,白鳥２丁目５番６号,,04,102,9830006,,,,,,,2023-04-27,1,,,,,ファーストビルド,0
1636,7380001033640,新規,0,2023-04-27,2023-04-27,株式会社ＭＢｍａｎａｇｅｍｅｎｔ,,株式会社,福島県,いわき市,小島町２丁目１５番地の１－３０３,,07,204,9738411,,,,,,,2023-04-27,1,,,,,エムビーマネジメント,0
1646,7430001088968,新規,0,2023-04-27,2023-04-27,株式会社マツ,,株式会社,北海道,札幌市清田区,清田三条１丁目２番５号コーポアフロス１階,,01,110,0040843,,,,,,,2023-04-27,1,,,,,マツ,0
1654,7470001019589,新規,0,2023-04-27,2023-04-27,株式会社ＴＳＵＧＵ,,株式会社,香川県,高松市,林町２５４８番地１,,37,201,7610301,,,,,,,2023-04-27,1,,,,,ツグ,0
1657,7700150115792,新規,0,2023-04-27,2023-04-27,Ｇｕａｎｇｚｈｏｕ　Ｙｉｈａｉ　Ｅ－ｃｏｍｍｅｒｃｅ　Ｃｏ．，Ｌｔｄ,,外国会社等,,,,,,,,Ｇｕａｎｇｚｈｏｕ　Ｓｈｉ，Ｔｉａｎｈｅ　ＱｕＨｕａｃｈｅｎｇ　Ｄａｄａｏ　１８　Ｈａｏ，２１０１　Ｆａｎｇ，Ｇｕａｎｇｚｈｏｕ　Ｇｕａｎｇｄｏｎｇ,,,,,,2023-04-27,1,,,,,コウシユウイーカイイーコマースカンパニーリミテド,0
1658,7700150115801,新規,0,2023-04-27,2023-04-27,ＧｕａｎｇＺｈｏｕＭｅｎｇＢｉａｎＸｉｎＸｉＫｅＪｉＹｏｕＸｉａｎＧｏｎｇＳｉ,,外国会社等,,,,,,,,Ｃ１０ＨａｏＬｏｕＴａｉＲｏｎｇＳｈａｎｇＷｕＺｈｏｎｇＸｉｎ３２９　ＸｉＺｅｎｇＬｕ６３ＨａｏＺｉＢｉａｎＨａｏ　ＧｕａｎｇＺｈｏｕＳｈｉＬｉＷａｎＱｕ,,,,,,2023-04-27,1,,,,,コウシユウモンヘンインフオメーシヨンテクノロジーユウゲンコウシ,0
1659,7700150115850,新規,0,2023-04-27,2023-04-27,ｚｉｂｏ　ｄｉａｏｊｉａｆａｎｇｚｈｉ　ｙｏｕｘｉａｎｇｏｎｇｓｉ,,外国会社等,,,,,,,,Ｎｏ．２８，Ｙｕｎｎａｎ　Ｖｉｌｌａｇｅ，Ｎｏｒｔ　ｚｉｂｏｓｈｉｚｈｏｕｃｕｎｑｕ　ｓｈａｎｄｏｎｇｓｈｅｎｇ　２５５３００ＣＮ,,,,,,2023-04-27,1,,,,,ズボディオジャファンズヨウシェンゴンスー,0
1660,7700150115859,新規,0,2023-04-27,2023-04-27,ＩＮＳＰＥＣＴ　ＶＩＥＴＮＡＭサービス　有限責任会社,,外国会社等,大阪府,大阪市中央区,上本町西５丁目２－２９,,27,128,5420062,ベトナム社会主義共和国ホーチミン市ホックモン地区テウイタンテォン町ドン村１５０Ｂトキ通,,,,,,2023-04-27,1,,,,,インスペツクベトナムサービスユウゲンセキニンガイシヤ,0
1668,8010001234745,新規,0,2023-04-27,2023-04-27,株式会社Ｋｕｕ　Ｎｅｒｕ　Ａｓｏｂｕ,,株式会社,東京都,中央区,銀座１丁目２２番１１号銀座大竹ビジデンス２Ｆ,,13,102,1040061,,,,,,,2023-04-27,1,,,,,クウネルアソブ,0
1670,8010101015608,新規,0,2023-04-27,2023-04-27,株式会社ＨｕｍＴｅｃ,,株式会社,東京都,八王子市,越野２４－９ルミエール越野４０１号,,13,201,1920361,,,,,,,2023-04-27,1,,,,,ヒュームテック,0
1683,8010401173964,新規,0,2023-04-27,2023-04-27,株式会社ワンダーエンタテインメント,,株式会社,東京都,港区,西麻布４丁目２０番３号,,13,103,1060031,,,,,,,2023-04-27,1,,,,,ワンダーエンタテインメント,0
1684,8010401174038,新規,0,2023-04-27,2023-04-27,株式会社ＪＧ１８,,株式会社,東京都,港区,虎ノ門１丁目３番１号,,13,103,1050001,,,,,,,2023-04-27,1,,,,,ジェージージュウハチ,0
1685,8010403029990,新規,0,2023-04-27,2023-04-27,なみのり合同会社,,合同会社,東京都,港区,浜松町２丁目２番１５号浜松町ダイヤビル２Ｆ,,13,103,1050013,,,,,,,2023-04-27,1,,,,,ナミノリ,0
1686,8010403030008,新規,0,2023-04-27,2023-04-27,ＲＮ合同会社,,合同会社,東京都,港区,新橋２丁目８番１４号第４山田ビル地下１階,,13,103,1050004,,,,,,,2023-04-27,1,,,,,アールエヌ,0
1687,8010403030016,新規,0,2023-04-27,2023-04-27,Ｇｒａｄｉｅｎｔ　Ｃｏｎｓｕｌｔｉｎｇ合同会社,,合同会社,東京都,港区,芝浦３丁目１７番１１号天翔田町ビル２階２０７号室,,13,103,1080023,,,,,,,2023-04-27,1,,,,,グラディエントコンサルティング,0
1699,8010801033891,新規,0,2023-04-27,2023-04-27,ＮＫＭ株式会社,,株式会社,東京都,大田区,下丸子１丁目５番８号,,13,111,1460092,,,,,,,2023-04-27,1,,,,,エヌケーエム,0
1700,8010801033900,新規,0,2023-04-27,2023-04-27,株式会社ＹＣＳ,,株式会社,東京都,大田区,池上５丁目１３番５－２０２号,,13,111,1460082,,,,,,,2023-04-27,1,,,,,ワイシーエス,0
1707,8010901052957,新規,0,2023-04-27,2023-04-27,株式会社ＧＯＫＩＧＥＮ　ＮＥＫＯ,,株式会社,東京都,世田谷区,代田５丁目３３番１６号カーサノルド１４０２,,13,112,1550033,,,,,,,2023-04-27,1,,,,,ゴキゲンネコ,0
1708,8010905004475,新規,0,2023-04-27,2023-04-27,一般社団法人ジャパンヴィジョン研究所,,その他の設立登記法人,東京都,世田谷区,成城２丁目６番２３号,,13,112,1570066,,,,,,,2023-04-27,1,,,,,ジャパンヴィジョンケンキュウジョ,0
1712,8011003016735,新規,0,2023-04-27,2023-04-27,合同会社ＡＭＭ,,合同会社,東京都,渋谷区,恵比寿南３丁目１０番地６－２０１,,13,113,1500022,,,,,,,2023-04-27,1,,,,,エイエムエム,0
1716,8011303004737,新規,0,2023-04-27,2023-04-27,合同会社Ｎｏｉ　Ｈｏｕｓｅ　Ｔｏｋｙｏ,,合同会社,東京都,杉並区,高円寺南４丁目５番１－９０２号藤和シティホームズ高円寺,,13,115,1660003,,,,,,,2023-04-27,1,,,,,ノイハウストーキョー,0
1718,8011305002904,新規,0,2023-04-27,2023-04-27,一般社団法人北辰一刀流玄武館,,その他の設立登記法人,東京都,杉並区,善福寺２丁目２８番６号,,13,115,1670041,,,,,,,2023-04-27,1,,,,,ホクシンイットウリュウゲンブカン,0
1719,8011401025081,新規,0,2023-04-27,2023-04-27,株式会社ＫＳＲ,,株式会社,東京都,板橋区,本町３２－１４ｔｒｉａｓ３２１－１０２,,13,119,1730001,,,,,,,2023-04-27,1,,,,,ケーエスアール,0
1723,8011605002513,新規,0,2023-04-27,2023-04-27,一般社団法人ＰＲＯＶＥ,,その他の設立登記法人,東京都,練馬区,向山３丁目２３番７号,,13,120,1760022,,,,,,,2023-04-27,1,,,,,プルーヴ,0
1728,8011703003454,新規,0,2023-04-27,2023-04-27,合同会社大宝,,合同会社,東京都,江戸川区,東葛西５丁目１３番１－１１１４号,,13,123,1340084,,,,,,,2023-04-27,1,,,,,ダイホウ,0
1731,8011801042305,新規,0,2023-04-27,2023-04-27,グレイスロジックス株式会社,,株式会社,東京都,足立区,梅田１丁目１６番１１号,,13,121,1230851,,,,,,,2023-04-27,1,,,,,グレイスロジックス,0
1732,8011801042313,新規,0,2023-04-27,2023-04-27,ＨＯＲＩＺＯＮ　ＳＴＵＤＩＯ株式会社,,株式会社,東京都,足立区,千住仲町１３番９号－１０２,,13,121,1200036,,,,,,,2023-04-27,1,,,,,ホライズンスタジオ,0
1740,8012801022313,新規,0,2023-04-27,2023-04-27,株式会社オフィスカオルサウンド,,株式会社,東京都,国分寺市,本多２丁目１番４号,,13,214,1850011,,,,,,,2023-04-27,1,,,,,オフィスカオルサウンド,0
1750,8013301050671,新規,0,2023-04-27,2023-04-27,ＨＷコンサルティング株式会社,,株式会社,東京都,豊島区,東池袋３丁目２０番６号,,13,116,1700013,,,,,,,2023-04-27,1,,,,,エイチダブリューコンサルティング,0
1757,8020003023823,新規,0,2023-04-27,2023-04-27,合同会社ＵＴｅＳ,,合同会社,神奈川県,横浜市旭区,今宿町２６７２番地１２,,14,112,2410813,,,,,,,2023-04-27,1,,,,,ユーテス,0
1759,8020005015975,新規,0,2023-04-27,2023-04-27,一般社団法人日本昇天音楽協会,,その他の設立登記法人,神奈川県,川崎市宮前区,犬蔵２丁目１７番４５号,,14,136,2160011,,,,,,,2023-04-27,1,,,,,ニッポンショウテンオンガクキョウカイ,0
1766,8021001078867,新規,0,2023-04-27,2023-04-27,ＲｉｃｏＤｅｎ株式会社,,株式会社,神奈川県,茅ヶ崎市,共恵１丁目７番２９－８０２号,,14,207,2530056,,,,,,,2023-04-27,1,,,,,リコデン,0
1767,8021001078883,新規,0,2023-04-27,2023-04-27,ｎＣｉｒｃｌｅ　Ｔｅｃｈ　Ｊａｐａｎ株式会社,,株式会社,神奈川県,茅ヶ崎市,浜竹１丁目１番３０－１号,,14,207,2530021,,,,,,,2023-04-27,1,,,,,エヌサークルテックジャパン,0
1776,8030001153530,新規,0,2023-04-27,2023-04-27,株式会社ＴＢＧ,,株式会社,埼玉県,川口市,大字安行領根岸２９８７番地の１,,11,203,3330834,,,,,,,2023-04-27,1,,,,,ティービージー,0
1777,8030001153613,新規,0,2023-04-27,2023-04-27,株式会社オールインキャリア,,株式会社,埼玉県,川口市,並木１丁目１２番８号カーサアルデバラン３０２号,,11,203,3320034,,,,,,,2023-04-27,1,,,,,オールインキャリア,0
1784,8030003021669,新規,0,2023-04-27,2023-04-27,合同会社Ｂ・Ｃ,,合同会社,埼玉県,草加市,吉町３丁目４番７３－３号,,11,221,3400017,,,,,,,2023-04-27,1,,,,,ビーシー,0
1788,8040001128127,新規,0,2023-04-27,2023-04-27,ライジング株式会社,,株式会社,千葉県,松戸市,上矢切１５３６番地の４アシェイドライン１０３,,12,207,2710094,,,,,,,2023-04-27,1,,,,,ライジング,0
1808,8070003004926,新規,0,2023-04-27,2023-04-27,合同会社クロエ,,合同会社,群馬県,前橋市,川原町１丁目２６－６ラッフルズ東通り２０５,,10,201,3710046,,,,,,,2023-04-27,1,,,,,クロエ,0
1812,8090005007561,新規,0,2023-04-27,2023-04-27,特定非営利活動法人スーパーサイエンティストプログラムプラス,,その他の設立登記法人,山梨県,甲府市,古府中町４８９４番地１３,,19,201,4000014,,,,,,,2023-04-27,1,,,,,スーパーサイエンティストプログラムプラス,0
1817,8100003006984,新規,0,2023-04-27,2023-04-27,Ｇｉｌｂｅｒｄ　Ｉｎｃ．合同会社,,合同会社,長野県,北安曇郡小谷村,大字千国乙１２８５６番地１２３,,20,486,3999422,,,,,,,2023-04-27,1,,,,,ギルバードインク,0
1819,8110001037485,新規,0,2023-04-27,2023-04-27,株式会社ＴＡＫＡＨＩＲＯ,,株式会社,新潟県,新潟市中央区,米山２丁目６番７号ＷｏｒｋＷｉｔｈ米山４－Ｃ,,15,103,9500916,,,,,,,2023-04-27,1,,,,,タカヒロ,0
1831,8120001254427,新規,0,2023-04-27,2023-04-27,栄創株式会社,,株式会社,大阪府,大阪市浪速区,恵美須西１丁目２－５マウンテン・ウエストビル８０２号,,27,111,5560003,,,,,,,2023-04-27,1,,,,,エイソウ,0
1832,8120001254443,新規,0,2023-04-27,2023-04-27,恩典国際株式会社,,株式会社,大阪府,大阪市住之江区,南港中４丁目７番２３－１０１号,,27,125,5590033,,,,,,,2023-04-27,1,,,,,オンテンコクサイ,0
1833,8120001254451,新規,0,2023-04-27,2023-04-27,ＣＯＳＭＥ　ＤＥＳＩＧＮ株式会社,,株式会社,大阪府,大阪市北区,天満３丁目１２番１９号,,27,127,5300043,,,,,,,2023-04-27,1,,,,,コスメデザイン,0
1834,8120001254476,新規,0,2023-04-27,2023-04-27,クラップリング株式会社,,株式会社,大阪府,守口市,金下町１丁目２番１号,,27,209,5700079,,,,,,,2023-04-27,1,,,,,クラップリング,0
1835,8120001254484,新規,0,2023-04-27,2023-04-27,クインテクス株式会社,,株式会社,大阪府,大阪市中央区,平野町３丁目１番１０号オーセンティック淀屋橋１１０１号,,27,128,5410046,,,,,,,2023-04-27,1,,,,,クインテクス,0
1837,8120003023945,新規,0,2023-04-27,2023-04-27,合同会社ｅｂｏｎｙ　ａｎｄ　ｉｖｏｒｙ,,合同会社,大阪府,大阪市北区,梅田１丁目２番２号大阪駅前第２ビル１２－１２,,27,127,5300001,,,,,,,2023-04-27,1,,,,,エボニーアンドアイボリー,0
1838,8120003023953,新規,0,2023-04-27,2023-04-27,英福合同会社,,合同会社,大阪府,大阪市中央区,備後町１丁目５番１６号ロータスビル６階,,27,128,5410051,,,,,,,2023-04-27,1,,,,,エイフク,0
1850,8130005016764,新規,0,2023-04-27,2023-04-27,一般社団法人Ｗｅｌｌ‐ｂｅｉｎｇ　ＫＹＯＴＯ,,その他の設立登記法人,京都府,京都市右京区,嵯峨天龍寺芒ノ馬場町３４番地,,26,108,6168385,,,,,,,2023-04-27,1,,,,,ウェルビーイングキョウト,0
1853,8140001129965,新規,0,2023-04-27,2023-04-27,株式会社Ｙ．Ｎ．Ｃ．,,株式会社,兵庫県,川西市,大和西１丁目９９番地の７９,,28,217,6660112,,,,,,,2023-04-27,1,,,,,,0
1855,8140003019025,新規,0,2023-04-27,2023-04-27,合同会社ｓｅｒｅｎｏ,,合同会社,兵庫県,宝塚市,中山桜台１丁目１０番９号,,28,214,6650877,,,,,,,2023-04-27,1,,,,,セレーノ,0
1858,8180001156015,新規,0,2023-04-27,2023-04-27,株式会社ユービック,,株式会社,愛知県,名古屋市南区,三吉町１丁目２７番地,,23,112,4570805,,,,,,,2023-04-27,1,,,,,ユービック,0
1874,8200001041239,新規,0,2023-04-27,2023-04-27,株式会社エゴグリーン,,株式会社,岐阜県,岐阜市,徹明通２丁目１８番地柳ケ瀬グラッスル３５（１０８号）,,21,201,5008879,,,,,,,2023-04-27,1,,,,,エゴグリーン,0
1898,8290001101158,新規,0,2023-04-27,2023-04-27,安然貿易株式会社,,株式会社,福岡県,糟屋郡篠栗町,大字尾仲５８５番地１ウエル貸事務所１０２号室,,40,342,8112413,,,,,,,2023-04-27,1,,,,,アンゼンボウエキ,0
1907,8330001030798,新規,0,2023-04-27,2023-04-27,株式会社まる元,,株式会社,熊本県,球磨郡錦町,大字西３５４２番地４１,,43,501,8680303,,,,,,,2023-04-27,1,,,,,マルゲン,0
1919,8370001049892,新規,0,2023-04-27,2023-04-27,株式会社ＭＩＲＮＡ,,株式会社,宮城県,仙台市泉区,七北田字菅間官林６番地の３５,,04,105,9813131,,,,,,,2023-04-27,1,,,,,ミーナ,0
1924,8380003005447,新規,0,2023-04-27,2023-04-27,フォレストクリエイト合同会社,,合同会社,福島県,田村市,船引町永谷字山中１２番地,,07,211,9634201,,,,,,,2023-04-27,1,,,,,フォレストクリエイト,0
1938,8430003014979,新規,0,2023-04-27,2023-04-27,合同会社ＰＡＩＮＴ　ＨＯＵＳＥ　ＲＩＳＥ,,合同会社,北海道,石狩市,親船東一条２丁目４６番地,,01,235,0613365,,,,,,,2023-04-27,1,,,,,ペイントハウスライズ,0
1946,8500003003025,新規,0,2023-04-27,2023-04-27,合同会社さくら,,合同会社,愛媛県,松山市,東方町甲３４１番地,,38,201,7911123,,,,,,,2023-04-27,1,,,,,サクラ,0
1950,8700150115791,新規,0,2023-04-27,2023-04-27,ｓｈｅｎｚｈｅｎｓｈｉｌｕｏｋｅｗｅｉｌａｉｍａｏｙｉｙｏｕｘｉａｎｇｏｎｇｓｉ,,外国会社等,,,,,,,,ｌｏｎｇ　ｈｕａ　ｑｉ　ｄａ　ｌａｎｇ　ｊｉｅ　ｄａｏ　ｔｏｎｇ　ｓｈｅｎｇ　ｓｈｅ　ｑｕ　ｓａｎ　ｈｅ　ｈｕａ　ｑｉａｏ　ｅｒ　ｑｕ　１６　ｈａｏ　１０２０　ｓｈｅｎｚｈｅｎ　ｇｕａｎｇｄｏｎｇ,,,,,,2023-04-27,1,,,,,シンセンシラクコクミライボウエキユウゲンコウシ,0
1951,8700150115800,新規,0,2023-04-27,2023-04-27,ＧＵＡＮＧＺＨＯＵ　ＺＡＯＺＨＯＮＧＷＡＮ　ＤＩＡＮＺＩＳＨＡＮＧＷＵ　ＹＯＵＸＩＡＮＧＯＮＧＳＩ,,外国会社等,,,,,,,,Ｒｏｏｍ　４０１，Ｎｏ．４５　Ｎｏｒｔｈ　Ｓｏｎｇｇａｎｇ　Ｅａｓｔ　Ｒｏａｄ，Ｓｏｎｇｚｈｏｕ　Ｓｔｒｅｅｔ，Ｂａｉｙｕｎ　Ｄｉｓｔｒｉｃｔ，Ｇｕａｎｇｚｈｏｕ,,,,,,2023-04-27,1,,,,,コウシユウソウチユウバンデンシシヨウムユウゲンコウシ,0
1952,8700150115809,新規,0,2023-04-27,2023-04-27,ｓｈａｎｇｈａｉｈｅｓｈｉｊｉａｔｉｎｇｙｏｎｇｐｉｎｙｏｕｘｉａｎｇｏｎｇｓｉ,,外国会社等,,,,,,,,Ｒｏｏｍ　２８６，Ｚｏｎｅ　Ｃ，ｆｌｏｏｒ　２，ｂｕｉｌｄｉｎｇ　１，Ｎｏ．２６２８，Ｂａｉｓｈｉ　Ｒｏａｄ　Ｓｈａｎｇｈａｉ　Ｑｉｎｇｐｕ　ｃｈｉｎａ,,,,,,2023-04-27,1,,,,,シヤンハイカテキカテイヨウヒンユウゲンコウシ,0
1953,8700150115858,新規,0,2023-04-27,2023-04-27,Ｎｅｌｕｍ　Ｌａｎｋａ　Ｅｎｔｅｒｐｒｉｓｅｓ　ＰＶＴ　ＬＴＤ,,外国会社等,神奈川県,茅ヶ崎市,赤羽根３３８６番地４,,14,207,2530001,スリランカ民主社会主義共和国、デヒワラ、エムジェイアールアジスグナティラカマワタアレンアベニュー、トレンドタワー、Ｎｏ．２、６／６,,,,,,2023-04-27,1,,,,,ネルムランカエンタープライズプライベートリミテツド,0
1968,9010001234661,新規,0,2023-04-27,2023-04-27,株式会社Ｌｕｎａｒ　Ｉｎｄｕｓｔｒｉｅｓ,,株式会社,東京都,千代田区,丸の内１丁目７－１２サピアタワー８階知的財産研究機構内,,13,101,1000005,,,,,,,2023-04-27,1,,,,,ルナインダストリーズ,0
1971,9010003040455,新規,0,2023-04-27,2023-04-27,イイシシ合同会社,,合同会社,東京都,千代田区,神田錦町３丁目７－２東京堂錦町ビル９Ｆ事業所９１１号,,13,101,1010054,,,,,,,2023-04-27,1,,,,,イイシシ,0
1974,9010105002213,新規,0,2023-04-27,2023-04-27,一般社団法人関東地区物流推進協議会,,その他の設立登記法人,東京都,八王子市,南町３番１７号ＴＯＷＡビル３階,,13,201,1920072,,,,,,,2023-04-27,1,,,,,カントウチクブツリュウスイシンキョウギカイ,0
1983,9010403029783,新規,0,2023-04-27,2023-04-27,合同会社ピースオン,,合同会社,東京都,港区,浜松町２丁目２番１５号浜松町ダイヤビル２Ｆ,,13,103,1050013,,,,,,,2023-04-27,1,,,,,ピースオン,0
1985,9010405021879,新規,0,2023-04-27,2023-04-27,マッキャンエリクソン労働組合,,その他の設立登記法人,東京都,港区,南青山１丁目１－１新青山ビル東館,,13,103,1070062,,,,,,,2023-04-27,1,,,,,マッキャンエリクソン,0
1986,9010405022076,新規,0,2023-04-27,2023-04-27,バナナ一般社団法人,,その他の設立登記法人,東京都,港区,六本木１丁目６番１号泉ガーデンタワー,,13,103,1060032,,,,,,,2023-04-27,1,,,,,バナナ,0
1987,9010501050377,新規,0,2023-04-27,2023-04-27,ケーコム株式会社,,株式会社,東京都,台東区,東上野２丁目９番７号ケンモチビル３Ｂ,,13,106,1100015,,,,,,,2023-04-27,1,,,,,ケーコム,0
1994,9010901052956,新規,0,2023-04-27,2023-04-27,株式会社ＴＨＥ　ＢＲＡＮＤ　ＨＯＬＤＩＮＧＳ,,株式会社,東京都,世田谷区,太子堂４丁目２８番８号,,13,112,1540004,,,,,,,2023-04-27,1,,,,,ザブランドホールディングス,0
2002,9011001154073,新規,0,2023-04-27,2023-04-27,株式会社トライベル,,株式会社,東京都,渋谷区,松濤１丁目２番１１号,,13,113,1500046,,,,,,,2023-04-27,1,,,,,トライベル,0
2007,9011101102667,新規,0,2023-04-27,2023-04-27,株式会社ＰＧＮ‐ｃｏｎｓｕｌｔｉｎｇ,,株式会社,東京都,新宿区,西新宿３丁目３番１３号西新宿水間ビル６階,,13,104,1600023,,,,,,,2023-04-27,1,,,,,ピージーエヌコンサルティング,0
2009,9011403003984,新規,0,2023-04-27,2023-04-27,順風商事合同会社,,合同会社,東京都,板橋区,徳丸４丁目３６番９号,,13,119,1750083,,,,,,,2023-04-27,1,,,,,ジュンプウショウジ,0
2011,9011501029205,新規,0,2023-04-27,2023-04-27,佳賢産業株式会社,,株式会社,東京都,北区,王子本町１丁目２２番１ＫＳＧビル２０１号室,,13,117,1140022,,,,,,,2023-04-27,1,,,,,カケンサンギョウ,0
2014,9011603003909,新規,0,2023-04-27,2023-04-27,合同会社ラースタチカ,,合同会社,東京都,練馬区,高松３丁目１５－１１,,13,120,1790075,,,,,,,2023-04-27,1,,,,,ラースタチカ,0
2015,9011703003453,新規,0,2023-04-27,2023-04-27,合同会社Ｌａ・Ｐａｚ,,合同会社,東京都,江戸川区,中央１丁目２１－３,,13,123,1320021,,,,,,,2023-04-27,1,,,,,ラパス,0
2028,9012401040474,新規,0,2023-04-27,2023-04-27,株式会社ＨＮＫ,,株式会社,東京都,多摩市,永山２丁目２７番地の１３ＲＥＮ永山１０５,,13,224,2060025,,,,,,,2023-04-27,1,,,,,エイチエヌケー,0
2029,9012401040482,新規,0,2023-04-27,2023-04-27,株式会社ＲａｖｅＮｓ,,株式会社,東京都,調布市,布田１丁目１５番９－３０２号,,13,208,1820024,,,,,,,2023-04-27,1,,,,,レイヴンズ,0
2030,9012403005954,新規,0,2023-04-27,2023-04-27,合同会社ラヴァリエ,,合同会社,東京都,府中市,緑町３丁目３３番地の１５,,13,206,1830006,,,,,,,2023-04-27,1,,,,,ラヴァリエ,0
2034,9013301050646,新規,0,2023-04-27,2023-04-27,Ｃｏｃｏｒｏ　Ｊａｐａｎ株式会社,,株式会社,東京都,豊島区,南大塚２丁目１１－２糸賀ビル２０１,,13,116,1700005,,,,,,,2023-04-27,1,,,,,ココロジャパン,0
2040,9021001078833,新規,0,2023-04-27,2023-04-27,株式会社ＭＩＳＡＮＧＡ　ＭＯＯＮ,,株式会社,神奈川県,藤沢市,鵠沼松が岡２丁目１２番１６号,,14,205,2510038,,,,,,,2023-04-27,1,,,,,ミサンガムーン,0
2041,9021001078882,新規,0,2023-04-27,2023-04-27,株式会社ＨＡＬ,,株式会社,神奈川県,茅ヶ崎市,ひばりが丘３番９号,,14,207,2530027,,,,,,,2023-04-27,1,,,,,ハル,0
2042,9021003013012,新規,0,2023-04-27,2023-04-27,グリーン・アンデス合同会社,,合同会社,神奈川県,海老名市,杉久保北４丁目１３番５号,,14,215,2430410,,,,,,,2023-04-27,1,,,,,グリーンアンデス,0
2045,9021005012805,新規,0,2023-04-27,2023-04-27,一般社団法人めぐみとまこと,,その他の設立登記法人,神奈川県,横須賀市,池上４丁目４番９号,,14,201,2380035,,,,,,,2023-04-27,1,,,,,メグミトマコト,0
2049,9030001153620,新規,0,2023-04-27,2023-04-27,株式会社宋アトリエ建築計画,,株式会社,埼玉県,上尾市,西宮下３丁目１７番２号,,11,219,3620043,,,,,,,2023-04-27,1,,,,,ソウアトリエケンチクケイカク,0
2057,9040003022483,新規,0,2023-04-27,2023-04-27,Ｅｌａ合同会社,,合同会社,千葉県,船橋市,習志野台４丁目７５－１８,,12,204,2740063,,,,,,,2023-04-27,1,,,,,エラ,0
2059,9040005021979,新規,0,2023-04-27,2023-04-27,医療法人社団並木,,その他の設立登記法人,千葉県,我孫子市,並木７丁目１番３２号,,12,222,2701165,,,,,,,2023-04-27,1,,,,,,0
2061,9050003007442,新規,0,2023-04-27,2023-04-27,合同会社ＫＤ,,合同会社,茨城県,常総市,国生８４２番地４,,08,211,3002741,,,,,,,2023-04-27,1,,,,,ケーディー,0
2062,9050003007459,新規,0,2023-04-27,2023-04-27,合同会社ｔｅｔｏｔｅ,,合同会社,茨城県,つくば市,竹園３丁目５番地１デュオヒルズつくば竹園２１６号,,08,220,3050032,,,,,,,2023-04-27,1,,,,,テトテ,0
2070,9080101023925,新規,0,2023-04-27,2023-04-27,株式会社Ｎｉｃｏ,,株式会社,静岡県,御殿場市,川島田１０１３－４－１Ｆ,,22,215,4120045,,,,,,,2023-04-27,1,,,,,ニコ,0
2074,9100001036355,新規,0,2023-04-27,2023-04-27,株式会社Ｎａｚ,,株式会社,長野県,北佐久郡軽井沢町,大字追分１３４番地３,,20,321,3890115,,,,,,,2023-04-27,1,,,,,ナズ,0
2077,9100005013004,新規,0,2023-04-27,2023-04-27,ＮＰＯ法人Ｗ．Ｃｏケアサポたんぽぽ,,その他の設立登記法人,長野県,諏訪市,杉菜池１９８７番地９,,20,206,3920009,,,,,,,2023-04-27,1,,,,,ダブリュシーオーケアサポタンポポ,0
2078,9110001037484,新規,0,2023-04-27,2023-04-27,クリスタルレイア株式会社,,株式会社,新潟県,新潟市中央区,女池３丁目３４番１０号,,15,103,9500941,,,,,,,2023-04-27,1,,,,,クリスタルレイア,0
2089,9120001254475,新規,0,2023-04-27,2023-04-27,株式会社ｐｕｕｌ,,株式会社,大阪府,大阪市生野区,巽南２丁目５番２４号クレールコート２０５号,00130290,27,116,5440015,,,,,,,2023-04-27,1,,,,,プール,0
2090,9120001254483,新規,0,2023-04-27,2023-04-27,旭和商貿株式会社,,株式会社,大阪府,大阪市西成区,南津守７丁目８番６号アクティ玉出４階４Ｂ号室,,27,122,5570063,,,,,,,2023-04-27,1,,,,,キョクワショウボウ,0
2091,9120001254491,新規,0,2023-04-27,2023-04-27,株式会社ＰｏＮｏ,,株式会社,大阪府,大阪市福島区,野田６丁目５番４１－Ｎ８１３号,,27,103,5530005,,,,,,,2023-04-27,1,,,,,ポノ,0
2095,9120003023936,新規,0,2023-04-27,2023-04-27,合同会社高等教育研究会,,合同会社,大阪府,大阪市東住吉区,湯里１丁目３番２４号,,27,121,5460013,,,,,,,2023-04-27,1,,,,,コウトウキョウイクケンキュウカイ,0
2098,9120901047458,新規,0,2023-04-27,2023-04-27,株式会社リスレア,,株式会社,大阪府,茨木市,若草町２－５,,27,211,5670875,,,,,,,2023-04-27,1,,,,,リスレア,0
2099,9120903004614,新規,0,2023-04-27,2023-04-27,合同会社Ｇ．Ｂ．Ｉ．Ｃ,,合同会社,大阪府,豊中市,東寺内町１６番８号,,27,203,5610871,,,,,,,2023-04-27,1,,,,,ジービーアイシー,0
2103,9130001074187,新規,0,2023-04-27,2023-04-27,株式会社善匠,,株式会社,京都府,宇治市,伊勢田町遊田１２番地の１１６,,26,204,6110043,,,,,,,2023-04-27,1,,,,,ゼンショウ,0
2109,9140001129956,新規,0,2023-04-27,2023-04-27,ＴＡ　ＴＲＡＤＩＮＧ株式会社,,株式会社,兵庫県,神戸市長田区,雲雀ケ丘３丁目６－３ヴィラナリー雲雀ヶ丘１号棟１０５号,,28,106,6530879,,,,,,,2023-04-27,1,,,,,ティーエートレーディング,0
2110,9140001129964,新規,0,2023-04-27,2023-04-27,株式会社Ｌ．ｗｅｓｔ　Ｂｒｉｄｇｅ,,株式会社,兵庫県,尼崎市,西難波町３丁目８番６号,,28,202,6600893,,,,,,,2023-04-27,1,,,,,エルウェストブリッジ,0
2111,9140001129972,新規,0,2023-04-27,2023-04-27,株式会社ＴｈｉｎｋＵ,,株式会社,兵庫県,神戸市兵庫区,熊野町４丁目１４番２－２号－２Ｂ,,28,105,6520064,,,,,,,2023-04-27,1,,,,,シンクユー,0
2120,9140003019032,新規,0,2023-04-27,2023-04-27,合同会社ＣＬＡＲＩＴＹ,,合同会社,兵庫県,加東市,喜田２丁目４番地２５,,28,228,6731465,,,,,,,2023-04-27,1,,,,,クラリティ,0
2124,9150001026351,新規,0,2023-04-27,2023-04-27,株式会社リゾートクリエイト,,株式会社,奈良県,磯城郡田原本町,３７９番地の１３,,29,363,6360300,,,,,,,2023-04-27,1,,,,,リゾートクリエイト,0
2126,9170005007008,新規,0,2023-04-27,2023-04-27,一般社団法人きのくにチャレンジステーション,,その他の設立登記法人,和歌山県,和歌山市,和歌浦東１丁目４番１０号,,30,201,6410021,,,,,,,2023-04-27,1,,,,,キノクニチャレンジステーション,0
2133,9180001156014,新規,0,2023-04-27,2023-04-27,ＨＡＲＵＫＡ・ホールディングス株式会社,,株式会社,愛知県,名古屋市中川区,押元町１丁目１５番地,,23,110,4540841,,,,,,,2023-04-27,1,,,,,ハルカホールディングス,0
2138,9180005020182,新規,0,2023-04-27,2023-04-27,ＮＰＯ法人ソライロ,,その他の設立登記法人,愛知県,名古屋市瑞穂区,桃園町３番１０号ライオンズステージ瑞穂ペンティアス１３０２号,,23,108,4670855,,,,,,,2023-04-27,1,,,,,ソライロ,0
2144,9210001019290,新規,0,2023-04-27,2023-04-27,ハコビーでりばりー株式会社,,株式会社,福井県,福井市,城東４丁目２４番６号,,18,201,9100853,,,,,,,2023-04-27,1,,,,,ハコビーデリバリー,0
2151,9250001020071,新規,0,2023-04-27,2023-04-27,株式会社Ｒｉｃｈｅｓｓｅ,,株式会社,山口県,防府市,栄町１丁目１１番６号栄町ビル３Ｆ,,35,206,7470035,,,,,,,2023-04-27,1,,,,,リシェス,0
2162,9290001101330,新規,0,2023-04-27,2023-04-27,株式会社ＶＯＧＥＬ,,株式会社,福岡県,福岡市博多区,博多駅前１丁目２３番１号ＰａｒｋＦｒｏｎｔ博多駅前１丁目５Ｆ－Ｂ,,40,132,8120011,,,,,,,2023-04-27,1,,,,,フォーゲル,0
2163,9290001101347,新規,0,2023-04-27,2023-04-27,トップロウ株式会社,,株式会社,福岡県,福岡市博多区,対馬小路２番５－９０１号エンクレスト天神ＬＡＲＫ,,40,132,8120020,,,,,,,2023-04-27,1,,,,,トップロウ,0
2164,9320001019726,新規,0,2023-04-27,2023-04-27,株式会社Ｂ‐ＦＬＡＴ,,株式会社,大分県,大分市,都町３丁目６番３８号,,44,201,8700034,,,,,,,2023-04-27,1,,,,,ビーフラット,0
2175,9360005006840,新規,0,2023-04-27,2023-04-27,一般社団法人ＯＥＰＡ,,その他の設立登記法人,沖縄県,宮古島市,平良字西仲宗根４４８番地２,,47,214,9060006,,,,,,,2023-04-27,1,,,,,オーイーピーエー,0
2183,9380001033639,新規,0,2023-04-27,2023-04-27,玲和産業株式会社,,株式会社,福島県,いわき市,平字梅香町１２番地の８,,07,204,9708026,,,,,,,2023-04-27,1,,,,,レイワサンギョウ,0
2192,9410001013471,新規,0,2023-04-27,2023-04-27,発酵パーク株式会社,,株式会社,秋田県,南秋田郡五城目町,字下タ町４８番地,,05,361,0181706,,,,,,,2023-04-27,1,,,,,ハッコウパーク,0
2193,9420001018239,新規,0,2023-04-27,2023-04-27,株式会社新道住建,,株式会社,青森県,青森市,浪打２丁目１３番９－２号,,02,201,0300961,,,,,,,2023-04-27,1,,,,,シンドウジュウケン,0
2202,9430005014704,新規,0,2023-04-27,2023-04-27,一般社団法人Ｏ‐Ｓｐｏｒｔｓ　ＵＮＩＴＥ,,その他の設立登記法人,北海道,札幌市北区,北二十九条西６丁目４番１０号,,01,102,0010029,,,,,,,2023-04-27,1,,,,,オースポーツユナイト,0
2213,9700150115790,新規,0,2023-04-27,2023-04-27,Ｓｈｅｎｚｈｅｎ　ＪｉａＨｅｎｇ　ＴｏｎｇＣｈｕａｎｇ　Ｅｌｅｃｔｒｏｎｉｃ　Ｔｅｃｈｎｏｌｏｇｙ　Ｃｏ．，Ｌｔｄ,,外国会社等,,,,,,,,Ｓｏｕｔｈ　Ｒｏａｄ　Ｄａ　Ｌａｎｇ　Ｓｔｒｅｅｔ，Ｌｏｎｇ　Ｈｕａ　Ｄｉｓｔｒｉｃｔ　Ｓｈｅｎｚｈｅｎ　Ｃｉｔｙ　３Ｆ，Ｂ１　Ｂｕｉｌｄｉｎｇ，Ｎｏ．４３５　Ｂａｏｌｏｎｇ　Ｉｎｄｕｓｔｒｉａｌ　Ｐａｃｋ　Ｌｏｎｇ　Ｈｕａ　Ｄｉｓｔｒｉｃｔ　Ｓｈｅｎｚｈｅｎ　Ｃｉｔｙ　５１８０００　ＣＮ,,,,,,2023-04-27,1,,,,,シンセンジヤヘントングツアンエレクトロニクテクノロジーカンパニーリミテツド,0
2214,9700150115799,新規,0,2023-04-27,2023-04-27,ＧｕａｎｇＺｈｏｕＳｈｅｉＳｈｉＷｏＸｉｎＸｉＫｅＪｉＹｏｕＸｉａｎＧｏｎｇＳｉ,,外国会社等,,,,,,,,ＬｉＷａｎＱｕＸｉＺｅｎｇＬｕ６３ＨａｏＺｉＢｉａｎＨａｏ　Ｃ１０ＨａｏＬｏｕＴａｉＲｏｎｇＳｈａｎｇＷｕＺｈｏｎｇＸｉｎ３０５ＳｈｉＧｕａｎｇＺｈｏｕ　ＧｕａｎｇＤｏｎｇ,,,,,,2023-04-27,1,,,,,コウシユウスイシオウインフオメーシヨンテクノロジーユウゲンコウシ,0
2215,9700150115808,新規,0,2023-04-27,2023-04-27,Ｊｉｎｈｕａｓｈｉ　Ｚｈｕｊｉａ　Ｒｉｙｏｎｇｐｉｎ　Ｃｏ．，Ｌｔｄ,,外国会社等,,,,,,,,Ｆｌｏｏｒ　２，ｂｕｉｌｄｉｎｇ　３，Ｉｎｄｕｓｔｒｉａｌ　Ｚｏｎｅ，Ｌｉｐｕ　Ｔｏｗｎ，Ｊｉｎｄｏｎｇ　Ｚｏｎｅ，Ｊｉｎｈｕａ　Ｚｈｅｊｉａｎｇ，３２１０４１，ＣＮ,,,,,,2023-04-27,1,,,,,キンカシジヨカニチヨウヒンユウゲンコウシ,0
2216,9700150115816,新規,0,2023-04-27,2023-04-27,上海逾越网絡科技有限公司駐日事務所,,外国会社等,神奈川県,横浜市神奈川区,子安通３丁目３９３番地３号７０２号室,,14,102,2210021,中国上海市普陀区真北路９５８号２０幢１３７２室,,,,,,2023-04-27,1,,,,,シヤンハイユエツモウラクカギユウゲンコウシチユウニチジムシヨ,0
2217,9700150115849,新規,0,2023-04-27,2023-04-27,ｓｈｅｎｚｈｅｎ　ａｏｓｉｋａｓｈｕｍａｋｅｊｉ　ｙｏｕｘｉａｎｇｏｎｇｓｉ,,外国会社等,,,,,,,,ｎａｎｗａｎｊｉｅｄａｏ　ｘｉａｌｉｌａｎｇｓｈｅｑｕ　ｘｉａｌｉｎａｎｌｕ７３ｈａｏｄｏｎｇｊｉｕｃｈｕａｎｇｘｉｎｋｅｊｉｙｕａｎｅｒｑｉ７ｄｏｎｇＢ１５０２－Ａ　ｓｈｅｎｚｈｅｎｓｈｉ　ｇｕａｎｇｄｏｎｇｓｈｅｎｇ　ｌｏｎｇｇａｎｇｑｕ　５１８１１２ＣＮ,,,,,,2023-04-27,1,,,,,シンセンシオッスカスマケジヨウシェンゴンスー,0
2218,9700150115857,新規,0,2023-04-27,2023-04-27,Ｓｈｅｎｚｈｅｎ　ｙａ　ａｎ　ｅｎｅｒｇｙ　ｔｅｃｈｎｏｌｏｇｙ　Ｃｏ．，ｌｔｄ,,外国会社等,,,,,,,,Ｒｏｏｍ　９０２　Ｊｉｎｈｅ　Ｂｕｉｌｄｉｎｇ　Ｎｏ．８　Ｘｉｎｈｅ　Ｓｔｒｅｅｔ　Ｍａａｎｔａｎｇ　Ｃｏｍｍｕｎｉｔｙ　Ｌｏｎｇｇａｎｇ　Ｄｉｓｔｒｉｃｔ　Ｂａｎｔｉａｎ　Ｒｏａｄ　Ｓｈｅｎｚｈｅｎ　ＧｕａｎｇＤｏｎｇ　５１８１２９　ＣＮ,,,,,,2023-04-27,1,,,,,シェンジェンシーヤーアンノンユエンコージーヨウシエンゴンスー,0
