sequenceNumber,corporateNumber,process,correct,updateDate,changeDate,name,nameImageId,kind,prefectureName,cityName,streetNumber,addressImageId,prefectureCode,cityCode,postCode,addressOutside,addressOutsideImageId,closeDate,closeCause,successorCorporateNumber,changeCause,assignmentDate,latest,enName,enPrefectureName,enCityName,enAddressOutside,furigana,hihyoji
9,1010001144736,登記記録の閉鎖等,0,2024-01-04,2023-12-21,株式会社エイチエル・インベストメンツ,,株式会社,東京都,港区,六本木６丁目２番３１号,,13,103,1060032,,,2023-12-21,清算の結了等,,,2015-10-05,1,,,,,エイチエルインベストメンツ,0
18,1010102004756,登記記録の閉鎖等,0,2024-01-04,2023-12-22,有限会社トータルサービス,,有限会社,東京都,八王子市,元八王子町２丁目１３１０番地の３,,13,201,1930826,,,2023-12-22,清算の結了等,,,2015-10-05,1,,,,,トータルサービス,0
20,1010401088525,登記記録の閉鎖等,0,2024-01-04,2023-12-21,株式会社ウェイク,,株式会社,東京都,港区,虎ノ門１丁目１番２１号新虎ノ門実業会館５Ｆ,,13,103,1050001,,,2023-12-21,清算の結了等,,,2015-10-05,1,,,,,ウェイク,0
35,1010702013223,登記記録の閉鎖等,0,2024-01-04,2023-12-25,有限会社いわまつ,,有限会社,東京都,品川区,旗の台２丁目１番９－３０３号,,13,109,1420064,,,2023-12-25,清算の結了等,,,2015-10-05,1,,,,,イワマツ,0
71,1012802007113,登記記録の閉鎖等,0,2024-01-04,2023-12-22,有限会社ゼロ通信,,有限会社,東京都,立川市,羽衣町１丁目２３番５号,,13,202,1900021,,,2023-12-22,清算の結了等,,,2015-10-05,1,,,,,ゼロツウシン,0
72,1013301046767,登記記録の閉鎖等,0,2024-01-04,2023-12-20,株式会社ＡＣＴ,,株式会社,東京都,豊島区,池袋３丁目３４番７号ビジネスパーク池袋２階,,13,116,1710014,,,2023-12-20,清算の結了等,,,2021-01-18,1,,,,,アクト,0
79,1020001125677,登記記録の閉鎖等,0,2024-01-04,2023-12-25,イーピーエスジャパン株式会社,,株式会社,神奈川県,横浜市都筑区,茅ケ崎南２丁目１９番１８号Ｃ－Ｓｑｕａｒｅ４０４,,14,118,2240037,,,2023-12-25,清算の結了等,,,2018-03-30,1,,,,,イーピーエスジャパン,0
87,1020002048753,登記記録の閉鎖等,0,2024-01-04,2023-12-25,有限会社関東舍クリーニング商会,,有限会社,神奈川県,横浜市神奈川区,西神奈川１丁目３番地の１１,,14,102,2210822,,,2023-12-25,清算の結了等,,,2015-10-05,1,,,,,,0
93,1021002039635,登記記録の閉鎖等,0,2024-01-04,2023-12-26,有限会社ゼイカンパニー,,有限会社,東京都,足立区,千住関屋町１３番２－３０３号,,13,121,1200024,,,2023-12-26,清算の結了等,,,2015-10-05,1,,,,,ゼイカンパニー,0
96,1030001125577,登記記録の閉鎖等,0,2024-01-04,2023-12-25,西島電機株式会社,,株式会社,埼玉県,所沢市,美原町１丁目２９２８番地の７４,,11,208,3590045,,,2023-12-25,清算の結了等,,,2018-05-09,1,,,,,ニシジマデンキ,0
133,1100001000921,登記記録の閉鎖等,0,2024-01-04,2023-12-25,株式会社小林豊子着物学院信州,,株式会社,長野県,長野市,大字鶴賀七瀬７５１番地６大成第２ビル１０階,,20,201,3800906,,,2023-12-25,清算の結了等,,,2015-10-05,1,,,,,コバヤシトヨコキモノガクインシンシュウ,0
136,1100001026586,登記記録の閉鎖等,0,2024-01-04,2023-12-25,ネクストリノベーション株式会社,,株式会社,長野県,松本市,梓川倭１８８６番地１０,,20,202,3901701,,,2023-12-25,清算の結了等,,,2015-10-05,1,,,,,ネクストリノベーション,0
144,1120001157090,登記記録の閉鎖等,0,2024-01-04,2023-12-22,イズイ運輸サービス株式会社,,株式会社,大阪府,門真市,岸和田４丁目９番１０号,,27,223,5710002,,,2023-12-22,清算の結了等,,,2015-10-05,1,,,,,イズイウンユサービス,0
148,1120001224683,登記記録の閉鎖等,0,2024-01-04,2023-12-22,ｅｘｃｅｌｓｉｏｒ株式会社,,株式会社,大阪府,大阪市北区,天神橋３丁目８番１８号,,27,127,5300041,,,2023-12-22,清算の結了等,,,2019-10-31,1,,,,,エクセルシオール,0
163,1120005014767,登記記録の閉鎖等,0,2024-01-04,2023-12-28,特定非営利活動法人演芸で地域活性をする会,,その他の設立登記法人,大阪府,大阪市中央区,東心斎橋１丁目４番１１号大和ビル８号館７０２－１号,,27,128,5420083,,,2023-12-28,清算の結了等,,,2015-10-05,1,,,,,エンゲイデチイキカッセイヲスルカイ,0
165,1120905004941,登記記録の閉鎖等,0,2024-01-04,2023-12-28,特定非営利活動法人Ｔ．Ｓ,,その他の設立登記法人,大阪府,豊中市,春日町１丁目５－１５,,27,203,5600052,,,2023-12-28,清算の結了等,,,2015-10-05,1,,,,,ティドットエス,0
166,1122001015328,登記記録の閉鎖等,0,2024-01-04,2023-12-26,株式会社コバエンジニアリング,,株式会社,大阪府,大東市,御領３丁目５９番地の６,,27,218,5740064,,,2023-12-26,清算の結了等,,,2015-10-05,1,,,,,,0
174,1130005004180,登記記録の閉鎖等,0,2024-01-04,2023-12-28,医療法人社団松ヶ崎記念病院,,その他の設立登記法人,京都府,京都市伏見区,淀美豆町１０７７番,,26,109,6130916,,,2023-12-28,清算の結了等,,,2015-10-05,1,,,,,マツガサキキネンビョウイン,0
185,1180001049571,登記記録の閉鎖等,0,2024-01-04,2023-12-27,株式会社クエスト,,株式会社,愛知県,名古屋市守山区,村前町１８８番地Ａ‐２０５,,23,113,4630082,,,2023-12-27,清算の結了等,,,2015-10-05,1,,,,,クエスト,0
186,1180001064439,登記記録の閉鎖等,0,2024-01-04,2023-12-27,アイ・イー・シー株式会社,,株式会社,愛知県,名古屋市港区,明正１丁目２８１番地の３,,23,111,4550806,,,2023-12-27,清算の結了等,,,2015-10-05,1,,,,,アイイーシー,0
188,1180001079131,登記記録の閉鎖等,0,2024-01-04,2023-12-26,中根製型株式会社,,株式会社,愛知県,瀬戸市,鳥原町８６０番地,,23,204,4801216,,,2023-12-26,清算の結了等,,,2015-10-05,1,,,,,ナカネセイケイ,0
197,1180305002103,登記記録の閉鎖等,0,2024-01-04,2023-12-26,一般社団法人日本福祉車両未来研究会,,その他の設立登記法人,愛知県,名古屋市中区,葵１丁目２７番３号,,23,106,4600006,,,2023-12-26,清算の結了等,,,2015-10-05,1,,,,,ニホンフクシシャリョウミライケンキュウカイ,0
201,1210005000519,登記記録の閉鎖等,0,2024-01-04,2023-12-22,協同組合松岡ショッピングセンター,,その他の設立登記法人,福井県,吉田郡永平寺町,松岡春日１丁目４３番地,,18,322,9101133,,,2023-12-22,清算の結了等,,,2015-10-05,1,,,,,マツオカショッピングセンター,0
202,1230002010551,登記記録の閉鎖等,0,2024-01-04,2023-12-26,有限会社浅香機業,,有限会社,富山県,高岡市,戸出竹２２７番地,,16,202,9391132,,,2023-12-26,清算の結了等,,,2015-10-05,1,,,,,アサカキギョウ,0
222,1290002039932,登記記録の閉鎖等,0,2024-01-04,2023-12-26,有限会社春駒,,有限会社,福岡県,筑紫野市,大字古賀１８８番地の６,,40,217,8180047,,,2023-12-26,清算の結了等,,,2015-10-05,1,,,,,ハルコマ,0
229,1310002005097,登記記録の閉鎖等,0,2024-01-04,2023-12-27,有限会社毎日新聞西九州開発,,有限会社,長崎県,長崎市,麹屋町４番８号アミガサビル３Ｆ,,42,201,8500871,,,2023-12-27,清算の結了等,,,2015-10-05,1,,,,,マイニチシンブンニシキュウシュウカイハツ,0
244,1370302002730,登記記録の閉鎖等,0,2024-01-04,2023-12-27,有限会社大恵建設,,有限会社,宮城県,石巻市,伊勢町３番７号,,04,202,9862123,,,2023-12-27,清算の結了等,,,2015-10-05,1,,,,,ダイエケンセツ,0
249,1410002008486,登記記録の閉鎖等,0,2024-01-04,2023-12-26,有限会社佐々木建創,,有限会社,秋田県,大館市,下代野字代野道北１２６番地４,,05,204,0170034,,,2023-12-26,清算の結了等,,,2015-10-05,1,,,,,ササキケンソウ,0
266,2010001011209,登記記録の閉鎖等,0,2024-01-04,2023-12-25,株式会社インターナショナルサイエンティフィック,,株式会社,東京都,文京区,本郷３丁目４２番１号,,13,105,1130033,,,2023-12-25,清算の結了等,,,2015-10-05,1,,,,,インターナショナルサイエンティフィック,0
269,2010001063613,登記記録の閉鎖等,0,2024-01-04,2023-12-21,株式会社千報,,株式会社,東京都,世田谷区,桜２丁目１５番７号,,13,112,1560053,,,2023-12-21,清算の結了等,,,2015-10-05,1,,,,,センポウ,0
272,2010001108772,登記記録の閉鎖等,0,2024-01-04,2023-12-25,株式会社アイディーシステム,,株式会社,東京都,千代田区,神田須田町１丁目１０番地４プラウド千代田淡路町６１０号,,13,101,1010041,,,2023-12-25,清算の結了等,,,2015-10-05,1,,,,,アイディーシステム,0
302,2010602017496,登記記録の閉鎖等,0,2024-01-04,2023-12-19,有限会社エース,,有限会社,千葉県,船橋市,山手２丁目９番８７号,,12,204,2730045,,,2023-12-19,清算の結了等,,,2015-10-05,1,,,,,エース,0
305,2010801021126,登記記録の閉鎖等,0,2024-01-04,2023-12-25,株式会社Ｈ＆Ｓ　ＷＯＲＬＤＷＩＤＥ,,株式会社,東京都,品川区,西五反田８丁目２番１２号アール五反田７Ａ,,13,109,1410031,,,2023-12-25,清算の結了等,,,2015-10-05,1,,,,,エイチアンドエスワールドワイド,0
306,2010803003527,登記記録の閉鎖等,0,2024-01-04,2023-12-28,合同会社インター・オネスト,,合同会社,東京都,中野区,新井２丁目２１－９ゴールドクレスト３０１号室,,13,114,1650026,,,2023-12-28,清算の結了等,,,2020-11-02,1,,,,,インターオネスト,0
316,2011005005634,登記記録の閉鎖等,0,2024-01-04,2023-12-21,一般財団法人美齢学ジェロントロジーセンター,,その他の設立登記法人,東京都,渋谷区,代々木１丁目５３番１号,,13,113,1510053,,,2023-12-21,清算の結了等,,,2015-10-05,1,,,,,ビレイガクジェロントロジーセンター,0
323,2011105006375,登記記録の閉鎖等,0,2024-01-04,2023-12-26,一般社団法人中医健康アカデミー,,その他の設立登記法人,東京都,新宿区,富久町３番６号グランヴィスタ外苑Ｄ,,13,104,1620067,,,2023-12-26,清算の結了等,,,2015-10-05,1,,,,,チュウイケンコウアカデミー,0
348,2020001075104,登記記録の閉鎖等,0,2024-01-04,2023-12-22,栄光プレーティング株式会社,,株式会社,神奈川県,川崎市川崎区,浅野町３番９号,,14,131,2100854,,,2023-12-22,清算の結了等,,,2015-10-05,1,,,,,エイコウプレーティング,0
352,2020001103574,登記記録の閉鎖等,0,2024-01-04,2023-12-26,株式会社光栄,,株式会社,神奈川県,横浜市西区,戸部町１丁目７番３号,,14,103,2200042,,,2023-12-26,清算の結了等,,,2015-10-05,1,,,,,コウエイ,0
366,2020005004372,登記記録の閉鎖等,0,2024-01-04,2023-12-22,特定非営利活動法人横浜旭ヤングベースボールクラブ,,その他の設立登記法人,神奈川県,横浜市泉区,和泉が丘１丁目２２番地３,,14,116,2450022,,,2023-12-22,清算の結了等,,,2015-10-05,1,,,,,ヨコハマアサヒヤングベースボールクラブ,0
377,2030002023226,登記記録の閉鎖等,0,2024-01-04,2023-12-25,有限会社コンフィデンスシステム,,有限会社,埼玉県,さいたま市岩槻区,大字大口２４５番地３,,11,110,3390013,,,2023-12-25,清算の結了等,,,2015-10-05,1,,,,,コンフィデンスシステム,0
379,2040001041830,登記記録の閉鎖等,0,2024-01-04,2023-12-05,株式会社ウィーリード,,株式会社,千葉県,流山市,前平井６１番地,,12,220,2700152,,,2023-12-05,合併による解散等,5040001041150,令和５年１２月１日千葉県流山市前平井６１番地株式会社エスペラントシステム（5040001041150）に合併し解散,2015-10-05,1,,,,,ウィーリード,0
384,2040002075588,登記記録の閉鎖等,0,2024-01-04,2023-12-20,有限会社ユーコー,,有限会社,千葉県,市原市,今富６２４番地,,12,219,2900265,,,2023-12-20,清算の結了等,,,2015-10-05,1,,,,,ユーコー,0
389,2060001018439,登記記録の閉鎖等,0,2024-01-04,2023-12-25,小俣プラスチック工業株式会社,,株式会社,栃木県,足利市,小俣町５２２番地の３,,09,202,3260141,,,2023-12-25,清算の結了等,,,2015-10-05,1,,,,,オマタプラスチックコウギョウ,0
391,2060001029460,登記記録の閉鎖等,0,2024-01-04,2023-12-26,株式会社ネクステート,,株式会社,栃木県,宇都宮市,上小倉町２１０７番地２,,09,201,3210401,,,2023-12-26,清算の結了等,,,2017-05-29,1,,,,,ネクステート,0
405,2080402004928,登記記録の閉鎖等,0,2024-01-04,2023-12-27,有限会社タニヤ,,有限会社,静岡県,浜松市中区,鍛冶町３２０番１,,22,131,4300933,,,2023-12-27,清算の結了等,,,2015-10-05,1,,,,,タニヤ,0
412,2110002018036,登記記録の閉鎖等,0,2024-01-04,2023-12-27,有限会社小林車輌,,有限会社,新潟県,三条市,鬼木新田３４３番地９,,15,204,9591134,,,2023-12-27,清算の結了等,,,2015-10-05,1,,,,,コバヤシシャリョウ,0
431,2120901025957,登記記録の閉鎖等,0,2024-01-04,2023-12-25,株式会社八杉電気商会,,株式会社,大阪府,豊中市,三国１丁目２番５号,,27,203,5610822,,,2023-12-25,清算の結了等,,,2015-10-05,1,,,,,ヤスギデンキショウカイ,0
437,2120905001590,登記記録の閉鎖等,0,2024-01-04,2023-12-27,特定非営利活動法人生活ネットワーク虹,,その他の設立登記法人,大阪府,吹田市,泉町５丁目２５番１１号,,27,205,5640041,,,2023-12-27,清算の結了等,,,2015-10-05,1,,,,,セイカツネットワークニジ,0
449,2140002066577,登記記録の閉鎖等,0,2024-01-04,2023-12-25,有限会社ウエル,,有限会社,兵庫県,宝塚市,平井２丁目６番２２号,,28,214,6650816,,,2023-12-25,清算の結了等,,,2015-10-05,1,,,,,ウエル,0
457,2160001012786,登記記録の閉鎖等,0,2024-01-04,2023-12-20,株式会社草津補聴器,,株式会社,滋賀県,草津市,野村３丁目１７番１９号,,25,206,5250027,,,2023-12-20,清算の結了等,,,2015-10-05,1,,,,,クサツホチョウキ,0
465,2180001133614,登記記録の閉鎖等,0,2024-01-04,2023-12-25,株式会社磯見電気,,株式会社,愛知県,春日井市,稲口町４丁目２４番地１７,,23,206,4860905,,,2023-12-25,清算の結了等,,,2018-09-06,1,,,,,イソミデンキ,0
475,2180301013796,登記記録の閉鎖等,0,2024-01-04,2023-12-22,株式会社オガキエエンジニアリング,,株式会社,愛知県,刈谷市,小垣江町東中根７番地１,,23,210,4480813,,,2023-12-22,清算の結了等,,,2015-10-05,1,,,,,オガキエエンジニアリング,0
481,2200001001990,登記記録の閉鎖等,0,2024-01-04,2023-12-27,株式会社コスモプロジェクトエー,,株式会社,岐阜県,岐阜市,菊地町１丁目２６番地,,21,201,5008345,,,2023-12-27,清算の結了等,,,2015-10-05,1,,,,,コスモプロジェクトエー,0
487,2240001039227,登記記録の閉鎖等,0,2024-01-04,2023-12-20,株式会社元気丸,,株式会社,広島県,尾道市,御調町丸門田９１９番地,,34,205,7220344,,,2023-12-20,清算の結了等,,,2015-10-05,1,,,,,ゲンキマル,0
492,2260002018161,登記記録の閉鎖等,0,2024-01-04,2023-12-27,有限会社小山工業,,有限会社,岡山県,倉敷市,東塚２丁目１０番１９号,,33,202,7128044,,,2023-12-27,清算の結了等,,,2015-10-05,1,,,,,コヤマコウギョウ,0
495,2290001063734,登記記録の閉鎖等,0,2024-01-04,2023-12-26,株式会社エイショー建工,,株式会社,福岡県,朝倉市,甘木１１６８番地３,,40,228,8380068,,,2023-12-26,清算の結了等,,,2015-10-05,1,,,,,エイショーケンコウ,0
500,2290002045161,登記記録の閉鎖等,0,2024-01-04,2023-12-25,有限会社美口産業,,有限会社,福岡県,飯塚市,平恒字西の浦４３２番地１,,40,205,8200073,,,2023-12-25,清算の結了等,,,2015-10-05,1,,,,,ミクチサンギョウ,0
505,2300001012524,登記記録の閉鎖等,0,2024-01-04,2023-12-27,株式会社アイリス,,株式会社,佐賀県,杵島郡大町町,大字福母１５７８番地３,,41,423,8492102,,,2023-12-27,清算の結了等,,,2021-06-10,1,,,,,アイリス,0
512,2340001012165,登記記録の閉鎖等,0,2024-01-04,2023-12-28,株式会社毛利商店,,株式会社,鹿児島県,出水市,高尾野町大久保１９９５－３,,46,208,8990401,,,2023-12-28,清算の結了等,,,2015-10-05,1,,,,,モウリショウテン,0
514,2350002003732,登記記録の閉鎖等,0,2024-01-04,2023-12-27,有限会社原鉄工,,有限会社,宮崎県,宮崎市,大字糸原１２５５番地,,45,201,8802231,,,2023-12-27,清算の結了等,,,2015-10-05,1,,,,,ハラテッコウ,0
516,2360001016230,登記記録の閉鎖等,0,2024-01-04,2023-12-27,那覇労働行政コンサルティング株式会社,,株式会社,沖縄県,那覇市,字松川５９番地,,47,201,9020062,,,2023-12-27,清算の結了等,,,2015-10-05,1,,,,,ナハロウドウギョウセイコンサルティング,0
520,2380002015700,登記記録の閉鎖等,0,2024-01-04,2023-12-26,有限会社工房日本サウナ,,有限会社,福島県,郡山市,桑野１丁目５番１６号深谷ビルＡ－２０３,,07,203,9638025,,,2023-12-26,清算の結了等,,,2015-10-05,1,,,,,コウボウニホンサウナ,0
524,2380005007125,登記記録の閉鎖等,0,2024-01-04,2023-12-26,相馬地方林業企業組合,,その他の設立登記法人,福島県,相馬市,山上字前原５９番地,,07,209,9760151,,,2023-12-26,清算の結了等,,,2015-10-05,1,,,,,ソウマチホウリンギョウ,0
525,2390001004843,登記記録の閉鎖等,0,2024-01-04,2023-12-27,株式会社本家組,,株式会社,山形県,上山市,皆沢１０５６番地,,06,207,9993224,,,2023-12-27,清算の結了等,,,2015-10-05,1,,,,,ホンケグミ,0
528,2410001005590,登記記録の閉鎖等,0,2024-01-04,2023-12-27,湯沢ニット工業株式会社,,株式会社,秋田県,湯沢市,深堀字鎌切１７番地３,,05,207,0120051,,,2023-12-27,清算の結了等,,,2015-10-05,1,,,,,ユザワニットコウギョウ,0
529,2410001012521,登記記録の閉鎖等,0,2024-01-04,2023-12-26,株式会社ＧＩＶＥＧＡＴＥ,,株式会社,秋田県,北秋田市,本城字館ノ下２２３番地２,,05,213,0184303,,,2023-12-26,清算の結了等,,,2020-06-04,1,,,,,ギブゲート,0
531,2410002009938,登記記録の閉鎖等,0,2024-01-04,2023-12-27,有限会社やましち商店,,有限会社,秋田県,鹿角市,十和田毛馬内字毛馬内９５番地,,05,209,0185334,,,2023-12-27,清算の結了等,,,2015-10-05,1,,,,,ヤマシチショウテン,0
533,2460005001053,登記記録の閉鎖等,0,2024-01-04,2023-12-26,職業訓練法人厚岸地方職業訓練協会,,その他の設立登記法人,北海道,厚岸郡厚岸町,港町１丁目１番地,,01,662,0881128,,,2023-12-26,清算の結了等,,,2015-10-05,1,,,,,アッケシチホウショクギョウクンレンキョウカイ,0
549,3010001182866,登記記録の閉鎖等,0,2024-01-04,2023-12-26,オハヨーバイオテクノロジーズ株式会社,,株式会社,東京都,千代田区,紀尾井町３番１２号,,13,101,1020094,,,2023-12-26,合併による解散等,5260001001660,令和５年１１月３０日岡山市中区神下５６５番地オハヨー乳業株式会社（5260001001660）に合併し解散,2017-04-20,1,,,,,オハヨーバイオテクノロジーズ,0
562,3010005034015,登記記録の閉鎖等,0,2024-01-04,2023-12-19,一般社団法人日本文化伝承協会,,その他の設立登記法人,東京都,千代田区,外神田３丁目６番７号,,13,101,1010021,,,2023-12-19,清算の結了等,,,2021-09-29,1,,,,,ニホンブンカデンショウキョウカイ,0
564,3010401002120,登記記録の閉鎖等,0,2024-01-04,2023-12-26,株式会社有賀,,株式会社,神奈川県,鎌倉市,雪ノ下１丁目１番１８号,,14,204,2480005,,,2023-12-26,清算の結了等,,,2015-10-05,1,,,,,アリガ,0
565,3010401012664,登記記録の閉鎖等,0,2024-01-04,2023-12-25,株式会社Ｙ．Ｈカンパニー,,株式会社,東京都,千代田区,一番町１３番８号一番町ＫＫビル６階,,13,101,1020082,,,2023-12-25,清算の結了等,,,2015-10-05,1,,,,,ワイエイチカンパニー,0
584,3010501026903,登記記録の閉鎖等,0,2024-01-04,2023-12-26,ペンタクオーク株式会社,,株式会社,東京都,台東区,上野６丁目２番５号,,13,106,1100005,,,2023-12-26,清算の結了等,,,2015-10-05,1,,,,,ペンタクオーク,0
616,3011601006968,登記記録の閉鎖等,0,2024-01-04,2023-12-25,株式会社ヤスコーポレーション,,株式会社,東京都,練馬区,北町７丁目１９番６号,,13,120,1790081,,,2023-12-25,清算の結了等,,,2015-10-05,1,,,,,ヤスコーポレーション,0
617,3011602022997,登記記録の閉鎖等,0,2024-01-04,2023-09-08,有限会社エフサービス,,有限会社,東京都,練馬区,富士見台２丁目８番３－１０３号,,13,120,1770034,,,2023-09-08,清算の結了等,,,2015-10-05,1,,,,,,0
625,3012402012081,登記記録の閉鎖等,0,2024-01-04,2023-12-27,有限会社日新製作所,,有限会社,東京都,調布市,下石原２丁目５９番地８,,13,208,1820034,,,2023-12-27,清算の結了等,,,2015-10-05,1,,,,,ニッシンセイサクショ,0
632,3012402020943,登記記録の閉鎖等,0,2024-01-04,2023-12-25,有限会社アライアンス,,有限会社,東京都,三鷹市,下連雀３丁目３６番１－２４０４号,,13,204,1810013,,,2023-12-25,清算の結了等,,,2015-10-05,1,,,,,アライアンス,0
633,3012403003245,登記記録の閉鎖等,0,2024-01-04,2023-12-26,合同会社新大輪,,合同会社,東京都,調布市,多摩川６丁目２９番１１号,,13,208,1820025,,,2023-12-26,清算の結了等,,,2017-11-06,1,,,,,シンダイリン,0
634,3012701002188,登記記録の閉鎖等,0,2024-01-04,2023-12-26,株式会社光洋,,株式会社,東京都,東村山市,恩多町２丁目１番地２，１－３０５,,13,213,1890011,,,2023-12-26,清算の結了等,,,2015-10-05,1,,,,,コウヨウ,0
647,3021001010306,登記記録の閉鎖等,0,2024-01-04,2023-12-26,株式会社佐助商会,,株式会社,神奈川県,鎌倉市,由比ガ浜３丁目７番３４号,,14,204,2480014,,,2023-12-26,清算の結了等,,,2015-10-05,1,,,,,サスケショウカイ,0
654,3030001139096,登記記録の閉鎖等,0,2024-01-04,2023-12-26,日本野球システム株式会社,,株式会社,埼玉県,川口市,南前川２丁目２２番１４号,,11,203,3330846,,,2023-12-26,清算の結了等,,,2020-11-06,1,,,,,ニホンヤキュウシステム,0
658,3040001068708,登記記録の閉鎖等,0,2024-01-04,2023-12-13,株式会社アローメイド,,株式会社,千葉県,柏市,常盤台２８番１９－１０２号,,12,217,2770087,,,2023-12-13,清算の結了等,,,2015-10-05,1,,,,,アローメイド,0
676,3050002004116,登記記録の閉鎖等,0,2024-01-04,2023-12-26,有限会社岡崎商店,,有限会社,茨城県,東茨城郡城里町,大字石塚１４８９番地,,08,310,3114303,,,2023-12-26,清算の結了等,,,2015-10-05,1,,,,,オカザキショウテン,0
680,3070005003393,登記記録の閉鎖等,0,2024-01-04,2023-12-26,特定非営利活動法人サァン医学気功研究学院,,その他の設立登記法人,群馬県,高崎市,倉賀野町２０１４番地１,,10,202,3701201,,,2023-12-26,清算の結了等,,,2015-10-05,1,,,,,サァンイガクキコウケンキュウガクイン,0
681,3080001023320,登記記録の閉鎖等,0,2024-01-04,2023-12-27,株式会社ＬＴＰ,,株式会社,静岡県,藤枝市,高岡４丁目３番２７号,,22,214,4260062,,,2023-12-27,清算の結了等,,,2020-01-09,1,,,,,エルティーピー,0
687,3080402017846,登記記録の閉鎖等,0,2024-01-04,2023-12-26,有限会社オフィスオオノ,,有限会社,静岡県,掛川市,秋葉路１９番地の６,,22,213,4360041,,,2023-12-26,清算の結了等,,,2015-10-05,1,,,,,オフィスオオノ,0
694,3110001016072,登記記録の閉鎖等,0,2024-01-04,2023-12-26,株式会社ツバメ教材製作所,,株式会社,新潟県,燕市,杉柳９３１番地１６,,15,213,9591272,,,2023-12-26,清算の結了等,,,2015-10-05,1,,,,,ツバメキョウザイセイサクショ,0
700,3120001183192,登記記録の閉鎖等,0,2024-01-04,2023-12-25,ＫＧメディア株式会社,,株式会社,大阪府,大阪市港区,弁天１丁目２番３０－１２１０号,,27,107,5520007,,,2023-12-25,合併による解散等,1120001196915,令和５年１２月２５日大阪市福島区吉野五丁目８番１４号ＫＧピープル株式会社（1120001196915）に合併し解散,2015-10-05,1,,,,,ケージーメディア,0
728,3130001010486,登記記録の閉鎖等,0,2024-01-04,2023-12-25,ケイ・アイ・ケイ・エンジニアリング株式会社,,株式会社,京都府,京都市南区,上鳥羽塔ノ森柴東町２８４番地,,26,107,6018162,,,2023-12-25,清算の結了等,,,2015-10-05,1,,,,,ケイアイケイエンジニアリング,0
744,3140005005837,登記記録の閉鎖等,0,2024-01-04,2023-12-22,兵庫県雨漏検査協同組合,,その他の設立登記法人,兵庫県,明石市,二見町西二見６６０番地の１１,,28,203,6740094,,,2023-12-22,清算の結了等,,,2015-10-05,1,,,,,ヒョウゴケンアマモリケンサ,0
778,3240002025274,登記記録の閉鎖等,0,2024-01-04,2023-12-20,有限会社イサカ,,有限会社,広島県,広島市東区,尾長東２丁目１２番９号,,34,102,7320046,,,2023-12-20,清算の結了等,,,2015-10-05,1,,,,,イサカ,0
780,3250005005859,登記記録の閉鎖等,0,2024-01-04,2023-12-18,特定非営利活動法人シニアネット光,,その他の設立登記法人,山口県,光市,虹ケ丘２丁目１６番２３号,,35,210,7430031,,,2023-12-18,清算の結了等,,,2015-10-05,1,,,,,シニアネットヒカリ,0
785,3290001031566,登記記録の閉鎖等,0,2024-01-04,2023-12-26,株式会社オネスティー,,株式会社,福岡県,糟屋郡新宮町,湊坂６丁目７番９号,,40,345,8110114,,,2023-12-26,清算の結了等,,,2015-10-05,1,,,,,オネスティー,0
794,3300001012523,登記記録の閉鎖等,0,2024-01-04,2023-12-27,株式会社アルファベット０３,,株式会社,佐賀県,杵島郡大町町,大字福母１５７８番地３,,41,423,8492102,,,2023-12-27,清算の結了等,,,2021-06-10,1,,,,,アルファベットゼロスリー,0
798,3310001010526,登記記録の閉鎖等,0,2024-01-04,2023-12-28,下條建設株式会社,,株式会社,長崎県,松浦市,御厨町北平免２１１番地第２,,42,208,8594754,,,2023-12-28,清算の結了等,,,2015-10-05,1,,,,,,0
812,3410001005581,登記記録の閉鎖等,0,2024-01-04,2023-12-27,ヤマシン産業株式会社,,株式会社,秋田県,湯沢市,深堀字鎌切１７番地３,,05,207,0120051,,,2023-12-27,清算の結了等,,,2015-10-05,1,,,,,ヤマシンサンギョウ,0
820,3500002013244,登記記録の閉鎖等,0,2024-01-04,2023-12-26,有限会社サンヨ工業,,有限会社,愛媛県,八幡浜市,古町２丁目１番２６号,,38,204,7968003,,,2023-12-26,清算の結了等,,,2015-10-05,1,,,,,サンヨコウギョウ,0
835,4010005016202,登記記録の閉鎖等,0,2024-01-04,2023-12-26,弁理士法人むつみ国際特許事務所,,その他の設立登記法人,東京都,千代田区,神田須田町１丁目２８番地,,13,101,1010041,,,2023-12-26,清算の結了等,,,2015-10-05,1,,,,,ムツミコクサイトッキョジムショ,0
842,4010401099049,登記記録の閉鎖等,0,2024-01-04,2023-12-28,株式会社Ｍａｔｈｃｕｔ,,株式会社,東京都,渋谷区,渋谷１丁目１番３号ＴＨＥＨＵＢ青山ＷＥＳＴ３階,,13,113,1500002,,,2023-12-28,清算の結了等,,,2015-10-05,1,,,,,マスカット,0
853,4010602007909,登記記録の閉鎖等,0,2024-01-04,2023-12-26,有限会社和郷,,有限会社,東京都,江東区,亀戸６丁目６１番７号,,13,108,1360071,,,2023-12-26,清算の結了等,,,2015-10-05,1,,,,,ワゴウ,0
857,4010803001702,登記記録の閉鎖等,0,2024-01-04,2023-12-26,合同会社ＭＤセンター,,合同会社,東京都,大田区,矢口３丁目３０番１－１１０号,,13,111,1460093,,,2023-12-26,清算の結了等,,,2015-10-05,1,,,,,エムディーセンター,0
862,4011001101947,登記記録の閉鎖等,0,2024-01-04,2023-12-25,株式会社ナナハチ,,株式会社,東京都,品川区,東品川４丁目１２番１１－７０１号,,13,109,1400002,,,2023-12-25,清算の結了等,,,2015-10-05,1,,,,,ナナハチ,0
866,4011002036341,登記記録の閉鎖等,0,2024-01-04,2023-12-28,有限会社いつしき,,有限会社,東京都,渋谷区,幡ヶ谷３丁目２０番２号ＴＳビル１０２,,13,113,1510072,,,2023-12-28,清算の結了等,,,2015-10-05,1,,,,,,0
873,4011103010591,登記記録の閉鎖等,0,2024-01-04,2023-10-30,ジェミニスモーク合同会社,,合同会社,東京都,新宿区,高田馬場４丁目４０番地１８号ザパームス７０３号,,13,104,1690075,,,2023-10-30,清算の結了等,,,2021-04-22,1,,,,,ジェミニスモーク,0
887,4012803002309,登記記録の閉鎖等,0,2024-01-04,2023-12-22,Ｊ　ＴｒａｄＥｒ合同会社,,合同会社,東京都,立川市,錦町１丁目４番４号,,13,202,1900022,,,2023-12-22,清算の結了等,,,2020-07-16,1,,,,,ジェイトレーダー,0
888,4013301039314,登記記録の閉鎖等,0,2024-01-04,2023-12-21,株式会社丸美,,株式会社,東京都,豊島区,東池袋２丁目６２番８号,,13,116,1700013,,,2023-12-21,清算の結了等,,,2016-08-22,1,,,,,マルミ,0
900,4020002020610,登記記録の閉鎖等,0,2024-01-04,2023-12-22,有限会社岩崎土木,00010515,有限会社,神奈川県,横浜市旭区,白根１丁目１４番５号,,14,112,2410005,,,2023-12-22,清算の結了等,,,2015-10-05,1,,,,,イワサキドボク,0
901,4020002069061,登記記録の閉鎖等,0,2024-01-04,2023-12-25,有限会社ひょうラーニングプロダクツ,,有限会社,神奈川県,横浜市中区,本牧町１丁目４２番地４の２０４,,14,104,2310806,,,2023-12-25,清算の結了等,,,2015-10-05,1,,,,,ヒョウラーニングプロダクツ,0
902,4020002099876,登記記録の閉鎖等,0,2024-01-04,2023-12-25,有限会社臨港軽運送,,有限会社,神奈川県,川崎市川崎区,小田４丁目７番３号,,14,131,2100846,,,2023-12-25,清算の結了等,,,2015-10-05,1,,,,,リンコウケイウンソウ,0
907,4021001029519,登記記録の閉鎖等,0,2024-01-04,2023-12-26,株式会社アドクイック,,株式会社,神奈川県,大和市,福田６４９番地１１,,14,213,2420024,,,2023-12-26,清算の結了等,,,2015-10-05,1,,,,,アドクイック,0
911,4021003008834,登記記録の閉鎖等,0,2024-01-04,2023-11-20,合同会社大成産業,,合同会社,神奈川県,座間市,入谷東３丁目３１番地１７,,14,216,2520028,,,2023-11-20,清算の結了等,,,2019-11-06,1,,,,,タイセイサンギョウ,0
915,4030002110600,登記記録の閉鎖等,0,2024-01-04,2023-12-20,有限会社クエスト,,有限会社,東京都,北区,王子２丁目３０番７号,,13,117,1140002,,,2023-12-20,清算の結了等,,,2015-10-05,1,,,,,クエスト,0
923,4040002041811,登記記録の閉鎖等,0,2024-01-04,2023-12-18,有限会社美浜メディカルサプライ,,有限会社,千葉県,八街市,榎戸６５６番地４,,12,230,2891106,,,2023-12-18,清算の結了等,,,2015-10-05,1,,,,,ミハマメディカルサプライ,0
939,4070002037633,登記記録の閉鎖等,0,2024-01-04,2023-12-22,有限会社神部医院,,有限会社,群馬県,富岡市,富岡１１２２番地,,10,210,3702316,,,2023-12-22,清算の結了等,,,2019-05-10,1,,,,,カンベイイン,0
941,4080001020861,登記記録の閉鎖等,0,2024-01-04,2023-12-27,ｕｃｈｉｄａ株式会社,,株式会社,静岡県,静岡市葵区,瀬名川２丁目３４番１号,,22,101,4200913,,,2023-12-27,清算の結了等,,,2016-04-07,1,,,,,,0
942,4080101006604,登記記録の閉鎖等,0,2024-01-04,2023-12-26,株式会社ノステック,,株式会社,静岡県,駿東郡清水町,徳倉９７８番地の１の１,,22,341,4110917,,,2023-12-26,清算の結了等,,,2015-10-05,1,,,,,ノステック,0
943,4080405004956,登記記録の閉鎖等,0,2024-01-04,2023-12-26,吉沢茶農業協同組合,,その他の設立登記法人,静岡県,菊川市,吉沢５９０番地,,22,224,4390009,,,2023-12-26,清算の結了等,,,2015-10-05,1,,,,,ヨシサワチャ,0
948,4120001181930,登記記録の閉鎖等,0,2024-01-04,2023-12-22,株式会社銀営,,株式会社,大阪府,大阪市北区,西天満３丁目６番３５号エフベースブルーノビル２０１号,,27,127,5300047,,,2023-12-22,清算の結了等,,,2015-10-05,1,,,,,,0
973,4140001017042,登記記録の閉鎖等,0,2024-01-04,2023-12-25,株式会社スキルスタッフ,,株式会社,兵庫県,神戸市中央区,相生町４丁目３番１号,,28,110,6500025,,,2023-12-25,清算の結了等,,,2015-10-05,1,,,,,スキルスタッフ,0
983,4140003009921,登記記録の閉鎖等,0,2024-01-04,2023-12-27,フォルクローレ村合同会社,,合同会社,兵庫県,加古郡播磨町,北野添３丁目１１番１７号,,28,382,6750158,,,2023-12-27,清算の結了等,,,2015-10-05,1,,,,,フォルクローレムラ,0
987,4180001010456,登記記録の閉鎖等,0,2024-01-04,2023-12-26,第一物産株式会社,,株式会社,愛知県,名古屋市瑞穂区,亀城町３丁目８番地,,23,108,4670876,,,2023-12-26,清算の結了等,,,2015-10-05,1,,,,,ダイイチブッサン,0
1000,4290001010395,登記記録の閉鎖等,0,2024-01-04,2023-12-25,株式会社法令実務,,株式会社,福岡県,福岡市中央区,舞鶴３丁目８番６号法務ビル,,40,133,8100073,,,2023-12-25,清算の結了等,,,2015-10-05,1,,,,,ホウレイジツム,0
1025,4370602000027,登記記録の閉鎖等,0,2024-01-04,2023-12-27,有限会社アイザワ工業,,有限会社,宮城県,宮城郡利府町,しらかし台５丁目９番地の１２,,04,406,9810134,,,2023-12-27,清算の結了等,,,2015-10-05,1,,,,,アイザワコウギョウ,0
1030,4380002025466,登記記録の閉鎖等,0,2024-01-04,2023-12-27,有限会社橋本保険事務所,,有限会社,福島県,いわき市,明治団地１７番地の９,,07,204,9708035,,,2023-12-27,清算の結了等,,,2015-10-05,1,,,,,ハシモトホケンジムショ,0
1035,4420001007758,登記記録の閉鎖等,0,2024-01-04,2023-12-22,株式会社エムズワーク,,株式会社,青森県,三戸郡三戸町,大字川守田字西松原３番地３,,02,441,0390141,,,2023-12-22,清算の結了等,,,2015-10-05,1,,,,,エムズワーク,0
1070,5010401090048,登記記録の閉鎖等,0,2024-01-04,2023-12-21,エキスプレスネットワーク株式会社,,株式会社,東京都,港区,西新橋１丁目２４番１４号,,13,103,1050003,,,2023-12-21,清算の結了等,,,2015-10-05,1,,,,,エキスプレスネットワーク,0
1083,5010405018887,登記記録の閉鎖等,0,2024-01-04,2023-12-21,一般社団法人ＳＡＧＬ１,,その他の設立登記法人,東京都,港区,虎ノ門５丁目１番４号,,13,103,1050001,,,2023-12-21,清算の結了等,,,2020-07-09,1,,,,,エスエージーエルワン,0
1106,5011101095320,登記記録の閉鎖等,0,2024-01-04,2023-12-25,パステルトレーディング株式会社,,株式会社,東京都,新宿区,新宿５丁目１１番１８－７０４号,,13,104,1600022,,,2023-12-25,清算の結了等,,,2021-06-09,1,,,,,パステルトレーディング,0
1118,5011702007070,登記記録の閉鎖等,0,2024-01-04,2023-12-25,有限会社タカシン,,有限会社,東京都,江戸川区,西瑞江３丁目９番地２１,,13,123,1320015,,,2023-12-25,清算の結了等,,,2015-10-05,1,,,,,タカシン,0
1124,5012802007448,登記記録の閉鎖等,0,2024-01-04,2023-12-25,有限会社武美,,有限会社,東京都,東大和市,上北台３丁目３５９番地の１,,13,220,2070023,,,2023-12-25,清算の結了等,,,2015-10-05,1,,,,,タケミ,0
1126,5013102001983,登記記録の閉鎖等,0,2024-01-04,2023-12-20,有限会社山水,,有限会社,東京都,八王子市,小津町２０２番地,,13,201,1920155,,,2023-12-20,清算の結了等,,,2015-10-05,1,,,,,サンスイ,0
1132,5020001033323,登記記録の閉鎖等,0,2024-01-04,2023-12-25,横浜化成株式会社,,株式会社,神奈川県,横浜市青葉区,市ケ尾町１１６０番地１ザ・パークハウス市ヶ尾ウエスト６１２号,,14,117,2250024,,,2023-12-25,清算の結了等,,,2015-10-05,1,,,,,ヨコハマカセイ,0
1162,5030002070843,登記記録の閉鎖等,0,2024-01-04,2023-12-22,有限会社ポニー保険事務所,,有限会社,埼玉県,春日部市,備後西１丁目３番４９号,,11,214,3440033,,,2023-12-22,清算の結了等,,,2015-10-05,1,,,,,ポニーホケンジムショ,0
1178,5050002039366,登記記録の閉鎖等,0,2024-01-04,2023-12-22,有限会社ティアンドティ,,有限会社,茨城県,つくばみらい市,筒戸２１２８番地,,08,235,3002435,,,2023-12-22,清算の結了等,,,2015-10-05,1,,,,,ティアンドティ,0
1180,5060002034011,登記記録の閉鎖等,0,2024-01-04,2023-12-25,有限会社末廣,,有限会社,栃木県,栃木市,都賀町原宿４２７番地５,,09,203,3280103,,,2023-12-25,清算の結了等,,,2015-10-05,1,,,,,スエヒロ,0
1187,5080101022055,登記記録の閉鎖等,0,2024-01-04,2023-12-28,株式会社ゴールデンエステート,,株式会社,静岡県,富士市,伝法３０８７番地の２,,22,210,4170061,,,2023-12-28,合併による解散等,3080101015671,令和５年１２月２８日静岡県富士市瓜島町５４番地株式会社ザ・ゴールデン（3080101015671）に合併し解散,2020-10-06,1,,,,,ゴールデンエステート,0
1193,5110002025979,登記記録の閉鎖等,0,2024-01-04,2023-12-26,有限会社遊染舎,,有限会社,新潟県,十日町市,高山８４７番地１６,,15,210,9480055,,,2023-12-26,清算の結了等,,,2015-10-05,1,,,,,ユウゼンシャ,0
1214,5130001034723,登記記録の閉鎖等,0,2024-01-04,2023-12-27,株式会社フレームアウト・ジャパン,,株式会社,京都府,京都市上京区,椹木町通堀川西入講堂町２４２番地ＨＩＷＡＤＡＨＯＵＳＥ堀川椹木町３０１号,,26,102,6028132,,,2023-12-27,清算の結了等,,,2015-10-05,1,,,,,フレームアウトジャパン,0
1226,5140002044563,登記記録の閉鎖等,0,2024-01-04,2023-12-20,有限会社ほのぼの,,有限会社,兵庫県,尼崎市,富松町１丁目３７番２４号,,28,202,6610003,,,2023-12-20,清算の結了等,,,2015-10-05,1,,,,,ホノボノ,0
1231,5170002001834,登記記録の閉鎖等,0,2024-01-04,2023-12-27,有限会社七洋園,,有限会社,和歌山県,和歌山市,雑賀崎４１６番地,,30,201,6410062,,,2023-12-27,清算の結了等,,,2015-10-05,1,,,,,シチヨウエン,0
1232,5180001017665,登記記録の閉鎖等,0,2024-01-04,2023-12-22,中島自動車株式会社,,株式会社,愛知県,名古屋市東区,徳川１丁目６０９番地,,23,102,4610025,,,2023-12-22,清算の結了等,,,2015-10-05,1,,,,,ナカシマジドウシャ,0
1234,5180001058362,登記記録の閉鎖等,0,2024-01-04,2023-12-22,株式会社友企画,,株式会社,愛知県,名古屋市南区,中江２丁目２番２０号,,23,112,4570004,,,2023-12-22,清算の結了等,,,2015-10-05,1,,,,,トモキカク,0
1236,5180002083062,登記記録の閉鎖等,0,2024-01-04,2023-12-25,有限会社アミイ,,有限会社,愛知県,半田市,中町２丁目５１番地,,23,205,4750855,,,2023-12-25,清算の結了等,,,2015-10-05,1,,,,,アミイ,0
1237,5180002084325,登記記録の閉鎖等,0,2024-01-04,2023-12-25,有限会社白水,,有限会社,愛知県,知多郡武豊町,字多賀７丁目４１番地,,23,447,4702361,,,2023-12-25,清算の結了等,,,2015-10-05,1,,,,,ハクスイ,0
1244,5180302000634,登記記録の閉鎖等,0,2024-01-04,2023-12-21,有限会社大平産業,,有限会社,愛知県,岡崎市,北野町字西山畔１０番地１,,23,202,4440951,,,2023-12-21,清算の結了等,,,2015-10-05,1,,,,,オオヒラサンギョウ,0
1249,5190002021599,登記記録の閉鎖等,0,2024-01-04,2023-12-27,有限会社はるホリスティック,,有限会社,三重県,三重郡菰野町,大字菰野８４８９番地５,,24,341,5101233,,,2023-12-27,清算の結了等,,,2015-10-05,1,,,,,ハルホリスティック,0
1259,5230002010168,登記記録の閉鎖等,0,2024-01-04,2023-12-27,有限会社松井工務店,,有限会社,富山県,小矢部市,赤倉１１９番地の８,,16,209,9320814,,,2023-12-27,清算の結了等,,,2015-10-05,1,,,,,マツイコウムテン,0
1279,5290003012331,登記記録の閉鎖等,0,2024-01-04,2023-12-27,ＮＧＯＣ　ＫＨＡＮＨ合同会社,,合同会社,福岡県,北九州市八幡西区,黒崎２丁目６－１３－３階,,40,109,8060021,,,2023-12-27,清算の結了等,,,2022-03-30,1,,,,,ゴックカン,0
1288,5330002015727,登記記録の閉鎖等,0,2024-01-04,2023-12-25,有限会社ディックス,,有限会社,熊本県,熊本市南区,護藤町８６１番地１０,,43,104,8614117,,,2023-12-25,清算の結了等,,,2015-10-05,1,,,,,ディックス,0
1295,5390002012339,登記記録の閉鎖等,0,2024-01-04,2023-12-26,有限会社須藤建築設計事務所,,有限会社,山形県,東根市,若木通り２丁目９号,,06,211,9993751,,,2023-12-26,清算の結了等,,,2015-10-05,1,,,,,ストウケンチクセッケイジムショ,0
1299,5410002005760,登記記録の閉鎖等,0,2024-01-04,2023-12-26,有限会社テクノポート,,有限会社,秋田県,南秋田郡井川町,坂本字四百刈６１番地６,,05,366,0181523,,,2023-12-26,清算の結了等,,,2015-10-05,1,,,,,テクノポート,0
1319,6010401059843,登記記録の閉鎖等,0,2024-01-04,2023-12-26,株式会社パワーアンドコムテック,,株式会社,茨城県,日立市,日高町５丁目１番１号,,08,202,3191414,,,2023-12-26,清算の結了等,,,2015-10-05,1,,,,,パワーアンドコムテック,0
1330,6010405015974,登記記録の閉鎖等,0,2024-01-04,2023-12-20,一般社団法人社長の終活研究会,,その他の設立登記法人,東京都,港区,南青山２丁目１１番１１号ユニマットハイダウェイ５階,,13,103,1070062,,,2023-12-20,清算の結了等,,,2017-08-07,1,,,,,シャチョウノシュウカツケンキュウカイ,0
1368,6012401011008,登記記録の閉鎖等,0,2024-01-04,2023-12-11,株式会社吉祥寺情報センター,,株式会社,東京都,武蔵野市,吉祥寺南町１丁目４番１号,,13,203,1800003,,,2023-12-11,合併による解散等,2012403001225,令和５年１１月１７日東京都三鷹市井の頭三丁目３１－１１ＴｈｅＲｏｏｍ井の頭公園４０１号室サイフォン合同会社（2012403001225）に合併し解散,2015-10-05,1,,,,,,0
1373,6013302021178,登記記録の閉鎖等,0,2024-01-04,2023-12-25,有限会社三協設計,,有限会社,東京都,豊島区,高田１丁目３６番１８号,,13,116,1710033,,,2023-12-25,清算の結了等,,,2015-10-05,1,,,,,サンキョウセッケイ,0
1379,6020001142635,登記記録の閉鎖等,0,2024-01-04,2023-12-26,株式会社リアンホーム,,株式会社,神奈川県,川崎市中原区,中丸子１３番地１０－３３１２,,14,133,2110012,,,2023-12-26,清算の結了等,,,2021-08-26,1,,,,,リアンホーム,0
1390,6020002092466,登記記録の閉鎖等,0,2024-01-04,2023-12-25,有限会社平工業,,有限会社,神奈川県,川崎市多摩区,菅仙谷２丁目２２番１６号,,14,135,2140006,,,2023-12-25,清算の結了等,,,2015-10-05,1,,,,,タイラコウギョウ,0
1399,6021002029879,登記記録の閉鎖等,0,2024-01-04,2023-12-26,有限会社倉田工業,,有限会社,神奈川県,相模原市緑区,小渕１４８８番地の１,,14,151,2520184,,,2023-12-26,清算の結了等,,,2015-10-05,1,,,,,クラタコウギョウ,0
1406,6030005014185,登記記録の閉鎖等,0,2024-01-04,2023-12-21,特定非営利活動法人みんなの手,,その他の設立登記法人,埼玉県,大里郡寄居町,大字赤浜２８７９番地９,,11,408,3691211,,,2023-12-21,清算の結了等,,,2015-10-05,1,,,,,ミンナノテ,0
1409,6040001120606,登記記録の閉鎖等,0,2024-01-04,2023-12-18,株式会社ＮＡＭＯＮ,,株式会社,千葉県,木更津市,港南台３丁目２５番１２号,,12,206,2920827,,,2023-12-18,清算の結了等,,,2021-10-14,1,,,,,ナモン,0
1411,6040002013073,登記記録の閉鎖等,0,2024-01-04,2023-12-19,有限会社ミヤマ工業,,有限会社,千葉県,千葉市若葉区,加曽利町１５５番地１,,12,104,2640017,,,2023-12-19,清算の結了等,,,2015-10-05,1,,,,,ミヤマコウギョウ,0
1414,6050002022593,登記記録の閉鎖等,0,2024-01-04,2023-12-25,有限会社福田カウンセリングルーム,,有限会社,茨城県,つくば市,要元猿壁２９０番地,,08,220,3002622,,,2023-12-25,清算の結了等,,,2015-10-05,1,,,,,フクダカウンセリングルーム,0
1453,6130001003405,登記記録の閉鎖等,0,2024-01-04,2023-12-27,東興産業株式会社,,株式会社,京都府,京都市上京区,千本通今出川下る笹屋町三丁目６４１番地,,26,102,6020000,,,2023-12-27,清算の結了等,,,2015-10-05,1,,,,,トウコウサンギョウ,0
1455,6140001034077,登記記録の閉鎖等,0,2024-01-04,2023-12-26,東信設備管理株式会社,,株式会社,兵庫県,神戸市西区,中野２丁目１２－１０,,28,111,6512136,,,2023-12-26,清算の結了等,,,2015-10-05,1,,,,,トウシンセツビカンリ,0
1462,6150001007899,登記記録の閉鎖等,0,2024-01-04,2023-12-28,株式会社祥あん,,株式会社,奈良県,奈良市,東登美ヶ丘１丁目５番１６－１,,29,201,6310002,,,2023-12-28,清算の結了等,,,2015-10-05,1,,,,,ショウアン,0
1463,6160002008359,登記記録の閉鎖等,0,2024-01-04,2023-12-28,寺村精工有限会社,,有限会社,滋賀県,彦根市,日夏町１５９５番地,,25,202,5220047,,,2023-12-28,清算の結了等,,,2015-10-05,1,,,,,テラムラセイコウ,0
1469,6190001019585,登記記録の閉鎖等,0,2024-01-04,2023-12-20,株式会社レイニ,,株式会社,三重県,桑名市,大字上深谷部１７４４番地,,24,205,5110809,,,2023-12-20,清算の結了等,,,2015-10-05,1,,,,,,0
1475,6220001018617,登記記録の閉鎖等,0,2024-01-04,2023-12-19,細川林業株式会社,,株式会社,石川県,羽咋郡志賀町,倉垣２２の１番地甲,,17,384,9250122,,,2023-12-19,清算の結了等,,,2015-10-05,1,,,,,ホソカワリンギョウ,0
1485,6260002011253,登記記録の閉鎖等,0,2024-01-04,2023-12-28,有限会社柿原金物店,,有限会社,岡山県,岡山市東区,瀬戸町瀬戸４１０番地の３,,33,103,7090861,,,2023-12-28,清算の結了等,,,2015-10-05,1,,,,,カキハラカナモノテン,0
1486,6260002019544,登記記録の閉鎖等,0,2024-01-04,2023-12-27,有限会社田の口薬局,,有限会社,岡山県,倉敷市,児島田の口３丁目１２番１８号,,33,202,7110903,,,2023-12-27,清算の結了等,,,2015-10-05,1,,,,,タノクチヤッキョク,0
1489,6270003001475,登記記録の閉鎖等,0,2024-01-04,2023-12-28,合同会社福祥,,合同会社,鳥取県,西伯郡大山町,下甲１０２８番地７,,31,386,6893112,,,2023-12-28,清算の結了等,,,2023-01-19,1,,,,,フクショウ,0
1490,6290001061981,登記記録の閉鎖等,0,2024-01-04,2023-12-25,株式会社環境工学研究所,,株式会社,福岡県,福岡市博多区,博多駅前３丁目１９番２３号,,40,132,8120011,,,2023-12-25,清算の結了等,,,2015-10-05,1,,,,,カンキョウコウガクケンキュウジョ,0
1498,6290003008097,登記記録の閉鎖等,0,2024-01-04,2023-12-26,合同会社ｒａｙ－ｏｕｔ,,合同会社,福岡県,福岡市東区,原田３丁目５番２号,,40,131,8120063,,,2023-12-26,清算の結了等,,,2018-05-18,1,,,,,レイアウト,0
1503,6300005005974,登記記録の閉鎖等,0,2024-01-04,2023-12-28,特定非営利活動法人食と農と環境を考える食彩かしま,,その他の設立登記法人,佐賀県,鹿島市,大字音成乙３７２番地１,,41,207,8491323,,,2023-12-28,清算の結了等,,,2015-10-05,1,,,,,ショクトノウトカンキョウヲカンガエルショクサイカシマ,0
1504,6330001012311,登記記録の閉鎖等,0,2024-01-04,2023-12-22,東阿蘇観光開発株式会社,,株式会社,熊本県,阿蘇市,一の宮町宮地字東小堀６０２９番地１,,43,214,8692612,,,2023-12-22,清算の結了等,,,2015-10-05,1,,,,,ヒガシアソカンコウカイハツ,0
1505,6330002004489,登記記録の閉鎖等,0,2024-01-04,2023-12-25,有限会社桜寿司,,有限会社,熊本県,熊本市北区,清水岩倉３丁目１番１号,,43,105,8618084,,,2023-12-25,清算の結了等,,,2015-10-05,1,,,,,サクラズシ,0
1506,6330002016724,登記記録の閉鎖等,0,2024-01-04,2023-12-25,有限会社西合志養鷄センター,,有限会社,熊本県,合志市,野々島３８６番地,,43,216,8611103,,,2023-12-25,清算の結了等,,,2023-05-01,1,,,,,ニシゴウシヨウケイセンター,0
1509,6340002004711,登記記録の閉鎖等,0,2024-01-04,2023-12-27,有限会社新建築,,有限会社,鹿児島県,鹿児島市,新照院町９番９号,,46,201,8900016,,,2023-12-27,清算の結了等,,,2023-11-10,1,,,,,シンケンチク,0
1517,6380003002454,登記記録の閉鎖等,0,2024-01-04,2023-12-26,合同会社いげたや,,合同会社,福島県,白河市,新白河１丁目５４番地,,07,205,9610856,,,2023-12-26,清算の結了等,,,2015-10-05,1,,,,,イゲタヤ,0
1519,6400002012864,登記記録の閉鎖等,0,2024-01-04,2023-12-27,佐々木林業製材有限会社,,有限会社,岩手県,久慈市,夏井町早坂第１３地割２１番地の１,,03,207,0280001,,,2023-12-27,清算の結了等,,,2015-10-05,1,,,,,ササキリンギョウセイザイ,0
1522,6430002014503,登記記録の閉鎖等,0,2024-01-04,2023-12-25,有限会社長野電機,,有限会社,北海道,札幌市西区,八軒八条西３丁目２番１２号,,01,107,0630848,,,2023-12-25,清算の結了等,,,2015-10-05,1,,,,,ナガノデンキ,0
1526,6450001010369,登記記録の閉鎖等,0,2024-01-04,2023-12-21,株式会社アートホテルズ旭川,,株式会社,東京都,港区,六本木６丁目２番３１号,,13,103,1060032,,,2023-12-21,清算の結了等,,,2015-10-05,1,,,,,アートホテルズアサヒカワ,0
1539,7010001153608,登記記録の閉鎖等,0,2024-01-04,2023-12-25,株式会社メディカルサービス,,株式会社,東京都,中央区,京橋１丁目４番１０号,,13,102,1040031,,,2023-12-25,合併による解散等,1010001081558,令和５年１２月２５日東京都中央区新川一丁目６番１１号株式会社メディカルサービス（1010001081558）に合併し解散,2015-10-05,1,,,,,メディカルサービス,0
1559,7010403011900,登記記録の閉鎖等,0,2024-01-04,2023-12-21,弘前ホテル・マネジメント合同会社,,合同会社,東京都,港区,六本木６丁目２番３１号,,13,103,1060032,,,2023-12-21,清算の結了等,,,2015-10-05,1,,,,,ヒロサキホテルマネジメント,0
1572,7010902011260,登記記録の閉鎖等,0,2024-01-04,2023-12-21,有限会社七尾石材店,,有限会社,東京都,世田谷区,中町２丁目４番１８号,,13,112,1580091,,,2023-12-21,清算の結了等,,,2015-10-05,1,,,,,ナナオセキザイテン,0
1579,7011101046750,登記記録の閉鎖等,0,2024-01-04,2023-12-26,株式会社美山,,株式会社,東京都,新宿区,西新宿６丁目２６番８号小西ビル３０１号,,13,104,1600023,,,2023-12-26,清算の結了等,,,2015-10-05,1,,,,,ミヤマ,0
1589,7011401006116,登記記録の閉鎖等,0,2024-01-04,2023-12-27,三園運輸株式会社,,株式会社,東京都,板橋区,三園２丁目１５番２２号榎本ビル２０３号,,13,119,1750091,,,2023-12-27,清算の結了等,,,2015-10-05,1,,,,,ミソノウンユ,0
1591,7011501025890,登記記録の閉鎖等,0,2024-01-04,2023-12-27,大桔株式会社,,株式会社,東京都,板橋区,上板橋３丁目２０－８ＭＯＤＥビル２０３,,13,119,1740076,,,2023-12-27,清算の結了等,,,2020-06-08,1,,,,,ダイキ,0
1596,7011702011112,登記記録の閉鎖等,0,2024-01-04,2023-12-26,有限会社丸和,,有限会社,東京都,江戸川区,東松本２丁目９番１７号,,13,123,1330071,,,2023-12-26,清算の結了等,,,2015-10-05,1,,,,,マルワ,0
1608,7012701001789,登記記録の閉鎖等,0,2024-01-04,2023-12-27,株式会社フォト．プロセス,,株式会社,東京都,東村山市,久米川町２丁目３１番１１号,,13,213,1890003,,,2023-12-27,清算の結了等,,,2015-10-05,1,,,,,フォトプロセス,0
1613,7013301046555,登記記録の閉鎖等,0,2024-01-04,2023-12-20,株式会社Ｐｈａｒｓｉｇｈｔ,,株式会社,東京都,豊島区,南大塚２丁目１１番１０号ミモザビル３階,,13,116,1700005,,,2023-12-20,清算の結了等,,,2020-11-27,1,,,,,ファーサイト,0
1615,7013302001550,登記記録の閉鎖等,0,2024-01-04,2023-12-22,有限会社大竹出版,,有限会社,東京都,豊島区,池袋３丁目１６番８号,,13,116,1710014,,,2023-12-22,清算の結了等,,,2015-10-05,1,,,,,オオタケシュッパン,0
1626,7021001008189,登記記録の閉鎖等,0,2024-01-04,2023-12-26,株式会社真栄,,株式会社,神奈川県,茅ヶ崎市,幸町２番１１－５０１,,14,207,2530052,,,2023-12-26,清算の結了等,,,2015-10-05,1,,,,,,0
1634,7030001066980,登記記録の閉鎖等,0,2024-01-04,2023-12-25,株式会社大創ホーム,,株式会社,埼玉県,越谷市,千間台東４丁目１１１１番地７,,11,222,3430042,,,2023-12-25,清算の結了等,,,2015-10-05,1,,,,,ダイソウホーム,0
1635,7030001074315,登記記録の閉鎖等,0,2024-01-04,2023-12-26,一電設工業株式会社,,株式会社,埼玉県,川口市,大字安行領根岸１２８１番地,,11,203,3330834,,,2023-12-26,清算の結了等,,,2015-10-05,1,,,,,イチデンセツコウギョウ,0
1641,7030002096408,登記記録の閉鎖等,0,2024-01-04,2023-12-22,有限会社山岸材木店,,有限会社,埼玉県,東松山市,材木町１０番１２号,,11,212,3550016,,,2023-12-22,清算の結了等,,,2015-10-05,1,,,,,ヤマギシザイモクテン,0
1652,7040002100548,登記記録の閉鎖等,0,2024-01-04,2023-12-19,有限会社ケイ・アンド・ケイ,,有限会社,千葉県,南房総市,宮下６２３番地の１,,12,234,2992505,,,2023-12-19,清算の結了等,,,2015-10-05,1,,,,,ケイアンドケイ,0
1660,7060002030727,登記記録の閉鎖等,0,2024-01-04,2023-12-26,有限会社ひまわり書店,,有限会社,栃木県,下野市,石橋５１６番地３,,09,216,3290511,,,2023-12-26,清算の結了等,,,2015-10-05,1,,,,,ヒマワリショテン,0
1662,7070001011826,登記記録の閉鎖等,0,2024-01-04,2023-12-25,株式会社津上精螺群馬製作所,,株式会社,群馬県,甘楽郡甘楽町,大字上野３０７２番地,,10,384,3702201,,,2023-12-25,清算の結了等,,,2015-10-05,1,,,,,ツガミセイラグンマセイサクショ,0
1664,7080002003929,登記記録の閉鎖等,0,2024-01-04,2023-12-26,有限会社土屋建築設計事務所,,有限会社,静岡県,静岡市葵区,南沼上３丁目８番２１－２号,,22,101,4200905,,,2023-12-26,清算の結了等,,,2015-10-05,1,,,,,ツチヤケンチクセッケイジムショ,0
1671,7080402018254,登記記録の閉鎖等,0,2024-01-04,2023-12-26,有限会社ダイキュウ,,有限会社,静岡県,掛川市,三俣１３５０番地の１,,22,213,4371416,,,2023-12-26,清算の結了等,,,2015-10-05,1,,,,,ダイキュウ,0
1672,7090002010305,登記記録の閉鎖等,0,2024-01-04,2023-12-28,有限会社鈴木ニュースサービス,,有限会社,山梨県,都留市,中央３丁目１番１０号,,19,204,4020052,,,2023-12-28,清算の結了等,,,2015-10-05,1,,,,,スズキニュースサービス,0
1673,7100001026804,登記記録の閉鎖等,0,2024-01-04,2023-12-25,株式会社リバース,,株式会社,長野県,松本市,大字今井６５７７番地１,,20,202,3901131,,,2023-12-25,清算の結了等,,,2015-10-05,1,,,,,リバース,0
1676,7120001055124,登記記録の閉鎖等,0,2024-01-04,2023-12-22,株式会社工藝社,,株式会社,大阪府,大阪市淀川区,三津屋南２丁目８番５号,,27,123,5320035,,,2023-12-22,清算の結了等,,,2015-10-05,1,,,,,,0
1681,7120001196835,登記記録の閉鎖等,0,2024-01-04,2023-12-22,株式会社ネクスト,,株式会社,北海道,札幌市南区,石山東７丁目２番２７号,,01,106,0050850,,,2023-12-22,清算の結了等,,,2016-03-11,1,,,,,ネクスト,0
1700,7122005000543,登記記録の閉鎖等,0,2024-01-04,2023-12-28,大神教明神中教会,,その他の設立登記法人,大阪府,東大阪市,足代２丁目９番地,,27,227,5770841,,,2023-12-28,清算の結了等,,,2015-10-05,1,,,,,,0
1701,7130001031339,登記記録の閉鎖等,0,2024-01-04,2023-12-27,株式会社丹波亭,,株式会社,京都府,京都市伏見区,深草向川原町２４番地,,26,109,6128404,,,2023-12-27,清算の結了等,,,2015-10-05,1,,,,,タンバテイ,0
1736,7210001016901,登記記録の閉鎖等,0,2024-01-04,2023-12-25,株式会社ＩＮ　ＲＨＹＭＥ,,株式会社,福井県,福井市,松本３丁目５番１号,,18,201,9100003,,,2023-12-25,清算の結了等,,,2017-09-21,1,,,,,,0
1741,7240002032366,登記記録の閉鎖等,0,2024-01-04,2023-12-22,有限会社扇電工,,有限会社,広島県,呉市,広塩焼１丁目５番５号,,34,202,7370103,,,2023-12-22,清算の結了等,,,2015-10-05,1,,,,,オウギデンコウ,0
1743,7250001001593,登記記録の閉鎖等,0,2024-01-04,2023-12-26,株式会社人事情報システム,,株式会社,山口県,山口市,矢原１４５５番地１,,35,203,7530861,,,2023-12-26,清算の結了等,,,2015-10-05,1,,,,,ジンジジョウホウシステム,0
1745,7250001005116,登記記録の閉鎖等,0,2024-01-04,2023-12-27,岩中建設株式会社,,株式会社,山口県,下関市,幡生宮の下町８番１９号,,35,201,7510829,,,2023-12-27,清算の結了等,,,2015-10-05,1,,,,,イワナカケンセツ,0
1760,7290001073497,登記記録の閉鎖等,0,2024-01-04,2023-12-25,株式会社エールエステート,,株式会社,福岡県,福岡市南区,井尻４丁目３４番２０号,,40,134,8111302,,,2023-12-25,清算の結了等,,,2016-04-11,1,,,,,,0
1765,7290002026066,登記記録の閉鎖等,0,2024-01-04,2023-12-25,有限会社宝積水産,,有限会社,福岡県,福岡市早良区,荒江２丁目３番１６－４０４号,,40,137,8140021,,,2023-12-25,清算の結了等,,,2015-10-05,1,,,,,ホウヂャクスイサン,0
1766,7290002050248,登記記録の閉鎖等,0,2024-01-04,2023-12-25,有限会社山下グリーンライフ,,有限会社,福岡県,久留米市,長門石５丁目３番１４号,,40,203,8300027,,,2023-12-25,清算の結了等,,,2015-10-05,1,,,,,ヤマシタグリーンライフ,0
1767,7290003008534,登記記録の閉鎖等,0,2024-01-04,2023-12-26,西丸商事合同会社,,合同会社,福岡県,福岡市中央区,今泉１丁目２０番２１号,,40,133,8100021,,,2023-12-26,清算の結了等,,,2018-11-15,1,,,,,ニシマルショウジ,0
1769,7290801020013,登記記録の閉鎖等,0,2024-01-04,2023-12-28,株式会社マキテック,,株式会社,福岡県,北九州市八幡西区,洞北町３番１５号,,40,109,8070811,,,2023-12-28,清算の結了等,,,2015-10-05,1,,,,,マキテック,0
1772,7300002010555,登記記録の閉鎖等,0,2024-01-04,2023-12-25,有限会社中山教育企画,,有限会社,佐賀県,唐津市,和多田南先石６番３５号,,41,202,8470081,,,2023-12-25,清算の結了等,,,2015-10-05,1,,,,,ナカヤマキョウイクキカク,0
1787,7380002019671,登記記録の閉鎖等,0,2024-01-04,2023-12-26,有限会社エイブル,,有限会社,福島県,須賀川市,季の郷５０２番地,,07,207,9620405,,,2023-12-26,清算の結了等,,,2015-10-05,1,,,,,エイブル,0
1788,7390002006702,登記記録の閉鎖等,0,2024-01-04,2023-12-27,有限会社サンデザイン,,有限会社,山形県,山形市,蔵王半郷２３３４－９,,06,201,9902305,,,2023-12-27,清算の結了等,,,2015-10-05,1,,,,,サンデザイン,0
1791,7420001001403,登記記録の閉鎖等,0,2024-01-04,2023-12-22,株式会社津島自動車,,株式会社,青森県,青森市,大字石江字三好１６８番地５,,02,201,0380003,,,2023-12-22,清算の結了等,,,2015-10-05,1,,,,,ツシマジドウシャ,0
1822,8010003015391,登記記録の閉鎖等,0,2024-01-04,2023-12-20,合同会社エビアン,,合同会社,東京都,港区,港南２丁目１５番３号,,13,103,1080075,,,2023-12-20,清算の結了等,,,2015-10-05,1,,,,,エビアン,0
1839,8010403000282,登記記録の閉鎖等,0,2024-01-04,2023-12-21,松本合名会社,,合名会社,東京都,港区,三田２丁目１番４７エクシードメゾン三田２０１号,,13,103,1080073,,,2023-12-21,清算の結了等,,,2015-10-05,1,,,,,モツモト,0
1841,8010403025230,登記記録の閉鎖等,0,2024-01-04,2023-12-20,ＲＢソーラーパッション１合同会社,,合同会社,東京都,港区,虎ノ門３丁目２２番１０－２０１号,,13,103,1050001,,,2023-12-20,清算の結了等,,,2021-04-30,1,,,,,アールビーソーラーパッションワン,0
1876,8012302005065,登記記録の閉鎖等,0,2024-01-04,2023-12-22,有限会社横田製作所,,有限会社,東京都,町田市,小川３丁目２番地６３,,13,209,1940003,,,2023-12-22,清算の結了等,,,2015-10-05,1,,,,,ヨコタセイサクショ,0
1882,8012405004501,登記記録の閉鎖等,0,2024-01-04,2023-12-26,一般社団法人オーナー総合支援協会,,その他の設立登記法人,東京都,稲城市,百村５９５番地の９,,13,225,2060804,,,2023-12-26,清算の結了等,,,2020-10-16,1,,,,,オーナーソウゴウシエンキョウカイ,0
1888,8020001025788,登記記録の閉鎖等,0,2024-01-04,2023-12-22,株式会社おもちやのマリヤ,,株式会社,神奈川県,横浜市南区,井土ケ谷上町４１番１１号,,14,105,2320051,,,2023-12-22,清算の結了等,,,2015-10-05,1,,,,,オモチヤノマリヤ,0
1908,8030001043137,登記記録の閉鎖等,0,2024-01-04,2023-12-22,株式会社ＭＳＫ,,株式会社,埼玉県,桶川市,大字坂田１５５８番地の８０,,11,231,3630008,,,2023-12-22,清算の結了等,,,2015-10-05,1,,,,,エムエスケー,0
1911,8030002121759,登記記録の閉鎖等,0,2024-01-04,2023-12-25,有限会社丸仁,,有限会社,埼玉県,秩父市,蒔田２３２９番地,,11,207,3680062,,,2023-12-25,清算の結了等,,,2015-10-05,1,,,,,マルニ,0
1912,8040001072507,登記記録の閉鎖等,0,2024-01-04,2023-12-20,株式会社せいよう,,株式会社,千葉県,野田市,古布内５３９番地７,,12,208,2700221,,,2023-12-20,清算の結了等,,,2015-10-05,1,,,,,セイヨウ,0
1930,8080002017481,登記記録の閉鎖等,0,2024-01-04,2023-12-26,有限会社桑原モータース,,有限会社,静岡県,藤枝市,青木２丁目１３番８号,,22,214,4260037,,,2023-12-26,清算の結了等,,,2015-10-05,1,,,,,クワバラモータース,0
1942,8120001103947,登記記録の閉鎖等,0,2024-01-04,2023-12-27,デルソル株式会社,,株式会社,大阪府,大阪市中央区,森ノ宮中央１丁目７番１２号,,27,128,5400003,,,2023-12-27,清算の結了等,,,2015-10-05,1,,,,,デルソル,0
1966,8120902005993,登記記録の閉鎖等,0,2024-01-04,2023-12-26,有限会社クレッシェンド,,有限会社,大阪府,吹田市,藤白台３丁目５番２－１００５号,,27,205,5650873,,,2023-12-26,清算の結了等,,,2015-10-05,1,,,,,クレッシェンド,0
1974,8130002028903,登記記録の閉鎖等,0,2024-01-04,2023-12-27,有限会社ゴトウ設備設計所,,有限会社,京都府,亀岡市,西つつじケ丘大山台２丁目１番７号,,26,206,6210843,,,2023-12-27,清算の結了等,,,2015-10-05,1,,,,,,0
1975,8140001031221,登記記録の閉鎖等,0,2024-01-04,2023-12-26,ＢＲＩＣ’ｓ　ＥＣＯ　ＪＡＰＡＮ株式会社,,株式会社,兵庫県,神戸市西区,櫨谷町福谷７３０番地４１,,28,111,6512233,,,2023-12-26,清算の結了等,,,2015-10-05,1,,,,,ブリックスエコジャパン,0
1977,8140001088179,登記記録の閉鎖等,0,2024-01-04,2023-12-25,株式会社Ｋ＆Ｋ,,株式会社,兵庫県,尼崎市,名神町１丁目１８番２５号,,28,202,6610021,,,2023-12-25,合併による解散等,3140001048765,令和５年１２月２５日兵庫県尼崎市武庫之荘三丁目２０番１号後藤産業株式会社（3140001048765）に合併し解散,2015-10-05,1,,,,,ケイアンドケイ,0
1979,8140005014305,登記記録の閉鎖等,0,2024-01-04,2023-12-26,洗心教善心教会,,その他の設立登記法人,兵庫県,姫路市,野里慶雲寺前町８番９号,,28,201,6700813,,,2023-12-26,清算の結了等,,,2015-10-05,1,,,,,センシンキョウゼンシンキョウカイ,0
1992,8180002072319,登記記録の閉鎖等,0,2024-01-04,2023-12-26,有限会社丸一柴田,,有限会社,愛知県,瀬戸市,品野町２丁目２７番地,,23,204,4801207,,,2023-12-26,清算の結了等,,,2015-10-05,1,,,,,マルイチシバタ,0
2000,8190002020318,登記記録の閉鎖等,0,2024-01-04,2023-12-26,有限会社三成サービス,,有限会社,三重県,四日市市,大字塩浜４３９番地の４,,24,202,5100863,,,2023-12-26,清算の結了等,,,2015-10-05,1,,,,,,0
2002,8210001007577,登記記録の閉鎖等,0,2024-01-04,2023-12-22,武川織マーク株式会社,,株式会社,福井県,坂井市,丸岡町里竹田第３号１６番地,,18,210,9100277,,,2023-12-22,清算の結了等,,,2015-10-05,1,,,,,タケカワオリマーク,0
2027,8330002000239,登記記録の閉鎖等,0,2024-01-04,2023-12-25,有限会社曙産業,00097513,有限会社,熊本県,熊本市中央区,神水本町１２番３８号,,43,101,8620955,,,2023-12-25,清算の結了等,,,2015-10-05,1,,,,,アケボノサンギョウ,0
2031,8350001000436,登記記録の閉鎖等,0,2024-01-04,2023-12-26,菊池産業株式会社,00100437,株式会社,宮崎県,宮崎市,南花ケ島町３４１番地１,,45,201,8800055,,,2023-12-26,清算の結了等,,,2015-10-05,1,,,,,キクチサンギョウ,0
2040,8410001010701,登記記録の閉鎖等,0,2024-01-04,2023-12-26,株式会社羽後の國ファーム,,株式会社,秋田県,雄勝郡東成瀬村,田子内字上林１８番地３,,05,464,0190801,,,2023-12-26,清算の結了等,,,2015-10-05,1,,,,,ウゴノクニファーム,0
2044,8440002001036,登記記録の閉鎖等,0,2024-01-04,2023-12-27,有限会社兼ツ綱森商店,,有限会社,北海道,函館市,五稜郭町２８番２号,,01,202,0400001,,,2023-12-27,清算の結了等,,,2015-10-05,1,,,,,カネツツナモリショウテン,0
2048,8470001017047,登記記録の閉鎖等,0,2024-01-04,2023-12-27,デジタルパック株式会社,,株式会社,香川県,仲多度郡まんのう町,炭所西８００番地,,37,406,7660017,,,2023-12-27,清算の結了等,,,2018-08-29,1,,,,,デジタルパック,0
2061,9010001066626,登記記録の閉鎖等,0,2024-01-04,2023-12-25,株式会社並木伸好デザインルーム,,株式会社,東京都,千代田区,東神田１丁目１０番４号,,13,101,1010031,,,2023-12-25,清算の結了等,,,2015-10-05,1,,,,,ナミキノブヨシデザインルーム,0
2062,9010001222856,登記記録の閉鎖等,0,2024-01-04,2023-12-22,株式会社Ｏｆｆｉｃｅ　ＵＮＩ,,株式会社,東京都,千代田区,神田神保町１丁目６０,,13,101,1010051,,,2023-12-22,清算の結了等,,,2021-12-02,1,,,,,オフィスウニ,0
2076,9010602016707,登記記録の閉鎖等,0,2024-01-04,2023-12-26,有限会社鈴木製作所,,有限会社,東京都,墨田区,京島２丁目７番４号,,13,107,1310046,,,2023-12-26,清算の結了等,,,2015-10-05,1,,,,,スズキセイサクショ,0
2084,9010902008429,登記記録の閉鎖等,0,2024-01-04,2023-12-21,有限会社世田谷コーンブルメ,,有限会社,東京都,世田谷区,野沢３丁目３５番７号,,13,112,1540003,,,2023-12-21,清算の結了等,,,2015-10-05,1,,,,,セタガヤコーンブルメ,0
2087,9011001002595,登記記録の閉鎖等,0,2024-01-04,2023-12-25,株式会社イノベーションリサーチジャパン,,株式会社,東京都,渋谷区,神宮前６丁目１８番１号クレインズパーク,,13,113,1500001,,,2023-12-25,合併による解散等,4011001022268,令和５年１２月２５日東京都渋谷区神宮前六丁目１８番１号クレインズパーク株式会社マリオン（4011001022268）に合併し解散,2015-10-05,1,,,,,イノベーションリサーチジャパン,0
2120,9013301046768,登記記録の閉鎖等,0,2024-01-04,2023-12-20,株式会社エウロパ,,株式会社,東京都,豊島区,南大塚２丁目１１番１０号ミモザビル３階,,13,116,1700005,,,2023-12-20,清算の結了等,,,2021-01-18,1,,,,,エウロパ,0
2122,9020001007059,登記記録の閉鎖等,0,2024-01-04,2023-12-25,株式会社伊藤車体,,株式会社,神奈川県,横浜市戸塚区,下倉田町７４番地１,,14,110,2440815,,,2023-12-25,清算の結了等,,,2015-10-05,1,,,,,イトウシャタイ,0
2130,9020002098683,登記記録の閉鎖等,0,2024-01-04,2023-12-25,有限会社萩名設備工業,,有限会社,神奈川県,川崎市川崎区,四谷上町４番８号,,14,131,2100828,,,2023-12-25,清算の結了等,,,2015-10-05,1,,,,,ハギナセツビコウギョウ,0
2138,9021002057753,登記記録の閉鎖等,0,2024-01-04,2023-12-26,有限会社近藤商事,,有限会社,神奈川県,平塚市,中原２丁目５番３号,,14,203,2540075,,,2023-12-26,清算の結了等,,,2015-10-05,1,,,,,コンドウショウジ,0
2141,9030001055180,登記記録の閉鎖等,0,2024-01-04,2023-12-25,株式会社テスコ志木,,株式会社,埼玉県,川越市,川鶴１丁目１６番地６,,11,201,3501176,,,2023-12-25,清算の結了等,,,2015-10-05,1,,,,,テスコシキ,0
2148,9040001110967,登記記録の閉鎖等,0,2024-01-04,2023-12-11,株式会社ベイサイドホールディングス,,株式会社,千葉県,千葉市美浜区,中瀬２丁目６－１ＷＢＧマリブウェスト２５Ｆ,,12,106,2610023,,,2023-12-11,合併による解散等,1040001033036,令和５年１２月１日千葉県鎌ケ谷市くぬぎ山五丁目１番２６号株式会社檪山交通（1040001033036）に合併し解散,2019-10-23,1,,,,,ベイサイドホールディングス,0
2152,9040002007312,登記記録の閉鎖等,0,2024-01-04,2023-12-19,有限会社チームオーガスト,,有限会社,千葉県,千葉市稲毛区,園生町４８７番地,,12,103,2630051,,,2023-12-19,清算の結了等,,,2015-10-05,1,,,,,チームオーガスト,0
2153,9040002045948,登記記録の閉鎖等,0,2024-01-04,2023-12-22,有限会社坂電,,有限会社,千葉県,松戸市,八ケ崎８丁目２５番地の９,,12,207,2700023,,,2023-12-22,清算の結了等,,,2015-10-05,1,,,,,,0
2157,9060001015520,登記記録の閉鎖等,0,2024-01-04,2023-12-12,トライワーク株式会社,,株式会社,栃木県,小山市,西城南７丁目４番地４,,09,208,3230820,,,2023-12-12,合併による解散等,2060001014891,令和５年１２月１日栃木県小山市西城南七丁目４番地４ジャパンホールディングス株式会社（2060001014891）に合併し解散,2015-10-05,1,,,,,トライワーク,0
2162,9060002035674,登記記録の閉鎖等,0,2024-01-04,2023-12-25,有限会社小笠原機設工業,,有限会社,栃木県,足利市,江川町１丁目９番地５,,09,202,3260067,,,2023-12-25,清算の結了等,,,2015-10-05,1,,,,,オガサワラキセツコウギョウ,0
2169,9080102004164,登記記録の閉鎖等,0,2024-01-04,2023-12-27,有限会社岡村工業,,有限会社,静岡県,裾野市,伊豆島田５４６番地の８,,22,220,4101123,,,2023-12-27,清算の結了等,,,2015-10-05,1,,,,,オカムラコウギョウ,0
2181,9120001175688,登記記録の閉鎖等,0,2024-01-04,2023-12-27,株式会社エムケイサービス,,株式会社,兵庫県,宝塚市,桜ガ丘１１番１５号,,28,214,6650846,,,2023-12-27,清算の結了等,,,2015-10-05,1,,,,,エムケイサービス,0
2183,9120001240327,登記記録の閉鎖等,0,2024-01-04,2023-12-27,株式会社ずんだ,,株式会社,大阪府,大阪市東住吉区,住道矢田４丁目６番３０号レオネクストサレ１０３号,,27,121,5460022,,,2023-12-27,清算の結了等,,,2021-09-10,1,,,,,ズンダ,0
2198,9120002043943,登記記録の閉鎖等,0,2024-01-04,2023-12-22,有限会社ディーアンドディートレーディング,,有限会社,大阪府,大阪市中央区,船場中央４丁目１－１０－１２８,,27,128,5410055,,,2023-12-22,清算の結了等,,,2015-10-05,1,,,,,ディーアンドディートレーディング,0
2214,9130002002634,登記記録の閉鎖等,0,2024-01-04,2023-12-20,有限会社寺ノ内吉川タンス,,有限会社,京都府,京都市上京区,堀川通リ上立売上ル竹屋町５８４番地,,26,102,6020000,,,2023-12-20,合併による解散等,3130002003118,令和５年１２月２０日京都市上京区堀川通上立売上ル竹屋町５８４番地株式会社ライフガード（3130002003118）に合併し解散,2015-10-05,1,,,,,テラノウチヨシカワタンス,0
2220,9140001079185,登記記録の閉鎖等,0,2024-01-04,2023-12-25,エス・シ・テック株式会社,,株式会社,兵庫県,川西市,けやき坂２丁目３１番地の１５,,28,217,6660145,,,2023-12-25,清算の結了等,,,2015-10-05,1,,,,,エスシテック,0
2225,9140003018521,登記記録の閉鎖等,0,2024-01-04,2023-12-27,合同会社ａｕｒｏｒｅ,,合同会社,兵庫県,西宮市,江上町２番１２号,,28,204,6620855,,,2023-12-27,清算の結了等,,,2022-12-28,1,,,,,オーロール,0
2227,9140005015021,登記記録の閉鎖等,0,2024-01-04,2023-12-27,特定非営利活動法人応用生物科学研究所,,その他の設立登記法人,兵庫県,姫路市,砥堀７９番地の６,,28,201,6700802,,,2023-12-27,清算の結了等,,,2015-10-05,1,,,,,オウヨウセイブツカガクケンキュウショ,0
2246,9180301013385,登記記録の閉鎖等,0,2024-01-04,2023-12-22,株式会社南工業,,株式会社,愛知県,安城市,南町７番１９号,,23,212,4460034,,,2023-12-22,清算の結了等,,,2015-10-05,1,,,,,ミナミコウギョウ,0
2253,9230002008695,登記記録の閉鎖等,0,2024-01-04,2023-12-27,有限会社Ｍ＆Ｐ,,有限会社,富山県,魚津市,友道１１５８番地,,16,204,9370806,,,2023-12-27,清算の結了等,,,2015-10-05,1,,,,,エムアンドピー,0
2255,9240001028900,登記記録の閉鎖等,0,2024-01-04,2023-12-25,光コンクリート工業株式会社,,株式会社,広島県,廿日市市,城内３丁目７番１８号,,34,213,7380007,,,2023-12-25,清算の結了等,,,2015-10-05,1,,,,,ヒカリコンクリートコウギョウ,0
2263,9260002015953,登記記録の閉鎖等,0,2024-01-04,2023-12-28,有限会社創栄社,,有限会社,岡山県,岡山市北区,西之町１５－１０３,,33,101,7000916,,,2023-12-28,清算の結了等,,,2015-10-05,1,,,,,ソウエイシャ,0
2265,9270002002083,登記記録の閉鎖等,0,2024-01-04,2023-12-28,有限会社鳥取市町村厚生,,有限会社,鳥取県,鳥取市,扇町３２番地,,31,201,6800846,,,2023-12-28,清算の結了等,,,2015-10-05,1,,,,,トットリシチョウソンコウセイ,0
2267,9290001029448,登記記録の閉鎖等,0,2024-01-04,2023-12-26,株式会社メープル,,株式会社,福岡県,福岡市中央区,天神３丁目２番１９号,,40,133,8100001,,,2023-12-26,清算の結了等,,,2015-10-05,1,,,,,,0
2284,9370301002559,登記記録の閉鎖等,0,2024-01-04,2023-12-26,株式会社栃木屋,,株式会社,宮城県,石巻市,鹿又字道的前６０番地１,,04,202,9861111,,,2023-12-26,清算の結了等,,,2015-10-05,1,,,,,トチギヤ,0
2299,9500002021150,登記記録の閉鎖等,0,2024-01-04,2023-12-27,有限会社翠波商事,,有限会社,愛媛県,四国中央市,三島宮川３丁目３番２５号,,38,213,7990404,,,2023-12-27,清算の結了等,,,2015-10-05,1,,,,,スイハショウジ,0
