sequenceNumber,corporateNumber,process,correct,updateDate,changeDate,name,nameImageId,kind,prefectureName,cityName,streetNumber,addressImageId,prefectureCode,cityCode,postCode,addressOutside,addressOutsideImageId,closeDate,closeCause,successorCorporateNumber,changeCause,assignmentDate,latest,enName,enPrefectureName,enCityName,enAddressOutside,furigana,hihyoji
13,1010003031065,登記記録の閉鎖等,0,2024-12-13,2024-11-29,合同会社ＡＭ　ａｌｐｈａ　Ｏｎｅ,,合同会社,東京都,千代田区,丸の内３丁目１番１号東京共同会計事務所内,,13,101,1000005,,,2024-11-29,清算の結了等,,,2019-11-15,1,,,,,エーエムアルファワン,0
35,1010401160358,登記記録の閉鎖等,0,2024-12-13,2024-11-28,株式会社ＧＬＡＭ,,株式会社,東京都,港区,赤坂２丁目１６番１３号パークヒルズ赤坂２０２,,13,103,1070052,,,2024-11-28,清算の結了等,,,2021-05-25,1,,,,,グラム,0
41,1010405009502,登記記録の閉鎖等,0,2024-12-13,2024-11-29,特定非営利活動法人コミュニティ活動支援機構,,その他の設立登記法人,東京都,港区,赤坂２丁目１７番６２号ヒルトップ赤坂３Ｆ,,13,103,1070052,,,2024-11-29,清算の結了等,,,2015-10-05,1,,,,,コミュニティカツドウシエンキコウ,0
44,1010501022210,登記記録の閉鎖等,0,2024-12-13,2024-12-06,株式会社渡邊設計,,株式会社,東京都,台東区,東上野５丁目１７番８号,,13,106,1100015,,,2024-12-06,清算の結了等,,,2015-10-05,1,,,,,ワタナベセッケイ,0
54,1010702005055,登記記録の閉鎖等,0,2024-12-13,2024-12-09,有限会社田代企画,,有限会社,東京都,品川区,西五反田２丁目６番３号東洋ビル１０８号室,,13,109,1410031,,,2024-12-09,清算の結了等,,,2015-10-05,1,,,,,タシロキカク,0
56,1010802020508,登記記録の閉鎖等,0,2024-12-13,2024-12-05,株式会社フラップクリエイツ,,株式会社,東京都,大田区,中馬込３丁目２０番２３号,,13,111,1430027,,,2024-12-05,清算の結了等,,,2015-10-05,1,,,,,フラップクリエイツ,0
69,1011101072224,登記記録の閉鎖等,0,2024-12-13,2024-12-09,盛鋒貿易株式会社,,株式会社,東京都,墨田区,八広２丁目５９番１号１階,,13,107,1310041,,,2024-12-09,清算の結了等,,,2015-10-05,1,,,,,セイホウボウエキ,0
89,1012803002187,登記記録の閉鎖等,0,2024-12-13,2024-12-06,エムラインカーゴ合同会社,,合同会社,東京都,立川市,錦町１丁目４番４号サニービル２Ｆ・ＣＳ－６６,,13,202,1900022,,,2024-12-06,清算の結了等,,,2020-01-08,1,,,,,エムラインカーゴ,0
107,1021002011107,登記記録の閉鎖等,0,2024-12-13,2024-12-11,有限会社コロナ鉄工所,,有限会社,神奈川県,茅ヶ崎市,茅ヶ崎３丁目３番５号,,14,207,2530041,,,2024-12-11,清算の結了等,,,2015-10-05,1,,,,,コロナテッコウショ,0
119,1040002008573,登記記録の閉鎖等,0,2024-12-13,2024-12-11,有限会社中島瓦店,,有限会社,千葉県,千葉市花見川区,南花園１丁目１３番８号,,12,102,2620022,,,2024-12-11,清算の結了等,,,2015-10-05,1,,,,,ナカジマカワラテン,0
120,1040002101725,登記記録の閉鎖等,0,2024-12-13,2024-12-06,有限会社魚重水産,,有限会社,千葉県,いすみ市,大原７８３２番地,,12,238,2980004,,,2024-12-06,清算の結了等,,,2015-10-05,1,,,,,ウオシゲスイサン,0
135,1120001051434,登記記録の閉鎖等,0,2024-12-13,2024-12-10,株式会社かつら商会,,株式会社,大阪府,大阪市東淀川区,豊新４丁目２３番１３号,,27,114,5330014,,,2024-12-10,清算の結了等,,,2015-10-05,1,,,,,カツラショウカイ,0
152,1120105007167,登記記録の閉鎖等,0,2024-12-13,2024-12-11,特定非営利活動法人泉南ふれ愛の里,,その他の設立登記法人,大阪府,泉南市,樽井４丁目３３番４号,,27,228,5900521,,,2024-12-11,清算の結了等,,,2015-10-05,1,,,,,センナンフレアイノサト,0
154,1120901006710,登記記録の閉鎖等,0,2024-12-13,2024-12-05,株式会社ジーツー,,株式会社,大阪府,吹田市,江の木町６番２６号,,27,205,5640053,,,2024-12-05,清算の結了等,,,2015-10-05,1,,,,,ジーツー,0
160,1130001051375,登記記録の閉鎖等,0,2024-12-13,2024-12-11,株式会社サンエスケー,,株式会社,京都府,京都市中京区,西ノ京北壺井町９番地,,26,104,6048472,,,2024-12-11,清算の結了等,,,2015-10-05,1,,,,,サンエスケー,0
166,1130005009907,登記記録の閉鎖等,0,2024-12-13,2024-12-11,福知山小売酒販組合,,その他の設立登記法人,京都府,福知山市,和久市町２２番地の２,,26,201,6200062,,,2024-12-11,清算の結了等,,,2015-10-05,1,,,,,フクチヤマコウリ,0
168,1140001038181,登記記録の閉鎖等,0,2024-12-13,2024-12-09,株式会社吉川アルミ工輝,,株式会社,兵庫県,明石市,鳥羽１５０２番地の３,,28,203,6730003,,,2024-12-09,清算の結了等,,,2015-10-05,1,,,,,ヨシカワアルミコウキ,0
173,1140002036242,登記記録の閉鎖等,0,2024-12-13,2024-12-11,有限会社トーワ工業,,有限会社,兵庫県,加古郡播磨町,古宮４丁目４番１１号,,28,382,6750163,,,2024-12-11,清算の結了等,,,2015-10-05,1,,,,,トーワコウギョウ,0
177,1160001024849,登記記録の閉鎖等,0,2024-12-13,2024-12-11,株式会社生々堂エステート,,株式会社,滋賀県,草津市,西大路町１１番１０号,,25,206,5250037,,,2024-12-11,清算の結了等,,,2023-02-21,1,,,,,セイセイドウエステート,0
184,1180001114152,登記記録の閉鎖等,0,2024-12-13,2024-12-06,株式会社ダイハチ,,株式会社,愛知県,名古屋市北区,八龍町１丁目１９番地,,23,103,4620805,,,2024-12-06,清算の結了等,,,2015-10-05,1,,,,,ダイハチ,0
197,1200001004177,登記記録の閉鎖等,0,2024-12-13,2024-12-10,株式会社ハクスイ,,株式会社,岐阜県,岐阜市,早田東町９丁目１９番地,,21,201,5020843,,,2024-12-10,清算の結了等,,,2015-10-05,1,,,,,ハクスイ,0
211,1220001003838,登記記録の閉鎖等,0,2024-12-13,2024-12-10,大久産業株式会社,,株式会社,石川県,金沢市,問屋町１丁目１番地,,17,201,9200061,,,2024-12-10,清算の結了等,,,2015-10-05,1,,,,,ダイキュウサンギョウ,0
227,1290003008267,登記記録の閉鎖等,0,2024-12-13,2024-11-15,合同会社ｆａｍｉｌｌｅ,,合同会社,福岡県,久留米市,大善寺南１丁目２６番１７－１０５号,,40,203,8300070,,,2024-11-15,清算の結了等,,,2018-08-02,1,,,,,ファミーユ,0
234,1350001004435,登記記録の閉鎖等,0,2024-12-13,2024-12-10,パステム南九州株式会社,,株式会社,宮崎県,宮崎市,中村東３丁目５番２南興ビル２０１号,,45,201,8800904,,,2024-12-10,合併による解散等,3340001000623,令和６年１２月１日鹿児島市錦江町９番２５号パステムソリューションズ株式会社（3340001000623）に合併し解散,2015-10-05,1,,,,,パステムミナミキューシュー,0
238,1370001018433,登記記録の閉鎖等,0,2024-12-13,2024-12-04,株式会社エステート愛子,,株式会社,宮城県,仙台市青葉区,上愛子字遠野原３１番地の１４,,04,101,9893124,,,2024-12-04,清算の結了等,,,2015-10-05,1,,,,,エステートアヤシ,0
249,1430001008139,登記記録の閉鎖等,0,2024-12-13,2024-12-10,株式会社社涼和,,株式会社,北海道,札幌市中央区,南十四条西９丁目１番２８号,,01,101,0640914,,,2024-12-10,清算の結了等,,,2015-10-05,1,,,,,シャリョウワ,0
255,1430003014110,登記記録の閉鎖等,0,2024-12-13,2024-12-10,合同会社ＦＫＳ,,合同会社,北海道,札幌市南区,真駒内２５４－１０２,,01,106,0050861,,,2024-12-10,清算の結了等,,,2022-07-20,1,,,,,エフケーエス,0
265,2010001193864,登記記録の閉鎖等,0,2024-12-13,2024-12-02,ＮＲＭグループ株式会社,,株式会社,東京都,千代田区,鍛冶町２丁目９番１２号,,13,101,1010044,,,2024-12-02,合併による解散等,7010001244134,令和６年１２月１日東京都千代田区鍛冶町二丁目９番１２号新ＮＲＭグループ株式会社（7010001244134）に合併し解散,2018-08-09,1,,,,,エヌアールエムグループ,0
286,2010102001091,登記記録の閉鎖等,0,2024-12-13,2024-12-10,有限会社エイブル精工,,有限会社,東京都,八王子市,元本郷町２丁目１番２０号,,13,201,1920051,,,2024-12-10,清算の結了等,,,2015-10-05,1,,,,,エイブルセイコウ,0
294,2010401180165,登記記録の閉鎖等,0,2024-12-13,2024-12-09,株式会社スタートエイド,,株式会社,東京都,港区,麻布十番４丁目１番１号,,13,103,1060045,,,2024-12-09,合併による解散等,5040001103207,令和６年１２月１日千葉県野田市中野台４４０番地の８株式会社ＮＡＫＡＭＵＲＡホールディングス（5040001103207）に合併し解散,2024-02-05,1,,,,,スタートエイド,0
302,2010801002373,登記記録の閉鎖等,0,2024-12-13,2024-12-03,オリエンタルフード株式会社,,株式会社,東京都,大田区,新蒲田１丁目２３番６号,,13,111,1440054,,,2024-12-03,清算の結了等,,,2015-10-05,1,,,,,オリエンタルフード,0
303,2010802000054,登記記録の閉鎖等,0,2024-12-13,2024-12-05,有限会社旭屋質店,,有限会社,東京都,大田区,西糀谷４丁目１３番３号,,13,111,1440034,,,2024-12-05,清算の結了等,,,2015-10-05,1,,,,,アサヒヤシチテン,0
320,2011101091545,登記記録の閉鎖等,0,2024-12-13,2024-12-06,株式会社ＯＺ,,株式会社,東京都,新宿区,歌舞伎町２丁目２２番８号第八金嶋ビル２０３号,,13,104,1600021,,,2024-12-06,清算の結了等,,,2020-06-12,1,,,,,オズ,0
334,2011702017048,登記記録の閉鎖等,0,2024-12-13,2024-12-05,有限会社住佳創建,,有限会社,東京都,江戸川区,中央１丁目１番１６号クレン間々田２０１,,13,123,1320021,,,2024-12-05,清算の結了等,,,2015-10-05,1,,,,,,0
343,2013302006926,登記記録の閉鎖等,0,2024-12-13,2024-12-05,有限会社東協紙芸,,有限会社,東京都,豊島区,長崎２丁目２２番１０号,,13,116,1710051,,,2024-12-05,清算の結了等,,,2015-10-05,1,,,,,トウキョウシゲイ,0
353,2020002043290,登記記録の閉鎖等,0,2024-12-13,2024-12-03,有限会社スドウ,,有限会社,神奈川県,横浜市中区,本牧三之谷８番２０号,,14,104,2310824,,,2024-12-03,清算の結了等,,,2015-10-05,1,,,,,スドウ,0
359,2021002058915,登記記録の閉鎖等,0,2024-12-13,2024-12-11,有限会社トントンタナカ,,有限会社,神奈川県,平塚市,高浜台１５番７号,,14,203,2540805,,,2024-12-11,清算の結了等,,,2015-10-05,1,,,,,トントンタナカ,0
370,2040002015065,登記記録の閉鎖等,0,2024-12-13,2024-11-13,有限会社房江,,有限会社,千葉県,千葉市中央区,春日１丁目２０番２号,,12,101,2600033,,,2024-11-13,合併による解散等,5040002016928,令和６年１０月３１日千葉市中央区春日一丁目２０番２号株式会社房江（5040002016928）に合併し解散,2015-10-05,1,,,,,,0
378,2040003024172,登記記録の閉鎖等,0,2024-12-13,2024-12-06,Ｓｕｎｎｙ　Ｔｒａｄｉｎｇ合同会社,,合同会社,千葉県,山武市,木原字松崎８７番地,,12,237,2891212,,,2024-12-06,清算の結了等,,,2024-01-29,1,,,,,サニートレーディング,0
382,2050001038074,登記記録の閉鎖等,0,2024-12-13,2024-12-10,株式会社桶萬鹿島,,株式会社,茨城県,神栖市,須田字上末吉４２６９番地,,08,232,3140253,,,2024-12-10,清算の結了等,,,2015-10-05,1,,,,,オケマンカシマ,0
401,2120001065334,登記記録の閉鎖等,0,2024-12-13,2024-12-09,株式会社シルバーファイナンス,,株式会社,大阪府,大阪市西成区,松１丁目６番６号,,27,122,5570034,,,2024-12-09,清算の結了等,,,2015-10-05,1,,,,,シルバーファイナンス,0
409,2120001214865,登記記録の閉鎖等,0,2024-12-13,2024-12-09,株式会社ネイチャーライブ,,株式会社,兵庫県,神戸市灘区,六甲山町南六甲１０３４番地１４０,,28,102,6570101,,,2024-12-09,合併による解散等,7010001237872,令和６年１２月１日沖縄県名護市大中一丁目１９番２４号株式会社沖縄アドベンチャートラベル（7010001237872）に合併し解散,2018-07-24,1,,,,,ネイチャーライブ,0
411,2120001247221,登記記録の閉鎖等,0,2024-12-13,2024-11-26,都市油田商事株式会社,,株式会社,大阪府,大阪市中央区,瓦町４丁目３－７ＶＯＲＴ御堂筋本町５０３号,,27,128,5410048,,,2024-11-26,合併による解散等,6120001244017,令和６年１１月２６日大阪市中央区瓦町４－３－７ＶＯＲＴ御堂筋本町５０３号二次資源ホールディングス株式会社（6120001244017）に合併し解散,2022-07-08,1,,,,,トシユデンショウジ,0
443,2140002014313,登記記録の閉鎖等,0,2024-12-13,2024-12-09,有限会社真誠堂メガネ店,,有限会社,兵庫県,神戸市中央区,元町通４丁目６番８号,,28,110,6500022,,,2024-12-09,清算の結了等,,,2015-10-05,1,,,,,シンセイドウメガネテン,0
452,2150002008818,登記記録の閉鎖等,0,2024-12-13,2024-12-12,株式会社香芝製作所,,株式会社,奈良県,香芝市,真美ヶ丘３丁目１３番１０号,,29,210,6390223,,,2024-12-12,清算の結了等,,,2015-10-05,1,,,,,カシバセイサクショ,0
453,2150005009144,登記記録の閉鎖等,0,2024-12-13,2024-12-09,特定非営利活動法人手力男,,その他の設立登記法人,奈良県,奈良市,下狭川町２４番地２,,29,201,6301102,,,2024-12-09,清算の結了等,,,2020-01-23,1,,,,,タヂカラオ,0
456,2170003001489,登記記録の閉鎖等,0,2024-12-13,2024-12-11,相談支援事業所中合同会社,,合同会社,和歌山県,和歌山市,紀三井寺４５２番地１０,,30,201,6410012,,,2024-12-11,清算の結了等,,,2020-09-07,1,,,,,ソウダンジギョウショナカ,0
464,2180002079666,登記記録の閉鎖等,0,2024-12-13,2024-12-04,有限会社Ｍ＆Ｄ,,有限会社,愛知県,一宮市,長島町１丁目２番地,,23,203,4910071,,,2024-12-04,清算の結了等,,,2015-10-05,1,,,,,エムアンドディー,0
479,2240001040531,登記記録の閉鎖等,0,2024-12-13,2024-12-09,株式会社ヴェルドゥーノ,,株式会社,広島県,広島市中区,広瀬北町９番４－１２０１号,,34,101,7300803,,,2024-12-09,清算の結了等,,,2015-10-05,1,,,,,ヴェルドゥーノ,0
487,2280003001767,登記記録の閉鎖等,0,2024-12-13,2024-12-12,Ｖｉｋａｓ合同会社,,合同会社,島根県,出雲市,西園町３７５０―３,,32,203,6930041,,,2024-12-12,清算の結了等,,,2023-09-11,1,,,,,ヴィカス,0
500,2310002021003,登記記録の閉鎖等,0,2024-12-13,2024-12-10,佐世保西海陸送有限会社,,有限会社,長崎県,佐世保市,俵町２４番２５号,,42,202,8570016,,,2024-12-10,清算の結了等,,,2024-10-16,1,,,,,サセボサイカイリクソウ,0
502,2330002029688,登記記録の閉鎖等,0,2024-12-13,2024-12-09,有限会社四丸海運,,有限会社,熊本県,上天草市,大矢野町登立１２４９８番地の１,,43,212,8693601,,,2024-12-09,清算の結了等,,,2015-10-05,1,,,,,シマルカイウン,0
508,2370001006379,登記記録の閉鎖等,0,2024-12-13,2024-12-02,株式会社渡喜,,株式会社,宮城県,仙台市宮城野区,蒲生２丁目３１番５,,04,102,9830002,,,2024-12-02,清算の結了等,,,2024-09-30,1,,,,,,0
520,2430001036477,登記記録の閉鎖等,0,2024-12-13,2024-12-10,株式会社ワイエム補修,,株式会社,北海道,札幌市厚別区,厚別北三条３丁目１２番１５号,,01,108,0040073,,,2024-12-10,清算の結了等,,,2015-10-05,1,,,,,ワイエムホシュウ,0
523,2440001004788,登記記録の閉鎖等,0,2024-12-13,2024-12-10,株式会社北春工業,,株式会社,北海道,北斗市,東前８５番地,,01,236,0411214,,,2024-12-10,清算の結了等,,,2015-10-05,1,,,,,ホクシュンコウギョウ,0
531,3010001002033,登記記録の閉鎖等,0,2024-12-13,2024-11-28,株式会社金秀機械製作所,,株式会社,東京都,文京区,白山１丁目２６番９号,,13,105,1130001,,,2024-11-28,清算の結了等,,,2015-10-05,1,,,,,キンシュウキカイセイサクショ,0
540,3010001244815,登記記録の閉鎖等,0,2024-12-13,2024-12-02,株式会社Ｋｉｒａｌａ準備会社,,株式会社,東京都,中央区,東日本橋３丁目２番３号,,13,102,1030004,,,2024-12-02,合併による解散等,5010401151436,令和６年１１月３０日東京都中央区東日本橋三丁目２番３号株式会社Ｋｉｒａｌａ（5010401151436）に合併し解散,2024-05-15,1,,,,,キララジュンビガイシャ,0
554,3010003029256,登記記録の閉鎖等,0,2024-12-13,2024-12-09,スリーエスシステムズ株式会社,,株式会社,東京都,品川区,東品川１丁目３番１５号,,13,109,1400002,,,2024-12-09,清算の結了等,,,2019-02-12,1,,,,,スリーエスシステムズ,0
575,3010401153616,登記記録の閉鎖等,0,2024-12-13,2024-12-06,３Ｗ株式会社,,株式会社,東京都,世田谷区,世田谷３丁目１３番１５号,,13,112,1540017,,,2024-12-06,清算の結了等,,,2020-06-26,1,,,,,スリーダブリュー,0
590,3010601062765,登記記録の閉鎖等,0,2024-12-13,2024-12-09,甘露株式会社,,株式会社,東京都,江東区,亀戸９丁目１８番１３号３０７室,,13,108,1360071,,,2024-12-09,清算の結了等,,,2023-03-14,1,,,,,カンロ,0
652,3040001031384,登記記録の閉鎖等,0,2024-12-13,2024-12-06,株式会社グローバル建設,,株式会社,千葉県,市川市,八幡１丁目４番２４号,,12,203,2720021,,,2024-12-06,清算の結了等,,,2015-10-05,1,,,,,グローバルケンセツ,0
655,3040002086667,登記記録の閉鎖等,0,2024-12-13,2024-12-03,有限会社一蘭荘,,有限会社,千葉県,香取市,佐原イ３８３９番地,,12,236,2870003,,,2024-12-03,清算の結了等,,,2015-10-05,1,,,,,イチランソウ,0
657,3040003003051,登記記録の閉鎖等,0,2024-12-13,2024-11-29,合同会社ソフィアインベストメント,,合同会社,東京都,中央区,日本橋久松町１２番５－１１０１号,,13,102,1030005,,,2024-11-29,清算の結了等,,,2015-10-05,1,,,,,ソフィアインベストメント,0
664,3080101007207,登記記録の閉鎖等,0,2024-12-13,2024-12-11,スルガ仮設工業株式会社,,株式会社,静岡県,三島市,中１６４番地の６,,22,206,4110833,,,2024-12-11,清算の結了等,,,2015-10-05,1,,,,,スルガカセツコウギョウ,0
667,3080102015043,登記記録の閉鎖等,0,2024-12-13,2024-12-10,有限会社マサミ板金工業,,有限会社,静岡県,富士市,今泉６丁目４番８号,,22,210,4170001,,,2024-12-10,清算の結了等,,,2015-10-05,1,,,,,マサミバンキンコウギョウ,0
675,3100002004069,登記記録の閉鎖等,0,2024-12-13,2024-12-06,有限会社パシフィック,,有限会社,長野県,長野市,若穂綿内６８３１番地１,,20,201,3810101,,,2024-12-06,清算の結了等,,,2015-10-05,1,,,,,パシフィック,0
679,3120001123553,登記記録の閉鎖等,0,2024-12-13,2024-12-09,株式会社マキ工業,,株式会社,大阪府,大阪市東淀川区,豊里６丁目３番９号,,27,114,5330013,,,2024-12-09,清算の結了等,,,2015-10-05,1,,,,,マキコウギョウ,0
690,3120003012754,登記記録の閉鎖等,0,2024-12-13,2024-12-09,合同会社伊藤商事,,合同会社,大阪府,大阪市北区,梅田１丁目１番３号大阪駅前第３ビル２３０７,,27,127,5300001,,,2024-12-09,清算の結了等,,,2017-05-09,1,,,,,イトウショウジ,0
702,3140002016911,登記記録の閉鎖等,0,2024-12-13,2024-12-10,有限会社野口ジエムパール,,有限会社,兵庫県,明石市,松が丘３丁目２６番６号,,28,203,6730862,,,2024-12-10,清算の結了等,,,2015-10-05,1,,,,,ノグチジエムパール,0
705,3150002003842,登記記録の閉鎖等,0,2024-12-13,2024-12-11,株式会社アム,,株式会社,奈良県,生駒市,元町１丁目６番１２号,,29,209,6300257,,,2024-12-11,合併による解散等,7260001002269,令和６年１２月１日岡山市北区高柳東町１３番１２号研精堂印刷株式会社（7260001002269）に合併し解散,2015-10-05,1,,,,,アム,0
710,3170002008212,登記記録の閉鎖等,0,2024-12-13,2024-12-12,有限会社アイル保険サービス,,有限会社,和歌山県,紀の川市,粉河１８２番地の９,,30,208,6496531,,,2024-12-12,清算の結了等,,,2015-10-05,1,,,,,アイルホケンサービス,0
719,3180003021469,登記記録の閉鎖等,0,2024-12-13,2024-11-01,ＪＰリングイスト合同会社,,合同会社,愛知県,春日井市,高蔵寺町４丁目２３番地１０,,23,206,4870013,,,2024-11-01,清算の結了等,,,2020-08-06,1,JPLinguist LLC,Aichi,"4-23-10, Kozoji cho, Kasugai shi",,ジェイピーリングイスト,0
724,3200001008507,登記記録の閉鎖等,0,2024-12-13,2024-12-11,株式会社マイスターハウス,,株式会社,岐阜県,岐阜市,芥見５丁目６番地,,21,201,5013134,,,2024-12-11,清算の結了等,,,2015-10-05,1,,,,,マイスターハウス,0
732,3210002007721,登記記録の閉鎖等,0,2024-12-13,2024-12-11,有限会社エス・エヌ・ケー,,有限会社,福井県,坂井市,丸岡町南横地第６号５４番地３,,18,210,9100375,,,2024-12-11,清算の結了等,,,2015-10-05,1,,,,,エスエヌケー,0
733,3220001004033,登記記録の閉鎖等,0,2024-12-13,2024-12-11,株式会社タカダ,,株式会社,石川県,金沢市,百坂町ロ、９２番地,,17,201,9203131,,,2024-12-11,清算の結了等,,,2015-10-05,1,,,,,タカダ,0
736,3230002011077,登記記録の閉鎖等,0,2024-12-13,2024-12-09,有限会社米納生花,,有限会社,富山県,高岡市,平米町３番３１号,,16,202,9330919,,,2024-12-09,清算の結了等,,,2015-10-05,1,,,,,コメノウセイカ,0
749,3300001010551,登記記録の閉鎖等,0,2024-12-13,2024-12-11,株式会社コスモライフＴＵＮＡ屋商事,,株式会社,佐賀県,杵島郡白石町,大字馬洗９５５番地５,,41,425,8491114,,,2024-12-11,清算の結了等,,,2016-11-10,1,,,,,コスモライフツナヤショウジ,0
751,3300005003972,登記記録の閉鎖等,0,2024-12-13,2024-12-11,特定非営利活動法人あさひ,,その他の設立登記法人,佐賀県,武雄市,朝日町大字中野８６０４番地２,,41,206,8430002,,,2024-12-11,清算の結了等,,,2015-10-05,1,,,,,アサヒ,0
754,3330001015119,登記記録の閉鎖等,0,2024-12-13,2024-12-09,株式会社礎,,株式会社,熊本県,天草市,南町５番２２号,,43,215,8630038,,,2024-12-09,清算の結了等,,,2015-10-05,1,,,,,イシズエ,0
767,3380002015245,登記記録の閉鎖等,0,2024-12-13,2024-12-02,有限会社竹炭工芸都美,,有限会社,福島県,田村市,都路町古道字山口１４９番地,,07,211,9634701,,,2024-12-02,清算の結了等,,,2015-10-05,1,,,,,タケズミコウゲイミヤビ,0
785,4010001160846,登記記録の閉鎖等,0,2024-12-13,2024-11-29,山佐産業ＹＴＫ２リース株式会社,,株式会社,東京都,千代田区,丸の内３丁目１番１号東京共同会計事務所内,,13,101,1000005,,,2024-11-29,清算の結了等,,,2015-10-05,1,,,,,ヤマササンギョウワイティーケイニリース,0
794,4010001204958,登記記録の閉鎖等,0,2024-12-13,2024-11-21,創成ソリューションズ株式会社,,株式会社,東京都,中央区,日本橋人形町２丁目１５番１６号高道ビル６Ｆ,,13,102,1030013,,,2024-11-21,清算の結了等,,,2019-10-30,1,,,,,ソウセイソリューションズ,0
798,4010003042456,登記記録の閉鎖等,0,2024-12-13,2024-11-29,合同会社Ｄ１号ファンド,,合同会社,東京都,千代田区,丸の内３丁目１番１号,,13,101,1000005,,,2024-11-29,清算の結了等,,,2023-12-19,1,,,,,ディーイチゴウファンド,0
800,4010005031366,登記記録の閉鎖等,0,2024-12-13,2024-12-10,西淀川ロジスティクス特定目的会社,,その他の設立登記法人,東京都,中央区,日本橋１丁目４番１号,,13,102,1030027,,,2024-12-10,清算の結了等,,,2020-01-28,1,,,,,ニシヨドガワロジスティクス,0
827,4010801023095,登記記録の閉鎖等,0,2024-12-13,2024-12-05,株式会社オープンシステムサイエンス研究所,,株式会社,東京都,大田区,田園調布本町５番１５号,,13,111,1450072,,,2024-12-05,清算の結了等,,,2015-10-05,1,,,,,オープンシステムサイエンスケンキュウジョ,0
846,4011005007488,登記記録の閉鎖等,0,2024-12-13,2024-12-03,ＭＯＳＥＺ税理士法人,,その他の設立登記法人,東京都,練馬区,栄町３番１３号,,13,120,1760006,,,2024-12-03,清算の結了等,,,2018-01-10,1,,,,,モセズ,0
886,4021001041606,登記記録の閉鎖等,0,2024-12-13,2024-12-12,葉山地所株式会社,,株式会社,神奈川県,逗子市,桜山８丁目５番８号,,14,208,2490005,,,2024-12-12,清算の結了等,,,2015-10-05,1,,,,,ハヤマジショ,0
921,4120001237856,登記記録の閉鎖等,0,2024-12-13,2024-12-12,株式会社Ｅｖｅｒｙ　Ｂｕｄｄｙ,,株式会社,大阪府,大阪市中央区,難波５丁目１番６０号,,27,128,5420076,,,2024-12-12,清算の結了等,,,2021-06-02,1,,,,,エブリバディ,0
922,4120001239729,登記記録の閉鎖等,0,2024-12-13,2024-12-11,株式会社ＮＥＸＴ,,株式会社,大阪府,大阪市北区,松ケ枝町２番３号３０１,,27,127,5300037,,,2024-12-11,清算の結了等,,,2021-08-13,1,,,,,ネクスト,0
928,4120002026135,登記記録の閉鎖等,0,2024-12-13,2024-12-06,有限会社アドラーギルド,,有限会社,滋賀県,大津市,松原町１０番１０－２０４号,,25,201,5200831,,,2024-12-06,清算の結了等,,,2015-10-05,1,,,,,アドラーギルド,0
935,4120101065835,登記記録の閉鎖等,0,2024-12-13,2024-12-11,株式会社友共テクニカル,,株式会社,大阪府,堺市堺区,昭和通４丁６０番地２,,27,141,5900825,,,2024-12-11,清算の結了等,,,2022-07-05,1,,,,,ユウキョウテクニカル,0
942,4120901007557,登記記録の閉鎖等,0,2024-12-13,2024-11-26,株式会社トップスマイル,,株式会社,大阪府,吹田市,江坂町１丁目１３番８－４０１号,,27,205,5640063,,,2024-11-26,合併による解散等,4120901005973,令和６年１１月２６日大阪府高槻市三島江四丁目３５番１号春日物流サービス株式会社（4120901005973）に合併し解散,2015-10-05,1,,,,,トップスマイル,0
948,4140001030945,登記記録の閉鎖等,0,2024-12-13,2024-12-10,株式会社エム・ケイ・コーポレーション,,株式会社,大阪府,柏原市,大字高井田９－２３,,27,221,5820015,,,2024-12-10,清算の結了等,,,2015-10-05,1,,,,,エムケイコーポレーション,0
958,4140002014674,登記記録の閉鎖等,0,2024-12-13,2024-12-10,有限会社馳走や,,有限会社,兵庫県,神戸市中央区,北長狭通１丁目３番９号,,28,110,6500012,,,2024-12-10,清算の結了等,,,2015-10-05,1,,,,,チソウヤ,0
981,4230001005847,登記記録の閉鎖等,0,2024-12-13,2024-12-10,株式会社富山冷凍ます寿司本舗,,株式会社,富山県,富山市,本郷町１７番地１７,,16,201,9398045,,,2024-12-10,清算の結了等,,,2015-10-05,1,,,,,トヤマレイトウマススシホンポ,0
1005,4290005018162,登記記録の閉鎖等,0,2024-12-13,2024-11-29,特定非営利活動法人ＭＹ’Ｓ地域健康支援センター,,その他の設立登記法人,福岡県,福岡市中央区,舞鶴１丁目８番３３号,,40,133,8100073,,,2024-11-29,清算の結了等,,,2021-04-12,1,,,,,マイズチイキケンコウシエンセンター,0
1009,4320001006596,登記記録の閉鎖等,0,2024-12-13,2024-12-12,株式会社マルタカエクセル,,株式会社,大分県,別府市,石垣西３丁目１番１号クレアコート石垣１０２号室,,44,202,8740910,,,2024-12-12,清算の結了等,,,2015-10-05,1,,,,,マルタカエクセル,0
1019,4390002014591,登記記録の閉鎖等,0,2024-12-13,2024-12-05,有限会社和同組,,有限会社,山形県,南陽市,関根７００番地の１,,06,213,9992255,,,2024-12-05,清算の結了等,,,2015-10-05,1,,,,,ワドウグミ,0
1021,4410002003617,削除,,2024-12-13,,,,,,,,,,,,,,,,,,,,,,,,,
1023,4420001016511,登記記録の閉鎖等,0,2024-12-13,2024-12-11,株式会社魚三水産,,株式会社,青森県,弘前市,大字末広１丁目５番地１,,02,202,0368085,,,2024-12-11,清算の結了等,,,2019-03-07,1,,,,,ウオミツスイサン,0
1031,4470001003100,登記記録の閉鎖等,0,2024-12-13,2024-12-12,中山商事株式会社,,株式会社,香川県,高松市,成合町１７６９番地２,,37,201,7618081,,,2024-12-12,清算の結了等,,,2015-10-05,1,,,,,ナカヤマショウジ,0
1037,5010001143882,登記記録の閉鎖等,0,2024-12-13,2024-11-29,株式会社ジェイ・イー・インベストメント,,株式会社,東京都,千代田区,大手町１丁目７番２号東京サンケイビル２７Ｆ,,13,101,1000004,,,2024-11-29,清算の結了等,,,2015-10-05,1,,,,,ジェイイーインベストメント,0
1041,5010001160845,登記記録の閉鎖等,0,2024-12-13,2024-11-29,山佐産業ＹＴＫ１リース株式会社,,株式会社,東京都,千代田区,丸の内３丁目１番１号東京共同会計事務所内,,13,101,1000005,,,2024-11-29,清算の結了等,,,2015-10-05,1,,,,,ヤマササンギョウワイティーケイイチリース,0
1042,5010001164887,登記記録の閉鎖等,0,2024-12-13,2024-11-22,帝都土地株式会社,,株式会社,東京都,千代田区,（東京市麹町区内幸町一丁目５番地兼本ビル）,,13,101,1000000,,,2024-11-22,清算の結了等,,,2016-02-02,1,,,,,テイトトチ,1
1043,5010001189918,登記記録の閉鎖等,0,2024-12-13,2024-12-02,天思利ジャパン株式会社,,株式会社,東京都,千代田区,二番町９番３号,,13,101,1020084,,,2024-12-02,清算の結了等,,,2018-02-26,1,,,,,テンシリジャパン,0
1053,5010003033900,登記記録の閉鎖等,0,2024-12-13,2024-11-29,合同会社レーベンファンディング,,合同会社,東京都,千代田区,丸の内１丁目８番２号,,13,101,1000005,,,2024-11-29,清算の結了等,,,2021-01-13,1,,,,,レーベンファンディング,0
1062,5010401018593,登記記録の閉鎖等,0,2024-12-13,2024-12-12,株式会社テクノインフィニタス,,株式会社,大阪府,大阪市北区,中之島３丁目３番２３号,,27,127,5300005,,,2024-12-12,清算の結了等,,,2015-10-05,1,,,,,テクノインフィニタス,0
1067,5010401148218,登記記録の閉鎖等,0,2024-12-13,2024-11-28,ＪＳＰＣ１株式会社,,株式会社,東京都,港区,六本木６丁目１０番１号六本木ヒルズ森タワー３７階,,13,103,1060032,,,2024-11-28,清算の結了等,,,2019-09-24,1,,,,,ジェイエスピーシーワン,0
1070,5010403015432,登記記録の閉鎖等,0,2024-12-13,2024-11-29,Ｎｉｓｅｋｏ　Ａｌｐｉｎｅ　Ｒｅｓｏｒｔｓ　Ｈｏｌｄｉｎｇｓ２合同会社,,合同会社,東京都,港区,虎ノ門３丁目２２番１０‐２０１号,,13,103,1050001,,,2024-11-29,清算の結了等,,,2016-10-03,1,,,,,ニセコアルパインリゾーツホールディングスツー,0
1088,5011201000964,登記記録の閉鎖等,0,2024-12-13,2024-12-11,大蔵電源設備株式会社,,株式会社,東京都,中野区,本町１丁目３２番２７号,,13,114,1640012,,,2024-12-11,清算の結了等,,,2015-10-05,1,,,,,オオクラデンゲンセツビ,0
1095,5011402000870,登記記録の閉鎖等,0,2024-12-13,2024-12-02,有限会社石田塗装,,有限会社,東京都,千代田区,九段南４丁目７番１０号,,13,101,1020074,,,2024-12-02,清算の結了等,,,2015-10-05,1,,,,,イシダトソウ,0
1106,5020001070515,登記記録の閉鎖等,0,2024-12-13,2024-12-09,株式会社アールテーアール,,株式会社,山形県,村山市,大字稲下１４０３番地１,,06,208,9950204,,,2024-12-09,清算の結了等,,,2015-10-05,1,,,,,アールテーアール,0
1115,5020002005370,登記記録の閉鎖等,0,2024-12-13,2024-12-03,有限会社有馬通信,,有限会社,神奈川県,横浜市都筑区,荏田東町４４４５番地１,,14,118,2240004,,,2024-12-03,清算の結了等,,,2015-10-05,1,,,,,アリマツウシン,0
1119,5021001042917,登記記録の閉鎖等,0,2024-12-13,2024-12-12,株式会社菅野塗装,,株式会社,神奈川県,横須賀市,荻野５番１０号,,14,201,2400102,,,2024-12-12,清算の結了等,,,2015-10-05,1,,,,,,0
1135,5040001101755,登記記録の閉鎖等,0,2024-12-13,2024-12-04,ＮＫフーズ株式会社,,株式会社,千葉県,柏市,柏１丁目５番１１号柏ＮＫビル,,12,217,2770005,,,2024-12-04,合併による解散等,2040002089687,令和６年１２月１日千葉県柏市柏一丁目５番１１号柏ＮＫビル敬和産業株式会社（2040002089687）に合併し解散,2017-09-15,1,,,,,エヌケーフーズ,0
1145,5050001009007,登記記録の閉鎖等,0,2024-12-13,2024-12-09,株式会社エス・ケー・ディー・オール,,株式会社,茨城県,土浦市,富士崎１丁目１番１３－１４０８号,,08,203,3000813,,,2024-12-09,清算の結了等,,,2015-10-05,1,,,,,エスケーディーオール,0
1161,5120001053096,登記記録の閉鎖等,0,2024-12-13,2024-12-03,モンパル株式会社,,株式会社,大阪府,大阪市東淀川区,小松３丁目７番１７号,,27,114,5330004,,,2024-12-03,清算の結了等,,,2015-10-05,1,,,,,モンパル,0
1174,5120002028270,登記記録の閉鎖等,0,2024-12-13,2024-12-10,有限会社プランニングエディシオン,,有限会社,大阪府,大阪市東淀川区,東中島５丁目１３番１２－１０１号,,27,114,5330033,,,2024-12-10,清算の結了等,,,2015-10-05,1,,,,,プランニングエディシオン,0
1191,5140001101051,登記記録の閉鎖等,0,2024-12-13,2024-12-09,株式会社ケイエムスリー,,株式会社,兵庫県,尼崎市,額田町１７番１１号,,28,202,6610962,,,2024-12-09,清算の結了等,,,2016-02-19,1,,,,,ケイエムスリー,0
1194,5140002015572,登記記録の閉鎖等,0,2024-12-13,2024-12-02,有限会社日の丸グロサリー,,有限会社,兵庫県,神戸市中央区,中山手通１丁目１２－４,,28,110,6500004,,,2024-12-02,合併による解散等,2140001006212,令和６年１２月１日神戸市中央区港島南町三丁目３番１４号今井興産株式会社（2140001006212）に合併し解散,2015-10-05,1,,,,,ヒノマルグロサリー,0
1198,5180001004382,登記記録の閉鎖等,0,2024-12-13,2024-12-04,株式会社是是,,株式会社,愛知県,名古屋市東区,葵２丁目９番３６号,,23,102,4610004,,,2024-12-04,清算の結了等,,,2015-10-05,1,,,,,ゼゼ,0
1206,5180301002301,登記記録の閉鎖等,0,2024-12-13,2024-12-09,株式会社大木,,株式会社,愛知県,額田郡幸田町,大字深溝字樋口８番地の１,00074411,23,501,4440124,,,2024-12-09,清算の結了等,,,2015-10-05,1,,,,,オオキ,0
1216,5240002013970,登記記録の閉鎖等,0,2024-12-13,2024-12-09,有限会社平島内装,,有限会社,広島県,広島市東区,中山鏡が丘１２番２８号,,34,102,7320022,,,2024-12-09,清算の結了等,,,2015-10-05,1,,,,,ヒラシマナイソウ,0
1225,5290001102209,登記記録の閉鎖等,0,2024-12-13,2024-11-15,株式会社ＨＩＲＵＮＥ,,株式会社,福岡県,福岡市博多区,上呉服町２－２２－４０３,,40,132,8120036,,,2024-11-15,清算の結了等,,,2023-07-11,1,,,,,ヒルネ,0
1231,5290801010651,登記記録の閉鎖等,0,2024-12-13,2024-12-11,株式会社マルマス,,株式会社,福岡県,北九州市八幡西区,友田１丁目１２番４号,,40,109,8070828,,,2024-12-11,清算の結了等,,,2015-10-05,1,,,,,マルマス,0
1239,5360002016755,登記記録の閉鎖等,0,2024-12-13,2024-12-11,有限会社原タイル産業,,有限会社,沖縄県,宜野湾市,我如古３丁目２２番１３号,,47,205,9012214,,,2024-12-11,清算の結了等,,,2015-10-05,1,,,,,ハラタイルサンギョウ,0
1240,5370202000392,登記記録の閉鎖等,0,2024-12-13,2024-12-05,有限会社小牛田センターパーツ,,有限会社,宮城県,遠田郡美里町,南小牛田字町屋敷６９番地,,04,505,9870003,,,2024-12-05,清算の結了等,,,2015-10-05,1,,,,,コゴタセンターパーツ,0
1241,5370202000995,登記記録の閉鎖等,0,2024-12-13,2024-12-05,有限会社大崎風土公社,,有限会社,宮城県,大崎市,古川駅前大通５丁目２番３５号,,04,215,9896162,,,2024-12-05,清算の結了等,,,2015-10-05,1,,,,,オオサキフウドコウシャ,0
1243,5400002011479,登記記録の閉鎖等,0,2024-12-13,2024-12-04,有限会社カクショウエンジニアリング,,有限会社,岩手県,釜石市,港町１丁目４番２２号,,03,211,0260011,,,2024-12-04,清算の結了等,,,2015-10-05,1,,,,,カクショウエンジニアリング,0
1255,5500001006263,登記記録の閉鎖等,0,2024-12-13,2024-12-11,株式会社アバンサール,,株式会社,愛媛県,松山市,千舟町４丁目４番地１－１５０３,,38,201,7900011,,,2024-12-11,清算の結了等,,,2015-10-05,1,,,,,アバンサール,0
1261,6010001168838,登記記録の閉鎖等,0,2024-12-13,2024-11-27,株式会社Ｂｕｓｉｎｅｓｓ　Ｃａｒｅｅｒ　Ｇａｔｅ,,株式会社,東京都,千代田区,六番町１５番２号鳳翔ビル３階,,13,101,1020085,,,2024-11-27,清算の結了等,,,2015-10-05,1,,,,,ビジネスキャリアゲート,0
1263,6010001227073,登記記録の閉鎖等,0,2024-12-13,2024-11-22,株式会社ＭＡＴＣＨＡ　ＮＦＴ,,株式会社,東京都,中央区,東日本橋２丁目２４番９号,,13,102,1030004,,,2024-11-22,清算の結了等,,,2022-06-07,1,,,,,マッチャエヌエフティー,0
1269,6010003029906,登記記録の閉鎖等,0,2024-12-13,2024-11-29,Ｇｒｅｅｎ　Ｍａｐ合同会社,,合同会社,東京都,千代田区,丸の内３丁目１番１号東京共同会計事務所内,,13,101,1000005,,,2024-11-29,清算の結了等,,,2019-05-28,1,,,,,グリーンマップ,0
1276,6010101002211,登記記録の閉鎖等,0,2024-12-13,2024-12-10,株式会社太平鋼業,,株式会社,東京都,八王子市,元横山町１丁目２９番８号,,13,201,1920063,,,2024-12-10,清算の結了等,,,2015-10-05,1,,,,,タイヘイコウギョウ,0
1284,6010403030109,登記記録の閉鎖等,0,2024-12-13,2024-12-03,合同会社からっと,,合同会社,東京都,中央区,銀座７丁目１３番２０号銀座ＴＨビル９階,,13,102,1040061,,,2024-12-03,清算の結了等,,,2023-05-12,1,,,,,カラット,0
1292,6010601052243,登記記録の閉鎖等,0,2024-12-13,2024-12-10,株式会社タナカコウ,,株式会社,東京都,墨田区,本所１丁目１１番７号,,13,107,1300004,,,2024-12-10,清算の結了等,,,2017-09-21,1,,,,,,0
1331,6013402007135,登記記録の閉鎖等,0,2024-12-13,2024-12-11,有限会社エーアイプランニング,,有限会社,東京都,稲城市,平尾１丁目５２番地２０,,13,225,2060823,,,2024-12-11,清算の結了等,,,2015-10-05,1,,,,,エーアイプランニング,0
1343,6020003007274,登記記録の閉鎖等,0,2024-12-13,2024-11-29,合同会社日本橋アセット・マネジメント,,合同会社,神奈川県,横浜市港北区,新横浜２丁目２番１５号,,14,109,2220033,,,2024-11-29,清算の結了等,,,2015-10-05,1,,,,,ニホンバシアセットマネジメント,0
1348,6021001072293,登記記録の閉鎖等,0,2024-12-13,2024-12-04,ＦＥＥＬＩＮＫ株式会社,,株式会社,神奈川県,藤沢市,白旗２丁目１８番６号,,14,205,2510051,,,2024-12-04,清算の結了等,,,2021-03-05,1,,,,,フィーリンク,0
1362,6050001018147,登記記録の閉鎖等,0,2024-12-13,2024-12-09,株式会社協英,,株式会社,茨城県,つくば市,栗原３５３３番地５６,,08,220,3050001,,,2024-12-09,清算の結了等,,,2015-10-05,1,,,,,,0
1371,6080001020694,登記記録の閉鎖等,0,2024-12-13,2024-12-10,株式会社オー・ジェイネクスト,,株式会社,静岡県,伊豆の国市,三福５０８番地の１,,22,225,4102321,,,2024-12-10,清算の結了等,,,2016-01-18,1,,,,,オージェイネクスト,0
1376,6080401012762,登記記録の閉鎖等,0,2024-12-13,2024-12-10,株式会社三輝,,株式会社,静岡県,浜松市中央区,金折町２７９番地の２,,22,138,4350026,,,2024-12-10,清算の結了等,,,2015-10-05,1,,,,,サンキ,0
1377,6080402006004,登記記録の閉鎖等,0,2024-12-13,2024-12-10,有限会社ノーブル,,有限会社,静岡県,浜松市中央区,和合町３１５番地の１１９４,,22,138,4338125,,,2024-12-10,清算の結了等,,,2015-10-05,1,,,,,ノーブル,0
1383,6120001017323,登記記録の閉鎖等,0,2024-12-13,2024-12-09,国光商事株式会社,,株式会社,大阪府,大阪市東成区,大今里南１丁目２１番１２－１２０８号,,27,115,5370013,,,2024-12-09,清算の結了等,,,2015-10-05,1,,,,,クニミツショウジ,0
1392,6120001170592,登記記録の閉鎖等,0,2024-12-13,2024-12-09,株式会社ネクストサイエンス,,株式会社,大阪府,大阪市中央区,南船場１丁目１８番１７号商工中金船場ビル５階,,27,128,5420081,,,2024-12-09,合併による解散等,5130001007761,令和６年１１月３０日大阪市北区天神西町５番１７号アクティ南森町ビルネクストブレイン株式会社（5130001007761）に合併し解散,2015-10-05,1,,,,,ネクストサイエンス,0
1415,6122001003609,登記記録の閉鎖等,0,2024-12-13,2024-12-02,株式会社城川工作所,,株式会社,大阪府,東大阪市,加納５丁目１番２４号,,27,227,5780901,,,2024-12-02,清算の結了等,,,2015-10-05,1,,,,,シロカワコウサクショ,0
1419,6140001081202,登記記録の閉鎖等,0,2024-12-13,2024-12-09,インターマート株式会社,,株式会社,兵庫県,宝塚市,山本中１丁目６番２６号,,28,214,6650883,,,2024-12-09,清算の結了等,,,2015-10-05,1,,,,,インターマート,0
1425,6140002057531,登記記録の閉鎖等,0,2024-12-13,2024-12-09,阪神フェンス工業有限会社,,有限会社,兵庫県,西宮市,石在町３番７号,,28,204,6620928,,,2024-12-09,清算の結了等,,,2015-10-05,1,,,,,ハンシンフェンスコウギョウ,0
1435,6180003027001,登記記録の閉鎖等,0,2024-12-13,2024-12-02,ＲＥＤ　ＷＡＶＥ合同会社,,合同会社,愛知県,名古屋市中区,錦２丁目２０番８号,,23,106,4600003,,,2024-12-02,合併による解散等,4180001055393,令和６年１２月１日名古屋市中区錦三丁目２０番２７号株式会社御幸ビルディング（4180001055393）に合併し解散,2024-07-02,1,,,,,レッドウェイブ,0
1438,6180302019475,登記記録の閉鎖等,0,2024-12-13,2024-12-11,有限会社ダイゲン工業,,有限会社,愛知県,知立市,来迎寺町西中畑１３番地,,23,225,4720002,,,2024-12-11,清算の結了等,,,2015-10-05,1,,,,,ダイゲンコウギョウ,0
1452,6220001001630,登記記録の閉鎖等,0,2024-12-13,2024-12-04,岡田部品株式会社,,株式会社,石川県,金沢市,駅西本町３丁目１５番１号,,17,201,9200025,,,2024-12-04,合併による解散等,4220001000980,令和６年１１月２１日石川県金沢市駅西本町三丁目１５番１号石川ダイハツ販売株式会社（4220001000980）に合併し解散,2015-10-05,1,,,,,オカダブヒン,0
1453,6240001027748,登記記録の閉鎖等,0,2024-12-13,2024-12-10,株式会社コマツマリン,,株式会社,広島県,呉市,倉橋町７４１７番地,,34,202,7371377,,,2024-12-10,清算の結了等,,,2015-10-05,1,,,,,コマツマリン,0
1455,6240002041104,登記記録の閉鎖等,0,2024-12-13,2024-12-09,昭和地所有限会社,,有限会社,広島県,福山市,若松町１０番２７号,,34,207,7200034,,,2024-12-09,清算の結了等,,,2015-10-05,1,,,,,ショウワジショ,0
1456,6240003005090,登記記録の閉鎖等,0,2024-12-13,2024-12-10,合同会社ＡＩＲＮＥ,,合同会社,京都府,京都市下京区,玉津島町２９４,,26,106,6008427,,,2024-12-10,清算の結了等,,,2021-05-11,1,,,,,エアン,0
1459,6260001014298,登記記録の閉鎖等,0,2024-12-13,2024-12-06,株式会社難波春,,株式会社,岡山県,倉敷市,児島下の町９丁目１２番ウ６号,,33,202,7110906,,,2024-12-06,清算の結了等,,,2015-10-05,1,,,,,ナンバハル,0
1463,6270005003858,登記記録の閉鎖等,0,2024-12-13,2024-12-12,藍野開拓農業協同組合,,その他の設立登記法人,鳥取県,西伯郡伯耆町,小林８７番地１０,,31,390,6894101,,,2024-12-12,清算の結了等,,,2016-05-10,1,,,,,,0
1465,6280002011854,登記記録の閉鎖等,0,2024-12-13,2024-12-10,有限会社つがか農園,,有限会社,島根県,飯石郡飯南町,都加賀８５４番地内１,,32,386,6903203,,,2024-12-10,清算の結了等,,,2015-10-05,1,,,,,ツガカノウエン,0
1470,6290003007925,登記記録の閉鎖等,0,2024-12-13,2024-11-15,合同会社Ｅｕｆｏｒｉａ,,合同会社,福岡県,福岡市中央区,警固１丁目４番２７－２０３号室,,40,133,8100023,,,2024-11-15,清算の結了等,,,2018-03-20,1,,,,,ユーフォリア,0
1475,6330002029635,登記記録の閉鎖等,0,2024-12-13,2024-12-05,有限会社金栄汽船,,有限会社,熊本県,上天草市,大矢野町登立１２５０３番地１,,43,212,8693601,,,2024-12-05,清算の結了等,,,2015-10-05,1,,,,,キンエイキセン,0
1482,6360005000433,登記記録の閉鎖等,0,2024-12-13,2024-12-12,医療法人若草会,,その他の設立登記法人,沖縄県,那覇市,字上間３７０番地の１,,47,201,9020073,,,2024-12-12,清算の結了等,,,2015-10-05,1,,,,,ワカクサカイ,0
1488,6390005005594,登記記録の閉鎖等,0,2024-12-13,2024-12-09,農事組合法人ライジングファーム,,その他の設立登記法人,山形県,新庄市,五日町字稲荷前７０７７番地,,06,205,9960001,,,2024-12-09,清算の結了等,,,2015-10-05,1,,,,,,0
1489,6400001015463,登記記録の閉鎖等,0,2024-12-13,2024-12-06,株式会社オトミナ,,株式会社,岩手県,盛岡市,中央通１丁目７－３５コアフィールドモリオカ１Ｆ－３Ｆ,,03,201,0200021,,,2024-12-06,清算の結了等,,,2021-06-02,1,,,,,オトミナ,0
1494,6420001015230,登記記録の閉鎖等,0,2024-12-13,2024-12-11,株式会社ＷＡＮＯ　Ｗｉｎｅｒｙ,,株式会社,青森県,北津軽郡鶴田町,大字鶴田字小泉３３５番地１,,02,384,0383503,,,2024-12-11,清算の結了等,,,2016-05-20,1,,,,,ワノワイナリー,0
1500,6480003002007,登記記録の閉鎖等,0,2024-12-13,2024-12-12,合同会社Ｋ＆Ｈ　ｍａｎａｇｅｍｅｎｔ,,合同会社,徳島県,徳島市,北沖洲１丁目７番５３号,,36,201,7700872,,,2024-12-12,清算の結了等,,,2023-07-31,1,,,,,ケーアンドエイチマネジメント,0
1544,7011001132238,登記記録の閉鎖等,0,2024-12-13,2024-12-11,株式会社ＲＹＣＫＹ,,株式会社,神奈川県,茅ヶ崎市,浜須賀１６－３０,,14,207,2530035,,,2024-12-11,清算の結了等,,,2020-02-05,1,,,,,リッキー,0
1555,7011101020433,登記記録の閉鎖等,0,2024-12-13,2024-12-05,株式会社ミコウサービス,,株式会社,東京都,新宿区,上落合１丁目１番３号,,13,104,1610034,,,2024-12-05,清算の結了等,,,2015-10-05,1,,,,,ミコウサービス,0
1563,7011202001877,登記記録の閉鎖等,0,2024-12-13,2024-12-11,有限会社久保村商事,,有限会社,東京都,中野区,中央４丁目５１番５号,,13,114,1640011,,,2024-12-11,清算の結了等,,,2015-10-05,1,,,,,クボムラショウジ,0
1575,7012402016590,登記記録の閉鎖等,0,2024-12-13,2024-12-06,有限会社境南鉄工所,,有限会社,東京都,武蔵野市,境南町１丁目３１番１号,,13,203,1800023,,,2024-12-06,清算の結了等,,,2015-10-05,1,,,,,キョウナンテッコウショ,0
1580,7013405000722,登記記録の閉鎖等,0,2024-12-13,2024-11-27,特定非営利活動法人日野まちづくり住まいの相談室,,その他の設立登記法人,東京都,日野市,東豊田２丁目３３番地の１０,,13,212,1910052,,,2024-11-27,清算の結了等,,,2015-10-05,1,,,,,ヒノマチヅクリスマイノソウダンシツ,0
1590,7021001022371,登記記録の閉鎖等,0,2024-12-13,2024-11-13,株式会社インターテクノコンサルタント,,株式会社,東京都,杉並区,阿佐谷北１丁目３９番２０号,,13,115,1660001,,,2024-11-13,清算の結了等,,,2015-10-05,1,,,,,インターテクノコンサルタント,0
1591,7021001035266,登記記録の閉鎖等,0,2024-12-13,2024-12-11,株式会社大英,,株式会社,神奈川県,小田原市,中曽根２４５番地の４,,14,206,2500866,,,2024-12-11,清算の結了等,,,2015-10-05,1,,,,,ダイエイ,0
1594,7021001062269,登記記録の閉鎖等,0,2024-12-13,2024-12-11,株式会社ＮＡＫＯＤＯ,,株式会社,神奈川県,茅ヶ崎市,浜須賀１６－３０,,14,207,2530035,,,2024-12-11,清算の結了等,,,2017-06-08,1,,,,,ナコウド,0
1603,7030002029350,登記記録の閉鎖等,0,2024-12-13,2024-12-09,有限会社斉藤自動車工業,,有限会社,埼玉県,所沢市,大字南永井４３８番地１６,,11,208,3590011,,,2024-12-09,清算の結了等,,,2015-10-05,1,,,,,サイトウジドウシャコウギョウ,0
1625,7080401004271,登記記録の閉鎖等,0,2024-12-13,2024-12-11,白鳥電気設備株式会社,,株式会社,静岡県,浜松市中央区,高丘西４丁目１４番１１号,,22,138,4338118,,,2024-12-11,清算の結了等,,,2015-10-05,1,,,,,シラトリデンキセツビ,0
1635,7120001032503,登記記録の閉鎖等,0,2024-12-13,2024-12-09,協和産業株式会社,,株式会社,大阪府,大阪市阿倍野区,阪南町１丁目４９番２－３０２号,,27,119,5450021,,,2024-12-09,清算の結了等,,,2015-10-05,1,,,,,キョウワサンギョウ,0
1655,7120002065403,登記記録の閉鎖等,0,2024-12-13,2024-12-11,有限会社エーアイエム,,有限会社,大阪府,大阪市北区,中津３丁目１１番２－１００５号,,27,127,5310071,,,2024-12-11,清算の結了等,,,2015-10-05,1,,,,,エーアイエム,0
1662,7120101055726,登記記録の閉鎖等,0,2024-12-13,2024-12-11,東京虎ノ門地所株式会社,,株式会社,大阪府,岸和田市,加守町２丁目７番１３号,,27,202,5960042,,,2024-12-11,清算の結了等,,,2016-11-30,1,,,,,トウキョウトラノモンジショ,0
1663,7120102014053,登記記録の閉鎖等,0,2024-12-13,2024-12-11,近畿住宅産業有限会社,,有限会社,大阪府,松原市,高見の里４丁目４番３７号,,27,217,5800021,,,2024-12-11,清算の結了等,,,2015-10-05,1,,,,,キンキジュウタクサンギョウ,0
1667,7120901029648,登記記録の閉鎖等,0,2024-12-13,2024-12-04,富士運輸株式会社,,株式会社,大阪府,豊中市,三和町２丁目３番１０号,,27,203,5610828,,,2024-12-04,清算の結了等,,,2015-10-05,1,,,,,フジウンユ,0
1673,7140001008518,登記記録の閉鎖等,0,2024-12-13,2024-12-09,株式会社しゅんこう,,株式会社,兵庫県,神戸市中央区,雲井通７丁目１番１号ミント神戸１６Ｆ,,28,110,6510096,,,2024-12-09,清算の結了等,,,2015-10-05,1,,,,,シュンコウ,0
1695,7180005015548,登記記録の閉鎖等,0,2024-12-13,2024-12-04,特定非営利活動法人Ｓｍａｒｔ－Ｖｉｌｌａｇｅ　Ｓｙｓｔｅｍコンソーシアム,,その他の設立登記法人,愛知県,名古屋市中区,丸の内３丁目５番３３号名古屋有楽ビル２０１号室ニューロン・ネット・ジャパン株式会社内,,23,106,4600002,,,2024-12-04,清算の結了等,,,2015-10-05,1,,,,,スマートヴィレッジシステムコンソーシアム,0
1720,7290001081145,登記記録の閉鎖等,0,2024-12-13,2024-11-15,株式会社トレジャーボール,,株式会社,福岡県,福岡市中央区,鳥飼３丁目７番２１号,,40,133,8100053,,,2024-11-15,清算の結了等,,,2018-04-16,1,,,,,トレジャーボール,0
1721,7290001084908,登記記録の閉鎖等,0,2024-12-13,2024-11-15,株式会社愛翔,,株式会社,福岡県,朝倉市,馬田１９５５番地１,,40,228,8380058,,,2024-11-15,清算の結了等,,,2019-04-22,1,,,,,アイショウ,0
1743,7380001024581,登記記録の閉鎖等,0,2024-12-13,2024-12-03,株式会社ジョブ・パッション,,株式会社,福島県,郡山市,安積町日出山１丁目１４５番地,,07,203,9630101,,,2024-12-03,合併による解散等,9380002015883,令和６年１２月１日福島県郡山市安積町日出山三丁目２８０番地株式会社Ｂｉｇジョブ（9380002015883）に合併し解散,2015-10-05,1,,,,,ジョブパッション,0
1758,8010001100419,登記記録の閉鎖等,0,2024-12-13,2024-11-29,山佐ＤＬＨ２リース株式会社,,株式会社,東京都,千代田区,丸の内３丁目１番１号東京共同会計事務所内,,13,101,1000005,,,2024-11-29,清算の結了等,,,2015-10-05,1,,,,,ヤマサディーエルエイチツーリース,0
1762,8010001155784,登記記録の閉鎖等,0,2024-12-13,2024-11-29,山佐ＴＯＭ６リース株式会社,,株式会社,東京都,千代田区,丸の内３丁目１番１号東京共同会計事務所内,,13,101,1000005,,,2024-11-29,清算の結了等,,,2015-10-05,1,,,,,ヤマサティーオーエムロクリース,0
1765,8010001198585,登記記録の閉鎖等,0,2024-12-13,2024-12-02,株式会社富家パートナーズ,,株式会社,東京都,千代田区,丸の内１丁目８番１号,,13,101,1000005,,,2024-12-02,合併による解散等,8010001194758,令和６年１２月１日東京都千代田区丸の内一丁目８番１号株式会社ＣＨＣＰホスピタルパートナーズ（8010001194758）に合併し解散,2019-02-19,1,,,,,フケパートナーズ,0
1767,8010001222592,登記記録の閉鎖等,0,2024-12-13,2024-11-29,株式会社膝栗毛,,株式会社,東京都,千代田区,丸の内２丁目５番１号,,13,101,1000005,,,2024-11-29,清算の結了等,,,2021-11-16,1,,,,,ヒザクリゲ,0
1775,8010003019657,登記記録の閉鎖等,0,2024-12-13,2024-11-29,合同会社ＴＣＴＳ０９,,合同会社,東京都,千代田区,丸の内３丁目１番１号東京共同会計事務所内,,13,101,1000005,,,2024-11-29,清算の結了等,,,2015-10-05,1,,,,,ティーシーティーエスゼロキュウ,0
1787,8010101002977,登記記録の閉鎖等,0,2024-12-13,2024-12-09,日研産業株式会社,,株式会社,東京都,八王子市,四谷町６１４番地１,,13,201,1930813,,,2024-12-09,合併による解散等,3450001002039,令和６年１２月１日北海道旭川市二条通四丁目左３号株式会社橘屋（3450001002039）に合併し解散,2015-10-05,1,,,,,ニッケンサンギョウ,0
1791,8010401036171,登記記録の閉鎖等,0,2024-12-13,2024-11-28,株式会社エム・エル・エー,,株式会社,東京都,港区,西新橋１丁目１１番５号,,13,103,1050003,,,2024-11-28,清算の結了等,,,2015-10-05,1,,,,,エムエルエー,0
1793,8010401073504,登記記録の閉鎖等,0,2024-12-13,2024-11-28,株式会社アドボケア,,株式会社,東京都,港区,赤坂９丁目１番７号９０２号室,,13,103,1070052,,,2024-11-28,清算の結了等,,,2015-10-05,1,,,,,アドボケア,0
1811,8011001063044,登記記録の閉鎖等,0,2024-12-13,2024-12-04,株式会社ＭＫカンパニー,,株式会社,神奈川県,横浜市西区,北幸１丁目１１番１号水信ビル７階,,14,103,2200004,,,2024-12-04,清算の結了等,,,2015-10-05,1,,,,,エムケーカンパニー,0
1812,8011001106760,登記記録の閉鎖等,0,2024-12-13,2024-12-10,アンダーゼロスポーツアパレル株式会社,,株式会社,大阪府,大阪市西区,西本町１丁目１３番７号平井ビル３階,,27,106,5500005,,,2024-12-10,清算の結了等,,,2015-10-05,1,,,,,アンダーゼロスポーツアパレル,0
1840,8012405003692,登記記録の閉鎖等,0,2024-12-13,2024-12-12,特定非営利活動法人こがねい市民発電,,その他の設立登記法人,東京都,小金井市,前原町２丁目１５番３号,,13,210,1840013,,,2024-12-12,清算の結了等,,,2015-10-05,1,,,,,コガネイシミンハツデン,0
1850,8021001054934,登記記録の閉鎖等,0,2024-12-13,2024-12-11,ＮＡＬＵ事務機株式会社,,株式会社,神奈川県,藤沢市,片瀬海岸１丁目１２番７－７０２号,,14,205,2510035,,,2024-12-11,清算の結了等,,,2015-10-05,1,,,,,ナルジムキ,0
1854,8021003010563,登記記録の閉鎖等,0,2024-12-13,2024-12-11,合同会社タミルニッポントレーディングジャパン,,合同会社,神奈川県,横須賀市,平作５丁目１７－１５,,14,201,2380032,,,2024-12-11,清算の結了等,,,2021-06-18,1,,,,,タミルニッポントレーディングジャパン,0
1862,8030003025265,登記記録の閉鎖等,0,2024-12-13,2024-12-11,Ｔｒａｎｅ合同会社,,合同会社,埼玉県,鶴ヶ島市,大字鶴ヶ丘１１１番地１４,,11,241,3502204,,,2024-12-11,清算の結了等,,,2024-10-04,1,,,,,トレーン,0
1877,8050001039653,登記記録の閉鎖等,0,2024-12-13,2024-12-06,ファミリーキッチン株式会社,,株式会社,茨城県,那珂市,菅谷４３５２番地１,,08,226,3110105,,,2024-12-06,清算の結了等,,,2015-10-05,1,,,,,ファミリーキッチン,0
1894,8080102017836,登記記録の閉鎖等,0,2024-12-13,2024-12-10,有限会社メディケア・サカサイ,,有限会社,静岡県,富士宮市,黒田２１５番地の１８,,22,207,4180034,,,2024-12-10,清算の結了等,,,2015-10-05,1,,,,,メディケアサカサイ,0
1899,8090002003316,登記記録の閉鎖等,0,2024-12-13,2024-12-09,有限会社山政産業,,有限会社,山梨県,甲府市,山宮町３２５２番地,,19,201,4000075,,,2024-12-09,清算の結了等,,,2015-10-05,1,,,,,ヤママササンギョウ,0
1906,8120001082183,登記記録の閉鎖等,0,2024-12-13,2024-12-10,株式会社ステラ,,株式会社,大阪府,大阪市中央区,内久宝寺町２丁目７番３号,,27,128,5400013,,,2024-12-10,清算の結了等,,,2015-10-05,1,,,,,ステラ,0
1911,8120001206691,登記記録の閉鎖等,0,2024-12-13,2024-12-11,株式会社東興産,,株式会社,大阪府,門真市,野里町８番１９号,,27,223,5710079,,,2024-12-11,清算の結了等,,,2017-07-05,1,,,,,アズマコウサン,0
1926,8120005022945,登記記録の閉鎖等,0,2024-12-13,2024-12-11,社会保険労務士法人アクセス,,その他の設立登記法人,大阪府,大阪市中央区,平野町１丁目７番１号堺筋高橋ビル６Ｆ,00132111,27,128,5410046,,,2024-12-11,清算の結了等,,,2022-05-09,1,,,,,アクセス,0
1929,8120101037871,登記記録の閉鎖等,0,2024-12-13,2024-12-06,吉元毛織株式会社,,株式会社,大阪府,岸和田市,池尻町６７２番地,,27,202,5960813,,,2024-12-06,清算の結了等,,,2015-10-05,1,,,,,ヨシモトケオリ,0
1933,8122002016541,登記記録の閉鎖等,0,2024-12-13,2024-12-09,有限会社すがた,,有限会社,大阪府,柏原市,国分本町７丁目１番１４号,,27,221,5820021,,,2024-12-09,清算の結了等,,,2015-10-05,1,,,,,スガタ,0
1939,8130005005858,登記記録の閉鎖等,0,2024-12-13,2024-12-12,医療法人優和会,,その他の設立登記法人,京都府,京都市右京区,西院四条畑町１番地１１,,26,108,6150066,,,2024-12-12,清算の結了等,,,2015-10-05,1,,,,,ユウワカイ,0
1941,8140001038910,登記記録の閉鎖等,0,2024-12-13,2024-12-09,豊和産業株式会社,,株式会社,兵庫県,たつの市,御津町岩見９１７番地,,28,229,6711331,,,2024-12-09,清算の結了等,,,2015-10-05,1,,,,,ホウワサンギョウ,0
1957,8180003016670,登記記録の閉鎖等,0,2024-12-13,2024-12-04,合同会社アジアンキッチン,,合同会社,愛知県,瀬戸市,幡野町３４５番地の５,,23,204,4890874,,,2024-12-04,清算の結了等,,,2015-11-04,1,,,,,アジアンキッチン,0
1974,8230002013003,登記記録の閉鎖等,0,2024-12-13,2024-12-09,有限会社中勢商店,,有限会社,富山県,氷見市,本町２２番１４号,,16,205,9350016,,,2024-12-09,清算の結了等,,,2015-10-05,1,,,,,ナカセショウテン,0
1983,8290001040117,登記記録の閉鎖等,0,2024-12-13,2024-11-15,株式会社Ｙ．Ｓ,,株式会社,福岡県,福岡市東区,西戸崎３丁目５番１５号,,40,131,8110321,,,2024-11-15,清算の結了等,,,2015-10-05,1,,,,,ワイエス,0
1986,8290001079997,登記記録の閉鎖等,0,2024-12-13,2024-12-02,株式会社Ｈｕｇ,,株式会社,福岡県,大野城市,栄町３丁目１番２４,,40,219,8160924,,,2024-12-02,合併による解散等,8290001065709,令和６年１２月１日福岡市中央区渡辺通五丁目２４番３０号株式会社Ｈｕｇ（8290001065709）に合併し解散,2017-12-20,1,,,,,ハグ,0
1997,8300002009051,登記記録の閉鎖等,0,2024-12-13,2024-12-11,有限会社エン建築事務所,,有限会社,佐賀県,鳥栖市,轟木町１３７０番地２,,41,203,8410061,,,2024-12-11,清算の結了等,,,2015-10-05,1,,,,,エンケンチクジムショ,0
2000,8320001000983,登記記録の閉鎖等,0,2024-12-13,2024-12-11,株式会社共和ゴム工業所,,株式会社,大分県,大分市,金池町２丁目９番７号,,44,201,8700026,,,2024-12-11,清算の結了等,,,2015-10-05,1,,,,,,0
2003,8340002026588,登記記録の閉鎖等,0,2024-12-13,2024-12-09,有限会社道中組,,有限会社,鹿児島県,肝属郡肝付町,後田４７１８番地,,46,492,8931203,,,2024-12-09,清算の結了等,,,2015-10-05,1,,,,,ドウチュウグミ,0
2007,8350001002705,登記記録の閉鎖等,0,2024-12-13,2024-12-10,株式会社建機サービス,,株式会社,宮崎県,宮崎市,池内町伊勢領１３４８番地１,,45,201,8800041,,,2024-12-10,清算の結了等,,,2015-10-05,1,,,,,ケンキサービス,0
2014,8370602002168,登記記録の閉鎖等,0,2024-12-13,2024-12-05,有限会社興和レックス,,有限会社,宮城県,宮城郡松島町,高城字根崎４５番地の３,,04,401,9810215,,,2024-12-05,清算の結了等,,,2015-10-05,1,,,,,コウワレックス,0
2018,8390002011478,登記記録の閉鎖等,0,2024-12-13,2024-12-09,有限会社マッシュ．グループ,,有限会社,山形県,最上郡鮭川村,大字川口１４番地,,06,366,9995203,,,2024-12-09,清算の結了等,,,2015-10-05,1,,,,,,0
2019,8400001005396,登記記録の閉鎖等,0,2024-12-13,2024-12-09,株式会社中村電気商会,,株式会社,岩手県,花巻市,若葉町１丁目１番１６号,,03,205,0250097,,,2024-12-09,清算の結了等,,,2015-10-05,1,,,,,,0
2033,9010001037437,登記記録の閉鎖等,0,2024-12-13,2024-11-29,稲村建設株式会社,,株式会社,東京都,港区,南青山２丁目２番１５－８２５号,,13,103,1070062,,,2024-11-29,清算の結了等,,,2015-10-05,1,,,,,イナムラケンセツ,0
2034,9010001051818,登記記録の閉鎖等,0,2024-12-13,2024-11-29,東邦企画株式会社,,株式会社,東京都,中央区,日本橋３丁目１２番２号,,13,102,1030027,,,2024-11-29,清算の結了等,,,2015-10-05,1,,,,,トウホウキカク,0
2035,9010001100418,登記記録の閉鎖等,0,2024-12-13,2024-11-29,山佐ＤＬＨ１リース株式会社,,株式会社,東京都,千代田区,丸の内３丁目１番１号東京共同会計事務所内,,13,101,1000005,,,2024-11-29,清算の結了等,,,2015-10-05,1,,,,,ヤマサディーエルエイチワンリース,0
2037,9010001133665,登記記録の閉鎖等,0,2024-12-13,2024-12-02,シンタックスエージェンシー株式会社,,株式会社,東京都,中央区,日本橋堀留町１丁目２番９号,,13,102,1030012,,,2024-12-02,清算の結了等,,,2015-10-05,1,,,,,シンタックスエージェンシー,0
2038,9010001155783,登記記録の閉鎖等,0,2024-12-13,2024-11-29,山佐ＴＯＭ５リース株式会社,,株式会社,東京都,千代田区,丸の内３丁目１番１号東京共同会計事務所内,,13,101,1000005,,,2024-11-29,清算の結了等,,,2015-10-05,1,,,,,ヤマサティーオーエムゴリース,0
2043,9010001219373,登記記録の閉鎖等,0,2024-12-13,2024-12-02,Ｔｈｅｒａｂｏｄｙ　Ｊａｐａｎ株式会社,,株式会社,東京都,千代田区,神田神保町１丁目１１番地いちご神保町ビル,,13,101,1010051,,,2024-12-02,清算の結了等,,,2021-07-02,1,,,,,セラボディジャパン,0
2049,9010003025679,登記記録の閉鎖等,0,2024-12-13,2024-11-29,合同会社百万石プロパティ,,合同会社,東京都,中央区,日本橋１丁目４番１号日本橋一丁目ビルディング,,13,102,1030027,,,2024-11-29,清算の結了等,,,2017-07-19,1,,,,,ヒャクマンゴクプロパティ,0
2058,9010102001390,登記記録の閉鎖等,0,2024-12-13,2024-12-11,有限会社大島建興,,有限会社,東京都,八王子市,東浅川町２３４番地,,13,201,1930834,,,2024-12-11,清算の結了等,,,2015-10-05,1,,,,,オオシマケンコウ,0
2064,9010403014884,登記記録の閉鎖等,0,2024-12-13,2024-12-09,合同会社ストゥラグル,,合同会社,東京都,品川区,東品川１丁目３番１５号ＴｈｅＰａｒｋＲｅｘＴＥＮＮＯＺｔｈｅＤＯＣＫ,,13,109,1400002,,,2024-12-09,清算の結了等,,,2016-06-09,1,,,,,ストゥラグル,0
2065,9010501021758,登記記録の閉鎖等,0,2024-12-13,2024-12-04,株式会社太田工業,,株式会社,東京都,台東区,千束３丁目２０番２８号,,13,106,1110031,,,2024-12-04,清算の結了等,,,2015-10-05,1,,,,,オオタコウギョウ,0
2086,9011001142706,登記記録の閉鎖等,0,2024-12-13,2024-11-21,株式会社あとおし,,株式会社,東京都,渋谷区,恵比寿西１丁目２４－１０ＡＳＴＩＬＥ代官山４０１,,13,113,1500021,,,2024-11-21,清算の結了等,,,2021-09-13,1,,,,,アトオシ,0
2098,9011601018413,登記記録の閉鎖等,0,2024-12-13,2024-12-02,株式会社ティー・エス・エス,,株式会社,東京都,練馬区,豊玉南３丁目２７番１８－１１４号,,13,120,1760014,,,2024-12-02,清算の結了等,,,2015-10-05,1,,,,,ティーエスエス,0
2108,9013301045935,登記記録の閉鎖等,0,2024-12-13,2024-12-05,リアゲート株式会社,,株式会社,東京都,豊島区,東池袋１丁目１７番１１号パークハイツ池袋１１０５号,,13,116,1700013,,,2024-12-05,清算の結了等,,,2020-07-17,1,,,,,リアゲート,0
2112,9020002090921,登記記録の閉鎖等,0,2024-12-13,2024-12-04,有限会社吉田土木,,有限会社,神奈川県,川崎市高津区,諏訪２丁目１番２７号,,14,134,2130004,,,2024-12-04,清算の結了等,,,2015-10-05,1,,,,,ヨシダドボク,0
2115,9021001041964,登記記録の閉鎖等,0,2024-12-13,2024-12-11,株式会社クロスパティオ,,株式会社,神奈川県,逗子市,小坪７丁目１１番１６号,,14,208,2490008,,,2024-12-11,清算の結了等,,,2015-10-05,1,,,,,クロスパティオ,0
2118,9021002041419,登記記録の閉鎖等,0,2024-12-13,2024-12-11,有限会社ソエダ製作所,,有限会社,神奈川県,綾瀬市,深谷南２丁目２番７４号エスティームヤハラ二番館３０１,,14,218,2521106,,,2024-12-11,清算の結了等,,,2015-10-05,1,,,,,ソエダセイサクジョ,0
2120,9030001008502,登記記録の閉鎖等,0,2024-12-13,2024-12-10,ヤマハホーム株式会社,,株式会社,埼玉県,さいたま市浦和区,岸町５丁目１６番８号,,11,107,3300064,,,2024-12-10,清算の結了等,,,2015-10-05,1,,,,,ヤマハホーム,0
2122,9030001095169,登記記録の閉鎖等,0,2024-12-13,2024-12-06,林商事株式会社,,株式会社,埼玉県,志木市,幸町３丁目２番５６号,,11,228,3530005,,,2024-12-06,清算の結了等,,,2015-10-05,1,,,,,ハヤシショウジ,0
2137,9040002070938,登記記録の閉鎖等,0,2024-12-13,2024-12-05,有限会社天羽オート販売,,有限会社,千葉県,富津市,望井字鶴舞８８番地１号,,12,226,2991605,,,2024-12-05,清算の結了等,,,2015-10-05,1,,,,,アマハオートハンバイ,0
2143,9050001019976,登記記録の閉鎖等,0,2024-12-13,2024-12-06,株式会社翔建設,,株式会社,茨城県,水戸市,平須町１８１４－１９,,08,201,3100853,,,2024-12-06,清算の結了等,,,2015-10-05,1,,,,,カケルケンセツ,0
2149,9090001002053,登記記録の閉鎖等,0,2024-12-13,2024-12-05,丸大青柳建設株式会社,,株式会社,山梨県,甲府市,朝気３丁目１４番２４号,,19,201,4000862,,,2024-12-05,清算の結了等,,,2015-10-05,1,,,,,マルダイアオヤギケンセツ,0
2155,9110002006587,登記記録の閉鎖等,0,2024-12-13,2024-12-06,有限会社メディカルプランナー新潟,,有限会社,新潟県,新潟市中央区,医学町通２番町７４番地１,,15,103,9518124,,,2024-12-06,合併による解散等,6110001004041,令和６年１２月１日新潟市西区寺尾６番３７号株式会社新潟ファーマシー（6110001004041）に合併し解散,2015-10-05,1,,,,,メディカルプランナーニイガタ,0
2156,9110003004862,登記記録の閉鎖等,0,2024-12-13,2024-12-03,古川産業合同会社,,合同会社,新潟県,柏崎市,大字剣野字泉山１１２３－１,,15,205,9450000,,,2024-12-03,清算の結了等,,,2022-09-14,1,,,,,フルカワサンギョウ,0
2178,9120102005653,登記記録の閉鎖等,0,2024-12-13,2024-12-10,有限会社フォーチュン,,有限会社,大阪府,高石市,東羽衣６丁目１８番１６号,,27,225,5920003,,,2024-12-10,清算の結了等,,,2015-10-05,1,,,,,フォーチュン,0
2190,9130001068908,登記記録の閉鎖等,0,2024-12-13,2024-12-11,五条プロパティ株式会社,,株式会社,大阪府,大阪市北区,本庄東２丁目１番１号,,27,127,5310074,,,2024-12-11,清算の結了等,,,2021-03-30,1,,,,,ゴジョウプロパティ,0
2191,9140001025387,登記記録の閉鎖等,0,2024-12-13,2024-12-10,株式会社神戸さくら不動産,,株式会社,兵庫県,神戸市長田区,前原町２丁目２番１７－２０１号,,28,106,6530803,,,2024-12-10,清算の結了等,,,2015-10-05,1,,,,,コウベサクラフドウサン,0
2193,9140001092931,登記記録の閉鎖等,0,2024-12-13,2024-12-09,サクセスプランニング株式会社,,株式会社,兵庫県,明石市,中崎１丁目１番１－１１１６号,,28,203,6730883,,,2024-12-09,清算の結了等,,,2015-10-05,1,,,,,サクセスプランニング,0
2197,9140001111807,登記記録の閉鎖等,0,2024-12-13,2024-12-10,ベストライフサポート株式会社,,株式会社,兵庫県,神戸市中央区,花隈町１４番１０号ライオンズマンション神戸花隈２０２号室,,28,110,6500013,,,2024-12-10,清算の結了等,,,2018-11-05,1,,,,,ベストライフサポート,0
2198,9140001120964,登記記録の閉鎖等,0,2024-12-13,2024-12-09,株式会社ｋｔ－ｓａｔｅｌｌｉｔｅ,,株式会社,兵庫県,神戸市中央区,栄町通２丁目２番２号和栄ビル６階,,28,110,6500023,,,2024-12-09,合併による解散等,1140001094407,令和６年１１月２２日神戸市中央区栄町通三丁目５番２号プロシード栄町通１２０４号株式会社ｋｔ－ｐｒｏｄｕｃｔ（1140001094407）に合併し解散,2021-04-01,1,,,,,ケーティサテライト,0
2207,9160002013802,登記記録の閉鎖等,0,2024-12-13,2024-12-10,有限会社イノブン,,有限会社,滋賀県,守山市,二町町字下北代２３０番地の１,,25,207,5240043,,,2024-12-10,清算の結了等,,,2015-10-05,1,,,,,イノブン,0
2209,9180001133632,登記記録の閉鎖等,0,2024-12-13,2024-12-02,株式会社ＮＳＥゼネラル,,株式会社,愛知県,日進市,香久山３丁目１６０５番地,,23,230,4700134,,,2024-12-02,合併による解散等,8180001111861,令和６年１１月３０日愛知県日進市香久山三丁目１６０５番地株式会社ＮＳＥビジネス（8180001111861）に合併し解散,2018-09-12,1,,,,,エヌエスイーゼネラル,0
2214,9180002094048,削除,,2024-12-13,,,,,,,,,,,,,,,,,,,,,,,,,
2216,9180005015414,登記記録の閉鎖等,0,2024-12-13,2024-12-06,特定非営利活動法人クラブウィニングフィールド,,その他の設立登記法人,愛知県,名古屋市東区,出来町３丁目６番３３号,,23,102,4610032,,,2024-12-06,清算の結了等,,,2015-10-05,1,,,,,クラブウィニングフィールド,0
2236,9230001011122,登記記録の閉鎖等,0,2024-12-13,2024-12-09,株式会社山本商店,,株式会社,富山県,高岡市,赤祖父２５３番地の６,,16,202,9330806,,,2024-12-09,清算の結了等,,,2015-10-05,1,,,,,ヤマモトショウテン,0
2260,9330001015625,登記記録の閉鎖等,0,2024-12-13,2024-12-05,株式会社一円相,,株式会社,熊本県,上天草市,龍ヶ岳町高戸１２３７番地１７,,43,212,8660202,,,2024-12-05,清算の結了等,,,2015-10-05,1,,,,,イチエンソウ,0
2263,9340001022356,登記記録の閉鎖等,0,2024-12-13,2024-12-09,株式会社百養美人,,株式会社,鹿児島県,出水市,平和町１０１２番地,,46,208,8990217,,,2024-12-09,合併による解散等,1340001023667,令和６年１２月７日鹿児島県出水市平和町１０１２番地株式会社ヒラヤマグループホールディングス（1340001023667）に合併し解散,2019-10-18,1,,,,,ヒャクヨウビジン,0
2266,9360001028640,登記記録の閉鎖等,0,2024-12-13,2024-12-12,株式会社ファンアライズ,,株式会社,沖縄県,中頭郡西原町,上原１丁目１５番地の１４（オーシャンビューテラス４階）,,47,329,9030125,,,2024-12-12,清算の結了等,,,2021-04-15,1,,,,,ファンアライズ,0
2270,9360003013863,登記記録の閉鎖等,0,2024-12-13,2024-12-11,合同会社五光,,合同会社,沖縄県,沖縄市,海邦２丁目２７番８号幸地貸事務所１Ｆ,,47,211,9042162,,,2024-12-11,清算の結了等,,,2024-04-04,1,,,,,ゴコウ,0
2272,9370001025604,登記記録の閉鎖等,0,2024-12-13,2024-12-05,株式会社千葉興建,,株式会社,宮城県,仙台市青葉区,台原２丁目３番３号コンフォート台原１０２号,,04,101,9810911,,,2024-12-05,清算の結了等,,,2015-10-05,1,,,,,チバコウケン,0
2276,9380002020652,登記記録の閉鎖等,0,2024-12-13,2024-12-03,有限会社トレンビューロジスティックス,,有限会社,福島県,郡山市,安積町日出山１丁目１４５番地,,07,203,9630101,,,2024-12-03,合併による解散等,9380002015883,令和６年１２月１日福島県郡山市安積町日出山三丁目２８０番地株式会社Ｂｉｇジョブ（9380002015883）に合併し解散,2015-10-05,1,,,,,トレンビューロジスティックス,0
2278,9390001004746,登記記録の閉鎖等,0,2024-12-13,2024-12-09,ホームライフ東北山形株式会社,,株式会社,山形県,山形市,若宮２丁目６番２８号,,06,201,9902453,,,2024-12-09,合併による解散等,3240001017355,令和６年１２月１日東京都千代田区霞が関三丁目２番５号伊藤忠エネクスホームライフ株式会社（3240001017355）に合併し解散,2015-10-05,1,,,,,ホームライフトウホクヤマガタ,0
2281,9410002002143,登記記録の閉鎖等,0,2024-12-13,2024-12-10,有限会社すずかけ画廊,,有限会社,秋田県,秋田市,牛島西２丁目５番５３号,,05,201,0100063,,,2024-12-10,清算の結了等,,,2015-10-05,1,,,,,スズカケガロウ,0
2282,9420002005137,登記記録の閉鎖等,0,2024-12-13,2024-12-09,有限会社東北コンサルタント,,有限会社,青森県,青森市,大字石江字三好１６７番地３,,02,201,0380003,,,2024-12-09,清算の結了等,,,2015-10-05,1,,,,,トウホクコンサルタント,0
2291,9460102001354,登記記録の閉鎖等,0,2024-12-13,2024-12-10,有限会社佐々木ボデイ,,有限会社,北海道,河西郡芽室町,東五条１０丁目２番地,,01,637,0820015,,,2024-12-10,清算の結了等,,,2015-10-05,1,,,,,ササキボディ,0
2294,9480002008729,登記記録の閉鎖等,0,2024-12-13,2024-12-12,有限会社ワイエヌ企画,,有限会社,徳島県,徳島市,福島２丁目４番５号,,36,201,7700868,,,2024-12-12,清算の結了等,,,2015-10-05,1,,,,,ワイエヌキカク,0
2295,9500001017496,登記記録の閉鎖等,0,2024-12-13,2024-12-11,株式会社四国フラット,,株式会社,愛媛県,松山市,中野町甲２１４番地３,,38,201,7911121,,,2024-12-11,清算の結了等,,,2015-10-05,1,,,,,シコクフラット,0
2296,9500002002299,登記記録の閉鎖等,0,2024-12-13,2024-12-11,有限会社共同設備,,有限会社,愛媛県,松山市,星岡５丁目８番２５号,,38,201,7900922,,,2024-12-11,清算の結了等,,,2015-10-05,1,,,,,キョウドウセツビ,0
