sequenceNumber,corporateNumber,process,correct,updateDate,changeDate,name,nameImageId,kind,prefectureName,cityName,streetNumber,addressImageId,prefectureCode,cityCode,postCode,addressOutside,addressOutsideImageId,closeDate,closeCause,successorCorporateNumber,changeCause,assignmentDate,latest,enName,enPrefectureName,enCityName,enAddressOutside,furigana,hihyoji
10,1010001225767,新規,0,2022-04-15,2022-04-15,株式会社Ｒ＆Ｂ,,株式会社,東京都,千代田区,麹町５丁目５番２号ベルヴュー麹町４階,,13,101,1020083,,,,,,,2022-04-15,1,,,,,アールアンドビー,0
11,1010001225800,新規,0,2022-04-15,2022-04-15,株式会社ネオアグロステーション,,株式会社,東京都,千代田区,内神田３丁目４番６号,,13,101,1010047,,,,,,,2022-04-15,1,,,,,ネオアグロステーション,0
16,1010005034875,新規,0,2022-04-15,2022-04-15,一般社団法人税務・事業経営サポート協会,,その他の設立登記法人,東京都,中央区,八丁堀２丁目３０番１７号,,13,102,1040032,,,,,,,2022-04-15,1,,,,,ゼイムジギョウケイエイサポートキョウカイ,0
17,1010005034891,新規,0,2022-04-15,2022-04-15,豊田ロジスティクス特定目的会社,,その他の設立登記法人,東京都,千代田区,内神田２丁目２番６号５階あすな会計事務所内,,13,101,1010047,,,,,,,2022-04-15,1,,,,,トヨタロジスティクス,0
21,1010403027497,新規,0,2022-04-15,2022-04-15,Ｓｅｅｄ合同会社,,合同会社,東京都,港区,南麻布３丁目３番３３号Ｂ,,13,103,1060047,,,,,,,2022-04-15,1,,,,,シード,0
23,1010405020896,新規,0,2022-04-15,2022-04-15,税理士法人ａｔＭ＆Ｓ,,その他の設立登記法人,東京都,港区,白金台５丁目１５番５号トゥワインデール２階,,13,103,1080071,,,,,,,2022-04-15,1,,,,,アットエムアンドエス,0
29,1010603009493,新規,0,2022-04-15,2022-04-15,マキシマム合同会社,,合同会社,東京都,江東区,亀戸６丁目３１番１－２４１３号,,13,108,1360071,,,,,,,2022-04-15,1,,,,,マキシマム,0
46,1011001146862,新規,0,2022-04-15,2022-04-15,Ｋ＆Ｓソリューションズ株式会社,,株式会社,東京都,渋谷区,桜丘町２９－３１デュオスカーラ渋谷２０３,,13,113,1500031,,,,,,,2022-04-15,1,,,,,ケイアンドエスソリューションズ,0
47,1011001146937,新規,0,2022-04-15,2022-04-15,株式会社ｚｉｐｐｌｅ,,株式会社,東京都,渋谷区,本町３丁目２２－２・１０６,,13,113,1510071,,,,,,,2022-04-15,1,,,,,ジップル,0
49,1011003014506,新規,0,2022-04-15,2022-04-15,合同会社Ｐｈｉｉｔｏ,,合同会社,東京都,渋谷区,上原１丁目１７番７号Ｆｒｅｎｉｔｙｈｏｕｓｅ３０２,,13,113,1510064,,,,,,,2022-04-15,1,,,,,フィット,0
58,1011101098558,新規,0,2022-04-15,2022-04-15,株式会社ビルドパートナーズ,,株式会社,東京都,新宿区,西新宿４丁目５番１号幸伸ビル２階,,13,104,1600023,,,,,,,2022-04-15,1,,,,,ビルドパートナーズ,0
64,1011401024164,新規,0,2022-04-15,2022-04-15,株式会社ＪＩＮＡＮ,,株式会社,東京都,板橋区,高島平７丁目１５番７号Ｊ．Ｔ．新高島平１階,,13,119,1750082,,,,,,,2022-04-15,1,,,,,ジーナン,0
65,1011501027942,新規,0,2022-04-15,2022-04-15,株式会社ＰＮＤ,,株式会社,東京都,北区,赤羽１丁目６６番５号グリーンコーポＩＩ３０１,00126289,13,117,1150045,,,,,,,2022-04-15,1,,,,,ピーエヌディー,0
69,1011701025234,新規,0,2022-04-15,2022-04-15,太陽食品株式会社,,株式会社,東京都,江戸川区,北葛西１丁目２番３０－１０２,,13,123,1340081,,,,,,,2022-04-15,1,,,,,タイヨウショクヒン,0
71,1011801040587,新規,0,2022-04-15,2022-04-15,和島商事株式会社,,株式会社,東京都,足立区,中央本町４丁目１３番１９－２０４号,,13,121,1210011,,,,,,,2022-04-15,1,,,,,ワジマショウジ,0
73,1011803005051,新規,0,2022-04-15,2022-04-15,合同会社ドール,,合同会社,東京都,足立区,千住１丁目２４－５千住プラザビル３階,,13,121,1200034,,,,,,,2022-04-15,1,,,,,ドール,0
76,1012401039103,新規,0,2022-04-15,2022-04-15,株式会社山下商事,,株式会社,東京都,府中市,小柳町５丁目４番地の７府中グランセ３０２,,13,206,1830013,,,,,,,2022-04-15,1,,,,,ヤマシタショウジ,0
77,1012403005326,新規,0,2022-04-15,2022-04-15,風帆合同会社,,合同会社,東京都,狛江市,中和泉２丁目１０番１４－１０２号,,13,219,2010012,,,,,,,2022-04-15,1,,,,,フウハン,0
84,1020001146137,新規,0,2022-04-15,2022-04-15,株式会社ＦＩＴ,,株式会社,神奈川県,横浜市港北区,新羽町４０９９番地１,,14,109,2230057,,,,,,,2022-04-15,1,,,,,フィット,0
91,1020003021619,新規,0,2022-04-15,2022-04-15,合同会社インディゴ・デイジー,,合同会社,神奈川県,横浜市中区,常盤町５丁目６６番地,,14,104,2310014,,,,,,,2022-04-15,1,,,,,インディゴデイジー,0
93,1020005015494,新規,0,2022-04-15,2022-04-15,弁理士法人アイピールーム,,その他の設立登記法人,神奈川県,横浜市港北区,新横浜３丁目７番７号,,14,109,2220033,,,,,,,2022-04-15,1,,,,,アイピールーム,0
98,1021001075714,新規,0,2022-04-15,2022-04-15,株式会社ファミリア,,株式会社,神奈川県,相模原市中央区,田名１９０３番地２０Ｌｉｌｌ相模原Ａ１０３,,14,152,2520244,,,,,,,2022-04-15,1,,,,,ファミリア,0
109,1030005020816,新規,0,2022-04-15,2022-04-15,税理士法人トマソン,,その他の設立登記法人,埼玉県,さいたま市中央区,下落合６丁目１２番２０号,,11,105,3380002,,,,,,,2022-04-15,1,,,,,トマソン,0
118,1040003019891,新規,0,2022-04-15,2022-04-15,合同会社ＯＵＴ,,合同会社,千葉県,松戸市,東平賀５４０クリアフォレスト２０２号室,,12,207,2700003,,,,,,,2022-04-15,1,,,,,アウト,0
123,1050003006501,新規,0,2022-04-15,2022-04-15,フォレスト合同会社,,合同会社,茨城県,土浦市,宍塚字出し山３３６番９,,08,203,3000805,,,,,,,2022-04-15,1,,,,,フォレスト,0
127,1060003004033,新規,0,2022-04-15,2022-04-15,Ｗｏｒｅｍ合同会社,,合同会社,栃木県,宇都宮市,雀の宮２丁目７番１３号チサンマンション３０４,,09,201,3210132,,,,,,,2022-04-15,1,,,,,ウォーレム,0
138,1100003006504,新規,0,2022-04-15,2022-04-15,合同会社ａｚｕｍｉｎｏＭＡＲＬ,,合同会社,長野県,安曇野市,豊科５８６３,,20,220,3998205,,,,,,,2022-04-15,1,,,,,アズミノマール,0
157,1120001245176,新規,0,2022-04-15,2022-04-15,ＧｒｅｅｎＳｈｉｐ　Ｇａｒｄｅｎ株式会社,,株式会社,大阪府,大阪市浪速区,日本橋４丁目５番１８号アーバンコート日本橋３０１号室,,27,111,5560005,,,,,,,2022-04-15,1,,,,,グリーンシップガーデン,0
158,1120001245250,新規,0,2022-04-15,2022-04-15,はな株式会社,,株式会社,大阪府,大阪市北区,芝田２丁目８番１１号３Ｆ,,27,127,5300012,,,,,,,2022-04-15,1,,,,,ハナ,0
160,1120003021501,新規,0,2022-04-15,2022-04-15,合同会社明日香ホールディングス,,合同会社,大阪府,大阪市中央区,北久宝寺町１丁目１番７号,,27,128,5410057,,,,,,,2022-04-15,1,,,,,アスカホールディングス,0
161,1120005022902,新規,0,2022-04-15,2022-04-15,協同組合経営サポートグループ,,その他の設立登記法人,大阪府,大阪市西区,西本町１丁目２番１号,,27,106,5500005,,,,,,,2022-04-15,1,,,,,ケイエイサポートグループ,0
162,1120005022919,新規,0,2022-04-15,2022-04-15,一般社団法人Ｒ・ＡＳＫ４,,その他の設立登記法人,大阪府,大阪市中央区,南船場１丁目１３番２０号,,27,128,5420081,,,,,,,2022-04-15,1,,,,,アールエーエスケーフォー,0
175,1120901045849,新規,0,2022-04-15,2022-04-15,株式会社一柳造園,,株式会社,大阪府,高槻市,上牧町１丁目５番１１号,,27,207,5690003,,,,,,,2022-04-15,1,,,,,イチリュウゾウエン,0
183,1130005016440,新規,0,2022-04-15,2022-04-15,一般社団法人いのり,,その他の設立登記法人,京都府,亀岡市,安町７２番地４０４号ファミーユ・シルフィード,,26,206,6210805,,,,,,,2022-04-15,1,,,,,イノリ,0
193,1140001125649,新規,0,2022-04-15,2022-04-15,株式会社ミライ・グローバル,,株式会社,兵庫県,尼崎市,名神町１丁目１８番２５号,,28,202,6610021,,,,,,,2022-04-15,1,,,,,ミライグローバル,0
200,1150005009384,新規,0,2022-04-15,2022-04-15,一般社団法人桜井市障害者児団体連合会,,その他の設立登記法人,奈良県,桜井市,大字浅古８９番地の２,,29,206,6330052,,,,,,,2022-04-15,1,,,,,サクライシショウガイシャジダンタイレンゴウカイ,0
201,1160001024122,新規,0,2022-04-15,2022-04-15,京滋キャリア株式会社,,株式会社,滋賀県,愛知郡愛荘町,市８７５番地,,25,425,5291313,,,,,,,2022-04-15,1,,,,,ケイジキャリア,0
207,1180001150890,新規,0,2022-04-15,2022-04-15,株式会社ＬＩＮＫＥＲＳ,,株式会社,愛知県,名古屋市南区,柴田町６丁目１１番地の２,,23,112,4570815,,,,,,,2022-04-15,1,,,,,リンカーズ,0
208,1180001150908,新規,0,2022-04-15,2022-04-15,株式会社Ｔ‐ｓｐａｃｅ,,株式会社,愛知県,名古屋市中区,古渡町１８番９号ＴＳＵＮＯＫＹＵ名古屋ビル,,23,106,4600025,,,,,,,2022-04-15,1,,,,,ティースペース,0
211,1180301036105,新規,0,2022-04-15,2022-04-15,株式会社ライフイズモーション,,株式会社,愛知県,蒲郡市,柏原町加治替戸１４番地の１,,23,214,4430008,,,,,,,2022-04-15,1,,,,,ライフイズモーション,0
212,1180301036113,新規,0,2022-04-15,2022-04-15,株式会社ペンギン,,株式会社,愛知県,岡崎市,柱１丁目７番地９,,23,202,4440837,,,,,,,2022-04-15,1,,,,,ペンギン,0
214,1190001029333,新規,0,2022-04-15,2022-04-15,株式会社ｆｏｎｔａｎａ,,株式会社,三重県,四日市市,諏訪町１３番８－７０６号サンマンションアトレ諏訪新道,,24,202,5100085,,,,,,,2022-04-15,1,,,,,フォンターナ,0
231,1260003003881,新規,0,2022-04-15,2022-04-15,合同会社アシスト,,合同会社,岡山県,倉敷市,連島中央５丁目３番３５号,,33,202,7128014,,,,,,,2022-04-15,1,,,,,アシスト,0
241,1290801028441,新規,0,2022-04-15,2022-04-15,株式会社港屋,,株式会社,福岡県,行橋市,大字長木３６８番地７,,40,213,8240058,,,,,,,2022-04-15,1,,,,,ミナトヤ,0
242,1290803004102,新規,0,2022-04-15,2022-04-15,Ｐｉｃｏ　Ｌａｔｔｅ合同会社,,合同会社,福岡県,北九州市小倉南区,重住１丁目２番９１号,,40,107,8020811,,,,,,,2022-04-15,1,,,,,ピコラッテ,0
250,1340001024657,新規,0,2022-04-15,2022-04-15,株式会社ＨＫ＆ＭＭ,,株式会社,鹿児島県,鹿児島市,東谷山６丁目２２番１５号,,46,201,8910113,,,,,,,2022-04-15,1,,,,,,0
251,1350001017701,新規,0,2022-04-15,2022-04-15,ＲＢＨ株式会社,,株式会社,宮崎県,宮崎市,大字島之内２２３５番地１,,45,201,8800121,,,,,,,2022-04-15,1,,,,,アールビーエイチ,0
253,1360001030232,新規,0,2022-04-15,2022-04-15,ＹＵＩ株式会社,,株式会社,沖縄県,中頭郡読谷村,字高志保１２２２番地１,,47,324,9040323,,,,,,,2022-04-15,1,,,,,ユイ,0
256,1360005006633,新規,0,2022-04-15,2022-04-15,カラベジファーマー事業協同組合,,その他の設立登記法人,沖縄県,島尻郡八重瀬町,字仲座２７３番地１,,47,362,9010516,,,,,,,2022-04-15,1,,,,,,0
262,1400001015856,新規,0,2022-04-15,2022-04-15,株式会社Ｃｌｉｍｂｉｔｓ,,株式会社,岩手県,盛岡市,中央通１丁目７－３５ＣｏｒｅＦｉｅｌｄＭｏｒｉｏｋａ１Ｆ－３Ｆ,,03,201,0200021,,,,,,,2022-04-15,1,,,,,クライムビッツ,0
264,1400005008237,新規,0,2022-04-15,2022-04-15,学校法人Ｈ．Ａ．Ｉｎｔｅｒｎａｔｉｏｎａｌ　Ｓｃｈｏｏｌ,,その他の設立登記法人,岩手県,八幡平市,安比高原１８０番８,,03,214,0287306,,,,,,,2022-04-15,1,,,,,エイチエーインターナショナルスクール,0
274,1430001086374,新規,0,2022-04-15,2022-04-15,光陽ホールディングス株式会社,,株式会社,北海道,苫小牧市,一本松町１２番地１,,01,213,0530001,,,,,,,2022-04-15,1,,,,,コウヨウホールディングス,0
275,1430001086457,新規,0,2022-04-15,2022-04-15,株式会社Ｒ＆Ｔフーズ,,株式会社,北海道,札幌市中央区,南一条西７丁目６番地６,,01,101,0600061,,,,,,,2022-04-15,1,,,,,アールアンドティーフーズ,0
285,1700150108001,新規,0,2022-04-15,2022-04-15,ＬＡＮＫＡ　ＡＵＴＯ　ＴＲＡＤＥ,,外国会社等,千葉県,山武市,小泉１０９８番地５,,12,237,2891317,スリランカ民主社会主義共和国、コロンボ１０、スリサンガラジャマワタ、２７０,,,,,,2022-04-15,1,,,,,ランカオートトレード,0
304,2010401166817,新規,0,2022-04-15,2022-04-15,ＭＨ　Ｊａｐａｎ株式会社,,株式会社,東京都,港区,麻布十番３丁目６番２号ＮＳ麻布十番ビル８Ｆ,,13,103,1060045,,,,,,,2022-04-15,1,,,,,エムエイチジャパン,0
305,2010401166825,新規,0,2022-04-15,2022-04-15,株式会社ジェーピーエックス,,株式会社,東京都,港区,虎ノ門５丁目１１番１オランダヒルズ森タワーＲｏＰ８０７号,,13,103,1050001,,,,,,,2022-04-15,1,,,,,ジェーピーエックス,0
308,2010403027488,新規,0,2022-04-15,2022-04-15,合同会社さくらなび,,合同会社,東京都,港区,浜松町２丁目２番１５号浜松町ダイヤビル２Ｆ,,13,103,1050013,,,,,,,2022-04-15,1,,,,,サクラナビ,0
323,2010901050710,新規,0,2022-04-15,2022-04-15,株式会社ＹＹＡ,,株式会社,東京都,世田谷区,上祖師谷６丁目１０番２３号,,13,112,1570065,,,,,,,2022-04-15,1,,,,,ワイワイエイ,0
335,2011001146845,新規,0,2022-04-15,2022-04-15,株式会社よしなにデザイン,,株式会社,東京都,渋谷区,神宮前６丁目２３番４号桑野ビル２階,,13,113,1500001,,,,,,,2022-04-15,1,,,,,ヨシナニデザイン,0
336,2011003014546,新規,0,2022-04-15,2022-04-15,合同会社ＴＡＫＥＤＡ＆ＬＥＥ　ＢＲＯＴＨＥＲＳ,,合同会社,東京都,渋谷区,道玄坂１丁目１０番８号渋谷道玄坂東急ビル２Ｆ－Ｃ,,13,113,1500043,,,,,,,2022-04-15,1,,,,,タケダアンドリーブラザーズ,0
340,2011101098549,新規,0,2022-04-15,2022-04-15,ＸＥＢＯＫ株式会社,,株式会社,東京都,新宿区,西新宿６丁目１０番１号新宿オークシティ日土地西新宿ビル８階,,13,104,1600023,,,,,,,2022-04-15,1,,,,,ゼボック,0
341,2011101098557,新規,0,2022-04-15,2022-04-15,株式会社新栄彩,,株式会社,東京都,新宿区,榎町３４－３榎町ビル５階,,13,104,1620806,,,,,,,2022-04-15,1,,,,,シンエイサイ,0
342,2011103011666,新規,0,2022-04-15,2022-04-15,Ｎｏｂｌｅ　Ｇｒｅｅｎ合同会社,,合同会社,東京都,新宿区,西新宿３丁目３番１３号西新宿水間ビル６階,,13,104,1600023,,,,,,,2022-04-15,1,,,,,ノーブルグリーン,0
343,2011103011674,新規,0,2022-04-15,2022-04-15,ＨＥＶＥＬ合同会社,,合同会社,東京都,新宿区,西早稲田２丁目２１番１１－６０３号,,13,104,1690051,,,,,,,2022-04-15,1,,,,,,0
346,2011301027720,新規,0,2022-04-15,2022-04-15,株式会社千尋,,株式会社,東京都,杉並区,桃井４丁目１２番８－２号,,13,115,1670034,,,,,,,2022-04-15,1,,,,,チヒロ,0
347,2011401024163,新規,0,2022-04-15,2022-04-15,株式会社澤村工業,,株式会社,東京都,板橋区,前野町１丁目５０番４－１０１号,,13,119,1740063,,,,,,,2022-04-15,1,,,,,サワムラコウギョウ,0
348,2011403003628,新規,0,2022-04-15,2022-04-15,合同会社大野総業,,合同会社,東京都,板橋区,徳丸６丁目１４番１３号,,13,119,1750083,,,,,,,2022-04-15,1,,,,,オオノソウギョウ,0
355,2011605002444,新規,0,2022-04-15,2022-04-15,一般社団法人明るい相続終活協会,,その他の設立登記法人,東京都,練馬区,南大泉４丁目４３番１７号,,13,120,1780064,,,,,,,2022-04-15,1,,,,,アカルイソウゾクシュウカツキョウカイ,0
370,2020001146128,新規,0,2022-04-15,2022-04-15,株式会社Ｓ．ｏｎｅ‐ｙａｒｄ,,株式会社,神奈川県,川崎市川崎区,駅前本町１１番地２川崎フロンティアビル４Ｆ,,14,131,2100007,,,,,,,2022-04-15,1,,,,,エスワンヤード,0
371,2020001146144,新規,0,2022-04-15,2022-04-15,エヌケーファクトリー株式会社,,株式会社,神奈川県,横浜市西区,高島２丁目１１番２号スカイメナー横浜５１９,,14,103,2200011,,,,,,,2022-04-15,1,,,,,エヌケーファクトリー,0
405,2060003004032,新規,0,2022-04-15,2022-04-15,南居トレーディング合同会社,,合同会社,栃木県,宇都宮市,問屋町３４２６番地２２銅藤ビル２Ｆ,,09,201,3210911,,,,,,,2022-04-15,1,,,,,ミナミイトレーディング,0
407,2080101023213,新規,0,2022-04-15,2022-04-15,株式会社Ｂｒｕｓｈ　ｕｐ,,株式会社,静岡県,駿東郡清水町,長沢９４８番地の５,,22,341,4110905,,,,,,,2022-04-15,1,,,,,ブラッシュアップ,0
411,2100001035256,新規,0,2022-04-15,2022-04-15,株式会社ＴＥＮ,,株式会社,長野県,茅野市,金沢字権現原４２０６番地,,20,214,3910012,,,,,,,2022-04-15,1,,,,,ティーイーエヌ,0
413,2100005012854,新規,0,2022-04-15,2022-04-15,一般社団法人ケアパートナーズ協会,,その他の設立登記法人,長野県,長野市,上松４丁目３９－８,,20,201,3800802,,,,,,,2022-04-15,1,,,,,ケアパートナーズキョウカイ,0
433,2120001245233,新規,0,2022-04-15,2022-04-15,株式会社ｙ‐ｓｐｏｎｓｏｒ,,株式会社,大阪府,大阪市中央区,高津２丁目４番２１,,27,128,5420072,,,,,,,2022-04-15,1,,,,,ワイスポンサー,0
434,2120001245258,新規,0,2022-04-15,2022-04-15,株式会社ＭＩＮＯＭＩ,,株式会社,大阪府,大阪市北区,梅田１丁目１－３大阪駅前第３ビル２９階１－１－１号室,,27,127,5300001,,,,,,,2022-04-15,1,,,,,ミノミ,0
435,2120003021491,新規,0,2022-04-15,2022-04-15,サンタ合同会社,,合同会社,大阪府,大阪市天王寺区,夕陽丘町３番３０－６０１号,,27,109,5430075,,,,,,,2022-04-15,1,,,,,サンタ,0
436,2120003021500,新規,0,2022-04-15,2022-04-15,合同会社チビデデ,,合同会社,大阪府,大阪市西区,立売堀６丁目８－６－６０４,,27,106,5500012,,,,,,,2022-04-15,1,,,,,チビデデ,0
437,2120005022901,新規,0,2022-04-15,2022-04-15,特定非営利活動法人まなびたいわ,,その他の設立登記法人,大阪府,守口市,藤田町１丁目５番－１０－５０３号,,27,209,5700014,,,,,,,2022-04-15,1,,,,,マナビタイワ,0
438,2120005022918,新規,0,2022-04-15,2022-04-15,一般社団法人Ｒ・ＡＳＫ３,,その他の設立登記法人,大阪府,大阪市中央区,南船場１丁目１３番２０号,,27,128,5420081,,,,,,,2022-04-15,1,,,,,アールエーエスケースリー,0
442,2120101065399,新規,0,2022-04-15,2022-04-15,株式会社エクスト,,株式会社,大阪府,松原市,西大塚２丁目３９６－９,,27,217,5800011,,,,,,,2022-04-15,1,,,,,エクスト,0
445,2120903004117,新規,0,2022-04-15,2022-04-15,合同会社ＵＴ,,合同会社,大阪府,箕面市,新稲５丁目１５番２０号,,27,220,5620005,,,,,,,2022-04-15,1,,,,,ユウティ,0
460,2140001039344,新規,0,2022-04-15,2022-04-15,三日月繊維工業株式会社,,株式会社,兵庫県,佐用郡佐用町,末広５３３番地,,28,501,6795300,,,,,,,2022-04-15,1,,,,,ミカヅキセンイコウギョウ,0
464,2140001125631,新規,0,2022-04-15,2022-04-15,株式会社ツイン,,株式会社,兵庫県,西宮市,上大市４丁目８番３２号,,28,204,6638003,,,,,,,2022-04-15,1,,,,,ツイン,0
465,2140003017579,新規,0,2022-04-15,2022-04-15,合同会社レッドビーンズ,,合同会社,兵庫県,神戸市垂水区,東垂水２丁目５番８号カーサピノＩＩ３０５号,00126291,28,108,6550886,,,,,,,2022-04-15,1,,,,,レッドビーンズ,0
476,2180001150881,新規,0,2022-04-15,2022-04-15,株式会社ライフ・ケア,,株式会社,愛知県,名古屋市東区,葵２丁目１３番１４号,,23,102,4610004,,,,,,,2022-04-15,1,,,,,ライフケア,0
478,2200001039981,新規,0,2022-04-15,2022-04-15,株式会社梶原組,,株式会社,岐阜県,瑞穂市,重里５１８番地８,,21,216,5010311,,,,,,,2022-04-15,1,,,,,カジワラグミ,0
489,2250005008739,新規,0,2022-04-15,2022-04-15,一般社団法人山口県ＥＣ協会,,その他の設立登記法人,山口県,防府市,新田１丁目８番３号,,35,206,7470825,,,,,,,2022-04-15,1,,,,,,0
493,2270005005511,新規,0,2022-04-15,2022-04-15,一般社団法人加納拓を救う会,,その他の設立登記法人,鳥取県,鳥取市,賀露町南４丁目２１番２４号,,31,201,6800909,,,,,,,2022-04-15,1,,,,,カノウタクヲスクウカイ,0
497,2290001097162,新規,0,2022-04-15,2022-04-15,株式会社丸善ファーム,,株式会社,福岡県,久留米市,北野町大城４０２番地の２,,40,203,8301104,,,,,,,2022-04-15,1,,,,,マルゼンファーム,0
504,2310005003444,新規,0,2022-04-15,2022-04-15,協同組合佐世保鉄構工業会,,その他の設立登記法人,長崎県,佐世保市,白岳町３番地４,,42,202,8571164,,,,,,,2022-04-15,1,,,,,サセボテッコウコウギョウカイ,0
512,2340003003757,新規,0,2022-04-15,2022-04-15,合同会社大地,,合同会社,鹿児島県,出水郡長島町,指江２１０９番地,,46,404,8991303,,,,,,,2022-04-15,1,,,,,ダイチ,0
517,2360005006624,新規,0,2022-04-15,2022-04-15,医療法人嘉禎会,,その他の設立登記法人,沖縄県,中頭郡中城村,字久場１２番地８,,47,328,9012401,,,,,,,2022-04-15,1,,,,,カテイカイ,0
525,2380003005155,新規,0,2022-04-15,2022-04-15,Ｌｕｌｕ合同会社,,合同会社,福島県,郡山市,駅前２丁目３―７エリート３０ビル２Ｆ,,07,203,9638002,,,,,,,2022-04-15,1,,,,,ルル,0
533,2420001017809,新規,0,2022-04-15,2022-04-15,株式会社タノスム,,株式会社,青森県,五所川原市,字鎌谷町５１７番地１７,,02,205,0370033,,,,,,,2022-04-15,1,,,,,タノスム,0
536,2430001086349,新規,0,2022-04-15,2022-04-15,ワンダーウォール株式会社,,株式会社,北海道,千歳市,勇舞６丁目６番６号,,01,224,0660078,,,,,,,2022-04-15,1,,,,,ワンダーウォール,0
537,2430001086480,新規,0,2022-04-15,2022-04-15,株式会社ＳＲＴ,,株式会社,北海道,札幌市西区,発寒六条９丁目２番１５号ニッセ宮の沢１Ｆ,,01,107,0630826,,,,,,,2022-04-15,1,,,,,エスアールティー,0
556,2700150107662,新規,0,2022-04-15,2022-04-04,ＮｅｋｔｕｒｅＺ,,その他,東京都,渋谷区,代々木３丁目３３－９－３０３,,13,113,1510053,,,,,,,2022-04-04,1,,,,,ネクチヤーズ,0
569,3010003037416,新規,0,2022-04-15,2022-04-15,合同会社ＤｏｓｈＣｏｏｋ,,合同会社,東京都,中央区,銀座１丁目１２―４Ｎ＆ＥＢＬＤ．７階,,13,102,1040061,,,,,,,2022-04-15,1,,,,,ドシュクック,0
570,3010003037465,新規,0,2022-04-15,2022-04-15,サステナブルローンファンド７号合同会社,,合同会社,東京都,中央区,八丁堀４丁目２番１０号ＡＯＪ税理士法人内,,13,102,1040032,,,,,,,2022-04-15,1,,,,,サステナブルローンファンドナナゴウ,0
584,3010403027487,新規,0,2022-04-15,2022-04-15,合同会社ＩＲＭ,,合同会社,東京都,港区,港南４丁目６番４－２２０５号,,13,103,1080075,,,,,,,2022-04-15,1,,,,,アイアールエム,0
589,3010601060991,新規,0,2022-04-15,2022-04-15,株式会社クラルス,,株式会社,東京都,江東区,有明３丁目７番２６号有明フロンティアビルＢ棟９階,,13,108,1350063,,,,,,,2022-04-15,1,,,,,クラルス,0
590,3010603009491,新規,0,2022-04-15,2022-04-15,合同会社ＢＩＯＴＥＺＯＲＯ,,合同会社,東京都,墨田区,菊川２丁目５番２－２０１武藤ビル,,13,107,1300024,,,,,,,2022-04-15,1,,,,,ビオテゾーロ,0
601,3011001147009,新規,0,2022-04-15,2022-04-15,株式会社宙空,,株式会社,東京都,目黒区,中央町２丁目３６番７号,,13,110,1520001,,,,,,,2022-04-15,1,,,,,ソラソラ,0
603,3011003014545,新規,0,2022-04-15,2022-04-15,合同会社パティウ,,合同会社,東京都,渋谷区,道玄坂１丁目１０番８号渋谷道玄坂東急ビル２Ｆ－Ｃ,,13,113,1500043,,,,,,,2022-04-15,1,,,,,パティウ,0
607,3011101098457,新規,0,2022-04-15,2022-04-15,株式会社燦穂,,株式会社,東京都,新宿区,百人町２丁目２５番１３号,,13,104,1690073,,,,,,,2022-04-15,1,,,,,アキホ,0
610,3011103011673,新規,0,2022-04-15,2022-04-15,合同会社ＭＡＲＧＥ,,合同会社,東京都,新宿区,西新宿７丁目１７番１４号,,13,104,1600023,,,,,,,2022-04-15,1,,,,,マージ,0
612,3011401024162,新規,0,2022-04-15,2022-04-15,ファニプラ株式会社,,株式会社,東京都,板橋区,若木１丁目２７番１６－７０１号,,13,119,1740065,,,,,,,2022-04-15,1,,,,,ファニプラ,0
616,3011405002197,新規,0,2022-04-15,2022-04-15,一般社団法人恵悠会,,その他の設立登記法人,東京都,板橋区,本町６番３－１２３号,,13,119,1730001,,,,,,,2022-04-15,1,,,,,ケイユウカイ,0
619,3011701025224,新規,0,2022-04-15,2022-04-15,株式会社ビッグウエル,,株式会社,東京都,江戸川区,船堀１丁目８番２２－２００８号,,13,123,1340091,,,,,,,2022-04-15,1,,,,,ビッグウエル,0
627,3012301012950,新規,0,2022-04-15,2022-04-15,株式会社ＳＡＮＷＡ,,株式会社,東京都,町田市,忠生３丁目７番地１５,,13,209,1940035,,,,,,,2022-04-15,1,,,,,サンワ,0
635,3020001146036,新規,0,2022-04-15,2022-04-15,株式会社瑞啓,,株式会社,神奈川県,横浜市鶴見区,馬場４丁目１８番２８号,,14,101,2300076,,,,,,,2022-04-15,1,,,,,ズイケイ,0
636,3020001146143,新規,0,2022-04-15,2022-04-15,Ｆｒｅｙｒ　Ｌｉｆｅ　Ｓｃｉｅｎｃｅｓ株式会社,,株式会社,神奈川県,横浜市旭区,西川島町７番地８,,14,112,2410012,,,,,,,2022-04-15,1,,,,,フレイヤライフサイエンシーズ,0
637,3020001146151,新規,0,2022-04-15,2022-04-15,インダス株式会社,,株式会社,神奈川県,横浜市中区,山下町１番地財団法人シルクセンター国際貿易観光会館Ｂ１－１０４号,,14,104,2310023,,,,,,,2022-04-15,1,,,,,インダス,0
643,3020003021609,新規,0,2022-04-15,2022-04-15,スコポス翻訳・コンサルティング合同会社,,合同会社,神奈川県,横浜市西区,平沼２丁目６－１－５０２,,14,103,2200023,,,,,,,2022-04-15,1,,,,,スコポスホンヤクコンサルティング,0
645,3021001075695,新規,0,2022-04-15,2022-04-15,株式会社ＦｒｏｍＴ＆Ｋ,,株式会社,神奈川県,三浦郡葉山町,一色６１０番地の１７,,14,301,2400111,,,,,,,2022-04-15,1,,,,,フロームティーアンドケー,0
646,3021005012496,新規,0,2022-04-15,2022-04-15,一般社団法人テラ,,その他の設立登記法人,神奈川県,相模原市南区,新戸２１２１番地１０,,14,153,2520326,,,,,,,2022-04-15,1,,,,,テラ,0
656,3030003019222,新規,0,2022-04-15,2022-04-15,合同会社Ｎｅｘｔ‐Ｓｔａｇｅ,,合同会社,埼玉県,入間郡三芳町,大字北永井８９１番地１２,,11,324,3540044,,,,,,,2022-04-15,1,,,,,ネクストステージ,0
669,3040003019873,新規,0,2022-04-15,2022-04-15,宮野木ハウス合同会社,,合同会社,千葉県,千葉市稲毛区,宮野木町１６５２－７,,12,103,2630054,,,,,,,2022-04-15,1,,,,,ミヤノギハウス,0
672,3040005021563,新規,0,2022-04-15,2022-04-15,学校法人いちょうの木,,その他の設立登記法人,千葉県,松戸市,八ケ崎向原１０３２番１,,12,207,2700023,,,,,,,2022-04-15,1,,,,,イチョウノキ,0
676,3050001050945,新規,0,2022-04-15,2022-04-15,株式会社和アミューズ,,株式会社,茨城県,古河市,東２丁目１４番１５号,,08,204,3060011,,,,,,,2022-04-15,1,,,,,ワアミューズ,0
678,3050003006499,新規,0,2022-04-15,2022-04-15,合同会社ＬｏｓｔＴｒａｄｉｎｇ,,合同会社,茨城県,土浦市,東崎町１番１４号,,08,203,3000031,,,,,,,2022-04-15,1,,,,,ロストトレーディング,0
680,3060003004031,新規,0,2022-04-15,2022-04-15,合同会社麺屋貴,,合同会社,栃木県,佐野市,葛生東１丁目９番２３号,,09,204,3270501,,,,,,,2022-04-15,1,,,,,メンヤタカ,0
686,3080003002784,新規,0,2022-04-15,2022-04-15,ウエジマチホ合同会社,,合同会社,静岡県,静岡市葵区,呉服町２丁目９－２リッツビル２階,,22,101,4200031,,,,,,,2022-04-15,1,,,,,ウエジマチホ,0
689,3100001035239,新規,0,2022-04-15,2022-04-15,株式会社ＭＣｏｍｐａｎｙ,,株式会社,長野県,塩尻市,大字宗賀７３番地３４６,,20,215,3996461,,,,,,,2022-04-15,1,,,,,エムカンパニー,0
690,3100001035255,新規,0,2022-04-15,2022-04-15,株式会社ＰＮＦ,,株式会社,長野県,塩尻市,大字広丘野村１６５６番地１,,20,215,3990702,,,,,,,2022-04-15,1,,,,,ピーエヌエフ,0
691,3100003006502,新規,0,2022-04-15,2022-04-15,協信合同会社,,合同会社,長野県,小諸市,大字加増２１９番地２,,20,208,3840061,,,,,,,2022-04-15,1,,,,,キョウシン,0
707,3120001245117,新規,0,2022-04-15,2022-04-15,株式会社アマカムムスビ,,株式会社,大阪府,大阪市中央区,高麗橋２丁目３番１５号上喜ビル６階,,27,128,5410043,,,,,,,2022-04-15,1,,,,,アマカムムスビ,0
708,3120001245265,新規,0,2022-04-15,2022-04-15,Ｌｉｇｈｔ　Ｒｅｐｒｏｄｕｃｔｉｏｎ株式会社,,株式会社,大阪府,大阪市天王寺区,悲田院町１番３８－３１２号,,27,109,5430055,,,,,,,2022-04-15,1,,,,,ライトリプロダクション,0
710,3120002084167,新規,0,2022-04-15,2022-04-15,有限会社扇花,,有限会社,大阪府,大阪市中央区,西心斎橋１丁目１３番１８号,,27,128,5420086,,,,,,,2022-04-15,1,,,,,センカ,0
713,3120003021508,新規,0,2022-04-15,2022-04-15,みんなのＢＯＯＫ　ＳＴＯＲＥ合同会社,,合同会社,大阪府,大阪市西成区,玉出中２丁目９番６号西成区玉出中二丁目ビル１０３号室,,27,122,5570044,,,,,,,2022-04-15,1,,,,,ミンナノブックストア,0
719,3120903004108,新規,0,2022-04-15,2022-04-15,ＳＡＴＯＲＩＳ合同会社,,合同会社,大阪府,豊能郡豊能町,東ときわ台６丁目２－７,,27,321,5630103,,,,,,,2022-04-15,1,,,,,サトリス,0
727,3130003007877,新規,0,2022-04-15,2022-04-15,合同会社マルタ,,合同会社,京都府,京都市左京区,岩倉三宅町４１９,,26,103,6060022,,,,,,,2022-04-15,1,,,,,マルタ,0
733,3140001125630,新規,0,2022-04-15,2022-04-15,株式会社ベネログ,,株式会社,兵庫県,神戸市中央区,北野町１丁目１番,,28,110,6500002,,,,,,,2022-04-15,1,,,,,ベネログ,0
734,3140001125639,新規,0,2022-04-15,2022-04-15,天澤駿鴻・日本株式会社,,株式会社,兵庫県,神戸市中央区,脇浜町３丁目５番１０号カサベラエステ三宮１００４号室,,28,110,6510072,,,,,,,2022-04-15,1,,,,,テンザワシュンコウニホン,0
736,3140003017578,新規,0,2022-04-15,2022-04-15,合同会社ＬＯＬＯＭＡ,,合同会社,兵庫県,神戸市垂水区,王居殿３丁目１９番２号,,28,108,6550883,,,,,,,2022-04-15,1,,,,,ロロマ,0
737,3140003017586,新規,0,2022-04-15,2022-04-15,かけり合同会社,,合同会社,兵庫県,西宮市,久出ケ谷町１０番４０号,,28,204,6620077,,,,,,,2022-04-15,1,,,,,カケリ,0
753,3180001150872,新規,0,2022-04-15,2022-04-15,株式会社Ｔ．Ｇ,,株式会社,愛知県,名古屋市南区,堤起町２丁目４５,,23,112,4570825,,,,,,,2022-04-15,1,,,,,ティージー,0
766,3200003005535,新規,0,2022-04-15,2022-04-15,合同会社美心,,合同会社,岐阜県,瑞穂市,稲里７２１番地－１０６号,,21,216,5010224,,,,,,,2022-04-15,1,,,,,ビシン,0
777,3260005011071,新規,0,2022-04-15,2022-04-15,パイン協同組合,,その他の設立登記法人,岡山県,岡山市南区,西市１０８番地３,,33,104,7000953,,,,,,,2022-04-15,1,,,,,パイン,0
785,3290001097145,新規,0,2022-04-15,2022-04-15,株式会社ＰＬＵＭＴＯＷＮ,,株式会社,福岡県,福岡市中央区,警固２丁目６番１６－３０１号,,40,133,8100023,,,,,,,2022-04-15,1,,,,,プラムタウン,0
797,3330005010504,新規,0,2022-04-15,2022-04-15,一般社団法人ＢＬＵＥ　ＵＮＩＳＯＮ,,その他の設立登記法人,熊本県,熊本市中央区,帯山９丁目１番６１－７０３号,,43,101,8620924,,,,,,,2022-04-15,1,,,,,ブルーユニゾン,0
802,3360001030255,新規,0,2022-04-15,2022-04-15,株式会社ＢＵＩＬＤ　ＵＰ,,株式会社,沖縄県,沖縄市,中央３丁目８番１７号シティービューマンション２０４,,47,211,9040004,,,,,,,2022-04-15,1,,,,,ビルドアップ,0
803,3360005006623,新規,0,2022-04-15,2022-04-15,ＮＰＯ法人Ｎｅｘｔ　Ｓｔｅｐ,,その他の設立登記法人,沖縄県,宜野湾市,真志喜１丁目１３番１５号,,47,205,9012224,,,,,,,2022-04-15,1,,,,,ネクストステップ,0
808,3380001032720,新規,0,2022-04-15,2022-04-15,株式会社ＫＵＪＩＲＡ,,株式会社,福島県,郡山市,細沼町８番１８号,,07,203,9638015,,,,,,,2022-04-15,1,,,,,クジラ,0
813,3420001017799,新規,0,2022-04-15,2022-04-15,株式会社プロクレアホールディングス,,株式会社,青森県,青森市,勝田１丁目３番１号,,02,201,0300821,,,,,,,2022-04-15,1,,,,,プロクレアホールディングス,0
814,3420001017808,新規,0,2022-04-15,2022-04-15,シュラコンサルタント株式会社,,株式会社,青森県,青森市,金沢３丁目２６番２２号,,02,201,0300853,,,,,,,2022-04-15,1,,,,,シュラコンサルタント,0
821,3430001086439,新規,0,2022-04-15,2022-04-15,アイフィナーレ２４株式会社,,株式会社,北海道,札幌市白石区,菊水三条２丁目１番２４－７０２号,,01,104,0030803,,,,,,,2022-04-15,1,,,,,アイフィナーレニジュウヨン,0
827,3480005006900,新規,0,2022-04-15,2022-04-15,特定非営利活動法人あおいろ,,その他の設立登記法人,徳島県,徳島市,八万町川南１３１番地の１,,36,201,7708082,,,,,,,2022-04-15,1,,,,,アオイロ,0
828,3490003001646,新規,0,2022-04-15,2022-04-15,アクロソリューションズ合同会社,,合同会社,高知県,高知市,南金田１番５１号,,39,201,7810074,,,,,,,2022-04-15,1,,,,,アクロソリューションズ,0
846,4010001225789,新規,0,2022-04-15,2022-04-15,Ｏｂｅｔａ株式会社,,株式会社,東京都,千代田区,麹町３丁目３番地４,,13,101,1020083,,,,,,,2022-04-15,1,,,,,,0
848,4010003037456,新規,0,2022-04-15,2022-04-15,合同会社バースミュージック,,合同会社,東京都,文京区,大塚５丁目２５番１４号ライオンズマンション護国寺第２、１０５号室,,13,105,1120012,,,,,,,2022-04-15,1,,,,,バースミュージック,0
866,4010401166807,新規,0,2022-04-15,2022-04-15,株式会社ＪＩＳＥＤＡＩ,,株式会社,東京都,港区,西新橋１丁目２番９号日比谷セントラルビル１４階,,13,103,1050003,,,,,,,2022-04-15,1,,,,,ジセダイ,0
867,4010401166823,新規,0,2022-04-15,2022-04-15,株式会社セイゴウウェルビーイング,,株式会社,東京都,港区,三田２丁目３番３４号,,13,103,1080073,,,,,,,2022-04-15,1,,,,,セイゴウウェルビーイング,0
875,4010601060999,新規,0,2022-04-15,2022-04-15,四海株式会社,,株式会社,東京都,江東区,東雲２丁目４番１－１０２０号,,13,108,1350062,,,,,,,2022-04-15,1,,,,,ヨツミ,0
895,4011101098563,新規,0,2022-04-15,2022-04-15,株式会社ＡＤＤ,,株式会社,東京都,新宿区,百人町２丁目７番１６－６０３号,,13,104,1690073,,,,,,,2022-04-15,1,,,,,エーディーディー,0
896,4011103011664,新規,0,2022-04-15,2022-04-15,合同会社ｃｏｍｃａ,,合同会社,東京都,新宿区,西新宿３丁目３番１３号,,13,104,1600023,,,,,,,2022-04-15,1,,,,,コムカ,0
899,4011405002196,新規,0,2022-04-15,2022-04-15,一般社団法人トーナルサポート協会,,その他の設立登記法人,東京都,板橋区,徳丸２丁目７番３０号,,13,119,1750083,,,,,,,2022-04-15,1,,,,,トーナルサポートキョウカイ,0
905,4011803005049,新規,0,2022-04-15,2022-04-15,医王院エンタープライズ合同会社,,合同会社,東京都,葛飾区,亀有３丁目２１－６一直ビル２Ｆ,,13,122,1250061,,,,,,,2022-04-15,1,,,,,イノウインエンタープライズ,0
915,4012401039100,新規,0,2022-04-15,2022-04-15,株式会社バイオアルク,,株式会社,東京都,府中市,本宿町３丁目２８－６１,,13,206,1830032,,,,,,,2022-04-15,1,,,,,バイオアルク,0
916,4012803002754,新規,0,2022-04-15,2022-04-15,合同会社タカオ,,合同会社,東京都,日野市,東平山１丁目７番地の１２平山住宅１９２８,,13,212,1910054,,,,,,,2022-04-15,1,,,,,タカオ,0
920,4020001146126,新規,0,2022-04-15,2022-04-15,株式会社ＴＩＥＲＲＡ,,株式会社,神奈川県,横浜市青葉区,鴨志田町９５番地９,,14,117,2270033,,,,,,,2022-04-15,1,,,,,,0
921,4020001146150,新規,0,2022-04-15,2022-04-15,株式会社トータルマネージメントサポート,,株式会社,神奈川県,川崎市高津区,千年９２１フィリスティ１０３,,14,134,2130022,,,,,,,2022-04-15,1,,,,,トータルマネージメントサポート,0
925,4020003021599,新規,0,2022-04-15,2022-04-15,リベルタ合同会社,,合同会社,神奈川県,横浜市鶴見区,矢向６丁目７番１１号吉川ビル３Ｆ,00126292,14,101,2300001,,,,,,,2022-04-15,1,,,,,リベルタ,0
926,4020003021624,新規,0,2022-04-15,2022-04-15,合同会社ビートル,,合同会社,神奈川県,横浜市港北区,日吉本町３丁目３０番１１号,,14,109,2230062,,,,,,,2022-04-15,1,,,,,ビートル,0
947,4030005020821,新規,0,2022-04-15,2022-04-15,一般社団法人こぐまの家,,その他の設立登記法人,埼玉県,さいたま市岩槻区,宮町１丁目１０番２０－６号,,11,110,3390065,,,,,,,2022-04-15,1,,,,,コグマノイエ,0
951,4040001123040,新規,0,2022-04-15,2022-04-15,株式会社克己興産,,株式会社,千葉県,千葉市若葉区,坂月町２１５番地１,,12,104,2640012,,,,,,,2022-04-15,1,,,,,カツミコウサン,0
961,4060003004030,新規,0,2022-04-15,2022-04-15,リッツモンスター合同会社,,合同会社,栃木県,下野市,駅東３丁目６－９,,09,216,3290413,,,,,,,2022-04-15,1,,,,,リッツモンスター,0
967,4080003002783,新規,0,2022-04-15,2022-04-15,合同会社游渚,,合同会社,静岡県,静岡市駿河区,西島１０２９－１９,,22,102,4228045,,,,,,,2022-04-15,1,,,,,ユウナ,0
974,4100001035254,新規,0,2022-04-15,2022-04-15,株式会社オンクリ,,株式会社,長野県,東御市,滋野乙１６３９番地４４,,20,219,3890512,,,,,,,2022-04-15,1,,,,,オンクリ,0
991,4120001245256,新規,0,2022-04-15,2022-04-15,株式会社ＭＳプランニング,,株式会社,大阪府,門真市,本町８番９号,,27,223,5710046,,,,,,,2022-04-15,1,,,,,エムエスプランニング,0
996,4120003021507,新規,0,2022-04-15,2022-04-15,ＡＩＵ　ＦＩＬＭ　ＪＡＰＡＮ合同会社,,合同会社,大阪府,大阪市北区,梅田１丁目１番３号大阪駅前第３ビル２９階１－１－１号室,,27,127,5300001,,,,,,,2022-04-15,1,,,,,アイウフィルムジャパン,0
1007,4120903004115,新規,0,2022-04-15,2022-04-15,ＹＳＫ合同会社,,合同会社,大阪府,豊中市,向丘３丁目７番３０－６０１号,,27,203,5600053,,,,,,,2022-04-15,1,,,,,ワイエスケー,0
1010,4122001035769,新規,0,2022-04-15,2022-04-15,株式会社濱浪興業,,株式会社,大阪府,八尾市,久宝寺２丁目１番２６号,,27,212,5810072,,,,,,,2022-04-15,1,,,,,ハマナミコウギョウ,0
1016,4130001071560,新規,0,2022-04-15,2022-04-15,株式会社ＫＭＣ,,株式会社,京都府,京都市左京区,田中門前町６６番地２階,,26,103,6068225,,,,,,,2022-04-15,1,,,,,ケーエムシー,0
1017,4130005016454,新規,0,2022-04-15,2022-04-15,一般社団法人嵐山温泉観光協会,,その他の設立登記法人,京都府,京都市右京区,嵯峨天龍寺芒ノ馬場町３４番地,,26,108,6168385,,,,,,,2022-04-15,1,,,,,アラシヤマオンセンカンコウキョウカイ,0
1022,4140001125621,新規,0,2022-04-15,2022-04-15,株式会社Ｓａｓａ,,株式会社,兵庫県,西宮市,松並町１－３－４０４,,28,204,6638102,,,,,,,2022-04-15,1,,,,,,0
1028,4140003017577,新規,0,2022-04-15,2022-04-15,合同会社ｓｈｉｎｗａｔｅｃ,,合同会社,兵庫県,明石市,魚住町清水３３番地の１プレステージ明石魚住Ｖ５０４号,00126290,28,203,6740074,,,,,,,2022-04-15,1,,,,,シンワテック,0
1033,4160001024128,新規,0,2022-04-15,2022-04-15,株式会社滋賀建貴,,株式会社,滋賀県,草津市,下笠町１２９３番地４,,25,206,5250029,,,,,,,2022-04-15,1,,,,,シガケンキ,0
1036,4170001017056,新規,0,2022-04-15,2022-04-15,株式会社加山,,株式会社,和歌山県,有田市,箕島６４４番地１メゾン・プレミールＢ１０５号,,30,204,6490304,,,,,,,2022-04-15,1,,,,,カヤマ,0
1037,4170005006955,新規,0,2022-04-15,2022-04-15,一般社団法人寺泊マネジメント,,その他の設立登記法人,和歌山県,伊都郡高野町,大字高野山４９７番地,,30,344,6480211,,,,,,,2022-04-15,1,,,,,テラハクマネジメント,0
1043,4180005019741,新規,0,2022-04-15,2022-04-15,広小路総合税理士法人,,その他の設立登記法人,愛知県,名古屋市中村区,名駅南１丁目２０番１２号ヨンゴービル２階,,23,105,4500003,,,,,,,2022-04-15,1,,,,,ヒロコウジソウゴウ,0
1045,4180301036110,新規,0,2022-04-15,2022-04-15,野々山物流サービス株式会社,,株式会社,愛知県,知立市,西町本田２１番地１,,23,225,4720023,,,,,,,2022-04-15,1,,,,,ノノヤマブツリュウサービス,0
1046,4180301036119,新規,0,2022-04-15,2022-04-15,株式会社メイト,,株式会社,愛知県,みよし市,東山台３４番地３６,,23,236,4700212,,,,,,,2022-04-15,1,,,,,メイト,0
1050,4190005011697,新規,0,2022-04-15,2022-04-15,土地家屋調査士法人伊賀中央,,その他の設立登記法人,三重県,伊賀市,服部町３丁目１１７番地の５,,24,216,5180007,,,,,,,2022-04-15,1,,,,,イガチュウオウ,0
1053,4200005013329,新規,0,2022-04-15,2022-04-15,白山神社,,その他の設立登記法人,岐阜県,羽島市,小熊町内粟野６０９７番地の１,,21,209,5016262,,,,,,,2022-04-15,1,,,,,,0
1056,4230003001836,新規,0,2022-04-15,2022-04-15,合同会社ｗｉｔｈ,,合同会社,富山県,高岡市,野村１２６６番地１,,16,202,9330014,,,,,,,2022-04-15,1,,,,,ウィズ,0
1065,4240005015379,新規,0,2022-04-15,2022-04-15,一般社団法人ケーエスジェイパートナーズ,,その他の設立登記法人,広島県,広島市中区,東白島町６番１１－５０５号,,34,101,7300004,,,,,,,2022-04-15,1,,,,,ケーエスジェイパートナーズ,0
1071,4260005011070,新規,0,2022-04-15,2022-04-15,一般社団法人なかよし,,その他の設立登記法人,岡山県,浅口郡里庄町,大字里見３２３６番地９,,33,445,7190301,,,,,,,2022-04-15,1,,,,,ナカヨシ,0
1079,4290001097193,新規,0,2022-04-15,2022-04-15,ＬｉｇｈｔＬａｎｄ株式会社,,株式会社,福岡県,福岡市南区,野間３丁目１９番１５－７０２号,,40,134,8150041,,,,,,,2022-04-15,1,,,,,ライトランド,0
1080,4290001097210,新規,0,2022-04-15,2022-04-15,株式会社うなぎのぼり福岡,,株式会社,福岡県,福岡市東区,原田１丁目９番２０号パシフィックアトラス箱崎Ｉ,00126296,40,131,8120063,,,,,,,2022-04-15,1,,,,,ウナギノボリフクオカ,0
1081,4290001097227,新規,0,2022-04-15,2022-04-15,ピースワークス株式会社,,株式会社,福岡県,福岡市東区,箱崎２丁目１６番３２号,,40,131,8120053,,,,,,,2022-04-15,1,,,,,ピースワークス,0
1084,4290003012381,新規,0,2022-04-15,2022-04-15,合同会社ＯＡＳＩＳ　ＬＩＦＥ,,合同会社,福岡県,福岡市早良区,野芥２丁目４８－１９,,40,137,8140171,,,,,,,2022-04-15,1,,,,,オアシスライフ,0
1086,4290005018641,新規,0,2022-04-15,2022-04-15,一般社団法人日本福祉ベンチャーサービス,,その他の設立登記法人,福岡県,福岡市中央区,赤坂１丁目１４番２９－４０２号,,40,133,8100042,,,,,,,2022-04-15,1,,,,,ニホンフクシベンチャーサービス,0
1099,4330005010503,新規,0,2022-04-15,2022-04-15,一般社団法人ワールドラッピングアーティスト協会,,その他の設立登記法人,熊本県,熊本市中央区,帯山５丁目１番２１号,,43,101,8620924,,,,,,,2022-04-15,1,,,,,ワールドラッピングアーティストキョウカイ,0
1102,4350005006061,新規,0,2022-04-15,2022-04-15,一般社団法人日向こども秀雄未来奨学金支援機構,,その他の設立登記法人,宮崎県,延岡市,伊形町５８６８番地,,45,203,8890503,,,,,,,2022-04-15,1,,,,,ヒュウガコドモシュウユウミライショウガクキンシエンキコウ,0
1104,4360001030254,新規,0,2022-04-15,2022-04-15,株式会社エルドラド,,株式会社,沖縄県,宮古島市,平良字西原５３７番地１,,47,214,9060005,,,,,,,2022-04-15,1,,,,,エルドラド,0
1105,4370001048452,新規,0,2022-04-15,2022-04-15,株式会社農業耕社ライフ,,株式会社,宮城県,仙台市若林区,上飯田字天神１番１,,04,103,9840838,,,,,,,2022-04-15,1,,,,,ノウギョウコウシャライフ,0
1108,4370003005658,新規,0,2022-04-15,2022-04-15,合同会社キュルキュマ,,合同会社,宮城県,仙台市青葉区,東照宮１丁目７番２０号,,04,101,9810908,,,,,,,2022-04-15,1,,,,,キュルキュマ,0
1111,4380001032744,新規,0,2022-04-15,2022-04-15,株式会社Ｇｒｅａｔｅｓｔ　Ｏｆ　Ａｌｌ　Ｔｉｍｅ,,株式会社,福島県,いわき市,泉町滝尻字六百町１番地の１泉テラスＣ号,,07,204,9718182,,,,,,,2022-04-15,1,,,,,グレイテストオブオールタイム,0
1115,4390005008954,新規,0,2022-04-15,2022-04-15,医療法人ひなデンタルクリニック,,その他の設立登記法人,山形県,西村山郡河北町,谷地中央２丁目６番地１２,,06,321,9993512,,,,,,,2022-04-15,1,,,,,ヒナデンタルクリニック,0
1119,4430001086396,新規,0,2022-04-15,2022-04-15,株式会社ｒｅｓｔａ,,株式会社,北海道,苫小牧市,明徳町１丁目１２番９号,,01,213,0591273,,,,,,,2022-04-15,1,,,,,リスタ,0
1120,4430001086413,新規,0,2022-04-15,2022-04-15,株式会社藤澤インテリア,,株式会社,北海道,苫小牧市,宮前町３丁目１６番２１号,,01,213,0591264,,,,,,,2022-04-15,1,,,,,フジサワインテリア,0
1128,4470001019039,新規,0,2022-04-15,2022-04-15,株式会社ＦＬＹ　ＫＡＧＡＷＡＳ　ＦＬＹ,,株式会社,香川県,高松市,鶴市町５２５番地３,,37,201,7618032,,,,,,,2022-04-15,1,,,,,フライカガワズフライ,0
1131,4480001011705,新規,0,2022-04-15,2022-04-15,株式会社リペアニック,,株式会社,徳島県,三好市,井川町西井川１１９１番地７,,36,208,7794806,,,,,,,2022-04-15,1,,,,,リペアニック,0
1134,4700150108048,新規,0,2022-04-15,2022-04-15,ＭＯＴＯＨＵＢ　ＡＵＴＯ　ＴＲＡＤＩＮＧ　ＣＯＭＰＡＮＹ,,外国会社等,神奈川県,大和市,福田１３８０－５Ａ－３,,14,213,2420024,スリランカ民主社会主義共和国、キャンディ、アクラナ、ブルハゴハティンネ、２９０／５,,,,,,2022-04-15,1,,,,,モトハブオートトレーデイングカンパニー,0
1140,5010001225788,新規,0,2022-04-15,2022-04-15,株式会社Ｔ‐ｓｑｕａｒＥ,,株式会社,東京都,千代田区,飯田橋２丁目１６－９－８０４,,13,101,1020072,,,,,,,2022-04-15,1,,,,,ティースクエア,0
1141,5010001225953,新規,0,2022-04-15,2022-04-15,株式会社Ｓｋｙｍ　ｃｏｎｓｕｌｔｉｎｇ,,株式会社,東京都,中央区,晴海３丁目１３番１号ＤｅｕｘＴｏｕｒｓＥａｓｔ棟５１１０,,13,102,1040053,,,,,,,2022-04-15,1,,,,,スキームコンサルティング,0
1145,5010005034847,新規,0,2022-04-15,2022-04-15,一般社団法人全日本ｅｓｐｏｒｔｓ協会,,その他の設立登記法人,東京都,千代田区,有楽町２丁目１０番１号東京交通会館６Ｆ,,13,101,1000006,,,,,,,2022-04-15,1,,,,,ゼンニホンイースポーツキョウカイ,0
1148,5010103001897,新規,0,2022-04-15,2022-04-15,やどかり合同会社,,合同会社,東京都,八王子市,松が谷４６‐２‐７,,13,201,1920354,,,,,,,2022-04-15,1,,,,,ヤドカリ,0
1159,5010401166665,新規,0,2022-04-15,2022-04-15,株式会社インテリジェントフォース,,株式会社,東京都,港区,六本木３丁目４番３３号,,13,103,1060032,,,,,,,2022-04-15,1,,,,,インテリジェントフォース,0
1160,5010401166806,新規,0,2022-04-15,2022-04-15,株式会社ｇｒａｃｅ　ｊｅｗｅｌ,,株式会社,東京都,港区,南青山２丁目２番１５号,,13,103,1070062,,,,,,,2022-04-15,1,,,,,グレイスジュエル,0
1161,5010401166830,新規,0,2022-04-15,2022-04-15,株式会社ＩＣ,,株式会社,東京都,港区,白金３丁目２３－６,,13,103,1080072,,,,,,,2022-04-15,1,,,,,アイシー,0
1162,5010401166839,新規,0,2022-04-15,2022-04-15,株式会社ＹＯＡＫＥ,,株式会社,東京都,港区,海岸１丁目４－２２・１０階,,13,103,1050022,,,,,,,2022-04-15,1,,,,,ヨアケ,0
1163,5010403027403,新規,0,2022-04-15,2022-04-15,Ｓｅｃｕｒｉｔｉｚｅ２４合同会社,,合同会社,東京都,港区,南青山１丁目１５番４０号,,13,103,1070062,,,,,,,2022-04-15,1,,,,,セキュリタイズ,0
1182,5011001146982,新規,0,2022-04-15,2022-04-15,株式会社Ｈａｓｈ　Ｌａｇ,,株式会社,東京都,渋谷区,神山町１８番６号,,13,113,1500047,,,,,,,2022-04-15,1,,,,,ハッシュラグ,0
1183,5011003014502,新規,0,2022-04-15,2022-04-15,合同会社船橋工務店,,合同会社,東京都,渋谷区,上原１丁目３番９号,,13,113,1510064,,,,,,,2022-04-15,1,,,,,フナバシコウムテン,0
1190,5011101098538,新規,0,2022-04-15,2022-04-15,株式会社ｗｅ　ｌｉｎｋ,,株式会社,東京都,新宿区,高田馬場２丁目１９番８号,,13,104,1690075,,,,,,,2022-04-15,1,,,,,ウィーリンク,0
1191,5011101098570,新規,0,2022-04-15,2022-04-15,株式会社こころみ,,株式会社,東京都,新宿区,西早稲田１丁目２２－３,,13,104,1690051,,,,,,,2022-04-15,1,,,,,ココロミ,0
1193,5011103011671,新規,0,2022-04-15,2022-04-15,コスモライズ合同会社,,合同会社,東京都,新宿区,西新宿３丁目３番１３号,,13,104,1600023,,,,,,,2022-04-15,1,,,,,コスモライズ,0
1195,5011201023742,新規,0,2022-04-15,2022-04-15,株式会社ウェルビーイングコミュニケーションズ,,株式会社,東京都,中野区,野方２丁目４７番７号コートウィステリア２０２,,13,114,1650027,,,,,,,2022-04-15,1,,,,,ウェルビーイングコミュニケーションズ,0
1197,5011301027718,新規,0,2022-04-15,2022-04-15,株式会社Ａｒｔｅｓａｎｉａ,,株式会社,東京都,杉並区,天沼３丁目３０番１８号１階,,13,115,1670032,,,,,,,2022-04-15,1,,,,,アルテサニア,0
1198,5011303004384,新規,0,2022-04-15,2022-04-15,合同会社Ｚ,,合同会社,東京都,杉並区,阿佐谷北５丁目１番５号,,13,115,1660001,,,,,,,2022-04-15,1,,,,,ゼット,0
1203,5011501027914,新規,0,2022-04-15,2022-04-15,木村不動産株式会社,,株式会社,東京都,荒川区,町屋６丁目３６番１号,,13,118,1160001,,,,,,,2022-04-15,1,,,,,キムラフドウサン,0
1205,5011601025891,新規,0,2022-04-15,2022-04-15,株式会社Ｋ＆Ｗ　ＨＯＬＤＩＮＧＳ,,株式会社,東京都,練馬区,土支田２丁目４－２１,,13,120,1790076,,,,,,,2022-04-15,1,,,,,ケエアンドダブリューホールディングス,0
1207,5011701025189,新規,0,2022-04-15,2022-04-15,株式会社ビビットウィン,,株式会社,東京都,江戸川区,一之江７丁目１０番５号,,13,123,1320024,,,,,,,2022-04-15,1,,,,,ビビットウィン,0
1215,5012405004727,新規,0,2022-04-15,2022-04-15,特定非営利活動法人ＡＩ愛護団体,,その他の設立登記法人,東京都,調布市,富士見町２丁目１番地７富士見ハイム２０２草刈ミカアトリエ内,,13,208,1820033,,,,,,,2022-04-15,1,,,,,エーアイアイゴダンタイ,0
1235,5021001075644,新規,0,2022-04-15,2022-04-15,株式会社Ｌ．Ｅ．Ｓ,,株式会社,神奈川県,秦野市,堀山下６４０番地６－２階,,14,211,2591304,,,,,,,2022-04-15,1,,,,,エルイーエス,0
1241,5021003011606,新規,0,2022-04-15,2022-04-15,合同会社ククル,,合同会社,神奈川県,綾瀬市,上土棚中４丁目５番７１号,,14,218,2521113,,,,,,,2022-04-15,1,,,,,ククル,0
1244,5030003019162,新規,0,2022-04-15,2022-04-15,合同会社ＫＵＲＯＮＯＲＯＫＵ,,合同会社,埼玉県,さいたま市大宮区,桜木町２丁目３番地大宮７階,,11,103,3300854,,,,,,,2022-04-15,1,,,,,クロノロク,0
1250,5040001123007,新規,0,2022-04-15,2022-04-15,株式会社ＨＭＭ,,株式会社,千葉県,鎌ケ谷市,道野辺中央５丁目１１番９号,,12,224,2730113,,,,,,,2022-04-15,1,,,,,エイチエムエム,0
1251,5040001123056,新規,0,2022-04-15,2022-04-15,株式会社ＳＫ商事,,株式会社,千葉県,船橋市,松が丘１丁目４８番１５号,,12,204,2740064,,,,,,,2022-04-15,1,,,,,エスケイシヨウジ,0
1261,5040003019888,新規,0,2022-04-15,2022-04-15,合同会社スティングレイラボ,,合同会社,千葉県,八千代市,村上１１１３番地１２街区１５棟３１１号,,12,221,2760028,,,,,,,2022-04-15,1,,,,,スティングレイラボ,0
1262,5040005021553,新規,0,2022-04-15,2022-04-15,ＮＰＯ法人ひこうき雲,,その他の設立登記法人,千葉県,袖ケ浦市,野里１４７１番地１２,,12,229,2990211,,,,,,,2022-04-15,1,,,,,ヒコウキグモ,0
1268,5050001050951,新規,0,2022-04-15,2022-04-15,得能商事株式会社,,株式会社,茨城県,結城市,大字結城９７８３番地４,,08,207,3070001,,,,,,,2022-04-15,1,,,,,トクノウショウジ,0
1271,5060001034763,新規,0,2022-04-15,2022-04-15,株式会社ねくすと,,株式会社,栃木県,那須塩原市,緑１丁目１３番地１１２,,09,213,3292713,,,,,,,2022-04-15,1,,,,,ネクスト,0
1272,5060001034771,新規,0,2022-04-15,2022-04-15,株式会社ＡＬＰＨＥＲＡＴＺ,,株式会社,栃木県,宇都宮市,御幸ケ原町１２８番地１,,09,201,3210982,,,,,,,2022-04-15,1,,,,,アルフェラッツ,0
1276,5070005009983,新規,0,2022-04-15,2022-04-15,一般社団法人グローバルユナイテッド,,その他の設立登記法人,群馬県,伊勢崎市,太田町１０２５番地２,,10,204,3720006,,,,,,,2022-04-15,1,,,,,,0
1302,5120001245148,新規,0,2022-04-15,2022-04-15,株式会社ＶＥＲＮＯ,,株式会社,大阪府,大阪市福島区,福島１丁目１番１２号リバーレジデンス堂島４０５,,27,103,5530003,,,,,,,2022-04-15,1,,,,,,0
1303,5120001245206,新規,0,2022-04-15,2022-04-15,ＳＴ　Ｏｎｌｉｎｅ株式会社,,株式会社,大阪府,大阪市中央区,北久太郎町二丁目５番１９号,,27,128,5390000,,,,,,,2022-04-15,1,,,,,エスティオンライン,0
1304,5120001245214,新規,0,2022-04-15,2022-04-15,まるに株式会社,,株式会社,大阪府,大阪市淀川区,塚本５丁目７番３－３０１号,,27,123,5320026,,,,,,,2022-04-15,1,,,,,マルニ,0
1305,5120001245230,新規,0,2022-04-15,2022-04-15,阿＿家株式会社,00126297,株式会社,大阪府,大阪市生野区,巽北１丁目１番１号１Ｆ－Ｂ,,27,116,5440004,,,,,,,2022-04-15,1,,,,,アギョクカ,0
1306,5120001245271,新規,0,2022-04-15,2022-04-15,Ａｌｅｓ株式会社,,株式会社,大阪府,大阪市西淀川区,中島１丁目１９番４０－５０３号,,27,113,5550041,,,,,,,2022-04-15,1,,,,,アレス,0
1310,5120003021506,新規,0,2022-04-15,2022-04-15,アキエ産業合同会社,,合同会社,大阪府,大阪市中央区,久太郎町２丁目４番１６－５０３号,,27,128,5410056,,,,,,,2022-04-15,1,,,,,アキエサンギョウ,0
1315,5120903004106,新規,0,2022-04-15,2022-04-15,ＪＵＳＴＧＯ合同会社,,合同会社,大阪府,豊中市,緑丘４丁目３５番２８－２０５号,,27,203,5600002,,,,,,,2022-04-15,1,,,,,ジャストゴー,0
1323,5130005016453,新規,0,2022-04-15,2022-04-15,一般社団法人嵯峨嵐山観光文化振興会,,その他の設立登記法人,京都府,京都市右京区,嵯峨天龍寺芒ノ馬場町３４番地,,26,108,6168385,,,,,,,2022-04-15,1,,,,,サガアラシヤマカンコウブンカシンコウカイ,0
1328,5140001125645,新規,0,2022-04-15,2022-04-15,株式会社Ｅｓｐｏｉｒ,,株式会社,兵庫県,神戸市中央区,北長狭通１丁目３番６号光陽ビル７Ｆ,,28,110,6500012,,,,,,,2022-04-15,1,,,,,エスポワール,0
1329,5140003017584,新規,0,2022-04-15,2022-04-15,ｉ‐Ｃｅｎｔ合同会社,,合同会社,兵庫県,神戸市灘区,高尾通１丁目３番１８－１０５号,,28,102,6570813,,,,,,,2022-04-15,1,,,,,アイセント,0
1340,5170001017055,新規,0,2022-04-15,2022-04-15,株式会社安医会,,株式会社,和歌山県,和歌山市,北野２６８番地２,,30,201,6496331,,,,,,,2022-04-15,1,,,,,ヤスイカイ,0
1349,5180303005293,新規,0,2022-04-15,2022-04-15,合資会社山脇崇成堂薬局,,合資会社,愛知県,高浜市,青木町４丁目７番地４４,,23,227,4441325,,,,,,,2022-04-15,1,,,,,ヤマワキスウセイドウヤッキョク,0
1350,5180303005302,新規,0,2022-04-15,2022-04-15,エヌエーオー合同会社,,合同会社,愛知県,豊橋市,飯村町字南池上４８番地の１,,23,201,4400836,,,,,,,2022-04-15,1,,,,,エヌエーオー,0
1360,5240001059627,新規,0,2022-04-15,2022-04-15,Ｔａｂｌｅｌａｎｄ株式会社,,株式会社,広島県,三原市,小泉町６００番地６,,34,204,7292361,,,,,,,2022-04-15,1,,,,,テーブルランド,0
1366,5260001036756,新規,0,2022-04-15,2022-04-15,株式会社誠報堂,,株式会社,岡山県,岡山市北区,芳賀５３０３番地岡山リサーチパークインキュベーションセンター,,33,101,7011221,,,,,,,2022-04-15,1,,,,,セイホウドウ,0
1369,5290001097093,新規,0,2022-04-15,2022-04-15,株式会社えんちか,,株式会社,福岡県,筑紫野市,原田８丁目１番地１０,,40,217,8180024,,,,,,,2022-04-15,1,,,,,エンチカ,0
1370,5290001097135,新規,0,2022-04-15,2022-04-15,株式会社ＯｎｅＡｌｌｓ,,株式会社,福岡県,福岡市中央区,六本松３丁目７番１４－３０１号,,40,133,8100044,,,,,,,2022-04-15,1,,,,,ワンオールズ,0
1371,5290001097192,新規,0,2022-04-15,2022-04-15,株式会社エフユー,,株式会社,福岡県,福岡市南区,野間２丁目５番１０－３０６号,,40,134,8150041,,,,,,,2022-04-15,1,,,,,エフユー,0
1372,5290001097218,新規,0,2022-04-15,2022-04-15,株式会社８００８,,株式会社,福岡県,福岡市東区,千早４丁目１５番１２－１２１５号,,40,131,8130044,,,,,,,2022-04-15,1,,,,,ハチマルマルハチ,0
1373,5290001097226,新規,0,2022-04-15,2022-04-15,株式会社ＣａｒｉａｒｃＬａｂ,,株式会社,福岡県,福岡市中央区,平尾１丁目１２－５－１２０１レジデンシャルヒルズアネックススイート,,40,133,8100014,,,,,,,2022-04-15,1,,,,,キャリアークラボ,0
1376,5290801028446,新規,0,2022-04-15,2022-04-15,株式会社ＭＡＳＡＫＩ,,株式会社,福岡県,北九州市八幡西区,樋口町３番６－２０１号,,40,109,8060048,,,,,,,2022-04-15,1,,,,,,0
1381,5330001029645,新規,0,2022-04-15,2022-04-15,株式会社ｗｅｅｄ,,株式会社,熊本県,熊本市南区,孫代町１００番地４,,43,104,8615254,,,,,,,2022-04-15,1,,,,,ウィード,0
1387,5360001030245,新規,0,2022-04-15,2022-04-15,株式会社ＫＯＵＥＫＩ,,株式会社,沖縄県,那覇市,具志３丁目２５番１７号,,47,201,9010146,,,,,,,2022-04-15,1,,,,,コウエキ,0
1388,5360001030253,新規,0,2022-04-15,2022-04-15,株式会社ＩＲＩＥ　ＬＩＦＥ,,株式会社,沖縄県,沖縄市,胡屋１丁目５－１５マンションカナン２０１,,47,211,9040021,,,,,,,2022-04-15,1,,,,,アイリーライフ,0
1391,5370001048468,新規,0,2022-04-15,2022-04-15,株式会社ＡＰＥＸｓＭＯＲＥ,,株式会社,宮城県,多賀城市,大代５丁目１０番３４－２０５号,,04,209,9850832,,,,,,,2022-04-15,1,,,,,アペックスモア,0
1392,5370003005657,新規,0,2022-04-15,2022-04-15,合同会社ＨＡＬＩＭ　ＴＲＡＤＩＮＧ,,合同会社,宮城県,大崎市,岩出山下野目字安沢２３番地９,,04,215,9896412,,,,,,,2022-04-15,1,,,,,ハリムトレーディング,0
1397,5380003005152,新規,0,2022-04-15,2022-04-15,合同会社ｍｉｔ　Ｍｕｓｉｋ,,合同会社,福島県,福島市,伏拝字内田３７番地の１３,,07,201,9608154,,,,,,,2022-04-15,1,,,,,ミットムジーク,0
1400,5390003001943,新規,0,2022-04-15,2022-04-15,日承循環合同会社,,合同会社,山形県,鶴岡市,三瀬字殿田３７９―１,,06,203,9997463,,,,,,,2022-04-15,1,,,,,ニッショウジュンカン,0
1401,5400003002923,新規,0,2022-04-15,2022-04-15,合同会社植晋,,合同会社,岩手県,花巻市,東和町安俵１０区７８番地,,03,205,0280115,,,,,,,2022-04-15,1,,,,,ウエシン,0
1406,5420003002500,新規,0,2022-04-15,2022-04-15,合同会社３ＣＷＯＲＫＳ,,合同会社,青森県,弘前市,大字三世寺字色吉３１８番地２,,02,202,0368312,,,,,,,2022-04-15,1,,,,,スリーシーワークス,0
1410,5430003013810,新規,0,2022-04-15,2022-04-15,合同会社杉電,,合同会社,北海道,札幌市白石区,菊水一条３丁目３番９号,,01,104,0030801,,,,,,,2022-04-15,1,,,,,スギデン,0
1414,5440001009066,新規,0,2022-04-15,2022-04-15,株式会社太田板金,,株式会社,北海道,檜山郡江差町,字本町１６７番地,,01,361,0430043,,,,,,,2022-04-15,1,,,,,オオタバンキン,0
1425,5700150108047,新規,0,2022-04-15,2022-04-15,ＩＫＮＡＮ　ＡＵＴＯ　ＥＮＴＥＲＰＲＩＳＥＳ,,外国会社等,神奈川県,大和市,福田１３８０－５Ａ－１,,14,213,2420024,スリランカ民主社会主義共和国、キャンディ、アクラナ、ニーレラ、６０７／５,,,,,,2022-04-15,1,,,,,イクナンオートエンタープライセス,0
1435,6010001225606,新規,0,2022-04-15,2022-04-15,株式会社ＮＯＲＥＮ　Ｍ＆Ａ,,株式会社,東京都,中央区,日本橋箱崎町４１番６－１００４号,,13,102,1030015,,,,,,,2022-04-15,1,,,,,ノレンエムアンドエー,0
1436,6010001225787,新規,0,2022-04-15,2022-04-15,株式会社エムズ,,株式会社,東京都,千代田区,内幸町１丁目３番３号内幸町ダイビル,,13,101,1000011,,,,,,,2022-04-15,1,,,,,エムズ,0
1437,6010001225837,新規,0,2022-04-15,2022-04-15,多摩メディカルキャンパス株式会社,,株式会社,東京都,中央区,京橋２丁目１６番１号,,13,102,1040031,,,,,,,2022-04-15,1,,,,,タマメディカルキャンパス,0
1442,6010101015139,新規,0,2022-04-15,2022-04-15,ＰＡＧＥＯＮＥ株式会社,,株式会社,東京都,八王子市,東浅川町１１０１番地,,13,201,1930834,,,,,,,2022-04-15,1,,,,,ページワン,0
1448,6010401166813,新規,0,2022-04-15,2022-04-15,株式会社ＣＯＮＮＥＣＴＩＯＮ,,株式会社,東京都,港区,赤坂３丁目１４番７号ステラビル６Ｆ,,13,103,1070052,,,,,,,2022-04-15,1,,,,,コネクション,0
1449,6010401166846,新規,0,2022-04-15,2022-04-15,Ｄｅ‐ＳＴＡＮＤＡＲＤ株式会社,,株式会社,東京都,港区,芝浦１丁目１１－８－６０１,,13,103,1050023,,,,,,,2022-04-15,1,,,,,ディースタンダード,0
1450,6010401166854,新規,0,2022-04-15,2022-04-15,株式会社ＷＥＢ３ＷＡＬＬＥＴ,,株式会社,東京都,港区,六本木７丁目１５番７号新六本木ビル８階,,13,103,1060032,,,,,,,2022-04-15,1,,,,,ウェブスリーウォレット,0
1453,6010403027443,新規,0,2022-04-15,2022-04-15,合同会社リコ・パートナーズ,,合同会社,東京都,港区,元赤坂１丁目１番７－１００６号,,13,103,1070051,,,,,,,2022-04-15,1,,,,,リコパートナーズ,0
1454,6010403027501,新規,0,2022-04-15,2022-04-15,バイデザイン・ジャパン合同会社,,合同会社,東京都,港区,港南４丁目７番５５－１４０３号,,13,103,1080075,,,,,,,2022-04-15,1,,,,,バイデザインジャパン,0
1457,6010501048705,新規,0,2022-04-15,2022-04-15,株式会社ビィクトリー警備保障,,株式会社,東京都,台東区,東上野２丁目２４番４号東京銀器会館６Ｆ,,13,106,1100015,,,,,,,2022-04-15,1,,,,,ビィクトリーケイビホショウ,0
1458,6010501048713,新規,0,2022-04-15,2022-04-15,沃森発展株式会社,,株式会社,東京都,台東区,台東２丁目２７番３号ＮＳＫビル１０Ｆ,,13,106,1100016,,,,,,,2022-04-15,1,,,,,ヨクモリハッテン,0
1461,6010603009489,新規,0,2022-04-15,2022-04-15,合同会社ニノムシ,,合同会社,東京都,江東区,東陽５丁目１２番２－４０３号,,13,108,1350016,,,,,,,2022-04-15,1,,,,,ニノムシ,0
1468,6010801032895,新規,0,2022-04-15,2022-04-15,ハードメンバー株式会社,,株式会社,東京都,大田区,西蒲田７丁目５２番３号丸信ビル３階,,13,111,1440051,,,,,,,2022-04-15,1,,,,,ハードメンバー,0
1477,6011001146866,新規,0,2022-04-15,2022-04-15,株式会社ＧＡＶＩ,,株式会社,東京都,渋谷区,神宮前６丁目２３番４号桑野ビル２階,,13,113,1500001,,,,,,,2022-04-15,1,,,,,ガビ,0
1478,6011001146916,新規,0,2022-04-15,2022-04-15,株式会社サンリーブス,,株式会社,東京都,渋谷区,道玄坂１丁目１０番８号渋谷道玄坂東急ビル２Ｆ－Ｃ,,13,113,1500043,,,,,,,2022-04-15,1,,,,,サンリーブス,0
1486,6011303004383,新規,0,2022-04-15,2022-04-15,合同会社Ｌｉｎｏ,,合同会社,東京都,杉並区,永福３丁目３２番１０号,,13,115,1680064,,,,,,,2022-04-15,1,,,,,リノ,0
1491,6011501027946,新規,0,2022-04-15,2022-04-15,株式会社アール,,株式会社,東京都,北区,赤羽１丁目６番７－２０５号,,13,117,1150045,,,,,,,2022-04-15,1,,,,,アール,0
1496,6011703003118,新規,0,2022-04-15,2022-04-15,モバイルスタート合同会社,,合同会社,東京都,江戸川区,中葛西５丁目３２番９－４０３号,,13,123,1340083,,,,,,,2022-04-15,1,,,,,モバイルスタート,0
1515,6020001146116,新規,0,2022-04-15,2022-04-15,株式会社Ｎｉｃｏｒａｚｏｎ,,株式会社,神奈川県,横浜市栄区,庄戸５丁目８番３号,,14,115,2470022,,,,,,,2022-04-15,1,,,,,ニコラソン,0
1521,6020003021606,新規,0,2022-04-15,2022-04-15,合同会社Ｏ‐Ｓｏｍｅ,,合同会社,神奈川県,横浜市青葉区,さつきが丘８番地１９エスペランサ第３青葉台１０３号,,14,117,2270053,,,,,,,2022-04-15,1,,,,,オーサム,0
1522,6020003021622,新規,0,2022-04-15,2022-04-15,ＮＱＴ合同会社,,合同会社,神奈川県,横浜市中区,福富町東通３番１０福富町東通ビル２Ｆ,,14,104,2310044,,,,,,,2022-04-15,1,,,,,エヌキューティー,0
1532,6021005012493,新規,0,2022-04-15,2022-04-15,医療法人丁心会,,その他の設立登記法人,神奈川県,藤沢市,辻堂神台２丁目２番１号アイクロス湘南２階,,14,205,2510041,,,,,,,2022-04-15,1,,,,,テイシンカイ,0
1548,6030003019112,新規,0,2022-04-15,2022-04-15,合同会社ｔｓｕｇｉｔｔａ,,合同会社,埼玉県,志木市,本町５丁目１９番９－４０５号,,11,228,3530004,,,,,,,2022-04-15,1,,,,,ツギッタ,0
1556,6040001123022,新規,0,2022-04-15,2022-04-15,株式会社ｂｕｎｎｙ,,株式会社,千葉県,千葉市花見川区,幕張町１丁目１３１９番地５,,12,102,2620032,,,,,,,2022-04-15,1,,,,,バニー,0
1557,6040001123055,新規,0,2022-04-15,2022-04-15,株式会社グリッド,,株式会社,千葉県,鎌ケ谷市,東道野辺４丁目９番２７号,,12,224,2730115,,,,,,,2022-04-15,1,,,,,グリッド,0
1570,6080005007449,新規,0,2022-04-15,2022-04-15,一般社団法人公共財機構,,その他の設立登記法人,静岡県,静岡市葵区,北安東２丁目１４番１４号アリオーソ２０２,,22,101,4200881,,,,,,,2022-04-15,1,,,,,コウキョウザイキコウ,0
1580,6100005012859,新規,0,2022-04-15,2022-04-15,医療法人あさひ,,その他の設立登記法人,長野県,長野市,大字北長池１６０１番地１,,20,201,3810025,,,,,,,2022-04-15,1,,,,,アサヒ,0
1584,6110005016784,新規,0,2022-04-15,2022-04-15,鹿瀬上川商工会,,その他の設立登記法人,新潟県,東蒲原郡阿賀町,両郷甲２１５０番地,,15,385,9594507,,,,,,新潟県東蒲原郡阿賀町向鹿瀬１７７７番地鹿瀬商工会（5110005003478）と新潟県東蒲原郡阿賀町両郷甲２１５０番地上川商工会（9110005003490）の合併により設立,2022-04-15,1,,,,,カノセカミカワ,0
1585,6110005016792,新規,0,2022-04-15,2022-04-15,特定非営利活動法人海外支援協会,,その他の設立登記法人,新潟県,新潟市東区,津島屋６丁目６３－２,,15,102,9500801,,,,,,,2022-04-15,1,,,,,カイガイシエンキョウカイ,0
1606,6120001245238,新規,0,2022-04-15,2022-04-15,ラセン株式会社,,株式会社,大阪府,大阪市北区,天神橋１丁目５番１３－８０２号,,27,127,5300041,,,,,,,2022-04-15,1,,,,,ラセン,0
1607,6120001245254,新規,0,2022-04-15,2022-04-15,株式会社セイコウ,,株式会社,大阪府,枚方市,楠葉並木２丁目２２番１号楠葉ビル６０４号室,,27,210,5731118,,,,,,,2022-04-15,1,,,,,セイコウ,0
1608,6120003021496,新規,0,2022-04-15,2022-04-15,Ｔａｓｔｅ　ｏｆ　Ｈｏｎｏｌｕｌｕ合同会社,,合同会社,大阪府,大阪市住吉区,苅田６丁目１７番１７－３０１号,,27,120,5580011,,,,,,,2022-04-15,1,,,,,テイストオブホノルル,0
1609,6120003021505,新規,0,2022-04-15,2022-04-15,合同会社Ｅｔｅｒｎｉｔｙ　ｐｌｕｓ,,合同会社,大阪府,大阪市中央区,農人橋１丁目２番７－６０２号,,27,128,5400011,,,,,,,2022-04-15,1,,,,,エタニティープラス,0
1613,6120101065387,新規,0,2022-04-15,2022-04-15,株式会社錦工務店,,株式会社,大阪府,堺市東区,草尾３６１番地３,,27,143,5998127,,,,,,,2022-04-15,1,,,,,ニシキコウムテン,0
1619,6120903004113,新規,0,2022-04-15,2022-04-15,エヌアンドカーズ合同会社,,合同会社,大阪府,高槻市,岡本町２６番９号,,27,207,5691137,,,,,,,2022-04-15,1,,,,,エヌアンドカーズ,0
1635,6140001125644,新規,0,2022-04-15,2022-04-15,株式会社ＳＵＭＯＭＩＴ,,株式会社,兵庫県,姫路市,本町２３３岸田ビル,,28,201,6700012,,,,,,,2022-04-15,1,,,,,スモミット,0
1636,6140001125652,新規,0,2022-04-15,2022-04-15,株式会社新神戸地所,,株式会社,兵庫県,神戸市中央区,熊内町３丁目３番１号アルテ新神戸２０３号室,,28,110,6510056,,,,,,,2022-04-15,1,,,,,,0
1639,6150003002667,新規,0,2022-04-15,2022-04-15,アヲニコ合同会社,,合同会社,奈良県,生駒郡斑鳩町,阿波２丁目１４－３６阿波ビル３０２,,29,344,6360122,,,,,,,2022-04-15,1,,,,,アヲニコ,0
1647,6180001150829,新規,0,2022-04-15,2022-04-15,株式会社モン・トレゾール,,株式会社,愛知県,名古屋市東区,葵１丁目１７番１４号エルブ葵３１０号室,,23,102,4610004,,,,,,,2022-04-15,1,,,,,モントレゾール,0
1655,6210003001497,新規,0,2022-04-15,2022-04-15,合同会社Ｆｏｒｃｅ,,合同会社,福井県,小浜市,甲ケ崎２９－２６－１３ツインクル小浜３０４号,,18,204,9170107,,,,,,,2022-04-15,1,,,,,フォース,0
1657,6220001024805,新規,0,2022-04-15,2022-04-15,株式会社ケイト,,株式会社,石川県,金沢市,泉が丘２丁目３番２７号,,17,201,9218035,,,,,,,2022-04-15,1,,,,,ケイト,0
1659,6230001019325,新規,0,2022-04-15,2022-04-15,株式会社四輪技巧,,株式会社,富山県,下新川郡入善町,上飯野新３４４番地２,,16,342,9390651,,,,,,,2022-04-15,1,,,,,,0
1663,6230003001834,新規,0,2022-04-15,2022-04-15,Ｎｅｗ　Ｇｅｎｅｒａｔｉｏｎ　ＪＡＰＡＮ合同会社,,合同会社,富山県,富山市,黒瀬８１番地２,,16,201,9398213,,,,,,,2022-04-15,1,,,,,ニュージェネレーションジャパン,0
1675,6260005011069,新規,0,2022-04-15,2022-04-15,医療法人社団ＭＯＲ,,その他の設立登記法人,岡山県,岡山市北区,駅元町１５番１号２階,,33,101,7000024,,,,,,,2022-04-15,1,,,,,エムオーアール,0
1686,6290001097200,新規,0,2022-04-15,2022-04-15,株式会社情藝舎,,株式会社,福岡県,福岡市西区,野方６丁目１８番４２号,,40,135,8190043,,,,,,,2022-04-15,1,,,,,ジョウゲイシャ,0
1687,6290001097217,新規,0,2022-04-15,2022-04-15,株式会社アースライフ,,株式会社,福岡県,福岡市中央区,谷１丁目１番２０－１１０２号,,40,133,8100031,,,,,,,2022-04-15,1,,,,,アースライフ,0
1689,6290003012388,新規,0,2022-04-15,2022-04-15,合同会社ＨＡＮＡＤＡ,,合同会社,福岡県,糟屋郡志免町,片峰４丁目６番１１号,,40,343,8112245,,,,,,,2022-04-15,1,,,,,ハナダ,0
1692,6290801028445,新規,0,2022-04-15,2022-04-15,株式会社Ｔａｋａｓｈｉｍａ,,株式会社,福岡県,北九州市八幡西区,紅梅３丁目２番２６－２０７号,,40,109,8060011,,,,,,,2022-04-15,1,,,,,タカシマ,0
1699,6330005010501,新規,0,2022-04-15,2022-04-15,一般社団法人ＴＹＴ,,その他の設立登記法人,熊本県,天草市,本渡町本渡２３６６番地１,,43,215,8630003,,,,,,,2022-04-15,1,,,,,ティーワイティー,0
1704,6360003011928,新規,0,2022-04-15,2022-04-15,合同会社フルパワー,,合同会社,沖縄県,那覇市,松尾２丁目８番１３号,,47,201,9000014,,,,,,,2022-04-15,1,,,,,フルパワー,0
1705,6370001048467,新規,0,2022-04-15,2022-04-15,株式会社三里建設,,株式会社,宮城県,仙台市泉区,北中山４丁目１８－３,,04,105,9813215,,,,,,,2022-04-15,1,,,,,ミサトケンセツ,0
1708,6370003005656,新規,0,2022-04-15,2022-04-15,ＮＳＲ合同会社,,合同会社,宮城県,仙台市青葉区,国見ケ丘５丁目４３番５１号スカーラヒルズ仙台ガーデンＷ１２１７,,04,101,9893201,,,,,,,2022-04-15,1,,,,,エヌエスアール,0
1732,6430001086411,新規,0,2022-04-15,2022-04-15,株式会社ＫＡＫＥＲＵ,,株式会社,北海道,札幌市東区,北四十九条東１４丁目８番７号,,01,103,0070849,,,,,,,2022-04-15,1,,,,,カケル,0
1733,6430001086428,新規,0,2022-04-15,2022-04-15,株式会社小林総合事務所,,株式会社,北海道,札幌市中央区,大通西１５丁目２番地１ラスコム１５ビル,,01,101,0600042,,,,,,,2022-04-15,1,,,,,コバヤシソウゴウジムショ,0
1769,7010401166705,新規,0,2022-04-15,2022-04-15,ユンデエレクトロニックコマース株式会社,,株式会社,東京都,港区,三田１丁目３－３９勝田ビル６Ｆ,,13,103,1080073,,,,,,,2022-04-15,1,,,,,ユンデエレクトロニックコマース,0
1770,7010401166804,新規,0,2022-04-15,2022-04-15,株式会社ａｌｌｅ,,株式会社,東京都,港区,六本木４丁目８番１－１２０２号,,13,103,1060032,,,,,,,2022-04-15,1,,,,,アリー,0
1771,7010401166812,新規,0,2022-04-15,2022-04-15,株式会社スプーン,,株式会社,東京都,港区,南青山２丁目２番１５－９４２号,,13,103,1070062,,,,,,,2022-04-15,1,,,,,スプーン,0
1772,7010401166820,新規,0,2022-04-15,2022-04-15,ＤｅｎｔａｌＭｏｎｉｔｏｒｉｎｇ　Ｊａｐａｎ株式会社,,株式会社,東京都,港区,浜松町２丁目４番１号世界貿易センタービルディング南館１７階,,13,103,1050013,,,,,,,2022-04-15,1,,,,,デンタルモニタリングジャパン,0
1773,7010401166829,新規,0,2022-04-15,2022-04-15,ＯＮＥ株式会社,,株式会社,東京都,港区,六本木４丁目２番４５号高會堂ビル２階,,13,103,1060032,,,,,,,2022-04-15,1,,,,,ワン,0
1777,7010501048720,新規,0,2022-04-15,2022-04-15,株式会社ＲｅＧｏ,,株式会社,東京都,台東区,元浅草４丁目７－５,,13,106,1110041,,,,,,,2022-04-15,1,,,,,リゴ,0
1781,7010605004066,新規,0,2022-04-15,2022-04-15,一般社団法人ＥＶ１００ラストワンマイルを実現する会,,その他の設立登記法人,東京都,江東区,青海２丁目７番４－６３９号,,13,108,1350064,,,,,,,2022-04-15,1,,,,,イーブイヒャクラストワンマイルヲジツゲンスルカイ,0
1787,7010701042507,新規,0,2022-04-15,2022-04-15,株式会社藤井商事,,株式会社,東京都,品川区,西五反田２丁目２５番３号,,13,109,1410031,,,,,,,2022-04-15,1,,,,,フジイショウジ,0
1798,7011001146865,新規,0,2022-04-15,2022-04-15,株式会社レインリリー,,株式会社,東京都,渋谷区,西原１丁目２８番７－３０１号ＭＯＤＩＥＲＨＡＴＡＧＡＹＡ,,13,113,1510066,,,,,,,2022-04-15,1,,,,,レインリリー,0
1799,7011001146898,新規,0,2022-04-15,2022-04-15,株式会社ＣＡＭ,,株式会社,東京都,渋谷区,神宮前６丁目２３番４号桑野ビル２階,,13,113,1500001,,,,,,,2022-04-15,1,,,,,キャム,0
1809,7011101098577,新規,0,2022-04-15,2022-04-15,イージーソーダジャパン株式会社,,株式会社,東京都,新宿区,西新宿３丁目３番１３号西新宿水間ビル６階,,13,104,1600023,,,,,,,2022-04-15,1,,,,,イージーソーダジャパン,0
1811,7011103011678,新規,0,2022-04-15,2022-04-15,合同会社クニタカ,,合同会社,東京都,新宿区,西新宿７丁目５番９－１７１６号,,13,104,1600023,,,,,,,2022-04-15,1,,,,,クニタカ,0
1812,7011105010224,新規,0,2022-04-15,2022-04-15,一般社団法人日本感染症対策検定協会,,その他の設立登記法人,東京都,新宿区,上落合２丁目２２番１１号,,13,104,1610034,,,,,,,2022-04-15,1,,,,,ニホンカンセンショウタイサクケンテイキョウカイ,0
1816,7011401024167,新規,0,2022-04-15,2022-04-15,株式会社ＡＩ　ｉｎｓｕｒａｎｃｅ,,株式会社,東京都,板橋区,仲宿１２－１２,,13,119,1730005,,,,,,,2022-04-15,1,,,,,エーアイインシュアランス,0
1826,7011701025187,新規,0,2022-04-15,2022-04-15,株式会社インプリート,,株式会社,東京都,江戸川区,一之江８丁目１０番１６号,,13,123,1320024,,,,,,,2022-04-15,1,,,,,インプリート,0
1827,7011703003117,新規,0,2022-04-15,2022-04-15,ＭＧＮ合同会社,,合同会社,東京都,江戸川区,南葛西４丁目１６番７－３０１号ツインパレスウエスト,,13,123,1340085,,,,,,,2022-04-15,1,,,,,エムジーエヌ,0
1828,7011801040598,新規,0,2022-04-15,2022-04-15,株式会社ＥＭＩＷＯＲＫＳ,,株式会社,東京都,葛飾区,亀有３丁目３７－１１－１２０３,,13,122,1250061,,,,,,,2022-04-15,1,,,,,エミワークス,0
1829,7011803005046,新規,0,2022-04-15,2022-04-15,合同会社江東興業,,合同会社,東京都,葛飾区,細田３丁目３８番８号,,13,122,1240021,,,,,,,2022-04-15,1,,,,,コウトウコウギョウ,0
1833,7012701017026,新規,0,2022-04-15,2022-04-15,株式会社穂波測地,,株式会社,東京都,西東京市,向台町３丁目５番２７－１０２５号,,13,229,1880013,,,,,,,2022-04-15,1,,,,,ホナミソクチ,0
1848,7020003021613,新規,0,2022-04-15,2022-04-15,キープラニング合同会社,,合同会社,神奈川県,横浜市西区,中央２丁目１番８号,,14,103,2200051,,,,,,,2022-04-15,1,,,,,キープラニング,0
1850,7021001075717,新規,0,2022-04-15,2022-04-15,株式会社ＣＨＥＲＡＦ,,株式会社,神奈川県,厚木市,中町４丁目１４番６号パティオビル５階,,14,212,2430018,,,,,,,2022-04-15,1,,,,,チェラフ,0
1858,7030003019235,新規,0,2022-04-15,2022-04-15,合同会社ＣＴＳ,,合同会社,埼玉県,さいたま市岩槻区,原町１３番４６号,,11,110,3390047,,,,,,,2022-04-15,1,,,,,シーティーエス,0
1860,7030005020819,新規,0,2022-04-15,2022-04-15,医療法人真清会,,その他の設立登記法人,埼玉県,越谷市,大字下間久里８８６番地６９,,11,222,3430045,,,,,,,2022-04-15,1,,,,,シンセイカイ,0
1870,7040003019861,新規,0,2022-04-15,2022-04-15,合同会社ＡＲＡＮＧ・ＧＯＧＯジャング振興会ＪＡＰＡＮ,,合同会社,千葉県,大網白里市,南横川３１２５番地８２,,12,239,2993223,,,,,,,2022-04-15,1,,,,,アランゴーゴージャングシンコウカイジャパン,0
1876,7060003004036,新規,0,2022-04-15,2022-04-15,合同会社Ｐｕｎｃｈｉ　ｋａｄｅ,,合同会社,栃木県,宇都宮市,江曽島３丁目２５７９番地２第三ひさごハイツＡ棟２０２号室,,09,201,3210107,,,,,,,2022-04-15,1,,,,,プンチカディ,0
1897,7100005012858,新規,0,2022-04-15,2022-04-15,医療法人ＬＡＧＯＭ,,その他の設立登記法人,長野県,茅野市,豊平３３１７番地１,,20,214,3910213,,,,,,,2022-04-15,1,,,,,ラーゴン,0
1909,7120001245187,新規,0,2022-04-15,2022-04-15,株式会社コネクト,,株式会社,大阪府,大阪市中央区,北浜３丁目５番１９号淀屋橋ホワイトビル２０６号,,27,128,5410041,,,,,,,2022-04-15,1,,,,,コネクト,0
1910,7120001245253,新規,0,2022-04-15,2022-04-15,株式会社Ｇｅｒｂｅｒａ,,株式会社,大阪府,大阪市浪速区,桜川１丁目２－２２シャトー西川４０Ｃ,,27,111,5560022,,,,,,,2022-04-15,1,,,,,ガーベラ,0
1916,7120901045851,新規,0,2022-04-15,2022-04-15,株式会社Ｃｌｏｕｄ　Ｉｌｌｕｓｉｏｎ,,株式会社,大阪府,豊中市,庄内西町５丁目４番１号,,27,203,5610832,,,,,,,2022-04-15,1,,,,,クラウドイリュージョン,0
1924,7130001071558,新規,0,2022-04-15,2022-04-15,株式会社ｚｗｏｒｋｅｒ,,株式会社,京都府,京都市中京区,壬生仙念町２２番地,,26,104,6048854,,,,,,,2022-04-15,1,,,,,ゼットワーカー,0
1925,7130001071566,新規,0,2022-04-15,2022-04-15,株式会社ワイズ,,株式会社,京都府,京都市右京区,西院矢掛町２５番地１シュールメゾン５０１,,26,108,6150024,,,,,,,2022-04-15,1,,,,,ワイズ,0
1934,7140003017582,新規,0,2022-04-15,2022-04-15,合同会社シクス,,合同会社,兵庫県,神戸市西区,伊川谷町潤和１１７６番地の１,,28,111,6512124,,,,,,,2022-04-15,1,,,,,シクス,0
1941,7170001017029,新規,0,2022-04-15,2022-04-15,株式会社Ｓｅｅｄｓ,,株式会社,和歌山県,御坊市,湯川町小松原５３６－５,,30,205,6440012,,,,,,,2022-04-15,1,,,,,シーズ,0
1946,7180001150919,新規,0,2022-04-15,2022-04-15,株式会社竹中組,,株式会社,愛知県,名古屋市港区,知多１丁目１０４番地,,23,111,4550883,,,,,,,2022-04-15,1,,,,,タケナカグミ,0
1947,7180001150927,新規,0,2022-04-15,2022-04-15,株式会社ｌｅａｆ,,株式会社,愛知県,名古屋市中区,大須４丁目１番４０号,,23,106,4600011,,,,,,,2022-04-15,1,,,,,リーフ,0
1956,7180005019739,新規,0,2022-04-15,2022-04-15,一般社団法人ＭａｉｓｏｎＤｏｒ,,その他の設立登記法人,愛知県,名古屋市港区,九番町３丁目３－１－２Ｆ,,23,111,4550008,,,,,,,2022-04-15,1,,,,,マイゾンドル,0
1971,7210003001496,新規,0,2022-04-15,2022-04-15,私の居場所ふどうさん合同会社,,合同会社,福井県,福井市,南四ツ居１丁目１６番１０号,,18,201,9188204,,,,,,,2022-04-15,1,,,,,ワタシノイバショフドウサン,0
1973,7230001019324,新規,0,2022-04-15,2022-04-15,株式会社ＭｏｄｅｌｉｎｇＸ,,株式会社,富山県,富山市,北代３８４５番地,,16,201,9300103,,,,,,,2022-04-15,1,,,,,,0
1981,7250003003043,新規,0,2022-04-15,2022-04-15,合同会社ａｓｕｋｏ,,合同会社,山口県,山口市,吉敷赤田２丁目１２－４０,,35,203,7530817,,,,,,,2022-04-15,1,,,,,アスコ,0
1983,7290001097216,新規,0,2022-04-15,2022-04-15,株式会社ブルーモルフォ,,株式会社,福岡県,福岡市東区,香椎浜３丁目３番５－９１５号,,40,131,8130016,,,,,,,2022-04-15,1,,,,,ブルーモルフォ,0
1986,7290005018639,新規,0,2022-04-15,2022-04-15,社会保険労務士法人ＴＡコンサルティング,,その他の設立登記法人,福岡県,福岡市博多区,博多駅東３丁目１３番２８号ヴィクトリアビル６０３号,,40,132,8120013,,,,,,,2022-04-15,1,,,,,ティーエーコンサルティング,0
1990,7290801028444,新規,0,2022-04-15,2022-04-15,株式会社新村総建,,株式会社,福岡県,宮若市,宮田４８８８番地７,,40,226,8230011,,,,,,,2022-04-15,1,,,,,ニイムラソウケン,0
1997,7330001029643,新規,0,2022-04-15,2022-04-15,株式会社ディライト,,株式会社,熊本県,熊本市北区,清水岩倉２丁目６番１１号,,43,105,8618084,,,,,,,2022-04-15,1,,,,,ディライト,0
2001,7360001030235,新規,0,2022-04-15,2022-04-15,株式会社ｍａｍ,,株式会社,沖縄県,那覇市,楚辺１丁目１番地１号,,47,201,9000023,,,,,,,2022-04-15,1,,,,,,0
2003,7360003011927,新規,0,2022-04-15,2022-04-15,合同会社ＣＳＥ,,合同会社,沖縄県,石垣市,新栄町８－１３北,,47,207,9070014,,,,,,,2022-04-15,1,,,,,,0
2004,7360005006636,新規,0,2022-04-15,2022-04-15,一般社団法人嘉手納町観光協会,,その他の設立登記法人,沖縄県,中頭郡嘉手納町,字屋良１０２６番地３、１階,,47,325,9040202,,,,,,,2022-04-15,1,,,,,カデナチョウカンコウキョウカイ,0
2010,7380003005159,新規,0,2022-04-15,2022-04-15,合同会社ＬＥＭＯＮＵＰ,,合同会社,福島県,郡山市,久留米２丁目１３８－１３エルシエロＤ棟,,07,203,9638846,,,,,,,2022-04-15,1,,,,,,0
2019,7420001017795,新規,0,2022-04-15,2022-04-15,日興運輸グループ株式会社,,株式会社,青森県,弘前市,大字石川字泉田３１番地１,,02,202,0368124,,,,,,,2022-04-15,1,,,,,ニッコウウンユグループ,0
2022,7430001086435,新規,0,2022-04-15,2022-04-15,株式会社Ｓ・Ｄ・Ａ,,株式会社,北海道,札幌市北区,北十条西１丁目１０番地,,01,102,0010010,,,,,,,2022-04-15,1,,,,,エスディーエー,0
2024,7430003013809,新規,0,2022-04-15,2022-04-15,合同会社ＧＣｓ,,合同会社,北海道,勇払郡むかわ町,福住３丁目６６番地,,01,586,0540032,,,,,,,2022-04-15,1,,,,,ゲーシーズ,0
2025,7440001009064,新規,0,2022-04-15,2022-04-15,アート・アイ株式会社,,株式会社,北海道,函館市,赤川１丁目６番２５号デルタベース００２号室,,01,202,0410805,,,,,,,2022-04-15,1,,,,,,0
2031,7490003001650,新規,0,2022-04-15,2022-04-15,合同会社四国に新幹線を,,合同会社,高知県,高知市,針木東町２７番２８号（ミタニ建設工業株式会社内）,,39,201,7808086,,,,,,,2022-04-15,1,,,,,シコクニシンカンセンヲ,0
2034,7500003002804,新規,0,2022-04-15,2022-04-15,合同会社篠崎建築工匠,,合同会社,愛媛県,松山市,和気町２丁目７４０番地２９,,38,201,7992656,,,,,,,2022-04-15,1,,,,,シノザキケンチクコウショウ,0
2049,8010401166720,新規,0,2022-04-15,2022-04-15,株式会社メタトモ,,株式会社,東京都,港区,芝浦３丁目１７－１１天翔ビル２Ｆ,,13,103,1080023,,,,,,,2022-04-15,1,,,,,メタトモ,0
2054,8010601060946,新規,0,2022-04-15,2022-04-15,株式会社シンクオブファン,,株式会社,東京都,江東区,有明１丁目４番１１号,,13,108,1350063,,,,,,,2022-04-15,1,,,,,シンクオブファン,0
2057,8010701042506,新規,0,2022-04-15,2022-04-15,株式会社サステナブルパビリオン２０２５,,株式会社,東京都,品川区,小山３丁目８番１６号パートナムハウス,,13,109,1420062,,,,,,,2022-04-15,1,,,,,サステナブルパビリオンニゼロニゴ,0
2058,8010801032893,新規,0,2022-04-15,2022-04-15,株式会社ココモア,,株式会社,東京都,大田区,蒲田５丁目２９番８－７０５号,,13,111,1440052,,,,,,,2022-04-15,1,,,,,ココモア,0
2061,8010901050705,新規,0,2022-04-15,2022-04-15,来住コンサルティング株式会社,,株式会社,東京都,世田谷区,若林５丁目４１番９号,,13,112,1540023,,,,,,,2022-04-15,1,,,,,ライジュウコンサルティング,0
2074,8011001146897,新規,0,2022-04-15,2022-04-15,４ＥＶＥＲ　Ｃａｐｉｔａｌ株式会社,,株式会社,東京都,渋谷区,道玄坂１丁目１０番８号渋谷道玄坂東急ビル２Ｆ－Ｃ,,13,113,1500043,,,,,,,2022-04-15,1,,,,,フォーエバーキャピタル,0
2075,8011001146906,新規,0,2022-04-15,2022-04-15,さいころ株式会社,,株式会社,東京都,渋谷区,円山町５番５号Ｎａｖｉ渋谷Ｖ３階,,13,113,1500044,,,,,,,2022-04-15,1,,,,,サイコロ,0
2076,8011001146922,新規,0,2022-04-15,2022-04-15,株式会社オーガナイズ・コミュニティ,,株式会社,東京都,渋谷区,円山町５番５号Ｎａｖｉ渋谷Ｖ３階,,13,113,1500044,,,,,,,2022-04-15,1,,,,,オーガナイズコミュニティ,0
2077,8011001146930,新規,0,2022-04-15,2022-04-15,株式会社ＭＳ総合研究所,,株式会社,東京都,渋谷区,東３丁目１６番１号ベルザ恵比寿ビル,,13,113,1500011,,,,,,,2022-04-15,1,,,,,エムエスソウゴウケンキュウジョ,0
2079,8011003014549,新規,0,2022-04-15,2022-04-15,ジェイブイテクノロジーズ合同会社,,合同会社,東京都,渋谷区,神宮前６丁目２３番４号桑野ビル２Ｆ,,13,113,1500001,,,,,,,2022-04-15,1,,,,,ジェイブイテクノロジーズ,0
2086,8011103011669,新規,0,2022-04-15,2022-04-15,ブリッジコーポレーション合同会社,,合同会社,東京都,新宿区,中落合１丁目１番２２号－４０４,,13,104,1610032,,,,,,,2022-04-15,1,,,,,ブリッジコーポレーション,0
2087,8011103011677,新規,0,2022-04-15,2022-04-15,合同会社ＡＤＡＮ,,合同会社,東京都,新宿区,大久保１丁目５番７号プラザ・ドゥ・セーヌ４０２号室,,13,104,1690072,,,,,,,2022-04-15,1,,,,,アダン,0
2089,8011303004381,新規,0,2022-04-15,2022-04-15,合同会社小野総合管理,,合同会社,東京都,杉並区,上井草３丁目１５番２５号,,13,115,1670023,,,,,,,2022-04-15,1,,,,,オノソウゴウカンリ,0
2094,8011601025889,新規,0,2022-04-15,2022-04-15,株式会社１０ｔａｎ,,株式会社,東京都,練馬区,大泉学園町７丁目６番８号,,13,120,1780061,,,,,,,2022-04-15,1,,,,,ジュウタン,0
2098,8011701025228,新規,0,2022-04-15,2022-04-15,株式会社碧産業,,株式会社,東京都,江戸川区,南葛西６丁目３１番１４号２０６,,13,123,1340085,,,,,,,2022-04-15,1,,,,,アオイサンギョウ,0
2099,8011801040589,新規,0,2022-04-15,2022-04-15,オールウェザー株式会社,,株式会社,東京都,足立区,古千谷本町１丁目３番２８号,,13,121,1210832,,,,,,,2022-04-15,1,,,,,オールウェザー,0
2100,8011801040597,新規,0,2022-04-15,2022-04-15,株式会社ＪＩＮＳＴ,,株式会社,東京都,足立区,栗原３丁目１０番１９－１０１号,,13,121,1230842,,,,,,,2022-04-15,1,,,,,ジンスト,0
2103,8011805003170,新規,0,2022-04-15,2022-04-15,一般社団法人ライフスタック,,その他の設立登記法人,東京都,葛飾区,新小岩２丁目２番１５号エスポアージュ新小岩１０１,,13,122,1240024,,,,,,,2022-04-15,1,,,,,ライフスタック,0
2109,8012701017025,新規,0,2022-04-15,2022-04-15,株式会社ＡＸＩＤＡ,,株式会社,東京都,西東京市,中町１丁目１１番２８号,,13,229,2020013,,,,,,,2022-04-15,1,,,,,アジダ,0
2119,8020001146147,新規,0,2022-04-15,2022-04-15,株式会社ゆう,,株式会社,神奈川県,川崎市川崎区,田町１丁目３番１５号３Ｆ,,14,131,2100822,,,,,,,2022-04-15,1,,,,,ユウ,0
2128,8020005015471,新規,0,2022-04-15,2022-04-15,医療法人美結会,,その他の設立登記法人,神奈川県,横浜市西区,楠町１０番地１ベンハウス本社ビル７階,,14,103,2200003,,,,,,,2022-04-15,1,,,,,ビユウカイ,0
2129,8020005015488,新規,0,2022-04-15,2022-04-15,弁理士法人シンシア・レター,,その他の設立登記法人,神奈川県,横浜市西区,北幸１丁目１１番１号,,14,103,2200004,,,,,,,2022-04-15,1,,,,,シンシアレター,0
2132,8021001075716,新規,0,2022-04-15,2022-04-15,株式会社鎌倉きくらげ弘源堂,,株式会社,神奈川県,鎌倉市,二階堂８７１番地,,14,204,2480002,,,,,,,2022-04-15,1,,,,,カマクラキクラゲコウゲンドウ,0
2133,8021003011611,新規,0,2022-04-15,2022-04-15,トールフォレスツ合同会社,,合同会社,神奈川県,厚木市,森の里３丁目６番１号,,14,212,2430122,,,,,,,2022-04-15,1,,,,,トールフォレスツ,0
2136,8021005012483,新規,0,2022-04-15,2022-04-15,一般社団法人Ｃｏｄｅ　ｆｏｒ　Ｙｏｋｏｓｕｋａ,,その他の設立登記法人,神奈川県,横須賀市,小川町１９番地５富士ビルＮｏ，２－３階,,14,201,2380004,,,,,,,2022-04-15,1,,,,,コードフォーヨコスカ,0
2148,8040001123012,新規,0,2022-04-15,2022-04-15,ＫＴ’Ｓ　ＯＮ株式会社,,株式会社,千葉県,松戸市,西馬橋１丁目３５番地の５７,,12,207,2710044,,,,,,,2022-04-15,1,,,,,ケイティーズオン,0
2166,8090005007479,新規,0,2022-04-15,2022-04-15,ワンダーテロワール甲府盆地一般社団法人,,その他の設立登記法人,山梨県,甲府市,愛宕町５７番地,,19,201,4000023,,,,,,,2022-04-15,1,,,,,ワンダーテロワールコウフボンチ,0
2189,8120001245211,新規,0,2022-04-15,2022-04-15,プロミス株式会社,,株式会社,大阪府,大阪市此花区,酉島３丁目７－４,,27,104,5540051,,,,,,,2022-04-15,1,,,,,プロミス,0
2190,8120001245260,新規,0,2022-04-15,2022-04-15,樂資株式会社,,株式会社,大阪府,大阪市阿倍野区,天王寺町南２丁目２２－８－４０１号,,27,119,5450002,,,,,,,2022-04-15,1,,,,,ラクシ,0
2203,8120103004655,新規,0,2022-04-15,2022-04-15,ＡＴＢ合同会社,,合同会社,大阪府,泉佐野市,鶴原４７９番地の１３プランドール東佐野（１０６）,,27,213,5980071,,,,,,,2022-04-15,1,,,,,エイティビ,0
2207,8122001035773,新規,0,2022-04-15,2022-04-15,丸成インターナショナル株式会社,,株式会社,大阪府,東大阪市,東石切町６丁目１番５０号,,27,227,5798011,,,,,,,2022-04-15,1,,,,,マルセイインターナショナル,0
2218,8140001125601,新規,0,2022-04-15,2022-04-15,株式会社Ｗａｋｅ　ｕｐ,,株式会社,兵庫県,尼崎市,東塚口町１丁目１５番１－３１３号,,28,202,6610011,,,,,,,2022-04-15,1,,,,,ウェイクアップ,0
2219,8140001125659,新規,0,2022-04-15,2022-04-15,株式会社ｕｎｅ,,株式会社,兵庫県,川西市,中央町１５番３号,,28,217,6660016,,,,,,,2022-04-15,1,,,,,ウネ,0
2223,8140003017581,新規,0,2022-04-15,2022-04-15,合同会社サムライスフィールド,,合同会社,兵庫県,赤穂市,清水町９番地４１,,28,212,6780212,,,,,,,2022-04-15,1,,,,,サムライスフィールド,0
2232,8160001024124,新規,0,2022-04-15,2022-04-15,株式会社Ｃａｎｐａｎａ,,株式会社,滋賀県,長浜市,三ツ矢町１番２０号,,25,203,5260023,,,,,,,2022-04-15,1,,,,,カンパーナ,0
2233,8160003002549,新規,0,2022-04-15,2022-04-15,合同会社もんてくーる,,合同会社,滋賀県,犬上郡多賀町,大字藤瀬３９１番地,,25,443,5220335,,,,,,,2022-04-15,1,,,,,モンテクール,0
2246,8180001150918,新規,0,2022-04-15,2022-04-15,株式会社海江商事,,株式会社,愛知県,名古屋市港区,六軒家４０４,,23,111,4550877,,,,,,,2022-04-15,1,,,,,カイエショウジ,0
2247,8180301036107,新規,0,2022-04-15,2022-04-15,株式会社Ｐ‐ＦＬＡＧ,,株式会社,愛知県,岡崎市,大西町字仁田６番地１シャトー岡崎２番館５０３号,,23,202,4440811,,,,,,,2022-04-15,1,,,,,ピーフラッグ,0
2249,8180305009331,新規,0,2022-04-15,2022-04-15,一般社団法人プラバッカアソシエイツ,,その他の設立登記法人,愛知県,西尾市,熊味町小松島５１番地２,,23,213,4450071,,,,,,,2022-04-15,1,,,,,プラバッカアソシエイツ,0
2251,8190003003957,新規,0,2022-04-15,2022-04-15,合同会社ケンズピーク,,合同会社,三重県,津市,夢が丘１丁目４０番地１４,,24,201,5140116,,,,,,,2022-04-15,1,,,,,ケンズピーク,0
2261,8230002014711,新規,0,2022-04-15,2022-04-15,有限会社とやまる,,有限会社,富山県,富山市,西中野本町５番１８,,16,201,9398083,,,,,,,2022-04-15,1,,,,,,0
2274,8260003003883,新規,0,2022-04-15,2022-04-15,ＲｏｏｍＰｒｏ合同会社,,合同会社,岡山県,岡山市北区,問屋町５－１０２－４０１号,,33,101,7000977,,,,,,,2022-04-15,1,,,,,ルームプロ,0
2280,8290001097198,新規,0,2022-04-15,2022-04-15,株式会社エムズ,,株式会社,福岡県,久留米市,東合川７丁目６番１６号,,40,203,8390809,,,,,,,2022-04-15,1,,,,,エムズ,0
2281,8290003012411,新規,0,2022-04-15,2022-04-15,ＨＤ合同会社,,合同会社,福岡県,福岡市博多区,御供所町２－５０,,40,132,8120037,,,,,,,2022-04-15,1,,,,,エイチディー,0
2286,8320001019017,新規,0,2022-04-15,2022-04-15,株式会社Ｍ＆Ｓ,,株式会社,大分県,大分市,高崎２丁目２３番２号,,44,201,8700872,,,,,,,2022-04-15,1,,,,,エスアンドエム,0
2292,8360001030259,新規,0,2022-04-15,2022-04-15,首里電興業株式会社,,株式会社,沖縄県,那覇市,首里久場川町２丁目１５２番地２４、３階,,47,201,9030807,,,,,,,2022-04-15,1,,,,,,0
2295,8370001048465,新規,0,2022-04-15,2022-04-15,貝光エステート株式会社,,株式会社,宮城県,多賀城市,伝上山３丁目３１番１－９０８号,,04,209,9850872,,,,,,,2022-04-15,1,,,,,カイコウエステート,0
2297,8370005010462,新規,0,2022-04-15,2022-04-15,一般社団法人建機安全教習協会,,その他の設立登記法人,宮城県,仙台市宮城野区,扇町７丁目１番１６号,,04,102,9830034,,,,,,,2022-04-15,1,,,,,ケンキアンゼンキョウシュウキョウカイ,0
2302,8380001032749,新規,0,2022-04-15,2022-04-15,株式会社ＮＯＶＡ企画,,株式会社,福島県,郡山市,小原田２丁目２８番７号,,07,203,9638835,,,,,,,2022-04-15,1,,,,,ノバキカク,0
2314,8430001086351,新規,0,2022-04-15,2022-04-15,株式会社小川原組,,株式会社,北海道,千歳市,勇舞６丁目６番６号,,01,224,0660078,,,,,,,2022-04-15,1,,,,,オガワラグミ,0
2319,8430003013808,新規,0,2022-04-15,2022-04-15,合同会社ＢＥＥＲＳＨＥＢＡ,,合同会社,北海道,岩見沢市,日の出南３丁目８番６号,,01,210,0680823,,,,,,,2022-04-15,1,,,,,ベエルシェバ,0
2320,8430003013816,新規,0,2022-04-15,2022-04-15,コンサルＮ合同会社,,合同会社,北海道,札幌市南区,北ノ沢１丁目８－３４,,01,106,0050832,,,,,,,2022-04-15,1,,,,,コンサルエヌ,0
2324,8470003002170,新規,0,2022-04-15,2022-04-15,合同会社ｍｏｙｏ．,,合同会社,香川県,丸亀市,土器町東７丁目５９８番地７,,37,202,7630082,,,,,,,2022-04-15,1,,,,,モヨドット,0
2325,8490001010157,新規,0,2022-04-15,2022-04-15,Ｓｐｒｉｎｇｌｉｋｅ株式会社,,株式会社,高知県,南国市,明見９３３,,39,204,7830007,,,,,,,2022-04-15,1,,,,,スプリングライク,0
2327,8500001024147,新規,0,2022-04-15,2022-04-15,株式会社桂,,株式会社,愛媛県,松山市,三番町１丁目７番地１０ヴィスコンティ三番町１２０１号,,38,201,7900003,,,,,,,2022-04-15,1,,,,,カツラ,0
2328,8700150107632,新規,0,2022-04-15,2022-04-01,Ｓ企画,,その他,東京都,杉並区,西荻北２丁目１－３シャトルマンション３０３,,13,115,1670042,,,,,,,2022-04-01,1,,,,,エスキカク,0
2343,9010001225784,新規,0,2022-04-15,2022-04-15,Ｅｓｔｒｅｌａｓ株式会社,,株式会社,東京都,中央区,八丁堀２丁目１１－１－８０２,,13,102,1040032,,,,,,,2022-04-15,1,,,,,エストレーラス,0
2344,9010001225933,新規,0,2022-04-15,2022-04-15,株式会社オフィス・プレンティージャパン,,株式会社,東京都,千代田区,神田淡路町２丁目１０１番地,,13,101,1010063,,,,,,,2022-04-15,1,,,,,オフィスプレンティージャパン,0
2348,9010005034884,新規,0,2022-04-15,2022-04-15,一般社団法人恵宝会,,その他の設立登記法人,東京都,中央区,日本橋２丁目５番１号４階Ｃ４０１,,13,102,1030027,,,,,,,2022-04-15,1,,,,,ケイホウカイ,0
2352,9010401166728,新規,0,2022-04-15,2022-04-15,株式会社ＯＮＣＥ,,株式会社,東京都,港区,東麻布２丁目２２－１０メゾン東麻布３０１,,13,103,1060044,,,,,,,2022-04-15,1,,,,,ワンス,0
2353,9010401166827,新規,0,2022-04-15,2022-04-15,株式会社ＴＥＲＡＸＩＡ,,株式会社,東京都,港区,浜松町２丁目２番１５号浜松町ダイヤビル２Ｆ,,13,103,1050013,,,,,,,2022-04-15,1,,,,,テラシア,0
2359,9010501048719,新規,0,2022-04-15,2022-04-15,株式会社ウェーブインベスト,,株式会社,東京都,台東区,竜泉２丁目６番１７号,,13,106,1100012,,,,,,,2022-04-15,1,,,,,ウェーブインベスト,0
2378,9011003014515,新規,0,2022-04-15,2022-04-15,Ｃｏｒｎｅｒｏｆｆｉｃｅ合同会社,,合同会社,東京都,渋谷区,神宮前３丁目２５－１８,,13,113,1500001,,,,,,,2022-04-15,1,,,,,コーナーオフィス,0
2379,9011003014531,新規,0,2022-04-15,2022-04-15,Ｆｒａｘｔｅｃｈ合同会社,,合同会社,東京都,渋谷区,渋谷２丁目１９－１５宮益坂ビルディング６０９,,13,113,1500002,,,,,,,2022-04-15,1,,,,,フラックステック,0
2381,9011101098534,新規,0,2022-04-15,2022-04-15,Ｖｅｇｅｔａｂｉｌｉｔｙ株式会社,,株式会社,東京都,新宿区,市谷田町３丁目８市ヶ谷科学技術イノベーションセンタービル２階,,13,104,1620843,,,,,,,2022-04-15,1,,,,,ベジタビリティ,0
2382,9011101098550,新規,0,2022-04-15,2022-04-15,株式会社ＳＡＩＮＴ,,株式会社,東京都,新宿区,河田町３番５１号河田町ガーデン２４１３,,13,104,1620054,,,,,,,2022-04-15,1,,,,,セント,0
2383,9011103011676,新規,0,2022-04-15,2022-04-15,合同会社ＡＲＥＳ,,合同会社,東京都,新宿区,大京町１８番地１７－１０５,,13,104,1600015,,,,,,,2022-04-15,1,,,,,アレス,0
2391,9011801040571,新規,0,2022-04-15,2022-04-15,株式会社ザイン,,株式会社,東京都,足立区,西保木間２丁目１２番９－４１６号,,13,121,1210812,,,,,,,2022-04-15,1,,,,,ザイン,0
2393,9011803005044,新規,0,2022-04-15,2022-04-15,永旺合同会社,,合同会社,東京都,葛飾区,亀有３丁目１３番２号鞠子ビル１Ｆ,,13,122,1250061,,,,,,,2022-04-15,1,,,,,エイオウ,0
2395,9012401039095,新規,0,2022-04-15,2022-04-15,株式会社コスメア,,株式会社,東京都,府中市,緑町３丁目６番地の５－１０２号,,13,206,1830006,,,,,,,2022-04-15,1,,,,,コスメア,0
2402,9020003021520,新規,0,2022-04-15,2022-04-15,誠信合同会社,,合同会社,神奈川県,川崎市川崎区,大島５丁目３番１０－１号,,14,131,2100834,,,,,,,2022-04-15,1,,,,,セイシン,0
2421,9030005020791,新規,0,2022-04-15,2022-04-15,社会保険労務士法人西埼玉労務協会,,その他の設立登記法人,埼玉県,狭山市,大字北入曽１４４４番地１２,,11,215,3501315,,,,,,,2022-04-15,1,,,,,ニシサイタマロウムキョウカイ,0
2425,9040001122847,新規,0,2022-04-15,2022-04-15,秩父ホーム株式会社,,株式会社,千葉県,千葉市稲毛区,長沼町９５番地,,12,103,2630005,,,,,,,2022-04-15,1,,,,,,0
2426,9040001123060,新規,0,2022-04-15,2022-04-15,株式会社ＭＴＲミュージック,,株式会社,千葉県,千葉市花見川区,作新台１丁目１番２０号,,12,102,2620045,,,,,,,2022-04-15,1,,,,,エムティアールミュージック,0
2436,9060003004034,新規,0,2022-04-15,2022-04-15,ＰＥＡＣＥ合同会社,,合同会社,栃木県,宇都宮市,西原町３５３６番地１２,,09,201,3200826,,,,,,,2022-04-15,1,,,,,ピース,0
2448,9090005007478,新規,0,2022-04-15,2022-04-15,特定非営利活動法人ＷａｋｕＷａｋｕの家,,その他の設立登記法人,山梨県,山梨市,下神内川３０番地１,,19,205,4050017,,,,,,,2022-04-15,1,,,,,ワクワクノイエ,0
2473,9120001245243,新規,0,2022-04-15,2022-04-15,株式会社みず希,,株式会社,大阪府,大阪市浪速区,桜川３丁目１番２８号,,27,111,5560022,,,,,,,2022-04-15,1,,,,,ミズキ,0
2474,9120001245251,新規,0,2022-04-15,2022-04-15,株式会社ＫＯＫＯＩＲＯ,,株式会社,大阪府,守口市,八雲東町１丁目６番８号,,27,209,5700021,,,,,,,2022-04-15,1,,,,,ココイロ,0
2476,9120003021493,新規,0,2022-04-15,2022-04-15,合同会社Ｉｐｐｏ,,合同会社,大阪府,大阪市北区,梅田２丁目５番１３号桜橋第一ビル３０４号,,27,127,5300001,,,,,,,2022-04-15,1,,,,,イッポ,0
2477,9120003021510,新規,0,2022-04-15,2022-04-15,合同会社フロンティア,,合同会社,大阪府,大阪市福島区,吉野４丁目２７番２３－２０２号,,27,103,5530006,,,,,,,2022-04-15,1,,,,,フロンティア,0
2488,9120903004110,新規,0,2022-04-15,2022-04-15,合同会社ＳＤＵ,,合同会社,大阪府,豊中市,上野西１丁目１番２５－２０２号,,27,203,5600011,,,,,,,2022-04-15,1,,,,,エスディーユー,0
2505,9140001125641,新規,0,2022-04-15,2022-04-15,株式会社リレーションズ,,株式会社,兵庫県,三木市,志染町東自由が丘３丁目５２１番地,,28,215,6730553,,,,,,,2022-04-15,1,,,,,リレーションズ,0
2506,9140001125674,新規,0,2022-04-15,2022-04-15,株式会社ｃｏｈｏｒｔ,,株式会社,兵庫県,尼崎市,今福１丁目１番１２－３１９号,,28,202,6600812,,,,,,,2022-04-15,1,,,,,コホート,0
2509,9140003017580,新規,0,2022-04-15,2022-04-15,合同会社便利屋ヒロインズ,,合同会社,兵庫県,神戸市長田区,西尻池町５丁目３番２０号,,28,106,6530031,,,,,,,2022-04-15,1,,,,,ベンリヤヒロインズ,0
2511,9150001025469,新規,0,2022-04-15,2022-04-15,株式会社健勝,,株式会社,奈良県,天理市,岸田町６２３番地３,,29,204,6320056,,,,,,,2022-04-15,1,,,,,ケンショウ,0
2522,9180001150818,新規,0,2022-04-15,2022-04-15,ＧＭＳ株式会社,,株式会社,愛知県,名古屋市中川区,昭和橋通１丁目２７番地昭和橋ビル３Ｆ,,23,110,4540852,,,,,,,2022-04-15,1,,,,,ジーエムエス,0
2523,9180001150867,新規,0,2022-04-15,2022-04-15,ＭＡＲＳＳ　ＩＮＴＥＲＮＡＴＩＯＮＡＬ株式会社,,株式会社,愛知県,知多郡東浦町,大字藤江字大坪４０番地の１セブンティーンＣ号,,23,442,4702105,,,,,,,2022-04-15,1,,,,,マースインターナショナル,0
2525,9180301036106,新規,0,2022-04-15,2022-04-15,株式会社ｉｒｏｈａ不動産,,株式会社,愛知県,豊川市,萩山町１丁目８２番地,,23,207,4420879,,,,,,,2022-04-15,1,,,,,イロハフドウサン,0
2526,9180305009330,新規,0,2022-04-15,2022-04-15,一般社団法人うえすとぽーち,,その他の設立登記法人,愛知県,岡崎市,福岡町字岩ケ崎８番地１,,23,202,4440825,,,,,,,2022-04-15,1,,,,,ウエストポーチ,0
2534,9210001018887,新規,0,2022-04-15,2022-04-15,株式会社アンドｓ,,株式会社,福井県,敦賀市,吉河３号１１番地の６,,18,202,9140024,,,,,,,2022-04-15,1,,,,,アンドエス,0
2542,9240001059623,新規,0,2022-04-15,2022-04-15,株式会社クラハ,,株式会社,広島県,東広島市,西条町寺家６５０５番地１（５０３号）,,34,212,7390041,,,,,,,2022-04-15,1,,,,,クラハ,0
2543,9240001059631,新規,0,2022-04-15,2022-04-15,株式会社インコネクト,,株式会社,広島県,広島市中区,竹屋町１番２６号原ビル２Ｆ,,34,101,7300048,,,,,,,2022-04-15,1,,,,,インコネクト,0
2548,9250001019502,新規,0,2022-04-15,2022-04-15,株式会社楽’ｓ,,株式会社,山口県,下関市,中之町３番１９号,,35,201,7500004,,,,,,,2022-04-15,1,,,,,ラクズ,0
2556,9270001008494,新規,0,2022-04-15,2022-04-15,株式会社ネオアンティコス,,株式会社,鳥取県,鳥取市,国府町谷１５７番地,,31,201,6800135,,,,,,,2022-04-15,1,,,,,ネオアンティコス,0
2562,9290001097214,新規,0,2022-04-15,2022-04-15,株式会社福岡エレックス,,株式会社,福岡県,那珂川市,大字別所７５７番地６,,40,231,8111245,,,,,,,2022-04-15,1,,,,,フクオカエレックス,0
2563,9290001097230,新規,0,2022-04-15,2022-04-15,株式会社ＤＵＮＫ,,株式会社,福岡県,糟屋郡志免町,南里２丁目２０－９,,40,343,8112207,,,,,,,2022-04-15,1,,,,,ダンク,0
2567,9290003012393,新規,0,2022-04-15,2022-04-15,合同会社ｔｙｐｅＯ,,合同会社,福岡県,福岡市西区,西の丘３丁目１４番７号,,40,135,8190046,,,,,,,2022-04-15,1,,,,,タイプオー,0
2568,9290003012402,新規,0,2022-04-15,2022-04-15,ＱＵＹＮＨ合同会社,,合同会社,福岡県,久留米市,東和町５－１－２Ｆ,,40,203,8300035,,,,,,,2022-04-15,1,,,,,クイン,0
2569,9290003012410,新規,0,2022-04-15,2022-04-15,ＨＩＥＮ　ＨＰ合同会社,,合同会社,福岡県,福岡市南区,塩原４丁目２０番１７号,,40,134,8150032,,,,,,,2022-04-15,1,,,,,ヒエンエイチピー,0
2571,9300001012889,新規,0,2022-04-15,2022-04-15,プロ・ロジスティクス九州株式会社,,株式会社,佐賀県,三養基郡みやき町,大字簑原２２６４番地１４,,41,346,8490102,,,,,,,2022-04-15,1,,,,,プロロジスティクスキュウシュウ,0
2578,9320003003777,新規,0,2022-04-15,2022-04-15,ソルフェジオ合同会社,,合同会社,大分県,大分市,大字家島１４８番地の１,,44,201,8700113,,,,,,,2022-04-15,1,,,,,ソルフェジオ,0
2582,9370003005653,新規,0,2022-04-15,2022-04-15,Ａｎｄ．ＴＫＹ合同会社,,合同会社,宮城県,仙台市太白区,中田町字前沖北８４番地の６,,04,104,9811103,,,,,,,2022-04-15,1,,,,,アンドティーケーワイ,0
2584,9380001032748,新規,0,2022-04-15,2022-04-15,株式会社映像制作ＳＫＹ,,株式会社,福島県,田村市,船引町船引字北元町４３番地４,,07,211,9634312,,,,,,,2022-04-15,1,,,,,エイゾウセイサクスカイ,0
2585,9380003005157,新規,0,2022-04-15,2022-04-15,ばちぎ農場合同会社,,合同会社,福島県,伊達郡川俣町,大字鶴沢字宮前１５番地５,,07,308,9601406,,,,,,,2022-04-15,1,,,,,,0
2594,9430001086433,新規,0,2022-04-15,2022-04-15,株式会社Ｅａｒｔｈｉｓｔ,,株式会社,北海道,札幌市中央区,南四条西４丁目１６番地恵愛ビル８Ｆ,,01,101,0640804,,,,,,,2022-04-15,1,,,,,アーシスト,0
2595,9430005014423,新規,0,2022-04-15,2022-04-15,特定非営利活動法人ごちゃまぜの街をつくる会,,その他の設立登記法人,北海道,室蘭市,中島町１丁目８－５プレアディス中島５階,,01,205,0500074,,,,,,,2022-04-15,1,,,,,ゴチャマゼノマチヲツクルカイ,0
2596,9430005014448,新規,0,2022-04-15,2022-04-15,一般社団法人コイノニア,,その他の設立登記法人,北海道,札幌市北区,新琴似七条１４丁目５番８号,,01,102,0010907,,,,,,,2022-04-15,1,,,,,コイノニア,0
2597,9440001009062,新規,0,2022-04-15,2022-04-15,加藤工業株式会社,,株式会社,北海道,函館市,美原４丁目１８番１０号,,01,202,0410806,,,,,,,2022-04-15,1,,,,,カトウコウギョウ,0
2609,9490003001649,新規,0,2022-04-15,2022-04-15,合同会社桜馬場ＣＯＭＰＡＮＹ,,合同会社,高知県,高知市,桜馬場２番２８－６０３号,,39,201,7800929,,,,,,,2022-04-15,1,,,,,サクラババカンパニー,0
