sequenceNumber,corporateNumber,process,correct,updateDate,changeDate,name,nameImageId,kind,prefectureName,cityName,streetNumber,addressImageId,prefectureCode,cityCode,postCode,addressOutside,addressOutsideImageId,closeDate,closeCause,successorCorporateNumber,changeCause,assignmentDate,latest,enName,enPrefectureName,enCityName,enAddressOutside,furigana,hihyoji
15,1010102006827,登記記録の閉鎖等,0,2024-10-11,2024-10-11,有限会社室屋,,有限会社,東京都,八王子市,大和田町５丁目１３番４号,,13,201,1920045,,,2024-10-11,清算の結了等,,,2015-10-05,1,,,,,ムロヤ,0
31,1010801011821,登記記録の閉鎖等,0,2024-10-11,2024-10-08,明和商工株式会社,,株式会社,東京都,中央区,銀座７丁目１１番１５号,,13,102,1040061,,,2024-10-08,合併による解散等,2290801002874,令和６年１０月１日大阪市中央区城見一丁目３番７号ジェイテクトセールス株式会社（2290801002874）に合併し解散,2015-10-05,1,,,,,メイワショウコウ,0
33,1011001001150,登記記録の閉鎖等,0,2024-10-11,2024-09-17,株式会社アド・クリエーター,,株式会社,東京都,渋谷区,神宮前６丁目３３番１８号,,13,113,1500001,,,2024-09-17,清算の結了等,,,2015-10-05,1,,,,,アドクリエーター,0
56,1011202005512,登記記録の閉鎖等,0,2024-10-11,2024-10-08,有限会社ホリケンホーム,,有限会社,東京都,中野区,弥生町２丁目１８番７号,,13,114,1640013,,,2024-10-08,清算の結了等,,,2015-10-05,1,,,,,ホリケンホーム,0
66,1011601020707,登記記録の閉鎖等,0,2024-10-11,2024-10-07,株式会社埼玉育陽会,,株式会社,東京都,練馬区,北町３丁目７番１９号,,13,120,1790081,,,2024-10-07,清算の結了等,,,2016-02-25,1,,,,,,0
69,1011801003437,登記記録の閉鎖等,0,2024-10-11,2024-10-04,徳増土地興業株式会社,,株式会社,東京都,葛飾区,柴又６丁目５番３号,,13,122,1250052,,,2024-10-04,清算の結了等,,,2015-10-05,1,,,,,トクマストチコウギョウ,0
91,1020005009546,登記記録の閉鎖等,0,2024-10-11,2024-09-10,税理士法人飯沢会計事務所,,その他の設立登記法人,神奈川県,横浜市鶴見区,鶴見中央１丁目１１番７－３０１号,,14,101,2300051,,,2024-09-10,合併による解散等,5010005035424,令和６年９月２日東京都中央区銀座一丁目１６番１号東貨ビル３階税理士法人ポラリス（5010005035424）に合併し解散,2015-10-05,1,,,,,,0
110,1040003006386,登記記録の閉鎖等,0,2024-10-11,2024-10-02,合同会社ケアプランみらい,,合同会社,千葉県,船橋市,海神１丁目１９番１７－１０１号,,12,204,2730021,,,2024-10-02,清算の結了等,,,2015-10-05,1,,,,,ケアプランミライ,0
111,1040003013242,登記記録の閉鎖等,0,2024-10-11,2024-10-02,プライムビーン株式会社,,株式会社,茨城県,つくば市,吾妻２丁目５番地１,,08,220,3050031,,,2024-10-02,清算の結了等,,,2019-04-17,1,,,,,プライムビーン,0
125,1060002036944,登記記録の閉鎖等,0,2024-10-11,2024-10-07,有限会社中芳商事,,有限会社,栃木県,足利市,朝倉町３８番地,,09,202,3260823,,,2024-10-07,清算の結了等,,,2015-10-05,1,,,,,ナカヨシショウジ,0
127,1070001003127,登記記録の閉鎖等,0,2024-10-11,2024-10-08,株式会社丸最建築事務所,,株式会社,群馬県,前橋市,総社町２丁目１４番地の１３,,10,201,3710853,,,2024-10-08,清算の結了等,,,2015-10-05,1,,,,,マルサイケンチクジムショ,0
130,1070002006293,登記記録の閉鎖等,0,2024-10-11,2024-10-09,有限会社セントラル輸送,,有限会社,群馬県,前橋市,本町２丁目１,,10,201,3710023,,,2024-10-09,清算の結了等,,,2015-10-05,1,,,,,,0
136,1080101008826,登記記録の閉鎖等,0,2024-10-11,2024-10-08,株式会社鈴由慶弔総合センター,,株式会社,静岡県,富士市,御幸町２番６号,,22,210,4170041,,,2024-10-08,清算の結了等,,,2015-10-05,1,,,,,スズヨシケイチョウソウゴウセンター,0
139,1080401019218,登記記録の閉鎖等,0,2024-10-11,2024-10-03,株式会社リンクアップ,,株式会社,静岡県,磐田市,鮫島１１５０番地３,,22,211,4380055,,,2024-10-03,清算の結了等,,,2015-10-05,1,,,,,リンクアップ,0
146,1100002029282,登記記録の閉鎖等,0,2024-10-11,2024-10-01,有限会社コンベンションサービス,,有限会社,長野県,諏訪市,湖岸通り２丁目７番２１号,,20,206,3920027,,,2024-10-01,合併による解散等,4100001018647,令和６年１０月１日長野県諏訪市湖岸通り二丁目７番２１号株式会社ホテル紅や（4100001018647）に合併し解散,2015-10-05,1,,,,,コンベンションサービス,0
152,1120001007551,登記記録の閉鎖等,0,2024-10-11,2024-10-04,サンケイ住宅販売株式会社,,株式会社,大阪府,豊中市,西泉丘１丁目３番７－６２８号,,27,203,5610862,,,2024-10-04,清算の結了等,,,2015-10-05,1,,,,,サンケイジュウタクハンバイ,0
155,1120001065046,登記記録の閉鎖等,0,2024-10-11,2024-10-08,島田製本株式会社,,株式会社,大阪府,大阪市北区,黒崎町５番７号,,27,127,5300023,,,2024-10-08,清算の結了等,,,2015-10-05,1,,,,,シマダセイホン,0
179,1120901008806,登記記録の閉鎖等,0,2024-10-11,2024-10-04,ミリカスポーツ振興株式会社,,株式会社,大阪府,吹田市,千里丘北１番２号,,27,205,5650815,,,2024-10-04,清算の結了等,,,2015-10-05,1,,,,,ミリカスポーツシンコウ,0
194,1140005002431,登記記録の閉鎖等,0,2024-10-11,2024-09-06,社会福祉法人かんでん福祉事業団,,その他の設立登記法人,兵庫県,芦屋市,浜町１２番３号,,28,206,6590025,,,2024-09-06,合併による解散等,5250005005147,令和６年９月２日山口県周南市大字須々万本郷２８番地の１社会福祉法人緑山会（5250005005147）に合併し解散,2015-10-05,1,,,,,カンデンフクシジギョウダン,0
196,1150001008654,登記記録の閉鎖等,0,2024-10-11,2024-10-03,株式会社エムダブル,,株式会社,奈良県,生駒郡平群町,大字下垣内８５番地の１,,29,342,6360933,,,2024-10-03,清算の結了等,,,2015-10-05,1,,,,,エムダブル,0
197,1150001016120,登記記録の閉鎖等,0,2024-10-11,2024-10-10,株式会社坪岡林業,,株式会社,奈良県,吉野郡吉野町,大字橋屋１番地,,29,441,6393118,,,2024-10-10,清算の結了等,,,2015-10-05,1,,,,,,0
199,1180001046065,登記記録の閉鎖等,0,2024-10-11,2024-09-30,株式会社ヨシダ商会,,株式会社,愛知県,北名古屋市,野崎宮浦３５番地の４,,23,234,4810042,,,2024-09-30,清算の結了等,,,2015-10-05,1,,,,,ヨシダショウカイ,0
200,1180001103717,登記記録の閉鎖等,0,2024-10-11,2024-09-27,株式会社スタイル,,株式会社,愛知県,名古屋市守山区,幸心１丁目２１６番地,,23,113,4630079,,,2024-09-27,清算の結了等,,,2015-10-05,1,,,,,スタイル,0
203,1180002079997,登記記録の閉鎖等,0,2024-10-11,2024-09-30,有限会社パンチョフードサービス,,有限会社,愛知県,一宮市,小信中島字鵜飼１番地,,23,203,4940007,,,2024-09-30,清算の結了等,,,2015-10-05,1,,,,,パンチョフードサービス,0
212,1190002015274,登記記録の閉鎖等,0,2024-10-11,2024-10-08,三重総合住宅有限会社,,有限会社,三重県,松阪市,飯南町深野６０３番地１,,24,204,5151301,,,2024-10-08,清算の結了等,,,2015-10-05,1,,,,,ミエソウゴウジュウタク,0
216,1200005004041,登記記録の閉鎖等,0,2024-10-11,2024-10-08,一般社団法人養老郡医師会,,その他の設立登記法人,岐阜県,養老郡養老町,押越９８６番地,,21,341,5031316,,,2024-10-08,清算の結了等,,,2015-10-05,1,,,,,ヨウロウグンイシカイ,0
217,1210002003053,登記記録の閉鎖等,0,2024-10-11,2024-10-09,有限会社フクダ,,有限会社,福井県,福井市,光陽３丁目３番１５号,,18,201,9100026,,,2024-10-09,清算の結了等,,,2015-10-05,1,,,,,フクダ,0
218,1220001012186,登記記録の閉鎖等,0,2024-10-11,2024-10-01,株式会社辻織物工場,00078325,株式会社,石川県,小松市,安宅町ト４１番地,,17,203,9230003,,,2024-10-01,清算の結了等,,,2015-10-05,1,,,,,ツジオリモノコウジョウ,0
219,1220002013654,登記記録の閉鎖等,0,2024-10-11,2024-10-02,有限会社石川電化,,有限会社,石川県,七尾市,山王町ソ部４１番地の５,,17,202,9260052,,,2024-10-02,清算の結了等,,,2015-10-05,1,,,,,イシカワデンカ,0
222,1230005008007,登記記録の閉鎖等,0,2024-10-11,2024-10-10,特定非営利活動法人障がい者生活支援グループフレンズ富山,,その他の設立登記法人,富山県,富山市,牛島本町１丁目３番２８号,,16,201,9300859,,,2024-10-10,清算の結了等,,,2015-10-05,1,,,,,ショウガイシャセイカツシエングループフレンズトヤマ,0
224,1240001015848,登記記録の閉鎖等,0,2024-10-11,2024-09-30,南通信システム株式会社,,株式会社,広島県,広島市安佐南区,八木８丁目１番２８号,,34,105,7310101,,,2024-09-30,清算の結了等,,,2015-10-05,1,,,,,ミナミツウシンシウテム,0
231,1260001028559,登記記録の閉鎖等,0,2024-10-11,2024-10-08,株式会社アイトープ,,株式会社,岡山県,岡山市南区,浜野４丁目１８番３３号,,33,104,7000845,,,2024-10-08,清算の結了等,,,2015-10-05,1,,,,,アイトープ,0
234,1260002019441,登記記録の閉鎖等,0,2024-10-11,2024-10-02,有限会社武部サプライ,,有限会社,岡山県,倉敷市,中島３５３番地,,33,202,7100803,,,2024-10-02,清算の結了等,,,2015-10-05,1,,,,,タケベサプライ,0
249,1300001011527,登記記録の閉鎖等,0,2024-10-11,2024-10-09,株式会社福岡五光,,株式会社,福岡県,福岡市中央区,大手門３丁目４番２０号,,40,133,8100074,,,2024-10-09,合併による解散等,7300001004590,令和６年１０月１日佐賀県武雄市武雄町大字昭和３３５番地五光ホールディングス株式会社（7300001004590）に合併し解散,2018-12-07,1,,,,,フクオカゴコウ,0
256,1330002026703,登記記録の閉鎖等,0,2024-10-11,2024-10-04,有限会社穣徳建装,,有限会社,熊本県,八代市,鏡町宝出１０番地,,43,202,8694221,,,2024-10-04,清算の結了等,,,2015-10-05,1,,,,,ジョウトクケンソウ,0
271,1420001001722,登記記録の閉鎖等,0,2024-10-11,2024-10-02,株式会社八甲田スポーツセンター,,株式会社,青森県,青森市,大字幸畑字谷脇６３番地１,,02,201,0300943,,,2024-10-02,合併による解散等,5420001001314,令和６年１０月１日青森市大字合子沢字山崎１８番地２株式会社高繁建設（5420001001314）に合併し解散,2015-10-05,1,,,,,ハッコウダスポーツセンター,0
278,1430003008698,登記記録の閉鎖等,0,2024-10-11,2024-09-02,合同会社ＡＳＭ,,合同会社,北海道,札幌市中央区,南二条東２丁目１６堀尾ビル,,01,101,0600052,,,2024-09-02,合併による解散等,8430003008436,令和６年９月１日札幌市中央区南一条西十六丁目１番３２３春野ビル３階合同会社ＢＭＡＫ（8430003008436）に合併し解散,2017-09-11,1,,,,,エイエスエム,0
285,1500002016513,登記記録の閉鎖等,0,2024-10-11,2024-10-08,有限会社志商,,有限会社,愛媛県,新居浜市,南小松原町８番６６号,,38,205,7920863,,,2024-10-08,清算の結了等,,,2015-10-05,1,,,,,シショウ,0
313,2010501008811,登記記録の閉鎖等,0,2024-10-11,2024-09-30,藤和物産株式会社,,株式会社,東京都,千代田区,富士見２丁目１０番３－３２０８号,,13,101,1020071,,,2024-09-30,清算の結了等,,,2015-10-05,1,,,,,トウワブッサン,0
326,2010901012454,登記記録の閉鎖等,0,2024-10-11,2024-10-04,豊産業株式会社,,株式会社,東京都,世田谷区,代田３丁目４１番８号,,13,112,1550033,,,2024-10-04,清算の結了等,,,2015-10-05,1,,,,,ユタカサンギョウ,0
347,2011601016489,登記記録の閉鎖等,0,2024-10-11,2024-10-04,株式会社Ｑｕｅｅｎ’ｓ,,株式会社,東京都,練馬区,東大泉３丁目４番４号,,13,120,1780063,,,2024-10-04,合併による解散等,7030001030466,令和６年９月３０日埼玉県川越市旭町一丁目１７番地４９株式会社ひまわり（7030001030466）に合併し解散,2015-10-05,1,,,,,,0
352,2011801011562,登記記録の閉鎖等,0,2024-10-11,2024-10-07,株式会社ファサード,,株式会社,東京都,世田谷区,砧３丁目３１番９号－１,,13,112,1570073,,,2024-10-07,清算の結了等,,,2015-10-05,1,,,,,ファサード,0
358,2013101003414,登記記録の閉鎖等,0,2024-10-11,2024-10-08,株式会社石井商店,,株式会社,東京都,青梅市,藤橋２丁目８４番地,,13,205,1980022,,,2024-10-08,清算の結了等,,,2015-10-05,1,,,,,イシイショウテン,0
360,2013301005219,登記記録の閉鎖等,0,2024-10-11,2024-10-01,株式会社施設設計計画研究所,,株式会社,東京都,豊島区,東池袋１丁目４４番１０号,,13,116,1700013,,,2024-10-01,清算の結了等,,,2015-10-05,1,,,,,シセツセッケイケイカクケンキュウジョ,0
363,2020001114927,登記記録の閉鎖等,0,2024-10-11,2024-09-20,株式会社ペンデューク,,株式会社,神奈川県,横浜市都筑区,長坂１番５２号,,14,118,2240063,,,2024-09-20,清算の結了等,,,2016-02-19,1,,,,,ペンデューク,0
371,2020002037516,登記記録の閉鎖等,0,2024-10-11,2024-09-25,有限会社大塚園芸,,有限会社,神奈川県,横浜市鶴見区,駒岡４丁目４１番６号,,14,101,2300071,,,2024-09-25,清算の結了等,,,2015-10-05,1,,,,,オオツカエンゲイ,0
380,2030001029942,登記記録の閉鎖等,0,2024-10-11,2024-10-03,株式会社ＭＡＲＫＳ,,株式会社,埼玉県,所沢市,緑町１丁目６番１４－４０４号,,11,208,3591111,,,2024-10-03,清算の結了等,,,2015-10-05,1,,,,,マークス,0
396,2040002079886,登記記録の閉鎖等,0,2024-10-11,2024-10-01,有限会社ムラシマ工務店,,有限会社,千葉県,山武市,沖渡６５６番地１１５,,12,237,2891225,,,2024-10-01,清算の結了等,,,2015-10-05,1,,,,,ムラシマコウムテン,0
400,2040005006276,登記記録の閉鎖等,0,2024-10-11,2024-08-27,天理教富之郷分教会,,その他の設立登記法人,千葉県,富里市,七栄１２８番地,,12,233,2860221,,,2024-08-27,合併による解散等,3040005006275,令和６年８月２７日千葉県成田市上町６８２番地の３天理教成田分教会（3040005006275）に合併し解散,2015-10-05,1,,,,,,0
430,2120001009737,登記記録の閉鎖等,0,2024-10-11,2024-10-01,株式会社幸容建装,,株式会社,大阪府,大阪市東住吉区,西今川１丁目２０番１４号,,27,121,5460042,,,2024-10-01,清算の結了等,,,2015-10-05,1,,,,,コウヨウケンソウ,0
431,2120001153477,登記記録の閉鎖等,0,2024-10-11,2024-10-01,株式会社ｍｏｒｏｎｄｏ,,株式会社,大阪府,枚方市,堤町１０番２４号枚方宿鍵屋別館,,27,210,5730057,,,2024-10-01,合併による解散等,3120001265338,令和６年１０月１日大阪府枚方市堤町１０番２４号株式会社ｍｏｒｏｎｄｏ（3120001265338）に合併し解散,2015-10-05,1,,,,,モロンド,0
451,2120102017291,登記記録の閉鎖等,0,2024-10-11,2024-10-04,有限会社サンラック,,有限会社,大阪府,南河内郡太子町,大字春日９８番地の６２,,27,381,5830991,,,2024-10-04,清算の結了等,,,2015-10-05,1,,,,,サンラック,0
476,2180001084287,登記記録の閉鎖等,0,2024-10-11,2024-09-30,株式会社タカヒロ,,株式会社,愛知県,一宮市,栄４丁目２番３号,,23,203,4910858,,,2024-09-30,清算の結了等,,,2015-10-05,1,,,,,タカヒロ,0
478,2180001157448,登記記録の閉鎖等,0,2024-10-11,2024-09-27,株式会社宏由建設,,株式会社,愛知県,春日井市,藤山台１０丁目１７番地３サンハイツ藤山台Ｃ１０３,,23,206,4870035,,,2024-09-27,清算の結了等,,,2023-08-07,1,,,,,,0
489,2200002001478,登記記録の閉鎖等,0,2024-10-11,2024-10-10,有限会社キャミック,,有限会社,岐阜県,美濃市,松森２０１２番地,,21,207,5013753,,,2024-10-10,清算の結了等,,,2015-10-05,1,,,,,キャミック,0
496,2240001035812,登記記録の閉鎖等,0,2024-10-11,2024-10-03,株式会社ｗｈａｔｅｖｅｒ,,株式会社,広島県,福山市,引野町北１丁目１８番１７号,,34,207,7210941,,,2024-10-03,清算の結了等,,,2015-10-05,1,,,,,ワットエバー,0
500,2240002016175,登記記録の閉鎖等,0,2024-10-11,2024-10-01,三谷ファミリー有限会社,,有限会社,広島県,広島市中区,三川町３番８号,,34,101,7300029,,,2024-10-01,合併による解散等,8240001021377,令和６年１０月１日広島市中区三川町３番８号株式会社楓企画（8240001021377）に合併し解散,2015-10-05,1,,,,,ミタニファミリー,0
518,2290001104744,登記記録の閉鎖等,0,2024-10-11,2024-10-07,株式会社花田酒店,,株式会社,福岡県,宗像市,赤間駅前２丁目８番１０号,,40,220,8114185,,,2024-10-07,合併による解散等,6290001017604,令和６年１０月１日福岡市博多区博多駅南二丁目９番１１号イオン九州株式会社（6290001017604）に合併し解散,2024-02-20,1,,,,,ハナダサケテン,0
532,2310002000923,登記記録の閉鎖等,0,2024-10-11,2024-10-02,有限会社オオタコンセリング,,有限会社,長崎県,長崎市,本河内３丁目４４番１５号,,42,201,8500012,,,2024-10-02,清算の結了等,,,2015-10-05,1,,,,,オオタコンセリング,0
552,2420005003862,登記記録の閉鎖等,0,2024-10-11,2024-10-07,智魂教,,その他の設立登記法人,青森県,つがる市,豊富町屏風山１番地２３２,,02,209,0383302,,,2024-10-07,清算の結了等,,,2015-10-05,1,,,,,チコンキョウ,0
569,2490002008791,登記記録の閉鎖等,0,2024-10-11,2024-10-04,有限会社佐賀光栄丸,,有限会社,高知県,幡多郡黒潮町,佐賀７４６番地５,,39,428,7891720,,,2024-10-04,清算の結了等,,,2015-10-05,1,,,,,サガコウエイマル,0
570,2500001009814,登記記録の閉鎖等,0,2024-10-11,2024-10-04,株式会社啓電社,,株式会社,愛媛県,新居浜市,若水町１丁目１番５号,,38,205,7920017,,,2024-10-04,清算の結了等,,,2015-10-05,1,,,,,ケイデンシャ,0
571,2500005002955,登記記録の閉鎖等,0,2024-10-11,2024-09-09,天理教喜多分教会,,その他の設立登記法人,愛媛県,大洲市,長浜町下須戒甲１２２６番地２,,38,207,7993441,,,2024-09-09,合併による解散等,8500005002751,令和６年９月９日愛媛県大洲市中村５９６番地天理教大洲分教会（8500005002751）に合併し解散,2015-10-05,1,,,,,テンリキョウキタブンキョウカイ,0
574,3010001064164,登記記録の閉鎖等,0,2024-10-11,2024-09-30,トムズ・コンサルタント株式会社,,株式会社,東京都,中央区,日本橋蛎殻町２丁目１４－５ＫＤＸ浜町中ノ橋ビル５階,,13,102,1030014,,,2024-09-30,清算の結了等,,,2015-10-05,1,,,,,トムズコンサルタント,0
576,3010001094731,登記記録の閉鎖等,0,2024-10-11,2024-09-30,キャスターボーイ　株式会社,,株式会社,東京都,中央区,銀座１丁目２４番３号,,13,102,1040061,,,2024-09-30,清算の結了等,,,2015-10-05,1,,,,,キャスターボーイ,0
578,3010001194829,登記記録の閉鎖等,0,2024-10-11,2024-09-27,ドリームポケット株式会社,,株式会社,東京都,中央区,八丁堀４丁目１２番７号,,13,102,1040032,,,2024-09-27,清算の結了等,,,2018-09-18,1,,,,,ドリームポケット,0
585,3010005034262,登記記録の閉鎖等,0,2024-10-11,2024-10-08,御岳３特定目的会社,,その他の設立登記法人,東京都,千代田区,丸の内２丁目２番３号丸の内仲通りビル６階,,13,101,1000005,,,2024-10-08,清算の結了等,,,2021-11-30,1,,,,,ミタケスリー,0
598,3010601032652,登記記録の閉鎖等,0,2024-10-11,2024-10-04,株式会社シグマクリエイト,,株式会社,東京都,江東区,東陽５丁目１番３号メゾン・カワダ２Ｆ,,13,108,1350016,,,2024-10-04,清算の結了等,,,2015-10-05,1,,,,,シグマクリエイト,0
603,3010702003395,登記記録の閉鎖等,0,2024-10-11,2024-10-03,有限会社桜沢アートスタジオ,,有限会社,東京都,品川区,旗の台３丁目７番３号,,13,109,1420064,,,2024-10-03,清算の結了等,,,2015-10-05,1,,,,,サクラザワアートスタジオ,0
608,3011001159342,登記記録の閉鎖等,0,2024-10-11,2024-09-20,株式会社Ｏｌｉｖｅｒ,,株式会社,東京都,渋谷区,恵比寿３丁目４２番１号Ｋ＆Ｍ広尾４０５,,13,113,1500013,,,2024-09-20,清算の結了等,,,2024-01-12,1,,,,,オリバー,0
645,3020001038497,登記記録の閉鎖等,0,2024-10-11,2024-09-25,株式会社眼利き,,株式会社,神奈川県,横浜市中区,本町３丁目２４番地２,,14,104,2310005,,,2024-09-25,清算の結了等,,,2015-10-05,1,,,,,メキキ,0
647,3020001098855,登記記録の閉鎖等,0,2024-10-11,2024-09-25,株式会社栄和,,株式会社,神奈川県,横浜市港北区,大豆戸町９６４番地１フェンテ大倉山２０２,,14,109,2220032,,,2024-09-25,清算の結了等,,,2015-10-05,1,,,,,エイワ,0
648,3020001105727,登記記録の閉鎖等,0,2024-10-11,2024-09-25,株式会社マツオカ商事,,株式会社,神奈川県,横浜市港北区,日吉５丁目２２番２７号,,14,109,2230061,,,2024-09-25,清算の結了等,,,2015-10-05,1,,,,,マツオカショウジ,0
659,3020005013562,登記記録の閉鎖等,0,2024-10-11,2024-09-25,特定非営利活動法人ＭＯＥ,,その他の設立登記法人,神奈川県,川崎市中原区,木月１丁目３２番３号内田マンション２階,,14,133,2110025,,,2024-09-25,清算の結了等,,,2018-03-19,1,,,,,モエ,0
660,3021001006683,登記記録の閉鎖等,0,2024-10-11,2024-10-10,株式会社家具マートはせがわ,,株式会社,神奈川県,茅ヶ崎市,高田２丁目１１番２７号,,14,207,2530002,,,2024-10-10,清算の結了等,,,2015-10-05,1,,,,,カグマートハセガワ,0
674,3030002003474,登記記録の閉鎖等,0,2024-10-11,2024-10-03,有限会社川崎機械工具店,,有限会社,埼玉県,さいたま市浦和区,高砂１丁目１０番５号,,11,107,3300063,,,2024-10-03,清算の結了等,,,2015-10-05,1,,,,,カワサキキカイコウグテン,0
679,3040001129716,登記記録の閉鎖等,0,2024-10-11,2024-10-02,株式会社クリーチャースタジオ,,株式会社,千葉県,印西市,原２丁目１番地レイディアントシティＦ３１３,,12,231,2701335,,,2024-10-02,清算の結了等,,,2023-08-17,1,,,,,クリーチャースタジオ,0
682,3040002067733,登記記録の閉鎖等,0,2024-10-11,2024-10-03,有限会社丸弥白井海苔店,,有限会社,千葉県,木更津市,桜井５９９番地,,12,206,2920822,,,2024-10-03,清算の結了等,,,2015-10-05,1,,,,,,0
693,3050002020757,登記記録の閉鎖等,0,2024-10-11,2024-10-02,有限会社イトガ,,有限会社,茨城県,つくば市,大形１３６１番地,,08,220,3004221,,,2024-10-02,清算の結了等,,,2015-10-05,1,,,,,イトガ,0
697,3060001034658,登記記録の閉鎖等,0,2024-10-11,2024-08-27,株式会社聖工房,,株式会社,北海道,札幌市中央区,南十三条西９丁目２番５－５０１号,,01,101,0640913,,,2024-08-27,合併による解散等,3210001019412,令和６年８月６日福井市大手三丁目７番１号福井県繊協ビル７０５Ａ株式会社ウィズアドバンス（3210001019412）に合併し解散,2022-03-15,1,,,,,ヒジリコウボウ,0
714,3080402005074,登記記録の閉鎖等,0,2024-10-11,2024-10-03,都ヶ谷商会有限会社,,有限会社,静岡県,浜松市中央区,高林１丁目１０番１１号,,22,138,4300907,,,2024-10-03,清算の結了等,,,2015-10-05,1,,,,,ツガヤショウカイ,0
716,3100001022179,登記記録の閉鎖等,0,2024-10-11,2024-10-01,株式会社証建築社,,株式会社,長野県,飯田市,上郷黒田３６６番地の１,,20,205,3950004,,,2024-10-01,合併による解散等,9100001022867,令和６年１０月１日長野県飯田市上郷黒田３６６番地１エコトピア飯田株式会社（9100001022867）に合併し解散,2015-10-05,1,,,,,アカシケンチクシャ,0
725,3120001177351,登記記録の閉鎖等,0,2024-10-11,2024-10-01,株式会社ダーウィン,,株式会社,東京都,豊島区,雑司が谷３丁目１２番９号,,13,116,1710032,,,2024-10-01,清算の結了等,,,2015-10-05,1,,,,,ダーウィン,0
747,3120901010751,登記記録の閉鎖等,0,2024-10-11,2024-10-08,株式会社共同設計企画,,株式会社,大阪府,高槻市,上田辺町１番１７号,,27,207,5690805,,,2024-10-08,清算の結了等,,,2015-10-05,1,,,,,キョウドウセッケイキカク,0
751,3122001005120,登記記録の閉鎖等,0,2024-10-11,2024-10-08,株式会社月盛コミュニティ,,株式会社,大阪府,東大阪市,川俣１丁目１５番３４号,,27,227,5770063,,,2024-10-08,清算の結了等,,,2015-10-05,1,,,,,ツキモリコミュニティ,0
755,3130001001527,登記記録の閉鎖等,0,2024-10-11,2024-10-08,南部電機株式会社,,株式会社,京都府,京都市右京区,太秦堀ケ内町１２番地７,,26,108,6168152,,,2024-10-08,清算の結了等,,,2015-10-05,1,,,,,ナンブデンキ,0
764,3140002062583,登記記録の閉鎖等,0,2024-10-11,2024-10-07,有限会社山崎抜型製作所,,有限会社,兵庫県,加西市,鶉野町２０８２番地,,28,220,6752103,,,2024-10-07,清算の結了等,,,2015-10-05,1,,,,,ヤマサキヌキガタセイサクショ,0
765,3140003006531,登記記録の閉鎖等,0,2024-10-11,2024-10-08,合名会社中島商店,,合名会社,兵庫県,尼崎市,元浜町４丁目３番地,,28,202,6600085,,,2024-10-08,清算の結了等,,,2015-10-05,1,,,,,ナカジマショウテン,0
775,3160001016852,登記記録の閉鎖等,0,2024-10-11,2024-10-08,株式会社カインドライフ関西,,株式会社,滋賀県,草津市,草津町１５３２番地１,,25,206,5250036,,,2024-10-08,合併による解散等,7200001034945,令和６年１０月１日岐阜市月ノ会町一丁目１２番地３０株式会社カインドライフ（7200001034945）に合併し解散,2015-10-05,1,,,,,カインドライフカンサイ,0
778,3160002012058,登記記録の閉鎖等,0,2024-10-11,2024-10-09,有限会社ケー・ツー・システム,,有限会社,滋賀県,草津市,青地町６５８番地の５５,,25,206,5250041,,,2024-10-09,清算の結了等,,,2015-10-05,1,,,,,ケーツーシステム,0
780,3170001010061,登記記録の閉鎖等,0,2024-10-11,2024-10-10,三宝産業株式会社,,株式会社,和歌山県,御坊市,湯川町財部６４１番地の１２,,30,205,6440011,,,2024-10-10,清算の結了等,,,2015-10-05,1,,,,,サンポウサンギョウ,0
787,3180001062093,登記記録の閉鎖等,0,2024-10-11,2024-09-27,株式会社ブロードバンク,,株式会社,愛知県,名古屋市北区,山田町３丁目６２番地朋栄ビル２０１号室,,23,103,4620813,,,2024-09-27,清算の結了等,,,2015-10-05,1,,,,,,0
790,3180001118845,登記記録の閉鎖等,0,2024-10-11,2024-09-03,株式会社タカオエステート,,株式会社,愛知県,尾張旭市,庄中町１丁目１０番地１０,,23,226,4880838,,,2024-09-03,合併による解散等,6200001031729,令和６年９月１日岐阜市北一色三丁目９番２１号株式会社タカオホームソリューションズ（6200001031729）に合併し解散,2015-10-05,1,,,,,タカオエステート,0
807,3210002012820,登記記録の閉鎖等,0,2024-10-11,2024-10-08,有限会社オプト・シンセイ,,有限会社,福井県,鯖江市,神明町２丁目２番５号,,18,207,9160017,,,2024-10-08,清算の結了等,,,2015-10-05,1,,,,,オプトシンセイ,0
812,3210005007677,登記記録の閉鎖等,0,2024-10-11,2024-09-02,八幡神社,,その他の設立登記法人,福井県,今立郡池田町,千代谷１６号３番地,,18,382,9102555,,,2024-09-02,合併による解散等,3210005007660,令和６年９月２日福井県今立郡池田町水海５２号２４番地鵜甘神社（3210005007660）に合併し解散,2015-10-05,1,,,,,ハチマンジンジャ,0
822,3240002039877,登記記録の閉鎖等,0,2024-10-11,2024-10-03,有限会社岡本屋,,有限会社,広島県,福山市,山手町６丁目１３番１８号,,34,207,7200092,,,2024-10-03,清算の結了等,,,2015-10-05,1,,,,,オカモトヤ,0
826,3260001004938,登記記録の閉鎖等,0,2024-10-11,2024-10-08,株式会社ＮＳ企画,,株式会社,岡山県,笠岡市,笠岡２４１８番地９,,33,205,7140081,,,2024-10-08,清算の結了等,,,2015-10-05,1,,,,,エヌエスキカク,0
843,3330002026016,登記記録の閉鎖等,0,2024-10-11,2024-10-04,有限会社第一商事,00097905,有限会社,熊本県,八代市,田中東町弐五号１４番地,,43,202,8660871,,,2024-10-04,清算の結了等,,,2015-10-05,1,,,,,ダイイチショウジ,0
844,3330002027402,登記記録の閉鎖等,0,2024-10-11,2024-10-04,有限会社松江精工,,有限会社,熊本県,八代市,築添町１７８３番地１４６,,43,202,8660015,,,2024-10-04,清算の結了等,,,2015-10-05,1,,,,,マツエセイコウ,0
850,3350001006784,登記記録の閉鎖等,0,2024-10-11,2024-10-04,株式会社佐藤政組,,株式会社,宮崎県,延岡市,恒富町３丁目１０番地の７,,45,203,8820836,,,2024-10-04,清算の結了等,,,2015-10-05,1,,,,,サトウマサグミ,0
869,3400005003715,登記記録の閉鎖等,0,2024-10-11,2024-09-27,特定非営利活動法人グラス,,その他の設立登記法人,岩手県,北上市,滑田１９地割１２０番地９,,03,206,0240074,,,2024-09-27,清算の結了等,,,2015-10-05,1,,,,,グラス,0
872,3420002010381,登記記録の閉鎖等,0,2024-10-11,2024-10-08,有限会社沙羅樹,,有限会社,青森県,八戸市,長根４丁目９番１１号,,02,203,0310077,,,2024-10-08,清算の結了等,,,2015-10-05,1,,,,,サラジュ,0
885,3460105000094,登記記録の閉鎖等,0,2024-10-11,2024-09-10,宗教法人エホバの証人の音更会衆,,その他の設立登記法人,北海道,河東郡音更町,東通１２丁目４番地２７及び２８,,01,631,0800106,,,2024-09-10,合併による解散等,9460105000535,令和６年９月１０日北海道帯広市西二十一条北一丁目４番地１エホバの証人の王国会館エホバの証人の北海道帯広市稲田会衆（9460105000535）に合併し解散,2015-10-05,1,,,,,,0
887,3470001000032,登記記録の閉鎖等,0,2024-10-11,2024-09-02,株式会社オールストーン,,株式会社,香川県,高松市,牟礼町牟礼３７２０番地４,,37,201,7610121,,,2024-09-02,合併による解散等,9470001015462,令和６年９月１日香川県高松市西春日町１７２６番地１株式会社カナクラオールストーン（9470001015462）に合併し解散,2015-10-05,1,,,,,オールストーン,0
888,3470002000675,登記記録の閉鎖等,0,2024-10-11,2024-10-07,有限会社旭電業社,,有限会社,香川県,高松市,昭和町２丁目１１番１１号,,37,201,7600014,,,2024-10-07,清算の結了等,,,2015-10-05,1,,,,,アサヒデンギョウシャ,0
910,4010001180076,登記記録の閉鎖等,0,2024-10-11,2024-09-27,株式会社ノーティ,,株式会社,東京都,中央区,東日本橋２丁目２７－９初音森ビル３階,,13,102,1030004,,,2024-09-27,清算の結了等,,,2016-12-07,1,,,,,ノーティ,0
915,4010002051730,登記記録の閉鎖等,0,2024-10-11,2024-09-13,有限会社ポイント・アーキ,,有限会社,東京都,港区,高輪３丁目８番１０号,,13,103,1080074,,,2024-09-13,清算の結了等,,,2015-10-05,1,,,,,ポイントアーキ,0
916,4010003018349,登記記録の閉鎖等,0,2024-10-11,2024-09-30,ＧＡＳＪＡ５合同会社,,合同会社,東京都,中央区,銀座４丁目１４番１１号七十七銀座ビル８階,,13,102,1040061,,,2024-09-30,清算の結了等,,,2015-10-05,1,,,,,ガスジャファイブ,0
925,4010401146767,登記記録の閉鎖等,0,2024-10-11,2024-09-17,株式会社ＧＴ,,株式会社,東京都,港区,西麻布４丁目１６番５号,,13,103,1060031,,,2024-09-17,清算の結了等,,,2019-07-12,1,,,,,ジーティー,0
930,4010405014648,登記記録の閉鎖等,0,2024-10-11,2024-09-17,一般社団法人ＢｌｏｏｍｉｎｇＡｒｏｍａ,,その他の設立登記法人,東京都,港区,白金台４丁目２番１０－６０２号,,13,103,1080071,,,2024-09-17,清算の結了等,,,2016-03-14,1,,,,,ブルーミングアロマ,0
942,4010801002058,登記記録の閉鎖等,0,2024-10-11,2024-10-01,株式会社大田フレッシュフラワーズ,,株式会社,東京都,大田区,東海２丁目２番１号,,13,111,1430001,,,2024-10-01,合併による解散等,6010801010059,令和６年１０月１日東京都大田区東海二丁目２番１号株式会社フレネットＨＩＢＩＹＡ（6010801010059）に合併し解散,2015-10-05,1,,,,,オオタフレッシュフラワーズ,0
951,4011001157816,登記記録の閉鎖等,0,2024-10-11,2024-09-20,Ｉｎｐｌａｐｏｒｔ株式会社,,株式会社,東京都,渋谷区,円山町５番５号Ｎａｖｉ渋谷Ｖ３階,,13,113,1500044,,,2024-09-20,清算の結了等,,,2023-10-26,1,,,,,インプラポート,0
955,4011101099652,登記記録の閉鎖等,0,2024-10-11,2024-10-01,株式会社Ｃａｓａ　Ｉｎｎｏｖａｔｉｏｎｓ,,株式会社,東京都,新宿区,神楽坂６丁目６７番地,,13,104,1620825,,,2024-10-01,合併による解散等,3011101096683,令和６年１０月１日東京都新宿区神楽坂六丁目６７番地ＣＵホールディングス株式会社（3011101096683）に合併し解散,2022-07-28,1,,,,,カーサイノベーションズ,0
956,4011101104932,登記記録の閉鎖等,0,2024-10-11,2024-10-01,株式会社テライド出版,,株式会社,東京都,新宿区,新宿１丁目１８番１４号,,13,104,1600022,,,2024-10-01,合併による解散等,5010001142298,令和６年１０月１日東京都新宿区新宿一丁目９番５号新宿御苑さくらビル５階株式会社ライドオン（5010001142298）に合併し解散,2023-10-26,1,,,,,テライドシュッパン,0
968,4011302008453,登記記録の閉鎖等,0,2024-10-11,2024-10-07,有限会社星野電機商会,,有限会社,東京都,杉並区,桃井４丁目２番５号,,13,115,1670034,,,2024-10-07,清算の結了等,,,2015-10-05,1,,,,,ホシノデンキショウカイ,0
975,4011701026535,登記記録の閉鎖等,0,2024-10-11,2024-10-04,株式会社エクラット,,株式会社,東京都,江戸川区,上一色３丁目１１番１１号,,13,123,1330041,,,2024-10-04,清算の結了等,,,2023-08-22,1,,,,,エクラット,0
985,4020001002287,登記記録の閉鎖等,0,2024-10-11,2024-10-10,株式会社ティ・ケイ・エム,,株式会社,東京都,品川区,南大井６丁目２８番１１号谷口ビル３階,,13,109,1400013,,,2024-10-10,合併による解散等,6180301019534,令和６年１０月１日愛知県豊田市駒場町藤池１７番１株式会社ユニソン（6180301019534）に合併し解散,2015-10-05,1,,,,,ティケイエム,0
988,4020001149748,登記記録の閉鎖等,0,2024-10-11,2024-09-25,株式会社Ｂａｙｌｅａｆ　Ｋ．Ｃｏｎｓｕｌｔｉｎｇ,,株式会社,神奈川県,横浜市都筑区,中川中央１丁目３０－１プレミアヨコハマ３階ＢＩＺｃｏｍｆｏｒｔ４７号室,,14,118,2240003,,,2024-09-25,清算の結了等,,,2023-01-13,1,,,,,ベイリーフケイコンサルティング,0
996,4020005009774,登記記録の閉鎖等,0,2024-10-11,2024-09-10,税理士法人米山金親会計,,その他の設立登記法人,神奈川県,横浜市鶴見区,鶴見中央５丁目６番９号,,14,101,2300051,,,2024-09-10,合併による解散等,5010005035424,令和６年９月２日東京都中央区銀座一丁目１６番１号東貨ビル３階税理士法人ポラリス（5010005035424）に合併し解散,2015-10-05,1,,,,,ヨネヤマカネチカカイケイ,0
1006,4030002026219,登記記録の閉鎖等,0,2024-10-11,2024-10-03,有限会社バイクショップごとう,,有限会社,埼玉県,蕨市,北町５丁目１０番２号,,11,223,3350001,,,2024-10-03,清算の結了等,,,2015-10-05,1,,,,,バイクショップゴトウ,0
1009,4040001025641,登記記録の閉鎖等,0,2024-10-11,2024-10-03,株式会社イノベーション,,株式会社,千葉県,市川市,市川１丁目７番４号,,12,203,2720034,,,2024-10-03,清算の結了等,,,2015-10-05,1,,,,,イノベーション,0
1021,4050001052552,登記記録の閉鎖等,0,2024-10-11,2024-09-30,株式会社サクセス・クリエイティブ,,株式会社,茨城県,守谷市,本町６０３１－３守谷和恩ビル２０２,,08,224,3020109,,,2024-09-30,清算の結了等,,,2023-03-22,1,,,,,サクセスクリエイティブ,0
1024,4050002031935,登記記録の閉鎖等,0,2024-10-11,2024-10-01,有限会社元気,,有限会社,茨城県,北茨城市,磯原町大塚１３９９番地,,08,215,3191546,,,2024-10-01,清算の結了等,,,2015-10-05,1,,,,,ゲンキ,0
1033,4080401003128,登記記録の閉鎖等,0,2024-10-11,2024-10-09,株式会社田町梅月,,株式会社,静岡県,浜松市中央区,坪井町４０９５番地の１,,22,138,4310202,,,2024-10-09,清算の結了等,,,2015-10-05,1,,,,,タマチバイゲツ,0
1043,4120001059425,登記記録の閉鎖等,0,2024-10-11,2024-10-09,日本テクトロエナジー株式会社,,株式会社,大阪府,大阪市淀川区,宮原４丁目４番６３号新大阪千代田ビル別館,,27,123,5320003,,,2024-10-09,清算の結了等,,,2015-10-05,1,,,,,ニホンテクトロエナジー,0
1044,4120001169802,登記記録の閉鎖等,0,2024-10-11,2024-09-30,コラボリズム株式会社,,株式会社,東京都,千代田区,平河町１丁目６番１５号ＵＳビル８Ｆ,,13,101,1020093,,,2024-09-30,清算の結了等,,,2015-10-05,1,,,,,コラボリズム,0
1049,4120002035813,登記記録の閉鎖等,0,2024-10-11,2024-10-03,有限会社Ｊファクトリー,,有限会社,大阪府,大阪市港区,弁天５丁目１０番５号,,27,107,5520007,,,2024-10-03,清算の結了等,,,2015-10-05,1,,,,,ジェイファクトリー,0
1058,4120901009529,登記記録の閉鎖等,0,2024-10-11,2024-10-07,株式会社杉田鉄工所,,株式会社,大阪府,茨木市,太田１丁目１１番２３号,,27,211,5670018,,,2024-10-07,清算の結了等,,,2015-10-05,1,,,,,スギタテッコウショ,0
1070,4130002002754,登記記録の閉鎖等,0,2024-10-11,2024-10-08,有限会社ネレウス,,有限会社,京都府,京都市上京区,浄福寺通出水上る東神明町２７０番地,,26,102,6028162,,,2024-10-08,清算の結了等,,,2015-10-05,1,,,,,ネレウス,0
1079,4160001020572,登記記録の閉鎖等,0,2024-10-11,2024-10-08,株式会社ＲＩＳＥ,,株式会社,滋賀県,草津市,大路１丁目１１－８ジュンビル,,25,206,5250032,,,2024-10-08,合併による解散等,1100001030712,令和６年１０月１日長野市南千歳一丁目３番６号Ｋ’ｓスクエアビル５０１号室株式会社ＬＵＩＣＥ（1100001030712）に合併し解散,2017-11-14,1,,,,,,0
1084,4180001101445,登記記録の閉鎖等,0,2024-10-11,2024-09-30,株式会社ワークステージ,,株式会社,愛知県,名古屋市港区,九番町４丁目２番６２号,,23,111,4550008,,,2024-09-30,清算の結了等,,,2015-10-05,1,,,,,ワークステージ,0
1097,4200001005924,登記記録の閉鎖等,0,2024-10-11,2024-10-10,株式会社ワイ・アイ,,株式会社,岐阜県,岐阜市,近島１丁目１１番６号,,21,201,5020908,,,2024-10-10,清算の結了等,,,2015-10-05,1,,,,,ワイアイ,0
1104,4240001024177,登記記録の閉鎖等,0,2024-10-11,2024-09-02,Ｇａｔｈｅｒｉｎｇ株式会社,,株式会社,兵庫県,神戸市中央区,北長狭通２丁目１番６号三陽ビル１Ｆ,,28,110,6500012,,,2024-09-02,合併による解散等,4140001125943,令和６年９月１日神戸市中央区磯上通八丁目１番１９号カーサグランデ神戸３階Ｎａｖｙ　Ｆａｃｔｏｒｙ株式会社（4140001125943）に合併し解散,2015-10-05,1,,,,,ギャザリング,0
1119,4290803003803,登記記録の閉鎖等,0,2024-10-11,2024-09-30,Ｓｋｙ＆Ｓｅａ合同会社,,合同会社,福岡県,北九州市八幡東区,東山１丁目４番３号,,40,108,8050026,,,2024-09-30,清算の結了等,,,2021-04-23,1,,,,,スカイアンドシー,0
1137,4360002011724,登記記録の閉鎖等,0,2024-10-11,2024-10-07,有限会社コザ不動産商事,,有限会社,沖縄県,沖縄市,泡瀬５丁目２７番２５号,,47,211,9042172,,,2024-10-07,清算の結了等,,,2015-10-05,1,,,,,コザフドウサンショウジ,0
1139,4370001009859,登記記録の閉鎖等,0,2024-10-11,2024-09-27,株式会社支倉エンタープライズ,,株式会社,宮城県,仙台市太白区,長町３丁目８番７号,,04,104,9820011,,,2024-09-27,清算の結了等,,,2015-10-05,1,,,,,ハセクラエンタープライズ,0
1146,4380001025558,登記記録の閉鎖等,0,2024-10-11,2024-10-01,株式会社幸楽苑,,株式会社,福島県,郡山市,田村町金屋字川久保１番地１,,07,203,9630725,,,2024-10-01,合併による解散等,2380001005074,令和６年１０月１日福島県郡山市田村町上行合字北川田２番地１株式会社幸楽苑（2380001005074）に合併し解散,2015-10-05,1,,,,,コウラクエン,0
1154,4410005005718,登記記録の閉鎖等,0,2024-10-11,2024-10-04,特定非営利活動法人秋田移住定住総合支援センター,,その他の設立登記法人,秋田県,秋田市,手形字山崎１６番地４,,05,201,0100851,,,2024-10-04,清算の結了等,,,2015-10-05,1,,,,,アキタイジュウテイジュウソウゴウシエンセンター,0
1183,5010002049014,登記記録の閉鎖等,0,2024-10-11,2024-09-30,有限会社カーメル,,有限会社,東京都,中央区,日本橋３丁目５番１２号ＤＥＣＯＴＯＫＹＯ４階,,13,102,1030027,,,2024-09-30,清算の結了等,,,2015-10-05,1,,,,,カーメル,0
1202,5010405018508,登記記録の閉鎖等,0,2024-10-11,2024-09-10,エス・タックス税理士法人,,その他の設立登記法人,東京都,港区,芝２丁目１５番１５号,,13,103,1050014,,,2024-09-10,合併による解散等,2010005021451,令和６年９月３日東京都中央区京橋三丁目１２番７号ＧＩＮＺＡＥＡＳＴＳＱＵＡＲＥ５階税理士法人Ｇ＆Ｓソリューションズ（2010005021451）に合併し解散,2020-02-17,1,,,,,エスタックス,0
1206,5010601059198,登記記録の閉鎖等,0,2024-10-11,2024-10-07,センチュリア株式会社,,株式会社,東京都,江戸川区,瑞江３丁目１０番２号,,13,123,1320011,,,2024-10-07,清算の結了等,,,2021-04-27,1,,,,,センチュリア,0
1213,5010901016469,登記記録の閉鎖等,0,2024-10-11,2024-10-01,アスク財務管理株式会社,,株式会社,東京都,世田谷区,北沢２丁目２５番１９号,,13,112,1550031,,,2024-10-01,合併による解散等,7010902003308,令和６年１０月１日東京都世田谷区北沢二丁目２５番１７号株式会社近江屋商事（7010902003308）に合併し解散,2015-10-05,1,,,,,アスクザイムカンリ,0
1245,5011502008797,登記記録の閉鎖等,0,2024-10-11,2024-10-09,有限会社サンリツ商会,,有限会社,東京都,荒川区,東日暮里２丁目３０番１１号,,13,118,1160014,,,2024-10-09,清算の結了等,,,2015-10-05,1,,,,,サンリツショウカイ,0
1251,5011702013250,登記記録の閉鎖等,0,2024-10-11,2024-10-07,有限会社石黒組重量工事,,有限会社,東京都,江戸川区,東葛西６丁目２６－１９－１０２,,13,123,1340084,,,2024-10-07,清算の結了等,,,2015-10-05,1,,,,,イシグロクミジュウリョウコウジ,0
1267,5020001115352,登記記録の閉鎖等,0,2024-10-11,2024-09-25,株式会社ユア・ブレーンズ,,株式会社,神奈川県,川崎市麻生区,百合丘３丁目１９番地１０百合ヶ丘ビューハイツ２０１,,14,137,2150011,,,2024-09-25,清算の結了等,,,2016-03-23,1,,,,,ユアブレーンズ,0
1276,5021001020014,登記記録の閉鎖等,0,2024-10-11,2024-10-08,新東エスプレシジョン株式会社,,株式会社,神奈川県,厚木市,長谷２６０番地６３,,14,212,2430036,,,2024-10-08,合併による解散等,5180001030627,令和６年１０月１日名古屋市中村区名駅三丁目２８番１２号新東工業株式会社（5180001030627）に合併し解散,2015-10-05,1,,,,,シントウエスプレシジョン,0
1285,5030001031887,登記記録の閉鎖等,0,2024-10-11,2024-10-03,株式会社ナカヤ商事,,株式会社,埼玉県,白岡市,篠津９６１番地１,,11,246,3490204,,,2024-10-03,清算の結了等,,,2015-10-05,1,,,,,ナカヤショウジ,0
1286,5030001067130,登記記録の閉鎖等,0,2024-10-11,2024-10-03,フェリクシー株式会社,,株式会社,埼玉県,越谷市,宮本町２丁目２４４番地１,,11,222,3430806,,,2024-10-03,清算の結了等,,,2015-10-05,1,,,,,フェリクシー,0
1291,5030002051026,登記記録の閉鎖等,0,2024-10-11,2024-10-03,有限会社モービラックス,,有限会社,埼玉県,三郷市,高州２丁目３１４番地２,,11,237,3410037,,,2024-10-03,清算の結了等,,,2015-10-05,1,,,,,モービラックス,0
1297,5040001011418,登記記録の閉鎖等,0,2024-10-11,2024-10-08,株式会社地区宅便,,株式会社,千葉県,千葉市緑区,大野台２丁目６番地１５,,12,105,2670056,,,2024-10-08,合併による解散等,3011601011290,令和６年１０月１日東京都練馬区高松五丁目８番２０号株式会社地区宅便（3011601011290）に合併し解散,2015-10-05,1,,,,,チクタクビン,0
1303,5040002014213,登記記録の閉鎖等,0,2024-10-11,2024-10-03,有限会社ルワージュ千葉,,有限会社,千葉県,千葉市中央区,松波１丁目１０番１５号,,12,101,2600044,,,2024-10-03,清算の結了等,,,2015-10-05,1,,,,,ルワージュチバ,0
1311,5050001052766,登記記録の閉鎖等,0,2024-10-11,2024-09-30,株式会社ヒュースト,,株式会社,茨城県,龍ケ崎市,若柴町３０３３ウィステリア・リブＩＩＩ２０１号室,00136110,08,208,3010041,,,2024-09-30,清算の結了等,,,2023-05-08,1,,,,,ヒュースト,0
1321,5070002026338,登記記録の閉鎖等,0,2024-10-11,2024-10-03,有限会社下谷技建工業,,有限会社,群馬県,渋川市,半田７９６番地４,,10,208,3770004,,,2024-10-03,清算の結了等,,,2015-10-05,1,,,,,シモヤギケンコウギョウ,0
1347,5120001239728,登記記録の閉鎖等,0,2024-10-11,2024-10-09,株式会社Ｕｎｉｓｐｒｏｕｔｓ,,株式会社,大阪府,寝屋川市,若葉町１７番２７号,,27,215,5720031,,,2024-10-09,清算の結了等,,,2021-08-13,1,,,,,ユニスプラウツ,0
1353,5120002013149,登記記録の閉鎖等,0,2024-10-11,2024-10-10,有限会社センコーエンジニアリング,,有限会社,大阪府,大阪市天王寺区,上本町６丁目３番３１－１２１２号,,27,109,5430001,,,2024-10-10,清算の結了等,,,2015-10-05,1,,,,,センコーエンジニアリング,0
1359,5120102014261,登記記録の閉鎖等,0,2024-10-11,2024-10-07,有限会社スカイ,,有限会社,大阪府,松原市,西大塚１丁目１２番１８号,,27,217,5800011,,,2024-10-07,清算の結了等,,,2015-10-05,1,,,,,スカイ,0
1378,5130005011140,登記記録の閉鎖等,0,2024-10-11,2024-09-02,天理教日本海分教会,,その他の設立登記法人,京都府,京丹後市,網野町網野９４４番地の１,,26,212,6293101,,,2024-09-02,合併による解散等,8120005000109,令和６年８月３０日大阪市生野区勝山北二丁目７番２６号天理教上瀬分教会（8120005000109）に合併し解散,2015-10-05,1,,,,,テンリキョウニホンカイブンキョウカイ,0
1382,5140003006224,登記記録の閉鎖等,0,2024-10-11,2024-10-08,合同会社ファースト・ファイブ,,合同会社,兵庫県,神戸市北区,大原３丁目７番地の１９,,28,109,6511222,,,2024-10-08,清算の結了等,,,2015-10-05,1,,,,,ファーストファイブ,0
1385,5180001053702,登記記録の閉鎖等,0,2024-10-11,2024-09-27,株式会社発汗産業千代田北陸,,株式会社,愛知県,名古屋市中区,古渡町１９番５号,,23,106,4600025,,,2024-09-27,清算の結了等,,,2015-10-05,1,,,,,ハッカンサンギョウチヨダホクリク,0
1397,5200001022142,登記記録の閉鎖等,0,2024-10-11,2024-10-10,株式会社東海ライフ,,株式会社,岐阜県,多治見市,小名田町６丁目２０８番地,,21,204,5070004,,,2024-10-10,清算の結了等,,,2015-10-05,1,,,,,トウカイライフ,0
1401,5210001011573,登記記録の閉鎖等,0,2024-10-11,2024-10-08,株式会社キシモト,,株式会社,福井県,越前市,妙法寺町１２号７番地の１,,18,209,9150844,,,2024-10-08,清算の結了等,,,2015-10-05,1,,,,,キシモト,0
1419,5290001019667,登記記録の閉鎖等,0,2024-10-11,2024-10-01,株式会社西部宝不動産,,株式会社,福岡県,福岡市早良区,西新４丁目９番６号,,40,137,8140002,,,2024-10-01,合併による解散等,2290001022351,令和６年１０月１日福岡市中央区赤坂一丁目５番２号ドリームステージ赤坂ビル株式会社アーウイン（2290001022351）に合併し解散,2015-10-05,1,,,,,セイブタカラフドウサン,0
1437,5340002003870,登記記録の閉鎖等,0,2024-10-11,2024-10-08,神戸屋商事有限会社,,有限会社,鹿児島県,鹿児島市,千日町７番１７号,,46,201,8920843,,,2024-10-08,清算の結了等,,,2015-10-05,1,,,,,コウベヤショウジ,0
1440,5340005008504,登記記録の閉鎖等,0,2024-10-11,2024-09-02,信和税理士法人,,その他の設立登記法人,鹿児島県,鹿児島市,南林寺町２１番２０号,,46,201,8920834,,,2024-09-02,合併による解散等,4340005003976,令和６年９月２日鹿児島市吉野町１０４５番地１５税理士法人南九州総合会計（4340005003976）に合併し解散,2016-01-07,1,,,,,シンワ,0
1447,5380002016943,登記記録の閉鎖等,0,2024-10-11,2024-09-30,有限会社菅野工務店,,有限会社,福島県,本宮市,長屋字堀込２６番地２,,07,214,9691206,,,2024-09-30,清算の結了等,,,2015-10-05,1,,,,,カンノコウムテン,0
1458,5430001084440,登記記録の閉鎖等,0,2024-10-11,2024-10-04,株式会社ステラノート,,株式会社,北海道,札幌市北区,北三十七条西９丁目１番１０号ピアレス麻生１階,,01,102,0010037,,,2024-10-04,清算の結了等,,,2021-07-01,1,,,,,,0
1465,5450002000106,登記記録の閉鎖等,0,2024-10-11,2024-09-02,有限会社青山ビル,,有限会社,北海道,旭川市,三条通７丁目右１０号,,01,204,0700033,,,2024-09-02,合併による解散等,5450001000692,令和６年９月１日北海道旭川市三条通七丁目４１８番地の１株式会社オクノ（5450001000692）に合併し解散,2015-10-05,1,,,,,,0
1467,5490005005965,登記記録の閉鎖等,0,2024-10-11,2024-10-02,特定非営利活動法人防災ネットワーク絆,,その他の設立登記法人,高知県,高知市,鴨部１３５５番地２５,,39,201,7808050,,,2024-10-02,清算の結了等,,,2015-10-05,1,,,,,ボウサイネットワークキズナ,0
1483,6010003021986,登記記録の閉鎖等,0,2024-10-11,2024-10-02,合同会社アンフィニ,,合同会社,東京都,世田谷区,南烏山２丁目３４番４－６０１号,,13,112,1570062,,,2024-10-02,合併による解散等,1010003022031,令和６年１０月１日東京都世田谷区南烏山二丁目３４番４－６０１号合同会社ＹＴＫ（1010003022031）に合併し解散,2015-10-05,1,,,,,アンフィニ,0
1529,6011201005509,登記記録の閉鎖等,0,2024-10-11,2024-10-01,株式会社安工務店,,株式会社,東京都,新宿区,西落合２丁目２１番１４号,,13,104,1610031,,,2024-10-01,清算の結了等,,,2015-10-05,1,,,,,ヤスコウムテン,0
1531,6011401012131,登記記録の閉鎖等,0,2024-10-11,2024-10-03,株式会社ＰＳテック,,株式会社,東京都,板橋区,板橋４丁目４番３号,,13,119,1730004,,,2024-10-03,清算の結了等,,,2015-10-05,1,,,,,,0
1532,6011401014516,登記記録の閉鎖等,0,2024-10-11,2024-10-03,株式会社青山工務店,,株式会社,東京都,板橋区,中台１丁目１５番２１号,,13,119,1740064,,,2024-10-03,清算の結了等,,,2015-10-05,1,,,,,アオヤマコウムテン,0
1537,6011601022310,登記記録の閉鎖等,0,2024-10-11,2024-10-09,ジュピタービジネスパートナーズ株式会社,,株式会社,東京都,練馬区,豊玉北６丁目２番１－２１０７号,,13,120,1760012,,,2024-10-09,清算の結了等,,,2018-01-11,1,,,,,ジュピタービジネスパートナーズ,0
1542,6011801037967,登記記録の閉鎖等,0,2024-10-11,2024-10-01,株式会社ＷＥＳＴ　ＢＵＹ,,株式会社,福岡県,田川郡香春町,大字中津原１５３３番地３０,,40,601,8221405,,,2024-10-01,清算の結了等,,,2020-08-11,1,,,,,ウエストバイ,0
1553,6013301041862,登記記録の閉鎖等,0,2024-10-11,2024-09-13,株式会社ＡＲＥＡ２０,,株式会社,東京都,港区,浜松町２丁目２番１５号浜松町ダイヤビル２Ｆ,,13,103,1050013,,,2024-09-13,清算の結了等,,,2018-02-27,1,,,,,エリアニジュウ,0
1556,6013302002970,登記記録の閉鎖等,0,2024-10-11,2024-10-01,有限会社玉香園,,有限会社,東京都,豊島区,西巣鴨１丁目１３番４号,,13,116,1700001,,,2024-10-01,清算の結了等,,,2015-10-05,1,,,,,ユウシャンエン,0
1557,6020001045581,登記記録の閉鎖等,0,2024-10-11,2024-09-25,株式会社スズヨシ,,株式会社,神奈川県,横浜市港北区,下田町６丁目２３番５５号,,14,109,2230064,,,2024-09-25,清算の結了等,,,2015-10-05,1,,,,,スズヨシ,0
1564,6020002092598,登記記録の閉鎖等,0,2024-10-11,2024-09-25,有限会社ダブルディワークス,,有限会社,神奈川県,川崎市多摩区,生田７丁目１０番８号,,14,135,2140038,,,2024-09-25,清算の結了等,,,2015-10-05,1,,,,,ダブルディワークス,0
1565,6020003022744,登記記録の閉鎖等,0,2024-10-11,2024-09-25,合同会社モーリー,,合同会社,神奈川県,川崎市川崎区,池上新町１丁目２番１３－５０５号グランディール,,14,131,2100832,,,2024-09-25,清算の結了等,,,2022-11-15,1,,,,,モーリー,0
1573,6030001156865,登記記録の閉鎖等,0,2024-10-11,2024-09-30,金牙猫株式会社,,株式会社,東京都,千代田区,神田神保町２丁目２０大池ビル３階,,13,101,1010051,,,2024-09-30,清算の結了等,,,2023-10-27,1,,,,,キバネコ,0
1581,6040001018528,登記記録の閉鎖等,0,2024-10-11,2024-10-03,株式会社廣川,00018889,株式会社,千葉県,船橋市,薬円台４丁目３番２１号,,12,204,2740077,,,2024-10-03,清算の結了等,,,2015-10-05,1,,,,,ヒロカワ,0
1583,6040001027462,登記記録の閉鎖等,0,2024-10-11,2024-10-08,富士物産株式会社,,株式会社,千葉県,市川市,八幡２丁目７番２０号,,12,203,2720021,,,2024-10-08,合併による解散等,6170001003368,令和６年１０月１日和歌山市中之島１５１８番地中之島８０１ビル５階ヤマイチ・ユニハイムエステート株式会社（6170001003368）に合併し解散,2015-10-05,1,,,,,フジブッサン,0
1588,6040002043946,登記記録の閉鎖等,0,2024-10-11,2024-10-03,有限会社アイビジョン,,有限会社,千葉県,松戸市,松戸新田１６２番地の６,,12,207,2702241,,,2024-10-03,清算の結了等,,,2015-10-05,1,,,,,アイビジョン,0
1589,6040002058317,登記記録の閉鎖等,0,2024-10-11,2024-10-03,有限会社正井薬局,,有限会社,千葉県,白井市,桜台２丁目１７番２棟１０３号,,12,232,2701412,,,2024-10-03,清算の結了等,,,2015-10-05,1,,,,,マサイヤッキョク,0
1608,6090001016626,登記記録の閉鎖等,0,2024-10-11,2024-08-23,にんじん株式会社,,株式会社,山梨県,甲府市,国母４丁目１６番９号,,19,201,4000043,,,2024-08-23,合併による解散等,2090001002860,令和６年８月１日山梨県中央市山之神流通団地２－１－２甲信食糧株式会社（2090001002860）に合併し解散,2020-08-24,1,,,,,ニンジン,0
1620,6110001007119,登記記録の閉鎖等,0,2024-10-11,2024-10-03,株式会社木山屋商店,,株式会社,新潟県,新潟市秋葉区,小須戸３５５７番地,,15,105,9560101,,,2024-10-03,清算の結了等,,,2015-10-05,1,,,,,キヤマヤショウテン,0
1621,6110001008661,登記記録の閉鎖等,0,2024-10-11,2024-10-02,礎技建株式会社,,株式会社,新潟県,新潟市江南区,砂岡４丁目２番２１号,,15,104,9500132,,,2024-10-02,清算の結了等,,,2015-10-05,1,,,,,イシズエギケン,0
1623,6110001014651,登記記録の閉鎖等,0,2024-10-11,2024-10-03,株式会社プリメイト,,株式会社,新潟県,三条市,西大崎２丁目１４番３号,,15,204,9550033,,,2024-10-03,清算の結了等,,,2015-10-05,1,,,,,プリメイト,0
1625,6110002014799,登記記録の閉鎖等,0,2024-10-11,2024-10-01,有限会社安藤組,,有限会社,新潟県,新発田市,豊町３丁目８番２５号,,15,206,9570016,,,2024-10-01,清算の結了等,,,2015-10-05,1,,,,,アンドウグミ,0
1643,6120101049522,登記記録の閉鎖等,0,2024-10-11,2024-09-24,株式会社タニモトエンジニア,,株式会社,大阪府,堺市東区,日置荘北町１丁２８番６号,,27,143,5998111,,,2024-09-24,合併による解散等,8120101004797,令和６年９月２１日大阪府堺市東区日置荘北町一丁２８番６号タニモト建工株式会社（8120101004797）に合併し解散,2015-10-05,1,,,,,タニモトエンジニア,0
1675,6170005005906,登記記録の閉鎖等,0,2024-10-11,2024-10-07,特定非営利活動法人明るい故郷を創ろう会,,その他の設立登記法人,和歌山県,御坊市,薗３５０番地１５大浜ビル２Ｆ,,30,205,6440002,,,2024-10-07,清算の結了等,,,2015-10-05,1,,,,,アカルイフルサトヲツクロウカイ,0
1679,6180001154929,登記記録の閉鎖等,0,2024-10-11,2024-09-26,プレシャスエージェント株式会社,,株式会社,愛知県,名古屋市中区,新栄２丁目１番９号雲竜フレックスビル西館１８０２号室,,23,106,4600007,,,2024-09-26,清算の結了等,,,2023-02-08,1,,,,,プレシャスエージェント,0
1684,6180301008917,登記記録の閉鎖等,0,2024-10-11,2024-10-01,株式会社ＹＫコーポレーション,,株式会社,愛知県,豊橋市,つつじが丘３丁目３７番地の８,,23,201,4400858,,,2024-10-01,清算の結了等,,,2015-10-05,1,,,,,ワイケーコーポレーション,0
1688,6180302021398,登記記録の閉鎖等,0,2024-10-11,2024-10-02,イツワ有限会社,,有限会社,愛知県,豊田市,勘八町長根１３番地,,23,211,4700328,,,2024-10-02,清算の結了等,,,2015-10-05,1,,,,,イツワ,0
1694,6200001041562,登記記録の閉鎖等,0,2024-10-11,2024-10-08,株式会社大平縫製,,株式会社,岐阜県,可児郡御嵩町,御嵩１７５２番地１,,21,521,5050116,,,2024-10-08,清算の結了等,,,2023-08-03,1,,,,,オオヒラホウセイ,0
1695,6200005006529,登記記録の閉鎖等,0,2024-10-11,2024-08-28,天理教小美分教会,,その他の設立登記法人,岐阜県,美濃加茂市,本郷町８丁目９番１５号,,21,211,5050027,,,2024-08-28,合併による解散等,5200005002520,令和６年８月２８日岐阜県各務原市鵜沼西町一丁目３４３番地天理教各務ヶ原分教会（5200005002520）に合併し解散,2015-10-05,1,,,,,テンリキョウコミブンキョウカイ,0
1704,6240001036278,登記記録の閉鎖等,0,2024-10-11,2024-10-07,株式会社加藤薬品,,株式会社,広島県,安芸郡海田町,稲荷町９番１８号,,34,304,7360067,,,2024-10-07,清算の結了等,,,2015-10-05,1,,,,,カトウヤクヒン,0
1705,6240002049551,登記記録の閉鎖等,0,2024-10-11,2024-10-01,有限会社友田印刷,,有限会社,広島県,竹原市,忠海東町１丁目１４番１０号,,34,203,7292317,,,2024-10-01,清算の結了等,,,2015-10-05,1,,,,,トモダインサツ,0
1715,6290001055208,登記記録の閉鎖等,0,2024-10-11,2024-09-04,株式会社まるか梶原商店,,株式会社,福岡県,うきは市,吉井町新治１４７番地の１,,40,225,8391306,,,2024-09-04,清算の結了等,,,2015-10-05,1,,,,,,0
1725,6290802020665,登記記録の閉鎖等,0,2024-10-11,2024-10-09,有限会社森建材,,有限会社,福岡県,直方市,大字上境１９６４番地の４,,40,204,8220006,,,2024-10-09,清算の結了等,,,2015-10-05,1,,,,,モリケンザイ,0
1735,6340002021426,登記記録の閉鎖等,0,2024-10-11,2024-10-07,有限会社泰江ビル,00099714,有限会社,鹿児島県,奄美市,名瀬古田町１２番３７号,,46,222,8940016,,,2024-10-07,清算の結了等,,,2015-10-05,1,,,,,ヤスエビル,0
1739,6350001001568,登記記録の閉鎖等,0,2024-10-11,2024-10-07,株式会社豊和,,株式会社,宮崎県,宮崎市,佐土原町東上那珂１１３７５番地１１,,45,201,8800303,,,2024-10-07,清算の結了等,,,2015-10-05,1,,,,,ホウワ,0
1747,6390002014631,登記記録の閉鎖等,0,2024-10-11,2024-10-01,有限会社カネジュウ電気商会,,有限会社,山形県,東置賜郡川西町,大字上小松３３２９番地,,06,382,9990121,,,2024-10-01,清算の結了等,,,2015-10-05,1,,,,,カネジュウデンキショウカイ,0
1748,6400001014201,登記記録の閉鎖等,0,2024-10-11,2024-10-01,株式会社ぱんだ食堂,,株式会社,岩手県,盛岡市,大通２丁目７番１９号,,03,201,0200022,,,2024-10-01,合併による解散等,7400001012914,令和６年１０月１日岩手県盛岡市大通二丁目７番１９号株式会社Ｎｅｘｕｓ（7400001012914）に合併し解散,2018-06-26,1,,,,,パンダショクドウ,0
1749,6420002011708,登記記録の閉鎖等,0,2024-10-11,2024-10-08,有限会社あきたやでんき,,有限会社,青森県,北津軽郡中泊町,大字富野字千歳３４６番地,,02,387,0370313,,,2024-10-08,清算の結了等,,,2015-10-05,1,,,,,アキタヤデンキ,0
1756,6430003008537,登記記録の閉鎖等,0,2024-10-11,2024-09-02,合同会社Ｂ－ＹＵ,,合同会社,北海道,札幌市中央区,南二条西７丁目１番５　２・７ビル２階,,01,101,0600062,,,2024-09-02,合併による解散等,8430003008436,令和６年９月１日札幌市中央区南一条西十六丁目１番３２３春野ビル３階合同会社ＢＭＡＫ（8430003008436）に合併し解散,2017-07-04,1,,,,,ビーユー,0
1758,6440002004206,登記記録の閉鎖等,0,2024-10-11,2024-10-07,有限会社堀田板金工業所,,有限会社,北海道,函館市,山の手２丁目３１番３号,,01,202,0410836,,,2024-10-07,清算の結了等,,,2015-10-05,1,,,,,ホリタバンキンコウギョウショ,0
1761,6460001001581,登記記録の閉鎖等,0,2024-10-11,2024-10-09,北海道クリンメンテナンス工業株式会社,,株式会社,北海道,釧路市,大楽毛５丁目３番１６号,,01,206,0840917,,,2024-10-09,清算の結了等,,,2015-10-05,1,,,,,ホッカイドウクリンメンテナンスコウギョウ,0
1763,6470002016553,登記記録の閉鎖等,0,2024-10-11,2024-10-03,有限会社宮本設備,,有限会社,香川県,三豊市,高瀬町上勝間１２８７番地１,,37,208,7670012,,,2024-10-03,清算の結了等,,,2015-10-05,1,,,,,ミヤモトセツビ,0
1771,6500001015404,登記記録の閉鎖等,0,2024-10-11,2024-09-02,シンツ建工株式会社,,株式会社,愛媛県,宇和島市,丸之内５丁目４番７号,,38,203,7980060,,,2024-09-02,合併による解散等,5500001002089,令和６年９月１日愛媛県松山市空港通二丁目１２番５号シンツ硝子テック株式会社（5500001002089）に合併し解散,2015-10-05,1,,,,,シンツケンコウ,0
1772,6500002005833,登記記録の閉鎖等,0,2024-10-11,2024-09-02,有限会社二神塾幼稚舍,,有限会社,愛媛県,松山市,桑原７丁目１番１８号,,38,201,7900911,,,2024-09-02,合併による解散等,4500002004003,令和６年９月１日愛媛県松山市桑原七丁目２番３６号株式会社大成企画（4500002004003）に合併し解散,2015-10-05,1,,,,,フタガミジュクヨウチシャ,0
1799,7010402014739,登記記録の閉鎖等,0,2024-10-11,2024-09-13,有限会社レヴィ,,有限会社,東京都,港区,南青山６丁目２番１３号,,13,103,1070062,,,2024-09-13,清算の結了等,,,2015-10-05,1,,,,,,0
1807,7010701022161,登記記録の閉鎖等,0,2024-10-11,2024-10-01,株式会社シャルダン,,株式会社,東京都,新宿区,下落合１丁目４番１０号,,13,104,1610033,,,2024-10-01,合併による解散等,8011101003057,令和６年９月２７日東京都新宿区下落合一丁目４番１０号エステー株式会社（8011101003057）に合併し解散,2015-10-05,1,,,,,シャルダン,0
1813,7010901049913,登記記録の閉鎖等,0,2024-10-11,2024-10-01,ＺＩＴ株式会社,,株式会社,東京都,新宿区,西新宿７丁目７番２７号第一守徳ビル６０２,,13,104,1600023,,,2024-10-01,清算の結了等,,,2021-12-06,1,,,,,ジット,0
1828,7011101043302,登記記録の閉鎖等,0,2024-10-11,2024-10-04,株式会社オフィスジュン・スタッフ,,株式会社,東京都,目黒区,中目黒５丁目８番３号,,13,110,1530061,,,2024-10-04,清算の結了等,,,2015-10-05,1,,,,,オフィスジュンスタッフ,0
1831,7011101095500,登記記録の閉鎖等,0,2024-10-11,2024-10-04,ＡｐｐＡｕｔｏ株式会社,,株式会社,埼玉県,さいたま市緑区,大字中尾２０２７－１３,,11,109,3360932,,,2024-10-04,清算の結了等,,,2021-06-24,1,,,,,アップオート,0
1843,7011702008083,登記記録の閉鎖等,0,2024-10-11,2024-10-04,有限会社トータルインテリア山本,,有限会社,東京都,江戸川区,篠崎町１丁目１４番８号,,13,123,1330061,,,2024-10-04,清算の結了等,,,2015-10-05,1,,,,,トータルインテリアヤマモト,0
1869,7021002019846,登記記録の閉鎖等,0,2024-10-11,2024-10-08,有限会社健全,,有限会社,東京都,町田市,能ヶ谷７丁目３９番１０号,,13,209,1950053,,,2024-10-08,清算の結了等,,,2015-10-05,1,,,,,ケンゼン,0
1886,7030002085567,登記記録の閉鎖等,0,2024-10-11,2024-10-04,有限会社カンノ産業,,有限会社,埼玉県,越谷市,赤山町３丁目２７４番地,,11,222,3430807,,,2024-10-04,清算の結了等,,,2015-10-05,1,,,,,カンノサンギョウ,0
1887,7030002121603,登記記録の閉鎖等,0,2024-10-11,2024-10-02,有限会社東照工業,,有限会社,埼玉県,秩父市,下宮地町３番８号,,11,207,3680021,,,2024-10-02,清算の結了等,,,2015-10-05,1,,,,,トウショウコウギョウ,0
1902,7050001015259,登記記録の閉鎖等,0,2024-10-11,2024-10-01,株式会社ノザワ,,株式会社,茨城県,ひたちなか市,大字馬渡西谷津３８４６番地,,08,221,3120012,,,2024-10-01,合併による解散等,7050001007000,令和６年１０月１日茨城県ひたちなか市馬渡西谷津３８４６番地株式会社ノザワワールド（7050001007000）に合併し解散,2015-10-05,1,,,,,ノザワ,0
1911,7060001015852,登記記録の閉鎖等,0,2024-10-11,2024-10-07,落合不動産株式会社,,株式会社,栃木県,小山市,大字小山２６８３番地,,09,208,3230825,,,2024-10-07,清算の結了等,,,2015-10-05,1,,,,,オチアイフドウサン,0
1923,7080101022656,登記記録の閉鎖等,0,2024-10-11,2024-10-08,たすけ株式会社,,株式会社,静岡県,沼津市,江浦５２７番地の７,,22,203,4100103,,,2024-10-08,清算の結了等,,,2021-07-15,1,,,,,タスケ,0
1925,7090002001816,登記記録の閉鎖等,0,2024-10-11,2024-10-04,有限会社総理屋食堂,,有限会社,山梨県,甲府市,丸の内２丁目１６番７号,,19,201,4000031,,,2024-10-04,清算の結了等,,,2015-10-05,1,,,,,ソウリヤショクドウ,0
1936,7120001154727,登記記録の閉鎖等,0,2024-10-11,2024-10-01,株式会社ティー・モーション,,株式会社,大阪府,大阪市福島区,福島５丁目１番２６号,,27,103,5530003,,,2024-10-01,合併による解散等,8120001132616,令和６年１０月１日大阪市福島区福島五丁目１番２６号株式会社ティー・エム・ティー（8120001132616）に合併し解散,2015-10-05,1,,,,,ティーモーション,0
1957,7120005013565,登記記録の閉鎖等,0,2024-10-11,2024-10-10,特定非営利活動法人コンビニと地域環境を考える会,,その他の設立登記法人,大阪府,枚方市,北中振３丁目４５－４「つどい」方,,27,210,5730064,,,2024-10-10,清算の結了等,,,2015-10-05,1,,,,,コンビニトチイキカンキョウヲカンガエルカイ,0
1959,7120901037114,登記記録の閉鎖等,0,2024-10-11,2024-10-08,株式会社京都東揚商会,,株式会社,兵庫県,神戸市中央区,新港町１１番１号,,28,110,6500041,,,2024-10-08,合併による解散等,1120001035255,令和６年１０月１日大阪市西淀川区佃七丁目４番１６号株式会社昭和トラスト（1120001035255）に合併し解散,2016-06-24,1,,,,,キョウトトウヨウショウカイ,0
1961,7120902021100,登記記録の閉鎖等,0,2024-10-11,2024-10-08,有限会社ユニプラン,,有限会社,大阪府,豊中市,西泉丘１丁目１２番６号,,27,203,5610862,,,2024-10-08,清算の結了等,,,2015-10-05,1,,,,,ユニプラン,0
1968,7140001081003,登記記録の閉鎖等,0,2024-10-11,2024-10-08,株式会社かをる,,株式会社,兵庫県,川西市,見野２丁目５番１１号,,28,217,6660105,,,2024-10-08,清算の結了等,,,2015-10-05,1,,,,,カヲル,0
1980,7140002062910,登記記録の閉鎖等,0,2024-10-11,2024-10-08,有限会社双葉工業,,有限会社,兵庫県,小野市,万勝寺町字南山２６８－１２６番地,,28,218,6751311,,,2024-10-08,清算の結了等,,,2015-10-05,1,,,,,フタバコウギョウ,0
1983,7140005002434,登記記録の閉鎖等,0,2024-10-11,2024-10-10,神陽監査法人,,その他の設立登記法人,兵庫県,神戸市中央区,多聞通２丁目４番４号ブツクローン神戸ビル４階,,28,110,6500015,,,2024-10-10,清算の結了等,,,2015-10-05,1,,,,,シンヨウ,0
1985,7150003002179,登記記録の閉鎖等,0,2024-10-11,2024-09-12,合同会社ルネッサンス春日,,合同会社,奈良県,宇陀市,菟田野古市場１５９６－９－２Ｆ,,29,212,6332226,,,2024-09-12,清算の結了等,,,2020-07-21,1,,,,,ルネッサンスカスガ,0
1990,7180001016178,登記記録の閉鎖等,0,2024-10-11,2024-10-01,栄興産業株式会社,,株式会社,愛知県,名古屋市東区,白壁４丁目３３番地の２,,23,102,4610011,,,2024-10-01,清算の結了等,,,2015-10-05,1,,,,,エイコウサンギョウ,0
2003,7190005004153,登記記録の閉鎖等,0,2024-10-11,2024-09-11,現證宗日蓮主義佛立講伊勢神戸道場,00076258,その他の設立登記法人,三重県,鈴鹿市,西条２丁目３番６号,,24,207,5130809,,,2024-09-11,合併による解散等,1190005004150,令和６年９月１１日三重県鈴鹿市西条二丁目３番６号現證宗日蓮主義佛立講（1190005004150）に合併し解散,2015-10-05,1,,,,,ゲンショウシュウニチレンシュギブツリュウコウイセカンベドウジョウ,0
2006,7200002019862,登記記録の閉鎖等,0,2024-10-11,2024-10-09,有限会社東海企材,,有限会社,岐阜県,各務原市,川島笠田町２丁目３８番,,21,213,5016021,,,2024-10-09,清算の結了等,,,2015-10-05,1,,,,,トウカイキザイ,0
2008,7210002001068,登記記録の閉鎖等,0,2024-10-11,2024-10-08,有限会社ケーオーシステム,,有限会社,福井県,福井市,つくし野１丁目３０２番地４,,18,201,9100101,,,2024-10-08,清算の結了等,,,2015-10-05,1,,,,,ケーオーシステム,0
2011,7210005007665,登記記録の閉鎖等,0,2024-10-11,2024-09-02,下池田神社,,その他の設立登記法人,福井県,今立郡池田町,小畑８号２番地,,18,382,9102557,,,2024-09-02,合併による解散等,3210005007660,令和６年９月２日福井県今立郡池田町水海５２号２４番地鵜甘神社（3210005007660）に合併し解散,2015-10-05,1,,,,,シモイケダジンジャ,0
2013,7210005007673,登記記録の閉鎖等,0,2024-10-11,2024-09-02,八幡神社,,その他の設立登記法人,福井県,今立郡池田町,大本４３号２４番地,,18,382,9102552,,,2024-09-02,合併による解散等,3210005007660,令和６年９月２日福井県今立郡池田町水海５２号２４番地鵜甘神社（3210005007660）に合併し解散,2015-10-05,1,,,,,ハチマンジンジャ,0
2014,7220001005044,登記記録の閉鎖等,0,2024-10-11,2024-10-02,株式会社ニュー片町ビル,,株式会社,石川県,金沢市,片町１丁目７番１９号,,17,201,9200981,,,2024-10-02,清算の結了等,,,2015-10-05,1,,,,,,0
2019,7230003001998,登記記録の閉鎖等,0,2024-10-11,2024-09-10,合同会社丸匠,,合同会社,富山県,富山市,黒瀬北町１丁目４‐５‐３Ｆ,,16,201,9398216,,,2024-09-10,清算の結了等,,,2023-04-12,1,,,,,マルショウ,0
2022,7240002039485,登記記録の閉鎖等,0,2024-10-11,2024-10-01,有限会社魚亀,,有限会社,広島県,福山市,柳津町２丁目４番１３号,,34,207,7290114,,,2024-10-01,清算の結了等,,,2015-10-05,1,,,,,ウオカメ,0
2026,7250001007269,登記記録の閉鎖等,0,2024-10-11,2024-10-08,株式会社漁庄,,株式会社,山口県,下関市,武久町２丁目５番３０号,,35,201,7510833,,,2024-10-08,清算の結了等,,,2015-10-05,1,,,,,ウオショウ,0
2055,7370005004085,登記記録の閉鎖等,0,2024-10-11,2024-09-30,一般社団法人ＦＬＡＴ,,その他の設立登記法人,宮城県,仙台市青葉区,一番町２丁目２－８ＩＫＩビル４Ｆ－１,,04,101,9800811,,,2024-09-30,清算の結了等,,,2015-10-05,1,,,,,フラット,0
2058,7380001019813,登記記録の閉鎖等,0,2024-10-11,2024-10-03,株式会社福千住,,株式会社,静岡県,静岡市駿河区,用宗２丁目９番１４号,,22,102,4210122,,,2024-10-03,清算の結了等,,,2015-10-05,1,,,,,フクセンジュウ,0
2061,7390002006727,登記記録の閉鎖等,0,2024-10-11,2024-10-01,有限会社すまい工房,,有限会社,山形県,山形市,下条町３丁目１６番１号,,06,201,9900823,,,2024-10-01,清算の結了等,,,2015-10-05,1,,,,,スマイコウボウ,0
2068,7430001033437,登記記録の閉鎖等,0,2024-10-11,2024-10-04,株式会社垣屋サッシ工業,,株式会社,北海道,札幌市豊平区,月寒東三条９丁目１番１３号,,01,105,0620053,,,2024-10-04,清算の結了等,,,2015-10-05,1,,,,,カキヤサッシコウギョウ,0
2080,7450002000104,登記記録の閉鎖等,0,2024-10-11,2024-09-02,青山商事有限会社,,有限会社,北海道,旭川市,三条通７丁目右１０号,,01,204,0700033,,,2024-09-02,合併による解散等,5450001000692,令和６年９月１日北海道旭川市三条通七丁目４１８番地の１株式会社オクノ（5450001000692）に合併し解散,2015-10-05,1,,,,,アオヤマショウジ,0
2081,7460002005457,登記記録の閉鎖等,0,2024-10-11,2024-10-10,有限会社山本針灸接骨院,,有限会社,北海道,釧路市,春日町６番１４号,,01,206,0850041,,,2024-10-10,清算の結了等,,,2015-10-05,1,,,,,ヤマモトシンキュウセッコツイン,0
2083,7470001019317,登記記録の閉鎖等,0,2024-10-11,2024-09-02,株式会社ＴＫ商事,,株式会社,香川県,高松市,川島本町４２０番地２,,37,201,7610442,,,2024-09-02,合併による解散等,9470001015462,令和６年９月１日香川県高松市西春日町１７２６番地１株式会社カナクラオールストーン（9470001015462）に合併し解散,2022-11-04,1,,,,,ティーケーショウジ,0
2093,8010001122933,登記記録の閉鎖等,0,2024-10-11,2024-10-03,株式会社サンステート,,株式会社,東京都,千代田区,神田紺屋町２７番地,,13,101,1010035,,,2024-10-03,合併による解散等,6010601029051,令和６年９月１日東京都江東区千石二丁目３番６号株式会社埼京通商（6010601029051）に合併し解散,2015-10-05,1,,,,,サンステート,0
2094,8010001141958,登記記録の閉鎖等,0,2024-10-11,2024-10-07,クオリテック株式会社,,株式会社,東京都,台東区,三筋１丁目１３番５号,,13,106,1110055,,,2024-10-07,合併による解散等,7180001038924,令和６年１０月１日名古屋市港区大江町６番地の１９東明エンジニアリング株式会社（7180001038924）に合併し解散,2015-10-05,1,,,,,クオリテック,0
2101,8010003022826,登記記録の閉鎖等,0,2024-10-11,2024-09-30,三正商事合同会社,,合同会社,東京都,中央区,銀座７丁目１３番６号,,13,102,1040061,,,2024-09-30,清算の結了等,,,2015-12-24,1,,,,,ミツマサショウジ,0
2102,8010003024616,登記記録の閉鎖等,0,2024-10-11,2024-09-30,ＪＡＩ再生可能エネルギーファンド２０１７－０２合同会社,,合同会社,東京都,中央区,八丁堀４丁目２番１０号ＡＯＪ税理士法人内,,13,102,1040032,,,2024-09-30,清算の結了等,,,2017-01-10,1,,,,,ジェーエーアイサイセイカノウエネルギーファンドニゼロイチナナゼロニ,0
2103,8010003037345,登記記録の閉鎖等,0,2024-10-11,2024-09-30,合同会社トラストテック,,合同会社,東京都,中央区,銀座１丁目２２－１１銀座大竹ビジデンス２Ｆ,,13,102,1040061,,,2024-09-30,清算の結了等,,,2022-03-28,1,,,,,トラストテック,0
2107,8010005034183,登記記録の閉鎖等,0,2024-10-11,2024-10-04,アジュール税理士法人,,その他の設立登記法人,東京都,中央区,新川１丁目６番１２号ＡＩビル茅場町,,13,102,1040033,,,2024-10-04,清算の結了等,,,2021-11-04,1,,,,,アジュール,0
2125,8010503005413,登記記録の閉鎖等,0,2024-10-11,2024-10-04,ｂｏｚｂｏｂ合同会社,,合同会社,東京都,台東区,上野６丁目１番６号御徒町グリーンハイツ１００５号,,13,106,1100005,,,2024-10-04,清算の結了等,,,2018-09-28,1,,,,,ボズボブ,0
2139,8011003013427,登記記録の閉鎖等,0,2024-10-11,2024-09-20,マキリ合同会社,,合同会社,東京都,渋谷区,松濤１丁目２８番２号,,13,113,1500046,,,2024-09-20,清算の結了等,,,2021-09-28,1,,,,,マキリ,0
2140,8011101002224,登記記録の閉鎖等,0,2024-10-11,2024-10-01,いろり商事株式会社,,株式会社,東京都,新宿区,中落合３丁目２８番１４号,,13,104,1610032,,,2024-10-01,清算の結了等,,,2015-10-05,1,,,,,イロリショウジ,0
2150,8011301016949,登記記録の閉鎖等,0,2024-10-11,2024-10-04,株式会社光悦,,株式会社,東京都,杉並区,久我山５丁目８番２０号ポスタンド１Ｆ,,13,115,1680082,,,2024-10-04,清算の結了等,,,2015-10-05,1,,,,,,0
2155,8011603003892,登記記録の閉鎖等,0,2024-10-11,2024-10-07,合同会社エムズカンパニー,,合同会社,東京都,練馬区,春日町３丁目１番１６号,,13,120,1790074,,,2024-10-07,清算の結了等,,,2023-04-13,1,,,,,エムズカンパニー,0
2156,8011701014172,登記記録の閉鎖等,0,2024-10-11,2024-10-07,車道楽株式会社,,株式会社,東京都,江戸川区,船堀３丁目５番２６号Ｔ．ガーデンスクエア１００６,,13,123,1340091,,,2024-10-07,清算の結了等,,,2015-10-05,1,,,,,,0
2161,8011802003066,登記記録の閉鎖等,0,2024-10-11,2024-10-03,有限会社三愛商事,,有限会社,東京都,葛飾区,鎌倉１丁目３番９号,,13,122,1250053,,,2024-10-03,清算の結了等,,,2015-10-05,1,,,,,サンアイショウジ,0
2176,8020002010665,登記記録の閉鎖等,0,2024-10-11,2024-09-25,有限会社松田設備,,有限会社,神奈川県,横浜市磯子区,峰町５０１番地の２,,14,107,2350044,,,2024-09-25,清算の結了等,,,2015-10-05,1,,,,,マツダセツビ,0
2183,8021002046542,登記記録の閉鎖等,0,2024-10-11,2024-10-09,有限会社第三加倉井牧場,00013515,有限会社,神奈川県,綾瀬市,吉岡１２４０番地,,14,218,2521124,,,2024-10-09,清算の結了等,,,2015-10-05,1,,,,,ダイサンカクライボクジョウ,0
2190,8030002013741,登記記録の閉鎖等,0,2024-10-11,2024-10-07,有限会社モリシマ,,有限会社,埼玉県,さいたま市大宮区,桜木町４丁目４８４番地８,,11,103,3300854,,,2024-10-07,清算の結了等,,,2015-10-05,1,,,,,モリシマ,0
2192,8030002084808,登記記録の閉鎖等,0,2024-10-11,2024-10-04,有限会社東屋プロパン,,有限会社,埼玉県,越谷市,相模町２丁目２４０番地１,,11,222,3430823,,,2024-10-04,清算の結了等,,,2015-10-05,1,,,,,ヒガシヤプロパン,0
2197,8040002036824,登記記録の閉鎖等,0,2024-10-11,2024-10-03,有限会社水戸表具店,,有限会社,千葉県,市川市,新田３丁目７番１５号,,12,203,2720035,,,2024-10-03,清算の結了等,,,2015-10-05,1,,,,,ミトヒョウグテン,0
2207,8050001043952,登記記録の閉鎖等,0,2024-10-11,2024-10-02,株式会社ＡＣＥ,,株式会社,茨城県,水戸市,石川３丁目４１７６番地２,,08,201,3100905,,,2024-10-02,清算の結了等,,,2018-01-30,1,,,,,エース,0
2209,8050002024068,登記記録の閉鎖等,0,2024-10-11,2024-10-02,有限会社竹田製作所,,有限会社,茨城県,古河市,横山町２丁目７番１２号,,08,204,3060022,,,2024-10-02,清算の結了等,,,2015-10-05,1,,,,,タケダセイサクショ,0
2229,8120001019235,登記記録の閉鎖等,0,2024-10-11,2024-10-03,株式会社ラン・コーポレーション,,株式会社,大阪府,大阪市生野区,林寺２丁目２３番１８号,,27,116,5440023,,,2024-10-03,清算の結了等,,,2015-10-05,1,,,,,,0
2236,8120001163116,登記記録の閉鎖等,0,2024-10-11,2024-10-01,株式会社けんでん防災,,株式会社,大阪府,寝屋川市,明和２丁目１３番８号,,27,215,5720863,,,2024-10-01,清算の結了等,,,2015-10-05,1,,,,,ケンデンボウサイ,0
2244,8120002024184,登記記録の閉鎖等,0,2024-10-11,2024-10-03,有限会社浜鉄工所,,有限会社,大阪府,大阪市西淀川区,姫島４丁目１１番１２－１１２号,,27,113,5550033,,,2024-10-03,清算の結了等,,,2015-10-05,1,,,,,ハマテッコウショ,0
2245,8120002074015,登記記録の閉鎖等,0,2024-10-11,2024-09-19,有限会社桑野建装,,有限会社,大阪府,枚方市,桜丘町３８番８号,,27,210,5730018,,,2024-09-19,清算の結了等,,,2015-10-05,1,,,,,クワノケンソウ,0
2246,8120003022063,登記記録の閉鎖等,0,2024-10-11,2024-08-21,合同会社アクセスＳｔｙｌｅ,,合同会社,大阪府,大阪市中央区,平野町１丁目７番１号堺筋高橋ビル６Ｆ,00127321,27,128,5410046,,,2024-08-21,合併による解散等,2120001200865,令和６年７月１日大阪市中央区平野町一丁目７番１号堺筋高橋ビル６Ｆアクセス・スタートアップ株式会社（2120001200865）に合併して解散,2022-07-26,1,,,,,アクセススタイル,0
2259,8120901009368,登記記録の閉鎖等,0,2024-10-11,2024-10-01,株式会社グリーンファーム,,株式会社,大阪府,高槻市,三島江１丁目３番１号,,27,207,5690835,,,2024-10-01,合併による解散等,7120901009195,令和６年１０月１日大阪府高槻市三島江一丁目３番１号株式会社グリーンロジスティックス（7120901009195）に合併し解散,2015-10-05,1,,,,,グリーンファーム,0
2267,8140001073998,登記記録の閉鎖等,0,2024-10-11,2024-10-07,株式会社ワークイットプロデュース,,株式会社,兵庫県,西宮市,甲東園１丁目１－６－５１０,,28,204,6620812,,,2024-10-07,清算の結了等,,,2015-10-05,1,,,,,ワークイットプロデュース,0
2276,8140002042135,登記記録の閉鎖等,0,2024-10-11,2024-10-04,阪神伸銅工業有限会社,,有限会社,兵庫県,尼崎市,西御園町８８番地,,28,202,6600868,,,2024-10-04,清算の結了等,,,2015-10-05,1,,,,,ハンシンシンドウコウギョウ,0
2282,8180001145777,登記記録の閉鎖等,0,2024-10-11,2024-09-02,株式会社アイオンエンジニアリング,,株式会社,愛知県,名古屋市中区,栄３丁目１８番１号ナディアパークビジネスセンタービル１４階,,23,106,4600008,,,2024-09-02,合併による解散等,5180001138255,令和６年９月１日名古屋市中区栄三丁目１８番１号ナディアパークビジネスセンタービル１４階日本住宅総合開発株式会社（5180001138255）に合併し解散,2021-04-20,1,,,,,アイオンエンジニアリング,0
2288,8180305002154,登記記録の閉鎖等,0,2024-10-11,2024-10-04,農事組合法人豊橋東七根温室団地園芸組合,,その他の設立登記法人,愛知県,豊橋市,東七根町字東大山７３番地,,23,201,4413201,,,2024-10-04,清算の結了等,,,2015-10-05,1,,,,,トヨハシヒガシナナネオンシツダンチエンゲイクミアイ,0
2293,8200002004153,登記記録の閉鎖等,0,2024-10-11,2024-10-09,有限会社ベストプラン,,有限会社,岐阜県,岐阜市,中川原３丁目８番地フォーブルＧ１０５,,21,201,5020013,,,2024-10-09,清算の結了等,,,2015-10-05,1,,,,,ベストプラン,0
2294,8200002022394,登記記録の閉鎖等,0,2024-10-11,2024-10-09,有限会社水野自動車鈑金,,有限会社,岐阜県,多治見市,笠原町４１５８番地の９,,21,204,5070901,,,2024-10-09,清算の結了等,,,2015-10-05,1,,,,,ミズノジドウシャバンキン,0
2295,8220002005983,登記記録の閉鎖等,0,2024-10-11,2024-10-02,有限会社安田薬局,,有限会社,石川県,金沢市,上堤町１番３１号,,17,201,9200869,,,2024-10-02,清算の結了等,,,2015-10-05,1,,,,,ヤスダヤッキョク,0
2311,8270002009039,登記記録の閉鎖等,0,2024-10-11,2024-10-10,有限会社Ｈ・Ｓ・Ｊ,,有限会社,鳥取県,米子市,冨士見町２丁目１４４番地ライラックマンション６０１号室,,31,202,6830055,,,2024-10-10,清算の結了等,,,2015-10-05,1,,,,,エイチエスジェイ,0
2315,8290001002744,登記記録の閉鎖等,0,2024-10-11,2024-09-05,株式会社欧グルマン,,株式会社,福岡県,福岡市東区,松島３丁目５番１３号アメニティ丸善１Ｆ,,40,131,8130062,,,2024-09-05,清算の結了等,,,2015-10-05,1,,,,,オウグルマン,0
2317,8290001039621,登記記録の閉鎖等,0,2024-10-11,2024-09-02,株式会社福岡オフィスサービス,,株式会社,福岡県,糟屋郡志免町,別府西３丁目１５番２号,,40,343,8112232,,,2024-09-02,清算の結了等,,,2015-10-05,1,,,,,フクオカオフィスサービス,0
2325,8290002022188,登記記録の閉鎖等,0,2024-10-11,2024-09-02,ダイキク商事有限会社,,有限会社,福岡県,福岡市南区,大橋３丁目１７番１５－１０５号,,40,134,8150033,,,2024-09-02,清算の結了等,,,2015-10-05,1,,,,,,0
2340,8340002018412,登記記録の閉鎖等,0,2024-10-11,2024-10-01,有限会社水口商店,,有限会社,鹿児島県,薩摩郡さつま町,永野９３７番地２,,46,392,8952203,,,2024-10-01,清算の結了等,,,2015-10-05,1,,,,,ミズグチショウテン,0
2372,8500005003477,登記記録の閉鎖等,0,2024-10-11,2024-09-09,天理教愛高和分教会,,その他の設立登記法人,愛媛県,八幡浜市,松柏乙１１３２番地,,38,204,7960010,,,2024-09-09,合併による解散等,3500005003473,令和６年９月９日愛媛県八幡浜市字新地３７５番地天理教西宇和分教会（3500005003473）に合併し解散,2015-10-05,1,,,,,テンリキョウアイコウワブンキョウカイ,0
2383,9010101007736,登記記録の閉鎖等,0,2024-10-11,2024-10-08,株式会社ティーワイアートワーク,,株式会社,東京都,八王子市,散田町５丁目６番５号,,13,201,1930832,,,2024-10-08,清算の結了等,,,2015-10-05,1,,,,,ティーワイアートワーク,0
2386,9010401033556,登記記録の閉鎖等,0,2024-10-11,2024-09-17,株式会社ピー・アイ・ビジネスサポート,,株式会社,東京都,港区,芝２丁目１６番１号,,13,103,1050014,,,2024-09-17,清算の結了等,,,2015-10-05,1,,,,,,0
2387,9010401091802,登記記録の閉鎖等,0,2024-10-11,2024-10-01,メルコエステートサービス株式会社,,株式会社,東京都,港区,芝公園２丁目４番１号,,13,103,1050011,,,2024-10-01,合併による解散等,5010401059497,令和６年１０月１日東京都港区芝公園二丁目４番１号三菱電機ライフサービス株式会社（5010401059497）に合併し解散,2015-10-05,1,,,,,メルコエステートサービス,0
2393,9010401162611,登記記録の閉鎖等,0,2024-10-11,2024-09-17,株式会社ＯＮＥＳＨＯＴ,,株式会社,東京都,渋谷区,恵比寿４丁目２３番９号,,13,113,1500013,,,2024-09-17,清算の結了等,,,2021-09-08,1,,,,,ワンショット,0
2407,9010601046705,登記記録の閉鎖等,0,2024-10-11,2024-10-07,株式会社アディスト,,株式会社,東京都,墨田区,石原４丁目１３番９号東洋ハイツ１階,,13,107,1300011,,,2024-10-07,清算の結了等,,,2015-10-05,1,,,,,アディスト,0
2409,9010603004438,登記記録の閉鎖等,0,2024-10-11,2024-10-02,株式会社アルカイックスマイル,,株式会社,東京都,台東区,雷門２丁目６番２号マーナマリー浅草雷門９Ｆ,,13,106,1110034,,,2024-10-02,清算の結了等,,,2015-10-05,1,,,,,アルカイックスマイル,0
2427,9011003010209,登記記録の閉鎖等,0,2024-10-11,2024-10-04,Ｈａｙａｂｕｓａ　Ｃａｐｉｔａｌ　Ｊａｐａｎ合同会社,,合同会社,東京都,品川区,上大崎１丁目５番３８－３０２号,,13,109,1410021,,,2024-10-04,清算の結了等,,,2019-08-01,1,,,,,ハヤブサキャピタルジャパン,0
2457,9020001050323,登記記録の閉鎖等,0,2024-10-11,2024-10-02,株式会社勘助,,株式会社,神奈川県,横浜市中区,常盤町１丁目２番地１関内電子ビル７階,,14,104,2310014,,,2024-10-02,合併による解散等,4020001026740,令和６年１０月１日神奈川県横浜市中区常盤町一丁目２番地１三盟エンジニアリング株式会社（4020001026740）に合併し解散,2015-10-05,1,,,,,カンスケ,0
2480,9040001105513,登記記録の閉鎖等,0,2024-10-11,2024-10-03,株式会社アークス,,株式会社,千葉県,鴨川市,粟斗２７５番地１,,12,223,2960031,,,2024-10-03,清算の結了等,,,2018-07-24,1,,,,,アークス,0
2494,9060002025139,登記記録の閉鎖等,0,2024-10-11,2024-10-07,有限会社植木光学,,有限会社,栃木県,大田原市,中田原８１０番地,,09,210,3240062,,,2024-10-07,清算の結了等,,,2015-10-05,1,,,,,ウエキコウガク,0
2498,9080002017217,登記記録の閉鎖等,0,2024-10-11,2024-10-04,有限会社秋山工業,,有限会社,静岡県,藤枝市,仮宿１０１６番地の１,,22,214,4260001,,,2024-10-04,清算の結了等,,,2015-10-05,1,,,,,,0
2509,9110001014590,登記記録の閉鎖等,0,2024-10-11,2024-10-03,橋本産業株式会社,,株式会社,新潟県,三条市,南新保６番４０号,,15,204,9550862,,,2024-10-03,清算の結了等,,,2015-10-05,1,,,,,ハシモトサンギョウ,0
2518,9120001252891,登記記録の閉鎖等,0,2024-10-11,2024-10-08,株式会社セピアジャパン,,株式会社,大阪府,大阪市中央区,久太郎町１丁目５番３１号リアライズ堺筋本町ビル３０４号,,27,128,5410056,,,2024-10-08,合併による解散等,5122001034472,令和６年１０月１日大阪市福島区玉川二丁目１２番２４号カルナ・メドサロン内株式会社アルブ（5122001034472）に合併し解散,2023-03-06,1,,,,,セピアジャパン,0
2535,9120901046550,登記記録の閉鎖等,0,2024-10-11,2024-10-09,株式会社エムアンドエム,,株式会社,岐阜県,岐阜市,則武東１丁目８番２９号,,21,201,5020929,,,2024-10-09,清算の結了等,,,2022-10-07,1,,,,,エムアンドエム,0
2538,9120905001502,登記記録の閉鎖等,0,2024-10-11,2024-10-07,医療法人聖十字,,その他の設立登記法人,大阪府,吹田市,山手町２丁目７番３号,,27,205,5640073,,,2024-10-07,清算の結了等,,,2015-10-05,1,,,,,セイジュウジ,0
2544,9130002004928,登記記録の閉鎖等,0,2024-10-11,2024-10-08,有限会社オールド・ローズ,,有限会社,京都府,京都市左京区,浄土寺上南田町３６番地,,26,103,6068405,,,2024-10-08,清算の結了等,,,2015-10-05,1,,,,,オールドローズ,0
2545,9130002009729,登記記録の閉鎖等,0,2024-10-11,2024-10-07,有限会社横部商店,,有限会社,京都府,京都市東山区,本町３丁目１０２番地,,26,105,6050981,,,2024-10-07,清算の結了等,,,2015-10-05,1,,,,,ヨコベショウテン,0
2554,9180001146312,登記記録の閉鎖等,0,2024-10-11,2024-09-02,株式会社ＩＮＦＩＮＩＴＹ　ＨＯＭＥ,,株式会社,愛知県,名古屋市中区,栄３丁目１８番１号ナディアパークビジネスセンタービル１４階,,23,106,4600008,,,2024-09-02,合併による解散等,5180001138255,令和６年９月１日名古屋市中区栄三丁目１８番１号ナディアパークビジネスセンタービル１４階日本住宅総合開発株式会社（5180001138255）に合併し解散,2021-06-03,1,,,,,インフィニティホーム,0
2556,9180003000120,登記記録の閉鎖等,0,2024-10-11,2024-09-27,株式会社守山ビル,,株式会社,愛知県,名古屋市守山区,守山１丁目１番１０号,,23,113,4630067,,,2024-09-27,清算の結了等,,,2015-10-05,1,,,,,モリヤマビル,0
2561,9200001038317,登記記録の閉鎖等,0,2024-10-11,2024-09-04,株式会社Ｂｅｋｏｎｉａ,,株式会社,長崎県,西彼杵郡長与町,高田郷１１９６番地３６,,42,307,8512127,,,2024-09-04,合併による解散等,6200001036018,令和６年９月２日岐阜市折立３１４番地１セイナビル２階Ａ　ＧＲＣ株式会社（6200001036018）に合併し解散,2021-02-16,1,,,,,ベコニア,0
2566,9230002007854,登記記録の閉鎖等,0,2024-10-11,2024-10-09,有限会社松野燃料,,有限会社,富山県,魚津市,上口２丁目１６番２７号,,16,204,9370865,,,2024-10-09,合併による解散等,4100001014423,令和６年１０月１日長野県東筑摩郡山形村字下本郷４０８２番地３サンリン株式会社（4100001014423）に合併し解散,2015-10-05,1,,,,,マツノネンリョウ,0
2577,9290001065823,登記記録の閉鎖等,0,2024-10-11,2024-09-04,株式会社大翔建設,,株式会社,福岡県,福津市,宮司浜２丁目８番４号ハイルーラルＩＩＩＡ－２０２号,00107084,40,224,8113311,,,2024-09-04,清算の結了等,,,2015-10-05,1,,,,,,0
2587,9290805009298,登記記録の閉鎖等,0,2024-10-11,2024-09-30,一般社団法人ソティル健康セラピー普及協会,,その他の設立登記法人,福岡県,北九州市小倉北区,大畠３丁目７番５５号,,40,106,8020026,,,2024-09-30,清算の結了等,,,2020-02-14,1,,,,,ソティルケンコウセラピーフキュウキョウカイ,0
2599,9350001007967,登記記録の閉鎖等,0,2024-10-11,2024-10-01,クリーンファーム株式会社,,株式会社,宮崎県,都城市,平江町３７号８番地,,45,202,8850021,,,2024-10-01,合併による解散等,9350001008032,令和６年１０月１日宮崎県都城市平江町３７号８番地ジャパンミート株式会社（9350001008032）に合併し解散,2015-10-05,1,,,,,クリーンファーム,0
2617,9410001003506,登記記録の閉鎖等,0,2024-10-11,2024-10-08,宝和建設株式会社,,株式会社,秋田県,潟上市,天王字蒲沼１２３番地１,,05,211,0100201,,,2024-10-08,清算の結了等,,,2015-10-05,1,,,,,ホウワケンセツ,0
2618,9410002008611,登記記録の閉鎖等,0,2024-10-11,2024-10-07,有限会社菅原餅店,,有限会社,秋田県,大館市,有浦１丁目９番２４号,,05,204,0170043,,,2024-10-07,清算の結了等,,,2015-10-05,1,,,,,スガワラモチテン,0
2621,9430001050315,登記記録の閉鎖等,0,2024-10-11,2024-10-07,株式会社早川宅建内装,,株式会社,北海道,小樽市,潮見台１丁目１番５号,,01,203,0470002,,,2024-10-07,清算の結了等,,,2015-10-05,1,,,,,ハヤカワタッケンナイソウ,0
