sequenceNumber,corporateNumber,process,correct,updateDate,changeDate,name,nameImageId,kind,prefectureName,cityName,streetNumber,addressImageId,prefectureCode,cityCode,postCode,addressOutside,addressOutsideImageId,closeDate,closeCause,successorCorporateNumber,changeCause,assignmentDate,latest,enName,enPrefectureName,enCityName,enAddressOutside,furigana,hihyoji
4,1010001189822,登記記録の閉鎖等,0,2025-10-27,2025-10-08,ＫＤＤＩデジタルセキュリティ株式会社,,株式会社,東京都,千代田区,九段南３丁目３番６号,,13,101,1020074,,,2025-10-08,合併による解散等,7010001134137,令和７年１０月１日東京都千代田区平河町二丁目１６番１号株式会社ラック（7010001134137）に合併し解散,2018-02-21,1,,,,,ケーディーディーアイデジタルセキュリティ,0
15,1010401064831,登記記録の閉鎖等,0,2025-10-27,2025-09-26,Ｍ．Ｋ．Ｖｉｓｉｏｎ株式会社,,株式会社,東京都,港区,南青山２丁目２番１５号ウィン青山１４０３号,,13,103,1070062,,,2025-09-26,清算の結了等,,,2015-10-05,1,,,,,エムケイビジョン,0
19,1010401177237,登記記録の閉鎖等,0,2025-10-27,2025-09-25,株式会社ＢＥ,,株式会社,東京都,港区,白金台２丁目２６番２２号,,13,103,1080071,,,2025-09-25,清算の結了等,,,2023-09-19,1,,,,,ビィ,0
40,1010701030830,登記記録の閉鎖等,0,2025-10-27,2025-10-22,東北サイエンス株式会社,,株式会社,東京都,品川区,東品川２丁目２番４号天王洲ファーストタワー５Ｆ,,13,109,1400002,,,2025-10-22,清算の結了等,,,2015-10-05,1,,,,,トウホクサイエンス,0
42,1010801006697,登記記録の閉鎖等,0,2025-10-27,2025-10-17,大同化学産業株式会社,,株式会社,東京都,大田区,仲池上１丁目３３番１８号,,13,111,1460081,,,2025-10-17,清算の結了等,,,2015-10-05,1,,,,,ダイドウカガクサンギョウ,0
44,1010801026654,登記記録の閉鎖等,0,2025-10-27,2025-10-16,株式会社ジャンボハイサイ,,株式会社,東京都,大田区,矢口１丁目１３番１５号,,13,111,1460093,,,2025-10-16,清算の結了等,,,2016-04-28,1,,,,,ジャンボハイサイ,0
58,1011101084046,登記記録の閉鎖等,0,2025-10-27,2025-09-26,株式会社ＣＨＫｉＴ,,株式会社,東京都,港区,虎ノ門４丁目１番１号,,13,103,1050001,,,2025-09-26,清算の結了等,,,2018-05-02,1,,,,,チェックイット,0
70,1011701012067,登記記録の閉鎖等,0,2025-10-27,2025-10-15,株式会社エム・アール・シー,,株式会社,東京都,江戸川区,中葛西２丁目２０番１号,,13,123,1340083,,,2025-10-15,清算の結了等,,,2015-10-05,1,,,,,エムアールシー,0
71,1011701024459,登記記録の閉鎖等,0,2025-10-27,2025-09-09,東京システムエンジニアリング株式会社,,株式会社,東京都,江戸川区,東葛西９丁目１０番１－６０１号,,13,123,1340084,,,2025-09-09,清算の結了等,,,2021-06-21,1,,,,,トウキョウシステムエンジニアリング,0
73,1011703003089,登記記録の閉鎖等,0,2025-10-27,2025-10-23,合同会社ＣＡＯ,,合同会社,佐賀県,鳥栖市,元町１２３７番地２ロワールマンション鳥栖７０９,,41,203,8410051,,,2025-10-23,清算の結了等,,,2022-03-23,1,,,,,シーエーオー,0
83,1020001060321,登記記録の閉鎖等,0,2025-10-27,2025-09-30,株式会社ＫＴ．ＳＴＹＬＥ,,株式会社,東京都,港区,六本木７丁目１４番７号トリニティビル７Ｆ,,13,103,1060032,,,2025-09-30,清算の結了等,,,2015-10-05,1,,,,,ケイティスタイル,0
94,1030001055238,登記記録の閉鎖等,0,2025-10-27,2025-10-16,株式会社藤和興産,,株式会社,埼玉県,川越市,大字藤間５３５番地１,,11,201,3501142,,,2025-10-16,清算の結了等,,,2015-10-05,1,,,,,トウワコウサン,0
96,1030001087165,登記記録の閉鎖等,0,2025-10-27,2025-10-16,渡邉株式会社,,株式会社,埼玉県,行田市,行田１番４号,,11,206,3610073,,,2025-10-16,清算の結了等,,,2015-10-05,1,,,,,ワタナベ,0
115,1080003001160,登記記録の閉鎖等,0,2025-10-27,2025-10-21,合資会社三浦鉄工所,,合資会社,静岡県,静岡市清水区,永楽町８番２０号,,22,103,4240043,,,2025-10-21,清算の結了等,,,2015-10-05,1,,,,,ミウラテッコウショ,0
122,1110001015877,登記記録の閉鎖等,0,2025-10-27,2025-10-22,神光電機産業株式会社,,株式会社,新潟県,燕市,水道町４丁目２４番１１号,,15,213,9591262,,,2025-10-22,清算の結了等,,,2015-10-05,1,,,,,シンコウデンキサンギョウ,0
125,1120001070351,登記記録の閉鎖等,0,2025-10-27,2025-10-21,株式会社ホテルグランヴィア大阪,,株式会社,大阪府,大阪市北区,梅田３丁目１番１号,,27,127,5300001,,,2025-10-21,合併による解散等,6130001017504,令和７年１０月１日京都市下京区烏丸通塩小路下る東塩小路町９０１番地株式会社ジェイアール西日本ホテル開発（6130001017504）に合併し解散,2015-10-05,1,,,,,ホテルグランヴィアオオサカ,0
133,1120002078996,登記記録の閉鎖等,0,2025-10-27,2025-10-16,ますだ自動車有限会社,,有限会社,大阪府,守口市,大庭町１丁目１４番１０号,,27,209,5700009,,,2025-10-16,清算の結了等,,,2015-10-05,1,,,,,マスダジドウシャ,0
149,1140001074268,登記記録の閉鎖等,0,2025-10-27,2025-10-20,株式会社ＦＡＴＥ,,株式会社,兵庫県,宝塚市,山本野里１丁目１番５１号,,28,214,6650814,,,2025-10-20,清算の結了等,,,2015-10-05,1,,,,,フェイト,0
155,1170001016192,登記記録の閉鎖等,0,2025-10-27,2025-10-23,株式会社Ａｌｖｅａｒｅ,,株式会社,和歌山県,和歌山市,新在家１７８番地１６,,30,201,6408345,,,2025-10-23,清算の結了等,,,2020-07-30,1,,,,,アルヴェアーレ,0
156,1180001102289,登記記録の閉鎖等,0,2025-10-27,2025-10-20,株式会社ＣＯＳＭＯＳ,,株式会社,愛知県,名古屋市千種区,仲田２丁目１５番１２号,,23,101,4640074,,,2025-10-20,合併による解散等,6030001066965,令和７年９月１日大阪府茨木市西駅前町１３番２５号株式会社ウィーズ（6030001066965）に合併し解散,2015-10-05,1,,,,,コスモス,0
164,1180302020074,登記記録の閉鎖等,0,2025-10-27,2025-10-24,有限会社杉友鉄工,,有限会社,愛知県,碧南市,平七町３丁目２７番地,,23,209,4470884,,,2025-10-24,清算の結了等,,,2015-10-05,1,,,,,,0
169,1200001000036,登記記録の閉鎖等,0,2025-10-27,2025-10-22,株式会社愛岐旅行,,株式会社,岐阜県,岐阜市,岩滝東３丁目３９３番地,,21,201,5013151,,,2025-10-22,清算の結了等,,,2015-10-05,1,,,,,アイギリョコウ,0
171,1200001039545,登記記録の閉鎖等,0,2025-10-27,2025-10-20,ＵＮＩＴＥ株式会社,,株式会社,岐阜県,岐阜市,新栄町九丁目２番地,,21,201,5008855,,,2025-10-20,清算の結了等,,,2021-12-20,1,,,,,ユナイト,0
177,1240002023049,登記記録の閉鎖等,0,2025-10-27,2025-10-17,有限会社ひろせん広告,,有限会社,広島県,広島市安佐南区,沼田町大字大塚１９５番地,,34,105,7313162,,,2025-10-17,清算の結了等,,,2015-10-05,1,,,,,ヒロセンコウコク,0
180,1260005009910,登記記録の閉鎖等,0,2025-10-27,2025-10-09,一般社団法人結,,その他の設立登記法人,岡山県,浅口郡里庄町,大字里見６０４２番地６,,33,445,7190301,,,2025-10-09,清算の結了等,,,2015-10-05,1,,,,,ユイ,0
181,1260005010570,登記記録の閉鎖等,0,2025-10-27,2025-10-23,特定非営利活動法人岡山福祉就労センター,,その他の設立登記法人,岡山県,岡山市東区,光津５７２番３号,,33,103,7048164,,,2025-10-23,清算の結了等,,,2019-03-14,1,,,,,オカヤマフクシシュウロウセンター,0
182,1270002006744,登記記録の閉鎖等,0,2025-10-27,2025-10-23,有限会社はなつばき,,有限会社,鳥取県,米子市,角盤町１丁目１０５番地,,31,202,6830812,,,2025-10-23,清算の結了等,,,2015-10-05,1,,,,,ハナツバキ,0
185,1290001043737,登記記録の閉鎖等,0,2025-10-27,2025-10-22,セイコーメディカルブレーン株式会社,,株式会社,福岡県,福岡市東区,香椎照葉３丁目４番５号,,40,131,8130017,,,2025-10-22,合併による解散等,9010401095530,令和７年１０月１日東京都中央区八重洲二丁目２番１号株式会社ストレチア（9010401095530）に合併し解散,2015-10-05,1,,,,,セイコーメディカルブレーン,0
197,1290005013876,登記記録の閉鎖等,0,2025-10-27,2025-09-29,特定非営利活動法人パイルアップ,,その他の設立登記法人,福岡県,福岡市東区,和白丘２丁目２４番４３,,40,131,8110213,,,2025-09-29,清算の結了等,,,2015-10-05,1,,,,,パイルアップ,0
199,1290801005465,登記記録の閉鎖等,0,2025-10-27,2025-10-16,株式会社タケヨシ,,株式会社,福岡県,北九州市門司区,大里本町２丁目７番５号,,40,101,8000063,,,2025-10-16,清算の結了等,,,2015-10-05,1,,,,,タケヨシ,0
212,1370001041030,登記記録の閉鎖等,0,2025-10-27,2025-10-10,株式会社リブインザモーメント,,株式会社,宮城県,仙台市青葉区,小田原６丁目８番３２号,,04,101,9800003,,,2025-10-10,清算の結了等,,,2017-03-01,1,,,,,,0
229,1440001004938,登記記録の閉鎖等,0,2025-10-27,2025-10-22,株式会社グランドルーフ,,株式会社,大阪府,大阪市淀川区,西中島５丁目１２番８号,,27,123,5320011,,,2025-10-22,合併による解散等,6010001010603,令和７年９月２日東京都港区白金台五丁目１８番９号株式会社ウェルディッシュ（6010001010603）に合併し解散,2015-10-05,1,,,,,グランドルーフ,0
243,2010001134380,登記記録の閉鎖等,0,2025-10-27,2025-10-09,株式会社ＧＩ,,株式会社,東京都,中央区,日本橋本町４丁目４番２号,,13,102,1030023,,,2025-10-09,合併による解散等,5010001095892,令和７年１０月１日東京都中央区日本橋本町四丁目４番２号株式会社エス・オー・ダブリュー（5010001095892）に合併し解散,2015-10-05,1,,,,,ジーアイ,0
273,2010701005419,登記記録の閉鎖等,0,2025-10-27,2025-10-17,第一商事株式会社,,株式会社,東京都,品川区,東中延２丁目９番１１号,,13,109,1420052,,,2025-10-17,清算の結了等,,,2015-10-05,1,,,,,ダイイチショウジ,0
326,2021002049311,登記記録の閉鎖等,0,2025-10-27,2025-10-20,有限会社ＧＥＮＫＩ堂,,有限会社,神奈川県,大和市,渋谷５丁目２５番地３,,14,213,2420023,,,2025-10-20,合併による解散等,6030001066965,令和７年９月１日大阪府茨木市西駅前町１３番２５号株式会社ウィーズ（6030001066965）に合併し解散,2015-10-05,1,,,,,ゲンキドウ,0
337,2040001005728,登記記録の閉鎖等,0,2025-10-27,2025-10-01,西村商事株式会社,,株式会社,千葉県,千葉市緑区,おゆみ野南２丁目１６番地１１,,12,105,2660033,,,2025-10-01,清算の結了等,,,2015-10-05,1,,,,,ニシムラショウジ,0
338,2040001035270,登記記録の閉鎖等,0,2025-10-27,2025-09-29,株式会社熊谷製作所,,株式会社,千葉県,松戸市,中根長津町１６８番地,,12,207,2710054,,,2025-09-29,清算の結了等,,,2015-10-05,1,,,,,クマガイセイサクショ,0
347,2050002003135,登記記録の閉鎖等,0,2025-10-27,2025-10-16,有限会社むべ,,有限会社,茨城県,水戸市,五軒町３丁目３番３４号,,08,201,3100063,,,2025-10-16,清算の結了等,,,2015-10-05,1,,,,,ムベ,0
348,2050002018488,登記記録の閉鎖等,0,2025-10-27,2025-10-15,有限会社シノザキデンキ,,有限会社,茨城県,猿島郡境町,大字長井戸１６６番地の１９,,08,546,3060404,,,2025-10-15,清算の結了等,,,2015-10-05,1,,,,,シノザキデンキ,0
351,2060002009206,登記記録の閉鎖等,0,2025-10-27,2025-10-24,有限会社山二印刷所,,有限会社,栃木県,宇都宮市,瑞穂３丁目４番１５号,,09,201,3210921,,,2025-10-24,清算の結了等,,,2015-10-05,1,,,,,ヤマニインサツジョ,0
352,2060003000865,登記記録の閉鎖等,0,2025-10-27,2025-10-23,合同会社原善,,合同会社,栃木県,小山市,東間々田１丁目１３番２６号,,09,208,3290206,,,2025-10-23,清算の結了等,,,2015-10-05,1,,,,,ハラゼン,0
385,2120101060152,登記記録の閉鎖等,0,2025-10-27,2025-10-22,有田住設株式会社,,株式会社,大阪府,貝塚市,名越４３７番地１,,27,208,5970042,,,2025-10-22,清算の結了等,,,2019-07-04,1,,,,,アリタジュウセツ,0
389,2120901028951,登記記録の閉鎖等,0,2025-10-27,2025-10-08,株式会社新日本エコルス,,株式会社,大阪府,池田市,天神１丁目１０番２５号,,27,204,5630031,,,2025-10-08,清算の結了等,,,2015-10-05,1,,,,,,0
402,2140001054120,登記記録の閉鎖等,0,2025-10-27,2025-10-20,株式会社ＰＲＯＧＲＥＳＳ,,株式会社,兵庫県,尼崎市,道意町６丁目２番地の２６ファミール武庫川東７０８号,,28,202,6600083,,,2025-10-20,清算の結了等,,,2015-10-05,1,,,,,プログレス,0
414,2170001013288,登記記録の閉鎖等,0,2025-10-27,2025-10-23,株式会社アイ企画,,株式会社,和歌山県,和歌山市,新在家１４５番地３,,30,201,6408345,,,2025-10-23,清算の結了等,,,2015-10-05,1,,,,,アイキカク,0
422,2180002075327,登記記録の閉鎖等,0,2025-10-27,2025-10-15,有限会社アドバンテック,,有限会社,愛知県,犬山市,字裏之門２１３番地２,,23,215,4840854,,,2025-10-15,清算の結了等,,,2015-10-05,1,,,,,アドバンテック,0
439,2240001022414,登記記録の閉鎖等,0,2025-10-27,2025-10-17,株式会社エム・アール・シー,,株式会社,広島県,東広島市,志和町冠１０８６７番地９４,,34,212,7390265,,,2025-10-17,合併による解散等,3290001016666,令和７年１０月１日福岡市博多区祇園町２番１号株式会社ホリデン生コン（3290001016666）に合併し解散,2015-10-05,1,,,,,エムアールシー,0
440,2240001027859,登記記録の閉鎖等,0,2025-10-27,2025-10-20,株式会社小田原ハウジング,,株式会社,広島県,呉市,広古新開９丁目２５番３４号,,34,202,7370112,,,2025-10-20,清算の結了等,,,2015-10-05,1,,,,,オダワラハウジング,0
443,2260001004055,登記記録の閉鎖等,0,2025-10-27,2025-10-20,株式会社ダーリン,,株式会社,岡山県,岡山市中区,浜３７２番地の１,,33,102,7038256,,,2025-10-20,清算の結了等,,,2015-10-05,1,,,,,ダーリン,0
445,2260001025027,登記記録の閉鎖等,0,2025-10-27,2025-10-21,株式会社Ｍｙ　Ｗｉｓｈ,,株式会社,岡山県,倉敷市,玉島１６１８番地６,,33,202,7138102,,,2025-10-21,清算の結了等,,,2015-10-05,1,,,,,マイウィッシュ,0
451,2290001103416,登記記録の閉鎖等,0,2025-10-27,2025-09-18,株式会社ことのはラボ,,株式会社,福岡県,朝倉市,来春２０９番地２ＡＸＩＳ・ＫＩＩＡ,00132295,40,228,8380069,,,2025-09-18,清算の結了等,,,2023-10-18,1,,,,,コトノハラボ,0
460,2320002019962,登記記録の閉鎖等,0,2025-10-27,2025-10-20,有限会社松木工務店,,有限会社,大分県,玖珠郡九重町,大字松木７３０番地,,44,461,8794632,,,2025-10-20,清算の結了等,,,2015-10-05,1,,,,,マツキコウムテン,0
461,2330002017825,登記記録の閉鎖等,0,2025-10-27,2025-10-15,有限会社ストックマンサービス,,有限会社,熊本県,菊池市,旭志伊坂４７９番地２,,43,210,8691206,,,2025-10-15,清算の結了等,,,2015-10-05,1,,,,,ストックマンサービス,0
465,2350001012866,登記記録の閉鎖等,0,2025-10-27,2025-10-20,ガイアテック株式会社,,株式会社,宮崎県,東諸県郡国富町,大字竹田１５３６番地４,,45,382,8801107,,,2025-10-20,清算の結了等,,,2015-10-05,1,,,,,ガイアテック,0
474,2370005009295,登記記録の閉鎖等,0,2025-10-27,2025-10-10,一般社団法人心のふるさと創生会議,,その他の設立登記法人,宮城県,仙台市宮城野区,榴ケ岡５番地,,04,102,9830851,,,2025-10-10,清算の結了等,,,2017-08-14,1,,,,,ココロノフルサトソウセイカイギ,0
493,2480002011045,登記記録の閉鎖等,0,2025-10-27,2025-10-27,有限会社一森土建,,有限会社,徳島県,板野郡松茂町,広島字東裏４８番地２,,36,401,7710220,,,2025-10-27,清算の結了等,,,2015-10-05,1,,,,,イチモリドケン,0
494,2490002009402,登記記録の閉鎖等,0,2025-10-27,2025-10-23,有限会社今橋組,,有限会社,高知県,吾川郡いの町,波川１４６４番地１,,39,386,7812128,,,2025-10-23,清算の結了等,,,2015-10-05,1,,,,,,0
498,3010001114274,登記記録の閉鎖等,0,2025-10-27,2025-10-21,株式会社エフアイティーシステム,,株式会社,東京都,新宿区,新宿１丁目２６番９号,,13,104,1600022,,,2025-10-21,合併による解散等,2430001025884,令和７年１０月１日札幌市中央区大通西二十丁目２番１８号株式会社エイチ・エル・シー（2430001025884）に合併し解散,2015-10-05,1,,,,,エフアイティーシステム,0
526,3010401145340,登記記録の閉鎖等,0,2025-10-27,2025-10-10,株式会社ＳＥＺＥＥＮ　ＪＡＰＡＮ,,株式会社,東京都,渋谷区,恵比寿２丁目３１－５,,13,113,1500013,,,2025-10-10,合併による解散等,8011301020397,令和７年１０月１日東京都渋谷区恵比寿２－３１－５株式会社ＧＲＡＮＤ　ＬＩＮＥ（8011301020397）に合併し解散,2019-05-13,1,,,,,シーズンジャパン,0
535,3010402001385,登記記録の閉鎖等,0,2025-10-27,2025-09-26,有限会社インデックスエレメンツ,,有限会社,東京都,港区,南麻布４丁目１３番９号,,13,103,1060047,,,2025-09-26,清算の結了等,,,2015-10-05,1,,,,,インデックスエレメンツ,0
537,3010403034005,登記記録の閉鎖等,0,2025-10-27,2025-09-25,トライウインド合同会社,,合同会社,東京都,港区,虎ノ門３丁目２２番１０－２０１号,,13,103,1050001,,,2025-09-25,清算の結了等,,,2024-12-13,1,,,,,トライウインド,0
540,3010501013257,登記記録の閉鎖等,0,2025-10-27,2025-10-10,株式会社ダイシン,,株式会社,東京都,中央区,日本橋小伝馬町７番１４－１００２号,,13,102,1030001,,,2025-10-10,清算の結了等,,,2015-10-05,1,,,,,ダイシン,0
541,3010501028338,登記記録の閉鎖等,0,2025-10-27,2025-10-17,株式会社リフェイス,,株式会社,埼玉県,川口市,飯塚４丁目１２番３５号,,11,203,3320023,,,2025-10-17,清算の結了等,,,2015-10-05,1,,,,,リフェイス,0
554,3011001144996,登記記録の閉鎖等,0,2025-10-27,2025-09-25,株式会社ｖｏｌｖｏｘ,,株式会社,東京都,港区,麻布台１丁目８番１０号６階,,13,103,1060041,,,2025-09-25,清算の結了等,,,2022-01-13,1,,,,,ヴォルヴォックス,0
570,3011801039479,登記記録の閉鎖等,0,2025-10-27,2025-10-16,Ａ１５１株式会社,,株式会社,東京都,葛飾区,鎌倉４丁目１７番１－９０３号,,13,122,1250053,,,2025-10-16,清算の結了等,,,2021-07-20,1,,,,,エーイチゴイチ,0
622,3050003003892,登記記録の閉鎖等,0,2025-10-27,2025-10-17,合同会社ＳＡＲＡ　ＩＭＰＥＸ,,合同会社,茨城県,古河市,山田６６６番地６,,08,204,3060114,,,2025-10-17,清算の結了等,,,2017-09-04,1,,,,,サラインペックス,0
656,3120002054351,登記記録の閉鎖等,0,2025-10-27,2025-10-20,有限会社イリエ建設,,有限会社,大阪府,大阪市北区,天神橋１丁目１７番１６号,,27,127,5300041,,,2025-10-20,清算の結了等,,,2015-10-05,1,,,,,イリエケンセツ,0
660,3120101046910,登記記録の閉鎖等,0,2025-10-27,2025-10-20,株式会社三愛薬局,,株式会社,大阪府,岸和田市,池尻町９５番１８,,27,202,5960813,,,2025-10-20,合併による解散等,6030001066965,令和７年９月１日大阪府茨木市西駅前町１３番２５号株式会社ウィーズ（6030001066965）に合併し解散,2015-10-05,1,,,,,サンアイヤッキョク,0
662,3120101058922,登記記録の閉鎖等,0,2025-10-27,2025-10-15,株式会社シンガ,,株式会社,大阪府,富田林市,若松町１丁目１０番７号プレナス富田林５０３,,27,214,5840024,,,2025-10-15,清算の結了等,,,2018-10-24,1,,,,,シンガ,0
668,3130001040665,登記記録の閉鎖等,0,2025-10-27,2025-10-23,株式会社丸中レンタリース,,株式会社,京都府,京丹後市,峰山町新町１９２０番地の１,,26,212,6270005,,,2025-10-23,清算の結了等,,,2015-10-05,1,,,,,マルナカレンタリース,0
673,3140001040565,登記記録の閉鎖等,0,2025-10-27,2025-10-20,山口精機株式会社,,株式会社,兵庫県,たつの市,龍野町片山１８６番地１,,28,229,6794123,,,2025-10-20,清算の結了等,,,2015-10-05,1,,,,,ヤマグチセイキ,0
682,3180001026098,登記記録の閉鎖等,0,2025-10-27,2025-10-14,株式会社イシカワ,,株式会社,愛知県,名古屋市西区,八筋町２４６番地の１,,23,104,4520815,,,2025-10-14,清算の結了等,,,2015-10-05,1,,,,,イシカワ,0
692,3180005008704,登記記録の閉鎖等,0,2025-10-27,2025-10-23,医療法人神領マタニティ,,その他の設立登記法人,愛知県,春日井市,堀ノ内町３丁目７番地９,,23,206,4860829,,,2025-10-23,清算の結了等,,,2015-10-05,1,,,,,ジンリョウマタニティ,0
700,3200002013943,登記記録の閉鎖等,0,2025-10-27,2025-10-23,有限会社杉山ハウジング,,有限会社,岐阜県,養老郡養老町,宇田２８２番地,,21,341,5031335,,,2025-10-23,清算の結了等,,,2015-10-05,1,,,,,スギヤマハウジング,0
701,3200002027869,登記記録の閉鎖等,0,2025-10-27,2025-10-22,有限会社高垣工務店,00077167,有限会社,岐阜県,郡上市,八幡町初納平下タ２６７番地１,,21,219,5014203,,,2025-10-22,清算の結了等,,,2015-10-05,1,,,,,タカガキコウムテン,0
709,3240002011943,登記記録の閉鎖等,0,2025-10-27,2025-10-21,有限会社中山工業所,,有限会社,広島県,広島市東区,戸坂新町２丁目１５番１２号,,34,102,7320012,,,2025-10-21,清算の結了等,,,2015-10-05,1,,,,,ナカヤマコウギョウショ,0
711,3260002002866,登記記録の閉鎖等,0,2025-10-27,2025-10-21,有限会社キング洋服店,,有限会社,岡山県,岡山市北区,表町１丁目４番５６号,,33,101,7000822,,,2025-10-21,清算の結了等,,,2015-10-05,1,,,,,キングヨウフクテン,0
725,3320001020722,登記記録の閉鎖等,0,2025-10-27,2025-10-20,地域ＳＯＺＯ株式会社,,株式会社,大分県,別府市,田の湯町３番７号アライアンスタワーＺ４階,,44,202,8740909,,,2025-10-20,清算の結了等,,,2024-09-24,1,,,,,チイキソウゾウ,0
728,3330002026692,登記記録の閉鎖等,0,2025-10-27,2025-10-03,有限会社不知火書房,,有限会社,熊本県,八代市,鏡町鏡１３０番地の４,,43,202,8694203,,,2025-10-03,清算の結了等,,,2015-10-05,1,,,,,シラヌイショボウ,0
736,3360002020412,登記記録の閉鎖等,0,2025-10-27,2025-10-22,有限会社グリーン建設,,有限会社,沖縄県,島尻郡伊是名村,字仲田１１０２番地,,47,360,9050603,,,2025-10-22,清算の結了等,,,2015-10-05,1,,,,,グリーンケンセツ,0
740,3380001003837,登記記録の閉鎖等,0,2025-10-27,2025-10-16,株式会社グリーンファントム,,株式会社,福島県,伊達市,荒町４５番地２５,,07,213,9600423,,,2025-10-16,清算の結了等,,,2015-10-05,1,,,,,グリーンファントム,0
742,3410001001135,登記記録の閉鎖等,0,2025-10-27,2025-10-23,株式会社こぶしサービス,,株式会社,秋田県,秋田市,中通６丁目１番４７号,,05,201,0100001,,,2025-10-23,清算の結了等,,,2015-10-05,1,,,,,コブシサービス,0
750,3440002003152,登記記録の閉鎖等,0,2025-10-27,2025-10-23,有限会社中塚鉄工所,,有限会社,北海道,函館市,港町１丁目３１番１０号,,01,202,0410821,,,2025-10-23,清算の結了等,,,2015-10-05,1,,,,,ナカツカテッコウショ,0
761,4010001129635,登記記録の閉鎖等,0,2025-10-27,2025-09-29,株式会社セルボー,,株式会社,東京都,新宿区,河田町１０番１８号ハーヴェスト河田町３０９,,13,104,1620054,,,2025-09-29,清算の結了等,,,2015-10-05,1,,,,,セルボー,0
771,4010003046663,登記記録の閉鎖等,0,2025-10-27,2025-10-10,合同会社ブルーレジ２,,合同会社,東京都,千代田区,丸の内１丁目４番１号東京共同会計事務所内,,13,101,1000005,,,2025-10-10,清算の結了等,,,2025-03-07,1,,,,,ブルーレジツー,0
811,4010701044687,登記記録の閉鎖等,0,2025-10-27,2025-10-17,株式会社ＧＫＳＫ,,株式会社,東京都,品川区,東五反田２丁目９番１－２４０３号,,13,109,1410022,,,2025-10-17,清算の結了等,,,2023-08-10,1,,,,,ジーケーエスケー,0
829,4011002036639,登記記録の閉鎖等,0,2025-10-27,2025-09-25,有限会社ＣＵＢＥ,,有限会社,東京都,港区,赤坂８丁目５番８号,,13,103,1070052,,,2025-09-25,清算の結了等,,,2015-10-05,1,,,,,シーユービーイー,0
841,4011602006933,登記記録の閉鎖等,0,2025-10-27,2025-10-20,有限会社日本管業,,有限会社,東京都,練馬区,関町東１丁目６番８号,,13,120,1770052,,,2025-10-20,清算の結了等,,,2015-10-05,1,,,,,ニホンカンギョウ,0
864,4020003019354,登記記録の閉鎖等,0,2025-10-27,2025-09-29,合同会社ＷＡＫＩＺＡＣ,,合同会社,東京都,港区,南青山６丁目２番１０号Ｔ・ＩビルＢ１,,13,103,1070062,,,2025-09-29,清算の結了等,,,2021-03-04,1,,,,,ワキザシ,0
867,4021003000931,登記記録の閉鎖等,0,2025-10-27,2025-10-06,合資会社権五郎,,合資会社,神奈川県,鎌倉市,二階堂３番地,,14,204,2480002,,,2025-10-06,清算の結了等,,,2015-10-05,1,,,,,ゴンゴロウ,0
870,4030001097871,登記記録の閉鎖等,0,2025-10-27,2025-10-09,株式会社美創,,株式会社,埼玉県,秩父市,小柱４０１番地,,11,207,3680061,,,2025-10-09,清算の結了等,,,2015-10-05,1,,,,,ビソウ,0
878,4040001060382,登記記録の閉鎖等,0,2025-10-27,2025-09-26,株式会社Ａｌｗａｙｓ,,株式会社,千葉県,長生郡長生村,本郷７３４２番地１,,12,423,2994345,,,2025-09-26,清算の結了等,,,2015-10-05,1,,,,,オールウェイズ,0
893,4080101001101,登記記録の閉鎖等,0,2025-10-27,2025-10-21,株式会社チモト商店,,株式会社,静岡県,沼津市,桃里１００番地の１株式会社チモトコーヒー中央工場内,,22,203,4100315,,,2025-10-21,合併による解散等,3010801007272,令和７年１０月１日東京都大田区池上四丁目３番１７号株式会社チモトコーヒー（3010801007272）に合併し解散,2015-10-05,1,,,,,チモトショウテン,0
895,4080102017055,登記記録の閉鎖等,0,2025-10-27,2025-10-21,有限会社中西紙工,,有限会社,静岡県,富士宮市,精進川１４９４番地の２,,22,207,4180115,,,2025-10-21,清算の結了等,,,2015-10-05,1,,,,,ナカニシシコウ,0
900,4110002008803,登記記録の閉鎖等,0,2025-10-27,2025-10-17,有限会社風花,,有限会社,新潟県,新潟市東区,太平３丁目３０番地１,,15,102,9500005,,,2025-10-17,清算の結了等,,,2015-10-05,1,,,,,フウカ,0
904,4120001058063,登記記録の閉鎖等,0,2025-10-27,2025-10-16,扶桑ハウジング株式会社,,株式会社,大阪府,大阪市淀川区,西三国１丁目２番３５号,,27,123,5320006,,,2025-10-16,清算の結了等,,,2015-10-05,1,,,,,フソウハウジング,0
919,4120003024402,登記記録の閉鎖等,0,2025-10-27,2025-10-22,合同会社景,,合同会社,大阪府,大阪市北区,梅田１丁目２番２号大阪駅前第２ビル１２－１２,,27,127,5300001,,,2025-10-22,清算の結了等,,,2023-07-03,1,,,,,ケイ,0
933,4130002016829,登記記録の閉鎖等,0,2025-10-27,2025-10-22,有限会社近喜商店,,有限会社,京都府,京都市中京区,錦小路通富小路東入東魚屋町１９１番地の１,,26,104,6048055,,,2025-10-22,清算の結了等,,,2015-10-05,1,,,,,キンキショウテン,0
952,4180002056135,登記記録の閉鎖等,0,2025-10-27,2025-10-16,株式会社ＡＣＲＥＣＯ,,株式会社,愛知県,名古屋市南区,加福町１丁目１番地,,23,112,4570837,,,2025-10-16,清算の結了等,,,2015-10-05,1,,,,,アクレコ,0
953,4180005018891,登記記録の閉鎖等,0,2025-10-27,2025-10-24,一般社団法人幸せ応援住宅支援機構,,その他の設立登記法人,愛知県,小牧市,新町１丁目３７６番地,,23,219,4850013,,,2025-10-24,清算の結了等,,,2020-07-31,1,,,,,シアワセオウエンジュウタクシエンキコウ,0
960,4180303004321,登記記録の閉鎖等,0,2025-10-27,2025-10-09,合同会社ＡＦＦ　ＯＮＬＩＮＥ,,合同会社,愛知県,名古屋市千種区,仲田２丁目１７番７号池下タワーズ９０１号室,,23,101,4640074,,,2025-10-09,清算の結了等,,,2019-05-24,1,,,,,アフオンライン,0
961,4190001013020,登記記録の閉鎖等,0,2025-10-27,2025-10-21,株式会社高柳富士,,株式会社,三重県,いなべ市,大安町高柳４００番地の１,,24,214,5110272,,,2025-10-21,合併による解散等,9020001071492,令和７年１０月１日川崎市川崎区田辺新田１番１号富士電機株式会社（9020001071492）に合併し解散,2015-10-05,1,,,,,タカヤナギフジ,0
974,4260003002014,登記記録の閉鎖等,0,2025-10-27,2025-10-21,合同会社ＴＯＢＩ,,合同会社,岡山県,岡山市南区,西高崎５番地４,,33,104,7091204,,,2025-10-21,清算の結了等,,,2016-05-30,1,,,,,,0
976,4290001016178,登記記録の閉鎖等,0,2025-10-27,2025-09-29,福岡バイオ産業株式会社,,株式会社,福岡県,福岡市早良区,祖原１４番２２号,,40,137,8140005,,,2025-09-29,清算の結了等,,,2015-10-05,1,,,,,フクオカバイオサンギョウ,0
978,4290803002375,登記記録の閉鎖等,0,2025-10-27,2025-10-16,合同会社ドリームネットシステムズ,,合同会社,福岡県,北九州市小倉北区,田町５番２０号クレベール田町２０５号室,,40,106,8030817,,,2025-10-16,清算の結了等,,,2015-10-05,1,,,,,,0
983,4320002008708,登記記録の閉鎖等,0,2025-10-27,2025-10-20,有限会社メイフローラ,,有限会社,大分県,大分市,大字小池原１１７０番地の２,,44,201,8700147,,,2025-10-20,合併による解散等,6030001066965,令和７年９月１日大阪府茨木市西駅前町１３番２５号株式会社ウィーズ（6030001066965）に合併し解散,2015-10-05,1,,,,,メイフローラ,0
1012,4440002006187,登記記録の閉鎖等,0,2025-10-27,2025-10-23,有限会社のむら薬局,,有限会社,北海道,函館市,湯川町１丁目２５番４号,,01,202,0420932,,,2025-10-23,清算の結了等,,,2015-10-05,1,,,,,ノムラヤッキョク,0
1028,5010001239342,登記記録の閉鎖等,0,2025-10-27,2025-10-10,Ｙｏｕｒ　ｔｕｒｎ　Ｅｎｅｒｇｙ株式会社,,株式会社,東京都,中央区,銀座４丁目９番８号,,13,102,1040061,,,2025-10-10,清算の結了等,,,2023-10-20,1,,,,,ユアターンエネルギー,0
1042,5010401173356,登記記録の閉鎖等,0,2025-10-27,2025-09-09,ＮＫＬａｂ株式会社,,株式会社,東京都,港区,芝２丁目２７番１１－１００４号,,13,103,1050014,,,2025-09-09,清算の結了等,,,2023-03-29,1,,,,,エヌケーラボ,0
1052,5010402006812,登記記録の閉鎖等,0,2025-10-27,2025-09-30,有限会社春耒,,有限会社,東京都,港区,三田５丁目１４番１１号,,13,103,1080073,,,2025-09-30,清算の結了等,,,2015-10-05,1,,,,,シュンライ,0
1053,5010403009806,登記記録の閉鎖等,0,2025-10-27,2025-09-30,Ｎａｍｉ　ＩＢＬＰ合同会社,,合同会社,東京都,港区,西新橋１丁目１番１号ＥＰコンサルティングサービス内,,13,103,1050003,,,2025-09-30,清算の結了等,,,2015-10-05,1,,,,,ナミアイビーエルピー,0
1098,5012402003640,登記記録の閉鎖等,0,2025-10-27,2025-10-14,有限会社新海写真店,00059466,有限会社,東京都,国分寺市,本多１丁目６番６号,,13,214,1850011,,,2025-10-14,清算の結了等,,,2015-10-05,1,,,,,シンカイシャシンテン,0
1099,5012402008672,登記記録の閉鎖等,0,2025-10-27,2025-10-14,有限会社スライム,,有限会社,東京都,国分寺市,本町３丁目８番１７号,,13,214,1850012,,,2025-10-14,清算の結了等,,,2015-10-05,1,,,,,スライム,0
1105,5020002049293,登記記録の閉鎖等,0,2025-10-27,2025-10-08,有限会社奇珍楼,,有限会社,神奈川県,横浜市中区,麦田町２丁目４４番地,,14,104,2310849,,,2025-10-08,清算の結了等,,,2015-10-05,1,,,,,キチンロウ,0
1123,5040005014185,登記記録の閉鎖等,0,2025-10-27,2025-09-24,特定非営利活動法人三愛あけぼの,,その他の設立登記法人,千葉県,柏市,布施１３２８番地,,12,217,2770825,,,2025-09-24,清算の結了等,,,2015-10-05,1,,,,,サンアイアケボノ,0
1129,5080002003451,登記記録の閉鎖等,0,2025-10-27,2025-10-21,有限会社綜合電器のイシイ,,有限会社,静岡県,静岡市葵区,瀬名中央４丁目３番８号,,22,101,4200916,,,2025-10-21,清算の結了等,,,2015-10-05,1,,,,,ソウゴウデンキノイシイ,0
1134,5080401024445,登記記録の閉鎖等,0,2025-10-27,2025-10-16,株式会社太田米穀店,,株式会社,静岡県,磐田市,匂坂上６８９番地２,,22,211,4380005,,,2025-10-16,清算の結了等,,,2020-07-28,1,,,,,オオタベイコクテン,0
1137,5100002014140,登記記録の閉鎖等,0,2025-10-27,2025-10-23,有限会社信陽電機,,有限会社,長野県,上田市,下之郷５４番地,,20,203,3861211,,,2025-10-23,清算の結了等,,,2015-10-05,1,,,,,シンヨウデンキ,0
1139,5110001014909,登記記録の閉鎖等,0,2025-10-27,2025-10-20,株式会社加島屋,,株式会社,新潟県,三条市,大面４８８番地,,15,204,9591113,,,2025-10-20,清算の結了等,,,2015-10-05,1,,,,,カシマヤ,0
1140,5120001007705,登記記録の閉鎖等,0,2025-10-27,2025-10-21,株式会社ジャーメン，イマニシ商会,,株式会社,大阪府,大阪市都島区,友渕町１丁目７番１－７０７号,,27,102,5340016,,,2025-10-21,清算の結了等,,,2015-10-05,1,,,,,ジャーメンイマニシショウカイ,0
1155,5120101040250,登記記録の閉鎖等,0,2025-10-27,2025-10-20,めだかフーズ株式会社,,株式会社,大阪府,泉佐野市,住吉町２番５,,27,213,5980061,,,2025-10-20,清算の結了等,,,2015-10-05,1,,,,,メダカフーズ,0
1159,5120102017891,登記記録の閉鎖等,0,2025-10-27,2025-10-15,有限会社エー・アイ・カンパニー,,有限会社,大阪府,羽曳野市,栄町４番１号,,27,222,5830853,,,2025-10-15,清算の結了等,,,2015-10-05,1,,,,,エーアイカンパニー,0
1165,5120901048567,登記記録の閉鎖等,0,2025-10-27,2025-10-07,株式会社Ｔｈｅ　Ｔａｃｔ　Ｃｒｅｗ,,株式会社,大阪府,茨木市,宮元町７番２２号仲辻ビル５Ｄ号室,,27,211,5670810,,,2025-10-07,清算の結了等,,,2023-12-28,1,,,,,ザタクトクルー,0
1166,5130001003026,登記記録の閉鎖等,0,2025-10-27,2025-10-23,株式会社佐野商店,,株式会社,京都府,京都市北区,紫竹上高才町１番地の３,,26,101,6038117,,,2025-10-23,清算の結了等,,,2015-10-05,1,,,,,サノショウテン,0
1170,5130002034648,登記記録の閉鎖等,0,2025-10-27,2025-10-23,有限会社丸誠,,有限会社,京都府,舞鶴市,字万願寺９７番地ノ５,,26,202,6240814,,,2025-10-23,清算の結了等,,,2015-10-05,1,,,,,マルセイ,0
1172,5140001033344,登記記録の閉鎖等,0,2025-10-27,2025-10-21,オースディ株式会社,,株式会社,兵庫県,尼崎市,東園田町２丁目４３－１,,28,202,6610953,,,2025-10-21,清算の結了等,,,2015-10-05,1,,,,,オースディ,0
1180,5140002067589,登記記録の閉鎖等,0,2025-10-27,2025-10-08,理光有限会社,,有限会社,大阪府,豊中市,清風荘２丁目７番１４号１０２号,,27,203,5600041,,,2025-10-08,清算の結了等,,,2015-10-05,1,,,,,リコウ,0
1183,5180001050526,登記記録の閉鎖等,0,2025-10-27,2025-10-15,株式会社ヒューマンサポート,,株式会社,愛知県,長久手市,山越７１２番地,,23,238,4801111,,,2025-10-15,清算の結了等,,,2015-10-05,1,,,,,ヒューマンサポート,0
1188,5180001136110,登記記録の閉鎖等,0,2025-10-27,2025-10-15,株式会社フジオ,,株式会社,愛知県,名古屋市中区,金山１丁目９番５号フォンティーヌ金山七弐九６Ｂ,,23,106,4600022,,,2025-10-15,清算の結了等,,,2019-04-09,1,,,,,フジオ,0
1192,5180002006824,登記記録の閉鎖等,0,2025-10-27,2025-10-14,有限会社南陽シャーリング,,有限会社,愛知県,名古屋市港区,寺前町１０番地,,23,111,4550875,,,2025-10-14,清算の結了等,,,2015-10-05,1,,,,,ナンヨウシャーリング,0
1195,5180002038628,登記記録の閉鎖等,0,2025-10-27,2025-10-20,有限会社マルシェ,,有限会社,愛知県,名古屋市千種区,仲田２丁目１５番１２号,,23,101,4640074,,,2025-10-20,合併による解散等,6030001066965,令和７年９月１日大阪府茨木市西駅前町１３番２５号株式会社ウィーズ（6030001066965）に合併し解散,2015-10-05,1,,,,,マルシェ,0
1201,5200001002268,登記記録の閉鎖等,0,2025-10-27,2025-10-21,三朋株式会社,,株式会社,岐阜県,岐阜市,元町５丁目１０番地,,21,201,5008185,,,2025-10-21,清算の結了等,,,2025-09-05,1,,,,,サンオウ,0
1205,5240001044141,登記記録の閉鎖等,0,2025-10-27,2025-10-22,株式会社ＭＯＲＩＳＡＷＡ　ＰＡＩＮＴ,,株式会社,広島県,広島市西区,己斐上４丁目８番５号,,34,104,7330815,,,2025-10-22,清算の結了等,,,2015-10-05,1,,,,,,0
1213,5260003002665,登記記録の閉鎖等,0,2025-10-27,2025-10-20,合同会社Ｊ　Ｔｒｕｓｔ　Ｃｏｍｐａｎｙ,,合同会社,岡山県,岡山市北区,兵団５番１４号,,33,101,7000805,,,2025-10-20,清算の結了等,,,2018-10-03,1,,,,,ジェイトラストカンパニー,0
1228,5340002001577,登記記録の閉鎖等,0,2025-10-27,2025-10-17,有限会社上ノ町商会,,有限会社,鹿児島県,鹿児島市,草牟田２丁目８番２０号,,46,201,8900014,,,2025-10-17,清算の結了等,,,2015-10-05,1,,,,,ウエノマチショウカイ,0
1229,5340002015593,登記記録の閉鎖等,0,2025-10-27,2025-10-10,有限会社江口サービス,,有限会社,鹿児島県,姶良市,東餅田１０２２番地１,00099300,46,225,8995421,,,2025-10-10,清算の結了等,,,2015-10-05,1,,,,,エグチサービス,0
1233,5360001000173,登記記録の閉鎖等,0,2025-10-27,2025-10-23,株式会社上間建設,,株式会社,沖縄県,那覇市,繁多川４丁目４番８号,,47,201,9020071,,,2025-10-23,清算の結了等,,,2015-10-05,1,,,,,ウエマケンセツ,0
1237,5360002012580,登記記録の閉鎖等,0,2025-10-27,2025-10-22,有限会社ゆがふ,,有限会社,沖縄県,沖縄市,美里仲原町１５番１２号,,47,211,9042156,,,2025-10-22,清算の結了等,,,2015-10-05,1,,,,,ユガフ,0
1249,5420005007869,登記記録の閉鎖等,0,2025-10-27,2025-10-03,一般社団法人鈴猫,,その他の設立登記法人,青森県,青森市,大字久栗坂字浜田１０３３番地,,02,201,0393502,,,2025-10-03,清算の結了等,,,2023-10-25,1,,,,,スズネコ,0
1251,5430001028777,登記記録の閉鎖等,0,2025-10-27,2025-10-17,株式会社エトワール・リラ,,株式会社,北海道,札幌市豊平区,美園五条３丁目２番１４号,,01,105,0620005,,,2025-10-17,清算の結了等,,,2015-10-05,1,,,,,エトワールリラ,0
1256,5430002009272,登記記録の閉鎖等,0,2025-10-27,2025-10-16,有限会社シグマコーポレーション,,有限会社,北海道,札幌市北区,あいの里四条３丁目１４番１号,,01,102,0028074,,,2025-10-16,清算の結了等,,,2015-10-05,1,,,,,シグマコーポレーション,0
1257,5430002028677,登記記録の閉鎖等,0,2025-10-27,2025-10-15,有限会社ネクストマネージング,,有限会社,北海道,札幌市中央区,南二十六条西７丁目２番１０－２０３号,,01,101,0640926,,,2025-10-15,清算の結了等,,,2015-10-05,1,,,,,ネクストマネージング,0
1277,6010401036792,登記記録の閉鎖等,0,2025-10-27,2025-10-22,株式会社日本建設情報センター,,株式会社,東京都,港区,西新橋３丁目２４番１０号ハリファックス御成門ビル６階,,13,103,1050003,,,2025-10-22,合併による解散等,7020001146602,令和７年１０月１日横浜市中区寺久保６４番地１２株式会社日本建設情報センター（7020001146602）に合併し解散,2015-10-05,1,,,,,ニホンケンセツジョウホウセンター,0
1281,6010401128219,登記記録の閉鎖等,0,2025-10-27,2025-09-26,コンタクト株式会社,,株式会社,東京都,港区,南青山３丁目１０番４１号,,13,103,1070062,,,2025-09-26,清算の結了等,,,2016-11-17,1,,,,,コンタクト,0
1282,6010401129068,登記記録の閉鎖等,0,2025-10-27,2025-10-01,株式会社アストラ,,株式会社,東京都,港区,三田１丁目４番２８号三田国際ビル２６階,,13,103,1080073,,,2025-10-01,清算の結了等,,,2017-01-17,1,,,,,アストラ,0
1293,6010405010133,登記記録の閉鎖等,0,2025-10-27,2025-09-26,一般財団法人日本地域開発センター,,その他の設立登記法人,東京都,港区,虎ノ門１丁目１１番７号第二文成ビル,,13,103,1050001,,,2025-09-26,清算の結了等,,,2015-10-05,1,,,,,ニホンチイキカイハツセンター,0
1302,6010701034851,登記記録の閉鎖等,0,2025-10-27,2025-09-29,株式会社Ｓｏｃｒａｔｅａ,,株式会社,東京都,港区,高輪４丁目２３番６号ハイホーム高輪７０８,,13,103,1080074,,,2025-09-29,清算の結了等,,,2017-10-23,1,,,,,ソクラテア,0
1322,6011101065578,登記記録の閉鎖等,0,2025-10-27,2025-09-26,株式会社バルジライ,,株式会社,東京都,新宿区,大久保２丁目３２番１号,,13,104,1690072,,,2025-09-26,清算の結了等,,,2015-10-05,1,,,,,バルジライ,0
1329,6011102016811,登記記録の閉鎖等,0,2025-10-27,2025-09-25,有限会社プラン・ティー,,有限会社,東京都,新宿区,岩戸町１２番地,,13,104,1620832,,,2025-09-25,清算の結了等,,,2015-10-05,1,,,,,プランティー,0
1335,6011201002068,登記記録の閉鎖等,0,2025-10-27,2025-10-17,株式会社三成志だら,,株式会社,東京都,中野区,南台２丁目２０番２号,,13,114,1640014,,,2025-10-17,清算の結了等,,,2015-10-05,1,,,,,サンセイシダラ,0
1340,6011601001727,登記記録の閉鎖等,0,2025-10-27,2025-10-20,株式会社岸本総合計画事務所,,株式会社,東京都,練馬区,上石神井１丁目２８番１８号,,13,120,1770044,,,2025-10-20,清算の結了等,,,2015-10-05,1,,,,,キシモトソウゴウケイカクジムショ,0
1343,6011702009116,登記記録の閉鎖等,0,2025-10-27,2025-10-16,有限会社ハイピッチ,,有限会社,東京都,江戸川区,平井２丁目１６番９号－１０３,,13,123,1320035,,,2025-10-16,清算の結了等,,,2015-10-05,1,,,,,ハイピッチ,0
1344,6011702012904,登記記録の閉鎖等,0,2025-10-27,2025-10-16,有限会社硯川測量設計,,有限会社,東京都,江戸川区,中央１丁目３番１号,,13,123,1320021,,,2025-10-16,清算の結了等,,,2015-10-05,1,,,,,スズリカワソクリョウセッケイ,0
1367,6021001083951,登記記録の閉鎖等,0,2025-10-27,2025-10-06,すみれ株式会社,,株式会社,神奈川県,茅ヶ崎市,松風台９番１２号,,14,207,2530005,,,2025-10-06,清算の結了等,,,2024-12-09,1,,,,,スミレ,0
1379,6030002093562,登記記録の閉鎖等,0,2025-10-27,2025-10-16,有限会社フロンティア企画,,有限会社,埼玉県,鶴ヶ島市,大字脚折１８５６番地,,11,241,3502213,,,2025-10-16,清算の結了等,,,2015-10-05,1,,,,,フロンティアキカク,0
1382,6030005009318,登記記録の閉鎖等,0,2025-10-27,2025-10-17,医療法人中神内科クリニック,,その他の設立登記法人,埼玉県,本庄市,児玉町八幡山３２１番地,,11,211,3670217,,,2025-10-17,清算の結了等,,,2015-10-05,1,,,,,ナカガミナイカクリニック,0
1383,6040001031786,登記記録の閉鎖等,0,2025-10-27,2025-09-29,株式会社ギークルジャパン,,株式会社,千葉県,浦安市,富士見１丁目２番１号,,12,227,2790043,,,2025-09-29,清算の結了等,,,2015-10-05,1,,,,,ギークルジャパン,0
1384,6040001056635,登記記録の閉鎖等,0,2025-10-27,2025-10-01,株式会社ＧＥＮ,,株式会社,千葉県,市川市,八幡４丁目７番１８号,,12,203,2720021,,,2025-10-01,清算の結了等,,,2015-10-05,1,,,,,ゲン,0
1393,6050002010417,登記記録の閉鎖等,0,2025-10-27,2025-10-16,有限会社ポレポレ,,有限会社,茨城県,笠間市,石井１１１８番地,,08,216,3091613,,,2025-10-16,清算の結了等,,,2015-10-05,1,,,,,ポレポレ,0
1400,6070002009333,登記記録の閉鎖等,0,2025-10-27,2025-10-21,有限会社片山製作所,,有限会社,群馬県,高崎市,上並榎町５２０番地４,,10,202,3700801,,,2025-10-21,清算の結了等,,,2015-10-05,1,,,,,カタヤマセイサクジョ,0
1406,6090003002137,登記記録の閉鎖等,0,2025-10-27,2025-09-26,ＭＳホールディングス合同会社,,合同会社,東京都,渋谷区,道玄坂１丁目１２－１渋谷マークシティ２２Ｆ,,13,113,1500043,,,2025-09-26,清算の結了等,,,2022-07-14,1,,,,,エムエスホールディングス,0
1411,6120001131603,登記記録の閉鎖等,0,2025-10-27,2025-10-08,株式会社ＩＴＯ,,株式会社,大阪府,八尾市,東山本新町４丁目８番１４号,,27,212,5810866,,,2025-10-08,清算の結了等,,,2015-10-05,1,,,,,アイティオー,0
1431,6120005017963,登記記録の閉鎖等,0,2025-10-27,2025-10-22,医療法人弘真会,,その他の設立登記法人,大阪府,枚方市,中宮北町１番１５号枚方クリニックプラザ２階２０２,,27,210,5731194,,,2025-10-22,清算の結了等,,,2015-10-05,1,,,,,コウシンカイ,0
1440,6140001024656,登記記録の閉鎖等,0,2025-10-27,2025-10-16,株式会社メディカルアシスト,,株式会社,兵庫県,神戸市兵庫区,荒田町４丁目７番３号,,28,105,6520032,,,2025-10-16,清算の結了等,,,2015-10-05,1,,,,,メディカルアシスト,0
1442,6140001056765,登記記録の閉鎖等,0,2025-10-27,2025-10-20,株式会社ふう,,株式会社,兵庫県,豊岡市,福田１６７５番地の１,,28,209,6680084,,,2025-10-20,清算の結了等,,,2015-10-05,1,,,,,フウ,0
1445,6140003013054,登記記録の閉鎖等,0,2025-10-27,2025-10-10,合同会社ＴＫＳ,,合同会社,兵庫県,神戸市中央区,多聞通２丁目２番１６号２０２号室,,28,110,6500015,,,2025-10-10,清算の結了等,,,2018-06-04,1,,,,,,0
1450,6180001105758,登記記録の閉鎖等,0,2025-10-27,2025-10-17,株式会社ベストランス,,株式会社,愛知県,名古屋市天白区,久方１丁目５２番地,,23,116,4680034,,,2025-10-17,清算の結了等,,,2015-10-05,1,,,,,ベストランス,0
1457,6190001021285,登記記録の閉鎖等,0,2025-10-27,2025-10-15,しあわせつなぐ株式会社,,株式会社,愛知県,名古屋市西区,中小田井５丁目１７番地,,23,104,4520822,,,2025-10-15,清算の結了等,,,2015-10-05,1,,,,,シアワセツナグ,0
1465,6240001045262,登記記録の閉鎖等,0,2025-10-27,2025-10-20,株式会社アイワークス,,株式会社,広島県,呉市,瀬戸見町１７番１号,,34,202,7370834,,,2025-10-20,清算の結了等,,,2015-10-05,1,,,,,,0
1466,6240001047688,登記記録の閉鎖等,0,2025-10-27,2025-10-20,株式会社リンク,,株式会社,広島県,呉市,広古新開９丁目２５番３４号,,34,202,7370112,,,2025-10-20,清算の結了等,,,2015-10-05,1,,,,,,0
1469,6260001006675,登記記録の閉鎖等,0,2025-10-27,2025-10-21,森鋳材株式会社,,株式会社,岡山県,岡山市南区,築港新町２丁目１１番２２号,,33,104,7028056,,,2025-10-21,清算の結了等,,,2015-10-05,1,,,,,モリチュウザイ,0
1481,6300001007859,登記記録の閉鎖等,0,2025-10-27,2025-10-22,株式会社柳屋,,株式会社,佐賀県,小城市,小城町５２４番地,,41,208,8450001,,,2025-10-22,清算の結了等,,,2015-10-05,1,,,,,ヤナギヤ,0
1484,6320002013714,登記記録の閉鎖等,0,2025-10-27,2025-10-20,有限会社池上自動車,,有限会社,大分県,宇佐市,大字川部６６５番地の１,,44,211,8790452,,,2025-10-20,清算の結了等,,,2015-10-05,1,,,,,イケガミジドウシャ,0
1488,6340002004389,登記記録の閉鎖等,0,2025-10-27,2025-10-21,薩摩武道具有限会社,00099025,有限会社,鹿児島県,鹿児島市,郡元２丁目１６番３４号,,46,201,8900065,,,2025-10-21,清算の結了等,,,2015-10-05,1,,,,,サツマブドウグ,0
1496,6370001024575,登記記録の閉鎖等,0,2025-10-27,2025-10-10,株式会社旅ゆかば,,株式会社,宮城県,仙台市太白区,鈎取４丁目３番１２号,,04,104,9820804,,,2025-10-10,清算の結了等,,,2015-10-05,1,,,,,,0
1498,6370302001570,登記記録の閉鎖等,0,2025-10-27,2025-10-07,有限会社高透工業,00082098,有限会社,宮城県,石巻市,蛇田字北経塚１２番地の１１,,04,202,9860861,,,2025-10-07,清算の結了等,,,2015-10-05,1,,,,,タカトオコウギョウ,0
1501,6380002027444,登記記録の閉鎖等,0,2025-10-27,2025-10-15,有限会社安栄工建,,有限会社,福島県,いわき市,内郷宮町蛭子１２４番地の２６,,07,204,9738407,,,2025-10-15,清算の結了等,,,2015-10-05,1,,,,,アンエイコウケン,0
1512,6460002000558,登記記録の閉鎖等,0,2025-10-27,2025-10-23,有限会社桂田工務店,,有限会社,北海道,釧路郡釧路町,中央２丁目３６番４,,01,661,0880606,,,2025-10-23,清算の結了等,,,2015-10-05,1,,,,,,0
1535,7010005031173,登記記録の閉鎖等,0,2025-10-27,2025-09-29,ＫＩＣ厚木特定目的会社,,その他の設立登記法人,東京都,港区,南青山４丁目２１番２６号リュエル青山Ｃ棟Ｂ１細谷総合会計事務所内,,13,103,1070062,,,2025-09-29,清算の結了等,,,2019-12-09,1,,,,,ケーアイシーアツギ,0
1545,7010401150972,登記記録の閉鎖等,0,2025-10-27,2025-09-29,株式会社ソフィアサーキュラーデザイン,,株式会社,東京都,港区,麻布十番１丁目２番３号,,13,103,1060045,,,2025-09-29,清算の結了等,,,2020-02-13,1,,,,,ソフィアサーキュラーデザイン,0
1547,7010401173123,登記記録の閉鎖等,0,2025-10-27,2025-09-29,株式会社ドッツダイニング,,株式会社,東京都,港区,西麻布２丁目１３番１５号,,13,103,1060031,,,2025-09-29,清算の結了等,,,2023-03-16,1,,,,,ドッツダイニング,0
1549,7010401185762,登記記録の閉鎖等,0,2025-10-27,2025-09-22,株式会社ｎａｓｔｒｏ,,株式会社,東京都,港区,南青山３丁目１番３６号青山丸竹ビル６階,,13,103,1070062,,,2025-09-22,清算の結了等,,,2024-10-17,1,,,,,ナストロ,0
1564,7010601013525,登記記録の閉鎖等,0,2025-10-27,2025-10-09,株式会社東洋リフオーム,,株式会社,東京都,墨田区,横川４丁目８番２３号エムビル３Ｆ,,13,107,1300003,,,2025-10-09,清算の結了等,,,2015-10-05,1,,,,,トウヨウリフォーム,0
1570,7010801010990,登記記録の閉鎖等,0,2025-10-27,2025-10-16,株式会社マース,,株式会社,東京都,大田区,大森北６丁目３３番７号,,13,111,1430016,,,2025-10-16,清算の結了等,,,2015-10-05,1,,,,,マース,0
1622,7020001088290,登記記録の閉鎖等,0,2025-10-27,2025-10-07,株式会社エグゼック,,株式会社,神奈川県,川崎市幸区,南加瀬４丁目１８番８号,,14,132,2120055,,,2025-10-07,清算の結了等,,,2015-10-05,1,,,,,エグゼック,0
1638,7030001146147,登記記録の閉鎖等,0,2025-10-27,2025-10-16,株式会社虹美装,,株式会社,埼玉県,飯能市,大字永田１２１番地１,,11,209,3570062,,,2025-10-16,清算の結了等,,,2022-01-06,1,,,,,ニジビソウ,0
1648,7050002038606,登記記録の閉鎖等,0,2025-10-27,2025-10-15,有限会社パスカルケイ,,有限会社,茨城県,牛久市,上柏田３丁目３３番地１,,08,219,3001232,,,2025-10-15,清算の結了等,,,2015-10-05,1,,,,,パスカルケイ,0
1650,7070005003010,登記記録の閉鎖等,0,2025-10-27,2025-10-17,特定非営利活動法人環境技術研究所,,その他の設立登記法人,群馬県,高崎市,倉賀野町４２２１番地１３,,10,202,3701201,,,2025-10-17,清算の結了等,,,2015-10-05,1,,,,,カンキョウギジュツケンキュウジョ,0
1652,7080102006360,登記記録の閉鎖等,0,2025-10-27,2025-10-22,有限会社青木不動産,,有限会社,静岡県,沼津市,大岡９８９番地の９,,22,203,4100022,,,2025-10-22,清算の結了等,,,2015-10-05,1,,,,,アオキフドウサン,0
1658,7120001002761,登記記録の閉鎖等,0,2025-10-27,2025-10-21,株式会社緑翠園,,株式会社,大阪府,大阪市鶴見区,横堤２丁目６番１５号,,27,124,5380052,,,2025-10-21,清算の結了等,,,2015-10-05,1,,,,,リョクスイエン,0
1662,7120001226583,登記記録の閉鎖等,0,2025-10-27,2025-10-16,株式会社Ｆａｌｌ,,株式会社,大阪府,大阪市西区,江之子島２丁目１番３７号,,27,106,5500006,,,2025-10-16,清算の結了等,,,2020-01-21,1,,,,,フォール,0
1663,7120001240782,登記記録の閉鎖等,0,2025-10-27,2025-09-29,株式会社フレスカ,,株式会社,東京都,港区,新橋２丁目２０番１５号新橋駅前ビル１号館６０１号室,,13,103,1050004,,,2025-09-29,清算の結了等,,,2021-09-30,1,,,,,フレスカ,0
1676,7120003024011,登記記録の閉鎖等,0,2025-10-27,2025-10-09,合同会社縁紡ぐ,,合同会社,大阪府,大阪市住之江区,粉浜西１丁目８番１号クラウンセゾン粉浜６０２,,27,125,5590007,,,2025-10-09,清算の結了等,,,2023-05-08,1,,,,,エンツムグ,0
1688,7130001018815,登記記録の閉鎖等,0,2025-10-27,2025-10-23,株式会社松尾,,株式会社,京都府,京都市下京区,西七条南東野町８番地の１,,26,106,6008872,,,2025-10-23,清算の結了等,,,2015-10-05,1,,,,,マツオ,0
1692,7140002033969,登記記録の閉鎖等,0,2025-10-27,2025-10-16,有限会社オクハラ,,有限会社,兵庫県,赤穂郡上郡町,大持字古川６４番地１,,28,481,6781233,,,2025-10-16,清算の結了等,,,2015-10-05,1,,,,,オクハラ,0
1696,7180001081668,登記記録の閉鎖等,0,2025-10-27,2025-10-15,株式会社アイティーシー,,株式会社,愛知県,犬山市,字裏之門２２７番地１,,23,215,4840854,,,2025-10-15,清算の結了等,,,2015-10-05,1,,,,,アイティーシー,0
1700,7180001112191,登記記録の閉鎖等,0,2025-10-27,2025-10-14,株式会社みんちかＪＡＰＡＮ,,株式会社,愛知県,愛知郡東郷町,大字春木字屋敷３４１５番地４２,,23,302,4700162,,,2025-10-14,清算の結了等,,,2015-10-05,1,,,,,ミンチカジャパン,0
1706,7180002026234,登記記録の閉鎖等,0,2025-10-27,2025-10-09,有限会社中山不動産,,有限会社,愛知県,名古屋市緑区,篠の風１丁目５０５番地,,23,114,4580015,,,2025-10-09,清算の結了等,,,2015-10-05,1,,,,,ナカヤマフドウサン,0
1709,7180301014708,登記記録の閉鎖等,0,2025-10-27,2025-10-21,光月機械設計株式会社,,株式会社,愛知県,知立市,谷田町西１丁目１１番地２２,,23,225,4720014,,,2025-10-21,清算の結了等,,,2015-10-05,1,,,,,コウゲツキカイセッケイ,0
1726,7240001029941,登記記録の閉鎖等,0,2025-10-27,2025-10-16,株式会社エー・ピー・エフ,,株式会社,広島県,福山市,春日町浦上５７６番地の１５,,34,207,7210902,,,2025-10-16,合併による解散等,9130001033787,令和７年９月３０日京都府宇治市広野町西裏３７番地１エーシック株式会社（9130001033787）に合併し解散,2015-10-05,1,,,,,エーピーエフ,0
1730,7260001030220,登記記録の閉鎖等,0,2025-10-27,2025-10-22,株式会社アオキファーム,,株式会社,岡山県,久米郡久米南町,京尾４７３番地,,33,663,7093634,,,2025-10-22,清算の結了等,,,2016-12-07,1,,,,,アオキファーム,0
1731,7260002034006,登記記録の閉鎖等,0,2025-10-27,2025-10-20,有限会社清瀬商店,,有限会社,岡山県,真庭市,蒜山上長田４８２番地,,33,214,7170505,,,2025-10-20,清算の結了等,,,2015-10-05,1,,,,,キヨセショウテン,0
1742,7290003011034,登記記録の閉鎖等,0,2025-10-27,2025-09-26,合同会社フェアリーズ,,合同会社,福岡県,久留米市,西町８７３番地５プロビデンス花畑１Ｆ,,40,203,8300038,,,2025-09-26,清算の結了等,,,2021-04-07,1,,,,,フェアリーズ,0
1746,7320001016139,登記記録の閉鎖等,0,2025-10-27,2025-10-20,Ｂ・Ａ・Ｐ株式会社,,株式会社,大分県,大分市,大字乙津２番地の２,,44,201,8700144,,,2025-10-20,清算の結了等,,,2018-01-23,1,,,,,,0
1747,7320003004125,登記記録の閉鎖等,0,2025-10-27,2025-10-22,Ｓｅｎｃｅ　Ｏｆ　Ｂｅａｕｔｙ４３合同会社,,合同会社,大分県,大分市,金池町３丁目１番９３号山口ビル１Ｆ,,44,201,8700026,,,2025-10-22,清算の結了等,,,2023-07-12,1,,,,,センスオブビューティフォーティースリー,0
1748,7340001015626,登記記録の閉鎖等,0,2025-10-27,2025-10-20,株式会社孫へのおくりもの本舗,,株式会社,鹿児島県,伊佐市,菱刈荒田１３３３番地,,46,224,8952811,,,2025-10-20,清算の結了等,,,2015-10-05,1,,,,,マゴヘノオクリモノホンポ,0
1752,7360001033667,登記記録の閉鎖等,0,2025-10-27,2025-10-21,株式会社琉球Ｋａｆｕｕ,,株式会社,沖縄県,浦添市,伊祖２丁目２４番５号４階,,47,208,9012132,,,2025-10-21,清算の結了等,,,2024-05-17,1,,,,,リュウキュウカフー,0
1755,7370001051271,登記記録の閉鎖等,0,2025-10-27,2025-10-10,株式会社東北コンサルティング,,株式会社,宮城県,仙台市宮城野区,鶴ケ谷東４丁目１４番１１号,,04,102,9830826,,,2025-10-10,清算の結了等,,,2024-05-09,1,,,,,トウホクコンサルティング,0
1758,7380002013146,登記記録の閉鎖等,0,2025-10-27,2025-10-06,有限会社ワダ土地建物,,有限会社,福島県,郡山市,西ノ内１丁目１５番２号,,07,203,9638022,,,2025-10-06,清算の結了等,,,2015-10-05,1,,,,,ワダトチタテモノ,0
1760,7420001001262,登記記録の閉鎖等,0,2025-10-27,2025-10-15,大日運送株式会社,,株式会社,青森県,青森市,大字野内字菊川６番地６,,02,201,0393503,,,2025-10-15,清算の結了等,,,2015-10-05,1,,,,,ダイニチウンソウ,0
1775,7480001001042,登記記録の閉鎖等,0,2025-10-27,2025-10-27,株式会社谷川鉄工所,,株式会社,徳島県,徳島市,川内町平石古田９７番地２,,36,201,7710136,,,2025-10-27,清算の結了等,,,2015-10-05,1,,,,,タニガワテッコウショ,0
1777,7490002007285,登記記録の閉鎖等,0,2025-10-27,2025-10-23,有限会社キッズイングリッシュガーデン,,有限会社,高知県,高知市,南御座８番４０－９０２号,,39,201,7810084,,,2025-10-23,清算の結了等,,,2015-10-05,1,,,,,キッズイングリッシュガーデン,0
1783,8010001015550,登記記録の閉鎖等,0,2025-10-27,2025-10-15,株式会社玄黄社,,株式会社,東京都,千代田区,富士見１丁目７番５号,,13,101,1020071,,,2025-10-15,清算の結了等,,,2015-10-05,1,,,,,ゲンコウシャ,0
1785,8010001145505,登記記録の閉鎖等,0,2025-10-27,2025-09-24,株式会社ハイエンド,,株式会社,東京都,新宿区,西新宿６丁目２１番１号アイタウンプラザ１１０,,13,104,1600023,,,2025-09-24,清算の結了等,,,2015-10-05,1,,,,,ハイエンド,0
1792,8010003012728,登記記録の閉鎖等,0,2025-10-27,2025-09-26,トーラス合同会社,,合同会社,東京都,港区,西新橋３丁目１６番１１号,,13,103,1050003,,,2025-09-26,清算の結了等,,,2015-10-05,1,,,,,トーラス,0
1800,8010103001250,登記記録の閉鎖等,0,2025-10-27,2025-10-22,バークシャー合同会社,,合同会社,東京都,青梅市,駒木町３丁目６５２番地１,,13,205,1980053,,,2025-10-22,清算の結了等,,,2018-05-01,1,,,,,バークシャー,0
1807,8010401179094,登記記録の閉鎖等,0,2025-10-27,2025-09-30,ひとたび株式会社,,株式会社,東京都,港区,芝浦４丁目１３番２３号,,13,103,1080023,,,2025-09-30,清算の結了等,,,2023-12-13,1,,,,,ヒトタビ,0
1809,8010401187774,登記記録の閉鎖等,0,2025-10-27,2025-09-26,Ｖｉｎｃｅｎｔ　Ｗｏｒｋｓ株式会社,,株式会社,東京都,港区,芝大門１丁目１０－１１芝大門センタービル１０Ｆ,,13,103,1050012,,,2025-09-26,清算の結了等,,,2025-01-30,1,,,,,ヴィンセントワークス,0
1818,8010403017517,登記記録の閉鎖等,0,2025-10-27,2025-09-24,Ｓｃａｌａ７合同会社,,合同会社,東京都,港区,虎ノ門２丁目６番１号,,13,103,1050001,,,2025-09-24,清算の結了等,,,2017-10-27,1,,,,,スカーラセブン,0
1824,8010405015543,登記記録の閉鎖等,0,2025-10-27,2025-09-29,一般社団法人ＴＫＳ港北振興協会,,その他の設立登記法人,東京都,港区,虎ノ門３丁目２２番１０－２０１号,,13,103,1050001,,,2025-09-29,清算の結了等,,,2017-02-28,1,,,,,ティーケーエスコウホクシンコウキョウカイ,0
1834,8010901040185,登記記録の閉鎖等,0,2025-10-27,2025-10-01,ヒップオートリース株式会社,,株式会社,神奈川県,横浜市西区,みなとみらい２丁目３番５号クイーンズタワーＣ－１０Ｆ,,14,103,2200012,,,2025-10-01,合併による解散等,3020001103581,令和７年１０月１日横浜市西区みなとみらい二丁目３番５号クイーンズタワーＣ－１０Ｆヒップスタイル株式会社（3020001103581）に合併し解散,2017-06-02,1,,,,,ヒップオートリース,0
1884,8020001039227,登記記録の閉鎖等,0,2025-10-27,2025-09-26,株式会社ソシオ,,株式会社,東京都,港区,芝４丁目１６番１号,,13,103,1080014,,,2025-09-26,清算の結了等,,,2015-10-05,1,,,,,ソシオ,0
1897,8020002048714,登記記録の閉鎖等,0,2025-10-27,2025-10-15,有限会社アネスティ,,有限会社,神奈川県,横浜市神奈川区,三ツ沢中町１２番４号,,14,102,2210851,,,2025-10-15,清算の結了等,,,2015-10-05,1,,,,,アネスティ,0
1898,8020002074636,登記記録の閉鎖等,0,2025-10-27,2025-10-08,有限会社ＭアンドＮ,,有限会社,神奈川県,横浜市緑区,三保町１３５１番地１フォレストヒルズ三保９棟５０５号,,14,113,2260015,,,2025-10-08,清算の結了等,,,2015-10-05,1,,,,,エムアンドエヌ,0
1921,8030003018599,登記記録の閉鎖等,0,2025-10-27,2025-10-14,合同会社豊,,合同会社,埼玉県,比企郡滑川町,大字月輪８９９番地６,,11,341,3550813,,,2025-10-14,合併による解散等,9030002096918,令和７年９月１日埼玉県東松山市松葉町二丁目１７番４０号株式会社ライフアシスト（9030002096918）に合併し解散,2022-01-07,1,,,,,ユタカ,0
1944,8110002001300,登記記録の閉鎖等,0,2025-10-27,2025-10-21,有限会社エリナ,,有限会社,新潟県,新潟市中央区,京王１丁目１２番９号,,15,103,9500921,,,2025-10-21,清算の結了等,,,2015-10-05,1,,,,,エリナ,0
1945,8110002018567,登記記録の閉鎖等,0,2025-10-27,2025-10-22,有限会社大鳳商事,,有限会社,新潟県,南蒲原郡田上町,大字吉田新田乙５５０番地１,,15,361,9591511,,,2025-10-22,清算の結了等,,,2015-10-05,1,,,,,タイホウショウジ,0
1948,8120001114449,登記記録の閉鎖等,0,2025-10-27,2025-10-21,株式会社アミックス,,株式会社,大阪府,大阪市西区,南堀江４丁目１７番１８号,,27,106,5500015,,,2025-10-21,清算の結了等,,,2015-10-05,1,,,,,アミックス,0
1974,8130001027501,登記記録の閉鎖等,0,2025-10-27,2025-10-20,株式会社マトラス,,株式会社,京都府,京都市山科区,西野山中鳥井町３９番地２１,,26,110,6078306,,,2025-10-20,清算の結了等,,,2015-10-05,1,,,,,マトラス,0
1982,8140001023334,登記記録の閉鎖等,0,2025-10-27,2025-10-17,株式会社エクロール,,株式会社,兵庫県,神戸市中央区,多聞通２丁目５番１６号,,28,110,6500015,,,2025-10-17,清算の結了等,,,2015-10-05,1,,,,,エクロール,0
1994,8180001125449,登記記録の閉鎖等,0,2025-10-27,2025-10-06,株式会社丸の内システムトータルサポート,,株式会社,愛知県,名古屋市中区,丸の内３丁目２０番５号,,23,106,4600002,,,2025-10-06,清算の結了等,,,2016-11-10,1,,,,,マルノウチシステムトータルサポート,0
2002,8180302005928,登記記録の閉鎖等,0,2025-10-27,2025-10-16,有限会社くろやなぎ商事,,有限会社,愛知県,岡崎市,上地６丁目１７番地２,,23,202,4440823,,,2025-10-16,清算の結了等,,,2015-10-05,1,,,,,クロヤナギショウジ,0
2012,8200002023698,登記記録の閉鎖等,0,2025-10-27,2025-10-22,有限会社伊吹工業所,,有限会社,岐阜県,恵那市,大井町２３６０番地の１,,21,210,5097201,,,2025-10-22,清算の結了等,,,2015-10-05,1,,,,,イブキコウギョウショ,0
2023,8280001005748,登記記録の閉鎖等,0,2025-10-27,2025-10-23,ＪＢＳ株式会社,,株式会社,島根県,雲南市,加茂町延野２９７番地１１,,32,209,6991124,,,2025-10-23,清算の結了等,,,2015-10-05,1,,,,,ジェービーエス,0
2053,8370801000204,登記記録の閉鎖等,0,2025-10-27,2025-10-09,株式会社登米ブライユ,,株式会社,宮城県,名取市,上余田字千刈田５４３番地の１,,04,207,9811222,,,2025-10-09,清算の結了等,,,2015-10-05,1,,,,,トメブライユ,0
2057,8390001004937,登記記録の閉鎖等,0,2025-10-27,2025-10-22,エコランチファクトリー上山株式会社,,株式会社,山形県,上山市,美咲町２丁目１番９５号,,06,207,9993123,,,2025-10-22,清算の結了等,,,2015-10-05,1,,,,,エコランチファクトリーカミノヤマ,0
2070,8460001001258,登記記録の閉鎖等,0,2025-10-27,2025-10-22,株式会社ナカタインテリア,,株式会社,北海道,釧路市,鳥取南８丁目１２番８号,,01,206,0840905,,,2025-10-22,清算の結了等,,,2015-10-05,1,,,,,ナカタインテリア,0
2088,9010401104547,登記記録の閉鎖等,0,2025-10-27,2025-10-03,株式会社Ｓ＆Ｓジャパン,,株式会社,東京都,港区,六本木５丁目１６番１７－１０３号,,13,103,1060032,,,2025-10-03,合併による解散等,9010801014544,令和７年１０月１日東京都港区虎ノ門四丁目３番１号城山トラストタワー１５階トキワユナイテッドパートナーズ内株式会社ワイエムワイ（9010801014544）に合併し解散,2015-10-05,1,,,,,エスアンドエスジャパン,0
2145,9011601003431,登記記録の閉鎖等,0,2025-10-27,2025-10-20,株式会社菅谷酸工,,株式会社,東京都,練馬区,氷川台４丁目１３番４号,,13,120,1790084,,,2025-10-20,清算の結了等,,,2015-10-05,1,,,,,,0
2146,9011601020146,登記記録の閉鎖等,0,2025-10-27,2025-10-21,株式会社ボアソルチ,,株式会社,東京都,板橋区,徳丸６丁目１７番１号,,13,119,1750083,,,2025-10-21,清算の結了等,,,2015-10-05,1,,,,,ボアソルチ,0
2170,9030002093592,登記記録の閉鎖等,0,2025-10-27,2025-10-16,有限会社まるせい比留間商店,,有限会社,埼玉県,鶴ヶ島市,大字脚折１８５６番地,,11,241,3502213,,,2025-10-16,清算の結了等,,,2015-10-05,1,,,,,マルセイヒルマショウテン,0
2184,9050002031071,登記記録の閉鎖等,0,2025-10-27,2025-10-16,有限会社なおしん,,有限会社,茨城県,日立市,東滑川町５丁目５番３７号,,08,202,3170052,,,2025-10-16,清算の結了等,,,2015-10-05,1,,,,,ナオシン,0
2193,9100001006556,登記記録の閉鎖等,0,2025-10-27,2025-10-17,株式会社四季菜,,株式会社,東京都,大田区,東海３丁目２番１号大田市場事務棟８階,,13,111,1430001,,,2025-10-17,清算の結了等,,,2015-10-05,1,,,,,シキサイ,0
2196,9110002032427,登記記録の閉鎖等,0,2025-10-27,2025-10-20,有限会社おほせ自動車修理工場,,有限会社,新潟県,長岡市,東川口２１３６番地の４,,15,202,9497504,,,2025-10-20,清算の結了等,,,2015-10-05,1,,,,,,0
2198,9120001044637,登記記録の閉鎖等,0,2025-10-27,2025-10-21,ゼネラル事務機株式会社,,株式会社,大阪府,大阪市西区,靱本町３丁目２番７号,,27,106,5500004,,,2025-10-21,清算の結了等,,,2015-10-05,1,,,,,ゼネラルジムキ,0
2199,9120001166613,登記記録の閉鎖等,0,2025-10-27,2025-10-21,株式会社ディアライフ,,株式会社,大阪府,大阪市福島区,福島５丁目１６番１５号,,27,103,5530003,,,2025-10-21,清算の結了等,,,2015-10-05,1,,,,,ディアライフ,0
2200,9120001214792,登記記録の閉鎖等,0,2025-10-27,2025-10-22,株式会社ＰＰＫ,,株式会社,大阪府,大阪市西区,西本町１丁目１２番２０号,,27,106,5500005,,,2025-10-22,清算の結了等,,,2018-07-20,1,,,,,ピーピーケー,0
2203,9120001239261,登記記録の閉鎖等,0,2025-10-27,2025-10-17,株式会社Ｆｕｌｌ　Ｆｕｌｌ,,株式会社,大阪府,八尾市,太田５丁目１９９番地の５,,27,212,5810037,,,2025-10-17,清算の結了等,,,2021-07-26,1,,,,,フルフル,0
2212,9120003017525,登記記録の閉鎖等,0,2025-10-27,2025-10-17,合同会社ｓｏｒａ　ｓｔａｙ　ｈｏｍｅ　ｃｏｍｐａｎｙ,,合同会社,大阪府,八尾市,太田５丁目１９９番地の５,,27,212,5810037,,,2025-10-17,清算の結了等,,,2020-06-01,1,,,,,ソラステイホームカンパニー,0
2217,9120901000631,登記記録の閉鎖等,0,2025-10-27,2025-10-20,株式会社木下工務店,,株式会社,大阪府,茨木市,園田町８番１８号,,27,211,5670825,,,2025-10-20,清算の結了等,,,2024-12-20,1,,,,,,0
2225,9130001029323,登記記録の閉鎖等,0,2025-10-27,2025-10-20,株式会社ウオッカ,,株式会社,京都府,京都市山科区,西野山中鳥井町３９番地２１,,26,110,6078306,,,2025-10-20,清算の結了等,,,2015-10-05,1,,,,,ウオッカ,0
2245,9180002079081,登記記録の閉鎖等,0,2025-10-27,2025-10-14,有限会社各務興業,,有限会社,愛知県,一宮市,多加木４丁目２８番２５号,,23,203,4910837,,,2025-10-14,清算の結了等,,,2015-10-05,1,,,,,カガミコウギョウ,0
2246,9180003026966,登記記録の閉鎖等,0,2025-10-27,2025-10-14,合同会社ホットなＮｅｗｓ,,合同会社,愛知県,名古屋市中区,新栄１丁目１９番１１号（ザ・パークハビオ新栄１１１０号）,,23,106,4600007,,,2025-10-14,清算の結了等,,,2024-06-26,1,,,,,ホットナニュース,0
2254,9190001027271,登記記録の閉鎖等,0,2025-10-27,2025-10-20,株式会社メディカルサービストラスト,,株式会社,三重県,名張市,百合が丘東２番町８２番地,,24,208,5180472,,,2025-10-20,清算の結了等,,,2020-04-07,1,,,,,メディカルサービストラスト,0
2262,9250002000766,登記記録の閉鎖等,0,2025-10-27,2025-10-22,有限会社白岩工業,,有限会社,山口県,山口市,吉田２４９４番地の１,,35,203,7530841,,,2025-10-22,清算の結了等,,,2015-10-05,1,,,,,シライワコウギョウ,0
2276,9290002047812,登記記録の閉鎖等,0,2025-10-27,2025-09-29,有限会社クリエーション・マツオ,,有限会社,福岡県,筑後市,大字野町７１番地１３,,40,211,8330032,,,2025-09-29,清算の結了等,,,2015-10-05,1,,,,,クリエーションマツオ,0
2281,9290801011183,登記記録の閉鎖等,0,2025-10-27,2025-10-17,栄林木材株式会社,,株式会社,福岡県,遠賀郡遠賀町,浅木３丁目２８番１４号,,40,384,8114312,,,2025-10-17,清算の結了等,,,2015-10-05,1,,,,,エイリンモクザイ,0
2304,9370001019564,登記記録の閉鎖等,0,2025-10-27,2025-10-10,株式会社オフィス瓜生,,株式会社,宮城県,仙台市太白区,向山３丁目１４番１８号,,04,104,9820841,,,2025-10-10,清算の結了等,,,2015-10-05,1,,,,,オフィスウリュウ,0
2309,9380001005588,登記記録の閉鎖等,0,2025-10-27,2025-10-14,株式会社西部運輸,,株式会社,福島県,郡山市,熱海町安子島字南原２番地３,,07,203,9631304,,,2025-10-14,清算の結了等,,,2015-10-05,1,,,,,セイブウンユ,0
2316,9380005012291,登記記録の閉鎖等,0,2025-10-27,2025-10-15,一般社団法人福島県チャイルドライン推進協議会,,その他の設立登記法人,福島県,福島市,置賜町１番２９号,,07,201,9608034,,,2025-10-15,清算の結了等,,,2020-04-21,1,,,,,フクシマケンチャイルドラインスイシンキョウギカイ,0
2336,9500002017090,登記記録の閉鎖等,0,2025-10-27,2025-10-23,有限会社ファミリーマートおかだ,,有限会社,愛媛県,新居浜市,垣生５丁目１番８号,,38,205,7920872,,,2025-10-23,清算の結了等,,,2015-10-05,1,,,,,ファミリーマートオカダ,0
