sequenceNumber,corporateNumber,process,correct,updateDate,changeDate,name,nameImageId,kind,prefectureName,cityName,streetNumber,addressImageId,prefectureCode,cityCode,postCode,addressOutside,addressOutsideImageId,closeDate,closeCause,successorCorporateNumber,changeCause,assignmentDate,latest,enName,enPrefectureName,enCityName,enAddressOutside,furigana,hihyoji
5,1010001136584,登記記録の閉鎖等,0,2022-10-17,2022-10-07,山佐ＢＡＷ９リース株式会社,,株式会社,東京都,千代田区,丸の内３丁目１番１号東京共同会計事務所内,,13,101,1000005,,,2022-10-07,清算の結了等,,,2015-10-05,1,,,,,ヤマサビーエーダブリューキュウリース,0
25,1010401127984,登記記録の閉鎖等,0,2022-10-17,2022-09-21,株式会社遊友,,株式会社,東京都,港区,南青山２丁目２番１５－８２５号,,13,103,1070062,,,2022-09-21,清算の結了等,,,2016-11-08,1,,,,,ユウユウ,0
34,1010601059557,登記記録の閉鎖等,0,2022-10-17,2022-10-11,株式会社ＡｉＫＥＮ,,株式会社,東京都,江東区,豊洲３丁目６番８－１０１６号,,13,108,1350061,,,2022-10-11,清算の結了等,,,2021-06-24,1,,,,,アイケン,0
97,1040005003530,登記記録の閉鎖等,0,2022-10-17,2022-10-05,特定非営利活動法人ふれあいスポーツ振興会,,その他の設立登記法人,千葉県,船橋市,上山町１丁目１８７－５－２０２,,12,204,2730046,,,2022-10-05,清算の結了等,,,2015-10-05,1,,,,,フレアイスポーツシンコウカイ,0
101,1050002037984,登記記録の閉鎖等,0,2022-10-17,2022-10-05,有限会社洋チャン食堂,,有限会社,茨城県,牛久市,田宮町２２７番地,,08,219,3001236,,,2022-10-05,清算の結了等,,,2015-10-05,1,,,,,ヨウチャンショクドウ,0
130,1110005006550,登記記録の閉鎖等,0,2022-10-17,2022-10-13,農事組合法人えちご山農会,,その他の設立登記法人,新潟県,三条市,花渕８８８番地,,15,204,9550148,,,2022-10-13,清算の結了等,,,2015-10-05,1,,,,,エチゴサンノウカイ,0
143,1120101049452,登記記録の閉鎖等,0,2022-10-17,2022-10-11,株式会社サンライズホールディングス,,株式会社,広島県,広島市南区,猿猴橋町４番５号,,34,103,7320823,,,2022-10-11,合併による解散等,6120101000443,令和４年１０月１日大阪府堺市中区堀上町１０７７番地株式会社曙殖産（6120101000443）に合併し解散,2015-10-05,1,,,,,サンライズホールディングス,0
147,1122001026564,登記記録の閉鎖等,0,2022-10-17,2022-10-04,株式会社マチソル,,株式会社,大阪府,大東市,緑が丘２丁目１５番２８号,,27,218,5740073,,,2022-10-04,清算の結了等,,,2015-10-05,1,,,,,マチソル,0
148,1122001027760,登記記録の閉鎖等,0,2022-10-17,2022-10-14,ルイスヴァージウエルネス株式会社,,株式会社,大阪府,東大阪市,御厨南２丁目１番３３号,,27,227,5770034,,,2022-10-14,清算の結了等,,,2015-10-05,1,,,,,ルイスヴァージウエルネス,0
161,1140001026351,登記記録の閉鎖等,0,2022-10-17,2022-10-07,株式会社イーエスビー,,株式会社,兵庫県,神戸市北区,鈴蘭台南町４丁目５番１５号,,28,109,6511113,,,2022-10-07,清算の結了等,,,2015-10-05,1,,,,,イーエスビー,0
184,1180002090715,登記記録の閉鎖等,0,2022-10-17,2022-10-04,有限会社神建装,,有限会社,愛知県,愛西市,佐屋町道西４７番地の５,,23,232,4960901,,,2022-10-04,清算の結了等,,,2015-10-05,1,,,,,ジンケンソウ,0
189,1190001016604,登記記録の閉鎖等,0,2022-10-17,2022-10-12,株式会社森安商店,,株式会社,三重県,四日市市,三ツ谷町５番２６号,,24,202,5100802,,,2022-10-12,清算の結了等,,,2015-10-05,1,,,,,モリヤスショウテン,0
195,1220001015239,登記記録の閉鎖等,0,2022-10-17,2022-10-13,天池合繊株式会社,,株式会社,石川県,七尾市,国下町ト部５９番地の１,,17,202,9260037,,,2022-10-13,清算の結了等,,,2015-10-05,1,,,,,アマイケゴウセン,0
196,1220001023547,登記記録の閉鎖等,0,2022-10-17,2022-10-12,株式会社高尾台整骨院,,株式会社,石川県,金沢市,高尾台４丁目３４番地,,17,201,9218155,,,2022-10-12,清算の結了等,,,2020-05-13,1,,,,,タカオダイセイコツイン,0
197,1240001031820,登記記録の閉鎖等,0,2022-10-17,2022-10-13,広瀬被服株式会社,,株式会社,広島県,福山市,横尾町１丁目４番２３号,,34,207,7200011,,,2022-10-13,清算の結了等,,,2015-10-05,1,,,,,ヒロセヒフク,0
203,1250002005616,登記記録の閉鎖等,0,2022-10-17,2022-10-07,有限会社プラン・エム・アール,,有限会社,山口県,宇部市,大字東須恵２９４６番地の７,,35,202,7590206,,,2022-10-07,清算の結了等,,,2015-10-05,1,,,,,プランエムアール,0
205,1260005010562,登記記録の閉鎖等,0,2022-10-17,2022-10-12,一般社団法人すこやかのわ,,その他の設立登記法人,岡山県,倉敷市,玉島道口５３２４番地３２,,33,202,7138115,,,2022-10-12,清算の結了等,,,2019-03-04,1,,,,,スコヤカノワ,0
232,1360003012055,登記記録の閉鎖等,0,2022-10-17,2022-10-06,合同会社ＭＡ,,合同会社,沖縄県,那覇市,字大道８９番地,,47,201,9020066,,,2022-10-06,清算の結了等,,,2022-06-01,1,,,,,エムエー,0
234,1370601000278,登記記録の閉鎖等,0,2022-10-17,2022-10-06,株式会社サクセス,,株式会社,宮城県,仙台市宮城野区,扇町１丁目７番４５号,,04,102,9830034,,,2022-10-06,清算の結了等,,,2015-10-05,1,,,,,サクセス,0
241,1380005010930,登記記録の閉鎖等,0,2022-10-17,2022-10-04,電化生活館・福島家電事業協同組合,,その他の設立登記法人,福島県,福島市,北五老内町５番２３号,,07,201,9608131,,,2022-10-04,清算の結了等,,,2015-10-05,1,,,,,デンカセイカツカンフクシマカデン,0
254,1430001075170,登記記録の閉鎖等,0,2022-10-17,2022-10-03,株式会社日江金属,,株式会社,北海道,江別市,工栄町３番地５,,01,217,0670051,,,2022-10-03,合併による解散等,3010001197245,令和４年１０月１日札幌市東区北丘珠二条三丁目２番３０号株式会社ホクエイ（3010001197245）に合併し解散,2017-10-18,1,,,,,ニッコウキンゾク,0
263,1470002017746,登記記録の閉鎖等,0,2022-10-17,2022-10-12,有限会社真鍋硝子店,,有限会社,香川県,さぬき市,寒川町石田東甲１１７３番地,,37,206,7692321,,,2022-10-12,清算の結了等,,,2015-10-05,1,,,,,マナベガラステン,0
264,1470003000370,登記記録の閉鎖等,0,2022-10-17,2022-10-13,合同会社希少糖食品,,合同会社,香川県,高松市,番町１丁目１番５号ニッセイ高松ビル７階,,37,201,7600017,,,2022-10-13,合併による解散等,7140001078932,令和４年１０月１日兵庫県伊丹市北伊丹五丁目３番地松谷化学工業株式会社（7140001078932）に合併し解散,2015-10-05,1,,,,,,0
267,1500002021059,登記記録の閉鎖等,0,2022-10-17,2022-10-13,有限会社岡崎工務店,00008210,有限会社,愛媛県,四国中央市,下柏町５４９番地３,,38,213,7990411,,,2022-10-13,清算の結了等,,,2015-10-05,1,,,,,オカザキコウムテン,0
289,2010601012993,登記記録の閉鎖等,0,2022-10-17,2022-10-03,株式会社千葉製作所,,株式会社,埼玉県,越谷市,大成町２丁目３０６番地１,,11,222,3430825,,,2022-10-03,合併による解散等,8030001035092,令和４年１０月１日埼玉県草加市青柳一丁目５番５８号株式会社潤製作所（8030001035092）に合併し解散,2015-10-05,1,,,,,チバセイサクジョ,0
298,2010802017619,登記記録の閉鎖等,0,2022-10-17,2022-10-05,有限会社百々,,有限会社,東京都,大田区,萩中１丁目３番２１号エリール三尾１Ｆ,,13,111,1440047,,,2022-10-05,清算の結了等,,,2015-10-05,1,,,,,モモ,0
307,2011001093443,登記記録の閉鎖等,0,2022-10-17,2022-10-03,飯島商事株式会社,,株式会社,東京都,渋谷区,道玄坂１丁目３番１号,,13,113,1500043,,,2022-10-03,合併による解散等,2011001002057,令和４年１０月１日東京都渋谷区道玄坂一丁目３番１号飯島興業株式会社（2011001002057）に合併し解散,2015-10-05,1,,,,,イイジマショウジ,0
330,2013301030679,登記記録の閉鎖等,0,2022-10-17,2022-10-12,ＳＥＡＲＣＨ株式会社,,株式会社,東京都,江戸川区,南小岩８丁目１０番１５－ＩＩ－２０１号,00056547,13,123,1330056,,,2022-10-12,清算の結了等,,,2015-10-05,1,,,,,サーチ,0
337,2020001084914,登記記録の閉鎖等,0,2022-10-17,2022-10-06,株式会社ＰＫテクノ川崎,,株式会社,神奈川県,川崎市川崎区,塩浜１丁目１番１号,,14,131,2100826,,,2022-10-06,清算の結了等,,,2015-10-05,1,,,,,ピーケーテクノカワサキ,0
352,2021001022459,登記記録の閉鎖等,0,2022-10-17,2022-10-11,株式会社開発技研,,株式会社,神奈川県,秦野市,曽屋字曽屋原１２５番地,,14,211,2570031,,,2022-10-11,清算の結了等,,,2015-10-05,1,,,,,,0
355,2021003008068,登記記録の閉鎖等,0,2022-10-17,2022-09-15,合同会社ライズ,,合同会社,神奈川県,海老名市,上郷１丁目２５番１８号,,14,215,2430434,,,2022-09-15,清算の結了等,,,2019-01-22,1,,,,,ライズ,0
365,2030003010586,登記記録の閉鎖等,0,2022-10-17,2022-10-11,ＶＥＳ合同会社,,合同会社,群馬県,館林市,羽附町１７３３番地の２６,,10,207,3740011,,,2022-10-11,清算の結了等,,,2017-08-02,1,,,,,ヴェス,0
381,2050002003234,登記記録の閉鎖等,0,2022-10-17,2022-10-06,有限会社マドカ設備工業,,有限会社,茨城県,水戸市,城東５丁目１４番６号,,08,201,3100012,,,2022-10-06,清算の結了等,,,2015-10-05,1,,,,,マドカセツビコウギョウ,0
384,2060001018678,登記記録の閉鎖等,0,2022-10-17,2022-10-07,三友工業株式会社,,株式会社,栃木県,足利市,小俣町８１３番地７,,09,202,3260141,,,2022-10-07,清算の結了等,,,2015-10-05,1,,,,,サンユウコウギョウ,0
400,2080003002422,登記記録の閉鎖等,0,2022-10-17,2022-10-13,ケイエーワークス合同会社,,合同会社,静岡県,静岡市駿河区,西中原２丁目４番１０号２階,,22,102,4228053,,,2022-10-13,清算の結了等,,,2020-04-30,1,,,,,ケイエーワークス,0
403,2080401002131,登記記録の閉鎖等,0,2022-10-17,2022-10-11,株式会社ジエイ・エス・イー,,株式会社,静岡県,浜松市中区,西丘町９０５番地の３,,22,131,4338116,,,2022-10-11,清算の結了等,,,2015-10-05,1,,,,,ジェイエスイー,0
413,2100002036740,登記記録の閉鎖等,0,2022-10-17,2022-10-13,有限会社大栄ホール,,有限会社,長野県,飯田市,中央通り３丁目８番地,,20,205,3950041,,,2022-10-13,清算の結了等,,,2015-10-05,1,,,,,ダイエイホール,0
416,2120001068329,登記記録の閉鎖等,0,2022-10-17,2022-10-13,株式会社ナニワ工業所,,株式会社,大阪府,高槻市,唐崎南３丁目５番６号,,27,207,5690833,,,2022-10-13,清算の結了等,,,2015-10-05,1,,,,,ナニワコウギョウショ,0
417,2120001129493,登記記録の閉鎖等,0,2022-10-17,2022-10-07,株式会社アイソレーションユニット,,株式会社,大阪府,大阪市西区,阿波座１丁目９番１号大槻ビル２階,,27,106,5500011,,,2022-10-07,清算の結了等,,,2015-10-05,1,,,,,アイソレーションユニット,0
458,2150002009056,登記記録の閉鎖等,0,2022-10-17,2022-10-12,有限会社西和サービス,,有限会社,奈良県,香芝市,旭ケ丘１丁目１０番地の１５,,29,210,6390266,,,2022-10-12,清算の結了等,,,2015-10-05,1,,,,,セイワサービス,0
465,2170002002918,登記記録の閉鎖等,0,2022-10-17,2022-10-12,有限会社日勢鉄筋,,有限会社,和歌山県,和歌山市,紀三井寺５３６番地,,30,201,6410012,,,2022-10-12,清算の結了等,,,2015-10-05,1,,,,,ニッセイテッキン,0
472,2180001090186,登記記録の閉鎖等,0,2022-10-17,2022-10-06,フィリックスホールセール株式会社,,株式会社,愛知県,名古屋市中村区,名駅１丁目１番１号ＪＰタワー名古屋１５Ｆ,,23,105,4500002,,,2022-10-06,合併による解散等,4180001068305,令和４年１０月１日名古屋市中村区名駅一丁目１番１号ＪＰタワー名古屋１５Ｆフィリックス株式会社（4180001068305）に合併し解散,2015-10-05,1,,,,,フィリックスホールセール,0
482,2180002087710,登記記録の閉鎖等,0,2022-10-17,2022-10-07,有限会社サクラ,,有限会社,愛知県,東海市,名和町二三ノ井上３４番地３,,23,222,4760002,,,2022-10-07,清算の結了等,,,2015-10-05,1,,,,,サクラ,0
487,2180302025725,登記記録の閉鎖等,0,2022-10-17,2022-10-05,有限会社マザーズキッチン,,有限会社,愛知県,豊田市,明和町７丁目３８番地６,,23,211,4710825,,,2022-10-05,清算の結了等,,,2015-10-05,1,,,,,マザーズキッチン,0
497,2230001014057,登記記録の閉鎖等,0,2022-10-17,2022-10-12,エコ財務株式会社,,株式会社,富山県,魚津市,住吉１６３６番地,,16,204,9370851,,,2022-10-12,清算の結了等,,,2015-10-05,1,,,,,エコザイム,0
513,2290001068799,登記記録の閉鎖等,0,2022-10-17,2022-10-07,株式会社プラシャル,,株式会社,福岡県,福岡市博多区,博多駅東１丁目１２番１７号オフィスニューガイア博多駅前３Ｆ,,40,132,8120013,,,2022-10-07,清算の結了等,,,2015-10-05,1,,,,,,0
535,2370001012030,登記記録の閉鎖等,0,2022-10-17,2022-10-11,株式会社ナカノサービス,,株式会社,宮城県,仙台市宮城野区,中野字柳原２６番地１７,,04,102,9830013,,,2022-10-11,合併による解散等,1011701014294,令和４年１０月１日東京都江戸川区中葛西三丁目１８番５号株式会社ナカノ商会（1011701014294）に合併し解散,2015-10-05,1,,,,,ナカノサービス,0
537,2370102002046,登記記録の閉鎖等,0,2022-10-17,2022-10-04,有限会社谷津自動車整備工場,,有限会社,宮城県,角田市,佐倉字八枚田３８番地,,04,208,9811522,,,2022-10-04,清算の結了等,,,2015-10-05,1,,,,,ヤツジドウシャセイビコウジョウ,0
538,2380001011403,登記記録の閉鎖等,0,2022-10-17,2022-10-06,株式会社アラ商会,,株式会社,福島県,須賀川市,大黒町２７６番地,,07,207,9620023,,,2022-10-06,清算の結了等,,,2015-10-05,1,,,,,アラショウカイ,0
539,2380002002574,登記記録の閉鎖等,0,2022-10-17,2022-10-06,有限会社中屋酒店,,有限会社,福島県,福島市,置賜町４番２１号,,07,201,9608034,,,2022-10-06,清算の結了等,,,2015-10-05,1,,,,,ナカヤサケテン,0
547,2420002005993,登記記録の閉鎖等,0,2022-10-17,2022-10-07,有限会社アスク,,有限会社,青森県,八戸市,根城１丁目３４番１４号,,02,203,0391166,,,2022-10-07,清算の結了等,,,2015-10-05,1,,,,,アスク,0
548,2420002010754,登記記録の閉鎖等,0,2022-10-17,2022-10-11,有限会社讃設計,,有限会社,青森県,八戸市,下長１丁目１６番２２号,,02,203,0391164,,,2022-10-11,清算の結了等,,,2015-10-05,1,,,,,サンセッケイ,0
550,2430001015662,登記記録の閉鎖等,0,2022-10-17,2022-10-04,株式会社ポズプロジェクト,,株式会社,北海道,札幌市東区,東苗穂八条３丁目８番５号,,01,103,0070808,,,2022-10-04,清算の結了等,,,2015-10-05,1,,,,,ポズプロジェクト,0
560,2470001013266,登記記録の閉鎖等,0,2022-10-17,2022-10-13,さくら利光株式会社,,株式会社,香川県,高松市,三谷町５０６５番地６,,37,201,7610450,,,2022-10-13,清算の結了等,,,2015-10-05,1,,,,,サクラリコウ,0
597,3010405018765,登記記録の閉鎖等,0,2022-10-17,2022-09-27,一般社団法人Ｏｓｔｅｎｄ,,その他の設立登記法人,東京都,港区,虎ノ門５丁目１番４号,,13,103,1050001,,,2022-09-27,清算の結了等,,,2020-05-21,1,,,,,オーステンデ,0
611,3010901021669,登記記録の閉鎖等,0,2022-10-17,2022-10-11,ＥＣＯＭＯ株式会社,,株式会社,東京都,世田谷区,野毛２丁目１２番１１号,,13,112,1580092,,,2022-10-11,清算の結了等,,,2015-10-05,1,,,,,エコモ,0
622,3011003002698,登記記録の閉鎖等,0,2022-10-17,2022-10-03,合同会社ラ・プリューム,,合同会社,東京都,渋谷区,神宮前３丁目３４番９号,,13,113,1500001,,,2022-10-03,清算の結了等,,,2015-10-05,1,,,,,ラプリューム,0
641,3011805000759,登記記録の閉鎖等,0,2022-10-17,2022-10-11,医療法人社団高綾会,,その他の設立登記法人,東京都,足立区,綾瀬２丁目２６番１５号第５鳥塚ビル１０１号室,,13,121,1200005,,,2022-10-11,清算の結了等,,,2015-10-05,1,,,,,コウリョウカイ,0
656,3020001076448,登記記録の閉鎖等,0,2022-10-17,2022-10-05,頌栄化成工業株式会社,,株式会社,神奈川県,川崎市川崎区,大川町１１番１０号,,14,131,2100858,,,2022-10-05,清算の結了等,,,2015-10-05,1,,,,,ショウエイカセイコウギョウ,0
670,3020002043166,登記記録の閉鎖等,0,2022-10-17,2022-10-06,有限会社新和海事,,有限会社,神奈川県,横浜市旭区,上白根２丁目５５番６号,,14,112,2410002,,,2022-10-06,清算の結了等,,,2015-10-05,1,,,,,シンワカイジ,0
689,3040002037562,登記記録の閉鎖等,0,2022-10-17,2022-10-05,有限会社飯塚工業,,有限会社,千葉県,鎌ケ谷市,丸山１丁目１５番３２号,,12,224,2730103,,,2022-10-05,清算の結了等,,,2015-10-05,1,,,,,イイヅカコウギョウ,0
693,3040003006302,登記記録の閉鎖等,0,2022-10-17,2022-10-03,合同会社コロナ,,合同会社,千葉県,習志野市,谷津１丁目１１番８号坂東ビル２Ａ,,12,216,2750026,,,2022-10-03,合併による解散等,6040001075841,令和４年１０月１日千葉県習志野市谷津一丁目１８番４２号株式会社駒井会計コンサルタント（6040001075841）に合併し解散,2015-10-05,1,,,,,コロナ,0
710,3070002034177,登記記録の閉鎖等,0,2022-10-17,2022-10-05,有限会社しんえい設備,,有限会社,群馬県,邑楽郡板倉町,大字岩田７９２番地,,10,521,3740133,,,2022-10-05,清算の結了等,,,2015-10-05,1,,,,,シンエイセツビ,0
713,3080401011701,登記記録の閉鎖等,0,2022-10-17,2022-10-14,ＫＩＮＡＲＩＳ株式会社,,株式会社,静岡県,浜松市東区,恒武町１６１番地１号,,22,132,4313108,,,2022-10-14,清算の結了等,,,2015-10-05,1,,,,,キナリズ,0
715,3080402009273,登記記録の閉鎖等,0,2022-10-17,2022-10-12,有限会社佐原新聞店,,有限会社,静岡県,湖西市,鷲津２４８９番地の１,,22,221,4310431,,,2022-10-12,清算の結了等,,,2015-10-05,1,,,,,サハラシンブンテン,0
718,3100001006644,登記記録の閉鎖等,0,2022-10-17,2022-10-13,株式会社葛田労務管理事務所,00069195,株式会社,長野県,長野市,大字穂保９６３番地,,20,201,3810003,,,2022-10-13,清算の結了等,,,2015-10-05,1,,,,,カツラダロウムカンリジムショ,0
729,3110002002864,登記記録の閉鎖等,0,2022-10-17,2022-10-11,有限会社サンプロジェクト,,有限会社,新潟県,新潟市西区,立仏４３番地５,,15,107,9501103,,,2022-10-11,清算の結了等,,,2015-10-05,1,,,,,サンプロジェクト,0
732,3110002031995,登記記録の閉鎖等,0,2022-10-17,2022-10-14,有限会社あおぞら,,有限会社,新潟県,見附市,庄川町８５２番地１,,15,211,9540016,,,2022-10-14,合併による解散等,3110001006156,令和４年１０月１日新潟市中央区下大川前通四ノ町２１８６番地株式会社はあとふるあたご（3110001006156）に合併し解散,2015-10-05,1,,,,,アオゾラ,0
744,3120002031730,登記記録の閉鎖等,0,2022-10-17,2022-10-14,有限会社寺町不動産,,有限会社,大阪府,大阪市北区,西天満５丁目１３番７号,,27,127,5300047,,,2022-10-14,清算の結了等,,,2015-10-05,1,,,,,テラマチフドウサン,0
783,3180302018835,登記記録の閉鎖等,0,2022-10-17,2022-10-03,有限会社日笠山建装,,有限会社,愛知県,知立市,来迎寺町南天白３番地７,,23,225,4720002,,,2022-10-03,清算の結了等,,,2015-10-05,1,,,,,ヒガサヤマケンソウ,0
792,3240002046097,登記記録の閉鎖等,0,2022-10-17,2022-10-04,有限会社瀬尾鐵工所,,有限会社,広島県,神石郡神石高原町,小畠２４５７番地,,34,545,7201522,,,2022-10-04,清算の結了等,,,2015-10-05,1,,,,,セオテッコウショ,0
802,3290001077510,登記記録の閉鎖等,0,2022-10-17,2022-10-07,ガイドブック株式会社,,株式会社,福岡県,福岡市博多区,博多駅東１丁目１２番１７号オフィスニューガイア博多駅前３Ｆ,,40,132,8120013,,,2022-10-07,清算の結了等,,,2017-04-21,1,,,,,,0
810,3290002046407,登記記録の閉鎖等,0,2022-10-17,2022-10-07,有限会社大扇,,有限会社,福岡県,嘉麻市,上山田８６番地の１２１,,40,227,8210012,,,2022-10-07,清算の結了等,,,2015-10-05,1,,,,,ダイセン,0
813,3290801004201,登記記録の閉鎖等,0,2022-10-17,2022-10-14,ディー・エー・ピー・テクノロジー株式会社,,株式会社,福岡県,北九州市戸畑区,牧山５丁目１番１号,,40,105,8040053,,,2022-10-14,清算の結了等,,,2015-10-05,1,,,,,ディーエーピーテクノロジー,0
832,3370001041342,登記記録の閉鎖等,0,2022-10-17,2022-10-06,株式会社エムクレファイツ,,株式会社,福岡県,福岡市博多区,博多駅東２丁目８番３号,,40,132,8120013,,,2022-10-06,清算の結了等,,,2017-04-25,1,,,,,,0
835,3380001013927,登記記録の閉鎖等,0,2022-10-17,2022-10-05,丸広工業株式会社,,株式会社,福島県,いわき市,小名浜愛宕上１番地の２,,07,204,9718166,,,2022-10-05,清算の結了等,,,2015-10-05,1,,,,,マルヒロコウギョウ,0
852,3480001002589,登記記録の閉鎖等,0,2022-10-17,2022-10-12,日本フードパッカー四国株式会社,,株式会社,徳島県,名西郡石井町,高川原字高川原８３８番地の１,,36,341,7793223,,,2022-10-12,合併による解散等,9420001011573,令和４年１０月１日青森県上北郡おいらせ町松原二丁目１３２番地３５日本フードパッカー株式会社（9420001011573）に合併し解散,2015-10-05,1,,,,,ニホンフードパッカーシコク,0
862,4010001203638,登記記録の閉鎖等,0,2022-10-17,2022-10-07,ＡＩＭＯＲＥＳ株式会社,,株式会社,東京都,中央区,日本橋蛎殻町１丁目３番５号共同ビル２階２３号,,13,102,1030014,,,2022-10-07,清算の結了等,,,2019-09-02,1,,,,,アイモレス,0
900,4011003011368,登記記録の閉鎖等,0,2022-10-17,2022-10-04,合同会社シート,,合同会社,東京都,目黒区,大橋２丁目１６番３３号,,13,110,1530044,,,2022-10-04,清算の結了等,,,2020-07-06,1,,,,,シート,0
918,4011701020380,登記記録の閉鎖等,0,2022-10-17,2022-10-11,株式会社坂本土地建物,,株式会社,東京都,江戸川区,平井５丁目１３－８,,13,123,1320035,,,2022-10-11,清算の結了等,,,2016-11-21,1,,,,,サカモトトチタテモノ,0
920,4011702002519,登記記録の閉鎖等,0,2022-10-17,2022-10-11,有限会社落合プレス工業所,,有限会社,東京都,江戸川区,大杉４丁目２８番５号,,13,123,1320022,,,2022-10-11,清算の結了等,,,2015-10-05,1,,,,,オチアイプレスコウギョウショ,0
936,4020001090084,登記記録の閉鎖等,0,2022-10-17,2022-10-06,株式会社ＰＫエンジニアリング,,株式会社,神奈川県,川崎市川崎区,塩浜１丁目１番１号,,14,131,2100826,,,2022-10-06,清算の結了等,,,2015-10-05,1,,,,,ピーケーエンジニアリング,0
938,4020001122011,登記記録の閉鎖等,0,2022-10-17,2022-10-05,株式会社ＫＡＺＵプロ,,株式会社,神奈川県,横浜市神奈川区,六角橋３丁目２４番１８号,,14,102,2210802,,,2022-10-05,清算の結了等,,,2017-06-29,1,,,,,カズプロ,0
965,4040002073375,登記記録の閉鎖等,0,2022-10-17,2022-10-05,有限会社産建,,有限会社,千葉県,市原市,五井西２丁目１４番地１４,,12,219,2900038,,,2022-10-05,清算の結了等,,,2015-10-05,1,,,,,サンケン,0
979,4080101013492,登記記録の閉鎖等,0,2022-10-17,2022-10-12,三協美術印刷株式会社,,株式会社,静岡県,伊東市,玖須美元和田７３４番地の９９,,22,208,4140045,,,2022-10-12,清算の結了等,,,2015-10-05,1,,,,,サンキョウビジュツインサツ,0
982,4080403000296,登記記録の閉鎖等,0,2022-10-17,2022-10-11,合名会社峰技研,,合名会社,静岡県,浜松市西区,古人見町１５３８番地３３,,22,133,4311113,,,2022-10-11,清算の結了等,,,2015-10-05,1,,,,,ミネギケン,0
983,4080405007208,登記記録の閉鎖等,0,2022-10-17,2022-10-04,東遠建設事業協同組合,,その他の設立登記法人,静岡県,御前崎市,池新田７５５６番地の１,,22,223,4371612,,,2022-10-04,清算の結了等,,,2019-12-27,1,,,,,トウエンケンセツ,0
989,4110001018571,登記記録の閉鎖等,0,2022-10-17,2022-10-11,株式会社ナスカ,,株式会社,新潟県,新発田市,下小中山３６４番地１,,15,206,9592477,,,2022-10-11,清算の結了等,,,2015-10-05,1,,,,,ナスカ,0
992,4120001019420,登記記録の閉鎖等,0,2022-10-17,2022-10-11,株式会社ネクステック,,株式会社,大阪府,大阪市北区,大深町３番１号,,27,127,5300011,,,2022-10-11,合併による解散等,5010001118067,令和４年１０月１日東京都中央区日本橋三丁目１０番５号株式会社トータル都市整備（5010001118067）に合併し解散,2015-10-05,1,,,,,ネクステック,0
998,4120001152948,登記記録の閉鎖等,0,2022-10-17,2022-10-07,株式会社ファミリアー,,株式会社,大阪府,寝屋川市,本町１番３号,,27,215,5720832,,,2022-10-07,清算の結了等,,,2015-10-05,1,,,,,ファミリアー,0
1004,4120102018560,登記記録の閉鎖等,0,2022-10-17,2022-10-14,有限会社アイジャパン,,有限会社,大阪府,藤井寺市,国府１丁目６番３５号,,27,226,5830006,,,2022-10-14,清算の結了等,,,2015-10-05,1,,,,,アイジャパン,0
1031,4150002007231,登記記録の閉鎖等,0,2022-10-17,2022-10-12,有限会社花の工房ニシウラ,,有限会社,奈良県,宇陀市,榛原あかね台１丁目２０番の８,,29,212,6330256,,,2022-10-12,清算の結了等,,,2015-10-05,1,,,,,ハナノコウボウニシウラ,0
1035,4180001023532,登記記録の閉鎖等,0,2022-10-17,2022-10-06,フィリックスコーワ株式会社,,株式会社,愛知県,名古屋市天白区,焼山２丁目４０６番地,,23,116,4680002,,,2022-10-06,合併による解散等,4180001068305,令和４年１０月１日名古屋市中村区名駅一丁目１番１号ＪＰタワー名古屋１５Ｆフィリックス株式会社（4180001068305）に合併し解散,2015-10-05,1,,,,,フィリックスコーワ,0
1038,4180001042045,登記記録の閉鎖等,0,2022-10-17,2022-10-04,株式会社和興,,株式会社,愛知県,名古屋市中区,栄３丁目１１番１号,,23,106,4600008,,,2022-10-04,合併による解散等,7180001004364,令和４年１０月１日名古屋市千種区東山元町二丁目５３番地の２精研商事株式会社（7180001004364）に合併し解散,2015-10-05,1,,,,,ワコウ,0
1039,4180001071060,登記記録の閉鎖等,0,2022-10-17,2022-10-05,プラスアセット不動産株式会社,,株式会社,愛知県,長久手市,杁ケ池８０３番地,,23,238,4801116,,,2022-10-05,清算の結了等,,,2015-10-05,1,,,,,プラスアセットフドウサン,0
1056,4180302019725,登記記録の閉鎖等,0,2022-10-17,2022-10-05,有限会社八橋電気工事,,有限会社,愛知県,知立市,八橋町山田谷１９番地６,,23,225,4720001,,,2022-10-05,清算の結了等,,,2015-10-05,1,,,,,ヤツハシデンキコウジ,0
1057,4180305008642,登記記録の閉鎖等,0,2022-10-17,2022-10-07,特定非営利活動法人若者自立支援塾ＯＮＥ　ＳＴＥＰ,,その他の設立登記法人,愛知県,西尾市,一色町佐久島東屋敷３７番地,,23,213,4440416,,,2022-10-07,清算の結了等,,,2017-04-13,1,,,,,ワカモノジリツシエンジュクワンステップ,0
1060,4200001028842,登記記録の閉鎖等,0,2022-10-17,2022-10-13,株式会社まさむら,,株式会社,岐阜県,瑞浪市,稲津町小里２０９３番地の１,,21,208,5096103,,,2022-10-13,清算の結了等,,,2015-10-05,1,,,,,マサムラ,0
1064,4230005003756,登記記録の閉鎖等,0,2022-10-17,2022-10-13,嘉例沢イワナ漁業生産組合,,その他の設立登記法人,富山県,黒部市,嘉例沢１５２６番地の１,,16,207,9380814,,,2022-10-13,清算の結了等,,,2015-10-05,1,,,,,カレイサワイワナ,0
1072,4260002029438,登記記録の閉鎖等,0,2022-10-17,2022-10-13,有限会社マツナガ電器,,有限会社,岡山県,津山市,国分寺６０５番地の７,,33,203,7080843,,,2022-10-13,清算の結了等,,,2015-10-05,1,,,,,マツナガデンキ,0
1074,4260002032086,登記記録の閉鎖等,0,2022-10-17,2022-10-13,有限会社森友不動産,,有限会社,岡山県,備前市,日生町寒河２３６４番地,,33,211,7013202,,,2022-10-13,清算の結了等,,,2015-10-05,1,,,,,モリトモフドウサン,0
1084,4290801005198,登記記録の閉鎖等,0,2022-10-17,2022-10-13,関門商事株式会社,,株式会社,福岡県,北九州市門司区,新開１番９号,,40,101,8010885,,,2022-10-13,清算の結了等,,,2015-10-05,1,,,,,カンモンショウジ,0
1090,4340002018003,登記記録の閉鎖等,0,2022-10-17,2022-10-14,有限会社服部ビル,,有限会社,鹿児島県,いちき串木野市,旭町１２２番地,,46,219,8960015,,,2022-10-14,清算の結了等,,,2015-10-05,1,,,,,ハットリビル,0
1104,4370101001617,登記記録の閉鎖等,0,2022-10-17,2022-10-04,株式会社建設ネットワーク,,株式会社,宮城県,柴田郡柴田町,大字船岡字若葉町１７番地の２,,04,323,9891606,,,2022-10-04,清算の結了等,,,2015-10-05,1,,,,,ケンセツネットワーク,0
1105,4370102000808,登記記録の閉鎖等,0,2022-10-17,2022-10-05,有限会社アール美容室,,有限会社,宮城県,白石市,字兎作３３番地８,00082563,04,206,9890228,,,2022-10-05,清算の結了等,,,2015-10-05,1,,,,,アールビヨウシツ,0
1106,4370201003091,登記記録の閉鎖等,0,2022-10-17,2022-10-03,くりはら振興株式会社,,株式会社,宮城県,栗原市,志波姫新熊谷２７９番地２,,04,213,9895612,,,2022-10-03,合併による解散等,9370201003054,令和４年１０月１日宮城県栗原市栗駒沼倉耕英東５０番地の１株式会社ゆめぐり（9370201003054）に合併し解散,2015-10-05,1,,,,,クリハラシンコウ,0
1119,4430002010982,登記記録の閉鎖等,0,2022-10-17,2022-10-03,有限会社西糧,,有限会社,北海道,札幌市東区,本町一条４丁目７番３号,,01,103,0650041,,,2022-10-03,清算の結了等,,,2015-10-05,1,,,,,セイリョウ,0
1158,5010403024185,登記記録の閉鎖等,0,2022-10-17,2022-10-05,エストラスト合同会社,,合同会社,東京都,大田区,大森北４丁目３番１７号ホームズ丸岡１０２,,13,111,1430016,,,2022-10-05,清算の結了等,,,2020-11-25,1,,,,,エストラスト,0
1178,5011202004353,登記記録の閉鎖等,0,2022-10-17,2022-10-05,有限会社中野健康センター,,有限会社,東京都,中野区,中野２丁目２９番７号,,13,114,1640001,,,2022-10-05,清算の結了等,,,2015-10-05,1,,,,,ナカノケンコウセンター,0
1186,5011402000391,登記記録の閉鎖等,0,2022-10-17,2022-10-12,足利紙工有限会社,,有限会社,東京都,板橋区,東坂下２丁目２１番６号,,13,119,1740042,,,2022-10-12,清算の結了等,,,2015-10-05,1,,,,,アシカガシコウ,0
1196,5012301000755,登記記録の閉鎖等,0,2022-10-17,2022-10-11,株式会社ケイヒン園芸,,株式会社,東京都,町田市,鶴間５丁目４番３５号,,13,209,1940004,,,2022-10-11,清算の結了等,,,2015-10-05,1,,,,,ケイヒンエンゲイ,0
1206,5020003016565,登記記録の閉鎖等,0,2022-10-17,2022-10-06,合同会社小松ＦＰ事務所,,合同会社,神奈川県,川崎市中原区,木月１丁目８番３５号グリーネスハイム３Ｃ,,14,133,2110025,,,2022-10-06,清算の結了等,,,2019-08-26,1,,,,,コマツエフピージムショ,0
1215,5021005006579,登記記録の閉鎖等,0,2022-10-17,2022-10-07,特定非営利活動法人オール小田原ベースボールクラブ,,その他の設立登記法人,神奈川県,小田原市,南板橋２丁目２５０番地の２,,14,206,2500035,,,2022-10-07,清算の結了等,,,2015-10-05,1,,,,,オールオダワラベースボールクラブ,0
1223,5030001124170,登記記録の閉鎖等,0,2022-10-17,2022-10-03,シャフト・プラス株式会社,,株式会社,埼玉県,蕨市,中央１丁目１６番３４号,,11,223,3350004,,,2022-10-03,合併による解散等,4030001106442,令和４年１０月１日埼玉県川口市仲町１番１８号株式会社シャフト（4030001106442）に合併し解散,2018-02-06,1,,,,,シャフトプラス,0
1246,5060002014351,登記記録の閉鎖等,0,2022-10-17,2022-10-07,有限会社南エンジニアリング,,有限会社,栃木県,那須烏山市,興野１５７５番地,,09,215,3210611,,,2022-10-07,清算の結了等,,,2015-10-05,1,,,,,ミナミエンジニアリング,0
1257,5100005011300,登記記録の閉鎖等,0,2022-10-17,2022-10-12,一般社団法人長野音協,,その他の設立登記法人,長野県,長野市,西後町１５５２番地塩沢ビル,,20,201,3810000,,,2022-10-12,清算の結了等,,,2015-10-05,1,,,,,ナガノオンキョウ,0
1274,5120005006819,登記記録の閉鎖等,0,2022-10-17,2022-10-14,大阪府コインロッカー事業協同組合,,その他の設立登記法人,大阪府,大阪市西区,立売堀５丁目４番２号けやきビル３階,,27,106,5500012,,,2022-10-14,清算の結了等,,,2015-10-05,1,,,,,オオサカフコインロッカー,0
1300,5180001020504,登記記録の閉鎖等,0,2022-10-17,2022-10-05,日嶺産業株式会社,,株式会社,愛知県,名古屋市港区,藤前３丁目７０６番地,,23,111,4550855,,,2022-10-05,清算の結了等,,,2015-10-05,1,,,,,ニチレイサンギョウ,0
1301,5180001038158,登記記録の閉鎖等,0,2022-10-17,2022-10-04,株式会社ＬＣ,,株式会社,愛知県,名古屋市中村区,名駅３丁目２４番１４号,,23,105,4500002,,,2022-10-04,合併による解散等,7180001004364,令和４年１０月１日名古屋市千種区東山元町二丁目５３番地の２精研商事株式会社（7180001004364）に合併し解散,2015-10-05,1,,,,,エルシー,0
1305,5180001143445,登記記録の閉鎖等,0,2022-10-17,2022-10-06,株式会社ニューアイ,,株式会社,愛知県,名古屋市中川区,戸田２丁目１２０４番地,,23,110,4540962,,,2022-10-06,清算の結了等,,,2020-11-05,1,,,,,ニューアイ,0
1326,5210001001649,登記記録の閉鎖等,0,2022-10-17,2022-10-11,株式会社シミズ・エーティツール,,株式会社,福井県,福井市,西方２丁目２５番３０号,,18,201,9100855,,,2022-10-11,清算の結了等,,,2015-10-05,1,,,,,シミズエーティツール,0
1330,5220002004195,登記記録の閉鎖等,0,2022-10-17,2022-10-12,有限会社ナイス・ハウス,,有限会社,石川県,金沢市,入江２丁目３９７番地,,17,201,9218011,,,2022-10-12,清算の結了等,,,2015-10-05,1,,,,,ナイスハウス,0
1336,5240002030090,登記記録の閉鎖等,0,2022-10-17,2022-10-12,有限会社サロン・ド　ヤマグチ,,有限会社,広島県,三次市,十日市南３丁目１６番２５号,,34,209,7280014,,,2022-10-12,清算の結了等,,,2015-10-05,1,,,,,サロンドヤマグチ,0
1342,5290001036778,登記記録の閉鎖等,0,2022-10-17,2022-10-07,株式会社セ・ラ,,株式会社,福岡県,福津市,有弥の里２丁目３番地の１４,,40,224,8113211,,,2022-10-07,清算の結了等,,,2015-10-05,1,,,,,セラ,0
1357,5330002024744,登記記録の閉鎖等,0,2022-10-17,2022-10-06,有限会社モアレ,,有限会社,熊本県,宇土市,神馬町字舞出３２３番地１,,43,211,8690424,,,2022-10-06,清算の結了等,,,2015-10-05,1,,,,,モアレ,0
1384,5460001003109,登記記録の閉鎖等,0,2022-10-17,2022-10-11,株式会社鮎家北海道工場,00090927,株式会社,北海道,厚岸郡浜中町,暮帰別東３丁目３０番地,,01,663,0881524,,,2022-10-11,合併による解散等,9160001015725,令和４年１０月１日滋賀県大津市真野二丁目２４番１号株式会社鮎家（9160001015725）に合併し解散,2015-10-05,1,,,,,アユヤホッカイドウコウジョウ,0
1410,6010403022997,登記記録の閉鎖等,0,2022-10-17,2022-09-27,合同会社Ａｃｃｅｓｓ,,合同会社,東京都,港区,虎ノ門５丁目１番４号,,13,103,1050001,,,2022-09-27,清算の結了等,,,2020-05-21,1,,,,,アクセス,0
1413,6010503005662,登記記録の閉鎖等,0,2022-10-17,2022-10-13,合同会社ＮＥＯＮ,,合同会社,東京都,台東区,浅草橋１丁目４番２号,,13,106,1110053,,,2022-10-13,清算の結了等,,,2019-08-02,1,,,,,ネオン,0
1428,6011001140786,登記記録の閉鎖等,0,2022-10-17,2022-10-04,株式会社星Ｌａｂｏ,,株式会社,東京都,渋谷区,恵比寿南１丁目１４番９号アルティＵＮ３０２,,13,113,1500022,,,2022-10-04,清算の結了等,,,2021-06-01,1,,,,,ホシラボ,0
1436,6011101046611,登記記録の閉鎖等,0,2022-10-17,2022-10-13,エリエールビジネスサポート株式会社,,株式会社,東京都,豊島区,北大塚１丁目１３番４号,,13,116,1700004,,,2022-10-13,合併による解散等,5010001048842,令和４年１０月１日東京都中央区日本橋本町一丁目６番５号株式会社ＥＢＳ（5010001048842）に合併し解散,2015-10-05,1,,,,,エリエールビジネスサポート,0
1441,6011401012040,登記記録の閉鎖等,0,2022-10-17,2022-10-12,株式会社シマダ,,株式会社,東京都,板橋区,大谷口上町８６番１０号,,13,119,1730032,,,2022-10-12,清算の結了等,,,2015-10-05,1,,,,,,0
1451,6011802028354,登記記録の閉鎖等,0,2022-10-17,2022-10-11,株式会社ポイントマーケティング,,株式会社,東京都,足立区,江北２丁目９番９号,,13,121,1230872,,,2022-10-11,清算の結了等,,,2015-10-05,1,,,,,,0
1461,6020001093804,登記記録の閉鎖等,0,2022-10-17,2022-10-06,株式会社ハナショー,,株式会社,神奈川県,横浜市港南区,丸山台２丁目１３番１８号,,14,111,2330013,,,2022-10-06,清算の結了等,,,2015-10-05,1,,,,,ハナショー,0
1474,6020002101227,登記記録の閉鎖等,0,2022-10-17,2022-10-04,有限会社原保育園,,有限会社,神奈川県,川崎市中原区,上小田中２丁目２１番２９号,,14,133,2110053,,,2022-10-04,清算の結了等,,,2015-10-05,1,,,,,ハラホイクエン,0
1477,6020003013421,登記記録の閉鎖等,0,2022-10-17,2022-10-06,合同会社エス・ティー技研,,合同会社,神奈川県,横浜市鶴見区,梶山１丁目２０番１２号,,14,101,2300072,,,2022-10-06,清算の結了等,,,2017-10-17,1,,,,,エスティーギケン,0
1478,6021001022604,登記記録の閉鎖等,0,2022-10-17,2022-10-11,秦野工業株式会社,,株式会社,神奈川県,秦野市,曽屋字曽屋原１２５番地,,14,211,2570031,,,2022-10-11,清算の結了等,,,2015-10-05,1,,,,,,0
1482,6021002022925,登記記録の閉鎖等,0,2022-10-17,2022-10-07,有限会社中禮商事,00013215,有限会社,神奈川県,相模原市緑区,大島１１番地の１５,,14,151,2520135,,,2022-10-07,清算の結了等,,,2015-10-05,1,,,,,ナカレイショウジ,0
1483,6021002033765,登記記録の閉鎖等,0,2022-10-17,2022-10-11,有限会社龍信,,有限会社,神奈川県,厚木市,妻田北４丁目６番３３号,,14,212,2430812,,,2022-10-11,清算の結了等,,,2015-10-05,1,,,,,リュウシン,0
1484,6021002039011,登記記録の閉鎖等,0,2022-10-17,2022-10-11,有限会社宅石軌道工業,,有限会社,神奈川県,秦野市,堀西９０６番地,,14,211,2591331,,,2022-10-11,清算の結了等,,,2015-10-05,1,,,,,タクイシキドウコウギョウ,0
1486,6021002054992,登記記録の閉鎖等,0,2022-10-17,2022-10-11,有限会社物産館あしがらの里,,有限会社,神奈川県,南足柄市,関本９６１番地,,14,217,2500105,,,2022-10-11,清算の結了等,,,2015-10-05,1,,,,,,0
1499,6040001043113,登記記録の閉鎖等,0,2022-10-17,2022-10-11,株式会社成田自動車教習所,,株式会社,千葉県,成田市,花崎町７５０番地の１,,12,211,2860033,,,2022-10-11,合併による解散等,2010601026936,令和４年１０月１日東京都葛飾区高砂五丁目５４番１０号株式会社京成ドライビングスクール（2010601026936）に合併し解散,2015-10-05,1,,,,,ナリタジドウシャキョウシュウジョ,0
1525,6060003002965,登記記録の閉鎖等,0,2022-10-17,2022-10-07,栃洋企画合同会社,,合同会社,栃木県,栃木市,野中町１３６７番地７号グリーンジャケット３０２号室,,09,203,3280124,,,2022-10-07,清算の結了等,,,2018-11-08,1,,,,,,0
1527,6070001021446,登記記録の閉鎖等,0,2022-10-17,2022-10-04,新和警備株式会社,,株式会社,群馬県,太田市,牛沢町４２４番地,,10,205,3730833,,,2022-10-04,清算の結了等,,,2015-10-05,1,,,,,シンワケイビ,0
1531,6070005005866,登記記録の閉鎖等,0,2022-10-17,2022-10-05,太田南一番街商店街振興組合,,その他の設立登記法人,群馬県,太田市,浜町３番６号,,10,205,3730853,,,2022-10-05,清算の結了等,,,2015-10-05,1,,,,,,0
1545,6100002036605,登記記録の閉鎖等,0,2022-10-17,2022-10-13,有限会社セブン,,有限会社,長野県,飯田市,中央通り３丁目８番地,,20,205,3950041,,,2022-10-13,清算の結了等,,,2015-10-05,1,,,,,セブン,0
1548,6120001004338,登記記録の閉鎖等,0,2022-10-17,2022-10-14,株式会社丸高,,株式会社,大阪府,大阪市西成区,天下茶屋２丁目６番１０号,,27,122,5570014,,,2022-10-14,清算の結了等,,,2015-10-05,1,,,,,マルタカ,0
1566,6130001068290,登記記録の閉鎖等,0,2022-10-17,2022-10-05,株式会社フォルムトラスト,,株式会社,京都府,城陽市,平川中道表１８番地の２０,,26,207,6100101,,,2022-10-05,清算の結了等,,,2020-12-23,1,,,,,フォルムトラスト,0
1583,6180001069788,登記記録の閉鎖等,0,2022-10-17,2022-10-06,フィリックスリーシング株式会社,,株式会社,愛知県,名古屋市中村区,名駅１丁目１番１号ＪＰタワー名古屋１５Ｆ,,23,105,4500002,,,2022-10-06,合併による解散等,4180001068305,令和４年１０月１日名古屋市中村区名駅一丁目１番１号ＪＰタワー名古屋１５Ｆフィリックス株式会社（4180001068305）に合併し解散,2015-10-05,1,,,,,フィリックスリーシング,0
1584,6180001106384,登記記録の閉鎖等,0,2022-10-17,2022-10-07,株式会社晃隼屋の野菜,,株式会社,愛知県,西春日井郡豊山町,大字豊場字沢口３７番地,,23,342,4800202,,,2022-10-07,清算の結了等,,,2015-10-05,1,,,,,コウジュンヤノヤサイ,0
1595,6180002028479,登記記録の閉鎖等,0,2022-10-17,2022-10-03,有限会社富井工業,,有限会社,愛知県,名古屋市中村区,小鴨町１０７番地の５,,23,105,4530844,,,2022-10-03,合併による解散等,4180001031709,令和４年１０月１日名古屋市中村区小鴨町１０７番地の５富井商事株式会社（4180001031709）に合併し解散,2015-10-05,1,,,,,トミイコウギョウ,0
1605,6190001021038,登記記録の閉鎖等,0,2022-10-17,2022-10-12,株式会社しろがね,,株式会社,三重県,四日市市,本町５番１１号,,24,202,5100093,,,2022-10-12,清算の結了等,,,2015-10-05,1,,,,,シロガネ,0
1606,6200002008825,登記記録の閉鎖等,0,2022-10-17,2022-10-13,有限会社坂井田,,有限会社,岐阜県,岐阜市,柳津町高桑西２丁目９６番地,,21,201,5016122,,,2022-10-13,清算の結了等,,,2015-10-05,1,,,,,サカイダ,0
1607,6200002014336,登記記録の閉鎖等,0,2022-10-17,2022-10-13,有限会社サンアルファー,,有限会社,岐阜県,大垣市,林町２丁目８８番地３,,21,202,5030015,,,2022-10-13,清算の結了等,,,2015-10-05,1,,,,,サンアルファー,0
1610,6210002007405,登記記録の閉鎖等,0,2022-10-17,2022-10-12,有限会社山田縫製,,有限会社,福井県,あわら市,高塚第１２号５番地,,18,208,9190631,,,2022-10-12,清算の結了等,,,2015-10-05,1,,,,,ヤマダホウセイ,0
1614,6230001019275,登記記録の閉鎖等,0,2022-10-17,2022-10-14,株式会社Ｋ‐ＬＩＮＥ,,株式会社,富山県,富山市,上熊野２２５２番地５０,,16,201,9398166,,,2022-10-14,清算の結了等,,,2022-03-16,1,,,,,ケーライン,0
1624,6280005007346,登記記録の閉鎖等,0,2022-10-17,2022-10-13,一般社団法人ライフセルフケアコーチング協会,,その他の設立登記法人,島根県,出雲市,大社町北荒木１３９３番地１,,32,203,6990722,,,2022-10-13,清算の結了等,,,2020-04-21,1,,,,,ライフセルフケアコーチングキョウカイ,0
1644,6370202001324,登記記録の閉鎖等,0,2022-10-17,2022-10-04,有限会社桑村新聞店,,有限会社,宮城県,大崎市,松山千石字南亀田７５番地,,04,215,9871304,,,2022-10-04,清算の結了等,,,2015-10-05,1,,,,,クワムラシンブンテン,0
1645,6380001017644,登記記録の閉鎖等,0,2022-10-17,2022-10-05,東亜容器株式会社,,株式会社,福島県,会津若松市,八日町１番２６号,,07,202,9650046,,,2022-10-05,清算の結了等,,,2015-10-05,1,,,,,トウアヨウキ,0
1647,6380002001192,登記記録の閉鎖等,0,2022-10-17,2022-10-05,有限会社県北測量,,有限会社,福島県,福島市,東中央２丁目３番地の３,,07,201,9608071,,,2022-10-05,清算の結了等,,,2015-10-05,1,,,,,ケンポクソクリョウ,0
1650,6400002009150,登記記録の閉鎖等,0,2022-10-17,2022-10-12,有限会社エムアンドワイ,,有限会社,岩手県,北上市,村崎野１５地割５３７番地５,,03,206,0240004,,,2022-10-12,清算の結了等,,,2015-10-05,1,,,,,エムアンドワイ,0
1655,6430001064648,登記記録の閉鎖等,0,2022-10-17,2022-09-30,株式会社ＵＮＩＴＥＤ　ＦＡＲＭＳ,,株式会社,千葉県,四街道市,池花２丁目１６番８号,,12,228,2840014,,,2022-09-30,清算の結了等,,,2015-10-05,1,,,,,ユナイテッドファームズ,0
1662,6480002014572,登記記録の閉鎖等,0,2022-10-17,2022-10-13,有限会社上村建設,,有限会社,徳島県,美馬郡つるぎ町,半田字田井１６５番地の１,,36,468,7794402,,,2022-10-13,清算の結了等,,,2015-10-05,1,,,,,カミムラケンセツ,0
1666,7010001026796,登記記録の閉鎖等,0,2022-10-17,2022-10-13,株式会社ユーアイエス,,株式会社,神奈川県,横浜市青葉区,元石川町６４０９番地,,14,117,2250004,,,2022-10-13,合併による解散等,1010001008651,令和４年９月３０日東京都千代田区丸の内一丁目６番５号ウシオ電機株式会社（1010001008651）に合併し解散,2015-10-05,1,,,,,ユーアイエス,0
1668,7010001110897,登記記録の閉鎖等,0,2022-10-17,2022-10-07,山佐ＴＨＹ２リース株式会社,,株式会社,東京都,千代田区,丸の内３丁目１番１号東京共同会計事務所内,,13,101,1000005,,,2022-10-07,清算の結了等,,,2015-10-05,1,,,,,ヤマサティーエイチワイツーリース,0
1680,7010401047120,登記記録の閉鎖等,0,2022-10-17,2022-10-07,斗山インフラコアジャパン株式会社,,株式会社,東京都,千代田区,永田町２丁目１１番１号,,13,101,1000014,,,2022-10-07,清算の結了等,,,2015-10-05,1,,,,,トザンインフラコアジャパン,0
1681,7010401066731,登記記録の閉鎖等,0,2022-10-17,2022-10-12,ジャパンメンテナンスアンドリペア株式会社,,株式会社,東京都,中央区,新川１丁目２８番２４号,,13,102,1040033,,,2022-10-12,合併による解散等,5020001034288,令和４年１０月１日横浜市中区相生町六丁目１１３番地株式会社ユニエツクス・エンジニアリング（5020001034288）に合併し解散,2015-10-05,1,,,,,ジャパンメンテナンスアンドリペア,0
1690,7010801004753,登記記録の閉鎖等,0,2022-10-17,2022-10-06,株式会社山王酒販,,株式会社,東京都,大田区,山王３丁目５番１３号,,13,111,1430023,,,2022-10-06,清算の結了等,,,2015-10-05,1,,,,,サンノウシュハン,0
1699,7010901047553,登記記録の閉鎖等,0,2022-10-17,2022-10-11,株式会社ＵＴ　ＩＭＰＯＲＴ,,株式会社,東京都,世田谷区,代田６丁目２番１４号アップル・ハウス１０２,,13,112,1550033,,,2022-10-11,清算の結了等,,,2020-12-07,1,,,,,ユーティーインポート,0
1701,7010902026192,登記記録の閉鎖等,0,2022-10-17,2022-10-11,デガジェ有限会社,,有限会社,東京都,世田谷区,弦巻５丁目３３番２３－２０２号,,13,112,1540016,,,2022-10-11,清算の結了等,,,2015-10-05,1,,,,,,0
1712,7011101076426,登記記録の閉鎖等,0,2022-10-17,2022-10-07,株式会社グリーン・パシフィック,,株式会社,東京都,千代田区,神田錦町３丁目２２番地,,13,101,1010054,,,2022-10-07,合併による解散等,8013401001509,令和４年１０月１日東京都千代田区神田錦町三丁目２２番地パシフィックコンサルタンツ株式会社（8013401001509）に合併し解散,2016-03-24,1,,,,,グリーンパシフィック,0
1715,7011202001092,登記記録の閉鎖等,0,2022-10-17,2022-10-05,有限会社エム・ケイ・ムサシヤ,,有限会社,東京都,中野区,野方６丁目３２番４号,,13,114,1650027,,,2022-10-05,清算の結了等,,,2015-10-05,1,,,,,エムケイムサシヤ,0
1718,7011302016123,登記記録の閉鎖等,0,2022-10-17,2022-10-11,有限会社畠山設計,,有限会社,東京都,杉並区,和泉３丁目５４番１５号,,13,115,1680063,,,2022-10-11,清算の結了等,,,2015-10-05,1,,,,,ハタケヤマセッケイ,0
1743,7020001061058,登記記録の閉鎖等,0,2022-10-17,2022-10-06,まごころ内装株式会社,,株式会社,神奈川県,横浜市都筑区,茅ケ崎東３丁目６番２７号,,14,118,2240033,,,2022-10-06,清算の結了等,,,2015-10-05,1,,,,,マゴコロナイソウ,0
1752,7020003011622,登記記録の閉鎖等,0,2022-10-17,2022-10-06,セーラムグレン合同会社,,合同会社,神奈川県,横浜市港北区,菊名５丁目１０番５号,,14,109,2220011,,,2022-10-06,清算の結了等,,,2016-08-02,1,,,,,セーラムグレン,0
1753,7020005002520,登記記録の閉鎖等,0,2022-10-17,2022-10-05,横浜市営繕協同組合,,その他の設立登記法人,神奈川県,横浜市港北区,大曽根３丁目１９番１４号,,14,109,2220003,,,2022-10-05,清算の結了等,,,2015-10-05,1,,,,,ヨコハマシエイゼン,0
1759,7021005010728,登記記録の閉鎖等,0,2022-10-17,2022-10-11,ＮＰＯ法人クリエイターズ・エンタテインメント,,その他の設立登記法人,神奈川県,厚木市,温水西１丁目２１番１８号,,14,212,2430039,,,2022-10-11,清算の結了等,,,2016-08-26,1,,,,,クリエイターズエンタテインメント,0
1767,7030005007130,登記記録の閉鎖等,0,2022-10-17,2022-10-04,特定非営利活動法人ＮＰＯ和会,,その他の設立登記法人,埼玉県,朝霞市,膝折町２丁目１２番５１号（株）マイカー三喜内,,11,227,3510014,,,2022-10-04,清算の結了等,,,2015-10-05,1,,,,,エヌピーオーヤワラギカイ,0
1798,7080401023247,登記記録の閉鎖等,0,2022-10-17,2022-10-11,株式会社ライツェント,,株式会社,静岡県,浜松市東区,中野町３１７番地の１アスモ開発ビル３Ｆ－Ａ,,22,132,4350004,,,2022-10-11,清算の結了等,,,2018-10-24,1,,,,,ライツェント,0
1799,7080402006688,登記記録の閉鎖等,0,2022-10-17,2022-10-12,有限会社美創,,有限会社,静岡県,浜松市中区,佐鳴台２丁目１番２１号,,22,131,4328021,,,2022-10-12,清算の結了等,,,2015-10-05,1,,,,,ビソウ,0
1821,7120005019232,登記記録の閉鎖等,0,2022-10-17,2022-10-12,一般社団法人Ｔｈｅ　Ｌｅａｄｉｎｇ　Ｅｄｇｅ　Ｊａｐａｎ,,その他の設立登記法人,愛知県,名古屋市中区,栄２丁目９番３０号,,23,106,4600008,,,2022-10-12,清算の結了等,,,2017-01-26,1,,,,,ザリーディングエッジジャパン,0
1826,7122001013986,登記記録の閉鎖等,0,2022-10-17,2022-10-11,株式会社アイユー,,株式会社,大阪府,東大阪市,水走１丁目１９番３４号,,27,227,5780921,,,2022-10-11,清算の結了等,,,2015-10-05,1,,,,,アイユー,0
1835,7140001043820,登記記録の閉鎖等,0,2022-10-17,2022-10-11,株式会社アミコエクセレント,,株式会社,兵庫県,高砂市,高砂町浜田町２丁目７番５２号,,28,216,6760022,,,2022-10-11,清算の結了等,,,2015-10-05,1,,,,,アミコエクセレント,0
1851,7180001012895,登記記録の閉鎖等,0,2022-10-17,2022-10-05,株式会社トーマック,,株式会社,愛知県,名古屋市北区,平安２丁目９番３２号,,23,103,4620819,,,2022-10-05,清算の結了等,,,2015-10-05,1,,,,,トーマック,0
1852,7180001045879,登記記録の閉鎖等,0,2022-10-17,2022-10-07,伸和包装資材株式会社,,株式会社,愛知県,北名古屋市,加島新田北浦２５番地,,23,234,4810044,,,2022-10-07,清算の結了等,,,2015-10-05,1,,,,,シンワホウソウシザイ,0
1868,7220001015423,登記記録の閉鎖等,0,2022-10-17,2022-10-12,株式会社渚建設,,株式会社,石川県,七尾市,矢田町弐四号白土１番地１０,,17,202,9260014,,,2022-10-12,清算の結了等,,,2015-10-05,1,,,,,ナギサケンセツ,0
1873,7240001035304,登記記録の閉鎖等,0,2022-10-17,2022-10-06,株式会社エポック・ミライ,,株式会社,山口県,防府市,大字台道５４番地１,,35,206,7471232,,,2022-10-06,清算の結了等,,,2015-10-05,1,,,,,エポックミライ,0
1883,7250002014669,登記記録の閉鎖等,0,2022-10-17,2022-10-11,有限会社三陽エフアールピー,,有限会社,山口県,周南市,孝田町３番１７号,,35,215,7450822,,,2022-10-11,清算の結了等,,,2015-10-05,1,,,,,,0
1889,7260001030600,登記記録の閉鎖等,0,2022-10-17,2022-10-14,株式会社ファーストメディカル,,株式会社,岡山県,真庭市,上河内４１０番地２,,33,214,7193121,,,2022-10-14,清算の結了等,,,2017-03-16,1,,,,,ファーストメディカル,0
1897,7290001058242,登記記録の閉鎖等,0,2022-10-17,2022-10-07,マクロス・レーベン株式会社,,株式会社,福岡県,福岡市中央区,天神２丁目８番３６号天神ＮＫビル４階,,40,133,8100001,,,2022-10-07,清算の結了等,,,2015-10-05,1,,,,,マクロスレーベン,0
1905,7290802001243,登記記録の閉鎖等,0,2022-10-17,2022-10-13,有限会社小野商店,,有限会社,福岡県,北九州市小倉南区,長行西３丁目９番１号,,40,107,8030272,,,2022-10-13,清算の結了等,,,2015-10-05,1,,,,,オノショウテン,0
1924,7370002000541,登記記録の閉鎖等,0,2022-10-17,2022-10-04,有限会社金田電気,,有限会社,宮城県,仙台市泉区,住吉台東３丁目１９番地の３,,04,105,9813222,,,2022-10-04,清算の結了等,,,2015-10-05,1,,,,,カネダデンキ,0
1925,7370301000028,登記記録の閉鎖等,0,2022-10-17,2022-09-30,東興業株式会社,,株式会社,宮城県,石巻市,吉野町２丁目５番２５号,,04,202,9860015,,,2022-09-30,清算の結了等,,,2015-10-05,1,,,,,アズマコウギョウ,0
1931,7420001012945,登記記録の閉鎖等,0,2022-10-17,2022-10-07,株式会社ＪＯＹ,,株式会社,青森県,弘前市,大字新寺町３９－９,,02,202,0368214,,,2022-10-07,清算の結了等,,,2015-10-05,1,,,,,ジョイ,0
1945,7440001005146,登記記録の閉鎖等,0,2022-10-17,2022-10-07,株式会社エーシーアイ・サービス,,株式会社,北海道,北斗市,久根別５丁目１９番１２号,,01,236,0490121,,,2022-10-07,清算の結了等,,,2015-10-05,1,,,,,エーシーアイサービス,0
1947,7470002007774,登記記録の閉鎖等,0,2022-10-17,2022-10-14,有限会社筒井木工,,有限会社,香川県,高松市,円座町６２１番地１,,37,201,7618044,,,2022-10-14,清算の結了等,,,2015-10-05,1,,,,,ツツイモッコウ,0
1959,8010001110896,登記記録の閉鎖等,0,2022-10-17,2022-10-07,山佐ＴＨＹ１リース株式会社,,株式会社,東京都,千代田区,丸の内３丁目１番１号東京共同会計事務所内,,13,101,1000005,,,2022-10-07,清算の結了等,,,2015-10-05,1,,,,,ヤマサティーエイチワイワンリース,0
1964,8010001164182,登記記録の閉鎖等,0,2022-10-17,2022-10-06,ＪｏｙＱｕｅｓｔ株式会社,,株式会社,東京都,世田谷区,南烏山１丁目１０番２５号,,13,112,1570062,,,2022-10-06,清算の結了等,,,2015-10-05,1,,,,,ジョイクエスト,0
1986,8010102001912,登記記録の閉鎖等,0,2022-10-17,2022-10-06,有限会社鎌田繁建設,,有限会社,東京都,八王子市,打越町１４４４番地の２,,13,201,1920911,,,2022-10-06,清算の結了等,,,2015-10-05,1,,,,,カマタシゲルケンセツ,0
1989,8010401147522,登記記録の閉鎖等,0,2022-10-17,2022-09-26,トンガリ株式会社,,株式会社,東京都,港区,浜松町２丁目２番１５号浜松町ダイヤビル２Ｆ,,13,103,1050013,,,2022-09-26,清算の結了等,,,2019-08-15,1,,,,,トンガリ,0
1991,8010403020454,登記記録の閉鎖等,0,2022-10-17,2022-09-28,Ａ．Ｉ．パートナーズ合同会社,,合同会社,東京都,港区,浜松町２丁目２番１５号浜松町ダイヤビル２階,,13,103,1050013,,,2022-09-28,清算の結了等,,,2019-03-28,1,,,,,エーアイパートナーズ,0
2045,8012801006786,登記記録の閉鎖等,0,2022-10-17,2022-10-06,株式会社酒井田設計事務所,,株式会社,東京都,東大和市,湖畔２丁目３５１番地の３９,,13,220,2070002,,,2022-10-06,清算の結了等,,,2015-10-05,1,,,,,サカイダセッケイジムショ,0
2050,8020001109590,登記記録の閉鎖等,0,2022-10-17,2022-10-03,株式会社みなと広告,,株式会社,神奈川県,横浜市西区,楠町八丁目６番ＫＭビル６階,,14,103,2200003,,,2022-10-03,合併による解散等,8020002022826,令和４年１０月１日神奈川県横浜市西区楠町八丁目６番ＫＭビル６階株式会社横浜通信社（8020002022826）に合併し解散,2015-10-05,1,,,,,ミナトコウコク,0
2068,8021002068396,登記記録の閉鎖等,0,2022-10-17,2022-10-12,株式会社ベガ,,株式会社,神奈川県,逗子市,久木６丁目６番２号,,14,208,2490001,,,2022-10-12,清算の結了等,,,2015-10-05,1,,,,,ベガ,0
2073,8030001087860,登記記録の閉鎖等,0,2022-10-17,2022-10-03,大起ソイル＆モイスチャー株式会社,,株式会社,埼玉県,行田市,谷郷２丁目１６番３号,,11,206,3610062,,,2022-10-03,合併による解散等,9030001062359,令和４年１０月１日埼玉県鴻巣市赤城台２１２番地８大起理化工業株式会社（9030001062359）に合併し解散,2015-10-05,1,,,,,ダイキソイルアンドモイスチャー,0
2080,8030002068100,登記記録の閉鎖等,0,2022-10-17,2022-10-04,金子建設有限会社,,有限会社,埼玉県,春日部市,大場１２１１番地,,11,214,3440021,,,2022-10-04,清算の結了等,,,2015-10-05,1,,,,,カネコケンセツ,0
2084,8040001000525,登記記録の閉鎖等,0,2022-10-17,2022-10-05,イセイ千葉販売株式会社,,株式会社,千葉県,千葉市中央区,道場北１丁目１１番２６号,,12,101,2600006,,,2022-10-05,清算の結了等,,,2015-10-05,1,,,,,イセイチバハンバイ,0
2085,8040001040208,登記記録の閉鎖等,0,2022-10-17,2022-10-12,株式会社ＭＣＣプランニング,,株式会社,千葉県,松戸市,新松戸東９番地１,,12,207,2700033,,,2022-10-12,合併による解散等,6010001216002,令和４年１０月１日東京都千代田区神田駿河台四丁目３番地株式会社ＭＣＣマネジメント（6010001216002）に合併し解散,2015-10-05,1,,,,,エムシーシープランニング,0
2089,8040003004879,登記記録の閉鎖等,0,2022-10-17,2022-10-12,合同会社エルム,,合同会社,千葉県,市川市,南八幡４丁目７番８号,,12,203,2720023,,,2022-10-12,合併による解散等,7040003001704,令和４年１０月１日東京都江戸川区南小岩七丁目２５番１３号３階合同会社ＦＩＶＥ　ＴＷＯ　ＦＩＶＥ（7040003001704）に合併し解散,2015-10-05,1,,,,,エルム,0
2092,8040003006396,登記記録の閉鎖等,0,2022-10-17,2022-10-03,株式会社アップフィールド,,株式会社,千葉県,習志野市,谷津１丁目１１番８号坂東ビル２Ａ,,12,216,2750026,,,2022-10-03,合併による解散等,6040001075841,令和４年１０月１日千葉県習志野市谷津一丁目１８番４２号株式会社駒井会計コンサルタント（6040001075841）に合併し解散,2015-10-05,1,,,,,アップフィールド,0
2115,8080101022151,登記記録の閉鎖等,0,2022-10-17,2022-10-11,株式会社プレジャーサービス,,株式会社,静岡県,沼津市,浅間町１２メゾン・グランツ沼津浅間１Ｆ,,22,203,4100886,,,2022-10-11,合併による解散等,1080102010038,令和４年１０月１日静岡県沼津市浅間町１２番地メゾン・グランツ沼津浅間１Ｆ株式会社オールインワン（1080102010038）に合併し解散,2020-11-17,1,,,,,プレジャーサービス,0
2126,8100002021803,登記記録の閉鎖等,0,2022-10-17,2022-10-13,有限会社ミヤヒロ,,有限会社,長野県,松本市,井川城３丁目１０番５６号,,20,202,3900831,,,2022-10-13,清算の結了等,,,2015-10-05,1,,,,,ミヤヒロ,0
2130,8120001023055,登記記録の閉鎖等,0,2022-10-17,2022-10-13,株式会社キョクヨウ,,株式会社,大阪府,大阪市西区,南堀江２丁目１番１号,,27,106,5500015,,,2022-10-13,合併による解散等,8010501017063,令和４年１０月１日東京都台東区台東二丁目２７番３号株式会社キステム（8010501017063）に合併し解散,2015-10-05,1,,,,,キョクヨウ,0
2132,8120001036206,登記記録の閉鎖等,0,2022-10-17,2022-10-03,株式会社菱和,,株式会社,大阪府,大阪市福島区,福島６丁目１３番１４号,,27,103,5530003,,,2022-10-03,合併による解散等,8120001244956,令和４年１０月１日大阪市福島区福島六丁目１３番１４号メルコモビリティーソリューションズ株式会社（8120001244956）に合併し解散,2015-10-05,1,,,,,リョウワ,0
2133,8120001047830,登記記録の閉鎖等,0,2022-10-17,2022-10-13,株式会社麦プロダクション大阪,,株式会社,大阪府,豊中市,西緑丘３丁目１１番５－１０９号,,27,203,5600005,,,2022-10-13,清算の結了等,,,2015-10-05,1,,,,,ムギプロダクションオオサカ,0
2156,8140001062563,登記記録の閉鎖等,0,2022-10-17,2022-10-07,株式会社邦和建設,,株式会社,兵庫県,姫路市,夢前町前之庄６６番地,,28,201,6712103,,,2022-10-07,清算の結了等,,,2015-10-05,1,,,,,ホウワケンセツ,0
2204,8230002011386,登記記録の閉鎖等,0,2022-10-17,2022-10-13,有限会社千明,,有限会社,富山県,高岡市,早川２０８番地の６,,16,202,9330957,,,2022-10-13,清算の結了等,,,2015-10-05,1,,,,,センメイ,0
2208,8280002007933,登記記録の閉鎖等,0,2022-10-17,2022-10-13,有限会社トヨペットオート,,有限会社,島根県,大田市,温泉津町福光ロ２２３番地５,,32,205,6992514,,,2022-10-13,清算の結了等,,,2015-10-05,1,,,,,トヨペットオート,0
2210,8290001086424,登記記録の閉鎖等,0,2022-10-17,2022-10-11,株式会社ＴＥＮ,,株式会社,大分県,別府市,元町１３番２１号,,44,202,8740944,,,2022-10-11,清算の結了等,,,2019-09-05,1,,,,,テン,0
2235,8430001024600,登記記録の閉鎖等,0,2022-10-17,2022-10-14,株式会社ジャパ,,株式会社,北海道,札幌市中央区,南三条西４丁目８番地２,,01,101,0600063,,,2022-10-14,清算の結了等,,,2015-10-05,1,,,,,ジャパ,0
2245,8440001001045,登記記録の閉鎖等,0,2022-10-17,2022-10-11,株式会社関鐵工所,,株式会社,北海道,函館市,日乃出町１８番１９号,,01,202,0400022,,,2022-10-11,清算の結了等,,,2015-10-05,1,,,,,セキテッコウショ,0
2255,8500001019659,登記記録の閉鎖等,0,2022-10-17,2022-10-12,プラスホーム株式会社,,株式会社,愛媛県,今治市,南高下町１丁目３番１５号,,38,202,7940811,,,2022-10-12,清算の結了等,,,2016-03-01,1,,,,,プラスホーム,0
2256,8500002020962,登記記録の閉鎖等,0,2022-10-17,2022-10-11,石川海運有限会社,,有限会社,愛媛県,四国中央市,三島宮川３丁目４番１２号,,38,213,7990404,,,2022-10-11,清算の結了等,,,2015-10-05,1,,,,,イシカワカイウン,0
2257,8500003001524,登記記録の閉鎖等,0,2022-10-17,2022-10-13,合同会社セブン・ツールズ・ワークス,,合同会社,愛媛県,松山市,余戸中２丁目４番３１号フォルテコート松山南２０３号,,38,201,7900045,,,2022-10-13,清算の結了等,,,2015-10-05,1,,,,,セブンツールズワークス,0
2265,9010001136585,登記記録の閉鎖等,0,2022-10-17,2022-10-07,山佐ＢＡＷ１０リース株式会社,,株式会社,東京都,千代田区,丸の内３丁目１番１号東京共同会計事務所内,,13,101,1000005,,,2022-10-07,清算の結了等,,,2015-10-05,1,,,,,ヤマサビーエーダブリュージュウリース,0
2268,9010001204730,登記記録の閉鎖等,0,2022-10-17,2022-09-27,エリクサー株式会社,,株式会社,東京都,港区,六本木３丁目４番３３号マルマン六本木ビル３階,,13,103,1060032,,,2022-09-27,清算の結了等,,,2019-10-16,1,,,,,エリクサー,0
2288,9010501021106,登記記録の閉鎖等,0,2022-10-17,2022-09-01,株式会社しんぷるえむ,,株式会社,東京都,台東区,上野７丁目９番９－２０１号,,13,106,1100005,,,2022-09-01,清算の結了等,,,2015-10-05,1,,,,,シンプルエム,0
2297,9010701033504,登記記録の閉鎖等,0,2022-10-17,2022-10-11,株式会社オオギヤ,,株式会社,東京都,品川区,上大崎２丁目１５番２０号,,13,109,1410021,,,2022-10-11,清算の結了等,,,2016-12-27,1,,,,,オオギヤ,0
2300,9010902013453,登記記録の閉鎖等,0,2022-10-17,2022-10-11,有限会社プレステージ,,有限会社,東京都,世田谷区,南烏山２丁目３０番１４－６０６号,,13,112,1570062,,,2022-10-11,清算の結了等,,,2015-10-05,1,,,,,プレステージ,0
2319,9011203002740,登記記録の閉鎖等,0,2022-10-17,2022-10-07,Ｕｎｉｔｅｄ　Ｆｏｏｄ合同会社,,合同会社,東京都,中野区,本町４丁目４４－１３西京城西ビル２階２号室,,13,114,1640012,,,2022-10-07,清算の結了等,,,2018-04-02,1,,,,,ユナイテッドフード,0
2326,9011402007714,登記記録の閉鎖等,0,2022-10-17,2022-10-12,有限会社福家,,有限会社,東京都,板橋区,大山西町６０番７号,,13,119,1730033,,,2022-10-12,清算の結了等,,,2015-10-05,1,,,,,,0
2338,9020001130991,登記記録の閉鎖等,0,2022-10-17,2022-10-12,京浜リサイクルセンター株式会社,,株式会社,神奈川県,川崎市川崎区,塩浜３丁目２４番１０号,,14,131,2100826,,,2022-10-12,合併による解散等,6010701009184,令和４年１０月１日東京都品川区大崎一丁目１１番３号前田道路株式会社（6010701009184）に合併し解散,2019-05-10,1,,,,,ケイヒンリサイクルセンター,0
2342,9021001019944,登記記録の閉鎖等,0,2022-10-17,2022-10-11,株式会社不知火工業,,株式会社,神奈川県,厚木市,森の里２丁目５番３号,,14,212,2430122,,,2022-10-11,清算の結了等,,,2015-10-05,1,,,,,シラヌイコウギョウ,0
2345,9021001050197,登記記録の閉鎖等,0,2022-10-17,2022-10-05,株式会社アイオー電気,,株式会社,神奈川県,横浜市旭区,上川井町２０４６番地１３,,14,112,2410802,,,2022-10-05,清算の結了等,,,2015-10-05,1,,,,,アイオーデンキ,0
2346,9021001055997,登記記録の閉鎖等,0,2022-10-17,2022-10-12,ＶＡＰＯＲ　ＪＡＰＡＮ株式会社,,株式会社,神奈川県,足柄下郡箱根町,箱根４７番地,,14,382,2500521,,,2022-10-12,清算の結了等,,,2015-10-05,1,,,,,ヴァポージャパン,0
2349,9021002064725,登記記録の閉鎖等,0,2022-10-17,2022-09-26,有限会社新都市サービス,,有限会社,神奈川県,横須賀市,三春町５丁目４１番地２,,14,201,2380014,,,2022-09-26,清算の結了等,,,2015-10-05,1,,,,,シントシサービス,0
2360,9030002111734,登記記録の閉鎖等,0,2022-10-17,2022-10-03,有限会社ピーメイト,,有限会社,埼玉県,川口市,新堀町６番２６号,,11,203,3340068,,,2022-10-03,合併による解散等,8030001079008,令和４年１０月１日埼玉県川口市新堀町７番７号株式会社ワーク・ドゥパック（8030001079008）に合併し解散,2015-10-05,1,,,,,ピーメイト,0
2368,9040002102848,登記記録の閉鎖等,0,2022-10-17,2022-10-03,有限会社ビクトリ,,有限会社,千葉県,夷隅郡御宿町,久保１８７８番地,,12,443,2995102,,,2022-10-03,合併による解散等,6040002102487,令和４年１０月１日千葉県夷隅郡御宿町浜２１６３番地７株式会社勝（6040002102487）に合併し解散,2015-10-05,1,,,,,ビクトリ,0
2388,9100002036800,登記記録の閉鎖等,0,2022-10-17,2022-10-13,有限会社中劇遊技場,,有限会社,長野県,飯田市,中央通り３丁目８番地,,20,205,3950041,,,2022-10-13,清算の結了等,,,2015-10-05,1,,,,,チュウゲキユウギジョウ,0
2431,9140001034776,登記記録の閉鎖等,0,2022-10-17,2022-10-03,久商株式会社,,株式会社,兵庫県,明石市,大久保町江井島１３８８番地,,28,203,6740064,,,2022-10-03,合併による解散等,3140001034385,令和４年１０月１日兵庫県明石市大久保町江井島１３８８番地久商株式会社（3140001034385）に合併し解散,2015-10-05,1,,,,,キュウショウ,0
2440,9140001120205,登記記録の閉鎖等,0,2022-10-17,2022-10-03,株式会社ジョイアスハート,,株式会社,兵庫県,西宮市,池田町９番７号,,28,204,6620911,,,2022-10-03,合併による解散等,7140001071598,令和４年１０月１日兵庫県芦屋市岩園町１番７号株式会社プライムウィル（7140001071598）に合併し解散,2021-01-25,1,,,,,ジョイアスハート,0
2445,9150002007185,登記記録の閉鎖等,0,2022-10-17,2022-10-12,有限会社小林電器店,,有限会社,奈良県,宇陀郡曽爾村,大字今井４０３番地の２,,29,385,6331212,,,2022-10-12,清算の結了等,,,2015-10-05,1,,,,,コバヤシデンキテン,0
2451,9180001081757,登記記録の閉鎖等,0,2022-10-17,2022-10-05,株式会社ＧＲＯＯＶＥ,,株式会社,愛知県,名古屋市千種区,城木町１丁目７５番地,,23,101,4640846,,,2022-10-05,清算の結了等,,,2015-10-05,1,,,,,グルーブ,0
2452,9180001089263,登記記録の閉鎖等,0,2022-10-17,2022-10-06,フィリックスエージェント株式会社,,株式会社,愛知県,名古屋市中村区,名駅１丁目１番１号ＪＰタワー名古屋１５Ｆ,,23,105,4500002,,,2022-10-06,合併による解散等,4180001068305,令和４年１０月１日名古屋市中村区名駅一丁目１番１号ＪＰタワー名古屋１５Ｆフィリックス株式会社（4180001068305）に合併し解散,2015-10-05,1,,,,,フィリックスエージェント,0
2453,9180001137096,登記記録の閉鎖等,0,2022-10-17,2022-10-04,株式会社ピーアール,,株式会社,愛知県,名古屋市名東区,上菅２丁目１００４番地の６,,23,115,4650014,,,2022-10-04,清算の結了等,,,2019-06-27,1,,,,,ピーアール,0
2455,9180001150009,登記記録の閉鎖等,0,2022-10-17,2022-10-06,ビーエス株式会社,,株式会社,愛知県,名古屋市中川区,荒江町６番８号,,23,110,4540032,,,2022-10-06,清算の結了等,,,2022-02-17,1,,,,,ビーエス,0
2463,9180002020516,登記記録の閉鎖等,0,2022-10-17,2022-09-30,つる屋青果有限会社,,有限会社,愛知県,名古屋市熱田区,川並町２番２２号,,23,109,4560072,,,2022-09-30,合併による解散等,7180002020807,令和４年９月３０日名古屋市熱田区川並町２番２２号株式会社丸友青果（7180002020807）に合併し解散,2015-10-05,1,,,,,ツルヤセイカ,0
2487,9210002009357,登記記録の閉鎖等,0,2022-10-17,2022-10-12,有限会社エポック,,有限会社,福井県,大野市,春日１丁目３番７号,,18,205,9120053,,,2022-10-12,清算の結了等,,,2015-10-05,1,,,,,エポック,0
2494,9250001006946,登記記録の閉鎖等,0,2022-10-17,2022-10-11,山口スピック株式会社,,株式会社,神奈川県,秦野市,曽屋字曽屋原１２５番地,,14,211,2570031,,,2022-10-11,清算の結了等,,,2015-10-05,1,,,,,,0
2499,9290001039785,登記記録の閉鎖等,0,2022-10-17,2022-10-07,ＦＫトップライト株式会社,,株式会社,福岡県,糟屋郡須惠町,大字須恵８４４番地９,,40,344,8112100,,,2022-10-07,清算の結了等,,,2015-10-05,1,,,,,エフケイトップライト,0
2510,9290002000473,登記記録の閉鎖等,0,2022-10-17,2022-10-06,有限会社サンパレス商事,,有限会社,福岡県,福岡市西区,今宿東１丁目６番７号,,40,135,8190161,,,2022-10-06,清算の結了等,,,2015-10-05,1,,,,,サンパレスショウジ,0
2517,9300002002022,登記記録の閉鎖等,0,2022-10-17,2022-10-07,有限会社アドプラニングコーポレーション,,有限会社,佐賀県,佐賀市,鍋島１丁目１１番５号,,41,201,8490937,,,2022-10-07,清算の結了等,,,2015-10-05,1,,,,,アドプラニングコーポレーション,0
2518,9310001000397,登記記録の閉鎖等,0,2022-10-17,2022-10-13,株式会社九州啓電社,,株式会社,長崎県,長崎市,城山町１６番５号,,42,201,8528021,,,2022-10-13,清算の結了等,,,2015-10-05,1,,,,,キュウシュウケイデンシャ,0
2529,9360001024648,登記記録の閉鎖等,0,2022-10-17,2022-10-07,株式会社フジグローバルワーク,,株式会社,沖縄県,うるま市,勝連南風原５１９２番地３０,,47,213,9042311,,,2022-10-07,清算の結了等,,,2018-10-03,1,,,,,フジグローバルワーク,0
2533,9370001012081,登記記録の閉鎖等,0,2022-10-17,2022-10-03,株式会社いずみの杜,,株式会社,宮城県,仙台市泉区,朴沢字鳥居原３５番地の４,,04,105,9813226,,,2022-10-03,合併による解散等,8370201002148,令和４年１０月１日宮城県遠田郡涌谷町涌谷字入茂田１５番地の１株式会社佐藤石材工業（8370201002148）に合併し解散,2015-10-05,1,,,,,イズミノモリ,0
2558,9430001040720,登記記録の閉鎖等,0,2022-10-17,2022-10-03,メディコジャパン株式会社,,株式会社,北海道,札幌市白石区,菊水元町六条１丁目１番２７号,,01,104,0030826,,,2022-10-03,合併による解散等,5430002034592,令和４年１０月１日札幌市白石区平和通十五丁目北２番１２号Ｓ＆Ｎふれあいケアサービス株式会社（5430002034592）に合併し解散,2015-10-05,1,,,,,メディコジャパン,0
2560,9430001076608,登記記録の閉鎖等,0,2022-10-17,2022-10-03,株式会社スリーエフ,,株式会社,北海道,札幌市北区,篠路三条１０丁目５－１６,,01,102,0028023,,,2022-10-03,合併による解散等,6430002055720,令和４年１０月１日北海道小樽市花園三丁目１９番１６号メディカルファイブ株式会社（6430002055720）に合併し解散,2018-05-16,1,,,,,スリーエフ,0
2567,9490005002141,登記記録の閉鎖等,0,2022-10-17,2022-10-07,医療法人宮崎医院,,その他の設立登記法人,高知県,土佐清水市,三崎浦２丁目１１番３号,,39,209,7870451,,,2022-10-07,清算の結了等,,,2015-10-05,1,,,,,ミヤザキイイン,0
