sequenceNumber,corporateNumber,process,correct,updateDate,changeDate,name,nameImageId,kind,prefectureName,cityName,streetNumber,addressImageId,prefectureCode,cityCode,postCode,addressOutside,addressOutsideImageId,closeDate,closeCause,successorCorporateNumber,changeCause,assignmentDate,latest,enName,enPrefectureName,enCityName,enAddressOutside,furigana,hihyoji
6,1010401095273,登記記録の閉鎖等,0,2024-07-11,2024-07-02,東名都市開発株式会社,,株式会社,東京都,豊島区,南池袋１丁目１６番１５号,,13,116,1710022,,,2024-07-02,清算の結了等,,,2015-10-05,1,,,,,トウメイトシカイハツ,0
7,1010401096288,登記記録の閉鎖等,0,2024-07-11,2024-06-28,クロステクノロジ株式会社,,株式会社,千葉県,千葉市緑区,あすみが丘東５丁目２１番地２６,,12,105,2670067,,,2024-06-28,清算の結了等,,,2015-10-05,1,,,,,クロステクノロジ,0
34,1011503003297,登記記録の閉鎖等,0,2024-07-11,2024-07-09,新星合同会社,,合同会社,東京都,荒川区,東尾久２丁目２番９号三祥ビル２０２,,13,118,1160012,,,2024-07-09,清算の結了等,,,2017-06-08,1,,,,,,0
52,1021002055293,登記記録の閉鎖等,0,2024-07-11,2024-07-05,有限会社ユーホームサービス,,有限会社,神奈川県,足柄上郡松田町,松田庶子１０４４番地１２,,14,363,2580004,,,2024-07-05,清算の結了等,,,2015-10-05,1,,,,,ユーホームサービス,0
62,1030002002461,登記記録の閉鎖等,0,2024-07-11,2024-07-05,有限会社エムアール企画,,有限会社,埼玉県,さいたま市西区,三橋５丁目２６４番地,,11,101,3310052,,,2024-07-05,清算の結了等,,,2015-10-05,1,,,,,エムアールキカク,0
66,1030002077776,登記記録の閉鎖等,0,2024-07-11,2024-07-03,有限会社光栄,,有限会社,埼玉県,ふじみ野市,上福岡２丁目９番１号,,11,245,3560004,,,2024-07-03,清算の結了等,,,2015-10-05,1,,,,,コウエイ,0
73,1040002000183,登記記録の閉鎖等,0,2024-07-11,2024-06-27,有限会社アーバンテック,,有限会社,千葉県,千葉市緑区,刈田子町１８番地の８,,12,105,2660021,,,2024-06-27,清算の結了等,,,2015-10-05,1,,,,,アーバンテック,0
75,1040002080333,登記記録の閉鎖等,0,2024-07-11,2024-06-28,有限会社かねげん水産,,有限会社,千葉県,長生郡白子町,五井１７１２番地の２,,12,424,2994211,,,2024-06-28,清算の結了等,,,2015-10-05,1,,,,,,0
100,1120002059393,登記記録の閉鎖等,0,2024-07-11,2024-07-05,有限会社インターナショナルアートアカデミー,,有限会社,兵庫県,川西市,鴬台１丁目９番地の１０,,28,217,6660133,,,2024-07-05,清算の結了等,,,2015-10-05,1,,,,,インターナショナルアートアカデミー,0
102,1120101052233,登記記録の閉鎖等,0,2024-07-11,2024-07-08,インプルーソ株式会社,,株式会社,大阪府,堺市南区,庭代台３丁９番８３号,,27,145,5900133,,,2024-07-08,清算の結了等,,,2015-10-05,1,,,,,インプルーソ,0
156,1250001013553,登記記録の閉鎖等,0,2024-07-11,2024-06-12,朝龍商事株式会社,,株式会社,福岡県,久留米市,梅満町１１００番地６,,40,203,8300048,,,2024-06-12,清算の結了等,,,2015-10-05,1,,,,,チョウリュウショウジ,0
158,1250001018825,登記記録の閉鎖等,0,2024-07-11,2024-07-03,ｂｒｉｄｇｅ－ＩＳＡ株式会社,,株式会社,山口県,下松市,大字東豊井９９７,,35,207,7440002,,,2024-07-03,清算の結了等,,,2021-04-19,1,,,,,ブリッヂアイエスエー,0
166,1290001075788,登記記録の閉鎖等,0,2024-07-11,2024-06-12,Ａ＆Ｈプロデュース株式会社,,株式会社,福岡県,福岡市中央区,薬院３丁目３番５号,,40,133,8100022,,,2024-06-12,清算の結了等,,,2016-11-14,1,,,,,,0
167,1290001091075,登記記録の閉鎖等,0,2024-07-11,2024-06-12,ＴＡＮＳ　Ｉｎｃ．株式会社,,株式会社,福岡県,福岡市博多区,博多駅南４丁目１２番２７号,,40,132,8120016,,,2024-06-12,清算の結了等,,,2020-11-26,1,,,,,タンスアイエヌシー,0
174,1330002021836,登記記録の閉鎖等,0,2024-07-11,2024-07-01,有限会社田畑ホンダ,,有限会社,熊本県,荒尾市,万田９５５番地１,,43,204,8640002,,,2024-07-01,合併による解散等,5330001004268,令和６年７月１日熊本市東区東野二丁目８番１号株式会社ホンダ販売熊本（5330001004268）に合併し解散,2015-10-05,1,,,,,タバタホンダ,0
181,1390002001634,登記記録の閉鎖等,0,2024-07-11,2024-06-26,有限会社武田吉六商店,,有限会社,山形県,山形市,和合町１丁目５番６号,,06,201,9900064,,,2024-06-26,清算の結了等,,,2015-10-05,1,,,,,タケダキチロクショウテン,0
194,1470002008976,登記記録の閉鎖等,0,2024-07-11,2024-07-05,有限会社黒田屋,,有限会社,香川県,高松市,円座町３７５番地３,,37,201,7618044,,,2024-07-05,清算の結了等,,,2015-10-05,1,,,,,クロダヤ,0
200,1500001008916,登記記録の閉鎖等,0,2024-07-11,2024-07-02,株式会社徳増会計ビジネス・サポート,,株式会社,愛媛県,西条市,神拝甲５１１番地６０,,38,206,7930041,,,2024-07-02,清算の結了等,,,2015-10-05,1,,,,,トクマスカイケイビジネスサポート,0
203,2010001099921,登記記録の閉鎖等,0,2024-07-11,2024-07-01,株式会社アドブレイブ,,株式会社,東京都,千代田区,神田神保町２丁目１４番地ＳＰ神保町ビル５階,,13,101,1010051,,,2024-07-01,清算の結了等,,,2015-10-05,1,,,,,アドブレイブ,0
208,2010005020874,登記記録の閉鎖等,0,2024-07-11,2024-07-01,一般社団法人大阪投資研究会,,その他の設立登記法人,東京都,中央区,新川１丁目１７番１８号,,13,102,1040033,,,2024-07-01,清算の結了等,,,2015-10-05,1,,,,,オオサカトウシケンキュウカイ,0
216,2010401112457,登記記録の閉鎖等,0,2024-07-11,2024-06-27,株式会社ヨガライフジャパン,,株式会社,東京都,港区,南青山１丁目２２番５号,,13,103,1070062,,,2024-06-27,清算の結了等,,,2015-10-05,1,,,,,ヨガライフジャパン,0
243,2011302001501,登記記録の閉鎖等,0,2024-07-11,2024-07-04,有限会社駅前たみや,,有限会社,東京都,杉並区,天沼３丁目２番２２号,,13,115,1670032,,,2024-07-04,清算の結了等,,,2015-10-05,1,,,,,エキマエタミヤ,0
246,2011501014155,登記記録の閉鎖等,0,2024-07-11,2024-07-08,株式会社オズネットカンパニー,,株式会社,東京都,北区,田端６丁目７番１７号,,13,117,1140014,,,2024-07-08,清算の結了等,,,2015-10-05,1,,,,,オズネットカンパニー,0
248,2011501028114,登記記録の閉鎖等,0,2024-07-11,2024-07-10,株式会社Ｌ’２,,株式会社,東京都,北区,滝野川７丁目２４番６－１０３号セジョリ板橋桜通り,,13,117,1140023,,,2024-07-10,清算の結了等,,,2022-06-08,1,,,,,エルズ,0
254,2011602005524,登記記録の閉鎖等,0,2024-07-11,2024-07-04,有限会社砂川雄二郎建築設計事務所,,有限会社,東京都,練馬区,石神井台３丁目２７番１６－１０７号,,13,120,1770045,,,2024-07-04,清算の結了等,,,2015-10-05,1,,,,,スナカワユウジロウケンチクセッケイジムショ,0
256,2012402015993,登記記録の閉鎖等,0,2024-07-11,2024-07-09,有限会社今エンジニアリング,,有限会社,東京都,府中市,紅葉丘１丁目２４番１８号,,13,206,1830004,,,2024-07-09,清算の結了等,,,2015-10-05,1,,,,,コンエンジニアリング,0
263,2013301031198,登記記録の閉鎖等,0,2024-07-11,2024-07-02,大正製薬ホールディングス株式会社,,株式会社,東京都,豊島区,高田３丁目２４番１号,,13,116,1710033,,,2024-07-02,合併による解散等,1010001237861,令和６年７月１日東京都豊島区高田三丁目２４番１号大手門株式会社（1010001237861）に合併し解散,2015-10-05,1,,,,,タイショウセイヤクホールディングス,0
269,2013402006306,登記記録の閉鎖等,0,2024-07-11,2024-07-08,有限会社ＩＱＩ,,有限会社,東京都,多摩市,永山５丁目２８番地の２,,13,224,2060025,,,2024-07-08,清算の結了等,,,2015-10-05,1,,,,,アイキュウアイ,0
289,2040001037580,登記記録の閉鎖等,0,2024-07-11,2024-06-26,株式会社和佑,,株式会社,千葉県,松戸市,古ケ崎２丁目３１３５番地の５,,12,207,2710068,,,2024-06-26,清算の結了等,,,2015-10-05,1,,,,,ワユウ,0
327,2120901038067,登記記録の閉鎖等,0,2024-07-11,2024-07-08,株式会社Ｐｌａｙ　Ｇｒｏｕｎｄ,,株式会社,大阪府,吹田市,原町３丁目２７番２２－２号,,27,205,5640004,,,2024-07-08,清算の結了等,,,2017-02-17,1,,,,,,0
328,2120902019529,登記記録の閉鎖等,0,2024-07-11,2024-07-08,平岡不動産有限会社,,有限会社,大阪府,豊中市,緑丘３丁目１番２６号,,27,203,5600002,,,2024-07-08,清算の結了等,,,2015-10-05,1,,,,,ヒラオカフドウサン,0
335,2130001072767,登記記録の閉鎖等,0,2024-07-11,2024-07-04,株式会社ＥｘＴＨＯＷ京都,,株式会社,京都府,京都市山科区,西野離宮町３１番地１３ＢＥＬＩＳＴＡ京都山科６２７号,,26,110,6078345,,,2024-07-04,清算の結了等,,,2022-10-07,1,,,,,,0
338,2140001068335,登記記録の閉鎖等,0,2024-07-11,2024-07-01,株式会社カツウラ化粧品,,株式会社,兵庫県,西宮市,西宮浜１丁目６番,,28,204,6620934,,,2024-07-01,合併による解散等,4140001070289,令和６年７月１日兵庫県西宮市西宮浜一丁目６番ベラ化学株式会社（4140001070289）に合併し解散,2015-10-05,1,,,,,カツウラケショウヒン,0
342,2140001105856,登記記録の閉鎖等,0,2024-07-11,2024-07-08,株式会社トータルヘルスサポート,,株式会社,兵庫県,加古川市,尾上町旭１丁目２７番地,,28,210,6750026,,,2024-07-08,清算の結了等,,,2017-04-18,1,,,,,,0
347,2140002028742,登記記録の閉鎖等,0,2024-07-11,2024-07-05,株式会社クリーンテック,,株式会社,兵庫県,明石市,大久保町松陰１１２７番地の３２,,28,203,6740053,,,2024-07-05,清算の結了等,,,2015-10-05,1,,,,,クリーンテック,0
358,2180001073538,登記記録の閉鎖等,0,2024-07-11,2024-06-28,株式会社ビーシーシー,,株式会社,愛知県,名古屋市南区,南野３丁目１６５番地（宝マンション星崎第２、２０１号）,,23,112,4570068,,,2024-06-28,清算の結了等,,,2015-10-05,1,,,,,ビーシーシー,0
368,2190005007821,登記記録の閉鎖等,0,2024-07-11,2024-07-04,木曽岬漁業協同組合,,その他の設立登記法人,三重県,桑名郡木曽岬町,大字源緑輪中６番地,,24,303,4980816,,,2024-07-04,清算の結了等,,,2015-10-05,1,,,,,キソザキ,0
372,2200001040898,登記記録の閉鎖等,0,2024-07-11,2024-07-03,株式会社マルイチガーデン,,株式会社,岐阜県,多治見市,旭ケ丘７丁目９番地の１２ノアＢ－１０３,,21,204,5070071,,,2024-07-03,清算の結了等,,,2023-01-30,1,,,,,マルイチガーデン,0
384,2270002004078,登記記録の閉鎖等,0,2024-07-11,2024-07-10,有限会社森本工務店,,有限会社,鳥取県,鳥取市,気高町浜村７８３番地１２９６,,31,201,6890331,,,2024-07-10,清算の結了等,,,2015-10-05,1,,,,,モリモトコウムテン,0
385,2280002004515,登記記録の閉鎖等,0,2024-07-11,2024-07-09,有限会社灘匠,00004691,有限会社,島根県,松江市,東茶町６番地２,,32,201,6900844,,,2024-07-09,清算の結了等,,,2015-10-05,1,,,,,ナダショウ,0
386,2280003000298,登記記録の閉鎖等,0,2024-07-11,2024-07-08,ジョビアル合資会社,,合資会社,島根県,出雲市,湖陵町大池１９０７番地３,,32,203,6990816,,,2024-07-08,清算の結了等,,,2015-10-05,1,,,,,ジョビアル,0
391,2290003005998,登記記録の閉鎖等,0,2024-07-11,2024-06-28,合同会社Ｋｒｉｓｔｉｎａ　Ｗａｔａｎａｂｅ,,合同会社,福岡県,福岡市南区,高宮５丁目１５番２５－４０６号,,40,134,8150083,,,2024-06-28,清算の結了等,,,2015-10-05,1,,,,,,0
393,2290801026816,登記記録の閉鎖等,0,2024-07-11,2024-07-08,株式会社添田鉄工ホールディングス,,株式会社,福岡県,京都郡苅田町,長浜町３５番地,,40,621,8000311,,,2024-07-08,清算の結了等,,,2020-09-16,1,,,,,ソエダテッコウホールディングス,0
418,2390001017531,登記記録の閉鎖等,0,2024-07-11,2024-06-24,荘内観光不動産株式会社,,株式会社,山形県,鶴岡市,宝町８番３５号,,06,203,9970021,,,2024-06-24,清算の結了等,,,2024-02-28,1,,,,,ショウナイカンコウフドウサン,0
420,2420002008815,登記記録の閉鎖等,0,2024-07-11,2024-07-01,マルイタクシー有限会社,,有限会社,青森県,八戸市,大字湊町字大沢２７番地２,,02,203,0310812,,,2024-07-01,合併による解散等,3420001006439,令和６年７月１日青森県八戸市大字十八日町３番地八戸タクシー株式会社（3420001006439）に合併し解散,2015-10-05,1,,,,,マルイタクシー,0
455,3010405019342,登記記録の閉鎖等,0,2024-07-11,2024-06-19,コンレイ・パートナーズ一般社団法人,,その他の設立登記法人,東京都,港区,虎ノ門５丁目１３番１号,,13,103,1050001,,,2024-06-19,清算の結了等,,,2020-12-15,1,,,,,コンレイパートナーズ,0
481,3011302006268,登記記録の閉鎖等,0,2024-07-11,2024-07-05,有限会社テンライフ,,有限会社,東京都,杉並区,上井草２丁目３４番６号,,13,115,1670023,,,2024-07-05,清算の結了等,,,2015-10-05,1,,,,,,0
490,3013301041626,登記記録の閉鎖等,0,2024-07-11,2024-07-01,賃貸池袋不動産株式会社,,株式会社,東京都,豊島区,池袋２丁目４２番３号,,13,116,1710014,,,2024-07-01,合併による解散等,5011401022180,令和６年７月１日東京都豊島区池袋二丁目４２番３号池袋ホーム株式会社（5011401022180）に合併し解散,2018-01-11,1,,,,,チンタイイケブクロフドウサン,0
503,3021001040113,登記記録の閉鎖等,0,2024-07-11,2024-07-09,株式会社春日,,株式会社,神奈川県,横須賀市,佐野町３丁目１２番地,,14,201,2380052,,,2024-07-09,清算の結了等,,,2015-10-05,1,,,,,カスガ,0
519,3030003011063,登記記録の閉鎖等,0,2024-07-11,2024-07-03,合同会社若宮キャピタル,,合同会社,埼玉県,所沢市,大字上安松２９０番地の２１,,11,208,3590025,,,2024-07-03,清算の結了等,,,2017-11-22,1,,,,,ワカミヤキャピタル,0
538,3080102009169,登記記録の閉鎖等,0,2024-07-11,2024-07-09,有限会社宮崎設備,,有限会社,静岡県,伊豆の国市,中３６５番地の３,,22,225,4102113,,,2024-07-09,清算の結了等,,,2015-10-05,1,,,,,ミヤザキセツビ,0
540,3080105000199,登記記録の閉鎖等,0,2024-07-11,2024-07-08,学校法人沼津富士学園,,その他の設立登記法人,静岡県,沼津市,松長２６３番地の２,,22,203,4100874,,,2024-07-08,清算の結了等,,,2015-10-05,1,,,,,ヌマヅフジガクエン,0
572,3140002060620,登記記録の閉鎖等,0,2024-07-11,2024-07-01,有限会社カツウラ美学研究所,,有限会社,兵庫県,西宮市,西宮浜１丁目６番,,28,204,6620934,,,2024-07-01,合併による解散等,4140001070289,令和６年７月１日兵庫県西宮市西宮浜一丁目６番ベラ化学株式会社（4140001070289）に合併し解散,2015-10-05,1,,,,,カツウラビガクケンキュウショ,0
573,3140005001927,登記記録の閉鎖等,0,2024-07-11,2024-07-08,医療法人社団弘敬会石橋医院,,その他の設立登記法人,兵庫県,神戸市西区,玉津町新方４７８番地の１,,28,111,6512125,,,2024-07-08,清算の結了等,,,2015-10-05,1,,,,,コウケイカイイシバシイイン,0
598,3200002012656,登記記録の閉鎖等,0,2024-07-11,2024-07-05,沢インダストリー有限会社,,有限会社,岐阜県,大垣市,入方３丁目３７番地,,21,202,5030962,,,2024-07-05,清算の結了等,,,2015-10-05,1,,,,,サワインダストリー,0
599,3210001013753,登記記録の閉鎖等,0,2024-07-11,2024-07-01,株式会社宇野商店,,株式会社,福井県,越前市,府中３丁目１３番２０号,,18,209,9150071,,,2024-07-01,合併による解散等,7210001011844,令和６年７月１日福井県越前市村国二丁目４番１０号株式会社ナンエツプロパン（7210001011844）に合併し解散,2015-10-05,1,,,,,ウノショウテン,0
602,3220002001351,登記記録の閉鎖等,0,2024-07-11,2024-07-05,有限会社栄光ラボラトリ,,有限会社,石川県,金沢市,神宮寺３丁目４番１７号,,17,201,9200806,,,2024-07-05,清算の結了等,,,2015-10-05,1,,,,,エイコウラボラトリ,0
608,3260002003674,登記記録の閉鎖等,0,2024-07-11,2024-07-01,有限会社こうの産業,,有限会社,岡山県,岡山市北区,御津野々口１１６１番地の４,,33,101,7092117,,,2024-07-01,清算の結了等,,,2015-10-05,1,,,,,コウノサンギョウ,0
627,3330002002280,登記記録の閉鎖等,0,2024-07-11,2024-07-01,有限会社神原,,有限会社,熊本県,熊本市中央区,出水７丁目５１番１号,,43,101,8620941,,,2024-07-01,清算の結了等,,,2015-10-05,1,,,,,カンバラ,0
643,3380001017647,登記記録の閉鎖等,0,2024-07-11,2024-07-03,株式会社東海堂,,株式会社,福島県,会津若松市,栄町１番２号,,07,202,9650871,,,2024-07-03,清算の結了等,,,2015-10-05,1,,,,,,0
656,3430002065788,登記記録の閉鎖等,0,2024-07-11,2024-07-03,有限会社トウエイ,,有限会社,北海道,登別市,富浦町１９６番地３,,01,230,0590462,,,2024-07-03,清算の結了等,,,2015-10-05,1,,,,,トウエイ,0
659,3450002003928,登記記録の閉鎖等,0,2024-07-11,2024-07-05,有限会社道北防災設備,,有限会社,北海道,旭川市,豊岡一条４丁目２番６号,,01,204,0788231,,,2024-07-05,清算の結了等,,,2015-10-05,1,,,,,ドウホクボウサイセツビ,0
665,3500002017146,登記記録の閉鎖等,0,2024-07-11,2024-07-02,有限会社マナベ自動車,,有限会社,愛媛県,新居浜市,新須賀町３丁目１番４７号,,38,205,7920802,,,2024-07-02,清算の結了等,,,2015-10-05,1,,,,,,0
666,3500005001007,登記記録の閉鎖等,0,2024-07-11,2024-06-20,愛媛県製餡協同組合,00008367,その他の設立登記法人,愛媛県,松山市,錦町９９番地,,38,201,7900877,,,2024-06-20,清算の結了等,,,2015-10-05,1,,,,,エヒメケンセイアン,0
667,4010001125320,登記記録の閉鎖等,0,2024-07-11,2024-07-01,株式会社Ｓｕｎ　Ｒｅａｌｔｙ,,株式会社,東京都,千代田区,神田小川町２丁目３番地１３,,13,101,1010052,,,2024-07-01,清算の結了等,,,2015-10-05,1,,,,,,0
678,4010405018467,登記記録の閉鎖等,0,2024-07-11,2024-06-27,一般社団法人Ｒｙｄｅ,,その他の設立登記法人,東京都,港区,虎ノ門５丁目１番４号,,13,103,1050001,,,2024-06-27,清算の結了等,,,2020-01-31,1,,,,,ライド,0
682,4010601058333,登記記録の閉鎖等,0,2024-07-11,2024-07-08,株式会社スマートソル,,株式会社,東京都,江東区,亀戸５丁目６－２１号ＵＩＷ９ＢＬＤＧ．,,13,108,1360071,,,2024-07-08,清算の結了等,,,2020-11-18,1,,,,,スマートソル,0
687,4010901016461,登記記録の閉鎖等,0,2024-07-11,2024-07-01,株式会社ジャレット,,株式会社,東京都,千代田区,丸の内３丁目４番１号,,13,101,1000005,,,2024-07-01,清算の結了等,,,2015-10-05,1,,,,,ジャレット,0
700,4011503003880,登記記録の閉鎖等,0,2024-07-11,2024-07-10,合同会社市河研一事務所,,合同会社,東京都,荒川区,南千住８丁目６番４－１２０１号,,13,118,1160003,,,2024-07-10,清算の結了等,,,2019-02-06,1,,,,,イチカワケンイチジムショ,0
705,4011802009868,登記記録の閉鎖等,0,2024-07-11,2024-07-10,有限会社イノセ,,有限会社,東京都,足立区,本木南町１８番１号,,13,121,1230855,,,2024-07-10,清算の結了等,,,2015-10-05,1,,,,,,0
713,4013301047184,登記記録の閉鎖等,0,2024-07-11,2024-07-02,Ｌａｋｅｗｏｏｄ　Ｍｅｄｉｃａｌ株式会社,,株式会社,東京都,豊島区,東池袋１丁目２番２号,,13,116,1700013,,,2024-07-02,清算の結了等,,,2021-03-26,1,,,,,レイクウッドメディカル,0
723,4021001024321,登記記録の閉鎖等,0,2024-07-11,2024-07-09,株式会社トーホク,,株式会社,神奈川県,厚木市,上依知６７０番地１,,14,212,2430801,,,2024-07-09,清算の結了等,,,2015-10-05,1,,,,,トーホク,0
739,4070002008535,登記記録の閉鎖等,0,2024-07-11,2024-07-08,有限会社安中産業,,有限会社,群馬県,高崎市,南大類町１６３２番地,,10,202,3700036,,,2024-07-08,清算の結了等,,,2015-10-05,1,,,,,アンナカサンギョウ,0
772,4122002001539,登記記録の閉鎖等,0,2024-07-11,2024-07-08,有限会社近畿発條製作所,,有限会社,大阪府,東大阪市,宝町２番１７号,,27,227,5798025,,,2024-07-08,清算の結了等,,,2015-10-05,1,,,,,キンキハツジョウセイサクショ,0
775,4130002002201,登記記録の閉鎖等,0,2024-07-11,2024-07-04,有限会社加藤文ふとん店,,有限会社,京都府,京都市上京区,一条通御前通西入大上之町７２番地,,26,102,6028375,,,2024-07-04,清算の結了等,,,2015-10-05,1,,,,,カトウブンフトンテン,0
777,4130002009436,登記記録の閉鎖等,0,2024-07-11,2024-07-03,ヤシマ建設有限会社,,有限会社,京都府,京都市南区,久世高田町３７３番地１京都桂川つむぎの街グランスクエア１５１８,,26,107,6018211,,,2024-07-03,清算の結了等,,,2015-10-05,1,,,,,ヤシマケンセツ,0
778,4130002015896,登記記録の閉鎖等,0,2024-07-11,2024-07-04,有限会社大村工作所摩耶,,有限会社,京都府,京都市中京区,室町通錦小路下る菊水鉾町５７０番地５サンクタス四条室町９０２号,,26,104,6048154,,,2024-07-04,清算の結了等,,,2015-10-05,1,,,,,オオムラコウサクショマヤ,0
780,4140001019856,登記記録の閉鎖等,0,2024-07-11,2024-07-08,株式会社ダイワ,,株式会社,兵庫県,神戸市中央区,下山手通５丁目１番１号,,28,110,6500011,,,2024-07-08,清算の結了等,,,2015-10-05,1,,,,,ダイワ,0
781,4140001020599,登記記録の閉鎖等,0,2024-07-11,2024-07-08,株式会社松神商事,,株式会社,兵庫県,神戸市須磨区,権現町１丁目４番１８号,,28,107,6540031,,,2024-07-08,清算の結了等,,,2015-10-05,1,,,,,,0
792,4140005020117,登記記録の閉鎖等,0,2024-07-11,2024-07-04,特定非営利活動法人あわじ緑花協会,,その他の設立登記法人,兵庫県,南あわじ市,榎列大榎列５００番１号松本伊株式会社内,,28,224,6560426,,,2024-07-04,清算の結了等,,,2015-10-05,1,,,,,,0
801,4180002057166,登記記録の閉鎖等,0,2024-07-11,2024-07-01,有限会社シーエスモーターサービス,,有限会社,愛知県,清須市,春日焼田１００番地,,23,233,4520962,,,2024-07-01,合併による解散等,2180001053168,令和６年７月１日愛知県清須市春日焼田７７番地株式会社モーターネット（2180001053168）に合併し解散,2015-10-05,1,,,,,シーエスモーターサービス,0
807,4190002007260,登記記録の閉鎖等,0,2024-07-11,2024-07-08,有限会社矢田鉄工所,,有限会社,三重県,鈴鹿市,池田町１１３３番地の６,,24,207,5130032,,,2024-07-08,清算の結了等,,,2015-10-05,1,,,,,ヤダテッコウショ,0
818,4240001021546,登記記録の閉鎖等,0,2024-07-11,2024-07-05,株式会社エム・ビー・エム,,株式会社,広島県,広島市東区,上大須賀町１５番５号,,34,102,7320056,,,2024-07-05,清算の結了等,,,2015-10-05,1,,,,,エムビーエム,0
842,4310002005409,登記記録の閉鎖等,0,2024-07-11,2024-07-01,有限会社三尾工業,,有限会社,長崎県,長崎市,鶴見台２丁目１番４号,,42,201,8500984,,,2024-07-01,清算の結了等,,,2015-10-05,1,,,,,ミオコウギョウ,0
844,4320001004229,登記記録の閉鎖等,0,2024-07-11,2024-06-26,株式会社キムラ住建,,株式会社,大分県,大分市,大道町３丁目３番４０号,,44,201,8700822,,,2024-06-26,清算の結了等,,,2015-10-05,1,,,,,キムラジュウケン,0
846,4330001025042,登記記録の閉鎖等,0,2024-07-11,2024-06-28,株式会社グローカル・パートナーズ,,株式会社,熊本県,熊本市中央区,安政町８番地１６,,43,101,8600801,,,2024-06-28,清算の結了等,,,2018-02-22,1,,,,,グローカルパートナーズ,0
888,5010701013303,登記記録の閉鎖等,0,2024-07-11,2024-07-04,株式会社ディ・トリップ,,株式会社,東京都,品川区,北品川１丁目９番７号トップルーム品川１０１５号,,13,109,1400001,,,2024-07-04,清算の結了等,,,2015-10-05,1,,,,,ディトリップ,0
892,5011001147403,登記記録の閉鎖等,0,2024-07-11,2024-07-08,株式会社Ｗｅｂｒｙｄａｙ,,株式会社,東京都,渋谷区,渋谷１丁目１７番２号,,13,113,1500002,,,2024-07-08,合併による解散等,2120001154772,令和６年７月１日東京都渋谷区渋谷一丁目１７番２号株式会社ＡｐｐｌｙＮｏｗ（2120001154772）に合併し解散,2022-05-17,1,,,,,ウェブリデイ,0
901,5011101056537,登記記録の閉鎖等,0,2024-07-11,2024-07-03,株式会社オフィスポケット,,株式会社,東京都,新宿区,新宿１丁目１０番１号,,13,104,1600022,,,2024-07-03,清算の結了等,,,2015-10-05,1,,,,,オフィスポケット,0
910,5011502004342,登記記録の閉鎖等,0,2024-07-11,2024-07-10,有限会社中川西設備,,有限会社,東京都,北区,志茂４丁目２９番７－３０１号,,13,117,1150042,,,2024-07-10,清算の結了等,,,2015-10-05,1,,,,,,0
911,5011603002955,登記記録の閉鎖等,0,2024-07-11,2024-07-02,合同会社Ａｔｅｌｉｅｒ　Ｊ,,合同会社,東京都,練馬区,大泉学園町３丁目１７番３１号ボヌールシェソワ１０６,,13,120,1780061,,,2024-07-02,清算の結了等,,,2020-05-22,1,,,,,アトリエジェイ,0
914,5011802014826,登記記録の閉鎖等,0,2024-07-11,2024-07-10,有限会社総合設備の三協,,有限会社,東京都,足立区,江北４丁目６番７号,,13,121,1230872,,,2024-07-10,清算の結了等,,,2015-10-05,1,,,,,,0
931,5021001046975,登記記録の閉鎖等,0,2024-07-11,2024-07-08,南計測株式会社,,株式会社,神奈川県,三浦市,初声町下宮田８６５番地２７,,14,210,2380111,,,2024-07-08,清算の結了等,,,2015-10-05,1,,,,,ミナミケイソク,0
935,5021002039524,登記記録の閉鎖等,0,2024-07-11,2024-07-09,有限会社ダイカ,,有限会社,神奈川県,秦野市,尾尻４５０番地８８,,14,211,2570011,,,2024-07-09,清算の結了等,,,2015-10-05,1,,,,,ダイカ,0
936,5021002052915,登記記録の閉鎖等,0,2024-07-11,2024-07-05,有限会社ファインウェザー,,有限会社,神奈川県,小田原市,城山２丁目２５番１９号,,14,206,2500045,,,2024-07-05,清算の結了等,,,2015-10-05,1,,,,,,0
943,5030001111532,登記記録の閉鎖等,0,2024-07-11,2024-07-05,株式会社Ｙ．Ｓ,,株式会社,埼玉県,所沢市,狭山ケ丘２丁目９６番地の３２,,11,208,3591161,,,2024-07-05,清算の結了等,,,2015-11-25,1,,,,,ワイエス,0
963,5070002037211,登記記録の閉鎖等,0,2024-07-11,2024-07-03,三幸土地建物有限会社,,有限会社,群馬県,吾妻郡嬬恋村,大字大笹２１９０番地３６,,10,425,3771613,,,2024-07-03,清算の結了等,,,2015-10-05,1,,,,,サンコウトチタテモノ,0
966,5080001021669,登記記録の閉鎖等,0,2024-07-11,2024-06-28,＿林株式会社,00110760,株式会社,静岡県,焼津市,東小川３丁目４－３０,,22,212,4250035,,,2024-06-28,清算の結了等,,,2017-07-07,1,,,,,イリン,0
969,5100001007822,登記記録の閉鎖等,0,2024-07-11,2024-06-26,千曲イースタン観光株式会社,,株式会社,長野県,佐久市,取出町１９６番地１２,,20,217,3850043,,,2024-06-26,清算の結了等,,,2015-10-05,1,,,,,チクマイースタンカンコウ,0
978,5120001016821,登記記録の閉鎖等,0,2024-07-11,2024-07-09,株式会社井阪工務店,,株式会社,奈良県,北葛城郡上牧町,桜ケ丘１丁目１２番地１４,,29,424,6390202,,,2024-07-09,清算の結了等,,,2015-10-05,1,,,,,イサカコウムテン,0
1007,5140002063456,登記記録の閉鎖等,0,2024-07-11,2024-07-01,クリエイト・グリーンホーム有限会社,,有限会社,岡山県,真庭市,蒜山下和１２１６番地６,,33,214,7170513,,,2024-07-01,清算の結了等,,,2015-10-05,1,,,,,クリエイトグリーンホーム,0
1014,5180001003426,登記記録の閉鎖等,0,2024-07-11,2024-06-26,株式会社一光エージェンシー,,株式会社,愛知県,名古屋市緑区,姥子山３丁目５０８番地,,23,114,4580830,,,2024-06-26,清算の結了等,,,2015-10-05,1,,,,,イッコウエージェンシー,0
1020,5180301030698,登記記録の閉鎖等,0,2024-07-11,2024-07-01,株式会社インテリア・矢吹,,株式会社,愛知県,安城市,古井町天皇１１番地９,,23,212,4460025,,,2024-07-01,清算の結了等,,,2017-08-24,1,,,,,インテリアヤブキ,0
1024,5200003002489,登記記録の閉鎖等,0,2024-07-11,2024-07-05,合同会社松井屋商店,,合同会社,岐阜県,中津川市,付知町７６７４番地,,21,206,5080351,,,2024-07-05,清算の結了等,,,2015-10-05,1,,,,,マツイヤショウテン,0
1025,5210001009163,登記記録の閉鎖等,0,2024-07-11,2024-07-02,株式会社サンディ,,株式会社,福井県,坂井市,丸岡町舟寄第９０号１５番地,,18,210,9100381,,,2024-07-02,清算の結了等,,,2015-10-05,1,,,,,サンディ,0
1043,5290001041712,登記記録の閉鎖等,0,2024-07-11,2024-06-12,株式会社柳井組,,株式会社,福岡県,春日市,星見ヶ丘２丁目５５番地１５パークアソシア春日フォレストシティ２０２号,,40,218,8160849,,,2024-06-12,清算の結了等,,,2015-10-05,1,,,,,ヤナイグミ,0
1058,5340001003161,登記記録の閉鎖等,0,2024-07-11,2024-07-03,株式会社ナチュラルフーズ,,株式会社,鹿児島県,鹿児島市,錦江町１１番５６号,,46,201,8920836,,,2024-07-03,清算の結了等,,,2015-10-05,1,,,,,ナチュラルフーズ,0
1067,5350002014339,登記記録の閉鎖等,0,2024-07-11,2024-07-01,有限会社妹尾運輸,,有限会社,宮崎県,都城市,乙房町１４９２番地３,,45,202,8850112,,,2024-07-01,清算の結了等,,,2015-10-05,1,,,,,セオウンユ,0
1082,5400001005572,登記記録の閉鎖等,0,2024-07-11,2024-06-27,株式会社ササキ,,株式会社,岩手県,花巻市,東和町土沢６区１２５番地１,,03,205,0280114,,,2024-06-27,清算の結了等,,,2015-10-05,1,,,,,ササキ,0
1085,5430001012500,登記記録の閉鎖等,0,2024-07-11,2024-07-04,株式会社西村興業,,株式会社,北海道,江別市,美原１３７３番地,,01,217,0670056,,,2024-07-04,清算の結了等,,,2015-10-05,1,,,,,ニシムラコウギョウ,0
1086,5430001015817,登記記録の閉鎖等,0,2024-07-11,2024-07-05,株式会社ホンダ北海道,,株式会社,北海道,札幌市中央区,北二十条西１５丁目４番８号,,01,101,0600020,,,2024-07-05,清算の結了等,,,2015-10-05,1,,,,,ホンダホッカイドウ,0
1092,5470001013247,登記記録の閉鎖等,0,2024-07-11,2024-07-03,株式会社小西企画,,株式会社,香川県,東かがわ市,馬篠１５３番地１,,37,207,7692520,,,2024-07-03,清算の結了等,,,2015-10-05,1,,,,,コニシキカク,0
1098,5500001004886,登記記録の閉鎖等,0,2024-07-11,2024-07-02,スラブ株式会社,,株式会社,愛媛県,伊予郡松前町,大字西古泉４３１番地,,38,401,7913134,,,2024-07-02,清算の結了等,,,2015-10-05,1,,,,,スラブ,0
1150,6011302002685,登記記録の閉鎖等,0,2024-07-11,2024-07-05,有限会社共栄舎,,有限会社,東京都,杉並区,今川２丁目２番２号,,13,115,1670035,,,2024-07-05,清算の結了等,,,2015-10-05,1,,,,,キョウエイシャ,0
1155,6011602003739,登記記録の閉鎖等,0,2024-07-11,2024-07-03,有限会社交友電機,,有限会社,東京都,練馬区,桜台１丁目１４番５号,,13,120,1760002,,,2024-07-03,清算の結了等,,,2015-10-05,1,,,,,コウユウデンキ,0
1160,6012403004942,登記記録の閉鎖等,0,2024-07-11,2024-07-09,エコノス・ジャパン合同会社,,合同会社,東京都,調布市,柴崎１丁目１１番４３号,,13,208,1820014,,,2024-07-09,清算の結了等,,,2021-07-19,1,,,,,エコノスジャパン,0
1163,6013301027936,登記記録の閉鎖等,0,2024-07-11,2024-07-10,株式会社エムツー企画,,株式会社,東京都,北区,赤羽１丁目４０番２号,,13,117,1150045,,,2024-07-10,清算の結了等,,,2015-10-05,1,,,,,エムツーキカク,0
1184,6021002017272,登記記録の閉鎖等,0,2024-07-11,2024-07-09,有限会社アイエスホーム,,有限会社,神奈川県,相模原市中央区,南橋本２丁目４番４号,,14,152,2520253,,,2024-07-09,清算の結了等,,,2015-10-05,1,,,,,,0
1185,6021002059546,登記記録の閉鎖等,0,2024-07-11,2024-07-08,有限会社フルフル,,有限会社,神奈川県,平塚市,花水台５番３４号,,14,203,2540824,,,2024-07-08,清算の結了等,,,2015-10-05,1,,,,,フルフル,0
1197,6030002000080,登記記録の閉鎖等,0,2024-07-11,2024-07-08,有限会社藍設備設計事務所,,有限会社,埼玉県,さいたま市緑区,大字大間木４５５番地２４,,11,109,3360923,,,2024-07-08,清算の結了等,,,2015-10-05,1,,,,,アイセツビセッケイ,0
1201,6040001037131,登記記録の閉鎖等,0,2024-07-11,2024-06-27,株式会社ヤマキチ,,株式会社,千葉県,松戸市,馬橋１８９７番地,,12,207,2710051,,,2024-06-27,清算の結了等,,,2015-10-05,1,,,,,ヤマキチ,0
1209,6050001030259,登記記録の閉鎖等,0,2024-07-11,2024-07-04,株式会社菅原農園,,株式会社,茨城県,常総市,大生郷町３７１９番地,,08,211,3002521,,,2024-07-04,清算の結了等,,,2015-10-05,1,,,,,スガハラノウエン,0
1215,6080002009935,登記記録の閉鎖等,0,2024-07-11,2024-07-01,有限会社サトウ,,有限会社,静岡県,静岡市清水区,真砂町２番２５号,,22,103,4240816,,,2024-07-01,清算の結了等,,,2015-10-05,1,,,,,サトウ,0
1223,6120001121505,登記記録の閉鎖等,0,2024-07-11,2024-07-03,マーキュリーコミュニケイションズ株式会社,,株式会社,大阪府,大阪市生野区,巽南３丁目１５番１２号,00028979,27,116,5440015,,,2024-07-03,清算の結了等,,,2015-10-05,1,,,,,,0
1228,6120001253538,登記記録の閉鎖等,0,2024-07-11,2024-07-10,株式会社ＦＡＶＯＲ,,株式会社,大阪府,大阪市東住吉区,鷹合２丁目２番１５号,,27,121,5460014,,,2024-07-10,清算の結了等,,,2023-03-29,1,,,,,フェイバー,0
1250,6140002031008,登記記録の閉鎖等,0,2024-07-11,2024-07-05,中央産業有限会社,,有限会社,兵庫県,神戸市西区,秋葉台１丁目５６番地の２０６,,28,111,6512224,,,2024-07-05,清算の結了等,,,2015-10-05,1,,,,,チュウオウサンギョウ,0
1255,6180001055631,登記記録の閉鎖等,0,2024-07-11,2024-06-26,株式会社コスモＲ,,株式会社,愛知県,名古屋市中区,丸の内２丁目１７番２６号（アップルパレス＜丸の内＞７０５号）,,23,106,4600002,,,2024-06-26,清算の結了等,,,2015-10-05,1,,,,,コスモアール,0
1269,6190001016137,登記記録の閉鎖等,0,2024-07-11,2024-07-09,株式会社ヘアーズプロ,,株式会社,三重県,四日市市,沖の島町２番９号,,24,202,5100083,,,2024-07-09,清算の結了等,,,2015-10-05,1,,,,,ヘアーズプロ,0
1270,6190001019734,登記記録の閉鎖等,0,2024-07-11,2024-07-08,株式会社ＫＨＤ,,株式会社,大阪府,泉大津市,若宮町１０番９号,,27,206,5950065,,,2024-07-08,清算の結了等,,,2015-10-05,1,,,,,ケーエイチディー,0
1273,6190002008728,登記記録の閉鎖等,0,2024-07-11,2024-07-10,有限会社後藤製菓,,有限会社,三重県,伊勢市,宮後２丁目１２番１３号,,24,203,5160072,,,2024-07-10,清算の結了等,,,2015-10-05,1,,,,,ゴトウセイカ,0
1276,6200001007258,登記記録の閉鎖等,0,2024-07-11,2024-07-01,株式会社橘運輸,,株式会社,愛知県,丹羽郡大口町,外坪１丁目１０７番地,,23,361,4800125,,,2024-07-01,合併による解散等,1180001062475,令和６年７月１日愛知県春日井市八事町一丁目１８３番地１株式会社橘運輸（1180001062475）に合併し解散,2015-10-05,1,,,,,タチバナウンユ,0
1286,6260001014851,登記記録の閉鎖等,0,2024-07-11,2024-07-01,水島タクシー株式会社,,株式会社,岡山県,倉敷市,中畝３丁目５番１８号,,33,202,7128051,,,2024-07-01,清算の結了等,,,2015-10-05,1,,,,,ミズシマタクシー,0
1294,6290001093463,登記記録の閉鎖等,0,2024-07-11,2024-06-17,茂林株式会社,,株式会社,福岡県,福岡市中央区,天神３丁目４番１号旭栄第一天神ビル３階,,40,133,8100001,,,2024-06-17,清算の結了等,,,2021-06-09,1,,,,,モリン,0
1308,6330002007541,登記記録の閉鎖等,0,2024-07-11,2024-07-01,有限会社中川サービスクリエーター,,有限会社,熊本県,熊本市西区,蓮台寺５丁目５番１８号,00097642,43,103,8600055,,,2024-07-01,清算の結了等,,,2015-10-05,1,,,,,ナカガワサービスクリエーター,0
1326,6430001008514,登記記録の閉鎖等,0,2024-07-11,2024-07-05,株式会社スポーツシヨツプイシダ,,株式会社,北海道,札幌市清田区,清田一条１丁目４番３０号,,01,110,0040841,,,2024-07-05,清算の結了等,,,2015-10-05,1,,,,,スポーツショップイシダ,0
1331,6430003012919,登記記録の閉鎖等,0,2024-07-11,2024-07-05,合同会社ＲＥＡＲＧＵＡＲＤ,,合同会社,北海道,札幌市豊平区,福住二条１０丁目１７－５,,01,105,0620042,,,2024-07-05,清算の結了等,,,2021-07-07,1,,,,,リアガード,0
1341,6500002019957,登記記録の閉鎖等,0,2024-07-11,2024-07-01,有限会社三和石材開発,,有限会社,愛媛県,今治市,宮窪町宮窪５２２２番地,,38,202,7942203,,,2024-07-01,合併による解散等,8500002020351,令和６年６月３０日愛媛県今治市宮窪町宮窪５２２８番地高瀬石材株式会社（8500002020351）に合併し解散,2015-10-05,1,,,,,サンワセキザイカイハツ,0
1344,7010001028082,登記記録の閉鎖等,0,2024-07-11,2024-07-05,ファムサービス株式会社,,株式会社,東京都,千代田区,一番町９番地１２,,13,101,1020082,,,2024-07-05,合併による解散等,5120001043163,令和６年７月１日大阪市西区西本町二丁目２番４号大泉商事株式会社（5120001043163）に合併し解散,2015-10-05,1,,,,,ファムサービス,0
1345,7010001099405,登記記録の閉鎖等,0,2024-07-11,2024-07-01,株式会社ジョニー・ジャガー・ジャパン,,株式会社,東京都,中央区,日本橋小網町１１番５号７階,,13,102,1030016,,,2024-07-01,清算の結了等,,,2015-10-05,1,,,,,ジョニージャガージャパン,0
1347,7010001140028,登記記録の閉鎖等,0,2024-07-11,2024-07-08,稲川デベロップメント株式会社,,株式会社,大阪府,大阪市西成区,花園北１丁目１０番１６号,,27,122,5570016,,,2024-07-08,清算の結了等,,,2015-10-05,1,,,,,イナガワデベロップメント,0
1362,7010403014820,登記記録の閉鎖等,0,2024-07-11,2024-06-26,イーストゲート合同会社,,合同会社,東京都,港区,赤坂２丁目１０番５号税理士法人赤坂国際会計事務所内,,13,103,1070052,,,2024-06-26,清算の結了等,,,2016-05-25,1,,,,,イーストゲート,0
1398,7012402022498,登記記録の閉鎖等,0,2024-07-11,2024-07-10,有限会社杉田,,有限会社,東京都,府中市,宮西町２丁目８番地の４,,13,206,1830022,,,2024-07-10,清算の結了等,,,2015-10-05,1,,,,,,0
1402,7013401002417,登記記録の閉鎖等,0,2024-07-11,2024-07-01,コニカミノルタビジネスアソシエイツ株式会社,,株式会社,東京都,日野市,さくら町１番地,,13,212,1910063,,,2024-07-01,合併による解散等,8013401000254,令和６年７月１日東京都日野市さくら町１番地コニカミノルタコネクト株式会社（8013401000254）に合併し解散,2015-10-05,1,,,,,コニカミノルタビジネスアソシエイツ,0
1414,7021002035513,登記記録の閉鎖等,0,2024-07-11,2024-07-09,有限会社ほのぼの亭,,有限会社,神奈川県,伊勢原市,岡崎６８７２番地の２,,14,214,2591135,,,2024-07-09,清算の結了等,,,2015-10-05,1,,,,,ホノボノテイ,0
1427,7040001014591,登記記録の閉鎖等,0,2024-07-11,2024-06-05,大京通信工業株式会社,,株式会社,千葉県,習志野市,津田沼６丁目１３番２６号,,12,216,2750016,,,2024-06-05,清算の結了等,,,2015-10-05,1,,,,,ダイキョウツウシンコウギョウ,0
1440,7070005008141,登記記録の閉鎖等,0,2024-07-11,2024-07-08,特定非営利活動法人国際環境保全学術センター,,その他の設立登記法人,群馬県,高崎市,高関町３０６番地４,,10,202,3700043,,,2024-07-08,清算の結了等,,,2015-10-05,1,,,,,コクサイカンキョウホゼンガクジュツセンター,0
1442,7080002007343,登記記録の閉鎖等,0,2024-07-11,2024-07-01,有限会社ケンビットデザイン,,有限会社,静岡県,静岡市駿河区,高松１丁目１４番１６号,,22,102,4228034,,,2024-07-01,合併による解散等,6080002001917,令和６年６月３０日静岡市駿河区高松一丁目１４番１６号株式会社ケンビット（6080002001917）に合併し解散,2015-10-05,1,,,,,,0
1443,7080102009347,登記記録の閉鎖等,0,2024-07-11,2024-07-08,有限会社安達興産,,有限会社,静岡県,三島市,中央町６番３６号,,22,206,4110858,,,2024-07-08,清算の結了等,,,2015-10-05,1,,,,,アダチコウサン,0
1447,7080402006515,登記記録の閉鎖等,0,2024-07-11,2024-07-01,有限会社浜南商事,,有限会社,静岡県,浜松市中央区,上新屋町４１番地,,22,138,4350053,,,2024-07-01,合併による解散等,7080402000195,令和６年６月３０日静岡県浜松市中央区上新屋町４１番地株式会社アーバン建設（7080402000195）に合併し解散,2015-10-05,1,,,,,ハマナンショウジ,0
1453,7120001043806,登記記録の閉鎖等,0,2024-07-11,2024-07-01,株式会社ワンストップ,,株式会社,大阪府,大阪市西区,江戸堀１丁目９番６号,,27,106,5500002,,,2024-07-01,合併による解散等,1120001041534,令和６年７月１日大阪市西区江戸堀一丁目９番６号株式会社ウイル（1120001041534）に合併し解散,2015-10-05,1,,,,,ワンストップ,0
1470,7130001053655,登記記録の閉鎖等,0,2024-07-11,2024-07-04,株式会社イースタイル,,株式会社,滋賀県,大津市,大将軍１丁目８番３１号,,25,201,5202145,,,2024-07-04,清算の結了等,,,2015-10-05,1,,,,,イースタイル,0
1472,7130002002248,登記記録の閉鎖等,0,2024-07-11,2024-07-08,有限会社ノエール,,有限会社,京都府,京都市上京区,一条通七本松西入滝ケ鼻町４２９－２３オリオンプラザ２０１号,,26,102,6028336,,,2024-07-08,清算の結了等,,,2015-10-05,1,,,,,ノエール,0
1478,7140001109398,登記記録の閉鎖等,0,2024-07-11,2024-07-05,株式会社タイドジャパン,,株式会社,兵庫県,神戸市北区,ひよどり台南町３丁目２番地の１０,,28,109,6511125,,,2024-07-05,清算の結了等,,,2018-03-15,1,,,,,タイドジャパン,0
1486,7180001138237,登記記録の閉鎖等,0,2024-07-11,2024-06-27,ジェイハニカムズ株式会社,,株式会社,愛知県,名古屋市西区,長先町２９１番地１,,23,104,4520838,,,2024-06-27,清算の結了等,,,2019-09-27,1,,,,,ジェイハニカムズ,0
1491,7180305008053,登記記録の閉鎖等,0,2024-07-11,2024-07-01,協同組合アンジョウハーツ,,その他の設立登記法人,愛知県,安城市,桜町１６番１号,,23,212,4460041,,,2024-07-01,清算の結了等,,,2015-10-05,1,,,,,アンジョウハーツ,0
1520,7290002010466,登記記録の閉鎖等,0,2024-07-11,2024-06-12,有限会社キャラット田中,,有限会社,福岡県,福岡市中央区,薬院２丁目４番２７号,,40,133,8100022,,,2024-06-12,清算の結了等,,,2015-10-05,1,,,,,,0
1521,7290003003007,登記記録の閉鎖等,0,2024-07-11,2024-06-12,合名会社宮崎二男商店,,合名会社,福岡県,久留米市,田主丸町豊城１番地の６,,40,203,8391234,,,2024-06-12,清算の結了等,,,2015-10-05,1,,,,,ミヤザキツギオショウテン,0
1532,7370602001641,登記記録の閉鎖等,0,2024-07-11,2024-06-27,有限会社北杜サービスカンパニー,,有限会社,宮城県,宮城郡利府町,利府字館３２番地,,04,406,9810112,,,2024-06-27,清算の結了等,,,2015-10-05,1,,,,,ホクトサービスカンパニー,0
1548,7470002006405,登記記録の閉鎖等,0,2024-07-11,2024-07-01,有限会社松本化粧品店,,有限会社,香川県,高松市,仏生山町甲４６４番地,,37,201,7618078,,,2024-07-01,清算の結了等,,,2015-10-05,1,,,,,マツモトケショウヒンテン,0
1550,7480002014563,登記記録の閉鎖等,0,2024-07-11,2024-07-03,有限会社イハラグループ,,有限会社,徳島県,美馬市,穴吹町三島字舞中島２９３番地,,36,207,7770002,,,2024-07-03,清算の結了等,,,2015-10-05,1,,,,,イハラグループ,0
1552,7500002019956,登記記録の閉鎖等,0,2024-07-11,2024-07-01,有限会社花咲石材開発,,有限会社,愛媛県,今治市,宮窪町宮窪５２２２番地,,38,202,7942203,,,2024-07-01,合併による解散等,8500002020351,令和６年６月３０日愛媛県今治市宮窪町宮窪５２２８番地高瀬石材株式会社（8500002020351）に合併し解散,2015-10-05,1,,,,,ハナサキセキザイカイハツ,0
1557,8010001189097,登記記録の閉鎖等,0,2024-07-11,2024-06-28,Ｚコーポレーション株式会社,,株式会社,東京都,千代田区,紀尾井町１番３号,,13,101,1020094,,,2024-06-28,清算の結了等,,,2018-01-22,1,,,,,ゼットコーポレーション,0
1581,8010901010527,登記記録の閉鎖等,0,2024-07-11,2024-07-05,株式会社福田,,株式会社,東京都,世田谷区,太子堂１丁目１２番２７号,,13,112,1540004,,,2024-07-05,清算の結了等,,,2015-10-05,1,,,,,フクダ,0
1584,8011001004048,登記記録の閉鎖等,0,2024-07-11,2024-06-20,株式会社エヌ・ツー,,株式会社,東京都,渋谷区,富ヶ谷１丁目９番１５号,,13,113,1510063,,,2024-06-20,清算の結了等,,,2015-10-05,1,,,,,,0
1594,8011002003619,登記記録の閉鎖等,0,2024-07-11,2024-06-27,有限会社クラスタ,,有限会社,東京都,渋谷区,神宮前２丁目３０番２６号,,13,113,1500001,,,2024-06-27,清算の結了等,,,2015-10-05,1,,,,,,0
1601,8011501026681,登記記録の閉鎖等,0,2024-07-11,2024-07-10,株式会社Ｐｏｎｄ,,株式会社,東京都,荒川区,東日暮里３丁目１３番１号,,13,118,1160014,,,2024-07-10,清算の結了等,,,2021-03-03,1,,,,,ポンド,0
1602,8011601006872,登記記録の閉鎖等,0,2024-07-11,2024-07-05,株式会社メディカ,,株式会社,東京都,練馬区,旭丘１丁目６５番１７号,,13,120,1760005,,,2024-07-05,清算の結了等,,,2015-10-05,1,,,,,メディカ,0
1608,8012302007862,登記記録の閉鎖等,0,2024-07-11,2024-06-27,有限会社オフィスイマダ,,有限会社,神奈川県,川崎市麻生区,上麻生３丁目２２番１１－７０５号,,14,137,2150021,,,2024-06-27,清算の結了等,,,2015-10-05,1,,,,,オフィスイマダ,0
1623,8021001069651,登記記録の閉鎖等,0,2024-07-11,2024-07-04,株式会社大和ホーム,,株式会社,神奈川県,大和市,南林間１丁目７番９号,,14,213,2420006,,,2024-07-04,清算の結了等,,,2020-04-09,1,,,,,ダイワホーム,0
1630,8021002051253,登記記録の閉鎖等,0,2024-07-11,2024-07-08,有限会社扇設備工業,,有限会社,神奈川県,小田原市,寿町３丁目３番１３号,,14,206,2500002,,,2024-07-08,清算の結了等,,,2015-10-05,1,,,,,オウギセツビコウギョウ,0
1651,8040001095672,登記記録の閉鎖等,0,2024-07-11,2024-06-28,ｕｎｉｃｏ　ｔａｂｌｅ株式会社,,株式会社,千葉県,南房総市,白浜町白浜２３２番地４エスカール白浜２Ｆ,,12,234,2950102,,,2024-06-28,清算の結了等,,,2016-06-14,1,,,,,,0
1654,8040002033012,登記記録の閉鎖等,0,2024-07-11,2024-06-27,有限会社エルグス,,有限会社,千葉県,市川市,曽谷３丁目４２番１４号,,12,203,2720832,,,2024-06-27,清算の結了等,,,2015-10-05,1,,,,,エルグス,0
1670,8080101018430,登記記録の閉鎖等,0,2024-07-11,2024-07-08,広福貿易株式会社,,株式会社,静岡県,沼津市,町方町６１番地,,22,203,4100882,,,2024-07-08,清算の結了等,,,2015-10-05,1,,,,,コウフクボウエキ,0
1671,8080102004603,登記記録の閉鎖等,0,2024-07-11,2024-07-08,有限会社ワン・テン,,有限会社,静岡県,裾野市,富沢３９１番地の２,,22,220,4101125,,,2024-07-08,清算の結了等,,,2015-10-05,1,,,,,ワンテン,0
1672,8080102020294,登記記録の閉鎖等,0,2024-07-11,2024-07-08,有限会社ナカマタ建築リフォーム,,有限会社,静岡県,伊東市,荻６４９番地の８８,,22,208,4140053,,,2024-07-08,清算の結了等,,,2015-10-05,1,,,,,ナカマタケンチクリフォーム,0
1682,8110003004203,登記記録の閉鎖等,0,2024-07-11,2024-07-02,松キッチン合同会社,,合同会社,新潟県,長岡市,殿町３丁目５番地６マンションパレス２０１Ａ,,15,202,9400064,,,2024-07-02,清算の結了等,,,2020-07-01,1,,,,,マツキッチン,0
1705,8120902000565,登記記録の閉鎖等,0,2024-07-11,2024-07-05,有限会社共立自動車,,有限会社,大阪府,茨木市,大字生保１６１番地,,27,211,5680092,,,2024-07-05,清算の結了等,,,2015-10-05,1,,,,,,0
1711,8130002014465,登記記録の閉鎖等,0,2024-07-11,2024-07-08,有限会社トヨテック,,有限会社,京都府,京都市伏見区,醍醐切レ戸町９番地の３,,26,109,6011327,,,2024-07-08,清算の結了等,,,2015-10-05,1,,,,,トヨテック,0
1725,8140005005452,登記記録の閉鎖等,0,2024-07-11,2024-07-08,西明石南商店街事業協同組合,,その他の設立登記法人,兵庫県,明石市,西明石南町１丁目６番１３号,,28,203,6730041,,,2024-07-08,清算の結了等,,,2015-10-05,1,,,,,ニシアカシミナミショウテンガイ,0
1728,8160001012896,登記記録の閉鎖等,0,2024-07-11,2024-07-04,新世代株式会社,,株式会社,滋賀県,栗東市,六地蔵２２３－５,,25,208,5203017,,,2024-07-04,清算の結了等,,,2015-10-05,1,,,,,シンセダイ,0
1740,8190003003643,登記記録の閉鎖等,0,2024-07-11,2024-07-05,合同会社西立建設,,合同会社,三重県,伊勢市,藤里町１番地２７３,,24,203,5160043,,,2024-07-05,清算の結了等,,,2021-04-06,1,,,,,セイリュウケンセツ,0
1753,8260001026036,登記記録の閉鎖等,0,2024-07-11,2024-07-01,株式会社リンクエイド,,株式会社,岡山県,岡山市北区,駅前町１丁目８番１号岡山新光ビル５Ｆ,,33,101,7000023,,,2024-07-01,清算の結了等,,,2015-10-05,1,,,,,リンクエイド,0
1755,8280001000807,登記記録の閉鎖等,0,2024-07-11,2024-07-09,株式会社松江本舗,,株式会社,島根県,松江市,灘町６番地,00004591,32,201,6900065,,,2024-07-09,清算の結了等,,,2015-10-05,1,,,,,マツエホンポ,0
1761,8330001008068,登記記録の閉鎖等,0,2024-07-11,2024-06-28,株式会社ドゥ・アシスト,,株式会社,熊本県,熊本市西区,上熊本２丁目２番２４－８０４号,,43,103,8600079,,,2024-06-28,清算の結了等,,,2015-10-05,1,,,,,ドゥアシスト,0
1762,8330001015155,登記記録の閉鎖等,0,2024-07-11,2024-06-26,北時建設株式会社,,株式会社,熊本県,天草市,久玉町新久玉５７０８番地の７,,43,215,8631902,,,2024-06-26,清算の結了等,,,2015-10-05,1,,,,,キタトキケンセツ,0
1774,8380002034141,登記記録の閉鎖等,0,2024-07-11,2024-07-01,昭和自動車有限会社,,有限会社,福島県,河沼郡会津坂下町,字上口５９３番地,,07,421,9696531,,,2024-07-01,合併による解散等,7380001018922,令和６年７月１日福島県河沼郡会津坂下町大字新舘字大西８４１番地３株式会社セーリング（7380001018922）に合併し解散,2015-10-05,1,,,,,ショウワジドウシャ,0
1775,8380003004291,登記記録の閉鎖等,0,2024-07-11,2024-07-01,合同会社会津ギャラリー,,合同会社,福島県,会津若松市,七日町３番２８号,,07,202,9650044,,,2024-07-01,清算の結了等,,,2018-07-13,1,,,,,アイヅギャラリー,0
1782,8430002062310,登記記録の閉鎖等,0,2024-07-11,2024-07-03,有限会社中川布団店,,有限会社,北海道,浦河郡浦河町,東町かしわ１丁目３番３１号,,01,607,0570006,,,2024-07-03,清算の結了等,,,2015-10-05,1,,,,,ナカガワフトンテン,0
1785,8500002004189,登記記録の閉鎖等,0,2024-07-11,2024-07-03,有限会社武田商店,,有限会社,愛媛県,松山市,萱町３丁目５番地１５,,38,201,7900813,,,2024-07-03,清算の結了等,,,2015-10-05,1,,,,,タケダショウテン,0
1795,9010003041791,登記記録の閉鎖等,0,2024-07-11,2024-06-28,ｋｋｎ　ｓｅｌｅｃｔ合同会社,,合同会社,東京都,千代田区,神田和泉町一丁目６番１６号ヤマトビル４０５,,13,101,1010024,,,2024-06-28,清算の結了等,,,2023-10-02,1,,,,,ケーケーエヌセレクト,0
1809,9010501022723,登記記録の閉鎖等,0,2024-07-11,2024-07-01,株式会社ＦＣＥエデュケーション,,株式会社,東京都,新宿区,西新宿２丁目４番１号,,13,104,1600023,,,2024-07-01,合併による解散等,5011101080339,令和６年７月１日東京都新宿区西新宿二丁目４番１号株式会社ＦＣＥ（5011101080339）に合併し解散,2015-10-05,1,,,,,エフシーイーエデュケーション,0
1814,9010701009363,登記記録の閉鎖等,0,2024-07-11,2024-07-01,株式会社マルヤス電機,,株式会社,東京都,品川区,平塚３丁目１０番２号,,13,109,1420051,,,2024-07-01,合併による解散等,4010701009376,令和６年６月３０日東京都品川区平塚三丁目１０番２号満留保電機株式会社（4010701009376）に合併し解散,2015-10-05,1,,,,,マルヤスデンキ,0
1828,9011101022873,登記記録の閉鎖等,0,2024-07-11,2024-07-03,株式会社連合会計システム,,株式会社,東京都,新宿区,新宿２丁目１５番２号,,13,104,1600022,,,2024-07-03,清算の結了等,,,2015-10-05,1,,,,,レンゴウカイケイシステム,0
1842,9012301010081,登記記録の閉鎖等,0,2024-07-11,2024-07-08,株式会社ヴィレッジパル,,株式会社,東京都,町田市,小山町５００８番地２,,13,209,1940212,,,2024-07-08,清算の結了等,,,2015-10-05,1,,,,,,0
1847,9020001078686,登記記録の閉鎖等,0,2024-07-11,2024-07-01,新横管財株式会社,,株式会社,東京都,中央区,日本橋２丁目１番１４号日本橋加藤ビルディング６階弁護士法人ＰＬＡＺＡ総合法律事務所内,,13,102,1030027,,,2024-07-01,清算の結了等,,,2015-10-05,1,,,,,,0
1851,9020002078917,登記記録の閉鎖等,0,2024-07-11,2024-07-08,リソー開発有限会社,,有限会社,沖縄県,浦添市,伊祖３丁目４３番１号,,47,208,9012132,,,2024-07-08,清算の結了等,,,2015-10-05,1,,,,,リソーカイハツ,0
1857,9021002031683,登記記録の閉鎖等,0,2024-07-11,2024-07-05,有限会社五味ビル,,有限会社,神奈川県,厚木市,中町４丁目１４番５号,,14,212,2430018,,,2024-07-05,清算の結了等,,,2015-10-05,1,,,,,ゴミビル,0
1861,9030001126733,登記記録の閉鎖等,0,2024-07-11,2024-07-01,株式会社ＯＫｃｏｍｐａｎｙ,,株式会社,埼玉県,志木市,本町５丁目２１番１３号,,11,228,3530004,,,2024-07-01,合併による解散等,2030001040676,令和６年７月１日埼玉県志木市本町五丁目２１番１３号株式会社ジンクル（2030001040676）に合併し解散,2018-07-26,1,,,,,オーケーカンパニー,0
1866,9030003013731,登記記録の閉鎖等,0,2024-07-11,2024-07-01,萬や合同会社,,合同会社,埼玉県,熊谷市,万平町２丁目７９番地１,,11,202,3600034,,,2024-07-01,清算の結了等,,,2019-06-27,1,,,,,ヨロズヤ,0
1917,9120101000787,登記記録の閉鎖等,0,2024-07-11,2024-07-09,ウエダパン株式会社,,株式会社,大阪府,堺市中区,深井畑山町１６１番地の４,,27,142,5998248,,,2024-07-09,清算の結了等,,,2015-10-05,1,,,,,ウエダパン,0
1928,9130005012226,登記記録の閉鎖等,0,2024-07-11,2024-07-01,特定非営利活動法人京都ＳＭＩ,,その他の設立登記法人,京都府,京都市下京区,鶏鉾町４８０番地オフィス・ワン四条烏丸,,26,106,6008491,,,2024-07-01,清算の結了等,,,2015-10-05,1,,,,,キョウトエスエムアイ,0
1938,9180002035753,登記記録の閉鎖等,0,2024-07-11,2024-06-26,有限会社水野ハウス,,有限会社,愛知県,名古屋市千種区,本山町４丁目４３番地,,23,101,4640036,,,2024-06-26,清算の結了等,,,2015-10-05,1,,,,,ミズノハウス,0
1949,9220001021056,登記記録の閉鎖等,0,2024-07-11,2024-07-02,株式会社ＳＹＫＫ,,株式会社,石川県,金沢市,長町１丁目４番５５号せせらぎ通り百番ビル４０５,,17,201,9200865,,,2024-07-02,合併による解散等,3220001020831,令和６年７月１日石川県金沢市池田町三番丁３７番地１株式会社Ｂｅｌｌｓ　Ｓｙｓｔｅｍ（3220001020831）に合併し解散,2016-06-16,1,,,,,エスワイケイケイ,0
1951,9240002046892,登記記録の閉鎖等,0,2024-07-11,2024-07-05,有限会社松坂茶舗,,有限会社,広島県,府中市,府中町７４８番地の１０,,34,208,7260005,,,2024-07-05,清算の結了等,,,2015-10-05,1,,,,,マツサカチャホ,0
1953,9260002022586,登記記録の閉鎖等,0,2024-07-11,2024-07-01,有限会社リペアー設備,,有限会社,岡山県,倉敷市,中畝３丁目４番１３号,,33,202,7128051,,,2024-07-01,清算の結了等,,,2015-10-05,1,,,,,リペアーセツビ,0
1957,9290001007916,登記記録の閉鎖等,0,2024-07-11,2024-06-12,株式会社シーズン,,株式会社,福岡県,福岡市博多区,美野島４丁目１番２２号,,40,132,8120017,,,2024-06-12,清算の結了等,,,2015-10-05,1,,,,,シーズン,0
1977,9330002010138,登記記録の閉鎖等,0,2024-07-11,2024-07-01,有限会社魅咲金属工業,,有限会社,熊本県,熊本市中央区,九品寺５丁目１番２９号,,43,101,8620976,,,2024-07-01,清算の結了等,,,2015-10-05,1,,,,,ミサキキンゾクコウギョウ,0
2009,9500001019492,登記記録の閉鎖等,0,2024-07-11,2024-07-02,フジタＥＮＧ．株式会社,,株式会社,愛媛県,新居浜市,萩生６８０番地,,38,205,7920050,,,2024-07-02,清算の結了等,,,2015-12-11,1,,,,,フジタエンジニアリング,0
