sequenceNumber,corporateNumber,process,correct,updateDate,changeDate,name,nameImageId,kind,prefectureName,cityName,streetNumber,addressImageId,prefectureCode,cityCode,postCode,addressOutside,addressOutsideImageId,closeDate,closeCause,successorCorporateNumber,changeCause,assignmentDate,latest,enName,enPrefectureName,enCityName,enAddressOutside,furigana,hihyoji
2,1010001226022,登記記録の閉鎖等,0,2024-05-17,2024-05-02,日本皮膚美容研究院株式会社,,株式会社,東京都,中央区,東日本橋２丁目２８番５号５０８,,13,102,1030004,,,2024-05-02,清算の結了等,,,2022-04-19,1,,,,,ニホンヒフビヨウケンキュウイン,0
22,1010401178128,登記記録の閉鎖等,0,2024-05-17,2024-05-14,ＭＣＰ１９株式会社,,株式会社,東京都,港区,元赤坂１丁目１番８号株式会社赤坂国際会計内,,13,103,1070051,,,2024-05-14,合併による解散等,4310002007751,令和６年５月１日長崎県西彼杵郡時津町浜田郷２９９番地１０株式会社さわもと犬猫病院（4310002007751）に合併し解散,2023-10-30,1,,,,,エムシーピーワンナイン,0
26,1010403023141,登記記録の閉鎖等,0,2024-05-17,2024-04-26,合同会社Ｔｉｗａｌ,,合同会社,東京都,港区,虎ノ門５丁目１番４号,,13,103,1050001,,,2024-04-26,清算の結了等,,,2020-06-15,1,,,,,ティワル,0
38,1010802008016,登記記録の閉鎖等,0,2024-05-17,2024-05-10,有限会社石翔企画,,有限会社,東京都,大田区,仲六郷２丁目１９番３号,,13,111,1440055,,,2024-05-10,清算の結了等,,,2015-10-05,1,,,,,セキショウキカク,0
49,1011001135584,登記記録の閉鎖等,0,2024-05-17,2024-04-30,株式会社ＫＰＫ,,株式会社,東京都,渋谷区,円山町７－１２藤和渋谷コープ２－６０２,,13,113,1500044,,,2024-04-30,清算の結了等,,,2020-09-03,1,,,,,ケーピーケー,0
51,1011001139610,登記記録の閉鎖等,0,2024-05-17,2024-04-30,ＨＯＬＬＩＳ株式会社,,株式会社,東京都,渋谷区,東１丁目３２番１２号,,13,113,1500011,,,2024-04-30,清算の結了等,,,2021-04-12,1,,,,,ホリス,0
52,1011002035602,登記記録の閉鎖等,0,2024-05-17,2024-04-30,有限会社エフムーブ,,有限会社,東京都,渋谷区,代々木１丁目１９番１３号藤ビル１階,,13,113,1510053,,,2024-04-30,清算の結了等,,,2015-10-05,1,,,,,エフムーブ,0
61,1011102008557,登記記録の閉鎖等,0,2024-05-17,2024-05-10,有限会社テクノウ,,有限会社,東京都,板橋区,本町３７番５号板橋ビューグリーン２０３号,,13,119,1730001,,,2024-05-10,清算の結了等,,,2015-10-05,1,,,,,テクノウ,0
66,1011401015898,登記記録の閉鎖等,0,2024-05-17,2024-05-09,株式会社アン・クール,,株式会社,東京都,板橋区,大谷口北町６２番１号,,13,119,1730031,,,2024-05-09,清算の結了等,,,2015-10-05,1,,,,,アンクール,0
69,1011701005228,登記記録の閉鎖等,0,2024-05-17,2024-05-08,株式会社ティ・ビー・アイ,,株式会社,東京都,江戸川区,西葛西５丁目５番１０号,,13,123,1340088,,,2024-05-08,清算の結了等,,,2015-10-05,1,,,,,ティビーアイ,0
77,1012301011541,登記記録の閉鎖等,0,2024-05-17,2024-05-13,株式会社メディアトレジャー,,株式会社,東京都,町田市,根岸１丁目１１番地１７,,13,209,1940038,,,2024-05-13,清算の結了等,,,2018-10-23,1,,,,,メディアトレジャー,0
86,1013301050026,登記記録の閉鎖等,0,2024-05-17,2024-05-07,株式会社タイムメルト,,株式会社,東京都,豊島区,高松１丁目１番１１号東京ファーストシティビル４Ｆ,,13,116,1710042,,,2024-05-07,合併による解散等,6010001185619,令和６年５月１日東京都豊島区高松一丁目１番１１号東京ファーストシティビル４Ｆ株式会社ＶＡＲＫ（6010001185619）に合併し解散,2022-12-07,1,,,,,タイムメルト,0
87,1013302010136,登記記録の閉鎖等,0,2024-05-17,2024-05-07,有限会社モノダス豊島,,有限会社,東京都,豊島区,池袋本町１丁目３８番７号,,13,116,1700011,,,2024-05-07,清算の結了等,,,2015-10-05,1,,,,,モノダストシマ,0
105,1020003020182,登記記録の閉鎖等,0,2024-05-17,2024-05-09,合同会社コラット,,合同会社,神奈川県,横浜市港北区,綱島東６丁目１２番１３－２号,,14,109,2230052,,,2024-05-09,清算の結了等,,,2021-07-16,1,,,,,コラット,0
116,1030001108573,登記記録の閉鎖等,0,2024-05-17,2024-05-13,イッティージャパンイースト株式会社,,株式会社,埼玉県,さいたま市大宮区,下町１丁目５０番地,,11,103,3300844,,,2024-05-13,合併による解散等,6180001054071,令和６年５月１日名古屋市名東区姫若町３番地の２イッティージャパン株式会社（6180001054071）に合併し解散,2015-10-05,1,,,,,イッティージャパンイースト,0
123,1030002005167,登記記録の閉鎖等,0,2024-05-17,2024-05-14,有限会社コンシェルジュリー,,有限会社,埼玉県,さいたま市大宮区,高鼻町２丁目３４６番地１,,11,103,3300803,,,2024-05-14,清算の結了等,,,2015-10-05,1,,,,,コンシェルジュリー,0
127,1040001039124,登記記録の閉鎖等,0,2024-05-17,2024-05-07,千葉サッシュ工業株式会社,,株式会社,千葉県,松戸市,栗山６０８,,12,207,2710097,,,2024-05-07,清算の結了等,,,2015-10-05,1,,,,,チバサッシュコウギョウ,0
144,1070002014882,登記記録の閉鎖等,0,2024-05-17,2024-05-16,有限会社相馬自動車工業,,有限会社,群馬県,安中市,中宿２１６６番地１,,10,211,3790115,,,2024-05-16,清算の結了等,,,2015-10-05,1,,,,,ソウマジドウシャコウギョウ,0
152,1080405000355,登記記録の閉鎖等,0,2024-05-17,2024-05-16,医療法人社団八木矯正歯科クリニック,,その他の設立登記法人,静岡県,浜松市中央区,板屋町１１０番地の５第一生命日通ビル２階,,22,138,4300928,,,2024-05-16,清算の結了等,,,2015-10-05,1,,,,,ヤギキョウセイシカクリニック,0
159,1120001173435,登記記録の閉鎖等,0,2024-05-17,2024-05-09,株式会社水田金物,,株式会社,大阪府,大阪市住吉区,山之内１丁目２４番２１号,,27,120,5580023,,,2024-05-09,清算の結了等,,,2015-10-05,1,,,,,ミズタカナモノ,0
172,1120003013044,登記記録の閉鎖等,0,2024-05-17,2024-05-14,華音合同会社,,合同会社,大阪府,大阪市住吉区,我孫子２丁目４番３０号ラフォーレＢ４０１号,,27,120,5580014,,,2024-05-14,清算の結了等,,,2017-07-05,1,,,,,カノン,0
178,1120101003558,登記記録の閉鎖等,0,2024-05-17,2024-05-09,株式会社信ランドリー,,株式会社,大阪府,堺市中区,深阪１丁４番６８号,,27,142,5998253,,,2024-05-09,清算の結了等,,,2015-10-05,1,,,,,シンランドリー,0
204,1150001010866,登記記録の閉鎖等,0,2024-05-17,2024-05-16,株式会社ビランニット,,株式会社,奈良県,橿原市,木原町６５番地の１,,29,205,6340004,,,2024-05-16,清算の結了等,,,2015-10-05,1,,,,,ビランニット,0
207,1160001007977,登記記録の閉鎖等,0,2024-05-17,2024-05-10,ジャパン・アセットマネジメント株式会社,,株式会社,滋賀県,長浜市,宮司町１１２６番地２,,25,203,5260831,,,2024-05-10,合併による解散等,4160002007742,令和６年５月１日滋賀県長浜市八幡東町９６番地１株式会社エム・ジェイホーム（4160002007742）に合併し解散,2015-10-05,1,,,,,ジャパンアセットマネジメント,0
208,1180001077309,登記記録の閉鎖等,0,2024-05-17,2024-05-09,ＡＵＴＯＢＡＮＫ株式会社,,株式会社,愛知県,小牧市,大字上末３５５４番地,,23,219,4850822,,,2024-05-09,清算の結了等,,,2015-10-05,1,,,,,オートバンク,0
210,1180001101266,登記記録の閉鎖等,0,2024-05-17,2024-05-08,株式会社ぷれあです,,株式会社,愛知県,一宮市,若竹２丁目２番１－８０２号,,23,203,4910832,,,2024-05-08,清算の結了等,,,2015-10-05,1,,,,,プレアデス,0
215,1180001152086,登記記録の閉鎖等,0,2024-05-17,2024-05-08,株式会社ＳＵＰＥＲＮＯＶＡ　ＨＯＬＤＩＮＧＳ,,株式会社,愛知県,東海市,富貴ノ台６丁目１８５番地の２,,23,222,4760014,,,2024-05-08,清算の結了等,,,2022-07-28,1,,,,,スーパーノヴァホールディングス,0
218,1180002026421,登記記録の閉鎖等,0,2024-05-17,2024-05-09,有限会社ブーメラン,,有限会社,愛知県,名古屋市緑区,鳴子町４丁目１０番地,,23,114,4580041,,,2024-05-09,清算の結了等,,,2015-10-05,1,,,,,ブーメラン,0
219,1180002042088,登記記録の閉鎖等,0,2024-05-17,2024-05-10,株式会社エヌエムシー,,株式会社,愛知県,名古屋市中区,千代田４丁目２番７号,,23,106,4600012,,,2024-05-10,合併による解散等,3180001046798,令和６年５月１日名古屋市中区千代田四丁目２番７号株式会社かぶらやグループ（3180001046798）に合併し解散,2015-10-05,1,,,,,エヌエムシー,0
222,1180002050792,登記記録の閉鎖等,0,2024-05-17,2024-05-08,有限会社グレースシューズ,,有限会社,愛知県,名古屋市西区,菊井１丁目２４番２２号,,23,104,4510044,,,2024-05-08,清算の結了等,,,2015-10-05,1,,,,,グレースシューズ,0
235,1200005001427,登記記録の閉鎖等,0,2024-05-17,2024-05-14,医療法人社団春和会,,その他の設立登記法人,岐阜県,岐阜市,芥見南山１丁目２番１０号,,21,201,5013133,,,2024-05-14,清算の結了等,,,2015-10-05,1,,,,,シュンワカイ,0
249,1240001016202,登記記録の閉鎖等,0,2024-05-17,2024-05-01,サイブリッジコーポレーション株式会社,,株式会社,東京都,港区,南青山２丁目２番１５号,,13,103,1070062,,,2024-05-01,合併による解散等,2010401082114,令和６年５月１日東京都港区南青山二丁目２番１５号サイブリッジグループ株式会社（2010401082114）に合併し解散,2015-10-05,1,,,,,サイブリッジコーポレーション,0
262,1260002019210,登記記録の閉鎖等,0,2024-05-17,2024-05-09,有限会社曽根ストアー,,有限会社,岡山県,倉敷市,玉島柏島３０４１番地の３,,33,202,7138123,,,2024-05-09,清算の結了等,,,2015-10-05,1,,,,,ソネストアー,0
300,1430001078628,登記記録の閉鎖等,0,2024-05-17,2024-05-15,株式会社サイドシステムズ,,株式会社,北海道,札幌市中央区,北一条西１６丁目１番地２７,,01,101,0600001,,,2024-05-15,清算の結了等,,,2019-04-02,1,,,,,サイドシステムズ,0
303,1430003009795,登記記録の閉鎖等,0,2024-05-17,2024-05-14,合同会社フォーエバーエナジー,,合同会社,北海道,札幌市中央区,北十一条西２３丁目２番１０号,,01,101,0600011,,,2024-05-14,清算の結了等,,,2018-10-18,1,,,,,フォーエバーエナジー,0
305,1450001007452,登記記録の閉鎖等,0,2024-05-17,2024-05-13,大永建設株式会社,,株式会社,北海道,旭川市,東光二条４丁目１番１３号,,01,204,0788342,,,2024-05-13,清算の結了等,,,2015-10-05,1,,,,,ダイエイケンセツ,0
308,1470005003413,登記記録の閉鎖等,0,2024-05-17,2024-05-10,坂出たばこ販売協同組合,,その他の設立登記法人,香川県,坂出市,江尻町１３１０番地４,,37,203,7620011,,,2024-05-10,清算の結了等,,,2015-10-05,1,,,,,サカイデタバコハンバイ,0
323,2010001197725,登記記録の閉鎖等,0,2024-05-17,2024-05-02,ノーヴァネクサス株式会社,,株式会社,東京都,千代田区,平河町１丁目６番１５号,,13,101,1020093,,,2024-05-02,清算の結了等,,,2019-01-18,1,,,,,ノーヴァネクサス,0
324,2010001203128,登記記録の閉鎖等,0,2024-05-17,2024-05-08,株式会社クラウンボウリングサービス,,株式会社,神奈川県,横浜市金沢区,泥亀２丁目１３番１号,,14,108,2360021,,,2024-05-08,清算の結了等,,,2019-08-09,1,,,,,クラウンボウリングサービス,0
333,2010003030512,登記記録の閉鎖等,0,2024-05-17,2024-05-01,ＪＲＥＦ再エネ発電合同会社２,,合同会社,東京都,千代田区,内神田１丁目４番１号,,13,101,1010047,,,2024-05-01,清算の結了等,,,2019-09-04,1,,,,,ジェイアールイーエフサイエネハツデン,0
341,2010401111558,登記記録の閉鎖等,0,2024-05-17,2024-04-26,株式会社ＴＮコーポレーション,,株式会社,東京都,港区,新橋６丁目５番４－２１９号,,13,103,1050004,,,2024-04-26,清算の結了等,,,2015-10-05,1,,,,,ティーエヌコーポレーション,0
342,2010401168763,登記記録の閉鎖等,0,2024-05-17,2024-04-26,株式会社Ｌｅｓｆｅｒｕｓ,,株式会社,東京都,港区,麻布十番２丁目４番１号,,13,103,1060045,,,2024-04-26,清算の結了等,,,2022-07-27,1,,,,,レスフェルス,0
344,2010403024452,登記記録の閉鎖等,0,2024-05-17,2024-04-26,合同会社ＨｉＪｏＪｏ　Ｆｕｎｄ１３,,合同会社,東京都,港区,西新橋１丁目７番２号,,13,103,1050003,,,2024-04-26,清算の結了等,,,2021-01-08,1,,,,,ヒジョージョーファンドジュウサン,0
346,2010405018956,登記記録の閉鎖等,0,2024-05-17,2024-04-26,Ｔインフラホールディングス１号一般社団法人,,その他の設立登記法人,東京都,港区,元赤坂１丁目１番７号,,13,103,1070051,,,2024-04-26,清算の結了等,,,2020-08-06,1,,,,,ティーインフラホールディングスイチゴウ,0
358,2010802009590,登記記録の閉鎖等,0,2024-05-17,2024-05-10,有限会社テイエスヒルズ・アソシエイツ,,有限会社,東京都,大田区,仲池上１丁目１番２号,,13,111,1460081,,,2024-05-10,清算の結了等,,,2015-10-05,1,,,,,テイエスヒルズアソシエイツ,0
361,2010903001034,登記記録の閉鎖等,0,2024-05-17,2024-04-30,合資会社鬼頭組,,合資会社,東京都,世田谷区,砧８丁目２６番２３号,,13,112,1570073,,,2024-04-30,清算の結了等,,,2015-10-05,1,,,,,,0
381,2011103009611,登記記録の閉鎖等,0,2024-05-17,2024-05-09,ミライズ合同会社,,合同会社,東京都,新宿区,新宿７丁目３番４２号,,13,104,1600022,,,2024-05-09,清算の結了等,,,2020-04-02,1,,,,,ミライズ,0
397,2012402007594,登記記録の閉鎖等,0,2024-05-17,2024-05-09,有限会社オフィス・ハタ,,有限会社,東京都,国分寺市,東恋ヶ窪３丁目１６番地４７,,13,214,1850014,,,2024-05-09,清算の結了等,,,2015-10-05,1,,,,,オフィスハタ,0
401,2012702003632,登記記録の閉鎖等,0,2024-05-17,2024-05-15,有限会社武蔵野美建,,有限会社,東京都,東村山市,青葉町２丁目１８番地４メゾン高橋１０２,,13,213,1890002,,,2024-05-15,清算の結了等,,,2015-10-05,1,,,,,ムサシノビケン,0
407,2020002027772,登記記録の閉鎖等,0,2024-05-17,2024-05-09,有限会社花の店山田,,有限会社,神奈川県,横浜市神奈川区,浦島丘１７番地１横浜浦島丘ヒルズ１１０号,,14,102,2210062,,,2024-05-09,清算の結了等,,,2015-10-05,1,,,,,ハナノミセヤマダ,0
408,2020003014737,登記記録の閉鎖等,0,2024-05-17,2024-05-02,合同会社ライフアセットマネジメント,,合同会社,神奈川県,横浜市保土ケ谷区,権太坂１丁目９番３１号,,14,106,2400026,,,2024-05-02,清算の結了等,,,2018-08-14,1,,,,,ライフアセットマネジメント,0
447,2050003004537,登記記録の閉鎖等,0,2024-05-17,2024-05-08,合同会社至誠商事,,合同会社,茨城県,結城市,大字小田林２６７１番地３６,,08,207,3070007,,,2024-05-08,清算の結了等,,,2019-02-19,1,,,,,シセイショウジ,0
449,2070001008942,登記記録の閉鎖等,0,2024-05-17,2024-05-16,ヤハラ株式会社,,株式会社,群馬県,高崎市,箕郷町矢原２１７７番地１,,10,202,3703107,,,2024-05-16,清算の結了等,,,2015-10-05,1,,,,,,0
455,2080101020375,登記記録の閉鎖等,0,2024-05-17,2024-05-16,株式会社ＴＳマネジメント,,株式会社,静岡県,沼津市,志下１７８番地の２,,22,203,4100106,,,2024-05-16,清算の結了等,,,2018-03-22,1,,,,,ティーエスマネジメント,0
456,2080102018914,登記記録の閉鎖等,0,2024-05-17,2024-05-16,有限会社東海コンサルティング,,有限会社,静岡県,熱海市,海光町１番５号熱海クリフサイド６１５,,22,205,4130003,,,2024-05-16,清算の結了等,,,2015-10-05,1,,,,,トウカイコンサルティング,0
457,2080401021222,登記記録の閉鎖等,0,2024-05-17,2024-05-16,株式会社ハカマタ産業,,株式会社,静岡県,浜松市天竜区,二俣町二俣６１１番地の１,,22,140,4313314,,,2024-05-16,清算の結了等,,,2015-12-14,1,,,,,ハカマタサンギョウ,0
460,2090002009657,登記記録の閉鎖等,0,2024-05-17,2024-05-14,有限会社佐藤石油,,有限会社,山梨県,上野原市,四方津９６９番地,,19,212,4090121,,,2024-05-14,清算の結了等,,,2015-10-05,1,,,,,,0
470,2120001083451,登記記録の閉鎖等,0,2024-05-17,2024-05-13,大信貿易株式会社大阪,,株式会社,大阪府,大阪市中央区,本町橋６番２１－３１２号,,27,128,5400029,,,2024-05-13,清算の結了等,,,2015-10-05,1,,,,,ダイシンボウエキオオサカ,0
499,2120902005058,登記記録の閉鎖等,0,2024-05-17,2024-05-15,有限会社アスターホーム,,有限会社,大阪府,吹田市,岸部南１丁目２５番１５号,,27,205,5640011,,,2024-05-15,清算の結了等,,,2015-10-05,1,,,,,アスターホーム,0
500,2120903002715,登記記録の閉鎖等,0,2024-05-17,2024-05-13,合同会社黒善,,合同会社,大阪府,豊中市,原田元町１丁目１８番４号,,27,203,5610808,,,2024-05-13,清算の結了等,,,2019-01-23,1,,,,,クロゼン,0
532,2180001055370,登記記録の閉鎖等,0,2024-05-17,2024-05-10,株式会社ファインクリエーション,,株式会社,愛知県,名古屋市中区,千代田４丁目２番７号,,23,106,4600012,,,2024-05-10,合併による解散等,3180001046798,令和６年５月１日名古屋市中区千代田四丁目２番７号株式会社かぶらやグループ（3180001046798）に合併し解散,2015-10-05,1,,,,,ファインクリエーション,0
540,2180002000243,登記記録の閉鎖等,0,2024-05-17,2024-05-09,有限会社エッチシィーテクノ,,有限会社,愛知県,名古屋市守山区,大字上志段味字茂中６３５番地,,23,113,4630001,,,2024-05-09,清算の結了等,,,2015-10-05,1,,,,,エッチシィーテクノ,0
573,2260001012818,登記記録の閉鎖等,0,2024-05-17,2024-05-13,老松工業株式会社,,株式会社,岡山県,倉敷市,老松町５丁目６２６番地,,33,202,7100826,,,2024-05-13,清算の結了等,,,2015-10-05,1,,,,,オイマツコウギョウ,0
576,2260002022188,登記記録の閉鎖等,0,2024-05-17,2024-05-13,有限会社リップルスタディオ,,有限会社,岡山県,倉敷市,玉島乙島１４６６番地の１６,,33,202,7138103,,,2024-05-13,清算の結了等,,,2015-10-05,1,,,,,リップルスタディオ,0
592,2290002003747,登記記録の閉鎖等,0,2024-05-17,2024-04-17,南電販有限会社,,有限会社,福岡県,福岡市南区,警弥郷３丁目４２番５号,,40,134,8111324,,,2024-04-17,清算の結了等,,,2015-10-05,1,,,,,ミナミデンハン,0
609,2360003013738,登記記録の閉鎖等,0,2024-05-17,2024-05-14,合同会社グリーンロウ企画,,合同会社,沖縄県,島尻郡南風原町,字津嘉山１１７８番地,,47,350,9011117,,,2024-05-14,清算の結了等,,,2024-02-21,1,,,,,グリーンロウキカク,0
616,2380002028941,登記記録の閉鎖等,0,2024-05-17,2024-05-14,有限会社原町オート商会,,有限会社,福島県,南相馬市,原町区北原字境堀１５１番地,,07,212,9750037,,,2024-05-14,合併による解散等,9380001016684,令和６年５月１４日福島県双葉郡浪江町大字権現堂字町場１番地株式会社双葉ホンダモータース（9380001016684）に合併し解散,2015-10-05,1,,,,,ハラマチオートショウカイ,0
640,2440001007089,登記記録の閉鎖等,0,2024-05-17,2024-05-14,株式会社泰喜フーズ,,株式会社,北海道,函館市,弁天町２２番７号,,01,202,0400051,,,2024-05-14,清算の結了等,,,2015-10-05,1,,,,,タイキフーズ,0
654,2500002011100,登記記録の閉鎖等,0,2024-05-17,2024-05-14,有限会社ベンソン・カンパニー,,有限会社,愛媛県,東温市,志津川１２９番地,,38,215,7910204,,,2024-05-14,清算の結了等,,,2015-10-05,1,,,,,ベンソンカンパニー,0
668,3010002034471,登記記録の閉鎖等,0,2024-05-17,2024-05-14,イーグルギャラリー有限会社,,有限会社,東京都,足立区,梅田７丁目１０番３１号,,13,121,1230851,,,2024-05-14,清算の結了等,,,2015-10-05,1,,,,,イーグルギャラリー,0
669,3010003028935,登記記録の閉鎖等,0,2024-05-17,2024-04-26,合同会社ＨｉＪｏＪｏ　Ｌａｔｅ　Ｓｔａｇｅ　Ｅｑｕｉｔｙ４号,,合同会社,東京都,港区,西新橋１丁目７番２号,,13,103,1050003,,,2024-04-26,清算の結了等,,,2018-12-18,1,,,,,ヒジョージョーレイトステージエクイティヨンゴウ,0
670,3010003038637,登記記録の閉鎖等,0,2024-05-17,2024-05-02,シーリードシッピングジャパン合同会社,,合同会社,東京都,千代田区,鍛冶町２丁目９番１２号,,13,101,1010044,,,2024-05-02,清算の結了等,,,2022-09-09,1,,,,,シーリードシッピングジャパン,0
674,3010005008828,登記記録の閉鎖等,0,2024-05-17,2024-05-15,一般社団法人ヴァージニア,,その他の設立登記法人,東京都,千代田区,神田須田町１丁目５番地東洋ビル３階,,13,101,1010041,,,2024-05-15,清算の結了等,,,2015-10-05,1,,,,,,0
676,3010102006833,登記記録の閉鎖等,0,2024-05-17,2024-05-16,有限会社明工機販,,有限会社,東京都,八王子市,大和田町２丁目２２番１１号,,13,201,1920045,,,2024-05-16,清算の結了等,,,2015-10-05,1,,,,,,0
687,3010403024451,登記記録の閉鎖等,0,2024-05-17,2024-04-26,合同会社ＨｉＪｏＪｏ　Ｆｕｎｄ１２,,合同会社,東京都,港区,西新橋１丁目７番２号,,13,103,1050003,,,2024-04-26,清算の結了等,,,2021-01-08,1,,,,,ヒジョージョーファンドジュウニ,0
688,3010403029608,登記記録の閉鎖等,0,2024-05-17,2024-04-26,合同会社ＨｉＪｏＪｏ　Ｆｕｎｄ３０,,合同会社,東京都,港区,西新橋１丁目７番２号,,13,103,1050003,,,2024-04-26,清算の結了等,,,2023-02-27,1,,,,,ヒジョージョーファンドサンジュウ,0
727,3011301019915,登記記録の閉鎖等,0,2024-05-17,2024-05-09,株式会社ＫＩＤＯＵ,,株式会社,東京都,杉並区,堀ノ内２丁目１番３８号,,13,115,1660013,,,2024-05-09,清算の結了等,,,2015-10-05,1,,,,,キドウ,0
733,3011801012097,登記記録の閉鎖等,0,2024-05-17,2024-05-13,マルイ設備株式会社,,株式会社,東京都,足立区,西伊興１丁目１番２４号,,13,121,1210824,,,2024-05-13,清算の結了等,,,2015-10-05,1,,,,,マルイセツビ,0
737,3011803003251,登記記録の閉鎖等,0,2024-05-17,2024-05-14,フォーサイトテック合同会社,,合同会社,東京都,足立区,保木間５丁目７番５号,,13,121,1210064,,,2024-05-14,清算の結了等,,,2018-04-05,1,,,,,,0
752,3020001134370,登記記録の閉鎖等,0,2024-05-17,2024-05-09,新東京運輸ホールディングス株式会社,,株式会社,神奈川県,横浜市鶴見区,市場大和町５番１４号,,14,101,2300025,,,2024-05-09,清算の結了等,,,2020-01-10,1,,,,,シントウキョウウンユホールディングス,0
761,3021002039212,登記記録の閉鎖等,0,2024-05-17,2024-05-14,有限会社カナ,,有限会社,神奈川県,秦野市,松原町３番２９号,,14,211,2591313,,,2024-05-14,合併による解散等,7021002050900,令和６年５月１日横浜市港北区日吉本町一丁目２８番７号ウインファーマ秦野株式会社（7021002050900）に合併し解散,2015-10-05,1,,,,,,0
764,3030001028472,登記記録の閉鎖等,0,2024-05-17,2024-05-10,大槻空調サービス株式会社,,株式会社,埼玉県,所沢市,中富南４丁目２６番地の１９,,11,208,3590003,,,2024-05-10,清算の結了等,,,2015-10-05,1,,,,,オオツキクウチョウサービス,0
779,3040001053949,登記記録の閉鎖等,0,2024-05-17,2024-05-07,三敬建設株式会社,,株式会社,千葉県,市原市,八幡石塚１丁目１０番地８,,12,219,2900061,,,2024-05-07,清算の結了等,,,2015-10-05,1,,,,,サンケイケンセツ,0
799,3080101004410,登記記録の閉鎖等,0,2024-05-17,2024-05-16,株式会社コンティー,,株式会社,静岡県,駿東郡小山町,柳島１８３番地,,22,344,4101301,,,2024-05-16,清算の結了等,,,2015-10-05,1,,,,,コンティー,0
808,3100001008112,登記記録の閉鎖等,0,2024-05-17,2024-04-26,株式会社ハタヤホーム,,株式会社,長野県,佐久市,岩村田２３４０番地１,,20,217,3850022,,,2024-04-26,清算の結了等,,,2015-10-05,1,,,,,ハタヤホーム,0
810,3100002010752,登記記録の閉鎖等,0,2024-05-17,2024-04-30,有限会社小林電気工事,,有限会社,長野県,佐久市,内山７０２５番地,,20,217,3850031,,,2024-04-30,清算の結了等,,,2015-10-05,1,,,,,コバヤシデンキコウジ,0
813,3100002036483,登記記録の閉鎖等,0,2024-05-17,2024-04-26,ショッピングひさわ食品有限会社,,有限会社,長野県,下伊那郡下條村,陽皐２００６番地１,,20,411,3992102,,,2024-04-26,清算の結了等,,,2015-10-05,1,,,,,ショッピングヒサワショクヒン,0
870,3180301009612,登記記録の閉鎖等,0,2024-05-17,2024-05-13,ＩＦＰサービス株式会社,,株式会社,愛知県,豊橋市,東岩田３丁目２番地の１８,,23,201,4400033,,,2024-05-13,清算の結了等,,,2015-10-05,1,,,,,アイエフピイ,0
874,3190001009878,登記記録の閉鎖等,0,2024-05-17,2024-05-14,株式会社創心,,株式会社,三重県,名張市,栄町２８２５番地１,,24,208,5180719,,,2024-05-14,清算の結了等,,,2015-10-05,1,,,,,ソウシン,0
878,3200001017887,登記記録の閉鎖等,0,2024-05-17,2024-05-15,株式会社シャルレ原田,,株式会社,岐阜県,可児市,下恵土５７９２番地パルテノン１Ｄ,,21,214,5090203,,,2024-05-15,清算の結了等,,,2015-10-05,1,,,,,,0
890,3240001020747,登記記録の閉鎖等,0,2024-05-17,2024-05-15,株式会社東広島建窓,,株式会社,広島県,広島市安佐北区,深川３丁目９番２４号,,34,106,7391751,,,2024-05-15,清算の結了等,,,2015-10-05,1,,,,,ヒガシヒロシマケンソウ,0
893,3250001017981,登記記録の閉鎖等,0,2024-05-17,2024-05-15,株式会社中国新聞由宇販売所,,株式会社,山口県,岩国市,由宇町南沖４丁目２番３１号,,35,208,7401425,,,2024-05-15,清算の結了等,,,2019-11-06,1,,,,,チュウゴクシンブンユウハンバイショ,0
894,3250002004608,登記記録の閉鎖等,0,2024-05-17,2024-05-16,有限会社クイーンクリーニング,,有限会社,山口県,宇部市,大字西岐波１３１２番地の３,,35,202,7550151,,,2024-05-16,清算の結了等,,,2015-10-05,1,,,,,,0
895,3250002009862,登記記録の閉鎖等,0,2024-05-17,2024-05-15,有限会社たからや,,有限会社,山口県,下関市,上条町２番２１号,,35,201,7500027,,,2024-05-15,清算の結了等,,,2015-10-05,1,,,,,タカラヤ,0
900,3260002002313,登記記録の閉鎖等,0,2024-05-17,2024-05-16,有限会社オトクラ通商,,有限会社,岡山県,岡山市東区,益野町４０３番地２８,,33,103,7048175,,,2024-05-16,清算の結了等,,,2015-10-05,1,,,,,オトクラツウショウ,0
931,3400601000470,登記記録の閉鎖等,0,2024-05-17,2024-05-01,株式会社オセロ,,株式会社,岩手県,胆沢郡金ケ崎町,三ケ尻勘九郎東１９番地１,,03,381,0294502,,,2024-05-01,清算の結了等,,,2015-10-05,1,,,,,オセロ,0
948,3480002014708,登記記録の閉鎖等,0,2024-05-17,2024-05-15,有限会社県西開発,,有限会社,徳島県,美馬郡つるぎ町,貞光字太田西２６６番地６,,36,468,7794104,,,2024-05-15,清算の結了等,,,2015-10-05,1,,,,,,0
961,4010002016304,登記記録の閉鎖等,0,2024-05-17,2024-04-24,有限会社アキ・コーポレーション,,有限会社,東京都,中央区,日本橋人形町３丁目１３番１２号,,13,102,1030013,,,2024-04-24,清算の結了等,,,2015-10-05,1,,,,,アキコーポレーション,0
972,4010405019969,登記記録の閉鎖等,0,2024-05-17,2024-04-26,ウエストホールディング２一般社団法人,,その他の設立登記法人,東京都,港区,虎ノ門３丁目２２番１０－２０１号,,13,103,1050001,,,2024-04-26,清算の結了等,,,2021-07-02,1,,,,,ウエストホールディングツー,0
1024,4012401039158,登記記録の閉鎖等,0,2024-05-17,2024-05-07,株式会社３Ｈ　ＦＯＯＤ　ＧＲＯＵＰ,,株式会社,東京都,稲城市,東長沼２４１６番地プラウドシティ南山９１９,,13,225,2060802,,,2024-05-07,清算の結了等,,,2022-05-24,1,,,,,サンエッチフードグループ,0
1041,4020005014717,登記記録の閉鎖等,0,2024-05-17,2024-05-08,一般社団法人ジャパン・ウクライナパートナーズ,,その他の設立登記法人,神奈川県,川崎市麻生区,栗木台５丁目５番２号,,14,137,2150032,,,2024-05-08,清算の結了等,,,2020-07-07,1,,,,,ジャパンウクライナパートナーズ,0
1045,4021002002466,登記記録の閉鎖等,0,2024-05-17,2024-05-14,有限会社シィシィエス・ラボ,,有限会社,神奈川県,藤沢市,鵠沼藤が谷４丁目７番８号,,14,205,2510031,,,2024-05-14,清算の結了等,,,2015-10-05,1,,,,,,0
1047,4021003013966,登記記録の閉鎖等,0,2024-05-17,2024-05-17,合同会社Ｖｉｌｌａｇｅ　Ｒｏｏｆｅｒ,,合同会社,神奈川県,綾瀬市,深谷中１丁目１５番１５号,,14,218,2521107,,,2024-05-17,清算の結了等,,,2024-01-04,1,,,,,ビレッジルーファー,0
1049,4021005002496,登記記録の閉鎖等,0,2024-05-17,2024-05-15,医療法人社団渋谷歯科医院,,その他の設立登記法人,神奈川県,相模原市南区,相模大野３丁目３番１－２０３号,,14,153,2520303,,,2024-05-15,清算の結了等,,,2015-10-05,1,,,,,シブヤシカイイン,0
1050,4030001041904,登記記録の閉鎖等,0,2024-05-17,2024-05-15,株式会社ハウスアクティブ,,株式会社,埼玉県,上尾市,緑丘１丁目３番２４号,,11,219,3620015,,,2024-05-15,清算の結了等,,,2015-10-05,1,,,,,ハウスアクティブ,0
1069,4060001001005,登記記録の閉鎖等,0,2024-05-17,2024-05-10,株式会社大森酒店,,株式会社,栃木県,宇都宮市,上籠谷町３４９４番地１,,09,201,3213233,,,2024-05-10,清算の結了等,,,2015-10-05,1,,,,,オオモリサケテン,0
1073,4060002033600,登記記録の閉鎖等,0,2024-05-17,2024-05-09,関根金型有限会社,,有限会社,栃木県,栃木市,藤岡町甲１６８８番地２,,09,203,3231105,,,2024-05-09,清算の結了等,,,2024-04-23,1,,,,,セキネカナガタ,0
1074,4070001000451,登記記録の閉鎖等,0,2024-05-17,2024-05-16,株式会社エムエス,,株式会社,群馬県,前橋市,下沖町２１０番地の１,,10,201,3710011,,,2024-05-16,清算の結了等,,,2015-10-05,1,,,,,エムエス,0
1078,4080002018269,登記記録の閉鎖等,0,2024-05-17,2024-05-15,有限会社丸大岡野谷,,有限会社,静岡県,藤枝市,藤枝２丁目５番４０号,,22,214,4260025,,,2024-05-15,清算の結了等,,,2015-10-05,1,,,,,マルダイオカノヤ,0
1090,4100002019974,登記記録の閉鎖等,0,2024-05-17,2024-04-25,コトブキ商事有限会社,,有限会社,長野県,松本市,元町３丁目５番２７号,,20,202,3900803,,,2024-04-25,清算の結了等,,,2015-10-05,1,,,,,コトブキショウジ,0
1091,4100002029676,登記記録の閉鎖等,0,2024-05-17,2024-04-30,有限会社昭雅,,有限会社,長野県,茅野市,宮川８３３２番地,,20,214,3910013,,,2024-04-30,清算の結了等,,,2015-10-05,1,,,,,アキマサ,0
1130,4122005002501,登記記録の閉鎖等,0,2024-05-17,2024-05-14,特定非営利活動法人こころネット,,その他の設立登記法人,大阪府,柏原市,旭ケ丘１丁目４番３５号,,27,221,5820026,,,2024-05-14,清算の結了等,,,2015-10-05,1,,,,,ココロネット,0
1132,4130005015118,登記記録の閉鎖等,0,2024-05-17,2024-05-16,特定非営利活動法人とりぷるはーと,,その他の設立登記法人,京都府,八幡市,八幡科手８７番地,,26,210,6148001,,,2024-05-16,清算の結了等,,,2017-10-24,1,,,,,トリプルハート,0
1137,4140001073151,登記記録の閉鎖等,0,2024-05-17,2024-05-13,株式会社イディアウェーブ,,株式会社,兵庫県,西宮市,川西町７番１５号,,28,204,6620951,,,2024-05-13,清算の結了等,,,2015-10-05,1,,,,,イディアウェーブ,0
1162,4180002061688,登記記録の閉鎖等,0,2024-05-17,2024-05-09,有限会社愛知グリーンハウス,,有限会社,愛知県,日進市,北新町福井１８２番地の１１０,,23,230,4700103,,,2024-05-09,清算の結了等,,,2015-10-05,1,,,,,アイチグリーンハウス,0
1167,4180302023388,登記記録の閉鎖等,0,2024-05-17,2024-05-13,有限会社豊伸工業,,有限会社,愛知県,豊田市,桝塚東町中郷４６番地,,23,211,4701212,,,2024-05-13,清算の結了等,,,2015-10-05,1,,,,,ホウシンコウギョウ,0
1183,4230002011472,登記記録の閉鎖等,0,2024-05-17,2024-05-10,有限会社高畑,,有限会社,富山県,高岡市,石瀬１７９番地の５,,16,202,9330011,,,2024-05-10,清算の結了等,,,2015-10-05,1,,,,,タカハタ,0
1191,4250002012634,登記記録の閉鎖等,0,2024-05-17,2024-05-16,カジマ水産有限会社,,有限会社,山口県,下関市,豊浦町大字川棚７８５１番地の１,,35,201,7596301,,,2024-05-16,清算の結了等,,,2015-10-05,1,,,,,,0
1196,4290002016391,登記記録の閉鎖等,0,2024-05-17,2024-04-15,有限会社デジャヴ,,有限会社,福岡県,福岡市博多区,博多駅前３丁目１９番１４号,,40,132,8120011,,,2024-04-15,清算の結了等,,,2015-10-05,1,,,,,デジャヴ,0
1218,4360002008745,登記記録の閉鎖等,0,2024-05-17,2024-05-14,有限会社エヌサイクロン,,有限会社,沖縄県,豊見城市,字高安７５４番地の３,,47,212,9010242,,,2024-05-14,清算の結了等,,,2015-10-05,1,,,,,エヌサイクロン,0
1220,4370001015782,登記記録の閉鎖等,0,2024-05-17,2024-05-10,プラス・アルファー株式会社,,株式会社,宮城県,仙台市太白区,袋原２丁目６番１０号,,04,104,9811102,,,2024-05-10,清算の結了等,,,2015-10-05,1,,,,,プラスアルファー,0
1222,4370003004783,登記記録の閉鎖等,0,2024-05-17,2024-05-09,合同会社ウイラニ,,合同会社,宮城県,多賀城市,中央１丁目７番１６号,,04,209,9850873,,,2024-05-09,清算の結了等,,,2020-04-07,1,,,,,ウイラニ,0
1223,4370005001201,登記記録の閉鎖等,0,2024-05-17,2024-05-13,医療法人社団国見会,,その他の設立登記法人,宮城県,仙台市泉区,加茂４丁目４番５号,,04,105,9813122,,,2024-05-13,清算の結了等,,,2015-10-05,1,,,,,クニミカイ,0
1252,4490001010607,登記記録の閉鎖等,0,2024-05-17,2024-05-08,株式会社参慶,,株式会社,高知県,香南市,夜須町西山４４６番地,,39,211,7815603,,,2024-05-08,清算の結了等,,,2023-10-13,1,,,,,サンケイ,0
1307,5011402006538,登記記録の閉鎖等,0,2024-05-17,2024-05-09,有限会社戸部金属工業所,,有限会社,東京都,板橋区,小豆沢４丁目１１番８号,,13,119,1740051,,,2024-05-09,清算の結了等,,,2015-10-05,1,,,,,トベキンゾクコウギョウショ,0
1329,5012802005468,登記記録の閉鎖等,0,2024-05-17,2024-05-10,有限会社小川メガネ,,有限会社,東京都,東大和市,南街２丁目７９番地の７,,13,220,2070014,,,2024-05-10,清算の結了等,,,2015-10-05,1,,,,,オガワメガネ,0
1341,5020002080430,登記記録の閉鎖等,0,2024-05-17,2024-05-09,有限会社岡田機械彫刻,,有限会社,神奈川県,川崎市幸区,北加瀬３丁目１７番２７号,,14,132,2120057,,,2024-05-09,清算の結了等,,,2015-10-05,1,,,,,オカダキカイチョウコク,0
1343,5020005010021,登記記録の閉鎖等,0,2024-05-17,2024-05-14,一般社団法人建設業経営支援協会,,その他の設立登記法人,東京都,町田市,つくし野３丁目５番地６７,,13,209,1940001,,,2024-05-14,清算の結了等,,,2015-10-05,1,,,,,ケンセツギョウケイエイシエンキョウカイ,0
1365,5030002093290,登記記録の閉鎖等,0,2024-05-17,2024-05-13,有限会社鋼研,,有限会社,埼玉県,鶴ヶ島市,大字上新田２３６番地４,,11,241,3502225,,,2024-05-13,清算の結了等,,,2015-10-05,1,,,,,コウケン,0
1366,5030002110260,登記記録の閉鎖等,0,2024-05-17,2024-05-15,有限会社広栄パッケージ,,有限会社,埼玉県,川口市,赤井４丁目２６番１５号,,11,203,3340073,,,2024-05-15,清算の結了等,,,2015-10-05,1,,,,,コウエイパッケージ,0
1367,5030003007704,登記記録の閉鎖等,0,2024-05-17,2024-04-24,合同会社遊技情報センター,,合同会社,埼玉県,白岡市,上野田７３７番地２,,11,246,3490221,,,2024-04-24,清算の結了等,,,2015-10-05,1,,,,,ユウギジョウホウセンター,0
1389,5070001007842,登記記録の閉鎖等,0,2024-05-17,2024-05-15,株式会社トム・システム工業,,株式会社,群馬県,高崎市,中豊岡町８２７番地の５,,10,202,3700874,,,2024-05-15,清算の結了等,,,2015-10-05,1,,,,,トムシステムコウギョウ,0
1397,5080401001361,登記記録の閉鎖等,0,2024-05-17,2024-05-16,株式会社川島屋,,株式会社,静岡県,浜松市中央区,笠井町４９３番地の２５,,22,138,4313107,,,2024-05-16,清算の結了等,,,2015-10-05,1,,,,,,0
1415,5120005023302,登記記録の閉鎖等,0,2024-05-17,2024-05-14,一般社団法人ウェルネス評価研究開発機構,,その他の設立登記法人,大阪府,大阪市北区,梅田１丁目１番３号大阪駅前第３ビル２９階１－１－１号室,,27,127,5300001,,,2024-05-14,清算の結了等,,,2022-11-15,1,,,,,ウェルネスヒョウカケンキュウカイハツキコウ,0
1447,5150001004609,登記記録の閉鎖等,0,2024-05-17,2024-05-16,株式会社ビューティーサポート,,株式会社,奈良県,奈良市,右京１丁目４サンタウンひまわり館４Ｆ－３,,29,201,6310805,,,2024-05-16,清算の結了等,,,2015-10-05,1,,,,,ビューティーサポート,0
1457,5180001153683,登記記録の閉鎖等,0,2024-05-17,2024-05-07,ＲｅｇｅｎｅｒａｔｉｖｅＤｅｓｉｇｎＬａｂ株式会社,,株式会社,愛知県,名古屋市瑞穂区,彌富通３丁目４４番地,,23,108,4670064,,,2024-05-07,清算の結了等,,,2022-11-08,1,,,,,リジェネレイティブデザインラボ,0
1464,5180002034255,登記記録の閉鎖等,0,2024-05-17,2024-05-10,株式会社中部淡水,,株式会社,愛知県,名古屋市昭和区,白金１丁目１番４号,,23,107,4660058,,,2024-05-10,合併による解散等,3180001046798,令和６年５月１日名古屋市中区千代田四丁目２番７号株式会社かぶらやグループ（3180001046798）に合併し解散,2015-10-05,1,,,,,チュウブタンスイ,0
1471,5180005009519,登記記録の閉鎖等,0,2024-05-17,2024-05-10,医療法人矢ケ崎眼科医院,,その他の設立登記法人,愛知県,一宮市,大江１丁目６番２３号,,23,203,4910851,,,2024-05-10,清算の結了等,,,2015-10-05,1,,,,,ヤガサキガンカイイン,0
1475,5180302009659,登記記録の閉鎖等,0,2024-05-17,2024-05-14,有限会社ホーイン,,有限会社,愛知県,豊橋市,上伝馬町１０７番地,,23,201,4400074,,,2024-05-14,清算の結了等,,,2015-10-05,1,,,,,,0
1476,5180302017991,登記記録の閉鎖等,0,2024-05-17,2024-05-15,有限会社エイジン,,有限会社,愛知県,刈谷市,恩田町４丁目１５３番地１０,,23,210,4480013,,,2024-05-15,清算の結了等,,,2015-10-05,1,,,,,エイジン,0
1486,5220005008144,登記記録の閉鎖等,0,2024-05-17,2024-05-13,ＮＰＯ法人いーじぃーねっと石川,,その他の設立登記法人,石川県,金沢市,古府２丁目５０番,,17,201,9200362,,,2024-05-13,清算の結了等,,,2016-12-27,1,,,,,イージーネットイシカワ,0
1491,5240005002698,登記記録の閉鎖等,0,2024-05-17,2024-05-14,一般社団法人飯室三谷地区営農組合,,その他の設立登記法人,広島県,広島市安佐北区,安佐町大字飯室９７番地,,34,106,7311142,,,2024-05-14,清算の結了等,,,2015-10-05,1,,,,,イムロミタニチクエイノウクミアイ,0
1493,5250003003169,登記記録の閉鎖等,0,2024-05-17,2024-04-03,合同会社ｆｒｅｅ　ｗｏｒｋｓ,,合同会社,山口県,防府市,沖今宿２丁目２３－２－１０２,,35,206,7470013,,,2024-04-03,清算の結了等,,,2022-10-20,1,,,,,フリーワークス,0
1514,5310005007038,登記記録の閉鎖等,0,2024-05-17,2024-05-15,特定非営利活動法人若竹の会,,その他の設立登記法人,長崎県,五島市,下崎山町６７６番地,,42,211,8530021,,,2024-05-15,清算の結了等,,,2015-10-05,1,,,,,ワカタケノカイ,0
1529,5380001011722,登記記録の閉鎖等,0,2024-05-17,2024-05-10,株式会社テージーエス,,株式会社,福島県,郡山市,芳賀２丁目９番１４号,,07,203,9638813,,,2024-05-10,清算の結了等,,,2015-10-05,1,,,,,テージーエス,0
1555,5460301000342,登記記録の閉鎖等,0,2024-05-17,2024-05-16,株式会社クリタ,,株式会社,北海道,北見市,豊地１２番地７,,01,208,0991587,,,2024-05-16,清算の結了等,,,2015-10-05,1,,,,,クリタ,0
1563,5500003000371,登記記録の閉鎖等,0,2024-05-17,2024-05-13,合資会社あい・愛ワーク,,合資会社,愛媛県,松山市,東垣生町２８２番２号,,38,201,7918043,,,2024-05-13,清算の結了等,,,2015-10-05,1,,,,,アイアイワーク,0
1568,6010001176535,登記記録の閉鎖等,0,2024-05-17,2024-05-10,ソーシャルテクノロジー株式会社,,株式会社,東京都,板橋区,赤塚６丁目１３番５号,,13,119,1750092,,,2024-05-10,清算の結了等,,,2016-06-28,1,,,,,,0
1577,6010003031795,登記記録の閉鎖等,0,2024-05-17,2024-05-01,ＡＣＡエナジー１号合同会社,,合同会社,東京都,千代田区,永田町１丁目１１番３０号サウスヒル永田町５階,,13,101,1000014,,,2024-05-01,清算の結了等,,,2020-03-06,1,,,,,エーシーエーエナジーイチゴウ,0
1594,6010403024102,登記記録の閉鎖等,0,2024-05-17,2024-04-26,合同会社ＨｉＪｏＪｏ　Ｆｕｎｄ１０,,合同会社,東京都,港区,西新橋１丁目７番２号,,13,103,1050003,,,2024-04-26,清算の結了等,,,2020-11-12,1,,,,,ヒジョージョーファンドジュウ,0
1596,6010403029472,登記記録の閉鎖等,0,2024-05-17,2024-05-14,合同会社ＧＫ０６６,,合同会社,東京都,港区,虎ノ門３丁目２２番１０－２０１号,,13,103,1050001,,,2024-05-14,合併による解散等,1040001098087,令和６年５月２日千葉市中央区富士見一丁目１４番１３号千葉大栄ビル８階第三日本ソーラー電力株式会社（1040001098087）に合併し解散,2023-02-10,1,,,,,ジーケイゼロシックスシックス,0
1604,6010601051278,登記記録の閉鎖等,0,2024-05-17,2024-05-15,株式会社ＲＯＯＭ,,株式会社,東京都,江東区,豊洲３丁目６番８－７１３号,,13,108,1350061,,,2024-05-15,清算の結了等,,,2017-03-16,1,,,,,,0
1621,6010901051911,登記記録の閉鎖等,0,2024-05-17,2024-05-15,株式会社アップルーム,,株式会社,東京都,世田谷区,池尻２丁目３３番１４号クレストビル５Ｆ,,13,112,1540001,,,2024-05-15,合併による解散等,8013301038989,令和６年５月１日東京都豊島区南池袋二丁目４９番７号池袋パークビル４階株式会社アップコム（8013301038989）に合併し解散,2022-11-04,1,,,,,アップルーム,0
1626,6011001128682,登記記録の閉鎖等,0,2024-05-17,2024-04-30,株式会社ジャストライク,,株式会社,東京都,目黒区,目黒１丁目４番１６号目黒Ｇビル７Ｆ,,13,110,1530063,,,2024-04-30,清算の結了等,,,2019-06-25,1,,,,,ジャストライク,0
1630,6011002006020,登記記録の閉鎖等,0,2024-05-17,2024-05-07,有限会社劇書房,,有限会社,東京都,豊島区,高田１丁目２０番１－３０１号,,13,116,1710033,,,2024-05-07,清算の結了等,,,2015-10-05,1,,,,,ゲキショボウ,0
1652,6020001022449,登記記録の閉鎖等,0,2024-05-17,2024-05-01,株式会社ヨコシネデジテック,,株式会社,神奈川県,横浜市神奈川区,金港町６番地１０,,14,102,2210056,,,2024-05-01,合併による解散等,9020001024764,令和６年５月１日横浜市神奈川区金港町６番地１０株式会社ヨコシネディーアイエー（9020001024764）に合併し解散,2015-10-05,1,,,,,ヨコシネデジテック,0
1653,6020001084654,登記記録の閉鎖等,0,2024-05-17,2024-05-02,株式会社ナレッジウェイ,,株式会社,東京都,千代田区,二番町５番２５二番町テラス９１１号,,13,101,1020084,,,2024-05-02,清算の結了等,,,2015-10-05,1,,,,,ナレッジウェイ,0
1659,6020002002193,登記記録の閉鎖等,0,2024-05-17,2024-05-07,有限会社ヨコハマメック,,有限会社,神奈川県,横浜市瀬谷区,下瀬谷２丁目２３番８号,,14,114,2460035,,,2024-05-07,清算の結了等,,,2015-10-05,1,,,,,ヨコハマメック,0
1661,6020002049697,登記記録の閉鎖等,0,2024-05-17,2024-05-07,有限会社新田ウェルディング,,有限会社,神奈川県,横浜市港南区,日野９丁目３番地,,14,111,2340051,,,2024-05-07,清算の結了等,,,2015-10-05,1,,,,,ニッタウェルディング,0
1672,6030001019535,登記記録の閉鎖等,0,2024-05-17,2024-05-15,ＹＡＮＮＡＷＡ　ＡＵＴＯ株式会社,,株式会社,埼玉県,さいたま市岩槻区,大字飯塚８７番地４,,11,110,3390031,,,2024-05-15,清算の結了等,,,2015-10-05,1,,,,,ヤンナワオート,0
1673,6030001021929,登記記録の閉鎖等,0,2024-05-17,2024-05-14,日興電子工業株式会社,,株式会社,埼玉県,戸田市,上戸田４丁目１１番１５号,,11,224,3350022,,,2024-05-14,清算の結了等,,,2015-10-05,1,,,,,ニッコウデンシコウギョウ,0
1678,6030001152889,登記記録の閉鎖等,0,2024-05-17,2024-05-14,元新貿易株式会社,,株式会社,埼玉県,志木市,幸町１丁目８番４０－５１３号,,11,228,3530005,,,2024-05-14,清算の結了等,,,2023-03-17,1,,,,,ゲンシンボウエキ,0
1691,6040003019739,登記記録の閉鎖等,0,2024-05-17,2024-05-07,合同会社Ｒｏｓｓｏ,,合同会社,千葉県,柏市,豊四季台２丁目１番１－１０８号デュオヒルズ柏,,12,217,2770845,,,2024-05-07,清算の結了等,,,2022-03-25,1,,,,,ロッソ,0
1705,6080402004759,登記記録の閉鎖等,0,2024-05-17,2024-05-15,有限会社田口鉄建,,有限会社,静岡県,浜松市中央区,大島町８４４番地,,22,138,4313112,,,2024-05-15,清算の結了等,,,2015-10-05,1,,,,,タグチテッケン,0
1706,6080403002893,登記記録の閉鎖等,0,2024-05-17,2024-05-16,合同会社協林サービス,,合同会社,静岡県,浜松市浜名区,堀谷１７６番地,,22,139,4340001,,,2024-05-16,清算の結了等,,,2015-10-05,1,,,,,,0
1713,6100002007184,登記記録の閉鎖等,0,2024-05-17,2024-04-25,有限会社ジェイエイながの西山中央店,,有限会社,長野県,上水内郡小川村,大字高府９７４１番地の１,,20,588,3813302,,,2024-04-25,清算の結了等,,,2015-10-05,1,,,,,ジェイエイナガノニシヤマチュウオウテン,0
1715,6100002011608,登記記録の閉鎖等,0,2024-05-17,2024-04-26,有限会社エス・ピー企画,,有限会社,長野県,佐久市,蓬田２３番地,00069478,20,217,3842107,,,2024-04-26,清算の結了等,,,2015-10-05,1,,,,,エスピーキカク,0
1764,6160002005414,登記記録の閉鎖等,0,2024-05-17,2024-05-15,有限会社プリメラパッキングサービス,,有限会社,滋賀県,甲賀市,水口町貴生川１丁目１３７番地,,25,209,5280049,,,2024-05-15,清算の結了等,,,2015-10-05,1,,,,,プリメラパッキングサービス,0
1774,6180001139013,登記記録の閉鎖等,0,2024-05-17,2024-05-08,株式会社紅和,,株式会社,愛知県,あま市,花長六反田３番地５,,23,237,4901204,,,2024-05-08,清算の結了等,,,2019-11-28,1,,,,,コウワ,0
1792,6240001052795,登記記録の閉鎖等,0,2024-05-17,2024-05-14,株式会社リペアサービス広島,,株式会社,広島県,広島市東区,牛田新町１丁目６番４１号,,34,102,7320068,,,2024-05-14,清算の結了等,,,2018-05-11,1,,,,,リペアサービスヒロシマ,0
1794,6240002025338,登記記録の閉鎖等,0,2024-05-17,2024-05-16,有限会社ＳＨｉｍａｚｕ,,有限会社,広島県,広島市西区,井口台２丁目２３番１１－２０６号,,34,104,7330844,,,2024-05-16,清算の結了等,,,2015-10-05,1,,,,,シマズ,0
1801,6290001030540,登記記録の閉鎖等,0,2024-05-17,2024-04-16,ＡＢＥ特機販売株式会社,,株式会社,福岡県,福岡市城南区,長尾４丁目６番３４－１号,,40,136,8140123,,,2024-04-16,清算の結了等,,,2015-10-05,1,,,,,アベトッキハンバイ,0
1826,6380002030217,登記記録の閉鎖等,0,2024-05-17,2024-05-13,有限会社つるや,,有限会社,福島県,双葉郡広野町,大字折木字南沢１３４番地,,07,541,9790404,,,2024-05-13,清算の結了等,,,2015-10-05,1,,,,,ツルヤ,0
1847,6480001009383,登記記録の閉鎖等,0,2024-05-17,2024-05-15,株式会社スパゲッティー,,株式会社,徳島県,海部郡美波町,日和佐浦１１４,,36,387,7792304,,,2024-05-15,清算の結了等,,,2015-10-05,1,,,,,スパゲッティー,0
1850,6500002013217,登記記録の閉鎖等,0,2024-05-17,2024-05-13,有限会社西園寺,,有限会社,愛媛県,八幡浜市,保内町川之石３番耕地３０４番地の９１,,38,204,7960201,,,2024-05-13,清算の結了等,,,2015-10-05,1,,,,,サイオンジ,0
1851,7010001041390,登記記録の閉鎖等,0,2024-05-17,2024-05-01,共栄化学繊維産業株式会社,,株式会社,東京都,中央区,日本橋馬喰町１丁目４番１４－１００９号,,13,102,1030002,,,2024-05-01,清算の結了等,,,2015-10-05,1,,,,,キョウエイカガクセンイサンギョウ,0
1856,7010001056686,登記記録の閉鎖等,0,2024-05-17,2024-05-02,株式会社スキーム,,株式会社,東京都,中央区,京橋１丁目２番５号京橋ＴＤビル８階,,13,102,1040031,,,2024-05-02,清算の結了等,,,2015-10-05,1,,,,,スキーム,0
1862,7010001203255,登記記録の閉鎖等,0,2024-05-17,2024-05-02,株式会社ＡＴＡＲＵ,,株式会社,東京都,千代田区,神田三崎町２丁目１１番１１号,,13,101,1010061,,,2024-05-02,清算の結了等,,,2019-08-15,1,,,,,アタル,0
1880,7010403019415,登記記録の閉鎖等,0,2024-05-17,2024-04-26,橋本ソーラーホールディングス合同会社,,合同会社,東京都,港区,元赤坂１丁目１番７号,,13,103,1070051,,,2024-04-26,清算の結了等,,,2018-09-28,1,,,,,ハシモトソーラーホールディングス,0
1881,7010403021734,登記記録の閉鎖等,0,2024-05-17,2024-04-26,Ｔインフラ１号合同会社,,合同会社,東京都,港区,元赤坂１丁目１番７号,,13,103,1070051,,,2024-04-26,清算の結了等,,,2019-11-08,1,,,,,ティーインフライチゴウ,0
1884,7010601012304,登記記録の閉鎖等,0,2024-05-17,2024-05-08,株式会社シミズ産業,,株式会社,東京都,墨田区,東向島３丁目１６番１７号,,13,107,1310032,,,2024-05-08,清算の結了等,,,2015-10-05,1,,,,,シミズサンギョウ,0
1887,7010602026559,登記記録の閉鎖等,0,2024-05-17,2024-05-01,有限会社孝明企画,,有限会社,神奈川県,横浜市磯子区,磯子２丁目２８番１５－２０４号,,14,107,2350016,,,2024-05-01,合併による解散等,7010601030974,令和６年５月１日横浜市磯子区磯子二丁目２８番１５－２０４号株式会社孝明（7010601030974）に合併し解散,2015-10-05,1,,,,,コウメイキカク,0
1896,7010901023240,登記記録の閉鎖等,0,2024-05-17,2024-05-13,株式会社スタイルビジョン,,株式会社,東京都,世田谷区,三軒茶屋２丁目５１番８号,,13,112,1540024,,,2024-05-13,清算の結了等,,,2015-10-05,1,,,,,スタイルビジョン,0
1925,7011703003686,登記記録の閉鎖等,0,2024-05-17,2024-05-08,合同会社なぎさ介護相談,,合同会社,東京都,江戸川区,南葛西６丁目９番２号ハイツ・ヴィラＮｏ．７、７１１号室,,13,123,1340085,,,2024-05-08,清算の結了等,,,2023-12-11,1,,,,,カイゴソウダン,0
1944,7020001021268,登記記録の閉鎖等,0,2024-05-17,2024-05-09,日本ランズエンド株式会社,,株式会社,神奈川県,横浜市港北区,新横浜１丁目１９番２０号,,14,109,2220033,,,2024-05-09,清算の結了等,,,2015-10-05,1,,,,,ニホンランズエンド,0
1952,7020003007736,登記記録の閉鎖等,0,2024-05-17,2024-05-08,合同会社ミヤカワ,,合同会社,神奈川県,横浜市青葉区,桜台３１番地,,14,117,2270061,,,2024-05-08,清算の結了等,,,2015-10-05,1,,,,,ミヤカワ,0
1981,7040002079741,登記記録の閉鎖等,0,2024-05-17,2024-05-07,有限会社中山園芸,,有限会社,千葉県,山武市,松尾町水深１００番地２,,12,237,2891526,,,2024-05-07,清算の結了等,,,2015-10-05,1,,,,,ナカヤマエンゲイ,0
1997,7060002022724,登記記録の閉鎖等,0,2024-05-17,2024-05-08,有限会社増渕作重商店,,有限会社,栃木県,那須塩原市,中央町２番１号,,09,213,3250052,,,2024-05-08,清算の結了等,,,2015-10-05,1,,,,,マスブチサクジュウショウテン,0
2001,7070002016444,登記記録の閉鎖等,0,2024-05-17,2024-05-15,有限会社ティエス工業,,有限会社,群馬県,富岡市,田篠９６９番地,,10,210,3702314,,,2024-05-15,清算の結了等,,,2015-10-05,1,,,,,ティエスコウギョウ,0
2009,7080101019066,登記記録の閉鎖等,0,2024-05-17,2024-05-15,越本電気株式会社,,株式会社,静岡県,富士市,宮下１１６番地の３,,22,210,4160947,,,2024-05-15,清算の結了等,,,2016-04-27,1,,,,,コシモトデンキ,0
2019,7120001108096,登記記録の閉鎖等,0,2024-05-17,2024-05-14,株式会社サンエツ,,株式会社,大阪府,大阪市中央区,久太郎町２丁目３番８号ハイム船場９０４号,,27,128,5410056,,,2024-05-14,清算の結了等,,,2015-10-05,1,,,,,サンエツ,0
2033,7120002009252,登記記録の閉鎖等,0,2024-05-17,2024-05-15,有限会社大阪東保険事務所,,有限会社,大阪府,大阪市生野区,生野東２丁目１番２４号,,27,116,5440025,,,2024-05-15,清算の結了等,,,2015-10-05,1,,,,,オオサカヒガシホケンジムショ,0
2041,7120102001332,登記記録の閉鎖等,0,2024-05-17,2024-05-10,有限会社木村製氷,,有限会社,大阪府,堺市東区,北野田５１５番地の７,,27,143,5998123,,,2024-05-10,清算の結了等,,,2015-10-05,1,,,,,キムラセイヒョウ,0
2052,7122002002848,登記記録の閉鎖等,0,2024-05-17,2024-05-15,大和紙工有限会社,,有限会社,大阪府,東大阪市,日下町２丁目２番９号,,27,227,5798003,,,2024-05-15,清算の結了等,,,2015-10-05,1,,,,,ダイワシコウ,0
2064,7140002045948,登記記録の閉鎖等,0,2024-05-17,2024-05-13,有限会社幸岡新建材店,,有限会社,兵庫県,豊岡市,泉町１１番６号,,28,209,6680021,,,2024-05-13,清算の結了等,,,2015-10-05,1,,,,,コウオカシンケンザイテン,0
2088,7180301034045,登記記録の閉鎖等,0,2024-05-17,2024-05-09,ＩＭＰＥＲＩＯＮＳ株式会社,,株式会社,愛知県,西尾市,米津町仲之畑６番地１,,23,213,4450802,,,2024-05-09,清算の結了等,,,2020-09-03,1,,,,,インペリオンス,0
2104,7210005000190,登記記録の閉鎖等,0,2024-05-17,2024-05-15,医療法人はら耳鼻咽喉科医院,,その他の設立登記法人,福井県,福井市,福新町２００２番地の１,,18,201,9188045,,,2024-05-15,清算の結了等,,,2015-10-05,1,,,,,ハラジビインコウカイイン,0
2117,7260005010144,登記記録の閉鎖等,0,2024-05-17,2024-05-13,一般社団法人岡山県小水力利用推進協議会,,その他の設立登記法人,岡山県,岡山市北区,南方１丁目６番７号,,33,101,7000807,,,2024-05-13,清算の結了等,,,2016-08-17,1,,,,,オカヤマケンショウスイリョクリヨウスイシンキョウギカイ,0
2151,7370002013832,登記記録の閉鎖等,0,2024-05-17,2024-05-14,有限会社モアール,,有限会社,宮城県,仙台市青葉区,川平５丁目５番１８号,,04,101,9810954,,,2024-05-14,清算の結了等,,,2015-10-05,1,,,,,モアール,0
2152,7370005009794,登記記録の閉鎖等,0,2024-05-17,2024-05-09,３Ｃ協同組合,,その他の設立登記法人,青森県,青森市,問屋町２丁目１４－６,,02,201,0300131,,,2024-05-09,清算の結了等,,,2018-12-20,1,,,,,スリーシー,0
2154,7370805000432,登記記録の閉鎖等,0,2024-05-17,2024-05-10,医療法人社団陽光会西陵内科,,その他の設立登記法人,宮城県,仙台市太白区,緑ケ丘１丁目５番２５号,,04,104,9820021,,,2024-05-10,清算の結了等,,,2015-10-05,1,,,,,ヨウコウカイセイリョウナイカ,0
2183,8010001198692,登記記録の閉鎖等,0,2024-05-17,2024-04-25,メディゲートデジタルヘルス株式会社,,株式会社,東京都,港区,麻布台１丁目１１番４号いんなあとりっぷ３階,,13,103,1060041,,,2024-04-25,清算の結了等,,,2019-02-25,1,,,,,メディゲートデジタルヘルス,0
2188,8010002001054,登記記録の閉鎖等,0,2024-05-17,2024-05-02,有限会社エフ・ケイ・エス,,有限会社,東京都,文京区,千駄木３丁目２３番６－９０４号,,13,105,1130022,,,2024-05-02,清算の結了等,,,2015-10-05,1,,,,,エフケイエス,0
2203,8010401168460,登記記録の閉鎖等,0,2024-05-17,2024-04-26,株式会社カタフリ,,株式会社,東京都,港区,虎ノ門１丁目１７番１号,,13,103,1050001,,,2024-04-26,清算の結了等,,,2022-07-13,1,,,,,カタフリ,0
2217,8010701040690,登記記録の閉鎖等,0,2024-05-17,2024-05-14,ｆｏｒｗｉｚ株式会社,,株式会社,東京都,品川区,東五反田２丁目８番５号ＫＮビル５Ｆ,,13,109,1410022,,,2024-05-14,合併による解散等,8430001041026,令和６年５月１日札幌市中央区北二条西一丁目１番７号ＯＲＥ札幌ビル７Ｆ株式会社ＮＤＰマーケティング（8430001041026）に合併し解散,2021-03-26,1,,,,,フォーウイズ,0
2229,8011001125042,登記記録の閉鎖等,0,2024-05-17,2024-05-01,株式会社ヌルベット,,株式会社,東京都,渋谷区,神宮前６丁目１２番１８号,,13,113,1500001,,,2024-05-01,清算の結了等,,,2018-11-05,1,,,,,ヌルベット,0
2242,8011501006824,登記記録の閉鎖等,0,2024-05-17,2024-05-13,新光自動車興業株式会社,,株式会社,東京都,荒川区,荒川４丁目４番１号,,13,118,1160002,,,2024-05-13,清算の結了等,,,2015-10-05,1,,,,,シンコウジドウシャコウギョウ,0
2253,8020001078968,登記記録の閉鎖等,0,2024-05-17,2024-05-09,株式会社ロードＦＰオフィス,,株式会社,神奈川県,川崎市宮前区,宮崎２丁目１番地５１,,14,136,2160033,,,2024-05-09,清算の結了等,,,2015-10-05,1,,,,,ロードエフピーオフィス,0
2278,8030002050347,登記記録の閉鎖等,0,2024-05-17,2024-05-14,有限会社マリオネットワイド,,有限会社,埼玉県,三郷市,早稲田７丁目２番地２号棟１０４号,,11,237,3410018,,,2024-05-14,清算の結了等,,,2015-10-05,1,,,,,マリオネットワイド,0
2280,8030003021586,登記記録の閉鎖等,0,2024-05-17,2024-05-16,ＦＪ　Ｉｎｖｅｓｔｍｅｎｔｓ合同会社,,合同会社,埼玉県,桶川市,坂田西２丁目２６番地の２９,,11,231,3630018,,,2024-05-16,清算の結了等,,,2023-04-18,1,,,,,エフジェイインベストメント,0
2314,8100001019162,登記記録の閉鎖等,0,2024-05-17,2024-04-25,株式会社トウブ技研,,株式会社,長野県,茅野市,宮川４８７３番地１８,,20,214,3910013,,,2024-04-25,清算の結了等,,,2015-10-05,1,,,,,トウブギケン,0
2321,8120001247587,登記記録の閉鎖等,0,2024-05-17,2024-05-16,坂東商事株式会社,,株式会社,大阪府,門真市,南野口町９番５号,,27,223,5710005,,,2024-05-16,清算の結了等,,,2022-07-25,1,,,,,バンドウショウジ,0
2322,8120001253040,登記記録の閉鎖等,0,2024-05-17,2024-05-14,株式会社ミギアガリ,,株式会社,大阪府,大阪市阿倍野区,昭和町１丁目２１－１８高崎ビル２０１号室,,27,119,5450011,,,2024-05-14,清算の結了等,,,2023-03-08,1,,,,,ミギアガリ,0
2345,8120901018311,登記記録の閉鎖等,0,2024-05-17,2024-05-13,Ｅプラン株式会社,,株式会社,大阪府,吹田市,千里山西３丁目５番１２－４０２号,,27,205,5650851,,,2024-05-13,清算の結了等,,,2015-10-05,1,,,,,イープラン,0
2363,8150003001592,登記記録の閉鎖等,0,2024-05-17,2024-05-15,Ｓｕｎ　ｅｎｅｒｇｙ合同会社,,合同会社,奈良県,橿原市,見瀬町６０１番地の３,,29,205,6340064,,,2024-05-15,清算の結了等,,,2017-04-11,1,,,,,サンエナジー,0
2365,8160001008597,登記記録の閉鎖等,0,2024-05-17,2024-05-15,野瀬住宅株式会社,,株式会社,滋賀県,彦根市,野瀬町６３０番地,,25,202,5220055,,,2024-05-15,清算の結了等,,,2015-10-05,1,,,,,ノセジュウタク,0
2370,8180001051967,登記記録の閉鎖等,0,2024-05-17,2024-05-07,株式会社オージーケー,,株式会社,愛知県,北名古屋市,鹿田１３５４番地８１,,23,234,4810004,,,2024-05-07,合併による解散等,3180001051055,令和６年５月１日愛知県北名古屋市鍜治ケ一色西二丁目１１３番地小高精密株式会社（3180001051055）に合併し解散,2015-10-05,1,,,,,オージーケー,0
2384,8180002066808,登記記録の閉鎖等,0,2024-05-17,2024-05-08,有限会社内藤業務店,,有限会社,愛知県,春日井市,勝川町５丁目４８番地,,23,206,4860945,,,2024-05-08,清算の結了等,,,2015-10-05,1,,,,,ナイトウギョウムテン,0
2389,8180301029102,登記記録の閉鎖等,0,2024-05-17,2024-05-14,ｇｒａｎｄｅ　ｓｏｅｕｒ株式会社,,株式会社,愛知県,豊田市,平芝町８丁目２番地５,,23,211,4710065,,,2024-05-14,清算の結了等,,,2016-04-12,1,,,,,グランスール,0
2390,8180301035471,登記記録の閉鎖等,0,2024-05-17,2024-05-13,株式会社ＬＩＮＫ‐Ｙｕ,,株式会社,愛知県,岡崎市,両町３丁目３４番地２,,23,202,4440023,,,2024-05-13,清算の結了等,,,2021-10-07,1,,,,,リンクユー,0
2394,8200002014813,登記記録の閉鎖等,0,2024-05-17,2024-05-15,有限会社スキラップ,,有限会社,岐阜県,海津市,平田町高田１１５２番地の１,,21,221,5030313,,,2024-05-15,清算の結了等,,,2015-10-05,1,,,,,スキラップ,0
2406,8240002000594,登記記録の閉鎖等,0,2024-05-17,2024-05-15,有限会社あすか調剤薬局,,有限会社,広島県,広島市西区,南観音７丁目３番１７号,,34,104,7330035,,,2024-05-15,清算の結了等,,,2015-10-05,1,,,,,アスカチョウザイヤッキョク,0
2407,8240002029295,登記記録の閉鎖等,0,2024-05-17,2024-05-14,有限会社吉田屋,,有限会社,広島県,東広島市,安芸津町三津４１７５番地の３,,34,212,7392402,,,2024-05-14,清算の結了等,,,2015-10-05,1,,,,,ヨシダヤ,0
2409,8240005003272,登記記録の閉鎖等,0,2024-05-17,2024-05-01,広島県ふれあい生活協同組合,,その他の設立登記法人,広島県,広島市西区,南観音２丁目６番２５－２０３号,,34,104,7330035,,,2024-05-01,清算の結了等,,,2015-10-05,1,,,,,ヒロシマケンフレアイ,0
2414,8290001061294,登記記録の閉鎖等,0,2024-05-17,2024-04-15,サイバーアセット株式会社,,株式会社,福岡県,福岡市中央区,天神２丁目３番１０号天神パインクレスト７１６,,40,133,8100001,,,2024-04-15,清算の結了等,,,2015-10-05,1,,,,,サイバーアセット,0
2416,8290001087331,登記記録の閉鎖等,0,2024-05-17,2024-05-14,ｅ－ｔｒｅａｔｍｅｎｔ株式会社,,株式会社,大阪府,大阪市中央区,瓦町３丁目２－１５瓦町ウサミビル６Ｆ,,27,128,5410048,,,2024-05-14,合併による解散等,6010401113971,令和６年４月２３日東京都港区西新橋一丁目１４－１０西新橋スタービル５階株式会社スターコンサルティング（6010401113971）に合併し解散,2019-12-10,1,,,,,イートリートメント,0
2418,8290002008237,登記記録の閉鎖等,0,2024-05-17,2024-05-08,有限会社ショウエイ,,有限会社,福岡県,福岡市早良区,小田部２丁目４番１３号,,40,137,8140032,,,2024-05-08,清算の結了等,,,2015-10-05,1,,,,,ショウエイ,0
2420,8290002054487,登記記録の閉鎖等,0,2024-05-17,2024-04-15,有限会社熊川書店,,有限会社,福岡県,みやま市,瀬高町下庄１００８番地１,,40,229,8350024,,,2024-04-15,清算の結了等,,,2015-10-05,1,,,,,クマガワショテン,0
2432,8350001006235,登記記録の閉鎖等,0,2024-05-17,2024-05-14,株式会社金丸建設,,株式会社,宮崎県,東臼杵郡諸塚村,大字家代２６７９番地,,45,429,8831301,,,2024-05-14,清算の結了等,,,2015-10-05,1,,,,,カネマルケンセツ,0
2446,8380001018269,登記記録の閉鎖等,0,2024-05-17,2024-05-09,株式会社アクトイン,,株式会社,福島県,会津若松市,神指町大字南四合字幕内西３５１番地２,,07,202,9650858,,,2024-05-09,合併による解散等,5380001017868,令和６年５月１日福島県会津若松市神指町大字南四合字幕内西３５１番地２松浦商事株式会社（5380001017868）に合併し解散,2015-10-05,1,,,,,アクトイン,0
2449,8400001004976,登記記録の閉鎖等,0,2024-05-17,2024-05-07,株式会社パイオニア牧場,,株式会社,岩手県,盛岡市,本町通２丁目１番３４－１０１号,,03,201,0200015,,,2024-05-07,清算の結了等,,,2015-10-05,1,,,,,,0
2450,8400002004736,登記記録の閉鎖等,0,2024-05-17,2024-05-07,有限会社ティエムシー企画,,有限会社,岩手県,紫波郡矢巾町,大字高田第１５地割５０番地１７,,03,322,0283601,,,2024-05-07,清算の結了等,,,2015-10-05,1,,,,,ティエムシーキカク,0
2460,8430002030787,登記記録の閉鎖等,0,2024-05-17,2024-05-14,有限会社アルカシス,,有限会社,北海道,札幌市北区,篠路四条３丁目１０番２０号,,01,102,0028024,,,2024-05-14,清算の結了等,,,2015-10-05,1,,,,,アルカシス,0
2464,8450002007651,登記記録の閉鎖等,0,2024-05-17,2024-05-14,吉田商事有限会社,,有限会社,北海道,深川市,北光町２丁目１２番１５号,,01,228,0740022,,,2024-05-14,清算の結了等,,,2015-10-05,1,,,,,ヨシダショウジ,0
2474,9010001216569,登記記録の閉鎖等,0,2024-05-17,2024-05-01,アルドセイフティ株式会社,,株式会社,東京都,中央区,日本橋小網町８番２号ＢＩＺＭＡＲＫＳ日本橋茅場町,,13,102,1030016,,,2024-05-01,清算の結了等,,,2021-03-16,1,,,,,アルドセイフティ,0
2476,9010001226023,登記記録の閉鎖等,0,2024-05-17,2024-05-02,日本医薬研究院株式会社,,株式会社,東京都,中央区,東日本橋２丁目２８番５号５０８,,13,102,1030004,,,2024-05-02,清算の結了等,,,2022-04-19,1,,,,,ニホンイヤクケンキュウイン,0
2489,9010401136755,登記記録の閉鎖等,0,2024-05-17,2024-05-13,株式会社コウジュン,,株式会社,東京都,品川区,大崎４丁目２番２－６０１号,,13,109,1410032,,,2024-05-13,清算の結了等,,,2018-02-23,1,,,,,コウジュン,0
2495,9010403010140,登記記録の閉鎖等,0,2024-05-17,2024-04-25,ＭＣＶＦ１号合同会社,,合同会社,東京都,港区,港南２丁目１６番１号,,13,103,1080075,,,2024-04-25,清算の結了等,,,2015-10-05,1,,,,,エムシーブイエフイチゴウ,0
2496,9010403020271,登記記録の閉鎖等,0,2024-05-17,2024-04-26,ベルエア合同会社,,合同会社,東京都,港区,虎ノ門４丁目１番２８号,,13,103,1050001,,,2024-04-26,清算の結了等,,,2019-02-27,1,,,,,ベルエア,0
2513,9011003011660,登記記録の閉鎖等,0,2024-05-17,2024-04-30,合同会社月のうさぎ,,合同会社,東京都,目黒区,目黒本町６丁目１５番１号甘利ビル３０１,,13,110,1520002,,,2024-04-30,清算の結了等,,,2020-09-23,1,,,,,ツキノウサギ,0
2524,9011401019314,登記記録の閉鎖等,0,2024-05-17,2024-05-10,株式会社ＭＩＮＩＭＵＭ,,株式会社,東京都,板橋区,熊野町３７番６号,,13,119,1730025,,,2024-05-10,清算の結了等,,,2016-03-17,1,,,,,ミニマム,0
2533,9011701004692,登記記録の閉鎖等,0,2024-05-17,2024-05-01,株式会社大商,,株式会社,東京都,江戸川区,西小岩１丁目２２番１９号,,13,123,1330057,,,2024-05-01,合併による解散等,9011701010468,令和６年５月１日東京都江戸川区西小岩一丁目２２番１９号株式会社オックス（9011701010468）に合併し解散,2015-10-05,1,,,,,ダイショウ,0
2551,9013301044714,登記記録の閉鎖等,0,2024-05-17,2024-05-07,Ｄｏｒｉａｎ　Ｄａｔａ株式会社,,株式会社,東京都,豊島区,高田１丁目２０番２号ラルゴ西早稲田２０４号,,13,116,1710033,,,2024-05-07,清算の結了等,,,2019-11-01,1,,,,,ドリアンデータ,0
2580,9030002101917,登記記録の閉鎖等,0,2024-05-17,2024-05-14,有限会社川原土地開発,,有限会社,埼玉県,川口市,西川口３丁目２２番６号,,11,203,3320021,,,2024-05-14,清算の結了等,,,2015-10-05,1,,,,,カワハラトチカイハツ,0
2607,9080401023286,登記記録の閉鎖等,0,2024-05-17,2024-05-16,株式会社スリーエス,,株式会社,静岡県,浜松市中央区,大瀬町４１４番地の３,,22,138,4313113,,,2024-05-16,清算の結了等,,,2018-11-19,1,,,,,スリーエス,0
2609,9080402003254,登記記録の閉鎖等,0,2024-05-17,2024-05-15,有限会社佐々木建築設計コンサルタント,,有限会社,静岡県,浜松市中央区,上島２丁目２２番１１号,,22,138,4338122,,,2024-05-15,清算の結了等,,,2015-10-05,1,,,,,ササキケンチクセッケイコンサルタント,0
2615,9110002006125,登記記録の閉鎖等,0,2024-05-17,2024-05-15,有限会社桝屋,,有限会社,新潟県,新潟市東区,紫竹６丁目１９番１１号,,15,102,9500864,,,2024-05-15,清算の結了等,,,2015-10-05,1,,,,,マスヤ,0
2618,9120001004475,登記記録の閉鎖等,0,2024-05-17,2024-05-16,山紀商事株式会社,,株式会社,大阪府,大阪市西成区,岸里３丁目１３番１３号,,27,122,5570041,,,2024-05-16,清算の結了等,,,2015-10-05,1,,,,,ヤマキショウジ,0
2638,9120101067001,登記記録の閉鎖等,0,2024-05-17,2024-05-14,日本営業支援センター株式会社,,株式会社,大阪府,堺市北区,長曽根町１３０番４２,,27,146,5918025,,,2024-05-14,清算の結了等,,,2023-02-15,1,,,,,ニホンエイギョウシエンセンター,0
2656,9140002008795,登記記録の閉鎖等,0,2024-05-17,2024-05-14,有限会社光工務店,,有限会社,兵庫県,神戸市兵庫区,駅前通２丁目２番３２号,,28,105,6520898,,,2024-05-14,清算の結了等,,,2015-10-05,1,,,,,,0
2657,9140002036482,登記記録の閉鎖等,0,2024-05-17,2024-05-15,有限会社播磨運輸,,有限会社,兵庫県,加古郡稲美町,国岡６丁目２２９番地の１,,28,381,6751115,,,2024-05-15,清算の結了等,,,2015-10-05,1,,,,,ハリマウンユ,0
2666,9180001044284,登記記録の閉鎖等,0,2024-05-17,2024-05-10,株式会社鈴木モータース,,株式会社,愛知県,名古屋市中川区,上高畑１丁目１００番地,,23,110,4540873,,,2024-05-10,清算の結了等,,,2015-10-05,1,,,,,スズキモータース,0
2684,9190001017669,登記記録の閉鎖等,0,2024-05-17,2024-05-15,評価認証推進機構株式会社,,株式会社,三重県,四日市市,八王子町４３９番地１,,24,202,5100947,,,2024-05-15,清算の結了等,,,2015-10-05,1,,,,,ヒョウカニンショウスイシンキコウ,0
2693,9220005005328,登記記録の閉鎖等,0,2024-05-17,2024-05-13,特定非営利活動法人ゆう和会,,その他の設立登記法人,石川県,羽咋郡宝達志水町,散田ツ１４４番地,,17,386,9291406,,,2024-05-13,清算の結了等,,,2015-10-05,1,,,,,,0
2704,9260003002934,登記記録の閉鎖等,0,2024-05-17,2024-05-16,合同会社サービングテクノス岡山,,合同会社,岡山県,玉野市,玉原１丁目２番１０２号,,33,204,7060014,,,2024-05-16,清算の結了等,,,2019-08-14,1,,,,,サービングテクノスオカヤマ,0
2706,9290001074353,登記記録の閉鎖等,0,2024-05-17,2024-04-15,トータルセールスプロモーション九州株式会社,,株式会社,福岡県,福岡市博多区,南八幡町２丁目７番２号,,40,132,8120886,,,2024-04-15,清算の結了等,,,2016-06-24,1,,,,,トータルセールスプロモーションキュウシュウ,0
2715,9330002002275,登記記録の閉鎖等,0,2024-05-17,2024-05-13,有限会社華文九州,,有限会社,熊本県,熊本市東区,戸島西４丁目１番４３号,,43,102,8618043,,,2024-05-13,清算の結了等,,,2015-10-05,1,,,,,カブンキュウシュウ,0
2718,9340002022784,登記記録の閉鎖等,0,2024-05-17,2024-05-02,有限会社ひさご旅館,,有限会社,鹿児島県,阿久根市,港町３０番地,,46,206,8991623,,,2024-05-02,清算の結了等,,,2015-10-05,1,,,,,ヒサゴリョカン,0
2720,9360001001011,登記記録の閉鎖等,0,2024-05-17,2024-05-01,三高物産株式会社,,株式会社,東京都,千代田区,永田町２丁目１１番１号,,13,101,1000014,,,2024-05-01,清算の結了等,,,2015-10-05,1,,,,,サンコウブッサン,0
2721,9360001002570,登記記録の閉鎖等,0,2024-05-17,2024-05-01,三高水産株式会社,,株式会社,東京都,千代田区,永田町２丁目１１番１号,,13,101,1000014,,,2024-05-01,清算の結了等,,,2015-10-05,1,,,,,サンコウスイサン,0
2733,9400002008686,登記記録の閉鎖等,0,2024-05-17,2024-05-01,有限会社ホーユーホーム,,有限会社,岩手県,花巻市,石鳥谷町滝田第１７地割５４番地１,,03,205,0283122,,,2024-05-01,清算の結了等,,,2015-10-05,1,,,,,ホーユーホーム,0
2746,9450002009746,登記記録の閉鎖等,0,2024-05-17,2024-05-08,有限会社有山商事,,有限会社,北海道,名寄市,東一条南３丁目２０番地,,01,221,0960001,,,2024-05-08,合併による解散等,6450002009740,令和６年５月１日北海道名寄市東一条南三丁目株式会社有山木工場（6450002009740）に合併し解散,2015-10-05,1,,,,,アリヤマショウジ,0
2750,9470002015222,登記記録の閉鎖等,0,2024-05-17,2024-04-15,有限会社ニュートラヤ,,有限会社,香川県,坂出市,江尻町１５６０番地,,37,203,7620011,,,2024-04-15,清算の結了等,,,2015-10-05,1,,,,,ニュートラヤ,0
