sequenceNumber,corporateNumber,process,correct,updateDate,changeDate,name,nameImageId,kind,prefectureName,cityName,streetNumber,addressImageId,prefectureCode,cityCode,postCode,addressOutside,addressOutsideImageId,closeDate,closeCause,successorCorporateNumber,changeCause,assignmentDate,latest,enName,enPrefectureName,enCityName,enAddressOutside,furigana,hihyoji
33,1011301024553,登記記録の閉鎖等,0,2023-04-05,2023-03-30,日信コンサルタント株式会社,,株式会社,東京都,杉並区,南荻窪４丁目２９－１０田丸ビル３階,,13,115,1670052,,,2023-03-30,清算の結了等,,,2018-10-24,1,,,,,ニッシンコンサルタント,0
54,1012801020819,登記記録の閉鎖等,0,2023-04-05,2023-03-30,株式会社Ｄ－ＷＯＲＫＳ,,株式会社,東京都,立川市,曙町２丁目２２番２０号立川センタービル９階Ａ２室,,13,202,1900012,,,2023-03-30,清算の結了等,,,2021-05-14,1,,,,,ディーワークス,0
57,1013101007985,登記記録の閉鎖等,0,2023-04-05,2023-03-30,株式会社タイアップ,,株式会社,東京都,羽村市,富士見平２丁目１２番地７,,13,227,2050013,,,2023-03-30,清算の結了等,,,2018-11-29,1,,,,,タイアップ,0
104,1110001036089,登記記録の閉鎖等,0,2023-04-05,2023-03-31,株式会社ＩＳ　ｍｏｒｅ,,株式会社,新潟県,新潟市西区,上新栄町４丁目１番２０号,,15,107,9502076,,,2023-03-31,清算の結了等,,,2021-10-06,1,,,,,イズモア,0
118,1120003018514,登記記録の閉鎖等,0,2023-04-05,2023-04-03,ル・プログレ合同会社,,合同会社,大阪府,大阪市淀川区,木川西３丁目４番４号,,27,123,5320013,,,2023-04-03,清算の結了等,,,2020-12-03,1,,,,,ルプログレ,0
128,1122001000692,登記記録の閉鎖等,0,2023-04-05,2023-04-03,ウキタ株式会社,,株式会社,大阪府,東大阪市,本庄西３丁目８番１３号,,27,227,5780965,,,2023-04-03,清算の結了等,,,2015-10-05,1,,,,,ウキタ,0
131,1122002006862,登記記録の閉鎖等,0,2023-04-05,2023-04-03,有限会社岡崎エンジンサービス,00034789,有限会社,大阪府,東大阪市,加納７丁目９番３５号,,27,227,5780901,,,2023-04-03,清算の結了等,,,2015-10-05,1,,,,,オカザキエンジンサービス,0
132,1130001005356,登記記録の閉鎖等,0,2023-04-05,2023-03-31,扶双商事株式会社,,株式会社,京都府,長岡京市,天神１丁目２番２号,,26,209,6170824,,,2023-03-31,清算の結了等,,,2015-10-05,1,,,,,フソウショウジ,0
136,1140001020890,登記記録の閉鎖等,0,2023-04-05,2023-03-31,株式会社綜合計画研究所,,株式会社,兵庫県,神戸市須磨区,大黒町３丁目４番１３号,,28,107,6540022,,,2023-03-31,清算の結了等,,,2015-10-05,1,,,,,ソウゴウケイカクケンキュウショ,0
145,1150001001130,登記記録の閉鎖等,0,2023-04-05,2023-03-29,生化工業株式会社,,株式会社,奈良県,奈良市,西木辻町１２３番地,00128700,29,201,6308325,,,2023-03-29,清算の結了等,,,2022-12-13,1,,,,,セイカコウギョウ,0
170,1240002045720,登記記録の閉鎖等,0,2023-04-05,2023-03-31,有限会社川本技術研究所,,有限会社,広島県,福山市,春日台３番１号,,34,207,7210916,,,2023-03-31,清算の結了等,,,2015-10-05,1,,,,,カワモトギジュツケンキュウショ,0
202,1350002013781,登記記録の閉鎖等,0,2023-04-05,2023-03-31,有限会社岩満商店,,有限会社,宮崎県,都城市,若葉町６０号７番地,,45,202,8850054,,,2023-03-31,清算の結了等,,,2015-10-05,1,,,,,イワミツショウテン,0
225,1460102005627,登記記録の閉鎖等,0,2023-04-05,2023-03-31,有限会社佐々木木材,,有限会社,北海道,河東郡上士幌町,字上士幌東２線２３５番地,,01,633,0801408,,,2023-03-31,清算の結了等,,,2015-10-05,1,,,,,ササキモクザイ,0
230,1490002009700,登記記録の閉鎖等,0,2023-04-05,2023-04-03,有限会社柏原商店,,有限会社,高知県,土佐市,宇佐町宇佐３６番地,,39,205,7811161,,,2023-04-03,清算の結了等,,,2015-10-05,1,,,,,カシワバラショウテン,0
246,2010401102508,登記記録の閉鎖等,0,2023-04-05,2023-03-24,インペックス東インド沖石油株式会社,,株式会社,東京都,港区,赤坂５丁目３番１号,,13,103,1070052,,,2023-03-24,清算の結了等,,,2015-10-05,1,,,,,インペックスヒガシインドオキセキユ,0
248,2010401127777,登記記録の閉鎖等,0,2023-04-05,2023-03-24,株式会社Ｄ・フロント,,株式会社,東京都,港区,赤坂５丁目４番１１号,,13,103,1070052,,,2023-03-24,清算の結了等,,,2016-10-27,1,,,,,ディーフロント,0
254,2010403025715,登記記録の閉鎖等,0,2023-04-05,2023-03-24,合同会社ＳＡＰ　Ｓｈｉｍｏ,,合同会社,東京都,港区,虎ノ門５丁目１番４号,,13,103,1050001,,,2023-03-24,清算の結了等,,,2021-07-14,1,,,,,エスエーピーシモ,0
266,2010705001991,登記記録の閉鎖等,0,2023-04-05,2023-03-31,一般社団法人昭和薬学研修協会,,その他の設立登記法人,東京都,品川区,東五反田３丁目６番１９,,13,109,1410022,,,2023-03-31,清算の結了等,,,2015-10-05,1,,,,,ショウワヤクガクケンシュウキョウカイ,0
273,2011001049569,登記記録の閉鎖等,0,2023-04-05,2023-03-30,ヴァカンツァ株式会社,,株式会社,東京都,渋谷区,神宮前３丁目３８番１１号,,13,113,1500001,,,2023-03-30,清算の結了等,,,2015-10-05,1,,,,,ヴァカンツァ,0
345,2110001003518,登記記録の閉鎖等,0,2023-04-05,2023-03-31,東北製袋株式会社,,株式会社,新潟県,新潟市中央区,鏡が岡２番７号,,15,103,9500074,,,2023-03-31,清算の結了等,,,2015-10-05,1,,,,,トウホクセイタイ,0
349,2120001133537,登記記録の閉鎖等,0,2023-04-05,2023-03-31,グローバルエージェント株式会社,,株式会社,大阪府,大阪市浪速区,恵美須西２丁目１４番２９号,,27,111,5560003,,,2023-03-31,清算の結了等,,,2015-10-05,1,,,,,グローバルエージェント,0
351,2120001201608,登記記録の閉鎖等,0,2023-04-05,2023-03-31,株式会社ＴＣＴ,,株式会社,大阪府,大阪市西区,西本町３丁目１－４３西本町ソーラービル６階,,27,106,5500005,,,2023-03-31,清算の結了等,,,2016-11-01,1,,,,,ティーシーティー,0
382,2140001036515,登記記録の閉鎖等,0,2023-04-05,2023-03-30,株式会社ハリマエンタープライズ,,株式会社,兵庫県,三木市,大塚２丁目１番５１号,,28,215,6730413,,,2023-03-30,清算の結了等,,,2015-10-05,1,,,,,ハリマエンタープライズ,0
394,2140005000566,登記記録の閉鎖等,0,2023-04-05,2023-03-31,日本イエス・キリスト教団神戸聖泉教会,,その他の設立登記法人,兵庫県,神戸市長田区,房王寺町５丁目５番２号,,28,106,6530801,,,2023-03-31,清算の結了等,,,2015-10-05,1,,,,,ニホンイエスキリストキョウダンコウベセイセンキョウカイ,0
413,2180005007129,登記記録の閉鎖等,0,2023-04-05,2023-04-03,社会保険労務士法人年金相談サービス,,その他の設立登記法人,愛知県,名古屋市西区,玉池町２０６番地ラヴィエール上小田井５０１号,,23,104,4520812,,,2023-04-03,清算の結了等,,,2015-10-05,1,,,,,ネンキンソウダンサービス,0
423,2230002008297,登記記録の閉鎖等,0,2023-04-05,2023-03-31,有限会社呉東砂利開発,,有限会社,富山県,下新川郡朝日町,月山１９４７番地,,16,343,9390733,,,2023-03-31,清算の結了等,,,2015-10-05,1,,,,,ゴトウジャリカイハツ,0
444,2290801001645,登記記録の閉鎖等,0,2023-04-05,2023-04-03,三栄興産株式会社,,株式会社,福岡県,北九州市戸畑区,天籟寺１丁目５番３６号,,40,105,8040041,,,2023-04-03,清算の結了等,,,2015-10-05,1,,,,,サンエイコウサン,0
471,2380002004397,登記記録の閉鎖等,0,2023-04-05,2023-04-03,有限会社サントサプライ,,有限会社,福島県,福島市,泉字三斗蒔１３番地の３,,07,201,9608253,,,2023-04-03,清算の結了等,,,2015-10-05,1,,,,,サントサプライ,0
492,2500002010630,登記記録の閉鎖等,0,2023-04-05,2023-04-03,有限会社ウィザード,,有限会社,愛媛県,松山市,下難波甲３３番地５３,,38,201,7992407,,,2023-04-03,清算の結了等,,,2015-10-05,1,,,,,,0
496,3010001156226,登記記録の閉鎖等,0,2023-04-05,2023-03-28,株式会社Ｕ．Ｓ商会,,株式会社,東京都,千代田区,麹町４丁目７番地ロイヤルビル３０２,,13,101,1020083,,,2023-03-28,清算の結了等,,,2015-10-05,1,,,,,ユーエスショウカイ,0
510,3010402035004,登記記録の閉鎖等,0,2023-04-05,2023-03-31,有限会社スーパージャム,,有限会社,東京都,渋谷区,神山町５番８号ステラハイム神山５０１号,,13,113,1500047,,,2023-03-31,清算の結了等,,,2015-10-05,1,,,,,スーパージャム,0
513,3010405006745,登記記録の閉鎖等,0,2023-04-05,2023-03-28,特定非営利活動法人学習支援センター,,その他の設立登記法人,東京都,杉並区,阿佐谷南３丁目４９番２号,,13,115,1660004,,,2023-03-28,清算の結了等,,,2015-10-05,1,,,,,ガクシュウシエンセンター,0
521,3011001131912,登記記録の閉鎖等,0,2023-04-05,2023-04-03,前澤リビング・ソリューションズ株式会社,,株式会社,東京都,目黒区,鷹番２丁目１４番２号,,13,110,1520004,,,2023-04-03,合併による解散等,8013201005478,令和５年４月１日東京都目黒区鷹番二丁目１４番４号前澤給装工業株式会社（8013201005478）に合併し解散,2020-01-21,1,,,,,マエザワリビングソリューションズ,0
531,3011102029485,登記記録の閉鎖等,0,2023-04-05,2023-04-03,株式会社アイエルエス,,株式会社,東京都,新宿区,四谷坂町５番１コンフォール四谷１０２号室,,13,104,1600002,,,2023-04-03,合併による解散等,2011101035493,令和５年４月１日東京都新宿区新宿一丁目２３番１１号御苑メインビル３階株式会社アイベックス（2011101035493）に合併し解散,2015-10-05,1,,,,,アイエルエス,0
533,3011401023412,登記記録の閉鎖等,0,2023-04-05,2023-04-03,黒松内鉱山株式会社,,株式会社,東京都,板橋区,成増３丁目３１番６号２Ｆ,,13,119,1750094,,,2023-04-03,清算の結了等,,,2021-06-01,1,,,,,クロマツナイコウザン,0
541,3012805001292,登記記録の閉鎖等,0,2023-04-05,2023-03-29,特定非営利活動法人東京野外教育活動研究会,,その他の設立登記法人,東京都,立川市,砂川町８丁目１４番地の６,,13,202,1900031,,,2023-03-29,清算の結了等,,,2015-10-05,1,,,,,トウキョウヤガイキョウイクカツドウケンキュウカイ,0
544,3013202006678,登記記録の閉鎖等,0,2023-04-05,2023-03-31,有限会社友美堂洗足店,,有限会社,東京都,目黒区,洗足２丁目６番１１号,,13,110,1520012,,,2023-03-31,清算の結了等,,,2015-10-05,1,,,,,ユウビドウセンゾクテン,0
556,3021003010122,登記記録の閉鎖等,0,2023-04-05,2023-03-31,合同会社風早シネマ,,合同会社,神奈川県,三浦郡葉山町,堀内６６３,,14,301,2400112,,,2023-03-31,清算の結了等,,,2021-02-09,1,,,,,カゼハヤシネマ,0
565,3030002002699,登記記録の閉鎖等,0,2023-04-05,2023-03-31,有限会社オギタック,,有限会社,埼玉県,さいたま市浦和区,瀬ヶ崎１丁目６番３号,,11,107,3300044,,,2023-03-31,清算の結了等,,,2015-10-05,1,,,,,オギタック,0
567,3030003017201,登記記録の閉鎖等,0,2023-04-05,2023-03-31,合同会社六段,,合同会社,埼玉県,所沢市,旭町１２番３号アビタシオン旭町２０２号室,,11,208,3590036,,,2023-03-31,清算の結了等,,,2021-04-28,1,,,,,ロクダン,0
581,3050002029600,登記記録の閉鎖等,0,2023-04-05,2023-04-03,有限会社ハタヤドレス,,有限会社,茨城県,鉾田市,鉾田１６３６番地,,08,234,3111517,,,2023-04-03,清算の結了等,,,2015-10-05,1,,,,,ハタヤドレス,0
597,3120001001602,登記記録の閉鎖等,0,2023-04-05,2023-04-03,奥田興産株式会社,00026943,株式会社,大阪府,大阪市鶴見区,横堤３丁目１番４７号,,27,124,5380052,,,2023-04-03,清算の結了等,,,2015-10-05,1,,,,,オクダコウサン,0
601,3120001099728,登記記録の閉鎖等,0,2023-04-05,2023-04-03,株式会社関電セキュリティ・オブ・ソサイエティ,,株式会社,大阪府,大阪市北区,太融寺町３番２４号日本生命梅田第二ビル,,27,127,5300051,,,2023-04-03,合併による解散等,9120001062589,令和５年４月１日大阪市中央区城見二丁目１番５号株式会社オプテージ（9120001062589）に合併し解散,2015-10-05,1,,,,,カンデンセキュリティオブソサイエティ,0
619,3120901039139,登記記録の閉鎖等,0,2023-04-05,2023-04-03,株式会社ＭＧＳＫ,,株式会社,大阪府,茨木市,上穂積１丁目１番７号,,27,211,5670036,,,2023-04-03,清算の結了等,,,2017-10-30,1,,,,,,0
634,3140001050580,登記記録の閉鎖等,0,2023-04-05,2023-03-29,株式会社日産電工社,,株式会社,兵庫県,尼崎市,神田北通８丁目２２５番地の１,,28,202,6600883,,,2023-03-29,清算の結了等,,,2015-10-05,1,,,,,ニッサンデンコウシャ,0
650,3160001001508,登記記録の閉鎖等,0,2023-04-05,2023-04-03,日精エンジニアリング株式会社,,株式会社,滋賀県,大津市,晴嵐２丁目３番１３号,,25,201,5200833,,,2023-04-03,合併による解散等,8160001001486,令和５年４月１日滋賀県大津市晴嵐二丁目３番１３号日精工業株式会社（8160001001486）に合併し解散,2015-10-05,1,,,,,ニッセイエンジニアリング,0
659,3180001052870,登記記録の閉鎖等,0,2023-04-05,2023-04-03,株式会社ＫＳプランニング,,株式会社,愛知県,名古屋市中区,丸の内２丁目１８番２５号,,23,106,4600002,,,2023-04-03,合併による解散等,1180001035935,令和５年４月１日名古屋市中区丸の内二丁目１８番２５号株式会社近藤紡績所（1180001035935）に合併し解散,2015-10-05,1,,,,,ケーエスプランニング,0
661,3180001084187,登記記録の閉鎖等,0,2023-04-05,2023-03-31,株式会社かおる,,株式会社,愛知県,名古屋市昭和区,滝川町２６番地１杁中スカイタウンＡ棟８０１号,,23,107,4660826,,,2023-03-31,清算の結了等,,,2015-10-05,1,,,,,カオル,0
672,3180005004133,登記記録の閉鎖等,0,2023-04-05,2023-03-31,名古屋ハイヤー・タクシー交通共済協同組合,,その他の設立登記法人,愛知県,名古屋市熱田区,神宮４丁目７番２７号,,23,109,4560031,,,2023-03-31,清算の結了等,,,2015-10-05,1,,,,,ナゴヤハイヤータクシーコウツウキョウサイ,0
681,3220001022324,登記記録の閉鎖等,0,2023-04-05,2023-03-31,株式会社レグテック,,株式会社,石川県,金沢市,西泉４丁目６０番地,,17,201,9218043,,,2023-03-31,清算の結了等,,,2018-06-06,1,,,,,レグテック,0
694,3260001029092,登記記録の閉鎖等,0,2023-04-05,2023-04-03,山陽運輸倉庫株式会社,,株式会社,岡山県,岡山市北区,大内田８２２番地２,,33,101,7010165,,,2023-04-03,合併による解散等,6260001024223,令和５年４月１日岡山市北区大内田８２２番地１株式会社日之出運輸（6260001024223）に合併し解散,2015-12-25,1,,,,,サンヨウウンユソウコ,0
735,3460002003547,登記記録の閉鎖等,0,2023-04-05,2023-03-31,有限会社菊池左官工業,,有限会社,北海道,釧路市,愛国東２丁目１０番４号,,01,206,0850058,,,2023-03-31,清算の結了等,,,2015-10-05,1,,,,,キクチサカンコウギョウ,0
746,3490001005434,登記記録の閉鎖等,0,2023-04-05,2023-04-03,株式会社宇佐スーパーマーケツト,,株式会社,高知県,土佐市,宇佐町宇佐７１２番地１,,39,205,7811161,,,2023-04-03,清算の結了等,,,2015-10-05,1,,,,,ウサスーパーマーケット,0
755,4010001014085,登記記録の閉鎖等,0,2023-04-05,2023-03-29,株式会社かすが,,株式会社,東京都,千代田区,飯田橋２丁目９番３号,,13,101,1020072,,,2023-03-29,清算の結了等,,,2015-10-05,1,,,,,カスガ,0
758,4010005028916,登記記録の閉鎖等,0,2023-04-05,2023-03-30,京都八幡プロパティー特定目的会社,,その他の設立登記法人,東京都,千代田区,丸の内１丁目１１番１号,,13,101,1000005,,,2023-03-30,清算の結了等,,,2018-08-07,1,,,,,キョウトヤワタプロパティー,0
775,4010403023254,登記記録の閉鎖等,0,2023-04-05,2023-03-24,アルテシモ１合同会社,,合同会社,東京都,港区,虎ノ門５丁目１番４号,,13,103,1050001,,,2023-03-24,清算の結了等,,,2020-07-09,1,,,,,アルテシモワン,0
776,4010403023353,登記記録の閉鎖等,0,2023-04-05,2023-03-24,合同会社Ｊａｖｅｌｉｎ,,合同会社,東京都,港区,虎ノ門５丁目１番４号,,13,103,1050001,,,2023-03-24,清算の結了等,,,2020-07-27,1,,,,,ジャベリン,0
796,4011301019922,登記記録の閉鎖等,0,2023-04-05,2023-03-28,サチロード株式会社,,株式会社,東京都,杉並区,今川１丁目１６番１９号,,13,115,1670035,,,2023-03-28,清算の結了等,,,2015-10-05,1,,,,,サチロード,0
829,4020002028001,登記記録の閉鎖等,0,2023-04-05,2023-03-31,有限会社富士屋酒店,,有限会社,神奈川県,横浜市神奈川区,六角橋２丁目２７番１３号,,14,102,2210802,,,2023-03-31,清算の結了等,,,2015-10-05,1,,,,,フジヤサケテン,0
854,4070001003470,登記記録の閉鎖等,0,2023-04-05,2023-04-03,株式会社リフォームコバヤシ,,株式会社,群馬県,前橋市,野中町３９０番地,,10,201,3792166,,,2023-04-03,合併による解散等,3070001001260,令和５年４月１日群馬県前橋市表町二丁目１１番８号小林工業株式会社（3070001001260）に合併し解散,2015-10-05,1,,,,,リフォームコバヤシ,0
855,4070001034540,登記記録の閉鎖等,0,2023-04-05,2023-03-31,株式会社ワールドビルメンテナンス,,株式会社,群馬県,伊勢崎市,波志江町４７５３番地６,,10,204,3720001,,,2023-03-31,清算の結了等,,,2018-04-04,1,,,,,ワールドビルメンテナンス,0
864,4080101016784,登記記録の閉鎖等,0,2023-04-05,2023-04-03,株式会社富士貿易,,株式会社,静岡県,御殿場市,竈８４６番地の３,,22,215,4120039,,,2023-04-03,清算の結了等,,,2015-10-05,1,,,,,フジボウエキ,0
868,4100001006783,登記記録の閉鎖等,0,2023-04-05,2023-03-31,株式会社サルサ,,株式会社,長野県,長野市,川中島町上氷鉋１６８５番地１３,,20,201,3812233,,,2023-03-31,清算の結了等,,,2015-10-05,1,,,,,サルサ,0
875,4120001068582,登記記録の閉鎖等,0,2023-04-05,2023-04-03,株式会社読売ＮＥＸＴ,,株式会社,大阪府,大阪市北区,野崎町３番１４号,,27,127,5300055,,,2023-04-03,合併による解散等,9120101008533,令和５年４月１日大阪市北区野崎町３番１４号株式会社読売大阪プリントメディア（9120101008533）に合併し解散,2015-10-05,1,,,,,ヨミウリネクスト,0
897,4130001000610,登記記録の閉鎖等,0,2023-04-05,2023-03-30,株式会社・キヨープレ,,株式会社,京都府,京都市下京区,六条通烏丸西入上柳町２１９番地,,26,106,6008164,,,2023-03-30,清算の結了等,,,2015-10-05,1,,,,,キョープレ,0
909,4140002011705,登記記録の閉鎖等,0,2023-04-05,2023-03-31,有限会社ａｃｔｗｅｌｌ,,有限会社,兵庫県,神戸市兵庫区,福原町１１番１１号,,28,105,6520036,,,2023-03-31,清算の結了等,,,2015-10-05,1,,,,,アクトウィル,0
913,4170002005464,登記記録の閉鎖等,0,2023-04-05,2023-03-31,有限会社ユニックス,,有限会社,和歌山県,和歌山市,上野３２３番地の１,,30,201,6496316,,,2023-03-31,清算の結了等,,,2015-10-05,1,,,,,ユニックス,0
963,4340001010340,登記記録の閉鎖等,0,2023-04-05,2023-04-03,株式会社ケイ・エス企画,,株式会社,鹿児島県,鹿児島市,坂之上７丁目１番１６号,,46,201,8910150,,,2023-04-03,清算の結了等,,,2015-10-05,1,,,,,ケイエスキカク,0
981,4490002007668,登記記録の閉鎖等,0,2023-04-05,2023-03-30,有限会社ファミーユ,,有限会社,高知県,高知市,中万々９１番地１,,39,201,7800972,,,2023-03-30,清算の結了等,,,2015-10-05,1,,,,,ファミーユ,0
982,4500001010811,登記記録の閉鎖等,0,2023-04-05,2023-04-03,株式会社吉忠運輸機工,,株式会社,愛媛県,新居浜市,田所町４番６８号,,38,205,7920804,,,2023-04-03,合併による解散等,8500001010295,令和５年４月１日愛媛県新居浜市田所町４番６８号丸重商事株式会社（8500001010295）に合併し解散,2015-10-05,1,,,,,ヨシチュウウンユキコウ,0
991,5010005028056,登記記録の閉鎖等,0,2023-04-05,2023-03-30,一般社団法人アスールツー,,その他の設立登記法人,東京都,中央区,日本橋１丁目４番１号日本橋一丁目ビルディング,,13,102,1030027,,,2023-03-30,清算の結了等,,,2018-02-05,1,,,,,アスールツー,0
993,5010101007970,登記記録の閉鎖等,0,2023-04-05,2023-03-31,株式会社グレートハート,,株式会社,東京都,八王子市,子安町４丁目７番１号サザンスカイタワーレジデンス３２０２号室,,13,201,1920904,,,2023-03-31,清算の結了等,,,2015-10-05,1,,,,,グレートハート,0
1016,5010703005744,登記記録の閉鎖等,0,2023-04-05,2023-03-31,合同会社ヤナギ,,合同会社,東京都,品川区,上大崎３丁目１３番９号プチメゾン上大崎３０３号室,,13,109,1410021,,,2023-03-31,清算の結了等,,,2021-05-06,1,,,,,ヤナギ,0
1018,5011001068525,登記記録の閉鎖等,0,2023-04-05,2023-03-31,株式会社アンバー,,株式会社,東京都,渋谷区,神南１丁目１３番８号パーク・アヴェニュー神南１１０４,,13,113,1500041,,,2023-03-31,清算の結了等,,,2015-10-05,1,,,,,アンバー,0
1029,5011301021869,登記記録の閉鎖等,0,2023-04-05,2023-03-30,ＢＢＲ株式会社,,株式会社,茨城県,つくば市,小野崎字千駄苅２７８－１ＬａＬａガーデン２Ｆ，チューロ,,08,220,3050034,,,2023-03-30,清算の結了等,,,2015-12-18,1,,,,,ビービーアール,0
1056,5020001061530,登記記録の閉鎖等,0,2023-04-05,2023-03-31,木次商会株式会社,,株式会社,神奈川県,横浜市南区,中里１丁目１３番１０－１０２号,,14,105,2320063,,,2023-03-31,清算の結了等,,,2015-10-05,1,,,,,キツギショウカイ,0
1058,5020001121334,登記記録の閉鎖等,0,2023-04-05,2023-03-30,ｓｇｌａｂ株式会社,,株式会社,神奈川県,川崎市川崎区,駅前本町１１番地２川崎フロンティアビル４階,,14,131,2100007,,,2023-03-30,清算の結了等,,,2017-05-16,1,,,,,エスジーラボ,0
1072,5030003017083,登記記録の閉鎖等,0,2023-04-05,2023-03-31,合同会社かぐや,,合同会社,埼玉県,川口市,元郷１丁目３番８号ワコーレ川口Ｖ２０７号,00122699,11,203,3320011,,,2023-03-31,清算の結了等,,,2021-04-09,1,,,,,カグヤ,0
1078,5050001046966,登記記録の閉鎖等,0,2023-04-05,2023-03-29,株式会社エービス,,株式会社,茨城県,鹿嶋市,大字小山１００９番地５３,,08,222,3112222,,,2023-03-29,清算の結了等,,,2019-12-27,1,,,,,エービス,0
1094,5080101013822,登記記録の閉鎖等,0,2023-04-05,2023-04-03,株式会社ミズノ,,株式会社,徳島県,徳島市,中島田町３丁目５８番地の１,,36,201,7700052,,,2023-04-03,清算の結了等,,,2015-10-05,1,,,,,ミズノ,0
1108,5120001088415,登記記録の閉鎖等,0,2023-04-05,2023-04-03,株式会社大阪フジサービス,,株式会社,大阪府,大阪市中央区,備後町２丁目１番１号,,27,128,5410051,,,2023-04-03,合併による解散等,2120001021007,令和５年４月１日大阪市中央区備後町二丁目４番６号東洋テックビルサービス株式会社（2120001021007）に合併し解散,2015-10-05,1,,,,,オオサカフジサービス,0
1110,5120001127874,登記記録の閉鎖等,0,2023-04-05,2023-03-31,株式会社ワースクリエイトマーケティング,,株式会社,大阪府,大阪市西区,北堀江１丁目２番２７号,,27,106,5500014,,,2023-03-31,清算の結了等,,,2015-10-05,1,,,,,ワースクリエイトマーケティング,0
1170,5220002012264,登記記録の閉鎖等,0,2023-04-05,2023-03-31,有限会社がんだるふ,,有限会社,石川県,加賀市,白山台８番地の４０,,17,206,9220437,,,2023-03-31,清算の結了等,,,2015-10-05,1,,,,,ガンダルフ,0
1184,5260001036970,登記記録の閉鎖等,0,2023-04-05,2023-03-31,株式会社岡北砕石,,株式会社,岡山県,岡山市東区,瀬戸町弓削１０６６－２,,33,103,7090843,,,2023-03-31,清算の結了等,,,2022-06-20,1,,,,,コウホクサイセキ,0
1199,5290002046297,登記記録の閉鎖等,0,2023-04-05,2023-03-31,有限会社九州ラミネート,,有限会社,福岡県,飯塚市,平恒４７７番地の１９,,40,205,8200073,,,2023-03-31,合併による解散等,6290001039383,令和５年３月３１日福岡県糟屋郡粕屋町戸原東一丁目２番５号日之出工業株式会社（6290001039383）に合併し解散,2015-10-05,1,,,,,キュウシュウラミネート,0
1203,5290802015146,登記記録の閉鎖等,0,2023-04-05,2023-03-31,有限会社平原産業運輸,,有限会社,福岡県,北九州市八幡西区,則松３丁目１２番１３号,,40,109,8070831,,,2023-03-31,清算の結了等,,,2015-10-05,1,,,,,ヒラバルサンギョウウンユ,0
1205,5310001012132,登記記録の閉鎖等,0,2023-04-05,2023-04-03,株式会社西尾建設,,株式会社,長崎県,佐世保市,梅田町９７番地２,,42,202,8570017,,,2023-04-03,清算の結了等,,,2015-10-05,1,,,,,,0
1257,6010102000684,登記記録の閉鎖等,0,2023-04-05,2023-03-30,有限会社イシモリ商事,,有限会社,東京都,八王子市,尾崎町４７番地,,13,201,1920025,,,2023-03-30,清算の結了等,,,2015-10-05,1,,,,,イシモリショウジ,0
1272,6010403023351,登記記録の閉鎖等,0,2023-04-05,2023-03-24,合同会社Ｈｅｒｏｎ,,合同会社,東京都,港区,虎ノ門５丁目１番４号,,13,103,1050001,,,2023-03-24,清算の結了等,,,2020-07-29,1,,,,,ヘロン,0
1273,6010601060089,登記記録の閉鎖等,0,2023-04-05,2023-03-29,豊洲金属株式会社,,株式会社,東京都,江東区,豊洲５丁目６番３６号,,13,108,1350061,,,2023-03-29,清算の結了等,,,2021-10-15,1,,,,,トヨスキンゾク,0
1282,6011001020278,登記記録の閉鎖等,0,2023-04-05,2023-03-30,株式会社福井信生堂,,株式会社,東京都,渋谷区,鶯谷町１０番１８号,,13,113,1500032,,,2023-03-30,清算の結了等,,,2015-10-05,1,,,,,フクイシンセイドウ,0
1298,6011501008715,登記記録の閉鎖等,0,2023-04-05,2023-03-28,株式会社ポピイラーク,,株式会社,東京都,荒川区,西日暮里３丁目６番７号,,13,118,1160013,,,2023-03-28,清算の結了等,,,2015-10-05,1,,,,,,0
1311,6012301002874,登記記録の閉鎖等,0,2023-04-05,2023-04-03,株式会社ボス,,株式会社,東京都,渋谷区,代々木１丁目７番３号,,13,113,1510053,,,2023-04-03,清算の結了等,,,2015-10-05,1,,,,,ボス,0
1321,6013301035105,登記記録の閉鎖等,0,2023-04-05,2023-04-03,株式会社ヴィオーラ,,株式会社,東京都,板橋区,小茂根３丁目１２番１号,,13,119,1730037,,,2023-04-03,清算の結了等,,,2015-10-05,1,,,,,ヴィオーラ,0
1333,6021001051743,登記記録の閉鎖等,0,2023-04-05,2023-03-31,株式会社メディカルプラス,,株式会社,東京都,目黒区,緑が丘２丁目２４－１６コリーヌ自由が丘ＥＳＴ２－２０１号室,,13,110,1520034,,,2023-03-31,清算の結了等,,,2015-10-05,1,,,,,メディカルプラス,0
1343,6030002084347,登記記録の閉鎖等,0,2023-04-05,2023-03-30,有限会社ドレス・ビヤン,,有限会社,埼玉県,鴻巣市,屈巣４５４３番地２,,11,217,3650014,,,2023-03-30,清算の結了等,,,2015-10-05,1,,,,,ドレスビヤン,0
1377,6110001018264,登記記録の閉鎖等,0,2023-04-05,2023-04-03,株式会社村上魚市場,,株式会社,新潟県,村上市,田端町１番１８号,,15,212,9580854,,,2023-04-03,合併による解散等,7110001002944,令和５年４月１日新潟県新潟市江南区茗荷谷７１１番地大栄魚類株式会社（7110001002944）に合併し解散,2015-10-05,1,,,,,ムラカミウオイチバ,0
1383,6120001237631,登記記録の閉鎖等,0,2023-04-05,2023-03-31,民間調査機構株式会社,,株式会社,大阪府,大阪市西区,西本町３丁目１－４３－６階,,27,106,5500005,,,2023-03-31,清算の結了等,,,2021-05-25,1,,,,,ミンカンチョウサキコウ,0
1409,6140001090459,登記記録の閉鎖等,0,2023-04-05,2023-03-31,株式会社ＭＭＡサービス,,株式会社,兵庫県,神戸市灘区,城内通１丁目４番１２号メゾン西灘５０２,00040218,28,102,6570836,,,2023-03-31,清算の結了等,,,2015-10-05,1,,,,,,0
1424,6170002006361,登記記録の閉鎖等,0,2023-04-05,2023-04-03,有限会社江原商会,,有限会社,和歌山県,海南市,阪井２００番地,,30,202,6420024,,,2023-04-03,清算の結了等,,,2015-10-05,1,,,,,エハラショウカイ,0
1425,6180001021393,登記記録の閉鎖等,0,2023-04-05,2023-04-03,愛知水産株式会社,,株式会社,愛知県,名古屋市熱田区,川並町２番２２号,,23,109,4560072,,,2023-04-03,清算の結了等,,,2015-10-05,1,,,,,アイチスイサン,0
1457,6280002010567,登記記録の閉鎖等,0,2023-04-05,2023-03-31,有限会社大久保,,有限会社,島根県,益田市,美都町都茂３０４５番地,,32,204,6980203,,,2023-03-31,清算の結了等,,,2015-10-05,1,,,,,オオクボ,0
1483,6340005006341,登記記録の閉鎖等,0,2023-04-05,2023-03-31,税理士法人Ｆ・Ｓ会計,,その他の設立登記法人,鹿児島県,いちき串木野市,昭和通１０３番地,,46,219,8960026,,,2023-03-31,清算の結了等,,,2015-10-05,1,,,,,エフエスカイケイ,0
1501,6460102003337,登記記録の閉鎖等,0,2023-04-05,2023-04-03,有限会社松本豆富店,,有限会社,北海道,帯広市,東九条南１４丁目２番地４６,,01,207,0800809,,,2023-04-03,清算の結了等,,,2015-10-05,1,,,,,マツモトトウフテン,0
1503,6480001010333,登記記録の閉鎖等,0,2023-04-05,2023-04-03,宮城ガス株式会社,,株式会社,徳島県,小松島市,神田瀬町１２番１３号,,36,203,7730002,,,2023-04-03,合併による解散等,5480001005078,令和５年４月１日徳島県鳴門市撫養町南浜字東浜２４番地２１鳴門ガス株式会社（5480001005078）に合併し解散,2018-04-16,1,,,,,ミヤシロガス,0
1508,6500002005998,登記記録の閉鎖等,0,2023-04-05,2023-04-03,法山運輸有限会社,,有限会社,愛媛県,松山市,太山寺町６６１番地２,,38,201,7992662,,,2023-04-03,清算の結了等,,,2015-10-05,1,,,,,ホウザンウンユ,0
1541,7010501013988,登記記録の閉鎖等,0,2023-04-05,2023-04-03,株式会社メカ,,株式会社,東京都,台東区,東上野６丁目１番４－３０２号,,13,106,1100015,,,2023-04-03,清算の結了等,,,2015-10-05,1,,,,,,0
1556,7011003015440,登記記録の閉鎖等,0,2023-04-05,2023-03-31,アイクワイア・ジャパン合同会社,,合同会社,東京都,渋谷区,道玄坂１丁目１２番１号渋谷マークシティＷ２２階,,13,113,1500043,,,2023-03-31,清算の結了等,,,2022-09-28,1,,,,,アイクワイアジャパン,0
1574,7013101007930,登記記録の閉鎖等,0,2023-04-05,2023-03-30,株式会社ハーフタイム,,株式会社,東京都,羽村市,富士見平２丁目１２番地７,,13,227,2050013,,,2023-03-30,清算の結了等,,,2018-09-19,1,,,,,ハーフタイム,0
1576,7013402002069,登記記録の閉鎖等,0,2023-04-05,2023-03-31,有限会社城所商事,,有限会社,東京都,多摩市,連光寺１丁目１０番地の８,,13,224,2060021,,,2023-03-31,清算の結了等,,,2015-10-05,1,,,,,キドコロショウジ,0
1582,7020001137147,登記記録の閉鎖等,0,2023-04-05,2023-03-30,株式会社関東ハチスバ,,株式会社,神奈川県,横浜市中区,元浜町３丁目２１番地２ヘリオス関内ビル,,14,104,2310004,,,2023-03-30,清算の結了等,,,2020-08-06,1,,,,,カントウハチスバ,0
1599,7030003013857,登記記録の閉鎖等,0,2023-04-05,2023-03-29,ファスタキュレー合同会社,,合同会社,埼玉県,北葛飾郡松伏町,大字上赤岩８０４番地４,,11,465,3430115,,,2023-03-29,清算の結了等,,,2019-07-25,1,,,,,ファスタキュレー,0
1620,7110001014015,登記記録の閉鎖等,0,2023-04-05,2023-04-03,株式会社カワグレ,,株式会社,新潟県,三条市,西大崎３丁目１６番５５号,,15,204,9550033,,,2023-04-03,合併による解散等,9110001014038,令和５年４月１日新潟県三条市西大崎三丁目１６番５５号金三鋼業株式会社（9110001014038）に合併し解散,2015-10-05,1,,,,,カワグレ,0
1624,7110002034210,登記記録の閉鎖等,0,2023-04-05,2023-04-03,有限会社とちくぼパノラマ農産,,有限会社,新潟県,南魚沼市,栃窪２３０番地１,,15,226,9496401,,,2023-04-03,合併による解散等,8110001029136,令和５年４月１日新潟県南魚沼市大木六３７株式会社南魚沼生産組合（8110001029136）に合併し解散,2015-10-05,1,,,,,トチクボパノラマノウサン,0
1643,7120102015472,登記記録の閉鎖等,0,2023-04-05,2023-03-31,有限会社エスワーク,,有限会社,大阪府,松原市,小川６丁目５番５号,,27,217,5800002,,,2023-03-31,清算の結了等,,,2015-10-05,1,,,,,エスワーク,0
1648,7122001017384,登記記録の閉鎖等,0,2023-04-05,2023-04-03,株式会社アルキャスト,,株式会社,大阪府,大東市,新田中町５番３０号,,27,218,5740056,,,2023-04-03,清算の結了等,,,2015-10-05,1,,,,,アルキャスト,0
1657,7130002028359,登記記録の閉鎖等,0,2023-04-05,2023-03-31,有限会社高野ガラス,,有限会社,京都府,南丹市,園部町小山東町平成台２号２０番地,,26,213,6220041,,,2023-03-31,清算の結了等,,,2015-10-05,1,,,,,タカノガラス,0
1675,7180003012332,登記記録の閉鎖等,0,2023-04-05,2023-03-31,合資会社香澄商会,,合資会社,愛知県,江南市,古知野町花霞１３４番地,,23,217,4838208,,,2023-03-31,清算の結了等,,,2015-10-05,1,,,,,カスミショウカイ,0
1681,7200003003139,登記記録の閉鎖等,0,2023-04-05,2023-03-30,ジャパンエース株式会社,,株式会社,東京都,渋谷区,円山町５－５Ｎａｖｉ渋谷Ｖ３階,,13,113,1500044,,,2023-03-30,清算の結了等,,,2015-10-05,1,,,,,ジャパンエース,0
1687,7240002007608,登記記録の閉鎖等,0,2023-04-05,2023-04-03,有限会社実栄,,有限会社,広島県,広島市中区,竹屋町３番１２号,,34,101,7300048,,,2023-04-03,合併による解散等,6240001003591,令和５年４月１日広島市中区竹屋町３番２４号小谷建設株式会社（6240001003591）に合併し解散,2015-10-05,1,,,,,,0
1690,7260001024222,登記記録の閉鎖等,0,2023-04-05,2023-04-03,株式会社日之出運輸,,株式会社,岡山県,岡山市北区,大内田８２０番地３,,33,101,7010165,,,2023-04-03,合併による解散等,6260001024223,令和５年４月１日岡山市北区大内田８２２番地１株式会社日之出運輸（6260001024223）に合併し解散,2015-10-05,1,,,,,ヒノデウンユ,0
1706,7330003007845,登記記録の閉鎖等,0,2023-04-05,2023-03-31,合同会社ａｒｏｍａｄａｙ,,合同会社,熊本県,熊本市中央区,出水７丁目７６－１５,,43,101,8620941,,,2023-03-31,清算の結了等,,,2019-03-12,1,,,,,アロマデイ,0
1726,7380005000026,登記記録の閉鎖等,0,2023-04-05,2023-03-31,パセオ協同組合,,その他の設立登記法人,福島県,福島市,置賜町５番１８号,,07,201,9608034,,,2023-03-31,清算の結了等,,,2015-10-05,1,,,,,,0
1736,7430002033502,登記記録の閉鎖等,0,2023-04-05,2023-04-03,有限会社エム・アイ・ティ,,有限会社,北海道,札幌市豊平区,西岡三条１丁目１番９号,,01,105,0620033,,,2023-04-03,清算の結了等,,,2015-10-05,1,,,,,エムアイティ,0
1754,7500002015848,登記記録の閉鎖等,0,2023-04-05,2023-03-31,有限会社伊藤エンジニアリング,,有限会社,愛媛県,新居浜市,上原１丁目５番２１号,,38,205,7920046,,,2023-03-31,清算の結了等,,,2015-10-05,1,,,,,イトウエンジニアリング,0
1757,8010001224820,登記記録の閉鎖等,0,2023-04-05,2023-03-28,株式会社未来デザイン,,株式会社,東京都,中央区,銀座４丁目１２番１９号,,13,102,1040061,,,2023-03-28,清算の結了等,,,2022-02-28,1,,,,,ミライデザイン,0
1762,8010005010515,登記記録の閉鎖等,0,2023-04-05,2023-03-30,一般社団法人アクア・スリー,,その他の設立登記法人,東京都,千代田区,丸の内２丁目１番１号,,13,101,1000005,,,2023-03-30,清算の結了等,,,2015-10-05,1,,,,,アクアスリー,0
1765,8010102003594,登記記録の閉鎖等,0,2023-04-05,2023-03-31,有限会社ジャパーツ,,有限会社,東京都,八王子市,南大沢４丁目１０番地１０－１００３,,13,201,1920364,,,2023-03-31,清算の結了等,,,2015-10-05,1,,,,,ジャパーツ,0
1780,8010901043056,登記記録の閉鎖等,0,2023-04-05,2023-03-31,株式会社ｓｙｌｐｈ,,株式会社,東京都,世田谷区,下馬１丁目２６番１０号,,13,112,1540002,,,2023-03-31,清算の結了等,,,2018-11-05,1,,,,,シルフ,0
1793,8011101060718,登記記録の閉鎖等,0,2023-04-05,2023-04-03,飛鳥ＢＧ株式会社,,株式会社,東京都,新宿区,新宿６丁目２７番４８号,,13,104,1600022,,,2023-04-03,合併による解散等,3011101083905,令和５年４月１日東京都新宿区新宿六丁目２７番４８号飛鳥ＴＨＤ株式会社（3011101083905）に合併し解散,2015-10-05,1,,,,,アスカビージー,0
1794,8011101061583,登記記録の閉鎖等,0,2023-04-05,2023-04-03,株式会社アイ・ビー・シー,,株式会社,東京都,小金井市,緑町１丁目５番２２号,,13,210,1840003,,,2023-04-03,清算の結了等,,,2015-10-05,1,,,,,アイビーシー,0
1799,8011301023235,登記記録の閉鎖等,0,2023-04-05,2023-03-29,株式会社スカラワークス,,株式会社,東京都,渋谷区,渋谷２丁目２１番１号,,13,113,1500002,,,2023-03-29,清算の結了等,,,2017-06-06,1,,,,,スカラワークス,0
1822,8020001093265,登記記録の閉鎖等,0,2023-04-05,2023-04-03,株式会社オール,,株式会社,神奈川県,横浜市中区,相生町１丁目１８番地,,14,104,2310012,,,2023-04-03,合併による解散等,2020001025273,令和５年４月１日横浜市中区新山下二丁目１２番４３号株式会社アルテック（2020001025273）に合併し解散,2015-10-05,1,,,,,オール,0
1829,8020002017594,登記記録の閉鎖等,0,2023-04-05,2023-03-31,有限会社もあスタジオ,,有限会社,神奈川県,逗子市,小坪１丁目１４－２３,,14,208,2490008,,,2023-03-31,清算の結了等,,,2015-10-05,1,,,,,モアスタジオ,0
1842,8021002070237,登記記録の閉鎖等,0,2023-04-05,2023-03-30,山中組有限会社,,有限会社,神奈川県,横須賀市,大矢部５丁目５番３号,,14,201,2380024,,,2023-03-30,清算の結了等,,,2015-10-05,1,,,,,ヤマナカグミ,0
1860,8050001030686,登記記録の閉鎖等,0,2023-04-05,2023-03-31,株式会社海鮮すし吉良,,株式会社,茨城県,常総市,中妻町２６３３番地２,,08,211,3002505,,,2023-03-31,清算の結了等,,,2015-10-05,1,,,,,カイセンスシキラ,0
1865,8070001004696,登記記録の閉鎖等,0,2023-04-05,2023-04-03,株式会社前橋機材センター,,株式会社,群馬県,前橋市,上泉町２１１１番地,,10,201,3710007,,,2023-04-03,合併による解散等,9070001001420,令和５年４月１日群馬県前橋市元総社町一丁目１番地の７佐田建設株式会社（9070001001420）に合併し解散,2015-10-05,1,,,,,マエバシキザイセンター,0
1870,8080001010611,登記記録の閉鎖等,0,2023-04-05,2023-04-03,清水港町都市開発株式会社,,株式会社,静岡県,静岡市清水区,港町２丁目１番１－１３０１号,,22,103,4240943,,,2023-04-03,清算の結了等,,,2015-10-05,1,,,,,シミズミナトチョウトシカイハツ,0
1879,8090002014098,登記記録の閉鎖等,0,2023-04-05,2023-03-31,有限会社銀河リゾート,,有限会社,山梨県,北杜市,小淵沢町１０２０７番地２５,,19,209,4080044,,,2023-03-31,清算の結了等,,,2015-10-05,1,,,,,,0
1886,8120001051717,登記記録の閉鎖等,0,2023-04-05,2023-04-03,コーダイ株式会社,,株式会社,大阪府,大阪市東淀川区,小松２丁目１７番６７号,,27,114,5330004,,,2023-04-03,合併による解散等,8120001007454,令和５年４月１日大阪市都島区大東町二丁目１３番２２号興和紙器株式会社（8120001007454）に合併し解散,2015-10-05,1,,,,,コーダイ,0
1920,8140001081126,登記記録の閉鎖等,0,2023-04-05,2023-03-31,株式会社瑞穂コーポレーション,,株式会社,兵庫県,伊丹市,瑞穂町１丁目６３番地,,28,207,6640013,,,2023-03-31,合併による解散等,2140001072700,令和５年３月３１日兵庫県西宮市甲陽園西山町４番６０号株式会社ティーエス・コーポレーション（2140001072700）に合併し解散,2015-10-05,1,,,,,ミズホコーポレーション,0
1959,8240002043908,登記記録の閉鎖等,0,2023-04-05,2023-03-31,福山工芸有限会社,,有限会社,広島県,福山市,草戸町３丁目１番８号,,34,207,7200831,,,2023-03-31,清算の結了等,,,2015-10-05,1,,,,,フクヤマコウゲイ,0
1963,8260001005502,登記記録の閉鎖等,0,2023-04-05,2023-04-03,美岡運送株式会社,,株式会社,岡山県,岡山市中区,長岡２６９番地の１,,33,102,7038221,,,2023-04-03,合併による解散等,6260001024223,令和５年４月１日岡山市北区大内田８２２番地１株式会社日之出運輸（6260001024223）に合併し解散,2015-10-05,1,,,,,ビコウウンソウ,0
1969,8290001042559,登記記録の閉鎖等,0,2023-04-05,2023-04-03,株式会社都市環境開発,,株式会社,福岡県,福岡市南区,大橋１丁目２番３号,,40,134,8150033,,,2023-04-03,合併による解散等,4290001042174,令和５年４月１日福岡県筑紫野市武蔵三丁目１番８号株式会社サン・エネルギー社（4290001042174）に合併し解散,2015-10-05,1,,,,,トシカンキョウカイハツ,0
1977,8290005013837,登記記録の閉鎖等,0,2023-04-05,2023-04-03,福岡県高等学校水産実習船労働組合,,その他の設立登記法人,福岡県,宗像市,田熊２丁目４－２８十時博一宅,,40,220,8113431,,,2023-04-03,清算の結了等,,,2015-10-05,1,,,,,フクオカケンコウトウガッコウスイサンジッシュウセン,0
1980,8310002018299,登記記録の閉鎖等,0,2023-04-05,2023-04-03,有限会社城谷建設,,有限会社,長崎県,南島原市,北有馬町戊１２４２番地２,,42,214,8592305,,,2023-04-03,清算の結了等,,,2015-10-05,1,,,,,,0
1984,8330001003424,登記記録の閉鎖等,0,2023-04-05,2023-03-31,株式会社西垂水建設,,株式会社,熊本県,熊本市中央区,九品寺３丁目３番３５号,,43,101,8620976,,,2023-03-31,清算の結了等,,,2015-10-05,1,,,,,ニシタルミズケンセツ,0
1985,8330001009033,登記記録の閉鎖等,0,2023-04-05,2023-03-31,株式会社祐和會,,株式会社,熊本県,熊本市中央区,帯山３丁目８番４４号,,43,101,8620924,,,2023-03-31,合併による解散等,5330001005670,令和５年３月３０日熊本市中央区帯山三丁目８番４４号株式会社三勢（5330001005670）に合併し解散,2015-10-05,1,,,,,ユウワカイ,0
1995,8340001017860,登記記録の閉鎖等,0,2023-04-05,2023-04-03,土佐屋ウェルケア株式会社,,株式会社,鹿児島県,鹿児島市,宇宿２丁目９番１１号,,46,201,8900073,,,2023-04-03,合併による解散等,2340001002975,令和５年４月１日鹿児島市宇宿二丁目９番１１号株式会社土佐屋（2340001002975）に合併し解散,2015-10-05,1,,,,,トサヤウェルケア,0
2008,8380005009256,登記記録の閉鎖等,0,2023-04-05,2023-03-31,山都町スタンプ事業協同組合,,その他の設立登記法人,福島県,喜多方市,山都町字広野２４４３番地,,07,208,9694131,,,2023-03-31,清算の結了等,,,2015-10-05,1,,,,,ヤマトマチスタンプ,0
2009,8390001005951,登記記録の閉鎖等,0,2023-04-05,2023-04-03,株式会社おーばん,,株式会社,山形県,天童市,乱川３丁目１２番１号,,06,210,9940002,,,2023-04-03,合併による解散等,9390001005983,令和５年４月１日山形県天童市乱川三丁目１２番１号株式会社おーばんホールディングス（9390001005983）に合併し解散,2015-10-05,1,,,,,オーバン,0
2016,8430002059083,登記記録の閉鎖等,0,2023-04-05,2023-04-03,有限会社タカダ薬局,,有限会社,北海道,苫小牧市,光洋町１丁目１６番１３号,,01,213,0530811,,,2023-04-03,合併による解散等,7430001023669,令和５年４月１日札幌市中央区北六条西十六丁目１番地５株式会社そえる（7430001023669）に合併し解散,2015-10-05,1,,,,,タカダヤッキョク,0
2043,9010402026740,登記記録の閉鎖等,0,2023-04-05,2023-03-29,有限会社ハートウエディング,,有限会社,東京都,中央区,銀座５丁目１０番２号,,13,102,1040061,,,2023-03-29,清算の結了等,,,2015-10-05,1,,,,,ハートウエディング,0
2045,9010403016245,登記記録の閉鎖等,0,2023-04-05,2023-03-29,合同会社ＴＳＭ１４２,,合同会社,東京都,千代田区,紀尾井町４番１号ニューオータニガーデンコート,,13,101,1020094,,,2023-03-29,清算の結了等,,,2017-03-10,1,,,,,ティーエスエムヒャクヨンジュウニ,0
2046,9010403023258,登記記録の閉鎖等,0,2023-04-05,2023-03-24,アルテシモ５合同会社,,合同会社,東京都,港区,虎ノ門５丁目１番４号,,13,103,1050001,,,2023-03-24,清算の結了等,,,2020-07-09,1,,,,,アルテシモファイブ,0
2056,9010801030640,登記記録の閉鎖等,0,2023-04-05,2023-03-13,株式会社マルレ,,株式会社,東京都,港区,南青山２丁目２番１５号,,13,103,1070062,,,2023-03-13,清算の結了等,,,2020-02-14,1,,,,,マルレ,0
2072,9011601018561,登記記録の閉鎖等,0,2023-04-05,2023-04-03,株式会社萬屋清薫堂,,株式会社,東京都,渋谷区,東３丁目２５番３－３１５号,,13,113,1500011,,,2023-04-03,清算の結了等,,,2015-10-05,1,,,,,,0
2105,9040001009301,登記記録の閉鎖等,0,2023-04-05,2023-03-29,株式会社イシケン,,株式会社,千葉県,千葉市中央区,都町１丁目９番４６号アーバンレア２０１号,,12,101,2600001,,,2023-03-29,清算の結了等,,,2015-10-05,1,,,,,イシケン,0
2124,9090002012935,登記記録の閉鎖等,0,2023-04-05,2023-03-31,有限会社ワタナベ,,有限会社,山梨県,南都留郡富士河口湖町,船津１８６８番地５,,19,430,4010301,,,2023-03-31,清算の結了等,,,2015-10-05,1,,,,,ワタナベ,0
2146,9120005006930,登記記録の閉鎖等,0,2023-04-05,2023-03-31,近畿自動車協同組合,,その他の設立登記法人,大阪府,大阪市福島区,福島３丁目２番１５号,,27,103,5530003,,,2023-03-31,清算の結了等,,,2015-10-05,1,,,,,キンキジドウシャ,0
2168,9140001002411,登記記録の閉鎖等,0,2023-04-05,2023-03-31,富士原商事株式会社,,株式会社,兵庫県,神戸市東灘区,御影山手１丁目２番１０－１００６号,,28,101,6580065,,,2023-03-31,清算の結了等,,,2015-10-05,1,,,,,フジワラショウジ,0
2197,9180002073687,登記記録の閉鎖等,0,2023-04-05,2023-03-31,有限会社辰水建設,,有限会社,愛知県,瀬戸市,山口町３０９番地ベルセ山口１０３号,,23,204,4890865,,,2023-03-31,清算の結了等,,,2015-10-05,1,,,,,タツミケンセツ,0
2231,9330003006820,登記記録の閉鎖等,0,2023-04-05,2023-04-03,Ｍ’ｓ　ＣＲＥＡＴＡＳ合同会社,,合同会社,熊本県,八代市,日置町６９番地２,,43,202,8660896,,,2023-04-03,清算の結了等,,,2016-09-07,1,,,,,エムズクリエイタス,0
2244,9380001011132,登記記録の閉鎖等,0,2023-04-05,2023-03-31,株式会社伊藤薬局,,株式会社,福島県,須賀川市,本町５番地１０,,07,207,9620832,,,2023-03-31,清算の結了等,,,2015-10-05,1,,,,,イトウヤッキョク,0
2247,9380001012709,登記記録の閉鎖等,0,2023-04-05,2023-04-03,株式会社ＫＳＤ福島商事,,株式会社,福島県,いわき市,常磐下船尾町杭出作１７０番地,,07,204,9728312,,,2023-04-03,清算の結了等,,,2015-10-05,1,,,,,,0
2252,9390001011008,登記記録の閉鎖等,0,2023-04-05,2023-04-03,株式会社うめや,,株式会社,山形県,長井市,今泉５５２番地,,06,209,9930033,,,2023-04-03,合併による解散等,9390001005983,令和５年４月１日山形県天童市乱川三丁目１２番１号株式会社おーばんホールディングス（9390001005983）に合併し解散,2015-10-05,1,,,,,ウメヤ,0
2254,9410002009485,登記記録の閉鎖等,0,2023-04-05,2023-03-31,有限会社芙蓉縫製,,有限会社,秋田県,北秋田市,松葉町６番８－７号,,05,213,0183321,,,2023-03-31,清算の結了等,,,2015-10-05,1,,,,,フヨウホウセイ,0
2275,9500001014675,登記記録の閉鎖等,0,2023-04-05,2023-03-31,新電ハウジング株式会社,,株式会社,愛媛県,四国中央市,川之江町３５７番地,,38,213,7990101,,,2023-03-31,清算の結了等,,,2015-10-05,1,,,,,シンデンハウジング,0
2278,9500002024491,登記記録の閉鎖等,0,2023-04-05,2023-03-31,有限会社丸福商店,,有限会社,愛媛県,四国中央市,川之江町２０２６番地,,38,213,7990101,,,2023-03-31,清算の結了等,,,2023-03-15,1,,,,,マルフクショウテン,0
