sequenceNumber,corporateNumber,process,correct,updateDate,changeDate,name,nameImageId,kind,prefectureName,cityName,streetNumber,addressImageId,prefectureCode,cityCode,postCode,addressOutside,addressOutsideImageId,closeDate,closeCause,successorCorporateNumber,changeCause,assignmentDate,latest,enName,enPrefectureName,enCityName,enAddressOutside,furigana,hihyoji
8,1010001228712,新規,0,2022-08-12,2022-08-12,株式会社Ｄｕｎｋ,,株式会社,東京都,中央区,銀座６丁目１３番１６号銀座Ｗａｌｌビル５階,,13,102,1040061,,,,,,,2022-08-12,1,,,,,ダンク,0
9,1010001228737,新規,0,2022-08-12,2022-08-12,エイト企画株式会社,,株式会社,東京都,千代田区,五番町１２番地７,,13,101,1020076,,,,,,,2022-08-12,1,,,,,エイトキカク,0
10,1010001228753,新規,0,2022-08-12,2022-08-12,株式会社ＨＩＧＨＳＣＯＲＥ,,株式会社,東京都,中央区,銀座１丁目２２番１１号銀座大竹ビジデンス２階,,13,102,1040061,,,,,,,2022-08-12,1,,,,,ハイスコア,0
13,1010003038366,新規,0,2022-08-12,2022-08-12,原町ソーラーパーク合同会社,,合同会社,東京都,千代田区,霞が関３丁目２番５号,,13,101,1000013,,,,,,,2022-08-12,1,,,,,ハラマチソーラーパーク,0
14,1010003038374,新規,0,2022-08-12,2022-08-12,合同会社Ｆｏｏｄ　ａｎｄ　Ｖａｌｕｅ　Ｅｎｔｅｒｔａｉｎｍｅｎｔ,,合同会社,東京都,中央区,日本橋室町１丁目２番６号日本橋大栄ビル７階,,13,102,1030022,,,,,,,2022-08-12,1,,,,,フードアンドヴァリューエンターテイメント,0
22,1010401169036,新規,0,2022-08-12,2022-08-12,株式会社Ｇｌｏｂａｌ　Ｆｒａｎｃｈｉｓｅ,,株式会社,東京都,港区,南麻布１丁目１番３－１０５号,,13,103,1060047,,,,,,,2022-08-12,1,,,,,グローバルフランチャイズ,0
23,1010401169044,新規,0,2022-08-12,2022-08-12,株式会社オーシャンホールディングス,,株式会社,東京都,港区,芝３丁目５番５号,,13,103,1050014,,,,,,,2022-08-12,1,,,,,オーシャンホールディングス,0
24,1010401169060,新規,0,2022-08-12,2022-08-12,サステナビリティソリューション株式会社,,株式会社,東京都,港区,海岸１丁目２番３号汐留芝離宮ビルディング２１階,,13,103,1050022,,,,,,,2022-08-12,1,,,,,サステナビリティソリューション,0
33,1010601061620,新規,0,2022-08-12,2022-08-12,株式会社ゼロブランズ,,株式会社,東京都,江東区,潮見２丁目８番１０号,,13,108,1350052,,,,,,,2022-08-12,1,,,,,ゼロブランズ,0
34,1010601061661,新規,0,2022-08-12,2022-08-12,株式会社Ｓｏｌａｔｉ　Ｌａｂ,,株式会社,東京都,江東区,永代２丁目２７番６号,,13,108,1350034,,,,,,,2022-08-12,1,,,,,ソラチラボ,0
36,1010701043056,新規,0,2022-08-12,2022-08-12,株式会社ＯＲＳ,,株式会社,東京都,品川区,西五反田８丁目２－１２アール五反田７Ａ,,13,109,1410031,,,,,,,2022-08-12,1,,,,,オーアールエス,0
48,1011001148982,新規,0,2022-08-12,2022-08-12,株式会社ＰＥＬＬＳ,,株式会社,東京都,渋谷区,鶯谷町３番４号ピンキーハウス１Ａ,,13,113,1500032,,,,,,,2022-08-12,1,,,,,ペルズ,0
49,1011001149147,新規,0,2022-08-12,2022-08-12,株式会社ブルーリーフ,,株式会社,東京都,渋谷区,神宮前６丁目２３番４号桑野ビル２階,,13,113,1500001,,,,,,,2022-08-12,1,,,,,ブルーリーフ,0
50,1011001149171,新規,0,2022-08-12,2022-08-12,株式会社えりなし,,株式会社,東京都,渋谷区,初台２丁目１６番２１－２０４号,,13,113,1510061,,,,,,,2022-08-12,1,,,,,エリナシ,0
51,1011001149205,新規,0,2022-08-12,2022-08-12,三基管財株式会社,,株式会社,東京都,渋谷区,道玄坂１丁目２０番２号アライアンスビル渋谷壱番館３階,,13,113,1500043,,,,,,,2022-08-12,1,,,,,ミキカンザイ,0
52,1011001149221,新規,0,2022-08-12,2022-08-12,株式会社Ｎｏｃｔ,,株式会社,東京都,渋谷区,東３丁目１７番１４号,,13,113,1500011,,,,,,,2022-08-12,1,,,,,ノクト,0
54,1011103012046,新規,0,2022-08-12,2022-08-12,合同会社パックジョブ,,合同会社,東京都,新宿区,西新宿４丁目３２－１１セントビラ永谷６１３号,,13,104,1600023,,,,,,,2022-08-12,1,,,,,パックジョブ,0
55,1011103012062,新規,0,2022-08-12,2022-08-12,合同会社とろみつ,,合同会社,東京都,新宿区,西新宿３丁目３番１３号西新宿水間ビル６階,,13,104,1600023,,,,,,,2022-08-12,1,,,,,トロミツ,0
58,1011203003894,新規,0,2022-08-12,2022-08-12,合同会社Ｓｕｎ　Ｒｏａｄ,,合同会社,東京都,中野区,中央２丁目２４－６,,13,114,1640011,,,,,,,2022-08-12,1,,,,,サンロード,0
61,1011501028370,新規,0,2022-08-12,2022-08-12,株式会社荻島建築,,株式会社,東京都,北区,豊島７丁目１７番５号,,13,117,1140003,,,,,,,2022-08-12,1,,,,,オギシマケンチク,0
62,1011501028379,新規,0,2022-08-12,2022-08-12,株式会社Ｓｔ．Ｍａｔｔｈｅｗ,,株式会社,東京都,北区,滝野川６丁目１３－１５,,13,117,1140023,,,,,,,2022-08-12,1,,,,,セントマシュー,0
64,1011503005252,新規,0,2022-08-12,2022-08-12,合同会社匠翔,,合同会社,東京都,荒川区,南千住７丁目２１番５号,,13,118,1160003,,,,,,,2022-08-12,1,,,,,タクト,0
67,1011603003676,新規,0,2022-08-12,2022-08-12,オーケー不動産合同会社,,合同会社,東京都,練馬区,高松４丁目１５番２１号,,13,120,1790075,,,,,,,2022-08-12,1,,,,,オーケーフドウサン,0
69,1011801041123,新規,0,2022-08-12,2022-08-12,株式会社宮本工業,,株式会社,東京都,葛飾区,柴又６丁目２０番１７号,,13,122,1250052,,,,,,,2022-08-12,1,,,,,ミヤモトコウギョウ,0
72,1012401039516,新規,0,2022-08-12,2022-08-12,株式会社グロワール,,株式会社,東京都,三鷹市,北野３丁目７番３号,,13,204,1810003,,,,,,,2022-08-12,1,,,,,グロワール,0
74,1012705002319,新規,0,2022-08-12,2022-08-12,特定非営利活動法人ブループレートプロジェクト,,その他の設立登記法人,東京都,西東京市,中町５丁目７番５号,,13,229,2020013,,,,,,,2022-08-12,1,,,,,ブループレートプロジェクト,0
75,1013103001160,新規,0,2022-08-12,2022-08-12,合同会社ピセコ,,合同会社,東京都,あきる野市,高尾４－１エステーハイム１０３,,13,228,1900154,,,,,,,2022-08-12,1,,,,,ピセコ,0
81,1013301049497,新規,0,2022-08-12,2022-08-12,大島株式会社,,株式会社,東京都,豊島区,巣鴨１丁目１７番３号子野ビル７０３号室,,13,116,1700002,,,,,,,2022-08-12,1,,,,,オオシマ,0
82,1013301049506,新規,0,2022-08-12,2022-08-12,株式会社ミライチ,,株式会社,東京都,豊島区,池袋２丁目３６番１号ＩＮＦＩＮＩＴＹＩＫＥＢＵＫＵＲＯ６Ｆ,,13,116,1710014,,,,,,,2022-08-12,1,,,,,ミライチ,0
85,1020001147713,新規,0,2022-08-12,2022-08-12,株式会社ＡＢＥ工務店,,株式会社,神奈川県,川崎市高津区,千年新町３２番地１２,,14,134,2130021,,,,,,,2022-08-12,1,,,,,アベコウムテン,0
86,1020001147754,新規,0,2022-08-12,2022-08-12,ネオアニバース株式会社,,株式会社,神奈川県,川崎市中原区,小杉御殿町１丁目８９７番地１２,,14,133,2110068,,,,,,,2022-08-12,1,,,,,ネオアニバース,0
87,1020001147787,新規,0,2022-08-12,2022-08-12,株式会社ＹＭＳ,,株式会社,神奈川県,横浜市保土ケ谷区,岩間町２丁目１１１番地,,14,106,2400004,,,,,,,2022-08-12,1,,,,,ワイエムエス,0
94,1020003022245,新規,0,2022-08-12,2022-08-12,合同会社オザ,,合同会社,神奈川県,横浜市神奈川区,白幡西町３６番２５号,,14,102,2210074,,,,,,,2022-08-12,1,,,,,オザ,0
99,1021001076753,新規,0,2022-08-12,2022-08-12,株式会社Ｍ’ｓ,,株式会社,神奈川県,藤沢市,円行２丁目１１番地の１０,,14,205,2520805,,,,,,,2022-08-12,1,,,,,エムズ,0
100,1021001076761,新規,0,2022-08-12,2022-08-12,ＡＭＴ株式会社,,株式会社,神奈川県,茅ヶ崎市,共恵１丁目１番５号３０１,,14,207,2530056,,,,,,,2022-08-12,1,,,,,エーエムティー,0
109,1030001149642,新規,0,2022-08-12,2022-08-12,ＭＡＣ株式会社,,株式会社,埼玉県,川口市,大字東本郷２０４番地の３３,,11,203,3340063,,,,,,,2022-08-12,1,,,,,エムエーシー,0
110,1030001149667,新規,0,2022-08-12,2022-08-12,ＴＤ　Ｌｉｇｈｔｅｃ株式会社,,株式会社,埼玉県,さいたま市南区,内谷３丁目１５－１２,,11,108,3360034,,,,,,,2022-08-12,1,,,,,ティーディーライテック,0
112,1030003019959,新規,0,2022-08-12,2022-08-12,ヘリテイジＥＳ合同会社,,合同会社,埼玉県,さいたま市浦和区,岸町６丁目５番１－５０１号,,11,107,3300064,,,,,,,2022-08-12,1,,,,,ヘリテイジイーエス,0
113,1030003019983,新規,0,2022-08-12,2022-08-12,開運大吉懐古堂合同会社,,合同会社,埼玉県,春日部市,備後東６丁目６－１４－３号,,11,214,3440032,,,,,,,2022-08-12,1,,,,,カイウンダイキチカイコドウ,0
114,1030005020956,新規,0,2022-08-12,2022-08-12,一般社団法人ＴＯＲＩＯＳ,,その他の設立登記法人,埼玉県,さいたま市浦和区,木崎５丁目２３番１４号２０２,,11,107,3300042,,,,,,,2022-08-12,1,,,,,トリオス,0
117,1040001124636,新規,0,2022-08-12,2022-08-12,株式会社ＳＭＴアセット,,株式会社,千葉県,習志野市,奏の杜２丁目２番３－１１４６号,,12,216,2750028,,,,,,,2022-08-12,1,,,,,エスエムティーアセット,0
118,1040001124652,新規,0,2022-08-12,2022-08-12,ＳＹＮＣＴＥＣ株式会社,,株式会社,千葉県,市川市,福栄３丁目１９番１２－６０３号,,12,203,2720137,,,,,,,2022-08-12,1,,,,,シンクテック,0
121,1040003020610,新規,0,2022-08-12,2022-08-12,合同会社縁,,合同会社,千葉県,大網白里市,大網８６－１２,,12,239,2993251,,,,,,,2022-08-12,1,,,,,エン,0
128,1050001051524,新規,0,2022-08-12,2022-08-12,株式会社石津商事,,株式会社,茨城県,潮来市,大洲３８０番地,,08,223,3112422,,,,,,,2022-08-12,1,,,,,イシツショウジ,0
129,1050001051532,新規,0,2022-08-12,2022-08-12,株式会社遠藤工業,,株式会社,茨城県,つくば市,鹿島台９番地７,,08,220,3003254,,,,,,,2022-08-12,1,,,,,エンドウコウギョウ,0
130,1050001051540,新規,0,2022-08-12,2022-08-12,カシマホールディングス株式会社,,株式会社,茨城県,神栖市,南浜３番地５,,08,232,3140111,,,,,,,2022-08-12,1,,,,,カシマホールディングス,0
133,1050003006757,新規,0,2022-08-12,2022-08-12,合同会社ＭＪファミリア,,合同会社,茨城県,つくば市,学園の森３丁目３３番地４,,08,220,3050816,,,,,,,2022-08-12,1,,,,,エムジェイファミリア,0
135,1060001035162,新規,0,2022-08-12,2022-08-12,株式会社Ｇｒｅｅｎ　Ｓｕｓｔａｉｎａｂｌｅ　Ａｇｒｉｃｕｌｔｕｒｅ,,株式会社,栃木県,佐野市,飛駒町３８７０番地１,,09,204,3270231,,,,,,,2022-08-12,1,,,,,グリーンサステナブルアグリカルチャー,0
136,1060003004173,新規,0,2022-08-12,2022-08-12,ＮＩＳＡＮＧＳ　ＣＯＲＰＯＲＡＴＩＯＮ合同会社,,合同会社,栃木県,栃木市,大平町富田３９２番地９マルベリー大平３０４,,09,203,3294404,,,,,,,2022-08-12,1,,,,,ニサングスコーポレーション,0
137,1080001025129,新規,0,2022-08-12,2022-08-12,株式会社スルガオート,,株式会社,静岡県,島田市,井口４２３番地の３,,22,209,4270104,,,,,,,2022-08-12,1,,,,,スルガオート,0
138,1080003002852,新規,0,2022-08-12,2022-08-12,合同会社瀧事務所,,合同会社,静岡県,静岡市清水区,谷津町１丁目１０７５番地,,22,103,4240211,,,,,,,2022-08-12,1,,,,,タキジムショ,0
141,1090001017728,新規,0,2022-08-12,2022-08-12,株式会社リ・キューブ,,株式会社,山梨県,中巨摩郡昭和町,築地新居６００番地,,19,384,4093853,,,,,,,2022-08-12,1,,,,,リキューブ,0
143,1100001035612,新規,0,2022-08-12,2022-08-12,株式会社プレイスワン設計,,株式会社,長野県,岡谷市,本町４丁目１３番１６号,,20,204,3940028,,,,,,,2022-08-12,1,,,,,プレイスワンセッケイ,0
159,1120003022268,新規,0,2022-08-12,2022-08-12,合同会社はなカンパニー,,合同会社,大阪府,大阪市北区,芝田２丁目８番１１号,,27,127,5300012,,,,,,,2022-08-12,1,,,,,ハナカンパニー,0
161,1120101066043,新規,0,2022-08-12,2022-08-12,株式会社Ｂｒｉｓｅ,,株式会社,大阪府,堺市美原区,黒山３１８－１,,27,147,5870002,,,,,,,2022-08-12,1,,,,,ビライズ,0
166,1120903004266,新規,0,2022-08-12,2022-08-12,合同会社Ａｐｕｓ　Ｄｅｓｉｇｎ,,合同会社,大阪府,茨木市,春日３丁目４番３号,,27,211,5670031,,,,,,,2022-08-12,1,,,,,アプスデザイン,0
171,1130001072363,新規,0,2022-08-12,2022-08-12,株式会社デゴイチ,,株式会社,京都府,京都市南区,上鳥羽金仏３１番地,,26,107,6018175,,,,,,,2022-08-12,1,,,,,デゴイチ,0
173,1140001127050,新規,0,2022-08-12,2022-08-12,株式会社ツザキ,,株式会社,兵庫県,神戸市北区,大沢町中大沢９７４番地,,28,109,6511524,,,,,,,2022-08-12,1,,,,,ツザキ,0
174,1140001127067,新規,0,2022-08-12,2022-08-12,株式会社谷口塗装,,株式会社,兵庫県,西宮市,仁川百合野町１０番５６号,,28,204,6620815,,,,,,,2022-08-12,1,,,,,タニグチトソウ,0
176,1140003018025,新規,0,2022-08-12,2022-08-12,津門商事合同会社,,合同会社,兵庫県,西宮市,鳴尾町１丁目９番８－４０１号,,28,204,6638184,,,,,,,2022-08-12,1,,,,,ツトショウジ,0
181,1150001025765,新規,0,2022-08-12,2022-08-12,お坊さんの窓口株式会社,,株式会社,奈良県,大和郡山市,筒井町１３００番地,,29,203,6391123,,,,,,,2022-08-12,1,,,,,オボウサンノマドグチ,0
186,1170001017232,新規,0,2022-08-12,2022-08-12,株式会社フォアフロント,,株式会社,和歌山県,橋本市,慶賀野４１番地,,30,203,6480093,,,,,,,2022-08-12,1,,,,,フォアフロント,0
192,1180001152607,新規,0,2022-08-12,2022-08-12,株式会社高田商店,00127502,株式会社,愛知県,大府市,吉川町１丁目３８番地,,23,223,4740046,,,,,,,2022-08-12,1,,,,,タカダショウテン,0
193,1180001152615,新規,0,2022-08-12,2022-08-12,株式会社エコーベル,,株式会社,愛知県,名古屋市東区,泉３丁目１７－８,,23,102,4610001,,,,,,,2022-08-12,1,,,,,エコーベル,0
202,1180301036542,新規,0,2022-08-12,2022-08-12,株式会社ストミラ,,株式会社,愛知県,岡崎市,新堀町字東小平田１５番地１,,23,202,4440939,,,,,,,2022-08-12,1,,,,,ストミラ,0
206,1190003004061,新規,0,2022-08-12,2022-08-12,ＸＭＬ合同会社,,合同会社,三重県,伊賀市,上野徳居町３３４３,,24,216,5180856,,,,,,,2022-08-12,1,,,,,エックスエムエル,0
210,1210001019042,新規,0,2022-08-12,2022-08-12,株式会社ＹＤＥ,,株式会社,福井県,福井市,大宮５丁目１３番２９号,,18,201,9100016,,,,,,,2022-08-12,1,,,,,ワイディーイー,0
215,1220001024982,新規,0,2022-08-12,2022-08-12,株式会社岡本工業,,株式会社,石川県,金沢市,玉鉾４丁目１０６番地,,17,201,9218002,,,,,,,2022-08-12,1,,,,,オカモトコウギョウ,0
216,1230001019478,新規,0,2022-08-12,2022-08-12,株式会社リマイン,,株式会社,富山県,富山市,安住町７番１８号富山安住町第一生命ビルディング３階,,16,201,9300094,,,,,,,2022-08-12,1,,,,,リマイン,0
221,1260001037147,新規,0,2022-08-12,2022-08-12,株式会社岡南メディカ,,株式会社,岡山県,岡山市北区,東古松５丁目３番１号８０６,,33,101,7000921,,,,,,,2022-08-12,1,,,,,コウナンメディカ,0
226,1290001098541,新規,0,2022-08-12,2022-08-12,株式会社アクシュリンク,,株式会社,福岡県,福岡市博多区,博多駅前１丁目１５番２０号ＮＭＦ博多駅前ビル２階,,40,132,8120011,,,,,,,2022-08-12,1,,,,,アクシュリンク,0
227,1290001098558,新規,0,2022-08-12,2022-08-12,株式会社ビューティーリサーチ,,株式会社,福岡県,久留米市,御井旗崎３丁目４番７号－１０５号室,,40,203,8390841,,,,,,,2022-08-12,1,,,,,ビューティーリサーチ,0
228,1290001098566,新規,0,2022-08-12,2022-08-12,株式会社ステラ,,株式会社,福岡県,福岡市中央区,天神４丁目６番２８号天神ファーストビル７階,,40,133,8100001,,,,,,,2022-08-12,1,,,,,ステラ,0
229,1290001098582,新規,0,2022-08-12,2022-08-12,株式会社山桜,,株式会社,福岡県,久留米市,三潴町西牟田２０５０番地９,,40,203,8300111,,,,,,,2022-08-12,1,,,,,ヤマザクラ,0
230,1290001098590,新規,0,2022-08-12,2022-08-12,株式会社ＰＭＵ‐ＪＡＰＡＮ,,株式会社,福岡県,福岡市中央区,大名２丁目８番１８号,,40,133,8100041,,,,,,,2022-08-12,1,,,,,ピーエムユージャパン,0
231,1290001098599,新規,0,2022-08-12,2022-08-12,株式会社白附測量開発,,株式会社,福岡県,嘉麻市,上山田１２３７番地１２フェルヴォーレＩ２０１号,00127500,40,227,8210012,,,,,,,2022-08-12,1,,,,,シラツキソクリョウカイハツ,0
238,1330001030012,新規,0,2022-08-12,2022-08-12,熊本不二コンクリート工業分割準備株式会社,,株式会社,熊本県,菊池市,泗水町田島２４４４番地,,43,210,8611214,,,,,,,2022-08-12,1,,,,,クマモトフジコンクリートコウギョウブンカツジュンビ,0
240,1330003009483,新規,0,2022-08-12,2022-08-12,合同会社Ｅｔｅｒｎｉａ,,合同会社,熊本県,菊池郡大津町,大字引水４０番地６ランドマーク大津１０５,,43,403,8691234,,,,,,,2022-08-12,1,,,,,エターニア,0
241,1340001024954,新規,0,2022-08-12,2022-08-12,株式会社前村建築,,株式会社,鹿児島県,曽於市,財部町北俣４４６９－２,,46,217,8994102,,,,,,,2022-08-12,1,,,,,マエムラケンチク,0
244,1360001030819,新規,0,2022-08-12,2022-08-12,ＭＡＸ株式会社,,株式会社,沖縄県,那覇市,字天久１１９６番地１２藤浦通関ビル３階Ｓｅａｓｉｄｅ　Ｏｆｆｉｃｅ３１９号室,,47,201,9000005,,,,,,,2022-08-12,1,,,,,マックス,0
247,1370001048926,新規,0,2022-08-12,2022-08-12,株式会社マイコム,,株式会社,宮城県,仙台市泉区,上谷刈３丁目１５番１－１１７号,,04,105,9813121,,,,,,,2022-08-12,1,,,,,マイコム,0
248,1370003005801,新規,0,2022-08-12,2022-08-12,合同会社みらいクリエイト,,合同会社,宮城県,富谷市,石積猿田５,,04,216,9813325,,,,,,,2022-08-12,1,,,,,ミライクリエイト,0
254,1390001016996,新規,0,2022-08-12,2022-08-12,株式会社ぷらす・あるふぁ,,株式会社,山形県,長井市,歌丸１６２９番地,,06,209,9930034,,,,,,,2022-08-12,1,,,,,プラスアルファ,0
258,1410003003692,新規,0,2022-08-12,2022-08-12,ヤマブキ管財合同会社,,合同会社,秋田県,能代市,字後谷地１９番地２６,,05,202,0160863,,,,,,,2022-08-12,1,,,,,ヤマブキカンザイ,0
259,1430001087273,新規,0,2022-08-12,2022-08-12,株式会社Ｄｉｅｓｅｌ,,株式会社,北海道,恵庭市,文京町４丁目３番３号,,01,231,0611425,,,,,,,2022-08-12,1,,,,,ディーゼル,0
262,1450001013772,新規,0,2022-08-12,2022-08-12,株式会社ＯＦＡ,,株式会社,北海道,空知郡中富良野町,字中富良野東２線北四号,,01,461,0710772,,,,,,,2022-08-12,1,,,,,オーエフエー,0
267,1490003001689,新規,0,2022-08-12,2022-08-12,合同会社Ｌａｐａ,,合同会社,高知県,高知市,石立町２１７－８,,39,201,7808038,,,,,,,2022-08-12,1,,,,,ラパ,0
277,2010001228513,新規,0,2022-08-12,2022-08-12,株式会社えんじゃ,,株式会社,東京都,千代田区,神田小川町２丁目１２番１４号,,13,101,1010052,,,,,,,2022-08-12,1,,,,,エンジャ,0
278,2010001228736,新規,0,2022-08-12,2022-08-12,株式会社ＫＢ,,株式会社,東京都,中央区,築地３丁目１１番６号築地スクエアビル８階株式会社トータルブレーン内,,13,102,1040045,,,,,,,2022-08-12,1,,,,,ケービー,0
279,2010001228744,新規,0,2022-08-12,2022-08-12,株式会社ＯＬＥＮ’Ａ薬粧研究所,,株式会社,東京都,中央区,銀座１丁目２２番１１号銀座大竹ビジデンス２階,,13,102,1040061,,,,,,,2022-08-12,1,,,,,オレンアヤクショウケンキュウジョ,0
281,2010003038381,新規,0,2022-08-12,2022-08-12,Ｄｉｃｋｓｏｎ　Ｌｅｕｎｇ合同会社,,合同会社,東京都,千代田区,神田須田町２丁目２３番１－６０９号,,13,101,1010041,,,,,,,2022-08-12,1,,,,,ディクソンリョン,0
285,2010401168912,新規,0,2022-08-12,2022-08-12,ＢＥＹＯＮＤ　ＬＩＭＩＴＳ株式会社,,株式会社,東京都,港区,虎ノ門５丁目１３番１号虎ノ門４０ＭＴビル７階,,13,103,1050001,,,,,,,2022-08-12,1,,,,,ビヨンドリミッツ,0
286,2010401168953,新規,0,2022-08-12,2022-08-12,株式会社２ｄａｙｓ,,株式会社,東京都,港区,南青山７丁目１２番１６－３１９号,,13,103,1070062,,,,,,,2022-08-12,1,,,,,ツーデイズ,0
295,2010701043063,新規,0,2022-08-12,2022-08-12,株式会社ＩＮＦＩＮＩＬＩＮＫ,,株式会社,東京都,品川区,東五反田５丁目２５－１６ＭＬＪ五反田ビル８階,,13,109,1410022,,,,,,,2022-08-12,1,,,,,インフィニリンク,0
297,2010801033195,新規,0,2022-08-12,2022-08-12,株式会社光,,株式会社,東京都,大田区,蒲田１丁目２番４－４０２号,,13,111,1440052,,,,,,,2022-08-12,1,,,,,ヒカリ,0
298,2010803004252,新規,0,2022-08-12,2022-08-12,合同会社幻葉社,,合同会社,東京都,大田区,大森北４丁目３番１７号ホームズ丸岡１０２,,13,111,1430016,,,,,,,2022-08-12,1,,,,,ゲンヨウシャ,0
303,2010901051403,新規,0,2022-08-12,2022-08-12,株式会社Ｎａｎｉ,,株式会社,東京都,世田谷区,瀬田１丁目１６番２３号,,13,112,1580095,,,,,,,2022-08-12,1,,,,,ナニ,0
308,2011001149121,新規,0,2022-08-12,2022-08-12,ミカタ株式会社,,株式会社,東京都,渋谷区,恵比寿１丁目１５番９号日宝恵比寿ビル４０３,,13,113,1500013,,,,,,,2022-08-12,1,,,,,ミカタ,0
309,2011001149138,新規,0,2022-08-12,2022-08-12,ドーキョウ商事株式会社,,株式会社,東京都,渋谷区,渋谷３丁目１番９号ＹＡＺＡＷＡビル３階,,13,113,1500002,,,,,,,2022-08-12,1,,,,,ドーキョショウジ,0
310,2011001149146,新規,0,2022-08-12,2022-08-12,株式会社ＨＤホールディングス,,株式会社,東京都,目黒区,八雲１丁目１番５－７０５号八雲一丁目アパート,,13,110,1520023,,,,,,,2022-08-12,1,,,,,エイチディーホールディングス,0
311,2011001149179,新規,0,2022-08-12,2022-08-12,株式会社Ｅｍｍａ　Ｂｌａｎｃ,,株式会社,東京都,渋谷区,東３丁目２０番４号ＲａｙＱｕｏｎＥＢＩＳＵ４階,,13,113,1500011,,,,,,,2022-08-12,1,,,,,エマブラン,0
312,2011001149187,新規,0,2022-08-12,2022-08-12,株式会社パサージオ,,株式会社,東京都,渋谷区,幡ヶ谷２丁目１４番５号幡ヶ谷マンション,,13,113,1510072,,,,,,,2022-08-12,1,,,,,パサージオ,0
313,2011001149220,新規,0,2022-08-12,2022-08-12,株式会社ラリー,,株式会社,東京都,渋谷区,笹塚１丁目６１番８－９１４号,,13,113,1510073,,,,,,,2022-08-12,1,,,,,ラリー,0
314,2011003015189,新規,0,2022-08-12,2022-08-12,合同会社０３,,合同会社,東京都,渋谷区,松濤１丁目２７番７号,,13,113,1500046,,,,,,,2022-08-12,1,,,,,ゼロサン,0
315,2011003015197,新規,0,2022-08-12,2022-08-12,Ｆｒｏｎｔｉｅｒ３３合同会社,,合同会社,東京都,渋谷区,本町２丁目１７番１４号ＴＲＥＡＳＵＲＥ１０１,,13,113,1510071,,,,,,,2022-08-12,1,,,,,フロンティアサンジュウサン,0
328,2011501028378,新規,0,2022-08-12,2022-08-12,株式会社ソフォス,,株式会社,東京都,荒川区,東日暮里５丁目１３番５－５０２号,,13,118,1160014,,,,,,,2022-08-12,1,,,,,ソフォス,0
331,2011601026166,新規,0,2022-08-12,2022-08-12,ライフゲート株式会社,,株式会社,東京都,練馬区,大泉学園町４丁目１８番１号,,13,120,1780061,,,,,,,2022-08-12,1,,,,,ライフゲート,0
336,2011701025522,新規,0,2022-08-12,2022-08-12,株式会社大都工業,,株式会社,東京都,江戸川区,江戸川４丁目８番地２７,,13,123,1340013,,,,,,,2022-08-12,1,,,,,ダイトコウギョウ,0
340,2011801041114,新規,0,2022-08-12,2022-08-12,株式会社極征,,株式会社,東京都,足立区,西新井本町２丁目６番３号イヴハウス３０５,,13,121,1230845,,,,,,,2022-08-12,1,,,,,キョクセイ,0
341,2011801041122,新規,0,2022-08-12,2022-08-12,株式会社ＳＱＯＯＬ　ＴＥＣＨ,,株式会社,東京都,足立区,東和５丁目１３番１４号,,13,121,1200003,,,,,,,2022-08-12,1,,,,,スクールテック,0
342,2011801041139,新規,0,2022-08-12,2022-08-12,株式会社ＢＯＮＤＳ,,株式会社,東京都,葛飾区,新小岩３丁目２６番８号,,13,122,1240024,,,,,,,2022-08-12,1,,,,,ボンズ,0
343,2012301013099,新規,0,2022-08-12,2022-08-12,セミサーブ株式会社,,株式会社,東京都,町田市,高ヶ坂２丁目２７番１９号,,13,209,1940014,,,,,,,2022-08-12,1,,,,,セミサーブ,0
356,2020001147737,新規,0,2022-08-12,2022-08-12,株式会社シンソー,,株式会社,神奈川県,横浜市港南区,港南台６丁目１番４２号,,14,111,2340054,,,,,,,2022-08-12,1,,,,,シンソー,0
357,2020001147745,新規,0,2022-08-12,2022-08-12,株式会社ＭＣＤ・ＰＬＵＳ,,株式会社,神奈川県,川崎市高津区,下作延２丁目１０番１１号,,14,134,2130033,,,,,,,2022-08-12,1,,,,,エムシーディープラス,0
358,2020001147786,新規,0,2022-08-12,2022-08-12,株式会社ＳＥＡＳＯＮ,,株式会社,神奈川県,川崎市多摩区,生田８丁目７番１２－２号,,14,135,2140038,,,,,,,2022-08-12,1,,,,,シーズン,0
362,2021001076760,新規,0,2022-08-12,2022-08-12,株式会社ＦＵＮｓｈｉｏｎ,,株式会社,神奈川県,藤沢市,辻堂６丁目２６番４３号,,14,205,2510047,,,,,,,2022-08-12,1,,,,,ファンション,0
365,2021003012029,新規,0,2022-08-12,2022-08-12,合同会社カランコエ,,合同会社,神奈川県,相模原市中央区,上矢部１丁目１５番１０号,,14,152,2520201,,,,,,,2022-08-12,1,,,,,カランコエ,0
369,2030001149617,新規,0,2022-08-12,2022-08-12,株式会社ジャパン作図,,株式会社,埼玉県,北足立郡伊奈町,栄３丁目１６番地１,,11,301,3620805,,,,,,,2022-08-12,1,,,,,ジャパンサクズ,0
370,2030001149641,新規,0,2022-08-12,2022-08-12,株式会社ｅａｓｅ,,株式会社,埼玉県,三郷市,谷口１５番地,,11,237,3410042,,,,,,,2022-08-12,1,,,,,イーズ,0
371,2030003019850,新規,0,2022-08-12,2022-08-12,ＳＴＡＲ　ＢＲＩＤＧＥ合同会社,,合同会社,埼玉県,川越市,通町２０番地２（プレシス本川越ルミナス２０５号室）,,11,201,3500044,,,,,,,2022-08-12,1,,,,,スターブリッジ,0
372,2030003019941,新規,0,2022-08-12,2022-08-12,ＨＥＥ合同会社,,合同会社,埼玉県,所沢市,大字中富１８３１番地の３９,,11,208,3590002,,,,,,,2022-08-12,1,,,,,エイチイーイー,0
373,2030003019966,新規,0,2022-08-12,2022-08-12,合同会社富壁,,合同会社,埼玉県,春日部市,一ノ割２丁目８番７号,,11,214,3440031,,,,,,,2022-08-12,1,,,,,トミカベ,0
374,2030003019982,新規,0,2022-08-12,2022-08-12,合同会社ロッキンチェア,,合同会社,埼玉県,さいたま市大宮区,桜木町４丁目９３４番地３,,11,103,3300854,,,,,,,2022-08-12,1,,,,,ロッキンチェア,0
380,2040001124651,新規,0,2022-08-12,2022-08-12,株式会社ＥＬＥＧＡＮＣＥ,,株式会社,千葉県,千葉市花見川区,朝日ケ丘２丁目１番２号,,12,102,2620019,,,,,,,2022-08-12,1,,,,,エレガンス,0
381,2040001124668,新規,0,2022-08-12,2022-08-12,ＯＬＤ　ＳＴＡＲ株式会社,,株式会社,千葉県,市原市,ちはら台西２丁目４番地７,,12,219,2900143,,,,,,,2022-08-12,1,,,,,オールドスター,0
382,2040001124676,新規,0,2022-08-12,2022-08-12,株式会社伊藤ファイン企画,,株式会社,千葉県,船橋市,宮本６丁目２４番１０号,,12,204,2730003,,,,,,,2022-08-12,1,,,,,イトウファインキカク,0
383,2040001124684,新規,0,2022-08-12,2022-08-12,株式会社王景コーポレーション,,株式会社,千葉県,八千代市,八千代台南１丁目７番４貝塚ビル２階,,12,221,2760033,,,,,,,2022-08-12,1,,,,,オウケイコーポレーション,0
386,2040003020626,新規,0,2022-08-12,2022-08-12,合同会社ｌｉｍ,,合同会社,千葉県,習志野市,鷺沼４丁目１０番２－２号,,12,216,2750014,,,,,,,2022-08-12,1,,,,,リム,0
388,2050003006764,新規,0,2022-08-12,2022-08-12,合同会社Ｅｓｐｅｒａｎｚａ,,合同会社,茨城県,日立市,十王町伊師３８６９－４,,08,202,3191301,,,,,,,2022-08-12,1,,,,,エスペランザ,0
394,2080401025999,新規,0,2022-08-12,2022-08-12,株式会社ＫＣ,,株式会社,静岡県,浜松市中区,富塚町１８７３番地の４レイクコート富塚３０２,,22,131,4328002,,,,,,,2022-08-12,1,,,,,ケーシー,0
396,2090003002149,新規,0,2022-08-12,2022-08-12,合同会社だんだん,,合同会社,山梨県,中央市,布施２７４０番地１Ｋ－１２,,19,214,4093841,,,,,,,2022-08-12,1,,,,,ダンダン,0
402,2110001036880,新規,0,2022-08-12,2022-08-12,株式会社Ｊ＆ｈａｐｐｉｎｅｓｓ,,株式会社,新潟県,新発田市,富塚町２丁目９３３番地１,,15,206,9570062,,,,,,,2022-08-12,1,,,,,ジェイアンドハピネス,0
418,2120001248062,新規,0,2022-08-12,2022-08-12,Ｉｒｅｉｅ　ｓｃｈｅｍｅ株式会社,,株式会社,大阪府,大阪市中央区,安堂寺町１丁目３番６号,,27,128,5420061,,,,,,,2022-08-12,1,,,,,アイリースキーム,0
421,2120101066050,新規,0,2022-08-12,2022-08-12,株式会社ＰＥＴＯＭＥＭＯ,,株式会社,大阪府,和泉市,葛の葉町２丁目２５番１３号,,27,219,5940081,,,,,,,2022-08-12,1,,,,,ペトメモ,0
422,2120101066059,新規,0,2022-08-12,2022-08-12,株式会社カラー,,株式会社,大阪府,大阪狭山市,東茱萸木１丁目５２２番地の５,,27,231,5890012,,,,,,,2022-08-12,1,,,,,カラー,0
426,2120901046359,新規,0,2022-08-12,2022-08-12,株式会社ワンバース,,株式会社,大阪府,豊能郡豊能町,東ときわ台３丁目６番地の１１,,27,321,5630103,,,,,,,2022-08-12,1,,,,,ワンバース,0
431,2130001072453,新規,0,2022-08-12,2022-08-12,株式会社ｙｏｕ,,株式会社,京都府,京都市中京区,河原町通二条下る一之船入町５３７番地１７イーグルコート御池高瀬川５１２号,,26,104,6040924,,,,,,,2022-08-12,1,,,,,ユウ,0
443,2140001127041,新規,0,2022-08-12,2022-08-12,株式会社ベルクファーマ,,株式会社,兵庫県,神戸市兵庫区,荒田町１丁目１５番６号４Ｆ,,28,105,6520032,,,,,,,2022-08-12,1,,,,,ベルクファーマ,0
444,2140001127066,新規,0,2022-08-12,2022-08-12,株式会社ＣＲＯＳＳ．８,,株式会社,兵庫県,尼崎市,食満５丁目２２番３２－３号,,28,202,6610982,,,,,,,2022-08-12,1,,,,,クロスエイト,0
445,2140001127090,新規,0,2022-08-12,2022-08-12,株式会社あかさき工業,,株式会社,兵庫県,神戸市垂水区,大町４丁目７番２４号,,28,108,6550014,,,,,,,2022-08-12,1,,,,,アカサキコウギョウ,0
449,2140005026280,新規,0,2022-08-12,2022-08-12,一般社団法人Ｏｔｏ倶楽部,,その他の設立登記法人,兵庫県,姫路市,上大野６丁目５番１２号,,28,201,6700896,,,,,,,2022-08-12,1,,,,,オトクラブ,0
450,2140005026289,新規,0,2022-08-12,2022-08-12,一般社団法人コンクリート資源循環促進協会,,その他の設立登記法人,兵庫県,神戸市兵庫区,築地町６番６号,,28,105,6520845,,,,,,,2022-08-12,1,,,,,コンクリートシゲンジュンカンソクシンキョウカイ,0
452,2150001025764,新規,0,2022-08-12,2022-08-12,帝誠株式会社,,株式会社,奈良県,奈良市,押熊町２１１０番地の３２,,29,201,6310011,,,,,,,2022-08-12,1,,,,,テイセイ,0
453,2150003002745,新規,0,2022-08-12,2022-08-12,合同会社アシスト,,合同会社,奈良県,奈良市,秋篠三和町１丁目７－１５,,29,201,6310814,,,,,,,2022-08-12,1,,,,,アシスト,0
454,2160001024451,新規,0,2022-08-12,2022-08-12,株式会社愛車堂,,株式会社,滋賀県,愛知郡愛荘町,島川１１５９番地,,25,425,5291223,,,,,,,2022-08-12,1,,,,,アイシャドウ,0
463,2180001152614,新規,0,2022-08-12,2022-08-12,株式会社ＨＩＫＡ,,株式会社,愛知県,名古屋市中村区,名駅南１丁目１４－９エルザビル名古屋駅前１２０２,,23,105,4500003,,,,,,,2022-08-12,1,,,,,ヒカ,0
470,2180301036533,新規,0,2022-08-12,2022-08-12,株式会社岩瀬建設,,株式会社,愛知県,豊橋市,忠興１丁目１番地６,,23,201,4400004,,,,,,,2022-08-12,1,,,,,イワセケンセツ,0
473,2190001029687,新規,0,2022-08-12,2022-08-12,株式会社ミカクリエイト,,株式会社,三重県,松阪市,久保町１８１９番地１４,,24,204,5150044,,,,,,,2022-08-12,1,,,,,ミカクリエイト,0
484,2200003005643,新規,0,2022-08-12,2022-08-12,旅のしおり合同会社,,合同会社,岐阜県,高山市,大新町１丁目３９番地－１,,21,203,5060851,,,,,,,2022-08-12,1,,,,,タビノシオリ,0
488,2240001060224,新規,0,2022-08-12,2022-08-12,株式会社３２８Ｐｒｏｐｅｒｔｉｅｓ,,株式会社,広島県,広島市中区,猫屋町３番２８号,,34,101,7300852,,,,,,,2022-08-12,1,,,,,スリートゥエイトプロパティーズ,0
490,2240003005747,新規,0,2022-08-12,2022-08-12,合同会社オルトレ,,合同会社,広島県,広島市西区,三篠町１丁目７－２０エンドレスビル２０２号室,,34,104,7330003,,,,,,,2022-08-12,1,,,,,,0
491,2240005015439,新規,0,2022-08-12,2022-08-12,土地家屋調査士法人グランドデザイン,,その他の設立登記法人,広島県,安芸郡海田町,堀川町１番８号ホスタ海田堀川町３０２号,,34,304,7360045,,,,,,,2022-08-12,1,,,,,グランドデザイン,0
493,2250001019715,新規,0,2022-08-12,2022-08-12,株式会社Ｋｅｙｔａｉｌ,,株式会社,山口県,山口市,中央１丁目５番９号,,35,203,7530074,,,,,,,2022-08-12,1,,,,,キーテイル,0
496,2260001037121,新規,0,2022-08-12,2022-08-12,大真船舶株式会社,,株式会社,岡山県,岡山市北区,中山下１丁目９番１号,,33,101,7000821,,,,,,,2022-08-12,1,,,,,ダイシンセンパク,0
501,2290001098540,新規,0,2022-08-12,2022-08-12,株式会社ＲＩＴＡ　ｃｒｅａｔｉｏｎｓ,,株式会社,福岡県,福岡市博多区,博多駅前２丁目１９番１７号トーカン博多第５ビル３１２号室,,40,132,8120011,,,,,,,2022-08-12,1,,,,,リタクリエーションズ,0
502,2290001098549,新規,0,2022-08-12,2022-08-12,株式会社ハウスリサイクル,,株式会社,福岡県,宗像市,原町２２１７番地１,,40,220,8113424,,,,,,,2022-08-12,1,,,,,ハウスリサイクル,0
508,2310001017984,新規,0,2022-08-12,2022-08-12,株式会社ＣｌｅＣｈｅｚｎｄ,,株式会社,長崎県,長崎市,船大工町３番１９号七福ビル２０２,,42,201,8500904,,,,,,,2022-08-12,1,,,,,クレッシェンド,0
520,2370001048933,新規,0,2022-08-12,2022-08-12,株式会社シーズン,,株式会社,宮城県,仙台市泉区,桂２丁目１７番地の９,,04,105,9813134,,,,,,,2022-08-12,1,,,,,シーズン,0
521,2370001048941,新規,0,2022-08-12,2022-08-12,株式会社ＳｏｕｄａｎＮＦＴ,,株式会社,宮城県,東松島市,矢本字上河戸２８３番地１０ウイン上河戸Ｃ,,04,214,9810503,,,,,,,2022-08-12,1,,,,,ソウダンエヌエフティ,0
534,2430001087231,新規,0,2022-08-12,2022-08-12,株式会社Ｔａｋｉｂｉ　ａｇｅ,,株式会社,北海道,札幌市中央区,北六条西２２丁目２番３号チュリス札幌１階,,01,101,0600006,,,,,,,2022-08-12,1,,,,,タキビエイジ,0
537,2430003014183,新規,0,2022-08-12,2022-08-12,合同会社ＣＨサービス,,合同会社,北海道,札幌市手稲区,曙五条２丁目７番２２号,,01,109,0060835,,,,,,,2022-08-12,1,,,,,シーエイチサービス,0
539,2450001013771,新規,0,2022-08-12,2022-08-12,株式会社帯広セレモニー,,株式会社,北海道,旭川市,豊岡九条６丁目２番１２号,,01,204,0788239,,,,,,,2022-08-12,1,,,,,オビヒロセレモニー,0
541,2470001019214,新規,0,2022-08-12,2022-08-12,ＴＲＡＶＩＳ　ＲＩＶＥＳＴ株式会社,,株式会社,香川県,丸亀市,郡家町２７４番地１,,37,202,7630093,,,,,,,2022-08-12,1,,,,,トラヴィスリヴェスト,0
543,2480001011822,新規,0,2022-08-12,2022-08-12,株式会社あいライン,,株式会社,徳島県,板野郡上板町,佐藤塚字東２４番地１,,36,405,7711342,,,,,,,2022-08-12,1,,,,,アイライン,0
549,2700150111202,新規,0,2022-08-12,2022-08-12,向日市阪急洛西口駅西土地区画整理組合,,その他,京都府,向日市,寺戸町新田２２番地,,26,208,6170002,,,,,,,2022-08-12,1,,,,,ムコウシハンキユウラクサイグチエキニシトチクカクセイリクミアイ,0
550,2700150111243,新規,0,2022-08-12,2022-08-12,杭州上禾家居有限公司,,外国会社等,,,,,,,,中国浙江省杭州市江干区原筑壹号中心７８幢１４１３室,00127498,,,,,2022-08-12,1,,,,,コウシユウジヨウカカキヨユウゲンコウシ,0
558,3010003038372,新規,0,2022-08-12,2022-08-12,テラスドーム合同会社,,合同会社,東京都,中央区,日本橋２丁目１番１７号丹生ビル２階,,13,102,1030027,,,,,,,2022-08-12,1,,,,,テラスドーム,0
564,3010401169034,新規,0,2022-08-12,2022-08-12,株式会社Ｎｏａｈ,,株式会社,東京都,港区,六本木７丁目１２－２Ｒ７ビルディングＳＰＡＣＥＳ六本木,,13,103,1060032,,,,,,,2022-08-12,1,,,,,ノア,0
565,3010401169042,新規,0,2022-08-12,2022-08-12,株式会社ＳＯＬＥＩＬ,,株式会社,東京都,港区,赤坂２丁目１０番２号吉川ビル２階,,13,103,1070052,,,,,,,2022-08-12,1,,,,,ソレイユ,0
567,3010601061668,新規,0,2022-08-12,2022-08-12,ユーフォリアハウス株式会社,,株式会社,東京都,墨田区,横川３丁目７番１０号,,13,107,1300003,,,,,,,2022-08-12,1,,,,,ユーフォリアハウス,0
568,3010701043062,新規,0,2022-08-12,2022-08-12,株式会社Ｍｅｄｉｃａｌ　Ａｒｃｈ,,株式会社,東京都,品川区,東中延２丁目８番１０号マツダビル２０１,,13,109,1420052,,,,,,,2022-08-12,1,,,,,メディカルアーチ,0
571,3010801033194,新規,0,2022-08-12,2022-08-12,綜合防災設備株式会社,,株式会社,東京都,大田区,上池台５丁目２１番１８号,,13,111,1450064,,,,,,,2022-08-12,1,,,,,ソウゴウボウサイセツビ,0
575,3010901051402,新規,0,2022-08-12,2022-08-12,ＨＳ　Ｄｅｓｉｇｎ株式会社,,株式会社,東京都,世田谷区,松原３丁目１８番１１号,,13,112,1560043,,,,,,,2022-08-12,1,,,,,エイチエスデザイン,0
581,3011001149062,新規,0,2022-08-12,2022-08-12,株式会社ＯＦＦＩＣＥ　ＣＯＭＡＴＣＨ,,株式会社,東京都,渋谷区,神山町９番４－１００１号パークアクシス渋谷神山町,,13,113,1500047,,,,,,,2022-08-12,1,,,,,オフィスコマチ,0
582,3011001149095,新規,0,2022-08-12,2022-08-12,ＴＨＥ株式会社,,株式会社,東京都,目黒区,上目黒２丁目１６－１リードシー中目黒１Ｆ－Ｂ,,13,110,1530051,,,,,,,2022-08-12,1,,,,,ティーエイチイー,0
583,3011001149137,新規,0,2022-08-12,2022-08-12,株式会社ＢＡＵＬＩＦＥ,,株式会社,東京都,渋谷区,渋谷２丁目１９－１５宮益坂ビルディング６０９,,13,113,1500002,,,,,,,2022-08-12,1,,,,,バウライフ,0
584,3011001149186,新規,0,2022-08-12,2022-08-12,株式会社ハチハチ,,株式会社,東京都,渋谷区,道玄坂１丁目２２番７号,,13,113,1500043,,,,,,,2022-08-12,1,,,,,ハチハチ,0
585,3011001149228,新規,0,2022-08-12,2022-08-12,株式会社東京書店,,株式会社,東京都,渋谷区,東２丁目１４番１３号,,13,113,1500011,,,,,,,2022-08-12,1,,,,,トウキョウショテン,0
593,3011101099653,新規,0,2022-08-12,2022-08-12,株式会社Ｋ‐Ｄｅｎｃｅ,,株式会社,東京都,新宿区,西新宿３丁目７－１新宿パークタワーＮ３０階,,13,104,1600023,,,,,,,2022-08-12,1,,,,,ケーデンス,0
594,3011101099835,新規,0,2022-08-12,2022-08-12,Ｔｈｅ８株式会社,,株式会社,東京都,新宿区,西新宿３丁目３番１３号西新宿水間ビル６階,,13,104,1600023,,,,,,,2022-08-12,1,,,,,ディエイト,0
595,3011101099851,新規,0,2022-08-12,2022-08-12,ＩＭＳ　ＪＡＰＡＮ株式会社,,株式会社,東京都,新宿区,西新宿７丁目４番７号イマス浜田ビル３Ｆ－Ｂ１１号室,,13,104,1600023,,,,,,,2022-08-12,1,,,,,アイムエスジャパン,0
596,3011103012052,新規,0,2022-08-12,2022-08-12,合同会社ＴＨＥ　ＡＧＥＮＴ,,合同会社,東京都,新宿区,新宿７丁目６番地８号ＫＭハイＡ０２号室,,13,104,1600022,,,,,,,2022-08-12,1,,,,,ザエージェント,0
599,3011201024024,新規,0,2022-08-12,2022-08-12,株式会社Ｂ‐ｒｅｘ,,株式会社,東京都,中野区,中野３丁目３４番３号,,13,114,1640001,,,,,,,2022-08-12,1,,,,,ビーレックス,0
600,3011201024032,新規,0,2022-08-12,2022-08-12,株式会社Ｎｉｃｅ　Ｗｏｒｋ,,株式会社,東京都,中野区,弥生町２丁目１３番１号ＢｅｌｌｅＦｌｅｕｒ１０１,,13,114,1640013,,,,,,,2022-08-12,1,,,,,ナイスワーク,0
601,3011501028377,新規,0,2022-08-12,2022-08-12,キャッスル株式会社,,株式会社,東京都,荒川区,荒川１丁目５１－６,,13,118,1160002,,,,,,,2022-08-12,1,,,,,キャッスル,0
603,3011503005250,新規,0,2022-08-12,2022-08-12,合同会社ｉｍａｇｉｎｅ　ｎｏｔ　ｋｎｏｗｉｎｇ,,合同会社,東京都,荒川区,西日暮里６丁目１２番７号,,13,118,1160013,,,,,,,2022-08-12,1,,,,,イマジンノットノウイング,0
605,3011601026173,新規,0,2022-08-12,2022-08-12,Ｏｃｅａｎ　Ｄｒｏｎｅ株式会社,,株式会社,東京都,練馬区,中村北１丁目１１－４メゾン練馬３０１号室,,13,120,1760023,,,,,,,2022-08-12,1,,,,,オーシャンドローン,0
611,3012401039522,新規,0,2022-08-12,2022-08-12,株式会社レオデザインオフィス,,株式会社,東京都,調布市,若葉町１丁目２２番地１,,13,208,1820003,,,,,,,2022-08-12,1,,,,,レオデザインオフィス,0
614,3012701017203,新規,0,2022-08-12,2022-08-12,株式会社ＭＫＳ,,株式会社,東京都,東村山市,久米川町１丁目４８番地６１レーベンハイム久米川３１４,,13,213,1890003,,,,,,,2022-08-12,1,,,,,エムケーエス,0
618,3013301049504,新規,0,2022-08-12,2022-08-12,株式会社ＩＪＯＢ,,株式会社,東京都,豊島区,南大塚３丁目３９－６－２Ｆ,,13,116,1700005,,,,,,,2022-08-12,1,,,,,アイジョブ,0
625,3020001147562,新規,0,2022-08-12,2022-08-12,株式会社Ｏｎｅ　Ｓｍｉｌｅ　Ｔｅｃｈ,,株式会社,神奈川県,横浜市保土ケ谷区,岩崎町３４番２７号,,14,106,2400015,,,,,,,2022-08-12,1,,,,,ワンスマイルテック,0
626,3020001147686,新規,0,2022-08-12,2022-08-12,竹華ジャパン株式会社,,株式会社,神奈川県,横浜市西区,北幸１丁目１１番１号水信ビル７Ｆ,,14,103,2200004,,,,,,,2022-08-12,1,,,,,タケハナジャパン,0
627,3020001147711,新規,0,2022-08-12,2022-08-12,株式会社トロンコミュニティー,,株式会社,神奈川県,横浜市港北区,師岡町４６４番地ユーコート大倉山１０４号室,,14,109,2220002,,,,,,,2022-08-12,1,,,,,トロンコミュニティー,0
628,3020001147744,新規,0,2022-08-12,2022-08-12,株式会社Ｌｙｎｘ,,株式会社,神奈川県,川崎市高津区,東野川２丁目１３番５号コーポ宮台１０２,,14,134,2130029,,,,,,,2022-08-12,1,,,,,リンクス,0
629,3020001147752,新規,0,2022-08-12,2022-08-12,ＧＨＥＥ株式会社,,株式会社,神奈川県,横浜市旭区,柏町９２番９号,,14,112,2410835,,,,,,,2022-08-12,1,,,,,ギー,0
630,3020001147785,新規,0,2022-08-12,2022-08-12,株式会社エンフィニティ,,株式会社,神奈川県,横浜市都筑区,中川３丁目２２番４号,,14,118,2240001,,,,,,,2022-08-12,1,,,,,エンフィニティ,0
634,3020005015625,新規,0,2022-08-12,2022-08-12,一般財団法人幸島文化振興財団,,その他の設立登記法人,神奈川県,川崎市麻生区,栗木２丁目６番２０号,,14,137,2150033,,,,,,,2022-08-12,1,,,,,コウシマブンカシンコウザイダン,0
640,3021001076727,新規,0,2022-08-12,2022-08-12,株式会社ＶＩＥＷＳ,,株式会社,神奈川県,藤沢市,渡内２丁目２番３０－２号,,14,205,2510011,,,,,,,2022-08-12,1,,,,,ビューズ,0
649,3030001149624,新規,0,2022-08-12,2022-08-12,テクワ株式会社,,株式会社,埼玉県,さいたま市大宮区,桜木町２丁目３番地,,11,103,3300854,,,,,,,2022-08-12,1,,,,,テクワ,0
650,3030001149640,新規,0,2022-08-12,2022-08-12,株式会社ＤＩＡＴＥＣ,,株式会社,埼玉県,久喜市,本町３丁目８番４４号,,11,232,3460005,,,,,,,2022-08-12,1,,,,,ダイヤテック,0
651,3030001149665,新規,0,2022-08-12,2022-08-12,株式会社サムシング４ｕ,,株式会社,埼玉県,川口市,大字木曽呂８９４番地,,11,203,3330831,,,,,,,2022-08-12,1,,,,,サムシングフォーユー,0
654,3030003019965,新規,0,2022-08-12,2022-08-12,合同会社ゆうりんくす,,合同会社,埼玉県,入間郡毛呂山町,大字川角２２５３番地４,,11,326,3500436,,,,,,,2022-08-12,1,,,,,ユウリンクス,0
655,3030003019973,新規,0,2022-08-12,2022-08-12,王家フーズ合同会社,,合同会社,埼玉県,南埼玉郡宮代町,百間２丁目４番１７号パオトウビル,,11,442,3450801,,,,,,,2022-08-12,1,,,,,ワンジャーフーズ,0
656,3030003019981,新規,0,2022-08-12,2022-08-12,合同会社楽,,合同会社,埼玉県,春日部市,中央１丁目５６－８グレイスハイム藤田１ＦＡ,,11,214,3440067,,,,,,,2022-08-12,1,,,,,ラク,0
658,3030005020954,新規,0,2022-08-12,2022-08-12,ＮＰＯ法人恵愛サポート,,その他の設立登記法人,埼玉県,白岡市,太田新井１３７６番地４４,,11,246,3490225,,,,,,,2022-08-12,1,,,,,ケイアイサポート,0
661,3040001124650,新規,0,2022-08-12,2022-08-12,株式会社Ｇ‐テック,,株式会社,千葉県,野田市,柏寺３２３番地１７,,12,208,2700214,,,,,,,2022-08-12,1,,,,,ジーテック,0
662,3040001124659,新規,0,2022-08-12,2022-08-12,株式会社綜合設備スズキ,,株式会社,千葉県,我孫子市,天王台４丁目５－１６パークハイツ我孫子台６１０号室,,12,222,2701143,,,,,,,2022-08-12,1,,,,,ソウゴウセツビスズキ,0
663,3040001124683,新規,0,2022-08-12,2022-08-12,合同企畫サーバーＡｐｒｉｌ株式会社,,株式会社,千葉県,松戸市,高塚新田４９８－１３４,,12,207,2702222,,,,,,,2022-08-12,1,,,,,ゴウドウキカクサーバーエイプリル,0
665,3040003020526,新規,0,2022-08-12,2022-08-12,合同会社７ＣＯＣＯ,,合同会社,千葉県,浦安市,高洲６丁目１番９－５０４号潮音の街,,12,227,2790023,,,,,,,2022-08-12,1,,,,,セブンココ,0
666,3040003020559,新規,0,2022-08-12,2022-08-12,合同会社てつまる,,合同会社,千葉県,千葉市中央区,富士見２丁目７番９号富士見ビル６０９号,,12,101,2600015,,,,,,,2022-08-12,1,,,,,テツマル,0
670,3050001051530,新規,0,2022-08-12,2022-08-12,株式会社ＰＲＥＳＴＯ　ＣＯＲＳＡ,,株式会社,茨城県,坂東市,神田山１３８０番地４,,08,228,3060617,,,,,,,2022-08-12,1,,,,,プレストコルサ,0
671,3050001051539,新規,0,2022-08-12,2022-08-12,株式会社ＮｅｘｔＩｎｎｏｖａｔｉｏｎ,,株式会社,茨城県,水戸市,鯉淵町１７８５番地の５－２Ｆ,,08,201,3190323,,,,,,,2022-08-12,1,,,,,ネクストイノベーション,0
679,3090001017734,新規,0,2022-08-12,2022-08-12,株式会社アルバライズ,,株式会社,山梨県,甲府市,中央１丁目１２－１０,,19,201,4000032,,,,,,,2022-08-12,1,,,,,,0
688,3120001247798,新規,0,2022-08-12,2022-08-12,株式会社ディーフィールド,,株式会社,大阪府,大阪市淀川区,西中島７丁目１番２６号,,27,123,5320011,,,,,,,2022-08-12,1,,,,,ディーフィールド,0
696,3120101066041,新規,0,2022-08-12,2022-08-12,ＭＳＬＩＮＥ株式会社,,株式会社,大阪府,松原市,田井城１丁目１２２－１０,,27,217,5800044,,,,,,,2022-08-12,1,,,,,エムエスライン,0
709,3140001127032,新規,0,2022-08-12,2022-08-12,株式会社堀部青果,,株式会社,兵庫県,南あわじ市,八木寺内９４５番地,,28,224,6560446,,,,,,,2022-08-12,1,,,,,ホリベセイカ,0
710,3140001127040,新規,0,2022-08-12,2022-08-12,株式会社安室塗研,,株式会社,兵庫県,姫路市,香寺町須加院３３８番地２１２,,28,201,6792132,,,,,,,2022-08-12,1,,,,,ヤスムロトケン,0
711,3140001127049,新規,0,2022-08-12,2022-08-12,株式会社Ｙ’ｓ　ｃｏｍｐａｎｙ,,株式会社,兵庫県,加古川市,加古川町稲屋９７１番地の４,,28,210,6750034,,,,,,,2022-08-12,1,,,,,ワイズカンパニー,0
712,3140001127057,新規,0,2022-08-12,2022-08-12,株式会社ｎｏｔｉｃｅ,,株式会社,兵庫県,西宮市,甲子園浦風町５番３－５０１号,,28,204,6638165,,,,,,,2022-08-12,1,,,,,ノーティス,0
713,3140001127065,新規,0,2022-08-12,2022-08-12,株式会社トラバサ,,株式会社,兵庫県,神戸市兵庫区,中道通７丁目１番１３－３０７号,,28,105,6520801,,,,,,,2022-08-12,1,,,,,トラバサ,0
714,3140001127073,新規,0,2022-08-12,2022-08-12,株式会社正華,,株式会社,兵庫県,神戸市中央区,熊内町５丁目９番４号林ビル２０１,,28,110,6510056,,,,,,,2022-08-12,1,,,,,セイカ,0
721,3140003018023,新規,0,2022-08-12,2022-08-12,兆合同会社,,合同会社,兵庫県,加古郡播磨町,古宮３２３番地の１７,,28,382,6750163,,,,,,,2022-08-12,1,,,,,キザシ,0
723,3150003002752,新規,0,2022-08-12,2022-08-12,合同会社ナチュラルアクト,,合同会社,奈良県,天理市,柳本町３４７５番地３,,29,204,6320052,,,,,,,2022-08-12,1,,,,,ナチュラルアクト,0
737,3180001152621,新規,0,2022-08-12,2022-08-12,株式会社ＥＩＫＯＨホールディングス,,株式会社,愛知県,名古屋市昭和区,山手通３丁目９番地の１,,23,107,4660815,,,,,,,2022-08-12,1,,,,,エイコーホールディングス,0
738,3180001152638,新規,0,2022-08-12,2022-08-12,ＣＵＢｅ株式会社,,株式会社,愛知県,名古屋市西区,長先町１９３番地,,23,104,4520838,,,,,,,2022-08-12,1,,,,,キューブ,0
745,3180305009377,新規,0,2022-08-12,2022-08-12,一般社団法人中部二胡之会,,その他の設立登記法人,愛知県,豊橋市,向山東町４番地２ギャラリーＳ２階,,23,201,4400863,,,,,,,2022-08-12,1,,,,,チュウブニコノカイ,0
748,3190001029686,新規,0,2022-08-12,2022-08-12,株式会社ｓｏｕｅｉ,,株式会社,三重県,桑名市,筒尾２丁目１３番地８,,24,205,5110901,,,,,,,2022-08-12,1,,,,,ソウエイ,0
749,3190001029694,新規,0,2022-08-12,2022-08-12,ＮＤホールディングス株式会社,,株式会社,三重県,松阪市,垣鼻町７５６番地,,24,204,5150033,,,,,,,2022-08-12,1,,,,,エヌディーホールディングス,0
754,3210001019040,新規,0,2022-08-12,2022-08-12,株式会社ＡＳＳＩＳＴＡＲ,,株式会社,福井県,福井市,田尻栃谷町第３８号３６番地５０,,18,201,9103606,,,,,,,2022-08-12,1,,,,,アシスター,0
760,3230005009250,新規,0,2022-08-12,2022-08-12,一般社団法人こ・こいるＴＯＹＡＭＡ,,その他の設立登記法人,富山県,富山市,奥田双葉町１５番３２－２１０号奥田双葉町ハイツＩ,00127504,16,201,9300851,,,,,,,2022-08-12,1,,,,,ココイルトヤマ,0
761,3240001060207,新規,0,2022-08-12,2022-08-12,株式会社オダ設備工業,,株式会社,広島県,広島市安佐南区,八木９丁目２２番７号,,34,105,7310101,,,,,,,2022-08-12,1,,,,,オダセツビコウギョウ,0
763,3250001019714,新規,0,2022-08-12,2022-08-12,株式会社ＳＩＮ,,株式会社,山口県,下関市,山の田中央町１番１８号,,35,201,7510837,,,,,,,2022-08-12,1,,,,,シン,0
772,3290001098556,新規,0,2022-08-12,2022-08-12,株式会社ネクストリープ,,株式会社,福岡県,宗像市,稲元４丁目１５番３３－１０５号,,40,220,8113406,,,,,,,2022-08-12,1,,,,,ネクストリープ,0
773,3290001098564,新規,0,2022-08-12,2022-08-12,株式会社飯塚千鳥屋,,株式会社,福岡県,飯塚市,本町４番２１号,,40,205,8200042,,,,,,,2022-08-12,1,,,,,イイヅカチドリヤ,0
774,3290001098606,新規,0,2022-08-12,2022-08-12,機整株式会社,,株式会社,福岡県,古賀市,小竹８４４－１,,40,223,8113135,,,,,,,2022-08-12,1,,,,,キセイ,0
776,3290003012829,新規,0,2022-08-12,2022-08-12,合同会社ＭＴ,,合同会社,福岡県,福岡市東区,筥松４丁目１６番５９－９０６号,,40,131,8120061,,,,,,,2022-08-12,1,,,,,エムティー,0
777,3290003012837,新規,0,2022-08-12,2022-08-12,合同会社Ｍ＆Ｔ,,合同会社,福岡県,柳川市,三橋町藤吉５２０番地４－９０４号,,40,207,8320824,,,,,,,2022-08-12,1,,,,,エムアンドティー,0
778,3290801028811,新規,0,2022-08-12,2022-08-12,株式会社Ｇ‐ｓｔｙｌｅ,,株式会社,福岡県,北九州市小倉南区,下城野２丁目１番１２号コーポ城野１０１号室,,40,107,8020804,,,,,,,2022-08-12,1,,,,,ジースタイル,0
779,3290805009576,新規,0,2022-08-12,2022-08-12,一般社団法人ＳＡＶＯＲＩＶＡ,,その他の設立登記法人,福岡県,北九州市小倉北区,井堀３丁目３番５号,,40,106,8030835,,,,,,,2022-08-12,1,,,,,サボリバ,0
781,3320001019269,新規,0,2022-08-12,2022-08-12,株式会社ＩＦＴ,,株式会社,大分県,別府市,大字鉄輪９番地の９－１０６,,44,202,8740000,,,,,,,2022-08-12,1,,,,,アイエフティ,0
783,3330001030019,新規,0,2022-08-12,2022-08-12,株式会社ＤＭ東建,,株式会社,熊本県,熊本市南区,護藤町９０６番,,43,104,8614117,,,,,,,2022-08-12,1,,,,,ディーエムトウケン,0
800,3410001013254,新規,0,2022-08-12,2022-08-12,株式会社アーククレスト,,株式会社,秋田県,横手市,雄物川町薄井字東鳥屋場３０番地１,,05,203,0130481,,,,,,,2022-08-12,1,,,,,,0
809,3430001087271,新規,0,2022-08-12,2022-08-12,株式会社ｍｉｌｌｉａｒｔ,,株式会社,北海道,札幌市北区,屯田八条１２丁目５番２７号,,01,102,0020858,,,,,,,2022-08-12,1,,,,,ミリアート,0
816,3450003002235,新規,0,2022-08-12,2022-08-12,合同会社Ｓ＆Ｅ,,合同会社,北海道,旭川市,神居一条１４丁目２番１５号マリーンハイツ３１０,,01,204,0708011,,,,,,,2022-08-12,1,,,,,,0
817,3460001005726,新規,0,2022-08-12,2022-08-12,株式会社ＡＲＩＳ,,株式会社,北海道,釧路市,鶴野東２丁目１９番７号,,01,206,0840923,,,,,,,2022-08-12,1,,,,,アリス,0
818,3460303000771,新規,0,2022-08-12,2022-08-12,合同会社時代家,,合同会社,北海道,網走市,南五条西１丁目６番地２,,01,211,0930015,,,,,,,2022-08-12,1,,,,,トキヤ,0
819,3480001011821,新規,0,2022-08-12,2022-08-12,株式会社ＤＤＥ徳島,,株式会社,徳島県,徳島市,名東町３丁目３７９番地３,,36,201,7700047,,,,,,,2022-08-12,1,,,,,ディーディーイートクシマ,0
825,3700150016433,新規,0,2022-08-12,2015-10-09,山梨県肢体不自由児協会,,その他,山梨県,甲府市,丸の内１丁目６－１山梨県福祉保健部障害福祉課内,,19,201,4000031,,,,,,,2015-10-09,1,,,,,ヤマナシケンシタイフジユウジキヨウカイ,0
827,3700150111176,新規,0,2022-08-12,2022-08-12,三島駅南口東街区Ａ地区市街地再開発組合,,その他,静岡県,三島市,一番町９番４５号,,22,206,4110036,,,,,,,2022-08-12,1,,,,,ミシマエキミナミグチヒガシガイクエーチクシガイチサイカイハツクミアイ,0
828,3700150111242,新規,0,2022-08-12,2022-08-12,誉聘実北＿展（上海）有限公司,00127497,外国会社等,,,,,,,,Ｒｏｏｍ　１８０７，Ｎｏ．１３，ｌａｎｅ　６５，ｈｕａｎｄｏｎｇ　ｙｉ　ｒｏａｄ，ｊｉｎｓｈａｎ　ｆｅｎｇｊｉｎｇ　ｔｏｗｎ　ｓｈａｎｇｈａｉ，Ｃｈｉｎａ,,,,,,2022-08-12,1,,,,,ヨヘイジツギヨウハツテンシヤンハイユウゲンコウシ,0
840,4010001228742,新規,0,2022-08-12,2022-08-12,グランディアキャリアパートナーズ株式会社,,株式会社,東京都,千代田区,飯田橋２丁目１６番４号九段下コート３０１号,,13,101,1020072,,,,,,,2022-08-12,1,,,,,グランディアキャリアパートナーズ,0
841,4010001228750,新規,0,2022-08-12,2022-08-12,株式会社ＬＩＢ,,株式会社,東京都,中央区,銀座１丁目２２番１１号銀座大竹ビジデンス２階,,13,102,1040061,,,,,,,2022-08-12,1,,,,,リブ,0
846,4010003038405,新規,0,2022-08-12,2022-08-12,合同会社フォルテ,,合同会社,東京都,中央区,銀座１丁目１２番４号Ｎ＆ＥＢＬＤ．６Ｆ,,13,102,1040061,,,,,,,2022-08-12,1,,,,,フォルテ,0
849,4010005035292,新規,0,2022-08-12,2022-08-12,一般社団法人みんなの研究所,,その他の設立登記法人,東京都,千代田区,神田神保町３丁目１番地６日建ビル１０階,,13,101,1010051,,,,,,,2022-08-12,1,,,,,ミンナノケンキュウジョ,0
853,4010403028162,新規,0,2022-08-12,2022-08-12,合同会社ナイン,,合同会社,東京都,港区,赤坂２丁目８番１４号ラミアール赤坂３０４号,,13,103,1070052,,,,,,,2022-08-12,1,,,,,ナイン,0
854,4010403028253,新規,0,2022-08-12,2022-08-12,ＳＳＲ企画合同会社,,合同会社,東京都,港区,六本木１丁目７番１０－１５１０号,,13,103,1060032,,,,,,,2022-08-12,1,,,,,エスエスアールキカク,0
857,4010501049218,新規,0,2022-08-12,2022-08-12,株式会社フレール,,株式会社,東京都,台東区,西浅草３丁目２５番２９号松山ビル３０１号,,13,106,1110035,,,,,,,2022-08-12,1,,,,,フレール,0
858,4010601061642,新規,0,2022-08-12,2022-08-12,株式会社グレイスポイント,,株式会社,東京都,江東区,有明１丁目４番１１－２１０３号,,13,108,1350063,,,,,,,2022-08-12,1,,,,,グレイスポイント,0
861,4010705003400,新規,0,2022-08-12,2022-08-12,税理士法人経営支援,,その他の設立登記法人,東京都,品川区,西五反田８丁目３番６号ＴＫ五反田ビル６Ｆ,,13,109,1410031,,,,,,,2022-08-12,1,,,,,ケイエイシエン,0
863,4010901051392,新規,0,2022-08-12,2022-08-12,ｌｏｖｅｒｌｙ株式会社,,株式会社,東京都,世田谷区,玉川２丁目１１番１１号,,13,112,1580094,,,,,,,2022-08-12,1,,,,,ロバリー,0
865,4010905004355,新規,0,2022-08-12,2022-08-12,特定非営利活動法人Ｇｒｅｅｎ　Ｗｉｔｃｈ,,その他の設立登記法人,東京都,世田谷区,粕谷１丁目１１番２２号,,13,112,1570063,,,,,,,2022-08-12,1,,,,,グリーンウィッチ,0
870,4011001149053,新規,0,2022-08-12,2022-08-12,Ｄ２Ｃ　ＳＯＬＵＴＩＯＮ株式会社,,株式会社,東京都,渋谷区,渋谷３丁目１番１号,,13,113,1500002,,,,,,,2022-08-12,1,,,,,ディーツーシーソリューション,0
872,4011003015187,新規,0,2022-08-12,2022-08-12,ＦＵＮＡＮＤＯ合同会社,,合同会社,東京都,渋谷区,幡ヶ谷２丁目２１番１号シャトレー幡ヶ谷８０６,,13,113,1510072,,,,,,,2022-08-12,1,,,,,ファナンド,0
873,4011003015204,新規,0,2022-08-12,2022-08-12,ＦＯＲＣＯ合同会社,,合同会社,東京都,渋谷区,道玄坂１丁目１０番８号渋谷道玄坂東急ビル２Ｆ－Ｃ,,13,113,1500043,,,,,,,2022-08-12,1,,,,,フォルコ,0
877,4011101099850,新規,0,2022-08-12,2022-08-12,ｋｕｎｉｏｋｏ　ｊａｐａｎ株式会社,,株式会社,東京都,新宿区,西新宿３丁目３番１３号西新宿水間ビル６階,,13,104,1600023,,,,,,,2022-08-12,1,,,,,クニオウコジャパン,0
878,4011101099859,新規,0,2022-08-12,2022-08-12,株式会社ｆｏｏｄｉｚｍ,,株式会社,東京都,新宿区,西新宿６丁目５番１号新宿アイランドタワー２階,,13,104,1600023,,,,,,,2022-08-12,1,,,,,フーディズム,0
882,4011103012051,新規,0,2022-08-12,2022-08-12,合同会社プロンティア,,合同会社,東京都,新宿区,大久保２丁目１０－１１－２０８,,13,104,1690072,,,,,,,2022-08-12,1,,,,,プロンティア,0
884,4011201024031,新規,0,2022-08-12,2022-08-12,リビング不動産販売株式会社,,株式会社,東京都,中野区,江古田４丁目３７番１２号,,13,114,1650022,,,,,,,2022-08-12,1,,,,,リビングフドウサンハンバイ,0
887,4011501028376,新規,0,2022-08-12,2022-08-12,株式会社友和工務店,,株式会社,東京都,荒川区,東尾久２丁目２２番１３号,,13,118,1160012,,,,,,,2022-08-12,1,,,,,ユウワコウムテン,0
888,4011601026148,新規,0,2022-08-12,2022-08-12,株式会社篤月,,株式会社,東京都,練馬区,関町北３丁目４番８－２０３号,,13,120,1770051,,,,,,,2022-08-12,1,,,,,トゲツ,0
891,4011801041129,新規,0,2022-08-12,2022-08-12,株式会社ＴＧＳ,,株式会社,東京都,足立区,舎人５丁目９番２号,,13,121,1210831,,,,,,,2022-08-12,1,,,,,ティージーエス,0
892,4011801041137,新規,0,2022-08-12,2022-08-12,株式会社コネクトプラン,,株式会社,東京都,足立区,西新井５丁目４１番１７号,,13,121,1230841,,,,,,,2022-08-12,1,,,,,コネクトプラン,0
898,4012401039521,新規,0,2022-08-12,2022-08-12,株式会社Ｎｉｃｅ　Ｄａｙ,,株式会社,東京都,武蔵野市,境南町２丁目３番１４号グローリア初穂武蔵境７０６室,,13,203,1800023,,,,,,,2022-08-12,1,,,,,ナイスデー,0
901,4012701017193,新規,0,2022-08-12,2022-08-12,株式会社ライト・ファースト,,株式会社,東京都,小平市,花小金井南町３丁目３２番５号,,13,211,1870003,,,,,,,2022-08-12,1,,,,,ライトファースト,0
904,4013101008997,新規,0,2022-08-12,2022-08-12,ＮＭ・ＴＲＵＳＴ株式会社,,株式会社,東京都,西多摩郡日の出町,大字平井２６３４番地２３,,13,305,1900182,,,,,,,2022-08-12,1,,,,,エヌエムトラスト,0
905,4013103001158,新規,0,2022-08-12,2022-08-12,スリーピークスジャパン合同会社,,合同会社,東京都,青梅市,野上町２丁目２７９番地の４,,13,205,1980032,,,,,,,2022-08-12,1,,,,,スリーピークスジャパン,0
909,4013303006262,新規,0,2022-08-12,2022-08-12,合同会社レオックス,,合同会社,東京都,豊島区,巣鴨４丁目２２－５巣鴨コーポラス４０１,,13,116,1700002,,,,,,,2022-08-12,1,,,,,レオックス,0
920,4020001147693,新規,0,2022-08-12,2022-08-12,株式会社ＧＯ‐コネクト,,株式会社,神奈川県,横浜市中区,日ノ出町１丁目２番地スカイコート横浜日ノ出町９１２号室,,14,104,2310066,,,,,,,2022-08-12,1,,,,,ゴーコネクト,0
921,4020001147768,新規,0,2022-08-12,2022-08-12,オンリーネスト株式会社,,株式会社,神奈川県,横浜市西区,みなとみらい６丁目３番４－４０８号,,14,103,2200012,,,,,,,2022-08-12,1,,,,,オンリーネスト,0
922,4020001147776,新規,0,2022-08-12,2022-08-12,日本軸研精工株式会社,,株式会社,神奈川県,横浜市南区,永楽町１丁目７番地２伊勢佐木町ダイカンプラザＣｉｔｙＩＩ１１０５号,00127499,14,105,2320031,,,,,,,2022-08-12,1,,,,,ニホンジクケンセイコウ,0
926,4020003022226,新規,0,2022-08-12,2022-08-12,合同会社ＳＥＥＫ,,合同会社,神奈川県,横浜市港南区,笹下６丁目２番２号,,14,111,2340052,,,,,,,2022-08-12,1,,,,,シーク,0
927,4020003022234,新規,0,2022-08-12,2022-08-12,合同会社ＩＮＴＪ,,合同会社,神奈川県,横浜市鶴見区,鶴見中央２丁目１１番１－６０７号,,14,101,2300051,,,,,,,2022-08-12,1,,,,,アイエヌティージェイ,0
928,4020005015624,新規,0,2022-08-12,2022-08-12,千葉税理士法人,,その他の設立登記法人,神奈川県,横浜市港北区,新吉田東５丁目７３番３４号,,14,109,2230058,,,,,,,2022-08-12,1,,,,,チバ,0
934,4021001076742,新規,0,2022-08-12,2022-08-12,Ｆｉｒｓｔ　Ｊｏｙｃｅ株式会社,,株式会社,神奈川県,藤沢市,辻堂東海岸４丁目１５番１７～２０６号,,14,205,2510045,,,,,,,2022-08-12,1,,,,,ファーストジョイス,0
935,4021001076750,新規,0,2022-08-12,2022-08-12,Ｌｏｎｇ　Ｔｒａｉｌ　Ｃｏｍｐａｎｙ株式会社,,株式会社,神奈川県,横須賀市,三春町２丁目１番地４第一大谷ビル２Ｆ,,14,201,2380014,,,,,,,2022-08-12,1,,,,,ロングトレイルカンパニー,0
938,4021003012035,新規,0,2022-08-12,2022-08-12,合同会社ＧＲＥＡＴ　ＣＯＮＤＩＴＩＯＮ,,合同会社,神奈川県,小田原市,本町３丁目７番１７号,,14,206,2500012,,,,,,,2022-08-12,1,,,,,グレートコンディション,0
939,4021005012586,新規,0,2022-08-12,2022-08-12,一般社団法人セントポールズセーリングクラブ,,その他の設立登記法人,神奈川県,三浦郡葉山町,堀内９００番地の１０,,14,301,2400112,,,,,,,2022-08-12,1,,,,,セントポールズセーリングクラブ,0
942,4030001149631,新規,0,2022-08-12,2022-08-12,株式会社エースブランド,,株式会社,埼玉県,越谷市,大字西方２９６５番地１－６０５,,11,222,3430822,,,,,,,2022-08-12,1,,,,,エースブランド,0
943,4030001149672,新規,0,2022-08-12,2022-08-12,株式会社Ｄｉｇｉｔａｌ　Ｇａｔｈｅｒ,,株式会社,埼玉県,さいたま市見沼区,大和田町２丁目１４９４番地２ベルテ北山参番館２０１号室,,11,104,3370053,,,,,,,2022-08-12,1,,,,,デジタルギャザー,0
950,4040001124641,新規,0,2022-08-12,2022-08-12,株式会社ＢＡＳＥ,,株式会社,千葉県,君津市,西原９５５番地２,,12,225,2920402,,,,,,,2022-08-12,1,,,,,ベース,0
951,4040001124658,新規,0,2022-08-12,2022-08-12,株式会社ＥＲＥ,,株式会社,千葉県,木更津市,中央２丁目７番２３－４０２号,,12,206,2920067,,,,,,,2022-08-12,1,,,,,イーアールイー,0
952,4040001124666,新規,0,2022-08-12,2022-08-12,株式会社フジイ,,株式会社,千葉県,千葉市中央区,生実町９４３番地１４,,12,101,2600813,,,,,,,2022-08-12,1,,,,,フジイ,0
953,4040001124690,新規,0,2022-08-12,2022-08-12,デジタルマート株式会社,,株式会社,千葉県,佐倉市,井野１５８６番地２５Ａ棟１０９号,,12,212,2850855,,,,,,,2022-08-12,1,,,,,デジタルマート,0
959,4040003020624,新規,0,2022-08-12,2022-08-12,ＡＣＴＹ・ＰＲＯ合同会社,,合同会社,千葉県,習志野市,奏の杜１丁目５－５－２０１,,12,216,2750028,,,,,,,2022-08-12,1,,,,,アクティプロ,0
960,4050001051521,新規,0,2022-08-12,2022-08-12,株式会社大聖工業,,株式会社,茨城県,神栖市,神栖１丁目１７番３２号Ｏｒｆｅｖｒｅ３０６,,08,232,3140143,,,,,,,2022-08-12,1,,,,,タイセイコウギョウ,0
961,4050001051538,新規,0,2022-08-12,2022-08-12,株式会社ＡＬＢＡＬＩＺＥ,,株式会社,茨城県,守谷市,ひがし野３丁目５番地１グリーンパーク守谷壱番館１０１,,08,224,3020131,,,,,,,2022-08-12,1,,,,,アルバライズ,0
962,4050003006762,新規,0,2022-08-12,2022-08-12,合同会社ＩＮＤＩＣＡ　ＥＮＴＥＲＰＲＩＳＥＳ,,合同会社,茨城県,筑西市,松原１２４８番地高野コーポ２０６号室,,08,227,3004541,,,,,,,2022-08-12,1,,,,,インディカエンタープライズ,0
970,4080101023475,新規,0,2022-08-12,2022-08-12,株式会社渡邉商事,,株式会社,静岡県,富士市,厚原６２９番地,,22,210,4190201,,,,,,,2022-08-12,1,,,,,ワタナベショウジ,0
971,4080103002634,新規,0,2022-08-12,2022-08-12,合同会社ベレストラテジ,,合同会社,静岡県,駿東郡長泉町,下土狩１５２番地の１,,22,342,4110943,,,,,,,2022-08-12,1,,,,,ベレストラテジ,0
976,4110001036879,新規,0,2022-08-12,2022-08-12,株式会社新潟不動産,,株式会社,新潟県,新潟市中央区,鏡が岡４番１４号１,,15,103,9500074,,,,,,,2022-08-12,1,,,,,ニイガタフドウサン,0
999,4120101066049,新規,0,2022-08-12,2022-08-12,株式会社ＰＲＯＧＲＥＳＳ,,株式会社,大阪府,泉佐野市,新安松２丁目３番３７－１０３号,,27,213,5980032,,,,,,,2022-08-12,1,,,,,プログレス,0
1000,4120101066065,新規,0,2022-08-12,2022-08-12,ｐｕｉ株式会社,,株式会社,大阪府,堺市堺区,賑町３丁２番６－３号,,27,141,5900066,,,,,,,2022-08-12,1,,,,,プイ,0
1001,4120101066073,新規,0,2022-08-12,2022-08-12,ＡＩＰ株式会社,,株式会社,大阪府,岸和田市,土生町２丁目３１番３１号,,27,202,5960825,,,,,,,2022-08-12,1,,,,,エーアイピー,0
1002,4120901046365,新規,0,2022-08-12,2022-08-12,ジンナリー株式会社,,株式会社,大阪府,吹田市,佐竹台１丁目５番１０－４０７号,,27,205,5650855,,,,,,,2022-08-12,1,,,,,ジンナリー,0
1006,4122001036148,新規,0,2022-08-12,2022-08-12,株式会社ＳＮＹ警備,,株式会社,大阪府,八尾市,山本町南８丁目３番６－２０４号,,27,212,5810013,,,,,,,2022-08-12,1,,,,,エスエヌワイケイビ,0
1011,4130001072435,新規,0,2022-08-12,2022-08-12,株式会社ＡＬＵＬＬＡ,,株式会社,京都府,京都市西京区,御陵北山下町７番地の１,,26,111,6158252,,,,,,,2022-08-12,1,,,,,アルーラ,0
1018,4140001127048,新規,0,2022-08-12,2022-08-12,山本鉄工所株式会社,,株式会社,兵庫県,姫路市,家島町坊勢６１番地,,28,201,6720103,,,,,,,2022-08-12,1,,,,,ヤマモトテッコウショ,0
1019,4140001127056,新規,0,2022-08-12,2022-08-12,プラドレッド株式会社,,株式会社,兵庫県,伊丹市,鋳物師５丁目８５番地,,28,207,6640011,,,,,,,2022-08-12,1,,,,,プラドレッド,0
1020,4140001127064,新規,0,2022-08-12,2022-08-12,株式会社ダイコーワークス,,株式会社,兵庫県,宝塚市,弥生町５番１‐１３２１号,,28,214,6650826,,,,,,,2022-08-12,1,,,,,ダイコーワークス,0
1021,4140001127072,新規,0,2022-08-12,2022-08-12,株式会社永晟,,株式会社,兵庫県,神戸市中央区,熊内町５丁目９番４号林ビル２０１,,28,110,6510056,,,,,,,2022-08-12,1,,,,,エイセイ,0
1022,4140001127089,新規,0,2022-08-12,2022-08-12,株式会社ファミリアインターナショナル,,株式会社,兵庫県,神戸市中央区,磯上通４丁目３番１０号,,28,110,6510086,,,,,,,2022-08-12,1,,,,,ファミリアインターナショナル,0
1024,4140005026279,新規,0,2022-08-12,2022-08-12,一般社団法人神戸播州物産振興会,,その他の設立登記法人,兵庫県,神戸市長田区,細田町７丁目１番９号,,28,106,6530835,,,,,,,2022-08-12,1,,,,,コウベバンシュウブッサンシンコウカイ,0
1025,4150001025762,新規,0,2022-08-12,2022-08-12,株式会社ＨＡＲＵ,,株式会社,奈良県,吉野郡大淀町,大字北野４６番地の１６,,29,442,6393125,,,,,,,2022-08-12,1,,,,,ハル,0
1037,4180001152587,新規,0,2022-08-12,2022-08-12,株式会社ＡｉＦｅｒｎａ,,株式会社,愛知県,名古屋市中区,丸の内１丁目５－１５ＧＲＡＮＤＥ　ＮＥＲＯ　３Ｆ,,23,106,4600002,,,,,,,2022-08-12,1,,,,,アイフェルナ,0
1045,4190001029685,新規,0,2022-08-12,2022-08-12,株式会社パレスピュア・イシカワ,,株式会社,三重県,鈴鹿市,南江島町２０番１０号,,24,207,5100235,,,,,,,2022-08-12,1,,,,,パレスピュアイシカワ,0
1046,4190001029693,新規,0,2022-08-12,2022-08-12,株式会社渡建,,株式会社,三重県,鈴鹿市,東庄内町４０９番地,,24,207,5190272,,,,,,,2022-08-12,1,,,,,ワタケン,0
1051,4200005013378,新規,0,2022-08-12,2022-08-12,医療法人尚栄会,,その他の設立登記法人,岐阜県,土岐市,泉町大富２２４番地の１１,,21,212,5095132,,,,,,,2022-08-12,1,,,,,ショウエイカイ,0
1054,4210003001549,新規,0,2022-08-12,2022-08-12,合同会社マグラック,,合同会社,福井県,福井市,花堂中２丁目２５番３号,,18,201,9188014,,,,,,,2022-08-12,1,,,,,マグラック,0
1057,4220001024988,新規,0,2022-08-12,2022-08-12,株式会社ｎａｎａｈａｃｈｉ,,株式会社,石川県,金沢市,松村町七丁目１３６番地,,17,201,9200347,,,,,,,2022-08-12,1,,,,,,0
1058,4230001019483,新規,0,2022-08-12,2022-08-12,株式会社ＴＡＳＫサービス,,株式会社,富山県,富山市,西中野町１丁目１番４号,,16,201,9398084,,,,,,,2022-08-12,1,,,,,タスクサービス,0
1059,4230003001902,新規,0,2022-08-12,2022-08-12,合同会社オフィスＹＭ,,合同会社,富山県,富山市,西田地方町３丁目８番２９号ＰＬＡＺＡ磯部４０２号室,,16,201,9398202,,,,,,,2022-08-12,1,,,,,オフィスワイエム,0
1063,4240001060214,新規,0,2022-08-12,2022-08-12,株式会社ハンクラ,,株式会社,広島県,広島市東区,牛田東２丁目２番１５号,,34,102,7320063,,,,,,,2022-08-12,1,,,,,ハンクラ,0
1064,4240001060222,新規,0,2022-08-12,2022-08-12,株式会社Ｂｌｏｏｍ,,株式会社,広島県,広島市中区,上幟町５番３－５０１号グリーンガーデン上幟,,34,101,7300014,,,,,,,2022-08-12,1,,,,,ブルーム,0
1065,4250001019721,新規,0,2022-08-12,2022-08-12,＿広産業株式会社,00127503,株式会社,山口県,山陽小野田市,大字津布田３９－１０,,35,216,7570011,,,,,,,2022-08-12,1,,,,,キンコウサンギョウ,0
1069,4260001037128,新規,0,2022-08-12,2022-08-12,株式会社てって,,株式会社,岡山県,岡山市北区,下伊福西町２番１６号,,33,101,7000054,,,,,,,2022-08-12,1,,,,,テッテ,0
1074,4290001098555,新規,0,2022-08-12,2022-08-12,株式会社新城不動産,,株式会社,福岡県,久留米市,小森野２丁目３番１－１号,,40,203,8300001,,,,,,,2022-08-12,1,,,,,シンジョウフドウサン,0
1075,4290003012844,新規,0,2022-08-12,2022-08-12,合同会社ドリーム・シフト,,合同会社,福岡県,小郡市,三国が丘４丁目１２０番地,,40,216,8380103,,,,,,,2022-08-12,1,,,,,ドリームシフト,0
1078,4290801028810,新規,0,2022-08-12,2022-08-12,株式会社ＫＯＡ,,株式会社,福岡県,北九州市八幡西区,黒崎２丁目４番１１号,,40,109,8060021,,,,,,,2022-08-12,1,,,,,コア,0
1089,4330001030018,新規,0,2022-08-12,2022-08-12,株式会社３Ｙ,,株式会社,熊本県,熊本市中央区,下通１丁目３番８号下通ＮＳビル６Ｆ,,43,101,8600807,,,,,,,2022-08-12,1,,,,,スリーワイ,0
1093,4340003003879,新規,0,2022-08-12,2022-08-12,合同会社ＪＯＯＯＹ,,合同会社,鹿児島県,奄美市,名瀬久里町９番地３,,46,222,8940022,,,,,,,2022-08-12,1,,,,,ジョイ,0
1114,4430001087262,新規,0,2022-08-12,2022-08-12,北海道イーズ株式会社,,株式会社,北海道,札幌市東区,北四十二条東１５丁目１番２１号松屋ビル１階,,01,103,0070842,,,,,,,2022-08-12,1,,,,,ホッカイドウイーズ,0
1115,4430001087270,新規,0,2022-08-12,2022-08-12,株式会社サン工業,,株式会社,北海道,札幌市豊平区,西岡四条７丁目１番４３－２１０号,,01,105,0620034,,,,,,,2022-08-12,1,,,,,サンコウギョウ,0
1116,4430001087279,新規,0,2022-08-12,2022-08-12,株式会社共栄企画,,株式会社,北海道,札幌市白石区,北郷２３４６番地１８２,,01,104,0030849,,,,,,,2022-08-12,1,,,,,キョウエイキカク,0
1117,4430001087304,新規,0,2022-08-12,2022-08-12,株式会社ＥＺＯ企画,,株式会社,北海道,札幌市手稲区,稲穂四条４丁目２０番５号,,01,109,0060034,,,,,,,2022-08-12,1,,,,,エゾキカク,0
1118,4430003014173,新規,0,2022-08-12,2022-08-12,合同会社Ｂｏｍｍａｃ,,合同会社,北海道,江別市,錦町４４番地の５錦町レントビル３階,,01,217,0690811,,,,,,,2022-08-12,1,,,,,ボンマック,0
1125,4500001024398,新規,0,2022-08-12,2022-08-12,株式会社マルタケ設備,,株式会社,愛媛県,松山市,高岡町３９８番地１３,,38,201,7918036,,,,,,,2022-08-12,1,,,,,マルタケセツビ,0
1126,4700150006929,新規,0,2022-08-12,2015-10-09,フラーレン・ナノチューブ・グラフェン学会,,その他,愛知県,名古屋市千種区,不老町名古屋大学未来材料・システム研究所未来エレクトロニクス集積研究センター　大野研究室内,,23,101,4640814,,,,,,,2015-10-09,1,,,,,フラーレンナノチユーブグラフエンガツカイ,0
1127,4700150111241,新規,0,2022-08-12,2022-08-12,＿波市＿州凱培徳商貿有限公司,00127495,外国会社等,,,,,,,,中国浙江省＿波市＿州区貿城西路１５７号１９２５室,00127496,,,,,2022-08-12,1,,,,,ネイハシギンシユウカイバイトクシヨウボウユウゲンコウシ,0
1136,5010001228717,新規,0,2022-08-12,2022-08-12,ヒューマニクス株式会社,,株式会社,東京都,中央区,日本橋久松町１１番８号,,13,102,1030005,,,,,,,2022-08-12,1,,,,,ヒューマニクス,0
1137,5010001228741,新規,0,2022-08-12,2022-08-12,株式会社サイドワークス,,株式会社,東京都,中央区,銀座１丁目１２－４Ｎ＆ＥＢＬＤ．７階,,13,102,1040061,,,,,,,2022-08-12,1,,,,,サイドワークス,0
1138,5010003038370,新規,0,2022-08-12,2022-08-12,合同会社日本カルチャーライスＣＬＵＢ,,合同会社,東京都,文京区,春日２丁目２４番１５号２Ｆ,,13,105,1120003,,,,,,,2022-08-12,1,,,,,ニホンカルチャーライスクラブ,0
1139,5010005035374,新規,0,2022-08-12,2022-08-12,リンク＆パートナーズ社会保険労務士法人,,その他の設立登記法人,東京都,千代田区,神田司町２丁目１０番地神田司町国土ビル６階,,13,101,1010048,,,,,,,2022-08-12,1,,,,,リンクアンドパートナーズ,0
1140,5010005035408,新規,0,2022-08-12,2022-08-12,一般社団法人原町ソーラーパーク,,その他の設立登記法人,東京都,千代田区,霞が関３丁目２番５号,,13,101,1000013,,,,,,,2022-08-12,1,,,,,ハラマチソーラーパーク,0
1141,5010401169040,新規,0,2022-08-12,2022-08-12,ＱｕｅｓｔｉｏｎＰｒｏ　Ｊａｐａｎ株式会社,,株式会社,東京都,港区,浜松町２丁目２番１５号浜松町ダイヤビル２Ｆ,,13,103,1050013,,,,,,,2022-08-12,1,,,,,クエスチョンプロジャパン,0
1142,5010401169049,新規,0,2022-08-12,2022-08-12,株式会社Ａｉｔｅ柔整師会,,株式会社,東京都,港区,赤坂２丁目１６番２１号,,13,103,1070052,,,,,,,2022-08-12,1,,,,,エイトジュウセイシカイ,0
1143,5010401169065,新規,0,2022-08-12,2022-08-12,株式会社Ｃａｔ　Ｆｉｓｈ,,株式会社,東京都,港区,浜松町２丁目２番１５号２Ｆ,,13,103,1050013,,,,,,,2022-08-12,1,,,,,キャットフィッシュ,0
1145,5010405021214,新規,0,2022-08-12,2022-08-12,ＫＩＣ春日部２特定目的会社,,その他の設立登記法人,東京都,港区,南青山４丁目２１番２６号リュエル青山Ｃ棟Ｂ１細谷総合会計事務所内,,13,103,1070062,,,,,,,2022-08-12,1,,,,,ケイアイシーカスカベツー,0
1149,5010601061666,新規,0,2022-08-12,2022-08-12,株式会社ＳＭＩＬＥ,,株式会社,東京都,江東区,平野２丁目８番５－１０７号,,13,108,1350023,,,,,,,2022-08-12,1,,,,,スマイル,0
1150,5010601061674,新規,0,2022-08-12,2022-08-12,株式会社Ｌｉｎｋ　Ｒｏｏｍ,,株式会社,東京都,江東区,清澄３丁目６番１５号オープンレジデンシア清澄白河１０２,,13,108,1350024,,,,,,,2022-08-12,1,,,,,リンクルーム,0
1158,5011001148970,新規,0,2022-08-12,2022-08-12,株式会社クォンタムイノヴェーション,,株式会社,東京都,渋谷区,神南１丁目２３－１４リージャス公園通りビル,,13,113,1500041,,,,,,,2022-08-12,1,,,,,クォンタムイノヴェーション,0
1159,5011001149151,新規,0,2022-08-12,2022-08-12,株式会社ＵＮＳＴＯＰ,,株式会社,東京都,渋谷区,神宮前６丁目２３－４桑野ビル２Ｆ,,13,113,1500001,,,,,,,2022-08-12,1,,,,,アンストップ,0
1160,5011001149168,新規,0,2022-08-12,2022-08-12,株式会社ｓｔｅｒｎ,,株式会社,東京都,渋谷区,神宮前２丁目２番３９－１２０３号ＴＨＥＣＯＵＲＴ神宮外苑,,13,113,1500001,,,,,,,2022-08-12,1,,,,,スターン,0
1161,5011001149201,新規,0,2022-08-12,2022-08-12,株式会社ＰＢＡＤＡＯ,,株式会社,東京都,渋谷区,代官山町１３－５代官山１３５ビル,,13,113,1500034,,,,,,,2022-08-12,1,,,,,パバダオ,0
1162,5011001149218,新規,0,2022-08-12,2022-08-12,株式会社ＴＲＵＳＴＹＯＵ,,株式会社,東京都,渋谷区,神宮前６丁目２３番４号桑野ビル２階,,13,113,1500001,,,,,,,2022-08-12,1,,,,,トラストユウ,0
1163,5011001149226,新規,0,2022-08-12,2022-08-12,山和住販株式会社,,株式会社,東京都,渋谷区,代々木１丁目３０番１４号,,13,113,1510053,,,,,,,2022-08-12,1,,,,,サンワジュウハン,0
1167,5011101099825,新規,0,2022-08-12,2022-08-12,コネクティングジャパン株式会社,,株式会社,東京都,新宿区,新宿６丁目２９番１１号新宿イーストクロスタワー１０Ｆ,,13,104,1600022,,,,,,,2022-08-12,1,,,,,コネクティングジャパン,0
1168,5011101099833,新規,0,2022-08-12,2022-08-12,ＴＫＯＮＥＸ株式会社,,株式会社,東京都,新宿区,新宿２丁目１５番９号２Ｒ,,13,104,1600022,,,,,,,2022-08-12,1,,,,,ティーケーオーネクス,0
1169,5011101099841,新規,0,2022-08-12,2022-08-12,株式会社瑞生通商,,株式会社,東京都,新宿区,歌舞伎町２丁目２番２０－１００５号,,13,104,1600021,,,,,,,2022-08-12,1,,,,,ミズエツウショウ,0
1174,5011201024030,新規,0,2022-08-12,2022-08-12,株式会社Ｆａｓａｉ　ＴＯＫＹＯ,,株式会社,東京都,中野区,若宮２丁目１３番３号,,13,114,1650033,,,,,,,2022-08-12,1,,,,,ファーサイトウキョウ,0
1176,5011403003749,新規,0,2022-08-12,2022-08-12,合同会社ｔｓｏｆｆｉｃｅ　ｓｈｏｐ,,合同会社,東京都,板橋区,小豆沢４丁目２３－１７－２０６,,13,119,1740051,,,,,,,2022-08-12,1,,,,,ティエスオフィスショップ,0
1181,5011801041128,新規,0,2022-08-12,2022-08-12,ＦＶＣ株式会社,,株式会社,東京都,足立区,千住３丁目６５アンコアール２０１号,,13,121,1200034,,,,,,,2022-08-12,1,,,,,エフヴィシー,0
1187,5013303006261,新規,0,2022-08-12,2022-08-12,コスモス合同会社,,合同会社,東京都,豊島区,東池袋４丁目３４番３号,,13,116,1700013,,,,,,,2022-08-12,1,,,,,コスモス,0
1190,5020001147684,新規,0,2022-08-12,2022-08-12,株式会社ｌｕｎｅｔｔｅｓ,,株式会社,神奈川県,川崎市宮前区,鷺沼３丁目２番地７,,14,136,2160004,,,,,,,2022-08-12,1,,,,,リュネッツ,0
1191,5020001147726,新規,0,2022-08-12,2022-08-12,株式会社エムライズコーポレーション,,株式会社,神奈川県,横浜市都筑区,池辺町３３２５番地,,14,118,2240053,,,,,,,2022-08-12,1,,,,,エムライズコーポレーション,0
1192,5020001147734,新規,0,2022-08-12,2022-08-12,株式会社Ｓ＆Ｈ,,株式会社,神奈川県,横浜市戸塚区,前田町５０２番地５サンクタス東戸塚８０８号,,14,110,2440804,,,,,,,2022-08-12,1,,,,,エスアンドエイチ,0
1193,5020001147767,新規,0,2022-08-12,2022-08-12,株式会社ワンゴール,,株式会社,神奈川県,川崎市幸区,幸町２丁目６８１番地２４,,14,132,2120011,,,,,,,2022-08-12,1,,,,,ワンゴール,0
1194,5020001147783,新規,0,2022-08-12,2022-08-12,株式会社ｐａｎｅｎｃａ,,株式会社,神奈川県,横浜市中区,西竹之丸１０７番地３チェリーハイツ山手１０３,,14,104,2310852,,,,,,,2022-08-12,1,,,,,パネンカ,0
1197,5020003022217,新規,0,2022-08-12,2022-08-12,合同会社スガオプレイス,,合同会社,神奈川県,川崎市宮前区,菅生３丁目１４番７号,,14,136,2160015,,,,,,,2022-08-12,1,,,,,スガオプレイス,0
1198,5020003022233,新規,0,2022-08-12,2022-08-12,合同会社クロコダイル,,合同会社,神奈川県,横浜市磯子区,洋光台３丁目１３－２－４０２,,14,107,2350045,,,,,,,2022-08-12,1,,,,,クロコダイル,0
1199,5020005015607,新規,0,2022-08-12,2022-08-12,一般社団法人千一,,その他の設立登記法人,神奈川県,横浜市磯子区,杉田８丁目１番６８号,,14,107,2350033,,,,,,,2022-08-12,1,,,,,センハジメ,0
1200,5021003012026,新規,0,2022-08-12,2022-08-12,合同会社レクレオ,,合同会社,神奈川県,相模原市緑区,橋本３丁目２７番６号,,14,151,2520143,,,,,,,2022-08-12,1,,,,,レクレオ,0
1209,5030001149614,新規,0,2022-08-12,2022-08-12,桜建設株式会社,,株式会社,埼玉県,上尾市,大字原市４１２６番地１２,,11,219,3620021,,,,,,,2022-08-12,1,,,,,サクラケンセツ,0
1210,5030001149639,新規,0,2022-08-12,2022-08-12,マーケティングＢＰＯ株式会社,,株式会社,埼玉県,狭山市,富士見１丁目１４番６号速玉テラス４０１,,11,215,3501306,,,,,,,2022-08-12,1,,,,,マーケティングビーピーオー,0
1211,5030003019971,新規,0,2022-08-12,2022-08-12,ｒｏｕｎｄ　ｒｏｏｆ合同会社,,合同会社,埼玉県,熊谷市,中央２丁目２６８番地２,,11,202,3600018,,,,,,,2022-08-12,1,,,,,ラウンドルーフ,0
1212,5040001124665,新規,0,2022-08-12,2022-08-12,株式会社長谷川エンジニアリング,,株式会社,千葉県,市原市,村上７８８番地２,,12,219,2900031,,,,,,,2022-08-12,1,,,,,ハセガワエンジニアリング,0
1214,5040003020581,新規,0,2022-08-12,2022-08-12,ＡＪ合同会社,,合同会社,千葉県,柏市,常盤台１番１４号,,12,217,2770087,,,,,,,2022-08-12,1,,,,,エイジェイ,0
1215,5040003020623,新規,0,2022-08-12,2022-08-12,合同会社ＯｎｅＳｍａｌｌＳｔｅｐ　Ｃｏｎｎｅｃｔ,,合同会社,千葉県,市原市,能満２０６１－１０８,,12,219,2900011,,,,,,,2022-08-12,1,,,,,ワンスモールステップコネクト,0
1217,5050001051529,新規,0,2022-08-12,2022-08-12,株式会社インテリア神足,,株式会社,茨城県,つくば市,松代５丁目８番地１０,,08,220,3050035,,,,,,,2022-08-12,1,,,,,インテリアコウタリ,0
1218,5050001051537,新規,0,2022-08-12,2022-08-12,レギスタン株式会社,,株式会社,茨城県,猿島郡境町,大字百戸４８５,,08,546,3060423,,,,,,,2022-08-12,1,,,,,レギスタン,0
1219,5050001051545,新規,0,2022-08-12,2022-08-12,株式会社ＫＯ‐ＣＯ,,株式会社,茨城県,石岡市,国府６丁目４番２０号ブリーロ石岡,,08,205,3150014,,,,,,,2022-08-12,1,,,,,ココ,0
1220,5050003006761,新規,0,2022-08-12,2022-08-12,合同会社城南実業,,合同会社,茨城県,水戸市,城南２丁目４番１３号キャスティーロ１０２号,,08,201,3100803,,,,,,,2022-08-12,1,,,,,ジョウナンジツギョウ,0
1225,5060003004186,新規,0,2022-08-12,2022-08-12,Ｖａｌｅｒｉｅ合同会社,,合同会社,栃木県,宇都宮市,西原１丁目１番４２号,,09,201,3200862,,,,,,,2022-08-12,1,,,,,ヴァレリ,0
1230,5080401025996,新規,0,2022-08-12,2022-08-12,加藤建材分割準備新株式会社,,株式会社,静岡県,浜松市中区,曳馬３丁目１４番２２号,,22,131,4300901,,,,,,,2022-08-12,1,,,,,カトウケンザイブンカツジュンビシン,0
1235,5100001035609,新規,0,2022-08-12,2022-08-12,株式会社Ｈｉｇｈ　ｓｃｏｒｅ,,株式会社,長野県,長野市,大字鶴賀上千歳町１４１３番地、３階,,20,201,3800821,,,,,,,2022-08-12,1,,,,,ハイスコア,0
1254,5120003022248,新規,0,2022-08-12,2022-08-12,阪急阪神不動産ジョインＰＨ‐Ｗ合同会社,,合同会社,大阪府,大阪市北区,芝田１丁目１番４号,,27,127,5300012,,,,,,,2022-08-12,1,,,,,ハンキュウハンシンフドウサンジョインピーエイチダブリュ,0
1255,5120003022256,新規,0,2022-08-12,2022-08-12,合同会社ＡＫＡＬＡ,,合同会社,大阪府,大阪市都島区,中野町４丁目２０番１号アーベイン桜ノ宮駅前３０１,,27,102,5340027,,,,,,,2022-08-12,1,,,,,アカラ,0
1256,5120003022272,新規,0,2022-08-12,2022-08-12,合同会社Ａ．Ａ,,合同会社,大阪府,大阪市東淀川区,菅原１丁目１３番１４号米虫ハイツ４０５号,,27,114,5330022,,,,,,,2022-08-12,1,,,,,エーエー,0
1260,5120101066056,新規,0,2022-08-12,2022-08-12,株式会社幸徳建装,,株式会社,大阪府,大阪狭山市,半田６丁目１１２９番地の１シティパレス狭山２０２,,27,231,5890011,,,,,,,2022-08-12,1,,,,,コウトクケンソウ,0
1264,5122001036139,新規,0,2022-08-12,2022-08-12,株式会社ＡＺ　ａｒｔ　ｄｅｎｔａｌ,,株式会社,大阪府,東大阪市,稲葉３丁目１１番２２号田中ビル３Ｆ,,27,227,5780925,,,,,,,2022-08-12,1,,,,,エーゼットアートデンタル,0
1269,5130001072401,新規,0,2022-08-12,2022-08-12,株式会社ＮＥＷ　ＮＥＸＵＳ,,株式会社,京都府,京都市伏見区,深草西伊達町８７－９２,,26,109,6120876,,,,,,,2022-08-12,1,,,,,ニューネクサス,0
1280,5140001127071,新規,0,2022-08-12,2022-08-12,株式会社Ｓｈｉｎｅ,,株式会社,兵庫県,神戸市中央区,北長狭通１丁目２０番９号,,28,110,6500012,,,,,,,2022-08-12,1,,,,,シャイン,0
1281,5140001127105,新規,0,2022-08-12,2022-08-12,美里工業株式会社,,株式会社,兵庫県,加古郡播磨町,古宮４丁目４－２６,,28,382,6750163,,,,,,,2022-08-12,1,,,,,ミサトコウギョウ,0
1285,5140003018021,新規,0,2022-08-12,2022-08-12,合同会社ＯＦＦ,,合同会社,兵庫県,洲本市,五色町広石上１５８番地,,28,205,6561333,,,,,,,2022-08-12,1,,,,,オフ,0
1288,5150001025761,新規,0,2022-08-12,2022-08-12,株式会社ＦｏｕｒＣｅｌｌ,,株式会社,奈良県,橿原市,内膳町４丁目４－８林ビル２Ｆ,,29,205,6340804,,,,,,,2022-08-12,1,,,,,フォーセル,0
1306,5180001152594,新規,0,2022-08-12,2022-08-12,Ｔ＆Ｎ株式会社,,株式会社,愛知県,名古屋市守山区,小幡千代田１６－２７,,23,113,4630053,,,,,,,2022-08-12,1,,,,,ティーアンドエヌ,0
1307,5180001152603,新規,0,2022-08-12,2022-08-12,株式会社ＲＤグローバルリンク,,株式会社,愛知県,名古屋市中村区,名駅３丁目２５番３号,,23,105,4500002,,,,,,,2022-08-12,1,,,,,アールディーグローバルリンク,0
1309,5180003024148,新規,0,2022-08-12,2022-08-12,合同会社五塔,,合同会社,愛知県,名古屋市中区,栄１丁目２２番２３号（藤和シティホームズ栄１５０２号）,,23,106,4600008,,,,,,,2022-08-12,1,,,,,ゴトウ,0
1310,5180003024156,新規,0,2022-08-12,2022-08-12,合同会社Ｒｅｔａｉｌｆａｃｔｏｒｙ,,合同会社,愛知県,一宮市,時之島字大東１０７番地１,,23,203,4910002,,,,,,,2022-08-12,1,,,,,リテールファクトリー,0
1314,5190001029684,新規,0,2022-08-12,2022-08-12,Ｒｅｎｏ　Ｓｙｓｔｅｍ株式会社,,株式会社,三重県,四日市市,諏訪栄町７番３４号,,24,202,5100086,,,,,,,2022-08-12,1,,,,,リノシステム,0
1315,5190001029692,新規,0,2022-08-12,2022-08-12,株式会社ＡＷＡ,,株式会社,三重県,津市,城山１丁目１４番２号,,24,201,5140818,,,,,,,2022-08-12,1,,,,,エーダブルエー,0
1320,5210001019039,新規,0,2022-08-12,2022-08-12,ＣＷＰ　ＧＬＯＢＡＬ株式会社,,株式会社,福井県,大野市,鍬掛第２号４番地１,,18,205,9120071,,,,,,,2022-08-12,1,,,,,シーダブリューピーグローバル,0
1321,5220001024987,新規,0,2022-08-12,2022-08-12,株式会社日本慧造,,株式会社,石川県,野々市市,三日市３丁目３２４,,17,212,9218806,,,,,,,2022-08-12,1,,,,,ニホンケイゾウ,0
1325,5250001019720,新規,0,2022-08-12,2022-08-12,株式会社ＳＵＮＴＩＥＲ,,株式会社,山口県,下関市,熊野町１丁目７番１２－１０２号,,35,201,7510852,,,,,,,2022-08-12,1,,,,,サンティア,0
1329,5290001098554,新規,0,2022-08-12,2022-08-12,株式会社Ｋ‐ｅａｔ,,株式会社,福岡県,福岡市博多区,比恵町１番１８号,,40,132,8120014,,,,,,,2022-08-12,1,,,,,ケーイート,0
1330,5290001098587,新規,0,2022-08-12,2022-08-12,株式会社蕎麦安武,,株式会社,福岡県,太宰府市,宰府２丁目７番１６号,,40,221,8180117,,,,,,,2022-08-12,1,,,,,ソバヤスタケ,0
1334,5320001019267,新規,0,2022-08-12,2022-08-12,匠建株式会社,,株式会社,大分県,大分市,大字政所２１５２番地の３,,44,201,8700268,,,,,,,2022-08-12,1,,,,,ショウケン,0
1347,5340001024959,新規,0,2022-08-12,2022-08-12,株式会社佐々ファーム,,株式会社,鹿児島県,志布志市,松山町尾野見２０７８番地,,46,221,8997603,,,,,,,2022-08-12,1,,,,,サッサファーム,0
1348,5340005009485,新規,0,2022-08-12,2022-08-12,一般社団法人野球専門大学,,その他の設立登記法人,鹿児島県,薩摩川内市,樋脇町市比野２４３４番地８,00127517,46,215,8951203,,,,,,,2022-08-12,1,,,,,ヤキュウセンモンダイガク,0
1349,5350001017904,新規,0,2022-08-12,2022-08-12,宮崎ひなたファーム株式会社,,株式会社,宮崎県,宮崎市,大字浮田清田迫１３６０番地１３,,45,201,8802104,,,,,,,2022-08-12,1,,,,,ミヤザキヒナタファーム,0
1358,5370005010523,新規,0,2022-08-12,2022-08-12,ロイヤルヴァンベール宮城蔵王管理組合法人,,その他の設立登記法人,宮城県,刈田郡蔵王町,遠刈田温泉字鬼石原１番地３７１,,04,301,9890916,,,,,,,2022-08-12,1,,,,,ロイヤルヴァンベールミヤギザオウ,0
1368,5430001087253,新規,0,2022-08-12,2022-08-12,Ａｕｔｏ　ＶＲ株式会社,,株式会社,北海道,札幌市中央区,北一条東４丁目１番地１サッポロファクトリー１条館,,01,101,0600031,,,,,,,2022-08-12,1,,,,,オートブイアール,0
1369,5430001087261,新規,0,2022-08-12,2022-08-12,株式会社つむぐ,,株式会社,北海道,札幌市清田区,平岡公園東５丁目７番１２号,,01,110,0040882,,,,,,,2022-08-12,1,,,,,ツムグ,0
1370,5430001087278,新規,0,2022-08-12,2022-08-12,株式会社オフィスリプル,,株式会社,北海道,札幌市中央区,南一条西１６丁目１番地３２３春野ビル３Ｆ,,01,101,0600061,,,,,,,2022-08-12,1,,,,,オフィスリプル,0
1371,5430003014180,新規,0,2022-08-12,2022-08-12,合同会社プロシード,,合同会社,北海道,札幌市中央区,南十一条西１１丁目２番３０号,,01,101,0640811,,,,,,,2022-08-12,1,,,,,プロシード,0
1374,5450001013769,新規,0,2022-08-12,2022-08-12,株式会社たちばな石材,,株式会社,北海道,旭川市,旭町一条１９丁目２１５７番地の２２,,01,204,0700831,,,,,,,2022-08-12,1,,,,,タチバナセキザイ,0
1375,5490003001693,新規,0,2022-08-12,2022-08-12,合同会社Ｌｙｒｉｓｃｈ　Ｃｏｄｅ,,合同会社,高知県,高知市,瀬戸南町２丁目８－５０,,39,201,7810253,,,,,,,2022-08-12,1,,,,,リリッシュコード,0
1382,5700150110143,新規,0,2022-08-12,2022-06-21,Ｓｔｏｋｅｓ／Ｐａｒｋ,,その他,東京都,世田谷区,経堂３丁目３３－１１ＨＯＰＥ１０３号室,,13,112,1560052,,,,,,,2022-06-21,1,,,,,ストークスパーク,0
1383,5700150111240,新規,0,2022-08-12,2022-08-12,百尚好（杭州）科技有限公司,,外国会社等,,,,,,,,中国浙江省杭州市上城区石祥路５９号４３号楼６０７室,,,,,,2022-08-12,1,,,,,ヒヤクシヨウコウコウシユウカギユウゲンコウシ,0
1391,6010001228716,新規,0,2022-08-12,2022-08-12,株式会社ＣＡＲ‐ＧＯ　ＢＲＩＤＧＥ,,株式会社,東京都,中央区,銀座６丁目６番１号,,13,102,1040061,,,,,,,2022-08-12,1,,,,,カーゴブリッジ,0
1392,6010001228724,新規,0,2022-08-12,2022-08-12,株式会社Ｋａｂｏｂ　Ｔｅｃｈｎｏｌｏｇｙ　Ｊａｐａｎ,,株式会社,東京都,千代田区,神田神保町１丁目５０浦野ビル７Ｆ,,13,101,1010051,,,,,,,2022-08-12,1,,,,,ケバブテクノロジージャパン,0
1393,6010001228749,新規,0,2022-08-12,2022-08-12,株式会社スカイアンドケイ,,株式会社,東京都,千代田区,神田美土代町１１番地７神田美土代ビル２階,,13,101,1010053,,,,,,,2022-08-12,1,,,,,スカイアンドケイ,0
1394,6010001228757,新規,0,2022-08-12,2022-08-12,八咫烏株式会社,,株式会社,東京都,中央区,銀座１丁目２０－１１銀座１２０ビル３階,,13,102,1040061,,,,,,,2022-08-12,1,,,,,ヤタガラス,0
1402,6010401169023,新規,0,2022-08-12,2022-08-12,モバイルアプリシステムズ株式会社,,株式会社,東京都,港区,南青山２丁目２番１５号,,13,103,1070062,,,,,,,2022-08-12,1,,,,,モバイルアプリシステムズ,0
1403,6010401169056,新規,0,2022-08-12,2022-08-12,Ｓｉｍｕｌａｃｒａ＆Ｓｉｍｕｌａｔｉｏｎ株式会社,,株式会社,東京都,港区,新橋２丁目１１番１０号,,13,103,1050004,,,,,,,2022-08-12,1,,,,,シミュラークルアンドシミュレーション,0
1409,6010601061624,新規,0,2022-08-12,2022-08-12,烽陶株式会社,,株式会社,東京都,江東区,亀戸２丁目４２－６日神パレステージ亀戸第２,,13,108,1360071,,,,,,,2022-08-12,1,,,,,ホウトウ,0
1410,6010601061681,新規,0,2022-08-12,2022-08-12,株式会社イズミワールド,,株式会社,東京都,江東区,牡丹３丁目２４番６－６０２号,,13,108,1350046,,,,,,,2022-08-12,1,,,,,イズミワールド,0
1413,6010801033200,新規,0,2022-08-12,2022-08-12,株式会社ＲｙａｎＧｒｅｅｎコンサルティング,,株式会社,東京都,大田区,久が原１丁目２２番９号,,13,111,1460085,,,,,,,2022-08-12,1,,,,,ライアングリーンコンサルティング,0
1414,6010803004257,新規,0,2022-08-12,2022-08-12,合同会社Ｍａｋｅ　Ｌａｂ,,合同会社,東京都,大田区,南六郷２丁目７番２号本道ビル２０１,,13,111,1440045,,,,,,,2022-08-12,1,,,,,メイクラボ,0
1417,6010901051399,新規,0,2022-08-12,2022-08-12,株式会社東盛トラベル,,株式会社,東京都,世田谷区,祖師谷１丁目１４番１４号,,13,112,1570072,,,,,,,2022-08-12,1,,,,,トウセイトラベル,0
1427,6011001149167,新規,0,2022-08-12,2022-08-12,株式会社小澤商事,,株式会社,東京都,渋谷区,東３丁目１５番８号,,13,113,1500011,,,,,,,2022-08-12,1,,,,,オザワショウジ,0
1428,6011001149175,新規,0,2022-08-12,2022-08-12,駅前ミュージアム株式会社,,株式会社,東京都,渋谷区,猿楽町１７番５号ＤＡＩＫＡＮＹＡＭＡＴ－ＳＩＴＥ蔦屋書店３号館２階,,13,113,1500033,,,,,,,2022-08-12,1,,,,,エキマエミュージアム,0
1429,6011001149191,新規,0,2022-08-12,2022-08-12,株式会社ＨＩ‐ＰＲＩＤＥ,,株式会社,東京都,渋谷区,東３丁目２５番１０号,,13,113,1500011,,,,,,,2022-08-12,1,,,,,ハイプライド,0
1430,6011001149225,新規,0,2022-08-12,2022-08-12,株式会社ミライピース,,株式会社,東京都,渋谷区,渋谷２丁目１９番１５号宮益坂ビルディング６０９,,13,113,1500002,,,,,,,2022-08-12,1,,,,,ミライピース,0
1435,6011101099824,新規,0,2022-08-12,2022-08-12,ＰＲＥＴＴＹ　ＰＯＲＫ　ＦＡＣＴＯＲＹ株式会社,,株式会社,東京都,新宿区,歌舞伎町１丁目１０番３号,,13,104,1600021,,,,,,,2022-08-12,1,,,,,プリティーポークファクトリー,0
1436,6011101099840,新規,0,2022-08-12,2022-08-12,株式会社バイタリティ,,株式会社,東京都,新宿区,西新宿２丁目４番１号新宿ＮＳビル１４階,,13,104,1600023,,,,,,,2022-08-12,1,,,,,バイタリティ,0
1437,6011101099849,新規,0,2022-08-12,2022-08-12,ＫＩＢＡＲＵ　ＳＵＰＰＯＲＴ　ＶＩＥＴＮＡＭ株式会社,,株式会社,東京都,新宿区,西新宿３丁目３番１３号西新宿水間ビル６Ｆ,,13,104,1600023,,,,,,,2022-08-12,1,,,,,キバルサポートベトナム,0
1438,6011101099857,新規,0,2022-08-12,2022-08-12,ｏｎｉｏｎ株式会社,,株式会社,東京都,新宿区,西新宿３丁目３番１３号西新宿水間ビル６階,,13,104,1600023,,,,,,,2022-08-12,1,,,,,オニオン,0
1439,6011103012058,新規,0,2022-08-12,2022-08-12,合同会社ＡＣプラン＆パートナーズ,,合同会社,東京都,新宿区,早稲田町８５番地９,,13,104,1620042,,,,,,,2022-08-12,1,,,,,エーシープランアンドパートナーズ,0
1444,6011501028374,新規,0,2022-08-12,2022-08-12,株式会社ムラケン,,株式会社,東京都,北区,中里１丁目９番１号,,13,117,1140015,,,,,,,2022-08-12,1,,,,,ムラケン,0
1445,6011801041119,新規,0,2022-08-12,2022-08-12,株式会社インテルノワーク,,株式会社,東京都,足立区,竹の塚２丁目１１番１６号,,13,121,1210813,,,,,,,2022-08-12,1,,,,,インテルノワーク,0
1446,6011801041135,新規,0,2022-08-12,2022-08-12,株式会社零,,株式会社,東京都,足立区,綾瀬３丁目２１－１３クラウド綾瀬２０１号室,,13,121,1200005,,,,,,,2022-08-12,1,,,,,レイ,0
1450,6012401039528,新規,0,2022-08-12,2022-08-12,ＯＦＦＩＣＥ　ＢＡＫＵＳＡＮ株式会社,,株式会社,東京都,小金井市,緑町２丁目１２－１５,,13,210,1840003,,,,,,,2022-08-12,1,,,,,オフィスバクサン,0
1451,6012403005544,新規,0,2022-08-12,2022-08-12,合同会社Ｔ‐ｗｏｒｋｓ,,合同会社,東京都,府中市,若松町２丁目７番地の１０ヴェラハイツ第２東府中陣屋２０３,,13,206,1830005,,,,,,,2022-08-12,1,,,,,ティーワークス,0
1459,6020001147675,新規,0,2022-08-12,2022-08-12,プロスハイ株式会社,,株式会社,神奈川県,横浜市港北区,樽町４丁目８番７号３０１,,14,109,2220001,,,,,,,2022-08-12,1,,,,,プロスハイ,0
1460,6020001147709,新規,0,2022-08-12,2022-08-12,株式会社トロンワークス,,株式会社,神奈川県,横浜市港北区,師岡町４６４番地ユーコート大倉山１０４号室,,14,109,2220002,,,,,,,2022-08-12,1,,,,,トロンワークス,0
1461,6020001147733,新規,0,2022-08-12,2022-08-12,中環アドバンスジャパン株式会社,,株式会社,神奈川県,川崎市幸区,堀川町５８０番地１６川崎テックセンター,,14,132,2120013,,,,,,,2022-08-12,1,,,,,チュウカンアドバンスジャパン,0
1462,6020001147741,新規,0,2022-08-12,2022-08-12,株式会社バイタリジェンス,,株式会社,神奈川県,横浜市港北区,新横浜１丁目２番１号Ｂ１０３,,14,109,2220033,,,,,,,2022-08-12,1,,,,,バイタリジェンス,0
1470,6020003022208,新規,0,2022-08-12,2022-08-12,合同会社Ｍ．Ａ　ＣＬＵＢ,,合同会社,神奈川県,横浜市緑区,三保町２１７７,,14,113,2260015,,,,,,,2022-08-12,1,,,,,エムエークラブ,0
1471,6020003022232,新規,0,2022-08-12,2022-08-12,おいも祭合同会社,,合同会社,神奈川県,横浜市鶴見区,平安町２丁目２８番地１ヨコハマアイランドガーデン８５２,,14,101,2300031,,,,,,,2022-08-12,1,,,,,オイモマツリ,0
1472,6020003022249,新規,0,2022-08-12,2022-08-12,合同会社Ｎａｔｕｒａｌ　Ｓｋｙ,,合同会社,神奈川県,川崎市幸区,大宮町３１番地１川崎ゲートタワー２１０３,,14,132,2120014,,,,,,,2022-08-12,1,,,,,ナチュラルスカイ,0
1488,6030001149621,新規,0,2022-08-12,2022-08-12,株式会社ヨシザワデザイン設備設計,,株式会社,埼玉県,さいたま市南区,別所７丁目１番３３号武蔵浦和駅前ハイツ１号棟５０２号室,,11,108,3360021,,,,,,,2022-08-12,1,,,,,ヨシザワデザインセツビセッケイ,0
1489,6030001149638,新規,0,2022-08-12,2022-08-12,株式会社Ｏｆｆｉｃｅ‐Ｓ,,株式会社,埼玉県,鴻巣市,宮地３丁目６番５８号,,11,217,3650075,,,,,,,2022-08-12,1,,,,,オフィスエス,0
1490,6030001149654,新規,0,2022-08-12,2022-08-12,株式会社ベアーキャット,,株式会社,埼玉県,川越市,霞ケ関東３丁目１３番地２６,,11,201,3501103,,,,,,,2022-08-12,1,,,,,ベアーキャット,0
1495,6030003019954,新規,0,2022-08-12,2022-08-12,合同会社光和,,合同会社,埼玉県,久喜市,上内１２７５番地２０１号室,,11,232,3400211,,,,,,,2022-08-12,1,,,,,コウワ,0
1496,6030003019979,新規,0,2022-08-12,2022-08-12,合同会社ファミリースペース,,合同会社,埼玉県,さいたま市浦和区,北浦和３丁目１９番８号,,11,107,3300074,,,,,,,2022-08-12,1,,,,,ファミリースペース,0
1497,6030003019987,新規,0,2022-08-12,2022-08-12,合同会社Ｔ２,,合同会社,埼玉県,川口市,差間３丁目３３番８号サンブリーズ２０４号,,11,203,3330816,,,,,,,2022-08-12,1,,,,,ティーツー,0
1499,6040001124656,新規,0,2022-08-12,2022-08-12,株式会社Ｔ‐ｒｙｎ,,株式会社,千葉県,松戸市,千駄堀１４４６番地の２２,,12,207,2702252,,,,,,,2022-08-12,1,,,,,ティーライン,0
1500,6040001124664,新規,0,2022-08-12,2022-08-12,株式会社えにし,,株式会社,千葉県,千葉市若葉区,高品町８９９番地１高品ハイツ２棟６０６号,,12,104,2640024,,,,,,,2022-08-12,1,,,,,エニシ,0
1501,6040001124680,新規,0,2022-08-12,2022-08-12,カサナレ株式会社,,株式会社,千葉県,木更津市,貝渕２丁目６番５１号,,12,206,2920833,,,,,,,2022-08-12,1,,,,,カサナレ,0
1502,6040003020597,新規,0,2022-08-12,2022-08-12,ＩＳＨＩＮ合同会社,,合同会社,千葉県,市川市,湊新田２丁目７番３号（エステートピアＫｅｉ１０１号）,,12,203,2720132,,,,,,,2022-08-12,1,,,,,イシン,0
1504,6050001051528,新規,0,2022-08-12,2022-08-12,すまいるＨＯＭＥ株式会社,,株式会社,茨城県,つくば市,梅園２丁目２６番地１３ＡＪテナント１０２,,08,220,3050045,,,,,,,2022-08-12,1,,,,,スマイルホーム,0
1505,6050001051536,新規,0,2022-08-12,2022-08-12,まるさん商会株式会社,,株式会社,茨城県,神栖市,大野原中央４丁目９番７５号,,08,232,3140128,,,,,,,2022-08-12,1,,,,,マルサンショウカイ,0
1506,6050003006760,新規,0,2022-08-12,2022-08-12,合同会社ＪＩＳＡ,,合同会社,茨城県,つくば市,花畑３丁目１３番地１０,,08,220,3003261,,,,,,,2022-08-12,1,,,,,ジーサ,0
1507,6050003006769,新規,0,2022-08-12,2022-08-12,合同会社定越,,合同会社,茨城県,つくば市,桜２丁目３８番地１２,,08,220,3050003,,,,,,,2022-08-12,1,,,,,サダゴエ,0
1511,6060001035174,新規,0,2022-08-12,2022-08-12,株式会社壱組,,株式会社,栃木県,塩谷郡高根沢町,大字宝積寺２２４８番地４７,,09,386,3291233,,,,,,,2022-08-12,1,,,,,イチグミ,0
1517,6080001025132,新規,0,2022-08-12,2022-08-12,株式会社ＡＯＴＹ,,株式会社,静岡県,静岡市駿河区,中野新田１２５番地の１,,22,102,4228051,,,,,,,2022-08-12,1,,,,,アオティ,0
1520,6080405007478,新規,0,2022-08-12,2022-08-12,特定非営利活動法人ＳＡＣ,,その他の設立登記法人,静岡県,磐田市,掛塚１４１２,,22,211,4380234,,,,,,,2022-08-12,1,,,,,サック,0
1521,6090005007506,新規,0,2022-08-12,2022-08-12,医療法人めぐみ会,,その他の設立登記法人,山梨県,中巨摩郡昭和町,上河東１３１３番地１,,19,384,4093862,,,,,,,2022-08-12,1,,,,,メグミカイ,0
1527,6120001248109,新規,0,2022-08-12,2022-08-12,株式会社エイト工業,,株式会社,大阪府,大阪市西淀川区,御幣島６丁目４番２６号,,27,113,5550012,,,,,,,2022-08-12,1,,,,,エイトコウギョウ,0
1528,6120001248117,新規,0,2022-08-12,2022-08-12,株式会社ＪＩＮ,,株式会社,大阪府,大阪市中央区,東心斎橋１丁目１９番１８号シンサイドビル２階,,27,128,5420083,,,,,,,2022-08-12,1,,,,,ジェイアイエヌ,0
1529,6120001248125,新規,0,2022-08-12,2022-08-12,株式会社ＫＲコーポレーション,,株式会社,大阪府,大阪市鶴見区,浜３丁目８－４３トレンディー鶴見３０８号室,,27,124,5380035,,,,,,,2022-08-12,1,,,,,ケイアールコーポレーション,0
1535,6120003022247,新規,0,2022-08-12,2022-08-12,ＣＰＭ　Ａｓｓｅｔｓ　Ｊａｐａｎ合同会社,,合同会社,大阪府,大阪市北区,芝田１丁目１番４号,,27,127,5300012,,,,,,,2022-08-12,1,,,,,シーピーエムアセッツジャパン,0
1538,6120101066055,新規,0,2022-08-12,2022-08-12,株式会社不二屋,,株式会社,大阪府,岸和田市,春木旭町５番２５号,,27,202,5960005,,,,,,,2022-08-12,1,,,,,フジヤ,0
1539,6120901046363,新規,0,2022-08-12,2022-08-12,光援協公株式会社,,株式会社,大阪府,吹田市,江の木町１７番３７－７０２号,,27,205,5640053,,,,,,,2022-08-12,1,,,,,コウエンキョウコウ,0
1541,6122001036146,新規,0,2022-08-12,2022-08-12,株式会社Ｉ．Ｋ．Ｏｎｅ,,株式会社,大阪府,柏原市,大県２丁目２番３号,,27,221,5820018,,,,,,,2022-08-12,1,,,,,アイケーワン,0
1546,6130001072375,新規,0,2022-08-12,2022-08-12,株式会社２ｎｄＳｔａｒ,,株式会社,京都府,福知山市,字前田１８７８番地の１３６,,26,201,6200867,,,,,,,2022-08-12,1,,,,,セカンドスター,0
1547,6130001072409,新規,0,2022-08-12,2022-08-12,株式会社プラトリ,,株式会社,京都府,京都市南区,久世殿城町５０番地１５,,26,107,6018205,,,,,,,2022-08-12,1,,,,,プラトリ,0
1551,6140001126980,新規,0,2022-08-12,2022-08-12,株式会社勝真建設,,株式会社,兵庫県,加西市,大村町５３４番地,,28,220,6752234,,,,,,,2022-08-12,1,,,,,ショウマケンセツ,0
1552,6140001127038,新規,0,2022-08-12,2022-08-12,株式会社有紀,,株式会社,兵庫県,神戸市中央区,栄町通３丁目４－１０,,28,110,6500023,,,,,,,2022-08-12,1,,,,,ユキ,0
1553,6140001127046,新規,0,2022-08-12,2022-08-12,株式会社Ｅｑｕａｌ,,株式会社,兵庫県,神戸市長田区,腕塚町９丁目７番１１号,,28,106,6530036,,,,,,,2022-08-12,1,,,,,イコール,0
1554,6140001127070,新規,0,2022-08-12,2022-08-12,株式会社うる,,株式会社,兵庫県,尼崎市,南武庫之荘８丁目２３番１５－３０７号,,28,202,6610033,,,,,,,2022-08-12,1,,,,,ウル,0
1556,6140003018020,新規,0,2022-08-12,2022-08-12,合同会社一路,,合同会社,兵庫県,姫路市,田井台２番地１０,,28,201,6712211,,,,,,,2022-08-12,1,,,,,イチロ,0
1573,6180001152536,新規,0,2022-08-12,2022-08-12,株式会社マルコ,,株式会社,愛知県,名古屋市名東区,照が丘２４２番地,,23,115,4650042,,,,,,,2022-08-12,1,,,,,マルコ,0
1574,6180001152569,新規,0,2022-08-12,2022-08-12,株式会社ケイインダストリー,,株式会社,愛知県,名古屋市緑区,黒沢台５丁目１３１６番地の２サンハウス黒沢台２Ｆ,,23,114,4580003,,,,,,,2022-08-12,1,,,,,ケイインダストリー,0
1575,6180001152619,新規,0,2022-08-12,2022-08-12,株式会社ティーアイ技研,,株式会社,愛知県,一宮市,大毛字長畑４５番地１,,23,203,4910132,,,,,,,2022-08-12,1,,,,,ティーアイギケン,0
1576,6180003024139,新規,0,2022-08-12,2022-08-12,リステート合同会社,,合同会社,愛知県,名古屋市北区,安井１丁目１６番６号,,23,103,4620023,,,,,,,2022-08-12,1,,,,,リステート,0
1577,6180003024147,新規,0,2022-08-12,2022-08-12,合同会社Ｓｕｇａｒｌｏａｆ　Ｇａｒｄｅｎ,,合同会社,愛知県,名古屋市瑞穂区,松栄町２丁目２３番地の２,,23,108,4670025,,,,,,,2022-08-12,1,,,,,シュガーローフガーデン,0
1579,6180301036538,新規,0,2022-08-12,2022-08-12,ウッドプランニング株式会社,,株式会社,愛知県,北設楽郡東栄町,大字東薗目字弓バ２２番地,,23,562,4490203,,,,,,,2022-08-12,1,,,,,ウッドプランニング,0
1582,6190001029683,新規,0,2022-08-12,2022-08-12,株式会社タナユウ,,株式会社,三重県,松阪市,中道町４０５番地６,,24,204,5152115,,,,,,,2022-08-12,1,,,,,タナユウ,0
1583,6190001029691,新規,0,2022-08-12,2022-08-12,株式会社スガワ・コーポレーション,,株式会社,三重県,南牟婁郡紀宝町,鵜殿９５６番地２,,24,562,5195701,,,,,,,2022-08-12,1,,,,,スガワコーポレーション,0
1584,6190005011729,新規,0,2022-08-12,2022-08-12,一般社団法人三重広域ＤＸプラットフォーム,,その他の設立登記法人,三重県,多気郡多気町,ヴィソン６７２番地１,,24,441,5192170,,,,,,,2022-08-12,1,,,,,ミエコウイキディーエックスプラットフォーム,0
1586,6200001040374,新規,0,2022-08-12,2022-08-12,株式会社サンシャイン,,株式会社,岐阜県,多治見市,笠原町上原１２５４－１,,21,204,5070901,,,,,,,2022-08-12,1,,,,,サンシャイン,0
1588,6210001019046,新規,0,2022-08-12,2022-08-12,株式会社野崎設計,00127501,株式会社,福井県,福井市,新保１丁目１４０６番地,,18,201,9100833,,,,,,,2022-08-12,1,,,,,ノザキセッケイ,0
1589,6210003001547,新規,0,2022-08-12,2022-08-12,合同会社コバヤシカット,,合同会社,福井県,坂井市,丸岡町栄２丁目３４４番地,,18,210,9100262,,,,,,,2022-08-12,1,,,,,コバヤシカット,0
1590,6220001024986,新規,0,2022-08-12,2022-08-12,環境微生物研究所株式会社,,株式会社,石川県,野々市市,末松３丁目５７０番地,,17,212,9218836,,,,,,,2022-08-12,1,,,,,カンキョウビセイブツケンキュウジョ,0
1597,6240001060220,新規,0,2022-08-12,2022-08-12,株式会社亨通総合サービス,,株式会社,広島県,広島市西区,中広町２丁目２６番１７号,,34,104,7330012,,,,,,,2022-08-12,1,,,,,コウツウソウゴウサービス,0
1599,6260001037150,新規,0,2022-08-12,2022-08-12,Ｋ・Ａｓｓｅｔ株式会社,,株式会社,岡山県,倉敷市,福田町福田７０５番地３,,33,202,7128041,,,,,,,2022-08-12,1,,,,,ケイアセット,0
1604,6290001098529,新規,0,2022-08-12,2022-08-12,株式会社ＢＩＧ　ＵＰ　ＪＡＰＡＮ,,株式会社,福岡県,福岡市西区,愛宕４丁目２番４５－６０５号,,40,135,8190015,,,,,,,2022-08-12,1,,,,,ビッグアップジャパン,0
1605,6290001098594,新規,0,2022-08-12,2022-08-12,株式会社ＳＩＳ,,株式会社,福岡県,糟屋郡篠栗町,中央３丁目１番１３号,,40,342,8112417,,,,,,,2022-08-12,1,,,,,シス,0
1608,6290003012842,新規,0,2022-08-12,2022-08-12,ＦＲＡＣＳ合同会社,,合同会社,福岡県,福岡市南区,平和２丁目６番２０－２０１号オクトス南山荘通,,40,134,8150071,,,,,,,2022-08-12,1,,,,,フラックス,0
1612,6320001019266,新規,0,2022-08-12,2022-08-12,株式会社石井牧場,,株式会社,大分県,宇佐市,院内町小平８３番地,,44,211,8720455,,,,,,,2022-08-12,1,,,,,イシイボクジョウ,0
1616,6330001030024,新規,0,2022-08-12,2022-08-12,Ｒ株式会社,,株式会社,熊本県,玉名市,岩崎７６４番地１,,43,206,8650016,,,,,,,2022-08-12,1,,,,,アール,0
1619,6330003009479,新規,0,2022-08-12,2022-08-12,合同会社ＢＥＡＲ　ＢＯＯＫ,,合同会社,熊本県,菊池郡菊陽町,大字原水４６５２番地１４５,,43,404,8691102,,,,,,,2022-08-12,1,,,,,ベアブック,0
1621,6340005009484,新規,0,2022-08-12,2022-08-12,一般社団法人長島大陸まちデザイン,,その他の設立登記法人,鹿児島県,出水郡長島町,鷹巣３７８６番地１４,,46,404,8991401,,,,,,,2022-08-12,1,,,,,ナガシマタイリクマチデザイン,0
1624,6360001030814,新規,0,2022-08-12,2022-08-12,株式会社立和,,株式会社,沖縄県,島尻郡南風原町,字宮城３０９番地３,,47,350,9011102,,,,,,,2022-08-12,1,,,,,リツワ,0
1637,6430001087252,新規,0,2022-08-12,2022-08-12,クライマ株式会社,,株式会社,北海道,札幌市手稲区,新発寒六条４丁目７番２１号,,01,109,0060806,,,,,,,2022-08-12,1,,,,,,0
1638,6430001087269,新規,0,2022-08-12,2022-08-12,株式会社三令社,,株式会社,北海道,札幌市豊平区,福住三条８丁目４番１９号,,01,105,0620043,,,,,,,2022-08-12,1,,,,,サンレイシャ,0
1645,6460301005092,新規,0,2022-08-12,2022-08-12,株式会社ＡＢＣ　Ｓｕｐｐｏｒｔｅｒ,,株式会社,北海道,北見市,川東６３２番地８,,01,208,0900807,,,,,,,2022-08-12,1,,,,,エービーシーサポーター,0
1648,6480001011819,新規,0,2022-08-12,2022-08-12,株式会社絆興業,,株式会社,徳島県,名西郡神山町,鬼籠野字坂瀬川４４－２,,36,342,7713203,,,,,,,2022-08-12,1,,,,,キズナコウギョウ,0
1660,7010001228715,新規,0,2022-08-12,2022-08-12,株式会社ＳｐｒＡｕｔ　Ａｃｃｏｕｎｔｉｎｇ,,株式会社,東京都,中央区,日本橋小舟町８－１３,,13,102,1030024,,,,,,,2022-08-12,1,,,,,スプラウトアカウンティング,0
1661,7010001228723,新規,0,2022-08-12,2022-08-12,Ｉｎｄｕｓｔｒｙ　Ａｌｐｈａ株式会社,,株式会社,東京都,文京区,本郷４丁目１－１菊花ビル７０１,,13,105,1130033,,,,,,,2022-08-12,1,,,,,インダストリーアルファ,0
1662,7010001228748,新規,0,2022-08-12,2022-08-12,株式会社ＹＡＴＴＯエンタテインメント,,株式会社,東京都,中央区,銀座１丁目１２番４号Ｎ＆ＥＢＬＤ．６Ｆ,,13,102,1040061,,,,,,,2022-08-12,1,,,,,ヤットエンタテインメント,0
1664,7010003038385,新規,0,2022-08-12,2022-08-12,エクスワット・デジタル合同会社,,合同会社,東京都,中央区,日本橋１丁目１８番１４号,,13,102,1030027,,,,,,,2022-08-12,1,,,,,エクスワットデジタル,0
1665,7010003038402,新規,0,2022-08-12,2022-08-12,合同会社ブルーム・エフ,,合同会社,東京都,中央区,銀座８丁目１０番５号ＤＥＮＳＡＮビルＧ－１８２１７,,13,102,1040061,,,,,,,2022-08-12,1,,,,,ブルームエフ,0
1668,7010005035372,新規,0,2022-08-12,2022-08-12,プラウド税理士法人,,その他の設立登記法人,東京都,千代田区,神田猿楽町２丁目８－１１,,13,101,1010064,,,,,,,2022-08-12,1,,,,,プラウド,0
1672,7010401169039,新規,0,2022-08-12,2022-08-12,株式会社Ｈ　Ｓｍａｒｔ,,株式会社,東京都,港区,南青山３丁目１番３号スプライン青山東急ビル４階,,13,103,1070062,,,,,,,2022-08-12,1,,,,,エイチスマート,0
1673,7010401169047,新規,0,2022-08-12,2022-08-12,株式会社ＥＢＩＮ,,株式会社,東京都,港区,六本木７丁目７番１３－２６０２号,,13,103,1060032,,,,,,,2022-08-12,1,,,,,エビン,0
1676,7010403028250,新規,0,2022-08-12,2022-08-12,うなじうなぎ合同会社,,合同会社,東京都,港区,南青山２丁目２番１５号,,13,103,1070062,,,,,,,2022-08-12,1,,,,,ウナジウナギ,0
1677,7010501049231,新規,0,2022-08-12,2022-08-12,シェアステート株式会社,,株式会社,東京都,台東区,東上野５丁目２４－１２イーストＵビル７Ｆ,,13,106,1100015,,,,,,,2022-08-12,1,,,,,シェアステート,0
1680,7010603009686,新規,0,2022-08-12,2022-08-12,合同会社産業保健総合事務所,,合同会社,東京都,江東区,南砂３丁目１４番２２号３０１,,13,108,1360076,,,,,,,2022-08-12,1,,,,,サンギョウホケンソウゴウジムショ,0
1684,7010703006344,新規,0,2022-08-12,2022-08-12,合同会社サンフラワー,,合同会社,東京都,品川区,戸越１丁目２２番３号,,13,109,1420041,,,,,,,2022-08-12,1,,,,,サンフラワー,0
1685,7010801033199,新規,0,2022-08-12,2022-08-12,株式会社美鈴,,株式会社,東京都,大田区,西六郷３丁目１７番３号,,13,111,1440056,,,,,,,2022-08-12,1,,,,,ミスズ,0
1686,7010803004256,新規,0,2022-08-12,2022-08-12,Ｂｅａｕｔｉｆｕｌ　Ｌｉｖｅｓ合同会社,,合同会社,東京都,大田区,南六郷１丁目１６番２０号,,13,111,1440045,,,,,,,2022-08-12,1,,,,,ビューティフルライブス,0
1695,7011001148845,新規,0,2022-08-12,2022-08-12,株式会社Ｅｎｚｉｎｅ,,株式会社,東京都,渋谷区,道玄坂１丁目１０番８号渋谷道玄坂東急ビル２Ｆ－Ｃ,,13,113,1500043,,,,,,,2022-08-12,1,,,,,エンジン,0
1696,7011001148977,新規,0,2022-08-12,2022-08-12,株式会社ＳＨＥＬＬＰＩＳＨ,,株式会社,東京都,渋谷区,広尾４丁目１－２７－５０９,,13,113,1500012,,,,,,,2022-08-12,1,,,,,シェルピッシュ,0
1697,7011001149109,新規,0,2022-08-12,2022-08-12,株式会社ワンズブルーム,,株式会社,東京都,渋谷区,広尾１丁目１－３１,,13,113,1500012,,,,,,,2022-08-12,1,,,,,,0
1698,7011001149166,新規,0,2022-08-12,2022-08-12,株式会社ＬＥＹＬＹＳ　ＴＯＫＹＯ,,株式会社,東京都,渋谷区,神宮前２丁目２０番１２号２Ａ,,13,113,1500001,,,,,,,2022-08-12,1,,,,,レイリーズトウキョウ,0
1699,7011001149174,新規,0,2022-08-12,2022-08-12,フォルトゥーナトレーディング株式会社,,株式会社,東京都,目黒区,洗足２丁目２７番１０－１０２号,,13,110,1520012,,,,,,,2022-08-12,1,,,,,フォルトゥーナトレーディング,0
1700,7011001149182,新規,0,2022-08-12,2022-08-12,大和国株式会社,,株式会社,東京都,目黒区,目黒１丁目４番１６号,,13,110,1530063,,,,,,,2022-08-12,1,,,,,ヤマトノクニ,0
1701,7011001149190,新規,0,2022-08-12,2022-08-12,株式会社ｐｉｃ‐ｓｔｅｐ,,株式会社,東京都,渋谷区,幡ヶ谷２丁目９番１１号幡ヶ谷ＤＫビル２Ｆ,,13,113,1510072,,,,,,,2022-08-12,1,,,,,ピックステップ,0
1702,7011001149208,新規,0,2022-08-12,2022-08-12,株式会社Ｂｅｎｅｔａｇｅ,,株式会社,東京都,渋谷区,神山町１０番４－５０２号ルーエ渋谷神山町,,13,113,1500047,,,,,,,2022-08-12,1,,,,,ベネテージ,0
1703,7011001149240,新規,0,2022-08-12,2022-08-12,Ｒｅｍａｋｅ　ｅａｓｙ株式会社,,株式会社,東京都,渋谷区,渋谷３丁目２６番１２号３０２,,13,113,1500002,,,,,,,2022-08-12,1,,,,,リメークイージー,0
1704,7011003015201,新規,0,2022-08-12,2022-08-12,合同会社ＴＯＭＡＴＯ,,合同会社,東京都,渋谷区,恵比寿西２丁目８番９号代官山宝ビルＩＩＩ三階,00127505,13,113,1500021,,,,,,,2022-08-12,1,,,,,トマト,0
1707,7011103012057,新規,0,2022-08-12,2022-08-12,ＧＮＭ合同会社,,合同会社,東京都,新宿区,西新宿３丁目３番１３号西新宿水間ビル６Ｆ,,13,104,1600023,,,,,,,2022-08-12,1,,,,,ジーエヌエム,0
1709,7011201024029,新規,0,2022-08-12,2022-08-12,株式会社ゼンワ,,株式会社,東京都,中野区,白鷺２丁目３５番８号,,13,114,1650035,,,,,,,2022-08-12,1,,,,,ゼンワ,0
1714,7011801041118,新規,0,2022-08-12,2022-08-12,株式会社ＵＥＤＡ,,株式会社,東京都,葛飾区,青戸５丁目１９番９号,,13,122,1250062,,,,,,,2022-08-12,1,,,,,ウエダ,0
1715,7011801041134,新規,0,2022-08-12,2022-08-12,株式会社ふたつ星,,株式会社,東京都,葛飾区,新小岩２丁目４０番１２号,,13,122,1240024,,,,,,,2022-08-12,1,,,,,フタツボシ,0
1716,7012401039527,新規,0,2022-08-12,2022-08-12,株式会社フォーウェイズテクノロジー,,株式会社,東京都,府中市,寿町１丁目１番１１号第２福井ビル３Ｆ,,13,206,1830056,,,,,,,2022-08-12,1,,,,,フォーウェイズテクノロジー,0
1717,7012403005543,新規,0,2022-08-12,2022-08-12,合同会社Ｍｅｔ’ｓ,,合同会社,東京都,武蔵野市,吉祥寺南町１丁目２番２号東山ビル地下１階,,13,203,1800003,,,,,,,2022-08-12,1,,,,,メッツ,0
1719,7012801021778,新規,0,2022-08-12,2022-08-12,株式会社ライフサイズ,,株式会社,東京都,昭島市,中神町１１３６番地２８ＲｉｓｉｎｇＳｕｎ１０１号,,13,207,1960022,,,,,,,2022-08-12,1,,,,,ライフサイズ,0
1720,7013301049500,新規,0,2022-08-12,2022-08-12,株式会社エクストリームズ,,株式会社,東京都,豊島区,南池袋２丁目３０番８号,,13,116,1710022,,,,,,,2022-08-12,1,,,,,エクストリームズ,0
1721,7013301049509,新規,0,2022-08-12,2022-08-12,株式会社ＡＺＵＬＢＬＵＥ,,株式会社,東京都,豊島区,南長崎５丁目３１番１４号田中荘店舗１０３号室,,13,116,1710052,,,,,,,2022-08-12,1,,,,,アズールブルー,0
1728,7020001147682,新規,0,2022-08-12,2022-08-12,株式会社ぐるり,,株式会社,神奈川県,横浜市保土ケ谷区,常盤台７９－１,,14,106,2400067,,,,,,,2022-08-12,1,,,,,グルリ,0
1729,7020001147740,新規,0,2022-08-12,2022-08-12,株式会社ＦＩＶＥ　ＳＥＮＳＥＳ,,株式会社,神奈川県,横浜市港北区,新横浜１丁目２番１号Ｂ１０３,,14,109,2220033,,,,,,,2022-08-12,1,,,,,ファイブセンス,0
1730,7020001147757,新規,0,2022-08-12,2022-08-12,株式会社秀和マネジメント,,株式会社,神奈川県,横浜市港南区,上大岡西３丁目４番４－４０１号,,14,111,2330002,,,,,,,2022-08-12,1,,,,,シュウワマネジメント,0
1737,7020003022215,新規,0,2022-08-12,2022-08-12,オウタム合同会社,,合同会社,神奈川県,川崎市多摩区,菅仙谷３丁目１番２５－３０２号,,14,135,2140006,,,,,,,2022-08-12,1,,,,,オウタム,0
1738,7020003022223,新規,0,2022-08-12,2022-08-12,Ｃｏｎｔｅ　Ｍｕｓｉｃ　Ｇｒｏｕｐ合同会社,,合同会社,神奈川県,川崎市宮前区,宮崎２丁目２号７番,,14,136,2160033,,,,,,,2022-08-12,1,,,,,コンテミュージックグループ,0
1749,7030001149604,新規,0,2022-08-12,2022-08-12,スリーエスエンタテインメント株式会社,,株式会社,埼玉県,川越市,大字寺尾７６３番地５,,11,201,3501141,,,,,,,2022-08-12,1,,,,,スリーエスエンタテインメント,0
1753,7030003019904,新規,0,2022-08-12,2022-08-12,愛華合同会社,,合同会社,埼玉県,さいたま市見沼区,東大宮７丁目４６－５－１０２,,11,104,3370051,,,,,,,2022-08-12,1,,,,,アイカ,0
1754,7030003019961,新規,0,2022-08-12,2022-08-12,合同会社ＷＯＲＬＤ　ＳＵＲＦ　ＶＩＳＩＯＮ,,合同会社,埼玉県,さいたま市北区,盆栽町１２５番地,,11,102,3310805,,,,,,,2022-08-12,1,,,,,ワールドサーフビジョン,0
1755,7030003019986,新規,0,2022-08-12,2022-08-12,メモリアル合同会社,,合同会社,埼玉県,川越市,大字的場１９４２番地１,,11,201,3501101,,,,,,,2022-08-12,1,,,,,メモリアル,0
1763,7040001124630,新規,0,2022-08-12,2022-08-12,株式会社ＫｅｎｃｏｒｅＤｉａ,,株式会社,千葉県,浦安市,日の出２丁目１６番１８号,,12,227,2790013,,,,,,,2022-08-12,1,,,,,ケンコルディア,0
1764,7040001124639,新規,0,2022-08-12,2022-08-12,株式会社オーエムイノベーション,,株式会社,千葉県,浦安市,猫実３丁目２２番１７号,,12,227,2790004,,,,,,,2022-08-12,1,,,,,オーエムイノベーション,0
1765,7040001124647,新規,0,2022-08-12,2022-08-12,株式会社ＭＩＬＩＫＯ,,株式会社,千葉県,印旛郡栄町,安食台６丁目８番４号,,12,329,2701515,,,,,,,2022-08-12,1,,,,,ミリコ,0
1766,7040001124671,新規,0,2022-08-12,2022-08-12,株式会社ＴＯＭＭＹ　ＶＥＲＳＥ,,株式会社,千葉県,印旛郡酒々井町,東酒々井５丁目５－２２,,12,322,2850923,,,,,,,2022-08-12,1,,,,,トミーバース,0
1769,7040003020547,新規,0,2022-08-12,2022-08-12,合同会社ＫＩ,,合同会社,千葉県,君津市,杢師２丁目１０番４１号,,12,225,2991163,,,,,,,2022-08-12,1,,,,,ケーアイ,0
1772,7050001051519,新規,0,2022-08-12,2022-08-12,株式会社クレイン商会,,株式会社,茨城県,土浦市,中村西根番外１３番地１１中村西根アパートＩＩ２０１,00127515,08,203,3000849,,,,,,,2022-08-12,1,,,,,クレインショウカイ,0
1773,7050001051527,新規,0,2022-08-12,2022-08-12,株式会社エネルギーファクトリー,,株式会社,茨城県,坂東市,神田山１６２１番地３,,08,228,3060617,,,,,,,2022-08-12,1,,,,,エネルギーファクトリー,0
1774,7050001051535,新規,0,2022-08-12,2022-08-12,Ｂ‐ＣａＬＬ株式会社,,株式会社,茨城県,つくば市,研究学園３丁目３番地,,08,220,3050817,,,,,,,2022-08-12,1,,,,,ビーコール,0
1775,7050001051551,新規,0,2022-08-12,2022-08-12,株式会社クラシックスタジオ,,株式会社,茨城県,結城市,大字小田林２５１６番地１４,,08,207,3070007,,,,,,,2022-08-12,1,,,,,クラシックスタジオ,0
1777,7060001035165,新規,0,2022-08-12,2022-08-12,マックトレスメイト株式会社,,株式会社,栃木県,小山市,粟宮１丁目１３番４号,,09,208,3290201,,,,,,,2022-08-12,1,,,,,マックトレスメイト,0
1778,7060001035173,新規,0,2022-08-12,2022-08-12,株式会社太心,,株式会社,栃木県,足利市,五十部町５５番地,,09,202,3260843,,,,,,,2022-08-12,1,,,,,タイシン,0
1785,7080001025131,新規,0,2022-08-12,2022-08-12,株式会社アクティブラン,,株式会社,静岡県,静岡市駿河区,八幡５丁目１５番１８号,,22,102,4228076,,,,,,,2022-08-12,1,,,,,アクティブラン,0
1791,7090005007505,新規,0,2022-08-12,2022-08-12,医療法人桜花会,,その他の設立登記法人,山梨県,甲斐市,島上条３６８番地１,,19,210,4000123,,,,,,,2022-08-12,1,,,,,オウカカイ,0
1795,7100001035607,新規,0,2022-08-12,2022-08-12,株式会社ＭＩＹＡ　Ｓｐｏｒｔｓ　Ｌａｂ,,株式会社,長野県,須坂市,大字仁礼字峰の原３１５３番地８７７,,20,207,3862211,,,,,,,2022-08-12,1,,,,,ミヤスポーツラボ,0
1810,7120001248108,新規,0,2022-08-12,2022-08-12,パインヒルズパートナーズ株式会社,,株式会社,大阪府,大阪市中央区,難波４丁目１番１５号近鉄難波ビル,,27,128,5420076,,,,,,,2022-08-12,1,,,,,パインヒルズパートナーズ,0
1811,7120001248116,新規,0,2022-08-12,2022-08-12,株式会社加賀美,,株式会社,大阪府,大阪市北区,東天満２丁目３番７－１４０５号,,27,127,5300044,,,,,,,2022-08-12,1,,,,,カガミ,0
1820,7120101066070,新規,0,2022-08-12,2022-08-12,株式会社西岡工業,,株式会社,大阪府,岸和田市,別所町３丁目３９番２３号,,27,202,5960045,,,,,,,2022-08-12,1,,,,,ニシオカコウギョウ,0
1822,7120105009612,新規,0,2022-08-12,2022-08-12,一般社団法人大阪府相続支援協会,,その他の設立登記法人,大阪府,堺市堺区,北瓦町２丁２番１１号,,27,141,5900076,,,,,,,2022-08-12,1,,,,,オオサカフソウゾクシエンキョウカイ,0
1825,7120901046354,新規,0,2022-08-12,2022-08-12,Ｎｅｘ株式会社,,株式会社,大阪府,豊中市,中桜塚１丁目２３番１０号,,27,203,5610881,,,,,,,2022-08-12,1,,,,,ネックス,0
1827,7120903004269,新規,0,2022-08-12,2022-08-12,ＳＫＴ合同会社,,合同会社,大阪府,吹田市,南金田１丁目８番１１－１２０２号,,27,205,5640044,,,,,,,2022-08-12,1,,,,,エスケイティ,0
1830,7122001036120,新規,0,2022-08-12,2022-08-12,愛嬌ワールド株式会社,,株式会社,大阪府,柏原市,旭ケ丘２丁目１０番１３号,,27,221,5820026,,,,,,,2022-08-12,1,,,,,アイキョウワールド,0
1832,7122003002401,新規,0,2022-08-12,2022-08-12,合同会社ＫＳＭ,,合同会社,大阪府,四條畷市,中野本町６番２９号,,27,229,5750051,,,,,,,2022-08-12,1,,,,,ケーエスエム,0
1835,7130003008104,新規,0,2022-08-12,2022-08-12,合同会社エクスパンド,,合同会社,京都府,京都市山科区,御陵大津畑町２２番地１６サンクタス京都山科６０３号,,26,110,6078411,,,,,,,2022-08-12,1,,,,,エクスパンド,0
1842,7140001127029,新規,0,2022-08-12,2022-08-12,アイアンテクノロジー株式会社,,株式会社,兵庫県,丹波篠山市,小原５９６,,28,221,6692604,,,,,,,2022-08-12,1,,,,,,0
1843,7140001127045,新規,0,2022-08-12,2022-08-12,株式会社高田建設工業,,株式会社,兵庫県,加古川市,加古川町大野３００番地の１,,28,210,6750061,,,,,,,2022-08-12,1,,,,,タカタケンセツコウギョウ,0
1844,7140001127053,新規,0,2022-08-12,2022-08-12,株式会社ＭＡＫＩＳＴＥＲ,,株式会社,兵庫県,神戸市西区,今寺３４番地の６,,28,111,6512114,,,,,,,2022-08-12,1,,,,,マキスター,0
1845,7140001127061,新規,0,2022-08-12,2022-08-12,株式会社ハリテツ,,株式会社,兵庫県,宝塚市,弥生町５番１－１２７号,,28,214,6650826,,,,,,,2022-08-12,1,,,,,ハリテツ,0
1846,7140001127086,新規,0,2022-08-12,2022-08-12,株式会社永玉,,株式会社,兵庫県,尼崎市,東難波町３丁目２２番２８号２階,,28,202,6600892,,,,,,,2022-08-12,1,,,,,エイギョク,0
1850,7160001024447,新規,0,2022-08-12,2022-08-12,株式会社スプラウト,,株式会社,滋賀県,近江八幡市,出町４１４番地６,,25,204,5230892,,,,,,,2022-08-12,1,,,,,スプラウト,0
1863,7180001152584,新規,0,2022-08-12,2022-08-12,株式会社ＺＡＹＡＮ　ＡＵＴＯＭＯＢＩＬＥ,,株式会社,愛知県,岩倉市,中本町東葭原３２番地５コーポ真鈴２０６号,,23,228,4820042,,,,,,,2022-08-12,1,,,,,ザヤンオートモービル,0
1874,7190001029674,新規,0,2022-08-12,2022-08-12,小川通商株式会社,,株式会社,三重県,鈴鹿市,東旭が丘２丁目２１番５号,,24,207,5100211,,,,,,,2022-08-12,1,,,,,オガワツウショウ,0
1875,7190001029682,新規,0,2022-08-12,2022-08-12,株式会社ＫＩＺＵＫＩ,,株式会社,三重県,桑名市,多度町下野代４８２番地,,24,205,5110117,,,,,,,2022-08-12,1,,,,,キズキ,0
1879,7200005013375,新規,0,2022-08-12,2022-08-12,医療法人ひごころ会,,その他の設立登記法人,岐阜県,各務原市,鵜沼羽場町２丁目１５０番地１,,21,213,5090135,,,,,,,2022-08-12,1,,,,,ヒゴコロカイ,0
1880,7210001019045,新規,0,2022-08-12,2022-08-12,平商事株式会社,,株式会社,福井県,坂井市,丸岡町羽崎第１４号２２番地４,,18,210,9100367,,,,,,,2022-08-12,1,,,,,タイラショウジ,0
1881,7210003001546,新規,0,2022-08-12,2022-08-12,合同会社越前たけふ水産,,合同会社,福井県,越前市,矢船町第１７号８番地,,18,209,9150057,,,,,,,2022-08-12,1,,,,,エチゼンタケフスイサン,0
1882,7220003003343,新規,0,2022-08-12,2022-08-12,合同会社ノトノコト,,合同会社,石川県,珠洲市,宝立町鵜飼３字３６番地,,17,205,9271222,,,,,,,2022-08-12,1,,,,,ノトノコト,0
1885,7240001060211,新規,0,2022-08-12,2022-08-12,ユーズトレーディング株式会社,,株式会社,広島県,広島市佐伯区,八幡３丁目２３番２６号,,34,108,7315116,,,,,,,2022-08-12,1,,,,,ユーズトレーディング,0
1886,7240003005750,新規,0,2022-08-12,2022-08-12,藤本商事合同会社,,合同会社,広島県,広島市西区,天満町１６番７号,,34,104,7330022,,,,,,,2022-08-12,1,,,,,フジモトショウジ,0
1888,7250001019719,新規,0,2022-08-12,2022-08-12,株式会社Ｋｏｔａ,,株式会社,山口県,萩市,大字椿２６１７番地２,,35,204,7580061,,,,,,,2022-08-12,1,,,,,コタ,0
1889,7290001098511,新規,0,2022-08-12,2022-08-12,株式会社富永塾,,株式会社,福岡県,福岡市中央区,大手門２丁目７番４号,,40,133,8100074,,,,,,,2022-08-12,1,,,,,トミナガジュク,0
1890,7290001098560,新規,0,2022-08-12,2022-08-12,株式会社ルーベンス,,株式会社,福岡県,那珂川市,中原６丁目１１番３４号,,40,231,8111213,,,,,,,2022-08-12,1,,,,,ルーベンス,0
1891,7290003012833,新規,0,2022-08-12,2022-08-12,合同会社プラビダプロダクション,,合同会社,福岡県,福岡市西区,西の丘２丁目３番１－３１５号,,40,135,8190046,,,,,,,2022-08-12,1,,,,,プラビダプロダクション,0
1893,7290803004179,新規,0,2022-08-12,2022-08-12,合同会社豊前エコクラブ,,合同会社,福岡県,築上郡築上町,大字東築城１３７番地６,,40,647,8290101,,,,,,,2022-08-12,1,,,,,ブゼンエコクラブ,0
1895,7310005008629,新規,0,2022-08-12,2022-08-12,行政書士法人シトラス,,その他の設立登記法人,長崎県,長崎市,千歳町６－１１高島第３ビル３０１,,42,201,8528135,,,,,,,2022-08-12,1,,,,,シトラス,0
1897,7320002022854,新規,0,2022-08-12,2022-08-12,有限会社中山建設,,有限会社,大分県,由布市,挾間町挾間８５２番地,,44,213,8795506,,,,,,,2022-08-12,1,,,,,ナカヤマケンセツ,0
1905,7350001017902,新規,0,2022-08-12,2022-08-12,株式会社秀吉,,株式会社,宮崎県,宮崎市,大字生目４０５１番地１,,45,201,8802103,,,,,,,2022-08-12,1,,,,,ヒデヨシ,0
1909,7370001048937,新規,0,2022-08-12,2022-08-12,株式会社目黒工務店,,株式会社,宮城県,名取市,愛島台６丁目１７番地の１１,,04,207,9811251,,,,,,,2022-08-12,1,,,,,メグロコウムテン,0
1910,7370001048945,新規,0,2022-08-12,2022-08-12,株式会社エスジーエフ,,株式会社,宮城県,塩竈市,尾島町１２－１４,,04,203,9850021,,,,,,,2022-08-12,1,,,,,エスジーエフ,0
1912,7370005010521,新規,0,2022-08-12,2022-08-12,一般社団法人まちまっち,,その他の設立登記法人,宮城県,富谷市,杜乃橋２丁目２５番地４,,04,216,9813363,,,,,,,2022-08-12,1,,,,,マチマッチ,0
1931,7430001087251,新規,0,2022-08-12,2022-08-12,しらとり建設運輸株式会社,,株式会社,北海道,札幌市白石区,栄通１９丁目１１番２１号,,01,104,0030021,,,,,,,2022-08-12,1,,,,,シラトリケンセツウンユ,0
1932,7430001087284,新規,0,2022-08-12,2022-08-12,株式会社梵,,株式会社,北海道,札幌市西区,発寒十五条２丁目１番１号,,01,107,0630835,,,,,,,2022-08-12,1,,,,,ボン,0
1934,7440001009130,新規,0,2022-08-12,2022-08-12,株式会社ＳＨＡＤＯＷ,,株式会社,北海道,函館市,本町２－１,,01,202,0400011,,,,,,,2022-08-12,1,,,,,,0
1945,7490003001691,新規,0,2022-08-12,2022-08-12,合同会社オフィス鴨部,,合同会社,高知県,高知市,鴨部２丁目９番２０号,,39,201,7808052,,,,,,,2022-08-12,1,,,,,オフィスカモベ,0
1948,7500001024387,新規,0,2022-08-12,2022-08-12,株式会社ＨＩＹＯＲＩ,,株式会社,愛媛県,西条市,朔日市６０６番地１０,,38,206,7930027,,,,,,,2022-08-12,1,,,,,ヒヨリ,0
1955,8010001228714,新規,0,2022-08-12,2022-08-12,株式会社ｄｅｐｉｓ,,株式会社,東京都,中央区,銀座１丁目１５－７マック銀座ビル３階,,13,102,1040061,,,,,,,2022-08-12,1,,,,,デピス,0
1956,8010001228739,新規,0,2022-08-12,2022-08-12,株式会社ビューティーカレンダー,,株式会社,東京都,千代田区,有楽町１丁目１２番１号新有楽町ビル１１階,,13,101,1000006,,,,,,,2022-08-12,1,,,,,ビューティーカレンダー,0
1957,8010001228755,新規,0,2022-08-12,2022-08-12,ＭＩＲＡＲＧＯ　ＨＯＬＤＩＮＧＳ株式会社,,株式会社,東京都,文京区,大塚１丁目４番１５－１１０９号,00127516,13,105,1120012,,,,,,,2022-08-12,1,,,,,ミラルゴホールディングス,0
1958,8010001228788,新規,0,2022-08-12,2022-08-12,ＣＨＲＯＦＹ株式会社,,株式会社,東京都,千代田区,内神田１丁目５番１６号アルテ大手町７階,,13,101,1010047,,,,,,,2022-08-12,1,,,,,クロフィー,0
1959,8010001228813,新規,0,2022-08-12,2022-08-12,株式会社Ｎａｏ　Ｋｏｂａｙａｓｈｉ　Ａｒｔ＆Ｄｅｓｉｇｎ,,株式会社,東京都,文京区,本郷６丁目１９番２号,,13,105,1130033,,,,,,,2022-08-12,1,,,,,ナオコバヤシアートアンドデザイン,0
1961,8010003038384,新規,0,2022-08-12,2022-08-12,合同会社ためになる,,合同会社,東京都,中央区,銀座７丁目１３番６号サガミビル２階,,13,102,1040061,,,,,,,2022-08-12,1,,,,,タメニナル,0
1962,8010003038392,新規,0,2022-08-12,2022-08-12,合同会社デコスター,,合同会社,東京都,千代田区,飯田橋４丁目１番７号,,13,101,1020072,,,,,,,2022-08-12,1,,,,,デコスター,0
1967,8010101015293,新規,0,2022-08-12,2022-08-12,株式会社スカイネット,,株式会社,東京都,八王子市,館町１８８４番地３,,13,201,1930944,,,,,,,2022-08-12,1,,,,,スカイネット,0
1974,8010601061671,新規,0,2022-08-12,2022-08-12,Ｂｌｕｅｋｅ株式会社,,株式会社,東京都,江東区,有明１丁目４番１１号,,13,108,1350063,,,,,,,2022-08-12,1,,,,,ブルーケ,0
1979,8010901051397,新規,0,2022-08-12,2022-08-12,株式会社あおとき,,株式会社,東京都,世田谷区,北沢３丁目２７－４立木ビル２Ｆ,,13,112,1550031,,,,,,,2022-08-12,1,,,,,アオトキ,0
1987,8011001149090,新規,0,2022-08-12,2022-08-12,株式会社Ｋａｓｈ,,株式会社,東京都,目黒区,下目黒６丁目６番２号,,13,110,1530064,,,,,,,2022-08-12,1,,,,,カッシュ,0
1988,8011001149165,新規,0,2022-08-12,2022-08-12,株式会社ＴＡＣＯ,,株式会社,東京都,渋谷区,東４丁目１２番１号,,13,113,1500011,,,,,,,2022-08-12,1,,,,,タコ,0
1989,8011001149181,新規,0,2022-08-12,2022-08-12,株式会社ｂｏｌｔ．,,株式会社,東京都,目黒区,鷹番２丁目１４番１４－４０３号ＰＲＩＭＥＵＲＢＡＮ学芸大学,,13,110,1520004,,,,,,,2022-08-12,1,,,,,ボルト,0
1990,8011001149198,新規,0,2022-08-12,2022-08-12,株式会社シュウゾウ,,株式会社,東京都,渋谷区,恵比寿２丁目１５番５号,,13,113,1500013,,,,,,,2022-08-12,1,,,,,シュウゾウ,0
1991,8011001149207,新規,0,2022-08-12,2022-08-12,株式会社Ｆｕｌｌ　Ｕｎｌｅａｓｈ,,株式会社,東京都,渋谷区,道玄坂１丁目１０番８号渋谷道玄坂東急ビル２Ｆ－Ｃ,,13,113,1500043,,,,,,,2022-08-12,1,,,,,フルアンリーシュ,0
1993,8011003015142,新規,0,2022-08-12,2022-08-12,合同会社スプラウト,,合同会社,東京都,渋谷区,道玄坂１丁目１０番８号渋谷道玄坂東急ビル２Ｆ－Ｃ,,13,113,1500043,,,,,,,2022-08-12,1,,,,,スプラウト,0
1994,8011003015183,新規,0,2022-08-12,2022-08-12,合同会社オフソフト,,合同会社,東京都,渋谷区,道玄坂１丁目１０番８号渋谷道玄坂東急ビル２Ｆ－Ｃ,,13,113,1500043,,,,,,,2022-08-12,1,,,,,オフソフト,0
1995,8011005009679,新規,0,2022-08-12,2022-08-12,藤和土地家屋調査士法人渋谷,,その他の設立登記法人,東京都,渋谷区,本町１丁目７番１６号初台ハイツ２階,,13,113,1510071,,,,,,,2022-08-12,1,,,,,トウワシブヤ,0
2010,8011201024028,新規,0,2022-08-12,2022-08-12,株式会社マッシュ,,株式会社,東京都,中野区,本町２丁目１番８号,,13,114,1640012,,,,,,,2022-08-12,1,,,,,マッシュ,0
2015,8011501028372,新規,0,2022-08-12,2022-08-12,株式会社バイネーム,,株式会社,東京都,荒川区,東日暮里３丁目３２番１０－７０１号,,13,118,1160014,,,,,,,2022-08-12,1,,,,,バイネーム,0
2017,8011601026169,新規,0,2022-08-12,2022-08-12,株式会社フルゴリラ,,株式会社,東京都,練馬区,早宮３丁目２０番２２号アゼリア豊島園２０５,,13,120,1790085,,,,,,,2022-08-12,1,,,,,フルゴリラ,0
2018,8011603003678,新規,0,2022-08-12,2022-08-12,リアン合同会社,,合同会社,東京都,練馬区,桜台３丁目３０番２号ＲａｆｆｉｎａｔｏＨｉｋａｗａｄａｉ３０１,,13,120,1760002,,,,,,,2022-08-12,1,,,,,リアン,0
2021,8011703003223,新規,0,2022-08-12,2022-08-12,合同会社Ｂｒｉｄｇｅ　ｏｆ　ｔｈｅ　ｗｏｒｌｄ,,合同会社,東京都,江戸川区,中葛西７丁目１９番１１号,,13,123,1340083,,,,,,,2022-08-12,1,,,,,ブリッジオブザワールド,0
2022,8011801041125,新規,0,2022-08-12,2022-08-12,前田株式会社,,株式会社,東京都,葛飾区,東新小岩１丁目１２番３－９０２号,,13,122,1240023,,,,,,,2022-08-12,1,,,,,マエダ,0
2023,8011803005219,新規,0,2022-08-12,2022-08-12,合同会社ＬＬＬ　ＳＯＬＵＴＩＯＮＳ,,合同会社,東京都,足立区,西新井本町４丁目２９番１１－４０８号,,13,121,1230845,,,,,,,2022-08-12,1,,,,,エルエルエルソリューションズ,0
2025,8012401039526,新規,0,2022-08-12,2022-08-12,ＤＳ株式会社,,株式会社,東京都,武蔵野市,西久保２丁目２番６－１０５号ソフィア西久保,,13,203,1800013,,,,,,,2022-08-12,1,,,,,ディーエス,0
2032,8013301049508,新規,0,2022-08-12,2022-08-12,株式会社ｆｅｌｌｏｗ,,株式会社,東京都,豊島区,池袋２丁目７７番１－３０４号,,13,116,1710014,,,,,,,2022-08-12,1,,,,,フェロウ,0
2047,8020001147640,新規,0,2022-08-12,2022-08-12,株式会社あかつき指導会,,株式会社,神奈川県,横浜市青葉区,藤が丘２丁目５番地２９,,14,117,2270043,,,,,,,2022-08-12,1,,,,,アカツキシドウカイ,0
2048,8020001147698,新規,0,2022-08-12,2022-08-12,株式会社三幸ホームデザイン,,株式会社,神奈川県,横浜市都筑区,中川中央１丁目５番１８号,,14,118,2240003,,,,,,,2022-08-12,1,,,,,サンコウホームデザイン,0
2049,8020001147731,新規,0,2022-08-12,2022-08-12,株式会社クラウドスタッフィング,,株式会社,神奈川県,横浜市港北区,新横浜２丁目５番地１４ＷＩＳＥＮＥＸＴ新横浜３Ｆ,,14,109,2220033,,,,,,,2022-08-12,1,,,,,クラウドスタッフィング,0
2054,8020003022230,新規,0,2022-08-12,2022-08-12,合同会社フェナカイト,,合同会社,神奈川県,横浜市神奈川区,三ツ沢下町２１番８－２０８号,,14,102,2210852,,,,,,,2022-08-12,1,,,,,フェナカイト,0
2055,8020003022247,新規,0,2022-08-12,2022-08-12,合同会社多摩グローバル経営研究所,,合同会社,神奈川県,川崎市多摩区,宿河原４丁目１７番７号,,14,135,2140021,,,,,,,2022-08-12,1,,,,,タマグローバルケイエイケンキュウショ,0
2060,8021001076755,新規,0,2022-08-12,2022-08-12,株式会社お福,,株式会社,神奈川県,相模原市中央区,相模原６丁目２４－５松井ビル,,14,152,2520231,,,,,,,2022-08-12,1,,,,,オフク,0
2069,8030001149611,新規,0,2022-08-12,2022-08-12,株式会社プログレス３,,株式会社,埼玉県,比企郡ときがわ町,大字玉川２１４２番地８,,11,349,3550342,,,,,,,2022-08-12,1,,,,,プログレススリー,0
2070,8030001149660,新規,0,2022-08-12,2022-08-12,株式会社アップドラフト,,株式会社,埼玉県,川口市,東川口１丁目３番２号,,11,203,3330801,,,,,,,2022-08-12,1,,,,,アップドラフト,0
2073,8030003019969,新規,0,2022-08-12,2022-08-12,合同会社アキンド,,合同会社,埼玉県,吉川市,大字保７６７番地１３,,11,243,3420041,,,,,,,2022-08-12,1,,,,,アキンド,0
2074,8040001124646,新規,0,2022-08-12,2022-08-12,株式会社Ｃｈａｒｍ　Ｇａｒｄｅｎ,,株式会社,千葉県,鎌ケ谷市,鎌ケ谷９丁目１５番３６－３号,,12,224,2730105,,,,,,,2022-08-12,1,,,,,チャームガーデン,0
2075,8040001124654,新規,0,2022-08-12,2022-08-12,株式会社ＭＵＪＩＮ　ＧＯＬＦ,,株式会社,千葉県,八千代市,村上８８１番地１ライオンズマンション勝田台７０８号,,12,221,2760028,,,,,,,2022-08-12,1,,,,,ムジンゴルフ,0
2076,8040001124662,新規,0,2022-08-12,2022-08-12,株式会社ＡＫＴＩＣＳ,,株式会社,千葉県,習志野市,実籾５丁目４４番５号,,12,216,2750002,,,,,,,2022-08-12,1,,,,,アクティス,0
2077,8040001124670,新規,0,2022-08-12,2022-08-12,株式会社一葉ラボ,,株式会社,千葉県,松戸市,新松戸２丁目３４番地１１０３号,,12,207,2700034,,,,,,,2022-08-12,1,,,,,カズハラボ,0
2082,8050001051526,新規,0,2022-08-12,2022-08-12,東日本サービス株式会社,,株式会社,茨城県,那珂郡東海村,大字須和間３０５番地３,,08,341,3191114,,,,,,,2022-08-12,1,,,,,ヒガシニホンサービス,0
2083,8050001051534,新規,0,2022-08-12,2022-08-12,株式会社桜福,,株式会社,茨城県,筑西市,門井１９８６番地８,,08,227,3091107,,,,,,,2022-08-12,1,,,,,オウフク,0
2084,8050001051542,新規,0,2022-08-12,2022-08-12,株式会社ＱＯＬホームズ,,株式会社,茨城県,水戸市,笠原町１３５６番地緑ヶ丘ハイツ２０１,,08,201,3100852,,,,,,,2022-08-12,1,,,,,クォルホームズ,0
2088,8050003006759,新規,0,2022-08-12,2022-08-12,合同会社ケーエス８,,合同会社,茨城県,龍ケ崎市,長沖町１６３９番地,,08,208,3010015,,,,,,,2022-08-12,1,,,,,ケーエスエイト,0
2089,8060001035180,新規,0,2022-08-12,2022-08-12,株式会社ＭａＳａＫａＲｉ　ＪａＰａＮ６２,,株式会社,栃木県,宇都宮市,今宮４丁目１７番２号,,09,201,3210166,,,,,,,2022-08-12,1,,,,,マサカリジャパンロクジュウニ,0
2096,8080105006274,新規,0,2022-08-12,2022-08-12,特定非営利活動法人大富士フットボールクラブ,,その他の設立登記法人,静岡県,富士宮市,外神２３８番地の８,,22,207,4180006,,,,,,,2022-08-12,1,,,,,オオフジフットボールクラブ,0
2108,8120001248123,新規,0,2022-08-12,2022-08-12,株式会社ハヤシカツ,,株式会社,大阪府,大阪市北区,芝田２丁目８番１１号共栄ビル３階,,27,127,5300012,,,,,,,2022-08-12,1,,,,,ハヤシカツ,0
2109,8120001248148,新規,0,2022-08-12,2022-08-12,株式会社Ｂｏｕｑｕｅｔ　Ｂａｓｅ,,株式会社,大阪府,大阪市北区,梅田１丁目１－３大阪駅前第３ビル２９階１－１－１号室,,27,127,5300001,,,,,,,2022-08-12,1,,,,,ブーケベース,0
2110,8120001248156,新規,0,2022-08-12,2022-08-12,株式会社Ｒｅ,,株式会社,大阪府,寝屋川市,高柳７丁目９－７,,27,215,5720051,,,,,,,2022-08-12,1,,,,,アールイー,0
2115,8120101066061,新規,0,2022-08-12,2022-08-12,株式会社山本杏鹿堂,,株式会社,大阪府,岸和田市,小松里町１２０４－６,,27,202,5960821,,,,,,,2022-08-12,1,,,,,ヤマモトキョウカドウ,0
2117,8120901046361,新規,0,2022-08-12,2022-08-12,株式会社マーケティング・プラス・ラボ,,株式会社,大阪府,高槻市,東城山町１１番６号,,27,207,5691037,,,,,,,2022-08-12,1,,,,,マーケティングプラスラボ,0
2119,8120903004268,新規,0,2022-08-12,2022-08-12,合同会社スギテック,,合同会社,大阪府,箕面市,桜井１丁目１３番２５号,,27,220,5620043,,,,,,,2022-08-12,1,,,,,スギテック,0
2122,8122001036144,新規,0,2022-08-12,2022-08-12,株式会社Ｊａｌａｌｉ　Ｔｒａｄｉｎｇ,,株式会社,大阪府,柏原市,大字雁多尾畑５５８０－１－１０３,,27,221,5820012,,,,,,,2022-08-12,1,,,,,ジャラリトレーディング,0
2123,8122001036152,新規,0,2022-08-12,2022-08-12,株式会社リバースイン,,株式会社,大阪府,柏原市,清州１丁目１番１３号,,27,221,5820006,,,,,,,2022-08-12,1,,,,,リバースイン,0
2129,8140001127060,新規,0,2022-08-12,2022-08-12,小西株式会社,,株式会社,兵庫県,西宮市,丸橋町４番１７－３１８号,,28,204,6620831,,,,,,,2022-08-12,1,,,,,コニシ,0
2131,8140005026283,新規,0,2022-08-12,2022-08-12,一般社団法人ＪＴＴ,,その他の設立登記法人,兵庫県,神戸市東灘区,深江北町１丁目１５番１３－８０３号,,28,101,6580013,,,,,,,2022-08-12,1,,,,,ジェイティーティー,0
2132,8160001024446,新規,0,2022-08-12,2022-08-12,株式会社明誠,,株式会社,滋賀県,長浜市,本庄町６７８番地,,25,203,5260821,,,,,,,2022-08-12,1,,,,,メイセイ,0
2133,8160001024454,新規,0,2022-08-12,2022-08-12,株式会社ｍａｒｕｆｕｋｕ,,株式会社,滋賀県,大津市,中央２丁目１－６ドエルコトブキ７０４号室,,25,201,5200043,,,,,,,2022-08-12,1,,,,,マルフク,0
2135,8170001017234,新規,0,2022-08-12,2022-08-12,旭日株式会社,,株式会社,和歌山県,海南市,日方１２７３－４４・２Ｆ－２,,30,202,6420002,,,,,,,2022-08-12,1,,,,,アサヒ,0
2155,8180003024153,新規,0,2022-08-12,2022-08-12,合同会社ＨＴＬ,,合同会社,愛知県,名古屋市中川区,小本本町３丁目１８６番地リブリ・ｃａｓａ荒子１０５号,,23,110,4540826,,,,,,,2022-08-12,1,,,,,エイチティーエル,0
2157,8180301036536,新規,0,2022-08-12,2022-08-12,アオイクリエイト株式会社,,株式会社,愛知県,豊田市,丸根町４丁目５２番地６,,23,211,4710053,,,,,,,2022-08-12,1,,,,,アオイクリエイト,0
2161,8180303005423,新規,0,2022-08-12,2022-08-12,合同会社ｓｉｉａ,,合同会社,愛知県,豊田市,水源町１丁目２３番地７,,23,211,4710822,,,,,,,2022-08-12,1,,,,,シア,0
2163,8210001019044,新規,0,2022-08-12,2022-08-12,株式会社ＧＲＯＣＫ,,株式会社,福井県,福井市,上毘沙門町第３号１番地６,,18,201,9102144,,,,,,,2022-08-12,1,,,,,グロック,0
2164,8220001024984,新規,0,2022-08-12,2022-08-12,株式会社ＳＫＥＣ,,株式会社,石川県,金沢市,御所町未１１番地１,,17,201,9200813,,,,,,,2022-08-12,1,,,,,エスケイイーシー,0
2165,8220003003342,新規,0,2022-08-12,2022-08-12,合同会社みらい,,合同会社,石川県,金沢市,花里町１６番１１号,,17,201,9200951,,,,,,,2022-08-12,1,,,,,ミライ,0
2166,8230003001898,新規,0,2022-08-12,2022-08-12,合同会社ＣＵＰＳ,,合同会社,富山県,氷見市,新保４１８番地,,16,205,9350254,,,,,,,2022-08-12,1,,,,,カップス,0
2167,8240001060210,新規,0,2022-08-12,2022-08-12,福本千昇株式会社,,株式会社,広島県,広島市西区,都町４１番２号,,34,104,7330023,,,,,,,2022-08-12,1,,,,,フクモトセンショウ,0
2168,8240001060219,新規,0,2022-08-12,2022-08-12,全管協中国株式会社,,株式会社,広島県,広島市中区,東千田町１丁目１番６１号,,34,101,7300053,,,,,,,2022-08-12,1,,,,,ゼンカンキョウチュウゴク,0
2169,8240001060227,新規,0,2022-08-12,2022-08-12,ＰＲＯＳＰＥＲ株式会社,,株式会社,広島県,安芸郡海田町,畝２丁目３番２４－１０３号,,34,304,7360005,,,,,,,2022-08-12,1,,,,,プロスパー,0
2175,8250001019718,新規,0,2022-08-12,2022-08-12,株式会社ＡＬＩＶＥ,,株式会社,山口県,山口市,大内氷上６丁目５番１号,,35,203,7530231,,,,,,,2022-08-12,1,,,,,アライブ,0
2181,8260001037149,新規,0,2022-08-12,2022-08-12,株式会社ハルカンパニー,,株式会社,岡山県,岡山市北区,今５丁目１１番１号（２０８）,,33,101,7000975,,,,,,,2022-08-12,1,,,,,ハルカンパニー,0
2182,8270003001432,新規,0,2022-08-12,2022-08-12,合同会社Ｂｒａｖｅ,,合同会社,鳥取県,境港市,上道町３４８０番地１,,31,204,6840033,,,,,,,2022-08-12,1,,,,,ブレイブ,0
2184,8290001098584,新規,0,2022-08-12,2022-08-12,ＡＴＬＡＳ・ａｇｅｎｃｙ株式会社,,株式会社,福岡県,福岡市中央区,今泉１丁目２番８－９０３号,,40,133,8100021,,,,,,,2022-08-12,1,,,,,アトラスエージェンシー,0
2185,8290001098592,新規,0,2022-08-12,2022-08-12,株式会社松永総合企画,,株式会社,福岡県,福岡市中央区,天神３丁目６番４号,,40,133,8100001,,,,,,,2022-08-12,1,,,,,マツナガソウゴウキカク,0
2186,8290003012832,新規,0,2022-08-12,2022-08-12,合同会社ＴＮ,,合同会社,福岡県,福岡市城南区,樋井川４丁目３２番２２－４０３号,,40,136,8140153,,,,,,,2022-08-12,1,,,,,ティーエヌ,0
2191,8320003003877,新規,0,2022-08-12,2022-08-12,合同会社ＷＡＲＡＳＨＩＮＡ,,合同会社,大分県,大分市,下郡北３丁目１１番１７号,,44,201,8700952,,,,,,,2022-08-12,1,,,,,ワラシナ,0
2192,8330001030022,新規,0,2022-08-12,2022-08-12,株式会社和寿海運,,株式会社,熊本県,宇城市,三角町三角浦１１６０番地１７１伊藤ビル１階,,43,213,8693207,,,,,,,2022-08-12,1,,,,,ワズミカイウン,0
2193,8330005010540,新規,0,2022-08-12,2022-08-12,一般社団法人第一互助協会,,その他の設立登記法人,熊本県,合志市,御代志１６６１番地１ルーロ合志１０２号,,43,216,8611104,,,,,,,2022-08-12,1,,,,,ダイイチゴジョキョウカイ,0
2194,8340001024956,新規,0,2022-08-12,2022-08-12,株式会社Ｃｒｅｓｔ,,株式会社,鹿児島県,姶良市,加治木町木田１１８７番地２,,46,225,8995241,,,,,,,2022-08-12,1,,,,,クレスト,0
2197,8360001030795,新規,0,2022-08-12,2022-08-12,碧クリエイト沖縄株式会社,,株式会社,沖縄県,中頭郡北谷町,字桑江８６番地１,,47,326,9040103,,,,,,,2022-08-12,1,,,,,アオイクリエイトオキナワ,0
2198,8360001030812,新規,0,2022-08-12,2022-08-12,ＣＢＳ株式会社,,株式会社,沖縄県,名護市,字宮里４４７番１６の１佐久川氏店舗・事務所,,47,209,9050011,,,,,,,2022-08-12,1,,,,,コミュニティベースドセキュリティ,0
2199,8360001030820,新規,0,2022-08-12,2022-08-12,株式会社ＭＩＬＬＩＯＮ　ＩＳＨＩＧＡＫＩ,,株式会社,沖縄県,石垣市,美崎町１１番地６,,47,207,9070012,,,,,,,2022-08-12,1,,,,,ミリオンイシガキ,0
2216,8430001087259,新規,0,2022-08-12,2022-08-12,株式会社島口商店,,株式会社,北海道,札幌市中央区,南二条西２５丁目１番２１号,,01,101,0640802,,,,,,,2022-08-12,1,,,,,シマグチショウテン,0
2217,8430001087267,新規,0,2022-08-12,2022-08-12,株式会社メインプレイス,,株式会社,北海道,札幌市豊平区,平岸三条１３丁目８番１８号グランツ南平岸１０１号,,01,105,0620933,,,,,,,2022-08-12,1,,,,,メインプレイス,0
2218,8430001087283,新規,0,2022-08-12,2022-08-12,株式会社ＳＬＹ,,株式会社,北海道,札幌市中央区,南一条西５丁目１番５号Ｎ．Ｃａｌｌｅビル４階,,01,101,0600061,,,,,,,2022-08-12,1,,,,,スライ,0
2241,9010001228713,新規,0,2022-08-12,2022-08-12,椿貿易株式会社,,株式会社,東京都,千代田区,九段南１丁目５番６号りそな九段ビル５ＦＫＳフロア,,13,101,1020074,,,,,,,2022-08-12,1,,,,,ツバキボウエキ,0
2242,9010001228746,新規,0,2022-08-12,2022-08-12,株式会社花籠果,,株式会社,東京都,中央区,銀座７丁目１３－６サガミビル２Ｆ,,13,102,1040061,,,,,,,2022-08-12,1,,,,,カルカ,0
2243,9010001228770,新規,0,2022-08-12,2022-08-12,株式会社ライトンアップ,,株式会社,東京都,中央区,銀座１丁目２２番１１号銀座大竹ビジデンス２階,,13,102,1040061,,,,,,,2022-08-12,1,,,,,ライトンアップ,0
2244,9010001228779,新規,0,2022-08-12,2022-08-12,株式会社まる姫,,株式会社,東京都,中央区,新富２丁目１－１,,13,102,1040041,,,,,,,2022-08-12,1,,,,,マルヒメ,0
2245,9010001228812,新規,0,2022-08-12,2022-08-12,株式会社メディコムプランニング,,株式会社,東京都,千代田区,鍛冶町２丁目９番７号大貫ビル３Ａ,,13,101,1010044,,,,,,,2022-08-12,1,,,,,メディコムプランニング,0
2249,9010003038359,新規,0,2022-08-12,2022-08-12,合同会社ＫＫＲ,,合同会社,東京都,文京区,音羽１丁目５―１１,,13,105,1120013,,,,,,,2022-08-12,1,,,,,ケーケーアール,0
2250,9010003038375,新規,0,2022-08-12,2022-08-12,合同会社スタック,,合同会社,東京都,中央区,月島１丁目２２－１－２１０９,,13,102,1040052,,,,,,,2022-08-12,1,,,,,スタック,0
2252,9010005035370,新規,0,2022-08-12,2022-08-12,一般社団法人医療コンテナ推進協議会,,その他の設立登記法人,東京都,千代田区,平河町１丁目６番１５号ＵＳビル７０１号室,,13,101,1020093,,,,,,,2022-08-12,1,,,,,イリョウコンテナスイシンキョウギカイ,0
2255,9010101015292,新規,0,2022-08-12,2022-08-12,ＣｅｎｔＦｌｙＧａｔｅ株式会社,,株式会社,東京都,八王子市,東町１番１０号グランデハイツ八王子８０２,,13,201,1920082,,,,,,,2022-08-12,1,,,,,サンフライゲイト,0
2259,9010401169020,新規,0,2022-08-12,2022-08-12,株式会社Ｂ‐ｄａｓｈ,,株式会社,東京都,港区,芝浦１丁目１３番１０号第３東運ビル８Ｆ,,13,103,1050023,,,,,,,2022-08-12,1,,,,,ビーダッシュ,0
2262,9010403028232,新規,0,2022-08-12,2022-08-12,ＤＬＨ　Ｈｏｌｄｉｎｇｓ　Ｅｎｔｅｒｐｒｉｓｅ合同会社,,合同会社,東京都,港区,元麻布３丁目１番６号,,13,103,1060046,,,,,,,2022-08-12,1,,,,,ディーエルエイチホールディングスエンタープライズ,0
2263,9010403028240,新規,0,2022-08-12,2022-08-12,合同会社Ｐ‐ｌｉｖｅ,,合同会社,東京都,港区,浜松町２丁目２番１５号浜松町ダイヤビル２階,,13,103,1050013,,,,,,,2022-08-12,1,,,,,ピーライブ,0
2264,9010501049238,新規,0,2022-08-12,2022-08-12,株式会社Ｋｉｎｇｅｒ,,株式会社,東京都,台東区,台東１丁目１３番８号,,13,106,1100016,,,,,,,2022-08-12,1,,,,,キンガー,0
2269,9010601061670,新規,0,2022-08-12,2022-08-12,株式会社山と風,,株式会社,東京都,墨田区,江東橋１丁目１２番１号錦糸町ダイヤモンドパレス４０３,,13,107,1300022,,,,,,,2022-08-12,1,,,,,ヤマトカゼ,0
2281,9010903007578,新規,0,2022-08-12,2022-08-12,吉事合同会社,,合同会社,東京都,世田谷区,粕谷４丁目１９－８－１０５,,13,112,1570063,,,,,,,2022-08-12,1,,,,,キチジ,0
2285,9011001149131,新規,0,2022-08-12,2022-08-12,株式会社ＥＦＯＡＴ,,株式会社,東京都,渋谷区,神宮前６丁目２３番４号桑野ビル２階,,13,113,1500001,,,,,,,2022-08-12,1,,,,,エフォート,0
2286,9011001149172,新規,0,2022-08-12,2022-08-12,株式会社リンプラス,,株式会社,東京都,目黒区,目黒３丁目７番１号,,13,110,1530063,,,,,,,2022-08-12,1,,,,,リンプラス,0
2287,9011001149189,新規,0,2022-08-12,2022-08-12,株式会社ランニングシューズ,,株式会社,東京都,渋谷区,神宮前３丁目２７番１０－３０１号,,13,113,1500001,,,,,,,2022-08-12,1,,,,,ランニングシューズ,0
2288,9011001149197,新規,0,2022-08-12,2022-08-12,株式会社ＴＭＳ,,株式会社,東京都,渋谷区,広尾５丁目４番１２号大成鋼機ビル４階,,13,113,1500012,,,,,,,2022-08-12,1,,,,,ティーエムエス,0
2289,9011001149206,新規,0,2022-08-12,2022-08-12,株式会社ＯＧＲ,,株式会社,東京都,目黒区,柿の木坂２丁目３番７－１０２号,,13,110,1520022,,,,,,,2022-08-12,1,,,,,オージーアール,0
2291,9011003015199,新規,0,2022-08-12,2022-08-12,合同会社テリトリー・ギャラリー,,合同会社,東京都,渋谷区,千駄ヶ谷１丁目２３番６号,,13,113,1510051,,,,,,,2022-08-12,1,,,,,テリトリーギャラリー,0
2293,9011103012063,新規,0,2022-08-12,2022-08-12,ワン合同会社,,合同会社,東京都,新宿区,四谷１丁目１８番ｂｅｌｌｅ四谷５階,,13,104,1600004,,,,,,,2022-08-12,1,,,,,ワン,0
2295,9011201024027,新規,0,2022-08-12,2022-08-12,株式会社日本ティーピービー,,株式会社,東京都,中野区,中野２丁目２９番１５－２０９号,,13,114,1640001,,,,,,,2022-08-12,1,,,,,ニホンティーピービー,0
2296,9011403003745,新規,0,2022-08-12,2022-08-12,ＦＵＢＡＲ合同会社,,合同会社,東京都,板橋区,弥生町３２－３,,13,119,1730021,,,,,,,2022-08-12,1,,,,,フーバー,0
2298,9011501028371,新規,0,2022-08-12,2022-08-12,株式会社ｔａｍａｇｏ,,株式会社,東京都,北区,滝野川６丁目７番１３号,,13,117,1140023,,,,,,,2022-08-12,1,,,,,タマゴ,0
2299,9011503005253,新規,0,2022-08-12,2022-08-12,合同会社圧倒的,,合同会社,東京都,荒川区,西日暮里６丁目２３－６西日暮里レーベル４０１,,13,118,1160013,,,,,,,2022-08-12,1,,,,,アットウテキ,0
2302,9011703003222,新規,0,2022-08-12,2022-08-12,合同会社ＺＯＵ,,合同会社,東京都,江戸川区,北小岩２丁目１１番１２号,,13,123,1330051,,,,,,,2022-08-12,1,,,,,ゾウ,0
2304,9011801041124,新規,0,2022-08-12,2022-08-12,昌盛商社株式会社,,株式会社,東京都,足立区,平野３丁目１９－２０,,13,121,1210076,,,,,,,2022-08-12,1,,,,,ショウセイショウシャ,0
2305,9011801041132,新規,0,2022-08-12,2022-08-12,株式会社サーチアンドコア,,株式会社,東京都,足立区,六木１丁目４番５号,,13,121,1210052,,,,,,,2022-08-12,1,,,,,サーチアンドコア,0
2306,9011801041140,新規,0,2022-08-12,2022-08-12,アドライフ株式会社,,株式会社,東京都,足立区,千住桜木１丁目１０番３号,,13,121,1200045,,,,,,,2022-08-12,1,,,,,アドライフ,0
2307,9011803005218,新規,0,2022-08-12,2022-08-12,Ｃａｌｍａ　Ｃａｒｉｎａ合同会社,,合同会社,東京都,足立区,梅田８丁目１４番２号４３２号室,,13,121,1230851,,,,,,,2022-08-12,1,,,,,カルマカリーナ,0
2311,9012401039525,新規,0,2022-08-12,2022-08-12,株式会社山本内装,,株式会社,東京都,調布市,深大寺元町４丁目２７番地５,,13,208,1820017,,,,,,,2022-08-12,1,,,,,ヤマモトナイソウ,0
2319,9013301049498,新規,0,2022-08-12,2022-08-12,株式会社オフィス,,株式会社,東京都,豊島区,池袋３丁目７番９号,,13,116,1710014,,,,,,,2022-08-12,1,,,,,オフィス,0
2323,9020001147565,新規,0,2022-08-12,2022-08-12,株式会社ミライエ製作所,,株式会社,神奈川県,横浜市港北区,大豆戸町８６６番地,,14,109,2220032,,,,,,,2022-08-12,1,,,,,ミライエセイサクショ,0
2324,9020001147722,新規,0,2022-08-12,2022-08-12,株式会社ｎｅｘｔ　ｌｅｖｅｌ　ｍａｒｋｅｔｉｎｇ,,株式会社,神奈川県,横浜市戸塚区,原宿５丁目１７番１２号,,14,110,2450063,,,,,,,2022-08-12,1,,,,,ネクストレーベルマーケティング,0
2325,9020001147739,新規,0,2022-08-12,2022-08-12,株式会社ＧＯＩホールディングス,,株式会社,神奈川県,横浜市神奈川区,鶴屋町３丁目３０番地５タクエー横浜西口ビル５階,,14,102,2210835,,,,,,,2022-08-12,1,,,,,ジーオーアイホールディングス,0
2326,9020001147747,新規,0,2022-08-12,2022-08-12,株式会社ウィンクルム,,株式会社,神奈川県,横浜市中区,桜木町１丁目１０１番地１クロスゲート７階,,14,104,2310062,,,,,,,2022-08-12,1,,,,,ウィンクルム,0
2327,9020001147771,新規,0,2022-08-12,2022-08-12,Ｓｅｍｉ　ｎｅｘｔ株式会社,,株式会社,神奈川県,横浜市港北区,綱島東６丁目１１番３０号,,14,109,2230052,,,,,,,2022-08-12,1,,,,,セミネクスト,0
2331,9020003022213,新規,0,2022-08-12,2022-08-12,合同会社若林設備設計,,合同会社,神奈川県,横浜市瀬谷区,三ツ境１４２番地６,,14,114,2460022,,,,,,,2022-08-12,1,,,,,ワカバヤシセツビセッケイ,0
2332,9020003022221,新規,0,2022-08-12,2022-08-12,合同会社Ａｃｃｅｌ,,合同会社,神奈川県,横浜市南区,中島町３丁目６１番２号ベルメゾン弘明寺１Ｆ,,14,105,2320055,,,,,,,2022-08-12,1,,,,,アクセル,0
2338,9021001076754,新規,0,2022-08-12,2022-08-12,株式会社トップフロンティア,,株式会社,神奈川県,相模原市中央区,宮下本町１丁目１番２１号,,14,152,2520211,,,,,,,2022-08-12,1,,,,,トップフロンティア,0
2347,9040001124653,新規,0,2022-08-12,2022-08-12,マスタープラン株式会社,,株式会社,千葉県,鎌ケ谷市,鎌ケ谷１丁目６－５０,,12,224,2730105,,,,,,,2022-08-12,1,,,,,マスタープラン,0
2348,9040001124661,新規,0,2022-08-12,2022-08-12,株式会社ｆｉｔ,,株式会社,千葉県,千葉市中央区,新千葉２丁目１４番６号,,12,101,2600031,,,,,,,2022-08-12,1,,,,,フィット,0
2352,9050001051533,新規,0,2022-08-12,2022-08-12,株式会社Ｂｅｓｐｏｋｅ　Ｐｒｏｄｕｃｔ,,株式会社,茨城県,つくば市,千現２丁目１番地６つくば研究支援センターＢ－５,,08,220,3050047,,,,,,,2022-08-12,1,,,,,ビースポークプロダクト,0
2353,9050001051541,新規,0,2022-08-12,2022-08-12,株式会社フューチャーハウス,,株式会社,茨城県,水戸市,中央１丁目３番地１５号,,08,201,3100805,,,,,,,2022-08-12,1,,,,,フューチャーハウス,0
2357,9080101023479,新規,0,2022-08-12,2022-08-12,ウィステリアフーズ株式会社,,株式会社,静岡県,熱海市,銀座町７番１２号,,22,205,4130013,,,,,,,2022-08-12,1,,,,,ウィステリアフーズ,0
2359,9080403004598,新規,0,2022-08-12,2022-08-12,合同会社山佐,,合同会社,静岡県,浜松市中区,元城町１１５番地の１５,,22,131,4300946,,,,,,,2022-08-12,1,,,,,ヤマサ,0
2360,9090001017729,新規,0,2022-08-12,2022-08-12,株式会社Ｃ,,株式会社,山梨県,中巨摩郡昭和町,清水新居１６６６番地,,19,384,4093867,,,,,,,2022-08-12,1,,,,,シー,0
2374,9120001248056,新規,0,2022-08-12,2022-08-12,恩典商事株式会社,,株式会社,大阪府,大阪市中央区,内本町２丁目３－１１内本町グリーンビル７Ｆ,,27,128,5400026,,,,,,,2022-08-12,1,,,,,オンテンショウジ,0
2384,9120101066052,新規,0,2022-08-12,2022-08-12,株式会社紡,,株式会社,大阪府,河内長野市,木戸西町３丁目１１番１－１２０５号,,27,216,5860009,,,,,,,2022-08-12,1,,,,,ツムグ,0
2385,9120101066060,新規,0,2022-08-12,2022-08-12,株式会社ホウユウ,,株式会社,大阪府,岸和田市,上野町西２６番５－４０６号,,27,202,5960048,,,,,,,2022-08-12,1,,,,,ホウユウ,0
2386,9120101066069,新規,0,2022-08-12,2022-08-12,株式会社敬豊リサイクル,,株式会社,大阪府,岸和田市,上松町５６４番地の１,,27,202,5960827,,,,,,,2022-08-12,1,,,,,ケイホウリサイクル,0
2391,9120901046360,新規,0,2022-08-12,2022-08-12,株式会社つかさ,,株式会社,大阪府,吹田市,佐井寺３丁目１－５－５１２号,,27,205,5650836,,,,,,,2022-08-12,1,,,,,ツカサ,0
2394,9130001072380,新規,0,2022-08-12,2022-08-12,株式会社神地の郷,,株式会社,京都府,亀岡市,西別院町神地西ノ谷７８番地,,26,206,6210127,,,,,,,2022-08-12,1,,,,,コウジノサト,0
2395,9130001072397,新規,0,2022-08-12,2022-08-12,株式会社Ｍａｎｅｎｔ,,株式会社,京都府,京都市東山区,本町２１丁目４８１番地の１号,,26,105,6050981,,,,,,,2022-08-12,1,,,,,マネント,0
2398,9130003008119,新規,0,2022-08-12,2022-08-12,合同会社ＹＵＫＡＩ,,合同会社,京都府,京都市左京区,山端大塚町１８番地２９,00127511,26,103,6060000,,,,,,,2022-08-12,1,,,,,ユカイ,0
2402,9140001127027,新規,0,2022-08-12,2022-08-12,株式会社ＭＡＨＡＬＯ不動産,,株式会社,兵庫県,明石市,大久保町山手台１丁目６６番地の８,,28,203,6740056,,,,,,,2022-08-12,1,,,,,マハロフドウサン,0
2403,9140001127043,新規,0,2022-08-12,2022-08-12,ｏｎｅ＆ｏｎｅ株式会社,,株式会社,兵庫県,神戸市須磨区,平田町２丁目２番１２号,,28,107,6540021,,,,,,,2022-08-12,1,,,,,ワンアンドワン,0
2404,9140001127092,新規,0,2022-08-12,2022-08-12,住家安心サービス株式会社,,株式会社,兵庫県,神戸市中央区,八幡通３丁目２‐５ＩＮ東洋ビル４０４,,28,110,6510085,,,,,,,2022-08-12,1,,,,,ジュウカアンシン,0
2408,9140005026282,新規,0,2022-08-12,2022-08-12,特定非営利活動法人エバーフリー,,その他の設立登記法人,兵庫県,神戸市北区,杉尾台１丁目１０番地の２５,,28,109,6511146,,,,,,,2022-08-12,1,,,,,エバーフリー,0
2409,9150001025758,新規,0,2022-08-12,2022-08-12,友輝株式会社,,株式会社,奈良県,生駒市,東生駒３丁目３９８－２７８,,29,209,6300213,,,,,,,2022-08-12,1,,,,,ユウキ,0
2412,9170001017225,新規,0,2022-08-12,2022-08-12,ひびき建設株式会社,,株式会社,和歌山県,新宮市,佐野１丁目２番７０号,,30,207,6470071,,,,,,,2022-08-12,1,,,,,ヒビキケンセツ,0
2425,9180001152566,新規,0,2022-08-12,2022-08-12,株式会社左美屋,,株式会社,愛知県,瀬戸市,東山町１丁目１６９番地の４,,23,204,4890988,,,,,,,2022-08-12,1,,,,,サミヤ,0
2426,9180001152590,新規,0,2022-08-12,2022-08-12,株式会社ライフリンク,,株式会社,愛知県,春日井市,前並町１丁目２番地１２,,23,206,4860903,,,,,,,2022-08-12,1,,,,,ライフリンク,0
2431,9180003024152,新規,0,2022-08-12,2022-08-12,合同会社恵心,,合同会社,愛知県,名古屋市中区,丸の内３丁目２３番２３号リエトコート丸の内１５０２号,,23,106,4600002,,,,,,,2022-08-12,1,,,,,ケイシン,0
2432,9180005019885,新規,0,2022-08-12,2022-08-12,税理士法人愛知総合会計事務所,,その他の設立登記法人,愛知県,名古屋市中区,丸の内３丁目２番２９号,,23,106,4600002,,,,,,,2022-08-12,1,,,,,アイチソウゴウカイケイジムショ,0
2434,9190001029689,新規,0,2022-08-12,2022-08-12,株式会社オフィスオオモリ,,株式会社,三重県,四日市市,阿倉川町１１番１４号,,24,202,5100803,,,,,,,2022-08-12,1,,,,,オフィスオオモリ,0
2436,9190003004062,新規,0,2022-08-12,2022-08-12,三和商事合同会社,,合同会社,三重県,三重郡菰野町,大字大強原３８１４番地２,,24,341,5101222,,,,,,,2022-08-12,1,,,,,サンワショウジ,0
2442,9220001024983,新規,0,2022-08-12,2022-08-12,株式会社オービット,,株式会社,石川県,金沢市,弥勒町カ１４５番地５,,17,201,9203115,,,,,,,2022-08-12,1,,,,,オービット,0
2444,9240001060218,新規,0,2022-08-12,2022-08-12,株式会社フォロー,,株式会社,広島県,広島市中区,白島九軒町２１番７号,,34,101,7300003,,,,,,,2022-08-12,1,,,,,フォロー,0
2448,9250001019717,新規,0,2022-08-12,2022-08-12,株式会社ＪＯＪＯやまぐち,,株式会社,山口県,山口市,三の宮２丁目３番２号,,35,203,7530023,,,,,,,2022-08-12,1,,,,,ジョジョヤマグチ,0
2458,9260001037148,新規,0,2022-08-12,2022-08-12,黒崎花店株式会社,,株式会社,岡山県,井原市,井原町３４２番地４,,33,207,7150019,,,,,,,2022-08-12,1,,,,,クロサキハナテン,0
2459,9290001098427,新規,0,2022-08-12,2022-08-12,株式会社ＴＣ,,株式会社,福岡県,福岡市東区,香椎照葉２丁目３番３２号,,40,131,8130017,,,,,,,2022-08-12,1,,,,,ティーシー,0
2460,9290001098534,新規,0,2022-08-12,2022-08-12,株式会社紅仙,,株式会社,福岡県,飯塚市,平恒４３７番地,,40,205,8200073,,,,,,,2022-08-12,1,,,,,コウセン,0
2461,9290001098550,新規,0,2022-08-12,2022-08-12,株式会社６９１,,株式会社,福岡県,久留米市,日ノ出町６９番地１,,40,203,8300012,,,,,,,2022-08-12,1,,,,,ロクイチ,0
2462,9290001098575,新規,0,2022-08-12,2022-08-12,株式会社ＥＮＩＴＹ,,株式会社,福岡県,福岡市南区,平和１丁目５－２０－１０１,,40,134,8150071,,,,,,,2022-08-12,1,,,,,エニティー,0
2463,9290001098583,新規,0,2022-08-12,2022-08-12,株式会社ＡＬＦＡＣＩＯ　ＣＬＵＢ,,株式会社,福岡県,糸島市,二丈鹿家１７９２番１,,40,230,8191642,,,,,,,2022-08-12,1,,,,,アルファシオクラブ,0
2467,9310001017994,新規,0,2022-08-12,2022-08-12,株式会社ＰＲｏｏｔ,,株式会社,長崎県,長崎市,興善町４－６,,42,201,8500032,,,,,,,2022-08-12,1,,,,,プルート,0
2475,9330003009484,新規,0,2022-08-12,2022-08-12,合同会社ノムラファーム,,合同会社,熊本県,菊池市,西寺１８４５番地,,43,210,8611323,,,,,,,2022-08-12,1,,,,,ノムラファーム,0
2495,9410003003693,新規,0,2022-08-12,2022-08-12,合同会社むらさき,,合同会社,秋田県,大館市,幸町１２番９号,,05,204,0170847,,,,,,,2022-08-12,1,,,,,ムラサキ,0
2497,9430001087274,新規,0,2022-08-12,2022-08-12,株式会社二見ホールディングス,,株式会社,北海道,札幌市中央区,南三条西２丁目１６番地５,,01,101,0600063,,,,,,,2022-08-12,1,,,,,フタミホールディングス,0
2498,9430001087316,新規,0,2022-08-12,2022-08-12,株式会社ＢＭ,,株式会社,北海道,札幌市中央区,大通東３丁目２－３,,01,101,0600041,,,,,,,2022-08-12,1,,,,,ビーエム,0
2499,9430003014177,新規,0,2022-08-12,2022-08-12,合同会社禮嘉,,合同会社,北海道,札幌市白石区,菊水元町一条４丁目１番３４－２０５号,,01,104,0030821,,,,,,,2022-08-12,1,,,,,ライカ,0
2502,9450001013773,新規,0,2022-08-12,2022-08-12,株式会社ヨーシー,,株式会社,北海道,旭川市,永山八条５丁目２－１２エクセレント８５Ａ－２０１,,01,204,0798418,,,,,,,2022-08-12,1,,,,,ヨーシー,0
2511,9700150109248,新規,0,2022-08-12,2022-06-07,ＬＣアルモーニカ,,その他,北海道,札幌市中央区,宮の森二条１５丁目１番１０－３０４号,,01,101,0640952,,,,,,,2022-06-07,1,,,,,エルシーアルモーニカ,0
