sequenceNumber,corporateNumber,process,correct,updateDate,changeDate,name,nameImageId,kind,prefectureName,cityName,streetNumber,addressImageId,prefectureCode,cityCode,postCode,addressOutside,addressOutsideImageId,closeDate,closeCause,successorCorporateNumber,changeCause,assignmentDate,latest,enName,enPrefectureName,enCityName,enAddressOutside,furigana,hihyoji
5,1010001215990,登記記録の閉鎖等,0,2022-09-13,2022-09-06,東京電解パートナーズ株式会社,,株式会社,東京都,江東区,東砂１丁目３番２０号,,13,108,1360074,,,2022-09-06,合併による解散等,3010001215989,令和４年９月１日東京都江東区東砂一丁目３番２０号東京電解ホールディングス株式会社（3010001215989）に合併し解散,2021-02-19,1,,,,,トウキョウデンカイパートナーズ,0
29,1010701032918,登記記録の閉鎖等,0,2022-09-13,2022-09-08,株式会社プレンティー・ランドスケープ,,株式会社,東京都,品川区,上大崎２丁目２５番５号,,13,109,1410021,,,2022-09-08,清算の結了等,,,2016-08-24,1,,,,,プレンティーランドスケープ,0
38,1010901009071,登記記録の閉鎖等,0,2022-09-13,2022-09-05,株式会社文化都市開発機構,,株式会社,愛知県,名古屋市中村区,椿町９番２１号,,23,105,4530015,,,2022-09-05,清算の結了等,,,2015-10-05,1,,,,,ブンカトシカイハツキコウ,0
56,1011201005546,登記記録の閉鎖等,0,2022-09-13,2022-09-09,株式会社山茂,,株式会社,神奈川県,横浜市中区,山元町４丁目１８８番地５朝日山手マンション３０２,,14,104,2310851,,,2022-09-09,清算の結了等,,,2015-10-05,1,,,,,ヤマモ,0
60,1011401022770,登記記録の閉鎖等,0,2022-09-13,2022-09-07,株式会社ＲｅｔａｉｌＸ,,株式会社,神奈川県,横浜市港北区,新横浜２丁目１５番１２号,,14,109,2220033,,,2022-09-07,清算の結了等,,,2020-08-27,1,,,,,リテイルエックス,0
71,1020001082431,登記記録の閉鎖等,0,2022-09-13,2022-09-09,株式会社小松,,株式会社,神奈川県,川崎市幸区,南幸町３丁目１２４番地５尻手ビル１０１号,,14,132,2120016,,,2022-09-09,清算の結了等,,,2015-10-05,1,,,,,コマツ,0
83,1021002042993,登記記録の閉鎖等,0,2022-09-13,2022-09-09,有限会社渡部建設,,有限会社,神奈川県,大和市,福田１６１０番地,,14,213,2420024,,,2022-09-09,清算の結了等,,,2015-10-05,1,,,,,ワタベケンセツ,0
84,1021002047539,登記記録の閉鎖等,0,2022-09-13,2022-09-08,有限会社サン・クラフト・エヌビィ,,有限会社,神奈川県,大和市,上草柳８丁目４番１１号,,14,213,2420029,,,2022-09-08,清算の結了等,,,2015-10-05,1,,,,,サンクラフトエヌビィ,0
92,1040001023565,登記記録の閉鎖等,0,2022-09-13,2022-09-08,株式会社大生工業,,株式会社,千葉県,八千代市,村上３１０２番地１,,12,221,2760028,,,2022-09-08,清算の結了等,,,2015-10-05,1,,,,,ダイショウコウギョウ,0
104,1080001001451,登記記録の閉鎖等,0,2022-09-13,2022-09-12,株式会社幸和設備,,株式会社,静岡県,静岡市葵区,池ケ谷１番１４号,,22,101,4200936,,,2022-09-12,清算の結了等,,,2015-10-05,1,,,,,コウワセツビ,0
105,1080001004710,登記記録の閉鎖等,0,2022-09-13,2022-09-12,株式会社報徳不動産,,株式会社,静岡県,静岡市駿河区,稲川１丁目１０番２９号,,22,102,4228062,,,2022-09-12,清算の結了等,,,2015-10-05,1,,,,,ホウトクフドウサン,0
113,1080401010738,登記記録の閉鎖等,0,2022-09-13,2022-09-09,静岡食品工業株式会社,,株式会社,静岡県,浜松市北区,三方原町１３４番地の２,,22,135,4338105,,,2022-09-09,清算の結了等,,,2015-10-05,1,,,,,シズオカショクヒンコウギョウ,0
116,1100002001670,登記記録の閉鎖等,0,2022-09-13,2022-09-07,有限会社工信,,有限会社,長野県,長野市,大字北長池２０５３番地１,,20,201,3810025,,,2022-09-07,清算の結了等,,,2015-10-05,1,,,,,コウシン,0
142,1130005007927,登記記録の閉鎖等,0,2022-09-13,2022-09-06,医療法人小柴会,,その他の設立登記法人,京都府,亀岡市,篠町浄法寺中村２３番地の１,,26,206,6210835,,,2022-09-06,清算の結了等,,,2015-10-05,1,,,,,コシバカイ,0
196,1290802011462,登記記録の閉鎖等,0,2022-09-13,2022-09-08,有限会社ぶんオペレーションセンター,,有限会社,福岡県,北九州市小倉北区,大畠３丁目２番５６号,,40,106,8020026,,,2022-09-08,合併による解散等,9290001016314,令和４年９月１日福岡市博多区博多駅東二丁目５番３７号株式会社ぶんコーポレーション（9290001016314）に合併し解散,2015-10-05,1,,,,,ブンオペレーションセンター,0
206,1380001008268,登記記録の閉鎖等,0,2022-09-13,2022-09-08,株式会社タイアップライン,,株式会社,福島県,郡山市,大槻町字張股９－２２番地,,07,203,9630201,,,2022-09-08,清算の結了等,,,2015-10-05,1,,,,,,0
212,1430001055676,登記記録の閉鎖等,0,2022-09-13,2022-09-02,株式会社曲イ木瀬呉服店,,株式会社,北海道,沙流郡日高町,富川北２丁目３番１９号,,01,601,0550001,,,2022-09-02,清算の結了等,,,2015-10-05,1,,,,,マガリイキセゴフクテン,0
244,2010005023142,登記記録の閉鎖等,0,2022-09-13,2022-09-05,モニタリングシステム技術研究組合,,その他の設立登記法人,東京都,千代田区,神田須田町１丁目１６番地,,13,101,1010041,,,2022-09-05,清算の結了等,,,2015-10-05,1,,,,,モニタリングシステム,0
260,2010602019542,登記記録の閉鎖等,0,2022-09-13,2022-09-06,有限会社フドウ商事,,有限会社,東京都,江東区,亀戸１丁目１９番６号,,13,108,1360071,,,2022-09-06,清算の結了等,,,2015-10-05,1,,,,,フドウショウジ,0
267,2010901023922,登記記録の閉鎖等,0,2022-09-13,2022-09-05,株式会社メルクシステム,,株式会社,東京都,世田谷区,野沢２丁目２７番５号,,13,112,1540003,,,2022-09-05,清算の結了等,,,2015-10-05,1,,,,,メルクシステム,0
290,2011302001393,登記記録の閉鎖等,0,2022-09-13,2022-09-06,有限会社エースエンジニアリング,,有限会社,東京都,杉並区,高円寺北３丁目８番５号,,13,115,1660002,,,2022-09-06,清算の結了等,,,2015-10-05,1,,,,,エースエンジニアリング,0
316,2020001085020,登記記録の閉鎖等,0,2022-09-13,2022-09-02,株式会社ノハラ,,株式会社,東京都,渋谷区,代々木２丁目３０番４号,,13,113,1510053,,,2022-09-02,清算の結了等,,,2015-10-05,1,,,,,ノハラ,0
319,2020001096851,登記記録の閉鎖等,0,2022-09-13,2022-09-08,株式会社みえるメガネ,,株式会社,神奈川県,横浜市保土ケ谷区,新井町１８０番地２９,,14,106,2400053,,,2022-09-08,清算の結了等,,,2015-10-05,1,,,,,ミエルメガネ,0
325,2021001005174,登記記録の閉鎖等,0,2022-09-13,2022-09-08,サーフ＆フューチャー株式会社,,株式会社,静岡県,伊東市,瓶山２丁目８番２１号スプリングハイツ伊東７３１,,22,208,4140034,,,2022-09-08,清算の結了等,,,2015-10-05,1,,,,,サーフアンドフューチャー,0
330,2030001041872,登記記録の閉鎖等,0,2022-09-13,2022-09-07,株式会社ビバホーム,,株式会社,埼玉県,さいたま市浦和区,上木崎１丁目１３番１号,,11,107,3300071,,,2022-09-07,合併による解散等,4110001013829,令和４年９月１日新潟県三条市上須頃４４５番地アークランズ株式会社（4110001013829）に合併し解散,2015-10-05,1,,,,,ビバホーム,0
342,2040001030916,登記記録の閉鎖等,0,2022-09-13,2022-09-08,実業堂株式会社,,株式会社,千葉県,市川市,大野町４丁目２８６９番地４９,,12,203,2720805,,,2022-09-08,清算の結了等,,,2015-10-05,1,,,,,ジツギョウドウ,0
348,2050001004778,登記記録の閉鎖等,0,2022-09-13,2022-09-06,株式会社東海富士電化センター,,株式会社,茨城県,那珂郡東海村,大字村松字長畠１１２５番地２,,08,341,3191112,,,2022-09-06,清算の結了等,,,2015-10-05,1,,,,,トウカイフジデンカセンター,0
350,2050002004298,登記記録の閉鎖等,0,2022-09-13,2022-09-06,有限会社イイムラ,,有限会社,茨城県,水戸市,下野町７１０番地の２,,08,201,3190322,,,2022-09-06,清算の結了等,,,2015-10-05,1,,,,,イイムラ,0
352,2050005012083,登記記録の閉鎖等,0,2022-09-13,2022-09-08,特定非営利活動法人河童の仕業,,その他の設立登記法人,茨城県,潮来市,潮来１０６番地１０,,08,223,3112424,,,2022-09-08,清算の結了等,,,2017-05-23,1,,,,,カッパノシワザ,0
361,2080102008139,登記記録の閉鎖等,0,2022-09-13,2022-09-09,有限会社風間綿店,,有限会社,静岡県,伊豆市,柏久保５４４番地,,22,222,4102407,,,2022-09-09,清算の結了等,,,2015-10-05,1,,,,,カザマワタテン,0
400,2140001019148,登記記録の閉鎖等,0,2022-09-13,2022-09-07,中本商事株式会社,,株式会社,兵庫県,神戸市中央区,海岸通８番,,28,110,6500024,,,2022-09-07,清算の結了等,,,2015-10-05,1,,,,,ナカモトショウジ,0
404,2140002029138,登記記録の閉鎖等,0,2022-09-13,2022-09-07,有限会社ダイワ熱研,,有限会社,兵庫県,明石市,大久保町大窪１９７２番地,,28,203,6740051,,,2022-09-07,清算の結了等,,,2015-10-05,1,,,,,ダイワネッケン,0
413,2180002066375,登記記録の閉鎖等,0,2022-09-13,2022-09-08,有限会社誠建,,有限会社,愛知県,春日井市,如意申町７丁目１３番地の６,,23,206,4860918,,,2022-09-08,清算の結了等,,,2015-10-05,1,,,,,セイケン,0
432,2240002004213,登記記録の閉鎖等,0,2022-09-13,2022-09-07,有限会社川崎タイル,,有限会社,広島県,広島市安芸区,中野東５丁目４１番２５号,,34,107,7390323,,,2022-09-07,清算の結了等,,,2015-10-05,1,,,,,カワサキタイル,0
443,2290003007706,登記記録の閉鎖等,0,2022-09-13,2022-09-05,合同会社九三合インテルナシオナル,,合同会社,福岡県,那珂川市,片縄北３丁目４番１８号,,40,231,8111203,,,2022-09-05,清算の結了等,,,2017-12-25,1,,,,,クミアイインテルナシオナル,0
444,2320001005591,登記記録の閉鎖等,0,2022-09-13,2022-09-06,株式会社若昇,,株式会社,大分県,大分市,大字馬場１９６番地,,44,201,8792112,,,2022-09-06,清算の結了等,,,2015-10-05,1,,,,,ワカショウ,0
447,2340001005648,登記記録の閉鎖等,0,2022-09-13,2022-09-09,コンフォートサービス株式会社,,株式会社,鹿児島県,鹿児島市,上荒田町２３番８号,,46,201,8900055,,,2022-09-09,清算の結了等,,,2015-10-05,1,,,,,コンフォートサービス,0
455,2380002021590,登記記録の閉鎖等,0,2022-09-13,2022-09-09,有限会社星林業,,有限会社,福島県,岩瀬郡天栄村,大字田良尾字鹿野３番地,,07,344,9620622,,,2022-09-09,清算の結了等,,,2015-10-05,1,,,,,ホシリンギョウ,0
471,2470001011352,登記記録の閉鎖等,0,2022-09-13,2022-09-12,株式会社シロトリ倉庫,,株式会社,香川県,東かがわ市,三本松１６９４番地,,37,207,7692601,,,2022-09-12,清算の結了等,,,2015-10-05,1,,,,,シロトリソウコ,0
499,3011001137686,登記記録の閉鎖等,0,2022-09-13,2022-08-30,株式会社アナザーアイ,,株式会社,東京都,目黒区,青葉台３丁目１８番３号ＴＨＥＷＯＲＫＳ５Ａ,,13,110,1530042,,,2022-08-30,清算の結了等,,,2020-12-28,1,,,,,アナザーアイ,0
534,3020001128141,登記記録の閉鎖等,0,2022-09-13,2022-09-07,株式会社Ｓａｎｒａｉ,,株式会社,神奈川県,横浜市保土ケ谷区,常盤台６１番４０号コートハウス常盤台２０２,,14,106,2400067,,,2022-09-07,清算の結了等,,,2018-10-04,1,,,,,サンライ,0
535,3020002023630,登記記録の閉鎖等,0,2022-09-13,2022-09-08,有限会社工樹園,,有限会社,神奈川県,横浜市保土ケ谷区,上菅田町７５１番地の３,,14,106,2400051,,,2022-09-08,清算の結了等,,,2015-10-05,1,,,,,コウジュエン,0
559,3040001083863,登記記録の閉鎖等,0,2022-09-13,2022-09-07,株式会社ＴＥＡＫＳ　ＪＡＰＡＮ,,株式会社,千葉県,千葉市中央区,今井１丁目２５番１３号,,12,101,2600834,,,2022-09-07,清算の結了等,,,2015-10-05,1,,,,,ティークスジャパン,0
564,3040002054822,登記記録の閉鎖等,0,2022-09-13,2022-09-05,有限会社飯嶋測量事務所,,有限会社,千葉県,成田市,郷部１３４４番地,,12,211,2860014,,,2022-09-05,清算の結了等,,,2015-10-05,1,,,,,イイジマソクリョウジムショ,0
566,3040003012151,登記記録の閉鎖等,0,2022-09-13,2022-09-08,合同会社鈴木建設,,合同会社,千葉県,八千代市,勝田台北３丁目３－１１エメラルドハウス１０３号,,12,221,2760020,,,2022-09-08,清算の結了等,,,2018-09-13,1,,,,,スズキケンセツ,0
580,3080402002947,登記記録の閉鎖等,0,2022-09-13,2022-09-08,有限会社小島屋,,有限会社,静岡県,浜松市中区,佐鳴台３丁目５７番２２号,,22,131,4328021,,,2022-09-08,清算の結了等,,,2015-10-05,1,,,,,コジマヤ,0
587,3110002029825,登記記録の閉鎖等,0,2022-09-13,2022-09-08,有限会社長島商店,,有限会社,新潟県,長岡市,山古志竹沢甲２０２２番地,,15,202,9470204,,,2022-09-08,清算の結了等,,,2015-10-05,1,,,,,ナガシマショウテン,0
606,3120002022944,登記記録の閉鎖等,0,2022-09-13,2022-09-08,有限会社福寿司,,有限会社,大阪府,大阪市西区,九条２丁目５番１１号,,27,106,5500027,,,2022-09-08,清算の結了等,,,2015-10-05,1,,,,,フクスシ,0
624,3140001051471,登記記録の閉鎖等,0,2022-09-13,2022-09-07,株式会社ミント,,株式会社,兵庫県,尼崎市,立花町４丁目３番１号,,28,202,6610025,,,2022-09-07,清算の結了等,,,2015-10-05,1,,,,,ミント,0
629,3140001110665,登記記録の閉鎖等,0,2022-09-13,2022-09-08,株式会社メディアエステート,,株式会社,兵庫県,芦屋市,三条南町８番１２－４０３,,28,206,6590086,,,2022-09-08,合併による解散等,9140001082206,令和４年９月１日大阪市北区天神橋五丁目１番７号株式会社メディアエステート（9140001082206）に合併し解散,2018-07-12,1,,,,,メディアエステート,0
637,3160001004188,登記記録の閉鎖等,0,2022-09-13,2022-09-06,ジャパン・ネット住通株式会社,,株式会社,滋賀県,大津市,大江３丁目５番２５号リコースクエアビル２階,,25,201,5202141,,,2022-09-06,清算の結了等,,,2015-10-05,1,,,,,ジャパンネットジュウツウ,0
642,3180001040917,登記記録の閉鎖等,0,2022-09-13,2022-09-05,株式会社クオリア,,株式会社,愛知県,名古屋市東区,泉１丁目１５番２３号,,23,102,4610001,,,2022-09-05,清算の結了等,,,2015-10-05,1,,,,,クオリア,0
648,3180002003014,登記記録の閉鎖等,0,2022-09-13,2022-09-08,有限会社フジモリ,,有限会社,愛知県,名古屋市名東区,宝が丘７１番地,,23,115,4650043,,,2022-09-08,清算の結了等,,,2015-10-05,1,,,,,フジモリ,0
652,3180005015964,登記記録の閉鎖等,0,2022-09-13,2022-09-06,一般社団法人名古屋醫新の会,,その他の設立登記法人,愛知県,名古屋市中区,栄３丁目４番５号,,23,106,4600008,,,2022-09-06,清算の結了等,,,2015-10-05,1,,,,,ナゴヤイシンノカイ,0
672,3260001033887,登記記録の閉鎖等,0,2022-09-13,2022-09-09,株式会社コークリエーションズ,,株式会社,岡山県,岡山市北区,野田３丁目１番１３号共商ビル,,33,101,7000971,,,2022-09-09,清算の結了等,,,2020-01-08,1,,,,,コークリエーションズ,0
681,3290001069400,登記記録の閉鎖等,0,2022-09-13,2022-09-08,株式会社ＬＩＥＮ,,株式会社,福岡県,福岡市中央区,高砂２丁目８番１２号朝野ビル４階,,40,133,8100011,,,2022-09-08,合併による解散等,8180001112728,令和４年９月１日名古屋市天白区原四丁目１４０１番地株式会社ＳＨＣ（8180001112728）に合併し解散,2015-10-05,1,,,,,リアン,0
687,3290002011154,登記記録の閉鎖等,0,2022-09-13,2022-09-05,有限会社システムサービス,,有限会社,福岡県,福岡市東区,和白丘２丁目２５番１３号,,40,131,8110213,,,2022-09-05,清算の結了等,,,2015-10-05,1,,,,,システムサービス,0
690,3290002046712,登記記録の閉鎖等,0,2022-09-13,2022-09-05,有限会社ミヤジマ保険サービス,,有限会社,福岡県,飯塚市,忠隈７７番地５７,,40,205,8200071,,,2022-09-05,清算の結了等,,,2015-10-05,1,,,,,ミヤジマホケンサービス,0
705,3350002015306,登記記録の閉鎖等,0,2022-09-13,2022-09-12,有限会社青果ワールド,,有限会社,宮崎県,北諸県郡三股町,大字蓼池３６６２番地５,,45,341,8891914,,,2022-09-12,清算の結了等,,,2015-10-05,1,,,,,セイカワールド,0
728,3430005012639,登記記録の閉鎖等,0,2022-09-13,2022-09-07,創生事業協同組合,,その他の設立登記法人,北海道,札幌市北区,北十条西２丁目１３番地２,,01,102,0010010,,,2022-09-07,清算の結了等,,,2015-10-28,1,,,,,ソウセイ,0
733,3500001011447,登記記録の閉鎖等,0,2022-09-13,2022-09-09,ぎの都市開発株式会社,,株式会社,愛媛県,今治市,常盤町４丁目８番地１８,,38,202,7940015,,,2022-09-09,清算の結了等,,,2015-10-05,1,,,,,ギノトシカイハツ,0
752,4010401120937,登記記録の閉鎖等,0,2022-09-13,2022-08-30,ジュピターインベストメント株式会社,,株式会社,東京都,港区,六本木１丁目６番１号,,13,103,1060032,,,2022-08-30,合併による解散等,7013301040756,令和４年８月２９日東京都港区六本木一丁目６番１号泉ガーデンタワーＦＬＣキャピタル株式会社（7013301040756）に合併し解散,2015-10-16,1,,,,,ジュピターインベストメント,0
772,4010803002733,登記記録の閉鎖等,0,2022-09-13,2022-09-05,合同会社アドベンチャーズ,,合同会社,東京都,杉並区,本天沼２丁目８番１２号,,13,115,1670031,,,2022-09-05,清算の結了等,,,2018-07-03,1,,,,,アドベンチャーズ,0
773,4010901007122,登記記録の閉鎖等,0,2022-09-13,2022-09-06,タカダ電子株式会社,,株式会社,東京都,世田谷区,北烏山８丁目２２番１５号,,13,112,1570061,,,2022-09-06,清算の結了等,,,2015-10-05,1,,,,,タカダデンシ,0
814,4012801000561,登記記録の閉鎖等,0,2022-09-13,2022-09-05,桜井電材株式会社,,株式会社,東京都,立川市,富士見町３丁目２番１３号,,13,202,1900013,,,2022-09-05,清算の結了等,,,2015-10-05,1,,,,,サクライデンザイ,0
822,4020001106261,登記記録の閉鎖等,0,2022-09-13,2022-09-06,株式会社マッチメイク,,株式会社,神奈川県,横浜市保土ケ谷区,岩井町１５番地３,,14,106,2400023,,,2022-09-06,清算の結了等,,,2015-10-05,1,,,,,マッチメイク,0
838,4030001042209,登記記録の閉鎖等,0,2022-09-13,2022-08-31,太陽紙業株式会社,,株式会社,埼玉県,桶川市,大字坂田８６０番地３,,11,231,3630008,,,2022-08-31,清算の結了等,,,2015-10-05,1,,,,,タイヨウシギョウ,0
842,4030001115410,登記記録の閉鎖等,0,2022-09-13,2022-08-31,株式会社皆伸社,,株式会社,埼玉県,北葛飾郡松伏町,大字大川戸３６６番地,,11,465,3430106,,,2022-08-31,合併による解散等,6030001115409,令和４年８月３１日埼玉県北葛飾郡松伏町大字大川戸３６６番地株式会社セキネ（6030001115409）に合併し解散,2016-07-14,1,,,,,カイシンシャ,0
847,4030002055647,登記記録の閉鎖等,0,2022-09-13,2022-09-01,有限会社木村薫建築設計事務所,,有限会社,埼玉県,桶川市,鴨川１丁目１２番２５号,,11,231,3630024,,,2022-09-01,清算の結了等,,,2015-10-05,1,,,,,キムラカオルケンチクセッケイジムショ,0
848,4030002103307,登記記録の閉鎖等,0,2022-09-13,2022-08-29,有限会社サンユーパッケージ,,有限会社,埼玉県,川口市,北原台３丁目１６番４５号,,11,203,3330815,,,2022-08-29,清算の結了等,,,2015-10-05,1,,,,,サンユーパッケージ,0
852,4040003016457,登記記録の閉鎖等,0,2022-09-13,2022-09-08,合同会社アパフォリオ１号,,合同会社,千葉県,船橋市,前原西２丁目３０番７号,,12,204,2740825,,,2022-09-08,清算の結了等,,,2020-11-19,1,,,,,アパフォリオイチゴウ,0
867,4080001006241,登記記録の閉鎖等,0,2022-09-13,2022-09-09,株式会社ユーダッシュ,,株式会社,静岡県,静岡市葵区,山崎２丁目１９番地の１５,,22,101,4211213,,,2022-09-09,清算の結了等,,,2015-10-05,1,,,,,ユーダッシュ,0
877,4100002004464,登記記録の閉鎖等,0,2022-09-13,2022-09-08,有限会社フレッシュ市場・高原,,有限会社,長野県,長野市,大字栗田６３１番地２,,20,201,3800921,,,2022-09-08,清算の結了等,,,2015-10-05,1,,,,,フレッシュイチバコウゲン,0
885,4110002024750,登記記録の閉鎖等,0,2022-09-13,2022-09-07,有限会社ｋｔｅｃｈ,,有限会社,新潟県,上越市,東城町３丁目１２番１３号,,15,222,9430836,,,2022-09-07,清算の結了等,,,2015-10-05,1,,,,,ケーテック,0
940,4240001032337,登記記録の閉鎖等,0,2022-09-13,2022-09-08,村上株式会社,,株式会社,広島県,福山市,北吉津町３丁目１２番２４号,,34,207,7200073,,,2022-09-08,清算の結了等,,,2015-10-05,1,,,,,ムラカミ,0
941,4240002013699,登記記録の閉鎖等,0,2022-09-13,2022-09-09,有限会社ビジョン,,有限会社,広島県,広島市中区,幟町９番４号９０２,,34,101,7300016,,,2022-09-09,清算の結了等,,,2015-10-05,1,,,,,ビジョン,0
958,4340002015875,登記記録の閉鎖等,0,2022-09-13,2022-09-09,有限会社信和工業,,有限会社,鹿児島県,姶良市,平松２１７８番地１,,46,225,8995652,,,2022-09-09,清算の結了等,,,2015-10-05,1,,,,,シンワコウギョウ,0
961,4350001009183,登記記録の閉鎖等,0,2022-09-13,2022-09-08,株式会社日本電信ソリューション,,株式会社,宮崎県,都城市,早鈴町６街区２０号,,45,202,8850055,,,2022-09-08,清算の結了等,,,2015-10-05,1,,,,,ニホンデンシンソリューション,0
972,4420001011925,登記記録の閉鎖等,0,2022-09-13,2022-09-07,近藤電気工業株式会社,,株式会社,青森県,上北郡野辺地町,字下坂２０番地７,,02,401,0393117,,,2022-09-07,清算の結了等,,,2015-10-05,1,,,,,コンドウデンキコウギョウ,0
995,5010001151522,登記記録の閉鎖等,0,2022-09-13,2022-09-02,クロスランゲージホールディングス株式会社,,株式会社,東京都,千代田区,紀尾井町３番６号,,13,101,1020094,,,2022-09-02,合併による解散等,6010001128759,令和４年９月１日東京都千代田区紀尾井町３番６号株式会社クロスランゲージ（6010001128759）に合併し解散,2015-10-05,1,,,,,,0
1011,5010401162350,登記記録の閉鎖等,0,2022-09-13,2022-09-07,ＧＣＪＩ４株式会社,,株式会社,東京都,港区,元赤坂１丁目１番８号株式会社赤坂国際会計内,,13,103,1070051,,,2022-09-07,合併による解散等,7100001022456,令和４年９月１日長野県飯田市川路７５７６番地３三和ロボティクス株式会社（7100001022456）に合併し解散,2021-08-27,1,,,,,ジーシージェイアイフォー,0
1013,5010403018880,登記記録の閉鎖等,0,2022-09-13,2022-08-30,ソロレス・キャピタル合同会社,,合同会社,東京都,港区,南青山２丁目２番１５号ウィン青山９４２,,13,103,1070062,,,2022-08-30,清算の結了等,,,2018-07-02,1,,,,,ソロレスキャピタル,0
1017,5010601024193,登記記録の閉鎖等,0,2022-09-13,2022-09-06,株式会社エターナルユー,,株式会社,東京都,墨田区,京島１丁目４１番１号,,13,107,1310046,,,2022-09-06,清算の結了等,,,2015-10-05,1,,,,,エターナルユー,0
1025,5011001009041,登記記録の閉鎖等,0,2022-09-13,2022-09-01,三誠企画株式会社,,株式会社,東京都,渋谷区,代々木１丁目３８番１９号,,13,113,1510053,,,2022-09-01,清算の結了等,,,2015-10-05,1,,,,,サンセイキカク,0
1055,5012401038051,登記記録の閉鎖等,0,2022-09-13,2022-09-08,新大石屋製薬株式会社,,株式会社,東京都,三鷹市,下連雀３丁目４１番１２－３０４号,,13,204,1810013,,,2022-09-08,清算の結了等,,,2021-07-02,1,,,,,シンオオイシヤセイヤク,0
1113,5060001026257,登記記録の閉鎖等,0,2022-09-13,2022-09-07,株式会社スクエア．デザイン,,株式会社,栃木県,宇都宮市,問屋町３４１３番地５６,,09,201,3210911,,,2022-09-07,清算の結了等,,,2015-10-05,1,,,,,スクエアデザイン,0
1121,5080001000937,登記記録の閉鎖等,0,2022-09-13,2022-09-12,小野田精麦株式会社,,株式会社,静岡県,静岡市駿河区,大和１丁目７番２６号,,22,102,4228077,,,2022-09-12,清算の結了等,,,2015-10-05,1,,,,,オノダセイバク,0
1129,5090001016486,登記記録の閉鎖等,0,2022-09-13,2022-09-09,株式会社オットモンテ・ブルーベリーファーム,,株式会社,山梨県,北杜市,長坂町大八田２６３１－１,,19,209,4080034,,,2022-09-09,清算の結了等,,,2020-04-23,1,,,,,オットモンテブルーベリーファーム,0
1131,5100002000181,登記記録の閉鎖等,0,2022-09-13,2022-09-07,アケボノ不動産有限会社,,有限会社,長野県,長野市,三輪７丁目９番１６号,,20,201,3800803,,,2022-09-07,清算の結了等,,,2015-10-05,1,,,,,アケボノフドウサン,0
1161,5122001005894,登記記録の閉鎖等,0,2022-09-13,2022-09-05,株式会社白栄舎,,株式会社,大阪府,東大阪市,善根寺町５丁目３番５号,,27,227,5798001,,,2022-09-05,清算の結了等,,,2015-10-05,1,,,,,,0
1169,5130002018477,登記記録の閉鎖等,0,2022-09-13,2022-09-05,有限会社甚左衛門,,有限会社,京都府,京都市山科区,大塚高岩１２,,26,110,6078122,,,2022-09-05,清算の結了等,,,2015-10-05,1,,,,,ジンザエモン,0
1175,5140001097851,登記記録の閉鎖等,0,2022-09-13,2022-09-07,株式会社前川免疫研究所,,株式会社,兵庫県,神戸市東灘区,住吉本町１丁目１１番２８－６０１号,,28,101,6580051,,,2022-09-07,清算の結了等,,,2015-10-05,1,,,,,マエカワメンエキケンキュウショ,0
1177,5140002028707,登記記録の閉鎖等,0,2022-09-13,2022-09-06,有限会社共栄青果,,有限会社,兵庫県,明石市,藤江２０２９番地の１,,28,203,6730044,,,2022-09-06,清算の結了等,,,2015-10-05,1,,,,,キョウエイセイカ,0
1179,5140002033698,登記記録の閉鎖等,0,2022-09-13,2022-09-05,有限会社城西工業,,有限会社,兵庫県,赤穂市,尾崎３５４８番地の２,,28,212,6780221,,,2022-09-05,清算の結了等,,,2015-10-05,1,,,,,ジョウサイコウギョウ,0
1184,5160001000573,登記記録の閉鎖等,0,2022-09-13,2022-09-08,株式会社菊田組,,株式会社,滋賀県,大津市,坂本７丁目３４番１３号,,25,201,5200113,,,2022-09-08,清算の結了等,,,2015-10-05,1,,,,,キクタグミ,0
1191,5160005006724,登記記録の閉鎖等,0,2022-09-13,2022-09-08,熊野ワークス企業組合,,その他の設立登記法人,滋賀県,蒲生郡日野町,大字熊野４３１番地,,25,383,5291623,,,2022-09-08,清算の結了等,,,2015-10-05,1,,,,,クマノワークス,0
1193,5180001045872,登記記録の閉鎖等,0,2022-09-13,2022-09-07,株式会社新生堂,,株式会社,愛知県,北名古屋市,沖村権現１２番地,,23,234,4810043,,,2022-09-07,清算の結了等,,,2015-10-05,1,,,,,シンセイドウ,0
1199,5180301019064,登記記録の閉鎖等,0,2022-09-13,2022-09-02,西村土木株式会社,,株式会社,愛知県,豊田市,室町３丁目４番地３,,23,211,4710818,,,2022-09-02,清算の結了等,,,2015-10-05,1,,,,,ニシムラドボク,0
1200,5180302014139,登記記録の閉鎖等,0,2022-09-13,2022-09-02,有限会社やまぐち,,有限会社,愛知県,豊川市,塔ノ木町１丁目２７番地,,23,207,4420881,,,2022-09-02,清算の結了等,,,2015-10-05,1,,,,,ヤマグチ,0
1213,5240002008120,登記記録の閉鎖等,0,2022-09-13,2022-09-09,有限会社ジャパンラテックス,,有限会社,広島県,広島市安佐南区,緑井７丁目２１番６７－５号,,34,105,7310103,,,2022-09-09,清算の結了等,,,2015-10-05,1,,,,,ジャパンラテックス,0
1214,5240002012394,登記記録の閉鎖等,0,2022-09-13,2022-09-12,有限会社二和産業,,有限会社,広島県,広島市佐伯区,五日市中央２丁目２番１１号,,34,108,7315128,,,2022-09-12,清算の結了等,,,2015-10-05,1,,,,,,0
1215,5240002035164,登記記録の閉鎖等,0,2022-09-13,2022-09-08,有限会社野呂共同村事業所,,有限会社,広島県,呉市,安浦町大字女子畑１３３番地,,34,202,7372501,,,2022-09-08,清算の結了等,,,2015-10-05,1,,,,,ノロキョウドウムラジギョウショ,0
1216,5240002042714,登記記録の閉鎖等,0,2022-09-13,2022-09-06,富士工産有限会社,,有限会社,広島県,福山市,山手町５丁目３６番１６号,,34,207,7200092,,,2022-09-06,清算の結了等,,,2015-10-05,1,,,,,フジコウサン,0
1225,5290001086047,登記記録の閉鎖等,0,2022-09-13,2022-08-30,コミュニケーション改善研究所株式会社,,株式会社,東京都,港区,六本木７丁目７番７号トライセブン六本木８階,,13,103,1060032,,,2022-08-30,合併による解散等,7290001094808,令和４年８月３０日東京都港区六本木七丁目７番７号トライセブン六本木８階コミュニケーションプラス株式会社（7290001094808）に合併し解散,2019-07-31,1,,,,,コミュニケーションカイゼンケンキュウショ,0
1235,5290802024394,登記記録の閉鎖等,0,2022-09-13,2022-09-05,有限会社日の出薬局,,有限会社,福岡県,福岡市中央区,長浜２丁目２番８－２００２号,,40,133,8100072,,,2022-09-05,清算の結了等,,,2015-10-05,1,,,,,ヒノデヤッキョク,0
1240,5320002006891,登記記録の閉鎖等,0,2022-09-13,2022-09-06,森崎鉄筋有限会社,,有限会社,大分県,大分市,新川町２丁目５番４１号,,44,201,8700016,,,2022-09-06,清算の結了等,,,2015-10-05,1,,,,,,0
1254,5380002030721,登記記録の閉鎖等,0,2022-09-13,2022-09-09,有限会社キムラ工業,,有限会社,福島県,双葉郡浪江町,大字井手字猿田８０番地,,07,547,9791535,,,2022-09-09,清算の結了等,,,2015-10-05,1,,,,,,0
1258,5430001062181,登記記録の閉鎖等,0,2022-09-13,2022-09-05,株式会社でんでん,,株式会社,北海道,札幌市中央区,北三条西２丁目１２番地,,01,101,0600003,,,2022-09-05,清算の結了等,,,2015-10-05,1,,,,,デンデン,0
1268,5460302001802,登記記録の閉鎖等,0,2022-09-13,2022-09-12,有限会社丸喜伊藤建設,,有限会社,北海道,北見市,とん田東町５４１番地の５８,,01,208,0900833,,,2022-09-12,清算の結了等,,,2015-10-05,1,,,,,マルキイトウケンセツ,0
1271,5470002003890,登記記録の閉鎖等,0,2022-09-13,2022-09-09,有限会社スワ・ビル,,有限会社,香川県,高松市,中間町７３８番地４,,37,201,7618043,,,2022-09-09,清算の結了等,,,2015-10-05,1,,,,,スワビル,0
1279,6010001043958,登記記録の閉鎖等,0,2022-09-13,2022-09-06,株式会社江州屋木村商店,,株式会社,東京都,中央区,築地６丁目１番９号,,13,102,1040045,,,2022-09-06,清算の結了等,,,2015-10-05,1,,,,,ゴウシュウヤキムラショウテン,0
1284,6010001163186,登記記録の閉鎖等,0,2022-09-13,2022-09-06,株式会社ＭＣＡＰ　ＪＡＰＡＮ０４,,株式会社,東京都,千代田区,丸の内１丁目４番１号,,13,101,1000005,,,2022-09-06,清算の結了等,,,2015-10-05,1,,,,,エムキャップジャパンゼロヨン,0
1302,6010005030580,登記記録の閉鎖等,0,2022-09-13,2022-09-07,税理士法人エーティーリンク,,その他の設立登記法人,東京都,千代田区,麹町１丁目６番地３－７０３,,13,101,1020083,,,2022-09-07,清算の結了等,,,2019-08-06,1,,,,,エーティーリンク,0
1308,6010401136452,登記記録の閉鎖等,0,2022-09-13,2022-09-07,株式会社鉄人,,株式会社,東京都,港区,芝３丁目１５番１３号ＹＯＤＡビル８階,,13,103,1050014,,,2022-09-07,合併による解散等,5011101054391,令和４年９月１日東京都新宿区新宿二丁目３番１１号株式会社パッションアンドクリエイト（5011101054391）に合併し解散,2018-02-05,1,,,,,,0
1329,6011001066718,登記記録の閉鎖等,0,2022-09-13,2022-09-08,ＧＯＳＳＯコンサルティング株式会社,,株式会社,東京都,渋谷区,宇田川町１２番３－５０９号,,13,113,1500042,,,2022-09-08,合併による解散等,6040002031356,令和４年９月１日千葉県船橋市西船四丁目９番２０号ＧＯＳＳＯ株式会社（6040002031356）に合併し解散,2015-10-05,1,,,,,,0
1349,6011805002356,登記記録の閉鎖等,0,2022-09-13,2022-09-06,一般社団法人日本省エネ設備施工協会,,その他の設立登記法人,東京都,足立区,千住５丁目１５番３号,,13,121,1200034,,,2022-09-06,清算の結了等,,,2015-10-05,1,,,,,ニホンショウエネセツビセコウキョウカイ,0
1372,6021002046123,登記記録の閉鎖等,0,2022-09-13,2022-09-09,笠間興業有限会社,,有限会社,神奈川県,綾瀬市,寺尾釜田３丁目４番３号,,14,218,2521135,,,2022-09-09,清算の結了等,,,2015-10-05,1,,,,,カサマコウギョウ,0
1376,6030001050878,登記記録の閉鎖等,0,2022-09-13,2022-09-01,大野精密工業株式会社,,株式会社,埼玉県,春日部市,豊野町２丁目２０番地２,,11,214,3440014,,,2022-09-01,清算の結了等,,,2015-10-05,1,"Ohno Seimitsu Industry,Ltd",Saitama,"2-20-2,Toyonocho, Kasukabe shi",,オオノセイミツコウギョウ,0
1377,6030001060646,登記記録の閉鎖等,0,2022-09-13,2022-09-01,スリーエス株式会社,,株式会社,埼玉県,本庄市,児玉町児玉２４７７番地６,,11,211,3670212,,,2022-09-01,清算の結了等,,,2015-10-05,1,,,,,スリーエス,0
1388,6030002105689,登記記録の閉鎖等,0,2022-09-13,2022-08-29,有限会社夏目工務店,,有限会社,埼玉県,川口市,大字安行慈林４６番地,,11,203,3340071,,,2022-08-29,清算の結了等,,,2015-10-05,1,,,,,ナツメコウムテン,0
1390,6040001007092,登記記録の閉鎖等,0,2022-09-13,2022-09-01,株式会社マップ,,株式会社,埼玉県,戸田市,笹目北町２番地の１２（リュエル北戸田エアリア４０１号室）,,11,224,3350033,,,2022-09-01,清算の結了等,,,2015-10-05,1,,,,,マップ,0
1401,6040002080510,登記記録の閉鎖等,0,2022-09-13,2022-09-06,有限会社江澤工業,,有限会社,千葉県,長生郡長南町,芝原１４７９番地,,12,427,2970134,,,2022-09-06,清算の結了等,,,2015-10-05,1,,,,,エザワコウギョウ,0
1407,6060001012784,登記記録の閉鎖等,0,2022-09-13,2022-09-07,ケイティディ株式会社,,株式会社,栃木県,大田原市,薄葉１７７５番地,,09,210,3240035,,,2022-09-07,合併による解散等,4010701005581,令和４年９月１日東京都品川区西中延二丁目１２番１３号株式会社ディード（4010701005581）に合併し解散,2015-10-05,1,,,,,ケイティディ,0
1420,6080403004510,登記記録の閉鎖等,0,2022-09-13,2022-09-09,合同会社フカミ,,合同会社,静岡県,袋井市,深見２４１０番地,,22,216,4370051,,,2022-09-09,清算の結了等,,,2022-04-08,1,,,,,フカミ,0
1421,6100001012053,登記記録の閉鎖等,0,2022-09-13,2022-09-08,株式会社サントー,,株式会社,長野県,中野市,大字新保３２３番地２,,20,211,3830036,,,2022-09-08,清算の結了等,,,2015-10-05,1,,,,,サントー,0
1435,6120001143177,登記記録の閉鎖等,0,2022-09-13,2022-09-06,アイケーシー株式会社,,株式会社,大阪府,大阪市東淀川区,西淡路４丁目３番４号,,27,114,5330031,,,2022-09-06,合併による解散等,1120001081654,令和４年９月１日大阪市東淀川区西淡路四丁目３番４号ＩＫＣＳ株式会社（1120001081654）に合併し解散,2015-10-05,1,,,,,アイケーシー,0
1438,6120001220554,登記記録の閉鎖等,0,2022-09-13,2022-09-08,株式会社メディアエステート,,株式会社,兵庫県,宝塚市,長尾台１丁目７番１４号,,28,214,6650807,,,2022-09-08,合併による解散等,9140001082206,令和４年９月１日大阪市北区天神橋五丁目１番７号株式会社メディアエステート（9140001082206）に合併し解散,2019-04-22,1,,,,,メディアエステート,0
1447,6130002030084,登記記録の閉鎖等,0,2022-09-13,2022-09-09,有限会社ファーストツリー,,有限会社,奈良県,奈良市,押熊町１１５３番地,,29,201,6310011,,,2022-09-09,清算の結了等,,,2015-10-05,1,,,,,ファーストツリー,0
1452,6160001002478,登記記録の閉鎖等,0,2022-09-13,2022-09-06,株式会社シービーエー,,株式会社,滋賀県,大津市,御陵町５番１９号,,25,201,5200037,,,2022-09-06,清算の結了等,,,2015-10-05,1,,,,,,0
1463,6180001111946,登記記録の閉鎖等,0,2022-09-13,2022-09-08,美空株式会社,,株式会社,愛知県,名古屋市北区,平安２丁目２４番８６号ダイアパレス平安通１００４号,,23,103,4620819,,,2022-09-08,清算の結了等,,,2015-10-05,1,,,,,ミソラ,0
1485,6230003001173,登記記録の閉鎖等,0,2022-09-13,2022-09-07,合同会社ルナグループ,,合同会社,富山県,高岡市,高陵町７番３７号,,16,202,9330018,,,2022-09-07,清算の結了等,,,2018-01-15,1,,,,,ルナグループ,0
1511,6340001018522,登記記録の閉鎖等,0,2022-09-13,2022-09-12,株式会社ワールウインド,,株式会社,鹿児島県,霧島市,溝辺町麓１４２３番地３,,46,218,8996404,,,2022-09-12,清算の結了等,,,2015-10-05,1,,,,,,0
1513,6350001010585,登記記録の閉鎖等,0,2022-09-13,2022-09-08,株式会社ジー・プランニング,,株式会社,宮崎県,宮崎市,千草町１番２２号,,45,201,8800006,,,2022-09-08,合併による解散等,9290001044884,令和４年９月１日福岡市博多区中洲四丁目３番１８号株式会社ＭＦＳＧ（9290001044884）に合併し解散,2015-10-05,1,,,,,ジープランニング,0
1529,6430003011391,登記記録の閉鎖等,0,2022-09-13,2022-09-02,合同会社ケンコーラボ,,合同会社,北海道,札幌市中央区,北三条西２０丁目２番１６号,,01,101,0640823,,,2022-09-02,清算の結了等,,,2020-03-19,1,,,,,ケンコーラボ,0
1534,6460001004477,登記記録の閉鎖等,0,2022-09-13,2022-09-08,株式会社システム,,株式会社,北海道,釧路市,中鶴野３９番４号,,01,206,0840929,,,2022-09-08,清算の結了等,,,2015-10-05,1,,,,,システム,0
1540,6490002007781,登記記録の閉鎖等,0,2022-09-13,2022-09-06,有限会社村田会計サービス,,有限会社,高知県,高知市,旭町１丁目１１２番地８,,39,201,7800935,,,2022-09-06,清算の結了等,,,2015-10-05,1,,,,,ムラタカイケイサービス,0
1561,7010101006970,登記記録の閉鎖等,0,2022-09-13,2022-09-08,株式会社プラス・プランツ,,株式会社,東京都,八王子市,南大沢１丁目２０－１２ＬＭ京王南大沢３０１,,13,201,1920364,,,2022-09-08,清算の結了等,,,2015-10-05,1,,,,,プラスプランツ,0
1606,7011101063085,登記記録の閉鎖等,0,2022-09-13,2022-09-07,株式会社アークサービス,,株式会社,東京都,千代田区,神田須田町１丁目５東洋ビル３階,,13,101,1010041,,,2022-09-07,合併による解散等,6180001137124,令和４年９月１日名古屋市瑞穂区弥富町字月見ケ岡４５番地株式会社コロット（6180001137124）に合併し解散,2015-10-05,1,,,,,アークサービス,0
1618,7011503004521,登記記録の閉鎖等,0,2022-09-13,2022-09-08,合同会社ＮＣ　ＢＡＳＥ,,合同会社,東京都,荒川区,南千住５丁目３３番５号,,13,118,1160003,,,2022-09-08,清算の結了等,,,2020-09-24,1,,,,,エヌシーベース,0
1626,7012801017776,登記記録の閉鎖等,0,2022-09-13,2022-09-05,株式会社モノリス,,株式会社,東京都,国立市,富士見台１丁目１７番地１７－２０２,,13,215,1860003,,,2022-09-05,清算の結了等,,,2017-02-09,1,,,,,モノリス,0
1627,7012801017842,登記記録の閉鎖等,0,2022-09-13,2022-09-02,アイージェ株式会社,,株式会社,東京都,立川市,曙町３丁目２４番８号ストーク立川４０１,00109572,13,202,1900012,,,2022-09-02,清算の結了等,,,2017-03-08,1,,,,,アイージェ,0
1635,7020001072658,登記記録の閉鎖等,0,2022-09-13,2022-09-08,株式会社栗城重機,,株式会社,神奈川県,川崎市川崎区,中島３丁目４番１５号,,14,131,2100806,,,2022-09-08,清算の結了等,,,2015-10-05,1,,,,,クリキジュウキ,0
1639,7020001093778,登記記録の閉鎖等,0,2022-09-13,2022-09-06,株式会社津野田,,株式会社,神奈川県,横浜市都筑区,東方町４１０番地,,14,118,2240045,,,2022-09-06,清算の結了等,,,2015-10-05,1,,,,,ツノダ,0
1653,7021002066327,登記記録の閉鎖等,0,2022-09-13,2022-09-07,有限会社美栄堂,,有限会社,神奈川県,横須賀市,根岸町３丁目１３番２０号,,14,201,2390807,,,2022-09-07,清算の結了等,,,2015-10-05,1,,,,,ビエイドウ,0
1654,7030001056949,登記記録の閉鎖等,0,2022-09-13,2022-08-31,株式会社小河製作所,,株式会社,埼玉県,川越市,岸町２丁目４１番地５１,,11,201,3501131,,,2022-08-31,清算の結了等,,,2015-10-05,1,,,,,オガワセイサクショ,0
1655,7030001071576,登記記録の閉鎖等,0,2022-09-13,2022-08-31,株式会社丸栄呉服店,,株式会社,埼玉県,比企郡小川町,大字下里１５７４番地５,,11,343,3550323,,,2022-08-31,清算の結了等,,,2015-10-05,1,,,,,マルエイゴフクテン,0
1656,7030001089726,登記記録の閉鎖等,0,2022-09-13,2022-09-01,株式会社彩電,,株式会社,埼玉県,日高市,大字女影８３番地８,,11,242,3501227,,,2022-09-01,清算の結了等,,,2015-10-05,1,,,,,サイデン,0
1672,7040001116867,登記記録の閉鎖等,0,2022-09-13,2022-09-02,株式会社Ｅ　ｔｅｃｈ,,株式会社,千葉県,浦安市,今川１丁目６番２８号シーサイドパレス（１０４）,,12,227,2790022,,,2022-09-02,清算の結了等,,,2021-01-25,1,,,,,イーテック,0
1678,7050001040240,登記記録の閉鎖等,0,2022-09-13,2022-09-06,株式会社ＲＨＳ,,株式会社,茨城県,古河市,下大野１１８２番地２,,08,204,3060204,,,2022-09-06,清算の結了等,,,2015-12-17,1,,,,,アールエイチエス,0
1691,7080101018613,登記記録の閉鎖等,0,2022-09-13,2022-09-08,ＩＰＶｊａｐａｎ株式会社,,株式会社,静岡県,三島市,南町５番２２号,,22,206,4110842,,,2022-09-08,清算の結了等,,,2015-10-05,1,,,,,アイピーブイジャパン,0
1698,7100001012746,登記記録の閉鎖等,0,2022-09-13,2022-09-07,伊藤不動産株式会社,,株式会社,長野県,松本市,大字笹賀４４９８番地,,20,202,3990033,,,2022-09-07,清算の結了等,,,2015-10-05,1,,,,,イトウフドウサン,0
1703,7100002036281,登記記録の閉鎖等,0,2022-09-13,2022-09-08,有限会社古見山電業,,有限会社,長野県,飯田市,立石１３７０番地,,20,205,3992433,,,2022-09-08,清算の結了等,,,2015-10-05,1,,,,,コミヤマデンギョウ,0
1705,7110002029441,登記記録の閉鎖等,0,2022-09-13,2022-09-02,有限会社やまざわ園,,有限会社,新潟県,長岡市,台町２丁目３番１５号,,15,202,9400048,,,2022-09-02,清算の結了等,,,2015-10-05,1,,,,,ヤマザワエン,0
1706,7110003001218,登記記録の閉鎖等,0,2022-09-13,2022-09-07,合資会社岩田塗料店,,合資会社,新潟県,上越市,西城町２丁目１０番１８号,,15,222,9430834,,,2022-09-07,清算の結了等,,,2015-10-05,1,,,,,イワタトリョウテン,0
1723,7120101029283,登記記録の閉鎖等,0,2022-09-13,2022-09-05,岡本福株式会社,,株式会社,大阪府,八尾市,山賀町６丁目３番６号,,27,212,5810812,,,2022-09-05,清算の結了等,,,2015-10-05,1,,,,,,0
1727,7120101063720,登記記録の閉鎖等,0,2022-09-13,2022-09-06,株式会社ｈａｒｕｎｏ,,株式会社,大阪府,堺市堺区,少林寺町西１丁２番１６－２０１号,,27,141,5900960,,,2022-09-06,清算の結了等,,,2021-05-31,1,,,,,ハルノ,0
1747,7140001038837,登記記録の閉鎖等,0,2022-09-13,2022-09-05,橋本建設株式会社,,株式会社,兵庫県,たつの市,新宮町吉島５６０番地の４,,28,229,6794305,,,2022-09-05,清算の結了等,,,2015-10-05,1,,,,,ハシモトケンセツ,0
1748,7140001039819,登記記録の閉鎖等,0,2022-09-13,2022-09-01,東洋産業株式会社,,株式会社,兵庫県,赤穂市,元沖町１４４番地,,28,212,6780224,,,2022-09-01,合併による解散等,1140001040039,令和４年９月１日兵庫県赤穂市中広１７２２番地の４株式会社亀井産業（1140001040039）に合併し解散,2015-10-05,1,,,,,トウヨウサンギョウ,0
1797,7290802024707,登記記録の閉鎖等,0,2022-09-13,2022-09-09,有限会社原口工作所,,有限会社,福岡県,田川郡川崎町,大字池尻４５９番地の４,,40,605,8270002,,,2022-09-09,清算の結了等,,,2015-10-05,1,,,,,ハラグチコウサクショ,0
1810,7360003003593,登記記録の閉鎖等,0,2022-09-13,2022-09-06,合資会社多和田保温,,合資会社,沖縄県,宜野湾市,長田４丁目１番１６号,,47,205,9012212,,,2022-09-06,清算の結了等,,,2015-10-05,1,,,,,タワタホオン,0
1815,7380002008047,登記記録の閉鎖等,0,2022-09-13,2022-09-06,有限会社ウチダ商事,,有限会社,福島県,郡山市,本町２丁目２７番１８号,,07,203,9638871,,,2022-09-06,清算の結了等,,,2015-10-05,1,,,,,ウチダショウジ,0
1816,7380002017626,登記記録の閉鎖等,0,2022-09-13,2022-09-08,有限会社大戸商会,,有限会社,福島県,白河市,大信増見字堂山１０番地,,07,205,9690308,,,2022-09-08,清算の結了等,,,2015-10-05,1,,,,,オオトショウカイ,0
1817,7380002024011,登記記録の閉鎖等,0,2022-09-13,2022-09-07,有限会社新高パン店,,有限会社,福島県,いわき市,常磐湯本町天王崎３７番地,,07,204,9728321,,,2022-09-07,清算の結了等,,,2015-10-05,1,,,,,ニイタカパンテン,0
1825,7430001052536,登記記録の閉鎖等,0,2022-09-13,2022-09-02,株式会社アイシン,,株式会社,北海道,苫小牧市,ウトナイ北４丁目７番３５号,,01,213,0591306,,,2022-09-02,清算の結了等,,,2015-10-05,1,,,,,アイシン,0
1831,7440002009591,登記記録の閉鎖等,0,2022-09-13,2022-09-08,俄虫タクシー有限会社,,有限会社,北海道,檜山郡厚沢部町,本町８４番地,,01,363,0431114,,,2022-09-08,清算の結了等,,,2015-10-05,1,,,,,ガムシタクシー,0
1832,7450002002372,登記記録の閉鎖等,0,2022-09-13,2022-09-12,有限会社サクスィードミウラ,,有限会社,北海道,上川郡東神楽町,ひじり野南二条４丁目４番１０号,,01,453,0711524,,,2022-09-12,清算の結了等,,,2015-10-05,1,,,,,サクスィードミウラ,0
1850,8010003032123,登記記録の閉鎖等,0,2022-09-13,2022-08-31,フレックス八丈不動産合同会社,,合同会社,東京都,八丈島八丈町,大賀郷６１６７番地,,13,401,1001401,,,2022-08-31,清算の結了等,,,2020-04-23,1,,,,,フレックスハチジョウフドウサン,0
1859,8010401009937,登記記録の閉鎖等,0,2022-09-13,2022-09-06,株式会社ゴールデン・チャイルド,,株式会社,東京都,港区,赤坂２丁目２１番１２号,,13,103,1070052,,,2022-09-06,合併による解散等,7010401003263,令和４年９月１日東京都千代田区大手町一丁目６番１号ＳＰＡＣＥＳ大手町ビル１階株式会社医薬情報ネット（7010401003263）に合併し解散,2015-10-05,1,,,,,ゴールデンチャイルド,0
1897,8011302002031,登記記録の閉鎖等,0,2022-09-13,2022-09-09,有限会社オフイスクーパー,,有限会社,東京都,豊島区,北大塚２丁目２７番３号,,13,116,1700004,,,2022-09-09,合併による解散等,3011302007885,令和４年９月１日東京都杉並区下井草三丁目１８番９号株式会社フェルマー（3011302007885）に合併し解散,2015-10-05,1,,,,,オフイスクーパー,0
1909,8012801020886,登記記録の閉鎖等,0,2022-09-13,2022-09-06,株式会社Ｕｃｈｉ,,株式会社,東京都,立川市,高松町３丁目１５番１５号モアグランデ立川９０２号,,13,202,1900011,,,2022-09-06,清算の結了等,,,2021-06-09,1,,,,,ウチ,0
1917,8020001128178,登記記録の閉鎖等,0,2022-09-13,2022-09-05,華瀛産業株式会社,,株式会社,神奈川県,横浜市中区,花咲町１丁目４番地ベルメゾン桜木４２１号室,,14,104,2310063,,,2022-09-05,清算の結了等,,,2018-10-04,1,,,,,カエイサンギョウ,0
1927,8021002054520,登記記録の閉鎖等,0,2022-09-13,2022-09-12,有限会社ジョイホーム,,有限会社,神奈川県,小田原市,飯泉１１６番地の３,,14,206,2500863,,,2022-09-12,清算の結了等,,,2015-10-05,1,,,,,ジョイホーム,0
1963,8070002011741,登記記録の閉鎖等,0,2022-09-13,2022-07-29,有限会社広田不動産鑑定事務所,,有限会社,群馬県,高崎市,柳川町３５番地,,10,202,3700815,,,2022-07-29,清算の結了等,,,2015-10-05,1,,,,,ヒロタフドウサンカンテイジムショ,0
1968,8080102018446,登記記録の閉鎖等,0,2022-09-13,2022-09-08,有限会社中田物産,,有限会社,静岡県,熱海市,咲見町１番１４号,,22,205,4130019,,,2022-09-08,清算の結了等,,,2015-10-05,1,,,,,ナカダブッサン,0
1972,8100001010294,登記記録の閉鎖等,0,2022-09-13,2022-09-07,株式会社女神山センター,,株式会社,長野県,上田市,野倉６０３番地１,,20,203,3861437,,,2022-09-07,清算の結了等,,,2015-10-05,1,,,,,メガミヤマセンター,0
1991,8130002007683,登記記録の閉鎖等,0,2022-09-13,2022-09-05,有限会社花平,,有限会社,京都府,京都市下京区,西七条南東野町１９番地,,26,106,6008872,,,2022-09-05,清算の結了等,,,2015-10-05,1,,,,,ハナヘイ,0
1997,8140002022418,登記記録の閉鎖等,0,2022-09-13,2022-09-07,有限会社イン・ブルー,,有限会社,兵庫県,神戸市東灘区,田中町１丁目２番２３号,,28,101,6580081,,,2022-09-07,清算の結了等,,,2015-10-05,1,,,,,インブルー,0
1998,8140003012608,登記記録の閉鎖等,0,2022-09-13,2022-09-05,合同会社Ｎｕｅｖｏ　Ｍｕｎｄｏ,,合同会社,兵庫県,尼崎市,塚口本町２丁目３番７号,00120151,28,202,6610001,,,2022-09-05,清算の結了等,,,2017-12-05,1,,,,,ヌエボムンド,0
2009,8180001120912,登記記録の閉鎖等,0,2022-09-13,2022-09-08,株式会社ナリックス,,株式会社,愛知県,一宮市,木曽川町黒田三ノ通り１１２番地,,23,203,4930001,,,2022-09-08,清算の結了等,,,2015-11-10,1,,,,,ナリックス,0
2025,8240001001486,登記記録の閉鎖等,0,2022-09-13,2022-09-12,株式会社エフ・ケイ・シー,,株式会社,広島県,広島市安佐南区,山本１丁目２２番２０－４号,,34,105,7310137,,,2022-09-12,清算の結了等,,,2015-10-05,1,,,,,エフケイシー,0
2035,8290001081887,登記記録の閉鎖等,0,2022-09-13,2022-09-05,Ｈ－ＢＲＩＤＧＥ株式会社,,株式会社,福岡県,福岡市中央区,舞鶴３丁目８番１０号,,40,133,8100073,,,2022-09-05,清算の結了等,,,2018-06-20,1,,,,,ハイブリッジ,0
2040,8310001016683,登記記録の閉鎖等,0,2022-09-13,2022-09-09,株式会社観月カンパニー,,株式会社,長崎県,雲仙市,国見町土黒丁５１１番地３,,42,213,8591314,,,2022-09-09,清算の結了等,,,2020-05-20,1,,,,,カンゲツカンパニー,0
2057,8370101000111,登記記録の閉鎖等,0,2022-09-13,2022-09-02,株式会社食工房,,株式会社,宮城県,柴田郡柴田町,船岡東４丁目１３番２２号,,04,323,9891604,,,2022-09-02,清算の結了等,,,2015-10-05,1,,,,,ショクコウボウ,0
2064,8400002002541,登記記録の閉鎖等,0,2022-09-13,2022-09-12,有限会社博光出版,,有限会社,岩手県,盛岡市,みたけ５丁目８番４３号,,03,201,0200122,,,2022-09-12,清算の結了等,,,2015-10-05,1,,,,,ハッコウシュッパン,0
2065,8400005007868,登記記録の閉鎖等,0,2022-09-13,2022-09-12,一般社団法人岩泉よりそい・みらいネット,,その他の設立登記法人,岩手県,下閉伊郡岩泉町,岩泉字中家２６番地４２,,03,483,0270501,,,2022-09-12,清算の結了等,,,2018-02-13,1,,,,,イワイズミヨリソイミライネット,0
2068,8430001015310,登記記録の閉鎖等,0,2022-09-13,2022-09-02,株式会社プラスエージェンシー,,株式会社,北海道,札幌市中央区,南十三条西２２丁目１番３８－２０３号,,01,101,0640913,,,2022-09-02,清算の結了等,,,2015-10-05,1,,,,,プラスエージェンシー,0
2071,8440002000351,登記記録の閉鎖等,0,2022-09-13,2022-09-08,有限会社インデペンデンス,,有限会社,北海道,函館市,末広町２３番２１－４０１号,,01,202,0400053,,,2022-09-08,清算の結了等,,,2015-10-05,1,,,,,インデペンデンス,0
2075,8490003000420,登記記録の閉鎖等,0,2022-09-13,2022-09-02,和泉屋合資会社,,合資会社,高知県,土佐清水市,清水字呼碆山９３０番地２２,,39,209,7870320,,,2022-09-02,清算の結了等,,,2015-10-05,1,,,,,イズミヤ,0
2095,9010005024002,登記記録の閉鎖等,0,2022-09-13,2022-09-07,ＯＳＪ　ＮＳＹ特定目的会社,,その他の設立登記法人,東京都,千代田区,丸の内３丁目１番１号東京共同会計事務所内,,13,101,1000005,,,2022-09-07,清算の結了等,,,2015-10-05,1,,,,,オーエスジェイエヌエスワイ,0
2120,9010902007265,登記記録の閉鎖等,0,2022-09-13,2022-09-08,有限会社伸晃ハイツ,,有限会社,神奈川県,横浜市都筑区,茅ケ崎東１丁目１番１－７１０号,,14,118,2240033,,,2022-09-08,清算の結了等,,,2015-10-05,1,,,,,シンコウハイツ,0
2128,9011003011594,登記記録の閉鎖等,0,2022-09-13,2022-08-30,Ｅｄｅｒｏｒ合同会社,,合同会社,東京都,渋谷区,恵比寿１丁目１５番９号シルク恵比寿４０３,,13,113,1500013,,,2022-08-30,清算の結了等,,,2020-09-07,1,,,,,エデラー,0
2150,9012701012363,登記記録の閉鎖等,0,2022-09-13,2022-09-09,株式会社ＮＳ企画,,株式会社,東京都,清瀬市,下宿１丁目１番地１０－１０７号,,13,221,2040001,,,2022-09-09,清算の結了等,,,2015-10-05,1,,,,,エヌエスキカク,0
2151,9012702005465,登記記録の閉鎖等,0,2022-09-13,2022-09-09,有限会社三嘉工業,,有限会社,東京都,西東京市,南町１丁目１４番７号,,13,229,1880012,,,2022-09-09,清算の結了等,,,2015-10-05,1,,,,,ミヨシコウギョウ,0
2187,9040001082422,登記記録の閉鎖等,0,2022-09-13,2022-09-06,株式会社ケイ・プランニング,,株式会社,千葉県,松戸市,六高台６丁目１２１番地の２,,12,207,2702203,,,2022-09-06,清算の結了等,,,2015-10-05,1,,,,,ケイプランニング,0
2188,9040002047614,登記記録の閉鎖等,0,2022-09-13,2022-09-05,有限会社内外電気工業,,有限会社,千葉県,松戸市,千駄堀４９５番地,,12,207,2702252,,,2022-09-05,清算の結了等,,,2015-10-05,1,,,,,ナイガイデンキコウギョウ,0
2197,9060001010182,登記記録の閉鎖等,0,2022-09-13,2022-09-07,阿久津建設株式会社,,株式会社,栃木県,鹿沼市,下日向５１８番地１,,09,205,3220075,,,2022-09-07,清算の結了等,,,2015-10-05,1,,,,,アクツケンセツ,0
2200,9070001005322,登記記録の閉鎖等,0,2022-09-13,2022-09-08,株式会社ビジョン・ファクトリー,,株式会社,群馬県,前橋市,千代田町２丁目７番１４号,,10,201,3710022,,,2022-09-08,清算の結了等,,,2015-10-05,1,,,,,ビジョンファクトリー,0
2208,9080002014684,登記記録の閉鎖等,0,2022-09-13,2022-09-08,有限会社八信自動車板金塗装,,有限会社,静岡県,榛原郡吉田町,住吉５４３６番地の１１２,,22,424,4210301,,,2022-09-08,清算の結了等,,,2015-10-05,1,,,,,ハッシンジドウシャバンキントソウ,0
2211,9080101007135,登記記録の閉鎖等,0,2022-09-13,2022-09-08,株式会社駿,,株式会社,静岡県,沼津市,沼北町２丁目１７番４０号,,22,203,4100058,,,2022-09-08,清算の結了等,,,2015-10-05,1,,,,,シュン,0
2215,9080402005614,登記記録の閉鎖等,0,2022-09-13,2022-09-08,有限会社とらや,,有限会社,静岡県,浜松市中区,肴町３１６番地の３６,,22,131,4300932,,,2022-09-08,清算の結了等,,,2015-10-05,1,,,,,トラヤ,0
2222,9120001066607,登記記録の閉鎖等,0,2022-09-13,2022-09-09,株式会社大同都市鑑定所,,株式会社,大阪府,大阪市生野区,小路東２丁目１５番６号,,27,116,5440003,,,2022-09-09,清算の結了等,,,2015-10-05,1,,,,,ダイドウトシカンテイショ,0
2247,9140001071010,登記記録の閉鎖等,0,2022-09-13,2022-09-09,エス・クレセントハウス株式会社,,株式会社,東京都,町田市,三輪緑山１丁目２２番５号テラス緑山Ｂ１０５号室,,13,209,1950055,,,2022-09-09,清算の結了等,,,2015-10-05,1,,,,,エスクレセントハウス,0
2260,9160001002244,登記記録の閉鎖等,0,2022-09-13,2022-09-06,株式会社ジャッカル,,株式会社,滋賀県,大津市,真野５丁目２２番７号,,25,201,5200232,,,2022-09-06,合併による解散等,5010001219765,令和４年９月１日東京都千代田区大手町一丁目５番１号株式会社ジャッカル（5010001219765）に合併し解散,2015-10-05,1,,,,,ジャッカル,0
2261,9160001004315,登記記録の閉鎖等,0,2022-09-13,2022-09-06,株式会社リコー開発コーポレーション,,株式会社,滋賀県,大津市,大江３丁目５番２５号リコースクエアビル２階,,25,201,5202141,,,2022-09-06,清算の結了等,,,2015-10-05,1,,,,,リコーカイハツコーポレーション,0
2266,9180001030565,登記記録の閉鎖等,0,2022-09-13,2022-09-05,シーズ株式会社,,株式会社,愛知県,名古屋市中村区,牛田通３丁目１６番地の４,,23,105,4530853,,,2022-09-05,清算の結了等,,,2015-10-05,1,,,,,シーズ,0
2282,9240001014223,登記記録の閉鎖等,0,2022-09-13,2022-09-09,株式会社キャットテクノ,,株式会社,広島県,広島市南区,宇品海岸２丁目６番２号,,34,103,7340011,,,2022-09-09,清算の結了等,,,2015-10-05,1,,,,,キャットテクノ,0
2284,9240002011500,登記記録の閉鎖等,0,2022-09-13,2022-09-08,有限会社ドリーム,,有限会社,広島県,広島市南区,宇品神田４丁目１２番７号,,34,103,7340004,,,2022-09-08,清算の結了等,,,2015-10-05,1,,,,,ドリーム,0
2300,9290002004383,登記記録の閉鎖等,0,2022-09-13,2022-09-07,有限会社エンドレス,,有限会社,福岡県,福岡市東区,原田１丁目１６番２９号,,40,131,8120063,,,2022-09-07,清算の結了等,,,2015-10-05,1,,,,,エンドレス,0
2301,9290002007502,登記記録の閉鎖等,0,2022-09-13,2022-09-05,有限会社アオヤギ,,有限会社,福岡県,福岡市早良区,早良２丁目１９番１３号,,40,137,8111122,,,2022-09-05,清算の結了等,,,2015-10-05,1,,,,,アオヤギ,0
2304,9290802013690,登記記録の閉鎖等,0,2022-09-13,2022-09-12,有限会社甲斐田運送,,有限会社,福岡県,遠賀郡遠賀町,大字鬼津９６５番地の１,,40,384,8114341,,,2022-09-12,清算の結了等,,,2015-10-05,1,,,,,カイダウンソウ,0
2313,9380002006123,登記記録の閉鎖等,0,2022-09-13,2022-09-08,有限会社一興測量設計,,有限会社,福島県,伊達市,保原町字十二丁目３４番地の１,,07,213,9600609,,,2022-09-08,清算の結了等,,,2015-10-05,1,,,,,,0
2322,9430001043649,登記記録の閉鎖等,0,2022-09-13,2022-09-01,新東建設株式会社,,株式会社,北海道,恵庭市,駒場町１丁目６番８号,,01,231,0611417,,,2022-09-01,合併による解散等,2430001066012,令和４年９月１日北海道恵庭市恵み野南一丁目１番地６ケアステージ恵み野株式会社（2430001066012）に合併し解散,2015-10-05,1,,,,,シントウケンセツ,0
2323,9430001059158,登記記録の閉鎖等,0,2022-09-13,2022-09-05,株式会社ＴＡＫＥ,,株式会社,北海道,札幌市中央区,南七条西８丁目１０３２－３,,01,101,0640807,,,2022-09-05,清算の結了等,,,2015-10-05,1,,,,,テイク,0
