sequenceNumber,corporateNumber,process,correct,updateDate,changeDate,name,nameImageId,kind,prefectureName,cityName,streetNumber,addressImageId,prefectureCode,cityCode,postCode,addressOutside,addressOutsideImageId,closeDate,closeCause,successorCorporateNumber,changeCause,assignmentDate,latest,enName,enPrefectureName,enCityName,enAddressOutside,furigana,hihyoji
13,1010001219802,新規,0,2021-07-20,2021-07-20,株式会社ＴＭＲ　ｔｅｃｈｎｏｌｏｇｙ,,株式会社,東京都,文京区,目白台３丁目２８－６目白台インターナショナルビレッジＣ５１９号室,,13,105,1120015,,,,,,,2021-07-20,1,,,,,ティーエムアールテクノロジー,0
16,1010003035289,新規,0,2021-07-20,2021-07-20,合同会社ヨコハマライン,,合同会社,東京都,千代田区,神田神保町１丁目１１番地さくら綜合事務所内,,13,101,1010051,,,,,,,2021-07-20,1,,,,,ヨコハマライン,0
17,1010003035322,新規,0,2021-07-20,2021-07-20,ＤＢＰ合同会社,,合同会社,東京都,千代田区,神田錦町２丁目７番地,,13,101,1010054,,,,,,,2021-07-20,1,,,,,ディービーピー,0
24,1010401161587,新規,0,2021-07-20,2021-07-20,株式会社ガルリ,,株式会社,東京都,港区,東麻布２丁目３３番２号,,13,103,1060044,,,,,,,2021-07-20,1,,,,,,0
25,1010401161604,新規,0,2021-07-20,2021-07-20,Ｊａｐａｎ　Ｇｌｏｂａｌ　Ｍａｒｋｅｔｉｎｇ株式会社,,株式会社,東京都,港区,東麻布１丁目４番２－８０６号,,13,103,1060044,,,,,,,2021-07-20,1,,,,,ジャパングローバルマーケティング,0
28,1010403025757,新規,0,2021-07-20,2021-07-20,合同会社クラウドマップ,,合同会社,東京都,港区,高輪４丁目２３番６号,,13,103,1080074,,,,,,,2021-07-20,1,,,,,クラウドマップ,0
29,1010403025773,新規,0,2021-07-20,2021-07-20,エーテルホールディングス合同会社,,合同会社,東京都,港区,六本木６丁目１０番１号六本木ヒルズ森タワー,,13,103,1060032,,,,,,,2021-07-20,1,,,,,エーテルホールディングス,0
30,1010405019996,新規,0,2021-07-20,2021-07-20,シカゴホールディング２一般社団法人,,その他の設立登記法人,東京都,港区,虎ノ門３丁目２２番１０－２０１号,,13,103,1050001,,,,,,,2021-07-20,1,,,,,シカゴホールディングツー,0
37,1010801032157,新規,0,2021-07-20,2021-07-20,株式会社リベル・ルーツ,,株式会社,東京都,大田区,池上６丁目４４番１０号アスコット池上４０４,,13,111,1460082,,,,,,,2021-07-20,1,,,,,リベルルーツ,0
42,1010905004176,新規,0,2021-07-20,2021-07-20,特定非営利活動法人オフィスリブスタイル,,その他の設立登記法人,東京都,世田谷区,奥沢５丁目１番１１号メゾンドジョワ２０２,,13,112,1580083,,,,,,,2021-07-20,1,,,,,オフィスリブスタイル,0
50,1011001141822,新規,0,2021-07-20,2021-07-20,株式会社ｍｅｎｌｏｐａｒｋ７１５,,株式会社,東京都,渋谷区,神南１丁目８番１０号ビュロー渋谷１００１号,,13,113,1500041,,,,,,,2021-07-20,1,,,,,メンローパークナナイチゴ,0
51,1011003013094,新規,0,2021-07-20,2021-07-20,合同会社ｍｏｐｉｐｉ,,合同会社,東京都,渋谷区,渋谷２丁目１９－１５宮益坂ビルディング６０９,,13,113,1500002,,,,,,,2021-07-20,1,,,,,モピピ,0
55,1011103010883,新規,0,2021-07-20,2021-07-20,合同会社ミドル,,合同会社,東京都,新宿区,横寺町２３番地,,13,104,1620831,,,,,,,2021-07-20,1,,,,,ミドル,0
57,1011303004099,新規,0,2021-07-20,2021-07-20,合同会社下北沢お笑ライブ,,合同会社,東京都,杉並区,永福４丁目２３番６号,,13,115,1680064,,,,,,,2021-07-20,1,,,,,シモキタザワオワライライブ,0
60,1011701024558,新規,0,2021-07-20,2021-07-20,株式会社Ｇ－ｖｉｓｉｏｎ,,株式会社,東京都,江戸川区,西葛西６丁目４番１号,,13,123,1340088,,,,,,,2021-07-20,1,,,,,ジービジョン,0
62,1011803004706,新規,0,2021-07-20,2021-07-20,ＰＰＳ合同会社,,合同会社,東京都,足立区,青井３丁目２－３－３１８,,13,121,1200012,,,,,,,2021-07-20,1,,,,,ピーピーエス,0
63,1011803004714,新規,0,2021-07-20,2021-07-20,合同会社ＳＫＹ＆ＬＩＶＥ,,合同会社,東京都,足立区,足立１丁目１９番６－２０１号,,13,121,1200015,,,,,,,2021-07-20,1,,,,,スカイアンドリヴ,0
66,1012403004947,新規,0,2021-07-20,2021-07-20,クーミル合同会社,,合同会社,東京都,武蔵野市,吉祥寺南町１丁目３番４号吉祥寺南口ビル６３号室,,13,203,1800003,,,,,,,2021-07-20,1,,,,,クーミル,0
79,1020001142301,新規,0,2021-07-20,2021-07-20,株式会社エンセント,,株式会社,神奈川県,横浜市中区,山手町１０５番地１０,,14,104,2310862,,,,,,,2021-07-20,1,,,,,エンセント,0
83,1020003020158,新規,0,2021-07-20,2021-07-20,Ｍ－Ｆｏｒｅｓｔ合同会社,,合同会社,神奈川県,横浜市鶴見区,豊岡町４番２１－７０２号,,14,101,2300062,,,,,,,2021-07-20,1,,,,,エムフォレスト,0
84,1020003020190,新規,0,2021-07-20,2021-07-20,Ｈ＆Ｍ　Ｌｉｆｅ　Ｐａｒｔｎｅｒｓ合同会社,,合同会社,神奈川県,川崎市中原区,上小田中３丁目２９番２－６７４号ザ・クレストシティウインドコート,,14,133,2110053,,,,,,,2021-07-20,1,,,,,エイチアンドエムライフパートナーズ,0
85,1020003020208,新規,0,2021-07-20,2021-07-20,グリーンミックスマネジメント合同会社,,合同会社,神奈川県,川崎市中原区,小杉町３丁目６００番地Ｋ３Ａ３８１２,,14,133,2110063,,,,,,,2021-07-20,1,,,,,グリーンミックスマネジメント,0
99,1030001143389,新規,0,2021-07-20,2021-07-20,株式会社ランドクリエイト,,株式会社,埼玉県,吉川市,美南２丁目２４番地１・１２１０号室,,11,243,3420038,,,,,,,2021-07-20,1,,,,,ランドクリエイト,0
100,1030001143455,新規,0,2021-07-20,2021-07-20,株式会社絆リフォーム,,株式会社,埼玉県,川越市,大字南田島８６１番地ハラックス２－１０１号室,,11,201,3500027,,,,,,,2021-07-20,1,,,,,キズナリフォーム,0
118,1040001119413,新規,0,2021-07-20,2021-07-20,ＮＯＹＺ株式会社,,株式会社,千葉県,佐倉市,神門５１４番地,,12,212,2850803,,,,,,,2021-07-20,1,,,,,ノイズ,0
119,1040001119470,新規,0,2021-07-20,2021-07-20,株式会社共栄,,株式会社,千葉県,鎌ケ谷市,西佐津間２丁目１４番２４－１号,,12,224,2730134,,,,,,,2021-07-20,1,,,,,キョウエイ,0
129,1050001049568,新規,0,2021-07-20,2021-07-20,ヴィークルジャパン株式会社,,株式会社,茨城県,水戸市,姫子１丁目８４６番地の８,,08,201,3114151,,,,,,,2021-07-20,1,,,,,ヴィークルジャパン,0
146,1080101022661,新規,0,2021-07-20,2021-07-20,中駿スタッフサービス株式会社,,株式会社,静岡県,裾野市,佐野１０３６番地,,22,220,4101118,,,,,,,2021-07-20,1,,,,,チュウスンスタッフサービス,0
155,1090003001911,新規,0,2021-07-20,2021-07-20,合同会社サンアール,,合同会社,山梨県,甲州市,塩山上於曽２０８２番地５,,19,213,4040042,,,,,,,2021-07-20,1,,,,,サンアール,0
169,1120001239079,新規,0,2021-07-20,2021-07-20,天澄仁合株式会社,,株式会社,大阪府,大阪市生野区,新今里３丁目４番１７号シャトー第４今里４１１Ａ,,27,116,5440001,,,,,,,2021-07-20,1,,,,,テンチョウジンゴウ,0
170,1120001239153,新規,0,2021-07-20,2021-07-20,株式会社澤富国際,,株式会社,大阪府,大阪市住吉区,万代東１丁目３番２２－１０１号,,27,120,5580056,,,,,,,2021-07-20,1,,,,,サワトミコクサイ,0
171,1120001239161,新規,0,2021-07-20,2021-07-20,株式会社ＳＡＴＯ　ＣＯＭ,,株式会社,大阪府,大阪市港区,築港４丁目２番２８号,,27,107,5520021,,,,,,,2021-07-20,1,,,,,サトコム,0
172,1120001239186,新規,0,2021-07-20,2021-07-20,二宮電工株式会社,,株式会社,大阪府,門真市,島頭３丁目１９番１８号,,27,223,5710016,,,,,,,2021-07-20,1,,,,,ニノミヤデンコウ,0
180,1120101064006,新規,0,2021-07-20,2021-07-20,株式会社福田商店,,株式会社,大阪府,松原市,別所３丁目２０番１５号,,27,217,5800005,,,,,,,2021-07-20,1,,,,,フクダショウテン,0
181,1120101064014,新規,0,2021-07-20,2021-07-20,丸愛重量株式会社,,株式会社,大阪府,高石市,東羽衣４丁目６番２５号,,27,225,5920003,,,,,,,2021-07-20,1,,,,,マルアイジュウリョウ,0
184,1120905006211,新規,0,2021-07-20,2021-07-20,一般社団法人バイオインターナショナル,,その他の設立登記法人,大阪府,吹田市,青山台３丁目１７番２号,,27,205,5650875,,,,,,,2021-07-20,1,,,,,バイオインターナショナル,0
203,1140001122349,新規,0,2021-07-20,2021-07-20,株式会社イストリア,,株式会社,兵庫県,尼崎市,南武庫之荘１丁目２３番８号,,28,202,6610033,,,,,,,2021-07-20,1,,,,,イストリア,0
204,1140001122365,新規,0,2021-07-20,2021-07-20,ＲＡＩＳＥ　ＪＡＰＡＮ株式会社,,株式会社,兵庫県,宝塚市,安倉西３丁目４４３－６,,28,214,6650825,,,,,,,2021-07-20,1,,,,,レイズジャパン,0
208,1150001024809,新規,0,2021-07-20,2021-07-20,近畿養鰻株式会社,,株式会社,奈良県,大和高田市,西三倉堂２丁目３番８号,,29,202,6350046,,,,,,,2021-07-20,1,,,,,キンキヨウマン,0
215,1180001146947,新規,0,2021-07-20,2021-07-20,株式会社ＥＳｔａｂｌｉｓｈ,,株式会社,愛知県,名古屋市中区,新栄１丁目２７番２２号,,23,106,4600007,,,,,,,2021-07-20,1,,,,,エスタブリッシュ,0
223,1180301035180,新規,0,2021-07-20,2021-07-20,株式会社ここりずむ,,株式会社,愛知県,豊川市,北浦町１１番地,,23,207,4420042,,,,,,,2021-07-20,1,,,,,ココリズム,0
229,1190001028525,新規,0,2021-07-20,2021-07-20,株式会社ＳＰＣ,,株式会社,三重県,伊賀市,安場字東赤坂１６００番,,24,216,5181145,,,,,,,2021-07-20,1,,,,,エスピーシー,0
233,1200001038910,新規,0,2021-07-20,2021-07-20,ＣＪＴ株式会社,,株式会社,岐阜県,大垣市,荒尾町２２９番地の２,,21,202,5030034,,,,,,,2021-07-20,1,,,,,シージェーティ,0
234,1200003005264,新規,0,2021-07-20,2021-07-20,ＴＹコンサルティング合同会社,,合同会社,岐阜県,岐阜市,河渡３丁目１７６番地６,,21,201,5010105,,,,,,,2021-07-20,1,,,,,ティーワイコンサルティング,0
237,1220001024306,新規,0,2021-07-20,2021-07-20,ＣｔｏＦリレーション株式会社,,株式会社,石川県,小松市,園町ニ６３‐１フルハウスⅡ２０２,00123700,17,203,9230801,,,,,,,2021-07-20,1,,,,,シートゥーエフリレーション,0
244,1240001058269,新規,0,2021-07-20,2021-07-20,株式会社ｏｂｃｔ,,株式会社,広島県,広島市中区,西白島町２２－５８－７０１号,,34,101,7300005,,,,,,,2021-07-20,1,,,,,オクト,0
245,1240001058293,新規,0,2021-07-20,2021-07-20,株式会社ファイン．スペース,,株式会社,広島県,福山市,幕山台２丁目３３番２４号,,34,207,7210913,,,,,,,2021-07-20,1,,,,,ファインスペース,0
246,1240001058302,新規,0,2021-07-20,2021-07-20,株式会社ＫＲＭ,,株式会社,広島県,広島市南区,出汐１丁目３番１１号,,34,103,7340001,,,,,,,2021-07-20,1,,,,,ケイアールエム,0
248,1250001019014,新規,0,2021-07-20,2021-07-20,株式会社勝山設備電機,,株式会社,山口県,下関市,大字石原１３４番地２１,,35,201,7510886,,,,,,,2021-07-20,1,,,,,カツヤマセツビデンキ,0
259,1260003003634,新規,0,2021-07-20,2021-07-20,加賀不動産合同会社,,合同会社,岡山県,岡山市北区,津島南１丁目５－４５－６,,33,101,7000085,,,,,,,2021-07-20,1,,,,,カガフドウサン,0
260,1290001093922,新規,0,2021-07-20,2021-07-20,九州エステート販売株式会社,,株式会社,福岡県,福岡市南区,若久５丁目２番３号,,40,134,8150042,,,,,,,2021-07-20,1,,,,,キュウシュウエステートハンバイ,0
261,1290001093971,新規,0,2021-07-20,2021-07-20,株式会社ＢａｒｙＢｅｒｒｙ,,株式会社,福岡県,糟屋郡宇美町,平和２丁目２０番１７号,,40,341,8112121,,,,,,,2021-07-20,1,,,,,バリベリー,0
263,1290003011436,新規,0,2021-07-20,2021-07-20,Ｍ－ＷＡ　Ｄｉｇｉｔａｌ　Ｓｅｒｖｉｃｅｓ合同会社,,合同会社,福岡県,福岡市中央区,天神５丁目９番２－４１４号ファミール天神,,40,133,8100001,,,,,,,2021-07-20,1,,,,,エムワデジタルサービシズ,0
270,1330001028816,新規,0,2021-07-20,2021-07-20,ゆみよ食品株式会社,,株式会社,熊本県,熊本市中央区,九品寺５丁目４－１３－２０８号,,43,101,8620976,,,,,,,2021-07-20,1,,,,,ユミヨショクヒン,0
277,1360003011305,新規,0,2021-07-20,2021-07-20,合同会社ＳＯＲＡ,,合同会社,沖縄県,うるま市,みどり町５丁目６番１３号コーポアンベリール３０５,,47,213,9042215,,,,,,,2021-07-20,1,,,,,ソラ,0
281,1370003005322,新規,0,2021-07-20,2021-07-20,合同会社Ｎｏｐｌ,,合同会社,宮城県,仙台市青葉区,中央４丁目１０番３号仙台キャピタルタワー２階,,04,101,9800021,,,,,,,2021-07-20,1,,,,,ノープル,0
296,1430001084576,新規,0,2021-07-20,2021-07-20,株式会社ＳＴＡＹ　ＧＯＬＤ,,株式会社,北海道,札幌市東区,丘珠町６４４番地２,,01,103,0070880,,,,,,,2021-07-20,1,,,,,ステイゴールド,0
304,1460003000850,新規,0,2021-07-20,2021-07-20,ＤｏｎＤｏｎ地建合同会社,,合同会社,北海道,釧路市,白金町２番３号,,01,206,0850034,,,,,,,2021-07-20,1,,,,,ドンドンチケン,0
329,2010001219792,新規,0,2021-07-20,2021-07-20,株式会社ライフプラス,,株式会社,東京都,中央区,日本橋富沢町４番１２号ＨＴＴ人形町ビル２階,,13,102,1030006,,,,,,,2021-07-20,1,,,,,ライフプラス,0
330,2010001219842,新規,0,2021-07-20,2021-07-20,株式会社カナガワ,,株式会社,東京都,中央区,日本橋人形町１丁目５番１号,,13,102,1030013,,,,,,,2021-07-20,1,,,,,カナガワ,0
334,2010003035387,新規,0,2021-07-20,2021-07-20,インポータージャパン合同会社,,合同会社,東京都,千代田区,神田三崎町１丁目１４番１７号,,13,101,1010061,,,,,,,2021-07-20,1,,,,,インポータージャパン,0
338,2010401161520,新規,0,2021-07-20,2021-07-20,ＪＨＡコンサルティング株式会社,,株式会社,東京都,港区,南青山１丁目２０－１２,,13,103,1070062,,,,,,,2021-07-20,1,,,,,,0
339,2010401161537,新規,0,2021-07-20,2021-07-20,株式会社ＪＤＳ　Ｅｎｔｅｒｔａｉｎｍｅｎｔ,,株式会社,東京都,港区,南青山２丁目２番１５号ウィン青山９４２,,13,103,1070062,,,,,,,2021-07-20,1,,,,,ジェイディーエスエンターテイメント,0
340,2010401161553,新規,0,2021-07-20,2021-07-20,デジタルトランスフォーメーション株式会社,,株式会社,東京都,港区,南青山２丁目２－１５ＷＩＮ青山５３１,,13,103,1070062,,,,,,,2021-07-20,1,,,,,デジタルトランスフォーメーション,0
341,2010401161578,新規,0,2021-07-20,2021-07-20,ＢＥＳＴ　ＦＯＯＤＳ株式会社,,株式会社,東京都,港区,西新橋１丁目２０番９号ＴＳＲビル３Ｆ,,13,103,1050003,,,,,,,2021-07-20,1,,,,,ベストフーズ,0
342,2010401161603,新規,0,2021-07-20,2021-07-20,株式会社エクスフォリア,,株式会社,東京都,港区,南青山２丁目２番１５号ＷｉｎＡｏｙａｍａビルＵＣＦ６階,,13,103,1070062,,,,,,,2021-07-20,1,,,,,エクスフォリア,0
343,2010401161611,新規,0,2021-07-20,2021-07-20,グルー株式会社,,株式会社,東京都,港区,南青山２丁目４番１５号天翔南青山ビル３階Ｓ３０９号室,,13,103,1070062,,,,,,,2021-07-20,1,,,,,グルー,0
347,2010403025731,新規,0,2021-07-20,2021-07-20,ウェブ援隊合同会社,,合同会社,東京都,港区,南青山２丁目２番１５号,,13,103,1070062,,,,,,,2021-07-20,1,,,,,ウェブエンタイ,0
348,2010403025748,新規,0,2021-07-20,2021-07-20,松成合同会社,,合同会社,東京都,港区,芝浦４丁目５番１１－５０７号,,13,103,1080023,,,,,,,2021-07-20,1,,,,,マツナリ,0
349,2010405019995,新規,0,2021-07-20,2021-07-20,シカゴホールディング１一般社団法人,,その他の設立登記法人,東京都,港区,虎ノ門３丁目２２番１０－２０１号,,13,103,1050001,,,,,,,2021-07-20,1,,,,,シカゴホールディングワン,0
358,2010901049125,新規,0,2021-07-20,2021-07-20,イカロス株式会社,,株式会社,東京都,世田谷区,桜上水５丁目９番８号,,13,112,1560045,,,,,,,2021-07-20,1,,,,,イカロス,0
359,2010903006677,新規,0,2021-07-20,2021-07-20,オフィストモノウ合同会社,,合同会社,東京都,世田谷区,桜上水４丁目２３番６号ベルアルブル桜上水５０３,,13,112,1560045,,,,,,,2021-07-20,1,,,,,オフィストモノウ,0
367,2011003013093,新規,0,2021-07-20,2021-07-20,合同会社ＢＵＢＢＬＥ,,合同会社,東京都,渋谷区,恵比寿西２丁目８番８号ウエストエビスビル１・２Ｆ,,13,113,1500021,,,,,,,2021-07-20,1,,,,,バブル,0
369,2011101095752,新規,0,2021-07-20,2021-07-20,株式会社Ｔｏｋｙｏ　ＯＢＣ　Ｄｅｓｉｇｎ,,株式会社,東京都,新宿区,北新宿２丁目３番１３号,,13,104,1690074,,,,,,,2021-07-20,1,,,,,トウキョウオービーシーデザイン,0
381,2011701024557,新規,0,2021-07-20,2021-07-20,ゴラン株式会社,,株式会社,東京都,江戸川区,春江町５丁目３０番地４９,,13,123,1340003,,,,,,,2021-07-20,1,,,,,ゴラン,0
382,2011801039471,新規,0,2021-07-20,2021-07-20,株式会社ＲＯＹＡＬ　ｇｒｏｕｐ,,株式会社,東京都,足立区,西新井栄町１丁目１８番１号ロイヤルパークス西新井８３３,,13,121,1230843,,,,,,,2021-07-20,1,,,,,ロイヤルグループ,0
385,2012401038112,新規,0,2021-07-20,2021-07-20,株式会社タッグアップ,,株式会社,東京都,多摩市,和田１４３７番地１シャンポール１０２,,13,224,2060001,,,,,,,2021-07-20,1,,,,,タッグアップ,0
388,2012801020966,新規,0,2021-07-20,2021-07-20,浩逸株式会社,,株式会社,東京都,立川市,曙町１丁目５番６－２０３号,,13,202,1900012,,,,,,,2021-07-20,1,,,,,コウイツ,0
389,2013101008677,新規,0,2021-07-20,2021-07-20,Ｐｅａｃｅｆｕｌ株式会社,,株式会社,東京都,あきる野市,秋川２丁目９番９号堤ビル２階,,13,228,1970804,,,,,,,2021-07-20,1,,,,,ピースフル,0
405,2020003020173,新規,0,2021-07-20,2021-07-20,合同会社アレーズ,,合同会社,神奈川県,横浜市都筑区,北山田３丁目１９番１５号,,14,118,2240021,,,,,,,2021-07-20,1,,,,,アレーズ,0
406,2020003020181,新規,0,2021-07-20,2021-07-20,ＢＡＯ　ＬＩＮＨ合同会社,,合同会社,神奈川県,横浜市中区,扇町２丁目５－５タカシンビル２Ｆ，３Ｆ，４Ｆ,,14,104,2310027,,,,,,,2021-07-20,1,,,,,バオリン,0
419,2030001143173,新規,0,2021-07-20,2021-07-20,旭産業ホールディングス株式会社,,株式会社,埼玉県,戸田市,新曽南４丁目１番５号,,11,224,3350026,,,,,,,2021-07-20,1,,,,,アサヒサンギョウホールディングス,0
420,2030001143396,新規,0,2021-07-20,2021-07-20,株式会社映像制作ＭＯＴＩＯＮ,,株式会社,埼玉県,川口市,鳩ヶ谷本町１丁目４番１３－１０２号,,11,203,3340002,,,,,,,2021-07-20,1,,,,,エイゾウセイサクモーション,0
421,2030001143405,新規,0,2021-07-20,2021-07-20,株式会社ｓｅ－Ａ,,株式会社,埼玉県,入間市,鍵山３丁目１３番２２号,,11,225,3580004,,,,,,,2021-07-20,1,,,,,エスイーエー,0
428,2040001119387,新規,0,2021-07-20,2021-07-20,株式会社ｐａｒａｋｅｅｔ,,株式会社,千葉県,松戸市,中根１０番地の１ハイホーム松戸馬橋５０７号,,12,207,2710053,,,,,,,2021-07-20,1,,,,,パラキート,0
429,2040001119429,新規,0,2021-07-20,2021-07-20,ビューティーシステム株式会社,,株式会社,千葉県,千葉市花見川区,幕張町５丁目４１７番地２２２幕張グリーンハイツ３１３号,,12,102,2620032,,,,,,,2021-07-20,1,,,,,ビューティーシステム,0
440,2050001049567,新規,0,2021-07-20,2021-07-20,花つみき株式会社,,株式会社,茨城県,ひたちなか市,大字三反田５０６１番地の２,,08,221,3120021,,,,,,,2021-07-20,1,,,,,ハナツミキ,0
441,2050001049575,新規,0,2021-07-20,2021-07-20,ＧｒｏｗＳ　Ｐｅｔ　ｗｏｒｋｓ株式会社,,株式会社,茨城県,結城市,大字結城１２０１６番地６,,08,207,3070001,,,,,,,2021-07-20,1,,,,,グロースペットワークス,0
444,2050003005989,新規,0,2021-07-20,2021-07-20,合同会社羽生土地建物,,合同会社,茨城県,小美玉市,飯前５７７番地１,,08,236,3113404,,,,,,,2021-07-20,1,,,,,ハニュウトチタテモノ,0
460,2100001034448,新規,0,2021-07-20,2021-07-20,株式会社ＳＵＮＮＹ　ＢＩＲＤ,,株式会社,長野県,松本市,並柳１丁目２６－１４並柳中央ビル１階,,20,202,3900825,,,,,,,2021-07-20,1,,,,,サニーバード,0
475,2120001239103,新規,0,2021-07-20,2021-07-20,株式会社ＬＡ　ＴＲＵＳＴ,,株式会社,大阪府,大阪市北区,西天満６丁目３番１１号,,27,127,5300047,,,,,,,2021-07-20,1,,,,,エルエートラスト,0
476,2120001239160,新規,0,2021-07-20,2021-07-20,株式会社Ｒｅｔｒｏｇｒａｄｅ,,株式会社,大阪府,大阪市中央区,北新町３番３号ＢＲＡＶＥ北新町３０２号室,,27,128,5400023,,,,,,,2021-07-20,1,,,,,レトログレード,0
482,2120003019874,新規,0,2021-07-20,2021-07-20,忠商事合同会社,,合同会社,大阪府,大阪市平野区,長吉出戸１丁目１１－７２,,27,126,5470011,,,,,,,2021-07-20,1,,,,,タダシショウジ,0
485,2120005022397,新規,0,2021-07-20,2021-07-20,一般社団法人エクシア,,その他の設立登記法人,大阪府,守口市,大日東町２番１３号サンマークス大日ステーションレジデンス２０８号,,27,209,5700016,,,,,,,2021-07-20,1,,,,,エクシア,0
489,2120101064005,新規,0,2021-07-20,2021-07-20,株式会社プラスアルファ,,株式会社,大阪府,松原市,天美我堂２丁目３７７番地６,,27,217,5800026,,,,,,,2021-07-20,1,,,,,プラスアルファ,0
490,2120101064013,新規,0,2021-07-20,2021-07-20,株式会社ワイズ,,株式会社,大阪府,堺市南区,豊田７４４番地１,,27,145,5900106,,,,,,,2021-07-20,1,,,,,ワイズ,0
510,2140001122331,新規,0,2021-07-20,2021-07-20,株式会社徳体知,,株式会社,兵庫県,西宮市,名塩南台３丁目２０番地６４,,28,204,6691132,,,,,,,2021-07-20,1,,,,,トクタイチ,0
512,2140003016531,新規,0,2021-07-20,2021-07-20,Ｙ３Ｃ合同会社,,合同会社,兵庫県,尼崎市,善法寺町１０番５号,,28,202,6610973,,,,,,,2021-07-20,1,,,,,ワイサンシー,0
514,2150001024808,新規,0,2021-07-20,2021-07-20,カミワザ株式会社,,株式会社,奈良県,宇陀市,榛原高井４５２番地,,29,212,6330212,,,,,,,2021-07-20,1,,,,,カミワザ,0
517,2170001016679,新規,0,2021-07-20,2021-07-20,株式会社エンジョイ和,,株式会社,和歌山県,日高郡印南町,大字羽六１２３１番地の１,,30,390,6491524,,,,,,,2021-07-20,1,,,,,エンジョイワ,0
522,2180001147028,新規,0,2021-07-20,2021-07-20,株式会社ＬＥＯ,,株式会社,愛知県,稲沢市,祖父江町祖父江南方１４４番地２,,23,220,4950001,,,,,,,2021-07-20,1,,,,,レオ,0
523,2180003022765,新規,0,2021-07-20,2021-07-20,ＧＲＩＳＨＭＡ合同会社,,合同会社,愛知県,名古屋市熱田区,波寄町２２番地２３号グランドメゾン金山２Ｄ,,23,109,4560003,,,,,,,2021-07-20,1,,,,,グリシュマ,0
536,2190005011600,新規,0,2021-07-20,2021-07-20,一般社団法人空き家改善協議会,,その他の設立登記法人,三重県,松阪市,大宮田町２６７番地１,,24,204,5150024,,,,,,,2021-07-20,1,,,,,アキヤカイゼンキョウギカイ,0
539,2220001024305,新規,0,2021-07-20,2021-07-20,幸篤工業株式会社,,株式会社,石川県,金沢市,西泉５丁目３８番地,,17,201,9218043,,,,,,,2021-07-20,1,,,,,コウトクコウギョウ,0
544,2250001019013,新規,0,2021-07-20,2021-07-20,Ｇ‐ｇｒｏｕｐ株式会社,,株式会社,山口県,下関市,垢田町５丁目１６番１６号,,35,201,7510841,,,,,,,2021-07-20,1,,,,,ジーグループ,0
547,2260003003633,新規,0,2021-07-20,2021-07-20,合同会社杜の子フロマージュ,,合同会社,岡山県,岡山市東区,北幸田１５９番地１,,33,103,7048134,,,,,,,2021-07-20,1,,,,,モリノコフロマージュ,0
554,2290001093938,新規,0,2021-07-20,2021-07-20,翔和株式会社,,株式会社,福岡県,久留米市,日吉町２６番地３６明治通りビル４階,,40,203,8300017,,,,,,,2021-07-20,1,,,,,ショウワ,0
555,2290001093946,新規,0,2021-07-20,2021-07-20,株式会社こころ,,株式会社,福岡県,大牟田市,大字三池３９２番地１０,,40,202,8370921,,,,,,,2021-07-20,1,,,,,ココロ,0
556,2290001093954,新規,0,2021-07-20,2021-07-20,株式会社ＮＥＳＰＯＲＴ,,株式会社,福岡県,福岡市博多区,博多駅前２丁目１番１号福岡朝日ビル１階,,40,132,8120011,,,,,,,2021-07-20,1,,,,,ネスポート,0
573,2340003003492,新規,0,2021-07-20,2021-07-20,合同会社ａｌｏａｌｏ．１１,,合同会社,鹿児島県,鹿児島市,日之出町１４番地２３号,,46,201,8900086,,,,,,,2021-07-20,1,,,,,アロアロイレブン,0
576,2360001029091,新規,0,2021-07-20,2021-07-20,株式会社ＴＡ企画建装,,株式会社,沖縄県,中頭郡嘉手納町,字屋良８５番地１,,47,325,9040202,,,,,,,2021-07-20,1,,,,,ティーエーキカクケンソウ,0
577,2370001047373,新規,0,2021-07-20,2021-07-20,杜の職人株式会社,,株式会社,宮城県,仙台市太白区,萩ケ丘６番２６号,,04,104,9820848,,,,,,,2021-07-20,1,,,,,モリノショクニン,0
578,2370003005321,新規,0,2021-07-20,2021-07-20,光触媒ルミエール合同会社,,合同会社,宮城県,仙台市宮城野区,榴岡４丁目６番２３号,,04,102,9830852,,,,,,,2021-07-20,1,,,,,ヒカリショクバイルミエール,0
580,2380001032052,新規,0,2021-07-20,2021-07-20,株式会社福中,,株式会社,福島県,福島市,佐倉下字一本杉前１８番地の２,,07,201,9602154,,,,,,,2021-07-20,1,,,,,フクチュウ,0
581,2380003004982,新規,0,2021-07-20,2021-07-20,合同会社ｋａｂｅｙａ,,合同会社,福島県,本宮市,稲沢字五百田９５番地１,,07,214,9691201,,,,,,,2021-07-20,1,,,,,,0
583,2390001016541,新規,0,2021-07-20,2021-07-20,株式会社環境サポート,,株式会社,山形県,酒田市,こあら２丁目２２番地の１６,,06,204,9980878,,,,,,,2021-07-20,1,,,,,カンキョウサポート,0
586,2400001015525,新規,0,2021-07-20,2021-07-20,ＲＩＺＥ　Ｆａｃｔｏｒｙ株式会社,,株式会社,岩手県,奥州市,前沢白山字迎畑５９番地,,03,215,0294202,,,,,,,2021-07-20,1,,,,,ライズファクトリー,0
590,2410005006412,新規,0,2021-07-20,2021-07-20,医療法人純孝会,,その他の設立登記法人,秋田県,大仙市,大曲日の出町２丁目７－４,,05,212,0140063,,,,,,,2021-07-20,1,,,,,ジュンコウカイ,0
594,2430001084583,新規,0,2021-07-20,2021-07-20,株式会社エムスポルト,,株式会社,北海道,札幌市西区,琴似一条３丁目３番２０－５０２号,,01,107,0630811,,,,,,,2021-07-20,1,,,,,エムスポルト,0
597,2450001013417,新規,0,2021-07-20,2021-07-20,株式会社オホーツク・エアー・サービス,,株式会社,北海道,紋別市,幸町５丁目２４番１号,,01,219,0940005,,,,,,,2021-07-20,1,,,,,オホーツクエアーサービス,0
599,2460301004998,新規,0,2021-07-20,2021-07-20,株式会社追永ファーム,,株式会社,北海道,紋別郡湧別町,志撫子４６１番地,,01,559,0930652,,,,,,,2021-07-20,1,,,,,オイナガファーム,0
614,3010001219841,新規,0,2021-07-20,2021-07-20,株式会社ＡＣコネクト,,株式会社,東京都,千代田区,神田淡路町１丁目９番地５,,13,101,1010063,,,,,,,2021-07-20,1,,,,,エーシーコネクト,0
630,3010401161593,新規,0,2021-07-20,2021-07-20,株式会社ｂｕｙｃａ,,株式会社,東京都,港区,六本木１丁目４番５号アークヒルズサウスタワー１６階,,13,103,1060032,,,,,,,2021-07-20,1,,,,,バイカ,0
631,3010401161602,新規,0,2021-07-20,2021-07-20,株式会社ちさこ食堂,,株式会社,東京都,港区,赤坂３丁目１２番１０号サンビル３Ｆ,,13,103,1070052,,,,,,,2021-07-20,1,,,,,チサコショクドウ,0
632,3010401161627,新規,0,2021-07-20,2021-07-20,株式会社ｃｏｕｔｕｒｅ,,株式会社,東京都,港区,白金５丁目１５番５－５０３号,,13,103,1080072,,,,,,,2021-07-20,1,,,,,クチュール,0
633,3010405020028,新規,0,2021-07-20,2021-07-20,ＲＢソーラースパイラルホールディングス一般社団法人,,その他の設立登記法人,東京都,港区,虎ノ門３丁目２２番１０－２０１号,,13,103,1050001,,,,,,,2021-07-20,1,,,,,アールビーソーラースパイラルホールディングス,0
639,3010501047585,新規,0,2021-07-20,2021-07-20,株式会社水縹,,株式会社,東京都,台東区,浅草１丁目８番４号三岩ビル,,13,106,1110032,,,,,,,2021-07-20,1,,,,,ミハナダ,0
649,3010901049132,新規,0,2021-07-20,2021-07-20,ＥＩＧＨＴ　ＥＬＥＶＥＮ株式会社,,株式会社,東京都,世田谷区,駒沢２丁目５８番１５号,,13,112,1540012,,,,,,,2021-07-20,1,,,,,エイトイレブン,0
651,3011001141829,新規,0,2021-07-20,2021-07-20,株式会社ＰＲクラウドテック,,株式会社,東京都,渋谷区,広尾５丁目４番１６号ＥＡＴＰＬＡＹＷＯＲＫＳ３階,,13,113,1500012,,,,,,,2021-07-20,1,,,,,ピーアールクラウドテック,0
652,3011001141845,新規,0,2021-07-20,2021-07-20,株式会社ＴＯＹＯＫＥ　ＥＡＳＴ,,株式会社,東京都,渋谷区,初台２丁目２８番１５－１０１号,,13,113,1510061,,,,,,,2021-07-20,1,,,,,トヨークイースト,0
653,3011001141853,新規,0,2021-07-20,2021-07-20,株式会社Ｒｅｔｅｒｎａｌ,,株式会社,東京都,渋谷区,渋谷２丁目１２番１２号三貴ビル３階,,13,113,1500002,,,,,,,2021-07-20,1,,,,,リターナル,0
654,3011003013084,新規,0,2021-07-20,2021-07-20,ＩｎｎｏＶｉｔａｌ合同会社,,合同会社,東京都,渋谷区,代官山町８－７Ｄａｉｗａ代官山ビル１階,,13,113,1500034,,,,,,,2021-07-20,1,,,,,イノバイタル,0
655,3011003013092,新規,0,2021-07-20,2021-07-20,Ｒｅｘｗｅｌｌ　Ｂｅｖｅｒａｇｅ合同会社,,合同会社,東京都,渋谷区,代々木５丁目７番５号ＰＯＲＴＡＬＰＯＩＮＴＹｏｙｏｇｉ－Ｋｏｅｎ４０２,,13,113,1510053,,,,,,,2021-07-20,1,,,,,レックスウェルビバレッジ,0
656,3011003013134,新規,0,2021-07-20,2021-07-20,Ｃａｍｐ合同会社,,合同会社,東京都,渋谷区,神宮前６丁目２３番４号桑野ビル２階,,13,113,1500001,,,,,,,2021-07-20,1,,,,,キャンプ,0
661,3011101095801,新規,0,2021-07-20,2021-07-20,エックスライフ株式会社,,株式会社,東京都,新宿区,四谷２丁目１２番１号四谷レジデンス８０１,,13,104,1600004,,,,,,,2021-07-20,1,,,,,エックスライフ,0
667,3011701024556,新規,0,2021-07-20,2021-07-20,株式会社Ｔ＆Ｔ,,株式会社,東京都,江戸川区,東葛西１丁目１９番１１号,,13,123,1340084,,,,,,,2021-07-20,1,,,,,ティーアンドティー,0
668,3011801039479,新規,0,2021-07-20,2021-07-20,株式会社こませ,,株式会社,東京都,葛飾区,鎌倉４丁目１７番１－９０３号,,13,122,1250053,,,,,,,2021-07-20,1,,,,,コマセ,0
672,3011803004712,新規,0,2021-07-20,2021-07-20,合同会社ＴｅｅＤｅｅ,,合同会社,東京都,葛飾区,西新小岩３丁目１９番１１号,,13,122,1240025,,,,,,,2021-07-20,1,,,,,ティーディー,0
674,3012301012637,新規,0,2021-07-20,2021-07-20,株式会社ハーツ＆スマイル,,株式会社,東京都,町田市,能ヶ谷３丁目１１番２－１０２号,,13,209,1950053,,,,,,,2021-07-20,1,,,,,ハーツアンドスマイル,0
676,3012405004621,新規,0,2021-07-20,2021-07-20,一般社団法人日本フリーストレッチング協会,,その他の設立登記法人,東京都,府中市,本宿町１丁目４７番地の１,,13,206,1830032,,,,,,,2021-07-20,1,,,,,ニホンフリーストレッチングキョウカイ,0
689,3020001142274,新規,0,2021-07-20,2021-07-20,株式会社隆和,,株式会社,神奈川県,横浜市保土ケ谷区,上菅田町８０５番地１,,14,106,2400051,,,,,,,2021-07-20,1,,,,,リュウワ,0
691,3020003020197,新規,0,2021-07-20,2021-07-20,合同会社Ｔｈｉｎｋ＆Ｓｈａｒｅ,,合同会社,神奈川県,川崎市宮前区,土橋４丁目９番地２プレシス鷺沼ヒルズ２０１,,14,136,2160005,,,,,,,2021-07-20,1,,,,,シンクアンドシェア,0
708,3030001143395,新規,0,2021-07-20,2021-07-20,株式会社あやまる,,株式会社,埼玉県,所沢市,北有楽町１番１０－１０２号ベストステージ航空公園,,11,208,3591114,,,,,,,2021-07-20,1,,,,,アヤマル,0
709,3030001143404,新規,0,2021-07-20,2021-07-20,株式会社拓電,,株式会社,埼玉県,所沢市,大字下安松５３０番地２サンハイム丸山２０１号室,,11,208,3590024,,,,,,,2021-07-20,1,,,,,タクデン,0
710,3030001143437,新規,0,2021-07-20,2021-07-20,株式会社日本ハウジング,,株式会社,埼玉県,さいたま市北区,宮原町２丁目１９－１加瀬ビル１９９－２Ｆ,,11,102,3310812,,,,,,,2021-07-20,1,,,,,ニホンハウジング,0
714,3030003017647,新規,0,2021-07-20,2021-07-20,ホミーゴインターナショナル合同会社,,合同会社,埼玉県,富士見市,大字勝瀬６９３番地５,,11,235,3540031,,,,,,,2021-07-20,1,,,,,ホミーゴインターナショナル,0
719,3040001119428,新規,0,2021-07-20,2021-07-20,株式会社ディ・エイチ,,株式会社,千葉県,白井市,南山３丁目１０番５号,,12,232,2701423,,,,,,,2021-07-20,1,,,,,ディエイチ,0
726,3050001049574,新規,0,2021-07-20,2021-07-20,リアン電設株式会社,,株式会社,茨城県,龍ケ崎市,貝原塚３７１３番地３,00123707,08,208,3010000,,,,,,,2021-07-20,1,,,,,リアンデンセツ,0
733,3070001038294,新規,0,2021-07-20,2021-07-20,藤白株式会社,,株式会社,群馬県,前橋市,鼻毛石町１５８２－９,,10,201,3710244,,,,,,,2021-07-20,1,,,,,フジシロ,0
736,3080001024327,新規,0,2021-07-20,2021-07-20,株式会社ピースガード,,株式会社,静岡県,静岡市駿河区,国吉田４丁目１３番８号,,22,102,4228004,,,,,,,2021-07-20,1,,,,,ピースガード,0
741,3090001017107,新規,0,2021-07-20,2021-07-20,株式会社飯島興業,,株式会社,山梨県,大月市,大月２丁目１６番５号,,19,206,4010013,,,,,,,2021-07-20,1,,,,,イイジマコウギョウ,0
764,3120001239036,新規,0,2021-07-20,2021-07-20,株式会社ＬＩＫＥ,,株式会社,大阪府,門真市,中町８番２４号,,27,223,5710055,,,,,,,2021-07-20,1,,,,,ライク,0
765,3120001239168,新規,0,2021-07-20,2021-07-20,株式会社サンエム,,株式会社,大阪府,大阪市北区,西天満４丁目１５番１８号,,27,127,5300047,,,,,,,2021-07-20,1,,,,,サンエム,0
769,3120003019873,新規,0,2021-07-20,2021-07-20,ＤＡＯＮ合同会社,,合同会社,大阪府,大阪市東淀川区,東中島１丁目２０－１２－６０５,,27,114,5330033,,,,,,,2021-07-20,1,,,,,タウン,0
776,3120101064004,新規,0,2021-07-20,2021-07-20,株式会社賢谷,,株式会社,大阪府,堺市堺区,大浜南町３丁１番６３号,,27,141,5900976,,,,,,,2021-07-20,1,,,,,ケンタニ,0
777,3120101064012,新規,0,2021-07-20,2021-07-20,株式会社アヴァンチ大阪,,株式会社,大阪府,堺市南区,茶山台３丁３０番１号,,27,145,5900115,,,,,,,2021-07-20,1,,,,,アヴァンチオオサカ,0
782,3122001035010,新規,0,2021-07-20,2021-07-20,大誠ホーム株式会社,,株式会社,大阪府,東大阪市,大蓮北１丁目４番１１号,00123709,27,227,5770826,,,,,,,2021-07-20,1,,,,,タイセイホーム,0
792,3130001069754,新規,0,2021-07-20,2021-07-20,株式会社ＴＫＣ,,株式会社,京都府,京都市山科区,東野竹田２５番地１１,,26,110,6078151,,,,,,,2021-07-20,1,,,,,ティーケーシー,0
803,3140001122355,新規,0,2021-07-20,2021-07-20,株式会社ＥＫＵＢＯ,,株式会社,兵庫県,姫路市,広畑区蒲田５丁目１６５番地１,,28,201,6711102,,,,,,,2021-07-20,1,,,,,エクボ,0
804,3140001122388,新規,0,2021-07-20,2021-07-20,株式会社Ｐｌｕｓ　Ｌｉｆｅ,,株式会社,兵庫県,神戸市長田区,庄山町３丁目２番１２号,,28,106,6530853,,,,,,,2021-07-20,1,,,,,プラスライフ,0
807,3140005025744,新規,0,2021-07-20,2021-07-20,農事組合法人丹波いちじまふぁーむ＆奥丹波の森,,その他の設立登記法人,兵庫県,丹波市,市島町北奥１６０番地,,28,223,6694312,,,,,,,2021-07-20,1,,,,,タンバイチジマファームオクタンバノモリ,0
823,3180001147019,新規,0,2021-07-20,2021-07-20,株式会社明宏創建,,株式会社,愛知県,小牧市,岩崎原３丁目３０２番地ロックビル１－Ｃ,,23,219,4850017,,,,,,,2021-07-20,1,,,,,メイコウソウケン,0
833,3190001028523,新規,0,2021-07-20,2021-07-20,株式会社ハシペン,,株式会社,三重県,四日市市,楠町南五味塚６５２番地５,,24,202,5100104,,,,,,,2021-07-20,1,,,,,ハシペン,0
835,3190005011599,新規,0,2021-07-20,2021-07-20,特定非営利活動法人竜の森林,,その他の設立登記法人,三重県,いなべ市,大安町石榑南２２０６番地１,,24,214,5110266,,,,,,,2021-07-20,1,,,,,リュウノモリ,0
839,3200001038909,新規,0,2021-07-20,2021-07-20,株式会社アイエスイノベーション,,株式会社,岐阜県,岐阜市,芥見６丁目２５６番地,,21,201,5013134,,,,,,,2021-07-20,1,,,,,アイエスイノベーション,0
847,3220001024304,新規,0,2021-07-20,2021-07-20,ＨＷＨ１０株式会社,,株式会社,石川県,河北郡内灘町,字ハマナス１丁目１４４番地,,17,365,9200268,,,,,,,2021-07-20,1,,,,,ダブルエイチテン,0
849,3240001058300,新規,0,2021-07-20,2021-07-20,株式会社Ｎｏｄｅ,,株式会社,広島県,安芸郡坂町,坂東１丁目２１番１号,,34,309,7314313,,,,,,,2021-07-20,1,,,,,ノード,0
851,3250001019012,新規,0,2021-07-20,2021-07-20,株式会社エコテック,,株式会社,山口県,岩国市,麻里布町３丁目１２番３号,,35,208,7400018,,,,,,,2021-07-20,1,,,,,,0
861,3260003003632,新規,0,2021-07-20,2021-07-20,合同会社Ｅ＆Ｅ,,合同会社,岡山県,久米郡美咲町,江与味２９９６番地３,,33,666,7093415,,,,,,,2021-07-20,1,,,,,イーアンドイー,0
868,3290001093961,新規,0,2021-07-20,2021-07-20,株式会社協西電気,,株式会社,福岡県,福岡市西区,野方３丁目８番５号,,40,135,8190043,,,,,,,2021-07-20,1,,,,,キョウサイデンキ,0
874,3290801027648,新規,0,2021-07-20,2021-07-20,株式会社Ｄｅｎｄｏｕクリエーション,,株式会社,福岡県,北九州市小倉北区,金田２丁目７番４－１０２号,,40,106,8030816,,,,,,,2021-07-20,1,,,,,デンドウクリエーション,0
885,3330001028814,新規,0,2021-07-20,2021-07-20,株式会社マイコム,,株式会社,熊本県,球磨郡あさぎり町,深田東２３４０番地１,,43,514,8680442,,,,,,,2021-07-20,1,,,,,マイコム,0
891,3360001029090,新規,0,2021-07-20,2021-07-20,株式会社信和総合リフォーム,,株式会社,沖縄県,中頭郡中城村,字津覇５２７番地Ｆ－１,,47,328,9012413,,,,,,,2021-07-20,1,,,,,シンワソウゴウリフォーム,0
892,3360001029108,新規,0,2021-07-20,2021-07-20,株式会社ＳＴＥＣ,,株式会社,沖縄県,宜野湾市,大山２丁目１０番１１号,,47,205,9012223,,,,,,,2021-07-20,1,,,,,ステック,0
893,3370001047372,新規,0,2021-07-20,2021-07-20,株式会社エイトプライド,,株式会社,宮城県,仙台市太白区,柳生４丁目１８番地の１ナイスアーバン南仙台１－４０１,,04,104,9811106,,,,,,,2021-07-20,1,,,,,エイトプライド,0
897,3380001032051,新規,0,2021-07-20,2021-07-20,株式会社Ｃｌａｒｉｓ,,株式会社,福島県,福島市,早稲町５番１７号,,07,201,9608044,,,,,,,2021-07-20,1,,,,,クラリス,0
900,3380003004981,新規,0,2021-07-20,2021-07-20,Ｍｉｓａｔｏ　Ｆａｒｍ合同会社,,合同会社,福島県,大沼郡会津美里町,和田目字遠西甲２１８０,,07,447,9696401,,,,,,,2021-07-20,1,,,,,,0
910,3410005006411,新規,0,2021-07-20,2021-07-20,特定非営利活動法人アーク,,その他の設立登記法人,秋田県,秋田市,保戸野八丁２４番３８号,,05,201,0100903,,,,,,,2021-07-20,1,,,,,アーク,0
921,3450001013416,新規,0,2021-07-20,2021-07-20,Ｓｏｎ＆Ｈｅｉｒ株式会社,,株式会社,北海道,上川郡鷹栖町,１８線十一号５番地,,01,452,0711258,,,,,,,2021-07-20,1,,,,,サンアンドエア,0
922,3460003000849,新規,0,2021-07-20,2021-07-20,合同会社おとひまＬｉｆｅ,,合同会社,北海道,釧路市,新富士町４丁目８番２５号,,01,206,0840904,,,,,,,2021-07-20,1,,,,,オトヒマライフ,0
942,4010001219460,新規,0,2021-07-20,2021-07-20,株式会社寿々,,株式会社,東京都,中央区,銀座８丁目１５番３－５０１号,,13,102,1040061,,,,,,,2021-07-20,1,,,,,スズ,0
943,4010001219808,新規,0,2021-07-20,2021-07-20,株式会社ＬＡＮＤＭＡＲＫ,,株式会社,東京都,中央区,銀座１丁目２２番１１号銀座大竹ビジデンス２階,,13,102,1040061,,,,,,,2021-07-20,1,,,,,ランドマーク,0
946,4010003035278,新規,0,2021-07-20,2021-07-20,テイラーアニメーション合同会社,,合同会社,東京都,千代田区,岩本町３丁目８番８号中和秋葉原ビルビズコンフォート秋葉原岩本町,,13,101,1010032,,,,,,,2021-07-20,1,,,,,テイラーアニメーション,0
952,4010401161592,新規,0,2021-07-20,2021-07-20,Ｆｏｒｔｅｃ　Ａｒｃｈｉｔｅｃｔｓ株式会社,,株式会社,東京都,港区,虎ノ門３丁目７番２０－６０１号,,13,103,1050001,,,,,,,2021-07-20,1,,,,,フォルテックアーキテクト,0
954,4010403025738,新規,0,2021-07-20,2021-07-20,エコマテリアル合同会社,,合同会社,東京都,港区,南麻布４丁目１３番８号１階,,13,103,1060047,,,,,,,2021-07-20,1,,,,,エコマテリアル,0
955,4010403025746,新規,0,2021-07-20,2021-07-20,熱海インフラマネジメント合同会社,,合同会社,東京都,港区,元赤坂１丁目３番１号,,13,103,1070051,,,,,,,2021-07-20,1,,,,,アタミインフラマネジメント,0
957,4010405020027,新規,0,2021-07-20,2021-07-20,ＲＢソーラーパッション４ホールディングス一般社団法人,,その他の設立登記法人,東京都,港区,虎ノ門３丁目２２番１０－２０１号,,13,103,1050001,,,,,,,2021-07-20,1,,,,,アールビーソーラーパッションフォーホールディングス,0
962,4010603009053,新規,0,2021-07-20,2021-07-20,合同会社ＢＥＬＬ,,合同会社,東京都,江東区,南砂５丁目１７番１号グランヴァリエ五色月１０２,,13,108,1360076,,,,,,,2021-07-20,1,,,,,ベル,0
979,4011001141596,新規,0,2021-07-20,2021-07-20,株式会社グランウーフ,,株式会社,東京都,渋谷区,恵比寿西２丁目１１番２５号メゾン代官山１０６,,13,113,1500021,,,,,,,2021-07-20,1,,,,,グランウーフ,0
980,4011001141852,新規,0,2021-07-20,2021-07-20,株式会社ＣＯＲＮＥＲＳＴＯＮＥ,,株式会社,東京都,渋谷区,代官山町１９番１０－２０１号,,13,113,1500034,,,,,,,2021-07-20,1,,,,,コーナーストーン,0
989,4011101095783,新規,0,2021-07-20,2021-07-20,株式会社ＭＡＧＮＥＴＩＣ　Ｕ,,株式会社,東京都,新宿区,百人町１丁目９番２２号Ｂ１,,13,104,1690073,,,,,,,2021-07-20,1,,,,,マグネチックユー,0
992,4011103010872,新規,0,2021-07-20,2021-07-20,ＰＩＰＬＩ合同会社,,合同会社,東京都,新宿区,西新宿７丁目２－６Ｋ－１ビル４階,,13,104,1600023,,,,,,,2021-07-20,1,,,,,ピプリ,0
993,4011103010880,新規,0,2021-07-20,2021-07-20,合同会社ＮＩＸ　ｃａｐｉｔａｌ,,合同会社,東京都,新宿区,歌舞伎町２丁目１０番７号,,13,104,1600021,,,,,,,2021-07-20,1,,,,,ニックスキャピタル,0
999,4011501027147,新規,0,2021-07-20,2021-07-20,株式会社ヒロワークス,,株式会社,東京都,北区,赤羽台２丁目３番３－３１４号,,13,117,1150053,,,,,,,2021-07-20,1,,,,,ヒロワークス,0
1002,4011701024555,新規,0,2021-07-20,2021-07-20,株式会社ラスカルハウス,,株式会社,東京都,江戸川区,松島３丁目１５番２５号,,13,123,1320031,,,,,,,2021-07-20,1,,,,,ラスカルハウス,0
1005,4011801039478,新規,0,2021-07-20,2021-07-20,株式会社ＫＤクラフト,,株式会社,東京都,足立区,西新井本町２丁目２番２３号,,13,121,1230845,,,,,,,2021-07-20,1,,,,,ケイディークラフト,0
1006,4011801039486,新規,0,2021-07-20,2021-07-20,株式会社豊英運輸サービス,,株式会社,東京都,足立区,花畑３丁目４－５,,13,121,1210061,,,,,,,2021-07-20,1,,,,,ホウエイウンユサービス,0
1008,4011805003083,新規,0,2021-07-20,2021-07-20,特定非営利活動法人スモールライフプロテクション,,その他の設立登記法人,東京都,足立区,舎人５丁目２７番１２号,,13,121,1210831,,,,,,,2021-07-20,1,,,,,スモールライフプロテクション,0
1009,4012401038036,新規,0,2021-07-20,2021-07-20,株式会社青空技研,,株式会社,東京都,三鷹市,井の頭５丁目７番３６号,,13,204,1810001,,,,,,,2021-07-20,1,,,,,アオゾラギケン,0
1010,4012401038119,新規,0,2021-07-20,2021-07-20,株式会社ショウケイ,,株式会社,東京都,武蔵野市,吉祥寺本町２丁目８番４号ｉ－ｏｆｆｉｃｅ吉祥寺,,13,203,1800004,,,,,,,2021-07-20,1,,,,,ショウケイ,0
1011,4012702000660,新規,0,2021-07-20,2021-07-20,有限会社倉重豆腐店,,有限会社,東京都,小平市,学園西町２丁目１０番１１号,,13,211,1870045,,,,,,,2021-07-20,1,,,,,クラシゲトウフテン,0
1017,4020001142298,新規,0,2021-07-20,2021-07-20,株式会社ユトリヤ,,株式会社,神奈川県,横浜市港北区,篠原西町３３番２７号,,14,109,2220025,,,,,,,2021-07-20,1,,,,,ユトリヤ,0
1031,4030001143394,新規,0,2021-07-20,2021-07-20,株式会社大賀興産,,株式会社,埼玉県,さいたま市岩槻区,大字飯塚１６５０番地１,,11,110,3390031,,,,,,,2021-07-20,1,,,,,タイガコウサン,0
1032,4030001143403,新規,0,2021-07-20,2021-07-20,株式会社スライブ,,株式会社,埼玉県,さいたま市見沼区,大和田町１丁目１１７０番地３,,11,104,3370053,,,,,,,2021-07-20,1,,,,,スライブ,0
1033,4030001143460,新規,0,2021-07-20,2021-07-20,株式会社くるまのにわ,,株式会社,埼玉県,川口市,大字峯６番地の１０,,11,203,3340056,,,,,,,2021-07-20,1,,,,,クルマノニワ,0
1045,4040001119427,新規,0,2021-07-20,2021-07-20,株式会社コーシン,,株式会社,千葉県,松戸市,古ケ崎３丁目３２８７番地の１リーフパレット２０１号,,12,207,2710068,,,,,,,2021-07-20,1,,,,,コーシン,0
1046,4040001119435,新規,0,2021-07-20,2021-07-20,株式会社ワンダ,,株式会社,千葉県,木更津市,真舟２丁目１９番１３号,,12,206,2920802,,,,,,,2021-07-20,1,,,,,ワンダ,0
1062,4070001038277,新規,0,2021-07-20,2021-07-20,株式会社ルーフワン,,株式会社,群馬県,邑楽郡板倉町,大字下五箇１１９９番地,,10,521,3740121,,,,,,,2021-07-20,1,,,,,ルーフワン,0
1063,4070001038293,新規,0,2021-07-20,2021-07-20,株式会社ＩＲＩＳ,,株式会社,群馬県,高崎市,三ツ寺町４８５番地３,,10,202,3703525,,,,,,,2021-07-20,1,,,,,アイアールアイエス,0
1071,4080101022667,新規,0,2021-07-20,2021-07-20,ＭＫプランニング株式会社,,株式会社,静岡県,富士市,横割３丁目６番１８号,,22,210,4160944,,,,,,,2021-07-20,1,,,,,エムケープランニング,0
1073,4080103002386,新規,0,2021-07-20,2021-07-20,Ｖｉｓｅｎｃｅ　Ｐｒｏｆｅｓｓｉｏｎａｌ　Ｓｅｒｖｉｃｅｓ合同会社,,合同会社,静岡県,三島市,芙蓉台２丁目１５番地の１３,,22,206,4110046,,,,,,,2021-07-20,1,,,,,バイセンスプロフェッショナルサービシーズ,0
1078,4090001017106,新規,0,2021-07-20,2021-07-20,株式会社アウトバーン,,株式会社,山梨県,大月市,猿橋町猿橋８８５,,19,206,4090614,,,,,,,2021-07-20,1,,,,,アウトバーン,0
1097,4120001239167,新規,0,2021-07-20,2021-07-20,株式会社ＫＭＮ,,株式会社,大阪府,大阪市福島区,福島２丁目１０番１９号,,27,103,5530003,,,,,,,2021-07-20,1,,,,,ケーエムエヌ,0
1098,4120001239175,新規,0,2021-07-20,2021-07-20,おりーぶの空株式会社,,株式会社,大阪府,大阪市此花区,酉島３丁目２７番６号,,27,104,5540051,,,,,,,2021-07-20,1,,,,,オリーブノソラ,0
1099,4120001239183,新規,0,2021-07-20,2021-07-20,株式会社ニシケミ,,株式会社,大阪府,大阪市天王寺区,堂ケ芝１丁目５番２１号,,27,109,5430033,,,,,,,2021-07-20,1,,,,,ニシケミ,0
1100,4120001239225,新規,0,2021-07-20,2021-07-20,ＬＪ株式会社,,株式会社,大阪府,大阪市東成区,大今里南４丁目５番１号１階,,27,115,5370013,,,,,,,2021-07-20,1,,,,,エルジェイ,0
1101,4120003019856,新規,0,2021-07-20,2021-07-20,合同会社徳神,,合同会社,大阪府,大阪市中央区,南本町４丁目３番１６－２５０２号,,27,128,5410054,,,,,,,2021-07-20,1,,,,,トクシン,0
1102,4120003019872,新規,0,2021-07-20,2021-07-20,合同会社Ｒ．ｏ．Ｎ．ｎ,,合同会社,大阪府,大阪市港区,南市岡３丁目１１番３号,,27,107,5520011,,,,,,,2021-07-20,1,,,,,ロン,0
1103,4120003019880,新規,0,2021-07-20,2021-07-20,Ｑ２合同会社,,合同会社,大阪府,大阪市生野区,新今里４丁目１３番１５号,,27,116,5440001,,,,,,,2021-07-20,1,,,,,キューツー,0
1109,4120101064011,新規,0,2021-07-20,2021-07-20,山田倉庫株式会社,,株式会社,大阪府,堺市東区,大美野１１２番地２,,27,143,5998126,,,,,,,2021-07-20,1,,,,,ヤマダソウコ,0
1134,4140001122362,新規,0,2021-07-20,2021-07-20,日本金属産業株式会社,,株式会社,兵庫県,神戸市垂水区,千鳥が丘２丁目５番５４－３号,,28,108,6550011,,,,,,,2021-07-20,1,,,,,ニホンキンゾクサンギョウ,0
1137,4140003016521,新規,0,2021-07-20,2021-07-20,合同会社ＫＨＲ,,合同会社,兵庫県,尼崎市,上坂部１丁目８番２－７１０号,,28,202,6610979,,,,,,,2021-07-20,1,,,,,ケーエイチアール,0
1142,4160001023492,新規,0,2021-07-20,2021-07-20,株式会社Ｒｅａｃｈ・Ｗｅｌｆａｒｅ,,株式会社,滋賀県,大津市,御殿浜２番３０号,,25,201,5200834,,,,,,,2021-07-20,1,,,,,リーチウェルフェア,0
1148,4180003022755,新規,0,2021-07-20,2021-07-20,合同会社ＳＯＲＡ,,合同会社,愛知県,名古屋市天白区,梅が丘２丁目６３８番地,,23,116,4680004,,,,,,,2021-07-20,1,,,,,ソラ,0
1149,4180301035186,新規,0,2021-07-20,2021-07-20,株式会社ＷＩＮ,,株式会社,愛知県,豊橋市,東松山町１２３番地の２,,23,201,4400874,,,,,,,2021-07-20,1,,,,,ウイン,0
1158,4190005011598,新規,0,2021-07-20,2021-07-20,一般社団法人いきいきライフ協会三重北勢,,その他の設立登記法人,三重県,四日市市,大矢知町１００２番地１,,24,202,5108034,,,,,,,2021-07-20,1,,,,,イキイキライフキョウカイミエホクセイ,0
1159,4200001038908,新規,0,2021-07-20,2021-07-20,三富ホールディングス株式会社,,株式会社,岐阜県,羽島郡岐南町,八剣７丁目７５番地,,21,302,5016012,,,,,,,2021-07-20,1,,,,,サントミホールディングス,0
1160,4200001038916,新規,0,2021-07-20,2021-07-20,株式会社ランド,,株式会社,岐阜県,加茂郡富加町,羽生２２４８番地ＦｕｌｌＨｏｕｓｅⅡ２０３号,00123705,21,502,5013303,,,,,,,2021-07-20,1,,,,,ランド,0
1162,4200005013221,新規,0,2021-07-20,2021-07-20,特定非営利活動法人あさひ・愛の手援護の会,,その他の設立登記法人,岐阜県,岐阜市,六条福寿町７番７,,21,201,5008354,,,,,,,2021-07-20,1,,,,,アサヒアイノテエンゴノカイ,0
1171,4240003005209,新規,0,2021-07-20,2021-07-20,ベタープレイス合同会社,,合同会社,広島県,広島市中区,上八丁堀５番５号５０８,,34,101,7300012,,,,,,,2021-07-20,1,,,,,ベタープレイス,0
1173,4250001019011,新規,0,2021-07-20,2021-07-20,トップペイント株式会社,,株式会社,山口県,下関市,川中本町２丁目２番４７号,,35,201,7510859,,,,,,,2021-07-20,1,,,,,トップペイント,0
1182,4270001008318,新規,0,2021-07-20,2021-07-20,エナジーファクトリー株式会社,,株式会社,鳥取県,米子市,皆生新田３丁目１番２２号,,31,202,6830002,,,,,,,2021-07-20,1,,,,,エナジーファクトリー,0
1195,4290001093911,新規,0,2021-07-20,2021-07-20,福岡不動産リアリティ九州株式会社,,株式会社,福岡県,福岡市中央区,春吉２丁目１８番６号,,40,133,8100003,,,,,,,2021-07-20,1,,,,,フクオカフドウサンリアリティキュウシュウ,0
1196,4290001093960,新規,0,2021-07-20,2021-07-20,株式会社簑田商店,,株式会社,福岡県,福岡市博多区,月隈１丁目１９番１２号,,40,132,8120858,,,,,,,2021-07-20,1,,,,,ミノタショウテン,0
1200,4290003011458,新規,0,2021-07-20,2021-07-20,想形楽合同会社,,合同会社,福岡県,飯塚市,鯰田２２９９番地５,,40,205,8200001,,,,,,,2021-07-20,1,,,,,ソケイラク,0
1202,4290801027639,新規,0,2021-07-20,2021-07-20,株式会社雅屋,,株式会社,福岡県,京都郡苅田町,大字苅田６１９番地２,,40,621,8000365,,,,,,,2021-07-20,1,,,,,ミヤビヤ,0
1211,4330001028821,新規,0,2021-07-20,2021-07-20,あか牛の三協株式会社,,株式会社,熊本県,熊本市西区,八島町７２６番地５号,,43,103,8600057,,,,,,,2021-07-20,1,,,,,アカウシノサンキョウ,0
1214,4330005010370,新規,0,2021-07-20,2021-07-20,一般社団法人地域産業連携技術組合,,その他の設立登記法人,熊本県,熊本市南区,内田町２４７２番地,,43,104,8614127,,,,,,,2021-07-20,1,,,,,チイキサンギョウレンケイギジュツクミアイ,0
1215,4340001023953,新規,0,2021-07-20,2021-07-20,株式会社いろはシステム,,株式会社,鹿児島県,鹿児島市,谷山中央３丁目４５２９番地１１新天地Ｂ,,46,201,8910141,,,,,,,2021-07-20,1,,,,,イロハシステム,0
1217,4360001029098,新規,0,2021-07-20,2021-07-20,ＵＲ・コーポレーション株式会社,,株式会社,沖縄県,那覇市,辻１丁目７番２号,00123704,47,201,9000037,,,,,,,2021-07-20,1,,,,,ユーアールコーポレーション,0
1224,4380001032050,新規,0,2021-07-20,2021-07-20,株式会社Ｅｔｈｉｃａｌ　Ｖｅｎｔｕｒｅｓ　Ａｓｉａ,,株式会社,福島県,福島市,早稲町５番１７号,,07,201,9608044,,,,,,,2021-07-20,1,,,,,エティカルベンチャーズアジア,0
1227,4380003004980,新規,0,2021-07-20,2021-07-20,合同会社Ｈａｐｐｙ　ＷＨＩＴＥ,,合同会社,福島県,大沼郡昭和村,大字野尻字小田垣９８５番地,,07,446,9680102,,,,,,,2021-07-20,1,,,,,ハッピーホワイト,0
1234,4400001015523,新規,0,2021-07-20,2021-07-20,株式会社ファーム吉五郎,,株式会社,岩手県,和賀郡西和賀町,下左草７９地割１２番地９,,03,366,0295501,,,,,,,2021-07-20,1,,,,,ファームキチゴロウ,0
1235,4400003002809,新規,0,2021-07-20,2021-07-20,合同会社Ｓ４ＴＥＣＨ,,合同会社,岩手県,盛岡市,下太田下川原７７番地１グランソレイユ２０１号,,03,201,0200051,,,,,,,2021-07-20,1,,,,,エスフォーテック,0
1239,4410005006410,新規,0,2021-07-20,2021-07-20,医療法人社団ＢＬＥＳＳ,,その他の設立登記法人,秋田県,仙北市,角館町小館２８番地１８,,05,215,0140372,,,,,,,2021-07-20,1,,,,,ブレス,0
1246,4430001084581,新規,0,2021-07-20,2021-07-20,株式会社Ｓａｉｐｕｎ　Ｃｏｍｐａｎｙ,,株式会社,北海道,虻田郡ニセコ町,字ニセコ３８７番地５０,,01,395,0481511,,,,,,,2021-07-20,1,,,,,サイパンカンパニー,0
1247,4430001084607,新規,0,2021-07-20,2021-07-20,株式会社ＦＣＩエージェント,,株式会社,北海道,札幌市中央区,南五条西３丁目８番地Ｎグランデビル５階,,01,101,0640805,,,,,,,2021-07-20,1,,,,,エフシーアイエージェント,0
1255,4480001011432,新規,0,2021-07-20,2021-07-20,株式会社とくしまメディカル,,株式会社,徳島県,徳島市,三軒屋町東７５番地の１７,,36,201,7708025,,,,,,,2021-07-20,1,,,,,トクシマメディカル,0
1258,4500001023573,新規,0,2021-07-20,2021-07-20,株式会社さくら不動産,,株式会社,愛媛県,宇和島市,京町３番１９号,,38,203,7980052,,,,,,,2021-07-20,1,,,,,サクラフドウサン,0
1262,4700150020203,新規,0,2021-07-20,2015-10-09,佐野学童保育クラブ,,その他,群馬県,高崎市,下之城町８７４,,10,202,3700854,,,,,,,2015-10-09,1,,,,,サノガクドウホイククラブ,0
1282,5010001219591,新規,0,2021-07-20,2021-07-20,株式会社ＫＥＳＴＡ,,株式会社,東京都,千代田区,神田佐久間町１丁目１６大橋ビル５０３,,13,101,1010025,,,,,,,2021-07-20,1,,,,,ケスタ,0
1283,5010001219815,新規,0,2021-07-20,2021-07-20,ＣＥＬＬＲＥＴＵＲＮ　Ｊａｐａｎ株式会社,,株式会社,東京都,中央区,銀座１丁目２０番１７号,,13,102,1040061,,,,,,,2021-07-20,1,,,,,セルリターンジャパン,0
1284,5010001219848,新規,0,2021-07-20,2021-07-20,株式会社Ｅｔｈｏｓ,,株式会社,東京都,中央区,銀座７丁目１３番６号サガミビル２階,,13,102,1040061,,,,,,,2021-07-20,1,,,,,エートス,0
1285,5010001219864,新規,0,2021-07-20,2021-07-20,インプクオール株式会社,,株式会社,東京都,中央区,銀座５丁目６番１２号みゆきビルｂｉｚｃｕｂｅ７Ｆ,,13,102,1040061,,,,,,,2021-07-20,1,,,,,インプクオール,0
1290,5010003035384,新規,0,2021-07-20,2021-07-20,合同会社エネイブル,,合同会社,東京都,中央区,湊２丁目１１番１号,,13,102,1040043,,,,,,,2021-07-20,1,,,,,エネイブル,0
1291,5010005033709,新規,0,2021-07-20,2021-07-20,ＲＢソーラールピナスホールディングス一般社団法人,,その他の設立登記法人,東京都,中央区,八丁堀４丁目２番１０号ＡＯＪ税理士法人内,,13,102,1040032,,,,,,,2021-07-20,1,,,,,アールビーソーラールピナスホールディングス,0
1295,5010401161575,新規,0,2021-07-20,2021-07-20,ＤＥＤＩＥＮＮＥ　ＡＥＲＯＳＰＡＣＥ　ＪＡＰＡＮ株式会社,,株式会社,東京都,港区,赤坂２丁目１１番７号ＡＴＴ新館１１階Ｍａｚａｒｓ・Ｊａｐａｎ株式会社内,,13,103,1070052,,,,,,,2021-07-20,1,,,,,デディエンヌエアロスペースジャパン,0
1296,5010401161591,新規,0,2021-07-20,2021-07-20,ＳＵＭＩＫＡＥ株式会社,,株式会社,東京都,港区,港南２丁目１５番１号品川インターシティＡ棟２８階,,13,103,1080075,,,,,,,2021-07-20,1,,,,,スミカエ,0
1297,5010401161609,新規,0,2021-07-20,2021-07-20,株式会社Ｚｅａｍｉ,,株式会社,東京都,港区,南麻布４丁目２番２５号,,13,103,1060047,,,,,,,2021-07-20,1,,,,,ゼアミ,0
1301,5010403025745,新規,0,2021-07-20,2021-07-20,合同会社オフィス宮園,,合同会社,東京都,港区,南麻布１丁目２７番１７号オリーブ麻布十番８０１,,13,103,1060047,,,,,,,2021-07-20,1,,,,,オフィスミヤゾノ,0
1302,5010403025753,新規,0,2021-07-20,2021-07-20,合同会社ＪＲＥ肝付,,合同会社,東京都,港区,六本木６丁目２番３１号六本木ヒルズノースタワー１５階,,13,103,1060032,,,,,,,2021-07-20,1,,,,,ジェーアールイーキモツキ,0
1303,5010405020026,新規,0,2021-07-20,2021-07-20,ＲＢソーラーパッション３ホールディングス一般社団法人,,その他の設立登記法人,東京都,港区,虎ノ門３丁目２２番１０－２０１号,,13,103,1050001,,,,,,,2021-07-20,1,,,,,アールビーソーラーパッションスリーホールディングス,0
1314,5010901049122,新規,0,2021-07-20,2021-07-20,株式会社ＫＩＰ　Ａｓｓｏｃｉａｔｅｓ,,株式会社,東京都,世田谷区,船橋１丁目４２番６－６０２号,,13,112,1560055,,,,,,,2021-07-20,1,,,,,ケーアイピーアソシエイツ,0
1318,5011101095725,新規,0,2021-07-20,2021-07-20,アイブリス創薬株式会社,,株式会社,東京都,新宿区,西新宿８丁目５番地３－７０１号,,13,104,1600023,,,,,,,2021-07-20,1,,,,,,0
1320,5011103010871,新規,0,2021-07-20,2021-07-20,合同会社ＳＴＡＹＦＯＬＩＯ,,合同会社,東京都,新宿区,西新宿６丁目１０番１号日土地西新宿ビル８階,,13,104,1600023,,,,,,,2021-07-20,1,,,,,ステイフォリオ,0
1326,5011401023542,新規,0,2021-07-20,2021-07-20,株式会社ＮＫＭ．ｃｏｍ,,株式会社,東京都,板橋区,本町１３番３号サンライズ板橋本町４０６号,,13,119,1730001,,,,,,,2021-07-20,1,,,,,エヌケーエムドットコム,0
1329,5011601025272,新規,0,2021-07-20,2021-07-20,株式会社ＳＳＢ,,株式会社,東京都,練馬区,早宮２丁目１１番３号シャルム早宮１０１号室,,13,120,1790085,,,,,,,2021-07-20,1,,,,,エスエスビー,0
1336,5011801039477,新規,0,2021-07-20,2021-07-20,Ｍｅｔａｌ　Ｃｈａｌｌｅｎｇｅ　Ｊａｐａｎ株式会社,,株式会社,東京都,葛飾区,新小岩２丁目２９番１０号小倉アパート店舗１階,,13,122,1240024,,,,,,,2021-07-20,1,,,,,,0
1338,5011803004710,新規,0,2021-07-20,2021-07-20,Ｌｕｄｏ　Ａｌｅａｅ合同会社,,合同会社,東京都,足立区,足立４丁目２４番３号,,13,121,1200015,,,,,,,2021-07-20,1,,,,,ルドアレア,0
1340,5012305001964,新規,0,2021-07-20,2021-07-20,司法書士法人ＳＫＹ事務所,,その他の設立登記法人,東京都,町田市,森野２丁目２０番７号１Ｆ,,13,209,1940022,,,,,,,2021-07-20,1,,,,,エスケーワイジムショ,0
1350,5013303005750,新規,0,2021-07-20,2021-07-20,合同会社Ｃｏｔｔｙ,,合同会社,東京都,豊島区,東池袋２丁目３２番２０号１００１号室,,13,116,1700013,,,,,,,2021-07-20,1,,,,,コッティー,0
1381,5030001142866,新規,0,2021-07-20,2021-07-20,株式会社Ｌｉａ,,株式会社,埼玉県,さいたま市大宮区,堀の内町１丁目１８０番地パレロワイヤル３１６,,11,103,3300804,,,,,,,2021-07-20,1,,,,,リア,0
1382,5030001143377,新規,0,2021-07-20,2021-07-20,株式会社マルナンフード,,株式会社,埼玉県,戸田市,美女木４丁目１８番地２,,11,224,3350031,,,,,,,2021-07-20,1,,,,,マルナンフード,0
1383,5030001143393,新規,0,2021-07-20,2021-07-20,株式会社ＯＲＳＯ　ＧＲＡＮＤＥ,,株式会社,埼玉県,戸田市,氷川町１丁目６番８号,,11,224,3350027,,,,,,,2021-07-20,1,,,,,オルソグランデ,0
1384,5030001143402,新規,0,2021-07-20,2021-07-20,株式会社武蔵の屋,,株式会社,埼玉県,比企郡鳩山町,楓ヶ丘１丁目１番８号,,11,348,3500314,,,,,,,2021-07-20,1,,,,,ムサシノヤ,0
1386,5030003017653,新規,0,2021-07-20,2021-07-20,合同会社ワークス,,合同会社,埼玉県,さいたま市南区,南浦和２丁目４１番５号メゾン大東３０６,,11,108,3360017,,,,,,,2021-07-20,1,,,,,ワークス,0
1388,5030005020457,新規,0,2021-07-20,2021-07-20,一般社団法人三郷民商会館,,その他の設立登記法人,埼玉県,三郷市,谷口５２３番地５,,11,237,3410042,,,,,,,2021-07-20,1,,,,,ミサトミンショウカイカン,0
1399,5040001119434,新規,0,2021-07-20,2021-07-20,株式会社ほけんテーラー,,株式会社,千葉県,市川市,相之川４丁目１３番３号相良ビル１階,,12,203,2720143,,,,,,,2021-07-20,1,,,,,ホケンテーラー,0
1400,5040001119442,新規,0,2021-07-20,2021-07-20,株式会社ビアード,,株式会社,千葉県,八千代市,上高野１３１１番地９,,12,221,2760022,,,,,,,2021-07-20,1,,,,,ビアード,0
1401,5040001119483,新規,0,2021-07-20,2021-07-20,株式会社イープ商品,,株式会社,千葉県,野田市,岡田５７５番地１,,12,208,2700223,,,,,,,2021-07-20,1,,,,,イープショウヒン,0
1406,5050003005986,新規,0,2021-07-20,2021-07-20,合同会社極,,合同会社,茨城県,土浦市,桜町２丁目４－６,,08,203,3000037,,,,,,,2021-07-20,1,,,,,キワミ,0
1416,5080001024325,新規,0,2021-07-20,2021-07-20,株式会社ＳＹＧコーポレーション,,株式会社,静岡県,静岡市駿河区,曲金６丁目１０番１４号,,22,102,4228006,,,,,,,2021-07-20,1,,,,,エスワイジーコーポレーション,0
1424,5080401025204,新規,0,2021-07-20,2021-07-20,株式会社なうやんぐ,,株式会社,静岡県,磐田市,中泉１４１４番地１、エンブルエバー磐田６０３号室,,22,211,4380078,,,,,,,2021-07-20,1,,,,,ナウヤング,0
1429,5100005012744,新規,0,2021-07-20,2021-07-20,一般社団法人本の山,,その他の設立登記法人,長野県,上田市,秋和５３７,,20,203,3860041,,,,,,,2021-07-20,1,,,,,ホンノヤマ,0
1445,5120001239174,新規,0,2021-07-20,2021-07-20,Ｏｌｉｖｅ　ｃｏｎｎｅｃｔ株式会社,,株式会社,大阪府,大阪市此花区,酉島３丁目２７番６号,,27,104,5540051,,,,,,,2021-07-20,1,,,,,オリーブコネクト,0
1446,5120001239208,新規,0,2021-07-20,2021-07-20,Ｃｒｏｓｓ株式会社,,株式会社,大阪府,大阪市中央区,淡路町１丁目３－２紀陽オリエントビル７０２号,,27,128,5410047,,,,,,,2021-07-20,1,,,,,クロス,0
1447,5120001239232,新規,0,2021-07-20,2021-07-20,株式会社くつろぎ,,株式会社,大阪府,大阪市浪速区,元町２丁目１３番２０号神田コーポ２Ｆ,,27,111,5560016,,,,,,,2021-07-20,1,,,,,クツロギ,0
1458,5120101064010,新規,0,2021-07-20,2021-07-20,株式会社クラウドガレージ,,株式会社,大阪府,堺市北区,長曽根町３００１番地１５,,27,146,5918025,,,,,,,2021-07-20,1,,,,,クラウドガレージ,0
1463,5122001035009,新規,0,2021-07-20,2021-07-20,株式会社Ｌ・Ｇｒａｎｄｅ,,株式会社,大阪府,東大阪市,岩田町３丁目１２番２４－１０１号,,27,227,5780941,,,,,,,2021-07-20,1,,,,,エルグランデ,0
1465,5122005003564,新規,0,2021-07-20,2021-07-20,医療法人吉風会,,その他の設立登記法人,大阪府,大東市,新町５番１７号,,27,218,5740037,,,,,,,2021-07-20,1,,,,,キップウカイ,0
1484,5140001122337,新規,0,2021-07-20,2021-07-20,株式会社１２０パーセントｈａｐｐｙ,,株式会社,兵庫県,神戸市中央区,二宮町１丁目４番５号,,28,110,6510093,,,,,,,2021-07-20,1,,,,,ヒャクニジュッパーセントハッピー,0
1485,5140001122345,新規,0,2021-07-20,2021-07-20,株式会社津坂板金,,株式会社,兵庫県,姫路市,継２２６番地８,,28,201,6728004,,,,,,,2021-07-20,1,,,,,ツサカバンキン,0
1494,5160001023475,新規,0,2021-07-20,2021-07-20,株式会社手と手,,株式会社,滋賀県,大津市,秋葉台８番３号,,25,201,5200822,,,,,,,2021-07-20,1,,,,,テトテ,0
1495,5160001023491,新規,0,2021-07-20,2021-07-20,株式会社Ｒｅａｃｈ・Ｓｔｙｌｅ,,株式会社,滋賀県,大津市,御殿浜２番３０号,,25,201,5200834,,,,,,,2021-07-20,1,,,,,リーチスタイル,0
1507,5180001146935,新規,0,2021-07-20,2021-07-20,株式会社ケイ・アイ・ジー,,株式会社,愛知県,弥富市,東中地１丁目１７番地４,,23,235,4980002,,,,,,,2021-07-20,1,,,,,ケイアイジー,0
1508,5180001146992,新規,0,2021-07-20,2021-07-20,株式会社アワー,,株式会社,愛知県,名古屋市中区,栄５丁目１２番３２号,,23,106,4600008,,,,,,,2021-07-20,1,,,,,アワー,0
1512,5180301035177,新規,0,2021-07-20,2021-07-20,機ホールディングス株式会社,,株式会社,愛知県,豊川市,千両町宝辺３番地の１,,23,207,4420001,,,,,,,2021-07-20,1,,,,,タクミホールディングス,0
1527,5230003001703,新規,0,2021-07-20,2021-07-20,合同会社ＦＵＢＬＯＴ,,合同会社,富山県,富山市,町村６４番地１ナチュラルヴィレッジ町村ⅡＡ棟６号,00123702,16,201,9300952,,,,,,,2021-07-20,1,,,,,フブロット,0
1533,5240001058298,新規,0,2021-07-20,2021-07-20,株式会社ホームワーク,,株式会社,広島県,呉市,東惣付町３番９号,,34,202,7370063,,,,,,,2021-07-20,1,,,,,ホームワーク,0
1534,5240001058307,新規,0,2021-07-20,2021-07-20,アイアールホーム株式会社,,株式会社,広島県,広島市安佐南区,緑井１丁目２２番３７号,,34,105,7310103,,,,,,,2021-07-20,1,,,,,アイアールホーム,0
1540,5250003002872,新規,0,2021-07-20,2021-07-20,合同会社陽なた,,合同会社,山口県,宇部市,則貞２丁目６番２４－１０１号,,35,202,7550003,,,,,,,2021-07-20,1,,,,,ヒナタ,0
1551,5280001008480,新規,0,2021-07-20,2021-07-20,Ｗｅｌｆａｍｉｌｙ株式会社,,株式会社,島根県,松江市,八雲町西岩坂１１７,,32,201,6902103,,,,,,,2021-07-20,1,,,,,,0
1556,5290801027646,新規,0,2021-07-20,2021-07-20,株式会社Ｌｉｎｋｓ　ｌａｎｄ,,株式会社,福岡県,北九州市小倉南区,守恒本町３丁目２番１号,,40,107,8020971,,,,,,,2021-07-20,1,,,,,リンクスランド,0
1561,5320001018500,新規,0,2021-07-20,2021-07-20,ＢＲＥＷ　ＴＥＮＤＥＲ株式会社,,株式会社,大分県,国東市,武蔵町糸原２５４３番地,,44,214,8730421,,,,,,,2021-07-20,1,,,,,ブリューテンダー,0
1564,5330001028820,新規,0,2021-07-20,2021-07-20,株式会社Ｋ－ｓｈоｕ,,株式会社,熊本県,熊本市中央区,萩原町５番４７－１号,,43,101,8600832,,,,,,,2021-07-20,1,,,,,ケーショウ,0
1577,5380001032033,新規,0,2021-07-20,2021-07-20,株式会社芹澤商店,,株式会社,福島県,いわき市,小川町高萩字上川原２４番地の１１,,07,204,9793122,,,,,,,2021-07-20,1,,,,,セリザワショウテン,0
1583,5400001015530,新規,0,2021-07-20,2021-07-20,株式会社クラシコ・コンサルティングオフィス,,株式会社,岩手県,盛岡市,清水町３番１０号ビジネスプラザ穀町２Ｆ,,03,201,0200875,,,,,,,2021-07-20,1,,,,,クラシココンサルティングオフィス,0
1588,5410001012907,新規,0,2021-07-20,2021-07-20,株式会社インターフードＪＰ,,株式会社,秋田県,能代市,二ツ井町仁鮒字中台１２１番地１,,05,202,0183113,,,,,,,2021-07-20,1,,,,,インターフードジェイピイ,0
1595,5430001084572,新規,0,2021-07-20,2021-07-20,ナガサワスタッドワークス株式会社,,株式会社,北海道,札幌市東区,東苗穂八条２丁目３番２８号,,01,103,0070808,,,,,,,2021-07-20,1,,,,,ナガサワスタッドワークス,0
1598,5450001013414,新規,0,2021-07-20,2021-07-20,株式会社デイリーファームハタノ,,株式会社,北海道,中川郡美深町,字東三条南２丁目５番地２,,01,469,0982233,,,,,,,2021-07-20,1,,,,,デイリーファームハタノ,0
1606,5500005008405,新規,0,2021-07-20,2021-07-20,ＮＰＯ法人えひめ不動産研究所,,その他の設立登記法人,愛媛県,松山市,土橋町８６番地６,,38,201,7900032,,,,,,,2021-07-20,1,,,,,エヒメフドウサンケンキュウジョ,0
1614,6010001219839,新規,0,2021-07-20,2021-07-20,株式会社明弘商事,,株式会社,東京都,中央区,新川２丁目１２－１７マルコウ八重洲通りビル３０１,,13,102,1040033,,,,,,,2021-07-20,1,,,,,メイコウショウジ,0
1618,6010005033708,新規,0,2021-07-20,2021-07-20,ＲＢソーラークローバーホールディングス一般社団法人,,その他の設立登記法人,東京都,中央区,八丁堀４丁目２番１０号ＡＯＪ税理士法人内,,13,102,1040032,,,,,,,2021-07-20,1,,,,,アールビーソーラークローバーホールディングス,0
1629,6010401161574,新規,0,2021-07-20,2021-07-20,スープ・カンパニー株式会社,,株式会社,東京都,港区,麻布台３丁目４番１２号,,13,103,1060041,,,,,,,2021-07-20,1,,,,,スープカンパニー,0
1630,6010403025728,新規,0,2021-07-20,2021-07-20,ＢａｙＷａ　Ｐｏｗｅｒ　０１合同会社,,合同会社,東京都,港区,浜松町２丁目１番１７号松永ビル,,13,103,1050013,,,,,,,2021-07-20,1,,,,,バイワパワーゼロイチ,0
1631,6010403025744,新規,0,2021-07-20,2021-07-20,合同会社Ｉｒｉｓａｔｉｏｎ,,合同会社,東京都,港区,南青山３丁目１５番９号ＭＩＮＯＷＡ表参道３階,,13,103,1070062,,,,,,,2021-07-20,1,,,,,イリゼイション,0
1632,6010403025752,新規,0,2021-07-20,2021-07-20,ＲＢソーラースパイラル合同会社,,合同会社,東京都,港区,虎ノ門３丁目２２番１０－２０１号,,13,103,1050001,,,,,,,2021-07-20,1,,,,,アールビーソーラースパイラル,0
1646,6010901049113,新規,0,2021-07-20,2021-07-20,株式会社スペースマネジメント,,株式会社,東京都,世田谷区,代沢２丁目３３番１３号,,13,112,1550032,,,,,,,2021-07-20,1,,,,,スペースマネジメント,0
1647,6010901049121,新規,0,2021-07-20,2021-07-20,株式会社ＴＥＮＥＴ,,株式会社,東京都,世田谷区,赤堤３丁目３２番１４号,,13,112,1560044,,,,,,,2021-07-20,1,,,,,テネット,0
1650,6011003013081,新規,0,2021-07-20,2021-07-20,ＳＴ合同会社,,合同会社,東京都,渋谷区,松濤２丁目１６－１アステリオン松濤９０４,,13,113,1500046,,,,,,,2021-07-20,1,,,,,エスティ,0
1652,6011101095798,新規,0,2021-07-20,2021-07-20,カーマーケティングジャパン株式会社,,株式会社,東京都,新宿区,大久保３丁目８－３－２６２４,,13,104,1690072,,,,,,,2021-07-20,1,,,,,カーマーケティングジャパン,0
1659,6011103010887,新規,0,2021-07-20,2021-07-20,合同会社ＫＮ１インベスターズ,,合同会社,東京都,新宿区,西新宿８丁目５番１号,,13,104,1600023,,,,,,,2021-07-20,1,,,,,ケーエヌワンインベスターズ,0
1672,6011701024561,新規,0,2021-07-20,2021-07-20,株式会社サニーランド,,株式会社,東京都,江戸川区,小松川１丁目４番２号,,13,123,1320034,,,,,,,2021-07-20,1,,,,,サニーランド,0
1673,6011801039476,新規,0,2021-07-20,2021-07-20,ジャパンインダストリアルコンサルティング株式会社,,株式会社,東京都,足立区,西新井３丁目６－１１パークゲートメイツ西新井５０７号,,13,121,1230841,,,,,,,2021-07-20,1,,,,,ジャパンインダストリアルコンサルティング,0
1679,6012403004950,新規,0,2021-07-20,2021-07-20,ＲＦ合同会社,,合同会社,東京都,調布市,緑ケ丘２丁目４５番地１８,,13,208,1820001,,,,,,,2021-07-20,1,,,,,アールエフ,0
1685,6013301047744,新規,0,2021-07-20,2021-07-20,メディカリーフ株式会社,,株式会社,東京都,豊島区,南池袋２丁目７番５－８０６号,,13,116,1710022,,,,,,,2021-07-20,1,,,,,メディカリーフ,0
1686,6013301047752,新規,0,2021-07-20,2021-07-20,株式会社ＴＫ,,株式会社,東京都,豊島区,巣鴨１丁目１１番地２号,,13,116,1700002,,,,,,,2021-07-20,1,,,,,ティーケー,0
1690,6020001142321,新規,0,2021-07-20,2021-07-20,水谷電機製作所株式会社,,株式会社,神奈川県,横浜市青葉区,上谷本町８９番地６,,14,117,2270041,,,,,,,2021-07-20,1,,,,,ミズタニデンキセイサクショ,0
1704,6021005012254,新規,0,2021-07-20,2021-07-20,一般社団法人プロアマゴルフキャリア支援協会,,その他の設立登記法人,神奈川県,三浦郡葉山町,長柄１６４２番地の３３５,,14,301,2400113,,,,,,,2021-07-20,1,,,,,プロアマゴルフキャリアシエンキョウカイ,0
1709,6030001143335,新規,0,2021-07-20,2021-07-20,ＴＡＬＨＡ　ＴＲＡＤＩＮＧ株式会社,,株式会社,埼玉県,春日部市,牛島１３３０番地１,,11,214,3440004,,,,,,,2021-07-20,1,,,,,タルハトレーディング,0
1710,6030001143376,新規,0,2021-07-20,2021-07-20,株式会社真,,株式会社,埼玉県,新座市,栄５丁目７番７号,,11,230,3520014,,,,,,,2021-07-20,1,,,,,シン,0
1711,6030001143401,新規,0,2021-07-20,2021-07-20,株式会社ＥＭＭＡＲ’ｓ,,株式会社,埼玉県,さいたま市南区,南浦和３丁目４３番１５号サンハイネス南浦和２０２,,11,108,3360017,,,,,,,2021-07-20,1,,,,,エマーズ,0
1712,6030001143426,新規,0,2021-07-20,2021-07-20,株式会社ｒｅｗｒｉｔｅ,,株式会社,埼玉県,所沢市,御幸町１３番１１号サマックスシャトレＡ－２０２,,11,208,3591115,,,,,,,2021-07-20,1,,,,,リライト,0
1713,6030001143434,新規,0,2021-07-20,2021-07-20,株式会社Ｖｉｔａ,,株式会社,埼玉県,八潮市,八潮４丁目１５番地６ロイヤルキャッスル八潮Ａ４０３,,11,234,3400815,,,,,,,2021-07-20,1,,,,,ヴィータ,0
1714,6030001143442,新規,0,2021-07-20,2021-07-20,株式会社ＮＡＯ輝,,株式会社,埼玉県,さいたま市北区,土呂町２丁目４６番地１４,,11,102,3310804,,,,,,,2021-07-20,1,,,,,ナオキ,0
1725,6030003017644,新規,0,2021-07-20,2021-07-20,合同会社ＫＺＲ,,合同会社,埼玉県,川口市,大字木曽呂２４番地の３木曽呂マンション３０３号,,11,203,3330831,,,,,,,2021-07-20,1,,,,,ケイゼットアール,0
1726,6030003017652,新規,0,2021-07-20,2021-07-20,コスモフロント合同会社,,合同会社,埼玉県,川口市,川口４丁目２番３６号,,11,203,3320015,,,,,,,2021-07-20,1,,,,,コスモフロント,0
1729,6030005020456,新規,0,2021-07-20,2021-07-20,一般社団法人みらいデザイン相談室,,その他の設立登記法人,埼玉県,狭山市,中央１丁目４９番３０号篠ビル３０２,,11,215,3501308,,,,,,,2021-07-20,1,,,,,ミライデザインソウダンシツ,0
1734,6040001119284,新規,0,2021-07-20,2021-07-20,嶺岡畜産株式会社,,株式会社,千葉県,南房総市,大井２５４０番地,,12,234,2992507,,,,,,,2021-07-20,1,,,,,ミネオカチクサン,0
1735,6040001119482,新規,0,2021-07-20,2021-07-20,株式会社Ｉ．Ｃ,,株式会社,千葉県,千葉市花見川区,幕張本郷３丁目１４番４号,,12,102,2620033,,,,,,,2021-07-20,1,,,,,アイシー,0
1739,6050001049571,新規,0,2021-07-20,2021-07-20,株式会社ＪＵ　ＴＲＡＤＩＮＧ,,株式会社,茨城県,常総市,本石下３７８８番地４,,08,211,3002707,,,,,,,2021-07-20,1,,,,,ジェーユートレーディング,0
1747,6070001038283,新規,0,2021-07-20,2021-07-20,株式会社グッドサポート,,株式会社,群馬県,藤岡市,立石新田３９番２,,10,209,3750003,,,,,,,2021-07-20,1,,,,,グッドサポート,0
1750,6080101022574,新規,0,2021-07-20,2021-07-20,１０３０アトリエ株式会社,,株式会社,静岡県,田方郡函南町,平井字南谷下１７４０番２６１１,,22,325,4190107,,,,,,,2021-07-20,1,,,,,イチゼロサンゼロアトリエ,0
1753,6100001034460,新規,0,2021-07-20,2021-07-20,株式会社ＧＩＲＡＳＯＬＥ,,株式会社,長野県,上田市,中央４丁目８－１,,20,203,3860012,,,,,,,2021-07-20,1,,,,,ジラソーレ,0
1754,6100005012743,新規,0,2021-07-20,2021-07-20,特定非営利活動法人ＥＡＲＴＨ　Ｓｈｉｐ　Ｃｒｅｗ,,その他の設立登記法人,長野県,東御市,海善寺４０２番地１０,,20,219,3890504,,,,,,,2021-07-20,1,,,,,アースシップクルー,0
1775,6120001239157,新規,0,2021-07-20,2021-07-20,Ｇｌｏｂａｌ　Ｈｏｏｋａｈ　Ｊａｐａｎ株式会社,,株式会社,大阪府,大阪市港区,築港３丁目１０番８号,,27,107,5520021,,,,,,,2021-07-20,1,,,,,グローバルフーカジャパン,0
1776,6120001239215,新規,0,2021-07-20,2021-07-20,株式会社ジーエスケイ,,株式会社,大阪府,大阪市港区,築港１丁目１３－２２,,27,107,5520021,,,,,,,2021-07-20,1,,,,,ジーエスケイ,0
1782,6120003019862,新規,0,2021-07-20,2021-07-20,合同会社ＳＡＬＴＯ,,合同会社,大阪府,大阪市平野区,長吉六反２丁目８番３１号,,27,126,5470012,,,,,,,2021-07-20,1,,,,,サルト,0
1793,6120105009415,新規,0,2021-07-20,2021-07-20,一般社団法人阪南市シティプロモーション協議会,,その他の設立登記法人,大阪府,阪南市,下出７５番地の４,,27,232,5990202,,,,,,,2021-07-20,1,,,,,ハンナンシシティプロモーションキョウギカイ,0
1813,6140001122336,新規,0,2021-07-20,2021-07-20,株式会社Ａ．Ｃ．Ｓ,,株式会社,兵庫県,加古川市,神野町石守３１３番地の３０,,28,210,6750005,,,,,,,2021-07-20,1,,,,,エーシーエス,0
1814,6140001122344,新規,0,2021-07-20,2021-07-20,株式会社凌建,,株式会社,兵庫県,神戸市西区,丸塚２丁目１１番６号,,28,111,6512143,,,,,,,2021-07-20,1,,,,,リョウケン,0
1816,6140003016552,新規,0,2021-07-20,2021-07-20,合同会社ペイロールサービス,,合同会社,兵庫県,尼崎市,西難波町１丁目４番１２号,,28,202,6600893,,,,,,,2021-07-20,1,,,,,ペイロールサービス,0
1839,6190003003728,新規,0,2021-07-20,2021-07-20,Ｎ＆Ｔ合同会社,,合同会社,三重県,三重郡菰野町,大字永井３０９４番地３・１Ｆ,,24,341,5101311,,,,,,,2021-07-20,1,,,,,エヌティ,0
1854,6240001058297,新規,0,2021-07-20,2021-07-20,株式会社ハコダ,,株式会社,広島県,福山市,沼隈町大字下山南１４０３番地,,34,207,7200403,,,,,,,2021-07-20,1,,,,,ハコダ,0
1855,6240001058306,新規,0,2021-07-20,2021-07-20,株式会社三合,,株式会社,広島県,世羅郡世羅町,大字安田１０７０６番地,,34,462,7221202,,,,,,,2021-07-20,1,,,,,サンゴウ,0
1859,6270005005474,新規,0,2021-07-20,2021-07-20,若桜町特定地域づくり事業協同組合,,その他の設立登記法人,鳥取県,八頭郡若桜町,大字若桜７５７番地,,31,325,6800701,,,,,,,2021-07-20,1,,,,,ワカサチョウトクテイチイキヅクリ,0
1862,6290001093892,新規,0,2021-07-20,2021-07-20,株式会社ＭＩＲＡＣＬＥ,,株式会社,福岡県,那珂川市,大字安徳７５１番地２,,40,231,8111224,,,,,,,2021-07-20,1,,,,,ミラクル,0
1866,6290801027645,新規,0,2021-07-20,2021-07-20,株式会社寛建,,株式会社,福岡県,北九州市小倉南区,富士見２丁目１０番１２号,,40,107,8020801,,,,,,,2021-07-20,1,,,,,ヒロケン,0
1869,6310001017386,新規,0,2021-07-20,2021-07-20,株式会社古本木材,,株式会社,長崎県,大村市,溝陸町７０２番地１０,,42,205,8560844,,,,,,,2021-07-20,1,,,,,フルモトモクザイ,0
1879,6330003008968,新規,0,2021-07-20,2021-07-20,合資会社大友商店,,合資会社,熊本県,玉名市,高瀬３８６番地,,43,206,8650025,,,,,,,2021-07-20,1,,,,,オオトモショウテン,0
1880,6330005010369,新規,0,2021-07-20,2021-07-20,一般社団法人日本ＬＣＡビューティー協会,,その他の設立登記法人,熊本県,熊本市中央区,桜町１－２５－５０６,,43,101,8600805,,,,,,,2021-07-20,1,,,,,ニホンエルシーエービューティーキョウカイ,0
1883,6350001017201,新規,0,2021-07-20,2021-07-20,ＭＡＨＮＯＯＲ　ＴＲＡＤＩＮＧ株式会社,,株式会社,宮崎県,東諸県郡国富町,大字塚原３６５番地２３コーポ塚原１０１号,,45,382,8801112,,,,,,,2021-07-20,1,,,,,マハヌールトレーディング,0
1890,6380001032049,新規,0,2021-07-20,2021-07-20,株式会社ＫＤＳ企画,,株式会社,福島県,いわき市,小名浜野田字柳町４１番地１８,,07,204,9718126,,,,,,,2021-07-20,1,,,,,ケーディーエスキカク,0
1895,6420001017524,新規,0,2021-07-20,2021-07-20,株式会社ｊｋ食品加工,,株式会社,青森県,弘前市,大字十腰内字猿沢１８４番地,,02,202,0361201,,,,,,,2021-07-20,1,,,,,ジェイケイショクヒンカコウ,0
1917,7010001219788,新規,0,2021-07-20,2021-07-20,株式会社エム・クレアシオン,,株式会社,東京都,千代田区,三番町２番地１,,13,101,1020075,,,,,,,2021-07-20,1,,,,,エムクレアシオン,0
1924,7010401161573,新規,0,2021-07-20,2021-07-20,エナジーグリッド株式会社,,株式会社,東京都,港区,北青山２丁目１２番８号ＢＩＺＳｍａｒｔ青山,,13,103,1070061,,,,,,,2021-07-20,1,,,,,エナジーグリッド,0
1925,7010401161598,新規,0,2021-07-20,2021-07-20,ＩＫＧ　ＴＯＫＹＯ株式会社,,株式会社,東京都,港区,六本木３丁目４番３３号３階,,13,103,1060032,,,,,,,2021-07-20,1,,,,,アイケージートーキョー,0
1926,7010401161607,新規,0,2021-07-20,2021-07-20,ＴＥＳＮＯＬＯＧＹコンサルティング株式会社,,株式会社,東京都,港区,赤坂１丁目７番１号,,13,103,1070052,,,,,,,2021-07-20,1,,,,,テスノロジーコンサルティング,0
1928,7010403025735,新規,0,2021-07-20,2021-07-20,合同会社ＬＭＡＣ,,合同会社,東京都,港区,南青山２丁目２番１５号ウィン青山９４２,,13,103,1070062,,,,,,,2021-07-20,1,,,,,エルマック,0
1929,7010403025743,新規,0,2021-07-20,2021-07-20,合同会社ルッソ,,合同会社,東京都,港区,六本木３丁目２番２－２００４号,,13,103,1060032,,,,,,,2021-07-20,1,,,,,ルッソ,0
1930,7010403025751,新規,0,2021-07-20,2021-07-20,ＲＢソーラーパッション４合同会社,,合同会社,東京都,港区,虎ノ門３丁目２２番１０－２０１号,,13,103,1050001,,,,,,,2021-07-20,1,,,,,アールビーソーラーパッションフォー,0
1932,7010501047516,新規,0,2021-07-20,2021-07-20,株式会社ＭａｇＮｅｔ,,株式会社,東京都,台東区,入谷１丁目１５－３ディアレイシャス上野浅草４０２,,13,106,1100013,,,,,,,2021-07-20,1,,,,,,0
1936,7010603009050,新規,0,2021-07-20,2021-07-20,合同会社ガットオフィス,,合同会社,東京都,江東区,猿江２丁目１－４－１０４,,13,108,1350003,,,,,,,2021-07-20,1,,,,,ガットオフィス,0
1937,7010605003976,新規,0,2021-07-20,2021-07-20,一般社団法人オンコロジー学術研究フォーラム,,その他の設立登記法人,東京都,墨田区,太平４丁目１番１号ブリリアタワー東京１６０５号室,,13,107,1300012,,,,,,,2021-07-20,1,,,,,オンコロジーガクジュツケンキュウフォーラム,0
1943,7011003013097,新規,0,2021-07-20,2021-07-20,合同会社逢初,00123701,合同会社,東京都,渋谷区,神宮前１丁目４番２０号パークコート神宮前６３８,,13,113,1500001,,,,,,,2021-07-20,1,,,,,アイソメ,0
1949,7011103010886,新規,0,2021-07-20,2021-07-20,ＳＨＯ合同会社,,合同会社,東京都,新宿区,西早稲田３丁目１７番２３－６０７号,,13,104,1690051,,,,,,,2021-07-20,1,,,,,ショウ,0
1951,7011201023121,新規,0,2021-07-20,2021-07-20,株式会社エニーワークス,,株式会社,東京都,中野区,新井２丁目６番５号ＤＳＫ情報センタービルＢ１階,,13,114,1650026,,,,,,,2021-07-20,1,,,,,エニーワークス,0
1954,7011401023549,新規,0,2021-07-20,2021-07-20,株式会社アリガタミ,,株式会社,東京都,板橋区,熊野町３３番３号グランスクエア７０２,,13,119,1730025,,,,,,,2021-07-20,1,,,,,アリガタミ,0
1958,7011701024560,新規,0,2021-07-20,2021-07-20,株式会社Ｄ－ｏｎ,,株式会社,東京都,江戸川区,西葛西７丁目１４番３号,,13,123,1340088,,,,,,,2021-07-20,1,,,,,ディーオン,0
1959,7011703002894,新規,0,2021-07-20,2021-07-20,ＦＲＩＴＣＣ合同会社,,合同会社,東京都,江戸川区,南小岩８丁目２６－１６－７０２,,13,123,1330056,,,,,,,2021-07-20,1,,,,,フリック,0
1982,7020003020202,新規,0,2021-07-20,2021-07-20,ＴＲＵＳＴ合同会社,,合同会社,神奈川県,横浜市栄区,中野町１０７０番地４７,,14,115,2470015,,,,,,,2021-07-20,1,,,,,トラスト,0
2000,7030001143375,新規,0,2021-07-20,2021-07-20,株式会社南京軒食品,,株式会社,埼玉県,戸田市,美女木４丁目１８番地２,,11,224,3350031,,,,,,,2021-07-20,1,,,,,ナンキンケンショクヒン,0
2001,7030001143425,新規,0,2021-07-20,2021-07-20,青山企画株式会社,,株式会社,埼玉県,戸田市,美女木７丁目１３番１号,,11,224,3350031,,,,,,,2021-07-20,1,,,,,アオヤマキカク,0
2002,7030001143441,新規,0,2021-07-20,2021-07-20,株式会社Ｍ．Ｋ．Ｊａｐａｎ,,株式会社,埼玉県,さいたま市桜区,大字神田６０１番地４,,11,106,3380812,,,,,,,2021-07-20,1,,,,,エムケージャパン,0
2007,7030003017577,新規,0,2021-07-20,2021-07-20,合同会社ＴＫＤ,,合同会社,埼玉県,さいたま市見沼区,春野１丁目６番１２の２０４,,11,104,3370002,,,,,,,2021-07-20,1,,,,,ティーケーディー,0
2010,7040001119432,新規,0,2021-07-20,2021-07-20,株式会社梵まる,,株式会社,千葉県,千葉市稲毛区,稲毛３丁目５番８号,,12,103,2630034,,,,,,,2021-07-20,1,,,,,ボンマル,0
2015,7050001049570,新規,0,2021-07-20,2021-07-20,株式会社かくた,,株式会社,茨城県,龍ケ崎市,馴馬町２５１７番地２,,08,208,3010004,,,,,,,2021-07-20,1,,,,,カクタ,0
2026,7080001024331,新規,0,2021-07-20,2021-07-20,フォーサムワン株式会社,,株式会社,静岡県,静岡市清水区,蒲原小金２９６番地の１,,22,103,4213212,,,,,,,2021-07-20,1,,,,,フォーサムワン,0
2035,7090001017111,新規,0,2021-07-20,2021-07-20,冠明商事株式会社,,株式会社,山梨県,笛吹市,石和町川中島５６番地１,,19,211,4060024,,,,,,,2021-07-20,1,,,,,,0
2040,7100003006176,新規,0,2021-07-20,2021-07-20,Ｌｅ　ｃｉｅｌ　ｂｌｅｕ合同会社,,合同会社,長野県,長野市,早苗町３９番地フラッツ早苗町,,20,201,3800812,,,,,,,2021-07-20,1,,,,,ルシエルブルー,0
2048,7120001239156,新規,0,2021-07-20,2021-07-20,ＮＩＣコーポレーション株式会社,,株式会社,大阪府,枚方市,招提田近３丁目２２番地１,,27,210,5731132,,,,,,,2021-07-20,1,,,,,エヌアイシーコーポレーション,0
2049,7120001239172,新規,0,2021-07-20,2021-07-20,株式会社Ｌｉｎｋ　Ａｒｒｏｗｓ,,株式会社,大阪府,大阪市北区,堂島１丁目１番５号ザイマックス梅田新道ビルＢ２Ｆ,,27,127,5300003,,,,,,,2021-07-20,1,,,,,リンクアローズ,0
2065,7122001035007,新規,0,2021-07-20,2021-07-20,株式会社菱正設備,,株式会社,大阪府,大東市,深野北１丁目１１番７３号,,27,218,5740071,,,,,,,2021-07-20,1,,,,,リョウショウセツビ,0
2078,7130005016229,新規,0,2021-07-20,2021-07-20,一般社団法人京都伏見十六会,,その他の設立登記法人,京都府,京都市伏見区,竹田桶ノ井町２０－１８,,26,109,6128421,,,,,,,2021-07-20,1,,,,,キョウトフシミジュウロクカイ,0
2085,7140003016535,新規,0,2021-07-20,2021-07-20,合同会社ＭＯＺＵＫＵ,,合同会社,兵庫県,神戸市北区,長尾町宅原２２８６番３,,28,109,6511511,,,,,,,2021-07-20,1,,,,,モズク,0
2089,7150001024803,新規,0,2021-07-20,2021-07-20,株式会社ｔｅｆ．ｔｅｆ,,株式会社,奈良県,橿原市,太田市町１６２番地の１,,29,205,6340001,,,,,,,2021-07-20,1,,,,,テフテフ,0
2092,7170001016682,新規,0,2021-07-20,2021-07-20,株式会社Ｓｕｇａｒ,,株式会社,和歌山県,和歌山市,雑賀屋町３番地（１００１）,,30,201,6408249,,,,,,,2021-07-20,1,,,,,シュガー,0
2094,7180001146826,新規,0,2021-07-20,2021-07-20,株式会社エムラボ,,株式会社,愛知県,東海市,荒尾町大恵毛８９番地の１,,23,222,4760003,,,,,,,2021-07-20,1,,,,,エムラボ,0
2101,7180303005060,新規,0,2021-07-20,2021-07-20,合同会社ＩＳＴ,,合同会社,愛知県,豊橋市,上伝馬町９８番地朝日プラザ豊橋アーバンスクエア６０９号室,,23,201,4400074,,,,,,,2021-07-20,1,,,,,アイエスティー,0
2104,7190001028528,新規,0,2021-07-20,2021-07-20,株式会社大信ロジスティクス,,株式会社,三重県,松阪市,朝日町一区７番地２中川ビル３階,,24,204,5150003,,,,,,,2021-07-20,1,,,,,ダイシンロジスティクス,0
2105,7190005011604,新規,0,2021-07-20,2021-07-20,一般財団法人四日市市スポーツ協会,,その他の設立登記法人,三重県,四日市市,日永東１丁目３番２１号,,24,202,5100886,,,,,,,2021-07-20,1,,,,,ヨッカイチシスポーツキョウカイ,0
2106,7200001038913,新規,0,2021-07-20,2021-07-20,株式会社ＬＥＮＳＳＩＳ,,株式会社,岐阜県,瑞穂市,本田７９９番地６,,21,216,5010236,,,,,,,2021-07-20,1,,,,,レンシス,0
2112,7210005009975,新規,0,2021-07-20,2021-07-20,一般社団法人ＣＯＬＯＲｓプラス,,その他の設立登記法人,福井県,三方郡美浜町,木野第２１号４番地の１,,18,442,9191131,,,,,,,2021-07-20,1,,,,,カラーズプラス,0
2117,7220003003087,新規,0,2021-07-20,2021-07-20,合同会社Ｔａｓ　Ｃａｒ,,合同会社,石川県,金沢市,木曳野３丁目２７７番地,,17,201,9200339,,,,,,,2021-07-20,1,,,,,タスカー,0
2120,7240001058296,新規,0,2021-07-20,2021-07-20,株式会社ウルスパートナーズ,,株式会社,広島県,広島市中区,大手町５丁目９番１６号,,34,101,7300051,,,,,,,2021-07-20,1,,,,,ウルスパートナーズ,0
2122,7240003005197,新規,0,2021-07-20,2021-07-20,合同会社トーチ,,合同会社,広島県,広島市西区,庚午中２丁目１０－２５－１０１,,34,104,7330822,,,,,,,2021-07-20,1,,,,,トーチ,0
2124,7250001019009,新規,0,2021-07-20,2021-07-20,株式会社リック電設,,株式会社,山口県,下関市,安岡町４丁目１３番２号,,35,201,7596603,,,,,,,2021-07-20,1,,,,,リックデンセツ,0
2125,7250005008676,新規,0,2021-07-20,2021-07-20,一般社団法人山口合同ガスグループ共済会,,その他の設立登記法人,山口県,下関市,本町３丁目１番１号,,35,201,7510815,,,,,,,2021-07-20,1,,,,,ヤマグチゴウドウガスグループキョウサイカイ,0
2127,7260005010937,新規,0,2021-07-20,2021-07-20,特定非営利活動法人ノースオカヤマベースボールコミュニケーション,,その他の設立登記法人,岡山県,美作市,大町１８９５番地,,33,215,7070124,,,,,,,2021-07-20,1,,,,,ノースオカヤマベースボールコミュニケーション,0
2135,7290001093925,新規,0,2021-07-20,2021-07-20,株式会社小広,,株式会社,福岡県,福岡市中央区,輝国２丁目２５番９９号,,40,133,8100032,,,,,,,2021-07-20,1,,,,,コヒロ,0
2136,7290001093933,新規,0,2021-07-20,2021-07-20,株式会社ヒナタ,,株式会社,福岡県,みやま市,瀬高町小田１２００番地１,,40,229,8350002,,,,,,,2021-07-20,1,,,,,ヒナタ,0
2137,7290001093941,新規,0,2021-07-20,2021-07-20,Ｔ．Ｙ物流株式会社,,株式会社,福岡県,嘉麻市,上山田猪之鼻１０８５－４,,40,227,8210012,,,,,,,2021-07-20,1,,,,,ティーワイブツリュウ,0
2138,7290001093958,新規,0,2021-07-20,2021-07-20,福岡土地株式会社,,株式会社,福岡県,福岡市中央区,平尾４丁目１５番９号１Ｆ,,40,133,8100014,,,,,,,2021-07-20,1,,,,,フクオカトチ,0
2139,7290003011439,新規,0,2021-07-20,2021-07-20,合同会社アンダンテ・リブ,,合同会社,福岡県,太宰府市,石坂２丁目１番２号,,40,221,8180118,,,,,,,2021-07-20,1,,,,,アンダンテリブ,0
2149,7340003003496,新規,0,2021-07-20,2021-07-20,合同会社コネクト,,合同会社,鹿児島県,鹿児島市,中央町２２番地１６アエールプラザ３１８,,46,201,8900053,,,,,,,2021-07-20,1,,,,,コネクト,0
2153,7360005006470,新規,0,2021-07-20,2021-07-20,ゆい協同組合,,その他の設立登記法人,沖縄県,沖縄市,与儀３丁目１０番１４号,,47,211,9042174,,,,,,,2021-07-20,1,,,,,ユイ,0
2156,7370001047352,新規,0,2021-07-20,2021-07-20,株式会社キッズファームかわさき,,株式会社,宮城県,柴田郡川崎町,大字今宿字小銀沢山１番地８４,,04,324,9891502,,,,,,,2021-07-20,1,,,,,キッズファームカワサキ,0
2157,7370001047369,新規,0,2021-07-20,2021-07-20,株式会社インザーギ,,株式会社,宮城県,仙台市青葉区,中央４丁目８番８－６０４号,,04,101,9800021,,,,,,,2021-07-20,1,,,,,インザーギ,0
2158,7370003005309,新規,0,2021-07-20,2021-07-20,ＩＮＦＩＮＩＴＹ農園合同会社,,合同会社,宮城県,名取市,増田５丁目８番１５号,,04,207,9811224,,,,,,,2021-07-20,1,,,,,インフィニティノウエン,0
2159,7370003005317,新規,0,2021-07-20,2021-07-20,合同会社クォン商会,,合同会社,宮城県,仙台市青葉区,芋沢字下野下１０番地の１,,04,101,9893212,,,,,,,2021-07-20,1,,,,,クォンショウカイ,0
2161,7380001032048,新規,0,2021-07-20,2021-07-20,株式会社ＮＡ,,株式会社,福島県,福島市,早稲町５番１７号,,07,201,9608044,,,,,,,2021-07-20,1,,,,,エヌエー,0
2163,7390003001850,新規,0,2021-07-20,2021-07-20,合同会社憩縁,,合同会社,山形県,米沢市,大字上新田２３００－１,,06,202,9920118,,,,,,,2021-07-20,1,,,,,ケイエン,0
2165,7410001012905,新規,0,2021-07-20,2021-07-20,株式会社カネマル水産,,株式会社,秋田県,潟上市,天王字宮の後２３２番地,,05,211,0100201,,,,,,,2021-07-20,1,,,,,,0
2173,7430001084538,新規,0,2021-07-20,2021-07-20,株式会社ＰＲＩＤＥ,,株式会社,北海道,札幌市西区,発寒十一条３丁目５番３２号,,01,107,0630831,,,,,,,2021-07-20,1,,,,,プライド,0
2174,7430001084570,新規,0,2021-07-20,2021-07-20,衛建工業株式会社,,株式会社,北海道,札幌市北区,新琴似五条１６丁目２番２１号,,01,102,0010905,,,,,,,2021-07-20,1,,,,,エイケンコウギョウ,0
2175,7430001084579,新規,0,2021-07-20,2021-07-20,ナイエ建設株式会社,,株式会社,北海道,札幌市南区,澄川五条９丁目２番１０号,,01,106,0050005,,,,,,,2021-07-20,1,,,,,ナイエケンセツ,0
2176,7430001084629,新規,0,2021-07-20,2021-07-20,株式会社モーリッシュ,,株式会社,北海道,札幌市豊平区,中の島一条３丁目３番１２－３０３号,,01,105,0620921,,,,,,,2021-07-20,1,,,,,モーリッシュ,0
2180,7430003012950,新規,0,2021-07-20,2021-07-20,合同会社Ｎｏｒｔｈ　ｃｏｒｎｅｒ,,合同会社,北海道,札幌市北区,麻生町５丁目７番２３－７０２号,,01,102,0010045,,,,,,,2021-07-20,1,,,,,ノースコーナー,0
2184,7700150104036,新規,0,2021-07-20,2021-07-08,北園忌実行委員会,,その他,三重県,伊勢市,河崎２丁目４－４中谷武司協会内,,24,203,5160009,,,,,,,2021-07-08,1,,,,,キタゾノキジツコウイインカイ,0
2192,8010001219861,新規,0,2021-07-20,2021-07-20,ＲｕｎＧｏｏｄ株式会社,,株式会社,東京都,千代田区,外神田４丁目９番２号千住ビル５１階,,13,101,1010021,,,,,,,2021-07-20,1,,,,,ラングッド,0
2203,8010401161523,新規,0,2021-07-20,2021-07-20,株式会社ＰＳ交易,,株式会社,東京都,港区,赤坂４丁目９番１９号赤坂ＴＯビル５階,,13,103,1070052,,,,,,,2021-07-20,1,,,,,ピーエスコウエキ,0
2204,8010401161589,新規,0,2021-07-20,2021-07-20,株式会社ａ－ｍｏｖｅ,,株式会社,東京都,港区,浜松町２丁目２－１５ダイヤビル２Ｆ,,13,103,1050013,,,,,,,2021-07-20,1,,,,,エームーブ,0
2205,8010401161597,新規,0,2021-07-20,2021-07-20,株式会社ヴィーナスオフィス,,株式会社,東京都,港区,白金台２丁目６番１７号,,13,103,1080071,,,,,,,2021-07-20,1,,,,,ヴィーナスオフィス,0
2206,8010401161606,新規,0,2021-07-20,2021-07-20,株式会社プレゼント,,株式会社,東京都,港区,南青山２丁目２番１５号ウィン青山９４２,,13,103,1070062,,,,,,,2021-07-20,1,,,,,プレゼント,0
2216,8010403025742,新規,0,2021-07-20,2021-07-20,合同会社ｐｌｕｓ,,合同会社,東京都,港区,芝浦３丁目６－７板硝子会館６階,,13,103,1080023,,,,,,,2021-07-20,1,,,,,プラス,0
2217,8010403025750,新規,0,2021-07-20,2021-07-20,ＲＢソーラーパッション３合同会社,,合同会社,東京都,港区,虎ノ門３丁目２２番１０－２０１号,,13,103,1050001,,,,,,,2021-07-20,1,,,,,アールビーソーラーパッションスリー,0
2223,8010605003975,新規,0,2021-07-20,2021-07-20,税理士法人木村・小林合同会計,,その他の設立登記法人,東京都,江東区,潮見１丁目２番５号木村ビル２Ｆ,,13,108,1350052,,,,,,,2021-07-20,1,,,,,キムラコバヤシゴウドウカイケイ,0
2225,8010703005857,新規,0,2021-07-20,2021-07-20,合同会社ＬＩＦ,,合同会社,東京都,品川区,大崎４丁目４－２９,,13,109,1410032,,,,,,,2021-07-20,1,,,,,リフ,0
2236,8011001141840,新規,0,2021-07-20,2021-07-20,リロ株式会社,,株式会社,東京都,渋谷区,宇田川町３－７ヒューリック渋谷公園通りビル５Ｆ－７,,13,113,1500042,,,,,,,2021-07-20,1,,,,,リロ,0
2237,8011001141849,新規,0,2021-07-20,2021-07-20,Ｇ－コラボ株式会社,,株式会社,東京都,目黒区,目黒本町５丁目３２番１０号,,13,110,1520002,,,,,,,2021-07-20,1,,,,,ジーコラボ,0
2245,8011101095763,新規,0,2021-07-20,2021-07-20,株式会社ニットー・ケアサービス,,株式会社,東京都,新宿区,新宿１丁目３番８号,,13,104,1600022,,,,,,,2021-07-20,1,,,,,ニットーケアサービス,0
2246,8011101095788,新規,0,2021-07-20,2021-07-20,株式会社クール,,株式会社,東京都,新宿区,西新宿７丁目７－２６ワコーレ新宿第一ビル７０３号,,13,104,1600023,,,,,,,2021-07-20,1,,,,,クール,0
2247,8011101095821,新規,0,2021-07-20,2021-07-20,ＯＬＩＥＮＴ　ＴＥＣＨ株式会社,,株式会社,東京都,新宿区,四谷１丁目２番５号,,13,104,1600004,,,,,,,2021-07-20,1,,,,,オリエントテック,0
2250,8011103010877,新規,0,2021-07-20,2021-07-20,合同会社ビックス,,合同会社,東京都,新宿区,大久保１丁目１４－２０プティベルソ１０５,,13,104,1690072,,,,,,,2021-07-20,1,,,,,ビックス,0
2253,8011303004101,新規,0,2021-07-20,2021-07-20,駄玩具堂合同会社,,合同会社,東京都,杉並区,阿佐谷北６丁目３２番９号タウンハウス阿佐谷２Ｆ,,13,115,1660001,,,,,,,2021-07-20,1,,,,,ダガングドウ,0
2259,8011501027143,新規,0,2021-07-20,2021-07-20,株式会社ＷＨＩＴＥＣＲＯＳＳＬＯＡＤ,,株式会社,東京都,北区,中里１丁目１５番１号アムロゼッタ駒込２０２号,,13,117,1140015,,,,,,,2021-07-20,1,,,,,ホワイトクロスロード,0
2269,8011801039474,新規,0,2021-07-20,2021-07-20,住まいデザイン・結株式会社,,株式会社,東京都,葛飾区,西新小岩５丁目３０番１７号第２丸富士ビル２階,,13,122,1240025,,,,,,,2021-07-20,1,,,,,スマイデザインユイ,0
2270,8011801039482,新規,0,2021-07-20,2021-07-20,ＢＥＤＨＡ株式会社,,株式会社,東京都,足立区,綾瀬２丁目２０番１５号誠綾コーポ２０７号室,,13,121,1200005,,,,,,,2021-07-20,1,,,,,ベダ,0
2272,8011805003088,新規,0,2021-07-20,2021-07-20,特定非営利活動法人わんわんサポーター綾瀬,,その他の設立登記法人,東京都,足立区,綾瀬５丁目１４番６号,,13,121,1200005,,,,,,,2021-07-20,1,,,,,ワンワンサポーターアヤセ,0
2273,8012403004949,新規,0,2021-07-20,2021-07-20,アイジーパフォーマンス合同会社,,合同会社,東京都,多摩市,豊ヶ丘１丁目５９番地の９グリーンコーポ多摩センター弐番館２０７,,13,224,2060031,,,,,,,2021-07-20,1,,,,,アイジーパフォーマンス,0
2306,8030001143283,新規,0,2021-07-20,2021-07-20,ウッドリリース株式会社,,株式会社,埼玉県,八潮市,八潮７丁目４０番地４５,,11,234,3400815,,,,,,,2021-07-20,1,,,,,,0
2307,8030001143416,新規,0,2021-07-20,2021-07-20,友徳株式会社,,株式会社,埼玉県,新座市,新堀３丁目５番４－５０７号,,11,230,3520032,,,,,,,2021-07-20,1,,,,,トモトク,0
2308,8030001143424,新規,0,2021-07-20,2021-07-20,朝暘貿易株式会社,,株式会社,埼玉県,新座市,栗原６丁目９番７－１０２室,,11,230,3520035,,,,,,,2021-07-20,1,,,,,チョウヨウコクサイ,0
2309,8030001143432,新規,0,2021-07-20,2021-07-20,株式会社Ｇｌｏｗｉｎｇ,,株式会社,埼玉県,さいたま市浦和区,常盤１丁目６番２１－４０２号,,11,107,3300061,,,,,,,2021-07-20,1,,,,,グローイン,0
2310,8030001143457,新規,0,2021-07-20,2021-07-20,株式会社ＫＥＹＡＫＩ,,株式会社,埼玉県,北葛飾郡杉戸町,大字杉戸２３５１番地１,,11,464,3450036,,,,,,,2021-07-20,1,,,,,ケヤキ,0
2314,8030003017626,新規,0,2021-07-20,2021-07-20,千城ロジ合同会社,,合同会社,埼玉県,鴻巣市,下忍３４９７,,11,217,3690113,,,,,,,2021-07-20,1,,,,,チシロロジ,0
2315,8030003017650,新規,0,2021-07-20,2021-07-20,エクイティーズ合同会社,,合同会社,埼玉県,さいたま市見沼区,大字東新井７１０番地５０、２１－３０６,,11,104,3370032,,,,,,,2021-07-20,1,,,,,エクイティーズ,0
2316,8030003017659,新規,0,2021-07-20,2021-07-20,合同会社フジノホーム,,合同会社,埼玉県,本庄市,駅南１丁目１７番１１号プリンスハイツ２０２号室,,11,211,3670041,,,,,,,2021-07-20,1,,,,,フジノホーム,0
2324,8040001119415,新規,0,2021-07-20,2021-07-20,株式会社和らぎ,,株式会社,千葉県,いすみ市,大原台２１０番地３,,12,238,2980014,,,,,,,2021-07-20,1,,,,,ヤワラギ,0
2325,8040001119431,新規,0,2021-07-20,2021-07-20,株式会社富澤ホールディングス,,株式会社,千葉県,千葉市花見川区,幕張本郷２丁目２番２０号,,12,102,2620033,,,,,,,2021-07-20,1,,,,,トミザワホールディングス,0
2326,8040001119472,新規,0,2021-07-20,2021-07-20,株式会社ｒａｙ,,株式会社,千葉県,成田市,飯田町１４３番地８０（１０４号）,,12,211,2860041,,,,,,,2021-07-20,1,,,,,レイ,0
2332,8040003018193,新規,0,2021-07-20,2021-07-20,合同会社食彩ｋｉｔｃｈｅｎ,,合同会社,千葉県,船橋市,葛飾町２丁目３４５番地１ソアラプラザ西船橋１０１号,,12,204,2730032,,,,,,,2021-07-20,1,,,,,ショクサイキッチン,0
2333,8040005021286,新規,0,2021-07-20,2021-07-20,特定非営利活動法人ハーブの丘,,その他の設立登記法人,千葉県,印旛郡酒々井町,墨１５４９番地１,,12,322,2850913,,,,,,,2021-07-20,1,,,,,ハーブノオカ,0
2341,8050003005991,新規,0,2021-07-20,2021-07-20,合同会社アンコールワット,,合同会社,茨城県,結城市,大字結城５６１,,08,207,3070001,,,,,,,2021-07-20,1,,,,,アンコールワット,0
2353,8080405007377,新規,0,2021-07-20,2021-07-20,静岡経済協同組合,,その他の設立登記法人,静岡県,浜松市東区,安新町１６８番地２二美ビル３階４号室,,22,132,4350005,,,,,,,2021-07-20,1,,,,,シズオカケイザイ,0
2364,8110003004533,新規,0,2021-07-20,2021-07-20,総合塗建合同会社,,合同会社,新潟県,五泉市,村松乙１３９番地３５,,15,218,9591705,,,,,,,2021-07-20,1,,,,,ソウゴウトケン,0
2381,8120001239089,新規,0,2021-07-20,2021-07-20,株式会社関西ファーム,,株式会社,大阪府,大阪市都島区,御幸町１丁目３番１０号,,27,102,5340012,,,,,,,2021-07-20,1,,,,,カンサイファーム,0
2382,8120001239106,新規,0,2021-07-20,2021-07-20,池田茶屋株式会社,,株式会社,大阪府,大阪市北区,本庄西２丁目５番２４－８０４号,,27,127,5310073,,,,,,,2021-07-20,1,,,,,イケダチャヤ,0
2383,8120001239114,新規,0,2021-07-20,2021-07-20,ＭｅｄＳｎａｂ株式会社,,株式会社,大阪府,大阪市北区,梅田１丁目１番３号大阪駅前第３ビル２５階,,27,127,5300001,,,,,,,2021-07-20,1,,,,,メッツナップ,0
2384,8120001239155,新規,0,2021-07-20,2021-07-20,株式会社ＴＡＬＡＮＴ,,株式会社,大阪府,大阪市西区,新町４丁目８番２２－８０５号,,27,106,5500013,,,,,,,2021-07-20,1,,,,,タラント,0
2385,8120001239163,新規,0,2021-07-20,2021-07-20,Ｊａｄｅ　ｃｏ．，ｌｔｄ．株式会社,,株式会社,大阪府,大阪市淀川区,十三東２丁目６番２６－６０８号,,27,123,5320023,,,,,,,2021-07-20,1,,,,,ジェイドコーポレーション,0
2386,8120001239171,新規,0,2021-07-20,2021-07-20,株式会社ＳＥＶＥＮＳ,,株式会社,大阪府,大阪市北区,同心２丁目１番３４号プレジオ天満７０１,,27,127,5300035,,,,,,,2021-07-20,1,,,,,セブンス,0
2392,8120003019836,新規,0,2021-07-20,2021-07-20,合同会社ＬＩＦＥ　ＳＫＩＬＬ　ＣＲＥＡＴＥ,,合同会社,大阪府,大阪市天王寺区,上本町８丁目４－１７,,27,109,5430001,,,,,,,2021-07-20,1,,,,,ライフスキルクリエイト,0
2398,8120005022391,新規,0,2021-07-20,2021-07-20,医療法人ほりうち整形外科,,その他の設立登記法人,大阪府,大阪市此花区,西九条４丁目３番３４号セントメディックビル４階,,27,104,5540012,,,,,,,2021-07-20,1,,,,,ホリウチセイケイゲカ,0
2410,8140001122367,新規,0,2021-07-20,2021-07-20,株式会社ブル,,株式会社,兵庫県,神戸市中央区,脇浜海岸通３丁目２番８－５１３号,,28,110,6510073,,,,,,,2021-07-20,1,,,,,ブル,0
2417,8140003016534,新規,0,2021-07-20,2021-07-20,合同会社マイスター,,合同会社,兵庫県,神戸市西区,井吹台東町１丁目５番地の１,,28,111,6512242,,,,,,,2021-07-20,1,,,,,マイスター,0
2444,8180301035182,新規,0,2021-07-20,2021-07-20,株式会社エイシングループ,,株式会社,愛知県,豊橋市,つつじが丘２丁目２８番地２４,,23,201,4400858,,,,,,,2021-07-20,1,,,,,エイシングループ,0
2455,8200001038912,新規,0,2021-07-20,2021-07-20,株式会社東土,,株式会社,岐阜県,羽島市,江吉良町江西３丁目６８番地,,21,209,5016237,,,,,,,2021-07-20,1,,,,,,0
2459,8210001018541,新規,0,2021-07-20,2021-07-20,日本共益株式会社,,株式会社,福井県,鯖江市,当田町第９号３番地３,,18,207,9160065,,,,,,,2021-07-20,1,,,,,ニホンキョウエキ,0
2462,8220003003086,新規,0,2021-07-20,2021-07-20,繁興汽船合同会社,,合同会社,石川県,珠洲市,飯田町１４‐１３‐１,,17,205,9271214,,,,,,,2021-07-20,1,,,,,シゲリオコシキセン,0
2472,8240001058295,新規,0,2021-07-20,2021-07-20,株式会社ロジコム準備会社,,株式会社,広島県,広島市東区,矢賀新町５丁目７番４号,,34,102,7320044,,,,,,,2021-07-20,1,,,,,ロジコムジュンビガイシャ,0
2473,8240001058304,新規,0,2021-07-20,2021-07-20,株式会社岡板金工業,,株式会社,広島県,呉市,神山１丁目１３番３８号,,34,202,7370923,,,,,,,2021-07-20,1,,,,,オカバンキンコウギョウ,0
2474,8240001058312,新規,0,2021-07-20,2021-07-20,ｆｌｏｗｅｒｋｏｕｓａｎ株式会社,,株式会社,広島県,広島市中区,銀山町１２番１０号,,34,101,7300022,,,,,,,2021-07-20,1,,,,,フラワーコウサン,0
2486,8290001093916,新規,0,2021-07-20,2021-07-20,株式会社ＫＡＴ,,株式会社,福岡県,筑紫野市,大字永岡６１７番地５,,40,217,8180066,,,,,,,2021-07-20,1,,,,,カット,0
2487,8290001093924,新規,0,2021-07-20,2021-07-20,株式会社杉原工業,,株式会社,福岡県,久留米市,山川町３１５番地２４,,40,203,8390817,,,,,,,2021-07-20,1,,,,,スギハラコウギョウ,0
2488,8290001093965,新規,0,2021-07-20,2021-07-20,株式会社ｌａｓｔｄａｙ,,株式会社,福岡県,福岡市中央区,白金１丁目２１－１６，２Ｆ,,40,133,8100012,,,,,,,2021-07-20,1,,,,,ラストデイ,0
2507,8370003005308,新規,0,2021-07-20,2021-07-20,合同会社スイベル,,合同会社,宮城県,仙台市宮城野区,平成２丁目２２－２２－２,,04,102,9830037,,,,,,,2021-07-20,1,,,,,スイベル,0
2516,8410001012904,新規,0,2021-07-20,2021-07-20,エーワイ建総株式会社,,株式会社,秋田県,秋田市,牛島東１丁目４番３号,,05,201,0100062,,,,,,,2021-07-20,1,,,,,,0
2528,8470001018623,新規,0,2021-07-20,2021-07-20,株式会社ＣＯＮＹ・ＥＡＲＴＨ,,株式会社,香川県,善通寺市,与北町１００２番地１,,37,204,7650040,,,,,,,2021-07-20,1,,,,,コニーアース,0
2538,9010001219836,新規,0,2021-07-20,2021-07-20,株式会社ソードスミス・アソシエイツ,,株式会社,東京都,千代田区,九段北１丁目１３－９－２４０７,,13,101,1020073,,,,,,,2021-07-20,1,,,,,,0
2539,9010001219844,新規,0,2021-07-20,2021-07-20,株式会社Ｍａｒｑｕｅｓｓ,,株式会社,東京都,中央区,銀座１丁目１９番３号銀座ユリカビル８Ｆ,,13,102,1040061,,,,,,,2021-07-20,1,,,,,マーキス,0
2540,9010003035273,新規,0,2021-07-20,2021-07-20,ＢＬＯＯＭ　ＢＵＺＺ合同会社,,合同会社,東京都,文京区,大塚５丁目１３－１４アイビー新大塚４０１号,,13,105,1120012,,,,,,,2021-07-20,1,,,,,ブルームバズ,0
2541,9010003035364,新規,0,2021-07-20,2021-07-20,ＡｐｐＴｗｅａｋ　Ｊａｐａｎ合同会社,,合同会社,東京都,千代田区,丸の内１丁目６番５号丸の内北口ビルディング９階,,13,101,1000005,,,,,,,2021-07-20,1,,,,,アップトゥウィークジャパン,0
2542,9010003035397,新規,0,2021-07-20,2021-07-20,エクスプレッションジャパン合同会社,,合同会社,東京都,中央区,日本橋本町３丁目３番６号ワカ末ビル７階,,13,102,1030023,,,,,,,2021-07-20,1,,,,,エクスプレッションジャパン,0
2547,9010401161555,新規,0,2021-07-20,2021-07-20,ＥＣ成長基盤株式会社,,株式会社,東京都,港区,芝公園１丁目８番２１号,,13,103,1050011,,,,,,,2021-07-20,1,,,,,イーシーセイチョウキバン,0
2548,9010401161571,新規,0,2021-07-20,2021-07-20,株式会社３ｒｄ　ｑｕａｒｔｅｒ,,株式会社,東京都,港区,赤坂８丁目４番３号,,13,103,1070052,,,,,,,2021-07-20,1,,,,,サードクォーター,0
2549,9010401161588,新規,0,2021-07-20,2021-07-20,株式会社Ｃｙｃｕｒｉｔｙ　Ｊａｐａｎ,,株式会社,東京都,港区,南青山５丁目１１番２４号グレイセス２Ｆ,,13,103,1070062,,,,,,,2021-07-20,1,,,,,サイキュリティジャパン,0
2550,9010401161596,新規,0,2021-07-20,2021-07-20,株式会社ＲＩＶ,,株式会社,東京都,港区,東麻布１丁目２３番８号,,13,103,1060044,,,,,,,2021-07-20,1,,,,,アールアイブイ,0
2551,9010401161621,新規,0,2021-07-20,2021-07-20,株式会社ファミここ,,株式会社,東京都,港区,芝５丁目１６番１４号三田ノックスビル３Ｆ,,13,103,1080014,,,,,,,2021-07-20,1,,,,,カブシキガイシャファミココ,0
2554,9010403025741,新規,0,2021-07-20,2021-07-20,合同会社ＧＫ０４７,,合同会社,東京都,港区,虎ノ門３丁目２２番１０－２０１号,,13,103,1050001,,,,,,,2021-07-20,1,,,,,ジーケイゼロフォーセブン,0
2555,9010403025758,新規,0,2021-07-20,2021-07-20,合同会社システムクラウド,,合同会社,東京都,港区,芝４丁目７番６号,,13,103,1080014,,,,,,,2021-07-20,1,,,,,システムクラウド,0
2557,9010405019997,新規,0,2021-07-20,2021-07-20,一般社団法人統進,,その他の設立登記法人,東京都,港区,南青山５丁目４番１９－２０３号,,13,103,1070062,,,,,,,2021-07-20,1,,,,,トウシン,0
2560,9010601059665,新規,0,2021-07-20,2021-07-20,株式会社ＮＡＲＵ,,株式会社,東京都,江東区,枝川１丁目１３番６号,,13,108,1350051,,,,,,,2021-07-20,1,,,,,ナル,0
2563,9010605003974,新規,0,2021-07-20,2021-07-20,税理士法人山川・丹羽会計,,その他の設立登記法人,東京都,江東区,亀戸２丁目３６番１４号,,13,108,1360071,,,,,,,2021-07-20,1,,,,,ヤマカワニワカイケイ,0
2572,9010803003826,新規,0,2021-07-20,2021-07-20,合同会社ａｘｅｌ　ａｄｄ,,合同会社,東京都,大田区,南馬込１丁目１２番２－８０６号,,13,111,1430025,,,,,,,2021-07-20,1,,,,,アクセルアド,0
2573,9010903006679,新規,0,2021-07-20,2021-07-20,合同会社ＬＬＬ,,合同会社,東京都,世田谷区,上馬５丁目３４番１４－７０２号,,13,112,1540011,,,,,,,2021-07-20,1,,,,,エル,0
2577,9011001141815,新規,0,2021-07-20,2021-07-20,ＪＳＣ開発株式会社,,株式会社,東京都,渋谷区,宇田川町２番１号,,13,113,1500042,,,,,,,2021-07-20,1,,,,,ジェイエスシーカイハツ,0
2578,9011001141831,新規,0,2021-07-20,2021-07-20,株式会社ＧＲＡＪＩＯ,,株式会社,東京都,渋谷区,神宮前６丁目２３番４号桑野ビル２階,,13,113,1500001,,,,,,,2021-07-20,1,,,,,グラジオ,0
2581,9011101095804,新規,0,2021-07-20,2021-07-20,ＹＴ株式会社,,株式会社,東京都,新宿区,西新宿６丁目１６番９号２階,,13,104,1600023,,,,,,,2021-07-20,1,,,,,ワイティー,0
2586,9011105009891,新規,0,2021-07-20,2021-07-20,特許業務法人飯島国際商標特許事務所,,その他の設立登記法人,東京都,新宿区,左門町３番地１,,13,104,1600017,,,,,,,2021-07-20,1,,,,,イイジマコクサイショウヒョウトッキョジムショ,0
2591,9011503004841,新規,0,2021-07-20,2021-07-20,雷拓合同会社,,合同会社,東京都,荒川区,町屋３丁目２番１号Ｂ１Ｆ,,13,118,1160001,,,,,,,2021-07-20,1,,,,,ライタク,0
2596,9011701024559,新規,0,2021-07-20,2021-07-20,株式会社ＲＯＣｓ,,株式会社,東京都,江戸川区,松島１丁目４１番１０号,,13,123,1320031,,,,,,,2021-07-20,1,,,,,ロックス,0
2600,9011801039481,新規,0,2021-07-20,2021-07-20,株式会社ＧＯ　ｇｒｏｕｐ,,株式会社,東京都,葛飾区,立石１丁目１４番６号,,13,122,1240012,,,,,,,2021-07-20,1,,,,,ゴーグループ,0
2601,9011803004707,新規,0,2021-07-20,2021-07-20,合同会社ＣＡＳＥＩＤＯ,,合同会社,東京都,足立区,中川４丁目２３番１９－６０２号,,13,121,1200002,,,,,,,2021-07-20,1,,,,,カセイド,0
2603,9012301012631,新規,0,2021-07-20,2021-07-20,株式会社Ｂｅａｕｔｙ　Ｈｏｍｅ,,株式会社,東京都,町田市,小野路町２９６番地８,,13,209,1950064,,,,,,,2021-07-20,1,,,,,ビューティーホーム,0
2604,9012401038122,新規,0,2021-07-20,2021-07-20,株式会社Ｓｏｒｔｅ　Ｒｉｃｏ,,株式会社,東京都,多摩市,乞田１２０７番地グランルポン３０１,,13,224,2060014,,,,,,,2021-07-20,1,,,,,ソルテリコ,0
2637,9030001143398,新規,0,2021-07-20,2021-07-20,株式会社イメージメーク・ハウス,,株式会社,埼玉県,上尾市,大字小敷谷１１７４－１５,,11,219,3620064,,,,,,,2021-07-20,1,,,,,イメージメークハウス,0
2638,9030001143407,新規,0,2021-07-20,2021-07-20,株式会社ＬｉＡコーポレーション,,株式会社,埼玉県,幸手市,北３丁目３番７号,,11,240,3400111,,,,,,,2021-07-20,1,,,,,リアコーポレーション,0
2639,9030001143448,新規,0,2021-07-20,2021-07-20,株式会社酒文化,,株式会社,埼玉県,蕨市,塚越２丁目４番２３号司ビル５階,,11,223,3350002,,,,,,,2021-07-20,1,,,,,サケブンカ,0
2640,9030001143464,新規,0,2021-07-20,2021-07-20,株式会社お結びケアサービス,,株式会社,埼玉県,さいたま市西区,大字高木１３６６番地１－２階,,11,101,3310071,,,,,,,2021-07-20,1,,,,,オムスビケアサービス,0
2641,9030003017641,新規,0,2021-07-20,2021-07-20,合同会社フレンズ商事,,合同会社,埼玉県,所沢市,大字山口５８１番地の２ライオンズガーデン西所沢２０５,,11,208,3591145,,,,,,,2021-07-20,1,,,,,フレンズショウジ,0
2643,9030005020453,新規,0,2021-07-20,2021-07-20,一般社団法人日本凸凹支援スポーツ協会,,その他の設立登記法人,埼玉県,さいたま市中央区,八王子１丁目６番１２－１号,,11,105,3380006,,,,,,,2021-07-20,1,,,,,ニホンデコボコシエンスポーツキョウカイ,0
2648,9040001119430,新規,0,2021-07-20,2021-07-20,ｉｎｎｏｖａｔｏｒ株式会社,,株式会社,千葉県,富津市,青木２丁目８番地２３,,12,226,2930012,,,,,,,2021-07-20,1,,,,,イノベーター,0
2649,9040001119439,新規,0,2021-07-20,2021-07-20,株式会社ＭＫＹ’Ｓ,,株式会社,千葉県,四街道市,鹿渡７９１番地５,,12,228,2840003,,,,,,,2021-07-20,1,,,,,エムケーワイズ,0
2654,9040003018192,新規,0,2021-07-20,2021-07-20,井出工業合同会社,,合同会社,千葉県,松戸市,南花島３丁目４８番地の２２,,12,207,2710065,,,,,,,2021-07-20,1,,,,,イデコウギョウ,0
2670,9070003004181,新規,0,2021-07-20,2021-07-20,ＢＳ合同会社,,合同会社,群馬県,太田市,新井町８２番地１スターマンションⅡＢ－５号,00123703,10,205,3730852,,,,,,,2021-07-20,1,,,,,ビーエス,0
2698,9120001239162,新規,0,2021-07-20,2021-07-20,ＧＴキャピタルファンド株式会社,,株式会社,大阪府,大阪市中央区,本町２丁目３番４号アソルティ本町４階,,27,128,5410053,,,,,,,2021-07-20,1,,,,,ジーティキャピタルファンド,0
2699,9120001239220,新規,0,2021-07-20,2021-07-20,ミヤベ株式会社,,株式会社,大阪府,大阪市東淀川区,上新庄２丁目４番１０－１００５号,,27,114,5330006,,,,,,,2021-07-20,1,,,,,ミヤベ,0
2705,9120005022390,新規,0,2021-07-20,2021-07-20,一般社団法人コミュニティスポーツ大阪,,その他の設立登記法人,大阪府,大阪市福島区,大開２丁目４番２５号,,27,103,5530007,,,,,,,2021-07-20,1,,,,,コミュニティスポーツオオサカ,0
2709,9120101064007,新規,0,2021-07-20,2021-07-20,株式会社ＨＯＲＩＺＯＮ,,株式会社,大阪府,堺市北区,東雲東町３丁１番１０号,,27,146,5918041,,,,,,,2021-07-20,1,,,,,ホライズン,0
2725,9130001069716,新規,0,2021-07-20,2021-07-20,Ａｐｉｓｍ株式会社,,株式会社,京都府,京都市中京区,道祐町１４１番地,,26,104,6048118,,,,,,,2021-07-20,1,,,,,アピズム,0
2745,9140001122333,新規,0,2021-07-20,2021-07-20,株式会社ＳａＫ,,株式会社,兵庫県,宝塚市,山本南２丁目９番８号,,28,214,6650882,,,,,,,2021-07-20,1,,,,,エスエーケー,0
2746,9140001122366,新規,0,2021-07-20,2021-07-20,株式会社ルミエール,,株式会社,兵庫県,明石市,魚住町清水６３１番地県住５１４号,,28,203,6740074,,,,,,,2021-07-20,1,,,,,ルミエール,0
2759,9180001147120,新規,0,2021-07-20,2021-07-20,フェニックス株式会社,,株式会社,愛知県,尾張旭市,東印場町二反田２９０４番地,,23,226,4880833,,,,,,,2021-07-20,1,,,,,フェニックス,0
2764,9180003022750,新規,0,2021-07-20,2021-07-20,合同会社Ｂｒｉｇｈｔ　Ｎｅｔｗｏｒｋ　Ｊａｐａｎ,,合同会社,愛知県,名古屋市中区,大須４丁目１０番地１１号クリエイトセンタービル４階,,23,106,4600011,,,,,,,2021-07-20,1,,,,,ブライトネットワークジャパン,0
2765,9180003022759,新規,0,2021-07-20,2021-07-20,合同会社ＡＧカンパニー,,合同会社,愛知県,名古屋市天白区,御幸山１２０番地の２,,23,116,4680075,,,,,,,2021-07-20,1,,,,,エイジイカンパニー,0
2767,9180301035173,新規,0,2021-07-20,2021-07-20,株式会社和春,,株式会社,愛知県,刈谷市,井ケ谷町下前田６番地３,,23,210,4480001,,,,,,,2021-07-20,1,,,,,ワシュン,0
2772,9190001028526,新規,0,2021-07-20,2021-07-20,株式会社大井工業,,株式会社,三重県,鈴鹿市,稲生西２丁目２０番１２号,,24,207,5100204,,,,,,,2021-07-20,1,,,,,オオイコウギョウ,0
2779,9200001038911,新規,0,2021-07-20,2021-07-20,ネオズアクト株式会社,,株式会社,岐阜県,羽島郡岐南町,平成２丁目９４番地,,21,302,5016013,,,,,,,2021-07-20,1,,,,,ネオズアクト,0
2782,9210003001395,新規,0,2021-07-20,2021-07-20,合同会社Ｈ＆Ｍプランニング,,合同会社,福井県,福井市,大島町前浜４０６番地８,,18,201,9188018,,,,,,,2021-07-20,1,,,,,エイチアンドエムプランニング,0
2789,9240001058294,新規,0,2021-07-20,2021-07-20,株式会社瀬戸内ホテルズ,,株式会社,広島県,広島市中区,富士見町１１番１２号,,34,101,7300043,,,,,,,2021-07-20,1,,,,,セトウチホテルズ,0
2790,9240001058303,新規,0,2021-07-20,2021-07-20,杉本建設株式会社,,株式会社,広島県,福山市,東深津町４丁目１１番３０－２号,,34,207,7210974,,,,,,,2021-07-20,1,,,,,スギモトケンセツ,0
2802,9280005007426,新規,0,2021-07-20,2021-07-20,特定非営利活動法人母子ケア香－ＫＡＺＡ,,その他の設立登記法人,島根県,出雲市,大社町北荒木１８７４番地１６,,32,203,6990722,,,,,,,2021-07-20,1,,,,,ボシケアカザ,0
2805,9290001093915,新規,0,2021-07-20,2021-07-20,株式会社ＹＡＶＡＬＵ,,株式会社,福岡県,福岡市中央区,天神４丁目７－１１クレアビル４Ｆ,,40,133,8100001,,,,,,,2021-07-20,1,,,,,ヤバル,0
2806,9290001093948,新規,0,2021-07-20,2021-07-20,株式会社ソーシャルファーム九州,,株式会社,福岡県,春日市,松ヶ丘３丁目３８番地,,40,218,8160843,,,,,,,2021-07-20,1,,,,,ソーシャルファームキュウシュウ,0
2807,9290001093956,新規,0,2021-07-20,2021-07-20,株式会社チャレンジド,,株式会社,福岡県,福岡市南区,柏原５丁目１４番５号,,40,134,8111353,,,,,,,2021-07-20,1,,,,,チャレンジド,0
2812,9290003011437,新規,0,2021-07-20,2021-07-20,合同会社晴,,合同会社,福岡県,福岡市南区,高木２丁目１１番１０－４０２号グランフォーレ大橋東,,40,134,8150004,,,,,,,2021-07-20,1,,,,,ハル,0
2817,9330003008981,新規,0,2021-07-20,2021-07-20,さくら合同会社,,合同会社,熊本県,宇城市,豊野町安見４３２６番地１,,43,213,8614306,,,,,,,2021-07-20,1,,,,,サクラ,0
2821,9350001017207,新規,0,2021-07-20,2021-07-20,株式会社ごろく,,株式会社,宮崎県,日向市,比良町４丁目１０５番地４,,45,206,8830031,,,,,,,2021-07-20,1,,,,,ゴロク,0
2823,9360003011306,新規,0,2021-07-20,2021-07-20,合同会社ＳＡＮＤＲＯＵＮＤ,,合同会社,沖縄県,中頭郡北谷町,字上勢頭８０４番地３チヨアパート１０１,,47,326,9040101,,,,,,,2021-07-20,1,,,,,サンドラウンド,0
2824,9370001047367,新規,0,2021-07-20,2021-07-20,株式会社レインボーフィールド,,株式会社,宮城県,仙台市若林区,六丁目字南９７番地の３,,04,103,9840031,,,,,,,2021-07-20,1,,,,,レインボーフィールド,0
2828,9400001015519,新規,0,2021-07-20,2021-07-20,株式会社ナチュラリー,,株式会社,岩手県,北上市,鍛冶町２丁目４番７号,,03,206,0240062,,,,,,,2021-07-20,1,,,,,ナチュラリー,0
2832,9420001017521,新規,0,2021-07-20,2021-07-20,株式会社Ｄｒ．ｏｆ　Ｇｏｏｄ　Ｈｏｐｅ,,株式会社,青森県,八戸市,大字十三日町１ヴィアノヴァビル３Ｆ,,02,203,0310042,,,,,,,2021-07-20,1,,,,,ドクターオブグッドホープ,0
2838,9450003002106,新規,0,2021-07-20,2021-07-20,合同会社クライク,,合同会社,北海道,上川郡東川町,新栄北１丁目５番９号,,01,458,0711416,,,,,,,2021-07-20,1,,,,,クライク,0
2844,9700150099679,新規,0,2021-07-20,2020-07-07,市川町国際交流協会,,その他,兵庫県,神崎郡市川町,西川辺１６５－３,,28,442,6792315,,,,,,,2020-07-07,1,,,,,イチカワチヨウコクサイコウリユウキヨウカイ,0
