sequenceNumber,corporateNumber,process,correct,updateDate,changeDate,name,nameImageId,kind,prefectureName,cityName,streetNumber,addressImageId,prefectureCode,cityCode,postCode,addressOutside,addressOutsideImageId,closeDate,closeCause,successorCorporateNumber,changeCause,assignmentDate,latest,enName,enPrefectureName,enCityName,enAddressOutside,furigana,hihyoji
20,1010401194827,新規,0,2025-12-03,2025-12-03,ビートショット株式会社,,株式会社,東京都,港区,西新橋２丁目１４番１号西新橋アルファレジデンス１５０３,,13,103,1050003,,,,,,,2025-12-03,1,,,,,ビートショット,0
21,1010401194942,新規,0,2025-12-03,2025-12-03,Ｚｅｎ株式会社,,株式会社,東京都,港区,浜松町２丁目２番１５号浜松町ダイヤビル２Ｆ,,13,103,1050013,,,,,,,2025-12-03,1,,,,,ゼン,0
27,1010405025029,新規,0,2025-12-03,2025-12-03,一般社団法人外食文化振興協会,,その他の設立登記法人,東京都,港区,赤坂７丁目５番３４－１１０号,,13,103,1070052,,,,,,,2025-12-03,1,,,,,ガイショクブンカシンコウキョウカイ,0
29,1010601068368,新規,0,2025-12-03,2025-12-03,ＭＯＤＮ株式会社,,株式会社,東京都,江東区,青海２丁目７番４号８０３号室,,13,108,1350064,,,,,,,2025-12-03,1,,,,,モードン,0
30,1010601068376,新規,0,2025-12-03,2025-12-03,ＯＶＣ株式会社,,株式会社,東京都,墨田区,江東橋４丁目２７番１４号楽天地ビル３ＦＢＩＺｃｏｍｆｏｒｔ内,,13,107,1300022,,,,,,,2025-12-03,1,,,,,オーブイシー,0
31,1010601068384,新規,0,2025-12-03,2025-12-03,株式会社平太栄,,株式会社,東京都,墨田区,両国２丁目１７番１１号,,13,107,1300026,,,,,,,2025-12-03,1,,,,,ヘイタイエイ,0
44,1011001173898,新規,0,2025-12-03,2025-12-03,株式会社ＦＵＪＩ,,株式会社,東京都,渋谷区,恵比寿西２丁目４番８号ウィンド恵比寿ビル８Ｆ,,13,113,1500021,,,,,,,2025-12-03,1,,,,,フジ,0
45,1011001173915,新規,0,2025-12-03,2025-12-03,株式会社ＢＡＢＹ　ＳＴＥＰＳ,,株式会社,東京都,渋谷区,神南１丁目１１番５－９０５号,,13,113,1500041,,,,,,,2025-12-03,1,,,,,ベイビーステップス,0
46,1011001173997,新規,0,2025-12-03,2025-12-03,Ｓｈｉｆｔｅｄ株式会社,,株式会社,東京都,渋谷区,広尾１丁目２番地１号ヒカリビル４階,,13,113,1500012,,,,,,,2025-12-03,1,,,,,シフテッド,0
47,1011001174046,新規,0,2025-12-03,2025-12-03,株式会社ＳＲＣＰ２号,,株式会社,東京都,渋谷区,道玄坂１丁目１０番８号渋谷道玄坂東急ビル２Ｆ－Ｃ,,13,113,1500043,,,,,,,2025-12-03,1,,,,,エスアールシーピーニゴウ,0
49,1011003023011,新規,0,2025-12-03,2025-12-03,合同会社Ｓｌａｌｏ,,合同会社,東京都,渋谷区,恵比寿２丁目２８番７号ＶｅｎｔｕｒｅＣｉｔｙ恵比寿３２９５,,13,113,1500013,,,,,,,2025-12-03,1,,,,,,0
59,1011201026823,新規,0,2025-12-03,2025-12-03,株式会社プラニックス,,株式会社,東京都,中野区,中野３丁目２７番４－４０５号,,13,114,1640001,,,,,,,2025-12-03,1,,,,,プラニックス,0
62,1011301031087,新規,0,2025-12-03,2025-12-03,３ｖｏｌｔ株式会社,,株式会社,東京都,杉並区,上高井戸１丁目６番３号ＴＡＫＣＳ３０４,,13,115,1680074,,,,,,,2025-12-03,1,,,,,サンボルト,0
63,1011301031095,新規,0,2025-12-03,2025-12-03,株式会社ＡｔｔｒａｃｔｉｖｅＦｕｔｕｒｅ,,株式会社,東京都,杉並区,下高井戸４丁目６－２６パールハイツ桜上水６０１,,13,115,1680073,,,,,,,2025-12-03,1,,,,,アトラクティヴフューチャー,0
66,1011403004957,新規,0,2025-12-03,2025-12-03,合同会社コモンズ,,合同会社,東京都,板橋区,南常盤台１丁目１１番６号レフア南常盤台１０１号室,,13,119,1740072,,,,,,,2025-12-03,1,,,,,コモンズ,0
71,1011601029203,新規,0,2025-12-03,2025-12-03,ＡｌｍａＬｉｎｋ株式会社,,株式会社,東京都,練馬区,北町５丁目４－５,,13,120,1790081,,,,,,,2025-12-03,1,,,,,アルマリンク,0
76,1011803007213,新規,0,2025-12-03,2025-12-03,合同会社Ｓｔａｒ’ｓ,,合同会社,東京都,葛飾区,立石８丁目４４番１９号,,13,122,1240012,,,,,,,2025-12-03,1,,,,,スターズ,0
77,1012301014619,新規,0,2025-12-03,2025-12-03,株式会社Ｍ＆Ｈ,,株式会社,東京都,町田市,玉川学園５丁目６番３号,,13,209,1940041,,,,,,,2025-12-03,1,,,,,エムアンドエイチ,0
83,1012803003937,新規,0,2025-12-03,2025-12-03,合同会社Ｍｅｖｉｃａ,,合同会社,東京都,国分寺市,東恋ヶ窪６丁目１０番地２０号１０２,,13,214,1850014,,,,,,,2025-12-03,1,,,,,メヴィカ,0
84,1013101009874,新規,0,2025-12-03,2025-12-03,けんけん工務店株式会社,,株式会社,東京都,西多摩郡日の出町,大字大久野１１５２番地１３,,13,305,1900181,,,,,,,2025-12-03,1,,,,,ケンケンコウムテン,0
87,1013303007973,新規,0,2025-12-03,2025-12-03,合同会社ｅｘｉｒｉｓｕｈ,,合同会社,東京都,豊島区,巣鴨２丁目９－２８,,13,116,1700002,,,,,,,2025-12-03,1,,,,,イグリッシュ,0
91,1020001166151,新規,0,2025-12-03,2025-12-03,驛道新能源株式会社,,株式会社,神奈川県,横浜市南区,山谷７２－１ハイマート横浜９０６室,,14,105,2320036,,,,,,,2025-12-03,1,,,,,イーダァォエネルギー,0
92,1020003029884,新規,0,2025-12-03,2025-12-03,ＧＮＫ合同会社,,合同会社,神奈川県,横浜市磯子区,新杉田町３－５ライオンズマンション新杉田５０５,,14,107,2350032,,,,,,,2025-12-03,1,,,,,ジーエヌケー,0
96,1021001086926,新規,0,2025-12-03,2025-12-03,株式会社和光グループ,,株式会社,神奈川県,伊勢原市,石田６１５番地の１,,14,214,2591116,,,,,,,2025-12-03,1,,,,,ワコウグループ,0
102,1021003016848,新規,0,2025-12-03,2025-12-03,合同会社グリーンライフ,,合同会社,神奈川県,茅ヶ崎市,中島１０５６－１ビッグヴァングランヴァーグ１０９,,14,207,2530073,,,,,,,2025-12-03,1,,,,,グリーンライフ,0
103,1021003016856,新規,0,2025-12-03,2025-12-03,鳥居ヘルス合同会社,,合同会社,神奈川県,座間市,相武台３丁目２７番２８号,,14,216,2520011,,,,,,,2025-12-03,1,,,,,トリイヘルス,0
114,1040001141607,新規,0,2025-12-03,2025-12-03,株式会社エー・アイ・エム,,株式会社,千葉県,船橋市,前原西８丁目１６番２７号,,12,204,2740825,,,,,,,2025-12-03,1,,,,,エーアイエム,0
115,1040001141615,新規,0,2025-12-03,2025-12-03,株式会社ブルーム　グリュック,,株式会社,千葉県,鎌ケ谷市,南初富５丁目１０番３０号,,12,224,2730123,,,,,,,2025-12-03,1,,,,,ブルームグリュック,0
116,1040001141623,新規,0,2025-12-03,2025-12-03,株式会社ＢＡＨＡＭＥＤＩＡ,,株式会社,千葉県,千葉市中央区,亥鼻３丁目１－１亥鼻ビルＢ１Ｆ,,12,101,2600856,,,,,,,2025-12-03,1,,,,,バハメディア,0
117,1040001141680,新規,0,2025-12-03,2025-12-03,株式会社久留里養鯉場,,株式会社,千葉県,木更津市,東太田１丁目１番２２号,,12,206,2920043,,,,,,,2025-12-03,1,,,,,クルリヨウリジョウ,0
123,1040003029040,新規,0,2025-12-03,2025-12-03,ＭＡＴＳＵＲＩＫＡ合同会社,,合同会社,千葉県,野田市,山崎１４９７番地の３９,,12,208,2780022,,,,,,,2025-12-03,1,,,,,マツリカ,0
124,1040003029065,新規,0,2025-12-03,2025-12-03,ＴＩＥＮ合同会社,,合同会社,千葉県,松戸市,大谷口１９１番地の１７,,12,207,2700005,,,,,,,2025-12-03,1,,,,,タイエン,0
125,1040003029081,新規,0,2025-12-03,2025-12-03,合同会社ＣＯＲＥＢＡＳＥ,,合同会社,千葉県,千葉市中央区,椿森２丁目７番７号エスポワール３０２号,,12,101,2600042,,,,,,,2025-12-03,1,,,,,コアベース,0
131,1050001057645,新規,0,2025-12-03,2025-12-03,株式会社北陸誘導,,株式会社,茨城県,土浦市,烏山１丁目３９３番地１６０,,08,203,3000836,,,,,,,2025-12-03,1,,,,,ホクリクユウドウ,0
137,1080401028292,新規,0,2025-12-03,2025-12-03,株式会社マルフジ,,株式会社,静岡県,浜松市中央区,初生町５７６番地の２０,,22,138,4338112,,,,,,,2025-12-03,1,,,,,マルフジ,0
139,1100005013424,新規,0,2025-12-03,2025-12-03,一般社団法人シイタケの会,,その他の設立登記法人,長野県,中野市,大字栗林３３０番地,,20,211,3830056,,,,,,,2025-12-03,1,,,,,シイタケノカイ,0
141,1110001039752,新規,0,2025-12-03,2025-12-03,株式会社アクアカルチャーマックス,,株式会社,新潟県,柏崎市,大字上田尻１８４０番地６－２０２号室,,15,205,9451351,,,,,,,2025-12-03,1,,,,,アクアカルチャーマックス,0
142,1110001039760,新規,0,2025-12-03,2025-12-03,株式会社おか部,,株式会社,新潟県,燕市,井土巻２丁目２３５番地,,15,213,9591232,,,,,,,2025-12-03,1,,,,,オカベ,0
159,1120001282335,新規,0,2025-12-03,2025-12-03,盛和株式会社,,株式会社,大阪府,大阪市東住吉区,照ケ丘矢田２丁目６番７号３７号室,,27,121,5460021,,,,,,,2025-12-03,1,,,,,セイワ,0
160,1120001282376,新規,0,2025-12-03,2025-12-03,株式会社雄飛,,株式会社,大阪府,大阪市阿倍野区,阿倍野筋３丁目８番３６号,,27,119,5450052,,,,,,,2025-12-03,1,,,,,ユウヒ,0
161,1120001282426,新規,0,2025-12-03,2025-12-03,株式会社ＹＢ,,株式会社,大阪府,大阪市浪速区,大国１丁目１２番２３－８０２号,,27,111,5560014,,,,,,,2025-12-03,1,,,,,ワイビー,0
162,1120001282475,新規,0,2025-12-03,2025-12-03,株式会社パインヒル,,株式会社,大阪府,大阪市西区,新町２丁目３番１３－３０１号,,27,106,5500013,,,,,,,2025-12-03,1,,,,,パインヒル,0
166,1120003031368,新規,0,2025-12-03,2025-12-03,合同会社Ｎａｎａ　Ｐｌｕｓ,,合同会社,大阪府,大阪市西区,南堀江３丁目７番１６号２０１,,27,106,5500015,,,,,,,2025-12-03,1,,,,,ナナプラス,0
168,1120101072883,新規,0,2025-12-03,2025-12-03,ＨＵＭＡＮ　ＶＩＤＥＯ株式会社,,株式会社,大阪府,堺市西区,浜寺元町５丁６６０番地６,,27,144,5928343,,,,,,,2025-12-03,1,,,,,ヒューマンビデオ,0
169,1120101072900,新規,0,2025-12-03,2025-12-03,ＨｏｕｓｅＰｒｉｄｅ株式会社,,株式会社,大阪府,堺市堺区,東湊町３丁１８０－２２,,27,141,5900829,,,,,,,2025-12-03,1,,,,,ハウスプライド,0
178,1122001039979,新規,0,2025-12-03,2025-12-03,ＫＯＧＡＮＥ＆Ｙ．Ｓ株式会社,,株式会社,大阪府,東大阪市,瓜生堂１丁目１４番１３－１００７号,,27,227,5780946,,,,,,,2025-12-03,1,,,,,コガネアンドワイドットエス,0
179,1122003003396,新規,0,2025-12-03,2025-12-03,合同会社ブライトデイズ,,合同会社,大阪府,柏原市,国分西１丁目１番１７号幸喜ビル２０１号,,27,221,5820025,,,,,,,2025-12-03,1,,,,,ブライトデイズ,0
182,1130001081133,新規,0,2025-12-03,2025-12-03,ＡＲＴＩＦＥＸ株式会社,,株式会社,京都府,京都市伏見区,深草綿森町８番地７,,26,109,6120022,,,,,,,2025-12-03,1,,,,,アーティフェックス,0
185,1130003010973,新規,0,2025-12-03,2025-12-03,松本合同会社,,合同会社,京都府,宇治市,槇島町月夜６番地１の４１９,,26,204,6110041,,,,,,,2025-12-03,1,,,,,マツモト,0
202,1150003003769,新規,0,2025-12-03,2025-12-03,合同会社Ｐｈａｒｍｌｉｇｈｔ,,合同会社,奈良県,吉野郡大淀町,大字下渕１７１－７,,29,442,6380821,,,,,,,2025-12-03,1,,,,,ファームライト,0
208,1180001169700,新規,0,2025-12-03,2025-12-03,株式会社セントラルケアＨＤ,,株式会社,愛知県,名古屋市南区,城下町３丁目１３番地の３,,23,112,4570047,,,,,,,2025-12-03,1,,,,,セントラルケアエイチディー,0
209,1180001169741,新規,0,2025-12-03,2025-12-03,株式会社エフフォーリア,,株式会社,愛知県,津島市,金柳町字南脇５番地,,23,208,4960014,,,,,,,2025-12-03,1,,,,,,0
210,1180001169774,新規,0,2025-12-03,2025-12-03,株式会社エイリアンワークスタジオ,,株式会社,愛知県,名古屋市千種区,宮根台２丁目１５番４号,,23,101,4640008,,,,,,,2025-12-03,1,,,,,エイリアンワークスタジオ,0
230,1220001027052,新規,0,2025-12-03,2025-12-03,株式会社ＯＬＦＥ,,株式会社,石川県,金沢市,疋田３丁目６７番地,,17,201,9200003,,,,,,,2025-12-03,1,,,,,オルフェ,0
231,1220003004181,新規,0,2025-12-03,2025-12-03,合同会社Ｍｅｒｒｙｇａｔｅ,,合同会社,石川県,白山市,北安田西２丁目１３４番地１,,17,210,9240039,,,,,,,2025-12-03,1,,,,,メリーゲート,0
234,1240001065851,新規,0,2025-12-03,2025-12-03,株式会社ＴＲＩＳ,,株式会社,広島県,広島市中区,羽衣町１１番２２号,,34,101,7300814,,,,,,,2025-12-03,1,,,,,トライス,0
250,1290001112327,新規,0,2025-12-03,2025-12-03,株式会社ＯＸ,,株式会社,福岡県,福岡市博多区,博多駅前３丁目２２－６ビジネスワン博多駅前ビル２階,,40,132,8120011,,,,,,,2025-12-03,1,,,,,オックス,0
251,1290001112351,新規,0,2025-12-03,2025-12-03,株式会社照,,株式会社,福岡県,糟屋郡新宮町,大字上府４４６番地８,,40,345,8110117,,,,,,,2025-12-03,1,,,,,テル,0
256,1290805009883,新規,0,2025-12-03,2025-12-03,一般社団法人ＮＡＫＡＭＵＲＡＢＩＬＬ,,その他の設立登記法人,福岡県,北九州市戸畑区,三六町１５番１１－９０３号,,40,105,8040091,,,,,,,2025-12-03,1,,,,,ナカムラビル,0
257,1300001014430,新規,0,2025-12-03,2025-12-03,株式会社健電,,株式会社,佐賀県,佐賀市,鍋島６丁目８番３号１０２号室,,41,201,8490937,,,,,,,2025-12-03,1,,,,,ケンデン,0
258,1300003002383,新規,0,2025-12-03,2025-12-03,黒田商会合同会社,,合同会社,佐賀県,三養基郡みやき町,大字寄人５００番地３,,41,346,8401105,,,,,,,2025-12-03,1,,,,,クロダショウカイ,0
261,1310003005138,新規,0,2025-12-03,2025-12-03,合同会社ＤＳエステートアンド,,合同会社,長崎県,長崎市,岩川町７番１０－６０１号,,42,201,8528106,,,,,,,2025-12-03,1,,,,,ディーエスエステートアンド,0
265,1330003011340,新規,0,2025-12-03,2025-12-03,合同会社アグレシボ,,合同会社,熊本県,玉名市,玉名１４５４番地３リヨン１０２,,43,206,8650005,,,,,,,2025-12-03,1,,,,,アグレシボ,0
266,1330005010976,新規,0,2025-12-03,2025-12-03,税理士法人椿事務所,,その他の設立登記法人,熊本県,熊本市中央区,大江４丁目１５番３２号,,43,101,8620971,,,,,,,2025-12-03,1,,,,,ツバキジムショ,0
275,1400001017241,新規,0,2025-12-03,2025-12-03,株式会社１８００,,株式会社,岩手県,滝沢市,室小路６５３番地１,,03,216,0200634,,,,,,,2025-12-03,1,,,,,ワンエイト,0
285,1430003018375,新規,0,2025-12-03,2025-12-03,合同会社ＤＰＰ,,合同会社,北海道,札幌市中央区,南五条西１丁目１番２９号,,01,101,0640805,,,,,,,2025-12-03,1,,,,,ディーピーピー,0
286,1440003001735,新規,0,2025-12-03,2025-12-03,インテリア石塚合同会社,,合同会社,北海道,爾志郡乙部町,字緑町３２３番地,,01,364,0430103,,,,,,,2025-12-03,1,,,,,インテリアイシツカ,0
292,1470005006663,新規,0,2025-12-03,2025-12-03,一般社団法人地域創生アライアンス,,その他の設立登記法人,香川県,高松市,鬼無町是竹９４番地,,37,201,7618021,,,,,,,2025-12-03,1,,,,,チイキソウセイアライアンス,0
294,1490003002068,新規,0,2025-12-03,2025-12-03,合同会社花ぽこ,,合同会社,高知県,吾川郡いの町,天王南４丁目４番地１１,,39,386,7812123,,,,,,,2025-12-03,1,,,,,ハナポコ,0
296,1700150133148,新規,0,2025-12-03,2025-12-03,Ｓｈｅｎｚｈｅｎ　Ａｎｐｕ　Ｈｅａｌｔｈ　Ｔｅｃｈｎｏｌｏｇｙ　Ｃｏ．，Ｌｔｄ,,外国会社等,,,,,,,,Ｒｏｏｍ　１０１，Ｂｕｉｌｄｉｎｇ　２，Ｌｏｎｇｑｉａｏｈｕａ　Ｉｎｄｕｓｔｒｉａｌ　Ｐａｒｋ，Ｌｕｏｔｉａｎ　Ｆｏｒｅｓｔ　Ｆａｒｍ，Ｙａｎｃｈｕａｎ　Ｃｏｍｍｕｎｉｔｙ　Ｙａｎｌｕｏ　Ｓｔｒｅｅｔ　Ｂａｏａｎ　Ｄｉｓｔｒｉｃｔ　Ｓｈｅｎｚｈｅｎ,,,,,,2025-12-03,1,,,,,シンセンアンプヘルステクノロジーカンパニーリミテッド,0
297,1700150133156,新規,0,2025-12-03,2025-12-03,株式会社パラタ航空,,外国会社等,千葉県,成田市,古込字古込１番地１,,12,211,2860104,大韓民国江原道襄陽郡襄陽邑朝山里３８８,,,,,,2025-12-03,1,,,,,カブシキガイシヤパラタコウクウ,0
300,2010003049602,新規,0,2025-12-03,2025-12-03,合同会社Ｎｏｃｔｙｓ,,合同会社,東京都,中央区,日本橋室町１丁目１１番１２号日本橋水野ビル７階,,13,102,1030022,,,,,,,2025-12-03,1,,,,,ノクティス,0
305,2010401194818,新規,0,2025-12-03,2025-12-03,株式会社ＮＴＡ,,株式会社,東京都,港区,南青山３丁目８番３８号,,13,103,1070062,,,,,,,2025-12-03,1,,,,,エヌティーエー,0
306,2010401194826,新規,0,2025-12-03,2025-12-03,ＡＬＢＯ　ＪＡＰＡＮ株式会社,,株式会社,東京都,港区,西新橋２丁目１４番１号西新橋アルファレジデンス１５０３,,13,103,1050003,,,,,,,2025-12-03,1,,,,,アルボジャパン,0
309,2010601068160,新規,0,2025-12-03,2025-12-03,株式会社富道,,株式会社,東京都,江東区,東陽１丁目２４番２－１００３号,,13,108,1350016,,,,,,,2025-12-03,1,,,,,フドウ,0
329,2011001173848,新規,0,2025-12-03,2025-12-03,ＭｅｎＬａｂ株式会社,,株式会社,東京都,渋谷区,神南１丁目１１－４ＦＰＧリンクス神南５階,,13,113,1500041,,,,,,,2025-12-03,1,,,,,メンラボ,0
330,2011001173880,新規,0,2025-12-03,2025-12-03,株式会社ｌｉｔｔｌｅＸ,,株式会社,東京都,渋谷区,千駄ヶ谷２丁目２番８号,,13,113,1510051,,,,,,,2025-12-03,1,,,,,リトルエックス,0
331,2011001174045,新規,0,2025-12-03,2025-12-03,株式会社千歳屋,,株式会社,東京都,渋谷区,代々木３丁目５番２号,,13,113,1510053,,,,,,,2025-12-03,1,,,,,チトセヤ,0
333,2011003023068,新規,0,2025-12-03,2025-12-03,ＵＮＩＴＥ　ＡＳ　ＯＮＥ合同会社,,合同会社,東京都,渋谷区,渋谷２丁目１９－１９ワコー宮益坂ビル５階,,13,113,1500002,,,,,,,2025-12-03,1,,,,,,0
341,2011301031094,新規,0,2025-12-03,2025-12-03,株式会社ＢＧＭ,,株式会社,東京都,杉並区,下井草５丁目４番４－１０６号,,13,115,1670022,,,,,,,2025-12-03,1,,,,,ビージーエム,0
343,2011403004956,新規,0,2025-12-03,2025-12-03,Ｄａｔａｎｅｓｔ合同会社,,合同会社,東京都,板橋区,常盤台３丁目２番７号,,13,119,1740071,,,,,,,2025-12-03,1,,,,,データネスト,0
351,2012705002490,新規,0,2025-12-03,2025-12-03,一般社団法人日中ロッククライミング友好交流促進協会,,その他の設立登記法人,東京都,東村山市,多摩湖町４丁目２２番地２３,,13,213,1890026,,,,,,,2025-12-03,1,,,,,ニッチュウロッククライミングユウコウコウリュウソクシンキョウカイ,0
352,2012801024397,新規,0,2025-12-03,2025-12-03,株式会社ファインラボ,,株式会社,東京都,国分寺市,南町３丁目４番１１号ハイネス国分寺ルミエール１０５,,13,214,1850021,,,,,,,2025-12-03,1,,,,,ファインラボ,0
364,2013301055395,新規,0,2025-12-03,2025-12-03,ＵＭＡＭＩ　ＢＡＳＥ株式会社,,株式会社,東京都,豊島区,長崎１丁目７番１５－２０７号,,13,116,1710051,,,,,,,2025-12-03,1,,,,,ウマミベース,0
371,2020001166019,新規,0,2025-12-03,2025-12-03,株式会社Ｐｌａｔｉｎａ　Ｃｏｌｏｒｓ,,株式会社,神奈川県,横浜市青葉区,柿の木台２０番地９,,14,117,2270048,,,,,,,2025-12-03,1,,,,,プラチナカラーズ,0
373,2021001086900,新規,0,2025-12-03,2025-12-03,Ｏｌｕｔｙ株式会社,,株式会社,神奈川県,相模原市南区,上鶴間本町７丁目２３－２０,,14,153,2520318,,,,,,,2025-12-03,1,,,,,,0
374,2021001086917,新規,0,2025-12-03,2025-12-03,株式会社ＢＬＥＯＭ,,株式会社,神奈川県,相模原市緑区,下九沢１６０７番地１,,14,151,2520134,,,,,,,2025-12-03,1,,,,,ブレオム,0
375,2021001086925,新規,0,2025-12-03,2025-12-03,株式会社アドバンストＨＤ,,株式会社,神奈川県,厚木市,中町２丁目５番１４号エクセレントシティ本厚木駅前１１０４号室,,14,212,2430018,,,,,,,2025-12-03,1,,,,,アドバンストホールディングス,0
385,2030003028067,新規,0,2025-12-03,2025-12-03,嘉集ロジスティクス合同会社,,合同会社,埼玉県,さいたま市岩槻区,大字上野６５－４,,11,110,3390073,,,,,,,2025-12-03,1,,,,,カシュウロジスティクス,0
386,2030005022357,新規,0,2025-12-03,2025-12-03,一般社団法人あずきミライワークス,,その他の設立登記法人,埼玉県,川越市,大字久下戸４８５９番地１,,11,201,3500011,,,,,,,2025-12-03,1,,,,,アズキミライワークス,0
392,2040001141556,新規,0,2025-12-03,2025-12-03,株式会社ＥＮ’ＹＯ,,株式会社,千葉県,船橋市,上山町１丁目１６２－４０,,12,204,2730046,,,,,,,2025-12-03,1,,,,,エンヨ,0
393,2040001141606,新規,0,2025-12-03,2025-12-03,株式会社光相,,株式会社,千葉県,木更津市,金田東４丁目２４番地７,,12,206,2920009,,,,,,,2025-12-03,1,,,,,コウソウ,0
394,2040001141614,新規,0,2025-12-03,2025-12-03,Ｂｌａｚｅ株式会社,,株式会社,千葉県,市原市,国分寺台中央２丁目１４番地７カーサリヴェールＢ,,12,219,2900073,,,,,,,2025-12-03,1,,,,,ブレイズ,0
402,2050003009783,新規,0,2025-12-03,2025-12-03,合同会社兆,,合同会社,茨城県,鉾田市,大蔵２７９番地７,,08,234,3112117,,,,,,,2025-12-03,1,,,,,キザシ,0
403,2060001038809,新規,0,2025-12-03,2025-12-03,株式会社野口電気工事,,株式会社,栃木県,小山市,大字乙女９６０番地２,,09,208,3290214,,,,,,,2025-12-03,1,,,,,ノグチデンキコウジ,0
405,2070001043618,新規,0,2025-12-03,2025-12-03,株式会社一八,,株式会社,群馬県,桐生市,新里町新川２４３５番地４,,10,203,3760121,,,,,,,2025-12-03,1,,,,,イチハチ,0
413,2080401028291,新規,0,2025-12-03,2025-12-03,Ｂａｒｎｅｓ株式会社,,株式会社,静岡県,湖西市,梅田９３０番地の８,,22,221,4310425,,,,,,,2025-12-03,1,,,,,バーンズ,0
415,2090001019640,新規,0,2025-12-03,2025-12-03,株式会社ＳＡＡＮＶＩ　ＣＲＥＡＴＩＯＮ,,株式会社,山梨県,甲府市,伊勢３丁目２番２７号,,19,201,4000856,,,,,,,2025-12-03,1,,,,,サンヴィクリエイション,0
418,2110001039751,新規,0,2025-12-03,2025-12-03,株式会社ファイブＫ,,株式会社,新潟県,魚沼市,井口新田１５３番地,,15,225,9460076,,,,,,,2025-12-03,1,,,,,ファイブケイ,0
419,2110003005982,新規,0,2025-12-03,2025-12-03,おばけおもてなし合同会社,,合同会社,新潟県,妙高市,大字杉野沢２０６４番地１,,15,217,9492113,,,,,,,2025-12-03,1,,,,,オバケオモテナシ,0
420,2110003005990,新規,0,2025-12-03,2025-12-03,ＭＥ合同会社,,合同会社,新潟県,新潟市東区,新岡山２丁目２３－７,,15,102,9500822,,,,,,,2025-12-03,1,,,,,ミー,0
429,2120001282235,新規,0,2025-12-03,2025-12-03,サンポートライズ株式会社,,株式会社,大阪府,大阪市阿倍野区,三明町２丁目２番１３号,,27,119,5450005,,,,,,,2025-12-03,1,,,,,サンポートライズ,0
430,2120001282334,新規,0,2025-12-03,2025-12-03,株式会社ＹＳＧ,,株式会社,大阪府,大阪市浪速区,日本橋西１丁目５－５ミズホビル７階,,27,111,5560004,,,,,,,2025-12-03,1,,,,,ワイエスジー,0
431,2120001282375,新規,0,2025-12-03,2025-12-03,北口鋼機株式会社,,株式会社,大阪府,大阪市中央区,南船場３丁目２番２２号おおきに南船場ビル２０５,,27,128,5420081,,,,,,,2025-12-03,1,,,,,キタグチコウキ,0
432,2120001282409,新規,0,2025-12-03,2025-12-03,株式会社アンドワーク,,株式会社,大阪府,大阪市西区,立売堀１丁目４番１２号立売堀スクエアビル８Ｆ,,27,106,5500012,,,,,,,2025-12-03,1,,,,,アンドワーク,0
433,2120001282417,新規,0,2025-12-03,2025-12-03,株式会社ＭＵＳＴ,,株式会社,大阪府,大阪市此花区,島屋６丁目２番９５－１６０１号,,27,104,5540024,,,,,,,2025-12-03,1,,,,,マスト,0
434,2120001282425,新規,0,2025-12-03,2025-12-03,株式会社ＬＯＶＥエンパワード,,株式会社,大阪府,門真市,小路町１番２８号アドバンス小路１０２号室,,27,223,5710058,,,,,,,2025-12-03,1,,,,,ラブエンパワード,0
436,2120003031350,新規,0,2025-12-03,2025-12-03,合同会社ＡＲＩＳＥ,,合同会社,大阪府,大阪市東成区,大今里３丁目４番２１号,,27,115,5370012,,,,,,,2025-12-03,1,,,,,アライズ,0
439,2120101072890,新規,0,2025-12-03,2025-12-03,ＴＨＲＥＥ株式会社,,株式会社,大阪府,堺市堺区,南瓦町１番２０号,,27,141,5900078,,,,,,,2025-12-03,1,,,,,スリー,0
440,2120101072899,新規,0,2025-12-03,2025-12-03,株式会社カーパレス,,株式会社,大阪府,松原市,東新町５丁目１１番２１号,,27,217,5800024,,,,,,,2025-12-03,1,,,,,カーパレス,0
444,2120901051862,新規,0,2025-12-03,2025-12-03,恒昌達株式会社,,株式会社,大阪府,豊中市,宝山町２２番４０－２０２号,,27,203,5610893,,,,,,,2025-12-03,1,,,,,コウショウタツ,0
445,2120903005981,新規,0,2025-12-03,2025-12-03,合同会社Ｈｏｒｉｚｏｎ,,合同会社,大阪府,箕面市,箕面３丁目１６番２３号,,27,220,5620001,,,,,,,2025-12-03,1,,,,,ホライズン,0
446,2122003003395,新規,0,2025-12-03,2025-12-03,合同会社ブライトプロパティ,,合同会社,大阪府,柏原市,国分西１丁目１番１７号幸喜ビル２０１号,,27,221,5820025,,,,,,,2025-12-03,1,,,,,ブライトプロパティ,0
448,2130001081116,新規,0,2025-12-03,2025-12-03,株式会社Ｈｏｍｅ　Ｅｋｏｌｕ,,株式会社,京都府,城陽市,平川山道２０５番地１２,,26,207,6100101,,,,,,,2025-12-03,1,,,,,ホームエコル,0
449,2130001081149,新規,0,2025-12-03,2025-12-03,株式会社ｏｈａｋｏ,,株式会社,京都府,京都市中京区,御幸町通三条上る丸屋町３２０番地御幸町パークハイム３０５,,26,104,6048086,,,,,,,2025-12-03,1,,,,,オハコ,0
455,2140001140903,新規,0,2025-12-03,2025-12-03,株式会社ウルグループ,,株式会社,兵庫県,神崎郡福崎町,西田原１８１８番地１,,28,443,6792204,,,,,,,2025-12-03,1,,,,,ウルグループ,0
456,2140001140944,新規,0,2025-12-03,2025-12-03,ＡＣＴ　ＳＥＲＶＩＣＥ株式会社,,株式会社,兵庫県,神戸市西区,池上４丁目２番地の１０リバーサイド岡田１０３,,28,111,6512111,,,,,,,2025-12-03,1,,,,,アクトサービス,0
457,2140003022901,新規,0,2025-12-03,2025-12-03,合同会社Ｃｏｎｔｉｎｕｅ　ｔｏ　Ｅｖｏｌｖｅ,,合同会社,兵庫県,姫路市,北新在家４番地１８エナール北新在家２０２,,28,201,6700000,,,,,,,2025-12-03,1,,,,,コンティニュートゥエボルブ,0
474,2180001169682,新規,0,2025-12-03,2025-12-03,株式会社ＲＥＮＥＥ　Ｄｅｓｉｇｎ,,株式会社,愛知県,名古屋市中村区,横井２丁目７１番地,,23,105,4530866,,,,,,,2025-12-03,1,,,,,ルネデザイン,0
475,2180001169699,新規,0,2025-12-03,2025-12-03,株式会社ＲｅＦｏｒｄ,,株式会社,愛知県,海部郡蟹江町,舟入３丁目２４２番地,,23,425,4970048,,,,,,,2025-12-03,1,,,,,リフォード,0
476,2180001169724,新規,0,2025-12-03,2025-12-03,株式会社Ａｘｅｎｏｒ,,株式会社,愛知県,名古屋市中区,金山５丁目１２－２２エステムコート名古屋金山ミッドクロス５０８,,23,106,4600022,,,,,,,2025-12-03,1,,,,,アクセノール,0
477,2180001169740,新規,0,2025-12-03,2025-12-03,株式会社３ｓａ‐ｄｏ,,株式会社,愛知県,名古屋市千種区,仲田２丁目１１番８号,,23,101,4640074,,,,,,,2025-12-03,1,,,,,サード,0
478,2180001169749,新規,0,2025-12-03,2025-12-03,株式会社ＫＡＮＡＲＩＡ,,株式会社,愛知県,名古屋市中区,丸の内３丁目１７番２４号ヤマシタビル３Ｆ,,23,106,4600002,,,,,,,2025-12-03,1,,,,,カナリア,0
479,2180001169757,新規,0,2025-12-03,2025-12-03,株式会社ＲｅＬＩＶＥ,,株式会社,愛知県,東海市,富木島町南太子４５番地１,,23,222,4760011,,,,,,,2025-12-03,1,,,,,リライブ,0
485,2180301040460,新規,0,2025-12-03,2025-12-03,株式会社山義養魚,,株式会社,愛知県,豊橋市,神野新田町字メノ割２８番地,,23,201,4418077,,,,,,,2025-12-03,1,,,,,ヤマヨシヨウギョ,0
486,2180301040469,新規,0,2025-12-03,2025-12-03,株式会社Ｔｒｅａｓｕｒｅ　Ｂａｓｅ,,株式会社,愛知県,西尾市,中畑町前山２１番地１,,23,213,4440303,,,,,,,2025-12-03,1,,,,,トレジャーベース,0
492,2190001032740,新規,0,2025-12-03,2025-12-03,株式会社ハートルート,,株式会社,三重県,鳥羽市,鳥羽４丁目１３番２号,,24,211,5170011,,,,,,,2025-12-03,1,,,,,ハートルート,0
493,2190003005273,新規,0,2025-12-03,2025-12-03,ＥＴＢ合同会社,,合同会社,三重県,桑名市,大字額田１０００番地１２２,,24,205,5110911,,,,,,,2025-12-03,1,,,,,イーティービー,0
495,2200001044478,新規,0,2025-12-03,2025-12-03,株式会社松井石材,,株式会社,岐阜県,揖斐郡大野町,大字稲富２３７６番地１,,21,403,5010501,,,,,,,2025-12-03,1,,,,,マツイセキザイ,0
497,2200003007160,新規,0,2025-12-03,2025-12-03,合同会社丸杉,,合同会社,岐阜県,郡上市,白鳥町為真５７９番地１,,21,219,5015122,,,,,,,2025-12-03,1,,,,,マルスギ,0
504,2220003004180,新規,0,2025-12-03,2025-12-03,合同会社ホルワークス,,合同会社,石川県,金沢市,北安江４丁目７－２７,,17,201,9200022,,,,,,,2025-12-03,1,,,,,ホルワークス,0
506,2250001021448,新規,0,2025-12-03,2025-12-03,株式会社太田商店,,株式会社,山口県,防府市,三田尻２丁目９番４３号,,35,206,7470814,,,,,,,2025-12-03,1,,,,,オオタショウテン,0
507,2250001021456,新規,0,2025-12-03,2025-12-03,株式会社フクワウチ,,株式会社,山口県,下関市,竹崎町１丁目１１番８号,,35,201,7500025,,,,,,,2025-12-03,1,,,,,フクワウチ,0
508,2260001040785,新規,0,2025-12-03,2025-12-03,株式会社ミヤビホーム,,株式会社,岡山県,倉敷市,連島町鶴新田９７６番地１,,33,202,7128006,,,,,,,2025-12-03,1,,,,,ミヤビホーム,0
512,2290001112292,新規,0,2025-12-03,2025-12-03,株式会社Ａｄｏｏｒ,,株式会社,福岡県,福岡市中央区,薬院４丁目５番２３－２０１号,,40,133,8100022,,,,,,,2025-12-03,1,,,,,アドワ,0
516,2290003017779,新規,0,2025-12-03,2025-12-03,合同会社暁,,合同会社,福岡県,久留米市,梅満町４３－３－１０２,,40,203,8300048,,,,,,,2025-12-03,1,,,,,アカツキ,0
517,2290003017787,新規,0,2025-12-03,2025-12-03,合同会社ビガーライフサポート,,合同会社,福岡県,福岡市西区,富士見３丁目１９番１０－１０３号,,40,135,8190387,,,,,,,2025-12-03,1,,,,,ビガーライフサポート,0
520,2290801032062,新規,0,2025-12-03,2025-12-03,株式会社Ｅｔｅｒ,,株式会社,福岡県,北九州市八幡西区,日吉台３丁目２２番１８号,,40,109,8070866,,,,,,,2025-12-03,1,,,,,エテル,0
521,2290801032079,新規,0,2025-12-03,2025-12-03,株式会社ベジファースト,,株式会社,福岡県,北九州市門司区,泉ケ丘３番１７号,,40,101,8000041,,,,,,,2025-12-03,1,,,,,ベジファースト,0
524,2300003002382,新規,0,2025-12-03,2025-12-03,黒田商店合同会社,,合同会社,佐賀県,三養基郡みやき町,大字寄人５００番地３,,41,346,8401105,,,,,,,2025-12-03,1,,,,,クロダショウテン,0
525,2310003005137,新規,0,2025-12-03,2025-12-03,合同会社えん,,合同会社,長崎県,松浦市,志佐町西山免１１９番地２,,42,208,8594505,,,,,,,2025-12-03,1,,,,,エン,0
527,2320005010274,新規,0,2025-12-03,2025-12-03,一般社団法人ＴＯＧＯ,,その他の設立登記法人,大分県,大分市,季の坂３丁目４番１２号,,44,201,8700870,,,,,,,2025-12-03,1,,,,,ツウゴウ,0
558,2460305002032,新規,0,2025-12-03,2025-12-03,一般社団法人北海道遠軽高等学校下宿を支援する会,,その他の設立登記法人,北海道,紋別郡遠軽町,南町１丁目３番地１９６,,01,555,0990414,,,,,,,2025-12-03,1,,,,,ホッカイドウエンガルコウトウガッコウゲシュクヲシエンスルカイ,0
560,2470005006662,新規,0,2025-12-03,2025-12-03,一般社団法人ＵＫドッグセラピー協会,,その他の設立登記法人,香川県,丸亀市,飯野町東分１３９９番地２,,37,202,7630085,,,,,,,2025-12-03,1,,,,,,0
561,2700150133147,新規,0,2025-12-03,2025-12-03,Ｓｈｅｎｚｈｅｎ　Ｘｉａｏｊｉｕ　Ｈｏｕｓｅｈｏｌｄ　Ｐｒｏｄｕｃｔｓ　Ｃｏ．，Ｌｔｄ．,,外国会社等,,,,,,,,Ｓｈｅｎｚｈｅｎ，Ｌｏｎｇｇａｎｇ　Ｄｉｓｔｒｉｃｔ，Ｌｉｕｙｕｅ　Ｃｏｍｍｕｎｉｔｙ，Ｈｅｎｇｇａｎｇ　Ｓｔｒｅｅｔ，３２Ｄ，Ｂｌｏｃｋ　Ａ，Ｂｕｉｌｄｉｎｇ　６，Ｄｏｎｇｃｈｅｎｇ　Ｃｅｎｔｒａｌ　Ｇａｒｄｅｎ　Ｐｈａｓｅ　３,,,,,,2025-12-03,1,,,,,シンセンシャオジウハウスホールドプロダクツカンパニーリミテッド,0
562,2700150133155,新規,0,2025-12-03,2025-12-03,瑞儀光電股斌有限公司,00141717,外国会社等,東京都,港区,赤坂２丁目８番１４－４０７号,,13,103,1070052,台湾高雄市前鎮区中六路１号,,,,,,2025-12-03,1,,,,,ルイイーグアンデイエングーフエンヨウシエンゴンスー,0
568,3010001260829,新規,0,2025-12-03,2025-12-03,株式会社Ｃ１Ｃａｐｉｔａｌ,,株式会社,東京都,千代田区,麹町１丁目８番１４号麹町ＹＫビル１Ｆ,,13,101,1020083,,,,,,,2025-12-03,1,,,,,シーワンキャピタル,0
569,3010001260853,新規,0,2025-12-03,2025-12-03,株式会社みやっぷる,,株式会社,東京都,中央区,銀座１丁目２２番１１号銀座大竹ビジデンス２Ｆ,,13,102,1040061,,,,,,,2025-12-03,1,,,,,ミヤップル,0
579,3010401194809,新規,0,2025-12-03,2025-12-03,株式会社Ｎ‐Ｓｏｕｒｃｉｎｇ,,株式会社,東京都,港区,三田３丁目７番３０号パークリッジ三田２０２,,13,103,1080073,,,,,,,2025-12-03,1,,,,,エヌソーシング,0
580,3010401194874,新規,0,2025-12-03,2025-12-03,株式会社ミラクル,,株式会社,東京都,港区,北青山１丁目３番１号アールキューブ青山３階,,13,103,1070061,,,,,,,2025-12-03,1,,,,,ミラクル,0
582,3010403036694,新規,0,2025-12-03,2025-12-03,合同会社フルリール,,合同会社,東京都,港区,南青山２丁目２番１５号,,13,103,1070062,,,,,,,2025-12-03,1,,,,,フルリール,0
583,3010403036703,新規,0,2025-12-03,2025-12-03,Ａ‐ｓｈｏｗ　ｈ合同会社,,合同会社,東京都,港区,六本木３丁目１６番１２号六本木ＫＳビル５階,,13,103,1060032,,,,,,,2025-12-03,1,,,,,エーショウエイチ,0
584,3010403036711,新規,0,2025-12-03,2025-12-03,ＳＲＰ１インベストメント合同会社,,合同会社,東京都,港区,虎ノ門３丁目２２番１０－２０１号,,13,103,1050001,,,,,,,2025-12-03,1,,,,,エスアールピーワンインベストメント,0
585,3010403036728,新規,0,2025-12-03,2025-12-03,合同会社ＭｏｏｎＲａｂｂｉｔ,,合同会社,東京都,港区,西麻布２丁目２６番７号ＩＶＹ西麻布ＩＩ１０３,00141722,13,103,1060031,,,,,,,2025-12-03,1,,,,,ムーンラビット,0
586,3010403036744,新規,0,2025-12-03,2025-12-03,合同会社ＴＳＭ１７８,,合同会社,東京都,港区,元赤坂１丁目１番７号,,13,103,1070051,,,,,,,2025-12-03,1,,,,,ティーエスエムヒャクナナジュウハチ,0
594,3010801036833,新規,0,2025-12-03,2025-12-03,ＧＮＯ株式会社,,株式会社,東京都,大田区,西蒲田７丁目４－４小山第２ビル６Ｆ,,13,111,1440051,,,,,,,2025-12-03,1,,,,,ジーエヌオー,0
603,3011001173748,新規,0,2025-12-03,2025-12-03,株式会社ジェイドグリーン,,株式会社,東京都,渋谷区,恵比寿西２丁目４番８号ウィンド恵比寿ビル８Ｆ,,13,113,1500021,,,,,,,2025-12-03,1,,,,,ジェイドグリーン,0
604,3011001174003,新規,0,2025-12-03,2025-12-03,株式会社Ｃｒａｚｙ　Ｍａｐｌｅ　Ｓｔｕｄｉｏ　Ｊａｐａｎ,,株式会社,東京都,渋谷区,渋谷２丁目２４番１２号渋谷スクランブルスクエア３９Ｆ,,13,113,1500002,,,,,,,2025-12-03,1,,,,,クレイジーメープルスタジオジャパン,0
605,3011001174011,新規,0,2025-12-03,2025-12-03,株式会社ＹＭＡ,,株式会社,東京都,目黒区,大橋２丁目７番１４号ＹＭＡ３０３,,13,110,1530044,,,,,,,2025-12-03,1,,,,,ワイエムエー,0
606,3011005011276,新規,0,2025-12-03,2025-12-03,一般財団法人茶の美術振興財団,,その他の設立登記法人,東京都,目黒区,三田２丁目１０番２２－６０３号,,13,110,1530062,,,,,,,2025-12-03,1,,,,,チャノビジュツシンコウザイダン,0
630,3011601029192,新規,0,2025-12-03,2025-12-03,株式会社ＤＪ　Ｉｎｓｉｇｈｔ,,株式会社,東京都,練馬区,中村北２丁目７番１４号,,13,120,1760023,,,,,,,2025-12-03,1,,,,,ディージェイインサイト,0
636,3012303002256,新規,0,2025-12-03,2025-12-03,合同会社ＰｏｕｒＴｏｉ,,合同会社,東京都,町田市,本町田３６７４番地４アヴィタシオン２０３,,13,209,1940032,,,,,,,2025-12-03,1,,,,,プルトワ,0
638,3012401043879,新規,0,2025-12-03,2025-12-03,株式会社三代目の志,,株式会社,東京都,調布市,布田１丁目１４番地１プライム・ウィズ・カリファＢ１,,13,208,1820024,,,,,,,2025-12-03,1,,,,,サンダイメノココロザシ,0
641,3012803003935,新規,0,2025-12-03,2025-12-03,合同会社エフズ不動産,,合同会社,東京都,立川市,曙町３丁目３５番３号テラスハウス東,00141703,13,202,1900012,,,,,,,2025-12-03,1,,,,,エフズフドウサン,0
646,3013301055394,新規,0,2025-12-03,2025-12-03,株式会社ペイメント,,株式会社,東京都,豊島区,池袋本町４丁目１１番９－１０６号,,13,116,1700011,,,,,,,2025-12-03,1,,,,,ペイメント,0
649,3020001166018,新規,0,2025-12-03,2025-12-03,株式会社スキゴト,,株式会社,神奈川県,川崎市多摩区,菅５丁目１番１号２０２号室,,14,135,2140001,,,,,,,2025-12-03,1,,,,,スキゴト,0
651,3020003029890,新規,0,2025-12-03,2025-12-03,合同会社ラクマス,,合同会社,神奈川県,横浜市西区,浅間町１丁目４番地３ウィザードビル４０２,,14,103,2200072,,,,,,,2025-12-03,1,,,,,ラクマス,0
654,3021001086940,新規,0,2025-12-03,2025-12-03,株式会社トリエ,,株式会社,神奈川県,鎌倉市,長谷３丁目５番２１号,,14,204,2480016,,,,,,,2025-12-03,1,,,,,トリエ,0
655,3021001086973,新規,0,2025-12-03,2025-12-03,株式会社ＩＥＭＥＣ　ＪＡＰＡＮ,,株式会社,神奈川県,相模原市南区,上鶴間本町４丁目４９番１８号エスペラン相模大野２０１,,14,153,2520318,,,,,,,2025-12-03,1,,,,,アイメックジャパン,0
659,3021003016854,新規,0,2025-12-03,2025-12-03,ＪＳ　ＧＬＯＢＡＬ合同会社,,合同会社,神奈川県,相模原市南区,相武台３丁目２１番１１号キャッスルマンション相武台３０８号,,14,153,2520324,,,,,,,2025-12-03,1,,,,,ジェイエスグローバル,0
660,3021005013478,新規,0,2025-12-03,2025-12-03,特定非営利活動法人コミュニティセンター・フレンズ,,その他の設立登記法人,神奈川県,横須賀市,池上２丁目１０番１８号,,14,201,2380035,,,,,,,2025-12-03,1,,,,,コミュニティセンターフレンズ,0
667,3030001169878,新規,0,2025-12-03,2025-12-03,ゴールデン・ソイル株式会社,,株式会社,埼玉県,本庄市,児玉町塩谷６９９－１,,11,211,3670223,,,,,,,2025-12-03,1,,,,,ゴールデンソイル,0
668,3030001169985,新規,0,2025-12-03,2025-12-03,株式会社ＰＬＥＮＳ,,株式会社,埼玉県,越谷市,神明町１丁目１７番地４,,11,222,3430805,,,,,,,2025-12-03,1,,,,,プレンズ,0
669,3030003028140,新規,0,2025-12-03,2025-12-03,合同会社ＷＡＯＷＡＵ,,合同会社,埼玉県,熊谷市,須賀広２９１番地１,,11,202,3600102,,,,,,,2025-12-03,1,,,,,ワオワウ,0
670,3030003028165,新規,0,2025-12-03,2025-12-03,合同会社ユーフォリアプロパティ,,合同会社,埼玉県,桶川市,大字川田谷４８８８番地,,11,231,3630027,,,,,,,2025-12-03,1,,,,,ユーフォリアプロパティ,0
676,3040001141596,新規,0,2025-12-03,2025-12-03,株式会社ケア,,株式会社,千葉県,千葉市稲毛区,小仲台９丁目６番１８号,,12,103,2630043,,,,,,,2025-12-03,1,,,,,ケア,0
681,3060003005847,新規,0,2025-12-03,2025-12-03,合同会社ＰＲＯＵＤ,,合同会社,栃木県,足利市,八幡町８３０番地６,,09,202,3260824,,,,,,,2025-12-03,1,,,,,プラウド,0
682,3060003005871,新規,0,2025-12-03,2025-12-03,合同会社ロート・スカイアーツ・グループ,,合同会社,栃木県,塩谷郡高根沢町,大字宝積寺１２２６番地１１,,09,386,3291233,,,,,,,2025-12-03,1,,,,,ロートスカイアーツグループ,0
684,3070001043609,新規,0,2025-12-03,2025-12-03,株式会社ｓｕｐｒｅｍｅ　ｔａｂｌｅ,,株式会社,群馬県,高崎市,柳川町７番地３,,10,202,3700815,,,,,,,2025-12-03,1,,,,,シュプリームターブル,0
685,3070001043617,新規,0,2025-12-03,2025-12-03,株式会社小池解体,,株式会社,群馬県,佐波郡玉村町,大字五料３７６番地２０,,10,464,3701115,,,,,,,2025-12-03,1,,,,,コイケカイタイ,0
687,3080101025927,新規,0,2025-12-03,2025-12-03,株式会社トールンジャ,,株式会社,静岡県,富士市,江尾４２８番地,,22,210,4170811,,,,,,,2025-12-03,1,,,,,トールンジャ,0
688,3080401028290,新規,0,2025-12-03,2025-12-03,株式会社Ｒｅ．ｃｈａｎｇｅ,,株式会社,静岡県,浜松市中央区,小池町２５０４番地の２,,22,138,4350056,,,,,,,2025-12-03,1,,,,,リチェンジ,0
689,3090001019631,新規,0,2025-12-03,2025-12-03,ＳＡＴＯ国際株式会社,,株式会社,山梨県,甲府市,和戸町１０８番地１,,19,201,4000812,,,,,,,2025-12-03,1,,,,,サトウコクサイ,0
692,3100001039157,新規,0,2025-12-03,2025-12-03,株式会社ピュアアップル,,株式会社,長野県,長野市,大字赤沼１６８８番地,,20,201,3810001,,,,,,,2025-12-03,1,,,,,ピュアアップル,0
695,3110001039759,新規,0,2025-12-03,2025-12-03,株式会社ＭＫファイブ,,株式会社,新潟県,燕市,八王寺２５１３番地１,,15,213,9591264,,,,,,,2025-12-03,1,,,,,エムケーファイブ,0
708,3120001282374,新規,0,2025-12-03,2025-12-03,ＸＣＬ株式会社,,株式会社,大阪府,大阪市浪速区,敷津西１丁目１０－２５グリーンハイツ４０１号室,,27,111,5560015,,,,,,,2025-12-03,1,,,,,エックスシーエル,0
709,3120001282390,新規,0,2025-12-03,2025-12-03,株式会社ＪＵＮＫ　ＳＴＡＮＤＡＲＤ,,株式会社,大阪府,大阪市平野区,加美東２丁目２番９号,,27,126,5470002,,,,,,,2025-12-03,1,,,,,ジャンクスタンダード,0
710,3120001282399,新規,0,2025-12-03,2025-12-03,Ｓｑｕａｒｅ株式会社,,株式会社,大阪府,大阪市中央区,南船場３丁目２番２２号おおきに南船場ビル２０５,,27,128,5420081,,,,,,,2025-12-03,1,,,,,スクエア,0
713,3120003031341,新規,0,2025-12-03,2025-12-03,合同会社ＡＢｅＭＡ,,合同会社,大阪府,大阪市住之江区,南港中５丁目５番３７－２０３号,,27,125,5590033,,,,,,,2025-12-03,1,,,,,アベーマ,0
719,3120101072881,新規,0,2025-12-03,2025-12-03,株式会社カインドフィール,,株式会社,大阪府,堺市南区,豊田８４１番地１アンジュリヴェールＤ１０８,,27,145,5900106,,,,,,,2025-12-03,1,,,,,カインドフィール,0
721,3120103006879,新規,0,2025-12-03,2025-12-03,合同会社ＹＣキャピタル,,合同会社,大阪府,堺市中区,深井水池町２８１２番地１,,27,142,5998237,,,,,,,2025-12-03,1,,,,,ワイシーキャピタル,0
722,3120901051903,新規,0,2025-12-03,2025-12-03,株式会社はなまるプラス,,株式会社,大阪府,箕面市,桜１丁目８－８－１,,27,220,5620041,,,,,,,2025-12-03,1,,,,,ハナマルプラス,0
727,3122001039960,新規,0,2025-12-03,2025-12-03,株式会社大阪エスト,,株式会社,大阪府,東大阪市,下六万寺町３丁目１番３５号,,27,227,5798066,,,,,,,2025-12-03,1,,,,,オオサカエスト,0
728,3122001039969,新規,0,2025-12-03,2025-12-03,株式会社ＴＯＭＯ,,株式会社,大阪府,東大阪市,西岩田３丁目５番３９－１６１７号,,27,227,5780947,,,,,,,2025-12-03,1,,,,,トモ,0
730,3130001081098,新規,0,2025-12-03,2025-12-03,株式会社ＳＴ　Ｃａｐｉｔａｌ　Ｐａｒｔｎｅｒｓ,,株式会社,京都府,京都市中京区,高倉通夷川上る福屋町７１８吉原ビル２階,,26,104,6040882,,,,,,,2025-12-03,1,,,,,エスティーキャピタルパートナーズ,0
731,3130001081115,新規,0,2025-12-03,2025-12-03,ＫＯＴＯ　ＪＡＰＡＮ株式会社,,株式会社,京都府,京都市山科区,大宅沢町４１,,26,110,6078193,,,,,,,2025-12-03,1,,,,,コトジャパン,0
732,3130001081123,新規,0,2025-12-03,2025-12-03,株式会社ｍｏｎｋｅｙポッド,,株式会社,京都府,京都市南区,吉祥院西浦町５４－１１,,26,107,6018352,,,,,,,2025-12-03,1,,,,,モンキーポッド,0
733,3130001081148,新規,0,2025-12-03,2025-12-03,株式会社縁亜蘭,,株式会社,京都府,京都市東山区,今熊野日吉町３９番地４,,26,105,6050925,,,,,,,2025-12-03,1,,,,,エニシアラン,0
740,3140001140943,新規,0,2025-12-03,2025-12-03,株式会社ＯＫライフ,,株式会社,兵庫県,明石市,魚住町清水１５５０番地の２２,,28,203,6740074,,,,,,,2025-12-03,1,,,,,オーケーライフ,0
741,3140001140968,新規,0,2025-12-03,2025-12-03,株式会社ｓｗｅｅｔ,,株式会社,兵庫県,神戸市灘区,原田通２丁目１番１号テクノビル２階,,28,102,6570837,,,,,,,2025-12-03,1,,,,,スウィート,0
745,3140003022909,新規,0,2025-12-03,2025-12-03,日本満右脳文化合同会社,,合同会社,兵庫県,神戸市中央区,元町通６丁目２番３４－３０３号,,28,110,6500022,,,,,,,2025-12-03,1,,,,,ニホンマンウノウブンカ,0
755,3160003003667,新規,0,2025-12-03,2025-12-03,合同会社匠電,,合同会社,滋賀県,栗東市,小柿９丁目７番３５号１０１,,25,208,5203024,,,,,,,2025-12-03,1,,,,,ショウデン,0
764,3180001169665,新規,0,2025-12-03,2025-12-03,トウゴー株式会社,,株式会社,愛知県,愛知郡東郷町,大字諸輪字尼ケ根３４番地８,,23,302,4700151,,,,,,,2025-12-03,1,,,,,トウゴー,0
765,3180001169723,新規,0,2025-12-03,2025-12-03,株式会社ＭＨＭ　ｃｏｒｐｏｒａｔｉｏｎ,,株式会社,愛知県,春日井市,如意申町６丁目１２番地８,,23,206,4860918,,,,,,,2025-12-03,1,,,,,エムエイチエムコーポレーション,0
766,3180001169748,新規,0,2025-12-03,2025-12-03,株式会社Ｍｉｇｈｔｙ　Ｏａｋ,,株式会社,愛知県,名古屋市中区,金山２丁目１番２１号,,23,106,4600022,,,,,,,2025-12-03,1,,,,,マイティオーク,0
776,3180301040468,新規,0,2025-12-03,2025-12-03,ＥＡＭＥ株式会社,,株式会社,愛知県,額田郡幸田町,大字相見字蒲原９２番地,,23,501,4440117,,,,,,,2025-12-03,1,,,,,,0
782,3190001032731,新規,0,2025-12-03,2025-12-03,株式会社岩嶋屋,,株式会社,三重県,三重郡菰野町,大字池底３１０番地,,24,341,5101221,,,,,,,2025-12-03,1,,,,,イワシマヤ,0
783,3190003005280,新規,0,2025-12-03,2025-12-03,パワーメッシュ合同会社,,合同会社,三重県,亀山市,関町金場７５４番地,,24,210,5191123,,,,,,,2025-12-03,1,,,,,パワーメッシュ,0
786,3200001044485,新規,0,2025-12-03,2025-12-03,株式会社寿,,株式会社,岐阜県,羽島郡岐南町,薬師寺３丁目５番地,,21,302,5016014,,,,,,,2025-12-03,1,,,,,コトブキ,0
795,3250001021455,新規,0,2025-12-03,2025-12-03,株式会社ＴＧＡ,,株式会社,山口県,宇部市,寿町２丁目９番１１号,,35,202,7550032,,,,,,,2025-12-03,1,,,,,ティージーエー,0
799,3260001040776,新規,0,2025-12-03,2025-12-03,株式会社アン・ドゥー,,株式会社,岡山県,岡山市中区,高屋３５６番地３,,33,102,7038233,,,,,,,2025-12-03,1,,,,,アンドゥー,0
806,3290001112366,新規,0,2025-12-03,2025-12-03,ＴＦ　Ｇｒｅｅｎ　Ｅｎｅｒｇｙ株式会社,,株式会社,福岡県,福岡市博多区,築港本町２番３号ふよう港ハイツ１０５,,40,132,8120021,,,,,,,2025-12-03,1,,,,,ティーエフグリーンエナジー,0
807,3290001112408,新規,0,2025-12-03,2025-12-03,株式会社山鉄工業,,株式会社,福岡県,福津市,八並１５３９番地の５Ｇ,,40,224,8113201,,,,,,,2025-12-03,1,,,,,ヤマテツコウギョウ,0
817,3290803005214,新規,0,2025-12-03,2025-12-03,合同会社Ｐｒｏｖｉｄｅ　Ｃａｒｅ　Ｍａｎａｇｅｍｅｎｔ,,合同会社,福岡県,遠賀郡遠賀町,大字木守５７６番地,,40,384,8114313,,,,,,,2025-12-03,1,,,,,プロバイドケアマネジメント,0
828,3320001021464,新規,0,2025-12-03,2025-12-03,株式会社ダイソーホールディングス,,株式会社,大分県,大分市,大字片島２９９５番地の５,,44,201,8700943,,,,,,,2025-12-03,1,,,,,ダイソーホールディングス,0
830,3330003011339,新規,0,2025-12-03,2025-12-03,合同会社Ｎサイト,,合同会社,熊本県,菊池郡菊陽町,光の森５丁目７番地１１,,43,404,8691108,,,,,,,2025-12-03,1,,,,,エヌサイト,0
839,3400003003568,新規,0,2025-12-03,2025-12-03,合同会社ｙｏｇａ　ｊｏｕｒｎｅｙ,,合同会社,岩手県,盛岡市,中央通１丁目７－３５コアフィールドモリオカ１階,,03,201,0200021,,,,,,,2025-12-03,1,,,,,ヨガジャーニー,0
843,3420003003211,新規,0,2025-12-03,2025-12-03,Ａｏｍｏｒｉ　Ｅｘｐｅｒｉｅｎｃｅ合同会社,,合同会社,青森県,十和田市,大字八斗沢字八斗沢１８５番地１,,02,206,0340105,,,,,,,2025-12-03,1,,,,,アオモリエクスペリエンス,0
850,3470001020996,新規,0,2025-12-03,2025-12-03,株式会社Ｎ・Ｋ興産,,株式会社,香川県,高松市,瀬戸内町３０番７３号,,37,201,7600012,,,,,,,2025-12-03,1,,,,,エヌケーコウサン,0
851,3480001013025,新規,0,2025-12-03,2025-12-03,株式会社アクティア,,株式会社,徳島県,阿波市,阿波町北岡２８番地,,36,206,7711706,,,,,,,2025-12-03,1,,,,,アクティア,0
857,3700150133146,新規,0,2025-12-03,2025-12-03,Ｗｕｈｕ　Ｌｉｎｇｔｕｏ　Ｅ－Ｃｏｍｍｅｒｃｅ　Ｃｏ．，Ｌｔｄ．,,外国会社等,,,,,,,,５ｔｈ　Ｂｕｉｌｄｉｎｇ，Ｎｏ．１６８８　Ｙａｎｇｇｕａｎｇ　Ａｖｅｎｕｅ，Ｘｉｎｗｕ　Ｅｃｏｎｏｍｉｃ　Ｄｅｖｅｌｏｐｍｅｎｔ　Ｚｏｎｅ，Ｗａｎｚｈｉ　Ｄｉｓｔｒｉｃｔ，Ｗｕｈｕ　Ｃｉｔｙ，Ａｎｈｕｉ　Ｐｒｏｖｉｎｃｅ，Ｃｈｉｎａ,,,,,,2025-12-03,1,,,,,ウーフーリングトゥオイーコマースカンパニーリミテッド,0
858,3700150133154,新規,0,2025-12-03,2025-12-03,Ｈ．Ｍ．ＭＯＴＯＲ　ＺＯＮＥ,,外国会社等,千葉県,山武市,木原８５３番地１,,12,237,2891212,スリランカ民主社会主義共和国、ポロンナルワ、メインストリート、Ｎｏ．２１／７,,,,,,2025-12-03,1,,,,,エイチエムモーターゾーン,0
869,4010103002707,新規,0,2025-12-03,2025-12-03,合同会社マルガミ,,合同会社,東京都,八王子市,三崎町９番９号,,13,201,1920084,,,,,,,2025-12-03,1,,,,,マルガミ,0
878,4010401194824,新規,0,2025-12-03,2025-12-03,株式会社ＶｉＺＺ,,株式会社,東京都,港区,芝浦４丁目１２番３３号芝浦新本ビル３階,,13,103,1080023,,,,,,,2025-12-03,1,,,,,ヴィズ,0
879,4010401194881,新規,0,2025-12-03,2025-12-03,株式会社ａＮＣＨＯＲ分割準備会社,,株式会社,東京都,港区,三田１丁目４番１号,,13,103,1080073,,,,,,,2025-12-03,1,,,,,アンカーブンカツジュンビガイシャ,0
880,4010401194898,新規,0,2025-12-03,2025-12-03,ＧＬＩＮ　Ｉｍｐａｃｔ　Ｃａｐｉｔａｌ株式会社,,株式会社,東京都,港区,虎ノ門４丁目３番１号,,13,103,1050001,,,,,,,2025-12-03,1,,,,,グリンインパクトキャピタル,0
881,4010401194915,新規,0,2025-12-03,2025-12-03,株式会社ＲＹＵ,,株式会社,東京都,港区,南麻布４丁目９番３４－６０２号,,13,103,1060047,,,,,,,2025-12-03,1,,,,,リュウ,0
882,4010403036719,新規,0,2025-12-03,2025-12-03,合同会社Ｒｅｄ　Ｓｉｇｍａ,,合同会社,東京都,港区,六本木３丁目１６番１２号六本木ＫＳビル５Ｆ,,13,103,1060032,,,,,,,2025-12-03,1,,,,,レッドシグマ,0
883,4010403036735,新規,0,2025-12-03,2025-12-03,合同会社ＨｉＪｏＪｏ　Ｆｕｎｄ５２,,合同会社,東京都,港区,西新橋１丁目７番２号,,13,103,1050003,,,,,,,2025-12-03,1,,,,,ヒジョージョーファンドゴジュウニ,0
884,4010403036743,新規,0,2025-12-03,2025-12-03,合同会社ＴＳＭ１７７,,合同会社,東京都,港区,元赤坂１丁目１番７号,,13,103,1070051,,,,,,,2025-12-03,1,,,,,ティーエスエムヒャクナナジュウナナ,0
885,4010405025083,新規,0,2025-12-03,2025-12-03,デルタインベストメンツ一般社団法人,,その他の設立登記法人,東京都,港区,六本木１丁目６番１号泉ガーデンタワー,,13,103,1060032,,,,,,,2025-12-03,1,,,,,デルタインベストメンツ,0
891,4010601068373,新規,0,2025-12-03,2025-12-03,株式会社ＦＩＲＳＴＤＲＩＶＥ,,株式会社,東京都,江東区,北砂７丁目８番１７号,,13,108,1360073,,,,,,,2025-12-03,1,,,,,ファーストドライブ,0
906,4011001174010,新規,0,2025-12-03,2025-12-03,株式会社ＫＺＭ,,株式会社,東京都,渋谷区,南平台町１２番９号,,13,113,1500036,,,,,,,2025-12-03,1,,,,,ケーゼットエム,0
907,4011001174035,新規,0,2025-12-03,2025-12-03,株式会社ＭＳ　ｃｌｕｔｃｈ,,株式会社,東京都,渋谷区,千駄ヶ谷３丁目５２番５号原宿ニュースカイハイツアネックス５０３,,13,113,1510051,,,,,,,2025-12-03,1,,,,,エムエスクラッチ,0
910,4011003022992,新規,0,2025-12-03,2025-12-03,合同会社ＬＩＦＥ　ＣＡＲＥ,,合同会社,東京都,渋谷区,代々木２丁目３９－７メゾン代々木３０２,,13,113,1510053,,,,,,,2025-12-03,1,,,,,ライフケア,0
917,4011101114122,新規,0,2025-12-03,2025-12-03,株式会社穣,,株式会社,東京都,新宿区,西新宿６丁目５番１号新宿アイランドタワー２階,,13,104,1600023,,,,,,,2025-12-03,1,,,,,ジョウ,0
920,4011301031092,新規,0,2025-12-03,2025-12-03,株式会社キーイン,,株式会社,東京都,杉並区,高円寺北２丁目２３番６号ＴＳホームズ１０２,,13,115,1660002,,,,,,,2025-12-03,1,,,,,キーイン,0
943,4013301055393,新規,0,2025-12-03,2025-12-03,株式会社ＢＡＳＥ　ＤＥＬ　ＲＩＯ,,株式会社,東京都,豊島区,南長崎３丁目１０番６号ララメルシエ２０３号,,13,116,1710052,,,,,,,2025-12-03,1,,,,,バセデルリオ,0
944,4013303007979,新規,0,2025-12-03,2025-12-03,ＴＡＫＡＫＡ合同会社,,合同会社,東京都,豊島区,南長崎６丁目１５－２セザール東長崎６０１号,,13,116,1710052,,,,,,,2025-12-03,1,,,,,タカカ,0
949,4020001166017,新規,0,2025-12-03,2025-12-03,株式会社Ｆｒｅｅｄｉａ,,株式会社,神奈川県,横浜市緑区,竹山４丁目３－３竹山団地４３１６－１６４３,,14,113,2260005,,,,,,,2025-12-03,1,,,,,フリーディア,0
950,4020001166090,新規,0,2025-12-03,2025-12-03,エソール株式会社,,株式会社,神奈川県,横浜市港南区,港南５丁目１４番４２号,,14,111,2330003,,,,,,,2025-12-03,1,,,,,エソール,0
951,4020003029881,新規,0,2025-12-03,2025-12-03,ＯＺｉ合同会社,,合同会社,神奈川県,横浜市神奈川区,神之木台４－１７,,14,102,2210011,,,,,,,2025-12-03,1,,,,,オジ,0
960,4021005013477,新規,0,2025-12-03,2025-12-03,ＮＰＯ法人わたぼうし,,その他の設立登記法人,神奈川県,横須賀市,坂本町２丁目３２番地,,14,201,2380043,,,,,,,2025-12-03,1,,,,,ワタボウシ,0
967,4030003028073,新規,0,2025-12-03,2025-12-03,晃立合同会社,,合同会社,埼玉県,大里郡寄居町,大字富田１９番地３,,11,408,3691216,,,,,,,2025-12-03,1,,,,,コウリツ,0
968,4030003028180,新規,0,2025-12-03,2025-12-03,合同会社新輝堂,,合同会社,埼玉県,比企郡小川町,大字高見８２番地１,,11,343,3550306,,,,,,,2025-12-03,1,,,,,シンキドウ,0
969,4030003028214,新規,0,2025-12-03,2025-12-03,合同会社田渕商会,,合同会社,埼玉県,川口市,大字辻１１７２番地ポルトボヌール１０３号,,11,203,3340004,,,,,,,2025-12-03,1,,,,,タブチショウカイ,0
977,4040001141604,新規,0,2025-12-03,2025-12-03,株式会社ＤＭグループ観光,,株式会社,千葉県,成田市,西三里塚１番地５７,,12,211,2860115,,,,,,,2025-12-03,1,,,,,ディーエムグループカンコウ,0
978,4040001141620,新規,0,2025-12-03,2025-12-03,株式会社Ｈａｒｅｇｒａｐｈｙ　Ｓｔｕｄｉｏ,,株式会社,千葉県,八千代市,八千代台北１１丁目２１－２１,,12,221,2760031,,,,,,,2025-12-03,1,,,,,ハレグラフィースタジオ,0
979,4040001141629,新規,0,2025-12-03,2025-12-03,株式会社ＹＵＭＩ,,株式会社,千葉県,市川市,本北方２丁目２１－１５ハイツカサブランカ１０２号,,12,203,2720816,,,,,,,2025-12-03,1,,,,,ユミ,0
1001,4110003005989,新規,0,2025-12-03,2025-12-03,合同会社飯田設備,,合同会社,新潟県,上越市,大字岩木４７５番地２４,,15,222,9430814,,,,,,,2025-12-03,1,,,,,イイダセツビ,0
1018,4120001282349,新規,0,2025-12-03,2025-12-03,路泰科技株式会社,,株式会社,大阪府,大阪市中央区,瓦町１丁目３番２－３１１号,,27,128,5410048,,,,,,,2025-12-03,1,,,,,ロヤスカギ,0
1019,4120001282365,新規,0,2025-12-03,2025-12-03,株式会社華屋,,株式会社,大阪府,大阪市港区,三先１丁目１２番９号,,27,107,5520016,,,,,,,2025-12-03,1,,,,,ハナヤ,0
1020,4120001282373,新規,0,2025-12-03,2025-12-03,株式会社Ｂ・Ａ・Ｓ,,株式会社,大阪府,大阪市住吉区,庭井２丁目２０番１号,,27,120,5580012,,,,,,,2025-12-03,1,,,,,ビーエーエス,0
1021,4120001282381,新規,0,2025-12-03,2025-12-03,株式会社Ｓａｋｕｒａ　Ｇｒｏｕｐ,,株式会社,大阪府,大阪市福島区,福島７丁目６番１９号ハイツ古高４階,,27,103,5530003,,,,,,,2025-12-03,1,,,,,サクラグループ,0
1022,4120001282398,新規,0,2025-12-03,2025-12-03,株式会社わらし,,株式会社,大阪府,大阪市淀川区,三津屋中２丁目１５番３号１０１,,27,123,5320036,,,,,,,2025-12-03,1,,,,,ワラシ,0
1023,4120001282415,新規,0,2025-12-03,2025-12-03,株式会社一志,,株式会社,大阪府,大阪市東住吉区,西今川１丁目２０番１６号,,27,121,5460042,,,,,,,2025-12-03,1,,,,,イッシ,0
1024,4120001282489,新規,0,2025-12-03,2025-12-03,株式会社モウモウ,,株式会社,大阪府,大阪市中央区,西心斎橋２丁目３番１６号３Ｆ,,27,128,5420086,,,,,,,2025-12-03,1,,,,,モウモウ,0
1027,4120003031349,新規,0,2025-12-03,2025-12-03,Ｂｋｅｙ合同会社,,合同会社,大阪府,大阪市西成区,天下茶屋東１丁目３－１３－２０２,,27,122,5570011,,,,,,,2025-12-03,1,,,,,ビーケイ,0
1028,4120003031365,新規,0,2025-12-03,2025-12-03,合同会社ＳＩ,,合同会社,大阪府,大阪市城東区,鴫野西３丁目１番２７－５０３号,,27,118,5360014,,,,,,,2025-12-03,1,,,,,エスアイ,0
1032,4120101072889,新規,0,2025-12-03,2025-12-03,株式会社ナカヤマ設備,,株式会社,大阪府,堺市堺区,東雲東町四丁１番２号,,27,141,5900000,,,,,,,2025-12-03,1,,,,,ナカヤマセツビ,0
1036,4122001039968,新規,0,2025-12-03,2025-12-03,株式会社棕櫚,,株式会社,大阪府,八尾市,刑部３丁目５１番地の１,,27,212,5810015,,,,,,,2025-12-03,1,,,,,シュロ,0
1038,4130001081130,新規,0,2025-12-03,2025-12-03,株式会社ＮＯＲＴＨ　ＦＩＥＬＤ　ＧＬＯＲＹ,,株式会社,京都府,京都市北区,上賀茂高縄手町１０７番地,,26,101,6038055,,,,,,,2025-12-03,1,,,,,ノースフィールドグローリー,0
1046,4140001140926,新規,0,2025-12-03,2025-12-03,株式会社スミケン,,株式会社,兵庫県,姫路市,飾磨区今在家１３５１番地１７,,28,201,6728079,,,,,,,2025-12-03,1,,,,,スミケン,0
1047,4140001140934,新規,0,2025-12-03,2025-12-03,株式会社ＫＯＴＥＲＡ,,株式会社,兵庫県,川西市,加茂３丁目１５番８号,,28,217,6660025,,,,,,,2025-12-03,1,,,,,コテラ,0
1048,4140001140942,新規,0,2025-12-03,2025-12-03,株式会社Ｏｍａｅ,,株式会社,兵庫県,神戸市中央区,小野柄通７丁目１番５号マキビル５０２号室,,28,110,6510088,,,,,,,2025-12-03,1,,,,,オオマエ,0
1049,4140001140950,新規,0,2025-12-03,2025-12-03,株式会社ＴｈｉｎＣｒｏｌｌ,,株式会社,兵庫県,西宮市,段上町６丁目３番３６－２０２号,,28,204,6638006,,,,,,,2025-12-03,1,,,,,シンクロール,0
1050,4140003022924,新規,0,2025-12-03,2025-12-03,合同会社Ｔａｓｋ　Ｄａｓｈ,,合同会社,兵庫県,姫路市,西庄甲２１４－１２,,28,201,6700981,,,,,,,2025-12-03,1,,,,,タスクダッシュ,0
1063,4150003003766,新規,0,2025-12-03,2025-12-03,合同会社暁製麺,,合同会社,奈良県,磯城郡田原本町,大字阪手１３８番地の３,,29,363,6360247,,,,,,,2025-12-03,1,,,,,アカツキセイメン,0
1077,4180001169706,新規,0,2025-12-03,2025-12-03,株式会社ＳＴＡＲ　ＦＡＬＬ,,株式会社,愛知県,名古屋市西区,押切１丁目２‐１２成田ビル３０３,,23,104,4510063,,,,,,,2025-12-03,1,,,,,スターフォール,0
1078,4180001169722,新規,0,2025-12-03,2025-12-03,株式会社亀島駅前歯科矯正歯科,,株式会社,愛知県,名古屋市中村区,井深町１７番２７号斉藤マンション１階Ｂ号室,,23,105,4530012,,,,,,,2025-12-03,1,,,,,カメジマエキマエシカキョウセイシカ,0
1079,4180001169755,新規,0,2025-12-03,2025-12-03,株式会社柴田企画,,株式会社,愛知県,西春日井郡豊山町,大字豊場字西之町６３番地,,23,342,4800202,,,,,,,2025-12-03,1,,,,,シバタキカク,0
1080,4180001169771,新規,0,2025-12-03,2025-12-03,ｍｏｔｉｖ株式会社,,株式会社,愛知県,名古屋市昭和区,川名本町２丁目５１番地,,23,107,4660855,,,,,,,2025-12-03,1,,,,,モティブ,0
1094,4180303006821,新規,0,2025-12-03,2025-12-03,合同会社Ｌ４Ｙ,,合同会社,愛知県,豊田市,栄町４丁目３２,,23,211,4710066,,,,,,,2025-12-03,1,,,,,,0
1102,4200001044492,新規,0,2025-12-03,2025-12-03,株式会社エムフォー,,株式会社,岐阜県,恵那市,長島町中野８２９―７,,21,210,5097205,,,,,,,2025-12-03,1,,,,,エムフォー,0
1113,4240001065849,新規,0,2025-12-03,2025-12-03,株式会社ＩＳｔｅｃｈ,,株式会社,広島県,広島市安佐南区,山本７丁目１６番２７号,,34,105,7310137,,,,,,,2025-12-03,1,,,,,アイエステック,0
1116,4260001040783,新規,0,2025-12-03,2025-12-03,株式会社ＭＳシーズ,,株式会社,岡山県,岡山市北区,中仙道１丁目６番９号,,33,101,7000964,,,,,,,2025-12-03,1,,,,,エムエスシーズ,0
1117,4260003005438,新規,0,2025-12-03,2025-12-03,合同会社ｗｅｓｔｅｒｎｔｉｍｅｓ,,合同会社,岡山県,倉敷市,玉島阿賀崎１丁目２番２０号,,33,202,7138121,,,,,,,2025-12-03,1,,,,,ウエスタンタイムズ,0
1127,4290001112316,新規,0,2025-12-03,2025-12-03,株式会社坂口設備工業,,株式会社,福岡県,福岡市西区,橋本１丁目２７番１３号,,40,135,8190031,,,,,,,2025-12-03,1,,,,,サカグチセツビコウギョウ,0
1128,4290001112340,新規,0,2025-12-03,2025-12-03,株式会社ＳＥＴＯ１９９０,,株式会社,福岡県,福岡市南区,寺塚１丁目７番４１－４０２号,,40,134,8150074,,,,,,,2025-12-03,1,,,,,セトイチキュウキュウゼロ,0
1134,4290801032069,新規,0,2025-12-03,2025-12-03,シニアエンジニアリング株式会社,,株式会社,福岡県,北九州市八幡西区,星ケ丘１丁目６番１９号,,40,109,8071264,,,,,,,2025-12-03,1,,,,,シニアエンジニアリング,0
1135,4300001014428,新規,0,2025-12-03,2025-12-03,株式会社ＡＩＭ　ＣＯＮＮＥＣＴ,,株式会社,佐賀県,佐賀市,北川副町大字新郷３９番地１２,,41,201,8400013,,,,,,,2025-12-03,1,,,,,エイムコネクト,0
1137,4310001019871,新規,0,2025-12-03,2025-12-03,株式会社Ｓ１Ｒ,,株式会社,長崎県,大村市,池田２丁目２６７番地３,,42,205,8560026,,,,,,,2025-12-03,1,,,,,エスワンアール,0
1138,4320001021463,新規,0,2025-12-03,2025-12-03,コネクトパートナーズ株式会社,,株式会社,大分県,大分市,明野南１丁目２５番２９号,,44,201,8700163,,,,,,,2025-12-03,1,,,,,コネクトパートナーズ,0
1141,4330001033796,新規,0,2025-12-03,2025-12-03,株式会社Ｋｚ,,株式会社,熊本県,熊本市南区,良町３丁目３番３３号,,43,104,8620969,,,,,,,2025-12-03,1,,,,,ケーズ,0
1147,4380001035722,新規,0,2025-12-03,2025-12-03,株式会社ヤスタホールディングス,,株式会社,福島県,二本松市,西町５３番地,,07,210,9640856,,,,,,,2025-12-03,1,,,,,ヤスタホールディングス,0
1150,4420001019349,新規,0,2025-12-03,2025-12-03,株式会社ＢＲＡＮＤ　ＯＮＥ,,株式会社,青森県,八戸市,大字長苗代字内前田１４－２コーポたなぶ１号,,02,203,0391103,,,,,,,2025-12-03,1,,,,,ブランドワン,0
1163,4700150133153,新規,0,2025-12-03,2025-12-03,ＷＩＥＬＡＮＤ　ＭＥＴＡＬＳ　ＳＩＮＧＡＰＯＲＥ（ＰＴＥ）ＬＴＤ,,外国会社等,,,,,,,,１　ＨＡＲＢＯＵＲＦＲＯＮＴ　ＰＬＡＣＥ，♯０３－１１，ＨＡＲＢＯＵＲＦＲＯＮＴ　ＴＯＷＥＲ　ＯＮＥ，ＳＩＮＧＡＰＯＲＥ０９８６３３,,,,,,2025-12-03,1,,,,,ウイーランドメタルズシンガポールピーテイーイーリミテツド,0
1177,5010401194583,新規,0,2025-12-03,2025-12-03,株式会社Ｎｅｕｒｏｓｐｈｅｒｅ,,株式会社,東京都,港区,西新橋１丁目６－１２アイオス虎ノ門４０４号室,,13,103,1050003,,,,,,,2025-12-03,1,,,,,ニューロスフィア,0
1178,5010401194823,新規,0,2025-12-03,2025-12-03,エイスリープ株式会社,,株式会社,東京都,港区,六本木３丁目１６番１２号六本木ＫＳビル５Ｆ,,13,103,1060032,,,,,,,2025-12-03,1,,,,,エイスリープ,0
1179,5010401194889,新規,0,2025-12-03,2025-12-03,日本海洋重工業株式会社,,株式会社,東京都,港区,六本木４丁目２番４５号２階,,13,103,1060032,,,,,,,2025-12-03,1,,,,,ニホンカイヨウジュウコウギョウ,0
1181,5010403036726,新規,0,2025-12-03,2025-12-03,合同会社Ｎａｔｕｒｉ,,合同会社,東京都,港区,北青山１丁目３番１号アールキューブ青山３階,,13,103,1070061,,,,,,,2025-12-03,1,,,,,ナチュリ,0
1182,5010403036734,新規,0,2025-12-03,2025-12-03,合同会社ＨｉＪｏＪｏ．ｎｅｔ３,,合同会社,東京都,港区,西新橋１丁目７番２号,,13,103,1050003,,,,,,,2025-12-03,1,,,,,ヒジョージョードットネットサン,0
1204,5011001173861,新規,0,2025-12-03,2025-12-03,株式会社Ｒ＆Ｋ,,株式会社,東京都,渋谷区,広尾２丁目５番３３号アッシュダール広尾１０４,,13,113,1500012,,,,,,,2025-12-03,1,,,,,アールアンドケー,0
1205,5011001173886,新規,0,2025-12-03,2025-12-03,株式会社エムズ,,株式会社,東京都,目黒区,大橋２丁目９番１２号アーバンコート松見坂３０２,,13,110,1530044,,,,,,,2025-12-03,1,,,,,エムズ,0
1206,5011001174050,新規,0,2025-12-03,2025-12-03,株式会社３ｃｒｅａＸｉｏｎ,,株式会社,東京都,渋谷区,神宮前３丁目１番２６号,,13,113,1500001,,,,,,,2025-12-03,1,,,,,スリークリエイション,0
1210,5011005011274,新規,0,2025-12-03,2025-12-03,一般社団法人空飛ぶ防災協会,,その他の設立登記法人,東京都,渋谷区,上原１丁目３番９号,,13,113,1510064,,,,,,,2025-12-03,1,,,,,ソラトブボウサイキョウカイ,0
1221,5011301031091,新規,0,2025-12-03,2025-12-03,株式会社ハイロア,,株式会社,東京都,杉並区,和田２丁目４６番１２号プラザ東高円寺２０７,,13,115,1660012,,,,,,,2025-12-03,1,,,,,ハイロア,0
1233,5011503006701,新規,0,2025-12-03,2025-12-03,合同会社マリアッティ,,合同会社,東京都,荒川区,西日暮里１丁目４６番７号グランド・メゾンオオツカ３０５,,13,118,1160013,,,,,,,2025-12-03,1,,,,,マリアッティ,0
1240,5011801047133,新規,0,2025-12-03,2025-12-03,株式会社ＫＯＵＭＥＩ,,株式会社,東京都,足立区,保木間４丁目３９番８号,,13,121,1210064,,,,,,,2025-12-03,1,,,,,コウメイ,0
1243,5012401043877,新規,0,2025-12-03,2025-12-03,株式会社Ｈ・ＥＬワークス,,株式会社,東京都,府中市,小柳町３丁目２９番地の３２,,13,206,1830013,,,,,,,2025-12-03,1,,,,,エイチイーエルワークス,0
1250,5013301055392,新規,0,2025-12-03,2025-12-03,ＪａｐａｎＰａｙ株式会社,,株式会社,東京都,豊島区,東池袋１丁目２１番１１号,,13,116,1700013,,,,,,,2025-12-03,1,,,,,ジャパンペイ,0
1251,5013305003802,新規,0,2025-12-03,2025-12-03,一般社団法人在日ベトナムメディア協会,,その他の設立登記法人,東京都,豊島区,南大塚３丁目５５－１第三田村ビル,,13,116,1700005,,,,,,,2025-12-03,1,,,,,ザイニチベトナムメディアキョウカイ,0
1260,5020001165967,新規,0,2025-12-03,2025-12-03,株式会社Ｏｃｔｏｖｉａ,,株式会社,神奈川県,横浜市瀬谷区,橋戸３丁目６番地４８,,14,114,2460037,,,,,,,2025-12-03,1,,,,,オクトビア,0
1261,5020001166016,新規,0,2025-12-03,2025-12-03,株式会社ＳＴＯＲＩＡ,,株式会社,神奈川県,川崎市中原区,小杉陣屋町２丁目８番１５号メゾングランディール小杉１０１,,14,133,2110062,,,,,,,2025-12-03,1,,,,,ストーリア,0
1262,5020001166073,新規,0,2025-12-03,2025-12-03,ｆｏｒ株式会社,,株式会社,神奈川県,横浜市西区,境之谷５２番地４,,14,103,2200054,,,,,,,2025-12-03,1,,,,,フォー,0
1271,5021005013476,新規,0,2025-12-03,2025-12-03,ＮＰＯ法人るぽ,,その他の設立登記法人,神奈川県,横須賀市,公郷町４丁目１１番地６,,14,201,2380022,,,,,,,2025-12-03,1,,,,,ルポ,0
1275,5030001169876,新規,0,2025-12-03,2025-12-03,清禾株式会社,,株式会社,埼玉県,ふじみ野市,苗間４９５番地１９,,11,245,3560052,,,,,,,2025-12-03,1,,,,,セイカ,0
1276,5030001169892,新規,0,2025-12-03,2025-12-03,株式会社ＡＸＩＳ,,株式会社,埼玉県,越谷市,増森１丁目１６３番地１,,11,222,3430012,,,,,,,2025-12-03,1,,,,,アクシス,0
1277,5030001169983,新規,0,2025-12-03,2025-12-03,株式会社トライネオ,,株式会社,埼玉県,越谷市,蒲生寿町１７番１号２階Ｆ号室,,11,222,3430836,,,,,,,2025-12-03,1,,,,,トライネオ,0
1280,5030003028205,新規,0,2025-12-03,2025-12-03,合同会社ＣＬＳ,,合同会社,埼玉県,所沢市,榎町１６番１２号,,11,208,3591104,,,,,,,2025-12-03,1,,,,,シーエルエス,0
1283,5040001141594,新規,0,2025-12-03,2025-12-03,元気商事株式会社,,株式会社,千葉県,成田市,西三里塚２５８番地２,,12,211,2860115,,,,,,,2025-12-03,1,,,,,ゲンキショウジ,0
1289,5040003029061,新規,0,2025-12-03,2025-12-03,合同会社ＵＧＺ,,合同会社,千葉県,松戸市,秋山３８９番地の３,,12,207,2702223,,,,,,,2025-12-03,1,,,,,ユージーゼット,0
1295,5060003005861,新規,0,2025-12-03,2025-12-03,合同会社Ｍ．Ｔ　Ｆａｃｔｏｒｙ,,合同会社,栃木県,小山市,大字横倉新田７番地１５２,,09,208,3230819,,,,,,,2025-12-03,1,,,,,エムティーファクトリー,0
1298,5080001027303,新規,0,2025-12-03,2025-12-03,株式会社丸十,,株式会社,静岡県,静岡市駿河区,下川原３丁目１４番５号,,22,102,4210113,,,,,,,2025-12-03,1,,,,,マルジュウ,0
1299,5080101025925,新規,0,2025-12-03,2025-12-03,株式会社和心,,株式会社,静岡県,富士市,本市場２５９番地の４,,22,210,4160906,,,,,,,2025-12-03,1,,,,,ワゴコロ,0
1300,5080101025933,新規,0,2025-12-03,2025-12-03,株式会社Ｋ‐ｃｏｎｃｅｐｔ　ｄｅｓｉｇｎ,,株式会社,静岡県,御殿場市,清後１６５－２Ｋ‐ｃｏｎｃｅｐｔ　ｄｅｓｉｇｎ,,22,215,4120022,,,,,,,2025-12-03,1,,,,,ケイコンセプトデザイン,0
1301,5080401028297,新規,0,2025-12-03,2025-12-03,株式会社ＳＡＭ,,株式会社,静岡県,浜松市中央区,佐鳴台２丁目１９番１１号,,22,138,4328021,,,,,,,2025-12-03,1,,,,,エスエーエム,0
1308,5100001039163,新規,0,2025-12-03,2025-12-03,ＵＲＥＳＨＩＮＯ株式会社,,株式会社,長野県,長野市,浅川西条４０６番地２３,,20,201,3810057,,,,,,,2025-12-03,1,,,,,ウレシノ,0
1311,5110001039757,新規,0,2025-12-03,2025-12-03,株式会社光,,株式会社,新潟県,加茂市,岡ノ町８番５号,,15,209,9591377,,,,,,,2025-12-03,1,,,,,ヒカリ,0
1312,5110003005988,新規,0,2025-12-03,2025-12-03,合同会社イースト,,合同会社,新潟県,新発田市,舟入町３丁目１０番１６号５,,15,206,9570065,,,,,,,2025-12-03,1,,,,,イースト,0
1321,5120001282281,新規,0,2025-12-03,2025-12-03,スターイノベーション株式会社,,株式会社,大阪府,大阪市西区,江戸堀１丁目２３番１３号,,27,106,5500002,,,,,,,2025-12-03,1,,,,,スターイノベーション,0
1322,5120001282397,新規,0,2025-12-03,2025-12-03,株式会社ロングテール,,株式会社,大阪府,守口市,菊水通３丁目７番９号２Ｆ,,27,209,5700032,,,,,,,2025-12-03,1,,,,,ロングテール,0
1323,5120001282422,新規,0,2025-12-03,2025-12-03,株式会社アサナシア,,株式会社,大阪府,枚方市,香里園町１６番６号,,27,210,5730086,,,,,,,2025-12-03,1,,,,,アサナシア,0
1324,5120001282430,新規,0,2025-12-03,2025-12-03,山中ライティング株式会社,,株式会社,大阪府,守口市,滝井元町３丁目９番７号,,27,209,5700065,,,,,,,2025-12-03,1,,,,,ヤマナカライティング,0
1325,5120001282439,新規,0,2025-12-03,2025-12-03,株式会社アクアウェル,,株式会社,大阪府,大阪市東淀川区,東中島１丁目２０番１２号,,27,114,5330033,,,,,,,2025-12-03,1,,,,,アクアウェル,0
1326,5120001282471,新規,0,2025-12-03,2025-12-03,７９ｄａｙｓ株式会社,,株式会社,大阪府,大阪市生野区,桃谷５丁目９番２３号１階,,27,116,5440034,,,,,,,2025-12-03,1,,,,,ナナキュウデイズ,0
1328,5120101072896,新規,0,2025-12-03,2025-12-03,株式会社Ｖｉｆａ,,株式会社,大阪府,堺市中区,東山６８１番地３,,27,142,5998247,,,,,,,2025-12-03,1,,,,,ヴィファ,0
1332,5120903005970,新規,0,2025-12-03,2025-12-03,合同会社ウエルフロント,,合同会社,大阪府,高槻市,塚原６丁目３番４号,,27,207,5691046,,,,,,,2025-12-03,1,,,,,ウエルフロント,0
1335,5122001039967,新規,0,2025-12-03,2025-12-03,株式会社ＧＭＣ,,株式会社,大阪府,東大阪市,西石切町２丁目８番２１号,,27,227,5798013,,,,,,,2025-12-03,1,,,,,ジーエムシー,0
1337,5130001081096,新規,0,2025-12-03,2025-12-03,マルネ興産株式会社,,株式会社,京都府,京都市北区,鷹峯黒門町３８番地１０,,26,101,6038464,,,,,,,2025-12-03,1,,,,,マルネコウサン,0
1338,5130005017526,新規,0,2025-12-03,2025-12-03,一般社団法人日本儒学研究会,,その他の設立登記法人,京都府,京都市南区,八条通大宮西入ル八条町４３８番大中実業ビル１階,,26,107,6010000,,,,,,,2025-12-03,1,,,,,ニホンジュガクケンキュウカイ,0
1349,5140001140917,新規,0,2025-12-03,2025-12-03,株式会社Ｓｍｏｏｄ,,株式会社,兵庫県,川西市,満願寺町６番５９号,,28,217,6650891,,,,,,,2025-12-03,1,,,,,スムード,0
1350,5140001140941,新規,0,2025-12-03,2025-12-03,株式会社レアーレ,,株式会社,兵庫県,神戸市北区,鈴蘭台北町６丁目１２番１－４０１号,,28,109,6511111,,,,,,,2025-12-03,1,,,,,レアーレ,0
1351,5140001140958,新規,0,2025-12-03,2025-12-03,株式会社ヤマサキエンジニアリング,,株式会社,兵庫県,尼崎市,尾浜町３丁目１４番１４号ロイヤルメゾン２０２号,,28,202,6610022,,,,,,,2025-12-03,1,,,,,ヤマサキエンジニアリング,0
1367,5180001169721,新規,0,2025-12-03,2025-12-03,株式会社Ｍ．Ｓ,,株式会社,愛知県,東海市,富木島町森前４０番地の１０,,23,222,4760011,,,,,,,2025-12-03,1,,,,,エムエス,0
1368,5180001169746,新規,0,2025-12-03,2025-12-03,株式会社福真,,株式会社,愛知県,日進市,浅田町平池２６番地,,23,230,4700124,,,,,,,2025-12-03,1,,,,,フクシン,0
1378,5180003029304,新規,0,2025-12-03,2025-12-03,合同会社Ｍｅｒｃｙｍｉｌｌｉｏｎ　Ｍｕｓｉｃ　Ｐｕｂｌｉｓｈｉｎｇ,,合同会社,愛知県,名古屋市東区,徳川２丁目６－６,,23,102,4610025,,,,,,,2025-12-03,1,,,,,マーシーミリオンミュージックパブリッシング,0
1380,5180301040466,新規,0,2025-12-03,2025-12-03,株式会社ＥｔｅｒｎａＰｌｕｓ,,株式会社,愛知県,安城市,城南町１丁目１３番地６,,23,212,4460043,,,,,,,2025-12-03,1,,,,,エテルナプラス,0
1381,5180301040474,新規,0,2025-12-03,2025-12-03,Ｋａｓｕａｌ　Ｔｅｃｈ株式会社,,株式会社,愛知県,豊橋市,高師町字西沢５１番地の６,,23,201,4418156,,,,,,,2025-12-03,1,,,,,,0
1385,5190003005287,新規,0,2025-12-03,2025-12-03,ＹＯＶＡ合同会社,,合同会社,三重県,四日市市,下之宮町２７９番地１アリエッタＢ－１０３,,24,202,5108028,,,,,,,2025-12-03,1,,,,,ワイオーブイエー,0
1389,5210003001977,新規,0,2025-12-03,2025-12-03,合同会社日刊県民福井敦賀販売店,,合同会社,福井県,敦賀市,清水町１丁目１８番２１号,,18,202,9140052,,,,,,,2025-12-03,1,,,,,ニッカンケンミンフクイツルガハンバイテン,0
1398,5220003004178,新規,0,2025-12-03,2025-12-03,合同会社ＡＩＲ　ＴＡＣＴ,,合同会社,石川県,河北郡津幡町,字中橋ロ３０番地５,,17,361,9290331,,,,,,,2025-12-03,1,,,,,エアタクト,0
1403,5260001040782,新規,0,2025-12-03,2025-12-03,北川商店株式会社,,株式会社,岡山県,赤磐市,周匝８５３番地３,,33,213,7012503,,,,,,,2025-12-03,1,,,,,キタガワショウテン,0
1404,5280003002011,新規,0,2025-12-03,2025-12-03,合同会社こまめＭＳ,,合同会社,島根県,大田市,大田町大田ロ８１４番地７,,32,205,6940064,,,,,,,2025-12-03,1,,,,,コマメエムエス,0
1411,5290001111985,新規,0,2025-12-03,2025-12-03,株式会社ＤＨＡＲＭＡ　ＶＩＨＡＲＡ　ＩＮＴＥＲＮＡＴＩＯＮＡＬ　ＶＩＳＨＷＡＳＨＡＫＴＨＩ　ＭＥＤＩＴＡＴＩＯＮ　ＣＥＮＴＥＲ,,株式会社,福岡県,宗像市,池田１３５０番地,,40,220,8113515,,,,,,,2025-12-03,1,,,,,ダルマヴィハーラインターナショナルヴィシュワシャクティメディテーションセンター,0
1412,5290001112372,新規,0,2025-12-03,2025-12-03,Ｊ＆Ｎケアギバートレーニング株式会社,,株式会社,福岡県,福岡市東区,唐原７丁目１５番５１号,,40,131,8130001,,,,,,,2025-12-03,1,,,,,ジェイアンドエヌケアギバートレーニング,0
1413,5290001112380,新規,0,2025-12-03,2025-12-03,ＦＥＲＵＧＡ　ＪＡＰＡＮ株式会社,,株式会社,福岡県,糸島市,志摩芥屋７７番地４,,40,230,8191335,,,,,,,2025-12-03,1,,,,,フェルガジャパン,0
1414,5290001112389,新規,0,2025-12-03,2025-12-03,ＷＴａｘＦｒｅｅ株式会社,,株式会社,福岡県,福岡市中央区,荒戸２丁目４番３号,,40,133,8100062,,,,,,,2025-12-03,1,,,,,ダブリュータックスフリー,0
1416,5290801032076,新規,0,2025-12-03,2025-12-03,株式会社王成,,株式会社,福岡県,直方市,大字下境１４６４番地１,,40,204,8220007,,,,,,,2025-12-03,1,,,,,オウセイ,0
1417,5300001014427,新規,0,2025-12-03,2025-12-03,株式会社リスタート,,株式会社,佐賀県,多久市,北多久町メイプルタウン６－７,,41,204,8460007,,,,,,,2025-12-03,1,,,,,リスタート,0
1425,5350003005072,新規,0,2025-12-03,2025-12-03,ＡＴＥＭＯＹＡ合同会社,,合同会社,宮崎県,延岡市,塩浜町２丁目１８０１番地６,,45,203,8820864,,,,,,,2025-12-03,1,,,,,アテモヤ,0
1432,5390001018171,新規,0,2025-12-03,2025-12-03,株式会社アグリビスタ,,株式会社,山形県,西置賜郡白鷹町,大字畔藤２３０１番地,,06,402,9920841,,,,,,,2025-12-03,1,,,,,アグリビスタ,0
1433,5390003002470,新規,0,2025-12-03,2025-12-03,合同会社ＳＵＩ．舎,,合同会社,山形県,山形市,上桜田４丁目１３番１７号,,06,201,9902421,,,,,,,2025-12-03,1,,,,,スイシャ,0
1434,5400003003566,新規,0,2025-12-03,2025-12-03,合同会社ＡＧＲＯＷ,,合同会社,岩手県,八幡平市,荒木田第１３地割３８番地,,03,214,0287406,,,,,,,2025-12-03,1,,,,,アグロウ,0
1442,5430001095776,新規,0,2025-12-03,2025-12-03,クロダホールディングス株式会社,,株式会社,北海道,札幌市中央区,南五条西１５丁目２－３－５０３,,01,101,0640805,,,,,,,2025-12-03,1,,,,,クロダホールディングス,0
1448,5480001013023,新規,0,2025-12-03,2025-12-03,ＴＡＧ　ＦＡＲＭ株式会社,,株式会社,徳島県,名西郡神山町,神領字西小野１３９番地,,36,342,7713310,,,,,,,2025-12-03,1,,,,,タッグファーム,0
1450,5480005007112,新規,0,2025-12-03,2025-12-03,医療法人光隆会,,その他の設立登記法人,徳島県,小松島市,前原町字東３７番１,,36,203,7730013,,,,,,,2025-12-03,1,,,,,コウリュウカイ,0
1452,5700150133152,新規,0,2025-12-03,2025-12-03,Ｄｏｃｑｕｉｔｙ　Ｈｏｌｄｉｎｇｓ　Ｐｔｅ．Ｌｔｄ,,外国会社等,,,,,,,,３３Ａ　Ｐａｇｏｄａ　Ｓｔｒｅｅｔ，Ｓｉｎｇａｐｏｒｅ,,,,,,2025-12-03,1,,,,,ドクイテイホールデイングスプライベイトリミテツド,0
1462,6010005040984,新規,0,2025-12-03,2025-12-03,一般社団法人住宅エネルギー事業支援協議会,,その他の設立登記法人,東京都,中央区,日本橋室町１丁目１１番１２号日本橋水野ビル７階,,13,102,1030022,,,,,,,2025-12-03,1,,,,,ジュウタクエネルギージギョウシエンキョウギカイ,0
1471,6010401194822,新規,0,2025-12-03,2025-12-03,株式会社ユーズ,,株式会社,東京都,港区,六本木４丁目３番３８－２０３号,,13,103,1060032,,,,,,,2025-12-03,1,,,,,ユーズ,0
1475,6010403036709,新規,0,2025-12-03,2025-12-03,Ｗｅｌｄｅｒｌｙ合同会社,,合同会社,東京都,港区,南青山２丁目２番８号ＤＦビル２階,,13,103,1070062,,,,,,,2025-12-03,1,,,,,ウェルダリー,0
1476,6010403036733,新規,0,2025-12-03,2025-12-03,合同会社ＨｉＪｏＪｏ．ｎｅｔ２,,合同会社,東京都,港区,西新橋１丁目７番２号,,13,103,1050003,,,,,,,2025-12-03,1,,,,,ヒジョージョードットネットニ,0
1482,6010701048686,新規,0,2025-12-03,2025-12-03,輝焔道株式会社,00141719,株式会社,東京都,品川区,西五反田４丁目３１－２３－３１２,,13,109,1410031,,,,,,,2025-12-03,1,,,,,キエンドウ,0
1488,6011001174025,新規,0,2025-12-03,2025-12-03,株式会社マイ東京アセットライフ,,株式会社,東京都,渋谷区,幡ヶ谷２丁目２０番８号,,13,113,1510072,,,,,,,2025-12-03,1,,,,,マイトウキョウアセットライフ,0
1489,6011001174157,新規,0,2025-12-03,2025-12-03,株式会社Ｃｒｏｓｓ　Ｉｎｎｉｎｇｓ,,株式会社,東京都,渋谷区,恵比寿西２丁目８番４号ＥＸ恵比寿西ビル５階,,13,113,1500021,,,,,,,2025-12-03,1,,,,,クロスイニングス,0
1490,6011003022974,新規,0,2025-12-03,2025-12-03,合同会社ＰｏｎＣｏｃｏ,,合同会社,東京都,目黒区,中目黒３丁目６－２ＦＳビルディング６Ｆ,,13,110,1530061,,,,,,,2025-12-03,1,,,,,ポンココ,0
1491,6011003023056,新規,0,2025-12-03,2025-12-03,Ｌｉｎｏ合同会社,,合同会社,東京都,渋谷区,東２丁目２１番２号ＣＫヒルズ４Ｆ,,13,113,1500011,,,,,,,2025-12-03,1,,,,,リノ,0
1492,6011003023114,新規,0,2025-12-03,2025-12-03,合同会社テノリコン,,合同会社,東京都,渋谷区,道玄坂２丁目１５番１号ノア道玄坂１２１１号室,,13,113,1500043,,,,,,,2025-12-03,1,,,,,テノリコン,0
1505,6011205002717,新規,0,2025-12-03,2025-12-03,山王司法書士法人,,その他の設立登記法人,東京都,中野区,本町３丁目１４番２２号１階,,13,114,1640012,,,,,,,2025-12-03,1,,,,,サンノウ,0
1512,6011603004934,新規,0,2025-12-03,2025-12-03,合同会社シンシア,,合同会社,東京都,練馬区,平和台３丁目７番１２号,,13,120,1790083,,,,,,,2025-12-03,1,,,,,シンシア,0
1517,6011703004470,新規,0,2025-12-03,2025-12-03,合同会社ＫＤＧ,,合同会社,東京都,江戸川区,中葛西４丁目１２番２－４０３号,,13,123,1340083,,,,,,,2025-12-03,1,,,,,ケーディージー,0
1518,6011801047124,新規,0,2025-12-03,2025-12-03,株式会社フライングイーグル,,株式会社,東京都,葛飾区,新小岩１丁目５１－１７－３０５,,13,122,1240024,,,,,,,2025-12-03,1,,,,,フライングイーグル,0
1519,6011801047140,新規,0,2025-12-03,2025-12-03,株式会社田辺,,株式会社,東京都,足立区,加平１丁目１２番１－２０４号,,13,121,1210055,,,,,,,2025-12-03,1,,,,,タナベ,0
1524,6012401043876,新規,0,2025-12-03,2025-12-03,ＢＯＮＤ株式会社,,株式会社,東京都,狛江市,和泉本町２丁目１１番９号,,13,219,2010003,,,,,,,2025-12-03,1,,,,,ボンド,0
1525,6012403007490,新規,0,2025-12-03,2025-12-03,もりりんご合同会社,,合同会社,東京都,三鷹市,井の頭２丁目１１番１６号ＡＲＫＨＯＵＳＥ井の頭２０１,,13,204,1810001,,,,,,,2025-12-03,1,,,,,モリリンゴ,0
1529,6012703003413,新規,0,2025-12-03,2025-12-03,合同会社Ｅｏｎ８,,合同会社,東京都,東村山市,秋津町５丁目１３番２１号秋津駅前店舗２階,,13,213,1890001,,,,,,,2025-12-03,1,,,,,イーオンエイト,0
1530,6012801024393,新規,0,2025-12-03,2025-12-03,株式会社ＳｈｕＳｅｎ,,株式会社,東京都,国立市,東１丁目１５番地の１１、４４８ビル３階,,13,215,1860002,,,,,,,2025-12-03,1,,,,,シュセン,0
1535,6013301055383,新規,0,2025-12-03,2025-12-03,株式会社Ｌｉｆｅ　ｉｓ,,株式会社,東京都,豊島区,東池袋１丁目３４番５号いちご東池袋ビル６階,,13,116,1700013,,,,,,,2025-12-03,1,,,,,ライフイズ,0
1536,6013301055391,新規,0,2025-12-03,2025-12-03,株式会社ＭＹ１９,,株式会社,東京都,豊島区,池袋２丁目１６－５リフレインビル１Ｆ,,13,116,1710014,,,,,,,2025-12-03,1,,,,,エムワイイチキュウ,0
1541,6020001165966,新規,0,2025-12-03,2025-12-03,株式会社アモリス,,株式会社,神奈川県,横浜市中区,吉田町４番地１,,14,104,2310041,,,,,,,2025-12-03,1,,,,,アモリス,0
1542,6020001166023,新規,0,2025-12-03,2025-12-03,株式会社さどまっぷ,,株式会社,神奈川県,横浜市神奈川区,白幡西町１番１５号,,14,102,2210074,,,,,,,2025-12-03,1,,,,,サドマップ,0
1543,6020001166139,新規,0,2025-12-03,2025-12-03,株式会社パワーキャリア,,株式会社,神奈川県,横浜市青葉区,青葉台１丁目５－４,,14,117,2270062,,,,,,,2025-12-03,1,,,,,パワーキャリア,0
1546,6020005017065,新規,0,2025-12-03,2025-12-03,一般社団法人ピンクリボンよこはま,,その他の設立登記法人,神奈川県,横浜市南区,大岡１丁目６４番１５号,,14,105,2320061,,,,,,,2025-12-03,1,,,,,ピンクリボンヨコハマ,0
1548,6021001086913,新規,0,2025-12-03,2025-12-03,株式会社ＡｔｈＬｉｎｋ,,株式会社,神奈川県,伊勢原市,池端４５２番地の１１,,14,214,2591144,,,,,,,2025-12-03,1,,,,,,0
1549,6021001086938,新規,0,2025-12-03,2025-12-03,藪田グループ株式会社,,株式会社,神奈川県,座間市,ひばりが丘１丁目５３番１３号Ｋワンハウス２０１号,,14,216,2520003,,,,,,,2025-12-03,1,,,,,ヤブタグループ,0
1553,6021003016851,新規,0,2025-12-03,2025-12-03,ｉｎｖｉｓｉａ合同会社,,合同会社,神奈川県,大和市,中央林間４丁目１４番１０号,,14,213,2420007,,,,,,,2025-12-03,1,,,,,インヴィジア,0
1557,6030001169818,新規,0,2025-12-03,2025-12-03,株式会社リードノヴァ,,株式会社,埼玉県,さいたま市南区,大字大谷口１３１７番地６－１０５,,11,108,3360042,,,,,,,2025-12-03,1,,,,,リードノヴァ,0
1563,6040003029044,新規,0,2025-12-03,2025-12-03,合同会社イレブン,,合同会社,千葉県,旭市,三川５９７２番６１,,12,215,2892714,,,,,,,2025-12-03,1,,,,,イレブン,0
1564,6040003029077,新規,0,2025-12-03,2025-12-03,合同会社石鎚山オアシスグリッド,,合同会社,千葉県,千葉市中央区,松波２丁目４番１８号,,12,101,2600044,,,,,,,2025-12-03,1,,,,,イシヅチサンオアシスグリッド,0
1565,6040005022963,新規,0,2025-12-03,2025-12-03,一般社団法人Ｋａｐｉｌｉｎａ,,その他の設立登記法人,千葉県,茂原市,東郷９６番地８,,12,210,2970017,,,,,,,2025-12-03,1,,,,,カピリナ,0
1571,6070001043622,新規,0,2025-12-03,2025-12-03,株式会社ＮＡＨＯＫＡ,,株式会社,群馬県,前橋市,北代田町５６４番地,,10,201,3710055,,,,,,,2025-12-03,1,,,,,ナホカ,0
1574,6070003006206,新規,0,2025-12-03,2025-12-03,合同会社ＨａｉｒＭａｋｅＦｅｅｌ,,合同会社,群馬県,邑楽郡板倉町,朝日町三丁目７番地の１５,,10,521,3740100,,,,,,,2025-12-03,1,,,,,,0
1579,6080103003481,新規,0,2025-12-03,2025-12-03,Ｐｏｌ　Ｓｏｌｕｔｉｏｎｓ合同会社,,合同会社,静岡県,伊東市,吉田１０２３番地の６,,22,208,4140051,,,,,,,2025-12-03,1,,,,,ポルソリューションズ,0
1583,6080401028296,新規,0,2025-12-03,2025-12-03,ＹＫＨＭ株式会社,,株式会社,静岡県,浜松市中央区,文丘町４番３３号,,22,138,4328004,,,,,,,2025-12-03,1,,,,,ワイケイエイチエム,0
1585,6090001019629,新規,0,2025-12-03,2025-12-03,株式会社ＭｏｖｅＦｏｒｗａｒｄ　Ｃｏａｃｈｉｎｇ,,株式会社,山梨県,甲斐市,宇津谷１９５番地１,,19,210,4000108,,,,,,,2025-12-03,1,,,,,ムーブフォワードコーチング,0
1586,6110001039756,新規,0,2025-12-03,2025-12-03,株式会社ｍｅｉｋｕ,,株式会社,新潟県,新潟市中央区,寄居町３３２番地アーバン東中通２Ｆ,,15,103,9518113,,,,,,,2025-12-03,1,,,,,メイク,0
1587,6110001039764,新規,0,2025-12-03,2025-12-03,Ｕｎａａａｌ株式会社,,株式会社,新潟県,新潟市西区,松海が丘３丁目１１番１３号,,15,107,9502075,,,,,,,2025-12-03,1,,,,,ウナール,0
1590,6110003005979,新規,0,2025-12-03,2025-12-03,合同会社長澤塗装,,合同会社,新潟県,上越市,北城町１６－２７北城ビル２－１,,15,222,9430000,,,,,,,2025-12-03,1,,,,,ナガサワトソウ,0
1601,6120001282421,新規,0,2025-12-03,2025-12-03,株式会社ｐａｓｔｉｍｅ,,株式会社,大阪府,大阪市西区,北堀江１丁目１番２８号８階,,27,106,5500014,,,,,,,2025-12-03,1,,,,,パスタイム,0
1603,6120003031289,新規,0,2025-12-03,2025-12-03,合同会社シーライズジャパン,,合同会社,大阪府,大阪市住之江区,南港北２丁目１－１０ＡＴＣビルＩＴＭ棟４階Ｎ－２,,27,125,5590034,,,,,,,2025-12-03,1,,,,,シーライズジャパン,0
1604,6120003031330,新規,0,2025-12-03,2025-12-03,寿弥合同会社,,合同会社,大阪府,枚方市,津田西町３丁目１９番１７号,,27,210,5730126,,,,,,,2025-12-03,1,,,,,コトミ,0
1609,6122001039966,新規,0,2025-12-03,2025-12-03,株式会社ＡＳＬＥ,,株式会社,大阪府,東大阪市,衣摺３丁目６番１５－３０３号,,27,227,5770827,,,,,,,2025-12-03,1,,,,,アスレ,0
1613,6130001081120,新規,0,2025-12-03,2025-12-03,株式会社九左衛門,,株式会社,京都府,長岡京市,東神足２丁目６番８号,,26,209,6170832,,,,,,,2025-12-03,1,,,,,クザエモン,0
1614,6130001081153,新規,0,2025-12-03,2025-12-03,株式会社ＴＯＹ’ｓ,,株式会社,京都府,京都市南区,東九条柳下町２２番地,,26,107,6018025,,,,,,,2025-12-03,1,,,,,トイズ,0
1625,6140001140882,新規,0,2025-12-03,2025-12-03,地球ホーム株式会社,,株式会社,兵庫県,明石市,硯町２丁目５番２－５０４号,,28,203,6730028,,,,,,,2025-12-03,1,,,,,チキュウホーム,0
1626,6140001140932,新規,0,2025-12-03,2025-12-03,株式会社プロキシー・コー,,株式会社,兵庫県,神戸市東灘区,向洋町中６丁目９番７Ｅ－１２,,28,101,6580032,,,,,,,2025-12-03,1,,,,,プロキシーコー,0
1627,6140001140940,新規,0,2025-12-03,2025-12-03,酒井塗装株式会社,,株式会社,兵庫県,洲本市,中川原町厚浜８６４番地１,,28,205,6560001,,,,,,,2025-12-03,1,,,,,サカイトソウ,0
1631,6140005027713,新規,0,2025-12-03,2025-12-03,一般社団法人岩屋ファースト,,その他の設立登記法人,兵庫県,加東市,岩屋３９８番地２,,28,228,6731321,,,,,,,2025-12-03,1,,,,,イワヤファースト,0
1634,6160001027252,新規,0,2025-12-03,2025-12-03,ＣＦｉ株式会社,,株式会社,滋賀県,草津市,野路７丁目１４－１３,,25,206,5250059,,,,,,,2025-12-03,1,,,,,シーエフアイ,0
1653,6180001169695,新規,0,2025-12-03,2025-12-03,株式会社Ｃｌａｎ,,株式会社,愛知県,名古屋市東区,徳川２丁目１６番２号,,23,102,4610025,,,,,,,2025-12-03,1,,,,,クラン,0
1654,6180001169737,新規,0,2025-12-03,2025-12-03,株式会社アースファーム,,株式会社,愛知県,知多郡美浜町,大字奥田字三ケ市４３番地２,,23,446,4703233,,,,,,,2025-12-03,1,,,,,アースファーム,0
1655,6180001169761,新規,0,2025-12-03,2025-12-03,株式会社よし乃,,株式会社,愛知県,名古屋市中川区,西伏屋２丁目１４１９番地,,23,110,4540982,,,,,,,2025-12-03,1,,,,,ヨシノ,0
1661,6180301040457,新規,0,2025-12-03,2025-12-03,Ｍサポート株式会社,,株式会社,愛知県,豊川市,西口町２丁目５番地エテルノディーアＡ棟２０２号,,23,207,4420833,,,,,,,2025-12-03,1,,,,,エムサポート,0
1662,6180301040465,新規,0,2025-12-03,2025-12-03,株式会社ワイケー,,株式会社,愛知県,安城市,横山町大山田中８３番地,,23,212,4460045,,,,,,,2025-12-03,1,,,,,ワイケー,0
1666,6180303006828,新規,0,2025-12-03,2025-12-03,合同会社Ｅｌｉｘｉｒ,,合同会社,愛知県,豊川市,末広通２丁目４０番地,,23,207,4420029,,,,,,,2025-12-03,1,,,,,エリクサー,0
1676,6240001065847,新規,0,2025-12-03,2025-12-03,株式会社イザワホールディングス,,株式会社,広島県,広島市中区,舟入幸町６番４号,,34,101,7300844,,,,,,,2025-12-03,1,,,,,イザワホールディングス,0
1677,6240001065855,新規,0,2025-12-03,2025-12-03,株式会社クレストワン,,株式会社,広島県,安芸郡府中町,浜田２丁目１０番１６号,,34,302,7350013,,,,,,,2025-12-03,1,,,,,クレストワン,0
1686,6260001040781,新規,0,2025-12-03,2025-12-03,株式会社ＶＹＭ,,株式会社,岡山県,倉敷市,玉島柏台４丁目２番１３号,,33,202,7138124,,,,,,,2025-12-03,1,,,,,ヴィム,0
1687,6260003005436,新規,0,2025-12-03,2025-12-03,合同会社中島トレーディング,,合同会社,岡山県,瀬戸内市,牛窓町鹿忍３６２７番地３－１階,,33,212,7014303,,,,,,,2025-12-03,1,,,,,ナカシマトレーディング,0
1691,6270001009339,新規,0,2025-12-03,2025-12-03,株式会社漢方なでしこ,,株式会社,鳥取県,岩美郡岩美町,大字浦富５０３番地１,,31,302,6810003,,,,,,,2025-12-03,1,,,,,カンポウナデシコ,0
1692,6280003002010,新規,0,2025-12-03,2025-12-03,合同会社ＡＩＬＥ,,合同会社,島根県,出雲市,大塚町１１１７番地,,32,203,6930063,,,,,,,2025-12-03,1,,,,,エール,0
1701,6290801032067,新規,0,2025-12-03,2025-12-03,株式会社エン,,株式会社,福岡県,遠賀郡水巻町,吉田東２丁目１２番２３号,,40,382,8070045,,,,,,,2025-12-03,1,,,,,エン,0
1703,6330001033794,新規,0,2025-12-03,2025-12-03,ＭＹＲＯＯＭ株式会社,,株式会社,熊本県,熊本市西区,池田２丁目６番４１－１０号,,43,103,8600082,,,,,,,2025-12-03,1,,,,,マイルーム,0
1705,6340003005031,新規,0,2025-12-03,2025-12-03,合同会社９’ｓ,,合同会社,鹿児島県,薩摩川内市,宮内町８番６号,,46,215,8950065,,,,,,,2025-12-03,1,,,,,ナインズ,0
1707,6360001036092,新規,0,2025-12-03,2025-12-03,株式会社ＲＩＴＡ　ＰＡＣＩＦＩＣ　ＨＯＬＤＩＮＧＳ,,株式会社,沖縄県,那覇市,おもろまち１丁目５番２６号,,47,201,9000006,,,,,,,2025-12-03,1,,,,,リタパシフィックホールディングス,0
1709,6370001053285,新規,0,2025-12-03,2025-12-03,株式会社亨,,株式会社,宮城県,仙台市若林区,南材木町９２番地,,04,103,9840805,,,,,,,2025-12-03,1,,,,,トオル,0
1719,6390001018170,新規,0,2025-12-03,2025-12-03,株式会社コトリート,,株式会社,山形県,米沢市,大字笹野５９５番地の１９,,06,202,9921443,,,,,,,2025-12-03,1,,,,,コトリート,0
1721,6400003003565,新規,0,2025-12-03,2025-12-03,合同会社ｓｕｎｆｌｏｗｅｒ,,合同会社,岩手県,宮古市,津軽石第５地割８２番地１０,,03,202,0270203,,,,,,,2025-12-03,1,,,,,サンフラワー,0
1729,6430001095759,新規,0,2025-12-03,2025-12-03,アースライト株式会社,,株式会社,北海道,札幌市中央区,南十七条西９丁目１番３１号,,01,101,0640917,,,,,,,2025-12-03,1,,,,,アースライト,0
1730,6430001095775,新規,0,2025-12-03,2025-12-03,ＡＲＣＡＮＡ創研株式会社,,株式会社,北海道,虻田郡倶知安町,北一条東１丁目２番地１,,01,400,0440001,,,,,,,2025-12-03,1,,,,,アルカナソウケン,0
1734,6430005015366,新規,0,2025-12-03,2025-12-03,医療法人社団悠仁会,,その他の設立登記法人,北海道,札幌市北区,北十一条西３丁目２番２８号,,01,102,0010011,,,,,,,2025-12-03,1,,,,,ユウジンカイ,0
1742,6700150133151,新規,0,2025-12-03,2025-12-03,Ｐａｎｏｔａ　ｉｎｔｅｒｎａｔｉｏｎａｌ　Ｈｏｌｄｉｎｇｓ　Ｐｖｔ　Ｌｔｄ,,外国会社等,茨城県,筑西市,関本分中３７番地３１,,08,227,3080125,スリランカ民主社会主義共和国、ニゴンボ、クラナ、コロンボロード、ナンバー７０５,,,,,,2025-12-03,1,,,,,パノタインターナシヨナルホールデイングスプライベートリミテツド,0
1767,7010001260825,新規,0,2025-12-03,2025-12-03,株式会社清水ＴＯＫＹＯ,,株式会社,東京都,中央区,晴海２丁目２番４２－２５１４号,,13,102,1040053,,,,,,,2025-12-03,1,,,,,シミズトウキョウ,0
1777,7010401194879,新規,0,2025-12-03,2025-12-03,ｘ４０２株式会社,,株式会社,東京都,港区,白金台５丁目１０－１６,,13,103,1080071,,,,,,,2025-12-03,1,,,,,エックスヨンゼロニ,0
1778,7010401194895,新規,0,2025-12-03,2025-12-03,株式会社仁薬堂,,株式会社,東京都,港区,芝４丁目７番地６号,,13,103,1080014,,,,,,,2025-12-03,1,,,,,ジンヤクドウ,0
1781,7010403036732,新規,0,2025-12-03,2025-12-03,合同会社ＨｉＪｏＪｏ．ｎｅｔ１,,合同会社,東京都,港区,西新橋１丁目７番２号,,13,103,1050003,,,,,,,2025-12-03,1,,,,,ヒジョージョードットネットイチ,0
1782,7010405025097,新規,0,2025-12-03,2025-12-03,一般社団法人ＴＳＭ１７７,,その他の設立登記法人,東京都,港区,元赤坂１丁目１番７号,,13,103,1070051,,,,,,,2025-12-03,1,,,,,ティーエスエムヒャクナナジュウナナ,0
1787,7010601068370,新規,0,2025-12-03,2025-12-03,Ｓｔａｙ　Ｐｌｕｓ株式会社,,株式会社,東京都,墨田区,本所１丁目４番４号,,13,107,1300004,,,,,,,2025-12-03,1,,,,,ステイプラス,0
1789,7010603011948,新規,0,2025-12-03,2025-12-03,Ｍｏｖｅ　ｙｏｕｒ　ｈｅａｒｔ合同会社,,合同会社,東京都,江東区,東砂４丁目２４番３－４０２号,,13,108,1360074,,,,,,,2025-12-03,1,,,,,ムーブユアハート,0
1805,7011001173810,新規,0,2025-12-03,2025-12-03,株式会社ＥＯＲＩＳＥ,,株式会社,東京都,渋谷区,道玄坂１丁目１０番８号渋谷道玄坂東急ビル２Ｆ－Ｃ,,13,113,1500043,,,,,,,2025-12-03,1,,,,,イオライズ,0
1806,7011001173851,新規,0,2025-12-03,2025-12-03,株式会社Ｅｒｙｏｎ,,株式会社,東京都,渋谷区,恵比寿西２丁目４番８号ウィンド恵比寿ビル８Ｆ,,13,113,1500021,,,,,,,2025-12-03,1,,,,,エリオン,0
1807,7011001174008,新規,0,2025-12-03,2025-12-03,アイドルマーケット株式会社,,株式会社,東京都,渋谷区,恵比寿西２丁目４番８号ウィンド恵比寿ビル８Ｆ,,13,113,1500021,,,,,,,2025-12-03,1,,,,,アイドルマーケット,0
1808,7011001174016,新規,0,2025-12-03,2025-12-03,株式会社ラクセント,,株式会社,東京都,渋谷区,広尾１丁目２番地１号ヒカリビル４階,,13,113,1500012,,,,,,,2025-12-03,1,,,,,ラクセント,0
1809,7011001174049,新規,0,2025-12-03,2025-12-03,株式会社ＳＲＣＰ５号,,株式会社,東京都,渋谷区,道玄坂１丁目１０番８号渋谷道玄坂東急ビル２Ｆ－Ｃ,,13,113,1500043,,,,,,,2025-12-03,1,,,,,エスアールシーピーゴゴウ,0
1820,7011301031098,新規,0,2025-12-03,2025-12-03,メディリンク・ソリューションズ株式会社,,株式会社,東京都,杉並区,松庵２丁目３番１８号,,13,115,1670054,,,,,,,2025-12-03,1,,,,,メディリンクソリューションズ,0
1827,7012301014621,新規,0,2025-12-03,2025-12-03,株式会社ＥＳトレーディング,,株式会社,東京都,町田市,高ヶ坂２丁目１５番１号,,13,209,1940014,,,,,,,2025-12-03,1,,,,,イーエストレーディング,0
1829,7012401043883,新規,0,2025-12-03,2025-12-03,ＧＲＩＴ株式会社,,株式会社,東京都,狛江市,東和泉３丁目７－１５,,13,219,2010014,,,,,,,2025-12-03,1,,,,,グリット,0
1830,7012703003420,新規,0,2025-12-03,2025-12-03,アイライ合同会社,,合同会社,東京都,小平市,大沼町７丁目１－１７－１００６,,13,211,1870001,,,,,,,2025-12-03,1,,,,,アイライ,0
1833,7013301055374,新規,0,2025-12-03,2025-12-03,株式会社Ｗｏｎｄｅｒ　Ｒｏｓｅ,,株式会社,東京都,豊島区,要町１丁目４９番１号,,13,116,1710043,,,,,,,2025-12-03,1,,,,,ワンダーローズ,0
1839,7020001166088,新規,0,2025-12-03,2025-12-03,株式会社Ｂｒｉｄｇｅ,,株式会社,神奈川県,横浜市旭区,上白根町２５２番地,,14,112,2410001,,,,,,,2025-12-03,1,,,,,ブリッジ,0
1840,7020001166138,新規,0,2025-12-03,2025-12-03,株式会社根岸装備,,株式会社,神奈川県,横浜市栄区,飯島町２４６５番地ハンプトンコート１０３,,14,115,2440842,,,,,,,2025-12-03,1,,,,,ネギシソウビ,0
1841,7020001166154,新規,0,2025-12-03,2025-12-03,株式会社ＮＥＸＲＡ,,株式会社,神奈川県,横浜市神奈川区,金港町５－１４クアドリフォリオ８階,,14,102,2210056,,,,,,,2025-12-03,1,,,,,ネクスラ,0
1845,7020003029755,新規,0,2025-12-03,2025-12-03,ＤｅｅｐＫｅｅｐ合同会社,,合同会社,神奈川県,横浜市西区,浅間町１丁目４番３号ウィザードビル４０２,,14,103,2200072,,,,,,,2025-12-03,1,,,,,ディープキープ,0
1846,7020005017048,新規,0,2025-12-03,2025-12-03,一般社団法人サポートやどりぎ,,その他の設立登記法人,神奈川県,横浜市港南区,港南中央通９－１４ライオンズマンション港南中央３１１号室,,14,111,2330004,,,,,,,2025-12-03,1,,,,,サポートヤドリギ,0
1847,7020005017064,新規,0,2025-12-03,2025-12-03,一般社団法人日本ドッグフォトグラファー協会,,その他の設立登記法人,神奈川県,川崎市宮前区,菅生６丁目１３番４号,,14,136,2160015,,,,,,,2025-12-03,1,,,,,ニホンドッグフォトグラファーキョウカイ,0
1855,7021001086929,新規,0,2025-12-03,2025-12-03,株式会社ともに生きる,,株式会社,神奈川県,伊勢原市,坪ノ内６２７番地,,14,214,2591104,,,,,,,2025-12-03,1,,,,,トモニイキル,0
1863,7030001169874,新規,0,2025-12-03,2025-12-03,株式会社ユウセナ,,株式会社,埼玉県,志木市,下宗岡２丁目４番５－２号,,11,228,3530003,,,,,,,2025-12-03,1,,,,,ユウセナ,0
1864,7030003028178,新規,0,2025-12-03,2025-12-03,ＥＡＧＬＥ　ＤＩＶＥ合同会社,,合同会社,埼玉県,久喜市,桜田３丁目５番１－７－２０４,,11,232,3400203,,,,,,,2025-12-03,1,,,,,イーグルダイブ,0
1878,7050001057664,新規,0,2025-12-03,2025-12-03,株式会社ＦＫＳ工業,,株式会社,茨城県,鹿嶋市,大字長栖２２８８番地１５０,,08,222,3140022,,,,,,,2025-12-03,1,,,,,エフケーエスコウギョウ,0
1887,7080103003480,新規,0,2025-12-03,2025-12-03,合同会社ＫＩＧＡＫＵ,,合同会社,静岡県,富士市,中丸５３９番地の３,,22,210,4160933,,,,,,,2025-12-03,1,,,,,キガク,0
1890,7100003008503,新規,0,2025-12-03,2025-12-03,合同会社ａｋｉｂａ．ｃｏ,,合同会社,長野県,佐久市,野沢１２２番地１,,20,217,3850053,,,,,,,2025-12-03,1,,,,,アキバコ,0
1893,7110001039747,新規,0,2025-12-03,2025-12-03,株式会社ＳＴＮＧ,,株式会社,新潟県,新潟市東区,秋葉１丁目２４番２１号,,15,102,9500054,,,,,,,2025-12-03,1,,,,,エスティーエヌジー,0
1894,7110001039763,新規,0,2025-12-03,2025-12-03,株式会社ＩＫＴ,,株式会社,新潟県,長岡市,滝谷町２０５８番地３,,15,202,9401138,,,,,,,2025-12-03,1,,,,,アイケーティー,0
1896,7110003005986,新規,0,2025-12-03,2025-12-03,合同会社Ｊ‐ＳＵＰＰＯＲＴ,,合同会社,新潟県,上越市,大和１丁目２番４７号ＰＥＡＣＥＢＯＸ大和１０１号,,15,222,9430861,,,,,,,2025-12-03,1,,,,,ジェイサポート,0
1912,7120001282395,新規,0,2025-12-03,2025-12-03,千山行株式会社,,株式会社,大阪府,大阪市住吉区,我孫子２丁目４番１１－４０１号,,27,120,5580014,,,,,,,2025-12-03,1,,,,,センザンコウ,0
1913,7120001282412,新規,0,2025-12-03,2025-12-03,株式会社飯盛翠悠の杜,,株式会社,大阪府,大阪市中央区,南本町１丁目８番１４号,,27,128,5410054,,,,,,,2025-12-03,1,,,,,イイモリスイユウノモリ,0
1914,7120001282429,新規,0,2025-12-03,2025-12-03,ルデヤ・コーポレーション株式会社,,株式会社,大阪府,大阪市城東区,新喜多１丁目２番７－３６０５号,,27,118,5360015,,,,,,,2025-12-03,1,,,,,ルデヤコーポレーション,0
1920,7120003031362,新規,0,2025-12-03,2025-12-03,ＬＩＤＥＮＡ・ＪＡＰＡＮ合同会社,,合同会社,大阪府,大阪市西淀川区,佃２丁目１５番１－４０２号,,27,113,5550001,,,,,,,2025-12-03,1,,,,,リデナジャパン,0
1921,7120101072886,新規,0,2025-12-03,2025-12-03,Ｂｒｏｗｎｓ　Ｈｏｌｄｉｎｇｓ株式会社,,株式会社,大阪府,阪南市,鳥取中２０１番地の３,,27,232,5990211,,,,,,,2025-12-03,1,,,,,ブラウンズホールディングス,0
1930,7122001039965,新規,0,2025-12-03,2025-12-03,株式会社ＴＯＨＯ　Ｔｒａｄｉｎｇ,,株式会社,大阪府,東大阪市,荒本西４丁目２番１０号,,27,227,5770024,,,,,,,2025-12-03,1,,,,,トーホートレイディング,0
1932,7130001081128,新規,0,2025-12-03,2025-12-03,Ｍｅｍｏｒｙ　Ｋｙｏｔｏ　Ｂｉｋｅ　Ｔｏｕｒ株式会社,,株式会社,京都府,京都市中京区,西ノ京右馬寮町８番６,,26,104,6048492,,,,,,,2025-12-03,1,,,,,メモリーキョウトバイクツアー,0
1938,7140001140923,新規,0,2025-12-03,2025-12-03,Ｔｏｔｏｒｏｎｏ株式会社,,株式会社,兵庫県,明石市,大久保町駅前１丁目５番地の８晏如ビル５０２,,28,203,6740058,,,,,,,2025-12-03,1,,,,,トトロノ,0
1939,7140001140980,新規,0,2025-12-03,2025-12-03,さくら不動産株式会社,,株式会社,兵庫県,明石市,大久保町八木４０８番地の７,,28,203,6740063,,,,,,,2025-12-03,1,,,,,サクラフドウサン,0
1946,7160001027251,新規,0,2025-12-03,2025-12-03,株式会社ＡＩＲ　ＲＯＯＴＳ,,株式会社,滋賀県,大津市,比叡辻２丁目１６番１８号,,25,201,5200104,,,,,,,2025-12-03,1,,,,,エアールーツ,0
1947,7160003003663,新規,0,2025-12-03,2025-12-03,合同会社河瀬アグリネット,,合同会社,滋賀県,彦根市,川瀬馬場町９２１番地３,,25,202,5220223,,,,,,,2025-12-03,1,,,,,カワセアグリネット,0
1957,7180001169736,新規,0,2025-12-03,2025-12-03,株式会社ヴューズラボ,,株式会社,愛知県,名古屋市千種区,内山３丁目２２番９号,,23,101,4640075,,,,,,,2025-12-03,1,,,,,ヴューズラボ,0
1960,7180003029450,新規,0,2025-12-03,2025-12-03,ＳＴＡ合同会社,,合同会社,愛知県,名古屋市中区,上前津２丁目２番４号パークコート上前津プレミアプラス６０６号,,23,106,4600013,,,,,,,2025-12-03,1,,,,,エスティーエー,0
1980,7240001065846,新規,0,2025-12-03,2025-12-03,株式会社竹原リース,,株式会社,広島県,安芸郡海田町,月見町９番２９号,,34,304,7360034,,,,,,,2025-12-03,1,,,,,タケハラリース,0
1981,7240001065854,新規,0,2025-12-03,2025-12-03,株式会社ｃａｒｍｌｙ,,株式会社,広島県,広島市西区,高須台６丁目８番１号,,34,104,7330876,,,,,,,2025-12-03,1,,,,,カームリー,0
1985,7260001040780,新規,0,2025-12-03,2025-12-03,株式会社リネール,,株式会社,岡山県,岡山市北区,中山下１丁目１１番１５号新田第一ビル４０２号,,33,101,7000821,,,,,,,2025-12-03,1,,,,,リネール,0
1989,7270003001813,新規,0,2025-12-03,2025-12-03,合同会社エリード,,合同会社,鳥取県,倉吉市,生田３２１番地８,,31,203,6820855,,,,,,,2025-12-03,1,,,,,エリード,0
2001,7290801032066,新規,0,2025-12-03,2025-12-03,グッド・リンク株式会社,,株式会社,福岡県,京都郡苅田町,京町１丁目１１－２５京町ビル２Ｆ,,40,621,8000351,,,,,,,2025-12-03,1,,,,,グッドリンク,0
2002,7290801032074,新規,0,2025-12-03,2025-12-03,株式会社バンテクノ,,株式会社,福岡県,田川市,大字夏吉３３９番地１,,40,206,8250004,,,,,,,2025-12-03,1,,,,,バンテクノ,0
2005,7300001014433,新規,0,2025-12-03,2025-12-03,株式会社ミルカシ,,株式会社,佐賀県,唐津市,見借４８４２番地２２７,,41,202,8470825,,,,,,,2025-12-03,1,,,,,ミルカシ,0
2008,7320001021469,新規,0,2025-12-03,2025-12-03,株式会社ワンコネクト,,株式会社,大分県,別府市,東荘園６丁目６番３６号,,44,202,8740836,,,,,,,2025-12-03,1,,,,,ワンコネクト,0
2011,7340003005030,新規,0,2025-12-03,2025-12-03,合同会社ソフトウェイプラス,,合同会社,鹿児島県,鹿児島市,常盤２丁目１４番７号,,46,201,8900047,,,,,,,2025-12-03,1,,,,,ソフトウェイプラス,0
2014,7350003005087,新規,0,2025-12-03,2025-12-03,合同会社すけっと,,合同会社,宮崎県,宮崎市,佐土原町下那珂２０６６－３,,45,201,8800212,,,,,,,2025-12-03,1,,,,,スケット,0
2017,7360003015440,新規,0,2025-12-03,2025-12-03,合同会社ぐすくま,,合同会社,沖縄県,那覇市,泊２丁目１番地１８Ｔ＆Ｃ泊ビル６０１－Ｄ号室,,47,201,9000012,,,,,,,2025-12-03,1,,,,,グスクマ,0
2028,7400001017244,新規,0,2025-12-03,2025-12-03,株式会社ヘルメス,,株式会社,岩手県,盛岡市,東緑が丘７番９号,,03,201,0200112,,,,,,,2025-12-03,1,,,,,ヘルメス,0
2042,7490003002070,新規,0,2025-12-03,2025-12-03,合同会社ソロー,,合同会社,高知県,高岡郡檮原町,上組５９番地,,39,405,7850654,,,,,,,2025-12-03,1,,,,,ソロー,0
2043,7500001026656,新規,0,2025-12-03,2025-12-03,幸愛株式会社,,株式会社,愛媛県,松山市,南白水３丁目１１番地２１,,38,201,7910114,,,,,,,2025-12-03,1,,,,,コウメ,0
2051,8010005041023,新規,0,2025-12-03,2025-12-03,一般社団法人日本特殊製法塩協会,,その他の設立登記法人,東京都,中央区,銀座８丁目１１番５号正金ビル,,13,102,1040061,,,,,,,2025-12-03,1,,,,,ニホントクシュセイホウエンキョウカイ,0
2057,8010401194804,新規,0,2025-12-03,2025-12-03,ＧＲＯＷ　ＪＡＰＡＮ株式会社,,株式会社,東京都,港区,赤坂９丁目１番７－２５９号,,13,103,1070052,,,,,,,2025-12-03,1,,,,,グロウジャパン,0
2064,8010405025096,新規,0,2025-12-03,2025-12-03,一般社団法人ＴＳＭ１７８,,その他の設立登記法人,東京都,港区,元赤坂１丁目１番７号,,13,103,1070051,,,,,,,2025-12-03,1,,,,,ティーエスエムヒャクナナジュウハチ,0
2069,8010701048692,新規,0,2025-12-03,2025-12-03,株式会社Ｂｒａｎｖｅｘ,,株式会社,東京都,品川区,南大井２丁目１０番６－１８１０号,,13,109,1400013,,,,,,,2025-12-03,1,,,,,ブランヴェックス,0
2076,8011001173842,新規,0,2025-12-03,2025-12-03,株式会社Ｉｎｃｒｕｉｔ,,株式会社,東京都,目黒区,下目黒１丁目１番１４号コノトラビル７Ｆ,,13,110,1530064,,,,,,,2025-12-03,1,,,,,インクルート,0
2077,8011001173966,新規,0,2025-12-03,2025-12-03,株式会社ＫＵＲＯ,,株式会社,東京都,渋谷区,円山町５番２号ＶＯＲＴ渋谷道玄坂ＩＩ１０階,00141701,13,113,1500044,,,,,,,2025-12-03,1,,,,,クロ,0
2078,8011001174007,新規,0,2025-12-03,2025-12-03,株式会社ＨＩＫＡＲＩ,,株式会社,東京都,渋谷区,神南１丁目１１番４号ＦＰＧリンクス神南５Ｆ,,13,113,1500041,,,,,,,2025-12-03,1,,,,,ヒカリ,0
2079,8011001174023,新規,0,2025-12-03,2025-12-03,コトイル株式会社,,株式会社,東京都,目黒区,中目黒３丁目１２番１６－２０７号,,13,110,1530061,,,,,,,2025-12-03,1,,,,,コトイル,0
2080,8011001174048,新規,0,2025-12-03,2025-12-03,株式会社ＳＲＣＰ４号,,株式会社,東京都,渋谷区,道玄坂１丁目１０番８号渋谷道玄坂東急ビル２Ｆ－Ｃ,,13,113,1500043,,,,,,,2025-12-03,1,,,,,エスアールシーピーヨンゴウ,0
2082,8011003023062,新規,0,2025-12-03,2025-12-03,合同会社テンバランススタジオ,,合同会社,東京都,渋谷区,道玄坂１丁目１０番８号渋谷道玄坂東急ビル２Ｆ－Ｃ,,13,113,1500043,,,,,,,2025-12-03,1,,,,,テンバランススタジオ,0
2085,8011201026817,新規,0,2025-12-03,2025-12-03,株式会社ロクヴィラッジョ,,株式会社,東京都,中野区,中野４丁目１０番２号中野セントラルパークサウス２階,,13,114,1640001,,,,,,,2025-12-03,1,,,,,ロクヴィラッジョ,0
2086,8011201026825,新規,0,2025-12-03,2025-12-03,株式会社新東洋,,株式会社,東京都,中野区,中央２丁目３０番９号山王ＭＧＴビル３３３,,13,114,1640011,,,,,,,2025-12-03,1,,,,,シントウヨウ,0
2089,8011401027631,新規,0,2025-12-03,2025-12-03,株式会社ＬＡＲＴＨ,,株式会社,東京都,板橋区,坂下２丁目９番２－３０１号,,13,119,1740043,,,,,,,2025-12-03,1,,,,,ラース,0
2098,8011703004469,新規,0,2025-12-03,2025-12-03,合同会社アットルーフ,,合同会社,東京都,江戸川区,中央４丁目２５番１４号,,13,123,1320021,,,,,,,2025-12-03,1,,,,,アットルーフ,0
2114,8013303007975,新規,0,2025-12-03,2025-12-03,合同会社ＲＳ企画,,合同会社,東京都,豊島区,西池袋２丁目３９－９ロイヤル池袋ビル９０４,,13,116,1710021,,,,,,,2025-12-03,1,,,,,アールエスキカク,0
2117,8020001166153,新規,0,2025-12-03,2025-12-03,株式会社鶴亀,,株式会社,神奈川県,横浜市保土ケ谷区,鎌谷町２３０番地１,,14,106,2400063,,,,,,,2025-12-03,1,,,,,ツルカメ,0
2120,8020003029886,新規,0,2025-12-03,2025-12-03,合同会社楪,,合同会社,神奈川県,横浜市神奈川区,金港町５－１４クアドリフォリオ８階,,14,102,2210056,,,,,,,2025-12-03,1,,,,,ユズリハ,0
2132,8030001169907,新規,0,2025-12-03,2025-12-03,株式会社ソリッドコア,,株式会社,埼玉県,川口市,鳩ヶ谷本町１丁目１２番６号,,11,203,3340002,,,,,,,2025-12-03,1,,,,,ソリッドコア,0
2137,8030003028210,新規,0,2025-12-03,2025-12-03,合同会社ｃｈｅＭｓ,,合同会社,埼玉県,幸手市,北１丁目１９番２２号,,11,240,3400111,,,,,,,2025-12-03,1,,,,,ケムズ,0
2143,8040001141617,新規,0,2025-12-03,2025-12-03,株式会社ＫｉｎｇｏｆＧｅｅｋｓＣｏｎｓｕｌｔｉｎｇ,,株式会社,千葉県,四街道市,和良比１２１５番地２,,12,228,2840044,,,,,,,2025-12-03,1,,,,,キングオブギークスコンサルティング,0
2153,8070001043612,新規,0,2025-12-03,2025-12-03,株式会社福田産業,,株式会社,群馬県,館林市,苗木町２４０６番地１,,10,207,3740043,,,,,,,2025-12-03,1,,,,,フクダサンギョウ,0
2155,8080101025930,新規,0,2025-12-03,2025-12-03,株式会社ＭｏｏＳｔａｒ,,株式会社,静岡県,三島市,文教町２丁目２９番４７号,,22,206,4110033,,,,,,,2025-12-03,1,,,,,ムースター,0
2158,8080401028286,新規,0,2025-12-03,2025-12-03,株式会社田中カンパニー,,株式会社,静岡県,掛川市,中央２丁目２０番地の１８,,22,213,4360056,,,,,,,2025-12-03,1,,,,,タナカカンパニー,0
2159,8080401028294,新規,0,2025-12-03,2025-12-03,株式会社長月,,株式会社,静岡県,浜松市中央区,鍛冶町１３５番地の１０プレミスト鍛冶町２０３,,22,138,4300933,,,,,,,2025-12-03,1,,,,,ナガツキ,0
2163,8100001039160,新規,0,2025-12-03,2025-12-03,株式会社ＧＯＴＯＨ,,株式会社,長野県,長野市,篠ノ井小松原１９８９番地６,,20,201,3812235,,,,,,,2025-12-03,1,,,,,ゴトオ,0
2165,8100005013426,新規,0,2025-12-03,2025-12-03,一般社団法人ＬＩＦＥ‐ａｔ‐ＯＮＥ,,その他の設立登記法人,長野県,上田市,住吉５３－１３,,20,203,3860002,,,,,,,2025-12-03,1,,,,,ライフアットワン,0
2168,8110003005977,新規,0,2025-12-03,2025-12-03,農福の杜Ｂｅｔｈｅｌ合同会社,,合同会社,新潟県,長岡市,一之貝８６９,,15,202,9400242,,,,,,,2025-12-03,1,,,,,ノウフクノモリベーテル,0
2169,8110003005985,新規,0,2025-12-03,2025-12-03,合同会社さくら福祉,,合同会社,新潟県,糸魚川市,大字田伏５１８番地,,15,216,9410008,,,,,,,2025-12-03,1,,,,,サクラフクシ,0
2180,8120001282337,新規,0,2025-12-03,2025-12-03,株式会社ワンキューズ,,株式会社,大阪府,大阪市中央区,平野町３丁目１番８－８０２号,,27,128,5410046,,,,,,,2025-12-03,1,,,,,ワンキューズ,0
2181,8120001282345,新規,0,2025-12-03,2025-12-03,株式会社ｓｔａｙ　ｌｅｓｓ,,株式会社,大阪府,大阪市住吉区,我孫子東２丁目５番２６－３０１号,,27,120,5580013,,,,,,,2025-12-03,1,,,,,ステイレス,0
2182,8120001282403,新規,0,2025-12-03,2025-12-03,株式会社ハナロジャパン,,株式会社,大阪府,大阪市中央区,本町２丁目３番４号アソルティ本町４Ｆ,,27,128,5410053,,,,,,,2025-12-03,1,,,,,ハナロジャパン,0
2183,8120001282428,新規,0,2025-12-03,2025-12-03,アンナ・コーポレーション株式会社,,株式会社,大阪府,大阪市城東区,新喜多１丁目２番７－３６０５号,,27,118,5360015,,,,,,,2025-12-03,1,,,,,アンナコーポレーション,0
2184,8120001282444,新規,0,2025-12-03,2025-12-03,株式会社リカーハウスサケヤ,,株式会社,大阪府,大阪市東住吉区,駒川１丁目２１番１４－３０６号,,27,121,5460043,,,,,,,2025-12-03,1,,,,,リカーハウスサケヤ,0
2187,8120003031361,新規,0,2025-12-03,2025-12-03,合同会社ａｔｏｏｓｈ,,合同会社,大阪府,大阪市東住吉区,駒川５丁目２３－１３,,27,121,5460043,,,,,,,2025-12-03,1,,,,,アトゥーシュ,0
2190,8120101072885,新規,0,2025-12-03,2025-12-03,株式会社ＣＯＣＯＮＥ,,株式会社,大阪府,和泉市,和気町２丁目１０番１１号,,27,219,5940073,,,,,,,2025-12-03,1,,,,,ココネ,0
2197,8120901051873,新規,0,2025-12-03,2025-12-03,株式会社延寿生命院,,株式会社,大阪府,豊中市,小曽根１丁目１７番８の３号,,27,203,5610813,,,,,,,2025-12-03,1,,,,,エンジュセイメイイン,0
2201,8120903005976,新規,0,2025-12-03,2025-12-03,合同会社ＴＩＧ,,合同会社,大阪府,豊中市,豊南町西３丁目１５番１４号,,27,203,5610816,,,,,,,2025-12-03,1,,,,,ティアイジー,0
2203,8122001039964,新規,0,2025-12-03,2025-12-03,株式会社プラス,,株式会社,大阪府,八尾市,北亀井町１丁目３番１５号,,27,212,5810066,,,,,,,2025-12-03,1,,,,,プラス,0
2205,8130001081143,新規,0,2025-12-03,2025-12-03,株式会社ファミリエ,,株式会社,京都府,京都市右京区,西京極葛野町２６番地２,,26,108,6150882,,,,,,,2025-12-03,1,,,,,ファミリエ,0
2212,8140001140930,新規,0,2025-12-03,2025-12-03,株式会社ガークス,,株式会社,兵庫県,宝塚市,平井６丁目７番１７号,,28,214,6650816,,,,,,,2025-12-03,1,,,,,ガークス,0
2213,8140001140955,新規,0,2025-12-03,2025-12-03,アーキトレック株式会社,,株式会社,兵庫県,西宮市,西宮浜４丁目９番３－８０９号,,28,204,6620934,,,,,,,2025-12-03,1,,,,,アーキトレック,0
2214,8140001140963,新規,0,2025-12-03,2025-12-03,株式会社川西サーモン,,株式会社,兵庫県,川西市,大和西４丁目３番地の６,,28,217,6660112,,,,,,,2025-12-03,1,,,,,カワニシサーモン,0
2217,8140003022920,新規,0,2025-12-03,2025-12-03,ネオシナプス合同会社,,合同会社,兵庫県,神戸市北区,泉台４丁目４番地の１５,,28,109,6511141,,,,,,,2025-12-03,1,,,,,ネオシナプス,0
2222,8150003003762,新規,0,2025-12-03,2025-12-03,ギバー合同会社,,合同会社,奈良県,大和郡山市,天井町１９番地１８,,29,203,6391135,,,,,,,2025-12-03,1,,,,,ギバー,0
2235,8180001169735,新規,0,2025-12-03,2025-12-03,株式会社ナナマル水道,,株式会社,愛知県,春日井市,坂下町７丁目７６０番地１２２７,,23,206,4800305,,,,,,,2025-12-03,1,,,,,ナナマルスイドウ,0
2236,8180001169743,新規,0,2025-12-03,2025-12-03,イオテクノ株式会社,,株式会社,愛知県,名古屋市港区,小碓２丁目２２８番地－１０１号,,23,111,4550801,,,,,,,2025-12-03,1,,,,,イオテクノ,0
2238,8180003029425,新規,0,2025-12-03,2025-12-03,合同会社ＡＩＬＥＸ,,合同会社,愛知県,名古屋市中区,橘２丁目２番２２号メイクスＷアート上前津Ｖ１４０３号,,23,106,4600016,,,,,,,2025-12-03,1,,,,,エイレックス,0
2239,8180003029458,新規,0,2025-12-03,2025-12-03,ＡｌｌＦｏｒＯｎｅ東海合同会社,,合同会社,愛知県,名古屋市中区,金山１丁目４番４号,,23,106,4600022,,,,,,,2025-12-03,1,,,,,オールフォーワントウカイ,0
2247,8180303006826,新規,0,2025-12-03,2025-12-03,Ｍ＆Ｄ合同会社,,合同会社,愛知県,安城市,三河安城本町２丁目１番地４安城東海第一ビル５０３号室,,23,212,4460059,,,,,,,2025-12-03,1,,,,,エムアンドディー,0
2251,8190005012097,新規,0,2025-12-03,2025-12-03,一般社団法人緑技術,,その他の設立登記法人,三重県,伊賀市,上野恵美須町１６２１番地,,24,216,5180841,,,,,,,2025-12-03,1,,,,,ミドリギジュツ,0
2252,8200001044480,新規,0,2025-12-03,2025-12-03,株式会社Ｍアークエステート,,株式会社,岐阜県,岐阜市,東鶉２丁目１１２番地２,,21,201,5008281,,,,,,,2025-12-03,1,,,,,エムアークエステート,0
2253,8200003007163,新規,0,2025-12-03,2025-12-03,合同会社Ｎマネジメントサービス,,合同会社,岐阜県,大垣市,林町３丁目１８１番地２,,21,202,5030015,,,,,,,2025-12-03,1,,,,,エヌマネジメントサービス,0
2258,8240001065845,新規,0,2025-12-03,2025-12-03,株式会社Ｈｉｇｈｌｉｎｅ,,株式会社,広島県,広島市東区,戸坂新町２丁目１１番９号,,34,102,7320012,,,,,,,2025-12-03,1,,,,,ハイライン,0
2259,8240001065853,新規,0,2025-12-03,2025-12-03,麦わら工房株式会社,,株式会社,広島県,福山市,大門町３丁目３６番１７号,,34,207,7210926,,,,,,,2025-12-03,1,,,,,ムギワラコウボウ,0
2260,8250001021450,新規,0,2025-12-03,2025-12-03,株式会社ＹＯＵ青果,,株式会社,山口県,宇部市,大字東岐波３８９２番地６,,35,202,7550241,,,,,,,2025-12-03,1,,,,,ユーセイカ,0
2273,8290001112320,新規,0,2025-12-03,2025-12-03,株式会社ＧＯＲＩＬＬＡ工務店,,株式会社,福岡県,飯塚市,秋松２００番地３,,40,205,8200083,,,,,,,2025-12-03,1,,,,,ゴリラコウムテン,0
2282,8310005008883,新規,0,2025-12-03,2025-12-03,コーラルハイツ葉山管理組合法人,,その他の設立登記法人,長崎県,長崎市,葉山１丁目２８番３１号,,42,201,8528053,,,,,,,2025-12-03,1,,,,,コーラルハイツハヤマ,0
2287,8330001033792,新規,0,2025-12-03,2025-12-03,株式会社Ｈｉ‐Ｎｏｒｍａｌ,,株式会社,熊本県,菊池郡菊陽町,大字原水１１３０番地６,,43,404,8691102,,,,,,,2025-12-03,1,,,,,ハイノーマル,0
2288,8340001027819,新規,0,2025-12-03,2025-12-03,株式会社ＳＥＡＳＯＮＳエンターテインメント,,株式会社,鹿児島県,姶良市,加治木町新生町２０９南側テナントＳＥＡＳＯＮＳ,,46,225,8995223,,,,,,,2025-12-03,1,,,,,シーズンズエンターテインメント,0
2303,8370001053283,新規,0,2025-12-03,2025-12-03,株式会社ブリッジフィールド,,株式会社,宮城県,仙台市若林区,荒井１丁目２９番９号,,04,103,9840032,,,,,,,2025-12-03,1,,,,,ブリッジフィールド,0
2308,8380001035735,新規,0,2025-12-03,2025-12-03,あをそら株式会社,,株式会社,福島県,郡山市,麓山１丁目７番１６号,,07,203,9638876,,,,,,,2025-12-03,1,,,,,アヲソラ,0
2310,8390003002468,新規,0,2025-12-03,2025-12-03,合同会社アトリエ・ザオー,,合同会社,山形県,山形市,大字漆山１９５番地１２,,06,201,9902161,,,,,,,2025-12-03,1,,,,,アトリエザオー,0
2317,8430001095757,新規,0,2025-12-03,2025-12-03,株式会社ＵＴＡＲＩＩＩ,,株式会社,北海道,札幌市中央区,南二条西３丁目１２番地５,,01,101,0600062,,,,,,,2025-12-03,1,,,,,ウタリー,0
2324,8460103001767,新規,0,2025-12-03,2025-12-03,合同会社ソレイユ,,合同会社,北海道,帯広市,西二十四条南４丁目３５番地２２,,01,207,0802474,,,,,,,2025-12-03,1,,,,,ソレイユ,0
2328,8500001026655,新規,0,2025-12-03,2025-12-03,株式会社ジューサン,,株式会社,愛媛県,松山市,立花１丁目９番１２号アジア店装ビル３０２Ａ,,38,201,7900966,,,,,,,2025-12-03,1,,,,,ジューサン,0
2330,8700150007213,新規,0,2025-12-03,2015-10-09,日本歯科企業協議会,,その他,東京都,台東区,小島２丁目１６－１４日本歯科器械会館３階,,13,106,1110056,,,,,,,2015-10-09,1,,,,,ニホンシカキギヨウキヨウギカイ,0
2340,9010001260798,新規,0,2025-12-03,2025-12-03,前友株式会社,,株式会社,東京都,中央区,八丁堀３丁目２１番３－６０３号,,13,102,1040032,,,,,,,2025-12-03,1,,,,,ゼンユウ,0
2347,9010401194753,新規,0,2025-12-03,2025-12-03,株式会社ＭＡＲＯ’ｓ,,株式会社,東京都,港区,三田５丁目７－８シャンボール三田６０５,,13,103,1080073,,,,,,,2025-12-03,1,,,,,,0
2348,9010401194844,新規,0,2025-12-03,2025-12-03,平伊ハウジング株式会社,,株式会社,東京都,港区,芝１丁目２番１４号Ｈ１Ｏ浜松町１０１４,,13,103,1050014,,,,,,,2025-12-03,1,,,,,ヒライハウジング,0
2349,9010401194877,新規,0,2025-12-03,2025-12-03,リバリュー株式会社,,株式会社,東京都,港区,北青山１丁目３番１号アールキューブ青山３階,,13,103,1070061,,,,,,,2025-12-03,1,,,,,リバリュー,0
2352,9010403036706,新規,0,2025-12-03,2025-12-03,Ｗａｒｍ合同会社,,合同会社,東京都,港区,六本木１丁目８番７号,,13,103,1060032,,,,,,,2025-12-03,1,,,,,ヴァルム,0
2353,9010403036747,新規,0,2025-12-03,2025-12-03,合同会社Ｂｉｚｉｎｏｖｅ,,合同会社,東京都,港区,北青山１丁目３番１号アールキューブ青山３階,,13,103,1070061,,,,,,,2025-12-03,1,,,,,ビジノーヴ,0
2355,9010405025070,新規,0,2025-12-03,2025-12-03,ＳＲＰ１一般社団法人,,その他の設立登記法人,東京都,港区,虎ノ門３丁目２２番１０－２０１号,,13,103,1050001,,,,,,,2025-12-03,1,,,,,エスアールピーワン,0
2366,9010701048700,新規,0,2025-12-03,2025-12-03,Ｃｕｔｉｅ＆Ｃｒａｚｙ　Ｃｏｍｐａｎｙ株式会社,,株式会社,東京都,品川区,旗の台５丁目１２番３号,,13,109,1420064,,,,,,,2025-12-03,1,,,,,キューティーアンドクレイジーカンパニー,0
2381,9011001173882,新規,0,2025-12-03,2025-12-03,株式会社ａｍ　ｙａｍａｓｈｉ,,株式会社,東京都,渋谷区,道玄坂１丁目１０番８号渋谷道玄坂東急ビル２Ｆ－Ｃ,,13,113,1500043,,,,,,,2025-12-03,1,,,,,アムヤマシ,0
2382,9011001173899,新規,0,2025-12-03,2025-12-03,Ｒｅｎｅｗ　ＩＴ　Ｊａｐａｎ株式会社,,株式会社,東京都,渋谷区,恵比寿南１丁目１番１号ヒューマックス恵比寿ビル８階,,13,113,1500022,,,,,,,2025-12-03,1,,,,,リニューアイティージャパン,0
2383,9011001174022,新規,0,2025-12-03,2025-12-03,株式会社セーブ,,株式会社,東京都,渋谷区,渋谷２丁目２番４－７１１号,,13,113,1500002,,,,,,,2025-12-03,1,,,,,セーブ,0
2384,9011001174047,新規,0,2025-12-03,2025-12-03,株式会社ＳＲＣＰ３号,,株式会社,東京都,渋谷区,道玄坂１丁目１０番８号渋谷道玄坂東急ビル２Ｆ－Ｃ,,13,113,1500043,,,,,,,2025-12-03,1,,,,,エスアールシーピーサンゴウ,0
2387,9011003022971,新規,0,2025-12-03,2025-12-03,Ｔｈｅ　Ｍａｈｉｎａ　Ｕｎｉｏｎ合同会社,,合同会社,東京都,渋谷区,桜丘町１７番１２号渋谷ジョンソンビル４０１,,13,113,1500031,,,,,,,2025-12-03,1,,,,,ザマヒナユニオン,0
2388,9011003023053,新規,0,2025-12-03,2025-12-03,合同会社リトルビットラボ,,合同会社,東京都,渋谷区,道玄坂１丁目１０番８号渋谷道玄坂東急ビル２Ｆ‐Ｃ,,13,113,1500043,,,,,,,2025-12-03,1,,,,,リトルビットラボ,0
2402,9011201026832,新規,0,2025-12-03,2025-12-03,ヒンリンアセット株式会社,,株式会社,東京都,中野区,南台３丁目４２番１号,,13,114,1640014,,,,,,,2025-12-03,1,,,,,ヒンリンアセット,0
2403,9011303005783,新規,0,2025-12-03,2025-12-03,合同会社ＳＤＩ,,合同会社,東京都,杉並区,今川１丁目１６－１９ＩＭＧＣｏ－ｐｏ４－３０３,00141702,13,115,1670035,,,,,,,2025-12-03,1,,,,,エスディーアイ,0
2410,9011701028980,新規,0,2025-12-03,2025-12-03,株式会社ＳＡＮＺＥＭ,,株式会社,東京都,江戸川区,北葛西１丁目３番５号,,13,123,1340081,,,,,,,2025-12-03,1,,,,,サンゼム,0
2419,9012401043873,新規,0,2025-12-03,2025-12-03,株式会社ｍａｕｖｅ　Ｄｅｓｉｇｎ,,株式会社,東京都,三鷹市,下連雀４丁目２２番１９号シャトー・ボナール１０２,,13,204,1810013,,,,,,,2025-12-03,1,,,,,モーヴデザイン,0
2420,9012401043881,新規,0,2025-12-03,2025-12-03,エンジェルゴルフ株式会社,,株式会社,東京都,小金井市,梶野町１丁目２－３６,,13,210,1840002,,,,,,,2025-12-03,1,,,,,エンジェルゴルフ,0
2424,9012701019210,新規,0,2025-12-03,2025-12-03,株式会社エバーリンク,,株式会社,東京都,東村山市,青葉町２丁目３８番地３９,,13,213,1890002,,,,,,,2025-12-03,1,,,,,エバーリンク,0
2426,9012703003419,新規,0,2025-12-03,2025-12-03,合同会社ＨＩＢＩＫＩ,,合同会社,東京都,小平市,美園町１丁目８番１号,,13,211,1870041,,,,,,,2025-12-03,1,,,,,ヒビキ,0
2430,9013301055414,新規,0,2025-12-03,2025-12-03,株式会社Ｃｏｎｇａｒｏｏ,,株式会社,東京都,豊島区,東池袋１丁目４２番１４号２８山京ビル７階１５号室,,13,116,1700013,,,,,,,2025-12-03,1,,,,,コンガルー,0
2434,9020001166020,新規,0,2025-12-03,2025-12-03,株式会社テラソフィア,,株式会社,神奈川県,川崎市川崎区,小田７丁目１番１－１０７号,,14,131,2100846,,,,,,,2025-12-03,1,,,,,テラソフィア,0
2435,9020001166029,新規,0,2025-12-03,2025-12-03,株式会社豊祥,,株式会社,神奈川県,横浜市青葉区,鴨志田町５６６番地８アザレアＩＩＩ－１０１号,00141721,14,117,2270033,,,,,,,2025-12-03,1,,,,,ホウショウ,0
2436,9020001166086,新規,0,2025-12-03,2025-12-03,ＡＫＨＡＬ株式会社,,株式会社,神奈川県,川崎市中原区,中丸子１３番地１０－１２０８号,,14,133,2110012,,,,,,,2025-12-03,1,,,,,アクハル,0
2437,9020001166103,新規,0,2025-12-03,2025-12-03,ＭＭＲＪ株式会社,,株式会社,神奈川県,横浜市港北区,新吉田東８丁目３５番９－７０３号,,14,109,2230058,,,,,,,2025-12-03,1,,,,,エムエムアールジェイ,0
2438,9020001166160,新規,0,2025-12-03,2025-12-03,株式会社鶏ふじ,,株式会社,神奈川県,横浜市南区,永田南２丁目２番２号,,14,105,2320073,,,,,,,2025-12-03,1,,,,,トリフジ,0
2439,9020003029860,新規,0,2025-12-03,2025-12-03,リコム合同会社,,合同会社,神奈川県,横浜市神奈川区,金港町５－１４クアドリフォリオ８階,,14,102,2210056,,,,,,,2025-12-03,1,,,,,リコム,0
2440,9020003029877,新規,0,2025-12-03,2025-12-03,合同会社ムーラン,,合同会社,神奈川県,川崎市川崎区,追分町２番６号大原ビル４０３,,14,131,2100835,,,,,,,2025-12-03,1,,,,,ムーラン,0
2452,9030001169864,新規,0,2025-12-03,2025-12-03,株式会社ＭＯＴＯＹＡ,,株式会社,埼玉県,川口市,大字東内野５８５番地の２３,,11,203,3330821,,,,,,,2025-12-03,1,,,,,,0
2453,9030001169922,新規,0,2025-12-03,2025-12-03,ＵＡＩ株式会社,,株式会社,埼玉県,鴻巣市,鎌塚５丁目４番３１号,,11,217,3690112,,,,,,,2025-12-03,1,,,,,ユーエイアイ,0
2462,9040001141590,新規,0,2025-12-03,2025-12-03,ＩＮＴＥＲＮＡＴＩＯＮＡＬ　Ｄｏｍｅｓｔｉｃ　Ｈｅｌｐｅｒ株式会社,,株式会社,千葉県,市川市,中国分３丁目９番５号,,12,203,2720835,,,,,,,2025-12-03,1,,,,,インターナショナルドメスティックヘルパー,0
2463,9040001141608,新規,0,2025-12-03,2025-12-03,株式会社田口設備,,株式会社,千葉県,我孫子市,新木２６５０番地の１,,12,222,2701112,,,,,,,2025-12-03,1,,,,,タグチセツビ,0
2464,9040001141616,新規,0,2025-12-03,2025-12-03,株式会社ＣＯＮＥＣＴＡ,,株式会社,千葉県,千葉市稲毛区,小仲台６丁目２番９号ＦＹＳビル,,12,103,2630043,,,,,,,2025-12-03,1,,,,,コネクタ,0
2475,9050003009785,新規,0,2025-12-03,2025-12-03,合同会社金丸,,合同会社,茨城県,古河市,鴻巣９７７番１,,08,204,3060041,,,,,,,2025-12-03,1,,,,,カネマル,0
2477,9060001038810,新規,0,2025-12-03,2025-12-03,株式会社ＭＩＫＵＭＩ,,株式会社,栃木県,大田原市,浅香２丁目３５７１番地５フィールドパーク２０４号,,09,210,3240043,,,,,,,2025-12-03,1,,,,,ミクニ,0
2481,9070001043611,新規,0,2025-12-03,2025-12-03,株式会社シェイカーズ,,株式会社,群馬県,前橋市,西片貝町２丁目３９１番地５,,10,201,3710013,,,,,,,2025-12-03,1,,,,,シェイカーズ,0
2484,9080401028293,新規,0,2025-12-03,2025-12-03,株式会社統大,,株式会社,静岡県,浜松市中央区,下石田町９６９番地の２,,22,138,4350006,,,,,,,2025-12-03,1,,,,,トウダイ,0
2489,9100005013425,新規,0,2025-12-03,2025-12-03,一般財団法人八十二みらい財団,,その他の設立登記法人,長野県,長野市,大字中御所字岡田１７８番地８,,20,201,3800935,,,,,,,2025-12-03,1,,,,,ハチジュウニミライザイダン,0
2492,9110001039761,新規,0,2025-12-03,2025-12-03,株式会社テクノホールディングス,,株式会社,新潟県,新潟市南区,北田中５１８番地１０,,15,106,9501237,,,,,,,2025-12-03,1,,,,,テクノホールディングス,0
2503,9120001280232,新規,0,2025-12-03,2025-12-03,株式会社Ｔｈｅ　Ｂａｃｋｏｆｆｉｃｅ,,株式会社,大阪府,大阪市北区,梅田１丁目１３－１,,27,127,5300001,,,,,,,2025-12-03,1,,,,,ザバックオフィス,0
2504,9120001282427,新規,0,2025-12-03,2025-12-03,ＡＮＫＯＩ株式会社,,株式会社,大阪府,大阪市西成区,玉出中１丁目１６番４－６０３号,,27,122,5570044,,,,,,,2025-12-03,1,,,,,アンコイ,0
2510,9120003031154,新規,0,2025-12-03,2025-12-03,合同会社ＮｅｘｔＥｄｇｅ,,合同会社,大阪府,大阪市淀川区,三津屋北２丁目１５番４５－９０３号,,27,123,5320032,,,,,,,2025-12-03,1,,,,,ネクストエッジ,0
2511,9120003031360,新規,0,2025-12-03,2025-12-03,合同会社ファミリーオフィス,,合同会社,大阪府,大阪市北区,豊崎４丁目２番１６号８０２,,27,127,5310072,,,,,,,2025-12-03,1,,,,,ファミリーオフィス,0
2512,9120003031377,新規,0,2025-12-03,2025-12-03,添然合同会社,,合同会社,大阪府,大阪市東成区,大今里西３丁目２－２９、３０３号室,,27,115,5370014,,,,,,,2025-12-03,1,,,,,テンゼン,0
2516,9120101072884,新規,0,2025-12-03,2025-12-03,株式会社せかいとう,,株式会社,大阪府,堺市堺区,北三国ヶ丘町１丁２番１８－１号,,27,141,5900021,,,,,,,2025-12-03,1,,,,,セカイトウ,0
2517,9120101072892,新規,0,2025-12-03,2025-12-03,株式会社メルシーボク,,株式会社,大阪府,河内長野市,木戸１丁目６番４３号,,27,216,5860001,,,,,,,2025-12-03,1,,,,,メルシーボク,0
2518,9120101072901,新規,0,2025-12-03,2025-12-03,ギフトマンズワークス株式会社,,株式会社,大阪府,堺市中区,辻之８６４番地２２,00141720,27,142,5998245,,,,,,,2025-12-03,1,,,,,ギフトマンズワークス,0
2521,9120901051872,新規,0,2025-12-03,2025-12-03,Ｓｅｄｕｃｅ　Ｓｔｕｄｉｏ株式会社,,株式会社,大阪府,吹田市,千里丘中９番７‐Ｃ号,,27,205,5650812,,,,,,,2025-12-03,1,,,,,セデューススタジオ,0
2522,9120901051897,新規,0,2025-12-03,2025-12-03,株式会社ｌｉｎｋ　ｐｒｏｐｅｒｔｙ,,株式会社,大阪府,茨木市,桑田町１１番３号,,27,211,5670841,,,,,,,2025-12-03,1,,,,,リンクプロパティ,0
2523,9122001039823,新規,0,2025-12-03,2025-12-03,株式会社ｄｏｔ　Ｒｅｃ．,,株式会社,大阪府,八尾市,新家町８丁目５１番地の６,,27,212,5810811,,,,,,,2025-12-03,1,,,,,ドットアールイーシー,0
2524,9122001039971,新規,0,2025-12-03,2025-12-03,株式会社丞琉,,株式会社,大阪府,東大阪市,花園東町２丁目１６番４３号,,27,227,5780931,,,,,,,2025-12-03,1,,,,,ツグル,0
2526,9122003003397,新規,0,2025-12-03,2025-12-03,合同会社ケアアソシエイツ,,合同会社,大阪府,柏原市,国分西１丁目１番１７号幸喜ビル２０１号,,27,221,5820025,,,,,,,2025-12-03,1,,,,,ケアアソシエイツ,0
2530,9130001081134,新規,0,2025-12-03,2025-12-03,株式会社だるま青果,,株式会社,京都府,京都市南区,吉祥院西ノ庄西浦町１４番地１２,,26,107,6018301,,,,,,,2025-12-03,1,,,,,ダルマセイカ,0
2532,9130003010801,新規,0,2025-12-03,2025-12-03,合同会社ｐｒｅｃｉｏｕｓ,,合同会社,京都府,福知山市,字岡ノ１３６－５－１０５,,26,201,6200000,,,,,,,2025-12-03,1,,,,,プレシャス,0
2533,9130003010974,新規,0,2025-12-03,2025-12-03,Ｓ　Ｄａｎｃｅ　Ｎｅｓｔ合同会社,,合同会社,京都府,宇治市,伊勢田町中山７６番地の２２,,26,204,6110043,,,,,,,2025-12-03,1,,,,,エスダンスネスト,0
2538,9140001140938,新規,0,2025-12-03,2025-12-03,株式会社スマイルモビリティサポート,,株式会社,兵庫県,川西市,加茂２丁目１８番２１号,,28,217,6660025,,,,,,,2025-12-03,1,,,,,スマイルモビリティサポート,0
2543,9140003022911,新規,0,2025-12-03,2025-12-03,Ｄｒｉｆｔ　Ｊａｐａｎ合同会社,,合同会社,兵庫県,加西市,山枝町３４８,,28,220,6790108,,,,,,,2025-12-03,1,,,,,ドリフトジャパン,0
2547,9170001018900,新規,0,2025-12-03,2025-12-03,株式会社Ｒｉｖｅｒ　Ｗｅｓｔ,,株式会社,和歌山県,和歌山市,西庄１０５６番地２６７,,30,201,6400112,,,,,,,2025-12-03,1,,,,,リバーウエスト,0
2561,9180001169684,新規,0,2025-12-03,2025-12-03,株式会社ロイヤルネクサス,,株式会社,愛知県,名古屋市天白区,表山３丁目２４２８番地の４,,23,116,4680069,,,,,,,2025-12-03,1,,,,,ロイヤルネクサス,0
2562,9180001169701,新規,0,2025-12-03,2025-12-03,株式会社ＰＯＮＴＡ　ＣＲＥＷ,,株式会社,愛知県,長久手市,鴨田７０５番地,,23,238,4801165,,,,,,,2025-12-03,1,,,,,ポンタクルー,0
2563,9180001169726,新規,0,2025-12-03,2025-12-03,Ｖｉｔａｌ　Ｂｒｉｄｇｅ株式会社,,株式会社,愛知県,名古屋市昭和区,藤成通５丁目１番地桜山アイリス弐番館９０１号,,23,107,4660845,,,,,,,2025-12-03,1,,,,,バイタルブリッジ,0
2564,9180001169742,新規,0,2025-12-03,2025-12-03,ベルエステート株式会社,,株式会社,愛知県,あま市,七宝町遠島新開２７番地１,,23,237,4970002,,,,,,,2025-12-03,1,,,,,ベルエステート,0
2565,9180001169759,新規,0,2025-12-03,2025-12-03,株式会社Ｋ．ＳＴＹＬＥ,,株式会社,愛知県,一宮市,あずら１丁目８番３１号,,23,203,4910835,,,,,,,2025-12-03,1,,,,,ケースタイル,0
2584,9200001044455,新規,0,2025-12-03,2025-12-03,ＦＬＣホールディングス株式会社,,株式会社,岐阜県,各務原市,大野町６丁目７９番地１,,21,213,5040934,,,,,,,2025-12-03,1,,,,,エフエルシーホールディングス,0
2585,9200001044488,新規,0,2025-12-03,2025-12-03,株式会社ＭＯＦＦＹ,,株式会社,岐阜県,瑞穂市,別府７９３番地５,,21,216,5010222,,,,,,,2025-12-03,1,,,,,モッフィー,0
2589,9210001020406,新規,0,2025-12-03,2025-12-03,株式会社ＳＬＣ,,株式会社,福井県,鯖江市,小泉町第６号１０番地５,,18,207,9160084,,,,,,,2025-12-03,1,,,,,エスエルシー,0
2590,9220001027045,新規,0,2025-12-03,2025-12-03,ルートエステート株式会社,,株式会社,石川県,金沢市,西都１丁目２２６番地,,17,201,9208202,,,,,,,2025-12-03,1,,,,,ルートエステート,0
2595,9250005009045,新規,0,2025-12-03,2025-12-03,コスタ団地管理組合法人,,その他の設立登記法人,山口県,柳井市,阿月６８８番地５,,35,212,7421353,,,,,,,2025-12-03,1,,,,,コスタ,0
2603,9260003005441,新規,0,2025-12-03,2025-12-03,９７ＴＡＧ合同会社,,合同会社,岡山県,岡山市南区,古新田４５１,,33,104,7010203,,,,,,,2025-12-03,1,,,,,キューナナタグ,0
2617,9290001112336,新規,0,2025-12-03,2025-12-03,セイコー・アーキライン株式会社,,株式会社,福岡県,福岡市博多区,東光寺町１丁目４番１７号,,40,132,8120896,,,,,,,2025-12-03,1,,,,,セイコーアーキライン,0
2618,9290001112360,新規,0,2025-12-03,2025-12-03,株式会社下川,,株式会社,福岡県,福岡市東区,香椎照葉７丁目９番１０号,,40,131,8130017,,,,,,,2025-12-03,1,,,,,シモカワ,0
2626,9290801032064,新規,0,2025-12-03,2025-12-03,株式会社ｏｆｆｉｃｉｎａｌｉｓ,,株式会社,福岡県,北九州市小倉南区,大字母原６５４－２,,40,107,8030187,,,,,,,2025-12-03,1,,,,,オフィシナリス,0
2632,9320003004841,新規,0,2025-12-03,2025-12-03,Ｔａｋｔｉｃｓ合同会社,,合同会社,大分県,別府市,駅前本町９番７号コモールカフェ別府４２０,,44,202,8740934,,,,,,,2025-12-03,1,,,,,タクティクス,0
2634,9330001033791,新規,0,2025-12-03,2025-12-03,株式会社Ｍｏｔｈｅｒ’ｓ,,株式会社,熊本県,熊本市中央区,新町４丁目３－４３サンホワイト新町８０２,,43,101,8600004,,,,,,,2025-12-03,1,,,,,マザーズ,0
2650,9390001018168,新規,0,2025-12-03,2025-12-03,株式会社招き猫,,株式会社,山形県,山形市,蔵王成沢６８０番地２３,,06,201,9902334,,,,,,,2025-12-03,1,,,,,マネキネコ,0
2654,9400003003570,新規,0,2025-12-03,2025-12-03,合同会社コバルトシンク,,合同会社,岩手県,紫波郡紫波町,二日町字大橋２６番地６,,03,321,0283304,,,,,,,2025-12-03,1,,,,,コバルトシンク,0
2658,9420001019352,新規,0,2025-12-03,2025-12-03,株式会社晴海,,株式会社,青森県,八戸市,大字櫛引字上矢倉１番地５,00141704,02,203,0391107,,,,,,,2025-12-03,1,,,,,ハルミ,0
2663,9450001014796,新規,0,2025-12-03,2025-12-03,株式会社ＦＦＦ,,株式会社,北海道,旭川市,神居七条１８丁目１番８号,,01,204,0708017,,,,,,,2025-12-03,1,,,,,エフエフエフ,0
2672,9470005006664,新規,0,2025-12-03,2025-12-03,一般社団法人ＴＫＢサポート,,その他の設立登記法人,香川県,坂出市,川津町６２７８番地２,,37,203,7620025,,,,,,,2025-12-03,1,,,,,ティーケービーサポート,0
2673,9480001013028,新規,0,2025-12-03,2025-12-03,電子サプリメントジャパン株式会社,,株式会社,徳島県,徳島市,東新町２丁目３８番地１,,36,201,7700912,,,,,,,2025-12-03,1,,,,,デンシサプリメントジャパン,0
2675,9490003002069,新規,0,2025-12-03,2025-12-03,合同会社ａｍａｚｅ,,合同会社,高知県,高知市,廿代町４番９号メトロポリタンビル６階西,,39,201,7800843,,,,,,,2025-12-03,1,,,,,アメイズ,0
2683,9700150133149,新規,0,2025-12-03,2025-12-03,龍游億洋進出口貿易有限公司,,外国会社等,,,,,,,,中国浙江省小南海鎮光明路６８－６号,,,,,,2025-12-03,1,,,,,リュウユウオクヨウシュシュツコウボウエキユウゲンコウシ,0
