sequenceNumber,corporateNumber,process,correct,updateDate,changeDate,name,nameImageId,kind,prefectureName,cityName,streetNumber,addressImageId,prefectureCode,cityCode,postCode,addressOutside,addressOutsideImageId,closeDate,closeCause,successorCorporateNumber,changeCause,assignmentDate,latest,enName,enPrefectureName,enCityName,enAddressOutside,furigana,hihyoji
8,1010002051460,登記記録の閉鎖等,0,2021-12-27,2021-12-21,有限会社東京ポートフォリオインベストメント,,有限会社,東京都,中央区,日本橋１丁目４番１号日本橋一丁目ビルディング１１階,,13,102,1030027,,,2021-12-21,清算の結了等,,,2015-10-05,1,,,,,トウキョウポートフォリオインベストメント,0
10,1010401065838,登記記録の閉鎖等,0,2021-12-27,2021-12-20,株式会社ラグランジュ,,株式会社,東京都,港区,南青山２丁目２番１５号ウィン青山１３１７号,,13,103,1070062,,,2021-12-20,清算の結了等,,,2015-10-05,1,,,,,,0
29,1010702006111,登記記録の閉鎖等,0,2021-12-27,2021-12-22,日新精工有限会社,,有限会社,東京都,品川区,大井１丁目２５番３－３０４号,,13,109,1400014,,,2021-12-22,清算の結了等,,,2015-10-05,1,,,,,ニッシンセイコウ,0
34,1010902024887,登記記録の閉鎖等,0,2021-12-27,2021-12-23,有限会社リテイラーズ・ブレイン,,有限会社,東京都,世田谷区,代田６丁目１２番２１号,,13,112,1550033,,,2021-12-23,清算の結了等,,,2015-10-05,1,,,,,リテイラーズブレイン,0
68,1011801009681,登記記録の閉鎖等,0,2021-12-27,2021-12-24,株式会社ダンジヨー,,株式会社,東京都,足立区,千住曙町３７番１０号,,13,121,1200023,,,2021-12-24,清算の結了等,,,2015-10-05,1,,,,,ダンジヨー,0
86,1021001063470,登記記録の閉鎖等,0,2021-12-27,2021-12-01,株式会社陸送システム,,株式会社,神奈川県,厚木市,三田字川渕２９３８番地,,14,212,2430211,,,2021-12-01,合併による解散等,6021001022083,令和３年１２月１日神奈川県厚木市下川入１２８１番１６株式会社ヒラテック（6021001022083）に合併し解散,2017-11-09,1,,,,,リクソウシステム,0
91,1021003010801,登記記録の閉鎖等,0,2021-12-27,2021-12-22,ひかり合同会社,,合同会社,神奈川県,相模原市中央区,上溝６０７番地８,,14,152,2520243,,,2021-12-22,清算の結了等,,,2021-08-16,1,,,,,ヒカリ,0
95,1030002099630,登記記録の閉鎖等,0,2021-12-27,2021-12-23,有限会社永瀬木材,,有限会社,埼玉県,川口市,川口４丁目５番４６号,,11,203,3320015,,,2021-12-23,清算の結了等,,,2015-10-05,1,,,,,ナガセモクザイ,0
110,1040002077817,登記記録の閉鎖等,0,2021-12-27,2021-12-21,有限会社山元,,有限会社,千葉県,東金市,川場１１０３番地２,,12,213,2830064,,,2021-12-21,清算の結了等,,,2015-10-05,1,,,,,ヤマゲン,0
117,1060001033100,登記記録の閉鎖等,0,2021-12-27,2021-12-22,Ｋ．Ｙ．Ｃ株式会社,,株式会社,栃木県,佐野市,大和町２６９９番地,,09,204,3270027,,,2021-12-22,清算の結了等,,,2020-11-02,1,,,,,ケーワイシー,0
122,1080401002108,登記記録の閉鎖等,0,2021-12-27,2021-12-16,株式会社静岡保険サービス,,株式会社,静岡県,浜松市中区,向宿２丁目３０番８号,,22,131,4300851,,,2021-12-16,清算の結了等,,,2015-10-05,1,,,,,シズオカホケンサービス,0
140,1120001036105,登記記録の閉鎖等,0,2021-12-27,2021-12-22,株式会社パステルアート,,株式会社,大阪府,大阪市福島区,福島８丁目８番３号,,27,103,5530003,,,2021-12-22,清算の結了等,,,2015-10-05,1,,,,,パステルアート,0
175,1130001039932,登記記録の閉鎖等,0,2021-12-27,2021-12-17,株式会社ダンディ,,株式会社,京都府,京都市伏見区,深草西浦町４丁目５１番地１メゾン・ヴィーナス２階,,26,109,6120029,,,2021-12-17,合併による解散等,4130001065439,令和３年１２月１３日京都市伏見区深草西浦町四丁目５１番地１メゾン・ヴィーナス２階株式会社タイコーストック（4130001065439）に合併し解散,2015-10-05,1,,,,,ダンディ,0
181,1130003003366,登記記録の閉鎖等,0,2021-12-27,2021-12-22,合同会社ＫＫＳ,,合同会社,京都府,京都市南区,吉祥院中河原里西町１５番地,,26,107,6018393,,,2021-12-22,清算の結了等,,,2015-10-05,1,,,,,ケーケーエス,0
183,1140001018456,登記記録の閉鎖等,0,2021-12-27,2021-12-23,株式会社重清組,,株式会社,兵庫県,神戸市垂水区,下畑町字清玄作山５５０番地の２０,,28,108,6550861,,,2021-12-23,清算の結了等,,,2015-10-05,1,,,,,シゲキヨグミ,0
194,1160001013117,登記記録の閉鎖等,0,2021-12-27,2021-12-21,扶桑工業株式会社,,株式会社,滋賀県,草津市,草津２丁目１６番２９号,,25,206,5250034,,,2021-12-21,清算の結了等,,,2015-10-05,1,,,,,フソウコウギョウ,0
203,1180001110507,登記記録の閉鎖等,0,2021-12-27,2021-12-21,株式会社青山設計Ａｒｃｈｉ　ｄｅｓｉｇｎ　ｄｅｓｋ,,株式会社,愛知県,名古屋市千種区,内山３丁目７番１１号－２,,23,101,4640075,,,2021-12-21,清算の結了等,,,2015-10-05,1,,,,,アオヤマセッケイアーチデザインデスク,0
209,1180002046650,登記記録の閉鎖等,0,2021-12-27,2021-12-22,有限会社サントラスト,,有限会社,愛知県,名古屋市昭和区,川名本町３丁目４８番地,,23,107,4660855,,,2021-12-22,清算の結了等,,,2015-10-05,1,,,,,サントラスト,0
219,1190005009819,登記記録の閉鎖等,0,2021-12-27,2021-12-24,特定非営利活動法人さくら三川クラブ,,その他の設立登記法人,三重県,四日市市,鵜の森１丁目４番３号メディカルセンタービル内,,24,202,5100074,,,2021-12-24,清算の結了等,,,2015-10-05,1,,,,,サクラサンセンクラブ,0
220,1200001014102,登記記録の閉鎖等,0,2021-12-27,2021-12-24,日本工務株式会社,,株式会社,岐阜県,大垣市,稲葉東２丁目３８番地,,21,202,5032224,,,2021-12-24,清算の結了等,,,2015-10-05,1,,,,,,0
241,1260005008276,登記記録の閉鎖等,0,2021-12-27,2021-12-13,金光教番田教会,,その他の設立登記法人,岡山県,玉野市,番田１６４０番地,,33,204,7060304,,,2021-12-13,合併による解散等,7260005000450,令和３年１２月１３日岡山市東区才崎３０４番地金光教才崎教会（7260005000450）に合併し解散,2015-10-05,1,,,,,,0
250,1290805007796,登記記録の閉鎖等,0,2021-12-27,2021-12-10,天理教福添分教会,,その他の設立登記法人,福岡県,田川郡添田町,大字添田９４１番地の６,,40,602,8240602,,,2021-12-10,合併による解散等,9290005008431,令和３年１２月９日福岡県嘉麻市上山田１１８７番地の３天理教筑山分教会（9290005008431）に合併し解散,2015-10-05,1,,,,,,0
262,1350001013213,登記記録の閉鎖等,0,2021-12-27,2021-12-20,株式会社松野エコエネルギー,,株式会社,宮崎県,都城市,高崎町江平７０３番地１,,45,202,8894502,,,2021-12-20,合併による解散等,7010001133551,令和３年１２月１４日宮崎県都城市豊満町９８０番地１株式会社ヌフ（7010001133551）に合併し解散,2015-10-05,1,,,,,マツノエコエネルギー,0
294,1430002028383,登記記録の閉鎖等,0,2021-12-27,2021-12-23,有限会社パック・プラン,,有限会社,北海道,札幌市中央区,北一条西２２丁目３－３,,01,101,0640821,,,2021-12-23,清算の結了等,,,2015-10-05,1,,,,,パックプラン,0
295,1430002054438,登記記録の閉鎖等,0,2021-12-27,2021-12-21,有限会社佐々木時計店,,有限会社,北海道,小樽市,稲穂２丁目１１番５号,,01,203,0470032,,,2021-12-21,清算の結了等,,,2015-10-05,1,,,,,ササキトケイテン,0
299,1430003009746,登記記録の閉鎖等,0,2021-12-27,2021-12-22,合同会社クールキャビン,,合同会社,北海道,札幌市北区,北十三条西３丁目１番２０－５０１号,,01,102,0010013,,,2021-12-22,清算の結了等,,,2018-09-28,1,,,,,クールキャビン,0
334,2010401021798,登記記録の閉鎖等,0,2021-12-27,2021-12-22,株式会社日米コミュニケーションセンター,,株式会社,神奈川県,横浜市戸塚区,下倉田町８２８番地１２０,,14,110,2440815,,,2021-12-22,清算の結了等,,,2015-10-05,1,,,,,ニチベイコミュニケーションセンター,0
355,2010502008364,登記記録の閉鎖等,0,2021-12-27,2021-12-23,有限会社中辻商店,,有限会社,東京都,台東区,三筋１丁目１３番６号,,13,106,1110055,,,2021-12-23,清算の結了等,,,2015-10-05,1,,,,,ナカツジショウテン,0
358,2010601043626,登記記録の閉鎖等,0,2021-12-27,2021-12-22,株式会社ハリリブール,,株式会社,東京都,江東区,亀戸６丁目５８番１０号３階,,13,108,1360071,,,2021-12-22,清算の結了等,,,2015-10-05,1,,,,,ハリリブール,0
359,2010602003579,登記記録の閉鎖等,0,2021-12-27,2021-12-22,有限会社土屋機材,,有限会社,東京都,墨田区,立花１丁目２８番４－２２４号,,13,107,1310043,,,2021-12-22,清算の結了等,,,2015-10-05,1,,,,,,0
361,2010901031099,登記記録の閉鎖等,0,2021-12-27,2021-12-14,ＮＦコンサルティング株式会社,,株式会社,東京都,渋谷区,笹塚２丁目１番１４号,,13,113,1510073,,,2021-12-14,清算の結了等,,,2015-10-05,1,,,,,エヌエフコンサルティング,0
364,2011001016420,登記記録の閉鎖等,0,2021-12-27,2021-12-13,東京デザインサービス株式会社,,株式会社,東京都,渋谷区,桜丘町７番１０号,,13,113,1500031,,,2021-12-13,清算の結了等,,,2015-10-05,1,,,,,トウキョウデザインサービス,0
371,2011003011568,登記記録の閉鎖等,0,2021-12-27,2021-12-14,合同会社ＩＬＬＢ,,合同会社,東京都,渋谷区,桜丘町２３番１７号シティコート桜丘４０８,,13,113,1500031,,,2021-12-14,清算の結了等,,,2020-08-28,1,,,,,アイルビー,0
383,2011401004009,登記記録の閉鎖等,0,2021-12-27,2021-12-21,田川電設株式会社,,株式会社,東京都,豊島区,池袋本町３丁目７番３２号,,13,116,1700011,,,2021-12-21,清算の結了等,,,2015-10-05,1,,,,,タガワデンセツ,0
402,2020001057300,登記記録の閉鎖等,0,2021-12-27,2021-12-22,株式会社多摩オールフラッツ,,株式会社,神奈川県,横浜市西区,みなとみらい３丁目６番１号みなとみらいセンタービル１４階,,14,103,2200012,,,2021-12-22,清算の結了等,,,2015-10-05,1,,,,,タマオールフラッツ,0
403,2020001066524,登記記録の閉鎖等,0,2021-12-27,2021-12-22,株式会社大和精機製作所,,株式会社,神奈川県,川崎市高津区,下野毛１丁目６番３６号,,14,134,2130006,,,2021-12-22,清算の結了等,,,2015-10-05,1,,,,,ヤマトセイキセイサクショ,0
432,2040001101725,登記記録の閉鎖等,0,2021-12-27,2021-12-20,ＮＩＹコンサルティング株式会社,,株式会社,東京都,港区,西新橋１丁目６番１２号,,13,103,1050003,,,2021-12-20,清算の結了等,,,2017-09-12,1,,,,,エヌアイワイコンサルティング,0
441,2060001022928,登記記録の閉鎖等,0,2021-12-27,2021-12-09,マーレベーアサーマルシステムズジャパン株式会社,,株式会社,栃木県,小山市,犬塚１丁目４８０番地,,09,208,3230811,,,2021-12-09,合併による解散等,2013301030522,令和３年１２月１日東京都豊島区北大塚一丁目９番１２号マーレベーアジャパン株式会社（2013301030522）に合併し解散,2015-10-05,1,,,,,マーレベーアサーマルシステムズジャパン,0
471,2120001130237,登記記録の閉鎖等,0,2021-12-27,2021-12-22,株式会社前田政男建築設計事務所,,株式会社,大阪府,大阪市淀川区,西中島４丁目７番２－７０６号,,27,123,5320011,,,2021-12-22,清算の結了等,,,2015-10-05,1,,,,,マエダマサオケンチクセッケイジムショ,0
514,2140002035061,登記記録の閉鎖等,0,2021-12-27,2021-12-09,有限会社リエ,,有限会社,兵庫県,丹波篠山市,北新町１１４番地の２,,28,221,6692332,,,2021-12-09,清算の結了等,,,2015-10-05,1,,,,,リエ,0
515,2140002053740,登記記録の閉鎖等,0,2021-12-27,2021-12-22,有限会社モリ印刷,,有限会社,兵庫県,神崎郡福崎町,南田原２１９９番地１,,28,443,6792203,,,2021-12-22,清算の結了等,,,2015-10-05,1,,,,,モリインサツ,0
525,2180001137854,登記記録の閉鎖等,0,2021-12-27,2021-12-20,株式会社ケーウット,,株式会社,愛知県,名古屋市名東区,引山１丁目３０８番地,,23,115,4650002,,,2021-12-20,清算の結了等,,,2019-08-23,1,,,,,ケーウット,0
530,2180003021032,登記記録の閉鎖等,0,2021-12-27,2021-12-22,光畑合同会社,,合同会社,愛知県,一宮市,千秋町塩尻４０,,23,203,4910815,,,2021-12-22,清算の結了等,,,2020-04-09,1,,,,,ミツバタ,0
532,2180005009001,登記記録の閉鎖等,0,2021-12-27,2021-12-14,天理教旭輝分教会,,その他の設立登記法人,愛知県,尾張旭市,旭ケ丘町山の手２３８番地,,23,226,4880084,,,2021-12-14,合併による解散等,5180305005944,令和３年１２月１０日愛知県豊田市小坂本町三丁目２８番地天理教擧母分教会（5180305005944）に合併し解散,2015-10-05,1,,,,,テンリキョウアサヒカガヤキブンキョウカイ,0
540,2200001013870,登記記録の閉鎖等,0,2021-12-27,2021-12-24,株式会社大鵬開堀,,株式会社,岐阜県,大垣市,外渕１丁目４１６番地,,21,202,5030934,,,2021-12-24,清算の結了等,,,2015-10-05,1,,,,,,0
546,2220005000343,登記記録の閉鎖等,0,2021-12-27,2021-12-06,八幡神社,,その他の設立登記法人,石川県,白山市,野地町ニ３１番地,,17,210,9202352,,,2021-12-06,合併による解散等,5220005001099,令和３年１２月２日石川県金沢市八幡町ハ１６５番地二日市町カ１８６番地の１入会地波自加弥神社（5220005001099）に合併し解散,2015-10-05,1,,,,,ハチマンジンジャ,0
550,2240002041207,登記記録の閉鎖等,0,2021-12-27,2021-12-21,有限会社新栄,,有限会社,広島県,福山市,新涯町５丁目４番３９号,,34,207,7210955,,,2021-12-21,清算の結了等,,,2015-10-05,1,,,,,シンエイ,0
555,2260001020993,登記記録の閉鎖等,0,2021-12-27,2021-12-08,株式会社平成企画システム,,株式会社,岡山県,岡山市北区,大供１丁目２番２７号,,33,101,7000913,,,2021-12-08,合併による解散等,5370001008075,令和３年１２月１日仙台市青葉区北根黒松１４番１５号株式会社コンピュータ・システム研究所（5370001008075）に合併し解散,2015-10-05,1,,,,,ヘイセイキカクシステム,0
564,2310002003331,登記記録の閉鎖等,0,2021-12-27,2021-12-24,有限会社つばさ薬局,,有限会社,長崎県,長崎市,花園町１５番１５号,,42,201,8528024,,,2021-12-24,清算の結了等,,,2015-10-05,1,,,,,ツバサヤッキョク,0
569,2330002000244,登記記録の閉鎖等,0,2021-12-27,2021-12-23,秋吉不動産商亊有限会社,,有限会社,熊本県,熊本市中央区,安政町１番２６号,,43,101,8600801,,,2021-12-23,清算の結了等,,,2015-10-05,1,,,,,アキヨシフドウサンショウジ,0
571,2330002026140,登記記録の閉鎖等,0,2021-12-27,2021-12-23,有限会社中井一級建築事務所,,有限会社,熊本県,八代市,大村町７９５番地の３,,43,202,8660895,,,2021-12-23,清算の結了等,,,2015-10-05,1,,,,,ナカイイッキュウケンチクジムショ,0
576,2360001012849,登記記録の閉鎖等,0,2021-12-27,2021-12-21,株式会社フロンティア,,株式会社,沖縄県,名護市,字為又１６番地具志堅アパート１０４号,,47,209,9050005,,,2021-12-21,清算の結了等,,,2015-10-05,1,,,,,フロンティア,0
588,2380002020394,登記記録の閉鎖等,0,2021-12-27,2021-12-22,有限会社和田不動産,,有限会社,福島県,須賀川市,森宿字ヒジリ田５５番地１,,07,207,9620001,,,2021-12-22,合併による解散等,2380001011378,令和３年１１月３０日福島県岩瀬郡鏡石町大池７６番地株式会社福和（2380001011378）に合併し解散,2015-10-05,1,,,,,,0
590,2380002029576,登記記録の閉鎖等,0,2021-12-27,2021-12-21,有限会社ワット産業,,有限会社,福島県,相馬郡新地町,駒ケ嶺字原１６２番地の３,,07,561,9792611,,,2021-12-21,清算の結了等,,,2015-10-05,1,,,,,ワットサンギョウ,0
605,2450001006024,登記記録の閉鎖等,0,2021-12-27,2021-12-23,株式会社愛別きのこネット,,株式会社,北海道,上川郡愛別町,字南町４５３番地の８,,01,456,0781403,,,2021-12-23,清算の結了等,,,2015-10-05,1,,,,,アイベツキノコネット,0
610,2470002006839,登記記録の閉鎖等,0,2021-12-27,2021-12-22,有限会社宮脇レンタルサービス,,有限会社,香川県,高松市,朝日新町２番１９号,,37,201,7600064,,,2021-12-22,合併による解散等,4470002002365,令和３年１２月２２日香川県高松市朝日新町１６番１７号株式会社宮脇商事（4470002002365）に合併し解散,2015-10-05,1,,,,,ミヤワキレンタルサービス,0
613,2480005003114,登記記録の閉鎖等,0,2021-12-27,2021-12-23,医療法人大崎皮膚科医院,,その他の設立登記法人,徳島県,阿波市,阿波町南整理１９８番地１,,36,206,7711706,,,2021-12-23,清算の結了等,,,2015-10-05,1,,,,,オオサキヒフカイイン,0
614,2500001008460,登記記録の閉鎖等,0,2021-12-27,2021-12-23,株式会社やまだい,,株式会社,愛媛県,八幡浜市,大黒町１丁目４３５番地２８,,38,204,7960083,,,2021-12-23,清算の結了等,,,2015-10-05,1,,,,,ヤマダイ,0
627,3010001166092,登記記録の閉鎖等,0,2021-12-27,2021-12-20,株式会社江戸橋アセット,,株式会社,東京都,港区,高輪２丁目１５番１９号,,13,103,1080074,,,2021-12-20,合併による解散等,8470001000449,令和３年１２月１６日香川県高松市磨屋町６番地６株式会社アーバンレック（8470001000449）に合併し解散,2015-10-05,1,,,,,エドバシアセット,0
650,3010605000291,登記記録の閉鎖等,0,2021-12-27,2021-12-09,天理教本平井分教会,,その他の設立登記法人,東京都,江東区,亀戸４丁目１７番６号,,13,108,1360071,,,2021-12-09,合併による解散等,1010905000381,令和３年１２月２日東京都世田谷区代田一丁目２６番１９号天理教本月分教會（1010905000381）に合併し解散,2015-10-05,1,,,,,テンリキョウホンヒライブンキョウカイ,0
653,3010703003196,登記記録の閉鎖等,0,2021-12-27,2021-12-23,合同会社慶,,合同会社,千葉県,浦安市,高洲７丁目１番１－１１９号,,12,227,2790023,,,2021-12-23,清算の結了等,,,2016-07-21,1,,,,,ケイ,0
654,3010703003287,登記記録の閉鎖等,0,2021-12-27,2021-12-23,慶一合同会社,,合同会社,千葉県,浦安市,高洲７丁目１番１－１１９号,,12,227,2790023,,,2021-12-23,清算の結了等,,,2016-10-05,1,,,,,ヨシヒト,0
660,3011001028150,登記記録の閉鎖等,0,2021-12-27,2021-12-14,株式会社カワムラ,,株式会社,東京都,渋谷区,松濤１丁目７番２７号,,13,113,1500046,,,2021-12-14,清算の結了等,,,2015-10-05,1,,,,,カワムラ,0
672,3011101008283,登記記録の閉鎖等,0,2021-12-27,2021-12-22,株式会社サロンドジュリー,,株式会社,東京都,新宿区,西新宿７丁目９番７号,,13,104,1600023,,,2021-12-22,清算の結了等,,,2015-10-05,1,,,,,サロンドジュリー,0
682,3011303000253,登記記録の閉鎖等,0,2021-12-27,2021-12-23,合名会社柴田屋商店,,合名会社,東京都,杉並区,阿佐谷南２丁目２番１３号,,13,115,1660004,,,2021-12-23,清算の結了等,,,2015-10-05,1,,,,,,0
699,3012302007792,登記記録の閉鎖等,0,2021-12-27,2021-12-21,有限会社建昇,,有限会社,東京都,町田市,成瀬が丘３丁目１９番地５,,13,209,1940011,,,2021-12-21,清算の結了等,,,2015-10-05,1,,,,,,0
714,3020001109026,登記記録の閉鎖等,0,2021-12-27,2021-12-22,株式会社ファーム,,株式会社,神奈川県,横浜市青葉区,市ケ尾町５２４番地５,,14,117,2250024,,,2021-12-22,合併による解散等,2020001035561,令和３年１２月２２日横浜市都筑区茅ケ崎南五丁目２０番２５号株式会社デスティーノ（2020001035561）に合併し解散,2015-10-05,1,,,,,ファーム,0
723,3020005007184,登記記録の閉鎖等,0,2021-12-27,2021-12-09,天理教本金里分教会,,その他の設立登記法人,神奈川県,川崎市高津区,二子北耕地３８番地の１,,14,134,2130002,,,2021-12-09,合併による解散等,1010905000381,令和３年１２月２日東京都世田谷区代田一丁目２６番１９号天理教本月分教會（1010905000381）に合併し解散,2015-10-05,1,,,,,テンリキョウホンキンリブンキョウカイ,0
726,3021002042034,登記記録の閉鎖等,0,2021-12-27,2021-12-23,有限会社長谷部興業,,有限会社,神奈川県,大和市,大和南２丁目１２番地,,14,213,2420016,,,2021-12-23,清算の結了等,,,2015-10-05,1,,,,,ハセベコウギョウ,0
730,3021005006267,登記記録の閉鎖等,0,2021-12-27,2021-12-09,医療法人社団友和会,,その他の設立登記法人,神奈川県,足柄上郡大井町,金手１２７番地,,14,362,2580018,,,2021-12-09,合併による解散等,4011105000772,令和３年１２月１日東京都新宿区西新宿三丁目１２番１２号医療法人社団松和会（4011105000772）に合併し解散,2015-10-05,1,,,,,ユウワカイ,0
744,3030003006195,登記記録の閉鎖等,0,2021-12-27,2021-12-23,セントラル合同会社,,合同会社,埼玉県,大里郡寄居町,大字赤浜２０７８番地１,,11,408,3691211,,,2021-12-23,清算の結了等,,,2015-10-05,1,,,,,セントラル,0
755,3040005008131,登記記録の閉鎖等,0,2021-12-27,2021-12-22,袖ヶ浦給食事業協同組合,,その他の設立登記法人,千葉県,袖ケ浦市,福王台１丁目１２－５,,12,229,2990261,,,2021-12-22,清算の結了等,,,2015-10-05,1,,,,,ソデガウラキュウショク,0
769,3100001014671,登記記録の閉鎖等,0,2021-12-27,2021-12-22,株式会社クリエーター・セス,,株式会社,長野県,松本市,白板２丁目３番３１号,,20,202,3900863,,,2021-12-22,清算の結了等,,,2015-10-05,1,,,,,クリエーターセス,0
770,3100001019803,登記記録の閉鎖等,0,2021-12-27,2021-12-22,株式会社ヤマト,,株式会社,長野県,岡谷市,川岸上１丁目４番２３号,,20,204,3940048,,,2021-12-22,清算の結了等,,,2015-10-05,1,,,,,ヤマト,0
775,3110001029751,登記記録の閉鎖等,0,2021-12-27,2021-12-21,株式会社アゼスト,,株式会社,新潟県,柏崎市,新赤坂３丁目３番１１号,,15,205,9450845,,,2021-12-21,清算の結了等,,,2015-10-05,1,,,,,アゼスト,0
776,3110002009406,登記記録の閉鎖等,0,2021-12-27,2021-12-23,有限会社環境サービス梅川,,有限会社,新潟県,新潟市秋葉区,中野２丁目６番４－３号,,15,105,9560805,,,2021-12-23,清算の結了等,,,2015-10-05,1,,,,,カンキョウサービスウメカワ,0
782,3120001002947,登記記録の閉鎖等,0,2021-12-27,2021-12-22,株式会社イヌヰ商店,,株式会社,大阪府,大阪市西成区,鶴見橋１丁目２番２号,,27,122,5570031,,,2021-12-22,清算の結了等,,,2015-10-05,1,,,,,イヌイショウテン,0
784,3120001067321,登記記録の閉鎖等,0,2021-12-27,2021-12-22,株式会社ディグリィ,,株式会社,大阪府,大阪市福島区,福島８丁目８－３ランドマーク福島８０２号,,27,103,5530003,,,2021-12-22,清算の結了等,,,2015-10-05,1,,,,,,0
799,3120002000215,登記記録の閉鎖等,0,2021-12-27,2021-12-21,有限会社関西アクセス・ネット,,有限会社,大阪府,大阪市天王寺区,勝山３丁目１番１号,,27,109,5430043,,,2021-12-21,清算の結了等,,,2015-10-05,1,,,,,カンサイアクセスネット,0
809,3130001049896,登記記録の閉鎖等,0,2021-12-27,2021-12-22,株式会社ＫＬアソシエーション,,株式会社,京都府,京都市北区,紫竹西大門町１２－１,,26,101,6038415,,,2021-12-22,清算の結了等,,,2015-10-05,1,,,,,ケイエルアソシエーション,0
819,3130005007223,登記記録の閉鎖等,0,2021-12-27,2021-12-23,殿谷生産森林組合,,その他の設立登記法人,京都府,南丹市,園部町殿谷室谷１７番地の２,,26,213,6220057,,,2021-12-23,清算の結了等,,,2015-10-05,1,,,,,トンダニ,0
829,3140002010113,登記記録の閉鎖等,0,2021-12-27,2021-12-23,有限会社セントラルテック,,有限会社,兵庫県,神戸市北区,ひよどり台４丁目７番地の７,,28,109,6511123,,,2021-12-23,清算の結了等,,,2015-10-05,1,,,,,セントラルテック,0
835,3170001005169,登記記録の閉鎖等,0,2021-12-27,2021-12-20,和興開発株式会社,,株式会社,和歌山県,和歌山市,六十谷８６番地の３,,30,201,6408482,,,2021-12-20,清算の結了等,,,2015-10-05,1,,,,,ワコウカイハツ,0
840,3180001088163,登記記録の閉鎖等,0,2021-12-27,2021-12-22,株式会社ワールド・ワイ,,株式会社,愛知県,江南市,飛高町門野１６番地２,,23,217,4838332,,,2021-12-22,清算の結了等,,,2015-10-05,1,,,,,ワールドワイ,0
847,3180002001752,登記記録の閉鎖等,0,2021-12-27,2021-12-23,有限会社吉田金物,,有限会社,愛知県,名古屋市守山区,川西２丁目２６１２番地,,23,113,4630080,,,2021-12-23,清算の結了等,,,2015-10-05,1,,,,,ヨシダカナモノ,0
867,3240002036032,登記記録の閉鎖等,0,2021-12-27,2021-12-22,有限会社ミヤハタ機工,,有限会社,広島県,呉市,川尻町西６丁目５番５７号,,34,202,7372603,,,2021-12-22,清算の結了等,,,2015-10-05,1,,,,,ミヤハタキコウ,0
869,3240002040967,登記記録の閉鎖等,0,2021-12-27,2021-12-16,有限会社サンワード,,有限会社,広島県,福山市,赤坂町赤坂５８番地の３,,34,207,7210000,,,2021-12-16,清算の結了等,,,2015-10-05,1,,,,,サンワード,0
870,3240002051766,登記記録の閉鎖等,0,2021-12-27,2021-12-23,有限会社ライスフィールド,,有限会社,広島県,尾道市,高須町４７５９番地６,,34,205,7290141,,,2021-12-23,清算の結了等,,,2015-10-05,1,,,,,ライスフィールド,0
871,3250001016777,登記記録の閉鎖等,0,2021-12-27,2021-12-23,株式会社アルスガーデン,,株式会社,山口県,山口市,湯田温泉５丁目６番５７号（メゾン富Ｂ２０６）,,35,203,7530056,,,2021-12-23,清算の結了等,,,2017-09-06,1,,,,,アルスガーデン,0
883,3290005005657,登記記録の閉鎖等,0,2021-12-27,2021-12-15,特定非営利活動法人国際科学技術・文化振興会,,その他の設立登記法人,福岡県,古賀市,青柳３１０８番地３,,40,223,8113134,,,2021-12-15,清算の結了等,,,2015-10-05,1,,,,,コクサイカガクギジュツブンカシンコウカイ,0
897,3370302003173,登記記録の閉鎖等,0,2021-12-27,2021-12-23,有限会社岡村,,有限会社,宮城県,石巻市,魚町１丁目１０番地３０,,04,202,9860022,,,2021-12-23,清算の結了等,,,2015-10-05,1,,,,,,0
910,3380003004734,登記記録の閉鎖等,0,2021-12-27,2021-12-22,合同会社ふくしま未来ウインドファーム,,合同会社,福島県,福島市,栄町１０番４号,,07,201,9608031,,,2021-12-22,清算の結了等,,,2020-09-03,1,,,,,,0
911,3380005009938,登記記録の閉鎖等,0,2021-12-27,2021-11-22,二荒山神社,,その他の設立登記法人,福島県,南会津郡南会津町,大原字後山３１８番地,,07,368,9670513,,,2021-11-22,合併による解散等,8380005009850,令和３年１１月２２日福島県南会津郡南会津町宮沢字千刈１２１３番地香取神社（8380005009850）に合併し解散,2015-10-05,1,,,,,フタアラサン,0
919,3430002043397,登記記録の閉鎖等,0,2021-12-27,2021-12-23,有限会社新功商事,,有限会社,北海道,石狩市,花川北二条２丁目２０２番地２,,01,235,0613212,,,2021-12-23,清算の結了等,,,2015-10-05,1,,,,,シンコウショウジ,0
932,4010001021833,登記記録の閉鎖等,0,2021-12-27,2021-12-22,大雅ビルディング株式会社,,株式会社,神奈川県,横浜市青葉区,美しが丘１丁目１３番地１０,,14,117,2250002,,,2021-12-22,清算の結了等,,,2015-10-05,1,,,,,タイガビルディング,0
942,4010001183896,登記記録の閉鎖等,0,2021-12-27,2021-12-23,株式会社ジョビ,,株式会社,東京都,中央区,八丁堀４丁目１４番７号５０２,,13,102,1040032,,,2021-12-23,清算の結了等,,,2017-05-31,1,,,,,ジョビ,0
947,4010002001792,登記記録の閉鎖等,0,2021-12-27,2021-12-21,共生インキ製造有限会社,,有限会社,東京都,文京区,白山１丁目９番１５号,,13,105,1130001,,,2021-12-21,清算の結了等,,,2015-10-05,1,,,,,キョウセイインキセイゾウ,0
952,4010401135596,登記記録の閉鎖等,0,2021-12-27,2021-12-20,サウザンドアイズ・ジャパン合同会社,,合同会社,東京都,港区,元赤坂１丁目２番７号赤坂Ｋタワー,,13,103,1070051,,,2021-12-20,清算の結了等,,,2017-12-18,1,,,,,サウザンドアイズジャパン,0
990,4011501002091,登記記録の閉鎖等,0,2021-12-27,2021-12-20,株式会社シントー,,株式会社,東京都,北区,赤羽２丁目７番９号,,13,117,1150045,,,2021-12-20,清算の結了等,,,2015-10-05,1,,,,,シントー,0
1003,4011803001403,登記記録の閉鎖等,0,2021-12-27,2021-12-23,合同会社エスサービス,,合同会社,東京都,足立区,小台１丁目５番３号,,13,121,1200046,,,2021-12-23,清算の結了等,,,2015-10-05,1,,,,,,0
1009,4013301036831,登記記録の閉鎖等,0,2021-12-27,2021-12-21,株式会社ロヴィル,,株式会社,東京都,豊島区,駒込３丁目１番３号,,13,116,1700003,,,2021-12-21,清算の結了等,,,2015-10-05,1,,,,,ロヴィル,0
1020,4021001039963,登記記録の閉鎖等,0,2021-12-27,2021-12-23,一富水産株式会社,,株式会社,神奈川県,横須賀市,東逸見町１丁目２７番地,,14,201,2380045,,,2021-12-23,清算の結了等,,,2015-10-05,1,,,,,カズトミスイサン,0
1043,4040002035788,登記記録の閉鎖等,0,2021-12-27,2021-12-22,有限会社西巻商会,,有限会社,千葉県,市川市,原木１丁目３番１－７１１号,,12,203,2720004,,,2021-12-22,清算の結了等,,,2015-10-05,1,,,,,ニシマキショウカイ,0
1056,4070003001885,登記記録の閉鎖等,0,2021-12-27,2021-12-22,合同会社あお空,,合同会社,群馬県,館林市,松原２丁目２４番１７号クレストつつじ町５号,,10,207,3740016,,,2021-12-22,清算の結了等,,,2015-10-05,1,,,,,アオゾラ,0
1060,4080005005512,登記記録の閉鎖等,0,2021-12-27,2021-12-16,大和綿業協同組合,,その他の設立登記法人,静岡県,焼津市,保福島５７０番地,,22,212,4250087,,,2021-12-16,清算の結了等,,,2015-10-05,1,,,,,ダイワメンギョウ,0
1061,4080102020819,登記記録の閉鎖等,0,2021-12-27,2021-12-23,有限会社アール・アイ・エス,,有限会社,静岡県,伊東市,八幡野１０６９番地４,,22,208,4130232,,,2021-12-23,清算の結了等,,,2015-10-05,1,,,,,アールアイエス,0
1062,4080401001825,登記記録の閉鎖等,0,2021-12-27,2021-12-24,株式会社彩画堂,,株式会社,静岡県,浜松市中区,紺屋町３０６番地の２９,,22,131,4300938,,,2021-12-24,清算の結了等,,,2015-10-05,1,,,,,サイガドウ,0
1064,4080402008927,登記記録の閉鎖等,0,2021-12-27,2021-12-21,渡辺試織有限会社,,有限会社,静岡県,浜松市東区,有玉北町４５６番地,,22,132,4313121,,,2021-12-21,清算の結了等,,,2015-10-05,1,,,,,ワタナベシショク,0
1065,4080402014842,登記記録の閉鎖等,0,2021-12-27,2021-12-22,有限会社大橋製袋所,00068451,有限会社,静岡県,浜松市浜北区,中瀬２６７４番地の３３,,22,136,4340012,,,2021-12-22,清算の結了等,,,2015-10-05,1,,,,,オオハシセイタイショ,0
1066,4080402017416,登記記録の閉鎖等,0,2021-12-27,2021-12-21,有限会社榛葉自動車商会,,有限会社,静岡県,掛川市,満水７６番地の１,,22,213,4360011,,,2021-12-21,清算の結了等,,,2015-10-05,1,,,,,シンバジドウシャショウカイ,0
1068,4110001003210,登記記録の閉鎖等,0,2021-12-27,2021-12-23,株式会社立花,,株式会社,新潟県,新潟市中央区,愛宕１丁目６番地７,,15,103,9500944,,,2021-12-23,清算の結了等,,,2015-10-05,1,,,,,タチバナ,0
1087,4120001184347,登記記録の閉鎖等,0,2021-12-27,2021-12-20,株式会社アークノア,,株式会社,大阪府,大阪市西区,北堀江１丁目２番地１６号ツリガネビル新館２階,,27,106,5500014,,,2021-12-20,清算の結了等,,,2015-10-05,1,,,,,アークノアアークノア,0
1093,4120901007268,登記記録の閉鎖等,0,2021-12-27,2021-12-21,ムツミハウス株式会社,,株式会社,大阪府,吹田市,江の木町１番１号,,27,205,5640053,,,2021-12-21,清算の結了等,,,2015-10-05,1,,,,,ムツミハウス,0
1102,4130002029608,登記記録の閉鎖等,0,2021-12-27,2021-12-22,加茂商事有限会社,,有限会社,京都府,木津川市,加茂町北船屋１８番地,,26,214,6191113,,,2021-12-22,清算の結了等,,,2015-10-05,1,,,,,カモショウジ,0
1105,4140001015715,登記記録の閉鎖等,0,2021-12-27,2021-12-22,株式会社石松石材,,株式会社,兵庫県,神戸市長田区,鶯町４丁目６番３号,,28,106,6530871,,,2021-12-22,清算の結了等,,,2015-10-05,1,,,,,イシマツセキザイ,0
1107,4140001119012,登記記録の閉鎖等,0,2021-12-27,2021-12-22,株式会社ｄｅｓｔ＆ｇｅｓｔ,,株式会社,兵庫県,三田市,横山町１２－２８,,28,219,6691534,,,2021-12-22,清算の結了等,,,2020-10-12,1,,,,,デストアンドゲスト,0
1141,4230001010574,登記記録の閉鎖等,0,2021-12-27,2021-12-22,カープラザ富山中央株式会社,,株式会社,富山県,高岡市,野村１８７１番地,,16,202,9330014,,,2021-12-22,清算の結了等,,,2015-10-05,1,,,,,カープラザトヤマチュウオウ,0
1150,4260002000555,登記記録の閉鎖等,0,2021-12-27,2021-12-24,有限会社アルスター経営コンサルタンツ,,有限会社,岡山県,岡山市北区,津高台２丁目２０２３番地の４,,33,101,7011151,,,2021-12-24,清算の結了等,,,2015-10-05,1,,,,,アルスターケイエイコンサルタンツ,0
1154,4290001023100,登記記録の閉鎖等,0,2021-12-27,2021-12-21,株式会社アールエス,,株式会社,福岡県,久留米市,朝妻町６番２９号,,40,203,8390843,,,2021-12-21,清算の結了等,,,2015-10-05,1,,,,,アールエス,0
1163,4310002009673,登記記録の閉鎖等,0,2021-12-27,2021-12-23,有限会社北川製＿所分店,00095980,有限会社,長崎県,佐世保市,松川町４番６号,,42,202,8570804,,,2021-12-23,清算の結了等,,,2015-10-05,1,,,,,キタガワセイアンショブンテン,0
1171,4350005001013,登記記録の閉鎖等,0,2021-12-27,2021-12-22,宮崎県電気保安事業協同組合,,その他の設立登記法人,宮崎県,宮崎市,大字本郷南方４９３１番地６６,,45,201,8800921,,,2021-12-22,清算の結了等,,,2015-10-05,1,,,,,ミヤザキケンデンキホアン,0
1182,4430001014209,登記記録の閉鎖等,0,2021-12-27,2021-12-13,フェーブ電気株式会社,,株式会社,北海道,札幌市北区,屯田五条５丁目２番１３号,,01,102,0020855,,,2021-12-13,清算の結了等,,,2015-10-05,1,,,,,フェーブデンキ,0
1183,4430001044701,登記記録の閉鎖等,0,2021-12-27,2021-12-21,株式会社イーコット,,株式会社,北海道,札幌市白石区,平和通７丁目北１５番８号２０１号,,01,104,0030029,,,2021-12-21,清算の結了等,,,2015-10-05,1,,,,,イーコット,0
1187,4430002049724,登記記録の閉鎖等,0,2021-12-27,2021-12-23,有限会社フレッシュボックス販売,,有限会社,北海道,岩見沢市,駒園５丁目２番３０号,,01,210,0680834,,,2021-12-23,清算の結了等,,,2015-10-05,1,,,,,,0
1188,4430002051911,登記記録の閉鎖等,0,2021-12-27,2021-12-22,有限会社沖中食品工業,,有限会社,北海道,砂川市,西二条北１丁目１番６号,,01,226,0730162,,,2021-12-22,清算の結了等,,,2015-10-05,1,,,,,オキナカショクヒンコウギョウ,0
1201,4500003001775,登記記録の閉鎖等,0,2021-12-27,2021-12-21,合同会社志晴,,合同会社,愛媛県,松山市,石風呂町３４８番地,,38,201,7918084,,,2021-12-21,清算の結了等,,,2016-04-12,1,,,,,シセイ,0
1216,5010003030955,登記記録の閉鎖等,0,2021-12-27,2021-12-17,合同会社ＬＦＴ　ＪＡＰＡＮ,,合同会社,東京都,中央区,銀座２丁目１４番８号ＭＬ３４１,,13,102,1040061,,,2021-12-17,清算の結了等,,,2019-11-19,1,,,,,エルエフティジャパン,0
1219,5010101002435,登記記録の閉鎖等,0,2021-12-27,2021-12-24,株式会社ツクバ技研,,株式会社,東京都,八王子市,打越町１３０８番地の１２,,13,201,1920911,,,2021-12-24,清算の結了等,,,2015-10-05,1,,,,,ツクバギケン,0
1220,5010102005809,登記記録の閉鎖等,0,2021-12-27,2021-12-21,有限会社ビューレックス,,有限会社,東京都,八王子市,東町８番１２号－２Ｆ,,13,201,1920082,,,2021-12-21,清算の結了等,,,2015-10-05,1,,,,,ビューレックス,0
1226,5010402003495,登記記録の閉鎖等,0,2021-12-27,2021-12-20,加藤商亊有限会社,,有限会社,東京都,港区,新橋３丁目６番１２号,,13,103,1050004,,,2021-12-20,清算の結了等,,,2015-10-05,1,,,,,カトウショウジ,0
1238,5010501045182,登記記録の閉鎖等,0,2021-12-27,2021-12-24,株式会社Ｌｕｊｏ　Ａｓｉａｔｉｃｏ,,株式会社,東京都,台東区,上野３丁目１４番２号,,13,106,1100005,,,2021-12-24,清算の結了等,,,2020-01-22,1,,,,,ルオアジア,0
1241,5010503005127,登記記録の閉鎖等,0,2021-12-27,2021-12-24,ＰＴＣ合同会社,,合同会社,東京都,台東区,柳橋２丁目１番９号東商センタービル５１３,,13,106,1110052,,,2021-12-24,清算の結了等,,,2017-11-08,1,,,,,ピーティーシー,0
1251,5011001118214,登記記録の閉鎖等,0,2021-12-27,2021-12-14,株式会社企画商店,,株式会社,東京都,渋谷区,恵比寿３丁目３０番２号,,13,113,1500013,,,2021-12-14,清算の結了等,,,2017-09-08,1,,,,,キカクショウテン,0
1270,5011105008030,登記記録の閉鎖等,0,2021-12-27,2021-12-13,一般財団法人東京早稲田国際交流財団,,その他の設立登記法人,東京都,新宿区,歌舞伎町２丁目３１番１１号第二モナミビル８Ｆ,,13,104,1600021,,,2021-12-13,清算の結了等,,,2017-10-12,1,,,,,トウキョウワセダコクサイコウリュウザイダン,0
1276,5012302004037,登記記録の閉鎖等,0,2021-12-27,2021-12-17,フエニックス有限会社,,有限会社,東京都,町田市,南成瀬１丁目８番１２号,,13,209,1940045,,,2021-12-17,清算の結了等,,,2015-10-05,1,,,,,フエニックス,0
1296,5020002013646,登記記録の閉鎖等,0,2021-12-27,2021-12-22,エクセレント有限会社,,有限会社,神奈川県,横浜市青葉区,荏田北２丁目１番地２１,,14,117,2250015,,,2021-12-22,清算の結了等,,,2015-10-05,1,,,,,エクセレント,0
1302,5021005002735,登記記録の閉鎖等,0,2021-12-27,2021-12-09,天理教本原町田分教会,00014187,その他の設立登記法人,神奈川県,相模原市南区,東林間８丁目２３番１５号,,14,153,2520311,,,2021-12-09,合併による解散等,1010905000381,令和３年１２月２日東京都世田谷区代田一丁目２６番１９号天理教本月分教會（1010905000381）に合併し解散,2015-10-05,1,,,,,,0
1310,5030002068920,登記記録の閉鎖等,0,2021-12-27,2021-12-23,有限会社トートパッケージ,,有限会社,埼玉県,入間市,宮寺２９２０番地,,11,225,3580014,,,2021-12-23,清算の結了等,,,2015-10-05,1,,,,,トートパッケージ,0
1323,5060002022189,登記記録の閉鎖等,0,2021-12-27,2021-12-22,有限会社小松左官工業,,有限会社,栃木県,那須塩原市,北栄町６３５番地,,09,213,3250039,,,2021-12-22,清算の結了等,,,2015-10-05,1,,,,,コマツサカンコウギョウ,0
1328,5070001034738,登記記録の閉鎖等,0,2021-12-27,2021-12-21,ＳＨＡＨＺＡＤ　ＢＡＪＷＡ　ＴＲＡＤＩＮＧ株式会社,,株式会社,栃木県,栃木市,藤岡町赤麻１５６３－１,,09,203,3231102,,,2021-12-21,清算の結了等,,,2018-05-28,1,,,,,シャザードバジョウワトレーディング,0
1339,5110001003787,登記記録の閉鎖等,0,2021-12-27,2021-12-23,新潟ゴンドラ株式会社,,株式会社,新潟県,新潟市中央区,川岸町３丁目３１番地,,15,103,9518133,,,2021-12-23,清算の結了等,,,2015-10-05,1,,,,,ニイガタゴンドラ,0
1346,5120001035136,登記記録の閉鎖等,0,2021-12-27,2021-12-16,株式会社三昇建設,,株式会社,大阪府,大阪市福島区,福島２丁目１０番１９号,,27,103,5530003,,,2021-12-16,清算の結了等,,,2021-10-26,1,,,,,サンショウケンセツ,0
1370,5130001026555,登記記録の閉鎖等,0,2021-12-27,2021-12-23,株式会社エー・ティー・シー,,株式会社,京都府,京都市南区,吉祥院三ノ宮西町６２－８０３,,26,107,6018318,,,2021-12-23,清算の結了等,,,2015-10-05,1,,,,,エーティーシー,0
1371,5130001038179,登記記録の閉鎖等,0,2021-12-27,2021-12-22,株式会社ハマショウ,,株式会社,京都府,八幡市,戸津蜻蛉尻２０番地の１０,,26,210,6148204,,,2021-12-22,清算の結了等,,,2015-10-05,1,,,,,ハマショウ,0
1405,5180001142637,登記記録の閉鎖等,0,2021-12-27,2021-12-23,北見パーキング株式会社,,株式会社,愛知県,名古屋市西区,市場木町４７８番地,,23,104,4520805,,,2021-12-23,清算の結了等,,,2020-09-03,1,,,,,キタミパーキング,0
1410,5180002018539,登記記録の閉鎖等,0,2021-12-27,2021-12-22,有限会社大松金属,,有限会社,愛知県,名古屋市中川区,澄池町２０番１９号,,23,110,4540806,,,2021-12-22,清算の結了等,,,2015-10-05,1,,,,,オオマツキンゾク,0
1411,5180002040732,登記記録の閉鎖等,0,2021-12-27,2021-12-22,有限会社日晶工業,,有限会社,愛知県,清須市,西枇杷島町旭２丁目８２番地２,,23,233,4520064,,,2021-12-22,清算の結了等,,,2015-10-05,1,,,,,ニッショウコウギョウ,0
1428,5200002011482,登記記録の閉鎖等,0,2021-12-27,2021-12-24,有限会社トーイン,,有限会社,岐阜県,羽島市,堀津町８０３番地,,21,209,5016330,,,2021-12-24,清算の結了等,,,2015-10-05,1,,,,,トーイン,0
1429,5200002021762,登記記録の閉鎖等,0,2021-12-27,2021-12-23,有限会社山善製陶所,,有限会社,岐阜県,土岐市,下石町２９９番地の１０,,21,212,5095202,,,2021-12-23,清算の結了等,,,2015-10-05,1,,,,,ヤマゼンセイトウショ,0
1441,5260001023408,登記記録の閉鎖等,0,2021-12-27,2021-12-24,カンサイレンタル株式会社,,株式会社,岡山県,岡山市東区,君津２２８番地１,,33,103,7048166,,,2021-12-24,清算の結了等,,,2015-10-05,1,,,,,カンサイレンタル,0
1442,5260001031674,登記記録の閉鎖等,0,2021-12-27,2021-12-24,株式会社スマイル・オール,,株式会社,岡山県,岡山市北区,北長瀬本町２０番５１号,,33,101,7000961,,,2021-12-24,清算の結了等,,,2018-02-01,1,,,,,,0
1455,5290002021564,登記記録の閉鎖等,0,2021-12-27,2021-12-21,シャローム有限会社,,有限会社,福岡県,福岡市南区,高宮１丁目１９－３０号,,40,134,8150083,,,2021-12-21,清算の結了等,,,2015-10-05,1,,,,,シャローム,0
1464,5340002023919,登記記録の閉鎖等,0,2021-12-27,2021-12-23,有限会社桜山産業,,有限会社,鹿児島県,枕崎市,桜山町５３６番地,,46,204,8980061,,,2021-12-23,清算の結了等,,,2015-10-05,1,,,,,サクラヤマサンギョウ,0
1483,5380005009886,登記記録の閉鎖等,0,2021-12-27,2021-11-22,駒嶽神社,,その他の設立登記法人,福島県,南会津郡南会津町,浜野字上ヱ原６９１番地,,07,368,9670504,,,2021-11-22,合併による解散等,8380005009850,令和３年１１月２２日福島県南会津郡南会津町宮沢字千刈１２１３番地香取神社（8380005009850）に合併し解散,2015-10-05,1,,,,,コマガタケ,0
1484,5380005009944,登記記録の閉鎖等,0,2021-12-27,2021-11-22,三島神社,,その他の設立登記法人,福島県,南会津郡南会津町,大桃字居平２１８番地,,07,368,9670515,,,2021-11-22,合併による解散等,8380005009850,令和３年１１月２２日福島県南会津郡南会津町宮沢字千刈１２１３番地香取神社（8380005009850）に合併し解散,2015-10-05,1,,,,,,0
1489,5420002007797,登記記録の閉鎖等,0,2021-12-27,2021-12-23,有限会社たむら,,有限会社,青森県,八戸市,大字白銀町字三島下８６番地３,,02,203,0310822,,,2021-12-23,清算の結了等,,,2015-10-05,1,,,,,タムラ,0
1494,5470002008213,登記記録の閉鎖等,0,2021-12-27,2021-12-22,株式会社亀山商事,,株式会社,香川県,高松市,西の丸町２番１７号,,37,201,7600021,,,2021-12-22,合併による解散等,4470002002365,令和３年１２月２２日香川県高松市朝日新町１６番１７号株式会社宮脇商事（4470002002365）に合併し解散,2015-10-05,1,,,,,カメヤマショウジ,0
1506,6010005026133,登記記録の閉鎖等,0,2021-12-27,2021-12-20,特定非営利活動法人あいを結ぶ相続,,その他の設立登記法人,東京都,文京区,音羽２丁目２番２号アベニュー音羽１階,,13,105,1120013,,,2021-12-20,清算の結了等,,,2016-12-15,1,,,,,アイヲムスブソウゾク,0
1536,6011005003502,登記記録の閉鎖等,0,2021-12-27,2021-12-20,一般社団法人女性経済連盟,,その他の設立登記法人,東京都,港区,西麻布３丁目１９番９号,,13,103,1060031,,,2021-12-20,清算の結了等,,,2015-10-05,1,,,,,ジョセイケイザイレンメイ,0
1543,6011103006778,登記記録の閉鎖等,0,2021-12-27,2021-12-21,合同会社グランコミュ,,合同会社,千葉県,浦安市,今川３丁目１４番４－２０１号,,12,227,2790022,,,2021-12-21,清算の結了等,,,2017-01-27,1,,,,,グランコミュ,0
1544,6011301004352,登記記録の閉鎖等,0,2021-12-27,2021-12-23,竹馬商事株式会社,,株式会社,東京都,杉並区,西荻北２丁目２９番１５号,,13,115,1670042,,,2021-12-23,清算の結了等,,,2015-10-05,1,,,,,,0
1558,6013301009570,登記記録の閉鎖等,0,2021-12-27,2021-12-21,株式会社日升建築研究所,,株式会社,東京都,豊島区,駒込４丁目２番３５号,,13,116,1700003,,,2021-12-21,清算の結了等,,,2015-10-05,1,,,,,ニッショウケンチクケンキュウショ,0
1572,6030002029418,登記記録の閉鎖等,0,2021-12-27,2021-12-22,有限会社サングローブ,,有限会社,島根県,江津市,江津町６８２－１,,32,207,6950011,,,2021-12-22,清算の結了等,,,2015-10-05,1,,,,,サングローブ,0
1590,6060001025290,登記記録の閉鎖等,0,2021-12-27,2021-12-21,株式会社スケール,,株式会社,栃木県,宇都宮市,西原町４３４番地１３,,09,201,3200826,,,2021-12-21,清算の結了等,,,2015-10-05,1,,,,,スケール,0
1601,6080401015311,登記記録の閉鎖等,0,2021-12-27,2021-12-21,株式会社パール,,株式会社,静岡県,掛川市,下俣１３６番地の８,,22,213,4360025,,,2021-12-21,清算の結了等,,,2015-10-05,1,,,,,パール,0
1603,6090005003257,登記記録の閉鎖等,0,2021-12-27,2021-12-16,上野原工業団地事業協同組合,,その他の設立登記法人,山梨県,上野原市,上野原８１５４番地２３,,19,212,4090112,,,2021-12-16,清算の結了等,,,2015-10-05,1,,,,,ウエノハラコウギョウダンチジギョウキョウドウクミアイ,0
1641,6130001060784,登記記録の閉鎖等,0,2021-12-27,2021-12-22,株式会社京都南販売,,株式会社,京都府,宇治市,大久保町井ノ尻３９番地３中川ビル２階,,26,204,6110033,,,2021-12-22,清算の結了等,,,2017-10-23,1,,,,,キョウトミナミハンバイ,0
1644,6130002013898,登記記録の閉鎖等,0,2021-12-27,2021-12-17,有限会社サンアセット,,有限会社,京都府,京都市伏見区,深草西浦町４丁目５１番地１メゾン・ヴィーナス２階,,26,109,6120029,,,2021-12-17,合併による解散等,4130001065439,令和３年１２月１３日京都市伏見区深草西浦町四丁目５１番地１メゾン・ヴィーナス２階株式会社タイコーストック（4130001065439）に合併し解散,2015-10-05,1,,,,,サンアセット,0
1653,6150001006059,登記記録の閉鎖等,0,2021-12-27,2021-12-24,株式会社東鉄工建設,,株式会社,奈良県,大和郡山市,額田部寺町１番地の７,,29,203,6391036,,,2021-12-24,清算の結了等,,,2015-10-05,1,,,,,ヒガシテッコウケンセツ,0
1657,6180001006386,登記記録の閉鎖等,0,2021-12-27,2021-12-23,神戸鋼業株式会社,,株式会社,愛知県,名古屋市港区,当知３丁目１２０５番地,,23,111,4550804,,,2021-12-23,清算の結了等,,,2015-10-05,1,,,,,カンベコウギョウ,0
1658,6180001007186,登記記録の閉鎖等,0,2021-12-27,2021-12-24,株式会社ニュー技研,,株式会社,愛知県,名古屋市港区,正保町７丁目７４番地,,23,111,4550074,,,2021-12-24,清算の結了等,,,2015-10-05,1,,,,,ニューギケン,0
1661,6180001087278,登記記録の閉鎖等,0,2021-12-27,2021-12-22,株式会社江口,,株式会社,愛知県,江南市,中奈良町熊野１５９番地,,23,217,4838256,,,2021-12-22,清算の結了等,,,2015-10-05,1,,,,,,0
1666,6180002018174,登記記録の閉鎖等,0,2021-12-27,2021-12-22,有限会社三友建機,,有限会社,愛知県,名古屋市中川区,十番町４丁目４番地,,23,110,4540055,,,2021-12-22,清算の結了等,,,2015-10-05,1,,,,,サンユウケンキ,0
1681,6200002013247,登記記録の閉鎖等,0,2021-12-27,2021-12-22,有限会社睦医療器,,有限会社,岐阜県,大垣市,長松町９８番地の１３,,21,202,5030997,,,2021-12-22,清算の結了等,,,2015-10-05,1,,,,,ムツミイリョウキ,0
1691,6250001002790,登記記録の閉鎖等,0,2021-12-27,2021-12-23,都エンタープライズ株式会社,,株式会社,山口県,山口市,黒川１１０７番地２１,,35,203,7530851,,,2021-12-23,清算の結了等,,,2015-10-05,1,,,,,ミヤコエンタープライズ,0
1719,6340001016179,登記記録の閉鎖等,0,2021-12-27,2021-12-24,マーブルカンパニー株式会社,,株式会社,鹿児島県,鹿児島市,山下町１２番１－５０１号,,46,201,8920816,,,2021-12-24,清算の結了等,,,2015-10-05,1,,,,,,0
1721,6340002021509,登記記録の閉鎖等,0,2021-12-27,2021-12-22,有限会社サン奄美,,有限会社,鹿児島県,奄美市,住用町大字摺勝５５５番地１３,00099715,46,222,8941116,,,2021-12-22,清算の結了等,,,2015-10-05,1,,,,,サンアマミ,0
1740,6380002006002,登記記録の閉鎖等,0,2021-12-27,2021-12-01,有限会社マルヨシ,,有限会社,福島県,福島市,御山字三本松６５番地,,07,201,9608252,,,2021-12-01,合併による解散等,8380001000441,令和３年１２月１日福島市御山字三本松６５番地グランド商事株式会社（8380001000441）に合併し解散,2015-10-05,1,,,,,マルヨシ,0
1743,6380005007955,登記記録の閉鎖等,0,2021-12-27,2021-12-23,医療法人六角外科泌尿器科医院,,その他の設立登記法人,福島県,耶麻郡猪苗代町,字本町４４番地,,07,408,9693122,,,2021-12-23,清算の結了等,,,2015-10-05,1,,,,,ロッカクゲカヒニョウキカイイン,0
1744,6380005009885,登記記録の閉鎖等,0,2021-12-27,2021-11-22,駒嶽神社,,その他の設立登記法人,福島県,南会津郡南会津町,大桃字居平２４９番地,,07,368,9670515,,,2021-11-22,合併による解散等,8380005009850,令和３年１１月２２日福島県南会津郡南会津町宮沢字千刈１２１３番地香取神社（8380005009850）に合併し解散,2015-10-05,1,,,,,,0
1745,6380005009902,登記記録の閉鎖等,0,2021-12-27,2021-11-22,菅原神社,,その他の設立登記法人,福島県,南会津郡南会津町,内川字居平１５５番地,,07,368,9670511,,,2021-11-22,合併による解散等,8380005009850,令和３年１１月２２日福島県南会津郡南会津町宮沢字千刈１２１３番地香取神社（8380005009850）に合併し解散,2015-10-05,1,,,,,,0
1751,6400505000457,登記記録の閉鎖等,0,2021-12-27,2021-12-24,特定非営利活動法人北上川流域河川生態系保全協会,,その他の設立登記法人,岩手県,一関市,川崎町門崎字巳待１３番地,,03,209,0290201,,,2021-12-24,清算の結了等,,,2015-10-05,1,,,,,キタカミガワリュウイキカセンセイタイケイホゼンキョウカイ,0
1761,6430002006847,登記記録の閉鎖等,0,2021-12-27,2021-12-17,有限会社グランドハウス,,有限会社,北海道,札幌市白石区,本通３丁目南２番８号,,01,104,0030026,,,2021-12-17,清算の結了等,,,2015-10-05,1,,,,,グランドハウス,0
1763,6430003009584,登記記録の閉鎖等,0,2021-12-27,2021-12-22,合同会社フォース,,合同会社,北海道,札幌市中央区,南十七条西７丁目２－１５－１０１,,01,101,0640917,,,2021-12-22,清算の結了等,,,2018-07-24,1,,,,,フォース,0
1768,6450002011399,登記記録の閉鎖等,0,2021-12-27,2021-12-23,有限会社宮本組,,有限会社,北海道,天塩郡幌延町,一条北１丁目１３番地,,01,520,0983201,,,2021-12-23,清算の結了等,,,2015-10-05,1,,,,,ミヤモトクミ,0
1773,6470002012692,登記記録の閉鎖等,0,2021-12-27,2021-12-22,有限会社西川鉄工,,有限会社,香川県,仲多度郡多度津町,西港町１６番地３,,37,404,7640017,,,2021-12-22,清算の結了等,,,2015-10-05,1,,,,,ニシカワテッコウ,0
1778,6490002005926,登記記録の閉鎖等,0,2021-12-27,2021-12-24,有限会社ヒロタ内装,,有限会社,高知県,高知市,旭天神町１３４番地,,39,201,7800955,,,2021-12-24,清算の結了等,,,2015-10-05,1,,,,,,0
1779,6490005000288,登記記録の閉鎖等,0,2021-12-27,2021-12-24,一般財団法人基督教高知婦人矯風会学生ホーム,,その他の設立登記法人,高知県,高知市,永国寺町４番１０号,,39,201,7800844,,,2021-12-24,清算の結了等,,,2015-10-05,1,,,,,キリストキョウコウチフジンキョウフウカイガクセイホーム,0
1785,7010001066990,登記記録の閉鎖等,0,2021-12-27,2021-12-21,関東ガイアックス株式会社,,株式会社,東京都,中央区,銀座４丁目６番１号銀座三和ビル７階,,13,102,1040061,,,2021-12-21,清算の結了等,,,2015-10-05,1,,,,,カントウガイアックス,0
1805,7010401141360,登記記録の閉鎖等,0,2021-12-27,2021-12-17,カスタマーロイヤリティ株式会社,,株式会社,東京都,港区,赤坂５丁目４番１７号,,13,103,1070052,,,2021-12-17,清算の結了等,,,2018-10-09,1,,,,,カスタマーロイヤリティ,0
1817,7010603006262,登記記録の閉鎖等,0,2021-12-27,2021-12-20,合同会社デジタルピッグ,,合同会社,東京都,墨田区,両国１丁目１８番５号,,13,107,1300026,,,2021-12-20,清算の結了等,,,2016-04-22,1,,,,,デジタルピッグ,0
1822,7010705000287,登記記録の閉鎖等,0,2021-12-27,2021-12-09,天理教本月井分教会,,その他の設立登記法人,東京都,品川区,東大井１丁目２番１４号,,13,109,1400011,,,2021-12-09,合併による解散等,1010905000381,令和３年１２月２日東京都世田谷区代田一丁目２６番１９号天理教本月分教會（1010905000381）に合併し解散,2015-10-05,1,,,,,テンリキョウホンゲツイブンキョウカイ,0
1826,7010901009636,登記記録の閉鎖等,0,2021-12-27,2021-12-23,株式会社ハーベストガーデンシステムズ,,株式会社,東京都,世田谷区,下馬６丁目３０番９号,,13,112,1540002,,,2021-12-23,清算の結了等,,,2015-10-05,1,,,,,ハーベストガーデンシステムズ,0
1850,7011402000563,登記記録の閉鎖等,0,2021-12-27,2021-12-24,有限会社阿部紙器製作所,,有限会社,東京都,板橋区,大原町２４番７号,,13,119,1740061,,,2021-12-24,清算の結了等,,,2015-10-05,1,,,,,アベシキセイサクショ,0
1852,7011402009976,登記記録の閉鎖等,0,2021-12-27,2021-12-24,有限会社日本テクノワークス,,有限会社,東京都,板橋区,高島平２丁目２０番９号ライオンズマンション高島平第２－１０４号室,,13,119,1750082,,,2021-12-24,清算の結了等,,,2015-10-05,1,,,,,ニホンテクノワークス,0
1853,7011501014464,登記記録の閉鎖等,0,2021-12-27,2021-12-20,株式会社ケンゴ,,株式会社,東京都,北区,西ケ原３丁目２７番７号,,13,117,1140024,,,2021-12-20,清算の結了等,,,2015-10-05,1,,,,,,0
1867,7013301039484,登記記録の閉鎖等,0,2021-12-27,2021-12-21,ベイリー株式会社,,株式会社,東京都,豊島区,東池袋４丁目２１番１－１７０３号,,13,116,1700013,,,2021-12-21,清算の結了等,,,2016-10-05,1,,,,,ベイリー,0
1880,7021002058308,登記記録の閉鎖等,0,2021-12-27,2021-12-22,有限会社尚和堂,,有限会社,神奈川県,平塚市,明石町１０番５号,,14,203,2540042,,,2021-12-22,清算の結了等,,,2015-10-05,1,,,,,ショウワドウ,0
1907,7090002003374,登記記録の閉鎖等,0,2021-12-27,2021-12-21,ヨシカワトラベル有限会社,,有限会社,山梨県,甲府市,上阿原町１１８４番地３,,19,201,4000814,,,2021-12-21,清算の結了等,,,2015-10-05,1,,,,,ヨシカワトラベル,0
1913,7110002005921,登記記録の閉鎖等,0,2021-12-27,2021-12-23,有限会社北條建設,,有限会社,新潟県,新潟市中央区,山二ツ３丁目１９番９号,,15,103,9500922,,,2021-12-23,清算の結了等,,,2015-10-05,1,,,,,ホウジョウケンセツ,0
1914,7110005007072,登記記録の閉鎖等,0,2021-12-27,2021-12-09,諏訪神社,,その他の設立登記法人,新潟県,三島郡出雲崎町,大字吉水２７２番地,,15,405,9494324,,,2021-12-09,合併による解散等,4110005006795,令和３年１２月９日新潟県柏崎市西山町石地字十二１０４５番地石井神社（4110005006795）に合併し解散,2015-10-05,1,,,,,スワジンジャ,0
1916,7120001043467,登記記録の閉鎖等,0,2021-12-27,2021-12-23,株式会社サカグチ,,株式会社,大阪府,大阪市西区,西本町１丁目１４番９号,,27,106,5500005,,,2021-12-23,合併による解散等,9130001023854,令和３年１２月２０日京都市東山区大和大路通四条上る二筋目東入末吉町８０番１１株式会社エムアンドエム（9130001023854）に合併し解散,2015-10-05,1,,,,,,0
1937,7120005005711,登記記録の閉鎖等,0,2021-12-27,2021-12-24,医療法人悠久会,,その他の設立登記法人,大阪府,大阪市西淀川区,野里１丁目１番８号,,27,113,5550024,,,2021-12-24,清算の結了等,,,2015-10-05,1,,,,,ユウキュウカイ,0
1964,7170002006740,登記記録の閉鎖等,0,2021-12-27,2021-12-23,伸興運送有限会社,,有限会社,和歌山県,海南市,下津町中３８番地の４,,30,202,6490142,,,2021-12-23,清算の結了等,,,2015-10-05,1,,,,,シンコウウンソウ,0
1965,7170005000658,登記記録の閉鎖等,0,2021-12-27,2021-12-14,天理教鈴尋分教会,,その他の設立登記法人,和歌山県,和歌山市,土入１５番地１０,,30,201,6408432,,,2021-12-14,合併による解散等,5170005000676,令和３年１２月１４日和歌山市和歌浦東二丁目９番２７号天理教八尋殿分教会（5170005000676）に合併し解散,2015-10-05,1,,,,,テンリキョウスズヒロブンキョウカイ,0
1966,7180001012722,登記記録の閉鎖等,0,2021-12-27,2021-12-23,中日不動産鑑定株式会社,,株式会社,愛知県,名古屋市北区,金城１丁目６番１６号市松ビル,,23,103,4620847,,,2021-12-23,清算の結了等,,,2015-10-05,1,,,,,チュウニチフドウサンカンテイ,0
1979,7180301031059,登記記録の閉鎖等,0,2021-12-27,2021-12-22,株式会社家友コーポレーション,,株式会社,愛知県,名古屋市中区,新栄２丁目４番５号,,23,106,4600007,,,2021-12-22,清算の結了等,,,2017-12-25,1,,,,,イエトモコーポレーション,0
1980,7180305007369,登記記録の閉鎖等,0,2021-12-27,2021-12-23,特定非営利活動法人障がい児者，高齢者を癒し支援する会,,その他の設立登記法人,愛知県,西尾市,吉良町宮崎寺ノ上３０番地１,,23,213,4440513,,,2021-12-23,清算の結了等,,,2015-10-05,1,,,,,ショウガイジシャコウレイシャヲイヤシシエンスルカイ,0
1981,7190001005551,登記記録の閉鎖等,0,2021-12-27,2021-12-27,株式会社トーエイビジネスサポート,,株式会社,三重県,鈴鹿市,南堀江１丁目１１番２３号,,24,207,5130046,,,2021-12-27,清算の結了等,,,2015-10-05,1,,,,,トーエイビジネスサポート,0
2036,7380005009843,登記記録の閉鎖等,0,2021-12-27,2021-11-22,鹿島神社,,その他の設立登記法人,福島県,南会津郡南会津町,小立岩字瀬戸山６４１番地,,07,368,9670514,,,2021-11-22,合併による解散等,8380005009850,令和３年１１月２２日福島県南会津郡南会津町宮沢字千刈１２１３番地香取神社（8380005009850）に合併し解散,2015-10-05,1,,,,,,0
2037,7380005009876,登記記録の閉鎖等,0,2021-12-27,2021-11-22,熊野神社,,その他の設立登記法人,福島県,南会津郡南会津町,浜野字中道下４５５番地,,07,368,9670504,,,2021-11-22,合併による解散等,8380005009850,令和３年１１月２２日福島県南会津郡南会津町宮沢字千刈１２１３番地香取神社（8380005009850）に合併し解散,2015-10-05,1,,,,,,0
2038,7380005009901,登記記録の閉鎖等,0,2021-12-27,2021-11-22,諏訪神社,,その他の設立登記法人,福島県,南会津郡南会津町,小塩字円＿２７９番地,00084647,07,368,9670506,,,2021-11-22,合併による解散等,8380005009850,令和３年１１月２２日福島県南会津郡南会津町宮沢字千刈１２１３番地香取神社（8380005009850）に合併し解散,2015-10-05,1,,,,,,0
2044,7430003004956,登記記録の閉鎖等,0,2021-12-27,2021-12-22,合同会社ケアサポート・フリージア,,合同会社,北海道,札幌市東区,北四十五条東１５丁目１番２号,,01,103,0070845,,,2021-12-22,清算の結了等,,,2015-10-05,1,,,,,ケアサポートフリージア,0
2064,8010002040754,登記記録の閉鎖等,0,2021-12-27,2021-12-22,有限会社エムアンドエムプランニング,,有限会社,東京都,千代田区,四番町８番地９,,13,101,1020081,,,2021-12-22,清算の結了等,,,2015-10-05,1,,,,,エムアンドエムプランニング,0
2065,8010003029227,登記記録の閉鎖等,0,2021-12-27,2021-12-21,ＥＳＲ２２合同会社,,合同会社,東京都,中央区,日本橋１丁目４番１号日本橋一丁目ビルディング,,13,102,1030027,,,2021-12-21,清算の結了等,,,2019-02-07,1,,,,,イーエスアールトゥエンティツー,0
2068,8010005032385,登記記録の閉鎖等,0,2021-12-27,2021-12-14,一般社団法人聴訊共協会,,その他の設立登記法人,東京都,中央区,銀座１丁目２２番１１号銀座大竹ビジデンス２Ｆ,,13,102,1040061,,,2021-12-14,清算の結了等,,,2020-10-09,1,,,,,キキトモキョウカイ,0
2072,8010401112823,登記記録の閉鎖等,0,2021-12-27,2021-12-13,株式会社如川商事,,株式会社,東京都,新宿区,高田馬場４丁目４１－１、４Ｆ,,13,104,1690075,,,2021-12-13,清算の結了等,,,2015-10-05,1,,,,,ヨガワショウジ,0
2093,8010701034461,登記記録の閉鎖等,0,2021-12-27,2021-12-22,株式会社３６５コーポレーション,,株式会社,東京都,品川区,大崎１丁目１９番１３－２７０８号,,13,109,1410032,,,2021-12-22,清算の結了等,,,2017-07-25,1,,,,,サンロクゴコーポレーション,0
2106,8011001125240,登記記録の閉鎖等,0,2021-12-27,2021-12-14,株式会社グローバルエンターテイメント,,株式会社,東京都,渋谷区,恵比寿南１丁目７番８号,,13,113,1500022,,,2021-12-14,清算の結了等,,,2018-11-19,1,,,,,グローバルエンターテイメント,0
2138,8012401036390,登記記録の閉鎖等,0,2021-12-27,2021-12-21,株式会社Ｅｘｅｒ,,株式会社,東京都,武蔵野市,境１丁目２０－３１,,13,203,1800022,,,2021-12-21,清算の結了等,,,2020-03-26,1,,,,,エクサー,0
2157,8021002069436,登記記録の閉鎖等,0,2021-12-27,2021-12-23,有限会社田沼,,有限会社,神奈川県,横須賀市,東逸見町１丁目２７番地,,14,201,2380045,,,2021-12-23,清算の結了等,,,2015-10-05,1,,,,,タヌマ,0
2175,8060001014151,登記記録の閉鎖等,0,2021-12-27,2021-12-20,株式会社関東ロードメンテナンス,,株式会社,栃木県,小山市,駅南町２丁目２６番地２第２旭ビル,,09,208,3230822,,,2021-12-20,清算の結了等,,,2021-07-21,1,,,,,カントウロードメンテナンス,0
2184,8070002030758,登記記録の閉鎖等,0,2021-12-27,2021-12-21,有限会社藤掛鉄工,,有限会社,群馬県,太田市,東長岡町５１３番地の８,,10,205,3730812,,,2021-12-21,清算の結了等,,,2015-10-05,1,,,,,フジカケテッコウ,0
2200,8120001122815,登記記録の閉鎖等,0,2021-12-27,2021-12-21,株式会社エヌエスファミリー,,株式会社,大阪府,松原市,立部２丁目３０９番地の３,,27,217,5800012,,,2021-12-21,清算の結了等,,,2015-10-05,1,,,,,エヌエスファミリー,0
2211,8120002013823,登記記録の閉鎖等,0,2021-12-27,2021-12-21,有限会社山勝,,有限会社,大阪府,大阪市天王寺区,逢阪２丁目４番１７号,00030577,27,109,5430062,,,2021-12-21,清算の結了等,,,2015-10-05,1,,,,,ヤマカツ,0
2218,8120005017227,登記記録の閉鎖等,0,2021-12-27,2021-12-21,特定非営利活動法人ダイソーサポート,,その他の設立登記法人,大阪府,大阪市都島区,片町１丁目５番１３号,,27,102,5340025,,,2021-12-21,清算の結了等,,,2015-10-05,1,,,,,,0
2228,8130001048761,登記記録の閉鎖等,0,2021-12-27,2021-12-22,株式会社ささきＥ．Ｒ．Ａ．,,株式会社,京都府,京都市下京区,大宮通丹波口下る大宮３丁目１４番地,,26,106,6008363,,,2021-12-22,清算の結了等,,,2015-10-05,1,,,,,ササキイーアールエー,0
2274,8180302000904,登記記録の閉鎖等,0,2021-12-27,2021-12-23,有限会社ガレージコバヤシ,,有限会社,愛知県,岡崎市,保母町字下屋敷３番地１,,23,202,4440004,,,2021-12-23,清算の結了等,,,2015-10-05,1,,,,,ガレージコバヤシ,0
2316,8320002021335,登記記録の閉鎖等,0,2021-12-27,2021-12-22,奥木材有限会社,,有限会社,大分県,中津市,耶馬溪町大字戸原３７０番地,,44,203,8710404,,,2021-12-22,清算の結了等,,,2015-10-05,1,,,,,オクモクザイ,0
2336,8380002004136,登記記録の閉鎖等,0,2021-12-27,2021-12-22,有限会社秋山不動産鑑定事務所,,有限会社,福島県,福島市,西中央４丁目８５番地の４,,07,201,9608074,,,2021-12-22,清算の結了等,,,2015-10-05,1,,,,,,0
2338,8380003004102,登記記録の閉鎖等,0,2021-12-27,2021-12-21,合同会社杢理舎,,合同会社,福島県,南相馬市,原町区南町４丁目２９番地,,07,212,9750007,,,2021-12-21,清算の結了等,,,2017-09-22,1,,,,,,0
2339,8380005009842,登記記録の閉鎖等,0,2021-12-27,2021-11-22,鹿島神社,,その他の設立登記法人,福島県,南会津郡南会津町,青柳字西ノ前２１番地,,07,368,9670507,,,2021-11-22,合併による解散等,8380005009850,令和３年１１月２２日福島県南会津郡南会津町宮沢字千刈１２１３番地香取神社（8380005009850）に合併し解散,2015-10-05,1,,,,,カシマ,0
2359,8470002006833,登記記録の閉鎖等,0,2021-12-27,2021-12-22,有限会社宮脇画廊,,有限会社,香川県,高松市,紺屋町１０番地１４,,37,201,7600027,,,2021-12-22,合併による解散等,4470002002365,令和３年１２月２２日香川県高松市朝日新町１６番１７号株式会社宮脇商事（4470002002365）に合併し解散,2015-10-05,1,,,,,ミヤワキガロウ,0
2361,8480005003620,登記記録の閉鎖等,0,2021-12-27,2021-12-23,医療法人野田会,,その他の設立登記法人,徳島県,板野郡上板町,鍛冶屋原字妙楽寺１５番地の１,,36,405,7711301,,,2021-12-23,清算の結了等,,,2015-10-05,1,,,,,ノダカイ,0
2399,9010401160862,登記記録の閉鎖等,0,2021-12-27,2021-12-20,株式会社瀧石紙店,,株式会社,東京都,港区,虎ノ門５丁目１０番１３号,,13,103,1050001,,,2021-12-20,清算の結了等,,,2021-06-21,1,,,,,タキイシカミテン,0
2411,9010602030369,登記記録の閉鎖等,0,2021-12-27,2021-12-20,有限会社ピーディー,,有限会社,東京都,江東区,白河３丁目１８番９号,,13,108,1350021,,,2021-12-20,清算の結了等,,,2015-10-05,1,,,,,ピーディー,0
2417,9010901010963,登記記録の閉鎖等,0,2021-12-27,2021-12-23,別府測量設計株式会社,,株式会社,東京都,世田谷区,給田３丁目６番２号,,13,112,1570064,,,2021-12-23,清算の結了等,,,2015-10-05,1,,,,,ベップソクリョウセッケイ,0
2438,9011401004068,登記記録の閉鎖等,0,2021-12-27,2021-12-23,株式会社田中プレス製作所,,株式会社,東京都,板橋区,中丸町３４番７号,,13,119,1730026,,,2021-12-23,清算の結了等,,,2015-10-05,1,,,,,タナカプレスセイサクジョ,0
2452,9020001094650,登記記録の閉鎖等,0,2021-12-27,2021-12-22,株式会社みのりネット,,株式会社,東京都,中央区,銀座１丁目２２番１１号銀座大竹ビジデンス２Ｆ,,13,102,1040061,,,2021-12-22,清算の結了等,,,2015-10-05,1,,,,,ミノリネット,0
2465,9021001059503,登記記録の閉鎖等,0,2021-12-27,2021-12-22,株式会社ピージーサポート,,株式会社,神奈川県,小田原市,飯泉１７４番地の３,,14,206,2500863,,,2021-12-22,清算の結了等,,,2016-06-13,1,,,,,ピージーサポート,0
2488,9040002082396,登記記録の閉鎖等,0,2021-12-27,2021-12-23,有限会社イチノミヤ,,有限会社,千葉県,長生郡一宮町,一宮３１６１番地,,12,421,2994301,,,2021-12-23,清算の結了等,,,2015-10-05,1,,,,,イチノミヤ,0
2514,9120001157471,登記記録の閉鎖等,0,2021-12-27,2021-12-22,サワフジ工業株式会社,,株式会社,大阪府,門真市,殿島町８番２号,,27,223,5710045,,,2021-12-22,清算の結了等,,,2015-10-05,1,,,,,サワフジコウギョウ,0
2564,9180302025173,登記記録の閉鎖等,0,2021-12-27,2021-12-22,有限会社ナミカ,,有限会社,愛知県,豊田市,鴛鴨町中屋敷１０８番地１,,23,211,4701207,,,2021-12-22,清算の結了等,,,2015-10-05,1,,,,,ナミカ,0
2565,9190001011721,登記記録の閉鎖等,0,2021-12-27,2021-12-23,株式会社テクノ・ハウス中央,,株式会社,三重県,松阪市,田村町２３５番地１,,24,204,5150055,,,2021-12-23,清算の結了等,,,2015-10-05,1,,,,,テクノハウスチュウオウ,0
2569,9210001002651,登記記録の閉鎖等,0,2021-12-27,2021-12-21,日興技研株式会社,,株式会社,福井県,福井市,二の宮３丁目２２番１５号,,18,201,9100015,,,2021-12-21,清算の結了等,,,2015-10-05,1,,,,,ニッコウギケン,0
2575,9220002015115,登記記録の閉鎖等,0,2021-12-27,2021-12-22,有限会社米徳,,有限会社,石川県,羽咋市,大川町ク６３番地,,17,207,9250015,,,2021-12-22,清算の結了等,,,2015-10-05,1,,,,,コメトク,0
2577,9240001038255,登記記録の閉鎖等,0,2021-12-27,2021-12-22,檀上産業株式会社,,株式会社,広島県,尾道市,高須町５６１１番地の２,,34,205,7290141,,,2021-12-22,清算の結了等,,,2015-10-05,1,,,,,ダンジョウサンギョウ,0
2590,9260005000671,登記記録の閉鎖等,0,2021-12-27,2021-12-14,天理教備岡山分教会,,その他の設立登記法人,岡山県,岡山市北区,京橋南町５番１３号,,33,101,7000832,,,2021-12-14,合併による解散等,8140005007705,令和３年１２月１４日兵庫県赤穂市鷏和８０４番地の３天理教備海分教会（8140005007705）に合併し解散,2015-10-05,1,,,,,,0
2599,9290002011479,登記記録の閉鎖等,0,2021-12-27,2021-12-22,総合産業有限会社,,有限会社,福岡県,福岡市博多区,諸岡６丁目１４番６号,,40,132,8120894,,,2021-12-22,清算の結了等,,,2015-10-05,1,,,,,ソウゴウサンギョウ,0
2607,9310001005223,登記記録の閉鎖等,0,2021-12-27,2021-12-23,株式会社お酒村,,株式会社,長崎県,佐世保市,針尾東町２６番地の３,,42,202,8593451,,,2021-12-23,清算の結了等,,,2015-10-05,1,,,,,オサケムラ,0
2613,9330001026622,登記記録の閉鎖等,0,2021-12-27,2021-12-22,共栄住設株式会社,,株式会社,熊本県,熊本市中央区,神水１丁目６番３号,,43,101,8620954,,,2021-12-22,清算の結了等,,,2019-08-02,1,,,,,キョウエイジュウセツ,0
2623,9380001020505,登記記録の閉鎖等,0,2021-12-27,2021-12-21,株式会社南会,,株式会社,福島県,会津若松市,町北町大字上荒久田字鈴木５７番地１,,07,202,9650053,,,2021-12-21,清算の結了等,,,2015-10-05,1,,,,,ナンカイ,0
2629,9380005008521,登記記録の閉鎖等,0,2021-12-27,2021-12-21,定善寺,,その他の設立登記法人,福島県,会津若松市,馬場名子屋町２９番地,,07,202,9650000,,,2021-12-21,清算の結了等,,,2015-10-05,1,,,,,ジョウゼンジ,1
2631,9400005000772,登記記録の閉鎖等,0,2021-12-27,2021-12-24,学校法人みどりが丘学園,,その他の設立登記法人,岩手県,盛岡市,緑が丘３丁目１５番２１号,,03,201,0200117,,,2021-12-24,清算の結了等,,,2015-10-05,1,,,,,ミドリガオカガクエン,0
2632,9410001008050,登記記録の閉鎖等,0,2021-12-27,2021-12-21,福田ヒューム管工業株式会社,,株式会社,秋田県,大仙市,神宮寺字中川原３番地,,05,212,0191701,,,2021-12-21,清算の結了等,,,2015-10-05,1,,,,,,0
2635,9410002008909,登記記録の閉鎖等,0,2021-12-27,2021-12-24,幸坂木材有限会社,,有限会社,秋田県,大館市,山田字寺下２７番地,,05,204,0183502,,,2021-12-24,清算の結了等,,,2015-10-05,1,,,,,,0
2636,9410005003460,登記記録の閉鎖等,0,2021-12-27,2021-12-21,秋田県北トラック事業協同組合,,その他の設立登記法人,秋田県,鹿角郡小坂町,小坂字上前田４番地４,,05,303,0170201,,,2021-12-21,清算の結了等,,,2015-10-05,1,,,,,アキタケンホクトラック,0
2639,9430002001473,登記記録の閉鎖等,0,2021-12-27,2021-12-23,有限会社井口電気,,有限会社,北海道,札幌市中央区,南一条東７丁目２番２号ラピスアクアシティー大通３０５,,01,101,0600051,,,2021-12-23,清算の結了等,,,2015-10-05,1,,,,,イグチデンキ,0
2645,9450002012881,登記記録の閉鎖等,0,2021-12-27,2021-12-24,有限会社カネタ村田水産,,有限会社,北海道,紋別郡雄武町,字雄武１８４０番地の９９,,01,563,0981702,,,2021-12-24,清算の結了等,,,2015-10-05,1,,,,,,0
2647,9460101003368,登記記録の閉鎖等,0,2021-12-27,2021-12-23,株式会社広部鉄工場,,株式会社,北海道,中川郡池田町,字大通４丁目１２番地,,01,644,0830090,,,2021-12-23,清算の結了等,,,2015-10-05,1,,,,,ヒロベテッコウジョウ,0
2650,9470005004866,登記記録の閉鎖等,0,2021-12-27,2021-12-08,天理教讃長分教会,00005756,その他の設立登記法人,香川県,小豆郡小豆島町,二面２３０９番地,,37,324,7614305,,,2021-12-08,合併による解散等,2470005000319,令和３年１２月８日香川県高松市多賀町二丁目７番９号天理教讃一分教会（2470005000319）に合併し解散,2015-10-05,1,,,,,テンリキョウサンナガブンキョウカイ,0
2651,9500002014369,登記記録の閉鎖等,0,2021-12-27,2021-12-24,有限会社中村商事,,有限会社,愛媛県,西条市,樋之口１３４番地の９,00008030,38,206,7930043,,,2021-12-24,清算の結了等,,,2015-10-05,1,,,,,ナカムラショウジ,0
2652,9700150073667,登記記録の閉鎖等,0,2021-12-27,2021-07-15,ＧＭＯ－Ｚ．ｃｏｍ　ＵＳＡ，Ｉｎｃ．,,外国会社等,,,,,,,,４６８５　ＭａｃＡｒｔｈｕｒ　Ｃｏｕｒｔ，Ｓｕｉｔｅ　１５０，Ｎｅｗｐｏｒｔ　Ｂｅａｃｈ，ＣＡ　９２６６０　Ｕ．Ｓ．Ａ．,,2021-07-15,その他の清算の結了等,,,2016-05-30,1,,,,,ジーエムオーゼツトコムユーエスエーインク,0
