sequenceNumber,corporateNumber,process,correct,updateDate,changeDate,name,nameImageId,kind,prefectureName,cityName,streetNumber,addressImageId,prefectureCode,cityCode,postCode,addressOutside,addressOutsideImageId,closeDate,closeCause,successorCorporateNumber,changeCause,assignmentDate,latest,enName,enPrefectureName,enCityName,enAddressOutside,furigana,hihyoji
7,1010001229371,新規,0,2022-09-09,2022-09-09,株式会社コンサルティングサポートサービス,,株式会社,東京都,千代田区,岩本町３丁目１１番８号,,13,101,1010032,,,,,,,2022-09-09,1,,,,,コンサルティングサポートサービス,0
11,1010003038614,新規,0,2022-09-09,2022-09-09,東京キャピタル合同会社,,合同会社,東京都,中央区,新川２丁目１５番３－７０１号,,13,102,1040033,,,,,,,2022-09-09,1,,,,,トウキョウキャピタル,0
12,1010003038630,新規,0,2022-09-09,2022-09-09,合同会社ＴＹＦ,,合同会社,東京都,千代田区,神田須田町１丁目７番１号,,13,101,1010041,,,,,,,2022-09-09,1,,,,,ティーワイエフ,0
13,1010005035527,新規,0,2022-09-09,2022-09-09,一般社団法人日本ゲシュタルト療法学会,,その他の設立登記法人,東京都,千代田区,麹町２丁目１０－３エキスパートオフィス麹町,,13,101,1020083,,,,,,,2022-09-09,1,,,,,ニホンゲシュタルトリョウホウガッカイ,0
19,1010401169580,新規,0,2022-09-09,2022-09-09,株式会社ＡＬＣＨＥＭＹ,,株式会社,東京都,港区,西麻布３丁目１０番２－１０１号,,13,103,1060031,,,,,,,2022-09-09,1,,,,,アルケミー,0
20,1010401169713,新規,0,2022-09-09,2022-09-09,株式会社ＦＡ４号,,株式会社,東京都,港区,赤坂８丁目６番１７－５０１号,,13,103,1070052,,,,,,,2022-09-09,1,,,,,エフエイヨンゴウ,0
25,1010405021333,新規,0,2022-09-09,2022-09-09,一般社団法人ＨＤＧ３４,,その他の設立登記法人,東京都,港区,虎ノ門３丁目２２番１０－２０１号,,13,103,1050001,,,,,,,2022-09-09,1,,,,,エイチディージースリーフォー,0
36,1010901051602,新規,0,2022-09-09,2022-09-09,株式会社イスム,,株式会社,東京都,世田谷区,桜丘３丁目３７番４６号,,13,112,1560054,,,,,,,2022-09-09,1,,,,,イスム,0
48,1011005009735,新規,0,2022-09-09,2022-09-09,社会保険労務士法人アイレクス,,その他の設立登記法人,東京都,渋谷区,代々木２丁目２３番１号,,13,113,1510053,,,,,,,2022-09-09,1,,,,,アイレクス,0
54,1011201024091,新規,0,2022-09-09,2022-09-09,株式会社オルタナ,,株式会社,東京都,中野区,東中野５丁目５－６,,13,114,1640003,,,,,,,2022-09-09,1,,,,,オルタナ,0
55,1011303004504,新規,0,2022-09-09,2022-09-09,なかじましんやオフィス合同会社,,合同会社,東京都,杉並区,成田東４丁目８－１４ＯＰＵＳＡ－Ａ,,13,115,1660015,,,,,,,2022-09-09,1,,,,,ナカジマシンヤオフィス,0
65,1011801041255,新規,0,2022-09-09,2022-09-09,株式会社順達物流,,株式会社,東京都,足立区,入谷５丁目２番１１号,,13,121,1210836,,,,,,,2022-09-09,1,,,,,ジュンタツブツリュウ,0
66,1011801041263,新規,0,2022-09-09,2022-09-09,株式会社杉,,株式会社,東京都,葛飾区,東四つ木３丁目２４番５号,,13,122,1240014,,,,,,,2022-09-09,1,,,,,スギ,0
69,1012801021833,新規,0,2022-09-09,2022-09-09,株式会社トラノモン不動産,,株式会社,東京都,東大和市,向原３丁目２番地の２３,,13,220,2070013,,,,,,,2022-09-09,1,,,,,,0
79,1020001148125,新規,0,2022-09-09,2022-09-09,三多リアルティ株式会社,,株式会社,神奈川県,横浜市鶴見区,上の宮１丁目２４番３４号,,14,101,2300075,,,,,,,2022-09-09,1,,,,,サンタリアルティ,0
81,1020003022360,新規,0,2022-09-09,2022-09-09,合同会社マカロン,,合同会社,神奈川県,横浜市南区,唐沢１８番地,,14,105,2320034,,,,,,,2022-09-09,1,,,,,マカロン,0
82,1020003022385,新規,0,2022-09-09,2022-09-09,ミライトラスト合同会社,,合同会社,神奈川県,川崎市中原区,今井上町１０番１－７０６号ガーデンティアラ武蔵小杉,,14,133,2110067,,,,,,,2022-09-09,1,,,,,ミライトラスト,0
99,1021003012112,新規,0,2022-09-09,2022-09-09,合同会社Ｗｏｈｌｆａｈｒｔ　Ａｉｌｅ,,合同会社,神奈川県,藤沢市,片瀬２丁目１７－８,,14,205,2510032,,,,,,,2022-09-09,1,,,,,ヴォルファートエール,0
114,1030001149997,新規,0,2022-09-09,2022-09-09,ＡｒＣｏＩｒｉｓ株式会社,,株式会社,埼玉県,さいたま市大宮区,宮町１丁目３７番地１大宮コルビル２階,,11,103,3300802,,,,,,,2022-09-09,1,,,,,アルコイリス,0
119,1030005020980,新規,0,2022-09-09,2022-09-09,一般社団法人Ｐｒｏｓｐｅｒｉｄａｄｅ,,その他の設立登記法人,埼玉県,川口市,戸塚境町２０番６号,,11,203,3330806,,,,,,,2022-09-09,1,,,,,プロスペリダージ,0
124,1040001125015,新規,0,2022-09-09,2022-09-09,株式会社マルナカ,,株式会社,千葉県,市川市,湊新田２丁目９番２１号,,12,203,2720132,,,,,,,2022-09-09,1,,,,,マルナカ,0
129,1040003020791,新規,0,2022-09-09,2022-09-09,シルフ合同会社,,合同会社,千葉県,船橋市,海神６丁目２６番２２号,,12,204,2730021,,,,,,,2022-09-09,1,,,,,シルフ,0
137,1070001039617,新規,0,2022-09-09,2022-09-09,株式会社ノボリフジ,,株式会社,群馬県,前橋市,大友町３丁目２４番地１ホテル１－２－３前橋マーキュリーＥＡＳＴ館７Ｆコワーキングスペース・マーキュリー倶楽部内,,10,201,3710847,,,,,,,2022-09-09,1,,,,,ノボリフジ,0
138,1070001039625,新規,0,2022-09-09,2022-09-09,株式会社メディカルハナ,,株式会社,群馬県,太田市,由良町１０３７番地９,,10,205,3730036,,,,,,,2022-09-09,1,,,,,メディカルハナ,0
140,1070005010037,新規,0,2022-09-09,2022-09-09,Ｇキャリアネット協同組合,,その他の設立登記法人,群馬県,伊勢崎市,連取町１８６３番地１,,10,204,3720812,,,,,,,2022-09-09,1,,,,,ジーキャリアネット,0
143,1080001025186,新規,0,2022-09-09,2022-09-09,株式会社ＡＺＵ・ルポ,,株式会社,静岡県,静岡市駿河区,鎌田３０６番地の１２,,22,102,4210133,,,,,,,2022-09-09,1,,,,,アズルポ,0
150,1100001035694,新規,0,2022-09-09,2022-09-09,株式会社サボラク,,株式会社,長野県,長野市,篠ノ井岡田３１３－４,,20,201,3812225,,,,,,,2022-09-09,1,,,,,サボラク,0
164,1120001248716,新規,0,2022-09-09,2022-09-09,株式会社Ｐｅｃｋ,,株式会社,大阪府,大阪市淀川区,西中島４丁目５番１号ＮＣＬ新大阪パワービル５－Ｆ,,27,123,5320011,,,,,,,2022-09-09,1,,,,,ペック,0
165,1120001248732,新規,0,2022-09-09,2022-09-09,株式会社ＡＲＣＯ,,株式会社,大阪府,大阪市都島区,都島本通１丁目６番１１号都島マンション１階,,27,102,5340021,,,,,,,2022-09-09,1,,,,,アルコ,0
166,1120001248749,新規,0,2022-09-09,2022-09-09,株式会社ディープシー,,株式会社,大阪府,大阪市中央区,南本町３丁目２ー１１日幸ビル６階,,27,128,5410054,,,,,,,2022-09-09,1,,,,,ディープシー,0
172,1120003022417,新規,0,2022-09-09,2022-09-09,佳龍合同会社,,合同会社,大阪府,大阪市西成区,萩之茶屋１丁目１４番１０号,,27,122,5570004,,,,,,,2022-09-09,1,,,,,カリュウ,0
173,1120003022425,新規,0,2022-09-09,2022-09-09,合同会社シアンフィールド,,合同会社,大阪府,枚方市,東香里３丁目２－２２,,27,210,5730075,,,,,,,2022-09-09,1,,,,,シアンフィールド,0
174,1120003022433,新規,0,2022-09-09,2022-09-09,合同会社パーソナルクラウド,,合同会社,大阪府,大阪市中央区,本町４丁目４－１７ＲＥ０１２ビル８０６,,27,128,5410053,,,,,,,2022-09-09,1,,,,,パーソナルクラウド,0
177,1120101066217,新規,0,2022-09-09,2022-09-09,株式会社ワイビープラス,,株式会社,大阪府,堺市堺区,海山町１丁７番地２、７０７号,,27,141,5900982,,,,,,,2022-09-09,1,,,,,ワイビープラス,0
181,1120903004299,新規,0,2022-09-09,2022-09-09,合同会社ひなた,,合同会社,大阪府,箕面市,新稲４丁目９番５号,,27,220,5620005,,,,,,,2022-09-09,1,,,,,ヒナタ,0
185,1130001072561,新規,0,2022-09-09,2022-09-09,株式会社ＳＨＡＲＥ　ＬＩＮＥ,,株式会社,京都府,久世郡久御山町,田井東荒見５０番地５,,26,322,6130036,,,,,,,2022-09-09,1,,,,,シェアライン,0
186,1130001072586,新規,0,2022-09-09,2022-09-09,株式会社アトサップ,,株式会社,京都府,京都市上京区,相国寺門前町６４３－１ブリックスクエア烏丸２階,,26,102,6020898,,,,,,,2022-09-09,1,,,,,アトサップ,0
193,1140001127281,新規,0,2022-09-09,2022-09-09,株式会社ビクトリー,,株式会社,兵庫県,洲本市,下内膳９４５番地２－２０３号,,28,205,6560016,,,,,,,2022-09-09,1,,,,,ビクトリー,0
194,1140001127298,新規,0,2022-09-09,2022-09-09,ＯＣＨＩコンサルティング株式会社,,株式会社,兵庫県,神戸市西区,樫野台６丁目１番地の１１３,,28,111,6512275,,,,,,,2022-09-09,1,,,,,オチコンサルティング,0
197,1140003018099,新規,0,2022-09-09,2022-09-09,合同会社小森,,合同会社,兵庫県,芦屋市,三条町２４番２５号,,28,206,6590087,,,,,,,2022-09-09,1,,,,,コモリ,0
210,1180001152920,新規,0,2022-09-09,2022-09-09,株式会社ＢＩＥＮ,,株式会社,愛知県,名古屋市中区,栄４丁目１７番２７号エンパイアビル５０３,,23,106,4600008,,,,,,,2022-09-09,1,,,,,ビエン,0
211,1180001152937,新規,0,2022-09-09,2022-09-09,グロートバーグ株式会社,,株式会社,愛知県,名古屋市北区,如意１丁目１６０番地の１,,23,103,4620007,,,,,,,2022-09-09,1,,,,,グロートバーグ,0
212,1180001152945,新規,0,2022-09-09,2022-09-09,株式会社ｓｎｏｗｄｒｏｐ,,株式会社,愛知県,名古屋市中区,丸の内２丁目１番１６号シャトー丸の内７０２号,,23,106,4600002,,,,,,,2022-09-09,1,,,,,スノードロップ,0
218,1180005019926,新規,0,2022-09-09,2022-09-09,一般社団法人樹信,,その他の設立登記法人,愛知県,名古屋市瑞穂区,神前町１丁目８０番地の１,,23,108,4670832,,,,,,,2022-09-09,1,,,,,ジュシン,0
221,1180301036591,新規,0,2022-09-09,2022-09-09,株式会社ＹＥＬＬ,,株式会社,愛知県,碧南市,栗山町１丁目６３番地５,,23,209,4470873,,,,,,,2022-09-09,1,,,,,エール,0
222,1180301036600,新規,0,2022-09-09,2022-09-09,Ｈｏｂｂｙ’ｓ　Ｌｉｆｅ株式会社,,株式会社,愛知県,豊田市,西中山町又吉洞８番地１０５,,23,211,4700431,,,,,,,2022-09-09,1,,,,,ホビーズライフ,0
223,1180301036609,新規,0,2022-09-09,2022-09-09,株式会社Ｙ．Ｋ工業,,株式会社,愛知県,岡崎市,井田新町９番地１,,23,202,4440069,,,,,,,2022-09-09,1,,,,,ワイケイコウギョウ,0
224,1180301036625,新規,0,2022-09-09,2022-09-09,株式会社ＥｉｇＨｔ　Ｄｅｓｉｇｎ,,株式会社,愛知県,西尾市,永吉４丁目８３番地３,,23,213,4450870,,,,,,,2022-09-09,1,,,,,エイトデザイン,0
228,1190001029754,新規,0,2022-09-09,2022-09-09,株式会社ＫＡＬＩＮ,,株式会社,三重県,亀山市,羽若町７３３番地１,,24,210,5190164,,,,,,,2022-09-09,1,,,,,カリン,0
249,1260001037246,新規,0,2022-09-09,2022-09-09,クラウド鑑定株式会社,,株式会社,岡山県,岡山市北区,清輝橋３丁目３－１清輝橋マンション５０３号室,,33,101,7000861,,,,,,,2022-09-09,1,,,,,クラウドカンテイ,0
253,1290001098855,新規,0,2022-09-09,2022-09-09,株式会社イシカワ,,株式会社,福岡県,大野城市,大城４丁目５番２０号ボヌール大城２０２号,,40,219,8160911,,,,,,,2022-09-09,1,,,,,イシカワ,0
254,1290001098871,新規,0,2022-09-09,2022-09-09,株式会社ゴリラネットワーク,,株式会社,福岡県,久留米市,城島町内野３２０番地１０,,40,203,8300204,,,,,,,2022-09-09,1,,,,,ゴリラネットワーク,0
258,1290801028879,新規,0,2022-09-09,2022-09-09,株式会社来富企画,,株式会社,福岡県,北九州市若松区,本町２丁目５番１７号,,40,103,8080034,,,,,,,2022-09-09,1,,,,,ライフキカク,0
268,1320001019320,新規,0,2022-09-09,2022-09-09,株式会社Ｏｎｏｕｅ,,株式会社,大分県,大分市,東津留１丁目５番１号ユナイテッド東津留ビル２Ｆ,,44,201,8700934,,,,,,,2022-09-09,1,,,,,オノウエ,0
271,1340001025028,新規,0,2022-09-09,2022-09-09,株式会社共創企画,,株式会社,鹿児島県,鹿児島市,城山町１４番１４－１４０２号,,46,201,8920853,,,,,,,2022-09-09,1,,,,,キョウソウキカク,0
276,1360003012286,新規,0,2022-09-09,2022-09-09,合同会社ラジオソリューションズ,,合同会社,沖縄県,名護市,大北５丁目１９番８号,,47,209,9050019,,,,,,,2022-09-09,1,,,,,ラジオソリューションズ,0
277,1360003012294,新規,0,2022-09-09,2022-09-09,ＧＭＹ合同会社,,合同会社,沖縄県,中頭郡北中城村,字渡口１００３番地大西テラスカトレアＡ３０３,,47,327,9012302,,,,,,,2022-09-09,1,,,,,ジーエムワイ,0
280,1370003005826,新規,0,2022-09-09,2022-09-09,合同会社ＭＡＶＥＲＩＣＫ,,合同会社,宮城県,仙台市泉区,南中山２丁目１２番地の９サンプレイス１０５号,,04,105,9813213,,,,,,,2022-09-09,1,,,,,マーヴェリック,0
294,1430001087447,新規,0,2022-09-09,2022-09-09,株式会社ＮＯＡ,,株式会社,北海道,札幌市豊平区,中の島一条３丁目４番１７,,01,105,0620921,,,,,,,2022-09-09,1,,,,,ノア,0
295,1430001087455,新規,0,2022-09-09,2022-09-09,株式会社ｆｕｎｓｅｆｕｌ,,株式会社,北海道,札幌市中央区,北三条西７丁目１番地１,,01,101,0600003,,,,,,,2022-09-09,1,,,,,ファンズフル,0
296,1430001087463,新規,0,2022-09-09,2022-09-09,株式会社ａｃｈｉｅｖｅ,,株式会社,北海道,千歳市,清流２丁目１３番７号,,01,224,0660081,,,,,,,2022-09-09,1,,,,,アチーヴ,0
297,1430003014259,新規,0,2022-09-09,2022-09-09,ｕｎｄｅｒ合同会社,,合同会社,北海道,札幌市豊平区,平岸三条７丁目１番２７号平岸スクエアビル８１０,,01,105,0620933,,,,,,,2022-09-09,1,,,,,アンダー,0
299,1440005002731,新規,0,2022-09-09,2022-09-09,特定非営利活動法人まちカフェ江差,,その他の設立登記法人,北海道,檜山郡江差町,字新地町８番地２江差ＢＡＳＥプラス１,,01,361,0430053,,,,,,,2022-09-09,1,,,,,,0
301,1450005004347,新規,0,2022-09-09,2022-09-09,医療法人社団ひまり会,,その他の設立登記法人,北海道,旭川市,九条通１４丁目２４番地２２４,,01,204,0700039,,,,,,,2022-09-09,1,,,,,ヒマリカイ,0
312,1700150111665,新規,0,2022-09-09,2022-09-09,三輪崎区,,その他,和歌山県,新宮市,三輪崎２丁目４番４号,,30,207,6470061,,,,,,,2022-09-09,1,,,,,ミワサキク,0
319,2010001229222,新規,0,2022-09-09,2022-09-09,永井印刷工業株式会社,,株式会社,東京都,中央区,入船３丁目１番１３号,,13,102,1040042,,,,,,,2022-09-09,1,,,,,ナガイインサツコウギョウ,0
320,2010001229263,新規,0,2022-09-09,2022-09-09,株式会社日本全食,,株式会社,東京都,千代田区,九段北１丁目１３番５号ヒューリック九段ビル１２Ｆ,,13,101,1020073,,,,,,,2022-09-09,1,,,,,ニホンゼンショク,0
321,2010001229313,新規,0,2022-09-09,2022-09-09,ＳＣＩバイアウト２号株式会社,,株式会社,東京都,中央区,日本橋室町２丁目４番３号,,13,102,1030022,,,,,,,2022-09-09,1,,,,,エスシーアイバイアウトニゴウ,0
322,2010001229346,新規,0,2022-09-09,2022-09-09,株式会社Ｅｒｄｅ,,株式会社,東京都,中央区,銀座４丁目３番１２号,,13,102,1040061,,,,,,,2022-09-09,1,,,,,エアーダ,0
323,2010001229354,新規,0,2022-09-09,2022-09-09,ＭｏｔｏＣｏｄｅ株式会社,,株式会社,東京都,文京区,千駄木２丁目８番４号,,13,105,1130022,,,,,,,2022-09-09,1,,,,,モトコード,0
324,2010001229370,新規,0,2022-09-09,2022-09-09,株式会社生田目会計事務所,,株式会社,東京都,文京区,本駒込６丁目２４番４－１００３号,,13,105,1130021,,,,,,,2022-09-09,1,,,,,ナマタメカイケイジムショ,0
325,2010001229420,新規,0,2022-09-09,2022-09-09,ＨＨＣ株式会社,,株式会社,東京都,中央区,日本橋小舟町７番１１号ＧＩＳＪＡＰＡＮＴＯＫＹＯＢＬＤＧ４０２Ａ号,,13,102,1030024,,,,,,,2022-09-09,1,,,,,エイチエイチシー,0
335,2010403028288,新規,0,2022-09-09,2022-09-09,合同会社ＳＴＥＥＺ,,合同会社,東京都,港区,東麻布３丁目４番１７号,,13,103,1060044,,,,,,,2022-09-09,1,,,,,スティーズ,0
336,2010403028453,新規,0,2022-09-09,2022-09-09,合同会社エスエフ南青山,,合同会社,東京都,港区,虎ノ門３丁目２２番１０－２０１号,,13,103,1050001,,,,,,,2022-09-09,1,,,,,エスエフミナミアオヤマ,0
339,2010405021340,新規,0,2022-09-09,2022-09-09,一般社団法人自治体ＤＸ推進機構,,その他の設立登記法人,東京都,港区,虎ノ門１丁目１６番２号岩尾ビル９階,,13,103,1050001,,,,,,,2022-09-09,1,,,,,ジチタイディエックススイシンキコウ,0
341,2010503006714,新規,0,2022-09-09,2022-09-09,ジャパン商事合同会社,,合同会社,東京都,台東区,根岸１丁目１－１７鶯泉楼駅前ビル５１６号室,,13,106,1100003,,,,,,,2022-09-09,1,,,,,ジャパンショウジ,0
346,2010901051601,新規,0,2022-09-09,2022-09-09,株式会社コルザ,,株式会社,東京都,世田谷区,砧８丁目１６番７号,,13,112,1570073,,,,,,,2022-09-09,1,,,,,コルザ,0
353,2011001149682,新規,0,2022-09-09,2022-09-09,株式会社Ｗａｌｌｍａｍ,,株式会社,東京都,渋谷区,円山町５番５号Ｎａｖｉ渋谷Ｖ３階,,13,113,1500044,,,,,,,2022-09-09,1,,,,,ウォールマム,0
354,2011001149690,新規,0,2022-09-09,2022-09-09,株式会社Ｔｉｅｎ,,株式会社,東京都,渋谷区,神宮前４丁目１１番６号千代田ビルＢ１Ｆ,,13,113,1500001,,,,,,,2022-09-09,1,,,,,ティエン,0
362,2011101100124,新規,0,2022-09-09,2022-09-09,株式会社スタジオフレア,,株式会社,東京都,新宿区,四谷坂町５番１９号,,13,104,1600002,,,,,,,2022-09-09,1,,,,,スタジオフレア,0
365,2011301028099,新規,0,2022-09-09,2022-09-09,株式会社きれか,,株式会社,東京都,杉並区,高円寺南１丁目２４番７号,,13,115,1660003,,,,,,,2022-09-09,1,,,,,キレカ,0
366,2011401024527,新規,0,2022-09-09,2022-09-09,株式会社ティー・ジェイ,,株式会社,東京都,板橋区,板橋３丁目１５番１９－６０１号,,13,119,1730004,,,,,,,2022-09-09,1,,,,,ティージェイ,0
370,2011505002494,新規,0,2022-09-09,2022-09-09,一般社団法人ＮＰＲ,,その他の設立登記法人,東京都,荒川区,東日暮里６丁目６０番５ＣＯＣＯＳＰＡＣＥ日暮里６階,,13,118,1160014,,,,,,,2022-09-09,1,,,,,エヌピーアール,0
371,2011701025588,新規,0,2022-09-09,2022-09-09,心悦株式会社,,株式会社,東京都,江戸川区,船堀５丁目４－７サンスイート船堀ＩＩＩ３０３,00127800,13,123,1340091,,,,,,,2022-09-09,1,,,,,シンエツ,0
373,2011801041262,新規,0,2022-09-09,2022-09-09,富潤株式会社,,株式会社,東京都,葛飾区,東新小岩７丁目１１番３号スカイピア新小岩ＩＩ２０１号室,00127796,13,122,1240023,,,,,,,2022-09-09,1,,,,,トミジュン,0
374,2011801041270,新規,0,2022-09-09,2022-09-09,株式会社ダンスミュージック,,株式会社,東京都,葛飾区,西新小岩４丁目４２－１グローリア初穂新小岩１Ｆ,,13,122,1240025,,,,,,,2022-09-09,1,,,,,ダンスミュージック,0
392,2020001148149,新規,0,2022-09-09,2022-09-09,株式会社フォーエイト,,株式会社,神奈川県,横浜市港南区,港南台４丁目８番４号,,14,111,2340054,,,,,,,2022-09-09,1,,,,,フォーエイト,0
400,2021005012613,新規,0,2022-09-09,2022-09-09,一般社団法人さがみハピネスカムズトゥルー,,その他の設立登記法人,神奈川県,相模原市緑区,橋本６丁目５番１０号中屋第２ビル２－Ｅ,,14,151,2520143,,,,,,,2022-09-09,1,,,,,サガミハピネスカムズトゥルー,0
405,2030003020115,新規,0,2022-09-09,2022-09-09,合同会社Ｒｙｔｓ,,合同会社,埼玉県,さいたま市南区,別所２丁目６番１７号,,11,108,3360021,,,,,,,2022-09-09,1,,,,,リッツ,0
413,2040001125006,新規,0,2022-09-09,2022-09-09,株式会社Ｋａｉｒｏｓ,,株式会社,千葉県,船橋市,本町７丁目４番１１号船橋大一ビル４階,,12,204,2730005,,,,,,,2022-09-09,1,,,,,カイロス,0
414,2040001125030,新規,0,2022-09-09,2022-09-09,株式会社ｊｏｆｋｈｙ　ｄｅｓｉｇｎ,,株式会社,千葉県,船橋市,東船橋５丁目６番１－９０２号,,12,204,2730002,,,,,,,2022-09-09,1,,,,,ジョフキーデザイン,0
419,2050001051647,新規,0,2022-09-09,2022-09-09,株式会社デックル,,株式会社,茨城県,つくば市,観音台１丁目３４番地１２,,08,220,3050856,,,,,,,2022-09-09,1,,,,,デックル,0
443,2100005012912,新規,0,2022-09-09,2022-09-09,ＮＰＯ法人絆八ヶ岳ラグビークラブ,,その他の設立登記法人,長野県,諏訪郡原村,１６２６７番地５２１,,20,363,3910100,,,,,,,2022-09-09,1,,,,,キズナヤツガタケラグビークラブ,0
444,2110001036947,新規,0,2022-09-09,2022-09-09,株式会社沼田工業,,株式会社,新潟県,新潟市秋葉区,荻野町１７番１６号,,15,105,9560012,,,,,,,2022-09-09,1,,,,,ヌマタコウギョウ,0
451,2120001248707,新規,0,2022-09-09,2022-09-09,プラスワン総合管理株式会社,,株式会社,大阪府,大阪市北区,梅田２丁目５番１３号桜橋第一ビル３０４号,,27,127,5300001,,,,,,,2022-09-09,1,,,,,プラスワンソウゴウカンリ,0
452,2120001248731,新規,0,2022-09-09,2022-09-09,株式会社セイコウ,,株式会社,大阪府,大阪市東淀川区,東中島１丁目１７番５号ステュディオ新大阪３４７号室,,27,114,5330033,,,,,,,2022-09-09,1,,,,,セイコウ,0
453,2120001248748,新規,0,2022-09-09,2022-09-09,ＹＹＤＳ株式会社,,株式会社,大阪府,大阪市西成区,花園南１丁目７－２１－４０２Ｃ号,,27,122,5570015,,,,,,,2022-09-09,1,,,,,ワイワイディーエス,0
454,2120001248764,新規,0,2022-09-09,2022-09-09,株式会社ＭＡＧＮＯＬＩＡ,,株式会社,大阪府,大阪市浪速区,湊町２丁目２番５－１２０３号,,27,111,5560017,,,,,,,2022-09-09,1,,,,,マグノリア,0
464,2120901046490,新規,0,2022-09-09,2022-09-09,株式会社ＨＡＬＯ　ＲＩＮＧ,,株式会社,大阪府,吹田市,五月が丘北５番３－５０６号,,27,205,5650834,,,,,,,2022-09-09,1,,,,,ハロリング,0
466,2122001036232,新規,0,2022-09-09,2022-09-09,株式会社シンエイ大阪,,株式会社,大阪府,東大阪市,吉田下島１３番６号,,27,227,5780983,,,,,,,2022-09-09,1,,,,,シンエイオオサカ,0
471,2130001072569,新規,0,2022-09-09,2022-09-09,株式会社リフラフ,,株式会社,京都府,八幡市,八幡源氏垣外３５番地の６城南マンション１１７号,,26,210,6148025,,,,,,,2022-09-09,1,,,,,リフラフ,0
472,2130001072602,新規,0,2022-09-09,2022-09-09,株式会社スリーアドバンスホールディングス,,株式会社,京都府,京都市西京区,川島調子町６３番地１,,26,111,6158125,,,,,,,2022-09-09,1,,,,,スリーアドバンスホールディングス,0
478,2140001127322,新規,0,2022-09-09,2022-09-09,株式会社心楽,,株式会社,兵庫県,尼崎市,東難波町２丁目９番２３号ファミール難波４０１号,,28,202,6600892,,,,,,,2022-09-09,1,,,,,ココラ,0
479,2140001127330,新規,0,2022-09-09,2022-09-09,アーバナイズ株式会社,,株式会社,兵庫県,芦屋市,大原町７番３－４０３号,,28,206,6590092,,,,,,,2022-09-09,1,,,,,アーバナイズ,0
480,2140003018107,新規,0,2022-09-09,2022-09-09,海味合同会社,,合同会社,兵庫県,三田市,ゆりのき台５丁目７－６４,,28,219,6691324,,,,,,,2022-09-09,1,,,,,ウミ,0
482,2150001025806,新規,0,2022-09-09,2022-09-09,株式会社ＫＲＯＳＳ,,株式会社,奈良県,生駒市,南田原町７９２－９,,29,209,6300135,,,,,,,2022-09-09,1,,,,,クロス,0
488,2180001152936,新規,0,2022-09-09,2022-09-09,株式会社豊,,株式会社,愛知県,愛知郡東郷町,白鳥４丁目２番地１押草団地４０７棟２０５号,,23,302,4700155,,,,,,,2022-09-09,1,,,,,ユタカ,0
489,2180001152944,新規,0,2022-09-09,2022-09-09,株式会社ゴルト,,株式会社,愛知県,名古屋市東区,筒井３丁目１番３８号,,23,102,4610003,,,,,,,2022-09-09,1,,,,,ゴルト,0
491,2180003024233,新規,0,2022-09-09,2022-09-09,合同会社シード設計事務所,,合同会社,愛知県,知多郡武豊町,大字冨貴字海道８－４,,23,447,4702531,,,,,,,2022-09-09,1,,,,,シードセッケイジムショ,0
492,2180301036599,新規,0,2022-09-09,2022-09-09,株式会社稲荷防災設備,,株式会社,愛知県,豊川市,西香ノ木町１丁目１０番地,,23,207,4420834,,,,,,,2022-09-09,1,,,,,イナリボウサイセツビ,0
493,2180301036608,新規,0,2022-09-09,2022-09-09,株式会社Ｃｏｌｏｒ動物病院,,株式会社,愛知県,刈谷市,広小路２丁目５８番地１,,23,210,4480844,,,,,,,2022-09-09,1,,,,,カラードウブツビョウイン,0
494,2180301036616,新規,0,2022-09-09,2022-09-09,株式会社ＳＥＪ荒田,,株式会社,愛知県,西尾市,徳次町上十五夜３６番地１,,23,213,4450072,,,,,,,2022-09-09,1,,,,,エスイージェイアラタ,0
495,2180301036624,新規,0,2022-09-09,2022-09-09,豊田創園株式会社,,株式会社,愛知県,豊田市,大多賀町餅田１２番地,00127797,23,211,4442603,,,,,,,2022-09-09,1,,,,,トヨタソウエン,0
507,2200001040436,新規,0,2022-09-09,2022-09-09,株式会社ＥＶＯＬＴ,,株式会社,岐阜県,可児市,瀬田４３０番地１,,21,214,5090213,,,,,,,2022-09-09,1,,,,,エヴォルト,0
512,2210001019082,新規,0,2022-09-09,2022-09-09,株式会社ＲＳアールズ,,株式会社,福井県,福井市,学園２丁目６番１号,,18,201,9100028,,,,,,,2022-09-09,1,,,,,アールエスアールズ,0
518,2230001019519,新規,0,2022-09-09,2022-09-09,株式会社ドイ設備Ｐｌｕｓ,,株式会社,富山県,滑川市,追分３７１２番地２,,16,206,9360808,,,,,,,2022-09-09,1,,,,,ドイセツビプラス,0
521,2240005015447,新規,0,2022-09-09,2022-09-09,医療法人ぜんそく・アレルギー広島,,その他の設立登記法人,広島県,広島市中区,堺町１丁目３番１０号吉田ビル３Ｆ,,34,101,7300853,,,,,,,2022-09-09,1,,,,,ゼンソクアレルギーヒロシマ,0
526,2250001019764,新規,0,2022-09-09,2022-09-09,株式会社ＨＩＫＡＲＩ,,株式会社,山口県,下関市,長府中浜町７番２－２号,,35,201,7520975,,,,,,,2022-09-09,1,,,,,ヒカリ,0
529,2280001008780,新規,0,2022-09-09,2022-09-09,株式会社エイシン,,株式会社,島根県,大田市,久手町刺鹿３０２５番地,,32,205,6940052,,,,,,,2022-09-09,1,,,,,エイシン,0
541,2290001098838,新規,0,2022-09-09,2022-09-09,株式会社ＦＯＲＥＳＴ,,株式会社,福岡県,飯塚市,口原５０番地７,,40,205,8201114,,,,,,,2022-09-09,1,,,,,フォレスト,0
542,2290001098862,新規,0,2022-09-09,2022-09-09,株式会社Ｌａｎｄｐｏｗｅｒ,,株式会社,福岡県,福岡市博多区,大字下月隈５８番５,,40,132,8120855,,,,,,,2022-09-09,1,,,,,ランドパワー,0
543,2290001098870,新規,0,2022-09-09,2022-09-09,ショウセイグループ株式会社,,株式会社,福岡県,福岡市博多区,東雲町４丁目３番１８号,,40,132,8120871,,,,,,,2022-09-09,1,,,,,ショウセイグループ,0
544,2290001098887,新規,0,2022-09-09,2022-09-09,株式会社ＢＵＯＮＯ,,株式会社,福岡県,福岡市中央区,薬院２丁目２番２４－７０２号,,40,133,8100022,,,,,,,2022-09-09,1,,,,,ボーノ,0
548,2290003012929,新規,0,2022-09-09,2022-09-09,志豪合同会社,,合同会社,福岡県,福岡市中央区,白金１丁目１７番１８－６０２号,,40,133,8100012,,,,,,,2022-09-09,1,,,,,シゴウ,0
558,2330001030102,新規,0,2022-09-09,2022-09-09,株式会社新星薬局,,株式会社,熊本県,熊本市北区,楠８丁目２番３９号,,43,105,8618003,,,,,,,2022-09-09,1,,,,,シンセイヤッキョク,0
563,2360001030958,新規,0,2022-09-09,2022-09-09,株式会社シマヒロ企画,,株式会社,沖縄県,沖縄市,古謝津嘉山町３０番１１号,,47,211,9042166,,,,,,,2022-09-09,1,,,,,シマヒロキカク,0
564,2360003012293,新規,0,2022-09-09,2022-09-09,合同会社Ｈｕｉｔ,,合同会社,沖縄県,沖縄市,南桃原１丁目１８番１７号,,47,211,9040035,,,,,,,2022-09-09,1,,,,,ユイット,0
565,2370001049007,新規,0,2022-09-09,2022-09-09,株式会社ＧＥＡＲ,,株式会社,宮城県,仙台市泉区,南光台南１丁目１５番２０号,,04,105,9818002,,,,,,,2022-09-09,1,,,,,ギア,0
584,2430001087454,新規,0,2022-09-09,2022-09-09,株式会社あずはな,,株式会社,北海道,札幌市西区,琴似三条４丁目１番１２－１００１号,,01,107,0630813,,,,,,,2022-09-09,1,,,,,アズハナ,0
592,2700150111664,新規,0,2022-09-09,2022-09-09,Ｊｕｎｉｐｅｒ　Ｂｌｕｅ　ＬＬＣ日本駐在員事務所,,外国会社等,東京都,港区,赤坂２丁目２１－４－３１１号室,,13,103,1070052,３９０　Ｉｎｔｅｒｌｏｃｋｅｎ　Ｃｒｅｓｃｅｎｔ，Ｓｕｉｔｅ　３５０　Ｂｒｏｏｍｆｉｅｌｄ，Ｃｏｌｏｒａｄｏ　８００２１，ＵＳＡ,,,,,,2022-09-09,1,,,,,ジユニパーブルーエルエルシーニホンチユウザイインジムシヨ,0
616,3010001229262,新規,0,2022-09-09,2022-09-09,江ノ島海浜ホテル株式会社,,株式会社,東京都,中央区,日本橋兜町１７番１号,,13,102,1030026,,,,,,,2022-09-09,1,,,,,エノシマカイヒンホテル,0
617,3010001229279,新規,0,2022-09-09,2022-09-09,オディシス札幌オペレーションズ株式会社,,株式会社,東京都,千代田区,神田神保町１丁目１１番地さくら綜合事務所内,,13,101,1010051,,,,,,,2022-09-09,1,,,,,オディシスサッポロオペレーションズ,0
620,3010003038579,新規,0,2022-09-09,2022-09-09,ＤＩＧＩＴＡＬＺＡＫＫＡ合同会社,,合同会社,東京都,中央区,東日本橋２丁目２８番４号日本橋ＣＥＴビル２階,,13,102,1030004,,,,,,,2022-09-09,1,,,,,デジタルザッカ,0
621,3010003038629,新規,0,2022-09-09,2022-09-09,合同会社ｍｏｏｂａ　ｓｔｕｄｉｏ,,合同会社,東京都,中央区,銀座８丁目１０番５号,,13,102,1040061,,,,,,,2022-09-09,1,,,,,ムーバスタジオ,0
622,3010003038637,新規,0,2022-09-09,2022-09-09,シーリードシッピングジャパン合同会社,,合同会社,東京都,千代田区,鍛冶町２丁目９番１２号,,13,101,1010044,,,,,,,2022-09-09,1,,,,,シーリードシッピングジャパン,0
632,3010401169579,新規,0,2022-09-09,2022-09-09,総建株式会社,,株式会社,東京都,港区,西新橋１丁目１９番６号桔梗備前ビル４０２,,13,103,1050003,,,,,,,2022-09-09,1,,,,,ソウケン,0
633,3010401169587,新規,0,2022-09-09,2022-09-09,株式会社インテリジェントメモリ・ジャパン,,株式会社,東京都,港区,赤坂２丁目２３番１号アークヒルズ・フロントタワーＩｎＣｏｎｔｒｏｌ内,,13,103,1070052,,,,,,,2022-09-09,1,,,,,インテリジェントメモリジャパン,0
636,3010601061783,新規,0,2022-09-09,2022-09-09,Ｓｕｎ　Ｓｏｏ　Ｈｏｌｄｉｎｇｓ株式会社,,株式会社,東京都,墨田区,立川１丁目５番１６号,,13,107,1300023,,,,,,,2022-09-09,1,,,,,サンスーホールディングス,0
637,3010601061841,新規,0,2022-09-09,2022-09-09,株式会社ＦＩＲ,,株式会社,東京都,江東区,木場５丁目１番５号メイプルハイム木場Ｂ－１２２室,,13,108,1350042,,,,,,,2022-09-09,1,,,,,エフアイアール,0
639,3010603009723,新規,0,2022-09-09,2022-09-09,シードブルー合同会社,,合同会社,東京都,江東区,豊洲５丁目１－１３ブランズタワー豊洲８０９,,13,108,1350061,,,,,,,2022-09-09,1,,,,,シードブルー,0
644,3010901051591,新規,0,2022-09-09,2022-09-09,株式会社きむら,,株式会社,東京都,世田谷区,中町１丁目２４番１４号,,13,112,1580091,,,,,,,2022-09-09,1,,,,,キムラ,0
645,3010901051600,新規,0,2022-09-09,2022-09-09,東京安曼商貿株式会社,,株式会社,東京都,世田谷区,上馬１丁目２３番７号,,13,112,1540011,,,,,,,2022-09-09,1,,,,,トウキョウアンマンショウボウ,0
647,3010903007559,新規,0,2022-09-09,2022-09-09,合同会社Ｓ＆Ｔ,,合同会社,東京都,世田谷区,下馬６丁目３１番１２号,,13,112,1540002,,,,,,,2022-09-09,1,,,,,エスアンドティー,0
654,3011001149698,新規,0,2022-09-09,2022-09-09,大旺資本株式会社,,株式会社,東京都,渋谷区,恵比寿３丁目４２番１２－４０２号,,13,113,1500013,,,,,,,2022-09-09,1,,,,,ダイオウシホン,0
661,3011201024081,新規,0,2022-09-09,2022-09-09,ＰＩＣＯＲＥ株式会社,,株式会社,東京都,中野区,中央５丁目３８番４号ボックス・エイト１０３号,,13,114,1640011,,,,,,,2022-09-09,1,,,,,ピコア,0
662,3011201024098,新規,0,2022-09-09,2022-09-09,ＧＣ‐ＰＦ株式会社,,株式会社,東京都,中野区,上高田３丁目１８－６－４０５,,13,114,1640002,,,,,,,2022-09-09,1,,,,,ジーシーピーエフ,0
664,3011301028098,新規,0,2022-09-09,2022-09-09,株式会社ハイテックＰｒｏワークス,,株式会社,東京都,杉並区,高円寺南４丁目２３番５号ＡＣＰビル２Ｆ,,13,115,1660003,,,,,,,2022-09-09,1,,,,,ハイテックプロワークス,0
669,3011403003767,新規,0,2022-09-09,2022-09-09,合同会社みかん,,合同会社,東京都,板橋区,徳丸１丁目２４番５号ゼフィール１０２,,13,119,1750083,,,,,,,2022-09-09,1,,,,,ミカン,0
674,3011503005283,新規,0,2022-09-09,2022-09-09,ＳＥＣ合同会社,,合同会社,東京都,北区,中十条３丁目３５－１桑沢ビル５Ｆ,,13,117,1140032,,,,,,,2022-09-09,1,,,,,エスイーシー,0
680,3011801041253,新規,0,2022-09-09,2022-09-09,株式会社ＴＯＰ,,株式会社,東京都,足立区,梅田４丁目３２番５号,,13,121,1230851,,,,,,,2022-09-09,1,,,,,トップ,0
681,3011801041261,新規,0,2022-09-09,2022-09-09,株式会社ＮＥＸＴ　ＲＥＡＤ,,株式会社,東京都,足立区,興野１丁目１６－１２,,13,121,1230844,,,,,,,2022-09-09,1,,,,,ネクストリード,0
682,3011803005256,新規,0,2022-09-09,2022-09-09,工夫ＪＡＰＡＮ合同会社,,合同会社,東京都,足立区,小台２丁目２番１６号,,13,121,1200046,,,,,,,2022-09-09,1,,,,,クフウジャパン,0
684,3012801021807,新規,0,2022-09-09,2022-09-09,友研株式会社,,株式会社,東京都,日野市,多摩平２丁目５番地の１クレヴィア豊田多摩平の森ＲＥＳＩＤＥＮＣＥ７２７,,13,212,1910062,,,,,,,2022-09-09,1,,,,,ユウケン,0
692,3020001148148,新規,0,2022-09-09,2022-09-09,株式会社メタキャリア,,株式会社,神奈川県,川崎市幸区,古市場１丁目２２番地１４エトワールドゥ２０１,,14,132,2120052,,,,,,,2022-09-09,1,,,,,メタキャリア,0
693,3020001148164,新規,0,2022-09-09,2022-09-09,株式会社Ｈ’Ｇｒｏｕｐ,,株式会社,神奈川県,川崎市多摩区,枡形６丁目３番６２－３０１号,,14,135,2140032,,,,,,,2022-09-09,1,,,,,エッチダッシュグループ,0
695,3020005015658,新規,0,2022-09-09,2022-09-09,西條社会保険労務士法人,,その他の設立登記法人,神奈川県,横浜市中区,元町４丁目１６８番地ビズサークル横浜元町４Ｆ－１７号室,,14,104,2310861,,,,,,,2022-09-09,1,,,,,ニシジョウ,0
708,3030001150029,新規,0,2022-09-09,2022-09-09,株式会社だるま,,株式会社,埼玉県,さいたま市桜区,大字上大久保８０３番地２－１０５,,11,106,3380824,,,,,,,2022-09-09,1,,,,,ダルマ,0
720,3040001125005,新規,0,2022-09-09,2022-09-09,株式会社熊谷住設,,株式会社,千葉県,旭市,西足洗３５２６番地１,,12,215,2892515,,,,,,,2022-09-09,1,,,,,クマガヤジュウセツ,0
721,3040001125013,新規,0,2022-09-09,2022-09-09,株式会社大晃,,株式会社,千葉県,白井市,大山口２丁目４番７棟４０６号,,12,232,2701434,,,,,,,2022-09-09,1,,,,,ダイコウ,0
724,3040003020542,新規,0,2022-09-09,2022-09-09,合同会社ｔａｒｉｕｓ,,合同会社,千葉県,市川市,行徳駅前４丁目２番１８号ＢＬＥＳＳ行徳２０３号室,,12,203,2720133,,,,,,,2022-09-09,1,,,,,タリウス,0
730,3050003006813,新規,0,2022-09-09,2022-09-09,合同会社好きだ,,合同会社,茨城県,龍ケ崎市,宮渕町７０２番地,,08,208,3010811,,,,,,,2022-09-09,1,,,,,スキダ,0
741,3080403004612,新規,0,2022-09-09,2022-09-09,合同会社リードセトル,,合同会社,静岡県,浜松市西区,志都呂２丁目８番１７号,,22,133,4328069,,,,,,,2022-09-09,1,,,,,リードセトル,0
745,3110001036946,新規,0,2022-09-09,2022-09-09,株式会社ジェムステックコンサルティング,,株式会社,新潟県,新潟市中央区,本町通７番町１１５３番地新潟本町ビル,,15,103,9518067,,,,,,,2022-09-09,1,,,,,ジェムステックコンサルティング,0
760,3120001248697,新規,0,2022-09-09,2022-09-09,株式会社クロノス,,株式会社,大阪府,大阪市中央区,瓦町２丁目６番１号,,27,128,5410048,,,,,,,2022-09-09,1,,,,,クロノス,0
764,3120003022423,新規,0,2022-09-09,2022-09-09,合同会社小西工務店,,合同会社,大阪府,守口市,金田町１丁目２３－１４,,27,209,5700011,,,,,,,2022-09-09,1,,,,,コニシコウムテン,0
781,3130001072543,新規,0,2022-09-09,2022-09-09,株式会社Ｃｏｉｌｅ,,株式会社,京都府,宇治市,南陵町２丁目１４番地４,,26,204,6110028,,,,,,,2022-09-09,1,,,,,コイル,0
786,3130003008165,新規,0,2022-09-09,2022-09-09,合同会社オリゼ,,合同会社,京都府,福知山市,北栄町７８の１番地,,26,201,6200000,,,,,,,2022-09-09,1,,,,,オリゼ,0
790,3140001127271,新規,0,2022-09-09,2022-09-09,株式会社ＫＩＤＥＲＡ,,株式会社,兵庫県,宝塚市,中山寺３丁目６番４１号,,28,214,6650861,,,,,,,2022-09-09,1,,,,,キデラ,0
796,3140003018097,新規,0,2022-09-09,2022-09-09,合同会社Ｂｅ　ｆｒｅｅ,,合同会社,兵庫県,神戸市中央区,下山手通５丁目１２番８－６０９,,28,110,6500011,,,,,,,2022-09-09,1,,,,,ビーフリー,0
798,3150001025813,新規,0,2022-09-09,2022-09-09,株式会社マルス,,株式会社,奈良県,御所市,７６６番地の１（２０２号）,,29,208,6392200,,,,,,,2022-09-09,1,,,,,マルス,0
805,3180001152943,新規,0,2022-09-09,2022-09-09,山皇工機株式会社,,株式会社,愛知県,知多市,にしの台２丁目１００番地の７にしの台ヒルズ８０５,,23,224,4780055,,,,,,,2022-09-09,1,,,,,サンコウコウキ,0
806,3180001152976,新規,0,2022-09-09,2022-09-09,株式会社Ａｒｋｓ,,株式会社,愛知県,海部郡蟹江町,富吉１丁目５７３番地,,23,425,4970058,,,,,,,2022-09-09,1,,,,,アークス,0
808,3180003024232,新規,0,2022-09-09,2022-09-09,合同会社マルワ,,合同会社,愛知県,名古屋市北区,尾上町１番地の２（尾上団地４棟４０５号）,,23,103,4620863,,,,,,,2022-09-09,1,,,,,マルワ,0
811,3180301036598,新規,0,2022-09-09,2022-09-09,株式会社ＳＯＲＴＥ,,株式会社,愛知県,豊橋市,神野新田町字中道東２３７番地３,,23,201,4418077,,,,,,,2022-09-09,1,,,,,ソルテ,0
812,3180301036607,新規,0,2022-09-09,2022-09-09,株式会社ヨネ工業,,株式会社,愛知県,豊川市,平尾町神田２３番地の１,,23,207,4420863,,,,,,,2022-09-09,1,,,,,ヨネコウギョウ,0
813,3180301036623,新規,0,2022-09-09,2022-09-09,株式会社Ａ＆Ｋ,,株式会社,愛知県,岡崎市,戸崎町字牛転１０番地９１,,23,202,4440840,,,,,,,2022-09-09,1,,,,,エーアンドケー,0
815,3180303005436,新規,0,2022-09-09,2022-09-09,Ｒｉｖｅｒ合同会社,,合同会社,愛知県,みよし市,天王台１１番地１,,23,236,4700211,,,,,,,2022-09-09,1,,,,,リバー,0
820,3200003005667,新規,0,2022-09-09,2022-09-09,Ｏｚ　Ｓｔｙｌｅ合同会社,,合同会社,岐阜県,恵那市,岩村町２０４６番地４４,,21,210,5097403,,,,,,,2022-09-09,1,,,,,オズスタイル,0
821,3210001019081,新規,0,2022-09-09,2022-09-09,株式会社ｅ‐ｓｍｉｌｅ,,株式会社,福井県,あわら市,大溝１丁目２５番１０号,,18,208,9190628,,,,,,,2022-09-09,1,,,,,イースマイル,0
823,3240001060363,新規,0,2022-09-09,2022-09-09,株式会社ＫＯＨ,,株式会社,広島県,広島市東区,牛田新町３丁目１９番３７－３０６号,,34,102,7320068,,,,,,,2022-09-09,1,,,,,ケーオーエイチ,0
825,3250001019763,新規,0,2022-09-09,2022-09-09,ＳＨＩＮ‐ＥＩ株式会社,,株式会社,山口県,宇部市,浜町２丁目５番１０号,,35,202,7550065,,,,,,,2022-09-09,1,,,,,シンエイ,0
826,3250003003146,新規,0,2022-09-09,2022-09-09,合同会社ゆうなん動物病院,,合同会社,山口県,熊毛郡田布施町,大字下田布施９８８番地１,,35,343,7421511,,,,,,,2022-09-09,1,,,,,ユウナンビョウイン,0
828,3260001037244,新規,0,2022-09-09,2022-09-09,株式会社スマートビレッジ,,株式会社,岡山県,岡山市南区,浦安西町１６番地５３,,33,104,7028025,,,,,,,2022-09-09,1,,,,,スマートビレッジ,0
831,3270005005527,新規,0,2022-09-09,2022-09-09,一般社団法人ａｎｉｍａｌ　ｐａｒｔｎｅｒ　ａｕｎ,,その他の設立登記法人,鳥取県,米子市,新開３丁目１番１５号,,31,202,6830801,,,,,,,2022-09-09,1,,,,,アニマルパートナーアウン,0
841,3320001019319,新規,0,2022-09-09,2022-09-09,株式会社グリーンテック,,株式会社,大分県,佐伯市,本匠大字笠掛１５７９番地１,,44,205,8760202,,,,,,,2022-09-09,1,,,,,グリーンテック,0
842,3320003003898,新規,0,2022-09-09,2022-09-09,合同会社ＹＭＧ,,合同会社,大分県,別府市,浜脇３丁目２番１０号,,44,202,8740947,,,,,,,2022-09-09,1,,,,,ワイエムジイ,0
844,3330001030101,新規,0,2022-09-09,2022-09-09,西田機工株式会社,,株式会社,熊本県,宇城市,小川町河江１１１４番地,,43,213,8690606,,,,,,,2022-09-09,1,,,,,ニシダキコウ,0
845,3330003009515,新規,0,2022-09-09,2022-09-09,ベルベット合同会社,,合同会社,熊本県,熊本市南区,島町５丁目４番１８号,,43,104,8614133,,,,,,,2022-09-09,1,,,,,ベルベット,0
849,3340001025026,新規,0,2022-09-09,2022-09-09,株式会社ドリーム２１,,株式会社,鹿児島県,鹿児島市,西田１丁目６番地１９リバーテラス中央１００２号,,46,201,8900046,,,,,,,2022-09-09,1,,,,,ドリームニジュウイチ,0
857,3360001030940,新規,0,2022-09-09,2022-09-09,ＭＡＧＩＣ　ＬＩＦＥ株式会社,,株式会社,沖縄県,沖縄市,越来３丁目１２－１２カレントＡ．Ｒ．Ｋ１０４号室,,47,211,9040001,,,,,,,2022-09-09,1,,,,,マジックライフ,0
859,3360003012292,新規,0,2022-09-09,2022-09-09,合同会社棚原配送サービス,,合同会社,沖縄県,那覇市,繁多川２丁目７番３号ファミリーアパート１０２,,47,201,9020071,,,,,,,2022-09-09,1,,,,,タナハラハイソウサービス,0
866,3380001033108,新規,0,2022-09-09,2022-09-09,株式会社鈴木総業ＨＤ,,株式会社,福島県,喜多方市,岩月町宮津字西ノ山７１２９番地,,07,208,9660002,,,,,,,2022-09-09,1,,,,,スズキソウギョウホールディングス,0
872,3410001013270,新規,0,2022-09-09,2022-09-09,株式会社おもてなしせんぼく,,株式会社,秋田県,仙北市,角館町西長野古米沢３０番地１９,,05,215,0140344,,,,,,秋田県仙北市角館町西長野古米沢３０番地１９株式会社花葉館（5410001008483）、秋田県仙北市西木町門屋字屋敷田８３番地２株式会社西木村総合公社（6410001008607）、秋田県仙北市角館町田町上丁１１番地１株式会社西宮家（8410001008563）及び秋田県仙北市田沢湖田沢字潟前７８番地株式会社アロマ田沢湖（5410001008450）の合併により設立,2022-09-09,1,,,,,オモテナシセンボク,0
879,3430001087420,新規,0,2022-09-09,2022-09-09,株式会社Ｓｎｏｗ　Ｆｏｒｅｓｔ,,株式会社,北海道,札幌市白石区,本通１丁目南２番３９号,,01,104,0030026,,,,,,,2022-09-09,1,,,,,スノーフォレスト,0
880,3430001087445,新規,0,2022-09-09,2022-09-09,株式会社やすなか,,株式会社,北海道,札幌市白石区,菊水元町一条１丁目４番２４号ルミエールＩ＆Ｉ－１０６号,00127794,01,104,0030821,,,,,,,2022-09-09,1,,,,,ヤスナカ,0
881,3430001087453,新規,0,2022-09-09,2022-09-09,株式会社住創プランニング,,株式会社,北海道,札幌市北区,屯田四条６丁目７番７号,,01,102,0020854,,,,,,,2022-09-09,1,,,,,ジュウソウプランニング,0
894,3700150111663,新規,0,2022-09-09,2022-09-09,ＢＶ　ＵＳＡ　ＥＮＴＥＲＰＲＩＳＥＳ．ＩＮＣ,,外国会社等,,,,,,,,１９５１　ＬＡＮＤＭＥＩＥＲ　ＲＤ，ＥＬＫ　ＧＲＯＶＥ　ＶＩＬＬＡＧＥ，ＩＬ，ＵＳＡ,,,,,,2022-09-09,1,,,,,ビーヴイユーエスエーエンタープライジズインク,0
904,4010001229352,新規,0,2022-09-09,2022-09-09,株式会社フューチャーコレクト,,株式会社,東京都,中央区,銀座４丁目１３番１５号銀座近富ビル２Ｆ,,13,102,1040061,,,,,,,2022-09-09,1,,,,,フューチャーコレクト,0
905,4010001229360,新規,0,2022-09-09,2022-09-09,株式会社栄華,,株式会社,東京都,文京区,本駒込２丁目２８番１０号文京グリーンコートイーストウィング,,13,105,1130021,,,,,,,2022-09-09,1,,,,,,0
906,4010001229385,新規,0,2022-09-09,2022-09-09,株式会社Ｍバランス,,株式会社,東京都,中央区,銀座１丁目２２番１１号銀座大竹ビジデンス２階,,13,102,1040061,,,,,,,2022-09-09,1,,,,,エムバランス,0
907,4010001229410,新規,0,2022-09-09,2022-09-09,株式会社アスターファスト,,株式会社,東京都,中央区,日本橋堀留町２丁目９番８号,,13,102,1030012,,,,,,,2022-09-09,1,,,,,アスターファスト,0
911,4010003038628,新規,0,2022-09-09,2022-09-09,合同会社アサヒ飯塚,00127801,合同会社,東京都,千代田区,内神田２丁目２番６号５階あすな会計事務所内,,13,101,1010047,,,,,,,2022-09-09,1,,,,,アサヒイイヅカ,0
914,4010005035540,新規,0,2022-09-09,2022-09-09,医療法人社団海生会,,その他の設立登記法人,東京都,中央区,日本橋久松町１０番８号フィルパーク日本橋久松町２階,,13,102,1030005,,,,,,,2022-09-09,1,,,,,カイセイカイ,0
923,4010401169520,新規,0,2022-09-09,2022-09-09,株式会社ｍｙ＆ｂｅｅ,,株式会社,東京都,港区,芝３丁目６－５ＫＳ芝公園ビルＩＩ４Ｆ,00127802,13,103,1050014,,,,,,,2022-09-09,1,,,,,マイアンドビー,0
924,4010401169578,新規,0,2022-09-09,2022-09-09,株式会社鴨井建築設計事務所,,株式会社,東京都,港区,港南４丁目７番５５－６０９号,,13,103,1080075,,,,,,,2022-09-09,1,,,,,カモイケンチクセッケイジムショ,0
925,4010401169636,新規,0,2022-09-09,2022-09-09,ハニーダイニング株式会社,,株式会社,東京都,港区,南青山３丁目１番３６号青山丸竹ビル６Ｆ,,13,103,1070062,,,,,,,2022-09-09,1,,,,,ハニーダイニング,0
929,4010403028435,新規,0,2022-09-09,2022-09-09,合同会社ショップ・パティコ,,合同会社,東京都,港区,南青山２丁目２番１５号,,13,103,1070062,,,,,,,2022-09-09,1,,,,,ショップパティコ,0
930,4010403028484,新規,0,2022-09-09,2022-09-09,合同会社ＰＲＡＹ　ＦＯＲ　ＢＩＲＤＩＥ,,合同会社,東京都,港区,南青山２丁目２番１５号ＷｉｎＡｏｙａｍａビルＵＣＦ６３５,,13,103,1070062,,,,,,,2022-09-09,1,,,,,プレイフォーバーディ,0
934,4010405021322,新規,0,2022-09-09,2022-09-09,特定非営利活動法人Ｓｃｈｏｏｌ　Ｖｏｉｃｅ　Ｐｒｏｊｅｃｔ,,その他の設立登記法人,東京都,港区,浜松町２丁目２番１５号浜松町ダイヤビル２Ｆ,,13,103,1050013,,,,,,,2022-09-09,1,,,,,スクールボイスプロジェクト,0
937,4010501049341,新規,0,2022-09-09,2022-09-09,株式会社トリガートレンド,,株式会社,東京都,台東区,蔵前３丁目１３－１２蔵前ハイム２０４,,13,106,1110051,,,,,,,2022-09-09,1,,,,,トリガートレンド,0
938,4010601061832,新規,0,2022-09-09,2022-09-09,株式会社ニューパック２,,株式会社,東京都,墨田区,立花２丁目２６番１号,,13,107,1310043,,,,,,,2022-09-09,1,,,,,ニューパックツー,0
951,4011001148823,新規,0,2022-09-09,2022-09-09,株式会社ｎｅｏ　ｐｏｓｓｉｂｉｌｉｔｙ,,株式会社,東京都,渋谷区,神宮前６丁目２３－４桑野ビル２Ｆ,,13,113,1500001,,,,,,,2022-09-09,1,,,,,ネオポッシビリティ,0
952,4011001149689,新規,0,2022-09-09,2022-09-09,株式会社ＳｔｕｄｉｏＩＮＵ,,株式会社,東京都,渋谷区,道玄坂１丁目１０番８号渋谷道玄坂東急ビル２Ｆ－Ｃ,,13,113,1500043,,,,,,,2022-09-09,1,,,,,スタジオアイエヌユー,0
965,4011101100106,新規,0,2022-09-09,2022-09-09,株式会社Ａｎｉｍｅｄｉａ　ＩＰ　ｈｏｌｄｉｎｇｓ,,株式会社,東京都,新宿区,下落合１丁目２番５号,,13,104,1610033,,,,,,,2022-09-09,1,,,,,アニメディアアイピーホールディングス,0
966,4011101100114,新規,0,2022-09-09,2022-09-09,株式会社プロスポート,,株式会社,東京都,新宿区,新宿４丁目３番１５号,,13,104,1600022,,,,,,,2022-09-09,1,,,,,プロスポート,0
970,4011201024097,新規,0,2022-09-09,2022-09-09,株式会社ＳＡＥＮＣＨＡＩ,,株式会社,東京都,中野区,新井１丁目６－１松花ビル２０１,,13,114,1650026,,,,,,,2022-09-09,1,,,,,センチャイ,0
971,4011203003909,新規,0,2022-09-09,2022-09-09,合同会社プラグマ,,合同会社,東京都,中野区,中野５丁目６７番７－１０３号,,13,114,1640001,,,,,,,2022-09-09,1,,,,,プラグマ,0
973,4011301028089,新規,0,2022-09-09,2022-09-09,株式会社ＭＩＲＡＩＡＳ,,株式会社,東京都,杉並区,西荻北２丁目１１番７号浅野ビル２階,,13,115,1670042,,,,,,,2022-09-09,1,,,,,ミライアス,0
974,4011301028097,新規,0,2022-09-09,2022-09-09,株式会社ＭＯＧＩ,,株式会社,東京都,杉並区,高円寺南３丁目４５番１２号ＫＭ２８,,13,115,1660003,,,,,,,2022-09-09,1,,,,,モギ,0
983,4011801041252,新規,0,2022-09-09,2022-09-09,株式会社ホームフラット,,株式会社,東京都,葛飾区,亀有３丁目１１番７号小松ビル４階,,13,122,1250061,,,,,,,2022-09-09,1,,,,,ホームフラット,0
984,4011803005255,新規,0,2022-09-09,2022-09-09,合同会社藤谷,,合同会社,東京都,足立区,中川１丁目４番２２号,,13,121,1200002,,,,,,,2022-09-09,1,,,,,フジタニ,0
985,4012301013114,新規,0,2022-09-09,2022-09-09,株式会社アシスト,,株式会社,東京都,町田市,旭町３丁目８－２４－１０１,,13,209,1940023,,,,,,,2022-09-09,1,,,,,アシスト,0
987,4012403005579,新規,0,2022-09-09,2022-09-09,Ａ．Ｍ．Ｌｉｆｅ合同会社,,合同会社,東京都,武蔵野市,吉祥寺本町３丁目２１番６号ハウス吉祥寺Ａ館２０２,,13,203,1800004,,,,,,,2022-09-09,1,,,,,エイエムライフ,0
988,4012405004785,新規,0,2022-09-09,2022-09-09,医療法人社団文蒼会,,その他の設立登記法人,東京都,調布市,仙川町１丁目１５番地４７ひなたビル１階,,13,208,1820002,,,,,,,2022-09-09,1,,,,,ブンソウカイ,0
993,4013103001166,新規,0,2022-09-09,2022-09-09,合同会社二星,,合同会社,東京都,あきる野市,草花３６７０番地４６７,,13,228,1970802,,,,,,,2022-09-09,1,,,,,ニボシ,0
1000,4020001148114,新規,0,2022-09-09,2022-09-09,株式会社ＬＯＷＥ,,株式会社,神奈川県,横浜市西区,みなとみらい４丁目９番２号,,14,103,2200012,,,,,,,2022-09-09,1,,,,,ルーヴェ,0
1001,4020001148122,新規,0,2022-09-09,2022-09-09,株式会社Ｎｅｏｒｉｇｉｎ,,株式会社,神奈川県,横浜市中区,桜木町１丁目１０１番地１クロスゲート７階,,14,104,2310062,,,,,,,2022-09-09,1,,,,,ネオリジン,0
1002,4020001148147,新規,0,2022-09-09,2022-09-09,仁和住販株式会社,,株式会社,神奈川県,横浜市青葉区,美しが丘４丁目６番地３,,14,117,2250002,,,,,,,2022-09-09,1,,,,,ジンワジュウハン,0
1005,4020005015649,新規,0,2022-09-09,2022-09-09,一般社団法人スマイルゲート,,その他の設立登記法人,神奈川県,横浜市青葉区,青葉台２丁目８－３３－１０１,,14,117,2270062,,,,,,,2022-09-09,1,,,,,スマイルゲート,0
1007,4021001076965,新規,0,2022-09-09,2022-09-09,株式会社照氣,,株式会社,神奈川県,小田原市,堀之内３６８番地の４,,14,206,2500853,,,,,,,2022-09-09,1,,,,,テンキ,0
1018,4030003020138,新規,0,2022-09-09,2022-09-09,合同会社トモマサ国際人材サポート,,合同会社,埼玉県,さいたま市岩槻区,大字黒谷２２６７番地１,,11,110,3390033,,,,,,,2022-09-09,1,,,,,トモマサコクサイジンザイサポート,0
1031,4040003020797,新規,0,2022-09-09,2022-09-09,ＬＯＶＥ　ＢＩＲＤＳ合同会社,,合同会社,千葉県,匝瑳市,内山１１７番,,12,235,2892171,,,,,,,2022-09-09,1,,,,,ラブバード,0
1036,4050005013138,新規,0,2022-09-09,2022-09-09,医療法人崇輝会,,その他の設立登記法人,茨城県,結城市,下り松４丁目１１番地３,,08,207,3070008,,,,,,,2022-09-09,1,,,,,ソウキカイ,0
1043,4090001017774,新規,0,2022-09-09,2022-09-09,株式会社Ｌ‐Ｓｔｙｌｅ,,株式会社,山梨県,笛吹市,石和町井戸１４０番地５,,19,211,4060045,,,,,,,2022-09-09,1,,,,,エルスタイル,0
1059,4120003022414,新規,0,2022-09-09,2022-09-09,合同会社高瀬川,,合同会社,大阪府,大阪市中央区,宗右衛門町２番１３号,,27,128,5420084,,,,,,,2022-09-09,1,,,,,タカセガワ,0
1060,4120003022422,新規,0,2022-09-09,2022-09-09,合同会社トラスト,,合同会社,大阪府,大阪市住吉区,南住吉４丁目１５番１７号住吉グリーンビル２０１号,,27,120,5580041,,,,,,,2022-09-09,1,,,,,トラスト,0
1061,4120003022430,新規,0,2022-09-09,2022-09-09,ＶＯＩＣＥ美ｓｔｕｄｉｏ合同会社,,合同会社,大阪府,大阪市西区,江之子島１丁目７－３奥内阿波座駅前ビル１４１１号,,27,106,5500006,,,,,,,2022-09-09,1,,,,,ボイスミスタジオ,0
1085,4140001127304,新規,0,2022-09-09,2022-09-09,株式会社ワイエス,,株式会社,兵庫県,美方郡新温泉町,浜坂９３８番地７,,28,586,6696702,,,,,,,2022-09-09,1,,,,,ワイエス,0
1087,4140003018096,新規,0,2022-09-09,2022-09-09,合同会社ＭＣＯＲ,,合同会社,兵庫県,神戸市長田区,東尻池町６丁目４番４号,,28,106,6530022,,,,,,,2022-09-09,1,,,,,エムシーオーアール,0
1095,4180001152975,新規,0,2022-09-09,2022-09-09,株式会社Ｉ４Ｕ,,株式会社,愛知県,名古屋市西区,則武新町２丁目１１－５８－１００４,,23,104,4510051,,,,,,,2022-09-09,1,,,,,アイフォーユー,0
1096,4180003024231,新規,0,2022-09-09,2022-09-09,合同会社ＨＡＴモデリング,,合同会社,愛知県,名古屋市守山区,八反１０番３８号,,23,113,4630063,,,,,,,2022-09-09,1,,,,,ハットモデリング,0
1098,4180301036589,新規,0,2022-09-09,2022-09-09,株式会社山口デンタル・らぼ,,株式会社,愛知県,豊橋市,天伯町字天伯１９３番地,,23,201,4418122,,,,,,,2022-09-09,1,,,,,ヤマグチデンタルラボ,0
1099,4180301036597,新規,0,2022-09-09,2022-09-09,ビンタン株式会社,,株式会社,愛知県,刈谷市,新栄町６丁目２０４番地,,23,210,4480843,,,,,,,2022-09-09,1,,,,,ビンタン,0
1100,4180301036606,新規,0,2022-09-09,2022-09-09,シュウ・シュウＨＤ株式会社,,株式会社,愛知県,安城市,緑町２丁目１８番地１３,,23,212,4460055,,,,,,,2022-09-09,1,,,,,シュウシュウエイチディー,0
1102,4180305009384,新規,0,2022-09-09,2022-09-09,農事組合法人陽耕,,その他の設立登記法人,愛知県,豊田市,上原町上河原８番地１,,23,211,4700341,,,,,,,2022-09-09,1,,,,,ヨウコウ,0
1107,4200003005666,新規,0,2022-09-09,2022-09-09,ローズガーデン合同会社,,合同会社,岐阜県,安八郡輪之内町,大薮６６７番地,,21,382,5030200,,,,,,,2022-09-09,1,,,,,ローズガーデン,0
1112,4240001060362,新規,0,2022-09-09,2022-09-09,株式会社アームズ,,株式会社,広島県,広島市安佐南区,相田６丁目１９番３０号,,34,105,7310141,,,,,,,2022-09-09,1,,,,,アームズ,0
1114,4240003005794,新規,0,2022-09-09,2022-09-09,愛鏡合同会社,,合同会社,広島県,広島市安佐北区,落合南４丁目１番９－７１４号,,34,106,7391732,,,,,,,2022-09-09,1,,,,,アイキョウ,0
1118,4250001019762,新規,0,2022-09-09,2022-09-09,株式会社アットクリーン,,株式会社,山口県,山口市,小郡下郷２５番地６,,35,203,7540002,,,,,,,2022-09-09,1,,,,,アットクリーン,0
1122,4260001037243,新規,0,2022-09-09,2022-09-09,株式会社Ｇｒｏｗｖｅｌｙ,,株式会社,岡山県,岡山市北区,伊福町４丁目４番３１号２０１,,33,101,7000013,,,,,,,2022-09-09,1,,,,,グローベリー,0
1127,4290001098803,新規,0,2022-09-09,2022-09-09,株式会社Ｗｉｈｉａ,,株式会社,福岡県,飯塚市,相田１１３０番地１,,40,205,8200052,,,,,,,2022-09-09,1,,,,,ウィヒア,0
1128,4290001098869,新規,0,2022-09-09,2022-09-09,株式会社ヘリコプタークルージング,,株式会社,福岡県,福岡市早良区,西新７丁目２番１３号,,40,137,8140002,,,,,,,2022-09-09,1,,,,,ヘリコプタークルージング,0
1130,4290003012919,新規,0,2022-09-09,2022-09-09,合同会社イコノス,,合同会社,福岡県,筑紫野市,大字俗明院１５８番地,,40,217,8180067,,,,,,,2022-09-09,1,,,,,イコノス,0
1131,4290003012935,新規,0,2022-09-09,2022-09-09,合同会社Ｓｕｎｌｉｇｈｔ,,合同会社,福岡県,福岡市中央区,赤坂１丁目１番５号４階,,40,133,8100042,,,,,,,2022-09-09,1,,,,,サンライト,0
1133,4300001013066,新規,0,2022-09-09,2022-09-09,株式会社オカモト産業,,株式会社,佐賀県,佐賀市,木原１丁目１２番３号,,41,201,8400015,,,,,,,2022-09-09,1,,,,,オカモトサンギョウ,0
1156,4420003002575,新規,0,2022-09-09,2022-09-09,合同会社だいち,,合同会社,青森県,平川市,碇ヶ関樋ノ口２４番地１,,02,210,0380101,,,,,,,2022-09-09,1,,,,,ダイチ,0
1163,4430001087436,新規,0,2022-09-09,2022-09-09,株式会社中山塗装,,株式会社,北海道,岩見沢市,緑町２丁目１８２番地５,,01,210,0680046,,,,,,,2022-09-09,1,,,,,ナカヤマトソウ,0
1164,4430001087452,新規,0,2022-09-09,2022-09-09,株式会社ＴＡＯ,,株式会社,北海道,札幌市白石区,栄通２１丁目１５番１号,,01,104,0030021,,,,,,,2022-09-09,1,,,,,タオ,0
1165,4430001087460,新規,0,2022-09-09,2022-09-09,株式会社片山工業,,株式会社,北海道,札幌市東区,東苗穂五条３丁目７番３０－９０５号,,01,103,0070805,,,,,,,2022-09-09,1,,,,,カタヤマコウギョウ,0
1171,4430003014256,新規,0,2022-09-09,2022-09-09,合同会社佐藤総業,,合同会社,北海道,札幌市白石区,北郷一条３丁目３番１７号北郷１－３ＡＰ－１０１号,,01,104,0030831,,,,,,,2022-09-09,1,,,,,サトウソウギョウ,0
1172,4460001003217,新規,0,2022-09-09,2022-09-09,株式会社寺島薬局,,株式会社,北海道,川上郡標茶町,字熊牛原野十六線西３番地,,01,664,0883145,,,,,,,2022-09-09,1,,,,,テラシマヤッキョク,0
1174,4460003000914,新規,0,2022-09-09,2022-09-09,合同会社赤藤,,合同会社,北海道,釧路市,材木町７番１０号,,01,206,0850815,,,,,,,2022-09-09,1,,,,,アカフジ,0
1177,4470001019253,新規,0,2022-09-09,2022-09-09,株式会社Ａ‐Ｃｏｎｎｅｃｔｉｏｎｓ,,株式会社,香川県,綾歌郡宇多津町,浜九番丁１４４番地６,,37,386,7690209,,,,,,,2022-09-09,1,,,,,エーコネクションズ,0
1178,4470003002249,新規,0,2022-09-09,2022-09-09,合同会社メープルクリーン,,合同会社,香川県,高松市,東山崎町１１７４番地１,,37,201,7610312,,,,,,,2022-09-09,1,,,,,メープルクリーン,0
1184,4700150111662,新規,0,2022-09-09,2022-09-09,ＷＨＡＬＥ　ＬＯＴＵＳ　ＳＨＩＰＰＩＮＧ　Ｓ．Ａ．,,外国会社等,愛媛県,八幡浜市,広瀬２丁目１－４０八幡浜汽船有限会社　内,,38,204,7968002,８０　Ｂｒｏａｄ　Ｓｔｒｅｅｔ，Ｍｏｎｒｏｖｉａ，Ｌｉｂｅｒｉａ,,,,,,2022-09-09,1,,,,,ホエールロータスシツピングエスエー,0
1188,5010001228238,新規,0,2022-09-09,2022-09-09,イーガチャ株式会社,,株式会社,東京都,中央区,新富２丁目４番５号１ＦｅｌｉｓＡｓｉｌｅ１００１,,13,102,1040041,,,,,,,2022-09-09,1,,,,,イーガチャ,0
1189,5010001229343,新規,0,2022-09-09,2022-09-09,ＬＯＴＵＳ　ＧＲＥＥＮ株式会社,,株式会社,東京都,千代田区,平河町１丁目６番７号平河町ホームズ５０４,,13,101,1020093,,,,,,,2022-09-09,1,,,,,ロータスグリーン,0
1190,5010001229368,新規,0,2022-09-09,2022-09-09,医師リク株式会社,,株式会社,東京都,中央区,銀座５丁目１５番１号南海東京ビルディング地下１階,,13,102,1040061,,,,,,,2022-09-09,1,,,,,,0
1191,5010001229384,新規,0,2022-09-09,2022-09-09,株式会社Ｓｉｇｒｏｎ,,株式会社,東京都,千代田区,神田須田町２丁目２３－１,,13,101,1010041,,,,,,,2022-09-09,1,,,,,,0
1192,5010001229434,新規,0,2022-09-09,2022-09-09,Ｏｎｅｔ　Ｔｅｃｈｎｏｌｏｇｉｅｓ株式会社,,株式会社,東京都,中央区,日本橋本町２丁目２－２日本橋本町ＹＳビル在日フランス商工会議所内,,13,102,1030023,,,,,,,2022-09-09,1,,,,,,0
1202,5010401169585,新規,0,2022-09-09,2022-09-09,株式会社シラスデベロップメント,,株式会社,東京都,港区,南青山２丁目２番１５号,,13,103,1070062,,,,,,,2022-09-09,1,,,,,シラスデベロップメント,0
1203,5010401169635,新規,0,2022-09-09,2022-09-09,ＳＩＤＥＫＩＣＫ株式会社,,株式会社,東京都,港区,六本木７丁目２番２９号,,13,103,1060032,,,,,,,2022-09-09,1,,,,,サイドキック,0
1216,5010603009713,新規,0,2022-09-09,2022-09-09,ＤＥＳＩＲＥ合同会社,,合同会社,東京都,墨田区,亀沢２丁目１９番１１号,,13,107,1300014,,,,,,,2022-09-09,1,,,,,ディザイアー,0
1217,5010603009721,新規,0,2022-09-09,2022-09-09,合同会社ｐｌｏｕｇｈ,,合同会社,東京都,墨田区,京島２丁目８－５ＢＡＮＧ１０５,,13,107,1310046,,,,,,,2022-09-09,1,,,,,プラウ,0
1219,5010701043184,新規,0,2022-09-09,2022-09-09,株式会社ヘルスインテクト,,株式会社,東京都,品川区,西五反田８丁目１１番１５－１４０５号,,13,109,1410031,,,,,,,2022-09-09,1,,,,,ヘルスインテクト,0
1220,5010703006379,新規,0,2022-09-09,2022-09-09,合同会社ストラテジ,,合同会社,東京都,品川区,西五反田２丁目１０番８号,,13,109,1410031,,,,,,,2022-09-09,1,,,,,ストラテジ,0
1231,5010903007631,新規,0,2022-09-09,2022-09-09,合同会社コエシード,,合同会社,東京都,世田谷区,下馬２丁目８番１６号,,13,112,1540002,,,,,,,2022-09-09,1,,,,,コエシード,0
1241,5011001149688,新規,0,2022-09-09,2022-09-09,アリマク株式会社,,株式会社,東京都,渋谷区,恵比寿１丁目２６番１３号,,13,113,1500013,,,,,,,2022-09-09,1,,,,,アリマク,0
1242,5011001149705,新規,0,2022-09-09,2022-09-09,ＭＩＡ株式会社,,株式会社,東京都,目黒区,駒場４丁目５番１０号,,13,110,1530041,,,,,,,2022-09-09,1,,,,,ミア,0
1247,5011105010390,新規,0,2022-09-09,2022-09-09,医療法人社団Ｂｌｏｏｍｉｎｇ,,その他の設立登記法人,東京都,新宿区,高田馬場３丁目３番３号ＮＩＡビル４階４０１号室,,13,104,1690075,,,,,,,2022-09-09,1,,,,,ブルーミング,0
1250,5011201024096,新規,0,2022-09-09,2022-09-09,株式会社ボスコンサルティング,,株式会社,東京都,中野区,中野３丁目１２番６号,,13,114,1640001,,,,,,,2022-09-09,1,,,,,ボスコンサルティング,0
1255,5011303004517,新規,0,2022-09-09,2022-09-09,Ｔｒｕｓａｆｅ　Ｔｒａｎｓｐｏｒｔ　Ｓｅｒｖｉｃｅ合同会社,,合同会社,東京都,杉並区,成田東１丁目２６番９号,,13,115,1660015,,,,,,,2022-09-09,1,,,,,トラセフトランスポートサービス,0
1258,5011403003765,新規,0,2022-09-09,2022-09-09,ＴＫ　Ｌａｎｄ　Ｄｏｏｒ合同会社,,合同会社,東京都,板橋区,蓮根２丁目１６番１６－５０３号,,13,119,1740046,,,,,,,2022-09-09,1,,,,,ティケイランドドア,0
1259,5011503005281,新規,0,2022-09-09,2022-09-09,ＡＳＫ　ｅｄｕｃａｔｉｏｎ合同会社,,合同会社,東京都,北区,赤羽北２丁目８番地１アクトピア北赤羽五番館１１０,,13,117,1150052,,,,,,,2022-09-09,1,,,,,アスクエデュケーション,0
1262,5011803005254,新規,0,2022-09-09,2022-09-09,合同会社日本プラスアルファ,,合同会社,東京都,足立区,南花畑１丁目１７番１４号,,13,121,1210062,,,,,,,2022-09-09,1,,,,,ニホンプラスアルファ,0
1279,5020001148146,新規,0,2022-09-09,2022-09-09,株式会社ぴよたんの癒しの森,,株式会社,神奈川県,横浜市戸塚区,上矢部町４７番地３,,14,110,2450053,,,,,,,2022-09-09,1,,,,,ピヨタンノイヤシノモリ,0
1280,5020001148170,新規,0,2022-09-09,2022-09-09,株式会社友,,株式会社,神奈川県,川崎市宮前区,西野川２丁目１－４３,,14,136,2160044,,,,,,,2022-09-09,1,,,,,ユウ,0
1285,5020003022381,新規,0,2022-09-09,2022-09-09,ヒロ安全施工管理合同会社,,合同会社,神奈川県,川崎市宮前区,宮崎１丁目１３－１６宮崎台サニーハイツ３０２号,,14,136,2160033,,,,,,,2022-09-09,1,,,,,ヒロアンゼンセコウカンリ,0
1286,5020005015648,新規,0,2022-09-09,2022-09-09,一般社団法人日本ディスポーザー協会,,その他の設立登記法人,神奈川県,横浜市中区,豆口台１５６番地２,,14,104,2310838,,,,,,,2022-09-09,1,,,,,ニホンディスポーザーキョウカイ,0
1295,5021003012125,新規,0,2022-09-09,2022-09-09,合同会社中央商事,,合同会社,神奈川県,平塚市,上吉沢１５１７番地１,,14,203,2591204,,,,,,,2022-09-09,1,,,,,チュウオウショウジ,0
1305,5030001150027,新規,0,2022-09-09,2022-09-09,株式会社ＢＡＮＯ　ＴＲＡＤＩＮＧ,,株式会社,埼玉県,熊谷市,佐谷田３２４７番地２,,11,202,3600023,,,,,,,2022-09-09,1,,,,,バノトレーディング,0
1306,5030001150035,新規,0,2022-09-09,2022-09-09,片平内装株式会社,,株式会社,埼玉県,北足立郡伊奈町,本町１丁目２４７番地,,11,301,3620804,,,,,,,2022-09-09,1,,,,,カタヒラナイソウ,0
1313,5030003020062,新規,0,2022-09-09,2022-09-09,大和合同会社,,合同会社,埼玉県,桶川市,大字上日出谷８３３－１コーポサンライズＢ－１０１号室,,11,231,3630026,,,,,,,2022-09-09,1,,,,,ヤマト,0
1321,5040001125028,新規,0,2022-09-09,2022-09-09,株式会社針金商事,,株式会社,千葉県,千葉市美浜区,中瀬１丁目６番地エム・ベイポイント幕張７階,,12,106,2610023,,,,,,,2022-09-09,1,,,,,ハリガネショウジ,0
1324,5040003020788,新規,0,2022-09-09,2022-09-09,合同会社ＮＩＫＫＥＮ,,合同会社,千葉県,松戸市,幸谷６１４番地の１３,,12,207,2700017,,,,,,,2022-09-09,1,,,,,ニッケン,0
1327,5050001051660,新規,0,2022-09-09,2022-09-09,株式会社ＵＳモーターズ,,株式会社,茨城県,坂東市,岩井４０２８番地１,,08,228,3060631,,,,,,,2022-09-09,1,,,,,ユーエスモーターズ,0
1347,5110003004858,新規,0,2022-09-09,2022-09-09,浦山技工合同会社,,合同会社,新潟県,新潟市西区,浦山４丁目４番２０号,,15,107,9502001,,,,,,,2022-09-09,1,,,,,ウラヤマギコウ,0
1356,5120001248737,新規,0,2022-09-09,2022-09-09,株式会社ＮＯＯＳＡ,,株式会社,大阪府,大阪市東成区,大今里南４丁目６番１１号,,27,115,5370013,,,,,,,2022-09-09,1,,,,,ヌーサ,0
1357,5120001248745,新規,0,2022-09-09,2022-09-09,株式会社Ｍ．Ｒ．Ｓ,,株式会社,大阪府,大阪市西区,北堀江１丁目１９番８号,,27,106,5500014,,,,,,,2022-09-09,1,,,,,エムアールエス,0
1358,5120001248753,新規,0,2022-09-09,2022-09-09,ＨｉｇｈＢｒｉｄｇｅ株式会社,,株式会社,大阪府,大阪市都島区,内代町１丁目１２番１６号ベストレジデンス都島３０２号,,27,102,5340013,,,,,,,2022-09-09,1,,,,,ハイブリッジ,0
1368,5120903004304,新規,0,2022-09-09,2022-09-09,ＨＭＧ　ＣＡＰＩＴＡＬ合同会社,,合同会社,大阪府,摂津市,鳥飼西２丁目９－３３,,27,224,5660072,,,,,,,2022-09-09,1,,,,,エイチエムジーキャピタル,0
1369,5122001036221,新規,0,2022-09-09,2022-09-09,ホルベインラボ株式会社,,株式会社,大阪府,東大阪市,横小路町４丁目１０番５２号,,27,227,5798063,,,,,,,2022-09-09,1,,,,,ホルベインラボ,0
1374,5130001072558,新規,0,2022-09-09,2022-09-09,株式会社日本テーブルスタイリスト協会,,株式会社,京都府,京都市左京区,黒谷町３０番地２,,26,103,6068331,,,,,,,2022-09-09,1,,,,,ニホンテーブルスタイリストキョウカイ,0
1375,5130001072574,新規,0,2022-09-09,2022-09-09,アルコ・ノルディック株式会社,,株式会社,京都府,京都市東山区,祇園町南側５７０番地１２３,,26,105,6050074,,,,,,,2022-09-09,1,,,,,アルコノルディック,0
1380,5130003008163,新規,0,2022-09-09,2022-09-09,合同会社瀧工務店,,合同会社,京都府,京都市右京区,龍安寺山田町８番地,,26,108,6168007,,,,,,,2022-09-09,1,,,,,タキコウムテン,0
1388,5140001127286,新規,0,2022-09-09,2022-09-09,リライアンス株式会社,,株式会社,兵庫県,西宮市,甲東園１丁目１番６号,,28,204,6620812,,,,,,,2022-09-09,1,,,,,リライアンス,0
1389,5140001127303,新規,0,2022-09-09,2022-09-09,ブライト・チルドレンズ・プロダクツ・インターナショナル・ジャパン株式会社,,株式会社,兵庫県,明石市,大久保町西脇７９０番地の２０２,,28,203,6740054,,,,,,,2022-09-09,1,,,,,ブライトチルドレンズプロダクツインターナショナルジャパン,0
1390,5140001127311,新規,0,2022-09-09,2022-09-09,株式会社光家,,株式会社,兵庫県,姫路市,勝原区下太田３２６番地５,,28,201,6711201,,,,,,,2022-09-09,1,,,,,ヒカリエ,0
1391,5140001127328,新規,0,2022-09-09,2022-09-09,株式会社ＮＪＫ,,株式会社,兵庫県,西宮市,甲子園口北町６番６－３０１号,,28,204,6638112,,,,,,,2022-09-09,1,,,,,エヌジェイケイ,0
1396,5140003018112,新規,0,2022-09-09,2022-09-09,合同会社ぽよぽよ,,合同会社,兵庫県,神戸市灘区,福住通４丁目５－９コートハウスＩＴＯ１Ｆ,,28,102,6570824,,,,,,,2022-09-09,1,,,,,ポヨポヨ,0
1397,5150001025811,新規,0,2022-09-09,2022-09-09,恵比寿建設株式会社,,株式会社,奈良県,大和郡山市,池沢町３３７番地３１,,29,203,6391032,,,,,,,2022-09-09,1,,,,,エビスケンセツ,0
1405,5180301036588,新規,0,2022-09-09,2022-09-09,株式会社大島商会,,株式会社,愛知県,豊橋市,花田町字越水１６２番地１,,23,201,4418019,,,,,,,2022-09-09,1,,,,,オオシマショウカイ,0
1406,5180301036613,新規,0,2022-09-09,2022-09-09,株式会社ＨｅｒｅＮｏｗ,,株式会社,愛知県,岡崎市,宇頭町字小薮８５－１、２Ｆ,,23,202,4440905,,,,,,,2022-09-09,1,,,,,ヒアナウ,0
1407,5180303005434,新規,0,2022-09-09,2022-09-09,ソマーナ合同会社,,合同会社,愛知県,豊橋市,牟呂水神町５番地１４,,23,201,4418091,,,,,,,2022-09-09,1,,,,,ソマーナ,0
1408,5190005011738,新規,0,2022-09-09,2022-09-09,一般社団法人松阪肉肉肉協会,,その他の設立登記法人,三重県,松阪市,高町２２０番地４,,24,204,5150011,,,,,,,2022-09-09,1,,,,,マツサカニクニクニクキョウカイ,0
1409,5200001040441,新規,0,2022-09-09,2022-09-09,株式会社ブライト,,株式会社,岐阜県,瑞穂市,穂積６１１番地１,,21,216,5010223,,,,,,,2022-09-09,1,,,,,ブライト,0
1417,5250001019761,新規,0,2022-09-09,2022-09-09,株式会社森田電気,,株式会社,山口県,下関市,川中本町１丁目１番１２号,,35,201,7510859,,,,,,,2022-09-09,1,,,,,モリタデンキ,0
1418,5260001037242,新規,0,2022-09-09,2022-09-09,株式会社ブラン,,株式会社,岡山県,総社市,井手２３３番地１,,33,208,7191125,,,,,,,2022-09-09,1,,,,,ブラン,0
1419,5270003001443,新規,0,2022-09-09,2022-09-09,合同会社たくん堂,,合同会社,鳥取県,米子市,福市５９９番地８,,31,202,6830011,,,,,,,2022-09-09,1,,,,,タクンドウ,0
1427,5290001098810,新規,0,2022-09-09,2022-09-09,株式会社サンノマル,,株式会社,福岡県,福岡市東区,香椎駅前２丁目１５番５０号２階,,40,131,8130013,,,,,,,2022-09-09,1,,,,,サンノマル,0
1428,5290001098868,新規,0,2022-09-09,2022-09-09,宝興株式会社,,株式会社,福岡県,福岡市東区,奈多１丁目１－１５,,40,131,8110204,,,,,,,2022-09-09,1,,,,,ホウコウ,0
1429,5290001098876,新規,0,2022-09-09,2022-09-09,株式会社吉浦インテリア,,株式会社,福岡県,那珂川市,片縄５丁目１３８番地,,40,231,8111201,,,,,,,2022-09-09,1,,,,,ヨシウラインテリア,0
1430,5290001098901,新規,0,2022-09-09,2022-09-09,株式会社ポラリス,,株式会社,福岡県,大牟田市,三里町３丁目３番,,40,202,8360076,,,,,,,2022-09-09,1,,,,,ポラリス,0
1432,5290003012942,新規,0,2022-09-09,2022-09-09,合同会社やごころ,,合同会社,福岡県,久留米市,津福本町１０９８‐２‐４０３,,40,203,8300047,,,,,,,2022-09-09,1,,,,,ヤゴコロ,0
1443,5330001030099,新規,0,2022-09-09,2022-09-09,株式会社ＦＩＥＬＤ　ＲＡＩＳＥ,,株式会社,熊本県,熊本市中央区,島崎１丁目３１番１－７０５号フラワーマンション城西,,43,101,8600073,,,,,,,2022-09-09,1,,,,,フィールドレイズ,0
1445,5330003009513,新規,0,2022-09-09,2022-09-09,合同会社ＴＯＫＯＵ,,合同会社,熊本県,菊池郡大津町,大字室１１８８番地１,,43,403,8691235,,,,,,,2022-09-09,1,,,,,トウコウ,0
1447,5350001017953,新規,0,2022-09-09,2022-09-09,株式会社ＶＡＲＲＥＬ,,株式会社,宮崎県,宮崎市,老松２丁目２番９号アシストビル１Ｆ,,45,201,8800801,,,,,,,2022-09-09,1,,,,,バレル,0
1448,5350003004165,新規,0,2022-09-09,2022-09-09,Ｓｈｏ５ｌａｎｄ合同会社,,合同会社,宮崎県,宮崎市,橘通西３丁目２番１３号ダイヤモンドビル３０１号,,45,201,8800001,,,,,,,2022-09-09,1,,,,,ショウゴランド,0
1449,5360001030947,新規,0,2022-09-09,2022-09-09,株式会社Ｄｏｖｉ,,株式会社,沖縄県,那覇市,識名３丁目１０－５２日天ハウス２Ｆ,,47,201,9020078,,,,,,,2022-09-09,1,,,,,ドバイ,0
1451,5360003012290,新規,0,2022-09-09,2022-09-09,合同会社ｈｅａｒｔ　ｔｏ　ｈｅａｒｔフローヨガ沖縄,,合同会社,沖縄県,浦添市,港川２丁目２１番１２号ライオンズマンション浦添弐番館２０１,,47,208,9012134,,,,,,,2022-09-09,1,,,,,ハートトゥハートフローヨガオキナワ,0
1458,5380001033106,新規,0,2022-09-09,2022-09-09,株式会社光希,,株式会社,福島県,いわき市,小名浜下神白字綱取１６９番地の２,,07,204,9700316,,,,,,,2022-09-09,1,,,,,コウキ,0
1462,5420001018003,新規,0,2022-09-09,2022-09-09,株式会社三春農園,,株式会社,青森県,北津軽郡鶴田町,大字中野字北原１７番地,,02,384,0383514,,,,,,,2022-09-09,1,,,,,ミハルノウエン,0
1464,5420003002574,新規,0,2022-09-09,2022-09-09,合同会社川崎販売店,00127798,合同会社,青森県,上北郡おいらせ町,三本木１２６番地４,,02,412,0392125,,,,,,,2022-09-09,1,,,,,カワサキハンバイテン,0
1466,5430001087443,新規,0,2022-09-09,2022-09-09,株式会社山陽工業,,株式会社,北海道,札幌市手稲区,前田十条１０丁目５番５－２０１号,,01,109,0060820,,,,,,,2022-09-09,1,,,,,サンヨウコウギョウ,0
1467,5430001087451,新規,0,2022-09-09,2022-09-09,株式会社中山まちづくり計画舎,,株式会社,北海道,札幌市豊平区,西岡三条１０丁目９番２７号,,01,105,0620033,,,,,,,2022-09-09,1,,,,,ナカヤママチヅクリケイカクシャ,0
1470,5430003014255,新規,0,2022-09-09,2022-09-09,合同会社ジェイアット,,合同会社,北海道,札幌市中央区,南七条西７丁目４番地５ティアラＷ７－６０３号,,01,101,0640807,,,,,,,2022-09-09,1,,,,,ジェイアット,0
1474,5470003002248,新規,0,2022-09-09,2022-09-09,あやがわグリーンハウス合同会社,,合同会社,香川県,綾歌郡綾川町,東分乙４９３番地１,,37,387,7612205,,,,,,,2022-09-09,1,,,,,アヤガワグリーンハウス,0
1475,5490001010283,新規,0,2022-09-09,2022-09-09,ゼロダブルエイト株式会社,,株式会社,高知県,高知市,元町１番地１,,39,201,7800941,,,,,,,2022-09-09,1,,,,,ゼロダブルエイト,0
1476,5490003001702,新規,0,2022-09-09,2022-09-09,ＬＩＦＥｉｓＰＨＯＴＯ合同会社,,合同会社,高知県,高岡郡四万十町,七里甲１３３７－２,,39,412,7860082,,,,,,,2022-09-09,1,,,,,ライフイズフォト,0
1478,5500001024455,新規,0,2022-09-09,2022-09-09,ＳＹＯＫＥＮ株式会社,,株式会社,愛媛県,松山市,土居田町１６６番地１,,38,201,7900056,,,,,,,2022-09-09,1,,,,,ショウケン,0
1495,6010001229359,新規,0,2022-09-09,2022-09-09,株式会社築地グルメクラブ,,株式会社,東京都,中央区,築地４丁目８番２号３階,,13,102,1040045,,,,,,,2022-09-09,1,,,,,,0
1496,6010001229367,新規,0,2022-09-09,2022-09-09,亦秋株式会社,,株式会社,東京都,千代田区,飯田橋２丁目１６－４九段下コート２Ｆ－２０１号室,,13,101,1020072,,,,,,,2022-09-09,1,,,,,エキシュウ,0
1499,6010003038642,新規,0,2022-09-09,2022-09-09,オースティンプロパティー合同会社,,合同会社,東京都,千代田区,丸の内１丁目１１番１号,,13,101,1000005,,,,,,,2022-09-09,1,,,,,オースティンプロパティー,0
1500,6010003038650,新規,0,2022-09-09,2022-09-09,合同会社ｍａｕｖｅ,,合同会社,東京都,中央区,銀座１丁目２２番１１号銀座大竹ビジデンス２階,,13,102,1040061,,,,,,,2022-09-09,1,,,,,モーヴ,0
1503,6010005035530,新規,0,2022-09-09,2022-09-09,弁護士法人日本クレアス法律事務所,,その他の設立登記法人,東京都,千代田区,霞が関３丁目２番５号霞が関ビルディング３３階,,13,101,1000013,,,,,,,2022-09-09,1,,,,,ニホンクレアスホウリツジムショ,0
1515,6010401169584,新規,0,2022-09-09,2022-09-09,株式会社シラスホールディングス,,株式会社,東京都,港区,南青山２丁目２番１５号,,13,103,1070062,,,,,,,2022-09-09,1,,,,,シラスホールディングス,0
1523,6010405021048,新規,0,2022-09-09,2022-09-09,一般社団法人動機づけ面接法研究所,,その他の設立登記法人,東京都,港区,北青山１丁目５番１２号５階,,13,103,1070061,,,,,,,2022-09-09,1,,,,,ドウキヅケメンセツホウケンキュウジョ,0
1525,6010601061830,新規,0,2022-09-09,2022-09-09,株式会社おもてなしアース,,株式会社,東京都,墨田区,太平４丁目３番１－２０５号錦糸公園パーク・ホームズシティフォート,,13,107,1300012,,,,,,,2022-09-09,1,,,,,オモテナシアース,0
1533,6010901051606,新規,0,2022-09-09,2022-09-09,株式会社ＴＯＫＹＯ　ＢＥＡＣＨ　ＳＴＵＤＩＯ,,株式会社,東京都,世田谷区,上馬１丁目１５－１０,,13,112,1540011,,,,,,,2022-09-09,1,,,,,トーキョービーチスタジオ,0
1549,6011101100112,新規,0,2022-09-09,2022-09-09,株式会社ｄｅａｒ,,株式会社,東京都,新宿区,市谷柳町２２番地,,13,104,1620061,,,,,,,2022-09-09,1,,,,,ディアー,0
1550,6011101100137,新規,0,2022-09-09,2022-09-09,株式会社ＡＴＬＡＳ,,株式会社,東京都,新宿区,西新宿６丁目２５－８アトラスタワー西新宿１７０５,,13,104,1600023,,,,,,,2022-09-09,1,,,,,アトラス,0
1551,6011201024095,新規,0,2022-09-09,2022-09-09,株式会社Ｙ＆Ｈ,,株式会社,東京都,中野区,中野３丁目１２番６号,,13,114,1640001,,,,,,,2022-09-09,1,,,,,ワイアンドエイチ,0
1552,6011203003907,新規,0,2022-09-09,2022-09-09,旅辰商事合同会社,,合同会社,東京都,中野区,若宮１丁目１０番４号,,13,114,1650033,,,,,,,2022-09-09,1,,,,,タビタツショウジ,0
1554,6011403003764,新規,0,2022-09-09,2022-09-09,合同会社丸和設計,,合同会社,東京都,板橋区,常盤台４丁目３０番１２号,,13,119,1740071,,,,,,,2022-09-09,1,,,,,マルワセッケイ,0
1556,6011503005272,新規,0,2022-09-09,2022-09-09,カーテンコール合同会社,,合同会社,東京都,北区,豊島５丁目５番７号１４０５,,13,117,1140003,,,,,,,2022-09-09,1,,,,,カーテンコール,0
1565,6011801041259,新規,0,2022-09-09,2022-09-09,ＹＧ株式会社,,株式会社,東京都,足立区,島根３丁目７番２５号,,13,121,1210815,,,,,,,2022-09-09,1,,,,,ワイジー,0
1566,6011803005253,新規,0,2022-09-09,2022-09-09,ＬＤＬ合同会社,,合同会社,東京都,葛飾区,亀有１丁目１０－１１,,13,122,1250061,,,,,,,2022-09-09,1,,,,,エルディーエル,0
1577,6020001148120,新規,0,2022-09-09,2022-09-09,株式会社プラットルミエール,,株式会社,神奈川県,横浜市青葉区,恩田町９５０ベルファミリア１０１,,14,117,2270065,,,,,,,2022-09-09,1,,,,,プラットルミエール,0
1578,6020001148145,新規,0,2022-09-09,2022-09-09,株式会社ティービジョン,,株式会社,神奈川県,横浜市中区,元町４丁目１６８番地ＢＩＺｃｏｍｆｏｒｔ元町ビル３Ｆ,,14,104,2310861,,,,,,,2022-09-09,1,,,,,ティービジョン,0
1580,6020003022364,新規,0,2022-09-09,2022-09-09,合同会社Ｃｏｎ　ｔｉ，Ｐａｒａ　ｔｉ,,合同会社,神奈川県,横浜市南区,井土ケ谷中町２２番地１５,,14,105,2320052,,,,,,,2022-09-09,1,,,,,コンティパラティ,0
1581,6020003022372,新規,0,2022-09-09,2022-09-09,盛達商事合同会社,,合同会社,神奈川県,横浜市戸塚区,戸塚町６４８番地,,14,110,2440003,,,,,,,2022-09-09,1,,,,,モリタツショウジ,0
1582,6020005015639,新規,0,2022-09-09,2022-09-09,一般社団法人ＥＰＵ,,その他の設立登記法人,神奈川県,横浜市港北区,大倉山１丁目２６－１８－２０３,,14,109,2220037,,,,,,,2022-09-09,1,,,,,イーピーユー,0
1597,6030001150050,新規,0,2022-09-09,2022-09-09,株式会社ホス活研究所,,株式会社,埼玉県,入間市,大字新光３０６番地６４１,,11,225,3580055,,,,,,,2022-09-09,1,,,,,ホスカツケンキュウショ,0
1605,6040001125027,新規,0,2022-09-09,2022-09-09,株式会社ＩＤＴ,,株式会社,千葉県,柏市,みどり台４丁目１５番１５号,,12,217,2770884,,,,,,,2022-09-09,1,,,,,アイディーティー,0
1606,6040001125035,新規,0,2022-09-09,2022-09-09,株式会社清五郎,,株式会社,千葉県,千葉市緑区,椎名崎町１８番地,,12,105,2660016,,,,,,,2022-09-09,1,,,,,セイゴロウ,0
1608,6040003020804,新規,0,2022-09-09,2022-09-09,合同会社Ｃ３Ｆ,,合同会社,千葉県,我孫子市,中峠１７０５番地の２２,,12,222,2701121,,,,,,,2022-09-09,1,,,,,シースリーエフ,0
1613,6050001051668,新規,0,2022-09-09,2022-09-09,辰和美装株式会社,,株式会社,茨城県,結城市,大字結城２４３１－２,,08,207,3070001,,,,,,,2022-09-09,1,,,,,トキワビソウ,0
1616,6050003006827,新規,0,2022-09-09,2022-09-09,合同会社ひまわり,,合同会社,茨城県,坂東市,逆井１８２０番地６０,,08,228,3060501,,,,,,,2022-09-09,1,,,,,ヒマワリ,0
1619,6060005010009,新規,0,2022-09-09,2022-09-09,社会保険労務士法人戸野経営労務事務所,,その他の設立登記法人,栃木県,那須塩原市,方京１丁目１６番地５,,09,213,3293156,,,,,,,2022-09-09,1,,,,,トノケイエイロウムジムショ,0
1621,6070001039620,新規,0,2022-09-09,2022-09-09,七海インターナショナル株式会社,,株式会社,群馬県,前橋市,荻窪町９８０番地５,,10,201,3710001,,,,,,,2022-09-09,1,,,,,ナナミインターナショナル,0
1633,6110001036935,新規,0,2022-09-09,2022-09-09,ＫＭＢホールディングス株式会社,,株式会社,新潟県,新潟市西区,流通センター３丁目３番地２,,15,107,9502031,,,,,,,2022-09-09,1,,,,,ケーエムビーホールディングス,0
1649,6120001248736,新規,0,2022-09-09,2022-09-09,株式会社ＭＯＫＵ,,株式会社,大阪府,大阪市住吉区,南住吉１丁目１－１２,,27,120,5580041,,,,,,,2022-09-09,1,,,,,モク,0
1650,6120001248744,新規,0,2022-09-09,2022-09-09,株式会社ｅｃｌａｔ,,株式会社,大阪府,大阪市住吉区,帝塚山西２丁目５番２６号,,27,120,5580052,,,,,,,2022-09-09,1,,,,,エクラ,0
1651,6120001248760,新規,0,2022-09-09,2022-09-09,シマコーポレーション株式会社,,株式会社,大阪府,大阪市生野区,鶴橋５丁目２１番５号,,27,116,5440031,,,,,,,2022-09-09,1,,,,,シマコーポレーション,0
1659,6120003022429,新規,0,2022-09-09,2022-09-09,白馬合同会社,,合同会社,大阪府,大阪市生野区,鶴橋５丁目１３番１０号,,27,116,5440031,,,,,,,2022-09-09,1,,,,,ハクバ,0
1660,6120005023177,新規,0,2022-09-09,2022-09-09,弁理士法人ＯＭＮＩ国際特許事務所,,その他の設立登記法人,大阪府,大阪市中央区,北浜１丁目３番１４号リバーポイント北浜３階,,27,128,5410041,,,,,,,2022-09-09,1,,,,,オムニコクサイトッキョジムショ,0
1676,6140001127244,新規,0,2022-09-09,2022-09-09,株式会社泰慶ホールディングス,,株式会社,兵庫県,神戸市西区,玉津町二ツ屋９９番地の５,,28,111,6512142,,,,,,,2022-09-09,1,,,,,タイケイホールディングス,0
1677,6140001127310,新規,0,2022-09-09,2022-09-09,株式会社華大,,株式会社,兵庫県,芦屋市,東芦屋町８番５－１０３号,00127799,28,206,6590095,,,,,,,2022-09-09,1,,,,,ハナダイ,0
1678,6140001127327,新規,0,2022-09-09,2022-09-09,株式会社逢,,株式会社,兵庫県,揖保郡太子町,塚森１８２番地６,,28,464,6711541,,,,,,,2022-09-09,1,,,,,アイ,0
1679,6140001127343,新規,0,2022-09-09,2022-09-09,株式会社ＴＯＰ　ＩＮＣＬＵＤＥ,,株式会社,兵庫県,揖保郡太子町,糸井１番地２７,,28,464,6711532,,,,,,,2022-09-09,1,,,,,トップインクルード,0
1681,6140003018111,新規,0,2022-09-09,2022-09-09,ＬＡ　Ｉｎｔｅｒｎａｔｉｏｎａｌ　Ｔｒａｄｉｎｇ　Ｊａｐａｎ合同会社,,合同会社,兵庫県,神戸市垂水区,桃山台１丁目１７－６－３０２,,28,108,6550854,,,,,,,2022-09-09,1,,,,,エルエーインターナショナルトレーディングジャパン,0
1682,6150001025810,新規,0,2022-09-09,2022-09-09,株式会社三山道路,,株式会社,奈良県,橿原市,十市町９９２番地の１,,29,205,6340008,,,,,,,2022-09-09,1,,,,,ミヤマドウロ,0
1683,6170001017277,新規,0,2022-09-09,2022-09-09,株式会社南方計算センター,,株式会社,和歌山県,和歌山市,雑賀屋町５２番地,,30,201,6408249,,,,,,,2022-09-09,1,,,,,ミナカタケイサンセンター,0
1688,6180001152924,新規,0,2022-09-09,2022-09-09,ＨＯＮＧ　ＢＡＮＧ株式会社,,株式会社,愛知県,名古屋市東区,東桜２丁目３番７号,,23,102,4610005,,,,,,,2022-09-09,1,,,,,ホンバン,0
1689,6180001152940,新規,0,2022-09-09,2022-09-09,ヤマモリ株式会社,,株式会社,愛知県,名古屋市港区,東蟹田４０３番地の５,,23,111,4550886,,,,,,,2022-09-09,1,,,,,ヤマモリ,0
1690,6180001152957,新規,0,2022-09-09,2022-09-09,株式会社ＪＡＭ,,株式会社,愛知県,稲沢市,稲島１０丁目１１４番地,,23,220,4928229,,,,,,,2022-09-09,1,,,,,ジャム,0
1693,6180003024221,新規,0,2022-09-09,2022-09-09,合同会社ワイズワン相模原緑,,合同会社,愛知県,名古屋市中区,栄２丁目３番１号名古屋広小路ビルヂング１７階,,23,106,4600008,,,,,,,2022-09-09,1,,,,,ワイズワンサガミハラミドリ,0
1696,6180301036604,新規,0,2022-09-09,2022-09-09,株式会社大須賀地所,,株式会社,愛知県,豊橋市,西岩田６丁目１５番地７,,23,201,4400831,,,,,,,2022-09-09,1,,,,,オオスカジショ,0
1702,6210001019079,新規,0,2022-09-09,2022-09-09,株式会社うちくる福井,,株式会社,福井県,福井市,大宮５丁目１５番１０号グランディアコート大宮２０２,,18,201,9100016,,,,,,,2022-09-09,1,,,,,ウチクルフクイ,0
1703,6210003001555,新規,0,2022-09-09,2022-09-09,合同会社Ｒｅｓｐｅｃｔ,,合同会社,福井県,鯖江市,鳥羽２丁目２０－４,,18,207,9160013,,,,,,,2022-09-09,1,,,,,リスペクト,0
1712,6250001019760,新規,0,2022-09-09,2022-09-09,温見商事株式会社,,株式会社,山口県,下松市,南花岡４丁目６番１６号,,35,207,7440027,,,,,,,2022-09-09,1,,,,,ヌクミショウジ,0
1719,6270003001442,新規,0,2022-09-09,2022-09-09,ウエストジャパン合同会社,,合同会社,鳥取県,倉吉市,上福田４１１番地,,31,203,6820642,,,,,,,2022-09-09,1,,,,,ウエストジャパン,0
1722,6290001098842,新規,0,2022-09-09,2022-09-09,トリプルジュエリー株式会社,,株式会社,福岡県,福岡市早良区,脇山２丁目８番８２号,,40,137,8111111,,,,,,,2022-09-09,1,,,,,トリプルジュエリー,0
1727,6290801028882,新規,0,2022-09-09,2022-09-09,株式会社ＫＥＩＳＥＩ,,株式会社,福岡県,北九州市門司区,大里東３丁目７番６－５０７号,,40,101,8000022,,,,,,,2022-09-09,1,,,,,ケイセイ,0
1728,6290803004196,新規,0,2022-09-09,2022-09-09,ＤＨＴ合同会社,,合同会社,福岡県,北九州市小倉北区,紺屋町７－１８イーグルビル（一階路面）,,40,106,8020081,,,,,,,2022-09-09,1,,,,,ディーエイチティー,0
1739,6330005010559,新規,0,2022-09-09,2022-09-09,行政書士法人ほりかわ事務所,,その他の設立登記法人,熊本県,熊本市南区,南高江７丁目９番１５０号,,43,104,8614106,,,,,,,2022-09-09,1,,,,,ホリカワジムショ,0
1741,6340005009501,新規,0,2022-09-09,2022-09-09,医療法人陽樹会,,その他の設立登記法人,鹿児島県,姶良市,西餅田８５番地７,,46,225,8995431,,,,,,,2022-09-09,1,,,,,ヨウジュカイ,0
1744,6350001017944,新規,0,2022-09-09,2022-09-09,株式会社三和エステート,,株式会社,宮崎県,都城市,鷹尾１丁目１１街区１１号,,45,202,8850081,,,,,,,2022-09-09,1,,,,,サンワエステート,0
1753,6380001033105,新規,0,2022-09-09,2022-09-09,どこでもどあ株式会社,,株式会社,福島県,会津若松市,相生町７番７号,,07,202,9650031,,,,,,,2022-09-09,1,,,,,ドコデモドア,0
1769,6430001087459,新規,0,2022-09-09,2022-09-09,株式会社アメージング,,株式会社,北海道,札幌市中央区,北三条西７丁目１番地１,,01,101,0600003,,,,,,,2022-09-09,1,,,,,アメージング,0
1770,6430001087467,新規,0,2022-09-09,2022-09-09,２４ｒｅａｌ　ｅｓｔａｔｅ株式会社,,株式会社,北海道,札幌市北区,北二十四条西４丁目２－６第一鶴会館１階,,01,102,0010024,,,,,,,2022-09-09,1,,,,,ニーヨンリアルエステート,0
1771,6430001087475,新規,0,2022-09-09,2022-09-09,株式会社Ｍａｒｌｅｙ,,株式会社,北海道,札幌市南区,南三十一条西１０丁目１番１３号,,01,106,0050031,,,,,,,2022-09-09,1,,,,,マーレイ,0
1773,6430003014254,新規,0,2022-09-09,2022-09-09,むつみ北海道合同会社,,合同会社,北海道,札幌市南区,石山東４丁目１０番１０号,,01,106,0050850,,,,,,,2022-09-09,1,,,,,ムツミホッカイドウ,0
1774,6440003001482,新規,0,2022-09-09,2022-09-09,合同会社Ｒｉ’ｚ,,合同会社,北海道,函館市,深堀町１２番８号,,01,202,0420941,,,,,,,2022-09-09,1,,,,,,0
1775,6450003002249,新規,0,2022-09-09,2022-09-09,ＡＬＣ合同会社,,合同会社,北海道,旭川市,永山十条２丁目３番９号,,01,204,0798420,,,,,,,2022-09-09,1,,,,,エーエルシー,0
1778,6470003002247,新規,0,2022-09-09,2022-09-09,合同会社瀬戸内ラボ,,合同会社,香川県,丸亀市,中府町３丁目９番２０－２０３号Ｊーサルーン,,37,202,7630033,,,,,,,2022-09-09,1,,,,,セトウチラボ,0
1788,7010001229341,新規,0,2022-09-09,2022-09-09,株式会社鮨あらた,,株式会社,東京都,中央区,銀座４丁目１０番１号,,13,102,1040061,,,,,,,2022-09-09,1,,,,,スシアラタ,0
1789,7010001229366,新規,0,2022-09-09,2022-09-09,ＡＲＳホールディングス株式会社,,株式会社,東京都,千代田区,永田町１丁目１１番３０号,,13,101,1000014,,,,,,,2022-09-09,1,,,,,エーアールエスホールディングス,0
1790,7010001229374,新規,0,2022-09-09,2022-09-09,株式会社フレソル,,株式会社,東京都,中央区,日本橋３丁目２番１４号新槇町ビル別館第一１階,,13,102,1030027,,,,,,,2022-09-09,1,,,,,フレソル,0
1794,7010003038641,新規,0,2022-09-09,2022-09-09,ヒューストンプロパティー合同会社,,合同会社,東京都,千代田区,丸の内１丁目１１番１号,,13,101,1000005,,,,,,,2022-09-09,1,,,,,ヒューストンプロパティー,0
1796,7010401169328,新規,0,2022-09-09,2022-09-09,Ｖｒｉｄｇｅ株式会社,,株式会社,東京都,港区,赤坂７丁目９番４号,,13,103,1070052,,,,,,,2022-09-09,1,,,,,ブリッジ,0
1797,7010401169617,新規,0,2022-09-09,2022-09-09,株式会社道道,,株式会社,東京都,港区,海岸２丁目３番２－７０２号,,13,103,1050022,,,,,,,2022-09-09,1,,,,,ドウドウ,0
1798,7010401169625,新規,0,2022-09-09,2022-09-09,株式会社メイテック,,株式会社,東京都,港区,芝浦２丁目１３番９号,,13,103,1080023,,,,,,,2022-09-09,1,,,,,メイテック,0
1799,7010403028498,新規,0,2022-09-09,2022-09-09,合同会社シュワーボ,,合同会社,東京都,港区,港南２丁目３－１大信秋山ビル３階,,13,103,1080075,,,,,,,2022-09-09,1,,,,,シュワーボ,0
1808,7010601061838,新規,0,2022-09-09,2022-09-09,景一文化株式会社,,株式会社,東京都,江東区,東砂５丁目５番６号Ｋビル２０６,,13,108,1360074,,,,,,,2022-09-09,1,,,,,ケイイチブンカ,0
1815,7010803004280,新規,0,2022-09-09,2022-09-09,ＳＵＢＡＳＨ合同会社,,合同会社,東京都,大田区,西蒲田４丁目１８番６号レオパレス蒲田第１０－２０２,,13,111,1440051,,,,,,,2022-09-09,1,,,,,スバス,0
1823,7011001149686,新規,0,2022-09-09,2022-09-09,トライプレックス株式会社,,株式会社,東京都,渋谷区,恵比寿１丁目１９番１９号恵比寿ビジネスタワー１０Ｆ,,13,113,1500013,,,,,,,2022-09-09,1,,,,,トライプレックス,0
1827,7011003015358,新規,0,2022-09-09,2022-09-09,合同会社アテディア,,合同会社,東京都,渋谷区,恵比寿西２丁目８番７号,,13,113,1500021,,,,,,,2022-09-09,1,,,,,アテディア,0
1828,7011103012148,新規,0,2022-09-09,2022-09-09,ＢＧＣ合同会社,,合同会社,東京都,新宿区,四谷三栄町２－１４四ツ谷ビジネスガーデン２２２号室,,13,104,1600008,,,,,,,2022-09-09,1,,,,,ビージーシー,0
1829,7011301028094,新規,0,2022-09-09,2022-09-09,株式会社Ｒｉｃｅ　Ｗｏｒｋ　Ｓｕｐｐｏｒｔ,,株式会社,東京都,杉並区,大宮２丁目１４番１０号,,13,115,1680061,,,,,,,2022-09-09,1,,,,,ライスワークサポート,0
1832,7011403003763,新規,0,2022-09-09,2022-09-09,スポルトマティック合同会社,,合同会社,東京都,板橋区,東山町１２番１４－２０３号,,13,119,1740073,,,,,,,2022-09-09,1,,,,,スポルトマティック,0
1835,7011501028448,新規,0,2022-09-09,2022-09-09,翰冠株式会社,,株式会社,東京都,荒川区,町屋３丁目６番１０号ハイツ吉池１０３号室,,13,118,1160001,,,,,,,2022-09-09,1,,,,,カンカン,0
1840,7011803005252,新規,0,2022-09-09,2022-09-09,合同会社ｍａｔｋａａｌｔｏ,,合同会社,東京都,足立区,谷中５丁目７番５号,,13,121,1200006,,,,,,,2022-09-09,1,,,,,マトカールト,0
1846,7012801021836,新規,0,2022-09-09,2022-09-09,株式会社愛コーポレーション,,株式会社,東京都,日野市,日野台２丁目１５番地の４,,13,212,1910003,,,,,,,2022-09-09,1,,,,,アイコーポレーション,0
1857,7020001148144,新規,0,2022-09-09,2022-09-09,横浜パイオニクス株式会社,,株式会社,神奈川県,川崎市高津区,久地４丁目２６番４１号,,14,134,2130032,,,,,,,2022-09-09,1,,,,,ヨコハマパイオニクス,0
1858,7020001148169,新規,0,2022-09-09,2022-09-09,株式会社ｉｒｏｄｏｒｉ,,株式会社,神奈川県,横浜市南区,唐沢１４番地,,14,105,2320034,,,,,,,2022-09-09,1,,,,,イロドリ,0
1859,7020001148177,新規,0,2022-09-09,2022-09-09,株式会社フェニックスプロジェクト,,株式会社,神奈川県,横浜市西区,北幸１丁目１１番１号水信ビル７階,,14,103,2200004,,,,,,,2022-09-09,1,,,,,フェニックスプロジェクト,0
1860,7020003022363,新規,0,2022-09-09,2022-09-09,合同会社Ｗｅｓｔｅｒｌｕｎｄ　Ｒｅｃｏｒｄｉｎｇｓ,,合同会社,神奈川県,川崎市高津区,千年５５８番地１,,14,134,2130022,,,,,,,2022-09-09,1,,,,,ウェスタールンドレコーディングス,0
1865,7021003012123,新規,0,2022-09-09,2022-09-09,合同会社厚木珈琲,,合同会社,神奈川県,厚木市,飯山８３７番地２０,,14,212,2430213,,,,,,,2022-09-09,1,,,,,アツギコーヒー,0
1870,7030001149926,新規,0,2022-09-09,2022-09-09,ＳＫＮ商事株式会社,,株式会社,埼玉県,越谷市,川柳町３丁目２８７－１,,11,222,3430827,,,,,,,2022-09-09,1,,,,,エスケーエヌショウジ,0
1871,7030001150058,新規,0,2022-09-09,2022-09-09,株式会社Ｃｏｌｏｒｓ　Ｌｉｎｋ,,株式会社,埼玉県,春日部市,粕壁６６７９番地１０,,11,214,3440061,,,,,,,2022-09-09,1,,,,,カラーズリンク,0
1883,7040001124993,新規,0,2022-09-09,2022-09-09,株式会社ＢＥＬＥＺＡ,,株式会社,千葉県,八千代市,勝田台３丁目２６番地の９,,12,221,2760023,,,,,,,2022-09-09,1,,,,,ベレーザ,0
1884,7040001125026,新規,0,2022-09-09,2022-09-09,株式会社ＸＡＣＫホールディングス,,株式会社,千葉県,船橋市,宮本５丁目７番３号,,12,204,2730003,,,,,,,2022-09-09,1,,,,,ザックホールディングス,0
1888,7040003020786,新規,0,2022-09-09,2022-09-09,アヴァンティ合同会社,,合同会社,千葉県,船橋市,海神町南１丁目１４４５番地,,12,204,2730024,,,,,,,2022-09-09,1,,,,,アヴァンティ,0
1895,7080103002648,新規,0,2022-09-09,2022-09-09,合同会社ＲａＢａｍｂｏｏ,,合同会社,静岡県,伊豆市,柏久保５２９‐４,,22,222,4102407,,,,,,,2022-09-09,1,,,,,ラバンブー,0
1905,7110001036942,新規,0,2022-09-09,2022-09-09,株式会社カンザワ,,株式会社,新潟県,新潟市中央区,女池５丁目１番１８号,,15,103,9500941,,,,,,,2022-09-09,1,,,,,カンザワ,0
1919,7120001248768,新規,0,2022-09-09,2022-09-09,株式会社アイリスツーリスト,,株式会社,大阪府,大阪市天王寺区,上本町５丁目２番１１号,,27,109,5430001,,,,,,,2022-09-09,1,,,,,アイリスツーリスト,0
1920,7120001248784,新規,0,2022-09-09,2022-09-09,ＴｉＯ２株式会社,,株式会社,大阪府,大阪市福島区,福島６丁目２０－２－８０１,,27,103,5530003,,,,,,,2022-09-09,1,,,,,ティーオーツー,0
1921,7120003022428,新規,0,2022-09-09,2022-09-09,合同会社Ｒｅｍｏｎｔａｄａ,,合同会社,大阪府,大阪市生野区,勝山北５丁目２番２４号,,27,116,5440033,,,,,,,2022-09-09,1,,,,,レモンターダ,0
1924,7120101066194,新規,0,2022-09-09,2022-09-09,アジア食品貿易株式会社,,株式会社,大阪府,堺市南区,富蔵３２５,,27,145,5900127,,,,,,,2022-09-09,1,,,,,アジアショクヒンボウエキ,0
1925,7120103004846,新規,0,2022-09-09,2022-09-09,合同会社誠,,合同会社,大阪府,岸和田市,岡山町３１８番地,,27,202,5960814,,,,,,,2022-09-09,1,,,,,マコト,0
1926,7120901046486,新規,0,2022-09-09,2022-09-09,株式会社池田焙煎工房,,株式会社,大阪府,池田市,神田３丁目２０番１６号,,27,204,5630043,,,,,,,2022-09-09,1,,,,,イケダバイセンコウボウ,0
1927,7120903004302,新規,0,2022-09-09,2022-09-09,合同会社ＺＥＴ,,合同会社,大阪府,箕面市,箕面６丁目１０－７,,27,220,5620001,,,,,,,2022-09-09,1,,,,,ゼット,0
1935,7130001072589,新規,0,2022-09-09,2022-09-09,宮川管理株式会社,,株式会社,京都府,京都市伏見区,羽束師古川町４６番地,,26,109,6128486,,,,,,,2022-09-09,1,,,,,ミヤガワカンリ,0
1940,7130005016567,新規,0,2022-09-09,2022-09-09,司法書士法人中尾パートナーズ京都,,その他の設立登記法人,京都府,京都市中京区,御池通東洞院東入笹屋町４３６番地永和御池ビル２０２号,,26,104,6048187,,,,,,,2022-09-09,1,,,,,ナカオパートナーズキョウト,0
1946,7140001127318,新規,0,2022-09-09,2022-09-09,株式会社リブリブ,,株式会社,兵庫県,神戸市兵庫区,神田町３０番１９号,,28,105,6520006,,,,,,,2022-09-09,1,,,,,リブリブ,0
1947,7140001127326,新規,0,2022-09-09,2022-09-09,株式会社リナクル,,株式会社,兵庫県,姫路市,広畑区本町２丁目６４番地,,28,201,6711114,,,,,,,2022-09-09,1,,,,,リナクル,0
1948,7140001127334,新規,0,2022-09-09,2022-09-09,株式会社とみや,,株式会社,兵庫県,神戸市兵庫区,中道通１丁目１－２,,28,105,6520801,,,,,,,2022-09-09,1,,,,,トミヤ,0
1955,7180301036628,新規,0,2022-09-09,2022-09-09,ジュントス株式会社,,株式会社,愛知県,豊橋市,中岩田２丁目５番地７セルリアンコートＤ－１,,23,201,4400832,,,,,,,2022-09-09,1,,,,,ジュントス,0
1961,7190001029757,新規,0,2022-09-09,2022-09-09,株式会社Ａ＆Ｄ,,株式会社,三重県,松阪市,下村町１０４５番地５,,24,204,5150043,,,,,,,2022-09-09,1,,,,,エーアンドディー,0
1981,7260001037240,新規,0,2022-09-09,2022-09-09,株式会社Ｐｒｉｍａ,,株式会社,岡山県,岡山市北区,本町６番３６号第一セントラルビル１号館,,33,101,7000901,,,,,,,2022-09-09,1,,,,,プリマ,0
1984,7270003001441,新規,0,2022-09-09,2022-09-09,ｍ電気合同会社,,合同会社,鳥取県,鳥取市,吉方温泉１丁目５０７番地２,,31,201,6800841,,,,,,,2022-09-09,1,,,,,エムデンキ,0
1987,7290001098858,新規,0,2022-09-09,2022-09-09,株式会社ｂ．ｙ．ｕ,,株式会社,福岡県,福岡市南区,弥永２丁目５番１１号,,40,134,8111323,,,,,,,2022-09-09,1,,,,,ビーワイユー,0
1988,7290001098899,新規,0,2022-09-09,2022-09-09,百年帝国株式会社,,株式会社,福岡県,福岡市中央区,平尾１丁目１０番２６号ダイナコート平尾５０４,,40,133,8100014,,,,,,,2022-09-09,1,,,,,ヒャクネンテイコク,0
1991,7300005007094,新規,0,2022-09-09,2022-09-09,一般社団法人ＧＲＯＷＴＨ,,その他の設立登記法人,佐賀県,武雄市,武雄町富岡竹ノ下１２２４３－１,,41,206,8430000,,,,,,,2022-09-09,1,,,,,グロース,0
2006,7360001030945,新規,0,2022-09-09,2022-09-09,株式会社美ら島プロデュース,,株式会社,沖縄県,中頭郡西原町,字小那覇１０８,,47,329,9030103,,,,,,,2022-09-09,1,,,,,チュラシマプロデュース,0
2007,7360001030953,新規,0,2022-09-09,2022-09-09,株式会社ＢＡＣＫＢＯＲＮＣＩＴＹ,,株式会社,沖縄県,沖縄市,中央１丁目１０－１５、１Ｆ,,47,211,9040004,,,,,,,2022-09-09,1,,,,,バックボーンシティ,0
2017,7380001033104,新規,0,2022-09-09,2022-09-09,Ｇ．ディレクション株式会社,,株式会社,福島県,会津若松市,徒之町４番３１号,,07,202,9650802,,,,,,,2022-09-09,1,,,,,ジーディレクション,0
2024,7430001087441,新規,0,2022-09-09,2022-09-09,株式会社プラン,,株式会社,北海道,室蘭市,増市町２丁目３番６号,,01,205,0510034,,,,,,,2022-09-09,1,,,,,プラン,0
2027,7430003014253,新規,0,2022-09-09,2022-09-09,合同会社ｎｅｃｏｔａ,,合同会社,北海道,札幌市北区,北二十七条西７丁目３－７－５,,01,102,0010027,,,,,,,2022-09-09,1,,,,,ネコタ,0
2032,7440003001481,新規,0,2022-09-09,2022-09-09,合同会社ケアカインド,,合同会社,北海道,北斗市,追分２丁目３６番５号,,01,236,0490101,,,,,,,2022-09-09,1,,,,,ケアカインド,0
2034,7450003002248,新規,0,2022-09-09,2022-09-09,合同会社サンプランニング,,合同会社,北海道,旭川市,神楽岡九条３丁目３番１８号,,01,204,0788319,,,,,,,2022-09-09,1,,,,,サンプランニング,0
2054,8010001229365,新規,0,2022-09-09,2022-09-09,株式会社スクリーン＆ステージ,,株式会社,東京都,千代田区,飯田橋１丁目１２番７号ＭＳビル６階,,13,101,1020072,,,,,,,2022-09-09,1,,,,,スクリーンアンドステージ,0
2055,8010001229423,新規,0,2022-09-09,2022-09-09,フィンテックス株式会社,,株式会社,東京都,中央区,銀座６丁目１６番３号,,13,102,1040061,,,,,,,2022-09-09,1,,,,,フィンテックス,0
2056,8010003038335,新規,0,2022-09-09,2022-09-09,東京ファイブスターズ合同会社,,合同会社,東京都,中央区,銀座１丁目１２－４Ｎ＆ＥＢＬＤ．７階,,13,102,1040061,,,,,,,2022-09-09,1,,,,,トウキョウファイブスターズ,0
2057,8010003038574,新規,0,2022-09-09,2022-09-09,合同会社ＫＭＰ１,,合同会社,東京都,千代田区,内神田２丁目２番６号５階あすな会計事務所内,,13,101,1010047,,,,,,,2022-09-09,1,,,,,ケーエムピーワン,0
2058,8010003038624,新規,0,2022-09-09,2022-09-09,アポロスペースフラワー合同会社,,合同会社,東京都,中央区,日本橋本町１丁目１６－１４シャンブリーズ三越前１階,,13,102,1030023,,,,,,,2022-09-09,1,,,,,アポロスペースフラワー,0
2059,8010003038649,新規,0,2022-09-09,2022-09-09,合同会社アルファイア,,合同会社,東京都,文京区,春日２丁目１番２－６０１号,,13,105,1120003,,,,,,,2022-09-09,1,,,,,アルファイア,0
2069,8010401169541,新規,0,2022-09-09,2022-09-09,株式会社ＴＳＬ　ＣＯＭＰＡＮＹ,,株式会社,東京都,港区,西麻布４丁目１７番２２号ａｂｉｔａｒｅｎｉｓｈｉａｚａｂｕ３０２,,13,103,1060031,,,,,,,2022-09-09,1,,,,,ティーエスエルカンパニー,0
2070,8010401169624,新規,0,2022-09-09,2022-09-09,株式会社ＢＥＯ,,株式会社,東京都,港区,浜松町２丁目２－１５浜松町ダイヤビル２階,,13,103,1050013,,,,,,,2022-09-09,1,,,,,ベオー,0
2073,8010403028448,新規,0,2022-09-09,2022-09-09,ユーキャスト合同会社,,合同会社,東京都,港区,芝３丁目１２－４－２００４,,13,103,1050014,,,,,,,2022-09-09,1,,,,,ユーキャスト,0
2079,8010505003340,新規,0,2022-09-09,2022-09-09,医療法人社団暉星,,その他の設立登記法人,東京都,台東区,上野１丁目１３番４号エスペランサ湯島１階,,13,106,1100005,,,,,,,2022-09-09,1,,,,,コウセイ,0
2083,8010601061820,新規,0,2022-09-09,2022-09-09,株式会社ファンロップ,,株式会社,東京都,墨田区,墨田３丁目２４番３号,,13,107,1310031,,,,,,,2022-09-09,1,,,,,ファンロップ,0
2084,8010601061845,新規,0,2022-09-09,2022-09-09,株式会社ｃｒａｎｅ,,株式会社,東京都,江東区,豊洲２丁目５番２－２５０１号,,13,108,1350061,,,,,,,2022-09-09,1,,,,,クレーン,0
2093,8010901051604,新規,0,2022-09-09,2022-09-09,株式会社佑祥テック,,株式会社,東京都,世田谷区,代沢２丁目４２番９号,,13,112,1550032,,,,,,,2022-09-09,1,,,,,ユウショウテック,0
2095,8010903007637,新規,0,2022-09-09,2022-09-09,合同会社ＳＭＢ,,合同会社,東京都,世田谷区,経堂１丁目３６－６サンリーノ経堂１０２,,13,112,1560052,,,,,,,2022-09-09,1,,,,,エスエムビー,0
2107,8011101100110,新規,0,2022-09-09,2022-09-09,株式会社ＦＬＵＴＥ,,株式会社,東京都,新宿区,新宿２丁目１１番７－４０４号,,13,104,1600022,,,,,,,2022-09-09,1,,,,,フルート,0
2110,8011205002509,新規,0,2022-09-09,2022-09-09,医療法人社団ＭｅｄｉＬｏｃｏ,,その他の設立登記法人,東京都,中野区,丸山２丁目１７番１３号１階,,13,114,1650021,,,,,,,2022-09-09,1,,,,,メディロコ,0
2111,8011303004514,新規,0,2022-09-09,2022-09-09,合同会社ｐｈｏｔｏ‐ｓｓ,,合同会社,東京都,杉並区,宮前４丁目２５番２９号,,13,115,1680081,,,,,,,2022-09-09,1,,,,,フォトエスエス,0
2114,8011405002218,新規,0,2022-09-09,2022-09-09,医療法人社団板橋本町よこぼり歯科クリニック,,その他の設立登記法人,東京都,板橋区,大和町１６番５日神パレス板橋本町第三１階,,13,119,1730012,,,,,,,2022-09-09,1,,,,,イタバシホンチョウヨコボリシカクリニック,0
2118,8011705001745,新規,0,2022-09-09,2022-09-09,医療法人社団勝美会,,その他の設立登記法人,東京都,江戸川区,一之江３丁目２番２号一之江Ｓビル１階,,13,123,1320024,,,,,,,2022-09-09,1,,,,,,0
2119,8011801041257,新規,0,2022-09-09,2022-09-09,株式会社水梨製作所,,株式会社,東京都,葛飾区,東立石４丁目２９番４号,,13,122,1240013,,,,,,,2022-09-09,1,,,,,ミズナシセイサクショ,0
2121,8012401039625,新規,0,2022-09-09,2022-09-09,吉村不動産株式会社,,株式会社,東京都,府中市,白糸台４丁目２－４,,13,206,1830011,,,,,,,2022-09-09,1,,,,,ヨシムラフドウサン,0
2123,8012703002537,新規,0,2022-09-09,2022-09-09,合同会社誠真会館,,合同会社,東京都,西東京市,富士町４丁目１４－１２ルミエール東伏見１０１,,13,229,2020014,,,,,,,2022-09-09,1,,,,,セイシンカイカン,0
2125,8012803002866,新規,0,2022-09-09,2022-09-09,Ｈｅｌｌｏ　Ｗｏｒｌｄ　Ｌａｂｅｌ合同会社,,合同会社,東京都,東大和市,向原１丁目１６番地の１４セレノ３０１,,13,220,2070013,,,,,,,2022-09-09,1,,,,,ハローワールドレーベル,0
2130,8013301049400,新規,0,2022-09-09,2022-09-09,日本グローバルサービス株式会社,,株式会社,東京都,豊島区,南池袋１丁目１６番２０号ぬかりやビル６階,,13,116,1710022,,,,,,,2022-09-09,1,,,,,ニホングローバルサービス,0
2140,8020001148176,新規,0,2022-09-09,2022-09-09,株式会社ＬＩＮＫ,,株式会社,神奈川県,横浜市都筑区,牛久保３丁目１５番２６号,,14,118,2240012,,,,,,,2022-09-09,1,,,,,リンク,0
2143,8020003022313,新規,0,2022-09-09,2022-09-09,合同会社Ｋ‐Ｌｉｎｅ,,合同会社,神奈川県,横浜市港南区,野庭町６０７－１－１７５,,14,111,2340056,,,,,,,2022-09-09,1,,,,,,0
2144,8020003022370,新規,0,2022-09-09,2022-09-09,合同会社Ｕ．Ｗ．Ｆコンサルティング,,合同会社,神奈川県,横浜市西区,平沼１丁目４番２２号横浜平沼ダイカンプラザ三号館１００８号室,,14,103,2200023,,,,,,,2022-09-09,1,,,,,ユードットダブリュードットエフコンサルティング,0
2145,8020003022387,新規,0,2022-09-09,2022-09-09,合同会社横浜ＢＦＦＣ,,合同会社,神奈川県,横浜市戸塚区,柏尾町１０２４番地４,,14,110,2440812,,,,,,,2022-09-09,1,,,,,ヨコハマビーエフエフシー,0
2161,8030001150008,新規,0,2022-09-09,2022-09-09,Ｙｔｓ株式会社,,株式会社,埼玉県,川口市,西川口１丁目５－２０－４Ｆ,,11,203,3320021,,,,,,,2022-09-09,1,,,,,ワイティーエス,0
2165,8040001125009,新規,0,2022-09-09,2022-09-09,株式会社ケアプランいちご,,株式会社,千葉県,市川市,南大野２丁目３番Ｃ棟８０１号,,12,203,2720804,,,,,,,2022-09-09,1,,,,,ケアプランイチゴ,0
2166,8040001125025,新規,0,2022-09-09,2022-09-09,株式会社結心電工,,株式会社,千葉県,市川市,宮久保３丁目３番２４号,,12,203,2720822,,,,,,,2022-09-09,1,,,,,ユウシンデンコウ,0
2167,8040001125033,新規,0,2022-09-09,2022-09-09,株式会社ＭＯＺＵ,,株式会社,千葉県,市川市,南八幡３丁目２３番２３－６１１号,,12,203,2720023,,,,,,,2022-09-09,1,,,,,モズ,0
2168,8040001125041,新規,0,2022-09-09,2022-09-09,株式会社樹,,株式会社,千葉県,柏市,豊四季３７９番地１１,,12,217,2770863,,,,,,,2022-09-09,1,,,,,イツキ,0
2172,8040003020785,新規,0,2022-09-09,2022-09-09,合同会社明日見,,合同会社,千葉県,千葉市緑区,あすみが丘東３丁目１番地７,,12,105,2670067,,,,,,,2022-09-09,1,,,,,アスミ,0
2173,8040003020793,新規,0,2022-09-09,2022-09-09,Ａ・Ｒ・Ｍ合同会社,,合同会社,千葉県,千葉市若葉区,加曾利町５２７番地,,12,104,2640000,,,,,,,2022-09-09,1,,,,,エーアールエム,0
2176,8050003006833,新規,0,2022-09-09,2022-09-09,アラジンフィットネス合同会社,,合同会社,茨城県,土浦市,桜町１丁目１２－１５ハートランド土浦３Ｆ,,08,203,3000037,,,,,,,2022-09-09,1,,,,,アラジンフィットネス,0
2203,8120001248321,新規,0,2022-09-09,2022-09-09,株式会社トムマリンＬａｂ,,株式会社,大阪府,大阪市北区,梅田１丁目１番３号大阪駅前第３ビル２９階１－１－１号室,,27,127,5300001,,,,,,,2022-09-09,1,,,,,トムマリンラボ,0
2204,8120001248701,新規,0,2022-09-09,2022-09-09,世加株式会社,,株式会社,大阪府,大阪市浪速区,下寺２丁目６番１９号５階５Ｃ号室,,27,111,5560001,,,,,,,2022-09-09,1,,,,,セイカ,0
2205,8120001248734,新規,0,2022-09-09,2022-09-09,株式会社エヌティー・ワン,,株式会社,大阪府,大阪市東淀川区,東中島１丁目２０番１２号ユニゾーン新大阪８１２号,,27,114,5330033,,,,,,,2022-09-09,1,,,,,エヌティーワン,0
2206,8120001248759,新規,0,2022-09-09,2022-09-09,株式会社しおしお,,株式会社,大阪府,大阪市旭区,高殿６丁目８番３１号ノースフィールド２０１,,27,117,5350031,,,,,,,2022-09-09,1,,,,,シオシオ,0
2207,8120001248767,新規,0,2022-09-09,2022-09-09,ＳＨＩＲＡＮＫＥＤＯ株式会社,,株式会社,大阪府,大阪市東淀川区,東中島２丁目８番６－１０２号,,27,114,5330033,,,,,,,2022-09-09,1,,,,,シランケド,0
2208,8120001248783,新規,0,2022-09-09,2022-09-09,株式会社アイデアリング,,株式会社,大阪府,交野市,妙見坂７丁目７－１１,,27,230,5760021,,,,,,,2022-09-09,1,,,,,アイデアリング,0
2210,8120003022427,新規,0,2022-09-09,2022-09-09,日本大山合同会社,,合同会社,大阪府,大阪市東成区,大今里南３丁目１３番１１－２Ｂ号室,,27,115,5370013,,,,,,,2022-09-09,1,,,,,,0
2214,8120005023183,新規,0,2022-09-09,2022-09-09,ＮＰＯ法人ＳＨＩＮＧＯ西成基金,,その他の設立登記法人,大阪府,大阪市西成区,萩之茶屋３丁目２番２５号,,27,122,5570004,,,,,,,2022-09-09,1,,,,,シンゴニシナリキキン,0
2215,8120101066193,新規,0,2022-09-09,2022-09-09,南大阪不動産株式会社,,株式会社,大阪府,貝塚市,森４６０番地１,,27,208,5970044,,,,,,,2022-09-09,1,,,,,ミナミオオサカフドウサン,0
2219,8122001036219,新規,0,2022-09-09,2022-09-09,株式会社三協,,株式会社,大阪府,柏原市,大字高井田６６番地の５,,27,221,5820015,,,,,,,2022-09-09,1,,,,,サンキョウ,0
2224,8130001072555,新規,0,2022-09-09,2022-09-09,株式会社ＦＧ,,株式会社,京都府,京都市中京区,先斗町通三条下る橋下町１３３番地１エメラルド会館２Ｆ号室,,26,104,6048003,,,,,,,2022-09-09,1,,,,,エフジー,0
2225,8130001072571,新規,0,2022-09-09,2022-09-09,ニューデリー株式会社,,株式会社,京都府,京都市上京区,丸太町通千本東入中務町４９１寿苑ビル１階,,26,102,6028158,,,,,,,2022-09-09,1,,,,,ニューデリー,0
2230,8130005016566,新規,0,2022-09-09,2022-09-09,一般社団法人全国スリッター協会,,その他の設立登記法人,京都府,京都市南区,吉祥院嶋川原田町１９番２,,26,107,6018379,,,,,,,2022-09-09,1,,,,,ゼンコクスリッターキョウカイ,0
2234,8140001127283,新規,0,2022-09-09,2022-09-09,秦野工業株式会社,,株式会社,兵庫県,姫路市,別所町北宿１１４０番地７,,28,201,6710223,,,,,,,2022-09-09,1,,,,,ハタノコウギョウ,0
2235,8140001127291,新規,0,2022-09-09,2022-09-09,株式会社クリーン光絃,,株式会社,兵庫県,伊丹市,鋳物師１丁目２３番地ミノル興産鋳物師第３倉庫,,28,207,6640011,,,,,,,2022-09-09,1,,,,,クリーンコウケン,0
2236,8140001127317,新規,0,2022-09-09,2022-09-09,株式会社わんｔｏｇｅｔｈｅｒ,,株式会社,兵庫県,伊丹市,鈴原町５丁目２２番地１２,,28,207,6640882,,,,,,,2022-09-09,1,,,,,ワントゥギャザー,0
2237,8140001127325,新規,0,2022-09-09,2022-09-09,井上建築株式会社,,株式会社,兵庫県,加古川市,加古川町粟津４７１番地の１,,28,210,6750039,,,,,,,2022-09-09,1,,,,,,0
2238,8140001127341,新規,0,2022-09-09,2022-09-09,エクスアールジョン株式会社,,株式会社,兵庫県,芦屋市,船戸町５－２６,,28,206,6590093,,,,,,,2022-09-09,1,,,,,エクスアールジョン,0
2246,8150001025809,新規,0,2022-09-09,2022-09-09,株式会社藤本工務店,,株式会社,奈良県,高市郡明日香村,大字細川５５６番地の１,,29,402,6340114,,,,,,,2022-09-09,1,,,,,フジモトコウムテン,0
2247,8150003002772,新規,0,2022-09-09,2022-09-09,えがおＩＴ研究所合同会社,,合同会社,奈良県,生駒市,さつき台２丁目４５１番１２８,,29,209,6300221,,,,,,,2022-09-09,1,,,,,エガオアイティーケンキュウショ,0
2250,8180001152922,新規,0,2022-09-09,2022-09-09,株式会社ＲＲ・ＭＯＴＯＲＳ,,株式会社,愛知県,半田市,稲穂町１１丁目７番地１,,23,205,4750011,,,,,,,2022-09-09,1,,,,,アールアールモータース,0
2254,8180301036602,新規,0,2022-09-09,2022-09-09,株式会社ワイズ,,株式会社,愛知県,蒲郡市,栄町６番２号,,23,214,4430035,,,,,,,2022-09-09,1,,,,,ワイズ,0
2255,8180301036619,新規,0,2022-09-09,2022-09-09,ＨＩＫＡＲＩ株式会社,,株式会社,愛知県,高浜市,田戸町２丁目１番地２２の５,,23,227,4441323,,,,,,,2022-09-09,1,,,,,ヒカリ,0
2258,8190001029756,新規,0,2022-09-09,2022-09-09,株式会社秀皇,,株式会社,三重県,熊野市,有馬町２０４番地７,,24,212,5194325,,,,,,,2022-09-09,1,,,,,シュウオウ,0
2260,8200003005662,新規,0,2022-09-09,2022-09-09,ＲＵＭＥＥ　ＴＲＡＤＩＮＧ合同会社,,合同会社,岐阜県,土岐市,下石町６６０番地の２９サンテラス芝Ｂ－２０３号,,21,212,5095202,,,,,,,2022-09-09,1,,,,,ルミトレーディング,0
2278,8280003001646,新規,0,2022-09-09,2022-09-09,松江ファーム合同会社,,合同会社,島根県,松江市,宍道町白石２０２４番地１,,32,201,6990402,,,,,,,2022-09-09,1,,,,,マツエファーム,0
2284,8290001098881,新規,0,2022-09-09,2022-09-09,株式会社ジュウシン,,株式会社,福岡県,福岡市南区,野間１丁目１２番１８－１１０３号,,40,134,8150041,,,,,,,2022-09-09,1,,,,,ジュウシン,0
2288,8300005007093,新規,0,2022-09-09,2022-09-09,一般社団法人ｈｏｐｅ　ｆｏｒ　ｄｏｇ古湯,,その他の設立登記法人,佐賀県,佐賀市,富士町大字小副川２６１９番地１,,41,201,8400521,,,,,,,2022-09-09,1,,,,,ホープフォードッグフルユ,0
2289,8320001019297,新規,0,2022-09-09,2022-09-09,太田建設株式会社,,株式会社,大分県,大分市,城崎町２丁目６番２８号,,44,201,8700045,,,,,,,2022-09-09,1,,,,,,0
2294,8360001030944,新規,0,2022-09-09,2022-09-09,株式会社ＴＨＫ,,株式会社,沖縄県,島尻郡八重瀬町,字新城２０３７番地１,,47,362,9010503,,,,,,,2022-09-09,1,,,,,ティエイチケイ,0
2295,8360003012296,新規,0,2022-09-09,2022-09-09,合同会社未来の和,,合同会社,沖縄県,豊見城市,字豊崎１－１２２３,,47,212,9010225,,,,,,,2022-09-09,1,,,,,ミライノワ,0
2313,8430001087465,新規,0,2022-09-09,2022-09-09,ＮＳＭＡＲＴ株式会社,,株式会社,北海道,札幌市中央区,北四条西２０丁目２－１Ｎｏｒｄ４２０ビル３階,,01,101,0640824,,,,,,,2022-09-09,1,,,,,エヌスマート,0
2314,8430001087473,新規,0,2022-09-09,2022-09-09,株式会社北海道バーム,,株式会社,北海道,札幌市北区,北三十五条西５丁目２番１５号,,01,102,0010035,,,,,,,2022-09-09,1,,,,,ホッカイドウバーム,0
2316,8440001009146,新規,0,2022-09-09,2022-09-09,株式会社鈴木建設,,株式会社,北海道,函館市,神山３丁目１４番１８号,,01,202,0410832,,,,,,,2022-09-09,1,,,,,スズキケンセツ,0
2318,8450001013790,新規,0,2022-09-09,2022-09-09,株式会社はにかむ,,株式会社,北海道,旭川市,永山十二条３丁目２番４号,,01,204,0798422,,,,,,,2022-09-09,1,,,,,ハニカム,0
2319,8450003002247,新規,0,2022-09-09,2022-09-09,ファンプラン合同会社,,合同会社,北海道,旭川市,五条通１３丁目６４７番地の３,,01,204,0700035,,,,,,,2022-09-09,1,,,,,ファンプラン,0
2322,8470003002245,新規,0,2022-09-09,2022-09-09,ＢＡＯ　ＫＩＭ合同会社,,合同会社,香川県,三豊市,高瀬町新名１１８５番地７,,37,208,7670002,,,,,,,2022-09-09,1,,,,,バオキム,0
2335,9010001229356,新規,0,2022-09-09,2022-09-09,株式会社Ａｔｔａｃｋ　ｏｎ,,株式会社,東京都,中央区,銀座７丁目１３－６サガミビル２階,,13,102,1040061,,,,,,,2022-09-09,1,,,,,,0
2336,9010001229364,新規,0,2022-09-09,2022-09-09,株式会社Ｆｕｔｕｒｅ　Ｌｉｎｋ,,株式会社,東京都,中央区,日本橋３丁目２番１４号,,13,102,1030027,,,,,,,2022-09-09,1,,,,,,0
2337,9010001229372,新規,0,2022-09-09,2022-09-09,株式会社ＴＰＣ,,株式会社,東京都,中央区,新富１丁目１７番６－２０４号,,13,102,1040041,,,,,,,2022-09-09,1,,,,,ティーピーシー,0
2339,9010003038573,新規,0,2022-09-09,2022-09-09,ユニブルー合同会社,,合同会社,東京都,中央区,日本橋小舟町８－１３,,13,102,1030024,,,,,,,2022-09-09,1,,,,,ユニブルー,0
2349,9010401169581,新規,0,2022-09-09,2022-09-09,株式会社Ｌｏｏｐａｌ,,株式会社,東京都,港区,浜松町２丁目２番１５号浜松町ダイヤビル２Ｆ,,13,103,1050013,,,,,,,2022-09-09,1,,,,,ルーパル,0
2353,9010403028364,新規,0,2022-09-09,2022-09-09,合同会社ＢＨメディカル,,合同会社,東京都,港区,赤坂６丁目１９番５０－４１４号,,13,103,1070052,,,,,,,2022-09-09,1,,,,,,0
2354,9010403028397,新規,0,2022-09-09,2022-09-09,合同会社ＡＤＯＢＯ,,合同会社,東京都,港区,西麻布１丁目２番１３デュオ・スカーラ西麻布タワーＣＥＮＴＲＡＬ２０１号室,,13,103,1060031,,,,,,,2022-09-09,1,,,,,アドボ,0
2356,9010405021334,新規,0,2022-09-09,2022-09-09,一般社団法人ＨＤＧ３５,,その他の設立登記法人,東京都,港区,虎ノ門３丁目２２番１０－２０１号,,13,103,1050001,,,,,,,2022-09-09,1,,,,,エイチディージースリーファイブ,0
2358,9010501049337,新規,0,2022-09-09,2022-09-09,株式会社ＯＮ,,株式会社,東京都,台東区,上野６丁目８番１９号３０１号室,,13,106,1100005,,,,,,,2022-09-09,1,,,,,オン,0
2359,9010601061811,新規,0,2022-09-09,2022-09-09,鋭宇株式会社,,株式会社,東京都,墨田区,横川３丁目６番７号３－Ｊ室,,13,107,1300003,,,,,,,2022-09-09,1,,,,,エイウ,0
2360,9010601061836,新規,0,2022-09-09,2022-09-09,株式会社グローバルカーゴパートナーズ,,株式会社,東京都,墨田区,東向島２丁目１６番１４号,,13,107,1310032,,,,,,,2022-09-09,1,,,,,グローバルカーゴパートナーズ,0
2361,9010603009718,新規,0,2022-09-09,2022-09-09,すまいるん合同会社,,合同会社,東京都,墨田区,緑２丁目２－２－２０１Ｙ’ｓＳＱＵＡＲＥ両国,,13,107,1300021,,,,,,,2022-09-09,1,,,,,スマイルン,0
2362,9010603009726,新規,0,2022-09-09,2022-09-09,合同会社コ・クリエーション,,合同会社,東京都,江東区,塩浜１丁目４番３３号８３３,,13,108,1350043,,,,,,,2022-09-09,1,,,,,コクリエーション,0
2365,9010803004279,新規,0,2022-09-09,2022-09-09,Ｍ．Ｒ．Ｙ合同会社,,合同会社,東京都,大田区,大森南２丁目４番１６号紅荘２０１号室,,13,111,1430013,,,,,,,2022-09-09,1,,,,,エムアールワイ,0
2369,9010903007594,新規,0,2022-09-09,2022-09-09,合同会社Ｍａｎａ’Ｏｌａｎａ,,合同会社,東京都,世田谷区,等々力５丁目３０番１６－１１２号,,13,112,1580082,,,,,,,2022-09-09,1,,,,,マナオラナ,0
2377,9011001149684,新規,0,2022-09-09,2022-09-09,株式会社プライムエステートジャパン,,株式会社,東京都,渋谷区,神宮前１丁目５番８号,,13,113,1500001,,,,,,,2022-09-09,1,,,,,プライムエステートジャパン,0
2392,9011105010395,新規,0,2022-09-09,2022-09-09,医療法人社団きんせい湯,,その他の設立登記法人,東京都,新宿区,中里町１３番地イーストハウス神楽坂１階,,13,104,1620804,,,,,,,2022-09-09,1,,,,,キンセイユ,0
2394,9011401024529,新規,0,2022-09-09,2022-09-09,ＫＣクラシック株式会社,,株式会社,東京都,板橋区,大和町２番３号港荘２０１,,13,119,1730012,,,,,,,2022-09-09,1,,,,,ケーシークラシック,0
2398,9011503005278,新規,0,2022-09-09,2022-09-09,合同会社よつば,,合同会社,東京都,北区,浮間４丁目３１番７号,,13,117,1150051,,,,,,,2022-09-09,1,,,,,ヨツバ,0
2399,9011701025573,新規,0,2022-09-09,2022-09-09,ａｎｔｈｅｍ株式会社,,株式会社,東京都,江戸川区,西小岩１丁目３０番１１－９０２号ハイホーム沖田,,13,123,1330057,,,,,,,2022-09-09,1,,,,,アンセム,0
2401,9011801041256,新規,0,2022-09-09,2022-09-09,ティーエス警備株式会社,,株式会社,東京都,葛飾区,新宿３丁目５番１－１０５号,,13,122,1250051,,,,,,,2022-09-09,1,,,,,ティーエスケイビ,0
2403,9011803005250,新規,0,2022-09-09,2022-09-09,合同会社ニサド,,合同会社,東京都,葛飾区,立石６丁目３１番９号２Ｆ,,13,122,1240012,,,,,,,2022-09-09,1,,,,,ニサド,0
2404,9012301013126,新規,0,2022-09-09,2022-09-09,株式会社リアクティブ,,株式会社,東京都,町田市,原町田１丁目１４番４号グランドール町田Ｂ１０２号室,,13,209,1940013,,,,,,,2022-09-09,1,,,,,リアクティブ,0
2424,9020003022337,新規,0,2022-09-09,2022-09-09,合同会社サンヘリオス,,合同会社,神奈川県,川崎市多摩区,宿河原７丁目４番８号,,14,135,2140021,,,,,,,2022-09-09,1,,,,,サンヘリオス,0
2425,9020003022361,新規,0,2022-09-09,2022-09-09,麟閣合同会社,,合同会社,神奈川県,川崎市川崎区,伊勢町１３番７－１１号,,14,131,2100805,,,,,,,2022-09-09,1,,,,,リンカク,0
2426,9020005015660,新規,0,2022-09-09,2022-09-09,一般社団法人日本ストーリーコーチング協会,,その他の設立登記法人,神奈川県,横浜市港北区,師岡町２７９番地２３１,,14,109,2220002,,,,,,,2022-09-09,1,,,,,ニホンストーリーコーチングキョウカイ,0
2444,9040001125024,新規,0,2022-09-09,2022-09-09,株式会社ＪＢＨ,,株式会社,千葉県,柏市,豊四季３３７番地３２,,12,217,2770863,,,,,,,2022-09-09,1,,,,,,0
2448,9040003020743,新規,0,2022-09-09,2022-09-09,遠生国際合同会社,,合同会社,千葉県,佐倉市,表町３丁目８番１０号川島ビル３０３０号室,,12,212,2850811,,,,,,,2022-09-09,1,,,,,エンセイコクサイ,0
2449,9040003020784,新規,0,2022-09-09,2022-09-09,合同会社カヴィ・ソリューション,,合同会社,千葉県,成田市,吉岡１２１７－２９５飯塚アパートＡ－２,,12,211,2870225,,,,,,,2022-09-09,1,,,,,カヴィソリューション,0
2450,9050001051665,新規,0,2022-09-09,2022-09-09,株式会社アットエージェンシー,,株式会社,茨城県,神栖市,太田４５６６番地５,,08,232,3140254,,,,,,,2022-09-09,1,,,,,アットエージェンシー,0
2452,9050003006832,新規,0,2022-09-09,2022-09-09,合同会社オールラウンド,,合同会社,茨城県,稲敷郡阿見町,本郷３丁目１４番地１,,08,443,3001159,,,,,,,2022-09-09,1,,,,,オールラウンド,0
2465,9080405007483,新規,0,2022-09-09,2022-09-09,ＮＰＯ法人ＬＯＫＡＨＩ,,その他の設立登記法人,静岡県,浜松市浜北区,中瀬２６５４番地の１,,22,136,4340012,,,,,,,2022-09-09,1,,,,,ロカヒ,0
2475,9110001036957,新規,0,2022-09-09,2022-09-09,リアライズ・ホープ株式会社,,株式会社,新潟県,十日町市,松代５９２６番地１６,,15,210,9421526,,,,,,,2022-09-09,1,,,,,リアライズホープ,0
2487,9120001248733,新規,0,2022-09-09,2022-09-09,株式会社ＵＴ,,株式会社,大阪府,大阪市北区,梅田１丁目１番地３号大阪駅前第３ビル２９階１－１－１号室,,27,127,5300001,,,,,,,2022-09-09,1,,,,,ユーティ,0
2488,9120001248758,新規,0,2022-09-09,2022-09-09,株式会社ＢＡＮＫＯＦＹＯＵＴＨ,,株式会社,大阪府,大阪市北区,豊崎３丁目１５番５号ＴＫビル,,27,127,5310072,,,,,,,2022-09-09,1,,,,,バンクオブユース,0
2492,9120005023182,新規,0,2022-09-09,2022-09-09,一般社団法人からだクリエイト,,その他の設立登記法人,大阪府,大阪市北区,東天満１丁目６番１２号２階,,27,127,5300044,,,,,,,2022-09-09,1,,,,,カラダクリエイト,0
2500,9122001036218,新規,0,2022-09-09,2022-09-09,株式会社ＤＬグロース,,株式会社,大阪府,柏原市,旭ケ丘３丁目１５番３４号,,27,221,5820026,,,,,,,2022-09-09,1,,,,,ディーエルグロース,0
2505,9130001072579,新規,0,2022-09-09,2022-09-09,株式会社トーコーテック,,株式会社,京都府,宇治市,伊勢田町遊田６９番地３,,26,204,6110043,,,,,,,2022-09-09,1,,,,,トーコーテック,0
2511,9140003018109,新規,0,2022-09-09,2022-09-09,合資会社杉山,,合資会社,兵庫県,宝塚市,中山桜台３丁目８番１号,,28,214,6650877,,,,,,,2022-09-09,1,,,,,スギヤマ,0
2512,9150001025799,新規,0,2022-09-09,2022-09-09,株式会社メイコー,,株式会社,奈良県,生駒市,小瀬町８３７番地３,,29,209,6300223,,,,,,,2022-09-09,1,,,,,メイコー,0
2519,9180001152938,新規,0,2022-09-09,2022-09-09,株式会社日豊商事,,株式会社,愛知県,名古屋市緑区,滝ノ水３丁目４０１番地シティコーポ第二滝の水４棟３０５号,,23,114,4580021,,,,,,,2022-09-09,1,,,,,ニッポウショウジ,0
2520,9180001152954,新規,0,2022-09-09,2022-09-09,株式会社Ｘアーキテクツ,,株式会社,愛知県,名古屋市中区,栄１丁目１８番９号,,23,106,4600008,,,,,,,2022-09-09,1,,,,,クロスアーキテクツ,0
2521,9180001152962,新規,0,2022-09-09,2022-09-09,株式会社トトノウ,,株式会社,愛知県,東海市,加木屋町三ツ池１１番地３４,,23,222,4770032,,,,,,,2022-09-09,1,,,,,トトノウ,0
2525,9180301036592,新規,0,2022-09-09,2022-09-09,株式会社ＤＯＵＢＬＥ　ＳＴＡＮＤＡＲＤ,,株式会社,愛知県,刈谷市,井ケ谷町池之浦８６番地４,,23,210,4480001,,,,,,,2022-09-09,1,,,,,ダブルスタンダード,0
2526,9180301036601,新規,0,2022-09-09,2022-09-09,株式会社マルテンライフクリエイト,,株式会社,愛知県,豊田市,大林町１６丁目１８番地３,,23,211,4730902,,,,,,,2022-09-09,1,,,,,マルテンライフクリエイト,0
2527,9180301036618,新規,0,2022-09-09,2022-09-09,株式会社時悠建築舎,,株式会社,愛知県,豊橋市,多米中町２丁目１８番地の２,,23,201,4400027,,,,,,,2022-09-09,1,,,,,ジユウケンチクシャ,0
2534,9200001040438,新規,0,2022-09-09,2022-09-09,ピースネット株式会社,,株式会社,岐阜県,揖斐郡大野町,大字牛洞６７６番地３,,21,403,5010561,,,,,,,2022-09-09,1,,,,,ピースネット,0
2542,9210001019084,新規,0,2022-09-09,2022-09-09,株式会社ｂｌｉｓｓ,,株式会社,福井県,あわら市,東山第３５号１０番地,,18,208,9190734,,,,,,,2022-09-09,1,,,,,ブリス,0
2553,9270001008627,新規,0,2022-09-09,2022-09-09,株式会社ＣＡＴＣＨ　ＴＨＥ　ＳＴＡＲ,,株式会社,鳥取県,境港市,竹内団地２５２番地１境夢みなとターミナル,,31,204,6840046,,,,,,,2022-09-09,1,,,,,キャッチザスター,0
2556,9290001098856,新規,0,2022-09-09,2022-09-09,株式会社サンコー産業,,株式会社,福岡県,福岡市南区,横手３丁目１０番２９号,,40,134,8111311,,,,,,,2022-09-09,1,,,,,サンコーサンギョウ,0
2558,9290003012906,新規,0,2022-09-09,2022-09-09,合同会社はす,,合同会社,福岡県,福岡市博多区,竹丘町２丁目１番１４号プレアール南福岡ＩＩ４０５号,00127795,40,132,8120878,,,,,,,2022-09-09,1,,,,,ハス,0
2565,9320001019321,新規,0,2022-09-09,2022-09-09,株式会社Ｎｅｉｇｈｂｏｒ　Ｆｏｏｄｓ,,株式会社,大分県,大分市,中島中央３丁目４番１８号,,44,201,8700049,,,,,,,2022-09-09,1,,,,,ネイバーフーズ,0
2567,9340003003899,新規,0,2022-09-09,2022-09-09,合同会社トゥモロー,,合同会社,鹿児島県,鹿児島市,西田３丁目３５番１２号エクセレンス山田１０３号,,46,201,8900046,,,,,,,2022-09-09,1,,,,,トゥモロー,0
2570,9360003012262,新規,0,2022-09-09,2022-09-09,合同会社一成,,合同会社,沖縄県,石垣市,字真栄里４７８番地１マンションてぃーだ６０２号室,,47,207,9070002,,,,,,,2022-09-09,1,,,,,イッセイ,0
2571,9360003012270,新規,0,2022-09-09,2022-09-09,合同会社沖奏設備,,合同会社,沖縄県,宜野湾市,伊佐２丁目８番１７号,,47,205,9012221,,,,,,,2022-09-09,1,,,,,オキソウセツビ,0
2575,9380001033102,新規,0,2022-09-09,2022-09-09,株式会社ＮｏＭＡラボ,,株式会社,福島県,双葉郡浪江町,大字権現堂字新町２８－１,,07,547,9791521,,,,,,,2022-09-09,1,,,,,ノマラボ,0
2582,9430001087423,新規,0,2022-09-09,2022-09-09,株式会社ペガサス,,株式会社,北海道,札幌市中央区,南五条東３丁目１１番地１札幌ビオス館１１０８号,,01,101,0600055,,,,,,,2022-09-09,1,,,,,ペガサス,0
2583,9430001087456,新規,0,2022-09-09,2022-09-09,株式会社Ｄｉｏｓ　Ｈｏｌｄｉｎｇｓ,,株式会社,北海道,札幌市東区,北六条東３丁目３番地１,,01,103,0600906,,,,,,,2022-09-09,1,,,,,ディオスホールディングス,0
2584,9430001087472,新規,0,2022-09-09,2022-09-09,株式会社バンデス,,株式会社,北海道,札幌市南区,藤野一条５丁目１２番２１号,,01,106,0612281,,,,,,,2022-09-09,1,,,,,バンデス,0
2591,9480003001872,新規,0,2022-09-09,2022-09-09,合同会社四国資源サービス,,合同会社,徳島県,徳島市,北田宮４丁目１番４４号,,36,201,7700003,,,,,,,2022-09-09,1,,,,,シコクシゲンサービス,0
2596,9500001024443,新規,0,2022-09-09,2022-09-09,コーエキホールディングス株式会社,,株式会社,愛媛県,松山市,畑寺３丁目１１番２８号,,38,201,7900913,,,,,,,2022-09-09,1,,,,,コーエキホールディングス,0
