sequenceNumber,corporateNumber,process,correct,updateDate,changeDate,name,nameImageId,kind,prefectureName,cityName,streetNumber,addressImageId,prefectureCode,cityCode,postCode,addressOutside,addressOutsideImageId,closeDate,closeCause,successorCorporateNumber,changeCause,assignmentDate,latest,enName,enPrefectureName,enCityName,enAddressOutside,furigana,hihyoji
1,1000020119083,新規,0,2023-04-11,2023-04-11,上尾伊奈資源循環組合,,地方公共団体,埼玉県,上尾市,大字平塚９５１番地２,,11,219,3620011,,,,,,,2023-04-11,1,,,,,アゲオイナシゲンジュンカンクミアイ,0
16,1010001234339,新規,0,2023-04-11,2023-04-11,ハイテック株式会社,,株式会社,東京都,中央区,勝どき６丁目３番２－２８１７号,,13,102,1040054,,,,,,,2023-04-11,1,,,,,ハイテック,0
17,1010001234347,新規,0,2023-04-11,2023-04-11,株式会社アイアンマン．,,株式会社,東京都,千代田区,二番町１番地２・番町ハイム４Ｆ,,13,101,1020084,,,,,,,2023-04-11,1,,,,,アイアンマン,0
18,1010001234371,新規,0,2023-04-11,2023-04-11,株式会社アミティエ,,株式会社,東京都,文京区,白山１丁目２６番５号,,13,105,1130001,,,,,,,2023-04-11,1,,,,,アミティエ,0
19,1010001234388,新規,0,2023-04-11,2023-04-11,スプリングプラス・コンサルティング株式会社,,株式会社,東京都,千代田区,神田淡路町１丁目９番５号天翔御茶ノ水ビル６階６０７号,,13,101,1010063,,,,,,,2023-04-11,1,,,,,スプリングプラスコンサルティング,0
25,1010401173624,新規,0,2023-04-11,2023-04-11,Ｔｏｍｍｙ’ｓ　Ｏｆｆｉｃｅ株式会社,,株式会社,東京都,港区,赤坂９丁目７番７－８０１号,,13,103,1070052,,,,,,,2023-04-11,1,,,,,トミーズオフィス,0
26,1010401173632,新規,0,2023-04-11,2023-04-11,カタチ株式会社,,株式会社,東京都,港区,南青山４丁目１８番１１号フォレストヒルズイーストウィング２階,,13,103,1070062,,,,,,,2023-04-11,1,,,,,カタチ,0
28,1010501050277,新規,0,2023-04-11,2023-04-11,オーロラホールディングス株式会社,,株式会社,東京都,台東区,上野３丁目２３番１１号,,13,106,1100005,,,,,,,2023-04-11,1,,,,,オーロラホールディングス,0
29,1010501050285,新規,0,2023-04-11,2023-04-11,株式会社ＬＪＲ,,株式会社,東京都,台東区,蔵前３丁目１９番８－７０３号シンエイマンション第２蔵前,,13,106,1110051,,,,,,,2023-04-11,1,,,,,エルジェーアール,0
30,1010503006946,新規,0,2023-04-11,2023-04-11,Ｔｈａｉ　Ｔｏｗｎ合同会社,,合同会社,東京都,台東区,鳥越１丁目２７番２号プレストアイディ秋葉原３０１,,13,106,1110054,,,,,,,2023-04-11,1,,,,,タイタウン,0
38,1010605004187,新規,0,2023-04-11,2023-04-11,一般財団法人デジタル政策財団,,その他の設立登記法人,東京都,墨田区,文花１丁目１８番１３号,,13,107,1310044,,,,,,,2023-04-11,1,,,,,デジタルセイサクザイダン,0
42,1010901052856,新規,0,2023-04-11,2023-04-11,株式会社ＧＩＩＩＶＥＲ,,株式会社,東京都,世田谷区,三軒茶屋１丁目３０番１１―４０２号,,13,112,1540024,,,,,,,2023-04-11,1,,,,,ジーバー,0
44,1010905004465,新規,0,2023-04-11,2023-04-11,一般社団法人日本経営サポート,,その他の設立登記法人,東京都,世田谷区,代田３丁目２８番９号,,13,112,1550033,,,,,,,2023-04-11,1,,,,,ニホンケイエイサポート,0
51,1011001153660,新規,0,2023-04-11,2023-04-11,株式会社Ｌｅｖｅｒａｇｅ,,株式会社,東京都,渋谷区,本町１丁目１６番７号スターハイツ初台２０１,,13,113,1510071,,,,,,,2023-04-11,1,,,,,,0
52,1011001153685,新規,0,2023-04-11,2023-04-11,株式会社ルックスケアホールディングス,,株式会社,東京都,渋谷区,宇田川町２３番３号渋谷第一勧銀共同ビル６Ｆ,,13,113,1500042,,,,,,,2023-04-11,1,,,,,ルックスケアホールディングス,0
53,1011001153693,新規,0,2023-04-11,2023-04-11,株式会社ＰＵＲＰＬＥ,,株式会社,東京都,渋谷区,恵比寿２丁目２８番１０号ＳｈｕＢＬＤＧ２９８５,,13,113,1500013,,,,,,,2023-04-11,1,,,,,パープル,0
54,1011001153702,新規,0,2023-04-11,2023-04-11,うちぷら株式会社,,株式会社,東京都,渋谷区,道玄坂１丁目１０番８号渋谷道玄坂東急ビル２Ｆ－Ｃ,,13,113,1500043,,,,,,,2023-04-11,1,,,,,ウチプラ,0
60,1011101102484,新規,0,2023-04-11,2023-04-11,株式会社ＯＲＡＮＧＥ,,株式会社,東京都,新宿区,西新宿３丁目３番１３号西新宿水間ビル２Ｆ,,13,104,1600023,,,,,,,2023-04-11,1,,,,,オレンジ,0
61,1011101102492,新規,0,2023-04-11,2023-04-11,ＰＨＯ　ＱＵＹＥＴ株式会社,,株式会社,東京都,新宿区,高田馬場１丁目１７番１８号ＳＴ高田馬場ビル地下１階,,13,104,1690075,,,,,,,2023-04-11,1,,,,,フォークェット,0
65,1011103012921,新規,0,2023-04-11,2023-04-11,合同会社ｇｅａｒ,,合同会社,東京都,新宿区,西新宿３丁目３番１３号西新宿水間ビル２Ｆ,,13,104,1600023,,,,,,,2023-04-11,1,,,,,ギア,0
70,1011401025039,新規,0,2023-04-11,2023-04-11,ＱＵＡＲＩＳ株式会社,,株式会社,東京都,板橋区,中台１丁目５５番１０号スターハイツ１０３,,13,119,1740064,,,,,,,2023-04-11,1,,,,,クオリス,0
74,1011501029154,新規,0,2023-04-11,2023-04-11,盛元国際株式会社,,株式会社,東京都,荒川区,東日暮里３丁目９番４号ワコーレ東日暮里ＩＩ１Ｆ－Ａ,00130047,13,118,1160014,,,,,,,2023-04-11,1,,,,,モリモトコクサイ,0
75,1011503005558,新規,0,2023-04-11,2023-04-11,ｓｕｉ合同会社,,合同会社,東京都,荒川区,南千住７丁目２２番３－１１０３号,,13,118,1160003,,,,,,,2023-04-11,1,,,,,スイ,0
82,1011803005596,新規,0,2023-04-11,2023-04-11,キチ合同会社,,合同会社,東京都,葛飾区,新小岩１丁目４２番１１号中屋ビル４０２号室,,13,122,1240024,,,,,,,2023-04-11,1,,,,,キチ,0
83,1012301013389,新規,0,2023-04-11,2023-04-11,株式会社ブルーライオン,,株式会社,東京都,町田市,金井２丁目３８－１０,,13,209,1950072,,,,,,,2023-04-11,1,,,,,ブルーライオン,0
85,1012401040358,新規,0,2023-04-11,2023-04-11,株式会社ＢＩＡＭ,,株式会社,東京都,府中市,本町１丁目１０番地の１０クリオ府中３０２,,13,206,1830027,,,,,,,2023-04-11,1,,,,,ビアム,0
86,1012401040390,新規,0,2023-04-11,2023-04-11,ＯｐｅｎＰｏｌｉｃｙ株式会社,,株式会社,東京都,三鷹市,下連雀３丁目６番５３号サニーサイドヴィラ三鷹１Ｆ,,13,204,1810013,,,,,,,2023-04-11,1,,,,,オープンポリシー,0
88,1012701017576,新規,0,2023-04-11,2023-04-11,株式会社アイカタ,,株式会社,東京都,東村山市,栄町２丁目９－３２晃正ビル３Ｆ,,13,213,1890013,,,,,,,2023-04-11,1,,,,,アイカタ,0
89,1012801022253,新規,0,2023-04-11,2023-04-11,株式会社オザワアソシエイツ,,株式会社,東京都,東大和市,清水３丁目８００番地の１,,13,220,2070004,,,,,,,2023-04-11,1,,,,,オザワアソシエイツ,0
91,1013101009148,新規,0,2023-04-11,2023-04-11,株式会社ＭＡＳＡＲＵ,,株式会社,東京都,青梅市,友田町３丁目９３番地の１ロイヤルステージ小作ＩＩ－１０５号,00130061,13,205,1980051,,,,,,,2023-04-11,1,,,,,マサル,0
108,1020003023706,新規,0,2023-04-11,2023-04-11,Ｈ２プラス合同会社,,合同会社,神奈川県,横浜市西区,北幸２丁目１０番地２８むつみビル３Ｆ,,14,103,2200004,,,,,,,2023-04-11,1,,,,,エイチツープラス,0
109,1020005015932,新規,0,2023-04-11,2023-04-11,ＮＰＯ法人オハイアリイ,,その他の設立登記法人,神奈川県,横浜市磯子区,中浜町１３番８号,,14,107,2350014,,,,,,,2023-04-11,1,,,,,オハイアリイ,0
110,1020005015940,新規,0,2023-04-11,2023-04-11,一般社団法人ウエインズ基金,,その他の設立登記法人,神奈川県,横浜市中区,山下町３３番地,,14,104,2310023,,,,,,,2023-04-11,1,,,,,ウエインズキキン,0
114,1021001078659,新規,0,2023-04-11,2023-04-11,株式会社ｓｉｎｃａ．ｉｓｍ,,株式会社,神奈川県,鎌倉市,岩瀬３１０番地,,14,204,2470051,,,,,,,2023-04-11,1,,,,,シンカイズム,0
116,1021003012970,新規,0,2023-04-11,2023-04-11,合同会社Ｓｔｕｄｉｏ　ＳＩＧＭＡ,,合同会社,神奈川県,相模原市南区,東林間１丁目１５番１号相模大野ハイツＡ－４１２号室,,14,153,2520311,,,,,,,2023-04-11,1,,,,,スタジオシグマ,0
117,1021005012779,新規,0,2023-04-11,2023-04-11,医療法人社団誠春会,,その他の設立登記法人,神奈川県,厚木市,妻田南１丁目１６番３６号１階,,14,212,2430814,,,,,,,2023-04-11,1,,,,,セイシュンカイ,0
120,1030001153157,新規,0,2023-04-11,2023-04-11,株式会社遠藤建築板金,,株式会社,埼玉県,坂戸市,大字中小坂９６３番地２,,11,239,3500206,,,,,,,2023-04-11,1,,,,,エンドウケンチクバンキン,0
121,1030001153181,新規,0,2023-04-11,2023-04-11,株式会社ＦａｉｔｈＦｒｅｅｌ,,株式会社,埼玉県,草加市,氷川町２１４７番地１１,,11,221,3400034,,,,,,,2023-04-11,1,,,,,フェイスフリール,0
122,1030001153198,新規,0,2023-04-11,2023-04-11,株式会社エスケイ・パートナーズ,,株式会社,埼玉県,三郷市,早稲田２丁目２０番地１１,,11,237,3410018,,,,,,,2023-04-11,1,,,,,エスケイパートナーズ,0
123,1030001153207,新規,0,2023-04-11,2023-04-11,矢島・水道株式会社,,株式会社,埼玉県,幸手市,大字千塚２０３０番地３,,11,240,3400161,,,,,,,2023-04-11,1,,,,,ヤジマスイドウ,0
124,1030001153248,新規,0,2023-04-11,2023-04-11,株式会社栄心,,株式会社,埼玉県,春日部市,六軒町５２７番地１,,11,214,3440012,,,,,,,2023-04-11,1,,,,,エイシン,0
125,1030001153314,新規,0,2023-04-11,2023-04-11,株式会社コ・ネクト,,株式会社,埼玉県,さいたま市浦和区,領家５丁目１－１０メゾン北浦和３０９,,11,107,3300072,,,,,,,2023-04-11,1,,,,,コネクト,0
128,1030003021502,新規,0,2023-04-11,2023-04-11,虹の森合同会社,,合同会社,埼玉県,所沢市,東所沢４丁目１６番１２号,,11,208,3590021,,,,,,,2023-04-11,1,,,,,ニジノモリ,0
129,1030003021519,新規,0,2023-04-11,2023-04-11,合同会社アットホーム草加,,合同会社,埼玉県,草加市,手代３丁目５６番１号,,11,221,3400021,,,,,,,2023-04-11,1,,,,,アットホームソウカ,0
130,1030003021527,新規,0,2023-04-11,2023-04-11,ＭＵＮＫＨ合同会社,,合同会社,埼玉県,坂戸市,南町３４番７号ＫＩＶオフィス南町Ｃ号室,,11,239,3500233,,,,,,,2023-04-11,1,,,,,ムンフ,0
131,1030003021535,新規,0,2023-04-11,2023-04-11,３３３合同会社,,合同会社,埼玉県,さいたま市西区,大字西遊馬２０３６番地８,,11,101,3310061,,,,,,,2023-04-11,1,,,,,バーバーバー,0
132,1030005021228,新規,0,2023-04-11,2023-04-11,医療法人睦美会,,その他の設立登記法人,埼玉県,さいたま市大宮区,桜木町１丁目４番地４五十嵐ビル３階,,11,103,3300854,,,,,,,2023-04-11,1,,,,,ムツミカイ,0
135,1040001127787,新規,0,2023-04-11,2023-04-11,株式会社エスベア,,株式会社,千葉県,山武郡横芝光町,宮川１２０６５番地６,,12,410,2891727,,,,,,,2023-04-11,1,,,,,エスベア,0
136,1040001127845,新規,0,2023-04-11,2023-04-11,ホンビノスライン株式会社,,株式会社,千葉県,野田市,中野台鹿島町７番地の１１,,12,208,2780036,,,,,,,2023-04-11,1,,,,,ホンビノスライン,0
137,1040001127878,新規,0,2023-04-11,2023-04-11,株式会社エヌワン,,株式会社,千葉県,成田市,不動ケ岡９５番地１フローラ不動ケ岡弐番館１０１号,,12,211,2860044,,,,,,,2023-04-11,1,,,,,エヌワン,0
138,1040001127894,新規,0,2023-04-11,2023-04-11,株式会社Ｓ．Ｓ,,株式会社,千葉県,流山市,西初石３丁目６番地の２３,,12,220,2700121,,,,,,,2023-04-11,1,,,,,エスエス,0
140,1040003022367,新規,0,2023-04-11,2023-04-11,合同会社コードコネクト,,合同会社,千葉県,千葉市美浜区,若葉３丁目１番地１８幕張ベイパーククロスレジデンスＳ２－１,,12,106,2610014,,,,,,,2023-04-11,1,,,,,コードコネクト,0
144,1050001052646,新規,0,2023-04-11,2023-04-11,ＧＵＬＡＢ　ＴＲＡＤＩＮＧ株式会社,,株式会社,茨城県,坂東市,岩井１６１３番地１,,08,228,3060631,,,,,,,2023-04-11,1,,,,,グラブトレーディング,0
145,1050001052662,新規,0,2023-04-11,2023-04-11,株式会社ポイント,,株式会社,茨城県,水戸市,元吉田町２６２３番地１８－Ｅ２,,08,201,3100836,,,,,,,2023-04-11,1,,,,,ポイント,0
146,1050001052670,新規,0,2023-04-11,2023-04-11,株式会社ＯＲＩＧＩＮＡＬｓ,,株式会社,茨城県,取手市,米ノ井５３７－１,,08,217,3020033,,,,,,,2023-04-11,1,,,,,オリジナルズ,0
150,1050003007409,新規,0,2023-04-11,2023-04-11,ＳＥＮＯＮ　ＩＮＴＥＲＮＡＴＩＯＮＡＬ合同会社,,合同会社,茨城県,潮来市,日の出１丁目１２番地４２日の出サンハイツ１０１号室,,08,223,3112423,,,,,,,2023-04-11,1,,,,,セノンインターナショナル,0
153,1060003004504,新規,0,2023-04-11,2023-04-11,セツナ合同会社,,合同会社,栃木県,宇都宮市,緑５丁目３番３０号,,09,201,3210165,,,,,,,2023-04-11,1,,,,,セツナ,0
154,1070001040302,新規,0,2023-04-11,2023-04-11,株式会社シミシミデザイン,,株式会社,群馬県,太田市,大島町３４７番地３,,10,205,3730055,,,,,,,2023-04-11,1,,,,,シミシミデザイン,0
161,1100001036305,新規,0,2023-04-11,2023-04-11,株式会社ミワエンタープライズ,,株式会社,長野県,松本市,城山２１番１６号,,20,202,3900866,,,,,,,2023-04-11,1,,,,,ミワエンタープライズ,0
168,1110001037392,新規,0,2023-04-11,2023-04-11,株式会社ＤＥＮＳＨＩＲＯＵ,,株式会社,新潟県,上越市,東雲町２丁目７番３１号グリーンパレスＣ２０２号,,15,222,9420071,,,,,,,2023-04-11,1,,,,,デンシロウ,0
170,1110005016921,新規,0,2023-04-11,2023-04-11,妙高はねうま複業協同組合,,その他の設立登記法人,新潟県,妙高市,大字長森１８５４番,,15,217,9440073,,,,,,,2023-04-11,1,,,,,ミョウコウハネウマフクギョウ,0
177,1120001253749,新規,0,2023-04-11,2023-04-11,ＩＮＳＯＵ　ＤＲＥＡＭ株式会社,,株式会社,大阪府,大阪市西区,新町３丁目６番１０号,,27,106,5500013,,,,,,,2023-04-11,1,,,,,インソウドリーム,0
178,1120001253864,新規,0,2023-04-11,2023-04-11,潤億株式会社,,株式会社,大阪府,大阪市東成区,玉津１丁目１番２２号（１０３号室）,,27,115,5370023,,,,,,,2023-04-11,1,,,,,ジュンオク,0
179,1120001253880,新規,0,2023-04-11,2023-04-11,株式会社ＤＣＰ,,株式会社,大阪府,大阪市中央区,西心斎橋１丁目８番４号－６Ｆ,,27,128,5420086,,,,,,,2023-04-11,1,,,,,ディシーピー,0
180,1120001253922,新規,0,2023-04-11,2023-04-11,田宮地所株式会社,,株式会社,大阪府,大阪市東成区,中道３丁目１番６号,,27,115,5370025,,,,,,,2023-04-11,1,,,,,タミヤジショ,0
183,1120003023786,新規,0,2023-04-11,2023-04-11,ＡＬ合同会社,,合同会社,大阪府,大阪市天王寺区,勝山１丁目８－４－６０１,,27,109,5430043,,,,,,,2023-04-11,1,,,,,エイエル,0
184,1120003023803,新規,0,2023-04-11,2023-04-11,合同会社クチノギ,,合同会社,大阪府,大阪市都島区,都島南通１丁目２０番１３号,,27,102,5340023,,,,,,,2023-04-11,1,,,,,クチノギ,0
185,1120101067289,新規,0,2023-04-11,2023-04-11,株式会社Ｃ＆Ｃ,,株式会社,大阪府,堺市堺区,向陵中町３丁７－８－４０７,,27,141,5900024,,,,,,,2023-04-11,1,,,,,シーアンドシー,0
186,1120101067314,新規,0,2023-04-11,2023-04-11,株式会社Ａ‐ｓｔｅｐ,,株式会社,大阪府,岸和田市,中井町１丁目１２番８号,,27,202,5960003,,,,,,,2023-04-11,1,,,,,アステップ,0
187,1120103005156,新規,0,2023-04-11,2023-04-11,ａｔｅ合同会社,,合同会社,大阪府,堺市東区,菩提町５丁１７３－９,,27,143,5998103,,,,,,,2023-04-11,1,,,,,アテ,0
189,1120901047390,新規,0,2023-04-11,2023-04-11,株式会社ＯＨＡＮＡ,,株式会社,大阪府,高槻市,高見台２番１号,,27,207,5691020,,,,,,,2023-04-11,1,,,,,オハナ,0
190,1120903004588,新規,0,2023-04-11,2023-04-11,合同会社ゆあ,,合同会社,大阪府,摂津市,鳥飼西２丁目９番３３－１０３号,,27,224,5660072,,,,,,,2023-04-11,1,,,,,ユア,0
193,1122001036877,新規,0,2023-04-11,2023-04-11,株式会社クリアセット,,株式会社,大阪府,八尾市,長池町２丁目９９番１号,,27,212,5810836,,,,,,,2023-04-11,1,,,,,クリアセット,0
200,1140001129749,新規,0,2023-04-11,2023-04-11,スマート株式会社,,株式会社,兵庫県,赤穂市,南野中２０９番地１－１０２号,,28,212,6780176,,,,,,,2023-04-11,1,,,,,スマート,0
205,1140005026570,新規,0,2023-04-11,2023-04-11,一般社団法人コミュニケーションサポートハナトキ,,その他の設立登記法人,兵庫県,神戸市東灘区,本山南町４丁目１番５号,,28,101,6580015,,,,,,,2023-04-11,1,,,,,コミュニケーションサポートハナトキ,0
206,1150001026292,新規,0,2023-04-11,2023-04-11,株式会社サイバネティックス,,株式会社,奈良県,生駒郡平群町,椿台２丁目９番１０号,,29,342,6360943,,,,,,,2023-04-11,1,,,,,サイバネティックス,0
207,1150001026301,新規,0,2023-04-11,2023-04-11,株式会社もりかわ葬祭,,株式会社,奈良県,宇陀市,大宇陀西山４１５番地の１,,29,212,6332115,,,,,,,2023-04-11,1,,,,,モリカワソウサイ,0
208,1150003002928,新規,0,2023-04-11,2023-04-11,合同会社Ａ＆Ａ,,合同会社,奈良県,生駒郡三郷町,東信貴ケ丘３丁目１０番８号,,29,343,6360803,,,,,,,2023-04-11,1,,,,,エーアンドエー,0
228,1180001155584,新規,0,2023-04-11,2023-04-11,株式会社Ｈ．Ｌ．Ｅ．,,株式会社,愛知県,名古屋市西区,則武新町２丁目１１番５８号ライオンズガーデン則武１００４号,,23,104,4510051,,,,,,,2023-04-11,1,,,,,エイチエルイー,0
229,1180001155782,新規,0,2023-04-11,2023-04-11,株式会社Ａｇｎｅｓ,,株式会社,愛知県,海部郡蟹江町,城１丁目３０１番地,,23,425,4970040,,,,,,,2023-04-11,1,,,,,アグネス,0
231,1180003025083,新規,0,2023-04-11,2023-04-11,合同会社Ｓ‐ＳＴＥＰ,,合同会社,愛知県,津島市,今市場町２丁目１７番地１,,23,208,4960803,,,,,,,2023-04-11,1,,,,,エスステップ,0
232,1180003025091,新規,0,2023-04-11,2023-04-11,合同会社ＳＴＡＲ　ＴＵＰ,,合同会社,愛知県,北名古屋市,鹿田栄７１番地雅清苑３０１号,,23,234,4810004,,,,,,,2023-04-11,1,,,,,スタータップ,0
235,1190005011808,新規,0,2023-04-11,2023-04-11,一般社団法人みなみいせ元気ネット,,その他の設立登記法人,三重県,度会郡南伊勢町,船越１８３７番地１,,24,472,5160109,,,,,,,2023-04-11,1,,,,,ミナミイセゲンキネット,0
236,1200001041154,新規,0,2023-04-11,2023-04-11,セキストーンホールディングス株式会社,,株式会社,岐阜県,不破郡関ケ原町,大字関ケ原２６８２番地,,21,362,5031501,,,,,,,2023-04-11,1,,,,,セキストーンホールディングス,0
238,1200003005925,新規,0,2023-04-11,2023-04-11,ＣＺＥ合同会社,,合同会社,岐阜県,山県市,岩佐６９２番地２,,21,215,5012259,,,,,,,2023-04-11,1,,,,,シーゼットイー,0
239,1210005010088,新規,0,2023-04-11,2023-04-11,一般社団法人福井県相談支援専門員協会,,その他の設立登記法人,福井県,福井市,板垣３丁目１３３３第２Ｍビル２階,,18,201,9188104,,,,,,,2023-04-11,1,,,,,フクイケンソウダンシエンセンモンインキョウカイ,0
248,1250001020046,新規,0,2023-04-11,2023-04-11,株式会社Ｏｒｔｈｏ　Ｖｉｓｉｏｎ,,株式会社,山口県,周南市,大字須々万本郷１８６０番地,,35,215,7450122,,,,,,,2023-04-11,1,,,,,オーソヴィジョン,0
254,1260001037840,新規,0,2023-04-11,2023-04-11,株式会社Ｉｄｅａ,,株式会社,岡山県,高梁市,奥万田町３９０１Ａ１０１,,33,209,7160007,,,,,,,2023-04-11,1,,,,,アイデア,0
277,1310001018356,新規,0,2023-04-11,2023-04-11,株式会社ＳＡＫＵＲＡ,,株式会社,長崎県,対馬市,厳原町宮谷２３４番地,,42,209,8170011,,,,,,,2023-04-11,1,,,,,サクラ,0
278,1310003004544,新規,0,2023-04-11,2023-04-11,合同会社夕凪,,合同会社,長崎県,五島市,江川町８番地３１,,42,211,8530006,,,,,,,2023-04-11,1,,,,,,0
282,1340001025449,新規,0,2023-04-11,2023-04-11,株式会社ＣｏｒｅＷａ,,株式会社,鹿児島県,垂水市,市木９４２‐３４エクセル城山２０２,,46,214,8912103,,,,,,,2023-04-11,1,,,,,コレワ,0
286,1360005006823,新規,0,2023-04-11,2023-04-11,一般社団法人読谷山焼北窯,,その他の設立登記法人,沖縄県,中頭郡読谷村,字座喜味２６５３番地１,,47,324,9040301,,,,,,,2023-04-11,1,,,,,ヨミタンザンヤキキタガマ,0
290,1370001049825,新規,0,2023-04-11,2023-04-11,株式会社ＧＲＡＣＥ,,株式会社,宮城県,仙台市青葉区,荒巻神明町３番６号,,04,101,9810965,,,,,,,2023-04-11,1,,,,,グレイス,0
291,1370003006080,新規,0,2023-04-11,2023-04-11,合同会社神龍ワールド,,合同会社,宮城県,亘理郡亘理町,長瀞字鳥飼８４番地２,,04,361,9892341,,,,,,,2023-04-11,1,,,,,シンリュウワールド,0
296,1390001017219,新規,0,2023-04-11,2023-04-11,株式会社ＴＨＩＲＤ　ＳＰＡＣＥ　ＰＲＯＤＵＣＴＩＯＮ,,株式会社,山形県,東根市,神町北１丁目２番２４号２３１号室,,06,211,9993762,,,,,,,2023-04-11,1,,,,,サードスペースプロダクション,0
298,1390005008998,新規,0,2023-04-11,2023-04-11,一般社団法人天童市放課後児童クラブ連絡協議会,,その他の設立登記法人,山形県,天童市,本町１丁目１番２号,,06,210,9940034,,,,,,,2023-04-11,1,,,,,テンドウシホウカゴジドウクラブレンラクキョウギカイ,0
299,1400001016202,新規,0,2023-04-11,2023-04-11,株式会社シャムロック,,株式会社,岩手県,盛岡市,南大通２丁目４番３号,,03,201,0200874,,,,,,,2023-04-11,1,,,,,シャムロック,0
306,1430001088800,新規,0,2023-04-11,2023-04-11,フューチャークリエイションズ株式会社,,株式会社,北海道,札幌市中央区,南十一条西２２丁目２番３号,,01,101,0640811,,,,,,,2023-04-11,1,,,,,フューチャークリエイションズ,0
307,1430001088809,新規,0,2023-04-11,2023-04-11,株式会社ｓｍａｌｌｓｈ,,株式会社,北海道,札幌市東区,北二十三条東１８丁目３番２４号,,01,103,0650023,,,,,,,2023-04-11,1,,,,,スマーシュ,0
308,1430001088825,新規,0,2023-04-11,2023-04-11,株式会社門脇電気,,株式会社,北海道,札幌市南区,真駒内１６５番地１５,,01,106,0050861,,,,,,,2023-04-11,1,,,,,カドワキデンキ,0
310,1430003014911,新規,0,2023-04-11,2023-04-11,合同会社エムフォーム,,合同会社,北海道,札幌市東区,北十一条東１７丁目２番１０号,,01,103,0650011,,,,,,,2023-04-11,1,,,,,エムフォーム,0
315,1450001013954,新規,0,2023-04-11,2023-04-11,株式会社ＨＡＡＰ,,株式会社,北海道,深川市,鷹泊１９１２番地,,01,228,0740144,,,,,,,2023-04-11,1,,,,,ハープ,0
317,1460401001252,新規,0,2023-04-11,2023-04-11,株式会社オカダ,,株式会社,北海道,根室市,穂香９４番地３,,01,223,0870037,,,,,,,2023-04-11,1,,,,,オカダ,0
320,1470001019561,新規,0,2023-04-11,2023-04-11,株式会社ｓｔｕｄ,,株式会社,香川県,さぬき市,寒川町神前１５３４番地８,,37,206,7692323,,,,,,,2023-04-11,1,,,,,スタッド,0
323,1490003001763,新規,0,2023-04-11,2023-04-11,合同会社ＣＨＩＰ　ＩＮ,,合同会社,高知県,宿毛市,幸町４番３６号,,39,208,7880003,,,,,,,2023-04-11,1,,,,,チップイン,0
326,1500003003015,新規,0,2023-04-11,2023-04-11,四国森林整備機構合同会社,,合同会社,愛媛県,宇和島市,大浦甲２７１番地１,,38,203,7980002,,,,,,,2023-04-11,1,,,,,シコクシンリンセイビキコウ,0
328,1700150115286,新規,0,2023-04-11,2023-04-11,Ｓｈｅｎｚｈｅｎｓｈｉｃｈｕａｎｇｘｉｎｇｇｏｎｇｙｉｎｇｌｉａｎｙｏｕｘｉａｎｇｏｎｇｓｉ,,外国会社等,,,,,,,,Ｓｈｅｎｚｈｅｎｓｈｉ　ｌｏｎｇｇａｎｇｑｕ　ｌｏｎｇｇａｎｇｊｉｅｄａｏ　ｎａｎｌｉａｎｓｈｅｑｕ　ｌｏｎｇｇａｎｇｄａｄａｏ（ｌｏｎｇｇａｎｇｄｕａｎ）６０１８　ｈａｏ　ｆｕｊｉｚｈｉｄｉｄａｓｈａ　１　ｄｏｎｇ　２９２９Ａ３,,,,,,2023-04-11,1,,,,,シェンジェンシーチュワンシンゴンインリエンヨウシエンゴンスー,0
329,1700150115294,新規,0,2023-04-11,2023-04-11,ｚｈｅｎｇｚｈｏｕｎａｉｌｉｙａｓｈａｎｇｍａｏｙｏｕｘｉａｎｇｏｎｇｓｉ,,外国会社等,,,,,,,,（Ｚｈｅｎｇ　Ｄｏｎｇ）Ｎｏ．１２２５，１２ｔｈ　Ｆｌｏｏｒ，Ｂｌｏｃｋ　Ａ，Ｗｏｒｌｄ　Ｔｒａｄｅ　Ｃｅｎｔｅｒ，Ｎｏ．１６，Ｂｕｓｉｎｅｓｓ　Ｉｎｎｅｒ　Ｒｉｎｇ　Ｒｏａｄ　Ｚｈｅｎｇｚｈｏｕ　Ｃｉｔｙ　Ｚｈｅｎｇｚｈｏｕ　Ａｒｅａ　ｏｆ　Ｈｅｎａｎ　Ｐｉｌｏｔ　Ｆｒｅｅ　Ｔｒａｄｅ　Ｚｏｎｅ　Ｈｅｎａｎ　Ｐｒｏｖｉｎｃｅ　４５００４６　ＣＮ,,,,,,2023-04-11,1,,,,,ジョンジョウナイリーヤーシャンマオヨウシエンゴンスー,0
345,2010001234206,新規,0,2023-04-11,2023-04-11,株式会社ＷＴＧ,,株式会社,東京都,中央区,勝どき１丁目１３番６－６０７号,,13,102,1040054,,,,,,,2023-04-11,1,,,,,ダブルティージー,0
346,2010001234239,新規,0,2023-04-11,2023-04-11,株式会社エイジポップ,,株式会社,東京都,中央区,銀座１丁目２２番１１号銀座大竹ビジデンス２Ｆ,,13,102,1040061,,,,,,,2023-04-11,1,,,,,エイジポップ,0
347,2010001234338,新規,0,2023-04-11,2023-04-11,株式会社Ｔｏｐ　Ｔａｌｋ,,株式会社,東京都,千代田区,神田須田町１丁目３２番地４－１００１,,13,101,1010041,,,,,,,2023-04-11,1,,,,,トップトーク,0
348,2010001234354,新規,0,2023-04-11,2023-04-11,株式会社レゴリス,,株式会社,東京都,中央区,入船３丁目２番７号第二明治ビル５Ｆ－Ｂ,,13,102,1040042,,,,,,,2023-04-11,1,,,,,レゴリス,0
349,2010001234379,新規,0,2023-04-11,2023-04-11,ＳＵＮＮＹライフエナジー株式会社,,株式会社,東京都,千代田区,神田和泉町１番地６－１６ヤマトビル４０５,,13,101,1010024,,,,,,,2023-04-11,1,,,,,サニーライフエナジー,0
350,2010001234429,新規,0,2023-04-11,2023-04-11,Ｋｕｍａｍｅｎｓ株式会社,,株式会社,東京都,千代田区,内神田１丁目１１番１２号,,13,101,1010047,,,,,,,2023-04-11,1,,,,,クマメンズ,0
354,2010401173615,新規,0,2023-04-11,2023-04-11,株式会社ＮＥＷＢＹ　ＪＡＰＡＮ,,株式会社,東京都,港区,南麻布１丁目３番２２－４０１号,,13,103,1060047,,,,,,,2023-04-11,1,,,,,ニュービージャパン,0
355,2010401173623,新規,0,2023-04-11,2023-04-11,ＧＣＪＩ１１株式会社,,株式会社,東京都,港区,元赤坂１丁目１番８号株式会社赤坂国際会計内,,13,103,1070051,,,,,,,2023-04-11,1,,,,,ジーシージェイアイイレブン,0
359,2010403029856,新規,0,2023-04-11,2023-04-11,表参道ＲＥＰＰ１合同会社,,合同会社,東京都,港区,北青山３丁目１５番１３－５０３号,,13,103,1070061,,,,,,,2023-04-11,1,,,,,オモテサンドウアールイーピーピーワン,0
366,2010501050243,新規,0,2023-04-11,2023-04-11,株式会社漆・ＵＲＵＳＨＩ,,株式会社,東京都,台東区,蔵前４丁目１０番４号,,13,106,1110051,,,,,,,2023-04-11,1,,,,,ウルシ,0
367,2010503006937,新規,0,2023-04-11,2023-04-11,合同会社竜瑛,,合同会社,東京都,台東区,東上野４丁目６番７号,,13,106,1100015,,,,,,,2023-04-11,1,,,,,リュウエイ,0
368,2010503006945,新規,0,2023-04-11,2023-04-11,合同会社Ｋａｉｅｉ,,合同会社,東京都,台東区,三ノ輪２丁目１０番１５号,,13,106,1100011,,,,,,,2023-04-11,1,,,,,カイエイ,0
378,2010801033831,新規,0,2023-04-11,2023-04-11,株式会社Ｒ‐ＴＲＵＣＫ,,株式会社,東京都,大田区,山王１丁目３１番２号,,13,111,1430023,,,,,,,2023-04-11,1,,,,,アールトラック,0
384,2010901052830,新規,0,2023-04-11,2023-04-11,株式会社ＫＥＹｓ,,株式会社,東京都,世田谷区,中町３丁目１５番１７号,,13,112,1580091,,,,,,,2023-04-11,1,,,,,キーズ,0
387,2010905004464,新規,0,2023-04-11,2023-04-11,一般社団法人日本プロンプトエンジニアリング協会,,その他の設立登記法人,東京都,世田谷区,三宿１丁目１４番１７号,,13,112,1540005,,,,,,,2023-04-11,1,,,,,ニホンプロンプトエンジニアリングキョウカイ,0
399,2011001153569,新規,0,2023-04-11,2023-04-11,株式会社フェイズデザイン,,株式会社,東京都,目黒区,上目黒３丁目１０番３号,,13,110,1530051,,,,,,,2023-04-11,1,,,,,フェイズデザイン,0
400,2011001153668,新規,0,2023-04-11,2023-04-11,株式会社ブリッジインベストメント,,株式会社,東京都,渋谷区,東１丁目２番２０－２１０３号,,13,113,1500011,,,,,,,2023-04-11,1,,,,,ブリッジインベストメント,0
401,2011001153684,新規,0,2023-04-11,2023-04-11,株式会社ＦＩＮＫ,,株式会社,東京都,渋谷区,千駄ヶ谷１丁目１２番１号,,13,113,1510051,,,,,,,2023-04-11,1,,,,,フィンク,0
404,2011003016617,新規,0,2023-04-11,2023-04-11,Ｑｒｅｏｓｉｔｙ合同会社,,合同会社,東京都,渋谷区,神宮前６丁目２９番４号原宿ｋｏｍｉｙａビル６階,,13,113,1500001,,,,,,,2023-04-11,1,,,,,クリオシティ,0
405,2011005010023,新規,0,2023-04-11,2023-04-11,一般社団法人ゲーム・アニメ・イラストレーション協会,,その他の設立登記法人,東京都,渋谷区,幡ヶ谷２丁目９番１１号幡ヶ谷ＤＫビル２Ｆ,,13,113,1510072,,,,,,,2023-04-11,1,,,,,ゲームアニメイラストレーションキョウカイ,0
415,2011101102442,新規,0,2023-04-11,2023-04-11,株式会社エムワンピーツー,,株式会社,東京都,新宿区,西新宿３丁目３番１３号西新宿水間ビル２Ｆ,,13,104,1600023,,,,,,,2023-04-11,1,,,,,エムワンピーツー,0
416,2011101102475,新規,0,2023-04-11,2023-04-11,株式会社Ｐａｃｋｉｎｇ　Ｌａｂｏ,,株式会社,東京都,新宿区,大久保２丁目１番８号プラザ新大樹ビル本棟５,,13,104,1690072,,,,,,,2023-04-11,1,,,,,パッキングラボ,0
417,2011105010617,新規,0,2023-04-11,2023-04-11,一般社団法人言語文化教育研究学会,,その他の設立登記法人,東京都,新宿区,西早稲田１丁目７番１４号早稲田大学日本語教育研究センター寅丸真澄研究室内,,13,104,1690051,,,,,,,2023-04-11,1,,,,,ゲンゴブンカキョウイクケンキュウガッカイ,0
423,2011501029153,新規,0,2023-04-11,2023-04-11,株式会社ＴＥＡＲＯＯＭ　Ｙ．Ｈ,,株式会社,東京都,荒川区,町屋３丁目６番１号,,13,118,1160001,,,,,,,2023-04-11,1,,,,,ティールームワイエイチ,0
424,2011503005557,新規,0,2023-04-11,2023-04-11,中澤合同会社,,合同会社,東京都,荒川区,町屋３丁目２３番１８号東和ビル５０１,,13,118,1160001,,,,,,,2023-04-11,1,,,,,ナカザワ,0
427,2012303001804,新規,0,2023-04-11,2023-04-11,ドアデザ合同会社,,合同会社,東京都,町田市,忠生２丁目１０番地１０,,13,209,1940035,,,,,,,2023-04-11,1,,,,,ドアデザ,0
429,2012401040349,新規,0,2023-04-11,2023-04-11,株式会社ＤＡＰＨＮＥ,,株式会社,東京都,調布市,仙川町２丁目１番地２５,,13,208,1820002,,,,,,,2023-04-11,1,,,,,ダフネ,0
436,2013101009147,新規,0,2023-04-11,2023-04-11,株式会社はぴねす,,株式会社,東京都,西多摩郡瑞穂町,大字高根３０８番地１６,,13,303,1901203,,,,,,,2023-04-11,1,,,,,ハピネス,0
440,2020001151061,新規,0,2023-04-11,2023-04-11,ＹＭＣ株式会社,,株式会社,神奈川県,横浜市青葉区,あかね台１丁目１２番地１,,14,117,2270066,,,,,,,2023-04-11,1,,,,,ワイエムシー,0
441,2020001151086,新規,0,2023-04-11,2023-04-11,株式会社グランドライン,,株式会社,神奈川県,横浜市戸塚区,名瀬町３２７番地,,14,110,2450051,,,,,,,2023-04-11,1,,,,,グランドライン,0
442,2020001151094,新規,0,2023-04-11,2023-04-11,抗加齢サイエンス株式会社,,株式会社,神奈川県,横浜市中区,日本大通７番地,,14,104,2310021,,,,,,,2023-04-11,1,,,,,コウカレイサイエンス,0
445,2020005015923,新規,0,2023-04-11,2023-04-11,一般社団法人とえはたえ,,その他の設立登記法人,神奈川県,横浜市港北区,菊名５丁目１７番１号,,14,109,2220011,,,,,,,2023-04-11,1,,,,,トエハタエ,0
446,2020005015931,新規,0,2023-04-11,2023-04-11,一般社団法人横浜音楽文化協会,,その他の設立登記法人,神奈川県,横浜市西区,北幸２丁目３番１８号成和ビル９Ｆサロンセイワ内,,14,103,2200004,,,,,,,2023-04-11,1,,,,,ヨコハマオンガクブンカキョウカイ,0
449,2021001078609,新規,0,2023-04-11,2023-04-11,グレイトストーリー株式会社,,株式会社,神奈川県,茅ヶ崎市,中海岸４丁目１２９８６番地６１,,14,207,2530055,,,,,,,2023-04-11,1,,,,,グレイトストーリー,0
450,2021001078690,新規,0,2023-04-11,2023-04-11,株式会社ＳＴＵＤＩＯ　ＮＯＡＨ,,株式会社,神奈川県,藤沢市,片瀬海岸２丁目２０番１２号ＯＨＡＮＡｔｅｒｒａｃｅ２Ｆ,,14,205,2510035,,,,,,,2023-04-11,1,,,,,スタジオノア,0
451,2021003012953,新規,0,2023-04-11,2023-04-11,アイテック合同会社,,合同会社,神奈川県,相模原市中央区,星が丘１丁目３番１２号スターヒルズＩＩＩ２０１号室,00130051,14,152,2520238,,,,,,,2023-04-11,1,,,,,アイテック,0
459,2030001153156,新規,0,2023-04-11,2023-04-11,株式会社井原基工,,株式会社,埼玉県,さいたま市桜区,町谷４丁目７番１２号,,11,106,3380836,,,,,,,2023-04-11,1,,,,,イハラキコウ,0
460,2030001153180,新規,0,2023-04-11,2023-04-11,Ｃａｍｂｏｄｉａ　Ｃａｒｅｅｒ　Ｃｏｎｓｕｌｔｉｎｇ株式会社,,株式会社,埼玉県,上尾市,中妻５丁目１４番２６号,,11,219,3620072,,,,,,,2023-04-11,1,,,,,カンボジアキャリアコンサルティング,0
461,2030001153197,新規,0,2023-04-11,2023-04-11,株式会社ハラマチサイン東京,,株式会社,埼玉県,三郷市,栄４丁目２７５番地２,,11,237,3410043,,,,,,,2023-04-11,1,,,,,ハラマチサイントウキョウ,0
462,2030001153222,新規,0,2023-04-11,2023-04-11,株式会社ａｌｔｅｒａｇｅ,,株式会社,埼玉県,春日部市,緑町１丁目１３番１３号,,11,214,3440063,,,,,,,2023-04-11,1,,,,,オルタレージ,0
463,2030001153255,新規,0,2023-04-11,2023-04-11,株式会社ｗｏｏｄ　ｖｉｌｌａｇｅ,,株式会社,埼玉県,春日部市,東中野１４９９番地３,,11,214,3440114,,,,,,,2023-04-11,1,,,,,ウッドビレッジ,0
464,2030001153263,新規,0,2023-04-11,2023-04-11,株式会社プラグ,,株式会社,埼玉県,川越市,元町１丁目１４番地５,,11,201,3500062,,,,,,,2023-04-11,1,,,,,プラグ,0
465,2030001153271,新規,0,2023-04-11,2023-04-11,株式会社ＲＯＣＣＳ,,株式会社,埼玉県,さいたま市見沼区,大字山１３４番地６,,11,104,3370025,,,,,,,2023-04-11,1,,,,,ロックス,0
466,2030001153288,新規,0,2023-04-11,2023-04-11,株式会社１０ＧＲＡＦＴ,,株式会社,埼玉県,比企郡小川町,大字青山５９４番地,,11,343,3550324,,,,,,,2023-04-11,1,,,,,テングラフト,0
467,2030001153321,新規,0,2023-04-11,2023-04-11,株式会社ＭＩＫＡＮ,,株式会社,埼玉県,ふじみ野市,本新田１番１１号,,11,245,3560018,,,,,,,2023-04-11,1,,,,,ミカン,0
469,2030003021501,新規,0,2023-04-11,2023-04-11,合同会社ＬＡＲＶＥＮ,,合同会社,埼玉県,熊谷市,上之２０７６番地１,,11,202,3600012,,,,,,,2023-04-11,1,,,,,ラールベン,0
470,2030003021518,新規,0,2023-04-11,2023-04-11,ＭＥＬ　Ｔｅｃｈ合同会社,,合同会社,埼玉県,さいたま市大宮区,櫛引町１丁目３２４番地２－３０３,,11,103,3300851,,,,,,,2023-04-11,1,,,,,メルテック,0
471,2030003021526,新規,0,2023-04-11,2023-04-11,黒須スペース＆サステナビリティ合同会社,,合同会社,埼玉県,さいたま市浦和区,本太２丁目２５番５号,,11,107,3300052,,,,,,,2023-04-11,1,,,,,クロススペースアンドサステナビリティ,0
472,2030003021534,新規,0,2023-04-11,2023-04-11,合同会社ＴＭ　ｎｅｔｗｏｒｋ,,合同会社,埼玉県,春日部市,西金野井６７０番地３,,11,214,3440112,,,,,,,2023-04-11,1,,,,,ティーエムネットワーク,0
478,2040001127893,新規,0,2023-04-11,2023-04-11,株式会社ＫＡＧＡＹＡＫＩ,,株式会社,千葉県,松戸市,常盤平６丁目８番地の１４,,12,207,2702261,,,,,,,2023-04-11,1,,,,,カガヤキ,0
486,2050001052653,新規,0,2023-04-11,2023-04-11,健祥株式会社,,株式会社,茨城県,古河市,尾崎３９４９番地２,,08,204,3060101,,,,,,,2023-04-11,1,,,,,ケンショウ,0
489,2050003007408,新規,0,2023-04-11,2023-04-11,ＢＳＳ合同会社,,合同会社,茨城県,桜川市,真壁町羽鳥９７６番地７,,08,231,3004412,,,,,,,2023-04-11,1,,,,,ビーエスエス,0
490,2060001035871,新規,0,2023-04-11,2023-04-11,トレンドカフェ株式会社,,株式会社,栃木県,宇都宮市,桜５丁目１－２２北信ビル１階,,09,201,3200043,,,,,,,2023-04-11,1,,,,,トレンドカフェ,0
495,2070003004898,新規,0,2023-04-11,2023-04-11,ＳＨＡＫＴＩ合同会社,,合同会社,群馬県,邑楽郡大泉町,朝日２丁目２２番２７号アネックスニュークボタ１０６号,,10,524,3700514,,,,,,,2023-04-11,1,,,,,サクティ,0
501,2100001036312,新規,0,2023-04-11,2023-04-11,株式会社ケイシン,,株式会社,長野県,大町市,大町３１１９番地７,,20,212,3980002,,,,,,,2023-04-11,1,,,,,ケイシン,0
504,2100003006957,新規,0,2023-04-11,2023-04-11,合同会社Ａ＆Ａ,,合同会社,長野県,岡谷市,本町２丁目６番３８号,,20,204,3940028,,,,,,,2023-04-11,1,,,,,エーアンドエー,0
505,2100003006965,新規,0,2023-04-11,2023-04-11,合同会社Ｓｅｒｅｎｏ,,合同会社,長野県,下伊那郡喬木村,１２１２,,20,415,3951100,,,,,,,2023-04-11,1,,,,,セレーノ,0
508,2110001037425,新規,0,2023-04-11,2023-04-11,株式会社ジオ・コンサルタント,,株式会社,新潟県,新潟市中央区,愛宕２丁目５番地１６,,15,103,9500944,,,,,,,2023-04-11,1,,,,,ジオコンサルタント,0
523,2120001253731,新規,0,2023-04-11,2023-04-11,大西青果株式会社,,株式会社,大阪府,枚方市,渚南町３９番１５号,,27,210,5731183,,,,,,,2023-04-11,1,,,,,オオニシセイカ,0
524,2120001253814,新規,0,2023-04-11,2023-04-11,株式会社ｓｉｇｎ,,株式会社,大阪府,大阪市北区,豊崎１丁目２番１号神田ビル２Ｆ,,27,127,5310072,,,,,,,2023-04-11,1,,,,,サイン,0
525,2120001253847,新規,0,2023-04-11,2023-04-11,株式会社匠建ホールディングス,,株式会社,大阪府,大阪市平野区,長吉川辺２丁目北４番３４号,,27,126,5470014,,,,,,,2023-04-11,1,,,,,ショウケンホールディングス,0
526,2120001253863,新規,0,2023-04-11,2023-04-11,スターライフ株式会社,,株式会社,大阪府,大阪市東成区,玉津１丁目５番２４－３０２号,,27,115,5370023,,,,,,,2023-04-11,1,,,,,スターライフ,0
527,2120001254011,新規,0,2023-04-11,2023-04-11,株式会社Ｐｅａｓｍｉｌｅ　Ｐｈａｒｍａｃｙ,,株式会社,大阪府,大阪市北区,大淀中２丁目２番１７号１階,,27,127,5310076,,,,,,,2023-04-11,1,,,,,ピースマイルファーマシー,0
529,2120003023793,新規,0,2023-04-11,2023-04-11,合同会社Ｙ＆Ｔ,,合同会社,大阪府,大阪市生野区,小路３丁目１８番１５－２０１号,,27,116,5440002,,,,,,,2023-04-11,1,,,,,ワイアンドティー,0
535,2122001036876,新規,0,2023-04-11,2023-04-11,株式会社Ｋ．Ｒ．Ｋ,,株式会社,大阪府,東大阪市,横小路町５丁目９番１２号,,27,227,5798063,,,,,,,2023-04-11,1,,,,,ケーアールケイ,0
540,2130001074053,新規,0,2023-04-11,2023-04-11,株式会社宵宮園,,株式会社,京都府,宇治市,伊勢田町南遊田２７番地の５,,26,204,6110043,,,,,,,2023-04-11,1,,,,,ヨイミヤエン,0
541,2130003008645,新規,0,2023-04-11,2023-04-11,合同会社永田総合管理,,合同会社,京都府,城陽市,久世里ノ西２６番地の７,,26,207,6100102,,,,,,,2023-04-11,1,,,,,ナガタソウゴウカンリ,0
542,2130005016737,新規,0,2023-04-11,2023-04-11,一般社団法人嵐山保勝会,,その他の設立登記法人,京都府,京都市右京区,嵯峨天龍寺芒ノ馬場町４０,00130048,26,108,6168385,,,,,,,2023-04-11,1,,,,,アラシヤマホショウカイ,0
544,2140001129723,新規,0,2023-04-11,2023-04-11,株式会社ツーランスクイズ,,株式会社,兵庫県,加古川市,野口町長砂２３３番地の２３,,28,210,6750016,,,,,,,2023-04-11,1,,,,,ツーランスクイズ,0
545,2140001129764,新規,0,2023-04-11,2023-04-11,ブレイクスルー株式会社,,株式会社,兵庫県,神戸市東灘区,御影山手３丁目１０番１－６０１号,,28,101,6580065,,,,,,,2023-04-11,1,,,,,ブレイクスルー,0
551,2150001026300,新規,0,2023-04-11,2023-04-11,株式会社理想製麺,,株式会社,奈良県,北葛城郡広陵町,大字安部４５３番地７,,29,426,6350825,,,,,,,2023-04-11,1,,,,,リソウセイメン,0
559,2170001017545,新規,0,2023-04-11,2023-04-11,株式会社戎,,株式会社,和歌山県,和歌山市,秋葉町２番１号,,30,201,6410056,,,,,,,2023-04-11,1,,,,,エビス,0
565,2180001155749,新規,0,2023-04-11,2023-04-11,ＪＡＰＡＮ株式会社,,株式会社,愛知県,名古屋市熱田区,伝馬３丁目２番１４号,,23,109,4560034,,,,,,,2023-04-11,1,,,,,ジャパン,0
566,2180001155765,新規,0,2023-04-11,2023-04-11,株式会社ＳＵＮインテリア,,株式会社,愛知県,尾張旭市,南原山町赤土１８１番地７,,23,226,4880066,,,,,,,2023-04-11,1,,,,,サンインテリア,0
571,2180005020172,新規,0,2023-04-11,2023-04-11,税理士法人心グループ,,その他の設立登記法人,愛知県,名古屋市中村区,椿町１４番１３号ウエストポイント６階,,23,105,4530015,,,,,,,2023-04-11,1,,,,,ココログループ,0
572,2180005020180,新規,0,2023-04-11,2023-04-11,一般社団法人日本ＱＯＬ向上推進協会,,その他の設立登記法人,愛知県,名古屋市千種区,稲舟通１丁目１１番地,,23,101,4640824,,,,,,,2023-04-11,1,,,,,ニホンキューオーエルコウジョウスイシンキョウカイ,0
573,2190001030315,新規,0,2023-04-11,2023-04-11,東栄株式会社,,株式会社,三重県,松阪市,駅部田町１９５０番地２,,24,204,5150045,,,,,,,2023-04-11,1,,,,,トウエイ,0
574,2190005011807,新規,0,2023-04-11,2023-04-11,社会保険労務士法人みのり,,その他の設立登記法人,三重県,伊勢市,通町２０９番地３,,24,203,5160012,,,,,,,2023-04-11,1,,,,,ミノリ,0
580,2200001041178,新規,0,2023-04-11,2023-04-11,株式会社オネスト,,株式会社,岐阜県,岐阜市,本荘中ノ町７丁目２８番地,,21,201,5008364,,,,,,,2023-04-11,1,,,,,オネスト,0
581,2200003005916,新規,0,2023-04-11,2023-04-11,合同会社マイルートプラス,,合同会社,岐阜県,下呂市,少ケ野１０３４番地,,21,220,5092205,,,,,,,2023-04-11,1,,,,,マイルートプラス,0
582,2200003005924,新規,0,2023-04-11,2023-04-11,徳尚合同会社,,合同会社,岐阜県,岐阜市,吹上町５丁目１１－１トーシンビル西室,,21,201,5008326,,,,,,,2023-04-11,1,,,,,トクショウ,0
585,2210005010087,新規,0,2023-04-11,2023-04-11,医療法人くりもり大人こども歯科クリニック,,その他の設立登記法人,福井県,福井市,栗森１丁目３０５番地,,18,201,9100137,,,,,,,2023-04-11,1,,,,,クリモリオトナコドモシカクリニック,0
589,2230001019782,新規,0,2023-04-11,2023-04-11,株式会社谷川板金,,株式会社,富山県,魚津市,湯上２９６番地,,16,204,9370823,,,,,,,2023-04-11,1,,,,,タニカワバンキン,0
601,2260001037823,新規,0,2023-04-11,2023-04-11,株式会社Ｏｎｅ　Ｆｏｒｍ,,株式会社,岡山県,岡山市南区,南輝２丁目５番５－７号,,33,104,7028023,,,,,,,2023-04-11,1,,,,,ワンフォーム,0
602,2260001037848,新規,0,2023-04-11,2023-04-11,株式会社ＥＭＩ　ＲＡＮＤＩＮＧ,,株式会社,岡山県,美作市,猪臥４３２番地,,33,215,7070034,,,,,,,2023-04-11,1,,,,,,0
605,2260003004268,新規,0,2023-04-11,2023-04-11,合同会社ＫＯＰ,,合同会社,岡山県,岡山市南区,東畦８６番地９,,33,104,7010211,,,,,,,2023-04-11,1,,,,,ケーオーピー,0
614,2290003013753,新規,0,2023-04-11,2023-04-11,クリッピー合同会社,,合同会社,福岡県,みやま市,瀬高町長田２６７５番地２,,40,229,8350007,,,,,,,2023-04-11,1,,,,,クリッピー,0
618,2310001018347,新規,0,2023-04-11,2023-04-11,株式会社ＫＩＳＯＹＡ,,株式会社,長崎県,佐世保市,松浦町４番１７号,,42,202,8570052,,,,,,,2023-04-11,1,,,,,キソヤ,0
619,2310001018355,新規,0,2023-04-11,2023-04-11,ＲＥＤＥＥＭ株式会社,,株式会社,長崎県,長崎市,八千代町２番２－２０１号,,42,201,8500043,,,,,,,2023-04-11,1,,,,,リディーム,0
623,2310003004535,新規,0,2023-04-11,2023-04-11,合同会社エスペランサ,,合同会社,長崎県,長崎市,錦２丁目１３－１３,,42,201,8528045,,,,,,,2023-04-11,1,,,,,エスペランサ,0
631,2360001031824,新規,0,2023-04-11,2023-04-11,株式会社Ｌａ　Ｖｉｅ　Ｌｅｎｔｅ,,株式会社,沖縄県,那覇市,首里石嶺町２丁目２６１番地６,,47,201,9030804,,,,,,,2023-04-11,1,,,,,ラヴィラント,0
635,2380001033604,新規,0,2023-04-11,2023-04-11,株式会社マルミツ瓦工業,,株式会社,福島県,南相馬市,原町区上町２丁目４７番地,,07,212,9750013,,,,,,,2023-04-11,1,,,,,マルミツカワラコウギョウ,0
637,2390001017218,新規,0,2023-04-11,2023-04-11,株式会社アルクテック,,株式会社,山形県,山形市,大字柏倉１８番地,,06,201,9902341,,,,,,,2023-04-11,1,,,,,アルクテック,0
641,2390003002077,新規,0,2023-04-11,2023-04-11,チバサン・ファーム合同会社,,合同会社,山形県,米沢市,太田町４丁目１番１４４－３号,,06,202,9920035,,,,,,,2023-04-11,1,,,,,チバサンファーム,0
643,2400001016201,新規,0,2023-04-11,2023-04-11,株式会社Ｔｅｃｈｔｏｎｉｘ,,株式会社,岩手県,盛岡市,東仙北２丁目２番１３号東仙北貸家Ｄ,,03,201,0200862,,,,,,,2023-04-11,1,,,,,テクトニクス,0
644,2400003003049,新規,0,2023-04-11,2023-04-11,合同会社オートテック盛岡,,合同会社,岩手県,盛岡市,三本柳２３地割２８番地１グリーンパークＢ２０１,,03,201,0200831,,,,,,,2023-04-11,1,,,,,オートテックモリオカ,0
645,2410001013453,新規,0,2023-04-11,2023-04-11,ＳＫシンヨウ機械株式会社,,株式会社,秋田県,にかほ市,院内字下坂２０番地,,05,214,0180411,,,,,,,2023-04-11,1,,,,,エスケーシンヨウキカイ,0
646,2420001018220,新規,0,2023-04-11,2023-04-11,株式会社青好建設,,株式会社,青森県,弘前市,大字青女子字桜苅４７番地９,,02,202,0383615,,,,,,,2023-04-11,1,,,,,アオヨシケンセツ,0
647,2430001088799,新規,0,2023-04-11,2023-04-11,ＮＯＦＯＲＭＡ株式会社,,株式会社,北海道,虻田郡ニセコ町,字曽我５５１番地１,,01,395,0481522,,,,,,,2023-04-11,1,,,,,ノフォルマ,0
648,2430001088816,新規,0,2023-04-11,2023-04-11,株式会社ノーステイスト,,株式会社,北海道,札幌市手稲区,新発寒六条６丁目５番６号,,01,109,0060806,,,,,,,2023-04-11,1,,,,,ノーステイスト,0
649,2430001088832,新規,0,2023-04-11,2023-04-11,Ｐｏｓｔ　ｉｎ　ｏｎｅ株式会社,,株式会社,北海道,札幌市中央区,南十七条西９丁目２番２３－３０７号,,01,101,0640917,,,,,,,2023-04-11,1,,,,,ポストインワン,0
654,2450001013953,新規,0,2023-04-11,2023-04-11,株式会社宗英,,株式会社,北海道,旭川市,永山十条９丁目２番２０号,,01,204,0798420,,,,,,,2023-04-11,1,,,,,ソウエイ,0
657,2470003002390,新規,0,2023-04-11,2023-04-11,合同会社ＢＥＬＬ,,合同会社,香川県,高松市,鍛冶屋町１番地１７－２階,,37,201,7600028,,,,,,,2023-04-11,1,,,,,ベル,0
670,2500001024870,新規,0,2023-04-11,2023-04-11,株式会社Ｍシェルター,,株式会社,愛媛県,松山市,姫原３丁目７番４６号,,38,201,7918012,,,,,,,2023-04-11,1,,,,,エムシェルター,0
673,2500003003006,新規,0,2023-04-11,2023-04-11,合同会社ｍｅｅ,,合同会社,愛媛県,西予市,城川町下相３８１３－２,,38,214,7971717,,,,,,,2023-04-11,1,,,,,ミー,0
675,2700150115285,新規,0,2023-04-11,2023-04-11,Ｈｏｎｇ　Ｋｏｎｇ　Ｇｌｏｂａｌ　Ｓｔａｒ　Ｍａｋｉｎｇ　Ｃｏ．，Ｌｉｍｉｔｅｄ,,外国会社等,,,,,,,,ＲＭ　０２３，９／Ｆ　ＢＬＫ　Ｇ　ＫＷＡＩ　ＳＨＩＮＧ　ＩＮＤ　ＢＬＤＧ（ＳＴＡＧＥ２）４２－４６　ＴＡＩ　ＬＩＮ　ＰＡＩ　ＲＤ　ＫＷＡｌ　ＣＨＵＮＧ　ＮＴ　ＨＯＮＧ　ＫＯＮＧ,,,,,,2023-04-11,1,,,,,シャンガンフアンチューザオシンヨウシエンゴンスー,0
676,2700150115293,新規,0,2023-04-11,2023-04-11,ｚｈｅｎｇｚｈｏｕｘｉａｏｙｕｅｓｈａｎｇｍａｏｙｏｕｘｉａｎｇｏｎｇｓｉ,,外国会社等,,,,,,,,ｅｒｑｉｑｕｌｉｕｚｈａｉｘｉｎｊｕｙｉｈａｏｙｕａｎ２ｈａｏｌｏｕ２ｄａｎｙｕａｎ７０３　ｚｈｅｎｇｚｈｏｕｓｈｉ　ｈｅｎａｎｓｈｅｎｇ　４５００９９　ＣＮ,,,,,,2023-04-11,1,,,,,ジョンジョウシャユエシャンマオヨウシエンゴンスー,0
686,3010001234329,新規,0,2023-04-11,2023-04-11,白井松食品株式会社,,株式会社,東京都,中央区,京橋２丁目７番１４号,,13,102,1040031,,,,,,,2023-04-11,1,,,,,シライマツショクヒン,0
687,3010001234353,新規,0,2023-04-11,2023-04-11,株式会社ＯＮＥ　ＡＣＥ,,株式会社,東京都,中央区,銀座１丁目１２番４号Ｎ＆ＥＢＬＤ．６Ｆ,,13,102,1040061,,,,,,,2023-04-11,1,,,,,ワンエース,0
688,3010001234386,新規,0,2023-04-11,2023-04-11,３Ｓ　Ｉｎｔｅｒｎａｔｉｏｎａｌ株式会社,,株式会社,東京都,中央区,日本橋室町１丁目１１番１２号日本橋水野ビル７階,,13,102,1030022,,,,,,,2023-04-11,1,,,,,スリーエスインターナショナル,0
691,3010003040304,新規,0,2023-04-11,2023-04-11,合同会社ｃａｎｔｒｉｐ,,合同会社,東京都,中央区,銀座１丁目１２番４号Ｎ＆ＥＢＬＤ．６Ｆ,,13,102,1040061,,,,,,,2023-04-11,1,,,,,キャントリップ,0
703,3010401173630,新規,0,2023-04-11,2023-04-11,ＧＩＦＴ　Ｔｏｋｙｏ株式会社,,株式会社,東京都,港区,東麻布１丁目９番１６号,,13,103,1060044,,,,,,,2023-04-11,1,,,,,ギフトトウキョウ,0
705,3010403029896,新規,0,2023-04-11,2023-04-11,クラウディリアリティゲームズ合同会社,,合同会社,東京都,港区,芝浦２丁目１４番１３号ＭＣＫ芝浦ビル３Ｆ,,13,103,1080023,,,,,,,2023-04-11,1,,,,,クラウディリアリティゲームズ,0
708,3010501050267,新規,0,2023-04-11,2023-04-11,株式会社エネシス,,株式会社,東京都,台東区,池之端３丁目３番４号,,13,106,1100008,,,,,,,2023-04-11,1,,,,,エネシス,0
716,3010903008078,新規,0,2023-04-11,2023-04-11,ＴＡＩＮＡＳ合同会社,,合同会社,東京都,世田谷区,下馬２丁目２６番７－３０４号,,13,112,1540002,,,,,,,2023-04-11,1,,,,,タイナス,0
728,3011001153436,新規,0,2023-04-11,2023-04-11,株式会社Ｓｅｐｔｅｔ,,株式会社,東京都,目黒区,中目黒３丁目６番２号ＦＳビル６階,,13,110,1530061,,,,,,,2023-04-11,1,,,,,セプテット,0
729,3011001153618,新規,0,2023-04-11,2023-04-11,東呉貿易コンサルティング株式会社,,株式会社,東京都,渋谷区,千駄ヶ谷３丁目１３番２２号,,13,113,1510051,,,,,,,2023-04-11,1,,,,,トウゴボウエキコンサルティング,0
730,3011001153683,新規,0,2023-04-11,2023-04-11,日泰サッカー協会株式会社,,株式会社,東京都,渋谷区,恵比寿３丁目１３番７号ＨＯＦ伊達坂１０１,,13,113,1500013,,,,,,,2023-04-11,1,,,,,ニッタイサッカーキョウカイ,0
732,3011003016599,新規,0,2023-04-11,2023-04-11,ＶＩＮＨＥＤＯ合同会社,,合同会社,東京都,渋谷区,恵比寿１丁目３２番６－５０４号,,13,113,1500013,,,,,,,2023-04-11,1,,,,,ビネード,0
733,3011003016632,新規,0,2023-04-11,2023-04-11,合同会社ぷぷです,,合同会社,東京都,渋谷区,渋谷２丁目１９－１５宮益坂ビルディング６０９,,13,113,1500002,,,,,,,2023-04-11,1,,,,,ププデス,0
734,3011005010022,新規,0,2023-04-11,2023-04-11,一般社団法人ｗｅｂ３コミュニティ協会,,その他の設立登記法人,東京都,渋谷区,恵比寿４丁目２０番４号ガーデンプレイスグラススクエアＢ１,,13,113,1500013,,,,,,,2023-04-11,1,,,,,ウェブスリーコミュニティキョウカイ,0
738,3011101102458,新規,0,2023-04-11,2023-04-11,株式会社ｅＭＩＲＡＩ　ＰＡＲＴＮＥＲＳ　ＣＯＲＰＯＲＡＴＩＯＮ,,株式会社,東京都,新宿区,新宿４丁目４番１３－１０１号,,13,104,1600022,,,,,,,2023-04-11,1,,,,,イーミライパートナーズコーポレーション,0
739,3011101102466,新規,0,2023-04-11,2023-04-11,株式会社ＨＮＥ,,株式会社,東京都,新宿区,大久保１丁目１５番２６号玉置荘１０１号,,13,104,1690072,,,,,,,2023-04-11,1,,,,,エイチエヌイー,0
740,3011101102474,新規,0,2023-04-11,2023-04-11,株式会社クローバー,,株式会社,東京都,新宿区,新宿２丁目７番３－４０８号,,13,104,1600022,,,,,,,2023-04-11,1,,,,,,0
741,3011101102482,新規,0,2023-04-11,2023-04-11,株式会社ＲＥ　ＰＲＯＤＵＣＴＩＯＮ,,株式会社,東京都,新宿区,富久町１５番１－３１２２号,,13,104,1620067,,,,,,,2023-04-11,1,,,,,アールイープロダクション,0
745,3011301028593,新規,0,2023-04-11,2023-04-11,株式会社エスリンク,,株式会社,東京都,杉並区,浜田山２丁目７番２９号,,13,115,1680065,,,,,,,2023-04-11,1,,,,,エスリンク,0
746,3011401025020,新規,0,2023-04-11,2023-04-11,株式会社Ｅａｇｌｅ　Ｓｔｕｄｉｏ,,株式会社,東京都,板橋区,中板橋２０－３河合ビル３Ｆ,,13,119,1730016,,,,,,,2023-04-11,1,,,,,イーグルスタジオ,0
747,3011401025029,新規,0,2023-04-11,2023-04-11,株式会社ハビマサ,,株式会社,東京都,板橋区,熊野町１－８,,13,119,1730025,,,,,,,2023-04-11,1,,,,,ハビマサ,0
748,3011403003949,新規,0,2023-04-11,2023-04-11,合同会社Ａｓｉａｎ　Ｔｒｅｅ　Ｃｏｍｐａｎｙ,,合同会社,東京都,板橋区,高島平７丁目７番４号２０１,,13,119,1750082,,,,,,,2023-04-11,1,,,,,アジアンツリーカンパニー,0
751,3011501029136,新規,0,2023-04-11,2023-04-11,株式会社ｆｏｅｒｓｉｇｎ,,株式会社,東京都,北区,赤羽西１丁目２９－１５－１０１弁天マンション,,13,117,1150055,,,,,,,2023-04-11,1,,,,,フォーサイン,0
752,3011501029169,新規,0,2023-04-11,2023-04-11,株式会社ＴＳＵＢＯＭＩ,,株式会社,東京都,荒川区,西日暮里５丁目３２番２－１４０１号,,13,118,1160013,,,,,,,2023-04-11,1,,,,,ツボミ,0
762,3011801042210,新規,0,2023-04-11,2023-04-11,海盛株式会社,,株式会社,東京都,葛飾区,四つ木５丁目２３番１４号メゾン・ノワ４Ｉ,00130059,13,122,1240011,,,,,,,2023-04-11,1,,,,,カイモリ,0
765,3011803005594,新規,0,2023-04-11,2023-04-11,合同会社Ｏ＆Ｖ,,合同会社,東京都,葛飾区,新小岩１丁目５６番２号,,13,122,1240024,,,,,,,2023-04-11,1,,,,,オーアンドブイ,0
768,3012301013387,新規,0,2023-04-11,2023-04-11,株式会社ＤＡＴＥＳ,,株式会社,東京都,町田市,野津田町５７３番地２,,13,209,1950063,,,,,,,2023-04-11,1,,,,,デイツ,0
770,3012405004852,新規,0,2023-04-11,2023-04-11,一般社団法人Ｃｏ‐ｐｒｏｄｕｃｔｉｏｎ　ｏｆ　ａｒｔ　Ｗｏｒｋｓ‐Ｍ,,その他の設立登記法人,東京都,小金井市,前原町４丁目１１番７号まえはらハイム１０２,,13,210,1840013,,,,,,,2023-04-11,1,,,,,コープロダクションオブアートワークスエム,0
774,3013301050560,新規,0,2023-04-11,2023-04-11,ＳｈｉｚｕｋｕＡＲ株式会社,,株式会社,東京都,豊島区,高松２丁目５－１８シャトー高松２０２,,13,116,1710042,,,,,,,2023-04-11,1,,,,,シズクエイアール,0
778,3013303006577,新規,0,2023-04-11,2023-04-11,合同会社ＭＭＣ,,合同会社,東京都,豊島区,目白５丁目２番１０号,,13,116,1710031,,,,,,,2023-04-11,1,,,,,エムエムシー,0
785,3020001150995,新規,0,2023-04-11,2023-04-11,ＩＴＯ株式会社,,株式会社,神奈川県,横浜市西区,浅間台４５番地２プランドールＩＩ１０１号,00130052,14,103,2200071,,,,,,,2023-04-11,1,,,,,アイティーオー,0
786,3020001151052,新規,0,2023-04-11,2023-04-11,株式会社サンライズ,,株式会社,神奈川県,横浜市鶴見区,平安町１丁目３５番地１９,,14,101,2300031,,,,,,,2023-04-11,1,,,,,サンライズ,0
787,3020001151069,新規,0,2023-04-11,2023-04-11,Ｍａｐｌｅｐｉｘ株式会社,,株式会社,神奈川県,横浜市西区,北幸２丁目１０番２８号むつみビル３Ｆ,,14,103,2200004,,,,,,,2023-04-11,1,,,,,メープルピックス,0
788,3020001151077,新規,0,2023-04-11,2023-04-11,株式会社Ｃｉｅｌｏ　ｍｍ,,株式会社,神奈川県,横浜市港北区,新横浜２丁目１８番地１９ドメス新横浜２０２,,14,109,2220033,,,,,,,2023-04-11,1,,,,,シエロエムエム,0
791,3020003023712,新規,0,2023-04-11,2023-04-11,合同会社マルファトレダズ,,合同会社,神奈川県,横浜市鶴見区,北寺尾３丁目１５番Ｄ－２０３号,,14,101,2300074,,,,,,,2023-04-11,1,,,,,マルファトレダズ,0
795,3021001078657,新規,0,2023-04-11,2023-04-11,株式会社Ｔ‐Ｃｒａｆｔ,,株式会社,神奈川県,秦野市,渋沢１丁目４番３８－６号,,14,211,2591322,,,,,,,2023-04-11,1,,,,,ティークラフト,0
796,3021001078698,新規,0,2023-04-11,2023-04-11,株式会社ＡＰＯＬＬＯ,,株式会社,神奈川県,平塚市,公所４９７番地の１２,,14,203,2540906,,,,,,,2023-04-11,1,,,,,,0
800,3021003012952,新規,0,2023-04-11,2023-04-11,合同会社ＢＯＢ,,合同会社,神奈川県,茅ヶ崎市,東海岸北４丁目５番５６－６０３号,,14,207,2530053,,,,,,,2023-04-11,1,,,,,ビーオービー,0
802,3030001153196,新規,0,2023-04-11,2023-04-11,株式会社ＴＡＩＲＡ,,株式会社,埼玉県,川口市,青木４丁目２５番２０－４０６号,,11,203,3320031,,,,,,,2023-04-11,1,,,,,タイラ,0
803,3030001153205,新規,0,2023-04-11,2023-04-11,株式会社Ｆｅｔｉｓｈ,,株式会社,埼玉県,川口市,領家２丁目１７番２５号,,11,203,3320004,,,,,,,2023-04-11,1,,,,,フェティッシュ,0
804,3030001153238,新規,0,2023-04-11,2023-04-11,友善株式会社,,株式会社,埼玉県,春日部市,大場６６１番地３,,11,214,3440021,,,,,,,2023-04-11,1,,,,,ユウゼン,0
805,3030001153270,新規,0,2023-04-11,2023-04-11,株式会社Ｍａｋｅ　Ｄ,,株式会社,埼玉県,さいたま市浦和区,岸町４丁目２６番１－２１０５号,,11,107,3300064,,,,,,,2023-04-11,1,,,,,メイクディー,0
806,3030001153295,新規,0,2023-04-11,2023-04-11,株式会社ＢＲＩＤＧＥ,,株式会社,埼玉県,所沢市,大字山口１３８９番地の１,,11,208,3591145,,,,,,,2023-04-11,1,,,,,ブリッジ,0
807,3030001153320,新規,0,2023-04-11,2023-04-11,株式会社大安興業,,株式会社,埼玉県,川口市,南鳩ヶ谷５丁目２８番３０号ミナミコーポ１０２号室,,11,203,3340013,,,,,,,2023-04-11,1,,,,,タイアンコウギョウ,0
815,3030003021509,新規,0,2023-04-11,2023-04-11,合同会社ＰＲＯＥＩＧＨＴ,,合同会社,埼玉県,さいたま市北区,宮原町２丁目６２番地２カシオペア１０１,,11,102,3310812,,,,,,,2023-04-11,1,,,,,プロエイト,0
816,3030003021517,新規,0,2023-04-11,2023-04-11,合同会社ｊｏｌｉｅ‐ｌａｐｉｎ,,合同会社,埼玉県,加須市,間口１２５９番地７,,11,210,3491145,,,,,,,2023-04-11,1,,,,,ジョリーラパン,0
823,3040001127843,新規,0,2023-04-11,2023-04-11,株式会社ＲＥＢＥＬ,,株式会社,千葉県,市川市,市川３丁目１９番１６号,,12,203,2720034,,,,,,,2023-04-11,1,,,,,レベル,0
824,3040001127892,新規,0,2023-04-11,2023-04-11,Ｃｒａｂ　Ｈｏｕｓｅ株式会社,,株式会社,千葉県,市原市,五井西６丁目３３番地６,,12,219,2900038,,,,,,,2023-04-11,1,,,,,クラブハウス,0
825,3040001127918,新規,0,2023-04-11,2023-04-11,株式会社アシスト,,株式会社,千葉県,千葉市美浜区,長瀬一丁目３番地幕張テクノガーデンＣＢ棟３階,,12,106,2610000,,,,,,,2023-04-11,1,,,,,アシスト,0
835,3050001052652,新規,0,2023-04-11,2023-04-11,ＩＲＳＨＡＤ　ＴＲＡＤＩＮＧ株式会社,,株式会社,茨城県,坂東市,逆井３５３６番地大都ビル２０２,,08,228,3060501,,,,,,,2023-04-11,1,,,,,イルシャドトレーディング,0
836,3050001052660,新規,0,2023-04-11,2023-04-11,Ｔ＆Ｔソリューションズ株式会社,,株式会社,茨城県,石岡市,柏原１番５号,,08,205,3150002,,,,,,,2023-04-11,1,,,,,ティーアンドティーソリューションズ,0
837,3050001052677,新規,0,2023-04-11,2023-04-11,株式会社Ｏｒｒｉｃｋ,,株式会社,茨城県,かすみがうら市,下稲吉２２９１番地１０,,08,230,3150052,,,,,,,2023-04-11,1,,,,,オリック,0
840,3050003007407,新規,0,2023-04-11,2023-04-11,ＨＭ　ＴＲＡＤＩＮＧ合同会社,,合同会社,茨城県,古河市,東山田２９４４番地３２５,,08,204,3060112,,,,,,,2023-04-11,1,,,,,エイチエムトレーディング,0
843,3060001035854,新規,0,2023-04-11,2023-04-11,株式会社中村企画,,株式会社,栃木県,矢板市,石関１１２１番地４２ロイヤルヴァンベール矢板４番館３３号,,09,211,3291576,,,,,,,2023-04-11,1,,,,,ナカムラキカク,0
849,3080401026419,新規,0,2023-04-11,2023-04-11,株式会社ＴＫＤ,,株式会社,静岡県,浜松市中区,板屋町２番地シティタワー浜松３１０４号室,,22,131,4300928,,,,,,,2023-04-11,1,,,,,ティーケーディー,0
855,3100001036303,新規,0,2023-04-11,2023-04-11,日本不動産投資株式会社,,株式会社,長野県,塩尻市,大字宗賀５２９６番地１３,,20,215,3996461,,,,,,,2023-04-11,1,,,,,ニホンフドウサントウシ,0
865,3110003005024,新規,0,2023-04-11,2023-04-11,合同会社シェアコンサルタント,,合同会社,新潟県,新潟市中央区,鳥屋野２丁目３番１７号,,15,103,9500951,,,,,,,2023-04-11,1,,,,,シェアコンサルタント,0
873,3120001253821,新規,0,2023-04-11,2023-04-11,株式会社Ｗｉｎｇ,,株式会社,大阪府,大阪市港区,磯路２丁目１９番２４号三石ビル２階,,27,107,5520003,,,,,,,2023-04-11,1,,,,,ウィング,0
874,3120001253854,新規,0,2023-04-11,2023-04-11,株式会社ＮＩＫＡ,,株式会社,大阪府,大阪市北区,豊崎３丁目１９－３ピアスタワー６０３号,,27,127,5310072,,,,,,,2023-04-11,1,,,,,ニカ,0
875,3120001253862,新規,0,2023-04-11,2023-04-11,株式会社ポラリス,,株式会社,大阪府,大阪市北区,大淀南２丁目１番１－２９０８号,,27,127,5310075,,,,,,,2023-04-11,1,,,,,ポラリス,0
876,3120001253870,新規,0,2023-04-11,2023-04-11,株式会社Ａｍｂｉｔｉｏｎ　Ｐａｒｔｎｅｒｓ,,株式会社,大阪府,大阪市北区,梅田１丁目１１番４－１０００号,,27,127,5300001,,,,,,,2023-04-11,1,,,,,アンビションパートナーズ,0
877,3120001253920,新規,0,2023-04-11,2023-04-11,ＳＫＮテクノロジーズ株式会社,,株式会社,大阪府,大阪市北区,芝田２丁目８番１１号,,27,127,5300012,,,,,,,2023-04-11,1,,,,,エスケーエヌテクノロジーズ,0
878,3120001253945,新規,0,2023-04-11,2023-04-11,株式会社ＤＩＳＣＯＶＥＲＹ,,株式会社,大阪府,大阪市中央区,淡路町２丁目５番８号船場ビルディング４１７号,,27,128,5410047,,,,,,,2023-04-11,1,,,,,ディスカバリー,0
881,3120003023792,新規,0,2023-04-11,2023-04-11,安信合同会社,,合同会社,大阪府,大阪市北区,梅田１丁目２番２号大阪駅前第２ビル１２－１２,,27,127,5300001,,,,,,,2023-04-11,1,,,,,アンシン,0
884,3120101067295,新規,0,2023-04-11,2023-04-11,株式会社進創,,株式会社,大阪府,堺市西区,津久野町３丁３３番２８,,27,144,5938322,,,,,,,2023-04-11,1,,,,,シンソウ,0
887,3120901047356,新規,0,2023-04-11,2023-04-11,株式会社エンタメクリエイト,,株式会社,大阪府,茨木市,東太田４丁目６番２７－１１０９号,,27,211,5670012,,,,,,,2023-04-11,1,,,,,エンタメクリエイト,0
888,3120901047389,新規,0,2023-04-11,2023-04-11,株式会社エムズクレスト,,株式会社,大阪府,吹田市,片山町４丁目３４番２号,,27,205,5640082,,,,,,,2023-04-11,1,,,,,エムズクレスト,0
891,3122001036875,新規,0,2023-04-11,2023-04-11,株式会社Ｋ‐ＡＳＳＩＳＴ,,株式会社,大阪府,東大阪市,俊徳町４丁目９番３１号,,27,227,5770831,,,,,,,2023-04-11,1,,,,,ケイアシスト,0
895,3130001074044,新規,0,2023-04-11,2023-04-11,株式会社山中商店,,株式会社,京都府,京都市西京区,御陵峰ケ堂町２丁目３４番地１,,26,111,6101103,,,,,,,2023-04-11,1,,,,,ヤマナカショウテン,0
896,3130001074052,新規,0,2023-04-11,2023-04-11,株式会社雅幸胤,,株式会社,京都府,京都市南区,上鳥羽川端町２０２番地,,26,107,6018171,,,,,,,2023-04-11,1,,,,,ガコウイン,0
897,3130001074069,新規,0,2023-04-11,2023-04-11,株式会社ｎａｔｕｒａｌ９,,株式会社,京都府,京都市左京区,静市野中町６５番地,,26,103,6011122,,,,,,,2023-04-11,1,,,,,ナチュラルナイン,0
906,3140003018964,新規,0,2023-04-11,2023-04-11,合同会社フィールドオーダー,,合同会社,兵庫県,芦屋市,竹園町４番１号２０１,,28,206,6590055,,,,,,,2023-04-11,1,,,,,フィールドオーダー,0
908,3150001026299,新規,0,2023-04-11,2023-04-11,ＧＥＮＥＳＩＳ株式会社,,株式会社,奈良県,奈良市,西千代ヶ丘２丁目６番１２号,,29,201,6310046,,,,,,,2023-04-11,1,,,,,ジェネシス,0
909,3150001026308,新規,0,2023-04-11,2023-04-11,フォルス株式会社,,株式会社,奈良県,天理市,富堂町２２３番地８,,29,204,6320072,,,,,,,2023-04-11,1,,,,,フォルス,0
926,3180001155780,新規,0,2023-04-11,2023-04-11,株式会社スマイル洗浄サービス,,株式会社,愛知県,名古屋市北区,中丸町１丁目４番地の５,,23,103,4620056,,,,,,,2023-04-11,1,,,,,スマイルセンジョウサービス,0
927,3180001155797,新規,0,2023-04-11,2023-04-11,株式会社メディカルライフ一宮,,株式会社,愛知県,名古屋市天白区,元植田２丁目２３１４番地１,,23,116,4680009,,,,,,,2023-04-11,1,,,,,メディカルライフイチノミヤ,0
932,3180005020171,新規,0,2023-04-11,2023-04-11,弁護士法人心グループ,,その他の設立登記法人,愛知県,名古屋市中村区,椿町１４番１３号ウエストポイント６階,,23,105,4530015,,,,,,,2023-04-11,1,,,,,ココログループ,0
933,3190001030314,新規,0,2023-04-11,2023-04-11,株式会社安田電設,,株式会社,三重県,四日市市,桜台１丁目１０番地７,,24,202,5121214,,,,,,,2023-04-11,1,,,,,ヤスダデンセツ,0
940,3200001041169,新規,0,2023-04-11,2023-04-11,株式会社マルトモ造園,,株式会社,岐阜県,関市,市平賀３６５番地７,,21,205,5013822,,,,,,,2023-04-11,1,,,,,マルトモゾウエン,0
941,3200001041177,新規,0,2023-04-11,2023-04-11,株式会社麒麟,,株式会社,岐阜県,各務原市,鵜沼西町１丁目４０７番地２,,21,213,5090132,,,,,,,2023-04-11,1,,,,,キリン,0
945,3220001025351,新規,0,2023-04-11,2023-04-11,株式会社雅,,株式会社,石川県,金沢市,松村町ヌ４番地,,17,201,9200347,,,,,,,2023-04-11,1,,,,,ミヤビ,0
949,3230001019781,新規,0,2023-04-11,2023-04-11,株式会社Ｋ・Ｆ・ＴＥＣ・Ｇｒｏｕｐ,,株式会社,富山県,富山市,赤田４１３番地グランドール渡辺Ａ棟２０５号,,16,201,9398064,,,,,,,2023-04-11,1,,,,,ケイエフテックグループ,0
953,3240003006091,新規,0,2023-04-11,2023-04-11,人生思いつき合同会社,,合同会社,広島県,呉市,海岸１丁目１１番２５－２０２号,,34,202,7370823,,,,,,,2023-04-11,1,,,,,ジンセイオモイツキ,0
954,3240003006100,新規,0,2023-04-11,2023-04-11,合同会社亀山,,合同会社,広島県,広島市安佐北区,亀山６丁目２４―１７,,34,106,7310231,,,,,,,2023-04-11,1,,,,,カメヤマ,0
955,3260001037839,新規,0,2023-04-11,2023-04-11,株式会社ＴＯＵＴＯ,,株式会社,岡山県,岡山市南区,箕島１２０９番地４ビ・ウェル妹尾８０１号,,33,104,7010206,,,,,,,2023-04-11,1,,,,,トウト,0
956,3260001037847,新規,0,2023-04-11,2023-04-11,株式会社ハズモ,,株式会社,岡山県,都窪郡早島町,早島３３２５番地３,,33,423,7010304,,,,,,,2023-04-11,1,,,,,,0
963,3290001101138,新規,0,2023-04-11,2023-04-11,株式会社Ｓプランニング,,株式会社,福岡県,福岡市南区,鶴田３丁目１０番４３－５号,,40,134,8111352,,,,,,,2023-04-11,1,,,,,エスプランニング,0
964,3290001101154,新規,0,2023-04-11,2023-04-11,株式会社オフィスブースト,,株式会社,福岡県,福岡市中央区,今泉２丁目３番４１－１２０１号,,40,133,8100021,,,,,,,2023-04-11,1,,,,,オフィスブースト,0
965,3290001101170,新規,0,2023-04-11,2023-04-11,株式会社ｒｏｏｉｂｏｓ,,株式会社,福岡県,福岡市城南区,堤２丁目１６番３－２号,,40,136,8140151,,,,,,,2023-04-11,1,,,,,ルイボス,0
967,3290005018997,新規,0,2023-04-11,2023-04-11,一般社団法人食品ロス削減推進機構,,その他の設立登記法人,福岡県,久留米市,西町１０８番地１４,,40,203,8300038,,,,,,,2023-04-11,1,,,,,ショクヒンロスサクゲンスイシンキコウ,0
977,3320001019681,新規,0,2023-04-11,2023-04-11,株式会社カナノ不動産,,株式会社,大分県,大分市,大字迫９７０番地,,44,201,8700272,,,,,,,2023-04-11,1,,,,,カナノフドウサン,0
980,3340001025496,新規,0,2023-04-11,2023-04-11,株式会社折口商事,,株式会社,鹿児島県,西之表市,現和４９４４番地１,,46,213,8913103,,,,,,,2023-04-11,1,,,,,オリグチショウジ,0
986,3390001017217,新規,0,2023-04-11,2023-04-11,株式会社やまがた心心,,株式会社,山形県,米沢市,中央１丁目３番１２号,,06,202,9920045,,,,,,,2023-04-11,1,,,,,ヤマガタシンシン,0
993,3410001013452,新規,0,2023-04-11,2023-04-11,株式会社ＡＭＩＣＵＳ,,株式会社,秋田県,秋田市,大平台１丁目１５番地３,,05,201,0101428,,,,,,,2023-04-11,1,,,,,アミークス,0
997,3410003003781,新規,0,2023-04-11,2023-04-11,合同会社チームＨ＆Ｙ,,合同会社,秋田県,大仙市,北長野字谷地中１３６番地２,,05,212,0140203,,,,,,,2023-04-11,1,,,,,チームエイチアンドワイ,0
998,3420003002700,新規,0,2023-04-11,2023-04-11,合同会社ＷｅｅｄＳｏｕｌ,,合同会社,青森県,八戸市,大字妙字坂中４２番地３,,02,203,0310814,,,,,,,2023-04-11,1,,,,,ウィードソウル,0
1002,3430001088823,新規,0,2023-04-11,2023-04-11,株式会社Ｂｌｉｓｓ,,株式会社,北海道,札幌市豊平区,月寒東五条１８丁目８番１２号１Ｆ,,01,105,0620055,,,,,,,2023-04-11,1,,,,,ブリス,0
1003,3430001088831,新規,0,2023-04-11,2023-04-11,株式会社テラス,,株式会社,北海道,札幌市中央区,北九条西１６丁目１－３クリーンリバー北９条ＩＩ５０６,00130062,01,101,0600009,,,,,,,2023-04-11,1,,,,,テラス,0
1009,3450001013952,新規,0,2023-04-11,2023-04-11,株式会社大柳ファーム,,株式会社,北海道,旭川市,東鷹栖十三線二十号４２０５－１,,01,204,0718163,,,,,,,2023-04-11,1,,,,,オオヤナギファーム,0
1012,3470005006496,新規,0,2023-04-11,2023-04-11,一般社団法人ウェルビーイング四国,,その他の設立登記法人,香川県,高松市,六条町２０４番地７塚元ビル３Ｆ,,37,201,7610303,,,,,,,2023-04-11,1,,,,,ウェルビーイングシコク,0
1018,3700150115284,新規,0,2023-04-11,2023-04-11,ＺＨＯＮＧ　ＳＨＡＮ　ＳＨＩ　ＷＥＮＬＥ　ＭＡＯ　ＹＩ　ＹＯＵ　ＸＩＡＮ　ＧＯＮＧ　ＳＩ,,外国会社等,,,,,,,,Ｏｎｅ　ｏｆ　ｔｈｅ　ｆｉｒｓｔ　ｆｌｏｏｒ，Ｎｏ．５　ｌａｎｅ　２，Ｘｉｎｇｎｉｎｇ　ｒｏａｄ　Ｚｈｏｎｇｓｈａｎ　Ｄｏｎｇｆｅｎｇ　Ｇｕａｎｇｄｏｎｇ　５２８４２５　ＣＮ,,,,,,2023-04-11,1,,,,,ジョンシャンシーウェンラーマオイーヨウシエンゴンスー,0
1019,3700150115292,新規,0,2023-04-11,2023-04-11,Ｃｈａｎｇｚｈｏｕ　Ｙｉｓｈｉ　Ｉｎｔｅｒｎａｔｉｏｎａｌ　Ｔｒａｄｅ　Ｃｏ．，Ｌｔｄ,,外国会社等,,,,,,,,Ｒｏｏｍ　７０２，Ｂｕｉｌｄｉｎｇ　１，Ｆｕｃｈｅｎ　Ｇａｒｄｅｎ，Ｘｉｎｂｅｉ　Ｄｉｓｔｒｉｃｔ，Ｃｈａｎｇｚｈｏｕ　Ｃｉｔｙ,,,,,,2023-04-11,1,,,,,チャンジョウイーシーグオジーマオイーヨウシエンゴンスー,0
1020,3700150115301,新規,0,2023-04-11,2023-04-11,Ｆｏｒｔｉｔｕｄｅ　Ｒｅｉｎｓｕｒａｎｃｅ　Ｃｏｍｐａｎｙ　Ｌｉｍｉｔｅｄ,,外国会社等,東京都,中央区,日本橋２丁目７番１号,,13,102,1030027,Ｃｈｅｓｎｅｙ　Ｈｏｕｓｅ，３ｒｄ　Ｆｌｏｏｒ，９６　Ｐｉｔｔｓ　Ｂａｙ　Ｒｏａｄ，Ｈａｍｉｌｔｏｎ，Ｂｅｒｍｕｄａ　ＨＭＯ８,,,,,,2023-04-11,1,,,,,フオーテイテユードリインシユアランスカンパニーリミテツド,0
1032,4010001234204,新規,0,2023-04-11,2023-04-11,株式会社華慧,,株式会社,東京都,千代田区,九段北１丁目８番２号,,13,101,1020073,,,,,,,2023-04-11,1,,,,,ハナエ,0
1033,4010001234336,新規,0,2023-04-11,2023-04-11,徳和実業株式会社,,株式会社,東京都,文京区,湯島３丁目１６番１０号徳和ビル,,13,105,1130034,,,,,,,2023-04-11,1,,,,,トクワジツギョウ,0
1034,4010001234344,新規,0,2023-04-11,2023-04-11,Ｂｏｓｔｏｎ　Ｍｅｄｉｃａｌ　Ｓｃｉｅｎｃｅｓ株式会社,,株式会社,東京都,中央区,日本橋本町３丁目７番２号,,13,102,1030023,,,,,,,2023-04-11,1,,,,,ボストンメディカルサイエンシーズ,0
1035,4010001234385,新規,0,2023-04-11,2023-04-11,株式会社ＷＡＮＤＡ,,株式会社,東京都,文京区,本郷４丁目１６番６号天翔オフィス後楽園３階,,13,105,1130033,,,,,,,2023-04-11,1,,,,,ワンダ,0
1036,4010001234410,新規,0,2023-04-11,2023-04-11,株式会社４７,,株式会社,東京都,中央区,勝どき５丁目３番１－１１０６号,,13,102,1040054,,,,,,,2023-04-11,1,,,,,シーナ,0
1037,4010001234435,新規,0,2023-04-11,2023-04-11,智野株式会社,,株式会社,東京都,千代田区,神田三崎町２丁目１０番１１号Ｐｅｇビル４Ｂ－１,,13,101,1010061,,,,,,,2023-04-11,1,,,,,チノ,0
1039,4010003040294,新規,0,2023-04-11,2023-04-11,チェリーブロッサム合同会社,,合同会社,東京都,千代田区,丸の内１丁目１１番１号パシフィックセンチュリープレイス丸の内１７階,,13,101,1000005,,,,,,,2023-04-11,1,,,,,チェリーブロッサム,0
1041,4010005036448,新規,0,2023-04-11,2023-04-11,一般社団法人ＳＡＩＮＴＳサポーターズ,,その他の設立登記法人,東京都,中央区,日本橋堀留町２丁目１－７ステージグランデ日本橋１００６,,13,102,1030012,,,,,,,2023-04-11,1,,,,,セインツサポーターズ,0
1042,4010005036472,新規,0,2023-04-11,2023-04-11,一般社団法人次世代辞書研究会,,その他の設立登記法人,東京都,千代田区,神田猿楽町２丁目１番１号浅田ビル３Ｆ,,13,101,1010064,,,,,,,2023-04-11,1,,,,,ジセダイジショケンキュウカイ,0
1049,4010401173621,新規,0,2023-04-11,2023-04-11,程翔株式会社,,株式会社,東京都,港区,芝公園２丁目１１番１３－６０１号,,13,103,1050011,,,,,,,2023-04-11,1,,,,,テイショウ,0
1050,4010401173638,新規,0,2023-04-11,2023-04-11,メルシーメルシー株式会社,,株式会社,東京都,港区,南青山３丁目１番３１号,,13,103,1070062,,,,,,,2023-04-11,1,,,,,メルシーメルシー,0
1051,4010401173646,新規,0,2023-04-11,2023-04-11,商船三井ブルーウインド株式会社,,株式会社,東京都,港区,虎ノ門２丁目１番１号,,13,103,1050001,,,,,,,2023-04-11,1,,,,,ショウセンミツイブルーウインド,0
1054,4010403029895,新規,0,2023-04-11,2023-04-11,合同会社ｉｎｖｉｓｉｂｌｅ　ｆａｃｔｏｒｙ,,合同会社,東京都,港区,南青山３丁目１番３６号青山丸竹ビル６Ｆ,,13,103,1070062,,,,,,,2023-04-11,1,,,,,インビジブルファクトリー,0
1055,4010403029912,新規,0,2023-04-11,2023-04-11,合同会社澤口音響研究所,,合同会社,東京都,港区,浜松町２丁目２番１５号浜松町ダイヤビル２Ｆ,,13,103,1050013,,,,,,,2023-04-11,1,,,,,サワグチオンキョウケンキュウジョ,0
1056,4010405022007,新規,0,2023-04-11,2023-04-11,一般社団法人７９Ｓ　Ｔｏｋｙｏ,,その他の設立登記法人,東京都,港区,六本木６丁目１番２６号六本木天城ビル６階,,13,103,1060032,,,,,,,2023-04-11,1,,,,,ナナジュウキュウエストウキョウ,0
1060,4010501050266,新規,0,2023-04-11,2023-04-11,株式会社らっせる,,株式会社,東京都,台東区,橋場２丁目２０番６号浅野ビル,,13,106,1110023,,,,,,,2023-04-11,1,,,,,ラッセル,0
1061,4010501050282,新規,0,2023-04-11,2023-04-11,株式会社首都圏ネットワーク,,株式会社,東京都,台東区,東上野２丁目２４番４号,,13,106,1100015,,,,,,,2023-04-11,1,,,,,シュトケンネットワーク,0
1064,4010601062921,新規,0,2023-04-11,2023-04-11,株式会社藤会計事務所,,株式会社,東京都,江東区,東雲１丁目９番３２－３５１０号,,13,108,1350062,,,,,,,2023-04-11,1,,,,,フジカイケイジムショ,0
1077,4011001153625,新規,0,2023-04-11,2023-04-11,株式会社与志田,,株式会社,東京都,目黒区,目黒４丁目２０番２５号,,13,110,1530063,,,,,,,2023-04-11,1,,,,,ヨシダ,0
1078,4011001153658,新規,0,2023-04-11,2023-04-11,株式会社まるごと,,株式会社,東京都,渋谷区,神宮前３丁目１４番１７号１Ｆ,,13,113,1500001,,,,,,,2023-04-11,1,,,,,マルゴト,0
1079,4011001153674,新規,0,2023-04-11,2023-04-11,株式会社たすく,,株式会社,東京都,渋谷区,道玄坂１丁目１０番８号渋谷道玄坂東急ビル２Ｆ－Ｃ,,13,113,1500043,,,,,,,2023-04-11,1,,,,,タスク,0
1080,4011001153716,新規,0,2023-04-11,2023-04-11,株式会社インテグラルフォース,,株式会社,東京都,渋谷区,神宮前５丁目４４番２号,,13,113,1500001,,,,,,,2023-04-11,1,,,,,インテグラルフォース,0
1081,4011003016598,新規,0,2023-04-11,2023-04-11,合同会社ファームビジネスジャパン,,合同会社,東京都,渋谷区,神宮前４丁目１８番１７－１０４号,,13,113,1500001,,,,,,,2023-04-11,1,,,,,ファームビジネスジャパン,0
1082,4011003016615,新規,0,2023-04-11,2023-04-11,合同会社不忘山,,合同会社,東京都,渋谷区,神宮前６丁目２３番４号桑野ビル２階,,13,113,1500001,,,,,,,2023-04-11,1,,,,,フボウサン,0
1093,4011101102457,新規,0,2023-04-11,2023-04-11,株式会社ｕｋｉｙｏ,,株式会社,東京都,新宿区,高田馬場４丁目２８番１９号,,13,104,1690075,,,,,,,2023-04-11,1,,,,,ウキヨ,0
1094,4011101102465,新規,0,2023-04-11,2023-04-11,Ａｉｒｓｋｏｉ株式会社,,株式会社,東京都,新宿区,若葉１丁目９番地２５,,13,104,1600011,,,,,,,2023-04-11,1,,,,,エアーズコイ,0
1095,4011103012927,新規,0,2023-04-11,2023-04-11,ＣＳ福島石川合同会社,,合同会社,東京都,新宿区,西新宿２丁目１番１号新宿三井ビル４３階,,13,104,1600023,,,,,,,2023-04-11,1,,,,,シーエスフクシマイシカワ,0
1099,4011501029127,新規,0,2023-04-11,2023-04-11,Ｙｕｖａｌｌｅｙ株式会社,,株式会社,東京都,荒川区,町屋７丁目１番１－４０４号,,13,118,1160001,,,,,,,2023-04-11,1,,,,,ユーバレー,0
1100,4011501029135,新規,0,2023-04-11,2023-04-11,株式会社ＺＥＮＥＳ,,株式会社,東京都,北区,浮間３丁目１０番２１号,,13,117,1150051,,,,,,,2023-04-11,1,,,,,ジェネス,0
1104,4011601026718,新規,0,2023-04-11,2023-04-11,株式会社ＰＳＩ,,株式会社,東京都,練馬区,東大泉３丁目３０番９号,,13,120,1780063,,,,,,,2023-04-11,1,,,,,ピーエスアイ,0
1107,4011801042201,新規,0,2023-04-11,2023-04-11,株式会社渥美商店,,株式会社,東京都,葛飾区,鎌倉２丁目２番１４号,,13,122,1250053,,,,,,,2023-04-11,1,,,,,アツミショウテン,0
1109,4011803005593,新規,0,2023-04-11,2023-04-11,合同会社ＯＸＩＧＥＮ,,合同会社,東京都,足立区,千住関屋町１１－１－５０７,,13,121,1200024,,,,,,,2023-04-11,1,,,,,オキシゲン,0
1111,4012303001810,新規,0,2023-04-11,2023-04-11,合同会社ＴＵＬＳＩ,,合同会社,東京都,町田市,成瀬が丘３丁目６番地１成瀬が丘ホワイトテラス１０１,,13,209,1940011,,,,,,,2023-04-11,1,,,,,ツルシ,0
1117,4012801022242,新規,0,2023-04-11,2023-04-11,株式会社フレサ,,株式会社,東京都,立川市,富士見町７丁目２８番１７号,,13,202,1900013,,,,,,,2023-04-11,1,,,,,フレサ,0
1118,4012801022259,新規,0,2023-04-11,2023-04-11,株式会社石山工業,,株式会社,東京都,立川市,羽衣町３丁目６番２号,,13,202,1900021,,,,,,,2023-04-11,1,,,,,イシヤマコウギョウ,0
1130,4020001151084,新規,0,2023-04-11,2023-04-11,株式会社Ｇｒｏｕｎｄ　Ｈｏｕｓｅ,,株式会社,神奈川県,横浜市中区,西之谷町９０番地,,14,104,2310844,,,,,,,2023-04-11,1,,,,,グランドハウス,0
1144,4020005015938,新規,0,2023-04-11,2023-04-11,医療法人社団つむぎ会,,その他の設立登記法人,神奈川県,横浜市保土ケ谷区,峰岡町１丁目１３番地１津村ビル１階,,14,106,2400064,,,,,,,2023-04-11,1,,,,,ツムギカイ,0
1146,4021001078656,新規,0,2023-04-11,2023-04-11,ＦＥＡＴＨＥＲＡＱＵＡ　ＪＡＰＡＮ株式会社,,株式会社,神奈川県,綾瀬市,深谷中８丁目３番４号,,14,218,2521107,,,,,,,2023-04-11,1,,,,,フェザーアクアジャパン,0
1147,4021001078697,新規,0,2023-04-11,2023-04-11,株式会社ＳＮＣ,,株式会社,神奈川県,相模原市中央区,淵野辺本町１丁目３９番１５号,,14,152,2520202,,,,,,,2023-04-11,1,,,,,エスエヌシー,0
1150,4021003012943,新規,0,2023-04-11,2023-04-11,むすび合同会社,,合同会社,神奈川県,海老名市,国分寺台３丁目８番３１号,,14,215,2430413,,,,,,,2023-04-11,1,,,,,ムスビ,0
1151,4021003012951,新規,0,2023-04-11,2023-04-11,合同会社ＨＯＴ　ＷＨＩＰＳ,,合同会社,神奈川県,座間市,立野台３丁目２０番３４号,,14,216,2520023,,,,,,,2023-04-11,1,,,,,ホットウィップス,0
1153,4030001153162,新規,0,2023-04-11,2023-04-11,株式会社サン・クレバー,,株式会社,埼玉県,さいたま市岩槻区,大字本宿７２番地１,,11,110,3390074,,,,,,,2023-04-11,1,,,,,サンクレバー,0
1154,4030001153195,新規,0,2023-04-11,2023-04-11,株式会社おいしくどーぞ,,株式会社,埼玉県,越谷市,南越谷１丁目１５番地１南越谷ラクーン４階,,11,222,3430845,,,,,,,2023-04-11,1,,,,,オイシクドーゾ,0
1155,4030001153229,新規,0,2023-04-11,2023-04-11,ＣＣＢ　Ｃｏｎｓｕｌｔｉｎｇ株式会社,,株式会社,埼玉県,秩父市,大野原２２５５番地５,,11,207,3680005,,,,,,,2023-04-11,1,,,,,シーシービーコンサルティング,0
1156,4030001153237,新規,0,2023-04-11,2023-04-11,株式会社ＯＮＤＯホールディングス,,株式会社,埼玉県,東松山市,箭弓町１丁目１２－１１,,11,212,3550028,,,,,,,2023-04-11,1,,,,,オンドーホールディングス,0
1157,4030001153245,新規,0,2023-04-11,2023-04-11,Ｒｉｖｅｔｉｎｇ　Ｓｔｏｒｙ株式会社,,株式会社,埼玉県,和光市,白子１丁目２１番２３号,,11,229,3510101,,,,,,,2023-04-11,1,,,,,リビティングストーリー,0
1158,4030001153278,新規,0,2023-04-11,2023-04-11,フジイハウス株式会社,,株式会社,埼玉県,川口市,並木３丁目１６番１０号並木町サニーコーポ２０５号,,11,203,3320034,,,,,,,2023-04-11,1,,,,,フジイハウス,0
1159,4030001153286,新規,0,2023-04-11,2023-04-11,株式会社渡口工業,,株式会社,埼玉県,川口市,新井町８番２号,,11,203,3320005,,,,,,,2023-04-11,1,,,,,トグチコウギョウ,0
1160,4030001153294,新規,0,2023-04-11,2023-04-11,株式会社ミライホーム,,株式会社,埼玉県,さいたま市岩槻区,本町３丁目１７番１６号白石ビル１Ｃ,,11,110,3390057,,,,,,,2023-04-11,1,,,,,ミライホーム,0
1163,4030003021499,新規,0,2023-04-11,2023-04-11,合同会社ボヌールヴィル,,合同会社,埼玉県,草加市,稲荷２丁目２９番４４号,,11,221,3400003,,,,,,,2023-04-11,1,,,,,ボヌールヴィル,0
1164,4030003021524,新規,0,2023-04-11,2023-04-11,合同会社メルトかすかべ,,合同会社,埼玉県,春日部市,豊野町１丁目９番地１,,11,214,3440014,,,,,,,2023-04-11,1,,,,,メルトカスカベ,0
1165,4030003021532,新規,0,2023-04-11,2023-04-11,合同会社ｈａｓｈ,,合同会社,埼玉県,新座市,馬場１丁目７－１９－３２,,11,230,3520016,,,,,,,2023-04-11,1,,,,,ハッシュ,0
1166,4030003021540,新規,0,2023-04-11,2023-04-11,長江ソーラー合同会社,,合同会社,埼玉県,さいたま市西区,大字水判土２４３番地７,,11,101,3310059,,,,,,,2023-04-11,1,,,,,ナガエソーラー,0
1173,4040001127751,新規,0,2023-04-11,2023-04-11,株式会社大空,,株式会社,千葉県,習志野市,香澄２丁目６番２号,,12,216,2750022,,,,,,,2023-04-11,1,,,,,オオゾラ,0
1174,4040001127891,新規,0,2023-04-11,2023-04-11,株式会社テンタップ,,株式会社,千葉県,市原市,姉崎９７２番地,,12,219,2990111,,,,,,,2023-04-11,1,,,,,テンタップ,0
1175,4040001127917,新規,0,2023-04-11,2023-04-11,株式会社エアコンファクトリー,,株式会社,千葉県,銚子市,森戸町４４３番地,,12,202,2880872,,,,,,,2023-04-11,1,,,,,エアコンファクトリー,0
1177,4040003022356,新規,0,2023-04-11,2023-04-11,合同会社あゆみ,,合同会社,千葉県,いすみ市,岬町椎木４５０番地１,,12,238,2994501,,,,,,,2023-04-11,1,,,,,アユミ,0
1180,4050001052668,新規,0,2023-04-11,2023-04-11,株式会社ＬＡＮＤ,,株式会社,茨城県,日立市,千石町１丁目１９番６ー２０１号,,08,202,3160013,,,,,,,2023-04-11,1,,,,,ランド,0
1197,4080401026418,新規,0,2023-04-11,2023-04-11,株式会社清明コンサルティング,,株式会社,静岡県,浜松市西区,雄踏町宇布見９２３２番地の６,,22,133,4310102,,,,,,,2023-04-11,1,,,,,セイメイコンサルティング,0
1198,4080401026426,新規,0,2023-04-11,2023-04-11,株式会社オクトアビリティ,,株式会社,静岡県,浜松市中区,板屋町１０２－１５河合ビル,,22,131,4300928,,,,,,,2023-04-11,1,,,,,オクトアビリティ,0
1200,4100003006963,新規,0,2023-04-11,2023-04-11,ＲＡＫＵ　ＪＡＰＡＮラクジャパン合同会社,,合同会社,長野県,北安曇郡白馬村,大字神城２５７０５－１,,20,485,3999211,,,,,,,2023-04-11,1,,,,,ラクジャパンラクジャパン,0
1218,4120001253837,新規,0,2023-04-11,2023-04-11,株式会社Ａｒｏｕｎｄ‐Ｃ,,株式会社,大阪府,大阪市西成区,出城２丁目５番３号,,27,122,5570024,,,,,,,2023-04-11,1,,,,,アラウンドシー,0
1219,4120001253861,新規,0,2023-04-11,2023-04-11,株式会社華心,,株式会社,大阪府,大阪市西区,北堀江１丁目１６番２６号,,27,106,5500014,,,,,,,2023-04-11,1,,,,,カシン,0
1222,4120003023742,新規,0,2023-04-11,2023-04-11,合同会社Ｔｉｍｓｈｅｌ,,合同会社,大阪府,大阪市北区,梅田１丁目２番２号大阪駅前第２ビル１２－１２,,27,127,5300001,,,,,,,2023-04-11,1,,,,,ティムシェル,0
1223,4120003023791,新規,0,2023-04-11,2023-04-11,タカハネアンドカンパニー合同会社,,合同会社,大阪府,大阪市北区,梅田２丁目２番２号ヒルトンプラザウエストオフィスタワー１９階,,27,127,5300001,,,,,,,2023-04-11,1,,,,,タカハネアンドカンパニー,0
1224,4120005023534,新規,0,2023-04-11,2023-04-11,一般社団法人愛式メディカルリンパ協会,,その他の設立登記法人,大阪府,大阪市天王寺区,小橋町１２番２－３１４号,,27,109,5430028,,,,,,,2023-04-11,1,,,,,アイシキメディカルリンパキョウカイ,0
1225,4120005023567,新規,0,2023-04-11,2023-04-11,一般社団法人ＲＥＶＥスポーツクラブ,,その他の設立登記法人,大阪府,大阪市住吉区,苅田６丁目１６番１６号,,27,120,5580011,,,,,,,2023-04-11,1,,,,,レーヴスポーツクラブ,0
1228,4120101067311,新規,0,2023-04-11,2023-04-11,株式会社日の本技研,,株式会社,大阪府,堺市北区,蔵前町２丁１４番２０号,,27,146,5918004,,,,,,,2023-04-11,1,,,,,ヒノモトギケン,0
1229,4120901047330,新規,0,2023-04-11,2023-04-11,ＭＲＳトラスト株式会社,,株式会社,大阪府,豊中市,玉井町４丁目２番８－８０９号,,27,203,5600026,,,,,,,2023-04-11,1,,,,,エムアールエストラスト,0
1230,4120901047388,新規,0,2023-04-11,2023-04-11,Ｗｉｌｌ株式会社,,株式会社,大阪府,茨木市,五十鈴町５番３７号三和第７マンション２０２号室,,27,211,5670842,,,,,,,2023-04-11,1,,,,,ウイル,0
1234,4122003002552,新規,0,2023-04-11,2023-04-11,合同会社ＫＩＴＡＳＡＮ　ＴＥＣＨ,,合同会社,大阪府,八尾市,渋川町５丁目１番１４号,,27,212,5810075,,,,,,,2023-04-11,1,,,,,キタサンテック,0
1235,4122003002560,新規,0,2023-04-11,2023-04-11,合同会社フィアレス,,合同会社,大阪府,柏原市,旭ケ丘２丁目６番２２号,,27,221,5820026,,,,,,,2023-04-11,1,,,,,フィアレス,0
1264,4140001129721,新規,0,2023-04-11,2023-04-11,株式会社ｉ２,,株式会社,兵庫県,神戸市東灘区,渦森台３丁目１０番６－２号,,28,101,6580066,,,,,,,2023-04-11,1,,,,,アイツー,0
1266,4140003018947,新規,0,2023-04-11,2023-04-11,ＡＵＲＯＲＡ合同会社,,合同会社,兵庫県,尼崎市,戸ノ内町３丁目３３－９,,28,202,6610961,,,,,,,2023-04-11,1,,,,,オーロラ,0
1271,4150001026298,新規,0,2023-04-11,2023-04-11,株式会社Ａｌｌ　Ｃｏｎｎｅｃｔｉｏｎｓ,,株式会社,奈良県,奈良市,学園大和町６丁目６９６番地サザンヒルズ学園前３－５１０号,,29,201,6310041,,,,,,,2023-04-11,1,,,,,オールコネクションズ,0
1272,4150001026307,新規,0,2023-04-11,2023-04-11,株式会社ＯＣＴＳＩＧＨＴ,,株式会社,奈良県,生駒市,西旭ケ丘９番４３号,,29,209,6300261,,,,,,,2023-04-11,1,,,,,オクトサイト,0
1274,4150003002925,新規,0,2023-04-11,2023-04-11,ＰＵＣ合同会社,,合同会社,奈良県,奈良市,西大寺赤田町１丁目２番１６－１－５０１号,,29,201,6310818,,,,,,,2023-04-11,1,,,,,ピーユーシー,0
1276,4160003002841,新規,0,2023-04-11,2023-04-11,合資会社ＭＪＤ,,合資会社,滋賀県,東近江市,八日市東本町６－５５,,25,213,5270025,,,,,,,2023-04-11,1,,,,,エムジェーディー,0
1278,4170001017543,新規,0,2023-04-11,2023-04-11,株式会社ひととき,,株式会社,和歌山県,西牟婁郡白浜町,栄７３１番地の５,,30,401,6492332,,,,,,,2023-04-11,1,,,,,ヒトトキ,0
1287,4180001155689,新規,0,2023-04-11,2023-04-11,株式会社軌設機材サービス,,株式会社,愛知県,知多市,南粕谷新海３丁目１６番地１,,23,224,4780026,,,,,,,2023-04-11,1,,,,,キセツキカイサービス,0
1288,4180001155714,新規,0,2023-04-11,2023-04-11,株式会社三協建装,,株式会社,愛知県,名古屋市中区,錦１丁目５番１１号名古屋伊藤忠ビル４階,,23,106,4600003,,,,,,,2023-04-11,1,,,,,サンキョウケンソウ,0
1289,4180001155722,新規,0,2023-04-11,2023-04-11,株式会社岡建設,,株式会社,愛知県,名古屋市中村区,名駅４丁目２４番１６号広小路ガーデンアベニュー３階・４階,,23,105,4500002,,,,,,,2023-04-11,1,,,,,オカケンセツ,0
1290,4180001155805,新規,0,2023-04-11,2023-04-11,株式会社ＢＭＡＳ,,株式会社,愛知県,名古屋市東区,徳川町６０４番地,,23,102,4610023,,,,,,,2023-04-11,1,,,,,ビーマス,0
1291,4180001155813,新規,0,2023-04-11,2023-04-11,株式会社ワイティテクノ,,株式会社,愛知県,名古屋市東区,百人町３８番地,,23,102,4610037,,,,,,,2023-04-11,1,,,,,ワイティテクノ,0
1300,4190005011805,新規,0,2023-04-11,2023-04-11,Ｏｒｅｔａｃｈｉｎｏ　Ｃａｍｐ労働者協同組合連合会,,その他の設立登記法人,三重県,四日市市,北野町３４番地２,,24,202,5121208,,,,,,,2023-04-11,1,,,,,オレタチノキャンプ,0
1302,4200001041168,新規,0,2023-04-11,2023-04-11,ＡＴＣ株式会社,,株式会社,岐阜県,大垣市,昼飯町４８２番１,,21,202,5032216,,,,,,,2023-04-11,1,,,,,エーティーシー,0
1303,4200001041176,新規,0,2023-04-11,2023-04-11,株式会社ＴＯＹ‐ＢＯＸ,,株式会社,岐阜県,羽島郡笠松町,長池１７０番地９,,21,303,5016063,,,,,,,2023-04-11,1,,,,,トイボックス,0
1304,4200003005922,新規,0,2023-04-11,2023-04-11,合同会社悠真,,合同会社,岐阜県,岐阜市,又丸町畑２０番４,,21,201,5011153,,,,,,,2023-04-11,1,,,,,ユウシン,0
1313,4240001061328,新規,0,2023-04-11,2023-04-11,浜田建工株式会社,,株式会社,広島県,尾道市,瀬戸田町沢１７９番地１１,,34,205,7222413,,,,,,,2023-04-11,1,,,,,ハマダケンコウ,0
1317,4250005008811,新規,0,2023-04-11,2023-04-11,医療法人三修会,,その他の設立登記法人,山口県,岩国市,今津町１丁目１１－２８,,35,208,7400017,,,,,,,2023-04-11,1,,,,,サンシュウカイ,0
1319,4260001037846,新規,0,2023-04-11,2023-04-11,株式会社ＤＩＫ,,株式会社,岡山県,岡山市北区,富田町１丁目７番３号,,33,101,7000816,,,,,,,2023-04-11,1,,,,,ディーアイケー,0
1328,4290001101062,新規,0,2023-04-11,2023-04-11,株式会社ＷＡＩＰＥＲ,,株式会社,福岡県,福岡市中央区,清川３丁目２６番１７号ＷＡＩＰＥＲビル,,40,133,8100005,,,,,,,2023-04-11,1,,,,,ワイパー,0
1329,4290001101153,新規,0,2023-04-11,2023-04-11,株式会社ギリアコス,,株式会社,福岡県,福岡市博多区,博多駅前４丁目８番１５号,,40,132,8120011,,,,,,,2023-04-11,1,,,,,ギリアコス,0
1332,4290801029453,新規,0,2023-04-11,2023-04-11,ＮＩＮＥ株式会社,,株式会社,福岡県,北九州市小倉南区,城野４丁目４番１号１階,,40,107,8020802,,,,,,,2023-04-11,1,,,,,ナイン,0
1333,4300001013264,新規,0,2023-04-11,2023-04-11,未来美創株式会社,,株式会社,佐賀県,佐賀市,本庄町本庄５０６－１つるやビル１Ｆ,,41,201,8490000,,,,,,,2023-04-11,1,,,,,ミライビソウ,0
1340,4330001030760,新規,0,2023-04-11,2023-04-11,株式会社フードリンク,,株式会社,熊本県,熊本市東区,若葉６丁目３番３６号,,43,102,8612103,,,,,,,2023-04-11,1,,,,,フードリンク,0
1341,4340001025487,新規,0,2023-04-11,2023-04-11,株式会社加世田塗装,,株式会社,鹿児島県,志布志市,松山町尾野見１３１９番地９０,,46,221,8997603,,,,,,,2023-04-11,1,,,,,カセダトソウ,0
1343,4340005009585,新規,0,2023-04-11,2023-04-11,特定非営利活動法人種子島・島ｎｅｃｏ会,,その他の設立登記法人,鹿児島県,西之表市,西町１８５番地,,46,213,8913111,,,,,,,2023-04-11,1,,,,,タネガシマシマネコカイ,0
1346,4360005006829,新規,0,2023-04-11,2023-04-11,医療法人三誠会,,その他の設立登記法人,沖縄県,那覇市,久米１丁目２５番１０号２階,,47,201,9000033,,,,,,,2023-04-11,1,,,,,サンセイカイ,0
1348,4370001049789,新規,0,2023-04-11,2023-04-11,株式会社キープ,,株式会社,宮城県,塩竈市,泉ケ岡１１番２１号,,04,203,9850056,,,,,,,2023-04-11,1,,,,,キープ,0
1349,4370003006061,新規,0,2023-04-11,2023-04-11,Ｋ２サポート合同会社,,合同会社,宮城県,仙台市太白区,萩ケ丘２８‐２０クローバーヒルマンション２０３,,04,104,9820848,,,,,,,2023-04-11,1,,,,,ケーツーサポート,0
1355,4400001001234,新規,0,2023-04-11,2023-04-11,日新産業株式会社,,株式会社,岩手県,盛岡市,中野２丁目１５番１号,,03,201,0200816,,,,,,,2023-04-11,1,,,,,ニッシンサンギョウ,0
1357,4410003003780,新規,0,2023-04-11,2023-04-11,佐々木左官合同会社,,合同会社,秋田県,横手市,大雄字一ノ関５６番地,,05,203,0130353,,,,,,,2023-04-11,1,,,,,ササキサカン,0
1361,4430001088789,新規,0,2023-04-11,2023-04-11,株式会社Ｂｅ‐ＮＥＸＴ,,株式会社,北海道,札幌市東区,中沼町１３５番地６３,,01,103,0070890,,,,,,,2023-04-11,1,,,,,ビーネクスト,0
1362,4430001088806,新規,0,2023-04-11,2023-04-11,株式会社Ｂｏｒｄ,,株式会社,北海道,札幌市北区,拓北三条３丁目５番８号,,01,102,0028063,,,,,,,2023-04-11,1,,,,,ボード,0
1363,4430001088822,新規,0,2023-04-11,2023-04-11,株式会社ＫＮＢ,,株式会社,北海道,札幌市北区,屯田三条６丁目２番２号,,01,102,0020853,,,,,,,2023-04-11,1,,,,,ケーエヌビー,0
1366,4430003014925,新規,0,2023-04-11,2023-04-11,合同会社シーズウェル,,合同会社,北海道,岩見沢市,ふじ町二条３丁目２番１号,,01,210,0680832,,,,,,,2023-04-11,1,,,,,シーズウェル,0
1378,4470001019559,新規,0,2023-04-11,2023-04-11,株式会社Ｍ’ｓ　ｃｌａｎ,,株式会社,香川県,高松市,十川西町１６８番地４,,37,201,7610433,,,,,,,2023-04-11,1,,,,,エムズクラン,0
1380,4480001012067,新規,0,2023-04-11,2023-04-11,エクステリア五大株式会社,,株式会社,徳島県,板野郡松茂町,中喜来字中瀬西ノ越２番地１８,,36,401,7710212,,,,,,,2023-04-11,1,,,,,エクステリアゴダイ,0
1383,4500001024869,新規,0,2023-04-11,2023-04-11,株式会社シトラス,,株式会社,愛媛県,松山市,北斎院町６２１番地３ＢＥＥＫ’Ｓ北斎院１０３号,,38,201,7918031,,,,,,,2023-04-11,1,,,,,シトラス,0
1384,4500003003012,新規,0,2023-04-11,2023-04-11,合同会社ＴＯＦ,,合同会社,愛媛県,今治市,国分３丁目１４番５号,,38,202,7991533,,,,,,,2023-04-11,1,,,,,トフ,0
1385,4700150115283,新規,0,2023-04-11,2023-04-11,ｘｉａｍｅｎｓｈｉｙａｎｇｌｉｚｈｉｙｉｙｏｕｘｉａｎｇｏｎｇｓｉ,,外国会社等,,,,,,,,ＮＯ．１５２　Ｆａｃｔｏｒｙ　Ｔｏｎｇ’Ａｎ　Ｉｎｄｕｓｔｒｉａｌ　ｐａｒｋ　Ｔｏｎｇ’Ａｎ　Ｄｉｓｔｒｉｃｔ　ｘｉａｍｅｎｓｈｉ　ｆｕｊｉａｎｓｈｅｎｇ,,,,,,2023-04-11,1,,,,,シャーメンシーヤンリージーイーヨウシエンゴンスー,0
1386,4700150115291,新規,0,2023-04-11,2023-04-11,ＪＩＡＮＧＳＵ　ＰＥＮＧＣＨＥＮＧ　ＷＥＩＹＥ　ＦＵＲＮＩＴＵＲＥ　ＣＯ．，ＬＴＤ,,外国会社等,,,,,,,,Ｃｕｉｑｉａｏ　Ｖｉｌｌａｇｅ，Ｈｅｎｇｌｉｎ　Ｔｏｗｎ，Ｗｕｊｉｎ　Ｄｉｓｔｒｉｃｔ，Ｃｈａｎｇｚｈｏｕ　Ｃｉｔｙ，Ｊｉａｎｇｓｕ　Ｐｒｏｖｉｎｃｅ,,,,,,2023-04-11,1,,,,,ジャンスーポンチョンウェイイエジャージーヨウシエンゴンスー,0
1387,4700150115300,新規,0,2023-04-11,2023-04-11,ＣＯＣＯＤＯＲ　Ｃｏ．，Ｌｔｄ,,外国会社等,,,,,,,,１４５－１７，Ｗａｎｇｄａｍ－ｒｏ，Ｍｏｈｙｅｏｎ－ｅｕｐ，Ｃｈｅｏｉｎ－ｇｕ，Ｙｏｎｇｉｎ－ｓｉ，Ｇｙｅｏｎｇｇｉ－ｄｏ，Ｒｅｐｕｂｌｉｃ　ｏｆ　Ｋｏｒｅａ,,,,,,2023-04-11,1,,,,,コーコードルカンパニーリミテツド,0
1388,4700150115309,新規,0,2023-04-11,2023-04-11,ｆｏｓｈａｎｓｈｉｘｉａｎｇｂａｏｍａｎｙｏｕｘｉａｎｇｏｎｇｓｉ,,外国会社等,,,,,,,,３ｒｄＦＬｏｏｒ，Ｇｏｎｇｔｏｎｇ８５，Ｌｉｕｃｈａｏｃｕｎ，Ｌｉｓｈｕｉｚｈｅｎ，Ｎａｎｈａｉｑｕ，Ｆｏｓｈａｎ，Ｇｕａｎｇｄｏｎｇ，Ｃｈｉｎａ,,,,,,2023-04-11,1,,,,,フォーシャンシーシャンバオマンマオイーヨウシエンゴンスー,0
1397,5010001234269,新規,0,2023-04-11,2023-04-11,株式会社デリ・アートアドバンス,,株式会社,東京都,千代田区,神田錦町３丁目１５名鉄不動産竹橋ビル３階,,13,101,1010054,,,,,,,2023-04-11,1,,,,,デリアートアドバンス,0
1398,5010001234293,新規,0,2023-04-11,2023-04-11,株式会社リブ・ネクスト,,株式会社,東京都,中央区,日本橋室町１丁目１１番１２号日本橋水野ビル７階,,13,102,1030022,,,,,,,2023-04-11,1,,,,,リブネクスト,0
1399,5010001234335,新規,0,2023-04-11,2023-04-11,株式会社ＥＣＣＨＡ,,株式会社,東京都,千代田区,富士見１丁目６－１フジビュータワー飯田橋９０２,,13,101,1020071,,,,,,,2023-04-11,1,,,,,イッチャ,0
1400,5010001234343,新規,0,2023-04-11,2023-04-11,メイドーエアロスペース株式会社,,株式会社,東京都,千代田区,霞が関３丁目６番１５号,,13,101,1000013,,,,,,,2023-04-11,1,,,,,メイドーエアロスペース,0
1401,5010001234376,新規,0,2023-04-11,2023-04-11,株式会社Ａｍｍｙ,,株式会社,東京都,中央区,八丁堀４丁目８番７－３０２号,,13,102,1040032,,,,,,,2023-04-11,1,,,,,アミー,0
1402,5010001234384,新規,0,2023-04-11,2023-04-11,コミュニティープラス東京株式会社,,株式会社,東京都,千代田区,飯田橋４丁目８番１３号,,13,101,1020072,,,,,,,2023-04-11,1,,,,,コミュニティープラストウキョウ,0
1404,5010003040285,新規,0,2023-04-11,2023-04-11,ＯＦＦＩＣＥオオクラ合同会社,,合同会社,東京都,文京区,水道１丁目１１番９－５１４号,,13,105,1120005,,,,,,,2023-04-11,1,,,,,オフィスオオクラ,0
1405,5010003040302,新規,0,2023-04-11,2023-04-11,合同会社デザイン経営,,合同会社,東京都,文京区,本郷４丁目２－２北信ビル３階,,13,105,1130033,,,,,,,2023-04-11,1,,,,,デザインケイエイ,0
1406,5010003040310,新規,0,2023-04-11,2023-04-11,ＰＳ袖ヶ浦合同会社,,合同会社,東京都,千代田区,丸の内３丁目１番１号東京共同会計事務所内,,13,101,1000005,,,,,,,2023-04-11,1,,,,,ピーエスソデガウラ,0
1412,5010005036488,新規,0,2023-04-11,2023-04-11,Ａ４ＪＰ　Ａｍｉ　Ｈｉｇａｓｈｉ特定目的会社,,その他の設立登記法人,東京都,中央区,日本橋３丁目９番１号日本橋三丁目スクエア１１階,,13,102,1030027,,,,,,,2023-04-11,1,,,,,エーフォージェイピーアミヒガシ,0
1416,5010401173579,新規,0,2023-04-11,2023-04-11,株式会社ホワイトアザブ,,株式会社,東京都,港区,麻布十番１丁目５－１１波田野ビル３０３,,13,103,1060045,,,,,,,2023-04-11,1,,,,,ホワイトアザブ,0
1417,5010401173629,新規,0,2023-04-11,2023-04-11,ＭＩＣ株式会社,,株式会社,東京都,港区,浜松町１丁目３番２－２８０６号,,13,103,1050013,,,,,,,2023-04-11,1,,,,,エムアイシー,0
1419,5010501050265,新規,0,2023-04-11,2023-04-11,株式会社アクチュエルイメージ,,株式会社,東京都,台東区,駒形１丁目５番１６－１２０３号,,13,106,1110043,,,,,,,2023-04-11,1,,,,,アクチュエルイメージ,0
1420,5010501050281,新規,0,2023-04-11,2023-04-11,Ｍ＆Ｙ株式会社,,株式会社,東京都,台東区,千束４丁目４４番７－８０２号,,13,106,1110031,,,,,,,2023-04-11,1,,,,,エムアンドワイ,0
1421,5010503006942,新規,0,2023-04-11,2023-04-11,Ｒａｂｂｉｔ　Ｈｅａｒｔ合同会社,,合同会社,東京都,台東区,浅草橋５丁目１番３１号ロッキービル３０４号室,,13,106,1110053,,,,,,,2023-04-11,1,,,,,ラビットハート,0
1426,5010801033829,新規,0,2023-04-11,2023-04-11,株式会社コジマ,,株式会社,東京都,大田区,西六郷４丁目３１番７号,,13,111,1440056,,,,,,,2023-04-11,1,,,,,,0
1427,5010801033837,新規,0,2023-04-11,2023-04-11,株式会社Ｔｈｒｅｅ　ｎｉｌ,,株式会社,東京都,大田区,西馬込１丁目２２番７号グランベルデ西馬込３０５,,13,111,1430026,,,,,,,2023-04-11,1,,,,,スリーニル,0
1435,5010901052852,新規,0,2023-04-11,2023-04-11,Ｋａｒｉｎ株式会社,,株式会社,東京都,世田谷区,瀬田３丁目１１番２４号,,13,112,1580095,,,,,,,2023-04-11,1,,,,,カリン,0
1448,5011001153673,新規,0,2023-04-11,2023-04-11,株式会社Ｓｅｅｎｏｗ,,株式会社,東京都,渋谷区,恵比寿西１丁目３３番３１号,,13,113,1500021,,,,,,,2023-04-11,1,,,,,シーナウ,0
1449,5011001153681,新規,0,2023-04-11,2023-04-11,ＴＨＥ　ＴＡＩＬＯＲＥＤ　ＳＡＵＮＡ株式会社,,株式会社,東京都,渋谷区,神宮前３丁目１３番２６号,,13,113,1500001,,,,,,,2023-04-11,1,,,,,ザテーラードサウナ,0
1450,5011001153715,新規,0,2023-04-11,2023-04-11,株式会社コンテナワークス,,株式会社,東京都,渋谷区,代官山町１番８号,,13,113,1500034,,,,,,,2023-04-11,1,,,,,コンテナワークス,0
1455,5011003016597,新規,0,2023-04-11,2023-04-11,Ｌｅｏｃｏｒｐｏｒａｔｉｏｎ合同会社,,合同会社,東京都,渋谷区,円山町５番５号Ｎａｖｉ渋谷Ｖ３階,,13,113,1500044,,,,,,,2023-04-11,1,,,,,レオコーポレーション,0
1460,5011101102456,新規,0,2023-04-11,2023-04-11,株式会社３ｉｔｓｕｋａ,,株式会社,東京都,新宿区,西新宿３丁目３番１３号西新宿水間ビル２Ｆ,,13,104,1600023,,,,,,,2023-04-11,1,,,,,ミツカ,0
1461,5011101102472,新規,0,2023-04-11,2023-04-11,株式会社Ｍｉｇｎｏｎ,,株式会社,東京都,新宿区,西新宿７丁目１６－４ｃｏｎｃｉｅｒｇｅ高橋６階Ｂ号室（６０２）,00130063,13,104,1600023,,,,,,,2023-04-11,1,,,,,ミニョン,0
1462,5011101102497,新規,0,2023-04-11,2023-04-11,株式会社デルロイ,,株式会社,東京都,新宿区,下落合２丁目１９番１３－２１４号,,13,104,1610033,,,,,,,2023-04-11,1,,,,,デルロイ,0
1463,5011105010606,新規,0,2023-04-11,2023-04-11,一般社団法人建設業みらい推進機構,,その他の設立登記法人,東京都,新宿区,新宿１丁目３６番２号,,13,104,1600022,,,,,,,2023-04-11,1,,,,,ケンセツギョウミライスイシンキコウ,0
1464,5011201024542,新規,0,2023-04-11,2023-04-11,株式会社タジマホールディングス,,株式会社,東京都,中野区,江原町３丁目３５番３号,,13,114,1650023,,,,,,,2023-04-11,1,,,,,タジマホールディングス,0
1473,5011401025035,新規,0,2023-04-11,2023-04-11,株式会社公貴建設,,株式会社,東京都,板橋区,西台３丁目４０番８号,,13,119,1750045,,,,,,,2023-04-11,1,,,,,コウキケンセツ,0
1478,5011501029159,新規,0,2023-04-11,2023-04-11,株式会社プラスケアソリューション,,株式会社,東京都,荒川区,西日暮里２丁目２２番３号ＡｎｎｅｘＷｅｓｔ４階,,13,118,1160013,,,,,,,2023-04-11,1,,,,,プラスケアソリューション,0
1480,5011603003887,新規,0,2023-04-11,2023-04-11,合同会社ＷＩＳＥ,,合同会社,東京都,練馬区,石神井台８丁目３番４号サニーテラス２号,,13,120,1770045,,,,,,,2023-04-11,1,,,,,ワイズ,0
1499,5012401040387,新規,0,2023-04-11,2023-04-11,株式会社ＫＩＮＡ,,株式会社,東京都,武蔵野市,吉祥寺北町１丁目２７番２３号,,13,203,1800001,,,,,,,2023-04-11,1,,,,,キナ,0
1500,5012403005909,新規,0,2023-04-11,2023-04-11,合同会社ＴｅａｍＷＡＫＫＡ,,合同会社,東京都,武蔵野市,御殿山２丁目１５番１４号,,13,203,1800005,,,,,,,2023-04-11,1,,,,,チームワッカ,0
1502,5012801022258,新規,0,2023-04-11,2023-04-11,株式会社ムサシノクレーンサービス,,株式会社,東京都,国立市,西２丁目２１番地の８４,,13,215,1860005,,,,,,,2023-04-11,1,,,,,ムサシノクレーンサービス,0
1507,5013303006575,新規,0,2023-04-11,2023-04-11,合同会社５８コンサルティング,,合同会社,東京都,豊島区,南池袋４丁目２０番９号サンロードビル１１２,,13,116,1710022,,,,,,,2023-04-11,1,,,,,ゴーハチコンサルティング,0
1521,5020001151042,新規,0,2023-04-11,2023-04-11,上官株式会社,,株式会社,神奈川県,川崎市幸区,南幸町２丁目２番地,,14,132,2120016,,,,,,,2023-04-11,1,,,,,カミツカサ,0
1522,5020001151059,新規,0,2023-04-11,2023-04-11,株式会社早野建設,,株式会社,神奈川県,横浜市鶴見区,潮田町２丁目１１３番地の２,,14,101,2300041,,,,,,,2023-04-11,1,,,,,ハヤノケンセツ,0
1523,5020001151075,新規,0,2023-04-11,2023-04-11,株式会社ＺＥＮ,,株式会社,神奈川県,横浜市鶴見区,市場大和町９番３２号,,14,101,2300025,,,,,,,2023-04-11,1,,,,,ゼン,0
1527,5020003023702,新規,0,2023-04-11,2023-04-11,合同会社支考社,,合同会社,神奈川県,横浜市港北区,大曽根２丁目５４番７号,,14,109,2220003,,,,,,,2023-04-11,1,,,,,シコウシャ,0
1532,5021001078622,新規,0,2023-04-11,2023-04-11,株式会社矢幸建築,,株式会社,神奈川県,茅ヶ崎市,円蔵１丁目２２番６－３０２号エヴァースカイ,,14,207,2530084,,,,,,,2023-04-11,1,,,,,ヤコウケンチク,0
1533,5021001078630,新規,0,2023-04-11,2023-04-11,株式会社ミライエ建創,,株式会社,神奈川県,大和市,深見３４２１番地１３,,14,213,2420011,,,,,,,2023-04-11,1,,,,,ミライエケンソウ,0
1534,5021001078655,新規,0,2023-04-11,2023-04-11,株式会社焚き火,,株式会社,神奈川県,座間市,小松原２丁目４４番１－１０１号,,14,216,2520002,,,,,,,2023-04-11,1,,,,,タキビ,0
1535,5021001078688,新規,0,2023-04-11,2023-04-11,株式会社ｍｉｉ,,株式会社,神奈川県,相模原市中央区,矢部３丁目２０番１５号,,14,152,2520232,,,,,,,2023-04-11,1,,,,,ミー,0
1536,5021001078696,新規,0,2023-04-11,2023-04-11,株式会社和建築,,株式会社,神奈川県,藤沢市,宮原１３２０番地の２,,14,205,2520826,,,,,,,2023-04-11,1,,,,,カズケンチク,0
1538,5021003012942,新規,0,2023-04-11,2023-04-11,合同会社湘南かまくら産業医事務所,,合同会社,神奈川県,鎌倉市,由比ガ浜２丁目２番１７号,,14,204,2480014,,,,,,,2023-04-11,1,,,,,ショウナンカマクラサンギョウイジムショ,0
1539,5021003012967,新規,0,2023-04-11,2023-04-11,合同会社Ｋ‐ｆａｍｉｌｙ,,合同会社,神奈川県,大和市,福田４５番地２０,,14,213,2420024,,,,,,,2023-04-11,1,,,,,ケーファミリー,0
1540,5021005012783,新規,0,2023-04-11,2023-04-11,一般社団法人凡游社,,その他の設立登記法人,神奈川県,横須賀市,汐入町３丁目７７番地,,14,201,2380042,,,,,,,2023-04-11,1,,,,,ボンユウシャ,0
1546,5030001153161,新規,0,2023-04-11,2023-04-11,ＫＳインテリア株式会社,,株式会社,埼玉県,さいたま市岩槻区,本町４丁目９番８号,,11,110,3390057,,,,,,,2023-04-11,1,,,,,ケイエスインテリア,0
1547,5030001153252,新規,0,2023-04-11,2023-04-11,株式会社ＳＩＳＵ,,株式会社,埼玉県,朝霞市,本町３丁目１番５３号,,11,227,3510011,,,,,,,2023-04-11,1,,,,,シス,0
1548,5030001153260,新規,0,2023-04-11,2023-04-11,ＮＡＲＡＮ株式会社,,株式会社,埼玉県,草加市,谷塚町１５１３谷沖ハイツ１０６,,11,221,3400023,,,,,,,2023-04-11,1,,,,,ナラン,0
1549,5030001153269,新規,0,2023-04-11,2023-04-11,株式会社ＴＣＭ,,株式会社,埼玉県,八潮市,緑町１丁目３４－３５,,11,234,3400808,,,,,,,2023-04-11,1,,,,,ティーシーエム,0
1550,5030001153293,新規,0,2023-04-11,2023-04-11,株式会社日中橋,,株式会社,埼玉県,川口市,柳崎３丁目１６番４号,,11,203,3330861,,,,,,,2023-04-11,1,,,,,ニッチュウバシ,0
1555,5030003021515,新規,0,2023-04-11,2023-04-11,合同会社シルトクレーテ,,合同会社,埼玉県,三郷市,高州３丁目１３９番地,,11,237,3410037,,,,,,,2023-04-11,1,,,,,シルトクレーテ,0
1556,5030003021531,新規,0,2023-04-11,2023-04-11,合同会社ＭＵＵ,,合同会社,埼玉県,比企郡小川町,大字奈良梨７９番地,,11,343,3550303,,,,,,,2023-04-11,1,,,,,ムー,0
1557,5030003021548,新規,0,2023-04-11,2023-04-11,龍豊商事合同会社,,合同会社,埼玉県,川口市,芝２丁目８番３号,,11,203,3330866,,,,,,,2023-04-11,1,,,,,リュウホウショウジ,0
1565,5040001127890,新規,0,2023-04-11,2023-04-11,株式会社ウェルマーク,,株式会社,千葉県,市原市,姉崎９７２番地,,12,219,2990111,,,,,,,2023-04-11,1,,,,,ウェルマーク,0
1566,5040001127940,新規,0,2023-04-11,2023-04-11,九三トイズ株式会社,,株式会社,千葉県,香取市,佐原字上宿台イ１２７９番地４－２階２Ａ号室,,12,236,2870000,,,,,,,2023-04-11,1,,,,,キュウサントイズ,0
1571,5040003022363,新規,0,2023-04-11,2023-04-11,合同会社アドバンス,,合同会社,千葉県,船橋市,市場３丁目１６番１－６２４号,,12,204,2730001,,,,,,,2023-04-11,1,,,,,アドバンス,0
1573,5040005021958,新規,0,2023-04-11,2023-04-11,誠心協同組合,,その他の設立登記法人,千葉県,船橋市,市場１丁目８番１号,,12,204,2730001,,,,,,,2023-04-11,1,,,,,セイシン,0
1576,5050001052659,新規,0,2023-04-11,2023-04-11,株式会社Ｓｈｏｒｔｃａｋｅ,,株式会社,茨城県,稲敷郡阿見町,大字荒川本郷１３３４番地１１７,,08,443,3001152,,,,,,,2023-04-11,1,,,,,ショートケーキ,0
1579,5060003004509,新規,0,2023-04-11,2023-04-11,松島合同会社,,合同会社,栃木県,那須塩原市,木綿畑２７６番地１０,,09,213,3250116,,,,,,,2023-04-11,1,,,,,マツシマ,0
1580,5060005010075,新規,0,2023-04-11,2023-04-11,一般社団法人結の里,,その他の設立登記法人,栃木県,足利市,借宿町２６番地,,09,202,3260826,,,,,,,2023-04-11,1,,,,,ユイノサト,0
1589,5080003002956,新規,0,2023-04-11,2023-04-11,合同会社ｗｉｔｈ,,合同会社,静岡県,静岡市清水区,蒲原４８７５番地の３６,,22,103,4213203,,,,,,,2023-04-11,1,,,,,ウィズ,0
1594,5080401026425,新規,0,2023-04-11,2023-04-11,株式会社イワタ運輸,,株式会社,静岡県,磐田市,福田中島３６５７－１－１０９,,22,211,4371204,,,,,,,2023-04-11,1,,,,,イワタウンユ,0
1598,5100005012991,新規,0,2023-04-11,2023-04-11,一般社団法人てとて,,その他の設立登記法人,長野県,下高井郡山ノ内町,大字夜間瀬８８８７番地,,20,561,3810405,,,,,,,2023-04-11,1,,,,,テトテ,0
1599,5110001037414,新規,0,2023-04-11,2023-04-11,株式会社タケダデンキ,,株式会社,新潟県,上越市,大字青野８５８番地,,15,222,9420238,,,,,,,2023-04-11,1,,,,,タケダデンキ,0
1600,5110001037430,新規,0,2023-04-11,2023-04-11,株式会社エムズプラン,,株式会社,新潟県,十日町市,野口３１９番地１,,15,210,9480301,,,,,,,2023-04-11,1,,,,,エムズプラン,0
1610,5120001253613,新規,0,2023-04-11,2023-04-11,株式会社ＳｅｒＥＮ　Ｔｒｉａｌｓ,,株式会社,大阪府,大阪市住吉区,長居東３丁目９番２４－２０１号,,27,120,5580004,,,,,,,2023-04-11,1,,,,,セレントライアルズ,0
1611,5120001253761,新規,0,2023-04-11,2023-04-11,株式会社瓷愛一生国際オークション,,株式会社,大阪府,大阪市都島区,御幸町１丁目５番３号オーキット都島５０１,,27,102,5340012,,,,,,,2023-04-11,1,,,,,ジアイイッショウコクサイオークション,0
1612,5120001253869,新規,0,2023-04-11,2023-04-11,株式会社ＫＳＲ,,株式会社,大阪府,大阪市西淀川区,御幣島２丁目９番３９－６０９号,,27,113,5550012,,,,,,,2023-04-11,1,,,,,ケイエスアール,0
1613,5120001253877,新規,0,2023-04-11,2023-04-11,株式会社Ｉ‐Ｅｒａ,,株式会社,大阪府,大阪市西区,北堀江３丁目６番２－１００１号,,27,106,5500014,,,,,,,2023-04-11,1,,,,,アイイーラ,0
1614,5120001253885,新規,0,2023-04-11,2023-04-11,株式会社Ｍ‐ｔｒｅｅ,,株式会社,大阪府,大阪市東淀川区,菅原３丁目９番３号,,27,114,5330022,,,,,,,2023-04-11,1,,,,,エムツリー,0
1615,5120001253893,新規,0,2023-04-11,2023-04-11,Ｐｉｇｅｏｎ　Ｅｘｐｒｅｓｓ日本株式会社,,株式会社,大阪府,大阪市浪速区,芦原１丁目１番７号フォレスト難波西１階,00130054,27,111,5560029,,,,,,,2023-04-11,1,,,,,ピジョンエクスプレスニホン,0
1617,5120003023700,新規,0,2023-04-11,2023-04-11,小百合商事合同会社,,合同会社,大阪府,大阪市生野区,新今里５丁目４－６－１０３号室,,27,116,5440001,,,,,,,2023-04-11,1,,,,,サユリショウジ,0
1618,5120003023799,新規,0,2023-04-11,2023-04-11,合同会社ＧＲＩＴＴＹ,,合同会社,大阪府,大阪市淀川区,西中島４丁目１１番２４号第１ユーリハイツ２０３号,,27,123,5320011,,,,,,,2023-04-11,1,,,,,グリッティー,0
1622,5120005023566,新規,0,2023-04-11,2023-04-11,大阪兵庫住宅設備協同組合,,その他の設立登記法人,大阪府,大阪市西区,南堀江１丁目１１番２１号ＳｔｏＲＫ南堀江７階,,27,106,5500015,,,,,,,2023-04-11,1,,,,,オオサカヒョウゴジュウタクセツビ,0
1623,5120103005160,新規,0,2023-04-11,2023-04-11,合同会社幸優,,合同会社,大阪府,岸和田市,内畑町１００３番地,,27,202,5960105,,,,,,,2023-04-11,1,,,,,コウユウ,0
1626,5120903004584,新規,0,2023-04-11,2023-04-11,合同会社ＪＵＤＤ,,合同会社,大阪府,茨木市,上穂積１丁目２番１４－９１０号,,27,211,5670036,,,,,,,2023-04-11,1,,,,,ジャッド,0
1628,5122001036873,新規,0,2023-04-11,2023-04-11,株式会社ＦＥＬＩＣＩＴＹ,,株式会社,大阪府,大東市,幸町１７－１０－４０６,,27,218,5740028,,,,,,,2023-04-11,1,,,,,フェリシティ,0
1644,5150001026297,新規,0,2023-04-11,2023-04-11,株式会社ＫＡＭＥ,,株式会社,奈良県,桜井市,大字東田６７番地の２,,29,206,6330085,,,,,,,2023-04-11,1,,,,,カメ,0
1647,5150003002924,新規,0,2023-04-11,2023-04-11,合同会社Ｍ・ＳＰＥＣ　ＰＲＯＦＥＳＳＩＯＮＡＬ,,合同会社,奈良県,奈良市,四条大路３丁目４番５号ミヨシビル２０２号,,29,201,6308014,,,,,,,2023-04-11,1,,,,,エムスペックプロフェッショナル,0
1649,5160001024969,新規,0,2023-04-11,2023-04-11,株式会社こころ,,株式会社,滋賀県,彦根市,馬場１丁目４番５４号,,25,202,5220069,,,,,,,2023-04-11,1,,,,,ココロ,0
1656,5180001155754,新規,0,2023-04-11,2023-04-11,株式会社東海設備,,株式会社,愛知県,あま市,森４丁目１０番地１６,,23,237,4901107,,,,,,,2023-04-11,1,,,,,トウカイセツビ,0
1657,5180001155770,新規,0,2023-04-11,2023-04-11,株式会社ＥＮ‐ＣＯＵＮＴＥＲ　ＰＲＯＭＯＴＩＯＮ,,株式会社,愛知県,一宮市,猿海道１丁目７番１５号,,23,203,4910838,,,,,,,2023-04-11,1,,,,,エンカウンタープロモーション,0
1658,5180001155829,新規,0,2023-04-11,2023-04-11,株式会社まりも不動産,,株式会社,愛知県,半田市,山代町２丁目１０３番地９,,23,205,4750974,,,,,,,2023-04-11,1,,,,,マリモフドウサン,0
1664,5180305009458,新規,0,2023-04-11,2023-04-11,一般社団法人ワーク・ダイバーシティ・スタイル,,その他の設立登記法人,愛知県,豊田市,広田町広田５番地１２,,23,211,4730912,,,,,,,2023-04-11,1,,,,,ワークダイバーシティスタイル,0
1666,5200001041159,新規,0,2023-04-11,2023-04-11,神林業株式会社,,株式会社,岐阜県,郡上市,高鷲町大鷲２０１７番地１,,21,219,5015303,,,,,,,2023-04-11,1,,,,,カミリンギョウ,0
1676,5240001061335,新規,0,2023-04-11,2023-04-11,ｈｉｇｈｅｓｔ　ＡＲＴ株式会社,,株式会社,広島県,東広島市,高屋高美が丘３丁目２３番１５号,,34,212,7392115,,,,,,,2023-04-11,1,,,,,ハイエストアート,0
1677,5240001061343,新規,0,2023-04-11,2023-04-11,株式会社継匠,,株式会社,広島県,安芸郡熊野町,呉地５丁目６番１８号,,34,307,7314222,,,,,,,2023-04-11,1,,,,,ケイショウ,0
1686,5260001037837,新規,0,2023-04-11,2023-04-11,株式会社松永創作事務所,,株式会社,岡山県,倉敷市,八軒屋１００－３,,33,202,7100037,,,,,,,2023-04-11,1,,,,,マツナガソウサクジムショ,0
1689,5280001008919,新規,0,2023-04-11,2023-04-11,アマテラス株式会社,,株式会社,島根県,出雲市,今市町１３７５番地１,,32,203,6930001,,,,,,,2023-04-11,1,,,,,アマテラス,0
1690,5280005007545,新規,0,2023-04-11,2023-04-11,農事組合法人かわい中央,,その他の設立登記法人,島根県,大田市,川合町川合１５９６番地１,,32,205,6940011,,,,,,,2023-04-11,1,,,,,カワイチュウオウ,0
1694,5290001101169,新規,0,2023-04-11,2023-04-11,株式会社ＩＯＲＩ,,株式会社,福岡県,福岡市南区,三宅１丁目１番６号,,40,134,8111344,,,,,,,2023-04-11,1,,,,,イオリ,0
1698,5290003013734,新規,0,2023-04-11,2023-04-11,Ｍｅｒｃｅ合同会社,,合同会社,福岡県,福岡市中央区,平尾２丁目５番８－６１３号,,40,133,8100014,,,,,,,2023-04-11,1,,,,,メルセ,0
1702,5300001013263,新規,0,2023-04-11,2023-04-11,株式会社陣内鐵工,,株式会社,佐賀県,三養基郡上峰町,大字坊所３０９１番地１,,41,345,8490123,,,,,,,2023-04-11,1,,,,,ジンノウチテッコウ,0
1708,5360001031821,新規,0,2023-04-11,2023-04-11,株式会社琉球ガラス煌工房,,株式会社,沖縄県,国頭郡恩納村,字山田３１１１番地,,47,311,9040416,,,,,,,2023-04-11,1,,,,,リュウキュウガラスキラメキコウボウ,0
1714,5390001017215,新規,0,2023-04-11,2023-04-11,株式会社渡部重設,,株式会社,山形県,米沢市,大字花沢２９９８番地の１７,,06,202,9920021,,,,,,,2023-04-11,1,,,,,ワタナベジュウセツ,0
1720,5410001013442,新規,0,2023-04-11,2023-04-11,株式会社池田,,株式会社,秋田県,由利本荘市,川口字八幡前２６１番地,,05,210,0150051,,,,,,,2023-04-11,1,,,,,イケダ,0
1726,5430003014899,新規,0,2023-04-11,2023-04-11,合同会社ＦＣＧ,,合同会社,北海道,札幌市中央区,北一条西２３丁目２番２４号,,01,101,0640821,,,,,,,2023-04-11,1,,,,,エフシージー,0
1731,5470001019566,新規,0,2023-04-11,2023-04-11,株式会社ＡＲＴＦＩＴ,,株式会社,香川県,坂出市,加茂町２８６番地,,37,203,7620023,,,,,,,2023-04-11,1,,,,,アートフィット,0
1734,5480001012066,新規,0,2023-04-11,2023-04-11,株式会社キャピタル,,株式会社,徳島県,鳴門市,大麻町桧字中山田１３番地１０５,,36,202,7790225,,,,,,,2023-04-11,1,,,,,キャピタル,0
1737,5700150039564,新規,0,2023-04-11,2015-10-09,西北五地域薬剤師会,,その他,青森県,五所川原市,字上平井町８３,,02,205,0370054,,,,,,,2015-10-09,1,,,,,セイホクゴチイキヤクザイシカイ,0
1739,5700150115282,新規,0,2023-04-11,2023-04-11,Ｈｕｉｚｈｏｕ　Ｚｈｏｎｇｚｈａｎ　Ｔｅｃｈｎｏｌｏｇｙ　Ｃｏ．，Ｌｔｄ．,,外国会社等,,,,,,,,Ｙｉ　Ｐｉｎ　Ｇｕｏ　ｊｉ　Ｓｈａｎｇ　Ｗｕ　Ｇｏｎｇ　Ｙｕ　１５０３　Ｈａｏ　Ｆａｎｇ，Ｄａ　Ｙａ　Ｗａｎ　Ｘｉ　Ｑｕ，Ｄａ　Ｙａ　Ｗａｎ　Ｄａ　Ｄａｏ　２２８　Ｈａｏ，Ｈｕｉｚｈｏｕ，Ｇｕａｎｇｄｏｎｇ，ＣＮ,,,,,,2023-04-11,1,,,,,フイジョウジョンジャンコージーヨウシエンゴンスー,0
1740,5700150115290,新規,0,2023-04-11,2023-04-11,ＩＭＯＤＥＳＴＹ　ＴＥＣＨＮＯＬＯＧＹ　ＣＯＲＰ．,,外国会社等,,,,,,,,７Ｆ．，ＮＯ．２５７，ＷＥＮＸＩＮＧ　ＲＤ．，ＪＵＢＥＩ，ＨＳＩＮＣＨＵ，ＴＡＩＷＡＮ　３０２,,,,,,2023-04-11,1,,,,,チエンイーコージーグーフェンヨウシエンゴンスー,0
1741,5700150115308,新規,0,2023-04-11,2023-04-11,Ｓｈｅｎｚｈｅｎ　Ｗａｎｈｅｎｇｍａｏ　Ｔｅｃｈｎｏｌｏｇｙ　Ｃｏ．，Ｌｔｄ,,外国会社等,,,,,,,,Ｂａｏａｎ　Ｄｉｓｔｒｉｃｔ，Ｘｉｎ’ａｎ　Ｓｔｒｅｅｔ，Ｂｕｘｉｎ　Ｃｏｍｍｕｎｉｔｙ　７３　Ｄｉｓｔｒｉｃｔ　Ｃｏｍｍｅｒｃｉａｌ　ａｎｄ　Ｒｅｓｉｄｅｎｔｉａｌ　Ｂｕｉｌｄｉｎｇ，Ｂｌｏｃｋ　６，Ｕｎｉｔ　４　４０３　Ｓｈｅｎｚｈｅｎ　Ｇｕａｎｇｄｏｎｇ　５１８１０１　ＣＮ,,,,,,2023-04-11,1,,,,,シェンジェンシーワンホンマオコージーヨウシエンゴンスー,0
1742,5700150115316,新規,0,2023-04-11,2023-04-11,ＩＬＩＬＩＬＹ，　ＩＮＣ．,,外国会社等,,,,,,,,６５０　Ｓ　ＧｒａｎｄＡｖｅＳｕｉｔｅ１０７ＳａｎｔａＡｎａ，Ｃａｌｉｆｏｒｎｉａ９２７０５ＵｎｉｔｅｄＳｔａｔｅｏｆＡｍｅｒｉｃａ,,,,,,2023-04-11,1,,,,,イリリリーインコーポレイテツド,0
1750,6010001234375,新規,0,2023-04-11,2023-04-11,株式会社Ｅｎｔｒａｎｃｅ,,株式会社,東京都,中央区,銀座３丁目１４－１３第一厚生館ビル５Ｆ,,13,102,1040061,,,,,,,2023-04-11,1,,,,,エントランス,0
1751,6010001234383,新規,0,2023-04-11,2023-04-11,ＧＯ　ｍｅ株式会社,,株式会社,東京都,中央区,銀座４丁目１４番７－８０１号,,13,102,1040061,,,,,,,2023-04-11,1,,,,,ゴーミー,0
1755,6010003040284,新規,0,2023-04-11,2023-04-11,ＰｌａｎＧ合同会社,,合同会社,東京都,中央区,銀座１丁目１２番４号Ｎ＆Ｅ．ＢＬＤ．６Ｆ,,13,102,1040061,,,,,,,2023-04-11,1,,,,,プランジー,0
1760,6010401173628,新規,0,2023-04-11,2023-04-11,株式会社ＳＴＲＵＳＴ,,株式会社,東京都,港区,六本木６丁目２番３１号六本木ヒルズノースタワー１７階,,13,103,1060032,,,,,,,2023-04-11,1,,,,,ストラスト,0
1761,6010401173652,新規,0,2023-04-11,2023-04-11,株式会社スターウィズ,,株式会社,東京都,港区,南青山２丁目２番１５号,,13,103,1070062,,,,,,,2023-04-11,1,,,,,スターウィズ,0
1766,6010403029885,新規,0,2023-04-11,2023-04-11,合同会社Ｅｖｅｒｙｄａｙ,,合同会社,東京都,港区,元赤坂１丁目１番７号赤坂モートサイドビル５０２,,13,103,1070051,,,,,,,2023-04-11,1,,,,,エブリデイ,0
1767,6010403029893,新規,0,2023-04-11,2023-04-11,サンコファ合同会社,,合同会社,東京都,港区,浜松町２丁目２番１５号－浜松町ダイヤビル２階,,13,103,1050013,,,,,,,2023-04-11,1,,,,,サンコファ,0
1772,6010501050280,新規,0,2023-04-11,2023-04-11,Ｍｅｔａｔｅｋ　Ｇｒｏｕｐ　Ｊａｐａｎ株式会社,,株式会社,東京都,台東区,池之端１丁目４番２２－５０４号,,13,106,1100008,,,,,,,2023-04-11,1,,,,,メタテックグループジャパン,0
1777,6010701044090,新規,0,2023-04-11,2023-04-11,株式会社ＫＵＲＯＦＵＮＥホールディングス,,株式会社,東京都,品川区,大井４丁目２７番３号,,13,109,1400014,,,,,,,2023-04-11,1,,,,,クロフネホールディングス,0
1778,6010803004496,新規,0,2023-04-11,2023-04-11,合同会社グルン,,合同会社,東京都,大田区,蒲田４丁目４０番３号,,13,111,1440052,,,,,,,2023-04-11,1,,,,,グルン,0
1790,6011001153648,新規,0,2023-04-11,2023-04-11,株式会社ＮｉＨＯＭＥ,,株式会社,東京都,渋谷区,円山町５番５号Ｎａｖｉ渋谷Ｖ３階,,13,113,1500044,,,,,,,2023-04-11,1,,,,,ニホメ,0
1791,6011001153672,新規,0,2023-04-11,2023-04-11,株式会社ピースライト,,株式会社,東京都,渋谷区,道玄坂１丁目１０番８号渋谷道玄坂東急ビル２Ｆ－Ｃ,,13,113,1500043,,,,,,,2023-04-11,1,,,,,ピースライト,0
1792,6011001153680,新規,0,2023-04-11,2023-04-11,株式会社ｆｌｅｘｙ,,株式会社,東京都,渋谷区,道玄坂１丁目１０番８号渋谷道玄坂東急ビル２Ｆ－Ｃ,,13,113,1500043,,,,,,,2023-04-11,1,,,,,フレキシー,0
1793,6011001153689,新規,0,2023-04-11,2023-04-11,株式会社Ｃｈａｒｌｉｅ,,株式会社,東京都,目黒区,上目黒３丁目３６番７－３１２号,,13,110,1530051,,,,,,,2023-04-11,1,,,,,チャーリー,0
1795,6011003016596,新規,0,2023-04-11,2023-04-11,Ｃｏｓｅｗａ合同会社,,合同会社,東京都,渋谷区,神泉町１０番１５号,,13,113,1500045,,,,,,,2023-04-11,1,,,,,コセワ,0
1796,6011003016605,新規,0,2023-04-11,2023-04-11,合同会社ＳＵＮ＆ＳＫＹ,,合同会社,東京都,渋谷区,道玄坂１丁目１０番８号渋谷道玄坂東急ビル２Ｆ－Ｃ,,13,113,1500043,,,,,,,2023-04-11,1,,,,,サンアンドスカイ,0
1797,6011003016613,新規,0,2023-04-11,2023-04-11,合同会社ＮＥＶＥＲ　ＥＶＥＲ,,合同会社,東京都,渋谷区,桜丘町１０番６－１００５号ピアース渋谷,,13,113,1500031,,,,,,,2023-04-11,1,,,,,ネバーエバー,0
1802,6011101102430,新規,0,2023-04-11,2023-04-11,株式会社ＤＡＳＨ　ＯＮ,,株式会社,東京都,新宿区,西新宿３丁目３番１３号西新宿水間ビル６階,,13,104,1600023,,,,,,,2023-04-11,1,,,,,ダッシュオン,0
1803,6011101102463,新規,0,2023-04-11,2023-04-11,株式会社Ｉｎ　Ｇｏｏｄ　Ｃｏｍｐａｎｙ,,株式会社,東京都,新宿区,新宿１丁目５番９号新宿一丁目ビル３０１,,13,104,1600022,,,,,,,2023-04-11,1,,,,,イングットカンパニー,0
1804,6011101102471,新規,0,2023-04-11,2023-04-11,株式会社ａｓｔｒｏＳＴＡＲ,,株式会社,東京都,新宿区,西新宿８丁目１２－１サンパレス新宿４０５,,13,104,1600023,,,,,,,2023-04-11,1,,,,,アストロスター,0
1806,6011103012917,新規,0,2023-04-11,2023-04-11,フィールド・エア合同会社,,合同会社,東京都,新宿区,中落合２丁目３番４号スカイコート落合３０４,,13,104,1610032,,,,,,,2023-04-11,1,,,,,フィールドエア,0
1808,6011201024558,新規,0,2023-04-11,2023-04-11,株式会社キャズテック商事,,株式会社,東京都,中野区,上高田３丁目３８番５号,,13,114,1640002,,,,,,,2023-04-11,1,,,,,キャズテックショウジ,0
1810,6011401025034,新規,0,2023-04-11,2023-04-11,株式会社ＳＴＲ,,株式会社,東京都,板橋区,中丸町２０番１号,,13,119,1730026,,,,,,,2023-04-11,1,,,,,エスティーアール,0
1811,6011403003962,新規,0,2023-04-11,2023-04-11,合同会社フライハイト,,合同会社,東京都,板橋区,仲宿１番４号,,13,119,1730005,,,,,,,2023-04-11,1,,,,,フライハイト,0
1816,6011501029141,新規,0,2023-04-11,2023-04-11,株式会社ＮＯＩＬ,,株式会社,東京都,北区,岸町１丁目５番２０号太春ビル２階,,13,117,1140021,,,,,,,2023-04-11,1,,,,,ノイル,0
1818,6011601026724,新規,0,2023-04-11,2023-04-11,株式会社菰田設備工業,,株式会社,東京都,練馬区,南大泉３丁目１番７号,,13,120,1780064,,,,,,,2023-04-11,1,,,,,コモダセツビコウギョウ,0
1826,6012301013392,新規,0,2023-04-11,2023-04-11,株式会社はぴさぽオフィス,,株式会社,東京都,町田市,南町田４丁目８番１－３０７号,,13,209,1940005,,,,,,,2023-04-11,1,,,,,ハピサポオフィス,0
1827,6012303001800,新規,0,2023-04-11,2023-04-11,Ｄｏｕｂｌｅ　Ｚ’ｓ合同会社,,合同会社,東京都,町田市,森野１丁目２番６５３号,,13,209,1940022,,,,,,,2023-04-11,1,,,,,ダブルジーズ,0
1830,6012801022265,新規,0,2023-04-11,2023-04-11,株式会社ウェイブワークス,,株式会社,東京都,日野市,新町１丁目１８番地の１,,13,212,1910002,,,,,,,2023-04-11,1,,,,,ウェイブワークス,0
1831,6012805003187,新規,0,2023-04-11,2023-04-11,学校法人四季の森学園,,その他の設立登記法人,東京都,東大和市,奈良橋１丁目２５８番地,,13,220,2070031,,,,,,,2023-04-11,1,,,,,シキノモリガクエン,0
1834,6013301050566,新規,0,2023-04-11,2023-04-11,株式会社トラストファンディング,,株式会社,東京都,豊島区,東池袋１丁目３５番１１号スタックスビル６Ｆ,,13,116,1700013,,,,,,,2023-04-11,1,,,,,トラストファンディング,0
1840,6020001151082,新規,0,2023-04-11,2023-04-11,株式会社有真工業,,株式会社,神奈川県,横浜市神奈川区,松見町１丁目３５番地３,,14,102,2210005,,,,,,,2023-04-11,1,,,,,ユウシンコウギョウ,0
1842,6020003023701,新規,0,2023-04-11,2023-04-11,合同会社リーフトリガー,,合同会社,神奈川県,横浜市緑区,霧が丘２丁目１４番地１,,14,113,2260016,,,,,,,2023-04-11,1,,,,,リーフトリガー,0
1843,6020005015936,新規,0,2023-04-11,2023-04-11,一般社団法人横浜市立大学医学部医学科同窓会倶進会,,その他の設立登記法人,神奈川県,横浜市金沢区,福浦３丁目９番地,,14,108,2360004,,,,,,,2023-04-11,1,,,,,ヨコハマシリツダイガクイガクブイガクカドウソウカイグシンカイ,0
1845,6021001078613,新規,0,2023-04-11,2023-04-11,株式会社ＯＴＯＮ,,株式会社,神奈川県,座間市,座間１丁目３１６０番地の１８,,14,216,2520027,,,,,,,2023-04-11,1,,,,,オーティーオーエヌ,0
1846,6021001078687,新規,0,2023-04-11,2023-04-11,株式会社ＳＫＹ,,株式会社,神奈川県,小田原市,東町３丁目３番２４号,,14,206,2500003,,,,,,,2023-04-11,1,,,,,スカイ,0
1855,6030001153169,新規,0,2023-04-11,2023-04-11,株式会社ワイエヌケーロジスティクス,,株式会社,埼玉県,幸手市,大字円藤内６８１番地４,,11,240,3400104,,,,,,,2023-04-11,1,,,,,ワイエヌケーロジスティクス,0
1856,6030001153210,新規,0,2023-04-11,2023-04-11,株式会社ＵＮＩＴＥ,,株式会社,埼玉県,さいたま市北区,土呂町１丁目４３番地５－３０４,,11,102,3310804,,,,,,,2023-04-11,1,,,,,ユナイト,0
1857,6030001153235,新規,0,2023-04-11,2023-04-11,株式会社こもれびハウス,,株式会社,埼玉県,上尾市,泉台２丁目６番９号１Ｂ,,11,219,3620062,,,,,,,2023-04-11,1,,,,,コモレビハウス,0
1858,6030001153251,新規,0,2023-04-11,2023-04-11,株式会社ｇｌｏｗｖｅｒ,,株式会社,埼玉県,戸田市,上戸田３丁目４番１９号,,11,224,3350022,,,,,,,2023-04-11,1,,,,,グローヴァー,0
1859,6030001153276,新規,0,2023-04-11,2023-04-11,株式会社ジャパン・ネクサス,,株式会社,埼玉県,さいたま市南区,文蔵３丁目１６番１７号カーサ・フィオレ１０４号室,,11,108,3360025,,,,,,,2023-04-11,1,,,,,ジャパンネクサス,0
1860,6030001153350,新規,0,2023-04-11,2023-04-11,株式会社ＡＳＩＡ　ＷＯＲＬＤ　ＴＲＡＤＩＮＧ　ＣＯ．,,株式会社,埼玉県,入間郡毛呂山町,大字西大久保７４８番地６,,11,326,3500433,,,,,,,2023-04-11,1,,,,,アジアワールドトレーディングカンパニー,0
1865,6030003021497,新規,0,2023-04-11,2023-04-11,合同会社らんまる販売,,合同会社,埼玉県,入間市,大字野田１２３７番地６スカイレジデンス１０５,,11,225,3580054,,,,,,,2023-04-11,1,,,,,ランマルハンバイ,0
1866,6030003021514,新規,0,2023-04-11,2023-04-11,でんけん合同会社,,合同会社,埼玉県,蕨市,塚越７丁目２０番１１号,,11,223,3350002,,,,,,,2023-04-11,1,,,,,デンケン,0
1867,6030003021530,新規,0,2023-04-11,2023-04-11,テクノ野中合同会社,,合同会社,埼玉県,戸田市,本町１丁目３番５－１３０１号,,11,224,3350023,,,,,,,2023-04-11,1,,,,,テクノノナカ,0
1872,6040001127865,新規,0,2023-04-11,2023-04-11,飯塚商店株式会社,,株式会社,千葉県,我孫子市,湖北台３丁目３番１７号,,12,222,2701132,,,,,,,2023-04-11,1,,,,,イイヅカショウテン,0
1873,6040001127898,新規,0,2023-04-11,2023-04-11,株式会社もりしん未来ホーム,,株式会社,千葉県,千葉市中央区,中央４丁目９番３号メゾンナガオサ１Ｆ,,12,101,2600013,,,,,,,2023-04-11,1,,,,,モリシンミライホーム,0
1877,6040003022370,新規,0,2023-04-11,2023-04-11,合同会社ｋｒａｆｔｉｇ,,合同会社,千葉県,柏市,柏１丁目６番１３号,,12,217,2770005,,,,,,,2023-04-11,1,,,,,クラフティッグ,0
1881,6050001052682,新規,0,2023-04-11,2023-04-11,株式会社野澤興業,,株式会社,茨城県,筑西市,上中山９３番地,,08,227,3080017,,,,,,,2023-04-11,1,,,,,ノザワコウギョウ,0
1888,6070001040297,新規,0,2023-04-11,2023-04-11,ＴＡＺＡＫＩ‐ＰＬＡＮ株式会社,,株式会社,群馬県,桐生市,境野町７丁目１７６６番地９,,10,203,3760002,,,,,,,2023-04-11,1,,,,,タザキプラン,0
1889,6070001040314,新規,0,2023-04-11,2023-04-11,株式会社Ｍｔ．Ｇｒｅｅｎ,,株式会社,群馬県,吾妻郡中之条町,大字生須３６０－１町営住宅生須団地５９－１－１,,10,421,3771702,,,,,,,2023-04-11,1,,,,,,0
1891,6070003004903,新規,0,2023-04-11,2023-04-11,合同会社ファースト,,合同会社,群馬県,伊勢崎市,八斗島町１８０番地２,,10,204,3720827,,,,,,,2023-04-11,1,,,,,ファースト,0
1905,6100005012990,新規,0,2023-04-11,2023-04-11,一般社団法人豊丘村観光協会,,その他の設立登記法人,長野県,下伊那郡豊丘村,大字神稲１２４０７番地,,20,416,3993202,,,,,,,2023-04-11,1,,,,,トヨオカムラカンコウキョウカイ,0
1906,6110001037421,新規,0,2023-04-11,2023-04-11,株式会社新成,,株式会社,新潟県,新潟市江南区,江口１６３１番地,,15,104,9500101,,,,,,,2023-04-11,1,,,,,シンセイ,0
1909,6110005016925,新規,0,2023-04-11,2023-04-11,一般社団法人つばめＲＧ,,その他の設立登記法人,新潟県,燕市,富永４０５番地,,15,213,9590211,,,,,,,2023-04-11,1,,,,,ツバメアールジー,0
1914,6120001253744,新規,0,2023-04-11,2023-04-11,ＩＮＳＯＵ　ａｌｐｈａ株式会社,,株式会社,大阪府,大阪市西区,新町３丁目６番１０号,,27,106,5500013,,,,,,,2023-04-11,1,,,,,インソウアルファ,0
1915,6120001253793,新規,0,2023-04-11,2023-04-11,株式会社キッズフォレスト,,株式会社,大阪府,大阪市阿倍野区,松崎町２丁目１番３６－１３０４号,,27,119,5450053,,,,,,,2023-04-11,1,,,,,キッズフォレスト,0
1916,6120001253802,新規,0,2023-04-11,2023-04-11,ＡＤＶＥＮＴＵＲＥ株式会社,,株式会社,大阪府,大阪市阿倍野区,北畠３丁目１４番３５号,,27,119,5450035,,,,,,,2023-04-11,1,,,,,アドベンチャー,0
1917,6120001253810,新規,0,2023-04-11,2023-04-11,株式会社ヘアメイクコンシェルジュ,,株式会社,大阪府,大阪市北区,梅田１丁目２番２号大阪駅前第２ビル２階５－６号室,,27,127,5300001,,,,,,,2023-04-11,1,,,,,ヘアメイクコンシェルジュ,0
1918,6120001253868,新規,0,2023-04-11,2023-04-11,富利普株式会社,,株式会社,大阪府,大阪市中央区,内久宝寺町４丁目４番３号（４階６号）,,27,128,5400013,,,,,,,2023-04-11,1,,,,,フリフ,0
1922,6120005023573,新規,0,2023-04-11,2023-04-11,一般社団法人日本壁紙再生協会,,その他の設立登記法人,大阪府,大阪市西成区,玉出西２丁目１３番２７号,,27,122,5570045,,,,,,,2023-04-11,1,,,,,ニホンカベガミサイセイキョウカイ,0
1925,6120101067284,新規,0,2023-04-11,2023-04-11,正電設株式会社,,株式会社,大阪府,和泉市,小田町２丁目１１番２８号,,27,219,5940074,,,,,,,2023-04-11,1,,,,,マサデンセツ,0
1926,6120101067301,新規,0,2023-04-11,2023-04-11,株式会社ダバオプライド,,株式会社,大阪府,泉南市,樽井２丁目１番４号,,27,228,5900521,,,,,,,2023-04-11,1,,,,,ダバオプライド,0
1927,6120101067334,新規,0,2023-04-11,2023-04-11,ミスター大阪株式会社,,株式会社,大阪府,松原市,高見の里６丁目２２番１０号,,27,217,5800021,,,,,,,2023-04-11,1,,,,,ミスターオオサカ,0
1939,6130003008641,新規,0,2023-04-11,2023-04-11,合同会社ソイル商事,,合同会社,京都府,京都市上京区,上長者町通室町西入元土御門町５２６番地２,,26,102,6028006,,,,,,,2023-04-11,1,,,,,ソイルショウジ,0
1946,6140001129760,新規,0,2023-04-11,2023-04-11,株式会社ＭＩＮＴ,,株式会社,兵庫県,明石市,大久保町茜２丁目５番１３号,,28,203,6740059,,,,,,,2023-04-11,1,,,,,ミント,0
1951,6140005026574,新規,0,2023-04-11,2023-04-11,一般社団法人ものづくり協議会,,その他の設立登記法人,兵庫県,神戸市兵庫区,中道通３丁目４番３号,,28,105,6520801,,,,,,,2023-04-11,1,,,,,モノヅクリキョウギカイ,0
1952,6150001026305,新規,0,2023-04-11,2023-04-11,株式会社ＰＲＯＡＣＣＥＳＳ,,株式会社,奈良県,宇陀郡御杖村,大字土屋原１５０４番地,,29,386,6331303,,,,,,,2023-04-11,1,,,,,プロアクセス,0
1954,6160001024968,新規,0,2023-04-11,2023-04-11,ＣＳＩエンジニアリング株式会社,,株式会社,滋賀県,甲賀市,水口町朝日が丘６番３８号,,25,209,5280072,,,,,,,2023-04-11,1,,,,,シーエスアイエンジニアリング,0
1955,6160005011186,新規,0,2023-04-11,2023-04-11,医療法人やまぐち内科クリニック,,その他の設立登記法人,滋賀県,東近江市,五個荘石塚町２４－７,,25,213,5291444,,,,,,,2023-04-11,1,,,,,ヤマグチナイカクリニック,0
1973,6180005020177,新規,0,2023-04-11,2023-04-11,社会保険労務士法人アーツ,,その他の設立登記法人,愛知県,名古屋市千種区,猫洞通５丁目１０番地の２タウンコート本山２Ａ,,23,101,4640032,,,,,,,2023-04-11,1,,,,,アーツ,0
1977,6180305009457,新規,0,2023-04-11,2023-04-11,一般社団法人東三河外食産業振興会,,その他の設立登記法人,愛知県,豊橋市,下五井町捨田１９番地１,,23,201,4400091,,,,,,,2023-04-11,1,,,,,ヒガシミカワガイショクサンギョウシンコウカイ,0
1980,6200001041141,新規,0,2023-04-11,2023-04-11,株式会社Ｍ＆カンパニー,,株式会社,岐阜県,郡上市,八幡町本町８４６番地３,,21,219,5014216,,,,,,,2023-04-11,1,,,,,エムアンドカンパニー,0
1981,6200001041174,新規,0,2023-04-11,2023-04-11,株式会社瓦卯,,株式会社,岐阜県,岐阜市,入舟町４丁目２１番地１（ビューパレス岐阜入舟７０２号室）,,21,201,5008152,,,,,,,2023-04-11,1,,,,,カワラウ,0
1984,6200003005920,新規,0,2023-04-11,2023-04-11,合同会社土地Ｌａｍｐ,,合同会社,岐阜県,瑞穂市,犀川４丁目３６番地,,21,216,5010237,,,,,,,2023-04-11,1,,,,,トチランプ,0
1985,6200005013467,新規,0,2023-04-11,2023-04-11,農事組合法人グリーンガイア,,その他の設立登記法人,岐阜県,郡上市,高鷲町鷲見１４４１番地,,21,219,5015302,,,,,,,2023-04-11,1,,,,,グリーンガイア,0
1989,6220001025340,新規,0,2023-04-11,2023-04-11,ＤＥＮＫＥＮ‐ＫＲＡＦＴ株式会社,,株式会社,石川県,河北郡津幡町,字南中条ニ１５８番地３の１,,17,361,9290343,,,,,,,2023-04-11,1,,,,,デンケンクラフト,0
1999,6240001061334,新規,0,2023-04-11,2023-04-11,株式会社ＫＲＴ,,株式会社,広島県,呉市,焼山政畝２丁目３番１７号,,34,202,7370934,,,,,,,2023-04-11,1,,,,,ケーアールティー,0
2001,6240003006097,新規,0,2023-04-11,2023-04-11,ファイブボックスヘアー合同会社,,合同会社,広島県,広島市中区,三川町３番１４号ＰＡＬビル３Ｆ,,34,101,7300029,,,,,,,2023-04-11,1,,,,,ファイブボックスヘアー,0
2008,6260001037836,新規,0,2023-04-11,2023-04-11,株式会社大光,,株式会社,岡山県,岡山市南区,浦安南町４９５番地２３４,,33,104,7028024,,,,,,,2023-04-11,1,,,,,ダイコウ,0
2015,6280001008918,新規,0,2023-04-11,2023-04-11,株式会社未来社会研究所,,株式会社,島根県,出雲市,浜町２１８２番地１０７,,32,203,6930054,,,,,,,2023-04-11,1,,,,,ミライシャカイケンキュウショ,0
2018,6280005007544,新規,0,2023-04-11,2023-04-11,一般財団法人島根県物産協会,,その他の設立登記法人,島根県,松江市,殿町１９１番地,,32,201,6900887,,,,,,,2023-04-11,1,,,,,シマネケンブッサンキョウカイ,0
2021,6290001101176,新規,0,2023-04-11,2023-04-11,株式会社ＮＱＣ,,株式会社,福岡県,福岡市中央区,舞鶴３丁目２番５号,,40,133,8100073,,,,,,,2023-04-11,1,,,,,エヌキュウシー,0
2023,6290005018994,新規,0,2023-04-11,2023-04-11,一般社団法人日本セールスプロモーター協会,,その他の設立登記法人,福岡県,福岡市中央区,天神３丁目８－１３グレートリープ２０２号,,40,133,8100001,,,,,,,2023-04-11,1,,,,,ニッポンセールスプロモーターキョウカイ,0
2024,6290005019002,新規,0,2023-04-11,2023-04-11,ダイヤモンド税理士法人,,その他の設立登記法人,福岡県,筑後市,大字馬間田２８５番地,,40,211,8330023,,,,,,,2023-04-11,1,,,,,,0
2026,6290801029443,新規,0,2023-04-11,2023-04-11,株式会社星凌,,株式会社,福岡県,北九州市小倉北区,片野新町１丁目２番７－１０１号,,40,106,8020062,,,,,,,2023-04-11,1,,,,,セイリョウ,0
2027,6290801029451,新規,0,2023-04-11,2023-04-11,株式会社オフィスＳＡＫＯ,,株式会社,福岡県,北九州市戸畑区,南鳥旗町４－１６－９０１,,40,105,8040074,,,,,,,2023-04-11,1,,,,,オフィスサコ,0
2029,6300003001950,新規,0,2023-04-11,2023-04-11,合同会社ヤマリュウ商事,,合同会社,佐賀県,武雄市,武雄町大字武雄５５９０番地２２,,41,206,8430022,,,,,,,2023-04-11,1,,,,,ヤマリュウショウジ,0
2031,6320005010072,新規,0,2023-04-11,2023-04-11,医療法人よしまさ歯科,,その他の設立登記法人,大分県,日田市,田島１丁目７番１４号,,44,204,8770025,,,,,,,2023-04-11,1,,,,,ヨシマサシカ,0
2036,6350005006150,新規,0,2023-04-11,2023-04-11,特定非営利活動法人ｅｓｓａｉ,,その他の設立登記法人,宮崎県,延岡市,富美山町１７７５番地１９３,,45,203,8820051,,,,,,,2023-04-11,1,,,,,エッセ,0
2044,6370001049795,新規,0,2023-04-11,2023-04-11,株式会社Ｌａｐｕｌｅ,,株式会社,宮城県,仙台市青葉区,吉成台２丁目６７－２,,04,101,9893206,,,,,,,2023-04-11,1,,,,,ラプレ,0
2045,6370001049820,新規,0,2023-04-11,2023-04-11,株式会社わかばメンテナンス,,株式会社,宮城県,石巻市,わかば１丁目１０番地１,,04,202,9860867,,,,,,,2023-04-11,1,,,,,ワカバメンテナンス,0
2048,6390001017214,新規,0,2023-04-11,2023-04-11,株式会社Ｕ,,株式会社,山形県,鶴岡市,羽黒町手向字手向７９番地１,,06,203,9970211,,,,,,,2023-04-11,1,,,,,ユー,0
2051,6410003003779,新規,0,2023-04-11,2023-04-11,合同会社櫻丸,,合同会社,秋田県,仙北市,角館町歩行町２４番地１,,05,215,0140332,,,,,,,2023-04-11,1,,,,,サクラマル,0
2053,6420003002697,新規,0,2023-04-11,2023-04-11,合同会社もりこね,,合同会社,青森県,青森市,合浦２丁目６番３４号,,02,201,0300902,,,,,,,2023-04-11,1,,,,,モリコネ,0
2056,6430001088804,新規,0,2023-04-11,2023-04-11,松山建設株式会社,,株式会社,北海道,北広島市,大曲中央３丁目７番地１,,01,234,0611271,,,,,,,2023-04-11,1,,,,,マツヤマケンセツ,0
2057,6430001088845,新規,0,2023-04-11,2023-04-11,株式会社スクード,,株式会社,北海道,江別市,大麻元町１７４番２,,01,217,0690841,,,,,,,2023-04-11,1,,,,,スクード,0
2069,6470001019549,新規,0,2023-04-11,2023-04-11,株式会社ＫＯＮＰＩＲＡ　ＤＲＯＰ　ＳＴＯＲＩＥＳ,,株式会社,香川県,仲多度郡琴平町,９３３番地,,37,403,7660001,,,,,,,2023-04-11,1,,,,,コンピラドロップストーリーズ,0
2071,6480001012065,新規,0,2023-04-11,2023-04-11,ＡＤＤ　ＣＢＤ株式会社,,株式会社,徳島県,徳島市,川内町平石住吉３１３番地２,,36,201,7710134,,,,,,,2023-04-11,1,,,,,アドシービーディー,0
2073,6490005006896,新規,0,2023-04-11,2023-04-11,一般社団法人土佐わくわくイノベンチャーズ,,その他の設立登記法人,高知県,高知市,浦戸７６９－３,,39,201,7810262,,,,,,,2023-04-11,1,,,,,トサワクワクイノベンチャーズ,0
2074,6700150115281,新規,0,2023-04-11,2023-04-11,Ｄｏｎｇ　Ｇｕａｎ　Ｈｏｎｇ　Ｄｅ　Ｙｉ　Ｓｈｏｕ　Ｓｈｉ,,外国会社等,,,,,,,,Ｎｏ．３６　Ｘｉａｎｇｎｕｏ　Ｂｕｉｌｄｉｎｇ，Ｃｈａｎｇｈｏｎｇ　４ｔｈ　Ｒｏａｄ，　Ｘｉｃｈｅｎｇ　Ｉｎｄｕｓｔｒｉａｌ　Ｚｏｎｅ，Ｈｅｎｇｌｉ　Ｔｏｗｎ　Ｄｏｎｇｇｕａｎ　Ｇｕａｎｇｄｏｎｇ　５２３０００　ＣＮ,,,,,,2023-04-11,1,,,,,ドングワンホンダーイーショウシーヨウシエンゴンスー,0
2075,6700150115307,新規,0,2023-04-11,2023-04-11,Ｓｈｅｎｚｈｅｎ　ｓｈｉ　Ｑｉａｎｙｕｎｓｈｉｙｅ　Ｙｏｕｘｉａｎｇｏｎｇｓｉ,,外国会社等,,,,,,,,Ｄｏｎｇｈｕａｎｙｉｌｕ　Ｌｉｂａｏｈｕａ　Ｄａｓｈａ　Ｓｉ　Ｌｏｕ　３Ａ１３　Ｈａｏ　Ｓｈｅｎｚｈｅｎｓｈｉ　Ｇｕａｎｇｄｏｎｇｓｈｅｎｇ　５１８１００　ＣＮ,,,,,,2023-04-11,1,,,,,シェンジェンシーチエンインシーイエヨウシエンゴンスー,0
2085,7010001234242,新規,0,2023-04-11,2023-04-11,株式会社ＦＡＬＭ,,株式会社,東京都,文京区,関口１丁目１８番９号,,13,105,1120014,,,,,,,2023-04-11,1,,,,,ファルム,0
2086,7010001234275,新規,0,2023-04-11,2023-04-11,株式会社デリ・アートシンコペーション,,株式会社,東京都,千代田区,神田錦町３丁目１５名鉄不動産竹橋ビル３階,,13,101,1010054,,,,,,,2023-04-11,1,,,,,デリアートシンコペーション,0
2087,7010001234283,新規,0,2023-04-11,2023-04-11,ＩＴＡＮ株式会社,,株式会社,東京都,中央区,銀座１丁目２２番１１号銀座大竹ビジデンス２Ｆ,,13,102,1040061,,,,,,,2023-04-11,1,,,,,イタン,0
2088,7010001234291,新規,0,2023-04-11,2023-04-11,株式会社スーラ,,株式会社,東京都,中央区,日本橋１丁目１３番１号日鉄日本橋ビル３階,,13,102,1030027,,,,,,,2023-04-11,1,,,,,スーラ,0
2089,7010001234333,新規,0,2023-04-11,2023-04-11,株式会社パーチェフィット,,株式会社,東京都,中央区,日本橋人形町３丁目１０番１号,,13,102,1030013,,,,,,,2023-04-11,1,,,,,パーチェフィット,0
2090,7010001234341,新規,0,2023-04-11,2023-04-11,プロメテック・ソフトウェア分割準備株式会社,,株式会社,東京都,文京区,本郷３丁目３４番３号,,13,105,1130033,,,,,,,2023-04-11,1,,,,,プロメテックソフトウェアブンカツジュンビ,0
2091,7010001234358,新規,0,2023-04-11,2023-04-11,株式会社スタートアップネイションジャパン,,株式会社,東京都,中央区,銀座４丁目２番１５号塚本素山ビル４Ｆ,,13,102,1040061,,,,,,,2023-04-11,1,,,,,スタートアップネイションジャパン,0
2092,7010001234382,新規,0,2023-04-11,2023-04-11,株式会社ＤＣＡ　ＳＹＭＰＨＯＮＹ,,株式会社,東京都,文京区,小石川３丁目３１番７号,,13,105,1120002,,,,,,,2023-04-11,1,,,,,ディーシーエーシンフォニー,0
2097,7010003040267,新規,0,2023-04-11,2023-04-11,ＲＥＮＥＷＡＢＬＥ　ＰＯＷＥＲ　ＷＯＲＫＳ合同会社,,合同会社,東京都,千代田区,大手町１丁目５番１号大手町ファーストスクエアイーストタワー４階,,13,101,1000004,,,,,,,2023-04-11,1,,,,,リニューアブルパワーワークス,0
2099,7010005036486,新規,0,2023-04-11,2023-04-11,一般社団法人日本データ・エンジニアリング協会,,その他の設立登記法人,東京都,中央区,銀座８丁目１４番１４号,,13,102,1040061,,,,,,,2023-04-11,1,,,,,ニホンデータエンジニアリングキョウカイ,0
2104,7010401173602,新規,0,2023-04-11,2023-04-11,株式会社トラノゲート,,株式会社,東京都,港区,虎ノ門２丁目２番５号,,13,103,1050001,,,,,,,2023-04-11,1,,,,,トラノゲート,0
2105,7010401173627,新規,0,2023-04-11,2023-04-11,ＡＳ‐ＯＷＬ株式会社,,株式会社,東京都,港区,白金４丁目７－３アステール白金１０１,,13,103,1080072,,,,,,,2023-04-11,1,,,,,アズアウル,0
2106,7010403029892,新規,0,2023-04-11,2023-04-11,合同会社Ｙ’ｓ　ｃｏｎｓｕｌｔｉｎｇ,,合同会社,東京都,港区,港南４丁目７番５５－１００２号,,13,103,1080075,,,,,,,2023-04-11,1,,,,,ワイズコンサルティング,0
2107,7010405022004,新規,0,2023-04-11,2023-04-11,司法書士法人ＴＬＥＯ,,その他の設立登記法人,東京都,港区,西新橋１丁目２０番３号虎ノ門法曹ビル９０１,,13,103,1050003,,,,,,,2023-04-11,1,,,,,ティーエルイーオー,0
2109,7010501050230,新規,0,2023-04-11,2023-04-11,株式会社ＪＴＰ,,株式会社,東京都,台東区,元浅草２丁目７－１０ＯＲＴＥＮＳＩＡＩＶ４０１,00130053,13,106,1110041,,,,,,,2023-04-11,1,,,,,ジェイティーピー,0
2114,7010801033835,新規,0,2023-04-11,2023-04-11,株式会社トラスト,,株式会社,東京都,大田区,東雪谷５丁目１０番１０号ラエテルノ東雪谷８０１,,13,111,1450065,,,,,,,2023-04-11,1,,,,,トラスト,0
2118,7010901052850,新規,0,2023-04-11,2023-04-11,日本藤友株式会社,,株式会社,東京都,世田谷区,世田谷１丁目４１番２号,,13,112,1540017,,,,,,,2023-04-11,1,,,,,ニホンフジユウ,0
2131,7011001153606,新規,0,2023-04-11,2023-04-11,Ｍｉｌｌｅｎｎｉｕｍ　Ｓｔｏｒｉｅｓ株式会社,,株式会社,東京都,渋谷区,道玄坂１丁目２番３号ビジネスエアポート渋谷フクラス１７階,,13,113,1500043,,,,,,,2023-04-11,1,,,,,ミレニアムストーリーズ,0
2132,7011001153614,新規,0,2023-04-11,2023-04-11,株式会社モレッジアカデミー,,株式会社,東京都,目黒区,上目黒３丁目４４－２６－４０９,,13,110,1530051,,,,,,,2023-04-11,1,,,,,モレッジアカデミー,0
2133,7011001153663,新規,0,2023-04-11,2023-04-11,株式会社スクエアーデザイン,,株式会社,東京都,渋谷区,幡ヶ谷２丁目３７番１６号セレッソ幡ケ谷４１０,,13,113,1510072,,,,,,,2023-04-11,1,,,,,スクエアーデザイン,0
2134,7011003016595,新規,0,2023-04-11,2023-04-11,合同会社ＫＪ,,合同会社,東京都,渋谷区,道玄坂１丁目１０番８号渋谷道玄坂東急ビル２Ｆ－Ｃ,,13,113,1500043,,,,,,,2023-04-11,1,,,,,ケイジェイ,0
2135,7011003016612,新規,0,2023-04-11,2023-04-11,合同会社モノラボ,,合同会社,東京都,渋谷区,渋谷２丁目１９－１５宮益坂ビルディング６０９,,13,113,1500002,,,,,,,2023-04-11,1,,,,,モノラボ,0
2138,7011101102446,新規,0,2023-04-11,2023-04-11,株式会社ＦＯＲＴＩＣＯ,,株式会社,東京都,新宿区,西新宿３丁目３番１３号西新宿水間ビル６階,,13,104,1600023,,,,,,,2023-04-11,1,,,,,フォーティコ,0
2139,7011101102462,新規,0,2023-04-11,2023-04-11,株式会社國井不動産,,株式会社,東京都,新宿区,北町４番地ブランズ牛込神楽坂４０４,,13,104,1620834,,,,,,,2023-04-11,1,,,,,クニイフドウサン,0
2140,7011101102470,新規,0,2023-04-11,2023-04-11,株式会社ＵＲＳ,,株式会社,東京都,新宿区,西新宿６丁目２１番１号,,13,104,1600023,,,,,,,2023-04-11,1,,,,,ユーアールエス,0
2143,7011103012924,新規,0,2023-04-11,2023-04-11,合同会社インストリーム,,合同会社,東京都,新宿区,新宿１丁目３１番３号,,13,104,1600022,,,,,,,2023-04-11,1,,,,,インストリーム,0
2148,7011201024565,新規,0,2023-04-11,2023-04-11,株式会社ＳＵＮ　ＣＲＥＡＴＥ,,株式会社,東京都,中野区,弥生町２丁目２２番１号,,13,114,1640013,,,,,,,2023-04-11,1,,,,,サンクリエイト,0
2150,7011401025033,新規,0,2023-04-11,2023-04-11,株式会社アゲル,,株式会社,東京都,板橋区,東坂下１丁目１９番１－４０３号,,13,119,1740042,,,,,,,2023-04-11,1,,,,,アゲル,0
2152,7011601026723,新規,0,2023-04-11,2023-04-11,グランブリス・コンサルティング株式会社,,株式会社,東京都,練馬区,関町北５丁目１９番３０号,,13,120,1770051,,,,,,,2023-04-11,1,,,,,グランブリスコンサルティング,0
2159,7012301013391,新規,0,2023-04-11,2023-04-11,シダー電気株式会社,,株式会社,東京都,町田市,忠生１丁目２３番地６ラフィナート忠生１Ｂ号室,,13,209,1940035,,,,,,,2023-04-11,1,,,,,シダーデンキ,0
2160,7012303001808,新規,0,2023-04-11,2023-04-11,ＳＴＴＰ合同会社,,合同会社,東京都,町田市,能ヶ谷５丁目１０番９号,,13,209,1950053,,,,,,,2023-04-11,1,,,,,エスティティピー,0
2179,7020001151040,新規,0,2023-04-11,2023-04-11,株式会社横浜みなとコンサルティング,,株式会社,神奈川県,横浜市西区,宮ケ谷５０番地の６,,14,103,2200006,,,,,,,2023-04-11,1,,,,,ヨコハマミナトコンサルティング,0
2180,7020001151073,新規,0,2023-04-11,2023-04-11,株式会社２９９Ｆａｃｔｏｒｙ,,株式会社,神奈川県,横浜市中区,太田町５丁目６８－５明和ビル４階,,14,104,2310011,,,,,,,2023-04-11,1,,,,,ニクキュウファクトリー,0
2181,7020001151081,新規,0,2023-04-11,2023-04-11,株式会社伊藤電気商会,,株式会社,神奈川県,横浜市泉区,岡津町２５４０番地１１３,,14,116,2450003,,,,,,,2023-04-11,1,,,,,イトウデンキショウカイ,0
2182,7020003023691,新規,0,2023-04-11,2023-04-11,ＣＡＩＬＴＥＵＸ合同会社,,合同会社,神奈川県,横浜市港北区,篠原台町３７番１９号,,14,109,2220024,,,,,,,2023-04-11,1,,,,,カイト,0
2183,7020005015943,新規,0,2023-04-11,2023-04-11,医療法人マリン＆サンズ,,その他の設立登記法人,神奈川県,横浜市中区,元町４丁目１６６番地元町京急ビル３階,,14,104,2310861,,,,,,,2023-04-11,1,,,,,マリンアンドサンズ,0
2184,7021001078629,新規,0,2023-04-11,2023-04-11,株式会社飯田解体,,株式会社,神奈川県,横須賀市,平作１丁目８番１２号,,14,201,2380032,,,,,,,2023-04-11,1,,,,,イイダカイタイ,0
2185,7021001078661,新規,0,2023-04-11,2023-04-11,株式会社桃山堂,,株式会社,神奈川県,三浦郡葉山町,一色２２０８番１４号,,14,301,2400111,,,,,,,2023-04-11,1,,,,,モモヤマドウ,0
2186,7021001078703,新規,0,2023-04-11,2023-04-11,株式会社カナソウ,,株式会社,神奈川県,横須賀市,林４丁目１０６番地３３,,14,201,2380315,,,,,,,2023-04-11,1,,,,,カナソウ,0
2207,7030001153168,新規,0,2023-04-11,2023-04-11,ＩＴＦマネジメント株式会社,,株式会社,埼玉県,狭山市,中央１丁目２７番３０号,,11,215,3501308,,,,,,,2023-04-11,1,,,,,アイティーエフマネジメント,0
2208,7030001153176,新規,0,2023-04-11,2023-04-11,株式会社ｏｐｅ,,株式会社,埼玉県,さいたま市大宮区,宮町２丁目８番地１ｃｏｒｔｅ大宮４Ｆ・５Ｆ,,11,103,3300802,,,,,,,2023-04-11,1,,,,,オペ,0
2209,7030001153192,新規,0,2023-04-11,2023-04-11,株式会社サンユーリビング,,株式会社,埼玉県,草加市,氷川町２１７９番地５,,11,221,3400034,,,,,,,2023-04-11,1,,,,,サンユーリビング,0
2210,7030001153259,新規,0,2023-04-11,2023-04-11,株式会社アイファーム,,株式会社,埼玉県,深谷市,本田２２７２番地,,11,218,3691105,,,,,,,2023-04-11,1,,,,,アイファーム,0
2211,7030001153291,新規,0,2023-04-11,2023-04-11,株式会社和,,株式会社,埼玉県,さいたま市桜区,田島５丁目２１番１３号三光西浦和ビル２階,,11,106,3380837,,,,,,,2023-04-11,1,,,,,ナゴミ,0
2212,7030001153309,新規,0,2023-04-11,2023-04-11,株式会社ＮＡＲＩＮ,,株式会社,埼玉県,川口市,大字小谷場４４３番地の１扶桑ハイツ南浦和２０６号,,11,203,3330857,,,,,,,2023-04-11,1,,,,,ナリン,0
2215,7030003021513,新規,0,2023-04-11,2023-04-11,Ｉ　ＳＯＬＵＴＩＯＮ合同会社,,合同会社,埼玉県,志木市,柏町１丁目２番１２号,,11,228,3530007,,,,,,,2023-04-11,1,,,,,アイソリューション,0
2216,7030003021538,新規,0,2023-04-11,2023-04-11,Ｓｐｒｉｎｇ合同会社,,合同会社,埼玉県,さいたま市緑区,大字三室２６１５番地１０,,11,109,3360911,,,,,,,2023-04-11,1,,,,,スプリング,0
2217,7030003021546,新規,0,2023-04-11,2023-04-11,合同会社玲奈,,合同会社,埼玉県,さいたま市南区,別所７丁目１８番１５号１０５,,11,108,3360021,,,,,,,2023-04-11,1,,,,,レナ,0
2218,7030005021189,新規,0,2023-04-11,2023-04-11,一般社団法人つながる未来Ｌａｂ,,その他の設立登記法人,埼玉県,北足立郡伊奈町,学園２丁目１９６番地５,,11,301,3620813,,,,,,,2023-04-11,1,,,,,ツナガルミライラボ,0
2223,7040001127872,新規,0,2023-04-11,2023-04-11,株式会社Ｌ　Ｐｌａｎｎｉｎｇ,,株式会社,千葉県,市川市,八幡２丁目４番９号かんていビル５Ｆ,,12,203,2720021,,,,,,,2023-04-11,1,,,,,エルプランニング,0
2224,7040001127880,新規,0,2023-04-11,2023-04-11,株式会社ミライホーム,,株式会社,千葉県,船橋市,松が丘３丁目４９番２棟３０３号,,12,204,2740064,,,,,,,2023-04-11,1,,,,,ミライホーム,0
2225,7040001127889,新規,0,2023-04-11,2023-04-11,株式会社清新,,株式会社,千葉県,市原市,草刈２１９０番地,,12,219,2900001,,,,,,,2023-04-11,1,,,,,セイシン,0
2226,7040001127897,新規,0,2023-04-11,2023-04-11,株式会社アイガーデン,,株式会社,千葉県,鎌ケ谷市,東道野辺５丁目１０番１４－２号,,12,224,2730115,,,,,,,2023-04-11,1,,,,,アイガーデン,0
2235,7050001052657,新規,0,2023-04-11,2023-04-11,ＯＣＥＡＮ　ＰＡＲＴＳ株式会社,,株式会社,茨城県,結城郡八千代町,大字栗山７６８番地９,,08,521,3003551,,,,,,,2023-04-11,1,,,,,オーシャンパーツ,0
2248,7080005007530,新規,0,2023-04-11,2023-04-11,医療法人社団ＩＬＬＵＭＩＮＡ,,その他の設立登記法人,静岡県,焼津市,越後島４９４番１,,22,212,4250092,,,,,,,2023-04-11,1,,,,,イルミナ,0
2249,7080101023902,新規,0,2023-04-11,2023-04-11,株式会社ＷｉｔｈＤＯＭ,,株式会社,静岡県,駿東郡長泉町,東野３１１番地の６８,,22,342,4110931,,,,,,,2023-04-11,1,,,,,ウィズダム,0
2255,7110005016924,新規,0,2023-04-11,2023-04-11,一般社団法人かけはし,,その他の設立登記法人,新潟県,新発田市,御幸町４丁目４番４号,,15,206,9570057,,,,,,,2023-04-11,1,,,,,カケハシ,0
2267,7120001253826,新規,0,2023-04-11,2023-04-11,株式会社ＥＡＳ,,株式会社,大阪府,枚方市,甲斐田新町５６番３９号,,27,210,5731163,,,,,,,2023-04-11,1,,,,,イーエーエス,0
2268,7120001253867,新規,0,2023-04-11,2023-04-11,株式会社Ｓｏｆｔｎｅｓｓ　Ｒｏａｄ,,株式会社,大阪府,大阪市中央区,久太郎町２丁目４番１６号,,27,128,5410056,,,,,,,2023-04-11,1,,,,,ソフトネスロード,0
2269,7120001253875,新規,0,2023-04-11,2023-04-11,株式会社クワタ工業,,株式会社,大阪府,大阪市平野区,加美北１丁目２２番２２号,,27,126,5470001,,,,,,,2023-04-11,1,,,,,クワタコウギョウ,0
2270,7120001253925,新規,0,2023-04-11,2023-04-11,株式会社３６９,,株式会社,大阪府,大阪市東住吉区,今林１丁目２番６８号,,27,121,5460001,,,,,,,2023-04-11,1,,,,,ミロク,0
2274,7120101067300,新規,0,2023-04-11,2023-04-11,株式会社ＨＥＡＲＴＳ,,株式会社,大阪府,岸和田市,下松町４丁目５番４３号,,27,202,5960823,,,,,,,2023-04-11,1,,,,,ハーツ,0
2275,7120101067309,新規,0,2023-04-11,2023-04-11,株式会社ＮＪ１,,株式会社,大阪府,泉佐野市,上瓦屋８６２番地の１,,27,213,5980001,,,,,,,2023-04-11,1,,,,,エヌジェイワン,0
2276,7120103005159,新規,0,2023-04-11,2023-04-11,合同会社Ｖｉｌｓｅｉｌｅ,,合同会社,大阪府,羽曳野市,向野２丁目１番１０号,,27,222,5830883,,,,,,,2023-04-11,1,,,,,ビルサイレ,0
2279,7120901047377,新規,0,2023-04-11,2023-04-11,株式会社ＡＥＧＩＳ,,株式会社,大阪府,茨木市,大池２丁目５番１３号,,27,211,5670826,,,,,,,2023-04-11,1,,,,,イージス,0
2280,7120903004582,新規,0,2023-04-11,2023-04-11,小泉合同会社,,合同会社,大阪府,茨木市,真砂２丁目１４－３－６０３,,27,211,5670851,,,,,,,2023-04-11,1,,,,,コイズミ,0
2289,7130005016749,新規,0,2023-04-11,2023-04-11,医療法人おおまえハローキッズクリニック,,その他の設立登記法人,京都府,京都市右京区,西京極午塚町１１６番,00130060,26,108,6150885,,,,,,,2023-04-11,1,,,,,オオマエハローキッズクリニック,0
2292,7140001129727,新規,0,2023-04-11,2023-04-11,株式会社竹田農場,,株式会社,兵庫県,たつの市,揖保川町市場４１０番地１,,28,229,6711662,,,,,,,2023-04-11,1,,,,,タケダノウジョウ,0
2295,7140003018960,新規,0,2023-04-11,2023-04-11,合同会社コネクトステーション,,合同会社,兵庫県,三田市,弥生が丘６丁目２番地１番館１０３号,,28,219,6691546,,,,,,,2023-04-11,1,,,,,コネクトステーション,0
2297,7140005026573,新規,0,2023-04-11,2023-04-11,一般社団法人Ｒｉｂｅｒ,,その他の設立登記法人,兵庫県,洲本市,物部１丁目１５番１７号,,28,205,6560051,,,,,,,2023-04-11,1,,,,,リベル,0
2299,7150001026295,新規,0,2023-04-11,2023-04-11,株式会社あゆみホーム,,株式会社,奈良県,磯城郡田原本町,大字三笠２２０番地の２３,,29,363,6360342,,,,,,,2023-04-11,1,,,,,アユミホーム,0
2300,7150001026304,新規,0,2023-04-11,2023-04-11,株式会社タノシア,,株式会社,奈良県,奈良市,大宮町５丁目３番３３号新奈良ビル２０１,,29,201,6308115,,,,,,,2023-04-11,1,,,,,タノシア,0
2302,7150003002922,新規,0,2023-04-11,2023-04-11,合同会社ｓａｒａ,,合同会社,奈良県,奈良市,押熊町６７９番地の５１,,29,201,6310011,,,,,,,2023-04-11,1,,,,,サラ,0
2303,7160001024967,新規,0,2023-04-11,2023-04-11,株式会社コカジ技建,,株式会社,滋賀県,長浜市,新庄中町１６６番地１０,,25,203,5260012,,,,,,,2023-04-11,1,,,,,コカジギケン,0
2305,7170001017540,新規,0,2023-04-11,2023-04-11,株式会社ジャスト和歌山,,株式会社,和歌山県,和歌山市,黒田１丁目１番４パインフィールド３０３号室,,30,201,6408341,,,,,,,2023-04-11,1,,,,,ジャストワカヤマ,0
2309,7180001155777,新規,0,2023-04-11,2023-04-11,株式会社Ｊａｐａｎ　Ａｒｔ　Ｃｏｍｐａｎｙ,,株式会社,愛知県,名古屋市名東区,梅森坂西２丁目１１０１番地,,23,115,4650066,,,,,,,2023-04-11,1,,,,,ジャパンアートカンパニー,0
2310,7180001155793,新規,0,2023-04-11,2023-04-11,株式会社ＫＭエステイト,,株式会社,愛知県,名古屋市天白区,池見２丁目２９番地５,,23,116,4680067,,,,,,,2023-04-11,1,,,,,ケーエムエステート,0
2311,7180001155819,新規,0,2023-04-11,2023-04-11,株式会社ＰＯＤ　Ｌａｂ,,株式会社,愛知県,あま市,七宝町沖之島高畑４５番地,,23,237,4970001,,,,,,,2023-04-11,1,,,,,ピーオーディラボ,0
2317,7180003025094,新規,0,2023-04-11,2023-04-11,ＡＣＲＡＳ合同会社,,合同会社,愛知県,知多郡美浜町,大字奥田字田原谷１２６番地１,,23,446,4703233,,,,,,,2023-04-11,1,,,,,アクラス,0
2319,7190005011810,新規,0,2023-04-11,2023-04-11,一般社団法人名張市造園建設業協会,,その他の設立登記法人,三重県,名張市,東田原９０番地,,24,208,5180602,,,,,,,2023-04-11,1,,,,,ナバリシゾウエンケンセツギョウキョウカイ,0
2322,7200001041181,新規,0,2023-04-11,2023-04-11,株式会社ＭＹソーイング,,株式会社,岐阜県,山県市,高富２２４７番地２,,21,215,5012105,,,,,,,2023-04-11,1,,,,,マイソーイング,0
2325,7200005013466,新規,0,2023-04-11,2023-04-11,一般社団法人福祉レスキュー,,その他の設立登記法人,岐阜県,揖斐郡池田町,青柳１０番地の３,,21,404,5032423,,,,,,,2023-04-11,1,,,,,フクシレスキュー,0
2327,7210003001629,新規,0,2023-04-11,2023-04-11,ＧＬＯＷ　ＦＯＲＷＡＲＤ合同会社,,合同会社,福井県,鯖江市,糺町第２６号６番地ヴィラ・アルモニーＡ．２０３,,18,207,9160004,,,,,,,2023-04-11,1,,,,,グロウフォワード,0
2332,7230005009288,新規,0,2023-04-11,2023-04-11,特定非営利活動法人がんらく,,その他の設立登記法人,富山県,黒部市,生地神区３４７番地１,,16,207,9380061,,,,,,,2023-04-11,1,,,,,ガンラク,0
2337,7240001061333,新規,0,2023-04-11,2023-04-11,株式会社なかむら不動産事ム所,,株式会社,広島県,廿日市市,丸石１丁目１３番１５号,,34,213,7390452,,,,,,,2023-04-11,1,,,,,ナカムラフドウサンジムショ,0
2350,7260005011209,新規,0,2023-04-11,2023-04-11,一般社団法人あんしん修理サポート,,その他の設立登記法人,岡山県,岡山市中区,江崎５２１番地２,,33,102,7028005,,,,,,,2023-04-11,1,,,,,アンシンシュウリサポート,0
2351,7280001008917,新規,0,2023-04-11,2023-04-11,株式会社ｔｉｍｅ　ａｎｄ　ｅｆｆｏｒｔ,,株式会社,島根県,出雲市,大社町杵築西１９２４番地８,,32,203,6990751,,,,,,,2023-04-11,1,,,,,タイムアンドエフォート,0
2355,7290001101150,新規,0,2023-04-11,2023-04-11,株式会社ＥＭＭＡ,,株式会社,福岡県,春日市,弥生７丁目６０番地ルポール春日やよい５０２号,,40,218,8160862,,,,,,,2023-04-11,1,,,,,エマ,0
2356,7290001101167,新規,0,2023-04-11,2023-04-11,九州自然栽培農学校株式会社,,株式会社,福岡県,糸島市,高田４丁目１５番２４号,,40,230,8191102,,,,,,,2023-04-11,1,,,,,キュウシュウシゼンサイバイノウガッコウ,0
2359,7290003013757,新規,0,2023-04-11,2023-04-11,合同会社ホミニド,,合同会社,福岡県,福岡市博多区,博多駅前１丁目２３番１号ＰａｒｋＦｒｏｎｔ博多駅前５Ｆ－Ｂ,,40,132,8120011,,,,,,,2023-04-11,1,,,,,ホミニド,0
2364,7290803004377,新規,0,2023-04-11,2023-04-11,合同会社ＯＦＦＩＣＥ．Ｈ,,合同会社,福岡県,北九州市八幡西区,光明２丁目９番２０‐６０１号,,40,109,8070824,,,,,,,2023-04-11,1,,,,,オフィスドットエイチ,0
2365,7300001013261,新規,0,2023-04-11,2023-04-11,株式会社大和総建,,株式会社,佐賀県,神埼市,神埼町鶴４２０番地１,,41,210,8420007,,,,,,,2023-04-11,1,,,,,ヤマトソウケン,0
2366,7300005007136,新規,0,2023-04-11,2023-04-11,医療法人雅会,,その他の設立登記法人,佐賀県,三養基郡基山町,大字長野１０５１番地９,,41,341,8410202,,,,,,,2023-04-11,1,,,,,ミヤビカイ,0
2372,7330001030758,新規,0,2023-04-11,2023-04-11,株式会社旺通,,株式会社,熊本県,熊本市北区,清水岩倉１丁目１３番１７号,,43,105,8618084,,,,,,,2023-04-11,1,,,,,オウツウ,0
2376,7340003004098,新規,0,2023-04-11,2023-04-11,合同会社アスティブ．,,合同会社,鹿児島県,鹿児島市,上荒田町１０番１１号ロワイヤル上荒田３０２号,,46,201,8900055,,,,,,,2023-04-11,1,,,,,アスティブ,0
2384,7360005006826,新規,0,2023-04-11,2023-04-11,一般社団法人ＫＡＮＡＳＡＮプロジェクト事務局,,その他の設立登記法人,沖縄県,うるま市,石川１丁目５２番３１号隆盛ビル２階,,47,213,9041106,,,,,,,2023-04-11,1,,,,,カナサンプロジェクトジムキョク,0
2386,7370001049828,新規,0,2023-04-11,2023-04-11,株式会社ＴＡＫＡＳＨＩ工業,,株式会社,宮城県,亘理郡亘理町,字狐塚５５番地２,,04,361,9892351,,,,,,,2023-04-11,1,,,,,タカシコウギョウ,0
2393,7390001017213,新規,0,2023-04-11,2023-04-11,ＭＧＳ株式会社,,株式会社,山形県,山形市,蔵王成沢７９４番地１１,,06,201,9902334,,,,,,,2023-04-11,1,,,,,エムジーエス,0
2394,7390005009000,新規,0,2023-04-11,2023-04-11,農事組合法人鶴岡さだふぁーむ,,その他の設立登記法人,山形県,鶴岡市,谷定字白山５６番地,,06,203,9970366,,,,,,,2023-04-11,1,,,,,ツルオカサダファーム,0
2411,7470001019564,新規,0,2023-04-11,2023-04-11,株式会社英興業,,株式会社,香川県,高松市,三谷町１４７０番地２,,37,201,7610450,,,,,,,2023-04-11,1,,,,,ハナフサコウギョウ,0
2415,7480001012064,新規,0,2023-04-11,2023-04-11,株式会社ＳＡＫＡＴＡ,,株式会社,徳島県,名西郡石井町,高川原字南島７２－２１,,36,341,7793221,,,,,,,2023-04-11,1,,,,,サカタ,0
2418,7490001010447,新規,0,2023-04-11,2023-04-11,株式会社輪,,株式会社,高知県,高知市,布師田５４０番地１,,39,201,7815101,,,,,,,2023-04-11,1,,,,,リン,0
2425,7500005008601,新規,0,2023-04-11,2023-04-11,一般社団法人えひめ日本語教育人財ネット,,その他の設立登記法人,愛媛県,松山市,千舟町５丁目３番１７号４階,,38,201,7900011,,,,,,,2023-04-11,1,,,,,エヒメニホンゴキョウイクジンザイネット,0
2427,7700150114613,新規,0,2023-04-11,2023-04-11,東莞市友業電子科技有限公司,,外国会社等,,,,,,,,中国広東省東莞市樟木頭鎮翠仁街６号３０２房,,,,,,2023-04-11,1,,,,,トウカンシユウギョウデンシカギユウゲンコウシ,0
2428,7700150115280,新規,0,2023-04-11,2023-04-11,ＢＥＩＪＩＮＧ　ＹＯＵＭＥＩＹＩＪＩＡ　ＭＡＯＹＩ　ＹＯＵＸＩＡＮＧＯＮＧＳＩ,,外国会社等,,,,,,,,Ｓａｎｊｉａｎｆａｎｇｘｉａｎｇ　Ｘｉｌｉｕｃｕｎ　Ｚｈｏｎｇｊｉｅ（Ｓａｎｊｉａｎｆａｎｇ　Ｄｏｎｇｍａｎｊｉｚｈｏｎｇ　Ｂａｎｇｏｎｇｑｕ　２５８３　Ｈａｏ）ＣｈａｏＹａｎｇＱｕ　Ｂｅｉｊｉｎｇ　１０００２４　ＣＮ,,,,,,2023-04-11,1,,,,,ベイジンヨウメイイージャーマオイーヨウシエンゴンスー,0
2429,7700150115289,新規,0,2023-04-11,2023-04-11,ｔａｉｚｈｏｕｓｈｉｍｅｉｑｉｍａｏｙｉｙｏｕｘｉａｎｇｏｎｇｓｉ,,外国会社等,,,,,,,,ｚｈｅｊｉａｎｇｓｈｅｎｇｔａｉｚｈｏｕｓｈｉｊｉａｏｊｉａｎｇｑｕｈｏｎｇｊｉａｊｉｅｄａｏｋｕｃｈｅｘｉａｏｚｈｅｎＣｚｈｕａｎｇｅｒｌｏｕｙｕｎｇｕｋｕａｊｉｎｇｆｕｈｕａｙｕａｎｑｕ８２４６,,,,,,2023-04-11,1,,,,,タイジョウシーメイチーマオイーヨウシエンゴンスー,0
2430,7700150115297,新規,0,2023-04-11,2023-04-11,ＷＩＳＥＲ　ＣＯ．，ＬＴＤ,,外国会社等,,,,,,,,７Ｆ．－２，Ｎｏ．１９１，Ｆｕｘｉｎｇ　Ｎ．Ｒｄ．，Ｓｏｎｇｓｈａｎ　Ｄｉｓｔ．，Ｔａｉｐｅｉ　Ｃｉｔｙ　１０５４０３，Ｔａｉｗａｎ（Ｒ．Ｏ．Ｃ）,,,,,,2023-04-11,1,,,,,ジーイーグーフェンヨウシエンゴンスー,0
2431,7700150115306,新規,0,2023-04-11,2023-04-11,ｓｈｅｎｚｈｅｎｘｉｎｙｕｅｈｕａｋｅｊｉｙｏｕｘｉａｎｇｏｎｇｓｉ,,外国会社等,,,,,,,,ｌｏｎｇｇａｎｇｑｕｎａｎｗａｎｊｉｅｄａｏｚｈａｎｇｓｈｕｂｕｓｈｅｑｕｚｈａｎｇｆｕｂｅｉｌｕ８ｈａｏｓａｎｑｉ　５ｄｏｎｇ２００３　ｓｈｅｎｚｈｅｎｓｈｉ　ｇｕａｎｇｄｏｎｇｓｈｅｎｇ　５１８１１６　ＣＮ,,,,,,2023-04-11,1,,,,,シェンジェンシンユエフワーコージーヨウシエンゴンスー,0
2445,8010001234274,新規,0,2023-04-11,2023-04-11,株式会社ＳＤＡ,,株式会社,東京都,中央区,銀座３丁目１２番９号,,13,102,1040061,,,,,,,2023-04-11,1,,,,,エスディーエー,0
2446,8010001234290,新規,0,2023-04-11,2023-04-11,株式会社ＰＭＡＸ,,株式会社,東京都,中央区,銀座６丁目１３番１６号銀座ＷａｌｌビルＵＣＦ５階,,13,102,1040061,,,,,,,2023-04-11,1,,,,,ピーマックス,0
2447,8010001234340,新規,0,2023-04-11,2023-04-11,株式会社スケッチ,,株式会社,東京都,千代田区,丸の内３丁目４番１号,,13,101,1000005,,,,,,,2023-04-11,1,,,,,スケッチ,0
2448,8010001234349,新規,0,2023-04-11,2023-04-11,株式会社レインボーアクシス,,株式会社,東京都,中央区,日本橋３丁目２番１４号新槇町ビル別館第一１階,,13,102,1030027,,,,,,,2023-04-11,1,,,,,レインボーアクシス,0
2452,8010003040191,新規,0,2023-04-11,2023-04-11,合同会社ＳＪソーラー青森東北町,,合同会社,東京都,千代田区,丸の内２丁目４番１号,,13,101,1000005,,,,,,,2023-04-11,1,,,,,エスジェイソーラーアオモリトウホクマチ,0
2453,8010003040258,新規,0,2023-04-11,2023-04-11,合同会社すまいるＰｌｕｓ,,合同会社,東京都,中央区,日本橋横山町７番１９号第３５イチオクビル３Ｆ２３号室,,13,102,1030003,,,,,,,2023-04-11,1,,,,,スマイルプラス,0
2454,8010003040290,新規,0,2023-04-11,2023-04-11,合同会社Ｂｌｕｅ　Ｅｄｇｅ　Ｌａｂ,,合同会社,東京都,千代田区,九段南１丁目５番６号りそな九段ビル５階ＫＳフロア,,13,101,1020074,,,,,,,2023-04-11,1,,,,,ブルーエッジラボ,0
2455,8010003040299,新規,0,2023-04-11,2023-04-11,Ｋ‐ＳＭＩＬＥ合同会社,,合同会社,東京都,中央区,銀座１丁目２２番１１号,,13,102,1040061,,,,,,,2023-04-11,1,,,,,ケースマイル,0
2465,8010401173667,新規,0,2023-04-11,2023-04-11,株式会社ｇｉｆｔｓ,,株式会社,東京都,港区,浜松町２丁目２番１５号浜松町ダイヤビル２Ｆ,,13,103,1050013,,,,,,,2023-04-11,1,,,,,ギフト,0
2471,8010501050254,新規,0,2023-04-11,2023-04-11,株式会社慧,,株式会社,東京都,台東区,浅草２丁目１７番４号,,13,106,1110032,,,,,,,2023-04-11,1,,,,,ケイ,0
2472,8010501050270,新規,0,2023-04-11,2023-04-11,旭豊株式会社,,株式会社,東京都,台東区,松が谷２丁目９番１－２０５号,,13,106,1110036,,,,,,,2023-04-11,1,,,,,キョクホウ,0
2489,8011001153613,新規,0,2023-04-11,2023-04-11,ａｍｐ株式会社,,株式会社,東京都,渋谷区,恵比寿西２丁目５番１号２０２,,13,113,1500021,,,,,,,2023-04-11,1,,,,,アンプ,0
2490,8011001153687,新規,0,2023-04-11,2023-04-11,株式会社日本不動産総合研究所,,株式会社,東京都,目黒区,下目黒３丁目２番１号,,13,110,1530064,,,,,,,2023-04-11,1,,,,,ニホンフドウサンソウゴウケンキュウショ,0
2491,8011003016603,新規,0,2023-04-11,2023-04-11,合同会社クリムゾンコンサルティング,,合同会社,東京都,渋谷区,千駄ヶ谷５丁目３２番６号グリーンスクエア新宿６階,,13,113,1510051,,,,,,,2023-04-11,1,,,,,クリムゾンコンサルティング,0
2494,8011101102453,新規,0,2023-04-11,2023-04-11,株式会社Ｌａｍｂｄａ,,株式会社,東京都,新宿区,西新宿８丁目２－３６,,13,104,1600023,,,,,,,2023-04-11,1,,,,,ラムダ,0
2495,8011101102461,新規,0,2023-04-11,2023-04-11,株式会社リンクス,,株式会社,東京都,新宿区,西新宿２丁目１番１号新宿三井ビルディング３７階,,13,104,1600023,,,,,,,2023-04-11,1,,,,,リンクス,0
2496,8011103012898,新規,0,2023-04-11,2023-04-11,合同会社サン・ジュゼッペ,,合同会社,東京都,新宿区,左門町１９番地袋井荘１－５,,13,104,1600017,,,,,,,2023-04-11,1,,,,,サンジュゼッペ,0
2497,8011103012915,新規,0,2023-04-11,2023-04-11,Ｔ‐ＡＣＥ合同会社,,合同会社,東京都,新宿区,北新宿４丁目８番２１号,,13,104,1690074,,,,,,,2023-04-11,1,,,,,ティーエース,0
2498,8011103012923,新規,0,2023-04-11,2023-04-11,Ｊ‐ｓｔｙｌｅ合同会社,,合同会社,東京都,新宿区,新宿１丁目３６番２号新宿第七葉山ビル３Ｆ,,13,104,1600022,,,,,,,2023-04-11,1,,,,,ジェイスタイル,0
2503,8011501029131,新規,0,2023-04-11,2023-04-11,株式会社Ｄ‐Ｐｒｏｊｅｃｔ,,株式会社,東京都,北区,赤羽２丁目４２－１０赤羽トナミビル２０２,,13,117,1150045,,,,,,,2023-04-11,1,,,,,ディープロジェクト,0
2504,8011501029156,新規,0,2023-04-11,2023-04-11,ＭＥコンサルティング株式会社,,株式会社,東京都,荒川区,東日暮里５丁目３４番１号川原第二ビル５Ｆ,,13,118,1160014,,,,,,,2023-04-11,1,,,,,エムイーコンサルティング,0
2506,8011505002547,新規,0,2023-04-11,2023-04-11,特定非営利活動法人チャレンジプロ,,その他の設立登記法人,東京都,北区,志茂２丁目５７番１２号,,13,117,1150042,,,,,,,2023-04-11,1,,,,,チャレンジプロ,0
2507,8011601026722,新規,0,2023-04-11,2023-04-11,株式会社ＳＩＮＫ,,株式会社,東京都,練馬区,北町５丁目１７－７平和台ドレスビル１Ｆ,,13,120,1790081,,,,,,,2023-04-11,1,,,,,シンク,0
2508,8011601026730,新規,0,2023-04-11,2023-04-11,株式会社ＮＯＵＳＥＮ,,株式会社,東京都,練馬区,豊玉南２丁目９番６号,,13,120,1760014,,,,,,,2023-04-11,1,,,,,ノウセン,0
2509,8011603003868,新規,0,2023-04-11,2023-04-11,はや資産管理合同会社,,合同会社,東京都,練馬区,石神井町６丁目１２番１０号,,13,120,1770041,,,,,,,2023-04-11,1,,,,,ハヤシサンカンリ,0
2510,8011705001778,新規,0,2023-04-11,2023-04-11,一般社団法人ミヤ企画,,その他の設立登記法人,東京都,江戸川区,鹿骨３丁目１５番１４号,,13,123,1330073,,,,,,,2023-04-11,1,,,,,ミヤキカク,0
2512,8011803005598,新規,0,2023-04-11,2023-04-11,優良産業合同会社,,合同会社,東京都,足立区,綾瀬６丁目３１番地１０グリーンパーク第１２綾瀬１０１号室,,13,121,1200005,,,,,,,2023-04-11,1,,,,,ユウリョウサンギョウ,0
2513,8012301013390,新規,0,2023-04-11,2023-04-11,株式会社グッドパートナー,,株式会社,東京都,町田市,南成瀬１丁目２番地１,,13,209,1940045,,,,,,,2023-04-11,1,,,,,グッドパートナー,0
2519,8013103001220,新規,0,2023-04-11,2023-04-11,合同会社ＨＩＲＡＫＡＷＡ．ＳＡＲＬ,,合同会社,東京都,青梅市,住江町４２番地の８,,13,205,1980084,,,,,,,2023-04-11,1,,,,,ヒラカワサアル,0
2524,8013301050572,新規,0,2023-04-11,2023-04-11,株式会社Ａｃｔｉｖｅ,,株式会社,東京都,豊島区,東池袋２丁目２２－２コリンシアン池袋１３０１号室,,13,116,1700013,,,,,,,2023-04-11,1,,,,,アクティブ,0
2526,8013303006580,新規,0,2023-04-11,2023-04-11,合同会社カムカムミニキーナ,,合同会社,東京都,豊島区,長崎６丁目２８－１７,,13,116,1710051,,,,,,,2023-04-11,1,,,,,カムカムミニキーナ,0
2527,8013305003460,新規,0,2023-04-11,2023-04-11,医療法人社団蛍晶会,,その他の設立登記法人,東京都,豊島区,北大塚２丁目２番５号晴和ビル３階,,13,116,1700004,,,,,,,2023-04-11,1,,,,,ケイショウカイ,0
2538,8020003023682,新規,0,2023-04-11,2023-04-11,キットアイアール合同会社,,合同会社,神奈川県,川崎市麻生区,白鳥１丁目１９－１５－５０２,,14,137,2150024,,,,,,,2023-04-11,1,,,,,キットアイアール,0
2539,8020003023690,新規,0,2023-04-11,2023-04-11,合同会社エムケイクリエイティブ,,合同会社,神奈川県,横浜市緑区,十日市場町９０１番地１５－１０１号,,14,113,2260025,,,,,,,2023-04-11,1,,,,,エムケイクリエイティブ,0
2540,8020003023708,新規,0,2023-04-11,2023-04-11,合同会社グランテージ,,合同会社,神奈川県,横浜市西区,北幸１丁目１１番１号水信ビル７階,,14,103,2200004,,,,,,,2023-04-11,1,,,,,グランテージ,0
2541,8020005015950,新規,0,2023-04-11,2023-04-11,医療法人Ｏｒａｌ＆Ｏｓｌｅｒわかば台歯科医院,,その他の設立登記法人,神奈川県,川崎市麻生区,黒川５９２番地１グランシャリオ壱番館,,14,137,2150035,,,,,,,2023-04-11,1,,,,,オーラルアンドオスラーワカバダイシカイイン,0
2544,8021001078611,新規,0,2023-04-11,2023-04-11,株式会社ソイル,,株式会社,神奈川県,中郡大磯町,東町１丁目３－２,,14,341,2550002,,,,,,,2023-04-11,1,,,,,ソイル,0
2545,8021001078628,新規,0,2023-04-11,2023-04-11,株式会社大通,,株式会社,神奈川県,秦野市,羽根１３４番地の２,,14,211,2591301,,,,,,,2023-04-11,1,,,,,オオツウ,0
2546,8021001078685,新規,0,2023-04-11,2023-04-11,ＬＩＮＤＢＥＲＧＨ株式会社,,株式会社,神奈川県,横須賀市,日の出町１丁目９番地,,14,201,2380006,,,,,,,2023-04-11,1,,,,,リンドバーグ,0
2550,8021005012780,新規,0,2023-04-11,2023-04-11,ＢＡＳＥ　ＯＮＥ税理士法人,,その他の設立登記法人,神奈川県,藤沢市,辻堂４丁目１１番５４－２号,,14,205,2510047,,,,,,,2023-04-11,1,,,,,ベースワン,0
2554,8030001153175,新規,0,2023-04-11,2023-04-11,株式会社ソーシャルデザイン研究所,,株式会社,埼玉県,富士見市,ふじみ野西２丁目１番地１アイムふじみ野東二番館２０４,,11,235,3540035,,,,,,,2023-04-11,1,,,,,ソーシャルデザインケンキュウジョ,0
2555,8030001153191,新規,0,2023-04-11,2023-04-11,株式会社神田統計研究所,,株式会社,埼玉県,さいたま市浦和区,常盤８丁目１４番２４－１３１７号,,11,107,3300061,,,,,,,2023-04-11,1,,,,,カンダトウケイケンキュウジョ,0
2556,8030001153200,新規,0,2023-04-11,2023-04-11,株式会社オリオン,,株式会社,埼玉県,川口市,西川口１丁目１７番１６号グレイス西川口３０３号室,,11,203,3320021,,,,,,,2023-04-11,1,,,,,オリオン,0
2557,8030001153241,新規,0,2023-04-11,2023-04-11,リノベハウジング株式会社,,株式会社,埼玉県,上尾市,緑丘４丁目１２番１４－１８号,,11,219,3620015,,,,,,,2023-04-11,1,,,,,リノベハウジング,0
2558,8030001153258,新規,0,2023-04-11,2023-04-11,株式会社ＷＩＬＤ　ＰＩＥＣＥ,,株式会社,埼玉県,川口市,並木２丁目３３－２０－９０５サンクレイドル川口並木,,11,203,3320034,,,,,,,2023-04-11,1,,,,,ワイルドピース,0
2559,8030001153266,新規,0,2023-04-11,2023-04-11,株式会社さくら,,株式会社,埼玉県,川口市,栄町３丁目１３番１‐２３０５号,,11,203,3320017,,,,,,,2023-04-11,1,,,,,サクラ,0
2560,8030001153274,新規,0,2023-04-11,2023-04-11,徳陽工業株式会社,,株式会社,埼玉県,桶川市,大字倉田５５６番地１,,11,231,3630006,,,,,,,2023-04-11,1,,,,,トクヨウコウギョウ,0
2561,8030001153290,新規,0,2023-04-11,2023-04-11,株式会社巧彩,,株式会社,埼玉県,川口市,大字木曽呂９２０番地４,,11,203,3330831,,,,,,,2023-04-11,1,,,,,コウサイ,0
2562,8030001153308,新規,0,2023-04-11,2023-04-11,株式会社リブラコ,,株式会社,埼玉県,川口市,青木１丁目１７番２８号サイパレス３０２号室,,11,203,3320031,,,,,,,2023-04-11,1,,,,,リブラコ,0
2563,8030001153316,新規,0,2023-04-11,2023-04-11,株式会社Ｎｅｇｉ企画,,株式会社,埼玉県,川口市,大字安行藤八３６７番地の４,,11,203,3340051,,,,,,,2023-04-11,1,,,,,ネギキカク,0
2566,8030003021487,新規,0,2023-04-11,2023-04-11,合同会社Ｖｅｎｔｏ　ｄ’Ｏｒｏ,,合同会社,埼玉県,川越市,石原町２丁目２４番地２３,,11,201,3500824,,,,,,,2023-04-11,1,,,,,ヴェントドーロ,0
2567,8030003021537,新規,0,2023-04-11,2023-04-11,ＢＫ合同会社,,合同会社,埼玉県,草加市,旭町４丁目９－１７コーポ河野第１－１０５号室,,11,221,3400053,,,,,,,2023-04-11,1,,,,,ビーケー,0
2568,8030005021188,新規,0,2023-04-11,2023-04-11,一般社団法人ＳＴＡＮＤ　ＦＯＲ　ＢＡＳＥＢＡＬＬ朝霞・新座,,その他の設立登記法人,埼玉県,新座市,大和田１丁目２６番３号,,11,230,3520004,,,,,,,2023-04-11,1,,,,,スタンドフォーベースボールアサカニイザ,0
2569,8030005021205,新規,0,2023-04-11,2023-04-11,一般社団法人三郷市歯科医師会,,その他の設立登記法人,埼玉県,三郷市,谷口５４４番地,,11,237,3410042,,,,,,,2023-04-11,1,,,,,ミサトシシカイシカイ,0
2576,8040001127847,新規,0,2023-04-11,2023-04-11,デンキのＫａｎｅｏｋａ株式会社,,株式会社,千葉県,木更津市,請西東７丁目２番地３,,12,206,2920806,,,,,,,2023-04-11,1,,,,,デンキノカネオカ,0
2581,8050001052672,新規,0,2023-04-11,2023-04-11,つくばプラント株式会社,,株式会社,茨城県,守谷市,松前台７丁目７番地７,,08,224,3020102,,,,,,,2023-04-11,1,,,,,ツクバプラント,0
2584,8070001040312,新規,0,2023-04-11,2023-04-11,ロボットＡＩ株式会社,,株式会社,群馬県,高崎市,下小鳥３１－７,,10,202,3700000,,,,,,,2023-04-11,1,,,,,ロボットエーアイ,0
2585,8070003004901,新規,0,2023-04-11,2023-04-11,合同会社発想法研究所,,合同会社,群馬県,伊勢崎市,波志江町１９１０番地３６,,10,204,3720001,,,,,,,2023-04-11,1,,,,,,0
2591,8100001036307,新規,0,2023-04-11,2023-04-11,株式会社ＨＡＡＫＯ,,株式会社,長野県,北佐久郡軽井沢町,軽井沢東２３番地２－２階,,20,321,3890104,,,,,,,2023-04-11,1,,,,,ハーコ,0
2608,8120001253858,新規,0,2023-04-11,2023-04-11,株式会社Ｓ‐Ｋライズ,,株式会社,大阪府,大阪市北区,南扇町２－１１エスライズ梅田東１０階,,27,127,5300052,,,,,,,2023-04-11,1,,,,,エスケーライズ,0
2609,8120001253882,新規,0,2023-04-11,2023-04-11,株式会社ナカノ,,株式会社,大阪府,大阪市都島区,友渕町３丁目６番１８－１０１０号,,27,102,5340016,,,,,,,2023-04-11,1,,,,,ナカノ,0
2610,8120001253899,新規,0,2023-04-11,2023-04-11,株式会社アートボックス,,株式会社,大阪府,大阪市阿倍野区,昭和町２丁目１８番１９号,,27,119,5450011,,,,,,,2023-04-11,1,,,,,アートボックス,0
2611,8120001253908,新規,0,2023-04-11,2023-04-11,株式会社スライブ,,株式会社,大阪府,守口市,南寺方東通２丁目８番５号－１,,27,209,5700043,,,,,,,2023-04-11,1,,,,,スライブ,0
2613,8120003023771,新規,0,2023-04-11,2023-04-11,Ｏｎｅｌｏｏｐ　Ｌｏｇｉｓｔｉｃｓ　Ｊａｐａｎ合同会社,,合同会社,大阪府,大阪市北区,豊崎３丁目１６番１６－１１０１号,,27,127,5310072,,,,,,,2023-04-11,1,,,,,ワンループロジスティクスジャパン,0
2614,8120003023796,新規,0,2023-04-11,2023-04-11,ＴＸＶ合同会社,,合同会社,大阪府,大阪市生野区,新今里３丁目１９番７号相愛マンション２５号,,27,116,5440001,,,,,,,2023-04-11,1,,,,,ティーエックスブイ,0
2615,8120003023813,新規,0,2023-04-11,2023-04-11,合同会社アンタビ,,合同会社,大阪府,大阪市北区,梅田１丁目１‐３大阪駅前第３ビル２９階１‐１‐１号室,,27,127,5300001,,,,,,,2023-04-11,1,,,,,アンタビ,0
2617,8120005023539,新規,0,2023-04-11,2023-04-11,一般社団法人医療人育成機構,,その他の設立登記法人,大阪府,大阪市中央区,南船場１丁目１１番９号長堀安田ビル,,27,128,5420081,,,,,,,2023-04-11,1,,,,,イリョウジンイクセイキコウ,0
2618,8120005023555,新規,0,2023-04-11,2023-04-11,一般社団法人ＮＡＮＩＷＡ　ＰＲＩＤＥ　ＭＥＭＢＥＲＳＨＩＰ,,その他の設立登記法人,大阪府,大阪市東住吉区,田辺３丁目１９番２３号,,27,121,5460031,,,,,,,2023-04-11,1,,,,,ナニワプライドメンバーシップ,0
2619,8120005023563,新規,0,2023-04-11,2023-04-11,一般社団法人ｉＴＡＭＯＮ,,その他の設立登記法人,大阪府,大阪市北区,与力町４番８号,,27,127,5300036,,,,,,,2023-04-11,1,,,,,アイタモン,0
2621,8120101067282,新規,0,2023-04-11,2023-04-11,株式会社アールシステム,,株式会社,大阪府,泉佐野市,高松東２丁目３番４０号,,27,213,5980012,,,,,,,2023-04-11,1,,,,,アールシステム,0
2622,8120101067299,新規,0,2023-04-11,2023-04-11,株式会社Ｄｉｎｇｅｒ,,株式会社,大阪府,堺市美原区,多治井２２９番地８,,27,147,5870012,,,,,,,2023-04-11,1,,,,,ディンガー,0
2623,8120101067308,新規,0,2023-04-11,2023-04-11,ＭＧＰＳｙｓｔｅｍ株式会社,,株式会社,大阪府,松原市,天美東４丁目２３１番地２０,,27,217,5800032,,,,,,,2023-04-11,1,,,,,エムジーピーシステム,0
2624,8120101067316,新規,0,2023-04-11,2023-04-11,株式会社ショウテック,,株式会社,大阪府,堺市中区,土塔町２２０３番地１ハイツエクセルＡ棟２０１号,,27,142,5998234,,,,,,,2023-04-11,1,,,,,ショウテック,0
2625,8120103005158,新規,0,2023-04-11,2023-04-11,合同会社ＫＯＮＧＣＥＰＴ,,合同会社,大阪府,堺市西区,下田町２５－２８－４０３,,27,144,5938329,,,,,,,2023-04-11,1,,,,,コンセプト,0
2629,8120901047376,新規,0,2023-04-11,2023-04-11,株式会社Ａｒｃ,,株式会社,大阪府,高槻市,白梅町４番８－１５０８号,,27,207,5691116,,,,,,,2023-04-11,1,,,,,アルク,0
2631,8120903004581,新規,0,2023-04-11,2023-04-11,合同会社ＴＡＩＳＨＩ,,合同会社,大阪府,豊中市,中桜塚２丁目４－１６パークス中桜塚１０２,,27,203,5610881,,,,,,,2023-04-11,1,,,,,タイシ,0
2632,8122001036862,新規,0,2023-04-11,2023-04-11,株式会社Ａｇｉｌｅ,,株式会社,大阪府,東大阪市,瓜生堂３丁目８番１１－１００５号,,27,227,5780946,,,,,,,2023-04-11,1,,,,,アジャイル,0
2633,8122001036879,新規,0,2023-04-11,2023-04-11,株式会社ＳＹＬ,,株式会社,大阪府,東大阪市,長田西２丁目７番７－２０１号,,27,227,5770016,,,,,,,2023-04-11,1,,,,,エスワイエル,0
2640,8130001074064,新規,0,2023-04-11,2023-04-11,Ｎｏｒｃｈ株式会社,,株式会社,京都府,京都市中京区,御倉町７５番地ファーストコート三条両替町ビル４Ｆ,,26,104,6048166,,,,,,,2023-04-11,1,,,,,ノーチ,0
2647,8140001129750,新規,0,2023-04-11,2023-04-11,株式会社Ｇｉｆｔｅｄ．Ｌａｂ,,株式会社,兵庫県,宝塚市,平井１丁目９番２３号,,28,214,6650816,,,,,,,2023-04-11,1,,,,,ギフテッドラボ,0
2650,8140003018943,新規,0,2023-04-11,2023-04-11,合同会社ステイグッド,,合同会社,兵庫県,三田市,あかしあ台２丁目１６番５,,28,219,6691323,,,,,,,2023-04-11,1,,,,,ステイグッド,0
2651,8150001026294,新規,0,2023-04-11,2023-04-11,株式会社ＦＲＯＭ０,,株式会社,奈良県,吉野郡川上村,大字東川１５９５番地,,29,452,6393541,,,,,,,2023-04-11,1,,,,,フロム,0
2652,8150001026303,新規,0,2023-04-11,2023-04-11,株式会社ファーム,,株式会社,奈良県,香芝市,高１０４番地３,,29,210,6390241,,,,,,,2023-04-11,1,,,,,ファーム,0
2655,8160005011184,新規,0,2023-04-11,2023-04-11,特定非営利活動法人学問のすすめ,,その他の設立登記法人,滋賀県,彦根市,和田町２番地１１,,25,202,5220039,,,,,,,2023-04-11,1,,,,,ガクモンノススメ,0
2656,8170001017548,新規,0,2023-04-11,2023-04-11,株式会社赤土板金,,株式会社,和歌山県,和歌山市,大河内５２１番地１,,30,201,6400316,,,,,,,2023-04-11,1,,,,,アカツチバンキン,0
2663,8180001155677,新規,0,2023-04-11,2023-04-11,株式会社ＮＥＳＣ,,株式会社,愛知県,名古屋市西区,南川町２８１番地の１,,23,104,4520814,,,,,,,2023-04-11,1,,,,,ネスク,0
2664,8180001155727,新規,0,2023-04-11,2023-04-11,株式会社キーボー,,株式会社,愛知県,名古屋市北区,柳原２丁目５番１１号ヴィラ・ノースランド２０３号,,23,103,4620845,,,,,,,2023-04-11,1,,,,,キーボー,0
2669,8180003025093,新規,0,2023-04-11,2023-04-11,合同会社ＩＸＩＮ,,合同会社,愛知県,東海市,荒尾町寺下２９番地の１,,23,222,4760003,,,,,,,2023-04-11,1,,,,,イーシン,0
2674,8200001041180,新規,0,2023-04-11,2023-04-11,彩サイン株式会社,,株式会社,岐阜県,岐阜市,日野東５丁目２番３１号,,21,201,5008211,,,,,,,2023-04-11,1,,,,,イロドリサイン,0
2689,8250005008808,新規,0,2023-04-11,2023-04-11,一般社団法人山口県産業ドローン協会,,その他の設立登記法人,山口県,岩国市,室の木町４丁目８４番１号,,35,208,7400021,,,,,,,2023-04-11,1,,,,,ヤマグチケンサンギョウドローンキョウカイ,0
2695,8260003004279,新規,0,2023-04-11,2023-04-11,合同会社ＮＩＪＩＭＩ,,合同会社,岡山県,玉野市,築港３丁目１７番２３号山鳥舎２０１,,33,204,7060002,,,,,,,2023-04-11,1,,,,,ニジミ,0
2703,8290001101100,新規,0,2023-04-11,2023-04-11,株式会社トータル企画サービス,,株式会社,福岡県,福岡市西区,姪の浜３丁目３番１０号,,40,135,8190002,,,,,,,2023-04-11,1,,,,,トータルキカクサービス,0
2712,8310001018358,新規,0,2023-04-11,2023-04-11,株式会社ｏｍｏｉｄｅ,,株式会社,長崎県,長崎市,若竹町２番２４号２階,,42,201,8528047,,,,,,,2023-04-11,1,,,,,オモイデ,0
2723,8330001030757,新規,0,2023-04-11,2023-04-11,株式会社ｄｏｉｄｏｉ．,,株式会社,熊本県,熊本市南区,良町１丁目７番２０号宮本ビル１０１,,43,104,8620969,,,,,,,2023-04-11,1,,,,,ドイドイ,0
2726,8340001025483,新規,0,2023-04-11,2023-04-11,株式会社岩崎エンジニアリング,00130064,株式会社,鹿児島県,鹿児島市,谷山中央４丁目１８３番地ジャルダン・フリューリー・ドーソンＩＶ１０６号,00130065,46,201,8910141,,,,,,,2023-04-11,1,,,,,イワサキエンジニアリング,0
2727,8340001025491,新規,0,2023-04-11,2023-04-11,株式会社カネヨシ商事,,株式会社,鹿児島県,枕崎市,岩戸町１２２番地,,46,204,8980058,,,,,,,2023-04-11,1,,,,,カネヨシショウジ,0
2732,8370001049819,新規,0,2023-04-11,2023-04-11,株式会社アイオー工業,,株式会社,宮城県,仙台市泉区,七北田字八乙女１番地１リーベスト八乙女１０１号室,,04,105,9813131,,,,,,,2023-04-11,1,,,,,アイオーコウギョウ,0
2734,8380001033607,新規,0,2023-04-11,2023-04-11,株式会社Ｊ‐ｐｌａｎｎｉｎｇ,,株式会社,福島県,福島市,下鳥渡字八幡塚２９－１－１－２０１,,07,201,9601106,,,,,,,2023-04-11,1,,,,,ジェイプランニング,0
2738,8390001017220,新規,0,2023-04-11,2023-04-11,株式会社やまぶんファーム,,株式会社,山形県,東村山郡山辺町,大字三河尻１０番地,,06,301,9900312,,,,,,,2023-04-11,1,,,,,ヤマブンファーム,0
2746,8430001088785,新規,0,2023-04-11,2023-04-11,株式会社メイデータ,,株式会社,北海道,札幌市中央区,北五条西１１丁目１５番４,,01,101,0600005,,,,,,,2023-04-11,1,,,,,メイデータ,0
2747,8430001088827,新規,0,2023-04-11,2023-04-11,株式会社ＦＫＳ,,株式会社,北海道,札幌市手稲区,前田九条９丁目８－１,,01,109,0060819,,,,,,,2023-04-11,1,,,,,エフケーエス,0
2748,8430001088835,新規,0,2023-04-11,2023-04-11,株式会社石川技建,,株式会社,北海道,千歳市,勇舞１丁目１０番１３号,,01,224,0660078,,,,,,,2023-04-11,1,,,,,イシカワギケン,0
2749,8430001088851,新規,0,2023-04-11,2023-04-11,株式会社ライフキャリア・プラス,,株式会社,北海道,苫小牧市,のぞみ町２丁目４番１８号,,01,213,0591272,,,,,,,2023-04-11,1,,,,,ライフキャリアプラス,0
2757,8470003002393,新規,0,2023-04-11,2023-04-11,合同会社池田商店,,合同会社,香川県,高松市,太田下町１６５９番地１,,37,201,7618073,,,,,,,2023-04-11,1,,,,,イケダショウテン,0
2759,8490001010446,新規,0,2023-04-11,2023-04-11,株式会社ｈｙｇｇｅ,,株式会社,高知県,高知市,葛島３丁目１４番１号,,39,201,7818121,,,,,,,2023-04-11,1,,,,,ヒュゲ,0
2761,8490005006894,新規,0,2023-04-11,2023-04-11,高知弁護士協同組合,,その他の設立登記法人,高知県,高知市,越前町１丁目５番７号,,39,201,7800928,,,,,,,2023-04-11,1,,,,,コウチベンゴシ,0
2763,8500001024865,新規,0,2023-04-11,2023-04-11,フレンドシップ株式会社,,株式会社,愛媛県,今治市,天保山町２丁目１番地１２,,38,202,7940032,,,,,,,2023-04-11,1,,,,,フレンドシップ,0
2765,8700150114554,新規,0,2023-04-11,2023-03-28,但馬労働基準協会,,その他,兵庫県,豊岡市,若松町９－１０,,28,209,6680027,,,,,,,2023-03-28,1,,,,,タジマロウドウキジユンキヨウカイ,0
2766,8700150115288,新規,0,2023-04-11,2023-04-11,ｔａｉｚｈｏｕｘｉｎｍｅｉｇｕｏｊｉｍａｏｙｉｙｏｕｘｉａｎｇｏｎｇｓｉ,,外国会社等,,,,,,,,ｚｈｅｊｉａｎｇｓｈｅｎｇｔａｉｚｈｏｕｓｈｉｋａｉｆａｑｕｊｕｎｙｕｅｄａｓｈａＢｚｈｕａｎｇ１２２３ｓｈｉ,,,,,,2023-04-11,1,,,,,タイジョウシンメイグオジーマオイーヨウシエンゴンスー,0
2767,8700150115296,新規,0,2023-04-11,2023-04-11,ＢＲＩＮＮＯ　ＩＮＣＯＲＰＯＲＡＴＥＤ,,外国会社等,,,,,,,,４　Ｆ．，Ｎｏ．１０５，Ｚｈｏｕｚｉ　Ｓｔ．，Ｎｅｉｈｕ　Ｄｉｓｔ．，Ｔａｉｐｅｉ　Ｃｉｔｙ　１１４６８９，Ｔａｉｗａｎ（Ｒ．Ｏ．Ｃ）,,,,,,2023-04-11,1,,,,,イーチーグーフェンヨウシエンゴンスー,0
2768,8700150115305,新規,0,2023-04-11,2023-04-11,ＦＵＢＡＮＧ　ＲＵＢＢＥＲ（ＳＩＮＧＡＰＯＲＥ）ＰＴＥ．ＬＴＤ．,,外国会社等,,,,,,,,１５２　ＢＥＡＣＨ　ＲＯＡＤ　＃１９－０６／０７　ＧＡＴＥＷＡＹ　ＥＡＳＴ　ＳＩＮＧＡＰＯＲＥ（１８９７２１）,,,,,,2023-04-11,1,,,,,フーバンラバーシンガポールプライベートリミテッド,0
2778,9010001234348,新規,0,2023-04-11,2023-04-11,株式会社ＲＴＣホールディングス,,株式会社,東京都,中央区,日本橋１丁目２番１０号東洋ビルディング９階,,13,102,1030027,,,,,,,2023-04-11,1,,,,,アールティーシーホールディングス,0
2779,9010001234356,新規,0,2023-04-11,2023-04-11,株式会社Ｔｒｕｓｔ　Ｌａｎｇｕａｇｅ,,株式会社,東京都,中央区,日本橋蛎殻町１丁目１６番１１号ＥＤＧＥ日本橋蛎殻町５階,,13,102,1030014,,,,,,,2023-04-11,1,,,,,トラストランゲージ,0
2780,9010001234364,新規,0,2023-04-11,2023-04-11,株式会社ベラウツアー,,株式会社,東京都,千代田区,神田神保町２丁目２番地３１ヒューリック神保町ビル,,13,101,1010051,,,,,,,2023-04-11,1,,,,,ベラウツアー,0
2781,9010001234372,新規,0,2023-04-11,2023-04-11,株式会社ＫＴＭパートナーズ,,株式会社,東京都,中央区,日本橋馬喰町２丁目４－１１レジディア日本橋馬喰町ＩＩＩ５０２,00130046,13,102,1030002,,,,,,,2023-04-11,1,,,,,ケーティーエムパートナーズ,0
2782,9010001234389,新規,0,2023-04-11,2023-04-11,株式会社ＴＡＮＡＫＡ,,株式会社,東京都,千代田区,神田淡路町１丁目９番５号天翔御茶ノ水ビル６階６０７号,,13,101,1010063,,,,,,,2023-04-11,1,,,,,タナカ,0
2783,9010001234430,新規,0,2023-04-11,2023-04-11,ＭＭ　Ｃａｐｉｔａｌ　Ｐａｒｔｎｅｒｓ２号株式会社,,株式会社,東京都,中央区,日本橋２丁目５番１号,,13,102,1030027,,,,,,,2023-04-11,1,,,,,エムエムキャピタルパートナーズニゴウ,0
2787,9010003040257,新規,0,2023-04-11,2023-04-11,合同会社ＫＣパートナーズ,,合同会社,東京都,文京区,湯島３丁目３４番１１－４０７号,,13,105,1130034,,,,,,,2023-04-11,1,,,,,ケーシーパートナーズ,0
2788,9010003040273,新規,0,2023-04-11,2023-04-11,ルミナス合同会社,,合同会社,東京都,中央区,銀座７丁目１３番２０号,,13,102,1040061,,,,,,,2023-04-11,1,,,,,ルミナス,0
2790,9010005036451,新規,0,2023-04-11,2023-04-11,一般社団法人日本森林医学会,,その他の設立登記法人,東京都,文京区,千駄木１丁目１番５号日本医科大学付属病院リハビリテーション科医局内,,13,105,1130022,,,,,,,2023-04-11,1,,,,,ニホンシンリンイガクカイ,0
2806,9010901052808,新規,0,2023-04-11,2023-04-11,株式会社世田谷クラス,,株式会社,東京都,世田谷区,成城５丁目１３番５号,,13,112,1570066,,,,,,,2023-04-11,1,,,,,セタガヤクラス,0
2807,9010901052816,新規,0,2023-04-11,2023-04-11,株式会社シロユ,,株式会社,東京都,世田谷区,成城９丁目５番２６号,,13,112,1570066,,,,,,,2023-04-11,1,,,,,シロユ,0
2809,9010903008080,新規,0,2023-04-11,2023-04-11,合同会社ＢＦＢ,,合同会社,東京都,世田谷区,松原１丁目１－８,,13,112,1560043,,,,,,,2023-04-11,1,,,,,ビーエフビー,0
2819,9011001153637,新規,0,2023-04-11,2023-04-11,ＵＮＥＬ株式会社,,株式会社,東京都,渋谷区,円山町５番５号Ｎａｖｉ渋谷Ｖ３階,,13,113,1500044,,,,,,,2023-04-11,1,,,,,ウネル,0
2823,9011003016602,新規,0,2023-04-11,2023-04-11,合同会社ＭＯＭ,,合同会社,東京都,渋谷区,千駄ヶ谷５丁目３２番６号グリーンスクエア新宿６階,,13,113,1510051,,,,,,,2023-04-11,1,,,,,エムオーエム,0
2824,9011003016610,新規,0,2023-04-11,2023-04-11,合同会社ＥＡＲＣＬＥ,,合同会社,東京都,渋谷区,渋谷２丁目１９番１５号宮益坂ビルディング６０９,,13,113,1500002,,,,,,,2023-04-11,1,,,,,アークル,0
2825,9011005010017,新規,0,2023-04-11,2023-04-11,医療法人社団白桜会,,その他の設立登記法人,東京都,目黒区,上目黒３丁目６番２２号－１０１,,13,110,1530051,,,,,,,2023-04-11,1,,,,,ハクオウカイ,0
2831,9011101102428,新規,0,2023-04-11,2023-04-11,株式会社ＺＥＡＬ,,株式会社,東京都,新宿区,下落合３丁目２－１８ニュー目白マンション２０４,,13,104,1610033,,,,,,,2023-04-11,1,,,,,ジール,0
2832,9011101102452,新規,0,2023-04-11,2023-04-11,株式会社Ｆｏｘｙ＆Ｃｏ．,,株式会社,東京都,新宿区,西新宿３丁目５－１５Ｚｏｏｍ都庁前＃１００２,,13,104,1600023,,,,,,,2023-04-11,1,,,,,フォクシーアンドコー,0
2833,9011101102460,新規,0,2023-04-11,2023-04-11,株式会社第一商事,,株式会社,東京都,新宿区,北新宿１丁目１番３号アンベリール新宿５０３,,13,104,1690074,,,,,,,2023-04-11,1,,,,,ダイイチショウジ,0
2834,9011101102493,新規,0,2023-04-11,2023-04-11,株式会社友共,,株式会社,東京都,新宿区,歌舞伎町２丁目１７－１０－６０５号室,,13,104,1600021,,,,,,,2023-04-11,1,,,,,トモドモ,0
2835,9011101102502,新規,0,2023-04-11,2023-04-11,株式会社Ｖｉｎｌｉｓｔ,,株式会社,東京都,新宿区,高田馬場３丁目２１番９号２０１室,,13,104,1690075,,,,,,,2023-04-11,1,,,,,ヴィンリスト,0
2836,9011103012906,新規,0,2023-04-11,2023-04-11,合同会社Ｓｅｒａｐｉｓ,,合同会社,東京都,新宿区,新宿４丁目３番１７ＦＯＲＥＣＡＳＴ新宿ＳＯＵＴＨ６階,,13,104,1600022,,,,,,,2023-04-11,1,,,,,セラピス,0
2837,9011103012914,新規,0,2023-04-11,2023-04-11,合同会社ＴＳ,,合同会社,東京都,新宿区,四谷４丁目２５番地,,13,104,1600004,,,,,,,2023-04-11,1,,,,,ティーエス,0
2838,9011103012922,新規,0,2023-04-11,2023-04-11,合同会社ナナイロ,,合同会社,東京都,新宿区,西新宿３丁目３番１３号西新宿水間ビル２Ｆ,,13,104,1600023,,,,,,,2023-04-11,1,,,,,ナナイロ,0
2840,9011201024555,新規,0,2023-04-11,2023-04-11,株式会社ＢＬＯＯＭ,,株式会社,東京都,中野区,新井１丁目２３番１７号,,13,114,1650026,,,,,,,2023-04-11,1,,,,,ブルーム,0
2841,9011201024563,新規,0,2023-04-11,2023-04-11,株式会社Ｓｔａｒｌｉｇｈｔ,,株式会社,東京都,中野区,東中野５丁目１番１－６０９号,,13,114,1640003,,,,,,,2023-04-11,1,,,,,スターライト,0
2848,9011603003875,新規,0,2023-04-11,2023-04-11,合同会社富樫研究所,,合同会社,東京都,練馬区,石神井町５丁目１０番２１号,,13,120,1770041,,,,,,,2023-04-11,1,,,,,トガシケンキュウジョ,0
2849,9011705001777,新規,0,2023-04-11,2023-04-11,医療法人社団アンカー,,その他の設立登記法人,東京都,江戸川区,船堀４丁目３番６号メゾンドサントル船堀１階,,13,123,1340091,,,,,,,2023-04-11,1,,,,,アンカー,0
2854,9012701017577,新規,0,2023-04-11,2023-04-11,Ｋ＆Ｓ　Ｎｏｉｓｅ　Ｃａｎｃｅｌｌａｔｉｏｎ　Ｌａｂ株式会社,,株式会社,東京都,東久留米市,八幡町１丁目４番２２号,,13,222,2030042,,,,,,,2023-04-11,1,,,,,ケイアンドエスノイズキャンセレーションラボ,0
2863,9013301050555,新規,0,2023-04-11,2023-04-11,株式会社静,,株式会社,東京都,豊島区,西巣鴨２丁目５番５号,,13,116,1700001,,,,,,,2023-04-11,1,,,,,シズカ,0
2864,9013301050563,新規,0,2023-04-11,2023-04-11,株式会社石浜,,株式会社,東京都,豊島区,巣鴨３丁目２３－３ハウス桃李１４０２,,13,116,1700002,,,,,,,2023-04-11,1,,,,,イシハマ,0
2873,9020001151071,新規,0,2023-04-11,2023-04-11,ＳＭＰ株式会社,,株式会社,神奈川県,川崎市麻生区,万福寺４丁目１９番１－７０７号,,14,137,2150004,,,,,,,2023-04-11,1,,,,,エスエムピー,0
2876,9020003023698,新規,0,2023-04-11,2023-04-11,サイディライト合同会社,,合同会社,神奈川県,横浜市神奈川区,西神奈川１丁目７－２東神奈川室町第二ビル６Ｆ,,14,102,2210822,,,,,,,2023-04-11,1,,,,,サイディライト,0
2877,9020005015925,新規,0,2023-04-11,2023-04-11,医療法人社団アプリシエイト,,その他の設立登記法人,神奈川県,横浜市都筑区,茅ケ崎中央９番３号グラディスセンター南コート１階,,14,118,2240032,,,,,,,2023-04-11,1,,,,,アプリシエイト,0
2878,9020005015933,新規,0,2023-04-11,2023-04-11,ＮＰＯ法人Ｇｏｍｉ‐Ｍａｐ,,その他の設立登記法人,神奈川県,川崎市中原区,丸子通２丁目６８２番地エディフィスＡＮ４０１,,14,133,2110006,,,,,,,2023-04-11,1,,,,,ゴミマップ,0
2879,9020005015941,新規,0,2023-04-11,2023-04-11,医療法人星和会,,その他の設立登記法人,神奈川県,横浜市西区,中央１丁目４番９号,,14,103,2200051,,,,,,,2023-04-11,1,,,,,セイワカイ,0
2881,9021001078651,新規,0,2023-04-11,2023-04-11,株式会社ＡＬＬ　ＥＡＲＳ,,株式会社,神奈川県,鎌倉市,台１丁目６番７－３号,,14,204,2470061,,,,,,,2023-04-11,1,,,,,オールイヤーズ,0
2882,9021001078701,新規,0,2023-04-11,2023-04-11,株式会社Ｋファクトリー,,株式会社,神奈川県,伊勢原市,沼目６丁目１５１０－５,,14,214,2591126,,,,,,,2023-04-11,1,,,,,ケイファクトリー,0
2886,9021003012971,新規,0,2023-04-11,2023-04-11,合同会社ＯＫＡＤＡ,,合同会社,神奈川県,相模原市南区,古淵４丁目１番１３号パステルコート古淵５１０,,14,153,2520344,,,,,,,2023-04-11,1,,,,,オカダ,0
2897,9030001153174,新規,0,2023-04-11,2023-04-11,ＨＩＧＨ工業株式会社,,株式会社,埼玉県,越谷市,東越谷３丁目１０番地４グランパレス鈴木３０１,,11,222,3430023,,,,,,,2023-04-11,1,,,,,ハイコウギョウ,0
2898,9030001153199,新規,0,2023-04-11,2023-04-11,株式会社アイカム,,株式会社,埼玉県,さいたま市南区,沼影１丁目３４番１号Ｒ－６０１,,11,108,3360027,,,,,,,2023-04-11,1,,,,,アイカム,0
2899,9030001153208,新規,0,2023-04-11,2023-04-11,株式会社Ｈｉｍｅカンパニー,,株式会社,埼玉県,さいたま市緑区,松木３丁目４０番地２０,,11,109,3360918,,,,,,,2023-04-11,1,,,,,ヒメカンパニー,0
2900,9030001153224,新規,0,2023-04-11,2023-04-11,株式会社セイヤ興業,,株式会社,埼玉県,春日部市,樋堀１３０番地８,00130050,11,214,3440005,,,,,,,2023-04-11,1,,,,,セイヤコウギョウ,0
2901,9030001153240,新規,0,2023-04-11,2023-04-11,株式会社ケーズクリーン群馬,,株式会社,埼玉県,川口市,大字東内野５６番地の１４２,,11,203,3330821,,,,,,,2023-04-11,1,,,,,ケーズクリーングンマ,0
2902,9030001153257,新規,0,2023-04-11,2023-04-11,ミラ商会株式会社,,株式会社,埼玉県,越谷市,大沢４丁目１８番２９号,,11,222,3430025,,,,,,,2023-04-11,1,,,,,ミラショウカイ,0
2903,9030001153265,新規,0,2023-04-11,2023-04-11,株式会社ウィズ・エーケー,,株式会社,埼玉県,さいたま市大宮区,堀の内町１丁目５６３－３８,,11,103,3300804,,,,,,,2023-04-11,1,,,,,ウィズエーケー,0
2907,9030003021528,新規,0,2023-04-11,2023-04-11,ＧＯ＆ＴＡＮＥ合同会社,,合同会社,埼玉県,飯能市,本町１番１１号ＫＩＶオフィス飯能Ａ号室,,11,209,3570032,,,,,,,2023-04-11,1,,,,,ゴーアンドタネ,0
2908,9030003021536,新規,0,2023-04-11,2023-04-11,合同会社雲嶺,,合同会社,埼玉県,上尾市,宮本町５番９号グランドソナ上尾８０１,,11,219,3620036,,,,,,,2023-04-11,1,,,,,ウンレイ,0
2912,9040001127879,新規,0,2023-04-11,2023-04-11,御伽Ｐｒｏｊｅｃｔ株式会社,,株式会社,千葉県,茂原市,町保１２番地７０,,12,210,2970022,,,,,,,2023-04-11,1,,,,,オトギプロジェクト,0
2913,9040001127904,新規,0,2023-04-11,2023-04-11,株式会社メインハウジング,,株式会社,千葉県,千葉市中央区,祐光１丁目２６－４,,12,101,2600007,,,,,,,2023-04-11,1,,,,,メインハウジング,0
2914,9040001127912,新規,0,2023-04-11,2023-04-11,株式会社ちとせオフィス,,株式会社,千葉県,木更津市,木更津２丁目１番３号,,12,206,2920056,,,,,,,2023-04-11,1,,,,,チトセオフィス,0
2920,9050001052663,新規,0,2023-04-11,2023-04-11,株式会社ｆｒｏｍ　ｈｅｒｅ,,株式会社,茨城県,水戸市,塩崎町８５３番地,,08,201,3111114,,,,,,,2023-04-11,1,,,,,フロムヒア,0
2921,9050001052671,新規,0,2023-04-11,2023-04-11,株式会社ＮＥＸＴ　ＳＴＡＧＥ,,株式会社,茨城県,日立市,久慈町４丁目７番９号,,08,202,3191222,,,,,,,2023-04-11,1,,,,,ネクストステージ,0
2931,9070003004891,新規,0,2023-04-11,2023-04-11,合同会社龍神,,合同会社,群馬県,藤岡市,鬼石１０１番地２,,10,209,3701401,,,,,,,2023-04-11,1,,,,,リュウジン,0
2932,9070005010112,新規,0,2023-04-11,2023-04-11,一般社団法人市民後見センターあうん,,その他の設立登記法人,群馬県,伊勢崎市,田中島町１４２２番地１２,,10,204,3720802,,,,,,,2023-04-11,1,,,,,,0
2937,9080401026421,新規,0,2023-04-11,2023-04-11,株式会社クレセント若月,,株式会社,静岡県,浜松市西区,篠原町４０２０番地,,22,133,4310201,,,,,,,2023-04-11,1,,,,,クレセントワカツキ,0
2943,9100001036306,新規,0,2023-04-11,2023-04-11,サップテック株式会社,,株式会社,長野県,長野市,信更町田野口３００２番地イ,,20,201,3812353,,,,,,,2023-04-11,1,,,,,サップテック,0
2945,9100003006959,新規,0,2023-04-11,2023-04-11,合同会社もみの木,,合同会社,長野県,伊那市,高遠町西高遠５３５番地２,,20,209,3960211,,,,,,,2023-04-11,1,,,,,モミノキ,0
2951,9110005016914,新規,0,2023-04-11,2023-04-11,税理士法人ｌｉｎｋｓ,,その他の設立登記法人,新潟県,新潟市北区,太田甲５６６８番地２,,15,101,9503313,,,,,,,2023-04-11,1,,,,,リンクス,0
2952,9110005016922,新規,0,2023-04-11,2023-04-11,協同組合三条金子新田工場団地,,その他の設立登記法人,新潟県,三条市,金子新田丙７５３番地１０,,15,204,9550814,,,,,,,2023-04-11,1,,,,,サンジョウカネコシンデンコウジョウダンチ,0
2956,9120001253634,新規,0,2023-04-11,2023-04-11,サンセンス株式会社,,株式会社,大阪府,大阪市中央区,本町３丁目４番１１号地下１階,,27,128,5410053,,,,,,,2023-04-11,1,,,,,サンセンス,0
2957,9120001253808,新規,0,2023-04-11,2023-04-11,よりかけ株式会社,,株式会社,大阪府,大阪市港区,海岸通１丁目５番２９号,,27,107,5520022,,,,,,,2023-04-11,1,,,,,ヨリカケ,0
2958,9120001253816,新規,0,2023-04-11,2023-04-11,株式会社工房ネバーランド,,株式会社,大阪府,大阪市城東区,諏訪４丁目１７番１２号シャンテ諏訪２０１号室,,27,118,5360021,,,,,,,2023-04-11,1,,,,,コウボウネバーランド,0
2959,9120001253873,新規,0,2023-04-11,2023-04-11,中井アルク株式会社,,株式会社,大阪府,大阪市東成区,玉津２丁目１番５号,,27,115,5370023,,,,,,,2023-04-11,1,,,,,ナカイアルク,0
2960,9120001253881,新規,0,2023-04-11,2023-04-11,株式会社ハナブサ,,株式会社,大阪府,枚方市,川原町２番１９号,,27,210,5730028,,,,,,,2023-04-11,1,,,,,ハナブサ,0
2966,9120003023795,新規,0,2023-04-11,2023-04-11,森森国際貿易合同会社,,合同会社,大阪府,大阪市東淀川区,下新庄２丁目８番１６号セントラル淡路５０２,,27,114,5330021,,,,,,,2023-04-11,1,,,,,シンシンコクサイボウエキ,0
2969,9120101067315,新規,0,2023-04-11,2023-04-11,株式会社下山興業,,株式会社,大阪府,松原市,三宅東１丁目９番３号,,27,217,5800041,,,,,,,2023-04-11,1,,,,,シモヤマコウギョウ,0
2970,9120101067323,新規,0,2023-04-11,2023-04-11,株式会社Ｎｉｌ,,株式会社,大阪府,岸和田市,葛城町２９５６番地の２８,,27,202,5960824,,,,,,,2023-04-11,1,,,,,ニル,0
2976,9130001074006,新規,0,2023-04-11,2023-04-11,株式会社クロスアール,,株式会社,京都府,京都市南区,東九条中御霊町４９－１,,26,107,6018027,,,,,,,2023-04-11,1,,,,,クロスアール,0
2977,9130001074039,新規,0,2023-04-11,2023-04-11,株式会社Ｃ＆Ｊ,,株式会社,京都府,京都市伏見区,深草西浦町４丁目８１番地メゾン深草２０４,,26,109,6120029,,,,,,,2023-04-11,1,,,,,シーアンドジェイ,0
2978,9130001074047,新規,0,2023-04-11,2023-04-11,株式会社ＤＤＳ,,株式会社,京都府,京都市南区,吉祥院内河原町３－２Ｓｕｃｃｅｅｄ吉祥院５０８,,26,107,6018392,,,,,,,2023-04-11,1,,,,,ディディエス,0
2979,9130001074063,新規,0,2023-04-11,2023-04-11,株式会社弘栄サービス,,株式会社,京都府,京都市山科区,川田御出町５０－４０,,26,110,6078326,,,,,,,2023-04-11,1,,,,,コウエイサービス,0
2993,9140001129758,新規,0,2023-04-11,2023-04-11,億品兆富株式会社,,株式会社,兵庫県,神戸市垂水区,東垂水２丁目９番１６号,,28,108,6550886,,,,,,,2023-04-11,1,,,,,オクヒンチョウフ,0
2996,9150001026319,新規,0,2023-04-11,2023-04-11,株式会社ＭＡＲＩＯ　Ｒｅａｌ　ｅｓｔａｔｅ,,株式会社,奈良県,奈良市,三碓６丁目１１番４５号,,29,201,6310061,,,,,,,2023-04-11,1,,,,,マリオリアルエステート,0
2997,9150003002929,新規,0,2023-04-11,2023-04-11,合同会社ステップ,,合同会社,奈良県,天理市,前栽町１０４番地１クラウンハイム１０５,,29,204,6320094,,,,,,,2023-04-11,1,,,,,ステップ,0
3004,9180001155668,新規,0,2023-04-11,2023-04-11,株式会社ツーエイチ,,株式会社,愛知県,一宮市,あずら２丁目２０番６号,,23,203,4910835,,,,,,,2023-04-11,1,,,,,ツーエイチ,0
3005,9180001155767,新規,0,2023-04-11,2023-04-11,株式会社Ｅ．Ｆ．Ｃ．Ｓ,,株式会社,愛知県,豊明市,栄町南舘２４７番地７サウスレジデンス２０１号,,23,229,4701168,,,,,,,2023-04-11,1,,,,,イーエフシーエス,0
3010,9190005011809,新規,0,2023-04-11,2023-04-11,医療法人西井会,,その他の設立登記法人,三重県,松阪市,高町１９２番５号,,24,204,5150011,,,,,,,2023-04-11,1,,,,,ニシイカイ,0
3014,9200001041171,新規,0,2023-04-11,2023-04-11,株式会社フロンティアカンパニー,,株式会社,岐阜県,岐阜市,入舟町３丁目１０番地サンケンビル２－Ａ,,21,201,5008152,,,,,,,2023-04-11,1,,,,,フロンティアカンパニー,0
3022,9230001019784,新規,0,2023-04-11,2023-04-11,株式会社トライズ,,株式会社,富山県,富山市,向新庄町４丁目７番７号,,16,201,9300916,,,,,,,2023-04-11,1,,,,,トライズ,0
3024,9230003001996,新規,0,2023-04-11,2023-04-11,合同会社森のこみち,,合同会社,富山県,高岡市,下黒田９１８番地,,16,202,9330852,,,,,,,2023-04-11,1,,,,,モリノコミチ,0
3036,9260005011215,新規,0,2023-04-11,2023-04-11,一般社団法人いのちのためのデザイン研究所,,その他の設立登記法人,岡山県,岡山市北区,芳賀５３０３番地,,33,101,7011221,,,,,,,2023-04-11,1,,,,,イノチノタメノデザインケンキュウジョ,0
3042,9290001101082,新規,0,2023-04-11,2023-04-11,株式会社ＫＫＳ,,株式会社,福岡県,宗像市,自由ヶ丘２丁目６番地１,,40,220,8114163,,,,,,,2023-04-11,1,,,,,ケイケイエス,0
3049,9290801029449,新規,0,2023-04-11,2023-04-11,株式会社キーワン,,株式会社,福岡県,北九州市小倉北区,井堀３丁目９‐２０カナオＮＯ．７ＢＬＤ５０３号,,40,106,8030835,,,,,,,2023-04-11,1,,,,,キーワン,0
3051,9300003001948,新規,0,2023-04-11,2023-04-11,合同会社高尾ベルトサービス,,合同会社,佐賀県,鳥栖市,宿町１０９７番地９,,41,203,8410052,,,,,,,2023-04-11,1,,,,,タカオベルトサービス,0
3052,9310001018357,新規,0,2023-04-11,2023-04-11,株式会社シュプルング,,株式会社,長崎県,南島原市,深江町甲字平ノ坂道下６２番１,,42,214,8591501,,,,,,,2023-04-11,1,,,,,シュプルング,0
3059,9350001018279,新規,0,2023-04-11,2023-04-11,株式会社ネクストベース,,株式会社,宮崎県,宮崎市,大字郡司分甲１０３２番地１,,45,201,8800924,,,,,,,2023-04-11,1,,,,,ネクストベース,0
3065,9380001033606,新規,0,2023-04-11,2023-04-11,宍戸左官工業株式会社,,株式会社,福島県,福島市,瀬上町字御蔵場１番地の１３,,07,201,9600101,,,,,,,2023-04-11,1,,,,,シシドサカンコウギョウ,0
3082,9430001088818,新規,0,2023-04-11,2023-04-11,株式会社北海メタル,,株式会社,北海道,苫小牧市,晴海町８番地の２,,01,213,0591374,,,,,,,2023-04-11,1,,,,,ホッカイメタル,0
3083,9430001088826,新規,0,2023-04-11,2023-04-11,株式会社Ｍｉｚ．ｉＲｏ,,株式会社,北海道,札幌市白石区,南郷通２１丁目南６番１７号,,01,104,0030022,,,,,,,2023-04-11,1,,,,,ミズイロ,0
3084,9430001088850,新規,0,2023-04-11,2023-04-11,ブライン株式会社,,株式会社,北海道,恵庭市,新町４番地,,01,231,0611445,,,,,,,2023-04-11,1,,,,,ブライン,0
3085,9430001088891,新規,0,2023-04-11,2023-04-11,株式会社ＩＣＨＩ,,株式会社,北海道,札幌市中央区,南五条西４丁目ＴＭ－２９ビル３Ｆ,,01,101,0640805,,,,,,,2023-04-11,1,,,,,イチ,0
3089,9430003014879,新規,0,2023-04-11,2023-04-11,合同会社大喜,,合同会社,北海道,空知郡南幌町,東町１丁目１１番２号,,01,423,0690233,,,,,,,2023-04-11,1,,,,,ダイキ,0
3090,9430003014912,新規,0,2023-04-11,2023-04-11,合同会社リリアップ,,合同会社,北海道,札幌市東区,北五十条東７丁目４番１６号,,01,103,0070850,,,,,,,2023-04-11,1,,,,,リリアップ,0
3092,9450001013955,新規,0,2023-04-11,2023-04-11,株式会社佐々木機械,,株式会社,北海道,旭川市,忠和五条６丁目８番１０号,,01,204,0708045,,,,,,,2023-04-11,1,,,,,ササキキカイ,0
3096,9470001019546,新規,0,2023-04-11,2023-04-11,株式会社ＳＡＫＵＡＯ,,株式会社,香川県,丸亀市,土器町東１丁目１１６番地３カーサ・デ・ミオ１０２号,,37,202,7630082,,,,,,,2023-04-11,1,,,,,サクアオ,0
3097,9470005006499,新規,0,2023-04-11,2023-04-11,一般社団法人桑名,,その他の設立登記法人,香川県,綾歌郡宇多津町,２１３４番地,,37,386,7690210,,,,,,,2023-04-11,1,,,,,クワナ,0
3101,9500001024872,新規,0,2023-04-11,2023-04-11,誠実産業株式会社,,株式会社,愛媛県,松山市,北井門５丁目５４２番地１,,38,201,7911105,,,,,,,2023-04-11,1,,,,,セイジツサンギョウ,0
3103,9700150115279,新規,0,2023-04-11,2023-04-11,ｇｕａｎｇｚｈｏｕ　ｋｅｙｕａｎ　ｓｈｅｎｇｗｕｋｅｊｉ　ｙｏｕｘｉａｎｇｏｎｇｓｉ,,外国会社等,,,,,,,,ｔｉａｎｈｅｑｕ　ｚｈｏｎｇｓｈａｎｄａｄａｏ　ｋｅｙｕｎｌｕ１０２ｈａｏ　ｇｕａｎｇｚｈｏｕ　ｇｕａｎｇｄｏｎｇ　５１０６６５　ＣＮ,,,,,,2023-04-11,1,,,,,グワンジョウコーユエンションウーコージーヨウシエンゴンスー,0
3104,9700150115287,新規,0,2023-04-11,2023-04-11,Ｓｈｅｎｚｈｅｎ　Ｎｉｔｒｏｌｕｂｅ　Ｔｅｃｈｎｏｌｏｇｙ　Ｃｏ．，Ｌｔｄ,,外国会社等,,,,,,,,２３Ａ，Ｏｆｆｉｃｅ　Ｂｕｉｌｄｉｎｇ　ｏｆ　Ｎｅｐｔｕｎｕｓ　Ｍａｎｓｉｏｎ，Ｎａｎｓｈａｎ　ｄｉ　Ｓｈｅｎｚｈｅｎ　Ｇｕａｎｇ　Ｄｏｎｇ　５１８０６４　ＣＮ,,,,,,2023-04-11,1,,,,,シェンジェンナイズンルーコージーヨウシエンゴンスー,0
3105,9700150115295,新規,0,2023-04-11,2023-04-11,ＰＥＲ－ＡＣＣＵＲＡＴＥ　ＩＮＣＯＲＰＯＲＡＴＩＯＮ,,外国会社等,,,,,,,,８Ｆ．，ＮＯ．８６６－９，ＺＨＯＮＧＺＨＥＮＧ　ＲＤ．，ＺＨＯＮＧＨＥ　ＤＩＳＴ．，ＮＥＷ　ＴＡＩＰＥＩ　ＣＩＴＹ　２３５６０１，ＴＡＩＷＡＮ（Ｒ．Ｏ．Ｃ）,,,,,,2023-04-11,1,,,,,ビャオヤーヨウシエンゴンスー,0
