sequenceNumber,corporateNumber,process,correct,updateDate,changeDate,name,nameImageId,kind,prefectureName,cityName,streetNumber,addressImageId,prefectureCode,cityCode,postCode,addressOutside,addressOutsideImageId,closeDate,closeCause,successorCorporateNumber,changeCause,assignmentDate,latest,enName,enPrefectureName,enCityName,enAddressOutside,furigana,hihyoji
15,1010001224083,新規,0,2022-01-26,2022-01-26,株式会社ＯＬＤ　ＳＣＨＯＯＬ　ＦＯＯＤ　ＳＥＲＶＩＣＥ,,株式会社,東京都,中央区,新富１丁目１５番３号新富ミハマビル,,13,102,1040041,,,,,,,2022-01-26,1,,,,,オールドスクールフードサービス,0
16,1010001224100,新規,0,2022-01-26,2022-01-26,株式会社アジャンスＳＫ,,株式会社,東京都,中央区,八丁堀３丁目２２番３号,,13,102,1040032,,,,,,,2022-01-26,1,,,,,アジャンスエスケイ,0
20,1010003036832,新規,0,2022-01-26,2022-01-26,合同会社蒲原聖可事務所,,合同会社,東京都,中央区,銀座１丁目２２番１－２１０７号,,13,102,1040061,,,,,,,2022-01-26,1,,,,,カモハラセイカジムショ,0
44,1010401165101,新規,0,2022-01-26,2022-01-26,株式会社Ｍｅｄｉｃａｌ　Ｗｅｌｌｎｅｓｓ　Ｐａｒｔｎｅｒｓ,,株式会社,東京都,港区,新橋１丁目８番４号丸忠ビル７Ｆ－Ｂ,,13,103,1050004,,,,,,,2022-01-26,1,,,,,メディカルウェルネスパートナーズ,0
45,1010401165126,新規,0,2022-01-26,2022-01-26,株式会社Ｓｕｓｔｅｃｈエンジニアリングサービス,,株式会社,東京都,港区,芝３丁目１番１４号芝公園阪神ビル５階,,13,103,1050014,,,,,,,2022-01-26,1,,,,,サステックエンジニアリングサービス,0
46,1010401165134,新規,0,2022-01-26,2022-01-26,株式会社フォールデイル,,株式会社,東京都,港区,赤坂３丁目１番１６号ＢＩビル７Ｆ,,13,103,1070052,,,,,,,2022-01-26,1,,,,,フォールデイル,0
86,1010803004039,新規,0,2022-01-26,2022-01-26,合同会社ハピネス,,合同会社,東京都,大田区,南馬込２丁目２２番３号,,13,111,1430025,,,,,,,2022-01-26,1,,,,,ハピネス,0
97,1011001145336,新規,0,2022-01-26,2022-01-26,株式会社ルボア,,株式会社,東京都,渋谷区,恵比寿４丁目２０番４号,,13,113,1500013,,,,,,,2022-01-26,1,,,,,ルボア,0
99,1011003014010,新規,0,2022-01-26,2022-01-26,合同会社ドラゴン・パブリッシング,,合同会社,東京都,目黒区,上目黒５丁目１番１４号,,13,110,1530051,,,,,,,2022-01-26,1,,,,,ドラゴンパブリッシング,0
104,1011101097618,新規,0,2022-01-26,2022-01-26,株式会社ＡＷＡＫＥ,,株式会社,東京都,新宿区,箪笥町１８番地３コスモシティ市ヶ谷３０６,,13,104,1620833,,,,,,,2022-01-26,1,,,,,アウェイク,0
105,1011101097626,新規,0,2022-01-26,2022-01-26,三井ハウジング株式会社,,株式会社,東京都,新宿区,大久保２丁目１７番２号,,13,104,1690072,,,,,,,2022-01-26,1,,,,,ミツイハウジング,0
106,1011103011403,新規,0,2022-01-26,2022-01-26,合同会社ノームコア,,合同会社,東京都,新宿区,四谷坂町１２番１４－７０１号,,13,104,1600002,,,,,,,2022-01-26,1,,,,,ノームコア,0
110,1011601025697,新規,0,2022-01-26,2022-01-26,ＳｐａｃｅＲａｂｂｉｔ株式会社,,株式会社,東京都,練馬区,光が丘３丁目９－１－１８０２,,13,120,1790072,,,,,,,2022-01-26,1,,,,,スペースラビット,0
116,1012301012861,新規,0,2022-01-26,2022-01-26,株式会社ベッラ,,株式会社,東京都,町田市,原町田６丁目１０番１５号新光町田ビル４Ｆ,,13,209,1940013,,,,,,,2022-01-26,1,,,,,ベッラ,0
126,1013305003302,新規,0,2022-01-26,2022-01-26,一般社団法人ロボットプログラミング協会,,その他の設立登記法人,東京都,豊島区,南池袋２丁目４５番２－４７０９号,,13,116,1710022,,,,,,,2022-01-26,1,,,,,ロボットプログラミングキョウカイ,0
130,1020001144974,新規,0,2022-01-26,2022-01-26,ＳＰＥＣ株式会社,,株式会社,神奈川県,横浜市保土ケ谷区,川島町１４６２－８,,14,106,2400045,,,,,,,2022-01-26,1,,,,,スペック,0
137,1021001075045,新規,0,2022-01-26,2022-01-26,株式会社湘南リペア,,株式会社,神奈川県,厚木市,及川２丁目１９番５６号,,14,212,2430212,,,,,,,2022-01-26,1,,,,,ショウナンリペア,0
140,1021003011329,新規,0,2022-01-26,2022-01-26,合同会社Ｌ．Ｇ．Ｏ,,合同会社,神奈川県,大和市,上和田３４７２番地１シャンベールＢ２０２,,14,213,2420014,,,,,,,2022-01-26,1,,,,,エルジーオー,0
150,1040001121914,新規,0,2022-01-26,2022-01-26,アイムワイ株式会社,,株式会社,千葉県,千葉市稲毛区,小深町１２５番地１０,,12,103,2630003,,,,,,,2022-01-26,1,,,,,アイムワイ,0
151,1040001121922,新規,0,2022-01-26,2022-01-26,ＢＡＳＩＣ株式会社,,株式会社,千葉県,千葉市美浜区,ひび野２丁目１０番地３,,12,106,2610021,,,,,,,2022-01-26,1,,,,,ベーシック,0
152,1040001121939,新規,0,2022-01-26,2022-01-26,株式会社陽の木ホーム,,株式会社,千葉県,佐倉市,大蛇町１４４番地２６,,12,212,2850043,,,,,,,2022-01-26,1,,,,,ヒノキホーム,0
155,1040003019363,新規,0,2022-01-26,2022-01-26,ＡＴＧ合同会社,,合同会社,千葉県,柏市,柏３丁目８－５ＭＨＢＬＤＧ３Ｆ,,12,217,2770005,,,,,,,2022-01-26,1,,,,,エーティージー,0
159,1050003006328,新規,0,2022-01-26,2022-01-26,ＭＩＹＡＢＩ合同会社,,合同会社,茨城県,小美玉市,栗又四ケ２５３０－６９,,08,236,3113434,,,,,,,2022-01-26,1,,,,,ミヤビ,0
162,1070003004362,新規,0,2022-01-26,2022-01-26,合同会社ソラノコドウ,,合同会社,群馬県,高崎市,下之城町８８３番地１,,10,202,3700854,,,,,,,2022-01-26,1,,,,,ソラノコドウ,0
172,1100003006371,新規,0,2022-01-26,2022-01-26,合同会社みやび,,合同会社,長野県,小諸市,大字御影新田１９４７番地２,,20,208,3840808,,,,,,,2022-01-26,1,,,,,ミヤビ,0
206,1120105009510,新規,0,2022-01-26,2022-01-26,一般社団法人巡縁クリエーションズ,,その他の設立登記法人,大阪府,堺市西区,上野芝向ヶ丘町４丁２２番２０号,,27,144,5938303,,,,,,,2022-01-26,1,,,,,ジュンエンクリエーションズ,0
208,1120901045502,新規,0,2022-01-26,2022-01-26,株式会社サカイパンダロジ,,株式会社,大阪府,高槻市,大塚町５丁目１９番１号,,27,207,5690034,,,,,,,2022-01-26,1,,,,,サカイパンダロジ,0
209,1120901045510,新規,0,2022-01-26,2022-01-26,株式会社ＢＭＢＧ,,株式会社,大阪府,高槻市,北園町１３番３号・４０３号,,27,207,5690802,,,,,,,2022-01-26,1,,,,,ビーエムビージー,0
210,1120905006269,新規,0,2022-01-26,2022-01-26,一般社団法人ハンズオブキャッツ,,その他の設立登記法人,大阪府,箕面市,稲６丁目１０番８－１０７号,,27,220,5620015,,,,,,,2022-01-26,1,,,,,ハンズオブキャッツ,0
212,1122001035532,新規,0,2022-01-26,2022-01-26,株式会社ＭＯＮ　ＢＩＪＯＵ,,株式会社,大阪府,大東市,明美の里町１４番１２号ロータス四条畷３０４号,,27,218,5740003,,,,,,,2022-01-26,1,,,,,モンビジュー,0
213,1122003002258,新規,0,2022-01-26,2022-01-26,合同会社Ｄｒｅａｍ,,合同会社,大阪府,八尾市,志紀町２丁目１６１番地,,27,212,5810031,,,,,,,2022-01-26,1,,,,,ドリーム,0
224,1140001124659,新規,0,2022-01-26,2022-01-26,株式会社Ｊａｙ　Ｒｅａｌ　Ｅｓｔａｔｅ,,株式会社,兵庫県,西宮市,浜甲子園４丁目１番２４－１７１４号,,28,204,6638154,,,,,,,2022-01-26,1,,,,,ジェイリアルエステート,0
225,1140001124700,新規,0,2022-01-26,2022-01-26,株式会社Ｓｉｎｃｅｒｉｔｙ　ｌｉｆｅ　ｓｙｓｔｅｍ,,株式会社,兵庫県,神戸市中央区,磯辺通４丁目１番８号Ｉ・Ｔ・Ｃビルディング３０８号,,28,110,6510084,,,,,,,2022-01-26,1,,,,,シンシアリティーライフシステム,0
229,1140005026001,新規,0,2022-01-26,2022-01-26,一般社団法人日本臨床泌尿器科医会,,その他の設立登記法人,兵庫県,西宮市,甲風園１丁目１０番１１号中村ビル３階秋山泌尿器科内,,28,204,6620832,,,,,,,2022-01-26,1,,,,,ニホンリンショウヒニョウキカイカイ,0
237,1180001149702,新規,0,2022-01-26,2022-01-26,オールインホールディングス株式会社,,株式会社,愛知県,名古屋市守山区,大字上志段味字稲堀田新田１８３８番地,,23,113,4630001,,,,,,,2022-01-26,1,,,,,オールインホールディングス,0
238,1180001149710,新規,0,2022-01-26,2022-01-26,株式会社Ｋ’ｓ　Ｉｎｎｏｖａｔｉｏｎ,,株式会社,愛知県,名古屋市守山区,本地が丘１７０２番地,,23,113,4630031,,,,,,,2022-01-26,1,,,,,ケーズイノベーション,0
240,1180003023426,新規,0,2022-01-26,2022-01-26,合同会社ＳＫグループ,,合同会社,愛知県,名古屋市名東区,社が丘１丁目４０７番地３階Ｃ号室,,23,115,4650051,,,,,,,2022-01-26,1,,,,,エスケイグループ,0
242,1180301035874,新規,0,2022-01-26,2022-01-26,山十株式会社,,株式会社,愛知県,みよし市,三好町上１７５番地,,23,236,4700224,,,,,,,2022-01-26,1,,,,,ヤマジュウ,0
254,1240001059242,新規,0,2022-01-26,2022-01-26,バイオガイアアグリサイエンス株式会社,,株式会社,広島県,山県郡安芸太田町,大字下筒賀４８３番地,,34,368,7313621,,,,,,,2022-01-26,1,,,,,バイオガイアアグリサイエンス,0
256,1240003005475,新規,0,2022-01-26,2022-01-26,合同会社Ｆｕｅｍｏｎ,,合同会社,広島県,広島市西区,草津新町２丁目１８番１２号,,34,104,7330834,,,,,,,2022-01-26,1,,,,,フエモン,0
267,1310001017688,新規,0,2022-01-26,2022-01-26,株式会社トータルコーティング長崎,,株式会社,長崎県,長崎市,花園町１５番１９号,,42,201,8528024,,,,,,,2022-01-26,1,,,,,トータルコーティングナガサキ,0
288,1380001032524,新規,0,2022-01-26,2022-01-26,オーセント株式会社,,株式会社,福島県,白河市,みさか１丁目２６番地３,,07,205,9610836,,,,,,,2022-01-26,1,,,,,オーセント,0
301,1430003013566,新規,0,2022-01-26,2022-01-26,合同会社ミオルーメ,,合同会社,北海道,札幌市東区,北三十条東５丁目１番１９－４０３号,,01,103,0650030,,,,,,,2022-01-26,1,,,,,ミオルーメ,0
309,1700150106814,新規,0,2022-01-26,2022-01-26,Ｋ．Ｍ．Ｇ　ＭＯＴＯＲＳ,,外国会社等,千葉県,山武郡九十九里町,片貝１７６１番地４シェアオフィスＥ,,12,403,2830104,スリランカ民主社会主義共和国、アクラナ、パレウェリケティヤ、８４－４Ａ,,,,,,2022-01-26,1,,,,,ケイエムジーモータース,0
321,2010001224058,新規,0,2022-01-26,2022-01-26,株式会社ネオジール,,株式会社,東京都,千代田区,外神田１丁目５番７号宝ビル２階,,13,101,1010021,,,,,,,2022-01-26,1,,,,,ネオジール,0
322,2010001224099,新規,0,2022-01-26,2022-01-26,アパレイト株式会社,,株式会社,東京都,千代田区,神田松永町１３番地ＶＯＲＴ秋葉原ＩＩ,00125530,13,101,1010023,,,,,,,2022-01-26,1,,,,,アパレイト,0
323,2010003036831,新規,0,2022-01-26,2022-01-26,ナギサ・シップ・ホールディング合同会社,,合同会社,東京都,中央区,京橋２丁目２番１号,,13,102,1040031,,,,,,,2022-01-26,1,,,,,ナギサシップホールディング,0
326,2010005034511,新規,0,2022-01-26,2022-01-26,一般社団法人赤羽志茂プロパティー,,その他の設立登記法人,東京都,千代田区,丸の内３丁目１番１号東京共同会計事務所内,,13,101,1000005,,,,,,,2022-01-26,1,,,,,アカバネシモプロパティー,0
362,2010601060563,新規,0,2022-01-26,2022-01-26,株式会社ＴＮＡ,,株式会社,東京都,墨田区,緑１丁目２８番１１－６０１号,,13,107,1300021,,,,,,,2022-01-26,1,,,,,ティーエヌエー,0
368,2010701042123,新規,0,2022-01-26,2022-01-26,株式会社アイケイコーポレーション,,株式会社,東京都,品川区,上大崎３丁目１番３０－１２１０号,,13,109,1410021,,,,,,,2022-01-26,1,,,,,アイケイコーポレーション,0
399,2011101097625,新規,0,2022-01-26,2022-01-26,株式会社Ｂ－Ｄｅｓｉｇｎ,,株式会社,東京都,新宿区,新宿１丁目３２番４号エヌエスビル６階,,13,104,1600022,,,,,,,2022-01-26,1,,,,,ビーデザイン,0
400,2011301027514,新規,0,2022-01-26,2022-01-26,株式会社Ａｎｖｅｒｙ,,株式会社,東京都,杉並区,松庵１丁目２２－２３,,13,115,1670054,,,,,,,2022-01-26,1,,,,,アンベリー,0
401,2011401023982,新規,0,2022-01-26,2022-01-26,株式会社ｂｅｅ,,株式会社,東京都,板橋区,東新町１丁目５１番１０－２１３号,,13,119,1740074,,,,,,,2022-01-26,1,,,,,ビー,0
407,2011801040248,新規,0,2022-01-26,2022-01-26,君美国際株式会社,,株式会社,東京都,足立区,江北１丁目１５－４－５０７,,13,121,1230872,,,,,,,2022-01-26,1,,,,,クンミコクサイ,0
408,2011803004944,新規,0,2022-01-26,2022-01-26,ｒｅａｌｉｚｅ合同会社,,合同会社,東京都,足立区,梅田５丁目１番地１８号,,13,121,1230851,,,,,,,2022-01-26,1,,,,,リアライズ,0
409,2012301012860,新規,0,2022-01-26,2022-01-26,日正株式会社,,株式会社,東京都,町田市,木曽西３丁目２１番地５,,13,209,1940037,,,,,,,2022-01-26,1,,,,,ニッセイ,0
410,2012405004688,新規,0,2022-01-26,2022-01-26,一般社団法人Ａｎｉｍａｌ　Ｂｒｉｄｇｅ,,その他の設立登記法人,東京都,三鷹市,中原４丁目１２番６号やすらぎハウス新川中原Ｒ,,13,204,1810005,,,,,,,2022-01-26,1,,,,,アニマルブリッジ,0
422,2020001144908,新規,0,2022-01-26,2022-01-26,株式会社クラフトリンク,,株式会社,神奈川県,横浜市都筑区,折本町２１７１番地６,,14,118,2240043,,,,,,,2022-01-26,1,,,,,クラフトリンク,0
423,2020001144949,新規,0,2022-01-26,2022-01-26,株式会社想い,,株式会社,神奈川県,横浜市戸塚区,影取町１７５番地２Ｆ,,14,110,2450064,,,,,,,2022-01-26,1,,,,,オモイ,0
425,2020003021196,新規,0,2022-01-26,2022-01-26,合同会社ニューゲート,,合同会社,神奈川県,横浜市港北区,下田町３丁目５番１号日吉ハイツ２０３,,14,109,2230064,,,,,,,2022-01-26,1,,,,,ニューゲート,0
430,2021001075044,新規,0,2022-01-26,2022-01-26,株式会社ゴールドプラスト,,株式会社,神奈川県,相模原市南区,若松３丁目３８番２号,,14,153,2520334,,,,,,,2022-01-26,1,,,,,ゴールドプラスト,0
432,2021005012431,新規,0,2022-01-26,2022-01-26,一般社団法人Ｍｉｒａｉｅ,,その他の設立登記法人,神奈川県,横須賀市,根岸町５丁目７番２８号,,14,201,2390807,,,,,,,2022-01-26,1,,,,,ミライエ,0
437,2030001146449,新規,0,2022-01-26,2022-01-26,株式会社大竹,,株式会社,埼玉県,桶川市,大字加納１２２番地の６９,,11,231,3630001,,,,,,,2022-01-26,1,,,,,オオタケ,0
443,2040001121921,新規,0,2022-01-26,2022-01-26,徳光ライフサポート株式会社,,株式会社,千葉県,浦安市,猫実４丁目６番２６－２０１号,,12,227,2790004,,,,,,,2022-01-26,1,,,,,トクミツライフサポート,0
444,2040001121938,新規,0,2022-01-26,2022-01-26,株式会社フロレゾンエステート,,株式会社,千葉県,船橋市,東中山１丁目９番８号,,12,204,2730036,,,,,,,2022-01-26,1,,,,,フロレゾンエステート,0
445,2040001121954,新規,0,2022-01-26,2022-01-26,株式会社ソレイユ,,株式会社,千葉県,市川市,塩焼１丁目９番１０－１０８号,,12,203,2720114,,,,,,,2022-01-26,1,,,,,ソレイユ,0
446,2040001121962,新規,0,2022-01-26,2022-01-26,株式会社ＢＯＮＵＳ,,株式会社,千葉県,船橋市,飯山満町１丁目１００－１０,,12,204,2740822,,,,,,,2022-01-26,1,,,,,ボーナス,0
453,2060001034519,新規,0,2022-01-26,2022-01-26,くにや商事株式会社,,株式会社,栃木県,下都賀郡壬生町,至宝１丁目７番２９号,,09,361,3210217,,,,,,,2022-01-26,1,,,,,クニヤショウジ,0
496,2120001243170,新規,0,2022-01-26,2022-01-26,株式会社ヤシロ,,株式会社,大阪府,寝屋川市,太間町１２番１７号,,27,215,5720078,,,,,,,2022-01-26,1,,,,,ヤシロ,0
497,2120001243427,新規,0,2022-01-26,2022-01-26,株式会社ＭＫ,,株式会社,大阪府,大阪市港区,福崎２丁目９番１３号,,27,107,5520013,,,,,,,2022-01-26,1,,,,,エムケー,0
521,2140003017158,新規,0,2022-01-26,2022-01-26,Ｓマルイ合同会社,,合同会社,兵庫県,明石市,大久保町大窪１１２０番地７,,28,203,6740051,,,,,,,2022-01-26,1,,,,,エスマルイ,0
522,2140003017265,新規,0,2022-01-26,2022-01-26,ＴＳＧプロジェクト合同会社,,合同会社,兵庫県,神戸市兵庫区,浜中町２丁目１６番１号,,28,105,6520875,,,,,,,2022-01-26,1,,,,,ティーエスジープロジェクト,0
523,2140005026009,新規,0,2022-01-26,2022-01-26,特定非営利活動法人フライパン,,その他の設立登記法人,兵庫県,芦屋市,東芦屋町１７番２６－７０３号,00125528,28,206,6590095,,,,,,,2022-01-26,1,,,,,フライパン,0
524,2160001023957,新規,0,2022-01-26,2022-01-26,株式会社バリフドウー,,株式会社,滋賀県,大津市,坂本７丁目３２番３０号,,25,201,5200113,,,,,,,2022-01-26,1,,,,,,0
557,2240001059225,新規,0,2022-01-26,2022-01-26,株式会社ＳＨＩＮＧＡＲＩ,,株式会社,広島県,広島市中区,十日市町２丁目２番３４号,,34,101,7300805,,,,,,,2022-01-26,1,,,,,シンガリ,0
563,2260001036461,新規,0,2022-01-26,2022-01-26,株式会社結,,株式会社,岡山県,岡山市北区,中山下２丁目３番５８号朝日プラザ岡山中山下７０５号,,33,101,7000821,,,,,,,2022-01-26,1,,,,,ユイ,0
572,2290001096222,新規,0,2022-01-26,2022-01-26,リンクス株式会社,,株式会社,福岡県,飯塚市,内野９８８番地,,40,205,8200706,,,,,,,2022-01-26,1,,,,,リンクス,0
578,2290801028201,新規,0,2022-01-26,2022-01-26,株式会社快癒整骨院,,株式会社,福岡県,北九州市小倉北区,宇佐町１丁目３番４７号,,40,106,8020016,,,,,,,2022-01-26,1,,,,,カイユセイコツイン,0
585,2320001018858,新規,0,2022-01-26,2022-01-26,川部畜産サービス株式会社,,株式会社,大分県,玖珠郡玖珠町,大字岩室９６７番地,,44,462,8794405,,,,,,,2022-01-26,1,,,,,カワベチクサンサービス,0
586,2330003009219,新規,0,2022-01-26,2022-01-26,合同会社シュペール,,合同会社,熊本県,熊本市中央区,渡鹿７丁目８番５２号,,43,101,8620970,,,,,,,2022-01-26,1,,,,,シュペール,0
604,2370001048124,新規,0,2022-01-26,2022-01-26,株式会社海の子,,株式会社,宮城県,気仙沼市,川畑１０番地１川畑ハイツ２０１号,,04,205,9880041,,,,,,,2022-01-26,1,,,,,ウミノコ,0
614,2430001085870,新規,0,2022-01-26,2022-01-26,株式会社ランディ,,株式会社,北海道,札幌市中央区,北一条西１８丁目１番地,,01,101,0600001,,,,,,,2022-01-26,1,,,,,ランディ,0
631,2700150106813,新規,0,2022-01-26,2022-01-26,ＳＡＩＴＡＭＡ　ＴＲＡＤＩＮＧ,,外国会社等,千葉県,山武郡九十九里町,片貝１７６１番地４シェアオフィスＦ,,12,403,2830104,スリランカ民主社会主義共和国、コロンボ１１、５ｔｈクロスストリート、４５,,,,,,2022-01-26,1,,,,,サイタマトレーデイング,0
640,3010001224057,新規,0,2022-01-26,2022-01-26,株式会社ＹＣＸ,,株式会社,東京都,中央区,新川１丁目１４番５号金盃第３ビル８階,,13,102,1040033,,,,,,,2022-01-26,1,,,,,ワイシーエックス,0
641,3010003036806,新規,0,2022-01-26,2022-01-26,合同会社関沢企画,,合同会社,東京都,中央区,日本橋小網町１１－５ＡＣＮ日本橋小網町ビル７階０７号,,13,102,1030016,,,,,,,2022-01-26,1,,,,,セキザワキカク,0
642,3010003036855,新規,0,2022-01-26,2022-01-26,サステナブルローンファンド６号合同会社,,合同会社,東京都,中央区,八丁堀４丁目２番１０号ＡＯＪ税理士法人内,,13,102,1040032,,,,,,,2022-01-26,1,,,,,サステナブルローンファンドロクゴウ,0
643,3010005034469,新規,0,2022-01-26,2022-01-26,一般社団法人淹茶計画,,その他の設立登記法人,東京都,中央区,日本橋浜町２丁目１１番２－８０３号,,13,102,1030007,,,,,,,2022-01-26,1,,,,,エンチャケイカク,0
670,3010401165124,新規,0,2022-01-26,2022-01-26,株式会社フライトプラン,,株式会社,東京都,港区,北青山３丁目６番７号青山パラシオタワー１１階,,13,103,1070061,,,,,,,2022-01-26,1,,,,,フライトプラン,0
681,3010403026910,新規,0,2022-01-26,2022-01-26,Ｆｌｙｉｎｇ　Ｐｅｎｇｕｉｎ合同会社,,合同会社,東京都,港区,芝浦３丁目７番８－６０４号,,13,103,1080023,,,,,,,2022-01-26,1,,,,,フライングペンギン,0
682,3010403026927,新規,0,2022-01-26,2022-01-26,合同会社ジェントルリアルティ,,合同会社,東京都,港区,赤坂４丁目８番１９号赤坂フロントタウン３階,,13,103,1070052,,,,,,,2022-01-26,1,,,,,ジェントルリアルティ,0
703,3010703006083,新規,0,2022-01-26,2022-01-26,Ｒｅｆｒａｍｅ合同会社,,合同会社,東京都,品川区,小山台２丁目２番２４－６０５号,,13,109,1420061,,,,,,,2022-01-26,1,,,,,リフレーム,0
706,3010801032667,新規,0,2022-01-26,2022-01-26,株式会社ＭＥＡマネジメント,,株式会社,東京都,大田区,池上８丁目１９番１号,,13,111,1460082,,,,,,,2022-01-26,1,,,,,エムイーエーマネジメント,0
707,3010801032683,新規,0,2022-01-26,2022-01-26,株式会社ｉｅｎｅｋｏ,,株式会社,東京都,大田区,西蒲田５丁目１４番６号アメジスト西蒲田２０３,,13,111,1440051,,,,,,,2022-01-26,1,,,,,イエネコ,0
720,3010903007105,新規,0,2022-01-26,2022-01-26,Ｂｌｕｅ　Ｊａｄｅ合同会社,,合同会社,東京都,世田谷区,喜多見５丁目１４－２５－３０６,,13,112,1570067,,,,,,,2022-01-26,1,,,,,ブルージェイド,0
725,3011001145318,新規,0,2022-01-26,2022-01-26,株式会社ＲＡＬ,,株式会社,東京都,渋谷区,猿楽町７番１号ＫＤＸ代官山レジデンス３１３,,13,113,1500033,,,,,,,2022-01-26,1,,,,,アールエーエル,0
726,3011001145326,新規,0,2022-01-26,2022-01-26,株式会社トライライト,,株式会社,東京都,目黒区,五本木３丁目２９番８号,,13,110,1530053,,,,,,,2022-01-26,1,,,,,トライライト,0
734,3011003014025,新規,0,2022-01-26,2022-01-26,ケイ・キャピタル・マネジメント合同会社,,合同会社,東京都,渋谷区,西原１丁目３１番１３号,,13,113,1510066,,,,,,,2022-01-26,1,,,,,ケイキャピタルマネジメント,0
735,3011003014033,新規,0,2022-01-26,2022-01-26,合同会社かぶエンタープライゼス,,合同会社,東京都,渋谷区,鉢山町３番１１号ｔｒｉａｓ３１１－２０３,,13,113,1500035,,,,,,,2022-01-26,1,,,,,カブエンタープライゼス,0
736,3011003014066,新規,0,2022-01-26,2022-01-26,後藤商事合同会社,,合同会社,東京都,渋谷区,渋谷３丁目２番１１号,,13,113,1500002,,,,,,,2022-01-26,1,,,,,ゴトウショウジ,0
742,3011105010104,新規,0,2022-01-26,2022-01-26,一般社団法人在日本韓国化粧品協会,,その他の設立登記法人,東京都,新宿区,大久保２丁目１番地８新大樹ビル３Ｆ,,13,104,1690072,,,,,,,2022-01-26,1,,,,,ザイニッポンカンコクケショウヒンキョウカイ,0
743,3011201023587,新規,0,2022-01-26,2022-01-26,株式会社ＭｏｎｏＶｅｒｓｅ,,株式会社,東京都,中野区,弥生町３丁目２９－８ラメールＫ・Ｓ２０４,,13,114,1640013,,,,,,,2022-01-26,1,,,,,モノバース,0
750,3011803004943,新規,0,2022-01-26,2022-01-26,合同会社ＡＩ商事,,合同会社,東京都,葛飾区,柴又６丁目４番１号,,13,122,1250052,,,,,,,2022-01-26,1,,,,,エーアイショウジ,0
752,3012403005209,新規,0,2022-01-26,2022-01-26,ＵｎｄｅｒＳｔｅａｍ合同会社,,合同会社,東京都,三鷹市,北野１丁目１番７１号,,13,204,1810003,,,,,,,2022-01-26,1,,,,,アンダースチーム,0
765,3020001144948,新規,0,2022-01-26,2022-01-26,株式会社望星,,株式会社,神奈川県,川崎市川崎区,小田６丁目１１番２４号,,14,131,2100846,,,,,,,2022-01-26,1,,,,,ボウセイ,0
766,3020001144956,新規,0,2022-01-26,2022-01-26,株式会社成建土木,,株式会社,神奈川県,川崎市宮前区,土橋２丁目６番地５,,14,136,2160005,,,,,,,2022-01-26,1,,,,,セイケンドボク,0
773,3021001075035,新規,0,2022-01-26,2022-01-26,株式会社ＫＫＫ　Ｃｏｒｐｏｒａｔｉｏｎ,,株式会社,神奈川県,藤沢市,片瀬４丁目１６番１７－１０５号,,14,205,2510032,,,,,,,2022-01-26,1,,,,,ケーケーケーコーポレーション,0
787,3030003018728,新規,0,2022-01-26,2022-01-26,ＦＩＸＥＲ合同会社,,合同会社,埼玉県,さいたま市緑区,大字大崎２５３８,,11,109,3360974,,,,,,,2022-01-26,1,,,,,フィクサー,0
790,3040001121920,新規,0,2022-01-26,2022-01-26,鈴藤株式会社,,株式会社,千葉県,柏市,藤ケ谷新田９３番地１３,,12,217,2770932,,,,,,,2022-01-26,1,,,,,スズフジ,0
791,3040001121929,新規,0,2022-01-26,2022-01-26,株式会社山水商事,,株式会社,千葉県,千葉市若葉区,千城台南３丁目７番３号,,12,104,2640003,,,,,,,2022-01-26,1,,,,,サンスイショウジ,0
792,3040001121945,新規,0,2022-01-26,2022-01-26,株式会社アドバンスリンク,,株式会社,千葉県,佐倉市,上志津７５５番地１１,,12,212,2850846,,,,,,,2022-01-26,1,,,,,アドバンスリンク,0
793,3040001121953,新規,0,2022-01-26,2022-01-26,瑞順国際株式会社,,株式会社,千葉県,千葉市花見川区,宮野木台４丁目１０番１０号,,12,102,2620015,,,,,,,2022-01-26,1,,,,,ズイジュンコクサイ,0
794,3040001121961,新規,0,2022-01-26,2022-01-26,株式会社美琴商事,,株式会社,千葉県,柏市,塚崎１２８５番地２９,,12,217,2770923,,,,,,,2022-01-26,1,,,,,ミコトショウジ,0
839,3110005016754,新規,0,2022-01-26,2022-01-26,一般社団法人佐渡地域医療・介護・福祉提供体制協議会,,その他の設立登記法人,新潟県,佐渡市,千種１６１番地,,15,224,9521209,,,,,,,2022-01-26,1,,,,,サドチイキイリョウカイゴフクシテイキョウタイセイキョウギカイ,0
847,3120001243418,新規,0,2022-01-26,2022-01-26,株式会社花岡,,株式会社,大阪府,大阪市北区,中之島６丁目１番３８－１２１４号,,27,127,5300005,,,,,,,2022-01-26,1,,,,,ハナオカ,0
848,3120001243426,新規,0,2022-01-26,2022-01-26,ハッピースマイルコーポレーション株式会社,,株式会社,大阪府,大阪市東成区,深江南２丁目７番３号,,27,115,5370002,,,,,,,2022-01-26,1,,,,,ハッピースマイルコーポレーション,0
849,3120001243434,新規,0,2022-01-26,2022-01-26,ＷＥＬＴＲＡＤＥ株式会社,,株式会社,大阪府,大阪市福島区,吉野４丁目２４－８エステムプラザ福島ジェネル３１０,,27,103,5530006,,,,,,,2022-01-26,1,,,,,ウェルトレード,0
850,3120005022735,新規,0,2022-01-26,2022-01-26,医療法人村山会,,その他の設立登記法人,大阪府,大阪市住吉区,我孫子東２丁目７番３８号クリニックステーションあびこ４階,,27,120,5580013,,,,,,,2022-01-26,1,,,,,ムラヤマカイ,0
851,3120005022743,新規,0,2022-01-26,2022-01-26,医療法人健禮会,00125526,その他の設立登記法人,大阪府,大阪市東成区,大今里西３丁目６番３号,,27,115,5370014,,,,,,,2022-01-26,1,,,,,ケンレイカイ,0
856,3120101065002,新規,0,2022-01-26,2022-01-26,株式会社鍛治屋,,株式会社,大阪府,富田林市,大字佐備７６１－２,,27,214,5840052,,,,,,,2022-01-26,1,,,,,カジヤ,0
861,3120903004009,新規,0,2022-01-26,2022-01-26,日本ソーシャルディベロプメント合同会社,,合同会社,大阪府,高槻市,安満中の町８番６号,,27,207,5691105,,,,,,,2022-01-26,1,,,,,ニホンソーシャルディベロプメント,0
862,3120905006267,新規,0,2022-01-26,2022-01-26,医療法人みずかみ歯科・矯正歯科クリニック,,その他の設立登記法人,大阪府,箕面市,桜井２丁目２番１０号マストメゾン箕面桜井１階１０３号,,27,220,5620043,,,,,,,2022-01-26,1,,,,,ミズカミシカキョウセイシカクリニック,0
878,3140003017264,新規,0,2022-01-26,2022-01-26,合同会社ファンタジスタ,,合同会社,兵庫県,姫路市,香寺町土師８２６番地４,,28,201,6792163,,,,,,,2022-01-26,1,,,,,ファンタジスタ,0
898,3200001039683,新規,0,2022-01-26,2022-01-26,株式会社アイルビー,,株式会社,岐阜県,羽島郡岐南町,三宅９丁目１２３番地１,,21,302,5016002,,,,,,,2022-01-26,1,,,,,アイルビー,0
903,3210001018793,新規,0,2022-01-26,2022-01-26,株式会社ミニライフ,,株式会社,福井県,福井市,石盛３丁目１４０５番地,,18,201,9100125,,,,,,,2022-01-26,1,,,,,ミニライフ,0
918,3260001036460,新規,0,2022-01-26,2022-01-26,ＭＫテクノス株式会社,,株式会社,岡山県,井原市,東江原町２５３１番地,,33,207,7150003,,,,,,,2022-01-26,1,,,,,エムケイテクノス,0
920,3270001008442,新規,0,2022-01-26,2022-01-26,Ｔ＆Ｂ株式会社,,株式会社,鳥取県,米子市,両三柳５０７３番地３（２０１号）,,31,202,6830853,,,,,,,2022-01-26,1,,,,,ティーアンドビー,0
923,3280005007464,新規,0,2022-01-26,2022-01-26,一般社団法人いいなしファーム,,その他の設立登記法人,島根県,安来市,飯梨町９１７番地,,32,206,6920066,,,,,,,2022-01-26,1,,,,,イイナシファーム,0
927,3290001096238,新規,0,2022-01-26,2022-01-26,株式会社Ｐｏｎｏ．Ｃｏ,,株式会社,福岡県,福岡市南区,井尻２丁目４９番３９－３０２号ラポールメゾン,,40,134,8111302,,,,,,,2022-01-26,1,,,,,ポノカンパニー,0
928,3290001096246,新規,0,2022-01-26,2022-01-26,株式会社Ｔｉａｒａ,,株式会社,福岡県,福岡市博多区,中洲２丁目１番１８号しんばし別館６Ｆ,,40,132,8100801,,,,,,,2022-01-26,1,,,,,ティアラ,0
930,3290003012069,新規,0,2022-01-26,2022-01-26,クラストホーム合同会社,,合同会社,福岡県,福岡市中央区,大宮１丁目６番３－４０３号,,40,133,8100013,,,,,,,2022-01-26,1,,,,,クラストホーム,0
931,3290003012077,新規,0,2022-01-26,2022-01-26,合同会社モーリコーポレーション,,合同会社,福岡県,福岡市南区,寺塚１丁目４番３号大池シャインハイツ７０１号,,40,134,8150074,,,,,,,2022-01-26,1,,,,,モーリコーポレーション,0
935,3290803004042,新規,0,2022-01-26,2022-01-26,合同会社ひろみ苑ハウス,,合同会社,福岡県,北九州市小倉北区,黒原３丁目１６番２２－１０１号,,40,106,8020051,,,,,,,2022-01-26,1,,,,,ヒロミエンハウス,0
941,3340001024449,新規,0,2022-01-26,2022-01-26,ヤマテックＪＡＰＡＮ株式会社,,株式会社,鹿児島県,奄美市,笠利町大字節田１６９１－２,,46,222,8940504,,,,,,,2022-01-26,1,,,,,ヤマテックジャパン,0
954,3370001048123,新規,0,2022-01-26,2022-01-26,株式会社ＥＣＵＰ　ＪＡＰＡＮ,,株式会社,宮城県,岩沼市,南長谷字原２２４番地の３,,04,211,9892454,,,,,,,2022-01-26,1,,,,,イーシーユーピージャパン,0
966,3430001085878,新規,0,2022-01-26,2022-01-26,株式会社つくるす,,株式会社,北海道,札幌市東区,北二十七条東１丁目４番１０号フォーレスト２７－２０１号,,01,103,0650027,,,,,,,2022-01-26,1,,,,,ツクルス,0
974,3470001018941,新規,0,2022-01-26,2022-01-26,株式会社ＳＯＲＡ,,株式会社,香川県,高松市,多賀町１丁目１番５号,,37,201,7600063,,,,,,,2022-01-26,1,,,,,ソラ,0
977,3480001011631,新規,0,2022-01-26,2022-01-26,ストラージ株式会社,,株式会社,徳島県,徳島市,丈六町西高木６４番地１,,36,201,7714261,,,,,,,2022-01-26,1,,,,,ストラージ,0
980,3480005006875,新規,0,2022-01-26,2022-01-26,ひとえ協同組合,,その他の設立登記法人,徳島県,小松島市,坂野町字鸛ノ巣１２番地１,,36,203,7730023,,,,,,,2022-01-26,1,,,,,ヒトエ,0
988,4010001224056,新規,0,2022-01-26,2022-01-26,株式会社プライベートポート,,株式会社,東京都,中央区,日本橋室町３丁目２番１号,,13,102,1030022,,,,,,,2022-01-26,1,,,,,プライベートポート,0
991,4010003036854,新規,0,2022-01-26,2022-01-26,Ｆｏｒｅｓｔ合同会社,,合同会社,東京都,中央区,銀座１丁目６番１１号土志田ビルディング３Ｆ,,13,102,1040061,,,,,,,2022-01-26,1,,,,,フォレスト,0
992,4010005034484,新規,0,2022-01-26,2022-01-26,一般社団法人ＡＬＬ　ＦＩＴＮＥＳＳ　ＪＡＰＡＮ,,その他の設立登記法人,東京都,中央区,勝どき５丁目１１番１５－７０８号,,13,102,1040054,,,,,,,2022-01-26,1,,,,,オールフィットネスジャパン,0
999,4010105002143,新規,0,2022-01-26,2022-01-26,釈迦牟尼国際佛教センター,,その他の設立登記法人,東京都,八王子市,山田町１６９３番地の２,,13,201,1930933,,,,,,,2022-01-26,1,,,,,シャカムニコクサイブッキョウセンター,0
1025,4010401165131,新規,0,2022-01-26,2022-01-26,エナジーコア株式会社,,株式会社,東京都,港区,芝浦３丁目１１番８号,,13,103,1080023,,,,,,,2022-01-26,1,,,,,エナジーコア,0
1026,4010401165156,新規,0,2022-01-26,2022-01-26,アンティース株式会社,,株式会社,東京都,港区,南青山２丁目２番１５号,,13,103,1070062,,,,,,,2022-01-26,1,,,,,アンティース,0
1033,4010403026868,新規,0,2022-01-26,2022-01-26,合同会社ユンリード,,合同会社,東京都,港区,芝浦１丁目８番３号パレステュディオ芝浦ＴｏｋｙｏＢａｙ９０３号室,,13,103,1050023,,,,,,,2022-01-26,1,,,,,ユンリード,0
1034,4010403026934,新規,0,2022-01-26,2022-01-26,合同会社ｗｅｌｌｔｙ,,合同会社,東京都,港区,南青山２丁目２番１５号,,13,103,1070062,,,,,,,2022-01-26,1,,,,,ウェルティ,0
1067,4011001145317,新規,0,2022-01-26,2022-01-26,株式会社Ｂ．Ｇ．ＴＡＳＫ,,株式会社,東京都,渋谷区,恵比寿４丁目２０番３号恵比寿ガーデンプレイスタワー１８Ｆ,,13,113,1500013,,,,,,,2022-01-26,1,,,,,ビージータスク,0
1069,4011003014049,新規,0,2022-01-26,2022-01-26,合同会社ＥｕｐｈｏＰｉａ,,合同会社,東京都,渋谷区,神宮前６丁目２３－４桑野ビル２Ｆ,,13,113,1500001,,,,,,,2022-01-26,1,,,,,ユーフォピア,0
1070,4011003014065,新規,0,2022-01-26,2022-01-26,馬塲一徳会計事務所合同会社,,合同会社,東京都,渋谷区,東１丁目１３番１２号コートヒル青山２Ａ,,13,113,1500011,,,,,,,2022-01-26,1,,,,,ババカズノリカイケイジムショ,0
1076,4011101097623,新規,0,2022-01-26,2022-01-26,トソーマ株式会社,,株式会社,東京都,新宿区,西新宿３丁目３番１３号西新宿水間ビル６階,,13,104,1600023,,,,,,,2022-01-26,1,,,,,トソーマ,0
1077,4011101097631,新規,0,2022-01-26,2022-01-26,株式会社ティーグル,,株式会社,東京都,新宿区,西新宿６丁目１８番１－８１４号,,13,104,1600023,,,,,,,2022-01-26,1,,,,,ティーグル,0
1079,4011401023980,新規,0,2022-01-26,2022-01-26,Ｓｐｙｎｅｌ株式会社,,株式会社,東京都,板橋区,赤塚１丁目２３番地６号,,13,119,1750092,,,,,,,2022-01-26,1,,,,,スパイネル,0
1081,4011501027700,新規,0,2022-01-26,2022-01-26,吉耀株式会社,,株式会社,東京都,北区,上中里３丁目１０－７塩野ビル１０５,,13,117,1140016,,,,,,,2022-01-26,1,,,,,ジヨウ,0
1087,4012403005208,新規,0,2022-01-26,2022-01-26,レイロウ合同会社,,合同会社,東京都,武蔵野市,八幡町３丁目７－２３ＹＳハウズ３０１,,13,203,1800011,,,,,,,2022-01-26,1,,,,,レイロウ,0
1088,4012403005216,新規,0,2022-01-26,2022-01-26,合同会社スロープツリー,,合同会社,東京都,多摩市,鶴牧３丁目５番地の２ジオ多摩センター１２１１,,13,224,2060034,,,,,,,2022-01-26,1,,,,,スロープツリー,0
1089,4012703002391,新規,0,2022-01-26,2022-01-26,合同会社リコード,,合同会社,東京都,東村山市,本町３丁目９番４０号,,13,213,1890014,,,,,,,2022-01-26,1,,,,,リコード,0
1103,4020001144930,新規,0,2022-01-26,2022-01-26,株式会社ユウ・コーポレーション,,株式会社,神奈川県,横浜市保土ケ谷区,宮田町２丁目１５４番地４,,14,106,2400002,,,,,,,2022-01-26,1,,,,,ユウコーポレーション,0
1104,4020001144955,新規,0,2022-01-26,2022-01-26,ＳＲＫ　ＩＮＴＥＲＮＡＴＩＯＮＡＬ株式会社,,株式会社,神奈川県,横浜市西区,浅間町５丁目３８１番地１２,,14,103,2200072,,,,,,,2022-01-26,1,,,,,エスアールケイインターナショナル,0
1105,4020001144971,新規,0,2022-01-26,2022-01-26,株式会社ＮｅｗＤｉｒｅｃｔｉｏｎｓ,,株式会社,神奈川県,川崎市中原区,宮内１丁目２番３－３０２号ラ・メゾン等々力,,14,133,2110051,,,,,,,2022-01-26,1,,,,,ニューディレクションズ,0
1111,4021001075042,新規,0,2022-01-26,2022-01-26,株式会社エコマーケティングジャパン,,株式会社,神奈川県,相模原市南区,大野台４丁目３－２８,,14,153,2520331,,,,,,,2022-01-26,1,,,,,エコマーケティングジャパン,0
1112,4021001075050,新規,0,2022-01-26,2022-01-26,富士ダイヤモンド株式会社,,株式会社,神奈川県,藤沢市,片瀬１丁目２番３６,,14,205,2510032,,,,,,,2022-01-26,1,,,,,フジダイヤモンド,0
1133,4040001121878,新規,0,2022-01-26,2022-01-26,株式会社山口興業,,株式会社,千葉県,野田市,吉春８４５,,12,208,2780042,,,,,,,2022-01-26,1,,,,,ヤマグチコウギョウ,0
1134,4040001121944,新規,0,2022-01-26,2022-01-26,株式会社メディナ,,株式会社,千葉県,松戸市,栗ケ沢７９３番地の４２,,12,207,2700022,,,,,,,2022-01-26,1,,,,,メディナ,0
1137,4040003019360,新規,0,2022-01-26,2022-01-26,ＭＩＲＡＩ　ＴＲＡＤＩＮＧ合同会社,,合同会社,千葉県,山武市,埴谷２３６４番地３６－Ａ,,12,237,2891223,,,,,,,2022-01-26,1,,,,,ミライトレーディング,0
1139,4050003006333,新規,0,2022-01-26,2022-01-26,合同会社アサタロウ,,合同会社,茨城県,つくば市,千現１丁目１８－５パレスハピネス１０８号室,,08,220,3050047,,,,,,,2022-01-26,1,,,,,アサタロウ,0
1141,4080001024706,新規,0,2022-01-26,2022-01-26,株式会社ＹＳＫ,,株式会社,静岡県,藤枝市,高柳１４１３番地の４,,22,214,4260041,,,,,,,2022-01-26,1,,,,,ワイエスケー,0
1171,4120001243417,新規,0,2022-01-26,2022-01-26,株式会社１０Ｙ,,株式会社,大阪府,大阪市西区,江戸堀１丁目８番１５号ルート江戸堀ビル２Ｆ,,27,106,5500002,,,,,,,2022-01-26,1,,,,,テンワイ,0
1182,4120901045508,新規,0,2022-01-26,2022-01-26,ホシミ工業株式会社,,株式会社,大阪府,豊中市,利倉２丁目２１番２１号,,27,203,5610845,,,,,,,2022-01-26,1,,,,,ホシミコウギョウ,0
1190,4140005026007,新規,0,2022-01-26,2022-01-26,特定非営利活動法人ももちどり,,その他の設立登記法人,兵庫県,姫路市,上手野４２３番地８,,28,201,6700065,,,,,,,2022-01-26,1,,,,,モモチドリ,0
1191,4150001025283,新規,0,2022-01-26,2022-01-26,株式会社Ｃｕｏｒｅ,,株式会社,奈良県,橿原市,八木町３丁目２番２３,,29,205,6340078,,,,,,,2022-01-26,1,,,,,クオーレ,0
1233,4280005007463,新規,0,2022-01-26,2022-01-26,一般社団法人ホームタウンいいなし,,その他の設立登記法人,島根県,安来市,飯梨町２１１番,,32,206,6920066,,,,,,,2022-01-26,1,,,,,ホームタウンイイナシ,0
1246,4300001012786,新規,0,2022-01-26,2022-01-26,株式会社ハウスコーポレーション,,株式会社,佐賀県,唐津市,二タ子２丁目４番７１号,,41,202,8470861,,,,,,,2022-01-26,1,,,,,ハウスコーポレーション,0
1271,4370001048122,新規,0,2022-01-26,2022-01-26,株式会社ＳＥＭ,,株式会社,宮城県,仙台市泉区,八乙女中央２丁目５番７号,,04,105,9813135,,,,,,,2022-01-26,1,,,,,エスイーエム,0
1293,4430003013571,新規,0,2022-01-26,2022-01-26,北海道連勝国際貿易合同会社,,合同会社,北海道,札幌市北区,篠路町上篠路３７１番４１,,01,102,0028052,,,,,,,2022-01-26,1,,,,,ホッカイドウレンショウコクサイボウエキ,0
1297,4700150106811,新規,0,2022-01-26,2022-01-26,ＭＩＮＡ　ＥＮＴＥＲＰＲＩＳＥＳ,,外国会社等,千葉県,山武郡九十九里町,片貝１７６１番地４シェアオフィスＡ,,12,403,2830104,スリランカ民主社会主義共和国、アクラナ、パレウェリケティヤ、１２５－１Ｅ,,,,,,2022-01-26,1,,,,,ミナエンタープライセス,0
1305,5010001224055,新規,0,2022-01-26,2022-01-26,丸の内準備株式会社,,株式会社,東京都,千代田区,丸の内２丁目６番１号,,13,101,1000005,,,,,,,2022-01-26,1,,,,,マルノウチジュンビ,0
1306,5010001224063,新規,0,2022-01-26,2022-01-26,アセットマネジメントＯｎｅ　ＴＥＲＲＡＣＥ株式会社,,株式会社,東京都,千代田区,丸の内１丁目８番２号,,13,101,1000005,,,,,,,2022-01-26,1,,,,,アセットマネジメントワンテラス,0
1307,5010001224146,新規,0,2022-01-26,2022-01-26,Ｂｅｌｕｇａ株式会社,,株式会社,東京都,中央区,八丁堀３丁目１番１０号,,13,102,1040032,,,,,,,2022-01-26,1,,,,,ベルーガ,0
1310,5010003036787,新規,0,2022-01-26,2022-01-26,合同会社ｇｉｖｅ,,合同会社,東京都,中央区,銀座１丁目１２－４Ｎ＆Ｅ．ＢＬＤ．７階,,13,102,1040061,,,,,,,2022-01-26,1,,,,,ギブ,0
1315,5010005034459,新規,0,2022-01-26,2022-01-26,行政書士法人エール＆パートナーズ,,その他の設立登記法人,東京都,千代田区,神田平河町１番地第３東ビル６階,,13,101,1010027,,,,,,,2022-01-26,1,,,,,エールアンドパートナーズ,0
1316,5010005034509,新規,0,2022-01-26,2022-01-26,榊一般社団法人,,その他の設立登記法人,東京都,千代田区,霞が関３丁目２番５号,,13,101,1000013,,,,,,,2022-01-26,1,,,,,サカキ,0
1341,5010401165147,新規,0,2022-01-26,2022-01-26,Ｐｒ３ｖｉｓｉｏｎ　Ｔｅｃｈｎｏｌｏｇｉｅｓ株式会社,,株式会社,東京都,港区,南青山１丁目２０番２号乃木坂ビジネスコート１Ｆ,,13,103,1070062,,,,,,,2022-01-26,1,,,,,プレビジョンテクノロジーズ,0
1353,5010501048350,新規,0,2022-01-26,2022-01-26,久和株式会社,,株式会社,東京都,台東区,北上野２丁目２５番９号－２０６号室,,13,106,1100014,,,,,,,2022-01-26,1,,,,,キュウワ,0
1355,5010503006488,新規,0,2022-01-26,2022-01-26,Ｊｕｎｏｆｆｉｃｅ合同会社,,合同会社,東京都,台東区,台東１丁目３８番９号イトーピア清洲橋通ビル５Ｆ－９,,13,106,1100016,,,,,,,2022-01-26,1,,,,,ジュンオフィス,0
1357,5010603009358,新規,0,2022-01-26,2022-01-26,合同会社ＩＭＳ,,合同会社,東京都,江東区,亀戸１丁目１８番６号,,13,108,1360071,,,,,,,2022-01-26,1,,,,,アイエムエス,0
1393,5011001145118,新規,0,2022-01-26,2022-01-26,株式会社舶来葡萄酒商會,,株式会社,東京都,渋谷区,西原２丁目２６－３,,13,113,1510066,,,,,,,2022-01-26,1,,,,,ハクライブドウシュショウカイ,0
1394,5011001145142,新規,0,2022-01-26,2022-01-26,株式会社Ｒ,,株式会社,東京都,渋谷区,東３丁目１６－６恵比寿レジデンス壱番館９０３,,13,113,1500011,,,,,,,2022-01-26,1,,,,,アール,0
1395,5011001145241,新規,0,2022-01-26,2022-01-26,ＳＴＬＨ株式会社,,株式会社,東京都,渋谷区,代官山町８－７Ｄａｉｗａ代官山ビル,,13,113,1500034,,,,,,,2022-01-26,1,,,,,シツラヱ,0
1398,5011003013982,新規,0,2022-01-26,2022-01-26,Ｃｏｄｅｓｍｉｔｈ合同会社,,合同会社,東京都,渋谷区,渋谷２丁目１９番１５号宮益坂ビルディング６０９,,13,113,1500002,,,,,,,2022-01-26,1,,,,,コードスミス,0
1399,5011003014056,新規,0,2022-01-26,2022-01-26,Ｗｏｒｋ　Ｃｏｎｎｅｃｔ合同会社,,合同会社,東京都,渋谷区,代官山町１３番８号キャッスルマンション代官山３０８号室,,13,113,1500034,,,,,,,2022-01-26,1,,,,,ワークコネクト,0
1403,5011101097622,新規,0,2022-01-26,2022-01-26,フタミ建物株式会社,,株式会社,東京都,新宿区,新宿２丁目１６番１１号,,13,104,1600022,,,,,,,2022-01-26,1,,,,,フタミタテモノ,0
1405,5011103011408,新規,0,2022-01-26,2022-01-26,合同会社Ｌｅａｐ　Ａｇｅｎｃｙ,,合同会社,東京都,新宿区,岩戸町５番地１－１３０４号,,13,104,1620832,,,,,,,2022-01-26,1,,,,,リープエージェンシー,0
1406,5011105010110,新規,0,2022-01-26,2022-01-26,一般社団法人チャイルドロアクリエイト,,その他の設立登記法人,東京都,新宿区,西新宿７丁目２番６号西新宿Ｋ－１ビル３階,,13,104,1600023,,,,,,,2022-01-26,1,,,,,チャイルドロアクリエイト,0
1413,5011501027682,新規,0,2022-01-26,2022-01-26,ボカーミ株式会社,,株式会社,東京都,荒川区,東尾久２丁目２番９号三祥ビル２０６,,13,118,1160012,,,,,,,2022-01-26,1,,,,,ボカーミ,0
1429,5020001144938,新規,0,2022-01-26,2022-01-26,株式会社三共総合メンテナンス,,株式会社,神奈川県,横浜市南区,蒔田町字三度台１０１８番地１５ワコーレロイヤルヒルズ横浜蒔田５１０,,14,105,2320043,,,,,,,2022-01-26,1,,,,,サンキョウソウゴウメンテナンス,0
1430,5020001144946,新規,0,2022-01-26,2022-01-26,ｉ電気株式会社,,株式会社,神奈川県,川崎市川崎区,昭和２丁目２番７号ビラソレイユ３０１,,14,131,2100813,,,,,,,2022-01-26,1,,,,,アイデンキ,0
1436,5021001075041,新規,0,2022-01-26,2022-01-26,京都テクノロジー株式会社,,株式会社,神奈川県,藤沢市,鵠沼松が岡３丁目８番３２号,,14,205,2510038,,,,,,,2022-01-26,1,,,,,キョウトテクノロジー,0
1444,5030003018734,新規,0,2022-01-26,2022-01-26,ＭＦトレーディング合同会社,,合同会社,埼玉県,坂戸市,西坂戸４丁目１８番１３号,,11,239,3500247,,,,,,,2022-01-26,1,,,,,エムエフトレーディング,0
1449,5040001121927,新規,0,2022-01-26,2022-01-26,株式会社Ｓｅｒｉｏｌａ,,株式会社,千葉県,柏市,旭町４丁目６番１号アンビシャス柏２０７,,12,217,2770852,,,,,,,2022-01-26,1,,,,,セリオラ,0
1450,5040001121943,新規,0,2022-01-26,2022-01-26,安順株式会社,,株式会社,千葉県,松戸市,稔台７丁目１４番１号２０１号室,,12,207,2702231,,,,,,,2022-01-26,1,,,,,アンジュン,0
1451,5040001121968,新規,0,2022-01-26,2022-01-26,株式会社Ｊ＆Ａ,,株式会社,千葉県,千葉市美浜区,幸町２丁目１０番２棟５０５号,,12,106,2610001,,,,,,,2022-01-26,1,,,,,ジェーアンパサンドエー,0
1453,5050003006332,新規,0,2022-01-26,2022-01-26,合同会社日本万能カプセル,,合同会社,茨城県,日立市,本宮町３丁目２４番１,,08,202,3170054,,,,,,,2022-01-26,1,,,,,ニホンバンノウカプセル,0
1454,5060001034516,新規,0,2022-01-26,2022-01-26,株式会社ヌーベル,,株式会社,栃木県,小山市,大字喜沢１８６番地,,09,208,3230014,,,,,,,2022-01-26,1,,,,,ヌーベル,0
1457,5080001024705,新規,0,2022-01-26,2022-01-26,清水ソリューションサービス株式会社,,株式会社,静岡県,静岡市清水区,入江２丁目１番４７号,,22,103,4240831,,,,,,,2022-01-26,1,,,,,シミズソリューションサービス,0
1460,5090001017377,新規,0,2022-01-26,2022-01-26,株式会社メイクス,,株式会社,山梨県,甲斐市,富竹新田８５４番地１８,,19,210,4000113,,,,,,,2022-01-26,1,,,,,メイクス,0
1462,5100003006384,新規,0,2022-01-26,2022-01-26,合同会社ヤマセイ,,合同会社,長野県,松本市,横田３丁目８番３２号,,20,202,3900804,,,,,,,2022-01-26,1,,,,,ヤマセイ,0
1485,5120001243424,新規,0,2022-01-26,2022-01-26,株式会社Ｙｅｌｌｏｗ　Ｔｒｅｅ,,株式会社,大阪府,大阪市北区,梅田２丁目５番１３号桜橋第一ビル３０４号,,27,127,5300001,,,,,,,2022-01-26,1,,,,,イエローツリー,0
1486,5120003020937,新規,0,2022-01-26,2022-01-26,ＥＣＨＯ合同会社,,合同会社,大阪府,大阪市西淀川区,御幣島４丁目１３－１２,,27,113,5550012,,,,,,,2022-01-26,1,,,,,エコー,0
1488,5120101065000,新規,0,2022-01-26,2022-01-26,株式会社ハムスターボックス,,株式会社,大阪府,堺市中区,大野芝町１８２－１,,27,142,5998233,,,,,,,2022-01-26,1,,,,,ハムスターボックス,0
1489,5120103004542,新規,0,2022-01-26,2022-01-26,合同会社ミライエ,,合同会社,大阪府,堺市中区,深阪４丁２３番５０号,,27,142,5998253,,,,,,,2022-01-26,1,,,,,ミライエ,0
1492,5120905006265,新規,0,2022-01-26,2022-01-26,医療法人ティースヘルスケア,,その他の設立登記法人,大阪府,茨木市,真砂玉島台２番６号,,27,211,5670850,,,,,,,2022-01-26,1,,,,,ティースヘルスケア,0
1522,5190001029057,新規,0,2022-01-26,2022-01-26,騰揚産業株式会社,,株式会社,三重県,いなべ市,北勢町皷３番地,,24,214,5110421,,,,,,,2022-01-26,1,,,,,トウヨウサンギョウ,0
1527,5200001039681,新規,0,2022-01-26,2022-01-26,株式会社フォーシーズン,,株式会社,岐阜県,羽島市,福寿町本郷２０８５番地,,21,209,5016254,,,,,,,2022-01-26,1,,,,,フォーシーズン,0
1542,5250001019373,新規,0,2022-01-26,2022-01-26,今村技研株式会社,,株式会社,山口県,山口市,朝田１６０２番地１（アンジュール朝田４０３）,,35,203,7530871,,,,,,,2022-01-26,1,,,,,イマムラギケン,0
1546,5260001036459,新規,0,2022-01-26,2022-01-26,株式会社Ｋ＆Ｍ,,株式会社,岡山県,岡山市南区,平福２丁目１０番１７－１０号リースランド平福Ｂ棟１０４,,33,104,7028043,,,,,,,2022-01-26,1,,,,,ケーアンドエム,0
1553,5290001096228,新規,0,2022-01-26,2022-01-26,株式会社ニューアイズ,,株式会社,福岡県,福岡市東区,香椎１丁目１番１号２階,,40,131,8130011,,,,,,,2022-01-26,1,,,,,ニューアイズ,0
1558,5290003012075,新規,0,2022-01-26,2022-01-26,ＳＴ合同会社,,合同会社,福岡県,福岡市南区,五十川２丁目１番１０‐２０１号,,40,134,8150001,,,,,,,2022-01-26,1,,,,,エスティ,0
1567,5310005008580,新規,0,2022-01-26,2022-01-26,一般社団法人ソトメヤ,,その他の設立登記法人,長崎県,長崎市,神浦上大中尾町１１２９番地,,42,201,8512422,,,,,,,2022-01-26,1,,,,,ソトメヤ,0
1573,5340003003696,新規,0,2022-01-26,2022-01-26,合同会社リリース・ハート,,合同会社,鹿児島県,鹿児島市,原良７丁目４１番地１４号,,46,201,8900026,,,,,,,2022-01-26,1,,,,,リリースハート,0
1585,5360001029915,新規,0,2022-01-26,2022-01-26,ガレオン株式会社,,株式会社,沖縄県,名護市,稻嶺４７３番地２,,47,209,9050000,,,,,,,2022-01-26,1,,,,,ガレオン,0
1590,5370001048121,新規,0,2022-01-26,2022-01-26,株式会社ハンブルトン,,株式会社,宮城県,仙台市泉区,八乙女中央２丁目５番７号,,04,105,9813135,,,,,,,2022-01-26,1,,,,,ハンブルトン,0
1602,5410003003607,新規,0,2022-01-26,2022-01-26,合同会社真塗装,,合同会社,秋田県,秋田市,泉中央２丁目２９番２４号,,05,201,0100917,,,,,,,2022-01-26,1,,,,,シントソウ,0
1607,5430001085876,新規,0,2022-01-26,2022-01-26,株式会社優ｍｏｒｅ,,株式会社,北海道,札幌市東区,北二十五条東１４丁目２－７ノールアイ２０１,,01,103,0650025,,,,,,,2022-01-26,1,,,,,ユウモア,0
1608,5430003013570,新規,0,2022-01-26,2022-01-26,合同会社エミリア,,合同会社,北海道,札幌市北区,麻生町１丁目８番１３号,,01,102,0010045,,,,,,,2022-01-26,1,,,,,エミリア,0
1613,5500003002764,新規,0,2022-01-26,2022-01-26,合同会社フィールドマネージ,,合同会社,愛媛県,松山市,小坂５丁目４－７－３,,38,201,7900963,,,,,,,2022-01-26,1,,,,,フィールドマネージ,0
1627,6010001224062,新規,0,2022-01-26,2022-01-26,ｄｅａｒＭｏｎｄｅ株式会社,,株式会社,東京都,中央区,銀座１丁目２２番１１号銀座大竹ビジデンス２階,,13,102,1040061,,,,,,,2022-01-26,1,,,,,ディアモンド,0
1628,6010001224112,新規,0,2022-01-26,2022-01-26,株式会社Ｆｌｏｗｖｅｒｓｅ,,株式会社,東京都,中央区,新川１丁目２５番２号新川ＳＴビル２階,,13,102,1040033,,,,,,,2022-01-26,1,,,,,フローバース,0
1634,6010003036803,新規,0,2022-01-26,2022-01-26,合同会社ＦＳ２,,合同会社,東京都,中央区,八丁堀４丁目２番１０号ＡＯＪ税理士法人内,,13,102,1040032,,,,,,,2022-01-26,1,,,,,エフエスツー,0
1636,6010005034499,新規,0,2022-01-26,2022-01-26,一般社団法人ＥＮＴＲＵＳＴ,,その他の設立登記法人,東京都,千代田区,富士見１丁目３－１１富士見デュープレックスＢ‘ｓ４Ｆ,,13,101,1020071,,,,,,,2022-01-26,1,,,,,エントラスト,0
1675,6010403026890,新規,0,2022-01-26,2022-01-26,Ｐｒａｙｆｕｌｌｙ合同会社,,合同会社,東京都,港区,北青山２丁目７－２０猪瀬ビル２Ｆ,,13,103,1070061,,,,,,,2022-01-26,1,,,,,プレイフリー,0
1688,6010603009357,新規,0,2022-01-26,2022-01-26,Ｌｏｖｅｌｙ　Ｄａｙ合同会社,,合同会社,東京都,墨田区,東向島２丁目１－２－１Ｆ,,13,107,1310032,,,,,,,2022-01-26,1,,,,,ラブリーデイ,0
1694,6010701042136,新規,0,2022-01-26,2022-01-26,株式会社ＡＤＢＵＩＬＤ,,株式会社,東京都,品川区,南品川２丁目２番５号,,13,109,1400004,,,,,,,2022-01-26,1,,,,,アドビルド,0
1715,6011001145281,新規,0,2022-01-26,2022-01-26,東京光芯株式会社,,株式会社,東京都,渋谷区,代々木４丁目２３番５号,,13,113,1510053,,,,,,,2022-01-26,1,,,,,トウキョウコウシン,0
1717,6011003014071,新規,0,2022-01-26,2022-01-26,合同会社ブルーローズ,,合同会社,東京都,目黒区,東が丘１丁目３５番１５号,,13,110,1520021,,,,,,,2022-01-26,1,,,,,ブルーローズ,0
1722,6011101097605,新規,0,2022-01-26,2022-01-26,株式会社クエスト,,株式会社,東京都,新宿区,山吹町１２８番地１２,,13,104,1620801,,,,,,,2022-01-26,1,,,,,クエスト,0
1723,6011101097613,新規,0,2022-01-26,2022-01-26,Ｎｕｖｅｒｓｅ株式会社,,株式会社,東京都,新宿区,西新宿２丁目６番１号新宿住友ビル１８階,,13,104,1600023,,,,,,,2022-01-26,1,,,,,ヌヴァース,0
1724,6011101097638,新規,0,2022-01-26,2022-01-26,株式会社セーフティーホームテック,,株式会社,東京都,新宿区,新宿５丁目１１－１３,,13,104,1600022,,,,,,,2022-01-26,1,,,,,,0
1725,6011201023584,新規,0,2022-01-26,2022-01-26,株式会社キラスター,,株式会社,東京都,中野区,白鷺２丁目２番１１号－３,,13,114,1650035,,,,,,,2022-01-26,1,,,,,キラスター,0
1726,6011301027519,新規,0,2022-01-26,2022-01-26,日本東京製薬研究院株式会社,,株式会社,東京都,杉並区,天沼２丁目７番７号マンション大竹３０１,,13,115,1670032,,,,,,,2022-01-26,1,,,,,ニホントウキョウセイヤクケンキュウイン,0
1727,6011401023979,新規,0,2022-01-26,2022-01-26,株式会社ＤｒｅａｍＧｏ,,株式会社,東京都,板橋区,双葉町６番４号ラシクラス中板橋３０１,,13,119,1730011,,,,,,,2022-01-26,1,,,,,ドリームゴー,0
1740,6013301048593,新規,0,2022-01-26,2022-01-26,株式会社モクヨイサン,,株式会社,東京都,豊島区,西池袋４丁目２８番６号,,13,116,1710021,,,,,,,2022-01-26,1,,,,,モクヨイサン,0
1743,6020001144961,新規,0,2022-01-26,2022-01-26,株式会社ＯＳＡＭＵ,,株式会社,神奈川県,川崎市幸区,幸町３丁目４０２番地,,14,132,2120011,,,,,,,2022-01-26,1,,,,,オサム,0
1752,6021001075040,新規,0,2022-01-26,2022-01-26,株式会社三浦シーサイドサービス,,株式会社,神奈川県,三浦市,三崎町諸磯６４９番地,,14,210,2380224,,,,,,,2022-01-26,1,,,,,ミウラシーサイドサービス,0
1765,6030003018717,新規,0,2022-01-26,2022-01-26,ＪＧエンタープライズ合同会社,,合同会社,埼玉県,さいたま市緑区,大字大牧１４５９－２,,11,109,3360922,,,,,,,2022-01-26,1,,,,,ジェイジーエンタープライズ,0
1766,6030003018733,新規,0,2022-01-26,2022-01-26,ドトールダドールエンタープライズ合同会社,,合同会社,埼玉県,児玉郡上里町,大字七本木３０８１－５１,,11,385,3690306,,,,,,,2022-01-26,1,,,,,ドトールダドールエンタープライズ,0
1769,6040001121926,新規,0,2022-01-26,2022-01-26,東葉金属株式会社,,株式会社,千葉県,鎌ケ谷市,軽井沢１９８１番地２０,,12,224,2730131,,,,,,,2022-01-26,1,,,,,トウヨウキンゾク,0
1770,6040001121934,新規,0,2022-01-26,2022-01-26,株式会社ｋａｎｏｎ,,株式会社,千葉県,松戸市,根本１４番地の２パークスカイタワー松戸１Ｆ－Ｂ,,12,207,2710077,,,,,,,2022-01-26,1,,,,,カノン,0
1771,6040001121959,新規,0,2022-01-26,2022-01-26,株式会社白川硝子美装,,株式会社,千葉県,松戸市,竹ケ花西町３０６番地の９,,12,207,2710071,,,,,,,2022-01-26,1,,,,,シラカワガラスビソウ,0
1773,6040003019359,新規,0,2022-01-26,2022-01-26,合同会社エムプランニング,,合同会社,千葉県,松戸市,西馬橋２丁目２１番地の５,,12,207,2710044,,,,,,,2022-01-26,1,,,,,エムプランニング,0
1777,6060001034507,新規,0,2022-01-26,2022-01-26,株式会社Ｂｅｙｏｎｄ　Ｒｅｌａｔｉｏｎ,,株式会社,栃木県,下都賀郡野木町,大字丸林３７５番地６,,09,364,3290111,,,,,,,2022-01-26,1,,,,,ビヨンドリレーション,0
1780,6070001038878,新規,0,2022-01-26,2022-01-26,株式会社ＭＳ未来,,株式会社,群馬県,高崎市,箕郷町柏木沢２３１０番地１,,10,202,3703101,,,,,,,2022-01-26,1,,,,,エムエスミライ,0
1790,6100003006383,新規,0,2022-01-26,2022-01-26,合同会社グッドライフパートナーズ,,合同会社,長野県,上高井郡小布施町,大字都住１９７番地,,20,541,3810208,,,,,,,2022-01-26,1,,,,,グッドライフパートナーズ,0
1819,6120001243407,新規,0,2022-01-26,2022-01-26,アミューズ・フォトスクール株式会社,,株式会社,大阪府,大阪市福島区,福島８丁目８番３号ランドマーク福島６０２,,27,103,5530003,,,,,,,2022-01-26,1,,,,,アミューズフォトスクール,0
1820,6120001243431,新規,0,2022-01-26,2022-01-26,株式会社カラト,,株式会社,大阪府,大阪市北区,中之島４丁目３番１号,,27,127,5300005,,,,,,,2022-01-26,1,,,,,カラト,0
1824,6120005022708,新規,0,2022-01-26,2022-01-26,一般社団法人ＣＬＥＡＲ　ＬＯＶＥ　ＪＡＰＡＮ,,その他の設立登記法人,大阪府,大阪市淀川区,西宮原１丁目８－２４新大阪第３ドイビル６Ｆ,,27,123,5320004,,,,,,,2022-01-26,1,,,,,クリアラブジャパン,0
1826,6120101064991,新規,0,2022-01-26,2022-01-26,株式会社Ｏｎｅ’Ｚ,,株式会社,大阪府,和泉市,内田町２丁目１５番３号,,27,219,5941156,,,,,,,2022-01-26,1,,,,,ワンズ,0
1829,6120901045514,新規,0,2022-01-26,2022-01-26,Ａｃｒｏ　Ｒｉｓｅ株式会社,,株式会社,大阪府,吹田市,吹東町３６番１－５０６号,,27,205,5640014,,,,,,,2022-01-26,1,,,,,アクロライズ,0
1830,6120905006264,新規,0,2022-01-26,2022-01-26,医療法人社団フロンティア,,その他の設立登記法人,大阪府,摂津市,東一津屋２番２７号,,27,224,5660074,,,,,,,2022-01-26,1,,,,,フロンティア,0
1835,6130003007718,新規,0,2022-01-26,2022-01-26,マッスルデベロップメント合同会社,,合同会社,京都府,京都市右京区,太秦中筋町９,,26,108,6168184,,,,,,,2022-01-26,1,,,,,マッスルデベロップメント,0
1841,6140001124662,新規,0,2022-01-26,2022-01-26,株式会社Ｓｔｉｅｒ,,株式会社,兵庫県,加古川市,神野町福留１丁目７９番地,,28,210,6750004,,,,,,,2022-01-26,1,,,,,シュティーア,0
1842,6140001124679,新規,0,2022-01-26,2022-01-26,Ｈ－Ｎ　Ｈｏｕｓｅ株式会社,,株式会社,兵庫県,神戸市中央区,日暮通６丁目１－２,,28,110,6510077,,,,,,,2022-01-26,1,,,,,エイチエヌハウス,0
1847,6140003017278,新規,0,2022-01-26,2022-01-26,ＦＰファーム合同会社,,合同会社,兵庫県,神戸市中央区,磯上通８丁目１番２９号カサベラビルＣ＆М４０３号室,,28,110,6510086,,,,,,,2022-01-26,1,,,,,エフピーファーム,0
1866,6200005013302,新規,0,2022-01-26,2022-01-26,一般社団法人セカンドベース東農,,その他の設立登記法人,岐阜県,恵那市,長島町正家１２９番地９８美フレンディＢ２０１,,21,210,5097203,,,,,,,2022-01-26,1,,,,,セカンドベーストーノー,0
1868,6220001024664,新規,0,2022-01-26,2022-01-26,株式会社ＵＤＣ,,株式会社,石川県,輪島市,門前町広瀬ホ４５番地１７,,17,204,9272152,,,,,,,2022-01-26,1,,,,,ユーディーシー,0
1880,6290003012074,新規,0,2022-01-26,2022-01-26,合同会社ゴールド,,合同会社,福岡県,福岡市博多区,堅粕４丁目６番６‐１０３号コンフォートハウス博多,,40,132,8120043,,,,,,,2022-01-26,1,,,,,ゴールド,0
1884,6290803004048,新規,0,2022-01-26,2022-01-26,合同会社つなぐ,,合同会社,福岡県,北九州市門司区,清見１丁目１７番１７号,,40,101,8010882,,,,,,,2022-01-26,1,,,,,ツナグ,0
1888,6320001018862,新規,0,2022-01-26,2022-01-26,株式会社一成,,株式会社,大分県,大分市,山津町２丁目１２番１１号,,44,201,8700136,,,,,,,2022-01-26,1,,,,,イッセイ,0
1906,6390001016769,新規,0,2022-01-26,2022-01-26,ＷＶＩＰ　ＨＯＬＤＩＮＧＳ　ＧＲＯＵＰ株式会社,,株式会社,山形県,米沢市,アルカディア１丁目８０８番１８号地域産業支援センター内,,06,202,9920119,,,,,,,2022-01-26,1,,,,,ダブリューブイアイピーホールディングスグループ,0
1915,6430001085867,新規,0,2022-01-26,2022-01-26,株式会社つばきコーポレーション,,株式会社,北海道,札幌市北区,新川西三条５丁目４番１１号,,01,102,0010933,,,,,,,2022-01-26,1,,,,,ツバキコーポレーション,0
1922,6700150106818,新規,0,2022-01-26,2022-01-26,Ｎｅｗ　Ａｕｔｏ　Ｗｈｅｅｌｓ,,外国会社等,千葉県,大網白里市,大網７１７番地３,,12,239,2993251,スリランカ民主社会主義共和国、キャンディ、カトゥガストタロード、２１２,,,,,,2022-01-26,1,,,,,ニユーオートホイールス,0
1928,7010003036802,新規,0,2022-01-26,2022-01-26,合同会社ＧＩ－１ｓｔｆｕｎｄ,,合同会社,東京都,中央区,日本橋兜町２２番６号東京セントラルプレイス５階・６階,,13,102,1030026,,,,,,,2022-01-26,1,,,,,ジーアイファーストファンド,0
1929,7010003036843,新規,0,2022-01-26,2022-01-26,合同会社カノンコード,,合同会社,東京都,千代田区,神田練塀町７０番地,,13,101,1010022,,,,,,,2022-01-26,1,,,,,カノンコード,0
1959,7010401165137,新規,0,2022-01-26,2022-01-26,株式会社ＬＵＤＥＮ,,株式会社,東京都,港区,海岸３丁目１９－２マリンシティダイヤモンドパレス７１６号室,,13,103,1080022,,,,,,,2022-01-26,1,,,,,ルーデン,0
1960,7010401165145,新規,0,2022-01-26,2022-01-26,株式会社フイリン,,株式会社,東京都,港区,南青山４丁目８番１５号,,13,103,1070062,,,,,,,2022-01-26,1,,,,,フイリン,0
1976,7010701042135,新規,0,2022-01-26,2022-01-26,株式会社データインフォームド,,株式会社,東京都,品川区,西大井４丁目２１番３号,,13,109,1400015,,,,,,,2022-01-26,1,,,,,データインフォームド,0
2002,7011101097620,新規,0,2022-01-26,2022-01-26,株式会社ティーチャーズ,,株式会社,東京都,新宿区,西新宿１丁目１８番２号清花ビル６階,,13,104,1600023,,,,,,,2022-01-26,1,,,,,ティーチャーズ,0
2003,7011103011397,新規,0,2022-01-26,2022-01-26,ホワイトレディ合同会社,,合同会社,東京都,新宿区,西新宿８丁目１４－１９,,13,104,1600023,,,,,,,2022-01-26,1,,,,,ホワイトレディ,0
2004,7011103011406,新規,0,2022-01-26,2022-01-26,ｌｏｗｋｅｙ合同会社,,合同会社,東京都,新宿区,西新宿７丁目２番６号西新宿Ｋ－１ビル３階,,13,104,1600023,,,,,,,2022-01-26,1,,,,,ローキー,0
2005,7011105010109,新規,0,2022-01-26,2022-01-26,ＵＡプロパティーズ特定目的会社,,その他の設立登記法人,東京都,新宿区,四谷２丁目９番地１５東京ユナイテッド綜合事務所内,,13,104,1600004,,,,,,,2022-01-26,1,,,,,ユーエープロパティーズ,0
2033,7020001144928,新規,0,2022-01-26,2022-01-26,株式会社ニシムラ企画,,株式会社,神奈川県,横浜市戸塚区,戸塚町９４２番地８－３０９号,,14,110,2440003,,,,,,,2022-01-26,1,,,,,ニシムラキカク,0
2034,7020001144944,新規,0,2022-01-26,2022-01-26,グローバルノウハウサービス株式会社,,株式会社,神奈川県,横浜市中区,万代町２丁目４－１東カン横浜パークサイド１００３号室,,14,104,2310031,,,,,,,2022-01-26,1,,,,,グローバルノウハウサービス,0
2035,7020001144952,新規,0,2022-01-26,2022-01-26,東西エンジ株式会社,,株式会社,神奈川県,横浜市西区,北幸１丁目１１番１号水信ビル７階,,14,103,2200004,,,,,,,2022-01-26,1,,,,,トウザイエンジ,0
2036,7020001144960,新規,0,2022-01-26,2022-01-26,株式会社アップイン,,株式会社,神奈川県,川崎市川崎区,大師駅前２丁目１番７－１２４号,,14,131,2100802,,,,,,,2022-01-26,1,,,,,アップイン,0
2057,7030003018724,新規,0,2022-01-26,2022-01-26,ＲＡ　Ｓａｋｕｒａ　Ｉｎｔｅｒｎａｔｉｏｎａｌ合同会社,,合同会社,埼玉県,さいたま市桜区,桜田２丁目１６番２１号グリーンプラザ桜田１０５号室,,11,106,3380833,,,,,,,2022-01-26,1,,,,,アールエーサクラインターナショナル,0
2063,7040001121801,新規,0,2022-01-26,2022-01-26,株式会社Ｋ・Ｅ・Ｎ桜匠,,株式会社,千葉県,柏市,布施７２４番地１,,12,217,2770825,,,,,,,2022-01-26,1,,,,,ケンオウショウ,0
2064,7040001121917,新規,0,2022-01-26,2022-01-26,株式会社Ｑｐｏｌａｒｉｓ,,株式会社,千葉県,野田市,木間ケ瀬４１４番地,,12,208,2700222,,,,,,,2022-01-26,1,,,,,キュポラリス,0
2065,7040001121925,新規,0,2022-01-26,2022-01-26,みのるハウジング株式会社,,株式会社,千葉県,流山市,加４丁目１６８８番地,,12,220,2700176,,,,,,,2022-01-26,1,,,,,ミノルハウジング,0
2069,7040003019358,新規,0,2022-01-26,2022-01-26,合同会社マルキ,,合同会社,千葉県,印西市,宗甫３９番地１６,,12,231,2701333,,,,,,,2022-01-26,1,,,,,マルキ,0
2070,7040003019366,新規,0,2022-01-26,2022-01-26,合同会社ＹＤＫ,,合同会社,千葉県,松戸市,上本郷４１７９番地土屋ビル１Ｆ,,12,207,2710064,,,,,,,2022-01-26,1,,,,,ワイディーケー,0
2072,7040005021502,新規,0,2022-01-26,2022-01-26,ＮＰＯ法人いきば,,その他の設立登記法人,千葉県,市川市,二俣２丁目１４番２０－１０２号,,12,203,2720001,,,,,,,2022-01-26,1,,,,,イキバ,0
2076,7050001050512,新規,0,2022-01-26,2022-01-26,株式会社Ｓ－ＲＩＳＥ,,株式会社,茨城県,稲敷郡阿見町,本郷１丁目２番地１１,,08,443,3001159,,,,,,,2022-01-26,1,,,,,エスライズ,0
2081,7060001034522,新規,0,2022-01-26,2022-01-26,株式会社ハヤブサ総研,,株式会社,栃木県,宇都宮市,上横田町８５３番地,,09,201,3210106,,,,,,,2022-01-26,1,,,,,ハヤブサソウケン,0
2122,7120001243406,新規,0,2022-01-26,2022-01-26,株式会社関西ジーク,,株式会社,大阪府,守口市,八雲東町２丁目５８番１３号,,27,209,5700021,,,,,,,2022-01-26,1,,,,,カンサイジーク,0
2123,7120001243430,新規,0,2022-01-26,2022-01-26,モリスＪＡＰＡＮ株式会社,,株式会社,大阪府,大阪市西成区,梅南２丁目２番２６－２０１,,27,122,5570033,,,,,,,2022-01-26,1,,,,,モリスジャパン,0
2124,7120003021017,新規,0,2022-01-26,2022-01-26,合同会社サンサンウィーク,,合同会社,大阪府,大阪市西区,九条３丁目１０番１－１４０７号,,27,106,5500027,,,,,,,2022-01-26,1,,,,,サンサンウィーク,0
2125,7120005022748,新規,0,2022-01-26,2022-01-26,医療法人結規会,,その他の設立登記法人,大阪府,守口市,大久保町５丁目６８番９号エクセレントコート１０１,,27,209,5700012,,,,,,,2022-01-26,1,,,,,ユイキカイ,0
2127,7120101064990,新規,0,2022-01-26,2022-01-26,株式会社寿楽園,,株式会社,大阪府,大阪狭山市,池尻中１丁目１１番１３号,,27,231,5890007,,,,,,,2022-01-26,1,,,,,ジュラクエン,0
2128,7120101064999,新規,0,2022-01-26,2022-01-26,株式会社アント,,株式会社,大阪府,堺市西区,浜寺石津町西４丁２７番１３号,,27,144,5928333,,,,,,,2022-01-26,1,,,,,アント,0
2132,7122001035535,新規,0,2022-01-26,2022-01-26,トリスコネクト株式会社,,株式会社,大阪府,東大阪市,長田中１丁目４番２９号シャーメゾンクレアージュ３０１,,27,227,5770013,,,,,,,2022-01-26,1,,,,,トリスコネクト,0
2134,7130001070997,新規,0,2022-01-26,2022-01-26,子かぶ株式会社,,株式会社,京都府,京都市左京区,下鴨前萩町６番地４樹樹ビル、ｂ室,,26,103,6060833,,,,,,,2022-01-26,1,,,,,コカブ,0
2136,7130003007717,新規,0,2022-01-26,2022-01-26,合同会社吉善,,合同会社,京都府,船井郡京丹波町,中台大澤７６－４,,26,407,6220331,,,,,,,2022-01-26,1,,,,,ヨシゼン,0
2142,7140001124686,新規,0,2022-01-26,2022-01-26,株式会社広瀬塗装店,,株式会社,兵庫県,神戸市北区,鹿の子台南町２丁目７番１１号,,28,109,6511514,,,,,,,2022-01-26,1,,,,,ヒロセトソウテン,0
2152,7180001149696,新規,0,2022-01-26,2022-01-26,アイレックスホールディングス株式会社,,株式会社,愛知県,名古屋市熱田区,三本松町１３番６号,,23,109,4560032,,,,,,,2022-01-26,1,,,,,アイレックスホールディングス,0
2153,7180001149705,新規,0,2022-01-26,2022-01-26,愛知キャピタル株式会社,,株式会社,愛知県,名古屋市中区,栄３丁目１４番１２号,,23,106,4600008,,,,,,,2022-01-26,1,,,,,アイチキャピタル,0
2187,7290001096201,新規,0,2022-01-26,2022-01-26,株式会社ＲｏｄｅｏＤｅｓｉｇｎＷｏｒｋｓ,,株式会社,福岡県,福岡市東区,香椎台１丁目５番１４号,,40,131,8130014,,,,,,,2022-01-26,1,,,,,ロデオデザインワークス,0
2189,7290003012073,新規,0,2022-01-26,2022-01-26,合同会社ＫＡＷＡＳＥＭＩ,,合同会社,福岡県,福岡市中央区,大手門３丁目７－１第五土肥ビル６０５,,40,133,8100074,,,,,,,2022-01-26,1,,,,,カワセミ,0
2195,7320001018861,新規,0,2022-01-26,2022-01-26,株式会社ユニテック,,株式会社,大分県,大分市,古国府４丁目２番４７号,,44,201,8700844,,,,,,,2022-01-26,1,,,,,ユニテック,0
2196,7320003003713,新規,0,2022-01-26,2022-01-26,合同会社ＡＴＤＩ,,合同会社,大分県,大分市,中央町１丁目４番２４号大分セントラルビル２Ｆ,,44,201,8700035,,,,,,,2022-01-26,1,,,,,エーティーディーアイ,0
2217,7390001016768,新規,0,2022-01-26,2022-01-26,株式会社アクアファーマシー,,株式会社,山形県,鶴岡市,日和田町２１番１３号,,06,203,9970016,,,,,,,2022-01-26,1,,,,,アクアファーマシー,0
2219,7390005008935,新規,0,2022-01-26,2022-01-26,特定非営利活動法人Ｒｅｂｏｒｎまちラボ,,その他の設立登記法人,山形県,酒田市,中町１丁目１０番１８号,,06,204,9980044,,,,,,,2022-01-26,1,,,,,リボーンマチラボ,0
2225,7470001018938,新規,0,2022-01-26,2022-01-26,株式会社クレトラ,,株式会社,香川県,高松市,香川町川東上２４０４－１,,37,201,7611706,,,,,,,2022-01-26,1,,,,,クレトラ,0
2230,7700150106809,新規,0,2022-01-26,2022-01-26,日本みどりのプロジェクト推進協議会,,その他,大阪府,大阪市北区,小松原町２番４号一般社団法人テラプロジェクト内,,27,127,5300018,,,,,,,2022-01-26,1,,,,,ニホンミドリノプロジェクトスイシンキョウギカイ,0
2231,7700150106817,新規,0,2022-01-26,2022-01-26,Ｓ．Ａ．Ｍ．Ｅｎｔｅｒｐｒｉｓｅｓ,,外国会社等,千葉県,大網白里市,大網６２２番地,,12,239,2993251,スリランカ民主社会主義共和国、ラジャウェラ、ディガナ、オールドタウン、２４,,,,,,2022-01-26,1,,,,,エスエイエムエンタープライズ,0
2243,8010001224060,新規,0,2022-01-26,2022-01-26,エクストレージ株式会社,,株式会社,東京都,文京区,向丘２丁目１１番２号,,13,105,1130023,,,,,,,2022-01-26,1,,,,,エクストレージ,0
2244,8010001224077,新規,0,2022-01-26,2022-01-26,株式会社ＥＵＧＥＮＩＡ,,株式会社,東京都,中央区,銀座６丁目５番１７号,,13,102,1040061,,,,,,,2022-01-26,1,,,,,ユージェニア,0
2251,8010003036834,新規,0,2022-01-26,2022-01-26,合同会社インテリジェントエナジー和歌山,,合同会社,東京都,中央区,日本橋室町４丁目３番１８号東京建物室町ビル９Ｆ,,13,102,1030022,,,,,,,2022-01-26,1,,,,,インテリジェントエナジーワカヤマ,0
2290,8010601060566,新規,0,2022-01-26,2022-01-26,株式会社ＹＹＤＳ商事,,株式会社,東京都,江東区,亀戸２丁目６－６亀戸二丁目団地６１０号室,,13,108,1360071,,,,,,,2022-01-26,1,,,,,ワィワィディーエスショウジ,0
2313,8010903007091,新規,0,2022-01-26,2022-01-26,合同会社シロップカット,,合同会社,東京都,世田谷区,玉川３丁目２０番２号マノア玉川第３ビル５０１号室,,13,112,1580094,,,,,,,2022-01-26,1,,,,,シロップカット,0
2322,8011001145098,新規,0,2022-01-26,2022-01-26,株式会社ライフスタイル研究所,,株式会社,東京都,渋谷区,恵比寿西１丁目３６番２号,,13,113,1500021,,,,,,,2022-01-26,1,,,,,ライフスタイルケンキュウジョ,0
2323,8011001145230,新規,0,2022-01-26,2022-01-26,株式会社Ｋ－ｔｒｅｅ,,株式会社,東京都,目黒区,目黒２丁目８番１３号,,13,110,1530063,,,,,,,2022-01-26,1,,,,,ケーツリー,0
2324,8011001145313,新規,0,2022-01-26,2022-01-26,株式会社ネイルトラスト,,株式会社,東京都,渋谷区,広尾３丁目２番５号,,13,113,1500012,,,,,,,2022-01-26,1,,,,,ネイルトラスト,0
2329,8011103011339,新規,0,2022-01-26,2022-01-26,ＴａｌｋＣａｍｐ合同会社,,合同会社,東京都,新宿区,西新宿３丁目３番１３号西新宿水間ビル６階,,13,104,1600023,,,,,,,2022-01-26,1,,,,,トークキャンプ,0
2330,8011105010108,新規,0,2022-01-26,2022-01-26,入間プロパティーズ特定目的会社,,その他の設立登記法人,東京都,新宿区,四谷２丁目９番地１５東京ユナイテッド綜合事務所内,,13,104,1600004,,,,,,,2022-01-26,1,,,,,イルマプロパティーズ,0
2343,8012301012863,新規,0,2022-01-26,2022-01-26,株式会社Ｌｏｏｐ,,株式会社,東京都,町田市,大蔵町１２８番地１モーリスビル１１１号,,13,209,1950062,,,,,,,2022-01-26,1,,,,,ループ,0
2344,8012303001633,新規,0,2022-01-26,2022-01-26,Ａｔｏｍｏｓ－Ｓｅｅｄ合同会社,,合同会社,東京都,町田市,中町１丁目２番５号ＳＨＥＬＬＭＩＹＡＫＯＶ３Ｆ,,13,209,1940021,,,,,,,2022-01-26,1,,,,,アトモスシード,0
2345,8012401038791,新規,0,2022-01-26,2022-01-26,マジックムーブ株式会社,,株式会社,東京都,武蔵野市,吉祥寺東町１丁目１１－１８Ｍビル３Ｆ,,13,203,1800002,,,,,,,2022-01-26,1,,,,,マジックムーブ,0
2347,8012405004690,新規,0,2022-01-26,2022-01-26,一般社団法人日本ソーラーポール協会,,その他の設立登記法人,東京都,武蔵野市,御殿山１丁目６番１－７０１号,,13,203,1800005,,,,,,,2022-01-26,1,,,,,ニホンソーラーポール,0
2353,8013301048591,新規,0,2022-01-26,2022-01-26,Ｂ＆Ｈ　ｍａｒｋｅｔｉｎｇ株式会社,,株式会社,東京都,豊島区,東池袋５丁目７番４号,,13,116,1700013,,,,,,,2022-01-26,1,,,,,ビーアンドエイチマーケティング,0
2356,8020001144968,新規,0,2022-01-26,2022-01-26,株式会社カレント,,株式会社,神奈川県,横浜市保土ケ谷区,川島町１５７１－１－２Ｆ,,14,106,2400045,,,,,,,2022-01-26,1,,,,,カレント,0
2362,8021003011330,新規,0,2022-01-26,2022-01-26,合同会社ＦＡＩＴＨ,,合同会社,神奈川県,鎌倉市,大町１丁目７番１０号,,14,204,2480007,,,,,,,2022-01-26,1,,,,,フェイス,0
2368,8030001146501,新規,0,2022-01-26,2022-01-26,株式会社イーストラクト,,株式会社,埼玉県,八潮市,大字南後谷９５６番地１デュオ草加リバーテラス２０６,,11,234,3400831,,,,,,,2022-01-26,1,,,,,イーストラクト,0
2369,8030001146518,新規,0,2022-01-26,2022-01-26,株式会社ＧＮ１,,株式会社,埼玉県,川口市,大字東本郷１３３０－１０アドリエンヌ１０７,,11,203,3340063,,,,,,,2022-01-26,1,,,,,ジーエヌワン,0
2382,8040001121908,新規,0,2022-01-26,2022-01-26,Ｃｕｒｉｏｕｓ　Ｒｏｂｏｔｉｃｓ株式会社,,株式会社,千葉県,白井市,南山１丁目２番３棟４０１号,,12,232,2701423,,,,,,,2022-01-26,1,,,,,キュリオスロボティクス,0
2383,8040001121924,新規,0,2022-01-26,2022-01-26,株式会社ＣＬＥＮＡ,,株式会社,千葉県,流山市,宮園１丁目１３番地の３,,12,220,2700155,,,,,,,2022-01-26,1,,,,,クレナ,0
2384,8040001121957,新規,0,2022-01-26,2022-01-26,株式会社ミツバ,,株式会社,千葉県,柏市,南逆井４丁目８番１－６号,,12,217,2770043,,,,,,,2022-01-26,1,,,,,ミツバ,0
2385,8040003019357,新規,0,2022-01-26,2022-01-26,合同会社ゆずの木,,合同会社,千葉県,流山市,おおたかの森北１丁目４－１－５２５,,12,220,2700119,,,,,,,2022-01-26,1,,,,,ユズノキ,0
2386,8040003019373,新規,0,2022-01-26,2022-01-26,ＡＹＮＧ合同会社,,合同会社,千葉県,君津市,杢師３丁目８,,12,225,2991163,,,,,,,2022-01-26,1,,,,,エーワイエヌジー,0
2390,8060001034505,新規,0,2022-01-26,2022-01-26,マインド株式会社,,株式会社,栃木県,芳賀郡益子町,大字山本７０２番２,,09,342,3214213,,,,,,,2022-01-26,1,,,,,マインド,0
2391,8060001034521,新規,0,2022-01-26,2022-01-26,株式会社マッシュ,,株式会社,栃木県,宇都宮市,宮の内４丁目１５０番地６,,09,201,3210131,,,,,,,2022-01-26,1,,,,,マッシュ,0
2421,8120001243413,新規,0,2022-01-26,2022-01-26,株式会社ピアブランカ,,株式会社,大阪府,大阪市中央区,南船場４丁目１０番５号南船場ＳＯＨＯビル７０２,,27,128,5420081,,,,,,,2022-01-26,1,,,,,ピアブランカ,0
2422,8120001243421,新規,0,2022-01-26,2022-01-26,株式会社ＮｅｗＴｒｉｃｏ,,株式会社,大阪府,大阪市中央区,久太郎町３丁目１－６,,27,128,5410056,,,,,,,2022-01-26,1,,,,,ニュートリコ,0
2425,8120005022730,新規,0,2022-01-26,2022-01-26,特定非営利活動法人エリムの家,,その他の設立登記法人,大阪府,寝屋川市,南水苑町１８番５号,,27,215,5720826,,,,,,,2022-01-26,1,,,,,エリムノイエ,0
2428,8120105009512,新規,0,2022-01-26,2022-01-26,医療法人正功会,,その他の設立登記法人,大阪府,松原市,天美東２丁目１３５番地の２松原天美クリニックビル３階,,27,217,5800032,,,,,,,2022-01-26,1,,,,,セイコウカイ,0
2436,8130001071004,新規,0,2022-01-26,2022-01-26,株式会社ＨＥＡＴ,,株式会社,京都府,京都市伏見区,久我西出町１４番地１４９,,26,109,6128496,,,,,,,2022-01-26,1,,,,,ヒート,0
2440,8130003007716,新規,0,2022-01-26,2022-01-26,合同会社ジグザグ,,合同会社,京都府,京都市下京区,朱雀宝蔵町４４番地協栄ビル２階和文化推進協会内,,26,106,6008846,,,,,,,2022-01-26,1,,,,,ジグザグ,0
2446,8140001124693,新規,0,2022-01-26,2022-01-26,株式会社ｎ．Ｂｌｏｏｍ,,株式会社,兵庫県,加古郡稲美町,国岡２丁目６番地の９,,28,381,6751115,,,,,,,2022-01-26,1,,,,,エヌブルーム,0
2456,8180001149687,新規,0,2022-01-26,2022-01-26,株式会社ケーティセブン,,株式会社,愛知県,半田市,清城町１丁目３番地の１,,23,205,4750917,,,,,,,2022-01-26,1,,,,,ケーティセブン,0
2458,8180003023428,新規,0,2022-01-26,2022-01-26,合同会社今井設備,,合同会社,愛知県,名古屋市熱田区,野立町字下川田４１００番地の１２,,23,109,4560066,,,,,,,2022-01-26,1,,,,,イマイセツビ,0
2461,8180301035868,新規,0,2022-01-26,2022-01-26,株式会社石黒商事,,株式会社,愛知県,豊橋市,羽根井西町２番地９,,23,201,4418026,,,,,,,2022-01-26,1,,,,,イシグロショウジ,0
2471,8240001059236,新規,0,2022-01-26,2022-01-26,メイクイット株式会社,,株式会社,広島県,大竹市,木野２丁目５番３号,,34,211,7390616,,,,,,,2022-01-26,1,,,,,メイクイット,0
2472,8240001059244,新規,0,2022-01-26,2022-01-26,株式会社Ａ・Ｃ・Ｏ,,株式会社,広島県,広島市安佐南区,伴中央４丁目１０番１号,,34,105,7313165,,,,,,,2022-01-26,1,,,,,エーシーオー,0
2476,8250001019370,新規,0,2022-01-26,2022-01-26,株式会社ミナミ,,株式会社,山口県,熊毛郡田布施町,大字下田布施７２０番地２１,,35,343,7421511,,,,,,,2022-01-26,1,,,,,ミナミ,0
2477,8280003001571,新規,0,2022-01-26,2022-01-26,合同会社ＳＴＡＹ　ＧＯＬＤ,,合同会社,島根県,浜田市,長浜町１３２４－９,,32,202,6970063,,,,,,,2022-01-26,1,,,,,ステイゴールド,0
2483,8290001096233,新規,0,2022-01-26,2022-01-26,株式会社総合企画３２６,,株式会社,福岡県,福岡市中央区,荒戸２丁目３－３７朝日プラザ西公園１０５,,40,133,8100062,,,,,,,2022-01-26,1,,,,,ソウゴウキカクサンビャクニジューロク,0
2487,8290803004046,新規,0,2022-01-26,2022-01-26,合同会社秀島,,合同会社,福岡県,北九州市小倉南区,南方２丁目１番２６号,,40,107,8020976,,,,,,,2022-01-26,1,,,,,ヒデシマ,0
2494,8340005009400,新規,0,2022-01-26,2022-01-26,一般社団法人あそびばここから,,その他の設立登記法人,鹿児島県,指宿市,十町１５０６番地３,,46,210,8910402,,,,,,,2022-01-26,1,,,,,アソビバココカラ,0
2500,8360003011760,新規,0,2022-01-26,2022-01-26,合同会社神山総建,,合同会社,沖縄県,島尻郡八重瀬町,字東風平１５４番地６・２０５号,,47,362,9010401,,,,,,,2022-01-26,1,,,,,カミヤマソウケン,0
2506,8380001032526,新規,0,2022-01-26,2022-01-26,株式会社ソリス,,株式会社,福島県,福島市,本町２番１０号,,07,201,9608035,,,,,,,2022-01-26,1,,,,,ソリス,0
2512,8400005008206,新規,0,2022-01-26,2022-01-26,一般社団法人いわて地域おこし協力隊ネットワーク,,その他の設立登記法人,岩手県,岩手郡葛巻町,葛巻第５４地割９３番地５小田定住促進住宅２０３号,,03,302,0285402,,,,,,,2022-01-26,1,,,,,イワテチイキオコシキョウリョクタイネットワーク,0
2523,8430001085873,新規,0,2022-01-26,2022-01-26,株式会社すみか,,株式会社,北海道,札幌市白石区,北郷一条７丁目５番１５号,,01,104,0030831,,,,,,,2022-01-26,1,,,,,スミカ,0
2538,8700150106808,新規,0,2022-01-26,2022-01-26,ｖａ－Ｑ－ｔｅｃ　Ｌｉｍｉｔｅｄ,,外国会社等,,,,,,,,１０５　Ｒｏｃｈｅｓｔｅｒ　Ａｉｒｐｏｒｔ　Ｉｎｄｕｓｔｒｉａｌ　Ｅｓｔａｔｅ，　Ｌａｋｅｒ　Ｒｏａｄ，　Ｒｏｃｈｅｓｔｅｒ，　Ｋｅｎｔ，　Ｅｎｇｌａｎｄ，　ＭＥ１　３ＱＸ,,,,,,2022-01-26,1,,,,,ヴァクテックリミテッド,0
2539,8700150106816,新規,0,2022-01-26,2022-01-26,ＫＯＹＡ　ＴＲＡＤＩＮＧ　ＰＲＩＶＡＴＥ　ＬＩＭＩＴＥＤ,,外国会社等,千葉県,山武郡九十九里町,西野１４０４番地１１０,,12,403,2830116,スリランカ民主社会主義共和国、キャンディ、バトゥゴダ、ムレガマＮｏ．３０７Ａ,,,,,,2022-01-26,1,,,,,コヤトレーデイングプライベートリミテツド,0
2540,8700150106832,新規,0,2022-01-26,2022-01-26,Ｙ　Ｔ　Ｓ　ＥＮＴＥＲＰＲＩＳＥＳ　ＰＲＩＶＡＴＥ　ＬＩＭＩＴＥＤ,,外国会社等,千葉県,山武郡九十九里町,西野１４０４番地１１０－Ａ,,12,403,2830116,スリランカ民主社会主義共和国、ウェランピティヤ、ブランディヤワッタファーストレーンＮｏ．３０９／４０／１,,,,,,2022-01-26,1,,,,,ワイテイエスエンタープライズプライベートリミテツド,0
2551,9010001224027,新規,0,2022-01-26,2022-01-26,株式会社ＡＲ７,,株式会社,東京都,中央区,銀座１丁目８番１９号,,13,102,1040061,,,,,,,2022-01-26,1,,,,,エーアールセブン,0
2552,9010001224101,新規,0,2022-01-26,2022-01-26,株式会社Ｈｕｄｏｕｓｕｎ,,株式会社,東京都,中央区,日本橋箱崎町３２番３号秀和日本橋箱崎レジデンス５１５,,13,102,1030015,,,,,,,2022-01-26,1,,,,,フドウサン,0
2578,9010401165127,新規,0,2022-01-26,2022-01-26,株式会社Ｐｒａｌｌ,,株式会社,東京都,港区,南青山２丁目２番１５号,,13,103,1070062,,,,,,,2022-01-26,1,,,,,プラル,0
2579,9010401165143,新規,0,2022-01-26,2022-01-26,株式会社ＫＩコーポレーション,,株式会社,東京都,港区,南麻布５丁目１４番４－４１２号,,13,103,1060047,,,,,,,2022-01-26,1,,,,,ケーアイコーポレーション,0
2590,9010403026962,新規,0,2022-01-26,2022-01-26,ボスコンサルティング合同会社,,合同会社,東京都,港区,芝３丁目８番２―３２０１号,,13,103,1050014,,,,,,,2022-01-26,1,,,,,ボスコンサルティング,0
2591,9010403026979,新規,0,2022-01-26,2022-01-26,合同会社プラスワン,,合同会社,東京都,港区,芝３丁目１３番４号８０３号室,,13,103,1050014,,,,,,,2022-01-26,1,,,,,プラスワン,0
2599,9010501048363,新規,0,2022-01-26,2022-01-26,Ａｆｔｅｒｌｉｆｅ株式会社,,株式会社,東京都,台東区,寿３丁目９－３丸大ビル３Ｆ－０６,,13,106,1110042,,,,,,,2022-01-26,1,,,,,アフターライフ,0
2623,9011001144966,新規,0,2022-01-26,2022-01-26,中央不動産株式会社,,株式会社,東京都,渋谷区,松濤２丁目２１番４号,,13,113,1500046,,,,,,,2022-01-26,1,,,,,チュウオウフドウサン,0
2631,9011301027490,新規,0,2022-01-26,2022-01-26,株式会社育成ラボ,,株式会社,東京都,杉並区,梅里２丁目４０－１８第３志村ビル２０１,,13,115,1660011,,,,,,,2022-01-26,1,,,,,イクセイラボ,0
2632,9011401023984,新規,0,2022-01-26,2022-01-26,株式会社ビックリバー,,株式会社,東京都,板橋区,板橋４丁目４－１１京北ハイツ１０１,,13,119,1730004,,,,,,,2022-01-26,1,,,,,ビックリバー,0
2640,9012403005211,新規,0,2022-01-26,2022-01-26,合同会社ＣＲＯＳＳ,,合同会社,東京都,三鷹市,下連雀１丁目３１番２３号,,13,204,1810013,,,,,,,2022-01-26,1,,,,,クロス,0
2653,9020001144959,新規,0,2022-01-26,2022-01-26,株式会社ｉｎｎｏｖａｔｉｏｎ,,株式会社,神奈川県,川崎市宮前区,犬蔵１丁目１１番１９号,,14,136,2160011,,,,,,,2022-01-26,1,,,,,イノベーション,0
2654,9020001144967,新規,0,2022-01-26,2022-01-26,株式会社Ｃｏｎｓｉｇｌｉｅｒｅ,,株式会社,神奈川県,川崎市川崎区,新川通１１番１０号デイジイ川崎６０１,,14,131,2100013,,,,,,,2022-01-26,1,,,,,コンシリエーレ,0
2655,9020001144975,新規,0,2022-01-26,2022-01-26,株式会社ＲＸＩＮ,,株式会社,神奈川県,横浜市中区,松影町２丁目７－３,,14,104,2310025,,,,,,,2022-01-26,1,,,,,レーシン,0
2656,9020001144983,新規,0,2022-01-26,2022-01-26,株式会社ＴＥＣＨ　ＳＰＯＴ,,株式会社,神奈川県,川崎市幸区,北加瀬１丁目１６－６,,14,132,2120057,,,,,,,2022-01-26,1,,,,,テックスポット,0
2669,9030001146483,新規,0,2022-01-26,2022-01-26,株式会社壱月,,株式会社,埼玉県,川口市,大字榛松６８６番地１,,11,203,3340062,,,,,,,2022-01-26,1,,,,,イチガツ,0
2688,9040001121915,新規,0,2022-01-26,2022-01-26,株式会社アクアテックス,,株式会社,千葉県,柏市,弥生町８番６号,,12,217,2770015,,,,,,,2022-01-26,1,,,,,アクアテックス,0
2689,9040001121956,新規,0,2022-01-26,2022-01-26,株式会社サクラ,,株式会社,千葉県,佐倉市,南ユーカリが丘９番地１、４号,,12,212,2850859,,,,,,,2022-01-26,1,,,,,サクラ,0
2691,9040003019372,新規,0,2022-01-26,2022-01-26,合同会社ぬくぬく,,合同会社,千葉県,成田市,本城８３番地９６,,12,211,2860114,,,,,,,2022-01-26,1,,,,,ヌクヌク,0
2694,9060001034520,新規,0,2022-01-26,2022-01-26,遠洋国際株式会社,,株式会社,栃木県,下野市,薬師寺１５２４番地２,,09,216,3290431,,,,,,,2022-01-26,1,,,,,エンヨウコクサイ,0
2699,9070003004363,新規,0,2022-01-26,2022-01-26,合同会社ＴＳＵ,,合同会社,群馬県,前橋市,大渡町１丁目６番地９津田ビル３０３,,10,201,3710854,,,,,,,2022-01-26,1,,,,,ティーエスユー,0
2724,9110003004689,新規,0,2022-01-26,2022-01-26,合同会社島田デンタルラボラトリー,,合同会社,新潟県,新潟市江南区,曽川甲３８０番地２０,,15,104,9501136,,,,,,,2022-01-26,1,,,,,シマダデンタルラボラトリー,0
2733,9120001243313,新規,0,2022-01-26,2022-01-26,酒藏一丁目株式会社,,株式会社,大阪府,大阪市西成区,潮路１丁目３番４－１０１号,,27,122,5570052,,,,,,,2022-01-26,1,,,,,サカグライッチョウメ,0
2734,9120001243362,新規,0,2022-01-26,2022-01-26,株式会社ＡＮＪＹＵ,,株式会社,大阪府,大阪市平野区,平野宮町１丁目４番２０号,,27,126,5470046,,,,,,,2022-01-26,1,,,,,アンジュ,0
2735,9120001243395,新規,0,2022-01-26,2022-01-26,株式会社Ｇｅｎｏｎ,,株式会社,大阪府,大阪市北区,梅田１丁目３－１大阪駅前第一ビル８階５号,,27,127,5300001,,,,,,,2022-01-26,1,,,,,ゲノン,0
2736,9120001243412,新規,0,2022-01-26,2022-01-26,中聖株式会社,,株式会社,大阪府,大阪市中央区,瓦屋町３丁目７番２０号,,27,128,5420066,,,,,,,2022-01-26,1,,,,,ナカセイ,0
2737,9120001243420,新規,0,2022-01-26,2022-01-26,株式会社萍,,株式会社,大阪府,大阪市西成区,天下茶屋北１丁目２番３－１０１号室,,27,122,5570003,,,,,,,2022-01-26,1,,,,,ヘイ,0
2754,9120101064989,新規,0,2022-01-26,2022-01-26,株式会社ＥＧバスター,,株式会社,大阪府,堺市堺区,戎島町２丁６６番地,,27,141,5900985,,,,,,,2022-01-26,1,,,,,イージーバスター,0
2755,9120101064997,新規,0,2022-01-26,2022-01-26,株式会社ａｔ－Ｐｌａｎｎｉｎｇ,,株式会社,大阪府,堺市南区,深阪南１８２番地泉ヶ丘ＡＳビルＦ号室,,27,145,5900103,,,,,,,2022-01-26,1,,,,,アットプランニング,0
2756,9120105009511,新規,0,2022-01-26,2022-01-26,医療法人健慶会,,その他の設立登記法人,大阪府,堺市北区,百舌鳥赤畑町４丁２５４番地１山田医療ビル３階,,27,146,5918037,,,,,,,2022-01-26,1,,,,,ケンケイカイ,0
2758,9120903004011,新規,0,2022-01-26,2022-01-26,合同会社パーキングフィールド,,合同会社,大阪府,豊中市,服部西町２丁目８番３４号,,27,203,5610858,,,,,,,2022-01-26,1,,,,,パーキングフィールド,0
2760,9130001071003,新規,0,2022-01-26,2022-01-26,株式会社ｅｃｏフォレスト枚方京田辺,,株式会社,京都府,京田辺市,大住池島４８番地１,,26,211,6100343,,,,,,,2022-01-26,1,,,,,エコフォレストヒラカタキョウタナベ,0
2761,9130003007707,新規,0,2022-01-26,2022-01-26,合同会社ｍｏａ　Ｉｎｆｏｒｍａｔｉｏｎ　ａｒｃｈｉｔｅｃｔ,,合同会社,京都府,京都市中京区,錦小路通室町西入天神山町２８０石勘ビル４Ｆ,,26,104,6048221,,,,,,,2022-01-26,1,,,,,モアインフォメーションアーキテクト,0
2766,9140001124668,新規,0,2022-01-26,2022-01-26,株式会社ヒカリ,,株式会社,兵庫県,西宮市,上甲子園２丁目３番２３－１１２号,,28,204,6638114,,,,,,,2022-01-26,1,,,,,ヒカリ,0
2770,9140003017275,新規,0,2022-01-26,2022-01-26,ウィズ合同会社,,合同会社,兵庫県,西宮市,中前田町１番２５号和成ビル４０３号室,,28,204,6620857,,,,,,,2022-01-26,1,,,,,ウィズ,0
2775,9160005011035,新規,0,2022-01-26,2022-01-26,特定非営利活動法人スペシャルオリンピックス日本・滋賀,,その他の設立登記法人,滋賀県,湖南市,平松北３丁目５５番地フラット平松Ｓ－１,,25,211,5203235,,,,,,,2022-01-26,1,,,,,スペシャルオリンピックスニッポンシガ,0
2783,9180001149694,新規,0,2022-01-26,2022-01-26,株式会社実のり,,株式会社,愛知県,名古屋市北区,中味鋺３丁目１３６番地－３０１号,,23,103,4620015,,,,,,,2022-01-26,1,,,,,ミノリ,0
2790,9190001029053,新規,0,2022-01-26,2022-01-26,株式会社アドバンス,,株式会社,三重県,いなべ市,大安町石榑東２９６５番地１アーバンハイツＢ１０２号,,24,214,5110264,,,,,,,2022-01-26,1,,,,,アドバンス,0
2803,9230005009195,新規,0,2022-01-26,2022-01-26,行政書士法人杉林事務所,,その他の設立登記法人,富山県,高岡市,太田１２２３番地,,16,202,9330133,,,,,,,2022-01-26,1,,,,,スギバヤシジムショ,0
2820,9290801028203,新規,0,2022-01-26,2022-01-26,株式会社クランパ,,株式会社,福岡県,北九州市小倉北区,霧ケ丘２丁目１番９号,,40,106,8020052,,,,,,,2022-01-26,1,,,,,クランパ,0
2839,9350003004013,新規,0,2022-01-26,2022-01-26,合同会社エーアイオフィス,,合同会社,宮崎県,都城市,高崎町大牟田２９１１番地,,45,202,8894505,,,,,,,2022-01-26,1,,,,,エーアイオフィス,0
2841,9360001029928,新規,0,2022-01-26,2022-01-26,株式会社Ｖａｃｕｕ,,株式会社,沖縄県,那覇市,銘苅１丁目４－１３プティコルネ４－Ｃ,,47,201,9000004,,,,,,,2022-01-26,1,,,,,バキュー,0
2862,9430003013567,新規,0,2022-01-26,2022-01-26,ＩＴＡ合同会社,,合同会社,北海道,札幌市南区,藤野六条６丁目５番３０号,,01,106,0612286,,,,,,,2022-01-26,1,,,,,アイティエー,0
2867,9470005006409,新規,0,2022-01-26,2022-01-26,日本感染症対策事業協同組合,,その他の設立登記法人,香川県,坂出市,常盤町１丁目７番８号,,37,203,7620058,,,,,,,2022-01-26,1,,,,,ニホンカンセンショウタイサク,0
