sequenceNumber,corporateNumber,process,correct,updateDate,changeDate,name,nameImageId,kind,prefectureName,cityName,streetNumber,addressImageId,prefectureCode,cityCode,postCode,addressOutside,addressOutsideImageId,closeDate,closeCause,successorCorporateNumber,changeCause,assignmentDate,latest,enName,enPrefectureName,enCityName,enAddressOutside,furigana,hihyoji
9,1010001249972,新規,0,2024-11-21,2024-11-21,株式会社Ｐｌｕｓ　ＢＯＸ,,株式会社,東京都,中央区,八重洲２丁目１番１号,,13,102,1040028,,,,,,,2024-11-21,1,,,,,プラスボックス,0
10,1010001250030,新規,0,2024-11-21,2024-11-21,株式会社ＮＵＡＧＥ　ＷＩＲＤ,,株式会社,東京都,千代田区,外神田４丁目１４番２－３００４号,,13,101,1010021,,,,,,,2024-11-21,1,,,,,ニュアージュウィルド,0
11,1010001250071,新規,0,2024-11-21,2024-11-21,株式会社アプリコットベル,,株式会社,東京都,文京区,小石川５丁目２番６号,,13,105,1120002,,,,,,,2024-11-21,1,,,,,アプリコットベル,0
12,1010001250096,新規,0,2024-11-21,2024-11-21,ＭＳＤ企業投資十号株式会社,,株式会社,東京都,千代田区,大手町１丁目９番２号,,13,101,1000004,,,,,,,2024-11-21,1,,,,,エムエスディーキギョウトウシジュウゴウ,0
13,1010001250113,新規,0,2024-11-21,2024-11-21,アクアゾル研究センター株式会社,,株式会社,東京都,中央区,銀座２丁目８番１８号８０１,,13,102,1040061,,,,,,,2024-11-21,1,,,,,アクアゾルケンキュウセンター,0
47,1010003045494,新規,0,2024-11-21,2024-11-21,エス・エー・ケー・エムエル合同会社,,合同会社,東京都,千代田区,丸の内１丁目４番１号東京共同会計事務所内,,13,101,1000005,,,,,,,2024-11-21,1,,,,,エスエーケーエムエル,0
48,1010003045585,新規,0,2024-11-21,2024-11-21,スリーエスファイナンシャルアドバイザリー合同会社,,合同会社,東京都,中央区,銀座１丁目１２番４号Ｎ＆ＥＢＬＤ．６Ｆ,,13,102,1040061,,,,,,,2024-11-21,1,,,,,スリーエスファイナンシャルアドバイザリー,0
49,1010005039164,新規,0,2024-11-21,2024-11-21,一般社団法人ブラックレーベルＲ,,その他の設立登記法人,東京都,中央区,日本橋１丁目４番１号日本橋一丁目ビルディング,,13,102,1030027,,,,,,,2024-11-21,1,,,,,ブラックレーベルアール,0
51,1010401185958,新規,0,2024-11-21,2024-11-21,株式会社きせかえ広場,,株式会社,東京都,港区,西新橋１丁目９番１１号,,13,103,1050003,,,,,,,2024-11-21,1,,,,,キセカエヒロバ,0
52,1010401186543,新規,0,2024-11-21,2024-11-21,ＮＩＰＰＯＮ　ＢＬＵＥ株式会社,,株式会社,東京都,港区,南青山１丁目１番１号新青山ビル東館７Ｆ,,13,103,1070062,,,,,,,2024-11-21,1,,,,,ニッポンブルー,0
57,1010405023817,新規,0,2024-11-21,2024-11-21,一般社団法人ハチ,,その他の設立登記法人,東京都,港区,六本木１丁目９番１０号アークヒルズ仙石山森タワー４０階,,13,103,1060032,,,,,,,2024-11-21,1,,,,,ハチ,0
59,1010501053206,新規,0,2024-11-21,2024-11-21,鼎＿益商事株式会社,00137088,株式会社,東京都,台東区,台東４丁目３０番６号,,13,106,1100016,,,,,,,2024-11-21,1,,,,,テイホウエキショウジ,0
60,1010501053222,新規,0,2024-11-21,2024-11-21,Ｍ＆Ｋ株式会社,,株式会社,東京都,台東区,浅草橋５丁目２３－８クイーンハイツ浅草橋９０３,,13,106,1110053,,,,,,,2024-11-21,1,,,,,エムアンドケイ,0
61,1010501053230,新規,0,2024-11-21,2024-11-21,株式会社モノヨリコト,,株式会社,東京都,台東区,千束３丁目２７番１２－５０６号ジェノヴィア浅草ＩＩスカイガーデン,00137091,13,106,1110031,,,,,,,2024-11-21,1,,,,,モノヨリコト,0
73,1010803005169,新規,0,2024-11-21,2024-11-21,合同会社ＴＩＦ,,合同会社,東京都,大田区,山王１丁目２８番６号メゾン山王１０１,,13,111,1430023,,,,,,,2024-11-21,1,,,,,ティアイエフ,0
85,1011001165895,新規,0,2024-11-21,2024-11-21,株式会社ＴＥＲＵ,,株式会社,東京都,渋谷区,恵比寿西２丁目８番４号ＥＸ恵比寿西ビル５階,,13,113,1500021,,,,,,,2024-11-21,1,,,,,テル,0
93,1011101109678,新規,0,2024-11-21,2024-11-21,株式会社ＮＤＮＵＴＹＯ,,株式会社,東京都,新宿区,西新宿３丁目７番１号,,13,104,1600023,,,,,,,2024-11-21,1,,,,,エヌディーエヌユーティーワイオー,0
94,1011103015206,新規,0,2024-11-21,2024-11-21,合同会社Ｐｌａｔｉｎｕｍ　Ｆｌｏｗ,,合同会社,東京都,新宿区,西新宿３丁目５番１５－７０２号,,13,104,1600023,,,,,,,2024-11-21,1,,,,,プラチナムフロー,0
95,1011201025940,新規,0,2024-11-21,2024-11-21,Ａｒｃ　Ａｇｅｎｃｙ株式会社,,株式会社,東京都,中野区,沼袋１丁目２９番１９号ＮＳハイム地下１階,,13,114,1650025,,,,,,,2024-11-21,1,,,,,アークエージェンシー,0
99,1011703004038,新規,0,2024-11-21,2024-11-21,Ｅｈｒｌｉｃｈ　Ｐａｒｔｎｅｒｓ合同会社,,合同会社,東京都,江戸川区,清新町１丁目１番２８－２０３号,,13,123,1340087,,,,,,,2024-11-21,1,,,,,エアリッヒパートナーズ,0
109,1020001160138,新規,0,2024-11-21,2024-11-21,株式会社ヒロショウハウス,,株式会社,神奈川県,横浜市栄区,上郷町３６８番地,,14,115,2470013,,,,,,,2024-11-21,1,,,,,ヒロショウハウス,0
110,1020001160170,新規,0,2024-11-21,2024-11-21,株式会社ｍ,,株式会社,神奈川県,横浜市中区,扇町３丁目８番４,,14,104,2310027,,,,,,,2024-11-21,1,,,,,,0
111,1020001160212,新規,0,2024-11-21,2024-11-21,株式会社ＴＴＭ,,株式会社,神奈川県,川崎市川崎区,池田１丁目１０－２ライオンズマンション川崎第７－１０１,,14,131,2100022,,,,,,,2024-11-21,1,,,,,,0
112,1020001160229,新規,0,2024-11-21,2024-11-21,株式会社ＫＥＹＢＯ,,株式会社,神奈川県,横浜市瀬谷区,下瀬谷１丁目３７番地５０,,14,114,2460035,,,,,,,2024-11-21,1,,,,,キーボ,0
113,1020001160237,新規,0,2024-11-21,2024-11-21,株式会社こけこっこ,,株式会社,神奈川県,川崎市川崎区,東田町２番地５ネオステージ川崎１Ｆ,,14,131,2100005,,,,,,,2024-11-21,1,,,,,コケコッコ,0
115,1020003027269,新規,0,2024-11-21,2024-11-21,合同会社ＫＳ　Ｉｎｔｅｒｎａｔｉｏｎａｌ　Ｓｅｒｖｉｃｅｓ,,合同会社,神奈川県,川崎市宮前区,南平台３番３０号３Ｆ,,14,136,2160024,,,,,,,2024-11-21,1,,,,,ケーエスインターナショナルサービシーズ,0
116,1020003027277,新規,0,2024-11-21,2024-11-21,合同会社ＮＰＫ,,合同会社,神奈川県,川崎市川崎区,港町５－３－１５２８号,,14,131,2100807,,,,,,,2024-11-21,1,,,,,エヌピーケー,0
118,1021001083790,新規,0,2024-11-21,2024-11-21,Ｌａ　ｄｏｌｃｅ　ｖｉｔａ株式会社,,株式会社,神奈川県,小田原市,小八幡３丁目１２番２９号,,14,206,2560815,,,,,,,2024-11-21,1,,,,,ラドルチェヴィータ,0
128,1030001163544,新規,0,2024-11-21,2024-11-21,株式会社オザキ,,株式会社,埼玉県,志木市,柏町５丁目１８番５７号,,11,228,3530007,,,,,,,2024-11-21,1,,,,,オザキ,0
129,1030001163569,新規,0,2024-11-21,2024-11-21,株式会社旭環境,,株式会社,埼玉県,狭山市,大字水野２７０－３４,,11,215,3501317,,,,,,,2024-11-21,1,,,,,アサヒカンキョウ,0
130,1030001163577,新規,0,2024-11-21,2024-11-21,株式会社Ｎ＆Ａ　ｃｏｍ．,,株式会社,埼玉県,久喜市,栗原２丁目１番地１５,,11,232,3460012,,,,,,,2024-11-21,1,,,,,エヌアンドエーコム,0
133,1030003025453,新規,0,2024-11-21,2024-11-21,財璽合同会社,,合同会社,埼玉県,新座市,大和田５丁目２０番地２１号エスカ大和田２０１号室,,11,230,3520004,,,,,,,2024-11-21,1,,,,,ザイジ,0
134,1030003025494,新規,0,2024-11-21,2024-11-21,ｎｉｃｏ合同会社,,合同会社,埼玉県,さいたま市見沼区,大字御蔵１３４６番地１８,,11,104,3370033,,,,,,,2024-11-21,1,,,,,ニコ,0
135,1030003025552,新規,0,2024-11-21,2024-11-21,リーチネットワークス合同会社,,合同会社,埼玉県,上尾市,小泉８丁目８番地２４,,11,219,3620063,,,,,,,2024-11-21,1,,,,,リーチネットワークス,0
145,1040001136160,新規,0,2024-11-21,2024-11-21,ＭＩ株式会社,,株式会社,千葉県,流山市,南流山３丁目１０番８ダイヤモンドクレスト南流山１階０２号室,,12,220,2700163,,,,,,,2024-11-21,1,,,,,エムアイ,0
146,1040001136227,新規,0,2024-11-21,2024-11-21,上吉株式会社,,株式会社,千葉県,船橋市,栄町１丁目６番１４－１０１号,,12,204,2730018,,,,,,,2024-11-21,1,,,,,ジョウキチ,0
147,1040001136235,新規,0,2024-11-21,2024-11-21,前明商事株式会社,,株式会社,千葉県,富里市,七栄８３７番地２,,12,233,2860221,,,,,,,2024-11-21,1,,,,,マエアキショウジ,0
148,1040001136243,新規,0,2024-11-21,2024-11-21,株式会社ＳＲＩＡＭ,,株式会社,千葉県,習志野市,袖ケ浦１丁目１２－３－１号,,12,216,2750021,,,,,,,2024-11-21,1,,,,,サリア,0
149,1040001136251,新規,0,2024-11-21,2024-11-21,株式会社永和工業,,株式会社,千葉県,柏市,大井１２２４番地２,,12,217,2770902,,,,,,,2024-11-21,1,,,,,エイワコウギョウ,0
153,1040003026236,新規,0,2024-11-21,2024-11-21,角光館合同会社,,合同会社,千葉県,八街市,八街い１５３番地６３,,12,230,2891143,,,,,,,2024-11-21,1,,,,,カクミツカン,0
154,1040005022571,新規,0,2024-11-21,2024-11-21,北村社会保険労務士法人障害年金サポート,,その他の設立登記法人,千葉県,柏市,南増尾２丁目８番２７号,,12,217,2770054,,,,,,,2024-11-21,1,,,,,,0
164,1070001042389,新規,0,2024-11-21,2024-11-21,株式会社Ｂｅｘｕｒｙ,,株式会社,群馬県,高崎市,棟高町２１５３番地１４ラパンスクエアＭＤ２Ｆ,,10,202,3703521,,,,,,,2024-11-21,1,,,,,ビグジュアリー,0
168,1080405007689,新規,0,2024-11-21,2024-11-21,農事組合法人渥美ファーム,,その他の設立登記法人,静岡県,浜松市中央区,向宿２丁目２１番２２号コーポハーブル１０２,,22,138,4300851,,,,,,,2024-11-21,1,,,,,アツミファーム,0
171,1100001038053,新規,0,2024-11-21,2024-11-21,株式会社加々見商会,,株式会社,長野県,諏訪郡富士見町,富士見４６５４番地１６,,20,362,3990211,,,,,,,2024-11-21,1,,,,,カガミショウカイ,0
172,1100002012692,新規,0,2024-11-21,2024-11-21,有限会社冨士美容室,,有限会社,長野県,小諸市,本町２丁目２番７号,,20,208,3840026,,,,,,,2024-11-21,1,,,,,フジビヨウシツ,0
186,1120001270364,新規,0,2024-11-21,2024-11-21,株式会社ＭＳホールディングス,,株式会社,大阪府,大阪市都島区,友渕町２丁目８番８号,,27,102,5340016,,,,,,,2024-11-21,1,,,,,エムエスホールディングス,0
187,1120001270414,新規,0,2024-11-21,2024-11-21,ＳＦＡ商事株式会社,,株式会社,大阪府,大阪市生野区,新今里６丁目３番１０号５０３号室,,27,116,5440001,,,,,,,2024-11-21,1,,,,,エスエフエイショウジ,0
194,1120901050064,新規,0,2024-11-21,2024-11-21,株式会社Ｂｏｗｅｒｙ,,株式会社,大阪府,吹田市,広芝町１０番８号江坂董友ビル２０９,,27,205,5640052,,,,,,,2024-11-21,1,,,,,バウリー,0
199,1130001078204,新規,0,2024-11-21,2024-11-21,ＦＰチアーズ株式会社,,株式会社,京都府,京都市下京区,東洞院通七条下る東塩小路町５４７－４ステーションコートヤード１００２,,26,106,6008216,,,,,,,2024-11-21,1,,,,,エフピーチアーズ,0
210,1140001136448,新規,0,2024-11-21,2024-11-21,株式会社エース不動産,,株式会社,兵庫県,川西市,久代５丁目２番４号,,28,217,6660024,,,,,,,2024-11-21,1,,,,,,0
211,1140001136480,新規,0,2024-11-21,2024-11-21,株式会社ユキ不動産,,株式会社,兵庫県,明石市,旭が丘３番６号,,28,203,6730002,,,,,,,2024-11-21,1,,,,,ユキフドウサン,0
212,1140001136489,新規,0,2024-11-21,2024-11-21,Ｆｉｏｕｒｉｓｈ株式会社,,株式会社,兵庫県,尼崎市,西難波町４丁目６番２６号,,28,202,6600893,,,,,,,2024-11-21,1,,,,,フィオリッシュ,0
213,1140001136497,新規,0,2024-11-21,2024-11-21,株式会社ゼビウス,,株式会社,兵庫県,西宮市,上大市４丁目１５番１号,,28,204,6638003,,,,,,,2024-11-21,1,,,,,ゼビウス,0
238,1200003006592,新規,0,2024-11-21,2024-11-21,ＣＩＴ合同会社,,合同会社,岐阜県,多治見市,大畑町５丁目９番地の１７,,21,204,5070818,,,,,,,2024-11-21,1,,,,,シーアイティ,0
240,1200005013686,新規,0,2024-11-21,2024-11-21,特定非営利活動法人れおん,,その他の設立登記法人,岐阜県,岐阜市,加納柳町５３ＨＯＵＳＥ６１０－２Ａ,,21,201,5008424,,,,,,,2024-11-21,1,,,,,レオン,0
242,1210003001857,新規,0,2024-11-21,2024-11-21,合同会社ライブ,,合同会社,福井県,越前市,矢放町３－５３,,18,209,9150052,,,,,,,2024-11-21,1,,,,,ライブ,0
244,1220005008908,新規,0,2024-11-21,2024-11-21,一般社団法人能登復興建築人会議,,その他の設立登記法人,石川県,金沢市,不動寺町ホ２３１番地,,17,201,9200173,,,,,,,2024-11-21,1,,,,,ノトフッコウケンチクジンカイギ,0
248,1240001064151,新規,0,2024-11-21,2024-11-21,株式会社かれん工芸,,株式会社,広島県,福山市,能島２丁目５番６号（Ｂ２０２号）,,34,207,7210906,,,,,,,2024-11-21,1,,,,,カレンコウゲイ,0
249,1240003006944,新規,0,2024-11-21,2024-11-21,合同会社Ｊｎ,,合同会社,広島県,広島市中区,胡町３番４号,,34,101,7300021,,,,,,,2024-11-21,1,,,,,ジェイエヌ,0
254,1260001039655,新規,0,2024-11-21,2024-11-21,株式会社Ｓ＆Ｄサービス,,株式会社,岡山県,倉敷市,庄新町１０番７－１３号,,33,202,7010102,,,,,,,2024-11-21,1,,,,,エスアンドディーサービス,0
261,1290001108044,新規,0,2024-11-21,2024-11-21,サンエス株式会社,,株式会社,福岡県,福岡市博多区,金の隈２丁目３番５０号Ｂ棟２号室,,40,132,8120863,,,,,,,2024-11-21,1,,,,,サンエス,0
270,1320001020815,新規,0,2024-11-21,2024-11-21,株式会社ＭＹ,,株式会社,大分県,由布市,湯布院町川上３０５６番地１モトヤマビル１Ｆ,,44,213,8795102,,,,,,,2024-11-21,1,,,,,エムワイ,0
271,1320003004519,新規,0,2024-11-21,2024-11-21,Ｍ＆Ｅ合同会社,,合同会社,大分県,別府市,若草町５番３号,,44,202,8740925,,,,,,,2024-11-21,1,,,,,エムアンドイー,0
273,1340003004665,新規,0,2024-11-21,2024-11-21,ＢＲＡＩＮＢＹＴＥ　ＥＤＵＣＡＴＩＯＮ合同会社,,合同会社,鹿児島県,曽於市,大隅町恒吉字馬場５６６番の１,,46,217,8998424,,,,,,,2024-11-21,1,,,,,ブレインバイトエデュケーション,0
274,1340005009786,新規,0,2024-11-21,2024-11-21,一般財団法人ヨコミネ基金,,その他の設立登記法人,鹿児島県,志布志市,有明町野井倉８４７４－５,,46,221,8997402,,,,,,,2024-11-21,1,,,,,ヨコミネキキン,0
285,1360003014472,新規,0,2024-11-21,2024-11-21,合同会社はるいろ,,合同会社,沖縄県,糸満市,字糸満１８５９番地の４,,47,210,9010361,,,,,,,2024-11-21,1,,,,,ハルイロ,0
287,1370001051954,新規,0,2024-11-21,2024-11-21,武株式会社,,株式会社,宮城県,仙台市若林区,連坊小路１０７エルミタージュ連坊１０３号室,,04,103,9840053,,,,,,,2024-11-21,1,,,,,タケシ,0
297,1430001093098,新規,0,2024-11-21,2024-11-21,株式会社ジェイネクスト,,株式会社,北海道,岩見沢市,鳩が丘４丁目５番９号,,01,210,0680828,,,,,,,2024-11-21,1,,,,,ジェイネクスト,0
298,1430001093107,新規,0,2024-11-21,2024-11-21,株式会社ＢＩＣＶＡＬＬＡＹ,,株式会社,北海道,札幌市中央区,南五条西５丁目６番地５スターヒルズビル３０１,,01,101,0640805,,,,,,,2024-11-21,1,,,,,ビックバレー,0
311,1700150107408,新規,0,2024-11-21,2022-03-15,バルディックアカデミー,,その他,岐阜県,岐阜市,道三町９１パークサイド蝉丸２０２,,21,201,5020816,,,,,,,2022-03-15,1,,,,,バルデイツクアカデミー,0
312,1700150127918,新規,0,2024-11-21,2024-11-21,ＧＩＡＮＴＥＣ（ＨＫ）ＬＩＭＩＴＥＤ,,外国会社等,,,,,,,,ＲＯＯＭ　４，１６／Ｆ，ＨＯ　ＫＩＮＧ　ＣＯＭＭＥＲＣＩＡＬ　ＣＥＮＴＲＥ，２－１６　ＦＡＹＵＥＮ　ＳＴＲＥＥＴ，ＭＯＮＧＫＯＫ　ＫＬ　ＨＫ,,,,,,2024-11-21,1,,,,,ジャイアンテックホンコンリミテッド,0
315,2010001030547,新規,0,2024-11-21,2024-11-21,株式会社ムツミトレーディングカンパニー,,株式会社,東京都,千代田区,平河町１丁目７番３号,,13,101,1020093,,,,,,,2024-11-21,1,,,,,,0
326,2010001250079,新規,0,2024-11-21,2024-11-21,株式会社ｏｐｅｌａｔｔｅ,,株式会社,東京都,中央区,銀座１丁目１２番４号Ｎ＆ＥＢＬＤ．６Ｆ,,13,102,1040061,,,,,,,2024-11-21,1,,,,,オペラテ,0
327,2010001250095,新規,0,2024-11-21,2024-11-21,株式会社ＢＣＭ３５,,株式会社,東京都,中央区,京橋２丁目２番１号,,13,102,1040031,,,,,,,2024-11-21,1,,,,,ビーシーエムサンジュウゴ,0
381,2010003045568,新規,0,2024-11-21,2024-11-21,アイシーパートナーズ合同会社,,合同会社,東京都,千代田区,丸の内３丁目２番２号,,13,101,1000005,,,,,,,2024-11-21,1,,,,,アイシーパートナーズ,0
389,2010403033833,新規,0,2024-11-21,2024-11-21,合同会社ｌｏｗｆｒｅｑ,,合同会社,東京都,港区,芝５丁目１番７号ＨＴビル,,13,103,1080014,,,,,,,2024-11-21,1,,,,,ローフリーク,0
390,2010405023774,新規,0,2024-11-21,2024-11-21,野田ロジスティクス１特定目的会社,,その他の設立登記法人,東京都,港区,六本木１丁目６番１号泉ガーデンタワー,,13,103,1060032,,,,,,,2024-11-21,1,,,,,ノダロジスティクスワン,0
395,2010701046859,新規,0,2024-11-21,2024-11-21,Ｗｅｂ　Ｄｉｒｅｃｔｉｏｎｓ　Ｄｅｌｔａ株式会社,,株式会社,東京都,品川区,豊町６丁目５番９号,,13,109,1420042,,,,,,,2024-11-21,1,,,,,ウェブディレクションズデルタ,0
397,2010703007438,新規,0,2024-11-21,2024-11-21,マテリエンス合同会社,,合同会社,東京都,品川区,西五反田３丁目１３番１１号ＡＭＰＨＯＲＡＭＥＧＵＲＯＳＵＺＵＫＩ７０２,,13,109,1410031,,,,,,,2024-11-21,1,,,,,マテリエンス,0
425,2011003020412,新規,0,2024-11-21,2024-11-21,合同会社ｄｕｓｔｂｏｘ,,合同会社,東京都,渋谷区,道玄坂１丁目１０番８号渋谷道玄坂東急ビル２Ｆ－Ｃ,,13,113,1500043,,,,,,,2024-11-21,1,,,,,ダストボックス,0
427,2011101109669,新規,0,2024-11-21,2024-11-21,株式会社国士夢双,,株式会社,東京都,新宿区,早稲田町７０番地６リハイム早稲田１０２,,13,104,1620042,,,,,,,2024-11-21,1,,,,,コクシムソウ,0
431,2011401026597,新規,0,2024-11-21,2024-11-21,株式会社１５００,,株式会社,東京都,板橋区,上板橋３丁目１９番１４号エコロジー上板橋レジデンス３０８,,13,119,1740076,,,,,,,2024-11-21,1,,,,,イッコー,0
432,2011501031373,新規,0,2024-11-21,2024-11-21,株式会社ＳＮＡＰ,,株式会社,東京都,北区,東十条５丁目１４－６,,13,117,1140001,,,,,,,2024-11-21,1,,,,,,0
436,2011701027832,新規,0,2024-11-21,2024-11-21,住野株式会社,,株式会社,東京都,江戸川区,江戸川６丁目４０番１４号,,13,123,1340013,,,,,,,2024-11-21,1,,,,,スミノ,0
450,2020001160194,新規,0,2024-11-21,2024-11-21,株式会社Ａｍｏ,,株式会社,神奈川県,川崎市中原区,新丸子東２丁目９０９番地６メゾンロアゾＰＳＫＫ１０１,,14,133,2110004,,,,,,,2024-11-21,1,,,,,アモ,0
451,2020001160211,新規,0,2024-11-21,2024-11-21,株式会社キキテ,,株式会社,神奈川県,横浜市青葉区,つつじが丘６番地８２,,14,117,2270055,,,,,,,2024-11-21,1,,,,,キキテ,0
452,2020001160228,新規,0,2024-11-21,2024-11-21,レイテストリー・テック株式会社,,株式会社,神奈川県,横浜市西区,高島２丁目１１番２号スカイメナー横浜５１９,,14,103,2200011,,,,,,,2024-11-21,1,,,,,レイテストリーテック,0
454,2020003027268,新規,0,2024-11-21,2024-11-21,合同会社翔商事,,合同会社,神奈川県,横浜市磯子区,丸山２丁目９番１号,,14,107,2350011,,,,,,,2024-11-21,1,,,,,ツバサショウジ,0
455,2020003027276,新規,0,2024-11-21,2024-11-21,ＯｐｔｉＳｕｎｎｙ合同会社,,合同会社,神奈川県,横浜市青葉区,鴨志田町５３４－７,,14,117,2270033,,,,,,,2024-11-21,1,,,,,オプティサニー,0
456,2020003027301,新規,0,2024-11-21,2024-11-21,河内屋合同会社,,合同会社,神奈川県,横浜市神奈川区,六角橋１丁目６番１２号リビエール白楽１０２,,14,102,2210802,,,,,,,2024-11-21,1,,,,,カワチヤ,0
467,2030001163543,新規,0,2024-11-21,2024-11-21,株式会社ＮＥＸＴ　ＬＥＡＰ,,株式会社,埼玉県,川口市,芝樋ノ爪１丁目８番１４号,,11,203,3330852,,,,,,,2024-11-21,1,,,,,ネクストリープ,0
468,2030001163576,新規,0,2024-11-21,2024-11-21,株式会社Ｎ＆Ａ　ｅｎｓｍ．,,株式会社,埼玉県,久喜市,栗原２丁目１番地１５,,11,232,3460012,,,,,,,2024-11-21,1,,,,,エヌアンドエーエンサム,0
469,2030001163601,新規,0,2024-11-21,2024-11-21,株式会社松尾商事,,株式会社,埼玉県,鴻巣市,吹上富士見１丁目７番１４号１０３,,11,217,3690121,,,,,,,2024-11-21,1,,,,,マツオショウジ,0
472,2030003025527,新規,0,2024-11-21,2024-11-21,合同会社ＳＭＩＬＥ・Ｉ,,合同会社,埼玉県,所沢市,大字荒幡６３２番地の１０,,11,208,3591133,,,,,,,2024-11-21,1,,,,,スマイルアイ,0
476,2040001136234,新規,0,2024-11-21,2024-11-21,アートクロスケイ株式会社,,株式会社,千葉県,松戸市,竹ケ花１８０番地の１１,,12,207,2710072,,,,,,,2024-11-21,1,,,,,アートクロスケイ,0
477,2040001136242,新規,0,2024-11-21,2024-11-21,ＡＬＬ　ＴＡＳＫ　ｃａｒｅ株式会社,,株式会社,千葉県,八街市,吉倉１９５番地６,,12,230,2891133,,,,,,,2024-11-21,1,,,,,オールタスクケアー,0
479,2040003026235,新規,0,2024-11-21,2024-11-21,合同会社ジャパンモービルコネクション,,合同会社,千葉県,浦安市,富士見２丁目２１番３４－３０５号ノーブル富士見ＩＩ,00137100,12,227,2790043,,,,,,,2024-11-21,1,,,,,ジャパンモービルコネクション,0
483,2040005022570,新規,0,2024-11-21,2024-11-21,労働者協同組合鮭酒造,,その他の設立登記法人,千葉県,香取郡多古町,西古内３４９,,12,347,2892314,,,,,,,2024-11-21,1,,,,,サケシュゾウ,0
487,2050001055739,新規,0,2024-11-21,2024-11-21,株式会社Ｔ・Ａ・Ｆ,,株式会社,茨城県,稲敷郡阿見町,住吉２丁目２１番地１７,,08,443,3001158,,,,,,,2024-11-21,1,,,,,タフ,0
488,2050001055747,新規,0,2024-11-21,2024-11-21,株式会社未来開発,,株式会社,茨城県,東茨城郡城里町,大字上青山９４番地２,,08,310,3114305,,,,,,,2024-11-21,1,,,,,ミライカイハツ,0
490,2050003008819,新規,0,2024-11-21,2024-11-21,合同会社樹,,合同会社,茨城県,ひたちなか市,大字馬渡８３６番地３,,08,221,3120012,,,,,,,2024-11-21,1,,,,,イツキ,0
497,2080001026613,新規,0,2024-11-21,2024-11-21,株式会社ｅｚｕ,,株式会社,静岡県,静岡市清水区,但沼町３３３番地の１,,22,103,4240303,,,,,,,2024-11-21,1,,,,,エズ,0
502,2080101025143,新規,0,2024-11-21,2024-11-21,常誠工業株式会社,,株式会社,静岡県,沼津市,東椎路１４６１番地,,22,203,4100302,,,,,,,2024-11-21,1,,,,,ジョウセイコウギョウ,0
506,2080401027582,新規,0,2024-11-21,2024-11-21,株式会社英秀商会,,株式会社,静岡県,湖西市,鷲津３１０７番地の４,,22,221,4310431,,,,,,,2024-11-21,1,,,,,エイシュウショウカイ,0
507,2090001019013,新規,0,2024-11-21,2024-11-21,みらいワーク株式会社,,株式会社,山梨県,笛吹市,御坂町藤野木１８９９－４３,,19,211,4060814,,,,,,,2024-11-21,1,,,,,ミライワーク,0
531,2120001270438,新規,0,2024-11-21,2024-11-21,株式会社オー・エヌ・ジー,,株式会社,大阪府,大阪市東住吉区,杭全３丁目１０番１８号,,27,121,5460002,,,,,,,2024-11-21,1,,,,,オーエヌジー,0
532,2120001270454,新規,0,2024-11-21,2024-11-21,ＮＡＶＹＫＩＴＥ株式会社,,株式会社,大阪府,大阪市北区,中津３丁目２４番３号１５１６,,27,127,5310071,,,,,,,2024-11-21,1,,,,,ネイビーカイト,0
533,2120001270470,新規,0,2024-11-21,2024-11-21,株式会社Ｃｈｅｃｋ,,株式会社,大阪府,大阪市天王寺区,筆ケ崎町２番１０号,,27,109,5430027,,,,,,,2024-11-21,1,,,,,チェック,0
535,2120003028009,新規,0,2024-11-21,2024-11-21,合同会社Ｌｉｃｈｔ,,合同会社,大阪府,枚方市,堤町５番２号,,27,210,5730057,,,,,,,2024-11-21,1,,,,,リヒト,0
536,2120003028025,新規,0,2024-11-21,2024-11-21,ニューコム合同会社,,合同会社,大阪府,大阪市中央区,徳井町１丁目２番９号ＺＥＲＯ‐ＯＮＥ谷町６０２,,27,128,5400025,,,,,,,2024-11-21,1,,,,,ニューコム,0
543,2130001078384,新規,0,2024-11-21,2024-11-21,株式会社京島,,株式会社,京都府,京都市中京区,壬生西檜町１番地１,,26,104,6048846,,,,,,,2024-11-21,1,,,,,キョウジマ,0
544,2130001078392,新規,0,2024-11-21,2024-11-21,株式会社霧の京都,,株式会社,京都府,京都市伏見区,車町２７１番地１,,26,109,6128365,,,,,,,2024-11-21,1,,,,,キリノキョウト,0
545,2130001078418,新規,0,2024-11-21,2024-11-21,株式会社ひさかた,,株式会社,京都府,京都市左京区,下鴨梅ノ木町２２番２,,26,103,6060851,,,,,,,2024-11-21,1,,,,,ヒサカタ,0
549,2130003010023,新規,0,2024-11-21,2024-11-21,合同会社セカンドターフ,,合同会社,京都府,京都市右京区,梅津尻溝町３,,26,108,6150924,,,,,,,2024-11-21,1,,,,,セカンドターフ,0
553,2140001136496,新規,0,2024-11-21,2024-11-21,ＴＫアセット株式会社,,株式会社,兵庫県,西宮市,田中町３番１－７０５号,,28,204,6620973,,,,,,,2024-11-21,1,,,,,ティーケーアセット,0
573,2180001164205,新規,0,2024-11-21,2024-11-21,株式会社ｃｌｏｕｄ９,,株式会社,愛知県,名古屋市中区,栄３丁目１９番１９号,,23,106,4600008,,,,,,,2024-11-21,1,,,,,クラウドナイン,0
578,2180003027640,新規,0,2024-11-21,2024-11-21,ＫＵＭＡＲＩ合同会社,,合同会社,愛知県,名古屋市熱田区,六番１丁目１３番７号,,23,109,4560058,,,,,,,2024-11-21,1,,,,,クマリ,0
579,2180003027649,新規,0,2024-11-21,2024-11-21,ＬＵＰＲＡ合同会社,,合同会社,愛知県,名古屋市中川区,中郷１丁目２００番地の２,,23,110,4540921,,,,,,,2024-11-21,1,,,,,ルプラ,0
582,2190001031825,新規,0,2024-11-21,2024-11-21,株式会社ＷａＣｏｎ,,株式会社,三重県,伊勢市,宮町１丁目３‐１０ＳＡＮＤＢＯＸビル,,24,203,5160077,,,,,,,2024-11-21,1,,,,,ワコン,0
586,2200001043158,新規,0,2024-11-21,2024-11-21,グリーンボーイジャパン株式会社,,株式会社,岐阜県,関市,小迫間東別所８５２番地,,21,205,5013926,,,,,,,2024-11-21,1,,,,,グリーンボーイジャパン,0
596,2240001064150,新規,0,2024-11-21,2024-11-21,株式会社Ａｄ　Ｃａｌｌ　Ｐｒｏ,,株式会社,広島県,広島市東区,温品８丁目９番１６－１０２号,,34,102,7320033,,,,,,,2024-11-21,1,,,,,アドコールプロ,0
598,2250001020912,新規,0,2024-11-21,2024-11-21,株式会社桂月,,株式会社,山口県,美祢市,美東町真名１０７１番地,,35,213,7540122,,,,,,,2024-11-21,1,,,,,ケイゲツ,0
599,2250003003592,新規,0,2024-11-21,2024-11-21,合同会社ＳＨＹＹ,,合同会社,山口県,防府市,天神１丁目６－３３　１Ｆ,,35,206,7470034,,,,,,,2024-11-21,1,,,,,シー,0
600,2260001039621,新規,0,2024-11-21,2024-11-21,金甲山開発株式会社,,株式会社,岡山県,岡山市南区,飽浦８５２番地,,33,104,7028013,,,,,,,2024-11-21,1,,,,,キンコウザンカイハツ,0
608,2290801031056,新規,0,2024-11-21,2024-11-21,株式会社楠野工業,,株式会社,福岡県,田川郡香春町,大字高野１３９８番地８３,,40,601,8221403,,,,,,,2024-11-21,1,,,,,クスノコウギョウ,0
610,2300001013984,新規,0,2024-11-21,2024-11-21,ＲｉｖｅＲｉｓｅ株式会社,,株式会社,佐賀県,佐賀市,諸富町徳富６４番地４ヒルズ諸富ＩＩ１０２,00137095,41,201,8490000,,,,,,,2024-11-21,1,,,,,リヴライズ,0
621,2340003004664,新規,0,2024-11-21,2024-11-21,合同会社ＮＥＸＴ　ＭＯＶＥＭＥＮＴ,,合同会社,鹿児島県,鹿児島市,長田町３３番１６号ユーミー長田Ａ棟２０２号,,46,201,8920854,,,,,,,2024-11-21,1,,,,,ネクストムーブメント,0
622,2350003004787,新規,0,2024-11-21,2024-11-21,合同会社ドリム尚,,合同会社,宮崎県,宮崎市,吉村町江田原甲２１５番地１３アーバンコーポレーション３０１号,,45,201,8800841,,,,,,,2024-11-21,1,,,,,ドリムナオ,0
629,2370001051961,新規,0,2024-11-21,2024-11-21,株式会社むすばれ,,株式会社,宮城県,仙台市泉区,向陽台２丁目１９－７ダンデライオン１０２,,04,105,9813102,,,,,,,2024-11-21,1,,,,,ムスバレ,0
630,2370003006831,新規,0,2024-11-21,2024-11-21,合同会社ｒｅａｌｉｓ,,合同会社,宮城県,仙台市若林区,荒井２丁目８番地の２１ファミールＢ,,04,103,9840032,,,,,,,2024-11-21,1,,,,,レアリス,0
649,2430001093097,新規,0,2024-11-21,2024-11-21,株式会社ナリーズコーポレーション,,株式会社,北海道,札幌市北区,拓北六条２丁目２番３号,,01,102,0028066,,,,,,,2024-11-21,1,,,,,ナリーズコーポレーション,0
650,2430001093114,新規,0,2024-11-21,2024-11-21,Ｉｎａｎｋｌ株式会社,,株式会社,北海道,札幌市北区,北七条西４丁目１番地１トーカン札幌第一キャステール６０７,,01,102,0600807,,,,,,,2024-11-21,1,,,,,イナンクル,0
651,2430001093122,新規,0,2024-11-21,2024-11-21,株式会社Ｄ‐ＭＡＳＨ　ＬＩＮＥ,,株式会社,北海道,白老郡白老町,字萩野３４２番１８８,,01,578,0590922,,,,,,,2024-11-21,1,,,,,ディーマッシュライン,0
653,2450001014456,新規,0,2024-11-21,2024-11-21,株式会社ライトペイント,,株式会社,北海道,上川郡東神楽町,北一条西４丁目１番７号,,01,453,0711511,,,,,,,2024-11-21,1,,,,,ライトペイント,0
656,2500003003369,新規,0,2024-11-21,2024-11-21,合同会社成信,,合同会社,愛媛県,今治市,吉海町名１１８９－１,,38,202,7942114,,,,,,,2024-11-21,1,,,,,セイシン,0
658,2700150061397,新規,0,2024-11-21,2015-10-09,戸石いちごクラブ,,その他,長崎県,長崎市,戸石町１２６３－２,,42,201,8510113,,,,,,,2015-10-09,1,,,,,トイシイチゴクラブ,0
659,2700150124427,新規,0,2024-11-21,2024-11-21,株式会社　ＬＫ　Ｍｕｌｔｉｎａｔｉｏｎａｌ,,外国会社等,東京都,千代田区,内幸町２丁目１－１　飯野ビルディング９階,,13,101,1000011,大韓民国ソウル特別市江南区テヘラン路２通り２７，４階（駅三洞）,,,,,,2024-11-21,1,,,,,カブシキガイシヤエルケーマルチナシヨナル,0
660,2700150127553,新規,0,2024-11-21,2024-10-18,御津地区運営委員会,,その他,島根県,松江市,鹿島町御津３６０－１,,32,201,6900411,,,,,,,2024-10-18,1,,,,,ミツチクウンエイイインカイ,0
661,2700150127917,新規,0,2024-11-21,2024-11-21,Ｓｈｅｎｚｈｅｎ　ＭｉｎｇＫｅｋｅ　Ｔｅｃｈｎｏｌｏｇｙ　Ｃｏ．，ｌｔｄ,,外国会社等,,,,,,,,Ｍａｉｋｅｌｏｎｇ　Ｂｌｄ　４０８　＃６，Ｇａｏｘｉｎ　Ｓｏｕｔｈ　６　Ｒｏａｄ，Ｇａｏｘｉｎ　Ｃｏｍｍｕｎｉｔｙ，Ｙｕｅｈａｉ　Ｓｔｒｅｅｔ，Ｎａｎｓｈａｎ　Ｄｉｓｔｒｉｃｔ，Ｓｈｅｎｚｈｅｎ　Ｃｉｔｙ,,,,,,2024-11-21,1,,,,,シンセンミンケケテクノロジーカンパニーリミテッド,0
662,2700150127925,新規,0,2024-11-21,2024-11-21,深セン市玖奈科技有限公司,,外国会社等,,,,,,,,中国深セン市宝安区西郷街道塩田社区銀田工業区３７棟２１６,,,,,,2024-11-21,1,,,,,シンセンシキュウナカギユウゲンコウシ,0
670,3010001250045,新規,0,2024-11-21,2024-11-21,大国物産株式会社,,株式会社,東京都,文京区,白山１丁目６番４－２２０号,,13,105,1130001,,,,,,,2024-11-21,1,,,,,ダイコクブッサン,0
671,3010001250094,新規,0,2024-11-21,2024-11-21,株式会社ベルズキャピタル,,株式会社,東京都,中央区,銀座４丁目１３番１号,,13,102,1040061,,,,,,,2024-11-21,1,,,,,ベルズキャピタル,0
707,3010005039138,新規,0,2024-11-21,2024-11-21,一般社団法人菊川蓄電所,,その他の設立登記法人,東京都,千代田区,二番町３番地麹町スクエア株式会社シリウス・アドバイザリー内,,13,101,1020084,,,,,,,2024-11-21,1,,,,,キクカワチクデンショ,0
708,3010005039146,新規,0,2024-11-21,2024-11-21,一般社団法人Ｃｈｉｂａｋｉｔａ,,その他の設立登記法人,東京都,中央区,京橋２丁目１２番６号ＡＯＪ税理士法人内,,13,102,1040031,,,,,,,2024-11-21,1,,,,,チバキタ,0
710,3010101016404,新規,0,2024-11-21,2024-11-21,美通広告株式会社,,株式会社,東京都,八王子市,寺町４３－９,,13,201,1920073,,,,,,,2024-11-21,1,,,,,ビツコウコク,0
711,3010103002451,新規,0,2024-11-21,2024-11-21,合同会社Ｔｅｎ,,合同会社,東京都,八王子市,日吉町６番１５号,,13,201,1930836,,,,,,,2024-11-21,1,,,,,テン,0
717,3010403033799,新規,0,2024-11-21,2024-11-21,赤坂インベストメンツ合同会社,,合同会社,東京都,港区,六本木１丁目６番１号泉ガーデンタワー,,13,103,1060032,,,,,,,2024-11-21,1,,,,,アカサカインベストメンツ,0
718,3010403033857,新規,0,2024-11-21,2024-11-21,ハチ合同会社,,合同会社,東京都,港区,六本木１丁目９番１０号アークヒルズ仙石山森タワー４０階,,13,103,1060032,,,,,,,2024-11-21,1,,,,,ハチ,0
720,3010405023773,新規,0,2024-11-21,2024-11-21,野田ロジスティクス２特定目的会社,,その他の設立登記法人,東京都,港区,六本木１丁目６番１号泉ガーデンタワー,,13,103,1060032,,,,,,,2024-11-21,1,,,,,ノダロジスティクスツー,0
721,3010501053229,新規,0,2024-11-21,2024-11-21,株式会社キチヤマ,,株式会社,東京都,台東区,上野３丁目２８－６－六階,,13,106,1100005,,,,,,,2024-11-21,1,,,,,キチヤマ,0
734,3010903009514,新規,0,2024-11-21,2024-11-21,エヴァンス・インベストメント合名会社,,合名会社,東京都,世田谷区,成城３丁目８番１７号,,13,112,1570066,,,,,,,2024-11-21,1,,,,,エヴァンスインベストメント,0
742,3011001165910,新規,0,2024-11-21,2024-11-21,株式会社オルトコミュニケーションズ,,株式会社,東京都,渋谷区,笹塚２丁目２５－６レジディア笹塚ＩＩ８０９,00137093,13,113,1510073,,,,,,,2024-11-21,1,,,,,オルトコミュニケーションズ,0
745,3011101109635,新規,0,2024-11-21,2024-11-21,株式会社立晟商事,,株式会社,東京都,新宿区,高田馬場４丁目１８－１０サンハイツ３０３室,,13,104,1690075,,,,,,,2024-11-21,1,,,,,リッセイショウジ,0
752,3011501031380,新規,0,2024-11-21,2024-11-21,ＪＳＴＡＲ株式会社,,株式会社,東京都,北区,豊島３丁目３番１４号,,13,117,1140003,,,,,,,2024-11-21,1,,,,,ジェイスター,0
754,3011701027823,新規,0,2024-11-21,2024-11-21,株式会社惠陽システム,,株式会社,東京都,江戸川区,中央２丁目２６番６号,,13,123,1320021,,,,,,,2024-11-21,1,,,,,ケイヨウシステム,0
762,3012803003547,新規,0,2024-11-21,2024-11-21,合同会社ＦＵＫＡＺＡＷＡ,,合同会社,東京都,昭島市,朝日町３丁目７－１８井上ビル１階２号,,13,207,1960025,,,,,,,2024-11-21,1,,,,,フカザワ,0
773,3020001160219,新規,0,2024-11-21,2024-11-21,日創株式会社,,株式会社,神奈川県,川崎市幸区,塚越４丁目３４５－１ザ・ミレナリータワーズ１５１５号,,14,132,2120024,,,,,,,2024-11-21,1,,,,,ニッソウ,0
774,3020001160227,新規,0,2024-11-21,2024-11-21,千代理研株式会社,,株式会社,神奈川県,横浜市港北区,大曽根２丁目２５番５－２１０号,,14,109,2220003,,,,,,,2024-11-21,1,,,,,チヨリケン,0
775,3020001160235,新規,0,2024-11-21,2024-11-21,ＤＡＮＩＣＡ株式会社,,株式会社,神奈川県,横浜市中区,大平町２０番地,,14,104,2310859,,,,,,,2024-11-21,1,,,,,ダニツァ,0
779,3020003027283,新規,0,2024-11-21,2024-11-21,ＴＡＫＡＭＩ企画合同会社,,合同会社,神奈川県,横浜市神奈川区,金港町５－１４クアドリフォリオ８階,,14,102,2210056,,,,,,,2024-11-21,1,,,,,タカミキカク,0
795,3030001163476,新規,0,2024-11-21,2024-11-21,株式会社Ｔ．Ｙ．Ｋ,,株式会社,埼玉県,さいたま市南区,文蔵３丁目１４番１２－５号,,11,108,3360025,,,,,,,2024-11-21,1,,,,,ティーワイケー,0
796,3030001163575,新規,0,2024-11-21,2024-11-21,株式会社Ｎ＆Ａ　ｇｒｏｗ．,,株式会社,埼玉県,久喜市,栗原２丁目１番地１５,,11,232,3460012,,,,,,,2024-11-21,1,,,,,エヌアンドエーグロウ,0
798,3030003025534,新規,0,2024-11-21,2024-11-21,合同会社Ｔｈｒｅｅ　Ｅ　Ｃｏｎｓｔｒｕｃｔｉｏｎ,,合同会社,埼玉県,志木市,本町２丁目１２番８号,,11,228,3530004,,,,,,,2024-11-21,1,,,,,スリーイーコンストラクション,0
799,3030005021944,新規,0,2024-11-21,2024-11-21,社会福祉法人敬成会,,その他の設立登記法人,埼玉県,比企郡川島町,大字中山１９２９－１,,11,346,3500165,,,,,,,2024-11-21,1,,,,,ケイセイカイ,0
809,3050001055738,新規,0,2024-11-21,2024-11-21,ＬＵＣＫ株式会社,,株式会社,茨城県,土浦市,大和町５－１０－１０１室,,08,203,3000036,,,,,,,2024-11-21,1,,,,,ラック,0
810,3050001055746,新規,0,2024-11-21,2024-11-21,株式会社大龍,,株式会社,茨城県,下妻市,下妻丁３５０番地,,08,210,3040068,,,,,,,2024-11-21,1,,,,,タイリュウ,0
812,3050003008818,新規,0,2024-11-21,2024-11-21,合同会社ＫＯＴ,,合同会社,茨城県,古河市,中央町２丁目６番７号イストワール３０５号室,,08,204,3060033,,,,,,,2024-11-21,1,,,,,ケーオーティー,0
814,3060001037669,新規,0,2024-11-21,2024-11-21,株式会社ＹＫＧ,,株式会社,栃木県,宇都宮市,桜１丁目６番１号,,09,201,3200043,,,,,,,2024-11-21,1,,,,,ワイケージー,0
821,3070001042387,新規,0,2024-11-21,2024-11-21,株式会社アチーロ,,株式会社,群馬県,吾妻郡中之条町,大字伊勢町１４７６－１２,,10,421,3770423,,,,,,,2024-11-21,1,,,,,アチーロ,0
823,3080101025142,新規,0,2024-11-21,2024-11-21,株式会社ｂｌｕｅｇｏａｔ,,株式会社,静岡県,三島市,中央町６－２,,22,206,4110858,,,,,,,2024-11-21,1,,,,,ブルーゴート,0
824,3080103003204,新規,0,2024-11-21,2024-11-21,合同会社クラウディーレ・ケア,,合同会社,静岡県,富士宮市,馬見塚５８４番地,,22,207,4180113,,,,,,,2024-11-21,1,,,,,クラウディーレケア,0
825,3080401027581,新規,0,2024-11-21,2024-11-21,株式会社インプローブ,,株式会社,静岡県,浜松市中央区,山下町２番地の１ハイタウン山下３Ｆドリーム館,,22,138,4300941,,,,,,,2024-11-21,1,,,,,インプローブ,0
827,3100001038051,新規,0,2024-11-21,2024-11-21,株式会社ツカダトッシュ,,株式会社,長野県,長野市,大字西尾張部５６番地,,20,201,3810031,,,,,,,2024-11-21,1,,,,,ツカダトッシュ,0
829,3100003007871,新規,0,2024-11-21,2024-11-21,合同会社本田総合サービス,,合同会社,長野県,佐久市,湯原１６７－１,,20,217,3840307,,,,,,,2024-11-21,1,,,,,ホンダソウゴウサービス,0
831,3110005017158,新規,0,2024-11-21,2024-11-21,農事組合法人かみの,,その他の設立登記法人,新潟県,長岡市,中之島中条三之江２８７番地５,,15,202,9540216,,,,,,,2024-11-21,1,,,,,カミノ,0
843,3120001270305,新規,0,2024-11-21,2024-11-21,ＳＹＮＣ技研株式会社,,株式会社,大阪府,門真市,城垣町２４番１号,,27,223,5710072,,,,,,,2024-11-21,1,,,,,エスワイエヌシーギケン,0
844,3120001270412,新規,0,2024-11-21,2024-11-21,株式会社６６,,株式会社,大阪府,大阪市中央区,心斎橋筋２丁目３－２クイーンズコートビル本館１０３,,27,128,5420085,,,,,,,2024-11-21,1,,,,,ロクロク,0
845,3120001270445,新規,0,2024-11-21,2024-11-21,アタモアニメーション株式会社,,株式会社,大阪府,大阪市東淀川区,東中島１丁目６－１４新大阪第二日大ビル３０１,,27,114,5330033,,,,,,,2024-11-21,1,,,,,アタモアニメーション,0
846,3120001270453,新規,0,2024-11-21,2024-11-21,株式会社Ｒｅ・Ｌｉｆｅ,,株式会社,大阪府,大阪市福島区,海老江３丁目２３番４３－９０２号,,27,103,5530001,,,,,,,2024-11-21,1,,,,,リライフ,0
850,3120005024624,新規,0,2024-11-21,2024-11-21,マンション淀管理組合法人,,その他の設立登記法人,大阪府,大阪市北区,西天満２丁目２番３号ユニシオ西天満二丁目Ｄ０８号室,,27,127,5300047,,,,,,,2024-11-21,1,,,,,マンションヨド,0
853,3120101070621,新規,0,2024-11-21,2024-11-21,株式会社ＲｅＬＩＮＫ,,株式会社,大阪府,和泉市,葛の葉町１丁目５番４号,,27,219,5940081,,,,,,,2024-11-21,1,,,,,リーリンク,0
854,3120101070638,新規,0,2024-11-21,2024-11-21,エノネック株式会社,,株式会社,大阪府,堺市堺区,緑ヶ丘中町２丁３番１１号,,27,141,5900805,,,,,,,2024-11-21,1,,,,,エノネック,0
855,3120103006152,新規,0,2024-11-21,2024-11-21,合同会社ぴーす,,合同会社,大阪府,堺市中区,福田１６９番地５５,,27,142,5998241,,,,,,,2024-11-21,1,,,,,ピース,0
864,3130001078391,新規,0,2024-11-21,2024-11-21,高橋株式会社,,株式会社,京都府,京都市中京区,聚楽廻中町３２番地６,,26,104,6048403,,,,,,,2024-11-21,1,,,,,タカハシ,0
870,3150003003429,新規,0,2024-11-21,2024-11-21,合同会社金山工務店,,合同会社,奈良県,奈良市,東登美ヶ丘２丁目７－１－８,,29,201,6310002,,,,,,,2024-11-21,1,,,,,カナヤマコウムテン,0
871,3160003003337,新規,0,2024-11-21,2024-11-21,合同会社リサウインド,,合同会社,滋賀県,大津市,千町２丁目１６番８号,,25,201,5200863,,,,,,,2024-11-21,1,,,,,リサウインド,0
882,3180005020840,新規,0,2024-11-21,2024-11-21,一般社団法人中部民間救急ネットワーク,,その他の設立登記法人,愛知県,名古屋市天白区,植田西３丁目３１４番地安藤ハイツ５０１,,23,116,4680058,,,,,,,2024-11-21,1,,,,,チュウブミンカンキュウキュウネットワーク,0
883,3180301039254,新規,0,2024-11-21,2024-11-21,株式会社源悠会,,株式会社,愛知県,岡崎市,滝町字山籠１０７番地１,,23,202,4443173,,,,,,,2024-11-21,1,,,,,ゲンユウカイ,0
886,3190001031816,新規,0,2024-11-21,2024-11-21,株式会社近森正利商店,,株式会社,三重県,伊賀市,東高倉２２３３番地の１５,,24,216,5180024,,,,,,,2024-11-21,1,,,,,チカモリマサトシショウテン,0
889,3200001043140,新規,0,2024-11-21,2024-11-21,株式会社トリプルエイチ,,株式会社,岐阜県,各務原市,成清町２丁目２２番地,,21,213,5040935,,,,,,,2024-11-21,1,,,,,トリプルエイチ,0
890,3200001043157,新規,0,2024-11-21,2024-11-21,株式会社ＦＰＭ,,株式会社,岐阜県,岐阜市,旦島中１丁目１３番７号,,21,201,5020928,,,,,,,2024-11-21,1,,,,,エフピーエム,0
920,3290803004892,新規,0,2024-11-21,2024-11-21,合同会社よりそい,,合同会社,福岡県,遠賀郡岡垣町,旭南１７－１２,,40,383,8114216,,,,,,,2024-11-21,1,,,,,ヨリソイ,0
925,3340003004671,新規,0,2024-11-21,2024-11-21,メディカル・ケアセンター鹿児島合同会社,,合同会社,鹿児島県,鹿児島市,真砂本町１３番３号,,46,201,8900067,,,,,,,2024-11-21,1,,,,,メディカルケアセンターカゴシマ,0
926,3350001019299,新規,0,2024-11-21,2024-11-21,株式会社平田創設,,株式会社,宮崎県,宮崎市,大字恒久６６５４番地,,45,201,8800916,,,,,,,2024-11-21,1,,,,,ヒラタソウセツ,0
929,3360001034462,新規,0,2024-11-21,2024-11-21,株式会社Ｉ　Ｌａｂｓ,,株式会社,沖縄県,那覇市,久茂地３丁目２５番２０号Ｎｏｒｔｅ３０２号室,,47,201,9000015,,,,,,,2024-11-21,1,,,,,アイラブズ,0
939,3380003005897,新規,0,2024-11-21,2024-11-21,合同会社ＯＡＳＩＳ,,合同会社,福島県,郡山市,堂前町２７番７号ＲＨＩＮＯＳ堂前ビル１階２号室,,07,203,9638877,,,,,,,2024-11-21,1,,,,,オアシス,0
942,3410001013997,新規,0,2024-11-21,2024-11-21,株式会社ニュースエージェントＯＧＡ,,株式会社,秋田県,男鹿市,脇本脇本字段ノ越１１番地２,,05,206,0100342,,,,,,,2024-11-21,1,,,,,,0
948,3430001093121,新規,0,2024-11-21,2024-11-21,豊葉株式会社,,株式会社,北海道,札幌市中央区,南十条西１３丁目２－３２プチキューブ１Ｆ号室,,01,101,0640810,,,,,,,2024-11-21,1,,,,,ホウヨウ,0
949,3430003017004,新規,0,2024-11-21,2024-11-21,合同会社ＦＡＭＩＬＩＡ,,合同会社,北海道,滝川市,本町２丁目１番９号,,01,225,0730021,,,,,,,2024-11-21,1,,,,,ファミリア,0
952,3500003003368,新規,0,2024-11-21,2024-11-21,合同会社Ｃｌｅａｒ　Ｆｉｎａｎｃｅ,,合同会社,愛媛県,今治市,延喜甲２５１番地２３,,38,202,7940084,,,,,,,2024-11-21,1,,,,,クリアファイナンス,0
954,3700150127916,新規,0,2024-11-21,2024-11-21,Ｈｅｂｅｉｘｉｏｎｇａｎｘｉｏｎｇｙｕａｎｋｅｊｉｆａｚｈａｎｙｏｕｘｉａｎｇｏｎｇｓｉ,,外国会社等,,,,,,,,Ｒｏｏｍ　８３２１，Ｎｏ．１０　Ｊｉｘｉａｎｇ　Ｓｔｒｅｅｔ，Ｄａｚｈａｎｇｚｈｕａｎｇ　Ｖｉｌｌａｇｅ，Ａｎｘｉｎ　Ｔｏｗｎ，Ａｎｘｉｎ　Ｃｏｕｎｔｙ，Ｂａｏｄｉｎｇ　Ｃｉｔｙ，Ｈｅｂｅｉ　Ｐｒｏｖｉｎｃｅ,,,,,,2024-11-21,1,,,,,ヘベイションアンションユェンカギハッテンユウゲンコウシ,0
955,3700150127924,新規,0,2024-11-21,2024-11-21,Ｓｈｅｎｚｈｅｎ　Ｌｉｂｒｏ　Ｔｅｃｈｎｏｌｏｇｙ　Ｃｏ．，Ｌｔｄ．,,外国会社等,,,,,,,,Ｒｏｏｍ１２０１，Ｔｏｗｅｒ　Ｂ，ＧＡＬＡＸＹ　ＷＯＲＬＤ，Ｙａｂａｏ　Ｒｏａｄ，Ｂａｎｔｉａｎ　ｓｔｒｅｅｔ，Ｌｏｎｇｇａｎｇ　Ｄｉｓｔｒｉｃｔ，Ｓｈｅｎｚｈｅｎ，,,,,,,2024-11-21,1,,,,,シンセンラクモクラクカギユウゲンコウシ,0
960,4010001250044,新規,0,2024-11-21,2024-11-21,株式会社アレンジフィールド,,株式会社,東京都,千代田区,九段南３丁目８番１０号,,13,101,1020074,,,,,,,2024-11-21,1,,,,,アレンジフィールド,0
961,4010001250127,新規,0,2024-11-21,2024-11-21,株式会社ヴァリューサービス,,株式会社,東京都,中央区,日本橋本町４丁目１番１号,,13,102,1030023,,,,,,,2024-11-21,1,,,,,ヴァリューサービス,0
962,4010001250135,新規,0,2024-11-21,2024-11-21,株式会社ａｉＪｏｉｎ,,株式会社,東京都,千代田区,九段北１丁目９－５朝日九段マンション５０３,,13,101,1020073,,,,,,,2024-11-21,1,,,,,アイジョイン,0
993,4010003045558,新規,0,2024-11-21,2024-11-21,ＡＭＰ１０合同会社,,合同会社,東京都,千代田区,内神田１丁目３番７号４０１あすな会計事務所内,,13,101,1010047,,,,,,,2024-11-21,1,,,,,アンプテン,0
996,4010005039137,新規,0,2024-11-21,2024-11-21,一般社団法人Ｔｈｅ　Ｐｅａｋ　Ｓｅｒｉｅｓ　ＶＩＩ,,その他の設立登記法人,東京都,千代田区,四番町４番地９新東京国際リーガル内,,13,101,1020081,,,,,,,2024-11-21,1,,,,,ザピークシリーズセブン,0
999,4010403033831,新規,0,2024-11-21,2024-11-21,合同会社Ｖｉｒｇｉｎ　Ｂｅａｔ,,合同会社,東京都,港区,六本木３丁目８番７号六本木サクセスビル１Ｆ－Ｂ,,13,103,1060032,,,,,,,2024-11-21,1,,,,,ヴァージンビート,0
1000,4010403033880,新規,0,2024-11-21,2024-11-21,Ｚｅｂｒａ　ｇｒｏｕｐ合同会社,,合同会社,東京都,港区,南青山２丁目２番１５号,,13,103,1070062,,,,,,,2024-11-21,1,,,,,ゼブラグループ,0
1002,4010501053228,新規,0,2024-11-21,2024-11-21,芙楽欣株式会社,,株式会社,東京都,台東区,台東１丁目２４番９号ブライト秋葉原Ｂ１Ｆ,,13,106,1100016,,,,,,,2024-11-21,1,,,,,フラクキン,0
1014,4011001165918,新規,0,2024-11-21,2024-11-21,株式会社ＣＯＲＥ,,株式会社,東京都,渋谷区,恵比寿西２丁目８番４号ＥＸ恵比寿西ビル５階,,13,113,1500021,,,,,,,2024-11-21,1,,,,,コア,0
1021,4011103015211,新規,0,2024-11-21,2024-11-21,ＲＡＩＢＯＷ合同会社,,合同会社,東京都,新宿区,北新宿１丁目２３－２－２０３,,13,104,1690074,,,,,,,2024-11-21,1,,,,,レインボー,0
1024,4011701027830,新規,0,2024-11-21,2024-11-21,株式会社ＯＣＳ,,株式会社,東京都,江戸川区,江戸川４丁目２２番地１０,,13,123,1340013,,,,,,,2024-11-21,1,,,,,オーシーエス,0
1027,4011801045162,新規,0,2024-11-21,2024-11-21,株式会社Ｋ２ＣＯＭＰＡＮＹ,,株式会社,東京都,足立区,宮城１丁目３１番７号,,13,121,1200047,,,,,,,2024-11-21,1,,,,,ケーツーカンパニー,0
1028,4012701018571,新規,0,2024-11-21,2024-11-21,株式会社トモニ,,株式会社,東京都,小平市,花小金井２丁目１６番９号ロイヤル花小金井１０２,,13,211,1870002,,,,,,,2024-11-21,1,,,,,トモニ,0
1043,4020001160044,新規,0,2024-11-21,2024-11-21,株式会社北勇パートナーズ,,株式会社,神奈川県,横浜市青葉区,奈良３丁目２１番地４,,14,117,2270038,,,,,,,2024-11-21,1,,,,,ホクユウパートナーズ,0
1044,4020001160151,新規,0,2024-11-21,2024-11-21,株式会社メディアチューニングラボ,,株式会社,神奈川県,横浜市港北区,新横浜３丁目１７番地１２アルファスペース新横浜ビステーション新横浜内,,14,109,2220033,,,,,,,2024-11-21,1,,,,,メディアチューニングラボ,0
1045,4020001160201,新規,0,2024-11-21,2024-11-21,株式会社ティアンドエム,,株式会社,神奈川県,川崎市川崎区,大師駅前１丁目１６番７－２０７号,,14,131,2100802,,,,,,,2024-11-21,1,,,,,ティアンドエム,0
1049,4020003027266,新規,0,2024-11-21,2024-11-21,合同会社Ｇ．Ｎｅｘｕｓ,,合同会社,神奈川県,横浜市青葉区,美しが丘西３丁目７番地２９,,14,117,2250001,,,,,,,2024-11-21,1,,,,,ジーネクサス,0
1050,4020003027282,新規,0,2024-11-21,2024-11-21,元幸大合同会社,,合同会社,神奈川県,横浜市港北区,小机町９７４－２さくらガーデン小机３０１号,,14,109,2220036,,,,,,,2024-11-21,1,,,,,ゲンコウダイ,0
1051,4021001083821,新規,0,2024-11-21,2024-11-21,株式会社なかむら接骨院,,株式会社,神奈川県,綾瀬市,上土棚北４丁目６番７号,,14,218,2521111,,,,,,,2024-11-21,1,,,,,ナカムラセッコツイン,0
1054,4021003015260,新規,0,2024-11-21,2024-11-21,ＲＯＬＥＸ　ＡＵＴＯ合同会社,,合同会社,神奈川県,厚木市,下川入４６番地１平和荘１０１号室,,14,212,2430206,,,,,,,2024-11-21,1,,,,,ロレックスオート,0
1062,4030001163475,新規,0,2024-11-21,2024-11-21,株式会社Ｂｕｒｂａｎｋ,,株式会社,埼玉県,さいたま市桜区,大字五関１８８番地３,,11,106,3380815,,,,,,,2024-11-21,1,,,,,バーバンク,0
1063,4030001163509,新規,0,2024-11-21,2024-11-21,コウキン株式会社,,株式会社,埼玉県,蕨市,塚越２丁目１６番１４－１０２号,,11,223,3350002,,,,,,,2024-11-21,1,,,,,コウキン,0
1064,4030001163517,新規,0,2024-11-21,2024-11-21,株式会社バターテク,,株式会社,埼玉県,鴻巣市,赤見台２丁目２番１７－５０１号駅前プラザ,,11,217,3650064,,,,,,,2024-11-21,1,,,,,バターテク,0
1065,4030001163566,新規,0,2024-11-21,2024-11-21,株式会社Ｇ＆Ｍ,,株式会社,埼玉県,さいたま市北区,宮原町３丁目４７７番地２サンコート宮原２０１,,11,102,3310812,,,,,,,2024-11-21,1,,,,,ジーアンドエム,0
1066,4030001163574,新規,0,2024-11-21,2024-11-21,株式会社Ｎ＆Ａ　ｂｉｒｔｈ．,,株式会社,埼玉県,久喜市,栗原２丁目１番地１５,,11,232,3460012,,,,,,,2024-11-21,1,,,,,エヌアンドエーバース,0
1069,4030003025426,新規,0,2024-11-21,2024-11-21,合資会社ＩＣＣＨＩ,,合資会社,埼玉県,鶴ヶ島市,大字五味ヶ谷２５２番地４０,,11,241,3502202,,,,,,,2024-11-21,1,,,,,イッチ,0
1070,4030003025467,新規,0,2024-11-21,2024-11-21,合同会社ＢＬＵＥＢＡＳＥ,,合同会社,埼玉県,さいたま市岩槻区,大字大野島３７番地,,11,110,3390018,,,,,,,2024-11-21,1,,,,,ブルーベース,0
1071,4030003025533,新規,0,2024-11-21,2024-11-21,合同会社オビシス,,合同会社,埼玉県,所沢市,花園２丁目２４０６番地の２６,,11,208,3590047,,,,,,,2024-11-21,1,,,,,オビシス,0
1074,4040001136190,新規,0,2024-11-21,2024-11-21,株式会社Ｋｉｄｆａｍ,,株式会社,千葉県,印西市,中央南２丁目１番地１１４号,,12,231,2701340,,,,,,,2024-11-21,1,,,,,キッドファム,0
1075,4040001136240,新規,0,2024-11-21,2024-11-21,株式会社タテノフーズ,,株式会社,千葉県,柏市,北柏１丁目３番地５,,12,217,2770832,,,,,,,2024-11-21,1,,,,,タテノフーズ,0
1076,4040001136257,新規,0,2024-11-21,2024-11-21,株式会社ＫＰＴＹ,,株式会社,千葉県,船橋市,本町７丁目２１－６－２０７室,,12,204,2730005,,,,,,,2024-11-21,1,,,,,ケイピーティーワイ,0
1077,4040001136265,新規,0,2024-11-21,2024-11-21,株式会社ラテーメ,,株式会社,千葉県,市川市,東菅野４丁目２番６号,,12,203,2720823,,,,,,,2024-11-21,1,,,,,ラテーメ,0
1081,4050001055737,新規,0,2024-11-21,2024-11-21,株式会社やまそう,,株式会社,茨城県,鹿嶋市,大字下塙１２４４番地２,,08,222,3140025,,,,,,,2024-11-21,1,,,,,ヤマソウ,0
1083,4050003008817,新規,0,2024-11-21,2024-11-21,合同会社翔環,,合同会社,茨城県,水戸市,東前町１２０７番地,,08,201,3111132,,,,,,,2024-11-21,1,,,,,トワ,0
1086,4070003005671,新規,0,2024-11-21,2024-11-21,合同会社ＣｏＣｏ,,合同会社,群馬県,伊勢崎市,東町２５０２－１４,,10,204,3792231,,,,,,,2024-11-21,1,,,,,ココ,0
1099,4110001038859,新規,0,2024-11-21,2024-11-21,株式会社メイコー,,株式会社,新潟県,新潟市中央区,関屋御船蔵町３番地,,15,103,9518163,,,,,,,2024-11-21,1,,,,,メイコー,0
1111,4120001270460,新規,0,2024-11-21,2024-11-21,株式会社ＡＳＴＲＯＮＡＵＴ,,株式会社,大阪府,大阪市西成区,岸里３丁目６番８号,,27,122,5570041,,,,,,,2024-11-21,1,,,,,アストロノート,0
1112,4120001270477,新規,0,2024-11-21,2024-11-21,瑾瑜株式会社,,株式会社,大阪府,大阪市生野区,桃谷３丁目２０番２５号桃谷ハイツ２０６号室,,27,116,5440034,,,,,,,2024-11-21,1,,,,,キンユ,0
1116,4120003028007,新規,0,2024-11-21,2024-11-21,合同会社ジーバ,,合同会社,大阪府,大阪市中央区,南船場４丁目１０番５号南船場ＳＯＨＯビル７０２,,27,128,5420081,,,,,,,2024-11-21,1,,,,,ジーバ,0
1117,4120003028015,新規,0,2024-11-21,2024-11-21,合同会社日越運輸,,合同会社,大阪府,大阪市浪速区,恵美須西２丁目１４番１２－５０５号,,27,111,5560003,,,,,,,2024-11-21,1,,,,,ニチエツウンユ,0
1118,4120101070637,新規,0,2024-11-21,2024-11-21,Ｓ＆Ｌ株式会社,,株式会社,大阪府,堺市南区,畑２８５番地１,,27,145,5900124,,,,,,,2024-11-21,1,,,,,エスアンドエル,0
1127,4120901050061,新規,0,2024-11-21,2024-11-21,株式会社ＧＡＹＯ,,株式会社,大阪府,豊中市,浜２丁目２０番３０号,,27,203,5610817,,,,,,,2024-11-21,1,,,,,ガヨ,0
1130,4130001078374,新規,0,2024-11-21,2024-11-21,株式会社ＶＩＢＥ　ＢＬＥＮＤ,,株式会社,京都府,京都市下京区,朱雀正会町１－１,,26,106,6008841,,,,,,,2024-11-21,1,,,,,ヴァイブブレンド,0
1131,4130001078390,新規,0,2024-11-21,2024-11-21,Ａｒｉａｋｅ　Ｄｉｓｃｏｖｅｒｙ株式会社,,株式会社,京都府,京都市伏見区,東菱屋町４２８番地の２,,26,109,6128355,,,,,,,2024-11-21,1,,,,,アリアケティスカバリー,0
1140,4140001136478,新規,0,2024-11-21,2024-11-21,余韻の余韻株式会社,,株式会社,兵庫県,神戸市中央区,下山手通７丁目兵庫県旅館ホテル会館１階,,28,110,6500011,,,,,,,2024-11-21,1,,,,,ヨインノヨイン,0
1141,4140001136486,新規,0,2024-11-21,2024-11-21,株式会社西商事,,株式会社,兵庫県,神戸市長田区,房王寺町４丁目５番３号,,28,106,6530801,,,,,,,2024-11-21,1,,,,,ニシショウジ,0
1153,4190001031815,新規,0,2024-11-21,2024-11-21,株式会社フェイスホールディングス,,株式会社,三重県,松阪市,東町１１０８番地１フェイステラス内,,24,204,5150012,,,,,,,2024-11-21,1,,,,,フェイスホールディングス,0
1164,4240001064149,新規,0,2024-11-21,2024-11-21,株式会社ＫＩＣ,,株式会社,広島県,広島市中区,本通７番２９号,,34,101,7300035,,,,,,,2024-11-21,1,,,,,ケーアイシー,0
1173,4270001009092,新規,0,2024-11-21,2024-11-21,椿造園株式会社,,株式会社,鳥取県,西伯郡伯耆町,大殿１９０３番地１,,31,390,6894121,,,,,,,2024-11-21,1,,,,,ツバキゾウエン,0
1180,4290001108041,新規,0,2024-11-21,2024-11-21,株式会社ＦＵＲＵＫＡＷＡ　ＯＦＦＩＣＥ,,株式会社,福岡県,福岡市中央区,清川２丁目１７－２０－３０２,,40,133,8100005,,,,,,,2024-11-21,1,,,,,フルカワオフィス,0
1183,4290003016069,新規,0,2024-11-21,2024-11-21,合同会社ＳｐａｃｅＤｏｏｒｓ,,合同会社,福岡県,福岡市早良区,百道浜３丁目４番１０－２０３号アクアコート１０番館,,40,137,8140001,,,,,,,2024-11-21,1,,,,,スペースドアーズ,0
1184,4290003016085,新規,0,2024-11-21,2024-11-21,Ａｋａｔｓｕｋｉ　Ｃｏｎｓｕｌｔｉｎｇ合同会社,,合同会社,福岡県,小郡市,希みが丘５丁目６番地１２,,40,216,8380107,,,,,,,2024-11-21,1,,,,,アカツキコンサルティング,0
1190,4320001020820,新規,0,2024-11-21,2024-11-21,株式会社ＭＮＳ,,株式会社,大分県,大分市,都町３丁目５番４号第一都町ファーストビル２０２,,44,201,8700034,,,,,,,2024-11-21,1,,,,,エムエヌエス,0
1193,4340001026948,新規,0,2024-11-21,2024-11-21,株式会社ユウテック,,株式会社,鹿児島県,熊毛郡屋久島町,安房２３５３番地４８３,,46,505,8914311,,,,,,,2024-11-21,1,,,,,ユウテック,0
1195,4340003004670,新規,0,2024-11-21,2024-11-21,合同会社トータル・カーケアー,,合同会社,鹿児島県,西之表市,西之表１５２６０,,46,213,8913101,,,,,,,2024-11-21,1,,,,,トータルカーケアー,0
1202,4360003014478,新規,0,2024-11-21,2024-11-21,合同会社８ｔｏ９,,合同会社,沖縄県,南城市,大里字高平３２フォレスガーデンＫ４０５号室,,47,215,9011205,,,,,,,2024-11-21,1,,,,,ハチトク,0
1209,4390001017802,新規,0,2024-11-21,2024-11-21,ＬｉＦＥ＆ＧＬＡＮｚ株式会社,,株式会社,山形県,山形市,馬見ケ崎３丁目１８番１４号,,06,201,9900810,,,,,,,2024-11-21,1,,,,,ライフアンドグランツ,0
1210,4410001013996,新規,0,2024-11-21,2024-11-21,株式会社プログレスダイカスト秋田,,株式会社,秋田県,仙北郡美郷町,中野字川原５９番地,,05,434,0191521,,,,,,,2024-11-21,1,,,,,プログレスダイカストアキタ,0
1218,4430001093095,新規,0,2024-11-21,2024-11-21,株式会社ＢＢＡ,,株式会社,北海道,札幌市北区,北八条西１丁目３番地ＯＮＥ札幌ステーションタワー１２０２,,01,102,0600808,,,,,,,2024-11-21,1,,,,,ビービーエー,0
1219,4430001093104,新規,0,2024-11-21,2024-11-21,株式会社ＮＳＮ,,株式会社,北海道,札幌市清田区,北野五条２丁目６番１５号ＬＡＮＤビル２階,,01,110,0040865,,,,,,,2024-11-21,1,,,,,エヌエスエヌ,0
1220,4430003017003,新規,0,2024-11-21,2024-11-21,合同会社ＧＴＡ,,合同会社,北海道,札幌市北区,北二十条西５丁目２番５０号ＣＲＯＳＳ　ＰＯＩＮＴ４０５号室,,01,102,0010020,,,,,,,2024-11-21,1,,,,,ジーティーエー,0
1221,4430003017011,新規,0,2024-11-21,2024-11-21,合同会社ＳｕＳ,,合同会社,北海道,札幌市中央区,南六条西２丁目５番地１５ＡＭＳＴＯＷＥＲ２１０６号,,01,101,0640806,,,,,,,2024-11-21,1,,,,,エスユーエス,0
1222,4490003001959,新規,0,2024-11-21,2024-11-21,合同会社国沢,,合同会社,高知県,須崎市,泉町６番７号,,39,206,7850017,,,,,,,2024-11-21,1,,,,,,0
1225,4700150055380,新規,0,2024-11-21,2015-10-09,米子市土地改良協会,,その他,鳥取県,米子市,博労町４丁目１６９番地１,,31,202,6830052,,,,,,,2015-10-09,1,,,,,ヨナゴシトチカイリヨウキヨウカイ,0
1226,4700150127923,新規,0,2024-11-21,2024-11-21,ｑｕａｎｚｈｏｕｓｈｉａｏｌｉｒｕｉｅｒｄｉａｎｚｉｓｈａｎｇｗｕｙｏｕｘｉａｎｇｏｎｇｓｉ,,外国会社等,,,,,,,,Ｎｏ２７９　Ｊｉｎｚｈｕａｎｇ　Ｓｔｒｅｅｔ，Ｆｅｎｇｙｕ　Ｃｏｍｍｕｎｉｔｙ，Ｃｈｅｎｇｄｏｎｇ　Ｓｔｒｅｅｔ　Ｒｏｏｍ　３３０７，Ｎｏ６　Ｂｕｉｌｄｉｎｇ，Ｊｉｎｆｅｎｇｙｕ　Ｇａｒｄｅｎ　Ｆｅｎｇｚｅ　Ｄｉｓｔｒｉｃｔ／Ｑｕａｎｚｈｏｕ　Ｃｉｔｙ　Ｆｕｊｉａｎ　Ｐｒｏｖｉｎｃｅ,,,,,,2024-11-21,1,,,,,センシュウシオクリズイジデンシショウムユウゲンコウシ,0
1240,5010001249928,新規,0,2024-11-21,2024-11-21,株式会社ｌｏｎｇｅｖｉｔｙ　Ｌａｂ,,株式会社,東京都,中央区,銀座３丁目７番１０号－８Ｆ,,13,102,1040061,,,,,,,2024-11-21,1,,,,,ロンジェヴィティラボ,0
1241,5010001250076,新規,0,2024-11-21,2024-11-21,株式会社ＲＡＣＴＨＥＲＡ,,株式会社,東京都,中央区,日本橋２丁目７番１号,,13,102,1030027,,,,,,,2024-11-21,1,,,,,ラクセラ,0
1271,5010003045549,新規,0,2024-11-21,2024-11-21,合同会社アイエスティー,,合同会社,東京都,中央区,銀座１丁目１２番４号Ｎ＆ＥＢＬＤ．６Ｆ,,13,102,1040061,,,,,,,2024-11-21,1,,,,,アイエスティー,0
1272,5010003045557,新規,0,2024-11-21,2024-11-21,Ｆ．クリエイト合同会社,,合同会社,東京都,中央区,日本橋室町１丁目１１番１２号日本橋水野ビル７階,,13,102,1030022,,,,,,,2024-11-21,1,,,,,エフクリエイト,0
1273,5010005039128,新規,0,2024-11-21,2024-11-21,一般社団法人空き家対策推進機構,,その他の設立登記法人,東京都,千代田区,永田町２丁目１７番３－７０２号,,13,101,1000014,,,,,,,2024-11-21,1,,,,,アキヤタイサクスイシンキコウ,0
1274,5010005039136,新規,0,2024-11-21,2024-11-21,一般社団法人Ｔｈｅ　Ｐｅａｋ　Ｓｅｒｉｅｓ　ＶＩ,,その他の設立登記法人,東京都,千代田区,四番町４番地９新東京国際リーガル内,,13,101,1020081,,,,,,,2024-11-21,1,,,,,ザピークシリーズシックス,0
1275,5010005039144,新規,0,2024-11-21,2024-11-21,一般社団法人グリーンビルＰＪ３,,その他の設立登記法人,東京都,中央区,日本橋１丁目４番１号,,13,102,1030027,,,,,,,2024-11-21,1,,,,,グリーンビルピージェイスリー,0
1279,5010401186416,新規,0,2024-11-21,2024-11-21,株式会社Ｔｒａｎｓ,,株式会社,東京都,港区,西新橋２丁目４番２号,,13,103,1050003,,,,,,,2024-11-21,1,,,,,トランス,0
1280,5010401186548,新規,0,2024-11-21,2024-11-21,ＡＬＩ株式会社,,株式会社,東京都,港区,三田５丁目１１番１０号,,13,103,1080073,,,,,,,2024-11-21,1,,,,,エイエルアイ,0
1281,5010403033806,新規,0,2024-11-21,2024-11-21,合同会社ＬＢＭ　ＪＡＰＡＮ,,合同会社,東京都,港区,浜松町２丁目２番１５号浜松町ダイヤビル２Ｆ,,13,103,1050013,,,,,,,2024-11-21,1,,,,,エルビーエムジャパン,0
1286,5010701046848,新規,0,2024-11-21,2024-11-21,Ａｓｓｅｔ　Ｒｅｎｏｖａｔｉｏｎ株式会社,,株式会社,東京都,品川区,東五反田２丁目５－２ＴＨＥＣＡＳＫＧＯＴＡＮＤＡ,,13,109,1410022,,,,,,,2024-11-21,1,,,,,アセットリノベーション,0
1288,5010803005149,新規,0,2024-11-21,2024-11-21,合同会社ＣＯ‐Ｌｉｇｈｔ,,合同会社,東京都,大田区,久が原６丁目１０番１５号,,13,111,1460085,,,,,,,2024-11-21,1,,,,,コライト,0
1291,5010903009504,新規,0,2024-11-21,2024-11-21,合同会社アンバースデイ,,合同会社,東京都,世田谷区,上馬４丁目１５番１１号,,13,112,1540011,,,,,,,2024-11-21,1,,,,,アンバースデイ,0
1303,5011001165917,新規,0,2024-11-21,2024-11-21,株式会社ハイタッチ,,株式会社,東京都,渋谷区,神宮前６丁目１２－２５,,13,113,1500001,,,,,,,2024-11-21,1,,,,,ハイタッチ,0
1304,5011003020228,新規,0,2024-11-21,2024-11-21,合同会社Ｔｏｕｒｂｉｌｌｏｎ,,合同会社,東京都,渋谷区,渋谷２丁目１９－１５宮益坂ビルディング６０９,,13,113,1500002,,,,,,,2024-11-21,1,,,,,ツアービリオン,0
1318,5011801045178,新規,0,2024-11-21,2024-11-21,株式会社敬愛コンサルティング,,株式会社,東京都,葛飾区,新小岩２丁目１番９－２０２号シティテラス新小岩,,13,122,1240024,,,,,,,2024-11-21,1,,,,,ケイアイコンサルティング,0
1319,5011801045186,新規,0,2024-11-21,2024-11-21,万栄株式会社,,株式会社,東京都,葛飾区,柴又３丁目１１－１１カエデ柴又１０３,,13,122,1250052,,,,,,,2024-11-21,1,,,,,マンエイ,0
1334,5020001160209,新規,0,2024-11-21,2024-11-21,株式会社ＨＫ,,株式会社,神奈川県,川崎市中原区,田尻町８４番地１メゾンサンパ３０５,,14,133,2110014,,,,,,,2024-11-21,1,,,,,エイチケー,0
1335,5020001160233,新規,0,2024-11-21,2024-11-21,ＣＬファーストビズテック株式会社,,株式会社,神奈川県,横浜市西区,北幸１丁目５－１０ＪＰＲ横浜ビル８Ｆ３０８,,14,103,2200004,,,,,,,2024-11-21,1,,,,,シーエルファーストビズテック,0
1336,5020001160332,新規,0,2024-11-21,2024-11-21,株式会社リノヴィスタ,,株式会社,神奈川県,横浜市青葉区,黒須田３１番地３３,,14,117,2250022,,,,,,,2024-11-21,1,,,,,リノヴィスタ,0
1339,5020003027281,新規,0,2024-11-21,2024-11-21,合同会社ＧＯＡＴ　ｓｔｒｕｃｔｕｒｅ,,合同会社,神奈川県,横浜市栄区,笠間３丁目２２番３６号,,14,115,2470006,,,,,,,2024-11-21,1,,,,,ゴートストラクチャー,0
1345,5021001083804,新規,0,2024-11-21,2024-11-21,不群株式会社,,株式会社,神奈川県,秦野市,南矢名２２２３番地の４東海ビル１１２Ｄ,,14,211,2570003,,,,,,,2024-11-21,1,,,,,フグン,0
1346,5021003015251,新規,0,2024-11-21,2024-11-21,神奈川麦酒合同会社,,合同会社,神奈川県,相模原市緑区,佐野川６５９番地３・２階,,14,151,2520181,,,,,,,2024-11-21,1,,,,,カナガワバクシュ,0
1348,5030001163573,新規,0,2024-11-21,2024-11-21,株式会社Ｎ＆Ａ　ｔｒｕｓｔ．,,株式会社,埼玉県,久喜市,栗原２丁目１番地１５,,11,232,3460012,,,,,,,2024-11-21,1,,,,,エヌアンドエートラスト,0
1349,5030003025524,新規,0,2024-11-21,2024-11-21,合同会社Ｒｉｖｉｅｒｅ,,合同会社,埼玉県,さいたま市浦和区,北浦和３丁目８番４号シンセリティハイツ１０１号室,,11,107,3300074,,,,,,,2024-11-21,1,,,,,リヴィェール,0
1350,5030003025540,新規,0,2024-11-21,2024-11-21,合同会社ＨＯＬＬＹ,,合同会社,埼玉県,児玉郡神川町,大字元原１６０番地２,,11,383,3670241,,,,,,,2024-11-21,1,,,,,ホーリー,0
1357,5050001055736,新規,0,2024-11-21,2024-11-21,浩翔国際株式会社,,株式会社,茨城県,坂東市,辺田１０８９番地１１,,08,228,3060632,,,,,,,2024-11-21,1,,,,,コウショウコクサイ,0
1358,5050001055744,新規,0,2024-11-21,2024-11-21,株式会社エステートパートナーズ,,株式会社,茨城県,古河市,本町１丁目２番１－２７０１号,,08,204,3060023,,,,,,,2024-11-21,1,,,,,エステートパートナーズ,0
1359,5050001055752,新規,0,2024-11-21,2024-11-21,株式会社ツナグ,,株式会社,茨城県,つくば市,天久保１丁目１０番地３１,,08,220,3050005,,,,,,,2024-11-21,1,,,,,ツナグ,0
1362,5050003008824,新規,0,2024-11-21,2024-11-21,合同会社こかい,,合同会社,茨城県,筑西市,古内５９７番地,,08,227,3004544,,,,,,,2024-11-21,1,,,,,コカイ,0
1364,5060001037650,新規,0,2024-11-21,2024-11-21,ＰａｎｄａＰｏｗｅｒ株式会社,,株式会社,栃木県,宇都宮市,一条２丁目６－９,,09,201,3200821,,,,,,,2024-11-21,1,,,,,,0
1370,5070003005670,新規,0,2024-11-21,2024-11-21,ＨＡＲＯＯＮ　ＴＲＡＤＩＮＧ合同会社,,合同会社,群馬県,太田市,西本町５５番５－Ｉ１０１号,,10,205,3730033,,,,,,,2024-11-21,1,,,,,ハローントレーディング,0
1379,5110001038858,新規,0,2024-11-21,2024-11-21,株式会社ミライテラス経営,,株式会社,新潟県,十日町市,西本町３丁目２００番地６,,15,210,9480072,,,,,,,2024-11-21,1,,,,,ミライテラスケイエイ,0
1391,5120001270451,新規,0,2024-11-21,2024-11-21,長栄株式会社,,株式会社,大阪府,大阪市淀川区,西宮原１丁目６番６０－１１１０号,,27,123,5320004,,,,,,,2024-11-21,1,,,,,チョウエイ,0
1392,5120003028006,新規,0,2024-11-21,2024-11-21,合同会社ｇｉｒａｆｆｅ,,合同会社,大阪府,大阪市東住吉区,鷹合１丁目１９‐６,,27,121,5460014,,,,,,,2024-11-21,1,,,,,ジラフ,0
1393,5120003028014,新規,0,2024-11-21,2024-11-21,ドントパニック合同会社,,合同会社,大阪府,大阪市都島区,中野町４丁目７番２号３－Ｃ号室,,27,102,5340027,,,,,,,2024-11-21,1,,,,,ドントパニック,0
1395,5120005024622,新規,0,2024-11-21,2024-11-21,一般社団法人介誠会,,その他の設立登記法人,大阪府,大阪市西淀川区,大和田５丁目１番１０号,,27,113,5550032,,,,,,,2024-11-21,1,,,,,カイセイカイ,0
1397,5120101070628,新規,0,2024-11-21,2024-11-21,株式会社寺山商店,,株式会社,大阪府,堺市東区,日置荘北町２丁２５番８号,,27,143,5998111,,,,,,,2024-11-21,1,,,,,テラヤマショウテン,0
1401,5120903005418,新規,0,2024-11-21,2024-11-21,合同会社ナンバー,,合同会社,大阪府,豊中市,東豊中町５丁目２－１１２－３０６,,27,203,5600003,,,,,,,2024-11-21,1,,,,,ナンバー,0
1406,5130001078398,新規,0,2024-11-21,2024-11-21,株式会社ＨＹＯＵＧＥＬ,,株式会社,京都府,舞鶴市,字円満寺１３２番地,,26,202,6240854,,,,,,,2024-11-21,1,,,,,ヒョウゲル,0
1412,5140001136477,新規,0,2024-11-21,2024-11-21,株式会社逢享配送,00137085,株式会社,兵庫県,神戸市須磨区,白川台６丁目１２－９パンシオン白川台２０５,,28,107,6540103,,,,,,,2024-11-21,1,,,,,オオミチハイソウ,0
1413,5140001136485,新規,0,2024-11-21,2024-11-21,リノシスト株式会社,,株式会社,兵庫県,加古川市,平岡町二俣７５３番９,,28,210,6750111,,,,,,,2024-11-21,1,,,,,リノシスト,0
1430,5180001163716,新規,0,2024-11-21,2024-11-21,株式会社Ｋ．Ｉ．Ｔ,,株式会社,愛知県,名古屋市中区,新栄１丁目４０番２４号Ｋ．オルティア３０１号,,23,106,4600007,,,,,,,2024-11-21,1,,,,,ケーアイティー,0
1431,5180001164276,新規,0,2024-11-21,2024-11-21,株式会社ヴァニイユ,,株式会社,愛知県,稲沢市,祖父江町二俣下瀬古９４７番地,,23,220,4950013,,,,,,,2024-11-21,1,,,,,ヴァニイユ,0
1434,5180003027638,新規,0,2024-11-21,2024-11-21,合同会社ＦＤ,,合同会社,愛知県,名古屋市中区,錦３丁目１４番３１号タチバナビル５Ｆ,,23,106,4600003,,,,,,,2024-11-21,1,,,,,フリーダム,0
1443,5230005009422,新規,0,2024-11-21,2024-11-21,一般社団法人Ｅエネ・マネジメント協会,,その他の設立登記法人,富山県,中新川郡立山町,下田７７番地１,,16,323,9301361,,,,,,,2024-11-21,1,,,,,イーエネマネジメント,0
1447,5240001064123,新規,0,2024-11-21,2024-11-21,株式会社川吉住建,,株式会社,広島県,安芸郡府中町,茂陰１丁目１番８号,,34,302,7350029,,,,,,,2024-11-21,1,,,,,カワヨシジュウケン,0
1449,5240003006949,新規,0,2024-11-21,2024-11-21,フェゲサ合同会社,,合同会社,広島県,広島市佐伯区,五日市町上河内９２－２,,34,108,7315100,,,,,,,2024-11-21,1,,,,,フェゲサ,0
1452,5270001009091,新規,0,2024-11-21,2024-11-21,株式会社ｂｏｕｑｕｅｔ,,株式会社,鳥取県,鳥取市,的場３丁目９３番地,,31,201,6800873,,,,,,,2024-11-21,1,,,,,ブーケ,0
1467,5330003010652,新規,0,2024-11-21,2024-11-21,吉剛商事合同会社,,合同会社,熊本県,熊本市中央区,本荘４丁目１０番１１－１００２号室,,43,101,8600811,,,,,,,2024-11-21,1,,,,,ヨシオカショウジ,0
1468,5340001026947,新規,0,2024-11-21,2024-11-21,フィールド株式会社,,株式会社,鹿児島県,鹿児島市,西谷山３丁目２６番６号,,46,201,8910117,,,,,,,2024-11-21,1,,,,,フィールド,0
1470,5350001019297,新規,0,2024-11-21,2024-11-21,株式会社岡部,,株式会社,宮崎県,延岡市,南一ケ岡７丁目８３４８番地１４７,,45,203,8890506,,,,,,,2024-11-21,1,,,,,オカベ,0
1472,5360001034436,新規,0,2024-11-21,2024-11-21,株式会社ａｎｇｅ,,株式会社,沖縄県,うるま市,石川白浜１丁目３‐７第一伊佐ビル１階,,47,213,9041105,,,,,,,2024-11-21,1,,,,,アンジュ,0
1473,5360001034460,新規,0,2024-11-21,2024-11-21,株式会社信Ｓｈｉｎ,,株式会社,沖縄県,糸満市,西崎６丁目５番３号スズヤアパート４０２,,47,210,9010305,,,,,,,2024-11-21,1,,,,,シンシン,0
1476,5370001051959,新規,0,2024-11-21,2024-11-21,株式会社ＮＵＭＡ,,株式会社,宮城県,仙台市青葉区,小松島新堤９番４号,,04,101,9810906,,,,,,,2024-11-21,1,,,,,ヌマ,0
1480,5390001017801,新規,0,2024-11-21,2024-11-21,いろは蔵タウンマネジメント株式会社,,株式会社,山形県,酒田市,上本町７番２４号,,06,204,9980042,,,,,,,2024-11-21,1,,,,,イロハグラタウンマネジメント,0
1487,5410005006608,新規,0,2024-11-21,2024-11-21,一般社団法人ＡＩＵアフタースクール,,その他の設立登記法人,秋田県,秋田市,雄和椿川字奥椿岱１９３番地２,,05,201,0101211,,,,,,,2024-11-21,1,,,,,エーアイユーアフタースクール,0
1489,5430001093128,新規,0,2024-11-21,2024-11-21,株式会社Ｆ・Ｏシステム,,株式会社,北海道,札幌市白石区,川下２１４３番地５,,01,104,0030869,,,,,,,2024-11-21,1,,,,,エフオーシステム,0
1493,5430005015111,新規,0,2024-11-21,2024-11-21,特定非営利活動法人Ｂｒｉｄｇｅ　ｆｏｒ　ｔｈｅ　ｂｉｒｄｓ,,その他の設立登記法人,北海道,札幌市厚別区,厚別南１丁目２３番１－１３０１号,,01,108,0040022,,,,,,,2024-11-21,1,,,,,ブリッジフォーザバーズ,0
1496,5490005006963,新規,0,2024-11-21,2024-11-21,ＮＰＯ法人ひまわりのお宿,,その他の設立登記法人,高知県,高知市,本町５丁目１－１,,39,201,7800870,,,,,,,2024-11-21,1,,,,,,0
1497,5500003003374,新規,0,2024-11-21,2024-11-21,合同会社優,,合同会社,愛媛県,松山市,束本１丁目７番２５号シャルム束本２０２,,38,201,7900916,,,,,,,2024-11-21,1,,,,,ユウ,0
1498,5700150127922,新規,0,2024-11-21,2024-11-21,瑞固衢州新材料科技有限公司,,外国会社等,愛知県,愛西市,大野町茶木６２,,23,232,4960922,中国浙江省衢州市龍游県東華街道浙江龍游経済開発区城南化工集中区鼎新路の南、開発大道の西,,,,,,2024-11-21,1,,,,,ズイコクシュウシンザイリョウカギユウゲンコウシ,0
1512,6010001249563,新規,0,2024-11-21,2024-11-21,株式会社ＣＲＥＡ,,株式会社,東京都,中央区,銀座１丁目１２番４号Ｎ＆ＥＢＬＤ．６Ｆ,,13,102,1040061,,,,,,,2024-11-21,1,,,,,クレア,0
1513,6010001250067,新規,0,2024-11-21,2024-11-21,株式会社Ｃｏｍｍｏｎ,,株式会社,東京都,千代田区,麹町３丁目２番地１３－２１０２号,,13,101,1020083,,,,,,,2024-11-21,1,,,,,コモン,0
1514,6010001250125,新規,0,2024-11-21,2024-11-21,ＳＡＢＲＥ　ＨＯＬＤＩＮＧＳ　ＪＡＰＡＮ株式会社,,株式会社,東京都,千代田区,五番町１２番地７－２０４３,,13,101,1020076,,,,,,,2024-11-21,1,,,,,サブレホールディングスジャパン,0
1546,6010003045515,新規,0,2024-11-21,2024-11-21,ＰＯＬＹＩＭＡＧＥ合同会社,,合同会社,東京都,千代田区,神田三崎町２丁目１０番１１号（Ｐｅｇビル）５Ａ－４号室,,13,101,1010061,,,,,,,2024-11-21,1,,,,,ポリイメージ,0
1547,6010003045548,新規,0,2024-11-21,2024-11-21,合同会社ａｎｅｍｏｎｅ,,合同会社,東京都,千代田区,外神田５丁目１番１０号,,13,101,1010021,,,,,,,2024-11-21,1,,,,,アネモネ,0
1551,6010005039135,新規,0,2024-11-21,2024-11-21,一般社団法人Ｔｈｅ　Ｐｅａｋ　Ｓｅｒｉｅｓ　Ｖ,,その他の設立登記法人,東京都,千代田区,四番町４番地９新東京国際リーガル内,,13,101,1020081,,,,,,,2024-11-21,1,,,,,ザピークシリーズファイブ,0
1556,6010401186539,新規,0,2024-11-21,2024-11-21,株式会社ドルフィン・バリュー・アップ１７号Ｂ,,株式会社,東京都,港区,芝公園１丁目１番１号住友不動産御成門タワー７階,,13,103,1050011,,,,,,,2024-11-21,1,,,,,ドルフィンバリューアップジュウナナゴウビー,0
1557,6010401186555,新規,0,2024-11-21,2024-11-21,株式会社Ａ‐ＣＯＬＯＲ,,株式会社,東京都,港区,北青山１丁目３番１号アールキューブ青山３Ｆ,,13,103,1070061,,,,,,,2024-11-21,1,,,,,エーカラー,0
1558,6010401186596,新規,0,2024-11-21,2024-11-21,従業員承継株式会社,,株式会社,東京都,港区,虎ノ門５丁目９番１号,,13,103,1050001,,,,,,,2024-11-21,1,,,,,ジュウギョウインショウケイ,0
1564,6010405023779,新規,0,2024-11-21,2024-11-21,弁理士法人薫風国際特許商標事務所,,その他の設立登記法人,東京都,港区,芝４丁目１０番５号６階,,13,103,1080014,,,,,,,2024-11-21,1,,,,,クンプウコクサイトッキョショウヒョウジムショ,0
1581,6011101109649,新規,0,2024-11-21,2024-11-21,新マルシアンホールディングス株式会社,,株式会社,東京都,新宿区,新宿１丁目３１番１２号,,13,104,1600022,,,,,,,2024-11-21,1,,,,,シンマルシアンホールディングス,0
1591,6011803006549,新規,0,2024-11-21,2024-11-21,向岸合同会社,,合同会社,東京都,足立区,大谷田４丁目１９－１７－４０５,,13,121,1200001,,,,,,,2024-11-21,1,,,,,ムカイキシ,0
1600,6020001160158,新規,0,2024-11-21,2024-11-21,株式会社Ｎｅｘｔ,,株式会社,神奈川県,横浜市泉区,岡津町７２－７,,14,116,2450003,,,,,,,2024-11-21,1,,,,,,0
1601,6020001160174,新規,0,2024-11-21,2024-11-21,株式会社Ｍａｇｉｃ　Ｓｉｌｖｅｒｙ,,株式会社,神奈川県,横浜市緑区,青砥町７１９番地８,,14,113,2260022,,,,,,,2024-11-21,1,,,,,マジックシルバリー,0
1609,6020003027264,新規,0,2024-11-21,2024-11-21,ブルーム合同会社,,合同会社,神奈川県,横浜市磯子区,杉田４丁目４番２４号,,14,107,2350033,,,,,,,2024-11-21,1,,,,,ブルーム,0
1610,6020003027272,新規,0,2024-11-21,2024-11-21,合同会社マンタ,,合同会社,神奈川県,川崎市中原区,井田２丁目８番２６号,,14,133,2110035,,,,,,,2024-11-21,1,,,,,マンタ,0
1611,6020003027280,新規,0,2024-11-21,2024-11-21,合同会社フュートラム,,合同会社,神奈川県,横浜市神奈川区,金港町５－１４クアドリフォリオ８階,,14,102,2210056,,,,,,,2024-11-21,1,,,,,フュートラム,0
1612,6020005016612,新規,0,2024-11-21,2024-11-21,一般社団法人横浜障害支援協会,,その他の設立登記法人,神奈川県,横浜市都筑区,池辺町３３６９番地,,14,118,2240053,,,,,,,2024-11-21,1,,,,,ヨコハマショウガイシエンキョウカイ,0
1615,6021001083803,新規,0,2024-11-21,2024-11-21,大盛株式会社,,株式会社,神奈川県,秦野市,南矢名２２２３番地の４東海ビル１１２Ｂ,,14,211,2570003,,,,,,,2024-11-21,1,,,,,オオモリ,0
1620,6030001163556,新規,0,2024-11-21,2024-11-21,騰翔株式会社,,株式会社,埼玉県,坂戸市,大字成願寺字欠上３９２－１,,11,239,3500255,,,,,,,2024-11-21,1,,,,,トウショウ,0
1621,6030001163580,新規,0,2024-11-21,2024-11-21,株式会社ＭＲ商事,,株式会社,埼玉県,川口市,南町２丁目９番３３号,,11,203,3320026,,,,,,,2024-11-21,1,,,,,エムアールショウジ,0
1622,6030003025548,新規,0,2024-11-21,2024-11-21,合同会社白社,,合同会社,埼玉県,八潮市,緑町１丁目１番地１スマイルビル緑町１０１,,11,234,3400808,,,,,,,2024-11-21,1,,,,,ハクシャ,0
1625,6040001136214,新規,0,2024-11-21,2024-11-21,株式会社ｂｒｉｇｈｔ　ｆｕｔｕｒｅ,,株式会社,千葉県,野田市,清水４３４番地２,,12,208,2780043,,,,,,,2024-11-21,1,,,,,ブライトフューチャー,0
1626,6040001136239,新規,0,2024-11-21,2024-11-21,アップライク・サービシズ株式会社,,株式会社,千葉県,習志野市,東習志野６丁目プロロジスパーク習志野５,,12,216,2750001,,,,,,,2024-11-21,1,,,,,アップライクサービシズ,0
1630,6050001055719,新規,0,2024-11-21,2024-11-21,株式会社ベースオン,,株式会社,茨城県,土浦市,板谷６丁目６４９番地８,,08,203,3000007,,,,,,,2024-11-21,1,,,,,ベースオン,0
1631,6050001055727,新規,0,2024-11-21,2024-11-21,株式会社Ｌｉｔ,,株式会社,茨城県,つくばみらい市,富士見ヶ丘３丁目２８番地１８,,08,235,3002417,,,,,,,2024-11-21,1,,,,,リット,0
1636,6060001037666,新規,0,2024-11-21,2024-11-21,株式会社ＢＹＢ,,株式会社,栃木県,宇都宮市,野沢町１８７番地１１８,,09,201,3200071,,,,,,,2024-11-21,1,,,,,ビーワイビー,0
1638,6060003005332,新規,0,2024-11-21,2024-11-21,合同会社ハムチーズ,,合同会社,栃木県,大田原市,美原３丁目３２９１番地６,,09,210,3240047,,,,,,,2024-11-21,1,,,,,ハムチーズ,0
1641,6070001042384,新規,0,2024-11-21,2024-11-21,株式会社Ｅｖｅｒ　Ｃｌｅａｎ,,株式会社,群馬県,太田市,八幡町８番２１号,,10,205,3730056,,,,,,,2024-11-21,1,,,,,エバクリーン,0
1655,6100005013254,新規,0,2024-11-21,2024-11-21,農事組合法人福産,,その他の設立登記法人,長野県,伊那市,富県８５７４番地,,20,209,3960621,,,,,,,2024-11-21,1,,,,,フクサン,0
1657,6110001038857,新規,0,2024-11-21,2024-11-21,株式会社アンドエス,,株式会社,新潟県,新発田市,下内竹５７０番地６,,15,206,9570026,,,,,,,2024-11-21,1,,,,,アンドエス,0
1660,6110003005582,新規,0,2024-11-21,2024-11-21,合同会社アグリ池ヶ原,,合同会社,新潟県,小千谷市,大字池ケ原８３９番地４,,15,208,9498728,,,,,,,2024-11-21,1,,,,,アグリイケガハラ,0
1668,6120001270376,新規,0,2024-11-21,2024-11-21,ＭＪＣ　ＨＯＬＤＩＮＧＳ株式会社,,株式会社,大阪府,大阪市北区,豊崎３丁目２番１号,,27,127,5310072,,,,,,,2024-11-21,1,,,,,エムジェーシーホールディングス,0
1669,6120001270418,新規,0,2024-11-21,2024-11-21,長明株式会社,,株式会社,大阪府,大阪市旭区,大宮１丁目２番３０号,,27,117,5350002,,,,,,,2024-11-21,1,,,,,チョウメイ,0
1673,6120101070627,新規,0,2024-11-21,2024-11-21,株式会社グッドベイト,,株式会社,大阪府,堺市中区,福田１６６番地５,,27,142,5998241,,,,,,,2024-11-21,1,,,,,グッドベイト,0
1683,6130001078406,新規,0,2024-11-21,2024-11-21,ａｍｐｅｒｓａｎｄ株式会社,,株式会社,京都府,京都市中京区,油小路通三条下る三条油小路町１４５番地１,,26,104,6048251,,,,,,,2024-11-21,1,,,,,アンパサンド,0
1690,6140001136501,新規,0,2024-11-21,2024-11-21,株式会社アケタ,,株式会社,兵庫県,神戸市中央区,加納町３丁目１０－７－１ＶｉｌｌａＹｕａ４０１,,28,110,6500001,,,,,,,2024-11-21,1,,,,,アケタ,0
1707,6190003004858,新規,0,2024-11-21,2024-11-21,ザ・パーソナルサービス合同会社,,合同会社,三重県,亀山市,本町３丁目１５‐１７,,24,210,5190116,,,,,,,2024-11-21,1,,,,,ザパーソナルサービス,0
1712,6240001064139,新規,0,2024-11-21,2024-11-21,株式会社榕,,株式会社,広島県,広島市東区,東蟹屋町４番２号桑原ビル１Ｆ,,34,102,7320055,,,,,,,2024-11-21,1,,,,,ヨウ,0
1716,6240003006948,新規,0,2024-11-21,2024-11-21,合同会社スタート,,合同会社,広島県,広島市安佐北区,亀山５丁目２番１５号,,34,106,7310231,,,,,,,2024-11-21,1,,,,,スタート,0
1719,6250001020909,新規,0,2024-11-21,2024-11-21,株式会社結楽の杜,,株式会社,山口県,山陽小野田市,大字有帆１３１６,,35,216,7560038,,,,,,,2024-11-21,1,,,,,ユラノモリ,0
1724,6250005008966,新規,0,2024-11-21,2024-11-21,学校法人萩明倫館高等学校,,その他の設立登記法人,山口県,萩市,大字椿東３１９３－２,,35,204,7580011,,,,,,,2024-11-21,1,,,,,ハギメイリンカンコウトウガッコウ,0
1727,6260001039659,新規,0,2024-11-21,2024-11-21,ファーストステップ株式会社,,株式会社,岡山県,岡山市中区,東川原２６９番地１２（２０３号室）,,33,102,7038255,,,,,,,2024-11-21,1,,,,,ファーストステップ,0
1750,6290003016091,新規,0,2024-11-21,2024-11-21,合同会社ＰＡＴＨＩＢＨＡＲＡ　ＳＴＯＲＥ,,合同会社,福岡県,小郡市,祇園１丁目４番地１８,,40,216,8380144,,,,,,,2024-11-21,1,,,,,パティバラストア,0
1752,6320001020819,新規,0,2024-11-21,2024-11-21,株式会社ｍａｃｈｅｌｉｎ,,株式会社,大分県,別府市,大字鶴見２７６６番地ミラコスタ宮島５０６号,,44,202,8740840,,,,,,,2024-11-21,1,,,,,マシュラン,0
1755,6340003004669,新規,0,2024-11-21,2024-11-21,合同会社アニムス,,合同会社,鹿児島県,肝属郡南大隅町,根占川北９１－２,,46,491,8932501,,,,,,,2024-11-21,1,,,,,アニムス,0
1763,6370003006836,新規,0,2024-11-21,2024-11-21,合同会社Ｋａｔａｋａｎａ　Ｊａｐａｎ,,合同会社,宮城県,仙台市太白区,長町南１丁目１３－７５,,04,104,9820012,,,,,,,2024-11-21,1,,,,,カタカナジャパン,0
1777,6430001050978,新規,0,2024-11-21,2024-11-21,株式会社木村配管,,株式会社,北海道,余市郡余市町,浜中町１０６番地３,,01,408,0460021,,,,,,,2024-11-21,1,,,,,,0
1780,6430001093102,新規,0,2024-11-21,2024-11-21,株式会社ＭＥＣＯｉ‐ＪＡＰＡＮ,,株式会社,北海道,札幌市中央区,北五条西１３丁目１番地１１６ＹＮ北五条ビル６Ｆ,,01,101,0600005,,,,,,,2024-11-21,1,,,,,ミコアイジャパン,0
1781,6430001093127,新規,0,2024-11-21,2024-11-21,株式会社スマイルエブリィー,,株式会社,北海道,江別市,緑町東１丁目５９番地の１,,01,217,0670003,,,,,,,2024-11-21,1,,,,,スマイルエブリィー,0
1786,6430003017001,新規,0,2024-11-21,2024-11-21,Ａｉ‐ＧＴｙ合同会社,,合同会社,北海道,札幌市西区,発寒四条４丁目９番１２号,,01,107,0630824,,,,,,,2024-11-21,1,,,,,アイジティ,0
1789,6500003003373,新規,0,2024-11-21,2024-11-21,合同会社イノビスタ,,合同会社,愛媛県,新居浜市,高木町９番１４号,,38,205,7920031,,,,,,,2024-11-21,1,,,,,イノビスタ,0
1790,6700150127921,新規,0,2024-11-21,2024-11-21,中白根町内会,,その他,神奈川県,横浜市旭区,中白根２丁目３－１,,14,112,2410004,,,,,,,2024-11-21,1,,,,,ナカシラネチョウナイカイ,0
1799,7010001250082,新規,0,2024-11-21,2024-11-21,株式会社Ａｅｇｉｓ保険ｄｅｓｉｇｎ,,株式会社,東京都,千代田区,神田須田町２丁目１９－２３－２Ｆ,,13,101,1010041,,,,,,,2024-11-21,1,,,,,イージスホケンデザイン,0
1800,7010001250116,新規,0,2024-11-21,2024-11-21,株式会社齊藤不動産,,株式会社,東京都,千代田区,西神田２丁目５番７号,,13,101,1010065,,,,,,,2024-11-21,1,,,,,サイトウフドウサン,0
1828,7010003045233,新規,0,2024-11-21,2024-11-21,合同会社モニタ,,合同会社,東京都,文京区,本駒込２丁目２９番１６号７０２,,13,105,1130021,,,,,,,2024-11-21,1,,,,,モニタ,0
1829,7010003045497,新規,0,2024-11-21,2024-11-21,Ｔｕｖｅ　Ｊａｐａｎ合同会社,,合同会社,東京都,千代田区,麹町１丁目３番ニッセイ半蔵門ビル６階,,13,101,1020083,,,,,,,2024-11-21,1,,,,,チューブジャパン,0
1831,7010005039175,新規,0,2024-11-21,2024-11-21,一般社団法人ＧＰファンド,,その他の設立登記法人,東京都,千代田区,神田錦町１丁目２１番１号,,13,101,1010054,,,,,,,2024-11-21,1,,,,,ジーピーファンド,0
1833,7010103002456,新規,0,2024-11-21,2024-11-21,合同会社フェニックスサポート,,合同会社,東京都,八王子市,東町２番５号ＴＭビル５階,,13,201,1920082,,,,,,,2024-11-21,1,,,,,フェニックスサポート,0
1841,7010401186538,新規,0,2024-11-21,2024-11-21,株式会社ドルフィン・バリュー・アップ１７号Ａ,,株式会社,東京都,港区,芝公園１丁目１番１号住友不動産御成門タワー７階,,13,103,1050011,,,,,,,2024-11-21,1,,,,,ドルフィンバリューアップジュウナナゴウエー,0
1842,7010401186546,新規,0,2024-11-21,2024-11-21,ＴＨＸＬＡＢ株式会社,,株式会社,東京都,港区,六本木７丁目１５－７新六本木ビル８階,,13,103,1060032,,,,,,,2024-11-21,1,,,,,ティーエイチエックスラボ,0
1848,7010501053217,新規,0,2024-11-21,2024-11-21,株式会社ＡＲＳＴＲ,,株式会社,東京都,台東区,池之端３丁目３－９花園アレイ２０６,,13,106,1100008,,,,,,,2024-11-21,1,,,,,アルストラ,0
1849,7010501053225,新規,0,2024-11-21,2024-11-21,今時株式会社,,株式会社,東京都,台東区,駒形２丁目２番１０号,,13,106,1110043,,,,,,,2024-11-21,1,,,,,イマドキ,0
1864,7011001166070,新規,0,2024-11-21,2024-11-21,株式会社ウェルビー,,株式会社,東京都,渋谷区,渋谷２丁目１９－１５宮益坂ビルディング６０９,,13,113,1500002,,,,,,,2024-11-21,1,,,,,ウェルビー,0
1868,7011003020416,新規,0,2024-11-21,2024-11-21,合同会社ＡｑｕａＲｉｓｅ,,合同会社,東京都,目黒区,東山１丁目９－６マ・メゾンボヌール２０１,,13,110,1530043,,,,,,,2024-11-21,1,,,,,アクアライズ,0
1875,7011503006303,新規,0,2024-11-21,2024-11-21,合同会社トラスト,,合同会社,東京都,北区,岩淵町２４番１６－６０２号ＨＦ正光寺赤羽レジデンスＩＩ,00137090,13,117,1150041,,,,,,,2024-11-21,1,,,,,トラスト,0
1877,7011801045192,新規,0,2024-11-21,2024-11-21,株式会社ＳＡＥ,,株式会社,東京都,足立区,保木間３丁目２８番１０号,,13,121,1210064,,,,,,,2024-11-21,1,,,,,エスエーイー,0
1879,7012801023584,新規,0,2024-11-21,2024-11-21,株式会社杉え多かコーポレーション,,株式会社,東京都,日野市,平山６丁目１２番地の２１,,13,212,1910043,,,,,,,2024-11-21,1,,,,,スギエタカコーポレーション,0
1883,7013303007398,新規,0,2024-11-21,2024-11-21,合同会社ＩｎｎｏＶｉｃｔ,,合同会社,東京都,豊島区,南池袋１丁目１６番１５号ダイヤゲート池袋５階,,13,116,1710022,,,,,,,2024-11-21,1,,,,,イノビクト,0
1887,7020001160215,新規,0,2024-11-21,2024-11-21,株式会社メトロロジージャパン,,株式会社,神奈川県,川崎市麻生区,上麻生３丁目１６－８,,14,137,2150021,,,,,,,2024-11-21,1,,,,,メトロロジージャパン,0
1888,7020001160306,新規,0,2024-11-21,2024-11-21,株式会社楽丸,,株式会社,神奈川県,横浜市青葉区,しらとり台１５番地１０,,14,117,2270054,,,,,,,2024-11-21,1,,,,,ラクマル,0
1894,7020003027288,新規,0,2024-11-21,2024-11-21,合同会社ヤスイリフォーム,,合同会社,神奈川県,横浜市神奈川区,羽沢南１丁目３５－９,,14,102,2210866,,,,,,,2024-11-21,1,,,,,ヤスイリフォーム,0
1895,7020003027296,新規,0,2024-11-21,2024-11-21,合同会社トップランナー,,合同会社,神奈川県,横浜市南区,清水ケ丘２４８番地,,14,105,2320007,,,,,,,2024-11-21,1,,,,,トップランナー,0
1899,7021001083810,新規,0,2024-11-21,2024-11-21,株式会社ｗｅｌｆａｒｅ,,株式会社,神奈川県,茅ヶ崎市,浜竹２丁目２番３８－１５号,,14,207,2530021,,,,,,,2024-11-21,1,,,,,ウェルフェア,0
1906,7030001163514,新規,0,2024-11-21,2024-11-21,株式会社ＭＨ商事,,株式会社,埼玉県,さいたま市中央区,大戸６丁目１０－１６,,11,105,3380012,,,,,,,2024-11-21,1,,,,,エムエッチショウジ,0
1907,7030001163555,新規,0,2024-11-21,2024-11-21,安新株式会社,,株式会社,埼玉県,川口市,西川口３丁目３２番１０－１号,,11,203,3320021,,,,,,,2024-11-21,1,,,,,アンシン,0
1908,7030003025497,新規,0,2024-11-21,2024-11-21,合同会社Ｔ＆Ｋ,,合同会社,埼玉県,川越市,大字小ケ谷２４４－６第２コヤノハイツ１０２号室,,11,201,3501104,,,,,,,2024-11-21,1,,,,,ティーアンドケー,0
1909,7030003025506,新規,0,2024-11-21,2024-11-21,ＫＨ合同会社,,合同会社,埼玉県,本庄市,見福３丁目１３番３号,,11,211,3670044,,,,,,,2024-11-21,1,,,,,ケイエイチ,0
1910,7030005021949,新規,0,2024-11-21,2024-11-21,一般社団法人こそだてびより,,その他の設立登記法人,埼玉県,川越市,脇田新町１２番地３４,,11,201,3501121,,,,,,,2024-11-21,1,,,,,コソダテビヨリ,0
1912,7040003026222,新規,0,2024-11-21,2024-11-21,大橋マネジメント合同会社,,合同会社,千葉県,市川市,菅野３丁目１５番１４号,,12,203,2720824,,,,,,,2024-11-21,1,,,,,オオハシマネジメント,0
1914,7040005022574,新規,0,2024-11-21,2024-11-21,一般社団法人害獣駆除士認定協会,,その他の設立登記法人,千葉県,船橋市,本町２丁目１４番２３号,,12,204,2730005,,,,,,,2024-11-21,1,,,,,ガイジュウクジョシニンテイキョウカイ,0
1917,7050001055742,新規,0,2024-11-21,2024-11-21,株式会社フーディーズパークつくば,,株式会社,茨城県,つくば市,二の宮３丁目７番地５,,08,220,3050051,,,,,,,2024-11-21,1,,,,,フーディーズパークツクバ,0
1918,7050001055750,新規,0,2024-11-21,2024-11-21,株式会社アクト,,株式会社,茨城県,取手市,取手甲１７９２番地４,,08,217,3020004,,,,,,,2024-11-21,1,,,,,アクト,0
1923,7050003008822,新規,0,2024-11-21,2024-11-21,マリポペ合同会社,,合同会社,茨城県,石岡市,柿岡４６７２－３,,08,205,3150116,,,,,,,2024-11-21,1,,,,,マリポペ,0
1927,7070001042391,新規,0,2024-11-21,2024-11-21,株式会社８０８,,株式会社,群馬県,太田市,大原町４６１番地９,,10,205,3792304,,,,,,,2024-11-21,1,,,,,ハチマルハチ,0
1928,7070003005669,新規,0,2024-11-21,2024-11-21,合同会社リフアクト,,合同会社,群馬県,前橋市,三俣町１丁目７番地１２,,10,201,3710018,,,,,,,2024-11-21,1,,,,,リフアクト,0
1933,7080101025139,新規,0,2024-11-21,2024-11-21,株式会社田中建工,,株式会社,静岡県,富士宮市,長貫１２９６番地の７,,22,207,4190315,,,,,,,2024-11-21,1,,,,,タナカケンコウ,0
1934,7080401027586,新規,0,2024-11-21,2024-11-21,ウォーター株式会社,,株式会社,静岡県,浜松市中央区,葵西４丁目１５番１７号,,22,138,4338111,,,,,,,2024-11-21,1,,,,,ウォーター,0
1939,7100001038056,新規,0,2024-11-21,2024-11-21,株式会社アスレチックスポーツアカデミー,,株式会社,長野県,北安曇郡白馬村,大字北城２８５２番地５５,,20,485,3999301,,,,,,,2024-11-21,1,,,,,アスレチックスポーツアカデミー,0
1956,7120001270417,新規,0,2024-11-21,2024-11-21,九川株式会社,,株式会社,大阪府,大阪市旭区,大宮１丁目２番３０号,,27,117,5350002,,,,,,,2024-11-21,1,,,,,クカワ,0
1957,7120001270458,新規,0,2024-11-21,2024-11-21,株式会社ａｒｃ　ｄｅ　ｓｏｉｅ,,株式会社,大阪府,大阪市生野区,巽北１丁目１１番１３号,,27,116,5440004,,,,,,,2024-11-21,1,,,,,アークドソワ,0
1958,7120001270466,新規,0,2024-11-21,2024-11-21,株式会社フューチャージェネレート,,株式会社,大阪府,大阪市城東区,野江１丁目１５番５－４０１号,,27,118,5360006,,,,,,,2024-11-21,1,,,,,フューチャージェネレート,0
1959,7120001270474,新規,0,2024-11-21,2024-11-21,マウスラボ株式会社,,株式会社,大阪府,大阪市此花区,伝法３丁目９－６－２階,,27,104,5540002,,,,,,,2024-11-21,1,,,,,マウスラボ,0
1966,7120003028012,新規,0,2024-11-21,2024-11-21,合同会社スマートしおみ,,合同会社,大阪府,門真市,寿町５－２０グランデ寿１０３,,27,223,5710032,,,,,,,2024-11-21,1,,,,,スマートシオミ,0
1988,7140001136483,新規,0,2024-11-21,2024-11-21,オールスター株式会社,,株式会社,兵庫県,神戸市灘区,篠原字伯母野山町一丁目１番１－７０２号,,28,102,6570002,,,,,,,2024-11-21,1,,,,,オールスター,0
2004,7240001064146,新規,0,2024-11-21,2024-11-21,株式会社Ｍ＆Ｉ,,株式会社,広島県,広島市西区,観音町１３番１１号１Ｆ,,34,104,7330031,,,,,,,2024-11-21,1,,,,,エムアンドアイ,0
2014,7290001108063,新規,0,2024-11-21,2024-11-21,株式会社ｋａｎｏｎ,,株式会社,福岡県,那珂川市,今光５丁目４番地（ＳＯＬＬＩＥＶＯ博多南３０３号）,,40,231,8111211,,,,,,,2024-11-21,1,,,,,カノン,0
2015,7290001108088,新規,0,2024-11-21,2024-11-21,株式会社ＩＺＵＭＩＹＡ,,株式会社,福岡県,福岡市中央区,小笹３丁目２０番２５－２０２号,,40,133,8100033,,,,,,,2024-11-21,1,,,,,イズミヤ,0
2017,7290803004897,新規,0,2024-11-21,2024-11-21,合同会社フォレストファイン,,合同会社,福岡県,北九州市小倉北区,中井口９番１１号,,40,106,8030837,,,,,,,2024-11-21,1,,,,,フォレストファイン,0
2024,7330001032671,新規,0,2024-11-21,2024-11-21,熊本株式会社,,株式会社,熊本県,合志市,幾久富１９０９番地６８６,,43,216,8611112,,,,,,,2024-11-21,1,,,,,クマモト,0
2027,7340003004668,新規,0,2024-11-21,2024-11-21,合同会社縁,,合同会社,鹿児島県,姶良市,西姶良４丁目１５番１４号,,46,225,8995656,,,,,,,2024-11-21,1,,,,,エン,0
2029,7340005009789,新規,0,2024-11-21,2024-11-21,行政書士法人森谷彰太事務所,,その他の設立登記法人,鹿児島県,鹿屋市,新川町５４６２－１,,46,203,8930015,,,,,,,2024-11-21,1,,,,,モリタニショウタジムショ,0
2032,7360001034351,新規,0,2024-11-21,2024-11-21,株式会社ＮＥＷネクスト,,株式会社,沖縄県,那覇市,字真地２９３番地,,47,201,9020072,,,,,,,2024-11-21,1,,,,,ニューネクスト,0
2033,7370001051949,新規,0,2024-11-21,2024-11-21,株式会社和久商会,,株式会社,宮城県,石巻市,魚町２丁目１０番地２０－３Ｆ,,04,202,9860022,,,,,,,2024-11-21,1,,,,,ワクショウカイ,0
2034,7370003006835,新規,0,2024-11-21,2024-11-21,合同会社Ｈ＆Ｍ,,合同会社,宮城県,仙台市宮城野区,福室２丁目８－１７福室マンション３１４号,,04,102,9830005,,,,,,,2024-11-21,1,,,,,エイチアンドエム,0
2048,7430003017009,新規,0,2024-11-21,2024-11-21,合同会社千,,合同会社,北海道,苫小牧市,拓勇東町２丁目１番１号,,01,213,0591303,,,,,,,2024-11-21,1,,,,,セン,0
2053,7460005001585,新規,0,2024-11-21,2024-11-21,協同組合国際人材北海道,,その他の設立登記法人,北海道,川上郡標茶町,開運１丁目３６番地１,,01,664,0882311,,,,,,,2024-11-21,1,,,,,コクサイジンザイホッカイドウ,0
2056,7480001012659,新規,0,2024-11-21,2024-11-21,板野タイヤ株式会社,,株式会社,徳島県,板野郡藍住町,奥野字西中須５２番地６,,36,403,7711201,,,,,,,2024-11-21,1,,,,,イタノタイヤ,0
2060,7500003003372,新規,0,2024-11-21,2024-11-21,合同会社オリオン,,合同会社,愛媛県,西条市,新田２１７番地２,,38,206,7930028,,,,,,,2024-11-21,1,,,,,オリオン,0
2061,7500005008741,新規,0,2024-11-21,2024-11-21,一般社団法人みんなのまなびや,,その他の設立登記法人,愛媛県,越智郡上島町,弓削下弓削４８５番地,,38,356,7942506,,,,,,,2024-11-21,1,,,,,ミンナノマナビヤ,0
2062,7700150127482,新規,0,2024-11-21,2024-10-17,熊本県立荒尾支援学校ＰＴＡ,,その他,熊本県,荒尾市,増永西長浦２２９９－３,,43,204,8640032,,,,,,,2024-10-17,1,,,,,クマモトケンリツアラオシエンガツコウピーテイーエー,0
2063,7700150127920,新規,0,2024-11-21,2024-11-21,Ｄａｌｉｚｈｕ　Ｌｉｍｉｔｅｄ,,外国会社等,東京都,港区,赤坂２丁目１４番１１号,,13,103,1070052,台湾台南市永康区中山南路４２０－５号,,,,,,2024-11-21,1,,,,,ダーリーズリミテツド,0
2073,8010001249875,新規,0,2024-11-21,2024-11-21,株式会社オクトリー,,株式会社,東京都,中央区,日本橋浜町３丁目２５番８－２０６号,,13,102,1030007,,,,,,,2024-11-21,1,,,,,オクトリー,0
2074,8010001250073,新規,0,2024-11-21,2024-11-21,エスシー・ミネラルズ・ジャパン株式会社,,株式会社,東京都,千代田区,大手町２丁目３番２号,,13,101,1000004,,,,,,,2024-11-21,1,,,,,エスシーミネラルズジャパン,0
2075,8010001250081,新規,0,2024-11-21,2024-11-21,株式会社Ｗｉｔｈ　Ｗｅａｌｔｈ,,株式会社,東京都,千代田区,紀尾井町４番１号ニューオータニガーデンコート１２Ｆ,,13,101,1020094,,,,,,,2024-11-21,1,,,,,ウィズウェルス,0
2106,8010003045546,新規,0,2024-11-21,2024-11-21,エム・エス・アール・イー・アイ・ジェイ・エス・エフ・ジャパン・エル・ピー・エス・ジー・ピー合同会社,,合同会社,東京都,千代田区,大手町１丁目９番７号大手町フィナンシャルシティサウスタワー,,13,101,1000004,,,,,,,2024-11-21,1,,,,,エムエスアールイーアイジェイエスエフジャパンエルピーエスジーピー,0
2107,8010103002455,新規,0,2024-11-21,2024-11-21,合同会社レックスフィールドジャパン,,合同会社,東京都,八王子市,片倉町１３７９番地３２,,13,201,1920914,,,,,,,2024-11-21,1,,,,,レックスフィールドジャパン,0
2116,8010401186537,新規,0,2024-11-21,2024-11-21,株式会社ドルフィン・バリュー・アップ１７号,,株式会社,東京都,港区,芝公園１丁目１番１号住友不動産御成門タワー７階,,13,103,1050011,,,,,,,2024-11-21,1,,,,,ドルフィンバリューアップジュウナナゴウ,0
2117,8010501053232,新規,0,2024-11-21,2024-11-21,株式会社越健地所,,株式会社,東京都,台東区,浅草橋３丁目１番２号,,13,106,1110053,,,,,,,2024-11-21,1,,,,,エッケンジショ,0
2118,8010503007624,新規,0,2024-11-21,2024-11-21,合同会社嵐,,合同会社,東京都,台東区,千束２丁目７－９メインステージ浅草入谷１－８０２,,13,106,1110031,,,,,,,2024-11-21,1,,,,,アラシ,0
2123,8010701046829,新規,0,2024-11-21,2024-11-21,株式会社ＬＩＴＡＸＩＡ,,株式会社,東京都,品川区,大崎４丁目１番７号,,13,109,1410032,,,,,,,2024-11-21,1,,,,,リタシア,0
2132,8011003020415,新規,0,2024-11-21,2024-11-21,ももり合同会社,,合同会社,東京都,渋谷区,恵比寿西２丁目４番８号ウィンド恵比寿ビル８Ｆ,,13,113,1500021,,,,,,,2024-11-21,1,,,,,モモリ,0
2146,8011603004528,新規,0,2024-11-21,2024-11-21,ＴＭＬ合同会社,,合同会社,東京都,練馬区,東大泉３丁目５２－７－５０４,,13,120,1780063,,,,,,,2024-11-21,1,,,,,ティエムエル,0
2147,8011701027827,新規,0,2024-11-21,2024-11-21,ＴＥＨ株式会社,,株式会社,東京都,江戸川区,中央１丁目７番３号,,13,123,1320021,,,,,,,2024-11-21,1,,,,,ティーイーエイチ,0
2148,8011801045200,新規,0,2024-11-21,2024-11-21,株式会社Ｆｕｎ　ａｎｄ,,株式会社,東京都,足立区,足立４丁目３６番地６ＹＣビル２０１,,13,121,1200015,,,,,,,2024-11-21,1,,,,,ファウンド,0
2150,8011803006555,新規,0,2024-11-21,2024-11-21,合同会社アールティオフィス,,合同会社,東京都,葛飾区,立石６丁目２７－４ライトコートＫ２０４,,13,122,1240012,,,,,,,2024-11-21,1,,,,,アールティオフィス,0
2151,8011803006563,新規,0,2024-11-21,2024-11-21,合同会社デジタルデザイン,,合同会社,東京都,葛飾区,四つ木５丁目１１－３,,13,122,1240011,,,,,,,2024-11-21,1,,,,,デジタルデザイン,0
2167,8020001160156,新規,0,2024-11-21,2024-11-21,株式会社ＭＩＵ,,株式会社,神奈川県,横浜市南区,中村町４丁目２７４－９,,14,105,2320033,,,,,,,2024-11-21,1,,,,,ミウ,0
2168,8020001160164,新規,0,2024-11-21,2024-11-21,中子星株式会社,,株式会社,神奈川県,横浜市中区,石川町５丁目１８５－５ハイシテイ横浜元町１０４号室,,14,104,2310868,,,,,,,2024-11-21,1,,,,,ナカゴホシ,0
2169,8020001160172,新規,0,2024-11-21,2024-11-21,エアリンクロジスティックス株式会社,,株式会社,神奈川県,横浜市鶴見区,矢向４丁目２８番４号第２ＫＫＦハイツ２０１,,14,101,2300001,,,,,,,2024-11-21,1,,,,,エアリンクロジスティックス,0
2170,8020001160206,新規,0,2024-11-21,2024-11-21,株式会社ＶＩＣＴ,,株式会社,神奈川県,横浜市瀬谷区,南台１丁目４４番地２７,,14,114,2460032,,,,,,,2024-11-21,1,,,,,ヴィクト,0
2171,8020001160214,新規,0,2024-11-21,2024-11-21,株式会社Ｐｉｖｏｎ,,株式会社,神奈川県,川崎市高津区,下作延５丁目３２番６－１０９号,,14,134,2130033,,,,,,,2024-11-21,1,,,,,ピヴォン,0
2172,8020001160222,新規,0,2024-11-21,2024-11-21,株式会社Ｎ　ｄｅｃｏ,,株式会社,神奈川県,横浜市西区,浅間町１丁目４番３号ウィザードビル４０２,,14,103,2200072,,,,,,,2024-11-21,1,,,,,エンネデコ,0
2178,8020003027270,新規,0,2024-11-21,2024-11-21,ステラ合同会社,,合同会社,神奈川県,横浜市中区,花咲町１丁目４６番１号２１１号室,,14,104,2310063,,,,,,,2024-11-21,1,,,,,ステラ,0
2179,8020003027287,新規,0,2024-11-21,2024-11-21,ＣＲＥＥＴＥ合同会社,,合同会社,神奈川県,横浜市南区,六ツ川１丁目１４－２７コリビングハウスＲ横浜５－２０１,,14,105,2320066,,,,,,,2024-11-21,1,,,,,クリート,0
2180,8020003027295,新規,0,2024-11-21,2024-11-21,合同会社学習ほっぷ,,合同会社,神奈川県,横浜市泉区,西が岡１丁目２７番地２クエスト山手台２０３,,14,116,2450006,,,,,,,2024-11-21,1,,,,,ガクシュウホップ,0
2182,8021001083801,新規,0,2024-11-21,2024-11-21,Ｃａｂｂｙ株式会社,,株式会社,神奈川県,座間市,新田宿１５８番地の１,,14,216,2520026,,,,,,,2024-11-21,1,,,,,キャビー,0
2185,8021003015257,新規,0,2024-11-21,2024-11-21,ハイビスカス合同会社,,合同会社,神奈川県,逗子市,小坪５丁目２３番９－１５１２号,,14,208,2490008,,,,,,,2024-11-21,1,,,,,ハイビスカス,0
2189,8030001163554,新規,0,2024-11-21,2024-11-21,株式会社ファーリン,,株式会社,埼玉県,富士見市,鶴瀬東１丁目１１番３９号,,11,235,3540024,,,,,,,2024-11-21,1,,,,,ファーリン,0
2190,8030001163579,新規,0,2024-11-21,2024-11-21,株式会社みずほファーム,,株式会社,埼玉県,加須市,花崎１丁目３７番地１５,,11,210,3470032,,,,,,,2024-11-21,1,,,,,ミズホファーム,0
2194,8030003025505,新規,0,2024-11-21,2024-11-21,合同会社ＴＥＡＭ　ＭＨ,,合同会社,埼玉県,春日部市,大場１１０３番地２上原第二ビル２０４,,11,214,3440021,,,,,,,2024-11-21,1,,,,,チームエムエイチ,0
2195,8030003025538,新規,0,2024-11-21,2024-11-21,朝星テック合同会社,,合同会社,埼玉県,川口市,芝中田１丁目３２番２３号,,11,203,3330847,,,,,,,2024-11-21,1,,,,,アサボシテック,0
2197,8040001136253,新規,0,2024-11-21,2024-11-21,梨里商事株式会社,,株式会社,千葉県,松戸市,松戸新田３番地の３０,,12,207,2702241,,,,,,,2024-11-21,1,,,,,リリショウジ,0
2201,8040003026238,新規,0,2024-11-21,2024-11-21,合同会社ＺＥＮＩＴＨ,,合同会社,千葉県,千葉市中央区,新田町１１番９号結城野ベース１０２号,,12,101,2600027,,,,,,,2024-11-21,1,,,,,ゼニス,0
2202,8040005022565,新規,0,2024-11-21,2024-11-21,一般社団法人Ｎａｇａｒｅｙａｍａ　Ｌｅａｄ,,その他の設立登記法人,千葉県,流山市,おおたかの森西４丁目１７５－１４,,12,220,2700128,,,,,,,2024-11-21,1,,,,,ナガレヤマリード,0
2203,8040005022573,新規,0,2024-11-21,2024-11-21,一般社団法人バイスライフサポート,,その他の設立登記法人,千葉県,佐倉市,王子台５丁目２６番地２５,,12,212,2850837,,,,,,,2024-11-21,1,,,,,バイスライフサポート,0
2215,8080401027585,新規,0,2024-11-21,2024-11-21,株式会社Ｃｏｃｏ　Ｐｒｉｍｅ,,株式会社,静岡県,磐田市,合代島１１６６番地２,,22,211,4380114,,,,,,,2024-11-21,1,,,,,ココプライム,0
2220,8080405007690,新規,0,2024-11-21,2024-11-21,農事組合法人渥美農場,,その他の設立登記法人,静岡県,浜松市中央区,向宿２丁目２１番２２号コーポハーブル１０２,,22,138,4300851,,,,,,,2024-11-21,1,,,,,アツミノウジョウ,0
2221,8100001038047,新規,0,2024-11-21,2024-11-21,株式会社ｂｌａｓｔ,,株式会社,長野県,松本市,大字大村３９１－１フレグランスアルピナＡ－１０１,,20,202,3900304,,,,,,,2024-11-21,1,,,,,ブラスト,0
2225,8110003005580,新規,0,2024-11-21,2024-11-21,合同会社高匠,00137087,合同会社,新潟県,新潟市中央区,上大川前通１０番町１９１０番ハイツプランタン１０１号,,15,103,9518068,,,,,,,2024-11-21,1,,,,,タカショウ,0
2237,8120001270382,新規,0,2024-11-21,2024-11-21,株式会社ＡＫＩエステート,,株式会社,大阪府,大阪市福島区,海老江７丁目２番４２－１５０１号,,27,103,5530001,,,,,,,2024-11-21,1,,,,,アキエステート,0
2238,8120001270473,新規,0,2024-11-21,2024-11-21,プライムカイシュー株式会社,,株式会社,大阪府,大阪市大正区,北村１丁目１３番１８号,,27,108,5510032,,,,,,,2024-11-21,1,,,,,プライムカイシュー,0
2242,8120003027995,新規,0,2024-11-21,2024-11-21,合同会社ｌｕｃｉａｚ,,合同会社,大阪府,大阪市北区,梅田１丁目２番２号大阪駅前第２ビル１２－１２,,27,127,5300001,,,,,,,2024-11-21,1,,,,,ルシアス,0
2246,8120101070625,新規,0,2024-11-21,2024-11-21,株式会社Ｈ　Ｆｉｎｓ,,株式会社,大阪府,堺市中区,土塔町２０１８－３,,27,142,5998234,,,,,,,2024-11-21,1,,,,,エイチフィンズ,0
2247,8120101070641,新規,0,2024-11-21,2024-11-21,株式会社タザワコーポレーション,,株式会社,大阪府,松原市,天美北７丁目６番７号,,27,217,5800031,,,,,,,2024-11-21,1,,,,,タザワコーポレーション,0
2249,8120901050066,新規,0,2024-11-21,2024-11-21,株式会社リラハート,,株式会社,大阪府,豊中市,上野坂２丁目２１－１－ソシアＤ２－３Ｂ,,27,203,5600012,,,,,,,2024-11-21,1,,,,,リラハート,0
2252,8122001038677,新規,0,2024-11-21,2024-11-21,宇晶味美株式会社,,株式会社,大阪府,東大阪市,若江西新町４丁目６番１０－２０４号,,27,227,5780944,,,,,,,2024-11-21,1,,,,,ウショウミミ,0
2253,8130001078370,新規,0,2024-11-21,2024-11-21,株式会社嶋田商会,,株式会社,京都府,京都市右京区,梅津林口町１８番地セントリヴィエ京都嵐山ＩＩ１０３,00137092,26,108,6150936,,,,,,,2024-11-21,1,,,,,シマダショウカイ,0
2254,8130001078420,新規,0,2024-11-21,2024-11-21,株式会社匠エステート,,株式会社,京都府,向日市,寺戸町寺田５０番１号京都桂川つむぎの街ブライトスクエア１１２９号室,,26,208,6170002,,,,,,,2024-11-21,1,,,,,タクミエステート,0
2256,8130003010018,新規,0,2024-11-21,2024-11-21,合同会社フィックル,,合同会社,京都府,京田辺市,花住坂１丁目２８番地１０カレブラン花住坂１０７,,26,211,6100352,,,,,,,2024-11-21,1,,,,,フィックル,0
2257,8130003010026,新規,0,2024-11-21,2024-11-21,合同会社イケイケボーイズ,,合同会社,京都府,京都市下京区,坊門町８０８－１,,26,106,6008388,,,,,,,2024-11-21,1,,,,,イケイケボーイズ,0
2265,8140003021336,新規,0,2024-11-21,2024-11-21,合同会社ネクスト,,合同会社,兵庫県,神戸市西区,伊川谷町有瀬６５６番地１０４号,,28,111,6512113,,,,,,,2024-11-21,1,,,,,ネクスト,0
2266,8140003021344,新規,0,2024-11-21,2024-11-21,Ｔｈｅ　ｓｕｎ合同会社,,合同会社,兵庫県,神戸市東灘区,鴨子ヶ原２丁目３番１４－３１５号,,28,101,6580064,,,,,,,2024-11-21,1,,,,,ザサン,0
2267,8150001027697,新規,0,2024-11-21,2024-11-21,ワーク株式会社,,株式会社,奈良県,奈良市,大宮町６丁目５番地の３,,29,201,6308115,,,,,,,2024-11-21,1,,,,,ワーク,0
2271,8160001026368,新規,0,2024-11-21,2024-11-21,株式会社早春カンパニー,,株式会社,滋賀県,甲賀市,甲南町希望ケ丘本町６丁目８５７番地１５３,,25,209,5203332,,,,,,,2024-11-21,1,,,,,ソウシュンカンパニー,0
2273,8170003002127,新規,0,2024-11-21,2024-11-21,合同会社にちか,,合同会社,和歌山県,和歌山市,有家３７９番地６,,30,201,6408316,,,,,,,2024-11-21,1,,,,,ニチカ,0
2284,8180003027651,新規,0,2024-11-21,2024-11-21,合同会社にこにこ堂,,合同会社,愛知県,名古屋市天白区,原３丁目４０３番地クリオ原パークフロント９０３,,23,116,4680015,,,,,,,2024-11-21,1,,,,,ニコニコドウ,0
2288,8190001031803,新規,0,2024-11-21,2024-11-21,株式会社ｅｍ,,株式会社,三重県,四日市市,西浦１丁目６番４号,,24,202,5100071,,,,,,,2024-11-21,1,,,,,エム,0
2291,8200001043152,新規,0,2024-11-21,2024-11-21,株式会社千川創業,,株式会社,岐阜県,各務原市,須衛町３丁目４９０番地,,21,213,5090108,,,,,,,2024-11-21,1,,,,,センカワソウギョウ,0
2292,8200001043160,新規,0,2024-11-21,2024-11-21,株式会社Ｅｓｉｘ　Ｇｌｏｂａｌ,,株式会社,岐阜県,大垣市,新開町１０６番地５,,21,202,5030004,,,,,,,2024-11-21,1,,,,,エシックスグローバル,0
2293,8210003001859,新規,0,2024-11-21,2024-11-21,合同会社オフィスＴ,,合同会社,福井県,鯖江市,石田上町第４５号４番地１,,18,207,9160083,,,,,,,2024-11-21,1,,,,,オフィスティー,0
2300,8240001064145,新規,0,2024-11-21,2024-11-21,株式会社ａｌｏ,,株式会社,広島県,広島市東区,牛田本町３丁目１番２１号,,34,102,7320066,,,,,,,2024-11-21,1,,,,,アロ,0
2317,8340001026944,新規,0,2024-11-21,2024-11-21,エムエム企画株式会社,,株式会社,鹿児島県,薩摩川内市,原田町４番６－１号,,46,215,8950074,,,,,,,2024-11-21,1,,,,,エムエムキカク,0
2321,8370003006834,新規,0,2024-11-21,2024-11-21,合同会社ａｎｄＭ,,合同会社,宮城県,仙台市宮城野区,清水沼２丁目７番１８号シャーメゾン清水沼Ａ１０１,,04,102,9830845,,,,,,,2024-11-21,1,,,,,アンドエム,0
2339,8430001093109,新規,0,2024-11-21,2024-11-21,株式会社Ｒ’ｓ　Ｄａｎｋ,,株式会社,北海道,札幌市北区,篠路七条６丁目８－９,,01,102,0028027,,,,,,,2024-11-21,1,,,,,アールズダンク,0
2341,8430003016991,新規,0,2024-11-21,2024-11-21,ダックダック合同会社,,合同会社,北海道,日高郡新ひだか町,静内御幸町１丁目１番３６号,,01,610,0560017,,,,,,,2024-11-21,1,,,,,ダックダック,0
2351,8480001012658,新規,0,2024-11-21,2024-11-21,しあわせの扉株式会社,,株式会社,徳島県,海部郡海陽町,大里字奥馬谷２９番地２,,36,388,7750203,,,,,,,2024-11-21,1,,,,,シアワセノトビラ,0
2360,9010001249932,新規,0,2024-11-21,2024-11-21,株式会社ＩＤＦ,,株式会社,東京都,中央区,日本橋室町１丁目１１番１２号日本橋水野ビル７階,,13,102,1030022,,,,,,,2024-11-21,1,,,,,アイディエフ,0
2361,9010001250072,新規,0,2024-11-21,2024-11-21,株式会社Ｈｕｍａｎｉｔｙ　Ｂｒａｉｎ,,株式会社,東京都,中央区,新川２丁目２７－４リバーシティ２１新川８１５,,13,102,1040033,,,,,,,2024-11-21,1,,,,,ヒューマニティブレーン,0
2362,9010001250089,新規,0,2024-11-21,2024-11-21,ＮＥＴ株式会社,,株式会社,東京都,中央区,銀座１丁目２２－１１銀座大竹ビジデンス２Ｆ,,13,102,1040061,,,,,,,2024-11-21,1,,,,,ネット,0
2363,9010001250097,新規,0,2024-11-21,2024-11-21,王都株式会社,,株式会社,東京都,文京区,音羽１丁目２３番１２第一晃和堂ビル４２３号,,13,105,1120013,,,,,,,2024-11-21,1,,,,,オウト,0
2395,9010003045545,新規,0,2024-11-21,2024-11-21,赤坂ホテル合同会社,,合同会社,東京都,中央区,銀座２丁目１０番８号マニエラ銀座ビル４階,,13,102,1040061,,,,,,,2024-11-21,1,,,,,アカサカホテル,0
2398,9010005039149,新規,0,2024-11-21,2024-11-21,一般社団法人みらい観光デザイン機構,,その他の設立登記法人,東京都,中央区,日本橋茅場町２丁目１３番８号,,13,102,1030025,,,,,,,2024-11-21,1,,,,,ミライカンコウデザインキコウ,0
2402,9010401186544,新規,0,2024-11-21,2024-11-21,ＦｉｎＡｃｃ　Ｓｏｌｕｔｉｏｎｓ株式会社,,株式会社,東京都,港区,浜松町２丁目６番４－５０８号,,13,103,1050013,,,,,,,2024-11-21,1,,,,,フィナックソリューションズ,0
2403,9010401186569,新規,0,2024-11-21,2024-11-21,株式会社ＱＵＡＬＩＴＹ,,株式会社,東京都,港区,海岸１丁目１３番１５－２０３号,,13,103,1050022,,,,,,,2024-11-21,1,,,,,クオリティ,0
2405,9010405023792,新規,0,2024-11-21,2024-11-21,赤坂インベストメンツ一般社団法人,,その他の設立登記法人,東京都,港区,六本木１丁目６番１号泉ガーデンタワー,,13,103,1060032,,,,,,,2024-11-21,1,,,,,アカサカインベストメンツ,0
2410,9010501053223,新規,0,2024-11-21,2024-11-21,株式会社Ｌａｕｇｈ　Ｗｅａｖｅ,,株式会社,東京都,台東区,上野１丁目１２－９伊藤ビル１階,,13,106,1100005,,,,,,,2024-11-21,1,,,,,ラフウィーブ,0
2411,9010601066307,新規,0,2024-11-21,2024-11-21,株式会社ＴＯＢ,,株式会社,東京都,墨田区,吾妻橋２丁目１番５号６０１号室,,13,107,1300001,,,,,,,2024-11-21,1,,,,,ティーオービー,0
2431,9011003020439,新規,0,2024-11-21,2024-11-21,合同会社ＲＩＳＥ,,合同会社,東京都,渋谷区,道玄坂１丁目１０番８号渋谷道玄坂東急ビル２Ｆ－Ｃ,,13,113,1500043,,,,,,,2024-11-21,1,,,,,ライズ,0
2436,9011101109662,新規,0,2024-11-21,2024-11-21,株式会社Ｔｏｋｉｎｏａ,,株式会社,東京都,新宿区,西早稲田２丁目２１番１９号,,13,104,1690051,,,,,,,2024-11-21,1,,,,,トキノア,0
2437,9011103015207,新規,0,2024-11-21,2024-11-21,合同会社ａｘｉｓ,,合同会社,東京都,新宿区,富久町１５番１－５２１５号,,13,104,1620067,,,,,,,2024-11-21,1,,,,,アクシス,0
2439,9011105011237,新規,0,2024-11-21,2024-11-21,一般社団法人アジアクリスチャン交友会,,その他の設立登記法人,東京都,新宿区,百人町２丁目３番１８号,,13,104,1690073,,,,,,,2024-11-21,1,,,,,アジアクリスチャンコウユウカイ,0
2440,9011201025941,新規,0,2024-11-21,2024-11-21,株式会社藤咲,,株式会社,東京都,中野区,鷺宮５丁目１２番１３号,,13,114,1650032,,,,,,,2024-11-21,1,,,,,フジサキ,0
2441,9011301030164,新規,0,2024-11-21,2024-11-21,株式会社Ｎ企画,,株式会社,東京都,杉並区,上井草１丁目９番１１－１０２号,,13,115,1670023,,,,,,,2024-11-21,1,,,,,エヌキカク,0
2444,9011501031383,新規,0,2024-11-21,2024-11-21,株式会社Ｔ’ｓ,,株式会社,東京都,北区,志茂５丁目２４番１－６０４号,,13,117,1150042,,,,,,,2024-11-21,1,,,,,ティーズ,0
2448,9011703004039,新規,0,2024-11-21,2024-11-21,信本合同会社,,合同会社,東京都,江戸川区,松江２丁目１番１３－３０６号室,,13,123,1320025,,,,,,,2024-11-21,1,,,,,ノブモト,0
2456,9012401042504,新規,0,2024-11-21,2024-11-21,株式会社大塚総業,,株式会社,東京都,府中市,美好町３丁目４０番地の１８,,13,206,1830045,,,,,,,2024-11-21,1,,,,,オオツカソウギョウ,0
2467,9020001160163,新規,0,2024-11-21,2024-11-21,株式会社エステック,,株式会社,神奈川県,川崎市幸区,東古市場９番地３ファイブディーズメゾン１０１,,14,132,2120051,,,,,,,2024-11-21,1,,,,,エステック,0
2468,9020001160171,新規,0,2024-11-21,2024-11-21,株式会社サンワクリエーション,,株式会社,神奈川県,横浜市南区,八幡町２番地４,,14,105,2320037,,,,,,,2024-11-21,1,,,,,サンワクリエーション,0
2469,9020001160213,新規,0,2024-11-21,2024-11-21,ＬｅａＰ株式会社,,株式会社,神奈川県,横浜市西区,浅間町１丁目４番地３ウィザードビル４０２,,14,103,2200072,,,,,,,2024-11-21,1,,,,,リープ,0
2470,9020001160221,新規,0,2024-11-21,2024-11-21,株式会社ＦｉｅｌｄＬｉｆｅ,,株式会社,神奈川県,横浜市港北区,新吉田東２丁目２番１－１００５号,,14,109,2230058,,,,,,,2024-11-21,1,,,,,フィールドライフ,0
2474,9020003027278,新規,0,2024-11-21,2024-11-21,合同会社ＦＵＮＳ,,合同会社,神奈川県,横浜市都筑区,加賀原１丁目１番５１号,,14,118,2240055,,,,,,,2024-11-21,1,,,,,ファンズ,0
2479,9021003015256,新規,0,2024-11-21,2024-11-21,タイセージャパン合同会社,,合同会社,神奈川県,平塚市,紅谷町６－３０第二古木ビルＢ１,,14,203,2540043,,,,,,,2024-11-21,1,,,,,タイセージャパン,0
2485,9030001163603,新規,0,2024-11-21,2024-11-21,日進株式会社,,株式会社,埼玉県,川口市,南前川１丁目４番６号,,11,203,3330846,,,,,,,2024-11-21,1,,,,,ニッシン,0
2486,9030003025529,新規,0,2024-11-21,2024-11-21,シイチ商事合同会社,,合同会社,埼玉県,蕨市,中央５丁目１６番２号,,11,223,3350004,,,,,,,2024-11-21,1,,,,,シイチショウジ,0
2487,9030003025537,新規,0,2024-11-21,2024-11-21,合同会社ＳＫ,,合同会社,埼玉県,川口市,鳩ヶ谷緑町２丁目８－６,,11,203,3340015,,,,,,,2024-11-21,1,,,,,エスケー,0
2488,9040001136236,新規,0,2024-11-21,2024-11-21,和潤株式会社,,株式会社,千葉県,市川市,相之川３丁目１番３１－４０３号行徳パブリックハイツ,,12,203,2720143,,,,,,,2024-11-21,1,,,,,ワジュン,0
2489,9040001136244,新規,0,2024-11-21,2024-11-21,Ａｄ株式会社,,株式会社,千葉県,千葉市若葉区,貝塚町１３６８番地１０,,12,104,2640023,,,,,,,2024-11-21,1,,,,,アド,0
2490,9040001136252,新規,0,2024-11-21,2024-11-21,株式会社東亜,,株式会社,千葉県,印西市,草深２４４３番地４パーク・フロンティアＣ２０１号室,,12,231,2701337,,,,,,,2024-11-21,1,,,,,トウア,0
2491,9040001136260,新規,0,2024-11-21,2024-11-21,株式会社ウェルケアひより,,株式会社,千葉県,茂原市,茂原２３９番地,,12,210,2970026,,,,,,,2024-11-21,1,,,,,ウェルケアヒヨリ,0
2498,9050001055749,新規,0,2024-11-21,2024-11-21,株式会社ａｒｏ’ｓ,,株式会社,茨城県,守谷市,本町４２３８番地の１,,08,224,3020109,,,,,,,2024-11-21,1,,,,,アローズ,0
2499,9050001055757,新規,0,2024-11-21,2024-11-21,株式会社リュティル,,株式会社,茨城県,龍ケ崎市,南中島町３６番地,,08,208,3010047,,,,,,,2024-11-21,1,,,,,リュティル,0
2505,9080101025137,新規,0,2024-11-21,2024-11-21,エミサービス株式会社,,株式会社,静岡県,三島市,松本２９０番地の９インノバール・メゾン１０２,,22,206,4110822,,,,,,,2024-11-21,1,,,,,,0
2510,9080401027584,新規,0,2024-11-21,2024-11-21,株式会社ブリット,,株式会社,静岡県,浜松市中央区,野口町２１８番地の２Ｕシャトー９０１,,22,138,4300919,,,,,,,2024-11-21,1,,,,,ブリット,0
2522,9100001038046,新規,0,2024-11-21,2024-11-21,株式会社ＴＫ空間,,株式会社,長野県,長野市,川中島町御厨６３４番地,,20,201,3812221,,,,,,,2024-11-21,1,,,,,ティーケークウカン,0
2540,9120001270365,新規,0,2024-11-21,2024-11-21,ＱＳＩテクノロジー株式会社,,株式会社,大阪府,大阪市天王寺区,夕陽丘町４－２四天王寺オフィス０６号室,,27,109,5430075,,,,,,,2024-11-21,1,,,,,キューエスアイテクノロジー,0
2541,9120001270448,新規,0,2024-11-21,2024-11-21,株式会社ドラッグユウキ,,株式会社,大阪府,大阪市西成区,鶴見橋２丁目３番５号,,27,122,5570031,,,,,,,2024-11-21,1,,,,,ドラッグユウキ,0
2542,9120001270456,新規,0,2024-11-21,2024-11-21,ラプタイ日本株式会社,,株式会社,大阪府,大阪市都島区,片町１丁目３－１１ＪＣ大阪ビル３階,,27,102,5340025,,,,,,,2024-11-21,1,,,,,ラプタイニホン,0
2543,9120001270464,新規,0,2024-11-21,2024-11-21,株式会社ｂｌｕｅ　ｓｋｙ,,株式会社,大阪府,大阪市中央区,日本橋１丁目１８番１号日本一会舘４０１号室,,27,128,5420073,,,,,,,2024-11-21,1,,,,,ブルースカイ,0
2547,9120903005422,新規,0,2024-11-21,2024-11-21,佃峯合同会社,,合同会社,大阪府,池田市,豊島北２丁目１３番２２－３０２号,,27,204,5630036,,,,,,,2024-11-21,1,,,,,デンホウ,0
2550,9122001038668,新規,0,2024-11-21,2024-11-21,株式会社ハチアール,,株式会社,大阪府,東大阪市,荒本西４丁目１番１７号,,27,227,5770024,,,,,,,2024-11-21,1,,,,,ハチアール,0
2551,9122001038676,新規,0,2024-11-21,2024-11-21,三尺石株式会社,,株式会社,大阪府,東大阪市,若江西新町４丁目６番１０－２０３号,,27,227,5780944,,,,,,,2024-11-21,1,,,,,サンシャクイシ,0
2554,9130001078394,新規,0,2024-11-21,2024-11-21,プログレＨＤ株式会社,,株式会社,京都府,京都市下京区,下魚棚通堀川西入南八百屋町３３４番地,,26,106,6008251,,,,,,,2024-11-21,1,,,,,プログレエイチディー,0
2561,9140001136498,新規,0,2024-11-21,2024-11-21,株式会社晃建,,株式会社,兵庫県,姫路市,広畑区西夢前台４丁目２５９番地１,,28,201,6711103,,,,,,,2024-11-21,1,,,,,コウケン,0
2562,9140003021335,新規,0,2024-11-21,2024-11-21,合同会社ｓｏｌａ,,合同会社,兵庫県,神戸市西区,井吹台東町４丁目８番地の３,,28,111,6512242,,,,,,,2024-11-21,1,,,,,ソラ,0
2563,9140005027272,新規,0,2024-11-21,2024-11-21,一般社団法人蕗の薹,,その他の設立登記法人,兵庫県,神崎郡福崎町,高橋５２,,28,443,6792216,,,,,,,2024-11-21,1,,,,,フキノトウ,0
2565,9170003002126,新規,0,2024-11-21,2024-11-21,合同会社ネコノカクレガ,,合同会社,和歌山県,和歌山市,梅原３６６番地１ステッラＩ２０１号室,,30,201,6408452,,,,,,,2024-11-21,1,,,,,ネコノカクレガ,0
2583,9200001043151,新規,0,2024-11-21,2024-11-21,パスチャーフィールド株式会社,,株式会社,岐阜県,恵那市,大井町２７０９番地４９９,,21,210,5097201,,,,,,,2024-11-21,1,,,,,パスチャーフィールド,0
2584,9210003001858,新規,0,2024-11-21,2024-11-21,こばＱジャパン合同会社,,合同会社,福井県,坂井市,三国町安島１丁目２０３,,18,210,9130064,,,,,,,2024-11-21,1,,,,,コバキュウジャパン,0
2595,9260001039656,新規,0,2024-11-21,2024-11-21,株式会社ＢＬＯＯＭ,,株式会社,岡山県,岡山市北区,辰巳８番地１０８,,33,101,7000976,,,,,,,2024-11-21,1,,,,,ブルーム,0
2596,9260001039664,新規,0,2024-11-21,2024-11-21,株式会社ＮＩＮＯＫＥＮ,,株式会社,岡山県,岡山市北区,栢谷１７７２番地１,,33,101,7011144,,,,,,,2024-11-21,1,,,,,ニノケン,0
2597,9260003004971,新規,0,2024-11-21,2024-11-21,合同会社ＷＡＫＥ　ｕｐ,,合同会社,岡山県,和気郡和気町,奥塩田１２２－５,,33,346,7090501,,,,,,,2024-11-21,1,,,,,ウェイクアップ,0
2600,9280001009293,新規,0,2024-11-21,2024-11-21,株式会社ＧＡＳ　ＳＯＬＵＴＩＯＮ,,株式会社,島根県,松江市,浜乃木４丁目１２番１０号,,32,201,6900044,,,,,,,2024-11-21,1,,,,,ガスソリューション,0
2631,9340001026951,新規,0,2024-11-21,2024-11-21,株式会社ＮＧＮエンジニア,,株式会社,鹿児島県,南さつま市,金峰町高橋２９６５,,46,220,8993404,,,,,,,2024-11-21,1,,,,,エヌジーエヌエンジニア,0
2641,9370001051955,新規,0,2024-11-21,2024-11-21,Ｚ１株式会社,,株式会社,宮城県,仙台市若林区,六丁の目中町２７－６,,04,103,9840012,,,,,,,2024-11-21,1,,,,,ゼットワン,0
2644,9380003005891,新規,0,2024-11-21,2024-11-21,未来ワーク合同会社,,合同会社,福島県,郡山市,大槻町字小割林２番地の３エルディム咲２０１号,,07,203,9630201,,,,,,,2024-11-21,1,,,,,ミライワーク,0
2650,9430001093132,新規,0,2024-11-21,2024-11-21,株式会社ＫＡＩＫＡフードサービス,,株式会社,北海道,札幌市西区,発寒六条１１丁目１番５０－１４０３号,,01,107,0630826,,,,,,,2024-11-21,1,,,,,カイカフードサービス,0
2659,9470003002756,新規,0,2024-11-21,2024-11-21,合同会社ＧＩＮ,,合同会社,香川県,高松市,常磐町１丁目６番地１６村尾ビル２階,,37,201,7600054,,,,,,,2024-11-21,1,,,,,,0
2660,9480001012657,新規,0,2024-11-21,2024-11-21,株式会社Ｏｎｅ,,株式会社,徳島県,徳島市,両国橋１７番地あすなろビル５５,,36,201,7700917,,,,,,,2024-11-21,1,,,,,ワン,0
2662,9700150127919,新規,0,2024-11-21,2024-11-21,ＭＩＣＲＯＴＥＳＴ　Ｓ．Ｐ．Ａ,,外国会社等,神奈川県,横浜市都筑区,川和町２２０７番地２８,,14,118,2240057,イタリア共和国ヴィコ・ピザーノ、エンリコ・フェルミ通り８ＣＡＰ,,,,,,2024-11-21,1,,,,,マイクロテストエスピーエー,0
