sequenceNumber,corporateNumber,process,correct,updateDate,changeDate,name,nameImageId,kind,prefectureName,cityName,streetNumber,addressImageId,prefectureCode,cityCode,postCode,addressOutside,addressOutsideImageId,closeDate,closeCause,successorCorporateNumber,changeCause,assignmentDate,latest,enName,enPrefectureName,enCityName,enAddressOutside,furigana,hihyoji
7,1010001206692,登記記録の閉鎖等,0,2024-02-06,2024-01-31,株式会社擬き,,株式会社,東京都,千代田区,神田須田町１丁目２８番地４日宝神田ビル１０階,,13,101,1010041,,,2024-01-31,清算の結了等,,,2020-01-14,1,,,,,モドキ,0
13,1010003037137,登記記録の閉鎖等,0,2024-02-06,2024-01-30,合同会社ジェット,,合同会社,東京都,文京区,本駒込６丁目２２番２９号アルゴビル２０１,,13,105,1130021,,,2024-01-30,清算の結了等,,,2022-03-04,1,,,,,ジェット,0
38,1010902018848,登記記録の閉鎖等,0,2024-02-06,2024-01-30,有限会社クラッシア,,有限会社,東京都,世田谷区,北沢１丁目３４番３号,,13,112,1550031,,,2024-01-30,清算の結了等,,,2015-10-05,1,,,,,クラッシア,0
56,1011103007830,登記記録の閉鎖等,0,2024-02-06,2024-02-02,合同会社ゴールドピン,,合同会社,東京都,新宿区,大久保１丁目３番１４号ワールドビジネスセンター新宿１０階,,13,104,1690072,,,2024-02-02,清算の結了等,,,2018-04-13,1,,,,,ゴールドピン,0
59,1011301015057,登記記録の閉鎖等,0,2024-02-06,2024-01-30,株式会社マエザワ,,株式会社,東京都,杉並区,宮前３丁目１９番１７号,,13,115,1680081,,,2024-01-30,清算の結了等,,,2015-10-05,1,,,,,マエザワ,0
64,1011701025432,登記記録の閉鎖等,0,2024-02-06,2024-01-19,株式会社ＴＳＳ,,株式会社,東京都,江戸川区,春江町３丁目４５番１２号２階,,13,123,1320003,,,2024-01-19,清算の結了等,,,2022-07-11,1,,,,,ティーエスエス,0
73,1013101004941,登記記録の閉鎖等,0,2024-02-06,2024-01-31,株式会社サンエストレーディング,,株式会社,東京都,あきる野市,瀬戸岡字霞野３５４－１,,13,228,1970803,,,2024-01-31,清算の結了等,,,2015-10-05,1,,,,,サンエストレーディング,0
74,1013101006500,登記記録の閉鎖等,0,2024-02-06,2024-01-31,株式会社リナシェンテ,,株式会社,東京都,あきる野市,草花２１００番地４９,,13,228,1970802,,,2024-01-31,清算の結了等,,,2015-10-05,1,,,,,リナシェンテ,0
80,1020001034003,登記記録の閉鎖等,0,2024-02-06,2024-02-01,ターボ・オプテックス株式会社,,株式会社,神奈川県,横浜市旭区,若葉台１丁目８番３１３号,,14,112,2410801,,,2024-02-01,清算の結了等,,,2015-10-05,1,,,,,ターボオプテックス,0
92,1021003007780,登記記録の閉鎖等,0,2024-02-06,2024-02-02,合同会社杉山精肉店,,合同会社,神奈川県,中郡二宮町,二宮８３２番地,,14,342,2590123,,,2024-02-02,清算の結了等,,,2018-09-11,1,,,,,スギヤマセイニクテン,0
112,1040002058197,登記記録の閉鎖等,0,2024-02-06,2024-01-29,日本ビジネスリンク有限会社,,有限会社,千葉県,印西市,木刈３丁目１９番地６,,12,231,2701359,,,2024-01-29,清算の結了等,,,2015-10-05,1,,,,,ニホンビジネスリンク,0
116,1050001031534,登記記録の閉鎖等,0,2024-02-06,2024-02-01,株式会社中村建築,,株式会社,茨城県,筑西市,灰塚６３番地,,08,227,3080863,,,2024-02-01,清算の結了等,,,2015-10-05,1,,,,,ナカムラケンチク,0
121,1060002018463,登記記録の閉鎖等,0,2024-02-06,2024-02-01,有限会社フタキヤ,,有限会社,栃木県,芳賀郡茂木町,大字茂木１６０１番地４,,09,343,3213531,,,2024-02-01,清算の結了等,,,2015-10-05,1,,,,,フタキヤ,0
122,1070005002637,登記記録の閉鎖等,0,2024-02-06,2024-02-01,群馬珠算事業協同組合,,その他の設立登記法人,群馬県,高崎市,飯塚町字島裏１４５６番地,,10,202,3700069,,,2024-02-01,清算の結了等,,,2015-10-05,1,,,,,グンマシュザン,0
133,1120001014069,登記記録の閉鎖等,0,2024-02-06,2024-02-05,株式会社大阪タツプ製作所,,株式会社,大阪府,大阪市東成区,中道３丁目９番２７号,,27,115,5370025,,,2024-02-05,清算の結了等,,,2015-10-05,1,,,,,オオサカタツプセイサクショ,0
150,1120901009366,登記記録の閉鎖等,0,2024-02-06,2024-02-02,向陽商事株式会社,,株式会社,大阪府,摂津市,千里丘東１丁目６番２６号,,27,224,5660011,,,2024-02-02,清算の結了等,,,2015-10-05,1,,,,,コウヨウショウジ,0
162,1140001076982,登記記録の閉鎖等,0,2024-02-06,2024-02-01,株式会社稲坂プレス工業,,株式会社,兵庫県,加東市,高岡６８１番地,,28,228,6790222,,,2024-02-01,合併による解散等,6140001074874,令和６年２月１日兵庫県加東市高岡６８１番地株式会社稲坂歯車製作所（6140001074874）に合併し解散,2015-10-05,1,,,,,イナサカプレスコウギョウ,0
179,1170001002580,登記記録の閉鎖等,0,2024-02-06,2024-02-02,ＮＢプロジェクト株式会社,,株式会社,和歌山県,和歌山市,秋葉町１２番３６号,,30,201,6410056,,,2024-02-02,清算の結了等,,,2015-10-05,1,,,,,,0
214,1290002021642,登記記録の閉鎖等,0,2024-02-06,2024-02-05,有限会社富滋工業,,有限会社,福岡県,福岡市西区,室見が丘３丁目２２番２６号,,40,135,8190030,,,2024-02-05,清算の結了等,,,2015-10-05,1,,,,,トミジコウギョウ,0
216,1290002026261,登記記録の閉鎖等,0,2024-02-06,2024-02-02,有限会社イッチーラック,,有限会社,福岡県,福岡市博多区,麦野４丁目１１番２号,,40,132,8120882,,,2024-02-02,清算の結了等,,,2015-10-05,1,,,,,イッチーラック,0
225,1330001028163,登記記録の閉鎖等,0,2024-02-06,2024-02-01,株式会社Ｈｏｍｅ’ｓ　Ｈｏｍｅ熊本,,株式会社,熊本県,熊本市北区,山室５丁目６番２０号,,43,105,8600084,,,2024-02-01,合併による解散等,7330001015783,令和６年２月１日熊本市南区江越二丁目４番７号株式会社サンタ不動産（7330001015783）に合併し解散,2021-01-04,1,,,,,ホームズホームクマモト,0
228,1330003005788,登記記録の閉鎖等,0,2024-02-06,2024-02-01,合同会社オンワード,,合同会社,熊本県,熊本市東区,石原１丁目３－１,,43,102,8618046,,,2024-02-01,合併による解散等,7330003007861,令和６年２月１日熊本市東区石原一丁目３－１合同会社エフォート（7330003007861）に合併し解散,2015-10-05,1,,,,,,0
265,1480002005312,登記記録の閉鎖等,0,2024-02-06,2024-02-05,有限会社アイプロジェクト,,有限会社,徳島県,徳島市,大和町２丁目１番３３号,,36,201,7700864,,,2024-02-05,清算の結了等,,,2015-10-05,1,,,,,アイプロジェクト,0
269,1500002011935,登記記録の閉鎖等,0,2024-02-06,2024-02-02,有限会社横田組,,有限会社,愛媛県,大洲市,市木９６６番地２,,38,207,7950062,,,2024-02-02,清算の結了等,,,2015-10-05,1,,,,,ヨコタグミ,0
274,2010001178213,登記記録の閉鎖等,0,2024-02-06,2024-02-01,ＳＰＩインタラクティブ株式会社,,株式会社,東京都,千代田区,一ツ橋２丁目４番４号,,13,101,1010003,,,2024-02-01,合併による解散等,7010001163607,令和６年２月１日東京都千代田区一ツ橋二丁目４番４号株式会社エスピーアイ（7010001163607）に合併し解散,2016-09-09,1,,,,,エスピーアイインタラクティブ,0
283,2010003025438,登記記録の閉鎖等,0,2024-02-06,2024-02-01,合同会社ＴＡＫＡＳＵＮＡ　ＨＯＭＥＳ,,合同会社,東京都,世田谷区,上北沢３丁目２１番２１号,,13,112,1560057,,,2024-02-01,清算の結了等,,,2017-06-06,1,,,,,タカスナホームズ,0
286,2010005029296,登記記録の閉鎖等,0,2024-02-06,2024-01-31,一般社団法人ＭＹ　ＳＴＡＧＥ　ＰＲＯＪＥＣＴ,,その他の設立登記法人,東京都,千代田区,霞が関３丁目２番６号,,13,101,1000013,,,2024-01-31,清算の結了等,,,2018-11-06,1,,,,,マイステージプロジェクト,0
304,2010801023972,登記記録の閉鎖等,0,2024-02-06,2024-02-01,株式会社大田大森,,株式会社,東京都,大田区,大森西５丁目１番３号,,13,111,1430015,,,2024-02-01,清算の結了等,,,2015-10-05,1,,,,,オオタオオモリ,0
306,2010902018467,登記記録の閉鎖等,0,2024-02-06,2024-02-01,有限会社隆豊,,有限会社,東京都,世田谷区,弦巻５丁目１７番１５号,,13,112,1540016,,,2024-02-01,清算の結了等,,,2015-10-05,1,,,,,リュウホウ,0
316,2011102026789,登記記録の閉鎖等,0,2024-02-06,2024-02-01,有限会社アネモネ,,有限会社,東京都,新宿区,四谷坂町３番１４号,,13,104,1600002,,,2024-02-01,清算の結了等,,,2015-10-05,1,,,,,アネモネ,0
337,2020001114836,登記記録の閉鎖等,0,2024-02-06,2024-02-01,株式会社グッドライフ・リフォーム,,株式会社,神奈川県,横浜市都筑区,茅ケ崎中央４２－２１第２佐藤ビル５０４号室,,14,118,2240032,,,2024-02-01,清算の結了等,,,2016-02-22,1,,,,,グッドライフリフォーム,0
346,2021001055418,登記記録の閉鎖等,0,2024-02-06,2024-01-30,株式会社Ｈ・Ｉ・Ｋ,,株式会社,神奈川県,平塚市,八重咲町７番１１号ライオンズマンション平塚駅前１０２号室,,14,203,2540811,,,2024-01-30,清算の結了等,,,2015-10-05,1,,,,,エイチアイケー,0
351,2021002003053,登記記録の閉鎖等,0,2024-02-06,2024-02-01,有限会社ダイコウジエンジニアリング,,有限会社,神奈川県,綾瀬市,上土棚南１丁目３番２０－４０６号,,14,218,2521114,,,2024-02-01,清算の結了等,,,2015-10-05,1,,,,,ダイコウジエンジニアリング,0
354,2030001067100,登記記録の閉鎖等,0,2024-02-06,2024-01-31,株式会社萬代,,株式会社,埼玉県,越谷市,大字砂原９７６番地,,11,222,3430803,,,2024-01-31,清算の結了等,,,2015-10-05,1,,,,,バンダイ,0
362,2030002080416,登記記録の閉鎖等,0,2024-02-06,2024-01-31,有限会社アート社,,有限会社,埼玉県,本庄市,若泉３丁目９番２号,,11,211,3670055,,,2024-01-31,合併による解散等,3030001060450,令和６年１月３１日埼玉県本庄市小島六丁目１１番６７号横尾建設株式会社（3030001060450）に合併し解散,2015-10-05,1,,,,,アートシャ,0
364,2040001013227,登記記録の閉鎖等,0,2024-02-06,2024-01-29,株式会社イントラスト,,株式会社,千葉県,千葉市中央区,中央４丁目９番８号,,12,101,2600013,,,2024-01-29,清算の結了等,,,2015-10-05,1,,,,,イントラスト,0
370,2050001008201,登記記録の閉鎖等,0,2024-02-06,2024-02-05,株式会社山田住設,,株式会社,茨城県,笠間市,日草場１６１番地２,,08,216,3091612,,,2024-02-05,清算の結了等,,,2015-10-05,1,,,,,ヤマダジュウセツ,0
377,2050003006442,登記記録の閉鎖等,0,2024-02-06,2024-02-02,合同会社優らき,,合同会社,静岡県,裾野市,御宿２３５番地１の２北側,,22,220,4101107,,,2024-02-02,清算の結了等,,,2022-03-23,1,,,,,ユウラキ,0
391,2100002034166,登記記録の閉鎖等,0,2024-02-06,2024-02-01,有限会社粋晶社,,有限会社,長野県,駒ヶ根市,赤穂４２６４番地,,20,210,3994117,,,2024-02-01,清算の結了等,,,2015-10-05,1,,,,,スイショウシャ,0
414,2120901026071,登記記録の閉鎖等,0,2024-02-06,2024-02-01,豊研磨工業株式会社,,株式会社,兵庫県,伊丹市,口酒井３丁目２番１号,,28,207,6640844,,,2024-02-01,清算の結了等,,,2015-10-05,1,,,,,ユタカケンマコウギョウ,0
457,2250002003536,登記記録の閉鎖等,0,2024-02-06,2024-02-02,有限会社宮川事務機,,有限会社,山口県,防府市,岩畠３丁目２２番３６号,,35,206,7470001,,,2024-02-02,清算の結了等,,,2015-10-05,1,,,,,ミヤカワジムキ,0
460,2260002006406,登記記録の閉鎖等,0,2024-02-06,2024-02-02,有限会社千原板金,,有限会社,岡山県,岡山市北区,平野５０１番地,,33,101,7010151,,,2024-02-02,清算の結了等,,,2015-10-05,1,,,,,チハラバンキン,0
499,2380002005453,登記記録の閉鎖等,0,2024-02-06,2024-02-01,有限会社大谷生花店,,有限会社,福島県,福島市,南矢野目字中道８番地の１,,07,201,9600112,,,2024-02-01,合併による解散等,9380002005612,令和６年２月１日福島市北矢野目字樋越１番地株式会社大谷花卉（9380002005612）に合併し解散,2015-10-05,1,,,,,オオタニセイカテン,0
508,2420005002798,登記記録の閉鎖等,0,2024-02-06,2023-12-28,眞言宗八戸教会,,その他の設立登記法人,青森県,八戸市,大字常海町５番地,,02,203,0310082,,,2023-12-28,合併による解散等,6420005002852,令和５年１２月２８日青森県八戸市大字是川字寺ノ上１番地福善寺（6420005002852）に合併し解散,2015-10-05,1,,,,,シンゴンシュウハチノヘキョウカイ,0
524,2470001000719,登記記録の閉鎖等,0,2024-02-06,2024-02-01,株式会社遠藤食糧,,株式会社,香川県,高松市,太田上町７８３番地４,,37,201,7618074,,,2024-02-01,合併による解散等,8470001001694,令和６年２月１日香川県高松市鹿角町２７番地１１株式会社サーティ・ファイブ（8470001001694）に合併し解散,2015-10-05,1,,,,,エンドウショクリョウ,0
544,3010402006748,登記記録の閉鎖等,0,2024-02-06,2024-02-01,有限会社蛇の目寿司,,有限会社,東京都,港区,新橋３丁目２０番４号,,13,103,1050004,,,2024-02-01,清算の結了等,,,2015-10-05,1,,,,,ジャノメスシ,0
549,3010502020112,登記記録の閉鎖等,0,2024-02-06,2024-02-01,有限会社ニュー大泉,,有限会社,東京都,台東区,東上野６丁目１４番１５号,,13,106,1100015,,,2024-02-01,清算の結了等,,,2015-10-05,1,,,,,ニューオオイズミ,0
553,3010601052502,登記記録の閉鎖等,0,2024-02-06,2024-02-01,株式会社ＡｔｏＺ,,株式会社,東京都,江東区,毛利２丁目９番１３－７０１号,,13,108,1350001,,,2024-02-01,清算の結了等,,,2017-11-17,1,,,,,エートゥゼット,0
557,3010705002320,登記記録の閉鎖等,0,2024-02-06,2024-02-01,一般社団法人アジア・テキスタイル文化研究所,,その他の設立登記法人,東京都,品川区,西五反田２丁目１０番８号ドルミ五反田ドゥメゾン３１３号室,,13,109,1410031,,,2024-02-01,清算の結了等,,,2015-10-05,1,,,,,アジアテキスタイルブンカケンキュウジョ,0
584,3011103008562,登記記録の閉鎖等,0,2024-02-06,2024-02-02,合同会社ジェイ・ヴイ・ディー,,合同会社,東京都,新宿区,下宮比町１番４号,,13,104,1620822,,,2024-02-02,清算の結了等,,,2019-02-08,1,,,,,ジェイヴイディー,0
587,3011301026052,登記記録の閉鎖等,0,2024-02-06,2024-01-30,株式会社ＮＫ,,株式会社,東京都,杉並区,堀ノ内３丁目１０番６号,,13,115,1660013,,,2024-01-30,清算の結了等,,,2020-07-08,1,,,,,エヌケー,0
596,3011702009622,登記記録の閉鎖等,0,2024-02-06,2024-01-26,有限会社平井製作所,,有限会社,東京都,江戸川区,平井７丁目１９番２１号,,13,123,1320035,,,2024-01-26,清算の結了等,,,2015-10-05,1,,,,,ヒライセイサクショ,0
605,3020001023391,登記記録の閉鎖等,0,2024-02-06,2024-02-02,株式会社翔昊,,株式会社,神奈川県,横浜市神奈川区,神奈川２丁目１４－１２ニシベビル３０６号室,,14,102,2210045,,,2024-02-02,清算の結了等,,,2015-10-05,1,,,,,ショウコウ,0
606,3020001074641,登記記録の閉鎖等,0,2024-02-06,2024-02-01,株式会社宮川工務店,,株式会社,神奈川県,川崎市川崎区,渡田向町４番１号,,14,131,2100841,,,2024-02-01,清算の結了等,,,2015-10-05,1,,,,,ミヤガワコウムテン,0
618,3021001025824,登記記録の閉鎖等,0,2024-02-06,2024-02-01,フカミ株式会社,,株式会社,神奈川県,大和市,深見台３丁目２番１５号,,14,213,2420013,,,2024-02-01,合併による解散等,4021001025006,令和６年２月１日神奈川県大和市深見台三丁目２番１５号大口商事株式会社（4021001025006）に合併し解散,2015-10-05,1,,,,,フカミ,0
627,3021005012034,登記記録の閉鎖等,0,2024-02-06,2024-02-02,一般社団法人Ｋａｎａｇａｗａ　Ｗｅｌｌｎｅｓｓ　Ｃｏｒｒｉｄｏｒ,,その他の設立登記法人,神奈川県,平塚市,北金目４丁目１番１号東海大学内,,14,203,2591207,,,2024-02-02,清算の結了等,,,2020-10-13,1,,,,,カナガワウェルネスコリドー,0
631,3030001030932,登記記録の閉鎖等,0,2024-02-06,2024-01-31,吉田防災工業株式会社,,株式会社,埼玉県,久喜市,栗原３丁目１番地１１,,11,232,3460012,,,2024-01-31,清算の結了等,,,2015-10-05,1,,,,,ヨシダボウサイコウギョウ,0
641,3040001087971,登記記録の閉鎖等,0,2024-02-06,2024-01-30,株式会社ハッピーケア習志野,,株式会社,千葉県,習志野市,鷺沼台３丁目１３番５号,,12,216,2750015,,,2024-01-30,清算の結了等,,,2015-10-05,1,,,,,ハッピーケアナラシノ,0
650,3050003002275,登記記録の閉鎖等,0,2024-02-06,2024-01-29,合同会社カレント,,合同会社,茨城県,古河市,駒羽根７１２番地１６,,08,204,3060221,,,2024-01-29,清算の結了等,,,2015-10-05,1,,,,,カレント,0
654,3060002029277,登記記録の閉鎖等,0,2024-02-06,2024-02-01,有限会社プライム,,有限会社,栃木県,小山市,西城南６丁目３３番地４,,09,208,3230820,,,2024-02-01,清算の結了等,,,2015-10-05,1,,,,,プライム,0
655,3070005009399,登記記録の閉鎖等,0,2024-02-06,2024-02-01,一般社団法人ＭＴＣ,,その他の設立登記法人,群馬県,高崎市,吉井町岩井１９番地４,,10,202,3702103,,,2024-02-01,清算の結了等,,,2017-11-14,1,,,,,エムティーシー,0
657,3080001011787,登記記録の閉鎖等,0,2024-02-06,2024-02-05,株式会社ワークオンタイム,,株式会社,静岡県,静岡市葵区,両替町１丁目６番地の８第一松永ビル３階,,22,101,4200032,,,2024-02-05,清算の結了等,,,2015-10-05,1,,,,,ワークオンタイム,0
659,3080401003566,登記記録の閉鎖等,0,2024-02-06,2024-02-02,常盤物産株式会社,,株式会社,静岡県,浜松市中央区,上西町１２８８番地,,22,138,4350048,,,2024-02-02,清算の結了等,,,2015-10-05,1,,,,,トキワブッサン,0
663,3100001006883,登記記録の閉鎖等,0,2024-02-06,2024-02-01,星光技研販売株式会社,,株式会社,長野県,長野市,大字柳原１５７３番地,,20,201,3810012,,,2024-02-01,合併による解散等,9100001001623,令和６年２月１日長野市大字柳原１５７３番地株式会社星光技研（9100001001623）に合併し解散,2015-10-05,1,,,,,セイコウギケンハンバイ,0
667,3110002008366,登記記録の閉鎖等,0,2024-02-06,2024-02-05,有限会社ワタナベプラント,,有限会社,新潟県,新潟市江南区,横越東町１丁目９番５号,,15,104,9500209,,,2024-02-05,清算の結了等,,,2015-10-05,1,,,,,ワタナベプラント,0
670,3110005013636,登記記録の閉鎖等,0,2024-02-06,2024-02-01,頼寳院,00071678,その他の設立登記法人,新潟県,魚沼市,十日町９１２番地,,15,225,9460035,,,2024-02-01,清算の結了等,,,2015-10-05,1,,,,,ライホウイン,0
690,3120003010709,登記記録の閉鎖等,0,2024-02-06,2024-01-31,ジェイセレクト合同会社,,合同会社,大阪府,大阪市福島区,福島５丁目１６番１８号,,27,103,5530003,,,2024-01-31,清算の結了等,,,2015-10-05,1,,,,,,0
691,3120003013348,登記記録の閉鎖等,0,2024-02-06,2024-02-05,合同会社美之倉,,合同会社,大阪府,大阪市北区,中津１丁目１８番８号ＮＰビル３Ｆ,,27,127,5310071,,,2024-02-05,清算の結了等,,,2017-09-21,1,,,,,ビノクラ,0
722,3140005001316,登記記録の閉鎖等,0,2024-02-06,2024-01-12,天理教新見湊分教会,,その他の設立登記法人,兵庫県,神戸市垂水区,御霊町５番３号,,28,108,6550024,,,2024-01-12,合併による解散等,6150005006063,令和６年１月１０日奈良県大和高田市神楽一丁目４番５７号天理教中和大教会（6150005006063）に合併し解散,2015-10-05,1,,,,,,0
726,3180001076085,登記記録の閉鎖等,0,2024-02-06,2024-02-02,株式会社大丸,,株式会社,愛知県,小牧市,村中新町７８番地,,23,219,4850083,,,2024-02-02,清算の結了等,,,2024-01-24,1,,,,,ダイマル,0
739,3190002015719,登記記録の閉鎖等,0,2024-02-06,2024-02-01,土田製茶有限会社,,有限会社,三重県,多気郡大台町,新田３７９番地の４,,24,443,5192423,,,2024-02-01,清算の結了等,,,2015-10-05,1,,,,,ツチダセイチャ,0
771,3310002008544,登記記録の閉鎖等,0,2024-02-06,2024-02-05,有限会社松園コンタクト,,有限会社,長崎県,長崎市,千歳町１０番３号よしみビル３階,,42,201,8528135,,,2024-02-05,清算の結了等,,,2015-10-05,1,,,,,,0
783,3360002005586,登記記録の閉鎖等,0,2024-02-06,2024-02-01,有限会社ハピネスプラン,,有限会社,沖縄県,那覇市,壺屋２丁目２６番２号,,47,201,9020065,,,2024-02-01,清算の結了等,,,2015-10-05,1,,,,,ハピネスプラン,0
793,3400001000278,登記記録の閉鎖等,0,2024-02-06,2024-02-01,株式会社いんべリネンサプライ,,株式会社,岩手県,盛岡市,東見前７地割１３２番地,,03,201,0200832,,,2024-02-01,合併による解散等,2400001000213,令和６年２月１日岩手県盛岡市中央通三丁目１３番１号株式会社いんべ（2400001000213）に合併し解散,2015-10-05,1,,,,,インベリネンサプライ,0
803,3460101001716,登記記録の閉鎖等,0,2024-02-06,2024-01-31,株式会社かたぎり,,株式会社,北海道,帯広市,西十三条南３９丁目１０番１号,,01,207,0800023,,,2024-01-31,清算の結了等,,,2015-10-05,1,,,,,カタギリ,0
806,3480001011409,登記記録の閉鎖等,0,2024-02-06,2024-02-05,徳鮮運送株式会社,,株式会社,徳島県,徳島市,北沖洲４丁目１番３８号,,36,201,7700872,,,2024-02-05,合併による解散等,1480001011996,令和６年２月３日徳島市北沖洲四丁目１番３８号株式会社トクスイ（1480001011996）に合併し解散,2021-06-28,1,,,,,トクセンウンソウ,0
812,3500002002164,登記記録の閉鎖等,0,2024-02-06,2024-02-05,株式会社川本組,,株式会社,愛媛県,松山市,北久米町９８１番地１,,38,201,7900923,,,2024-02-05,清算の結了等,,,2015-10-05,1,,,,,,0
847,4010801003205,登記記録の閉鎖等,0,2024-02-06,2024-01-31,株式会社ギャラリーワック,,株式会社,東京都,大田区,大森北１丁目３３番１２－４０２号,,13,111,1430016,,,2024-01-31,清算の結了等,,,2015-10-05,1,,,,,ギャラリーワック,0
853,4011001092831,登記記録の閉鎖等,0,2024-02-06,2024-02-05,株式会社エヌマークスネット,,株式会社,北海道,札幌市中央区,南一条西６丁目１５番地１,,01,101,0600061,,,2024-02-05,清算の結了等,,,2015-10-05,1,,,,,エヌマークスネット,0
867,4011102018207,登記記録の閉鎖等,0,2024-02-06,2024-01-31,有限会社能登デザイン,,有限会社,東京都,新宿区,納戸町１２,,13,104,1620837,,,2024-01-31,清算の結了等,,,2015-10-05,1,,,,,ノトデザイン,0
869,4011205000350,登記記録の閉鎖等,0,2024-02-06,2024-01-17,天理教本芝都分教会,,その他の設立登記法人,東京都,中野区,新井４丁目７番８号,,13,114,1650026,,,2024-01-17,合併による解散等,8010405001452,令和６年１月５日東京都港区高輪一丁目２２番１７号天理教本芝大教会（8010405001452）に合併し解散,2015-10-05,1,,,,,,0
874,4011501021323,登記記録の閉鎖等,0,2024-02-06,2024-02-02,株式会社クロノス,,株式会社,東京都,練馬区,高松６丁目２１番５号,,13,120,1790075,,,2024-02-02,合併による解散等,8011001119903,令和６年１月１日東京都府中市天神町一丁目２５番地の４３株式会社スペースナビ（8011001119903）に合併し解散,2016-02-16,1,,,,,クロノス,0
880,4012801010049,登記記録の閉鎖等,0,2024-02-06,2024-01-25,ＣＯＳＳＫＹ株式会社,,株式会社,神奈川県,秦野市,鶴巻南１丁目２３番２０号ハウスＫ湘南２０２号室,,14,211,2570002,,,2024-01-25,清算の結了等,,,2015-10-05,1,,,,,コスカイ,0
899,4020002074961,登記記録の閉鎖等,0,2024-02-06,2024-01-31,有限会社スタジオ・スパイス,,有限会社,神奈川県,横浜市西区,久保町４８番１５号,,14,103,2200061,,,2024-01-31,清算の結了等,,,2015-10-05,1,,,,,スタジオスパイス,0
910,4021002033445,登記記録の閉鎖等,0,2024-02-06,2024-02-01,有限会社本橋木型製作所,,有限会社,神奈川県,厚木市,上依知１２９番地２,,14,212,2430801,,,2024-02-01,清算の結了等,,,2015-10-05,1,,,,,モトハシキガタセイサクショ,0
944,4080102021189,登記記録の閉鎖等,0,2024-02-06,2024-02-01,有限会社大和,,有限会社,静岡県,下田市,柿崎７０７番地の２の４,,22,219,4150013,,,2024-02-01,清算の結了等,,,2015-10-05,1,,,,,ヤマト,0
949,4100002037027,登記記録の閉鎖等,0,2024-02-06,2024-02-01,温田開発有限会社,00069746,有限会社,長野県,下伊那郡下條村,睦沢９３０４番地１,,20,411,3992101,,,2024-02-01,清算の結了等,,,2015-10-05,1,,,,,ヌクダカイハツ,0
955,4120001217387,登記記録の閉鎖等,0,2024-02-06,2024-01-31,株式会社ＴＵＧＢＯＡＴ　ＴＡＩＳＨＯ,,株式会社,大阪府,大阪市生野区,桃谷５丁目５番３７号いくのパーク講堂棟３Ｆ,,27,116,5440034,,,2024-01-31,合併による解散等,4120001113280,令和６年１月３１日大阪市生野区桃谷五丁目５番３７号いくのパーク講堂棟３Ｆ株式会社ＲＥＴＯＷＮ（4120001113280）に合併し解散,2018-11-28,1,,,,,タグボートタイショウ,0
960,4120001239084,登記記録の閉鎖等,0,2024-02-06,2024-02-01,一念株式会社,,株式会社,東京都,新宿区,西新宿８丁目１４番１８号恵南ビル５－５階Ｃ室,,13,104,1600023,,,2024-02-01,清算の結了等,,,2021-07-21,1,,,,,イチネン,0
969,4120003009808,登記記録の閉鎖等,0,2024-02-06,2024-01-31,合同会社フローベア,,合同会社,大阪府,大阪市北区,本庄西２丁目１６番ｌ３号,,27,127,5310073,,,2024-01-31,清算の結了等,,,2015-10-05,1,,,,,フローベア,0
976,4120105004310,登記記録の閉鎖等,0,2024-02-06,2024-01-22,天理教堺華分教会,,その他の設立登記法人,大阪府,大阪狭山市,池尻中１丁目１３番８号,,27,231,5890007,,,2024-01-22,合併による解散等,9120105001088,令和６年１月２２日大阪府堺市堺区向陵中町三丁１番１号天理教堺大教会（9120105001088）に合併し解散,2015-10-05,1,,,,,テンリキョウカイカブンキョウカイ,0
977,4120901010809,登記記録の閉鎖等,0,2024-02-06,2024-02-05,株式会社クリーンエネルギー五色,,株式会社,大阪府,高槻市,宮田町１丁目１番８号,,27,207,5691142,,,2024-02-05,清算の結了等,,,2015-10-05,1,,,,,クリーンエネルギーゴシキ,0
979,4120901037950,登記記録の閉鎖等,0,2024-02-06,2024-02-05,株式会社クアトロ,,株式会社,大阪府,池田市,伏尾台２丁目９番２号,,27,204,5630017,,,2024-02-05,清算の結了等,,,2017-01-26,1,,,,,クアトロ,0
987,4130001030806,登記記録の閉鎖等,0,2024-02-06,2024-02-01,株式会社イオテック,,株式会社,大阪府,大阪市淀川区,西中島７丁目１番２６号,,27,123,5320011,,,2024-02-01,清算の結了等,,,2015-10-05,1,,,,,イオテック,0
989,4130001039079,登記記録の閉鎖等,0,2024-02-06,2024-02-01,ウチノ看板関西株式会社,,株式会社,京都府,綴喜郡宇治田原町,大字立川小字金井谷１番地１３,,26,344,6100231,,,2024-02-01,合併による解散等,6030001023710,令和５年１２月２１日埼玉県所沢市三ケ島一丁目２３番地の２ウチノ看板株式会社（6030001023710）に合併し解散,2015-10-05,1,,,,,,0
1019,4180001077553,登記記録の閉鎖等,0,2024-02-06,2024-01-31,株式会社ペンタコム,,株式会社,愛知県,春日井市,前並町１丁目１９番地３,,23,206,4860903,,,2024-01-31,清算の結了等,,,2015-10-05,1,,,,,ペンタコム,0
1027,4190005010006,登記記録の閉鎖等,0,2024-02-06,2024-02-02,アジア経済研究協同組合,,その他の設立登記法人,三重県,桑名市,大字和泉８３番地３,,24,205,5110838,,,2024-02-02,清算の結了等,,,2015-10-05,1,,,,,アジアケイザイケンキュウ,0
1029,4200001016186,登記記録の閉鎖等,0,2024-02-06,2024-02-02,株式会社エンドウ,,株式会社,岐阜県,揖斐郡池田町,本郷６３７番地の１,,21,404,5032417,,,2024-02-02,清算の結了等,,,2015-10-05,1,,,,,エンドウ,0
1036,4220001009865,登記記録の閉鎖等,0,2024-02-06,2024-01-11,ユーロフィン太陽テクノリサーチ株式会社,,株式会社,石川県,金沢市,高畠３丁目７６番地,,17,201,9218001,,,2024-01-11,合併による解散等,2230001013166,令和６年１月１日富山県射水市戸破８番地１７ユーロフィンアースコンサル株式会社（2230001013166）に合併し解散,2015-10-05,1,,,,,ユーロフィンタイヨウテクノリサーチ,0
1047,4260002002072,登記記録の閉鎖等,0,2024-02-06,2024-02-02,有限会社大本林業,,有限会社,岡山県,岡山市北区,内山下１丁目１番１３号,,33,101,7000824,,,2024-02-02,清算の結了等,,,2015-10-05,1,,,,,オオモトリンギョウ,0
1088,4430002046110,登記記録の閉鎖等,0,2024-02-06,2024-02-01,有限会社マキシドルパ,,有限会社,北海道,江別市,高砂町６番地,,01,217,0670074,,,2024-02-01,合併による解散等,5430001042968,令和６年２月１日北海道江別市一番町４番地１株式会社はやし（5430001042968）に合併し解散,2015-10-05,1,,,,,マキシドルパ,0
1090,4430005008388,登記記録の閉鎖等,0,2024-02-06,2024-01-29,ニセコ町土地開発公社,,その他の設立登記法人,北海道,虻田郡ニセコ町,字富士見４７番地,,01,395,0481501,,,2024-01-29,清算の結了等,,,2015-10-05,1,,,,,ニセコチョウ,0
1095,4460102006787,登記記録の閉鎖等,0,2024-02-06,2024-02-01,有限会社臼井重機,,有限会社,北海道,広尾郡広尾町,字野塚１０線３２番,,01,642,0892561,,,2024-02-01,清算の結了等,,,2015-10-05,1,,,,,ウスイジュウキ,0
1097,4470002010855,登記記録の閉鎖等,0,2024-02-06,2024-02-05,有限会社新池機械,,有限会社,香川県,綾歌郡綾川町,萱原６４番地２６,,37,387,7612304,,,2024-02-05,清算の結了等,,,2015-10-05,1,,,,,シンイケキカイ,0
1102,5010001079391,登記記録の閉鎖等,0,2024-02-06,2024-01-16,株式会社アイコン・ジャパン,,株式会社,東京都,港区,虎ノ門４丁目３番９号,,13,103,1050001,,,2024-01-16,合併による解散等,9120001084022,令和５年１２月３１日大阪市中央区久太郎町四丁目１番３号ＰＲＡヘルスサイエンス株式会社（9120001084022）に合併し解散,2015-10-05,1,,,,,アイコンジャパン,0
1108,5010001184043,登記記録の閉鎖等,0,2024-02-06,2024-02-01,シンプルビジネスソリューションズ株式会社,,株式会社,東京都,千代田区,一ツ橋２丁目４番４号,,13,101,1010003,,,2024-02-01,合併による解散等,7010001163607,令和６年２月１日東京都千代田区一ツ橋二丁目４番４号株式会社エスピーアイ（7010001163607）に合併し解散,2017-06-09,1,,,,,シンプルビジネスソリューションズ,0
1109,5010001210559,登記記録の閉鎖等,0,2024-02-06,2024-01-31,株式会社アラトマ,,株式会社,東京都,千代田区,九段南１丁目５－６りそな九段ビル５Ｆ、ＫＳフロア,,13,101,1020074,,,2024-01-31,清算の結了等,,,2020-06-29,1,,,,,アラトマ,0
1117,5010003042232,登記記録の閉鎖等,0,2024-02-06,2024-02-01,ソーラーサティ合同会社,,合同会社,東京都,中央区,八丁堀４丁目２番１０号ＡＯＪ税理士法人内,,13,102,1040032,,,2024-02-01,合併による解散等,7010001167079,令和６年１月２６日東京都港区東新橋一丁目５番２号汐留シティセンター８階リアルブルーソーラー合同会社内株式会社かがやき開発（7010001167079）に合併し解散,2023-11-17,1,,,,,ソーラーサティ,0
1130,5010502019961,登記記録の閉鎖等,0,2024-02-06,2024-02-01,有限会社貳番館,,有限会社,東京都,台東区,根岸１丁目６番１４号,,13,106,1100003,,,2024-02-01,清算の結了等,,,2015-10-05,1,,,,,ニバンカン,0
1138,5010801015521,登記記録の閉鎖等,0,2024-02-06,2024-01-30,株式会社金丸刀剣店,,株式会社,東京都,大田区,多摩川２丁目５番１－５０２号,,13,111,1460095,,,2024-01-30,清算の結了等,,,2015-10-05,1,,,,,カネマルトウケンテン,0
1152,5011101000172,登記記録の閉鎖等,0,2024-02-06,2024-01-31,株式会社アーキブレーン,,株式会社,東京都,江東区,豊洲５丁目６番１０－４０９号,,13,108,1350061,,,2024-01-31,清算の結了等,,,2015-10-05,1,,,,,アーキブレーン,0
1153,5011101018553,登記記録の閉鎖等,0,2024-02-06,2024-02-05,フィルムルックス株式会社,,株式会社,東京都,新宿区,山吹町１３０番地１６,,13,104,1620801,,,2024-02-05,清算の結了等,,,2015-10-05,1,,,,,フィルムルックス,0
1170,5012301002941,登記記録の閉鎖等,0,2024-02-06,2024-01-18,アストモスリテイリング株式会社,,株式会社,東京都,千代田区,丸の内１丁目７番１２号,,13,101,1000005,,,2024-01-18,合併による解散等,5270001003672,令和６年１月１日鳥取県米子市昭和町１１番地大陽日酸エネルギー株式会社（5270001003672）に合併し解散,2015-10-05,1,,,,,アストモスリテイリング,0
1181,5020001054451,登記記録の閉鎖等,0,2024-02-06,2024-02-01,株式会社ケイビット,,株式会社,神奈川県,横浜市港北区,岸根町１６０番地２,,14,109,2220034,,,2024-02-01,清算の結了等,,,2015-10-05,1,,,,,ケイビット,0
1199,5021002070470,登記記録の閉鎖等,0,2024-02-06,2024-02-01,有限会社若松地所,,有限会社,神奈川県,横須賀市,上町１丁目５３番地２,,14,201,2380017,,,2024-02-01,合併による解散等,9021001041056,令和６年２月１日神奈川県横須賀市若松町一丁目１８番地平成ハウジング株式会社（9021001041056）に合併し解散,2015-10-05,1,,,,,,0
1206,5030003015302,登記記録の閉鎖等,0,2024-02-06,2024-01-31,合同会社Ｌａｐｔｏｐ　Ｅｄｕｃａｔｉｏｎ,,合同会社,埼玉県,富士見市,水谷東２丁目５７番地９,,11,235,3540013,,,2024-01-31,清算の結了等,,,2020-05-22,1,,,,,ラップトップエデュケーション,0
1209,5040001027348,登記記録の閉鎖等,0,2024-02-06,2024-01-29,株式会社原田屋商事,,株式会社,千葉県,市川市,行徳駅前２丁目９番２号,,12,203,2720133,,,2024-01-29,清算の結了等,,,2015-10-05,1,,,,,ハラダヤショウジ,0
1216,5040003005517,登記記録の閉鎖等,0,2024-02-06,2024-01-04,合同会社勝総合企画,,合同会社,千葉県,八千代市,大和田新田４６９番地１９９,,12,221,2760046,,,2024-01-04,合併による解散等,5040003007298,令和６年１月１日千葉県八千代市大和田新田４６９番地１９９ティケージェー合同会社（5040003007298）に合併し解散,2015-10-05,1,,,,,カツソウゴウキカク,0
1217,5040003005913,登記記録の閉鎖等,0,2024-02-06,2024-01-04,合同会社勝企画,,合同会社,千葉県,八千代市,大和田新田４６９番地１９９,,12,221,2760046,,,2024-01-04,合併による解散等,5040003007298,令和６年１月１日千葉県八千代市大和田新田４６９番地１９９ティケージェー合同会社（5040003007298）に合併し解散,2015-10-05,1,,,,,カツキカク,0
1223,5050001031927,登記記録の閉鎖等,0,2024-02-06,2024-02-01,株式会社新拓産業,,株式会社,茨城県,桜川市,大国玉４４８５番地３,,08,231,3091244,,,2024-02-01,清算の結了等,,,2015-10-05,1,,,,,シンタクサンギョウ,0
1226,5060001001904,登記記録の閉鎖等,0,2024-02-06,2024-02-01,株式会社サンワ,,株式会社,栃木県,宇都宮市,塙田３丁目３番５号,,09,201,3200027,,,2024-02-01,清算の結了等,,,2015-10-05,1,,,,,サンワ,0
1230,5070001007223,登記記録の閉鎖等,0,2024-02-06,2024-01-31,島田印刷株式会社,,株式会社,群馬県,高崎市,下小塙町１３４７番地の１,,10,202,3700076,,,2024-01-31,清算の結了等,,,2015-10-05,1,,,,,シマダインサツ,0
1240,5100002010957,登記記録の閉鎖等,0,2024-02-06,2024-02-01,高山プラスチック有限会社,00069469,有限会社,長野県,北佐久郡御代田町,大字馬瀬口６２２番地の２,,20,323,3890207,,,2024-02-01,清算の結了等,,,2015-10-05,1,,,,,タカヤマプラスチック,0
1243,5120001105244,登記記録の閉鎖等,0,2024-02-06,2024-01-10,関東共栄株式会社,,株式会社,大阪府,大阪市西区,靭本町二丁目２番１７号,00045976,27,106,5500000,,,2024-01-10,合併による解散等,4140001041694,令和５年１２月３１日兵庫県丹波篠山市西阪本４６１番地共栄樹脂株式会社（4140001041694）に合併し解散,2015-10-05,1,,,,,カントウキョウエイ,0
1341,5280002000040,登記記録の閉鎖等,0,2024-02-06,2024-02-05,有限会社アイムサポートセンター,,有限会社,島根県,松江市,西尾町１番地１,,32,201,6900835,,,2024-02-05,清算の結了等,,,2015-10-05,1,,,,,アイムサポートセンター,0
1343,5290001012523,登記記録の閉鎖等,0,2024-02-06,2024-01-09,ダンロップタイヤ九州株式会社,,株式会社,福岡県,福岡市博多区,榎田２丁目１番６５号,,40,132,8120004,,,2024-01-09,合併による解散等,4010601023832,令和６年１月１日東京都港区港南一丁目６番４１号芝浦クリスタル品川６階ダンロップタイヤ中央株式会社（4010601023832）に合併し解散,2015-10-05,1,,,,,,0
1381,5380001031019,登記記録の閉鎖等,0,2024-02-06,2024-01-31,株式会社ｆｏｒｔｈ,,株式会社,福島県,伊達郡桑折町,大字伊達崎字宮ノ前５－４,,07,301,9691663,,,2024-01-31,清算の結了等,,,2020-06-17,1,,,,,フォース,0
1387,5420002009190,登記記録の閉鎖等,0,2024-02-06,2024-02-01,有限会社山本商会,,有限会社,青森県,八戸市,大字大久保字大山１１１番地６,,02,203,0310833,,,2024-02-01,清算の結了等,,,2015-10-05,1,,,,,ヤマモトショウカイ,0
1389,5430001022318,登記記録の閉鎖等,0,2024-02-06,2024-01-09,ダンロップタイヤ北海道株式会社,,株式会社,北海道,札幌市白石区,南郷通２０丁目南２番６号,,01,104,0030022,,,2024-01-09,合併による解散等,4010601023832,令和６年１月１日東京都港区港南一丁目６番４１号芝浦クリスタル品川６階ダンロップタイヤ中央株式会社（4010601023832）に合併し解散,2015-10-05,1,,,,,ダンロップタイヤホッカイドウ,0
1398,5430005001466,登記記録の閉鎖等,0,2024-02-06,2024-01-04,医療法人桑園中央病院,,その他の設立登記法人,北海道,札幌市中央区,北八条西１６丁目２８番地３５,,01,101,0600008,,,2024-01-04,合併による解散等,8430005003369,令和６年１月４日札幌市南区川沿二条三丁目２番３２号医療法人社団ＣＨＣＰヘルスケアシステム（8430005003369）に合併し解散,2015-10-05,1,,,,,ソウエンチュウオウビョウイン,0
1410,5500005004528,登記記録の閉鎖等,0,2024-02-06,2024-01-12,天理教愛島分教会,,その他の設立登記法人,愛媛県,新居浜市,大島２２８番地,,38,205,7920891,,,2024-01-12,合併による解散等,8500005004533,令和６年１月１２日愛媛県新居浜市阿島三丁目１番２２号天理教阿島分教会（8500005004533）に合併し解散,2015-10-05,1,,,,,テンリキョウアイジマブンキョウカイ,0
1419,6010001055689,登記記録の閉鎖等,0,2024-02-06,2024-02-02,株式会社不二家エージエント,,株式会社,東京都,港区,赤坂２丁目１２番２０号ディアシティ赤坂東館,,13,103,1070052,,,2024-02-02,合併による解散等,5010001148329,令和６年２月１日東京都文京区大塚二丁目１５番６号テクノ保険サービス株式会社（5010001148329）に合併し解散,2015-10-05,1,,,,,,0
1422,6010001158517,登記記録の閉鎖等,0,2024-02-06,2024-02-01,株式会社Ｍｉｒａｉｋｕ,,株式会社,東京都,千代田区,三番町１番１３号ワールド・ワイド・センタービル２階,,13,101,1020075,,,2024-02-01,合併による解散等,3010001141120,令和６年２月１日東京都千代田区三番町１番１３号ワールド・ワイド・センタービル２階株式会社Ａｍａｚｉｎｇ　Ｓｐｏｒｔｓ　Ｌａｂ　Ｊａｐａｎ（3010001141120）に合併し解散,2015-10-05,1,,,,,ミライク,0
1431,6010003023297,登記記録の閉鎖等,0,2024-02-06,2024-01-31,合同会社和泉屋,,合同会社,東京都,文京区,音羽１丁目２６番１３号藤和シティホームズ文京音羽４０１号,,13,105,1120013,,,2024-01-31,清算の結了等,,,2016-03-24,1,,,,,イズミヤ,0
1451,6010801001966,登記記録の閉鎖等,0,2024-02-06,2024-02-01,株式会社大井プラップ,,株式会社,東京都,大田区,東糀谷５丁目２２番６号,,13,111,1440033,,,2024-02-01,清算の結了等,,,2015-10-05,1,,,,,オオイプラップ,0
1465,6011101065173,登記記録の閉鎖等,0,2024-02-06,2024-02-02,株式会社戸塚ロイヤルメディカルサービス,,株式会社,東京都,新宿区,西早稲田３丁目３１番８－２０２号,,13,104,1690051,,,2024-02-02,清算の結了等,,,2015-10-05,1,,,,,トツカロイヤルメディカルサービス,0
1527,6040001023189,登記記録の閉鎖等,0,2024-02-06,2024-01-30,テクノロックアジア株式会社,,株式会社,千葉県,八千代市,八千代台東３丁目１３番２７号,,12,221,2760032,,,2024-01-30,清算の結了等,,,2015-10-05,1,,,,,テクノロックアジア,0
1548,6080102007236,登記記録の閉鎖等,0,2024-02-06,2024-02-02,有限会社ドゥ・アーキテクツ,,有限会社,静岡県,御殿場市,川島田９８８番地の１,,22,215,4120045,,,2024-02-02,清算の結了等,,,2015-10-05,1,,,,,ドゥアーキテクツ,0
1549,6080102007707,登記記録の閉鎖等,0,2024-02-06,2024-02-01,有限会社スタッズ,,有限会社,静岡県,御殿場市,神場３丁目１２番地,,22,215,4120047,,,2024-02-01,清算の結了等,,,2015-10-05,1,,,,,スタッズ,0
1552,6100001027852,登記記録の閉鎖等,0,2024-02-06,2024-02-01,株式会社リリーフ野崎,,株式会社,長野県,茅野市,ちの２７７番地９,,20,214,3910001,,,2024-02-01,清算の結了等,,,2015-10-05,1,,,,,リリーフノザキ,0
1566,6120001221107,登記記録の閉鎖等,0,2024-02-06,2024-02-01,株式会社ＴＡＭＡコーポレーション,,株式会社,大阪府,大阪市東住吉区,桑津２丁目６番４号,,27,121,5460041,,,2024-02-01,清算の結了等,,,2019-05-20,1,,,,,タマコーポレーション,0
1585,6130001016605,登記記録の閉鎖等,0,2024-02-06,2024-02-01,ＣＥＬＵＸ　ＬＯＶＥＲ　ＷＥＤＤＩＮＧ株式会社,,株式会社,京都府,京都市中京区,烏丸通六角下る七観音町６２９番地１,,26,104,6048162,,,2024-02-01,合併による解散等,8130001023847,令和６年２月１日京都市中京区烏丸通六角下る七観音町６２９番地１Ｃ＆Ｃ株式会社（8130001023847）に合併し解散,2015-10-05,1,,,,,セリュックスラバーウェディング,0
1603,6140002026949,登記記録の閉鎖等,0,2024-02-06,2024-02-02,有限会社金山重機,,有限会社,兵庫県,神戸市西区,竜が岡５丁目２３番地の５,,28,111,6512412,,,2024-02-02,清算の結了等,,,2015-10-05,1,,,,,カナヤマジュウキ,0
1607,6150005005354,登記記録の閉鎖等,0,2024-02-06,2024-01-15,天理教新上分教会,,その他の設立登記法人,奈良県,高市郡高取町,大字観覚寺１４４２番地,,29,401,6350154,,,2024-01-15,合併による解散等,1150005005342,令和６年１月１５日奈良県高市郡明日香村大字岡３９５番地天理教岡大教会（1150005005342）に合併し解散,2015-10-05,1,,,,,テンリキョウシンジョウブンキョウカイ,0
1618,6180301014238,登記記録の閉鎖等,0,2024-02-06,2024-01-31,株式会社津鐵工業,,株式会社,愛知県,高浜市,二池町３丁目１番地１,,23,227,4441322,,,2024-01-31,清算の結了等,,,2015-10-05,1,,,,,シンテツコウギョウ,0
1622,6210001018254,登記記録の閉鎖等,0,2024-02-06,2024-02-05,株式会社ＴＳＦ,,株式会社,福井県,福井市,別所町第１９号１８番地,,18,201,9188115,,,2024-02-05,清算の結了等,,,2020-12-25,1,,,,,ティエスエフ,0
1625,6220001009070,登記記録の閉鎖等,0,2024-02-06,2024-02-02,株式会社かわい,,株式会社,石川県,白山市,八日市町２３番地１,,17,210,9240873,,,2024-02-02,清算の結了等,,,2015-10-05,1,,,,,カワイ,0
1627,6240001010241,登記記録の閉鎖等,0,2024-02-06,2024-01-09,ダンロップタイヤ中国株式会社,,株式会社,広島県,広島市西区,観音新町２丁目１番１０号,,34,104,7330036,,,2024-01-09,合併による解散等,4010601023832,令和６年１月１日東京都港区港南一丁目６番４１号芝浦クリスタル品川６階ダンロップタイヤ中央株式会社（4010601023832）に合併し解散,2015-10-05,1,,,,,ダンロップタイヤチュウゴク,0
1628,6240001035874,登記記録の閉鎖等,0,2024-02-06,2024-01-31,福山物流株式会社,,株式会社,広島県,福山市,新涯町５丁目３５番４７－３号,,34,207,7210955,,,2024-01-31,清算の結了等,,,2015-10-05,1,,,,,フクヤマブツリュウ,0
1634,6250005002787,登記記録の閉鎖等,0,2024-02-06,2024-02-01,中山身語正宗香照寺,,その他の設立登記法人,山口県,美祢市,大嶺町西分７８３番地,,35,213,7592213,,,2024-02-01,清算の結了等,,,2015-10-05,1,,,,,ナカヤマシンゴショウシュウコウショウジ,0
1637,6260002029270,登記記録の閉鎖等,0,2024-02-06,2024-02-02,有限会社福原敷物,,有限会社,岡山県,久米郡久米南町,里方７８１番地,,33,663,7093602,,,2024-02-02,清算の結了等,,,2015-10-05,1,,,,,フクハラシキモノ,0
1638,6270002008125,登記記録の閉鎖等,0,2024-02-06,2024-02-02,有限会社加川人工授精所,,有限会社,鳥取県,西伯郡伯耆町,遠藤１０２番地,,31,390,6894134,,,2024-02-02,清算の結了等,,,2015-10-05,1,,,,,カガワジンコウジュセイショ,0
1658,6310005003894,登記記録の閉鎖等,0,2024-02-06,2024-01-19,徳相寺,,その他の設立登記法人,長崎県,佐世保市,鹿町町下歌ヶ浦９１５番地,,42,202,8596204,,,2024-01-19,合併による解散等,1310005002678,令和６年１月１９日長崎県佐世保市瀬戸越町１３０８番地７西蓮寺（1310005002678）に合併し解散,2015-10-05,1,,,,,,0
1662,6340001012442,登記記録の閉鎖等,0,2024-02-06,2024-02-05,株式会社カネヒロ,,株式会社,鹿児島県,鹿児島市,小松原２丁目２８番１１号,,46,201,8910114,,,2024-02-05,清算の結了等,,,2015-10-05,1,,,,,カネヒロ,0
1664,6340005002935,登記記録の閉鎖等,0,2024-02-06,2024-01-23,稲荷神社,,その他の設立登記法人,鹿児島県,姶良市,上名１９３４番地,,46,225,8995542,,,2024-01-23,合併による解散等,1340005003095,令和６年１月２３日鹿児島県姶良市上名５８５番地黒島神社（1340005003095）に合併し解散,2015-10-05,1,,,,,イナリジンジャ,0
1670,6360005006273,登記記録の閉鎖等,0,2024-02-06,2024-02-01,特定非営利活動法人球葉の緑化推進協会,,その他の設立登記法人,沖縄県,中頭郡嘉手納町,字嘉手納５１８番地３,,47,325,9040203,,,2024-02-01,清算の結了等,,,2020-08-06,1,,,,,クバノリョクカスイシンキョウカイ,0
1688,6480002013302,登記記録の閉鎖等,0,2024-02-06,2024-02-02,有限会社ちくし活魚,,有限会社,徳島県,阿南市,椿町加茂前１１番地の８,,36,204,7791750,,,2024-02-02,清算の結了等,,,2015-10-05,1,,,,,チクシカツギョ,0
1703,7010002031309,登記記録の閉鎖等,0,2024-02-06,2024-01-31,有限会社九工建設,,有限会社,神奈川県,横浜市都筑区,茅ケ崎中央４６番１４号,,14,118,2240032,,,2024-01-31,合併による解散等,4020001104983,令和６年１月３１日横浜市都筑区中川中央一丁目２３番１号フォーレスト・ノース・ビル４０２号室株式会社アグリナイン（4020001104983）に合併し解散,2015-10-05,1,,,,,キュウコウケンセツ,0
1742,7011005002759,登記記録の閉鎖等,0,2024-02-06,2024-01-26,特定非営利活動法人日中介護事業交流協会,,その他の設立登記法人,東京都,新宿区,新宿２丁目１７番１０号,,13,104,1600022,,,2024-01-26,清算の結了等,,,2015-10-05,1,,,,,ニッチュウカイゴジギョウコウリュウキョウカイ,0
1750,7011103010993,登記記録の閉鎖等,0,2024-02-06,2024-02-02,合同会社ＥＳ４８,,合同会社,東京都,新宿区,下宮比町１番４号,,13,104,1620822,,,2024-02-02,清算の結了等,,,2021-09-06,1,,,,,イーエスヨンジュウハチ,0
1762,7012701010220,登記記録の閉鎖等,0,2024-02-06,2024-01-31,株式会社トリニティー,,株式会社,東京都,西東京市,ひばりが丘北３丁目２番３号,,13,229,2020002,,,2024-01-31,清算の結了等,,,2015-10-05,1,,,,,トリニティー,0
1769,7013203001617,登記記録の閉鎖等,0,2024-02-06,2024-02-01,合同会社稲田商店,,合同会社,東京都,目黒区,洗足２丁目５番１７号,,13,110,1520012,,,2024-02-01,清算の結了等,,,2015-10-05,1,,,,,イナダショウテン,0
1770,7013301023026,登記記録の閉鎖等,0,2024-02-06,2024-01-30,株式会社フューテックス・ＳＴ,,株式会社,東京都,豊島区,駒込２丁目７番７－４０５号,,13,116,1700003,,,2024-01-30,清算の結了等,,,2015-10-05,1,,,,,,0
1773,7020001072402,登記記録の閉鎖等,0,2024-02-06,2024-01-19,株式会社電材グローバルソリューションズ,,株式会社,神奈川県,川崎市川崎区,浅野町９番１号,,14,131,2100854,,,2024-01-19,合併による解散等,2020001109654,令和６年１月１日北海道室蘭市大沢町一丁目２番８号株式会社電材ホールディングス（2020001109654）に合併し解散,2015-10-05,1,,,,,デンザイグローバルソリューションズ,0
1787,7021002003833,登記記録の閉鎖等,0,2024-02-06,2024-02-05,有限会社二楽荘,,有限会社,神奈川県,藤沢市,片瀬海岸１丁目１２番１５号,,14,205,2510035,,,2024-02-05,清算の結了等,,,2015-10-05,1,,,,,ニラクソウ,0
1788,7021002004542,登記記録の閉鎖等,0,2024-02-06,2024-02-02,有限会社ほどしま,,有限会社,神奈川県,藤沢市,辻堂１丁目４番１７号,,14,205,2510047,,,2024-02-02,清算の結了等,,,2015-10-05,1,,,,,ホドシマ,0
1790,7021002035819,登記記録の閉鎖等,0,2024-02-06,2024-02-05,有限会社イーエルオーディオ,,有限会社,神奈川県,伊勢原市,桜台３丁目９番３９号,,14,214,2591132,,,2024-02-05,清算の結了等,,,2015-10-05,1,,,,,イーエルオーディオ,0
1802,7030003010557,登記記録の閉鎖等,0,2024-02-06,2024-01-31,ユーワイ商事合同会社,,合同会社,埼玉県,川口市,東領家４丁目２番３号,,11,203,3320003,,,2024-01-31,清算の結了等,,,2017-07-25,1,,,,,ユーワイショウジ,0
1832,7100001016128,登記記録の閉鎖等,0,2024-02-06,2024-02-01,株式会社片倉事務所,,株式会社,長野県,松本市,高宮中７番３３号,,20,202,3900834,,,2024-02-01,清算の結了等,,,2015-10-05,1,,,,,カタクラジムショ,0
1834,7100005010341,登記記録の閉鎖等,0,2024-02-06,2024-02-01,特定非営利活動法人竜峡竹炭友の会,,その他の設立登記法人,長野県,飯田市,駄科１４２７番地５,,20,205,3992561,,,2024-02-01,清算の結了等,,,2015-10-05,1,,,,,リュウキョウチクタントモノカイ,0
1839,7120001068035,登記記録の閉鎖等,0,2024-02-06,2024-01-31,株式会社トーヨーサービス,,株式会社,大阪府,大阪市中央区,久太郎町２丁目４番２７号,,27,128,5410056,,,2024-01-31,清算の結了等,,,2015-10-05,1,,,,,トーヨーサービス,0
1856,7120002061526,登記記録の閉鎖等,0,2024-02-06,2024-02-05,有限会社アンビシャス・コーポレーション,,有限会社,大阪府,大阪市西成区,岸里東１丁目１９番４号,,27,122,5570042,,,2024-02-05,清算の結了等,,,2015-10-05,1,,,,,アンビシャスコーポレーション,0
1868,7130002026651,登記記録の閉鎖等,0,2024-02-06,2024-02-01,有限会社渡邊音楽事務所,00037783,有限会社,京都府,宇治市,小倉町西浦８８番地の９７ハイブ福富３階,,26,204,6110042,,,2024-02-01,清算の結了等,,,2015-10-05,1,,,,,ワタナベオンガクジムショ,0
1892,7180001060300,登記記録の閉鎖等,0,2024-02-06,2024-02-01,株式会社井森舎,,株式会社,愛知県,名古屋市昭和区,花見通２丁目１１番地,,23,107,4660831,,,2024-02-01,清算の結了等,,,2015-10-05,1,,,,,イモリシャ,0
1912,7240001042804,登記記録の閉鎖等,0,2024-02-06,2024-01-31,ヤマニシ興産株式会社,,株式会社,広島県,広島市佐伯区,観音台３丁目２０番１１号,,34,108,7315157,,,2024-01-31,合併による解散等,9240001019420,令和６年１月３１日広島市佐伯区隅の浜三丁目３番２２号株式会社ニシムラ（9240001019420）に合併し解散,2015-10-05,1,,,,,ヤマニシコウサン,0
1930,7340001007160,登記記録の閉鎖等,0,2024-02-06,2024-01-30,秋窪建設株式会社,,株式会社,鹿児島県,霧島市,隼人町見次２７０番地,,46,218,8995117,,,2024-01-30,清算の結了等,,,2015-10-05,1,,,,,アキクボケンセツ,0
1952,7440001000452,登記記録の閉鎖等,0,2024-02-06,2024-02-02,株式会社亀井,,株式会社,北海道,函館市,若松町１８番１号,,01,202,0400063,,,2024-02-02,清算の結了等,,,2015-10-05,1,,,,,カメイ,0
1957,7500001009207,登記記録の閉鎖等,0,2024-02-06,2024-02-01,株式会社水中スタッフサービス,,株式会社,岡山県,玉野市,渋川１丁目２３番４号,,33,204,7060028,,,2024-02-01,清算の結了等,,,2015-10-05,1,,,,,スイチュウスタッフサービス,0
1967,8010001139639,登記記録の閉鎖等,0,2024-02-06,2024-01-31,株式会社デビュタント,,株式会社,東京都,千代田区,平河町２丁目７番１０号,,13,101,1020093,,,2024-01-31,清算の結了等,,,2015-10-05,1,,,,,デビュタント,0
2012,8010905000350,登記記録の閉鎖等,0,2024-02-06,2024-01-12,天理教笹川分教会,,その他の設立登記法人,東京都,世田谷区,奥沢１丁目１７番１１号,,13,112,1580083,,,2024-01-12,合併による解散等,2010405001458,令和５年１２月２８日東京都港区南麻布三丁目１４番１２号天理教新橋分教会（2010405001458）に合併し解散,2015-10-05,1,,,,,テンリキョウササガワブンキョウカイ,0
2016,8011001127831,登記記録の閉鎖等,0,2024-02-06,2024-01-31,ｂｉｇ株式会社,,株式会社,東京都,渋谷区,猿楽町１８番８号,,13,113,1500033,,,2024-01-31,清算の結了等,,,2019-05-10,1,,,,,ビッグ,0
2028,8011101052310,登記記録の閉鎖等,0,2024-02-06,2024-02-01,株式会社スカイレジャーシステムコーポレーション,,株式会社,東京都,新宿区,大久保１丁目１２－３－９０２,,13,104,1690072,,,2024-02-01,清算の結了等,,,2015-10-05,1,,,,,スカイレジャーシステムコーポレーション,0
2029,8011101058646,登記記録の閉鎖等,0,2024-02-06,2024-02-01,株式会社ＳＫＯ,,株式会社,東京都,新宿区,上落合１丁目２７番８号,,13,104,1610034,,,2024-02-01,清算の結了等,,,2015-10-05,1,,,,,エスケーオー,0
2030,8011101087224,登記記録の閉鎖等,0,2024-02-06,2024-02-01,アイ・ピー・エフ・ジャパン株式会社,,株式会社,東京都,新宿区,四谷２丁目１１番１５号,,13,104,1600004,,,2024-02-01,清算の結了等,,,2019-03-27,1,,,,,アイピーエフジャパン,0
2032,8011105007665,登記記録の閉鎖等,0,2024-02-06,2024-02-01,一般社団法人ＥＳ４９,,その他の設立登記法人,東京都,新宿区,下宮比町１番４号,,13,104,1620822,,,2024-02-01,清算の結了等,,,2017-03-01,1,,,,,イーエスヨンジュウキュウ,0
2045,8011803002109,登記記録の閉鎖等,0,2024-02-06,2024-02-01,合同会社ＯＫＡＮＡ,,合同会社,東京都,足立区,柳原１丁目３１番１８号,,13,121,1200022,,,2024-02-01,清算の結了等,,,2015-10-05,1,,,,,オカナ,0
2048,8013301042132,登記記録の閉鎖等,0,2024-02-06,2024-02-01,ＳＰＩＫＥ株式会社,,株式会社,東京都,新宿区,西新宿２丁目６番１号,,13,104,1600023,,,2024-02-01,清算の結了等,,,2018-04-18,1,,,,,スパイク,0
2051,8020001063549,登記記録の閉鎖等,0,2024-02-06,2024-02-01,株式会社ロクゴーキュー,,株式会社,神奈川県,横浜市保土ケ谷区,和田２丁目７番４号,,14,106,2400065,,,2024-02-01,清算の結了等,,,2015-10-05,1,,,,,ロクゴーキュー,0
2053,8020001075486,登記記録の閉鎖等,0,2024-02-06,2024-02-02,株式会社エコロジーコミュニケーションズ,,株式会社,神奈川県,川崎市宮前区,宮崎２丁目３番地１２,,14,136,2160033,,,2024-02-02,清算の結了等,,,2015-10-05,1,,,,,エコロジーコミュニケーションズ,0
2059,8020003005094,登記記録の閉鎖等,0,2024-02-06,2024-02-01,合同会社わかみず,,合同会社,神奈川県,横浜市保土ケ谷区,仏向町１０５３番８,,14,106,2400044,,,2024-02-01,清算の結了等,,,2015-10-05,1,,,,,ワカミズ,0
2074,8021002071219,登記記録の閉鎖等,0,2024-02-06,2024-02-01,株式会社寿建築,,株式会社,神奈川県,横須賀市,安浦町１丁目４番地,,14,201,2380012,,,2024-02-01,合併による解散等,9021001041056,令和６年２月１日神奈川県横須賀市若松町一丁目１８番地平成ハウジング株式会社（9021001041056）に合併し解散,2015-10-05,1,,,,,コトブキケンチク,0
2105,8060002039593,登記記録の閉鎖等,0,2024-02-06,2024-02-01,有限会社山根通信,,有限会社,栃木県,佐野市,大橋町１６０７番地,,09,204,3270003,,,2024-02-01,清算の結了等,,,2015-10-05,1,,,,,ヤマネツウシン,0
2116,8100002033451,登記記録の閉鎖等,0,2024-02-06,2024-02-01,有限会社吉野屋,,有限会社,長野県,伊那市,山寺１８６１番地３,,20,209,3960023,,,2024-02-01,清算の結了等,,,2015-10-05,1,,,,,ヨシノヤ,0
2122,8120001207054,登記記録の閉鎖等,0,2024-02-06,2024-01-31,ｍｋデザイン株式会社,,株式会社,大阪府,大阪市中央区,日本橋１丁目２５番２３号,,27,128,5420073,,,2024-01-31,清算の結了等,,,2017-07-26,1,,,,,エムケイデザイン,0
2133,8120101056070,登記記録の閉鎖等,0,2024-02-06,2024-02-05,株式会社ティー・エス・アイ,,株式会社,大阪府,泉大津市,北豊中町２丁目５番８－７号,,27,206,5950012,,,2024-02-05,清算の結了等,,,2017-02-15,1,,,,,ティーエスアイ,0
2136,8120901030613,登記記録の閉鎖等,0,2024-02-06,2024-02-02,関西総合企画株式会社,,株式会社,大阪府,箕面市,今宮４丁目３番３６号,,27,220,5620033,,,2024-02-02,清算の結了等,,,2015-10-05,1,,,,,カンサイソウゴウキカク,0
2158,8180001094413,登記記録の閉鎖等,0,2024-02-06,2024-02-01,トーコー株式会社,,株式会社,愛知県,東海市,加木屋町円畑３５番地,,23,222,4770032,,,2024-02-01,清算の結了等,,,2015-10-05,1,,,,,トーコー,0
2171,8190002005491,登記記録の閉鎖等,0,2024-02-06,2024-02-01,ツチヤ有限会社,,有限会社,三重県,尾鷲市,南陽町９番４０号,,24,209,5193614,,,2024-02-01,清算の結了等,,,2015-10-05,1,,,,,,0
2185,8250002015369,登記記録の閉鎖等,0,2024-02-06,2024-02-02,有限会社湊家,,有限会社,山口県,周南市,千代田町９番１号,,35,215,7450044,,,2024-02-02,清算の結了等,,,2015-10-05,1,,,,,ミナトヤ,0
2202,8290801000063,登記記録の閉鎖等,0,2024-02-06,2024-01-16,株式会社アイ・エム・シー,,株式会社,福岡県,北九州市小倉北区,小文字２丁目４番２０号,,40,106,8020037,,,2024-01-16,合併による解散等,8240001025510,令和６年１月１日広島県呉市築地町５番１７号株式会社井上金属（8240001025510）に合併し解散,2015-10-05,1,,,,,アイエムシー,0
2222,8360001022405,登記記録の閉鎖等,0,2024-02-06,2024-01-16,株式会社Ａｔ,,株式会社,沖縄県,うるま市,字高江洲１０１７番地１,,47,213,9042242,,,2024-01-16,合併による解散等,3010401145159,令和５年１２月２９日東京都港区六本木四丁目６番３号ＨＯＲＩＪＵＫＵ・ＰＬＡＣＥ・ＴＨＥ・ＴＯＫＹＯ　ＨＯＲＩＪＵＫＵ株式会社（3010401145159）に合併し解散,2017-06-01,1,,,,,アット,0
2235,8370405000617,登記記録の閉鎖等,0,2024-02-06,2024-01-31,特定非営利活動法人とめ市民活動フォーラム,,その他の設立登記法人,宮城県,登米市,迫町佐沼字下田中６０番地１,,04,212,9870511,,,2024-01-31,清算の結了等,,,2015-10-05,1,,,,,トメシミンカツドウフォーラム,0
2236,8380001016743,登記記録の閉鎖等,0,2024-02-06,2024-02-01,横山電気株式会社,,株式会社,福島県,双葉郡双葉町,大字長塚字越田６９番地１,,07,546,9791471,,,2024-02-01,清算の結了等,,,2015-10-05,1,,,,,ヨコヤマデンキ,0
2238,8390005003877,登記記録の閉鎖等,0,2024-02-06,2024-02-05,農事組合法人インペリアルフラワー,,その他の設立登記法人,山形県,酒田市,亀ケ崎４丁目４－１２,,06,204,9980842,,,2024-02-05,清算の結了等,,,2015-10-05,1,,,,,インペリアルフラワー,0
2239,8390005008777,登記記録の閉鎖等,0,2024-02-06,2024-02-05,一般社団法人Ｊｏｇ＆Ｔｒａｉｌ,,その他の設立登記法人,山形県,山形市,中桜田２丁目１０－２１セジュール西２０２,,06,201,9902422,,,2024-02-05,清算の結了等,,,2019-06-27,1,,,,,ジョグアンドトレイル,0
2243,8420001007069,登記記録の閉鎖等,0,2024-02-06,2024-02-05,株式会社八戸フォーラム,,株式会社,山形県,山形市,香澄町２丁目８番１号,,06,201,9900039,,,2024-02-05,清算の結了等,,,2015-10-05,1,,,,,ハチノヘフォーラム,0
2244,8420001010956,登記記録の閉鎖等,0,2024-02-06,2024-01-31,株式会社内山鉄骨工業,,株式会社,青森県,十和田市,東二十一番町７番２９号,,02,206,0340014,,,2024-01-31,清算の結了等,,,2015-10-05,1,,,,,ウチヤマテッコツコウギョウ,0
2246,8430001008090,登記記録の閉鎖等,0,2024-02-06,2024-01-31,ジヤパン協立株式会社,,株式会社,北海道,札幌市東区,北二十三条東１丁目４番１１号,,01,103,0650023,,,2024-01-31,清算の結了等,,,2015-10-05,1,,,,,ジヤパンキョウリツ,0
2247,8430001049333,登記記録の閉鎖等,0,2024-02-06,2024-01-31,株式会社ＣＥＮＴＲＯ,,株式会社,北海道,札幌市北区,北三十三条西６丁目２番２５号ライオンズマンション北３３条７０４号,,01,102,0010033,,,2024-01-31,清算の結了等,,,2015-10-05,1,,,,,チェントロ,0
2254,8450001002587,登記記録の閉鎖等,0,2024-02-06,2024-02-01,藤井測量設計株式会社,,株式会社,北海道,旭川市,神居一条９丁目４番１５号,,01,204,0708011,,,2024-02-01,合併による解散等,9450001001266,令和６年２月１日北海道旭川市大雪通八丁目５０８番地株式会社コンストラクションサポート（9450001001266）に合併し解散,2015-10-05,1,,,,,フジイソクリョウセッケイ,0
2289,9010502005693,登記記録の閉鎖等,0,2024-02-06,2024-02-01,有限会社鈴木設備工業,,有限会社,東京都,台東区,浅草５丁目６４番１号,,13,106,1110032,,,2024-02-01,清算の結了等,,,2015-10-05,1,,,,,,0
2292,9010601055169,登記記録の閉鎖等,0,2024-02-06,2024-01-31,株式会社アナザースカイ,,株式会社,東京都,江東区,豊洲１丁目２番３９号,,13,108,1350061,,,2024-01-31,清算の結了等,,,2019-03-07,1,,,,,アナザースカイ,0
2296,9010702002292,登記記録の閉鎖等,0,2024-02-06,2024-02-01,有限会社喜久の湯,,有限会社,東京都,品川区,小山台２丁目２番２７号,,13,109,1420061,,,2024-02-01,清算の結了等,,,2015-10-05,1,,,,,キクノユ,0
2309,9011001001036,登記記録の閉鎖等,0,2024-02-06,2024-02-05,株式会社アンサム,,株式会社,東京都,渋谷区,代々木２丁目２３番１号,,13,113,1510053,,,2024-02-05,清算の結了等,,,2015-10-05,1,,,,,アンサム,0
2321,9011101058736,登記記録の閉鎖等,0,2024-02-06,2024-02-01,株式会社イチマルキューマル,,株式会社,東京都,新宿区,大久保１丁目１５番１５号,,13,104,1690072,,,2024-02-01,清算の結了等,,,2015-10-05,1,,,,,イチマルキューマル,0
2340,9011801002976,登記記録の閉鎖等,0,2024-02-06,2024-01-31,ツクリ工業株式会社,,株式会社,埼玉県,八潮市,大字浮塚１５８番地３,,11,234,3400835,,,2024-01-31,清算の結了等,,,2015-10-05,1,,,,,ツクリコウギョウ,0
2342,9012403000963,登記記録の閉鎖等,0,2024-02-06,2024-02-01,合同会社ＦＯＯＴＢＯＢＢＹ,,合同会社,東京都,町田市,南大谷１２８３番地７,,13,209,1940031,,,2024-02-01,清算の結了等,,,2015-10-05,1,,,,,フットホビー,0
2350,9020002030910,登記記録の閉鎖等,0,2024-02-06,2024-02-01,有限会社ナカガワ,,有限会社,神奈川県,横浜市南区,清水ケ丘９８番地,,14,105,2320007,,,2024-02-01,清算の結了等,,,2015-10-05,1,,,,,ナカガワ,0
2353,9021001011926,登記記録の閉鎖等,0,2024-02-06,2024-02-01,株式会社ケイエスエンヂニアリング,,株式会社,神奈川県,相模原市南区,磯部１２０４番地,,14,153,2520327,,,2024-02-01,清算の結了等,,,2015-10-05,1,,,,,ケイエスエンヂニアリング,0
2358,9021002058181,登記記録の閉鎖等,0,2024-02-06,2024-02-01,有限会社四季野,,有限会社,神奈川県,平塚市,諏訪町３番１２－２号,,14,203,2540063,,,2024-02-01,清算の結了等,,,2015-10-05,1,,,,,シキノ,0
2361,9030001027840,登記記録の閉鎖等,0,2024-02-06,2024-01-31,藤栄株式会社,,株式会社,埼玉県,所沢市,大字上安松３８４番地の２サンライズマンション所沢４０２,,11,208,3590025,,,2024-01-31,清算の結了等,,,2015-10-05,1,,,,,トウエイ,0
2387,9050002026856,登記記録の閉鎖等,0,2024-02-06,2024-01-31,有限会社ライキ,,有限会社,茨城県,鹿嶋市,大字長栖２１３３番地,,08,222,3140022,,,2024-01-31,清算の結了等,,,2015-10-05,1,,,,,ライキ,0
2393,9080405007558,登記記録の閉鎖等,0,2024-02-06,2024-02-02,一般社団法人御前崎しらす鰻,,その他の設立登記法人,静岡県,御前崎市,白羽６１７４番地の２７,,22,223,4371622,,,2024-02-02,清算の結了等,,,2023-07-10,1,,,,,オマエザキシラスウナギ,0
2411,9120001204678,登記記録の閉鎖等,0,2024-02-06,2024-01-09,ＰＲＡ開発センター株式会社,,株式会社,大阪府,大阪市中央区,久太郎町４丁目１番３号,,27,128,5410056,,,2024-01-09,合併による解散等,9120001084022,令和５年１２月３１日大阪市中央区久太郎町四丁目１番３号ＰＲＡヘルスサイエンス株式会社（9120001084022）に合併し解散,2017-04-07,1,,,,,ピーアールエーカイハツセンター,0
2426,9120101060121,登記記録の閉鎖等,0,2024-02-06,2024-02-05,清水電工株式会社,,株式会社,大阪府,岸和田市,小松里町２２７８番地の３,,27,202,5960821,,,2024-02-05,清算の結了等,,,2019-07-04,1,,,,,シミズデンコウ,0
2449,9140002028959,登記記録の閉鎖等,0,2024-02-06,2024-02-02,有限会社シーテック,,有限会社,兵庫県,明石市,大久保町大窪７６６番地の８,,28,203,6740051,,,2024-02-02,清算の結了等,,,2015-10-05,1,,,,,シーテック,0
2461,9160001015551,登記記録の閉鎖等,0,2024-02-06,2024-02-01,株式会社エム・ケー・シー情報サービス,,株式会社,滋賀県,守山市,小浜町６７２－１,,25,207,5240211,,,2024-02-01,合併による解散等,5160001015695,令和６年２月１日滋賀県野洲市小篠原９２４番地株式会社エムケイシイ（5160001015695）に合併し解散,2015-10-05,1,,,,,エムケーシージョウホウサービス,0
2468,9180002043970,登記記録の閉鎖等,0,2024-02-06,2024-02-02,有限会社エムティエス,,有限会社,愛知県,名古屋市千種区,茶屋坂通２丁目６９番地,,23,101,4640093,,,2024-02-02,清算の結了等,,,2015-10-05,1,,,,,エムティエス,0
2479,9200001009177,登記記録の閉鎖等,0,2024-02-06,2024-02-05,株式会社タモツ,,株式会社,岐阜県,美濃市,１２３番地５,,21,207,5013701,,,2024-02-05,清算の結了等,,,2015-10-05,1,,,,,タモツ,0
2481,9200001016834,登記記録の閉鎖等,0,2024-02-06,2024-02-05,株式会社翔,,株式会社,岐阜県,大垣市,上石津町牧田４０１３番地,,21,202,5031602,,,2024-02-05,清算の結了等,,,2015-10-05,1,,,,,ショウ,0
2485,9220001000992,登記記録の閉鎖等,0,2024-02-06,2024-01-09,ダンロップタイヤ北陸株式会社,,株式会社,石川県,金沢市,御影町７番１０号,,17,201,9218021,,,2024-01-09,合併による解散等,4010601023832,令和６年１月１日東京都港区港南一丁目６番４１号芝浦クリスタル品川６階ダンロップタイヤ中央株式会社（4010601023832）に合併し解散,2015-10-05,1,,,,,ダンロップタイヤホクリク,0
2496,9250002017158,登記記録の閉鎖等,0,2024-02-06,2024-02-02,有限会社ミートことぶき,,有限会社,山口県,光市,光井４丁目４番６号,,35,210,7430011,,,2024-02-02,清算の結了等,,,2015-10-05,1,,,,,ミートコトブキ,0
2497,9260001023098,登記記録の閉鎖等,0,2024-02-06,2024-02-05,株式会社進陽,,株式会社,岡山県,岡山市中区,長利２９９番地１,,33,102,7038223,,,2024-02-05,清算の結了等,,,2015-10-05,1,,,,,,0
2506,9290001098328,登記記録の閉鎖等,0,2024-02-06,2024-02-01,クリプトオン株式会社,,株式会社,福岡県,福岡市中央区,高砂２丁目１番４号オーキッドプレイス天神南２０４号,,40,133,8100011,,,2024-02-01,清算の結了等,,,2022-07-19,1,,,,,クリプトオン,0
2524,9360001015572,登記記録の閉鎖等,0,2024-02-06,2024-02-01,株式会社ＥＭウェルネスリゾート,,株式会社,沖縄県,中頭郡北中城村,字喜舎場１４７８番地,,47,327,9012311,,,2024-02-01,合併による解散等,5360001007771,令和６年２月１日沖縄県中頭郡北中城村字喜舎場１４７８番地株式会社ＥＭ研究機構（5360001007771）に合併し解散,2015-10-05,1,,,,,イーエムウェルネスリゾート,0
2530,9370301001263,登記記録の閉鎖等,0,2024-02-06,2024-01-31,石巻オートガス株式会社,,株式会社,宮城県,石巻市,不動町２丁目２番２６号,,04,202,9860017,,,2024-01-31,清算の結了等,,,2015-10-05,1,,,,,イシノマキオートガス,0
2537,9400002004834,登記記録の閉鎖等,0,2024-02-06,2024-01-31,有限会社プラスランディア,,有限会社,岩手県,北上市,大通り１丁目７番１４号,,03,206,0240061,,,2024-01-31,清算の結了等,,,2015-10-05,1,,,,,プラスランディア,0
2558,9480001006213,登記記録の閉鎖等,0,2024-02-06,2024-02-01,株式会社シンプル,,株式会社,徳島県,吉野川市,鴨島町喜来４３９番地２,,36,205,7760005,,,2024-02-01,清算の結了等,,,2015-10-05,1,,,,,シンプル,0
2561,9500001003959,登記記録の閉鎖等,0,2024-02-06,2024-02-05,丸中産業株式会社,,株式会社,愛媛県,松山市,持田町１丁目３番４４号,,38,201,7900855,,,2024-02-05,清算の結了等,,,2015-10-05,1,,,,,マルナカサンギョウ,0
