sequenceNumber,corporateNumber,process,correct,updateDate,changeDate,name,nameImageId,kind,prefectureName,cityName,streetNumber,addressImageId,prefectureCode,cityCode,postCode,addressOutside,addressOutsideImageId,closeDate,closeCause,successorCorporateNumber,changeCause,assignmentDate,latest,enName,enPrefectureName,enCityName,enAddressOutside,furigana,hihyoji
6,1010001191316,登記記録の閉鎖等,0,2022-02-28,2022-02-18,ｍｓｐｏ株式会社,,株式会社,東京都,千代田区,丸の内１丁目１１番１号,,13,101,1000005,,,2022-02-18,清算の結了等,,,2018-04-24,1,,,,,エムスポ,0
21,1010005024463,登記記録の閉鎖等,0,2022-02-28,2022-02-24,こうめ一般社団法人,,その他の設立登記法人,東京都,千代田区,霞が関３丁目２番６号東京倶楽部ビルディング１１階,,13,101,1000013,,,2022-02-24,清算の結了等,,,2015-10-05,1,,,,,コウメ,0
43,1010705000680,登記記録の閉鎖等,0,2022-02-28,2022-02-28,プリマハム労働組合,,その他の設立登記法人,東京都,品川区,東大井３丁目１７－４,,13,109,1400011,,,2022-02-28,清算の結了等,,,2015-10-05,1,,,,,プリマハム,0
80,1012702000622,登記記録の閉鎖等,0,2022-02-28,2022-02-25,有限会社協道事務所,,有限会社,東京都,小平市,小川町１丁目４４５番地の１,,13,211,1870032,,,2022-02-25,清算の結了等,,,2015-10-05,1,,,,,キョウドウジムショ,0
81,1012702008450,登記記録の閉鎖等,0,2022-02-28,2022-02-24,有限会社アスト企画印刷,,有限会社,東京都,小平市,小川町１丁目２１４２番地１０号,,13,211,1870032,,,2022-02-24,清算の結了等,,,2015-10-05,1,,,,,,0
91,1020001017577,登記記録の閉鎖等,0,2022-02-28,2022-02-24,株式会社新富電機製作所,,株式会社,神奈川県,横浜市鶴見区,駒岡４丁目１５番６号,,14,101,2300071,,,2022-02-24,清算の結了等,,,2015-10-05,1,,,,,シントミデンキセイサクジョ,0
109,1021002069632,登記記録の閉鎖等,0,2022-02-28,2022-02-22,有限会社エム・アイ・イー,,有限会社,神奈川県,横須賀市,武３丁目１７番１２－９１５号,,14,201,2380313,,,2022-02-22,清算の結了等,,,2015-10-05,1,,,,,エムアイイー,0
123,1030002061210,登記記録の閉鎖等,0,2022-02-28,2022-02-24,有限会社杲,,有限会社,東京都,西東京市,下保谷４丁目１１番１２号,,13,229,2020004,,,2022-02-24,清算の結了等,,,2015-10-05,1,,,,,コウ,0
137,1050001012757,登記記録の閉鎖等,0,2022-02-28,2022-02-21,株式会社いろは,,株式会社,茨城県,土浦市,中荒川沖町２３番１６号,,08,203,3000875,,,2022-02-21,清算の結了等,,,2015-10-05,1,,,,,イロハ,0
145,1080402001967,登記記録の閉鎖等,0,2022-02-28,2022-02-24,有限会社環境設備計画,,有限会社,静岡県,浜松市東区,笠井町１３３４番地の２,,22,132,4313107,,,2022-02-24,清算の結了等,,,2015-10-05,1,,,,,カンキョウセツビケイカク,0
175,1120002046581,登記記録の閉鎖等,0,2022-02-28,2022-02-24,有限会社ティーケーシー,,有限会社,大阪府,大阪市都島区,東野田町２丁目９－１１,,27,102,5340024,,,2022-02-24,清算の結了等,,,2015-10-05,1,,,,,,0
184,1130001038471,登記記録の閉鎖等,0,2022-02-28,2022-02-22,株式会社関工業所,,株式会社,京都府,宇治市,六地蔵奈良町７４番地の１パデシオン六地蔵１８０２号,,26,204,6110001,,,2022-02-22,清算の結了等,,,2015-10-05,1,,,,,セキコウギョウショ,0
197,1140002020320,登記記録の閉鎖等,0,2022-02-28,2022-02-18,有限会社エム・エイチコーポレーション,,有限会社,兵庫県,神戸市須磨区,高尾台２丁目１３番９号,,28,107,6540061,,,2022-02-18,清算の結了等,,,2015-10-05,1,,,,,エムエイチコーポレーション,0
216,1180001125629,登記記録の閉鎖等,0,2022-02-28,2022-02-24,株式会社中央旭コンサルティング,,株式会社,愛知県,名古屋市中区,丸の内１丁目９番１１号,,23,106,4600002,,,2022-02-24,清算の結了等,,,2016-11-22,1,,,,,チュウオウアサヒコンサルティング,0
219,1180002026743,登記記録の閉鎖等,0,2022-02-28,2022-02-21,有限会社メルバ鳴海,,有限会社,愛知県,名古屋市緑区,曽根１丁目２８番地,,23,114,4580035,,,2022-02-21,清算の結了等,,,2015-10-05,1,,,,,メルバナルミ,0
247,1290002032813,登記記録の閉鎖等,0,2022-02-28,2022-02-24,有限会社鳥海薬局,,有限会社,福岡県,糸島市,前原中央３丁目３番１号,,40,230,8191116,,,2022-02-24,清算の結了等,,,2015-10-05,1,,,,,トリウミヤッキョク,0
258,1330002025250,登記記録の閉鎖等,0,2022-02-28,2022-02-24,有限会社松永製材所,,有限会社,熊本県,下益城郡美里町,永富３９６番地,,43,348,8614722,,,2022-02-24,清算の結了等,,,2015-10-05,1,,,,,,0
266,1360005004678,登記記録の閉鎖等,0,2022-02-28,2022-02-21,特定非営利活動法人沖縄統合医療団,,その他の設立登記法人,沖縄県,浦添市,伊祖２丁目２１番８－３０１号親富祖マンション,,47,208,9012132,,,2022-02-21,清算の結了等,,,2015-10-05,1,,,,,オキナワトウゴウイリョウダン,0
288,1480002008463,登記記録の閉鎖等,0,2022-02-28,2022-02-25,ハートフルエージェント有限会社,,有限会社,徳島県,徳島市,北矢三町１丁目２番１１号,,36,201,7700006,,,2022-02-25,清算の結了等,,,2015-10-05,1,,,,,ハートフルエージェント,0
297,2010001168379,登記記録の閉鎖等,0,2022-02-28,2022-02-24,株式会社神宮前タウン,,株式会社,神奈川県,茅ヶ崎市,松浪１丁目７番３６号,,14,207,2530022,,,2022-02-24,清算の結了等,,,2015-10-05,1,,,,,ジングウマエタウン,0
324,2010501031788,登記記録の閉鎖等,0,2022-02-28,2022-02-24,株式会社常美企画,,株式会社,東京都,台東区,浅草橋４丁目１５番１０号,,13,106,1110053,,,2022-02-24,清算の結了等,,,2015-10-05,1,,,,,ジョウビキカク,0
371,2012702002436,登記記録の閉鎖等,0,2022-02-28,2022-02-25,有限会社オザマ冷機,,有限会社,東京都,東村山市,諏訪町１丁目６番地５０,,13,213,1890021,,,2022-02-25,清算の結了等,,,2015-10-05,1,,,,,オザマレイキ,0
401,2040001066464,登記記録の閉鎖等,0,2022-02-28,2022-02-17,株式会社マティニョン,,株式会社,千葉県,柏市,旭町４丁目３番１９号,,12,217,2770852,,,2022-02-17,清算の結了等,,,2015-10-05,1,,,,,マティニョン,0
406,2040002077700,登記記録の閉鎖等,0,2022-02-28,2022-02-17,有限会社福栄産業,,有限会社,千葉県,東金市,松之郷３３５１番地,,12,213,2830805,,,2022-02-17,清算の結了等,,,2015-10-05,1,,,,,フクエイサンギョウ,0
418,2080401012254,登記記録の閉鎖等,0,2022-02-28,2022-02-25,株式会社あらたまの湯,,株式会社,静岡県,浜松市東区,丸塚町１６９番地,,22,132,4350046,,,2022-02-25,清算の結了等,,,2015-10-05,1,,,,,アラタマノユ,0
475,2180005015528,登記記録の閉鎖等,0,2022-02-28,2022-02-24,一般社団法人中日本ハラール恊会,,その他の設立登記法人,愛知県,名古屋市昭和区,緑町２丁目２１番地５,,23,107,4660013,,,2022-02-24,清算の結了等,,,2015-10-05,1,,,,,ナカニホンハラールキョウカイ,0
481,2200001007749,登記記録の閉鎖等,0,2022-02-28,2022-02-25,株式会社エコテック,,株式会社,岐阜県,岐阜市,白山町２丁目８番地の３,,21,201,5008172,,,2022-02-25,清算の結了等,,,2015-10-05,1,,,,,エコテック,0
484,2200005002341,登記記録の閉鎖等,0,2022-02-28,2022-02-25,特定非営利活動法人さわやか伝言ばん,,その他の設立登記法人,岐阜県,各務原市,鵜沼東町８丁目５番地,,21,213,5090126,,,2022-02-25,清算の結了等,,,2015-10-05,1,,,,,サワヤカデンゴンバン,0
497,2260002002545,登記記録の閉鎖等,0,2022-02-28,2022-02-25,有限会社華修,,有限会社,岡山県,岡山市東区,松新町１６９番地の６,,33,103,7048174,,,2022-02-25,清算の結了等,,,2015-10-05,1,,,,,カシュウ,0
520,2360001011215,登記記録の閉鎖等,0,2022-02-28,2022-02-21,株式会社ステップファーマシー,,株式会社,沖縄県,那覇市,若狭２丁目９番２５号,,47,201,9000031,,,2022-02-21,清算の結了等,,,2015-10-05,1,,,,,ステップファーマシー,0
537,2430001033499,登記記録の閉鎖等,0,2022-02-28,2022-02-24,株式会社スィンクコーポレーション,,株式会社,北海道,北広島市,稲穂町西１丁目４番地３,,01,234,0611124,,,2022-02-24,清算の結了等,,,2015-10-05,1,,,,,スィンクコーポレーション,0
548,2500001007727,登記記録の閉鎖等,0,2022-02-28,2022-02-25,トリモス・シルバックジャパン株式会社,,株式会社,愛媛県,大洲市,野佐来１２０８番地,,38,207,7950006,,,2022-02-25,清算の結了等,,,2015-10-05,1,,,,,,0
563,3010401139755,登記記録の閉鎖等,0,2022-02-28,2022-02-24,株式会社ウーマンアップ,,株式会社,東京都,港区,元赤坂１丁目５番１１号,,13,103,1070051,,,2022-02-24,清算の結了等,,,2018-07-23,1,,,,,ウーマンアップ,0
576,3010601026563,登記記録の閉鎖等,0,2022-02-28,2022-02-21,チバプロダクツ株式会社,,株式会社,東京都,墨田区,東駒形２丁目１番２号,,13,107,1300005,,,2022-02-21,清算の結了等,,,2015-10-05,1,,,,,チバプロダクツ,0
580,3010801018113,登記記録の閉鎖等,0,2022-02-28,2022-02-21,株式会社ティプランニング,,株式会社,千葉県,船橋市,本町５丁目２番１２－１０１４号,,12,204,2730005,,,2022-02-21,清算の結了等,,,2015-10-05,1,,,,,ティプランニング,0
596,3011101074747,登記記録の閉鎖等,0,2022-02-28,2022-02-24,株式会社表参道スリービル,,株式会社,神奈川県,川崎市麻生区,万福寺３丁目９番６号,,14,137,2150004,,,2022-02-24,清算の結了等,,,2015-10-05,1,,,,,オモテサンドウスリービル,0
612,3011801011792,登記記録の閉鎖等,0,2022-02-28,2022-02-21,株式会社ベルテック,,株式会社,東京都,荒川区,町屋５丁目１７番２６号,,13,118,1160001,,,2022-02-21,清算の結了等,,,2015-10-05,1,,,,,ベルテック,0
613,3011803003573,登記記録の閉鎖等,0,2022-02-28,2022-02-22,合同会社大地のりんご,,合同会社,東京都,葛飾区,鎌倉１丁目６番９－３０４号小岩パークホームズ,,13,122,1250053,,,2022-02-22,清算の結了等,,,2019-01-31,1,,,,,ダイチノリンゴ,0
615,3012702007608,登記記録の閉鎖等,0,2022-02-28,2022-02-22,有限会社ケーエムエフ,,有限会社,東京都,清瀬市,元町１丁目８番３４号,,13,221,2040021,,,2022-02-22,清算の結了等,,,2015-10-05,1,,,,,ケーエムエフ,0
619,3013202002685,登記記録の閉鎖等,0,2022-02-28,2022-02-10,有限会社サンエイ,,有限会社,東京都,目黒区,中根２丁目１１番２１号,,13,110,1520031,,,2022-02-10,清算の結了等,,,2015-10-05,1,,,,,サンエイ,0
620,3013301038119,登記記録の閉鎖等,0,2022-02-28,2022-02-18,株式会社Ｆｏｒ　Ｐａｔｉｅｎｔｓ,,株式会社,東京都,豊島区,東池袋１丁目１７番１１号パークハイツ池袋１１０５号,,13,116,1700013,,,2022-02-18,清算の結了等,,,2015-12-25,1,,,,,フォーペイシェンツ,0
634,3020002106311,登記記録の閉鎖等,0,2022-02-28,2022-02-22,有限会社栄進電工,,有限会社,神奈川県,川崎市川崎区,京町３丁目２５番１－５０９号,,14,131,2100848,,,2022-02-22,清算の結了等,,,2015-10-05,1,,,,,エイシンデンコウ,0
644,3030001094060,登記記録の閉鎖等,0,2022-02-28,2022-02-21,新日本化学株式会社,,株式会社,埼玉県,所沢市,東狭山ケ丘１丁目２７番地の８,,11,208,3591106,,,2022-02-21,清算の結了等,,,2015-10-05,1,,,,,シンニホンカガク,0
645,3030001117507,登記記録の閉鎖等,0,2022-02-28,2022-02-22,鴻図株式会社,,株式会社,埼玉県,さいたま市北区,宮原町３丁目３１７番地ヒロックスビル４０７号室,,11,102,3310812,,,2022-02-22,清算の結了等,,,2016-12-02,1,,,,,コウズ,0
651,3040001031723,登記記録の閉鎖等,0,2022-02-28,2022-02-21,株式会社アイカム,,株式会社,千葉県,市川市,八幡３丁目１９番４号,,12,203,2720021,,,2022-02-21,清算の結了等,,,2015-10-05,1,,,,,アイカム,0
673,3070001038880,登記記録の閉鎖等,0,2022-02-28,2022-02-22,株式会社美装,,株式会社,群馬県,藤岡市,西平井１８２９番地１,,10,209,3750044,,,2022-02-22,清算の結了等,,,2022-02-02,1,,,,,ビソウ,0
676,3080101011588,登記記録の閉鎖等,0,2022-02-28,2022-02-07,株式会社土光,,株式会社,静岡県,富士宮市,羽鮒１９０９番地,,22,207,4190316,,,2022-02-07,清算の結了等,,,2015-10-05,1,,,,,ドコウ,0
698,3120901025221,登記記録の閉鎖等,0,2022-02-28,2022-02-24,白鹿足袋株式会社,,株式会社,大阪府,豊中市,服部本町１丁目１番２３号,,27,203,5610852,,,2022-02-24,清算の結了等,,,2015-10-05,1,,,,,ハクシカタビ,0
732,3180301021740,登記記録の閉鎖等,0,2022-02-28,2022-02-24,株式会社ビ・コール,,株式会社,愛知県,豊田市,野見山町２丁目３２番地２２,,23,211,4710813,,,2022-02-24,清算の結了等,,,2015-10-05,1,,,,,ビコール,0
737,3190005000346,登記記録の閉鎖等,0,2022-02-28,2022-02-25,久居山林種苗協同組合,,その他の設立登記法人,三重県,津市,久居新町８７４番地,,24,201,5141118,,,2022-02-25,清算の結了等,,,2015-10-05,1,,,,,ヒサイサンリンシュビョウ,0
740,3200002011922,登記記録の閉鎖等,0,2022-02-28,2022-02-21,有限会社プログレス,,有限会社,岐阜県,岐阜市,柳津町蓮池２丁目４２番地１,,21,201,5016103,,,2022-02-21,清算の結了等,,,2015-10-05,1,,,,,プログレス,0
750,3260001017452,登記記録の閉鎖等,0,2022-02-28,2022-02-24,株式会社廣宝ブライト,00003232,株式会社,岡山県,倉敷市,児島赤崎１丁目４番４２－８号,,33,202,7110931,,,2022-02-24,清算の結了等,,,2015-10-05,1,,,,,コウホウブライト,0
753,3270005000998,登記記録の閉鎖等,0,2022-02-28,2022-02-22,特定非営利活動法人鳥取発エコタウン２０２０,,その他の設立登記法人,鳥取県,鳥取市,若葉台北１丁目１－１鳥取環境大学金子研究室,,31,201,6891111,,,2022-02-22,清算の結了等,,,2015-10-05,1,,,,,,0
757,3290001052942,登記記録の閉鎖等,0,2022-02-28,2022-02-22,末次化粧合板株式会社,,株式会社,福岡県,大川市,大字小保９６８番地,,40,212,8310041,,,2022-02-22,清算の結了等,,,2015-10-05,1,,,,,スエツグケショウゴウバン,0
795,3430001070046,登記記録の閉鎖等,0,2022-02-28,2022-02-24,株式会社宝くじのはまなす,,株式会社,北海道,札幌市北区,篠路八条５丁目２番１７号,,01,102,0028028,,,2022-02-24,清算の結了等,,,2015-10-05,1,,,,,タカラクジノハマナス,0
813,4010003033645,登記記録の閉鎖等,0,2022-02-28,2022-02-16,ＴＲＵ合同会社,,合同会社,東京都,中央区,銀座８丁目１８番３号銀座加藤ビル２階,,13,102,1040061,,,2022-02-16,清算の結了等,,,2020-12-02,1,,,,,ティーアールユー,0
815,4010005032397,登記記録の閉鎖等,0,2022-02-28,2022-02-22,一般社団法人ミャンマー経済・投資センター,,その他の設立登記法人,東京都,中央区,銀座３丁目１４－１,,13,102,1040061,,,2022-02-22,清算の結了等,,,2020-10-12,1,,,,,ミャンマーケイザイトウシセンター,0
817,4010105001384,登記記録の閉鎖等,0,2022-02-28,2022-02-24,特定非営利活動法人タウンセキュリティ推進機構,,その他の設立登記法人,東京都,八王子市,大和田町５丁目２５番１８号セキュリオン・２４ビル,,13,201,1920045,,,2022-02-24,清算の結了等,,,2015-10-05,1,,,,,タウンセキュリティスイシンキコウ,0
833,4010701034333,登記記録の閉鎖等,0,2022-02-28,2022-02-24,株式会社ＴＦＣ・ＪＡＰＡＮ,,株式会社,東京都,品川区,東五反田１丁目２番４２号－１００３,,13,109,1410022,,,2022-02-24,清算の結了等,,,2017-06-15,1,,,,,,0
859,4011101074746,登記記録の閉鎖等,0,2022-02-28,2022-02-24,株式会社表参道ツインプラザ,,株式会社,埼玉県,さいたま市緑区,原山１丁目１３番１２号,,11,109,3360931,,,2022-02-24,清算の結了等,,,2015-10-05,1,,,,,オモテサンドウツインプラザ,0
868,4011601018228,登記記録の閉鎖等,0,2022-02-28,2022-02-21,アカラ・クリエイト株式会社,,株式会社,東京都,練馬区,石神井町７丁目２４番８号,,13,120,1770041,,,2022-02-21,清算の結了等,,,2015-10-05,1,,,,,アカラクリエイト,0
873,4012702007862,登記記録の閉鎖等,0,2022-02-28,2022-02-25,サンワオート有限会社,,有限会社,東京都,清瀬市,下宿２丁目５１１番地２８,,13,221,2040001,,,2022-02-25,清算の結了等,,,2015-10-05,1,,,,,サンワオート,0
914,4040002015006,登記記録の閉鎖等,0,2022-02-28,2022-02-21,有限会社レジエンドフーズ,,有限会社,千葉県,千葉市稲毛区,山王町２５番地,,12,103,2630002,,,2022-02-21,清算の結了等,,,2015-10-05,1,,,,,レジエンドフーズ,0
934,4100001009142,登記記録の閉鎖等,0,2022-02-28,2022-02-21,株式会社ディーアンドディー,,株式会社,山梨県,甲府市,千塚１丁目８番３７号,,19,201,4000074,,,2022-02-21,清算の結了等,,,2015-10-05,1,,,,,ディーアンドディー,0
956,4122001027428,登記記録の閉鎖等,0,2022-02-28,2022-02-24,株式会社大輪,,株式会社,大阪府,大東市,野崎２丁目３番７号５０２号,,27,218,5740015,,,2022-02-24,清算の結了等,,,2015-10-05,1,,,,,,0
959,4130001064564,登記記録の閉鎖等,0,2022-02-28,2022-02-22,株式会社材井興業,,株式会社,京都府,京丹後市,網野町郷１２５３番地,,26,212,6293133,,,2022-02-22,清算の結了等,,,2019-06-03,1,,,,,ザイイコウギョウ,0
971,4140002034672,登記記録の閉鎖等,0,2022-02-28,2022-02-22,有限会社三喜商事,,有限会社,兵庫県,神戸市西区,美賀多台８丁目１番地の８,,28,111,6512277,,,2022-02-22,清算の結了等,,,2015-10-05,1,,,,,ミキショウジ,0
983,4180001005877,登記記録の閉鎖等,0,2022-02-28,2022-02-21,株式会社ロゼ,,株式会社,愛知県,名古屋市千種区,千種１丁目１０番１４号,,23,101,4640858,,,2022-02-21,清算の結了等,,,2015-10-05,1,,,,,ロゼ,0
993,4190002013176,登記記録の閉鎖等,0,2022-02-28,2022-02-24,有限会社美祢総研,,有限会社,三重県,名張市,桔梗が丘西１番町１４５番地,,24,208,5180641,,,2022-02-24,清算の結了等,,,2015-10-05,1,,,,,ミネソウケン,0
1004,4230002000590,登記記録の閉鎖等,0,2022-02-28,2022-02-22,奥田通商有限会社,,有限会社,富山県,富山市,大泉２３６番地７,,16,201,9398058,,,2022-02-22,清算の結了等,,,2015-10-05,1,,,,,オクダツウショウ,0
1019,4290001077195,登記記録の閉鎖等,0,2022-02-28,2022-02-22,株式会社ＲＥＤＳＴＡＲ,,株式会社,福岡県,福岡市中央区,平尾２丁目１７番１４号,,40,133,8100014,,,2022-02-22,清算の結了等,,,2017-03-23,1,,,,,レッドスター,0
1049,4380002030391,登記記録の閉鎖等,0,2022-02-28,2022-02-22,有限会社フレックスエンジニアリング,,有限会社,福島県,双葉郡大熊町,大字熊川字八坂１３４番地の４,,07,545,9791303,,,2022-02-22,清算の結了等,,,2015-10-05,1,,,,,フレックスエンジニアリング,0
1055,4430002024454,登記記録の閉鎖等,0,2022-02-28,2022-02-22,有限会社北海道造園管理,,有限会社,北海道,札幌市清田区,平岡三条６丁目１番２０号,,01,110,0040873,,,2022-02-22,清算の結了等,,,2015-10-05,1,,,,,ホッカイドウゾウエンカンリ,0
1062,5010001094861,登記記録の閉鎖等,0,2022-02-28,2022-02-21,株式会社セントラル・プランニング・ジャパン,,株式会社,東京都,杉並区,浜田山１丁目１７番１１号,,13,115,1680065,,,2022-02-21,清算の結了等,,,2015-10-05,1,,,,,セントラルプランニングジャパン,0
1064,5010001139146,登記記録の閉鎖等,0,2022-02-28,2022-02-04,大英建設株式会社,,株式会社,東京都,千代田区,神田須田町１丁目４番地須田町駐車場ビル,,13,101,1010041,,,2022-02-04,清算の結了等,,,2015-10-05,1,,,,,オオエイケンセツ,0
1122,5011705000460,登記記録の閉鎖等,0,2022-02-28,2022-02-22,医療法人社団南郷医院,,その他の設立登記法人,東京都,江戸川区,平井３丁目２３番１８号,,13,123,1320035,,,2022-02-22,清算の結了等,,,2015-10-05,1,,,,,ナンゴウイイン,0
1135,5020001123504,登記記録の閉鎖等,0,2022-02-28,2022-02-24,株式会社イーシーオフィス,,株式会社,東京都,港区,白金台３丁目３－５,,13,103,1080071,,,2022-02-24,清算の結了等,,,2017-10-17,1,,,,,イーシーオフィス,0
1163,5030001046381,登記記録の閉鎖等,0,2022-02-28,2022-02-21,株式会社大創エンジニアリング,,株式会社,埼玉県,富士見市,大字上南畑３２０４番地の１７,,11,235,3540002,,,2022-02-21,清算の結了等,,,2015-10-05,1,,,,,ダイソウエンジニアリング,0
1204,5110002023545,登記記録の閉鎖等,0,2022-02-28,2022-02-24,有限会社万九渡辺食品,,有限会社,新潟県,上越市,大字西ケ窪浜２５０番地,,15,222,9420026,,,2022-02-24,清算の結了等,,,2015-10-05,1,,,,,マンクワタナベショクヒン,0
1240,5140001080312,登記記録の閉鎖等,0,2022-02-28,2022-02-22,株式会社ブルースカイトラベル,,株式会社,兵庫県,三田市,駅前町１番３８号,,28,219,6691528,,,2022-02-22,清算の結了等,,,2015-10-05,1,,,,,ブルースカイトラベル,0
1263,5180002077345,登記記録の閉鎖等,0,2022-02-28,2022-02-24,日比野糸舗有限会社,,有限会社,愛知県,一宮市,本町３丁目８番２２号,,23,203,4910859,,,2022-02-24,清算の結了等,,,2015-10-05,1,,,,,ヒビノイトホ,0
1264,5180005008727,登記記録の閉鎖等,0,2022-02-28,2022-02-21,特定非営利活動法人心技塾ネットワーク,,その他の設立登記法人,愛知県,小牧市,多気中町２９７番地,,23,219,4850052,,,2022-02-21,清算の結了等,,,2015-10-05,1,,,,,シンギジュクネットワーク,0
1266,5180301017076,登記記録の閉鎖等,0,2022-02-28,2022-02-24,株式会社アロナ,,株式会社,愛知県,安城市,御幸本町１６番地５号岩堀ビル,,23,212,4460032,,,2022-02-24,清算の結了等,,,2015-10-05,1,,,,,アロナ,0
1269,5180302003983,登記記録の閉鎖等,0,2022-02-28,2022-02-22,有限会社コスモプランニング,,有限会社,愛知県,あま市,七宝町桂河原２２番地１セットトレゾールＩ棟１０１号,00120287,23,237,4970004,,,2022-02-22,清算の結了等,,,2015-10-05,1,,,,,コスモプランニング,0
1288,5260001002320,登記記録の閉鎖等,0,2022-02-28,2022-02-25,株式会社鴻仁,,株式会社,岡山県,岡山市北区,奉還町２丁目１６番９号,,33,101,7000026,,,2022-02-25,清算の結了等,,,2015-10-05,1,,,,,コウジン,0
1299,5320002013319,登記記録の閉鎖等,0,2022-02-28,2022-02-24,有限会社アットホーム,,有限会社,大分県,別府市,青山町９番１５号,,44,202,8740902,,,2022-02-24,清算の結了等,,,2015-10-05,1,,,,,アットホーム,0
1300,5330001007642,登記記録の閉鎖等,0,2022-02-28,2022-02-24,株式会社トップセントラル運輸,,株式会社,熊本県,熊本市南区,孫代町１０９番地１,,43,104,8615254,,,2022-02-24,清算の結了等,,,2015-10-05,1,,,,,,0
1316,5370802001930,登記記録の閉鎖等,0,2022-02-28,2022-02-18,有限会社Ｋ－ＦＩＸ,,有限会社,宮城県,岩沼市,相の原１丁目３番１０号,,04,211,9892431,,,2022-02-18,清算の結了等,,,2015-10-05,1,,,,,ケーフィックス,0
1333,5430005004733,登記記録の閉鎖等,0,2022-02-28,2022-02-25,特定非営利活動法人北海道環境推進センター,,その他の設立登記法人,北海道,石狩市,花川北五条２丁目１０６番地,,01,235,0613215,,,2022-02-25,清算の結了等,,,2015-10-05,1,,,,,ホッカイドウカンキョウスイシンセンター,0
1335,5440002005907,登記記録の閉鎖等,0,2022-02-28,2022-02-24,有限会社恵比寿フーズ,,有限会社,北海道,函館市,若松町９番１６号,,01,202,0400063,,,2022-02-24,清算の結了等,,,2015-10-05,1,,,,,エビスフーズ,0
1366,6010501017131,登記記録の閉鎖等,0,2022-02-28,2022-02-24,株式会社オーラム・ジュエリーサービスセンター,,株式会社,東京都,台東区,東上野１丁目２６番２号,,13,106,1100015,,,2022-02-24,清算の結了等,,,2015-10-05,1,,,,,オーラムジュエリーサービスセンター,0
1406,6013302014074,登記記録の閉鎖等,0,2022-02-28,2022-02-21,有限会社アイディエスジャパン,,有限会社,東京都,豊島区,西池袋３丁目２２番７号,,13,116,1710021,,,2022-02-21,清算の結了等,,,2015-10-05,1,,,,,アイディエスジャパン,0
1435,6030001072476,登記記録の閉鎖等,0,2022-02-28,2022-02-21,株式会社ゲートクルー,,株式会社,埼玉県,さいたま市岩槻区,並木２丁目３番１－１００８号,,11,110,3390068,,,2022-02-21,清算の結了等,,,2015-10-05,1,,,,,ゲートクルー,0
1462,6060002041114,登記記録の閉鎖等,0,2022-02-28,2022-02-24,有限会社渡辺土建工業,,有限会社,栃木県,日光市,猪倉２４１０番地１,,09,206,3212344,,,2022-02-24,清算の結了等,,,2020-10-06,1,,,,,ワタナベドケンコウギョウ,0
1466,6080001004227,登記記録の閉鎖等,0,2022-02-28,2022-02-25,株式会社パスダスドットコム,,株式会社,静岡県,静岡市葵区,竜南１丁目２４番７号,,22,101,4200804,,,2022-02-25,清算の結了等,,,2015-10-05,1,,,,,パスダスドットコム,0
1503,6140001049001,登記記録の閉鎖等,0,2022-02-28,2022-02-22,サンペーパー株式会社,,株式会社,兵庫県,尼崎市,田能５丁目１０番３０号,,28,202,6610951,,,2022-02-22,清算の結了等,,,2015-10-05,1,,,,,サンペーパー,0
1535,6230001017064,登記記録の閉鎖等,0,2022-02-28,2022-02-22,株式会社綜研,,株式会社,富山県,富山市,今泉２３２番地２,,16,201,9398075,,,2022-02-22,清算の結了等,,,2017-07-28,1,,,,,ソウケン,0
1536,6230003000984,登記記録の閉鎖等,0,2022-02-28,2022-02-22,合同会社オンアトラス,,合同会社,大阪府,大阪市中央区,南船場４丁目１０番５号南船場ＳＯＨＯビル７０２,,27,128,5420081,,,2022-02-22,清算の結了等,,,2016-01-05,1,,,,,オンアトラス,0
1562,6320001017559,登記記録の閉鎖等,0,2022-02-28,2022-02-21,和合興産株式会社,,株式会社,大分県,由布市,湯布院町川上３４２番地２,,44,213,8795102,,,2022-02-21,合併による解散等,3350001007502,令和４年２月２１日大分県別府市大字鉄輪３４５番地８株式会社神和苑（3350001007502）に合併し解散,2020-02-19,1,,,,,ワゴウコウサン,0
1591,6430002016706,登記記録の閉鎖等,0,2022-02-28,2022-02-25,有限会社平原工務店,,有限会社,北海道,札幌市中央区,宮の森二条１０丁目３番１号,,01,101,0640952,,,2022-02-25,清算の結了等,,,2015-10-05,1,,,,,ヒラハラコウムテン,0
1596,6470002006728,登記記録の閉鎖等,0,2022-02-28,2022-02-25,有限会社峰山開発,,有限会社,香川県,高松市,峰山町１７８５番地,,37,201,7600009,,,2022-02-25,清算の結了等,,,2015-10-05,1,,,,,ミネヤマカイハツ,0
1600,7010001109279,登記記録の閉鎖等,0,2022-02-28,2022-02-24,ヴァリューインベストメント株式会社,,株式会社,徳島県,吉野川市,川島町桑村３１８番地４２,00008955,36,205,7793303,,,2022-02-24,清算の結了等,,,2015-10-05,1,,,,,ヴァリューインベストメント,0
1640,7010903001104,登記記録の閉鎖等,0,2022-02-28,2022-02-24,合同会社ナカユクイ,,合同会社,東京都,港区,南青山３丁目１０番４１号ジュエル青山ビル２０２号,,13,103,1070062,,,2022-02-24,清算の結了等,,,2015-10-05,1,,,,,ナカユクイ,0
1666,7020001034550,登記記録の閉鎖等,0,2022-02-28,2022-02-22,株式会社アイ・キュー・アイ,,株式会社,神奈川県,横浜市栄区,庄戸３丁目６番２６号,,14,115,2470022,,,2022-02-22,清算の結了等,,,2015-10-05,1,,,,,アイキューアイ,0
1688,7030001032644,登記記録の閉鎖等,0,2022-02-28,2022-02-25,花田工業株式会社,,株式会社,埼玉県,加須市,串作７８番地,,11,210,3470041,,,2022-02-25,清算の結了等,,,2015-10-05,1,,,,,ハナダコウギョウ,0
1708,7040003006307,登記記録の閉鎖等,0,2022-02-28,2022-02-18,ＳＲアセットマーケティング合同会社,,合同会社,千葉県,流山市,宮園３丁目１５番１１号,,12,220,2700155,,,2022-02-18,清算の結了等,,,2015-10-05,1,,,,,エスアールアセットマーケティング,0
1723,7080405004350,登記記録の閉鎖等,0,2022-02-28,2022-02-22,粟本製茶農業協同組合,,その他の設立登記法人,静岡県,掛川市,初馬２４１２番地の１,,22,213,4360081,,,2022-02-22,清算の結了等,,,2015-10-05,1,,,,,アワモトセイチャ,0
1740,7120002047129,登記記録の閉鎖等,0,2022-02-28,2022-02-22,有限会社ヴィラージュ,,有限会社,大阪府,大阪市平野区,長吉六反３丁目１７番９号,,27,126,5470012,,,2022-02-22,清算の結了等,,,2015-10-05,1,,,,,ヴィラージュ,0
1755,7140002010786,登記記録の閉鎖等,0,2022-02-28,2022-02-24,有限会社伊藤材木店,,有限会社,兵庫県,神戸市兵庫区,松原通５丁目１番５号,,28,105,6520881,,,2022-02-24,清算の結了等,,,2015-10-05,1,,,,,イトウザイモクテン,0
1758,7160001000299,登記記録の閉鎖等,0,2022-02-28,2022-02-25,株式会社皇子山メンテナンス,,株式会社,滋賀県,大津市,下阪本４丁目１６番３号,,25,201,5200105,,,2022-02-25,清算の結了等,,,2015-10-05,1,,,,,オウジヤマメンテナンス,0
1775,7200001002803,登記記録の閉鎖等,0,2022-02-28,2022-02-25,株式会社成和,,株式会社,岐阜県,岐阜市,六条大溝１丁目１番６号,,21,201,5008357,,,2022-02-25,清算の結了等,,,2015-10-05,1,,,,,,0
1776,7200001028393,登記記録の閉鎖等,0,2022-02-28,2022-02-25,株式会社レディースファッションフレンズ,,株式会社,岐阜県,山県市,掛３３９番地１,,21,215,5012132,,,2022-02-25,清算の結了等,,,2015-10-05,1,,,,,レディースファッションフレンズ,0
1819,7350003000880,登記記録の閉鎖等,0,2022-02-28,2022-02-22,合資会社釜堀百貨店,,合資会社,宮崎県,日向市,上町２番１４号,,45,206,8830044,,,2022-02-22,清算の結了等,,,2015-10-05,1,,,,,カマホリヒャッカテン,0
1832,7410001004398,登記記録の閉鎖等,0,2022-02-28,2022-02-24,ループ株式会社,,株式会社,秋田県,秋田市,大町１丁目３番８号,,05,201,0100921,,,2022-02-24,清算の結了等,,,2015-10-05,1,,,,,ループ,0
1834,7410002014066,登記記録の閉鎖等,0,2022-02-28,2022-02-22,有限会社ファッション三世,,有限会社,秋田県,大館市,長坂字坂地家後９７番地２,,05,204,0183504,,,2022-02-22,清算の結了等,,,2021-08-23,1,,,,,ファッションサンセイ,0
1842,7430002021853,登記記録の閉鎖等,0,2022-02-28,2022-02-24,有限会社渡部美術骨董店,,有限会社,北海道,札幌市南区,澄川四条２丁目８番１５号,,01,106,0050004,,,2022-02-24,清算の結了等,,,2015-10-05,1,,,,,ワタベビジュツコットウテン,0
1845,7450002001993,登記記録の閉鎖等,0,2022-02-28,2022-02-25,有限会社キャパ,,有限会社,北海道,旭川市,末広一条１０丁目３番２４号,,01,204,0718131,,,2022-02-25,清算の結了等,,,2015-10-05,1,,,,,キャパ,0
1867,8010401135403,登記記録の閉鎖等,0,2022-02-28,2022-02-24,大山元株式会社,,株式会社,東京都,港区,西麻布３丁目２１番２０,,13,103,1060031,,,2022-02-24,清算の結了等,,,2017-12-07,1,,,,,ダイサンゲン,0
1879,8010501020983,登記記録の閉鎖等,0,2022-02-28,2022-02-25,株式会社メディアネットワーク,,株式会社,東京都,台東区,上野５丁目１３番１１号,,13,106,1100005,,,2022-02-25,清算の結了等,,,2015-10-05,1,,,,,メディアネットワーク,0
1887,8010801018760,登記記録の閉鎖等,0,2022-02-28,2022-02-21,株式会社ＵＮＦＩＮＩＳＨ,,株式会社,東京都,大田区,上池台４丁目２２番２号,,13,111,1450064,,,2022-02-21,清算の結了等,,,2015-10-05,1,,,,,,0
1909,8011101074750,登記記録の閉鎖等,0,2022-02-28,2022-02-24,株式会社表参道シックスタウン,,株式会社,埼玉県,川口市,金山町１２番１号,,11,203,3320014,,,2022-02-24,清算の結了等,,,2015-10-05,1,,,,,オモテサンドウシックスタウン,0
1925,8012705000150,登記記録の閉鎖等,0,2022-02-28,2022-02-25,シチズン生活協同組合,,その他の設立登記法人,東京都,西東京市,田無町６丁目１番１２号,,13,229,1880011,,,2022-02-25,清算の結了等,,,2015-10-05,1,,,,,シチズン,0
1928,8013301034063,登記記録の閉鎖等,0,2022-02-28,2022-02-22,株式会社アール・イー・ディー,,株式会社,東京都,港区,白金台５丁目９番１７号,,13,103,1080071,,,2022-02-22,清算の結了等,,,2015-10-05,1,,,,,,0
1929,8013301042859,登記記録の閉鎖等,0,2022-02-28,2022-02-18,Ｋ＆Ｇ株式会社,,株式会社,東京都,豊島区,東池袋１丁目３０番６号セイコーサンシャインビルＸＩＩ８階,00114567,13,116,1700013,,,2022-02-18,清算の結了等,,,2018-10-01,1,,,,,ケーアンドジー,0
1973,8040001084353,登記記録の閉鎖等,0,2022-02-28,2022-02-21,株式会社平安工業,,株式会社,千葉県,市川市,南行徳２丁目１８番２１号２０１号室,,12,203,2720138,,,2022-02-21,清算の結了等,,,2015-10-05,1,,,,,ヘイアンコウギョウ,0
1977,8040002067555,登記記録の閉鎖等,0,2022-02-28,2022-02-18,有限会社日の出不動産,,有限会社,千葉県,木更津市,請西８９７番地,,12,206,2920801,,,2022-02-18,清算の結了等,,,2015-10-05,1,,,,,ヒノデフドウサン,0
1980,8050001010829,登記記録の閉鎖等,0,2022-02-28,2022-02-21,株式会社つくばサンビューティ,,株式会社,茨城県,かすみがうら市,西野寺字林畑７８３番地の１,,08,230,3150073,,,2022-02-21,清算の結了等,,,2015-10-05,1,,,,,ツクバサンビューティ,0
1985,8070002018480,登記記録の閉鎖等,0,2022-02-28,2022-02-22,有限会社上田製作所,,有限会社,群馬県,伊勢崎市,宮子町１３８２番地,,10,204,3720801,,,2022-02-22,清算の結了等,,,2015-10-05,1,,,,,ウエダセイサクショ,0
1995,8100001011763,登記記録の閉鎖等,0,2022-02-28,2022-02-24,株式会社ジャブロー,,株式会社,長野県,上田市,上田４７番地５,,20,203,3860001,,,2022-02-24,清算の結了等,,,2015-10-05,1,,,,,ジャブロー,0
1999,8120001050487,登記記録の閉鎖等,0,2022-02-28,2022-02-24,阪神琺瑯株式会社,,株式会社,大阪府,大阪市西淀川区,野里２丁目２２番１７号,,27,113,5550024,,,2022-02-24,清算の結了等,,,2015-10-05,1,,,,,ハンシンホウロウ,0
2013,8120003017047,登記記録の閉鎖等,0,2022-02-28,2022-02-22,合同会社エニシケア,,合同会社,大阪府,大阪市住吉区,万代２丁目８番１４号フェリーチェ帝塚山２０６号,,27,120,5580055,,,2022-02-22,清算の結了等,,,2020-02-25,1,,,,,エニシケア,0
2042,8140001117425,登記記録の閉鎖等,0,2022-02-28,2022-02-22,ポーアイ総合サービス株式会社,,株式会社,兵庫県,神戸市中央区,港島中町６丁目８番２,,28,110,6500046,,,2022-02-22,清算の結了等,,,2020-05-20,1,,,,,ポーアイソウゴウサービス,0
2055,8160005002407,登記記録の閉鎖等,0,2022-02-28,2022-02-24,特定非営利活動法人リライフバンク,,その他の設立登記法人,滋賀県,大津市,池の里２１番地１,,25,201,5200827,,,2022-02-24,清算の結了等,,,2015-10-05,1,,,,,リライフバンク,0
2085,8230001009002,登記記録の閉鎖等,0,2022-02-28,2022-02-22,小矢部サービスステーション株式会社,,株式会社,富山県,小矢部市,浅地１３５番地の２,,16,209,9320122,,,2022-02-22,清算の結了等,,,2015-10-05,1,,,,,,0
2096,8260003001648,登記記録の閉鎖等,0,2022-02-28,2022-02-24,学習塾ボスコ合同会社,,合同会社,岡山県,岡山市東区,松新町１５５番地１６,,33,103,7048174,,,2022-02-24,清算の結了等,,,2015-10-05,1,,,,,ガクシュウジュクボスコ,0
2103,8290002020893,登記記録の閉鎖等,0,2022-02-28,2022-02-22,有限会社オフィスエフ・エス,,有限会社,福岡県,福岡市博多区,金の隈３丁目２３番３０号,,40,132,8120863,,,2022-02-22,清算の結了等,,,2015-10-05,1,,,,,オフィスエフエス,0
2108,8310001017129,登記記録の閉鎖等,0,2022-02-28,2022-02-17,株式会社ＥＬＥＯＮ,,株式会社,長崎県,佐世保市,柚木元町２６７３番地１０,,42,202,8570115,,,2022-02-17,清算の結了等,,,2021-03-04,1,,,,,エレオン,0
2109,8320001000158,登記記録の閉鎖等,0,2022-02-28,2022-02-25,株式会社大分青陽社,,株式会社,大分県,大分市,大字津守１５１番地の１,,44,201,8700945,,,2022-02-25,清算の結了等,,,2015-10-05,1,,,,,オオイタセイヨウシャ,0
2110,8320001001858,登記記録の閉鎖等,0,2022-02-28,2022-02-25,鐵建商事株式会社,,株式会社,大分県,大分市,大字津守９７番地の１,,44,201,8700945,,,2022-02-25,清算の結了等,,,2015-10-05,1,,,,,テッケンショウジ,0
2111,8320001010982,登記記録の閉鎖等,0,2022-02-28,2022-02-24,株式会社むつや建窓,,株式会社,大分県,中津市,大字犬丸２３６番地,,44,203,8790105,,,2022-02-24,清算の結了等,,,2015-10-05,1,,,,,ムツヤケンソウ,0
2116,8330002024411,登記記録の閉鎖等,0,2022-02-28,2022-02-25,有限会社熊日城南町販売センター,,有限会社,熊本県,熊本市南区,城南町宮地５４２番地の１,,43,104,8614202,,,2022-02-25,清算の結了等,,,2015-10-05,1,,,,,クマニチジョウナンマチハンバイセンター,0
2137,8430001031266,登記記録の閉鎖等,0,2022-02-28,2022-02-24,株式会社ＭＴＭコーポレーション,,株式会社,北海道,札幌市豊平区,平岸二条１丁目３番１号,,01,105,0620932,,,2022-02-24,清算の結了等,,,2015-10-05,1,,,,,エムテーエムコーポレーション,0
2148,8470002008136,登記記録の閉鎖等,0,2022-02-28,2022-02-24,有限会社大須賀シロアリ,,有限会社,香川県,高松市,高松町８７３番地５７,,37,201,7610104,,,2022-02-24,清算の結了等,,,2015-10-05,1,,,,,オオスカシロアリ,0
2153,8500001003596,登記記録の閉鎖等,0,2022-02-28,2022-02-28,株式会社プレス松山,,株式会社,愛媛県,松山市,小坂２丁目７番１５号,,38,201,7900963,,,2022-02-28,清算の結了等,,,2015-10-05,1,,,,,プレスマツヤマ,0
2177,9010403013028,登記記録の閉鎖等,0,2022-02-28,2022-02-22,合同会社田事務所,,合同会社,東京都,港区,高輪２丁目１０番１５号,,13,103,1080074,,,2022-02-22,清算の結了等,,,2015-10-05,1,,,,,,0
2182,9010502000942,登記記録の閉鎖等,0,2022-02-28,2022-02-25,有限会社稲荷町サービス,,有限会社,東京都,台東区,元浅草３丁目２０番８号,,13,106,1110041,,,2022-02-25,清算の結了等,,,2015-10-05,1,,,,,イナリチョウサービス,0
2212,9011401021666,登記記録の閉鎖等,0,2022-02-28,2022-02-24,株式会社宏建,,株式会社,東京都,板橋区,仲宿６３番７－４０１号協明ビル,,13,119,1730005,,,2022-02-24,清算の結了等,,,2019-03-06,1,,,,,コウケン,0
2304,9120101009390,登記記録の閉鎖等,0,2022-02-28,2022-02-22,株式会社小島工務店,,株式会社,大阪府,堺市中区,楢葉１６８番地の４,00032226,27,142,5998252,,,2022-02-22,清算の結了等,,,2015-10-05,1,,,,,コジマコウムテン,0
2338,9180001086896,登記記録の閉鎖等,0,2022-02-28,2022-02-21,株式会社イーエスティー,,株式会社,愛知県,一宮市,多加木４丁目１６番２４号,,23,203,4910837,,,2022-02-21,清算の結了等,,,2015-10-05,1,,,,,イーエスティー,0
2344,9180002090468,登記記録の閉鎖等,0,2022-02-28,2022-02-17,有限会社堀田鉄工,,有限会社,愛知県,愛西市,町方町古江１８９番地,,23,232,4968014,,,2022-02-17,清算の結了等,,,2021-11-04,1,,,,,ホッタテッコウ,0
2348,9190005011544,登記記録の閉鎖等,0,2022-02-28,2022-02-25,一般社団法人のびのびライフサポート,,その他の設立登記法人,三重県,津市,安濃町荒木５８０番地１,,24,201,5142301,,,2022-02-25,清算の結了等,,,2021-04-08,1,,,,,ノビノビライフサポート,0
2350,9220002008325,登記記録の閉鎖等,0,2022-02-28,2022-02-16,有限会社アイ・トーク,,有限会社,石川県,金沢市,大樋町４番５号,00078454,17,201,9200818,,,2022-02-16,清算の結了等,,,2015-10-05,1,,,,,アイトーク,0
2388,9370002001414,登記記録の閉鎖等,0,2022-02-28,2022-02-18,有限会社中山フーズ,,有限会社,宮城県,仙台市泉区,南中山４丁目９番地の５,,04,105,9813213,,,2022-02-18,清算の結了等,,,2015-10-05,1,,,,,ナカヤマフーズ,0
2390,9380002029850,登記記録の閉鎖等,0,2022-02-28,2022-02-22,有限会社池田自動車整備工場,,有限会社,福島県,双葉郡浪江町,大字幾世橋字田中前４２番地の３,,07,547,9791513,,,2022-02-22,清算の結了等,,,2015-10-05,1,,,,,イケダジドウシャセイビコウジョウ,0
