sequenceNumber,corporateNumber,process,correct,updateDate,changeDate,name,nameImageId,kind,prefectureName,cityName,streetNumber,addressImageId,prefectureCode,cityCode,postCode,addressOutside,addressOutsideImageId,closeDate,closeCause,successorCorporateNumber,changeCause,assignmentDate,latest,enName,enPrefectureName,enCityName,enAddressOutside,furigana,hihyoji
9,1010001244206,新規,0,2024-04-24,2024-04-24,株式会社宝通商事,,株式会社,東京都,千代田区,神田須田町２丁目２５ＧＹＢ秋葉原５Ｆ,,13,101,1010041,,,,,,,2024-04-24,1,,,,,,0
10,1010001244288,新規,0,2024-04-24,2024-04-24,株式会社ＡＳＯＢＩ８８,,株式会社,東京都,中央区,日本橋横山町３－１３,,13,102,1030003,,,,,,,2024-04-24,1,,,,,アソビエイティーエイト,0
13,1010003043531,新規,0,2024-04-24,2024-04-24,リュクス合同会社,,合同会社,東京都,千代田区,霞が関３丁目２番５号,,13,101,1000013,,,,,,,2024-04-24,1,,,,,リュクス,0
14,1010003043572,新規,0,2024-04-24,2024-04-24,Ａｐｅｘ合同会社,,合同会社,東京都,中央区,銀座１丁目６番１１号土志田ビルディング３Ｆ,,13,102,1040061,,,,,,,2024-04-24,1,,,,,エイペックス,0
19,1010005038240,新規,0,2024-04-24,2024-04-24,インジェスター行政書士法人,,その他の設立登記法人,東京都,千代田区,五番町５－５ヒューリック五番町ビル４階,,13,101,1020076,,,,,,,2024-04-24,1,,,,,インジェスター,0
36,1010401182039,新規,0,2024-04-24,2024-04-24,株式会社ＢＹ　ＴＨＥ　ＷＡＹ,,株式会社,東京都,港区,南青山２丁目２番１５号ＷＩＮ青山５３１,,13,103,1070062,,,,,,,2024-04-24,1,,,,,バイザウェイ,0
37,1010401182055,新規,0,2024-04-24,2024-04-24,株式会社ＭＹＭ,,株式会社,東京都,港区,赤坂９丁目１番７－２４０号秀和赤坂レジデンシャルホテル,,13,103,1070052,,,,,,,2024-04-24,1,,,,,エムワイエム,0
40,1010403032472,新規,0,2024-04-24,2024-04-24,ＡＣＰ１合同会社,,合同会社,東京都,港区,六本木１丁目６番１号泉ガーデンタワー,,13,103,1060032,,,,,,,2024-04-24,1,,,,,エーシーピーワン,0
44,1010405023197,新規,0,2024-04-24,2024-04-24,ＡＣＰ１一般社団法人,,その他の設立登記法人,東京都,港区,六本木１丁目６番１号泉ガーデンタワー,,13,103,1060032,,,,,,,2024-04-24,1,,,,,エーシーピーワン,0
48,1010503007424,新規,0,2024-04-24,2024-04-24,ＭＵＧＥＭ合同会社,,合同会社,東京都,台東区,三筋１丁目１４番７号,,13,106,1110055,,,,,,,2024-04-24,1,,,,,ムゲン,0
52,1010603010781,新規,0,2024-04-24,2024-04-24,ＺＣフィナンシャルサービス合同会社,,合同会社,東京都,江東区,木場３丁目１８番２号,,13,108,1350042,,,,,,,2024-04-24,1,,,,,ゼットシーフィナンシャルサービス,0
55,1010701045804,新規,0,2024-04-24,2024-04-24,ソレイユ・ヴィジョネア株式会社,,株式会社,東京都,品川区,平塚１丁目７－１８メゾンド星山２０３,,13,109,1420051,,,,,,,2024-04-24,1,,,,,ソレイユヴィジョネア,0
56,1010701045878,新規,0,2024-04-24,2024-04-24,株式会社ＨＰＭ,,株式会社,東京都,品川区,東大井３丁目１番３号,,13,109,1400011,,,,,,,2024-04-24,1,,,,,エイチピーエム,0
71,1011001161515,新規,0,2024-04-24,2024-04-24,株式会社Ｆｏｇｌａｄ,,株式会社,東京都,渋谷区,恵比寿西２丁目８番４号ＥＸ恵比寿西ビル５階,,13,113,1500021,,,,,,,2024-04-24,1,,,,,フォグラッド,0
72,1011003018952,新規,0,2024-04-24,2024-04-24,合同会社金津白根,,合同会社,東京都,渋谷区,神宮前６丁目２３番４号桑野ビル２階,,13,113,1500001,,,,,,,2024-04-24,1,,,,,カナヅシロネ,0
73,1011003019001,新規,0,2024-04-24,2024-04-24,合同会社ＤＥＬＩＧＨＴ,,合同会社,東京都,渋谷区,本町１丁目３８番１６号ジョイテル初台２０２,,13,113,1510071,,,,,,,2024-04-24,1,,,,,ディライト,0
81,1011101107087,新規,0,2024-04-24,2024-04-24,ＭＥＸ株式会社,,株式会社,東京都,新宿区,天神町１０番地,,13,104,1620808,,,,,,,2024-04-24,1,,,,,エムイーエックス,0
86,1011203004372,新規,0,2024-04-24,2024-04-24,Ａ’ｓｉｓ合同会社,,合同会社,東京都,中野区,中央１丁目２９番１８号メゾン小淀２０３,,13,114,1640011,,,,,,,2024-04-24,1,,,,,アズイズ,0
87,1011303005139,新規,0,2024-04-24,2024-04-24,ヤマビコハウス合同会社,,合同会社,東京都,杉並区,宮前１丁目１６―２０―２０２,,13,115,1680081,,,,,,,2024-04-24,1,,,,,ヤマビコハウス,0
90,1011503006028,新規,0,2024-04-24,2024-04-24,ＣＡＶＡＮＩ合同会社,,合同会社,東京都,荒川区,東尾久１丁目３１－４－８０１,,13,118,1160012,,,,,,,2024-04-24,1,,,,,カバーニ,0
91,1011503006036,新規,0,2024-04-24,2024-04-24,合同会社ｏｖｅｒｔｕｒｎ,,合同会社,東京都,荒川区,西日暮里２丁目２６番６－２０２号,,13,118,1160013,,,,,,,2024-04-24,1,,,,,オーバーターン,0
92,1011601027702,新規,0,2024-04-24,2024-04-24,株式会社ＳＳＧ,,株式会社,東京都,練馬区,関町北１丁目１６番１３号Ｂ１,,13,120,1770051,,,,,,,2024-04-24,1,,,,,エスエスジー,0
95,1012403006530,新規,0,2024-04-24,2024-04-24,合同会社Ｆａｃｃｉａｍｏ,,合同会社,東京都,調布市,布田１丁目２６番地１２ダイアパレス調布２１０,,13,208,1820024,,,,,,,2024-04-24,1,,,,,ファッチャーモ,0
99,1012801023128,新規,0,2024-04-24,2024-04-24,株式会社ホワイトレッド,,株式会社,東京都,立川市,富士見町２丁目１３番１７号サンライズ立川１０２号,,13,202,1900013,,,,,,,2024-04-24,1,,,,,ホワイトレッド,0
100,1012805003266,新規,0,2024-04-24,2024-04-24,一般社団法人みんなの居場所いっぷく,,その他の設立登記法人,東京都,日野市,富士町１番地の３１ビバヒルズ６２２,,13,212,1910064,,,,,,,2024-04-24,1,,,,,ミンナノイバショイップク,0
103,1013301052402,新規,0,2024-04-24,2024-04-24,株式会社キューピー,,株式会社,東京都,豊島区,池袋３丁目１９－５,,13,116,1710014,,,,,,,2024-04-24,1,,,,,キューピー,0
109,1020001156862,新規,0,2024-04-24,2024-04-24,エイベック株式会社,,株式会社,神奈川県,横浜市港北区,新横浜３丁目７番地１８日総第１８ビル,,14,109,2220033,,,,,,,2024-04-24,1,,,,,エイベック,0
110,1020003025982,新規,0,2024-04-24,2024-04-24,合同会社Ｎｅｘｔ　Ｐａｇｅ,,合同会社,神奈川県,横浜市青葉区,新石川３丁目２６番地１,,14,117,2250003,,,,,,,2024-04-24,1,,,,,ネクストページ,0
111,1020005016385,新規,0,2024-04-24,2024-04-24,一般社団法人Ｂｅアサーティブ・アンサンブル協会,,その他の設立登記法人,神奈川県,横浜市青葉区,大場町３９２番地４,,14,117,2250023,,,,,,,2024-04-24,1,,,,,ビーアサーティブアンサンブルキョウカイ,0
113,1021001082066,新規,0,2024-04-24,2024-04-24,株式会社ＫＭ,,株式会社,神奈川県,相模原市中央区,共和３丁目１２番１０号,,14,152,2520234,,,,,,,2024-04-24,1,,,,,ケーエム,0
115,1021003014397,新規,0,2024-04-24,2024-04-24,ＪＤＭ　ＣＡＲＦＯＲＴ合同会社,,合同会社,神奈川県,秦野市,東田原３６番地の１０,,14,211,2570028,,,,,,,2024-04-24,1,,,,,ジェイディエムカーフォート,0
120,1030001159947,新規,0,2024-04-24,2024-04-24,ＹＭＭ株式会社,,株式会社,埼玉県,蕨市,塚越７丁目３６番１号ローヤルシティ蕨塚越４０５号,00134531,11,223,3350002,,,,,,,2024-04-24,1,,,,,ワイエムエム,0
123,1030003024174,新規,0,2024-04-24,2024-04-24,合同会社りらく,,合同会社,埼玉県,富士見市,西みずほ台１丁目１－３サンライトマンションもみの木３０４,,11,235,3540018,,,,,,,2024-04-24,1,,,,,リラク,0
132,1040001133307,新規,0,2024-04-24,2024-04-24,株式会社風見土木興業,,株式会社,千葉県,野田市,瀬戸４０３番地の３,,12,208,2780012,,,,,,,2024-04-24,1,,,,,カザミドボクコウギョウ,0
135,1050002000819,新規,0,2024-04-24,2024-04-24,有限会社カタオカ相互商産,,有限会社,茨城県,水戸市,元吉田町１７７６番地２５号,,08,201,3100836,,,,,,,2024-04-24,1,,,,,カタオカソウゴショウサン,0
137,1050003008316,新規,0,2024-04-24,2024-04-24,合同会社ＶＩＳＮＵＫＡ　ＥＮＴＥＲＰＲＩＳＥＳ,,合同会社,茨城県,下妻市,下妻乙５７５番地１０永田コーポ１１号,,08,210,3040067,,,,,,,2024-04-24,1,,,,,ヴィスヌカエンタープライゼス,0
151,1080101024699,新規,0,2024-04-24,2024-04-24,あさひ電機株式会社,,株式会社,静岡県,沼津市,志下８６番地の１アイリス桃郷４１３,,22,203,4100106,,,,,,,2024-04-24,1,,,,,アサヒデンキ,0
152,1080401027146,新規,0,2024-04-24,2024-04-24,ｕｓｋ株式会社,,株式会社,静岡県,磐田市,前野２５７７－１,,22,211,4380068,,,,,,,2024-04-24,1,,,,,ユーエスケー,0
168,1120001264226,新規,0,2024-04-24,2024-04-24,ＤＬｅａｄｅｒ株式会社,,株式会社,大阪府,大阪市北区,梅田１丁目２番２号大阪駅前第２ビル１２－１２,,27,127,5300001,,,,,,,2024-04-24,1,,,,,ディーリーダー,0
169,1120001264267,新規,0,2024-04-24,2024-04-24,サンシャイン株式会社,,株式会社,大阪府,大阪市生野区,中川東１丁目９番１２号ラパンジール勝山２Ｆ号室,,27,116,5440006,,,,,,,2024-04-24,1,,,,,サンシャイン,0
170,1120001264291,新規,0,2024-04-24,2024-04-24,株式会社ＴｅｋＮｏｖａ,,株式会社,大阪府,大阪市北区,豊崎４丁目１１－４０２,,27,127,5310072,,,,,,,2024-04-24,1,,,,,テクノバ,0
171,1120001264317,新規,0,2024-04-24,2024-04-24,株式会社エーシーティ,,株式会社,大阪府,大阪市住之江区,東加賀屋１丁目８番１４号,,27,125,5590012,,,,,,,2024-04-24,1,,,,,エーシーティ,0
172,1120001264358,新規,0,2024-04-24,2024-04-24,Ｓａｋｕｒａ　Ｈｏｕｓｅ株式会社,,株式会社,大阪府,大阪市港区,港晴３丁目１番１１－２０２－Ａ号,,27,107,5520023,,,,,,,2024-04-24,1,,,,,サクラハウス,0
175,1120003026426,新規,0,2024-04-24,2024-04-24,光樹貿易合同会社,,合同会社,大阪府,大阪市住吉区,万代６丁目１６番１６－２０３号,,27,120,5580055,,,,,,,2024-04-24,1,,,,,ヒロキボウエキ,0
176,1120003026442,新規,0,2024-04-24,2024-04-24,合同会社フォレックスパートナーズ,,合同会社,大阪府,枚方市,藤阪元町３丁目１番１２号,,27,210,5730157,,,,,,,2024-04-24,1,,,,,フォレックスパートナーズ,0
181,1120901049073,新規,0,2024-04-24,2024-04-24,株式会社勁草パートナー,,株式会社,大阪府,茨木市,西駅前町４番５２４号,,27,211,5670032,,,,,,,2024-04-24,1,,,,,ケイソウパートナー,0
185,1130003009495,新規,0,2024-04-24,2024-04-24,合同会社１ｎｄ,,合同会社,京都府,京都市下京区,七条通油小路東入大黒町２２７番地第２キョートビル４０２,,26,106,6008223,,,,,,,2024-04-24,1,,,,,ワンド,0
194,1140001134088,新規,0,2024-04-24,2024-04-24,スポットオン株式会社,,株式会社,兵庫県,明石市,川崎町２－１２－１５２８,,28,203,6730014,,,,,,,2024-04-24,1,,,,,スポットオン,0
195,1140001134146,新規,0,2024-04-24,2024-04-24,株式会社アテナスタイル,,株式会社,兵庫県,尼崎市,南武庫之荘３丁目２４番２０号,,28,202,6610033,,,,,,,2024-04-24,1,,,,,アテナスタイル,0
196,1140001134154,新規,0,2024-04-24,2024-04-24,株式会社創和,,株式会社,兵庫県,加古郡稲美町,中村８２７－５,,28,381,6751122,,,,,,,2024-04-24,1,,,,,ソウワ,0
200,1160001025871,新規,0,2024-04-24,2024-04-24,株式会社メゾンドロケーション,,株式会社,滋賀県,草津市,東矢倉３丁目２８－１８メゾン矢倉１Ｆ,,25,206,5250054,,,,,,,2024-04-24,1,,,,,メゾンドロケーション,0
201,1160003003173,新規,0,2024-04-24,2024-04-24,合同会社ｋｏｋｏｐｅｒｉ村,,合同会社,滋賀県,大津市,一里山６丁目１２－５５,,25,201,5202153,,,,,,,2024-04-24,1,,,,,ココペリムラ,0
203,1170001018107,新規,0,2024-04-24,2024-04-24,Ｈａｐｐｙ　Ｌｉｆｅ　Ｃａｆｅ株式会社,,株式会社,和歌山県,和歌山市,弘西６６８番地４,,30,201,6496339,,,,,,,2024-04-24,1,,,,,ハッピーライフカフェ,0
205,1180001161070,新規,0,2024-04-24,2024-04-24,株式会社ジョウシン,,株式会社,愛知県,名古屋市中村区,向島町３丁目７番地の１サントピア向島２０２号室,,23,105,4530838,,,,,,,2024-04-24,1,,,,,ジョウシン,0
206,1180001161087,新規,0,2024-04-24,2024-04-24,ＥＦＧ株式会社,,株式会社,愛知県,名古屋市西区,名駅２丁目２７番３号,,23,104,4510045,,,,,,,2024-04-24,1,,,,,イーエフジー,0
207,1180001161112,新規,0,2024-04-24,2024-04-24,株式会社Ｎｅｗ　Ｗａｙ,,株式会社,愛知県,名古屋市中村区,名駅４丁目２４番５号第２森ビル４０１,,23,105,4500002,,,,,,,2024-04-24,1,,,,,ニューウェイ,0
208,1180001161194,新規,0,2024-04-24,2024-04-24,株式会社ＮＫ,,株式会社,愛知県,名古屋市熱田区,六野１丁目２番２１号ザ・ライオンズミッドキャピタルタワー４６０２号,,23,109,4560023,,,,,,,2024-04-24,1,,,,,エヌケー,0
218,1220005008841,新規,0,2024-04-24,2024-04-24,医療法人社団津山整形外科クリニック,,その他の設立登記法人,石川県,野々市市,中林１丁目６４街区１番,,17,212,9218834,,,,,,,2024-04-24,1,,,,,ツヤマセイケイゲカクリニック,0
221,1250001020624,新規,0,2024-04-24,2024-04-24,ＶＥＲＩＡＲＴ株式会社,,株式会社,山口県,柳井市,日積２７２８－１,,35,212,7420111,,,,,,,2024-04-24,1,,,,,ヴェリアート,0
223,1270003001620,新規,0,2024-04-24,2024-04-24,ＫＲＤ合同会社,,合同会社,鳥取県,米子市,米原１丁目１３番２０号,,31,202,6830804,,,,,,,2024-04-24,1,,,,,ケイアールディー,0
226,1290001105470,新規,0,2024-04-24,2024-04-24,株式会社タケシマ,,株式会社,福岡県,三潴郡大木町,大字奥牟田１２４３番地７,,40,522,8300421,,,,,,,2024-04-24,1,,,,,タケシマ,0
227,1290001105487,新規,0,2024-04-24,2024-04-24,株式会社ヴェルデファーム,,株式会社,福岡県,古賀市,花見南２丁目１０番２８号,,40,223,8113111,,,,,,,2024-04-24,1,,,,,ヴェルデファーム,0
233,1300005007190,新規,0,2024-04-24,2024-04-24,医療法人ひだまり歯科医院,,その他の設立登記法人,佐賀県,鹿島市,大字納富分９９０番地３,,41,207,8491312,,,,,,,2024-04-24,1,,,,,ヒダマリシカイイン,0
243,1310003004775,新規,0,2024-04-24,2024-04-24,合同会社対話のＮｕｋａｄｏｋｏ,,合同会社,長崎県,長崎市,滑石３丁目１９番６２号,,42,201,8528061,,,,,,,2024-04-24,1,,,,,タイワノヌカドコ,0
246,1330001031984,新規,0,2024-04-24,2024-04-24,Ｙｚｅｓｔ株式会社,,株式会社,熊本県,荒尾市,四ツ山町１丁目１３０番地１,,43,204,8640052,,,,,,,2024-04-24,1,,,,,ワイゼスト,0
252,1340003004450,新規,0,2024-04-24,2024-04-24,合同会社ｍｅｍｏｒｙ,,合同会社,鹿児島県,鹿児島市,山之口町９番４２,,46,201,8920844,,,,,,,2024-04-24,1,,,,,メモリー,0
262,1370001051211,新規,0,2024-04-24,2024-04-24,株式会社ハウスウイニング,,株式会社,宮城県,仙台市青葉区,錦ケ丘３丁目７番地の５,,04,101,9893123,,,,,,,2024-04-24,1,,,,,ハウスウイニング,0
263,1370003006576,新規,0,2024-04-24,2024-04-24,合同会社ＨＴ　ＣＯＭＰＡＮＹ,,合同会社,宮城県,岩沼市,相の原１丁目８番２号,,04,211,9892431,,,,,,,2024-04-24,1,,,,,エイチティカンパニー,0
264,1370005010774,新規,0,2024-04-24,2024-04-24,特定非営利活動法人空き家サポート,,その他の設立登記法人,宮城県,登米市,迫町佐沼字新大東８番地２,,04,212,9870511,,,,,,,2024-04-24,1,,,,,アキヤサポート,0
270,1410003003916,新規,0,2024-04-24,2024-04-24,ベルツリー観光合同会社,,合同会社,秋田県,大仙市,高関上郷字大村６番地８,,05,212,0140103,,,,,,,2024-04-24,1,,,,,ベルツリーカンコウ,0
279,1430003016263,新規,0,2024-04-24,2024-04-24,合同会社ＥＬＬＦ,,合同会社,北海道,札幌市厚別区,厚別南３丁目１－１０,,01,108,0040022,,,,,,,2024-04-24,1,,,,,イーエルエルエフ,0
287,1480003002119,新規,0,2024-04-24,2024-04-24,ＤＡＮＫＥＴＳＵ　ＪＡＰＡＮ合同会社,,合同会社,徳島県,徳島市,南矢三町１丁目３番３３号セジュールウインズ１０１,,36,201,7700005,,,,,,,2024-04-24,1,,,,,ダンケツジャパン,0
290,1700150124799,新規,0,2024-04-24,2024-04-24,ＡＨＲＥＦＳ　ＰＴＥ．ＬＴＤ．,,外国会社等,,,,,,,,１６　ＲＡＦＦＬＥＳ　ＱＵＡＹ　＃３３－０３　ＨＯＮＧ　ＬＥＯＮＧ　ＢＵＩＬＤＩＮＧ　ＳＩＮＧＡＰＯＲＥ,,,,,,2024-04-24,1,,,,,アーレフス,0
291,1700150125087,新規,0,2024-04-24,2024-04-24,ＣＯＧＮＯＳＰＨＥＲＥ　ＰＴＥ．ＬＴＤ．,,外国会社等,,,,,,,,１　Ｏｎｅ－Ｎｏｒｔｈ　Ｃｒｅｓｃｅｎｔ，＃０６－０１／０２，Ｒａｚｅｒ　Ｓｅａ　ＨＱ，Ｓｉｎｇａｐｏｒｅ（１３８５３８）,,,,,,2024-04-24,1,,,,,コグノスフイアプライベートリミテツド,0
292,1700150125104,新規,0,2024-04-24,2024-04-24,健和興端子股斌有限公司,00134521,外国会社等,,,,,,,,彰化縣線西郷溝内村彰濱東三路八號,,,,,,2024-04-24,1,,,,,ケンワコウタンシコフエンユウゲンコウシ,0
304,2010001244295,新規,0,2024-04-24,2024-04-24,スマートコマース株式会社,,株式会社,東京都,千代田区,内神田１丁目４－１ステイト大手町８階,,13,101,1010047,,,,,,,2024-04-24,1,,,,,スマートコマース,0
305,2010001244361,新規,0,2024-04-24,2024-04-24,Ｆｌｅｕｒｉｎａｒｙ株式会社,,株式会社,東京都,中央区,銀座１丁目１２―４Ｎ＆Ｅ・ＢＬＤ．７階,,13,102,1040061,,,,,,,2024-04-24,1,,,,,フルリナリー,0
307,2010003043588,新規,0,2024-04-24,2024-04-24,ＤＨＦ３合同会社,,合同会社,東京都,千代田区,丸の内３丁目１番１号東京共同会計事務所内,,13,101,1000005,,,,,,,2024-04-24,1,,,,,ディーエイチエフスリー,0
308,2010005038223,新規,0,2024-04-24,2024-04-24,一般財団法人ＣＥＣＩＣＡ芸術文化振興財団,,その他の設立登記法人,東京都,中央区,日本橋１丁目１８番１４号,,13,102,1030027,,,,,,,2024-04-24,1,,,,,セシカゲイジュツブンカシンコウザイダン,0
309,2010005038231,新規,0,2024-04-24,2024-04-24,一般社団法人ＦＡＶ　ＰＲＦ２号,,その他の設立登記法人,東京都,千代田区,永田町２丁目１７番５号,,13,101,1000014,,,,,,,2024-04-24,1,,,,,ファブプレリートファンドニゴウ,0
316,2010401181989,新規,0,2024-04-24,2024-04-24,株式会社メディカルアンドテクノロジーズ,,株式会社,東京都,港区,六本木７丁目１５番７号,,13,103,1060032,,,,,,,2024-04-24,1,,,,,メディカルアンドテクノロジーズ,0
320,2010403032455,新規,0,2024-04-24,2024-04-24,合同会社ジェッタ,,合同会社,東京都,港区,北青山１丁目３番１号アールキューブ青山３階,,13,103,1070061,,,,,,,2024-04-24,1,,,,,ジェッタ,0
323,2010503007423,新規,0,2024-04-24,2024-04-24,ローレル合同会社,,合同会社,東京都,台東区,浅草４丁目３３－９－５０３プレサンスジェネ浅草ＷＥＳＴ,,13,106,1110032,,,,,,,2024-04-24,1,,,,,ローレル,0
340,2011001161522,新規,0,2024-04-24,2024-04-24,ＩＥＳ　Ｊａｐａｎ株式会社,,株式会社,東京都,目黒区,青葉台４丁目４番１２－８０１号,,13,110,1530042,,,,,,,2024-04-24,1,,,,,アイイーエスジャパン,0
342,2011003018992,新規,0,2024-04-24,2024-04-24,合同会社エレメンタリーハーモニーズ,,合同会社,東京都,渋谷区,笹塚２丁目４－１７０１,,13,113,1510073,,,,,,,2024-04-24,1,,,,,エレメンタリーハーモニーズ,0
352,2011101107111,新規,0,2024-04-24,2024-04-24,株式会社ｍｏｋ,,株式会社,東京都,新宿区,中落合２丁目１７－１３,,13,104,1610032,,,,,,,2024-04-24,1,,,,,モック,0
372,2020001156861,新規,0,2024-04-24,2024-04-24,株式会社ネクター,,株式会社,神奈川県,川崎市多摩区,登戸３１４１－４ドリームハウス登戸第５－３０３号,,14,135,2140014,,,,,,,2024-04-24,1,,,,,ネクター,0
389,2030003024173,新規,0,2024-04-24,2024-04-24,ＣａｒＵＰ合同会社,,合同会社,埼玉県,川口市,大字赤山５９３－２赤山ハイツ２０１号,,11,203,3330825,,,,,,,2024-04-24,1,,,,,カーアップ,0
397,2040001133289,新規,0,2024-04-24,2024-04-24,菱芝株式会社,,株式会社,千葉県,佐倉市,宮前３丁目２２番地４ＧＡＲＤＥＮＥＬＥＧＡＮＴ３２２号室,,12,212,2850005,,,,,,,2024-04-24,1,,,,,ヒシシバ,0
398,2040001133297,新規,0,2024-04-24,2024-04-24,株式会社万花園,,株式会社,千葉県,印旛郡酒々井町,東酒々井１丁目１番５０パピヨンハウス２０２室,,12,322,2850923,,,,,,,2024-04-24,1,,,,,マンカエン,0
399,2040001133314,新規,0,2024-04-24,2024-04-24,株式会社八萬社,,株式会社,千葉県,我孫子市,布佐平和台２丁目７－１３,,12,222,2701108,,,,,,,2024-04-24,1,,,,,ハチマンシャ,0
403,2040003024858,新規,0,2024-04-24,2024-04-24,味来合同会社,,合同会社,千葉県,松戸市,根本１２２－２朝日松戸プラザ８０２号室,,12,207,2710077,,,,,,,2024-04-24,1,,,,,ミライ,0
404,2040003024866,新規,0,2024-04-24,2024-04-24,合同会社コトブキ製作所,,合同会社,千葉県,八千代市,大和田新田１０７９番地９７,,12,221,2760046,,,,,,,2024-04-24,1,,,,,コトブキセイサクジョ,0
406,2050001054682,新規,0,2024-04-24,2024-04-24,株式会社クボタプラミング,,株式会社,茨城県,水戸市,杉崎町１６０２番地の５２,,08,201,3190306,,,,,,,2024-04-24,1,,,,,クボタプラミング,0
423,2110005017084,新規,0,2024-04-24,2024-04-24,ＮＰＯ法人探究Ｌａｂｏ,,その他の設立登記法人,新潟県,佐渡市,河原田諏訪町２０７番７６,,15,224,9521315,,,,,,,2024-04-24,1,,,,,タンキュウラボ,0
435,2120001264126,新規,0,2024-04-24,2024-04-24,株式会社トウメイ,,株式会社,大阪府,大阪市浪速区,浪速西３丁目５番１８号,,27,111,5560026,,,,,,,2024-04-24,1,,,,,トウメイ,0
436,2120001264233,新規,0,2024-04-24,2024-04-24,大鳥株式会社,,株式会社,大阪府,大阪市生野区,巽北１丁目１番１号１Ｆ－Ｂ,00134544,27,116,5440004,,,,,,,2024-04-24,1,,,,,オオトリ,0
437,2120001264258,新規,0,2024-04-24,2024-04-24,ＥＸＯ‐Ａｕｔｏ株式会社,,株式会社,大阪府,大阪市西区,南堀江２丁目３番１２号,,27,106,5500015,,,,,,,2024-04-24,1,,,,,エグゾオート,0
438,2120001264282,新規,0,2024-04-24,2024-04-24,想いを形に株式会社,,株式会社,大阪府,大阪市東淀川区,下新庄３丁目８－１３フジパレス下新庄Ｖ番館１０１,,27,114,5330021,,,,,,,2024-04-24,1,,,,,オモイヲカタチニ,0
439,2120001264290,新規,0,2024-04-24,2024-04-24,嘉沐坤元株式会社,,株式会社,大阪府,大阪市中央区,高津２丁目３番１３号,,27,128,5420072,,,,,,,2024-04-24,1,,,,,カノクコンゲン,0
440,2120001264308,新規,0,2024-04-24,2024-04-24,順澤貿易株式会社,,株式会社,大阪府,大阪市生野区,生野西４丁目１２番３－１０４号,,27,116,5440024,,,,,,,2024-04-24,1,,,,,ジュンサワボウエキ,0
441,2120001264324,新規,0,2024-04-24,2024-04-24,株式会社ＨＡＮ,,株式会社,大阪府,大阪市中央区,北久宝寺町３丁目１番６－９０５号,,27,128,5410057,,,,,,,2024-04-24,1,,,,,ハン,0
442,2120001264357,新規,0,2024-04-24,2024-04-24,株式会社グリヒト,,株式会社,大阪府,大阪市西区,靱本町３丁目３番３号３階,,27,106,5500004,,,,,,,2024-04-24,1,,,,,グリヒト,0
443,2120001264464,新規,0,2024-04-24,2024-04-24,禾楽株式会社,,株式会社,大阪府,大阪市東淀川区,豊新５丁目６番３－２０１号,,27,114,5330014,,,,,,,2024-04-24,1,,,,,カラク,0
446,2120005024294,新規,0,2024-04-24,2024-04-24,行政書士法人アップ,,その他の設立登記法人,大阪府,大阪市中央区,久太郎町４丁目２－１５星和シティービル６Ｆ５号室,,27,128,5410056,,,,,,,2024-04-24,1,,,,,アップ,0
453,2120901049072,新規,0,2024-04-24,2024-04-24,株式会社ＶＡＬＵＥ　ＰＡＣＫ,,株式会社,大阪府,箕面市,粟生間谷東５丁目３２番５号,,27,220,5620022,,,,,,,2024-04-24,1,,,,,バリューパック,0
466,2130003009486,新規,0,2024-04-24,2024-04-24,合同会社わくわく,,合同会社,京都府,京都市山科区,川田土仏５－５,,26,110,6078325,,,,,,,2024-04-24,1,,,,,ワクワク,0
482,2140001134178,新規,0,2024-04-24,2024-04-24,株式会社あざらし,,株式会社,兵庫県,尼崎市,南塚口町７丁目１２番１３号,,28,202,6610012,,,,,,,2024-04-24,1,,,,,アザラシ,0
483,2140001134211,新規,0,2024-04-24,2024-04-24,心星計装株式会社,,株式会社,兵庫県,神戸市中央区,上筒井通２丁目１番１７号,,28,110,6510061,,,,,,,2024-04-24,1,,,,,シンセイケイソウ,0
487,2150001027249,新規,0,2024-04-24,2024-04-24,ｍｅｙｔ株式会社,,株式会社,奈良県,奈良市,富雄元町４丁目１番９号,,29,201,6310078,,,,,,,2024-04-24,1,,,,,メット,0
493,2180001161111,新規,0,2024-04-24,2024-04-24,エイティファーム株式会社,,株式会社,愛知県,一宮市,千秋町浮野字冠羅１７番地２,,23,203,4910806,,,,,,,2024-04-24,1,,,,,エイティファーム,0
498,2180003026675,新規,0,2024-04-24,2024-04-24,サキビューティー合同会社,,合同会社,愛知県,名古屋市中区,松原１丁目１５番１８号４１０号室,,23,106,4600017,,,,,,,2024-04-24,1,,,,,サキビューティー,0
502,2190001031296,新規,0,2024-04-24,2024-04-24,株式会社匠,,株式会社,三重県,四日市市,釆女が丘４丁目４５番地,,24,202,5100953,,,,,,,2024-04-24,1,,,,,タクミ,0
506,2210001019735,新規,0,2024-04-24,2024-04-24,株式会社ＪＩＮ,,株式会社,福井県,小浜市,加茂第７９号１８番地,,18,204,9170223,,,,,,,2024-04-24,1,,,,,ジン,0
508,2220001025955,新規,0,2024-04-24,2024-04-24,Ｓｏｉ株式会社,,株式会社,石川県,小松市,須天町２丁目４３番地,,17,203,9230963,,,,,,,2024-04-24,1,,,,,ソイ,0
509,2220001025963,新規,0,2024-04-24,2024-04-24,株式会社クロスボーダー,,株式会社,石川県,金沢市,彦三町１丁目１７番地１,,17,201,9200901,,,,,,,2024-04-24,1,,,,,クロスボーダー,0
510,2220003003736,新規,0,2024-04-24,2024-04-24,合同会社ピコストラテジー,,合同会社,石川県,金沢市,泉野町１丁目１９番３号,,17,201,9218034,,,,,,,2024-04-24,1,,,,,ピコストラテジー,0
512,2220005008840,新規,0,2024-04-24,2024-04-24,医療法人ｆＵｋｕｒｕｎ,,その他の設立登記法人,石川県,小松市,符津町ム１６１番１,,17,203,9230302,,,,,,,2024-04-24,1,,,,,フクルン,0
517,2240001063111,新規,0,2024-04-24,2024-04-24,カネヒロ照明株式会社,,株式会社,広島県,三原市,久井町山中野２５１番地,,34,204,7221416,,,,,,,2024-04-24,1,,,,,カネヒロショウメイ,0
518,2240001063136,新規,0,2024-04-24,2024-04-24,株式会社Ｕｍｇｌａｄ,,株式会社,広島県,広島市西区,横川町３丁目２番３６号フレスタモールカジル横川３階,,34,104,7330011,,,,,,,2024-04-24,1,,,,,ウムグラッド,0
526,2290001105486,新規,0,2024-04-24,2024-04-24,株式会社進貴,,株式会社,福岡県,福岡市南区,弥永２丁目２１番１０号,,40,134,8111323,,,,,,,2024-04-24,1,,,,,シンキ,0
527,2290001105494,新規,0,2024-04-24,2024-04-24,株式会社ベル会,,株式会社,福岡県,福岡市早良区,室見２丁目１１番５号,,40,137,8140015,,,,,,,2024-04-24,1,,,,,ベルカイ,0
528,2290001105503,新規,0,2024-04-24,2024-04-24,株式会社ＬｉＢソリューション,,株式会社,福岡県,筑紫野市,岡田３丁目２番地１４,,40,217,8180013,,,,,,,2024-04-24,1,,,,,リブソリューション,0
530,2290003015205,新規,0,2024-04-24,2024-04-24,合同会社祐,,合同会社,福岡県,福岡市城南区,松山１丁目１１番４６号,,40,136,8140131,,,,,,,2024-04-24,1,,,,,ユウ,0
534,2290803004704,新規,0,2024-04-24,2024-04-24,合同会社１７７ホールディングス,,合同会社,福岡県,遠賀郡水巻町,頃末北１丁目１０番１号,,40,382,8070022,,,,,,,2024-04-24,1,,,,,イチナナナナホールディングス,0
544,2330003010325,新規,0,2024-04-24,2024-04-24,合同会社麻生福祉ジョブコーディネート事務所,,合同会社,熊本県,上益城郡益城町,大字惣領１３９４番地１,,43,443,8612233,,,,,,,2024-04-24,1,,,,,アソウフクシジョブコーディネートジムショ,0
545,2340001026454,新規,0,2024-04-24,2024-04-24,株式会社ＭＬＳ,,株式会社,鹿児島県,鹿児島市,山田町７６４番地３,,46,201,8910104,,,,,,,2024-04-24,1,,,,,エムエルエス,0
551,2360001033556,新規,0,2024-04-24,2024-04-24,株式会社Ｔｉｐ　ｏｆｆ,,株式会社,沖縄県,那覇市,首里大中町１丁目２２番地４,,47,201,9030823,,,,,,,2024-04-24,1,,,,,チップオフ,0
557,2370005010773,新規,0,2024-04-24,2024-04-24,特定非営利活動法人アンドブライツ,,その他の設立登記法人,宮城県,仙台市泉区,上谷刈字治郎兵衛下４８－３株式会社ティ・ピィ・エスサービス内,,04,105,9813121,,,,,,,2024-04-24,1,,,,,アンドブライツ,0
572,2410001013817,新規,0,2024-04-24,2024-04-24,株式会社ＮＯ．８,,株式会社,秋田県,秋田市,茨島４丁目６番４６号,00134548,05,201,0100065,,,,,,,2024-04-24,1,,,,,ナンバーエイト,0
575,2410003003915,新規,0,2024-04-24,2024-04-24,合同会社ＰＲＥＭＡ　ＹＯＧＡ,,合同会社,秋田県,横手市,婦気大堤字婦気４２番地,,05,203,0130063,,,,,,,2024-04-24,1,,,,,プレーマヨガ,0
581,2450001014299,新規,0,2024-04-24,2024-04-24,株式会社ＥＳケミスト,,株式会社,北海道,名寄市,西八条南１１丁目２８番地１６２,,01,221,0960018,,,,,,,2024-04-24,1,,,,,イーエスケミスト,0
593,2700150018397,新規,0,2024-04-24,2015-10-09,常陸大宮食品衛生協会,,その他,茨城県,常陸大宮市,姥賀町２９７８－１茨城県ひたちなか保健所常陸大宮支所内,,08,225,3192251,,,,,,,2015-10-09,1,,,,,ヒタチオオミヤシヨクヒンエイセイキヨウカイ,0
594,2700150125086,新規,0,2024-04-24,2024-04-24,プロマンタスインディアプライベートリミテッド,,外国会社等,,,,,,,,６ｔｈ　Ｆｌｏｏｒ，Ｕｎｉｔ　６１０－６１８，Ｓｐａｚｅ　Ｉ　Ｔｅｃｈ　Ｐａｒｋ，Ｓｏｈｎａ　Ｒｏａｄ，Ｓｅｃｔｏｒ－４９，ＧＵＲＧＡＯＮ，Ｇｕｒｇａｏｎ，Ｈａｒｙａｎａ，Ｉｎｄｉａ，１２２０１８,00134529,,,,,2024-04-24,1,,,,,プロマンタスインデイアプライベートリミテツド,0
605,3010001244245,新規,0,2024-04-24,2024-04-24,株式会社ＪＶ　ＭＯＢＩＬＥ,,株式会社,東京都,中央区,銀座１丁目８番７号,,13,102,1040061,,,,,,,2024-04-24,1,,,,,ジェイブイモバイル,0
606,3010001244253,新規,0,2024-04-24,2024-04-24,株式会社ＧＢＬＪＰ,,株式会社,東京都,千代田区,神田和泉町１番地６の１６ヤマトビル４０５,,13,101,1010024,,,,,,,2024-04-24,1,,,,,ジービーエルジェーピー,0
607,3010003043546,新規,0,2024-04-24,2024-04-24,ＳＩＮ合同会社,,合同会社,東京都,中央区,銀座１丁目１３番１２号,,13,102,1040061,,,,,,,2024-04-24,1,,,,,,0
608,3010003043570,新規,0,2024-04-24,2024-04-24,合同会社ＳＣＡＬＥＳ,,合同会社,東京都,中央区,日本橋堀留町１丁目１０番１号カクタビル２Ｆ,,13,102,1030012,,,,,,,2024-04-24,1,,,,,スケールズ,0
625,3010501052172,新規,0,2024-04-24,2024-04-24,株式会社ワイケイ,,株式会社,東京都,台東区,西浅草２丁目７番１１－４０５号スターライト浅草,,13,106,1110035,,,,,,,2024-04-24,1,,,,,ワイケイ,0
634,3010701045884,新規,0,2024-04-24,2024-04-24,株式会社エクステックサービス,,株式会社,東京都,品川区,南大井３丁目２８番１０号,,13,109,1400013,,,,,,,2024-04-24,1,,,,,エクステックサービス,0
645,3011001161281,新規,0,2024-04-24,2024-04-24,株式会社ＨＯＳＨＩＮＯＭＡＤＯ,,株式会社,東京都,渋谷区,渋谷２丁目１９番地１５号宮益坂ビルディング６０９,,13,113,1500002,,,,,,,2024-04-24,1,,,,,ホシノマド,0
646,3011001161471,新規,0,2024-04-24,2024-04-24,株式会社ＮＡＫＥ,,株式会社,東京都,渋谷区,神宮前１丁目９番８号ＫＩ－４３８－２Ｆ－Ｂ,,13,113,1500001,,,,,,,2024-04-24,1,,,,,ネイク,0
648,3011003018983,新規,0,2024-04-24,2024-04-24,ＫＰＩ合同会社,,合同会社,東京都,渋谷区,千駄ヶ谷３丁目１２番１０号２０５号,,13,113,1510051,,,,,,,2024-04-24,1,,,,,ケイピーアイ,0
650,3011105011011,新規,0,2024-04-24,2024-04-24,一般社団法人公共善エコノミー,,その他の設立登記法人,東京都,新宿区,高田馬場４丁目２２番４６－１０３号,,13,104,1690075,,,,,,,2024-04-24,1,,,,,コウキョウゼンエコノミー,0
655,3011303005137,新規,0,2024-04-24,2024-04-24,ＤＲＥＡＭ　ＳＣＥＮＡＲＩＯ合同会社,,合同会社,東京都,杉並区,下高井戸５丁目３番２２号ＴＡＳ上北沢レジデンス３０８,,13,115,1680073,,,,,,,2024-04-24,1,,,,,,0
659,3012301013882,新規,0,2024-04-24,2024-04-24,株式会社ＤＨＤ工房,,株式会社,東京都,町田市,鶴間５丁目２番１－３０１号,,13,209,1940004,,,,,,,2024-04-24,1,,,,,,0
661,3012401041791,新規,0,2024-04-24,2024-04-24,株式会社ＨＫＭ,,株式会社,東京都,三鷹市,牟礼６丁目２３番７－６１１号,,13,204,1810002,,,,,,,2024-04-24,1,,,,,エイチケイエム,0
671,3020001156794,新規,0,2024-04-24,2024-04-24,＿輝興業株式会社,00134536,株式会社,神奈川県,横浜市泉区,上飯田町２６１９番地２８棟１２０８号,,14,116,2450018,,,,,,,2024-04-24,1,,,,,キンキコウギョウ,0
672,3020001156803,新規,0,2024-04-24,2024-04-24,ＫＯＢＯＲＥＬ株式会社,,株式会社,神奈川県,横浜市港北区,新羽町１２２４番地,,14,109,2230057,,,,,,,2024-04-24,1,,,,,コボレル,0
673,3020001156852,新規,0,2024-04-24,2024-04-24,ＫｏＭＡＸ　Ｇｒｏｕｐ株式会社,,株式会社,神奈川県,横浜市都筑区,仲町台１丁目７番１８号ビュロー仲町台３０４,,14,118,2240041,,,,,,,2024-04-24,1,,,,,コマックスグループ,0
674,3020001156860,新規,0,2024-04-24,2024-04-24,株式会社シトラス,,株式会社,神奈川県,川崎市多摩区,登戸３１４１－４ドリームハウス登戸第５－３０３号,,14,135,2140014,,,,,,,2024-04-24,1,,,,,シトラス,0
675,3020001156893,新規,0,2024-04-24,2024-04-24,株式会社ａｌｍａｎａｃ,,株式会社,神奈川県,川崎市多摩区,登戸９４９番地１,,14,135,2140014,,,,,,,2024-04-24,1,,,,,アルマナック,0
677,3020003025980,新規,0,2024-04-24,2024-04-24,合同会社ＬＡＮＡ　Ｃｏｒｐｏｒａｔｉｏｎ,,合同会社,神奈川県,川崎市幸区,戸手４丁目９番２－７０７号,,14,132,2120005,,,,,,,2024-04-24,1,,,,,ラナコーポレーション,0
690,3030001159961,新規,0,2024-04-24,2024-04-24,株式会社ＹＯＳＨＩＤＡ　ＭＡＸ,,株式会社,埼玉県,越谷市,大沢１丁目１２番２４号サーパス北越谷３０１,,11,222,3430025,,,,,,,2024-04-24,1,,,,,ヨシダマックス,0
691,3030001160028,新規,0,2024-04-24,2024-04-24,株式会社ＰＭ　ＤＯＯＲ,,株式会社,埼玉県,さいたま市浦和区,大東３丁目４０番２号ＳＫビル１Ｆ,,11,107,3300043,,,,,,,2024-04-24,1,,,,,ピーエムドア,0
695,3030003024180,新規,0,2024-04-24,2024-04-24,合同会社一二三,,合同会社,埼玉県,川口市,長蔵２丁目１１‐３グレイスヴィラ１０３,,11,203,3330807,,,,,,,2024-04-24,1,,,,,ヒフミ,0
699,3040001133288,新規,0,2024-04-24,2024-04-24,ＳＫＹ　ＭＵＳＩＣ株式会社,,株式会社,千葉県,佐倉市,宮前３丁目２２番地４ＧＡＲＤＥＮＥＬＥＧＡＮＴ４１３号室,,12,212,2850005,,,,,,,2024-04-24,1,,,,,スカイミュージック,0
700,3040001133296,新規,0,2024-04-24,2024-04-24,株式会社寺尾塗装,,株式会社,千葉県,君津市,南子安２丁目１２番１１号,,12,225,2991162,,,,,,,2024-04-24,1,,,,,テラオトソウ,0
701,3040001133321,新規,0,2024-04-24,2024-04-24,株式会社ムリョウ,,株式会社,千葉県,船橋市,浜町２丁目３番３１－１８０７号,,12,204,2730012,,,,,,,2024-04-24,1,,,,,ムリョウ,0
702,3040003024857,新規,0,2024-04-24,2024-04-24,合同会社日光,,合同会社,千葉県,野田市,なみき２丁目２５番地８,,12,208,2700229,,,,,,,2024-04-24,1,,,,,ニッコウ,0
716,3080401027144,新規,0,2024-04-24,2024-04-24,グーホーム株式会社,,株式会社,静岡県,浜松市中央区,高塚町１１５４番地の１,,22,138,4328065,,,,,,,2024-04-24,1,,,,,グーホーム,0
738,3120001264232,新規,0,2024-04-24,2024-04-24,宏達株式会社,,株式会社,大阪府,大阪市西区,江戸堀２丁目７－３２ネオアージュ土佐堀２０１号室,,27,106,5500002,,,,,,,2024-04-24,1,,,,,コウタツ,0
739,3120001264488,新規,0,2024-04-24,2024-04-24,株式会社至誠テクノロジーズ,,株式会社,大阪府,大阪市淀川区,十八条１丁目１－３,,27,123,5320001,,,,,,,2024-04-24,1,,,,,シセイテクノロジーズ,0
742,3120005024293,新規,0,2024-04-24,2024-04-24,一般社団法人ｗｏｎｄｅｒ　ｗａｌｌ,,その他の設立登記法人,大阪府,大阪市北区,天神橋２丁目北１－１４サンプラザ南森町ビル５階,,27,127,5300041,,,,,,,2024-04-24,1,,,,,ワンダーウォール,0
749,3130001076908,新規,0,2024-04-24,2024-04-24,株式会社谷川,,株式会社,京都府,京都市右京区,西院西今田町１６番地１９,,26,108,6150003,,,,,,,2024-04-24,1,,,,,タニセン,0
750,3130001076916,新規,0,2024-04-24,2024-04-24,株式会社ダイナ,,株式会社,京都府,亀岡市,南つつじケ丘桜台１丁目２５番地２,,26,206,6210847,,,,,,,2024-04-24,1,,,,,ダイナ,0
752,3130003009477,新規,0,2024-04-24,2024-04-24,合同会社千両,,合同会社,京都府,城陽市,寺田西ノ口９６－１０,,26,207,6100121,,,,,,,2024-04-24,1,,,,,センリョウ,0
761,3140001133906,新規,0,2024-04-24,2024-04-24,アークエール株式会社,,株式会社,兵庫県,尼崎市,大島３丁目２２番１７号,,28,202,6600076,,,,,,,2024-04-24,1,,,,,アークエール,0
766,3140003020458,新規,0,2024-04-24,2024-04-24,合同会社神戸物流,,合同会社,兵庫県,神戸市兵庫区,兵庫町１丁目２番１２－２０４号,,28,105,6520813,,,,,,,2024-04-24,1,,,,,コウベブツリュウ,0
769,3150001027248,新規,0,2024-04-24,2024-04-24,株式会社幸壽,,株式会社,奈良県,橿原市,東坊城町９３２－２,,29,205,6340835,,,,,,,2024-04-24,1,,,,,コウジュ,0
782,3180001161069,新規,0,2024-04-24,2024-04-24,株式会社ケーエイチ,,株式会社,愛知県,名古屋市東区,砂田橋４丁目１番５７号メガシティテラス４棟６１５号,,23,102,4610045,,,,,,,2024-04-24,1,,,,,ケーエイチ,0
783,3180001161127,新規,0,2024-04-24,2024-04-24,株式会社ＳＫ,,株式会社,愛知県,春日井市,高森台７丁目２番地９,,23,206,4870032,,,,,,,2024-04-24,1,,,,,エスケー,0
784,3180001161143,新規,0,2024-04-24,2024-04-24,知多コンサルティング株式会社,,株式会社,愛知県,知多市,八幡字荒井１００番地,,23,224,4780001,,,,,,,2024-04-24,1,,,,,チタコンサルティング,0
791,3180003026666,新規,0,2024-04-24,2024-04-24,合同会社ＨＡＰＰＹ　ＳＭＩＬＥ,,合同会社,愛知県,犬山市,大字前原字向屋敷９５番地２３９,,23,215,4840061,,,,,,,2024-04-24,1,,,,,ハッピースマイル,0
804,3210001019734,新規,0,2024-04-24,2024-04-24,一和総合調査機構株式会社,,株式会社,福井県,福井市,左内町９－２２,,18,201,9188002,,,,,,,2024-04-24,1,,,,,イチワソウゴウチョウサキコウ,0
806,3220001025896,新規,0,2024-04-24,2024-04-24,株式会社ハウスマン,,株式会社,石川県,金沢市,古府１丁目１８５番地,,17,201,9200362,,,,,,,2024-04-24,1,,,,,ハウスマン,0
807,3220001025954,新規,0,2024-04-24,2024-04-24,株式会社ＡＧＥＭＯＣＨＩ．,,株式会社,石川県,金沢市,額乙丸町ハ９１番地真梨ＩＶ２０３号室,00134533,17,201,9218146,,,,,,,2024-04-24,1,,,,,アゲモチ,0
808,3220001025962,新規,0,2024-04-24,2024-04-24,株式会社ａｙａｃａ,,株式会社,石川県,金沢市,片町１丁目３番３１号,,17,201,9200981,,,,,,,2024-04-24,1,,,,,アヤカ,0
811,3220003003735,新規,0,2024-04-24,2024-04-24,ＴｒｉＡｒｒｏｗｓ合同会社,,合同会社,石川県,金沢市,田上本町４丁目４０番地,,17,201,9201155,,,,,,,2024-04-24,1,,,,,トライアローズ,0
816,3230001020319,新規,0,2024-04-24,2024-04-24,ＧＴＹＲＥＳ株式会社,,株式会社,富山県,高岡市,福岡町下老子２６番地１,,16,202,9390121,,,,,,,2024-04-24,1,,,,,ジータイヤズ,0
821,3240001063127,新規,0,2024-04-24,2024-04-24,チーム建築株式会社,,株式会社,広島県,広島市安芸区,矢野新町２丁目４番２号,,34,107,7360084,,,,,,,2024-04-24,1,,,,,チームケンチク,0
827,3260001038993,新規,0,2024-04-24,2024-04-24,ＥＮ株式会社,,株式会社,岡山県,岡山市南区,福田２２７－９,,33,104,7028021,,,,,,,2024-04-24,1,,,,,エン,0
836,3290001105502,新規,0,2024-04-24,2024-04-24,株式会社ｕｍｉ,,株式会社,福岡県,福岡市城南区,樋井川３丁目２０番５－１０１号エルドラード上長尾Ｂ棟,,40,136,8140153,,,,,,,2024-04-24,1,,,,,ウミ,0
837,3290001105510,新規,0,2024-04-24,2024-04-24,株式会社Ｐｅｎｔａｇｒａｍ,,株式会社,福岡県,福岡市博多区,博多駅南３丁目１７番１－９０５号,,40,132,8120016,,,,,,,2024-04-24,1,,,,,ペンタグラム,0
850,3320001020425,新規,0,2024-04-24,2024-04-24,うごく点Ｐ株式会社,,株式会社,大分県,大分市,大字佐野４０３５番地の２,,44,201,8700315,,,,,,,2024-04-24,1,,,,,ウゴクテンピー,0
857,3340001026453,新規,0,2024-04-24,2024-04-24,株式会社アドバンス,,株式会社,鹿児島県,鹿児島市,東千石町２０番１５－７０２号,,46,201,8920842,,,,,,,2024-04-24,1,,,,,アドバンス,0
865,3370003006582,新規,0,2024-04-24,2024-04-24,合同会社ミライ,,合同会社,宮城県,仙台市青葉区,郷六字屋敷４－２２,,04,101,9893121,,,,,,,2024-04-24,1,,,,,ミライ,0
868,3380001034477,新規,0,2024-04-24,2024-04-24,株式会社ＳＫ,,株式会社,福島県,相馬市,黒木字迎畑６２番地の２,,07,209,9760052,,,,,,,2024-04-24,1,,,,,エスケー,0
885,3410003003914,新規,0,2024-04-24,2024-04-24,合同会社ウエストランド,,合同会社,秋田県,秋田市,上新城湯ノ里字雷電９８,,05,201,0100133,,,,,,,2024-04-24,1,,,,,ウエストランド,0
892,3430001091645,新規,0,2024-04-24,2024-04-24,株式会社成宝商事,,株式会社,北海道,苫小牧市,ときわ町６丁目１９番２号,,01,213,0591261,,,,,,,2024-04-24,1,,,,,セイホウショウジ,0
897,3470001020170,新規,0,2024-04-24,2024-04-24,株式会社ライブラ,,株式会社,香川県,高松市,伏石町２１５２番地５,,37,201,7618071,,,,,,,2024-04-24,1,,,,,ライブラ,0
898,3490003001885,新規,0,2024-04-24,2024-04-24,合同会社ＡＫＡＮＥ,,合同会社,高知県,高知市,長浜２８４５番地１－２８号,,39,201,7810270,,,,,,,2024-04-24,1,,,,,アカネ,0
905,4010003043578,新規,0,2024-04-24,2024-04-24,合同会社ピナクル・グロース・パートナーズ,,合同会社,東京都,中央区,銀座１丁目１２番４号Ｎ＆Ｅ－ＢＬＤ．６Ｆ,,13,102,1040061,,,,,,,2024-04-24,1,,,,,ピナクルグロースパートナーズ,0
910,4010005038238,新規,0,2024-04-24,2024-04-24,特定非営利活動法人学職,,その他の設立登記法人,東京都,文京区,小石川３丁目２８番１４号ワコーレ小石川１０１,,13,105,1120002,,,,,,,2024-04-24,1,,,,,ガクショク,0
921,4010403032412,新規,0,2024-04-24,2024-04-24,合同会社デフサン,,合同会社,東京都,港区,北青山３丁目６番７号,,13,103,1070061,,,,,,,2024-04-24,1,,,,,デフサン,0
927,4010501052163,新規,0,2024-04-24,2024-04-24,株式会社スモールカインド,,株式会社,東京都,台東区,浅草橋５丁目２番２－２０３号浅草橋ハイツ,,13,106,1110053,,,,,,,2024-04-24,1,,,,,スモールカインド,0
933,4010605004317,新規,0,2024-04-24,2024-04-24,一般社団法人ＭＥＤＩＣＡＬ　ＡＣＣＥＳＳ　Ｊａｐａｎ,,その他の設立登記法人,東京都,江東区,豊洲３丁目５番３号,,13,108,1350061,,,,,,,2024-04-24,1,,,,,メディカルアクセスジャパン,0
944,4011001161504,新規,0,2024-04-24,2024-04-24,株式会社スマイルモア,,株式会社,東京都,渋谷区,道玄坂１丁目１０番８号渋谷道玄坂東急ビル２Ｆ－Ｃ,,13,113,1500043,,,,,,,2024-04-24,1,,,,,スマイルモア,0
945,4011001161520,新規,0,2024-04-24,2024-04-24,株式会社ライフウェルス,,株式会社,東京都,目黒区,中町２丁目５０－１３ＴＨＥＰＥＡＫ３Ｄ,,13,110,1530065,,,,,,,2024-04-24,1,,,,,ライフウェルス,0
946,4011003018999,新規,0,2024-04-24,2024-04-24,合同会社ＨＩ,,合同会社,東京都,渋谷区,千駄ヶ谷５丁目１４－６－１２０１,,13,113,1510051,,,,,,,2024-04-24,1,,,,,エイチアイ,0
947,4011003019007,新規,0,2024-04-24,2024-04-24,合同会社ａｄｄｉｎｇｆｏｏｄｓ,,合同会社,東京都,渋谷区,渋谷２丁目５－８藤和シティスクエア渋谷２０１,,13,113,1500002,,,,,,,2024-04-24,1,,,,,アディングフーズ,0
950,4011101107076,新規,0,2024-04-24,2024-04-24,株式会社Ａｌｉｆｅ’ｓ,,株式会社,東京都,新宿区,西新宿３丁目３番１３号西新宿水間ビル６階,,13,104,1600023,,,,,,,2024-04-24,1,,,,,エーライフス,0
961,4011501030588,新規,0,2024-04-24,2024-04-24,福大商工株式会社,,株式会社,東京都,荒川区,荒川３丁目３５番６－３０１号サカエファミール,,13,118,1160002,,,,,,,2024-04-24,1,,,,,フクダイショウコウ,0
962,4011505002625,新規,0,2024-04-24,2024-04-24,一般社団法人幸寿会グループ,,その他の設立登記法人,東京都,北区,東田端１丁目６番９号根橋ビル２階,,13,117,1140013,,,,,,,2024-04-24,1,,,,,コウジュカイグループ,0
967,4012401041799,新規,0,2024-04-24,2024-04-24,成光工務店株式会社,,株式会社,東京都,多摩市,中沢１丁目８番地の２,,13,224,2060036,,,,,,,2024-04-24,1,,,,,セイコウコウムテン,0
969,4012803003372,新規,0,2024-04-24,2024-04-24,エースメディカルサービス合同会社,,合同会社,東京都,立川市,西砂町５丁目２３番地の４それいゆ２０１,,13,202,1900034,,,,,,,2024-04-24,1,,,,,エースメディカルサービス,0
970,4013103001331,新規,0,2024-04-24,2024-04-24,ＳＹＫ合同会社,,合同会社,東京都,西多摩郡瑞穂町,長岡１丁目１３番地１８－２Ｆ,,13,303,1901232,,,,,,,2024-04-24,1,,,,,,0
972,4013301052382,新規,0,2024-04-24,2024-04-24,誠和株式会社,,株式会社,東京都,豊島区,東池袋１丁目４２番１４号２８山京ビル７階１５号,,13,116,1700013,,,,,,,2024-04-24,1,,,,,セイワ,0
981,4020001156810,新規,0,2024-04-24,2024-04-24,株式会社ジェーシーインターナショナルワークス,,株式会社,神奈川県,横浜市中区,相生町２丁目５０番地大和地所相生町ビル４０１,,14,104,2310012,,,,,,,2024-04-24,1,,,,,ジェーシーインターナショナルワークス,0
982,4020003025939,新規,0,2024-04-24,2024-04-24,４６Ｒｅｃｏｒｄｓ合同会社,,合同会社,神奈川県,横浜市青葉区,荏田北２丁目１８－３５,,14,117,2250015,,,,,,,2024-04-24,1,,,,,ヨロレコーズ,0
983,4020003025971,新規,0,2024-04-24,2024-04-24,ＬｉｎｋＢｒｉｄｇｅ合同会社,,合同会社,神奈川県,横浜市中区,野毛町３丁目１４５番地８マージュ桜木町３０２号室,,14,104,2310064,,,,,,,2024-04-24,1,,,,,リンクブリッジ,0
986,4020005016382,新規,0,2024-04-24,2024-04-24,特定非営利活動法人緑園都市コミュニティ協会,,その他の設立登記法人,神奈川県,横浜市泉区,緑園１丁目１番１０号,,14,116,2450002,,,,,,,2024-04-24,1,,,,,リョクエントシコミュニティキョウカイ,0
988,4021001082055,新規,0,2024-04-24,2024-04-24,松本建築株式会社,,株式会社,神奈川県,厚木市,山際５９２番地３,,14,212,2430803,,,,,,,2024-04-24,1,,,,,マツモトケンチク,0
995,4030001159985,新規,0,2024-04-24,2024-04-24,株式会社ＳＡＰ,,株式会社,埼玉県,さいたま市南区,四谷３丁目１番２４号,,11,108,3360032,,,,,,,2024-04-24,1,,,,,エスエーピー,0
996,4030001160002,新規,0,2024-04-24,2024-04-24,株式会社ウェブイノベーションズ,,株式会社,埼玉県,上尾市,向山１丁目５８番地５,,11,219,3620045,,,,,,,2024-04-24,1,,,,,ウェブイノベーションズ,0
1000,4030003024155,新規,0,2024-04-24,2024-04-24,パインベル合同会社,,合同会社,埼玉県,さいたま市大宮区,寿能町２丁目４９－２－４０６,,11,103,3300805,,,,,,,2024-04-24,1,,,,,パインベル,0
1003,4030005021670,新規,0,2024-04-24,2024-04-24,特定非営利活動法人埼玉県相続・信託協会,,その他の設立登記法人,埼玉県,志木市,本町５丁目２３番１１号,,11,228,3530004,,,,,,,2024-04-24,1,,,,,サイタマケンソウゾクシンタクキョウカイ,0
1009,4040001132925,新規,0,2024-04-24,2024-04-24,株式会社ＯａｋＡｒｔＳｔｕｄｉｏ,,株式会社,千葉県,柏市,高田１３６６番地の１２,,12,217,2770861,,,,,,,2024-04-24,1,,,,,オークアートスタジオ,0
1010,4040001133295,新規,0,2024-04-24,2024-04-24,ＧＵＷＯＮ株式会社,,株式会社,千葉県,市川市,国分４丁目２番１６号,,12,203,2720834,,,,,,,2024-04-24,1,,,,,グウォン,0
1017,4050001054648,新規,0,2024-04-24,2024-04-24,株式会社優徳,,株式会社,茨城県,坂東市,岩井１９５３番地１７,,08,228,3060631,,,,,,,2024-04-24,1,,,,,ユウトク,0
1018,4050001054672,新規,0,2024-04-24,2024-04-24,株式会社Ｇｌｏｗ,,株式会社,茨城県,石岡市,南台１丁目８番１７号,,08,205,3150035,,,,,,,2024-04-24,1,,,,,グロウ,0
1019,4050003008321,新規,0,2024-04-24,2024-04-24,ＶＯＧＵＥ合同会社,,合同会社,茨城県,筑西市,海老ヶ島１３５６番地２ｒｉｋｕｒｉｋｕ１０１号室,,08,227,3004517,,,,,,,2024-04-24,1,,,,,ヴォーグ,0
1021,4060001037024,新規,0,2024-04-24,2024-04-24,株式会社スマートアグリ関東,,株式会社,栃木県,栃木市,平柳一丁目８番６号,,09,203,3280000,,,,,,,2024-04-24,1,,,,,スマートアグリカントウ,0
1025,4070005010265,新規,0,2024-04-24,2024-04-24,医療法人元総社歯科クリニック,,その他の設立登記法人,群馬県,前橋市,総社町総社３６００番地１,,10,201,3710852,,,,,,,2024-04-24,1,,,,,モトソウジャシカクリニック,0
1027,4080001026264,新規,0,2024-04-24,2024-04-24,株式会社伊豆河屋,,株式会社,静岡県,静岡市清水区,蒲原中５４０番地１号,,22,103,4213213,,,,,,,2024-04-24,1,,,,,イズカワヤ,0
1028,4080105006427,新規,0,2024-04-24,2024-04-24,富士山メソッドプロジェクト協同組合,,その他の設立登記法人,静岡県,富士市,中島４１６番地の４,,22,210,4160907,,,,,,,2024-04-24,1,,,,,フジサンメソッドプロジェクト,0
1029,4080401027143,新規,0,2024-04-24,2024-04-24,株式会社サクラ咲く,,株式会社,静岡県,浜松市中央区,蜆塚３丁目４番８号,,22,138,4328018,,,,,,,2024-04-24,1,,,,,サクラサク,0
1051,4120001264231,新規,0,2024-04-24,2024-04-24,愛楽唯億株式会社,,株式会社,大阪府,大阪市東住吉区,東田辺３丁目１－１－１Ｆ－Ｅ,,27,121,5460032,,,,,,,2024-04-24,1,,,,,アイラクユイオク,0
1052,4120001264272,新規,0,2024-04-24,2024-04-24,鵬浩柏之株式会社,,株式会社,大阪府,大阪市大正区,三軒家西３丁目４番１６号中山ビル１０１０,,27,108,5510001,,,,,,,2024-04-24,1,,,,,ホウコウハクシ,0
1053,4120001264280,新規,0,2024-04-24,2024-04-24,永信株式会社,,株式会社,大阪府,大阪市西成区,橘１丁目１１－２８オフィスポート橘４１５号室,,27,122,5570051,,,,,,,2024-04-24,1,,,,,エイシン,0
1054,4120001264297,新規,0,2024-04-24,2024-04-24,株式会社ｇｉｓｈ,,株式会社,大阪府,大阪市北区,万歳町３－１２萬栄ビル３０９,,27,127,5300028,,,,,,,2024-04-24,1,,,,,ギッシュ,0
1057,4120003026407,新規,0,2024-04-24,2024-04-24,合同会社ＡＳＫ,,合同会社,大阪府,交野市,郡津２丁目２６番３８号,,27,230,5760053,,,,,,,2024-04-24,1,,,,,エーエスケー,0
1058,4120003026431,新規,0,2024-04-24,2024-04-24,ＨＴ合同会社,,合同会社,大阪府,大阪市西成区,南津守７丁目１１番９号,,27,122,5570063,,,,,,,2024-04-24,1,,,,,エイチティー,0
1059,4120003026472,新規,0,2024-04-24,2024-04-24,ＭＳＤ合同会社,,合同会社,大阪府,大阪市中央区,谷町２丁目２番１８号大手前田中ビル１０階,,27,128,5400012,,,,,,,2024-04-24,1,,,,,エムエスディ,0
1064,4120005024292,新規,0,2024-04-24,2024-04-24,一般社団法人日中芸術文化交流協会,,その他の設立登記法人,大阪府,大阪市福島区,海老江２丁目８番２７号,,27,103,5530001,,,,,,,2024-04-24,1,,,,,ニッチュウゲイジュツブンカコウリュウキョウカイ,0
1065,4120903005146,新規,0,2024-04-24,2024-04-24,合同会社大八木ワークス,,合同会社,大阪府,箕面市,石丸３丁目２番８号の２,,27,220,5620027,,,,,,,2024-04-24,1,,,,,オオヤギワークス,0
1070,4122001038037,新規,0,2024-04-24,2024-04-24,株式会社ＲＩＮＤＯ,,株式会社,大阪府,八尾市,南小阪合町３丁目９番８号,,27,212,5810019,,,,,,,2024-04-24,1,,,,,リンドウ,0
1075,4130001076898,新規,0,2024-04-24,2024-04-24,株式会社辻内自動車,00134546,株式会社,京都府,宇治市,槇島町十八１番地５,,26,204,6110041,,,,,,,2024-04-24,1,,,,,ツジウチジドウシャ,0
1079,4130005017080,新規,0,2024-04-24,2024-04-24,一般社団法人風土,,その他の設立登記法人,京都府,与謝郡与謝野町,字弓木４９３番地,,26,465,6292263,,,,,,,2024-04-24,1,,,,,フウド,0
1086,4140001134176,新規,0,2024-04-24,2024-04-24,株式会社ＳＩＫホーム,,株式会社,兵庫県,姫路市,中地７２０番地１,,28,201,6700976,,,,,,,2024-04-24,1,,,,,エスアイケーホーム,0
1087,4140001134192,新規,0,2024-04-24,2024-04-24,株式会社ライド・オン・ドリーム,,株式会社,兵庫県,神戸市須磨区,北落合５丁目１０番２５号,,28,107,6540151,,,,,,,2024-04-24,1,,,,,ライドオンドリーム,0
1088,4140001134201,新規,0,2024-04-24,2024-04-24,株式会社ＴＲＹ　ＢＡＳＥ,,株式会社,兵庫県,神戸市西区,伊川谷町有瀬１５１２－５,,28,111,6512113,,,,,,,2024-04-24,1,,,,,トライベース,0
1091,4140003020440,新規,0,2024-04-24,2024-04-24,合同会社そまりプロダクション,,合同会社,兵庫県,伊丹市,中央１丁目５番５号ボントンビル４階,,28,207,6640851,,,,,,,2024-04-24,1,,,,,ソマリプロダクション,0
1096,4170003002031,新規,0,2024-04-24,2024-04-24,合同会社ソウエイ,,合同会社,和歌山県,西牟婁郡白浜町,中４６５番地の１,,30,401,6492333,,,,,,,2024-04-24,1,,,,,ソウエイ,0
1106,4180001161126,新規,0,2024-04-24,2024-04-24,秀成株式会社,,株式会社,愛知県,名古屋市中村区,下中村町３丁目１番地１・１０１号,,23,105,4530827,,,,,,,2024-04-24,1,,,,,シュウセイ,0
1113,4180003026673,新規,0,2024-04-24,2024-04-24,合同会社ＳＭＺ,,合同会社,愛知県,名古屋市西区,枇杷島５丁目３０番２９号アヴェニール枇杷島１０４号,,23,104,4510053,,,,,,,2024-04-24,1,,,,,エスエムゼット,0
1125,4200001042430,新規,0,2024-04-24,2024-04-24,株式会社Ｋウエスト,,株式会社,岐阜県,羽島郡笠松町,田代１０８９番地１,,21,303,5016062,,,,,,,2024-04-24,1,,,,,ケーウエスト,0
1130,4220001025961,新規,0,2024-04-24,2024-04-24,金澤マーケティング株式会社,,株式会社,石川県,金沢市,桂町ロ１８７番地,,17,201,9200334,,,,,,,2024-04-24,1,,,,,カナザワマーケティング,0
1137,4240001063118,新規,0,2024-04-24,2024-04-24,株式会社ＦＯＲ　ＹＯＵ,,株式会社,広島県,福山市,東桜町１２番１７－１００１号,,34,207,7200065,,,,,,,2024-04-24,1,,,,,フォーユー,0
1141,4260003004662,新規,0,2024-04-24,2024-04-24,合同会社ＪＰ　ＷＡＶＥ,,合同会社,岡山県,岡山市北区,吉備津１１５７番地１８,,33,101,7011341,,,,,,,2024-04-24,1,,,,,ジェイピーウェィブ,0
1160,4290805009740,新規,0,2024-04-24,2024-04-24,一般社団法人ＡＹＭ,,その他の設立登記法人,福岡県,北九州市八幡西区,幸神１丁目１７番１０号,,40,109,8060055,,,,,,,2024-04-24,1,,,,,エーワイエム,0
1171,4340001026452,新規,0,2024-04-24,2024-04-24,株式会社本初,,株式会社,鹿児島県,肝属郡錦江町,城元３２０番地４,,46,490,8932302,,,,,,,2024-04-24,1,,,,,ホンショ,0
1178,4360003013926,新規,0,2024-04-24,2024-04-24,合同会社慶田元ハウス,,合同会社,沖縄県,中頭郡西原町,棚原１丁目２２番地２５,,47,329,9030126,,,,,,,2024-04-24,1,,,,,ケダモトハウス,0
1198,4430001091636,新規,0,2024-04-24,2024-04-24,株式会社ＴＡＫ２,,株式会社,北海道,札幌市中央区,南十四条西８丁目４ー１３,,01,101,0640914,,,,,,,2024-04-24,1,,,,,タックツー,0
1199,4430001091652,新規,0,2024-04-24,2024-04-24,株式会社富喜,,株式会社,北海道,札幌市白石区,本郷通４丁目北７番１５号,,01,104,0030025,,,,,,,2024-04-24,1,,,,,トミヨシ,0
1201,4440001009430,新規,0,2024-04-24,2024-04-24,株式会社北海道エンディングセンター,,株式会社,北海道,函館市,鍛治１丁目３２番２６号,,01,202,0410852,,,,,,,2024-04-24,1,,,,,ホッカイドウエンディングセンター,0
1217,4700150124490,新規,0,2024-04-24,2024-03-15,佐久平ハーフマラソン実行委員会,,その他,長野県,佐久市,中込３０５６佐久市教育委員会スポーツ課内,,20,217,3850051,,,,,,,2024-03-15,1,,,,,サクダイラハーフマラソンジツコウイインカイ,0
1227,5010001244301,新規,0,2024-04-24,2024-04-24,中潤株式会社,,株式会社,東京都,中央区,銀座８丁目１０－１佛蘭西屋ビル１Ｆ,,13,102,1040061,,,,,,,2024-04-24,1,,,,,チュウジュン,0
1229,5010003043585,新規,0,2024-04-24,2024-04-24,ＰｒｉｖｅＭｏｖｅ合同会社,,合同会社,東京都,中央区,銀座１丁目１２－４Ｎ＆ＥＢＬＤ．７階,,13,102,1040061,,,,,,,2024-04-24,1,,,,,プライムムーヴ,0
1230,5010005038229,新規,0,2024-04-24,2024-04-24,一般社団法人インフラソリューションズ産学連携コンソーシアム,,その他の設立登記法人,東京都,千代田区,神田小川町２丁目４番１４号フィールドクレストビル８Ｆ,,13,101,1010052,,,,,,,2024-04-24,1,,,,,インフラソリューションズサンガクレンケイコンソーシアム,0
1237,5010401182043,新規,0,2024-04-24,2024-04-24,株式会社シーユーシー・ファシリティーズ,,株式会社,東京都,港区,芝浦３丁目１番１号,,13,103,1080023,,,,,,,2024-04-24,1,,,,,シーユーシーファシリティーズ,0
1240,5010601065064,新規,0,2024-04-24,2024-04-24,兆銭株式会社,,株式会社,東京都,江東区,亀戸７丁目６３番３－８０８号,,13,108,1360071,,,,,,,2024-04-24,1,,,,,チョウセン,0
1242,5010901055137,新規,0,2024-04-24,2024-04-24,Ｇｅｍｓｔｏｎｅ株式会社,,株式会社,東京都,世田谷区,玉川１丁目１５番２－４００３号,,13,112,1580094,,,,,,,2024-04-24,1,,,,,ジェムストーン,0
1243,5010903008984,新規,0,2024-04-24,2024-04-24,合同会社ＪＬ,,合同会社,東京都,世田谷区,成城８丁目２３番２１－６１３号,,13,112,1570066,,,,,,,2024-04-24,1,,,,,ジェイエル,0
1250,5011001161461,新規,0,2024-04-24,2024-04-24,株式会社ＡｓｓｉｓｔＬｉｎｋ,,株式会社,東京都,渋谷区,渋谷２丁目１９－１５宮益坂ビルディング６０９,,13,113,1500002,,,,,,,2024-04-24,1,,,,,アシストリンク,0
1254,5011003019006,新規,0,2024-04-24,2024-04-24,合同会社ＥＶＩＤＥＮＣＥ,,合同会社,東京都,目黒区,上目黒３丁目６番２２号シティーコープ平沼５０１,,13,110,1530051,,,,,,,2024-04-24,1,,,,,エビデンス,0
1255,5011005010482,新規,0,2024-04-24,2024-04-24,一般社団法人ワイズ,,その他の設立登記法人,東京都,目黒区,八雲５丁目３番１７号,,13,110,1520023,,,,,,,2024-04-24,1,,,,,ワイズ,0
1263,5011303005135,新規,0,2024-04-24,2024-04-24,合同会社ＳＲＬ,,合同会社,東京都,杉並区,久我山４丁目２番２６号ＭｉｌｅＨｉｇｈ００３,,13,115,1680082,,,,,,,2024-04-24,1,,,,,エスアールエル,0
1268,5011501030612,新規,0,2024-04-24,2024-04-24,株式会社ＹｕＫｕＲｕ,,株式会社,東京都,荒川区,南千住６丁目７１番１０号,,13,118,1160003,,,,,,,2024-04-24,1,,,,,ユクル,0
1272,5011603004324,新規,0,2024-04-24,2024-04-24,合同会社篠建設,,合同会社,東京都,練馬区,貫井４丁目２２番１６号,,13,120,1760021,,,,,,,2024-04-24,1,,,,,シノケンセツ,0
1276,5012303001982,新規,0,2024-04-24,2024-04-24,ｉｄｅａｌ合同会社,,合同会社,東京都,町田市,成瀬が丘３丁目２－７エステートピア１１－１０１,,13,209,1940011,,,,,,,2024-04-24,1,,,,,アイデアル,0
1277,5012305002087,新規,0,2024-04-24,2024-04-24,一般社団法人東京都クラブ陸上競技連盟,,その他の設立登記法人,東京都,町田市,中町１丁目５－７ＭＩフラット２０１,,13,209,1940021,,,,,,,2024-04-24,1,,,,,トウキョウトクラブリクジョウキョウギレンメイ,0
1278,5012401041798,新規,0,2024-04-24,2024-04-24,ＴＲジャパン株式会社,,株式会社,東京都,稲城市,坂浜３３２１番地の２,,13,225,2060822,,,,,,,2024-04-24,1,,,,,,0
1285,5013301052357,新規,0,2024-04-24,2024-04-24,株式会社美馬,,株式会社,東京都,豊島区,巣鴨３丁目３１番５号コヤマビル２Ｆ,,13,116,1700002,,,,,,,2024-04-24,1,,,,,ミマ,0
1289,5020001156826,新規,0,2024-04-24,2024-04-24,株式会社ＡＰＩＭｏ,,株式会社,神奈川県,横浜市都筑区,茅ケ崎南５丁目２４番９号,,14,118,2240037,,,,,,,2024-04-24,1,,,,,アピモ,0
1290,5020001156990,新規,0,2024-04-24,2024-04-24,株式会社サイドバイ,,株式会社,神奈川県,川崎市麻生区,王禅寺東２丁目３４番１４号,,14,137,2150018,,,,,,,2024-04-24,1,,,,,サイドバイ,0
1295,5021001082054,新規,0,2024-04-24,2024-04-24,株式会社ソルビエント,,株式会社,神奈川県,横須賀市,湘南国際村１丁目１番８号,,14,201,2400107,,,,,,,2024-04-24,1,,,,,ソルビエント,0
1297,5021003014419,新規,0,2024-04-24,2024-04-24,合同会社コネクト,,合同会社,神奈川県,藤沢市,大庭５５９８番地の４フルール湘南２０１号,,14,205,2510861,,,,,,,2024-04-24,1,,,,,コネクト,0
1305,5030005021678,新規,0,2024-04-24,2024-04-24,一般社団法人ｐｅｔｆｅｌｉｃｅ,,その他の設立登記法人,埼玉県,さいたま市見沼区,大字片柳６４番地２,,11,104,3370024,,,,,,,2024-04-24,1,,,,,ペットフェリーチェ,0
1310,5040003024855,新規,0,2024-04-24,2024-04-24,ＧｒａｓｓＦｉｅｌｄ合同会社,,合同会社,千葉県,市川市,新田３丁目１１番２０号,,12,203,2720035,,,,,,,2024-04-24,1,,,,,グラスフィールド,0
1321,5080401027142,新規,0,2024-04-24,2024-04-24,株式会社Ｐｉｌｉｎａ,,株式会社,静岡県,浜松市中央区,領家３丁目１３番３３号,,22,138,4300852,,,,,,,2024-04-24,1,,,,,ピリナ,0
1348,5120001264239,新規,0,2024-04-24,2024-04-24,株式会社ＭＫ貿易,,株式会社,大阪府,大阪市浪速区,下寺１丁目３－１６オリエンス夕陽丘８０１号,,27,111,5560001,,,,,,,2024-04-24,1,,,,,エムケイボウエキ,0
1349,5120001264271,新規,0,2024-04-24,2024-04-24,興悦時代株式会社,,株式会社,大阪府,大阪市中央区,松屋町９番２０号ローレルステート松屋町３０１Ｃ,,27,128,5420067,,,,,,,2024-04-24,1,,,,,コウエツジダイ,0
1350,5120001264296,新規,0,2024-04-24,2024-04-24,猫寶株式会社,,株式会社,大阪府,大阪市北区,梅田１丁目３番１号大阪駅前第一ビル５階ＲＯＹＡＬＯＦＦＩＣＥ内,,27,127,5300001,,,,,,,2024-04-24,1,,,,,ネコタカラ,0
1355,5120003026430,新規,0,2024-04-24,2024-04-24,合同会社開始,,合同会社,大阪府,大阪市生野区,中川２丁目６番１４号,,27,116,5440005,,,,,,,2024-04-24,1,,,,,カイシ,0
1356,5120003026447,新規,0,2024-04-24,2024-04-24,合同会社ＭＡＴＳＵＭＯＴＯ　ＮＩＱ　Ｐｌａｎｎｉｎｇ,,合同会社,大阪府,大阪市阿倍野区,昭和町４丁目５番２８－１１０１号,,27,119,5450011,,,,,,,2024-04-24,1,,,,,マツモトニックプランニング,0
1366,5120101069471,新規,0,2024-04-24,2024-04-24,株式会社Ｏ’ｒａｐｐｏｒｔ,,株式会社,大阪府,岸和田市,岡山町４４１番地,,27,202,5960814,,,,,,,2024-04-24,1,,,,,オーラポート,0
1371,5120901049086,新規,0,2024-04-24,2024-04-24,株式会社しらたま,,株式会社,大阪府,高槻市,中川町６番１３号,,27,207,5690066,,,,,,,2024-04-24,1,,,,,シラタマ,0
1374,5130001076897,新規,0,2024-04-24,2024-04-24,株式会社ＮＯＡ,,株式会社,京都府,京都市南区,吉祥院嶋高町１９番地２,,26,107,6018372,,,,,,,2024-04-24,1,,,,,ノア,0
1375,5130001076906,新規,0,2024-04-24,2024-04-24,株式会社ＡＰエンターテイメント,,株式会社,京都府,宇治市,木幡正中１２－３０５,,26,204,6110002,,,,,,,2024-04-24,1,,,,,エーピーエンターテイメント,0
1378,5130003009426,新規,0,2024-04-24,2024-04-24,合同会社ｉｃｉ,,合同会社,京都府,京都市中京区,東洞院通三条下る三文字町２２５番地,,26,104,6048135,,,,,,,2024-04-24,1,,,,,アイシーアイ,0
1381,5140001134142,新規,0,2024-04-24,2024-04-24,株式会社ＡＯＩ,,株式会社,兵庫県,南あわじ市,神代地頭方１５３５番地６,,28,224,6560456,,,,,,,2024-04-24,1,,,,,アオイ,0
1382,5140001134150,新規,0,2024-04-24,2024-04-24,株式会社千珠,,株式会社,兵庫県,神戸市長田区,四番町１丁目９番地の３ビエント上沢６０３,,28,106,6530004,,,,,,,2024-04-24,1,,,,,センジュ,0
1383,5140001134175,新規,0,2024-04-24,2024-04-24,炭路者貿易株式会社,,株式会社,兵庫県,神戸市中央区,大日通５丁目２番１８号３０１号室,,28,110,6510064,,,,,,,2024-04-24,1,,,,,タンロシャボウエキ,0
1384,5140001134191,新規,0,2024-04-24,2024-04-24,株式会社ＩＲＩＳ,,株式会社,兵庫県,明石市,大久保町西島７３０番地の３,,28,203,6740065,,,,,,,2024-04-24,1,,,,,イリス,0
1386,5140003020472,新規,0,2024-04-24,2024-04-24,合同会社ファースト,,合同会社,兵庫県,西脇市,野村町１７９０番地の８０５,,28,213,6770054,,,,,,,2024-04-24,1,,,,,ファースト,0
1394,5180001161083,新規,0,2024-04-24,2024-04-24,緑力株式会社,,株式会社,愛知県,稲沢市,井堀犬城町１９番地１,,23,220,4928465,,,,,,,2024-04-24,1,,,,,ミリョク,0
1395,5180001161109,新規,0,2024-04-24,2024-04-24,株式会社Ｋｎｏｗｓ,,株式会社,愛知県,海部郡蟹江町,富吉１丁目７１２番地ＭＩＹＵＫＩＰＡＬＡＣＥ２０１,,23,425,4970058,,,,,,,2024-04-24,1,,,,,ノウズ,0
1401,5180005020608,新規,0,2024-04-24,2024-04-24,特定非営利活動法人なごねこめいと,,その他の設立登記法人,愛知県,名古屋市中村区,長筬町６丁目４５番地の６,,23,105,4530839,,,,,,,2024-04-24,1,,,,,ナゴネコメイト,0
1414,5240001006612,新規,0,2024-04-24,2024-04-24,株式会社中国クリエイト事業団,,株式会社,広島県,広島市中区,小町５番１号,,34,101,7300041,,,,,,,2024-04-24,1,,,,,チュウゴククリエイトジギョウダン,0
1415,5240001063117,新規,0,2024-04-24,2024-04-24,博信国際株式会社,,株式会社,広島県,東広島市,西条町田口１０８５３番地１ベルカントハウスＢ２１７号室,,34,212,7390036,,,,,,,2024-04-24,1,,,,,ハクシンコクサイ,0
1417,5250003003482,新規,0,2024-04-24,2024-04-24,合同会社松浦正人事務所,,合同会社,山口県,防府市,千日２丁目６番６号,,35,206,7470046,,,,,,,2024-04-24,1,,,,,マツウラマサトジムショ,0
1420,5290001105418,新規,0,2024-04-24,2024-04-24,株式会社ＩＶＩ,,株式会社,福岡県,福岡市早良区,室見４丁目１番２０－２０１号エム・ユーＩ,00134535,40,137,8140015,,,,,,,2024-04-24,1,,,,,,0
1438,5350003004628,新規,0,2024-04-24,2024-04-24,合同会社オフィスマツダ・グローバル,,合同会社,宮崎県,宮崎市,清水３丁目５番６号ヴェレッザ清水１階Ｃ号,,45,201,8800021,,,,,,,2024-04-24,1,,,,,オフィスマツダグローバル,0
1439,5360001033561,新規,0,2024-04-24,2024-04-24,株式会社大成,,株式会社,沖縄県,浦添市,安波茶１丁目５４番６号３０８号室,,47,208,9012114,,,,,,,2024-04-24,1,,,,,タイセイ,0
1440,5360003013917,新規,0,2024-04-24,2024-04-24,合同会社ＯＨＡＮＡ　Ｆｉｅｌｄ,,合同会社,沖縄県,那覇市,字安里４１０番地Ｇｒａｎｄｅ　ｒｏｕｅ　ＤＡＩＷＡ８０１,,47,201,9020067,,,,,,,2024-04-24,1,,,,,オナハフィールド,0
1441,5360003013925,新規,0,2024-04-24,2024-04-24,ｍａａｒｕ合同会社,,合同会社,沖縄県,宮古島市,平良字西仲宗根２４５番地２山里アパート１０５,,47,214,9060006,,,,,,,2024-04-24,1,,,,,マアル,0
1444,5370003006580,新規,0,2024-04-24,2024-04-24,東亜通工合同会社,,合同会社,宮城県,仙台市宮城野区,榴岡４丁目６番２３号今野ビル２Ｆ,,04,102,9830852,,,,,,,2024-04-24,1,,,,,トウアツウコウ,0
1447,5380001034475,新規,0,2024-04-24,2024-04-24,株式会社共同電気,,株式会社,福島県,相馬市,尾浜字二合田１８０番地の１,,07,209,9760022,,,,,,,2024-04-24,1,,,,,キョウドウデンキ,0
1461,5700150125109,新規,0,2024-04-24,2024-04-24,ＳＲＭ　Ｇｌｏｂａｌ　Ｃｏｎｓｕｌｔｉｎｇ　Ｐｒｉｖａｔｅ　Ｌｉｍｉｔｅｄ,,外国会社等,東京都,千代田区,有楽町１丁目５番２号東宝日比谷プロムナードビル１１階,,13,101,1000006,インド共和国タミルナードゥ，チェンナイ，Ｔ．ナガール，ＧＮチェティーロード２４番,,,,,,2024-04-24,1,,,,,エスアールエムグローバルコンサルテイングプライベートリミテツド,0
1468,6010001244291,新規,0,2024-04-24,2024-04-24,株式会社エーケーエム,,株式会社,東京都,文京区,白山４丁目３４番２号,,13,105,1120001,,,,,,,2024-04-24,1,,,,,エーケーエム,0
1469,6010003043543,新規,0,2024-04-24,2024-04-24,合同会社ＦＩＲＥ,,合同会社,東京都,千代田区,神田和泉町１－６－１６ヤマトビル４０５,,13,101,1010024,,,,,,,2024-04-24,1,,,,,,0
1470,6010003043584,新規,0,2024-04-24,2024-04-24,合同会社ＳＦＴソラシード,,合同会社,東京都,中央区,日本橋１丁目４番１号,,13,102,1030027,,,,,,,2024-04-24,1,,,,,エスエフティーソラシード,0
1473,6010005038186,新規,0,2024-04-24,2024-04-24,一般社団法人ＷＬＪＳＨ３,,その他の設立登記法人,東京都,千代田区,霞が関３丁目２番５号,,13,101,1000013,,,,,,,2024-04-24,1,,,,,ダブリューエルジェイエスエイチスリー,0
1474,6010005038228,新規,0,2024-04-24,2024-04-24,野尻一般社団法人,,その他の設立登記法人,東京都,中央区,銀座１丁目６番１１号土志田ビルディング３Ｆ,,13,102,1040061,,,,,,,2024-04-24,1,,,,,ノジリ,0
1479,6010401182059,新規,0,2024-04-24,2024-04-24,株式会社ＣＯＤＵＤＵＫＡ,,株式会社,東京都,港区,南青山５丁目４番５１号,,13,103,1070062,,,,,,,2024-04-24,1,,,,,コヅヅカ,0
1497,6011001161460,新規,0,2024-04-24,2024-04-24,新超ジャパン株式会社,,株式会社,東京都,渋谷区,千駄ヶ谷３丁目３９番２号,,13,113,1510051,,,,,,,2024-04-24,1,,,,,シンチョウジャパン,0
1498,6011001161510,新規,0,2024-04-24,2024-04-24,株式会社ＢＫＵ,,株式会社,東京都,目黒区,東山３丁目３番２号パラッツオ東山２０７,,13,110,1530043,,,,,,,2024-04-24,1,,,,,ビーケーユー,0
1499,6011001161551,新規,0,2024-04-24,2024-04-24,株式会社Ｅｍｂｉｔ,,株式会社,東京都,渋谷区,円山町５番５号Ｎａｖｉ渋谷Ｖ３階,,13,113,1500044,,,,,,,2024-04-24,1,,,,,エンビット,0
1500,6011001161568,新規,0,2024-04-24,2024-04-24,かれんだえる株式会社,,株式会社,東京都,渋谷区,渋谷３丁目６番２号エクラート渋谷ビル５階,,13,113,1500002,,,,,,,2024-04-24,1,,,,,カレンダエル,0
1501,6011003018997,新規,0,2024-04-24,2024-04-24,橋本安全衛生コンサルタント合同会社,,合同会社,東京都,目黒区,碑文谷３丁目８番９号,,13,110,1520003,,,,,,,2024-04-24,1,,,,,ハシモトアンゼンエイセイコンサルタント,0
1502,6011003019005,新規,0,2024-04-24,2024-04-24,合同会社Ｌｉｃｈｔ,,合同会社,東京都,渋谷区,神宮前６丁目２３－３第９ＳＹビル７階,,13,113,1500001,,,,,,,2024-04-24,1,,,,,リヒト,0
1503,6011005010481,新規,0,2024-04-24,2024-04-24,一般社団法人Ｖｄｏｉｎｇ　Ｆｒｉｅｎｄｓｈｉｐ　Ｃｌｕｂ,,その他の設立登記法人,東京都,渋谷区,神宮前３丁目２７－１５－１Ａ室,,13,113,1500001,,,,,,,2024-04-24,1,,,,,ブイドゥイングフレンドシップクラブ,0
1507,6011103014351,新規,0,2024-04-24,2024-04-24,合同会社ビジネスファクトリー,,合同会社,東京都,新宿区,新宿１丁目３６番２号新宿第七葉山ビル３Ｆ,,13,104,1600022,,,,,,,2024-04-24,1,,,,,ビジネスファクトリー,0
1513,6011501030586,新規,0,2024-04-24,2024-04-24,Ｐｙｔｈ　Ｗｏｒｌｄ株式会社,,株式会社,東京都,北区,中里１丁目２１番２号中里ビル１Ｆ,,13,117,1140015,,,,,,,2024-04-24,1,,,,,ピスワールド,0
1528,6020001156809,新規,0,2024-04-24,2024-04-24,株式会社Ｅｎｏｃｏｌｏｒ,,株式会社,神奈川県,横浜市中区,相生町２丁目５０番地大和地所相生町ビル４０１,,14,104,2310012,,,,,,,2024-04-24,1,,,,,エンカラー,0
1529,6020001156841,新規,0,2024-04-24,2024-04-24,株式会社モレキュラーインサイト,,株式会社,神奈川県,横浜市中区,元町５丁目１９９番地Ｋ’ｓＹビル２階,,14,104,2310861,,,,,,,2024-04-24,1,,,,,モレキュラーインサイト,0
1532,6020003025978,新規,0,2024-04-24,2024-04-24,ＧＢ合同会社,,合同会社,神奈川県,横浜市青葉区,美しが丘西１丁目３番地５５,,14,117,2250001,,,,,,,2024-04-24,1,,,,,ジービー,0
1533,6020003026010,新規,0,2024-04-24,2024-04-24,合同会社ＭＣＹ,,合同会社,神奈川県,川崎市中原区,新丸子東２丁目８８５―５クリオ武蔵小杉壱番館７０３号,,14,133,2110004,,,,,,,2024-04-24,1,,,,,エムシーワイ,0
1536,6021003014418,新規,0,2024-04-24,2024-04-24,合同会社ディオ・コリア,,合同会社,神奈川県,三浦市,三崎２丁目１－２,,14,210,2380243,,,,,,,2024-04-24,1,,,,,ディオコリア,0
1544,6030001159991,新規,0,2024-04-24,2024-04-24,Ｊａｋａｌｕｌｕ株式会社,,株式会社,埼玉県,和光市,南１丁目２４番２号,,11,229,3510104,,,,,,,2024-04-24,1,,,,,ジャカルル,0
1545,6030001160000,新規,0,2024-04-24,2024-04-24,Ｓｃｉｒｏｃｃｏ　Ｗｏｒｋｓ株式会社,,株式会社,埼玉県,和光市,本町２３番１５－６０１号,,11,229,3510114,,,,,,,2024-04-24,1,,,,,シロッコワークス,0
1548,6030003024161,新規,0,2024-04-24,2024-04-24,合同会社同行,,合同会社,埼玉県,八潮市,大字浮塚１０８６番地５,,11,234,3400835,,,,,,,2024-04-24,1,,,,,ドウコウ,0
1549,6030005021677,新規,0,2024-04-24,2024-04-24,社会福祉法人春風の村,,その他の設立登記法人,埼玉県,さいたま市緑区,大字南部領辻円城寺４０７９,,11,109,3360973,,,,,,,2024-04-24,1,,,,,ハルカゼノムラ,0
1555,6040001133260,新規,0,2024-04-24,2024-04-24,株式会社ＡＳＩＭ　ＭＯＴＯＲＳ,,株式会社,千葉県,袖ケ浦市,横田１７７３番地３,,12,229,2990236,,,,,,,2024-04-24,1,,,,,アシイムモーターズ,0
1556,6040001133293,新規,0,2024-04-24,2024-04-24,東京インフラ株式会社,,株式会社,千葉県,柏市,南逆井３丁目２２番５号,,12,217,2770043,,,,,,,2024-04-24,1,,,,,トウキョウインフラ,0
1557,6040001133310,新規,0,2024-04-24,2024-04-24,サクラ国際文化センター株式会社,,株式会社,千葉県,松戸市,久保平賀３９２番地の２,,12,207,2700012,,,,,,,2024-04-24,1,,,,,サクラコクサイブンカセンター,0
1562,6050001054679,新規,0,2024-04-24,2024-04-24,ＪＡＰＡＮ　ＬＯＧＩＳＴＩＣＳ＆ＴＲＡＤＩＮＧ株式会社,,株式会社,茨城県,坂東市,岩井４５０５番地４４ウェストヒル３０２号室,,08,228,3060631,,,,,,,2024-04-24,1,,,,,ジャパンロジスティクスアンドトレーディング,0
1571,6060003005051,新規,0,2024-04-24,2024-04-24,合同会社電脳仮想空間研究所,,合同会社,栃木県,宇都宮市,駒生１丁目２３番１８号,,09,201,3200066,,,,,,,2024-04-24,1,,,,,デンノウカソウクウカンケンキュウジョ,0
1584,6110001038353,新規,0,2024-04-24,2024-04-24,株式会社エピヌール,,株式会社,新潟県,長岡市,古正寺２丁目５１番地,,15,202,9402106,,,,,,,2024-04-24,1,,,,,エピヌール,0
1589,6110005017089,新規,0,2024-04-24,2024-04-24,医療法人社団杏泉堂,,その他の設立登記法人,新潟県,新潟市中央区,女池６丁目４番６４号,,15,103,9500941,,,,,,,2024-04-24,1,,,,,キョウセンドウ,0
1596,6120001264246,新規,0,2024-04-24,2024-04-24,泰盛和信株式会社,,株式会社,大阪府,大阪市住之江区,安立２丁目１０番１４号三坂ビル１０５号室,,27,125,5590003,,,,,,,2024-04-24,1,,,,,タイセイワシン,0
1597,6120001264254,新規,0,2024-04-24,2024-04-24,晶＿株式会社,00134534,株式会社,大阪府,大阪市浪速区,幸町３丁目５－２,,27,111,5560021,,,,,,,2024-04-24,1,,,,,ショウキン,0
1598,6120001264270,新規,0,2024-04-24,2024-04-24,漆禧株式会社,00134538,株式会社,大阪府,大阪市大正区,三軒家西３丁目４番１６号中山ビル１０２８,,27,108,5510001,,,,,,,2024-04-24,1,,,,,シチキ,0
1599,6120001264287,新規,0,2024-04-24,2024-04-24,邦恩徳株式会社,00134547,株式会社,大阪府,大阪市北区,中之島６丁目１番３８号ザ・パークハウス中之島タワー４２０３室,,27,127,5300005,,,,,,,2024-04-24,1,,,,,ホウオントク,0
1604,6120901049077,新規,0,2024-04-24,2024-04-24,株式会社Ｇｌｏｂａｌｅａｐｓ,,株式会社,大阪府,茨木市,新庄町３番３３号,,27,211,5670884,,,,,,,2024-04-24,1,,,,,グローバリープス,0
1605,6120901049085,新規,0,2024-04-24,2024-04-24,書亜株式会社,,株式会社,大阪府,吹田市,垂水町１丁目５９番２８号４０５号室,,27,205,5640062,,,,,,,2024-04-24,1,,,,,ショア,0
1606,6120903005144,新規,0,2024-04-24,2024-04-24,ＭＯ　ＬｉｆｅＳｃｉｅｎｃｅ合同会社,,合同会社,大阪府,高槻市,北園町７番７号,,27,207,5690802,,,,,,,2024-04-24,1,,,,,エムオーライフサイエンス,0
1609,6130001076888,新規,0,2024-04-24,2024-04-24,株式会社ＭＡＫＡＮＡ,,株式会社,京都府,京都市山科区,小野御霊町４９番地５,,26,110,6078257,,,,,,,2024-04-24,1,,,,,マカナ,0
1610,6130001076896,新規,0,2024-04-24,2024-04-24,株式会社トライベター,,株式会社,京都府,京都市下京区,二人司町８番地５,,26,106,6008824,,,,,,,2024-04-24,1,,,,,トライベター,0
1611,6130001076905,新規,0,2024-04-24,2024-04-24,株式会社ＯＭＯ,,株式会社,京都府,京都市右京区,西京極郡町７５番地,,26,108,6150884,,,,,,,2024-04-24,1,,,,,オーエムオー,0
1624,6140001134158,新規,0,2024-04-24,2024-04-24,株式会社ｌｅｇｇｉｅｒｏ,,株式会社,兵庫県,川西市,栄町６番６－３０２号,,28,217,6660033,,,,,,,2024-04-24,1,,,,,レジェーロ,0
1625,6140001134182,新規,0,2024-04-24,2024-04-24,株式会社Ｈｅｌｉａｎｔｈｕｓ,,株式会社,兵庫県,神戸市東灘区,向洋町中５丁目１番地５２２号棟１０１０号室,,28,101,6580032,,,,,,,2024-04-24,1,,,,,ヘリアンサス,0
1626,6140001134190,新規,0,2024-04-24,2024-04-24,ベイスタッフ株式会社,,株式会社,兵庫県,神戸市中央区,磯上通８丁目３番１０号井門三宮ビル１１階,,28,110,6510086,,,,,,,2024-04-24,1,,,,,ベイスタッフ,0
1627,6140001134199,新規,0,2024-04-24,2024-04-24,株式会社鰻市,,株式会社,兵庫県,宝塚市,中山桜台７丁目２番２号,,28,214,6650877,,,,,,,2024-04-24,1,,,,,ウナイチ,0
1631,6140005027060,新規,0,2024-04-24,2024-04-24,医療法人ＳＯＬ,,その他の設立登記法人,兵庫県,神戸市中央区,下山手通４丁目６－１１エクセル山手１Ｆ,,28,110,6500011,,,,,,,2024-04-24,1,,,,,ソル,0
1643,6180001161066,新規,0,2024-04-24,2024-04-24,株式会社ファイブエイト,,株式会社,愛知県,東海市,名和町南神田２１番地の２,,23,222,4760002,,,,,,,2024-04-24,1,,,,,ファイブエイト,0
1644,6180001161082,新規,0,2024-04-24,2024-04-24,株式会社ＫＡＴＭＭ,,株式会社,愛知県,名古屋市瑞穂区,西ノ割町１丁目１６番地,,23,108,4670813,,,,,,,2024-04-24,1,,,,,ケーエーティーエムエム,0
1645,6180001161090,新規,0,2024-04-24,2024-04-24,株式会社ニナム,,株式会社,愛知県,名古屋市中川区,下之一色町字松蔭５丁目３０番地の１,,23,110,4540945,,,,,,,2024-04-24,1,,,,,ニナム,0
1646,6180001161132,新規,0,2024-04-24,2024-04-24,ＭＳＣｏｎｆｙ株式会社,,株式会社,愛知県,東海市,名和町八幡東２４番地１,,23,222,4760002,,,,,,,2024-04-24,1,,,,,エムエスコンフィ,0
1647,6180001161140,新規,0,2024-04-24,2024-04-24,株式会社ＡＩＭ　ＣＲＥＡＴＥ,,株式会社,愛知県,名古屋市東区,泉１丁目１１番６号ミソカビル１階,,23,102,4610001,,,,,,,2024-04-24,1,,,,,エイムクリエイト,0
1655,6200005013608,新規,0,2024-04-24,2024-04-24,一般社団法人中小企業デジタル化推進教育協会,,その他の設立登記法人,岐阜県,岐阜市,芋島３丁目６番２０号,,21,201,5008234,,,,,,,2024-04-24,1,,,,,チュウショウキギョウデジタルカスイシンキョウイクキョウカイ,0
1658,6240001063124,新規,0,2024-04-24,2024-04-24,株式会社ＫＭ　Ｇｒｏｕｐ　Ｊａｐａｎ　ｉｎｖｅｓｔｍｅｎｔ,,株式会社,広島県,尾道市,長江１丁目２３番４号,,34,205,7220046,,,,,,,2024-04-24,1,,,,,ケイエムグループジャパンインヴェストメント,0
1661,6250001020628,新規,0,2024-04-24,2024-04-24,株式会社ＩＭＰＲＡＧＥ,,株式会社,山口県,周南市,秋月２丁目３番地３８号,,35,215,7450825,,,,,,,2024-04-24,1,,,,,インプレージ,0
1677,6290001105499,新規,0,2024-04-24,2024-04-24,株式会社阿部商店,,株式会社,福岡県,久留米市,山本町豊田１９２２番地,,40,203,8390827,,,,,,,2024-04-24,1,,,,,アベショウテン,0
1678,6290001105623,新規,0,2024-04-24,2024-04-24,株式会社Ｎ＆Ｈマリン,,株式会社,福岡県,福岡市西区,愛宕２丁目１０番７－１０１号,,40,135,8190015,,,,,,,2024-04-24,1,,,,,エヌアンドエイチマリン,0
1686,6320001020422,新規,0,2024-04-24,2024-04-24,株式会社九州アズマ,,株式会社,大分県,大分市,大字宮河内３７６９番地の８７,,44,201,8700276,,,,,,,2024-04-24,1,,,,,キュウシュウアズマ,0
1687,6320003004340,新規,0,2024-04-24,2024-04-24,合同会社吉田電工,,合同会社,大分県,大分市,新明治３丁目１番１２号,,44,201,8700172,,,,,,,2024-04-24,1,,,,,ヨシダデンコウ,0
1695,6360001033560,新規,0,2024-04-24,2024-04-24,株式会社ＭＢライフｉｎ松尾,,株式会社,沖縄県,那覇市,松尾２丁目９番６号,,47,201,9000014,,,,,,,2024-04-24,1,,,,,エムビーライフインマツオ,0
1702,6380001034474,新規,0,2024-04-24,2024-04-24,株式会社リフォルマ,,株式会社,福島県,福島市,方木田字前川原９番地の１,,07,201,9608163,,,,,,,2024-04-24,1,,,,,リフォルマ,0
1709,6430001091650,新規,0,2024-04-24,2024-04-24,株式会社トーヨーマネジメント,,株式会社,北海道,札幌市北区,篠路町上篠路３４３番地２３１,,01,102,0028052,,,,,,,2024-04-24,1,,,,,トーヨーマネジメント,0
1714,6460101007537,新規,0,2024-04-24,2024-04-24,株式会社ミウラ工業,,株式会社,北海道,帯広市,西二十四条南１丁目４番地２９,,01,207,0802474,,,,,,,2024-04-24,1,,,,,ミウラコウギョウ,0
1716,6470003002635,新規,0,2024-04-24,2024-04-24,合同会社ＴＳＵＫＩＭＩＤＯ,,合同会社,香川県,仲多度郡多度津町,北鴨１丁目２番３０号,,37,404,7640022,,,,,,,2024-04-24,1,,,,,ツキミドウ,0
1720,6500005008701,新規,0,2024-04-24,2024-04-24,一般社団法人アートマネージメントｔｏｂｅ,,その他の設立登記法人,愛媛県,松山市,北斎院町７３７－３,,38,201,7918031,,,,,,,2024-04-24,1,,,,,アートマネージメントトゥービー,0
1721,6700150125090,新規,0,2024-04-24,2024-04-24,九妹國際娯樂　有限公司,,外国会社等,,,,,,,,台湾新北市新莊區頭前里頭興街１２８號三樓,,,,,,2024-04-24,1,,,,,ジヨメコクサイゴラクユウゲンコウシ,0
1722,6700150125108,新規,0,2024-04-24,2024-04-24,Ｌｕｘｓｒｉ　Ａｕｔｏ　Ｐａｉｎｔ　Ｐｖｔ　Ｌｔｄ,,外国会社等,千葉県,八街市,八街い３２３番地２,,12,230,2891143,スリランカ民主社会主義共和国、カトゥガストタ、グバゴダ、スリラスナパラマワタ、Ｎｏ．６ｃ,,,,,,2024-04-24,1,,,,,ラクスリオートペイントプライベートリミテツド,0
1734,7010001244274,新規,0,2024-04-24,2024-04-24,株式会社日建テクノロジー,,株式会社,東京都,中央区,入船１丁目９－８ピエノアーク入船１階,,13,102,1040042,,,,,,,2024-04-24,1,,,,,ニッケンテクノロジー,0
1735,7010001244290,新規,0,2024-04-24,2024-04-24,株式会社ジプサＣＥ,,株式会社,東京都,中央区,日本橋人形町３丁目３－１５大橋芳町ビル４Ｆ,,13,102,1030013,,,,,,,2024-04-24,1,,,,,ジプサシーイー,0
1736,7010001244299,新規,0,2024-04-24,2024-04-24,Ｃｙｐｈｅｒ株式会社,,株式会社,東京都,中央区,銀座１丁目２２番１１号銀座大竹ビジデンス２Ｆ,,13,102,1040061,,,,,,,2024-04-24,1,,,,,サイファー,0
1737,7010003043575,新規,0,2024-04-24,2024-04-24,合同会社ＴＹ　Ｔｅｃｈ,,合同会社,東京都,中央区,銀座１丁目１２番４号Ｎ＆ＥＢＬＤ．６Ｆ,,13,102,1040061,,,,,,,2024-04-24,1,,,,,ティーワイテック,0
1738,7010003043583,新規,0,2024-04-24,2024-04-24,合同会社ＡＤソラシード,,合同会社,東京都,中央区,日本橋１丁目４番１号,,13,102,1030027,,,,,,,2024-04-24,1,,,,,エーディーソラシード,0
1739,7010005038243,新規,0,2024-04-24,2024-04-24,一般社団法人首都圏レジ開発サード,,その他の設立登記法人,東京都,千代田区,平河町１丁目６番１５号シルスフィア会計事務所内,,13,101,1020093,,,,,,,2024-04-24,1,,,,,シュトケンレジカイハツサード,0
1751,7010401182082,新規,0,2024-04-24,2024-04-24,ビー・エックス・ジェイ・ビー・ワン・ホールディング株式会社,,株式会社,東京都,港区,虎ノ門５丁目１番４号,,13,103,1050001,,,,,,,2024-04-24,1,,,,,ビーエックスジェイビーワンホールディング,0
1752,7010403032459,新規,0,2024-04-24,2024-04-24,ＮＴＭ合同会社,,合同会社,東京都,港区,北青山１丁目３番１号アールキューブ青山３階,,13,103,1070061,,,,,,,2024-04-24,1,,,,,エヌティーエム,0
1753,7010501052177,新規,0,2024-04-24,2024-04-24,かのい株式会社,,株式会社,東京都,台東区,下谷３丁目２－１４,,13,106,1100004,,,,,,,2024-04-24,1,,,,,カノイ,0
1755,7010601065062,新規,0,2024-04-24,2024-04-24,株式会社ＹＪＰ,,株式会社,東京都,江東区,有明２丁目１番２－７１６号,,13,108,1350063,,,,,,,2024-04-24,1,,,,,ワイジェイピー,0
1756,7010603010784,新規,0,2024-04-24,2024-04-24,合同会社マナー,,合同会社,東京都,江東区,新砂２丁目１番２７－４１２号,,13,108,1360075,,,,,,,2024-04-24,1,,,,,マナー,0
1759,7010701045897,新規,0,2024-04-24,2024-04-24,株式会社ＴＪＫ工務店,,株式会社,東京都,品川区,小山４丁目１４番２１号,,13,109,1420062,,,,,,,2024-04-24,1,,,,,ティージェイケイ,0
1764,7011001161492,新規,0,2024-04-24,2024-04-24,あらがき株式会社,,株式会社,東京都,目黒区,下目黒１丁目１番１４号７Ｆ,,13,110,1530064,,,,,,,2024-04-24,1,,,,,アラガキ,0
1765,7011001161501,新規,0,2024-04-24,2024-04-24,株式会社ＩｍＰｒｏｖｅ,,株式会社,東京都,渋谷区,渋谷２丁目１９番１５号宮益坂ビルディング６０９,,13,113,1500002,,,,,,,2024-04-24,1,,,,,インプルーブ,0
1766,7011001161526,新規,0,2024-04-24,2024-04-24,株式会社ＭＩＣＨＩＹＵＱ,,株式会社,東京都,渋谷区,道玄坂１丁目１０番８号渋谷道玄坂東急ビル２Ｆ－Ｃ,,13,113,1500043,,,,,,,2024-04-24,1,,,,,ミチユク,0
1768,7011003018955,新規,0,2024-04-24,2024-04-24,合同会社オフィスＫ,,合同会社,東京都,目黒区,中町２丁目１７番１号,,13,110,1530065,,,,,,,2024-04-24,1,,,,,オフィスケイ,0
1769,7011003018996,新規,0,2024-04-24,2024-04-24,合同会社エイド,,合同会社,東京都,渋谷区,鶯谷町１４番２－５０７号高山方,,13,113,1500032,,,,,,,2024-04-24,1,,,,,エイド,0
1770,7011005010480,新規,0,2024-04-24,2024-04-24,一般社団法人ペットアロマロングライフケア協会,,その他の設立登記法人,東京都,目黒区,下目黒１丁目７番５号バーナードハウス３０２号室,,13,110,1530064,,,,,,,2024-04-24,1,,,,,ペットアロマロングライフケアキョウカイ,0
1780,7011401026023,新規,0,2024-04-24,2024-04-24,株式会社十色,,株式会社,東京都,板橋区,大谷口１丁目４０番３号リヴェール千川１０４,,13,119,1730035,,,,,,,2024-04-24,1,,,,,トイロ,0
1785,7011603004330,新規,0,2024-04-24,2024-04-24,合同会社ＡｉＭｓ,,合同会社,東京都,練馬区,栄町１０番１１－４０１号,,13,120,1760006,,,,,,,2024-04-24,1,,,,,エイムス,0
1788,7011803006201,新規,0,2024-04-24,2024-04-24,合同会社チョッチョコ,,合同会社,東京都,足立区,辰沼１丁目１番１５号,,13,121,1210054,,,,,,,2024-04-24,1,,,,,チョッチョコ,0
1789,7012401041796,新規,0,2024-04-24,2024-04-24,株式会社サンコスモ調布,,株式会社,東京都,調布市,深大寺南町３丁目１３番地４,,13,208,1820013,,,,,,,2024-04-24,1,,,,,サンコスモチョウフ,0
1804,7020001156865,新規,0,2024-04-24,2024-04-24,株式会社ｒｅｓｏｌｖｅ,,株式会社,神奈川県,横浜市西区,浅間町１丁目４番３号ウィザードビル４０２,,14,103,2200072,,,,,,,2024-04-24,1,,,,,リザーブ,0
1805,7020001156964,新規,0,2024-04-24,2024-04-24,株式会社ＨＡＲＭＯＮＹ,,株式会社,神奈川県,横浜市神奈川区,鶴屋町２丁目１２番地１横浜カリオカビル２階,,14,102,2210835,,,,,,,2024-04-24,1,,,,,ハーモニー,0
1809,7020003025960,新規,0,2024-04-24,2024-04-24,合同会社グランスワン,,合同会社,神奈川県,横浜市青葉区,新石川２丁目８番地６,,14,117,2250003,,,,,,,2024-04-24,1,,,,,グランスワン,0
1810,7020003025969,新規,0,2024-04-24,2024-04-24,電気化学コンサルティングオフィス合同会社,,合同会社,神奈川県,横浜市神奈川区,星野町８番３クリオレジダンス横濱ベイサイド１０１２,,14,102,2210035,,,,,,,2024-04-24,1,,,,,デンキカガクコンサルティングオフィス,0
1811,7020003025977,新規,0,2024-04-24,2024-04-24,合同会社ＷＡｉ,,合同会社,神奈川県,横浜市西区,浜松町１２番１４－６０２号,,14,103,2200055,,,,,,,2024-04-24,1,,,,,ワイ,0
1812,7020003025993,新規,0,2024-04-24,2024-04-24,合同会社アンタレス,,合同会社,神奈川県,横浜市西区,中央２丁目５３－２吉沢ビル１階,,14,103,2200051,,,,,,,2024-04-24,1,,,,,アンタレス,0
1813,7020005016388,新規,0,2024-04-24,2024-04-24,一般社団法人さちまる,,その他の設立登記法人,神奈川県,横浜市泉区,中田西４丁目３５番２８－３０２号,,14,116,2450015,,,,,,,2024-04-24,1,,,,,サチマル,0
1815,7021001082028,新規,0,2024-04-24,2024-04-24,棟梁株式会社,,株式会社,神奈川県,相模原市中央区,相模原４丁目１０－４－２０４,,14,152,2520231,,,,,,,2024-04-24,1,,,,,トウリョウ,0
1816,7021003014425,新規,0,2024-04-24,2024-04-24,合同会社セブンツー,,合同会社,神奈川県,綾瀬市,吉岡東３丁目１１－２３,,14,218,2521125,,,,,,,2024-04-24,1,,,,,セブンツー,0
1827,7030001159990,新規,0,2024-04-24,2024-04-24,株式会社クリエスパ,,株式会社,埼玉県,上尾市,宮本町６番３－６０３号,,11,219,3620036,,,,,,,2024-04-24,1,,,,,クリエスパ,0
1828,7030001159999,新規,0,2024-04-24,2024-04-24,株式会社ＹＯＳＨＩＥ　ＳＡＳＡＫＩ,,株式会社,埼玉県,入間市,鍵山３丁目５番１０号,,11,225,3580004,,,,,,,2024-04-24,1,,,,,ヨシエササキ,0
1829,7030001160008,新規,0,2024-04-24,2024-04-24,株式会社ミウラ,,株式会社,埼玉県,吉川市,栄町７７５番地２,,11,243,3420050,,,,,,,2024-04-24,1,,,,,ミウラ,0
1831,7030003024169,新規,0,2024-04-24,2024-04-24,スマイル清掃サービス合同会社,,合同会社,埼玉県,春日部市,緑町３丁目２番２８号,,11,214,3440063,,,,,,,2024-04-24,1,,,,,スマイルセイソウサービス,0
1832,7030005021676,新規,0,2024-04-24,2024-04-24,医療法人ＫＤＣ,,その他の設立登記法人,埼玉県,さいたま市浦和区,北浦和３丁目８番１６号ＧＲＡＮＤ、Ｋ・Ｔ１階,,11,107,3300074,,,,,,,2024-04-24,1,,,,,ケーディーシー,0
1833,7040001133318,新規,0,2024-04-24,2024-04-24,キミテック株式会社,,株式会社,千葉県,君津市,泉２９番地７,,12,225,2991112,,,,,,,2024-04-24,1,,,,,キミテック,0
1835,7040003024845,新規,0,2024-04-24,2024-04-24,合同会社ＬＵＡＮＡ,,合同会社,千葉県,市原市,島野２０６３番地２,,12,219,2900034,,,,,,,2024-04-24,1,,,,,ルアナ,0
1836,7040005022368,新規,0,2024-04-24,2024-04-24,ＥＯＬ協同組合,,その他の設立登記法人,千葉県,船橋市,金杉９丁目２４－１３,,12,204,2730853,,,,,,,2024-04-24,1,,,,,イーオーエル,0
1838,7050001054678,新規,0,2024-04-24,2024-04-24,株式会社フロンティアＡＳ,,株式会社,茨城県,ひたちなか市,大字高場２３４３番地１,,08,221,3120062,,,,,,,2024-04-24,1,,,,,,0
1847,7070001041617,新規,0,2024-04-24,2024-04-24,株式会社ｋｅｙｍｅ,,株式会社,群馬県,佐波郡玉村町,大字福島８４番地４,,10,464,3701105,,,,,,,2024-04-24,1,,,,,ケイミー,0
1856,7100003007505,新規,0,2024-04-24,2024-04-24,合同会社りょうけ農楽舎,,合同会社,長野県,長野市,若穂川田１８１７番地,,20,201,3810103,,,,,,,2024-04-24,1,,,,,リョウケノウラクシャ,0
1859,7110005017088,新規,0,2024-04-24,2024-04-24,医療法人社団竹林会たけうち内科クリニック,,その他の設立登記法人,新潟県,燕市,南６丁目１１番１８号,,15,213,9591234,,,,,,,2024-04-24,1,,,,,チクリンカイタケウチナイカクリニック,0
1869,7120001264311,新規,0,2024-04-24,2024-04-24,株式会社蛯原興業,,株式会社,大阪府,大阪市此花区,梅香１丁目７番１号,,27,104,5540013,,,,,,,2024-04-24,1,,,,,エビハラコウギョウ,0
1870,7120001264352,新規,0,2024-04-24,2024-04-24,株式会社愛智,,株式会社,大阪府,大阪市阿倍野区,阪南町１丁目３３番１５号,,27,119,5450021,,,,,,,2024-04-24,1,,,,,アイチ,0
1876,7120103005794,新規,0,2024-04-24,2024-04-24,合同会社リアライズ,,合同会社,大阪府,堺市中区,深井東町２６４５番地７,,27,142,5998235,,,,,,,2024-04-24,1,,,,,リアライズ,0
1878,7120901049084,新規,0,2024-04-24,2024-04-24,株式会社ＳＫＭ,,株式会社,大阪府,豊中市,新千里南町１丁目１番７０－２１２号,,27,203,5600084,,,,,,,2024-04-24,1,,,,,エスケーエム,0
1879,7120901049092,新規,0,2024-04-24,2024-04-24,株式会社Ｅｔｅｒｎａｌわこ,,株式会社,大阪府,茨木市,下穂積３丁目１３番５４号,,27,211,5670041,,,,,,,2024-04-24,1,,,,,エターナルワコ,0
1882,7122003002863,新規,0,2024-04-24,2024-04-24,まつ合同会社,,合同会社,大阪府,大東市,三箇６丁目１１番２５号,,27,218,5740077,,,,,,,2024-04-24,1,,,,,マツ,0
1886,7130001076904,新規,0,2024-04-24,2024-04-24,株式会社ワイズカンパニー,,株式会社,京都府,京都市山科区,西野山射庭ノ上町６７番地２３,,26,110,6078307,,,,,,,2024-04-24,1,,,,,ワイズカンパニー,0
1893,7140003020479,新規,0,2024-04-24,2024-04-24,合同会社トライロ,,合同会社,兵庫県,神戸市北区,淡河町神田日光８６９－１,,28,109,6511622,,,,,,,2024-04-24,1,,,,,トライロ,0
1896,7150001027244,新規,0,2024-04-24,2024-04-24,株式会社雄希,,株式会社,奈良県,生駒市,真弓３丁目３番６号,,29,209,6300122,,,,,,,2024-04-24,1,,,,,ユウキ,0
1899,7150003003235,新規,0,2024-04-24,2024-04-24,合同会社ｎｉｃｏｍａ,,合同会社,奈良県,奈良市,左京５丁目３番地の３６,,29,201,6310801,,,,,,,2024-04-24,1,,,,,ニコマ,0
1906,7180001161073,新規,0,2024-04-24,2024-04-24,エンバース不動産株式会社,,株式会社,愛知県,名古屋市西区,菊井１丁目２９番２号３０２号室,,23,104,4510044,,,,,,,2024-04-24,1,,,,,エンバースフドウサン,0
1907,7180001161107,新規,0,2024-04-24,2024-04-24,株式会社ＴＲＥＥ　ＬＩＦＥ,,株式会社,愛知県,名古屋市千種区,茶屋が坂２丁目２番９号矢野マンション１０３号,,23,101,4640092,,,,,,,2024-04-24,1,,,,,ツリーライフ,0
1908,7180001161131,新規,0,2024-04-24,2024-04-24,株式会社ジオ・プラン,,株式会社,愛知県,愛知郡東郷町,和合ケ丘２丁目２６番地２９,,23,302,4700154,,,,,,,2024-04-24,1,,,,,ジオプラン,0
1916,7180005020606,新規,0,2024-04-24,2024-04-24,特定非営利活動法人Ｂｒｕｓｈ　ＡＳＩＡ,,その他の設立登記法人,愛知県,名古屋市昭和区,山手通２丁目９番地の１アビタシオン山手２Ｃ,,23,107,4660815,,,,,,,2024-04-24,1,,,,,ブラシアジア,0
1920,7190001031283,新規,0,2024-04-24,2024-04-24,株式会社ＲＩＨＩ,,株式会社,三重県,亀山市,小野町３７０番地,,24,210,5190167,,,,,,,2024-04-24,1,,,,,リヒ,0
1923,7220001025967,新規,0,2024-04-24,2024-04-24,リラクシングデコア株式会社,,株式会社,石川県,金沢市,大友１丁目９７番地,,17,201,9208205,,,,,,,2024-04-24,1,,,,,リラクシングデコア,0
1927,7240001063131,新規,0,2024-04-24,2024-04-24,株式会社アルフィ,,株式会社,広島県,広島市西区,己斐上３丁目３番２７号,,34,104,7330815,,,,,,,2024-04-24,1,,,,,アルフィ,0
1935,7290001105440,新規,0,2024-04-24,2024-04-24,株式会社アヴァンギャルド,,株式会社,福岡県,福岡市中央区,赤坂２丁目２－２４メゾンドゥアジュール赤坂２０１,,40,133,8100042,,,,,,,2024-04-24,1,,,,,アヴァンギャルド,0
1936,7290001105630,新規,0,2024-04-24,2024-04-24,株式会社ＰＲＯＧＲＥＳＳＩＶＥ　ＳＴＡＦＦ　ＳＥＲＶＩＣＥ　ＫＹＵＳＨＵ,,株式会社,福岡県,福岡市中央区,赤坂１丁目１１－１３・１０１大稲ビル６０１号,,40,133,8100042,,,,,,,2024-04-24,1,,,,,プログレッシブスタッフサービスキュウシュウ,0
1939,7290801030516,新規,0,2024-04-24,2024-04-24,株式会社川久保組,,株式会社,福岡県,田川市,大字川宮４０１番地２,,40,206,8260042,,,,,,,2024-04-24,1,,,,,カワクボグミ,0
1945,7330003010329,新規,0,2024-04-24,2024-04-24,合同会社気柳,,合同会社,熊本県,熊本市中央区,水前寺２丁目１７番１－８０１号,,43,101,8620950,,,,,,,2024-04-24,1,,,,,キリュウ,0
1958,7380001034481,新規,0,2024-04-24,2024-04-24,株式会社ＴＨＥ　ＳＥＡＳＯＮ,,株式会社,福島県,本宮市,高木字中丸３０―１,,07,214,9691101,,,,,,,2024-04-24,1,,,,,ザシーズン,0
1959,7380003005737,新規,0,2024-04-24,2024-04-24,合同会社つむぎ舎,,合同会社,福島県,会津若松市,城東町２番１４号,,07,202,9650807,,,,,,,2024-04-24,1,,,,,ツムギシャ,0
1963,7410001013812,新規,0,2024-04-24,2024-04-24,港総合保険サービス株式会社,,株式会社,秋田県,秋田市,外旭川字大畑４９番地６,,05,201,0100802,,,,,,,2024-04-24,1,,,,,ミナトソウゴウホケンサービス,0
1968,7450005004408,新規,0,2024-04-24,2024-04-24,特定非営利活動法人旭川マンション管理組合連合会,,その他の設立登記法人,北海道,旭川市,九条通２０丁目１９５９－３ロピア８条通１階集会室,,01,204,0788219,,,,,,,2024-04-24,1,,,,,アサヒカワマンションカンリクミアイレンゴウカイ,0
1969,7460101007536,新規,0,2024-04-24,2024-04-24,株式会社ＡＺ,,株式会社,北海道,帯広市,西二条北２丁目１７番地１,,01,207,0800032,,,,,,,2024-04-24,1,,,,,エーゼット,0
1975,7700150061839,新規,0,2024-04-24,2015-10-09,佐世保商工会議所税務相談所運営協議会,,その他,長崎県,佐世保市,湊町６番１０号,,42,202,8570055,,,,,,,2015-10-09,1,,,,,サセボシヨウコウカイギシヨゼイムソウダンシヨウンエイキヨウギカイ,0
1976,7700150124298,新規,0,2024-04-24,2024-04-24,ＵＣＣ　ＨＯＬＤＩＮＧＳ　ＰＴＥ．ＬＴＤ．,,外国会社等,,,,,,,,３６　ＲＯＢＩＮＳＯＮ　ＲＯＡＤ，１６－０４　ＣＩＴＹ　ＨＯＵＳＥ，ＳＩＮＧＡＰＯＲＥ　０６８８７７,,,,,,2024-04-24,1,,,,,ユーシーシーホールデイングスプライベートリミテツド,0
1977,7700150125107,新規,0,2024-04-24,2024-04-24,ＺＡＤ　ＡＵＴＯ　ＥＭＰＯＲＩＵＭ,,外国会社等,千葉県,山武郡九十九里町,西野１３２４番地３６２,,12,403,2830116,スリランカ民主社会主義共和国、カハタガステンナ、アンクンブラロード、２２３／２Ａ,,,,,,2024-04-24,1,,,,,ザドオートエンポリアム,0
1983,8010001244298,新規,0,2024-04-24,2024-04-24,株式会社ｋａｌａｋｕｌｉ,,株式会社,東京都,中央区,日本橋室町１丁目１１番１２号日本橋水町ビル７階,,13,102,1030022,,,,,,,2024-04-24,1,,,,,カラクリ,0
1988,8010005038226,新規,0,2024-04-24,2024-04-24,一般社団法人日本うつ病学会,,その他の設立登記法人,東京都,千代田区,三番町２番地,,13,101,1020075,,,,,,,2024-04-24,1,,,,,ニホンウツビョウガッカイ,0
1989,8010005038242,新規,0,2024-04-24,2024-04-24,一般社団法人首都圏レジ開発セカンド,,その他の設立登記法人,東京都,千代田区,平河町１丁目６番１５号シルスフィア会計事務所内,,13,101,1020093,,,,,,,2024-04-24,1,,,,,シュトケンレジカイハツセカンド,0
1994,8010401181975,新規,0,2024-04-24,2024-04-24,瑞亜株式会社,,株式会社,東京都,港区,浜松町１丁目１３番２号ホワイトタワー１３０２号室,,13,103,1050013,,,,,,,2024-04-24,1,,,,,ズイア,0
1995,8010401182057,新規,0,2024-04-24,2024-04-24,株式会社Ｊａｐａｎ　Ｂｅａｕｔｙ　Ｃｏｎｓｕｌｔｉｎｇ,,株式会社,東京都,港区,海岸１丁目１３番１５－１３０６号,,13,103,1050022,,,,,,,2024-04-24,1,,,,,ジャパンビューティーコンサルティング,0
1996,8010401182081,新規,0,2024-04-24,2024-04-24,ビー・エックス・ジェイ・ビー・ツー・ホールディング株式会社,,株式会社,東京都,港区,虎ノ門５丁目１番４号,,13,103,1050001,,,,,,,2024-04-24,1,,,,,ビーエックスジェイビーツーホールディング,0
1999,8010405023158,新規,0,2024-04-24,2024-04-24,医療法人社団ミサズメディカル,,その他の設立登記法人,東京都,港区,六本木６丁目１番８号六本木グリーンビル４階,,13,103,1060032,,,,,,,2024-04-24,1,,,,,ミサズメディカル,0
2000,8010501052143,新規,0,2024-04-24,2024-04-24,株式会社百興商事,,株式会社,東京都,台東区,根岸３丁目１３番２４号,,13,106,1100003,,,,,,,2024-04-24,1,,,,,ヒャッコウショウジ,0
2001,8010501052151,新規,0,2024-04-24,2024-04-24,Ｚ＆Ｌコーポレーション株式会社,,株式会社,東京都,台東区,三ノ輪１丁目４－２－２０１号室,,13,106,1100011,,,,,,,2024-04-24,1,,,,,ゼットアンドエルコーポレーション,0
2004,8010603010791,新規,0,2024-04-24,2024-04-24,合同会社経営採用戦略室,,合同会社,東京都,江東区,東雲２丁目４番２,,13,108,1350062,,,,,,,2024-04-24,1,,,,,ケイエイサイヨウセンリャクシツ,0
2006,8010703007151,新規,0,2024-04-24,2024-04-24,合同会社ＡＳ,,合同会社,東京都,品川区,東五反田１丁目１９番地８ハイツ五反田５０５号室,,13,109,1410022,,,,,,,2024-04-24,1,,,,,エーエス,0
2008,8010801034997,新規,0,2024-04-24,2024-04-24,株式会社ライジュウ,,株式会社,東京都,大田区,東蒲田２丁目３番１９号,,13,111,1440031,,,,,,,2024-04-24,1,,,,,ライジュウ,0
2010,8010901055142,新規,0,2024-04-24,2024-04-24,谷不動産株式会社,,株式会社,東京都,世田谷区,松原２丁目４６番５号リューズビル３階,,13,112,1560043,,,,,,,2024-04-24,1,,,,,タニフドウサン,0
2013,8011001161582,新規,0,2024-04-24,2024-04-24,株式会社プラスアンバー,,株式会社,東京都,渋谷区,南平台町６番４号,,13,113,1500036,,,,,,,2024-04-24,1,,,,,プラスアンバー,0
2014,8011003018987,新規,0,2024-04-24,2024-04-24,合同会社デアリング,,合同会社,東京都,渋谷区,道玄坂１丁目１６番６号,,13,113,1500043,,,,,,,2024-04-24,1,,,,,デアリング,0
2015,8011003019003,新規,0,2024-04-24,2024-04-24,合同会社セラピイング,,合同会社,東京都,目黒区,下目黒１丁目１番１４号コノトラビル７Ｆ,,13,110,1530064,,,,,,,2024-04-24,1,,,,,セラピイング,0
2016,8011003019011,新規,0,2024-04-24,2024-04-24,ＧＲＡＮＲＥＶＥ合同会社,,合同会社,東京都,渋谷区,道玄坂１丁目１０番８号渋谷道玄坂東急ビル２Ｆ－Ｃ,,13,113,1500043,,,,,,,2024-04-24,1,,,,,グランリーヴェ,0
2019,8011101107048,新規,0,2024-04-24,2024-04-24,Ｇｉｎｇｅｒ株式会社,,株式会社,東京都,新宿区,神楽坂３丁目２番地２０ヴァンテ・アン神楽坂５１０,,13,104,1620825,,,,,,,2024-04-24,1,,,,,ジンジャー,0
2026,8011503006046,新規,0,2024-04-24,2024-04-24,ＭＩＮＩ　ＫＡＬＩＫＡ合同会社,,合同会社,東京都,荒川区,町屋５丁目６番１号２Ｆ,,13,118,1160001,,,,,,,2024-04-24,1,,,,,ミニカリカ,0
2028,8011603004321,新規,0,2024-04-24,2024-04-24,合同会社シムスム,,合同会社,東京都,練馬区,春日町１丁目１２番１号,,13,120,1790074,,,,,,,2024-04-24,1,,,,,シムスム,0
2036,8012401041795,新規,0,2024-04-24,2024-04-24,株式会社スマートアグリ武蔵,,株式会社,東京都,府中市,浅間町３丁目１８番地１－７１１,,13,206,1830001,,,,,,,2024-04-24,1,,,,,スマートアグリムサシ,0
2038,8012803003377,新規,0,2024-04-24,2024-04-24,Ａ　ｚｅｒｏ１合同会社,,合同会社,東京都,立川市,錦町６丁目１番８号ＪＬＢグランエクリュ立川４０７,,13,202,1900022,,,,,,,2024-04-24,1,,,,,エーゼロワン,0
2045,8020001156781,新規,0,2024-04-24,2024-04-24,株式会社らおや,,株式会社,神奈川県,横浜市港南区,笹下６丁目１７番１５号,,14,111,2340052,,,,,,,2024-04-24,1,,,,,ラオヤ,0
2046,8020001156856,新規,0,2024-04-24,2024-04-24,株式会社ストアーリンク,,株式会社,神奈川県,横浜市都筑区,中川中央１丁目２９番２－７０６号,,14,118,2240003,,,,,,,2024-04-24,1,,,,,ストアーリンク,0
2051,8021001082019,新規,0,2024-04-24,2024-04-24,株式会社フェイスフル,,株式会社,神奈川県,藤沢市,鵠沼海岸１丁目２番２３－１１０号,,14,205,2510037,,,,,,,2024-04-24,1,,,,,フェイスフル,0
2052,8021001082068,新規,0,2024-04-24,2024-04-24,株式会社ＰＵＲＥＴＥＣ,,株式会社,神奈川県,相模原市中央区,相模原３丁目１番１号,,14,152,2520231,,,,,,,2024-04-24,1,,,,,ピュアテック,0
2057,8021003014416,新規,0,2024-04-24,2024-04-24,ＪＤＭ　ＳＨＯＫＡＩ合同会社,,合同会社,神奈川県,厚木市,林４丁目６番７号カーサフロレスタ１０１,,14,212,2430816,,,,,,,2024-04-24,1,,,,,ジェイディーエムショウカイ,0
2058,8021003014432,新規,0,2024-04-24,2024-04-24,合同会社ジェントル,,合同会社,神奈川県,藤沢市,湘南台２丁目３８番地の１７フロンティアシティ湘南台２０１号室,,14,205,2520804,,,,,,,2024-04-24,1,,,,,ジェントル,0
2077,8030005021675,新規,0,2024-04-24,2024-04-24,一般財団法人川野トモ子ども支援財団,,その他の設立登記法人,埼玉県,川越市,新宿町１丁目１０番地１,,11,201,3501124,,,,,,,2024-04-24,1,,,,,カワノトモコドモシエンザイダン,0
2080,8040001133317,新規,0,2024-04-24,2024-04-24,株式会社Ｈｏｍｅｉｚ,,株式会社,千葉県,市川市,北方町４丁目１７５４番地８,,12,203,2720811,,,,,,,2024-04-24,1,,,,,ホーミーズ,0
2086,8050001054677,新規,0,2024-04-24,2024-04-24,株式会社ＤＡＷＯＯＤ　ＩＮＴＥＲＮＡＴＩＯＮＡＬ,,株式会社,茨城県,坂東市,みむら字二ノ谷６２０番地１,,08,228,3060655,,,,,,,2024-04-24,1,,,,,,0
2097,8080101024692,新規,0,2024-04-24,2024-04-24,株式会社Ｃｏ‐Ｃｒｅａｔｏｒｓ　Ｊａｐａｎ,,株式会社,静岡県,沼津市,大岡３４６番地の１６,,22,203,4100022,,,,,,,2024-04-24,1,,,,,コークリエイターズジャパン,0
2098,8080101024701,新規,0,2024-04-24,2024-04-24,株式会社ＥＮＤＯＨ,,株式会社,静岡県,沼津市,浅間町１２番地１２０８,,22,203,4100886,,,,,,,2024-04-24,1,,,,,エンドウ,0
2111,8120001264269,新規,0,2024-04-24,2024-04-24,株式会社ＴＳＵＲＡＴＳＵＲＡ,,株式会社,大阪府,大阪市天王寺区,夕陽丘町４－２ＭｅｔｏｒｏＰｏｒｔｅ四天王寺前夕陽丘ＩＩＩ７号室,00134537,27,109,5430075,,,,,,,2024-04-24,1,,,,,ツラツラ,0
2112,8120001264302,新規,0,2024-04-24,2024-04-24,株式会社ＳＫＹ,,株式会社,大阪府,大阪市東成区,中道４丁目１６－２１山上ビル４Ｆ,,27,115,5370025,,,,,,,2024-04-24,1,,,,,スカイ,0
2113,8120001264319,新規,0,2024-04-24,2024-04-24,ビワマート株式会社,,株式会社,大阪府,大阪市生野区,田島４丁目１９番１６号,,27,116,5440011,,,,,,,2024-04-24,1,,,,,ビワマート,0
2114,8120001264392,新規,0,2024-04-24,2024-04-24,株式会社Ｒ１４８,,株式会社,大阪府,大阪市北区,同心１丁目４番２号第二東寺町ビル６０１号室,,27,127,5300035,,,,,,,2024-04-24,1,,,,,ルートイチヨンハチ,0
2115,8120001264450,新規,0,2024-04-24,2024-04-24,株式会社リープフィールズ,,株式会社,大阪府,大阪市北区,鶴野町４－１１朝日プラザ梅田２Ｆ－６３,,27,127,5300014,,,,,,,2024-04-24,1,,,,,リープフィールズ,0
2117,8120003026394,新規,0,2024-04-24,2024-04-24,ブルームラボ合同会社,,合同会社,大阪府,大阪市北区,梅田２丁目５番１３号桜橋第一ビル３０４号,,27,127,5300001,,,,,,,2024-04-24,1,,,,,ブルームラボ,0
2118,8120003026411,新規,0,2024-04-24,2024-04-24,合同会社Ｍ＆Ｋ,,合同会社,大阪府,大阪市中央区,南船場３丁目２番２２号おおきに南船場ビル２０５,,27,128,5420081,,,,,,,2024-04-24,1,,,,,エムアンドケー,0
2119,8120003026469,新規,0,2024-04-24,2024-04-24,ＦＯＵＲ　Ｔ合同会社,,合同会社,大阪府,大阪市生野区,田島１丁目７番３号Ｂ室,,27,116,5440011,,,,,,,2024-04-24,1,,,,,フォーティ,0
2120,8120101069477,新規,0,2024-04-24,2024-04-24,株式会社Ｂｅｏ,,株式会社,大阪府,藤井寺市,岡１丁目７番１０－７０４号,,27,226,5830027,,,,,,,2024-04-24,1,,,,,ベオ,0
2125,8120901049083,新規,0,2024-04-24,2024-04-24,正好株式会社,,株式会社,大阪府,吹田市,垂水町１丁目５９番２８号１１０号室,,27,205,5640062,,,,,,,2024-04-24,1,,,,,セイコウ,0
2127,8130001076911,新規,0,2024-04-24,2024-04-24,ライノフラックス株式会社,,株式会社,京都府,京都市左京区,吉田本町３６－１京都大学国際科学イノベーション棟西館１０４号室,,26,103,6068317,,,,,,,2024-04-24,1,,,,,ライノフラックス,0
2130,8130003009497,新規,0,2024-04-24,2024-04-24,合同会社ｋｔＯ,,合同会社,京都府,京都市下京区,朱雀宝蔵町４４番地協栄ビル２階京都朱雀スタジオ,,26,106,6008846,,,,,,,2024-04-24,1,,,,,ケーティーオー,0
2136,8140003020461,新規,0,2024-04-24,2024-04-24,合同会社ＫＭＴ,,合同会社,兵庫県,神戸市西区,桜が丘中町５丁目９－２,,28,111,6512226,,,,,,,2024-04-24,1,,,,,ケーエムティー,0
2137,8140003020478,新規,0,2024-04-24,2024-04-24,合同会社ｉ‐ｎｏｔｅ,,合同会社,兵庫県,神戸市垂水区,城が山１丁目７番３－４０４号,,28,108,6550884,,,,,,,2024-04-24,1,,,,,アイノート,0
2139,8150001027251,新規,0,2024-04-24,2024-04-24,株式会社コマイ,,株式会社,奈良県,御所市,大字柏原６１５番地の４,,29,208,6392244,,,,,,,2024-04-24,1,,,,,コマイ,0
2140,8160001025865,新規,0,2024-04-24,2024-04-24,株式会社ＧＲＥＥＮＴＨＩＮＧＳ,,株式会社,滋賀県,高島市,今津町浜分１５６－１,,25,212,5201604,,,,,,,2024-04-24,1,,,,,,0
2151,8180001161072,新規,0,2024-04-24,2024-04-24,ＮＲＩ株式会社,,株式会社,愛知県,名古屋市北区,西味鋺１丁目３２９番地,,23,103,4620016,,,,,,,2024-04-24,1,,,,,エヌアールアイ,0
2152,8180001161080,新規,0,2024-04-24,2024-04-24,株式会社トライサービス,,株式会社,愛知県,名古屋市東区,葵１丁目１番２５号,,23,102,4610004,,,,,,,2024-04-24,1,,,,,トライサービス,0
2153,8180001161089,新規,0,2024-04-24,2024-04-24,株式会社東海製作所,,株式会社,愛知県,名古屋市緑区,鳴子町３丁目９７番地の３３,,23,114,4580041,,,,,,,2024-04-24,1,,,,,トウカイセイサクショ,0
2154,8180001161139,新規,0,2024-04-24,2024-04-24,グッド・ライフ・パートナーズ株式会社,,株式会社,愛知県,あま市,森６丁目２１番地８,,23,237,4901107,,,,,,,2024-04-24,1,,,,,グッドライフパートナーズ,0
2163,8200001042427,新規,0,2024-04-24,2024-04-24,株式会社やまかわ製材舎,,株式会社,岐阜県,飛騨市,古川町宮城町２７７番１号,,21,217,5094251,,,,,,,2024-04-24,1,,,,,ヤマカワセイザイシャ,0
2164,8200001042435,新規,0,2024-04-24,2024-04-24,株式会社東海ベストプランニング,,株式会社,岐阜県,岐阜市,加納水野町３丁目４番地Ｃａｓａ　ｄｉ　ｖｅｒｄｅ５０５,,21,201,5008477,,,,,,,2024-04-24,1,,,,,トウカイベストプランニング,0
2172,8240001063122,新規,0,2024-04-24,2024-04-24,ＯＩＣソリューション株式会社,,株式会社,広島県,呉市,宮原５丁目１番３号,,34,202,7370024,,,,,,,2024-04-24,1,,,,,オーアイシーソリューション,0
2174,8250001020626,新規,0,2024-04-24,2024-04-24,株式会社ヒロ警,,株式会社,山口県,周南市,大字呼坂１０５７９番地の１,,35,215,7450612,,,,,,,2024-04-24,1,,,,,ヒロケイ,0
2175,8260001038997,新規,0,2024-04-24,2024-04-24,宇喜多商事株式会社,,株式会社,岡山県,岡山市東区,沼１５５番地１,,33,103,7090621,,,,,,,2024-04-24,1,,,,,ウキタショウジ,0
2183,8290001105489,新規,0,2024-04-24,2024-04-24,株式会社井手乃上,,株式会社,福岡県,福岡市中央区,赤坂１丁目２番６号,,40,133,8100042,,,,,,,2024-04-24,1,,,,,イデノウエ,0
2191,8300005007192,新規,0,2024-04-24,2024-04-24,医療法人ＯＳＰ,,その他の設立登記法人,佐賀県,伊万里市,東山代町長浜２１２９－１,,41,205,8494271,,,,,,,2024-04-24,1,,,,,オーエスピー,0
2214,8380001034472,新規,0,2024-04-24,2024-04-24,廣栄創建株式会社,,株式会社,福島県,いわき市,内郷高野町柴平７０番地,,07,204,9738406,,,,,,,2024-04-24,1,,,,,コウエイソウケン,0
2215,8380005012821,新規,0,2024-04-24,2024-04-24,農事組合法人サムライス原ノ町,,その他の設立登記法人,福島県,南相馬市,原町区深野字荒屋舗１２０番地,,07,212,9750071,,,,,,,2024-04-24,1,,,,,サムライスハラノマチ,0
2229,8460301005215,新規,0,2024-04-24,2024-04-24,株式会社ＥＴ７７,,株式会社,北海道,網走郡美幌町,字大通北４丁目２番地８,,01,543,0920050,,,,,,,2024-04-24,1,,,,,イーティーナナナナ,0
2234,8700150125089,新規,0,2024-04-24,2024-04-24,Ａｒｃｕｓ　Ｐｒｏｐｅｒｔｉｅｓ　Ｐｔｅ，Ｌｔｄ,,外国会社等,,,,,,,,１１　ＫＡＬＬＡＮＧ　ＰＬＡＣＥ　＃０７－０１　Ｓｉｎｇａｐｏｒｅ　３３９１５５,,,,,,2024-04-24,1,,,,,アーカスプロパテイーズピーテイーイーリミテツド,0
2235,8700150125106,新規,0,2024-04-24,2024-04-24,深田区,,その他,兵庫県,三田市,上深田３７番地,,28,219,6691542,,,,,,,2024-04-24,1,,,,,フカタク,0
2248,9010001244140,新規,0,2024-04-24,2024-04-24,株式会社ＫＡＹＡＨＩＲＯ,,株式会社,東京都,文京区,本駒込５丁目５９番１１号,,13,105,1130021,,,,,,,2024-04-24,1,,,,,カヤヒロ,0
2249,9010001244165,新規,0,2024-04-24,2024-04-24,株式会社ＯＤＮ　Ｊａｐａｎ,,株式会社,東京都,千代田区,永田町２丁目４－８,,13,101,1000014,,,,,,,2024-04-24,1,,,,,オーディーエヌジャパン,0
2250,9010001244272,新規,0,2024-04-24,2024-04-24,栄都関西不動産株式会社,,株式会社,東京都,中央区,晴海５丁目４番２－９０３号,,13,102,1040053,,,,,,,2024-04-24,1,,,,,エイトカンサイフドウサン,0
2251,9010001244280,新規,0,2024-04-24,2024-04-24,株式会社フォアノート,,株式会社,東京都,中央区,日本橋室町１丁目１１番１２号日本橋水野ビル７階,,13,102,1030022,,,,,,,2024-04-24,1,,,,,フォアノート,0
2253,9010003043499,新規,0,2024-04-24,2024-04-24,合同会社杜,,合同会社,東京都,千代田区,三番町５番地１１－１２０３号パークハウス三番町,,13,101,1020075,,,,,,,2024-04-24,1,,,,,イエロ,0
2254,9010003043532,新規,0,2024-04-24,2024-04-24,合同会社ＢＬＵＥ,,合同会社,東京都,中央区,日本橋室町１丁目１１番１２号日本橋水野ビル７階,,13,102,1030022,,,,,,,2024-04-24,1,,,,,ブルー,0
2255,9010003043540,新規,0,2024-04-24,2024-04-24,ＡｉＨＵＢ　Ｃｏｍｍｕｎｉｔｙ合同会社,,合同会社,東京都,千代田区,神田須田町２丁目１番１号ＭＡＳＱＵＡＲＥＡＫＩＨＡＢＡＲＡ４Ｆ,,13,101,1010041,,,,,,,2024-04-24,1,,,,,エーアイハブコミュニティー,0
2256,9010003043573,新規,0,2024-04-24,2024-04-24,合同会社Ｍｅｄｉｃａｌｈｏ,,合同会社,東京都,中央区,日本橋久松町１２番５－２０２号,,13,102,1030005,,,,,,,2024-04-24,1,,,,,メディカルホ,0
2258,9010105002262,新規,0,2024-04-24,2024-04-24,八王子みなみ野リトヒルズ団地管理組合法人,,その他の設立登記法人,東京都,八王子市,みなみ野５丁目２８番１２９号,,13,201,1920916,,,,,,,2024-04-24,1,,,,,ハチオウジミナミノリトヒルズ,0
2276,9010601065060,新規,0,2024-04-24,2024-04-24,株式会社リードフォース,,株式会社,東京都,江東区,有明２丁目１番１－２４１０号,,13,108,1350063,,,,,,,2024-04-24,1,,,,,リードフォース,0
2280,9010701045904,新規,0,2024-04-24,2024-04-24,株式会社リモナビ,,株式会社,東京都,品川区,西品川１丁目１－１住友不動産大崎ガーデンタワー９階,,13,109,1410033,,,,,,,2024-04-24,1,,,,,リモナビ,0
2286,9010901055141,新規,0,2024-04-24,2024-04-24,株式会社ＮＩＢＵＲＯ,,株式会社,東京都,世田谷区,駒沢４丁目１８－１３,,13,112,1540012,,,,,,,2024-04-24,1,,,,,ニブロ,0
2287,9010901055158,新規,0,2024-04-24,2024-04-24,トリストン株式会社,,株式会社,東京都,世田谷区,若林５丁目２１番１０号,,13,112,1540023,,,,,,,2024-04-24,1,,,,,トリストン,0
2291,9011001161466,新規,0,2024-04-24,2024-04-24,株式会社ＨＹＰＥ,,株式会社,東京都,目黒区,下目黒１丁目１番１４号コノトラビル７Ｆ,,13,110,1530064,,,,,,,2024-04-24,1,,,,,ハイプ,0
2292,9011001161581,新規,0,2024-04-24,2024-04-24,株式会社Ｄａｈｌｉａ,,株式会社,東京都,渋谷区,恵比寿西２丁目３番９号浦ＭＫＹ恵比寿ビル３０１,,13,113,1500021,,,,,,,2024-04-24,1,,,,,ダリア,0
2293,9011003018978,新規,0,2024-04-24,2024-04-24,Ｍｅｔａ　Ｓｅｎｓｅ合同会社,,合同会社,東京都,目黒区,下目黒１丁目１番１４号コノトラビル７Ｆ,,13,110,1530064,,,,,,,2024-04-24,1,,,,,メタセンス,0
2302,9011501030591,新規,0,2024-04-24,2024-04-24,卓業株式会社,,株式会社,東京都,北区,王子本町１丁目２２番１号ＫＳＧビル１０５号室,,13,117,1140022,,,,,,,2024-04-24,1,,,,,タクギョウ,0
2304,9011701027223,新規,0,2024-04-24,2024-04-24,富野株式会社,,株式会社,東京都,江戸川区,西小岩１丁目２０番１８号浅見ビル２０１号室,,13,123,1330057,,,,,,,2024-04-24,1,,,,,トミノ,0
2319,9020001156764,新規,0,2024-04-24,2024-04-24,株式会社オーエステック,,株式会社,神奈川県,川崎市川崎区,本町１丁目８番３－３０７号,,14,131,2100001,,,,,,,2024-04-24,1,,,,,オーエステック,0
2320,9020001156839,新規,0,2024-04-24,2024-04-24,膳祖株式会社,,株式会社,神奈川県,川崎市川崎区,小田１丁目１５番５－４１０号レーベン川崎小田一丁目,,14,131,2100846,,,,,,,2024-04-24,1,,,,,ゼンソ,0
2321,9020001156847,新規,0,2024-04-24,2024-04-24,株式会社優笑,,株式会社,神奈川県,横浜市旭区,上白根町１３１番地１０,,14,112,2410001,,,,,,,2024-04-24,1,,,,,ユウショウ,0
2322,9020001156855,新規,0,2024-04-24,2024-04-24,株式会社ＰＯＥＬＬＮ,,株式会社,神奈川県,横浜市中区,千代崎町２丁目３８番７号,,14,104,2310864,,,,,,,2024-04-24,1,,,,,ポエール,0
2323,9020001156863,新規,0,2024-04-24,2024-04-24,株式会社ＳｈｉｎｅＦａｓｔ,,株式会社,神奈川県,横浜市中区,翁町１丁目１番６号産友パークビル２階,,14,104,2310028,,,,,,,2024-04-24,1,,,,,,0
2326,9020003025967,新規,0,2024-04-24,2024-04-24,ＡｎｉｍａｌＰｈａｒｍａｃｙ合同会社,,合同会社,神奈川県,横浜市西区,北幸１丁目１１番１号水信ビル７階,,14,103,2200004,,,,,,,2024-04-24,1,,,,,アニマルファーマシー,0
2327,9020003025975,新規,0,2024-04-24,2024-04-24,合同会社ＰＣサポート,,合同会社,神奈川県,川崎市多摩区,枡形６丁目９番１１号－１０５号室,,14,135,2140032,,,,,,,2024-04-24,1,,,,,ピーシーサポート,0
2328,9020005016386,新規,0,2024-04-24,2024-04-24,一般社団法人土地建物有効活用協会,,その他の設立登記法人,神奈川県,横浜市中区,相生町２丁目３１番地相生町中央ビル５０１－Ａ号室,,14,104,2310012,,,,,,,2024-04-24,1,,,,,トチタテモノユウコウカツヨウキョウカイ,0
2347,9030003024142,新規,0,2024-04-24,2024-04-24,ウエルテクノ合同会社,,合同会社,埼玉県,狭山市,大字堀兼２３７０番地の２８フラワーヒル２９－５,,11,215,3501312,,,,,,,2024-04-24,1,,,,,ウエルテクノ,0
2351,9040001133274,新規,0,2024-04-24,2024-04-24,株式会社アップフィールド,,株式会社,千葉県,木更津市,羽鳥野５丁目３番地４４,,12,206,2920819,,,,,,,2024-04-24,1,,,,,アップフィールド,0
2352,9040001133290,新規,0,2024-04-24,2024-04-24,＿淇株式会社,00134532,株式会社,千葉県,佐倉市,宮前３丁目２２番地４ＧＡＲＤＥＮＥＬＥＧＡＮＴ２２１号室,,12,212,2850005,,,,,,,2024-04-24,1,,,,,ギョクキ,0
2353,9040001133299,新規,0,2024-04-24,2024-04-24,株式会社彩美リフォーム,,株式会社,千葉県,印西市,中６２番地３,,12,231,2702315,,,,,,,2024-04-24,1,,,,,アミリフォーム,0
2357,9040003024843,新規,0,2024-04-24,2024-04-24,合同会社ＬＴビジネスサポート,,合同会社,千葉県,成田市,公津の杜６丁目１０番地１９,,12,211,2860048,,,,,,,2024-04-24,1,,,,,エルティービジネスサポート,0
2362,9060001037036,新規,0,2024-04-24,2024-04-24,株式会社田野塗装,,株式会社,栃木県,宇都宮市,田野町７２９番地１,,09,201,3210344,,,,,,,2024-04-24,1,,,,,タノトソウ,0
2370,9090001018677,新規,0,2024-04-24,2024-04-24,株式会社アツヲ飯,,株式会社,山梨県,北杜市,大泉町西井出８２４０番地８４７３,,19,209,4091501,,,,,,,2024-04-24,1,,,,,アツヲメシ,0
2375,9110003005373,新規,0,2024-04-24,2024-04-24,合同会社メディアックス信越企画,,合同会社,新潟県,上越市,藤巻８番４７号藤巻ビル３０１号室,,15,222,9430817,,,,,,,2024-04-24,1,,,,,メディアックスシンエツキカク,0
2380,9120001264292,新規,0,2024-04-24,2024-04-24,静雨株式会社,,株式会社,大阪府,大阪市城東区,東中浜９丁目８番２６号１０８号室,,27,118,5360023,,,,,,,2024-04-24,1,,,,,セイウ,0
2381,9120001264301,新規,0,2024-04-24,2024-04-24,億豊株式会社,,株式会社,大阪府,大阪市東住吉区,矢田２丁目１３番２３号,,27,121,5460023,,,,,,,2024-04-24,1,,,,,オクトヨ,0
2382,9120001264318,新規,0,2024-04-24,2024-04-24,アートワード株式会社,,株式会社,大阪府,大阪市浪速区,日本橋５丁目８番２１号,,27,111,5560005,,,,,,,2024-04-24,1,,,,,アートワード,0
2383,9120001264375,新規,0,2024-04-24,2024-04-24,株式会社ＤＩＶＡ,,株式会社,大阪府,大阪市西区,南堀江４丁目４番２０号アーデンタワー南堀江４１３号室,,27,106,5500015,,,,,,,2024-04-24,1,,,,,ディーバー,0
2385,9120003026419,新規,0,2024-04-24,2024-04-24,八方合同会社,,合同会社,大阪府,大阪市淀川区,十三本町１丁目５番２４号,,27,123,5320024,,,,,,,2024-04-24,1,,,,,ハッポウ,0
2387,9120005024296,新規,0,2024-04-24,2024-04-24,一般社団法人近畿建築確認検査協会,,その他の設立登記法人,大阪府,大阪市中央区,農人橋２丁目１番１０号,,27,128,5400011,,,,,,,2024-04-24,1,,,,,キンキケンチクカクニンケンサキョウカイ,0
2391,9120103005792,新規,0,2024-04-24,2024-04-24,合同会社ハイプレス,,合同会社,大阪府,堺市美原区,平尾２６４９番地２８,,27,147,5870022,,,,,,,2024-04-24,1,,,,,ハイプレス,0
2394,9120901049074,新規,0,2024-04-24,2024-04-24,株式会社バタラム,,株式会社,大阪府,豊中市,曽根南町１丁目２２番８号阪急曽根ユーリプラザ２０９号,,27,203,5610804,,,,,,,2024-04-24,1,,,,,バタラム,0
2397,9120903005141,新規,0,2024-04-24,2024-04-24,合同会社ＬＥＧＡＸＩＳ,,合同会社,大阪府,豊中市,熊野町４丁目２番３０号,,27,203,5600014,,,,,,,2024-04-24,1,,,,,レガシス,0
2401,9130003009488,新規,0,2024-04-24,2024-04-24,Ｈｕｇｈ’ｓ　Ｓｔｕｄｉｏ合同会社,,合同会社,京都府,京都市下京区,松原通堺町東入杉屋町２９５番地カーサデ河原町３０８号室,,26,106,6008078,,,,,,,2024-04-24,1,,,,,ヒューズスタジオ,0
2413,9140001134155,新規,0,2024-04-24,2024-04-24,株式会社Ｎｅｐａ　Ｃｏｎｎｅｃｔ,,株式会社,兵庫県,神戸市東灘区,御影中町１丁目６番６号４Ｆ,,28,101,6580054,,,,,,,2024-04-24,1,,,,,ネパコネクト,0
2414,9140001134196,新規,0,2024-04-24,2024-04-24,株式会社サイクルベース,,株式会社,兵庫県,三木市,緑が丘町西２丁目６番地の１１,,28,215,6730531,,,,,,,2024-04-24,1,,,,,サイクルベース,0
2415,9140003020469,新規,0,2024-04-24,2024-04-24,合同会社エヌケー,,合同会社,兵庫県,尼崎市,南塚口町８丁目４４番１０号,,28,202,6610012,,,,,,,2024-04-24,1,,,,,エヌケー,0
2420,9160003003174,新規,0,2024-04-24,2024-04-24,せんきんワークス合同会社,,合同会社,滋賀県,大津市,坂本１丁目１４－１５,,25,201,5200113,,,,,,,2024-04-24,1,,,,,センキンワークス,0
2433,9180001161096,新規,0,2024-04-24,2024-04-24,アイエスエー・プロ株式会社,,株式会社,愛知県,名古屋市天白区,中砂町６０６番地,,23,116,4680065,,,,,,,2024-04-24,1,,,,,アイエスエープロ,0
2434,9180001161212,新規,0,2024-04-24,2024-04-24,株式会社妖狐煙屋,,株式会社,愛知県,名古屋市中区,栄４丁目１７番２７号,,23,106,4600008,,,,,,,2024-04-24,1,,,,,ヨウコエンヤ,0
2452,9200005013605,新規,0,2024-04-24,2024-04-24,一般社団法人きりん座,,その他の設立登記法人,岐阜県,岐阜市,春日町２丁目４番地８,,21,201,5008303,,,,,,,2024-04-24,1,,,,,キリンザ,0
2464,9240001063121,新規,0,2024-04-24,2024-04-24,株式会社Ｋ‐ｓｔｙｌｅ,,株式会社,広島県,広島市東区,馬木７丁目５００番地２,,34,102,7320031,,,,,,,2024-04-24,1,,,,,ケースタイル,0
2465,9240001063138,新規,0,2024-04-24,2024-04-24,Ｇｏｋｏ　Ｃｈｅｍｉｃａｌ株式会社,,株式会社,広島県,広島市南区,大州４丁目３番３１‐９０２号,,34,103,7320802,,,,,,,2024-04-24,1,,,,,ゴコウケミカル,0
2481,9310001018976,新規,0,2024-04-24,2024-04-24,株式会社ＩＬＣ　ｃｒｅａｔｅ　ｆｏｏｄ,,株式会社,長崎県,長崎市,磯道町８０－７３,,42,201,8500971,,,,,,,2024-04-24,1,,,,,アイエルシークリエイトフード,0
2484,9330001031985,新規,0,2024-04-24,2024-04-24,株式会社奏亜電設,,株式会社,熊本県,玉名市,六田３６番地１８,,43,206,8650058,,,,,,,2024-04-24,1,,,,,ソウアデンセツ,0
2485,9330001032001,新規,0,2024-04-24,2024-04-24,株式会社Ｓｅｅｌｅ,,株式会社,熊本県,熊本市南区,城南町宮地１２３９番地２,,43,104,8614202,,,,,,,2024-04-24,1,,,,,ゼーレ,0
2500,9370001051212,新規,0,2024-04-24,2024-04-24,株式会社Ｌｉｎｋ’ｓ,,株式会社,宮城県,仙台市若林区,荒井４丁目２６番９号,,04,103,9840032,,,,,,,2024-04-24,1,,,,,リンクス,0
2508,9390001017590,新規,0,2024-04-24,2024-04-24,株式会社エムアイホールディングス,,株式会社,山形県,東根市,大字野田７２４番地,,06,211,9993775,,,,,,,2024-04-24,1,,,,,エムアイホールディングス,0
2517,9430001091573,新規,0,2024-04-24,2024-04-24,慈燦株式会社,,株式会社,北海道,虻田郡倶知安町,南六条西２丁目５－３４,,01,400,0440036,,,,,,,2024-04-24,1,,,,,ジサン,0
2519,9430003016256,新規,0,2024-04-24,2024-04-24,合同会社ＢＡＳＩＳ,,合同会社,北海道,札幌市中央区,南六条西１４丁目２番２５‐５０４号,,01,101,0640806,,,,,,,2024-04-24,1,,,,,ベイシス,0
2524,9700150125088,新規,0,2024-04-24,2024-04-24,台北紅色空間企画設計有限公司,,外国会社等,,,,,,,,中華人民共和国香港特別行政区　セントラルマーサストリート１２－１８　Ｇｏｌｄ＆Ｓｉｌｖｅｒ商業ビル８階,,,,,,2024-04-24,1,,,,,タイペイコウシヨククウカンキカクセツケイユウゲンコウシ,0
2525,9700150125105,新規,0,2024-04-24,2024-04-24,Ｌｏｒｉｎｄａｌｅ　Ｃｏｒｐ．,,外国会社等,,,,,,,,イギリス領ヴァージン諸島トルトラ島ロードタウン私書箱４３４２インターショエチェンバーズ,,,,,,2024-04-24,1,,,,,ロリンデールコーポレーシヨン,0
