sequenceNumber,corporateNumber,process,correct,updateDate,changeDate,name,nameImageId,kind,prefectureName,cityName,streetNumber,addressImageId,prefectureCode,cityCode,postCode,addressOutside,addressOutsideImageId,closeDate,closeCause,successorCorporateNumber,changeCause,assignmentDate,latest,enName,enPrefectureName,enCityName,enAddressOutside,furigana,hihyoji
12,1010402036086,登記記録の閉鎖等,0,2023-06-20,2023-06-07,有限会社ナバホスポーツ,,有限会社,東京都,港区,虎ノ門３丁目１８番１９号,,13,103,1050001,,,2023-06-07,清算の結了等,,,2015-10-05,1,,,,,ナバホスポーツ,0
25,1010902006679,登記記録の閉鎖等,0,2023-06-20,2023-06-16,有限会社佐藤機械彫刻,,有限会社,東京都,世田谷区,尾山台１丁目２番５号,,13,112,1580086,,,2023-06-16,清算の結了等,,,2015-10-05,1,,,,,サトウキカイチョウコク,0
28,1011001057341,登記記録の閉鎖等,0,2023-06-20,2023-06-19,株式会社キャリア教育センター,,株式会社,東京都,渋谷区,富ヶ谷２丁目１番５号,,13,113,1510063,,,2023-06-19,清算の結了等,,,2015-10-05,1,,,,,,0
30,1011001092223,登記記録の閉鎖等,0,2023-06-20,2023-06-15,株式会社Ｌｉｎｃｌｕｅ,,株式会社,大阪府,大阪市北区,西天満６丁目７番２号新日本梅新ビル８階,,27,127,5300047,,,2023-06-15,清算の結了等,,,2015-10-05,1,,,,,,0
45,1011402017811,登記記録の閉鎖等,0,2023-06-20,2023-06-16,有限会社東上,,有限会社,東京都,板橋区,東新町２丁目１５番２－１０２号,,13,119,1740074,,,2023-06-16,清算の結了等,,,2015-10-05,1,,,,,トウジョウ,0
55,1013202002836,登記記録の閉鎖等,0,2023-06-20,2023-06-19,有限会社坂本ユニット,,有限会社,東京都,目黒区,上目黒４丁目９番２号,,13,110,1530051,,,2023-06-19,清算の結了等,,,2015-10-05,1,,,,,,0
68,1021001069757,登記記録の閉鎖等,0,2023-06-20,2023-06-13,椙石浅二商店株式会社,,株式会社,神奈川県,小田原市,板橋６１２番地,,14,206,2500034,,,2023-06-13,清算の結了等,,,2020-04-14,1,,,,,スギイシアサジショウテン,0
76,1021002064385,登記記録の閉鎖等,0,2023-06-20,2023-06-14,有限会社佐光建設,,有限会社,神奈川県,横須賀市,公郷町１丁目１９番地,,14,201,2380022,,,2023-06-14,清算の結了等,,,2015-10-05,1,,,,,サコウケンセツ,0
85,1030005000628,登記記録の閉鎖等,0,2023-06-20,2023-06-02,公益財団法人サトエ記念美術博物館,,その他の設立登記法人,埼玉県,さいたま市大宮区,上小町４７６番地,,11,103,3300855,,,2023-06-02,清算の結了等,,,2015-10-05,1,,,,,サトエキネンビジュツハクブツカン,0
89,1040001040387,登記記録の閉鎖等,0,2023-06-20,2023-06-01,株式会社ＹＣ常盤平,,株式会社,千葉県,松戸市,和名ケ谷７２４番地,,12,207,2702232,,,2023-06-01,合併による解散等,6040001089949,令和５年６月１日千葉県松戸市和名ケ谷７２４番地株式会社ＹＣ松飛台くぬぎ山（6040001089949）に合併し解散,2015-10-05,1,,,,,ワイシートキワダイラ,0
112,1110001005250,登記記録の閉鎖等,0,2023-06-20,2023-06-13,松浜青果株式会社,,株式会社,新潟県,新潟市北区,松浜本町４丁目８番５号,,15,101,9503125,,,2023-06-13,清算の結了等,,,2015-10-05,1,,,,,マツハマセイカ,0
115,1120001015694,登記記録の閉鎖等,0,2023-06-20,2023-06-19,東美プランニング株式会社,,株式会社,大阪府,大阪市城東区,森之宮２丁目３番４１号,,27,118,5360025,,,2023-06-19,清算の結了等,,,2015-10-05,1,,,,,トウミプランニング,0
129,1120001212003,登記記録の閉鎖等,0,2023-06-20,2023-06-16,株式会社ＥＸＩＳＴ,,株式会社,大阪府,大阪市北区,太融寺町７番１号大栄レジャービル４Ｆ,,27,127,5300051,,,2023-06-16,清算の結了等,,,2018-03-15,1,,,,,イグジスト,0
141,1120101051664,登記記録の閉鎖等,0,2023-06-20,2023-06-16,豊田工業株式会社,,株式会社,大阪府,堺市堺区,海山町２丁１１６番地１ファミールハイツ堺ＩＩ番館１４０８号,00032615,27,141,5900982,,,2023-06-16,清算の結了等,,,2015-10-05,1,,,,,トヨダコウギョウ,0
143,1120102006031,登記記録の閉鎖等,0,2023-06-20,2023-06-16,有限会社トサ,,有限会社,大阪府,堺市北区,野遠町１１０番地の５,,27,146,5918013,,,2023-06-16,清算の結了等,,,2015-10-05,1,,,,,トサ,0
144,1120102019842,登記記録の閉鎖等,0,2023-06-20,2023-06-19,有限会社幸栄エンジニアリング,,有限会社,大阪府,河内長野市,美加の台７丁目３１番３号,,27,216,5860044,,,2023-06-19,清算の結了等,,,2015-10-05,1,,,,,コウエイエンジニアリング,0
149,1130002018737,登記記録の閉鎖等,0,2023-06-20,2023-06-15,有限会社アクアテクノロジー販売,,有限会社,京都府,京都市右京区,山ノ内北ノ口町３番地,,26,108,6150094,,,2023-06-15,清算の結了等,,,2015-10-05,1,,,,,アクアテクノロジーハンバイ,0
154,1140001099570,登記記録の閉鎖等,0,2023-06-20,2023-06-14,株式会社あけぼの産業,,株式会社,兵庫県,尼崎市,上坂部１丁目８番１－１０２０号,,28,202,6610979,,,2023-06-14,清算の結了等,,,2015-10-05,1,,,,,アケボノサンギョウ,0
162,1170001005410,登記記録の閉鎖等,0,2023-06-20,2023-06-16,株式会社三都建設,,株式会社,和歌山県,和歌山市,新生町５番７号,,30,201,6408325,,,2023-06-16,清算の結了等,,,2015-10-05,1,,,,,,0
166,1180001080551,登記記録の閉鎖等,0,2023-06-20,2023-06-16,株式会社サニーモールディング,,株式会社,愛知県,名古屋市守山区,向台１丁目１９０６番地の４,,23,113,4630036,,,2023-06-16,清算の結了等,,,2015-10-05,1,,,,,サニーモールディング,0
171,1180005017285,登記記録の閉鎖等,0,2023-06-20,2023-06-19,一般社団法人販売コンシェルジュ協会,,その他の設立登記法人,愛知県,名古屋市昭和区,菊園町５丁目１９番地の４,,23,107,4660843,,,2023-06-19,清算の結了等,,,2017-04-24,1,,,,,ハンバイコンシェルジュキョウカイ,0
191,1290001069781,登記記録の閉鎖等,0,2023-06-20,2023-06-15,株式会社ＤＲＳ,,株式会社,福岡県,福岡市東区,馬出６丁目８－１０,,40,131,8120054,,,2023-06-15,清算の結了等,,,2015-10-05,1,,,,,デイアールエス,0
209,1310002018140,登記記録の閉鎖等,0,2023-06-20,2023-06-05,有限会社メディア長崎,,有限会社,長崎県,島原市,原町甲２２４番地１,,42,203,8550063,,,2023-06-05,清算の結了等,,,2015-10-05,1,,,,,メディアナガサキ,0
216,1340005006271,登記記録の閉鎖等,0,2023-06-20,2023-06-16,特定非営利活動法人市民後見センターかごしま,,その他の設立登記法人,鹿児島県,鹿児島市,新屋敷町１６番公社ビル２１５号,,46,201,8920838,,,2023-06-16,清算の結了等,,,2015-10-05,1,,,,,シミンコウケンセンターカゴシマ,0
223,1370403000121,登記記録の閉鎖等,0,2023-06-20,2023-06-15,合名会社キゼン,,合名会社,宮城県,登米市,迫町佐沼字小金丁１番地の８,,04,212,9870511,,,2023-06-15,清算の結了等,,,2015-10-05,1,,,,,キゼン,0
224,1380001015603,登記記録の閉鎖等,0,2023-06-20,2023-06-14,宝玉建設株式会社,,株式会社,福島県,南相馬市,原町区江井字大代４４番地,,07,212,9750047,,,2023-06-14,清算の結了等,,,2015-10-05,1,,,,,ホウギョクケンセツ,0
226,1380002024479,登記記録の閉鎖等,0,2023-06-20,2023-06-14,有限会社惣次,,有限会社,福島県,いわき市,小名浜字寺廻２５番地,,07,204,,,,2023-06-14,清算の結了等,,,2015-10-05,1,,,,,ソウジ,1
230,1402701000369,登記記録の閉鎖等,0,2023-06-20,2023-06-07,佐々幸建設株式会社,,株式会社,岩手県,気仙郡住田町,世田米字大崎３２番地６,,03,441,0292311,,,2023-06-07,合併による解散等,5010401031200,令和５年６月１日東京都港区南麻布一丁目１８番４号株式会社佐藤渡辺（5010401031200）に合併し解散,2015-10-05,1,,,,,ササコウケンセツ,0
235,1430001039299,登記記録の閉鎖等,0,2023-06-20,2023-06-14,株式会社グランドサービス,,株式会社,北海道,茅部郡森町,字森川町８番地８,,01,345,0492313,,,2023-06-14,清算の結了等,,,2015-10-05,1,,,,,グランドサービス,0
262,2010001222805,登記記録の閉鎖等,0,2023-06-20,2023-06-14,システムエフ株式会社,,株式会社,東京都,中央区,銀座８丁目１０番５号,,13,102,1040061,,,2023-06-14,清算の結了等,,,2021-11-29,1,,,,,システムエフ,0
265,2010005023984,登記記録の閉鎖等,0,2023-06-20,2023-06-15,特定目的会社ワイイーエス,,その他の設立登記法人,東京都,千代田区,飯田橋４丁目７番１号結和税理士法人内,,13,101,1020072,,,2023-06-15,清算の結了等,,,2015-10-05,1,,,,,ワイイーエス,0
273,2010602025945,登記記録の閉鎖等,0,2023-06-20,2023-06-14,有限会社エム・アイ・ケー,,有限会社,東京都,江東区,東砂６丁目２０番１０号,,13,108,1360074,,,2023-06-14,清算の結了等,,,2015-10-05,1,,,,,エムアイケー,0
274,2010701037503,登記記録の閉鎖等,0,2023-06-20,2023-06-08,株式会社Ｒｅｎｔｚ,,株式会社,神奈川県,川崎市中原区,市ノ坪４４９番地３シティタワー武蔵小杉４８０６,,14,133,2110016,,,2023-06-08,清算の結了等,,,2019-05-07,1,,,,,レンツ,0
287,2011001130246,登記記録の閉鎖等,0,2023-06-20,2023-06-15,株式会社リフレーム,,株式会社,東京都,渋谷区,恵比寿西１丁目７－７,,13,113,1500021,,,2023-06-15,合併による解散等,3010001189127,令和５年６月１日東京都渋谷区恵比寿西１－７－７株式会社ＮＥＸＴ　ＥＤＵＣＡＴＩＯＮ（3010001189127）に合併し解散,2019-10-07,1,,,,,リフレーム,0
290,2011003011642,登記記録の閉鎖等,0,2023-06-20,2023-06-14,合同会社小林メンズビューティー,,合同会社,東京都,目黒区,大橋１丁目３番５－２０２号ロイヤルアメニティー池尻大橋,,13,110,1530044,,,2023-06-14,清算の結了等,,,2020-09-18,1,,,,,コバヤシメンズビューティー,0
294,2011201011015,登記記録の閉鎖等,0,2023-06-20,2023-06-19,株式会社建誠,,株式会社,東京都,中野区,弥生町４丁目１３番４号,,13,114,1640013,,,2023-06-19,清算の結了等,,,2015-10-05,1,,,,,,0
309,2012703001759,登記記録の閉鎖等,0,2023-06-20,2023-06-16,合同会社ＴＯＫＹＯ　ＣＲＥＡＴＩＯＮ,,合同会社,東京都,西東京市,谷戸町１丁目１５番３０号,,13,229,1880001,,,2023-06-16,清算の結了等,,,2019-02-12,1,,,,,トウキョウクリエーション,0
325,2020002024019,登記記録の閉鎖等,0,2023-06-20,2023-06-13,有限会社鈴木商店,,有限会社,神奈川県,横浜市保土ケ谷区,西谷町８９０番地,,14,106,2400052,,,2023-06-13,清算の結了等,,,2015-10-05,1,,,,,スズキショウテン,0
339,2030002002254,登記記録の閉鎖等,0,2023-06-20,2023-06-05,有限会社エンオウ,,有限会社,埼玉県,さいたま市大宮区,吉敷町１丁目１１１番地の３,,11,103,3300843,,,2023-06-05,清算の結了等,,,2015-10-05,1,,,,,エンオウ,0
365,2070001021020,登記記録の閉鎖等,0,2023-06-20,2023-06-15,ダッシュ・ケアサービス株式会社,,株式会社,群馬県,太田市,新田早川町３３９番地４,,10,205,3700344,,,2023-06-15,清算の結了等,,,2015-10-05,1,,,,,ダッシュケアサービス,0
372,2070001039269,登記記録の閉鎖等,0,2023-06-20,2023-06-14,株式会社ＴＨＩＥＮ　ＴＵＯＮＧ,,株式会社,群馬県,伊勢崎市,馬見塚町９０６番地３,,10,204,3720842,,,2023-06-14,清算の結了等,,,2022-06-06,1,,,,,,0
377,2080001005311,登記記録の閉鎖等,0,2023-06-20,2023-06-15,株式会社森藤工芸,,株式会社,静岡県,静岡市葵区,牛妻１４６番地の１,,22,101,4212106,,,2023-06-15,清算の結了等,,,2015-10-05,1,,,,,モリトウコウゲイ,0
381,2080105005372,登記記録の閉鎖等,0,2023-06-20,2023-06-13,一般社団法人このまちのみらい,,その他の設立登記法人,静岡県,伊豆の国市,長岡１２２１番地,,22,225,4102211,,,2023-06-13,清算の結了等,,,2015-10-05,1,,,,,コノマチノミライ,0
387,2100001032963,登記記録の閉鎖等,0,2023-06-20,2023-06-12,株式会社ＭＡコーポレーション,,株式会社,長野県,諏訪市,豊田有賀３６０２－１ビュー諏訪湖の森２０２号室,,20,206,,,,2023-06-12,清算の結了等,,,2020-03-03,1,,,,,エムエーコーポレーション,1
393,2120001228766,登記記録の閉鎖等,0,2023-06-20,2023-06-14,株式会社リミットレスビット,,株式会社,大阪府,大阪市中央区,道修町３丁目２番５号日本バルク薬品第２ビル５階,,27,128,5410045,,,2023-06-14,清算の結了等,,,2020-04-21,1,,,,,リミットレスビット,0
453,2220002009619,登記記録の閉鎖等,0,2023-06-20,2023-06-16,有限会社陽電ＥＮＧ,,有限会社,石川県,金沢市,大場町東７６６番地,,17,201,9203121,,,2023-06-16,清算の結了等,,,2015-10-05,1,,,,,ヨウデンエンジ,0
459,2290001090332,登記記録の閉鎖等,0,2023-06-20,2023-06-15,株式会社ｆｒｅｅ,,株式会社,福岡県,筑紫野市,杉塚１丁目２番３号Ａ棟２号,,40,217,8180054,,,2023-06-15,清算の結了等,,,2020-09-30,1,,,,,フリー,0
473,2310002002432,登記記録の閉鎖等,0,2023-06-20,2023-06-14,有限会社鷲宝,,有限会社,長崎県,長崎市,大橋町６番１１号,,42,201,8528134,,,2023-06-14,清算の結了等,,,2015-10-05,1,,,,,シュウホウ,0
494,2390003001244,登記記録の閉鎖等,0,2023-06-20,2023-06-14,井上仁ベストビジネス合同会社,,合同会社,山形県,鶴岡市,滝沢字水尻１４６番地,,06,203,9970364,,,2023-06-14,清算の結了等,,,2015-10-05,1,,,,,イノウエヒトシベストビジネス,0
500,2430001060106,登記記録の閉鎖等,0,2023-06-20,2023-06-06,株式会社シナプス,,株式会社,北海道,札幌市豊平区,平岸四条１８丁目１番５０－４１１号,,01,105,0620934,,,2023-06-06,清算の結了等,,,2015-10-05,1,,,,,シナプス,0
511,2460401001160,登記記録の閉鎖等,0,2023-06-20,2023-06-15,株式会社マルスズ鈴実水産,,株式会社,北海道,根室市,穂香１３番地３,,01,223,0870037,,,2023-06-15,清算の結了等,,,2016-10-04,1,,,,,マルスズスズミスイサン,0
512,2500001005177,登記記録の閉鎖等,0,2023-06-20,2023-06-19,株式会社清まる,,株式会社,愛媛県,松山市,花園町４番地６,,38,201,7900005,,,2023-06-19,清算の結了等,,,2015-10-05,1,,,,,キヨマル,0
519,3010001153306,登記記録の閉鎖等,0,2023-06-20,2023-06-13,ブルーライフ株式会社,,株式会社,東京都,中央区,八丁堀２丁目２４番２号,,13,102,1040032,,,2023-06-13,清算の結了等,,,2015-10-05,1,,,,,ブルーライフ,0
530,3010403017901,登記記録の閉鎖等,0,2023-06-20,2023-06-07,合同会社イレブン,,合同会社,東京都,港区,六本木６丁目１０番１号六本木ヒルズ森タワー,,13,103,1060032,,,2023-06-07,清算の結了等,,,2018-01-10,1,,,,,イレブン,0
544,3011001119412,登記記録の閉鎖等,0,2023-06-20,2023-06-14,コインオン株式会社,,株式会社,東京都,渋谷区,道玄坂１丁目２１番１号,,13,113,1500043,,,2023-06-14,清算の結了等,,,2017-11-29,1,,,,,コインオン,0
568,3012705001252,登記記録の閉鎖等,0,2023-06-20,2023-06-15,特定非営利活動法人西東京花の会,,その他の設立登記法人,東京都,西東京市,田無町４丁目２１番８－１０３号小山田方,,13,229,1880011,,,2023-06-15,清算の結了等,,,2015-10-05,1,,,,,ニシトウキョウハナノカイ,0
582,3020002007328,登記記録の閉鎖等,0,2023-06-20,2023-06-12,有限会社横浜舗道,,有限会社,神奈川県,横浜市都筑区,東方町９０４番地,,14,118,2240045,,,2023-06-12,清算の結了等,,,2015-10-05,1,,,,,ヨコハマホドウ,0
583,3020002032243,登記記録の閉鎖等,0,2023-06-20,2023-06-14,有限会社アクティブハウスケイ,,有限会社,神奈川県,横浜市港北区,篠原東２丁目１７番地２－３０１,,14,109,2220022,,,2023-06-14,清算の結了等,,,2015-10-05,1,,,,,アクティブハウスケイ,0
588,3021002018884,登記記録の閉鎖等,0,2023-06-20,2023-06-14,有限会社オサダモータース,,有限会社,神奈川県,相模原市南区,麻溝台２丁目６番１４号,,14,153,2520328,,,2023-06-14,清算の結了等,,,2015-10-05,1,,,,,オサダモータース,0
591,3021003006566,登記記録の閉鎖等,0,2023-06-20,2023-06-14,合同会社コレクト,,合同会社,神奈川県,相模原市中央区,富士見３丁目９番６号コスモタウン富士見２０１,,14,152,2520236,,,2023-06-14,清算の結了等,,,2017-03-27,1,,,,,コレクト,0
599,3040001027804,登記記録の閉鎖等,0,2023-06-20,2023-06-01,株式会社ヤマト製作所,,株式会社,千葉県,市川市,下貝塚１丁目７番５号,,12,203,2720821,,,2023-06-01,清算の結了等,,,2015-10-05,1,,,,,ヤマトセイサクショ,0
618,3070001027900,登記記録の閉鎖等,0,2023-06-20,2023-06-14,株式会社エスオー企画,,株式会社,群馬県,伊勢崎市,稲荷町７２６番地１,,10,204,3720804,,,2023-06-14,清算の結了等,,,2015-10-05,1,,,,,エスオーキカク,0
622,3080101001440,登記記録の閉鎖等,0,2023-06-20,2023-06-15,株式会社ニューフット,,株式会社,静岡県,沼津市,青野１６番地の４,,22,203,4100307,,,2023-06-15,清算の結了等,,,2015-10-05,1,,,,,ニューフット,0
635,3120001227528,登記記録の閉鎖等,0,2023-06-20,2023-06-15,尤渓株式会社,,株式会社,大阪府,大阪市西成区,鶴見橋２丁目１１－１５,,27,122,5570031,,,2023-06-15,清算の結了等,,,2020-03-04,1,,,,,ユウシ,0
652,3140001015245,登記記録の閉鎖等,0,2023-06-20,2023-06-16,株式会社ときわや貸衣裳店,,株式会社,兵庫県,神戸市垂水区,宮本町５番１号わたつみ会館内,,28,108,6550028,,,2023-06-16,清算の結了等,,,2015-10-05,1,,,,,トキワヤカシイショウテン,0
661,3180001040438,登記記録の閉鎖等,0,2023-06-20,2023-06-16,株式会社プレスアソシエーツ,,株式会社,愛知県,名古屋市中区,丸の内２丁目３番３１号,,23,106,4600002,,,2023-06-16,清算の結了等,,,2015-10-05,1,,,,,プレスアソシエーツ,0
672,3200002001428,登記記録の閉鎖等,0,2023-06-20,2023-06-19,有限会社共栄鈑金,,有限会社,岐阜県,岐阜市,折立石場５４６番地の１,,21,201,5011132,,,2023-06-19,清算の結了等,,,2015-10-05,1,,,,,キョウエイバンキン,0
676,3230001006078,登記記録の閉鎖等,0,2023-06-20,2023-06-19,株式会社ブランジェまさ屋,,株式会社,富山県,富山市,婦中町笹倉４８９番地２,,16,201,9392753,,,2023-06-19,清算の結了等,,,2015-10-05,1,,,,,ブランジェマサヤ,0
687,3290001046837,登記記録の閉鎖等,0,2023-06-20,2023-06-09,株式会社みわちゃんカキ,,株式会社,福岡県,糸島市,志摩久家１７５７番地５,,40,230,8191331,,,2023-06-09,清算の結了等,,,2015-10-05,1,,,,,ミワチャンカキ,0
712,3370802001858,登記記録の閉鎖等,0,2023-06-20,2023-06-15,有限会社池沢,,有限会社,宮城県,名取市,相互台１丁目９番地の３,,04,207,9811246,,,2023-06-15,清算の結了等,,,2015-10-05,1,,,,,イケザワ,0
735,4010001103045,登記記録の閉鎖等,0,2023-06-20,2023-06-01,ＬＫプロパティ株式会社,,株式会社,千葉県,富里市,七栄６４６番地８３９,,12,233,2860221,,,2023-06-01,清算の結了等,,,2015-10-05,1,,,,,エルケイプロパティ,0
738,4010001201294,登記記録の閉鎖等,0,2023-06-20,2023-06-14,株式会社テトラセラミス研究所,,株式会社,東京都,中央区,日本橋１丁目１８番１４号,,13,102,1030027,,,2023-06-14,清算の結了等,,,2019-06-05,1,,,,,テトラセラミスケンキュウショ,0
743,4010005028024,登記記録の閉鎖等,0,2023-06-20,2023-06-16,一般社団法人ＭＲＲＧ,,その他の設立登記法人,東京都,千代田区,丸の内３丁目１番１号東京共同会計事務所内,,13,101,1000005,,,2023-06-16,清算の結了等,,,2018-01-25,1,,,,,エムアールアールジー,0
749,4010403020219,登記記録の閉鎖等,0,2023-06-20,2023-06-07,合同会社アイリス,,合同会社,東京都,港区,六本木６丁目１０番１号六本木ヒルズ森タワー,,13,103,1060032,,,2023-06-07,清算の結了等,,,2019-02-21,1,,,,,アイリス,0
750,4010403021349,登記記録の閉鎖等,0,2023-06-20,2023-06-07,合同会社ユーコン,,合同会社,東京都,港区,六本木６丁目１０番１号六本木ヒルズ森タワー,,13,103,1060032,,,2023-06-07,清算の結了等,,,2019-08-30,1,,,,,ユーコン,0
757,4010901033696,登記記録の閉鎖等,0,2023-06-20,2023-06-15,株式会社りらケア,,株式会社,東京都,世田谷区,赤堤１丁目１４－１８－１０２,,13,112,1560044,,,2023-06-15,清算の結了等,,,2015-10-05,1,,,,,リラケア,0
761,4011001058304,登記記録の閉鎖等,0,2023-06-20,2023-06-19,マイケルギオン株式会社,,株式会社,東京都,新宿区,矢来町９４番地,,13,104,1620805,,,2023-06-19,清算の結了等,,,2015-10-05,1,,,,,マイケルギオン,0
764,4011001144277,登記記録の閉鎖等,0,2023-06-20,2023-06-15,株式会社フレイ・コンサルティング,,株式会社,東京都,渋谷区,道玄坂１丁目１２番１号,,13,113,1500043,,,2023-06-15,清算の結了等,,,2021-11-29,1,,,,,フレイコンサルティング,0
769,4011002027588,登記記録の閉鎖等,0,2023-06-20,2023-06-15,有限会社Ｔ．Ｉ．Ｍ．ｐａｒｔｎｅｒ,,有限会社,東京都,渋谷区,恵比寿３丁目２８番１２号,,13,113,1500013,,,2023-06-15,清算の結了等,,,2015-10-05,1,,,,,ティアイエムパートナー,0
786,4011801018993,登記記録の閉鎖等,0,2023-06-20,2023-05-31,株式会社興建社,,株式会社,埼玉県,三郷市,中央２丁目２９番地１,,11,237,3410038,,,2023-05-31,合併による解散等,5011801002939,令和５年５月３１日埼玉県三郷市中央二丁目２９番地１株式会社中央商会（5011801002939）に合併し解散,2015-10-05,1,,,,,コウケンシャ,0
802,4020001122325,登記記録の閉鎖等,0,2023-06-20,2023-06-12,ウノティス株式会社,,株式会社,神奈川県,横浜市港北区,菊名５丁目２０番１０号,,14,109,2220011,,,2023-06-12,清算の結了等,,,2017-07-21,1,,,,,ウノティス,0
805,4020002070812,登記記録の閉鎖等,0,2023-06-20,2023-06-16,株式会社ロザンマンション,,株式会社,東京都,江戸川区,東小岩３丁目７番１８号,,13,123,1330052,,,2023-06-16,清算の結了等,,,2015-10-05,1,,,,,ロザンマンション,0
815,4030001011857,登記記録の閉鎖等,0,2023-06-20,2023-06-02,エムズワン株式会社,,株式会社,埼玉県,さいたま市大宮区,桜木町１丁目９番地１８タナカビル６階,,11,103,3300854,,,2023-06-02,清算の結了等,,,2015-10-05,1,,,,,エムズワン,0
817,4030001061943,登記記録の閉鎖等,0,2023-06-20,2023-06-06,株式会社エスティーエム,,株式会社,埼玉県,北本市,大字下石戸下１５０９番地６,,11,233,3640023,,,2023-06-06,清算の結了等,,,2015-10-05,1,,,,,エスティーエム,0
852,4080105000140,登記記録の閉鎖等,0,2023-06-20,2023-06-16,社会福祉法人江月会,,その他の設立登記法人,静岡県,沼津市,内浦三津１１１番地,,22,203,4100223,,,2023-06-16,清算の結了等,,,2015-10-05,1,,,,,コウゲツカイ,0
878,4120002043122,登記記録の閉鎖等,0,2023-06-20,2023-06-09,有限会社エスアンドエー,,有限会社,大阪府,大阪市旭区,高殿６丁目２２番１６号,,27,117,5350031,,,2023-06-09,清算の結了等,,,2015-10-05,1,,,,,エスアンドエー,0
894,4140002026612,登記記録の閉鎖等,0,2023-06-20,2023-06-16,有限会社フジワラ,,有限会社,兵庫県,神戸市中央区,港島中町６丁目２番地の１神戸パークシティ１号棟６０４号,,28,110,6500046,,,2023-06-16,清算の結了等,,,2015-10-05,1,,,,,フジワラ,0
901,4180002087097,登記記録の閉鎖等,0,2023-06-20,2023-06-16,有限会社グラスルーツ・アソシエイト,,有限会社,愛知県,名古屋市中川区,八熊通５丁目４３番地,,23,110,4540035,,,2023-06-16,清算の結了等,,,2015-10-05,1,,,,,グラスルーツアソシエイト,0
902,4180003001387,登記記録の閉鎖等,0,2023-06-20,2023-06-15,合資会社中京金属工業所,,合資会社,愛知県,名古屋市北区,上飯田南町１丁目３８番地,,23,103,4620804,,,2023-06-15,清算の結了等,,,2015-10-05,1,,,,,チュウキョウキンゾクコウギョウショ,0
907,4180302009833,登記記録の閉鎖等,0,2023-06-20,2023-06-12,有限会社まつりや,,有限会社,愛知県,豊橋市,西山町字西山３７７番地の２,,23,201,4413121,,,2023-06-12,清算の結了等,,,2015-10-05,1,,,,,マツリヤ,0
917,4230001005013,登記記録の閉鎖等,0,2023-06-20,2023-05-31,千里商事株式会社,,株式会社,富山県,富山市,八尾町井田新１０番地,,16,201,9392305,,,2023-05-31,合併による解散等,2230001005015,令和５年５月３１日富山市八尾町東町２２２８番地八尾生コン株式会社（2230001005015）に合併し解散,2015-10-05,1,,,,,チサトショウジ,0
931,4290001067667,登記記録の閉鎖等,0,2023-06-20,2023-06-15,株式会社ウィステリア,,株式会社,福岡県,福岡市博多区,冷泉町２－１２ノアーズアーク博多祇園１００８,,40,132,8120039,,,2023-06-15,合併による解散等,5030001100758,令和５年６月１日埼玉県さいたま市大宮区高鼻町一丁目４９明和マンション１Ｆ株式会社ＺＥＲＯ（5030001100758）に合併し解散,2015-10-05,1,,,,,ウィステリア,0
933,4290001074201,登記記録の閉鎖等,0,2023-06-20,2023-06-15,ジントラスト株式会社,,株式会社,福岡県,久留米市,城南町１０番地９,,40,203,8300022,,,2023-06-15,清算の結了等,,,2016-06-07,1,,,,,ジントラスト,0
940,4290003004569,登記記録の閉鎖等,0,2023-06-20,2023-06-16,合同会社ブレス,,合同会社,福岡県,大野城市,南大利１丁目８番１２号,,40,219,8160956,,,2023-06-16,清算の結了等,,,2015-10-05,1,,,,,,0
955,4340005008240,登記記録の閉鎖等,0,2023-06-20,2023-06-16,特定非営利活動法人かごしま地域食堂支援協会,,その他の設立登記法人,鹿児島県,鹿児島市,新屋敷町１６番公社ビル２１５号協働オフィス,,46,201,8920838,,,2023-06-16,清算の結了等,,,2015-10-05,1,,,,,カゴシマチイキショクドウシエンキョウカイ,0
956,4350001008879,登記記録の閉鎖等,0,2023-06-20,2023-06-13,株式会社三甲農園,,株式会社,宮崎県,都城市,乙房町１６７１番地１３,,45,202,8850112,,,2023-06-13,清算の結了等,,,2015-10-05,1,,,,,サンコウノウエン,0
961,4350002017870,登記記録の閉鎖等,0,2023-06-20,2023-06-13,有限会社スーパーかまた,,有限会社,宮崎県,小林市,東方３９２８番地の１,,45,205,8860001,,,2023-06-13,清算の結了等,,,2015-10-05,1,,,,,スーパーカマタ,0
972,4380001017464,登記記録の閉鎖等,0,2023-06-20,2023-06-14,サンライフ株式会社,,株式会社,福島県,会津若松市,大町１丁目９番２９号,,07,202,9650042,,,2023-06-14,清算の結了等,,,2015-10-05,1,,,,,サンライフ,0
974,4390002002118,登記記録の閉鎖等,0,2023-06-20,2023-06-14,有限会社沼の辺印刷,,有限会社,山形県,山形市,沼の辺町１０番１０号,,06,201,9900007,,,2023-06-14,清算の結了等,,,2015-10-05,1,,,,,ヌマノベインサツ,0
1001,5010002046250,登記記録の閉鎖等,0,2023-06-20,2023-06-13,有限会社高崎ＳＰＣ,,有限会社,東京都,千代田区,有楽町１丁目５番１号,,13,101,1000006,,,2023-06-13,清算の結了等,,,2015-10-05,1,,,,,タカサキエスピーシー,0
1013,5010401153201,登記記録の閉鎖等,0,2023-06-20,2023-06-06,株式会社ＳｅｓｓｉｏｎＴｒｅｅ,,株式会社,東京都,港区,浜松町２丁目２番１５号,,13,103,1050013,,,2023-06-06,清算の結了等,,,2020-06-05,1,,,,,セッションツリー,0
1025,5010802012435,登記記録の閉鎖等,0,2023-06-20,2023-06-14,福栄電機有限会社,,有限会社,東京都,大田区,大森西２丁目１７番１９号,,13,111,1430015,,,2023-06-14,清算の結了等,,,2015-10-05,1,,,,,フクエイデンキ,0
1038,5011002012655,登記記録の閉鎖等,0,2023-06-20,2023-06-19,有限会社吉川タイル工業,,有限会社,東京都,渋谷区,代々木３丁目３０番２－６０３号,,13,113,1510053,,,2023-06-19,清算の結了等,,,2015-10-05,1,,,,,,0
1041,5011101052949,登記記録の閉鎖等,0,2023-06-20,2023-06-16,株式会社プライムアセット,,株式会社,東京都,新宿区,新宿２丁目９番１８号,,13,104,1600022,,,2023-06-16,清算の結了等,,,2015-10-05,1,,,,,プライムアセット,0
1066,5020001079449,登記記録の閉鎖等,0,2023-06-20,2023-06-12,株式会社シーズ,,株式会社,神奈川県,川崎市中原区,新丸子東１丁目８３１番地,,14,133,2110004,,,2023-06-12,清算の結了等,,,2015-10-05,1,,,,,シーズ,0
1069,5020003013109,登記記録の閉鎖等,0,2023-06-20,2023-06-01,合同会社グリーンメイ,,合同会社,千葉県,松戸市,松戸１２２８番地の１松戸ステーションビル５Ｆ,,12,207,2710092,,,2023-06-01,合併による解散等,2020003010926,令和５年６月１日千葉県松戸市松戸１２２８番地の１松戸ステーションビル５Ｆ合同会社ウォルミック（2020003010926）に合併し解散,2017-07-21,1,,,,,グリーンメイ,0
1077,5021001046810,登記記録の閉鎖等,0,2023-06-20,2023-06-15,株式会社閑閑房,,株式会社,神奈川県,藤沢市,川名７１８番地の１ショーナニアン４０２,,14,205,2510015,,,2023-06-15,清算の結了等,,,2015-10-05,1,,,,,カンカンボウ,0
1110,5050002027899,登記記録の閉鎖等,0,2023-06-20,2023-06-13,有限会社山幸石油,,有限会社,茨城県,神栖市,波崎８８１６番地１５,,08,232,3140408,,,2023-06-13,清算の結了等,,,2015-10-05,1,,,,,ヤマコウセキユ,0
1118,5080002009572,登記記録の閉鎖等,0,2023-06-20,2023-06-19,有限会社カーライフ・ヤナギ,,有限会社,静岡県,静岡市清水区,楠２２５番地の２,,22,103,4240881,,,2023-06-19,清算の結了等,,,2015-10-05,1,,,,,,0
1126,5100002034295,登記記録の閉鎖等,0,2023-06-20,2023-06-14,有限会社ＦＥＣ,,有限会社,長野県,駒ヶ根市,赤穂４５８３番地１,,20,210,3994117,,,2023-06-14,清算の結了等,,,2015-10-05,1,,,,,エフイーシー,0
1143,5120002038468,登記記録の閉鎖等,0,2023-06-20,2023-06-15,有限会社ペリオドカンパニー,,有限会社,大阪府,大阪市中央区,大手通２丁目２番６号,,27,128,5400021,,,2023-06-15,清算の結了等,,,2015-10-05,1,,,,,ペリオドカンパニー,0
1154,5120901027488,登記記録の閉鎖等,0,2023-06-20,2023-06-15,阪南シーリング株式会社,,株式会社,大阪府,大阪市中央区,鎗屋町１丁目４番１号鎗屋アパートメント,,27,128,5400027,,,2023-06-15,清算の結了等,,,2015-10-05,1,,,,,,0
1170,5140001038780,登記記録の閉鎖等,0,2023-06-20,2023-06-15,株式会社クリーンショップ,,株式会社,兵庫県,たつの市,新宮町香山１９０番地の５,,28,229,6794302,,,2023-06-15,清算の結了等,,,2015-10-05,1,,,,,クリーンショップ,0
1186,5170003001602,登記記録の閉鎖等,0,2023-06-20,2023-06-15,ブランネーロ合同会社,,合同会社,大阪府,大阪市北区,曾根崎２丁目１１番１６号,,27,127,5300057,,,2023-06-15,清算の結了等,,,2021-07-19,1,,,,,,0
1187,5180001093038,登記記録の閉鎖等,0,2023-06-20,2023-06-16,鐘清織布株式会社,,株式会社,愛知県,知多郡美浜町,大字布土字上村８０番地,,23,446,4702401,,,2023-06-16,清算の結了等,,,2015-10-05,1,,,,,カネセイショクフ,0
1194,5180002085785,登記記録の閉鎖等,0,2023-06-20,2023-06-16,有限会社カネセイ,,有限会社,愛知県,知多郡美浜町,大字布土字上村８０番地,,23,446,4702401,,,2023-06-16,清算の結了等,,,2015-10-05,1,,,,,カネセイ,0
1210,5230002000367,登記記録の閉鎖等,0,2023-06-20,2023-06-16,有限会社インテリア細井,,有限会社,富山県,富山市,四ツ葉町２２番５６号,,16,201,9300841,,,2023-06-16,清算の結了等,,,2015-10-05,1,,,,,インテリアホソイ,0
1215,5260001025949,登記記録の閉鎖等,0,2023-06-20,2023-06-15,株式会社ジェジェスタ,,株式会社,岡山県,岡山市南区,浜野４丁目２１番３号,,33,104,7000845,,,2023-06-15,合併による解散等,4260001023193,令和５年６月１５日岡山市南区浜野四丁目２１番３号株式会社ＴＡＰコーポレーション（4260001023193）に合併し解散,2015-10-05,1,,,,,ジェジェスタ,0
1262,5420001008631,登記記録の閉鎖等,0,2023-06-20,2023-06-14,株式会社電気工事サービス,,株式会社,青森県,五所川原市,若葉２丁目３番１７号,,02,205,0370069,,,2023-06-14,清算の結了等,,,2015-10-05,1,,,,,デンキコウジサービス,0
1268,5430001074334,登記記録の閉鎖等,0,2023-06-20,2023-06-01,ＡＴアセットマネージメント株式会社,,株式会社,北海道,札幌市白石区,菊水上町四条４丁目９５番地１,,01,104,0030814,,,2023-06-01,合併による解散等,4430001055203,令和５年６月１日北海道日高郡新ひだか町静内中野町一丁目１３番８号會澤高圧コンクリート株式会社（4430001055203）に合併し解散,2017-06-08,1,,,,,エーティーアセットマネージメント,0
1318,6010403021636,登記記録の閉鎖等,0,2023-06-20,2023-06-07,合同会社八重洲プロパティ,,合同会社,東京都,港区,六本木６丁目１０番１号六本木ヒルズ森タワー,,13,103,1060032,,,2023-06-07,清算の結了等,,,2019-10-15,1,,,,,ヤエスプロパティ,0
1320,6010501014566,登記記録の閉鎖等,0,2023-06-20,2023-05-31,村山株式会社,,株式会社,千葉県,市川市,八幡５丁目１０番８号,,12,203,2720021,,,2023-05-31,清算の結了等,,,2015-10-05,1,,,,,ムラヤマ,0
1331,6010903006847,登記記録の閉鎖等,0,2023-06-20,2023-06-16,超満室コンサルティング合同会社,,合同会社,東京都,世田谷区,宮坂２丁目２６番２４号,,13,112,1560051,,,2023-06-16,清算の結了等,,,2021-10-06,1,,,,,チョウマンシツコンサルティング,0
1332,6011001073029,登記記録の閉鎖等,0,2023-06-20,2023-06-19,株式会社Ｄ－ｃｌｏｕｄ,,株式会社,東京都,渋谷区,南平台町４－８南平台アジアマンション３０１,,13,113,1500036,,,2023-06-19,清算の結了等,,,2015-10-05,1,,,,,ディークラウド,0
1341,6011101053624,登記記録の閉鎖等,0,2023-06-20,2023-06-13,株式会社ダイヤモンドカンパニー,,株式会社,神奈川県,川崎市川崎区,南町２１番８－１３０４号,,14,131,2100015,,,2023-06-13,清算の結了等,,,2015-10-05,1,,,,,ダイヤモンドカンパニー,0
1368,6020001093498,登記記録の閉鎖等,0,2023-06-20,2023-06-12,株式会社ＨＩＴ,,株式会社,神奈川県,横浜市中区,北方町１丁目６８番地４コスモ本牧北方町３０１号室,,14,104,2310865,,,2023-06-12,清算の結了等,,,2015-10-05,1,,,,,,0
1369,6020001112035,登記記録の閉鎖等,0,2023-06-20,2023-06-13,株式会社ニューシステムホールディング,,株式会社,神奈川県,横浜市保土ケ谷区,釜台町５番２－８０４号,,14,106,2400066,,,2023-06-13,清算の結了等,,,2015-10-05,1,,,,,ニューシステムホールディング,0
1373,6020002035870,登記記録の閉鎖等,0,2023-06-20,2023-06-13,有限会社松見産業,,有限会社,神奈川県,横浜市港北区,小机町５４３番地３,,14,109,2220036,,,2023-06-13,清算の結了等,,,2015-10-05,1,,,,,,0
1376,6020002042157,登記記録の閉鎖等,0,2023-06-20,2023-06-13,有限会社きじまや商店,,有限会社,神奈川県,横浜市中区,本郷町２丁目４７番地,,14,104,2310843,,,2023-06-13,清算の結了等,,,2015-10-05,1,,,,,キジマヤショウテン,0
1382,6030001050291,登記記録の閉鎖等,0,2023-06-20,2023-06-01,株式会社Ｓａｉ,,株式会社,埼玉県,朝霞市,幸町１丁目１２番８号,,11,227,3510015,,,2023-06-01,清算の結了等,,,2015-10-05,1,,,,,サイ,0
1388,6030002095617,登記記録の閉鎖等,0,2023-06-20,2023-06-02,有限会社エービーコントロール,,有限会社,埼玉県,東松山市,大字下野本７２３番地,,11,212,3550036,,,2023-06-02,清算の結了等,,,2015-10-05,1,,,,,エービーコントロール,0
1397,6040002091078,登記記録の閉鎖等,0,2023-06-20,2023-06-02,有限会社ハウジング・トリイ,,有限会社,千葉県,柏市,旭町６丁目５番１１号,,12,217,2770852,,,2023-06-02,清算の結了等,,,2015-10-05,1,,,,,ハウジングトリイ,0
1400,6050003001134,登記記録の閉鎖等,0,2023-06-20,2023-06-14,合同会社陶芸舎,,合同会社,茨城県,土浦市,板谷１丁目３９７３番地２,,08,203,3000007,,,2023-06-14,清算の結了等,,,2015-10-05,1,,,,,トウゲイシャ,0
1411,6090001009448,登記記録の閉鎖等,0,2023-06-20,2023-06-12,株式会社Ｂｅｓｔ,,株式会社,山梨県,甲州市,勝沼町小佐手２３６番地３,,19,213,4091303,,,2023-06-12,清算の結了等,,,2015-10-05,1,,,,,ベスト,0
1416,6100002025186,登記記録の閉鎖等,0,2023-06-20,2023-06-14,有限会社原板金製作所,,有限会社,長野県,塩尻市,大字広丘野村８７５番地６,,20,215,3990702,,,2023-06-14,清算の結了等,,,2015-10-05,1,,,,,ハラバンキンセイサクショ,0
1421,6120001014072,登記記録の閉鎖等,0,2023-06-20,2023-06-15,株式会社大阪タック加工センター,,株式会社,大阪府,大阪市東成区,東小橋２丁目２番１６号,,27,115,5370024,,,2023-06-15,清算の結了等,,,2015-10-05,1,,,,,,0
1456,6140002042665,登記記録の閉鎖等,0,2023-06-20,2023-06-14,有限会社丸巌,,有限会社,兵庫県,尼崎市,潮江３丁目２１番６号,,28,202,6610976,,,2023-06-14,清算の結了等,,,2015-10-05,1,,,,,マルゲン,0
1462,6160001003303,登記記録の閉鎖等,0,2023-06-20,2023-06-16,株式会社我楽,,株式会社,滋賀県,大津市,大将軍１丁目１５番５８号,,25,201,5202145,,,2023-06-16,清算の結了等,,,2015-10-05,1,,,,,ワラク,0
1470,6180001146190,登記記録の閉鎖等,0,2023-06-20,2023-06-14,株式会社エコプライス,,株式会社,愛知県,名古屋市中村区,名駅２丁目３８番２号オーキッドビル８階,,23,105,4500002,,,2023-06-14,清算の結了等,,,2021-05-26,1,,,,,エコプライス,0
1489,6260001029858,登記記録の閉鎖等,0,2023-06-20,2023-06-16,株式会社一期一縁,,株式会社,岡山県,岡山市南区,妹尾３２３４番地２０,,33,104,7010205,,,2023-06-16,清算の結了等,,,2016-08-05,1,,,,,イチゴイチエン,0
1501,6290801018974,登記記録の閉鎖等,0,2023-06-20,2023-06-19,株式会社するがだい管理,,株式会社,福岡県,北九州市八幡西区,木屋瀬２丁目３２番２－１００２号,,40,109,8071261,,,2023-06-19,清算の結了等,,,2015-10-05,1,,,,,,0
1506,6340001012401,登記記録の閉鎖等,0,2023-06-20,2023-06-15,株式会社西日本ハウジング,,株式会社,鹿児島県,薩摩郡さつま町,宮之城屋地１５７６番地５,,46,392,8951803,,,2023-06-15,合併による解散等,9340001008520,令和５年６月１５日鹿児島県薩摩川内市中郷三丁目１１２番地株式会社公共補償コンサルタント（9340001008520）に合併し解散,2015-10-05,1,,,,,ニシニホンハウジング,0
1531,6490002013012,登記記録の閉鎖等,0,2023-06-20,2023-06-15,有限会社和食屋分店,,有限会社,高知県,安芸市,本町３丁目２番３１号,,39,203,7840004,,,2023-06-15,清算の結了等,,,2015-10-05,1,,,,,ワジキヤブンテン,0
1553,7010401161136,登記記録の閉鎖等,0,2023-06-20,2023-06-07,株式会社ＤＭＭオンクレ,,株式会社,東京都,港区,六本木３丁目２番１号,,13,103,1060032,,,2023-06-07,合併による解散等,3011001038942,令和５年６月１日東京都港区六本木三丁目２番１号合同会社ＤＭＭ．ｃｏｍ（3011001038942）に合併し解散,2021-06-28,1,,,,,ディーエムエムオンクレ,0
1558,7010403016750,登記記録の閉鎖等,0,2023-06-20,2023-06-07,合同会社ジャパン・ケア・ファシリティーズ・ツー,,合同会社,東京都,港区,六本木６丁目１０番１号六本木ヒルズ森タワー,,13,103,1060032,,,2023-06-07,清算の結了等,,,2017-06-09,1,,,,,ジャパンケアファシリティーズツー,0
1561,7010501047210,登記記録の閉鎖等,0,2023-06-20,2023-06-16,川崎軽工業株式会社,,株式会社,東京都,台東区,上野３丁目１１番５号,,13,106,1100005,,,2023-06-16,清算の結了等,,,2021-04-26,1,,,,,カワサキケイコウギョウ,0
1567,7010901036135,登記記録の閉鎖等,0,2023-06-20,2023-06-15,Ｎｏｒｄｉｃ　Ｉｎｄｅｘ株式会社,,株式会社,東京都,渋谷区,渋谷３丁目１２番２号,,13,113,1500002,,,2023-06-15,清算の結了等,,,2015-10-05,1,,,,,ノルディックインデックス,0
1582,7011301012734,登記記録の閉鎖等,0,2023-06-20,2023-06-16,株式会社ＡＭＩ,,株式会社,東京都,杉並区,堀ノ内２丁目３７番１３号,,13,115,1660013,,,2023-06-16,清算の結了等,,,2015-10-05,1,,,,,,0
1591,7011801035945,登記記録の閉鎖等,0,2023-06-20,2023-06-15,ロックブリッジ輸送株式会社,,株式会社,東京都,足立区,西新井３丁目５番１－１００２号,,13,121,1230841,,,2023-06-15,清算の結了等,,,2019-04-04,1,,,,,ロックブリッジユソウ,0
1650,7080001018110,登記記録の閉鎖等,0,2023-06-20,2023-06-19,株式会社大栄,,株式会社,静岡県,焼津市,越後島５８４番地,,22,212,4250092,,,2023-06-19,清算の結了等,,,2015-10-05,1,,,,,ダイエイ,0
1651,7080101009942,登記記録の閉鎖等,0,2023-06-20,2023-06-15,株式会社吉原保温工業所,00067810,株式会社,静岡県,富士市,原田６３４番地の１,,22,210,4170852,,,2023-06-15,清算の結了等,,,2015-10-05,1,,,,,ヨシワラホオンコウギョウショ,0
1664,7110002030102,登記記録の閉鎖等,0,2023-06-20,2023-06-06,有限会社ほるぷ２１,,有限会社,新潟県,長岡市,日赤町２丁目２番１４号,,15,202,9400095,,,2023-06-06,清算の結了等,,,2015-10-05,1,,,,,ホルプニジュウイチ,0
1668,7120001137244,登記記録の閉鎖等,0,2023-06-20,2023-06-15,中島機械株式会社,,株式会社,大阪府,大阪市中央区,南本町１丁目６番７－３５０１号,,27,128,5410054,,,2023-06-15,清算の結了等,,,2015-10-05,1,,,,,ナカジマキカイ,0
1689,7140001061302,登記記録の閉鎖等,0,2023-06-20,2023-06-14,株式会社フクサヤ,,株式会社,兵庫県,姫路市,広畑区末広町３丁目４番地の２,,28,201,6711115,,,2023-06-14,清算の結了等,,,2015-10-05,1,,,,,フクサヤ,0
1695,7140001108689,登記記録の閉鎖等,0,2023-06-20,2023-06-14,株式会社阪神計器設備,,株式会社,東京都,杉並区,方南１丁目３３番２３号,,13,115,1680062,,,2023-06-14,清算の結了等,,,2018-01-10,1,,,,,ハンシンケイキセツビ,0
1700,7140002036724,登記記録の閉鎖等,0,2023-06-20,2023-06-14,有限会社宮脇測量設計,,有限会社,兵庫県,加古川市,尾上町養田２丁目１９番地の３,,28,210,6750025,,,2023-06-14,清算の結了等,,,2015-10-05,1,,,,,ミヤワキソクリョウセッケイ,0
1716,7180002015880,登記記録の閉鎖等,0,2023-06-20,2023-06-16,有限会社米鎌,,有限会社,愛知県,名古屋市東区,泉１丁目１番１７号,,23,102,4610001,,,2023-06-16,清算の結了等,,,2015-10-05,1,,,,,コメカマ,0
1717,7180002076171,登記記録の閉鎖等,0,2023-06-20,2023-06-15,有限会社北原一建設,,有限会社,愛知県,一宮市,森本４丁目１７番１号,,23,203,4910831,,,2023-06-15,清算の結了等,,,2015-10-05,1,,,,,キタハラハジメケンセツ,0
1719,7180005017305,登記記録の閉鎖等,0,2023-06-20,2023-06-14,一般社団法人ナゴヤランレディ,,その他の設立登記法人,愛知県,名古屋市東区,代官町３９番２２号,,23,102,4610002,,,2023-06-14,清算の結了等,,,2017-05-08,1,,,,,ナゴヤランレディ,0
1722,7200002002380,登記記録の閉鎖等,0,2023-06-20,2023-06-16,有限会社シャンブル,,有限会社,岐阜県,岐阜市,宇佐１丁目６番１２号,,21,201,5008368,,,2023-06-16,清算の結了等,,,2015-10-05,1,,,,,シャンブル,0
1764,7340001008910,登記記録の閉鎖等,0,2023-06-20,2023-06-15,株式会社マイホーム九州,,株式会社,鹿児島県,薩摩川内市,中郷３丁目１１２番地,,46,215,8950072,,,2023-06-15,合併による解散等,9340001008520,令和５年６月１５日鹿児島県薩摩川内市中郷三丁目１１２番地株式会社公共補償コンサルタント（9340001008520）に合併し解散,2015-10-05,1,,,,,マイホームキュウシュウ,0
1779,7430001035202,登記記録の閉鎖等,0,2023-06-20,2023-06-05,株式会社イーストステージ,,株式会社,北海道,札幌市清田区,平岡三条４丁目１３番２号,,01,110,0040873,,,2023-06-05,清算の結了等,,,2015-10-05,1,,,,,イーストステージ,0
1781,7430002032165,登記記録の閉鎖等,0,2023-06-20,2023-06-15,株式会社ピントハウス,,株式会社,北海道,札幌市中央区,北五条西２８丁目１番５号２８丁目ビル２階Ａ,,01,101,0640825,,,2023-06-15,清算の結了等,,,2015-10-05,1,,,,,ピントハウス,0
1805,8010005006249,登記記録の閉鎖等,0,2023-06-20,2023-06-14,特定非営利活動法人日本薬局管理学研究会,,その他の設立登記法人,東京都,中央区,明石町１１番１５号,,13,102,1040044,,,2023-06-14,清算の結了等,,,2015-10-05,1,,,,,ニホンヤッキョクカンリガクケンキュウカイ,0
1808,8010401052961,登記記録の閉鎖等,0,2023-06-20,2023-06-14,株式会社ケイ・シー・シー,,株式会社,茨城県,結城市,大字田間９８４番地１５,,08,207,3070044,,,2023-06-14,清算の結了等,,,2015-10-05,1,,,,,ケイシーシー,0
1820,8010403015693,登記記録の閉鎖等,0,2023-06-20,2023-06-06,ブロードストリートインベストメンツジャパンファンドワン合同会社,,合同会社,東京都,港区,六本木６丁目１０番１号六本木ヒルズ森タワー,,13,103,1060032,,,2023-06-06,清算の結了等,,,2016-12-02,1,,,,,ブロードストリートインベストメンツジャパンファンドワン,0
1821,8010403020470,登記記録の閉鎖等,0,2023-06-20,2023-06-06,合同会社Ｍａｓｃｕｌｉｎｅ　Ｔｏｋｙｏ,,合同会社,東京都,港区,芝浦４丁目１９－１芝浦アイランドケープタワー３９０６,,13,103,1080023,,,2023-06-06,清算の結了等,,,2019-04-01,1,,,,,マスキュリントーキョー,0
1823,8010405000017,登記記録の閉鎖等,0,2023-06-20,2023-06-15,公益財団法人アジア教育文化交流協会,,その他の設立登記法人,東京都,台東区,花川戸２丁目１６－８ヴェルデ花川戸,,13,106,1110033,,,2023-06-15,清算の結了等,,,2015-10-05,1,,,,,アジアキョウイクブンカコウリュウキョウカイ,0
1826,8010602013812,登記記録の閉鎖等,0,2023-06-20,2023-06-15,有限会社ハクタ,,有限会社,東京都,墨田区,墨田３丁目２１番２０号,,13,107,1310031,,,2023-06-15,清算の結了等,,,2015-10-05,1,,,,,,0
1850,8011801020178,登記記録の閉鎖等,0,2023-06-20,2023-06-16,幸紀株式会社,,株式会社,東京都,葛飾区,西水元３丁目２３番１３号,,13,122,1250031,,,2023-06-16,清算の結了等,,,2015-10-05,1,,,,,コウキ,0
1855,8012702000104,登記記録の閉鎖等,0,2023-06-20,2023-06-14,有限会社秋田商店,,有限会社,東京都,小平市,花小金井１丁目１２番５号,,13,211,1870002,,,2023-06-14,清算の結了等,,,2015-10-05,1,,,,,アキタショウテン,0
1891,8050001047441,登記記録の閉鎖等,0,2023-06-20,2023-06-14,ＮＫＣエンジニアリング株式会社,,株式会社,茨城県,つくば市,香取台Ｂ４７－３,,08,220,3050000,,,2023-06-14,清算の結了等,,,2020-04-14,1,,,,,エヌケーシーエンジニアリング,0
1909,8100002009121,登記記録の閉鎖等,0,2023-06-20,2023-06-14,有限会社米村建設,,有限会社,長野県,上高井郡高山村,大字高井５０７０番地,,20,543,3820800,,,2023-06-14,清算の結了等,,,2015-10-05,1,,,,,ヨネムラケンセツ,0
1934,8120101048274,登記記録の閉鎖等,0,2023-06-20,2023-06-19,株式会社ワンダードリーム,,株式会社,大阪府,堺市北区,南花田町２３２番地１,,27,146,5918011,,,2023-06-19,清算の結了等,,,2015-10-05,1,,,,,,0
1952,8150005000915,登記記録の閉鎖等,0,2023-06-20,2023-06-16,奈良県米穀販売商業組合,,その他の設立登記法人,奈良県,奈良市,右京２丁目１番の２平城第２団地２９－２０２,,29,201,6310805,,,2023-06-16,清算の結了等,,,2015-10-05,1,,,,,ナラケンベイコクハンバイ,0
1954,8160002000743,登記記録の閉鎖等,0,2023-06-20,2023-06-15,有限会社湖西電設,,有限会社,滋賀県,大津市,坂本８丁目１１番２３号,,25,201,5200113,,,2023-06-15,清算の結了等,,,2015-10-05,1,,,,,コセイデンセツ,0
1957,8180001035680,登記記録の閉鎖等,0,2023-06-20,2023-06-19,ケーシン株式会社,,株式会社,愛知県,名古屋市天白区,表山１丁目１７２７番地プラウド八事６０７号,,23,116,4680069,,,2023-06-19,清算の結了等,,,2015-10-05,1,,,,,ケーシン,0
1966,8180305008746,登記記録の閉鎖等,0,2023-06-20,2023-06-12,一般社団法人豊橋式バイオガス発電協議会,,その他の設立登記法人,愛知県,豊橋市,大岩町字菅池１９番地１,,23,201,4413147,,,2023-06-12,清算の結了等,,,2018-01-15,1,,,,,トヨハシシキバイオガスハツデンキョウギカイ,0
1967,8190001001054,登記記録の閉鎖等,0,2023-06-20,2023-06-14,株式会社相続・信託サポートセンター,,株式会社,東京都,墨田区,押上１丁目１８番８－１４０２号,,13,107,1310045,,,2023-06-14,清算の結了等,,,2015-10-05,1,,,,,ソウゾクシンタクサポートセンター,0
1987,8260001027249,登記記録の閉鎖等,0,2023-06-20,2023-06-15,Ｔ＆Ｍガレージ株式会社,,株式会社,岡山県,倉敷市,連島町連島６３番地,,33,202,7128011,,,2023-06-15,清算の結了等,,,2015-10-05,1,,,,,ティーアンドエムガレージ,0
2022,8380005011807,登記記録の閉鎖等,0,2023-06-20,2023-06-12,特定非営利活動法人矢祭未来想成社,,その他の設立登記法人,福島県,東白川郡矢祭町,大字小田川字春田１６番地１,,07,482,9635119,,,2023-06-12,清算の結了等,,,2017-03-17,1,,,,,ヤマツリミライソウセイシャ,0
2023,8390001006421,登記記録の閉鎖等,0,2023-06-20,2023-06-14,ツバサ工業株式会社,,株式会社,山形県,酒田市,みずほ２丁目１２番地の１０,,06,204,9980853,,,2023-06-14,清算の結了等,,,2015-10-05,1,,,,,ツバサコウギョウ,0
2032,8430001083316,登記記録の閉鎖等,0,2023-06-20,2023-06-05,株式会社ヒペリア,,株式会社,北海道,砂川市,東五条北１０丁目１－７コーポセシル１０１,,01,226,0730155,,,2023-06-05,清算の結了等,,,2021-02-02,1,,,,,ヒペリア,0
2045,9010003027411,登記記録の閉鎖等,0,2023-06-20,2023-06-15,合同会社ＨＰＦ,,合同会社,東京都,江東区,東雲１丁目９－１８３３２号室,,13,108,1350062,,,2023-06-15,清算の結了等,,,2018-04-26,1,,,,,エイチピーエフ,0
2104,9020002106561,登記記録の閉鎖等,0,2023-06-20,2023-06-12,有限会社エム・エス・シー,,有限会社,神奈川県,川崎市幸区,南加瀬２丁目５番８号平林ビル２Ｆ,,14,132,2120055,,,2023-06-12,清算の結了等,,,2015-10-05,1,,,,,エムエスシー,0
2107,9020003017790,登記記録の閉鎖等,0,2023-06-20,2023-06-13,合同会社ナウラ,,合同会社,神奈川県,川崎市中原区,上小田中２丁目５番１４号,,14,133,2110053,,,2023-06-13,清算の結了等,,,2020-04-27,1,,,,,ナウラ,0
2115,9021001028565,登記記録の閉鎖等,0,2023-06-20,2023-06-07,株式会社ＴＴサービス,,株式会社,神奈川県,大和市,中央林間３丁目２８番２２号,,14,213,2420007,,,2023-06-07,合併による解散等,2021001028539,令和５年６月１日神奈川県大和市中央林間三丁目２８番２２号株式会社シンクテック・インベストメント（2021001028539）に合併し解散,2015-10-05,1,,,,,ティーティーサービス,0
2127,9030001101422,登記記録の閉鎖等,0,2023-06-20,2023-06-01,株式会社エヌ・フォレスト,,株式会社,埼玉県,秩父市,上町３丁目１２番４５号,,11,207,3680035,,,2023-06-01,合併による解散等,6030001091492,令和５年６月１日埼玉県秩父市上町三丁目１２番４５号株式会社中林（6030001091492）に合併し解散,2015-10-05,1,,,,,エヌフォレスト,0
2128,9030001121172,登記記録の閉鎖等,0,2023-06-20,2023-06-12,マテリア・テクノロジーズ株式会社,,株式会社,東京都,渋谷区,松濤１丁目２８－２,,13,113,1500046,,,2023-06-12,清算の結了等,,,2017-07-10,1,,,,,マテリアテクノロジーズ,0
2149,9070002031846,登記記録の閉鎖等,0,2023-06-20,2023-06-16,有限会社新鋭物流,,有限会社,群馬県,太田市,福沢町１５５番地,,10,205,3730831,,,2023-06-16,清算の結了等,,,2015-10-05,1,,,,,,0
2172,9120001179193,登記記録の閉鎖等,0,2023-06-20,2023-06-15,株式会社トップ・イン,,株式会社,大阪府,大阪市北区,曾根崎新地２丁目３番１３号,,27,127,5300002,,,2023-06-15,清算の結了等,,,2015-10-05,1,,,,,トップイン,0
2180,9120002072190,登記記録の閉鎖等,0,2023-06-20,2023-06-16,イースト運輸有限会社,,有限会社,大阪府,寝屋川市,高柳６丁目１番１０号,,27,215,5720051,,,2023-06-16,清算の結了等,,,2015-10-05,1,,,,,,0
2206,9140005003364,登記記録の閉鎖等,0,2023-06-20,2023-06-14,垂水商業協同組合,,その他の設立登記法人,兵庫県,神戸市垂水区,神田町６番４号,,28,108,6550027,,,2023-06-14,清算の結了等,,,2015-10-05,1,,,,,タルミショウギョウ,0
2209,9160005007504,登記記録の閉鎖等,0,2023-06-20,2023-06-13,角川生産森林組合,,その他の設立登記法人,滋賀県,高島市,今津町角川８７１番地,,25,212,5201648,,,2023-06-13,清算の結了等,,,2015-10-05,1,,,,,ツノガワ,0
2210,9180001024195,登記記録の閉鎖等,0,2023-06-20,2023-06-19,株式会社平野製作所,,株式会社,愛知県,名古屋市千種区,今池３丁目４０番１号,,23,101,4640850,,,2023-06-19,清算の結了等,,,2015-10-05,1,,,,,ヒラノセイサクショ,0
2213,9180001094494,登記記録の閉鎖等,0,2023-06-20,2023-06-16,坂野自動車工業株式会社,,株式会社,愛知県,東海市,荒尾町下畑７０番地,,23,222,4760003,,,2023-06-16,清算の結了等,,,2015-10-05,1,,,,,バンノジドウシャコウギョウ,0
2255,9380005011608,登記記録の閉鎖等,0,2023-06-20,2023-06-14,弁護士法人新白河総合法律事務所,,その他の設立登記法人,福島県,西白河郡西郷村,字道南西９３番地豊作ビル２０３，２０４号,,07,461,9618055,,,2023-06-14,清算の結了等,,,2016-02-09,1,,,,,シンシラカワソウゴウホウリツジムショ,0
2259,9400603000281,登記記録の閉鎖等,0,2023-06-20,2023-06-12,ＤＯＯＲ合同会社,,合同会社,岩手県,奥州市,水沢東大通り３丁目８番４号,,03,215,0230828,,,2023-06-12,清算の結了等,,,2015-10-05,1,,,,,ドア,0
2268,9450001004707,登記記録の閉鎖等,0,2023-06-20,2023-06-01,坪田電気株式会社,,株式会社,北海道,深川市,開西町１丁目４番１５号,,01,228,0740014,,,2023-06-01,合併による解散等,9450001002371,令和５年６月１日北海道深川市音江町字広里９３番地１７日東興業株式会社（9450001002371）に合併し解散,2015-10-05,1,,,,,ツボタデンキ,0
2272,9500001017059,登記記録の閉鎖等,0,2023-06-20,2023-06-16,とよた商会株式会社,,株式会社,愛媛県,松山市,此花町５番３２号,,38,201,7900863,,,2023-06-16,清算の結了等,,,2015-10-05,1,,,,,トヨタショウカイ,0
2273,9500005007634,登記記録の閉鎖等,0,2023-06-20,2023-06-19,一般社団法人えひめ発達支援協会,,その他の設立登記法人,愛媛県,松山市,歩行町２丁目１番地１８佐伯物産ビル２Ｆ,,38,201,7900801,,,2023-06-19,清算の結了等,,,2015-10-05,1,,,,,エヒメハッタツシエンキョウカイ,0
