sequenceNumber,corporateNumber,process,correct,updateDate,changeDate,name,nameImageId,kind,prefectureName,cityName,streetNumber,addressImageId,prefectureCode,cityCode,postCode,addressOutside,addressOutsideImageId,closeDate,closeCause,successorCorporateNumber,changeCause,assignmentDate,latest,enName,enPrefectureName,enCityName,enAddressOutside,furigana,hihyoji
6,1010001246581,新規,0,2024-07-17,2024-07-17,株式会社セッション・プライベート・エクイティ,,株式会社,東京都,千代田区,大手町１丁目６番１号大手町ビル１Ｆ－３ＦＳｐａｃｅｓ大手町,,13,101,1000004,,,,,,,2024-07-17,1,,,,,セッションプライベートエクイティ,0
7,1010001246598,新規,0,2024-07-17,2024-07-17,ＰＥＣＲＯＮ　ＪＡＰＡＮ株式会社,,株式会社,東京都,中央区,日本橋室町１丁目１１番１２号日本橋水野ビル７階,,13,102,1030022,,,,,,,2024-07-17,1,,,,,ペクロンジャパン,0
8,1010001246623,新規,0,2024-07-17,2024-07-17,バンユウホールディングス株式会社,,株式会社,東京都,千代田区,岩本町１丁目１１番２号,,13,101,1010032,,,,,,,2024-07-17,1,,,,,バンユウホールディングス,0
9,1010001246656,新規,0,2024-07-17,2024-07-17,株式会社想真,,株式会社,東京都,中央区,晴海５丁目４番１－１３０２号,,13,102,1040053,,,,,,,2024-07-17,1,,,,,ソウシン,0
10,1010003044323,新規,0,2024-07-17,2024-07-17,Ｄｒａｗｉｎｇ　Ｐａｄ合同会社,,合同会社,東京都,中央区,銀座１丁目１２－４Ｎ＆ＥＢＬＤ．７階,,13,102,1040061,,,,,,,2024-07-17,1,,,,,ドローイングパッド,0
11,1010101016232,新規,0,2024-07-17,2024-07-17,株式会社家守,,株式会社,東京都,八王子市,八幡町８－１第二長嶋ハイツ３０３,,13,201,1920053,,,,,,,2024-07-17,1,,,,,ヤモリ,0
26,1010401183854,新規,0,2024-07-17,2024-07-17,株式会社ＯＴＦ,,株式会社,東京都,港区,麻布台１丁目２番１－３１０３号,,13,103,1060041,,,,,,,2024-07-17,1,,,,,オーティーエフ,0
29,1010403033058,新規,0,2024-07-17,2024-07-17,Ｌａ　ＶＩＶＩＤ合同会社,,合同会社,東京都,港区,六本木４丁目１２番１１号秀栄ビル１階,,13,103,1060032,,,,,,,2024-07-17,1,,,,,ラヴィヴィッド,0
33,1010601065555,新規,0,2024-07-17,2024-07-17,株式会社Ｃ・Ｓｐａｃｅ,,株式会社,東京都,墨田区,東駒形２丁目１４番１号佐藤ビル２０１号,,13,107,1300005,,,,,,,2024-07-17,1,,,,,シースペース,0
34,1010603010897,新規,0,2024-07-17,2024-07-17,合同会社ＴＥＲＩＯＳ,,合同会社,東京都,墨田区,立花１丁目３０番９号,,13,107,1310043,,,,,,,2024-07-17,1,,,,,テリオス,0
35,1010701046257,新規,0,2024-07-17,2024-07-17,株式会社ＲｏｕｔｅＳｙｎｃ,,株式会社,東京都,品川区,小山１丁目８番２号,,13,109,1420062,,,,,,,2024-07-17,1,,,,,ルートシンク,0
41,1010901055628,新規,0,2024-07-17,2024-07-17,株式会社Ｆｌｏｗｓｅｅｄ,,株式会社,東京都,世田谷区,中町４丁目１４番３号ベルクレール中町１０１,,13,112,1580091,,,,,,,2024-07-17,1,,,,,フローシード,0
44,1011001163288,新規,0,2024-07-17,2024-07-17,株式会社フェアパートナーズ,,株式会社,東京都,目黒区,碑文谷５丁目２－５Ｔ＆Ａビル５Ｆ,,13,110,1520003,,,,,,,2024-07-17,1,,,,,フェアパートナーズ,0
45,1011001163305,新規,0,2024-07-17,2024-07-17,ＢＵＢＢＬＥ　ＬＩＮＥ株式会社,,株式会社,東京都,渋谷区,神宮前６丁目２３番４号桑野ビル２階,,13,113,1500001,,,,,,,2024-07-17,1,,,,,バブルライン,0
46,1011001163412,新規,0,2024-07-17,2024-07-17,Ａｄｊａｃｅｎｔ　Ｌａｂ株式会社,,株式会社,東京都,渋谷区,本町３丁目５１番１７号,,13,113,1510071,,,,,,,2024-07-17,1,,,,,アジャセントラボ,0
48,1011003019604,新規,0,2024-07-17,2024-07-17,ＣＣ　Ａｌｏｆｔ合同会社,,合同会社,東京都,目黒区,八雲３丁目２１番１２号,,13,110,1520023,,,,,,,2024-07-17,1,,,,,シーシーアロフト,0
55,1011403004453,新規,0,2024-07-17,2024-07-17,ＴＭＬＨ合同会社,,合同会社,東京都,板橋区,相生町１５番５－１０３０号,,13,119,1740044,,,,,,,2024-07-17,1,,,,,テイエムエルエイチ,0
57,1011501030913,新規,0,2024-07-17,2024-07-17,株式会社フラグネクサス・テクノロジーズ,,株式会社,東京都,荒川区,町屋１丁目２番１３号,,13,118,1160001,,,,,,,2024-07-17,1,,,,,フラグネクサステクノロジーズ,0
58,1011501030921,新規,0,2024-07-17,2024-07-17,六七碗株式会社,,株式会社,東京都,荒川区,東尾久２丁目２番９号三祥ビル２５０,,13,118,1160012,,,,,,,2024-07-17,1,,,,,ロクシチワン,0
64,1012401042098,新規,0,2024-07-17,2024-07-17,株式会社アンチエイジング普及協会,,株式会社,東京都,多摩市,鶴牧５丁目１２番地の１５,,13,224,2060034,,,,,,,2024-07-17,1,,,,,アンチエイジングフキュウキョウカイ,0
76,1020001158074,新規,0,2024-07-17,2024-07-17,株式会社ひまわり,,株式会社,神奈川県,横浜市南区,八幡町５１番地シエロ１０１,,14,105,2320037,,,,,,,2024-07-17,1,,,,,ヒマワリ,0
77,1020001158082,新規,0,2024-07-17,2024-07-17,コスメグリード株式会社,,株式会社,神奈川県,川崎市宮前区,馬絹６丁目３番２９号,,14,136,2160035,,,,,,,2024-07-17,1,,,,,コスメグリード,0
78,1020001158132,新規,0,2024-07-17,2024-07-17,ＬａＶｉｔａ株式会社,,株式会社,神奈川県,横浜市神奈川区,白幡東町３３番１－５１４号,,14,102,2210072,,,,,,,2024-07-17,1,,,,,ラビータ,0
79,1020001158173,新規,0,2024-07-17,2024-07-17,株式会社ＮＥＴＩＺＥＮ　Ｊａｐａｎ,,株式会社,神奈川県,横浜市西区,浅間町１丁目４番地３ウィザードビル４０２,,14,103,2200072,,,,,,,2024-07-17,1,,,,,ネチゼンジャパン,0
81,1020003026568,新規,0,2024-07-17,2024-07-17,金栄アソシエイト合同会社,,合同会社,神奈川県,横浜市西区,北幸２丁目１０番４８号むつみビル３階,,14,103,2200004,,,,,,,2024-07-17,1,,,,,カナエアソシエイト,0
85,1021001082735,新規,0,2024-07-17,2024-07-17,株式会社こぶた企画,,株式会社,神奈川県,茅ヶ崎市,赤松町１１番５号,,14,207,2530013,,,,,,,2024-07-17,1,,,,,コブタキカク,0
86,1021001082751,新規,0,2024-07-17,2024-07-17,株式会社Ｆ‐ＣＵＢＥ,,株式会社,神奈川県,鎌倉市,津西１丁目２７番１６号,,14,204,2480034,,,,,,,2024-07-17,1,,,,,エフキューブ,0
90,1021003014777,新規,0,2024-07-17,2024-07-17,合同会社ｇｕｉｌｄ,,合同会社,神奈川県,横須賀市,若松町１丁目１５番地若松ビル２Ｆ,,14,201,2380007,,,,,,,2024-07-17,1,,,,,ギルド,0
96,1030001161465,新規,0,2024-07-17,2024-07-17,株式会社コーシエステート,,株式会社,埼玉県,戸田市,本町４丁目９番１１号,,11,224,3350023,,,,,,,2024-07-17,1,,,,,コーシエステート,0
97,1030001161473,新規,0,2024-07-17,2024-07-17,株式会社ＹＬＣコーポレーション,,株式会社,埼玉県,所沢市,大字北秋津７７８－２三巧ビル２階,,11,208,3590038,,,,,,,2024-07-17,1,,,,,,0
101,1030003024711,新規,0,2024-07-17,2024-07-17,ＦＰワンライフ合同会社,,合同会社,埼玉県,行田市,大字渡柳１７６１番地１,,11,206,3610033,,,,,,,2024-07-17,1,,,,,エフピーワンライフ,0
120,1060001037299,新規,0,2024-07-17,2024-07-17,アイトチロジスティクス株式会社,,株式会社,栃木県,小山市,美しが丘１丁目１２番１７号,,09,208,3290207,,,,,,,2024-07-17,1,,,,,アイトチロジスティクス,0
122,1060003005155,新規,0,2024-07-17,2024-07-17,合同会社ＤＣＳ,,合同会社,栃木県,栃木市,新井町１０１２番地４蔵シティ新井２０２,,09,203,3280061,,,,,,,2024-07-17,1,,,,,ディーシーエス,0
126,1070001041960,新規,0,2024-07-17,2024-07-17,株式会社オフィスノザキ,,株式会社,群馬県,北群馬郡吉岡町,大字下野田６１０番地３,,10,345,3703608,,,,,,,2024-07-17,1,,,,,オフィスノザキ,0
132,1100001037658,新規,0,2024-07-17,2024-07-17,株式会社まりあんずプロダクション,,株式会社,長野県,千曲市,大字生萱５３番地１,,20,218,3870003,,,,,,,2024-07-17,1,,,,,マリアンズプロダクション,0
135,1110001038572,新規,0,2024-07-17,2024-07-17,株式会社しづわた,,株式会社,新潟県,新潟市東区,中野山４丁目９番２０号,,15,102,9500841,,,,,,,2024-07-17,1,,,,,シヅワタ,0
148,1120001266585,新規,0,2024-07-17,2024-07-17,嘉和株式会社,,株式会社,大阪府,大阪市阿倍野区,阪南町５丁目５番１６－５０２号,,27,119,5450021,,,,,,,2024-07-17,1,,,,,カワ,0
149,1120001266684,新規,0,2024-07-17,2024-07-17,ＫＫＡＮ株式会社,,株式会社,大阪府,大阪市東住吉区,東田辺３丁目１－１－１Ｆ－Ｌ,,27,121,5460032,,,,,,,2024-07-17,1,,,,,カカン,0
150,1120001266767,新規,0,2024-07-17,2024-07-17,株式会社魚と熊,,株式会社,大阪府,大阪市住之江区,北加賀屋５丁目２－２４パインビル２０３号室,,27,125,5590011,,,,,,,2024-07-17,1,,,,,サカナトクマ,0
151,1120001266800,新規,0,2024-07-17,2024-07-17,金百歳株式会社,,株式会社,大阪府,大阪市東成区,深江北３丁目４番２１号エクラ深江橋７０３Ｂ,,27,115,5370001,,,,,,,2024-07-17,1,,,,,キンヒャクサイ,0
152,1120001266833,新規,0,2024-07-17,2024-07-17,株式会社サンライズ,,株式会社,大阪府,大阪市浪速区,恵美須西１丁目５番３－１０１号,,27,111,5560003,,,,,,,2024-07-17,1,,,,,サンライズ,0
153,1120001266866,新規,0,2024-07-17,2024-07-17,株式会社ＤｏｍｉｎｕｓＯｗｎｅｒｓ,,株式会社,大阪府,大阪市中央区,久太郎町４丁目２番５号,,27,128,5410056,,,,,,,2024-07-17,1,,,,,ドミナスオーナーズ,0
158,1120003027044,新規,0,2024-07-17,2024-07-17,合同会社宮組,,合同会社,大阪府,枚方市,牧野阪１丁目１６番５号ヴィラマキノ１０２号,,27,210,5731146,,,,,,,2024-07-17,1,,,,,ミヤグミ,0
163,1120101069987,新規,0,2024-07-17,2024-07-17,アンサーコミット株式会社,,株式会社,大阪府,堺市堺区,旭ヶ丘中町１丁４番２７号,,27,141,5900808,,,,,,,2024-07-17,1,,,,,アンサーコミット,0
165,1120905006632,新規,0,2024-07-17,2024-07-17,医療法人礼文会,,その他の設立登記法人,大阪府,箕面市,箕面５丁目１２番７１号パークプラザビル箕面１階２階,,27,220,5620001,,,,,,,2024-07-17,1,,,,,レイブンカイ,0
167,1122001038270,新規,0,2024-07-17,2024-07-17,株式会社ＤＳ　ＣＯＭＰＡＮＹ,,株式会社,大阪府,八尾市,東町５丁目３５番地,,27,212,5810861,,,,,,,2024-07-17,1,,,,,ディーエスカンパニー,0
168,1122003002935,新規,0,2024-07-17,2024-07-17,ＰＨＵＣ　ＫＨＡＮＧ合同会社,,合同会社,大阪府,東大阪市,太平寺１丁目７－８太平寺ビル２０２号室,,27,227,5770844,,,,,,,2024-07-17,1,,,,,フックカン,0
175,1130001077461,新規,0,2024-07-17,2024-07-17,株式会社ＬｕｓｔｒｏＳ,,株式会社,京都府,京田辺市,三山木西荒木７番地５,,26,211,6100313,,,,,,,2024-07-17,1,,,,,ルストロス,0
180,1140001135128,新規,0,2024-07-17,2024-07-17,ＤＩＳＣＯＶＥＲＹ株式会社,,株式会社,兵庫県,神戸市中央区,磯上通４丁目３－１０ＩＰＳＸ・ＥＡＳＴ１１１１,,28,110,6510086,,,,,,,2024-07-17,1,,,,,ディスカバリー,0
184,1140003020823,新規,0,2024-07-17,2024-07-17,合同会社ＣｏＣｏ,,合同会社,兵庫県,神戸市垂水区,舞子坂２丁目１番３号,,28,108,6550044,,,,,,,2024-07-17,1,,,,,,0
186,1140005027156,新規,0,2024-07-17,2024-07-17,一般社団法人Ｋｏｂｅ　Ｉｎｔｅｒｎａｔｉｏｎａｌ　Ａｒｔ,,その他の設立登記法人,兵庫県,神戸市中央区,山本通１丁目７番１１号,,28,110,6500003,,,,,,,2024-07-17,1,,,,,コウベインターナショナルアート,0
189,1160001026077,新規,0,2024-07-17,2024-07-17,株式会社ＣＨＩＴＯＳＥ,,株式会社,滋賀県,近江八幡市,日吉野町７４３番地２７,,25,204,5230033,,,,,,,2024-07-17,1,,,,,チトセ,0
197,1180001162374,新規,0,2024-07-17,2024-07-17,株式会社ＹＭ．ＬＩＮＫ,,株式会社,愛知県,名古屋市西区,上橋町１０６番地,,23,104,4520844,,,,,,,2024-07-17,1,,,,,ワイエムリンク,0
198,1180001162408,新規,0,2024-07-17,2024-07-17,株式会社ＡＲＴＳ工業,,株式会社,愛知県,名古屋市守山区,天子田１丁目５１４番地６,,23,113,4630037,,,,,,,2024-07-17,1,,,,,アーツコウギョウ,0
203,1180003027071,新規,0,2024-07-17,2024-07-17,Ｍ＆Ｙリノベーション合同会社,,合同会社,愛知県,半田市,岩滑東町５丁目８２番地７,,23,205,4750905,,,,,,,2024-07-17,1,,,,,エムアンドワイリノベーション,0
210,1200001042714,新規,0,2024-07-17,2024-07-17,株式会社タジマＤＥＮＫＩ,,株式会社,岐阜県,美濃加茂市,田島町３丁目１３番地２,,21,211,5050032,,,,,,,2024-07-17,1,,,,,タジマデンキ,0
213,1220003003794,新規,0,2024-07-17,2024-07-17,合同会社ｃｏｄｅ　ｆｓ,,合同会社,石川県,金沢市,横川２丁目１２０番地１（ルポゼ・Ａ号）,,17,201,9218163,,,,,,,2024-07-17,1,,,,,コードエフズ,0
214,1230003002250,新規,0,2024-07-17,2024-07-17,アカネ合同会社,,合同会社,富山県,氷見市,宮田７９１番地１,,16,205,9350033,,,,,,,2024-07-17,1,,,,,アカネ,0
217,1240001063541,新規,0,2024-07-17,2024-07-17,株式会社といろ,,株式会社,広島県,呉市,広本町２丁目１５番１４号,,34,202,7370125,,,,,,,2024-07-17,1,,,,,トイロ,0
222,1250001020731,新規,0,2024-07-17,2024-07-17,０１株式会社,,株式会社,山口県,防府市,大字上右田１７５６番地の８,,35,206,7470062,,,,,,,2024-07-17,1,,,,,ゼロイチ,0
223,1260001039259,新規,0,2024-07-17,2024-07-17,株式会社Ｔ・Ｎアーケード,,株式会社,岡山県,岡山市北区,奉還町３丁目９番３号,,33,101,7000026,,,,,,,2024-07-17,1,,,,,ティーエヌアーケード,0
234,1290001106378,新規,0,2024-07-17,2024-07-17,株式会社ＲＴ　ＬＩＮＥ,,株式会社,福岡県,三井郡大刀洗町,大字今５６０番地１ライフ平田５－２０２,,40,503,8301223,,,,,,,2024-07-17,1,,,,,アールティーライン,0
235,1290001106452,新規,0,2024-07-17,2024-07-17,株式会社サードプレイス,,株式会社,福岡県,糟屋郡粕屋町,大字阿惠２００番地３,,40,349,8112306,,,,,,,2024-07-17,1,,,,,サードプレイス,0
241,1290801030703,新規,0,2024-07-17,2024-07-17,株式会社植中,,株式会社,福岡県,北九州市門司区,柄杓田町６番地５,,40,101,8010814,,,,,,,2024-07-17,1,,,,,ウエナカ,0
243,1300005007199,新規,0,2024-07-17,2024-07-17,医療法人中尾歯科医院,,その他の設立登記法人,佐賀県,佐賀市,神園２丁目７の５１,,41,201,8400806,,,,,,,2024-07-17,1,,,,,ナカオシカイイン,0
245,1330001032264,新規,0,2024-07-17,2024-07-17,株式会社君色夜空,,株式会社,熊本県,熊本市中央区,琴平本町５番５２号,,43,101,8600814,,,,,,,2024-07-17,1,,,,,キミイロヨゾラ,0
251,1350001019078,新規,0,2024-07-17,2024-07-17,ＮＹ株式会社,,株式会社,宮崎県,宮崎市,高千穂通２丁目４番１９号,,45,201,8800812,,,,,,,2024-07-17,1,,,,,エヌワイ,0
252,1350001019086,新規,0,2024-07-17,2024-07-17,株式会社ＭＩＬＳＰＥＣ　ＣＯＮＣＥＰＴ,,株式会社,宮崎県,宮崎市,佐土原町下田島１２２９５－１,,45,201,8800211,,,,,,,2024-07-17,1,,,,,ミルスペックコンセプト,0
253,1350003004706,新規,0,2024-07-17,2024-07-17,合同会社高原ホールディングス,,合同会社,宮崎県,小林市,堤３１９２番地１７,,45,205,8860003,,,,,,,2024-07-17,1,,,,,コウゲンホールディングス,0
255,1360003014159,新規,0,2024-07-17,2024-07-17,合同会社ＭＴプラン,,合同会社,沖縄県,那覇市,字真地２１６番地１,,47,201,9020072,,,,,,,2024-07-17,1,,,,,エムティプラン,0
257,1370001051525,新規,0,2024-07-17,2024-07-17,株式会社Ｌａｕｒｉｅｒ,,株式会社,宮城県,仙台市若林区,六丁の目中町７番４５号メゾンヒロ１－１０５号,,04,103,9840012,,,,,,,2024-07-17,1,,,,,ローリア,0
271,1430001092257,新規,0,2024-07-17,2024-07-17,株式会社クレア,,株式会社,北海道,札幌市中央区,南二条西２６丁目２番３０－３０２号,,01,101,0640802,,,,,,,2024-07-17,1,,,,,クレア,0
272,1430003016560,新規,0,2024-07-17,2024-07-17,ミルウォーキージャパン合同会社,,合同会社,北海道,札幌市南区,藤野三条１１丁目１９番２６号,,01,106,0612283,,,,,,,2024-07-17,1,,,,,ミルウォーキージャパン,0
277,1470001020296,新規,0,2024-07-17,2024-07-17,ＫＳＧコンサルティング株式会社,,株式会社,香川県,高松市,今里町１１‐７ｃｏｍｍｏｎ　ＩＭＡＺＡＴＯ　１０５号室,,37,201,7600078,,,,,,,2024-07-17,1,,,,,ケーエスジーコンサルティング,0
283,1500001025754,新規,0,2024-07-17,2024-07-17,株式会社Ａ．Ｋ．Ｓ．Ｃ,,株式会社,愛媛県,新居浜市,本郷２丁目８番１８号,,38,205,7920042,,,,,,,2024-07-17,1,,,,,エーケーエスシー,0
291,2010001246507,新規,0,2024-07-17,2024-07-17,ＶｅｃｔｏｒＭｉｎｄｓ株式会社,,株式会社,東京都,中央区,銀座１丁目１２番４号Ｎ＆ＥＢＬＤ．６Ｆ,,13,102,1040061,,,,,,,2024-07-17,1,,,,,ベクターマインズ,0
292,2010001246515,新規,0,2024-07-17,2024-07-17,株式会社Ｍ．Ｍ．Ｄ．,,株式会社,東京都,中央区,銀座７丁目１３番６号サガミビル２階,,13,102,1040061,,,,,,,2024-07-17,1,,,,,エムエムディー,0
293,2010001246597,新規,0,2024-07-17,2024-07-17,株式会社ｏｐ,,株式会社,東京都,千代田区,神田須田町１丁目２４番地２１加瀬ビル１７３,,13,101,1010041,,,,,,,2024-07-17,1,,,,,オーピー,0
294,2010001246606,新規,0,2024-07-17,2024-07-17,株式会社Ｐｒｉｍｅ　Ａｉｌｅ,,株式会社,東京都,文京区,千石２丁目３１番８号,,13,105,1120011,,,,,,,2024-07-17,1,,,,,プライムエール,0
295,2010001246630,新規,0,2024-07-17,2024-07-17,０１ＣＯＦＦＥＥ株式会社,,株式会社,東京都,中央区,日本橋浜町３丁目３５番３－１１０３号,,13,102,1030007,,,,,,,2024-07-17,1,,,,,ゼロワンコーヒー,0
296,2010003044322,新規,0,2024-07-17,2024-07-17,Ｒ０４５合同会社,,合同会社,東京都,文京区,千駄木２丁目２番８号,,13,105,1130022,,,,,,,2024-07-17,1,,,,,アールゼロヨンゴ,0
297,2010003044330,新規,0,2024-07-17,2024-07-17,ＢＯＮＳＩＧＮＥ合同会社,,合同会社,東京都,中央区,銀座７丁目１３番２１号銀座ｓｉｎｒｏｋｕｓｙｕビル２階,,13,102,1040061,,,,,,,2024-07-17,1,,,,,ボンシーニュ,0
304,2010401183829,新規,0,2024-07-17,2024-07-17,株式会社トラストプロパティ,,株式会社,東京都,港区,愛宕１丁目１番１－３４０７号,,13,103,1050002,,,,,,,2024-07-17,1,,,,,トラストプロパティ,0
305,2010403033065,新規,0,2024-07-17,2024-07-17,合同会社かしこ,,合同会社,東京都,港区,南青山４丁目２１番２６号細谷総合会計事務所内,,13,103,1070062,,,,,,,2024-07-17,1,,,,,カシコ,0
308,2010601065562,新規,0,2024-07-17,2024-07-17,株式会社マテックス新環境,,株式会社,東京都,江東区,千石３丁目１番４４号,,13,108,1350015,,,,,,,2024-07-17,1,,,,,マテックスシンカンキョウ,0
310,2010603010954,新規,0,2024-07-17,2024-07-17,合同会社本田企画,,合同会社,東京都,墨田区,八広４丁目９番１０号,,13,107,1310041,,,,,,,2024-07-17,1,,,,,ホンダキカク,0
311,2010701046090,新規,0,2024-07-17,2024-07-17,Ａ’ａｌｄａ　Ｙ株式会社,,株式会社,東京都,品川区,西五反田７丁目１番１０号Ｕ’ｓ―１ビル７Ｆ,,13,109,1410031,,,,,,,2024-07-17,1,,,,,アルダワイ,0
317,2010903009218,新規,0,2024-07-17,2024-07-17,Ｙ＆Ｔ’ｓ合同会社,,合同会社,東京都,世田谷区,野沢３丁目３１－４－６０１,,13,112,1540003,,,,,,,2024-07-17,1,,,,,ワイアンドティーズ,0
318,2011001162958,新規,0,2024-07-17,2024-07-17,株式会社どうも,,株式会社,東京都,目黒区,自由が丘１丁目５－９リバティビル１０１,,13,110,1520035,,,,,,,2024-07-17,1,,,,,ドウモ,0
319,2011001163279,新規,0,2024-07-17,2024-07-17,株式会社ＩＮ,,株式会社,東京都,目黒区,青葉台３丁目１番１－４０８号,,13,110,1530042,,,,,,,2024-07-17,1,,,,,アイエヌ,0
320,2011001163304,新規,0,2024-07-17,2024-07-17,株式会社ＩｒｉｓＯｎｅ,,株式会社,東京都,渋谷区,渋谷２丁目２番４号,,13,113,1500002,,,,,,,2024-07-17,1,,,,,イリスワン,0
321,2011001163312,新規,0,2024-07-17,2024-07-17,株式会社スペースツリー,,株式会社,東京都,渋谷区,道玄坂１丁目１０番８号渋谷道玄坂東急ビル２Ｆ－Ｃ,,13,113,1500043,,,,,,,2024-07-17,1,,,,,スペースツリー,0
322,2011001163329,新規,0,2024-07-17,2024-07-17,株式会社ウィステリア,,株式会社,東京都,渋谷区,宇田川町３６－２ノア渋谷７０１号室,,13,113,1500042,,,,,,,2024-07-17,1,,,,,ウィステリア,0
323,2011001163444,新規,0,2024-07-17,2024-07-17,株式会社ＩＳＳＨＩＮ,,株式会社,東京都,目黒区,碑文谷５丁目２番５号,,13,110,1520003,,,,,,,2024-07-17,1,,,,,イッシン,0
324,2011003019561,新規,0,2024-07-17,2024-07-17,合同会社ＩＲＯＨＡ,,合同会社,東京都,渋谷区,渋谷２丁目１９－１５宮益坂ビルディング,,13,113,1500002,,,,,,,2024-07-17,1,,,,,イロハ,0
344,2011701027452,新規,0,2024-07-17,2024-07-17,株式会社ホワイトベアーズ,,株式会社,東京都,江戸川区,清新町１丁目１番地６－８０７号,,13,123,1340087,,,,,,,2024-07-17,1,,,,,ホワイトベアーズ,0
345,2011703003906,新規,0,2024-07-17,2024-07-17,合同会社日新,,合同会社,東京都,江戸川区,西小岩１丁目３０番２３－２０１号コーポ末広,,13,123,1330057,,,,,,,2024-07-17,1,,,,,ニシン,0
354,2020001157983,新規,0,2024-07-17,2024-07-17,株式会社ＫＡＴＡＣＨＩ,,株式会社,神奈川県,横浜市港北区,大倉山２丁目７番４７号シャトレ大倉山１０１,,14,109,2220037,,,,,,,2024-07-17,1,,,,,カタチ,0
359,2021001082602,新規,0,2024-07-17,2024-07-17,ラブザライフ株式会社,,株式会社,神奈川県,三浦郡葉山町,堀内１００５－１フォルム葉山１０４,,14,301,2400112,,,,,,,2024-07-17,1,,,,,ラブザライフ,0
360,2021001082742,新規,0,2024-07-17,2024-07-17,株式会社マルモ,,株式会社,神奈川県,平塚市,西真土１丁目１番３３－１号,,14,203,2540019,,,,,,,2024-07-17,1,,,,,マルモ,0
361,2021003014776,新規,0,2024-07-17,2024-07-17,ＺＡＭＡ　ＴＲＡＤＩＮＧ合同会社,,合同会社,神奈川県,厚木市,上依知５５３－１ハイツ壱番館２０５号室,,14,212,2430801,,,,,,,2024-07-17,1,,,,,ザマトレーディング,0
364,2030001161448,新規,0,2024-07-17,2024-07-17,騰飛商事株式会社,,株式会社,埼玉県,川口市,上青木４丁目１５番２３号,,11,203,3330844,,,,,,,2024-07-17,1,,,,,トウヒショウジ,0
365,2030001161456,新規,0,2024-07-17,2024-07-17,株式会社ブレイクポイント,,株式会社,埼玉県,春日部市,小渕８８２番地９,,11,214,3440007,,,,,,,2024-07-17,1,,,,,ブレイクポイント,0
371,2040001134568,新規,0,2024-07-17,2024-07-17,ＭＩＴｅｃ株式会社,,株式会社,千葉県,東金市,川場１０２８番地１,,12,213,2830064,,,,,,,2024-07-17,1,,,,,エムアイテック,0
374,2040003025410,新規,0,2024-07-17,2024-07-17,合同会社ヴェルデ,,合同会社,千葉県,流山市,三輪野山２丁目９番地の１０,,12,220,2700175,,,,,,,2024-07-17,1,,,,,ヴェルデ,0
379,2050003008538,新規,0,2024-07-17,2024-07-17,合同会社ｌａｎｄ　ｍａｄｅ,,合同会社,茨城県,稲敷郡阿見町,大字阿見５４６３－２,,08,443,3000331,,,,,,,2024-07-17,1,,,,,ランドメイド,0
386,2080401027310,新規,0,2024-07-17,2024-07-17,株式会社ＥＲＳ,,株式会社,静岡県,磐田市,竜洋中島１６３４番地１,,22,211,4380201,,,,,,,2024-07-17,1,,,,,イーアールエス,0
394,2100001037665,新規,0,2024-07-17,2024-07-17,株式会社タケミツ,,株式会社,長野県,中野市,大字永江１００番地１８,,20,211,3892104,,,,,,,2024-07-17,1,,,,,タケミツ,0
405,2120001266634,新規,0,2024-07-17,2024-07-17,株式会社ｂｅｂｅ,,株式会社,大阪府,大阪市北区,梅田１丁目１－３大阪駅前第３ビル２９階１－１－１号室,,27,127,5300001,,,,,,,2024-07-17,1,,,,,ベベ,0
406,2120001266683,新規,0,2024-07-17,2024-07-17,華窯株式会社,,株式会社,大阪府,大阪市住吉区,長居１丁目２－２０－３Ｆ,,27,120,5580003,,,,,,,2024-07-17,1,,,,,カヨウ,0
407,2120001266733,新規,0,2024-07-17,2024-07-17,株式会社あかり保証,,株式会社,大阪府,大阪市北区,南森町１丁目３番２９号ＭＳＴ南森町ビル５０３,,27,127,5300054,,,,,,,2024-07-17,1,,,,,アカリホショウ,0
408,2120001266766,新規,0,2024-07-17,2024-07-17,株式会社栄秀,,株式会社,大阪府,枚方市,東山２丁目６番地の３０,,27,210,5731114,,,,,,,2024-07-17,1,,,,,エイシュウ,0
409,2120001266799,新規,0,2024-07-17,2024-07-17,屹盛株式会社,,株式会社,大阪府,大阪市城東区,関目５丁目１９番９号関目花博公館２０３Ａ,,27,118,5360008,,,,,,,2024-07-17,1,,,,,キツセイ,0
410,2120001266824,新規,0,2024-07-17,2024-07-17,株式会社ココマル,,株式会社,大阪府,門真市,岸和田２丁目１４番１６号,,27,223,5710002,,,,,,,2024-07-17,1,,,,,ココマル,0
411,2120001266832,新規,0,2024-07-17,2024-07-17,株式会社ＬＵＣＫＹ　ＡＵＲＡ,,株式会社,大阪府,大阪市北区,豊崎４丁目６番２０－２０４号,,27,127,5310072,,,,,,,2024-07-17,1,,,,,ラッキーオーラ,0
412,2120001266840,新規,0,2024-07-17,2024-07-17,日本化線株式会社,,株式会社,大阪府,大阪市東成区,深江北３丁目１１番８号,,27,115,5370001,,,,,,,2024-07-17,1,,,,,ニホンカセン,0
413,2120001266865,新規,0,2024-07-17,2024-07-17,株式会社Ｎｅｗ　ｗｏｒｋｅｒ,,株式会社,大阪府,大阪市住之江区,新北島４丁目４番５６－１４１０号,,27,125,5590024,,,,,,,2024-07-17,1,,,,,ニューワーカー,0
417,2120005024427,新規,0,2024-07-17,2024-07-17,一般社団法人栄光,,その他の設立登記法人,大阪府,大阪市天王寺区,北河堀町４番７－９０５号,,27,109,5430053,,,,,,,2024-07-17,1,,,,,エイコウ,0
419,2120901049477,新規,0,2024-07-17,2024-07-17,株式会社ヴァンキャトル,,株式会社,大阪府,豊中市,栗ケ丘町９番６４－３０３号,,27,203,5600016,,,,,,,2024-07-17,1,,,,,ヴァンキャトル,0
421,2120905006631,新規,0,2024-07-17,2024-07-17,医療法人雅伸会,,その他の設立登記法人,大阪府,池田市,栄本町５番２２号,,27,204,5630058,,,,,,,2024-07-17,1,,,,,ガシンカイ,0
423,2130001077460,新規,0,2024-07-17,2024-07-17,株式会社ケンオー,,株式会社,京都府,京都市伏見区,深草フケノ内町４－１０おくでん２Ｆ,,26,109,6120018,,,,,,,2024-07-17,1,,,,,ケンオー,0
426,2130005017140,新規,0,2024-07-17,2024-07-17,一般社団法人北鍵屋公園運営委員会,,その他の設立登記法人,京都府,京都市伏見区,墨染町７２０かのこビル２階,,26,109,6120051,,,,,,,2024-07-17,1,,,,,キタカギヤコウエンウンエイイインカイ,0
429,2140001135135,新規,0,2024-07-17,2024-07-17,株式会社ビーアンドネクスト,,株式会社,兵庫県,西宮市,津門呉羽町２番３９号,,28,204,6638245,,,,,,,2024-07-17,1,,,,,ビーアンドネクスト,0
430,2140003020814,新規,0,2024-07-17,2024-07-17,合同会社ＡＣＥ　ＧＡＭＥ　ＦＩＥＬＤ,,合同会社,兵庫県,神戸市中央区,三宮町２丁目１１番１－３１２号三宮センタープラザ西館,,28,110,6500021,,,,,,,2024-07-17,1,,,,,エースゲームフィールド,0
434,2150001027430,新規,0,2024-07-17,2024-07-17,株式会社ｍｉｌｉｍｉｌｉ,,株式会社,奈良県,北葛城郡広陵町,大字古寺４２６－６,,29,426,6350815,,,,,,,2024-07-17,1,,,,,ミリミリ,0
436,2150003003314,新規,0,2024-07-17,2024-07-17,合同会社ＨＯＲＩＺＯＮ,,合同会社,奈良県,香芝市,穴虫５９３番地３,,29,210,6390252,,,,,,,2024-07-17,1,,,,,ホライズン,0
437,2160001026076,新規,0,2024-07-17,2024-07-17,ＦＯＲＶＩ株式会社,,株式会社,滋賀県,湖南市,石部東６丁目４番３１号,,25,211,5203107,,,,,,,2024-07-17,1,,,,,フォービー,0
438,2160003003239,新規,0,2024-07-17,2024-07-17,Ｂｒａｎｄｏｎ　Ｂｕｕｒｏ合同会社,,合同会社,滋賀県,大津市,大物７２６番地の３,,25,201,5200512,,,,,,,2024-07-17,1,,,,,ブランドンブーロ,0
449,2180001162349,新規,0,2024-07-17,2024-07-17,株式会社ＴＫＳ,,株式会社,愛知県,名古屋市南区,元塩町１丁目３－３６,,23,112,4570823,,,,,,,2024-07-17,1,,,,,ティーケーエス,0
450,2180001162365,新規,0,2024-07-17,2024-07-17,ＡＬＩＦＥ株式会社,,株式会社,愛知県,弥富市,鯏浦町東気開５４番地１ロフティ弥富４０１,,23,235,4980021,,,,,,,2024-07-17,1,,,,,アライフ,0
459,2180301038843,新規,0,2024-07-17,2024-07-17,ＵＮＤＥＲＬＩＮＥ株式会社,,株式会社,愛知県,岡崎市,筒針町字池田７２番地５,,23,202,4440932,,,,,,,2024-07-17,1,,,,,アンダーライン,0
461,2200001042713,新規,0,2024-07-17,2024-07-17,株式会社ｆａｒｋ,,株式会社,岐阜県,揖斐郡揖斐川町,小島１１５２番地３,,21,401,5010633,,,,,,,2024-07-17,1,,,,,ファーク,0
466,2240001063532,新規,0,2024-07-17,2024-07-17,なにわ商船株式会社,,株式会社,広島県,尾道市,久保町２０３０番地,,34,205,7220042,,,,,,,2024-07-17,1,,,,,ナニワショウセン,0
467,2240001063540,新規,0,2024-07-17,2024-07-17,株式会社ＫＣＲ,,株式会社,広島県,福山市,瀬戸町大字長和１３０８番地８,,34,207,7200836,,,,,,,2024-07-17,1,,,,,ケーシーアール,0
470,2240003006761,新規,0,2024-07-17,2024-07-17,合同会社ジーエスケイ,,合同会社,広島県,広島市安佐北区,落合１丁目２８番２０号,,34,106,7391731,,,,,,,2024-07-17,1,,,,,ジーエスケイ,0
477,2290005019443,新規,0,2024-07-17,2024-07-17,医療法人まるやま歯科,,その他の設立登記法人,福岡県,福岡市東区,水谷２丁目５０番１号,,40,131,8130041,,,,,,,2024-07-17,1,,,,,マルヤマシカ,0
479,2300001013836,新規,0,2024-07-17,2024-07-17,株式会社Ｓａｇａｎ　Ｎａｖｉ,,株式会社,佐賀県,佐賀市,今宿町２番４号,,41,201,8400052,,,,,,,2024-07-17,1,,,,,サガンナビ,0
483,2340001026652,新規,0,2024-07-17,2024-07-17,株式会社さつまいもファームＣＳＰａｇｒｉ,,株式会社,鹿児島県,鹿屋市,田崎町２２６４番地１１,,46,203,8930037,,,,,,,2024-07-17,1,,,,,サツマイモファームシィエスピィアグリ,0
497,2420003002957,新規,0,2024-07-17,2024-07-17,合同会社ＭＯＯＲＥ　ＰＲＯＪＥＣＴ,,合同会社,青森県,上北郡おいらせ町,緑ヶ丘９丁目７５番地８６,,02,412,0392187,,,,,,,2024-07-17,1,,,,,ムーアプロジェクト,0
500,2430001092256,新規,0,2024-07-17,2024-07-17,マルホン・フーズ株式会社,,株式会社,北海道,札幌市中央区,北三条西２６丁目３番２１号,,01,101,0640823,,,,,,,2024-07-17,1,,,,,マルホンフーズ,0
503,2430003016543,新規,0,2024-07-17,2024-07-17,合同会社リラ,,合同会社,北海道,札幌市中央区,南三条西３丁目４－２中屋ビル４階,,01,101,0600063,,,,,,,2024-07-17,1,,,,,リラ,0
505,2460101007573,新規,0,2024-07-17,2024-07-17,株式会社ＩＫＯＩ,,株式会社,北海道,河西郡芽室町,東六条１０丁目２番地２５,,01,637,0820016,,,,,,,2024-07-17,1,,,,,イコイ,0
510,2500001025737,新規,0,2024-07-17,2024-07-17,株式会社はま・くる,,株式会社,愛媛県,新居浜市,新須賀町２丁目６番１６号,,38,205,7920802,,,,,,,2024-07-17,1,,,,,ハマクル,0
511,2500001025753,新規,0,2024-07-17,2024-07-17,株式会社国安,,株式会社,愛媛県,八幡浜市,保内町川之石３番耕地３０４番地５３,,38,204,7960201,,,,,,,2024-07-17,1,,,,,クニヤス,0
518,3010001246316,新規,0,2024-07-17,2024-07-17,青海株式会社,,株式会社,東京都,千代田区,麹町３丁目１０番１２ザ・パークハウス麹町レジデンス１２０３,,13,101,1020083,,,,,,,2024-07-17,1,,,,,アオウミ,0
519,3010001246415,新規,0,2024-07-17,2024-07-17,ｅｃｌｅｃｔｉｃａｎ株式会社,,株式会社,東京都,千代田区,神田鍛冶町３丁目７－２１天翔神田駅前ビル９階９０８号室,,13,101,1010045,,,,,,,2024-07-17,1,,,,,エクレクティカン,0
520,3010001246480,新規,0,2024-07-17,2024-07-17,ｋｅｗａｇｏ株式会社,,株式会社,東京都,文京区,白山１丁目２５番１３号２階,,13,105,1130001,,,,,,,2024-07-17,1,,,,,ケワゴ,0
521,3010001246555,新規,0,2024-07-17,2024-07-17,株式会社ＭＲ．Ｎｅｘｕｓ,,株式会社,東京都,中央区,日本橋室町１丁目１１番１２号日本橋水野ビル７階,,13,102,1030022,,,,,,,2024-07-17,1,,,,,エムアールネクサス,0
522,3010001246613,新規,0,2024-07-17,2024-07-17,株式会社まつぼっくり,,株式会社,東京都,中央区,日本橋本町３丁目３番６号ワカ末ビル７階,,13,102,1030023,,,,,,,2024-07-17,1,,,,,マツボックリ,0
528,3010003044305,新規,0,2024-07-17,2024-07-17,合同会社ＤｒｉｎｋｅｒＣｏｍｍｕｎｉｔｙ,,合同会社,東京都,中央区,日本橋人形町２丁目１番９号,,13,102,1030013,,,,,,,2024-07-17,1,,,,,ドリンカーコミュニティ,0
529,3010003044313,新規,0,2024-07-17,2024-07-17,Ｅｄｘｕｃａｔｅ合同会社,,合同会社,東京都,文京区,本郷４丁目１６番６号文京区本郷四丁目ビル９０６－Ｄ号室,,13,105,1130033,,,,,,,2024-07-17,1,,,,,エデュケート,0
530,3010003044338,新規,0,2024-07-17,2024-07-17,Ｉｎｓｉｇｈｔ　Ｃａｐｉｔａｌ　Ｊａｐａｎ合同会社,,合同会社,東京都,中央区,銀座２丁目１２－５銀座ＮＦビル４階ＳｔｒｏｎｇＦｏｒｃｅＩｎｖｅｓｔｍｅｎｔ株式会社気付,,13,102,1040061,,,,,,,2024-07-17,1,,,,,インサイトキャピタルジャパン,0
532,3010005038528,新規,0,2024-07-17,2024-07-17,一般社団法人ＭＳフォーラム,,その他の設立登記法人,東京都,千代田区,九段北４丁目１番５号,,13,101,1020073,,,,,,,2024-07-17,1,,,,,エムエスフォーラム,0
538,3010403033064,新規,0,2024-07-17,2024-07-17,ＨＲＯ合同会社,,合同会社,東京都,港区,六本木６丁目２番３１号,,13,103,1060032,,,,,,,2024-07-17,1,,,,,エイチアールオー,0
544,3010603010953,新規,0,2024-07-17,2024-07-17,合同会社だいやま,,合同会社,東京都,江東区,東砂７丁目１０番３－１１９号,,13,108,1360074,,,,,,,2024-07-17,1,,,,,ダイヤマ,0
556,3011001163294,新規,0,2024-07-17,2024-07-17,株式会社Ａｎｄ,,株式会社,東京都,渋谷区,恵比寿西２丁目４番８号ウィンド恵比寿ビル８階,,13,113,1500021,,,,,,,2024-07-17,1,,,,,アンド,0
557,3011003019528,新規,0,2024-07-17,2024-07-17,合同会社Ａｄｄ　Ｖａｌｕｅ,,合同会社,東京都,渋谷区,道玄坂１丁目１６－６二葉ビル８ｂ,,13,113,1500043,,,,,,,2024-07-17,1,,,,,アドバリュー,0
558,3011003019602,新規,0,2024-07-17,2024-07-17,合同会社ＥＭＡＮ,,合同会社,東京都,目黒区,碑文谷５丁目９番１９－４０７号,,13,110,1520003,,,,,,,2024-07-17,1,,,,,エマン,0
566,3011501030928,新規,0,2024-07-17,2024-07-17,アルファカンパニー株式会社,,株式会社,東京都,北区,赤羽西１丁目１番１３号コンフォルトナルミセカンド２０２号室,,13,117,1150055,,,,,,,2024-07-17,1,,,,,アルファカンパニー,0
570,3011703003905,新規,0,2024-07-17,2024-07-17,合同会社プリジア,,合同会社,東京都,江戸川区,平井２丁目２２－１２,,13,123,1320035,,,,,,,2024-07-17,1,,,,,プリジア,0
575,3012701018358,新規,0,2024-07-17,2024-07-17,株式会社久保工務店,,株式会社,東京都,清瀬市,中清戸５丁目９３番地１２,,13,221,2040012,,,,,,,2024-07-17,1,,,,,クボコウムテン,0
579,3012801023332,新規,0,2024-07-17,2024-07-17,株式会社キーアライアンス,,株式会社,東京都,国分寺市,新町２丁目１０－１、１階,,13,214,1850004,,,,,,,2024-07-17,1,,,,,,0
588,3020001158048,新規,0,2024-07-17,2024-07-17,リズ株式会社,,株式会社,神奈川県,横浜市港北区,大曽根２丁目３５番１６－１号,,14,109,2220003,,,,,,,2024-07-17,1,,,,,リズ,0
589,3020001158089,新規,0,2024-07-17,2024-07-17,株式会社シェルコーポレーション,,株式会社,神奈川県,横浜市港北区,篠原北１丁目７番９号メゾン篠原４０１,,14,109,2220021,,,,,,,2024-07-17,1,,,,,シェルコーポレーション,0
594,3021001082700,新規,0,2024-07-17,2024-07-17,兄弟建設株式会社,,株式会社,神奈川県,綾瀬市,大上１丁目２番４５号,,14,218,2521104,,,,,,,2024-07-17,1,,,,,キョウダイケンセツ,0
595,3021001082717,新規,0,2024-07-17,2024-07-17,株式会社Ｒ８,,株式会社,神奈川県,座間市,相模が丘６丁目３９番地４７号パインガーデン２０１号室,,14,216,2520001,,,,,,,2024-07-17,1,,,,,アールエイト,0
596,3021001082733,新規,0,2024-07-17,2024-07-17,株式会社ＮｏｒｔｈＰｏｉｎｔ,,株式会社,神奈川県,横須賀市,久里浜７丁目２０番２号,,14,201,2390831,,,,,,,2024-07-17,1,,,,,ノースポイント,0
601,3030001161430,新規,0,2024-07-17,2024-07-17,株式会社柊,,株式会社,埼玉県,ふじみ野市,上福岡１丁目７番２６号,,11,245,3560004,,,,,,,2024-07-17,1,,,,,ヒイラギ,0
602,3030001161463,新規,0,2024-07-17,2024-07-17,荒川総合調査株式会社,,株式会社,埼玉県,吉川市,高富１丁目３番地４ソフィア吉川１０６号,,11,243,3420036,,,,,,,2024-07-17,1,,,,,,0
603,3030001161471,新規,0,2024-07-17,2024-07-17,株式会社秩父製作所,,株式会社,埼玉県,秩父市,荒川白久１５３１番地１,,11,207,3691912,,,,,,,2024-07-17,1,,,,,チチブセイサクショ,0
604,3030001161488,新規,0,2024-07-17,2024-07-17,株式会社ＯＳＭ,,株式会社,埼玉県,上尾市,大字瓦葺１５１５番地７,,11,219,3620022,,,,,,,2024-07-17,1,,,,,オーエスエム,0
606,3030003024718,新規,0,2024-07-17,2024-07-17,新インテリア合同会社,,合同会社,埼玉県,坂戸市,南町３４番７号ＫＩＶオフィス南町Ｃ号室,,11,239,3500233,,,,,,,2024-07-17,1,,,,,シンインテリア,0
607,3030003024734,新規,0,2024-07-17,2024-07-17,ａｉｒｅ合同会社,,合同会社,埼玉県,本庄市,緑２丁目７－２,,11,211,3670043,,,,,,,2024-07-17,1,,,,,アイレ,0
611,3040001134369,新規,0,2024-07-17,2024-07-17,Ａ‐ＬＩＦＥ　ＨＯＬＤＩＮＧＳ株式会社,,株式会社,千葉県,我孫子市,本町２丁目３番２４号,,12,222,2701151,,,,,,,2024-07-17,1,,,,,エーライフホールディングス,0
612,3040001134559,新規,0,2024-07-17,2024-07-17,株式会社鉱山メンテナンス,,株式会社,千葉県,大網白里市,みずほ台３丁目３０番地１８,,12,239,2993234,,,,,,,2024-07-17,1,,,,,コウザンメンテナンス,0
613,3040001134575,新規,0,2024-07-17,2024-07-17,株式会社ＬＹＴ,,株式会社,千葉県,八千代市,八千代台南２丁目１１番８－２号,,12,221,2760033,,,,,,,2024-07-17,1,,,,,エルワイティー,0
617,3050003008545,新規,0,2024-07-17,2024-07-17,ＡＳＡＨＩ　ＭＯＲＩ　ＳＨＯＴＥＮ合同会社,,合同会社,茨城県,桜川市,本木９２２,,08,231,3091231,,,,,,,2024-07-17,1,,,,,アサヒモリショウテン,0
629,3110001038570,新規,0,2024-07-17,2024-07-17,株式会社山村リビング,,株式会社,新潟県,見附市,葛巻町１１３１番地,,15,211,9540067,,,,,,,2024-07-17,1,,,,,ヤマムラリビング,0
630,3110003005453,新規,0,2024-07-17,2024-07-17,合同会社ＫＲＡＦＴＯＮＥ,,合同会社,新潟県,新潟市秋葉区,西古津１９番２５号,,15,105,9560037,,,,,,,2024-07-17,1,,,,,クラフトワン,0
640,3120001266815,新規,0,2024-07-17,2024-07-17,昭和シルバーセンター株式会社,,株式会社,大阪府,寝屋川市,若葉町３３番４号,,27,215,5720031,,,,,,,2024-07-17,1,,,,,ショウワシルバーセンター,0
641,3120001266823,新規,0,2024-07-17,2024-07-17,株式会社ＬＣＥ,,株式会社,大阪府,大阪市福島区,吉野５丁目６番２０号ララプレイス大阪福島アビリテ７０２,,27,103,5530006,,,,,,,2024-07-17,1,,,,,エルシーイー,0
642,3120001266848,新規,0,2024-07-17,2024-07-17,株式会社風神,,株式会社,大阪府,枚方市,牧野阪３丁目１７番１８－２０６号,,27,210,5731146,,,,,,,2024-07-17,1,,,,,フウジン,0
643,3120001266864,新規,0,2024-07-17,2024-07-17,シナジーブースト株式会社,,株式会社,大阪府,大阪市北区,梅田１丁目１番３号大阪駅前第３ビル２９階１－１－１号室,,27,127,5300001,,,,,,,2024-07-17,1,,,,,シナジーブースト,0
644,3120001266872,新規,0,2024-07-17,2024-07-17,株式会社ＭＯＤＩＦＩＣＡ,,株式会社,大阪府,大阪市西区,新町３丁目１１番２５号インペリアル新町１Ｆ,,27,106,5500013,,,,,,,2024-07-17,1,,,,,モディフィカ,0
645,3120101069985,新規,0,2024-07-17,2024-07-17,株式会社ＧＯＥＮ,,株式会社,大阪府,堺市南区,和田５００番地３９,,27,145,5900152,,,,,,,2024-07-17,1,,,,,ゴエン,0
646,3120103005947,新規,0,2024-07-17,2024-07-17,合同会社Ｅｃｏ　Ｌｉｆｅ,,合同会社,大阪府,羽曳野市,埴生野１０８５番地の１３,,27,222,5830866,,,,,,,2024-07-17,1,,,,,エコライフ,0
647,3120103005955,新規,0,2024-07-17,2024-07-17,合同会社エークライムズ,,合同会社,大阪府,和泉市,黒石町１０４,,27,219,5941113,,,,,,,2024-07-17,1,,,,,エークライムズ,0
652,3120903005262,新規,0,2024-07-17,2024-07-17,合同会社プラネタリウム,,合同会社,大阪府,箕面市,稲１丁目７番１０号,,27,220,5620015,,,,,,,2024-07-17,1,,,,,プラネタリウム,0
653,3120905006630,新規,0,2024-07-17,2024-07-17,医療法人しばの整形外科リハビリテーションクリニック,,その他の設立登記法人,大阪府,箕面市,船場西２丁目３番９号箕面船場西メディカルセンター３階,,27,220,5620036,,,,,,,2024-07-17,1,,,,,シバノセイケイゲカリハビリテーションクリニック,0
679,3180001162257,新規,0,2024-07-17,2024-07-17,ケイ・ワイテクノシステム株式会社,,株式会社,愛知県,名古屋市中川区,八家町１丁目６３番地の２,,23,110,4540835,,,,,,,2024-07-17,1,,,,,ケイワイテクノシステム,0
680,3180001162372,新規,0,2024-07-17,2024-07-17,株式会社トーツーテクノス,,株式会社,愛知県,小牧市,藤岡三丁目１３番地１５,,23,219,4850000,,,,,,,2024-07-17,1,,,,,トーツーテクノス,0
681,3180001162397,新規,0,2024-07-17,2024-07-17,株式会社アルラス,,株式会社,愛知県,名古屋市瑞穂区,市丘町１丁目５８番地パークホームズ瑞穂公園ガーデンステージ２０５号,,23,108,4670063,,,,,,,2024-07-17,1,,,,,アルラス,0
685,3180003027045,新規,0,2024-07-17,2024-07-17,ＢＡＯ　ＬＯＮＧ合同会社,,合同会社,愛知県,名古屋市千種区,今池５丁目２番４号,,23,101,4640850,,,,,,,2024-07-17,1,,,,,バオロン,0
689,3190003004737,新規,0,2024-07-17,2024-07-17,合同会社ｈａｐｐｉｎｅｓｓ　ｃｒｅａｔｅ,,合同会社,三重県,四日市市,山手町３４２１‐２,,24,202,5100005,,,,,,,2024-07-17,1,,,,,ハピネスクリエイト,0
701,3240003006769,新規,0,2024-07-17,2024-07-17,合同会社暮らし住設,,合同会社,広島県,広島市南区,西霞町２０－１３アーバンハイム西霞１０１,,34,103,7340044,,,,,,,2024-07-17,1,,,,,クラシジュウセツ,0
702,3260001039257,新規,0,2024-07-17,2024-07-17,株式会社コルサ,,株式会社,岡山県,倉敷市,帯高２９２番地１２,,33,202,7100023,,,,,,,2024-07-17,1,,,,,コルサ,0
705,3290001106418,新規,0,2024-07-17,2024-07-17,株式会社Ｎ‐ｅｓｔａｔｅ福岡,,株式会社,福岡県,福岡市西区,愛宕１丁目２５番１－１０８号,,40,135,8190015,,,,,,,2024-07-17,1,,,,,エヌエステートフクオカ,0
708,3300001013835,新規,0,2024-07-17,2024-07-17,株式会社ヒラオ,,株式会社,佐賀県,佐賀市,金立町大字千布２５５５番地,,41,201,8490905,,,,,,,2024-07-17,1,,,,,ヒラオ,0
710,3300003002150,新規,0,2024-07-17,2024-07-17,Ｖ４Ａ合同会社,,合同会社,佐賀県,鳥栖市,田代本町１２２７番地１,,41,203,8410018,,,,,,,2024-07-17,1,,,,,ブイフォーエー,0
715,3340001026651,新規,0,2024-07-17,2024-07-17,株式会社スタジオフォーク,,株式会社,鹿児島県,鹿屋市,上谷町１１５３３番地２１,,46,203,8930061,,,,,,,2024-07-17,1,,,,,スタジオフォーク,0
721,3360001033943,新規,0,2024-07-17,2024-07-17,株式会社Ｓｕｎ‐Ｄｏ企画設計,,株式会社,沖縄県,南城市,大里字古堅６７４番地１,,47,215,9011207,,,,,,,2024-07-17,1,,,,,サンドゥキカクセッケイ,0
722,3360003014140,新規,0,2024-07-17,2024-07-17,合同会社Ｂｕｎｎｙ,,合同会社,沖縄県,中頭郡西原町,字嘉手苅８８番地,,47,329,9030102,,,,,,,2024-07-17,1,,,,,バニー,0
740,3410001013881,新規,0,2024-07-17,2024-07-17,株式会社ぐるはぴ,,株式会社,秋田県,能代市,字寿域長根９番地１,,05,202,0160862,,,,,,,2024-07-17,1,,,,,グルハピ,0
745,3430001092255,新規,0,2024-07-17,2024-07-17,株式会社リプラス,,株式会社,北海道,札幌市手稲区,曙十一条１丁目３番２１号,,01,109,0060841,,,,,,,2024-07-17,1,,,,,リプラス,0
746,3430003016559,新規,0,2024-07-17,2024-07-17,合同会社ハンディヤ,,合同会社,北海道,札幌市中央区,南十九条西１５丁目１－１恒志堂伏見ビル１Ｆ,,01,101,0640919,,,,,,,2024-07-17,1,,,,,ハンディヤ,0
747,3430003016567,新規,0,2024-07-17,2024-07-17,合同会社みーふぁいゆー,,合同会社,北海道,札幌市北区,新琴似四条６丁目４番１９号,,01,102,0010904,,,,,,,2024-07-17,1,,,,,ミーファイユー,0
763,4010001246447,新規,0,2024-07-17,2024-07-17,株式会社有涯,,株式会社,東京都,中央区,東日本橋２丁目７番１号,,13,102,1030004,,,,,,,2024-07-17,1,,,,,ウガイ,0
764,4010001246505,新規,0,2024-07-17,2024-07-17,株式会社インディーキャピタル,,株式会社,東京都,中央区,日本橋本町２丁目３番１１号,,13,102,1030023,,,,,,,2024-07-17,1,,,,,インディーキャピタル,0
765,4010001246620,新規,0,2024-07-17,2024-07-17,Ｂｏｒｄｅｒｌｅｓｓ株式会社,,株式会社,東京都,中央区,日本橋室町１丁目１１番１２号７階,,13,102,1030022,,,,,,,2024-07-17,1,,,,,ボーダレス,0
767,4010003044304,新規,0,2024-07-17,2024-07-17,合同会社Ｇｒａｎｄ　Ｃｒｕ,,合同会社,東京都,中央区,銀座１丁目２２番１１号銀座大竹ビジデンス２Ｆ,,13,102,1040061,,,,,,,2024-07-17,1,,,,,グランクリュ,0
768,4010003044312,新規,0,2024-07-17,2024-07-17,合同会社Ｐｏｌｙｇｏｎ　ＪＰ,,合同会社,東京都,文京区,音羽２丁目１１番１８号音羽ダイヤモンドマンション２０１号,,13,105,1120013,,,,,,,2024-07-17,1,,,,,ポリゴンジェーピー,0
769,4010003044329,新規,0,2024-07-17,2024-07-17,オスカーＵＳファンディング１７合同会社,,合同会社,東京都,千代田区,丸の内３丁目１番１号東京共同会計事務所内,,13,101,1000005,,,,,,,2024-07-17,1,,,,,オスカーユーエスファンディングセブンティーン,0
775,4010403033039,新規,0,2024-07-17,2024-07-17,合同会社ＸＹＺＺＹ,,合同会社,東京都,港区,南青山２丁目２番１５号,,13,103,1070062,,,,,,,2024-07-17,1,,,,,エクシージー,0
776,4010403033055,新規,0,2024-07-17,2024-07-17,Ａｉｒｔｉｅｓ　Ｊａｐａｎ合同会社,,合同会社,東京都,港区,赤坂６丁目３番２０号ＨＡＴビル９階ＬＰＡ外国法事務弁護士法人内,,13,103,1070052,,,,,,,2024-07-17,1,,,,,エアティーズジャパン,0
777,4010403033063,新規,0,2024-07-17,2024-07-17,ＩＢＥＲＩＳ合同会社,,合同会社,東京都,港区,南青山７丁目４－１ザ・パークハビオＳＯＨＯ南青山３０３,,13,103,1070062,,,,,,,2024-07-17,1,,,,,イベリス,0
781,4010601065560,新規,0,2024-07-17,2024-07-17,株式会社Ｖｉｒｄｏｗ,,株式会社,東京都,江東区,北砂３丁目５番２０－５０８号,,13,108,1360073,,,,,,,2024-07-17,1,,,,,ヴァード,0
782,4010701046221,新規,0,2024-07-17,2024-07-17,傲鯊知能株式会社,,株式会社,東京都,品川区,東品川４丁目１２－８品川シーサイドイーストタワー１５階,,13,109,1400002,,,,,,,2024-07-17,1,,,,,ゴウサチノウ,0
783,4010701046262,新規,0,2024-07-17,2024-07-17,愛幸株式会社,,株式会社,東京都,品川区,東品川２丁目２番２５－１３０６号,,13,109,1400002,,,,,,,2024-07-17,1,,,,,アイコウ,0
784,4010701046279,新規,0,2024-07-17,2024-07-17,株式会社Ｇａｒｙｕ’ｓ　Ｗｏｒｋｓ,,株式会社,東京都,品川区,東大井１丁目１１番７号,,13,109,1400011,,,,,,,2024-07-17,1,,,,,ガリューズワークス,0
785,4010701046287,新規,0,2024-07-17,2024-07-17,株式会社Ｌｉｔｅｒａｃｅ　Ｃｏｎｓｕｌｔｉｎｇ,,株式会社,東京都,品川区,戸越６丁目２３番２４－６０４号,,13,109,1420041,,,,,,,2024-07-17,1,,,,,リテラスコンサルティング,0
791,4010901055633,新規,0,2024-07-17,2024-07-17,株式会社ｈｉｙｏｒｉ,,株式会社,東京都,世田谷区,奥沢３丁目４７番８号三敬ビル２０３－Ｂ,,13,112,1580083,,,,,,,2024-07-17,1,,,,,ヒヨリ,0
793,4011001163368,新規,0,2024-07-17,2024-07-17,株式会社Ｈａｎｎａ．,,株式会社,東京都,渋谷区,元代々木町４４番２１号,,13,113,1510062,,,,,,,2024-07-17,1,,,,,ハナドット,0
794,4011001163392,新規,0,2024-07-17,2024-07-17,株式会社アルゴリズム,,株式会社,東京都,渋谷区,恵比寿西２丁目８番４号ＥＸ恵比寿西ビル５階,,13,113,1500021,,,,,,,2024-07-17,1,,,,,アルゴリズム,0
797,4011103014683,新規,0,2024-07-17,2024-07-17,Ｍ＆Ｍコーポレーション合同会社,,合同会社,東京都,新宿区,北新宿１丁目２２番１０号－３０１,,13,104,1690074,,,,,,,2024-07-17,1,,,,,エムアンドエムコーポレーション,0
806,4011401026257,新規,0,2024-07-17,2024-07-17,Ｔｉｎｇ株式会社,,株式会社,東京都,板橋区,赤塚２丁目１番１２号下赤塚パンダビル２０８室,,13,119,1750092,,,,,,,2024-07-17,1,,,,,ティング,0
809,4011501030927,新規,0,2024-07-17,2024-07-17,株式会社Ｎａｔｕｒａｌ　Ｍｉｓｓｉｏｎ,,株式会社,東京都,北区,赤羽西３丁目１０番４号フォレスタ・ハウス２０２号,,13,117,1150055,,,,,,,2024-07-17,1,,,,,ナチュラルミッション,0
813,4013303007228,新規,0,2024-07-17,2024-07-17,億彩合同会社,,合同会社,東京都,豊島区,池袋２丁目２１番１号,,13,116,1710014,,,,,,,2024-07-17,1,,,,,オクサイ,0
818,4020001158105,新規,0,2024-07-17,2024-07-17,株式会社３ＵＰ＆ＬＥＡＦ,,株式会社,神奈川県,横浜市保土ケ谷区,岡沢町２２番地１４１エクセルオカザワ１０２,,14,106,2400062,,,,,,,2024-07-17,1,,,,,スリーアップアンドリーフ,0
829,4021001082749,新規,0,2024-07-17,2024-07-17,株式会社サン無線システム,,株式会社,神奈川県,茅ヶ崎市,萩園１６５５,,14,207,2530071,,,,,,,2024-07-17,1,,,,,サンムセンシステム,0
836,4030001161396,新規,0,2024-07-17,2024-07-17,銀商不動産株式会社,,株式会社,埼玉県,熊谷市,大字新堀１０５２番地４,,11,202,3600000,,,,,,,2024-07-17,1,,,,,ギンショウフドウサン,0
837,4030001161438,新規,0,2024-07-17,2024-07-17,株式会社Ｎｉｐｐｏｎ　Ｔｒａｄｉｎｇ,,株式会社,埼玉県,川口市,上青木西２丁目１１番９号,,11,203,3330845,,,,,,,2024-07-17,1,,,,,ニッポントレーディング,0
838,4030001161470,新規,0,2024-07-17,2024-07-17,Ｂｅｌｌ株式会社,,株式会社,埼玉県,蕨市,塚越２丁目６－２－２０１,,11,223,3350002,,,,,,,2024-07-17,1,,,,,ベル,0
839,4030001161487,新規,0,2024-07-17,2024-07-17,上武医薬株式会社,,株式会社,埼玉県,深谷市,新戒１５１０番地６,,11,218,3660019,,,,,,,2024-07-17,1,,,,,ジョウブイヤク,0
843,4030003024725,新規,0,2024-07-17,2024-07-17,合同会社ワイワイ企画,,合同会社,埼玉県,熊谷市,銀座１丁目１番地１アルファステイツ熊谷銀座１００２号室,,11,202,3600032,,,,,,,2024-07-17,1,,,,,ワイワイキカク,0
863,4070001041966,新規,0,2024-07-17,2024-07-17,株式会社桜八商事,,株式会社,群馬県,太田市,西新町１４番地２０,,10,205,3730847,,,,,,,2024-07-17,1,,,,,オウヤショウジ,0
864,4070001041974,新規,0,2024-07-17,2024-07-17,株式会社Ｇｒｅｅｎｌａｎｄ保泉,,株式会社,群馬県,伊勢崎市,境保泉３０９番地,,10,204,3700128,,,,,,,2024-07-17,1,,,,,グリーンランドホズミ,0
876,4110003005452,新規,0,2024-07-17,2024-07-17,合同会社新潟バックオフィス,,合同会社,新潟県,新潟市中央区,白山浦１丁目４６７番地２,,15,103,9518131,,,,,,,2024-07-17,1,,,,,ニイガタバックオフィス,0
888,4120001266277,新規,0,2024-07-17,2024-07-17,株式会社ＧＬＯＷ,,株式会社,大阪府,大阪市中央区,常盤町１丁目２番５－１３０４号,,27,128,5400028,,,,,,,2024-07-17,1,,,,,,0
889,4120001266681,新規,0,2024-07-17,2024-07-17,ＲＯＯＴＥＲ株式会社,,株式会社,大阪府,大阪市福島区,福島７丁目１番１０ＷｉＸｆｕｋｕｓｈｉｍａ２階,,27,103,5530003,,,,,,,2024-07-17,1,,,,,ルーター,0
890,4120001266797,新規,0,2024-07-17,2024-07-17,崑越株式会社,,株式会社,大阪府,大阪市東成区,深江北３丁目４番２１号エクラ深江橋１１０Ａ,,27,115,5370001,,,,,,,2024-07-17,1,,,,,コンエツ,0
891,4120001266814,新規,0,2024-07-17,2024-07-17,株式会社ＤＲＮＧ,,株式会社,大阪府,大阪市中央区,道頓堀１丁目５番５号３階,,27,128,5420071,,,,,,,2024-07-17,1,,,,,ドラング,0
892,4120001266822,新規,0,2024-07-17,2024-07-17,株式会社ＳｋｙＴｏ,,株式会社,大阪府,大阪市鶴見区,横堤２丁目２番２１号,,27,124,5380052,,,,,,,2024-07-17,1,,,,,スカイト,0
893,4120001266830,新規,0,2024-07-17,2024-07-17,株式会社足立工務店,,株式会社,大阪府,大阪市淀川区,三津屋南２丁目４番３２－５０３号,,27,123,5320035,,,,,,,2024-07-17,1,,,,,アダチコウムテン,0
897,4120101069984,新規,0,2024-07-17,2024-07-17,株式会社ｗｉｔｈプランニング,,株式会社,大阪府,堺市中区,深井沢町３２８２番地ＫＭＫアドバンスビル５０８号室,,27,142,5998236,,,,,,,2024-07-17,1,,,,,ウィズプランニング,0
904,4120103005954,新規,0,2024-07-17,2024-07-17,けあふる合同会社,,合同会社,大阪府,貝塚市,東山１丁目２４番６号,,27,208,5970046,,,,,,,2024-07-17,1,,,,,ケアフル,0
918,4140003020820,新規,0,2024-07-17,2024-07-17,合同会社ナーク,,合同会社,兵庫県,加古川市,野口町水足２０２０番地の１１２,,28,210,6750019,,,,,,,2024-07-17,1,,,,,ナーク,0
940,4180001162322,新規,0,2024-07-17,2024-07-17,株式会社Ｆｌｕｍ,,株式会社,愛知県,大府市,横根町箕手８６番地の３０,,23,223,4740011,,,,,,,2024-07-17,1,,,,,フラム,0
941,4180001162388,新規,0,2024-07-17,2024-07-17,株式会社バトンタッチ,,株式会社,愛知県,名古屋市中川区,中島新町１丁目１２２０番地アベニュー中新ビル３０１号室,,23,110,4540932,,,,,,,2024-07-17,1,,,,,バトンタッチ,0
942,4180001162421,新規,0,2024-07-17,2024-07-17,株式会社西栄建設,,株式会社,愛知県,名古屋市守山区,白沢町２９番地,,23,113,4630092,,,,,,,2024-07-17,1,,,,,ニシエイケンセツ,0
950,4180003027077,新規,0,2024-07-17,2024-07-17,合同会社ｙｏｕｓｔａｎｄ,,合同会社,愛知県,名古屋市守山区,新城２３番１０号,,23,113,4630056,,,,,,,2024-07-17,1,,,,,ユースタンド,0
956,4200001042711,新規,0,2024-07-17,2024-07-17,株式会社ファースト,,株式会社,岐阜県,岐阜市,加納水野町１丁目１４番地,,21,201,5008477,,,,,,,2024-07-17,1,,,,,ファースト,0
960,4220001026092,新規,0,2024-07-17,2024-07-17,株式会社ＣＩＤ,,株式会社,石川県,金沢市,森山２丁目１０４番地２,,17,201,9200843,,,,,,,2024-07-17,1,,,,,シーアイディー,0
962,4240001063514,新規,0,2024-07-17,2024-07-17,株式会社林設計コンサルタント事務所,,株式会社,広島県,大竹市,油見１丁目３番１６号,,34,211,7390612,,,,,,,2024-07-17,1,,,,,ハヤシセッケイコンサルタントジムショ,0
963,4240001063530,新規,0,2024-07-17,2024-07-17,シエル産業株式会社,,株式会社,広島県,呉市,広古新開４丁目１１－１１,,34,202,7370112,,,,,,,2024-07-17,1,,,,,シエルサンギョウ,0
964,4240001063539,新規,0,2024-07-17,2024-07-17,株式会社グリーン工房,,株式会社,広島県,福山市,赤坂町赤坂１６７２番地１,,34,207,7210000,,,,,,,2024-07-17,1,,,,,グリーンコウボウ,0
976,4290001106441,新規,0,2024-07-17,2024-07-17,グランステップ株式会社,,株式会社,福岡県,大牟田市,左古町２－４,,40,202,8360836,,,,,,,2024-07-17,1,,,,,グランステップ,0
980,4300001013834,新規,0,2024-07-17,2024-07-17,株式会社かわしま,,株式会社,佐賀県,唐津市,京町１７７５番地,,41,202,8470045,,,,,,,2024-07-17,1,,,,,カワシマ,0
988,4330005010809,新規,0,2024-07-17,2024-07-17,ＮＰＯ法人結いファーム,,その他の設立登記法人,熊本県,熊本市北区,大窪３丁目７番６号,,43,105,8600083,,,,,,,2024-07-17,1,,,,,ユイファーム,0
990,4350001019083,新規,0,2024-07-17,2024-07-17,株式会社ＩＮＣＲＥＡＳＥ,,株式会社,宮崎県,都城市,太郎坊町７６８６番地７,,45,202,8850002,,,,,,,2024-07-17,1,,,,,インクリース,0
1016,4430003016558,新規,0,2024-07-17,2024-07-17,ｉＺＤＥＳＩＧＮ合同会社,,合同会社,北海道,札幌市北区,新川四条７丁目３番１７号,,01,102,0010924,,,,,,,2024-07-17,1,,,,,アイゼットデザイン,0
1034,4700150126264,新規,0,2024-07-17,2024-06-28,南種子町スポーツスクール実行委員会,,その他,鹿児島県,熊毛郡南種子町,中之上２７９３－１,,46,502,8913701,,,,,,,2024-06-28,1,,,,,ミナミタネチヨウスポーツスクールジツコウイインカイ,0
1047,5010001246454,新規,0,2024-07-17,2024-07-17,株式会社ベテラン新卒市場,,株式会社,東京都,中央区,東日本橋１丁目５－６,,13,102,1030004,,,,,,,2024-07-17,1,,,,,ベテランシンソツシジョウ,0
1048,5010001246487,新規,0,2024-07-17,2024-07-17,株式会社ＫＫＲ,,株式会社,東京都,千代田区,五番町１０番地,,13,101,1020076,,,,,,,2024-07-17,1,,,,,ケイケイアール,0
1049,5010001246545,新規,0,2024-07-17,2024-07-17,株式会社ＵｍｉＦａｎｉオーダーメイド家具製作所,,株式会社,東京都,千代田区,有楽町１丁目６－３日比谷頴川ビル８０１,,13,101,1000006,,,,,,,2024-07-17,1,,,,,ウミファニオーダーメイドカグセイサクジョ,0
1050,5010001246586,新規,0,2024-07-17,2024-07-17,Ｌａｌａｍｏｖｅ　Ｊａｐａｎ株式会社,,株式会社,東京都,千代田区,霞が関３丁目２番６号東京倶楽部ビルディング１１階,,13,101,1000013,,,,,,,2024-07-17,1,,,,,ララムーブジャパン,0
1051,5010001246594,新規,0,2024-07-17,2024-07-17,多賀興産株式会社,,株式会社,東京都,千代田区,神田紺屋町４７番地,,13,101,1010035,,,,,,,2024-07-17,1,,,,,タガコウサン,0
1052,5010003044328,新規,0,2024-07-17,2024-07-17,ワークサービス合同会社,,合同会社,東京都,中央区,銀座１丁目１２－４Ｎ＆ＥＢＬＤ．７階,,13,102,1040061,,,,,,,2024-07-17,1,,,,,ワークサービス,0
1064,5010401183784,新規,0,2024-07-17,2024-07-17,ファンプロダクツ株式会社,,株式会社,東京都,港区,西新橋２丁目２１－２,,13,103,1050003,,,,,,,2024-07-17,1,,,,,ファンプロダクツ,0
1065,5010401183826,新規,0,2024-07-17,2024-07-17,株式会社ＯＣＯＣＪ,,株式会社,東京都,港区,白金２丁目７番３６－１０８号,,13,103,1080072,,,,,,,2024-07-17,1,,,,,オシオシジェイ,0
1066,5010401183859,新規,0,2024-07-17,2024-07-17,株式会社ＭｅＲＩＳＥ,,株式会社,東京都,港区,北青山１丁目３番１号アールキューブ青山３階,,13,103,1070061,,,,,,,2024-07-17,1,,,,,ミライズ,0
1068,5010403032948,新規,0,2024-07-17,2024-07-17,ＨＭＦＪ合同会社,,合同会社,東京都,港区,南青山３丁目１番３号,,13,103,1070062,,,,,,,2024-07-17,1,,,,,エイチエムエフジェイ,0
1069,5010403033046,新規,0,2024-07-17,2024-07-17,Ｃｒｅｓｃｅｒｅ　Ａｇｉｌｅ合同会社,,合同会社,東京都,港区,西新橋１丁目２番９号日比谷セントラルビル１４階,,13,103,1050003,,,,,,,2024-07-17,1,,,,,クレッシェレアジャイル,0
1073,5010503007511,新規,0,2024-07-17,2024-07-17,合同会社孝右衛門,,合同会社,東京都,台東区,浅草橋５丁目４－５ハシモトビル９０６号,,13,106,1110053,,,,,,,2024-07-17,1,,,,,コウエモン,0
1081,5010901055640,新規,0,2024-07-17,2024-07-17,優真企画株式会社,,株式会社,東京都,世田谷区,上北沢５丁目２８番５号,,13,112,1560057,,,,,,,2024-07-17,1,,,,,ユウマキカク,0
1082,5010903009223,新規,0,2024-07-17,2024-07-17,合同会社だいじゅ,,合同会社,東京都,世田谷区,瀬田３丁目１２番６号コーナスフロリダ１１２,,13,112,1580095,,,,,,,2024-07-17,1,,,,,ダイジュ,0
1087,5011001163383,新規,0,2024-07-17,2024-07-17,株式会社朝倉駿店,,株式会社,東京都,渋谷区,渋谷２丁目１９番１５号宮益坂ビルディング６０９,,13,113,1500002,,,,,,,2024-07-17,1,,,,,アサクラシュンテン,0
1089,5011101107918,新規,0,2024-07-17,2024-07-17,株式会社ＳＯＵＪＵ,,株式会社,東京都,新宿区,新宿５丁目１８番２０号ルックハイツ新宿８０３,,13,104,1600022,,,,,,,2024-07-17,1,,,,,ソウジュ,0
1096,5011501030868,新規,0,2024-07-17,2024-07-17,株式会社ＶＥＲＳＥ,,株式会社,東京都,北区,西ケ原１丁目６－６－３Ｆ,,13,117,1140024,,,,,,,2024-07-17,1,,,,,バース,0
1097,5011603004381,新規,0,2024-07-17,2024-07-17,合同会社Ｋｅｎ　Ｐｌａｎｎｉｎｇ,,合同会社,東京都,練馬区,南大泉２丁目１番２５－１１９号,,13,120,1780064,,,,,,,2024-07-17,1,,,,,ケンプランニング,0
1098,5012403006667,新規,0,2024-07-17,2024-07-17,合同会社ジーエムラボ,,合同会社,東京都,調布市,調布ケ丘４丁目１４－１Ｂ－２０１,,13,208,1820021,,,,,,,2024-07-17,1,,,,,ジーエムラボ,0
1102,5012703003050,新規,0,2024-07-17,2024-07-17,合同会社Ｂｏｎｆｉｒｅ,,合同会社,東京都,西東京市,谷戸町１丁目２２番１－１１１１号,,13,229,1880001,,,,,,,2024-07-17,1,,,,,ボンファイア,0
1114,5020001158137,新規,0,2024-07-17,2024-07-17,株式会社ＥＮＬ,,株式会社,神奈川県,川崎市麻生区,虹ケ丘１丁目２番１４－２号,,14,137,2150015,,,,,,,2024-07-17,1,,,,,イーエヌエル,0
1120,5021005013154,新規,0,2024-07-17,2024-07-17,一般社団法人日本学際研究国際センター,,その他の設立登記法人,神奈川県,平塚市,松風町１２番１５－３１０号ＥＬＳＡ湘南松風,,14,203,2540812,,,,,,,2024-07-17,1,,,,,ニホンガクサイケンキュウコクサイセンター,0
1127,5030001161445,新規,0,2024-07-17,2024-07-17,ＣＹＧ株式会社,,株式会社,埼玉県,川口市,川口１丁目３５－７ホーユウコンフォルト西川口９０９号,,11,203,3320015,,,,,,,2024-07-17,1,,,,,シーワイジー,0
1136,5050001055109,新規,0,2024-07-17,2024-07-17,株式会社ＩＫＯＡ不動産,,株式会社,茨城県,水戸市,中央２丁目６番１０号三興ビル２０１,,08,201,3100805,,,,,,,2024-07-17,1,,,,,イコアフドウサン,0
1137,5050003008535,新規,0,2024-07-17,2024-07-17,ライムインターナショナル合同会社,,合同会社,茨城県,結城郡八千代町,大字若１９２２番３,,08,521,3003544,,,,,,,2024-07-17,1,,,,,ライムインターナショナル,0
1146,5070001041973,新規,0,2024-07-17,2024-07-17,株式会社Ｙ’ｓ　Ｃｏｍｐａｎｙ,,株式会社,群馬県,前橋市,富士見町時沢１９８２－１５,,10,201,3710104,,,,,,,2024-07-17,1,,,,,,0
1155,5100001037621,新規,0,2024-07-17,2024-07-17,株式会社ＵＮＪＡＵＮＥ,,株式会社,長野県,北安曇郡白馬村,大字北城４６２９番地１,,20,485,3999301,,,,,,,2024-07-17,1,,,,,アンジャネ,0
1156,5100003007630,新規,0,2024-07-17,2024-07-17,みらいおこし合同会社,,合同会社,長野県,佐久市,中込２３３６－１,,20,217,3850051,,,,,,,2024-07-17,1,,,,,ミライオコシ,0
1170,5120001266714,新規,0,2024-07-17,2024-07-17,星空藍株式会社,,株式会社,大阪府,大阪市生野区,巽中１丁目８番１３号野本マンション４０１,00135597,27,116,5440013,,,,,,,2024-07-17,1,,,,,セイソラアイ,0
1171,5120001266722,新規,0,2024-07-17,2024-07-17,株式会社ＳＴＣ,,株式会社,大阪府,大阪市西淀川区,福町２丁目２９番２１号,,27,113,5550034,,,,,,,2024-07-17,1,,,,,エスティーシー,0
1172,5120001266821,新規,0,2024-07-17,2024-07-17,株式会社ＳＰＡＣＥ,,株式会社,大阪府,大阪市中央区,南船場４丁目１２番２４号現代心斎橋ビル５階,,27,128,5420081,,,,,,,2024-07-17,1,,,,,スペース,0
1174,5120003027049,新規,0,2024-07-17,2024-07-17,合同会社前田工房,,合同会社,大阪府,大阪市北区,梅田１丁目２番２号大阪駅前第２ビル１２‐１２,,27,127,5300001,,,,,,,2024-07-17,1,,,,,マエダコウボウ,0
1179,5120101069983,新規,0,2024-07-17,2024-07-17,株式会社ジーシー,,株式会社,大阪府,河内長野市,清見台４丁目１２番６号,,27,216,5860043,,,,,,,2024-07-17,1,,,,,ジーシー,0
1181,5120901049466,新規,0,2024-07-17,2024-07-17,日本福祉放送株式会社,,株式会社,大阪府,高槻市,野見町２番５２号,,27,207,5690077,,,,,,,2024-07-17,1,,,,,ニホンフクシホウソウ,0
1182,5120901049474,新規,0,2024-07-17,2024-07-17,株式会社壮康建設,,株式会社,大阪府,高槻市,辻子３丁目４３番９号,00135595,27,207,5690036,,,,,,,2024-07-17,1,,,,,ソウコウケンセツ,0
1188,5130001077409,新規,0,2024-07-17,2024-07-17,Ｔｅａｍ　Ｅｎｅｒｇｙ　ＡＩ総研株式会社,,株式会社,京都府,京都市山科区,安朱東谷１番地５,,26,110,6078002,,,,,,,2024-07-17,1,,,,,チームエナジーエーアイソウケン,0
1192,5130003009698,新規,0,2024-07-17,2024-07-17,合同会社十人十色,,合同会社,京都府,京都市中京区,河原町通三条下る東入北車屋町２６７番地佐野ビル１階,,26,104,6040000,,,,,,,2024-07-17,1,,,,,ジュウニントイロ,0
1194,5140001135116,新規,0,2024-07-17,2024-07-17,株式会社ＵＫホーム,,株式会社,兵庫県,尼崎市,久々知２丁目１１番２０号,,28,202,6610977,,,,,,,2024-07-17,1,,,,,ユーケーホーム,0
1195,5140001135140,新規,0,2024-07-17,2024-07-17,株式会社航沙,,株式会社,兵庫県,芦屋市,公光町１番９号ＬａＳａｎｔｅ芦屋４０１号,00135598,28,206,6590065,,,,,,,2024-07-17,1,,,,,コウサ,0
1199,5140005027152,新規,0,2024-07-17,2024-07-17,農事組合法人北橋農場,,その他の設立登記法人,兵庫県,たつの市,揖保町中臣７７３番地１,,28,229,6794152,,,,,,,2024-07-17,1,,,,,,0
1201,5160001026073,新規,0,2024-07-17,2024-07-17,ＫＯＯＬＥＹＥＺ　ＪＡＰＡＮ株式会社,,株式会社,滋賀県,守山市,勝部１丁目１３番１号,,25,207,5240041,,,,,,,2024-07-17,1,,,,,クールアイズジャパン,0
1208,5180001162346,新規,0,2024-07-17,2024-07-17,株式会社輪道,,株式会社,愛知県,西春日井郡豊山町,大字豊場字諏訪２２２番地,,23,342,4800202,,,,,,,2024-07-17,1,,,,,リンドウ,0
1209,5180001162362,新規,0,2024-07-17,2024-07-17,株式会社タウンガーディアン,,株式会社,愛知県,名古屋市千種区,東山元町６丁目１２番地１ベルシャトー高峰Ｃ３棟２０５,,23,101,4640804,,,,,,,2024-07-17,1,,,,,タウンガーディアン,0
1210,5180001162370,新規,0,2024-07-17,2024-07-17,株式会社ＡＣＴ　ＮＯＷ,,株式会社,愛知県,名古屋市南区,駈上１丁目１４番１８号（ＨＩＬＬＳ　ＣＲＥＳＴ１０１号）,,23,112,4570007,,,,,,,2024-07-17,1,,,,,アクトナウ,0
1216,5180003027068,新規,0,2024-07-17,2024-07-17,合同会社健花,,合同会社,愛知県,豊明市,栄町南姥子６番地ファミリアーレ豊明前後３０５号,,23,229,4701161,,,,,,,2024-07-17,1,,,,,ケンハナ,0
1217,5180005020698,新規,0,2024-07-17,2024-07-17,一般社団法人日本広告士協会,,その他の設立登記法人,愛知県,名古屋市中村区,名駅３丁目４－１０アルティメイト名駅１ｓｔ２階,,23,105,4500002,,,,,,,2024-07-17,1,,,,,ニホンコウコクシキョウカイ,0
1218,5180301038849,新規,0,2024-07-17,2024-07-17,株式会社光プラント機工,,株式会社,愛知県,岡崎市,錦町９番地２０シャルマン誠和１０２号室,,23,202,4440067,,,,,,,2024-07-17,1,,,,,ヒカリプラントキコウ,0
1222,5190003004743,新規,0,2024-07-17,2024-07-17,合同会社フォルチコンビクション,,合同会社,三重県,桑名市,大字下深谷部５０１‐１,,24,205,5110808,,,,,,,2024-07-17,1,,,,,フォルチコンビクション,0
1224,5200001042710,新規,0,2024-07-17,2024-07-17,ナカデン株式会社,,株式会社,岐阜県,可児郡御嵩町,中９４番地２,,21,521,5050121,,,,,,,2024-07-17,1,,,,,ナカデン,0
1225,5200001042719,新規,0,2024-07-17,2024-07-17,ＲＺＨ　ＴＲＡＤＩＮＧ株式会社,,株式会社,岐阜県,土岐市,駄知町４９８番地の２８,,21,212,5095401,,,,,,,2024-07-17,1,,,,,アールゼットエイチトレーディング,0
1228,5230001020440,新規,0,2024-07-17,2024-07-17,株式会社コンジリーズ,,株式会社,富山県,射水市,摺出寺１４０番地,,16,211,9330209,,,,,,,2024-07-17,1,,,,,コンジリーズ,0
1230,5240003006759,新規,0,2024-07-17,2024-07-17,ローズプレスサービス合同会社,,合同会社,広島県,福山市,多治米町２丁目１２番地１４－５号,,34,207,7200824,,,,,,,2024-07-17,1,,,,,ローズプレスサービス,0
1232,5260001039263,新規,0,2024-07-17,2024-07-17,株式会社永塗,,株式会社,岡山県,倉敷市,亀島２丁目１４番３６－１号,,33,202,7128013,,,,,,,2024-07-17,1,,,,,エイト,0
1238,5290001106358,新規,0,2024-07-17,2024-07-17,株式会社ブラックウッド,,株式会社,福岡県,糟屋郡志免町,南里６丁目６番２１－４０３号,,40,343,8112207,,,,,,,2024-07-17,1,,,,,ブラックウッド,0
1239,5290001106481,新規,0,2024-07-17,2024-07-17,株式会社ＴＲホールディングス,,株式会社,福岡県,福岡市中央区,渡辺通１丁目１番１号サンセルコビル６階,,40,133,8100004,,,,,,,2024-07-17,1,,,,,ティーアールホールディングス,0
1240,5290001106523,新規,0,2024-07-17,2024-07-17,株式会社リヒトアイズ,,株式会社,福岡県,糟屋郡篠栗町,中央３丁目９－１オフィスパレア篠栗Ｉ－Ｂ２,00135600,40,342,8112417,,,,,,,2024-07-17,1,,,,,リヒトアイズ,0
1251,5350001019082,新規,0,2024-07-17,2024-07-17,株式会社まっきーカレー,,株式会社,宮崎県,都城市,宮丸町２街区２３号ポポラーレ２０３号室,,45,202,8850078,,,,,,,2024-07-17,1,,,,,マッキーカレー,0
1252,5360001033925,新規,0,2024-07-17,2024-07-17,株式会社石川保安商会,,株式会社,沖縄県,うるま市,石川赤崎１丁目２番２５号,,47,213,9041103,,,,,,,2024-07-17,1,,,,,イシカワホアンショウカイ,0
1253,5360003014155,新規,0,2024-07-17,2024-07-17,合同会社沖縁,,合同会社,沖縄県,名護市,城１丁目１４番１５号城十字路ビル２０１号,,47,209,9050013,,,,,,,2024-07-17,1,,,,,オキエン,0
1258,5380001034665,新規,0,2024-07-17,2024-07-17,株式会社トゥクシェア,,株式会社,福島県,郡山市,鳴神１丁目９７－１ベレオ鳴神３０１,,07,203,9630207,,,,,,,2024-07-17,1,,,,,トゥクシェア,0
1265,5430001092253,新規,0,2024-07-17,2024-07-17,株式会社ＣＬＩＴＡＤ,,株式会社,北海道,札幌市北区,北三十二条西５丁目３番２８号ＳＡＫＵＲＡ－Ｎ３２Ｉ室,,01,102,0010032,,,,,,,2024-07-17,1,,,,,クリテッド,0
1268,5462501001005,新規,0,2024-07-17,2024-07-17,株式会社ベジフルプランナー,,株式会社,北海道,標津郡中標津町,字俵橋１３９８番地,,01,692,0861137,,,,,,,2024-07-17,1,,,,,ベジフルプランナー,0
1269,5480001012545,新規,0,2024-07-17,2024-07-17,株式会社Ｓ‐ＣＯ,,株式会社,徳島県,吉野川市,鴨島町知恵島４８１番地２,,36,205,7760014,,,,,,,2024-07-17,1,,,,,エスシーオー,0
1275,5700150003347,新規,0,2024-07-17,2015-10-09,日本福音同盟,,その他,東京都,千代田区,神田駿河台２丁目１ＯＣＣビル,,13,101,1010062,,,,,,,2015-10-09,1,,,,,ニホンフクインドウメイ,0
1276,5700150126478,新規,0,2024-07-17,2024-07-17,相続財産法人　被相続人亡春木厚,,その他,神奈川県,三浦市,栄町２４番１０号,,14,210,2380236,,,,,,,2024-07-17,1,,,,,ソウゾクザイサンホウジンヒソウゾクニンナキハルキアツシ,0
1287,6010001246486,新規,0,2024-07-17,2024-07-17,株式会社ＩＳＩ,,株式会社,東京都,千代田区,五番町１０番地,,13,101,1020076,,,,,,,2024-07-17,1,,,,,アイエスアイ,0
1288,6010001246528,新規,0,2024-07-17,2024-07-17,株式会社シーク・シード,,株式会社,東京都,中央区,銀座６丁目１３番９号ｂｉｚｃｕｂｅ,,13,102,1040061,,,,,,,2024-07-17,1,,,,,シークシード,0
1289,6010001246577,新規,0,2024-07-17,2024-07-17,株式会社ｍａｎａｂｉｔｏ,,株式会社,東京都,千代田区,麹町４丁目１番５号,,13,101,1020083,,,,,,,2024-07-17,1,,,,,マナビト,0
1290,6010001246602,新規,0,2024-07-17,2024-07-17,株式会社宇善,,株式会社,東京都,文京区,本郷５丁目６番２号アドバンスプレイス２Ｆ,,13,105,1130033,,,,,,,2024-07-17,1,,,,,ウゼン,0
1291,6010003044319,新規,0,2024-07-17,2024-07-17,合同会社ヤゾークリエイト,,合同会社,東京都,中央区,日本橋室町１丁目１１番１２号日本橋水野ビル７階,,13,102,1030022,,,,,,,2024-07-17,1,,,,,ヤゾークリエイト,0
1292,6010003044327,新規,0,2024-07-17,2024-07-17,合同会社ＤＥＰＡＲＴＵＲＥＳ,,合同会社,東京都,中央区,日本橋兜町１７－２兜町第６葉山ビル４階,,13,102,1030026,,,,,,,2024-07-17,1,,,,,デパーチャーズ,0
1295,6010101016236,新規,0,2024-07-17,2024-07-17,株式会社グレン,,株式会社,東京都,八王子市,横川町１１１１－１６,,13,201,1930823,,,,,,,2024-07-17,1,,,,,グレン,0
1304,6010401183619,新規,0,2024-07-17,2024-07-17,株式会社エスダブリュエム,,株式会社,東京都,港区,東麻布２丁目３０－９－３０１,,13,103,1060044,,,,,,,2024-07-17,1,,,,,エスダブリュエム,0
1305,6010401183791,新規,0,2024-07-17,2024-07-17,株式会社優美,,株式会社,東京都,港区,高輪３丁目５番１９号,,13,103,1080074,,,,,,,2024-07-17,1,,,,,ユウビ,0
1306,6010401183817,新規,0,2024-07-17,2024-07-17,株式会社オーミヤ,,株式会社,東京都,港区,芝２丁目１２番１４号,,13,103,1050014,,,,,,,2024-07-17,1,,,,,オーミヤ,0
1311,6010405023382,新規,0,2024-07-17,2024-07-17,一般社団法人中高生性教育協会,,その他の設立登記法人,東京都,港区,元赤坂１丁目７番１０号元赤坂ビル９Ｆ,,13,103,1070051,,,,,,,2024-07-17,1,,,,,チュウコウセイセイキョウイクキョウカイ,0
1312,6010405023416,新規,0,2024-07-17,2024-07-17,一般社団法人かしこ,,その他の設立登記法人,東京都,港区,南青山４丁目２１番２６号細谷総合会計事務所内,,13,103,1070062,,,,,,,2024-07-17,1,,,,,カシコ,0
1319,6010601065534,新規,0,2024-07-17,2024-07-17,株式会社ファンクロ,,株式会社,東京都,江東区,古石場２丁目１６番４－２０２号,,13,108,1350045,,,,,,,2024-07-17,1,,,,,ファンクロ,0
1320,6010601065567,新規,0,2024-07-17,2024-07-17,株式会社シャ・ラ・ラ,,株式会社,東京都,江東区,森下４丁目２０番１号,,13,108,1350004,,,,,,,2024-07-17,1,,,,,シャララ,0
1322,6010603010950,新規,0,2024-07-17,2024-07-17,スターオーシャンテクノロジー合同会社,,合同会社,東京都,江東区,有明２丁目１－２－１３０４号,,13,108,1350063,,,,,,,2024-07-17,1,,,,,スターオーシャンテクノロジー,0
1323,6010603010959,新規,0,2024-07-17,2024-07-17,ＢｌｕｅＡＧ合同会社,,合同会社,東京都,江東区,豊洲６丁目２番３１－３０５号,,13,108,1350061,,,,,,,2024-07-17,1,,,,,ブルーアグ,0
1324,6010701046277,新規,0,2024-07-17,2024-07-17,株式会社オンプレーン,,株式会社,東京都,品川区,北品川５丁目６番２４号,,13,109,1410001,,,,,,,2024-07-17,1,,,,,オンプレーン,0
1331,6010903009222,新規,0,2024-07-17,2024-07-17,ＩＴＥＲＲＡ合同会社,,合同会社,東京都,世田谷区,駒沢２丁目５－１４,,13,112,1540012,,,,,,,2024-07-17,1,,,,,イテラ,0
1334,6011001163201,新規,0,2024-07-17,2024-07-17,株式会社スコーピオ,,株式会社,東京都,渋谷区,南平台町５番３－８０７号,,13,113,1500036,,,,,,,2024-07-17,1,,,,,スコーピオ,0
1335,6011001163291,新規,0,2024-07-17,2024-07-17,株式会社Ａｆｔｏ　Ａｃｃｏｕｎｔｉｎｇ,,株式会社,東京都,渋谷区,渋谷２丁目１９－１５宮益坂ビルディング６０９,,13,113,1500002,,,,,,,2024-07-17,1,,,,,アフトアカウンティング,0
1336,6011001163390,新規,0,2024-07-17,2024-07-17,株式会社ＢＲＡＶＥ,,株式会社,東京都,渋谷区,神泉町１０番１５号,,13,113,1500045,,,,,,,2024-07-17,1,,,,,ブレイブ,0
1337,6011001163416,新規,0,2024-07-17,2024-07-17,株式会社リモア,,株式会社,東京都,渋谷区,道玄坂１丁目１０番８号渋谷道玄坂東急ビル２Ｆ－Ｃ,,13,113,1500043,,,,,,,2024-07-17,1,,,,,リモア,0
1338,6011001163440,新規,0,2024-07-17,2024-07-17,株式会社東北沢コンタクト,,株式会社,東京都,渋谷区,西原２丁目２５番１３－７０７号,,13,113,1510066,,,,,,,2024-07-17,1,,,,,ヒガシキタザワコンタクト,0
1339,6011003019566,新規,0,2024-07-17,2024-07-17,合同会社ＰｉｏｎｃｅＤＣ,,合同会社,東京都,目黒区,自由が丘２丁目１６番１２号ＲＪ３,,13,110,1520035,,,,,,,2024-07-17,1,,,,,パイオンスディーシー,0
1348,6011301029845,新規,0,2024-07-17,2024-07-17,株式会社ＰＲＯＧＲＥＳＳ,,株式会社,東京都,杉並区,阿佐谷北４丁目７番５号鹿門館３０１,,13,115,1660001,,,,,,,2024-07-17,1,,,,,プログレス,0
1350,6011403004440,新規,0,2024-07-17,2024-07-17,白井商事合同会社,,合同会社,東京都,板橋区,大山町５４－５－４０７,,13,119,1730023,,,,,,,2024-07-17,1,,,,,シライショウジ,0
1353,6012301013995,新規,0,2024-07-17,2024-07-17,株式会社リノーバー,,株式会社,東京都,町田市,中町１丁目２－２森町ビル１Ｆ,,13,209,1940021,,,,,,,2024-07-17,1,,,,,リノーバー,0
1354,6012303002022,新規,0,2024-07-17,2024-07-17,合同会社ジェイプラス,,合同会社,東京都,町田市,小山町１２０５番地１９,,13,209,1940212,,,,,,,2024-07-17,1,,,,,ジェイプラス,0
1358,6012401042102,新規,0,2024-07-17,2024-07-17,株式会社Ｇｌｏａｖａｎｔ,,株式会社,東京都,府中市,矢崎町１丁目１番地の１ファインスクエア府中本町７０１,,13,206,1830025,,,,,,,2024-07-17,1,,,,,グローヴァント,0
1359,6012801023313,新規,0,2024-07-17,2024-07-17,ウイン・スカーレット株式会社,,株式会社,東京都,立川市,砂川町８丁目３２番地の５,,13,202,1900031,,,,,,,2024-07-17,1,,,,,ウインスカーレット,0
1362,6013303007226,新規,0,2024-07-17,2024-07-17,合同会社ＫＪマネジメント,,合同会社,東京都,豊島区,目白５丁目５－５レックス目白プライムシティ３０３,,13,116,1710031,,,,,,,2024-07-17,1,,,,,ケイジェイマネジメント,0
1365,6020001158078,新規,0,2024-07-17,2024-07-17,株式会社クリークキャピタル,,株式会社,神奈川県,川崎市高津区,子母口３８５番地３,,14,134,2130023,,,,,,,2024-07-17,1,,,,,クリークキャピタル,0
1366,6020003026489,新規,0,2024-07-17,2024-07-17,合同会社ＯＫ　ＡＰＰＬＥ,,合同会社,神奈川県,横浜市都筑区,長坂１４番１－３０７号,,14,118,2240063,,,,,,,2024-07-17,1,,,,,オーケーアップル,0
1369,6021001082730,新規,0,2024-07-17,2024-07-17,株式会社ＪＡＰＡＮ　ＡＲＫＳ,,株式会社,神奈川県,伊勢原市,下糟屋１０４２番地,,14,214,2591143,,,,,,,2024-07-17,1,,,,,ジャパンアークス,0
1370,6021001082739,新規,0,2024-07-17,2024-07-17,株式会社ＮＣ,,株式会社,神奈川県,茅ヶ崎市,南湖３丁目３番９号,,14,207,2530061,,,,,,,2024-07-17,1,,,,,エヌシー,0
1375,6030001161502,新規,0,2024-07-17,2024-07-17,株式会社クローバー,,株式会社,埼玉県,さいたま市浦和区,仲町２丁目１７－１３アイリーＮＡＫＡＣＨＯ５階,,11,107,3300062,,,,,,,2024-07-17,1,,,,,クローバー,0
1384,6040001134572,新規,0,2024-07-17,2024-07-17,株式会社ＷＡＨＯ,,株式会社,千葉県,千葉市若葉区,西都賀１丁目５番１１号パークヒル豊田マンション２０１号,,12,104,2640026,,,,,,,2024-07-17,1,,,,,ワホ,0
1385,6040001134580,新規,0,2024-07-17,2024-07-17,株式会社ハッシュブライト,,株式会社,千葉県,松戸市,小根本４９番地の５アーク松戸レジデンス８０５号,,12,207,2710073,,,,,,,2024-07-17,1,,,,,ハッシュブライト,0
1392,6040003025407,新規,0,2024-07-17,2024-07-17,合同会社心軌,,合同会社,千葉県,市川市,香取１丁目１０番４号,,12,203,2720141,,,,,,,2024-07-17,1,,,,,シンキ,0
1400,6060003005159,新規,0,2024-07-17,2024-07-17,合同会社ＴＫＭ,,合同会社,栃木県,宇都宮市,西川田１丁目４０－２５,,09,201,3210152,,,,,,,2024-07-17,1,,,,,ティーケーエム,0
1406,6070001041964,新規,0,2024-07-17,2024-07-17,ＭＯＵＲＩ　ＡＧＥＮＣＹ株式会社,,株式会社,群馬県,渋川市,石原１番地３カワバタビル１Ｆ,,10,208,3770007,,,,,,,2024-07-17,1,,,,,モーリーエージェンシー,0
1407,6070001041972,新規,0,2024-07-17,2024-07-17,株式会社えふフード,,株式会社,群馬県,吾妻郡草津町,大字草津２３５番地２７,,10,426,3771711,,,,,,,2024-07-17,1,,,,,エフフード,0
1408,6080001026378,新規,0,2024-07-17,2024-07-17,株式会社いなば債権管理,,株式会社,静岡県,静岡市清水区,由比北田１１４番地の１,,22,103,4213104,,,,,,,2024-07-17,1,,,,,イナバサイケンカンリ,0
1430,6120001266688,新規,0,2024-07-17,2024-07-17,Ｇｏｌｄｅｎ　Ｔｉｇｅｒ株式会社,,株式会社,大阪府,大阪市港区,波除３丁目８番１４号４０２室,,27,107,5520001,,,,,,,2024-07-17,1,,,,,ゴールデンタイガー,0
1431,6120001266779,新規,0,2024-07-17,2024-07-17,久立株式会社,,株式会社,大阪府,大阪市生野区,新今里３丁目１０－１２,,27,116,5440001,,,,,,,2024-07-17,1,,,,,キュウタツ,0
1432,6120001266820,新規,0,2024-07-17,2024-07-17,株式会社三日月,,株式会社,大阪府,大阪市北区,堂島１丁目３番３１号堂島ビル５階５０１号室,,27,127,5300003,,,,,,,2024-07-17,1,,,,,ミカヅキ,0
1433,6120001266845,新規,0,2024-07-17,2024-07-17,ＣｏＣｏｍｏＨＬＤＧＳ株式会社,,株式会社,大阪府,大阪市鶴見区,鶴見４丁目１番２号２Ｆ２００区画,,27,124,5380053,,,,,,,2024-07-17,1,,,,,ココモホールディングス,0
1436,6120003026974,新規,0,2024-07-17,2024-07-17,合同会社Ｔｈｅ　ｔｒｅｅ　ｏｆ　Ｌｉｆｅ,,合同会社,大阪府,大阪市西成区,萩之茶屋３丁目４番７号ＵＮＩＯＮ宣教会館,,27,122,5570004,,,,,,,2024-07-17,1,,,,,ザツリーオブライフ,0
1437,6120003027048,新規,0,2024-07-17,2024-07-17,ＡＹＴＫ合同会社,,合同会社,大阪府,大阪市北区,梅田１丁目２番２号大阪駅前第２ビル１２‐１２,,27,127,5300001,,,,,,,2024-07-17,1,,,,,アヤタカ,0
1441,6120101069990,新規,0,2024-07-17,2024-07-17,カワナミインターナショナル株式会社,,株式会社,大阪府,泉南郡田尻町,嘉祥寺５８８番地,,27,362,5980091,,,,,,,2024-07-17,1,,,,,カワナミインターナショナル,0
1443,6120103005952,新規,0,2024-07-17,2024-07-17,ＲＥＣＫＬＥＳＳ合同会社,,合同会社,大阪府,堺市中区,新家町３４６番地９,,27,142,5998232,,,,,,,2024-07-17,1,,,,,レックレスー,0
1444,6120901049465,新規,0,2024-07-17,2024-07-17,株式会社ＨＩＫＯ総建,,株式会社,大阪府,池田市,畑４丁目１０番４－２号,,27,204,5630021,,,,,,,2024-07-17,1,,,,,ヒコソウケン,0
1448,6130003009697,新規,0,2024-07-17,2024-07-17,合同会社Ｔｒｅｓ‐ｆｏｒｔ　Ｉｎｃａｒｎａｔｉｏｎ,,合同会社,京都府,木津川市,城山町平尾越中谷８６番地７,,26,214,6190200,,,,,,,2024-07-17,1,,,,,トレスフォートインカネーション,0
1456,6140001135131,新規,0,2024-07-17,2024-07-17,ＧＲＥＥＮ　ＲＯＯＭ　ＷＯＲＫＳ株式会社,,株式会社,兵庫県,姫路市,西中島３１－１２－Ａ－１０３,,28,201,6700805,,,,,,,2024-07-17,1,,,,,グリーンルームワークス,0
1458,6140003020827,新規,0,2024-07-17,2024-07-17,合同会社千里と文治,,合同会社,兵庫県,宝塚市,仁川高丸２丁目２番６号,,28,214,6650063,,,,,,,2024-07-17,1,,,,,チサトトブンジ,0
1459,6140005027151,新規,0,2024-07-17,2024-07-17,農事組合法人北橋ファーム,,その他の設立登記法人,兵庫県,たつの市,揖保町中臣７７３番地１,,28,229,6794152,,,,,,,2024-07-17,1,,,,,,0
1463,6150001027419,新規,0,2024-07-17,2024-07-17,株式会社Ｌａｍｅｃｈ,,株式会社,奈良県,橿原市,上品寺町８１－１６－２０１,,29,205,6340803,,,,,,,2024-07-17,1,,,,,,0
1464,6150001027427,新規,0,2024-07-17,2024-07-17,株式会社奈良ドリーマーズ,,株式会社,奈良県,奈良市,橋本町３番地の１,,29,201,6308217,,,,,,,2024-07-17,1,,,,,ナラドリーマーズ,0
1466,6160001026072,新規,0,2024-07-17,2024-07-17,株式会社Ａ２,,株式会社,滋賀県,彦根市,松原町１８７５番地３,,25,202,5220002,,,,,,,2024-07-17,1,,,,,エイツー,0
1467,6160001026080,新規,0,2024-07-17,2024-07-17,株式会社ＪＯＹ,,株式会社,滋賀県,草津市,下物町３１２,,25,206,5250001,,,,,,,2024-07-17,1,,,,,ジョイ,0
1482,6180001162262,新規,0,2024-07-17,2024-07-17,株式会社ゆう,,株式会社,愛知県,名古屋市中村区,鈍池町３丁目１番地,,23,105,4530826,,,,,,,2024-07-17,1,,,,,ユウ,0
1483,6180001162320,新規,0,2024-07-17,2024-07-17,株式会社セブンスリー,,株式会社,愛知県,北名古屋市,鹿田出町西２９８２番地４,,23,234,4810004,,,,,,,2024-07-17,1,,,,,セブンスリー,0
1484,6180001162345,新規,0,2024-07-17,2024-07-17,株式会社Ｎｕｍｂｅｒ９,,株式会社,愛知県,名古屋市緑区,梅里１丁目２４番地１,,23,114,4580001,,,,,,,2024-07-17,1,,,,,ナンバーナイン,0
1487,6180003027075,新規,0,2024-07-17,2024-07-17,合同会社Ｋｉｏｋｕ,,合同会社,愛知県,名古屋市西区,名駅２丁目３４番１７号セントラル名古屋１１０１号,,23,104,4510045,,,,,,,2024-07-17,1,,,,,キオク,0
1488,6180005020697,新規,0,2024-07-17,2024-07-17,一般社団法人まちづくり連携協会,,その他の設立登記法人,愛知県,名古屋市天白区,原１丁目４１２番地村瀬商事ビル１階,,23,116,4680015,,,,,,,2024-07-17,1,,,,,マチヅクリレンケイキョウカイ,0
1492,6190003004742,新規,0,2024-07-17,2024-07-17,合同会社ＭＭＳ,,合同会社,三重県,津市,長岡町７５０番地１０,,24,201,5140064,,,,,,,2024-07-17,1,,,,,エムエムエス,0
1496,6210001019830,新規,0,2024-07-17,2024-07-17,ワニモ不動産株式会社,,株式会社,福井県,坂井市,丸岡町与河第６８号３９番地,,18,210,9100215,,,,,,,2024-07-17,1,,,,,ワニモフドウサン,0
1505,6240001063520,新規,0,2024-07-17,2024-07-17,中国ふそう自動車販売株式会社,,株式会社,広島県,安芸郡坂町,北新地１丁目４番７９号,,34,309,7314311,,,,,,,2024-07-17,1,,,,,チュウゴクフソウジドウシャハンバイ,0
1506,6240001063529,新規,0,2024-07-17,2024-07-17,株式会社どっと,,株式会社,広島県,広島市西区,中広町１丁目１５番２号２Ｆ,,34,104,7330012,,,,,,,2024-07-17,1,,,,,ドット,0
1507,6240001063537,新規,0,2024-07-17,2024-07-17,株式会社ケミカルパワー,,株式会社,広島県,福山市,南手城町２丁目１７番１号,,34,207,7210963,,,,,,,2024-07-17,1,,,,,ケミカルパワー,0
1512,6260001039262,新規,0,2024-07-17,2024-07-17,株式会社ＭＩＷＡＫＵ,,株式会社,岡山県,岡山市北区,横井上１５７５番地,,33,101,7011145,,,,,,,2024-07-17,1,,,,,ミワク,0
1519,6290001106407,新規,0,2024-07-17,2024-07-17,グランツリー株式会社,,株式会社,福岡県,久留米市,六ツ門町２番地１９－２Ｆ,,40,203,8300031,,,,,,,2024-07-17,1,,,,,グランツリー,0
1528,6310001019110,新規,0,2024-07-17,2024-07-17,株式会社築城林業,,株式会社,長崎県,対馬市,上対馬町小鹿４２８番地１,,42,209,8172241,,,,,,,2024-07-17,1,,,,,ツイキリンギョウ,0
1541,6360005007065,新規,0,2024-07-17,2024-07-17,一般社団法人ＥＴＨＩＣＡＬＩＦＥ　ＬＡＢ,,その他の設立登記法人,沖縄県,浦添市,港川２丁目１４番１号,,47,208,9012134,,,,,,,2024-07-17,1,,,,,エシカライフラボ,0
1547,6370001051520,新規,0,2024-07-17,2024-07-17,アイビス株式会社,,株式会社,宮城県,仙台市宮城野区,福田町２丁目１８番３号,,04,102,9830023,,,,,,,2024-07-17,1,,,,,アイビス,0
1548,6370003006679,新規,0,2024-07-17,2024-07-17,合同会社トモエエステート,,合同会社,宮城県,仙台市太白区,若葉町１８番７号,,04,104,9820822,,,,,,,2024-07-17,1,,,,,トモエエステート,0
1549,6380001034672,新規,0,2024-07-17,2024-07-17,株式会社泉井設備,,株式会社,福島県,相馬市,立谷字北山３番地の２３,,07,209,9792531,,,,,,,2024-07-17,1,,,,,イズミイセツビ,0
1550,6380003005812,新規,0,2024-07-17,2024-07-17,ＭＵＨＥＢＩ合同会社,,合同会社,福島県,二本松市,針道字西ノ内１３８番地１－２Ｆ,,07,210,9640202,,,,,,,2024-07-17,1,,,,,ムヘビ,0
1554,6390001017684,新規,0,2024-07-17,2024-07-17,株式会社中川Ｂｕｉｌｄｅｒｓ．,,株式会社,山形県,山形市,成沢西４丁目６番１１号,,06,201,9902339,,,,,,,2024-07-17,1,,,,,ナカガワビルダーズ,0
1564,6420001018803,新規,0,2024-07-17,2024-07-17,株式会社喜仁会メディカルサポート,,株式会社,青森県,八戸市,大字根城字馬場頭２番地２,,02,203,0391166,,,,,,,2024-07-17,1,,,,,キジンカイメディカルサポート,0
1565,6430001092260,新規,0,2024-07-17,2024-07-17,株式会社Ｌｏｏｐ,,株式会社,北海道,江別市,ゆめみ野南町４－２,,01,217,0670066,,,,,,,2024-07-17,1,,,,,ループ,0
1571,6450003002521,新規,0,2024-07-17,2024-07-17,合同会社ｕｔａｒａ,,合同会社,北海道,天塩郡幌延町,字問寒別１２７番地１１,,01,520,0982943,,,,,,,2024-07-17,1,,,,,ウタラ,0
1575,6490003001908,新規,0,2024-07-17,2024-07-17,合同会社ウル,,合同会社,高知県,高知市,鏡川町１０６番地５シャーメゾン鏡川２０１,,39,201,7800933,,,,,,,2024-07-17,1,,,,,,0
1580,6700150030555,新規,0,2024-07-17,2015-10-09,和歌山合同法律事務所,,その他,和歌山県,和歌山市,十二番丁１０,,30,201,6408158,,,,,,,2015-10-09,1,,,,,ワカヤマゴウドウホウリツジムシヨ,0
1586,7010001246477,新規,0,2024-07-17,2024-07-17,Ｓｕｓｔａｎａ　Ｔｅｃｈｎｏｌｏｇｉｅｓ株式会社,,株式会社,東京都,中央区,銀座１丁目１２番４号Ｎ＆Ｅ・ＢＬＤ．６Ｆ,,13,102,1040061,,,,,,,2024-07-17,1,,,,,サスタナテクノロジーズ,0
1587,7010001246601,新規,0,2024-07-17,2024-07-17,ＳＡＫＵＲＡ株式会社,,株式会社,東京都,文京区,本駒込４丁目２０番１１－１１０３号,,13,105,1130021,,,,,,,2024-07-17,1,,,,,サクラ,0
1588,7010001246626,新規,0,2024-07-17,2024-07-17,ＺＨＥＮＧ　ＨＯＮＧ　ＣＯＬＬＥＣＴＩＶＥ株式会社,,株式会社,東京都,中央区,日本橋人形町２丁目６番２号,,13,102,1030013,,,,,,,2024-07-17,1,,,,,ゼンホンコレクティブ,0
1589,7010001246659,新規,0,2024-07-17,2024-07-17,株式会社Ｎｉｃｅ,,株式会社,東京都,中央区,銀座１丁目５番１５号,,13,102,1040061,,,,,,,2024-07-17,1,,,,,ナイス,0
1590,7010003044326,新規,0,2024-07-17,2024-07-17,Ｓｏｌｅｎａｎｏｓｏｆｔ合同会社,,合同会社,東京都,中央区,銀座１丁目２２番１１号銀座大竹ビジデンス２階,,13,102,1040061,,,,,,,2024-07-17,1,,,,,ソレナノソフト,0
1596,7010401183816,新規,0,2024-07-17,2024-07-17,ＳａｆｅＳｔａｒｔ　Ｉｎｔｅｒｎａｔｉｏｎａｌ　Ｊａｐａｎ株式会社,,株式会社,東京都,港区,港南２丁目１５番１号品川インターシティＡ棟２８階,,13,103,1080075,,,,,,,2024-07-17,1,,,,,セーフスタートインターナショナルジャパン,0
1598,7010405023415,新規,0,2024-07-17,2024-07-17,築地インベストメント一般社団法人,,その他の設立登記法人,東京都,港区,元赤坂１丁目１番８号赤坂コミュニティビル４階,,13,103,1070051,,,,,,,2024-07-17,1,,,,,ツキジインベストメント,0
1603,7010701046284,新規,0,2024-07-17,2024-07-17,株式会社ＩｎｎｏＳｉｇｈｔ,,株式会社,東京都,品川区,上大崎２丁目１８－２５目黒三田フラワーマンション１０５号室,,13,109,1410021,,,,,,,2024-07-17,1,,,,,イノサイト,0
1612,7010903009221,新規,0,2024-07-17,2024-07-17,合同会社ＭＪＫＣモータース,,合同会社,東京都,世田谷区,下馬２丁目３９番地２４号１０１,,13,112,1540002,,,,,,,2024-07-17,1,,,,,エムジェーケーシーモータース,0
1614,7011001163200,新規,0,2024-07-17,2024-07-17,株式会社リブラ,,株式会社,東京都,渋谷区,南平台町５番３－８０７号,,13,113,1500036,,,,,,,2024-07-17,1,,,,,リブラ,0
1615,7011001163381,新規,0,2024-07-17,2024-07-17,株式会社アットアイディール,,株式会社,東京都,渋谷区,恵比寿西２丁目４番８号ウィンド恵比寿ビル８Ｆ,,13,113,1500021,,,,,,,2024-07-17,1,,,,,アットアイディール,0
1616,7011001163407,新規,0,2024-07-17,2024-07-17,株式会社緒方商事,,株式会社,東京都,目黒区,八雲３丁目２４番２３号ラヒール２１－１０１,,13,110,1520023,,,,,,,2024-07-17,1,,,,,オガタショウジ,0
1618,7011003019557,新規,0,2024-07-17,2024-07-17,リーンスキ合同会社,,合同会社,東京都,渋谷区,富ヶ谷１丁目１４番１４号３階,,13,113,1510063,,,,,,,2024-07-17,1,,,,,リーンスキ,0
1619,7011003019598,新規,0,2024-07-17,2024-07-17,合同会社ＵＫアソシエイツ,,合同会社,東京都,渋谷区,恵比寿西２丁目４番８号ウィンド恵比寿ビル８Ｆ,,13,113,1500021,,,,,,,2024-07-17,1,,,,,ユーケーアソシエイツ,0
1624,7011301029844,新規,0,2024-07-17,2024-07-17,株式会社ＡＭＣファイナンス＆リース,,株式会社,東京都,杉並区,阿佐谷南１丁目２０番２３号,,13,115,1660004,,,,,,,2024-07-17,1,,,,,エーエムシーファイナンスアンドリース,0
1627,7011501030916,新規,0,2024-07-17,2024-07-17,日土さくら建設株式会社,,株式会社,東京都,北区,上十条２丁目１５番４号,,13,117,1140034,,,,,,,2024-07-17,1,,,,,ニチドサクラケンセツ,0
1634,7012303002021,新規,0,2024-07-17,2024-07-17,合同会社絆,,合同会社,東京都,町田市,金井１丁目１９－２４,,13,209,1950072,,,,,,,2024-07-17,1,,,,,キズナ,0
1636,7013303007225,新規,0,2024-07-17,2024-07-17,合同会社ＶＵＣＡ,,合同会社,東京都,豊島区,南長崎６丁目２２番１号,,13,116,1710052,,,,,,,2024-07-17,1,,,,,ヴーカ,0
1639,7020001158069,新規,0,2024-07-17,2024-07-17,株式会社カッセル,,株式会社,神奈川県,横浜市中区,本町５丁目４９番地,,14,104,2310005,,,,,,,2024-07-17,1,,,,,カッセル,0
1640,7020001158077,新規,0,2024-07-17,2024-07-17,株式会社ｆｕｗａｒｉ,,株式会社,神奈川県,川崎市川崎区,京町２丁目１２番３号,,14,131,2100848,,,,,,,2024-07-17,1,,,,,フワリ,0
1642,7021001082721,新規,0,2024-07-17,2024-07-17,株式会社ファインドルート,,株式会社,神奈川県,茅ヶ崎市,新栄町７－５ＣｈｉｇａｓａｋｉＢｉｚ－ｎａｚ３Ｆ,,14,207,2530044,,,,,,,2024-07-17,1,,,,,ファインドルート,0
1643,7021001082754,新規,0,2024-07-17,2024-07-17,株式会社ｂｅ　ｍｅｒｒｙ,,株式会社,神奈川県,藤沢市,辻堂西海岸２丁目１番１２～２０７号,,14,205,2510046,,,,,,,2024-07-17,1,,,,,ビーメリー,0
1645,7021003014771,新規,0,2024-07-17,2024-07-17,循環工房合同会社,,合同会社,神奈川県,三浦市,南下浦町上宮田５２９番地ペンギン荘１階,,14,210,2380101,,,,,,,2024-07-17,1,,,,,ジュンカンコウボウ,0
1646,7021005013152,新規,0,2024-07-17,2024-07-17,特定非営利活動法人ファインプレー,,その他の設立登記法人,神奈川県,相模原市中央区,上溝７丁目３番地１９号,,14,152,2520243,,,,,,,2024-07-17,1,,,,,ファインプレー,0
1654,7030001161443,新規,0,2024-07-17,2024-07-17,モビリス・クロス株式会社,,株式会社,埼玉県,羽生市,大字砂山８０,,11,216,3480036,,,,,,,2024-07-17,1,,,,,モビリスクロス,0
1655,7030001161468,新規,0,2024-07-17,2024-07-17,株式会社バカンス,,株式会社,埼玉県,飯能市,柳町８番９号,,11,209,3570035,,,,,,,2024-07-17,1,,,,,バカンス,0
1656,7030001161476,新規,0,2024-07-17,2024-07-17,株式会社健康,,株式会社,埼玉県,川口市,大字前野宿２１８番地の６,,11,203,3340065,,,,,,,2024-07-17,1,,,,,ケンコウ,0
1662,7040001134571,新規,0,2024-07-17,2024-07-17,株式会社ＧＹＡＯ,,株式会社,千葉県,木更津市,潮浜１丁目１７番地９７,,12,206,2920838,,,,,,,2024-07-17,1,,,,,ギャオ,0
1664,7040003025422,新規,0,2024-07-17,2024-07-17,合同会社シャンペール,,合同会社,千葉県,船橋市,海神町南１丁目１６１０－１－８０４,,12,204,2730024,,,,,,,2024-07-17,1,,,,,シャンペール,0
1667,7050003008525,新規,0,2024-07-17,2024-07-17,ＣＳ　ＣＯＲＰＯＲＡＴＩＯＮ合同会社,,合同会社,茨城県,北茨城市,中郷町足洗５４７番地１大谷住宅２号,,08,215,3191552,,,,,,,2024-07-17,1,,,,,シーエスコーポレーション,0
1668,7060001037293,新規,0,2024-07-17,2024-07-17,株式会社ＧＲＩＴ,,株式会社,栃木県,栃木市,今泉町１丁目１６番２－３号,,09,203,3280027,,,,,,,2024-07-17,1,,,,,グリット,0
1674,7070001041971,新規,0,2024-07-17,2024-07-17,株式会社ローカルハーモニー,,株式会社,群馬県,桐生市,相生町１丁目４１４番地５号,,10,203,3760011,,,,,,,2024-07-17,1,,,,,ローカルハーモニー,0
1675,7070003005504,新規,0,2024-07-17,2024-07-17,合同会社オノヤホールディングス,,合同会社,群馬県,高崎市,常盤町５８番地１ウィング高崎１１２号,,10,202,3700816,,,,,,,2024-07-17,1,,,,,オノヤホールディングス,0
1677,7080001026385,新規,0,2024-07-17,2024-07-17,株式会社８７ＣＯＭＰＡＮＹ,,株式会社,静岡県,静岡市葵区,松富３丁目５番３６号,,22,101,4200941,,,,,,,2024-07-17,1,,,,,ハチナナカンパニー,0
1679,7080003003250,新規,0,2024-07-17,2024-07-17,合同会社ＩＢＳ,,合同会社,静岡県,静岡市清水区,青葉町３番１４号１０３号,,22,103,4240843,,,,,,,2024-07-17,1,,,,,アイビーエス,0
1681,7100001037636,新規,0,2024-07-17,2024-07-17,株式会社合の会,,株式会社,長野県,飯田市,北方１０２３番地１,,20,205,3950151,,,,,,,2024-07-17,1,,,,,アワセノカイ,0
1682,7100001037652,新規,0,2024-07-17,2024-07-17,株式会社フラワームーン,,株式会社,長野県,茅野市,北山６６５８番地１,,20,214,3910301,,,,,,,2024-07-17,1,,,,,フラワームーン,0
1683,7100001037660,新規,0,2024-07-17,2024-07-17,株式会社オルオル,,株式会社,長野県,諏訪市,大字中洲１３９５番地１,,20,206,3920015,,,,,,,2024-07-17,1,,,,,オルオル,0
1684,7100001037669,新規,0,2024-07-17,2024-07-17,Ｔｈｅ　Ｃｏｌｏｒｆｕｌ　Ｗｏｒｌｄ株式会社,,株式会社,長野県,北佐久郡軽井沢町,大字長倉２１４０番地３９３,,20,321,3890111,,,,,,,2024-07-17,1,,,,,カラフルワールド,0
1685,7100001037677,新規,0,2024-07-17,2024-07-17,御影リゾート株式会社,,株式会社,長野県,北佐久郡軽井沢町,大字追分４６番地１４,,20,321,3890115,,,,,,,2024-07-17,1,,,,,ミカゲリゾート,0
1697,7120001266712,新規,0,2024-07-17,2024-07-17,株式会社画工,,株式会社,大阪府,大阪市淀川区,野中北１丁目１番７４号,,27,123,5320034,,,,,,,2024-07-17,1,,,,,ガコウ,0
1698,7120001266786,新規,0,2024-07-17,2024-07-17,株式会社岩井,,株式会社,大阪府,大阪市浪速区,元町１丁目１２番１８－２０４号,,27,111,5560016,,,,,,,2024-07-17,1,,,,,イワイ,0
1699,7120001266836,新規,0,2024-07-17,2024-07-17,相川商事株式会社大阪,,株式会社,大阪府,大阪市中央区,南新町１丁目４番１号ＴＴＮ南新町ビル１Ｆ,,27,128,5400024,,,,,,,2024-07-17,1,,,,,アイカワショウジオオサカ,0
1700,7120001266844,新規,0,2024-07-17,2024-07-17,株式会社ＳＫＳプラン,,株式会社,大阪府,大阪市西区,西本町１丁目７番８号,,27,106,5500005,,,,,,,2024-07-17,1,,,,,エスケーエスプラン,0
1701,7120001266852,新規,0,2024-07-17,2024-07-17,株式会社Ｌ,,株式会社,大阪府,大阪市北区,梅田２丁目５番１３号桜橋第一ビル３０４号,,27,127,5300001,,,,,,,2024-07-17,1,,,,,エル,0
1702,7120001266860,新規,0,2024-07-17,2024-07-17,秀華貿易株式会社,,株式会社,大阪府,大阪市西成区,岸里東１丁目２６－１５－４０５号室,,27,122,5570042,,,,,,,2024-07-17,1,,,,,シュウカボウエキ,0
1704,7120003027014,新規,0,2024-07-17,2024-07-17,Ｇｏｏｄ　Ｈｕｍａｎ合同会社,,合同会社,大阪府,大阪市浪速区,難波中２丁目６番１７号河原町ビル２Ｆ,,27,111,5560011,,,,,,,2024-07-17,1,,,,,グッドヒューマン,0
1705,7120003027039,新規,0,2024-07-17,2024-07-17,合同会社ＫＥＶ,,合同会社,大阪府,大阪市淀川区,西中島４丁目８番２６号２階,,27,123,5320011,,,,,,,2024-07-17,1,,,,,ケーイーブイ,0
1709,7120101069981,新規,0,2024-07-17,2024-07-17,奥博株式会社,,株式会社,大阪府,堺市北区,中村町３１７番地２,,27,146,5918012,,,,,,,2024-07-17,1,,,,,オクハク,0
1712,7120903005267,新規,0,2024-07-17,2024-07-17,合同会社ＯＭＥ,,合同会社,大阪府,箕面市,粟生間谷西７丁目３７番１７号,,27,220,5620023,,,,,,,2024-07-17,1,,,,,オーエムイー,0
1713,7120905006635,新規,0,2024-07-17,2024-07-17,医療法人永篤会,,その他の設立登記法人,大阪府,高槻市,奈佐原２丁目１１番２１号あぶやまスクウェア２階,,27,207,5691041,,,,,,,2024-07-17,1,,,,,エイトクカイ,0
1714,7122001038257,新規,0,2024-07-17,2024-07-17,株式会社Ｃｈａｍｉ’ｓ．ｙ,,株式会社,大阪府,東大阪市,下小阪１丁目３１番１号,,27,227,5770803,,,,,,,2024-07-17,1,,,,,チャミーズワイ,0
1715,7122001038265,新規,0,2024-07-17,2024-07-17,株式会社Ｙ’ｓ,,株式会社,大阪府,東大阪市,俊徳町５丁目５－５－１０６,,27,227,5770831,,,,,,,2024-07-17,1,,,,,ワイズ,0
1721,7130001077456,新規,0,2024-07-17,2024-07-17,株式会社プロジェクトプランナー３６９,,株式会社,京都府,綾部市,物部町広畑５６,,26,203,6230362,,,,,,,2024-07-17,1,,,,,プロジェクトプランナーサンロクキュウ,0
1722,7130001077464,新規,0,2024-07-17,2024-07-17,株式会社Ｂｒａｎｃｈ,,株式会社,京都府,京都市下京区,万寿寺町１２２－１３０８,,26,106,6008104,,,,,,,2024-07-17,1,,,,,ブランチ,0
1730,7140005027150,新規,0,2024-07-17,2024-07-17,特定非営利活動法人生きるＰｌｕｓ,,その他の設立登記法人,兵庫県,神戸市兵庫区,中道通９丁目６番２号,,28,105,6520801,,,,,,,2024-07-17,1,,,,,イキルプラス,0
1731,7150001027426,新規,0,2024-07-17,2024-07-17,さくら鉄筋工業株式会社,,株式会社,奈良県,大和高田市,神楽１丁目４番９－１号,,29,202,6350025,,,,,,,2024-07-17,1,,,,,サクラテッキンコウギョウ,0
1732,7160001026071,新規,0,2024-07-17,2024-07-17,株式会社ＲＩＰ,,株式会社,滋賀県,高島市,安曇川町末広１丁目１４番地,,25,212,5201214,,,,,,,2024-07-17,1,,,,,リップ,0
1744,7180001162261,新規,0,2024-07-17,2024-07-17,株式会社Ｊａｐａｎ　Ａｉｃｈｉ　Ｃｏｒｐｏｒａｔｉｏｎ,,株式会社,愛知県,あま市,七宝町桂奥山４５番地２,,23,237,4970004,,,,,,,2024-07-17,1,,,,,ジャパンアイチコーポレーション,0
1750,7180301038839,新規,0,2024-07-17,2024-07-17,株式会社ＬＩＳｔｒｏ,,株式会社,愛知県,西尾市,上矢田町五反田３１番地６,,23,213,4440313,,,,,,,2024-07-17,1,,,,,リストロ,0
1756,7200001042709,新規,0,2024-07-17,2024-07-17,株式会社セキュリティマーズ,,株式会社,岐阜県,羽島郡岐南町,下印食１丁目２９番地の１,,21,302,5016018,,,,,,,2024-07-17,1,,,,,セキュリティマーズ,0
1757,7200003006430,新規,0,2024-07-17,2024-07-17,合同会社ＦＦＫＣ,,合同会社,岐阜県,瑞穂市,穂積９４３番地１,,21,216,5010223,,,,,,,2024-07-17,1,,,,,エフエフケーシー,0
1762,7240001063528,新規,0,2024-07-17,2024-07-17,ＤＩＡＳＴ株式会社,,株式会社,広島県,安芸郡府中町,浜田本町１番３３－１号,,34,302,7350023,,,,,,,2024-07-17,1,,,,,ダイアスト,0
1763,7250001020734,新規,0,2024-07-17,2024-07-17,Ｉ’ｓホールディングス株式会社,,株式会社,山口県,下松市,栄町１丁目６番２１号,,35,207,7440013,,,,,,,2024-07-17,1,,,,,アイズホールディングス,0
1764,7250003003522,新規,0,2024-07-17,2024-07-17,合同会社ＭＡＲＵＫＯ,,合同会社,山口県,萩市,大字浜崎町２５番１,,35,204,7580022,,,,,,,2024-07-17,1,,,,,マルコ,0
1788,7350001019080,新規,0,2024-07-17,2024-07-17,株式会社池宮塗装,,株式会社,宮崎県,宮崎市,柳丸町５６番地１コアマンション江平ＩＩ５０６号,00135599,45,201,8800844,,,,,,,2024-07-17,1,,,,,イケミヤトソウ,0
1790,7360003014161,新規,0,2024-07-17,2024-07-17,ＴＴ合同会社,,合同会社,沖縄県,名護市,東江５丁目５番３５－２１１号,,47,209,9050021,,,,,,,2024-07-17,1,,,,,ティーティー,0
1795,7380001034671,新規,0,2024-07-17,2024-07-17,株式会社Ｈａｚａｗａ　ＨＤ,,株式会社,福島県,いわき市,内郷綴町秋山５０番地の１,,07,204,9738403,,,,,,,2024-07-17,1,,,,,ハザワホールディングス,0
1804,7420001018802,新規,0,2024-07-17,2024-07-17,株式会社ＨＡＲＩ　ＡＴ　ＢＯＮＥ,,株式会社,青森県,十和田市,東二十二番町１６番２０号,,02,206,0340015,,,,,,,2024-07-17,1,,,,,ハリアットボーン,0
1808,7430003016563,新規,0,2024-07-17,2024-07-17,合同会社８８４,,合同会社,北海道,札幌市北区,北三十八条西４丁目２番１号,,01,102,0010038,,,,,,,2024-07-17,1,,,,,ハチハチヨン,0
1813,7460101007577,新規,0,2024-07-17,2024-07-17,株式会社Ｊｕｐｉｔｅｒｓ,,株式会社,北海道,帯広市,西十五条北６丁目１番地４９,,01,207,0800045,,,,,,,2024-07-17,1,,,,,ジュピタース,0
1820,7500001025749,新規,0,2024-07-17,2024-07-17,株式会社山下木工,,株式会社,愛媛県,松山市,土手内１２９番地４,,38,201,7992432,,,,,,,2024-07-17,1,,,,,ヤマシタモッコウ,0
1822,7500003003281,新規,0,2024-07-17,2024-07-17,合同会社Ｂｅｎｅ．,,合同会社,愛媛県,松山市,朝生田町２丁目３番３号,,38,201,7900952,,,,,,,2024-07-17,1,,,,,ベーネ,0
1837,8010001246212,新規,0,2024-07-17,2024-07-17,リープコンサルティング株式会社,,株式会社,東京都,中央区,日本橋箱崎町１８番１１号ＣＯＳＭＯ８－４階,,13,102,1030015,,,,,,,2024-07-17,1,,,,,リープコンサルティング,0
1838,8010001246278,新規,0,2024-07-17,2024-07-17,株式会社銀座木村屋ホールディングス,,株式会社,東京都,中央区,銀座４丁目５番７号,,13,102,1040061,,,,,,,2024-07-17,1,,,,,ギンザキムラヤホールディングス,0
1839,8010001246633,新規,0,2024-07-17,2024-07-17,株式会社Ｍ’ｓＣＬＵＢ,,株式会社,東京都,中央区,新富２丁目１２番４－１００４号,,13,102,1040041,,,,,,,2024-07-17,1,,,,,エムズクラブ,0
1841,8010003044333,新規,0,2024-07-17,2024-07-17,ヤタガラスヘルスケアデザイン合同会社,,合同会社,東京都,中央区,銀座１丁目２２番１１号銀座大竹ビジデンス２階,,13,102,1040061,,,,,,,2024-07-17,1,,,,,ヤタガラスヘルスケアデザイン,0
1843,8010005038556,新規,0,2024-07-17,2024-07-17,ソーラーオオルリホールディングス一般社団法人,,その他の設立登記法人,東京都,千代田区,麹町２丁目８番地ＭＬＣ麹町ビル４階フィンポート税理士法人内,,13,101,1020083,,,,,,,2024-07-17,1,,,,,ソーラーオオルリホールディングス,0
1849,8010405023414,新規,0,2024-07-17,2024-07-17,一般社団法人ＨＲＯ,,その他の設立登記法人,東京都,港区,六本木６丁目２番３１号,,13,103,1060032,,,,,,,2024-07-17,1,,,,,エイチアールオー,0
1854,8010701046267,新規,0,2024-07-17,2024-07-17,株式会社シティテック,,株式会社,東京都,品川区,南品川１丁目３番２号中村ハイツ１０１,,13,109,1400004,,,,,,,2024-07-17,1,,,,,シティテック,0
1858,8011001163397,新規,0,2024-07-17,2024-07-17,株式会社レアドロップ,,株式会社,東京都,渋谷区,渋谷２丁目１９番１５号,,13,113,1500002,,,,,,,2024-07-17,1,,,,,レアドロップ,0
1859,8011003019556,新規,0,2024-07-17,2024-07-17,ＭＣ　Ｃａｐｉｔａｌ合同会社,,合同会社,東京都,渋谷区,大山町２５番１２－１１１号,,13,113,1510065,,,,,,,2024-07-17,1,,,,,エムシーキャピタル,0
1867,8011503006145,新規,0,2024-07-17,2024-07-17,合同会社Ｇｌｏｂａｌ　Ｊ,,合同会社,東京都,北区,赤羽１丁目３５番５号,,13,117,1150045,,,,,,,2024-07-17,1,,,,,グローバルジェイ,0
1869,8011601027902,新規,0,2024-07-17,2024-07-17,株式会社ジャユロ・ピクチャーズエンタテインメント,,株式会社,東京都,練馬区,貫井１丁目２９番２１－７０７号,,13,120,1760021,,,,,,,2024-07-17,1,,,,,ジャユロピクチャーズエンタテインメント,0
1872,8011701027447,新規,0,2024-07-17,2024-07-17,株式会社ＡｄＶａｎｃｅ,,株式会社,東京都,江戸川区,平井５丁目１０番３号,,13,123,1320035,,,,,,,2024-07-17,1,,,,,アドバンス,0
1877,8012401042100,新規,0,2024-07-17,2024-07-17,株式会社ユガワラ,,株式会社,東京都,小金井市,東町４丁目４２－３,,13,210,1840011,,,,,,,2024-07-17,1,,,,,ユガワラ,0
1890,8020001158084,新規,0,2024-07-17,2024-07-17,株式会社Ｍ建,,株式会社,神奈川県,横浜市旭区,若葉台４丁目３２番５０４号,,14,112,2410801,,,,,,,2024-07-17,1,,,,,エムケン,0
1891,8020001158316,新規,0,2024-07-17,2024-07-17,ＫＳＭ　Ｃａｐｉｔａｌ　Ｐａｒｔｎｅｒｓ株式会社,,株式会社,神奈川県,川崎市麻生区,万福寺６丁目１－２シーズンアリーナ新百合ケ丘４０１,,14,137,2150004,,,,,,,2024-07-17,1,,,,,ケーエスエムキャピタルパートナーズ,0
1897,8021001082729,新規,0,2024-07-17,2024-07-17,株式会社ラヴィアンペット,,株式会社,神奈川県,横須賀市,太田和１丁目３７－１１,,14,201,2380311,,,,,,,2024-07-17,1,,,,,ラヴィアンペット,0
1902,8021003014696,新規,0,2024-07-17,2024-07-17,合同会社ラリマー,,合同会社,神奈川県,相模原市南区,南台５丁目１１番１５－２０４号,,14,153,2520314,,,,,,,2024-07-17,1,,,,,ラリマー,0
1908,8030001161434,新規,0,2024-07-17,2024-07-17,株式会社Ｃｉｅｌ,,株式会社,埼玉県,草加市,西町９１６番地５,,11,221,3400035,,,,,,,2024-07-17,1,,,,,シエル,0
1910,8030003024738,新規,0,2024-07-17,2024-07-17,ＢＵＳＩＮＥＳＳ　ＳＵＣＣＥＳＳ　ＣＯＮＳＵＬＴＩＮＧ合同会社,,合同会社,埼玉県,川口市,幸町３丁目１１‐１２‐１０３,,11,203,3320016,,,,,,,2024-07-17,1,,,,,ビジネスサクセスコンサルティング,0
1915,8040001134570,新規,0,2024-07-17,2024-07-17,株式会社ホイミ,,株式会社,千葉県,山武郡横芝光町,横芝５６１番地２,,12,410,2891732,,,,,,,2024-07-17,1,,,,,ホイミ,0
1931,8100001037627,新規,0,2024-07-17,2024-07-17,株式会社ＣＶＣ,,株式会社,長野県,安曇野市,穂高８０４５番地６,,20,220,3998303,,,,,,,2024-07-17,1,,,,,シーブイシー,0
1935,8110005017112,新規,0,2024-07-17,2024-07-17,特定非営利活動法人スキコソ,,その他の設立登記法人,新潟県,長岡市,殿町２丁目５番地１ロイヤル長岡２０３号,,15,202,9400064,,,,,,,2024-07-17,1,,,,,スキコソ,0
1941,8120001266703,新規,0,2024-07-17,2024-07-17,株式会社スリーウェイズＬａｂｏ,,株式会社,大阪府,大阪市中央区,安土町２丁目３番１３号大阪国際ビルディング３１Ｆ,,27,128,5410052,,,,,,,2024-07-17,1,,,,,スリーウェイズラボ,0
1942,8120001266728,新規,0,2024-07-17,2024-07-17,ベトナムミドリ人材株式会社,,株式会社,大阪府,大阪市東淀川区,東中島２丁目２１番２１号,,27,114,5330033,,,,,,,2024-07-17,1,,,,,ベトナムミドリジンザイ,0
1943,8120001266785,新規,0,2024-07-17,2024-07-17,松瀛株式会社,,株式会社,大阪府,大阪市東淀川区,大隅１丁目１番１９－４０１号,,27,114,5330015,,,,,,,2024-07-17,1,,,,,マツエイ,0
1944,8120001266827,新規,0,2024-07-17,2024-07-17,株式会社ｆｆ．ｃｏｎｓｕｌｔｉｎｇ,,株式会社,大阪府,大阪市北区,池田町９番７号２階,,27,127,5300033,,,,,,,2024-07-17,1,,,,,エフエフコンサルティング,0
1945,8120001266835,新規,0,2024-07-17,2024-07-17,株式会社ＡＩインフルエンサー,,株式会社,大阪府,大阪市中央区,本町４丁目７番４号本町グラマシー６０４,,27,128,5410053,,,,,,,2024-07-17,1,,,,,エーアイインフルエンサー,0
1946,8120001266843,新規,0,2024-07-17,2024-07-17,株式会社アーク・スリー・ホールディングス,,株式会社,大阪府,大阪市北区,芝田１丁目１４番８号,,27,127,5300012,,,,,,,2024-07-17,1,,,,,アークスリーホールディングス,0
1947,8120001266868,新規,0,2024-07-17,2024-07-17,株式会社エスコネクト,,株式会社,大阪府,大阪市西区,南堀江１丁目３番１２－３０３号,,27,106,5500015,,,,,,,2024-07-17,1,,,,,エスコネクト,0
1952,8120003026948,新規,0,2024-07-17,2024-07-17,合同会社アジア電信物流商事,,合同会社,大阪府,大阪市中央区,西心斎橋２丁目１０番３１号ＡＳＵＫＡアメリカ村ビル５階,,27,128,5420086,,,,,,,2024-07-17,1,,,,,アジアデンシンブツリュウショウジ,0
1953,8120003027038,新規,0,2024-07-17,2024-07-17,合同会社プッチ,,合同会社,大阪府,大阪市都島区,善源寺町２丁目２番７－１０３５号,,27,102,5340015,,,,,,,2024-07-17,1,,,,,プッチ,0
1954,8120003027046,新規,0,2024-07-17,2024-07-17,工房画房合同会社,,合同会社,大阪府,大阪市北区,梅田１丁目１‐３大阪駅前第３ビル２９階１‐１‐１号室,,27,127,5300001,,,,,,,2024-07-17,1,,,,,コウボウガボウ,0
1955,8120101069972,新規,0,2024-07-17,2024-07-17,ＴＡＫＵＹＯ株式会社,,株式会社,大阪府,堺市堺区,甲斐町西３丁２番３４号牧野ビル１０８,,27,141,5900950,,,,,,,2024-07-17,1,,,,,タクヨ,0
1956,8120101069989,新規,0,2024-07-17,2024-07-17,株式会社ジーテック,,株式会社,大阪府,岸和田市,土生町６丁目４番１７号東岸和田ＩＩライゼホビー０５号,00135596,27,202,5960825,,,,,,,2024-07-17,1,,,,,ジーテック,0
1958,8120905006626,新規,0,2024-07-17,2024-07-17,医療法人ＭＹＳ,,その他の設立登記法人,大阪府,豊中市,蛍池東町一丁目４番８号福永ビル２階,,27,203,5600000,,,,,,,2024-07-17,1,,,,,エムワイエス,0
1959,8120905006634,新規,0,2024-07-17,2024-07-17,医療法人正得会,,その他の設立登記法人,大阪府,高槻市,古曽部町１丁目４番１号高槻病院前事務所ビル２階,,27,207,5691115,,,,,,,2024-07-17,1,,,,,ショウトクカイ,0
1960,8122001038280,新規,0,2024-07-17,2024-07-17,株式会社ＹＵＭＣＨＡ　ＯＳＡＫＡ,,株式会社,大阪府,八尾市,末広町５丁目３番１４号,,27,212,5810001,,,,,,,2024-07-17,1,,,,,ヤムチャオオサカ,0
1963,8130001077447,新規,0,2024-07-17,2024-07-17,ｉプラン株式会社,,株式会社,京都府,京都市下京区,岩戸山町４４１番地ｓｕｍａｕ８０１,,26,106,6008445,,,,,,,2024-07-17,1,,,,,アイプラン,0
1979,8180001162327,新規,0,2024-07-17,2024-07-17,株式会社Ｂｅａｒ　Ｗｅａｒｓ,,株式会社,愛知県,小牧市,小牧３丁目１６０番地,,23,219,4850041,,,,,,,2024-07-17,1,,,,,ベアーウェアーズ,0
1980,8180001162351,新規,0,2024-07-17,2024-07-17,株式会社Ｃ．Ｙ．Ｌ,,株式会社,愛知県,名古屋市中区,丸の内３丁目５番３４号セントラルコーポ３０１,,23,106,4600002,,,,,,,2024-07-17,1,,,,,シーワイエル,0
1986,8180003027049,新規,0,2024-07-17,2024-07-17,ＡＮＥＭＯＮＥ合同会社,,合同会社,愛知県,名古屋市名東区,貴船３丁目９０２番地,,23,115,4650058,,,,,,,2024-07-17,1,,,,,アネモネ,0
1988,8190001031489,新規,0,2024-07-17,2024-07-17,株式会社藤乃森,,株式会社,三重県,四日市市,西新地７番３号プラトンホテル四日市２階,,24,202,5100087,,,,,,,2024-07-17,1,,,,,フジノモリ,0
1989,8210001019829,新規,0,2024-07-17,2024-07-17,株式会社福ベジ,,株式会社,福井県,福井市,竹生町第２４号１１番地,,18,201,9103602,,,,,,,2024-07-17,1,,,,,フクベジ,0
1990,8210003001818,新規,0,2024-07-17,2024-07-17,合同会社プログメント,,合同会社,福井県,越前市,宮谷町４８－１－３９,,18,209,9150013,,,,,,,2024-07-17,1,,,,,プログメント,0
1991,8230001020421,新規,0,2024-07-17,2024-07-17,株式会社ＴｈｅｒａｐＥａｓｅ,,株式会社,富山県,魚津市,港町６番２０号ポルトヴィラ２０４号室,,16,204,9370057,,,,,,,2024-07-17,1,,,,,セラピーズ,0
1999,8240005015796,新規,0,2024-07-17,2024-07-17,一般社団法人ＲｉｖｅｒＤｏ川辺コンソーシアム,,その他の設立登記法人,広島県,広島市西区,楠木町１丁目１５番４－１０１号,,34,104,7330002,,,,,,,2024-07-17,1,,,,,リバードゥカワベコンソーシアム,0
2000,8250001020733,新規,0,2024-07-17,2024-07-17,Ｐｏｃｏ　Ｌｏｃｏ株式会社,,株式会社,山口県,宇部市,黒石北３丁目１番３０－１０３号,,35,202,7590213,,,,,,,2024-07-17,1,,,,,ポコロコ,0
2003,8260003004816,新規,0,2024-07-17,2024-07-17,合同会社ＣＨＥＭＩＮ,,合同会社,岡山県,岡山市南区,豊成１丁目９番９－５号リヴェール豊成第一２０５,,33,104,7000942,,,,,,,2024-07-17,1,,,,,シュマン,0
2005,8280001009212,新規,0,2024-07-17,2024-07-17,株式会社オキノミライ,,株式会社,島根県,隠岐郡隠岐の島町,西町八尾の一５番地３,,32,528,6850014,,,,,,,2024-07-17,1,,,,,,0
2023,8290803004780,新規,0,2024-07-17,2024-07-17,合同会社徳浦,,合同会社,福岡県,北九州市八幡西区,永犬丸南町５丁目１１－１６,,40,109,8070845,,,,,,,2024-07-17,1,,,,,トクラ,0
2026,8320003004421,新規,0,2024-07-17,2024-07-17,合同会社Ｂａｒｎｕｍ,,合同会社,大分県,佐伯市,宇目大字南田原２０２１番地８,,44,205,8793302,,,,,,,2024-07-17,1,,,,,,0
2030,8340001026647,新規,0,2024-07-17,2024-07-17,株式会社ＺＯＯＮ,,株式会社,鹿児島県,奄美市,名瀬長浜町２２番２１号,,46,222,8940036,,,,,,,2024-07-17,1,,,,,ゾーン,0
2052,8380005012854,新規,0,2024-07-17,2024-07-17,一般社団法人マイホーム,,その他の設立登記法人,福島県,郡山市,横塚５丁目１７－２,,07,203,9638803,,,,,,,2024-07-17,1,,,,,マイホーム,0
2056,8420001018801,新規,0,2024-07-17,2024-07-17,株式会社ｗｏｎｄｅｒ,,株式会社,青森県,青森市,橋本３丁目１５番７号畠山ハイツ,,02,201,0300823,,,,,,,2024-07-17,1,,,,,,0
2059,8430001092267,新規,0,2024-07-17,2024-07-17,好麓程株式会社,,株式会社,北海道,札幌市南区,藤野三条１丁目２番１０号,,01,106,0612283,,,,,,,2024-07-17,1,,,,,コウロクテイ,0
2062,8430003016562,新規,0,2024-07-17,2024-07-17,ＲＳＨ合同会社,,合同会社,北海道,札幌市豊平区,平岸八条１３丁目２番２０号,,01,105,0620938,,,,,,,2024-07-17,1,,,,,アールエスエイチ,0
2093,9010001246558,新規,0,2024-07-17,2024-07-17,株式会社ＭＡＮＧＲＯＶＥ,,株式会社,東京都,文京区,小石川３丁目３２番１２号,,13,105,1120002,,,,,,,2024-07-17,1,,,,,マングローブ,0
2094,9010001246582,新規,0,2024-07-17,2024-07-17,キュリオフォース株式会社,,株式会社,東京都,千代田区,丸の内３丁目２番２号丸の内二重橋ビル２階,,13,101,1000005,,,,,,,2024-07-17,1,,,,,キュリオフォース,0
2095,9010001246624,新規,0,2024-07-17,2024-07-17,株式会社ＭＫパートナーズ,,株式会社,東京都,千代田区,麹町５丁目１番地ＮＫ真和ビル成倫税理士法人内,,13,101,1020083,,,,,,,2024-07-17,1,,,,,エムケイパートナーズ,0
2096,9010001246640,新規,0,2024-07-17,2024-07-17,ＡｉＢＰＯ株式会社,,株式会社,東京都,中央区,銀座６丁目１３番１６号銀座ＷａｌｌビルＵＣＦ５０１,,13,102,1040061,,,,,,,2024-07-17,1,,,,,エイアイビーピーオー,0
2100,9010003044241,新規,0,2024-07-17,2024-07-17,合同会社ＲｔｏＬ,,合同会社,東京都,中央区,京橋２丁目８番２１－７２１号,,13,102,1040031,,,,,,,2024-07-17,1,,,,,アールトゥエル,0
2101,9010003044290,新規,0,2024-07-17,2024-07-17,花屋敷合同会社,,合同会社,東京都,千代田区,丸の内３丁目１番１号東京共同会計事務所内,,13,101,1000005,,,,,,,2024-07-17,1,,,,,ハナヤシキ,0
2102,9010003044332,新規,0,2024-07-17,2024-07-17,合同会社Ｌｉｌｙ,,合同会社,東京都,中央区,勝どき４丁目６番１,,13,102,1040054,,,,,,,2024-07-17,1,,,,,リリー,0
2111,9010401183310,新規,0,2024-07-17,2024-07-17,Ｓａａｂ　Ｔｅｃｈｎｏｌｏｇｉｅｓ　Ｊａｐａｎ株式会社,,株式会社,東京都,港区,六本木１丁目９番１０号アークヒルズ仙石山森タワー２９階,,13,103,1060032,,,,,,,2024-07-17,1,,,,,サーブテクノロジージャパン,0
2112,9010401183772,新規,0,2024-07-17,2024-07-17,株式会社Ｄｅｓｉｇｎ　Ｌｏｃｋ,,株式会社,東京都,港区,南青山２丁目２４番５号直井ビル,,13,103,1070062,,,,,,,2024-07-17,1,,,,,デザインロック,0
2113,9010401183822,新規,0,2024-07-17,2024-07-17,株式会社ＣｈｏｐＳｔｉｃｋｓ,,株式会社,東京都,港区,北青山２丁目１２番４号坂本ビル３階,,13,103,1070061,,,,,,,2024-07-17,1,,,,,チョップスティックス,0
2114,9010401183830,新規,0,2024-07-17,2024-07-17,Ｓｋｙ　Ｖａｌｕｅ株式会社,,株式会社,東京都,港区,南青山３丁目１番３６号青山丸竹ビル６Ｆ,,13,103,1070062,,,,,,,2024-07-17,1,,,,,スカイバリュー,0
2116,9010403033042,新規,0,2024-07-17,2024-07-17,合同会社こだま,,合同会社,東京都,港区,芝浦１丁目６番４１－１１１５号,,13,103,1050023,,,,,,,2024-07-17,1,,,,,コダマ,0
2117,9010501052588,新規,0,2024-07-17,2024-07-17,Ａｔｅｌｉｅｒ　Ｅ株式会社,,株式会社,東京都,台東区,蔵前３丁目１０番８－３０１号,,13,106,1110051,,,,,,,2024-07-17,1,,,,,アトリエイー,0
2118,9010503007508,新規,0,2024-07-17,2024-07-17,合同会社Ｔ．Ｉｎｎｏｖａｔｉｏｎ,,合同会社,東京都,台東区,上野７丁目５番８号上野７丁目ビル３Ｆ,,13,106,1100005,,,,,,,2024-07-17,1,,,,,ティーイノベーション,0
2131,9011001163297,新規,0,2024-07-17,2024-07-17,株式会社ＳａｌｅｓＪｏｋｅｒ,,株式会社,東京都,渋谷区,道玄坂１丁目１０番８号渋谷道玄坂東急ビル２Ｆ－Ｃ,,13,113,1500043,,,,,,,2024-07-17,1,,,,,セールスジョーカー,0
2132,9011001163396,新規,0,2024-07-17,2024-07-17,わん株式会社,,株式会社,東京都,渋谷区,恵比寿１丁目８番１４号大黒ビル１階,,13,113,1500013,,,,,,,2024-07-17,1,,,,,ワン,0
2142,9011301029842,新規,0,2024-07-17,2024-07-17,株式会社ＢＡＴＴＥＲ’Ｓ　ＢＯＸ,,株式会社,東京都,杉並区,上高井戸１丁目３１番１８号,,13,115,1680074,,,,,,,2024-07-17,1,,,,,バッターボックス,0
2145,9012301013992,新規,0,2024-07-17,2024-07-17,株式会社ＫＥＥＰ,,株式会社,東京都,町田市,図師町１６３９番地１,,13,209,1940203,,,,,,,2024-07-17,1,,,,,キープ,0
2153,9020001158100,新規,0,2024-07-17,2024-07-17,株式会社硯,,株式会社,神奈川県,横浜市西区,久保町２３番２０号,,14,103,2200061,,,,,,,2024-07-17,1,,,,,スズリ,0
2154,9020001158125,新規,0,2024-07-17,2024-07-17,株式会社グランブルー,,株式会社,神奈川県,横浜市西区,北幸１丁目１１番１号水信ビル７階,,14,103,2200004,,,,,,,2024-07-17,1,,,,,グランブルー,0
2158,9021001082736,新規,0,2024-07-17,2024-07-17,株式会社星野総業,,株式会社,神奈川県,茅ヶ崎市,今宿２５５番地１１,,14,207,2530072,,,,,,,2024-07-17,1,,,,,ホシノソウギョウ,0
2159,9021001082752,新規,0,2024-07-17,2024-07-17,株式会社ｆｉｎ．Ｄ．ｖａｌｕｅ,,株式会社,神奈川県,藤沢市,長後２６２７－２,,14,205,2520801,,,,,,,2024-07-17,1,,,,,ファインドバリュー,0
2162,9021003014778,新規,0,2024-07-17,2024-07-17,ＭＹＳＴＩＣ　ＣＵＬＴＵＲＥ　ＪＡＰＡＮ合同会社,,合同会社,神奈川県,相模原市中央区,千代田２丁目６番８号,,14,152,2520237,,,,,,,2024-07-17,1,,,,,ミスティックカルチャージャパン,0
2163,9021003014786,新規,0,2024-07-17,2024-07-17,合同会社Ｋ,,合同会社,神奈川県,愛甲郡愛川町,中津７２８７番地,,14,401,2430303,,,,,,,2024-07-17,1,,,,,ケー,0
2168,9030001161417,新規,0,2024-07-17,2024-07-17,株式会社ＯＳＯ,,株式会社,埼玉県,越谷市,千間台西２丁目１２番地５,,11,222,3430041,,,,,,,2024-07-17,1,,,,,オソ,0
2177,9030003024712,新規,0,2024-07-17,2024-07-17,合同会社啓航,,合同会社,埼玉県,三郷市,鷹野３丁目４７９番地１,,11,237,3410035,,,,,,,2024-07-17,1,,,,,ケイコウ,0
2178,9030003024729,新規,0,2024-07-17,2024-07-17,ＮＴＹ合同会社,,合同会社,埼玉県,八潮市,大字伊草３７７番地伊草団地４号棟１１０号室,,11,234,3400806,,,,,,,2024-07-17,1,,,,,エヌティワイ,0
2179,9040001134578,新規,0,2024-07-17,2024-07-17,株式会社Ｈｏｋｕｌｅｌｅ,,株式会社,千葉県,木更津市,大久保１丁目１６番５号,,12,206,2920815,,,,,,,2024-07-17,1,,,,,ホクレレ,0
2181,9040003025404,新規,0,2024-07-17,2024-07-17,ジュン貿易合同会社,,合同会社,千葉県,松戸市,本町１９番１４号－４Ｆ,,12,207,2710091,,,,,,,2024-07-17,1,,,,,ジュンボウエキ,0
2182,9040003025412,新規,0,2024-07-17,2024-07-17,合同会社ＴＳＵＮＡＧＵ,,合同会社,千葉県,南房総市,高崎９１６番地,,12,234,2992223,,,,,,,2024-07-17,1,,,,,ツナグ,0
2187,9060001037300,新規,0,2024-07-17,2024-07-17,株式会社久保井設備,,株式会社,栃木県,日光市,森友６２番地１,,09,206,3212335,,,,,,,2024-07-17,1,,,,,クボイセツビ,0
2191,9070003005502,新規,0,2024-07-17,2024-07-17,ＹＳアセットマネジメント合同会社,,合同会社,群馬県,利根郡みなかみ町,月夜野２３０７番地３,,10,449,3791313,,,,,,,2024-07-17,1,,,,,ワイエスアセットマネジメント,0
2197,9110001038573,新規,0,2024-07-17,2024-07-17,株式会社サルーンホールディングス,,株式会社,新潟県,三条市,石上１丁目４番１２号,,15,204,9550084,,,,,,,2024-07-17,1,,,,,サルーンホールディングス,0
2209,9120001266801,新規,0,2024-07-17,2024-07-17,Ｓｕｎｓｈｉｎｅ　Ｏｒｉｅｎｔａｌ株式会社,,株式会社,大阪府,大阪市大正区,三軒家西３丁目４番１６号中山ビル１０３０,,27,108,5510001,,,,,,,2024-07-17,1,,,,,サンシャインオリエンタル,0
2210,9120001266834,新規,0,2024-07-17,2024-07-17,Ｍ‐ＳＵＮ株式会社,,株式会社,大阪府,大阪市北区,梅田３丁目２－２ＫＩＴＴＥ大阪Ｂ１－０１３,,27,127,5300001,,,,,,,2024-07-17,1,,,,,エムサン,0
2211,9120001266842,新規,0,2024-07-17,2024-07-17,株式会社アドバンス,,株式会社,大阪府,大阪市中央区,西心斎橋２丁目１０番１４号おおきに龍ビル陽４階Ｂ２,,27,128,5420086,,,,,,,2024-07-17,1,,,,,アドバンス,0
2216,9120003027029,新規,0,2024-07-17,2024-07-17,合同会社ＬｅａｐＲｅ,,合同会社,大阪府,大阪市北区,梅田１丁目２番２号大阪駅前第２ビル１２階１２号室,,27,127,5300001,,,,,,,2024-07-17,1,,,,,リープリー,0
2217,9120003027045,新規,0,2024-07-17,2024-07-17,合同会社クロセ,,合同会社,大阪府,大阪市都島区,毛馬町２丁目１１番３２－１０１８号,,27,102,5340001,,,,,,,2024-07-17,1,,,,,クロセ,0
2220,9120101069988,新規,0,2024-07-17,2024-07-17,株式会社イタニ,,株式会社,大阪府,和泉市,唐国町２丁目１２番６０号,,27,219,5941151,,,,,,,2024-07-17,1,,,,,イタニ,0
2221,9120103005917,新規,0,2024-07-17,2024-07-17,合同会社ＴｏＢｅＯｎ,,合同会社,大阪府,岸和田市,箕土路町１丁目８－１２ハイアットプレイス３０３,,27,202,5960801,,,,,,,2024-07-17,1,,,,,トゥビオン,0
2222,9120105009882,新規,0,2024-07-17,2024-07-17,特定非営利活動法人ジャパンコネクト,,その他の設立登記法人,大阪府,南河内郡河南町,大字一須賀２５番地の４,,27,382,5850002,,,,,,,2024-07-17,1,,,,,ジャパンコネクト,0
2224,9120901049470,新規,0,2024-07-17,2024-07-17,株式会社ＮＥＳコーポレーション,,株式会社,大阪府,豊中市,熊野町１丁目１２番１９号,,27,203,5600014,,,,,,,2024-07-17,1,,,,,エヌイーエスコーポレーション,0
2226,9120903005265,新規,0,2024-07-17,2024-07-17,合同会社オフィス・オズ,,合同会社,大阪府,吹田市,千里山東４丁目１４番２２―４０９号,,27,205,5650842,,,,,,,2024-07-17,1,,,,,オフィスオズ,0
2227,9120905006633,新規,0,2024-07-17,2024-07-17,みつる税理士法人,,その他の設立登記法人,大阪府,茨木市,駅前３丁目１番３号東伸ビル６階,,27,211,5670888,,,,,,,2024-07-17,1,,,,,ミツル,0
2228,9122001038271,新規,0,2024-07-17,2024-07-17,株式会社アシスト,,株式会社,大阪府,八尾市,恩智中町１丁目３８番地の２,,27,212,5810883,,,,,,,2024-07-17,1,,,,,アシスト,0
2230,9122005003767,新規,0,2024-07-17,2024-07-17,医療法人きやま整形外科痛みとリハビリクリニック,,その他の設立登記法人,大阪府,東大阪市,若江西新町１丁目２番４号瓜生堂クリニックビルＳＯＵＴＨ２階,,27,227,5780944,,,,,,,2024-07-17,1,,,,,キヤマセイケイゲカイタミトリハビリクリニック,0
2233,9130003009703,新規,0,2024-07-17,2024-07-17,ＥＺシステム合同会社,,合同会社,京都府,京都市下京区,七条通油小路東入大黒町２２７番地第２キョートビル４０２,,26,106,6008223,,,,,,,2024-07-17,1,,,,,イージーシステム,0
2237,9140001135137,新規,0,2024-07-17,2024-07-17,株式会社常然,,株式会社,兵庫県,神戸市西区,桜が丘東町５丁目１０番地の１１,,28,111,6512225,,,,,,,2024-07-17,1,,,,,ジョウゼン,0
2242,9150003003316,新規,0,2024-07-17,2024-07-17,合同会社ＳＡＩ,,合同会社,奈良県,奈良市,西登美ヶ丘４丁目１３番１８号,,29,201,6310006,,,,,,,2024-07-17,1,,,,,サイ,0
2243,9160001026078,新規,0,2024-07-17,2024-07-17,株式会社Ｌｉｍ,,株式会社,滋賀県,守山市,古高町３９９番地６,,25,207,5240044,,,,,,,2024-07-17,1,,,,,リム,0
2251,9180001162359,新規,0,2024-07-17,2024-07-17,株式会社新大地,,株式会社,愛知県,名古屋市中区,錦２丁目７番７号プラウドタワー名古屋錦３００８号,,23,106,4600003,,,,,,,2024-07-17,1,,,,,シンダイチ,0
2252,9180001162383,新規,0,2024-07-17,2024-07-17,株式会社Ｄｒｅａｍ,,株式会社,愛知県,名古屋市昭和区,広路町字隼人１２番地隼人苑３０６,,23,107,4660834,,,,,,,2024-07-17,1,,,,,ドリーム,0
2257,9180003027072,新規,0,2024-07-17,2024-07-17,合同会社ＯＧＳ,,合同会社,愛知県,名古屋市緑区,上旭１丁目６２６番地,,23,114,4580016,,,,,,,2024-07-17,1,,,,,オージーエス,0
2264,9200001042715,新規,0,2024-07-17,2024-07-17,明智環境開発株式会社,,株式会社,岐阜県,恵那市,明智町大田字滝下５６番２８,,21,210,5097723,,,,,,,2024-07-17,1,,,,,アケチカンキョウカイハツ,0
2267,9220001026096,新規,0,2024-07-17,2024-07-17,ジオ・インフォメーション・ワークス株式会社,,株式会社,石川県,金沢市,西都２丁目４‐１２,,17,201,9208202,,,,,,,2024-07-17,1,,,,,ジオインフォメーションワークス,0
2271,9230003002251,新規,0,2024-07-17,2024-07-17,合同会社豊稔,,合同会社,富山県,高岡市,北島３０９番地１,,16,202,9330838,,,,,,,2024-07-17,1,,,,,ホウネン,0
2274,9240001063526,新規,0,2024-07-17,2024-07-17,株式会社五順,,株式会社,広島県,東広島市,福富町久芳５２２３番地,,34,212,7392303,,,,,,,2024-07-17,1,,,,,ゴジュン,0
2275,9240001063534,新規,0,2024-07-17,2024-07-17,株式会社ジョイテックいしでん,,株式会社,広島県,福山市,神辺町川南６２２－２,,34,207,7210000,,,,,,,2024-07-17,1,,,,,ジョイテックイシデン,0
2276,9240003006755,新規,0,2024-07-17,2024-07-17,合同会社Ｔ．ＭｅｄｉＸ,,合同会社,広島県,福山市,丸之内１丁目２番７－１５０３号,,34,207,7200061,,,,,,,2024-07-17,1,,,,,ティーメディックス,0
2282,9270002011373,新規,0,2024-07-17,2024-07-17,有限会社尾崎開発,,有限会社,鳥取県,倉吉市,上井町２丁目１３番地９,,31,203,6820022,,,,,,,2024-07-17,1,,,,,オサキカイハツ,0
2288,9290001106453,新規,0,2024-07-17,2024-07-17,株式会社Ｓ＆Ｋ,,株式会社,福岡県,糟屋郡粕屋町,大字阿惠２００番地３,,40,349,8112306,,,,,,,2024-07-17,1,,,,,エスアンドケー,0
2289,9290001106528,新規,0,2024-07-17,2024-07-17,株式会社リベラルファースト,,株式会社,福岡県,福岡市中央区,薬院４丁目１８番３５号浄水プレイス,,40,133,8100022,,,,,,,2024-07-17,1,,,,,リベラルファースト,0
2296,9290801030704,新規,0,2024-07-17,2024-07-17,株式会社レジデンスケア,,株式会社,福岡県,北九州市小倉北区,井堀３丁目２１番４８号,,40,106,8030835,,,,,,,2024-07-17,1,,,,,レジデンスケア,0
2300,9300001013838,新規,0,2024-07-17,2024-07-17,川田株式会社,,株式会社,佐賀県,唐津市,西寺町５１１番地１１－２Ｆ,,41,202,8470815,,,,,,,2024-07-17,1,,,,,カワダ,0
2309,9340001026654,新規,0,2024-07-17,2024-07-17,株式会社ｓａｎｇａｅｎ,,株式会社,鹿児島県,鹿児島市,中央町２番２１号,,46,201,8900053,,,,,,,2024-07-17,1,,,,,サンガエン,0
2313,9350003004707,新規,0,2024-07-17,2024-07-17,合同会社Ｋ＆Ａ,,合同会社,宮崎県,宮崎市,天満１丁目３番８号,,45,201,8800936,,,,,,,2024-07-17,1,,,,,ケーアンドエー,0
2318,9370001051518,新規,0,2024-07-17,2024-07-17,株式会社Ｅｈｒｅ,,株式会社,宮城県,仙台市若林区,卸町２丁目９番１号ＩＮＴＩＬＡＱ東北イノベーションセンター,,04,103,9840015,,,,,,,2024-07-17,1,,,,,エーレ,0
2331,9430001092258,新規,0,2024-07-17,2024-07-17,株式会社ＴＥＲＵＹＡ,,株式会社,北海道,札幌市東区,東苗穂八条２丁目１４番１０号エクセレントＳＴＩ２０１号,,01,103,0070808,,,,,,,2024-07-17,1,,,,,テルヤ,0
2332,9430001092266,新規,0,2024-07-17,2024-07-17,株式会社吉村直巳,,株式会社,北海道,札幌市東区,北四十八条東１９丁目２番５号,,01,103,0070848,,,,,,,2024-07-17,1,,,,,ヨシムラナオミ,0
2333,9430003016537,新規,0,2024-07-17,2024-07-17,合同会社ｓｕｒｅｌｙ,,合同会社,北海道,千歳市,桂木３丁目１０番２２号ウインテムレイコ２０５,,01,224,0660067,,,,,,,2024-07-17,1,,,,,シュリー,0
2334,9430003016561,新規,0,2024-07-17,2024-07-17,合同会社ｂｏｏｓｔｖｅｒｓｅ,,合同会社,北海道,札幌市南区,藤野三条１１丁目１９番２６号,,01,106,0612283,,,,,,,2024-07-17,1,,,,,ブーストバース,0
2337,9460101007575,新規,0,2024-07-17,2024-07-17,株式会社すこんちゅら,,株式会社,北海道,帯広市,東十条南１７丁目２番地９３,,01,207,0800810,,,,,,,2024-07-17,1,,,,,スコンチュラ,0
