sequenceNumber,corporateNumber,process,correct,updateDate,changeDate,name,nameImageId,kind,prefectureName,cityName,streetNumber,addressImageId,prefectureCode,cityCode,postCode,addressOutside,addressOutsideImageId,closeDate,closeCause,successorCorporateNumber,changeCause,assignmentDate,latest,enName,enPrefectureName,enCityName,enAddressOutside,furigana,hihyoji
6,1010001240650,新規,0,2023-12-11,2023-12-11,カイショーホールディングス株式会社,,株式会社,東京都,千代田区,神田神保町３丁目１２番地３神保町スリービル８階,,13,101,1010051,,,,,,,2023-12-11,1,,,,,カイショーホールディングス,0
9,1010103002271,新規,0,2023-12-11,2023-12-11,合同会社Ｅｆｆｏｒｔ　Ｐｒｏｃｅｅｄ,,合同会社,東京都,八王子市,諏訪町４３１－３,,13,201,1930812,,,,,,,2023-12-11,1,,,,,エフォートプロシード,0
15,1010401178978,新規,0,2023-12-11,2023-12-11,スポーツクリエイティブファシリティ株式会社,,株式会社,東京都,港区,西麻布２丁目１３番１５号第２横芝ビル７０１号室,,13,103,1060031,,,,,,,2023-12-11,1,,,,,スポーツクリエイティブファシリティ,0
16,1010403031532,新規,0,2023-12-11,2023-12-11,アウェアネスＰＲ合同会社,,合同会社,東京都,港区,南青山３丁目１番３６号青山丸竹ビル６Ｆ,,13,103,1070062,,,,,,,2023-12-11,1,,,,,アウェアネスピーアール,0
28,1010901054308,新規,0,2023-12-11,2023-12-11,日本貿易促進株式会社,,株式会社,東京都,世田谷区,用賀２丁目３２番８－３０２号,,13,112,1580097,,,,,,,2023-12-11,1,,,,,ニホンボウエキソクシン,0
33,1011001158684,新規,0,2023-12-11,2023-12-11,元知識株式会社,,株式会社,東京都,渋谷区,代々木１丁目３０番１５号天翔代々木ビル２階Ｓ２０９号室,,13,113,1510053,,,,,,,2023-12-11,1,,,,,ゲンチシキ,0
34,1011001158701,新規,0,2023-12-11,2023-12-11,さんわ企画株式会社,,株式会社,東京都,目黒区,下目黒２丁目１６番４号,,13,110,1530064,,,,,,,2023-12-11,1,,,,,サンワキカク,0
44,1011205002580,新規,0,2023-12-11,2023-12-11,一般社団法人ぶどうの木と友,,その他の設立登記法人,東京都,中野区,白鷺１丁目９番８号コンファーレ白鷺１０７号室,,13,114,1650035,,,,,,,2023-12-11,1,,,,,ブドウノキトトモ,0
55,1011701026827,新規,0,2023-12-11,2023-12-11,株式会社大弥ソリューション,,株式会社,東京都,江戸川区,一之江８丁目１６番１１－１１０１号,,13,123,1320024,,,,,,,2023-12-11,1,,,,,ダイヤソリューション,0
59,1011801043466,新規,0,2023-12-11,2023-12-11,ＵＭｉ株式会社,,株式会社,東京都,足立区,梅島３丁目３４－６興和ビル２０３号室,,13,121,1210816,,,,,,,2023-12-11,1,,,,,ユミ,0
60,1011801043474,新規,0,2023-12-11,2023-12-11,株式会社アデランテ,,株式会社,東京都,葛飾区,西亀有２丁目２２番６号フレール綾瀬Ｉ－４０１号,00132938,13,122,1240002,,,,,,,2023-12-11,1,,,,,アデランテ,0
61,1012401041315,新規,0,2023-12-11,2023-12-11,ＳＡＩＤＯ株式会社,,株式会社,東京都,多摩市,永山５丁目３３番地の１１,,13,224,2060025,,,,,,,2023-12-11,1,,,,,サイド,0
62,1012801022823,新規,0,2023-12-11,2023-12-11,大黒ホーム株式会社,,株式会社,東京都,立川市,錦町６丁目１２番２０号,,13,202,1900022,,,,,,,2023-12-11,1,,,,,ダイコクホーム,0
67,1013301051734,新規,0,2023-12-11,2023-12-11,株式会社グッドスキーム,,株式会社,東京都,豊島区,南池袋１丁目１６番１５号，ダイヤゲート池袋５階,,13,116,1710022,,,,,,,2023-12-11,1,,,,,グッドスキーム,0
75,1020001154825,新規,0,2023-12-11,2023-12-11,株式会社トレードドア,,株式会社,神奈川県,川崎市川崎区,駅前本町１８番１号メルスサイト－７０２,,14,131,2100007,,,,,,,2023-12-11,1,,,,,トレードドア,0
76,1020003025157,新規,0,2023-12-11,2023-12-11,合同会社フードコネクト,,合同会社,神奈川県,川崎市高津区,新作５丁目１４‐１クレストフォルム３０２,,14,134,2130014,,,,,,,2023-12-11,1,,,,,フードコネクト,0
78,1021001080904,新規,0,2023-12-11,2023-12-11,株式会社江,,株式会社,神奈川県,藤沢市,鵠沼海岸２丁目１７番１６－５０１号,,14,205,2510037,,,,,,,2023-12-11,1,,,,,ゴウ,0
79,1021001080920,新規,0,2023-12-11,2023-12-11,株式会社芳淳,,株式会社,神奈川県,大和市,深見２２１０番地,,14,213,2420011,,,,,,,2023-12-11,1,,,,,ホウジュン,0
80,1021003013861,新規,0,2023-12-11,2023-12-11,合同会社Ｂｉｒｄｉｅ＆Ｒｕｓｈ,,合同会社,神奈川県,横須賀市,西浦賀４丁目１１番２号ヴェラシス浦賀２番館２０５号,,14,201,2390824,,,,,,,2023-12-11,1,,,,,バーディアンドラッシュ,0
82,1030001157587,新規,0,2023-12-11,2023-12-11,日新商事株式会社,,株式会社,埼玉県,川口市,西青木４丁目３番１８－１０２号,,11,203,3320035,,,,,,,2023-12-11,1,,,,,ニッシンショウジ,0
83,1030001157604,新規,0,2023-12-11,2023-12-11,Ｅｎｄｌｅｓｓ　Ｄ＆Ｈ株式会社,,株式会社,埼玉県,所沢市,北有楽町１７番１９－２０１号所沢大志寮２,,11,208,3591114,,,,,,,2023-12-11,1,,,,,エンドレスディアンドエイチ,0
89,1030003023168,新規,0,2023-12-11,2023-12-11,合同会社スタジオパンチ,,合同会社,埼玉県,深谷市,上野台２３５２番地ダイアパレスＢＷ深谷１５０１号,,11,218,3660801,,,,,,,2023-12-11,1,,,,,スタジオパンチ,0
95,1040001131252,新規,0,2023-12-11,2023-12-11,株式会社ＴＫ企画,,株式会社,千葉県,市原市,牛久５３５串田ハイツ１６号棟２０７号室,,12,219,2900225,,,,,,,2023-12-11,1,,,,,ティーケーキカク,0
98,1040003023836,新規,0,2023-12-11,2023-12-11,宮崎電設工業合同会社,,合同会社,千葉県,勝浦市,川津１７２７番地,,12,218,2995232,,,,,,,2023-12-11,1,,,,,ミヤザキデンセツコウギョウ,0
110,1070001041168,新規,0,2023-12-11,2023-12-11,株式会社金子商店,,株式会社,群馬県,太田市,宝町１３５番地６,,10,205,3730042,,,,,,,2023-12-11,1,,,,,,0
113,1080401026882,新規,0,2023-12-11,2023-12-11,株式会社ゼーアンドシー,,株式会社,静岡県,浜松市西区,入野町１４２１６番地の４,,22,133,4328061,,,,,,,2023-12-11,1,,,,,ゼーアンドシー,0
122,1110005017028,新規,0,2023-12-11,2023-12-11,一般社団法人ファイナンシャルエデュケーション,,その他の設立登記法人,新潟県,上越市,清里区上稲塚６６番地１,,15,222,9430516,,,,,,,2023-12-11,1,,,,,ファイナンシャルエデュケーション,0
131,1120001260489,新規,0,2023-12-11,2023-12-11,ｗｉｌｄｊａｐａｎ株式会社,,株式会社,大阪府,大阪市福島区,野田５丁目１３番３３号１階,,27,103,5530005,,,,,,,2023-12-11,1,,,,,ワイルドジャパン,0
132,1120001260522,新規,0,2023-12-11,2023-12-11,ＶＩＮＡＦＯＯＤ株式会社,,株式会社,大阪府,大阪市淀川区,加島１丁目６３番１３号１Ｆ,,27,123,5320031,,,,,,,2023-12-11,1,,,,,ヴィナフード,0
138,1120003025485,新規,0,2023-12-11,2023-12-11,Ｍ．Ｓ．Ｄ合同会社,,合同会社,大阪府,大阪市北区,長柄西１丁目３番５４－１２１４号,,27,127,5310061,,,,,,,2023-12-11,1,,,,,エムエスディー,0
139,1120003025519,新規,0,2023-12-11,2023-12-11,合同会社ＢＡＭＺＡ,,合同会社,大阪府,大阪市北区,梅田１丁目２番２号大阪駅前第２ビル１２‐１２,,27,127,5300001,,,,,,,2023-12-11,1,,,,,バンザ,0
140,1120101068667,新規,0,2023-12-11,2023-12-11,ＳＹＥＤ　ＴＲＡＤＩＮＧ株式会社,,株式会社,大阪府,和泉市,春木町９１８番地（池辺ハイツ２０５号）,,27,219,5941141,,,,,,,2023-12-11,1,,,,,サイードトレーディング,0
141,1120101068675,新規,0,2023-12-11,2023-12-11,株式会社あんじゅ,,株式会社,大阪府,堺市中区,東山９６３番地１０２,,27,142,5998247,,,,,,,2023-12-11,1,,,,,アンジュ,0
150,1122001037644,新規,0,2023-12-11,2023-12-11,株式会社Ｎｕｔｓ,,株式会社,大阪府,東大阪市,足代新町４番１２号テレビル３階,,27,227,5770057,,,,,,,2023-12-11,1,,,,,ナッツ,0
154,1140001132595,新規,0,2023-12-11,2023-12-11,ラグ株式会社,,株式会社,兵庫県,神戸市長田区,苅藻島町３丁目１１番４０号,,28,106,6530033,,,,,,,2023-12-11,1,,,,,ラグ,0
155,1140001132612,新規,0,2023-12-11,2023-12-11,株式会社丹波土匠,,株式会社,兵庫県,丹波市,市島町上竹田９１５－５,,28,223,6694341,,,,,,,2023-12-11,1,,,,,タンバドショウ,0
156,1140001132620,新規,0,2023-12-11,2023-12-11,株式会社ヤクボ塗装,,株式会社,兵庫県,姫路市,日出町２丁目７番地１３,,28,201,6700942,,,,,,,2023-12-11,1,,,,,ヤクボトソウ,0
161,1150001026937,新規,0,2023-12-11,2023-12-11,株式会社ＧＤＳ,,株式会社,奈良県,北葛城郡河合町,大字佐味田１５２２番地５,,29,427,6360062,,,,,,,2023-12-11,1,,,,,ジーディーエス,0
162,1150003003125,新規,0,2023-12-11,2023-12-11,合同会社昊鷹,,合同会社,奈良県,香芝市,鎌田４１４番地１カサブロード藤井Ｂ棟１０１号室,,29,210,6390227,,,,,,,2023-12-11,1,,,,,コウヨウ,0
168,1180001159255,新規,0,2023-12-11,2023-12-11,株式会社ホップステップ,,株式会社,愛知県,名古屋市緑区,鳴海町字片坂８番地,,23,114,4580801,,,,,,,2023-12-11,1,,,,,ホップステップ,0
172,1180003026098,新規,0,2023-12-11,2023-12-11,合同会社ＲＡＭＵＮＥ,,合同会社,愛知県,名古屋市中区,錦３丁目２２－２４ＡＴＳ広小路ビル５Ｆ,,23,106,4600003,,,,,,,2023-12-11,1,,,,,ラムネ,0
178,1190003004532,新規,0,2023-12-11,2023-12-11,合同会社和泉,,合同会社,三重県,津市,久居野村町６０６番地４３,,24,201,5141113,,,,,,,2023-12-11,1,,,,,イズミ,0
179,1200001041971,新規,0,2023-12-11,2023-12-11,株式会社ここもも,,株式会社,岐阜県,岐阜市,諏訪山１丁目７番９号,,21,201,5013142,,,,,,,2023-12-11,1,,,,,ココモモ,0
186,1240001062551,新規,0,2023-12-11,2023-12-11,株式会社ボードファクトリー,,株式会社,広島県,福山市,柳津町４丁目３番８号,,34,207,7290114,,,,,,,2023-12-11,1,,,,,ボードファクトリー,0
194,1260001038541,新規,0,2023-12-11,2023-12-11,株式会社ＣＯＬＯＲＥ,,株式会社,岡山県,岡山市北区,駅元町２１－１ＭＡＩＳＯＮｆｏｓｓｅｔｔｅ１階,,33,101,7000024,,,,,,,2023-12-11,1,,,,,コロレ,0
198,1290001103904,新規,0,2023-12-11,2023-12-11,株式会社ＧＦ,,株式会社,福岡県,福岡市博多区,博多駅南１丁目１５番２８号,,40,132,8120016,,,,,,,2023-12-11,1,,,,,ジーエフ,0
199,1290001104043,新規,0,2023-12-11,2023-12-11,株式会社インブリス,,株式会社,福岡県,久留米市,東櫛原町６５４番地１,,40,203,8300003,,,,,,,2023-12-11,1,,,,,インブリス,0
210,1370003006411,新規,0,2023-12-11,2023-12-11,ラヴィーレ合同会社,,合同会社,宮城県,仙台市青葉区,二日町１１－１５Ｉｎ－Ｔｏｗｎｅｒ二日町２０１号,,04,101,9800802,,,,,,,2023-12-11,1,,,,,ラヴィーレ,0
216,1410005006553,新規,0,2023-12-11,2023-12-11,ＮＰＯ法人きらり横手,,その他の設立登記法人,秋田県,横手市,雄物川町沼館字昼飯塚９番地,,05,203,0130208,,,,,,,2023-12-11,1,,,,,,0
224,1460003000974,新規,0,2023-12-11,2023-12-11,合同会社ノブリス・オブリージュ,,合同会社,北海道,釧路市,新富士町４丁目７－５,,01,206,0840904,,,,,,,2023-12-11,1,,,,,ノブリスオブリージュ,0
238,1700150122638,新規,0,2023-12-11,2023-12-11,ｗｕｈｕｃａｎａｉｗａｎｇｌｕｏｋｅｊｉｙｏｕｘｉａｎｇｏｎｇｓｉ,,外国会社等,,,,,,,,ａｎｈｕｉｓｈｅｎｇ　ｗｕｈｕｓｈｉ　ｗａｎｚｈｉｑｕ　ｗａｎｚｈｉｚｈｅｎｄｅｋｅｓｈａｎｇｙｅｇｕａｎｇｃｈａｎｇ７ｄｏｎｇ２０２ｈａｏ,,,,,,2023-12-11,1,,,,,ウーフーツァンアイワンルオコージーヨウシエンゴンスー,0
239,1700150122646,新規,0,2023-12-11,2023-12-11,Ｈａｎｇｚｈｏｕ　Ｇｅｎａｈａｉ　Ｔｒａｄｉｎｇ　Ｃｏ．，Ｌｔｄ．,,外国会社等,,,,,,,,Ｒｏｏｍ　５１９，ｆｉｆｔｈ　ｆｌｏｏｒ，Ｂｌｏｃｋ　Ｂ，Ｙｏｎｇｈｅ　Ｂｕｉｌｄｉｎｇ，Ｎｏ．８８８，Ｈａｎｇｈａｉ　Ｒｏａｄ，Ｓｈａｎｇｃｈｅｎｇ　Ｄｉｓｔｒｉｃｔ　Ｈａｎｇｚｈｏｕ　Ｚｈｅｊｉａｎｇ　３１００００　ＣＮ,,,,,,2023-12-11,1,,,,,ハーンジョウゴーァナーハイマオイーヨウシエンゴーンスー,0
249,2010001240682,新規,0,2023-12-11,2023-12-11,ＭＹＤホールディングス株式会社,,株式会社,東京都,千代田区,丸の内１丁目６番１号,,13,101,1000005,,,,,,,2023-12-11,1,,,,,エムワイディーホールディングス,0
257,2010101015919,新規,0,2023-12-11,2023-12-11,株式会社イース,,株式会社,東京都,八王子市,東町１番１８号小宮ビル３０１,,13,201,1920082,,,,,,,2023-12-11,1,,,,,イース,0
262,2010401179042,新規,0,2023-12-11,2023-12-11,株式会社白井総研,,株式会社,東京都,港区,白金１丁目２－２－Ｗ１７１１,,13,103,1080072,,,,,,,2023-12-11,1,,,,,シライソウケン,0
264,2010403031523,新規,0,2023-12-11,2023-12-11,Ｏｆｆｉｃｅ　ｙｕｋａ合同会社,,合同会社,東京都,港区,北青山１丁目３－１アールキューブ青山３階,,13,103,1070061,,,,,,,2023-12-11,1,,,,,オフィスユカ,0
265,2010403031531,新規,0,2023-12-11,2023-12-11,ＡＳｉＤＯ　ｂｅｂｅ合同会社,,合同会社,東京都,港区,新橋２丁目１６番１号３階３４８室,,13,103,1050004,,,,,,,2023-12-11,1,,,,,アシトベベ,0
268,2010501051456,新規,0,2023-12-11,2023-12-11,ＭＡＸ株式会社,,株式会社,東京都,台東区,日本堤２丁目２１－４田中ビル２－９号室,,13,106,1110021,,,,,,,2023-12-11,1,,,,,マックス,0
269,2010601064309,新規,0,2023-12-11,2023-12-11,株式会社紡,,株式会社,東京都,江東区,新大橋２丁目１８番５－４０２号,,13,108,1350007,,,,,,,2023-12-11,1,,,,,ツムギ,0
270,2010601064317,新規,0,2023-12-11,2023-12-11,株式会社ＳＴ　Ｈｕｍａｎ,,株式会社,東京都,墨田区,錦糸１丁目２－１アルカセントラル１４Ｆ,,13,107,1300013,,,,,,,2023-12-11,1,,,,,エステイヒューマン,0
271,2010603010517,新規,0,2023-12-11,2023-12-11,Ｈ．Ｍ　Ｐｏｗｅｒ合同会社,,合同会社,東京都,江東区,南砂２丁目２番１１－１１０７号,,13,108,1360076,,,,,,,2023-12-11,1,,,,,エイチエムパワー,0
279,2011001158741,新規,0,2023-12-11,2023-12-11,Ｆｕｎｄｓ　Ｓｔａｒｔｕｐｓ株式会社,,株式会社,東京都,渋谷区,恵比寿西１丁目１０番１１号,,13,113,1500021,,,,,,,2023-12-11,1,,,,,ファンズスタートアップス,0
283,2011103013828,新規,0,2023-12-11,2023-12-11,合同会社Ｋ＆Ｂ,,合同会社,東京都,新宿区,早稲田鶴巻町５２５番地８号１階,,13,104,1620041,,,,,,,2023-12-11,1,,,,,ケーアンドビー,0
287,2011501030078,新規,0,2023-12-11,2023-12-11,株式会社卓越国際,,株式会社,東京都,北区,浮間１丁目７－２３兆豊浮間ビル,,13,117,1150051,,,,,,,2023-12-11,1,,,,,タクエツコクサイ,0
288,2011501030094,新規,0,2023-12-11,2023-12-11,株式会社ナチュラルエース,,株式会社,東京都,荒川区,西日暮里６丁目６５番１号日本運輸倉庫Ａ棟１階,,13,118,1160013,,,,,,,2023-12-11,1,,,,,ナチュラルエース,0
291,2011601027370,新規,0,2023-12-11,2023-12-11,株式会社ＬＡＶＩＡ,,株式会社,東京都,練馬区,石神井台７丁目１３番１８号,,13,120,1770045,,,,,,,2023-12-11,1,,,,,ラヴィア,0
292,2011703003682,新規,0,2023-12-11,2023-12-11,旭日科学技術合同会社,,合同会社,東京都,江戸川区,平井５丁目４５番５号渡辺ハイツ１０１,,13,123,1320035,,,,,,,2023-12-11,1,,,,,アサヒカガクギジュツ,0
294,2011801043473,新規,0,2023-12-11,2023-12-11,株式会社Ａｍｂｅｒ,,株式会社,東京都,葛飾区,宝町２丁目４番１７号,,13,122,1240005,,,,,,,2023-12-11,1,,,,,アンバー,0
298,2012403006315,新規,0,2023-12-11,2023-12-11,ＭＩＺＵＥ合同会社,,合同会社,東京都,狛江市,和泉本町１丁目２０番２１号,,13,219,2010003,,,,,,,2023-12-11,1,,,,,ミズエ,0
309,2020003025049,新規,0,2023-12-11,2023-12-11,合同会社もずく技研,,合同会社,神奈川県,横浜市磯子区,森３丁目１８番３２号,,14,107,2350023,,,,,,,2023-12-11,1,,,,,モズクギケン,0
310,2020005016211,新規,0,2023-12-11,2023-12-11,ＳｏＶａ社会保険労務士法人,,その他の設立登記法人,神奈川県,横浜市都筑区,中川中央１丁目３０番１号プレミアヨコハマ３階,,14,118,2240003,,,,,,,2023-12-11,1,,,,,ソバ,0
316,2030001157603,新規,0,2023-12-11,2023-12-11,Ｐｕｌｓｅｘｃｅｌ株式会社,,株式会社,埼玉県,ふじみ野市,上福岡３丁目１２番１２号,,11,245,3560004,,,,,,,2023-12-11,1,,,,,パルスエクセル,0
321,2030003023142,新規,0,2023-12-11,2023-12-11,合同会社あいうえをん,,合同会社,埼玉県,富士見市,西みずほ台２丁目１３－１９,,11,235,3540018,,,,,,,2023-12-11,1,,,,,アイウエヲン,0
322,2030003023175,新規,0,2023-12-11,2023-12-11,チーポポランド合同会社,,合同会社,埼玉県,草加市,新栄２丁目３７番地４,,11,221,3400056,,,,,,,2023-12-11,1,,,,,チーポポランド,0
323,2030003023183,新規,0,2023-12-11,2023-12-11,東鵬国際合同会社,,合同会社,埼玉県,川口市,芝富士１丁目２３番２４号,,11,203,3330854,,,,,,,2023-12-11,1,,,,,トウホウコクサイ,0
328,2040001131268,新規,0,2023-12-11,2023-12-11,株式会社ＭＹ保険．ｃｏｍ,,株式会社,千葉県,木更津市,畑沢４丁目１８番１号,,12,206,2920825,,,,,,,2023-12-11,1,,,,,マイホケンドットコム,0
329,2040001131292,新規,0,2023-12-11,2023-12-11,株式会社森と海,,株式会社,千葉県,南房総市,白浜町根本１１４５,,12,234,2950104,,,,,,,2023-12-11,1,,,,,モリトウミ,0
332,2040003023901,新規,0,2023-12-11,2023-12-11,合同会社ＯＵＴ　ＬＩＶＥ,,合同会社,千葉県,富津市,鶴岡６９５番地１,,12,226,2930054,,,,,,,2023-12-11,1,,,,,アウトライブ,0
335,2050001053932,新規,0,2023-12-11,2023-12-11,株式会社ワイルド・いばらき,,株式会社,茨城県,水戸市,見川３丁目１４０－３,,08,201,3100912,,,,,,,2023-12-11,1,,,,,ワイルドイバラキ,0
341,2070001041167,新規,0,2023-12-11,2023-12-11,Ｓｍｉｌｅ’Ｓ株式会社,,株式会社,群馬県,吾妻郡中之条町,大字伊勢町９１０番地,,10,421,3770423,,,,,,,2023-12-11,1,,,,,スマイルズ,0
342,2070003005186,新規,0,2023-12-11,2023-12-11,合同会社ＡＲＳ,,合同会社,群馬県,伊勢崎市,市場町１丁目４８－１６,,10,204,3792211,,,,,,,2023-12-11,1,,,,,,0
344,2080001026019,新規,0,2023-12-11,2023-12-11,株式会社ＹｏｕｒＬｉｆｅ,,株式会社,静岡県,藤枝市,谷稲葉１３７番地１,,22,214,4260083,,,,,,,2023-12-11,1,,,,,ユアライフ,0
345,2080401026881,新規,0,2023-12-11,2023-12-11,株式会社鈴將,,株式会社,静岡県,浜松市東区,原島町２５６番地の４,,22,132,4350047,,,,,,,2023-12-11,1,,,,,スズマサ,0
346,2090001018452,新規,0,2023-12-11,2023-12-11,株式会社総合防水志村,,株式会社,山梨県,甲府市,国母１丁目１０番２９号,,19,201,4000043,,,,,,,2023-12-11,1,,,,,ソウゴウボウスイシムラ,0
359,2120001260538,新規,0,2023-12-11,2023-12-11,株式会社トライアングル,,株式会社,大阪府,枚方市,星丘３丁目５番１０号,,27,210,5730013,,,,,,,2023-12-11,1,,,,,トライアングル,0
364,2120003025501,新規,0,2023-12-11,2023-12-11,合同会社アジアファンド,,合同会社,大阪府,大阪市中央区,西心斎橋２丁目１０番１３号,,27,128,5420086,,,,,,,2023-12-11,1,,,,,アジアファンド,0
373,2130003009180,新規,0,2023-12-11,2023-12-11,京都川端合同会社,,合同会社,京都府,京都市中京区,西ノ京星池町２０番地６２,,26,104,6048416,,,,,,,2023-12-11,1,,,,,キョウトカワバタ,0
378,2140001132644,新規,0,2023-12-11,2023-12-11,株式会社トアロード不動産販売,,株式会社,兵庫県,神戸市中央区,山本通３丁目７番２５号,,28,110,6500003,,,,,,,2023-12-11,1,,,,,トアロードフドウサンハンバイ,0
390,2180001159238,新規,0,2023-12-11,2023-12-11,株式会社リマド不動産,,株式会社,愛知県,一宮市,大和町宮地花池字高見１２番地１,,23,203,4910847,,,,,,,2023-12-11,1,,,,,リマドフドウサン,0
395,2180003026089,新規,0,2023-12-11,2023-12-11,合同会社ケーエスワイ,,合同会社,愛知県,名古屋市天白区,原３丁目７０５番地の２,,23,116,4680015,,,,,,,2023-12-11,1,,,,,ケーエスワイ,0
396,2180003026097,新規,0,2023-12-11,2023-12-11,合同会社Ａｕｏｔｉｎｄｏ,,合同会社,愛知県,名古屋市中村区,畑江通５丁目１番地,,23,105,4530851,,,,,,,2023-12-11,1,,,,,オートインドウ,0
410,2290001103985,新規,0,2023-12-11,2023-12-11,株式会社ｉｍｐｒｏｏｍ,,株式会社,福岡県,糟屋郡粕屋町,原町３丁目４－１３－２０１,,40,349,8112307,,,,,,,2023-12-11,1,,,,,インプルーム,0
411,2290001103993,新規,0,2023-12-11,2023-12-11,株式会社Ｂｒｏａｄｅｎ,,株式会社,福岡県,福岡市中央区,赤坂１丁目８番２３号,,40,133,8100042,,,,,,,2023-12-11,1,,,,,ブローデン,0
415,2290003014710,新規,0,2023-12-11,2023-12-11,合同会社思ひいろ,,合同会社,福岡県,福岡市中央区,六本松４丁目２番６－２０８号ＭＪＲ六本松,,40,133,8100044,,,,,,,2023-12-11,1,,,,,オモイイロ,0
419,2320003004253,新規,0,2023-12-11,2023-12-11,合同会社永田,,合同会社,大分県,大分市,はなの森２６番地の６,,44,201,8700880,,,,,,,2023-12-11,1,,,,,ナガタ,0
422,2340003004326,新規,0,2023-12-11,2023-12-11,ＲｅｔｒｙＺ合同会社,,合同会社,鹿児島県,鹿屋市,串良町上小原５２８６番地１,,46,203,8931605,,,,,,,2023-12-11,1,,,,,リトライズ,0
425,2370003006402,新規,0,2023-12-11,2023-12-11,孫七エステート合同会社,,合同会社,宮城県,仙台市宮城野区,仙石８―３,,04,102,9830032,,,,,,,2023-12-11,1,,,,,マゴシチエステート,0
433,2390003002176,新規,0,2023-12-11,2023-12-11,合同会社ＡＳＡＧＩ,,合同会社,山形県,山形市,香澄町１丁目２１番２８号,,06,201,9900039,,,,,,,2023-12-11,1,,,,,アサギ,0
439,2420003002841,新規,0,2023-12-11,2023-12-11,合同会社ＢＡＳＥ　ＥＩＧＨＴ,,合同会社,青森県,八戸市,江陽４丁目２番８号グランドソレーユ２０１,,02,203,0310801,,,,,,,2023-12-11,1,,,,,ベースエイト,0
444,2430001090549,新規,0,2023-12-11,2023-12-11,Ｎｉｓｅｋｏ　Ａｓｓｅｔｓ株式会社,,株式会社,北海道,虻田郡倶知安町,南四条西１丁目３番２号,,01,400,0440034,,,,,,,2023-12-11,1,,,,,ニセコアセット,0
449,2500001025357,新規,0,2023-12-11,2023-12-11,株式会社ＭＹＯ,,株式会社,愛媛県,伊予郡松前町,大字筒井３１６番地１,,38,401,7913120,,,,,,,2023-12-11,1,,,,,エムワイオー,0
451,2700150122645,新規,0,2023-12-11,2023-12-11,ｓｈａｎｇｈａｉｑｉｈｕａｎｋｅｊｉｙｏｕｘｉａｎｇｏｎｇｓｉ,,外国会社等,,,,,,,,ｚｈｏｎｇｇｕｏ（ｓｈａｎｇｈａｉ）ｚｉｙｏｕｍａｏｙｉｓｈｉｙａｎｑｕｌｉｎｇａｎｇｘｉｎｐｉａｎｑｕｚｈｅｎｇｂｏｌｕ１８８１ｈａｏ１３ｚｈｕａｎｇ１ｃｅｎｇ,,,,,,2023-12-11,1,,,,,シャンハイキカンカギユウゲンコウシ,0
457,3010001240649,新規,0,2023-12-11,2023-12-11,株式会社サンライズホールディングス,,株式会社,東京都,千代田区,岩本町２丁目１３番６号,,13,101,1010032,,,,,,,2023-12-11,1,,,,,サンライズホールディングス,0
460,3010401179033,新規,0,2023-12-11,2023-12-11,富安株式会社,,株式会社,東京都,港区,東新橋２丁目１０番１０東新橋ビル８１１号,,13,103,1050021,,,,,,,2023-12-11,1,,,,,トミヤス,0
461,3010401179041,新規,0,2023-12-11,2023-12-11,Ｆｒｅｅ　ＡＩ株式会社,,株式会社,東京都,港区,六本木２丁目２番６号６Ｆ,,13,103,1060032,,,,,,,2023-12-11,1,,,,,フリーエーアイ,0
465,3010601064299,新規,0,2023-12-11,2023-12-11,Ｕ＆Ｉ株式会社,,株式会社,東京都,墨田区,吾妻橋１丁目１０番３号,,13,107,1300001,,,,,,,2023-12-11,1,,,,,ユーアンドアイ,0
478,3011001158658,新規,0,2023-12-11,2023-12-11,ＨＦキャピタル株式会社,,株式会社,東京都,渋谷区,渋谷２丁目１９－１５宮益坂ビルディング６０９,,13,113,1500002,,,,,,,2023-12-11,1,,,,,エイチエフキャピタル,0
480,3011003018050,新規,0,2023-12-11,2023-12-11,ファインナフ合同会社,,合同会社,東京都,目黒区,東山１丁目２１番１号,,13,110,1530043,,,,,,,2023-12-11,1,,,,,ファインナフ,0
481,3011003018059,新規,0,2023-12-11,2023-12-11,合同会社オーロラ・ラボ,,合同会社,東京都,渋谷区,神泉町１０番１５号アネックス神泉３０１,,13,113,1500045,,,,,,,2023-12-11,1,,,,,オーロララボ,0
482,3011003018067,新規,0,2023-12-11,2023-12-11,ＪＴ　Ｉｎｖｅｓｔｍｅｎｔ合同会社,,合同会社,東京都,渋谷区,宇田川町１番１２－２７０１号パークコート渋谷ザタワー,,13,113,1500042,,,,,,,2023-12-11,1,,,,,ジェイティーインベストメント,0
503,3012403006314,新規,0,2023-12-11,2023-12-11,合同会社書冠アート社,,合同会社,東京都,三鷹市,下連雀３丁目３７番３３号１０１,,13,204,1810013,,,,,,,2023-12-11,1,,,,,ショカンアートシャ,0
504,3012701017987,新規,0,2023-12-11,2023-12-11,株式会社アーツアンドリサーチ,,株式会社,東京都,東久留米市,浅間町２丁目２０番８号,,13,222,2030012,,,,,,,2023-12-11,1,,,,,アーツアンドリサーチ,0
506,3013303006916,新規,0,2023-12-11,2023-12-11,合同会社福泉アセット,,合同会社,東京都,豊島区,東池袋２丁目３８番４－２００１,,13,116,1700013,,,,,,,2023-12-11,1,,,,,フクイズミアセット,0
510,3020001154798,新規,0,2023-12-11,2023-12-11,Ｄｅｃｅｐｔｉｏｎ株式会社,,株式会社,神奈川県,川崎市幸区,鹿島田１丁目１番５－１８０２号,,14,132,2120058,,,,,,,2023-12-11,1,,,,,ディセプション,0
511,3020003025155,新規,0,2023-12-11,2023-12-11,ルミナスデザイン合同会社,,合同会社,神奈川県,横浜市保土ケ谷区,狩場町１６４－３３Ｅ５０８,,14,106,2400025,,,,,,,2023-12-11,1,,,,,ルミナスデザイン,0
515,3021001080902,新規,0,2023-12-11,2023-12-11,株式会社Ａｕｇｕｓｔａ,,株式会社,神奈川県,平塚市,紅谷町８番５号,,14,203,2540043,,,,,,,2023-12-11,1,,,,,オーガスタ,0
532,3030003023109,新規,0,2023-12-11,2023-12-11,合同会社ＥＩＦＥＲ,,合同会社,埼玉県,比企郡小川町,大字小川１２８０－２６－カタクリ１０２,,11,343,3550321,,,,,,,2023-12-11,1,,,,,アイファー,0
533,3030003023166,新規,0,2023-12-11,2023-12-11,合同会社オイカワコーポレーション,,合同会社,埼玉県,戸田市,本町４丁目３番５号５０１号室,,11,224,3350023,,,,,,,2023-12-11,1,,,,,オイカワコーポレーション,0
534,3030003023174,新規,0,2023-12-11,2023-12-11,ＨＯＮＥＳＴ合同会社,,合同会社,埼玉県,入間市,大字下藤沢６３２－３,,11,225,3580011,,,,,,,2023-12-11,1,,,,,オネスト,0
541,3040003023900,新規,0,2023-12-11,2023-12-11,合同会社ブライトン,,合同会社,千葉県,柏市,向原町３－４１サンシティウエスト１０２号,,12,217,2770851,,,,,,,2023-12-11,1,,,,,ブライトン,0
542,3040005022223,新規,0,2023-12-11,2023-12-11,一般社団法人薬局開業支援協会,,その他の設立登記法人,千葉県,印西市,草深２３０７番地３０,,12,231,2701337,,,,,,,2023-12-11,1,,,,,ヤッキョクカイギョウシエンキョウカイ,0
553,3060001036605,新規,0,2023-12-11,2023-12-11,株式会社ビーバディーズ,,株式会社,栃木県,足利市,大町５１７番地１,,09,202,3260056,,,,,,,2023-12-11,1,,,,,ビーバディーズ,0
554,3060001036613,新規,0,2023-12-11,2023-12-11,株式会社大鐵,,株式会社,栃木県,宇都宮市,茂原３丁目１２１２番地５,,09,201,3210145,,,,,,,2023-12-11,1,,,,,ダイテツ,0
562,3080101024391,新規,0,2023-12-11,2023-12-11,株式会社大門,,株式会社,静岡県,伊豆の国市,浮橋２７３番地の１,,22,225,4102311,,,,,,,2023-12-11,1,,,,,ダイモン,0
563,3080401026889,新規,0,2023-12-11,2023-12-11,株式会社新村ＡＭ,,株式会社,静岡県,浜松市中区,高丘東２丁目２２番２１号,,22,131,4338117,,,,,,,2023-12-11,1,,,,,シンムラエーエム,0
567,3090003002445,新規,0,2023-12-11,2023-12-11,むかし姫合同会社,,合同会社,山梨県,北杜市,高根町箕輪２２５５番地１,,19,209,4080012,,,,,,,2023-12-11,1,,,,,ムカシヒメ,0
573,3120001260462,新規,0,2023-12-11,2023-12-11,テセウスコンサルティング株式会社,,株式会社,大阪府,大阪市西区,京町堀１丁目４－４－６０１,,27,106,5500003,,,,,,,2023-12-11,1,,,,,テセウスコンサルティング,0
574,3120001260504,新規,0,2023-12-11,2023-12-11,株式会社山中組,,株式会社,大阪府,大阪市西淀川区,姫里１丁目１９番２１号,,27,113,5550025,,,,,,,2023-12-11,1,,,,,ヤマナカグミ,0
577,3120003025475,新規,0,2023-12-11,2023-12-11,合同会社ＨＡＫＡＬＵ,,合同会社,大阪府,大阪市天王寺区,味原町１４番３号上本町東ビル４０６,,27,109,5430023,,,,,,,2023-12-11,1,,,,,ハカル,0
578,3120003025483,新規,0,2023-12-11,2023-12-11,合同会社ＹｏＹｏ’ｓ　Ｇａｒｄｅｎ,,合同会社,大阪府,大阪市北区,天神橋６丁目２番２５号２０１号室,,27,127,5300041,,,,,,,2023-12-11,1,,,,,ヨーヨーズガーデン,0
591,3140001132610,新規,0,2023-12-11,2023-12-11,株式会社Ｐｒｉｂｂｏｎ,,株式会社,兵庫県,芦屋市,船戸町３番２５号ラインビルド芦屋船戸３０４,00132944,28,206,6590093,,,,,,,2023-12-11,1,,,,,プリボン,0
592,3140001132619,新規,0,2023-12-11,2023-12-11,株式会社ＳＤドローン,,株式会社,兵庫県,神戸市中央区,北長狭通４丁目２－２－３Ｆ,,28,110,6500012,,,,,,,2023-12-11,1,,,,,エスディードローン,0
597,3150001026927,新規,0,2023-12-11,2023-12-11,株式会社中原組,,株式会社,奈良県,大和高田市,曽大根１丁目３番５－２０６号プリンスコート高田,,29,202,6350055,,,,,,,2023-12-11,1,,,,,ナカハラグミ,0
601,3170001017924,新規,0,2023-12-11,2023-12-11,株式会社誠紀工業,,株式会社,和歌山県,岩出市,野上野８９番地の２６,,30,209,6496216,,,,,,,2023-12-11,1,,,,,セイキコウギョウ,0
612,3180001159179,新規,0,2023-12-11,2023-12-11,株式会社ＴＫＧ,,株式会社,愛知県,名古屋市南区,駈上１丁目２番Ｄ‐５５７号,,23,112,4570007,,,,,,,2023-12-11,1,,,,,ティーケージー,0
613,3180001159253,新規,0,2023-12-11,2023-12-11,株式会社ＢＬＵＥ　ＣＯＳＭＯＳ,,株式会社,愛知県,愛知郡東郷町,大字春木字勘右エ門新田１１３番地２７２,,23,302,4700162,,,,,,,2023-12-11,1,,,,,ブルーコスモス,0
618,3180003026096,新規,0,2023-12-11,2023-12-11,合同会社ＶＥＧＡ,,合同会社,愛知県,名古屋市熱田区,花表町１０番１号,,23,109,4560033,,,,,,,2023-12-11,1,,,,,,0
622,3200001041953,新規,0,2023-12-11,2023-12-11,株式会社ＨＡＹＡＳＨＩＭＡ,,株式会社,岐阜県,土岐市,土岐津町土岐口２２１０番地,,21,212,5095122,,,,,,,2023-12-11,1,,,,,ハヤシマ,0
623,3200001041961,新規,0,2023-12-11,2023-12-11,株式会社ジャスキ２,,株式会社,岐阜県,海津市,海津町平原６３番地,,21,221,5030651,,,,,,,2023-12-11,1,,,,,ジャスキニ,0
624,3200003006178,新規,0,2023-12-11,2023-12-11,合同会社ＧＩＸ,,合同会社,岐阜県,加茂郡白川町,下佐見２６０６番地,,21,506,5091222,,,,,,,2023-12-11,1,,,,,ジーアイエックス,0
631,3240003006447,新規,0,2023-12-11,2023-12-11,合同会社イズミ企画,,合同会社,広島県,広島市安芸区,矢野東２丁目２７－５３－８,,34,107,7360083,,,,,,,2023-12-11,1,,,,,,0
632,3250001020424,新規,0,2023-12-11,2023-12-11,株式会社エースロジスティクス,,株式会社,山口県,防府市,大字新田２０３９番地の２,,35,206,7470825,,,,,,,2023-12-11,1,,,,,エースロジスティクス,0
635,3260003004515,新規,0,2023-12-11,2023-12-11,ラーゲルハウス合同会社,,合同会社,岡山県,岡山市北区,日吉町５番１１－３号,,33,101,7000966,,,,,,,2023-12-11,1,,,,,ラーゲルハウス,0
645,3290001103984,新規,0,2023-12-11,2023-12-11,海鳴株式会社,,株式会社,福岡県,福岡市南区,野間３丁目２－１第一福徳ビル５０２,,40,134,8150041,,,,,,,2023-12-11,1,,,,,,0
653,3290003014718,新規,0,2023-12-11,2023-12-11,合同会社ミムラス,,合同会社,福岡県,福岡市中央区,天神２丁目２番１２号Ｔ＆Ｊビルディング７Ｆ,,40,133,8100001,,,,,,,2023-12-11,1,,,,,ミムラス,0
655,3290801030115,新規,0,2023-12-11,2023-12-11,株式会社ＴｏＴｈｅＷｏｒｌｄ,,株式会社,福岡県,北九州市小倉南区,上吉田１丁目１１番３０号,,40,107,8000201,,,,,,,2023-12-11,1,,,,,トゥーザワールド,0
660,3320003004252,新規,0,2023-12-11,2023-12-11,香々地ベジファーム合同会社,,合同会社,大分県,豊後高田市,見目６４８番地１,,44,209,8721207,,,,,,,2023-12-11,1,,,,,カカヂベジファーム,0
661,3320005010117,新規,0,2023-12-11,2023-12-11,一般社団法人ＪＡＰＡＮハンティング協会,,その他の設立登記法人,大分県,由布市,挾間町来鉢２９９６番地２,,44,213,8795512,,,,,,,2023-12-11,1,,,,,ジャパンハンティングキョウカイ,0
665,3340001026123,新規,0,2023-12-11,2023-12-11,株式会社ケアコネクト,,株式会社,鹿児島県,鹿児島市,坂之上６丁目１７番３３‐２号,,46,201,8910150,,,,,,,2023-12-11,1,,,,,ケアコネクト,0
675,3380003005633,新規,0,2023-12-11,2023-12-11,ネクストドリーム合同会社,,合同会社,福島県,いわき市,内郷宮町金坂１９７番地の４７,,07,204,9738407,,,,,,,2023-12-11,1,,,,,ネクストドリーム,0
682,3450003002417,新規,0,2023-12-11,2023-12-11,合同会社トマムの青い家,,合同会社,北海道,勇払郡占冠村,字下トマム２２７１番１,,01,463,0792203,,,,,,,2023-12-11,1,,,,,トマムノアオイイエ,0
687,3500003003153,新規,0,2023-12-11,2023-12-11,合同会社ゲストハウス縁,,合同会社,愛媛県,西条市,下島山甲１４３６番地４,,38,206,7930006,,,,,,,2023-12-11,1,,,,,ゲストハウスエン,0
690,3700150122644,新規,0,2023-12-11,2023-12-11,ＨＥＹＧＥＡＲＳ　ＩＮＣ．,,外国会社等,,,,,,,,１７９３１　ＳＫＹ　ＰＡＲＫ　ＣＩＲ　ＳＴＥ　ＣＤＥＦ　ＩＲＶＩＮＥ　ＣＡ,,,,,,2023-12-11,1,,,,,ヘーギアズインコーポレーティッド,0
691,3700150122693,新規,0,2023-12-11,2023-12-11,上海幸運星足球倶楽部有限公司,,外国会社等,大阪府,大阪市淀川区,西中島４丁目６番３０号チサンマンション第５新大阪１１０５号室,,27,123,5320011,中華人民共和国上海市閔行区中春路６１１１号２幢２１１８室,,,,,,2023-12-11,1,,,,,シヤンハイラツキースターサツカークラブユウゲンコウシ,0
698,4010001240516,新規,0,2023-12-11,2023-12-11,株式会社ライト,,株式会社,東京都,中央区,銀座７丁目１２番１７号,,13,102,1040061,,,,,,,2023-12-11,1,,,,,ライト,0
699,4010001240623,新規,0,2023-12-11,2023-12-11,ＩＰＤＣＡコンサルティング株式会社,,株式会社,東京都,千代田区,平河町２丁目１６番２－２２０７号,,13,101,1020093,,,,,,,2023-12-11,1,,,,,アイピーディーシーエーコンサルティング,0
700,4010001240648,新規,0,2023-12-11,2023-12-11,株式会社シュク,,株式会社,東京都,中央区,月島３丁目１０番１０－９０１号,,13,102,1040052,,,,,,,2023-12-11,1,,,,,シュク,0
708,4010401179016,新規,0,2023-12-11,2023-12-11,Ｌａ　ＧＲＡＣＥ株式会社,,株式会社,東京都,港区,芝浦２丁目１７番１０号,,13,103,1080023,,,,,,,2023-12-11,1,,,,,ラグレイス,0
709,4010401179040,新規,0,2023-12-11,2023-12-11,株式会社金洋,,株式会社,東京都,港区,元赤坂１丁目２番７号赤坂Ｋタワー４階Ｓ－０３,,13,103,1070051,,,,,,,2023-12-11,1,,,,,キンヨウ,0
711,4010403031521,新規,0,2023-12-11,2023-12-11,１２３ＤｉｇｉＭａｒｋｅｔｉｎｇ合同会社,,合同会社,東京都,港区,三田３丁目４番６号,,13,103,1080073,,,,,,,2023-12-11,1,,,,,ワンツースリーデジマーケティング,0
716,4010801034588,新規,0,2023-12-11,2023-12-11,千西警備保障株式会社,,株式会社,東京都,大田区,西蒲田７丁目５８番４号エピナール西蒲田１０３,,13,111,1440051,,,,,,,2023-12-11,1,,,,,チセイケイビホショウ,0
727,4011001158731,新規,0,2023-12-11,2023-12-11,リラン株式会社,,株式会社,東京都,渋谷区,道玄坂１丁目１０番８号渋谷道玄坂東急ビル２Ｆ－Ｃ,,13,113,1500043,,,,,,,2023-12-11,1,,,,,リラン,0
729,4011003018058,新規,0,2023-12-11,2023-12-11,ＩＤ　ＡＴＳＵＧＩ合同会社,,合同会社,東京都,渋谷区,神宮前１丁目２１番１０号,,13,113,1500001,,,,,,,2023-12-11,1,,,,,アイディーアツギ,0
730,4011003018066,新規,0,2023-12-11,2023-12-11,合同会社ＮＯＢＬＥ,,合同会社,東京都,目黒区,下目黒１丁目１番１４号,,13,110,1530064,,,,,,,2023-12-11,1,,,,,ノーブル,0
753,4011601027352,新規,0,2023-12-11,2023-12-11,株式会社ＫＴ,,株式会社,東京都,練馬区,旭町１丁目４２番１０号,,13,120,1790071,,,,,,,2023-12-11,1,,,,,ケイティー,0
756,4011801043463,新規,0,2023-12-11,2023-12-11,ヴァレンノックス株式会社,,株式会社,東京都,足立区,千住２丁目２１番地,,13,121,1200034,,,,,,,2023-12-11,1,,,,,ヴァレンノックス,0
763,4012403006313,新規,0,2023-12-11,2023-12-11,合同会社ワードコンパニー,,合同会社,東京都,調布市,仙川町１丁目２３番地５,,13,208,1820002,,,,,,,2023-12-11,1,,,,,ワードコンパニー,0
772,4020001154830,新規,0,2023-12-11,2023-12-11,株式会社ユースフル・コネクト,,株式会社,神奈川県,横浜市西区,北幸２丁目１０番地４８むつみビル３Ｆ,,14,103,2200004,,,,,,,2023-12-11,1,,,,,ユースフルコネクト,0
774,4020003025154,新規,0,2023-12-11,2023-12-11,合同会社ＣＡＭＰＡＮＵＬＡ,,合同会社,神奈川県,横浜市西区,高島２丁目１１番２号スカイメナー横浜５１９,,14,103,2200011,,,,,,,2023-12-11,1,,,,,カンパニュラ,0
776,4020005016218,新規,0,2023-12-11,2023-12-11,医療法人社団煌奈,,その他の設立登記法人,神奈川県,横浜市西区,みなとみらい３丁目６番３号ＭＭパークビル２階・３階,,14,103,2200012,,,,,,,2023-12-11,1,,,,,キラナ,0
778,4021001080901,新規,0,2023-12-11,2023-12-11,株式会社コアゼネラル,,株式会社,神奈川県,相模原市中央区,中央３丁目１４－７相模原セントラルビル３０８,,14,152,2520239,,,,,,,2023-12-11,1,,,,,コアゼネラル,0
779,4021001080926,新規,0,2023-12-11,2023-12-11,Ｍｅｄｕｓａ株式会社,,株式会社,神奈川県,秦野市,寿町６番４－３０３号,,14,211,2570042,,,,,,,2023-12-11,1,,,,,メドゥサ,0
787,4030001157584,新規,0,2023-12-11,2023-12-11,株式会社弘眞,,株式会社,埼玉県,新座市,野火止５丁目５番１４号,,11,230,3520011,,,,,,,2023-12-11,1,,,,,ヒロシン,0
788,4030001157601,新規,0,2023-12-11,2023-12-11,東岑株式会社,,株式会社,埼玉県,さいたま市大宮区,三橋２丁目５３９番地３,,11,103,3300856,,,,,,,2023-12-11,1,,,,,トウシン,0
795,4030003023173,新規,0,2023-12-11,2023-12-11,謝王合同会社,,合同会社,埼玉県,さいたま市桜区,桜田１丁目２２番１０号,,11,106,3380833,,,,,,,2023-12-11,1,,,,,シャオウ,0
796,4030003023207,新規,0,2023-12-11,2023-12-11,ＫＭアシスタント合同会社,,合同会社,埼玉県,狭山市,入間川１７５１番地の１１,,11,215,3501305,,,,,,,2023-12-11,1,,,,,ケイエムアシスタント,0
802,4040001131266,新規,0,2023-12-11,2023-12-11,橋口興業株式会社,,株式会社,千葉県,浦安市,北栄４丁目１３番１５－１０３号,,12,227,2790002,,,,,,,2023-12-11,1,,,,,ハシグチコウギョウ,0
803,4040003023899,新規,0,2023-12-11,2023-12-11,合同会社ＺＵＢＡＩＲ　ＴＲＡＤＩＮＧ,,合同会社,千葉県,白井市,河原子２２８番地２４－１０２号,,12,232,2701403,,,,,,,2023-12-11,1,,,,,ズバイルトレーディング,0
804,4040005022222,新規,0,2023-12-11,2023-12-11,一般社団法人アフガニスタン文化協会千葉,,その他の設立登記法人,千葉県,四街道市,大日１９０１番地,,12,228,2840001,,,,,,,2023-12-11,1,,,,,アフガニスタンブンカキョウカイチバ,0
807,4050003007991,新規,0,2023-12-11,2023-12-11,合同会社トウケン,,合同会社,茨城県,取手市,新取手５丁目１８番１１号,,08,217,3020031,,,,,,,2023-12-11,1,,,,,トウケン,0
810,4060001036612,新規,0,2023-12-11,2023-12-11,株式会社Ｈｏｒｉｎ,,株式会社,栃木県,那須郡那須町,大字稲沢５０１番地,,09,407,3293447,,,,,,,2023-12-11,1,,,,,ホーリン,0
815,4070001041157,新規,0,2023-12-11,2023-12-11,株式会社徳信商事,00132939,株式会社,群馬県,前橋市,苗ヶ島町１２５２番地１,,10,201,3710241,,,,,,,2023-12-11,1,,,,,トクシンショウジ,0
823,4080403004925,新規,0,2023-12-11,2023-12-11,合同会社ワンステップ,,合同会社,静岡県,浜松市東区,宮竹町４５２番地の３６,,22,132,4350043,,,,,,,2023-12-11,1,,,,,ワンステップ,0
826,4090005007598,新規,0,2023-12-11,2023-12-11,一般社団法人サンメディカルグループ,,その他の設立登記法人,山梨県,笛吹市,石和町小石和２６４５番地,,19,211,4060033,,,,,,,2023-12-11,1,,,,,サンメディカルグループ,0
827,4110001038025,新規,0,2023-12-11,2023-12-11,越後特機株式会社,,株式会社,新潟県,新潟市西区,笠木１６４３番地,,15,107,9502123,,,,,,,2023-12-11,1,,,,,エチゴトッキ,0
837,4120001260437,新規,0,2023-12-11,2023-12-11,楓叶株式会社,,株式会社,大阪府,大阪市淀川区,西中島４丁目６－３０チサンマンション第５新大阪５０５号室,,27,123,5320011,,,,,,,2023-12-11,1,,,,,フウキョウ,0
838,4120001260478,新規,0,2023-12-11,2023-12-11,株式会社ＵＮＩＣＯ,,株式会社,大阪府,大阪市淀川区,東三国４丁目２５－２３,,27,123,5320002,,,,,,,2023-12-11,1,,,,,ユニコ,0
839,4120003025499,新規,0,2023-12-11,2023-12-11,合同会社ＫＦピースネクサス,,合同会社,大阪府,大阪市生野区,田島１丁目１５番２５号,,27,116,5440011,,,,,,,2023-12-11,1,,,,,ケイエフピースネクサス,0
848,4130001075883,新規,0,2023-12-11,2023-12-11,ＫＴＧコープ株式会社,,株式会社,京都府,京都市山科区,大宅山田町３４番地,,26,110,6078175,,,,,,,2023-12-11,1,,,,,ケーティージーコープ,0
860,4140003019904,新規,0,2023-12-11,2023-12-11,ＳＨＩＲＯ　ＣＡＲＥ合同会社,,合同会社,兵庫県,神戸市西区,井吹台西町５丁目２８番地の５,,28,111,6512243,,,,,,,2023-12-11,1,,,,,シロケア,0
866,4170001017923,新規,0,2023-12-11,2023-12-11,株式会社ＳＴＤＹ１,,株式会社,和歌山県,和歌山市,楠本２１番地２０,,30,201,6496313,,,,,,,2023-12-11,1,,,,,スタディワン,0
867,4170003001958,新規,0,2023-12-11,2023-12-11,合同会社ポニー,,合同会社,和歌山県,有田郡有田川町,大字徳田１６９３番地１,,30,366,6430801,,,,,,,2023-12-11,1,,,,,ポニー,0
876,4180001159194,新規,0,2023-12-11,2023-12-11,ＨＵＧＯＮＩＳＴ株式会社,,株式会社,愛知県,名古屋市中村区,名駅４丁目２４番５号第２森ビル４０１,,23,105,4500002,,,,,,,2023-12-11,1,,,,,フューゴニスト,0
885,4200001041960,新規,0,2023-12-11,2023-12-11,株式会社Ｌａｌｅ,,株式会社,岐阜県,大垣市,本今３丁目２４４番地１,,21,202,5030931,,,,,,,2023-12-11,1,,,,,ラーレ,0
886,4200001041969,新規,0,2023-12-11,2023-12-11,株式会社あさひ,,株式会社,岐阜県,羽島市,上中町沖１４１１番地６,,21,209,5016318,,,,,,,2023-12-11,1,,,,,アサヒ,0
888,4200003006177,新規,0,2023-12-11,2023-12-11,合同会社Ｎ４,,合同会社,岐阜県,岐阜市,木ノ本町２丁目４番地６,,21,201,5008867,,,,,,,2023-12-11,1,,,,,エヌフォー,0
893,4230001020136,新規,0,2023-12-11,2023-12-11,株式会社雄起機工,,株式会社,富山県,滑川市,堀江３４９番地,,16,206,9360846,,,,,,,2023-12-11,1,,,,,ユウキキコウ,0
898,4250001020423,新規,0,2023-12-11,2023-12-11,原内装株式会社,,株式会社,山口県,防府市,大字牟礼１６３３番地の３,,35,206,7470004,,,,,,,2023-12-11,1,,,,,ハラナイソウ,0
904,4280001009083,新規,0,2023-12-11,2023-12-11,五真研工株式会社,,株式会社,島根県,出雲市,白枝町１２７番地,,32,203,6930006,,,,,,,2023-12-11,1,,,,,ゴシンケンコウ,0
907,4290001104008,新規,0,2023-12-11,2023-12-11,株式会社ネイバー,,株式会社,福岡県,久留米市,津福本町１１２３番地４,,40,203,8300047,,,,,,,2023-12-11,1,,,,,ネイバー,0
908,4290003014709,新規,0,2023-12-11,2023-12-11,合同会社Ｍａｎｇａ　Ｍｕｓｅｕｍ　Ａｓｉａ,,合同会社,福岡県,福岡市南区,長丘２丁目３番２２号,,40,134,8150075,,,,,,,2023-12-11,1,,,,,,0
910,4290801030130,新規,0,2023-12-11,2023-12-11,エボル株式会社,,株式会社,福岡県,北九州市小倉北区,中井２丁目１７番２２－２０１,,40,106,8030836,,,,,,,2023-12-11,1,,,,,エボル,0
916,4320001020184,新規,0,2023-12-11,2023-12-11,株式会社ＴＮＣ,,株式会社,大分県,臼杵市,大字板知屋１番地,,44,206,8750034,,,,,,,2023-12-11,1,,,,,ティーエヌシー,0
917,4320003004251,新規,0,2023-12-11,2023-12-11,合同会社スギヤマ,,合同会社,大分県,大分市,南太平寺３丁目６番１－３０３号,,44,201,8700885,,,,,,,2023-12-11,1,,,,,スギヤマ,0
934,4430001090547,新規,0,2023-12-11,2023-12-11,Ｎｉｓｅｋｏ　Ｃａｐｉｔａｌ株式会社,,株式会社,北海道,虻田郡倶知安町,南四条西１丁目３番２号,,01,400,0440034,,,,,,,2023-12-11,1,,,,,ニセコキャピタル,0
936,4430003015741,新規,0,2023-12-11,2023-12-11,合同会社ワタナベファーム,,合同会社,北海道,苫小牧市,日の出町２丁目８番１０号,,01,213,0530043,,,,,,,2023-12-11,1,,,,,ワタナベファーム,0
940,4500001025355,新規,0,2023-12-11,2023-12-11,株式会社リバライズ,,株式会社,愛媛県,松山市,御幸２丁目６番１８号,,38,201,7900824,,,,,,,2023-12-11,1,,,,,リバライズ,0
941,4700150122643,新規,0,2023-12-11,2023-12-11,ｄｏｎｇｇｕａｎｇｓｈｉｎｉｎｇｊｉａｚｈｅｎｍａｏｙｉｙｏｕｘｉａｎｇｏｎｇｓｉ,,外国会社等,,,,,,,,ｎａｎｃｈｅｎｇｊｉｅｄａｏｈｏｎｇｙｕａｎｌｕ１４ｈａｏ４３１ｓｈｉ，ｄｏｎｇｇｕａｎｓｈｉ　ｇｕａｎｇｄｏｎｇｓｈｅｎｇ,,,,,,2023-12-11,1,,,,,トウカンシネイカシンボウエキユウゲンコウシ,0
949,5010001240622,新規,0,2023-12-11,2023-12-11,株式会社ＧｏＢｉｙ,,株式会社,東京都,中央区,銀座１丁目１２番４号Ｎ＆ＥＢＬＤ．６Ｆ,,13,102,1040061,,,,,,,2023-12-11,1,,,,,ゴービー,0
959,5010401178999,新規,0,2023-12-11,2023-12-11,株式会社山口グループホールディングス,,株式会社,東京都,港区,西新橋１丁目１８番６号クロスオフィス内幸町１１階,,13,103,1050003,,,,,,,2023-12-11,1,,,,,ヤマグチグループホールディングス,0
961,5010501051404,新規,0,2023-12-11,2023-12-11,佑明株式会社,,株式会社,東京都,台東区,下谷２丁目３－１６－１０１,,13,106,1100004,,,,,,,2023-12-11,1,,,,,ユウメイ,0
964,5010601064297,新規,0,2023-12-11,2023-12-11,株式会社たいむせーばー,,株式会社,東京都,江東区,有明１丁目４番２０－２３１５号,,13,108,1350063,,,,,,,2023-12-11,1,,,,,タイムセーバー,0
965,5010601064314,新規,0,2023-12-11,2023-12-11,株式会社ＵＷＤＳ,,株式会社,東京都,江東区,豊洲３丁目６番８,,13,108,1350061,,,,,,,2023-12-11,1,,,,,ユーダブリューディーエス,0
972,5011001158549,新規,0,2023-12-11,2023-12-11,レトロニム株式会社,,株式会社,東京都,渋谷区,千駄ヶ谷５丁目３３－１６シャトレー新宿御苑５０２,,13,113,1510051,,,,,,,2023-12-11,1,,,,,レトロニム,0
973,5011001158706,新規,0,2023-12-11,2023-12-11,株式会社ＫＵＭＹ,,株式会社,東京都,渋谷区,道玄坂１丁目１２番１号渋谷マークシティ２２Ｆ,,13,113,1500043,,,,,,,2023-12-11,1,,,,,クーミー,0
980,5011201025094,新規,0,2023-12-11,2023-12-11,株式会社ＲＡＣＣＯＯＮ,,株式会社,東京都,中野区,東中野１丁目４６番１１号,,13,114,1640003,,,,,,,2023-12-11,1,,,,,ラクーン,0
984,5011501030091,新規,0,2023-12-11,2023-12-11,株式会社トータスマネジメント,,株式会社,東京都,荒川区,東日暮里６丁目４５番３号ハイウエストビル１Ｆ,,13,118,1160014,,,,,,,2023-12-11,1,,,,,トータスマネジメント,0
988,5011601027368,新規,0,2023-12-11,2023-12-11,株式会社マルイチ工業,,株式会社,東京都,練馬区,北町１丁目２５－１４－５０１,,13,120,1790081,,,,,,,2023-12-11,1,,,,,マルイチコウギョウ,0
990,5011801043462,新規,0,2023-12-11,2023-12-11,花与家株式会社,,株式会社,東京都,葛飾区,立石３丁目１５番２－Ｋ５,,13,122,1240012,,,,,,,2023-12-11,1,,,,,ハナトカ,0
997,5013301051739,新規,0,2023-12-11,2023-12-11,Ｇｒｏｕｐ　Ｔ＆Ｃ株式会社,,株式会社,東京都,豊島区,巣鴨２丁目２－５－４０６,,13,116,1700002,,,,,,,2023-12-11,1,,,,,グループティーアンドシー,0
1003,5020001154821,新規,0,2023-12-11,2023-12-11,株式会社みまもり,,株式会社,神奈川県,横浜市西区,浅間町１丁目４番３号ウィザードビル４０２,,14,103,2200072,,,,,,,2023-12-11,1,,,,,ミマモリ,0
1006,5020005016217,新規,0,2023-12-11,2023-12-11,一般社団法人咲,,その他の設立登記法人,神奈川県,横浜市保土ケ谷区,境木本町４２番１４号,,14,106,2400033,,,,,,,2023-12-11,1,,,,,サキ,0
1008,5021003013882,新規,0,2023-12-11,2023-12-11,合同会社たんぽぽ,,合同会社,神奈川県,三浦市,南下浦町上宮田３２１２―４５,,14,210,2380101,,,,,,,2023-12-11,1,,,,,タンポポ,0
1018,5030001157484,新規,0,2023-12-11,2023-12-11,ＡＬＰ株式会社,,株式会社,埼玉県,久喜市,久喜東２丁目１１番１１号,,11,232,3460016,,,,,,,2023-12-11,1,,,,,エーエルピー,0
1019,5030001157609,新規,0,2023-12-11,2023-12-11,ＳＢ　ＴＲＡＤＩＮＧ株式会社,,株式会社,埼玉県,加須市,岡古井１８６番地２,,11,210,3470058,,,,,,,2023-12-11,1,,,,,エスビートレーディング,0
1020,5030001157617,新規,0,2023-12-11,2023-12-11,株式会社磯野組,,株式会社,埼玉県,越谷市,大字袋山３番地１－２０７号,,11,222,3430032,,,,,,,2023-12-11,1,,,,,イソノグミ,0
1025,5030003023206,新規,0,2023-12-11,2023-12-11,合同会社アーチーズ,,合同会社,埼玉県,越谷市,大字大里２２１番地４３,,11,222,3430031,,,,,,,2023-12-11,1,,,,,アーチーズ,0
1039,5040003023898,新規,0,2023-12-11,2023-12-11,合同会社ＬＯＢＡＬ,,合同会社,千葉県,市川市,福栄４丁目３１番４号,,12,203,2720137,,,,,,,2023-12-11,1,,,,,ローバル,0
1046,5060001036611,新規,0,2023-12-11,2023-12-11,株式会社ＴＲＩＢＥ,,株式会社,栃木県,小山市,城北２丁目１６－６ニューシティユリＡ棟１０１,,09,208,3230029,,,,,,,2023-12-11,1,,,,,トライブ,0
1056,5080101024398,新規,0,2023-12-11,2023-12-11,グランゲートモータース株式会社,,株式会社,静岡県,沼津市,根古屋１６２番地の１,,22,203,4100309,,,,,,,2023-12-11,1,,,,,グランゲートモータース,0
1057,5080401026887,新規,0,2023-12-11,2023-12-11,株式会社フロンティエール,,株式会社,静岡県,浜松市東区,笠井新田町１５５６番地,,22,132,4313105,,,,,,,2023-12-11,1,,,,,フロンティエール,0
1058,5090001018458,新規,0,2023-12-11,2023-12-11,ＴＡＭＥコンサルティング株式会社,,株式会社,山梨県,笛吹市,一宮町竹原田２３７番地,,19,211,4050076,,,,,,,2023-12-11,1,,,,,タメコンサルティング,0
1069,5120001260502,新規,0,2023-12-11,2023-12-11,株式会社ブックアイ,,株式会社,大阪府,大阪市東住吉区,西今川４丁目９番７号メゾン栄４０５号,,27,121,5460042,,,,,,,2023-12-11,1,,,,,ブックアイ,0
1073,5120103005573,新規,0,2023-12-11,2023-12-11,合同会社キンー,,合同会社,大阪府,岸和田市,別所町２丁目２２－５,,27,202,5960045,,,,,,,2023-12-11,1,,,,,キンー,0
1081,5130001075882,新規,0,2023-12-11,2023-12-11,ＡＤ　Ｈｕｂ　Ｃｏｒｐｏｒａｔｉｏｎ株式会社,,株式会社,京都府,京都市中京区,六角通室町西入玉蔵町１３０スペリオン四条烏丸５０１,,26,104,6048211,,,,,,,2023-12-11,1,,,,,エーディーハブコーポレーション,0
1083,5130003009186,新規,0,2023-12-11,2023-12-11,京舞鶴深川屋合同会社,,合同会社,京都府,舞鶴市,字西３５番地,,26,202,6240937,,,,,,,2023-12-11,1,,,,,キョウマイヅルフカガワヤ,0
1087,5140001132609,新規,0,2023-12-11,2023-12-11,株式会社ＳＴ,,株式会社,兵庫県,宝塚市,口谷東１丁目５番１５－３０２号,,28,214,6650812,,,,,,,2023-12-11,1,,,,,,0
1091,5140003019903,新規,0,2023-12-11,2023-12-11,合同会社大和管理,,合同会社,兵庫県,神戸市中央区,中山手通５丁目２番１０－１１０１号,,28,110,6500004,,,,,,,2023-12-11,1,,,,,ヤマトカンリ,0
1093,5150001026933,新規,0,2023-12-11,2023-12-11,株式会社ＫＧ,,株式会社,奈良県,磯城郡田原本町,大字保津２１４番地の１,,29,363,6360303,,,,,,,2023-12-11,1,,,,,ケイジ,0
1106,5180001159276,新規,0,2023-12-11,2023-12-11,株式会社ジオトラスト,,株式会社,愛知県,名古屋市緑区,鳴海町字母呂後２０６番地の１０,,23,114,4580801,,,,,,,2023-12-11,1,,,,,ジオトラスト,0
1113,5200003006176,新規,0,2023-12-11,2023-12-11,合同会社Ｏｎｅステップス鉄工,,合同会社,岐阜県,関市,広見３番７号,,21,205,5013263,,,,,,,2023-12-11,1,,,,,ワンステップステッコウ,0
1115,5210001019575,新規,0,2023-12-11,2023-12-11,株式会社ＨＰホールディングス,,株式会社,福井県,鯖江市,下野田町２７字４６番地,,18,207,9160073,,,,,,,2023-12-11,1,,,,,エイチピーホールディングス,0
1118,5220003003634,新規,0,2023-12-11,2023-12-11,ブロンナップ合同会社,,合同会社,石川県,金沢市,鳴和台３６番地,,17,201,9200815,,,,,,,2023-12-11,1,,,,,ブロンナップ,0
1119,5230001020135,新規,0,2023-12-11,2023-12-11,株式会社岡崎進農園,,株式会社,富山県,富山市,婦中町小長沢４７８９番地,,16,201,9392601,,,,,,,2023-12-11,1,,,,,オカザキシンノウエン,0
1122,5240001062507,新規,0,2023-12-11,2023-12-11,株式会社トミエル,,株式会社,広島県,広島市東区,馬木２丁目１１９８番地１０３,,34,102,7320031,,,,,,,2023-12-11,1,,,,,トミエル,0
1127,5260001038538,新規,0,2023-12-11,2023-12-11,ビルムワークス株式会社,,株式会社,岡山県,倉敷市,連島町西之浦６５５番地１（Ｂ２０１）,,33,202,7128001,,,,,,,2023-12-11,1,,,,,ビルムワークス,0
1128,5260001038546,新規,0,2023-12-11,2023-12-11,株式会社ａｍ　ｃｏｎｓｕｌｔｉｎｇ,,株式会社,岡山県,倉敷市,稲荷町１番２３号ハナレ,,33,202,7100822,,,,,,,2023-12-11,1,,,,,エイエムコンサルティング,0
1139,5290001104031,新規,0,2023-12-11,2023-12-11,株式会社ＵＫ,,株式会社,福岡県,福岡市中央区,春吉３丁目２１番１８号ジェスト２５ビル７０１号,,40,133,8100003,,,,,,,2023-12-11,1,,,,,ユーケー,0
1142,5290801030113,新規,0,2023-12-11,2023-12-11,株式会社リベラル企画,,株式会社,福岡県,北九州市八幡東区,上本町２丁目１２番２５号,,40,108,8050018,,,,,,,2023-12-11,1,,,,,リベラルキカク,0
1144,5300001013552,新規,0,2023-12-11,2023-12-11,株式会社いち,,株式会社,佐賀県,杵島郡白石町,大字横手２６番地４,,41,425,8491116,,,,,,,2023-12-11,1,,,,,イチ,0
1145,5310001018740,新規,0,2023-12-11,2023-12-11,株式会社高進産業,,株式会社,長崎県,長崎市,畝刈町１４５４番地,,42,201,8512212,,,,,,,2023-12-11,1,,,,,コウシンサンギョウ,0
1146,5320001020183,新規,0,2023-12-11,2023-12-11,株式会社工藤設備工業,,株式会社,大分県,大分市,南太平寺３丁目１番１８－２０８号,,44,201,8700885,,,,,,,2023-12-11,1,,,,,,0
1157,5370005010721,新規,0,2023-12-11,2023-12-11,医療法人公清会,,その他の設立登記法人,宮城県,仙台市泉区,八乙女中央２丁目４番２５号,,04,105,9813135,,,,,,,2023-12-11,1,,,,,コウセイカイ,0
1163,5380003005631,新規,0,2023-12-11,2023-12-11,合同会社フレンド,,合同会社,福島県,福島市,飯坂町中野字沖根山４６番地２,,07,201,9600261,,,,,,,2023-12-11,1,,,,,フレンド,0
1164,5380005012774,新規,0,2023-12-11,2023-12-11,一般社団法人ＡＳＯＢＩ‐ＮＥＴＷＯＲＫ,,その他の設立登記法人,福島県,会津若松市,門田町大字徳久字竹之元８８５－６,,07,202,9650843,,,,,,,2023-12-11,1,,,,,アソビネットワーク,0
1165,5390001017438,新規,0,2023-12-11,2023-12-11,株式会社Ｔｈａｉ　Ｐａｔｔａｎａ,,株式会社,山形県,山形市,香澄町１丁目７番６号,,06,201,9900039,,,,,,,2023-12-11,1,,,,,タイパタナー,0
1177,5430003015740,新規,0,2023-12-11,2023-12-11,合同会社飛燕,,合同会社,北海道,浦河郡浦河町,字富里４７番地の９,,01,607,0593462,,,,,,,2023-12-11,1,,,,,ヒエン,0
1185,5500001025354,新規,0,2023-12-11,2023-12-11,株式会社本間農園,,株式会社,愛媛県,西条市,西泉乙１４４番地７,,38,206,7930064,,,,,,,2023-12-11,1,,,,,ホンマノウエン,0
1186,5500003003151,新規,0,2023-12-11,2023-12-11,エイト自販合同会社,,合同会社,愛媛県,松山市,祝谷東町乙８１２番地９,,38,201,7900835,,,,,,,2023-12-11,1,,,,,エイトジハン,0
1187,5500005008660,新規,0,2023-12-11,2023-12-11,社会保険労務士法人ＡＮＳＷＥＲ,,その他の設立登記法人,愛媛県,八幡浜市,産業通５番５号,,38,204,7968004,,,,,,,2023-12-11,1,,,,,アンサー,0
1191,5700150122642,新規,0,2023-12-11,2023-12-11,ｃｈａｎｇｓｈａｓｈｅｎｇａｏｓｈａｎｇｍａｏｙｏｕｘｉａｎｇｏｎｇｓｉ,,外国会社等,,,,,,,,ｆｕｒｏｎｇｑｕｃｈａｏｙａｎｇｊｉｅｄａｏｒｅｎｍｉｎｘｉｎｃｕｎ０２１ｄｏｎｇｙｉｃｅｎｇ４７６ｈａｏｃｈａｎｇｓｈａ　ｈｕｎａｎ,,,,,,2023-12-11,1,,,,,ジャンシャーションアオシャンマオヨウシエンゴンスー,0
1192,5700150122650,新規,0,2023-12-11,2023-12-11,Ｇｕａｎｇｚｈｏｕ　Ｘｉｎｇ　Ｃｈｅｎ　Ｚｈａｏ　Ｙｅ　Ｅｎｖｉｒｏｎｍｅｎｔ　Ｔｅｃｈｎｏｌｏｇｙ,,外国会社等,,,,,,,,ＲＯＯＭ２１８，２ＮＤ　ＦＬＯＯＲ　Ｎｏ．４９，ＮＯＲＴＨ　ＲＯＡＤ　ＤＯＮＧＪＩＡＯ，１ＩＷＡＮ，ＧＵＡＮＧＺＨＯＵ,,,,,,2023-12-11,1,,,,,クワーンジョウシーンチェンジャオイエホワンジーンコーァジーヨウシエンゴーンスー,0
1199,6010001240646,新規,0,2023-12-11,2023-12-11,株式会社ＲＡＮＫＡＮ,,株式会社,東京都,文京区,湯島１丁目１２番５号,,13,105,1130034,,,,,,,2023-12-11,1,,,,,ランカン,0
1200,6010001240687,新規,0,2023-12-11,2023-12-11,株式会社瑠璃子,,株式会社,東京都,千代田区,内幸町１丁目１番１号帝国ホテルタワー１５Ｆ,,13,101,1000011,,,,,,,2023-12-11,1,,,,,ルリコ,0
1210,6010401178882,新規,0,2023-12-11,2023-12-11,株式会社シティキャピタル,,株式会社,東京都,港区,赤坂２丁目１９番１１号,,13,103,1070052,,,,,,,2023-12-11,1,,,,,シティキャピタル,0
1213,6010403031503,新規,0,2023-12-11,2023-12-11,合同会社Ａｉｔｏｒｉ,,合同会社,東京都,港区,西新橋１丁目２－９日比谷セントラルビル１４階,,13,103,1050003,,,,,,,2023-12-11,1,,,,,アイトリ,0
1214,6010405022764,新規,0,2023-12-11,2023-12-11,一般社団法人総合福祉計画,,その他の設立登記法人,東京都,港区,三田４丁目１８番２０,,13,103,1080073,,,,,,,2023-12-11,1,,,,,ソウゴウフクシケイカク,0
1218,6010601064305,新規,0,2023-12-11,2023-12-11,株式会社Ｓｕｎ　Ｒｉｔｚ,,株式会社,東京都,墨田区,錦糸１丁目２番１号アルカセントラル１４階,,13,107,1300013,,,,,,,2023-12-11,1,,,,,サンリッツ,0
1221,6010903008637,新規,0,2023-12-11,2023-12-11,アール合同会社,,合同会社,東京都,世田谷区,羽根木２丁目２８－９,,13,112,1560042,,,,,,,2023-12-11,1,,,,,アール,0
1222,6010903008645,新規,0,2023-12-11,2023-12-11,ＳＳＧ合同会社,,合同会社,東京都,世田谷区,代沢５丁目２７－１エスポアール代沢２０３,,13,112,1550032,,,,,,,2023-12-11,1,,,,,エスエスジー,0
1230,6011001158647,新規,0,2023-12-11,2023-12-11,株式会社サマーン・ビジネス・コンサルティング,,株式会社,東京都,目黒区,緑が丘２丁目１７番２５号コリヌヴェール自由が丘３０２,,13,110,1520034,,,,,,,2023-12-11,1,,,,,サマーンビジネスコンサルティング,0
1231,6011001158688,新規,0,2023-12-11,2023-12-11,株式会社Ｙ,,株式会社,東京都,渋谷区,神山町２０番１６号,,13,113,1500047,,,,,,,2023-12-11,1,,,,,ワイ,0
1232,6011001158696,新規,0,2023-12-11,2023-12-11,株式会社スタイリングラボ,,株式会社,東京都,目黒区,八雲１丁目６番１８号,,13,110,1520023,,,,,,,2023-12-11,1,,,,,スタイリングラボ,0
1233,6011001158721,新規,0,2023-12-11,2023-12-11,株式会社比嘉企画,,株式会社,東京都,渋谷区,上原１丁目３番９号ＧＯＯＤＷＯＲＫ代々木八幡,,13,113,1510064,,,,,,,2023-12-11,1,,,,,ヒガキカク,0
1235,6011003018056,新規,0,2023-12-11,2023-12-11,合同会社スカイクリエイション,,合同会社,東京都,目黒区,東山３丁目１５－１出光池尻ビル７Ｆ,,13,110,1530043,,,,,,,2023-12-11,1,,,,,スカイクリエーション,0
1236,6011003018072,新規,0,2023-12-11,2023-12-11,合同会社ネクストワークス,,合同会社,東京都,渋谷区,初台２丁目１３番２号ケンコート初台１０３,,13,113,1510061,,,,,,,2023-12-11,1,,,,,ネクストワークス,0
1239,6011101105400,新規,0,2023-12-11,2023-12-11,サンストック株式会社,,株式会社,東京都,新宿区,下落合１丁目２番５号鈴木総合ビル３階Ｃ室,,13,104,1610033,,,,,,,2023-12-11,1,,,,,サンストック,0
1240,6011101105433,新規,0,2023-12-11,2023-12-11,正源株式会社,,株式会社,東京都,新宿区,北新宿４丁目２１番３号コードヴィレッジ２１・２－Ａ号室,,13,104,1690074,,,,,,,2023-12-11,1,,,,,セイゲン,0
1260,6012701017984,新規,0,2023-12-11,2023-12-11,株式会社ＣＲＯＳＳ　ＲＩＳＥ,,株式会社,東京都,小平市,花小金井南町２丁目１７番２号ワコーレ花小金井５２０号室,,13,211,1870003,,,,,,,2023-12-11,1,,,,,クロスライズ,0
1264,6013301051738,新規,0,2023-12-11,2023-12-11,株式会社アンジェリク,,株式会社,東京都,豊島区,南池袋２丁目３５番１０号,,13,116,1710022,,,,,,,2023-12-11,1,,,,,アンジェリク,0
1265,6013303006913,新規,0,2023-12-11,2023-12-11,双贏合同会社,,合同会社,東京都,豊島区,南大塚１丁目６０番２０号,,13,116,1700005,,,,,,,2023-12-11,1,,,,,ソウエイ,0
1266,6013305003553,新規,0,2023-12-11,2023-12-11,弁護士法人増井総合法律事務所,,その他の設立登記法人,東京都,豊島区,東池袋１丁目１８番１号ＨａｒｅｚａＴｏｗｅｒ２０階,,13,116,1700013,,,,,,,2023-12-11,1,,,,,マスイソウゴウホウリツジムショ,0
1275,6020005016216,新規,0,2023-12-11,2023-12-11,医療法人キュアーズライフ,,その他の設立登記法人,神奈川県,横浜市港北区,菊名４丁目２番７号日比野ビル２階,,14,109,2220011,,,,,,,2023-12-11,1,,,,,キュアーズライフ,0
1277,6021001080924,新規,0,2023-12-11,2023-12-11,株式会社ＰＮＰ　Ｉｎｔｅｒｎａｔｉｏｎａｌ,,株式会社,神奈川県,秦野市,堀西１０１６番地の３,,14,211,2591331,,,,,,,2023-12-11,1,,,,,ピエヌピインターナショナル,0
1281,6021003013881,新規,0,2023-12-11,2023-12-11,ＡＲＡＳＨＩ商会合同会社,,合同会社,神奈川県,厚木市,関口１００２番地２,,14,212,2430804,,,,,,,2023-12-11,1,,,,,アラシショウカイ,0
1282,6021005012964,新規,0,2023-12-11,2023-12-11,Ｂｌｕｅ　Ｈａｎｄｓ一般社団法人,,その他の設立登記法人,神奈川県,伊勢原市,上粕屋１４５番地の１０,,14,214,2591141,,,,,,,2023-12-11,1,,,,,ブルーハンズ,0
1288,6030001157599,新規,0,2023-12-11,2023-12-11,株式会社Ｋｉｒａｒｉ,,株式会社,埼玉県,所沢市,和ケ原１丁目３１０５番地の１,,11,208,3591162,,,,,,,2023-12-11,1,,,,,キラリ,0
1289,6030001157657,新規,0,2023-12-11,2023-12-11,株式会社Ｆｏｒ．ｃ．ｃ．ｃ．ｃ,,株式会社,埼玉県,川口市,戸塚３丁目４番１４号１階,,11,203,3330811,,,,,,,2023-12-11,1,,,,,フォーシー,0
1290,6030003023163,新規,0,2023-12-11,2023-12-11,パワーデバイス研究所合同会社,,合同会社,埼玉県,熊谷市,柿沼９７０－９,,11,202,3600803,,,,,,,2023-12-11,1,,,,,パワーデバイスケンキュウジョ,0
1291,6030003023171,新規,0,2023-12-11,2023-12-11,宇凡合同会社,,合同会社,埼玉県,川越市,大字的場２１６４番地２２レジェンドハイムナカノ１０２号室,,11,201,3501101,,,,,,,2023-12-11,1,,,,,ウハン,0
1302,6050001053920,新規,0,2023-12-11,2023-12-11,Ｂ＆Ｄ株式会社,,株式会社,茨城県,稲敷郡阿見町,大字若栗１３０７－２１－３号室,,08,443,3000333,,,,,,,2023-12-11,1,,,,,ビーアンドディー,0
1311,6060003004838,新規,0,2023-12-11,2023-12-11,合同会社みはなや,,合同会社,栃木県,真岡市,田町１６２９番地２,,09,209,3214325,,,,,,,2023-12-11,1,,,,,ミハナヤ,0
1314,6070003005182,新規,0,2023-12-11,2023-12-11,ＥＲＡＩ　ＳＯＬＵＴＩＯＮＳ合同会社,,合同会社,群馬県,邑楽郡邑楽町,大泉町朝日二丁目２８－５,,10,525,3700600,,,,,,,2023-12-11,1,,,,,,0
1315,6080101024397,新規,0,2023-12-11,2023-12-11,株式会社アートセンス,,株式会社,静岡県,賀茂郡松崎町,江奈４７０番地,,22,305,4103624,,,,,,,2023-12-11,1,,,,,アートセンス,0
1316,6080401026878,新規,0,2023-12-11,2023-12-11,株式会社ｃｏｃｏｎ,,株式会社,静岡県,浜松市東区,中郡町３２９番地の３,,22,132,4313111,,,,,,,2023-12-11,1,,,,,ココン,0
1317,6090001018457,新規,0,2023-12-11,2023-12-11,株式会社ユーカリ,,株式会社,山梨県,南都留郡富士河口湖町,船津１６４４－４,,19,430,4010301,,,,,,,2023-12-11,1,,,,,ユーカリ,0
1327,6120001260492,新規,0,2023-12-11,2023-12-11,株式会社Ｂ　ＨＯＰＥ,,株式会社,大阪府,寝屋川市,御幸東町８番６号,,27,215,5720055,,,,,,,2023-12-11,1,,,,,ビーホープ,0
1330,6120003025480,新規,0,2023-12-11,2023-12-11,合同会社船越ビジネスコンサルティング,,合同会社,大阪府,大阪市此花区,島屋６丁目２番７－３１２号,,27,104,5540024,,,,,,,2023-12-11,1,,,,,フナコシビジネスコンサルティング,0
1331,6120003025489,新規,0,2023-12-11,2023-12-11,Ｒａｄｉｏ１０６合同会社,,合同会社,大阪府,大阪市北区,梅田１丁目２番２号大阪駅前第２ビル１２－１２,,27,127,5300001,,,,,,,2023-12-11,1,,,,,ラジオイチマルロク,0
1342,6122003002749,新規,0,2023-12-11,2023-12-11,合同会社オモタセ,,合同会社,大阪府,東大阪市,三ノ瀬２丁目３番８号,,27,227,5770849,,,,,,,2023-12-11,1,,,,,オモタセ,0
1349,6130001075881,新規,0,2023-12-11,2023-12-11,株式会社ＨＡＫＵ,,株式会社,京都府,京都市東山区,祇園町北側３４７番地９サンシステム祇園ソーシャルビル４階Ｂ号室,,26,105,6050073,,,,,,,2023-12-11,1,,,,,ハク,0
1352,6140001132566,新規,0,2023-12-11,2023-12-11,株式会社Ｍｅｄｉｃａｒｅ　Ｃ＆Ｅ,,株式会社,兵庫県,神戸市須磨区,戎町１丁目３番７号,,28,107,6540023,,,,,,,2023-12-11,1,,,,,メディケアシーアンドイー,0
1353,6140001132599,新規,0,2023-12-11,2023-12-11,宏昌産業株式会社,,株式会社,兵庫県,淡路市,尾崎１６８１番地,,28,226,6561501,,,,,,,2023-12-11,1,,,,,ヒロマササンギョウ,0
1354,6140001132608,新規,0,2023-12-11,2023-12-11,株式会社想こころ,,株式会社,兵庫県,尼崎市,南竹谷町２丁目５１番地サンライフエーコー４０２号,,28,202,6600875,,,,,,,2023-12-11,1,,,,,ココロ,0
1355,6140001132616,新規,0,2023-12-11,2023-12-11,株式会社Ｈｅａｒｔ　ｆｕｌｌ,,株式会社,兵庫県,神戸市西区,今寺３番９号ミュゼ大蔵谷４０１,,28,111,6512114,,,,,,,2023-12-11,1,,,,,ハートフル,0
1356,6140001132624,新規,0,2023-12-11,2023-12-11,和康株式会社,,株式会社,兵庫県,西宮市,松生町２番１０号,,28,204,6620076,,,,,,,2023-12-11,1,,,,,ワコウ,0
1361,6150001026932,新規,0,2023-12-11,2023-12-11,株式会社未来創造,,株式会社,奈良県,奈良市,押熊町３９７番地,,29,201,6310011,,,,,,,2023-12-11,1,,,,,ミライソウゾウ,0
1378,6180001159201,新規,0,2023-12-11,2023-12-11,ネクサスホールディングス株式会社,,株式会社,愛知県,あま市,七宝町鯰橋４丁目３６,,23,237,4970015,,,,,,,2023-12-11,1,,,,,ネクサスホールディングス,0
1379,6180001159291,新規,0,2023-12-11,2023-12-11,株式会社咲楽作,,株式会社,愛知県,名古屋市天白区,植田３丁目１７０１番地,,23,116,4680051,,,,,,,2023-12-11,1,,,,,サクラサク,0
1387,6200001041967,新規,0,2023-12-11,2023-12-11,株式会社とれるの,,株式会社,岐阜県,高山市,清見町三日町１１２２番地,,21,203,5060102,,,,,,,2023-12-11,1,,,,,トレルノ,0
1388,6200003006175,新規,0,2023-12-11,2023-12-11,合同会社いびはる商舎,,合同会社,岐阜県,揖斐郡揖斐川町,脛永４７２番地１８,,21,401,5010622,,,,,,,2023-12-11,1,,,,,イビハルショウシャ,0
1390,6230001020134,新規,0,2023-12-11,2023-12-11,株式会社シェルター,,株式会社,富山県,富山市,荒川新町３番１５号Ｓビル,,16,201,9300984,,,,,,,2023-12-11,1,,,,,シェルター,0
1393,6260001038553,新規,0,2023-12-11,2023-12-11,株式会社アスキ,,株式会社,岡山県,岡山市北区,北長瀬本町６番２３号,,33,101,7000961,,,,,,,2023-12-11,1,,,,,アスキ,0
1395,6260003004512,新規,0,2023-12-11,2023-12-11,合同会社落合まちづくり会社,,合同会社,岡山県,真庭市,落合垂水６２８番地,,33,214,7193144,,,,,,,2023-12-11,1,,,,,オチアイマチヅクリカイシャ,0
1400,6290001103981,新規,0,2023-12-11,2023-12-11,株式会社ＤＣホールディングス,,株式会社,福岡県,福岡市南区,高宮１丁目１番１０号,,40,134,8150083,,,,,,,2023-12-11,1,,,,,ディーシーホールディングス,0
1401,6290001103998,新規,0,2023-12-11,2023-12-11,株式会社ＯＵＣＩＡ,,株式会社,福岡県,福岡市中央区,天神２丁目３番１０号天神パインクレスト７１９号室,,40,133,8100001,,,,,,,2023-12-11,1,,,,,,0
1403,6290003014698,新規,0,2023-12-11,2023-12-11,合同会社あかり家,,合同会社,福岡県,福岡市西区,上山門３丁目１－５１,,40,135,8190054,,,,,,,2023-12-11,1,,,,,アカリヤ,0
1404,6290003014715,新規,0,2023-12-11,2023-12-11,合同会社花々,,合同会社,福岡県,福岡市西区,富士見３丁目２１番１１号,,40,135,8190387,,,,,,,2023-12-11,1,,,,,,0
1405,6290801030129,新規,0,2023-12-11,2023-12-11,株式会社ＢＬＵＥ　ＤＲＯＮＥ　ＷＯＲＫＳ,,株式会社,福岡県,北九州市小倉北区,高峰町９番６－４０２号,,40,106,8030826,,,,,,,2023-12-11,1,,,,,ブルードローンワークス,0
1406,6320001020182,新規,0,2023-12-11,2023-12-11,株式会社Ｉ’ｓＣＲＡＦＴ,,株式会社,大分県,大分市,高松東３丁目４番３０号,,44,201,8700916,,,,,,,2023-12-11,1,,,,,アイズクラフト,0
1424,6380003005630,新規,0,2023-12-11,2023-12-11,Ｔ．Ｏ製作所合同会社,,合同会社,福島県,郡山市,片平町字新蟻塚１１９番地の３０,,07,203,9630211,,,,,,,2023-12-11,1,,,,,ティーオーセイサクショ,0
1425,6400001016478,新規,0,2023-12-11,2023-12-11,株式会社宮崎アセットマネジメント,,株式会社,岩手県,盛岡市,城西町９番２２号,,03,201,0200044,,,,,,,2023-12-11,1,,,,,ミヤザキアセットマネジメント,0
1426,6400003003185,新規,0,2023-12-11,2023-12-11,合同会社ｔｏｄａｙ,,合同会社,岩手県,盛岡市,加賀野４丁目１２―２０,,03,201,0200807,,,,,,,2023-12-11,1,,,,,トゥデイ,0
1434,6450001014171,新規,0,2023-12-11,2023-12-11,株式会社岡田電気,,株式会社,北海道,旭川市,永山三条２２丁目３番１６号,,01,204,0798413,,,,,,,2023-12-11,1,,,,,オカダデンキ,0
1435,6470001019937,新規,0,2023-12-11,2023-12-11,Ｍ’ｓ　Ｃｒａｆｔ株式会社,,株式会社,香川県,高松市,香川町浅野３４８番地７４,,37,201,7611703,,,,,,,2023-12-11,1,,,,,エムズクラフト,0
1438,6470003002528,新規,0,2023-12-11,2023-12-11,合同会社Ｎ‐ＬＩＮＥ,,合同会社,香川県,丸亀市,飯山町下法軍寺１３８０番地１０,,37,202,7620083,,,,,,,2023-12-11,1,,,,,エヌライン,0
1440,6490001010654,新規,0,2023-12-11,2023-12-11,株式会社エス・エイ・アイ,,株式会社,高知県,高知市,本町５丁目６－３５つちばしビル３Ｆ,,39,201,7800870,,,,,,,2023-12-11,1,,,,,エスエイアイ,0
1446,6700150122641,新規,0,2023-12-11,2023-12-11,ｓｈｅｎｚｈｅｎｓｈｉｙｉｇｏｕｙｉｔｕｏｋｅｊｉｙｏｕｘｉａｎｇｏｎｇｓｉ,,外国会社等,,,,,,,,ｄａｌａｎｇｊｉｅｄａｏｇｕａｎｇｄｕｏｙａｏｃｈｕａｎｇｘｉｎｃｈａｎｙｅｙｕａｎＢｄｏｎｇ３０２ｌｏｎｇｈｕａｑｕ　ｓｈｅｎｇｓｈｅｎｚｈｅｎｓｈｉ,,,,,,2023-12-11,1,,,,,シェンジェンシーイーゴウイートゥオコージーヨウシエンゴンスー,0
1447,6700150122674,新規,0,2023-12-11,2023-12-11,菰野インター周辺地区土地区画整理組合,,その他,三重県,三重郡菰野町,大字菰野１５７６－１西２棟,,24,341,5101233,,,,,,,2023-12-11,1,,,,,コモノインターシユウヘンチクトチクカクセイリクミアイ,0
1454,7010001240629,新規,0,2023-12-11,2023-12-11,株式会社ＣＨＣ,,株式会社,東京都,中央区,銀座３丁目１２－１９銀座楽心ビル３階,,13,102,1040061,,,,,,,2023-12-11,1,,,,,シーエイチシー,0
1457,7010003042387,新規,0,2023-12-11,2023-12-11,合同会社石沢,,合同会社,東京都,文京区,大塚５丁目３３番９号,,13,105,1120012,,,,,,,2023-12-11,1,,,,,イシザワ,0
1465,7010401178948,新規,0,2023-12-11,2023-12-11,株式会社Ｄｙｎａ‐ｐｒｏ,,株式会社,東京都,港区,六本木７丁目５番９号,,13,103,1060032,,,,,,,2023-12-11,1,,,,,ダイナプロ,0
1466,7010401178956,新規,0,2023-12-11,2023-12-11,スマートヘルス株式会社,,株式会社,東京都,港区,東新橋２丁目１番６号,,13,103,1050021,,,,,,,2023-12-11,1,,,,,スマートヘルス,0
1467,7010401178997,新規,0,2023-12-11,2023-12-11,株式会社Ｄ４ｃテクノロジー,,株式会社,東京都,港区,南麻布５丁目２番３２号,,13,103,1060047,,,,,,,2023-12-11,1,,,,,ディーフォーシーテクノロジー,0
1468,7010403031510,新規,0,2023-12-11,2023-12-11,インフィニッチ合同会社,,合同会社,東京都,港区,港南４丁目２番７－１４１０号,,13,103,1080075,,,,,,,2023-12-11,1,,,,,インフィニッチ,0
1474,7010501051484,新規,0,2023-12-11,2023-12-11,良居株式会社,,株式会社,東京都,台東区,下谷１丁目４－５－６０２号室,,13,106,1100004,,,,,,,2023-12-11,1,,,,,ヨイ,0
1487,7011001158662,新規,0,2023-12-11,2023-12-11,株式会社Ａｌｐｈａ　Ｄｅｓｉｇｎ,,株式会社,東京都,渋谷区,神宮前６丁目２３番４号桑野ビル２階,,13,113,1500001,,,,,,,2023-12-11,1,,,,,アルファデザイン,0
1498,7011203004251,新規,0,2023-12-11,2023-12-11,Ｃｏｒｂｅｔｔ合同会社,,合同会社,東京都,中野区,区白鷺一丁目９番８－８０２号,,13,114,1640000,,,,,,,2023-12-11,1,,,,,コルベット,0
1500,7011501030098,新規,0,2023-12-11,2023-12-11,株式会社ＥＭファシリティーズ,,株式会社,東京都,荒川区,東日暮里５丁目３９番１２号,,13,118,1160014,,,,,,,2023-12-11,1,,,,,イーエムファシリティーズ,0
1501,7011503005882,新規,0,2023-12-11,2023-12-11,リス合同会社,,合同会社,東京都,北区,志茂３丁目４２番７－２０４号ブックハウス志茂ＩＩ,00132943,13,117,1150042,,,,,,,2023-12-11,1,,,,,リス,0
1503,7011601027366,新規,0,2023-12-11,2023-12-11,怡琳株式会社,,株式会社,東京都,練馬区,豊玉上２丁目３番１５－１０８号室,,13,120,1760011,,,,,,,2023-12-11,1,,,,,イリン,0
1504,7011703003686,新規,0,2023-12-11,2023-12-11,合同会社なぎさ介護相談,,合同会社,東京都,江戸川区,南葛西６丁目９番２号ハイツ・ヴィラＮｏ．７、７１１号室,,13,123,1340085,,,,,,,2023-12-11,1,,,,,ナギサカイゴソウダン,0
1506,7011801043469,新規,0,2023-12-11,2023-12-11,ＨＡＲＡＤＡ株式会社,,株式会社,東京都,足立区,谷中５丁目１番１８－４０５号,,13,121,1200006,,,,,,,2023-12-11,1,,,,,ハラダ,0
1509,7013305003552,新規,0,2023-12-11,2023-12-11,特定非営利活動法人カラム,,その他の設立登記法人,東京都,豊島区,千早２丁目１８番４号,,13,116,1710044,,,,,,,2023-12-11,1,,,,,カラム,0
1513,7020001154745,新規,0,2023-12-11,2023-12-11,株式会社ネオ,,株式会社,神奈川県,横浜市青葉区,あざみ野３丁目１４番地３８,,14,117,2250011,,,,,,,2023-12-11,1,,,,,ネオ,0
1520,7030001157499,新規,0,2023-12-11,2023-12-11,株式会社ノット,,株式会社,埼玉県,さいたま市南区,辻１丁目９番８号２－３０２,00132942,11,108,3360026,,,,,,,2023-12-11,1,,,,,ノット,0
1529,7040003023896,新規,0,2023-12-11,2023-12-11,ＦｉｒｓｔＣｒｅａｔｉｏｎ合同会社,,合同会社,千葉県,市原市,五井１２７７－５,,12,219,2900056,,,,,,,2023-12-11,1,,,,,ファーストクリエーション,0
1535,7060003004829,新規,0,2023-12-11,2023-12-11,Ｍ　Ａ　ＩＮＴＥＲＮＡＴＩＯＮＡＬ合同会社,,合同会社,栃木県,栃木市,岩舟町新里１３０４番地－２３号室,,09,203,3294316,,,,,,,2023-12-11,1,,,,,エムエーインターナショナル,0
1537,7080101024396,新規,0,2023-12-11,2023-12-11,全然株式会社,,株式会社,静岡県,伊東市,芝町１１番地３号１０１室,,22,208,4140041,,,,,,,2023-12-11,1,,,,,ゼンゼン,0
1542,7080401026877,新規,0,2023-12-11,2023-12-11,株式会社ＥＬＥＸ,,株式会社,静岡県,浜松市浜北区,中瀬４６３８番地の１５,,22,136,4340012,,,,,,,2023-12-11,1,,,,,エレックス,0
1543,7090001018456,新規,0,2023-12-11,2023-12-11,株式会社ＲＯＢＲＯＹ,,株式会社,山梨県,富士吉田市,新倉２６８０番地の１６プロティオン河口湖８１５号,,19,202,4030011,,,,,,,2023-12-11,1,,,,,ロブロイ,0
1548,7100001037041,新規,0,2023-12-11,2023-12-11,美楽株式会社,,株式会社,長野県,北安曇郡白馬村,大字北城８３０番地６７,,20,485,3999301,,,,,,,2023-12-11,1,,,,,ビラク,0
1552,7110003005227,新規,0,2023-12-11,2023-12-11,Ｒａｉｎｆｏｒｅｓｔ合同会社,,合同会社,新潟県,長岡市,沖田３丁目３３番地,,15,202,9400857,,,,,,,2023-12-11,1,,,,,レインフォレスト,0
1563,7120001260459,新規,0,2023-12-11,2023-12-11,智博威電子株式会社,,株式会社,大阪府,大阪市東成区,深江北３丁目４番２１号エクラ深江橋１０６Ｂ,,27,115,5370001,,,,,,,2023-12-11,1,,,,,チハクイデンシ,0
1564,7120001260533,新規,0,2023-12-11,2023-12-11,株式会社Ｈ．Ｊ,,株式会社,大阪府,大阪市北区,東天満１丁目２番１－１７０２号,,27,127,5300044,,,,,,,2023-12-11,1,,,,,エイチジェー,0
1578,7140005026805,新規,0,2023-12-11,2023-12-11,社会保険労務士法人伊藤労政,,その他の設立登記法人,兵庫県,神戸市中央区,多聞通４丁目４番１１号２０１,,28,110,6500015,,,,,,,2023-12-11,1,,,,,イトウロウセイ,0
1580,7150003003136,新規,0,2023-12-11,2023-12-11,合同会社Ｏｓｅｋａｙｅｒｓ,,合同会社,奈良県,奈良市,鶴舞西町２番１０－Ａ－５０９号,,29,201,6310022,,,,,,,2023-12-11,1,,,,,オセッカイヤーズ,0
1581,7160001025544,新規,0,2023-12-11,2023-12-11,株式会社滋賀建物管理,,株式会社,滋賀県,栗東市,小柿６丁目６番１号,,25,208,5203024,,,,,,,2023-12-11,1,,,,,シガタテモノカンリ,0
1589,7180001159274,新規,0,2023-12-11,2023-12-11,ＭＡＳＴコンサルティングパートナーズ株式会社,,株式会社,愛知県,名古屋市中区,栄４丁目６番１５号,,23,106,4600008,,,,,,,2023-12-11,1,,,,,マストコンサルティングパートナーズ,0
1599,7190001030946,新規,0,2023-12-11,2023-12-11,株式会社エヌシキ,,株式会社,三重県,四日市市,智積町３３５９番地,,24,202,5121212,,,,,,,2023-12-11,1,,,,,エヌシキ,0
1600,7200001041966,新規,0,2023-12-11,2023-12-11,株式会社エナジーテックジャパン,,株式会社,岐阜県,各務原市,那加雄飛ケ丘町１１－４８,,21,213,5040835,,,,,,,2023-12-11,1,,,,,エナジーテックジャパン,0
1602,7200005013549,新規,0,2023-12-11,2023-12-11,医療法人可児さとう内科,,その他の設立登記法人,岐阜県,可児市,土田５２６０番地３,,21,214,5090206,,,,,,,2023-12-11,1,,,,,カニサトウナイカ,0
1604,7240001062521,新規,0,2023-12-11,2023-12-11,株式会社ＳＥＶＥＮ　ＤＩＲＥＣＴＩＯＮＳ,,株式会社,広島県,広島市西区,南観音８丁目４－５,,34,104,7330035,,,,,,,2023-12-11,1,,,,,セブンダイレクションズ,0
1605,7240003006443,新規,0,2023-12-11,2023-12-11,合同会社ＤＡＦＬＹＣＲＥＷ,,合同会社,広島県,広島市西区,庚午南２丁目３６番１０号庚午南コーポ２０１,,34,104,7330823,,,,,,,2023-12-11,1,,,,,ダフライクルー,0
1606,7260001038544,新規,0,2023-12-11,2023-12-11,株式会社ＴＣａｐｉｔａｌ,,株式会社,岡山県,岡山市北区,幸町７番８号１３１４号,,33,101,7000903,,,,,,,2023-12-11,1,,,,,ティーキャピタル,0
1609,7290001103989,新規,0,2023-12-11,2023-12-11,株式会社結ｐｒｏｄｕｃｅ,,株式会社,福岡県,福岡市西区,姪の浜４丁目２２番１８－１４０１号,,40,135,8190002,,,,,,,2023-12-11,1,,,,,ユイプロデュース,0
1610,7290001103997,新規,0,2023-12-11,2023-12-11,九州商事株式会社,,株式会社,福岡県,福岡市早良区,野芥２丁目２０番１１号,,40,137,8140171,,,,,,,2023-12-11,1,,,,,,0
1613,7290003014714,新規,0,2023-12-11,2023-12-11,合同会社ベルツリー,,合同会社,福岡県,那珂川市,片縄２丁目４８番地（コーポ岩戸３０６号）,,40,231,8111201,,,,,,,2023-12-11,1,,,,,,0
1616,7290801030128,新規,0,2023-12-11,2023-12-11,株式会社池部工務店,,株式会社,福岡県,北九州市小倉南区,朽網東２丁目２３番１２号,,40,107,8000232,,,,,,,2023-12-11,1,,,,,イケベコウムテン,0
1618,7300005007169,新規,0,2023-12-11,2023-12-11,医療法人ごんどう耳鼻咽喉科,,その他の設立登記法人,佐賀県,神埼市,神埼町田道ヶ里２２２６番１,,41,210,8420002,,,,,,,2023-12-11,1,,,,,ゴンドウジビインコウカ,0
1623,7320001020181,新規,0,2023-12-11,2023-12-11,株式会社永充,,株式会社,大分県,別府市,大字内竈３０２０番地の７５,,44,202,8740011,,,,,,,2023-12-11,1,,,,,ヒサミツ,0
1624,7320003004249,新規,0,2023-12-11,2023-12-11,合同会社セカンドプライム,,合同会社,大分県,大分市,にじが丘３丁目１７５６番地の３ＪＧＭヴェルデヒルズにじが丘８０２,,44,201,8700874,,,,,,,2023-12-11,1,,,,,セカンドプライム,0
1629,7340001026128,新規,0,2023-12-11,2023-12-11,株式会社ＡＳＴＡＬＯＯＰ,,株式会社,鹿児島県,鹿児島市,西坂元町３４番５号,,46,201,8920863,,,,,,,2023-12-11,1,,,,,アスタループ,0
1630,7350001018685,新規,0,2023-12-11,2023-12-11,株式会社ビッグ不動産,,株式会社,宮崎県,都城市,郡元町３２０５番地１４,,45,202,8850013,,,,,,,2023-12-11,1,,,,,ビッグフドウサン,0
1634,7380001034184,新規,0,2023-12-11,2023-12-11,ライフイノベーション株式会社,,株式会社,福島県,伊達市,坂ノ下１５,,07,213,9600426,,,,,,,2023-12-11,1,,,,,ライフイノベーション,0
1645,7430003015739,新規,0,2023-12-11,2023-12-11,合同会社ｓｔａｒ　ｓｔｏｒｙ,,合同会社,北海道,札幌市中央区,南五条西１７丁目１番１６号３階,,01,101,0640805,,,,,,,2023-12-11,1,,,,,スターストーリー,0
1652,7490003001840,新規,0,2023-12-11,2023-12-11,Ｇ．Ｔ．Ｅｐｏｃｈ合同会社,,合同会社,高知県,高知市,追手筋１丁目６番１８号５Ｆ,,39,201,7800842,,,,,,,2023-12-11,1,,,,,ジーティーエポック,0
1653,7500001025344,新規,0,2023-12-11,2023-12-11,株式会社ｗｉｔｈ　ＬＡＢＯ,,株式会社,愛媛県,西条市,朔日市７３７番地３八紘２Ｆ,,38,206,7930027,,,,,,,2023-12-11,1,,,,,ウィズラボ,0
1654,7500001025352,新規,0,2023-12-11,2023-12-11,卯組株式会社,,株式会社,愛媛県,松山市,東方町２３４６番地４０,,38,201,7911123,,,,,,,2023-12-11,1,,,,,ウグミ,0
1658,7700150122640,新規,0,2023-12-11,2023-12-11,ｆｕｊｉａｎａｎｓｈｅｎｇｈａｎｇｍａｏｙｉｙｏｕｘｉａｎｇｏｎｇｓｉ,,外国会社等,,,,,,,,ｆｕｚｈｏｕｓｈｉｇｕｌｏｕｑｕｗｕｙｉｚｈｏｎｇｌｕ４９ｈａｏｘｉａｎｓｈｉｄａｓｈａｓｉｃｅｎｇＡｓｈｉ　ｆｕｚｈｏｕ　ｆｕｊｉａｎ　３５０００３　ＣＮ,,,,,,2023-12-11,1,,,,,フージエンアンションシンマオイーヨウシエンゴンスー,0
1659,7700150122649,新規,0,2023-12-11,2023-12-11,ＹＩＷＵ　ＨＥＹＬＡＩ　ＦＡＳＨＩＯＮ　ＡＣＣＥＳＳＯＲＩＥＳ　ＣＯ．，ＬＴＤ,,外国会社等,,,,,,,,Ｒｏｏｍ　３０１，Ｎｏ．７５，ｃｈｅｎｇ　ｘｉｎ　ｅｒ　ｊｉｅ，ｆｕ　ｔｉａｎ　ｊｉｅ　ｄａｏ　Ｙｉｗｕ　ｃｉｔｙ　ＺｈｅＪｉａｎｇ　ｐｒｏｖｉｎｃｅ　３２２０００　ＣＮ,,,,,,2023-12-11,1,,,,,イーウーシーハイレイフゥシーヨウシエンゴーンスー,0
1670,8010001240628,新規,0,2023-12-11,2023-12-11,株式会社クニイホールディングス,,株式会社,東京都,千代田区,神田紺屋町１６番地クニイビル４Ｆ,,13,101,1010035,,,,,,,2023-12-11,1,,,,,クニイホールディングス,0
1671,8010001240685,新規,0,2023-12-11,2023-12-11,株式会社サウナド,,株式会社,東京都,中央区,月島４丁目２１－６月島ハイツ４１６号,,13,102,1040052,,,,,,,2023-12-11,1,,,,,サウナド,0
1677,8010005037624,新規,0,2023-12-11,2023-12-11,エスティヨイチ一般社団法人,,その他の設立登記法人,東京都,千代田区,丸の内３丁目１番１号東京共同会計事務所内,,13,101,1000005,,,,,,,2023-12-11,1,,,,,エスティヨイチ,0
1684,8010401178971,新規,0,2023-12-11,2023-12-11,株式会社ウマワケレーシング,,株式会社,東京都,港区,西新橋１丁目１４番１０号西新橋スタービル５階,,13,103,1050003,,,,,,,2023-12-11,1,,,,,ウマワケレーシング,0
1687,8010403031518,新規,0,2023-12-11,2023-12-11,合同会社堀内商会,,合同会社,東京都,港区,浜松町２丁目２番１５号浜松町ダイヤビル２Ｆ,,13,103,1050013,,,,,,,2023-12-11,1,,,,,ホリウチショウカイ,0
1693,8010601064294,新規,0,2023-12-11,2023-12-11,株式会社建泉舎,,株式会社,東京都,墨田区,業平１丁目１８番５号,,13,107,1300002,,,,,,,2023-12-11,1,,,,,ケンセンシャ,0
1701,8011003018079,新規,0,2023-12-11,2023-12-11,合同会社シンクウェイ渋谷プラス,,合同会社,東京都,渋谷区,渋谷１丁目２４番７号渋谷フラットビル５階Ｂ,,13,113,1500002,,,,,,,2023-12-11,1,,,,,シンクウェイシブヤプラス,0
1723,8011601027365,新規,0,2023-12-11,2023-12-11,株式会社エレミント,,株式会社,東京都,練馬区,石神井町６丁目１０番８号ファブール石神井公園３０３,,13,120,1770041,,,,,,,2023-12-11,1,,,,,エレミント,0
1724,8011801043468,新規,0,2023-12-11,2023-12-11,株式会社ｙａｓｏ,,株式会社,東京都,足立区,西竹の塚２丁目１１番６号,,13,121,1210822,,,,,,,2023-12-11,1,,,,,ヤソ,0
1731,8013103001286,新規,0,2023-12-11,2023-12-11,Ｌｕｎａｂｅｌｌ合同会社,,合同会社,東京都,あきる野市,牛沼２４番地７号,,13,228,1970826,,,,,,,2023-12-11,1,,,,,,0
1732,8013303006911,新規,0,2023-12-11,2023-12-11,合同会社ワイオラクルキャピタル,,合同会社,東京都,豊島区,上池袋１丁目３５番１２－２０３号,,13,116,1700012,,,,,,,2023-12-11,1,,,,,ワイオラクルキャピタル,0
1736,8021001080930,新規,0,2023-12-11,2023-12-11,株式会社ＮＹＫ,,株式会社,神奈川県,相模原市中央区,高根２丁目５番２５号,,14,152,2520221,,,,,,,2023-12-11,1,,,,,エヌワイケー,0
1737,8021001080939,新規,0,2023-12-11,2023-12-11,スリーライズ株式会社,,株式会社,神奈川県,綾瀬市,寺尾釜田１丁目１８番６号,,14,218,2521135,,,,,,,2023-12-11,1,,,,,スリーライズ,0
1743,8030001157606,新規,0,2023-12-11,2023-12-11,株式会社玲美建装,,株式会社,埼玉県,さいたま市大宮区,宮町４丁目１１４番地１－２０５号,,11,103,3300802,,,,,,,2023-12-11,1,,,,,レイミケンソウ,0
1746,8030003023178,新規,0,2023-12-11,2023-12-11,合同会社福島筋肉研究所,,合同会社,埼玉県,入間市,豊岡１丁目１３番地２号－２,,11,225,3580003,,,,,,,2023-12-11,1,,,,,フクシマキンニクケンキュウジョ,0
1752,8040001130982,新規,0,2023-12-11,2023-12-11,株式会社ＦＯＲＥＲＵＮＮＥＲ,,株式会社,千葉県,船橋市,習志野台８丁目２９番３号,,12,204,2740063,,,,,,,2023-12-11,1,,,,,フォアランナー,0
1754,8040003023838,新規,0,2023-12-11,2023-12-11,ＳＴ　Ｐｒｏｊｅｃｔｓ合同会社,,合同会社,千葉県,柏市,東上町２番２８号第一水戸屋ビル３Ｆ,,12,217,2770011,,,,,,,2023-12-11,1,,,,,エスティプロジェクツ,0
1755,8040003023895,新規,0,2023-12-11,2023-12-11,ＡＣＲＯＳＳ　ＴＨＥ　ＳＥＡ合同会社,,合同会社,千葉県,浦安市,高洲４丁目３番１－１７３７号,,12,227,2790023,,,,,,,2023-12-11,1,,,,,アクロスザシー,0
1756,8040003023912,新規,0,2023-12-11,2023-12-11,合同会社グルナディエ,,合同会社,千葉県,千葉市美浜区,幸町２丁目２３番２―１１０８号,,12,106,2610001,,,,,,,2023-12-11,1,,,,,グルナディエ,0
1757,8040005022219,新規,0,2023-12-11,2023-12-11,特定非営利活動法人Ｆｏｏｄ　Ａｉｄ　ｉｎ　Ｎｉｓｈｉｃｈｉｂａ,,その他の設立登記法人,千葉県,千葉市稲毛区,黒砂１丁目１９番９号第５グリーンハイツ１０６号,,12,103,2630042,,,,,,,2023-12-11,1,,,,,フードエイドインニシチバ,0
1762,8050001053877,新規,0,2023-12-11,2023-12-11,株式会社ＱＥＤ,,株式会社,茨城県,つくば市,松代５丁目１４番地５１,,08,220,3050035,,,,,,,2023-12-11,1,,,,,キューイーディー,0
1763,8050001053910,新規,0,2023-12-11,2023-12-11,結和ＨＤ株式会社,,株式会社,茨城県,結城市,大字結城７１８８番地,,08,207,3070001,,,,,,,2023-12-11,1,,,,,ユウワホールディングス,0
1768,8080101024395,新規,0,2023-12-11,2023-12-11,株式会社和み,,株式会社,静岡県,賀茂郡河津町,沢田２８３番地の１,,22,302,4130505,,,,,,,2023-12-11,1,,,,,ナゴミ,0
1770,8080403004921,新規,0,2023-12-11,2023-12-11,翠伸合同会社,,合同会社,静岡県,浜松市中区,板屋町６１２番地メゾンセントラル１１０２号,,22,131,4300928,,,,,,,2023-12-11,1,,,,,スイシン,0
1772,8090001018455,新規,0,2023-12-11,2023-12-11,株式会社富士リージョナル・ブリッジ,,株式会社,山梨県,南都留郡西桂町,下暮地６８２－２,,19,423,4030021,,,,,,,2023-12-11,1,,,,,フジリージョナルブリッジ,0
1794,8140003019900,新規,0,2023-12-11,2023-12-11,合同会社ＬＡＭｅｌｌＡＲｏｏｆ,,合同会社,兵庫県,芦屋市,山芦屋町２番２号２階,00132941,28,206,6590082,,,,,,,2023-12-11,1,,,,,ラメラルーフ,0
1812,8180001159249,新規,0,2023-12-11,2023-12-11,株式会社愛煌港,,株式会社,愛知県,弥富市,楠２丁目４９番地４,,23,235,4980066,,,,,,,2023-12-11,1,,,,,アイコウミナト,0
1813,8180001159281,新規,0,2023-12-11,2023-12-11,ＲＹＵ株式会社,,株式会社,愛知県,名古屋市守山区,大字中志段味字大洞口２７３３番地の１２,,23,113,4630002,,,,,,,2023-12-11,1,,,,,リュウ,0
1823,8200003006181,新規,0,2023-12-11,2023-12-11,合同会社エステート美濃,,合同会社,岐阜県,羽島郡笠松町,美笠通１丁目３５番地,,21,303,5016088,,,,,,,2023-12-11,1,,,,,エステートミノ,0
1824,8200005013548,新規,0,2023-12-11,2023-12-11,一般社団法人児童育成協会,,その他の設立登記法人,岐阜県,大垣市,今宿６丁目５２番地１６ソフトピアジャパン　ドリーム・コア２０１,,21,202,5030807,,,,,,,2023-12-11,1,,,,,ジドウイクセイキョウカイ,0
1831,8240003006450,新規,0,2023-12-11,2023-12-11,玄人合同会社,,合同会社,広島県,福山市,御幸町大字森脇３８９番地５,,34,207,7200003,,,,,,,2023-12-11,1,,,,,,0
1833,8260001038551,新規,0,2023-12-11,2023-12-11,株式会社ＣＣＰ‐２,,株式会社,岡山県,岡山市北区,丸の内１丁目１５番２０号ちゅうぎん本店ビル９階,,33,101,7000823,,,,,,,2023-12-11,1,,,,,シーシーピーツー,0
1835,8260003004519,新規,0,2023-12-11,2023-12-11,合同会社シャローム,,合同会社,岡山県,岡山市南区,築港栄町１６番１４号,,33,104,7028053,,,,,,,2023-12-11,1,,,,,シャローム,0
1837,8270003001580,新規,0,2023-12-11,2023-12-11,ＭＫ合同会社,,合同会社,鳥取県,鳥取市,卯垣３丁目４１５番地,,31,201,6800074,,,,,,,2023-12-11,1,,,,,エムケー,0
1839,8290001103988,新規,0,2023-12-11,2023-12-11,Ｎｅｘｉ株式会社,,株式会社,福岡県,古賀市,古賀字五反田８２番地１０,,40,223,8113137,,,,,,,2023-12-11,1,,,,,ネクシイ,0
1840,8290001104004,新規,0,2023-12-11,2023-12-11,Ｋｕｒｏｋｏ　Ｗｏｒｋｓ株式会社,,株式会社,福岡県,福岡市博多区,博多駅前１丁目２３番２号ＰａｒｋＦｒｏｎｔ博多駅前１丁目５Ｆ－Ｂ,,40,132,8120011,,,,,,,2023-12-11,1,,,,,クロコワークス,0
1841,8290003014713,新規,0,2023-12-11,2023-12-11,ｔｏｒａ　ｂｅａｃｈ合同会社,,合同会社,福岡県,福岡市早良区,四箇田団地３３番２０２号,,40,137,8140176,,,,,,,2023-12-11,1,,,,,トラビーチ,0
1842,8290003014721,新規,0,2023-12-11,2023-12-11,合同会社ＵＬＴＲＡ,,合同会社,福岡県,久留米市,諏訪野町１５５３番地３,,40,203,8300037,,,,,,,2023-12-11,1,,,,,,0
1849,8330001031532,新規,0,2023-12-11,2023-12-11,オオツカ株式会社,,株式会社,熊本県,熊本市東区,戸島２丁目３番７９号,,43,102,8618041,,,,,,,2023-12-11,1,,,,,オオツカ,0
1853,8360003013534,新規,0,2023-12-11,2023-12-11,合同会社ＯＩＬ,,合同会社,沖縄県,豊見城市,字高嶺３９５番地４７アルファスマート豊見城ＩＩ３０６号,00132940,47,212,9010213,,,,,,,2023-12-11,1,,,,,オーアイエル,0
1855,8370003006413,新規,0,2023-12-11,2023-12-11,合同会社南三陸家畜病院,,合同会社,宮城県,本吉郡南三陸町,志津川字沼田１００番地４０,,04,606,9860725,,,,,,,2023-12-11,1,,,,,ミナミサンリクカチクビョウイン,0
1867,8430003015738,新規,0,2023-12-11,2023-12-11,合同会社ＵＳ,,合同会社,北海道,札幌市北区,太平六条６丁目１－１－２０５,,01,102,0028006,,,,,,,2023-12-11,1,,,,,ユーエス,0
1868,8430005014845,新規,0,2023-12-11,2023-12-11,一般社団法人Ｓｈｅｖｅｔ　Ａｃｈｉｍ　Ｊａｐａｎ,,その他の設立登記法人,北海道,札幌市北区,北二十七条西１４丁目８４０番地,,01,102,0010027,,,,,,,2023-12-11,1,,,,,シェベットアヒームジャパン,0
1877,8500001025351,新規,0,2023-12-11,2023-12-11,株式会社ＭＩＹＡＷＡＫＩ,,株式会社,愛媛県,松山市,森松町１０６７番地５,,38,201,7911113,,,,,,,2023-12-11,1,,,,,ミヤワキ,0
1878,8700150122648,新規,0,2023-12-11,2023-12-11,Ｓｈｅｎｚｈｅｎ　ｘｉｎｇ　ｈｕｉ　ｔｅｎｇ　ｐｌａｓｔｉｃ　ｃｏ．，ＬＴＤ,,外国会社等,,,,,,,,１０８，Ｂｕｉｌｄｉｎｇ　Ｌ０８，Ｓｏｕｔｈ　Ｃｈｉｎａ　Ｉｎｔｅｒｎａｔｉｏｎａｌ　Ｌｅａｔｈｅｒ　Ｒａｗ　Ｍａｔｅｒｉａｌｓ　Ｌｏｇｉｓｔｉｃｓ　Ｚｏｎｅ（Ｐｈａｓｅ　Ｉ），Ｎｏ．１　Ｓｏｕｔｈ　Ｃｈｉｎａ　Ａｖｅｎｕｅ，Ｐｉｎｇｈｕ　Ｓｔｒｅｅｔ，Ｌｏｎｇｇａｎｇ　Ｄｉｓｔｒｉｃｔ，Ｓｈｅｎｚｈｅｎ,,,,,,2023-12-11,1,,,,,シェンジェンシーンホゥイトゥオンスゥジアオヨウシエンゴーンスー,0
1882,9010001240577,新規,0,2023-12-11,2023-12-11,株式会社Ｋ１Ｃ,,株式会社,東京都,中央区,八丁堀４丁目１２番２０号第１ＳＳビル８階Ｅ号室,,13,102,1040032,,,,,,,2023-12-11,1,,,,,ケイワンシー,0
1883,9010001240585,新規,0,2023-12-11,2023-12-11,株式会社レガロアーク,,株式会社,東京都,中央区,銀座７丁目１３番６号サガミビル２階,,13,102,1040061,,,,,,,2023-12-11,1,,,,,レガロアーク,0
1886,9010003042393,新規,0,2023-12-11,2023-12-11,レディーバード合同会社,,合同会社,東京都,中央区,月島４丁目１９番１１－２０３号,,13,102,1040052,,,,,,,2023-12-11,1,,,,,レディーバード,0
1887,9010003042410,新規,0,2023-12-11,2023-12-11,エスティイレブン合同会社,,合同会社,東京都,千代田区,丸の内３丁目１番１号東京共同会計事務所内,,13,101,1000005,,,,,,,2023-12-11,1,,,,,エスティイレブン,0
1894,9010401178005,新規,0,2023-12-11,2023-12-11,株式会社Ｇａｔｅ　Ｋｅｅｐｅｒ,,株式会社,東京都,港区,六本木６丁目２番３１号六本木ヒルズノースタワー１６階,,13,103,1060032,,,,,,,2023-12-11,1,,,,,ゲートキーパー,0
1898,9010403031525,新規,0,2023-12-11,2023-12-11,ｌｕｖｅｉｌ合同会社,,合同会社,東京都,港区,北青山３丁目６－７青山パラシオタワー１１階,,13,103,1070061,,,,,,,2023-12-11,1,,,,,ラヴェール,0
1901,9010603010519,新規,0,2023-12-11,2023-12-11,鋼鉄兄弟合同会社,,合同会社,東京都,墨田区,堤通１丁目４番１号,,13,107,1310034,,,,,,,2023-12-11,1,,,,,コウテツキョウダイ,0
1902,9010605004270,新規,0,2023-12-11,2023-12-11,一般社団法人ハチドリと空,,その他の設立登記法人,東京都,江東区,毛利２丁目４番１号,,13,108,1350001,,,,,,,2023-12-11,1,,,,,ハチドリトソラ,0
1907,9010905004549,新規,0,2023-12-11,2023-12-11,税理士法人ＡＲＴ会計事務所,,その他の設立登記法人,東京都,世田谷区,経堂１丁目１９番１４号第六経堂ビル３０３,,13,112,1560052,,,,,,,2023-12-11,1,,,,,アルトカイケイジムショ,0
1914,9011001158693,新規,0,2023-12-11,2023-12-11,グリーン薬局株式会社,,株式会社,東京都,目黒区,目黒２丁目９番３号メグロフラッツ１０２,,13,110,1530063,,,,,,,2023-12-11,1,,,,,グリーンヤッキョク,0
1915,9011001158727,新規,0,2023-12-11,2023-12-11,株式会社ＧＯＡＴ,,株式会社,東京都,渋谷区,西原３丁目１９番７号ラビアン吉井１０２,,13,113,1510066,,,,,,,2023-12-11,1,,,,,ゴート,0
1918,9011003017922,新規,0,2023-12-11,2023-12-11,ＭＷｂ　Ｇｒｏｗｔｈ　ｃｏｎｓｕｌｔｉｎｇ合同会社,,合同会社,東京都,渋谷区,恵比寿西２丁目８番４号ＥＸ恵比寿西ビル５階,,13,113,1500021,,,,,,,2023-12-11,1,,,,,エムダブリュービーグロウスコンサルティング,0
1925,9011201025099,新規,0,2023-12-11,2023-12-11,株式会社みらい,,株式会社,東京都,中野区,本町２丁目４６番３－６０３号,,13,114,1640012,,,,,,,2023-12-11,1,,,,,ミライ,0
1934,9011501030096,新規,0,2023-12-11,2023-12-11,株式会社魔都,,株式会社,東京都,荒川区,南千住３丁目４０番１０－５０３号,,13,118,1160003,,,,,,,2023-12-11,1,,,,,マト,0
1938,9011701026836,新規,0,2023-12-11,2023-12-11,路昇株式会社,,株式会社,東京都,江戸川区,西葛西５丁目７番６－３０５号,,13,123,1340088,,,,,,,2023-12-11,1,,,,,ロショウ,0
1949,9012403006317,新規,0,2023-12-11,2023-12-11,エスエルイー合同会社,,合同会社,東京都,調布市,染地２丁目３３－１０－１０１,,13,208,1820023,,,,,,,2023-12-11,1,,,,,エスエルイー,0
1954,9020001154693,新規,0,2023-12-11,2023-12-11,株式会社街風空調,,株式会社,神奈川県,横浜市磯子区,杉田３丁目２４番１８号ＧＳハイム４０６,,14,107,2350033,,,,,,,2023-12-11,1,,,,,マチカゼクウチョウ,0
1955,9020001154826,新規,0,2023-12-11,2023-12-11,株式会社サンライズ,,株式会社,神奈川県,横浜市中区,野毛町４丁目１６７バロック神２０１,,14,104,2310064,,,,,,,2023-12-11,1,,,,,サンライズ,0
1958,9020003025158,新規,0,2023-12-11,2023-12-11,シオーレ合同会社,,合同会社,神奈川県,横浜市青葉区,あざみ野３丁目３３－１２８,,14,117,2250011,,,,,,,2023-12-11,1,,,,,シオーレ,0
1963,9021003013895,新規,0,2023-12-11,2023-12-11,合同会社黄昏之,,合同会社,神奈川県,相模原市緑区,若葉台４丁目１番地３,,14,151,2520112,,,,,,,2023-12-11,1,,,,,タソガレノ,0
1970,9030001157514,新規,0,2023-12-11,2023-12-11,株式会社ｍａａｒｋｅｔ．,,株式会社,埼玉県,さいたま市浦和区,東仲町１１番６号浦和ニューハイム４－Ｃ,,11,107,3300056,,,,,,,2023-12-11,1,,,,,マーケット,0
1975,9030003023185,新規,0,2023-12-11,2023-12-11,合同会社イズミタニ,,合同会社,埼玉県,さいたま市見沼区,大字御蔵７７２番地６,,11,104,3370033,,,,,,,2023-12-11,1,,,,,イズミタニ,0
1978,9040001131286,新規,0,2023-12-11,2023-12-11,株式会社栄光,,株式会社,千葉県,船橋市,緑台２丁目６番地２号１１０６号室,,12,204,2740818,,,,,,,2023-12-11,1,,,,,エイコウ,0
1984,9040003023903,新規,0,2023-12-11,2023-12-11,合同会社ＦＲＥＡＫ,,合同会社,千葉県,船橋市,中野木２丁目１５－２３－１０５,,12,204,2740826,,,,,,,2023-12-11,1,,,,,フリーク,0
1991,9060003004835,新規,0,2023-12-11,2023-12-11,合同会社ヤマザキ建設,,合同会社,栃木県,鹿沼市,花岡町１９４番地－７パークサイドヴィラＢ棟２０２,,09,205,3220049,,,,,,,2023-12-11,1,,,,,ヤマザキケンセツ,0
1992,9080001026020,新規,0,2023-12-11,2023-12-11,株式会社アスタクト,,株式会社,静岡県,静岡市駿河区,下島２８６番地の６,,22,102,4228037,,,,,,,2023-12-11,1,,,,,アスタクト,0
2007,9120001260481,新規,0,2023-12-11,2023-12-11,株式会社ＰｌｕｓＡ,,株式会社,大阪府,大阪市西区,江戸堀１丁目２０－１１,,27,106,5500002,,,,,,,2023-12-11,1,,,,,プラスエイス,0
2008,9120001260498,新規,0,2023-12-11,2023-12-11,株式会社アットケア,,株式会社,大阪府,守口市,大日東町３４番８－５０２号,,27,209,5700016,,,,,,,2023-12-11,1,,,,,アットケア,0
2009,9120003025429,新規,0,2023-12-11,2023-12-11,日本国際投資管理合同会社,,合同会社,大阪府,大阪市住吉区,万代６丁目１１－３,,27,120,5580055,,,,,,,2023-12-11,1,,,,,ニッポンコクサイトウシカンリ,0
2020,9140001132605,新規,0,2023-12-11,2023-12-11,与川株式会社,,株式会社,兵庫県,神戸市中央区,旗塚通１丁目６番２号サニープレイス４０１号,,28,110,6510068,,,,,,,2023-12-11,1,,,,,ヨカワ,0
2021,9140001132613,新規,0,2023-12-11,2023-12-11,株式会社五月晴レ,,株式会社,兵庫県,芦屋市,大原町１８番１９号,,28,206,6590092,,,,,,,2023-12-11,1,,,,,サツキバレ,0
2022,9140001132646,新規,0,2023-12-11,2023-12-11,濱建興業株式会社,,株式会社,兵庫県,西宮市,一里山町７番３－１０１号,,28,204,6638002,,,,,,,2023-12-11,1,,,,,ハマケンコウギョウ,0
2023,9140003019899,新規,0,2023-12-11,2023-12-11,佐尾設備合同会社,,合同会社,兵庫県,西宮市,樋之池町１７番２４号メゾン樋之池２０１号,,28,204,6620084,,,,,,,2023-12-11,1,,,,,サオセツビ,0
2026,9140005026828,新規,0,2023-12-11,2023-12-11,一般社団法人龍野重文重伝トラスト,,その他の設立登記法人,兵庫県,たつの市,龍野町日飼２９１番地,,28,229,6794122,,,,,,,2023-12-11,1,,,,,タツノジュウブンジュウデントラスト,0
2036,9180001159198,新規,0,2023-12-11,2023-12-11,ＡＲＣＨＥ株式会社,,株式会社,愛知県,名古屋市東区,泉１丁目１番２７号アビタシオン泉２０３,,23,102,4610001,,,,,,,2023-12-11,1,,,,,アルケ,0
2043,9200001041956,新規,0,2023-12-11,2023-12-11,株式会社宮川産業,,株式会社,岐阜県,瑞穂市,祖父江１００２番地４,,21,216,5010225,,,,,,,2023-12-11,1,,,,,ミヤガワサンギョウ,0
2044,9200003006180,新規,0,2023-12-11,2023-12-11,合同会社岐阜エステート,,合同会社,岐阜県,羽島郡笠松町,美笠通１丁目３５番地,,21,303,5016088,,,,,,,2023-12-11,1,,,,,ギフエステート,0
2050,9240001062528,新規,0,2023-12-11,2023-12-11,株式会社Ｋ’ｓプランニング,,株式会社,広島県,広島市安芸区,上瀬野町２２８７番地４,,34,107,7390302,,,,,,,2023-12-11,1,,,,,,0
2056,9260001038542,新規,0,2023-12-11,2023-12-11,株式会社ＫＣＬ,,株式会社,岡山県,岡山市南区,藤田３３９番地,,33,104,7010221,,,,,,,2023-12-11,1,,,,,ケーシーエル,0
2057,9260001038550,新規,0,2023-12-11,2023-12-11,ヒラガ不動産販売株式会社,,株式会社,岡山県,岡山市南区,浜野３丁目２０番１６号,,33,104,7000845,,,,,,,2023-12-11,1,,,,,ヒラガフドウサンハンバイ,0
2066,9290001103987,新規,0,2023-12-11,2023-12-11,株式会社Ｂｌｏｏｍ,,株式会社,福岡県,福岡市南区,塩原３丁目２番２５－２０２号ラヴィアン宮前ＩＩ号館,00132952,40,134,8150032,,,,,,,2023-12-11,1,,,,,,0
2068,9290003014704,新規,0,2023-12-11,2023-12-11,合同会社リラーブル,,合同会社,福岡県,福岡市中央区,清川２丁目２番２７－４０４号エンクレスト天神南ＩＩ,00132953,40,133,8100005,,,,,,,2023-12-11,1,,,,,リラーブル,0
2069,9290003014720,新規,0,2023-12-11,2023-12-11,合同会社ＫＭＢ,,合同会社,福岡県,筑紫野市,紫５丁目１７番９号,,40,217,8180061,,,,,,,2023-12-11,1,,,,,ケーエムビー,0
2081,9330003010112,新規,0,2023-12-11,2023-12-11,合同会社Ｆｏｂｅｅｓ,,合同会社,熊本県,熊本市中央区,中央街４番２２号,,43,101,8600802,,,,,,,2023-12-11,1,,,,,,0
2083,9340001026126,新規,0,2023-12-11,2023-12-11,株式会社Ｎ．Ｈ．ｃｏｍｐａｎｙ,,株式会社,鹿児島県,鹿児島市,平川町１４７６番地２Ｆ,,46,201,8910133,,,,,,,2023-12-11,1,,,,,エヌエイチカンパニー,0
2088,9370005010718,新規,0,2023-12-11,2023-12-11,一般社団法人ＰＬＡＹ　ＡＲＴせんだい,,その他の設立登記法人,宮城県,仙台市太白区,八木山弥生町１２番３号,,04,104,9820833,,,,,,,2023-12-11,1,,,,,プレイアートセンダイ,0
2090,9380001034182,新規,0,2023-12-11,2023-12-11,株式会社やまきファーム,,株式会社,福島県,伊達郡桑折町,大字上郡字番丁田２４番地,,07,301,9691661,,,,,,,2023-12-11,1,,,,,ヤマキファーム,0
2094,9420003002843,新規,0,2023-12-11,2023-12-11,合同会社ＢＩＭＡＲＩ　ＪＡＰＡＮ,,合同会社,青森県,平川市,町居山元３０２番地１,,02,210,0360114,,,,,,,2023-12-11,1,,,,,ビマリジャパン,0
2098,9450001014169,新規,0,2023-12-11,2023-12-11,株式会社Ｄａｉｃｈｉ,,株式会社,北海道,旭川市,一条通１丁目３０６番地の５,,01,204,0700031,,,,,,,2023-12-11,1,,,,,ダイチ,0
2099,9470001019934,新規,0,2023-12-11,2023-12-11,株式会社福浩商事,,株式会社,香川県,高松市,西春日町１５５１番地４,,37,201,7618051,,,,,,,2023-12-11,1,,,,,フクヒロショウジ,0
2100,9480001012319,新規,0,2023-12-11,2023-12-11,株式会社ＲＥＲＩＳＥ,,株式会社,徳島県,鳴門市,大麻町桧字道ノ北１８番地１,,36,202,7790225,,,,,,,2023-12-11,1,,,,,リライズ,0
2104,9500001025350,新規,0,2023-12-11,2023-12-11,キスケホールディングス株式会社,,株式会社,愛媛県,松山市,宮田町４番地,,38,201,7900066,,,,,,,2023-12-11,1,,,,,キスケホールディングス,0
2108,9700150122639,新規,0,2023-12-11,2023-12-11,ｄｏｎｇｇｕａｎｓｈｉｈａｏｙｕｎｌａｉｓｈａｎｓｈｉｇｕａｎｌｉｙｏｕｘｉａｎｇｏｎｇｓｉ,,外国会社等,,,,,,,,ｄｏｎｇｇｕａｎｓｈｉｚｈａｎｇｍｕｔｏｕｚｈｅｎｘｉａｎｗｅｉｄａｄａｏ８５－２ｈａｏｓｕｊｉａｏｓｈａｎｇｗｕｚｈｏｎｇｘｉｎｅｒｌｏｕ２０８ｈａｏｐｕｄｏｎｇｇｕａｎｓｈｉ　ｇｕａｎｇｄｏｎｇｓｈｅｎｇ,,,,,,2023-12-11,1,,,,,ドングワンシーハオインライシャンシーグワンリーヨウシエンゴンスー,0
2109,9700150122647,新規,0,2023-12-11,2023-12-11,Ｓｈｅｎｚｈｅｎ　Ｆｉｖｅ　Ｓｔａｒ　Ｔｒａｄｉｎｇ　Ｃｏ．，Ｌｔｄ．,,外国会社等,,,,,,,,Ｌｏｎｇｈｕａ　Ｄｉｓｔｒｉｃｔ，ＮＯ．６０２，Ｂｕｉｌｄｉｎｇ　１８　Ｎｉｕｌａｎｑｉａｎ　Ｖｉｌｌａｇｅ，Ｍｉｎｚｈｉ　Ｓｔｒｅｅｔ，Ｓｈｅｎｚｈｅｎ，Ｇｕａｎｇｄｏｎｇ,,,,,,2023-12-11,1,,,,,シェンジェンウーコーァシーンシャーンマオヨウシエンゴーンスー,0
