sequenceNumber,corporateNumber,process,correct,updateDate,changeDate,name,nameImageId,kind,prefectureName,cityName,streetNumber,addressImageId,prefectureCode,cityCode,postCode,addressOutside,addressOutsideImageId,closeDate,closeCause,successorCorporateNumber,changeCause,assignmentDate,latest,enName,enPrefectureName,enCityName,enAddressOutside,furigana,hihyoji
6,1010003049470,新規,0,2025-12-04,2025-12-04,合同会社ＧＭＴアセットマネジメント,,合同会社,東京都,中央区,日本橋室町１丁目１１番１２号日本橋水野ビル７階,,13,102,1030022,,,,,,,2025-12-04,1,,,,,ジーエムティーアセットマネジメント,0
7,1010003049578,新規,0,2025-12-04,2025-12-04,合同会社ＴＯＰＡＺ　Ｏｎｅ,,合同会社,東京都,千代田区,霞が関３丁目２番５号,,13,101,1000013,,,,,,,2025-12-04,1,,,,,トパーズワン,0
8,1010003049586,新規,0,2025-12-04,2025-12-04,合同会社Ｌｉｔｔｌｅ　Ｔｕｒｎ,,合同会社,東京都,中央区,銀座１丁目１２番４号Ｎ＆ＥＢＬＤ．６Ｆ,,13,102,1040061,,,,,,,2025-12-04,1,,,,,リトルターン,0
16,1010401194901,新規,0,2025-12-04,2025-12-04,株式会社美食倶楽部,,株式会社,東京都,港区,麻布十番１丁目５－１０アトラスビル６階ＴＨＥＨＵＢ内６１４,,13,103,1060045,,,,,,,2025-12-04,1,,,,,ビショククラブ,0
18,1010403036696,新規,0,2025-12-04,2025-12-04,合同会社Ｐｈｏｅｎｉｘ,,合同会社,東京都,港区,南青山２丁目２－１５ウィン青山,,13,103,1070062,,,,,,,2025-12-04,1,,,,,フェニックス,0
24,1010405025053,新規,0,2025-12-04,2025-12-04,一般社団法人蓄電池事業者協議会,,その他の設立登記法人,東京都,港区,芝大門２丁目４番６号豊国ビル,,13,103,1050012,,,,,,,2025-12-04,1,,,,,チクデンチジギョウシャキョウギカイ,0
31,1010703008016,新規,0,2025-12-04,2025-12-04,芝光合同会社,,合同会社,東京都,品川区,大井４丁目６番９－１０３号,,13,109,1400014,,,,,,,2025-12-04,1,,,,,シバコウ,0
39,1010901058548,新規,0,2025-12-04,2025-12-04,株式会社グラブゲイン,,株式会社,東京都,世田谷区,駒沢２丁目５番１５号,,13,112,1540012,,,,,,,2025-12-04,1,,,,,グラブゲイン,0
40,1010901058572,新規,0,2025-12-04,2025-12-04,ネクスレイ株式会社,,株式会社,東京都,世田谷区,駒沢公園１－１Ｔｏｔｅ駒沢公園３０３,,13,112,1540013,,,,,,,2025-12-04,1,,,,,ネクスレイ,0
46,1011001174087,新規,0,2025-12-04,2025-12-04,株式会社ＷＡＧＯアセットマネジメント,,株式会社,東京都,目黒区,平町２丁目１９番９号,,13,110,1520032,,,,,,,2025-12-04,1,,,,,ワゴウアセットマネジメント,0
47,1011001174104,新規,0,2025-12-04,2025-12-04,ネクストエージェンシー株式会社,,株式会社,東京都,渋谷区,恵比寿３丁目３８番３号セボン恵比寿１０３,,13,113,1500013,,,,,,,2025-12-04,1,,,,,ネクストエージェンシー,0
48,1011001174178,新規,0,2025-12-04,2025-12-04,株式会社セレモアジャパン,,株式会社,東京都,渋谷区,道玄坂２丁目２５番１２号道玄坂通４階,,13,113,1500043,,,,,,,2025-12-04,1,,,,,セレモアジャパン,0
49,1011001174194,新規,0,2025-12-04,2025-12-04,ＳＷＩＴＣＨＢＯＴ　ＢＵＳＩＮＥＳＳ株式会社,,株式会社,東京都,渋谷区,恵比寿１丁目２１番１７号ＳＲＥＥＤＥＢＩＳＵ＋Ｃ５Ｆ,,13,113,1500013,,,,,,,2025-12-04,1,,,,,スイッチボットビジネス,0
52,1011003023028,新規,0,2025-12-04,2025-12-04,Ｒｅｉｎａ　Ｈｏｌｄｉｎｇｓ合同会社,,合同会社,東京都,渋谷区,道玄坂１丁目１０番８号渋谷道玄坂東急ビル２Ｆ－Ｃ,,13,113,1500043,,,,,,,2025-12-04,1,,,,,レイナホールディングス,0
53,1011005011278,新規,0,2025-12-04,2025-12-04,一般社団法人ｉｇａｎｎｅｔ,,その他の設立登記法人,東京都,渋谷区,広尾５丁目１６番２号,,13,113,1500012,,,,,,,2025-12-04,1,,,,,イガンネット,0
57,1011101114026,新規,0,2025-12-04,2025-12-04,ＡＰＡＬ　ＴＥＣＨ　ＪＡＰＡＮ株式会社,,株式会社,東京都,新宿区,百人町２丁目２６番５号マイルドビル５階,,13,104,1690073,,,,,,,2025-12-04,1,,,,,アパルテックジャパン,0
58,1011101114174,新規,0,2025-12-04,2025-12-04,ねむりのもり株式会社,,株式会社,東京都,新宿区,内藤町１番地２－１１０４号,,13,104,1600014,,,,,,,2025-12-04,1,,,,,ネムリノモリ,0
59,1011103016815,新規,0,2025-12-04,2025-12-04,合同会社ｉｎｋ,,合同会社,東京都,新宿区,中落合３丁目２８番１２－４０６号,,13,104,1610032,,,,,,,2025-12-04,1,,,,,インク,0
60,1011103016823,新規,0,2025-12-04,2025-12-04,合同会社セミ,,合同会社,東京都,新宿区,新宿１丁目３６―２新宿第七葉山ビル３Ｆ,,13,104,1600022,,,,,,,2025-12-04,1,,,,,セミ,0
68,1011701028996,新規,0,2025-12-04,2025-12-04,株式会社宇喜田工務店,,株式会社,東京都,江戸川区,船堀６丁目１１番２３号,,13,123,1340091,,,,,,,2025-12-04,1,,,,,ウキタコウムテン,0
71,1012303002258,新規,0,2025-12-04,2025-12-04,八福神合同会社,,合同会社,東京都,町田市,本町田２９３８‐１‐１００,,13,209,1940032,,,,,,,2025-12-04,1,,,,,ハチフクジン,0
72,1012403007479,新規,0,2025-12-04,2025-12-04,合同会社ハレマ,,合同会社,東京都,三鷹市,新川６丁目２４番３号,,13,204,1810004,,,,,,,2025-12-04,1,,,,,ハレマ,0
73,1012801024398,新規,0,2025-12-04,2025-12-04,ＫＤＫホールディングス株式会社,,株式会社,東京都,昭島市,武蔵野２丁目５番３７号,,13,207,1960021,,,,,,,2025-12-04,1,,,,,ケーディーケーホールディングス,0
74,1013105001885,新規,0,2025-12-04,2025-12-04,一般社団法人夢組,,その他の設立登記法人,東京都,青梅市,野上町１丁目４３番地カラフィー４３、１号室,,13,205,1980032,,,,,,,2025-12-04,1,,,,,ユメグミ,0
81,1020001166085,新規,0,2025-12-04,2025-12-04,株式会社ポコチョス,,株式会社,神奈川県,横浜市神奈川区,金港町１番地１１,,14,102,2210056,,,,,,,2025-12-04,1,,,,,ポコチョス,0
82,1020001166110,新規,0,2025-12-04,2025-12-04,鎌田工業株式会社,,株式会社,神奈川県,川崎市中原区,上小田中２丁目４番１７号メゾンチェルシー２０５,,14,133,2110053,,,,,,,2025-12-04,1,,,,,カマタコウギョウ,0
83,1020001166119,新規,0,2025-12-04,2025-12-04,株式会社ＭＩＮＯＲＩ,,株式会社,神奈川県,横浜市瀬谷区,宮沢２丁目５番地１４,,14,114,2460038,,,,,,,2025-12-04,1,,,,,ミノリ,0
88,1020003029892,新規,0,2025-12-04,2025-12-04,合同会社ＳＣＥ１号,,合同会社,神奈川県,横浜市西区,北幸２丁目９番１４号,,14,103,2200004,,,,,,,2025-12-04,1,,,,,エスシーイーイチゴウ,0
103,1030001169905,新規,0,2025-12-04,2025-12-04,株式会社アユミ・ミライ,,株式会社,埼玉県,さいたま市見沼区,東大宮１丁目９０番地１８,,11,104,3370051,,,,,,,2025-12-04,1,,,,,アユミミライ,0
104,1030001169913,新規,0,2025-12-04,2025-12-04,ＳＴＡＲＳ　ＩＮＤＵＳＴＲＩＥＳ株式会社,,株式会社,埼玉県,所沢市,大字南永井７７８番地の２,,11,208,3590011,,,,,,,2025-12-04,1,,,,,スターズインダストリーズ,0
105,1030001169954,新規,0,2025-12-04,2025-12-04,株式会社ＯＴＹ管理,,株式会社,埼玉県,川口市,東領家５丁目２０番１４号,,11,203,3320003,,,,,,,2025-12-04,1,,,,,オーティーワイカンリ,0
106,1030001169970,新規,0,2025-12-04,2025-12-04,株式会社Ｖｉａｌｅｖｏ,,株式会社,埼玉県,川越市,中台元町１丁目２４番地３６,,11,201,3501138,,,,,,,2025-12-04,1,,,,,ヴィアエヴォ,0
109,1030003028200,新規,0,2025-12-04,2025-12-04,スカイポート合同会社,,合同会社,埼玉県,狭山市,新狭山２丁目２番地の９,,11,215,3501331,,,,,,,2025-12-04,1,,,,,スカイポート,0
111,1040001141524,新規,0,2025-12-04,2025-12-04,プラネットセンス株式会社,,株式会社,千葉県,千葉市美浜区,中瀬１丁目６ｍＢＡＹＰＯＩＮＴ幕張低層棟２Ｆリージャス幕張センター,,12,106,2610023,,,,,,,2025-12-04,1,,,,,プラネットセンス,0
113,1040003029057,新規,0,2025-12-04,2025-12-04,合同会社万幸,,合同会社,千葉県,松戸市,八ケ崎１丁目１８番地の２０,,12,207,2700023,,,,,,,2025-12-04,1,,,,,マンサチ,0
120,1070001043610,新規,0,2025-12-04,2025-12-04,株式会社セアラ,,株式会社,群馬県,太田市,岩瀬川町１１３番地７,,10,205,3730841,,,,,,,2025-12-04,1,,,,,セアラ,0
121,1070001043619,新規,0,2025-12-04,2025-12-04,株式会社ホープリンク,,株式会社,群馬県,邑楽郡大泉町,西小泉２丁目１２番１号ロワール泉１階東,,10,524,3700517,,,,,,,2025-12-04,1,,,,,ホープリンク,0
127,1080401028301,新規,0,2025-12-04,2025-12-04,株式会社ハル,,株式会社,静岡県,浜松市中央区,松城町２１４番地の２０,,22,138,4300947,,,,,,,2025-12-04,1,,,,,ハル,0
133,1100001039159,新規,0,2025-12-04,2025-12-04,株式会社トラスト,,株式会社,長野県,南佐久郡佐久穂町,大字海瀬３３２９番地１,,20,309,3840503,,,,,,,2025-12-04,1,,,,,トラスト,0
135,1110003005991,新規,0,2025-12-04,2025-12-04,合同会社鈴福,,合同会社,新潟県,新潟市秋葉区,荻島２丁目３１番１９号,,15,105,9560804,,,,,,,2025-12-04,1,,,,,スズフク,0
146,1120001282285,新規,0,2025-12-04,2025-12-04,株式会社ワクワクホームズ,,株式会社,大阪府,大阪市東淀川区,相川２丁目１６番３号,,27,114,5330007,,,,,,,2025-12-04,1,,,,,ワクワクホームズ,0
147,1120001282459,新規,0,2025-12-04,2025-12-04,株式会社ＬＵＭＯＲＡ　ＶＯＹＡＧＥ,,株式会社,大阪府,大阪市浪速区,難波中２丁目１０－７０パークスタワー１９階,,27,111,5560011,,,,,,,2025-12-04,1,,,,,ルモラボヤージュ,0
148,1120001282467,新規,0,2025-12-04,2025-12-04,＿光株式会社,00141734,株式会社,大阪府,大阪市淀川区,十三本町１丁目１８－７クリオプラザ十三パートＩＩ２０１号室,00141735,27,123,5320024,,,,,,,2025-12-04,1,,,,,キコウ,0
151,1120003031384,新規,0,2025-12-04,2025-12-04,Ｋｙｏｄｅｎ　Ｉｎｔｅｒｎａｔｉｏｎａｌ合同会社,,合同会社,大阪府,大阪市旭区,中宮２丁目１３番４号,,27,117,5350003,,,,,,,2025-12-04,1,,,,,キョウデンインターナショナル,0
156,1120903005982,新規,0,2025-12-04,2025-12-04,藤本コーポレーション合同会社,,合同会社,大阪府,茨木市,大同町８番９号,,27,211,5670844,,,,,,,2025-12-04,1,,,,,フジモトコーポレーション,0
157,1122001039970,新規,0,2025-12-04,2025-12-04,株式会社Ｃｌｏｖｅｒｓｉｇｎ,,株式会社,大阪府,柏原市,河原町１－７３,,27,221,5820004,,,,,,,2025-12-04,1,,,,,クローバーサイン,0
167,1140001140961,新規,0,2025-12-04,2025-12-04,株式会社ＫＮＴ,,株式会社,兵庫県,神戸市兵庫区,上庄通３丁目１番１０号,,28,105,6520862,,,,,,,2025-12-04,1,,,,,ケーエヌティー,0
168,1140001140986,新規,0,2025-12-04,2025-12-04,株式会社Ａ‐ＯＮＥ,,株式会社,兵庫県,神戸市中央区,三宮町３丁目７番１２号サンシティーズプロムナード第一ビル３Ｆ,,28,110,6500021,,,,,,,2025-12-04,1,,,,,,0
169,1150001028578,新規,0,2025-12-04,2025-12-04,関西清水物産株式会社,,株式会社,奈良県,大和高田市,大字秋吉２１１番地の１,,29,202,6350053,,,,,,,2025-12-04,1,,,,,カンサイシミズブッサン,0
170,1160001027257,新規,0,2025-12-04,2025-12-04,株式会社ヤスダ電工,,株式会社,滋賀県,犬上郡豊郷町,大字安食南４３番地４,,25,441,5291172,,,,,,,2025-12-04,1,,,,,ヤスダデンコウ,0
171,1160001027265,新規,0,2025-12-04,2025-12-04,株式会社ｔｏｃｃｏ,,株式会社,滋賀県,大津市,におの浜２丁目２番ルネ大津３－８０８,,25,201,5200801,,,,,,,2025-12-04,1,,,,,トッコ,0
172,1160005011471,新規,0,2025-12-04,2025-12-04,特定非営利活動法人心湖,,その他の設立登記法人,滋賀県,彦根市,本庄町２６４５番地３,,25,202,5211133,,,,,,,2025-12-04,1,,,,,ココ,0
179,1180001169758,新規,0,2025-12-04,2025-12-04,株式会社ＣＯＲＲＥＬ,,株式会社,愛知県,名古屋市昭和区,隼人町９番地の４ロイヤル圦中２階Ｅ号,,23,107,4660833,,,,,,,2025-12-04,1,,,,,コレル,0
181,1180003029448,新規,0,2025-12-04,2025-12-04,合同会社ｔａｓｋａｌｌ,,合同会社,愛知県,半田市,青山６丁目２３－１１,,23,205,4750836,,,,,,,2025-12-04,1,,,,,タスカル,0
183,1180005021329,新規,0,2025-12-04,2025-12-04,どりかむ２１社会保険労務士法人,,その他の設立登記法人,愛知県,名古屋市熱田区,神宮３丁目９番１４号,,23,109,4560031,,,,,,,2025-12-04,1,,,,,ドリカムニジュウイチ,0
185,1180301040461,新規,0,2025-12-04,2025-12-04,株式会社アイアン．ワークス．イタクラ,,株式会社,愛知県,豊田市,渡刈町藤薮８番地１４２,,23,211,4701202,,,,,,,2025-12-04,1,,,,,アイアイアンワークスイタクラ,0
189,1190001032741,新規,0,2025-12-04,2025-12-04,株式会社アイファイ,,株式会社,三重県,多気郡明和町,大字斎宮３５８４番地１,,24,442,5150321,,,,,,,2025-12-04,1,,,,,アイファイ,0
192,1200001044487,新規,0,2025-12-04,2025-12-04,ミハマ通商株式会社,,株式会社,岐阜県,安八郡輪之内町,福束字下沼１８２７番地２,,21,382,5030235,,,,,,,2025-12-04,1,,,,,ミハマツウショウ,0
197,1220001027044,新規,0,2025-12-04,2025-12-04,Ｔ．Ｉ‐Ｗｏｒｋｓ株式会社,,株式会社,石川県,小松市,希望丘１番地６,,17,203,9230826,,,,,,,2025-12-04,1,,,,,ティーアイワークス,0
198,1220001027060,新規,0,2025-12-04,2025-12-04,株式会社Ｓｏｌｎｏｒａ,,株式会社,石川県,河北郡津幡町,字太田に３１番地２,,17,361,9290345,,,,,,,2025-12-04,1,,,,,ソルノラ,0
199,1230005009509,新規,0,2025-12-04,2025-12-04,税理士法人Ｔ．Ｋ．ＣＲＥＷ,,その他の設立登記法人,富山県,富山市,婦中町鵜坂５１番地１３１,,16,201,9392711,,,,,,,2025-12-04,1,,,,,ティケイクルー,0
201,1240001065827,新規,0,2025-12-04,2025-12-04,株式会社ＡＵＲＥ,,株式会社,広島県,廿日市市,陽光台４丁目６番地４,,34,213,7380060,,,,,,,2025-12-04,1,,,,,オーレ,0
202,1240003007505,新規,0,2025-12-04,2025-12-04,合同会社うな中本店,,合同会社,広島県,福山市,川口町３丁目１７番３６号,,34,207,7200822,,,,,,,2025-12-04,1,,,,,ウナチュウホンテン,0
209,1260001040786,新規,0,2025-12-04,2025-12-04,Ｊ・Ｃ・ＷＯＲＫＳ株式会社,,株式会社,岡山県,和気郡和気町,和気１５０番地,,33,346,7090451,,,,,,,2025-12-04,1,,,,,ジェイシーワークス,0
210,1260003005440,新規,0,2025-12-04,2025-12-04,Ｓサポート合同会社,,合同会社,岡山県,岡山市北区,津島西坂２丁目３番５２－３号,,33,101,7000086,,,,,,,2025-12-04,1,,,,,エスサポート,0
211,1260005011552,新規,0,2025-12-04,2025-12-04,一般社団法人ＪＩ‐ＪＯ,,その他の設立登記法人,岡山県,高梁市,成羽町羽山８５８,,33,209,7160122,,,,,,,2025-12-04,1,,,,,ジージョ,0
215,1290003017788,新規,0,2025-12-04,2025-12-04,合同会社クリーンＫ,,合同会社,福岡県,福岡市博多区,東雲町４丁目３－１８エスポアール東雲町弐番館２０２,,40,132,8120871,,,,,,,2025-12-04,1,,,,,クリーンケイ,0
223,1330001033774,新規,0,2025-12-04,2025-12-04,株式会社Ｌｉｅｎ,,株式会社,熊本県,上益城郡嘉島町,大字鯰１７９１番地６,,43,442,8613101,,,,,,,2025-12-04,1,,,,,リアン,0
224,1330001033799,新規,0,2025-12-04,2025-12-04,株式会社ライズｃｆ,,株式会社,熊本県,八代市,築添町１６２１番地９（１Ｆ１－３）,,43,202,8660015,,,,,,,2025-12-04,1,,,,,ライズシーエフ,0
225,1350001019838,新規,0,2025-12-04,2025-12-04,株式会社リバーフィールド,,株式会社,宮崎県,宮崎市,吉村町江田原甲２１５番地１２,,45,201,8800841,,,,,,,2025-12-04,1,,,,,リバーフィールド,0
227,1360005007326,新規,0,2025-12-04,2025-12-04,なは新都心税理士法人,,その他の設立登記法人,沖縄県,那覇市,上之屋１丁目１９番８号パレスビュー新都心１階,,47,201,9000011,,,,,,,2025-12-04,1,,,,,ナハシントシン,0
231,1370005011038,新規,0,2025-12-04,2025-12-04,医療法人やわらか,,その他の設立登記法人,宮城県,仙台市太白区,富沢西４丁目１番地７,,04,104,9820037,,,,,,,2025-12-04,1,,,,,ヤワラカ,0
236,1390001018175,新規,0,2025-12-04,2025-12-04,株式会社ＹＵＴＯＲＩ＆Ｃｏ．,,株式会社,山形県,東根市,中央南１丁目２番８号,,06,211,9993730,,,,,,,2025-12-04,1,,,,,ユトリアンドカンパニー,0
248,1430001095788,新規,0,2025-12-04,2025-12-04,株式会社ＴＫＩ,,株式会社,北海道,札幌市中央区,南四条西１３丁目１番１１－３０６号,,01,101,0640804,,,,,,,2025-12-04,1,,,,,ティーケーアイ,0
249,1430001095796,新規,0,2025-12-04,2025-12-04,株式会社ミライ,,株式会社,北海道,札幌市東区,東苗穂十三条２丁目２２番３８号エンデバーＩＩ－２０２号,00141730,01,103,0070813,,,,,,,2025-12-04,1,,,,,ミライ,0
250,1430001095805,新規,0,2025-12-04,2025-12-04,株式会社ｔｅｎｏｒｉ,,株式会社,北海道,札幌市北区,北二十六条西９丁目１－１－１０３,,01,102,0010026,,,,,,,2025-12-04,1,,,,,テノリ,0
251,1430003018383,新規,0,2025-12-04,2025-12-04,合同会社ＲＡ,,合同会社,北海道,札幌市中央区,南一条西１６丁目１番地１３,,01,101,0600061,,,,,,,2025-12-04,1,,,,,アールエー,0
252,1450001014795,新規,0,2025-12-04,2025-12-04,株式会社三宅商事,,株式会社,北海道,上川郡美瑛町,本町４丁目４番２４号,,01,459,0710208,,,,,,,2025-12-04,1,,,,,ミヤケショウジ,0
257,1460001006049,新規,0,2025-12-04,2025-12-04,株式会社拓洋不動産,,株式会社,北海道,釧路市,春採２丁目７番５号小松清四方,,01,206,0850813,,,,,,,2025-12-04,1,,,,,,0
263,1470001020998,新規,0,2025-12-04,2025-12-04,株式会社エコ・プロ,,株式会社,香川県,丸亀市,垂水町３００１番地の２,,37,202,7630095,,,,,,,2025-12-04,1,,,,,エコプロ,0
274,1700150133180,新規,0,2025-12-04,2025-12-04,御苑コーポビアネーズマンション敷地売却組合,,その他,東京都,渋谷区,幡ヶ谷２丁目１４番９号ヤナギヤビル６階　株式会社新都市開発機構事務所内,,13,113,1510072,,,,,,,2025-12-04,1,,,,,ギヨエンコーポビアネーズマンシヨンシキチバイキヤククミアイ,0
283,2010001260788,新規,0,2025-12-04,2025-12-04,株式会社ＲＩＳＥ　ＢＡＳＥ,,株式会社,東京都,千代田区,神田和泉町１番地６－１６ヤマトビル４０５,,13,101,1010024,,,,,,,2025-12-04,1,,,,,ライズベース,0
284,2010003049610,新規,0,2025-12-04,2025-12-04,西村経営研究所合同会社,,合同会社,東京都,文京区,白山２丁目２１番７号,,13,105,1120001,,,,,,,2025-12-04,1,,,,,ニシムラケイエイケンキュウショ,0
290,2010401194702,新規,0,2025-12-04,2025-12-04,株式会社ＡＤＢホールディングス,,株式会社,東京都,港区,虎ノ門４丁目３－１,,13,103,1050001,,,,,,,2025-12-04,1,,,,,エーディービーホールディングス,0
291,2010403036712,新規,0,2025-12-04,2025-12-04,合同会社Ｌｏｕｌｏｕ,,合同会社,東京都,港区,虎ノ門１丁目１５番１０号明和ビル４階,,13,103,1050001,,,,,,,2025-12-04,1,,,,,ルル,0
293,2010501055127,新規,0,2025-12-04,2025-12-04,株式会社ベバカシャ,,株式会社,東京都,台東区,松が谷３丁目１番１２号合羽橋高橋ビル１階,,13,106,1110036,,,,,,,2025-12-04,1,,,,,ベバカシャ,0
300,2010701048673,新規,0,2025-12-04,2025-12-04,ＡＮＩＭＡ　ＭＵＮＤＩ株式会社,,株式会社,東京都,品川区,南大井１丁目２０番１７号,,13,109,1400013,,,,,,,2025-12-04,1,,,,,アニマムンディ,0
306,2010903010464,新規,0,2025-12-04,2025-12-04,Ｃｏｒｎｗａｌｌ　Ｐａｒｔｎｅｒｓ合同会社,,合同会社,東京都,世田谷区,南烏山５丁目３４番５号,,13,112,1570062,,,,,,,2025-12-04,1,,,,,コーンウォールパートナーズ,0
319,2011001170903,新規,0,2025-12-04,2025-12-04,株式会社Ｋｏｌｍｅ,,株式会社,東京都,目黒区,上目黒３丁目１１番５号井関ビル２０１号,,13,110,1530051,,,,,,,2025-12-04,1,,,,,コルメ,0
325,2011105011664,新規,0,2025-12-04,2025-12-04,一般社団法人ＤＲＰマネジメント,,その他の設立登記法人,東京都,新宿区,四谷２丁目９番地１５東京ユナイテッド綜合事務所内,,13,104,1600004,,,,,,,2025-12-04,1,,,,,ディーアールピーマネジメント,0
330,2011401027629,新規,0,2025-12-04,2025-12-04,ステップモバイル株式会社,,株式会社,東京都,板橋区,大山町４番７号,,13,119,1730023,,,,,,,2025-12-04,1,,,,,ステップモバイル,0
331,2011501032875,新規,0,2025-12-04,2025-12-04,ＴＫアセットマネジメント株式会社,,株式会社,東京都,北区,王子５丁目１番１号,,13,117,1140002,,,,,,,2025-12-04,1,,,,,ティーケーアセットマネジメント,0
334,2011801047160,新規,0,2025-12-04,2025-12-04,株式会社健魂,,株式会社,東京都,足立区,竹の塚１丁目２８番２号ブラウンハウス山口２０１,,13,121,1210813,,,,,,,2025-12-04,1,,,,,ケンダマ,0
337,2012403007486,新規,0,2025-12-04,2025-12-04,合同会社野森ペット,,合同会社,東京都,稲城市,東長沼１４５０番地,,13,225,2060802,,,,,,,2025-12-04,1,,,,,ノモリペット,0
338,2012703003425,新規,0,2025-12-04,2025-12-04,合同会社リザンシナジー,,合同会社,東京都,清瀬市,野塩１丁目３２８番９号サンプラザ秋津２０３,,13,221,2040004,,,,,,,2025-12-04,1,,,,,リザンシナジー,0
351,2020001166051,新規,0,2025-12-04,2025-12-04,慶迅インターナショナル株式会社,,株式会社,神奈川県,横浜市瀬谷区,阿久和南４丁目８－１阿久和アパート２７－４０１,,14,114,2460026,,,,,,,2025-12-04,1,,,,,ケイジンインターナショナル,0
352,2020001166068,新規,0,2025-12-04,2025-12-04,株式会社あんしん警備保障,,株式会社,神奈川県,川崎市川崎区,東田町６番地９,,14,131,2100005,,,,,,,2025-12-04,1,,,,,アンシンケイビホショウ,0
353,2020001166076,新規,0,2025-12-04,2025-12-04,株式会社タイユー,,株式会社,神奈川県,横浜市西区,紅葉ケ丘１番地１横濱紅葉坂レジデンス１－７１０号,,14,103,2200044,,,,,,,2025-12-04,1,,,,,タイユー,0
358,2020003029891,新規,0,2025-12-04,2025-12-04,Ａｒｄｅｎ合同会社,,合同会社,神奈川県,横浜市青葉区,美しが丘５丁目３４番地２レ・ジェイド美しが丘２０２,,14,117,2250002,,,,,,,2025-12-04,1,,,,,アーデン,0
366,2030001169937,新規,0,2025-12-04,2025-12-04,株式会社ベリーズファームハセガワ,,株式会社,埼玉県,行田市,大字和田２７６番地,,11,206,3610061,,,,,,,2025-12-04,1,,,,,ベリーズファームハセガワ,0
367,2030001169953,新規,0,2025-12-04,2025-12-04,よしま不動産株式会社,,株式会社,埼玉県,さいたま市北区,東大成町１丁目５１９番地１,,11,102,3310814,,,,,,,2025-12-04,1,,,,,ヨシマフドウサン,0
373,2030003028216,新規,0,2025-12-04,2025-12-04,合同会社Ｎ・クリエイト,,合同会社,埼玉県,さいたま市浦和区,常盤４丁目１１―４２,,11,107,3300061,,,,,,,2025-12-04,1,,,,,エヌクリエイト,0
375,2040001141531,新規,0,2025-12-04,2025-12-04,潤禾農業株式会社,,株式会社,千葉県,山武市,大木８２６－２８,,12,237,2891211,,,,,,,2025-12-04,1,,,,,ジュンカノウギョウ,0
376,2040001141622,新規,0,2025-12-04,2025-12-04,株式会社グローバルテラス,,株式会社,千葉県,千葉市美浜区,中瀬１丁目６番地エム・ベイポイント幕張５階,,12,106,2610023,,,,,,,2025-12-04,1,,,,,グローバルテラス,0
377,2040001141696,新規,0,2025-12-04,2025-12-04,株式会社ボンドデザイン,,株式会社,千葉県,船橋市,藤原６丁目４番２２号,,12,204,2730047,,,,,,,2025-12-04,1,,,,,ボンドデザイン,0
378,2040003029048,新規,0,2025-12-04,2025-12-04,合同会社望舒オリゴファーム,,合同会社,千葉県,木更津市,畑沢南６丁目１８－１７,,12,206,2920826,,,,,,,2025-12-04,1,,,,,ワンシュオリゴファーム,0
380,2050002032893,新規,0,2025-12-04,2025-12-04,有限会社小中興業,,有限会社,茨城県,北茨城市,平潟町字小中８９８番地の３,,08,215,3191701,,,,,,,2025-12-04,1,,,,,コナカコウギョウ,0
381,2060001038825,新規,0,2025-12-04,2025-12-04,朔永工業株式会社,,株式会社,栃木県,宇都宮市,元今泉３丁目１２番１４号サーパス元今泉レジデンス４０５,,09,201,3210954,,,,,,,2025-12-04,1,,,,,サクエイコウギョウ,0
382,2060003005872,新規,0,2025-12-04,2025-12-04,合同会社ｄｏｔｓｗｏｒｋｓ,,合同会社,栃木県,鹿沼市,坂田山３丁目２００,,09,205,3220069,,,,,,,2025-12-04,1,,,,,ドットワークス,0
385,2080001027297,新規,0,2025-12-04,2025-12-04,日郊ハウス株式会社,,株式会社,静岡県,静岡市葵区,三番町３５番地の１,,22,101,4200073,,,,,,,2025-12-04,1,,,,,,0
390,2080105006552,新規,0,2025-12-04,2025-12-04,一般社団法人リリーベルクラシックバレエカンパニー,,その他の設立登記法人,静岡県,沼津市,西島町１７番１５号サンコーポ上香貫７０１,,22,203,4100835,,,,,,,2025-12-04,1,,,,,リリーベルクラシックバレエカンパニー,0
394,2100001039158,新規,0,2025-12-04,2025-12-04,ｆｉｌ　Ｗｏｒｋｓ株式会社,,株式会社,長野県,上田市,上田１４９８番地２,,20,203,3860001,,,,,,,2025-12-04,1,,,,,フィルワークス,0
395,2100001039166,新規,0,2025-12-04,2025-12-04,株式会社ライフタイム．,,株式会社,長野県,松本市,大字島立１１１２番地４,,20,202,3900852,,,,,,,2025-12-04,1,,,,,ライフタイム,0
406,2120001282391,新規,0,2025-12-04,2025-12-04,明慧株式会社,,株式会社,大阪府,大阪市東淀川区,東中島１丁目１７番５号ステュディオ新大阪１１５０号室,,27,114,5330033,,,,,,,2025-12-04,1,,,,,メイケイ,0
407,2120001282458,新規,0,2025-12-04,2025-12-04,Ｇ．ＥＮ株式会社,,株式会社,大阪府,大阪市住之江区,西住之江３丁目１５－２２－２０３号室,,27,125,5590005,,,,,,,2025-12-04,1,,,,,ジェン,0
408,2120001282466,新規,0,2025-12-04,2025-12-04,ＷＩＮＤ＆ＦＬＡＶＡ株式会社,,株式会社,大阪府,大阪市中央区,難波１丁目４番６号ミフネ難波ビル３階,,27,128,5420076,,,,,,,2025-12-04,1,,,,,ウィンドアンドフレイヴァ,0
409,2120001282474,新規,0,2025-12-04,2025-12-04,株式会社ＥＳＴ,,株式会社,大阪府,大阪市東住吉区,照ケ丘矢田２丁目１１番１５号オレンジハイツ２０１,,27,121,5460021,,,,,,,2025-12-04,1,,,,,エスト,0
410,2120001282490,新規,0,2025-12-04,2025-12-04,ＤｏｕＤｏｕＢｅａｒ株式会社,,株式会社,大阪府,大阪市淀川区,西宮原１丁目８番２４号新大阪第３ドイビル６Ｆ,,27,123,5320004,,,,,,,2025-12-04,1,,,,,ドウドウベアー,0
411,2120001282499,新規,0,2025-12-04,2025-12-04,株式会社ソーラーリサイクラー,,株式会社,大阪府,大阪市東淀川区,東淡路２丁目７‐７,,27,114,5330023,,,,,,,2025-12-04,1,,,,,ソーラーリサイクラー,0
412,2120001282532,新規,0,2025-12-04,2025-12-04,株式会社アライブブルーム,,株式会社,大阪府,大阪市東成区,東中本２丁目１３番１３号１階,,27,115,5370021,,,,,,,2025-12-04,1,,,,,アライブブルーム,0
419,2120003031375,新規,0,2025-12-04,2025-12-04,合同会社大河,,合同会社,大阪府,大阪市西成区,北津守４丁目５番８号,,27,122,5570061,,,,,,,2025-12-04,1,,,,,タイガ,0
420,2120003031391,新規,0,2025-12-04,2025-12-04,Ｐａｒａｇｕａｓ合同会社,,合同会社,大阪府,大阪市住之江区,南港北１丁目２９‐１‐１２１７,,27,125,5590034,,,,,,,2025-12-04,1,,,,,パラガス,0
435,2130001081140,新規,0,2025-12-04,2025-12-04,株式会社Ｓｈｉｎｅ　Ｄａｙｓ,,株式会社,京都府,京都市西京区,樫原山ノ上町３番地２,,26,111,6158163,,,,,,,2025-12-04,1,,,,,シャインデイズ,0
437,2130005017529,新規,0,2025-12-04,2025-12-04,一般財団法人京都五山送り火連合会,,その他の設立登記法人,京都府,京都市左京区,松ケ崎海尻町２番地,,26,103,6060953,,,,,,,2025-12-04,1,,,,,キョウトゴザンオクリビレンゴウカイ,0
447,2140001140977,新規,0,2025-12-04,2025-12-04,株式会社ＪＥＷＥＬ　ＯＮＥ,,株式会社,兵庫県,淡路市,志筑２８３２番地２,,28,226,6562131,,,,,,,2025-12-04,1,,,,,ジュエルワン,0
448,2140005027717,新規,0,2025-12-04,2025-12-04,一般財団法人富士貿易海洋環境財団,,その他の設立登記法人,兵庫県,神戸市東灘区,深江浜町６番地,,28,101,6580023,,,,,,,2025-12-04,1,,,,,フジボウエキカイヨウカンキョウザイダン,0
450,2150003003768,新規,0,2025-12-04,2025-12-04,合同会社ほがらか,,合同会社,奈良県,生駒市,小瀬町８９５番地９,,29,209,6300223,,,,,,,2025-12-04,1,,,,,ホガラカ,0
455,2160001027264,新規,0,2025-12-04,2025-12-04,株式会社アヴァンス,,株式会社,滋賀県,大津市,一里山３丁目３９番５０号,,25,201,5202153,,,,,,,2025-12-04,1,,,,,アヴァンス,0
456,2160003003668,新規,0,2025-12-04,2025-12-04,リードリンクス合同会社,,合同会社,滋賀県,大津市,松山町７番２８－３１３号,,25,201,5200024,,,,,,,2025-12-04,1,,,,,リードリンクス,0
470,2180003029447,新規,0,2025-12-04,2025-12-04,合同会社ＺＥＯＮ,,合同会社,愛知県,名古屋市港区,当知３丁目２１１３番地の１ＡｄｅｌｅＤ号,,23,111,4550804,,,,,,,2025-12-04,1,,,,,ジオン,0
471,2180303006831,新規,0,2025-12-04,2025-12-04,Ｌｕｎｅａ合同会社,,合同会社,愛知県,岡崎市,羽根町字小豆坂１６１番地１,,23,202,4440814,,,,,,,2025-12-04,1,,,,,ルネア,0
476,2200001044486,新規,0,2025-12-04,2025-12-04,株式会社ウィップラッシュ,,株式会社,岐阜県,岐阜市,下奈良２丁目１０番１７－１号,,21,201,5008385,,,,,,,2025-12-04,1,,,,,ウィップラッシュ,0
487,2230005009508,新規,0,2025-12-04,2025-12-04,特定非営利活動法人コトつなぎ,,その他の設立登記法人,富山県,高岡市,常国４９０番地,,16,202,9391251,,,,,,,2025-12-04,1,,,,,コトツナギ,0
488,2240001065867,新規,0,2025-12-04,2025-12-04,株式会社ＤＯＮＹＯＫＵ,,株式会社,広島県,広島市佐伯区,五日市２丁目５番４号,,34,108,7315127,,,,,,,2025-12-04,1,,,,,ドンヨク,0
489,2240003007504,新規,0,2025-12-04,2025-12-04,合同会社ＩＢＯ,,合同会社,広島県,尾道市,因島大浜町１６６３番地３,,34,205,7222101,,,,,,,2025-12-04,1,,,,,アイビーオー,0
492,2270003001818,新規,0,2025-12-04,2025-12-04,合同会社ｉ．ｂａｓｅ,,合同会社,鳥取県,東伯郡琴浦町,大字八橋７７５番地１１６,,31,371,6892301,,,,,,,2025-12-04,1,,,,,アイベース,0
497,2290005019889,新規,0,2025-12-04,2025-12-04,一般社団法人九州人的資本経営推進協会,,その他の設立登記法人,福岡県,福岡市博多区,博多駅前２丁目５番８号ベルコモンズ博多８階,,40,132,8120011,,,,,,,2025-12-04,1,,,,,キュウシュウジンテキシホンケイエイスイシンキョウカイ,0
502,2340001027816,新規,0,2025-12-04,2025-12-04,株式会社ｄａｚｚｌｉｇｈｔ,,株式会社,鹿児島県,鹿児島市,吉野町２６４９番地２１,,46,201,8920871,,,,,,,2025-12-04,1,,,,,ダズライト,0
504,2340003005035,新規,0,2025-12-04,2025-12-04,合同会社ｍｉｃｈｉｋｕｓａ,,合同会社,鹿児島県,大島郡喜界町,大字坂嶺字鶴女田１９３７番１,,46,529,8916216,,,,,,,2025-12-04,1,,,,,ミチクサ,0
505,2350001019837,新規,0,2025-12-04,2025-12-04,株式会社龍真,,株式会社,宮崎県,日向市,東郷町山陰甲２３６番地２８０,,45,206,8891121,,,,,,,2025-12-04,1,,,,,リュウシン,0
507,2360001036096,新規,0,2025-12-04,2025-12-04,株式会社松竹梅,,株式会社,沖縄県,宜野湾市,我如古４丁目３番１６号１Ｆ,,47,205,9012214,,,,,,,2025-12-04,1,,,,,ショウチクバイ,0
512,2360003015437,新規,0,2025-12-04,2025-12-04,合同会社Ｄｅｅｊｉ＆Ｄａｉｓｙ,,合同会社,沖縄県,石垣市,字真栄里４４９－１サザンスターハイツ１－Ｂ,,47,207,9070002,,,,,,,2025-12-04,1,,,,,デージアンドデイジー,0
516,2380001035740,新規,0,2025-12-04,2025-12-04,株式会社木村建設興業,,株式会社,福島県,いわき市,小名浜大原字丁新地２９９番地,,07,204,9718111,,,,,,,2025-12-04,1,,,,,キムラケンセツコウギョウ,0
524,2390001018174,新規,0,2025-12-04,2025-12-04,株式会社Ｇｅｋｋａ,,株式会社,山形県,山形市,嶋南３丁目８番２７号,,06,201,9900886,,,,,,,2025-12-04,1,,,,,ゲッカ,0
530,2400003003569,新規,0,2025-12-04,2025-12-04,合同会社たっしょ屋,,合同会社,岩手県,宮古市,川井第１地割８０番地４,,03,202,0282302,,,,,,,2025-12-04,1,,,,,タッショヤ,0
538,2430001095779,新規,0,2025-12-04,2025-12-04,株式会社Ｅａｒｔｈ,,株式会社,北海道,札幌市北区,屯田四条１丁目２番８号,,01,102,0020854,,,,,,,2025-12-04,1,,,,,アース,0
539,2430001095795,新規,0,2025-12-04,2025-12-04,建築工房ダイジュ株式会社,,株式会社,北海道,札幌市白石区,北郷七条９丁目５番１２号,,01,104,0030837,,,,,,,2025-12-04,1,,,,,ケンチクコウボウダイジュ,0
540,2430003018382,新規,0,2025-12-04,2025-12-04,合同会社ケア・ステラ,,合同会社,北海道,滝川市,本町５丁目５番１３号,,01,225,0730021,,,,,,,2025-12-04,1,,,,,ケアステラ,0
541,2430003018390,新規,0,2025-12-04,2025-12-04,合同会社ｂａ‐ｈｏ,,合同会社,北海道,札幌市白石区,栄通２丁目７番１２－３０２号,,01,104,0030021,,,,,,,2025-12-04,1,,,,,バーホ,0
547,2450003002748,新規,0,2025-12-04,2025-12-04,ＳＫＹ合同会社,,合同会社,北海道,旭川市,神楽三条１０丁目１番３号,,01,204,0708003,,,,,,,2025-12-04,1,,,,,スカイ,0
552,2480003002357,新規,0,2025-12-04,2025-12-04,合同会社ＳＵＧＡＫＥ,,合同会社,徳島県,阿波市,吉野町柿原字小島２９,,36,206,7711401,,,,,,,2025-12-04,1,,,,,スガケ,0
563,3010001260787,新規,0,2025-12-04,2025-12-04,株式会社ＡＹＡＴＯＲＩ．,,株式会社,東京都,千代田区,神田和泉町１番地６－１６ヤマトビル４０５,,13,101,1010024,,,,,,,2025-12-04,1,,,,,アヤトリ,0
564,3010001260812,新規,0,2025-12-04,2025-12-04,株式会社ｍｉｒａｉｚ,,株式会社,東京都,千代田区,有楽町１丁目７番１号有楽町電気ビル南館９階,,13,101,1000006,,,,,,,2025-12-04,1,,,,,ミライズ,0
565,3010001260820,新規,0,2025-12-04,2025-12-04,株式会社フォーチュンクリエイトラボ,,株式会社,東京都,中央区,銀座１丁目２２番１１号２階,,13,102,1040061,,,,,,,2025-12-04,1,,,,,フォーチュンクリエイトラボ,0
566,3010001260837,新規,0,2025-12-04,2025-12-04,株式会社ＧＲＡＰＨＥＮＡＵＴ,,株式会社,東京都,中央区,銀座１丁目１２番４号Ｎ＆ＥＢＬＤ．６Ｆ,,13,102,1040061,,,,,,,2025-12-04,1,,,,,グラフェナウト,0
568,3010003049568,新規,0,2025-12-04,2025-12-04,スマートプラス債権第１号合同会社,,合同会社,東京都,中央区,銀座３丁目１０番９号ＫＥＣ銀座ビル８階マクシブ総合会計事務所内,,13,102,1040061,,,,,,,2025-12-04,1,,,,,スマートプラスサイケンダイイチゴウ,0
569,3010003049576,新規,0,2025-12-04,2025-12-04,ハニカム９ホールディング合同会社,,合同会社,東京都,千代田区,丸の内１丁目９番２号,,13,101,1000005,,,,,,,2025-12-04,1,,,,,ハニカムナインホールディング,0
570,3010003049584,新規,0,2025-12-04,2025-12-04,ＶＩＺ　Ｍｅｄｉａ　Ｊａｐａｎ合同会社,,合同会社,東京都,千代田区,大手町１丁目７番２号東京サンケイビル２７階,,13,101,1000004,,,,,,,2025-12-04,1,,,,,ビズメディアジャパン,0
577,3010401194627,新規,0,2025-12-04,2025-12-04,株式会社ハイアーグラウンド・リバイブ,,株式会社,東京都,港区,赤坂４丁目１４番１４号,,13,103,1070052,,,,,,,2025-12-04,1,,,,,ハイアーグラウンドリバイブ,0
578,3010401194908,新規,0,2025-12-04,2025-12-04,Ｊａｐａｎ　Ａｒａｂｉａ株式会社,,株式会社,東京都,港区,芝３丁目２番１８号ＩＣＯＮＰＬＡＣＥＳＨＩＢＡＫＯＥＮ１Ｆ,,13,103,1050014,,,,,,,2025-12-04,1,,,,,ジャパンアラビア,0
579,3010401194916,新規,0,2025-12-04,2025-12-04,株式会社クロノスタジオ・ジャパン,,株式会社,東京都,港区,六本木１丁目４番５号アークヒルズサウスタワー１６階,,13,103,1060032,,,,,,,2025-12-04,1,,,,,クロノスタジオジャパン,0
582,3010405025035,新規,0,2025-12-04,2025-12-04,一般社団法人ＡＣＰサポートセンター,,その他の設立登記法人,東京都,港区,高輪２丁目１番１３号－８Ｆ,,13,103,1080074,,,,,,,2025-12-04,1,,,,,エーシーピーサポートセンター,0
587,3010501055126,新規,0,2025-12-04,2025-12-04,株式会社Ｄ．Ｉ．Ｍ．,,株式会社,東京都,台東区,上野１丁目１７番６号広小路ビル８Ｆ－Ｂ,,13,106,1100005,,,,,,,2025-12-04,1,,,,,ディーアイエム,0
589,3010703008022,新規,0,2025-12-04,2025-12-04,合同会社ＬｅｅＫ,,合同会社,東京都,品川区,西五反田１丁目２６番２号五反田サンハイツ９１１,,13,109,1410031,,,,,,,2025-12-04,1,,,,,リーケ,0
593,3010903010463,新規,0,2025-12-04,2025-12-04,合同会社ネクサスパートナーズ,,合同会社,東京都,世田谷区,喜多見４丁目１６番２７号シーズンステージ喜多見１０９,,13,112,1570067,,,,,,,2025-12-04,1,,,,,ネクサスパートナーズ,0
599,3011001173558,新規,0,2025-12-04,2025-12-04,株式会社ＢｅＬｕｍｅ,,株式会社,東京都,渋谷区,円山町５番３号ＭＩＥＵＸ渋谷ビル８階,,13,113,1500044,,,,,,,2025-12-04,1,,,,,ビールーム,0
600,3011001174242,新規,0,2025-12-04,2025-12-04,株式会社ｗｅｌｌｍａｄｅ,,株式会社,東京都,目黒区,下目黒１丁目１番１４号コノトラビル７Ｆ,,13,110,1530064,,,,,,,2025-12-04,1,,,,,ウェルメイド,0
602,3011003022960,新規,0,2025-12-04,2025-12-04,合同会社Ｆｌｅｕｒ　ｄ’Ｏｒ,,合同会社,東京都,目黒区,三田２丁目７‐１５三田ＮＴレジデンス３０３,,13,110,1530062,,,,,,,2025-12-04,1,,,,,フルールドール,0
608,3011101114172,新規,0,2025-12-04,2025-12-04,株式会社ｎａｇｏｒｉ,,株式会社,東京都,新宿区,西新宿３丁目３番１３号西新宿水間ビル２Ｆ,,13,104,1600023,,,,,,,2025-12-04,1,,,,,ナゴリ,0
612,3011103016813,新規,0,2025-12-04,2025-12-04,合同会社０１,,合同会社,東京都,新宿区,新宿４丁目３番１５号レイフラット新宿Ｂ棟３Ｆ,,13,104,1600022,,,,,,,2025-12-04,1,,,,,ゼロイチ,0
614,3011301031093,新規,0,2025-12-04,2025-12-04,株式会社東京女子経営塾,,株式会社,東京都,杉並区,善福寺２丁目６番１号,,13,115,1670041,,,,,,,2025-12-04,1,,,,,トウキョウジョシケイエイジュク,0
616,3011501032882,新規,0,2025-12-04,2025-12-04,株式会社オージーエル,,株式会社,東京都,北区,王子３丁目２番７号,,13,117,1140002,,,,,,,2025-12-04,1,,,,,オージーエル,0
617,3011503006793,新規,0,2025-12-04,2025-12-04,合同会社ＲＲ,,合同会社,東京都,荒川区,西尾久３丁目１０番１４号,,13,118,1160011,,,,,,,2025-12-04,1,,,,,ダブルアール,0
619,3011701028986,新規,0,2025-12-04,2025-12-04,Ｊａｐａｎ　Ｔｏｕｒｓ　Ｉｎｄｏｋａｒａ株式会社,,株式会社,東京都,江戸川区,船堀７丁目５番１４号,,13,123,1340091,,,,,,,2025-12-04,1,,,,,ジャパンツアーズインドカラ,0
621,3012301014609,新規,0,2025-12-04,2025-12-04,株式会社ミルキーウェイ,,株式会社,東京都,町田市,金井４丁目４番８号,,13,209,1950072,,,,,,,2025-12-04,1,,,,,ミルキーウェイ,0
638,3020001166117,新規,0,2025-12-04,2025-12-04,株式会社大矢養鶏,,株式会社,神奈川県,横浜市泉区,和泉町５０７８番地,,14,116,2450016,,,,,,,2025-12-04,1,,,,,オオヤヨウケイ,0
639,3020001166133,新規,0,2025-12-04,2025-12-04,株式会社大黒天,,株式会社,神奈川県,川崎市宮前区,宮前平２丁目９番地３マイキャッスル宮前平４０３,,14,136,2160006,,,,,,,2025-12-04,1,,,,,ダイコクテン,0
653,3030001169861,新規,0,2025-12-04,2025-12-04,株式会社ＦＲＥＥ　ＳＴＹＬＥ,,株式会社,埼玉県,新座市,あたご３丁目１２番１２号２Ｆ右,,11,230,3520021,,,,,,,2025-12-04,1,,,,,フリースタイル,0
657,3030003028157,新規,0,2025-12-04,2025-12-04,プレミアムエージェント合同会社,,合同会社,埼玉県,さいたま市大宮区,桜木町２丁目３番地大宮マルイ７階,,11,103,3300854,,,,,,,2025-12-04,1,,,,,プレミアムエージェント,0
658,3030005022356,新規,0,2025-12-04,2025-12-04,一般社団法人みより,,その他の設立登記法人,埼玉県,本庄市,見福４丁目９番１号末広ハイツ１０１,,11,211,3670044,,,,,,,2025-12-04,1,,,,,ミヨリ,0
665,3040001141588,新規,0,2025-12-04,2025-12-04,株式会社島田設備,,株式会社,千葉県,柏市,豊住４丁目１番２０－１０２号,,12,217,2770071,,,,,,,2025-12-04,1,,,,,シマダセツビ,0
666,3040001141621,新規,0,2025-12-04,2025-12-04,株式会社頂,,株式会社,千葉県,柏市,若柴９７番地６ワザック柏の葉キャンパス２０３号,,12,217,2770871,,,,,,,2025-12-04,1,,,,,イタダキ,0
667,3040001141695,新規,0,2025-12-04,2025-12-04,株式会社和美茶美,,株式会社,千葉県,柏市,若柴２２７番地６パークシティ柏の葉キャンパス二番街コモンＡｒｏｏｍ３,,12,217,2770871,,,,,,,2025-12-04,1,,,,,ワビサビ,0
678,3050001057651,新規,0,2025-12-04,2025-12-04,Ａ‐ＮＥＸＴホールディングス株式会社,,株式会社,茨城県,水戸市,吉沢町５６７番地,,08,201,3100845,,,,,,,2025-12-04,1,,,,,エーネクストホールディングス,0
679,3050001057692,新規,0,2025-12-04,2025-12-04,株式会社ＴＨＴ,,株式会社,茨城県,つくば市,東新井８番地１ブルーボックス３０１号,,08,220,3050033,,,,,,,2025-12-04,1,,,,,ティーエイチティー,0
681,3060001038808,新規,0,2025-12-04,2025-12-04,株式会社ＧＳ．ダイヤ,,株式会社,栃木県,下都賀郡野木町,大字友沼４７８４番地３,,09,364,3290101,,,,,,,2025-12-04,1,,,,,ジーエスダイヤ,0
682,3060001038816,新規,0,2025-12-04,2025-12-04,ＮＫＣ工務店株式会社,,株式会社,栃木県,真岡市,下籠谷４８４１番地,,09,209,3214415,,,,,,,2025-12-04,1,,,,,エヌケイシーコウムテン,0
691,3100001039140,新規,0,2025-12-04,2025-12-04,株式会社信旬,,株式会社,長野県,長野市,大字南長野字石堂南１２７９番地４センタープラザ４階４０２号室,,20,201,3810000,,,,,,,2025-12-04,1,,,,,シンシュン,0
695,3110005017298,新規,0,2025-12-04,2025-12-04,農事組合法人巾農耕舎,,その他の設立登記法人,新潟県,佐渡市,金井新保乙６６２番地,,15,224,9521208,,,,,,,2025-12-04,1,,,,,ハバノウコウシャ,0
712,3120001282440,新規,0,2025-12-04,2025-12-04,万凱株式会社,,株式会社,大阪府,大阪市西成区,千本南１丁目１５－６ペイントハウス千本南２Ｂ,,27,122,5570055,,,,,,,2025-12-04,1,,,,,マンカイ,0
713,3120001282449,新規,0,2025-12-04,2025-12-04,株式会社コーガ,,株式会社,大阪府,大阪市鶴見区,浜４丁目８番２０号,,27,124,5380035,,,,,,,2025-12-04,1,,,,,コーガ,0
714,3120001282465,新規,0,2025-12-04,2025-12-04,株式会社Ｆ’ｓ,,株式会社,大阪府,大阪市中央区,南船場２丁目２番２－３０４号,,27,128,5420081,,,,,,,2025-12-04,1,,,,,エフエス,0
715,3120001282473,新規,0,2025-12-04,2025-12-04,株式会社リライフデザイン,,株式会社,大阪府,大阪市淀川区,東三国１丁目５番１６号,,27,123,5320002,,,,,,,2025-12-04,1,,,,,リライフデザイン,0
718,3120003031291,新規,0,2025-12-04,2025-12-04,合同会社Ｂｅｌｖｉａ,,合同会社,大阪府,大阪市東成区,大今里南１丁目１－２３ＦＯＲＵＭＰＬＡＣＥ今里駅前５０２,,27,115,5370013,,,,,,,2025-12-04,1,,,,,ベルヴィア,0
719,3120003031374,新規,0,2025-12-04,2025-12-04,合同会社Ｒｉｔａ,,合同会社,大阪府,大阪市北区,西天満２丁目７番２６号徳矢ビル１Ｆ,,27,127,5300047,,,,,,,2025-12-04,1,,,,,リタ,0
720,3120003031382,新規,0,2025-12-04,2025-12-04,合同会社ＮＥＶＩＡ,,合同会社,大阪府,大阪市東住吉区,針中野４丁目１０番４号エレガンシア４０２号,,27,121,5460011,,,,,,,2025-12-04,1,,,,,ネビア,0
721,3120003031424,新規,0,2025-12-04,2025-12-04,合同会社ツナガリヤ,,合同会社,大阪府,大阪市西区,土佐堀１丁目４番６号６Ａ,,27,106,5500001,,,,,,,2025-12-04,1,,,,,ツナガリヤ,0
723,3120005025283,新規,0,2025-12-04,2025-12-04,一般社団法人日中文化教育交流協会,,その他の設立登記法人,大阪府,大阪市城東区,東中浜６丁目１３－２３,,27,118,5360023,,,,,,,2025-12-04,1,,,,,ニッチュウブンカキョウイクコウリュウキョウカイ,0
732,3122001039993,新規,0,2025-12-04,2025-12-04,株式会社美心,,株式会社,大阪府,八尾市,東山本新町２丁目８番１９号,,27,212,5810866,,,,,,,2025-12-04,1,,,,,ビシン,0
738,3130001081156,新規,0,2025-12-04,2025-12-04,株式会社Ｔｈｅ　Ｏｔｈｅｒ　Ｗｏｒｌｄ　ＺＥＮ,,株式会社,京都府,京都市左京区,下鴨東高木町１２番地２,,26,103,6060865,,,,,,,2025-12-04,1,,,,,ジアザーワールドゼン,0
741,3130003010971,新規,0,2025-12-04,2025-12-04,やまとなでしこ合同会社,,合同会社,京都府,京都市右京区,嵯峨五島町３３番地１１,,26,108,6168362,,,,,,,2025-12-04,1,,,,,ヤマトナデシコ,0
747,3140003022917,新規,0,2025-12-04,2025-12-04,合同会社Ａｓ‐Ｌｉｎｋｓ,,合同会社,兵庫県,宝塚市,山本台３丁目１６番１－１０１２号,,28,214,6650885,,,,,,,2025-12-04,1,,,,,アズリンクス,0
748,3140005027724,新規,0,2025-12-04,2025-12-04,ＮＰＯ法人グリーンサウンドスタジアム,,その他の設立登記法人,兵庫県,西宮市,甲子園町１６番１号,,28,204,6638152,,,,,,,2025-12-04,1,,,,,グリーンサウンドスタジアム,0
751,3150001028576,新規,0,2025-12-04,2025-12-04,株式会社ＬＵＸＹ,,株式会社,奈良県,香芝市,関屋北２丁目３番１９号,,29,210,6390254,,,,,,,2025-12-04,1,,,,,ラグジー,0
753,3150003003767,新規,0,2025-12-04,2025-12-04,合同会社すてっぷ,,合同会社,奈良県,奈良市,平松５丁目２７番８号,,29,201,6310846,,,,,,,2025-12-04,1,,,,,ステップ,0
763,3180001169509,新規,0,2025-12-04,2025-12-04,月詠コス株式会社,,株式会社,愛知県,名古屋市中村区,名駅４丁目２４番５号第２森ビル４０１,,23,105,4500002,,,,,,,2025-12-04,1,,,,,ツクヨミコス,0
764,3180001169772,新規,0,2025-12-04,2025-12-04,株式会社ＲｅＮｏｖａ,,株式会社,愛知県,名古屋市東区,泉３丁目１１番２２号プレサンスグラン泉８０１号,,23,102,4610001,,,,,,,2025-12-04,1,,,,,リノヴァ,0
767,3180003029438,新規,0,2025-12-04,2025-12-04,合同会社ＴＥＴＳＵＺＩ,,合同会社,愛知県,名古屋市南区,呼続２丁目１５番２２号,,23,112,4570014,,,,,,,2025-12-04,1,,,,,テツジ,0
772,3210003001979,新規,0,2025-12-04,2025-12-04,合同会社友仁社,,合同会社,福井県,福井市,木田町５番地１ロアール春日南３０８,,18,201,9188106,,,,,,,2025-12-04,1,,,,,ユウジンシャ,0
774,3220001027050,新規,0,2025-12-04,2025-12-04,株式会社ＳＥＲＥＮＢＩ,,株式会社,石川県,金沢市,北町乙２番地１ソレイユＭＳ・Ａ棟１号,,17,201,9200055,,,,,,,2025-12-04,1,,,,,セレンビ,0
778,3230001021201,新規,0,2025-12-04,2025-12-04,株式会社ｍ‐ｃｒｅａｔｅ,,株式会社,富山県,富山市,四方荒屋１７８７番地５,,16,201,9302243,,,,,,,2025-12-04,1,,,,,エムクリエイト,0
779,3240001065858,新規,0,2025-12-04,2025-12-04,株式会社ＶＵＥＬＴＡ,,株式会社,広島県,広島市西区,東観音町２４－１１－ＳｈｉｒｅＯｂｅｒｓｔ２０１号,,34,104,7330032,,,,,,,2025-12-04,1,,,,,ブエルタ,0
780,3240001065874,新規,0,2025-12-04,2025-12-04,株式会社ＮＥＲＩ,,株式会社,広島県,広島市中区,大手町１丁目１番２６号大手町一番ビル３０５,,34,101,7300051,,,,,,,2025-12-04,1,,,,,ネリ,0
782,3240003007503,新規,0,2025-12-04,2025-12-04,アシストサービス合同会社,,合同会社,広島県,安芸郡坂町,平成ヶ浜５丁目２番１７－１００２号,,34,309,7314312,,,,,,,2025-12-04,1,,,,,アシストサービス,0
787,3260001040784,新規,0,2025-12-04,2025-12-04,株式会社ＨＡＰｒｏｊｅｃｔ,,株式会社,岡山県,岡山市中区,八幡１４５番地１,,33,102,7038254,,,,,,,2025-12-04,1,,,,,エイチエープロジェクト,0
788,3260001040792,新規,0,2025-12-04,2025-12-04,Ａ‐ＢＥＬＬ株式会社,,株式会社,岡山県,岡山市北区,伊島町１丁目５番７号,,33,101,7000016,,,,,,,2025-12-04,1,,,,,エーベル,0
811,3330001033797,新規,0,2025-12-04,2025-12-04,株式会社Ｈａｖａｎａ’８５,,株式会社,熊本県,熊本市中央区,神水２丁目１１番１５号,,43,101,8620954,,,,,,,2025-12-04,1,,,,,ハバナエイティーファイブ,0
815,3340001027823,新規,0,2025-12-04,2025-12-04,株式会社ＣａｎＴｅａ,,株式会社,鹿児島県,南九州市,頴娃町郡６１０９番地,,46,223,8910701,,,,,,,2025-12-04,1,,,,,キャンティー,0
817,3350001019836,新規,0,2025-12-04,2025-12-04,リベリオン株式会社,,株式会社,宮崎県,都城市,大王町５６番地７号,,45,202,8850026,,,,,,,2025-12-04,1,,,,,リベリオン,0
819,3350003005090,新規,0,2025-12-04,2025-12-04,合同会社ＨＩＴＯＴＳＵ,,合同会社,宮崎県,小林市,水流迫１０４６番地５,,45,205,8860002,,,,,,,2025-12-04,1,,,,,ヒトツ,0
820,3350005006343,新規,0,2025-12-04,2025-12-04,一般社団法人宮崎県安全施設業協会,,その他の設立登記法人,宮崎県,宮崎市,清水１丁目１２番６号,,45,201,8800021,,,,,,,2025-12-04,1,,,,,ミヤザキケンアンゼンシセツギョウキョウカイ,0
824,3360001036104,新規,0,2025-12-04,2025-12-04,株式会社にっこう,,株式会社,沖縄県,那覇市,宮城１丁目１４番５号日興マンション１階,,47,201,9010147,,,,,,,2025-12-04,1,,,,,ニッコウ,0
828,3360003015444,新規,0,2025-12-04,2025-12-04,合同会社奥原塗装工業,,合同会社,沖縄県,宮古島市,平良字西里１１０６番地本村アパート１０２号室,,47,214,9060012,,,,,,,2025-12-04,1,,,,,オクハラトソウコウギョウ,0
829,3360005007324,新規,0,2025-12-04,2025-12-04,一般社団法人日本ラドン科学技術者協会,,その他の設立登記法人,沖縄県,うるま市,字田場１８１８番地,,47,213,9042213,,,,,,,2025-12-04,1,,,,,ニホンラドンカガクギジュツシャキョウカイ,0
830,3370001053255,新規,0,2025-12-04,2025-12-04,ＴｅｃｏｎａＡＩ株式会社,,株式会社,宮城県,仙台市青葉区,本町１丁目５番２８号カーニープレイス仙台駅前通６０３号室,,04,101,9800014,,,,,,,2025-12-04,1,,,,,テコナエーアイ,0
831,3370001053288,新規,0,2025-12-04,2025-12-04,株式会社ＨＩＢＲＩＤＧＥ,,株式会社,宮城県,仙台市泉区,野村字山下７番地,,04,105,9813124,,,,,,,2025-12-04,1,,,,,ハイブリッジ,0
834,3410001014335,新規,0,2025-12-04,2025-12-04,株式会社ｏｎｏｚｕｃｏｌｏｒ,,株式会社,秋田県,秋田市,保戸野原の町７‐６８,,05,201,0100904,,,,,,,2025-12-04,1,,,,,オノズカラー,0
840,3430001095761,新規,0,2025-12-04,2025-12-04,株式会社ＭＡＲＫＯ,,株式会社,北海道,札幌市西区,宮の沢一条１丁目７番１０号,,01,107,0630051,,,,,,,2025-12-04,1,,,,,マルコ,0
841,3430001095786,新規,0,2025-12-04,2025-12-04,株式会社えすえふ,,株式会社,北海道,室蘭市,寿町１丁目５番１７号,,01,205,0500082,,,,,,,2025-12-04,1,,,,,エスエフ,0
842,3430001095794,新規,0,2025-12-04,2025-12-04,株式会社エスケーサービス,,株式会社,北海道,札幌市北区,新川二条１０丁目１番５４号,,01,102,0010922,,,,,,,2025-12-04,1,,,,,エスケーサービス,0
843,3430001095803,新規,0,2025-12-04,2025-12-04,鬼神警備株式会社,,株式会社,北海道,登別市,若草町６丁目１５番地３６,,01,230,0590035,,,,,,,2025-12-04,1,,,,,キシンケイビ,0
846,3430003018373,新規,0,2025-12-04,2025-12-04,合同会社上川工業,,合同会社,北海道,札幌市東区,北二十条東１９丁目１－１４,,01,103,0650020,,,,,,,2025-12-04,1,,,,,カミカワコウギョウ,0
847,3430003018381,新規,0,2025-12-04,2025-12-04,合同会社きみイロ,,合同会社,北海道,札幌市中央区,南二条西５丁目３１－１ＲＭＢｌｄ．７０１,,01,101,0600062,,,,,,,2025-12-04,1,,,,,キミイロ,0
850,3470001021004,新規,0,2025-12-04,2025-12-04,株式会社Ｍｏｏｎ　Ｒａｂｂｉｔ,,株式会社,香川県,綾歌郡綾川町,枌所東３７４番地,,37,387,7612201,,,,,,,2025-12-04,1,,,,,ムーンラビット,0
852,3500001005449,新規,0,2025-12-04,2025-12-04,中村製材株式会社,,株式会社,愛媛県,松山市,西垣生町１７５８番地,,38,201,7918044,,,,,,,2025-12-04,1,,,,,,0
864,4010001260704,新規,0,2025-12-04,2025-12-04,株式会社ＷａＱＱ,,株式会社,東京都,文京区,千石１丁目１１番地７ふぁーむ文京２０２,,13,105,1120011,,,,,,,2025-12-04,1,,,,,ワック,0
865,4010001260778,新規,0,2025-12-04,2025-12-04,ＫＧリンク株式会社,,株式会社,東京都,千代田区,富士見２丁目１２－１６富士見フラワーハイホーム７０４,,13,101,1020071,,,,,,,2025-12-04,1,,,,,ケージーリンク,0
866,4010001260786,新規,0,2025-12-04,2025-12-04,株式会社ＫＩＮＥＴＩＣ,,株式会社,東京都,中央区,銀座１丁目１２番４号Ｎ＆ＥＢＬＤ．６Ｆ,,13,102,1040061,,,,,,,2025-12-04,1,,,,,キネティック,0
867,4010001260852,新規,0,2025-12-04,2025-12-04,和興インターナショナルジャパン株式会社,,株式会社,東京都,千代田区,内幸町２丁目１号１号飯野ビル９階,,13,101,1000011,,,,,,,2025-12-04,1,,,,,ワコウインターナショナルジャパン,0
868,4010001260893,新規,0,2025-12-04,2025-12-04,ナガレジャパン株式会社,,株式会社,東京都,中央区,銀座７丁目１３番２０号銀座ＴＨビル９階,,13,102,1040061,,,,,,,2025-12-04,1,,,,,ナガレジャパン,0
870,4010003049575,新規,0,2025-12-04,2025-12-04,ハニカム６ホールディング合同会社,,合同会社,東京都,千代田区,丸の内１丁目９番２号,,13,101,1000005,,,,,,,2025-12-04,1,,,,,ハニカムシックスホールディング,0
872,4010005041035,新規,0,2025-12-04,2025-12-04,一般社団法人Ｍｉｙａｇｉ　Ｍｏｔｏｙｏｓｈｉ　Ｓｏｌａｒ,,その他の設立登記法人,東京都,千代田区,霞が関３丁目２番５号,,13,101,1000013,,,,,,,2025-12-04,1,,,,,ミヤギモトヨシソーラー,0
880,4010405025091,新規,0,2025-12-04,2025-12-04,デルタインベストメンツ特定目的会社,,その他の設立登記法人,東京都,港区,六本木１丁目６番１号泉ガーデンタワー,,13,103,1060032,,,,,,,2025-12-04,1,,,,,デルタインベストメンツ,0
888,4010501055125,新規,0,2025-12-04,2025-12-04,株式会社ネオ・リンクス,,株式会社,東京都,台東区,根岸４丁目１３番２号,,13,106,1100003,,,,,,,2025-12-04,1,,,,,ネオリンクス,0
892,4010703008021,新規,0,2025-12-04,2025-12-04,合同会社ロックス,,合同会社,東京都,品川区,南大井２丁目７番６－８０５号,,13,109,1400013,,,,,,,2025-12-04,1,,,,,ロックス,0
904,4010801036849,新規,0,2025-12-04,2025-12-04,Ｔａｋｕｍｏ株式会社,,株式会社,東京都,大田区,大森北５丁目１６番１－１０３号,,13,111,1430016,,,,,,,2025-12-04,1,,,,,タクモ,0
905,4010801036857,新規,0,2025-12-04,2025-12-04,株式会社ＭＯＮＤＡＹ,,株式会社,東京都,大田区,西嶺町３３番６号,,13,111,1450075,,,,,,,2025-12-04,1,,,,,マンデー,0
910,4010903010454,新規,0,2025-12-04,2025-12-04,Ｒ．Ｋライフサポート合同会社,,合同会社,東京都,世田谷区,玉川田園調布１丁目１５番８号,,13,112,1580085,,,,,,,2025-12-04,1,,,,,アールケーライフサポート,0
911,4010903010462,新規,0,2025-12-04,2025-12-04,合同会社ライフアンドヘルス,,合同会社,東京都,世田谷区,松原２丁目２番１０号,,13,112,1560043,,,,,,,2025-12-04,1,,,,,ライフアンドヘルス,0
912,4010903010470,新規,0,2025-12-04,2025-12-04,ｍａｋｅｌｉｎｋ合同会社,,合同会社,東京都,世田谷区,南烏山４丁目２８―６グランエッグス千歳烏山Ｓ０３,,13,112,1570062,,,,,,,2025-12-04,1,,,,,メイクリンク,0
919,4011003023066,新規,0,2025-12-04,2025-12-04,合同会社岡本,,合同会社,東京都,目黒区,八雲５丁目９番１５号,,13,110,1520023,,,,,,,2025-12-04,1,,,,,オカモト,0
924,4011101114163,新規,0,2025-12-04,2025-12-04,株式会社カクシンソリューションズ,,株式会社,東京都,新宿区,西新宿７丁目１６番１３号末廣ビル３０１,,13,104,1600023,,,,,,,2025-12-04,1,,,,,カクシンソリューションズ,0
930,4011501032881,新規,0,2025-12-04,2025-12-04,株式会社ＡＲＡＭＩＣＨＩ,,株式会社,東京都,北区,浮間３丁目１３番１７－６０３号,,13,117,1150051,,,,,,,2025-12-04,1,,,,,アラミチ,0
934,4011701028993,新規,0,2025-12-04,2025-12-04,株式会社フミカ,,株式会社,東京都,江戸川区,西葛西２丁目２２番４５－６０５号,,13,123,1340088,,,,,,,2025-12-04,1,,,,,フミカ,0
936,4011703004472,新規,0,2025-12-04,2025-12-04,合同会社Ｙ＆Ｐ,,合同会社,東京都,江戸川区,南小岩６丁目３１番１０－１００６号プラウドタワー小岩ファースト,,13,123,1330056,,,,,,,2025-12-04,1,,,,,ワイアンドピー,0
942,4012303002255,新規,0,2025-12-04,2025-12-04,ヴィアベスト合同会社,,合同会社,東京都,町田市,玉川学園４丁目６－１３,,13,209,1940041,,,,,,,2025-12-04,1,,,,,ヴィアベスト,0
943,4012401043853,新規,0,2025-12-04,2025-12-04,ＮＩＴＲＯ　ＮｅｔＷｏｒｋｓ株式会社,,株式会社,東京都,府中市,本町１丁目１０番地の１１ヴィラージュ府中５０３,,13,206,1830027,,,,,,,2025-12-04,1,,,,,ニトロネットワークス,0
960,4020001166041,新規,0,2025-12-04,2025-12-04,Ｅｑｕ８Ｔｅｃｈｎｏｌｏｇｉｅｓ株式会社,,株式会社,神奈川県,横浜市西区,北幸２丁目１０番４８号むつみビル３階,,14,103,2200004,,,,,,,2025-12-04,1,,,,,エクエイト,0
961,4020001166058,新規,0,2025-12-04,2025-12-04,株式会社キキサポ,,株式会社,神奈川県,横浜市中区,不老町３丁目１２番地９,,14,104,2310032,,,,,,,2025-12-04,1,,,,,キキサポ,0
962,4020001166066,新規,0,2025-12-04,2025-12-04,株式会社リノセルジャパン,,株式会社,神奈川県,横浜市西区,宮ケ谷７番地１４,,14,103,2200006,,,,,,,2025-12-04,1,,,,,リノセルジャパン,0
982,4030001169910,新規,0,2025-12-04,2025-12-04,株式会社ＫＥＮＢＩ,,株式会社,埼玉県,さいたま市北区,本郷町１１４５番地２,,11,102,3310802,,,,,,,2025-12-04,1,,,,,ケンビ,0
983,4030001169935,新規,0,2025-12-04,2025-12-04,株式会社Ｋ３‐ＴＲＩＮＩＴＹ,,株式会社,埼玉県,八潮市,八潮３丁目３２番地１５セレクト２１八潮センター,,11,234,3400815,,,,,,,2025-12-04,1,,,,,ケースリートリニティ,0
984,4030001169968,新規,0,2025-12-04,2025-12-04,株式会社リケア,,株式会社,埼玉県,朝霞市,本町３丁目１番４７号１Ｆ,,11,227,3510011,,,,,,,2025-12-04,1,,,,,リケア,0
989,4030003028172,新規,0,2025-12-04,2025-12-04,サードプレイス合同会社,,合同会社,埼玉県,さいたま市浦和区,北浦和５丁目７番１３－４０５号,,11,107,3300074,,,,,,,2025-12-04,1,,,,,サードプレイス,0
990,4030003028197,新規,0,2025-12-04,2025-12-04,合同会社オフィス菅野,,合同会社,埼玉県,ふじみ野市,東久保１丁目１９番２０－５０２号,,11,245,3560042,,,,,,,2025-12-04,1,,,,,オフィスカンノ,0
997,4040001141232,新規,0,2025-12-04,2025-12-04,株式会社Ｆｒｅｅｄｏｍ,,株式会社,千葉県,浦安市,入船４丁目９番３号ＳＴＵＤＩＯ－Ｋ．Ｕ－２階,,12,227,2790012,,,,,,,2025-12-04,1,,,,,フリーダム,0
1000,4040003029054,新規,0,2025-12-04,2025-12-04,善仁門合同会社,,合同会社,千葉県,香取市,下小川５１４,,12,236,2890338,,,,,,,2025-12-04,1,,,,,ゼンニム,0
1001,4040003029062,新規,0,2025-12-04,2025-12-04,合同会社Ｓｕｐｅｒ　Ｗｅａｐｏｎ,,合同会社,千葉県,松戸市,古ケ崎１９２番地の６,,12,207,2710068,,,,,,,2025-12-04,1,,,,,スーパーウェポン,0
1007,4060001038807,新規,0,2025-12-04,2025-12-04,株式会社清水塗装,,株式会社,栃木県,足利市,五十部町１２３８番地６,,09,202,3260843,,,,,,,2025-12-04,1,,,,,シミズトソウ,0
1008,4060001038815,新規,0,2025-12-04,2025-12-04,株式会社ｌｕｍｉｎｏｕｓ,,株式会社,栃木県,那須塩原市,前弥六南町２番地４,,09,213,3293136,,,,,,,2025-12-04,1,,,,,ルミナス,0
1009,4060001038823,新規,0,2025-12-04,2025-12-04,株式会社須藤事務所,,株式会社,栃木県,佐野市,吉水駅前３丁目９番地５,,09,204,3270315,,,,,,,2025-12-04,1,,,,,ストウジムショ,0
1011,4060003005870,新規,0,2025-12-04,2025-12-04,合同会社ユスフィ未来ホールディングス,,合同会社,栃木県,足利市,山下町２５１３番地１－１０５号,,09,202,3260846,,,,,,,2025-12-04,1,,,,,ユスフィミライホールディングス,0
1013,4070003006208,新規,0,2025-12-04,2025-12-04,松井国際貿易合同会社,,合同会社,群馬県,邑楽郡明和町,上江黒３５６番地,,10,522,3700702,,,,,,,2025-12-04,1,,,,,,0
1020,4080101025934,新規,0,2025-12-04,2025-12-04,株式会社コレぺティア,,株式会社,静岡県,伊豆の国市,田京４５番地２,,22,225,4102315,,,,,,,2025-12-04,1,,,,,コレペティア,0
1023,4100001039156,新規,0,2025-12-04,2025-12-04,株式会社ＺＩ‐ＭＡ,,株式会社,長野県,佐久市,上平尾１０１２番地１,,20,217,3850002,,,,,,,2025-12-04,1,,,,,ジーマ,0
1027,4110001039758,新規,0,2025-12-04,2025-12-04,株式会社深沢農園,,株式会社,新潟県,魚沼市,吉水１６５２番地,,15,225,9497421,,,,,,,2025-12-04,1,,,,,フカザワノウエン,0
1042,4120001282282,新規,0,2025-12-04,2025-12-04,株式会社ＲＥＳＴＡＮＤ,,株式会社,大阪府,大阪市中央区,西心斎橋２丁目１番１３号御津ビル５階,,27,128,5420086,,,,,,,2025-12-04,1,,,,,リスタンド,0
1043,4120001282423,新規,0,2025-12-04,2025-12-04,ＦＡ株式会社,,株式会社,大阪府,大阪市中央区,島之内２丁目１０－１２－７１１,,27,128,5420082,,,,,,,2025-12-04,1,,,,,エフエー,0
1044,4120001282456,新規,0,2025-12-04,2025-12-04,株式会社ＮＡ　ＣＲＡＦＴ,,株式会社,大阪府,大阪市城東区,成育４丁目２７番２１号,,27,118,5360007,,,,,,,2025-12-04,1,,,,,エヌエークラフト,0
1045,4120001282497,新規,0,2025-12-04,2025-12-04,キャプケムジャパン株式会社,,株式会社,大阪府,大阪市東成区,東小橋１丁目１６番２４号,,27,115,5370024,,,,,,,2025-12-04,1,,,,,キャプケムジャパン,0
1052,4120003031150,新規,0,2025-12-04,2025-12-04,合同会社ｅｎｚｉｎｅ　ｒｏｏｍ心斎橋,,合同会社,大阪府,大阪市中央区,博労町３丁目４番１５号,,27,128,5410059,,,,,,,2025-12-04,1,,,,,エンジンルームシンサイバシ,0
1053,4120003031332,新規,0,2025-12-04,2025-12-04,Ｒｉｃｅ　Ｌｅａｆ合同会社,,合同会社,大阪府,大阪市西区,靱本町１丁目１０－７－１３０３,,27,106,5500004,,,,,,,2025-12-04,1,,,,,ライスリーフ,0
1054,4120003031381,新規,0,2025-12-04,2025-12-04,フィルエネルギーワールド３号合同会社,,合同会社,大阪府,大阪市北区,天神橋１丁目９－５－１０１,,27,127,5300041,,,,,,,2025-12-04,1,,,,,フィルエネルギーワールドサンゴウ,0
1055,4120003031398,新規,0,2025-12-04,2025-12-04,合同会社恒安広智,,合同会社,大阪府,大阪市中央区,島之内２丁目７番３２号,,27,128,5420082,,,,,,,2025-12-04,1,,,,,コウアンコウチ,0
1058,4120101072880,新規,0,2025-12-04,2025-12-04,サムテックホールディングス株式会社,,株式会社,大阪府,羽曳野市,駒ケ谷１４５２番地の３,,27,222,5830841,,,,,,,2025-12-04,1,,,,,サムテックホールディングス,0
1059,4120101072897,新規,0,2025-12-04,2025-12-04,バイコビジャパン株式会社,,株式会社,大阪府,松原市,南新町５丁目７番１２号,,27,217,5800023,,,,,,,2025-12-04,1,,,,,バイコビジャパン,0
1074,4130001081155,新規,0,2025-12-04,2025-12-04,ＭＧＣ株式会社,,株式会社,京都府,京都市上京区,西辰巳町１１１アビタシオンオンズアン１０６,,26,102,6028107,,,,,,,2025-12-04,1,,,,,エムジーシー,0
1086,4140001140991,新規,0,2025-12-04,2025-12-04,株式会社スマイル,,株式会社,兵庫県,神戸市須磨区,須磨浦通３丁目４番１２号１階東,,28,107,6540055,,,,,,,2025-12-04,1,,,,,スマイル,0
1088,4140003022916,新規,0,2025-12-04,2025-12-04,合同会社ころまるサービス,,合同会社,兵庫県,姫路市,飾磨区細江９７－２エンブレイス姫路飾磨２０４,,28,201,6728064,,,,,,,2025-12-04,1,,,,,コロマルサービス,0
1104,4180001169747,新規,0,2025-12-04,2025-12-04,株式会社Ｐａｔｈｍａｋｅｒ,,株式会社,愛知県,北名古屋市,鹿田３６２９番地６,,23,234,4810004,,,,,,,2025-12-04,1,,,,,パスメーカー,0
1105,4180001169763,新規,0,2025-12-04,2025-12-04,株式会社ｈｉｃ,,株式会社,愛知県,犬山市,大字今井字東山２番地２,,23,215,4840005,,,,,,,2025-12-04,1,,,,,ヒック,0
1108,4180003029437,新規,0,2025-12-04,2025-12-04,合同会社ＧＬＯＲＩＯＳＡ,,合同会社,愛知県,名古屋市南区,呼続２丁目１５番２２号,,23,112,4570014,,,,,,,2025-12-04,1,,,,,グロリオサ,0
1113,4190001032739,新規,0,2025-12-04,2025-12-04,ＣＡＲ　ＭＡＴＲＸ株式会社,,株式会社,三重県,津市,栗真町屋町１０２７‐１ハートピアツインズＥＡＳＴ１１５,,24,201,5140102,,,,,,,2025-12-04,1,,,,,カーマトリックス,0
1120,4220003004179,新規,0,2025-12-04,2025-12-04,合同会社エムズ,,合同会社,石川県,金沢市,直江東１丁目１３８番地,,17,201,9208213,,,,,,,2025-12-04,1,,,,,エムズ,0
1121,4240001065857,新規,0,2025-12-04,2025-12-04,株式会社しぜん,,株式会社,広島県,広島市西区,庚午北２丁目６番１８号（１Ｆ）,,34,104,7330821,,,,,,,2025-12-04,1,,,,,シゼン,0
1122,4240001065865,新規,0,2025-12-04,2025-12-04,株式会社都,,株式会社,広島県,広島市西区,横川町３丁目２番３６号フレスタモールカジル横川３階,,34,104,7330011,,,,,,,2025-12-04,1,,,,,ミヤコ,0
1123,4240001065873,新規,0,2025-12-04,2025-12-04,株式会社ＯＧＴ,,株式会社,広島県,廿日市市,串戸３丁目２０番２号,,34,213,7380033,,,,,,,2025-12-04,1,,,,,オージーティー,0
1138,4290003017810,新規,0,2025-12-04,2025-12-04,合同会社Ａｓｔｒａｅｌｉａ,,合同会社,福岡県,福岡市博多区,博多駅前１丁目２３番２号５Ｆ－Ｂ,,40,132,8120011,,,,,,,2025-12-04,1,,,,,アストレリア,0
1145,4320001021471,新規,0,2025-12-04,2025-12-04,ＳＨＩＲＡＧＩＫＵホスピタリティ株式会社,,株式会社,大分県,別府市,上田の湯町１６番３６号,,44,202,8740908,,,,,,,2025-12-04,1,,,,,シラギクホスピタリティ,0
1147,4330001033805,新規,0,2025-12-04,2025-12-04,株式会社カナリ,,株式会社,熊本県,合志市,野々島３６５６番地３６,,43,216,8611103,,,,,,,2025-12-04,1,,,,,カナリ,0
1153,4340003005033,新規,0,2025-12-04,2025-12-04,ぐるめ畑合同会社,,合同会社,鹿児島県,肝属郡錦江町,神川６３３８,,46,490,8932301,,,,,,,2025-12-04,1,,,,,グルメバタケ,0
1159,4360001036094,新規,0,2025-12-04,2025-12-04,株式会社アスニコ,,株式会社,沖縄県,中頭郡北中城村,字熱田８３９番地１,,47,327,9012313,,,,,,,2025-12-04,1,,,,,アスニコ,0
1160,4360001036103,新規,0,2025-12-04,2025-12-04,株式会社セレクト,,株式会社,沖縄県,沖縄市,美里２丁目１１番４号,,47,211,9042153,,,,,,,2025-12-04,1,,,,,セレクト,0
1170,4420001019357,新規,0,2025-12-04,2025-12-04,株式会社ＢＲＥＥＺＥ,,株式会社,青森県,三沢市,日の出４丁目９４番地１３６４号－２Ｆ,,02,207,0330154,,,,,,,2025-12-04,1,,,,,ブリーズ,0
1172,4430001095777,新規,0,2025-12-04,2025-12-04,株式会社Ｓｙｎａｐｓｅ　Ｓｏｃｉｅｔｙ,,株式会社,北海道,札幌市中央区,北二条西２丁目４番地マルホビル５階,,01,101,0600002,,,,,,,2025-12-04,1,,,,,シナプスソサイエティー,0
1173,4430001095785,新規,0,2025-12-04,2025-12-04,トラストグローバル株式会社,,株式会社,北海道,石狩市,新港西３丁目７６７－２,,01,235,0613241,,,,,,,2025-12-04,1,,,,,トラストグローバル,0
1177,4430003018389,新規,0,2025-12-04,2025-12-04,Ｙ’ｓテック合同会社,,合同会社,北海道,札幌市白石区,菊水元町四条１丁目４番３４号,,01,104,0030824,,,,,,,2025-12-04,1,,,,,ワイズテック,0
1179,4470001021011,新規,0,2025-12-04,2025-12-04,株式会社エスエスエフ,,株式会社,香川県,高松市,屋島西町１９１１番地３ファミール屋島１１０３,,37,201,7610113,,,,,,,2025-12-04,1,,,,,,0
1185,4700150133178,新規,0,2025-12-04,2025-12-04,ナイガイ健康保険組合,,その他,東京都,港区,赤坂７丁目８番５号,,13,103,1070052,,,,,,,2025-12-04,1,,,,,ナイガイケンコウホケンクミアイ,0
1189,5010001260769,新規,0,2025-12-04,2025-12-04,株式会社Ｓｏｓｕｌｉｃ,,株式会社,東京都,中央区,銀座１丁目２２番１１号銀座大竹ビジデンス２Ｆ,,13,102,1040061,,,,,,,2025-12-04,1,,,,,ソスリック,0
1190,5010001260819,新規,0,2025-12-04,2025-12-04,ＫＯＫＡ　ＮＯＢＬＥ株式会社,,株式会社,東京都,千代田区,平河町１丁目３番１４号９階,,13,101,1020093,,,,,,,2025-12-04,1,,,,,コカノーブル,0
1192,5010003049574,新規,0,2025-12-04,2025-12-04,ハニカム５ホールディング合同会社,,合同会社,東京都,千代田区,丸の内１丁目９番２号,,13,101,1000005,,,,,,,2025-12-04,1,,,,,ハニカムファイブホールディング,0
1193,5010003049582,新規,0,2025-12-04,2025-12-04,合同会社ＲＩＣＰＪ２,,合同会社,東京都,千代田区,霞が関３丁目２番５号,,13,101,1000013,,,,,,,2025-12-04,1,,,,,アールアイシーピージェーツー,0
1194,5010003049599,新規,0,2025-12-04,2025-12-04,ミヤビス合同会社,,合同会社,東京都,中央区,勝どき５丁目３番１－２０１４号,,13,102,1040054,,,,,,,2025-12-04,1,,,,,ミヤビス,0
1195,5010003049608,新規,0,2025-12-04,2025-12-04,合同会社ライズ,,合同会社,東京都,中央区,勝どき４丁目６－１,,13,102,1040054,,,,,,,2025-12-04,1,,,,,ライズ,0
1199,5010005041034,新規,0,2025-12-04,2025-12-04,一般社団法人ＣＬＦ４,,その他の設立登記法人,東京都,中央区,日本橋１丁目４番１号日本橋一丁目ビルディング,,13,102,1030027,,,,,,,2025-12-04,1,,,,,シーエルエフフォー,0
1200,5010005041042,新規,0,2025-12-04,2025-12-04,一般社団法人ＳＮレジデンシャル,,その他の設立登記法人,東京都,千代田区,丸の内１丁目４番１号東京共同会計事務所内,,13,101,1000005,,,,,,,2025-12-04,1,,,,,エスエヌレジデンシャル,0
1208,5010401194897,新規,0,2025-12-04,2025-12-04,株式会社ＡＲＣＳ　ＧＲＩＤ,,株式会社,東京都,港区,六本木７丁目２１番７号ウエスタ六本木１階,,13,103,1060032,,,,,,,2025-12-04,1,,,,,アークスグリッド,0
1209,5010401194922,新規,0,2025-12-04,2025-12-04,ＦＣＣＰ‐１株式会社,,株式会社,東京都,港区,赤坂２丁目４番６号,,13,103,1070052,,,,,,,2025-12-04,1,,,,,エフシーシーピーワン,0
1210,5010403036701,新規,0,2025-12-04,2025-12-04,合同会社フロンティアリッジ,,合同会社,東京都,港区,六本木７丁目１７－３３－１０１,,13,103,1060032,,,,,,,2025-12-04,1,,,,,フロンティアリッジ,0
1211,5010403036742,新規,0,2025-12-04,2025-12-04,ＣＲ１ｓｔ　ｆｕｎｄ合同会社,,合同会社,東京都,港区,高輪４丁目１１番２３－１０２号,,13,103,1080074,,,,,,,2025-12-04,1,,,,,シーアールファーストファンド,0
1213,5010501055132,新規,0,2025-12-04,2025-12-04,株式会社もつくし,,株式会社,東京都,台東区,浅草２丁目３番１６号,,13,106,1110032,,,,,,,2025-12-04,1,,,,,モツクシ,0
1215,5010601068380,新規,0,2025-12-04,2025-12-04,株式会社シナババスタンド,,株式会社,東京都,墨田区,菊川３丁目３－１３,,13,107,1300024,,,,,,,2025-12-04,1,,,,,シナババスタンド,0
1225,5010803005636,新規,0,2025-12-04,2025-12-04,ジリリ合同会社,,合同会社,東京都,大田区,矢口１丁目１３番１０号イオックスビル３０１,,13,111,1460093,,,,,,,2025-12-04,1,,,,,ジリリ,0
1226,5010805003225,新規,0,2025-12-04,2025-12-04,一般社団法人Ｔ‐ＮＥＸＴ,,その他の設立登記法人,東京都,大田区,東六郷１丁目１０番１９号,,13,111,1440046,,,,,,,2025-12-04,1,,,,,ティーネクスト,0
1229,5010903010461,新規,0,2025-12-04,2025-12-04,ｔｈｅ大苑合同会社,,合同会社,東京都,世田谷区,若林２丁目１９番７号,,13,112,1540023,,,,,,,2025-12-04,1,,,,,ザダイエン,0
1230,5011001174018,新規,0,2025-12-04,2025-12-04,株式会社刻,,株式会社,東京都,渋谷区,道玄坂１丁目１０番８号渋谷道玄坂東急ビル２Ｆ－Ｃ,,13,113,1500043,,,,,,,2025-12-04,1,,,,,キザミ,0
1231,5011001174199,新規,0,2025-12-04,2025-12-04,株式会社ＩＭＰＡＣＴＩＶＥ,,株式会社,東京都,渋谷区,神宮前１丁目５番８号神宮前タワービルディング１４階,,13,113,1500001,,,,,,,2025-12-04,1,,,,,インパクティブ,0
1236,5011101114162,新規,0,2025-12-04,2025-12-04,ＴＭ株式会社,,株式会社,東京都,新宿区,西新宿３丁目３番１３号西新宿水間ビル６階,,13,104,1600023,,,,,,,2025-12-04,1,,,,,ティーエム,0
1237,5011101114170,新規,0,2025-12-04,2025-12-04,株式会社ＥＸＧＡＲＤＥＮ,,株式会社,東京都,新宿区,西新宿３丁目３番１３号西新宿水間ビル２Ｆ,,13,104,1600023,,,,,,,2025-12-04,1,,,,,エクスガーデン,0
1244,5011501032872,新規,0,2025-12-04,2025-12-04,株式会社Ｈ＆Ｄ,,株式会社,東京都,北区,岩淵町４０番３―８０３号,,13,117,1150041,,,,,,,2025-12-04,1,,,,,エイチアンドディー,0
1247,5011601029208,新規,0,2025-12-04,2025-12-04,テックブリッジ株式会社,,株式会社,東京都,練馬区,土支田３丁目１１番２６号,,13,120,1790076,,,,,,,2025-12-04,1,,,,,テックブリッジ,0
1249,5011703004471,新規,0,2025-12-04,2025-12-04,ティーアンドエス合同会社,,合同会社,東京都,江戸川区,松江５丁目１９番１４－１００２号,,13,123,1320025,,,,,,,2025-12-04,1,,,,,ティーアンドエス,0
1251,5011801047141,新規,0,2025-12-04,2025-12-04,株式会社ダルマトラベル,,株式会社,東京都,足立区,千住緑町１丁目２０番２号サカイリ緑町ハイツ１０１号室,,13,121,1200044,,,,,,,2025-12-04,1,,,,,ダルマトラベル,0
1252,5012301014607,新規,0,2025-12-04,2025-12-04,株式会社アルタイル物流,,株式会社,東京都,町田市,金井４丁目４番８号,,13,209,1950072,,,,,,,2025-12-04,1,,,,,アルタイルブツリュウ,0
1265,5020001166057,新規,0,2025-12-04,2025-12-04,株式会社三栄不動産,,株式会社,神奈川県,横浜市栄区,公田町９３１番地１２１,,14,115,2470014,,,,,,,2025-12-04,1,,,,,サンエイフドウサン,0
1266,5020001166081,新規,0,2025-12-04,2025-12-04,株式会社晋利国際,,株式会社,神奈川県,横浜市中区,石川町１丁目５２番地１１,,14,104,2310868,,,,,,,2025-12-04,1,,,,,シンリコクサイ,0
1267,5020001166148,新規,0,2025-12-04,2025-12-04,株式会社ＡＲＡＩ,,株式会社,神奈川県,横浜市都筑区,川和町１２１１番地,,14,118,2240057,,,,,,,2025-12-04,1,,,,,アライ,0
1281,5030001169901,新規,0,2025-12-04,2025-12-04,株式会社和銅観光農園,,株式会社,埼玉県,秩父市,黒谷３２０番地,,11,207,3680001,,,,,,,2025-12-04,1,,,,,ワドウカンコウノウエン,0
1282,5030001169926,新規,0,2025-12-04,2025-12-04,株式会社Ａｓｃｅｎｓｉｏｎ,,株式会社,埼玉県,さいたま市緑区,大字三室１４７２－８,,11,109,3360911,,,,,,,2025-12-04,1,,,,,アセンション,0
1283,5030001169950,新規,0,2025-12-04,2025-12-04,株式会社津田商店,,株式会社,埼玉県,川口市,弥平４丁目１番２０号,,11,203,3320002,,,,,,,2025-12-04,1,,,,,ツダショウテン,0
1284,5030001169967,新規,0,2025-12-04,2025-12-04,Ｎｏｒｔｈ　Ｂｒｉｄｇｅ株式会社,,株式会社,埼玉県,戸田市,川岸３丁目９番３３－３０５号,,11,224,3350015,,,,,,,2025-12-04,1,,,,,ノースブリッジ,0
1289,5040001141603,新規,0,2025-12-04,2025-12-04,株式会社有志,,株式会社,千葉県,市川市,東菅野１丁目１４番２号,,12,203,2720823,,,,,,,2025-12-04,1,,,,,ユウシ,0
1297,5070001043598,新規,0,2025-12-04,2025-12-04,穏＿株式会社,00141726,株式会社,群馬県,富岡市,下黒岩６３３番地,,10,210,3702341,,,,,,,2025-12-04,1,,,,,,0
1298,5080003003616,新規,0,2025-12-04,2025-12-04,合同会社８,,合同会社,静岡県,静岡市清水区,二の丸町５番２１－２号,,22,103,4240811,,,,,,,2025-12-04,1,,,,,エイト,0
1299,5080103003482,新規,0,2025-12-04,2025-12-04,合同会社ＲｉｋｏＲｏ企画,,合同会社,静岡県,駿東郡長泉町,下長窪９３５番地の３１,,22,342,4110934,,,,,,,2025-12-04,1,,,,,リコロキカク,0
1301,5090001019638,新規,0,2025-12-04,2025-12-04,株式会社Ｂ　ｆｏｒ,,株式会社,山梨県,北杜市,明野町上手５２１９番地１,,19,209,4080204,,,,,,,2025-12-04,1,,,,,ビーフォー,0
1318,5120001282348,新規,0,2025-12-04,2025-12-04,株式会社芯安康,,株式会社,大阪府,大阪市東淀川区,瑞光１丁目２番１１号３０６号室,,27,114,5330005,,,,,,,2025-12-04,1,,,,,シンアンコウ,0
1319,5120001282380,新規,0,2025-12-04,2025-12-04,株式会社ＰＬＡＺＡ　ＳＴＹＬＥ,,株式会社,大阪府,大阪市阿倍野区,阿倍野筋２丁目１番２９号９階,,27,119,5450052,,,,,,,2025-12-04,1,,,,,プラザスタイル,0
1320,5120001282488,新規,0,2025-12-04,2025-12-04,株式会社Ｕｐｗａｒｄ　Ｔａｌｅｎｔ,,株式会社,大阪府,大阪市北区,南森町２丁目２番１０号７Ｆ,,27,127,5300054,,,,,,,2025-12-04,1,,,,,アップワードタレント,0
1321,5120001282513,新規,0,2025-12-04,2025-12-04,ＫＭトラスト株式会社,,株式会社,大阪府,大阪市中央区,玉造１丁目２１番１７号,,27,128,5400004,,,,,,,2025-12-04,1,,,,,ケイエムトラスト,0
1325,5120003031348,新規,0,2025-12-04,2025-12-04,合同会社Ｓｔａｒｌｉｎｅ,,合同会社,大阪府,大阪市北区,野崎町７－８梅田パークビル３０５,,27,127,5300055,,,,,,,2025-12-04,1,,,,,スターライン,0
1326,5120003031380,新規,0,2025-12-04,2025-12-04,フィルエネルギーワールド２号合同会社,,合同会社,大阪府,大阪市北区,天神橋１丁目９－５－１０１,,27,127,5300041,,,,,,,2025-12-04,1,,,,,フィルエネルギーワールドニゴウ,0
1327,5120003031389,新規,0,2025-12-04,2025-12-04,彩日商店合同会社,,合同会社,大阪府,大阪市此花区,酉島４丁目１番１６－４１１号,,27,104,5540051,,,,,,,2025-12-04,1,,,,,イロヒショウテン,0
1331,5120005025281,新規,0,2025-12-04,2025-12-04,一般財団法人ＳＵＲＥみらい財団,,その他の設立登記法人,大阪府,大阪市中央区,伏見町４丁目２番７号ＰＭＯ淀屋橋９階,,27,128,5410044,,,,,,,2025-12-04,1,,,,,シュアーミライザイダン,0
1334,5120103006885,新規,0,2025-12-04,2025-12-04,合同会社ＴＭＫ,,合同会社,大阪府,岸和田市,下松町４丁目１１番４号,,27,202,5960823,,,,,,,2025-12-04,1,,,,,ティエムケイ,0
1349,5130001081146,新規,0,2025-12-04,2025-12-04,株式会社ＮＡＮＴＡＮ‐ＴＥＣ,,株式会社,京都府,南丹市,園部町南八田中山１７,,26,213,6220066,,,,,,,2025-12-04,1,,,,,ナンタンテック,0
1358,5140001140982,新規,0,2025-12-04,2025-12-04,株式会社トラフミ,,株式会社,兵庫県,明石市,大久保町大久保町９００番地の８,,28,203,6740067,,,,,,,2025-12-04,1,,,,,トラフミ,0
1359,5170001018904,新規,0,2025-12-04,2025-12-04,株式会社かなう,,株式会社,和歌山県,和歌山市,友田町３丁目２８番地インペリアル城東６０１,,30,201,6408342,,,,,,,2025-12-04,1,,,,,カナウ,0
1370,5180001169754,新規,0,2025-12-04,2025-12-04,株式会社しもむら農園,,株式会社,愛知県,大府市,高丘町３丁目１２番地,,23,223,4740042,,,,,,,2025-12-04,1,,,,,シモムラノウエン,0
1371,5180001169770,新規,0,2025-12-04,2025-12-04,アルテミュージアムナゴヤ株式会社,,株式会社,愛知県,名古屋市東区,泉２丁目２６－１ホウコクビル６Ｆ,,23,102,4610001,,,,,,,2025-12-04,1,,,,,アルテミュージアムナゴヤ,0
1376,5180301040458,新規,0,2025-12-04,2025-12-04,株式会社ＣＯＺＹＰＩＴ,,株式会社,愛知県,岡崎市,東蔵前町字荒神６番地２,,23,202,4442146,,,,,,,2025-12-04,1,,,,,コージーピット,0
1377,5180301040482,新規,0,2025-12-04,2025-12-04,コトノハ・ラボ株式会社,,株式会社,愛知県,豊田市,河合町３丁目１３番地１Ｔステージ河合町１３０６号,,23,211,4710824,,,,,,,2025-12-04,1,,,,,,0
1379,5190001032738,新規,0,2025-12-04,2025-12-04,株式会社Ｓｐｅｅｄｅｘ　Ｍｏｔｏｒｓ,,株式会社,三重県,桑名郡木曽岬町,大字源緑輪中１０５６番７,,24,303,4980816,,,,,,,2025-12-04,1,,,,,スピーディックスモーターズ,0
1381,5190003005279,新規,0,2025-12-04,2025-12-04,合同会社ステージリンク,,合同会社,三重県,四日市市,大字羽津甲１３番地１１,,24,202,5100012,,,,,,,2025-12-04,1,,,,,ステージリンク,0
1382,5200001044483,新規,0,2025-12-04,2025-12-04,株式会社東昇,,株式会社,岐阜県,揖斐郡揖斐川町,白樫古屋敷３１０番地２５,,21,401,5010635,,,,,,,2025-12-04,1,,,,,トウショウ,0
1385,5200005013823,新規,0,2025-12-04,2025-12-04,一般社団法人若鮎長良ＦＣ・ＯＢ会,,その他の設立登記法人,岐阜県,岐阜市,大洞柏台６丁目５３番地,,21,201,5013123,,,,,,,2025-12-04,1,,,,,ワカアユナガラエフシーオービーカイ,0
1395,5220001027049,新規,0,2025-12-04,2025-12-04,株式会社インフライン,,株式会社,石川県,白山市,北安田町５３１６番地,,17,210,9240024,,,,,,,2025-12-04,1,,,,,インフライン,0
1397,5230001021199,新規,0,2025-12-04,2025-12-04,株式会社ビー,,株式会社,富山県,黒部市,立野２４０番地１,,16,207,9380051,,,,,,,2025-12-04,1,,,,,ビー,0
1398,5230003002544,新規,0,2025-12-04,2025-12-04,合同会社Ａｓｏｂｉ,,合同会社,富山県,富山市,藤木３００１番地スマイルジャスト２０４号,,16,201,9300936,,,,,,,2025-12-04,1,,,,,アソビ,0
1402,5240001065864,新規,0,2025-12-04,2025-12-04,株式会社ＧＩＣ,,株式会社,広島県,広島市中区,大手町５丁目１０番１４号,,34,101,7300051,,,,,,,2025-12-04,1,,,,,ジーアイシー,0
1403,5240001065889,新規,0,2025-12-04,2025-12-04,株式会社クロガネ商事,,株式会社,広島県,広島市中区,富士見町１番５－２００４号,,34,101,7300043,,,,,,,2025-12-04,1,,,,,クロガネショウジ,0
1405,5240003007501,新規,0,2025-12-04,2025-12-04,合同会社Ｍ＆Ｆ,,合同会社,広島県,福山市,駅家町大字近田４４８番地８,,34,207,7201133,,,,,,,2025-12-04,1,,,,,エムアンドエフ,0
1408,5250001021445,新規,0,2025-12-04,2025-12-04,株式会社ＧＲＯＷＩＮＧ　ＵＰ,,株式会社,山口県,下関市,豊北町大字滝部７０２,,35,201,7595511,,,,,,,2025-12-04,1,,,,,グローイングアップ,0
1410,5260001040799,新規,0,2025-12-04,2025-12-04,株式会社エヌテック,,株式会社,岡山県,瀬戸内市,邑久町向山６０９－５,,33,212,7014233,,,,,,,2025-12-04,1,,,,,エヌテック,0
1419,5290001112406,新規,0,2025-12-04,2025-12-04,株式会社Ｋ．Ｒパートナーズ,,株式会社,福岡県,糟屋郡志免町,志免中央２丁目２番２８号２０３号,,40,343,8112244,,,,,,,2025-12-04,1,,,,,ケーアールミックスフレーム,0
1427,5300001014435,新規,0,2025-12-04,2025-12-04,株式会社藤木,,株式会社,佐賀県,小城市,三日月町樋口２２７番地,00141729,41,208,8450033,,,,,,,2025-12-04,1,,,,,フジキ,0
1429,5330001033795,新規,0,2025-12-04,2025-12-04,株式会社ＴＨＲＩＶＥ,,株式会社,熊本県,合志市,幾久富１０５４番地１,,43,216,8611112,,,,,,,2025-12-04,1,,,,,スライブ,0
1433,5340001027821,新規,0,2025-12-04,2025-12-04,Ｇｅｍｓｅｅｄ株式会社,,株式会社,鹿児島県,鹿児島市,住吉町１３－１ハーバーフロントビル３０３号,,46,201,8920823,,,,,,,2025-12-04,1,,,,,ジェムシード,0
1436,5350001019834,新規,0,2025-12-04,2025-12-04,株式会社クロギデザイン社,,株式会社,宮崎県,延岡市,稲葉崎町２丁目２４５８番地３,,45,203,8820003,,,,,,,2025-12-04,1,,,,,クロギデザインシャ,0
1438,5360001036102,新規,0,2025-12-04,2025-12-04,ＫＥＩＦＵ株式会社,,株式会社,沖縄県,うるま市,字高江洲９３０番地ＬｉｇｈｔＨｏｕｓｅ３０７,,47,213,9042242,,,,,,,2025-12-04,1,,,,,ケイフ,0
1442,5370001053278,新規,0,2025-12-04,2025-12-04,株式会社ｏｎ　ｙｏｕｒ　ｓｉｄｅ,,株式会社,宮城県,仙台市青葉区,一番町１丁目８－２２井上ビル３０３,,04,101,9800811,,,,,,,2025-12-04,1,,,,,オンユアーサイド,0
1452,5420001019356,新規,0,2025-12-04,2025-12-04,株式会社風張建材,,株式会社,青森県,八戸市,大字是川字風張３６番地１,,02,203,0310023,,,,,,,2025-12-04,1,,,,,カザハリケンザイ,0
1457,5430003018347,新規,0,2025-12-04,2025-12-04,合同会社結心,,合同会社,北海道,江別市,新栄台６３－１３,,01,217,0690806,,,,,,,2025-12-04,1,,,,,ユイシン,0
1460,5460301005325,新規,0,2025-12-04,2025-12-04,株式会社リブリッジ,,株式会社,北海道,北見市,常盤町２丁目４番１０４号　ＴＥＲＲＡ　Ｔｏｋｉｗａ　Ｂ号,,01,208,0900817,,,,,,,2025-12-04,1,,,,,リブリッジ,0
1461,5460401001273,新規,0,2025-12-04,2025-12-04,株式会社居酒屋まるかわ,,株式会社,北海道,根室市,穂香１３番地３,,01,223,0870037,,,,,,,2025-12-04,1,,,,,イザカヤマルカワ,0
1464,5490001011224,新規,0,2025-12-04,2025-12-04,株式会社陽だまり,,株式会社,高知県,吾川郡いの町,枝川３０５番地１マンションフレンド２０１,,39,386,7812120,,,,,,,2025-12-04,1,,,,,,0
1466,5500001026658,新規,0,2025-12-04,2025-12-04,株式会社まるしょう,,株式会社,愛媛県,松山市,北吉田町１３３４番地,,38,201,7918041,,,,,,,2025-12-04,1,,,,,マルショウ,0
1472,5700150133177,新規,0,2025-12-04,2025-12-04,科研製薬健康保険組合,,その他,東京都,文京区,本駒込２丁目２８番８号,,13,105,1130021,,,,,,,2025-12-04,1,,,,,カケンセイヤクケンコウホケンクミアイ,0
1480,6010001260611,新規,0,2025-12-04,2025-12-04,バイツワークス株式会社,,株式会社,東京都,中央区,銀座１丁目１２番４号Ｎ＆ＥＢＬＤ．６階,,13,102,1040061,,,,,,,2025-12-04,1,,,,,バイツワークス,0
1481,6010001260768,新規,0,2025-12-04,2025-12-04,株式会社ｆｌｏｗｅｒ,,株式会社,東京都,千代田区,神田鍛冶町３丁目７番地２１－９０６号室,,13,101,1010045,,,,,,,2025-12-04,1,,,,,フラワー,0
1487,6010003049581,新規,0,2025-12-04,2025-12-04,ＨＬＢ２２号合同会社,,合同会社,東京都,千代田区,霞が関３丁目２番５号,,13,101,1000013,,,,,,,2025-12-04,1,,,,,エイチエルビーニジュウニゴウ,0
1492,6010401194632,新規,0,2025-12-04,2025-12-04,ＲＹＳＴＡ株式会社,,株式会社,東京都,港区,南青山３丁目１番３６号青山丸竹ビル６Ｆ,,13,103,1070062,,,,,,,2025-12-04,1,,,,,リスタ,0
1493,6010401194896,新規,0,2025-12-04,2025-12-04,ＶＩＭ株式会社,,株式会社,東京都,港区,青山二丁目２番１５号ウィン青山９４２,,13,103,1050000,,,,,,,2025-12-04,1,,,,,ビム,0
1494,6010401194905,新規,0,2025-12-04,2025-12-04,Ｒｏｏｄｈａｌｓｇａｎｓ２株式会社,,株式会社,東京都,港区,麻布台１丁目３番１号麻布台ヒルズ森ＪＰタワー１７階,,13,103,1060041,,,,,,,2025-12-04,1,,,,,ルードハルスガンスツー,0
1496,6010701048694,新規,0,2025-12-04,2025-12-04,株式会社きくよ,,株式会社,東京都,品川区,上大崎２丁目２４番１１号目黒西口マンション２号館２０３号,,13,109,1410021,,,,,,,2025-12-04,1,,,,,キクヨ,0
1497,6010701048703,新規,0,2025-12-04,2025-12-04,株式会社ＺＥＳＴ　ＶＯＹＡＧＥ,,株式会社,東京都,品川区,戸越１丁目１８－７加藤ビル１階,,13,109,1420041,,,,,,,2025-12-04,1,,,,,ゼストヴォヤージュ,0
1499,6010801036839,新規,0,2025-12-04,2025-12-04,センプロパティ株式会社,,株式会社,東京都,大田区,久が原６丁目１２番１６号,,13,111,1460085,,,,,,,2025-12-04,1,,,,,センプロパティ,0
1501,6010901058584,新規,0,2025-12-04,2025-12-04,株式会社ＬＩＦＩＸ,,株式会社,東京都,世田谷区,下馬１丁目１７番１号３０１,,13,112,1540002,,,,,,,2025-12-04,1,,,,,リフィックス,0
1502,6010903010460,新規,0,2025-12-04,2025-12-04,合同会社リプライズ,,合同会社,東京都,世田谷区,太子堂４丁目１８番１５号マガザン三軒茶屋２－３Ｆ－３,,13,112,1540004,,,,,,,2025-12-04,1,,,,,リプライズ,0
1512,6011001173927,新規,0,2025-12-04,2025-12-04,ＴＫＳＴコンサルティング株式会社,,株式会社,東京都,渋谷区,神泉町１０番１５号アネックス神泉３０１,,13,113,1500045,,,,,,,2025-12-04,1,,,,,ティーケーエスティーコンサルティング,0
1513,6011003023080,新規,0,2025-12-04,2025-12-04,合同会社ＪＵＮＫＹＡＲＤ　ＷＯＲＫＳ,,合同会社,東京都,渋谷区,代々木３丁目３３番７号フォレストタウン参宮橋７０３,,13,113,1510053,,,,,,,2025-12-04,1,,,,,ジャンクヤードワークス,0
1515,6011101114104,新規,0,2025-12-04,2025-12-04,株式会社淵源メディカル,,株式会社,東京都,新宿区,西新宿３丁目３番１３号西新宿水間ビル２Ｆ,,13,104,1600023,,,,,,,2025-12-04,1,,,,,エンゲンメディカル,0
1517,6011103016711,新規,0,2025-12-04,2025-12-04,合同会社おむすび,,合同会社,東京都,新宿区,新宿５丁目１０番１０号海老沢ビル２０２号室,,13,104,1600022,,,,,,,2025-12-04,1,,,,,オムスビ,0
1518,6011301031099,新規,0,2025-12-04,2025-12-04,株式会社ウィード,,株式会社,東京都,杉並区,和泉２丁目２６番１０号和久舎１０２,,13,115,1680063,,,,,,,2025-12-04,1,,,,,ウィード,0
1532,6012401043892,新規,0,2025-12-04,2025-12-04,株式会社言乃輪,,株式会社,東京都,府中市,清水が丘１丁目９－１５ＭＡＸＩＶ東府中ビル１５Ｆ,,13,206,1830015,,,,,,,2025-12-04,1,,,,,コトノワ,0
1533,6012801024402,新規,0,2025-12-04,2025-12-04,株式会社サン警備,,株式会社,東京都,日野市,平山３丁目２６番地の１－１－４０３号,,13,212,1910043,,,,,,,2025-12-04,1,,,,,サンケイビ,0
1534,6013103001511,新規,0,2025-12-04,2025-12-04,クレアシオン合同会社,,合同会社,東京都,西多摩郡瑞穂町,長岡４丁目１９番地３５,,13,303,1901232,,,,,,,2025-12-04,1,,,,,クレアシオン,0
1539,6013301055433,新規,0,2025-12-04,2025-12-04,華煕置業株式会社,,株式会社,東京都,豊島区,東池袋４丁目８－１エイチエックスビルＢ１,,13,116,1700013,,,,,,,2025-12-04,1,,,,,カキチギョウ,0
1541,6020001008828,新規,0,2025-12-04,2025-12-04,添田建設工業株式会社,,株式会社,神奈川県,横浜市都筑区,池辺町４６９７番地,,14,118,2240053,,,,,,,2025-12-04,1,,,,,ソエダケンセツコウギョウ,0
1552,6020001165883,新規,0,2025-12-04,2025-12-04,株式会社ＲＥＺＯＭＥ,,株式会社,神奈川県,横浜市中区,扇町３丁目８番１１号ヤマザキ・シー・エービル２Ｆ,,14,104,2310027,,,,,,,2025-12-04,1,,,,,,0
1553,6020001166064,新規,0,2025-12-04,2025-12-04,株式会社ＵＲＩＤＵＲＩ,,株式会社,神奈川県,横浜市中区,吉田町５番地１,,14,104,2310041,,,,,,,2025-12-04,1,,,,,ウリドュリ,0
1554,6020001166072,新規,0,2025-12-04,2025-12-04,株式会社アドヴァンテージウェーブ,,株式会社,神奈川県,横浜市港北区,新横浜２丁目５番１９号,,14,109,2220033,,,,,,,2025-12-04,1,,,,,アドヴァンテージウェーブ,0
1555,6020001166089,新規,0,2025-12-04,2025-12-04,ＳＥＣＯＮＤ　ＳＴＡＧＥ株式会社,,株式会社,神奈川県,横浜市中区,山下町１８９番地９辰ビル４階,,14,104,2310023,,,,,,,2025-12-04,1,,,,,セカンドステージ,0
1556,6020001166114,新規,0,2025-12-04,2025-12-04,株式会社Ｆｉｎｃｈ,,株式会社,神奈川県,横浜市都筑区,池辺町３８７８番地１クシダ第２ポストビル１０１,,14,118,2240053,,,,,,,2025-12-04,1,,,,,フィンチ,0
1557,6020001166122,新規,0,2025-12-04,2025-12-04,株式会社ＴＢパートナーズ,,株式会社,神奈川県,川崎市多摩区,菅４丁目１２番１号,,14,135,2140001,,,,,,,2025-12-04,1,,,,,ティービーパートナーズ,0
1563,6030001169891,新規,0,2025-12-04,2025-12-04,株式会社清耀,,株式会社,埼玉県,越谷市,東越谷１丁目１番１－２０１号,,11,222,3430023,,,,,,,2025-12-04,1,,,,,セイヨウ,0
1564,6030001169900,新規,0,2025-12-04,2025-12-04,株式会社工房小嶋や,,株式会社,埼玉県,さいたま市西区,大字指扇５２７番地の４,,11,101,3310047,,,,,,,2025-12-04,1,,,,,コウボウコジマヤ,0
1565,6030001169909,新規,0,2025-12-04,2025-12-04,河崎興業株式会社,00141732,株式会社,埼玉県,草加市,弁天２丁目３１番５－２０６号,,11,221,3400004,,,,,,,2025-12-04,1,,,,,カワサキコウギョウ,0
1566,6030001169917,新規,0,2025-12-04,2025-12-04,ＣＲＡＦＴ　ＨＯＭＥ株式会社,,株式会社,埼玉県,吉川市,高富１丁目２８番地１３,,11,243,3420036,,,,,,,2025-12-04,1,,,,,クラフトホーム,0
1569,6030003028170,新規,0,2025-12-04,2025-12-04,信和合同会社,,合同会社,埼玉県,川口市,柳崎５丁目１番１９号,,11,203,3330861,,,,,,,2025-12-04,1,,,,,シンワ,0
1570,6030003028179,新規,0,2025-12-04,2025-12-04,合同会社アンバーマイン,,合同会社,埼玉県,久喜市,本町３丁目５－１６,,11,232,3460005,,,,,,,2025-12-04,1,,,,,,0
1571,6030003028204,新規,0,2025-12-04,2025-12-04,合同会社ソウパブリッシング,,合同会社,埼玉県,飯能市,美杉台５丁目１８番１３号,,11,209,3570041,,,,,,,2025-12-04,1,,,,,ソウパブリッシング,0
1576,6040003029069,新規,0,2025-12-04,2025-12-04,ＢＡＲＴＥＸ合同会社,,合同会社,千葉県,我孫子市,つくし野３丁目１８－２０８,,12,222,2701164,,,,,,,2025-12-04,1,,,,,バーテックス,0
1582,6060001038813,新規,0,2025-12-04,2025-12-04,日本ＣＳＣ株式会社,,株式会社,栃木県,宇都宮市,峰町２５３－１峰町ダイゴハイツＢ２０２,,09,201,3210943,,,,,,,2025-12-04,1,,,,,ニホンシーエスシー,0
1586,6090001019637,新規,0,2025-12-04,2025-12-04,株式会社ＡｒｃＡｇｒｉ,,株式会社,山梨県,北杜市,明野町上手５２１９番地１,,19,209,4080204,,,,,,,2025-12-04,1,,,,,アークアグリ,0
1587,6100001039154,新規,0,2025-12-04,2025-12-04,日軽開発株式会社,,株式会社,長野県,北佐久郡立科町,大字芦田１１３４番地,00141733,20,324,3842305,,,,,,,2025-12-04,1,,,,,ニッケイカイハツ,0
1588,6100003008504,新規,0,2025-12-04,2025-12-04,合同会社ＭＡＳＵＫＡＮ,,合同会社,長野県,北佐久郡軽井沢町,大字追分１６５８番地１０,,20,321,3890115,,,,,,,2025-12-04,1,,,,,マスカン,0
1589,6110003005987,新規,0,2025-12-04,2025-12-04,合同会社ｍｅｌｕｎｉ,,合同会社,新潟県,新潟市中央区,米山２丁目１番地１５ジョイフル駅南３階,,15,103,9500916,,,,,,,2025-12-04,1,,,,,メルニ,0
1604,6120001282272,新規,0,2025-12-04,2025-12-04,株式会社ケイコウシャ,,株式会社,大阪府,枚方市,西禁野２丁目４番１８号,,27,210,5731192,,,,,,,2025-12-04,1,,,,,ケイコウシャ,0
1605,6120001282438,新規,0,2025-12-04,2025-12-04,株式会社むにむに,,株式会社,大阪府,大阪市北区,堂山町１２番３－９０５号,,27,127,5300027,,,,,,,2025-12-04,1,,,,,ムニムニ,0
1606,6120001282462,新規,0,2025-12-04,2025-12-04,奕楷株式会社,,株式会社,大阪府,大阪市中央区,淡路町３丁目４番１号,,27,128,5410047,,,,,,,2025-12-04,1,,,,,エキカイ,0
1607,6120001282479,新規,0,2025-12-04,2025-12-04,東申リアルティ株式会社,,株式会社,大阪府,大阪市中央区,材木町１番６－３０６号,,27,128,5400010,,,,,,,2025-12-04,1,,,,,トウシンリアルティ,0
1608,6120001282487,新規,0,2025-12-04,2025-12-04,株式会社ＣａｒｅｅｒＡｌｌｉａｎｃｅ　Ｐａｒｔｎｅｒｓ,,株式会社,大阪府,大阪市北区,南森町２丁目２番１０号７Ｆ,,27,127,5300054,,,,,,,2025-12-04,1,,,,,キャリアアライアンスパートナーズ,0
1614,6120003031388,新規,0,2025-12-04,2025-12-04,フロンティア合同会社,,合同会社,大阪府,大阪市北区,梅田１丁目２番２号大阪駅前第２ビル１２－１２,,27,127,5300001,,,,,,,2025-12-04,1,,,,,フロンティア,0
1615,6120003031396,新規,0,2025-12-04,2025-12-04,合同会社オイコノミクス,,合同会社,大阪府,大阪市北区,梅田１丁目２番２号大阪駅前第２ビル１２‐１２,,27,127,5300001,,,,,,,2025-12-04,1,,,,,オイコノミクス,0
1620,6122003003409,新規,0,2025-12-04,2025-12-04,合同会社Ｇｕｕｔａｒａ,,合同会社,大阪府,大東市,末広町１番１１０３号,,27,218,5740036,,,,,,,2025-12-04,1,,,,,グータラ,0
1623,6130001081145,新規,0,2025-12-04,2025-12-04,株式会社Ｕｎｉ　Ｐａｒｔｎｅｒｓ,,株式会社,京都府,京都市下京区,黒門通四条下る下り松町１５２番地ユニハイム四条大宮駅前１００５号室,,26,106,6008381,,,,,,,2025-12-04,1,,,,,ユニパートナーズ,0
1624,6130003010977,新規,0,2025-12-04,2025-12-04,合同会社高密,,合同会社,京都府,京都市東山区,祇園町南側５７０－１２０－３０２,,26,105,6050074,,,,,,,2025-12-04,1,,,,,タカミツ,0
1631,6140001140981,新規,0,2025-12-04,2025-12-04,株式会社ｖｉｖｅ,,株式会社,兵庫県,伊丹市,大鹿３丁目１７番地４,,28,207,6640899,,,,,,,2025-12-04,1,,,,,ヴィヴィ,0
1633,6140005027721,新規,0,2025-12-04,2025-12-04,一般社団法人ＣＡＮ,,その他の設立登記法人,兵庫県,宍粟市,山崎町生谷１４９番地,,28,227,6712517,,,,,,,2025-12-04,1,,,,,キャン,0
1636,6150001028581,新規,0,2025-12-04,2025-12-04,ＮＹクリーン株式会社,,株式会社,奈良県,奈良市,田中町字食田３５１番地の１,,29,201,6308432,,,,,,,2025-12-04,1,,,,,エヌワイクリーン,0
1640,6160001027269,新規,0,2025-12-04,2025-12-04,株式会社アソビインテリジェンス,,株式会社,滋賀県,甲賀市,水口町山３３７４番地２,,25,209,5280067,,,,,,,2025-12-04,1,,,,,アソビインテリジェンス,0
1642,6170001018903,新規,0,2025-12-04,2025-12-04,株式会社ソエルス,,株式会社,和歌山県,和歌山市,本町４丁目４３番地１サンビル本町３階,,30,201,6408033,,,,,,,2025-12-04,1,,,,,ソエルス,0
1652,6180001169729,新規,0,2025-12-04,2025-12-04,株式会社Ｆ・Ｂ・Ｓ,,株式会社,愛知県,名古屋市東区,東片端町２３東片端サンコービル５階北,,23,102,4610015,,,,,,,2025-12-04,1,,,,,,0
1655,6180003029451,新規,0,2025-12-04,2025-12-04,ＴＡＳＵＫＩ合同会社,,合同会社,愛知県,春日井市,新開町字北野池６０番地３,,23,206,4860902,,,,,,,2025-12-04,1,,,,,タスキ,0
1665,6200001044482,新規,0,2025-12-04,2025-12-04,葵建工株式会社,,株式会社,岐阜県,岐阜市,水海道４丁目１６番１３号,,21,201,5008223,,,,,,,2025-12-04,1,,,,,アオイケンコウ,0
1666,6200001044499,新規,0,2025-12-04,2025-12-04,株式会社ひさわ,,株式会社,岐阜県,岐阜市,中２丁目２１４番地７,,21,201,5011173,,,,,,,2025-12-04,1,,,,,ヒサワ,0
1669,6210001020409,新規,0,2025-12-04,2025-12-04,株式会社青葉山ファームズ,,株式会社,福井県,大飯郡高浜町,横津海第２４号１８番地８,,18,481,9192385,,,,,,,2025-12-04,1,,,,,アオバヤマファームズ,0
1672,6230003002543,新規,0,2025-12-04,2025-12-04,ＴＹ’ｓ合同会社,,合同会社,富山県,高岡市,野村９６４番地４,,16,202,9330014,,,,,,,2025-12-04,1,,,,,ティーワイズ,0
1676,6240001065863,新規,0,2025-12-04,2025-12-04,Ｃｉｒｃｌｅ‐Ａ株式会社,,株式会社,広島県,広島市安佐南区,相田３丁目３０番７号,,34,105,7310141,,,,,,,2025-12-04,1,,,,,サークルエー,0
1677,6240001065871,新規,0,2025-12-04,2025-12-04,株式会社ミナテック,,株式会社,広島県,広島市安佐南区,大塚西１丁目４２番２６号,,34,105,7313167,,,,,,,2025-12-04,1,,,,,ミナテック,0
1678,6240003007500,新規,0,2025-12-04,2025-12-04,合同会社ベアーズ,,合同会社,広島県,広島市南区,出汐３丁目２番９号,,34,103,7340001,,,,,,,2025-12-04,1,,,,,ベアーズ,0
1679,6240003007509,新規,0,2025-12-04,2025-12-04,合同会社ＴＯＭ,,合同会社,広島県,広島市安佐南区,祇園８丁目２番８号,,34,105,7310138,,,,,,,2025-12-04,1,,,,,トム,0
1680,6240005016012,新規,0,2025-12-04,2025-12-04,特定非営利活動法人ＴＵＭＵＧＩ,,その他の設立登記法人,広島県,広島市西区,南観音３丁目２番２２－１０１号,,34,104,7330035,,,,,,,2025-12-04,1,,,,,ツムギ,0
1684,6250003003853,新規,0,2025-12-04,2025-12-04,みどりペットクリニック合同会社,,合同会社,山口県,防府市,緑町１丁目１１番８号,,35,206,7470026,,,,,,,2025-12-04,1,,,,,ミドリペットクリニック,0
1686,6260001040798,新規,0,2025-12-04,2025-12-04,ブラスバウンド株式会社,,株式会社,岡山県,岡山市東区,西大寺門前６０９番地２,,33,103,7048123,,,,,,,2025-12-04,1,,,,,ブラスバウンド,0
1696,6290001112396,新規,0,2025-12-04,2025-12-04,Ｕｎｆｒａｍｅ株式会社,,株式会社,福岡県,福岡市博多区,博多駅南５丁目１８番１２号,,40,132,8120016,,,,,,,2025-12-04,1,,,,,アンフレーム,0
1698,6290801032050,新規,0,2025-12-04,2025-12-04,株式会社なべかずファーム,,株式会社,福岡県,北九州市門司区,大字猿喰字両国免５１３番,,40,101,8000102,,,,,,,2025-12-04,1,,,,,,0
1701,6300005007277,新規,0,2025-12-04,2025-12-04,ＯＭＵＳＵＢＩ行政書士法人,,その他の設立登記法人,佐賀県,唐津市,養母田鬼塚１番１０号,,41,202,8470005,,,,,,,2025-12-04,1,,,,,オムスビ,0
1706,6360001036101,新規,0,2025-12-04,2025-12-04,電子経済株式会社,,株式会社,沖縄県,浦添市,西原４丁目３７番１－２０３号コーポラスＭ,,47,208,9012101,,,,,,,2025-12-04,1,,,,,デンシケイザイ,0
1710,6370003007405,新規,0,2025-12-04,2025-12-04,合同会社キュレイテッド,,合同会社,宮城県,仙台市青葉区,中央１丁目７番４号宮城商事ビル４Ｆ,,04,101,9800021,,,,,,,2025-12-04,1,,,,,キュレイテッド,0
1711,6390001018179,新規,0,2025-12-04,2025-12-04,株式会社木村屋,,株式会社,山形県,東置賜郡高畠町,大字亀岡２３７２番地の５,,06,381,9920321,,,,,,,2025-12-04,1,,,,,キムラヤ,0
1721,6430003018379,新規,0,2025-12-04,2025-12-04,合同会社ｌｏｋｋｉ　ｃｏｍｐａｎｙ,,合同会社,北海道,札幌市中央区,宮の森三条１０丁目６番１６－１０１号,,01,101,0640953,,,,,,,2025-12-04,1,,,,,ロッキカンパニー,0
1727,6500001026657,新規,0,2025-12-04,2025-12-04,コウセイ株式会社,,株式会社,愛媛県,松山市,千舟町７丁目３番地６,,38,201,7900011,,,,,,,2025-12-04,1,,,,,コウセイ,0
1730,6700150133176,新規,0,2025-12-04,2025-12-04,Ｔａｎｇ　Ｓｈｅｎｇ（Ｓｈｅｎｚｈｅｎ）Ｉｎｔｅｒｎａｔｉｏｎａｌ　Ｔｒａｄｅ　Ｃｏ．，Ｌｔｄ,,外国会社等,,,,,,,,ＨＵＡＱＩＡＮＧＢＥＩＪＩＥＤＡＯ　ＨＵＡＨＡＮＧＳＨＥＱＵＺＨＥＮＨＵＡＬＵ１６３ＨＡＯＦＥＩＹＡＤＡＤＡＳＨＡＡ４０１　ＳＨＥＮＺＨＥＮ　ＦＵＴＩＡＮＱＵ　ＧＵＡＮＧＤＯＮＧ,,,,,,2025-12-04,1,,,,,タンションシェンジェングオジーマオイーヨウシエンゴンスー,0
1737,7010001260404,新規,0,2025-12-04,2025-12-04,株式会社ＭａｔｃｈＰｏｉｎｔ,,株式会社,東京都,中央区,八丁堀３丁目１７番６号群成舎八丁堀ビル２階,,13,102,1040032,,,,,,,2025-12-04,1,,,,,マッチポイント,0
1738,7010001260775,新規,0,2025-12-04,2025-12-04,稲穂株式会社,,株式会社,東京都,中央区,銀座４丁目１２－２０銀座アポロ昭和館３階,,13,102,1040061,,,,,,,2025-12-04,1,,,,,イナホ,0
1739,7010001260866,新規,0,2025-12-04,2025-12-04,株式会社デリ・アートＮＸ,,株式会社,東京都,千代田区,神田錦町３丁目１５名鉄不動産竹橋ビル３階,,13,101,1010054,,,,,,,2025-12-04,1,,,,,デリアートエヌエックス,0
1740,7010001260890,新規,0,2025-12-04,2025-12-04,ＴＳ　Ｉｎｆｏｒｍａｔｉｏｎ＆Ｔｅｃｈｎｏｌｏｇｙ　Ｊａｐａｎ株式会社,,株式会社,東京都,千代田区,丸の内１丁目９－２グラントウキョウサウスタワー１１階、Ｓ１１０１,,13,101,1000005,,,,,,,2025-12-04,1,,,,,ティーエスインフォメーションアンドテクノロジージャパン,0
1744,7010003049548,新規,0,2025-12-04,2025-12-04,合同会社ＡＹ,,合同会社,東京都,中央区,晴海５丁目６番７－３２０７号,,13,102,1040053,,,,,,,2025-12-04,1,,,,,エーワイ,0
1745,7010003049564,新規,0,2025-12-04,2025-12-04,合同会社Ｇｒｅｅｎ　Ｂｕｉｌｄｉｎｇ　Ｅｃｏｓｙｓｔｅｍ２,,合同会社,東京都,中央区,日本橋１丁目４番１号,,13,102,1030027,,,,,,,2025-12-04,1,,,,,グリーンビルディングエコシステムツー,0
1746,7010003049580,新規,0,2025-12-04,2025-12-04,ｒｅｎｇａ第２号合同会社,,合同会社,東京都,千代田区,霞が関３丁目２番５号,,13,101,1000013,,,,,,,2025-12-04,1,,,,,レンガダイニゴウ,0
1748,7010005041024,新規,0,2025-12-04,2025-12-04,一般社団法人日本橋梁リニューアル協会,,その他の設立登記法人,東京都,中央区,明石町５番１２－７１２号,,13,102,1040044,,,,,,,2025-12-04,1,,,,,ニホンキョウリョウリニューアルキョウカイ,0
1755,7010401194813,新規,0,2025-12-04,2025-12-04,Ｒｏｂｏ．ａｉ　Ｊａｐａｎ株式会社,,株式会社,東京都,港区,浜松町２丁目７番１７号イーグル浜松町１０４５,,13,103,1050013,,,,,,,2025-12-04,1,,,,,ロボエーアイジャパン,0
1756,7010401194904,新規,0,2025-12-04,2025-12-04,Ｒｏｏｄｈａｌｓｇａｎｓ１株式会社,,株式会社,東京都,港区,麻布台１丁目３番１号麻布台ヒルズ森ＪＰタワー１７階,,13,103,1060041,,,,,,,2025-12-04,1,,,,,ルードハルスガンスワン,0
1758,7010403036658,新規,0,2025-12-04,2025-12-04,合同会社アマテルソリューションズ,,合同会社,東京都,港区,浜松町２丁目２番１５号浜松町ダイヤビル２Ｆ,,13,103,1050013,,,,,,,2025-12-04,1,,,,,アマテルソリューションズ,0
1759,7010403036716,新規,0,2025-12-04,2025-12-04,ＫＮＴ合同会社,,合同会社,東京都,港区,南青山３丁目１番３６号青山丸竹ビル６Ｆ,,13,103,1070062,,,,,,,2025-12-04,1,,,,,ケーエヌティー,0
1765,7010503008103,新規,0,2025-12-04,2025-12-04,ＢＲＥＡＴＨ合同会社,,合同会社,東京都,台東区,台東３丁目１番３－４０３号リストレジデンス新御徒町,,13,106,1100016,,,,,,,2025-12-04,1,,,,,ブレス,0
1769,7010601068362,新規,0,2025-12-04,2025-12-04,株式会社アイブイジー,,株式会社,東京都,江東区,亀戸９丁目６番１９号,,13,108,1360071,,,,,,,2025-12-04,1,,,,,アイブイシー,0
1772,7010801036838,新規,0,2025-12-04,2025-12-04,Ｓ・Ｒ・Ｎ株式会社,,株式会社,東京都,大田区,東糀谷３丁目７番１１号江川ホームズ５０１号室,,13,111,1440033,,,,,,,2025-12-04,1,,,,,エスアールエヌ,0
1773,7010803005634,新規,0,2025-12-04,2025-12-04,キーゲイト・プラス合同会社,,合同会社,東京都,大田区,田園調布本町３４番１６－３０２号,,13,111,1450072,,,,,,,2025-12-04,1,,,,,キーゲイトプラス,0
1785,7011001173793,新規,0,2025-12-04,2025-12-04,Ｆａｎｔｕｍｎ株式会社,,株式会社,東京都,渋谷区,恵比寿西１丁目３番９号マーブルフロントエビス４階,,13,113,1500021,,,,,,,2025-12-04,1,,,,,ファントム,0
1786,7011001173926,新規,0,2025-12-04,2025-12-04,ＬＥＤ　ＬＩＦＥ株式会社,,株式会社,東京都,渋谷区,道玄坂２丁目１５番１号ノア道玄坂３２４,,13,113,1500043,,,,,,,2025-12-04,1,,,,,エルイーディーライフ,0
1789,7011003023063,新規,0,2025-12-04,2025-12-04,ベリー合同会社,,合同会社,東京都,目黒区,大橋１丁目５番１－２４０５号,,13,110,1530044,,,,,,,2025-12-04,1,,,,,ベリー,0
1799,7011103016818,新規,0,2025-12-04,2025-12-04,合同会社ゲキアツ,,合同会社,東京都,新宿区,新宿１丁目１５番７－１０３号御苑ハイツ,,13,104,1600022,,,,,,,2025-12-04,1,,,,,ゲキアツ,0
1801,7011303005785,新規,0,2025-12-04,2025-12-04,合資会社ＳＴＥＬＬＡ,,合資会社,東京都,杉並区,荻窪５丁目３０番１２号グローリア荻窪７１３,,13,115,1670051,,,,,,,2025-12-04,1,,,,,ステラ,0
1802,7011401027632,新規,0,2025-12-04,2025-12-04,株式会社創玄,,株式会社,東京都,板橋区,南常盤台１丁目３１番１２号６０２,,13,119,1740072,,,,,,,2025-12-04,1,,,,,ソウゲン,0
1812,7012701019220,新規,0,2025-12-04,2025-12-04,株式会社ＫＹ　ＢＬＯＯＭ,,株式会社,東京都,西東京市,富士町２丁目５番２０号,,13,229,2020014,,,,,,,2025-12-04,1,,,,,ケーワイブルーム,0
1815,7012801024376,新規,0,2025-12-04,2025-12-04,株式会社芸苑道,,株式会社,東京都,立川市,栄町４丁目１４番地の１１エヌアールメゾン２０２,,13,202,1900003,,,,,,,2025-12-04,1,,,,,ゲイエンドウ,0
1822,7020001166063,新規,0,2025-12-04,2025-12-04,株式会社ゴールドブリッジ,,株式会社,神奈川県,横浜市都筑区,大熊町６７２番地,,14,118,2240042,,,,,,,2025-12-04,1,,,,,ゴールドブリッジ,0
1823,7020001166071,新規,0,2025-12-04,2025-12-04,株式会社ＩＲＯＤＲＥＡＭ,,株式会社,神奈川県,横浜市保土ケ谷区,岩崎町１５番２５号,,14,106,2400015,,,,,,,2025-12-04,1,,,,,イロドリーム,0
1826,7020003029887,新規,0,2025-12-04,2025-12-04,合同会社ＲＫ,,合同会社,神奈川県,横浜市西区,北幸１丁目４番１号,,14,103,2200004,,,,,,,2025-12-04,1,,,,,アールケー,0
1835,7030001169882,新規,0,2025-12-04,2025-12-04,株式会社リバリュー,,株式会社,埼玉県,さいたま市桜区,田島１０丁目４番５号,,11,106,3380837,,,,,,,2025-12-04,1,,,,,リバリュー,0
1836,7030001169899,新規,0,2025-12-04,2025-12-04,Ｍ’ｓ　Ｃａｔｓ株式会社,,株式会社,埼玉県,川口市,江戸袋１丁目２２番６号,,11,203,3340075,,,,,,,2025-12-04,1,,,,,エムズキャッツ,0
1837,7030001169908,新規,0,2025-12-04,2025-12-04,株式会社フリー,,株式会社,埼玉県,川口市,大字安行原２４５１番地の６,,11,203,3340057,,,,,,,2025-12-04,1,,,,,フリー,0
1838,7030001169916,新規,0,2025-12-04,2025-12-04,株式会社ＭＶＳ,,株式会社,埼玉県,さいたま市浦和区,常盤３丁目９番９－１１０５号,,11,107,3300061,,,,,,,2025-12-04,1,,,,,エムブイエス,0
1839,7030001169940,新規,0,2025-12-04,2025-12-04,株式会社空中技建,,株式会社,埼玉県,戸田市,氷川町２丁目７番１１号リバーサイドマンション３０２号,,11,224,3350027,,,,,,,2025-12-04,1,,,,,クウチュウギケン,0
1840,7030001169973,新規,0,2025-12-04,2025-12-04,株式会社ＭＩＮＥ,,株式会社,埼玉県,所沢市,林３丁目５１９番地の４３,,11,208,3591167,,,,,,,2025-12-04,1,,,,,ミネ,0
1842,7030003028186,新規,0,2025-12-04,2025-12-04,合同会社Ｆｏｏｄｓ　ａｎｄ　Ｓｅｅｄｓ,,合同会社,埼玉県,さいたま市南区,大字太田窪２０７０－３Ｓａｌｕｔ・Ｈｏｕｓｅ１１０号室,,11,108,3360015,,,,,,,2025-12-04,1,,,,,フーズアンドシーズ,0
1843,7030005022344,新規,0,2025-12-04,2025-12-04,一般社団法人見守りみとり支援協会,,その他の設立登記法人,埼玉県,さいたま市大宮区,吉敷町４丁目２６２番地６すばる新都心内,,11,103,3300843,,,,,,,2025-12-04,1,,,,,ミマモリミトリシエンキョウカイ,0
1854,7070001043613,新規,0,2025-12-04,2025-12-04,株式会社ＡＧＣ,,株式会社,群馬県,高崎市,高関町１７７番地６,,10,202,3700043,,,,,,,2025-12-04,1,,,,,エージーシー,0
1856,7080001027301,新規,0,2025-12-04,2025-12-04,濱村屋ホールディングス株式会社,00141728,株式会社,静岡県,静岡市葵区,流通センター５番８号,,22,101,4200922,,,,,,,2025-12-04,1,,,,,ハマムラヤホールディングス,0
1857,7080101025931,新規,0,2025-12-04,2025-12-04,九十九里発電株式会社,,株式会社,静岡県,沼津市,高島町２６番地の４,,22,203,4100056,,,,,,,2025-12-04,1,,,,,クジュウクリハツデン,0
1859,7090001019636,新規,0,2025-12-04,2025-12-04,株式会社Ｕｎｉｔ　Ｒｉｓｅ,,株式会社,山梨県,甲府市,東光寺町２０３６番地３,,19,201,4000808,,,,,,,2025-12-04,1,,,,,ユニットライズ,0
1862,7100001039161,新規,0,2025-12-04,2025-12-04,株式会社小林製作所,,株式会社,長野県,長野市,大字石渡１１０番地,,20,201,3810015,,,,,,,2025-12-04,1,,,,,コバヤシセイサクショ,0
1869,7110001039755,新規,0,2025-12-04,2025-12-04,ＫＵＮＩＴＡＴＩ株式会社,,株式会社,新潟県,魚沼市,魚野地１０８７番地,,15,225,9497423,,,,,,,2025-12-04,1,,,,,クニタチ,0
1880,7120001282420,新規,0,2025-12-04,2025-12-04,株式会社ベータ,,株式会社,大阪府,大阪市中央区,東高麗橋２番３７号三精ビル８０３号室,,27,128,5400039,,,,,,,2025-12-04,1,,,,,ベータ,0
1881,7120001282445,新規,0,2025-12-04,2025-12-04,株式会社塩梅,,株式会社,大阪府,大阪市北区,西天満４丁目７番７号－２Ｆ,,27,127,5300047,,,,,,,2025-12-04,1,,,,,アンバイ,0
1882,7120001282453,新規,0,2025-12-04,2025-12-04,株式会社ＮＤＬ,,株式会社,大阪府,大阪市港区,市岡１丁目４番２４号住宅情報ビル４Ｆ,,27,107,5520012,,,,,,,2025-12-04,1,,,,,エヌディーエル,0
1883,7120001282503,新規,0,2025-12-04,2025-12-04,日昇株式会社,,株式会社,大阪府,大阪市生野区,新今里３丁目３番１号,,27,116,5440001,,,,,,,2025-12-04,1,,,,,ニッショウ,0
1887,7120003031346,新規,0,2025-12-04,2025-12-04,合同会社Ｅｖｅｒｇｒｅｅｎ　Ｐａｒｔｎｅｒｓ,,合同会社,大阪府,大阪市北区,野崎町７－８梅田パークビル３０５,,27,127,5300055,,,,,,,2025-12-04,1,,,,,エバーグリーンパートナーズ,0
1888,7120003031379,新規,0,2025-12-04,2025-12-04,フィルエネルギーワールド１号合同会社,,合同会社,大阪府,大阪市北区,天神橋１丁目９－５－１０１,,27,127,5300041,,,,,,,2025-12-04,1,,,,,フィルエネルギーワールドイチゴウ,0
1896,7122001039973,新規,0,2025-12-04,2025-12-04,Ｆｌｕｍａｒｅ株式会社,,株式会社,大阪府,大東市,北条６丁目５番２１号,,27,218,5740011,,,,,,,2025-12-04,1,,,,,フルマーレ,0
1903,7130001081144,新規,0,2025-12-04,2025-12-04,アズ・ア・ビー株式会社,,株式会社,京都府,京都市山科区,大宅桟敷１番地８,,26,110,6078194,,,,,,,2025-12-04,1,,,,,アズアビー,0
1904,7130001081152,新規,0,2025-12-04,2025-12-04,ベルテックス株式会社,,株式会社,京都府,京都市右京区,西京極橋詰町２０番地２,,26,108,6150833,,,,,,,2025-12-04,1,,,,,ベルテックス,0
1906,7130003010976,新規,0,2025-12-04,2025-12-04,合同会社ｃｈｉｃｋ,,合同会社,京都府,京都市下京区,鍛冶屋町４４８－２０７,,26,106,6008079,,,,,,,2025-12-04,1,,,,,チック,0
1907,7130005017532,新規,0,2025-12-04,2025-12-04,一般社団法人京都構造情報プラットフォーム,,その他の設立登記法人,京都府,京都市左京区,吉田近衛町医学部構内Ａ棟３階岩田研究室,,26,103,6068315,,,,,,,2025-12-04,1,,,,,キョウトコウゾウジョウホウプラットフォーム,0
1914,7140001140956,新規,0,2025-12-04,2025-12-04,武庫不動産株式会社,,株式会社,兵庫県,尼崎市,武庫之荘１丁目５番１１号,,28,202,6610035,,,,,,,2025-12-04,1,,,,,ムコフドウサン,0
1915,7140001140972,新規,0,2025-12-04,2025-12-04,ＤＳＧ株式会社,,株式会社,兵庫県,芦屋市,浜町４番４号,,28,206,6590025,,,,,,,2025-12-04,1,,,,,ディーエスジー,0
1919,7140003022921,新規,0,2025-12-04,2025-12-04,合同会社ＭＩＭＩＭＩ,,合同会社,兵庫県,宝塚市,雲雀丘３丁目５番１８号,,28,214,6650805,,,,,,,2025-12-04,1,,,,,ミミミ,0
1920,7140005027720,新規,0,2025-12-04,2025-12-04,一般社団法人Ｗｉｄｅ　Ｆｉｅｌｄ,,その他の設立登記法人,兵庫県,伊丹市,野間北１丁目２番１６号,,28,207,6640875,,,,,,,2025-12-04,1,,,,,ワイドフィールド,0
1921,7150001028580,新規,0,2025-12-04,2025-12-04,株式会社森嶋建材,,株式会社,奈良県,桜井市,大字大豆越１５４番地の１,,29,206,6330087,,,,,,,2025-12-04,1,,,,,モリシマケンザイ,0
1941,7180001169793,新規,0,2025-12-04,2025-12-04,株式会社コーラルリンク,,株式会社,愛知県,名古屋市中区,栄２丁目１５番１４号ザ・グランアルト栄１１０１号,,23,106,4600008,,,,,,,2025-12-04,1,,,,,コーラルリンク,0
1942,7180001169802,新規,0,2025-12-04,2025-12-04,株式会社リアクシード,,株式会社,愛知県,名古屋市中村区,十王町６－８、１階,,23,105,4530035,,,,,,,2025-12-04,1,,,,,リアクシード,0
1945,7180005021331,新規,0,2025-12-04,2025-12-04,一般社団法人いちのみやハイウェイオアシスプロジェクトチームエナジー,,その他の設立登記法人,愛知県,一宮市,花池２丁目１９番１２号,,23,203,4910914,,,,,,,2025-12-04,1,,,,,イチノミヤハイウェイオアシスプロジェクトチームエナジー,0
1946,7180301040464,新規,0,2025-12-04,2025-12-04,株式会社サンバン,,株式会社,愛知県,豊橋市,大岩町字久保田４８番地の２４,,23,201,4413134,,,,,,,2025-12-04,1,,,,,サンバン,0
1947,7190001032736,新規,0,2025-12-04,2025-12-04,株式会社ナオスコウムテン,,株式会社,三重県,津市,河芸町東千里１３３番地,,24,201,5100303,,,,,,,2025-12-04,1,,,,,ナオスコウムテン,0
1963,7230003002542,新規,0,2025-12-04,2025-12-04,合同会社うらら,,合同会社,富山県,富山市,下堀４３－８,,16,201,9398055,,,,,,,2025-12-04,1,,,,,ウララ,0
1964,7240003007508,新規,0,2025-12-04,2025-12-04,合同会社建物管理,,合同会社,広島県,広島市西区,中広町３丁目９番２５号長寿堂ビル１階,,34,104,7330012,,,,,,,2025-12-04,1,,,,,タテモノカンリ,0
1965,7240005016011,新規,0,2025-12-04,2025-12-04,一般社団法人傾聴の会,,その他の設立登記法人,広島県,安芸郡府中町,本町５丁目１３番１２号シティーハイム谷崎Ｂ－２０２,,34,302,7350006,,,,,,,2025-12-04,1,,,,,ケイチョウノカイ,0
1966,7250003003852,新規,0,2025-12-04,2025-12-04,合同会社Ｈｅｘａ　ｐｏｔ　ｊａｐａｎ,,合同会社,山口県,山陽小野田市,大字西高泊２００２番地３２,,35,216,7560057,,,,,,,2025-12-04,1,,,,,ヘキサポットジャパン,0
1972,7290001112395,新規,0,2025-12-04,2025-12-04,株式会社Ｈｏｍｅ　Ｂｕｉｌｄｅｒｓ,,株式会社,福岡県,福岡市西区,野方１丁目１９番１９号,,40,135,8190043,,,,,,,2025-12-04,1,,,,,ホームビルダーズ,0
1973,7290001112420,新規,0,2025-12-04,2025-12-04,株式会社大島ビル,,株式会社,福岡県,福岡市博多区,博多駅南４丁目１１番２８号大島ビル２０１号,,40,132,8120016,,,,,,,2025-12-04,1,,,,,オオシマビル,0
1979,7310001019877,新規,0,2025-12-04,2025-12-04,株式会社Ｓｐｉｎ,,株式会社,長崎県,長崎市,諏訪町８番７－５０２号,,42,201,8500873,,,,,,,2025-12-04,1,,,,,スピン,0
1981,7330001033793,新規,0,2025-12-04,2025-12-04,株式会社ヒラキ,,株式会社,熊本県,玉名市,天水町小天６９６１番地,,43,206,8615401,,,,,,,2025-12-04,1,,,,,ヒラキ,0
1982,7330001033802,新規,0,2025-12-04,2025-12-04,株式会社Ｇ．Ｏ,,株式会社,熊本県,人吉市,鬼木町８３６番地,,43,203,8680021,,,,,,,2025-12-04,1,,,,,ジーオー,0
1983,7330001033810,新規,0,2025-12-04,2025-12-04,株式会社ユーアイ,,株式会社,熊本県,熊本市中央区,新大江２丁目１０番５号,,43,101,8620972,,,,,,,2025-12-04,1,,,,,ユーアイ,0
1990,7360005007329,新規,0,2025-12-04,2025-12-04,一般社団法人ｅｔｓｕｋｏ３６５,,その他の設立登記法人,沖縄県,沖縄市,美里５丁目１８番２５号,,47,211,9042153,,,,,,,2025-12-04,1,,,,,エツコサンロクゴ,0
1994,7370003007387,新規,0,2025-12-04,2025-12-04,合同会社松浦企画,,合同会社,宮城県,岩沼市,二木２丁目９番２号,,04,211,9892448,,,,,,,2025-12-04,1,,,,,マツウラキカク,0
1999,7400003003572,新規,0,2025-12-04,2025-12-04,合同会社満商事,,合同会社,岩手県,胆沢郡金ケ崎町,西根字橇曳沢３１－８,,03,381,0294503,,,,,,,2025-12-04,1,,,,,ミチルショウジ,0
2004,7430001095790,新規,0,2025-12-04,2025-12-04,株式会社白木企画,,株式会社,北海道,札幌市東区,北八条東３丁目２番２－１０２号,,01,103,0600908,,,,,,,2025-12-04,1,,,,,シラキキカク,0
2008,7430003018386,新規,0,2025-12-04,2025-12-04,Ｙ’ｓ　ｉｎｎｏｖａｔｉｏｎ合同会社,,合同会社,北海道,札幌市中央区,南二条西３丁目１３番地４カタオカビル３Ｆ,,01,101,0600062,,,,,,,2025-12-04,1,,,,,ワイズイノベーション,0
2010,7450001014798,新規,0,2025-12-04,2025-12-04,株式会社篠原,,株式会社,北海道,旭川市,東五条９丁目２－６,,01,204,0700025,,,,,,,2025-12-04,1,,,,,シノハラ,0
2011,7460001006051,新規,0,2025-12-04,2025-12-04,株式会社厚岸７８,,株式会社,北海道,厚岸郡厚岸町,港町１丁目２５番地,,01,662,0881128,,,,,,,2025-12-04,1,,,,,アッケシナナハチ,0
2022,7700150133175,新規,0,2025-12-04,2025-12-04,ヴィーダ・ウッドＡＢ,,外国会社等,東京都,港区,虎ノ門１丁目１番２３号,,13,103,1050001,スウェーデン王国３４２２１アルベスタ、ボックス１００,,,,,,2025-12-04,1,,,,,ヴイーダウツドエービー,0
2033,8010001260782,新規,0,2025-12-04,2025-12-04,株式会社Ａｚｕｒｅ　Ｐａｒｔｎｅｒｓ,,株式会社,東京都,千代田区,神田和泉町１番地６－１６ヤマトビル４０５,,13,101,1010024,,,,,,,2025-12-04,1,,,,,アズールパートナーズ,0
2034,8010001260849,新規,0,2025-12-04,2025-12-04,株式会社コマーシア,,株式会社,東京都,中央区,銀座１丁目２２番１１号銀座大竹ビジデンス２Ｆ,,13,102,1040061,,,,,,,2025-12-04,1,,,,,コマーシア,0
2035,8010001260865,新規,0,2025-12-04,2025-12-04,株式会社ＭＯＺ　ＡＵＤＩＯ,,株式会社,東京都,千代田区,神田和泉町１番地６の１６ヤマトビル４０５,,13,101,1010024,,,,,,,2025-12-04,1,,,,,モズオーディオ,0
2036,8010001260898,新規,0,2025-12-04,2025-12-04,ＤＦＥ株式会社,,株式会社,東京都,千代田区,神田鍛冶町３丁目７番地３３,,13,101,1010045,,,,,,,2025-12-04,1,,,,,ディーエフイー,0
2039,8010003049571,新規,0,2025-12-04,2025-12-04,礎３合同会社,,合同会社,東京都,千代田区,永田町２丁目４番８号,,13,101,1000014,,,,,,,2025-12-04,1,,,,,イシズエスリー,0
2054,8010701048684,新規,0,2025-12-04,2025-12-04,３Ｅグリーンジャパン株式会社,,株式会社,東京都,品川区,西品川１丁目１０番２号,,13,109,1410033,,,,,,,2025-12-04,1,,,,,スリーイーグリーンジャパン,0
2056,8010801036837,新規,0,2025-12-04,2025-12-04,株式会社ＬＮＳ,,株式会社,東京都,大田区,仲六郷２丁目４４番１０－２０１号,,13,111,1440055,,,,,,,2025-12-04,1,,,,,エルエヌエス,0
2057,8010903010459,新規,0,2025-12-04,2025-12-04,リトル・スラッガー合同会社,,合同会社,東京都,世田谷区,北沢４丁目１６番２１－２０２号,,13,112,1550031,,,,,,,2025-12-04,1,,,,,リトルスラッガー,0
2063,8011001173917,新規,0,2025-12-04,2025-12-04,株式会社Ｐｌａｎａｒｉａ,,株式会社,東京都,渋谷区,道玄坂１丁目１２番１号渋谷マークシティＷ２２階,,13,113,1500043,,,,,,,2025-12-04,1,,,,,プラナリア,0
2066,8011003022956,新規,0,2025-12-04,2025-12-04,Ｂｒｅｅｃｉａ合同会社,,合同会社,東京都,渋谷区,道玄坂１丁目１０番８号渋谷道玄坂東急ビル２Ｆ－Ｃ,,13,113,1500043,,,,,,,2025-12-04,1,,,,,ブリーシア,0
2067,8011003023038,新規,0,2025-12-04,2025-12-04,バァロアストラテジー合同会社,,合同会社,東京都,渋谷区,恵比寿西２丁目４番８号ウィンド恵比寿ビル８Ｆ,,13,113,1500021,,,,,,,2025-12-04,1,,,,,バァロアストラテジー,0
2071,8011101114011,新規,0,2025-12-04,2025-12-04,Ｌｉｎｋｐｏｒｔ株式会社,,株式会社,東京都,新宿区,西新宿３丁目３番１３号西新宿水間ビル６階,,13,104,1600023,,,,,,,2025-12-04,1,,,,,リンクポート,0
2072,8011101114119,新規,0,2025-12-04,2025-12-04,株式会社Ｄａｗｎ,,株式会社,東京都,新宿区,矢来町４４番地１ＧＲＡＮＰＡＳＥＯ神楽坂ＩＩ４０２,00141727,13,104,1620805,,,,,,,2025-12-04,1,,,,,ドーン,0
2087,8012801024400,新規,0,2025-12-04,2025-12-04,スケーレンス株式会社,,株式会社,東京都,国分寺市,東恋ヶ窪５丁目３－１－４２２,,13,214,1850014,,,,,,,2025-12-04,1,,,,,スケーレンス,0
2098,8020001166062,新規,0,2025-12-04,2025-12-04,株式会社Ｒｏｃｋ　Ｈａｎｄ,,株式会社,神奈川県,横浜市鶴見区,元宮２丁目１番８０－４０４号,,14,101,2300004,,,,,,,2025-12-04,1,,,,,ロックハンド,0
2099,8020001166095,新規,0,2025-12-04,2025-12-04,風谷テクノ株式会社,,株式会社,神奈川県,横浜市神奈川区,西寺尾３丁目２番４７－１０１号,,14,102,2210001,,,,,,,2025-12-04,1,,,,,カゼタニテクノ,0
2100,8020001166137,新規,0,2025-12-04,2025-12-04,株式会社カスタナータ,,株式会社,神奈川県,川崎市中原区,井田杉山町２９番１３－２０３号,,14,133,2110036,,,,,,,2025-12-04,1,,,,,カスタナータ,0
2103,8020003029928,新規,0,2025-12-04,2025-12-04,合同会社ミヤモトワークス,,合同会社,神奈川県,川崎市宮前区,有馬６丁目４―１７キャピタル鷺沼２０４,,14,136,2160003,,,,,,,2025-12-04,1,,,,,ミヤモトワークス,0
2117,8030001169948,新規,0,2025-12-04,2025-12-04,株式会社Ｒｅｂａｔｏｎｓ,,株式会社,埼玉県,久喜市,久喜東１丁目１０番２１号,,11,232,3460016,,,,,,,2025-12-04,1,,,,,リバトンズ,0
2118,8030001169972,新規,0,2025-12-04,2025-12-04,株式会社会田商事,,株式会社,埼玉県,さいたま市大宮区,天沼町２丁目１５５番地,,11,103,3300834,,,,,,,2025-12-04,1,,,,,アイダショウジ,0
2122,8030003028177,新規,0,2025-12-04,2025-12-04,合同会社ジャパン・クリエイト,,合同会社,埼玉県,所沢市,大字荒幡１０２１番地の１ウィスタリアＢ－１０３,,11,208,3591133,,,,,,,2025-12-04,1,,,,,ジャパンクリエイト,0
2123,8030003028185,新規,0,2025-12-04,2025-12-04,モエク合同会社,,合同会社,埼玉県,比企郡ときがわ町,大字桃木１３－２,,11,349,3550361,,,,,,,2025-12-04,1,,,,,モエク,0
2128,8040001141625,新規,0,2025-12-04,2025-12-04,株式会社紡ぎ舎,,株式会社,千葉県,柏市,高田１２４０番１３号,,12,217,2770861,,,,,,,2025-12-04,1,,,,,ツムギシャ,0
2132,8040003029034,新規,0,2025-12-04,2025-12-04,ミユキホームズ合同会社,,合同会社,千葉県,松戸市,千駄堀１２４７番地の３,,12,207,2702252,,,,,,,2025-12-04,1,,,,,ミユキホームス,0
2133,8040003029059,新規,0,2025-12-04,2025-12-04,ＦＮ３合同会社,,合同会社,千葉県,富津市,篠部２４８３番地４,,12,226,2930024,,,,,,,2025-12-04,1,,,,,エフエヌスリー,0
2134,8040003029075,新規,0,2025-12-04,2025-12-04,合同会社Ｌａｕｒｅｌ,,合同会社,千葉県,柏市,大室１丁目３番地１,,12,217,2770813,,,,,,,2025-12-04,1,,,,,ロウレル,0
2136,8060001038803,新規,0,2025-12-04,2025-12-04,株式会社たり穂,,株式会社,栃木県,栃木市,平柳町２丁目１２番４号,,09,203,3280012,,,,,,,2025-12-04,1,,,,,タリホ,0
2137,8060001038811,新規,0,2025-12-04,2025-12-04,株式会社ＧｌｏｂａｌＭａｒｋｅｔ　ＷＩＮＧ,,株式会社,栃木県,宇都宮市,栄町１番１５号,,09,201,3200024,,,,,,,2025-12-04,1,,,,,グローバルマーケットウィング,0
2148,8100003008502,新規,0,2025-12-04,2025-12-04,ＣｅｎｅＣ合同会社,,合同会社,長野県,北佐久郡軽井沢町,大字長倉鳥井原１６９０番地１,,20,321,3890111,,,,,,,2025-12-04,1,,,,,シーエンシー,0
2172,8120001282452,新規,0,2025-12-04,2025-12-04,株式会社ネクストコンサルティング,,株式会社,大阪府,大阪市中央区,安土町２丁目３番１３号大阪国際ビルディング３１階,,27,128,5410052,,,,,,,2025-12-04,1,,,,,ネクストコンサルティング,0
2173,8120001282460,新規,0,2025-12-04,2025-12-04,株式会社ｆｌａｇｓｈｉｐ,,株式会社,大阪府,大阪市城東区,今福東１丁目８－１５－７１９,,27,118,5360002,,,,,,,2025-12-04,1,,,,,フラッグシップ,0
2180,8120101072877,新規,0,2025-12-04,2025-12-04,株式会社ＯＢＳ　Ｇｒｏｕｐ,,株式会社,大阪府,泉南市,信達市場１５９８番地の１,,27,228,5900504,,,,,,,2025-12-04,1,,,,,オービーエスグループ,0
2184,8130005017531,新規,0,2025-12-04,2025-12-04,一般社団法人Ｍａｚｉ　ＢＡＳＥ,,その他の設立登記法人,京都府,京都市伏見区,桃山町大島３８－５２８,,26,109,6128006,,,,,,,2025-12-04,1,,,,,マズィベース,0
2188,8140001140922,新規,0,2025-12-04,2025-12-04,株式会社Ｎ‐ＰＲＯ,,株式会社,兵庫県,姫路市,若菜町２丁目１１番地,,28,201,6700941,,,,,,,2025-12-04,1,,,,,エヌプロ,0
2189,8140001140988,新規,0,2025-12-04,2025-12-04,株式会社佐伯,,株式会社,兵庫県,加古川市,加古川町稲屋２７９番地の６,,28,210,6750034,,,,,,,2025-12-04,1,,,,,サエキ,0
2196,8160001027259,新規,0,2025-12-04,2025-12-04,ＡＭＰ株式会社,,株式会社,滋賀県,近江八幡市,出町９７番地２,,25,204,5230892,,,,,,,2025-12-04,1,,,,,エイエムピー,0
2209,8180001169710,新規,0,2025-12-04,2025-12-04,株式会社アルバライズ,,株式会社,愛知県,名古屋市東区,東大曽根町４１番１０号ＳＵＮＶＩＣＣ大曽根１０２号,,23,102,4610022,,,,,,,2025-12-04,1,,,,,アルバライズ,0
2210,8180001169751,新規,0,2025-12-04,2025-12-04,株式会社ペガサス海山,,株式会社,愛知県,名古屋市中川区,尾頭橋３丁目３番３号,,23,110,4540012,,,,,,,2025-12-04,1,,,,,ペガサスミヤマ,0
2211,8180001169776,新規,0,2025-12-04,2025-12-04,株式会社エスケイ,,株式会社,愛知県,名古屋市中区,大須２丁目６番９号,,23,106,4600011,,,,,,,2025-12-04,1,,,,,エスケイ,0
2213,8180005021330,新規,0,2025-12-04,2025-12-04,どりかむ２１行政書士法人,,その他の設立登記法人,愛知県,名古屋市熱田区,神宮３丁目９番１４号,,23,109,4560031,,,,,,,2025-12-04,1,,,,,ドリカムニジュウイチ,0
2216,8190001032735,新規,0,2025-12-04,2025-12-04,オーユーホールディングス株式会社,,株式会社,三重県,津市,森町１６７６番地１,,24,201,5141254,,,,,,,2025-12-04,1,,,,,オーユーホールディングス,0
2227,8220001027054,新規,0,2025-12-04,2025-12-04,株式会社ＥＴＢ商事,,株式会社,石川県,金沢市,金石東１丁目３番３６号,,17,201,9200335,,,,,,,2025-12-04,1,,,,,イーティービーショウジ,0
2228,8220001027062,新規,0,2025-12-04,2025-12-04,株式会社マーリーフォー,,株式会社,石川県,鳳珠郡能登町,字矢波く字２４－１,,17,463,9270443,,,,,,,2025-12-04,1,,,,,,0
2230,8220003004183,新規,0,2025-12-04,2025-12-04,合同会社ＭｙＬａｎｄ,,合同会社,石川県,かほく市,宇気子１４８番地,,17,209,9291121,,,,,,,2025-12-04,1,,,,,マイランド,0
2234,8240001065861,新規,0,2025-12-04,2025-12-04,株式会社アースホールディングス,,株式会社,広島県,広島市南区,宇品海岸２丁目１２番３９号,,34,103,7340011,,,,,,,2025-12-04,1,,,,,アースホールディングス,0
2249,8290001112394,新規,0,2025-12-04,2025-12-04,ビットコイン・セイヴァー株式会社,,株式会社,福岡県,福岡市早良区,百道浜２丁目３番８号,,40,137,8140001,,,,,,,2025-12-04,1,,,,,ビットコインセイヴァー,0
2251,8290801032073,新規,0,2025-12-04,2025-12-04,アドバンスホーム株式会社,,株式会社,福岡県,北九州市八幡東区,清田２丁目１６番２１号清田グリーンハイツ２０２,,40,108,8050034,,,,,,,2025-12-04,1,,,,,アドバンスホーム,0
2255,8320001021468,新規,0,2025-12-04,2025-12-04,株式会社佑メディカルワークス,,株式会社,大分県,大分市,長浜町１丁目７番１号,,44,201,8700023,,,,,,,2025-12-04,1,,,,,タスクメディカルワークス,0
2256,8320003004842,新規,0,2025-12-04,2025-12-04,合同会社クロース,,合同会社,大分県,豊後大野市,清川町砂田９５７番地１,,44,212,8796903,,,,,,,2025-12-04,1,,,,,クロース,0
2257,8330001033801,新規,0,2025-12-04,2025-12-04,株式会社アタカホールディングス,,株式会社,熊本県,熊本市中央区,南熊本５丁目１番１号,,43,101,8600812,,,,,,,2025-12-04,1,,,,,アタカホールディングス,0
2259,8350001019831,新規,0,2025-12-04,2025-12-04,エフ・アール・ジェイ株式会社,,株式会社,宮崎県,えびの市,大字前田２６番地２加治佐ビル３１１,,45,209,8894305,,,,,,,2025-12-04,1,,,,,エフアールジェイ,0
2265,8360005007328,新規,0,2025-12-04,2025-12-04,弁護士法人ＴＨＲＥＥＵＰ,,その他の設立登記法人,沖縄県,那覇市,泉崎２丁目４番６号朝日印刷ビル１階,,47,201,9000021,,,,,,,2025-12-04,1,,,,,スリーアップ,0
2279,8430001095781,新規,0,2025-12-04,2025-12-04,アマテラスキャピタル株式会社,,株式会社,北海道,札幌市東区,北八条東４丁目１－２０,,01,103,0600908,,,,,,,2025-12-04,1,,,,,アマテラスキャピタル,0
2285,8430003018377,新規,0,2025-12-04,2025-12-04,合同会社ネクストワン,,合同会社,北海道,札幌市中央区,北五条西１７丁目４番地８ノースファインＮ５－２Ｆ,,01,101,0600005,,,,,,,2025-12-04,1,,,,,ネクストワン,0
2286,8430003018385,新規,0,2025-12-04,2025-12-04,合同会社宇山管財,,合同会社,北海道,札幌市北区,北二十五条西１６丁目１番７号,,01,102,0010025,,,,,,,2025-12-04,1,,,,,ウヤマカンザイ,0
2287,8460001006050,新規,0,2025-12-04,2025-12-04,株式会社サムネバカ,,株式会社,北海道,釧路市,愛国東３丁目８番６号,,01,206,0850058,,,,,,,2025-12-04,1,,,,,サムネバカ,0
2289,8462501001051,新規,0,2025-12-04,2025-12-04,株式会社大西牧場,,株式会社,北海道,野付郡別海町,上春別２０４番地の１４,,01,691,0882725,,,,,,,2025-12-04,1,,,,,オオニシボクジョウ,0
2290,8480001013029,新規,0,2025-12-04,2025-12-04,株式会社茶輪,,株式会社,徳島県,徳島市,三軒屋町下分２６番地の２６,,36,201,7708025,,,,,,,2025-12-04,1,,,,,チャリン,0
2296,9010001260716,新規,0,2025-12-04,2025-12-04,株式会社Ｎｏｈａｎａ,,株式会社,東京都,中央区,晴海５丁目５番６－４０５号,,13,102,1040053,,,,,,,2025-12-04,1,,,,,ノハナ,0
2297,9010001260781,新規,0,2025-12-04,2025-12-04,ＨＣホールディングス株式会社,,株式会社,東京都,千代田区,岩本町３丁目１０番１３号,,13,101,1010032,,,,,,,2025-12-04,1,,,,,エイチシーホールディングス,0
2298,9010001260864,新規,0,2025-12-04,2025-12-04,株式会社Ｌｕｄｅｎｓ　ＡＩ,,株式会社,東京都,千代田区,丸の内１丁目１１－１パシフィックセンチュリープレイス丸の内８階,,13,101,1000005,,,,,,,2025-12-04,1,,,,,ルーデンスエーアイ,0
2299,9010003049513,新規,0,2025-12-04,2025-12-04,合同会社ＰＭＡ,,合同会社,東京都,千代田区,神田和泉町１番地６－１６ヤマトビル４０５,,13,101,1010024,,,,,,,2025-12-04,1,,,,,ピーエムエー,0
2300,9010003049579,新規,0,2025-12-04,2025-12-04,合同会社ＴＯＰＡＺ　Ｔｗｏ,,合同会社,東京都,千代田区,霞が関３丁目２番５号,,13,101,1000013,,,,,,,2025-12-04,1,,,,,トパーズツー,0
2301,9010003049629,新規,0,2025-12-04,2025-12-04,合同会社ファイブ,,合同会社,東京都,中央区,銀座１丁目１２番４号Ｎ＆Ｅ－ＢＬＤ．６Ｆ,,13,102,1040061,,,,,,,2025-12-04,1,,,,,ファイブ,0
2306,9010401194910,新規,0,2025-12-04,2025-12-04,ＨｙｄｒｏＧｅｉａ　Ｈｅａｌｔｈ株式会社,,株式会社,東京都,港区,新橋１丁目１番１３号アーバンネット内幸町ビル３Ｆ,,13,103,1050004,,,,,,,2025-12-04,1,,,,,ハイドロジェイヤヘルス,0
2307,9010403036672,新規,0,2025-12-04,2025-12-04,ＭＡＳＡインベストメント合同会社,,合同会社,東京都,港区,海岸１丁目１６－１ニューピア竹芝サウスタワー６階,,13,103,1050022,,,,,,,2025-12-04,1,,,,,マサインベストメント,0
2317,9010703008017,新規,0,2025-12-04,2025-12-04,合同会社Ｏｈａｎａ,,合同会社,東京都,品川区,戸越２丁目５－９コーポ山口２０１号,,13,109,1420041,,,,,,,2025-12-04,1,,,,,オハナ,0
2320,9010801036836,新規,0,2025-12-04,2025-12-04,株式会社大田中央動物病院,,株式会社,東京都,大田区,中央７丁目２番１号高垣ビル１Ｆ,,13,111,1430024,,,,,,,2025-12-04,1,,,,,オオタチュウオウドウブツビョウイン,0
2321,9010801036844,新規,0,2025-12-04,2025-12-04,株式会社ｂｙ’ｚ,,株式会社,東京都,大田区,東蒲田２丁目３０番１２号,,13,111,1440031,,,,,,,2025-12-04,1,,,,,バイズ,0
2326,9010803005632,新規,0,2025-12-04,2025-12-04,合同会社ＣｉｖｉｃＲｅａｃｈ,,合同会社,東京都,大田区,上池台１丁目１６番９号,,13,111,1450064,,,,,,,2025-12-04,1,,,,,シビックリーチ,0
2328,9010901058549,新規,0,2025-12-04,2025-12-04,ＬＵＳＴＥＲ株式会社,,株式会社,東京都,世田谷区,太子堂４丁目１８番１５号マガザン三軒茶屋２・３Ｆ－３,,13,112,1540004,,,,,,,2025-12-04,1,,,,,ラスター,0
2331,9011001173676,新規,0,2025-12-04,2025-12-04,株式会社Ｋ‐Ｌａｂ,,株式会社,東京都,渋谷区,東４丁目８―８,,13,113,1500011,,,,,,,2025-12-04,1,,,,,ケーラボ,0
2332,9011001173957,新規,0,2025-12-04,2025-12-04,ＢＬＵＥＦＬＡＧ株式会社,,株式会社,東京都,渋谷区,道玄坂１丁目１０番８号渋谷道玄坂東急ビル２Ｆ－Ｃ,,13,113,1500043,,,,,,,2025-12-04,1,,,,,ブルーフラッグ,0
2335,9011003023045,新規,0,2025-12-04,2025-12-04,合同会社ｅ‐ｓｔｏｒｍ,,合同会社,東京都,渋谷区,円山町５番３号ＭＩＥＵＸ渋谷ビル８階,,13,113,1500044,,,,,,,2025-12-04,1,,,,,イーストーム,0
2341,9011101113904,新規,0,2025-12-04,2025-12-04,株式会社ネオ,,株式会社,東京都,新宿区,西新宿３丁目５－１２トーカン新宿第２キャステール２０９号室,,13,104,1600023,,,,,,,2025-12-04,1,,,,,ネオ,0
2342,9011101114200,新規,0,2025-12-04,2025-12-04,株式会社ミレ,,株式会社,東京都,新宿区,歌舞伎町２丁目１９番１６号ＹＫＫビル１階,,13,104,1600021,,,,,,,2025-12-04,1,,,,,ミレ,0
2343,9011103016816,新規,0,2025-12-04,2025-12-04,合同会社Ｌｉｓｔｅｍｅｓ,,合同会社,東京都,新宿区,西早稲田２丁目６番１号ドゥーエ早稲田７１０,,13,104,1690051,,,,,,,2025-12-04,1,,,,,リスティームス,0
2344,9011201026824,新規,0,2025-12-04,2025-12-04,株式会社ＳＭＲ,,株式会社,東京都,中野区,東中野５丁目２番１３－２４０２号,,13,114,1640003,,,,,,,2025-12-04,1,,,,,エスエムアール,0
2351,9011401027630,新規,0,2025-12-04,2025-12-04,株式会社城北測量事務所,,株式会社,東京都,板橋区,桜川３丁目２０番１１号神山ビル２０１,,13,119,1740075,,,,,,,2025-12-04,1,,,,,ジョウホクソクリョウジムショ,0
2353,9011601029204,新規,0,2025-12-04,2025-12-04,トライリンクス株式会社,,株式会社,東京都,練馬区,石神井台４丁目７－２９アルジェント三和１０３,,13,120,1770045,,,,,,,2025-12-04,1,,,,,トライリンクス,0
2364,9012801024399,新規,0,2025-12-04,2025-12-04,株式会社レイズ,,株式会社,東京都,東大和市,南街５丁目９５番地７グリーンテラス２階事務所,,13,220,2070014,,,,,,,2025-12-04,1,,,,,レイズ,0
2365,9012805003382,新規,0,2025-12-04,2025-12-04,一般社団法人ヘアビューティーアカデミー協会,,その他の設立登記法人,東京都,立川市,錦町２丁目１番２６号Ｎビルディング４０１,,13,202,1900022,,,,,,,2025-12-04,1,,,,,ヘアビューティーアカデミーキョウカイ,0
2369,9013301055364,新規,0,2025-12-04,2025-12-04,株式会社ＢＲＩＮＧ,,株式会社,東京都,豊島区,南池袋２丁目３５番４号ユニティ池袋３Ｆ,,13,116,1710022,,,,,,,2025-12-04,1,,,,,ブリング,0
2379,9020001166061,新規,0,2025-12-04,2025-12-04,株式会社ヴィラエステート,,株式会社,神奈川県,横浜市栄区,桂台西２丁目１３番２１号,,14,115,2470035,,,,,,,2025-12-04,1,,,,,ヴィラエステート,0
2380,9020001166078,新規,0,2025-12-04,2025-12-04,株式会社Ｖｅｒｉｓｉａ,,株式会社,神奈川県,川崎市多摩区,生田７丁目１０番６－１０１号,,14,135,2140038,,,,,,,2025-12-04,1,,,,,ヴェリシア,0
2388,9021001087033,新規,0,2025-12-04,2025-12-04,株式会社と道,,株式会社,神奈川県,鎌倉市,笛田６丁目３番１１号,,14,204,2480027,,,,,,,2025-12-04,1,,,,,トミチ,0
2400,9030001169815,新規,0,2025-12-04,2025-12-04,株式会社エーフォーユー,,株式会社,埼玉県,三郷市,新和４丁目４６１番地４Ｍ．ＴハイムＢ２０１号室,,11,237,3410034,,,,,,,2025-12-04,1,,,,,エーフォーユー,0
2401,9030001169880,新規,0,2025-12-04,2025-12-04,ＧＥＡＲＴＡＳＵ株式会社,,株式会社,埼玉県,所沢市,大字下富１１３０番地の１２,,11,208,3590001,,,,,,,2025-12-04,1,,,,,ギアタス,0
2402,9030001169906,新規,0,2025-12-04,2025-12-04,株式会社ＥＮ,,株式会社,埼玉県,八潮市,八潮６丁目１３番地１５,,11,234,3400815,,,,,,,2025-12-04,1,,,,,エン,0
2403,9030001169947,新規,0,2025-12-04,2025-12-04,株式会社ライフデザイン,,株式会社,埼玉県,さいたま市中央区,上落合２丁目３番２号Мｉо新都心,,11,105,3380001,,,,,,,2025-12-04,1,,,,,ライフデザイン,0
2406,9030003028184,新規,0,2025-12-04,2025-12-04,ＦＬＡＩＲ合同会社,,合同会社,埼玉県,さいたま市南区,辻３丁目２－２６－３,,11,108,3360026,,,,,,,2025-12-04,1,,,,,フレア,0
2411,9040001141442,新規,0,2025-12-04,2025-12-04,株式会社小山エンジン,,株式会社,千葉県,松戸市,本町一丁目２３Ｗ松戸７階７１８室,,12,207,2710091,,,,,,,2025-12-04,1,,,,,コヤマエンジン,0
2412,9040001141582,新規,0,2025-12-04,2025-12-04,株式会社市原建興,,株式会社,千葉県,四街道市,大日１１４４番地１３,,12,228,2840001,,,,,,,2025-12-04,1,,,,,イチハラケンコウ,0
2413,9040001141624,新規,0,2025-12-04,2025-12-04,株式会社ＥＸＴＥＲＩＯＲ　ＰＲＯＭＯＴＥ,,株式会社,千葉県,流山市,駒木台１１１番地の１オルキス２０２,,12,220,2700113,,,,,,,2025-12-04,1,,,,,エクステリアプロモート,0
2423,9050002045996,新規,0,2025-12-04,2025-12-04,共栄産業有限会社,,有限会社,茨城県,つくば市,上郷１４２１番地の１,,08,220,3002645,,,,,,,2025-12-04,1,,,,,キョウエイサンギョウ,0
2424,9050005013736,新規,0,2025-12-04,2025-12-04,一般社団法人ＣＥＮＴＲＡＬ　ＲＵＹＡＴ　ＨＩＬＡＬ　ＣＯＭＭＩＴＴＥＥ　ＪＡＰＡＮ,,その他の設立登記法人,茨城県,古河市,上大野２０１８番地２,,08,204,3060201,,,,,,,2025-12-04,1,,,,,セントラルローヤッテヒラルコメッテジャパン,0
2426,9060001038819,新規,0,2025-12-04,2025-12-04,株式会社ＭＵＳＵ,,株式会社,栃木県,宇都宮市,下桑島町３９７番地７,,09,201,3210914,,,,,,,2025-12-04,1,,,,,ムス,0
2429,9070005010450,新規,0,2025-12-04,2025-12-04,一般社団法人ぐんま探究コンソーシアム,,その他の設立登記法人,群馬県,前橋市,小屋原町１１５４番地４,,10,201,3792121,,,,,,,2025-12-04,1,,,,,グンマタンキュウコンソーシアム,0
2434,9080103003479,新規,0,2025-12-04,2025-12-04,ＦＴＧアセットマネジメント合同会社,,合同会社,静岡県,三島市,松本３７０番地の３４大栄開発ビル２階,,22,206,4110822,,,,,,,2025-12-04,1,,,,,エフティージーアセットマネジメント,0
2438,9110001039753,新規,0,2025-12-04,2025-12-04,株式会社シルクロード,,株式会社,新潟県,新潟市西区,新田２１９番地１,,15,107,9502034,,,,,,,2025-12-04,1,,,,,シルクロード,0
2452,9120001281338,新規,0,2025-12-04,2025-12-04,株式会社紡來,,株式会社,大阪府,大阪市中央区,北浜２丁目１－２３－７階,,27,128,5410041,,,,,,,2025-12-04,1,,,,,ツムグ,0
2453,9120001282352,新規,0,2025-12-04,2025-12-04,株式会社コモンホールディングス,,株式会社,大阪府,大阪市中央区,久太郎町４丁目１番３号大阪センタービル,,27,128,5410056,,,,,,,2025-12-04,1,,,,,コモンホールディングス,0
2454,9120001282393,新規,0,2025-12-04,2025-12-04,深海匠造株式会社,,株式会社,大阪府,大阪市東淀川区,西淡路５丁目１番１号２階２０４－９号室,,27,114,5330031,,,,,,,2025-12-04,1,,,,,シンカイショウゾウ,0
2455,9120001282419,新規,0,2025-12-04,2025-12-04,株式会社Ｋ’ｓホーム,,株式会社,大阪府,大阪市西淀川区,柏里１丁目１６番８号３階,,27,113,5550022,,,,,,,2025-12-04,1,,,,,ケーズホーム,0
2456,9120001282435,新規,0,2025-12-04,2025-12-04,株式会社Ｂａｉｔｅｎ,,株式会社,大阪府,大阪市西区,京町堀１丁目１５番１２－４０４号,,27,106,5500003,,,,,,,2025-12-04,1,,,,,バイテン,0
2457,9120001282443,新規,0,2025-12-04,2025-12-04,ＲＫ株式会社,,株式会社,大阪府,大阪市鶴見区,鶴見３丁目１２番１０－２７０２号,,27,124,5380053,,,,,,,2025-12-04,1,,,,,アールケイ,0
2458,9120001282468,新規,0,2025-12-04,2025-12-04,株式会社旭,,株式会社,大阪府,大阪市浪速区,恵美須西２丁目１４－３０－５Ｆ,,27,111,5560003,,,,,,,2025-12-04,1,,,,,アサヒ,0
2459,9120001282476,新規,0,2025-12-04,2025-12-04,株式会社ＲＩＳＥＷＩＬＬ,,株式会社,大阪府,大阪市中央区,東高麗橋２－２オリエンタル東高麗橋ビル４階,,27,128,5400039,,,,,,,2025-12-04,1,,,,,ライズウィル,0
2460,9120001282484,新規,0,2025-12-04,2025-12-04,株式会社ＷＳＩ,,株式会社,大阪府,大阪市北区,梅田１丁目２番２号大阪駅前第２ビル１２－１２,,27,127,5300001,,,,,,,2025-12-04,1,,,,,ダブルエスアイ,0
2463,9120003031385,新規,0,2025-12-04,2025-12-04,合同会社Ｙ’Ｍ,,合同会社,大阪府,大阪市浪速区,敷津東１丁目６番４－２０４号,,27,111,5560012,,,,,,,2025-12-04,1,,,,,ワイアンドエム,0
2464,9120005025286,新規,0,2025-12-04,2025-12-04,税理士法人ディライト,,その他の設立登記法人,大阪府,大阪市中央区,西心斎橋１丁目９番３１号,,27,128,5420086,,,,,,,2025-12-04,1,,,,,ディライト,0
2467,9120105010089,新規,0,2025-12-04,2025-12-04,特定非営利活動法人お結び,,その他の設立登記法人,大阪府,河内長野市,楠ケ丘３３番１７号,,27,216,5860039,,,,,,,2025-12-04,1,,,,,オムスビ,0
2471,9122003003414,新規,0,2025-12-04,2025-12-04,合同会社ＫＴ建装,,合同会社,大阪府,東大阪市,池之端町１１番２３号,,27,227,5798002,,,,,,,2025-12-04,1,,,,,ケーティーケンソウ,0
2478,9140001140954,新規,0,2025-12-04,2025-12-04,株式会社カナイ重建,,株式会社,兵庫県,加古川市,尾上町池田１８１８番地の１５,,28,210,6750023,,,,,,,2025-12-04,1,,,,,カナイジュウケン,0
2479,9140001140970,新規,0,2025-12-04,2025-12-04,株式会社Ｗｈｉｔｅ　Ｒｏｓｅ　Ｉｎｖｅｓｔｍｅｎｔｓ,,株式会社,兵庫県,神戸市灘区,篠原本町３丁目６番１１号２０１,,28,102,6570067,,,,,,,2025-12-04,1,,,,,ホワイトローズインベストメンツ,0
2480,9140001140979,新規,0,2025-12-04,2025-12-04,株式会社リベルテ,,株式会社,兵庫県,姫路市,飾東町佐良和７５－４,,28,201,6710217,,,,,,,2025-12-04,1,,,,,リベルテ,0
2482,9140005027719,新規,0,2025-12-04,2025-12-04,一般社団法人Ｂｅ　Ｎｅｘｔ　ＫＯＢＥ,,その他の設立登記法人,兵庫県,神戸市中央区,磯上通４丁目１番１４号三宮スカイビル７階,,28,110,6510086,,,,,,,2025-12-04,1,,,,,ビーネクストコウベ,0
2483,9150001028579,新規,0,2025-12-04,2025-12-04,株式会社お米日和,,株式会社,奈良県,桜井市,大字慈恩寺９５４番地の１朝日プラザ朝倉台５０７,,29,206,6330017,,,,,,,2025-12-04,1,,,,,オコメビヨリ,0
2499,9180001169627,新規,0,2025-12-04,2025-12-04,株式会社天笑,,株式会社,愛知県,名古屋市中村区,稲葉地町３丁目２６番地の２,,23,105,4530841,,,,,,,2025-12-04,1,,,,,テンショウ,0
2500,9180001169767,新規,0,2025-12-04,2025-12-04,株式会社ＪＩＮＮＯＶＡ,,株式会社,愛知県,一宮市,若竹３丁目６番１号,,23,203,4910832,,,,,,,2025-12-04,1,,,,,ジノヴァ,0
2507,9180003029440,新規,0,2025-12-04,2025-12-04,合同会社堀田,,合同会社,愛知県,名古屋市瑞穂区,堀田通７丁目９番地,,23,108,4670862,,,,,,,2025-12-04,1,,,,,ホッタ,0
2508,9180301040462,新規,0,2025-12-04,2025-12-04,トライート株式会社,,株式会社,愛知県,安城市,桜井町貝戸尻７４番地,,23,212,4441154,,,,,,,2025-12-04,1,,,,,トライート,0
2510,9190001032734,新規,0,2025-12-04,2025-12-04,株式会社ニシムラノウエン,,株式会社,三重県,鈴鹿市,竹野１丁目１１番１８号,,24,207,5130025,,,,,,,2025-12-04,1,,,,,ニシムラノウエン,0
2511,9190005012096,新規,0,2025-12-04,2025-12-04,特定非営利活動法人すたーつプラス,,その他の設立登記法人,三重県,津市,神戸１５４番地１３,,24,201,5140824,,,,,,,2025-12-04,1,,,,,スターツプラス,0
2515,9200003007162,新規,0,2025-12-04,2025-12-04,合同会社ワールドトレーディング,,合同会社,岐阜県,関市,大杉字流レ２６７番,,21,205,5013922,,,,,,,2025-12-04,1,,,,,ワールドトレーディング,0
2519,9220001027053,新規,0,2025-12-04,2025-12-04,株式会社ナツメード・プラス,,株式会社,石川県,小松市,下牧町ホ５８番地,,17,203,9230026,,,,,,,2025-12-04,1,,,,,ナツメードプラス,0
2520,9220001027061,新規,0,2025-12-04,2025-12-04,Ｌｉｔ株式会社,,株式会社,石川県,野々市市,太平寺１丁目２６８番地１,,17,212,9218845,,,,,,,2025-12-04,1,,,,,リット,0
2526,9240001065852,新規,0,2025-12-04,2025-12-04,株式会社ＲｅＣｏｎｔ,,株式会社,広島県,福山市,南蔵王町３丁目１０番３０号,,34,207,7210973,,,,,,,2025-12-04,1,,,,,リコント,0
2527,9240001065860,新規,0,2025-12-04,2025-12-04,株式会社スライブ広島,,株式会社,広島県,広島市中区,大手町１丁目１番２６号大手町一番ビル３０５,,34,101,7300051,,,,,,,2025-12-04,1,,,,,スライブヒロシマ,0
2528,9240001065869,新規,0,2025-12-04,2025-12-04,株式会社プロクラフトミート,,株式会社,広島県,広島市安佐南区,緑井５丁目１８番１２号,,34,105,7310103,,,,,,,2025-12-04,1,,,,,プロクラフトミート,0
2538,9300001014431,新規,0,2025-12-04,2025-12-04,株式会社ベストエステート,,株式会社,佐賀県,佐賀市,川副町大字小々森１５６番地２,,41,201,8402214,,,,,,,2025-12-04,1,,,,,ベストエステート,0
2539,9300003002384,新規,0,2025-12-04,2025-12-04,ｍｉｌｌｅ　ｂｏｕｑｕｅｔ合同会社,,合同会社,佐賀県,佐賀市,白山１丁目４番２２号白山アパート２階,,41,201,8400826,,,,,,,2025-12-04,1,,,,,ミルブーケ,0
2540,9310003005139,新規,0,2025-12-04,2025-12-04,合同会社ふ々,,合同会社,長崎県,長崎市,浜口町１２番１号計屋ビル１０２,,42,201,8528107,,,,,,,2025-12-04,1,,,,,フフ,0
2541,9320001021475,新規,0,2025-12-04,2025-12-04,株式会社ＳＯＬ．,,株式会社,大分県,大分市,大字鴛野９７７番地の２９,,44,201,8701121,,,,,,,2025-12-04,1,,,,,ソル,0
2545,9360003015447,新規,0,2025-12-04,2025-12-04,合同会社結人,,合同会社,沖縄県,島尻郡与那原町,字東浜３番地１レーヴグランディ東浜３０２,,47,348,9011304,,,,,,,2025-12-04,1,,,,,ユイト,0
2548,9370001053282,新規,0,2025-12-04,2025-12-04,株式会社ＤＩＶＥＳ,,株式会社,宮城県,仙台市若林区,卸町１丁目５番５号ルアーナ・エール・レジデンス卸町１０５号,,04,103,9840015,,,,,,,2025-12-04,1,,,,,ディベス,0
2552,9400001017242,新規,0,2025-12-04,2025-12-04,株式会社新星座,,株式会社,岩手県,盛岡市,津志田２６地割２７番地１６,,03,201,0200835,,,,,,,2025-12-04,1,,,,,シンセイザ,0
2558,9430001095772,新規,0,2025-12-04,2025-12-04,株式会社プライム,,株式会社,北海道,千歳市,春日町１丁目１２番１０,,01,224,0660065,,,,,,,2025-12-04,1,,,,,プライム,0
2559,9430001095780,新規,0,2025-12-04,2025-12-04,株式会社Ｅａｓｔ　Ｌｉｎｋ,,株式会社,北海道,札幌市豊平区,豊平四条１２丁目２－３ＮＴＴ札幌豊平ビル１Ｆ,,01,105,0620904,,,,,,,2025-12-04,1,,,,,イーストリンク,0
2560,9430001095789,新規,0,2025-12-04,2025-12-04,株式会社コンテナハウス２０４０北海道．ｊｐ,,株式会社,北海道,札幌市西区,二十四軒四条１丁目６番４号,,01,107,0630804,,,,,,,2025-12-04,1,,,,,コンテナハウスニーマルヨンマルホッカイドウドットジェーピー,0
2563,9430003018368,新規,0,2025-12-04,2025-12-04,合同会社ＴＭ建創,,合同会社,北海道,石狩市,花川南十条２丁目２５番地,,01,235,0613210,,,,,,,2025-12-04,1,,,,,ティーエムケンソウ,0
2564,9430003018384,新規,0,2025-12-04,2025-12-04,合同会社Ｃｌｏｕｄ　ｎｉｎｅ,,合同会社,北海道,札幌市中央区,南二条西３丁目１３番地４カタオカビル６Ｆ,,01,101,0600062,,,,,,,2025-12-04,1,,,,,クラウドナイン,0
2565,9430005015363,新規,0,2025-12-04,2025-12-04,ＨＯＫＵＳＥＩ　ＨＵＭＡＮ　ＲＥＳＯＵＣＥＳ協同組合,,その他の設立登記法人,北海道,札幌市白石区,川下７３０番地５１,,01,104,0030869,,,,,,,2025-12-04,1,,,,,ホクセイヒューマンリソース,0
2566,9460103001766,新規,0,2025-12-04,2025-12-04,合同会社面白農業組合ＴＯＹＯＫＯＲＯＺ,,合同会社,北海道,中川郡豊頃町,礼文内１３９番地,,01,645,0895245,,,,,,,2025-12-04,1,,,,,オモシロノウギョウクミアイトヨコロゼット,0
2568,9470001020999,新規,0,2025-12-04,2025-12-04,畑中水産株式会社,,株式会社,香川県,小豆郡土庄町,長浜甲１９７７番地,,37,322,7614133,,,,,,,2025-12-04,1,,,,,ハタナカスイサン,0
