sequenceNumber,corporateNumber,process,correct,updateDate,changeDate,name,nameImageId,kind,prefectureName,cityName,streetNumber,addressImageId,prefectureCode,cityCode,postCode,addressOutside,addressOutsideImageId,closeDate,closeCause,successorCorporateNumber,changeCause,assignmentDate,latest,enName,enPrefectureName,enCityName,enAddressOutside,furigana,hihyoji
8,1010001167316,登記記録の閉鎖等,0,2023-04-26,2023-04-24,株式会社エッジ,,株式会社,東京都,台東区,上野６丁目１番１１号平岡ビル４０６,,13,106,1100005,,,2023-04-24,清算の結了等,,,2015-10-05,1,,,,,エッジ,0
35,1010901046635,登記記録の閉鎖等,0,2023-04-26,2023-04-12,ＴｒｅＭＯＤＡ株式会社,,株式会社,東京都,豊島区,西池袋１丁目９番１１号,,13,116,1710021,,,2023-04-12,清算の結了等,,,2020-07-20,1,,,,,トレモーダ,0
58,1011101099713,登記記録の閉鎖等,0,2023-04-26,2023-04-25,株式会社アーク,,株式会社,東京都,新宿区,新宿１丁目２４番１号大塚ビル２階,,13,104,1600022,,,2023-04-25,清算の結了等,,,2022-08-08,1,,,,,アーク,0
59,1011103009389,登記記録の閉鎖等,0,2023-04-26,2023-04-25,合同会社ＴＭ,,合同会社,東京都,新宿区,歌舞伎町１丁目１６番６号第６ポールスタービル７階７０１号室,,13,104,1600021,,,2023-04-25,清算の結了等,,,2020-01-15,1,,,,,ティーエム,0
60,1011105001947,登記記録の閉鎖等,0,2023-04-26,2023-04-20,特定非営利活動法人屋上開発研究会,,その他の設立登記法人,東京都,千代田区,内幸町２丁目２番３号日比谷国際ビルＢ１３６,,13,101,1000011,,,2023-04-20,清算の結了等,,,2015-10-05,1,,,,,オクジョウカイハツケンキュウカイ,0
76,1012705000611,登記記録の閉鎖等,0,2023-04-26,2023-04-17,特定非営利活動法人ハンディキャップサポートウーノの会,,その他の設立登記法人,東京都,西東京市,住吉町３丁目１２番１９号,,13,229,2020005,,,2023-04-17,清算の結了等,,,2015-10-05,1,,,,,ハンディキャップサポートウーノノカイ,0
78,1013101008488,登記記録の閉鎖等,0,2023-04-26,2023-04-24,Ｙ’ｓ　ｃｏｒｐｏｒａｔｉｏｎ株式会社,,株式会社,東京都,青梅市,大門１丁目７９７番地の４,,13,205,1980014,,,2023-04-24,清算の結了等,,,2020-11-17,1,,,,,ワイズコーポレーション,0
85,1020001076359,登記記録の閉鎖等,0,2023-04-26,2023-04-14,株式会社ジェイ・エム・シー,,株式会社,神奈川県,川崎市高津区,溝口６丁目９番２４号アーバンハイム高津１０１,,14,134,2130001,,,2023-04-14,清算の結了等,,,2015-10-05,1,,,,,ジェイエムシー,0
92,1020002017634,登記記録の閉鎖等,0,2023-04-26,2023-04-17,守谷商事有限会社,,有限会社,神奈川県,横浜市西区,浅間町１丁目６番地の１６,,14,103,2200072,,,2023-04-17,清算の結了等,,,2015-10-05,1,,,,,モリヤショウジ,0
94,1020002041312,登記記録の閉鎖等,0,2023-04-26,2023-04-17,有限会社伊勢元,,有限会社,神奈川県,横浜市中区,千代崎町２丁目５８番地,,14,104,2310864,,,2023-04-17,清算の結了等,,,2015-10-05,1,,,,,イセモト,0
95,1020002055799,登記記録の閉鎖等,0,2023-04-26,2023-04-18,有限会社アリマ,,有限会社,神奈川県,横浜市瀬谷区,三ツ境１０７番地５号デユーヒルズ一番館６０６,,14,114,2460022,,,2023-04-18,清算の結了等,,,2015-10-05,1,,,,,アリマ,0
113,1030001044100,登記記録の閉鎖等,0,2023-04-26,2023-04-11,株式会社翔設備設計,,株式会社,埼玉県,北足立郡伊奈町,栄４丁目５２番地３,,11,301,3620805,,,2023-04-11,清算の結了等,,,2015-10-05,1,,,,,ショウセツビセッケイ,0
125,1040001086736,登記記録の閉鎖等,0,2023-04-26,2023-04-11,城下建装株式会社,,株式会社,千葉県,木更津市,高柳３８４３番地,,12,206,2920014,,,2023-04-11,清算の結了等,,,2015-10-05,1,,,,,シロシタケンソウ,0
137,1060002001270,登記記録の閉鎖等,0,2023-04-26,2023-04-19,有限会社伊藤電気商会,,有限会社,栃木県,宇都宮市,今泉４丁目１２番１５号,,09,201,3210966,,,2023-04-19,清算の結了等,,,2015-10-05,1,,,,,イトウデンキショウカイ,0
143,1070002005849,登記記録の閉鎖等,0,2023-04-26,2023-04-19,有限会社リキエンタープライズ,,有限会社,群馬県,前橋市,古市町２０３番地１藤和シティコープ新前橋７２１号,,10,201,3710844,,,2023-04-19,清算の結了等,,,2015-10-05,1,,,,,リキエンタープライズ,0
147,1080102011671,登記記録の閉鎖等,0,2023-04-26,2023-04-24,有限会社丸増工業,,有限会社,静岡県,三島市,谷田１３７７番地の６,,22,206,4110801,,,2023-04-24,清算の結了等,,,2015-10-05,1,,,,,マルマスコウギョウ,0
156,1110002017658,登記記録の閉鎖等,0,2023-04-26,2023-04-21,有限会社丸山電機店,,有限会社,新潟県,三条市,本町２丁目５番２２号,,15,204,9550071,,,2023-04-21,清算の結了等,,,2015-10-05,1,,,,,マルヤマデンキテン,0
194,1170002007166,登記記録の閉鎖等,0,2023-04-26,2023-04-24,有限会社日高物流,,有限会社,和歌山県,有田郡有田川町,大字長田１８９番地１,,30,366,6430854,,,2023-04-24,清算の結了等,,,2015-10-05,1,,,,,,0
208,1200001025520,登記記録の閉鎖等,0,2023-04-26,2023-04-21,神岡部品工業株式会社,,株式会社,岐阜県,飛騨市,神岡町麻生野３６３番地,,21,217,5061131,,,2023-04-21,合併による解散等,9090001013686,令和５年４月１日山梨県韮崎市大草町下條西割１２００番地三井金属ダイカスト株式会社（9090001013686）に合併し解散,2015-10-05,1,,,,,カミオカブヒンコウギョウ,0
211,1230001014768,登記記録の閉鎖等,0,2023-04-26,2023-04-19,株式会社あさひ,,株式会社,富山県,氷見市,柳田２０２８番地３,,16,205,9350031,,,2023-04-19,清算の結了等,,,2015-10-05,1,,,,,アサヒ,0
217,1240003004238,登記記録の閉鎖等,0,2023-04-26,2023-04-21,ＳＨＡＢＡＮＧ合同会社,,合同会社,広島県,広島市中区,大手町１丁目１番２７号,,34,101,7300051,,,2023-04-21,清算の結了等,,,2019-05-15,1,,,,,シャバン,0
231,1290001048728,登記記録の閉鎖等,0,2023-04-26,2023-04-14,株式会社北部九州サンロード,,株式会社,福岡県,久留米市,藤山町８４番地の１,,40,203,8300053,,,2023-04-14,合併による解散等,1290001037061,令和５年４月１日福岡県宗像市王丸７２４番地の４株式会社ノバック（1290001037061）に合併し解散,2015-10-05,1,,,,,ホクブキュウシュウサンロード,0
240,1290801021124,登記記録の閉鎖等,0,2023-04-26,2023-04-21,株式会社エグチマリン,,株式会社,福岡県,北九州市若松区,本町１丁目５番２９号,,40,103,8080034,,,2023-04-21,清算の結了等,,,2015-10-05,1,,,,,エグチマリン,0
248,1340002009310,登記記録の閉鎖等,0,2023-04-26,2023-04-25,有限会社ミツワ不動産,,有限会社,鹿児島県,鹿児島市,谷山中央８丁目１番１－２０８号,,46,201,8910141,,,2023-04-25,清算の結了等,,,2015-10-05,1,,,,,ミツワフドウサン,0
258,1370505000044,登記記録の閉鎖等,0,2023-04-26,2023-04-19,医療法人順化会,,その他の設立登記法人,宮城県,気仙沼市,南町１丁目３番７号,,04,205,9880017,,,2023-04-19,清算の結了等,,,2015-10-05,1,,,,,,0
269,1430003008392,登記記録の閉鎖等,0,2023-04-26,2023-04-12,合同会社Ｔ．ＡＲＥＡ,,合同会社,北海道,札幌市白石区,菊水三条２丁目１番７－５０３号,,01,104,0030803,,,2023-04-12,清算の結了等,,,2017-05-08,1,,,,,ティーエリア,0
283,2010001085269,登記記録の閉鎖等,0,2023-04-26,2023-04-12,株式会社セキュリティ企画,,株式会社,千葉県,千葉市緑区,誉田町３丁目１番地２ウィンベルコーラス誉田６０１号,,12,105,2660005,,,2023-04-12,清算の結了等,,,2015-10-05,1,,,,,セキュリティキカク,0
310,2010901004815,登記記録の閉鎖等,0,2023-04-26,2023-04-19,株式会社サダミ,,株式会社,東京都,世田谷区,等々力７丁目２３番２６号,,13,112,1580082,,,2023-04-19,清算の結了等,,,2015-10-05,1,,,,,サダミ,0
335,2011702014210,登記記録の閉鎖等,0,2023-04-26,2023-04-24,有限会社山清,,有限会社,東京都,江戸川区,上篠崎２丁目１番２１号オールカーペットサービス株式会社内,,13,123,1330054,,,2023-04-24,清算の結了等,,,2015-10-05,1,,,,,ヤマセイ,0
336,2011801012809,登記記録の閉鎖等,0,2023-04-26,2023-04-24,株式会社山本塗装店,,株式会社,東京都,足立区,綾瀬７丁目１０番８号,,13,121,1200005,,,2023-04-24,清算の結了等,,,2015-10-05,1,,,,,ヤマモトトソウテン,0
352,2021003006922,登記記録の閉鎖等,0,2023-04-26,2023-04-24,ＡＭＡＩＲＯ合同会社,,合同会社,神奈川県,藤沢市,長後２６５７番５,,14,205,2520801,,,2023-04-24,清算の結了等,,,2017-08-30,1,,,,,アマイロ,0
365,2040001075804,登記記録の閉鎖等,0,2023-04-26,2023-04-10,株式会社みよし美建,,株式会社,千葉県,佐倉市,井野１３９１番地４,,12,212,2850855,,,2023-04-10,清算の結了等,,,2015-10-05,1,,,,,ミヨシビケン,0
368,2040001094127,登記記録の閉鎖等,0,2023-04-26,2023-04-12,株式会社エスパス,,株式会社,千葉県,我孫子市,柴崎台３丁目５番２０号,,12,222,2701176,,,2023-04-12,清算の結了等,,,2016-02-22,1,,,,,エスパス,0
376,2050001002807,登記記録の閉鎖等,0,2023-04-26,2023-04-20,株式会社木村測量設計事務所,,株式会社,茨城県,東茨城郡茨城町,大字小堤１０２４番地,,08,302,3113131,,,2023-04-20,清算の結了等,,,2015-10-05,1,,,,,キムラソクリョウセッケイジムショ,0
388,2080001010823,登記記録の閉鎖等,0,2023-04-26,2023-04-25,インエアー株式会社,,株式会社,静岡県,静岡市葵区,新富町２丁目２５番地の１４,,22,101,4200061,,,2023-04-25,清算の結了等,,,2015-10-05,1,,,,,インエアー,0
392,2080105005356,登記記録の閉鎖等,0,2023-04-26,2023-04-25,一般社団法人ドムクス,,その他の設立登記法人,静岡県,伊豆の国市,古奈５３６番地の５,,22,225,4102201,,,2023-04-25,清算の結了等,,,2015-10-05,1,,,,,ドムクス,0
393,2080401000226,登記記録の閉鎖等,0,2023-04-26,2023-04-25,株式会社アドウエスト,,株式会社,静岡県,浜松市北区,三方原町４８番地の１０,,22,135,4338105,,,2023-04-25,清算の結了等,,,2015-10-05,1,,,,,アドウエスト,0
408,2120001174787,登記記録の閉鎖等,0,2023-04-26,2023-04-20,株式会社ＶＩＥＷＴＹ,,株式会社,大阪府,大阪市中央区,難波１丁目９番６号,,27,128,5420076,,,2023-04-20,清算の結了等,,,2015-10-05,1,,,,,ビューティー,0
433,2140001004439,登記記録の閉鎖等,0,2023-04-26,2023-04-25,石上自動車株式会社,,株式会社,兵庫県,神戸市西区,玉津町新方字東方３１０の２番地,,28,111,6512125,,,2023-04-25,清算の結了等,,,2015-10-05,1,,,,,イシガミジドウシャ,0
434,2140001035327,登記記録の閉鎖等,0,2023-04-26,2023-04-24,株式会社ハイデン研究所,,株式会社,兵庫県,明石市,魚住町清水４６５の１,,28,203,6740074,,,2023-04-24,清算の結了等,,,2015-10-05,1,,,,,ハイデンケンキュウショ,0
447,2140002045127,登記記録の閉鎖等,0,2023-04-26,2023-04-21,有限会社ミュージック・オフィス・城,,有限会社,兵庫県,尼崎市,武庫之荘東１丁目１６番１－２０７号,,28,202,6610032,,,2023-04-21,清算の結了等,,,2015-10-05,1,,,,,ミュージックオフィスジョウ,0
458,2180002040693,登記記録の閉鎖等,0,2023-04-26,2023-04-21,有限会社大樹,,有限会社,愛知県,清須市,西枇杷島町恵比須４１番地の１,,23,233,4520005,,,2023-04-21,清算の結了等,,,2015-10-05,1,,,,,ダイジュ,0
460,2180003012865,登記記録の閉鎖等,0,2023-04-26,2023-04-24,合資会社宮口屋商店,,合資会社,愛知県,半田市,岩滑中町３丁目１９１番地の１,,23,205,4750961,,,2023-04-24,清算の結了等,,,2015-10-05,1,,,,,ミヤグチヤショウテン,0
462,2180301010249,登記記録の閉鎖等,0,2023-04-26,2023-04-18,マキノ精工株式会社,,株式会社,愛知県,豊川市,伊奈町出口８６番地１,,23,207,4410105,,,2023-04-18,清算の結了等,,,2015-10-05,1,,,,,マキノセイコウ,0
482,2260002023319,登記記録の閉鎖等,0,2023-04-26,2023-04-21,有限会社片山石彫,,有限会社,岡山県,倉敷市,児島通生１１６７番地１,,33,202,7110933,,,2023-04-21,清算の結了等,,,2015-10-05,1,,,,,カタヤマセキチョウ,0
483,2270002006776,登記記録の閉鎖等,0,2023-04-26,2023-04-24,有限会社はらや,,有限会社,鳥取県,米子市,新開５丁目３番２９号,,31,202,6830801,,,2023-04-24,清算の結了等,,,2015-10-05,1,,,,,ハラヤ,0
486,2280002007088,登記記録の閉鎖等,0,2023-04-26,2023-04-18,有限会社河下鉄工所,,有限会社,島根県,出雲市,河下町２５番地,,32,203,6910025,,,2023-04-18,清算の結了等,,,2015-10-05,1,,,,,カワシタテッコウショ,0
494,2290001095158,登記記録の閉鎖等,0,2023-04-26,2023-04-13,株式会社コレイノ,,株式会社,福岡県,福岡市中央区,渡辺通２丁目４番８号,,40,133,8100004,,,2023-04-13,清算の結了等,,,2021-11-02,1,,,,,コレイノ,0
512,2340002024259,登記記録の閉鎖等,0,2023-04-26,2023-04-24,有限会社白アリの田中,,有限会社,鹿児島県,南九州市,川辺町平山２４３０番地１,,46,223,8970215,,,2023-04-24,清算の結了等,,,2015-10-05,1,,,,,シロアリノタナカ,0
537,2430002053587,登記記録の閉鎖等,0,2023-04-26,2023-04-11,有限会社滝硝アルミ,,有限会社,北海道,滝川市,中島町１７６番地,,01,225,0730035,,,2023-04-11,清算の結了等,,,2015-10-05,1,,,,,タキショウアルミ,0
539,2450002005090,登記記録の閉鎖等,0,2023-04-26,2023-04-25,有限会社マエダ,,有限会社,北海道,旭川市,宮前一条４丁目１４番５－５０１号,,01,204,0788391,,,2023-04-25,清算の結了等,,,2015-10-05,1,,,,,マエダ,0
549,3010001009532,登記記録の閉鎖等,0,2023-04-26,2023-04-12,株式会社アイン,,株式会社,東京都,千代田区,神田須田町１丁目２４番地６ＡＣＮ神田須田町ビル３階,,13,101,1010041,,,2023-04-12,合併による解散等,9010001031794,令和５年３月３１日東京都千代田区神田須田町一丁目２４番地６ＡＣＮ神田須田町ビル３階株式会社ライオン社（9010001031794）に合併し解散,2015-10-05,1,,,,,アイン,0
579,3010602023246,登記記録の閉鎖等,0,2023-04-26,2023-04-06,有限会社請地,,有限会社,東京都,墨田区,押上１丁目１６番９号,,13,107,1310045,,,2023-04-06,清算の結了等,,,2015-10-05,1,,,,,ウケヂ,0
589,3010902022889,登記記録の閉鎖等,0,2023-04-26,2023-04-18,有限会社シマダ化成,,有限会社,東京都,世田谷区,砧１丁目１８番２０号,,13,112,1570073,,,2023-04-18,清算の結了等,,,2015-10-05,1,,,,,シマダカセイ,0
590,3011001031708,登記記録の閉鎖等,0,2023-04-26,2023-04-12,株式会社ジャックビーンズ,,株式会社,東京都,豊島区,南池袋３丁目２４番２１号,,13,116,1710022,,,2023-04-12,清算の結了等,,,2015-10-05,1,,,,,ジャックビーンズ,0
606,3011301020204,登記記録の閉鎖等,0,2023-04-26,2023-04-18,株式会社１４５,,株式会社,東京都,中野区,中野３丁目４７番１１号,,13,114,1640001,,,2023-04-18,清算の結了等,,,2015-10-05,1,,,,,イチヨンゴ,0
609,3011501004931,登記記録の閉鎖等,0,2023-04-26,2023-04-17,株式会社米澤慶彦商店,,株式会社,東京都,北区,東十条４丁目４番５号,,13,117,1140001,,,2023-04-17,清算の結了等,,,2015-10-05,1,,,,,ヨネザワヨシヒコショウテン,0
616,3011805002722,登記記録の閉鎖等,0,2023-04-26,2023-04-19,一般社団法人Ｗｅｂ技術振興協会,,その他の設立登記法人,東京都,葛飾区,細田１丁目１５番１号,,13,122,1240021,,,2023-04-19,清算の結了等,,,2017-10-11,1,,,,,ウエブギジュツシンコウキョウカイ,0
634,3030001006123,登記記録の閉鎖等,0,2023-04-26,2023-04-24,株式会社長井商工社,,株式会社,埼玉県,さいたま市南区,別所７丁目１８番２１号,,11,108,3360021,,,2023-04-24,合併による解散等,6010401012364,令和５年４月１日東京都港区芝二丁目３番３号新栄商工株式会社（6010401012364）に合併し解散,2015-10-05,1,,,,,ナガイショウコウシャ,0
637,3030001062892,登記記録の閉鎖等,0,2023-04-26,2023-04-11,株式会社福田興行,,株式会社,埼玉県,鴻巣市,笠原１２２５番地,,11,217,3650023,,,2023-04-11,清算の結了等,,,2015-10-05,1,,,,,フクダコウギョウ,0
652,3040001062025,登記記録の閉鎖等,0,2023-04-26,2023-04-10,株式会社エリアサポートジャパン３０２企画室,,株式会社,千葉県,銚子市,西芝町１０番地の２６,,12,202,2880044,,,2023-04-10,清算の結了等,,,2015-10-05,1,,,,,エリアサポートジャパンサンマルニキカクシツ,0
666,3060002021250,登記記録の閉鎖等,0,2023-04-26,2023-04-13,有限会社日本ビーエス通信工事,,有限会社,栃木県,鹿沼市,口粟野９９８番地５,,09,205,3220305,,,2023-04-13,清算の結了等,,,2015-10-05,1,,,,,ニホンビーエスツウシンコウジ,0
673,3080101021257,登記記録の閉鎖等,0,2023-04-26,2023-04-24,Ｓｏ－ｙｏｕ　Ｆｏｏｄｔａｉｎｍｅｎｔ株式会社,,株式会社,静岡県,駿東郡長泉町,中土狩５５８番地の１シーザースパレス１０１,,22,342,4110942,,,2023-04-24,清算の結了等,,,2019-07-19,1,,,,,ソーユーフードテインメント,0
700,3120003005816,登記記録の閉鎖等,0,2023-04-26,2023-04-19,合資会社橘事務所,,合資会社,大阪府,大阪市中央区,谷町１丁目６番８号,,27,128,5400012,,,2023-04-19,清算の結了等,,,2015-10-05,1,,,,,タチバナジムショ,0
752,3210001007193,登記記録の閉鎖等,0,2023-04-26,2023-04-25,株式会社山口自工,,株式会社,福井県,あわら市,滝７号７５番地１,,18,208,9190805,,,2023-04-25,清算の結了等,,,2015-10-05,1,,,,,ヤマグチジコウ,0
762,3260001011926,登記記録の閉鎖等,0,2023-04-26,2023-04-20,株式会社七区いちご園,,株式会社,岡山県,岡山市南区,西七区４６９番地,,33,104,7091202,,,2023-04-20,清算の結了等,,,2015-10-05,1,,,,,ナナクイチゴエン,0
781,3320002012272,登記記録の閉鎖等,0,2023-04-26,2023-04-18,有限会社札木興産,,有限会社,大分県,別府市,大字南立石１７７５番地の１４,,44,202,8740000,,,2023-04-18,清算の結了等,,,2015-10-05,1,,,,,フダキコウサン,0
782,3320005009563,登記記録の閉鎖等,0,2023-04-26,2023-04-24,一般社団法人夢の会,,その他の設立登記法人,大分県,大分市,富士見が丘東１丁目２１番８号,,44,201,8701176,,,2023-04-24,清算の結了等,,,2018-02-14,1,,,,,ユメノカイ,0
787,3350002007476,登記記録の閉鎖等,0,2023-04-26,2023-04-12,有限会社佐土原ビルサービス,,有限会社,宮崎県,宮崎市,佐土原町下那珂２６２８番地１,,45,201,8800212,,,2023-04-12,清算の結了等,,,2015-10-05,1,,,,,サドワラビルサービス,0
812,3430002050261,登記記録の閉鎖等,0,2023-04-26,2023-04-11,有限会社壱の鈴木薬局,,有限会社,北海道,樺戸郡月形町,字表小柳町９番地,,01,430,0610500,,,2023-04-11,清算の結了等,,,2015-10-05,1,,,,,イチノスズキヤッキョク,0
823,4010001098194,登記記録の閉鎖等,0,2023-04-26,2023-04-11,株式会社日本経営システム研究所,,株式会社,千葉県,柏市,根戸６０７番地２４,,12,217,2770831,,,2023-04-11,清算の結了等,,,2015-10-05,1,,,,,ニホンケイエイシステムケンキュウジョ,0
827,4010002038827,登記記録の閉鎖等,0,2023-04-26,2023-04-12,有限会社ウ・ボイ,,有限会社,東京都,中央区,銀座８丁目７番１１号,,13,102,1040061,,,2023-04-12,清算の結了等,,,2015-10-05,1,,,,,ウボイ,0
828,4010101007542,登記記録の閉鎖等,0,2023-04-26,2023-04-17,アルファトレック株式会社,,株式会社,東京都,八王子市,別所２丁目１０番地,,13,201,1920363,,,2023-04-17,清算の結了等,,,2015-10-05,1,,,,,アルファトレック,0
844,4010602030365,登記記録の閉鎖等,0,2023-04-26,2023-04-21,有限会社アトリエアオキ,,有限会社,東京都,江東区,千田５番１０号,,13,108,1350013,,,2023-04-21,清算の結了等,,,2015-10-05,1,,,,,アトリエアオキ,0
850,4010903002328,登記記録の閉鎖等,0,2023-04-26,2023-04-19,ＴＯＰ　ＣＥＤＡＲＳ合同会社,,合同会社,東京都,世田谷区,粕谷４丁目２０番１０号,,13,112,1570063,,,2023-04-19,清算の結了等,,,2015-10-05,1,,,,,トップセダース,0
879,4011801036707,登記記録の閉鎖等,0,2023-04-26,2023-04-21,帝宜株式会社,,株式会社,東京都,足立区,西新井２丁目３０番２号,,13,121,1230841,,,2023-04-21,清算の結了等,,,2019-10-03,1,,,,,テイギ,0
882,4011802017482,登記記録の閉鎖等,0,2023-04-26,2023-04-24,有限会社春原電気商会,,有限会社,東京都,足立区,保木間４丁目４番１２号,,13,121,1210064,,,2023-04-24,清算の結了等,,,2015-10-05,1,,,,,スノハラデンキショウカイ,0
888,4012802006888,登記記録の閉鎖等,0,2023-04-26,2023-04-24,有限会社黒柳写真事務所,,有限会社,東京都,立川市,柴崎町３丁目１３番８号,,13,202,1900023,,,2023-04-24,清算の結了等,,,2015-10-05,1,,,,,クロヤナギシャシンジムショ,0
895,4020001079937,登記記録の閉鎖等,0,2023-04-26,2023-04-24,株式会社日本活魚センター,,株式会社,神奈川県,川崎市宮前区,水沢１丁目１番１号,,14,136,2160012,,,2023-04-24,合併による解散等,4021001025336,令和５年４月２０日神奈川県大和市桜森二丁目２６番１３号株式会社システム企画（4021001025336）に合併し解散,2015-10-05,1,,,,,,0
906,4020005004750,登記記録の閉鎖等,0,2023-04-26,2023-04-17,特定非営利活動法人輝け元気,,その他の設立登記法人,神奈川県,横浜市青葉区,美しが丘西２丁目４７番地１５,,14,117,2250001,,,2023-04-17,清算の結了等,,,2015-10-05,1,,,,,カガヤケゲンキ,0
908,4021001037678,登記記録の閉鎖等,0,2023-04-26,2023-04-21,株式会社トラウム,,株式会社,神奈川県,中郡大磯町,石神台３丁目３番７号,,14,341,2590113,,,2023-04-21,清算の結了等,,,2015-10-05,1,,,,,トラウム,0
917,4030001006072,登記記録の閉鎖等,0,2023-04-26,2023-04-11,株式会社都市スペース有効利用センター,,株式会社,埼玉県,さいたま市見沼区,大字南中丸７３４番地１３６,,11,104,3370041,,,2023-04-11,清算の結了等,,,2015-10-05,1,,,,,トシスペースユウコウリヨウセンター,0
922,4030001069895,登記記録の閉鎖等,0,2023-04-26,2023-04-10,株式会社ニューダイヤ,,株式会社,埼玉県,坂戸市,大字石井２７４５番地,,11,239,3500212,,,2023-04-10,清算の結了等,,,2015-10-05,1,,,,,ニューダイヤ,0
923,4030001102276,登記記録の閉鎖等,0,2023-04-26,2023-04-21,株式会社シー・アール,,株式会社,埼玉県,東松山市,大字上野本２１８４番地,,11,212,3550073,,,2023-04-21,合併による解散等,1013201003703,令和５年４月１日東京都目黒区東山一丁目１７番１６号ＴＳＰ太陽株式会社（1013201003703）に合併し解散,2015-10-05,1,,,,,シーアール,0
959,4060001009394,登記記録の閉鎖等,0,2023-04-26,2023-04-21,栃木中央理化工業株式会社,,株式会社,栃木県,真岡市,熊倉町４８１９番地９,,09,209,3214362,,,2023-04-21,合併による解散等,8013301007424,令和５年４月１日東京都豊島区巣鴨一丁目４番１７号中央理化工業株式会社（8013301007424）に合併し解散,2015-10-05,1,,,,,トチギチュウオウリカコウギョウ,0
971,4080101005333,登記記録の閉鎖等,0,2023-04-26,2023-04-24,岩崎電機株式会社,,株式会社,静岡県,三島市,本町１１番４号,,22,206,4110855,,,2023-04-24,清算の結了等,,,2015-10-05,1,,,,,イワサキデンキ,0
983,4120001128931,登記記録の閉鎖等,0,2023-04-26,2023-04-11,株式会社ワイエムピー・ムンダス,,株式会社,大阪府,大阪市中央区,北久宝寺町２丁目４番１号,,27,128,5410057,,,2023-04-11,合併による解散等,2120001097187,令和５年４月１日大阪市中央区北久宝寺町二丁目４番１号株式会社ワイ・エム・ピー・インターナショナル（2120001097187）に合併し解散,2015-10-05,1,,,,,ワイエムピームンダス,0
1025,4180001120668,登記記録の閉鎖等,0,2023-04-26,2023-04-19,株式会社大家さんの窓口,,株式会社,三重県,津市,栄町４丁目２６３番地寺辺ビル１Ｆ,,24,201,5140004,,,2023-04-19,清算の結了等,,,2015-10-21,1,,,,,オオヤサンノマドグチ,0
1026,4180001135666,登記記録の閉鎖等,0,2023-04-26,2023-04-18,株式会社誠武,,株式会社,愛知県,名古屋市昭和区,福江２丁目６番１１号,,23,107,4660059,,,2023-04-18,清算の結了等,,,2019-03-11,1,,,,,セイゴ,0
1035,4180005003951,登記記録の閉鎖等,0,2023-04-26,2023-04-20,大曽根商店街開発事業協同組合,,その他の設立登記法人,愛知県,名古屋市東区,東大曽根町２２番２５号株式会社岡静組内,,23,102,4610022,,,2023-04-20,清算の結了等,,,2015-10-05,1,,,,,オオゾネショウテンガイカイハツ,0
1039,4180301032308,登記記録の閉鎖等,0,2023-04-26,2023-04-17,株式会社ＢＩＧＨＩＬＬ　ＴＩＭＥ,,株式会社,愛知県,豊田市,広川町８丁目１８０番地３,,23,211,4710807,,,2023-04-17,清算の結了等,,,2019-02-26,1,,,,,ビッグヒルタイム,0
1041,4180302021805,登記記録の閉鎖等,0,2023-04-26,2023-04-12,有限会社か和い,,有限会社,愛知県,豊田市,東梅坪町２丁目３番地４,,23,211,4710071,,,2023-04-12,清算の結了等,,,2015-10-05,1,,,,,カワイ,0
1046,4200001009173,登記記録の閉鎖等,0,2023-04-26,2023-04-24,株式会社黄色い風船,,株式会社,岐阜県,岐阜市,加納花ノ木町４１番地３,,21,201,5008275,,,2023-04-24,清算の結了等,,,2015-10-05,1,,,,,キイロイフウセン,0
1102,4350002000868,登記記録の閉鎖等,0,2023-04-26,2023-04-13,有限会社大山養豚場,,有限会社,宮崎県,宮崎市,大字跡江４８９１番地,,45,201,8802101,,,2023-04-13,清算の結了等,,,2015-10-05,1,,,,,オオヤマヨウトンジョウ,0
1108,4370001024239,登記記録の閉鎖等,0,2023-04-26,2023-04-21,株式会社Ｓ・Ｌ・Ａ北日本,,株式会社,宮城県,仙台市青葉区,五橋１丁目４番３０号,,04,101,9800022,,,2023-04-21,合併による解散等,2011101038612,令和５年４月１日東京都渋谷区千駄ヶ谷五丁目８番９号株式会社サンキョウ・ロジ・アソシエート（2011101038612）に合併し解散,2015-10-05,1,,,,,エスエルエーキタニホン,0
1112,4380001009577,登記記録の閉鎖等,0,2023-04-26,2023-04-21,野内産業株式会社,,株式会社,福島県,本宮市,本宮字下町３８番地,,07,214,9691132,,,2023-04-21,清算の結了等,,,2015-10-05,1,,,,,ノウチサンギョウ,0
1179,5010501045802,登記記録の閉鎖等,0,2023-04-26,2023-04-13,株式会社熊猫,,株式会社,栃木県,足利市,川崎町２２８３番地２,,09,202,3260013,,,2023-04-13,清算の結了等,,,2020-06-01,1,,,,,クマネコ,0
1246,5030001131712,登記記録の閉鎖等,0,2023-04-26,2023-04-11,久保株式会社,,株式会社,埼玉県,さいたま市南区,大字太田窪２２０６番地１百景台マンション２０２号室,,11,108,3360015,,,2023-04-11,清算の結了等,,,2019-07-03,1,,,,,クボ,0
1266,5050002022198,登記記録の閉鎖等,0,2023-04-26,2023-04-19,有限会社山中商店,,有限会社,茨城県,つくば市,北条１８０番地,,08,220,3004231,,,2023-04-19,清算の結了等,,,2015-10-05,1,,,,,ヤマナカショウテン,0
1272,5060002016488,登記記録の閉鎖等,0,2023-04-26,2023-04-13,有限会社ユニトップ,,有限会社,栃木県,日光市,小林２９０７番地,,09,206,3212352,,,2023-04-13,清算の結了等,,,2015-10-05,1,,,,,ユニトップ,0
1276,5060005009547,登記記録の閉鎖等,0,2023-04-26,2023-04-14,一般社団法人トチギ結婚式協議会,,その他の設立登記法人,栃木県,日光市,萩垣面２４４０番地１７４,,09,206,3211414,,,2023-04-14,清算の結了等,,,2019-03-05,1,,,,,トチギケッコンシキキョウギカイ,0
1280,5080105004074,登記記録の閉鎖等,0,2023-04-26,2023-04-24,医療法人社団すこやか,,その他の設立登記法人,静岡県,伊東市,湯川１丁目１５番４号,,22,208,4140002,,,2023-04-24,清算の結了等,,,2015-10-05,1,,,,,スコヤカ,0
1282,5080402000750,登記記録の閉鎖等,0,2023-04-26,2023-04-20,有限会社イソベデンキ,,有限会社,静岡県,浜松市東区,原島町５６０番地の２,,22,132,4350047,,,2023-04-20,清算の結了等,,,2015-10-05,1,,,,,イソベデンキ,0
1319,5130001045844,登記記録の閉鎖等,0,2023-04-26,2023-04-19,株式会社Ａｔｅｌｉｅｒ,,株式会社,京都府,京都市中京区,東洞院通蛸薬師下る元竹田町６３１番地２ＴＨＥ　ＲＥＳＩＤＥＮＣＥ京都東洞院四条５１２号,,26,104,6048145,,,2023-04-19,清算の結了等,,,2015-10-05,1,,,,,アトリエ,0
1324,5140001074999,登記記録の閉鎖等,0,2023-04-26,2023-04-21,株式会社竹中レッカー,,株式会社,兵庫県,加東市,社９０４番地,,28,228,6731431,,,2023-04-21,清算の結了等,,,2015-10-05,1,,,,,タケナカレッカー,0
1338,5180002034759,登記記録の閉鎖等,0,2023-04-26,2023-04-21,有限会社大蔵工業,,有限会社,愛知県,名古屋市緑区,大高町字上塩田３０番地の２,,23,114,4598001,,,2023-04-21,清算の結了等,,,2015-10-05,1,,,,,オオクラコウギョウ,0
1343,5180005018577,登記記録の閉鎖等,0,2023-04-26,2023-04-21,レインボー第２知多長浦管理組合法人,,その他の設立登記法人,愛知県,知多市,岡田字下中田５番地の１,,23,224,4780021,,,2023-04-21,清算の結了等,,,2019-12-17,1,,,,,レインボーダイニチタナガウラ,0
1344,5180301032827,登記記録の閉鎖等,0,2023-04-26,2023-04-18,株式会社Ｈｏｎｅｓｔ,,株式会社,愛知県,西尾市,下羽角町大縄３５番地１,,23,213,4450012,,,2023-04-18,清算の結了等,,,2019-08-05,1,,,,,オーネスト,0
1354,5210002008858,登記記録の閉鎖等,0,2023-04-26,2023-04-24,有限会社エスディー・シー,,有限会社,福井県,福井市,加茂河原３丁目７番１２号,,18,201,9188057,,,2023-04-24,清算の結了等,,,2015-10-05,1,,,,,エスディシー,0
1361,5240002048769,登記記録の閉鎖等,0,2023-04-26,2023-04-24,有限会社モトショップイマダ,,有限会社,広島県,安芸郡府中町,浜田本町５番３６号,,34,302,7350023,,,2023-04-24,清算の結了等,,,2015-10-05,1,,,,,モトショップイマダ,0
1364,5260001004416,登記記録の閉鎖等,0,2023-04-26,2023-04-21,株式会社辻吉商店,,株式会社,岡山県,岡山市北区,表町１丁目４番１－３０２号,,33,101,7000822,,,2023-04-21,清算の結了等,,,2015-10-05,1,,,,,ツジヨシショウテン,0
1394,5430001016047,登記記録の閉鎖等,0,2023-04-26,2023-04-12,幕田電業株式会社,,株式会社,北海道,札幌市手稲区,西宮の沢一条３丁目１０番２０号,,01,109,0060001,,,2023-04-12,清算の結了等,,,2015-10-05,1,,,,,マクタデンギョウ,0
1395,5430001024917,登記記録の閉鎖等,0,2023-04-26,2023-04-24,株式会社コモセン,,株式会社,北海道,札幌市中央区,南六条東３丁目３番地２,,01,101,0600056,,,2023-04-24,清算の結了等,,,2015-10-05,1,,,,,コモセン,0
1406,6010001053981,登記記録の閉鎖等,0,2023-04-26,2023-04-12,野島タオル株式会社,,株式会社,東京都,中央区,日本橋馬喰町１丁目６番１６号,,13,102,1030002,,,2023-04-12,清算の結了等,,,2015-10-05,1,,,,,ノジマタオル,0
1435,6010601002867,登記記録の閉鎖等,0,2023-04-26,2023-04-20,株式会社城東丸善フーズ,,株式会社,東京都,江東区,大島８丁目４０番２号,,13,108,1360072,,,2023-04-20,清算の結了等,,,2015-10-05,1,,,,,ジョウトウマルゼンフーズ,0
1468,6011401021594,登記記録の閉鎖等,0,2023-04-26,2023-04-24,株式会社テンダロジー,,株式会社,東京都,板橋区,南常盤台１丁目１１－６レフア南常盤台１０２号室,,13,119,1740072,,,2023-04-24,清算の結了等,,,2019-01-22,1,,,,,テンダロジー,0
1470,6011501016214,登記記録の閉鎖等,0,2023-04-26,2023-04-17,町田コンサルタント株式会社,,株式会社,東京都,北区,中十条１丁目１８番６号,,13,117,1140032,,,2023-04-17,清算の結了等,,,2015-10-05,1,,,,,マチダコンサルタント,0
1471,6011601004911,登記記録の閉鎖等,0,2023-04-26,2023-04-21,株式会社富山研究所,,株式会社,東京都,練馬区,大泉学園町７丁目２番２号,,13,120,1780061,,,2023-04-21,清算の結了等,,,2015-10-05,1,,,,,,0
1473,6011602006568,登記記録の閉鎖等,0,2023-04-26,2023-04-21,有限会社タロー企画,,有限会社,東京都,練馬区,中村北３丁目２０番１０号,,13,120,1760023,,,2023-04-21,清算の結了等,,,2015-10-05,1,,,,,タローキカク,0
1479,6012403002327,登記記録の閉鎖等,0,2023-04-26,2023-04-24,Ｐスパイラル合同会社,,合同会社,東京都,府中市,幸町１丁目１５番地の１４,,13,206,1830054,,,2023-04-24,清算の結了等,,,2015-10-05,1,,,,,ピースパイラル,0
1483,6013301026673,登記記録の閉鎖等,0,2023-04-26,2023-04-18,プラス株式会社,,株式会社,東京都,豊島区,東池袋２丁目６３番１号,,13,116,1700013,,,2023-04-18,清算の結了等,,,2015-10-05,1,,,,,プラス,0
1502,6021002067020,登記記録の閉鎖等,0,2023-04-26,2023-04-24,有限会社丸萬,,有限会社,神奈川県,横須賀市,若松町２丁目４番地,,14,201,2380007,,,2023-04-24,清算の結了等,,,2015-10-05,1,,,,,マルマン,0
1506,6030001025863,登記記録の閉鎖等,0,2023-04-26,2023-04-21,埼玉中央理化工業株式会社,,株式会社,埼玉県,所沢市,東所沢和田２丁目１７番９号,,11,208,3590023,,,2023-04-21,合併による解散等,8013301007424,令和５年４月１日東京都豊島区巣鴨一丁目４番１７号中央理化工業株式会社（8013301007424）に合併し解散,2015-10-05,1,,,,,サイタマチュウオウリカコウギョウ,0
1508,6030001054284,登記記録の閉鎖等,0,2023-04-26,2023-03-31,株式会社アルト,,株式会社,埼玉県,川越市,熊野町１２番地,,11,201,3501146,,,2023-03-31,清算の結了等,,,2015-10-05,1,,,,,アルト,0
1510,6030001115573,登記記録の閉鎖等,0,2023-04-26,2023-04-10,株式会社前野町興産,,株式会社,埼玉県,川口市,川口１丁目５番１４－２３０２号スカイフロントタワー川口,,11,203,3320015,,,2023-04-10,合併による解散等,2030001129899,令和５年４月１日埼玉県川口市川口一丁目５番１４－２３０２号スカイフロントタワー川口株式会社岡本企画（2030001129899）に合併し解散,2016-07-27,1,,,,,マエノチョウコウサン,0
1524,6040001035721,登記記録の閉鎖等,0,2023-04-26,2023-04-10,志村商事株式会社,,株式会社,千葉県,松戸市,常盤平双葉町１番地の９,,12,207,2702262,,,2023-04-10,清算の結了等,,,2015-10-05,1,,,,,シムラショウジ,0
1530,6040002004931,登記記録の閉鎖等,0,2023-04-26,2023-04-12,有限会社サンチク,,有限会社,千葉県,千葉市中央区,生実町１番地１,,12,101,2600813,,,2023-04-12,清算の結了等,,,2015-10-05,1,,,,,サンチク,0
1604,6160002004358,登記記録の閉鎖等,0,2023-04-26,2023-04-25,有限会社光城建築,,有限会社,滋賀県,大津市,下阪本２丁目１２番６号,,25,201,5200105,,,2023-04-25,清算の結了等,,,2015-10-05,1,,,,,コウジョウケンチク,0
1610,6180001137933,登記記録の閉鎖等,0,2023-04-26,2023-04-24,リロードＪＡＰＡＮグループマーケティングココ株式会社,,株式会社,愛知県,名古屋市中川区,一柳通１丁目２７番地第２フラワービル４Ｆ,,23,110,4540905,,,2023-04-24,清算の結了等,,,2019-09-04,1,,,,,リロードジャパングループマーケティングココ,0
1611,6180001145572,登記記録の閉鎖等,0,2023-04-26,2023-04-21,株式会社ドゥホールディングス,,株式会社,愛知県,名古屋市北区,新堀町２５番地の１,,23,103,4620801,,,2023-04-21,合併による解散等,5180001069062,令和５年４月２１日名古屋市北区新堀町２５番地の１株式会社ドゥ（5180001069062）に合併し解散,2021-04-07,1,,,,,ドゥホールディングス,0
1624,6180301007803,登記記録の閉鎖等,0,2023-04-26,2023-04-20,株式会社ミツルヤ,,株式会社,愛知県,田原市,田原町柳沢５９番地１,,23,231,4413421,,,2023-04-20,清算の結了等,,,2015-10-05,1,,,,,ミツルヤ,0
1625,6180301020079,登記記録の閉鎖等,0,2023-04-26,2023-04-20,株式会社ＦＵＳＩＯＮ,,株式会社,愛知県,豊田市,永覚新町１丁目１３番地３,,23,211,4701206,,,2023-04-20,清算の結了等,,,2015-10-05,1,,,,,フュージョン,0
1635,6200005005712,登記記録の閉鎖等,0,2023-04-26,2023-04-24,農事組合法人海津町肥育生産組合,,その他の設立登記法人,岐阜県,海津市,海津町江東２８２番地,,21,221,5030635,,,2023-04-24,清算の結了等,,,2015-10-05,1,,,,,カイズチョウヒイクセイサンクミアイ,0
1637,6230001009383,登記記録の閉鎖等,0,2023-04-26,2023-04-25,株式会社グローバル・サーティフィケーション・ジャパン,,株式会社,富山県,砺波市,鷹栖１７７２番地,,16,208,9391335,,,2023-04-25,清算の結了等,,,2015-10-05,1,,,,,グローバルサーティフィケーションジャパン,0
1641,6240002051029,登記記録の閉鎖等,0,2023-04-26,2023-04-21,有限会社電化ショップハタテ,,有限会社,広島県,尾道市,向島町５５８４番地,,34,205,7220073,,,2023-04-21,清算の結了等,,,2015-10-05,1,,,,,デンカショップハタテ,0
1643,6260001024149,登記記録の閉鎖等,0,2023-04-26,2023-04-20,株式会社五条農園,,株式会社,岡山県,岡山市南区,西七区６５３番地１,,33,104,7091202,,,2023-04-20,清算の結了等,,,2015-10-05,1,,,,,ゴジョウノウエン,0
1652,6290001022661,登記記録の閉鎖等,0,2023-04-26,2023-04-14,株式会社ＭＴＲベクトル,,株式会社,福岡県,那珂川市,大字成竹８４０番地,,40,231,8111235,,,2023-04-14,清算の結了等,,,2015-10-05,1,,,,,エムティーアールベクトル,0
1660,6290801010452,登記記録の閉鎖等,0,2023-04-26,2023-04-25,日製産業株式会社,,株式会社,福岡県,北九州市八幡西区,浅川台１丁目９番２４号,,40,109,8070875,,,2023-04-25,清算の結了等,,,2015-10-05,1,,,,,ニッセイサンギョウ,0
1665,6330003002327,登記記録の閉鎖等,0,2023-04-26,2023-04-14,合資会社甲斐呉服店,,合資会社,熊本県,上益城郡山都町,浜町１６８番地,,43,447,8613518,,,2023-04-14,清算の結了等,,,2015-10-05,1,,,,,,0
1670,6350002001170,登記記録の閉鎖等,0,2023-04-26,2023-04-12,有限会社川上新聞店,,有限会社,宮崎県,宮崎市,大工２丁目９９番地１グランテージ２０１号,,45,201,8800015,,,2023-04-12,清算の結了等,,,2015-10-05,1,,,,,カワカミシンブンテン,0
1676,6360002020285,登記記録の閉鎖等,0,2023-04-26,2023-04-18,有限会社やんばるガラス工芸館,,有限会社,沖縄県,国頭郡本部町,字崎本部２５８３番地の１,,47,308,9050225,,,2023-04-18,清算の結了等,,,2015-10-05,1,,,,,ヤンバルガラスコウゲイカン,0
1679,6370001009188,登記記録の閉鎖等,0,2023-04-26,2023-04-21,中央理化工業株式会社,,株式会社,宮城県,仙台市若林区,荒井南１４番地１,,04,103,9840039,,,2023-04-21,合併による解散等,8013301007424,令和５年４月１日東京都豊島区巣鴨一丁目４番１７号中央理化工業株式会社（8013301007424）に合併し解散,2015-10-05,1,,,,,チュウオウリカコウギョウ,0
1686,6390001014211,登記記録の閉鎖等,0,2023-04-26,2023-04-21,株式会社平洲農園,,株式会社,山形県,東置賜郡川西町,大字尾長島８４４番地,,06,382,9990213,,,2023-04-21,清算の結了等,,,2015-10-05,1,,,,,ヘイシュウノウエン,0
1689,6400005003035,登記記録の閉鎖等,0,2023-04-26,2023-04-18,大沢川山生産森林組合,,その他の設立登記法人,岩手県,花巻市,湯口字上川原４番地１,,03,205,0250244,,,2023-04-18,清算の結了等,,,2015-10-05,1,,,,,,0
1690,6402701000117,登記記録の閉鎖等,0,2023-04-26,2023-04-13,株式会社佐藤屋,,株式会社,岩手県,大船渡市,盛町字木町４番地１１,,03,203,0220003,,,2023-04-13,清算の結了等,,,2015-10-05,1,,,,,サトウヤ,0
1692,6430001049013,登記記録の閉鎖等,0,2023-04-26,2023-04-21,株式会社ＩＮＴＥＣ　ＯＫＩＴＡ,,株式会社,愛知県,知多郡南知多町,大字豊丘字馬道１番地の１１,,23,445,4703411,,,2023-04-21,清算の結了等,,,2015-10-05,1,,,,,インテックオキタ,0
1704,7010001142065,登記記録の閉鎖等,0,2023-04-26,2023-04-12,株式会社アンジェロベレッツァ,,株式会社,千葉県,船橋市,咲が丘２丁目１４番３０号,,12,204,2740807,,,2023-04-12,清算の結了等,,,2015-10-05,1,,,,,アンジェロベレッツァ,0
1712,7010401063002,登記記録の閉鎖等,0,2023-04-26,2023-04-19,武蔵株式会社,,株式会社,東京都,港区,芝浦３丁目１３番３号,,13,103,1080023,,,2023-04-19,合併による解散等,6011101041752,令和５年４月１日東京都新宿区西新宿六丁目２２番１号株式会社プライムクロス（6011101041752）に合併し解散,2015-10-05,1,,,,,ムサシ,0
1724,7010501013047,登記記録の閉鎖等,0,2023-04-26,2023-04-24,丸山商事株式会社,,株式会社,東京都,台東区,東上野３丁目１３番３号,,13,106,1100015,,,2023-04-24,清算の結了等,,,2015-10-05,1,,,,,マルヤマショウジ,0
1739,7011001110012,登記記録の閉鎖等,0,2023-04-26,2023-04-20,株式会社リベラシオン,,株式会社,広島県,東広島市,黒瀬町宗近柳国８８９番１号恵比寿ビル１０１号室,,34,212,7392504,,,2023-04-20,清算の結了等,,,2016-03-16,1,,,,,リベラシオン,0
1744,7011002027635,登記記録の閉鎖等,0,2023-04-26,2023-04-19,有限会社ケンシン・ジャパン,,有限会社,東京都,渋谷区,渋谷１丁目２４番５号,,13,113,1500002,,,2023-04-19,清算の結了等,,,2015-10-05,1,,,,,ケンシンジャパン,0
1759,7011502009315,登記記録の閉鎖等,0,2023-04-26,2023-04-18,有限会社精密印刷,,有限会社,東京都,荒川区,西尾久８丁目３３番３４号,,13,118,1160011,,,2023-04-18,清算の結了等,,,2015-10-05,1,,,,,セイミツインサツ,0
1760,7011601002443,登記記録の閉鎖等,0,2023-04-26,2023-04-21,株式会社サンエイ商会,,株式会社,東京都,練馬区,栄町９番６－１０５号,,13,120,1760006,,,2023-04-21,清算の結了等,,,2015-10-05,1,,,,,,0
1785,7021001006110,登記記録の閉鎖等,0,2023-04-26,2023-04-24,株式会社エコサービス,,株式会社,神奈川県,藤沢市,大庭５５５９番８号青木店舗１０１,,14,205,2510861,,,2023-04-24,清算の結了等,,,2015-10-05,1,,,,,エコサービス,0
1791,7021002059768,登記記録の閉鎖等,0,2023-04-26,2023-04-21,有限会社丸善,,有限会社,神奈川県,平塚市,田村１丁目１５番８号,,14,203,2540013,,,2023-04-21,清算の結了等,,,2015-10-05,1,,,,,マルゼン,0
1807,7040001093082,登記記録の閉鎖等,0,2023-04-26,2023-04-11,株式会社プランニングラボ,,株式会社,千葉県,千葉市稲毛区,長沼町２５１番地１１３,,12,103,2630005,,,2023-04-11,清算の結了等,,,2015-12-01,1,,,,,プランニングラボ,0
1819,7040002086969,登記記録の閉鎖等,0,2023-04-26,2023-04-11,有限会社高橋農機商会,00020925,有限会社,千葉県,香取市,佐原イ３２５３番地,,12,236,2870003,,,2023-04-11,清算の結了等,,,2015-10-05,1,,,,,タカハシノウキショウカイ,0
1887,7180001021764,登記記録の閉鎖等,0,2023-04-26,2023-04-21,株式会社川博,,株式会社,愛知県,名古屋市熱田区,川並町２番２２号,,23,109,4560072,,,2023-04-21,清算の結了等,,,2015-10-05,1,,,,,カワヒロ,0
1906,7180002025896,登記記録の閉鎖等,0,2023-04-26,2023-04-21,株式会社白木建設,,株式会社,愛知県,名古屋市中区,栄２丁目７番２８号,,23,106,4600008,,,2023-04-21,清算の結了等,,,2015-10-05,1,,,,,シラキケンセツ,0
1908,7180002055051,登記記録の閉鎖等,0,2023-04-26,2023-04-20,有限会社城東開発,,有限会社,愛知県,名古屋市東区,東大曽根町２２番２５号,,23,102,4610022,,,2023-04-20,清算の結了等,,,2015-10-05,1,,,,,ジョウトウカイハツ,0
1911,7180002074588,登記記録の閉鎖等,0,2023-04-26,2023-04-21,有限会社ユタカ鉄工所,,有限会社,愛知県,犬山市,上坂町２丁目１６２番地,,23,215,4840059,,,2023-04-21,清算の結了等,,,2015-10-05,1,,,,,ユタカテッコウショ,0
1912,7180002084637,登記記録の閉鎖等,0,2023-04-26,2023-04-24,有限会社英和,,有限会社,愛知県,大府市,北崎町午原５３番地の２,,23,223,4740001,,,2023-04-24,清算の結了等,,,2015-10-05,1,,,,,エイワ,0
1919,7230001000597,登記記録の閉鎖等,0,2023-04-26,2023-04-24,株式会社カネコ,,株式会社,富山県,富山市,秋吉１９４番地１１,,16,201,9300953,,,2023-04-24,清算の結了等,,,2015-10-05,1,,,,,カネコ,0
1927,7280001008537,登記記録の閉鎖等,0,2023-04-26,2023-04-19,株式会社ＴＧＣ,,株式会社,島根県,大田市,静間町２５１番地２,,32,205,6940031,,,2023-04-19,清算の結了等,,,2021-10-14,1,,,,,ティージーシー,0
1959,7370301002635,登記記録の閉鎖等,0,2023-04-26,2023-04-13,株式会社芽ぐみ,,株式会社,宮城県,石巻市,北上町橋浦字行人前１９０番地,,04,202,9860202,,,2023-04-13,清算の結了等,,,2015-10-05,1,,,,,メグミ,0
1961,7370602001170,登記記録の閉鎖等,0,2023-04-26,2023-04-18,有限会社拓新商会,,有限会社,宮城県,塩竈市,海岸通４番１２号,,04,203,9850002,,,2023-04-18,清算の結了等,,,2015-10-05,1,,,,,タクシンショウカイ,0
1962,7370802000988,登記記録の閉鎖等,0,2023-04-26,2023-04-18,有限会社高洋商会,,有限会社,宮城県,岩沼市,字荒井８８番地の２５,,04,211,9892463,,,2023-04-18,清算の結了等,,,2015-10-05,1,,,,,コウヨウショウカイ,0
1965,7400001005265,登記記録の閉鎖等,0,2023-04-26,2023-04-13,川村工業株式会社,,株式会社,岩手県,花巻市,東宮野目第１３地割１２０番地,,03,205,0250003,,,2023-04-13,清算の結了等,,,2023-02-22,1,,,,,カワムラコウギョウ,0
2014,8010602026335,登記記録の閉鎖等,0,2023-04-26,2023-04-19,有限会社ティーネット,,有限会社,東京都,江東区,辰巳３丁目１７番７号,,13,108,1350053,,,2023-04-19,清算の結了等,,,2015-10-05,1,,,,,ティーネット,0
2031,8011001098767,登記記録の閉鎖等,0,2023-04-26,2023-04-21,株式会社ＳＬＡ,,株式会社,東京都,北区,豊島５丁目１番２１号,,13,117,1140003,,,2023-04-21,合併による解散等,2011101038612,令和５年４月１日東京都渋谷区千駄ヶ谷五丁目８番９号株式会社サンキョウ・ロジ・アソシエート（2011101038612）に合併し解散,2015-10-05,1,,,,,エスエルエー,0
2043,8011101096191,登記記録の閉鎖等,0,2023-04-26,2023-04-25,株式会社Ｂｒｉｌｏ,,株式会社,東京都,新宿区,神楽坂６丁目８番地,,13,104,1620825,,,2023-04-25,清算の結了等,,,2021-09-07,1,,,,,ブリーロ,0
2044,8011101096605,登記記録の閉鎖等,0,2023-04-26,2023-04-21,株式会社ＤＥＯケア,,株式会社,東京都,新宿区,百人町１丁目１０番１２号,,13,104,1690073,,,2023-04-21,清算の結了等,,,2021-10-18,1,,,,,ディーイーオーケア,0
2050,8011501019306,登記記録の閉鎖等,0,2023-04-26,2023-04-21,エスエスリアン株式会社,,株式会社,東京都,足立区,梅島２丁目３８番８号,,13,121,1210816,,,2023-04-21,合併による解散等,2011101038612,令和５年４月１日東京都渋谷区千駄ヶ谷五丁目８番９号株式会社サンキョウ・ロジ・アソシエート（2011101038612）に合併し解散,2015-10-05,1,,,,,エスエスリアン,0
2059,8011802024772,登記記録の閉鎖等,0,2023-04-26,2023-04-24,有限会社エムロード,,有限会社,東京都,葛飾区,柴又４丁目８番６号,,13,122,1250052,,,2023-04-24,清算の結了等,,,2015-10-05,1,,,,,,0
2073,8020001093546,登記記録の閉鎖等,0,2023-04-26,2023-04-24,株式会社悠香房,,株式会社,神奈川県,鎌倉市,扇ガ谷４丁目５－２５,,14,204,2480011,,,2023-04-24,清算の結了等,,,2015-10-05,1,,,,,,0
2087,8021002047821,登記記録の閉鎖等,0,2023-04-26,2023-04-25,有限会社タイラ電気,,有限会社,神奈川県,海老名市,社家２丁目１４番１４号,,14,215,2430424,,,2023-04-25,清算の結了等,,,2015-10-05,1,,,,,タイラデンキ,0
2112,8070001018366,登記記録の閉鎖等,0,2023-04-26,2023-04-20,株式会社伊与久製作所．,,株式会社,群馬県,北群馬郡榛東村,大字広馬場２１６３番地,,10,344,3703504,,,2023-04-20,清算の結了等,,,2015-10-05,1,,,,,イヨクセイサクショ,0
2115,8080102012969,登記記録の閉鎖等,0,2023-04-26,2023-04-24,有限会社クロッシング,,有限会社,静岡県,沼津市,足高３２２番地３６,,22,203,4100001,,,2023-04-24,清算の結了等,,,2015-10-05,1,,,,,クロッシング,0
2130,8110002029382,登記記録の閉鎖等,0,2023-04-26,2023-04-21,有限会社矢尾板豆富店,,有限会社,新潟県,長岡市,宮内３丁目８番１１号,,15,202,9401106,,,2023-04-21,清算の結了等,,,2015-10-05,1,,,,,ヤオイタトウフテン,0
2131,8110005009836,登記記録の閉鎖等,0,2023-04-26,2023-04-20,善性寺,,その他の設立登記法人,新潟県,妙高市,大字吉木９７８番地,,15,217,9440022,,,2023-04-20,清算の結了等,,,2015-10-05,1,,,,,ゼンショウジ,0
2133,8120001221402,登記記録の閉鎖等,0,2023-04-26,2023-04-20,株式会社リング,,株式会社,大阪府,大阪市東成区,大今里西２丁目１３番２３号,,27,115,5370014,,,2023-04-20,清算の結了等,,,2019-06-03,1,,,,,リング,0
2147,8120103001545,登記記録の閉鎖等,0,2023-04-26,2023-04-24,合同会社トークたばこショップ,,合同会社,大阪府,岸和田市,土生町２丁目３２番６号,,27,202,5960825,,,2023-04-24,清算の結了等,,,2015-10-05,1,,,,,トークタバコショップ,0
2169,8170002005130,登記記録の閉鎖等,0,2023-04-26,2023-04-24,株式会社ＡＧＡＲＡ,,株式会社,和歌山県,和歌山市,野崎４０番地１４,,30,201,6408402,,,2023-04-24,清算の結了等,,,2015-10-05,1,,,,,,0
2171,8180001042537,登記記録の閉鎖等,0,2023-04-26,2023-04-21,竹中高圧工業株式会社,,株式会社,愛知県,名古屋市南区,元塩町５丁目８番地,,23,112,4570823,,,2023-04-21,合併による解散等,4010401087243,令和５年４月１日東京都港区虎ノ門三丁目１８番１９号エア・ウォーター東日本株式会社（4010401087243）に合併し解散,2015-10-05,1,,,,,タケナカコウアツコウギョウ,0
2183,8180301023492,登記記録の閉鎖等,0,2023-04-26,2023-04-17,株式会社アリス・イン・ワンダーランド,,株式会社,愛知県,西尾市,下町八幡下２５番地６,,23,213,4450891,,,2023-04-17,合併による解散等,1180301015364,令和５年４月１６日愛知県碧南市中町二丁目９０番地中部産業株式会社（1180301015364）に合併し解散,2015-10-05,1,,,,,アリスインワンダーランド,0
2210,8270001003166,登記記録の閉鎖等,0,2023-04-26,2023-04-17,株式会社大島ハウス,,株式会社,鳥取県,米子市,旗ヶ崎６丁目５番１６号,,31,202,6830845,,,2023-04-17,清算の結了等,,,2022-09-21,1,,,,,,0
2216,8290001045025,登記記録の閉鎖等,0,2023-04-26,2023-04-04,株式会社シーガル,,株式会社,福岡県,宗像市,日の里７丁目６番地１３,,40,220,8113425,,,2023-04-04,清算の結了等,,,2015-10-05,1,,,,,シーガル,0
2224,8290802002901,登記記録の閉鎖等,0,2023-04-26,2023-04-24,有限会社三洋商事,,有限会社,福岡県,北九州市小倉北区,浅野２丁目１２番２８号,,40,106,8020001,,,2023-04-24,清算の結了等,,,2015-10-05,1,,,,,サンヨウショウジ,0
2230,8330001025435,登記記録の閉鎖等,0,2023-04-26,2023-04-13,株式会社フジバンビホールディングス,,株式会社,熊本県,熊本市北区,四方寄町１４４５番地１,,43,105,8615515,,,2023-04-13,合併による解散等,4330001004079,令和５年４月１日熊本市北区四方寄町１４４５番地１株式会社フジバンビ（4330001004079）に合併し解散,2018-06-28,1,,,,,フジバンビホールディングス,0
2243,8370002008146,登記記録の閉鎖等,0,2023-04-26,2023-04-18,有限会社デッサン,,有限会社,宮城県,仙台市青葉区,吉成２丁目１９番１号,,04,101,9893205,,,2023-04-18,清算の結了等,,,2015-10-05,1,,,,,デッサン,0
2249,8390002009118,登記記録の閉鎖等,0,2023-04-26,2023-04-18,有限会社エスシイパアソンズ,,有限会社,山形県,鶴岡市,日和田町６番１９号,,06,203,9970016,,,2023-04-18,清算の結了等,,,2015-10-05,1,,,,,エスシイパアソンズ,0
2250,8400002000512,登記記録の閉鎖等,0,2023-04-26,2023-04-21,有限会社エー・ディー・ディー,,有限会社,岩手県,盛岡市,大館町２０番３０号,,03,201,0200147,,,2023-04-21,合併による解散等,6010701008418,令和５年４月１日神奈川県横浜市都筑区中川中央二丁目６番３号ヒロセ電機株式会社（6010701008418）に合併し解散,2015-10-05,1,,,,,エーディーディー,0
2267,8500002017620,登記記録の閉鎖等,0,2023-04-26,2023-04-25,有限会社青山建創,,有限会社,愛媛県,今治市,喜田村１丁目４番１７号,,38,202,7991502,,,2023-04-25,清算の結了等,,,2015-10-05,1,,,,,アオヤマケンソウ,0
2274,9010001190533,登記記録の閉鎖等,0,2023-04-26,2023-04-12,株式会社ＩＧＰＩテクノロジー,,株式会社,東京都,千代田区,丸の内１丁目９番２号グラントウキョウサウスタワー８階,,13,101,1000005,,,2023-04-12,清算の結了等,,,2018-03-28,1,,,,,アイジーピーアイテクノロジー,0
2282,9010003014129,登記記録の閉鎖等,0,2023-04-26,2023-04-21,合同会社村田経理事務所,,合同会社,東京都,葛飾区,東四つ木４丁目１３番１３号,,13,122,1240014,,,2023-04-21,清算の結了等,,,2015-10-05,1,,,,,ムラタケイリジムショ,0
2312,9011001139371,登記記録の閉鎖等,0,2023-04-26,2023-04-17,株式会社そらんじ,,株式会社,東京都,渋谷区,松濤１丁目８番１２号,,13,113,1500046,,,2023-04-17,清算の結了等,,,2021-03-26,1,,,,,ソランジ,0
2329,9011302016336,登記記録の閉鎖等,0,2023-04-26,2023-04-19,有限会社文荘堂,,有限会社,東京都,渋谷区,神宮前６丁目３３番１４号,,13,113,1500001,,,2023-04-19,清算の結了等,,,2015-10-05,1,,,,,ブンソウドウ,0
2330,9011303004307,登記記録の閉鎖等,0,2023-04-26,2023-04-18,合同会社Ｌｉｌｉｂｅｌｌｅ’ｓ,,合同会社,東京都,杉並区,和田３丁目１３番５号,,13,115,1660012,,,2023-04-18,清算の結了等,,,2022-02-17,1,,,,,リーリーベールス,0
2337,9011702008536,登記記録の閉鎖等,0,2023-04-26,2023-04-24,有限会社中田製作所,,有限会社,東京都,江戸川区,東小松川４丁目４３番８号,,13,123,1320033,,,2023-04-24,清算の結了等,,,2015-10-05,1,,,,,ナカタセイサクショ,0
2343,9012702001209,登記記録の閉鎖等,0,2023-04-26,2023-04-24,有限会社ちば家,,有限会社,東京都,小平市,美園町２丁目２番３２号,,13,211,1870041,,,2023-04-24,清算の結了等,,,2015-10-05,1,,,,,チバヤ,0
2355,9013301048756,登記記録の閉鎖等,0,2023-04-26,2023-04-13,株式会社ディープ・プランニング,,株式会社,東京都,豊島区,南大塚１丁目６０番２０号,,13,116,1700005,,,2023-04-13,清算の結了等,,,2022-03-04,1,,,,,ディーププランニング,0
2360,9020001105473,登記記録の閉鎖等,0,2023-04-26,2023-04-24,ＫＡＷＡ商事株式会社,,株式会社,愛知県,半田市,中島町２６番地の１,,23,205,4750843,,,2023-04-24,清算の結了等,,,2015-10-05,1,,,,,カワショウジ,0
2378,9021001002842,登記記録の閉鎖等,0,2023-04-26,2023-04-24,株式会社パパスホーム,,株式会社,神奈川県,藤沢市,片瀬海岸１丁目３番２０号,,14,205,2510035,,,2023-04-24,清算の結了等,,,2015-10-05,1,,,,,パパスホーム,0
2379,9021001008286,登記記録の閉鎖等,0,2023-04-26,2023-04-14,株式会社ジャパンシーエスホーム,,株式会社,神奈川県,高座郡寒川町,宮山５００番地１１７,,14,321,2530106,,,2023-04-14,清算の結了等,,,2015-10-05,1,,,,,ジャパンシーエスホーム,0
2425,9090001002169,登記記録の閉鎖等,0,2023-04-26,2023-04-24,株式会社望月製材所,,株式会社,山梨県,甲府市,国母１丁目４番１１号,,19,201,4000043,,,2023-04-24,清算の結了等,,,2015-10-05,1,,,,,モチヅキセイザイショ,0
2446,9120003015116,登記記録の閉鎖等,0,2023-04-26,2023-04-21,合同会社山楽,,合同会社,大阪府,大阪市西区,京町堀１丁目８番２７号高坂ビル２０３号,,27,106,5500003,,,2023-04-21,清算の結了等,,,2018-12-21,1,,,,,サンラク,0
2467,9170001013851,登記記録の閉鎖等,0,2023-04-26,2023-04-24,株式会社緑栄,,株式会社,和歌山県,和歌山市,川辺２０３番地２,,30,201,6496312,,,2023-04-24,清算の結了等,,,2015-10-05,1,,,,,リョクエイ,0
2478,9180002052872,登記記録の閉鎖等,0,2023-04-26,2023-04-24,有限会社ナリタ,,有限会社,愛知県,名古屋市西区,大野木４丁目３４９番地,,23,104,4520803,,,2023-04-24,清算の結了等,,,2015-10-05,1,,,,,ナリタ,0
2480,9180002060504,登記記録の閉鎖等,0,2023-04-26,2023-04-21,丸佑産業株式会社,,株式会社,愛知県,名古屋市中区,丸の内１丁目１４番２４号ライオンズビル第２丸の内７０２,,23,106,4600002,,,2023-04-21,清算の結了等,,,2015-10-05,1,,,,,マルユウサンギョウ,0
2481,9180002074132,登記記録の閉鎖等,0,2023-04-26,2023-04-24,有限会社シスプラ,,有限会社,愛知県,瀬戸市,北山町８０番地キャステージ水野８０１号,,23,204,4890984,,,2023-04-24,清算の結了等,,,2015-10-05,1,,,,,シスプラ,0
2488,9190001005434,登記記録の閉鎖等,0,2023-04-26,2023-04-21,三重中央理化工業株式会社,,株式会社,三重県,鈴鹿市,野町西１丁目４番６号,,24,207,5100218,,,2023-04-21,合併による解散等,8013301007424,令和５年４月１日東京都豊島区巣鴨一丁目４番１７号中央理化工業株式会社（8013301007424）に合併し解散,2015-10-05,1,,,,,ミエチュウオウリカコウギョウ,0
2494,9200002005241,登記記録の閉鎖等,0,2023-04-26,2023-04-21,有限会社六条塩谷電機,,有限会社,岐阜県,岐阜市,六条福寿町１３番６号,,21,201,5008354,,,2023-04-21,清算の結了等,,,2015-10-05,1,,,,,ロクジョウエンヤデンキ,0
2498,9240001027118,登記記録の閉鎖等,0,2023-04-26,2023-04-24,木葉水産株式会社,,株式会社,広島県,江田島市,江田島町小用１丁目９番１８号,,34,215,7372121,,,2023-04-24,清算の結了等,,,2015-10-05,1,,,,,,0
2526,9350003001902,登記記録の閉鎖等,0,2023-04-26,2023-04-11,合同会社伊勢丸,,合同会社,宮崎県,延岡市,島浦町７９３番地３,,45,203,8820096,,,2023-04-11,清算の結了等,,,2015-10-05,1,,,,,イセマル,0
2541,9390001008318,登記記録の閉鎖等,0,2023-04-26,2023-04-20,株式会社マスポート,,株式会社,山形県,酒田市,あきほ町６５７番地の６,,06,204,9980828,,,2023-04-20,清算の結了等,,,2015-10-05,1,,,,,マスポート,0
2545,9400002003828,登記記録の閉鎖等,0,2023-04-26,2023-04-17,有限会社エヌ・シー・ピサービス,,有限会社,岩手県,滝沢市,大釜高森５４番地１４,,03,216,0200756,,,2023-04-17,清算の結了等,,,2015-10-05,1,,,,,エヌシーピサービス,0
2546,9430001035241,登記記録の閉鎖等,0,2023-04-26,2023-04-24,株式会社ＫＭストーン,,株式会社,北海道,札幌市北区,新琴似町５６０番地１,,01,102,0010915,,,2023-04-24,清算の結了等,,,2015-10-05,1,,,,,ケーエムストーン,0
2556,9460101006206,登記記録の閉鎖等,0,2023-04-26,2023-04-21,株式会社吉田産業,,株式会社,北海道,河西郡芽室町,祥栄西１６線３番地,,01,637,0820009,,,2023-04-21,清算の結了等,,,2017-08-03,1,,,,,ヨシダサンギョウ,0
