sequenceNumber,corporateNumber,process,correct,updateDate,changeDate,name,nameImageId,kind,prefectureName,cityName,streetNumber,addressImageId,prefectureCode,cityCode,postCode,addressOutside,addressOutsideImageId,closeDate,closeCause,successorCorporateNumber,changeCause,assignmentDate,latest,enName,enPrefectureName,enCityName,enAddressOutside,furigana,hihyoji
2,1010001006291,登記記録の閉鎖等,0,2023-12-07,2023-12-01,株式会社野辺宝飾,,株式会社,東京都,文京区,湯島３丁目３１番２号,,13,105,1130034,,,2023-12-01,合併による解散等,4030001085125,令和５年１２月１日東京都文京区湯島三丁目３１番２号株式会社野邊商店（4030001085125）に合併し解散,2015-10-05,1,,,,,ノベホウショク,0
8,1010002003478,登記記録の閉鎖等,0,2023-12-07,2023-12-01,有限会社双悦山下商店,,有限会社,東京都,文京区,千石２丁目３７番７号,,13,105,1120011,,,2023-12-01,清算の結了等,,,2015-10-05,1,,,,,ソウエツヤマシタショウテン,0
14,1010401003863,登記記録の閉鎖等,0,2023-12-07,2023-12-01,株式会社エイエスマネージメント,,株式会社,東京都,港区,南青山４丁目２１番２９号,,13,103,1070062,,,2023-12-01,清算の結了等,,,2015-10-05,1,,,,,エイエスマネージメント,0
21,1010401161281,登記記録の閉鎖等,0,2023-12-07,2023-12-01,株式会社ＡＰ　Ｂ．ＣＵＥ,,株式会社,東京都,港区,高輪３丁目２５番２３号京急第２ビル１Ｆ,,13,103,1080074,,,2023-12-01,合併による解散等,8010401152646,令和５年１２月１日東京都港区高輪三丁目２５番２３号京急第２ビル１Ｆ株式会社エー・ピーカンパニー（8010401152646）に合併し解散,2021-07-09,1,,,,,エーピービーキュー,0
29,1010405018057,登記記録の閉鎖等,0,2023-12-07,2023-12-01,アックスホールディング２一般社団法人,,その他の設立登記法人,東京都,港区,虎ノ門３丁目２２番１０－２０１号,,13,103,1050001,,,2023-12-01,清算の結了等,,,2019-09-06,1,,,,,アックスホールディングツー,0
35,1010601015584,登記記録の閉鎖等,0,2023-12-07,2023-12-04,株式会社町田商店,,株式会社,東京都,墨田区,菊川３丁目１３番１１号,,13,107,1300024,,,2023-12-04,清算の結了等,,,2015-10-05,1,,,,,マチダショウテン,0
45,1010901034920,登記記録の閉鎖等,0,2023-12-07,2023-12-04,グローバリーダー株式会社,,株式会社,東京都,世田谷区,瀬田４丁目７番３－４０４号,,13,112,1580095,,,2023-12-04,清算の結了等,,,2015-10-05,1,,,,,グローバリーダー,0
48,1010902020440,登記記録の閉鎖等,0,2023-12-07,2023-12-04,有限会社ヨンエイプロセス,,有限会社,東京都,世田谷区,弦巻２丁目３８番１９号,,13,112,1540016,,,2023-12-04,清算の結了等,,,2015-10-05,1,,,,,ヨンエイプロセス,0
56,1011102003789,登記記録の閉鎖等,0,2023-12-07,2023-12-04,有限会社ギヤラリー・カオサム,,有限会社,東京都,新宿区,北町２２番地,,13,104,1620834,,,2023-12-04,清算の結了等,,,2015-10-05,1,,,,,ギヤラリーカオサム,0
58,1011301020692,登記記録の閉鎖等,0,2023-12-07,2023-12-04,株式会社グローバルハイ,,株式会社,東京都,江東区,大島２丁目１１番３号,,13,108,1360072,,,2023-12-04,清算の結了等,,,2015-10-05,1,,,,,グローバルハイ,0
68,1011602009121,登記記録の閉鎖等,0,2023-12-07,2023-12-01,有限会社マエダ建設,,有限会社,東京都,練馬区,大泉学園町７丁目１４番２２号,,13,120,1780061,,,2023-12-01,合併による解散等,5011602009126,令和５年１２月１日東京都練馬区大泉学園町七丁目１４番２２号株式会社マエダ電器（5011602009126）に合併し解散,2015-10-05,1,,,,,マエダケンセツ,0
72,1012301008876,登記記録の閉鎖等,0,2023-12-07,2023-12-05,株式会社ライブライフ,,株式会社,神奈川県,平塚市,入野３６６番地６,,14,203,2591216,,,2023-12-05,清算の結了等,,,2015-10-05,1,,,,,ライブライフ,0
76,1012803001214,登記記録の閉鎖等,0,2023-12-07,2023-12-04,ＮＪＯ　Ｃｏｎｓｕｌｔｉｎｇ合同会社,,合同会社,東京都,国分寺市,東恋ヶ窪６丁目１８番地３７,,13,214,1850014,,,2023-12-04,清算の結了等,,,2015-10-05,1,,,,,エヌジェーオーコンアルティング,0
80,1013302011258,登記記録の閉鎖等,0,2023-12-07,2023-12-04,有限会社埼玉屋,,有限会社,東京都,豊島区,南長崎２丁目１番４号,,13,116,1710052,,,2023-12-04,清算の結了等,,,2015-10-05,1,,,,,サイタマヤ,0
84,1020002005787,登記記録の閉鎖等,0,2023-12-07,2023-11-30,キクチ興業有限会社,,有限会社,神奈川県,川崎市高津区,久末１２９７番地３,,14,134,2130026,,,2023-11-30,合併による解散等,8020001066106,令和５年１１月３０日川崎市高津区久末２０６５番地３株式会社菊池組（8020001066106）に合併し解散,2015-10-05,1,,,,,キクチコウギョウ,0
85,1020002038647,登記記録の閉鎖等,0,2023-12-07,2023-12-01,有限会社菅原工事店,,有限会社,神奈川県,横浜市鶴見区,市場西中町１番１６号,,14,101,2300023,,,2023-12-01,清算の結了等,,,2015-10-05,1,,,,,スガワラコウジテン,0
96,1030001055964,登記記録の閉鎖等,0,2023-12-07,2023-12-01,株式会社鶴岡レーシング,,株式会社,埼玉県,ふじみ野市,ふじみ野１丁目１番３９号,,11,245,3560050,,,2023-12-01,清算の結了等,,,2015-10-05,1,,,,,ツルオカレーシング,0
105,1030002108622,登記記録の閉鎖等,0,2023-12-07,2023-12-01,有限会社介護あかり,,有限会社,埼玉県,川口市,東川口２丁目１９番２４号,,11,203,3330801,,,2023-12-01,清算の結了等,,,2015-10-05,1,,,,,カイゴアカリ,0
107,1030002121906,登記記録の閉鎖等,0,2023-12-07,2023-12-01,有限会社若林材木店,,有限会社,埼玉県,秩父市,上宮地町１番２０号,,11,207,3680024,,,2023-12-01,合併による解散等,9030001155237,令和５年１２月１日埼玉県秩父市上宮地町１番２０号株式会社若林材木店（9030001155237）に合併し解散,2015-10-05,1,,,,,ワカバヤシザイモクテン,0
115,1040001059824,登記記録の閉鎖等,0,2023-12-07,2023-11-30,株式会社ホンダプリモ千葉南,,株式会社,千葉県,長生郡一宮町,一宮２９８１番地２,,12,421,2994301,,,2023-11-30,清算の結了等,,,2015-10-05,1,,,,,ホンダプリモチバミナミ,0
132,1060001001189,登記記録の閉鎖等,0,2023-12-07,2023-12-05,株式会社カクキン,,株式会社,栃木県,宇都宮市,中久保１丁目４番１２号,,09,201,3210906,,,2023-12-05,清算の結了等,,,2015-10-05,1,,,,,カクキン,0
139,1080101007828,登記記録の閉鎖等,0,2023-12-07,2023-12-04,ファム・ディア株式会社,,株式会社,静岡県,裾野市,呼子２丁目７番９号,,22,220,4101109,,,2023-12-04,清算の結了等,,,2015-10-05,1,,,,,ファムディア,0
141,1100002004987,登記記録の閉鎖等,0,2023-12-07,2023-11-30,有限会社溝口餅店,,有限会社,長野県,長野市,大字長野横沢町６９５番地,,20,201,3800861,,,2023-11-30,清算の結了等,,,2015-10-05,1,,,,,ミゾグチモチテン,0
147,1110001035982,登記記録の閉鎖等,0,2023-12-07,2023-12-04,株式会社オート＆パートナーズ,,株式会社,新潟県,新潟市中央区,川岸町３丁目３３番地２,,15,103,9518133,,,2023-12-04,清算の結了等,,,2021-08-23,1,,,,,オートアンドパートナーズ,0
178,1140002022515,登記記録の閉鎖等,0,2023-12-07,2023-12-04,有限会社オカアートワークス,,有限会社,兵庫県,神戸市中央区,山本通２丁目１０番１２号,,28,110,6500003,,,2023-12-04,清算の結了等,,,2015-10-05,1,,,,,オカアートワークス,0
183,1180001038681,登記記録の閉鎖等,0,2023-12-07,2023-12-04,東昭株式会社,,株式会社,愛知県,名古屋市昭和区,檀溪通５丁目２４番地,,23,107,4660842,,,2023-12-04,合併による解散等,2180001017214,令和５年１２月２日名古屋市東区泉一丁目２２番３０号大洋観光株式会社（2180001017214）に合併し解散,2015-10-05,1,,,,,トウショウ,0
193,1180302012930,登記記録の閉鎖等,0,2023-12-07,2023-12-01,有限会社オトワ商事,,有限会社,愛知県,豊橋市,下地町字五貫５６番地の１,,23,201,4400083,,,2023-12-01,清算の結了等,,,2015-10-05,1,,,,,オトワショウジ,0
194,1190002001497,登記記録の閉鎖等,0,2023-12-07,2023-12-05,丸八商会有限会社,,有限会社,三重県,津市,八町３丁目１番５号,,24,201,5140041,,,2023-12-05,清算の結了等,,,2015-10-05,1,,,,,マルハチショウカイ,0
200,1220002001634,登記記録の閉鎖等,0,2023-12-07,2023-12-05,有限会社大橋企画,,有限会社,石川県,金沢市,駅西本町２丁目１番１５号,,17,201,9200025,,,2023-12-05,清算の結了等,,,2015-10-05,1,,,,,オオハシキカク,0
201,1230001018744,登記記録の閉鎖等,0,2023-12-07,2023-12-04,株式会社雷雲,,株式会社,富山県,南砺市,田屋１６６番地,,16,210,9391600,,,2023-12-04,清算の結了等,,,2021-04-05,1,,,,,ライウン,0
210,1260002027254,登記記録の閉鎖等,0,2023-12-07,2023-12-01,有限会社デイリーフーズ,,有限会社,岡山県,新見市,新見１６５２番地,,33,210,7180011,,,2023-12-01,清算の結了等,,,2015-10-05,1,,,,,デイリーフーズ,0
224,1300002010783,登記記録の閉鎖等,0,2023-12-07,2023-12-04,有限会社ゆたかメガネ,,有限会社,佐賀県,東松浦郡玄海町,大字大薗２０９０番地４,,41,387,8471434,,,2023-12-04,清算の結了等,,,2015-10-05,1,,,,,ユタカメガネ,0
230,1340005009415,登記記録の閉鎖等,0,2023-12-07,2023-12-04,一般社団法人シマクル,,その他の設立登記法人,鹿児島県,熊毛郡南種子町,中之上２４９４番地１,,46,502,8913701,,,2023-12-04,清算の結了等,,,2022-03-02,1,,,,,シマクル,0
247,1430003012642,登記記録の閉鎖等,0,2023-12-07,2023-11-30,合同会社エスアンドワイ,,合同会社,北海道,札幌市西区,発寒十四条２丁目１０番２９号,,01,107,0630834,,,2023-11-30,清算の結了等,,,2021-04-22,1,,,,,エスアンドワイ,0
253,1500002002505,登記記録の閉鎖等,0,2023-12-07,2023-12-05,有限会社ケーシーシーソフトウェア,,有限会社,愛媛県,松山市,味酒町１丁目９番地５,,38,201,7900814,,,2023-12-05,清算の結了等,,,2015-10-05,1,,,,,ケーシーシーソフトウェア,0
260,2010001129736,登記記録の閉鎖等,0,2023-12-07,2023-12-01,株式会社有備保険サービス,,株式会社,東京都,千代田区,丸の内１丁目９番１号,,13,101,1000005,,,2023-12-01,清算の結了等,,,2015-10-05,1,,,,,ユウビホケンサービス,0
271,2010401050203,登記記録の閉鎖等,0,2023-12-07,2023-12-04,株式会社エスカーダ・ジャパン,,株式会社,東京都,渋谷区,渋谷１丁目３番１５号ＢＩＺＣＯＲＥ渋谷,,13,113,1500002,,,2023-12-04,清算の結了等,,,2015-10-05,1,,,,,エスカーダジャパン,0
274,2010401131853,登記記録の閉鎖等,0,2023-12-07,2023-12-05,株式会社茶筒,,株式会社,神奈川県,大和市,つきみ野６丁目２番地３０,,14,213,2420002,,,2023-12-05,合併による解散等,4012301006720,令和５年１１月３０日東京都町田市つくし野二丁目１７番地２０株式会社フォーラムイワセ（4012301006720）に合併し解散,2017-06-06,1,,,,,チャヅツ,0
275,2010401168318,登記記録の閉鎖等,0,2023-12-07,2023-12-01,ＶＨホテルマネジメント株式会社,,株式会社,東京都,港区,西新橋１丁目１番１号ＥＰコンサルティングサービス内,,13,103,1050003,,,2023-12-01,清算の結了等,,,2022-07-11,1,,,,,ブイエイチホテルマネジメント,0
280,2010402026383,登記記録の閉鎖等,0,2023-12-07,2023-12-04,有限会社ウィンドワードデザインオフィス,,有限会社,東京都,港区,南青山３丁目８番４０号青山センタービル２Ｆ,,13,103,1070062,,,2023-12-04,清算の結了等,,,2015-10-05,1,,,,,ウィンドワードデザインオフィス,0
285,2010405018056,登記記録の閉鎖等,0,2023-12-07,2023-12-01,アックスホールディング１一般社団法人,,その他の設立登記法人,東京都,港区,虎ノ門３丁目２２番１０－２０１号,,13,103,1050001,,,2023-12-01,清算の結了等,,,2019-09-06,1,,,,,アックスホールディングワン,0
289,2010605003411,登記記録の閉鎖等,0,2023-12-07,2023-12-01,一般社団法人Ｈｅａｌｔｈｃａｒｅ　Ｏｐｓ,,その他の設立登記法人,東京都,江東区,東雲２丁目７番５ー２２０２号,,13,108,1350062,,,2023-12-01,清算の結了等,,,2017-06-19,1,,,,,ヘルスケアオーピーエス,0
295,2010801006044,登記記録の閉鎖等,0,2023-12-07,2023-12-04,清建株式会社,,株式会社,東京都,大田区,西糀谷２丁目１８番１７号,,13,111,1440034,,,2023-12-04,清算の結了等,,,2015-10-05,1,,,,,セイケン,0
300,2011001059915,登記記録の閉鎖等,0,2023-12-07,2023-12-04,株式会社スタイルリンク,,株式会社,東京都,渋谷区,恵比寿西２丁目８番５号,,13,113,1500021,,,2023-12-04,清算の結了等,,,2015-10-05,1,,,,,スタイルリンク,0
303,2011101057819,登記記録の閉鎖等,0,2023-12-07,2023-12-04,オールインワン株式会社,,株式会社,東京都,新宿区,上落合３丁目１３番１号,,13,104,1610034,,,2023-12-04,清算の結了等,,,2015-10-05,1,,,,,オールインワン,0
318,2011302016490,登記記録の閉鎖等,0,2023-12-07,2023-11-29,有限会社トリロジー・デジタル,,有限会社,東京都,杉並区,西荻南２丁目１９番１０号美光ビル,,13,115,1670053,,,2023-11-29,清算の結了等,,,2015-10-05,1,,,,,トリロジーデジタル,0
319,2011701007545,登記記録の閉鎖等,0,2023-12-07,2023-12-04,丸山アルミ金属工業株式会社,,株式会社,東京都,江戸川区,西小岩１丁目４番８号,,13,123,1330057,,,2023-12-04,清算の結了等,,,2015-10-05,1,,,,,マルヤマアルミキンゾクコウギョウ,0
323,2011802017526,登記記録の閉鎖等,0,2023-12-07,2023-12-05,有限会社ヒーローズ・プロジェクト,,有限会社,東京都,足立区,足立４丁目３４番１２号,,13,121,1200015,,,2023-12-05,清算の結了等,,,2015-10-05,1,,,,,ヒーローズプロジェクト,0
332,2020001140048,登記記録の閉鎖等,0,2023-12-07,2023-11-30,株式会社ガーデン合歓,,株式会社,長野県,小県郡長和町,大門３５１５番地１００,,20,350,3860601,,,2023-11-30,清算の結了等,,,2021-02-19,1,,,,,ガーデンネム,0
358,2040001016576,登記記録の閉鎖等,0,2023-12-07,2023-12-01,亜細亜工機株式会社,,株式会社,千葉県,船橋市,栄町２丁目８番１号,,12,204,2730018,,,2023-12-01,清算の結了等,,,2015-10-05,1,,,,,アジアコウキ,0
372,2080001019724,登記記録の閉鎖等,0,2023-12-07,2023-12-04,株式会社ノナカ,,株式会社,静岡県,榛原郡吉田町,片岡７１番地の９,,22,424,4210303,,,2023-12-04,清算の結了等,,,2015-10-05,1,,,,,ノナカ,0
376,2080401004994,登記記録の閉鎖等,0,2023-12-07,2023-12-06,株式会社マツダネオン工業所,,株式会社,静岡県,浜松市浜北区,上善地５１２番地,,22,136,4340028,,,2023-12-06,清算の結了等,,,2015-10-05,1,,,,,マツダネオンコウギョウショ,0
381,2110002002972,登記記録の閉鎖等,0,2023-12-07,2023-12-04,有限会社新エース車体,,有限会社,新潟県,新潟市江南区,山二ツ本村前３８２番２,,15,104,9500922,,,2023-12-04,清算の結了等,,,2015-10-05,1,,,,,シンエースシャタイ,0
382,2110005004520,登記記録の閉鎖等,0,2023-12-07,2023-12-04,医療法人社団真善会,,その他の設立登記法人,新潟県,新発田市,大手町１丁目７番６号,,15,206,9570052,,,2023-12-04,清算の結了等,,,2015-10-05,1,,,,,シンゼンカイ,0
396,2120101007293,登記記録の閉鎖等,0,2023-12-07,2023-12-04,株式会社森水道工業所,,株式会社,大阪府,堺市北区,新金岡町５丁７番３２８号,,27,146,5918021,,,2023-12-04,清算の結了等,,,2015-10-05,1,,,,,モリスイドウコウギョウショ,0
403,2122001005757,登記記録の閉鎖等,0,2023-12-07,2023-12-06,日生薬品株式会社,,株式会社,大阪府,東大阪市,鷹殿町１４番１号,,27,227,5798036,,,2023-12-06,清算の結了等,,,2015-10-05,1,,,,,ニッセイヤクヒン,0
404,2130001006015,登記記録の閉鎖等,0,2023-12-07,2023-12-01,株式会社エスアイ通信,,株式会社,京都府,京都市左京区,一乗寺塚本町４１番地,,26,103,6068176,,,2023-12-01,清算の結了等,,,2015-10-05,1,,,,,エスアイツウシン,0
414,2150002000997,登記記録の閉鎖等,0,2023-12-07,2023-12-05,株式会社タイムスデザイン,,株式会社,奈良県,奈良市,北之庄西町１丁目１０番地の１０,,29,201,6308452,,,2023-12-05,清算の結了等,,,2015-10-05,1,,,,,タイムスデザイン,0
426,2180002050800,登記記録の閉鎖等,0,2023-12-07,2023-11-24,有限会社河角不動産,,有限会社,愛知県,名古屋市中区,大須１丁目２５番２８号,,23,106,4600011,,,2023-11-24,清算の結了等,,,2015-10-05,1,,,,,カワカドフドウサン,0
435,2200002026756,登記記録の閉鎖等,0,2023-12-07,2023-12-04,有限会社エス・エス精密,,有限会社,岐阜県,飛騨市,神岡町殿１８０番地の２５,,21,217,5061121,,,2023-12-04,清算の結了等,,,2015-10-05,1,,,,,エスエスセイミツ,0
442,2240002023436,登記記録の閉鎖等,0,2023-12-07,2023-11-30,有限会社ストロボ,,有限会社,広島県,広島市中区,袋町４番３５号千鳥ビル３Ｆ,,34,101,7300036,,,2023-11-30,清算の結了等,,,2015-10-05,1,,,,,ストロボ,0
478,2390002002796,登記記録の閉鎖等,0,2023-12-07,2023-12-05,有限会社山形ピイシイオ商会,,有限会社,山形県,山形市,南四番町３番１３号,,06,201,9902444,,,2023-12-05,清算の結了等,,,2015-10-05,1,,,,,ヤマガタピイシイオショウカイ,0
480,2410001004320,登記記録の閉鎖等,0,2023-12-07,2023-12-01,株式会社城,,株式会社,秋田県,秋田市,卸町４丁目２番９号,,05,201,0100061,,,2023-12-01,清算の結了等,,,2015-10-05,1,,,,,ジョウ,0
482,2420001009104,登記記録の閉鎖等,0,2023-12-07,2023-11-30,株式会社シラノ,,株式会社,青森県,弘前市,大字西城北１丁目８番地２,,02,202,0368065,,,2023-11-30,清算の結了等,,,2015-10-05,1,,,,,シラノ,0
484,2420003002024,登記記録の閉鎖等,0,2023-12-07,2023-12-01,合同会社ボンド,,合同会社,青森県,八戸市,大字白銀町字雷５２番地１２,,02,203,0310822,,,2023-12-01,合併による解散等,6420003002078,令和５年１２月１日青森県三戸郡階上町大字角柄折字東平４番地８５合同会社サイン（6420003002078）に合併し解散,2019-08-08,1,,,,,ボンド,0
489,2460103001401,登記記録の閉鎖等,0,2023-12-07,2023-12-04,合同会社ジー・エイチ,,合同会社,北海道,河東郡音更町,木野大通西１８丁目２番地１２,,01,631,0800301,,,2023-12-04,清算の結了等,,,2021-10-06,1,,,,,ジーエイチ,0
496,3010001018252,登記記録の閉鎖等,0,2023-12-07,2023-12-04,新日本油研株式会社,,株式会社,東京都,江東区,木場３丁目８番１０号,,13,108,1350042,,,2023-12-04,清算の結了等,,,2015-10-05,1,,,,,シンニホンユケン,0
509,3010401078136,登記記録の閉鎖等,0,2023-12-07,2023-12-01,株式会社ファーストコンシェルジュ,,株式会社,東京都,港区,新橋５丁目１０－７,,13,103,1050004,,,2023-12-01,清算の結了等,,,2015-10-05,1,,,,,,0
524,3010502019014,登記記録の閉鎖等,0,2023-12-07,2023-12-01,有限会社スターダイニング,,有限会社,東京都,台東区,上野６丁目９番１４号,,13,106,1100005,,,2023-12-01,合併による解散等,6010501022684,令和５年１２月１日東京都台東区上野六丁目９番７号株式会社インスパイア（6010501022684）に合併し解散,2015-10-05,1,,,,,スターダイニング,0
526,3010601030235,登記記録の閉鎖等,0,2023-12-07,2023-12-04,株式会社ＲＥＣ,,株式会社,東京都,墨田区,太平１丁目２３番４号,,13,107,1300012,,,2023-12-04,清算の結了等,,,2015-10-05,1,,,,,アールイーシー,0
532,3010701027445,登記記録の閉鎖等,0,2023-12-07,2023-12-04,株式会社戸越ハイパーク,,株式会社,東京都,品川区,戸越６丁目７番２６号,,13,109,1420041,,,2023-12-04,清算の結了等,,,2015-10-05,1,,,,,トゴシハイパーク,0
533,3010703005275,登記記録の閉鎖等,0,2023-12-07,2023-12-01,合同会社Ｇ１５０,,合同会社,東京都,品川区,南大井２丁目１２番１０号ライオンズマンション大森８０７,,13,109,1400013,,,2023-12-01,清算の結了等,,,2020-06-17,1,,,,,ジーイチゴーマル,0
540,3011001071539,登記記録の閉鎖等,0,2023-12-07,2023-12-01,株式会社Ｙホールディング,,株式会社,東京都,千代田区,丸の内２丁目５番１号,,13,101,1000005,,,2023-12-01,合併による解散等,9011001057904,令和５年１２月１日東京都千代田区丸の内二丁目５番１号株式会社ケイホールディングス（9011001057904）に合併し解散,2015-10-05,1,,,,,ワイホールディング,0
564,3020001099416,登記記録の閉鎖等,0,2023-12-07,2023-11-30,ソライロ株式会社,,株式会社,東京都,渋谷区,道玄坂１丁目２２番９号ＡＤ－Ｏ渋谷道玄坂,,13,113,1500043,,,2023-11-30,清算の結了等,,,2015-10-05,1,,,,,ソライロ,0
567,3020002020875,登記記録の閉鎖等,0,2023-12-07,2023-12-04,有限会社オリオンリース,,有限会社,神奈川県,横浜市旭区,若葉台４丁目２１番９０４号,,14,112,2410801,,,2023-12-04,清算の結了等,,,2015-10-05,1,,,,,オリオンリース,0
574,3021001073138,登記記録の閉鎖等,0,2023-12-07,2023-12-04,株式会社Ｌａｋｉ　Ａｎｅｌａ,,株式会社,神奈川県,相模原市中央区,横山台１丁目４番１２号,,14,152,2520241,,,2023-12-04,清算の結了等,,,2021-06-15,1,,,,,ラキアネラ,0
579,3021002071033,登記記録の閉鎖等,0,2023-12-07,2023-12-05,有限会社アトリエコスモス,,有限会社,神奈川県,逗子市,新宿４丁目２番１８号,,14,208,2490007,,,2023-12-05,清算の結了等,,,2015-10-05,1,,,,,アトリエコスモス,0
583,3021005011291,登記記録の閉鎖等,0,2023-12-07,2023-12-04,特定非営利活動法人鶴久保放課後児童クラブ,,その他の設立登記法人,神奈川県,横須賀市,佐野町１丁目８番地１７,,14,201,2380052,,,2023-12-04,清算の結了等,,,2018-04-17,1,,,,,ツルクボホウカゴジドウクラブ,0
586,3030001060384,登記記録の閉鎖等,0,2023-12-07,2023-12-01,本庄鋼材株式会社,,株式会社,埼玉県,本庄市,都島字向河原５７０番地３７,,11,211,3670073,,,2023-12-01,清算の結了等,,,2015-10-05,1,,,,,ホンジョウコウザイ,0
594,3030002061811,登記記録の閉鎖等,0,2023-12-07,2023-12-01,貫井興業有限会社,,有限会社,埼玉県,新座市,栗原５丁目１１番３４号,,11,230,3520035,,,2023-12-01,清算の結了等,,,2015-10-05,1,,,,,ヌクイコウギョウ,0
602,3040001070597,登記記録の閉鎖等,0,2023-12-07,2023-11-30,日本アスピー株式会社,,株式会社,千葉県,柏市,増尾４丁目８番２７号,,12,217,2770033,,,2023-11-30,清算の結了等,,,2015-10-05,1,,,,,ニホンアスピー,0
616,3050001032431,登記記録の閉鎖等,0,2023-12-07,2023-12-04,株式会社アイランド,,株式会社,茨城県,結城市,大字結城９７７９番地６,,08,207,3070001,,,2023-12-04,清算の結了等,,,2015-10-05,1,,,,,,0
626,3080001016563,登記記録の閉鎖等,0,2023-12-07,2023-12-01,株式会社タツミ物産,,株式会社,静岡県,藤枝市,高岡２丁目１６番２号,,22,214,4260062,,,2023-12-01,合併による解散等,7080001016551,令和５年１２月１日静岡県藤枝市高岡二丁目１６番２号株式会社巽企業（7080001016551）に合併し解散,2015-10-05,1,,,,,タツミブッサン,0
631,3100002000811,登記記録の閉鎖等,0,2023-12-07,2023-12-01,有限会社エム・アイ・ファーム,,有限会社,長野県,長野市,篠ノ井会１０４０番地１,,20,201,3888004,,,2023-12-01,清算の結了等,,,2015-10-05,1,,,,,エムアイファーム,0
632,3110002026590,登記記録の閉鎖等,0,2023-12-07,2023-12-04,有限会社青木組,,有限会社,新潟県,長岡市,浦９８６２番地,,15,202,9495406,,,2023-12-04,清算の結了等,,,2015-10-05,1,,,,,アオキグミ,0
634,3120001003301,登記記録の閉鎖等,0,2023-12-07,2023-12-05,株式会社グリルタカラ,,株式会社,大阪府,大阪市西成区,天下茶屋２丁目１６番１３号,,27,122,5570014,,,2023-12-05,清算の結了等,,,2015-10-05,1,,,,,グリルタカラ,0
635,3120001061786,登記記録の閉鎖等,0,2023-12-07,2023-12-05,株式会社戎大黒本舗,,株式会社,大阪府,守口市,西郷通２丁目１８番１５号,,27,209,5700034,,,2023-12-05,清算の結了等,,,2015-10-05,1,,,,,,0
662,3160001008924,登記記録の閉鎖等,0,2023-12-07,2023-12-06,ビーフリー株式会社,,株式会社,滋賀県,犬上郡甲良町,大字池寺２５０番地,,25,442,5220254,,,2023-12-06,清算の結了等,,,2015-10-05,1,,,,,ビーフリー,0
681,3210002002598,登記記録の閉鎖等,0,2023-12-07,2023-12-01,有限会社中道鉄工所,,有限会社,福井県,福井市,灯明寺４丁目３０７番地,,18,201,9100063,,,2023-12-01,清算の結了等,,,2015-10-05,1,,,,,ナカミチテッコウショ,0
691,3290001034759,登記記録の閉鎖等,0,2023-12-07,2023-11-30,株式会社ＳＴＵ,,株式会社,福岡県,福岡市中央区,長浜２丁目５番１９号,,40,133,8100072,,,2023-11-30,清算の結了等,,,2015-10-05,1,,,,,エスティーユー,0
723,3430001087486,登記記録の閉鎖等,0,2023-12-07,2023-11-24,オカデン株式会社,,株式会社,北海道,札幌市北区,新琴似六条１４丁目３番８号,,01,102,0010906,,,2023-11-24,清算の結了等,,,2022-09-13,1,,,,,オカデン,0
727,3440001005876,登記記録の閉鎖等,0,2023-12-07,2023-12-06,はこや水産株式会社,,株式会社,北海道,函館市,臼尻町３２６番地１,,01,202,0411613,,,2023-12-06,清算の結了等,,,2015-10-05,1,,,,,ハコヤスイサン,0
748,4010003030948,登記記録の閉鎖等,0,2023-12-07,2023-12-01,二葉４丁目プロジェクト合同会社,,合同会社,東京都,千代田区,丸の内２丁目３番２号,,13,101,1000005,,,2023-12-01,清算の結了等,,,2019-10-30,1,,,,,フタバヨンチョウメプロジェクト,0
759,4010403022768,登記記録の閉鎖等,0,2023-12-07,2023-12-04,ＴＲＩＦＯＲＣＥ　Ｐａｒｔｎｅｒｓｈｉｐ　Ｆｕｎｄ１合同会社,,合同会社,東京都,世田谷区,野沢３丁目４番１８－２０１号,,13,112,1540003,,,2023-12-04,清算の結了等,,,2020-04-03,1,,,,,トライフォースパートナーシップファンドワン,0
763,4010801009739,登記記録の閉鎖等,0,2023-12-07,2023-12-04,服部塗装株式会社,,株式会社,東京都,大田区,池上６丁目２８番７号,,13,111,1460082,,,2023-12-04,清算の結了等,,,2015-10-05,1,,,,,ハットリトソウ,0
765,4010803003764,登記記録の閉鎖等,0,2023-12-07,2023-12-04,合同会社Ｋグループ,,合同会社,東京都,大田区,蒲田５丁目２０番７号,,13,111,1440052,,,2023-12-04,清算の結了等,,,2021-05-26,1,,,,,ケーグループ,0
766,4010901027112,登記記録の閉鎖等,0,2023-12-07,2023-12-04,株式会社Ｅｎｊｏｙ,,株式会社,東京都,世田谷区,駒沢４丁目１１番２－１０７号,,13,112,1540012,,,2023-12-04,清算の結了等,,,2015-10-05,1,,,,,,0
770,4011001007269,登記記録の閉鎖等,0,2023-12-07,2023-12-05,株式会社ケイアンドワイネットワーク,,株式会社,東京都,板橋区,稲荷台４番１－１０１号,,13,119,1730002,,,2023-12-05,清算の結了等,,,2015-10-05,1,,,,,,0
784,4011301021837,登記記録の閉鎖等,0,2023-12-07,2023-11-29,コモ・バリエ株式会社,,株式会社,東京都,杉並区,高円寺南１丁目６番１１号共栄ハイツ１０６,,13,115,1660003,,,2023-11-29,清算の結了等,,,2015-12-02,1,,,,,コモバリエ,0
787,4011303003073,登記記録の閉鎖等,0,2023-12-07,2023-12-04,Ｍｉｗｏ合同会社,,合同会社,東京都,台東区,鳥越２丁目７番１３号,,13,106,1110054,,,2023-12-04,清算の結了等,,,2018-07-26,1,,,,,ミヲ,0
799,4013301022245,登記記録の閉鎖等,0,2023-12-07,2023-12-04,株式会社エージェント,,株式会社,東京都,渋谷区,恵比寿西２丁目８番５号,,13,113,1500021,,,2023-12-04,清算の結了等,,,2015-10-05,1,,,,,エージェント,0
802,4020001047200,登記記録の閉鎖等,0,2023-12-07,2023-12-01,マルシン建設株式会社,,株式会社,神奈川県,横浜市鶴見区,寛政町１番６号,,14,101,2300034,,,2023-12-01,清算の結了等,,,2015-10-05,1,,,,,マルシンケンセツ,0
806,4020001118141,登記記録の閉鎖等,0,2023-12-07,2023-12-04,株式会社ウィルコーポレーション,,株式会社,神奈川県,横浜市西区,北幸１丁目１１番１５号横浜ＳＴビル,,14,103,2200004,,,2023-12-04,合併による解散等,8180001056958,令和５年１２月１日東京都港区西新橋二丁目９番１号ＰＭＯ西新橋ビル５階株式会社ピアズ（8180001056958）に合併し解散,2016-10-07,1,,,,,ウィルコーポレーション,0
819,4021001052421,登記記録の閉鎖等,0,2023-12-07,2023-12-04,株式会社Ｋ・トラスト・プランニング,,株式会社,神奈川県,相模原市中央区,淵野辺１丁目１番２号,,14,152,2520206,,,2023-12-04,清算の結了等,,,2015-10-05,1,,,,,ケートラストプランニング,0
821,4021002040689,登記記録の閉鎖等,0,2023-12-07,2023-12-04,有限会社クリーニングショップすずらん,,有限会社,神奈川県,大和市,上和田４４０番地１９,,14,213,2420014,,,2023-12-04,清算の結了等,,,2015-10-05,1,,,,,クリーニングショップスズラン,0
824,4021002071998,登記記録の閉鎖等,0,2023-12-07,2023-11-06,有限会社エムテック冷熱,,有限会社,神奈川県,三浦市,三崎５丁目２４５番地７,,14,210,2380243,,,2023-11-06,清算の結了等,,,2015-10-05,1,,,,,エムテックレイネツ,0
825,4030001050979,登記記録の閉鎖等,0,2023-12-07,2023-12-01,株式会社ケムスターコーポレーション,,株式会社,東京都,港区,西新橋１丁目１１番３号,,13,103,1050003,,,2023-12-01,合併による解散等,9010001135884,令和５年１２月１日東京都港区西新橋二丁目３５番２号株式会社ファイン商事（9010001135884）に合併し解散,2015-10-05,1,,,,,ケムスターコーポレーション,0
834,4030002054649,登記記録の閉鎖等,0,2023-12-07,2023-12-01,有限会社のもと企画,,有限会社,埼玉県,上尾市,宮本町７番１１号,,11,219,3620036,,,2023-12-01,清算の結了等,,,2015-10-05,1,,,,,,0
841,4040001121655,登記記録の閉鎖等,0,2023-12-07,2023-11-30,株式会社エントラストジャパン,,株式会社,千葉県,千葉市美浜区,浜田１丁目３番地コロンブスシティ１４３５号,,12,106,2610025,,,2023-11-30,清算の結了等,,,2022-01-12,1,,,,,エントラストジャパン,0
848,4050002021481,登記記録の閉鎖等,0,2023-12-07,2023-12-01,有限会社鈴商,,有限会社,茨城県,つくば市,松代４丁目９番２６号,,08,220,3050035,,,2023-12-01,清算の結了等,,,2015-10-05,1,,,,,スズショウ,0
857,4070002000095,登記記録の閉鎖等,0,2023-12-07,2023-12-04,有限会社アートギャラリーミューズ,,有限会社,群馬県,前橋市,天川大島町３丁目７番地の９,,10,201,3792154,,,2023-12-04,清算の結了等,,,2015-10-05,1,,,,,アートギャラリーミューズ,0
864,4100001008763,登記記録の閉鎖等,0,2023-12-07,2023-11-01,株式会社軽井沢総合開発センター,,株式会社,長野県,北佐久郡軽井沢町,大字軽井沢１１７８番地１,,20,321,3890102,,,2023-11-01,清算の結了等,,,2015-10-05,1,,,,,カルイザワソウゴウカイハツセンター,0
873,4120001189676,登記記録の閉鎖等,0,2023-12-07,2023-12-05,株式会社クラフル,,株式会社,大阪府,大阪市北区,角田町１番１２号阪急ファイブアネックスビル２階,,27,127,5300017,,,2023-12-05,清算の結了等,,,2015-10-05,1,,,,,クラフル,0
874,4120001208675,登記記録の閉鎖等,0,2023-12-07,2023-12-04,株式会社エフ・ジェイ・ケイ,,株式会社,大阪府,大阪市中央区,玉造２丁目２３番２１号,,27,128,5400004,,,2023-12-04,清算の結了等,,,2017-10-06,1,,,,,,0
904,4160003001703,登記記録の閉鎖等,0,2023-12-07,2023-12-06,合同会社フィールドアドバンス,,合同会社,滋賀県,犬上郡甲良町,大字金屋１３５６,,25,442,5220252,,,2023-12-06,清算の結了等,,,2018-07-23,1,,,,,フィールドアドバンス,0
906,4180001136904,登記記録の閉鎖等,0,2023-12-07,2023-12-01,株式会社カサイクリエイト,,株式会社,愛知県,北名古屋市,西之保藤塚７１番地,,23,234,4810033,,,2023-12-01,合併による解散等,7180001056926,令和５年１２月１日愛知県岩倉市稲荷町羽根２０番地１株式会社カサイホールディングス（7180001056926）に合併し解散,2019-06-07,1,,,,,カサイクリエイト,0
950,4390002007348,登記記録の閉鎖等,0,2023-12-07,2023-12-04,有限会社サンワ,,有限会社,山形県,酒田市,北里町１０番２１号,,06,204,9980028,,,2023-12-04,清算の結了等,,,2015-10-05,1,,,,,サンワ,0
961,4430005004016,登記記録の閉鎖等,0,2023-12-07,2023-11-28,北海道読売販売事業協同組合,,その他の設立登記法人,北海道,札幌市中央区,北四条西４丁目読売北海道ビル,,01,101,0600004,,,2023-11-28,清算の結了等,,,2015-10-05,1,,,,,ホッカイドウヨミウリハンバイ,0
964,4480001005946,登記記録の閉鎖等,0,2023-12-07,2023-12-05,株式会社船崎新聞店,00005821,株式会社,徳島県,鳴門市,鳴門町高島字中島１８５番地,,36,202,7720051,,,2023-12-05,清算の結了等,,,2015-10-05,1,,,,,フナザキシンブンテン,0
989,5010401057063,登記記録の閉鎖等,0,2023-12-07,2023-12-01,ペルミラ・アドバイザーズ株式会社,,株式会社,東京都,港区,赤坂１丁目１１番４４号赤坂インターシティ,,13,103,1070052,,,2023-12-01,清算の結了等,,,2015-10-05,1,,,,,ペルミラアドバイザーズ,0
1003,5010405019217,登記記録の閉鎖等,0,2023-12-07,2023-12-04,Ｃｒｅｄｏ社会保険労務士法人,,その他の設立登記法人,東京都,新宿区,西早稲田１丁目２１番２号６０４号室,,13,104,1690051,,,2023-12-04,清算の結了等,,,2020-10-29,1,,,,,クレド,0
1007,5010601040380,登記記録の閉鎖等,0,2023-12-07,2023-11-28,株式会社アルファ,,株式会社,東京都,港区,西麻布１丁目３番１２－１０２号,,13,103,1060031,,,2023-11-28,清算の結了等,,,2015-10-05,1,,,,,アルファ,0
1017,5010803002419,登記記録の閉鎖等,0,2023-12-07,2023-12-04,ゼニスコンサルティング合同会社,,合同会社,東京都,大田区,萩中３丁目６番６号ＢｉｇＢｉｒｄ１９４・８０１,,13,111,1440047,,,2023-12-04,清算の結了等,,,2017-07-12,1,,,,,ゼニスコンサルティング,0
1021,5010902009876,登記記録の閉鎖等,0,2023-12-07,2023-12-04,有限会社ツインカンパニー,,有限会社,東京都,世田谷区,船橋１丁目１６番１３号,,13,112,1560055,,,2023-12-04,清算の結了等,,,2015-10-05,1,,,,,,0
1026,5011003005889,登記記録の閉鎖等,0,2023-12-07,2023-12-05,合同会社加藤プロパティマネージメント,,合同会社,東京都,目黒区,中町１丁目２７番２８号,,13,110,1530065,,,2023-12-05,清算の結了等,,,2015-10-05,1,,,,,,0
1032,5011101008579,登記記録の閉鎖等,0,2023-12-07,2023-12-04,株式会社ジー・エム・ピー,,株式会社,東京都,新宿区,市谷左内町３３番,,13,104,1620846,,,2023-12-04,清算の結了等,,,2015-10-05,1,,,,,ジーエムピー,0
1034,5011101045853,登記記録の閉鎖等,0,2023-12-07,2023-12-04,株式会社百研,,株式会社,東京都,新宿区,富久町１１番５号,,13,104,1620067,,,2023-12-04,清算の結了等,,,2015-10-05,1,,,,,,0
1048,5011805002695,登記記録の閉鎖等,0,2023-12-07,2023-12-04,一般社団法人コペンカレッジ,,その他の設立登記法人,東京都,品川区,東品川５丁目９番６号,,13,109,1400002,,,2023-12-04,清算の結了等,,,2017-08-15,1,,,,,コペンカレッジ,0
1051,5012702004909,登記記録の閉鎖等,0,2023-12-07,2023-12-01,有限会社松井工務店,,有限会社,東京都,西東京市,東町４丁目１番１７号,,13,229,2020012,,,2023-12-01,清算の結了等,,,2015-10-05,1,,,,,マツイコウムテン,0
1066,5021002037998,登記記録の閉鎖等,0,2023-12-07,2023-12-05,有限会社昭月製菓,,有限会社,神奈川県,秦野市,本町３丁目２番７号,,14,211,2570035,,,2023-12-05,清算の結了等,,,2015-10-05,1,,,,,ショウゲツセイカ,0
1068,5030001027217,登記記録の閉鎖等,0,2023-12-07,2023-12-01,株式会社ハンダ,,株式会社,埼玉県,入間市,黒須２丁目４番２５号,,11,225,3580007,,,2023-12-01,清算の結了等,,,2015-10-05,1,,,,,ハンダ,0
1079,5030002087747,登記記録の閉鎖等,0,2023-12-07,2023-12-01,有限会社福惠紙工,,有限会社,埼玉県,越谷市,蒲生本町１３番６５号,,11,222,3430837,,,2023-12-01,清算の結了等,,,2015-10-05,1,,,,,フクエシコウ,0
1081,5040001030194,登記記録の閉鎖等,0,2023-12-07,2023-12-01,株式会社ＳＴＥＰＵＰ,,株式会社,千葉県,市川市,南八幡１丁目９番１７号,,12,203,2720023,,,2023-12-01,清算の結了等,,,2015-10-05,1,,,,,ステップアップ,0
1088,5040002101878,登記記録の閉鎖等,0,2023-12-07,2023-12-01,有限会社濤川電子商会,,有限会社,千葉県,いすみ市,大原１９３１番地２,,12,238,2980004,,,2023-12-01,清算の結了等,,,2015-10-05,1,,,,,ナミカワデンシショウカイ,0
1095,5060005002956,登記記録の閉鎖等,0,2023-12-07,2023-12-04,益子陶器原料協同組合,,その他の設立登記法人,栃木県,芳賀郡益子町,大字益子４０６１番地１２,,09,342,3214217,,,2023-12-04,清算の結了等,,,2015-10-05,1,,,,,マシコトウキゲンリョウ,0
1105,5120001091385,登記記録の閉鎖等,0,2023-12-07,2023-12-04,株式会社山菱,,株式会社,大阪府,大阪市浪速区,日本橋東１丁目５番８号,,27,111,5560006,,,2023-12-04,清算の結了等,,,2015-10-05,1,,,,,ヤマビシ,0
1108,5120001149200,登記記録の閉鎖等,0,2023-12-07,2023-12-01,オーケン商事株式会社,,株式会社,大阪府,枚方市,茄子作４丁目２６番３０号,,27,210,5730071,,,2023-12-01,清算の結了等,,,2015-10-05,1,,,,,オーケンショウジ,0
1115,5120003010475,登記記録の閉鎖等,0,2023-12-07,2023-12-05,合同会社スカイマーケティング,,合同会社,大阪府,大阪市北区,堂島２丁目２番８堂島ザ・レジデンスマークタワー３６０６号,,27,127,5300003,,,2023-12-05,清算の結了等,,,2015-10-05,1,,,,,スカイマーケティング,0
1121,5120901017729,登記記録の閉鎖等,0,2023-12-07,2023-12-01,株式会社アピスＭＣホールディングス,,株式会社,大阪府,茨木市,西駅前町１３番２５,,27,211,5670032,,,2023-12-01,合併による解散等,5120901000676,令和５年１２月１日大阪府茨木市高田町１１番１号株式会社アピスファーマシー（5120901000676）に合併し解散,2015-10-05,1,,,,,アピスエムシーホールディングス,0
1124,5122001018244,登記記録の閉鎖等,0,2023-12-07,2023-12-06,株式会社木村屋,,株式会社,大阪府,八尾市,本町５丁目８番１２号,,27,212,5810003,,,2023-12-06,清算の結了等,,,2015-10-05,1,,,,,キムラヤ,0
1125,5122001036948,登記記録の閉鎖等,0,2023-12-07,2023-12-06,株式会社ワークス３８,,株式会社,大阪府,東大阪市,額田町４番２８号,,27,227,5798021,,,2023-12-06,清算の結了等,,,2023-05-02,1,,,,,ワークスサンジュウハチ,0
1148,5200001015889,登記記録の閉鎖等,0,2023-12-07,2023-12-05,株式会社西濃技研,,株式会社,岐阜県,養老郡養老町,金屋２７４番地１４,,21,341,5031339,,,2023-12-05,合併による解散等,7180001093341,令和５年１２月１日愛知県知多郡東浦町大字緒川字大草１番地の１５６ＯＲＳ株式会社（7180001093341）に合併し解散,2015-10-05,1,,,,,セイノウギケン,0
1151,5230002002314,登記記録の閉鎖等,0,2023-12-07,2023-12-01,東洋防災設備株式会社,,株式会社,富山県,富山市,秋吉１番地３,,16,201,9300953,,,2023-12-01,合併による解散等,3230001002845,令和５年１２月１日富山市中野新町一丁目２番１０号株式会社ホクタテ（3230001002845）に合併し解散,2015-10-05,1,,,,,トウヨウボウサイセツビ,0
1152,5230002012230,登記記録の閉鎖等,0,2023-12-07,2023-12-04,有限会社山田電化設備,,有限会社,富山県,高岡市,江尻４６番地の１７,,16,202,9330062,,,2023-12-04,清算の結了等,,,2015-10-05,1,,,,,ヤマダデンカセツビ,0
1165,5290002022661,登記記録の閉鎖等,0,2023-12-07,2023-11-30,有限会社彩香,,有限会社,福岡県,福岡市南区,桧原５丁目１３番１７－１０１号,,40,134,8111355,,,2023-11-30,清算の結了等,,,2015-10-05,1,,,,,サイカ,0
1172,5310001011266,登記記録の閉鎖等,0,2023-12-07,2023-12-01,株式会社木戸設計,,株式会社,長崎県,長崎市,油木町５番１１号,,42,201,8528035,,,2023-12-01,合併による解散等,3310001017001,令和５年１２月１日長崎市油木町５番１１号株式会社リベルプラン（3310001017001）に合併し解散,2015-10-05,1,,,,,キドセッケイ,0
1177,5330002017855,登記記録の閉鎖等,0,2023-12-07,2023-12-01,有限会社田代商事,,有限会社,熊本県,菊池市,隈府５８番地,,43,210,8611331,,,2023-12-01,清算の結了等,,,2015-10-05,1,,,,,タシロショウジ,0
1202,5460302002032,登記記録の閉鎖等,0,2023-12-07,2023-12-06,有限会社カーショップアクセス,,有限会社,北海道,北見市,北光４４３番地１５,,01,208,0900824,,,2023-12-06,清算の結了等,,,2015-10-05,1,,,,,,0
1214,6010001123248,登記記録の閉鎖等,0,2023-12-07,2023-12-01,エム・エス株式会社,,株式会社,東京都,千代田区,麹町２丁目６番地３,,13,101,1020083,,,2023-12-01,清算の結了等,,,2015-10-05,1,,,,,エムエス,0
1217,6010001209501,登記記録の閉鎖等,0,2023-12-07,2023-12-01,株式会社ジェルマ,,株式会社,東京都,千代田区,飯田橋１丁目１２番６号,,13,101,1020072,,,2023-12-01,清算の結了等,,,2020-05-11,1,,,,,ジェルマ,0
1220,6010003021227,登記記録の閉鎖等,0,2023-12-07,2023-12-01,ｉＭｉｃｒｏＤａｔａ　Ｊａｐａｎ合同会社,,合同会社,東京都,中央区,日本橋大伝馬町１３番７号２階,,13,102,1030011,,,2023-12-01,清算の結了等,,,2015-10-05,1,,,,,,0
1231,6010401172720,登記記録の閉鎖等,0,2023-12-07,2023-12-01,Ｐｌａｎｔ‐ｂａｓｅｄ　Ｆｏｏｄ　Ｈｏｌｄｉｎｇｓ株式会社,,株式会社,東京都,港区,虎ノ門１丁目３番１号,,13,103,1050001,,,2023-12-01,清算の結了等,,,2023-02-27,1,,,,,プラントベイスドフードホールディングス,0
1235,6010403018302,登記記録の閉鎖等,0,2023-12-07,2023-11-30,合同会社二条,,合同会社,東京都,港区,赤坂１丁目１２番３２号,,13,103,1070052,,,2023-11-30,清算の結了等,,,2018-03-16,1,,,,,,0
1248,6010603004457,登記記録の閉鎖等,0,2023-12-07,2023-12-01,ヴィレッジワークス合同会社,,合同会社,東京都,江東区,有明３丁目７番２６号有明フロンティアビルＢ棟９階,,13,108,1350063,,,2023-12-01,清算の結了等,,,2015-10-05,1,,,,,ヴィレッジワークス,0
1257,6011001106465,登記記録の閉鎖等,0,2023-12-07,2023-12-04,株式会社ＨＡＴＡＮＯ観光グループ,,株式会社,東京都,新宿区,新宿２丁目１２番１３号,,13,104,1600022,,,2023-12-04,清算の結了等,,,2015-10-05,1,,,,,ハタノカンコウグループ,0
1261,6011105008715,登記記録の閉鎖等,0,2023-12-07,2023-12-01,一般社団法人日本ドローンＰＲＯパイロット協会,,その他の設立登記法人,東京都,新宿区,新宿６丁目２７番３０号,,13,104,1600022,,,2023-12-01,清算の結了等,,,2019-03-11,1,,,,,ニホンドローンプロパイロットキョウカイ,0
1270,6011303002767,登記記録の閉鎖等,0,2023-12-07,2023-11-29,合同会社オカベリアルエステート,,合同会社,東京都,杉並区,上荻２丁目３７番２号,,13,115,1670043,,,2023-11-29,清算の結了等,,,2017-07-20,1,,,,,オカベリアルエステート,0
1272,6011502006767,登記記録の閉鎖等,0,2023-12-07,2023-11-30,有限会社浅子製作所,,有限会社,東京都,荒川区,荒川６丁目２８番１３号,,13,118,1160002,,,2023-11-30,清算の結了等,,,2015-10-05,1,,,,,,0
1275,6011701005099,登記記録の閉鎖等,0,2023-12-07,2023-12-01,株式会社長五楼,,株式会社,東京都,江戸川区,篠崎町５丁目６番１７号,,13,123,1330061,,,2023-12-01,清算の結了等,,,2015-10-05,1,,,,,チョウゴロウ,0
1284,6012801004486,登記記録の閉鎖等,0,2023-12-07,2023-12-04,株式会社ヒット工業,,株式会社,東京都,立川市,富士見町２丁目９番１７号,,13,202,1900013,,,2023-12-04,清算の結了等,,,2015-10-05,1,,,,,ヒットコウギョウ,0
1287,6013101007601,登記記録の閉鎖等,0,2023-12-07,2023-12-04,株式会社相生,,株式会社,東京都,青梅市,東青梅１丁目７番地７,,13,205,1980042,,,2023-12-04,清算の結了等,,,2017-04-26,1,,,,,ソウセイ,0
1289,6020001036424,登記記録の閉鎖等,0,2023-12-07,2023-12-04,株式会社ウィル,,株式会社,神奈川県,横浜市西区,北幸１丁目１１番１５号横浜ＳＴビル,,14,103,2200004,,,2023-12-04,合併による解散等,8180001056958,令和５年１２月１日東京都港区西新橋二丁目９番１号ＰＭＯ西新橋ビル５階株式会社ピアズ（8180001056958）に合併し解散,2015-10-05,1,,,,,ウィル,0
1320,6040002023188,登記記録の閉鎖等,0,2023-12-07,2023-12-01,全日本物流有限会社,,有限会社,千葉県,船橋市,前原西７丁目３番１３号,,12,204,2740825,,,2023-12-01,清算の結了等,,,2015-10-05,1,,,,,ゼンニホンブツリュウ,0
1324,6040002064281,登記記録の閉鎖等,0,2023-12-07,2023-12-01,有限会社佐藤工業,,有限会社,千葉県,四街道市,みそら２丁目４番４号,,12,228,2840023,,,2023-12-01,清算の結了等,,,2015-10-05,1,,,,,サトウコウギョウ,0
1335,6050002036890,登記記録の閉鎖等,0,2023-12-07,2023-11-21,有限会社籠瀬商店,,有限会社,茨城県,守谷市,本町２９３番地の３,,08,224,3020109,,,2023-11-21,清算の結了等,,,2015-10-05,1,,,,,カゴセショウテン,0
1338,6050003004211,登記記録の閉鎖等,0,2023-12-07,2023-11-30,みんなの夢を叶えるｕｎｉｖｅｒｓａｌｉｎｎｏｖａｔｉｏｎ２０８０合同会社,,合同会社,茨城県,常陸大宮市,宇留野４６８番地の１,,08,225,3192145,,,2023-11-30,清算の結了等,,,2018-06-07,1,I will make everyone's dream universal innovation 2080 LLC  ( U I 2080 LLC ),Ibaraki,"468-1, uruno, Hitachiomiya shi",,ミンナノユメヲカナエルユニバーサルイノベーショントゥゼロエイトゼロ,0
1341,6060002023632,登記記録の閉鎖等,0,2023-12-07,2023-11-28,有限会社井桁屋旅館,,有限会社,栃木県,那須塩原市,塩原４５７番地,,09,213,3292921,,,2023-11-28,清算の結了等,,,2015-10-05,1,,,,,イゲタヤリョカン,0
1343,6060002030158,登記記録の閉鎖等,0,2023-12-07,2023-12-06,有限会社イワシン技研,,有限会社,栃木県,小山市,大字南半田２００４番地２２,,09,208,3230011,,,2023-12-06,清算の結了等,,,2015-10-05,1,,,,,イワシンギケン,0
1352,6070002033523,登記記録の閉鎖等,0,2023-12-07,2023-12-04,有限会社須藤工務店,,有限会社,群馬県,邑楽郡板倉町,大字除川１１０５番地の１,,10,521,3740101,,,2023-12-04,清算の結了等,,,2015-10-05,1,,,,,ストウコウムテン,0
1359,6100003005872,登記記録の閉鎖等,0,2023-12-07,2023-11-30,合同会社エム企画,,合同会社,長野県,塩尻市,大字広丘高出１４８６番地４７８,,20,215,3990703,,,2023-11-30,清算の結了等,,,2020-11-11,1,,,,,エムキカク,0
1365,6110001037834,登記記録の閉鎖等,0,2023-12-07,2023-12-01,株式会社Ｇ・Ｉ　Ａｄｖａｎｃｅ,,株式会社,新潟県,見附市,柳橋町２５９番地２６,,15,211,9540082,,,2023-12-01,清算の結了等,,,2023-09-13,1,,,,,ジーアイアドヴァンス,0
1382,6120003024160,登記記録の閉鎖等,0,2023-12-07,2023-11-20,合同会社Ｍｉｎ‐ａ,,合同会社,大阪府,枚方市,須山町５５番７号,,27,210,5731164,,,2023-11-20,清算の結了等,,,2023-05-26,1,,,,,ミンア,0
1387,6120102021595,登記記録の閉鎖等,0,2023-12-07,2023-12-06,有限会社松原塗装,,有限会社,大阪府,岸和田市,田治米町２９９番地の３,,27,202,5960805,,,2023-12-06,清算の結了等,,,2015-10-05,1,,,,,マツバラトソウ,0
1388,6120103004153,登記記録の閉鎖等,0,2023-12-07,2023-12-06,合同会社Ｃｈｅｒｒｙ,,合同会社,大阪府,岸和田市,加守町３丁目１１番２３－２０５号,,27,202,5960042,,,2023-12-06,清算の結了等,,,2021-04-22,1,,,,,チェリー,0
1399,6130002031058,登記記録の閉鎖等,0,2023-12-07,2023-12-04,有限会社中島塗装工業所,,有限会社,京都府,京田辺市,花住坂２丁目１５番地１５,,26,211,6100352,,,2023-12-04,清算の結了等,,,2015-10-05,1,,,,,ナカジマトソウコウギョウ,0
1405,6140001118441,登記記録の閉鎖等,0,2023-12-07,2023-12-04,株式会社Ｌｉｃｈｔ,,株式会社,兵庫県,尼崎市,稲葉荘４丁目２０番２２号稲葉荘ハイツ１０１,,28,202,6600064,,,2023-12-04,清算の結了等,,,2020-08-24,1,,,,,リヒト,0
1407,6140005023563,登記記録の閉鎖等,0,2023-12-07,2023-12-06,一般社団法人神戸同人聯誼会,,その他の設立登記法人,兵庫県,神戸市中央区,下山手通３丁目３－１－４０２号,,28,110,6500011,,,2023-12-06,清算の結了等,,,2017-05-24,1,,,,,コウベドウジンレンギカイ,0
1443,6240005003398,登記記録の閉鎖等,0,2023-12-07,2023-12-04,特定非営利活動法人ゆあーず食未来研究所,,その他の設立登記法人,広島県,安芸郡海田町,南堀川町３番２６－７０３号,,34,304,7360044,,,2023-12-04,清算の結了等,,,2015-10-05,1,,,,,ユアーズショクミライケンキュウショ,0
1451,6290001012381,登記記録の閉鎖等,0,2023-12-07,2023-11-30,株式会社九州技術協力,,株式会社,福岡県,福岡市博多区,東比恵２丁目１番１８号東比恵重松ビル２０１,,40,132,8120007,,,2023-11-30,清算の結了等,,,2015-10-05,1,,,,,キュウシュウギジュツキョウリョク,0
1465,6330003003465,登記記録の閉鎖等,0,2023-12-07,2023-11-30,合資会社クマモト飲料,,合資会社,熊本県,八代市,鏡町野崎２０８番地,,43,202,8694205,,,2023-11-30,清算の結了等,,,2015-10-05,1,,,,,クマモトインリョウ,0
1508,7010002005808,登記記録の閉鎖等,0,2023-12-07,2023-12-01,有限会社民栄社,,有限会社,東京都,文京区,小石川３丁目２２番８号,,13,105,1120002,,,2023-12-01,清算の結了等,,,2015-10-05,1,,,,,ミンエイシャ,0
1509,7010003039045,登記記録の閉鎖等,0,2023-12-07,2023-12-04,合同会社ＭＫＳＣ,,合同会社,福岡県,北九州市小倉北区,大門２丁目１番２０‐８０３号,,40,106,8030811,,,2023-12-04,清算の結了等,,,2022-11-09,1,,,,,エムケイエスシー,0
1515,7010401098626,登記記録の閉鎖等,0,2023-12-07,2023-12-01,株式会社アンドライズ,,株式会社,東京都,港区,南青山２丁目２番１５号,,13,103,1070062,,,2023-12-01,合併による解散等,3010401089018,令和５年１２月１日東京都港区南青山二丁目２番１５号ＷｉｎＡｏｙａｍａビル－ＵＣＦ９１７株式会社アンドトラスト（3010401089018）に合併し解散,2015-10-05,1,,,,,アンドライズ,0
1530,7010802009735,登記記録の閉鎖等,0,2023-12-07,2023-12-04,有限会社出川内装,,有限会社,東京都,大田区,新蒲田３丁目１６番１６号,,13,111,1440054,,,2023-12-04,清算の結了等,,,2015-10-05,1,,,,,デガワナイソウ,0
1532,7011001042866,登記記録の閉鎖等,0,2023-12-07,2023-12-04,株式会社古久伸,,株式会社,東京都,渋谷区,道玄坂２丁目１８番１１号,,13,113,1500043,,,2023-12-04,清算の結了等,,,2015-10-05,1,,,,,コクシン,0
1535,7011001047428,登記記録の閉鎖等,0,2023-12-07,2023-12-01,株式会社アクセス,,株式会社,東京都,渋谷区,道玄坂１丁目２２番８号,,13,113,1500043,,,2023-12-01,清算の結了等,,,2015-10-05,1,,,,,アクセス,0
1563,7012301005901,登記記録の閉鎖等,0,2023-12-07,2023-12-01,株式会社トライヴアン,,株式会社,東京都,町田市,薬師台３丁目２９番地７,,13,209,1950073,,,2023-12-01,清算の結了等,,,2015-10-05,1,,,,,トライヴアン,0
1567,7013102007590,登記記録の閉鎖等,0,2023-12-07,2023-12-05,有限会社技量生産技研,,有限会社,東京都,西多摩郡日の出町,大字平井１２４９番地１５,,13,305,1900182,,,2023-12-05,清算の結了等,,,2015-10-05,1,,,,,ギリョウセイサンギケン,0
1590,7030001011730,登記記録の閉鎖等,0,2023-12-07,2023-12-04,株式会社キュービック,,株式会社,東京都,中央区,東日本橋２丁目２７番２４号イクソン日本橋ビル３階,,13,102,1030004,,,2023-12-04,合併による解散等,3060001018388,令和５年１２月１日東京都中央区築地二丁目７番１０号株式会社エムテック（3060001018388）に合併し解散,2015-10-05,1,,,,,キュービック,0
1591,7030001082689,登記記録の閉鎖等,0,2023-12-07,2023-12-04,株式会社カイロス,,株式会社,埼玉県,川口市,芝新町４番３０号,,11,203,3330851,,,2023-12-04,清算の結了等,,,2015-10-05,1,,,,,カイロス,0
1593,7030001096549,登記記録の閉鎖等,0,2023-12-07,2023-12-01,株式会社ビーシーエム,,株式会社,埼玉県,鴻巣市,赤城１１０番地,,11,217,3650002,,,2023-12-01,清算の結了等,,,2015-10-05,1,,,,,ビーシーエム,0
1600,7030002027164,登記記録の閉鎖等,0,2023-12-07,2023-12-01,有限会社八木建装,,有限会社,埼玉県,蕨市,塚越５丁目４５番８－４０２号,,11,223,3350002,,,2023-12-01,清算の結了等,,,2015-10-05,1,,,,,,0
1619,7050002041683,登記記録の閉鎖等,0,2023-12-07,2023-12-05,有限会社グラッドリー,,有限会社,茨城県,守谷市,けやき台３丁目１番地８２,,08,224,3020128,,,2023-12-05,清算の結了等,,,2015-10-05,1,,,,,グラッドリー,0
1635,7100001007242,登記記録の閉鎖等,0,2023-12-07,2023-11-08,三恵建設株式会社,,株式会社,長野県,佐久市,中込２丁目２９番地１２,,20,217,3850051,,,2023-11-08,清算の結了等,,,2023-05-15,1,,,,,サンケイケンセツ,0
1641,7120001141650,登記記録の閉鎖等,0,2023-12-07,2023-12-05,株式会社ＪＧ．プロジェクト,,株式会社,大阪府,大阪市西区,立売堀２丁目３番１２号,,27,106,5500012,,,2023-12-05,清算の結了等,,,2015-10-05,1,,,,,ジェイジープロジェクト,0
1642,7120001187363,登記記録の閉鎖等,0,2023-12-07,2023-12-05,日本メタルエンジニアリング株式会社,,株式会社,大阪府,東大阪市,長田東３丁目２番４３号,,27,227,5770012,,,2023-12-05,清算の結了等,,,2015-10-05,1,,,,,ニッポンメタルエンジニアリング,0
1653,7120101055453,登記記録の閉鎖等,0,2023-12-07,2023-12-06,株式会社昇泉建設,,株式会社,大阪府,和泉市,鶴山台１丁目１１－６福山ビル２階,,27,219,5940013,,,2023-12-06,清算の結了等,,,2016-10-04,1,,,,,ショウセンケンセツ,0
1657,7122001007204,登記記録の閉鎖等,0,2023-12-07,2023-12-04,株式会社岬鉄工所,,株式会社,大阪府,東大阪市,今米２丁目４番８号,,27,227,5780903,,,2023-12-04,清算の結了等,,,2015-10-05,1,,,,,ミサキテッコウショ,0
1659,7122002015973,登記記録の閉鎖等,0,2023-12-07,2023-12-05,有限会社藤建設,,有限会社,大阪府,八尾市,南太子堂６丁目２番３８号,,27,212,5810056,,,2023-12-05,清算の結了等,,,2015-10-05,1,,,,,フジケンセツ,0
1675,7140002029827,登記記録の閉鎖等,0,2023-12-07,2023-12-01,有限会社みよし内装,,有限会社,兵庫県,明石市,大久保町森田１４４番地の１,,28,203,6740061,,,2023-12-01,清算の結了等,,,2015-10-05,1,,,,,ミヨシナイソウ,0
1681,7180001128915,登記記録の閉鎖等,0,2023-12-07,2023-12-05,株式会社グランパ,,株式会社,大阪府,大阪市北区,梅田１丁目１番３号大阪駅前第３ビル２３０７号,,27,127,5300001,,,2023-12-05,清算の結了等,,,2017-08-16,1,,,,,グランパ,0
1684,7180302006282,登記記録の閉鎖等,0,2023-12-07,2023-12-01,有限会社アルファーシステム・エフ,,有限会社,愛知県,豊橋市,牟呂中村町１０番地７,,23,201,4418093,,,2023-12-01,清算の結了等,,,2015-10-05,1,,,,,アルファーシステムエフ,0
1692,7200001026827,登記記録の閉鎖等,0,2023-12-07,2023-12-06,株式会社米ト産業,,株式会社,岐阜県,養老郡養老町,栗笠７５１番地,,21,341,5031381,,,2023-12-06,清算の結了等,,,2015-10-05,1,,,,,コメトサンギョウ,0
1695,7200002022899,登記記録の閉鎖等,0,2023-12-07,2023-12-06,有限会社キトウスポーツ,,有限会社,岐阜県,多治見市,小名田町４丁目８番地の２,,21,204,5070004,,,2023-12-06,清算の結了等,,,2015-10-05,1,,,,,キトウスポーツ,0
1708,7290001089601,登記記録の閉鎖等,0,2023-12-07,2023-11-30,西村鈑金株式会社,,株式会社,福岡県,福岡市南区,若久６丁目８番２３号,,40,134,8150042,,,2023-11-30,清算の結了等,,,2020-07-27,1,,,,,ニシムラバンキン,0
1729,7380002029266,登記記録の閉鎖等,0,2023-12-07,2023-12-01,有限会社ランドビル,,有限会社,福島県,南相馬市,原町区青葉町１丁目１番地,,07,212,9750039,,,2023-12-01,合併による解散等,6380001015598,令和５年１２月１日福島県南相馬市原町区青葉町一丁目１番地庄司建設工業株式会社（6380001015598）に合併し解散,2015-10-05,1,,,,,ランドビル,0
1740,7470002011454,登記記録の閉鎖等,0,2023-12-07,2023-12-05,有限会社尾崎商会,,有限会社,香川県,丸亀市,土器町西８丁目８番地,,37,202,7630081,,,2023-12-05,清算の結了等,,,2015-10-05,1,,,,,オザキショウカイ,0
1756,8010001167499,登記記録の閉鎖等,0,2023-12-07,2023-12-01,株式会社ＲＥ　ＶＩＴＡ,,株式会社,東京都,港区,南青山３丁目１番３０号,,13,103,1070062,,,2023-12-01,合併による解散等,4010001026519,令和５年１２月１日東京都港区南青山三丁目１番３０号株式会社南部エンタープライズ（4010001026519）に合併し解散,2015-10-05,1,,,,,リビータ,0
1762,8010401145518,登記記録の閉鎖等,0,2023-12-07,2023-12-01,株式会社ＡＰスタンディングフーズ,,株式会社,東京都,港区,高輪３丁目２５番２３号京急第２ビル１Ｆ,,13,103,1080074,,,2023-12-01,合併による解散等,8010401152646,令和５年１２月１日東京都港区高輪三丁目２５番２３号京急第２ビル１Ｆ株式会社エー・ピーカンパニー（8010401152646）に合併し解散,2019-05-17,1,,,,,エーピースタンディングフーズ,0
1789,8011101096200,登記記録の閉鎖等,0,2023-12-07,2023-12-01,日幸ホールディングス株式会社,,株式会社,東京都,新宿区,西新宿８丁目１番１号アゼリアビル６階,,13,104,1600023,,,2023-12-01,合併による解散等,8010901030252,令和５年１２月１日東京都新宿区西新宿八丁目１番１号アゼリアビル６階株式会社プロバンクホーム（8010901030252）に合併し解散,2021-09-13,1,,,,,ニッコウホールディングス,0
1799,8011602004826,登記記録の閉鎖等,0,2023-12-07,2023-12-01,有限会社静谷超硬工具製作所,,有限会社,東京都,練馬区,豊玉中３丁目１０番１１号,,13,120,1760013,,,2023-12-01,清算の結了等,,,2015-10-05,1,,,,,,0
1803,8011702009824,登記記録の閉鎖等,0,2023-12-07,2023-12-01,有限会社フジヤ電商,,有限会社,東京都,江戸川区,北葛西５丁目９番６号,,13,123,1340081,,,2023-12-01,清算の結了等,,,2015-10-05,1,,,,,フジヤデンショウ,0
1811,8020001051553,登記記録の閉鎖等,0,2023-12-07,2023-12-01,株式会社石原産業運輸,,株式会社,神奈川県,横浜市鶴見区,東寺尾２丁目１５番６号,,14,101,2300077,,,2023-12-01,清算の結了等,,,2015-10-05,1,,,,,イシハラサンギョウウンユ,0
1829,8021001008114,登記記録の閉鎖等,0,2023-12-07,2023-12-05,株式会社プラージュエスト,,株式会社,神奈川県,茅ヶ崎市,東海岸南１丁目１５番１号,,14,207,2530054,,,2023-12-05,清算の結了等,,,2015-10-05,1,,,,,プラージュエスト,0
1830,8021001074180,登記記録の閉鎖等,0,2023-12-07,2023-12-04,株式会社Ｗｏｒｋ　Ｐｅａｃｅ　Ｌｏｇｉｓｔｉｃｓ,,株式会社,神奈川県,相模原市中央区,田名５５９６番地１,,14,152,2520244,,,2023-12-04,清算の結了等,,,2021-10-08,1,,,,,ワークピースロジスティクス,0
1835,8021002028160,登記記録の閉鎖等,0,2023-12-07,2023-12-04,有限会社コーシン,,有限会社,神奈川県,相模原市中央区,陽光台２丁目２７番６号ヴェルディヨーコー１０１号室,,14,152,2520226,,,2023-12-04,清算の結了等,,,2015-10-05,1,,,,,,0
1883,8120001194301,登記記録の閉鎖等,0,2023-12-07,2023-12-04,株式会社竹下ビル,,株式会社,大阪府,大阪市此花区,西九条３丁目８番１３号,,27,104,5540012,,,2023-12-04,清算の結了等,,,2015-11-06,1,,,,,タケシタビル,0
1896,8120005019578,登記記録の閉鎖等,0,2023-12-07,2023-12-05,一般社団法人ＷＡＲＰ－ＬＥＥＮＥＴ,,その他の設立登記法人,大阪府,大阪市北区,中津３丁目１１番２－５０６号,,27,127,5310071,,,2023-12-05,清算の結了等,,,2017-07-12,1,,,,,ワープリーネット,0
1903,8120103003756,登記記録の閉鎖等,0,2023-12-07,2023-12-05,合同会社南常,,合同会社,大阪府,堺市北区,船堂町１丁２番１６号,,27,146,5918003,,,2023-12-05,清算の結了等,,,2020-07-09,1,,,,,ナンジョウ,0
1909,8130005013159,登記記録の閉鎖等,0,2023-12-07,2023-12-06,特定非営利活動法人歩くまち・京都フォーラム,,その他の設立登記法人,京都府,京都市中京区,寺町通御池上る上本能寺前町４８８番地京都市都市計画局歩くまち京都推進室内,,26,104,6040925,,,2023-12-06,清算の結了等,,,2015-10-05,1,,,,,アルクマチキョウトフォーラム,0
1931,8180302001043,登記記録の閉鎖等,0,2023-12-07,2023-12-04,有限会社クリエイト,,有限会社,愛知県,岡崎市,樫山町字新居野３番地１８,,23,202,4443622,,,2023-12-04,清算の結了等,,,2015-10-05,1,,,,,クリエイト,0
1939,8220002007658,登記記録の閉鎖等,0,2023-12-07,2023-12-01,有限会社エヌ・ティ商会,,有限会社,愛知県,清須市,春日川中１００番地１,,23,233,4520962,,,2023-12-01,清算の結了等,,,2015-10-05,1,,,,,エヌティショウカイ,0
1945,8240005014955,登記記録の閉鎖等,0,2023-12-07,2023-11-29,特定非営利活動法人ＴＡＮＩＭＯＴＯ　ＰＥＡＣＥ　ＦＯＵＮＤＡＴＩＯＮ,,その他の設立登記法人,広島県,広島市安佐北区,落合南４丁目２１番１２号,,34,106,7391732,,,2023-11-29,清算の結了等,,,2020-02-17,1,,,,,タニモトピースファウンデーション,0
1965,8320002019503,登記記録の閉鎖等,0,2023-12-07,2023-12-01,有限会社牟田口商店,,有限会社,大分県,日田市,亀山町１番３１号,,44,204,8770045,,,2023-12-01,清算の結了等,,,2015-10-05,1,,,,,ムタグチショウテン,0
1967,8350001006219,登記記録の閉鎖等,0,2023-12-07,2023-11-30,株式会社南郷温泉,,株式会社,宮崎県,東臼杵郡美郷町,南郷神門１５１番地１,,45,431,8830306,,,2023-11-30,清算の結了等,,,2015-10-05,1,,,,,ナンゴウオンセン,0
1982,8410003002317,登記記録の閉鎖等,0,2023-12-07,2023-12-01,合資会社先達養魚組合,,合資会社,秋田県,仙北市,田沢湖田沢字供養佛６番地２０,,05,215,0141204,,,2023-12-01,清算の結了等,,,2015-10-05,1,,,,,センダツヨウギョクミアイ,0
1989,8470002004399,登記記録の閉鎖等,0,2023-12-07,2023-12-05,有限会社高丸建設工業,,有限会社,香川県,高松市,国分寺町国分１４９番地３,,37,201,7690102,,,2023-12-05,清算の結了等,,,2015-10-05,1,,,,,タカマルケンセツコウギョウ,0
1996,9010001090832,登記記録の閉鎖等,0,2023-12-07,2023-12-01,株式会社チヨダ,,株式会社,東京都,千代田区,一番町８番地１５,,13,101,1020082,,,2023-12-01,清算の結了等,,,2015-10-05,1,,,,,チヨダ,0
2006,9010001203988,登記記録の閉鎖等,0,2023-12-07,2023-12-01,デジタルイニシアチヴ株式会社,,株式会社,東京都,千代田区,九段南１丁目５番６号りそな九段ビル５Ｆ,,13,101,1020074,,,2023-12-01,清算の結了等,,,2019-09-19,1,,,,,デジタルイニシアチヴ,0
2015,9010401079590,登記記録の閉鎖等,0,2023-12-07,2023-12-01,アイティフォレスト・ホールディングス株式会社,,株式会社,東京都,港区,東麻布２丁目２２番５号,,13,103,1060044,,,2023-12-01,合併による解散等,5010401033915,令和５年１２月１日東京都港区東麻布二丁目２２番５号株式会社アイティ・フォレスト（5010401033915）に合併し解散,2015-10-05,1,,,,,アイティフォレストホールディングス,0
2017,9010401144849,登記記録の閉鎖等,0,2023-12-07,2023-12-01,株式会社ＳｍａｒｔＭｅｅｔｉｎｇ,,株式会社,東京都,港区,六本木３丁目２－１住友不動産六本木グランドタワー,,13,103,1060032,,,2023-12-01,清算の結了等,,,2019-04-10,1,,,,,スマートミーティング,0
2019,9010401157553,登記記録の閉鎖等,0,2023-12-07,2023-12-01,株式会社ＦＮＳアカデミー,,株式会社,東京都,港区,港南２丁目１５番１号品川インターシティＡ棟２８階,,13,103,1080075,,,2023-12-01,清算の結了等,,,2021-01-13,1,,,,,エフエヌエスアカデミー,0
2020,9010401161282,登記記録の閉鎖等,0,2023-12-07,2023-12-01,株式会社ＡＰ　Ｒｅｓｔｏｒｙ,,株式会社,東京都,港区,高輪３丁目２５番２３号京急第２ビル１Ｆ,,13,103,1080074,,,2023-12-01,合併による解散等,8010401152646,令和５年１２月１日東京都港区高輪三丁目２５番２３号京急第２ビル１Ｆ株式会社エー・ピーカンパニー（8010401152646）に合併し解散,2021-07-09,1,,,,,エーピーレストリー,0
2026,9010403023621,登記記録の閉鎖等,0,2023-12-07,2023-12-04,合同会社ＵＲＦＭＰ,,合同会社,東京都,港区,虎ノ門５丁目１番４号,,13,103,1050001,,,2023-12-04,清算の結了等,,,2020-09-01,1,,,,,ユーアールエフエムピー,0
2044,9011001112304,登記記録の閉鎖等,0,2023-12-07,2023-12-04,ＭＡＮＯＩＲ株式会社,,株式会社,東京都,目黒区,鷹番１丁目６番３－６０１号,,13,110,1520004,,,2023-12-04,清算の結了等,,,2016-08-15,1,,,,,,0
2053,9011003005803,登記記録の閉鎖等,0,2023-12-07,2023-12-05,合同会社加藤キャピタルマネージメント,,合同会社,東京都,目黒区,中町１丁目２７番２８号,,13,110,1530065,,,2023-12-05,清算の結了等,,,2015-10-05,1,,,,,,0
2054,9011003013434,登記記録の閉鎖等,0,2023-12-07,2023-12-04,ボーダーベース合同会社,,合同会社,東京都,渋谷区,神宮前６丁目２３番４号桑野ビル２階,,13,113,1500001,,,2023-12-04,清算の結了等,,,2021-10-04,1,,,,,ボーダーベース,0
2064,9011402000289,登記記録の閉鎖等,0,2023-12-07,2023-12-05,有限会社アン環境設計,,有限会社,東京都,板橋区,大山西町５６番７号,,13,119,1730033,,,2023-12-05,清算の結了等,,,2015-10-05,1,,,,,アンカンキョウセッケイ,0
2067,9011702017248,登記記録の閉鎖等,0,2023-12-07,2023-12-06,有限会社Ｓ・Ｋコンストラクション,,有限会社,東京都,江戸川区,篠崎町１丁目１９番６号コーポ大新第３－１０２,,13,123,1330061,,,2023-12-06,清算の結了等,,,2015-10-05,1,,,,,エスケーコンストラクション,0
2073,9011802003924,登記記録の閉鎖等,0,2023-12-07,2023-12-01,有限会社秀峰,,有限会社,東京都,葛飾区,西新小岩４丁目８番１１号,,13,122,1240025,,,2023-12-01,合併による解散等,4011801002196,令和５年１２月１日東京都葛飾区西新小岩四丁目８番１１号株式会社ショージ（4011801002196）に合併し解散,2015-10-05,1,,,,,シュウホウ,0
2074,9011803005060,登記記録の閉鎖等,0,2023-12-07,2023-11-29,合同会社Ｔｒｅｎｄ　Ｍ,,合同会社,東京都,足立区,古千谷本町２丁目１７－７ソフィア１０３,,13,121,1210832,,,2023-11-29,清算の結了等,,,2022-04-22,1,,,,,トレンドエム,0
2080,9020001068118,登記記録の閉鎖等,0,2023-12-07,2023-12-01,株式会社千鳥工業,,株式会社,神奈川県,横浜市都筑区,北山田６丁目２７番５号,,14,118,2240021,,,2023-12-01,清算の結了等,,,2015-10-05,1,,,,,チドリコウギョウ,0
2081,9020001097645,登記記録の閉鎖等,0,2023-12-07,2023-12-01,株式会社Ｋ．Ｔ．Ｓ,,株式会社,神奈川県,川崎市高津区,溝口１丁目８番１２号カスタムビル３階,,14,134,2130001,,,2023-12-01,清算の結了等,,,2015-10-05,1,,,,,ケーティーエス,0
2083,9020001125356,登記記録の閉鎖等,0,2023-12-07,2023-12-01,エデュケーションＩＴサービス株式会社,,株式会社,神奈川県,横浜市金沢区,六浦東１丁目５０番１号,,14,108,2360037,,,2023-12-01,清算の結了等,,,2018-03-05,1,,,,,エデュケーションアイティサービス,0
2117,9050001008376,登記記録の閉鎖等,0,2023-12-07,2023-12-04,株式会社スリーＣ,,株式会社,茨城県,笠間市,八雲２丁目７番２６号,,08,216,3091736,,,2023-12-04,清算の結了等,,,2015-10-05,1,,,,,スリーシー,0
2122,9050002035056,登記記録の閉鎖等,0,2023-12-07,2023-12-04,有限会社嘉多野,,有限会社,茨城県,常陸太田市,西三町６３２番地の３,,08,212,3130054,,,2023-12-04,清算の結了等,,,2015-10-05,1,,,,,カタノ,0
2125,9070001002625,登記記録の閉鎖等,0,2023-12-07,2023-12-01,株式会社ハンユウ,,株式会社,群馬県,太田市,別所町５２８番地,,10,205,3730041,,,2023-12-01,合併による解散等,9070001019999,令和５年１２月１日群馬県太田市別所町５２８番地ハンユウオート株式会社（9070001019999）に合併し解散,2015-10-05,1,,,,,ハンユウ,0
2135,9080401016760,登記記録の閉鎖等,0,2023-12-07,2023-12-06,株式会社Ｌｉｅｆ,,株式会社,静岡県,磐田市,森下３５番地５,,22,211,4380834,,,2023-12-06,清算の結了等,,,2015-10-05,1,,,,,,0
2138,9080402008229,登記記録の閉鎖等,0,2023-12-07,2023-12-05,明成金型有限会社,,有限会社,静岡県,浜松市北区,根洗町１４１４番地の２,,22,135,4338108,,,2023-12-05,清算の結了等,,,2015-10-05,1,,,,,メイセイカナガタ,0
2139,9080402015976,登記記録の閉鎖等,0,2023-12-07,2023-12-05,未来試作有限会社,,有限会社,静岡県,浜松市北区,細江町気賀１０７３４番地の６,,22,135,4311305,,,2023-12-05,清算の結了等,,,2015-10-05,1,,,,,ミライシサク,0
2154,9120001154337,登記記録の閉鎖等,0,2023-12-07,2023-12-04,ロングライフグローバルコンサルタント株式会社,,株式会社,大阪府,大阪市北区,中崎西２丁目４番１２号梅田センタービル２５階,,27,127,5300015,,,2023-12-04,合併による解散等,9120001128258,令和５年１０月３１日大阪市北区中崎西二丁目４番１２号梅田センタービル２５階エルケア株式会社（9120001128258）に合併し解散,2015-10-05,1,,,,,ロングライフグローバルコンサルタント,0
2162,9120002081720,登記記録の閉鎖等,0,2023-12-07,2023-12-05,有限会社ウィズ,,有限会社,大阪府,守口市,南寺方東通４丁目２１番２７号,,27,209,5700043,,,2023-12-05,清算の結了等,,,2015-10-05,1,,,,,ウィズ,0
2170,9130001040503,登記記録の閉鎖等,0,2023-12-07,2023-12-01,畿北ブラザー株式会社,,株式会社,京都府,宮津市,字本町８２３番地,,26,205,6260018,,,2023-12-01,清算の結了等,,,2015-10-05,1,,,,,キホクブラザー,0
2183,9140002041920,登記記録の閉鎖等,0,2023-12-07,2023-12-04,有限会社仲本製作所,,有限会社,兵庫県,尼崎市,戸ノ内町３丁目３３番８号,,28,202,6610961,,,2023-12-04,清算の結了等,,,2015-10-05,1,,,,,ナカモトセイサクショ,0
2184,9140002042530,登記記録の閉鎖等,0,2023-12-07,2023-12-04,有限会社細見盛文堂,,有限会社,兵庫県,尼崎市,西難波町４丁目６番１６号,,28,202,6600893,,,2023-12-04,清算の結了等,,,2015-10-05,1,,,,,,0
2192,9180001080767,登記記録の閉鎖等,0,2023-12-07,2023-11-30,株式会社河村鑛油,,株式会社,愛知県,犬山市,大字塔野地字西中ノ切１６番地の３,,23,215,4840094,,,2023-11-30,清算の結了等,,,2015-10-05,1,,,,,カワムラコウユ,0
2195,9180001137757,登記記録の閉鎖等,0,2023-12-07,2023-12-01,株式会社ソリド,,株式会社,愛知県,名古屋市中村区,佐古前町１３番５９号,,23,105,4530018,,,2023-12-01,合併による解散等,5180001132968,令和５年１２月１日名古屋市中区栄一丁目２６番８号株式会社ソーラーストレージ（5180001132968）に合併し解散,2019-08-13,1,,,,,ソリド,0
2221,9230002007061,登記記録の閉鎖等,0,2023-12-07,2023-12-04,有限会社大喜,,有限会社,富山県,富山市,柳町２丁目３番９号,,16,201,9300016,,,2023-12-04,清算の結了等,,,2015-10-05,1,,,,,タイキ,0
2223,9240001016203,登記記録の閉鎖等,0,2023-12-07,2023-12-01,株式会社アップルズ,,株式会社,広島県,広島市西区,商工センター３丁目５番９号,,34,104,7330833,,,2023-12-01,清算の結了等,,,2015-10-05,1,,,,,アップルズ,0
2230,9240002043584,登記記録の閉鎖等,0,2023-12-07,2023-12-01,有限会社山下設備工業,,有限会社,広島県,福山市,水呑町４８９５番地の１,,34,207,7200832,,,2023-12-01,清算の結了等,,,2015-10-05,1,,,,,ヤマシタセツビコウギョウ,0
2234,9250001005502,登記記録の閉鎖等,0,2023-12-07,2023-12-06,株式会社サミツト,,株式会社,山口県,下関市,竹崎町３丁目９番７号,,35,201,7500025,,,2023-12-06,清算の結了等,,,2015-10-05,1,,,,,サミツト,0
2235,9260001008207,登記記録の閉鎖等,0,2023-12-07,2023-12-05,株式会社サンネット,,株式会社,岡山県,岡山市南区,並木町２丁目１１番６７号,,33,104,7028058,,,2023-12-05,清算の結了等,,,2015-10-05,1,,,,,サンネット,0
2239,9270001000278,登記記録の閉鎖等,0,2023-12-07,2023-12-06,株式会社山陰岡勢,,株式会社,鳥取県,鳥取市,商栄町１５８番地２,,31,201,6800912,,,2023-12-06,清算の結了等,,,2015-10-05,1,,,,,サンインオカセイ,0
2244,9290002054882,登記記録の閉鎖等,0,2023-12-07,2023-11-27,有限会社有明総合設備,,有限会社,福岡県,大牟田市,大字歴木１８０７番地１２３０,,40,202,8370924,,,2023-11-27,清算の結了等,,,2015-10-05,1,,,,,アリアケソウゴウセツビ,0
2266,9360001013915,登記記録の閉鎖等,0,2023-12-07,2023-11-30,株式会社オゴエ,,株式会社,沖縄県,宮古島市,平良字西里１１０７－７,,47,214,9060012,,,2023-11-30,清算の結了等,,,2015-10-05,1,,,,,オゴエ,0
2269,9370001047953,登記記録の閉鎖等,0,2023-12-07,2023-11-30,ＷＩＤＥＦＯＯＤ　ＤＩＮＩＮＧ株式会社,,株式会社,宮城県,仙台市青葉区,米ケ袋１丁目６番８号,,04,101,9800813,,,2023-11-30,合併による解散等,1370001021569,令和５年１１月３０日仙台市青葉区米ケ袋一丁目６番８号ＷＩＤＥＦＯＯＤ株式会社（1370001021569）に合併し解散,2021-12-17,1,,,,,ワイドフードダイニング,0
2272,9370501000346,登記記録の閉鎖等,0,2023-12-07,2023-12-05,株式会社道貫鉄工所,,株式会社,宮城県,気仙沼市,本吉町道貫２０５番地,,04,205,9880269,,,2023-12-05,清算の結了等,,,2015-10-05,1,,,,,,0
2273,9380002015140,登記記録の閉鎖等,0,2023-12-07,2023-12-04,有限会社鈴木電設,,有限会社,福島県,田村郡三春町,八島台６丁目９番地の１０,,07,521,9637741,,,2023-12-04,清算の結了等,,,2015-10-05,1,,,,,スズキデンセツ,0
