sequenceNumber,corporateNumber,process,correct,updateDate,changeDate,name,nameImageId,kind,prefectureName,cityName,streetNumber,addressImageId,prefectureCode,cityCode,postCode,addressOutside,addressOutsideImageId,closeDate,closeCause,successorCorporateNumber,changeCause,assignmentDate,latest,enName,enPrefectureName,enCityName,enAddressOutside,furigana,hihyoji
2,1010001248875,登記記録の閉鎖等,0,2025-09-02,2025-08-12,株式会社ＢＣＪ‐８７,,株式会社,東京都,千代田区,丸の内１丁目１番１号パレスビル５階,,13,101,1000005,,,2025-08-12,清算の結了等,,,2024-10-07,1,,,,,ビーシージェイエイティーセブン,0
14,1010401138387,登記記録の閉鎖等,0,2025-09-02,2025-07-31,株式会社ティーアンドティー,,株式会社,東京都,港区,新橋３丁目２６番３号,,13,103,1050004,,,2025-07-31,合併による解散等,5010001082585,令和７年７月３１日東京都港区新橋三丁目２６番３号株式会社ティーオー食研（5010001082585）に合併し解散,2018-05-15,1,,,,,ティーアンドティー,0
15,1010401155804,登記記録の閉鎖等,0,2025-09-02,2025-08-05,株式会社俳色,,株式会社,東京都,新宿区,西新宿６丁目５番１号新宿アイランドタワー２９階,,13,104,1600023,,,2025-08-05,清算の結了等,,,2020-10-13,1,,,,,ハイイロ,0
19,1010405021779,登記記録の閉鎖等,0,2025-09-02,2025-08-01,一般社団法人虎ノ門フォー,,その他の設立登記法人,東京都,港区,虎ノ門３丁目２２番１０－２０１号,,13,103,1050001,,,2025-08-01,清算の結了等,,,2023-02-07,1,,,,,トラノモンフォー,0
22,1010503006401,登記記録の閉鎖等,0,2025-09-02,2025-08-20,合同会社Ｆｌｏｗｅｒ,,合同会社,東京都,台東区,北上野２丁目１６番１０号,,13,106,1100014,,,2025-08-20,清算の結了等,,,2021-10-07,1,,,,,フラワー,0
25,1010602021409,登記記録の閉鎖等,0,2025-09-02,2025-08-28,有限会社セイワプロセス,,有限会社,東京都,江東区,福住１丁目５番４号,,13,108,1350032,,,2025-08-28,清算の結了等,,,2015-10-05,1,,,,,,0
31,1010702013925,登記記録の閉鎖等,0,2025-09-02,2025-09-01,有限会社エリック商事,,有限会社,東京都,世田谷区,東玉川２丁目１７番４号,,13,112,1580084,,,2025-09-01,合併による解散等,1010901004601,令和７年９月１日東京都世田谷区東玉川二丁目１７番４号株式会社ザ・キッド（1010901004601）に合併し解散,2015-10-05,1,,,,,エリックショウジ,0
32,1010801019286,登記記録の閉鎖等,0,2025-09-02,2025-08-25,徳山プランテック株式会社,00052231,株式会社,東京都,大田区,田園調布２丁目１０番１４号,,13,111,1450071,,,2025-08-25,清算の結了等,,,2015-10-05,1,,,,,トクヤマプランテック,0
67,1013303005119,登記記録の閉鎖等,0,2025-09-02,2025-08-08,リンディーズ合同会社,,合同会社,東京都,豊島区,東池袋４丁目２１番１－５００９号,,13,116,1700013,,,2025-08-08,清算の結了等,,,2020-05-19,1,,,,,リンディーズ,0
83,1030002100380,登記記録の閉鎖等,0,2025-09-02,2025-08-22,有限会社インズテクメント,,有限会社,埼玉県,川口市,朝日６丁目１０番１６号,,11,203,3320001,,,2025-08-22,清算の結了等,,,2015-10-05,1,,,,,インズテクメント,0
100,1070001043206,登記記録の閉鎖等,0,2025-09-02,2025-08-27,井上産業株式会社,,株式会社,群馬県,太田市,尾島町７７番地１,,10,205,3700401,,,2025-08-27,清算の結了等,,,2025-08-12,1,,,,,イノウエサンギョウ,0
104,1080102001508,登記記録の閉鎖等,0,2025-09-02,2025-08-29,有限会社サノシン,,有限会社,静岡県,沼津市,西熊堂３５０番地の１７,,22,203,4100051,,,2025-08-29,清算の結了等,,,2015-10-05,1,,,,,サノシン,0
136,1180001091516,登記記録の閉鎖等,0,2025-09-02,2025-08-12,株式会社アワーズ,,株式会社,愛知県,半田市,出口町１丁目２１７番地の２,,23,205,4750903,,,2025-08-12,清算の結了等,,,2015-10-05,1,,,,,アワーズ,0
139,1180002072374,登記記録の閉鎖等,0,2025-09-02,2025-08-12,有限会社望月電工社,,有限会社,愛知県,瀬戸市,白山町１丁目７３番地の５,,23,204,4890876,,,2025-08-12,清算の結了等,,,2015-10-05,1,,,,,モチヅキデンコウシャ,0
140,1180002082794,登記記録の閉鎖等,0,2025-09-02,2025-08-08,有限会社ミユキ送電,,有限会社,愛知県,岩倉市,西市町稗原１１番地１,,23,228,4820036,,,2025-08-08,清算の結了等,,,2015-10-05,1,,,,,ミユキソウデン,0
142,1180301011025,登記記録の閉鎖等,0,2025-09-02,2025-09-01,株式会社三幸,,株式会社,愛知県,蒲郡市,形原町東稲荷２０番地１,,23,214,4430104,,,2025-09-01,清算の結了等,,,2015-10-05,1,,,,,サンコウ,0
145,1190001010986,登記記録の閉鎖等,0,2025-09-02,2025-08-28,宏輝システムズ株式会社,,株式会社,三重県,松阪市,上川町３４６１番地１０,,24,204,5150041,,,2025-08-28,合併による解散等,8010001016350,令和７年８月１日東京都千代田区神田東松下町４５番地宏輝株式会社（8010001016350）に合併し解散,2015-10-05,1,,,,,コウキシステムズ,0
153,1250001019484,登記記録の閉鎖等,0,2025-09-02,2025-08-28,株式会社サポートキャリア,,株式会社,山口県,下関市,秋根本町２丁目１０番１０号２Ｆ,,35,201,7510875,,,2025-08-28,清算の結了等,,,2022-04-07,1,,,,,サポートキャリア,0
164,1290002036707,登記記録の閉鎖等,0,2025-09-02,2025-08-25,有限会社十勝,,有限会社,福岡県,糟屋郡宇美町,神武原２丁目５番１７号,,40,341,8112129,,,2025-08-25,清算の結了等,,,2015-10-05,1,,,,,トカチ,0
176,1360002004854,登記記録の閉鎖等,0,2025-09-02,2025-08-25,有限会社ロフト建築設計事務所,,有限会社,沖縄県,那覇市,具志３丁目３４番６号,,47,201,9010146,,,2025-08-25,清算の結了等,,,2015-10-05,1,,,,,ロフトケンチクセッケイジムショ,0
178,1370001011941,登記記録の閉鎖等,0,2025-09-02,2025-08-15,株式会社メディア・サポート,,株式会社,宮城県,仙台市宮城野区,榴岡３丁目１０－７サンライン第６６ビル８Ｆ,,04,102,9830852,,,2025-08-15,清算の結了等,,,2015-10-05,1,,,,,メディアサポート,0
204,2010001184310,登記記録の閉鎖等,0,2025-09-02,2025-08-08,石井物産管理株式会社,,株式会社,東京都,中央区,勝どき４丁目６番２号,,13,102,1040054,,,2025-08-08,清算の結了等,,,2017-06-19,1,,,,,イシイブッサンカンリ,0
205,2010001200819,登記記録の閉鎖等,0,2025-09-02,2025-08-12,Ｚフィナンシャル株式会社,,株式会社,東京都,千代田区,紀尾井町１番３号,,13,101,1020094,,,2025-08-12,合併による解散等,4010401039979,令和７年８月１日東京都千代田区紀尾井町１番３号ＬＩＮＥヤフー株式会社（4010401039979）に合併し解散,2019-05-15,1,,,,,ゼットフィナンシャル,0
220,2010401058139,登記記録の閉鎖等,0,2025-09-02,2025-07-31,株式会社汐留商事,,株式会社,東京都,港区,新橋３丁目２６番３号,,13,103,1050004,,,2025-07-31,合併による解散等,5010001082585,令和７年７月３１日東京都港区新橋三丁目２６番３号株式会社ティーオー食研（5010001082585）に合併し解散,2015-10-05,1,,,,,シオドメショウジ,0
232,2010405020697,登記記録の閉鎖等,0,2025-09-02,2025-08-01,一般社団法人虎ノ門ワン,,その他の設立登記法人,東京都,港区,虎ノ門３丁目２２番１０－２０１号,,13,103,1050001,,,2025-08-01,清算の結了等,,,2022-02-14,1,,,,,トラノモンワン,0
275,2020003014159,登記記録の閉鎖等,0,2025-09-02,2025-08-14,合同会社大田アソシエイツ,,合同会社,神奈川県,横浜市港北区,箕輪町１丁目１４番１－５０８号,,14,109,2230051,,,2025-08-14,清算の結了等,,,2018-04-06,1,,,,,オオタアソシエイツ,0
281,2021001076827,登記記録の閉鎖等,0,2025-09-02,2025-08-14,翔設計神奈川株式会社,,株式会社,神奈川県,三浦郡葉山町,堀内１３６３番地の４,,14,301,2400112,,,2025-08-14,清算の結了等,,,2022-08-24,1,,,,,ショウセッケイカナガワ,0
282,2021001080622,登記記録の閉鎖等,0,2025-09-02,2025-08-25,株式会社栄政グループ,,株式会社,静岡県,静岡市葵区,紺屋町１７番地の１,,22,101,4200852,,,2025-08-25,清算の結了等,,,2023-11-01,1,,,,,エイセイグループ,0
284,2021002068204,登記記録の閉鎖等,0,2025-09-02,2025-08-26,三洋興産有限会社,,有限会社,神奈川県,逗子市,小坪１丁目１２番１２号,,14,208,2490008,,,2025-08-26,清算の結了等,,,2015-10-05,1,,,,,サンヨウコウサン,0
292,2030002072421,登記記録の閉鎖等,0,2025-09-02,2025-08-27,有限会社エイエム企画,,有限会社,埼玉県,川越市,岸町２丁目３８番地１６,,11,201,3501131,,,2025-08-27,清算の結了等,,,2015-10-05,1,,,,,,0
312,2080001013504,登記記録の閉鎖等,0,2025-09-02,2025-08-28,株式会社友田組,,株式会社,静岡県,榛原郡川根本町,久野脇６５５番地の６６,,22,429,4280315,,,2025-08-28,清算の結了等,,,2015-10-05,1,,,,,トモダグミ,0
323,2100005010288,登記記録の閉鎖等,0,2025-09-02,2025-08-27,特定非営利活動法人ライフケアいいだ,,その他の設立登記法人,長野県,飯田市,大通２丁目２２１番地３,,20,205,3950056,,,2025-08-27,清算の結了等,,,2015-10-05,1,,,,,ライフケアイイダ,0
350,2130001015528,登記記録の閉鎖等,0,2025-09-02,2025-08-21,株式会社藤企画,,株式会社,京都府,京都市伏見区,深草今在家町１番地の１８,,26,109,6120017,,,2025-08-21,清算の結了等,,,2015-10-05,1,,,,,フジキカク,0
354,2140001034989,登記記録の閉鎖等,0,2025-09-02,2025-08-26,株式会社昭和電機製作所,,株式会社,兵庫県,明石市,大久保町江井島字三ツ矢１３９１番地,,28,203,6740064,,,2025-08-26,清算の結了等,,,2015-10-05,1,,,,,ショウワデンキセイサクショ,0
356,2140002038972,登記記録の閉鎖等,0,2025-09-02,2025-08-27,株式会社カドタ,,株式会社,兵庫県,加古川市,別府町新野辺１４７番地の５,,28,210,6750131,,,2025-08-27,清算の結了等,,,2015-10-05,1,,,,,カドタ,0
374,2180002081374,登記記録の閉鎖等,0,2025-09-02,2025-08-08,有限会社安田建材,,有限会社,愛知県,稲沢市,治郎丸細道町３３番地の１,,23,220,4928133,,,2025-08-08,清算の結了等,,,2015-10-05,1,,,,,ヤスダケンザイ,0
375,2180005015536,登記記録の閉鎖等,0,2025-09-02,2025-08-28,医療法人三明,,その他の設立登記法人,愛知県,名古屋市天白区,池見２丁目２２９番地近藤店舗１階,,23,116,4680067,,,2025-08-28,清算の結了等,,,2015-10-05,1,,,,,サンメイ,0
378,2180302015271,登記記録の閉鎖等,0,2025-09-02,2025-08-27,有限会社角福,,有限会社,愛知県,蒲郡市,八百富町１丁目１５番地,,23,214,4430055,,,2025-08-27,清算の結了等,,,2015-10-05,1,,,,,カドフク,0
380,2180303001386,登記記録の閉鎖等,0,2025-09-02,2025-08-27,東建設合名会社,,合名会社,愛知県,豊橋市,東郷町８１番地,,23,201,4400068,,,2025-08-27,清算の結了等,,,2015-10-05,1,,,,,アズマケンセツ,0
390,2250001013098,登記記録の閉鎖等,0,2025-09-02,2025-08-29,株式会社アーステック,,株式会社,山口県,山陽小野田市,厚狭１丁目１２番地２３,,35,216,7570001,,,2025-08-29,清算の結了等,,,2015-10-05,1,,,,,アーステック,0
393,2260003004862,登記記録の閉鎖等,0,2025-09-02,2025-08-20,合同会社ＺＥＺＥ,,合同会社,岡山県,岡山市南区,福富東２丁目２０番６号,,33,104,7028033,,,2025-08-20,清算の結了等,,,2024-08-15,1,,,,,ゼゼ,0
399,2290003012268,登記記録の閉鎖等,0,2025-09-02,2025-08-06,ｕｎｋｎｏｗｎ合同会社,,合同会社,福岡県,福岡市早良区,室見２丁目１２－３３アイリーフ室見２０４,,40,137,8140015,,,2025-08-06,清算の結了等,,,2022-03-10,1,,,,,アンノウン,0
409,2330002000590,登記記録の閉鎖等,0,2025-09-02,2025-08-18,有限会社アルプス興業,,有限会社,熊本県,熊本市南区,近見６丁目１９番１２号,,43,104,8614101,,,2025-08-18,清算の結了等,,,2015-10-05,1,,,,,アルプスコウギョウ,0
423,2430001055015,登記記録の閉鎖等,0,2025-09-02,2025-08-08,株式会社アクシア・ＴＫ,,株式会社,北海道,苫小牧市,若草町２丁目２番１号,,01,213,0530021,,,2025-08-08,清算の結了等,,,2015-10-05,1,,,,,アクシアティーケー,0
441,3010001120330,登記記録の閉鎖等,0,2025-09-02,2025-07-30,株式会社あお盛税研,,株式会社,東京都,千代田区,岩本町１丁目４番４号,,13,101,1010032,,,2025-07-30,清算の結了等,,,2015-10-05,1,,,,,アオモリゼイケン,0
446,3010005027654,登記記録の閉鎖等,0,2025-09-02,2025-08-06,一般社団法人ストック・フォー,,その他の設立登記法人,東京都,千代田区,霞が関３丁目２番５号,,13,101,1000013,,,2025-08-06,清算の結了等,,,2017-10-27,1,,,,,ストックフォー,0
450,3010401156296,登記記録の閉鎖等,0,2025-09-02,2025-08-08,ＴＲＮ　Ｃａｐｉｔａｌ　Ｍａｎａｇｅｍｅｎｔ株式会社,,株式会社,東京都,港区,海岸１丁目２番３号,,13,103,1050022,,,2025-08-08,合併による解散等,6010401098651,令和７年８月１日東京都港区海岸一丁目２番３号店舗流通ネット株式会社（6010401098651）に合併し解散,2020-11-06,1,,,,,ティーアールエヌキャピタルマネジメント,0
456,3010402019618,登記記録の閉鎖等,0,2025-09-02,2025-08-01,有限会社ビー・アイ・ティー,,有限会社,東京都,港区,芝大門１丁目８番１号,,13,103,1050012,,,2025-08-01,清算の結了等,,,2015-10-05,1,,,,,ビーアイティー,0
457,3010403029087,登記記録の閉鎖等,0,2025-09-02,2025-08-01,合同会社Ｂｕｃｈａｎａｎ,,合同会社,東京都,港区,虎ノ門５丁目１番４号,,13,103,1050001,,,2025-08-01,清算の結了等,,,2022-12-06,1,,,,,ブキャナン,0
473,3011001060938,登記記録の閉鎖等,0,2025-09-02,2025-07-31,株式会社ＣｈｏｒｄＳｔｏｃｋ,,株式会社,東京都,渋谷区,恵比寿２丁目１６番３号,,13,113,1500013,,,2025-07-31,清算の結了等,,,2015-10-05,1,,,,,コードストック,0
490,3011801001414,登記記録の閉鎖等,0,2025-09-02,2025-08-28,小池鏡工業株式会社,,株式会社,東京都,葛飾区,新宿４丁目９番２号,,13,122,1250051,,,2025-08-28,清算の結了等,,,2015-10-05,1,,,,,コイケカガミコウギョウ,0
496,3013202013237,登記記録の閉鎖等,0,2025-09-02,2025-08-01,有限会社光学姉妹,,有限会社,東京都,目黒区,東が丘１丁目１６番１７号,,13,110,1520021,,,2025-08-01,清算の結了等,,,2015-10-05,1,,,,,コウガクシマイ,0
499,3020001081712,登記記録の閉鎖等,0,2025-09-02,2025-08-18,株式会社ビーゲイト,,株式会社,神奈川県,川崎市麻生区,上麻生１丁目７番２号,,14,137,2150021,,,2025-08-18,清算の結了等,,,2015-10-05,1,,,,,ビーゲイト,0
506,3020002012971,登記記録の閉鎖等,0,2025-09-02,2025-08-18,有限会社ミナトヤ,,有限会社,神奈川県,横浜市戸塚区,矢部町２７３番地,,14,110,2440002,,,2025-08-18,清算の結了等,,,2015-10-05,1,,,,,ミナトヤ,0
514,3021001048981,登記記録の閉鎖等,0,2025-09-02,2025-08-26,株式会社Ｕ＆Ｅリレーションズ,,株式会社,神奈川県,小田原市,中里５１番地の４,,14,206,2500872,,,2025-08-26,清算の結了等,,,2015-10-05,1,,,,,ユーアンドイーリレーションズ,0
534,3040005019608,登記記録の閉鎖等,0,2025-09-02,2025-08-07,税理士法人村松会計,,その他の設立登記法人,千葉県,君津市,久保１丁目７番９号,,12,225,2991152,,,2025-08-07,清算の結了等,,,2017-07-18,1,,,,,ムラマツカイケイ,0
535,3050001026904,登記記録の閉鎖等,0,2025-09-02,2025-08-25,菊池印刷株式会社,,株式会社,茨城県,久慈郡大子町,大字大子８２８番地,,08,364,3193526,,,2025-08-25,清算の結了等,,,2015-10-05,1,,,,,キクチインサツ,0
555,3120002073343,登記記録の閉鎖等,0,2025-09-02,2025-08-26,有限会社ラッシュ,,有限会社,大阪府,寝屋川市,三井が丘４丁目１５番１３６－３号,,27,215,5720013,,,2025-08-26,清算の結了等,,,2015-10-05,1,,,,,ラッシュ,0
571,3130002012507,登記記録の閉鎖等,0,2025-09-02,2025-08-25,有限会社桃華林,,有限会社,京都府,京都市山科区,西野山中鳥井町６０番地の６,,26,110,6078306,,,2025-08-25,清算の結了等,,,2015-10-05,1,,,,,トウカリン,0
574,3130005012207,登記記録の閉鎖等,0,2025-09-02,2025-07-02,特定非営利活動法人レ・トウヌソル,,その他の設立登記法人,京都府,舞鶴市,字高野由里７０４番地,,26,202,6240835,,,2025-07-02,清算の結了等,,,2015-10-05,1,,,,,レトウヌソル,0
575,3140001027513,登記記録の閉鎖等,0,2025-09-02,2025-08-22,株式会社ＢＩＬＫＩＳ,,株式会社,京都府,相楽郡精華町,光台６丁目４０番地１１,,26,366,6190237,,,2025-08-22,清算の結了等,,,2015-10-05,1,,,,,ビルキス,0
587,3180002021395,登記記録の閉鎖等,0,2025-09-02,2025-08-06,有限会社幸陽,,有限会社,愛知県,名古屋市天白区,植田３丁目１７０１番地,,23,116,4680051,,,2025-08-06,清算の結了等,,,2015-10-05,1,,,,,コウヨウ,0
588,3180002072810,登記記録の閉鎖等,0,2025-09-02,2025-08-12,有限会社装林,,有限会社,愛知県,尾張旭市,狩宿町３丁目１１８番地,,23,226,4880021,,,2025-08-12,清算の結了等,,,2015-10-05,1,,,,,ソウリン,0
589,3180002083782,登記記録の閉鎖等,0,2025-09-02,2025-08-07,有限会社日新工業所,,有限会社,愛知県,半田市,旭町２丁目６３番地の１,,23,205,4750838,,,2025-08-07,清算の結了等,,,2015-10-05,1,,,,,ニッシンコウギョウショ,0
598,3210002012119,登記記録の閉鎖等,0,2025-09-02,2025-08-28,南越貨物自動車有限会社,,有限会社,福井県,越前市,野岡町２４号３番地の３,,18,209,9150264,,,2025-08-28,清算の結了等,,,2015-10-05,1,,,,,ナンエツカモツジドウシャ,0
599,3220001018883,登記記録の閉鎖等,0,2025-09-02,2025-09-01,ソレスト株式会社,,株式会社,石川県,金沢市,新保本４丁目６５番地１６,,17,201,9218062,,,2025-09-01,合併による解散等,2220001008431,令和７年９月１日石川県金沢市新保本四丁目６５番地１６株式会社ライフライン（2220001008431）に合併し解散,2015-10-05,1,,,,,ソレスト,0
601,3240002045132,登記記録の閉鎖等,0,2025-09-02,2025-08-28,有限会社トップシェイプ,,有限会社,広島県,福山市,東深津町１丁目９番５３号,,34,207,7210974,,,2025-08-28,清算の結了等,,,2015-10-05,1,,,,,トップシェイプ,0
614,3290001107812,登記記録の閉鎖等,0,2025-09-02,2025-08-06,Ｉ　Ｇｒｅｅｎ株式会社,,株式会社,福岡県,福岡市博多区,博多駅前１丁目２３番２号ＰａｒｋＦｒｏｎｔ博多駅前一丁目５Ｆ－Ｂ,,40,132,8120011,,,2025-08-06,清算の結了等,,,2024-11-01,1,,,,,アイグリーン,0
618,3290002052405,登記記録の閉鎖等,0,2025-09-02,2025-08-06,エス・イー・レンテック有限会社,,有限会社,福岡県,久留米市,合川町字沼尻６２番地９,,40,203,8390861,,,2025-08-06,清算の結了等,,,2015-10-05,1,,,,,エスイーレンテック,0
620,3290003005015,登記記録の閉鎖等,0,2025-09-02,2025-08-06,マイクロイノベーション合同会社,,合同会社,福岡県,福岡市西区,周船寺３丁目２２番７－９０４号,,40,135,8190373,,,2025-08-06,清算の結了等,,,2015-10-05,1,,,,,マイクロイノベーション,0
626,3300002008850,登記記録の閉鎖等,0,2025-09-02,2025-08-29,有限会社ジーキャット,,有限会社,佐賀県,伊万里市,大川内町甲３９３７番地,,41,205,8480024,,,2025-08-29,清算の結了等,,,2015-10-05,1,,,,,ジーキャット,0
627,3300005007098,登記記録の閉鎖等,0,2025-09-02,2025-07-22,特定非営利活動法人ココマム,,その他の設立登記法人,佐賀県,鳥栖市,弥生が丘２丁目２１２番地,,41,203,8410005,,,2025-07-22,清算の結了等,,,2022-09-28,1,,,,,ココマム,0
629,3320002010838,登記記録の閉鎖等,0,2025-09-02,2025-08-29,有限会社アポロデンキ,,有限会社,大分県,別府市,大字鶴見２８２３番地の９,,44,202,8740840,,,2025-08-29,清算の結了等,,,2015-10-05,1,,,,,,0
632,3330001017536,登記記録の閉鎖等,0,2025-09-02,2025-08-20,アグリ開発株式会社,,株式会社,熊本県,熊本市南区,良町４丁目１番７０号,,43,104,8620969,,,2025-08-20,清算の結了等,,,2015-10-05,1,,,,,アグリカイハツ,0
637,3340002009531,登記記録の閉鎖等,0,2025-09-02,2025-08-27,有限会社南日本新聞花野光ヶ丘販売所,,有限会社,鹿児島県,鹿児島市,花野光ヶ丘２丁目２０番３号,,46,201,8911204,,,2025-08-27,清算の結了等,,,2015-10-05,1,,,,,,0
647,3380001013191,登記記録の閉鎖等,0,2025-09-02,2025-08-20,株式会社セントポール,,株式会社,福島県,いわき市,四倉町字東二丁目１７３番地,,07,204,9790201,,,2025-08-20,清算の結了等,,,2015-10-05,1,,,,,,0
662,3470002002440,登記記録の閉鎖等,0,2025-09-02,2025-08-28,有限会社クチュールブーケ,,有限会社,東京都,小平市,学園西町２丁目１５番１９号,,13,211,1870045,,,2025-08-28,清算の結了等,,,2015-10-05,1,,,,,クチュールブーケ,0
663,3470002006268,登記記録の閉鎖等,0,2025-09-02,2025-08-29,萬吉水産有限会社,,有限会社,香川県,高松市,亀水町１４２５番地３,,37,201,7618001,,,2025-08-29,清算の結了等,,,2015-10-05,1,,,,,マンキチスイサン,0
678,4010001233767,登記記録の閉鎖等,0,2025-09-02,2025-08-07,株式会社パナシアテック,,株式会社,東京都,中央区,日本橋浜町１丁目６－１０－２０２号,,13,102,1030007,,,2025-08-07,清算の結了等,,,2023-03-16,1,,,,,パナシアテック,0
682,4010003043462,登記記録の閉鎖等,0,2025-09-02,2025-08-05,ＴＥＳＳ・ＫＧＫエナジー１号合同会社,,合同会社,東京都,中央区,八重洲１丁目３番７号,,13,102,1030028,,,2025-08-05,清算の結了等,,,2024-04-12,1,,,,,テスケージーケイエナジーイチゴウ,0
691,4010401083184,登記記録の閉鎖等,0,2025-09-02,2025-08-04,株式会社ＴＯＧＯ’Ｓ,,株式会社,東京都,港区,海岸３丁目２０番２０号ヨコソーレインボータワー１３階,,13,103,1080022,,,2025-08-04,清算の結了等,,,2015-10-05,1,,,,,トウゴウズ,0
733,4011201005485,登記記録の閉鎖等,0,2025-09-02,2025-08-26,モロ計測機器株式会社,,株式会社,東京都,中野区,上鷺宮２丁目４番２７号,,13,114,1650031,,,2025-08-26,清算の結了等,,,2015-10-05,1,,,,,モロケイソクキキ,0
761,4020003012607,登記記録の閉鎖等,0,2025-09-02,2025-08-14,合同会社ＡＯ企画,,合同会社,神奈川県,横浜市港北区,師岡町３９８番地６,,14,109,2220002,,,2025-08-14,清算の結了等,,,2017-04-12,1,,,,,エーオーキカク,0
762,4020005009733,登記記録の閉鎖等,0,2025-09-02,2025-08-15,特定非営利活動法人いのちと暮らしを守り、まちづくりとコニュニティを育成する会,,その他の設立登記法人,神奈川県,横浜市栄区,小菅ケ谷２丁目１番１－７１９号,,14,115,2470007,,,2025-08-15,清算の結了等,,,2015-10-05,1,,,,,イノチトクラシヲマモリマチヅクリトコミュニティヲイクセイスルカイ,0
788,4050001053105,登記記録の閉鎖等,0,2025-09-02,2025-08-19,株式会社ＧＬＬＧ,,株式会社,茨城県,龍ケ崎市,馴馬町山王台２７０８番地１,,08,208,3010004,,,2025-08-19,清算の結了等,,,2023-07-12,1,,,,,ジーエルエルジー,0
794,4080005004654,登記記録の閉鎖等,0,2025-09-02,2025-08-28,神谷城茶農業協同組合,,その他の設立登記法人,静岡県,島田市,神谷城９７２番地の１,,22,209,4280036,,,2025-08-28,清算の結了等,,,2015-10-05,1,,,,,カミヤシロチャ,0
795,4080105003291,登記記録の閉鎖等,0,2025-09-02,2025-08-28,ダイアパレス富士吉原管理組合法人,,その他の設立登記法人,静岡県,富士市,中央町１丁目７番１０号,,22,210,4170052,,,2025-08-28,清算の結了等,,,2015-10-05,1,,,,,ダイアパレスフジヨシワラ,0
799,4100002009744,登記記録の閉鎖等,0,2025-09-02,2025-08-28,有限会社高橋食鶏,00069451,有限会社,長野県,千曲市,大字戸倉１３２０番地,,20,218,3890804,,,2025-08-28,清算の結了等,,,2015-10-05,1,,,,,タカハシショッケイ,0
816,4120002064473,登記記録の閉鎖等,0,2025-09-02,2025-08-26,有限会社上山,,有限会社,大阪府,大阪市阿倍野区,天王寺町北１丁目８番４７－６１７号,,27,119,5450001,,,2025-08-26,清算の結了等,,,2015-10-05,1,,,,,ウエヤマ,0
817,4120003027438,登記記録の閉鎖等,0,2025-09-02,2025-08-21,合同会社ＲＹＫＴ,,合同会社,大阪府,大阪市中央区,島町１丁目２－１２－４０８号,,27,128,5400034,,,2025-08-21,清算の結了等,,,2024-09-02,1,,,,,アールワイケーティー,0
823,4130001014098,登記記録の閉鎖等,0,2025-09-02,2025-08-25,株式会社小和重機,,株式会社,京都府,城陽市,水主森ノ東１８番,,26,207,6100118,,,2025-08-25,清算の結了等,,,2015-10-05,1,,,,,ショウワジュウキ,0
832,4140005023375,登記記録の閉鎖等,0,2025-09-02,2025-08-14,ＮＰＯ法人子どもリビング・ふれんず,,その他の設立登記法人,兵庫県,姫路市,網干区高田１２８番地１１,,28,201,6711226,,,2025-08-14,清算の結了等,,,2017-01-27,1,,,,,,0
836,4180001107038,登記記録の閉鎖等,0,2025-09-02,2025-08-08,中部エコテック株式会社,,株式会社,愛知県,名古屋市中村区,名駅２丁目４２番１５号,,23,105,4500002,,,2025-08-08,清算の結了等,,,2015-10-05,1,,,,,チュウブエコテック,0
839,4180002015157,登記記録の閉鎖等,0,2025-09-02,2025-08-12,横井歯車製作有限会社,,有限会社,愛知県,名古屋市南区,岩戸町３番６号,,23,112,4570015,,,2025-08-12,清算の結了等,,,2015-10-05,1,,,,,ヨコイハグルマセイサク,0
841,4180003003276,登記記録の閉鎖等,0,2025-09-02,2025-08-08,合資会社マルヤス薬局,,合資会社,愛知県,名古屋市東区,筒井町４丁目１８番地,,23,102,4610003,,,2025-08-08,清算の結了等,,,2015-10-05,1,,,,,マルヤスヤッキョク,0
853,4200001010750,登記記録の閉鎖等,0,2025-09-02,2025-08-27,株式会社石田商会,,株式会社,岐阜県,羽島郡岐南町,平成１丁目１１１番地,,21,302,5016013,,,2025-08-27,合併による解散等,4180001010290,令和７年８月１日名古屋市瑞穂区洲雲町四丁目７１番地三和商事株式会社（4180001010290）に合併し解散,2015-10-05,1,,,,,,0
863,4260002009811,登記記録の閉鎖等,0,2025-09-02,2025-08-26,有限会社三宅家具工業,,有限会社,岡山県,岡山市北区,南中央町１１番１１号,,33,101,7000837,,,2025-08-26,清算の結了等,,,2015-10-05,1,,,,,ミヤケカグコウギョウ,0
871,4290002008901,登記記録の閉鎖等,0,2025-09-02,2025-08-07,有限会社ホソエ産業,,有限会社,福岡県,福岡市早良区,有田２丁目３１番２号,,40,137,8140033,,,2025-08-07,清算の結了等,,,2015-10-05,1,,,,,ホソエサンギョウ,0
878,4320005003210,登記記録の閉鎖等,0,2025-09-02,2025-08-25,特定非営利活動法人おおいたの水と生活を考える会,,その他の設立登記法人,大分県,大分市,緑が丘３丁目１７番１２号,,44,201,8701172,,,2025-08-25,清算の結了等,,,2015-10-05,1,,,,,オオイタノミズトセイカツヲカンガエルカイ,0
880,4330005009818,登記記録の閉鎖等,0,2025-09-02,2025-08-19,ＮＰＯ法人さくらねうねう,,その他の設立登記法人,熊本県,熊本市中央区,古川町２５番地１,,43,101,8600015,,,2025-08-19,清算の結了等,,,2018-02-02,1,,,,,サクラネウネウ,0
881,4340001008418,登記記録の閉鎖等,0,2025-09-02,2025-09-01,株式会社ＡＤギルビー,,株式会社,鹿児島県,鹿児島市,西田２丁目２５番３５－２０２号,,46,201,8900046,,,2025-09-01,清算の結了等,,,2015-10-05,1,,,,,アドギルビー,0
882,4340001014952,登記記録の閉鎖等,0,2025-09-02,2025-08-28,柏木石油株式会社,,株式会社,鹿児島県,志布志市,志布志町志布志５０１番地１,,46,221,8997103,,,2025-08-28,清算の結了等,,,2015-10-05,1,,,,,カシワギセキユ,0
884,4340005008265,登記記録の閉鎖等,0,2025-09-02,2025-08-19,特定非営利活動法人ひと・まちサポートいずみ,,その他の設立登記法人,鹿児島県,出水市,福ノ江町１５４１番地,,46,208,8990133,,,2025-08-19,清算の結了等,,,2015-10-05,1,,,,,ヒトマチサポートイズミ,0
885,4350002015759,登記記録の閉鎖等,0,2025-09-02,2025-08-28,フルタイムビジネス有限会社,,有限会社,宮崎県,都城市,野々美谷町８９６番地１,,45,202,8851104,,,2025-08-28,清算の結了等,,,2015-10-05,1,,,,,フルタイムビジネス,0
889,4370001015691,登記記録の閉鎖等,0,2025-09-02,2025-08-15,株式会社ＨＩＲＯコーポレート,,株式会社,宮城県,仙台市宮城野区,田子３丁目１９番地の５１,,04,102,9830021,,,2025-08-15,清算の結了等,,,2015-10-05,1,,,,,,0
902,4450001013844,登記記録の閉鎖等,0,2025-09-02,2025-08-05,株式会社トマムプロパティ,,株式会社,東京都,港区,南青山２丁目２番１５－８２５号,,13,103,1070062,,,2025-08-05,清算の結了等,,,2022-12-05,1,,,,,トマムプロパティ,0
904,4470002004543,登記記録の閉鎖等,0,2025-09-02,2025-08-29,有限会社田町タクシー,,有限会社,香川県,高松市,朝日町５丁目４番１８号,,37,201,7600065,,,2025-08-29,清算の結了等,,,2015-10-05,1,,,,,タマチタクシー,0
913,5010001153915,登記記録の閉鎖等,0,2025-09-02,2025-08-12,株式会社Ｃｏ．ｃｏｍｐａｎｙ,,株式会社,東京都,千代田区,一番町１６番地４－７０４号,,13,101,1020082,,,2025-08-12,清算の結了等,,,2015-10-05,1,,,,,コカンパニー,0
917,5010001192582,登記記録の閉鎖等,0,2025-09-02,2025-08-04,Ｐｌａｎｍｅｃａ　Ｊａｐａｎ株式会社,,株式会社,東京都,新宿区,神楽坂１丁目１５番地神楽坂１丁目ビル５階,,13,104,1620825,,,2025-08-04,清算の結了等,,,2018-06-13,1,,,,,プランメカジャパン,0
941,5010901011247,登記記録の閉鎖等,0,2025-09-02,2025-09-01,株式会社マーリン,,株式会社,東京都,世田谷区,東玉川２丁目１７番４号,,13,112,1580084,,,2025-09-01,合併による解散等,1010901004601,令和７年９月１日東京都世田谷区東玉川二丁目１７番４号株式会社ザ・キッド（1010901004601）に合併し解散,2015-10-05,1,,,,,マーリン,0
944,5010902018605,登記記録の閉鎖等,0,2025-09-02,2025-09-01,有限会社ロングメドーズ,,有限会社,東京都,世田谷区,玉川田園調布２丁目１７番５号,,13,112,1580085,,,2025-09-01,清算の結了等,,,2015-10-05,1,,,,,ロングメドーズ,0
1030,5050005013376,登記記録の閉鎖等,0,2025-09-02,2025-08-19,一般社団法人無機繊維再生協会,,その他の設立登記法人,茨城県,日立市,日高町５丁目８７番地２,,08,202,3191414,,,2025-08-19,清算の結了等,,,2024-01-16,1,,,,,ムキセンイサイセイキョウカイ,0
1038,5070005008795,登記記録の閉鎖等,0,2025-09-02,2025-08-27,特定非営利活動法人古民家で結ぶアートネットきぬやの会,,その他の設立登記法人,群馬県,藤岡市,鬼石５３９番地,,10,209,3701401,,,2025-08-27,清算の結了等,,,2015-10-05,1,,,,,コミンカデムスブアートネットキヌヤノカイ,0
1040,5080001000879,登記記録の閉鎖等,0,2025-09-02,2025-08-22,奥田建設株式会社,,株式会社,静岡県,静岡市葵区,南沼上３丁目１３番２６号,,22,101,4200905,,,2025-08-22,清算の結了等,,,2015-10-05,1,,,,,オクダケンセツ,0
1042,5080102004531,登記記録の閉鎖等,0,2025-09-02,2025-08-29,有限会社マネジメントシステムズブレイン,,有限会社,静岡県,裾野市,佐野１１４７番地,,22,220,4101118,,,2025-08-29,清算の結了等,,,2015-10-05,1,,,,,マネジメントシステムズブレイン,0
1043,5080401004810,登記記録の閉鎖等,0,2025-09-02,2025-08-27,ベンドセットワーク株式会社,,株式会社,静岡県,浜松市中央区,協和町１５１８番地,,22,138,4311205,,,2025-08-27,合併による解散等,7180001073789,令和７年８月１日愛知県春日井市田楽町字更屋敷１４７７番地３株式会社エスジーカンパニー（7180001073789）に合併し解散,2015-10-05,1,,,,,ベンドセットワーク,0
1057,5120001262069,登記記録の閉鎖等,0,2025-09-02,2025-08-22,株式会社ａｌｕｍｏｎｅ,,株式会社,大阪府,大阪市西区,北堀江１丁目６番１２－四ツ橋中央ビル３０３,,27,106,5500014,,,2025-08-22,清算の結了等,,,2024-02-07,1,,,,,アルモネ,0
1078,5120901040796,登記記録の閉鎖等,0,2025-09-02,2025-08-27,株式会社文栄建設,,株式会社,大阪府,高槻市,大塚町２丁目１５番１号の１,,27,207,5690034,,,2025-08-27,清算の結了等,,,2019-01-09,1,,,,,ブンエイケンセツ,0
1091,5140005016238,登記記録の閉鎖等,0,2025-09-02,2025-08-28,特定非営利活動法人日中教育人材交流協会,,その他の設立登記法人,兵庫県,西宮市,門戸荘１７番１２－１３０６号,,28,204,6620825,,,2025-08-28,清算の結了等,,,2015-10-05,1,,,,,ニッチュウキョウイクジンザイコウリュウキョウカイ,0
1098,5180001028497,登記記録の閉鎖等,0,2025-09-02,2025-08-12,株式会社ティエムテック,,株式会社,愛知県,名古屋市緑区,浦里５丁目３２番地,,23,114,4580847,,,2025-08-12,清算の結了等,,,2015-10-05,1,,,,,ティエムテック,0
1102,5180001106947,登記記録の閉鎖等,0,2025-09-02,2025-08-08,株式会社たね,,株式会社,愛知県,知多郡武豊町,字石川１番地９７,,23,447,4702311,,,2025-08-08,清算の結了等,,,2015-10-05,1,,,,,タネ,0
1108,5180002042976,登記記録の閉鎖等,0,2025-09-02,2025-08-12,有限会社啓プランニング,,有限会社,愛知県,名古屋市中村区,名駅南１丁目７番１９号,,23,105,4500003,,,2025-08-12,清算の結了等,,,2015-10-05,1,,,,,ケイプランニング,0
1117,5190001000430,登記記録の閉鎖等,0,2025-09-02,2025-08-29,シー・アイ・システム株式会社,,株式会社,三重県,津市,羽所町５２６番地,,24,201,5140009,,,2025-08-29,合併による解散等,6180001016220,令和７年８月１日名古屋市東区代官町３５番１６号株式会社エスワイシステム（6180001016220）に合併し解散,2015-10-05,1,,,,,シーアイシステム,0
1123,5220001019079,登記記録の閉鎖等,0,2025-09-02,2025-09-01,株式会社ｎ．,,株式会社,石川県,金沢市,大河端町東５５番３,,17,201,9200213,,,2025-09-01,合併による解散等,2220001011625,令和７年８月３１日石川県金沢市大河端町東５５番３株式会社家元（2220001011625）に合併し解散,2015-10-05,1,,,,,エヌ,0
1131,5240001017832,登記記録の閉鎖等,0,2025-09-02,2025-08-28,セーリングコーポレーション株式会社,,株式会社,広島県,広島市西区,山田新町２丁目２０番１９号,,34,104,7330853,,,2025-08-28,清算の結了等,,,2015-10-05,1,,,,,セーリングコーポレーション,0
1132,5240001027641,登記記録の閉鎖等,0,2025-09-02,2025-08-04,株式会社川端工業,,株式会社,福岡県,福岡市早良区,野芥７丁目４０番１９号,,40,137,8140171,,,2025-08-04,清算の結了等,,,2015-10-05,1,,,,,カワバタコウギョウ,0
1136,5260002015313,登記記録の閉鎖等,0,2025-09-02,2025-08-27,有限会社第一システムズ,,有限会社,岡山県,岡山市北区,中仙道１丁目１７番１号,,33,101,7000964,,,2025-08-27,清算の結了等,,,2015-10-05,1,,,,,ダイイチシステムズ,0
1139,5270005003248,登記記録の閉鎖等,0,2025-09-02,2025-09-01,鳥取県西部土木用ブロック協同組合,,その他の設立登記法人,鳥取県,米子市,上福原６７３番地４,,31,202,6830004,,,2025-09-01,清算の結了等,,,2015-10-05,1,,,,,トットリケンセイブドボクヨウブロック,0
1143,5290001058079,登記記録の閉鎖等,0,2025-09-02,2025-08-05,株式会社エスチュアリウム,,株式会社,福岡県,福岡市中央区,今泉２丁目４－２３ぴっぴーハウス３Ｆ,,40,133,8100021,,,2025-08-05,清算の結了等,,,2015-10-05,1,,,,,エスチュアリウム,0
1157,5340001019182,登記記録の閉鎖等,0,2025-09-02,2025-08-26,株式会社ベターラックネクスト,,株式会社,鹿児島県,姶良市,加治木町木田１５９６番地,,46,225,8995241,,,2025-08-26,清算の結了等,,,2016-03-28,1,,,,,ベターラックネクスト,0
1178,5450002000790,登記記録の閉鎖等,0,2025-09-02,2025-08-29,有限会社岩崎建設工業,,有限会社,北海道,旭川市,東光十条８丁目２番７号,,01,204,0788350,,,2025-08-29,清算の結了等,,,2015-10-05,1,,,,,イワサキケンセツコウギョウ,0
1187,6010001077634,登記記録の閉鎖等,0,2025-09-02,2025-08-19,ミューチャル・プロパティ・マネジメント株式会社,,株式会社,東京都,千代田区,麹町１丁目３番地９,,13,101,1020083,,,2025-08-19,清算の結了等,,,2015-10-05,1,,,,,ミューチャルプロパティマネジメント,0
1189,6010001168945,登記記録の閉鎖等,0,2025-09-02,2025-08-25,株式会社ガーニッシュストリーム,,株式会社,東京都,中央区,日本橋箱崎町２７番９号,,13,102,1030015,,,2025-08-25,清算の結了等,,,2015-10-05,1,,,,,ガーニッシュストリーム,0
1203,6010005033807,登記記録の閉鎖等,0,2025-09-02,2025-08-07,一般社団法人ＴＯＹＯＴＥＣ連盟,,その他の設立登記法人,東京都,千代田区,紀尾井町４番１号ニューオータニ・ガーデンタワー１０階,,13,101,1020094,,,2025-08-07,清算の結了等,,,2021-08-19,1,,,,,トウヨウテックレンメイ,0
1238,6011302006166,登記記録の閉鎖等,0,2025-09-02,2025-08-26,有限会社ティ・ファニー,,有限会社,東京都,杉並区,天沼３丁目２９番１３号,,13,115,1670032,,,2025-08-26,清算の結了等,,,2015-10-05,1,,,,,,0
1239,6011501023367,登記記録の閉鎖等,0,2025-09-02,2025-08-29,サンライン株式会社,,株式会社,東京都,北区,滝野川７丁目３８番１３号アーバン・ヒルズ谷端２０５号室,,13,117,1140023,,,2025-08-29,合併による解散等,7012801022561,令和７年７月２７日東京都台東区北上野二丁目２３－９イチロビルＢ１階越株式会社（7012801022561）に合併し解散,2018-01-19,1,,,,,サンライン,0
1242,6011602000752,登記記録の閉鎖等,0,2025-09-02,2025-08-14,有限会社一誠,,有限会社,東京都,練馬区,早宮１丁目４９番２２号,,13,120,1790085,,,2025-08-14,清算の結了等,,,2015-10-05,1,,,,,,0
1247,6012305001468,登記記録の閉鎖等,0,2025-09-02,2025-08-27,特定非営利活動法人法政クラブ,,その他の設立登記法人,東京都,町田市,相原町４３４２番地,,13,209,1940211,,,2025-08-27,清算の結了等,,,2015-10-05,1,,,,,ホウセイクラブ,0
1250,6012402003549,登記記録の閉鎖等,0,2025-09-02,2025-07-30,有限会社斉藤スポーツ,,有限会社,東京都,国分寺市,本町３丁目１２番２号,,13,214,1850012,,,2025-07-30,清算の結了等,,,2015-10-05,1,,,,,サイトウスポーツ,0
1252,6012801017100,登記記録の閉鎖等,0,2025-09-02,2025-08-04,株式会社オフィスレジェンド,,株式会社,東京都,港区,南青山２丁目２番１５号ウィン青山３１１,,13,103,1070062,,,2025-08-04,清算の結了等,,,2016-03-02,1,,,,,オフィスレジェンド,0
1256,6013301034065,登記記録の閉鎖等,0,2025-09-02,2025-08-25,ＫＡＲＡ　Ｃｏｍｐａｎｙ株式会社,,株式会社,東京都,大田区,矢口１丁目１３－１５北嶋ビル１Ｆ,,13,111,1460093,,,2025-08-25,清算の結了等,,,2015-10-05,1,,,,,カラカンパニー,0
1279,6030002117131,登記記録の閉鎖等,0,2025-09-02,2025-08-26,有限会社文化印刷所,,有限会社,埼玉県,深谷市,西島町２丁目６番地６,,11,218,3660824,,,2025-08-26,清算の結了等,,,2025-06-04,1,,,,,ブンカインサツジョ,0
1282,6040001035267,登記記録の閉鎖等,0,2025-09-02,2025-08-07,株式会社久保,,株式会社,千葉県,松戸市,新松戸５丁目１番地新松戸中央パークハウスＡ－５１８,,12,207,2700034,,,2025-08-07,清算の結了等,,,2015-10-05,1,,,,,クボ,0
1301,6100001033405,登記記録の閉鎖等,0,2025-09-02,2025-08-29,株式会社いそや写真事務所,,株式会社,長野県,松本市,平田東３丁目３１番３号,,20,202,3990014,,,2025-08-29,清算の結了等,,,2020-08-11,1,,,,,イソヤシャシンジムショ,0
1304,6100002030938,登記記録の閉鎖等,0,2025-09-02,2025-08-29,有限会社内澤総合計算センター,,有限会社,長野県,岡谷市,本町２丁目４番８号,,20,204,3940028,,,2025-08-29,清算の結了等,,,2015-10-05,1,,,,,ウチザワソウゴウケイサンセンター,0
1305,6120001169387,登記記録の閉鎖等,0,2025-09-02,2025-08-26,株式会社森聖,,株式会社,大阪府,大阪市西区,江之子島１丁目７番５号三欣ビル２０３,,27,106,5500006,,,2025-08-26,清算の結了等,,,2015-10-05,1,,,,,モリセイ,0
1312,6120002045926,登記記録の閉鎖等,0,2025-09-02,2025-08-22,有限会社ナビック,,有限会社,大阪府,大阪市大正区,泉尾５丁目１３番５号,,27,108,5510031,,,2025-08-22,清算の結了等,,,2015-10-05,1,,,,,ナビック,0
1324,6130001005962,登記記録の閉鎖等,0,2025-09-02,2025-08-19,株式会社上田晃郷デザイン室,,株式会社,京都府,京都市左京区,一乗寺染殿町３番地一乗寺コーポラス７０７号,,26,103,6068174,,,2025-08-19,清算の結了等,,,2015-10-05,1,,,,,ウエダアキサトデザインシツ,0
1325,6130001006110,登記記録の閉鎖等,0,2025-09-02,2025-08-20,小野不動産株式会社,,株式会社,京都府,京都市左京区,吉田中阿達町３８番地,,26,103,6068306,,,2025-08-20,清算の結了等,,,2015-10-05,1,,,,,オノフドウサン,0
1326,6130001074132,登記記録の閉鎖等,0,2025-09-02,2025-08-20,石永堂ホールディングス株式会社,,株式会社,京都府,京都市右京区,西院月双町５１番地,,26,108,6150054,,,2025-08-20,清算の結了等,,,2023-04-19,1,,,,,セキエイドウホールディングス,0
1330,6140001036354,登記記録の閉鎖等,0,2025-09-02,2025-08-27,株式会社ジェー・アイ・ケー,,株式会社,兵庫県,三木市,細川町脇川４５５番地の７,,28,215,6730722,,,2025-08-27,清算の結了等,,,2015-10-05,1,,,,,ジェーアイケー,0
1360,6180302001169,登記記録の閉鎖等,0,2025-09-02,2025-08-26,有限会社光雄,,有限会社,愛知県,岡崎市,福岡町字上流１００番地３,,23,202,4440825,,,2025-08-26,清算の結了等,,,2015-10-05,1,,,,,コウユウ,0
1369,6210005009019,登記記録の閉鎖等,0,2025-09-02,2025-08-28,特定非営利活動法人スリランカＦＥＳ協会,,その他の設立登記法人,福井県,福井市,文京３丁目１１番２号,,18,201,9100017,,,2025-08-28,清算の結了等,,,2015-10-05,1,,,,,スリランカエフイーエスキョウカイ,0
1370,6220001017718,登記記録の閉鎖等,0,2025-09-02,2025-08-29,株式会社山本設備,,株式会社,石川県,河北郡津幡町,字種ラ４０番地１,,17,361,9290307,,,2025-08-29,清算の結了等,,,2015-10-05,1,,,,,ヤマモトセツビ,0
1381,6290001035614,登記記録の閉鎖等,0,2025-09-02,2025-09-01,株式会社Ｓｏｎｎｅ,,株式会社,東京都,世田谷区,若林５丁目２番４号,,13,112,1540023,,,2025-09-01,清算の結了等,,,2015-10-05,1,,,,,ゾンネ,0
1382,6290001055281,登記記録の閉鎖等,0,2025-09-02,2025-08-07,株式会社碓井保険事務所,,株式会社,福岡県,うきは市,吉井町１００２番地２２,,40,225,8391321,,,2025-08-07,清算の結了等,,,2015-10-05,1,,,,,ウスイホケンジムショ,0
1391,6320002001132,登記記録の閉鎖等,0,2025-09-02,2025-08-29,有限会社上野設備,,有限会社,大分県,大分市,大字松岡１７５６番地の３,,44,201,8700125,,,2025-08-29,清算の結了等,,,2015-10-05,1,,,,,ウエノセツビ,0
1394,6330003006393,登記記録の閉鎖等,0,2025-09-02,2025-08-08,スマイル合同会社,,合同会社,熊本県,熊本市東区,小山６丁目１６番７号,,43,102,8618045,,,2025-08-08,清算の結了等,,,2015-10-05,1,,,,,スマイル,0
1419,6430001085702,登記記録の閉鎖等,0,2025-09-02,2025-08-14,株式会社Ｃｏｎｃｉｅｒ　Ｓａｐｐｏｒｏ,,株式会社,北海道,札幌市中央区,北四条西１５丁目１番地１５グランファーレ知事公館レジデンス１３０１号,,01,101,0600004,,,2025-08-14,清算の結了等,,,2022-01-05,1,,,,,コンシェルサッポロ,0
1423,6430003008256,登記記録の閉鎖等,0,2025-09-02,2025-08-12,合同会社Ｌ．Ｉ．Ｇ,,合同会社,北海道,札幌市東区,伏古一条２丁目４番１２－２号,,01,103,0070861,,,2025-08-12,清算の結了等,,,2017-03-06,1,,,,,エルアイジー,0
1424,6470001000079,登記記録の閉鎖等,0,2025-09-02,2025-09-01,株式会社上原不動産事務所,,株式会社,香川県,高松市,牟礼町原４７１番地１,,37,201,7610123,,,2025-09-01,清算の結了等,,,2015-10-05,1,,,,,ウエハラフドウサンジムショ,0
1428,6500005006275,登記記録の閉鎖等,0,2025-09-02,2025-09-01,宗教法人太霊教,,その他の設立登記法人,愛媛県,宇和島市,桝形町１丁目２番４号,,38,203,7980067,,,2025-09-01,清算の結了等,,,2015-10-05,1,,,,,タイレイキョウ,0
1461,7010501044199,登記記録の閉鎖等,0,2025-09-02,2025-08-21,株式会社ＰＨＡＲＭＡ　ＳＨＩＦＴ,,株式会社,東京都,目黒区,下目黒６丁目１９－７ウィングスガーデン２０１,,13,110,1530064,,,2025-08-21,清算の結了等,,,2019-06-03,1,,,,,ファーマシフト,0
1473,7011005006545,登記記録の閉鎖等,0,2025-09-02,2025-08-26,一般社団法人未知倶楽部,,その他の設立登記法人,東京都,渋谷区,本町３丁目１２番１号,,13,113,1510071,,,2025-08-26,清算の結了等,,,2015-11-10,1,,,,,ミチクラブ,0
1477,7011101105201,登記記録の閉鎖等,0,2025-09-02,2025-08-05,株式会社エテルネル,,株式会社,東京都,新宿区,西新宿３丁目３番１３号西新宿水間ビル６階,,13,104,1600023,,,2025-08-05,清算の結了等,,,2023-11-21,1,,,,,エテルネル,0
1490,7011703003298,登記記録の閉鎖等,0,2025-09-02,2025-08-26,三七三合同会社,,合同会社,埼玉県,春日部市,八丁目２１番地１,,11,214,3440006,,,2025-08-26,清算の結了等,,,2022-11-11,1,,,,,ミナミ,0
1500,7020001145190,登記記録の閉鎖等,0,2025-09-02,2025-08-01,株式会社むすび,,株式会社,神奈川県,横浜市都筑区,川和町１４７１番地コーポナカヤＩＩ－２０１号,00125688,14,118,2240057,,,2025-08-01,合併による解散等,2020001104457,令和７年８月１日横浜市都筑区茅ケ崎南一丁目１－１－７１６廣株式会社（2020001104457）に合併し解散,2022-02-10,1,,,,,ムスビ,0
1505,7020002082887,登記記録の閉鎖等,0,2025-09-02,2025-08-18,有限会社イヅミ製作所,,有限会社,神奈川県,川崎市中原区,上平間５５９番地,,14,133,2110013,,,2025-08-18,清算の結了等,,,2015-10-05,1,,,,,,0
1508,7021001002927,登記記録の閉鎖等,0,2025-09-02,2025-08-14,株式会社ＫＡＺＵ,,株式会社,神奈川県,藤沢市,石川１丁目３１－３中田アンテナビル３０５号,,14,205,2520815,,,2025-08-14,清算の結了等,,,2015-10-05,1,,,,,カズ,0
1527,7030003017718,登記記録の閉鎖等,0,2025-09-02,2025-08-27,合同会社Ｍｂ,,合同会社,埼玉県,さいたま市西区,大字宝来１６８７番地２,,11,101,3310074,,,2025-08-27,合併による解散等,4030001083293,令和７年８月１９日埼玉県川口市青木二丁目６番４３号株式会社ビーウィッシュ（4030001083293）に合併し解散,2021-08-04,1,,,,,エムビー,0
1531,7040001006770,登記記録の閉鎖等,0,2025-09-02,2025-08-20,平安物産株式会社,,株式会社,千葉県,千葉市若葉区,都賀３丁目５番１２号,,12,104,2640025,,,2025-08-20,合併による解散等,1040001002437,令和７年８月１１日千葉市中央区都町八丁目６番１７号寿商事株式会社（1040001002437）に合併し解散,2015-10-05,1,,,,,ヘイアンブッサン,0
1549,7070001005811,登記記録の閉鎖等,0,2025-09-02,2025-08-26,株式会社テクノファ関東,,株式会社,群馬県,前橋市,昭和町３丁目２６番２８号,,10,201,3710034,,,2025-08-26,清算の結了等,,,2015-10-05,1,,,,,テクノファカントウ,0
1550,7070001011735,登記記録の閉鎖等,0,2025-09-02,2025-08-27,株式会社小嶋精工,,株式会社,群馬県,富岡市,中高瀬６２７番地,,10,210,3702333,,,2025-08-27,清算の結了等,,,2015-10-05,1,,,,,コジマセイコウ,0
1553,7080102017151,登記記録の閉鎖等,0,2025-09-02,2025-08-29,富士宮ホーム有限会社,,有限会社,静岡県,富士宮市,淀平町７５５番地の１,,22,207,4180052,,,2025-08-29,清算の結了等,,,2015-10-05,1,,,,,フジノミヤホーム,0
1559,7110001019765,登記記録の閉鎖等,0,2025-09-02,2025-08-28,中日本信和株式会社,,株式会社,新潟県,上越市,大字上千原２６６７番地１６,,15,222,9420035,,,2025-08-28,合併による解散等,5230001003346,令和７年８月２７日富山市飯野１番１山口アルク株式会社（5230001003346）に合併し解散,2015-10-05,1,,,,,ナカニホンシンワ,0
1560,7120001043459,登記記録の閉鎖等,0,2025-09-02,2025-08-22,株式会社栄工芸,,株式会社,大阪府,大阪市西区,南堀江３丁目１６番９号,,27,106,5500015,,,2025-08-22,清算の結了等,,,2015-10-05,1,,,,,サカエコウゲイ,0
1580,7130001035455,登記記録の閉鎖等,0,2025-09-02,2025-08-21,株式会社乾建材,,株式会社,京都府,亀岡市,東別院町倉谷高井田６番地,,26,206,6210113,,,2025-08-21,清算の結了等,,,2015-10-05,1,,,,,イヌイケンザイ,0
1602,7180001147832,登記記録の閉鎖等,0,2025-09-02,2025-08-08,Ｊ＆Ｂｅｌｌｅ株式会社,,株式会社,愛知県,名古屋市天白区,高島２丁目１８１２番地の１,,23,116,4680022,,,2025-08-08,清算の結了等,,,2021-09-15,1,,,,,ジェイアンドベル,0
1605,7180003023817,登記記録の閉鎖等,0,2025-09-02,2025-08-06,ＯＨＡＮＡＢＩ合同会社,,合同会社,愛知県,江南市,村久野町寺東１５９番地,,23,217,4838319,,,2025-08-06,清算の結了等,,,2022-05-10,1,,,,,オハナビ,0
1606,7180301010847,登記記録の閉鎖等,0,2025-09-02,2025-08-26,株式会社小田,,株式会社,愛知県,蒲郡市,丸山町２番７号,,23,214,4430032,,,2025-08-26,清算の結了等,,,2015-10-05,1,,,,,オダ,0
1608,7180302002579,登記記録の閉鎖等,0,2025-09-02,2025-08-26,有限会社プロセスアスカ,,有限会社,愛知県,岡崎市,栄町２丁目３２番地８,,23,202,4440012,,,2025-08-26,清算の結了等,,,2015-10-05,1,,,,,プロセスアスカ,0
1615,7230002005397,登記記録の閉鎖等,0,2025-09-02,2025-08-29,有限会社バニラバニラ,,有限会社,富山県,富山市,藤木１７３８番地,,16,201,9300936,,,2025-08-29,清算の結了等,,,2015-10-05,1,,,,,バニラバニラ,0
1624,7290002008139,登記記録の閉鎖等,0,2025-09-02,2025-08-06,有限会社燦プラン,,有限会社,福岡県,福岡市西区,愛宕１丁目１０番７－１０２号,,40,135,8190015,,,2025-08-06,清算の結了等,,,2015-10-05,1,,,,,サンプラン,0
1631,7320005009857,登記記録の閉鎖等,0,2025-09-02,2025-08-14,一般社団法人しあわせな時間,,その他の設立登記法人,大分県,別府市,大字亀川１８７３番地,,44,202,8740000,,,2025-08-14,清算の結了等,,,2021-02-02,1,,,,,シアワセナトキ,0
1650,7430003013949,登記記録の閉鎖等,0,2025-09-02,2025-08-12,合同会社シーエスオー,,合同会社,北海道,浦河郡浦河町,潮見町１７番地の４５,,01,607,0570021,,,2025-08-12,清算の結了等,,,2022-05-25,1,,,,,シーエスオー,0
1652,7460301001280,登記記録の閉鎖等,0,2025-09-02,2025-08-29,株式会社インフィニティ・プラス,,株式会社,北海道,北見市,広郷３７２番地１,,01,208,0991586,,,2025-08-29,清算の結了等,,,2015-10-05,1,,,,,インフィニティプラス,0
1671,8010003035233,登記記録の閉鎖等,0,2025-09-02,2025-08-05,南麻布プロパティー合同会社,,合同会社,東京都,千代田区,丸の内１丁目１１番１号,,13,101,1000005,,,2025-08-05,清算の結了等,,,2021-07-07,1,,,,,ミナミアザブプロパティー,0
1676,8010005038639,登記記録の閉鎖等,0,2025-09-02,2025-08-08,一般社団法人ＩＲＳ５,,その他の設立登記法人,東京都,千代田区,丸の内１丁目４番１号東京共同会計事務所内,,13,101,1000005,,,2025-08-08,清算の結了等,,,2024-08-06,1,,,,,アイアールエスファイブ,0
1680,8010401019655,登記記録の閉鎖等,0,2025-09-02,2025-07-31,株式会社ところ会計事務所,,株式会社,東京都,港区,新橋３丁目２６番３号,,13,103,1050004,,,2025-07-31,合併による解散等,5010001082585,令和７年７月３１日東京都港区新橋三丁目２６番３号株式会社ティーオー食研（5010001082585）に合併し解散,2015-10-05,1,,,,,トコロカイケイジムショ,0
1695,8010501007287,登記記録の閉鎖等,0,2025-09-02,2025-08-21,株式会社田中和紙,,株式会社,東京都,台東区,浅草橋３丁目３３番６号,,13,106,1110053,,,2025-08-21,清算の結了等,,,2015-10-05,1,,,,,タナカワシ,0
1708,8011001143754,登記記録の閉鎖等,0,2025-09-02,2025-08-01,株式会社オルシア,,株式会社,東京都,渋谷区,恵比寿４丁目３番１－７０８号,,13,113,1500013,,,2025-08-01,合併による解散等,6011001129747,令和７年８月１日東京都渋谷区恵比寿四丁目３番１号クイズ恵比寿７０８号室株式会社ＥＡＲＸ（6011001129747）に合併し解散,2021-11-02,1,,,,,オルシア,0
1712,8011101070361,登記記録の閉鎖等,0,2025-09-02,2025-08-25,株式会社Ｄｅｓｉｇｎ　ＺＥＮＢＵ　Ｐａｔ．,,株式会社,大阪府,門真市,末広町３６番１０号アドラブール古川橋ウエスト,,27,223,5710030,,,2025-08-25,清算の結了等,,,2015-10-05,1,,,,,デザインゼンブパット,0
1720,8011501025907,登記記録の閉鎖等,0,2025-09-02,2025-08-27,ＢＥＹＯＮＤ　ＴＲＡＤＩＮＧ　ＩＮＣ．株式会社,,株式会社,埼玉県,上尾市,大字領家字山下１２２０番地３,,11,219,3620066,,,2025-08-27,清算の結了等,,,2020-06-10,1,,,,,ビヨンドトレーディングインク,0
1725,8012402003423,登記記録の閉鎖等,0,2025-09-02,2025-08-29,有限会社キャドテック,,有限会社,栃木県,小山市,東間々田２丁目３７番２５号ラ・セゾン司１０１号室,,09,208,3290206,,,2025-08-29,清算の結了等,,,2015-10-05,1,,,,,キャドテック,0
1736,8020003017164,登記記録の閉鎖等,0,2025-09-02,2025-08-15,合同会社Ｓｐｕｒ,,合同会社,神奈川県,横浜市金沢区,西柴１丁目１番２号,,14,108,2360017,,,2025-08-15,清算の結了等,,,2020-01-08,1,,,,,シュプール,0
1740,8021002022790,登記記録の閉鎖等,0,2025-09-02,2025-08-14,有限会社富所不動産,00013214,有限会社,神奈川県,相模原市中央区,千代田５丁目８番６号,,14,152,2520237,,,2025-08-14,清算の結了等,,,2015-10-05,1,,,,,トミドコロフドウサン,0
1748,8030001161005,登記記録の閉鎖等,0,2025-09-02,2025-08-27,株式会社ＬＩＦＥ　ＩＮＦＩＮＩＴＹ,,株式会社,埼玉県,入間市,東藤沢７丁目１６番３７号,,11,225,3580012,,,2025-08-27,清算の結了等,,,2024-06-19,1,,,,,ライフインフィニティ,0
1756,8030002005994,登記記録の閉鎖等,0,2025-09-02,2025-08-22,有限会社サイフジ,,有限会社,埼玉県,さいたま市北区,本郷町１１６７番地の１,,11,102,3310802,,,2025-08-22,清算の結了等,,,2015-10-05,1,,,,,サイフジ,0
1762,8030003020423,登記記録の閉鎖等,0,2025-09-02,2025-08-27,逸喜合同会社,,合同会社,埼玉県,熊谷市,石原２丁目１４番地１ビレッタ熊谷１０４号,,11,202,3600816,,,2025-08-27,清算の結了等,,,2022-10-18,1,,,,,イツキ,0
1764,8040003010992,登記記録の閉鎖等,0,2025-09-02,2025-08-15,三国間貿易輸送合同会社,,合同会社,千葉県,大網白里市,みずほ台３丁目１０番９号,,12,239,2993234,,,2025-08-15,清算の結了等,,,2017-12-18,1,Triangular Trade Transport LLC,Chiba,"3-10-9 Mizuhodai, Oamishirasato shi",,サンゴクカンボウエキユソウ,0
1770,8060002012781,登記記録の閉鎖等,0,2025-09-02,2025-08-29,有限会社永島薬局,,有限会社,栃木県,さくら市,氏家１８４７番地４,,09,214,3291311,,,2025-08-29,清算の結了等,,,2015-10-05,1,,,,,ナガシマヤッキョク,0
1780,8120001012223,登記記録の閉鎖等,0,2025-09-02,2025-09-01,株式会社コスモ,,株式会社,大阪府,大阪市天王寺区,生玉前町５番２５－８０４号,,27,109,5430072,,,2025-09-01,清算の結了等,,,2015-10-05,1,,,,,コスモ,0
1791,8120001247975,登記記録の閉鎖等,0,2025-09-02,2025-08-22,ララシステムズ株式会社,,株式会社,大阪府,大阪市中央区,南久宝寺町２丁目５番１０－６０２号,,27,128,5410058,,,2025-08-22,清算の結了等,,,2022-08-08,1,,,,,ララシステムズ,0
1797,8120002017221,登記記録の閉鎖等,0,2025-09-02,2025-08-26,有限会社梅田商会,,有限会社,大阪府,大阪市住吉区,遠里小野２丁目２番２４号,,27,120,5580032,,,2025-08-26,清算の結了等,,,2015-10-05,1,,,,,ウメダショウカイ,0
1800,8120003010646,登記記録の閉鎖等,0,2025-09-02,2025-08-25,大阪中央電力合同会社,,合同会社,大阪府,泉佐野市,鶴原１８４７番地１－３０１号,,27,213,5980071,,,2025-08-25,清算の結了等,,,2015-10-05,1,,,,,オオサカチュウオウデンリョク,0
1807,8120901032691,登記記録の閉鎖等,0,2025-09-02,2025-08-18,株式会社インフィニティライン,,株式会社,京都府,乙訓郡大山崎町,字下植野小字山王前５,,26,303,6180081,,,2025-08-18,清算の結了等,,,2015-10-05,1,,,,,インフィニティライン,0
1827,8140005027100,登記記録の閉鎖等,0,2025-09-02,2025-08-29,労働者協同組合みんなの家セラビィ,,その他の設立登記法人,兵庫県,神戸市垂水区,平磯３丁目３－４,,28,108,6550892,,,2025-08-29,清算の結了等,,,2024-06-04,1,,,,,ミンナノイエセラビィ,0
1835,8180001076080,登記記録の閉鎖等,0,2025-09-02,2025-08-08,大資機販株式会社,,株式会社,愛知県,小牧市,大字三ツ渕字済田１７４９番地の５,,23,219,4850075,,,2025-08-08,清算の結了等,,,2015-10-05,1,,,,,ダイシキハン,0
1836,8180001077608,登記記録の閉鎖等,0,2025-09-02,2025-08-08,株式会社ペットワールドサービス,,株式会社,愛知県,一宮市,森本５丁目１７番２７号,,23,203,4910831,,,2025-08-08,清算の結了等,,,2015-10-05,1,,,,,ペットワールドサービス,0
1856,8210001001266,登記記録の閉鎖等,0,2025-09-02,2025-08-29,小西薬品商事株式会社,,株式会社,福井県,福井市,町屋３丁目１３番１３号,,18,201,9100002,,,2025-08-29,清算の結了等,,,2015-10-05,1,,,,,コニシヤクヒンショウジ,0
1861,8250002000973,登記記録の閉鎖等,0,2025-09-02,2025-08-29,有限会社中央印刷社,,有限会社,山口県,山口市,朝田４８番地の１,,35,203,7530871,,,2025-08-29,清算の結了等,,,2015-10-05,1,,,,,チュウオウインサツシャ,0
1875,8340002007340,登記記録の閉鎖等,0,2025-09-02,2025-08-27,有限会社西元商会,,有限会社,鹿児島県,鹿児島市,堀江町３番１６号,,46,201,8920824,,,2025-08-27,清算の結了等,,,2015-10-05,1,,,,,ニシモトショウカイ,0
1879,8360003011496,登記記録の閉鎖等,0,2025-09-02,2025-08-19,合同会社ｃｈｅｅｓｅ,,合同会社,沖縄県,浦添市,伊祖２丁目１４番８号Ｌｕｃｅ・ｓｏｌａｒｅ４０３号,,47,208,9012132,,,2025-08-19,清算の結了等,,,2021-10-11,1,,,,,チーズ,0
1893,8420001016937,登記記録の閉鎖等,0,2025-09-02,2025-08-25,弘前ＢＲＩＣＫ株式会社,,株式会社,青森県,弘前市,大字吉野町２－１１,,02,202,0368188,,,2025-08-25,清算の結了等,,,2020-03-25,1,,,,,ヒロサキブリック,0
1921,9010003035232,登記記録の閉鎖等,0,2025-09-02,2025-08-05,プラチナプロパティー合同会社,,合同会社,東京都,千代田区,丸の内１丁目１１番１号,,13,101,1000005,,,2025-08-05,清算の結了等,,,2021-07-07,1,,,,,プラチナプロパティー,0
1972,9011605002347,登記記録の閉鎖等,0,2025-09-02,2025-08-19,一般社団法人オンラインコミュニケーション研究所,,その他の設立登記法人,東京都,練馬区,高松４丁目６番１号,,13,120,1790075,,,2025-08-19,清算の結了等,,,2021-02-09,1,,,,,オンラインコミュニケーションケンキュウジョ,0
1978,9012402021093,登記記録の閉鎖等,0,2025-09-02,2025-08-26,有限会社ジェイ・エヌ・ケイ,,有限会社,東京都,杉並区,荻窪５丁目１８番９号,,13,115,1670051,,,2025-08-26,清算の結了等,,,2015-10-05,1,,,,,ジェイエヌケイ,0
1984,9020001124300,登記記録の閉鎖等,0,2025-09-02,2025-08-18,横浜施設運営サポート株式会社,,株式会社,神奈川県,横浜市都筑区,見花山１番３０号見花山ビル３Ｆ,,14,118,2240066,,,2025-08-18,清算の結了等,,,2017-12-15,1,,,,,ヨコハマシセツウンエイサポート,0
1997,9030001008915,登記記録の閉鎖等,0,2025-09-02,2025-08-27,株式会社和幸,,株式会社,埼玉県,さいたま市中央区,大字下落合１０７９番地２号,,11,105,3380002,,,2025-08-27,清算の結了等,,,2015-10-05,1,,,,,ワコウ,0
2009,9030002028648,登記記録の閉鎖等,0,2025-09-02,2025-08-27,有限会社オクムラ,,有限会社,埼玉県,所沢市,林３丁目５４５番地の４０,,11,208,3591167,,,2025-08-27,清算の結了等,,,2015-10-05,1,,,,,オクムラ,0
2016,9040001115355,登記記録の閉鎖等,0,2025-09-02,2025-08-04,株式会社Ｓ－ｕｐ,,株式会社,千葉県,柏市,大島田４４４番地１,,12,217,2770922,,,2025-08-04,合併による解散等,2040001110313,令和７年８月１日千葉県柏市大島田４４４番地１いろはケンキョー株式会社（2040001110313）に合併し解散,2020-10-07,1,,,,,,0
2019,9040002054866,登記記録の閉鎖等,0,2025-09-02,2025-08-05,有限会社栄建,,有限会社,千葉県,成田市,本城２０９番地の５,,12,211,2860114,,,2025-08-05,清算の結了等,,,2015-10-05,1,,,,,エイケン,0
2060,9120003008235,登記記録の閉鎖等,0,2025-09-02,2025-08-18,合同会社ＤｏｃｕｍｅｎｔＬａｂ,,合同会社,大阪府,大阪市北区,梅田１丁目１１番４号大阪駅前第４ビル９階９２３－７９５号,,27,127,5300001,,,2025-08-18,清算の結了等,,,2015-10-05,1,,,,,ドキュメントラボ,0
2062,9120901031032,登記記録の閉鎖等,0,2025-09-02,2025-08-21,株式会社オフィスエム,,株式会社,兵庫県,宝塚市,寿町９番１０号,,28,214,6650865,,,2025-08-21,清算の結了等,,,2015-10-05,1,,,,,オフィスエム,0
2065,9120901048720,登記記録の閉鎖等,0,2025-09-02,2025-08-26,株式会社じゃりにてぃ,,株式会社,大阪府,吹田市,南金田２丁目１６番１０号糸田リバー５０５,,27,205,5640044,,,2025-08-26,清算の結了等,,,2024-02-05,1,,,,,ジャリニティ,0
2070,9130002014778,登記記録の閉鎖等,0,2025-09-02,2025-08-21,有限会社福田製本所,,有限会社,京都府,京都市伏見区,大宮町５７５番地の３,,26,109,6128078,,,2025-08-21,清算の結了等,,,2015-10-05,1,,,,,フクダセイホンショ,0
2073,9140001038018,登記記録の閉鎖等,0,2025-09-02,2025-08-27,株式会社インザリバー,,株式会社,兵庫県,神戸市中央区,山本通２丁目８－１５ローズガーデン地下１階Ｂ１０１,,28,110,6500003,,,2025-08-27,清算の結了等,,,2015-10-05,1,"In The River Co.,Ltd.",Hyogo,"Rose Garden B101, 2-8-15, Yamamotodori, Chuo ku Kobe shi",,インザリバー,0
2085,9180002019302,登記記録の閉鎖等,0,2025-09-02,2025-08-08,有限会社本田機工,,有限会社,愛知県,名古屋市中川区,畑田町４丁目６番地,,23,110,4540860,,,2025-08-08,清算の結了等,,,2015-10-05,1,,,,,ホンダキコウ,0
2088,9180003013386,登記記録の閉鎖等,0,2025-09-02,2025-08-08,合同会社ｏｆｆｉｃｅ　Ｋ,,合同会社,愛知県,半田市,協和町２丁目９２番地,,23,205,4750854,,,2025-08-08,清算の結了等,,,2015-10-05,1,,,,,オフィスケイ,0
2092,9180302026642,登記記録の閉鎖等,0,2025-09-02,2025-08-28,有限会社中原屋,,有限会社,愛知県,西尾市,伊文町５８番地５,,23,213,4450822,,,2025-08-28,清算の結了等,,,2015-10-05,1,,,,,ナカハラヤ,0
2109,9290001001778,登記記録の閉鎖等,0,2025-09-02,2025-08-01,藤機産業株式会社,,株式会社,福岡県,福岡市南区,大楠１丁目３０番２６号トーキビル,,40,134,8150082,,,2025-08-01,清算の結了等,,,2025-01-28,1,,,,,,0
2119,9300001010810,登記記録の閉鎖等,0,2025-09-02,2025-09-01,株式会社久富重機,,株式会社,佐賀県,鳥栖市,村田町１５２０番地３,,41,203,8410072,,,2025-09-01,清算の結了等,,,2017-05-08,1,,,,,,0
2127,9320001016244,登記記録の閉鎖等,0,2025-09-02,2025-08-29,株式会社駿和,,株式会社,大分県,臼杵市,野津町大字宮原１６番地の２,,44,206,8750233,,,2025-08-29,清算の結了等,,,2018-03-20,1,,,,,シュンワ,0
2145,9420002014088,登記記録の閉鎖等,0,2025-09-02,2025-08-22,有限会社弘前ハイム,,有限会社,青森県,弘前市,大字桜ケ丘５丁目１番地１０,,02,202,0368241,,,2025-08-22,清算の結了等,,,2015-10-05,1,,,,,ヒロサキハイム,0
2147,9490001004091,登記記録の閉鎖等,0,2025-09-02,2025-09-01,高知ＦＥＬ株式会社,,株式会社,高知県,高知市,東雲町３番１号,,39,201,7810805,,,2025-09-01,清算の結了等,,,2015-10-05,1,,,,,コウチエフイーエル,0
