sequenceNumber,corporateNumber,process,correct,updateDate,changeDate,name,nameImageId,kind,prefectureName,cityName,streetNumber,addressImageId,prefectureCode,cityCode,postCode,addressOutside,addressOutsideImageId,closeDate,closeCause,successorCorporateNumber,changeCause,assignmentDate,latest,enName,enPrefectureName,enCityName,enAddressOutside,furigana,hihyoji
10,1010001220248,新規,0,2021-08-12,2021-08-12,株式会社別荘研究所,,株式会社,東京都,中央区,銀座６丁目１０番１号ＧＩＮＺＡＳＩＸ,,13,102,1040061,,,,,,,2021-08-12,1,,,,,ベッソウケンキュウジョ,0
11,1010001220256,新規,0,2021-08-12,2021-08-12,株式会社クラウディオサステナビリティ,,株式会社,東京都,中央区,銀座１丁目１６番７号,,13,102,1040061,,,,,,,2021-08-12,1,,,,,クラウディオサステナビリティ,0
12,1010001220371,新規,0,2021-08-12,2021-08-12,株式会社ディーケー,,株式会社,東京都,中央区,日本橋久松町１０番６号ＦＴ日本橋久松町ビル８階,,13,102,1030005,,,,,,,2021-08-12,1,,,,,ディーケー,0
13,1010003035561,新規,0,2021-08-12,2021-08-12,アスターアクイジション合同会社２７,,合同会社,東京都,千代田区,丸の内３丁目１番１号東京共同会計事務所内,,13,101,1000005,,,,,,,2021-08-12,1,,,,,アスターアクイジションニナナ,0
14,1010003035578,新規,0,2021-08-12,2021-08-12,サイバーメトリック合同会社,,合同会社,東京都,千代田区,丸の内２丁目３番２号,,13,101,1000005,,,,,,,2021-08-12,1,,,,,サイバーメトリック,0
23,1010401162016,新規,0,2021-08-12,2021-08-12,株式会社リビットミー,,株式会社,東京都,港区,芝大門２丁目２番１号,,13,103,1050012,,,,,,,2021-08-12,1,,,,,リビットミー,0
24,1010401162049,新規,0,2021-08-12,2021-08-12,Ａｋｕｕｒａ　Ｗｏｒｋｓ株式会社,,株式会社,東京都,港区,南青山２丁目２番１５号ウィン青山９４２,,13,103,1070062,,,,,,,2021-08-12,1,,,,,アクウラワークス,0
25,1010401162057,新規,0,2021-08-12,2021-08-12,株式会社インサイドセールスコンサルティング,,株式会社,東京都,港区,六本木３丁目１６番８－２０３号,,13,103,1060032,,,,,,,2021-08-12,1,,,,,インサイドセールスコンサルティング,0
29,1010403025897,新規,0,2021-08-12,2021-08-12,ａｒｏｍａ　ｂｅａｕｔｙ合同会社,,合同会社,東京都,港区,南青山２丁目２番１５号,,13,103,1070062,,,,,,,2021-08-12,1,,,,,アロマビューティー,0
48,1011001142168,新規,0,2021-08-12,2021-08-12,株式会社ｉｄｅａｌ,,株式会社,東京都,渋谷区,神宮前６丁目２３番４号桑野ビル２階,,13,113,1500001,,,,,,,2021-08-12,1,,,,,アイディール,0
49,1011001142176,新規,0,2021-08-12,2021-08-12,アイベックスカード株式会社,,株式会社,東京都,渋谷区,渋谷３丁目１７番４号山口ビル３Ｆ,,13,113,1500002,,,,,,,2021-08-12,1,,,,,アイベックスカード,0
50,1011001142218,新規,0,2021-08-12,2021-08-12,株式会社ミュージアムマン,,株式会社,東京都,渋谷区,恵比寿１丁目１９番１９号恵比寿ビジネスタワー１０Ｆ,,13,113,1500013,,,,,,,2021-08-12,1,,,,,ミュージアムマン,0
51,1011001142234,新規,0,2021-08-12,2021-08-12,ツリーマインド株式会社,,株式会社,東京都,渋谷区,代々木１丁目５７番２－９０５号,,13,113,1510053,,,,,,,2021-08-12,1,,,,,ツリーマインド,0
52,1011003013210,新規,0,2021-08-12,2021-08-12,合同会社厚木猿ヶ島,,合同会社,東京都,渋谷区,千駄ヶ谷４丁目２５番２号修養団ＳＹＤビル株式会社フジタ内,,13,113,1510051,,,,,,,2021-08-12,1,,,,,アツギサルガシマ,0
53,1011101095539,新規,0,2021-08-12,2021-08-12,ＭｙＱｕｅｓｔ株式会社,,株式会社,東京都,新宿区,新宿２丁目１５－２２ｌａｎｄｗｏｒｋ新宿ビル７階,,13,104,1600022,,,,,,,2021-08-12,1,,,,,マイクエスト,0
61,1011501027208,新規,0,2021-08-12,2021-08-12,エマアンドローニー株式会社,,株式会社,東京都,北区,西ケ原３丁目１２番２０号,,13,117,1140024,,,,,,,2021-08-12,1,,,,,エマアンドローニー,0
62,1011503004857,新規,0,2021-08-12,2021-08-12,合同会社エルグロウ,,合同会社,東京都,北区,岩淵町３５－１４池田ハイツ１０１号室,,13,117,1150041,,,,,,,2021-08-12,1,,,,,エルグロウ,0
68,1011801039555,新規,0,2021-08-12,2021-08-12,友菱技研株式会社,,株式会社,東京都,葛飾区,新小岩４丁目２８番１４号,,13,122,1240024,,,,,,,2021-08-12,1,,,,,トモビシギケン,0
72,1013101008694,新規,0,2021-08-12,2021-08-12,多摩アビエーション株式会社,,株式会社,東京都,羽村市,羽東３丁目１２番２３号,,13,227,2050014,,,,,,,2021-08-12,1,,,,,タマアビエーション,0
76,1013303005779,新規,0,2021-08-12,2021-08-12,ＲＯＡＤ合同会社,,合同会社,東京都,豊島区,西池袋５丁目１７番１１－１１０１号,,13,116,1710021,,,,,,,2021-08-12,1,,,,,ロード,0
86,1020001142573,新規,0,2021-08-12,2021-08-12,ＭＡＣ株式会社,,株式会社,神奈川県,川崎市多摩区,長沢１丁目５番１０号第二野村ビル１０２,,14,135,2140035,,,,,,,2021-08-12,1,,,,,エムエーシー,0
87,1020001142581,新規,0,2021-08-12,2021-08-12,株式会社ＡＹ電工,,株式会社,神奈川県,川崎市高津区,東野川１丁目１８番１６号,,14,134,2130029,,,,,,,2021-08-12,1,,,,,エーワイデンコウ,0
93,1020005015164,新規,0,2021-08-12,2021-08-12,特定非営利活動法人かながわ県土サポート２１,,その他の設立登記法人,神奈川県,横浜市都筑区,佐江戸町１７１８番地,,14,118,2240054,,,,,,,2021-08-12,1,,,,,,0
100,1021003010784,新規,0,2021-08-12,2021-08-12,合同会社Ｖ－ＳＹＳＴＥＭ,,合同会社,神奈川県,海老名市,門沢橋３丁目２１番２２号,,14,215,2430426,,,,,,,2021-08-12,1,,,,,ブイシステム,0
101,1021003010792,新規,0,2021-08-12,2021-08-12,鶴亀工務店合同会社,,合同会社,神奈川県,相模原市南区,相南１丁目２－３２カサ・グレージュ１０２,,14,153,2520312,,,,,,,2021-08-12,1,,,,,ツルカメコウムテン,0
115,1040001119776,新規,0,2021-08-12,2021-08-12,株式会社ＦＭＤ,,株式会社,千葉県,船橋市,湊町２丁目１１番３号ＡＳ湊町ビル４０１号室,,12,204,2730011,,,,,,,2021-08-12,1,,,,,エフエムディー,0
122,1050001049691,新規,0,2021-08-12,2021-08-12,株式会社ＧＥＡＲ,,株式会社,茨城県,古河市,茶屋新田２６６番地２７,,08,204,3060051,,,,,,,2021-08-12,1,,,,,ギア,0
151,1120001239509,新規,0,2021-08-12,2021-08-12,株式会社ＳＹＣ　ＰＲＯＪＥＣＴ,,株式会社,大阪府,大阪市中央区,南船場４丁目１２－９クレスト心斎橋４０２,,27,128,5420081,,,,,,,2021-08-12,1,,,,,エスワイシープロジェクト,0
152,1120001239582,新規,0,2021-08-12,2021-08-12,株式会社Ｃо－ＮＮＥＣＴ,,株式会社,大阪府,交野市,星田北１丁目３５番７号,,27,230,5760017,,,,,,,2021-08-12,1,,,,,コネクト,0
153,1120001239657,新規,0,2021-08-12,2021-08-12,株式会社プリモワークス,,株式会社,大阪府,大阪市平野区,平野上町１丁目１１番１７号,,27,126,5470045,,,,,,,2021-08-12,1,,,,,プリモワークス,0
154,1120001239673,新規,0,2021-08-12,2021-08-12,株式会社ＣＨＡＮＣＥ,,株式会社,大阪府,大阪市浪速区,桜川４丁目３番２６－９０３号,,27,111,5560022,,,,,,,2021-08-12,1,,,,,チャンス,0
155,1120001239723,新規,0,2021-08-12,2021-08-12,ＦＡＳＴＭＡＮ株式会社,,株式会社,大阪府,大阪市西区,北堀江３丁目１０番２２号シティライフ有萬２－Ｂ,,27,106,5500014,,,,,,,2021-08-12,1,,,,,ファストマン,0
160,1120005022431,新規,0,2021-08-12,2021-08-12,一般財団法人日本精神医学研究センター,,その他の設立登記法人,大阪府,大阪市北区,梅田１丁目１２番１７号,,27,127,5300001,,,,,,,2021-08-12,1,,,,,ニホンセイシンイガクケンキュウセンター,0
173,1150003002457,新規,0,2021-08-12,2021-08-12,合同会社ただうち企画,,合同会社,奈良県,奈良市,小西町２４番地の１フラッツ小西４０１号,,29,201,6308226,,,,,,,2021-08-12,1,,,,,タダウチキカク,0
176,1160001023553,新規,0,2021-08-12,2021-08-12,株式会社ＨＣドリームカンパニー,,株式会社,滋賀県,大津市,別保２丁目８番３２号,,25,201,5200835,,,,,,,2021-08-12,1,,,,,エイチシードリームカンパニー,0
185,1180003022849,新規,0,2021-08-12,2021-08-12,合同会社ＳＴＥＬＬ　ＤＲＡＧＯＮ,,合同会社,愛知県,津島市,百町字新所６番地１,,23,208,4960017,,,,,,,2021-08-12,1,,,,,スチールドラゴン,0
196,1200003005280,新規,0,2021-08-12,2021-08-12,合同会社アイディエイト,,合同会社,岐阜県,郡上市,大和町剣８８番地２,,21,219,5014612,,,,,,,2021-08-12,1,,,,,アイディエイト,0
218,1250001019063,新規,0,2021-08-12,2021-08-12,西𠀋株式会社,00123915,株式会社,山口県,岩国市,周東町上久原２０８０番地１６,,35,208,7420413,,,,,,,2021-08-12,1,,,,,サイジョウ,0
225,1290805009462,新規,0,2021-08-12,2021-08-12,一般社団法人北九州ネットワークス,,その他の設立登記法人,福岡県,北九州市小倉北区,浅野３丁目８番１号,,40,106,8020001,,,,,,,2021-08-12,1,,,,,キタキュウシュウネットワークス,0
226,1300001012582,新規,0,2021-08-12,2021-08-12,株式会社Ｈａｍａｎｄａ　Ｄａｉｒｙ　Ｆａｒｍ,,株式会社,佐賀県,東松浦郡玄海町,大字平尾２番地６,,41,387,8471432,,,,,,,2021-08-12,1,,,,,ハマンダデイリーファーム,0
227,1300001012590,新規,0,2021-08-12,2021-08-12,株式会社Ｇ－ｓｔｅｐ,,株式会社,佐賀県,神埼市,神埼町城原５６７番地１,,41,210,8420122,,,,,,,2021-08-12,1,,,,,ジーステップ,0
228,1300003001708,新規,0,2021-08-12,2021-08-12,合同会社神埼せふり野あいちゃん農園,,合同会社,佐賀県,神埼市,脊振町広滝９６７番地３,,41,210,8420201,,,,,,,2021-08-12,1,,,,,カンザキセフリノアイチャンノウエン,0
233,1320001018537,新規,0,2021-08-12,2021-08-12,株式会社藤花,,株式会社,大分県,日田市,本庄町２番８号,,44,204,8770046,,,,,,,2021-08-12,1,,,,,フジハナ,0
239,1360001029175,新規,0,2021-08-12,2021-08-12,Ｓｕｎ　ｅａｓｔ株式会社,,株式会社,沖縄県,宜野湾市,宜野湾２丁目１１番１３号,,47,205,9012211,,,,,,,2021-08-12,1,,,,,サンイースト,0
240,1360001029191,新規,0,2021-08-12,2021-08-12,株式会社蒼天,,株式会社,沖縄県,うるま市,字川崎２３２番地７,,47,213,9042203,,,,,,,2021-08-12,1,,,,,ソウテン,0
241,1360001029217,新規,0,2021-08-12,2021-08-12,株式会社ＳＴ．Ｗ,,株式会社,沖縄県,島尻郡八重瀬町,字後原５９番地３,,47,362,9010504,,,,,,,2021-08-12,1,,,,,エスティーダブリュー,0
244,1360003011362,新規,0,2021-08-12,2021-08-12,合同会社Ｓ．Ｔ．Ｎ．,,合同会社,沖縄県,島尻郡八重瀬町,字富盛５２６番地３,,47,362,9010402,,,,,,,2021-08-12,1,,,,,エスティエヌ,0
254,1430001084709,新規,0,2021-08-12,2021-08-12,株式会社Ｌａｎｃｅ,,株式会社,北海道,札幌市白石区,北郷二条３丁目２番１０号,,01,104,0030832,,,,,,,2021-08-12,1,,,,,ランス,0
255,1430001084717,新規,0,2021-08-12,2021-08-12,株式会社ＧＬＯＷ　ＦＬＡＧ,,株式会社,北海道,札幌市西区,発寒五条６丁目１番１０－４０２号,,01,107,0630825,,,,,,,2021-08-12,1,,,,,グロウフラッグ,0
268,1490003001573,新規,0,2021-08-12,2021-08-12,合同会社慈悠舎,,合同会社,高知県,高岡郡日高村,岩目地６３９番地２,,39,410,7812154,,,,,,,2021-08-12,1,,,,,ゴウドウガイシャジユウシャ,0
279,2010001220362,新規,0,2021-08-12,2021-08-12,ＩＰＳＥＮ株式会社,,株式会社,東京都,千代田区,永田町２丁目１１番１号山王パークタワー３階,,13,101,1000014,,,,,,,2021-08-12,1,,,,,イプセン,0
280,2010001220370,新規,0,2021-08-12,2021-08-12,株式会社小島ホールディングス,,株式会社,東京都,千代田区,内幸町１丁目３番３号内幸町ダイビル,,13,101,1000011,,,,,,,2021-08-12,1,,,,,コジマホールディングス,0
281,2010001220379,新規,0,2021-08-12,2021-08-12,株式会社アクエリアスインベスコ,,株式会社,東京都,中央区,日本橋茅場町３丁目２番２号ＥＫＫビル,,13,102,1030025,,,,,,,2021-08-12,1,,,,,アクエリアスインベスコ,0
283,2010003035560,新規,0,2021-08-12,2021-08-12,アスターアクイジション合同会社２５,,合同会社,東京都,千代田区,丸の内３丁目１番１号東京共同会計事務所内,,13,101,1000005,,,,,,,2021-08-12,1,,,,,アスターアクイジションニゴ,0
284,2010003035569,新規,0,2021-08-12,2021-08-12,アスターアクイジション合同会社３８,,合同会社,東京都,千代田区,丸の内３丁目１番１号東京共同会計事務所内,,13,101,1000005,,,,,,,2021-08-12,1,,,,,アスターアクイジションサンハチ,0
288,2010401161941,新規,0,2021-08-12,2021-08-12,ダニー砂田プロダクション株式会社,,株式会社,東京都,港区,新橋６丁目１８番２４号ＣａｓａＳｐｌｅｎｄｉｄｏＴｏｒａｎｏｍｏｎＥｓｔ１２０４,,13,103,1050004,,,,,,,2021-08-12,1,,,,,ダニースナダプロダクション,0
289,2010401161990,新規,0,2021-08-12,2021-08-12,株式会社コラム,,株式会社,東京都,港区,北青山２丁目７番２４号,,13,103,1070061,,,,,,,2021-08-12,1,,,,,コラム,0
290,2010401162007,新規,0,2021-08-12,2021-08-12,株式会社ＲＯＮ,,株式会社,東京都,港区,六本木７丁目１４番７号萩原ビル６階,,13,103,1060032,,,,,,,2021-08-12,1,,,,,ロン,0
291,2010401162015,新規,0,2021-08-12,2021-08-12,株式会社コネクト,,株式会社,東京都,港区,赤坂１丁目１２－３２アーク森ビル２３階,,13,103,1070052,,,,,,,2021-08-12,1,,,,,コネクト,0
294,2010405020078,新規,0,2021-08-12,2021-08-12,行政書士法人青山国際法務事務所,,その他の設立登記法人,東京都,港区,台場１丁目１番３号,,13,103,1350091,,,,,,,2021-08-12,1,,,,,アオヤマコクサイホウムジムショ,0
295,2010405020111,新規,0,2021-08-12,2021-08-12,千葉北ロジスティック特定目的会社,,その他の設立登記法人,東京都,港区,東新橋１丁目５番２号汐留シティセンター,,13,103,1050021,,,,,,,2021-08-12,1,,,,,チバキタロジスティック,0
308,2011001142233,新規,0,2021-08-12,2021-08-12,株式会社ＨＡＣＣＯＮＡ,,株式会社,東京都,渋谷区,恵比寿西１丁目８番２号ウエストパレスビル４０７,,13,113,1500021,,,,,,,2021-08-12,1,,,,,ハッコーナ,0
309,2011003013201,新規,0,2021-08-12,2021-08-12,Ｅｄｇｅ　Ｓｏｌｕｔｉｏｎｓ合同会社,,合同会社,東京都,目黒区,下目黒２丁目２１番２０－Ｎ８１０号,,13,110,1530064,,,,,,,2021-08-12,1,,,,,エッジソリューションズ,0
320,2011503004856,新規,0,2021-08-12,2021-08-12,ＫＴＥ合同会社,,合同会社,東京都,北区,中里３丁目１１－１４－３０３号室,,13,117,1140015,,,,,,,2021-08-12,1,,,,,ケーティーイー,0
324,2011801039570,新規,0,2021-08-12,2021-08-12,株式会社ヤマト,,株式会社,東京都,葛飾区,柴又４丁目８番６号,,13,122,1250052,,,,,,,2021-08-12,1,,,,,ヤマト,0
330,2013301047847,新規,0,2021-08-12,2021-08-12,ペルカサジャパン株式会社,,株式会社,東京都,豊島区,南大塚３丁目３４番７号ミモザビル３階,,13,116,1700005,,,,,,,2021-08-12,1,,,,,ペルカサジャパン,0
342,2020001142580,新規,0,2021-08-12,2021-08-12,株式会社ＥＳＳＥＮＣＥ,,株式会社,神奈川県,横浜市保土ケ谷区,川辺町５番地２サーパス横浜星川２０２号,,14,106,2400001,,,,,,,2021-08-12,1,,,,,エッセンス,0
347,2020003020306,新規,0,2021-08-12,2021-08-12,ＫＡＫＵ合同会社,,合同会社,神奈川県,横浜市神奈川区,菅田町１０５３番地９,,14,102,2210864,,,,,,,2021-08-12,1,,,,,カク,0
353,2021001073650,新規,0,2021-08-12,2021-08-12,株式会社にじのそら,,株式会社,神奈川県,相模原市南区,上鶴間本町２丁目３７番６号,,14,153,2520318,,,,,,,2021-08-12,1,,,,,ニジノソラ,0
354,2021001073659,新規,0,2021-08-12,2021-08-12,株式会社ＮＯＡ,,株式会社,神奈川県,藤沢市,片瀬海岸２丁目８番７～２０１号,,14,205,2510035,,,,,,,2021-08-12,1,,,,,ノア,0
355,2021001073667,新規,0,2021-08-12,2021-08-12,株式会社ｍｏｂｂ,,株式会社,神奈川県,三浦郡葉山町,下山口３７５番地の９,,14,301,2400116,,,,,,,2021-08-12,1,,,,,モブ,0
369,2030001143792,新規,0,2021-08-12,2021-08-12,株式会社Ｃａｒａ,,株式会社,埼玉県,草加市,氷川町２１５２番地１クレドール草加１０２号,,11,221,3400034,,,,,,,2021-08-12,1,,,,,カーラ,0
372,2030005020476,新規,0,2021-08-12,2021-08-12,特定非営利活動法人ＥＲ．,,その他の設立登記法人,埼玉県,東松山市,材木町１６番２４号,,11,212,3550016,,,,,,,2021-08-12,1,,,,,イーアールドット,0
380,2040001119783,新規,0,2021-08-12,2021-08-12,株式会社いとうホーム,,株式会社,千葉県,流山市,江戸川台西１丁目２１５－２,,12,220,2700115,,,,,,,2021-08-12,1,,,,,イトウホーム,0
390,2050001049699,新規,0,2021-08-12,2021-08-12,株式会社ＰＬＡＳＩＳ,,株式会社,茨城県,稲敷郡阿見町,大字荒川本郷８７２番地１,,08,443,3001152,,,,,,,2021-08-12,1,,,,,プラシス,0
396,2060003003777,新規,0,2021-08-12,2021-08-12,Ｔコンサルティング合同会社,,合同会社,栃木県,下都賀郡壬生町,大字安塚８８０－４４,,09,361,3210201,,,,,,,2021-08-12,1,,,,,ティーコンサルティング,0
400,2070001038345,新規,0,2021-08-12,2021-08-12,Ｈｏｓｈｉ　Ｐｒｅｓｓｒｏｏｍ株式会社,,株式会社,群馬県,利根郡片品村,大字東小川３７９番地３,,10,443,3780414,,,,,,,2021-08-12,1,,,,,ホシプレスルーム,0
409,2100003006197,新規,0,2021-08-12,2021-08-12,アカウンティングソリューションズ合同会社,,合同会社,長野県,松本市,大手１丁目３番２８号神山ビル３０２,,20,202,3900874,,,,,,,2021-08-12,1,,,,,アカウンティングソリューションズ,0
425,2120001239557,新規,0,2021-08-12,2021-08-12,株式会社ＭＡＲＫＥＴＩＡ,,株式会社,大阪府,大阪市西区,西本町１丁目９番１４号コーリング本町４Ｆ,,27,106,5500005,,,,,,,2021-08-12,1,,,,,マーケティア,0
426,2120001239672,新規,0,2021-08-12,2021-08-12,ＡＬＦＡ　ＦＡＩＲ株式会社,,株式会社,大阪府,大阪市城東区,諏訪４丁目６番１９号６Ａ,,27,118,5360021,,,,,,,2021-08-12,1,,,,,アルファフェア,0
427,2120001239680,新規,0,2021-08-12,2021-08-12,大蔵創芸株式会社,,株式会社,大阪府,大阪市淀川区,西宮原３丁目２番１－５１２号,,27,123,5320004,,,,,,,2021-08-12,1,,,,,オオクラソウゲイ,0
428,2120001239689,新規,0,2021-08-12,2021-08-12,株式会社ワンライフ,,株式会社,大阪府,枚方市,楠葉並木１丁目３７番２４号美倉ビル２Ｆ,,27,210,5731118,,,,,,,2021-08-12,1,,,,,ワンライフ,0
429,2120001239706,新規,0,2021-08-12,2021-08-12,株式会社峰陽,,株式会社,大阪府,大阪市東淀川区,西淡路１丁目１－９ビジネス新大阪２２７室,,27,114,5330031,,,,,,,2021-08-12,1,,,,,ホウヨウ,0
430,2120001239714,新規,0,2021-08-12,2021-08-12,株式会社うるう,,株式会社,大阪府,大阪市西成区,玉出西１丁目８番２２号ピノキオ,,27,122,5570045,,,,,,,2021-08-12,1,,,,,ウルウ,0
440,2120005022380,新規,0,2021-08-12,2021-08-12,一般社団法人ＴＳＵＮＡＧＯＯＤ,,その他の設立登記法人,大阪府,大阪市中央区,久太郎町３丁目１番２７号船場大西ビル７階７０１号室,,27,128,5410056,,,,,,,2021-08-12,1,,,,,ツナグッド,0
445,2120101064095,新規,0,2021-08-12,2021-08-12,株式会社ＳＫリアルティ,,株式会社,大阪府,岸和田市,荒木町１丁目１１番１１－１０５号,,27,202,5960004,,,,,,,2021-08-12,1,,,,,エスケーリアルティ,0
446,2120103004289,新規,0,2021-08-12,2021-08-12,Ｍｅｔａｌｉｕｍ合同会社,,合同会社,大阪府,羽曳野市,古市２丁目２－９,,27,222,5830852,,,,,,,2021-08-12,1,,,,,メタリウム,0
449,2122001035077,新規,0,2021-08-12,2021-08-12,株式会社スマコン,,株式会社,大阪府,四條畷市,南野６丁目１０番１２号,,27,229,5750021,,,,,,,2021-08-12,1,,,,,スマコン,0
458,2140001122538,新規,0,2021-08-12,2021-08-12,ペットモール株式会社,,株式会社,兵庫県,芦屋市,平田北町１番３号,,28,206,6590073,,,,,,,2021-08-12,1,,,,,ペットモール,0
459,2140001122653,新規,0,2021-08-12,2021-08-12,ＳＡＩＴＯ株式会社,,株式会社,兵庫県,西宮市,松生町１１－２８,,28,204,6620076,,,,,,,2021-08-12,1,,,,,サイト,0
462,2160001023552,新規,0,2021-08-12,2021-08-12,株式会社グローバルリンク,,株式会社,滋賀県,大津市,膳所１丁目９番１９号,,25,201,5200815,,,,,,,2021-08-12,1,,,,,グローバルリンク,0
480,2210001018571,新規,0,2021-08-12,2021-08-12,株式会社シビルクリエイト,,株式会社,福井県,福井市,花月２丁目６番１８号,,18,201,9100022,,,,,,,2021-08-12,1,,,,,シビルクリエイト,0
487,2230001018941,新規,0,2021-08-12,2021-08-12,株式会社山本自動車鈑金,,株式会社,富山県,高岡市,野村１６８２番地１,,16,202,9330014,,,,,,,2021-08-12,1,,,,,ヤマモトジドウシャバンキン,0
495,2240005015249,新規,0,2021-08-12,2021-08-12,一般社団法人ＥＧＣ　Ｈｉｒｏｓｈｉｍａ,,その他の設立登記法人,広島県,広島市安佐南区,緑井１丁目２８番４７号,,34,105,7310103,,,,,,,2021-08-12,1,,,,,イージーシーヒロシマ,0
504,2290001094192,新規,0,2021-08-12,2021-08-12,株式会社ペンシルイノベーションセントラル,,株式会社,福岡県,福岡市中央区,天神１丁目３番３８号５Ｆ,,40,133,8100001,,,,,,,2021-08-12,1,,,,,ペンシルイノベーションセントラル,0
513,2310005008534,新規,0,2021-08-12,2021-08-12,国際興商事業協同組合,,その他の設立登記法人,長崎県,長崎市,油屋町６番２６号,,42,201,8500832,,,,,,,2021-08-12,1,,,,,コクサイコウショウ,0
520,2340003003518,新規,0,2021-08-12,2021-08-12,合同会社徳重,,合同会社,鹿児島県,日置市,吹上町中原２８７９番地,,46,216,8993301,,,,,,,2021-08-12,1,,,,,トクシゲ,0
522,2360001029182,新規,0,2021-08-12,2021-08-12,株式会社ライフセンタービブロス堂,,株式会社,沖縄県,那覇市,曙３丁目６番２４号,,47,201,9000002,,,,,,,2021-08-12,1,,,,,ライフセンタービブロスドウ,0
523,2360001029208,新規,0,2021-08-12,2021-08-12,株式会社譜久島組,,株式会社,沖縄県,豊見城市,字嘉数２２番地３,,47,212,9010202,,,,,,,2021-08-12,1,,,,,フクシマグミ,0
524,2360001029216,新規,0,2021-08-12,2021-08-12,株式会社宮古魂,,株式会社,沖縄県,宮古島市,平良字下里５６２番地１．３－Ａ,,47,214,9060013,,,,,,,2021-08-12,1,,,,,ミヤコダマシイ,0
525,2360001029224,新規,0,2021-08-12,2021-08-12,株式会社アグリソリューション,,株式会社,沖縄県,中頭郡中城村,字北上原７７９番地,,47,328,9012423,,,,,,,2021-08-12,1,,,,,アグリソリューション,0
544,2380001032119,新規,0,2021-08-12,2021-08-12,ケイモンドセレクション株式会社,,株式会社,福島県,いわき市,泉玉露２丁目１番地の１４,,07,204,9718172,,,,,,,2021-08-12,1,,,,,,0
548,2400003002819,新規,0,2021-08-12,2021-08-12,合同会社シャイン,,合同会社,岩手県,花巻市,東十二丁目９－１９,,03,205,0250015,,,,,,,2021-08-12,1,,,,,シャイン,0
555,2430001084732,新規,0,2021-08-12,2021-08-12,株式会社イシイ,,株式会社,北海道,札幌市北区,新川西三条５丁目２番７号,,01,102,0010933,,,,,,,2021-08-12,1,,,,,イシイ,0
556,2430003013004,新規,0,2021-08-12,2021-08-12,合同会社ｏｌｉｖｅ,,合同会社,北海道,江別市,上江別東町２９番地の３６,,01,217,0670061,,,,,,,2021-08-12,1,,,,,オリーブ,0
557,2430003013012,新規,0,2021-08-12,2021-08-12,合同会社ＣＡＮＡＬ,,合同会社,北海道,札幌市中央区,北三条東５丁目３５７番地,,01,101,0600033,,,,,,,2021-08-12,1,,,,,カナル,0
558,2430003013020,新規,0,2021-08-12,2021-08-12,合同会社クラフトエージェンシー,,合同会社,北海道,札幌市東区,北四十二条東６丁目２番２６－１０２号,,01,103,0070842,,,,,,,2021-08-12,1,,,,,クラフトエージェンシー,0
560,2450001004969,新規,0,2021-08-12,2021-08-12,旭川フォークリフトサービス株式会社,,株式会社,北海道,旭川市,末広七条４丁目５３１５番地,,01,204,0718137,,,,,,,2021-08-12,1,,,,,アサヒカワフォークリフトサービス,0
563,2470001018661,新規,0,2021-08-12,2021-08-12,株式会社エナジーシステムズ,,株式会社,香川県,高松市,兵庫町７番地１労住協第２５ビルテナント２０１,,37,201,7600024,,,,,,,2021-08-12,1,,,,,エナジーシステムズ,0
568,2700150104338,新規,0,2021-08-12,2021-08-12,上板橋駅南口駅前東地区市街地再開発組合,,その他,東京都,板橋区,上板橋１丁目２３番９号,,13,119,1740076,,,,,,,2021-08-12,1,,,,,カミイタバシエキミナミグチエキマエヒガシチクシガイチサイカイハツクミアイ,0
574,3010001220337,新規,0,2021-08-12,2021-08-12,株式会社菫エステート,,株式会社,東京都,文京区,本駒込６丁目５番１４－２０５号,,13,105,1130021,,,,,,,2021-08-12,1,,,,,スミレエステート,0
575,3010001220353,新規,0,2021-08-12,2021-08-12,ルイーダ株式会社,,株式会社,東京都,千代田区,外神田３丁目１５番６号小暮末広ビル４階,,13,101,1010021,,,,,,,2021-08-12,1,,,,,ルイーダ,0
576,3010001220361,新規,0,2021-08-12,2021-08-12,株式会社ＨＡＬＥＴＡＳ,,株式会社,東京都,中央区,日本橋兜町５－１兜町第一平和ビル３Ｆ,,13,102,1030026,,,,,,,2021-08-12,1,,,,,ハレタス,0
579,3010003035428,新規,0,2021-08-12,2021-08-12,合同会社リクラウド１号,,合同会社,東京都,千代田区,丸の内２丁目２番１号,,13,101,1000005,,,,,,,2021-08-12,1,,,,,,0
580,3010003035568,新規,0,2021-08-12,2021-08-12,アスターアクイジション合同会社３７,,合同会社,東京都,千代田区,丸の内３丁目１番１号東京共同会計事務所内,,13,101,1000005,,,,,,,2021-08-12,1,,,,,アスターアクイジションサンナナ,0
581,3010003035576,新規,0,2021-08-12,2021-08-12,合同会社コンシリエーレ,,合同会社,東京都,中央区,銀座１丁目２２番１１号銀座大竹ビジデンス２階,,13,102,1040061,,,,,,,2021-08-12,1,,,,,コンシリエーレ,0
583,3010005033776,新規,0,2021-08-12,2021-08-12,一般財団法人セントケア奨学財団,,その他の設立登記法人,東京都,中央区,京橋２丁目８番７号読売八重洲ビル,,13,102,1040031,,,,,,,2021-08-12,1,,,,,セントケアショウガクザイダン,0
595,3010401162039,新規,0,2021-08-12,2021-08-12,株式会社南風リゾート開発,,株式会社,東京都,港区,南青山７丁目１０番３号,,13,103,1070062,,,,,,,2021-08-12,1,,,,,ナンプウリゾートカイハツ,0
598,3010501047684,新規,0,2021-08-12,2021-08-12,株式会社ｎｕ－ｎｕ－ｎｕ,,株式会社,東京都,台東区,柳橋２丁目１４－２,,13,106,1110052,,,,,,,2021-08-12,1,,,,,ヌーヌーヌ,0
609,3010901049264,新規,0,2021-08-12,2021-08-12,株式会社テンキューブ,,株式会社,東京都,世田谷区,上馬２丁目２１番１４号ノゾミオプレミア三軒茶屋４０３,,13,112,1540011,,,,,,,2021-08-12,1,,,,,テンキューブ,0
617,3011001142190,新規,0,2021-08-12,2021-08-12,株式会社ｅ－Ｃｒａｆｔ,,株式会社,東京都,渋谷区,代官山町９番１０号,,13,113,1500034,,,,,,,2021-08-12,1,,,,,イークラフト,0
619,3011003013209,新規,0,2021-08-12,2021-08-12,合同会社Ｌｉｆｅｗｏｒｋｓ　Ｊａｐａｎ,,合同会社,東京都,渋谷区,広尾４丁目１番１３－２０４号,,13,113,1500012,,,,,,,2021-08-12,1,,,,,ライフワークスジャパン,0
620,3011101095974,新規,0,2021-08-12,2021-08-12,株式会社データデザイン研究所,,株式会社,東京都,新宿区,西新宿３丁目５番１５－１３０３号,,13,104,1600023,,,,,,,2021-08-12,1,,,,,,0
621,3011101095990,新規,0,2021-08-12,2021-08-12,株式会社ＢａＬ,,株式会社,東京都,新宿区,北新宿１丁目１番１６号ＪＳビル３０１,,13,104,1690074,,,,,,,2021-08-12,1,,,,,バル,0
624,3011301027100,新規,0,2021-08-12,2021-08-12,信金開発株式会社,,株式会社,東京都,杉並区,下井草２丁目２９番６号,,13,115,1670022,,,,,,,2021-08-12,1,,,,,シンキンカイハツ,0
637,3011603003369,新規,0,2021-08-12,2021-08-12,合同会社Ｌｕｃｋ　Ｉｓｌａｎｄ,,合同会社,東京都,練馬区,谷原５丁目４番地２５号,,13,120,1770032,,,,,,,2021-08-12,1,,,,,ラックアイランド,0
644,3013301047846,新規,0,2021-08-12,2021-08-12,株式会社Ｃ．Ｔ．Ｄ,,株式会社,東京都,豊島区,長崎４丁目３４番９号カーサＫ２０３号,,13,116,1710051,,,,,,,2021-08-12,1,,,,,シードットティードットディー,0
649,3020001142506,新規,0,2021-08-12,2021-08-12,株式会社ＧＯＬＦ　ＢＯＸ,,株式会社,神奈川県,横浜市都筑区,中川中央１丁目２２番６号－１０１号,,14,118,2240003,,,,,,,2021-08-12,1,,,,,ゴルフボックス,0
652,3020003020296,新規,0,2021-08-12,2021-08-12,合同会社傾奇者,,合同会社,神奈川県,川崎市幸区,南加瀬４丁目２０番２９号パラッツォグリシーネ１０４,,14,132,2120055,,,,,,,2021-08-12,1,,,,,カブキモノ,0
653,3020003020305,新規,0,2021-08-12,2021-08-12,合同会社ＮｅｕＥｒＴ,,合同会社,神奈川県,横浜市青葉区,新石川４丁目２７番２０号,,14,117,2250003,,,,,,,2021-08-12,1,,,,,ノイエート,0
654,3020003020313,新規,0,2021-08-12,2021-08-12,合同会社アジアンフーズサービス,,合同会社,神奈川県,川崎市多摩区,栗谷２丁目７番２７号,,14,135,2140039,,,,,,,2021-08-12,1,,,,,アジアンフーズサービス,0
664,3021001073658,新規,0,2021-08-12,2021-08-12,株式会社ＪＳ　Ｉｎｔｅｒｎａｔｉｏｎａｌ,,株式会社,神奈川県,相模原市中央区,田名７０７３番地３上溝マンション１－２０３,,14,152,2520244,,,,,,,2021-08-12,1,,,,,ジェイエスインターナショナル,0
665,3021001073666,新規,0,2021-08-12,2021-08-12,藤江電設株式会社,,株式会社,神奈川県,横須賀市,森崎５丁目２３番１２号,,14,201,2380023,,,,,,,2021-08-12,1,,,,,,0
669,3021002073871,新規,0,2021-08-12,2021-08-12,有限会社カトレア宝飾,,有限会社,神奈川県,平塚市,東八幡１丁目１０番２８号,,14,203,2540016,,,,,,,2021-08-12,1,,,,,,0
670,3021003010758,新規,0,2021-08-12,2021-08-12,合同会社あづま企画,,合同会社,神奈川県,厚木市,上荻野字荒井谷１６０１番地３１,,14,212,2430201,,,,,,,2021-08-12,1,,,,,アヅマキカク,0
671,3021003010766,新規,0,2021-08-12,2021-08-12,合同会社ｐｏｐｏｎｏ,,合同会社,神奈川県,厚木市,緑ケ丘２丁目４番７号,,14,212,2430041,,,,,,,2021-08-12,1,,,,,ポポノ,0
676,3030001143552,新規,0,2021-08-12,2021-08-12,株式会社Ｓｈｉｒａｋｏｙａ,,株式会社,埼玉県,上尾市,上町２丁目５番３０号レーベン上尾ＧＲＡＮＭＡＪＥＳＴＡ１１０６,,11,219,3620037,,,,,,,2021-08-12,1,,,,,シラコヤ,0
677,3030001143800,新規,0,2021-08-12,2021-08-12,株式会社大塚造園,,株式会社,埼玉県,新座市,石神２丁目１１番１２号,,11,230,3520033,,,,,,,2021-08-12,1,,,,,オオツカゾウエン,0
680,3030003017762,新規,0,2021-08-12,2021-08-12,ＭＥＣＨＩ　ＩＮＴＥＲＮＡＴＩＯＮＡＬ合同会社,,合同会社,埼玉県,幸手市,緑台２丁目６－９,,11,240,3400151,,,,,,,2021-08-12,1,,,,,メチインターナショナル,0
693,3050001049681,新規,0,2021-08-12,2021-08-12,ファミリア株式会社,,株式会社,茨城県,つくば市,学園の森１丁目２５番地７,,08,220,3050816,,,,,,,2021-08-12,1,,,,,ファミリア,0
694,3050001049698,新規,0,2021-08-12,2021-08-12,ＦＡＲＨＡＮ　ＡＺＩＺ　ＴＲＡＤＩＮＧ株式会社,,株式会社,茨城県,坂東市,逆井３５３６番地、大都ビル２０９,,08,228,3060501,,,,,,,2021-08-12,1,,,,,ファルハンアジズトレーディング,0
698,3060005009895,新規,0,2021-08-12,2021-08-12,社会保険労務士法人ＦＯＬＬＯＭ,,その他の設立登記法人,栃木県,宇都宮市,今宮２丁目１７番１号,,09,201,3210166,,,,,,,2021-08-12,1,,,,,フォローム,0
706,3100005012754,新規,0,2021-08-12,2021-08-12,特定非営利活動法人Ｋｉｄ’ｓ　Ｆｌｙ,,その他の設立登記法人,長野県,長野市,篠ノ井杵淵１５７３番地,,20,201,3888019,,,,,,,2021-08-12,1,,,,,キッズフライ,0
724,3120001239630,新規,0,2021-08-12,2021-08-12,みんなの会計ビジネスサポート株式会社,,株式会社,大阪府,大阪市北区,堂山町１８番３号,,27,127,5300027,,,,,,,2021-08-12,1,,,,,ミンナノカイケイビジネスサポート,0
725,3120001239663,新規,0,2021-08-12,2021-08-12,リントンズジャパン株式会社,,株式会社,大阪府,大阪市中央区,北久宝寺町２丁目１番１１号アライアンス船場１２０１,,27,128,5410057,,,,,,,2021-08-12,1,,,,,リントンズジャパン,0
726,3120001239696,新規,0,2021-08-12,2021-08-12,株式会社ＥＳＧコンサルティング,,株式会社,大阪府,大阪市北区,芝田１丁目１番４号,,27,127,5300012,,,,,,,2021-08-12,1,,,,,イーエスジーコンサルティング,0
727,3120001239721,新規,0,2021-08-12,2021-08-12,株式会社大谷,,株式会社,大阪府,大阪市西成区,千本北２丁目２９番１２号白崎店舗Ｃ号,,27,122,5570053,,,,,,,2021-08-12,1,,,,,オオタニ,0
730,3120003019956,新規,0,2021-08-12,2021-08-12,合同会社金メダル,,合同会社,大阪府,門真市,野里町２９番４３号,,27,223,5710079,,,,,,,2021-08-12,1,,,,,キンメダル,0
733,3120101064111,新規,0,2021-08-12,2021-08-12,株式会社ワンエイト,,株式会社,大阪府,堺市東区,菩提町３丁３１番地６２,,27,143,5998103,,,,,,,2021-08-12,1,,,,,ワンエイト,0
734,3120101064144,新規,0,2021-08-12,2021-08-12,株式会社ナチュラル,,株式会社,大阪府,松原市,天美東１丁目７番５号,,27,217,5800032,,,,,,,2021-08-12,1,,,,,ナチュラル,0
746,3140001122553,新規,0,2021-08-12,2021-08-12,株式会社ＩＧＡＫＥＮ,,株式会社,兵庫県,神戸市西区,伊川谷町有瀬１１５０－２,,28,111,6512113,,,,,,,2021-08-12,1,,,,,イガケン,0
747,3140001122660,新規,0,2021-08-12,2021-08-12,ルクスエイジ株式会社,,株式会社,兵庫県,尼崎市,東園田町６丁目５５番地の２４,,28,202,6610953,,,,,,,2021-08-12,1,,,,,ルクスエイジ,0
753,3150001024856,新規,0,2021-08-12,2021-08-12,株式会社ＲＥＭＡＩＮ,,株式会社,奈良県,生駒市,軽井沢町１番４１－１号,,29,209,6300265,,,,,,,2021-08-12,1,,,,,リメイン,0
759,3170001016711,新規,0,2021-08-12,2021-08-12,キワシルバーサービス株式会社,,株式会社,和歌山県,紀の川市,北長田３６番地の１,,30,208,6496502,,,,,,,2021-08-12,1,,,,,,0
775,3180003022847,新規,0,2021-08-12,2021-08-12,合同会社なないろ,,合同会社,愛知県,名古屋市中区,栄３丁目１１－１６,,23,106,4600008,,,,,,,2021-08-12,1,,,,,ナナイロ,0
782,3200003005279,新規,0,2021-08-12,2021-08-12,佐藤八郎保険事務所合同会社,,合同会社,岐阜県,大垣市,三塚町１１１２番地１,,21,202,5030808,,,,,,,2021-08-12,1,,,,,サトウハチロウホケンジムショ,0
788,3220001024353,新規,0,2021-08-12,2021-08-12,アルファシステムプロダクト株式会社,,株式会社,石川県,金沢市,駅西新町３丁目４番７号,,17,201,9200027,,,,,,,2021-08-12,1,,,,,アルファシステムプロダクト,0
794,3240001058440,新規,0,2021-08-12,2021-08-12,株式会社Ｉｃｈｉｅｉ,,株式会社,広島県,広島市西区,南観音３丁目１番４号,,34,104,7330035,,,,,,,2021-08-12,1,,,,,イチエイ,0
799,3250001019053,新規,0,2021-08-12,2021-08-12,株式会社五感ぷらす,,株式会社,山口県,下関市,大字豊浦町黒井１８２９,,35,201,,,,,,,,2021-08-12,1,,,,,ゴカンプラス,0
802,3250003002882,新規,0,2021-08-12,2021-08-12,合同会社ジャスタウェイ,,合同会社,山口県,防府市,大字江泊２０９２番地７,,35,206,7470014,,,,,,,2021-08-12,1,,,,,ジャスタウェイ,0
805,3260001035867,新規,0,2021-08-12,2021-08-12,株式会社ｐｏｎｔｅ,,株式会社,岡山県,岡山市北区,本町８－１５本町プラザ２階,,33,101,7000901,,,,,,,2021-08-12,1,,,,,ポンテ,0
817,3290005018304,新規,0,2021-08-12,2021-08-12,一般社団法人Ｔｈｉｎｋ　Ｔｏｇｅｔｈｅｒ,,その他の設立登記法人,福岡県,福岡市早良区,荒江３丁目３２番２３号,,40,137,8140021,,,,,,,2021-08-12,1,,,,,シンクトゥゲザー,0
820,3290805009460,新規,0,2021-08-12,2021-08-12,一般社団法人私的債務整理支援機構,,その他の設立登記法人,福岡県,北九州市小倉北区,下富野１丁目７番３１号,,40,106,8020023,,,,,,,2021-08-12,1,,,,,シテキサイムセイリシエンキコウ,0
821,3300001012589,新規,0,2021-08-12,2021-08-12,株式会社ＺＥＮエンジニアリング,,株式会社,佐賀県,唐津市,浜玉町浜崎９３２,,41,202,8495131,,,,,,,2021-08-12,1,,,,,ゼンエンジニアリング,0
831,3340001024003,新規,0,2021-08-12,2021-08-12,株式会社えこすぺーす,,株式会社,鹿児島県,鹿児島市,薬師１丁目２０番２５号,,46,201,8900042,,,,,,,2021-08-12,1,,,,,エコスペース,0
834,3350005006021,新規,0,2021-08-12,2021-08-12,一般社団法人アシストリンク,,その他の設立登記法人,宮崎県,都城市,都原町８１０２番地３,,45,202,8850094,,,,,,,2021-08-12,1,,,,,アシストリンク,0
839,3360001029181,新規,0,2021-08-12,2021-08-12,株式会社イノベーション,,株式会社,沖縄県,那覇市,繁多川１丁目１８－３,,47,201,9020071,,,,,,,2021-08-12,1,,,,,,0
840,3360001029207,新規,0,2021-08-12,2021-08-12,株式会社スリーマージ,,株式会社,沖縄県,宮古島市,下地字洲鎌５７９番地１９－２１０号室,,47,214,9060303,,,,,,,2021-08-12,1,,,,,スリーマージ,0
841,3360003011360,新規,0,2021-08-12,2021-08-12,合同会社Ｄｅｅｐ　Ｆｌａｔ,,合同会社,沖縄県,宮古島市,平良字松原５２８番地９建創第九オアシス２０５,,47,214,9060014,,,,,,,2021-08-12,1,,,,,ディープフラット,0
843,3370005010327,新規,0,2021-08-12,2021-08-12,一般社団法人共栄会,,その他の設立登記法人,宮城県,仙台市泉区,泉中央１丁目１５番地の２,,04,105,9813133,,,,,,,2021-08-12,1,,,,,キョウエイカイ,0
848,3380001032118,新規,0,2021-08-12,2021-08-12,株式会社エヌ・ブレーン,,株式会社,福島県,郡山市,亀田１丁目２５番１５号レーブ泉Ⅲ１０３号,00123920,07,203,9638033,,,,,,,2021-08-12,1,,,,,エヌブレーン,0
860,3400005008177,新規,0,2021-08-12,2021-08-12,司法書士法人いわて法務事務所,,その他の設立登記法人,岩手県,奥州市,水沢字多賀８９番地１,,03,215,0230032,,,,,,,2021-08-12,1,,,,,イワテホウムジムショ,0
868,3430001084715,新規,0,2021-08-12,2021-08-12,株式会社スマートビジョン,,株式会社,北海道,札幌市中央区,南六条東１丁目２番地１イーストアヴェニュー３Ｆ,,01,101,0600056,,,,,,,2021-08-12,1,,,,,スマートビジョン,0
876,3470003002010,新規,0,2021-08-12,2021-08-12,合同会社Ｔｏｍｏｅ,,合同会社,香川県,高松市,多肥上町２０２７番地１７,,37,201,7618076,,,,,,,2021-08-12,1,,,,,トモエ,0
898,4010001220245,新規,0,2021-08-12,2021-08-12,株式会社ヨモカ,,株式会社,東京都,千代田区,神田須田町２丁目２３番１－６０１号,,13,101,1010041,,,,,,,2021-08-12,1,,,,,ヨモカ,0
899,4010001220261,新規,0,2021-08-12,2021-08-12,株式会社ショールフラワー,,株式会社,東京都,中央区,勝どき６丁目３番２－１０２９号,,13,102,1040054,,,,,,,2021-08-12,1,,,,,ショールフラワー,0
900,4010001220393,新規,0,2021-08-12,2021-08-12,農林中金キャピタル株式会社,,株式会社,東京都,千代田区,大手町１丁目３番１号,,13,101,1000004,,,,,,,2021-08-12,1,,,,,ノウリンチュウキンキャピタル,0
902,4010003035559,新規,0,2021-08-12,2021-08-12,アスターアクイジション合同会社２３,,合同会社,東京都,千代田区,丸の内３丁目１番１号東京共同会計事務所内,,13,101,1000005,,,,,,,2021-08-12,1,,,,,アスターアクイジションニサン,0
903,4010003035567,新規,0,2021-08-12,2021-08-12,アスターアクイジション合同会社３６,,合同会社,東京都,千代田区,丸の内３丁目１番１号東京共同会計事務所内,,13,101,1000005,,,,,,,2021-08-12,1,,,,,アスターアクイジションサンロク,0
904,4010003035583,新規,0,2021-08-12,2021-08-12,合同会社ＬＥＶＩＡＮ,,合同会社,東京都,千代田区,外神田１丁目９番１１号,,13,101,1010021,,,,,,,2021-08-12,1,,,,,レヴィアン,0
907,4010401161907,新規,0,2021-08-12,2021-08-12,株式会社ＳｉＭＰＬＥＳＳ　ＰＬＵＳ,,株式会社,東京都,港区,南青山２丁目１４番１４号ＦｒｏｍｌｓｔＭｉｎａｍｉＡｏｙａｍａ１０３,,13,103,1070062,,,,,,,2021-08-12,1,,,,,シンプレスプラス,0
908,4010401162062,新規,0,2021-08-12,2021-08-12,昭和電工システムサービス株式会社,,株式会社,東京都,港区,芝大門１丁目１３番９号,,13,103,1050012,,,,,,,2021-08-12,1,,,,,ショウワデンコウシステムサービス,0
909,4010403025853,新規,0,2021-08-12,2021-08-12,ＳｅｒｖｉｃｅＯｎｅ　Ｊａｐａｎ合同会社,,合同会社,東京都,港区,南麻布３丁目１９番２３号オーク南麻布ビル２階,,13,103,1060047,,,,,,,2021-08-12,1,,,,,サービスワンジャパン,0
910,4010403025878,新規,0,2021-08-12,2021-08-12,けんこうライフラボ合同会社,,合同会社,東京都,港区,白金３丁目１番１３号日恵ビル２階,,13,103,1080072,,,,,,,2021-08-12,1,,,,,ケンコウライフラボ,0
911,4010403025911,新規,0,2021-08-12,2021-08-12,合同会社カリー,,合同会社,東京都,港区,西新橋１丁目２番９号メンターキャピタル税理士法人内,,13,103,1050003,,,,,,,2021-08-12,1,,,,,カリー,0
926,4011001142181,新規,0,2021-08-12,2021-08-12,予防医療株式会社,,株式会社,東京都,渋谷区,道玄坂２丁目１６－８ビジネスヴィップ渋谷道玄坂坂本ビル１１階,,13,113,1500043,,,,,,,2021-08-12,1,,,,,ヨボウイリョウ,0
929,4011005009170,新規,0,2021-08-12,2021-08-12,一般社団法人あしびな,,その他の設立登記法人,東京都,渋谷区,宇田川町１６番８号渋谷センタービル３階,,13,113,1500042,,,,,,,2021-08-12,1,,,,,アシビナ,0
932,4011101095544,新規,0,2021-08-12,2021-08-12,株式会社ＵＮＩＸＩＡ,,株式会社,東京都,新宿区,大久保１丁目２－１９－１１０１,,13,104,1690072,,,,,,,2021-08-12,1,,,,,ユニシア,0
933,4011101095965,新規,0,2021-08-12,2021-08-12,株式会社ＧＣＭ,,株式会社,東京都,新宿区,新宿２丁目３番１１号ＶＯＲＴ新宿御苑３階,,13,104,1600022,,,,,,,2021-08-12,1,,,,,ジーシーエム,0
934,4011103010930,新規,0,2021-08-12,2021-08-12,ＴＴＣ合同会社,,合同会社,東京都,新宿区,大久保２丁目１０番１１号ＭＡＣ大久保コート３０４,,13,104,1690072,,,,,,,2021-08-12,1,,,,,ティティシー,0
943,4011801039577,新規,0,2021-08-12,2021-08-12,株式会社足立チャイルド社,,株式会社,東京都,足立区,江北２丁目４０番５号,,13,121,1230872,,,,,,,2021-08-12,1,,,,,アダチチャイルドシャ,0
950,4013303005776,新規,0,2021-08-12,2021-08-12,合同会社悠,,合同会社,東京都,豊島区,駒込７丁目１３－１３,,13,116,1700003,,,,,,,2021-08-12,1,,,,,ユウ,0
954,4020001142570,新規,0,2021-08-12,2021-08-12,株式会社ｍ．ｒ,,株式会社,神奈川県,横浜市金沢区,瀬戸三丁目５４番地泉ビル１Ｆ,,14,108,2360027,,,,,,,2021-08-12,1,,,,,,0
955,4020001142579,新規,0,2021-08-12,2021-08-12,ワイ・ツー株式会社,,株式会社,神奈川県,横浜市神奈川区,六角橋３丁目４番１６号,,14,102,2210802,,,,,,,2021-08-12,1,,,,,ワイツー,0
962,4020003020304,新規,0,2021-08-12,2021-08-12,岸谷事務所合同会社,,合同会社,神奈川県,横浜市鶴見区,岸谷１丁目１番２号,,14,101,2300078,,,,,,,2021-08-12,1,,,,,キシヤジムショ,0
963,4020003020312,新規,0,2021-08-12,2021-08-12,合同会社ｓｏｌｌｕｘ,,合同会社,神奈川県,川崎市高津区,二子１丁目１７番１－３２２号,,14,134,2130002,,,,,,,2021-08-12,1,,,,,ソルクス,0
973,4021003010757,新規,0,2021-08-12,2021-08-12,合同会社東天昇,,合同会社,神奈川県,中郡大磯町,高麗２丁目６番２号,,14,341,2550001,,,,,,,2021-08-12,1,,,,,トウテンショウ,0
976,4021005012272,新規,0,2021-08-12,2021-08-12,一般社団法人みらいふ,,その他の設立登記法人,神奈川県,大和市,中央林間５丁目６－１チャイルドシティＣ－１０３,,14,213,2420007,,,,,,,2021-08-12,1,,,,,ミライフ,0
982,4030001143741,新規,0,2021-08-12,2021-08-12,ＴｒａｎｓＥｄｉｔ株式会社,,株式会社,埼玉県,新座市,西堀２丁目１５番２０号,,11,230,3520031,,,,,,,2021-08-12,1,,,,,トランスエディット,0
983,4030001143774,新規,0,2021-08-12,2021-08-12,株式会社ウインドスターク,,株式会社,埼玉県,和光市,白子３丁目２４番２－２０１号,,11,229,3510101,,,,,,,2021-08-12,1,,,,,ウインドスターク,0
986,4030003017737,新規,0,2021-08-12,2021-08-12,合同会社ＣｒｅｓｔＣｒｅａｔｉｏｎｓ,,合同会社,埼玉県,川口市,栄町２丁目７番１５－２０３号,,11,203,3320017,,,,,,,2021-08-12,1,,,,,クレストクリエイションズ,0
987,4030003017761,新規,0,2021-08-12,2021-08-12,合同会社草加爽風会,,合同会社,埼玉県,草加市,瀬崎３丁目３１－１４－１０１,,11,221,3400022,,,,,,,2021-08-12,1,,,,,ソウカソウフウカイ,0
994,4040001119773,新規,0,2021-08-12,2021-08-12,ＭＩＬＡＤ　ＳＴＡＲ株式会社,,株式会社,千葉県,八街市,八街い１７６－５７マンションＳＡＢＡ２０５,,12,230,2891143,,,,,,,2021-08-12,1,,,,,ミラドスター,0
995,4040001119781,新規,0,2021-08-12,2021-08-12,株式会社サイバーコミュニケーションズ,,株式会社,千葉県,習志野市,津田沼２丁目１１番２４号津田沼ビル４０１号室,,12,216,2750016,,,,,,,2021-08-12,1,,,,,サイバーコミュニケーションズ,0
997,4040003018321,新規,0,2021-08-12,2021-08-12,合同会社ＢＥＳＴ　ＷＩＳＤＯＭ,,合同会社,千葉県,印西市,東の原３丁目１番地６７,,12,231,2701336,,,,,,,2021-08-12,1,,,,,ベストウィズダム,0
1003,4060001033989,新規,0,2021-08-12,2021-08-12,株式会社ＭＡＲＵ　ＰＯＷＥＲ,,株式会社,栃木県,宇都宮市,西大寛２丁目５番４号,,09,201,3200866,,,,,,,2021-08-12,1,,,,,マルパワー,0
1004,4060003003775,新規,0,2021-08-12,2021-08-12,合同会社ダイバーステイ,,合同会社,栃木県,小山市,城山町３丁目６番地２５号コワーキングスペースＳＥＫＥＮ内,,09,208,3230025,,,,,,,2021-08-12,1,,,,,ダイバーステイ,0
1006,4070001038335,新規,0,2021-08-12,2021-08-12,株式会社Ｍａｘｉｓ,,株式会社,群馬県,高崎市,江木町１３３４番地１０,,10,202,3700046,,,,,,,2021-08-12,1,,,,,マクシス,0
1034,4120001239613,新規,0,2021-08-12,2021-08-12,株式会社日本ルミナス・ビー,,株式会社,大阪府,大阪市淀川区,宮原４丁目５番３６号ＯＮＥＳＴ新大阪スクエア２Ｆ,,27,123,5320003,,,,,,,2021-08-12,1,,,,,ニホンルミナスビー,0
1035,4120001239621,新規,0,2021-08-12,2021-08-12,株式会社Ｃｌｏｕｄ　Ｅｑｕｉｔｙ,,株式会社,大阪府,大阪市中央区,難波５丁目１番６０号なんばスカイオ２００５号室,,27,128,5420076,,,,,,,2021-08-12,1,,,,,クラウドエクイティ,0
1036,4120001239646,新規,0,2021-08-12,2021-08-12,株式会社ＰＳＧ,,株式会社,大阪府,大阪市北区,梅田２丁目５番１３号,,27,127,5300001,,,,,,,2021-08-12,1,,,,,ピーエスジー,0
1037,4120001239662,新規,0,2021-08-12,2021-08-12,株式会社ＨＫ　ＳＯＵＬ,,株式会社,大阪府,大阪市福島区,玉川１丁目５番３－１３０３号,,27,103,5530004,,,,,,,2021-08-12,1,,,,,エイチケイソウル,0
1039,4120003020005,新規,0,2021-08-12,2021-08-12,大樹商行合同会社,,合同会社,大阪府,大阪市浪速区,日本橋東１丁目１０番１４－１００１号,,27,111,5560006,,,,,,,2021-08-12,1,,,,,ダイジュショウコウ,0
1051,4130003007414,新規,0,2021-08-12,2021-08-12,合同会社ｇａｌｌｅｒｙＭａｉｎ,,合同会社,京都府,京都市下京区,下鱗形町５４３－２Ｆ,,26,106,6008059,,,,,,,2021-08-12,1,,,,,ギャラリーメイン,0
1056,4140001122635,新規,0,2021-08-12,2021-08-12,株式会社はやぶさコーポレーション,,株式会社,兵庫県,伊丹市,西野６丁目２１番地,,28,207,6640028,,,,,,,2021-08-12,1,,,,,ハヤブサコーポレーション,0
1061,4140003016620,新規,0,2021-08-12,2021-08-12,Ｌｉｖｅｌｙ　Ｏｆｆｉｃｅ合同会社,,合同会社,兵庫県,姫路市,西中島７８－１パレ・ロワイヤル花北３０２,,28,201,6700805,,,,,,,2021-08-12,1,,,,,ライブリーオフィス,0
1105,4290001094117,新規,0,2021-08-12,2021-08-12,福岡あそびごころ株式会社,,株式会社,福岡県,福岡市東区,香椎団地１番３０－９０６号プレミスト千早レジデンス,,40,131,8130015,,,,,,,2021-08-12,1,,,,,フクオカアソビゴコロ,0
1106,4290001094158,新規,0,2021-08-12,2021-08-12,株式会社フォーステック,,株式会社,福岡県,大牟田市,笹林町２丁目４番１２ー２号,,40,202,8360851,,,,,,,2021-08-12,1,,,,,フォーステック,0
1111,4300001012588,新規,0,2021-08-12,2021-08-12,株式会社継屋,,株式会社,佐賀県,小城市,三日月町久米６９２番地１,,41,208,8450022,,,,,,,2021-08-12,1,,,,,ツグヤ,0
1119,4330005010379,新規,0,2021-08-12,2021-08-12,一般社団法人マンスフェルト北里柴三郎研究会,,その他の設立登記法人,熊本県,熊本市中央区,新町１丁目１０番４８号,,43,101,8600004,,,,,,,2021-08-12,1,,,,,マンスフェルトキタサトシバサブロウケンキュウカイ,0
1120,4340003003516,新規,0,2021-08-12,2021-08-12,合同会社ａｋｕｓｈｕ,,合同会社,鹿児島県,鹿児島市,与次郎２丁目６番７－５０８号,,46,201,8900062,,,,,,,2021-08-12,1,,,,,アクシュ,0
1122,4350001017260,新規,0,2021-08-12,2021-08-12,龍泉産業株式会社,,株式会社,宮崎県,宮崎市,佐土原町下田島字天神中須７６００番地１,,45,201,8800211,,,,,,,2021-08-12,1,,,,,リュウセンサンギョウ,0
1126,4360001029180,新規,0,2021-08-12,2021-08-12,株式会社ＳＲＡ,,株式会社,沖縄県,豊見城市,字高安５９６－２－３０２,,47,212,9010242,,,,,,,2021-08-12,1,,,,,エスアールエー,0
1127,4360001029189,新規,0,2021-08-12,2021-08-12,ＣＩＭＡ株式会社,,株式会社,沖縄県,中頭郡北谷町,字砂辺３０３番地２スナベハウスイン４０５,,47,326,9040111,,,,,,,2021-08-12,1,,,,,シーマ,0
1128,4360001029214,新規,0,2021-08-12,2021-08-12,株式会社ＺＥＡＲ　ｉｎｎｏｖａｔｉｏｎ,,株式会社,沖縄県,中頭郡中城村,字南上原２０９－２ヴィラ南上原２Ｆ,,47,328,9012424,,,,,,,2021-08-12,1,,,,,ゼアイノベーション,0
1130,4370001047479,新規,0,2021-08-12,2021-08-12,結・サポート株式会社,,株式会社,宮城県,仙台市太白区,長嶺３番１２号,,04,104,9820847,,,,,,,2021-08-12,1,,,,,,0
1133,4380001032117,新規,0,2021-08-12,2021-08-12,株式会社ヴェール,,株式会社,福島県,南相馬市,原町区栄町２丁目３４番地,,07,212,9750003,,,,,,,2021-08-12,1,,,,,ヴェール,0
1138,4390003001853,新規,0,2021-08-12,2021-08-12,合同会社阿部会計事務所,,合同会社,山形県,山形市,錦町三丁目２０番須藤ビル２０５,,06,201,9900056,,,,,,,2021-08-12,1,,,,,アベカイケイジムショ,0
1160,4500001023623,新規,0,2021-08-12,2021-08-12,株式会社ＫＩＧ愛媛,,株式会社,愛媛県,松山市,和泉北１丁目７番１０号,,38,201,7900038,,,,,,,2021-08-12,1,,,,,ケーアイジーエヒメ,0
1162,4700150104336,新規,0,2021-08-12,2021-08-12,エンターテイメント健康保険組合,,その他,東京都,中央区,日本橋箱崎町３－１２　５セントラルビル５０１,,13,102,1030015,,,,,,,2021-08-12,1,,,,,エンターテイメントケンコウホケンクミアイ,0
1172,5010001220351,新規,0,2021-08-12,2021-08-12,東アジアリゾート開発株式会社,,株式会社,東京都,中央区,京橋２丁目８番１号,,13,102,1040031,,,,,,,2021-08-12,1,,,,,ヒガシアジアリゾートカイハツ,0
1176,5010003035558,新規,0,2021-08-12,2021-08-12,アスタービッド合同会社,,合同会社,東京都,千代田区,丸の内３丁目１番１号東京共同会計事務所内,,13,101,1000005,,,,,,,2021-08-12,1,,,,,アスタービッド,0
1177,5010003035566,新規,0,2021-08-12,2021-08-12,アスターアクイジション合同会社３５,,合同会社,東京都,千代田区,丸の内３丁目１番１号東京共同会計事務所内,,13,101,1000005,,,,,,,2021-08-12,1,,,,,アスターアクイジションサンゴ,0
1178,5010005033799,新規,0,2021-08-12,2021-08-12,一般社団法人ＫＣＲ１,,その他の設立登記法人,東京都,中央区,日本橋１丁目４番１号,,13,102,1030027,,,,,,,2021-08-12,1,,,,,ケーシーアールワン,0
1181,5010401162012,新規,0,2021-08-12,2021-08-12,バーチャル・エイベックス株式会社,,株式会社,東京都,港区,南青山３丁目１番３０号,,13,103,1070062,,,,,,,2021-08-12,1,,,,,バーチャルエイベックス,0
1182,5010401162053,新規,0,2021-08-12,2021-08-12,株式会社ワイケイ会計コンサルティング,,株式会社,東京都,港区,新橋６丁目５番４－９１１号,,13,103,1050004,,,,,,,2021-08-12,1,,,,,ワイケイカイケイコンサルティング,0
1183,5010401162061,新規,0,2021-08-12,2021-08-12,株式会社ＴＳ１,,株式会社,東京都,港区,浜松町２丁目２番１５号浜松町ダイヤビル２Ｆ,,13,103,1050013,,,,,,,2021-08-12,1,,,,,ティーエスワン,0
1184,5010401162078,新規,0,2021-08-12,2021-08-12,リルメディカルサービス株式会社,,株式会社,東京都,港区,新橋５丁目６番４号トゥシェ新橋３０３,,13,103,1050004,,,,,,,2021-08-12,1,,,,,リルメディカルサービス,0
1187,5010403025852,新規,0,2021-08-12,2021-08-12,合同会社ＳｈｕｎＴｏｋｙｏ,,合同会社,東京都,港区,南青山３丁目１５番９号ＭＩＮＯＷＡ表参道３Ｆ,,13,103,1070062,,,,,,,2021-08-12,1,,,,,シュントウキョウ,0
1190,5010501047690,新規,0,2021-08-12,2021-08-12,株式会社Ｆｌｏｗｅｒ,,株式会社,東京都,台東区,下谷２丁目１３－９,,13,106,1100004,,,,,,,2021-08-12,1,,,,,フラワー,0
1201,5011003013198,新規,0,2021-08-12,2021-08-12,合同会社ＴｅａｍＭｘＫ,,合同会社,東京都,渋谷区,神宮前６丁目２３番４号桑野ビル２階,,13,113,1500001,,,,,,,2021-08-12,1,,,,,チームエムケー,0
1207,5011101095989,新規,0,2021-08-12,2021-08-12,株式会社Ｍ２Ｆ,,株式会社,東京都,新宿区,新宿６丁目２－４,,13,104,1600022,,,,,,,2021-08-12,1,,,,,エムツーエフ,0
1208,5011101095997,新規,0,2021-08-12,2021-08-12,株式会社関企画,,株式会社,東京都,新宿区,山吹町３３４キヤビル３Ｆ,,13,104,1620801,,,,,,,2021-08-12,1,,,,,セキキカク,0
1214,5011301027098,新規,0,2021-08-12,2021-08-12,株式会社ＲＯＪ　ＪＡＰＡＮ,,株式会社,東京都,杉並区,井草２丁目７番１４号ガーデンハウス東山２０５,,13,115,1670021,,,,,,,2021-08-12,1,,,,,ロジジャパン,0
1216,5011401023567,新規,0,2021-08-12,2021-08-12,株式会社クリエイション,,株式会社,東京都,板橋区,舟渡１丁目１３番１０号アイ・タワー２Ｆ,,13,119,1740041,,,,,,,2021-08-12,1,,,,,クリエイション,0
1233,5013301047852,新規,0,2021-08-12,2021-08-12,株式会社ブルーポピー,,株式会社,東京都,豊島区,東池袋１丁目２３番９号,,13,116,1700013,,,,,,,2021-08-12,1,,,,,ブルーポピー,0
1234,5013303005775,新規,0,2021-08-12,2021-08-12,ブレインベース合同会社,,合同会社,東京都,豊島区,高松３丁目４番６号グランシティ千川４０３号,,13,116,1710042,,,,,,,2021-08-12,1,,,,,ブレインベース,0
1250,5020001142578,新規,0,2021-08-12,2021-08-12,株式会社Ｓｙｍｂｏｌ,,株式会社,神奈川県,横浜市瀬谷区,卸本町９２７９番地２７,,14,114,2460001,,,,,,,2021-08-12,1,,,,,シンボル,0
1256,5020003020303,新規,0,2021-08-12,2021-08-12,ＪＬＣ合同会社,,合同会社,神奈川県,横浜市港北区,綱島東６丁目１１－３０－７０１,,14,109,2230052,,,,,,,2021-08-12,1,,,,,ジェイエルシー,0
1262,5021001073573,新規,0,2021-08-12,2021-08-12,オーシャンアゲイン株式会社,,株式会社,神奈川県,横須賀市,長井町五丁目２６番２４号,,14,201,,,,,,,,2021-08-12,1,,,,,,0
1263,5021001073656,新規,0,2021-08-12,2021-08-12,株式会社アネスト,,株式会社,神奈川県,秦野市,堀川２７番地の３２,,14,211,2591305,,,,,,,2021-08-12,1,,,,,アネスト,0
1270,5021003010772,新規,0,2021-08-12,2021-08-12,合同会社エムシースクエア,,合同会社,神奈川県,茅ヶ崎市,室田２丁目３番５号,,14,207,2530018,,,,,,,2021-08-12,1,,,,,エムシースクエア,0
1271,5021003010789,新規,0,2021-08-12,2021-08-12,合同会社ＳＡＩ,,合同会社,神奈川県,厚木市,中町３丁目１１－９－４０２,,14,212,2430018,,,,,,,2021-08-12,1,,,,,エスエーアイ,0
1272,5021003010797,新規,0,2021-08-12,2021-08-12,Ｒｚｐ合同会社,,合同会社,神奈川県,小田原市,久野８５３－４,,14,206,2500055,,,,,,,2021-08-12,1,,,,,アールゼットピー,0
1289,5040003018320,新規,0,2021-08-12,2021-08-12,合同会社ｍｙｎｉｃｏ,,合同会社,千葉県,習志野市,津田沼７丁目４番１４号,,12,216,2750016,,,,,,,2021-08-12,1,,,,,マイニコ,0
1291,5050003006027,新規,0,2021-08-12,2021-08-12,Ｔｗｉｎ　Ｐｅａｋｓ　Ｍｏｕｎｔａｉｎ　Ｂｒｅｗｉｎｇ合同会社,,合同会社,茨城県,つくば市,若葉９番地１３,,08,220,3001249,,,,,,,2021-08-12,1,,,,,ツインピークスマウンテンブルーイング,0
1296,5080003002626,新規,0,2021-08-12,2021-08-12,ホエールカスタムズ合同会社,,合同会社,静岡県,静岡市葵区,安倍口新田５７８－１Ｂ－３,,22,101,4212114,,,,,,,2021-08-12,1,,,,,ホエールカスタムズ,0
1331,5120001239570,新規,0,2021-08-12,2021-08-12,大鷹Ｅｘｐｒｅｓｓ株式会社,,株式会社,大阪府,大阪市北区,天神橋１丁目１８番２７号,,27,127,5300041,,,,,,,2021-08-12,1,,,,,オオタカエクスプレス,0
1332,5120001239595,新規,0,2021-08-12,2021-08-12,株式会社Ｍａｒｓ　Ｈｉｔ,,株式会社,大阪府,大阪市中央区,南船場４丁目１２番９号３０２号室,,27,128,5420081,,,,,,,2021-08-12,1,,,,,マーズヒット,0
1333,5120001239653,新規,0,2021-08-12,2021-08-12,宇直株式会社,,株式会社,大阪府,大阪市港区,市岡元町２丁目６番１１号－３０５,,27,107,5520002,,,,,,,2021-08-12,1,,,,,ウチョク,0
1334,5120001239661,新規,0,2021-08-12,2021-08-12,株式会社高徳,,株式会社,大阪府,枚方市,堂山１丁目１３番６号,,27,210,5730007,,,,,,,2021-08-12,1,,,,,コウトク,0
1335,5120001239686,新規,0,2021-08-12,2021-08-12,株式会社ｓｏｗｅｌｕ,,株式会社,大阪府,大阪市浪速区,元町３丁目１０番１７号竹立ビル２階,,27,111,5560016,,,,,,,2021-08-12,1,,,,,ソエル,0
1342,5120103004294,新規,0,2021-08-12,2021-08-12,ＳＡＧＥＳ合同会社,,合同会社,大阪府,大阪狭山市,茱萸木５丁目６５３番地,,27,231,5890013,,,,,,,2021-08-12,1,,,,,セイジャーズ,0
1349,5122001035058,新規,0,2021-08-12,2021-08-12,株式会社アドバンスホールディングス,,株式会社,大阪府,四條畷市,岡山１丁目１番１１号忍ケ丘駅前ビル２０２号,,27,229,5750002,,,,,,,2021-08-12,1,,,,,アドバンスホールディングス,0
1362,5140001122659,新規,0,2021-08-12,2021-08-12,株式会社ベスパ,,株式会社,兵庫県,神戸市中央区,栄町通２丁目４番１３号神栄ビル７０４号,,28,110,6500023,,,,,,,2021-08-12,1,,,,,ベスパ,0
1365,5150001024854,新規,0,2021-08-12,2021-08-12,株式会社ＪＡＲＡ,,株式会社,奈良県,天理市,田井庄町１１７番地５ル・ヴィラージュ１１７、２０１号,,29,204,6320071,,,,,,,2021-08-12,1,,,,,ジャラ,0
1366,5150003002453,新規,0,2021-08-12,2021-08-12,合同会社ソコカラ,,合同会社,奈良県,磯城郡川西町,大字結崎６７４－６酒井ビル１０３,,29,361,6360202,,,,,,,2021-08-12,1,,,,,ソコカラ,0
1379,5180001147330,新規,0,2021-08-12,2021-08-12,株式会社アルマ,,株式会社,愛知県,名古屋市千種区,東山通１丁目１５番１号,,23,101,4640807,,,,,,,2021-08-12,1,,,,,アルマ,0
1380,5180001147405,新規,0,2021-08-12,2021-08-12,株式会社ＢＵ,,株式会社,愛知県,名古屋市瑞穂区,内方町１丁目８番地の４,,23,108,4670068,,,,,,,2021-08-12,1,,,,,ビーユー,0
1381,5180001147413,新規,0,2021-08-12,2021-08-12,ＪＬＳ株式会社,,株式会社,愛知県,名古屋市中区,栄２丁目２番２３号アーク白川公園ビルディング本館０７０１,,23,106,4600008,,,,,,,2021-08-12,1,,,,,ジェイエルエス,0
1386,5180301035268,新規,0,2021-08-12,2021-08-12,株式会社たなかギフトセンター,,株式会社,愛知県,豊橋市,柱九番町３９番地２,,23,201,4418055,,,,,,,2021-08-12,1,,,,,タナカギフトセンター,0
1405,5230001018939,新規,0,2021-08-12,2021-08-12,株式会社Ｔｈｉａｍ,,株式会社,富山県,富山市,大手町４番１６号,,16,201,9300084,,,,,,,2021-08-12,1,,,,,ティヤム,0
1421,5290001094140,新規,0,2021-08-12,2021-08-12,株式会社まがりや,,株式会社,福岡県,宗像市,東郷１丁目５番８号,,40,220,8113436,,,,,,,2021-08-12,1,,,,,マガリヤ,0
1422,5290005018302,新規,0,2021-08-12,2021-08-12,一般社団法人ＧＳＡ,,その他の設立登記法人,福岡県,福岡市博多区,博多駅東２丁目５番１９号,,40,132,8120013,,,,,,,2021-08-12,1,,,,,ジーエスエー,0
1437,5360001029213,新規,0,2021-08-12,2021-08-12,Ｊ．Ｔ．セレス株式会社,,株式会社,沖縄県,宜野湾市,大山６丁目８番１号エヌエイチオフィスビル３階夢空間Ａ－０８室,,47,205,9012223,,,,,,,2021-08-12,1,,,,,ジェイティーセレス,0
1439,5360003011350,新規,0,2021-08-12,2021-08-12,合同会社德成,00123916,合同会社,沖縄県,那覇市,字田原７６番地ハッピーファミール３０１,,47,201,9010156,,,,,,,2021-08-12,1,,,,,トクナリ,0
1440,5360005006489,新規,0,2021-08-12,2021-08-12,一般社団法人サスティナブルオキナワ,,その他の設立登記法人,沖縄県,中頭郡北中城村,字渡口９８１番地,,47,327,9012302,,,,,,,2021-08-12,1,,,,,サスティナブルオキナワ,0
1447,5380001032116,新規,0,2021-08-12,2021-08-12,株式会社マーケットフーズ,,株式会社,福島県,双葉郡広野町,大字下北迫字火の口２８番２,,07,541,9790402,,,,,,,2021-08-12,1,,,,,,0
1449,5390001016563,新規,0,2021-08-12,2021-08-12,株式会社ＯＪＫ,,株式会社,山形県,鶴岡市,大東町６番５０号,,06,203,9970026,,,,,,,2021-08-12,1,,,,,オージェーケー,0
1465,5430003013018,新規,0,2021-08-12,2021-08-12,ＡＬｂａ合同会社,,合同会社,北海道,札幌市中央区,北四条西２３丁目１番２８－５０３号,,01,101,0640824,,,,,,,2021-08-12,1,,,,,アルバ,0
1476,5700150104335,新規,0,2021-08-12,2021-08-12,Ｓ．Ｎ．Ｓ．　ＴＲＡＤＩＮＧ　ＣＯＭＰＡＮＹ,,外国会社等,千葉県,四街道市,大日８３６番地オフィス２号,,12,228,2840001,スリランカ民主社会主義共和国、キャンディ、アクラナ、ブルガハテンナロード、１９６,,,,,,2021-08-12,1,,,,,エスエヌエストレーデイングカンパニー,0
1486,6010001220350,新規,0,2021-08-12,2021-08-12,株式会社大宇,,株式会社,東京都,中央区,日本橋蛎殻町１丁目３６番９－１３０２号,,13,102,1030014,,,,,,,2021-08-12,1,,,,,ダイウ,0
1488,6010003035557,新規,0,2021-08-12,2021-08-12,合同会社ＴｒｅｎｄＥＲＰ,,合同会社,東京都,千代田区,九段南１丁目５－６りそな九段ビル５ＦＫＳフロア,,13,101,1020074,,,,,,,2021-08-12,1,,,,,トレンドイーアールピー,0
1489,6010003035565,新規,0,2021-08-12,2021-08-12,アスターアクイジション合同会社３１,,合同会社,東京都,千代田区,丸の内３丁目１番１号東京共同会計事務所内,,13,101,1000005,,,,,,,2021-08-12,1,,,,,アスターアクイジションサンイチ,0
1490,6010005033749,新規,0,2021-08-12,2021-08-12,はなさき税理士法人,,その他の設立登記法人,東京都,千代田区,三崎町三丁目５番９号,,13,101,1000000,,,,,,,2021-08-12,1,,,,,ハナサキゼイリシホウジン,0
1497,6010401161888,新規,0,2021-08-12,2021-08-12,ＭＩＣＫＳ株式会社,,株式会社,東京都,港区,新橋２丁目２６番１号ニュー新橋ビル９０３,,13,103,1050004,,,,,,,2021-08-12,1,,,,,ミックス,0
1498,6010401162052,新規,0,2021-08-12,2021-08-12,ａ株式会社,,株式会社,東京都,港区,新橋６丁目５番４号ＤＩＫマンション新橋４１８,,13,103,1050004,,,,,,,2021-08-12,1,,,,,エー,0
1499,6010401162060,新規,0,2021-08-12,2021-08-12,株式会社ｅｕｆｏｒｉａｎ,,株式会社,東京都,港区,南青山２丁目２－１５,,13,103,1070062,,,,,,,2021-08-12,1,,,,,ユーフォリアン,0
1500,6010401162085,新規,0,2021-08-12,2021-08-12,ＬＳ－Ａｖｉａｔｉｏｎ第３７号株式会社,,株式会社,東京都,港区,六本木１丁目６番１号,,13,103,1060032,,,,,,,2021-08-12,1,,,,,エルエスアビエーションダイサンジュウナナゴウ,0
1501,6010403025884,新規,0,2021-08-12,2021-08-12,合同会社アシスト,,合同会社,東京都,港区,赤坂６丁目１３－１９－９０７,,13,103,1070052,,,,,,,2021-08-12,1,,,,,アシスト,0
1510,6010703005891,新規,0,2021-08-12,2021-08-12,スカイクレイン合同会社,,合同会社,東京都,品川区,荏原４丁目１２－１９アーバイル武蔵小山３０２,,13,109,1420063,,,,,,,2021-08-12,1,,,,,スカイクレイン,0
1521,6011001142130,新規,0,2021-08-12,2021-08-12,普済堂東京株式会社,,株式会社,東京都,目黒区,鷹番３丁目１番５号グリーンアース１階,,13,110,1520004,,,,,,,2021-08-12,1,,,,,プジドウトウキョウ,0
1522,6011001142270,新規,0,2021-08-12,2021-08-12,株式会社ＯＵＴＬＩＥＲ,,株式会社,東京都,渋谷区,桜丘町２３番１７号シティコート桜丘４０８,,13,113,1500031,,,,,,,2021-08-12,1,,,,,アウトライアー,0
1524,6011003013180,新規,0,2021-08-12,2021-08-12,ＳＢＣ合同会社,,合同会社,東京都,目黒区,目黒本町１丁目９－２０,,13,110,1520002,,,,,,,2021-08-12,1,,,,,エスビーシー,0
1545,6012403004983,新規,0,2021-08-12,2021-08-12,ＵＩＡ東京合同会社,,合同会社,東京都,多摩市,一ノ宮１丁目３３番地の６,,13,224,2060002,,,,,,,2021-08-12,1,,,,,ユーアイエートウキョウ,0
1567,6020001142552,新規,0,2021-08-12,2021-08-12,株式会社にじゅうかのう,,株式会社,神奈川県,川崎市麻生区,百合丘３丁目４番地２７,,14,137,2150011,,,,,,,2021-08-12,1,,,,,ニジュウカノウ,0
1568,6020001142560,新規,0,2021-08-12,2021-08-12,株式会社きぼう人事労政研究所,,株式会社,神奈川県,川崎市川崎区,駅前本町１１番地２川崎フロンティアビル４階,,14,131,2100007,,,,,,,2021-08-12,1,,,,,キボウジンジロウセイケンキュウジョ,0
1569,6020001142577,新規,0,2021-08-12,2021-08-12,テクニカルトータルパートナーズ株式会社,,株式会社,神奈川県,横浜市鶴見区,栄町通２丁目１３番地４,,14,101,2300038,,,,,,,2021-08-12,1,,,,,テクニカルトータルパートナーズ,0
1573,6020003020310,新規,0,2021-08-12,2021-08-12,合同会社ルミナーレミハス,,合同会社,神奈川県,横浜市磯子区,磯子５丁目５番２－８号,,14,107,2350016,,,,,,,2021-08-12,1,,,,,ルミナーレミハス,0
1588,6030001143797,新規,0,2021-08-12,2021-08-12,大林金属株式会社,,株式会社,埼玉県,川口市,飯塚４丁目６－１９－１Ｆ,,11,203,3320023,,,,,,,2021-08-12,1,,,,,オオバヤシキンゾク,0
1615,6080003002625,新規,0,2021-08-12,2021-08-12,エメラルド合同会社,,合同会社,静岡県,静岡市駿河区,馬渕４丁目１２番１４－２号,,22,102,4228063,,,,,,,2021-08-12,1,,,,,エメラルド,0
1617,6080103002401,新規,0,2021-08-12,2021-08-12,合同会社Ｌｉｆｅ　ｔｉｍｅ,,合同会社,静岡県,御殿場市,二枚橋１１９番地の７シャングリラＢ３０１,,22,215,4120021,,,,,,,2021-08-12,1,,,,,ライフタイム,0
1629,6110003004551,新規,0,2021-08-12,2021-08-12,Ｒｉｒｉｉ合同会社,,合同会社,新潟県,三条市,旭町１丁目１８番１号,,15,204,9550065,,,,,,,2021-08-12,1,,,,,リリイ,0
1648,6120001239636,新規,0,2021-08-12,2021-08-12,泉心株式会社,,株式会社,大阪府,大阪市西区,本田３丁目７番６－１０２号,,27,106,5500022,,,,,,,2021-08-12,1,,,,,センシン,0
1649,6120001239660,新規,0,2021-08-12,2021-08-12,雍禾株式会社,,株式会社,大阪府,大阪市西成区,玉出東１丁目１０－１２マジョール３・４Ｃ号室,,27,122,5570043,,,,,,,2021-08-12,1,,,,,ヨウカ,0
1650,6120001239677,新規,0,2021-08-12,2021-08-12,株式会社保田商店,,株式会社,大阪府,大阪市平野区,長吉六反２丁目６番３６号,,27,126,5470012,,,,,,,2021-08-12,1,,,,,ヤスダショウテン,0
1651,6120001239693,新規,0,2021-08-12,2021-08-12,株式会社８８,,株式会社,大阪府,大阪市西成区,津守３丁目５番４３号,,27,122,5570062,,,,,,,2021-08-12,1,,,,,ハチハチ,0
1652,6120001239702,新規,0,2021-08-12,2021-08-12,ケイ・グラウンド・エンジニアリング・サポート株式会社,,株式会社,大阪府,大阪市淀川区,宮原１丁目１５番１号ノスクマードビル内,,27,123,5320003,,,,,,,2021-08-12,1,,,,,ケイグラウンドエンジニアリングサポート,0
1653,6120001239710,新規,0,2021-08-12,2021-08-12,ＭＩＮＨ　ＴＨＡＮＨ大阪株式会社,,株式会社,大阪府,大阪市大正区,泉尾４丁目７番１７号,,27,108,5510031,,,,,,,2021-08-12,1,,,,,ミンタインオオサカ,0
1659,6120101064141,新規,0,2021-08-12,2021-08-12,株式会社ＳＯＬＩＧＨＴ,,株式会社,大阪府,阪南市,尾崎町１０５番地の５,,27,232,5990201,,,,,,,2021-08-12,1,,,,,ソライト,0
1670,6140003016627,新規,0,2021-08-12,2021-08-12,合同会社Ｎヤマ,,合同会社,兵庫県,神戸市中央区,花隈町３番３号メトロハイツ花隈７０３号,,28,110,6500013,,,,,,,2021-08-12,1,,,,,エヌヤマ,0
1683,6180001147180,新規,0,2021-08-12,2021-08-12,株式会社エイト,,株式会社,愛知県,名古屋市北区,清水２丁目１－１１ジュネス清水８０１,,23,103,4620844,,,,,,,2021-08-12,1,,,,,エイト,0
1684,6180001147404,新規,0,2021-08-12,2021-08-12,株式会社ＪＴイノベーション,,株式会社,愛知県,北名古屋市,高田寺屋敷３３１番地１,,23,234,4810011,,,,,,,2021-08-12,1,,,,,ジェーティーイノベーション,0
1685,6180001147412,新規,0,2021-08-12,2021-08-12,株式会社Ａｌｍａｘｉａ,,株式会社,愛知県,春日井市,味美白山町２丁目９番地２６,,23,206,4860969,,,,,,,2021-08-12,1,,,,,アルマクシア,0
1691,6180301035267,新規,0,2021-08-12,2021-08-12,株式会社タクヤ設備,,株式会社,愛知県,豊田市,青木町３丁目１６０番地,,23,211,4700335,,,,,,,2021-08-12,1,,,,,,0
1706,6220001024359,新規,0,2021-08-12,2021-08-12,株式会社オネスティ,,株式会社,石川県,金沢市,増泉３丁目４番１１号,,17,201,9218025,,,,,,,2021-08-12,1,,,,,オネスティ,0
1708,6220005008580,新規,0,2021-08-12,2021-08-12,特定非営利活動法人北陸スポーツ協会,,その他の設立登記法人,石川県,金沢市,山科３丁目６番９号,,17,201,9218175,,,,,,,2021-08-12,1,,,,,ホクリクスポーツキョウカイ,0
1710,6230001018938,新規,0,2021-08-12,2021-08-12,株式会社ｇｒｉｍｍ,,株式会社,富山県,富山市,大手町４番１６号,,16,201,9300084,,,,,,,2021-08-12,1,,,,,グリム,0
1717,6240001058413,新規,0,2021-08-12,2021-08-12,Ｅ＆Ｉ株式会社,,株式会社,広島県,尾道市,美ノ郷町三成１１０６番地３,,34,205,7220215,,,,,,,2021-08-12,1,,,,,イーアンドアイ,0
1734,6290003011489,新規,0,2021-08-12,2021-08-12,ユニバーサルプロダクツ合同会社,,合同会社,福岡県,福岡市博多区,博多駅前４丁目１８番１９号,,40,132,8120011,,,,,,,2021-08-12,1,,,,,ユニバーサルプロダクツ,0
1737,6290801027694,新規,0,2021-08-12,2021-08-12,株式会社シンカイ住建,,株式会社,福岡県,北九州市小倉北区,篠崎２丁目４６番６ヴィラージュ小倉５０６号,,40,106,8030861,,,,,,,2021-08-12,1,,,,,シンカイジュウケン,0
1739,6300001012594,新規,0,2021-08-12,2021-08-12,株式会社ＴＭ電工,,株式会社,佐賀県,唐津市,山本１５３５番地２,,41,202,8470002,,,,,,,2021-08-12,1,,,,,ティーエムデンコウ,0
1744,6320003003598,新規,0,2021-08-12,2021-08-12,合同会社クローバーたけた,,合同会社,大分県,竹田市,久住町大字仏原１５５８番地３,,44,208,8780203,,,,,,,2021-08-12,1,,,,,クローバータケタ,0
1747,6330001028902,新規,0,2021-08-12,2021-08-12,株式会社ＩＺＺＡＣ,,株式会社,熊本県,熊本市東区,戸島西１丁目２９番３３号,,43,102,8618043,,,,,,,2021-08-12,1,,,,,アイザック,0
1753,6360001029187,新規,0,2021-08-12,2021-08-12,株式会社高良内装コーポレーション,00123917,株式会社,沖縄県,石垣市,字新川２４２６番地４,,47,207,9070024,,,,,,,2021-08-12,1,,,,,タカラナイソウコーポレーション,0
1754,6360001029195,新規,0,2021-08-12,2021-08-12,ＥＮ．ＬＩＦＥ株式会社,,株式会社,沖縄県,糸満市,字照屋６１５－３,,47,210,9010315,,,,,,,2021-08-12,1,,,,,,0
1755,6360005006488,新規,0,2021-08-12,2021-08-12,一般社団法人海の森サンゴ再生プロジェクト,,その他の設立登記法人,沖縄県,中頭郡北中城村,字仲順３３７番地１,,47,327,9012303,,,,,,,2021-08-12,1,,,,,ウミノモリサンゴサイセイプロジェクト,0
1760,6370001047477,新規,0,2021-08-12,2021-08-12,株式会社Ｍ’ｓ　Ｃｒｅｗ,,株式会社,宮城県,富谷市,明石台７丁目２６番地４,,04,216,9813332,,,,,,,2021-08-12,1,,,,,エムズクルー,0
1766,6380003004995,新規,0,2021-08-12,2021-08-12,合同会社ローカルサポート,,合同会社,福島県,西白河郡中島村,大字川原田字原山３８番地１７,,07,465,9610105,,,,,,,2021-08-12,1,,,,,,0
1771,6400001015562,新規,0,2021-08-12,2021-08-12,株式会社佐々花不動産,,株式会社,岩手県,盛岡市,上飯岡２０地割７９番地,,03,201,0200854,,,,,,,2021-08-12,1,,,,,ササカフドウサン,0
1779,6430001084679,新規,0,2021-08-12,2021-08-12,ユーサイトウ株式会社,,株式会社,北海道,虻田郡京極町,字川西３３０番地３２２,,01,399,0440131,,,,,,,2021-08-12,1,,,,,ユーサイトウ,0
1780,6430001084687,新規,0,2021-08-12,2021-08-12,株式会社クレアーレ北海道,,株式会社,北海道,江別市,工栄町２６番地の８,,01,217,0670051,,,,,,,2021-08-12,1,,,,,クレアーレホッカイドウ,0
1784,6430003013017,新規,0,2021-08-12,2021-08-12,ＰＲ合同会社,,合同会社,北海道,札幌市白石区,東札幌五条４丁目３番１３号,,01,104,0030005,,,,,,,2021-08-12,1,,,,,ピーアール,0
1800,7010001220358,新規,0,2021-08-12,2021-08-12,株式会社ＴＡＫＵＯ　ＨＡＹＡＳＨＩ,,株式会社,東京都,中央区,銀座１丁目１６番７号銀座大栄ビル５階,,13,102,1040061,,,,,,,2021-08-12,1,,,,,タクオハヤシ,0
1801,7010001220382,新規,0,2021-08-12,2021-08-12,株式会社古酒の舎,,株式会社,東京都,千代田区,大手町２丁目６番２号,,13,101,1000004,,,,,,,2021-08-12,1,,,,,コシュノヤ,0
1803,7010003035564,新規,0,2021-08-12,2021-08-12,アスターアクイジション合同会社３０,,合同会社,東京都,千代田区,丸の内３丁目１番１号東京共同会計事務所内,,13,101,1000005,,,,,,,2021-08-12,1,,,,,アスターアクイジションサンゼロ,0
1804,7010003035589,新規,0,2021-08-12,2021-08-12,ＧＵＩＬＤ　ＩＮＤＩＶＩＤＵＡＬ合同会社,,合同会社,東京都,中央区,銀座１丁目２２番１１号,,13,102,1040061,,,,,,,2021-08-12,1,,,,,ギルドインディビジュアル,0
1805,7010003035597,新規,0,2021-08-12,2021-08-12,鎌倉青山合同会社,,合同会社,東京都,千代田区,丸の内３丁目１番１号,,13,101,1000005,,,,,,,2021-08-12,1,,,,,カマクラセイザン,0
1810,7010401162010,新規,0,2021-08-12,2021-08-12,株式会社Ｊａｓｙ　Ａｎｇｅｌ,,株式会社,東京都,港区,虎ノ門１丁目２３－２－４６１０,,13,103,1050001,,,,,,,2021-08-12,1,,,,,ジェシーエンジェル,0
1811,7010401162084,新規,0,2021-08-12,2021-08-12,ＬＳ－Ａｖｉａｔｉｏｎ第３９号株式会社,,株式会社,東京都,港区,六本木１丁目６番１号,,13,103,1060032,,,,,,,2021-08-12,1,,,,,エルエスアビエーションダイサンジュウキュウゴウ,0
1813,7010403025867,新規,0,2021-08-12,2021-08-12,合同会社クオンタムＣ,,合同会社,東京都,港区,高輪４丁目１０番３１号,,13,103,1080074,,,,,,,2021-08-12,1,,,,,,0
1814,7010403025883,新規,0,2021-08-12,2021-08-12,スターライツグループ合同会社,,合同会社,東京都,港区,東麻布３丁目５番１５号瀬里奈３１１,,13,103,1060044,,,,,,,2021-08-12,1,,,,,スターライツグループ,0
1821,7010605003984,新規,0,2021-08-12,2021-08-12,一般社団法人アスノハウス,,その他の設立登記法人,東京都,墨田区,錦糸４丁目１６番３－６１０号,,13,107,1300013,,,,,,,2021-08-12,1,,,,,アスノハウス,0
1827,7010801032226,新規,0,2021-08-12,2021-08-12,株式会社お茶の間ｏｃｈａｎｏｍａ,,株式会社,東京都,大田区,鵜の木２丁目４３－１７－１０１,,13,111,1460091,,,,,,,2021-08-12,1,,,,,オチャノマ,0
1829,7010901049244,新規,0,2021-08-12,2021-08-12,ＶＯＹＡＧＥＲ　ＢＲＡＮＤＩＮＧ＆ＭＡＲＫＥＴＩＮＧ株式会社,,株式会社,東京都,世田谷区,若林４丁目３１番１９号,,13,112,1540023,,,,,,,2021-08-12,1,,,,,ヴォイジャーブランディングアンドマーケティング,0
1830,7010901049252,新規,0,2021-08-12,2021-08-12,株式会社エゴン,,株式会社,東京都,世田谷区,下馬５丁目３４－２６－８０６,,13,112,1540002,,,,,,,2021-08-12,1,,,,,エゴン,0
1833,7010903006722,新規,0,2021-08-12,2021-08-12,合同会社メディパワメント,,合同会社,東京都,世田谷区,奥沢１丁目１１番１０号,,13,112,1580083,,,,,,,2021-08-12,1,,,,,メディパワメント,0
1836,7011001142138,新規,0,2021-08-12,2021-08-12,株式会社ＺｏＸ,,株式会社,東京都,目黒区,下目黒３丁目４番２号,,13,110,1530064,,,,,,,2021-08-12,1,,,,,ゾックス,0
1837,7011001142170,新規,0,2021-08-12,2021-08-12,株式会社テストン,,株式会社,東京都,渋谷区,広尾５丁目４番１２号４２６号室,,13,113,1500012,,,,,,,2021-08-12,1,,,,,テストン,0
1838,7011001142245,新規,0,2021-08-12,2021-08-12,株式会社ＲＡＸＩＲ,,株式会社,東京都,渋谷区,神宮前６丁目２３番４号桑野ビル２階,,13,113,1500001,,,,,,,2021-08-12,1,,,,,ラクシール,0
1845,7011601025320,新規,0,2021-08-12,2021-08-12,株式会社ＫＡＴＳＵ建装,,株式会社,東京都,練馬区,西大泉３丁目３０番１２－３０３号,,13,120,1780065,,,,,,,2021-08-12,1,,,,,カツケンソウ,0
1847,7011801039574,新規,0,2021-08-12,2021-08-12,株式会社盛榮産業,,株式会社,東京都,足立区,梅島１丁目２８番６号,,13,121,1210816,,,,,,,2021-08-12,1,,,,,セイエイサンギョウ,0
1877,7021003010787,新規,0,2021-08-12,2021-08-12,Ｃｒｅａｔｉｖｅ　Ａ合同会社,,合同会社,神奈川県,鎌倉市,大町１丁目１－４ＨＡＴＳＵ鎌倉,,14,204,2480007,,,,,,,2021-08-12,1,,,,,クリエーティブエ,0
1878,7021003010795,新規,0,2021-08-12,2021-08-12,合同会社和光,,合同会社,神奈川県,小田原市,板橋７１８番地,,14,206,2500034,,,,,,,2021-08-12,1,,,,,ワコウ,0
1889,7040001119779,新規,0,2021-08-12,2021-08-12,株式会社よつ葉,,株式会社,千葉県,千葉市若葉区,みつわ台２丁目４番地１４号,,12,104,2640032,,,,,,,2021-08-12,1,,,,,,0
1892,7040005021312,新規,0,2021-08-12,2021-08-12,農事組合法人アグリキューブ,,その他の設立登記法人,千葉県,長生郡白子町,北高根４１３３番地,,12,424,2994217,,,,,,,2021-08-12,1,,,,,アグリキューブ,0
1896,7050001049694,新規,0,2021-08-12,2021-08-12,株式会社小沢石油店,,株式会社,茨城県,つくば市,北条１４７番地,,08,220,3004231,,,,,,,2021-08-12,1,,,,,コザワセキユテン,0
1897,7050001049703,新規,0,2021-08-12,2021-08-12,株式会社ＮＥＸＴ,,株式会社,茨城県,古河市,上片田８３９－７,,08,204,3060128,,,,,,,2021-08-12,1,,,,,ネクスト,0
1912,7100001034526,新規,0,2021-08-12,2021-08-12,株式会社ＣＨＩＬＡＳＳＯ　ＣＯＭＰＡＮＹ　ＪＡＰＡＮ,,株式会社,長野県,諏訪市,大字中洲三ツ俣５６８５番地１,,20,206,3920015,,,,,,,2021-08-12,1,,,,,チラッソカンパニージャパン,0
1915,7110001035969,新規,0,2021-08-12,2021-08-12,株式会社ＦｉＶＥＬＬ,,株式会社,新潟県,長岡市,江陽１丁目１－３７、１Ｆ,,15,202,9402015,,,,,,,2021-08-12,1,,,,,ファイベル,0
1939,7120001239668,新規,0,2021-08-12,2021-08-12,株式会社トラストヴィレッジ,,株式会社,大阪府,枚方市,西禁野２丁目２５番２号,,27,210,5731192,,,,,,,2021-08-12,1,,,,,トラストヴィレッジ,0
1940,7120001239701,新規,0,2021-08-12,2021-08-12,株式会社利他,,株式会社,大阪府,大阪市西区,西本町１丁目４番地１号４階ｆａｂｂｉｔＧＧＯｓａｋａＨｏｎｍａｃｈｉ内,,27,106,5500005,,,,,,,2021-08-12,1,,,,,リタ,0
1945,7120003019977,新規,0,2021-08-12,2021-08-12,合同会社聖翔興産,,合同会社,大阪府,交野市,東倉治３丁目２番１号,,27,230,5760061,,,,,,,2021-08-12,1,,,,,セイショウコウサン,0
1957,7122001035080,新規,0,2021-08-12,2021-08-12,株式会社ステイシアホーム,,株式会社,大阪府,東大阪市,高井田元町２丁目９番１６号ＳＫＳビル３階,,27,227,5770054,,,,,,,2021-08-12,1,,,,,ステイシアホーム,0
1959,7122005003579,新規,0,2021-08-12,2021-08-12,特定非営利活動法人日越交流サポート,,その他の設立登記法人,大阪府,東大阪市,荒川３丁目１２番１２号２Ｆ,,27,227,5770843,,,,,,,2021-08-12,1,,,,,ニチエツコウリューサポート,0
1961,7130001069916,新規,0,2021-08-12,2021-08-12,桜歌株式会社,,株式会社,京都府,京都市下京区,扇酒屋町２８５番地２０１,,26,106,6008095,,,,,,,2021-08-12,1,,,,,オウカ,0
1962,7130001069924,新規,0,2021-08-12,2021-08-12,八百川株式会社,,株式会社,京都府,京都市南区,東九条宇賀辺町４８番地２,,26,107,6018021,,,,,,,2021-08-12,1,,,,,ヤオカワ,0
1968,7140001122657,新規,0,2021-08-12,2021-08-12,株式会社空島,,株式会社,兵庫県,神戸市灘区,灘北通１０丁目２番３－２１０６号,,28,102,6570835,,,,,,,2021-08-12,1,,,,,ソラジマ,0
1984,7180003022851,新規,0,2021-08-12,2021-08-12,合同会社ティー・ケー,,合同会社,愛知県,名古屋市西区,名駅２丁目２７番１５号,,23,104,4510045,,,,,,,2021-08-12,1,,,,,ティーケー,0
1991,7220003003095,新規,0,2021-08-12,2021-08-12,合同会社ミリフル,,合同会社,石川県,金沢市,彦三町１丁目２番１号アソルティ金沢彦三１Ｆ,,17,201,9200901,,,,,,,2021-08-12,1,,,,,ミリフル,0
2008,7290001094147,新規,0,2021-08-12,2021-08-12,株式会社ＯＦＦＢＥＡＴ,,株式会社,福岡県,福岡市中央区,春吉２丁目１０番１１－１４０１号,,40,133,8100003,,,,,,,2021-08-12,1,,,,,オフビート,0
2009,7290001094262,新規,0,2021-08-12,2021-08-12,株式会社Ｄｅｌｉｇｈｔ,,株式会社,福岡県,福岡市早良区,西新３丁目２番８号,,40,137,8140002,,,,,,,2021-08-12,1,,,,,ディライト,0
2010,7290801027702,新規,0,2021-08-12,2021-08-12,株式会社ＪＳＫ　Ｍａｉｎｔｅｎａｎｃｅ,,株式会社,福岡県,北九州市小倉北区,霧ケ丘２丁目２５番３０－１００７号,,40,106,8020052,,,,,,,2021-08-12,1,,,,,ジェイエスケイメンテナンス,0
2013,7300001012585,新規,0,2021-08-12,2021-08-12,株式会社ヒカリカッター,,株式会社,佐賀県,鹿島市,大字三河内甲２７４番地１,,41,207,8491315,,,,,,,2021-08-12,1,,,,,ヒカリカッター,0
2014,7300001012593,新規,0,2021-08-12,2021-08-12,株式会社５０’ｓ,,株式会社,佐賀県,武雄市,北方町志久３２７１番地１,,41,206,8430000,,,,,,,2021-08-12,1,,,,,フィフティーズ,0
2034,7370001047484,新規,0,2021-08-12,2021-08-12,グラシス株式会社,,株式会社,宮城県,仙台市青葉区,錦ケ丘８丁目２２番地の１５,,04,101,9893123,,,,,,,2021-08-12,1,,,,,グラシス,0
2037,7380001032114,新規,0,2021-08-12,2021-08-12,株式会社プメハナ,,株式会社,福島県,郡山市,八山田西１丁目２２２番地,,07,203,9638053,,,,,,,2021-08-12,1,,,,,プメハナ,0
2043,7390001016561,新規,0,2021-08-12,2021-08-12,嗣業株式会社,,株式会社,山形県,米沢市,大字花沢３３１番地,,06,202,9920021,,,,,,,2021-08-12,1,,,,,シギョウ,0
2049,7410001012913,新規,0,2021-08-12,2021-08-12,こまちソフトウェア株式会社,,株式会社,秋田県,秋田市,東通仲町４番１号,,05,201,0100002,,,,,,,2021-08-12,1,,,,,コマチソフトウェア,0
2056,7430001084694,新規,0,2021-08-12,2021-08-12,株式会社光栄,,株式会社,北海道,室蘭市,母恋北町２丁目１番４号,,01,205,0510004,,,,,,,2021-08-12,1,,,,,コウエイ,0
2057,7430001084711,新規,0,2021-08-12,2021-08-12,ＴＲＵＳＴ　ＭＡＲＫ株式会社,,株式会社,北海道,札幌市南区,澄川六条４丁目２番１号,,01,106,0050006,,,,,,,2021-08-12,1,,,,,トラストマーク,0
2059,7430003013016,新規,0,2021-08-12,2021-08-12,板東企画合同会社,,合同会社,北海道,札幌市東区,丘珠町４９９番地,,01,103,0070880,,,,,,,2021-08-12,1,,,,,バンドウキカク,0
2060,7430003013024,新規,0,2021-08-12,2021-08-12,エクシアス・テクノロジー合同会社,,合同会社,北海道,札幌市白石区,本郷通１丁目南３－２３－１０２,,01,104,0030024,,,,,,,2021-08-12,1,,,,,エクシアステクノロジー,0
2066,7480001011462,新規,0,2021-08-12,2021-08-12,株式会社リアルエステート住,,株式会社,徳島県,徳島市,新町橋１丁目５井上ビル１Ｆ,,36,201,7700904,,,,,,,2021-08-12,1,,,,,リアルエステートジュウ,0
2076,8010003035547,新規,0,2021-08-12,2021-08-12,合同会社Ｓｏｃｉｉ,,合同会社,東京都,千代田区,富士見１丁目３－１１富士見デュープレックスＢ’ｓ４Ｆ,,13,101,1020071,,,,,,,2021-08-12,1,,,,,ソシー,0
2077,8010003035563,新規,0,2021-08-12,2021-08-12,アスターアクイジション合同会社２９,,合同会社,東京都,千代田区,丸の内３丁目１番１号東京共同会計事務所内,,13,101,1000005,,,,,,,2021-08-12,1,,,,,アスターアクイジションニキュー,0
2078,8010003035588,新規,0,2021-08-12,2021-08-12,メディトラスト合同会社,,合同会社,東京都,中央区,日本橋兜町１７－２兜町第６葉山ビル４Ｆ,,13,102,1030026,,,,,,,2021-08-12,1,,,,,メディトラスト,0
2089,8010401161993,新規,0,2021-08-12,2021-08-12,Ｆｅｄｅｒａｔｅｄ　Ｈｅｒｍｅｓ　Ｊａｐａｎ株式会社,,株式会社,東京都,港区,虎ノ門４丁目３番１号城山トラストタワー９階東京赤坂法律事務所内,,13,103,1050001,,,,,,,2021-08-12,1,,,,,フェデレーテッドエルメスジャパン,0
2090,8010401162018,新規,0,2021-08-12,2021-08-12,株式会社Ｓｙｓｔｅｍ屋,,株式会社,東京都,港区,南青山２丁目２－１５ＷＩＮ青山５３１,,13,103,1070062,,,,,,,2021-08-12,1,,,,,システムヤ,0
2091,8010401162050,新規,0,2021-08-12,2021-08-12,ＰＩＮＥＣＯＮＥ株式会社,,株式会社,東京都,港区,南青山２丁目２－８ＤＦビル１０Ｆ,,13,103,1070062,,,,,,,2021-08-12,1,,,,,パインコン,0
2092,8010401162083,新規,0,2021-08-12,2021-08-12,ＬＳ－Ａｖｉａｔｉｏｎ第３８号株式会社,,株式会社,東京都,港区,六本木１丁目６番１号,,13,103,1060032,,,,,,,2021-08-12,1,,,,,エルエスアビエーションダイサンジュウハチゴウ,0
2094,8010403025899,新規,0,2021-08-12,2021-08-12,合同会社キャリアデザインコンサルティング＆ラボ,,合同会社,東京都,港区,新橋５丁目２４番８号パークハビオ新橋６０１,,13,103,1050004,,,,,,,2021-08-12,1,,,,,キャリアデザインコンサルティングアンドラボ,0
2096,8010501047663,新規,0,2021-08-12,2021-08-12,株式会社Ｌｅｏｌｉａ,,株式会社,東京都,台東区,浅草橋１丁目２５－１第一ＮＳビル４Ｆ,,13,106,1110053,,,,,,,2021-08-12,1,,,,,レオリア,0
2118,8011001142079,新規,0,2021-08-12,2021-08-12,株式会社ロッカ,,株式会社,東京都,渋谷区,神南１丁目１２番１４号渋谷宮田ビル７１０号室,,13,113,1500041,,,,,,,2021-08-12,1,,,,,ロッカ,0
2119,8011001142129,新規,0,2021-08-12,2021-08-12,株式会社ｕｚｕｍａｋｉ　ｃｒｅａｔｉｖｅ,,株式会社,東京都,目黒区,青葉台３丁目６－２８ラ・トゥール青葉台２５０３,,13,110,1530042,,,,,,,2021-08-12,1,,,,,ウズマキクリエイティブ,0
2120,8011001142153,新規,0,2021-08-12,2021-08-12,株式会社ＬｕｃｋＴｒｅｅ,,株式会社,東京都,渋谷区,渋谷２丁目７番１４号ＶＯＲＴＡＯＹＡＭＡ３０２,,13,113,1500002,,,,,,,2021-08-12,1,,,,,ラックツリー,0
2121,8011001142236,新規,0,2021-08-12,2021-08-12,株式会社プランプラン,,株式会社,東京都,渋谷区,神宮前６丁目２３番４号２Ｆ,,13,113,1500001,,,,,,,2021-08-12,1,,,,,プランプラン,0
2122,8011001142244,新規,0,2021-08-12,2021-08-12,株式会社志成ＮＥＸＴ,,株式会社,東京都,渋谷区,恵比寿西１丁目３番２号恵比寿テラスビル１－Ｂ,,13,113,1500021,,,,,,,2021-08-12,1,,,,,シセイネクスト,0
2123,8011001142252,新規,0,2021-08-12,2021-08-12,フューチャーアート株式会社,,株式会社,東京都,渋谷区,桜丘町２６番１号セルリアンタワー１５階,,13,113,1500031,,,,,,,2021-08-12,1,,,,,フューチャーアート,0
2131,8011101095978,新規,0,2021-08-12,2021-08-12,株式会社ｍｉｒａｉａ,,株式会社,東京都,新宿区,赤城下町４５ＫＢＣ－Ｂ６,,13,104,1620803,,,,,,,2021-08-12,1,,,,,ミライア,0
2132,8011101095994,新規,0,2021-08-12,2021-08-12,株式会社Ｐｉｖｏｔ,,株式会社,東京都,新宿区,中落合３丁目３番５号,,13,104,1610032,,,,,,,2021-08-12,1,,,,,ピボット,0
2133,8011101096002,新規,0,2021-08-12,2021-08-12,株式会社ＮＡＯ,,株式会社,東京都,新宿区,百人町２丁目２５番１３－３０９号,,13,104,1690073,,,,,,,2021-08-12,1,,,,,ナオ,0
2134,8011103010935,新規,0,2021-08-12,2021-08-12,ＲｅＶａｌｕｅ合同会社,,合同会社,東京都,新宿区,新宿６丁目２９番１１号,,13,104,1600022,,,,,,,2021-08-12,1,,,,,リバリュー,0
2135,8011401023589,新規,0,2021-08-12,2021-08-12,秀集株式会社,,株式会社,東京都,板橋区,成増１丁目１４－９成増グリーンハイツ４０１,,13,119,1750094,,,,,,,2021-08-12,1,,,,,シュウシュウ,0
2151,8013305003246,新規,0,2021-08-12,2021-08-12,一般社団法人衛生防疫協会,,その他の設立登記法人,東京都,豊島区,池袋４丁目３６番１７号ＡＳＳ第３ビル８階,,13,116,1710014,,,,,,,2021-08-12,1,,,,,エイセイボウエキキョウカイ,0
2158,8020001142567,新規,0,2021-08-12,2021-08-12,ＡＴＡＡ　Ｈｏｌｄｉｎｇｓ株式会社,,株式会社,神奈川県,横浜市西区,みなとみらい２丁目２－１横浜ランドマークタワー２０Ｆ,,14,103,2200012,,,,,,,2021-08-12,1,,,,,エーティーエーエーホールディングス,0
2164,8020003020317,新規,0,2021-08-12,2021-08-12,Ｈｏｎｏｒ　Ｔｅｃｈｎｏｌｏｇｉｅｓ　Ｊａｐａｎ合同会社,,合同会社,神奈川県,横浜市西区,みなとみらい２丁目２番１号横浜ランドマークタワー２０階,,14,103,2200012,,,,,,,2021-08-12,1,,,,,オーナーテクノロジーズジャパン,0
2165,8020005008442,新規,0,2021-08-12,2021-08-12,有限責任川崎市交通局職員住宅組合,,その他の設立登記法人,神奈川県,川崎市川崎区,砂子１丁目５８番地川崎市交通局厚生会内,,14,131,2100006,,,,,,,2021-08-12,1,,,,,,0
2171,8021001073620,新規,0,2021-08-12,2021-08-12,株式会社森谷真空,,株式会社,神奈川県,藤沢市,菖蒲沢６８番地,,14,205,2520823,,,,,,,2021-08-12,1,,,,,モリヤシンクウ,0
2176,8021005012277,新規,0,2021-08-12,2021-08-12,ファミールヴィラ強羅六番館管理組合法人,,その他の設立登記法人,神奈川県,足柄下郡箱根町,強羅１３２０番地７１３,,14,382,2500408,,,,,,,2021-08-12,1,,,,,ファミールヴィラゴウラロクバンカン,0
2178,8030003017758,新規,0,2021-08-12,2021-08-12,Ｋ２合同会社,,合同会社,埼玉県,川口市,西川口１丁目１７番１号,,11,203,3320021,,,,,,,2021-08-12,1,,,,,ケーツー,0
2184,8040001119786,新規,0,2021-08-12,2021-08-12,株式会社Ｗｉｔｈ　Ｆａｒｍ,,株式会社,千葉県,いすみ市,須賀谷２８５７番地１,,12,238,2980106,,,,,,,2021-08-12,1,,,,,ウィズファーム,0
2190,8040003018326,新規,0,2021-08-12,2021-08-12,合同会社スタジオ木曜日,,合同会社,千葉県,成田市,所１３２２番地９,,12,211,2870211,,,,,,,2021-08-12,1,,,,,スタジオモクヨウビ,0
2192,8040005021311,新規,0,2021-08-12,2021-08-12,社会保険労務士法人あすなろ,,その他の設立登記法人,千葉県,松戸市,小金原６丁目８番地９ブル－ムハナノイ３０５,,12,207,2700021,,,,,,,2021-08-12,1,,,,,アスナロ,0
2242,8120001239642,新規,0,2021-08-12,2021-08-12,株式会社響灘社,,株式会社,大阪府,大阪市住吉区,杉本２丁目１３番３号,,27,120,5580022,,,,,,,2021-08-12,1,,,,,キョウダンシャ,0
2243,8120001239683,新規,0,2021-08-12,2021-08-12,株式会社ＺＥＲＯクリエイト,,株式会社,大阪府,大阪市北区,天神橋６丁目４番１１号Ｓ＆Ｙビル４０１号室,,27,127,5300041,,,,,,,2021-08-12,1,,,,,ゼロクリエイト,0
2244,8120001239700,新規,0,2021-08-12,2021-08-12,株式会社いかるが,,株式会社,大阪府,大阪市中央区,谷町２丁目２番２２号ＮＳビル４階,,27,128,5400012,,,,,,,2021-08-12,1,,,,,イカルガ,0
2245,8120001239717,新規,0,2021-08-12,2021-08-12,株式会社ＨＮＹ,,株式会社,大阪府,大阪市西区,南堀江４丁目２４－１０－２１２,,27,106,5500015,,,,,,,2021-08-12,1,,,,,エイチエヌワイ,0
2255,8122001035047,新規,0,2021-08-12,2021-08-12,株式会社Ｍｉｉｔｓ,,株式会社,大阪府,東大阪市,稲田上町２丁目８番３１号,,27,227,5770002,,,,,,,2021-08-12,1,,,,,ミーツ,0
2258,8130001069923,新規,0,2021-08-12,2021-08-12,株式会社ワイネット,,株式会社,京都府,京都市北区,西賀茂水垣町２５番地,,26,101,6038827,,,,,,,2021-08-12,1,,,,,ワイネット,0
2269,8140001122672,新規,0,2021-08-12,2021-08-12,株式会社薩真建装,,株式会社,兵庫県,加古川市,西神吉町鼎１４９－２,,28,210,6750047,,,,,,,2021-08-12,1,,,,,サツマケンソウ,0
2275,8160005010970,新規,0,2021-08-12,2021-08-12,一般社団法人晃樹会,,その他の設立登記法人,滋賀県,愛知郡愛荘町,香之庄６８１,,25,425,5291211,,,,,,,2021-08-12,1,,,,,コウジュカイ,0
2276,8170003001616,新規,0,2021-08-12,2021-08-12,合同会社カナリア会計,,合同会社,和歌山県,和歌山市,中７００番地５,,30,201,6408451,,,,,,,2021-08-12,1,,,,,カナリアカイケイ,0
2289,8180005019399,新規,0,2021-08-12,2021-08-12,一般社団法人ＭＯＦ　ＭＵＳＥＵＭ　ＮＡＧＯＹＡ,,その他の設立登記法人,愛知県,名古屋市瑞穂区,上山町２丁目２６番地の８,,23,108,4670022,,,,,,,2021-08-12,1,,,,,エムオーエフミュージアムナゴヤ,0
2291,8180303005068,新規,0,2021-08-12,2021-08-12,合資会社丸文,,合資会社,愛知県,西尾市,西幡豆町西前田２２番地,,23,213,4440703,,,,,,,2021-08-12,1,,,,,マルブン,0
2292,8180303005076,新規,0,2021-08-12,2021-08-12,合同会社フルイ,,合同会社,愛知県,西尾市,矢曽根町上前田５９,,23,213,4450872,,,,,,,2021-08-12,1,,,,,,0
2304,8220001024357,新規,0,2021-08-12,2021-08-12,株式会社ユウキ内装,,株式会社,石川県,河北郡内灘町,字向陽台１丁目１２８番地２,,17,365,9200272,,,,,,,2021-08-12,1,,,,,ユウキナイソウ,0
2307,8230001018928,新規,0,2021-08-12,2021-08-12,株式会社エルテック,,株式会社,富山県,富山市,秋吉７９番地５,,16,201,9300953,,,,,,,2021-08-12,1,,,,,エルテック,0
2310,8240001058444,新規,0,2021-08-12,2021-08-12,株式会社ＵＮＩＯＮ,,株式会社,広島県,安芸郡海田町,南堀川町３番２６－３０１号,,34,304,7360044,,,,,,,2021-08-12,1,,,,,ユニオン,0
2317,8260001035870,新規,0,2021-08-12,2021-08-12,株式会社Ｔ’ｓＡｕｔｏ,,株式会社,岡山県,倉敷市,玉島道越４８９番地４,,33,202,7138114,,,,,,,2021-08-12,1,,,,,ティーズオート,0
2324,8290001094138,新規,0,2021-08-12,2021-08-12,株式会社ホーライ,,株式会社,福岡県,朝倉市,堤１５５０番地７,,40,228,8380062,,,,,,,2021-08-12,1,,,,,ホーライ,0
2325,8300001012584,新規,0,2021-08-12,2021-08-12,株式会社フラワープロデュース・Ｋ,,株式会社,佐賀県,西松浦郡有田町,中の原１丁目３番５号,,41,401,8440009,,,,,,,2021-08-12,1,,,,,フラワープロデュースケイ,0
2334,8340001023966,新規,0,2021-08-12,2021-08-12,株式会社ＴＡＲＧＥＴ　ａｍａｍｉ,,株式会社,鹿児島県,大島郡瀬戸内町,大字古仁屋字船津３１,,46,525,8941506,,,,,,,2021-08-12,1,,,,,ターゲットアマミ,0
2337,8340003003512,新規,0,2021-08-12,2021-08-12,合同会社ＦＩＲＥ,,合同会社,鹿児島県,奄美市,名瀬朝仁町２番地６,,46,222,8940042,,,,,,,2021-08-12,1,,,,,ファイア,0
2342,8360001029185,新規,0,2021-08-12,2021-08-12,株式会社Ｎｅｗｗｉｎｇ,,株式会社,沖縄県,沖縄市,山内１丁目１０－３Ｓｔｏｎｅ　Ｒｉｖｅｒ２Ｆ,,47,211,9040034,,,,,,,2021-08-12,1,,,,,ニューウィング,0
2344,8360005006486,新規,0,2021-08-12,2021-08-12,一般社団法人フェリースプラス,,その他の設立登記法人,沖縄県,宜野湾市,字宇地泊８５０番地,,47,205,9012227,,,,,,,2021-08-12,1,,,,,フェリースプラス,0
2351,8370001047483,新規,0,2021-08-12,2021-08-12,大地と海のカンパネラＢｒｅｗｉｎｇ株式会社,,株式会社,宮城県,東松島市,矢本字大林５番地,,04,214,9810503,,,,,,,2021-08-12,1,,,,,ダイチトウミノカンパネラブリューイング,0
2371,8430001084768,新規,0,2021-08-12,2021-08-12,株式会社今貴,,株式会社,北海道,石狩市,花川南八条４丁目４４０番地,,01,235,0613208,,,,,,,2021-08-12,1,,,,,イマタカ,0
2381,8490001009959,新規,0,2021-08-12,2021-08-12,株式会社八金笑天,,株式会社,高知県,高知市,浦戸５９番地３,,39,201,7810262,,,,,,,2021-08-12,1,,,,,ハチキンショウテン,0
2392,9010001220414,新規,0,2021-08-12,2021-08-12,株式会社マルトク,,株式会社,東京都,文京区,千駄木１丁目２２番２６－３０１号,,13,105,1130022,,,,,,,2021-08-12,1,,,,,マルトク,0
2394,9010003035562,新規,0,2021-08-12,2021-08-12,アスターアクイジション合同会社２８,,合同会社,東京都,千代田区,丸の内３丁目１番１号東京共同会計事務所内,,13,101,1000005,,,,,,,2021-08-12,1,,,,,アスターアクイジションニハチ,0
2395,9010003035579,新規,0,2021-08-12,2021-08-12,ｉ－Ｓｋｉｎ合同会社,,合同会社,東京都,中央区,銀座１丁目２２番１１号銀座大竹ビジデンス２階,,13,102,1040061,,,,,,,2021-08-12,1,,,,,アイスキン,0
2396,9010003035587,新規,0,2021-08-12,2021-08-12,合同会社刀屋,,合同会社,東京都,中央区,湊３丁目８番１号リエトコートアルクスタワー５０１,,13,102,1040043,,,,,,,2021-08-12,1,,,,,,0
2398,9010401048554,新規,0,2021-08-12,2021-08-12,株式会社栄壽産業,,株式会社,東京都,港区,台場１丁目１番１号,,13,103,1350091,,,,,,,2021-08-12,1,,,,,エイジュサンギョウ,0
2402,9010401162009,新規,0,2021-08-12,2021-08-12,株式会社Ｋｕｎｉｍａｓｕ,,株式会社,東京都,港区,浜松町２丁目２番１５号浜松町ダイヤビル２Ｆ,,13,103,1050013,,,,,,,2021-08-12,1,,,,,クニマス,0
2405,9010403025898,新規,0,2021-08-12,2021-08-12,合同会社ＩＷＴ＆Ｃｏ．,,合同会社,東京都,港区,南青山２丁目２番１５号,,13,103,1070062,,,,,,,2021-08-12,1,,,,,アイダブリュティーアンドカンパニー,0
2406,9010405020105,新規,0,2021-08-12,2021-08-12,一般社団法人ユリウス,,その他の設立登記法人,東京都,港区,虎ノ門３丁目２２番１０－２０１号,,13,103,1050001,,,,,,,2021-08-12,1,,,,,ユリウス,0
2407,9010405020113,新規,0,2021-08-12,2021-08-12,ジー・ジェイ・レジデンス・ファイブ特定目的会社,,その他の設立登記法人,東京都,港区,虎ノ門４丁目３番１号城山トラストタワー２７階ＳａｎｎｅＧｒｏｕｐＪａｐａｎ株式会社内,,13,103,1050001,,,,,,,2021-08-12,1,,,,,ジージェイレジデンスファイブ,0
2410,9010601059780,新規,0,2021-08-12,2021-08-12,株式会社Ｐｒｅｍｉｕｍｓ　Ｈａｒｍｏｎｙ,,株式会社,東京都,墨田区,押上１丁目１－２東京スカイツリータウン・ソラマチ３１Ｆ,,13,107,1310045,,,,,,,2021-08-12,1,,,,,プレミアムズハーモニー,0
2412,9010703005897,新規,0,2021-08-12,2021-08-12,Ｍｏｌｔｅ　ｍａｎｉ合同会社,,合同会社,東京都,品川区,上大崎１丁目１８番７号,,13,109,1410021,,,,,,,2021-08-12,1,,,,,モルテマニ,0
2416,9010901049259,新規,0,2021-08-12,2021-08-12,株式会社さいとう,,株式会社,東京都,世田谷区,上馬２丁目１４番１号横溝ビル１階,,13,112,1540011,,,,,,,2021-08-12,1,,,,,サイトウ,0
2417,9011001142094,新規,0,2021-08-12,2021-08-12,株式会社Ｓ＆Ｗ,,株式会社,東京都,目黒区,大橋２丁目２３番２０号,,13,110,1530044,,,,,,,2021-08-12,1,,,,,エスアンドダブリュー,0
2418,9011001142136,新規,0,2021-08-12,2021-08-12,株式会社Ｂｅｒｒｙ,,株式会社,東京都,渋谷区,神南１丁目１２番１４号,,13,113,1500041,,,,,,,2021-08-12,1,,,,,ベリー,0
2430,9011303004125,新規,0,2021-08-12,2021-08-12,合同会社ＳＫＹ,,合同会社,東京都,杉並区,阿佐谷北４丁目２４番１１号ＭＤＭ・ＡＳＡＧＡＹＡ４０２,,13,115,1660001,,,,,,,2021-08-12,1,,,,,スカイ,0
2434,9011501027209,新規,0,2021-08-12,2021-08-12,ＳＵＭＡＩ　ＴＥＣＨＮＯＬＯＧＹ株式会社,,株式会社,東京都,荒川区,西日暮里２丁目１７番７号大石ビル４階,,13,118,1160013,,,,,,,2021-08-12,1,,,,,スマイテクノロジー,0
2437,9011603003371,新規,0,2021-08-12,2021-08-12,Ｊｏｉｅ　ｄｅ　Ｖｅｒｓａ合同会社,,合同会社,東京都,練馬区,関町南３丁目１１番１６,,13,120,1770053,,,,,,,2021-08-12,1,,,,,ジョワドゥフェルサ,0
2443,9012401038188,新規,0,2021-08-12,2021-08-12,アトムコンサルティング株式会社,,株式会社,東京都,武蔵野市,吉祥寺北町４丁目１番２４－Ａ２０５号,,13,203,1800001,,,,,,,2021-08-12,1,,,,,アトムコンサルティング,0
2451,9013301047857,新規,0,2021-08-12,2021-08-12,株式会社ワイズコミュニケーション,,株式会社,東京都,豊島区,東池袋１丁目３２番７号大樹生命池袋ビル７階,,13,116,1700013,,,,,,,2021-08-12,1,,,,,ワイズコミュニケーション,0
2458,9020001142566,新規,0,2021-08-12,2021-08-12,株式会社トンキーファーム,,株式会社,神奈川県,横浜市金沢区,洲崎町２番１５号,,14,108,2360028,,,,,,,2021-08-12,1,,,,,トンキーファーム,0
2459,9020001142574,新規,0,2021-08-12,2021-08-12,株式会社Ｕｎｉｑｕｅ,,株式会社,神奈川県,横浜市中区,初音町３丁目６３－３ＢＣＩＴＹＹＯＫＯＨＡＭＡＳＴＡＴＩＯＮＳＱＵＡＲＥ・Ｂ１階,,14,104,2310053,,,,,,,2021-08-12,1,,,,,ユニーク,0
2460,9020001142590,新規,0,2021-08-12,2021-08-12,株式会社ペッププランニング,,株式会社,神奈川県,横浜市中区,桜木町２丁目２番地,,14,104,2310062,,,,,,,2021-08-12,1,,,,,ペッププランニング,0
2465,9020003020308,新規,0,2021-08-12,2021-08-12,Ｌｉｎｋｓ０９４合同会社,,合同会社,神奈川県,横浜市神奈川区,片倉５丁目２－１５ロイヤルシャトー片倉１０５,,14,102,2210865,,,,,,,2021-08-12,1,,,,,リンクスゼロナインフォー,0
2466,9020003020316,新規,0,2021-08-12,2021-08-12,ルーツ合同会社,,合同会社,神奈川県,横浜市磯子区,栗木３丁目９番６号,,14,107,2350041,,,,,,,2021-08-12,1,,,,,ルーツ,0
2473,9021001073660,新規,0,2021-08-12,2021-08-12,ライフイノベーション株式会社,,株式会社,神奈川県,藤沢市,石川１丁目１５－４,,14,205,2520815,,,,,,,2021-08-12,1,,,,,ライフイノベーション,0
2476,9021003010793,新規,0,2021-08-12,2021-08-12,合同会社ＬＳＧ,,合同会社,神奈川県,伊勢原市,東大竹７１４番地の１９,,14,214,2591133,,,,,,,2021-08-12,1,,,,,エルエスジー,0
2483,9030001143794,新規,0,2021-08-12,2021-08-12,株式会社樹外構,,株式会社,埼玉県,桶川市,大字川田谷１９６１番地の６,,11,231,3630027,,,,,,,2021-08-12,1,,,,,イツキガイコウ,0
2484,9030002029002,新規,0,2021-08-12,2021-08-12,有限会社クボタ,,有限会社,埼玉県,所沢市,西所沢１丁目１９番２１号,,11,208,3591144,,,,,,,2021-08-12,1,,,,,クボタ,0
2490,9030005020478,新規,0,2021-08-12,2021-08-12,ＪＭＩＴＵ埼玉地方本部谷川電機製作所支部,,その他の設立登記法人,埼玉県,川口市,青木２丁目３番４６号,,11,203,3320031,,,,,,,2021-08-12,1,,,,,ジェイエムアイティーユーサイタマチホウホンブタニカワデンキセイサクショシブ,0
2496,9040001119785,新規,0,2021-08-12,2021-08-12,株式会社農情人,,株式会社,千葉県,船橋市,飯山満町３丁目１５２０－６ライオンズガーデン薬園台６１１号室,,12,204,2740822,,,,,,,2021-08-12,1,,,,,ノウジョウジン,0
2497,9040003018317,新規,0,2021-08-12,2021-08-12,合同会社ＤＵＡＮＥ　Ｅｙｅ　Ｆａｃｅ　Ｂｏｄｙ,,合同会社,千葉県,館山市,南条２２０番地の１１,,12,205,2940017,,,,,,,2021-08-12,1,,,,,デュアンアイタスフェイスタスボディ,0
2498,9040003018325,新規,0,2021-08-12,2021-08-12,合同会社ＢＥＥＸ,,合同会社,千葉県,習志野市,藤崎２丁目３番２９号テーズボヌール１０５号,,12,216,2750017,,,,,,,2021-08-12,1,,,,,ベックス,0
2508,9050001049684,新規,0,2021-08-12,2021-08-12,株式会社福いち,,株式会社,茨城県,桜川市,真壁町上小幡５９４番地１,,08,231,3004401,,,,,,,2021-08-12,1,,,,,フクイチ,0
2509,9050001049692,新規,0,2021-08-12,2021-08-12,株式会社ＳＵＥＨＩＲＯＧＡＲＩ,,株式会社,茨城県,神栖市,太田３４２３番地１１,,08,232,3140254,,,,,,,2021-08-12,1,,,,,スエヒロガリ,0
2516,9050003006023,新規,0,2021-08-12,2021-08-12,ＳＡＮＩＳＨ　ＩＮＴＥＲＮＡＴＩＯＮＡＬ合同会社,,合同会社,茨城県,つくば市,研究学園４丁目３４番地２ウエリスつくば研究学園レジデンス２１０７号,,08,220,3050817,,,,,,,2021-08-12,1,,,,,サーニッシュインターナショナル,0
2548,9120001239526,新規,0,2021-08-12,2021-08-12,株式会社フロンティアグループ,,株式会社,大阪府,大阪市北区,芝田２丁目２番１３号,,27,127,5300012,,,,,,,2021-08-12,1,,,,,フロンティアグループ,0
2549,9120001239641,新規,0,2021-08-12,2021-08-12,株式会社Ｆａｎａｃｈｉｉ,,株式会社,大阪府,大阪市淀川区,十三東１丁目１１番１５,,27,123,5320023,,,,,,,2021-08-12,1,,,,,ファナチ,0
2550,9120001239658,新規,0,2021-08-12,2021-08-12,株式会社南海堂,,株式会社,大阪府,枚方市,岡山手町１１番９８－５０８号,,27,210,5730034,,,,,,,2021-08-12,1,,,,,ナンカイドウ,0
2551,9120001239708,新規,0,2021-08-12,2021-08-12,株式会社アーバンビルド,,株式会社,大阪府,大阪市東淀川区,東中島１丁目１７番５号,,27,114,5330033,,,,,,,2021-08-12,1,,,,,アーバンビルド,0
2552,9120001239716,新規,0,2021-08-12,2021-08-12,株式会社Ｄｏｍａｎｉ,,株式会社,大阪府,枚方市,楠葉並木２丁目４番１８号,,27,210,5731118,,,,,,,2021-08-12,1,,,,,ドマーニ,0
2577,9170003001615,新規,0,2021-08-12,2021-08-12,合同会社ＫＩＳＥＩ,,合同会社,和歌山県,御坊市,島３６０番地１８,,30,205,6440003,,,,,,,2021-08-12,1,,,,,キセイ,0
2586,9180001147401,新規,0,2021-08-12,2021-08-12,三進ホールディングス株式会社,,株式会社,愛知県,名古屋市天白区,道明町６９番地,,23,116,4680064,,,,,,,2021-08-12,1,,,,,サンシンホールディングス,0
2608,9250001019064,新規,0,2021-08-12,2021-08-12,ｔａｓｋａｌｌ株式会社,,株式会社,山口県,萩市,大字東田町５８番地,,35,204,7580047,,,,,,,2021-08-12,1,,,,,タスカル,0
2615,9290001094104,新規,0,2021-08-12,2021-08-12,株式会社タイム,,株式会社,福岡県,福岡市中央区,天神３丁目１番１３号,,40,133,8100001,,,,,,,2021-08-12,1,,,,,タイム,0
2618,9300001012591,新規,0,2021-08-12,2021-08-12,株式会社ファースト保険,,株式会社,佐賀県,佐賀市,本庄町大字本庄４番地１,,41,201,8400027,,,,,,,2021-08-12,1,,,,,ファーストホケン,0
2619,9300003001709,新規,0,2021-08-12,2021-08-12,合同会社ブレーンファームファクトリー,,合同会社,佐賀県,佐賀市,金立町大字千布１５５６番地,,41,201,8490905,,,,,,,2021-08-12,1,,,,,ブレーンファームファクトリー,0
2621,9320001018538,新規,0,2021-08-12,2021-08-12,株式会社九州スパ,,株式会社,大分県,別府市,大字鶴見１５００番地３５２,,44,202,8740840,,,,,,,2021-08-12,1,,,,,キュウシュウスパ,0
2630,9360003011363,新規,0,2021-08-12,2021-08-12,合同会社ペンギンさん,,合同会社,沖縄県,島尻郡八重瀬町,字友寄４１番地１泰原荘１０２,,47,362,9010411,,,,,,,2021-08-12,1,,,,,ペンギンサン,0
2631,9360005006485,新規,0,2021-08-12,2021-08-12,葵税理士法人,,その他の設立登記法人,沖縄県,那覇市,長田２丁目２６番７号,,47,201,9020077,,,,,,,2021-08-12,1,,,,,アオイ,0
2635,9370001047417,新規,0,2021-08-12,2021-08-12,株式会社エフエントランス,,株式会社,宮城県,仙台市太白区,西中田３丁目１４番３号Ⅱ－１０３,00123914,04,104,9811105,,,,,,,2021-08-12,1,,,,,エフエントランス,0
2640,9400003002820,新規,0,2021-08-12,2021-08-12,合同会社モンサンミッシェル,,合同会社,岩手県,盛岡市,下鹿妻字辻屋敷７９,,03,201,0200856,,,,,,,2021-08-12,1,,,,,モンサンミッシェル,0
2644,9420003002364,新規,0,2021-08-12,2021-08-12,合同会社ルグラン,,合同会社,青森県,むつ市,柳町３丁目１３番２７号,,02,208,0350031,,,,,,,2021-08-12,1,,,,,ルグラン,0
