sequenceNumber,corporateNumber,process,correct,updateDate,changeDate,name,nameImageId,kind,prefectureName,cityName,streetNumber,addressImageId,prefectureCode,cityCode,postCode,addressOutside,addressOutsideImageId,closeDate,closeCause,successorCorporateNumber,changeCause,assignmentDate,latest,enName,enPrefectureName,enCityName,enAddressOutside,furigana,hihyoji
47,1010603005303,登記記録の閉鎖等,0,2023-08-16,2023-08-08,合同会社ベジコインタープラネット,,合同会社,東京都,江東区,豊洲４丁目１０番１８－２１８号,,13,108,1350061,,,2023-08-08,清算の結了等,,,2015-10-05,1,,,,,ベジコインタープラネット,0
56,1010705002751,登記記録の閉鎖等,0,2023-08-16,2023-08-09,特定非営利活動法人日本ケトルベルスポーツ連盟,,その他の設立登記法人,東京都,品川区,荏原２丁目１番１５号第７三井ビル地下１階,,13,109,1420063,,,2023-08-09,清算の結了等,,,2018-04-10,1,,,,,ニホンケトルベルスポーツレンメイ,0
57,1010801015327,登記記録の閉鎖等,0,2023-08-16,2023-08-10,日本セールスマンユニオン株式会社,,株式会社,東京都,品川区,旗の台５丁目８番５号,,13,109,1420064,,,2023-08-10,清算の結了等,,,2015-10-05,1,,,,,ニホンセールスマンユニオン,0
86,1012702009143,登記記録の閉鎖等,0,2023-08-16,2023-08-10,有限会社アドバンス,,有限会社,埼玉県,桶川市,大字倉田２５４番地の６,,11,231,3630006,,,2023-08-10,合併による解散等,8010001191524,令和５年８月１日東京都千代田区丸の内一丁目８番１号株式会社フィールドファーマシー（8010001191524）に合併し解散,2015-10-05,1,,,,,アドバンス,0
88,1013301042106,登記記録の閉鎖等,0,2023-08-16,2023-08-09,株式会社仕事生活支援センター,,株式会社,東京都,豊島区,東池袋２丁目６２番８号,,13,116,1700013,,,2023-08-09,清算の結了等,,,2018-04-12,1,,,,,シゴトセイカツシエンセンター,0
93,1020002026148,登記記録の閉鎖等,0,2023-08-16,2023-08-02,有限会社川島興業,,有限会社,神奈川県,横浜市神奈川区,反町１丁目５番地反町マンション５０１号,,14,102,2210825,,,2023-08-02,清算の結了等,,,2015-10-05,1,,,,,カワシマコウギョウ,0
94,1020002063471,登記記録の閉鎖等,0,2023-08-16,2023-08-02,有限会社エムエルコンサルタンツ,,有限会社,神奈川県,横浜市港北区,篠原北１丁目３番３５号,,14,109,2220021,,,2023-08-02,清算の結了等,,,2015-10-05,1,,,,,エムエルコンサルタンツ,0
105,1030001144437,登記記録の閉鎖等,0,2023-08-16,2023-07-20,株式会社ゴエスヤ,,株式会社,埼玉県,志木市,下宗岡４丁目１５番２０号,,11,228,3530003,,,2023-07-20,清算の結了等,,,2021-09-24,1,,,,,ゴエスヤ,0
111,1030002069014,登記記録の閉鎖等,0,2023-08-16,2023-07-20,有限会社西村工業,,有限会社,埼玉県,春日部市,大枝８９番地武里団地３街区１４棟２０５号,,11,214,3440023,,,2023-07-20,清算の結了等,,,2015-10-05,1,,,,,ニシムラコウギョウ,0
138,1120001184639,登記記録の閉鎖等,0,2023-08-16,2023-08-10,株式会社クライス,,株式会社,大阪府,大阪市北区,西天満４丁目５番７号,,27,127,5300047,,,2023-08-10,清算の結了等,,,2015-10-05,1,,,,,クライス,0
146,1120101004333,登記記録の閉鎖等,0,2023-08-16,2023-08-14,泉北三和設計総合株式会社,,株式会社,大阪府,和泉市,のぞみ野１丁目６－５,,27,219,5941105,,,2023-08-14,清算の結了等,,,2015-10-05,1,,,,,センボクサンワセッケイソウゴウ,0
158,1130003006311,登記記録の閉鎖等,0,2023-08-16,2023-08-01,合同会社ＧＧ,,合同会社,京都府,京都市中京区,北車屋町２６１グランタック六角ビル地下１階Ｂ号室,,26,104,6048021,,,2023-08-01,清算の結了等,,,2019-12-04,1,,,,,ジージー,0
184,1190002014367,登記記録の閉鎖等,0,2023-08-16,2023-08-07,豊和自動車整備有限会社,,有限会社,三重県,松阪市,猟師町３８３番地,,24,204,5150802,,,2023-08-07,清算の結了等,,,2015-10-05,1,,,,,ホウワジドウシャセイビ,0
193,1240001025351,登記記録の閉鎖等,0,2023-08-16,2023-08-14,株式会社大屋,,株式会社,広島県,広島市安佐南区,緑井６丁目２番９号,,34,105,7310103,,,2023-08-14,清算の結了等,,,2015-10-05,1,,,,,,0
199,1240002001236,登記記録の閉鎖等,0,2023-08-16,2023-08-10,有限会社イサム工業,,有限会社,広島県,広島市安佐南区,緑井３丁目２１番９号,,34,105,7310103,,,2023-08-10,清算の結了等,,,2015-10-05,1,,,,,イサムコウギョウ,0
209,1290002042787,登記記録の閉鎖等,0,2023-08-16,2023-07-31,有限会社タカハラ,,有限会社,福岡県,大野城市,下大利２丁目７番３号,,40,219,8160952,,,2023-07-31,清算の結了等,,,2015-10-05,1,,,,,タカハラ,0
213,1320002014386,登記記録の閉鎖等,0,2023-08-16,2023-08-14,尾上青果有限会社,,有限会社,大分県,豊後高田市,呉崎３４６０番地,,44,209,8790608,,,2023-08-14,清算の結了等,,,2015-10-05,1,,,,,,0
246,2010001135370,登記記録の閉鎖等,0,2023-08-16,2023-07-21,株式会社リュウエンジニアリング,,株式会社,埼玉県,八潮市,緑町４丁目３番地１０,,11,234,3400808,,,2023-07-21,清算の結了等,,,2015-10-05,1,,,,,リュウエンジニアリング,0
266,2010003021734,登記記録の閉鎖等,0,2023-08-16,2023-08-04,Ｇｏｌｄｅｎ　Ｐｉｃｃｏｌｏ合同会社,,合同会社,東京都,千代田区,丸の内３丁目１番１号東京共同会計事務所内,,13,101,1000005,,,2023-08-04,清算の結了等,,,2015-10-05,1,,,,,ゴールデンピッコロ,0
292,2010702015466,登記記録の閉鎖等,0,2023-08-16,2023-08-10,有限会社ｍｕｋｕ,,有限会社,東京都,品川区,旗の台６丁目５番１３号,,13,109,1420064,,,2023-08-10,清算の結了等,,,2015-10-05,1,,,,,ムク,0
293,2010802008510,登記記録の閉鎖等,0,2023-08-16,2023-08-07,有限会社泰斗建設,,有限会社,東京都,大田区,西六郷１丁目１６番１０号,,13,111,1440056,,,2023-08-07,清算の結了等,,,2015-10-05,1,,,,,タイトケンセツ,0
296,2010903004243,登記記録の閉鎖等,0,2023-08-16,2023-08-09,ａｒｏｓｍ合同会社,,合同会社,東京都,世田谷区,中町１丁目２３番７号,,13,112,1580091,,,2023-08-09,清算の結了等,,,2018-04-17,1,arosm LLC,Tokyo,"1-23-7, Nakamachi, Setagaya ku",,アロスム,0
337,2013102005698,登記記録の閉鎖等,0,2023-08-16,2023-08-14,有限会社岩浪薬局,,有限会社,東京都,青梅市,西分町１丁目２１番地,,13,205,1980044,,,2023-08-14,清算の結了等,,,2015-10-05,1,,,,,,0
361,2030002049163,登記記録の閉鎖等,0,2023-08-16,2023-07-20,有限会社セキネ工務店,,有限会社,埼玉県,三郷市,早稲田２丁目２８番地１７,,11,237,3410018,,,2023-07-20,清算の結了等,,,2015-10-05,1,,,,,セキネコウムテン,0
362,2030002094242,登記記録の閉鎖等,0,2023-08-16,2023-07-21,有限会社マックス,,有限会社,埼玉県,入間郡毛呂山町,前久保南３丁目２２番地６,,11,326,3500463,,,2023-07-21,清算の結了等,,,2015-10-05,1,,,,,マックス,0
364,2030003013845,登記記録の閉鎖等,0,2023-08-16,2023-07-20,合同会社ＤＲｇｉｖｅｒ,,合同会社,埼玉県,ふじみ野市,駒林１２８番地１,,11,245,3560034,,,2023-07-20,清算の結了等,,,2019-07-23,1,,,,,ディーアールギバー,0
367,2040001111708,登記記録の閉鎖等,0,2023-08-16,2023-07-20,株式会社Ｋｉｃｋｙ　ＳＭＩＬＥ,,株式会社,千葉県,市川市,行徳駅前１丁目２４番１号,,12,203,2720133,,,2023-07-20,清算の結了等,,,2019-12-05,1,,,,,キッキースマイル,0
368,2040001121987,登記記録の閉鎖等,0,2023-08-16,2023-07-20,株式会社ＡＮＨ　ＴＨＵ,,株式会社,千葉県,船橋市,金杉台１丁目２番６棟３０２号,,12,204,2730852,,,2023-07-20,清算の結了等,,,2022-02-01,1,,,,,アントゥ,0
374,2040003007318,登記記録の閉鎖等,0,2023-08-16,2023-07-20,合同会社潮風,,合同会社,千葉県,船橋市,楠が山町３４番地,,12,204,2740055,,,2023-07-20,清算の結了等,,,2015-10-05,1,,,,,シオカゼ,0
395,2120001175942,登記記録の閉鎖等,0,2023-08-16,2023-08-10,株式会社Ｋ－ＴＥＣ,,株式会社,大阪府,寝屋川市,仁和寺本町５丁目１８番１４号,,27,215,5720076,,,2023-08-10,清算の結了等,,,2015-10-05,1,,,,,ケーテック,0
396,2120001214213,登記記録の閉鎖等,0,2023-08-16,2023-08-09,ｏｗｌｋｉｎｇ株式会社,,株式会社,大阪府,大阪市阿倍野区,帝塚山１丁目１９番５号,00113743,27,119,5450037,,,2023-08-09,清算の結了等,,,2018-06-22,1,,,,,アウルキング,0
428,2190001007643,登記記録の閉鎖等,0,2023-08-16,2023-08-02,株式会社ハッピーガード,,株式会社,三重県,伊勢市,岡本１丁目９番３７号,,24,203,5160036,,,2023-08-02,合併による解散等,9190001007884,令和５年８月１日三重県伊勢市岡本一丁目９番３７号株式会社さくら警備（9190001007884）に合併し解散,2015-10-05,1,,,,,ハッピーガード,0
442,2260002016545,登記記録の閉鎖等,0,2023-08-16,2023-08-08,有限会社板谷製畳,,有限会社,岡山県,倉敷市,西田４２９番地,,33,202,7100027,,,2023-08-08,清算の結了等,,,2015-10-05,1,,,,,イタダニセイジョウ,0
449,2290801029595,登記記録の閉鎖等,0,2023-08-16,2023-07-31,株式会社寿２,,株式会社,福岡県,北九州市小倉南区,石田南２丁目４番１号,,40,107,8020836,,,2023-07-31,合併による解散等,5290801029584,令和５年７月３１日北九州市小倉南区石田南二丁目４番１号株式会社寿１（5290801029584）に合併し解散,2023-06-13,1,,,,,コトブキツー,0
458,2340001003833,登記記録の閉鎖等,0,2023-08-16,2023-08-14,株式会社ベストライフ,,株式会社,鹿児島県,鹿児島市,東坂元４丁目１１番１３号,,46,201,8920861,,,2023-08-14,清算の結了等,,,2015-10-05,1,,,,,,0
488,2470001016467,登記記録の閉鎖等,0,2023-08-16,2023-08-09,株式会社雅匠,,株式会社,香川県,高松市,今里町２丁目２２番地１６,,37,201,7600078,,,2023-08-09,清算の結了等,,,2017-08-18,1,,,,,ガショウ,0
508,3010002025009,登記記録の閉鎖等,0,2023-08-16,2023-08-04,有限会社松木製本所,,有限会社,東京都,中央区,新川１丁目２５番２０号,,13,102,1040033,,,2023-08-04,清算の結了等,,,2015-10-05,1,,,,,マツキセイホンショ,0
524,3010505002660,登記記録の閉鎖等,0,2023-08-16,2023-08-02,特許業務法人テクノテラス,,その他の設立登記法人,神奈川県,川崎市川崎区,境町８－２０,,14,131,2100838,,,2023-08-02,清算の結了等,,,2016-05-13,1,,,,,テクノテラス,0
525,3010601006292,登記記録の閉鎖等,0,2023-08-16,2023-08-09,株式会社松尾商會,,株式会社,東京都,江東区,亀戸４丁目１６番５号,,13,108,1360071,,,2023-08-09,清算の結了等,,,2015-10-05,1,,,,,マツオショウカイ,0
526,3010601061478,登記記録の閉鎖等,0,2023-08-16,2023-08-09,株式会社ｖａｌｏｒ,,株式会社,東京都,江東区,東雲２丁目３－１２クレヴィスタ豊洲ベイサイド４０９,,13,108,1350062,,,2023-08-09,清算の結了等,,,2022-07-12,1,,,,,バロール,0
542,3011001104942,登記記録の閉鎖等,0,2023-08-16,2023-08-08,株式会社ソルート,,株式会社,東京都,世田谷区,上馬１丁目１１番７号,,13,112,1540011,,,2023-08-08,清算の結了等,,,2015-10-05,1,,,,,ソルート,0
558,3011201013828,登記記録の閉鎖等,0,2023-08-16,2023-08-15,株式会社中野芸能,,株式会社,東京都,中野区,中央５丁目３９番１６号,,13,114,1640011,,,2023-08-15,清算の結了等,,,2015-10-05,1,,,,,ナカノゲイノウ,0
570,3011801016858,登記記録の閉鎖等,0,2023-08-16,2023-08-09,株式会社新月,,株式会社,東京都,葛飾区,堀切４丁目１０番４号,,13,122,1240006,,,2023-08-09,合併による解散等,3010001051451,令和５年８月１日東京都中央区銀座八丁目１０番７号東成興業株式会社（3010001051451）に合併し解散,2015-10-05,1,,,,,シンゲツ,0
586,3020001111642,登記記録の閉鎖等,0,2023-08-16,2023-08-02,優和メンテナンス株式会社,,株式会社,神奈川県,横浜市南区,花之木町２丁目３３番地１長谷川マンション５５号室,,14,105,2320018,,,2023-08-02,清算の結了等,,,2015-10-05,1,,,,,ユウワメンテナンス,0
587,3020001141078,登記記録の閉鎖等,0,2023-08-16,2023-08-02,シュプリームピース株式会社,,株式会社,神奈川県,横浜市中区,山下町３１番地,,14,104,2310023,,,2023-08-02,清算の結了等,,,2021-04-23,1,,,,,シュプリームピース,0
602,3021002013530,登記記録の閉鎖等,0,2023-08-16,2023-08-14,有限会社吉野工務店,,有限会社,神奈川県,茅ヶ崎市,円蔵２４３３番地,,14,207,2530084,,,2023-08-14,清算の結了等,,,2015-10-05,1,,,,,ヨシノコウムテン,0
620,3040001112795,登記記録の閉鎖等,0,2023-08-16,2023-07-20,株式会社Ａ．Ｅ,,株式会社,千葉県,千葉市中央区,星久喜町６０３番地１エクセランＢ２０２号,,12,101,2600808,,,2023-07-20,清算の結了等,,,2020-03-09,1,,,,,エーイー,0
641,3110002017103,登記記録の閉鎖等,0,2023-08-16,2023-08-09,有限会社近藤合成工業所,,有限会社,新潟県,三条市,西大崎３丁目１５番５１－３号,,15,204,9550033,,,2023-08-09,清算の結了等,,,2015-10-05,1,,,,,コンドウゴウセイコウギョウショ,0
642,3110002024842,登記記録の閉鎖等,0,2023-08-16,2023-08-08,株式会社栄信,,株式会社,新潟県,妙高市,大字雪森６４５番地１,,15,217,9440098,,,2023-08-08,清算の結了等,,,2015-10-05,1,,,,,エイシン,0
648,3120001098853,登記記録の閉鎖等,0,2023-08-16,2023-08-09,株式会社インフォメーション・リサーチ研究所,,株式会社,大阪府,大阪市西区,靱本町１丁目５番１５号,,27,106,5500004,,,2023-08-09,清算の結了等,,,2015-10-05,1,,,,,インフォメーションリサーチケンキュウシヨ,0
650,3120001184249,登記記録の閉鎖等,0,2023-08-16,2023-08-14,株式会社ハイファイブ,,株式会社,大阪府,大阪市中央区,平野町２丁目２番１３号,,27,128,5410046,,,2023-08-14,清算の結了等,,,2015-10-05,1,,,,,ハイファイブ,0
659,3120002058930,登記記録の閉鎖等,0,2023-08-16,2023-08-10,有限会社ショコラ,,有限会社,大阪府,大阪市中央区,博労町１丁目４－１０博労町エステートビル５０２号,,27,128,5410059,,,2023-08-10,清算の結了等,,,2015-10-05,1,,,,,ショコラ,0
667,3130001014330,登記記録の閉鎖等,0,2023-08-16,2023-07-27,株式会社グリーンワーク,,株式会社,京都府,京都市伏見区,羽束師菱川町２６０番地の４,,26,109,6128487,,,2023-07-27,清算の結了等,,,2015-10-05,1,,,,,グリーンワーク,0
680,3160001009889,登記記録の閉鎖等,0,2023-08-16,2023-08-14,宏栄興業株式会社,,株式会社,滋賀県,東近江市,沖野３丁目４番３９号,,25,213,5270034,,,2023-08-14,清算の結了等,,,2015-10-05,1,,,,,コウエイコウギョウ,0
684,3180001039249,登記記録の閉鎖等,0,2023-08-16,2023-08-14,南部株式会社,,株式会社,愛知県,名古屋市中区,上前津１丁目１３番２号ドゥーエ上前津２０３号,,23,106,4600013,,,2023-08-14,清算の結了等,,,2015-10-05,1,,,,,ナンブ,0
685,3180001048233,登記記録の閉鎖等,0,2023-08-16,2023-08-10,大威徳物産株式会社,00072149,株式会社,愛知県,名古屋市西区,大野木５丁目７５番地,,23,104,4520803,,,2023-08-10,清算の結了等,,,2015-10-05,1,,,,,ダイイトクブッサン,0
686,3180001105694,登記記録の閉鎖等,0,2023-08-16,2023-08-09,トレンドスター株式会社,,株式会社,愛知県,西春日井郡豊山町,大字豊場字神戸４４番地９,,23,342,4800202,,,2023-08-09,清算の結了等,,,2015-10-05,1,,,,,トレンドスター,0
706,3190002021956,登記記録の閉鎖等,0,2023-08-16,2023-08-07,有限会社前川塗装,,有限会社,三重県,四日市市,釆女町８９５番地の１０,,24,202,5100954,,,2023-08-07,清算の結了等,,,2015-10-05,1,,,,,マエカワトソウ,0
710,3230001011037,登記記録の閉鎖等,0,2023-08-16,2023-08-15,株式会社宮城推進技術,,株式会社,富山県,高岡市,手洗野１５７５番地,,16,202,9330967,,,2023-08-15,清算の結了等,,,2015-10-05,1,,,,,ミヤギスイシンギジュツ,0
715,3240001058779,登記記録の閉鎖等,0,2023-08-16,2023-08-15,株式会社スモールプラス,,株式会社,広島県,広島市中区,大手町１丁目１番２６号大手町一番ビル３０５,,34,101,7300051,,,2023-08-15,清算の結了等,,,2021-10-20,1,,,,,スモールプラス,0
735,3310002016159,登記記録の閉鎖等,0,2023-08-16,2023-08-07,有限会社リノベイト,,有限会社,長崎県,諫早市,福田町２４０６番地１,,42,204,8540001,,,2023-08-07,清算の結了等,,,2015-10-05,1,,,,,リノベイト,0
740,3340002010506,登記記録の閉鎖等,0,2023-08-16,2023-08-14,有限会社ロンドンスクール,,有限会社,鹿児島県,鹿児島市,鴨池１丁目３８番１５号,,46,201,8900063,,,2023-08-14,清算の結了等,,,2015-10-05,1,,,,,ロンドンスクール,0
760,3400001008560,登記記録の閉鎖等,0,2023-08-16,2023-08-09,株式会社ティエフシー,,株式会社,岩手県,下閉伊郡山田町,中央町１１番１４号,,03,482,0281332,,,2023-08-09,合併による解散等,6240001039454,令和５年８月１日広島県尾道市浦崎町１４７１番地８ツネイシクラフト＆ファシリティーズ株式会社（6240001039454）に合併し解散,2015-10-05,1,,,,,ティエフシー,0
761,3400002003288,登記記録の閉鎖等,0,2023-08-16,2023-08-04,有限会社村上エクステリア,,有限会社,岩手県,盛岡市,下太田方八丁４６番地２,,03,201,0200051,,,2023-08-04,清算の結了等,,,2015-10-05,1,,,,,ムラカミエクステリア,0
765,3430001053488,登記記録の閉鎖等,0,2023-08-16,2023-07-24,株式会社苫小牧プロパン,,株式会社,北海道,苫小牧市,新中野町２丁目１番１２号,,01,213,0530006,,,2023-07-24,清算の結了等,,,2015-10-05,1,,,,,トマコマイプロパン,0
769,3430003008168,登記記録の閉鎖等,0,2023-08-16,2023-07-24,合同会社Ｂｌｕｍｅ　Ｃ,,合同会社,北海道,札幌市北区,北十四条西２丁目２番１４－２０２号,,01,102,0010014,,,2023-07-24,清算の結了等,,,2017-01-31,1,,,,,ブルームシー,0
811,4010501036430,登記記録の閉鎖等,0,2023-08-16,2023-08-14,株式会社アスリート食堂,,株式会社,東京都,台東区,蔵前２丁目１５番５号,,13,106,1110051,,,2023-08-14,合併による解散等,1120001087528,令和５年８月１日大阪市中央区南船場四丁目１２番２１号株式会社バルニバービ（1120001087528）に合併し解散,2015-10-05,1,,,,,アスリートショクドウ,0
812,4010501039978,登記記録の閉鎖等,0,2023-08-16,2023-08-14,株式会社アズプラン・ワークス,,株式会社,東京都,台東区,上野６丁目１番６号御徒町グリーンハイツ１００５号,,13,106,1100005,,,2023-08-14,清算の結了等,,,2016-08-30,1,,,,,アズプランワークス,0
831,4010903003706,登記記録の閉鎖等,0,2023-08-16,2023-08-07,合同会社赤堤ケアサービス,,合同会社,東京都,世田谷区,赤堤３丁目３番７号,,13,112,1560044,,,2023-08-07,清算の結了等,,,2017-06-20,1,,,,,,0
848,4011101074201,登記記録の閉鎖等,0,2023-08-16,2023-08-14,株式会社Ｊ．ｌｅａｐｉｎｇ,,株式会社,東京都,足立区,伊興５丁目２番１２号,,13,121,1210823,,,2023-08-14,清算の結了等,,,2015-10-05,1,,,,,ジェイリーピング,0
873,4013102003089,登記記録の閉鎖等,0,2023-08-16,2023-08-14,有限会社古谷鉄工所,,有限会社,東京都,西多摩郡瑞穂町,大字富士山栗原新田２１５番地５,,13,303,1901204,,,2023-08-14,清算の結了等,,,2015-10-05,1,,,,,,0
879,4020001053223,登記記録の閉鎖等,0,2023-08-16,2023-08-02,株式会社アルファドール,,株式会社,神奈川県,横浜市神奈川区,沢渡５９番地の１２,,14,102,2210844,,,2023-08-02,清算の結了等,,,2015-10-05,1,,,,,アルファドール,0
885,4020002041920,登記記録の閉鎖等,0,2023-08-16,2023-08-02,有限会社神奈川フルーツ,,有限会社,神奈川県,横浜市神奈川区,斎藤分町３５番７号,,14,102,2210811,,,2023-08-02,清算の結了等,,,2015-10-05,1,,,,,カナガワフルーツ,0
898,4040001052248,登記記録の閉鎖等,0,2023-08-16,2023-07-21,株式会社大亜,,株式会社,千葉県,千葉市花見川区,千種町１６８番地１７,,12,102,2620012,,,2023-07-21,清算の結了等,,,2015-10-05,1,,,,,ダイア,0
907,4040003015450,登記記録の閉鎖等,0,2023-08-16,2023-07-21,合同会社ＤＭ,,合同会社,千葉県,柏市,高柳１３３５－１１０,,12,217,2770941,,,2023-07-21,清算の結了等,,,2020-06-01,1,,,,,ディーエム,0
908,4050001037710,登記記録の閉鎖等,0,2023-08-16,2023-08-08,株式会社アルテリコ,,株式会社,茨城県,水戸市,開江町１２９１番地の７,,08,201,3114144,,,2023-08-08,清算の結了等,,,2015-10-05,1,,,,,アルテリコ,0
929,4120001112654,登記記録の閉鎖等,0,2023-08-16,2023-08-10,株式会社三木商会,,株式会社,大阪府,大阪市中央区,谷町６丁目３番１９号,,27,128,5420012,,,2023-08-10,合併による解散等,8122001001437,令和５年８月１日大阪府東大阪市水走三丁目５番１０号株式会社オーミヤ（8122001001437）に合併し解散,2015-10-05,1,,,,,ミキショウカイ,0
938,4120005003841,登記記録の閉鎖等,0,2023-08-16,2023-08-10,一般財団法人若さの栄養学協会,,その他の設立登記法人,大阪府,大阪市北区,中崎西２丁目６番３号,,27,127,5300015,,,2023-08-10,清算の結了等,,,2015-10-05,1,,,,,ワカサノエイヨウガクキョウカイ,0
964,4180002006908,登記記録の閉鎖等,0,2023-08-16,2023-08-08,有限会社橋本電業,,有限会社,愛知県,名古屋市港区,高木町３丁目４８番地（ポートシティ高木６０６号）,,23,111,4550821,,,2023-08-08,清算の結了等,,,2015-10-05,1,,,,,ハシモトデンギョウ,0
968,4190001000142,登記記録の閉鎖等,0,2023-08-16,2023-08-08,宇佐見木材工業株式会社,,株式会社,三重県,津市,垂水７１３番地,,24,201,5140821,,,2023-08-08,清算の結了等,,,2015-10-05,1,,,,,ウサミモクザイ,0
969,4190001014563,登記記録の閉鎖等,0,2023-08-16,2023-08-04,株式会社カサハラ,,株式会社,三重県,四日市市,南富田町３番１７号,,24,202,5108013,,,2023-08-04,清算の結了等,,,2015-10-05,1,,,,,,0
973,4220005008384,登記記録の閉鎖等,0,2023-08-16,2023-07-03,税理士法人明和,,その他の設立登記法人,石川県,かほく市,宇野気１丁目２１番地１,,17,209,9291125,,,2023-07-03,合併による解散等,1220005007298,令和５年７月３日石川県金沢市広岡一丁目１１番６号税理士法人Ｋ・Ｓ・Ｄ（1220005007298）に合併し解散,2019-05-17,1,,,,,メイワ,0
989,4290805006127,登記記録の閉鎖等,0,2023-08-16,2023-08-14,特定非営利活動法人エシカルジャパン,,その他の設立登記法人,福岡県,北九州市八幡西区,星和町１３番３２号,,40,109,8070829,,,2023-08-14,清算の結了等,,,2015-10-05,1,,,,,エシカルジャパン,0
990,4300001012332,登記記録の閉鎖等,0,2023-08-16,2023-08-07,株式会社Ａ・ｍｕｓｅ,,株式会社,佐賀県,佐賀市,金立町大字千布１５３０番地１０,,41,201,8490905,,,2023-08-07,清算の結了等,,,2020-12-28,1,,,,,アミューズ,0
1002,4370302002307,登記記録の閉鎖等,0,2023-08-16,2023-08-08,有限会社ミウラ企画,,有限会社,宮城県,石巻市,蛇田字新谷地前１４９番地の２,,04,202,9860861,,,2023-08-08,清算の結了等,,,2015-10-05,1,,,,,ミウラキカク,0
1006,4410002002767,登記記録の閉鎖等,0,2023-08-16,2023-08-04,有限会社とざわ薬局,,有限会社,秋田県,秋田市,横森５丁目２０番２３号,,05,201,0100044,,,2023-08-04,清算の結了等,,,2015-10-05,1,,,,,トザワヤッキョク,0
1013,4430002052091,登記記録の閉鎖等,0,2023-08-16,2023-07-24,有限会社熊谷サービス,,有限会社,北海道,砂川市,空知太４９８番地１１４,,01,226,0730106,,,2023-07-24,清算の結了等,,,2015-10-05,1,,,,,クマガイサービス,0
1042,5010401060158,登記記録の閉鎖等,0,2023-08-16,2023-08-10,株式会社インターワークス,,株式会社,東京都,港区,西新橋１丁目６番２１号ＮＢＦ虎ノ門ビル８階,,13,103,1050003,,,2023-08-10,合併による解散等,6010001162295,令和５年８月１日東京都新宿区新宿二丁目１９番１号株式会社コンフィデンス・インターワークス（6010001162295）に合併し解散,2015-10-05,1,,,,,インターワークス,0
1056,5010601050289,登記記録の閉鎖等,0,2023-08-16,2023-08-07,株式会社プロスト,,株式会社,東京都,江東区,亀戸６丁目３３番３号,,13,108,1360071,,,2023-08-07,清算の結了等,,,2016-08-26,1,,,,,,0
1058,5010602004005,登記記録の閉鎖等,0,2023-08-16,2023-08-08,大栄美術印刷有限会社,,有限会社,東京都,江東区,清澄２丁目１２番１８号,,13,108,1350024,,,2023-08-08,清算の結了等,,,2015-10-05,1,,,,,,0
1072,5011005006729,登記記録の閉鎖等,0,2023-08-16,2023-08-08,一般社団法人技術教育放送,,その他の設立登記法人,東京都,目黒区,中央町１丁目１８番２号,,13,110,1520001,,,2023-08-08,清算の結了等,,,2016-04-08,1,,,,,ギジュツキョウイクホウソウ,0
1148,5060002011720,登記記録の閉鎖等,0,2023-08-16,2023-07-31,有限会社花宝館,,有限会社,栃木県,河内郡上三川町,大字上蒲生４番地,,09,301,3290617,,,2023-07-31,清算の結了等,,,2015-10-05,1,,,,,カホウカン,0
1160,5110001015048,登記記録の閉鎖等,0,2023-08-16,2023-08-09,東進サニービル株式会社,,株式会社,新潟県,三条市,西裏館２丁目６番２号ＳＴビル１０１号,,15,204,9550082,,,2023-08-09,清算の結了等,,,2015-10-05,1,,,,,トウシンサニービル,0
1161,5110001022416,登記記録の閉鎖等,0,2023-08-16,2023-08-09,株式会社軽友舎,,株式会社,新潟県,長岡市,関原町１丁目７７４番地４,,15,202,9402035,,,2023-08-09,清算の結了等,,,2015-10-05,1,,,,,ケイユウシャ,0
1164,5110002021631,登記記録の閉鎖等,0,2023-08-16,2023-08-01,有限会社田中クリーニング店,,有限会社,新潟県,村上市,羽黒町５番１６号,,15,212,9580851,,,2023-08-01,清算の結了等,,,2015-10-05,1,,,,,タナカクリーニングテン,0
1165,5110002028239,登記記録の閉鎖等,0,2023-08-16,2023-08-08,有限会社高直板金工業,,有限会社,新潟県,長岡市,曙３丁目４番地２１,,15,202,9400832,,,2023-08-08,清算の結了等,,,2015-10-05,1,,,,,タカナオバンキンコウギョウ,0
1171,5120001242392,登記記録の閉鎖等,0,2023-08-16,2023-08-10,関西福栄設計株式会社,,株式会社,大阪府,大阪市北区,西天満３丁目４番２１－２０４号,,27,127,5300047,,,2023-08-10,清算の結了等,,,2021-12-08,1,,,,,カンサイフクエイセッケイ,0
1172,5120001246047,登記記録の閉鎖等,0,2023-08-16,2023-08-08,ＨＯＳＨＩＮＡ株式会社,,株式会社,大阪府,大阪市東住吉区,駒川１丁目１５番４－３０２号,,27,121,5460043,,,2023-08-08,清算の結了等,,,2022-05-23,1,,,,,ホシナ,0
1189,5140001034417,登記記録の閉鎖等,0,2023-08-16,2023-08-08,株式会社アカシ住宅,,株式会社,兵庫県,神戸市西区,王塚台１丁目１４２番地ハイツ鳥井２０５号,,28,111,6512135,,,2023-08-08,清算の結了等,,,2015-10-05,1,,,,,アカシジュウタク,0
1194,5140005016163,登記記録の閉鎖等,0,2023-08-16,2023-08-09,医療法人社団難波耳鼻咽喉科,,その他の設立登記法人,兵庫県,西宮市,里中町３丁目１番５号,,28,204,6638183,,,2023-08-09,清算の結了等,,,2015-10-05,1,,,,,ナンバジビインコウカ,0
1195,5140005016171,登記記録の閉鎖等,0,2023-08-16,2023-08-14,医療法人社団山下胃腸科外科,,その他の設立登記法人,兵庫県,西宮市,熊野町１４番２号,,28,204,6638103,,,2023-08-14,清算の結了等,,,2015-10-05,1,,,,,ヤマシタイチョウカゲカ,0
1196,5140005023977,登記記録の閉鎖等,0,2023-08-16,2023-08-10,一般社団法人あま・ひと・みがき・プラットフォーム,,その他の設立登記法人,兵庫県,尼崎市,築地２丁目６番２５号,,28,202,6600858,,,2023-08-10,清算の結了等,,,2018-02-23,1,,,,,アマヒトミガキプラットフォーム,0
1197,5160001010267,登記記録の閉鎖等,0,2023-08-16,2023-08-14,株式会社明和塗装工業所,,株式会社,滋賀県,東近江市,沖野３丁目４番３９号,,25,213,5270034,,,2023-08-14,清算の結了等,,,2015-10-05,1,,,,,メイワトソウコウギョウショ,0
1208,5200002007233,登記記録の閉鎖等,0,2023-08-16,2023-08-09,有限会社北岡縫製,,有限会社,岐阜県,各務原市,蘇原野口町４丁目４１番地,,21,213,5040854,,,2023-08-09,清算の結了等,,,2015-10-05,1,,,,,キタオカホウセイ,0
1216,5240001044835,登記記録の閉鎖等,0,2023-08-16,2023-08-14,株式会社ＯＣＭ化成,,株式会社,広島県,広島市中区,光南４丁目７番３４号,,34,101,7300825,,,2023-08-14,清算の結了等,,,2015-10-05,1,,,,,オーシーエムカセイ,0
1254,5390001008412,登記記録の閉鎖等,0,2023-08-16,2023-08-10,冷温機械株式会社,,株式会社,山形県,鶴岡市,切添町９番５号,,06,203,9970022,,,2023-08-10,清算の結了等,,,2015-10-05,1,,,,,レイオンキカイ,0
1258,5410002007757,登記記録の閉鎖等,0,2023-08-16,2023-08-03,有限会社中央ストアー,,有限会社,秋田県,湯沢市,柳町１丁目１番４号,,05,207,0120826,,,2023-08-03,清算の結了等,,,2015-10-05,1,,,,,チュウオウストアー,0
1261,5420002015412,登記記録の閉鎖等,0,2023-08-16,2023-08-02,有限会社ワタナベ機工,,有限会社,青森県,南津軽郡大鰐町,大字居土字花岡３４番地,,02,362,0380233,,,2023-08-02,清算の結了等,,,2015-10-05,1,,,,,ワタナベキコウ,0
1263,5430001038677,登記記録の閉鎖等,0,2023-08-16,2023-07-25,株式会社マリート,,株式会社,北海道,札幌市中央区,南三条西２２丁目２番８号,,01,101,0640803,,,2023-07-25,清算の結了等,,,2015-10-05,1,,,,,マリート,0
1276,5490003000506,登記記録の閉鎖等,0,2023-08-16,2023-08-14,合同会社しゅりの里自然農園,,合同会社,高知県,幡多郡三原村,大字芳井１８１４番地,,39,427,7870811,,,2023-08-14,清算の結了等,,,2015-10-05,1,,,,,,0
1282,6010001174010,登記記録の閉鎖等,0,2023-08-16,2023-08-04,株式会社フォーシーズ,,株式会社,東京都,文京区,湯島３丁目１７番７－４０１号,,13,105,1130034,,,2023-08-04,清算の結了等,,,2016-03-09,1,,,,,フォーシーズ,0
1309,6010501044464,登記記録の閉鎖等,0,2023-08-16,2023-08-14,株式会社ブライトフェイス,,株式会社,東京都,台東区,蔵前２丁目１５番５号,,13,106,1110051,,,2023-08-14,合併による解散等,1120001087528,令和５年８月１日大阪市中央区南船場四丁目１２番２１号株式会社バルニバービ（1120001087528）に合併し解散,2019-08-06,1,,,,,ブライトフェイス,0
1314,6010701024992,登記記録の閉鎖等,0,2023-08-16,2023-08-09,モノコトコネクション株式会社,,株式会社,東京都,品川区,東五反田４丁目１番２７－２－３０９号,,13,109,1410022,,,2023-08-09,清算の結了等,,,2015-10-05,1,,,,,モノコトコネクション,0
1344,6011101067450,登記記録の閉鎖等,0,2023-08-16,2023-08-04,株式会社ネクシジョン,,株式会社,東京都,千代田区,西神田３丁目１－２ウィンド西神田ビル５Ｆ,,13,101,1010065,,,2023-08-04,清算の結了等,,,2015-10-05,1,,,,,ネクシジョン,0
1368,6020001120715,登記記録の閉鎖等,0,2023-08-16,2023-08-02,流聖興業株式会社,,株式会社,神奈川県,横浜市戸塚区,原宿３丁目４１番２９号,,14,110,2450063,,,2023-08-02,清算の結了等,,,2017-04-12,1,,,,,リュウセイコウギョウ,0
1376,6020002008199,登記記録の閉鎖等,0,2023-08-16,2023-08-02,有限会社湘南研削,,有限会社,神奈川県,横浜市金沢区,六浦東１丁目２７番２９号,,14,108,2360037,,,2023-08-02,清算の結了等,,,2015-10-05,1,,,,,ショウナンケンサク,0
1397,6040001032677,登記記録の閉鎖等,0,2023-08-16,2023-07-21,北栄建設株式会社,,株式会社,千葉県,浦安市,北栄３丁目２１番２号,,12,227,2790002,,,2023-07-21,清算の結了等,,,2015-10-05,1,,,,,ホクエイケンセツ,0
1420,6100001005511,登記記録の閉鎖等,0,2023-08-16,2023-08-08,株式会社クリノ企画,,株式会社,長野県,須坂市,大字井上２２０９番地７,,20,207,3820045,,,2023-08-08,清算の結了等,,,2015-10-05,1,,,,,クリノキカク,0
1423,6100002026952,登記記録の閉鎖等,0,2023-08-16,2023-08-08,有限会社ヤマジヨウ,,有限会社,長野県,北安曇郡白馬村,大字神城６９７５番地１,,20,485,3999211,,,2023-08-08,清算の結了等,,,2015-10-05,1,,,,,ヤマジョウ,0
1424,6100005012776,登記記録の閉鎖等,0,2023-08-16,2023-08-04,一般社団法人松本国際高等学校同窓会,,その他の設立登記法人,長野県,松本市,宮田２１番１７号,,20,202,3990001,,,2023-08-04,清算の結了等,,,2021-10-12,1,,,,,マツモトコクサイコウトウガッコウドウソウカイ,0
1426,6110002009808,登記記録の閉鎖等,0,2023-08-16,2023-08-08,吉沢製菓有限会社,,有限会社,新潟県,新潟市秋葉区,柄目木１０１番地,,15,105,9560852,,,2023-08-08,清算の結了等,,,2015-10-05,1,,,,,ヨシザワセイカ,0
1427,6110002018874,登記記録の閉鎖等,0,2023-08-16,2023-08-09,有限会社板垣電器計装,,有限会社,新潟県,燕市,小関７２５番地,,15,213,9591286,,,2023-08-09,清算の結了等,,,2015-10-05,1,,,,,イタガキデンキケイソウ,0
1428,6110002018908,登記記録の閉鎖等,0,2023-08-16,2023-08-09,有限会社イル・サローネ,,有限会社,新潟県,燕市,杣木１４５２番地,,15,213,9591284,,,2023-08-09,清算の結了等,,,2015-10-05,1,,,,,イルサローネ,0
1429,6120001201166,登記記録の閉鎖等,0,2023-08-16,2023-08-10,格安電力株式会社,,株式会社,大阪府,大阪市中央区,南船場３丁目２－２２おおきに南船場ビル２０１,,27,128,5420081,,,2023-08-10,合併による解散等,9010001227087,令和５年８月１日東京都千代田区丸の内一丁目６番１号丸の内センタービル２Ｆ株式会社エネワンでんき（9010001227087）に合併し解散,2016-10-12,1,,,,,カクヤスデンリョク,0
1448,6130001027635,登記記録の閉鎖等,0,2023-08-16,2023-08-02,株式会社ヨリタ電気,,株式会社,京都府,京都市南区,唐橋川久保町２０番地６,,26,107,6018451,,,2023-08-02,清算の結了等,,,2015-10-05,1,,,,,ヨリタデンキ,0
1467,6190001009941,登記記録の閉鎖等,0,2023-08-16,2023-08-04,株式会社キグチコーポレーション,,株式会社,三重県,名張市,西田原２３４７番地２,,24,208,5180609,,,2023-08-04,清算の結了等,,,2015-10-05,1,,,,,キグチコーポレーション,0
1474,6210001001037,登記記録の閉鎖等,0,2023-08-16,2023-08-10,株式会社ティエムエフ,,株式会社,福井県,福井市,大手３丁目１２番２０号,,18,201,9100005,,,2023-08-10,合併による解散等,1010001143481,令和５年８月１日東京都中央区八丁堀三丁目１７番１３号株式会社ティエムワイ（1010001143481）に合併し解散,2015-10-05,1,,,,,ティエムエフ,0
1475,6210001007463,登記記録の閉鎖等,0,2023-08-16,2023-08-10,山田設備株式会社,,株式会社,福井県,福井市,新保町第２３号５番地,,18,201,9100832,,,2023-08-10,合併による解散等,1010001143481,令和５年８月１日東京都中央区八丁堀三丁目１７番１３号株式会社ティエムワイ（1010001143481）に合併し解散,2015-10-05,1,,,,,ヤマダセツビ,0
1477,6220001024854,登記記録の閉鎖等,0,2023-08-16,2023-08-09,株式会社ＴＡＳＡＫＵ,,株式会社,石川県,金沢市,広岡１丁目５番４号９０１,,17,201,9200031,,,2023-08-09,清算の結了等,,,2022-05-23,1,,,,,タサク,0
1484,6240002002312,登記記録の閉鎖等,0,2023-08-16,2023-08-14,有限会社エスポワール,,有限会社,広島県,広島市西区,東観音町３番２号,,34,104,7330032,,,2023-08-14,清算の結了等,,,2015-10-05,1,,,,,エスポワール,0
1485,6240003001107,登記記録の閉鎖等,0,2023-08-16,2023-08-10,合同会社ヒューマンネットワーク９３３９,,合同会社,広島県,広島市南区,宇品東１丁目１番５８号,,34,103,7340003,,,2023-08-10,清算の結了等,,,2015-10-05,1,,,,,ヒューマンネットワークキュウサンサンキュウ,0
1504,6290802007084,登記記録の閉鎖等,0,2023-08-16,2023-08-14,有限会社ワイ・エム・オフィス,,有限会社,福岡県,北九州市小倉北区,下到津１丁目６番３３号コーポラス到津２０２号,,40,106,8030846,,,2023-08-14,清算の結了等,,,2015-10-05,1,,,,,,0
1570,7010501039091,登記記録の閉鎖等,0,2023-08-16,2023-08-14,株式会社バルニバービタイムタイム,,株式会社,東京都,台東区,蔵前２丁目１５番５号,,13,106,1110051,,,2023-08-14,合併による解散等,1120001087528,令和５年８月１日大阪市中央区南船場四丁目１２番２１号株式会社バルニバービ（1120001087528）に合併し解散,2016-02-03,1,,,,,バルニバービタイムタイム,0
1571,7010501044463,登記記録の閉鎖等,0,2023-08-16,2023-08-14,株式会社ＳＵＵＭ＆Ｃｏ．,,株式会社,東京都,台東区,蔵前２丁目１５番５号,,13,106,1110051,,,2023-08-14,合併による解散等,1120001087528,令和５年８月１日大阪市中央区南船場四丁目１２番２１号株式会社バルニバービ（1120001087528）に合併し解散,2019-08-07,1,,,,,スームアンドコー,0
1613,7020001057700,登記記録の閉鎖等,0,2023-08-16,2023-08-02,ハッピー・バレー株式会社,,株式会社,神奈川県,横浜市保土ケ谷区,西久保町１１４番地の２３３アーバンハイツ保土ヶ谷１２１号,,14,106,2400022,,,2023-08-02,清算の結了等,,,2015-10-05,1,,,,,ハッピーバレー,0
1624,7021001012884,登記記録の閉鎖等,0,2023-08-16,2023-08-10,ダイエー販売株式会社,,株式会社,神奈川県,相模原市中央区,相模原８丁目５番１７号,,14,152,2520231,,,2023-08-10,清算の結了等,,,2015-10-05,1,,,,,ダイエーハンバイ,0
1645,7030003004781,登記記録の閉鎖等,0,2023-08-16,2023-07-20,合同会社ＴＭＹ,,合同会社,埼玉県,熊谷市,屈戸１８６番地１,,11,202,3600131,,,2023-07-20,清算の結了等,,,2015-10-05,1,,,,,ティーエムワイ,0
1646,7030003017734,登記記録の閉鎖等,0,2023-08-16,2023-07-20,ロハスクリエイション合同会社,,合同会社,埼玉県,坂戸市,大字厚川５０－４,,11,239,3500242,,,2023-07-20,清算の結了等,,,2021-08-06,1,,,,,ロハスクリエイション,0
1651,7040001036446,登記記録の閉鎖等,0,2023-08-16,2023-07-21,株式会社日本コンテック,,株式会社,千葉県,松戸市,和名ケ谷１４１５番地の１７,,12,207,2702232,,,2023-07-21,清算の結了等,,,2015-10-05,1,,,,,ニホンコンテック,0
1662,7060001010325,登記記録の閉鎖等,0,2023-08-16,2023-07-31,鹿沼木材工業株式会社,,株式会社,栃木県,鹿沼市,鳥居跡町１４１６番地１１,,09,205,3220044,,,2023-07-31,清算の結了等,,,2015-10-05,1,,,,,カヌマモクザイコウギョウ,0
1668,7060003002254,登記記録の閉鎖等,0,2023-08-16,2023-07-31,スマイル合同会社,,合同会社,栃木県,宇都宮市,元今泉２丁目２番３号テツカハイツ３０２室,,09,201,3210954,,,2023-07-31,清算の結了等,,,2016-04-14,1,,,,,スマイル,0
1669,7070001002412,登記記録の閉鎖等,0,2023-08-16,2023-08-09,株式会社日本自動車サービス,,株式会社,群馬県,前橋市,朝倉町１丁目５番地１,,10,201,3710811,,,2023-08-09,清算の結了等,,,2015-10-05,1,,,,,ニホンジドウシャサービス,0
1673,7080001011313,登記記録の閉鎖等,0,2023-08-16,2023-08-14,株式会社高山新聞店,00067314,株式会社,静岡県,静岡市葵区,駒形通３丁目３番３号,,22,101,4200042,,,2023-08-14,清算の結了等,,,2015-10-05,1,,,,,タカヤマシンブンテン,0
1683,7110002029598,登記記録の閉鎖等,0,2023-08-16,2023-08-08,有限会社若林酒店,,有限会社,新潟県,長岡市,福住３丁目６番２７号,,15,202,9400034,,,2023-08-08,清算の結了等,,,2015-10-05,1,,,,,ワカバヤシサケテン,0
1696,7120101066062,登記記録の閉鎖等,0,2023-08-16,2023-08-14,セプトン株式会社,,株式会社,大阪府,堺市堺区,三国ヶ丘御幸通１５４－５１１,,27,141,5900028,,,2023-08-14,清算の結了等,,,2022-08-16,1,,,,,セプトン,0
1699,7120903000425,登記記録の閉鎖等,0,2023-08-16,2023-08-07,合資会社ベンティアス,,合資会社,大阪府,高槻市,奈佐原２丁目６番２号,,27,207,5691041,,,2023-08-07,清算の結了等,,,2015-10-05,1,,,,,ベンティアス,0
1702,7130001057219,登記記録の閉鎖等,0,2023-08-16,2023-07-27,株式会社ことのは,,株式会社,京都府,京都市左京区,下鴨下川原町３４番地１,,26,103,6060803,,,2023-07-27,清算の結了等,,,2016-04-07,1,,,,,コトノハ,0
1709,7140001055080,登記記録の閉鎖等,0,2023-08-16,2023-08-07,佐藤正工業株式会社,,株式会社,兵庫県,尼崎市,大庄川田町１６番地の６,,28,202,6600072,,,2023-08-07,清算の結了等,,,2015-10-05,1,,,,,サトウマサコウギョウ,0
1742,7240001040502,登記記録の閉鎖等,0,2023-08-16,2023-08-14,株式会社ヒカリ,,株式会社,広島県,東広島市,八本松南１丁目１２番３－５号,,34,212,7390144,,,2023-08-14,清算の結了等,,,2015-10-05,1,,,,,,0
1750,7250002014537,登記記録の閉鎖等,0,2023-08-16,2023-08-01,有限会社木村商事,,有限会社,山口県,周南市,築港町１番１４号,,35,215,7450025,,,2023-08-01,清算の結了等,,,2015-10-05,1,,,,,キムラショウジ,0
1751,7260002011624,登記記録の閉鎖等,0,2023-08-16,2023-08-09,有限会社まさ衣,,有限会社,岡山県,岡山市北区,西之町１５番地の１０１,,33,101,7000916,,,2023-08-09,清算の結了等,,,2015-10-05,1,,,,,マサエ,0
1779,7330002016954,登記記録の閉鎖等,0,2023-08-16,2023-08-01,有限会社エム・ハーツ,,有限会社,熊本県,合志市,須屋５５８番地２,,43,216,8611102,,,2023-08-01,清算の結了等,,,2015-10-05,1,,,,,エムハーツ,0
1797,7390001013344,登記記録の閉鎖等,0,2023-08-16,2023-08-10,株式会社エブリー,,株式会社,山形県,東根市,大字関山１２６８番地,,06,211,9993724,,,2023-08-10,清算の結了等,,,2015-10-05,1,,,,,エブリー,0
1837,8010401162109,登記記録の閉鎖等,0,2023-08-16,2023-08-08,ＧＣＪＧ１５株式会社,,株式会社,東京都,港区,元赤坂１丁目１番８号株式会社赤坂国際会計内,,13,103,1070051,,,2023-08-08,合併による解散等,1030001000953,令和５年７月３１日埼玉県さいたま市中央区下落合五丁目４番６号株式会社ウエイブエンジニアリング（1030001000953）に合併し解散,2021-08-13,1,,,,,ジーシージェイジーフィフティーン,0
1853,8010601047084,登記記録の閉鎖等,0,2023-08-16,2023-08-08,株式会社ＹＰＣ東京動物画像センター,,株式会社,東京都,江東区,大島８丁目２２番１０号,,13,108,1360072,,,2023-08-08,清算の結了等,,,2015-10-05,1,,,,,,0
1861,8010802013050,登記記録の閉鎖等,0,2023-08-16,2023-08-07,有限会社鵬来,,有限会社,東京都,大田区,東雪谷３丁目８番４号,,13,111,1450065,,,2023-08-07,清算の結了等,,,2015-10-05,1,,,,,ホウライ,0
1869,8011001133219,登記記録の閉鎖等,0,2023-08-16,2023-08-07,株式会社４０４,,株式会社,東京都,目黒区,碑文谷５丁目１８－３,,13,110,1520003,,,2023-08-07,清算の結了等,,,2020-04-06,1,,,,,ヨンマルヨン,0
1877,8011005007757,登記記録の閉鎖等,0,2023-08-16,2023-08-10,一般社団法人ＴＳＵＮＡＧＵ,,その他の設立登記法人,大阪府,大阪市中央区,農人橋１丁目４－３４信金中央金庫ビル６Ｆ株式会社ＨｉｇｈＬｏｇｉｃ内,,27,128,5400011,,,2023-08-10,清算の結了等,,,2018-07-18,1,,,,,ツナグ,0
1895,8012301010306,登記記録の閉鎖等,0,2023-08-16,2023-08-08,株式会社Ｋ施工,,株式会社,東京都,町田市,忠生４丁目２番地１１,,13,209,1940035,,,2023-08-08,清算の結了等,,,2015-11-05,1,,,,,,0
1902,8020001029112,登記記録の閉鎖等,0,2023-08-16,2023-08-02,株式会社ミック,,株式会社,神奈川県,横浜市港南区,芹が谷３丁目２９番１９号,,14,111,2330006,,,2023-08-02,清算の結了等,,,2015-10-05,1,,,,,ミック,0
1903,8020001041471,登記記録の閉鎖等,0,2023-08-16,2023-08-02,株式会社ヴェロシティコンサルタンツ,,株式会社,神奈川県,横浜市港北区,篠原西町２番２８号,,14,109,2220025,,,2023-08-02,清算の結了等,,,2015-10-05,1,,,,,ヴェロシティコンサルタンツ,0
1916,8020002065338,登記記録の閉鎖等,0,2023-08-16,2023-08-02,有限会社ユニクリエ,,有限会社,神奈川県,横浜市戸塚区,戸塚町１９８７番地２,,14,110,2440003,,,2023-08-02,清算の結了等,,,2015-10-05,1,,,,,ユニクリエ,0
1919,8020003017734,登記記録の閉鎖等,0,2023-08-16,2023-08-02,ライフデザインＲ合同会社,,合同会社,神奈川県,川崎市高津区,末長２丁目１２番１９－５０６号,,14,134,2130013,,,2023-08-02,清算の結了等,,,2020-04-10,1,,,,,ライフデザインアール,0
1938,8040001016884,登記記録の閉鎖等,0,2023-08-16,2023-07-21,株式会社エマジール,,株式会社,千葉県,船橋市,丸山４丁目２番２号,,12,204,2730048,,,2023-07-21,清算の結了等,,,2015-10-05,1,,,,,エマジール,0
1949,8060002019463,登記記録の閉鎖等,0,2023-08-16,2023-08-01,荒川鉄工有限会社,,有限会社,栃木県,鹿沼市,上野町２４８番地１,,09,205,3220021,,,2023-08-01,清算の結了等,,,2015-10-05,1,,,,,アラカワテッコウ,0
1950,8060002035452,登記記録の閉鎖等,0,2023-08-16,2023-07-31,有限会社石川保温工業,,有限会社,栃木県,足利市,葉鹿町１３０７番地,,09,202,3260143,,,2023-07-31,清算の結了等,,,2015-10-05,1,,,,,イシカワホオンコウギョウ,0
1952,8070001035329,登記記録の閉鎖等,0,2023-08-16,2023-08-09,株式会社ＭＡＲＳ　ＡＧＲＩＴＥＣＨ,,株式会社,群馬県,高崎市,問屋町西１丁目１番２,,10,202,3700007,,,2023-08-09,清算の結了等,,,2018-12-13,1,,,,,マーズアグリテック,0
1961,8090002000841,登記記録の閉鎖等,0,2023-08-16,2023-08-04,共栄農機有限会社,,有限会社,山梨県,甲府市,住吉４丁目２３番２６号,,19,201,4000851,,,2023-08-04,清算の結了等,,,2015-10-05,1,,,,,キョウエイノウキ,0
1985,8120101032063,登記記録の閉鎖等,0,2023-08-16,2023-08-10,五交商運株式会社,,株式会社,大阪府,羽曳野市,伊賀４丁目４番８号,,27,222,5830876,,,2023-08-10,清算の結了等,,,2015-10-05,1,,,,,ゴコウショウウン,0
1998,8140002039148,登記記録の閉鎖等,0,2023-08-16,2023-08-07,有限会社仁久屋,,有限会社,兵庫県,養父市,大屋町加保６７９番地の６,,28,222,6670315,,,2023-08-07,清算の結了等,,,2015-10-05,1,,,,,ニクヤ,0
2014,8180003016646,登記記録の閉鎖等,0,2023-08-16,2023-08-10,合同会社美和ケアプラン,,合同会社,愛知県,あま市,富塚七反地４１番地２,,23,237,4901202,,,2023-08-10,清算の結了等,,,2015-10-16,1,,,,,ミワケアプラン,0
2015,8190001008025,登記記録の閉鎖等,0,2023-08-16,2023-08-07,スバル電器株式会社,,株式会社,三重県,志摩市,大王町船越３４２番地３,,24,215,5170604,,,2023-08-07,清算の結了等,,,2015-10-05,1,,,,,スバルデンキ,0
2018,8200005011353,登記記録の閉鎖等,0,2023-08-16,2023-08-14,ひだ森林整備協同組合,,その他の設立登記法人,岐阜県,飛騨市,古川町上野６８２番地,,21,217,5094263,,,2023-08-14,清算の結了等,,,2015-10-05,1,,,,,ヒダシンリンセイビ,0
2021,8240001057826,登記記録の閉鎖等,0,2023-08-16,2023-08-15,株式会社ソリューション,,株式会社,広島県,広島市安佐南区,山本８丁目３２番２号,,34,105,7310137,,,2023-08-15,清算の結了等,,,2021-04-16,1,,,,,ソリューション,0
2068,8430005009408,登記記録の閉鎖等,0,2023-08-16,2023-07-24,日高電業協同組合,,その他の設立登記法人,北海道,浦河郡浦河町,堺町東６丁目４８５番地,,01,607,0570033,,,2023-07-24,清算の結了等,,,2015-10-05,1,,,,,ヒダカデンギョウ,0
2147,9011801017545,登記記録の閉鎖等,0,2023-08-16,2023-08-14,株式会社リスト,,株式会社,東京都,足立区,六月２丁目２番１３号マンション紺利２－１０７,,13,121,1210814,,,2023-08-14,清算の結了等,,,2015-10-05,1,,,,,リスト,0
2190,9040002005316,登記記録の閉鎖等,0,2023-08-16,2023-07-21,鹿野製菓有限会社,,有限会社,千葉県,千葉市若葉区,西都賀３丁目８番８号,,12,104,2640026,,,2023-07-21,清算の結了等,,,2015-10-05,1,,,,,シカノセイカ,0
2200,9060001007609,登記記録の閉鎖等,0,2023-08-16,2023-07-31,株式会社Ｊ・マルク,,株式会社,栃木県,宇都宮市,泉町５番１０号,,09,201,3200034,,,2023-07-31,清算の結了等,,,2015-10-05,1,,,,,ジェイマルク,0
2213,9090002015211,登記記録の閉鎖等,0,2023-08-16,2023-08-07,有限会社はなみずき,,有限会社,山梨県,南巨摩郡富士川町,青柳町５０８番地,,19,368,4000501,,,2023-08-07,清算の結了等,,,2015-10-05,1,,,,,ハナミズキ,0
2215,9110003004136,登記記録の閉鎖等,0,2023-08-16,2023-08-08,合同会社Ｏｎｅ’ｓ　Ｆａｃｔｏｒｙ,,合同会社,新潟県,十日町市,中条己２９７６番地１,,15,210,9498617,,,2023-08-08,清算の結了等,,,2020-04-06,1,,,,,ワンズファクトリー,0
2220,9120001234907,登記記録の閉鎖等,0,2023-08-16,2023-08-08,浩亮株式会社,,株式会社,大阪府,大阪市中央区,島之内１丁目１１－２９ＬＥＯＰＡＲＤ心斎橋６０２号,,27,128,5420082,,,2023-08-08,清算の結了等,,,2021-02-03,1,,,,,コウリョウ,0
2245,9140005022554,登記記録の閉鎖等,0,2023-08-16,2023-08-10,一般社団法人女性の未来,,その他の設立登記法人,兵庫県,尼崎市,築地２丁目６番２５号,,28,202,6600858,,,2023-08-10,清算の結了等,,,2015-10-05,1,,,,,ジョセイノミライ,0
2252,9180001110680,登記記録の閉鎖等,0,2023-08-16,2023-08-14,株式会社プライマル,,株式会社,愛知県,名古屋市北区,八代町２丁目８５番地,,23,103,4620043,,,2023-08-14,清算の結了等,,,2015-10-05,1,,,,,プライマル,0
2254,9180001131636,登記記録の閉鎖等,0,2023-08-16,2023-08-10,ＷＣＳ　ＧＲＯＵＰ株式会社,,株式会社,愛知県,一宮市,森本５丁目２２－９,,23,203,4910831,,,2023-08-10,清算の結了等,,,2018-03-26,1,,,,,ダブリューシーエスグループ,0
2264,9180002060487,登記記録の閉鎖等,0,2023-08-16,2023-08-14,有限会社ワールドプランニング,,有限会社,愛知県,名古屋市千種区,内山３丁目３１番１７号,,23,101,4640075,,,2023-08-14,清算の結了等,,,2015-10-05,1,,,,,ワールドプランニング,0
2274,9220001017500,登記記録の閉鎖等,0,2023-08-16,2023-08-09,木守鉄工株式会社,,株式会社,石川県,かほく市,白尾ホ８７番地,,17,209,9291177,,,2023-08-09,清算の結了等,,,2015-10-05,1,,,,,キモリテッコウ,0
2284,9290001033210,登記記録の閉鎖等,0,2023-08-16,2023-08-01,株式会社マツフジ,,株式会社,福岡県,糸島市,二丈松国１１７番地の１,,40,230,8191627,,,2023-08-01,清算の結了等,,,2015-10-05,1,,,,,マツフジ,0
2293,9330001013728,登記記録の閉鎖等,0,2023-08-16,2023-07-26,株式会社マルニシ商事,,株式会社,熊本県,八代市,田中東町壱七号１０番地,,43,202,8660871,,,2023-07-26,清算の結了等,,,2015-10-05,1,,,,,マルニシショウジ,0
2321,9400002012291,登記記録の閉鎖等,0,2023-08-16,2023-08-02,有限会社宮川,,有限会社,岩手県,九戸郡九戸村,大字伊保内第１１地割１５番地１,,03,506,0286502,,,2023-08-02,清算の結了等,,,2015-10-05,1,,,,,ミヤカワ,0
2323,9402705000052,登記記録の閉鎖等,0,2023-08-16,2023-07-31,気仙地方砕石砂利事業協同組合,,その他の設立登記法人,岩手県,大船渡市,日頃市町字石橋１６番地１,,03,203,0220005,,,2023-07-31,清算の結了等,,,2015-10-05,1,,,,,ケセンチホウサイセキジャリ,0
2334,9470002015593,登記記録の閉鎖等,0,2023-08-16,2023-08-10,タートルエンジニアリング有限会社,,有限会社,香川県,坂出市,八幡町１丁目４番１３号,,37,203,7620041,,,2023-08-10,清算の結了等,,,2015-10-05,1,,,,,タートルエンジニアリング,0
