sequenceNumber,corporateNumber,process,correct,updateDate,changeDate,name,nameImageId,kind,prefectureName,cityName,streetNumber,addressImageId,prefectureCode,cityCode,postCode,addressOutside,addressOutsideImageId,closeDate,closeCause,successorCorporateNumber,changeCause,assignmentDate,latest,enName,enPrefectureName,enCityName,enAddressOutside,furigana,hihyoji
5,1010003047565,新規,0,2025-06-10,2025-06-10,合同会社銀座８ホテルプロジェクト,,合同会社,東京都,千代田区,霞が関３丁目２番５号,,13,101,1000013,,,,,,,2025-06-10,1,,,,,ギンザハチホテルプロジェクト,0
21,1010401190586,新規,0,2025-06-10,2025-06-10,リヴォルタ株式会社,,株式会社,東京都,港区,浜松町２丁目２番１５号浜松町ダイヤビル２Ｆ,,13,103,1050013,,,,,,,2025-06-10,1,,,,,リヴォルタ,0
22,1010401190768,新規,0,2025-06-10,2025-06-10,ＡｌｕｍＮＥＴ株式会社,,株式会社,東京都,港区,北青山１丁目３番１号アールキューブ青山３階,,13,103,1070061,,,,,,,2025-06-10,1,,,,,アルムネット,0
23,1010401190784,新規,0,2025-06-10,2025-06-10,東京リズエナジ株式会社,,株式会社,東京都,港区,浜松町２丁目５－３,,13,103,1050013,,,,,,,2025-06-10,1,,,,,トウキョウリズエナジ,0
24,1010401190834,新規,0,2025-06-10,2025-06-10,株式会社ＳＩＲ　ＥＮＴＥＲＴＡＩＮＭＥＮＴ,,株式会社,東京都,港区,麻布十番１丁目８番地１０ＴＨＥＶ－ＣＩＴＹ麻布十番ＣＥＮＴＲＥ９階,,13,103,1060045,,,,,,,2025-06-10,1,,,,,エスアイアールエンターテインメント,0
25,1010401190917,新規,0,2025-06-10,2025-06-10,株式会社日本産業開拓基盤,,株式会社,東京都,港区,赤坂９丁目７番２号,,13,103,1070052,,,,,,,2025-06-10,1,,,,,ニホンサンギョウカイタクキバン,0
27,1010403035327,新規,0,2025-06-10,2025-06-10,合同会社堺,,合同会社,東京都,港区,南青山２丁目２番１５－８２５号,,13,103,1070062,,,,,,,2025-06-10,1,,,,,サカイ,0
28,1010405024212,新規,0,2025-06-10,2025-06-10,一般社団法人ＣｏｒｅＦｌｏｗＴｈｅｒａｐｙ協会,,その他の設立登記法人,東京都,港区,南青山３丁目１番３６号青山丸竹ビル６Ｆ,,13,103,1070062,,,,,,,2025-06-10,1,,,,,コアフローセラピーキョウカイ,0
29,1010405024484,新規,0,2025-06-10,2025-06-10,アリエス太陽光開発一般社団法人,,その他の設立登記法人,東京都,港区,虎ノ門５丁目３番２０号株式会社アカウンティング・マネジメント・サービス内,,13,103,1050001,,,,,,,2025-06-10,1,,,,,アリエスタイヨウコウカイハツ,0
32,1010601067444,新規,0,2025-06-10,2025-06-10,株式会社パッキー,,株式会社,東京都,墨田区,立花４丁目３８番７－２０１号ラピスガーデンＣ棟,,13,107,1310043,,,,,,,2025-06-10,1,,,,,パッキー,0
46,1011001170053,新規,0,2025-06-10,2025-06-10,株式会社ＵＰＰＥＲ　ＳＵＩＴＥ,,株式会社,東京都,渋谷区,代官山町８番９号,,13,113,1500034,,,,,,,2025-06-10,1,,,,,アッパースイート,0
47,1011001170078,新規,0,2025-06-10,2025-06-10,Ｌａｎａ　Ｖｉｓｔａ株式会社,,株式会社,東京都,渋谷区,本町４丁目１８番１２号,,13,113,1510071,,,,,,,2025-06-10,1,,,,,ラナビスタ,0
48,1011001170086,新規,0,2025-06-10,2025-06-10,株式会社ＮＥＷ　ＬＩＮＫ　ＰＲＯＪＥＣＴ,,株式会社,東京都,渋谷区,恵比寿西１丁目１２番１４号エイビスビル５階,,13,113,1500021,,,,,,,2025-06-10,1,,,,,ニューリンクプロジェクト,0
49,1011001170094,新規,0,2025-06-10,2025-06-10,株式会社竃間,,株式会社,東京都,渋谷区,千駄ヶ谷３丁目６１番１１号４Ｆ,,13,113,1510051,,,,,,,2025-06-10,1,,,,,カマドマ,0
50,1011001170144,新規,0,2025-06-10,2025-06-10,株式会社ＹＯＵＹＯＫＯＯ,,株式会社,東京都,渋谷区,渋谷２丁目２番１号木村ガーデンビル３階ＹＯＵＲ,,13,113,1500002,,,,,,,2025-06-10,1,,,,,ユウヨコオ,0
51,1011001170318,新規,0,2025-06-10,2025-06-10,株式会社処,,株式会社,東京都,渋谷区,神泉町１６番１１－３０７号,,13,113,1500045,,,,,,,2025-06-10,1,,,,,ドコロ,0
52,1011001170417,新規,0,2025-06-10,2025-06-10,株式会社ＮＥＸＩＡ,,株式会社,東京都,渋谷区,宇田川町１番１２－１０１２号パークコート渋谷ザ・タワー,,13,113,1500042,,,,,,,2025-06-10,1,,,,,ネクシア,0
53,1011201026419,新規,0,2025-06-10,2025-06-10,株式会社Ｉｎｆｉｎｉｔｙ　Ｖｉｓｉｏｎ　Ｇｒｏｕｐ,,株式会社,東京都,中野区,野方１丁目４２―１２―１ＦＢ号室,,13,114,1650027,,,,,,,2025-06-10,1,,,,,インフィニティービジョングループ,0
57,1011701028410,新規,0,2025-06-10,2025-06-10,株式会社Ｊｏｖｉａｌ　ＳＥ,,株式会社,東京都,江戸川区,西一之江１丁目３－１３,,13,123,1320023,,,,,,,2025-06-10,1,,,,,ジョヴィアルエスイー,0
61,1012303002175,新規,0,2025-06-10,2025-06-10,合同会社ＩＴ未來,,合同会社,東京都,町田市,原町田４丁目１９番２０号,,13,209,1940013,,,,,,,2025-06-10,1,,,,,アイティミライ,0
65,1012403007173,新規,0,2025-06-10,2025-06-10,合同会社ほんわか屋,,合同会社,東京都,稲城市,大丸１２４番地の５,,13,225,2060801,,,,,,,2025-06-10,1,,,,,ホンワカヤ,0
66,1012701018913,新規,0,2025-06-10,2025-06-10,株式会社五郎兵衛商店,,株式会社,東京都,東村山市,富士見町２丁目３－９７,,13,213,1890024,,,,,,,2025-06-10,1,,,,,ゴロウベイショウテン,0
68,1013101009718,新規,0,2025-06-10,2025-06-10,株式会社寿美装,,株式会社,東京都,西多摩郡瑞穂町,大字殿ケ谷８３０番地９,,13,303,1901212,,,,,,,2025-06-10,1,,,,,コトブキビソウ,0
81,1020001163330,新規,0,2025-06-10,2025-06-10,ＴＲ　ＭＵＳＩＣ　ＪＡＰＡＮ株式会社,,株式会社,神奈川県,横浜市港北区,新横浜２丁目５番４号,,14,109,2220033,,,,,,,2025-06-10,1,,,,,,0
99,1030001166828,新規,0,2025-06-10,2025-06-10,株式会社ハニカム,,株式会社,埼玉県,飯能市,大字川寺３３４番地４,,11,209,3570044,,,,,,,2025-06-10,1,,,,,ハニカム,0
105,1040003027754,新規,0,2025-06-10,2025-06-10,合同会社オアゼン,,合同会社,千葉県,柏市,豊四季７３－２１,,12,217,2770863,,,,,,,2025-06-10,1,,,,,オアゼン,0
107,1050005013644,新規,0,2025-06-10,2025-06-10,アルク行政書士法人,,その他の設立登記法人,茨城県,神栖市,神栖１丁目１９番１０号,,08,232,3140143,,,,,,,2025-06-10,1,,,,,アルク,0
121,1090001019311,新規,0,2025-06-10,2025-06-10,株式会社ＩＣＨＩ,,株式会社,山梨県,中央市,山之神４－１３７,,19,214,4093845,,,,,,,2025-06-10,1,,,,,イチ,0
122,1090003002835,新規,0,2025-06-10,2025-06-10,合同会社ＦＬＪ,,合同会社,山梨県,笛吹市,春日居町加茂９５番地,,19,211,4060005,,,,,,,2025-06-10,1,,,,,エフエルジェイ,0
123,1090005007717,新規,0,2025-06-10,2025-06-10,ミル税理士法人,,その他の設立登記法人,山梨県,甲府市,北口３丁目５番２号,,19,201,4000024,,,,,,,2025-06-10,1,,,,,ミル,0
125,1100005013358,新規,0,2025-06-10,2025-06-10,保證責任玉川村第一負債整理組合,,その他の設立登記法人,長野県,茅野市,玉川,,20,214,3910011,,,,,,,2025-06-10,1,,,,,ホショウセキニンタマガワムラダイイチ,0
136,1120001276675,新規,0,2025-06-10,2025-06-10,ＭＩＲＡＣＲＥ　ＡＩ株式会社,,株式会社,大阪府,大阪市中央区,北浜１丁目８番１６号大阪証券取引所ビル８階ＭＩＲＡＣＲＥＡＴＩＯＮ株式会社内,,27,128,5410041,,,,,,,2025-06-10,1,,,,,ミラクリエーアイ,0
137,1120001276709,新規,0,2025-06-10,2025-06-10,ＳＯ‐ｗａｖｅ株式会社,,株式会社,大阪府,大阪市天王寺区,北山町９番２４－６０１号,,27,109,5430035,,,,,,,2025-06-10,1,,,,,ソーウェーブ,0
142,1122003003223,新規,0,2025-06-10,2025-06-10,くらうどべりー合同会社,,合同会社,大阪府,東大阪市,長栄寺８番１２号,,27,227,5770055,,,,,,,2025-06-10,1,,,,,クラウドベリー,0
157,1140003022159,新規,0,2025-06-10,2025-06-10,合同会社Ｔｅｒａｃｉｅ,,合同会社,兵庫県,神戸市東灘区,甲南町３丁目３番２７号ロイヤル甲南２０６号室,,28,101,6580084,,,,,,,2025-06-10,1,,,,,テラシー,0
166,1180001167183,新規,0,2025-06-10,2025-06-10,株式会社Ｋｓｒｓ,,株式会社,愛知県,あま市,篠田虱掛４５番地３１,,23,237,4901211,,,,,,,2025-06-10,1,,,,,ケーエスアールエス,0
167,1180001167217,新規,0,2025-06-10,2025-06-10,株式会社ＥｍｉｒＥ,,株式会社,愛知県,名古屋市東区,泉１丁目１８番３２号,,23,102,4610001,,,,,,,2025-06-10,1,,,,,エミル,0
168,1180001167225,新規,0,2025-06-10,2025-06-10,株式会社ＤＩＳＣＯＶＥＲ　ＳＥＣＵＲＩＴＹ,,株式会社,愛知県,名古屋市西区,中小田井４丁目４６０番地メゾンペルマネンテ１０１,,23,104,4520822,,,,,,,2025-06-10,1,,,,,ディスカバーセキュリティー,0
169,1180001167233,新規,0,2025-06-10,2025-06-10,株式会社彩月,,株式会社,愛知県,名古屋市天白区,天白町大字野並字境根２００６番地の２３,,23,116,4680037,,,,,,,2025-06-10,1,,,,,サツキ,0
170,1180001167241,新規,0,2025-06-10,2025-06-10,マルイ株式会社,,株式会社,愛知県,あま市,東溝口２丁目８２番地１,,23,237,4901206,,,,,,,2025-06-10,1,,,,,マルイ,0
181,1180005021122,新規,0,2025-06-10,2025-06-10,一般社団法人寝る子は育つ協会,,その他の設立登記法人,愛知県,名古屋市中村区,名駅４丁目６番２３号第三堀内ビルディング１１階,,23,105,4500002,,,,,,,2025-06-10,1,,,,,ネルコハソダツキョウカイ,0
184,1200001043877,新規,0,2025-06-10,2025-06-10,株式会社リライトパートナーズ,,株式会社,岐阜県,瑞穂市,本田９６９番地１,,21,216,5010236,,,,,,,2025-06-10,1,,,,,リライトパートナーズ,0
204,1280001009441,新規,0,2025-06-10,2025-06-10,株式会社真誠,,株式会社,島根県,益田市,乙吉町イ９９番地１１リバーサイドビル１階,,32,204,6980003,,,,,,,2025-06-10,1,,,,,シンセイ,0
210,1290001110264,新規,0,2025-06-10,2025-06-10,アイノ電気株式会社,,株式会社,福岡県,福岡市西区,野方５丁目３１番１号,,40,135,8190043,,,,,,,2025-06-10,1,,,,,アイノデンキ,0
211,1290001110297,新規,0,2025-06-10,2025-06-10,株式会社西日本テクノサービス,,株式会社,福岡県,福岡市南区,長丘５丁目８番２２号,,40,134,8150075,,,,,,,2025-06-10,1,,,,,ニシニホンテクノサービス,0
215,1290005019774,新規,0,2025-06-10,2025-06-10,一般社団法人ライフデザイン工房,,その他の設立登記法人,福岡県,糟屋郡篠栗町,大字尾仲５９８番地１ドゥプレイス篠栗１００３,,40,342,8112413,,,,,,,2025-06-10,1,,,,,ライフデザインコウボウ,0
216,1290801031610,新規,0,2025-06-10,2025-06-10,株式会社フルオール,,株式会社,福岡県,北九州市八幡東区,尾倉１丁目７番８号,,40,108,8050059,,,,,,,2025-06-10,1,,,,,フルオール,0
217,1290801031619,新規,0,2025-06-10,2025-06-10,株式会社ＢＥＡＴ,,株式会社,福岡県,北九州市八幡西区,浅川学園台２丁目７番１８号,,40,109,8070871,,,,,,,2025-06-10,1,,,,,ビート,0
220,1320001021160,新規,0,2025-06-10,2025-06-10,株式会社ＴＥＣＨ　ＣＬＥＡＮ,,株式会社,大分県,別府市,駅前本町９番７号１階,,44,202,8740934,,,,,,,2025-06-10,1,,,,,テッククリーン,0
224,1320003004691,新規,0,2025-06-10,2025-06-10,合同会社福島屋,,合同会社,大分県,国東市,国見町櫛来３４８８番地２,,44,214,8721406,,,,,,,2025-06-10,1,,,,,フクシマヤ,0
236,1360005007243,新規,0,2025-06-10,2025-06-10,一般社団法人全日本スーパーキッズダンス連盟,,その他の設立登記法人,沖縄県,那覇市,泊２丁目２０番地１トマリテラス４０２,,47,201,9000012,,,,,,,2025-06-10,1,,,,,ゼンニホンスーパーキッズダンスレンメイ,0
244,1400003003479,新規,0,2025-06-10,2025-06-10,合同会社ＲＥＤａｓｓｉｓｔ．ｌｌｃ,,合同会社,岩手県,西磐井郡平泉町,長島字大槻田２番地３３号,,03,402,0294101,,,,,,,2025-06-10,1,,,,,レッドアシストエルエルシー,0
249,1420001019178,新規,0,2025-06-10,2025-06-10,株式会社ミツオ,,株式会社,青森県,青森市,大字新城字平岡２６３番地７,,02,201,0380042,,,,,,,2025-06-10,1,,,,,ミツオ,0
250,1420003003130,新規,0,2025-06-10,2025-06-10,合同会社カレッジ,,合同会社,青森県,青森市,原別６丁目８番１０号シャーメゾンオーシャン１０２号室,,02,201,0300921,,,,,,,2025-06-10,1,,,,,カレッジ,0
259,1430003017757,新規,0,2025-06-10,2025-06-10,合同会社風と雲,,合同会社,北海道,札幌市中央区,南二条東６丁目２番地１ギャラリーハイツ南２条Ｂ棟８０４号,,01,101,0600052,,,,,,,2025-06-10,1,,,,,カゼトクモ,0
260,1430003017765,新規,0,2025-06-10,2025-06-10,合同会社プログレス,,合同会社,北海道,札幌市清田区,里塚緑ケ丘６丁目１３番１３号,,01,110,0040805,,,,,,,2025-06-10,1,,,,,プログレス,0
261,1440005002797,新規,0,2025-06-10,2025-06-10,一般社団法人道南森づくりの会,,その他の設立登記法人,北海道,函館市,日乃出町２番７号,,01,202,0400022,,,,,,,2025-06-10,1,,,,,ドウナンモリヅクリノカイ,0
264,1460101007715,新規,0,2025-06-10,2025-06-10,株式会社Ｔｅｎｓｏｇｅｎ,,株式会社,北海道,広尾郡大樹町,西本通１２,,01,641,0892152,,,,,,,2025-06-10,1,,,,,テンソゲン,0
272,1700150130962,新規,0,2025-06-10,2025-06-10,Ｇｕｍｒｏａｄ　Ｉｎｃ．,,外国会社等,,,,,,,,５４８　Ｍａｒｋｅｔ　Ｓｔ，Ｓａｎ　Ｆｒａｎｃｉｓｃｏ，ＣＡ，９４１０４，ＵＳＡ,,,,,,2025-06-10,1,,,,,ガムロードインク,0
273,1700150130995,新規,0,2025-06-10,2025-06-10,ＳＮＳ　Ｅｎｔｅｒｐｒｉｓｅｓ,,外国会社等,千葉県,柏市,藤ケ谷１丁目２１５番６,,12,217,2770931,スリランカ民主社会主義共和国パデニヤ、カトゥウェワ,,,,,,2025-06-10,1,,,,,エスエヌエスエンタープライセス,0
281,2010001254914,新規,0,2025-06-10,2025-06-10,株式会社フラウ,,株式会社,東京都,中央区,日本橋室町１丁目１１番１２号日本橋水野ビル７階,,13,102,1030022,,,,,,,2025-06-10,1,,,,,フラウ,0
286,2010003047564,新規,0,2025-06-10,2025-06-10,銀座８ホテルマネジメント合同会社,,合同会社,東京都,千代田区,霞が関３丁目２番５号,,13,101,1000013,,,,,,,2025-06-10,1,,,,,ギンザハチホテルマネジメント,0
287,2010003047647,新規,0,2025-06-10,2025-06-10,合同会社ＦＩＫＡ,,合同会社,東京都,文京区,湯島３丁目２４－８－９０４,,13,105,1130034,,,,,,,2025-06-10,1,,,,,フィーカ,0
288,2010005040170,新規,0,2025-06-10,2025-06-10,一般社団法人明治工芸研究所,,その他の設立登記法人,東京都,中央区,銀座１丁目９番１号ＫＨビル２階,,13,102,1040061,,,,,,,2025-06-10,1,,,,,メイジコウゲイケンキュウジョ,0
289,2010005040179,新規,0,2025-06-10,2025-06-10,一般社団法人ＧＨ,,その他の設立登記法人,東京都,千代田区,神田錦町１丁目２１番１号,,13,101,1010054,,,,,,,2025-06-10,1,,,,,ジーエイチ,0
290,2010101016719,新規,0,2025-06-10,2025-06-10,ＬＩＶＥＡ株式会社,,株式会社,東京都,八王子市,横川町４６２―１０,,13,201,1930823,,,,,,,2025-06-10,1,,,,,リヴィア,0
298,2010401190825,新規,0,2025-06-10,2025-06-10,株式会社ＪＳＢＣ,,株式会社,東京都,港区,新橋５丁目５番３－２０２号,,13,103,1050004,,,,,,,2025-06-10,1,,,,,ジェイエスビーシー,0
299,2010401190858,新規,0,2025-06-10,2025-06-10,Ｂｕｙ　ＭｙＣａｒ株式会社,,株式会社,東京都,港区,芝大門１丁目３番１７号玉家ビル４階,,13,103,1050012,,,,,,,2025-06-10,1,,,,,バイマイカー,0
300,2010401190874,新規,0,2025-06-10,2025-06-10,株式会社ＭＢインターナショナル,,株式会社,東京都,港区,北青山１丁目３番１号アールキューブ青山３階,,13,103,1070061,,,,,,,2025-06-10,1,,,,,エムビーインターナショナル,0
301,2010401191014,新規,0,2025-06-10,2025-06-10,株式会社地域活性化投資,,株式会社,東京都,港区,南青山２丁目２番１５号,,13,103,1070062,,,,,,,2025-06-10,1,,,,,チイキカッセイカトウシ,0
308,2010405024475,新規,0,2025-06-10,2025-06-10,一般社団法人エピジェネティクス研究所,,その他の設立登記法人,東京都,港区,六本木１丁目７番１０号,,13,103,1060032,,,,,,,2025-06-10,1,,,,,エピジェネティクスケンキュウジョ,0
311,2010601067435,新規,0,2025-06-10,2025-06-10,株式会社ＹＵ‐ＴＯ,,株式会社,東京都,墨田区,東墨田２丁目２３番２１号,,13,107,1310042,,,,,,,2025-06-10,1,,,,,ユート,0
324,2011001169945,新規,0,2025-06-10,2025-06-10,株式会社ＴＫＧ,,株式会社,東京都,渋谷区,恵比寿１丁目７－９ハイライフ恵比寿２Ｆ,,13,113,1500013,,,,,,,2025-06-10,1,,,,,ティーケージー,0
325,2011001169953,新規,0,2025-06-10,2025-06-10,株式会社Ｒｅｄ１０１,,株式会社,東京都,渋谷区,道玄坂１丁目１０番８号渋谷道玄坂東急ビル２Ｆ－Ｃ,,13,113,1500043,,,,,,,2025-06-10,1,,,,,レッドイチマルイチ,0
326,2011001170119,新規,0,2025-06-10,2025-06-10,株式会社Ｒ不動産,,株式会社,東京都,渋谷区,恵比寿２丁目１４番６－６０５号ウェルスクエアイズム恵比寿,,13,113,1500013,,,,,,,2025-06-10,1,,,,,アールフドウサン,0
328,2011003021716,新規,0,2025-06-10,2025-06-10,ＡＣＭ合同会社,,合同会社,東京都,目黒区,中央町２丁目１６番１４号,,13,110,1520001,,,,,,,2025-06-10,1,,,,,エーシーエム,0
329,2011003021897,新規,0,2025-06-10,2025-06-10,ＨＩＭＵＫＡｍａｎａｇｅｍｅｎｔ合同会社,,合同会社,東京都,渋谷区,道玄坂１丁目１０番８号渋谷道玄坂東急ビル２Ｆ－Ｃ,,13,113,1500043,,,,,,,2025-06-10,1,,,,,ヒムカマネージメント,0
331,2011101112029,新規,0,2025-06-10,2025-06-10,長澤インターナショナル株式会社,,株式会社,東京都,新宿区,歌舞伎町２丁目２５番８号,,13,104,1600021,,,,,,,2025-06-10,1,,,,,ナガサワインターナショナル,0
332,2011103016005,新規,0,2025-06-10,2025-06-10,合同会社アトラス,,合同会社,東京都,新宿区,西新宿７丁目９番６号寿ビル３０１,,13,104,1600023,,,,,,,2025-06-10,1,,,,,アトラス,0
334,2011105011466,新規,0,2025-06-10,2025-06-10,一般社団法人ＬＹＴ,,その他の設立登記法人,東京都,新宿区,市谷砂土原町２丁目１番地４－５１３,,13,104,1620842,,,,,,,2025-06-10,1,,,,,ライト,0
339,2011403004725,新規,0,2025-06-10,2025-06-10,合同会社猫ノ手,,合同会社,東京都,板橋区,高島平７丁目４２番１５号,,13,119,1750082,,,,,,,2025-06-10,1,,,,,ネコノテ,0
356,2011801046220,新規,0,2025-06-10,2025-06-10,アドフライ株式会社,,株式会社,東京都,葛飾区,東金町６丁目６番５号センタービル金町４階４１８室,,13,122,1250041,,,,,,,2025-06-10,1,,,,,アドフライ,0
357,2011801046229,新規,0,2025-06-10,2025-06-10,班匠坊株式会社,,株式会社,東京都,葛飾区,東金町６丁目６番５号センタービル金町４階４１８室,,13,122,1250041,,,,,,,2025-06-10,1,,,,,ハンショウボウ,0
362,2012803003762,新規,0,2025-06-10,2025-06-10,合同会社ＹＮプランニング,,合同会社,東京都,国立市,西２丁目２７番地の４,,13,215,1860005,,,,,,,2025-06-10,1,,,,,ワイエヌプランニング,0
371,2020003028662,新規,0,2025-06-10,2025-06-10,合同会社ＢＡＳＥ０４６,,合同会社,神奈川県,横浜市泉区,緑園４丁目２番地１サンステージ緑園都市２番館２０６号,,14,116,2450002,,,,,,,2025-06-10,1,,,,,ベースゼロヨンロク,0
381,2021003016112,新規,0,2025-06-10,2025-06-10,合同会社ハル,,合同会社,神奈川県,足柄下郡真鶴町,岩９１４番地１２,,14,383,2590202,,,,,,,2025-06-10,1,,,,,ハル,0
382,2021003016129,新規,0,2025-06-10,2025-06-10,合同会社Ｈ２,,合同会社,神奈川県,伊勢原市,高森台１丁目７番地３－１号,,14,214,2591115,,,,,,,2025-06-10,1,,,,,エイチツー,0
399,2040001139096,新規,0,2025-06-10,2025-06-10,株式会社みのり,,株式会社,千葉県,袖ケ浦市,神納６１７番地１,,12,229,2990257,,,,,,,2025-06-10,1,,,,,ミノリ,0
412,2060001038288,新規,0,2025-06-10,2025-06-10,株式会社ＭＲ‐Ｅｌｅｘ,,株式会社,栃木県,佐野市,田沼町５０１番地７,,09,204,3270317,,,,,,,2025-06-10,1,,,,,エムアールエレックス,0
414,2070001043007,新規,0,2025-06-10,2025-06-10,株式会社ＡＣＴＮＩＸ,,株式会社,群馬県,前橋市,大友町３丁目２４番地１ＥＡＳＴ７階,,10,201,3710847,,,,,,,2025-06-10,1,,,,,アクトニクス,0
419,2080401027970,新規,0,2025-06-10,2025-06-10,株式会社国承,,株式会社,静岡県,浜松市浜名区,内野２４９７番地の３,,22,139,4340044,,,,,,,2025-06-10,1,,,,,コクジョウ,0
420,2080403005280,新規,0,2025-06-10,2025-06-10,合同会社アース,,合同会社,静岡県,湖西市,南台４丁目８番３８号,,22,221,4310429,,,,,,,2025-06-10,1,,,,,アース,0
421,2090001019319,新規,0,2025-06-10,2025-06-10,株式会社博導建設,,株式会社,山梨県,甲斐市,龍地６５５９番地,,19,210,4000104,,,,,,,2025-06-10,1,,,,,ハクドウケンセツ,0
434,2120001276410,新規,0,2025-06-10,2025-06-10,株式会社ＦＥ＆Ｅ,,株式会社,大阪府,大阪市北区,梅田１丁目１－３大阪駅前第３ビル２９階１－１－１号室,,27,127,5300001,,,,,,,2025-06-10,1,,,,,エフイーアンドイー,0
438,2120103006500,新規,0,2025-06-10,2025-06-10,ラキ合同会社,,合同会社,大阪府,堺市南区,御池台２丁１２番５６号,,27,145,5900134,,,,,,,2025-06-10,1,,,,,ラキ,0
441,2120901051037,新規,0,2025-06-10,2025-06-10,株式会社Ｍａｄｒｅ,,株式会社,大阪府,豊中市,東泉丘３丁目３番７－６０４号,,27,203,5610861,,,,,,,2025-06-10,1,,,,,マドレ,0
442,2120903005701,新規,0,2025-06-10,2025-06-10,合同会社イッパイアッテナ,,合同会社,大阪府,豊中市,新千里東町２丁目４番Ｄ６－１０５号,,27,203,5600082,,,,,,,2025-06-10,1,,,,,イッパイアッテナ,0
444,2130001079829,新規,0,2025-06-10,2025-06-10,株式会社Ａｐｐｕｉ,,株式会社,京都府,向日市,寺戸町小佃５番地の１グランマークシティ東向日駅前１４１５号,,26,208,6170002,,,,,,,2025-06-10,1,,,,,アピュイ,0
445,2130001079853,新規,0,2025-06-10,2025-06-10,ファーストリネン株式会社,,株式会社,京都府,京都市山科区,小山大石山５０番地２,,26,110,6070000,,,,,,,2025-06-10,1,,,,,ファーストリネン,0
453,2140001138798,新規,0,2025-06-10,2025-06-10,株式会社ＴＡＫＡＴＡ,,株式会社,兵庫県,淡路市,木曽下６番地１,,28,226,6562154,,,,,,,2025-06-10,1,,,,,タカタ,0
454,2140001138889,新規,0,2025-06-10,2025-06-10,株式会社もも,,株式会社,兵庫県,加古川市,加古川町河原１４４番地１－１０２号,,28,210,6750067,,,,,,,2025-06-10,1,,,,,モモ,0
462,2180001167224,新規,0,2025-06-10,2025-06-10,ＪＴＡ株式会社,,株式会社,愛知県,名古屋市千種区,末盛通１丁目２２番地４Ｆ,,23,101,4640821,,,,,,,2025-06-10,1,,,,,ジェーティーエー,0
463,2180001167232,新規,0,2025-06-10,2025-06-10,Ａｒｔ株式会社,,株式会社,愛知県,名古屋市北区,黒川本通２丁目２７番地４,,23,103,4620841,,,,,,,2025-06-10,1,,,,,アート,0
464,2180001167257,新規,0,2025-06-10,2025-06-10,株式会社ＫＷＡＮ,,株式会社,愛知県,名古屋市千種区,穂波町３丁目２６番地－５０４,,23,101,4640822,,,,,,,2025-06-10,1,,,,,クワン,0
465,2180001167265,新規,0,2025-06-10,2025-06-10,あまね株式会社,,株式会社,愛知県,一宮市,春明字北本郷２１番地１,,23,203,4910003,,,,,,,2025-06-10,1,,,,,アマネ,0
466,2180003028556,新規,0,2025-06-10,2025-06-10,合同会社ｉｎｇ,,合同会社,愛知県,名古屋市東区,筒井３丁目８－２０シャムール６０１号,,23,102,4610003,,,,,,,2025-06-10,1,,,,,アイエヌジー,0
467,2180003028606,新規,0,2025-06-10,2025-06-10,Ｅｉｇｈｔ　Ｔｒｅｅｓ合同会社,,合同会社,愛知県,名古屋市千種区,松軒２丁目４番５号,,23,101,4640084,,,,,,,2025-06-10,1,,,,,エイトツリーズ,0
480,2230001020955,新規,0,2025-06-10,2025-06-10,阪森板金工業株式会社,,株式会社,富山県,富山市,向新庄町７丁目１８番７号,,16,201,9300916,,,,,,,2025-06-10,1,,,,,サカモリバンキンコウギョウ,0
482,2230003002448,新規,0,2025-06-10,2025-06-10,ｆｌｕｅｎｃｅ合同会社,,合同会社,富山県,富山市,蓮町１丁目７番３ＳＣＯＰＴＯＹＡＭＡ創業支援センター棟,,16,201,9318333,,,,,,,2025-06-10,1,,,,,フルエンス,0
483,2240001065066,新規,0,2025-06-10,2025-06-10,株式会社マコトノパートナーズ,,株式会社,広島県,広島市南区,比治山本町１１番３５－１００８号,,34,103,7320816,,,,,,,2025-06-10,1,,,,,マコトノパートナーズ,0
489,2280003001957,新規,0,2025-06-10,2025-06-10,ザ・プロジャクティヴ合同会社,,合同会社,島根県,松江市,学園南１丁目４番２９号,,32,201,6900826,,,,,,,2025-06-10,1,,,,,ザプロジャクティヴ,0
499,2290003016938,新規,0,2025-06-10,2025-06-10,合同会社個別進学スクール飯塚,,合同会社,福岡県,飯塚市,楽市６５７番地８,,40,205,8200074,,,,,,,2025-06-10,1,,,,,コベツシンガクスクールイイヅカ,0
500,2290003016946,新規,0,2025-06-10,2025-06-10,合同会社ロールクリエイト,,合同会社,福岡県,久留米市,山川町１０７１－１,,40,203,8390817,,,,,,,2025-06-10,1,,,,,ロールクリエイト,0
501,2290005019773,新規,0,2025-06-10,2025-06-10,一般社団法人Ｅｃｈｏ,,その他の設立登記法人,福岡県,太宰府市,大佐野３丁目１３－３３,,40,221,8180134,,,,,,,2025-06-10,1,,,,,エコー,0
503,2290801031618,新規,0,2025-06-10,2025-06-10,株式会社ＮＥＸＴＥＲＴ,,株式会社,福岡県,北九州市小倉北区,熊谷１丁目２１番１２号,,40,106,8030864,,,,,,,2025-06-10,1,,,,,ネクスタート,0
507,2310001019642,新規,0,2025-06-10,2025-06-10,株式会社ＨＩＮＯＤＥ,,株式会社,長崎県,諫早市,幸町３８番８号,,42,204,8540022,,,,,,,2025-06-10,1,,,,,ヒノデ,0
509,2320003004690,新規,0,2025-06-10,2025-06-10,合同会社Ｉｎ．Ａ,,合同会社,大分県,大分市,明野西２丁目２番２－２０５号リルームス明野西,,44,201,8700164,,,,,,,2025-06-10,1,,,,,インドットエー,0
510,2340001027403,新規,0,2025-06-10,2025-06-10,菊川ホールディングス株式会社,,株式会社,鹿児島県,鹿児島市,宇宿２丁目５番１３号,,46,201,8900073,,,,,,,2025-06-10,1,,,,,キクカワホールディングス,0
512,2350001019580,新規,0,2025-06-10,2025-06-10,マスダ設備株式会社,,株式会社,宮崎県,宮崎市,佐土原町下那珂３３５１番地４サンヒルズ松木１０１,,45,201,8800212,,,,,,,2025-06-10,1,,,,,マスダセツビ,0
520,2370001052695,新規,0,2025-06-10,2025-06-10,株式会社お星さま,,株式会社,宮城県,登米市,迫町佐沼字梅ノ木１丁目４番地２１,,04,212,9870511,,,,,,,2025-06-10,1,,,,,オホシサマ,0
557,2700150040467,新規,0,2025-06-10,2015-10-09,小田島学童クラブ運営委員会,,その他,山形県,東根市,大字野田１９２６,,06,211,9993775,,,,,,,2015-10-09,1,,,,,オダシマガクドウクラブウンエイイインカイ,0
559,2700150130961,新規,0,2025-06-10,2025-06-10,ＰＴ．ＲＥＪＥＫＩ　ＴＵＪＵＨ　ＡＬＡＭ,,外国会社等,,,,,,,,インドネシア共和国バンテン州タンゲラン県パサールケミスシナール通りブロックＡ８番Ｃ,,,,,,2025-06-10,1,,,,,ピーテイレジエキトウジユアラム,0
564,3010001255424,新規,0,2025-06-10,2025-06-10,株式会社ｌ’Ａｕｂｅ,,株式会社,東京都,千代田区,九段南１丁目５番６号りそな九段ビル５階ＫＳフロア,,13,101,1020074,,,,,,,2025-06-10,1,,,,,ローブ,0
565,3010001255597,新規,0,2025-06-10,2025-06-10,株式会社ｗａｈｃｅｌｌ,,株式会社,東京都,中央区,築地７丁目１０番地８号ＳＥＡビル４０２号,,13,102,1040045,,,,,,,2025-06-10,1,,,,,ワセル,0
566,3010001255614,新規,0,2025-06-10,2025-06-10,株式会社ＦＴ‐ＰＬＵＳ,,株式会社,東京都,中央区,銀座１丁目１２－４Ｎ＆ＥＢＬＤ．７階,,13,102,1040061,,,,,,,2025-06-10,1,,,,,エフティプラス,0
567,3010001255671,新規,0,2025-06-10,2025-06-10,株式会社Ｍｉｎａｍｏｔｏ,,株式会社,東京都,千代田区,神田須田町２丁目２３番１０号野村第一ビル４０１号室,,13,101,1010041,,,,,,,2025-06-10,1,,,,,ミナモト,0
568,3010001255688,新規,0,2025-06-10,2025-06-10,株式会社Ｓａｎｃｔａ,,株式会社,東京都,中央区,八丁堀２丁目３－９Ｈ＿Ｏ八丁堀,00139513,13,102,1040032,,,,,,,2025-06-10,1,,,,,サンクタ,0
571,3010003047547,新規,0,2025-06-10,2025-06-10,合同会社ＪＤＩＰ‐１５,,合同会社,東京都,千代田区,九段北３丁目２番４号,,13,101,1020073,,,,,,,2025-06-10,1,,,,,ジェイディーアイピーフィフティーン,0
572,3010101016718,新規,0,2025-06-10,2025-06-10,株式会社和測量事務所,,株式会社,東京都,八王子市,並木町５番１－１１７号,,13,201,1930831,,,,,,,2025-06-10,1,,,,,ナゴミソクリョウジムショ,0
578,3010401190923,新規,0,2025-06-10,2025-06-10,株式会社ＰＲＩＤＥ　ｇｒｏｕｐ,,株式会社,東京都,港区,南青山３丁目１番３６号青山丸竹ビル６Ｆ,,13,103,1070062,,,,,,,2025-06-10,1,,,,,プライドグループ,0
580,3010403035309,新規,0,2025-06-10,2025-06-10,合同会社ＭＫ企画,,合同会社,東京都,港区,西麻布３丁目２１番３－６０６号,,13,103,1060031,,,,,,,2025-06-10,1,,,,,エムケイキカク,0
581,3010403035325,新規,0,2025-06-10,2025-06-10,だらりん合同会社,,合同会社,東京都,港区,南青山２丁目２番１５号ウィン青山１２１４号,,13,103,1070062,,,,,,,2025-06-10,1,,,,,ダラリン,0
582,3010403035333,新規,0,2025-06-10,2025-06-10,福岡赤坂蓄電所合同会社,,合同会社,東京都,港区,虎ノ門５丁目３番２０号株式会社アカウンティング・マネジメント・サービス内,,13,103,1050001,,,,,,,2025-06-10,1,,,,,フクオカアカサカチクデンショ,0
583,3010403035341,新規,0,2025-06-10,2025-06-10,合同会社ＪＰＳ土地建物,,合同会社,東京都,港区,虎ノ門２丁目６番１号虎ノ門ヒルズステーションタワー,,13,103,1050001,,,,,,,2025-06-10,1,,,,,ジェイピーエストチタテモノ,0
586,3010601067434,新規,0,2025-06-10,2025-06-10,株式会社ＮＥＸＴ,,株式会社,東京都,墨田区,八広５丁目２０番１５号,,13,107,1310041,,,,,,,2025-06-10,1,,,,,ネクスト,0
587,3010603011613,新規,0,2025-06-10,2025-06-10,Ｏｎｅ’ｓ合同会社,,合同会社,東京都,墨田区,両国４丁目３７番１０号,,13,107,1300026,,,,,,,2025-06-10,1,,,,,ワンズ,0
588,3010801036222,新規,0,2025-06-10,2025-06-10,株式会社ＪＦＰ,,株式会社,東京都,大田区,西馬込１丁目２８番１５号ロイジェントパークス西馬込１０７,,13,111,1430026,,,,,,,2025-06-10,1,,,,,ジェイエフピー,0
594,3011001170167,新規,0,2025-06-10,2025-06-10,ゴールド源株式会社,,株式会社,東京都,目黒区,下目黒４丁目１番１７－１００１号目黒グランドマンション,,13,110,1530064,,,,,,,2025-06-10,1,,,,,ゴールドゲン,0
595,3011001170299,新規,0,2025-06-10,2025-06-10,株式会社５９５９,,株式会社,東京都,目黒区,鷹番２丁目１９‐１３‐２Ｆ,,13,110,1520004,,,,,,,2025-06-10,1,,,,,ゴクゴク,0
596,3011001170381,新規,0,2025-06-10,2025-06-10,株式会社ＵＮＩＶＥＲＳＥ　ＰＵＬＳＥ,,株式会社,東京都,渋谷区,桜丘町２０番１号,,13,113,1500031,,,,,,,2025-06-10,1,,,,,ユニバースパルス,0
600,3011101112028,新規,0,2025-06-10,2025-06-10,株式会社アルーフ,,株式会社,東京都,新宿区,若葉１丁目７番地１５,,13,104,1600011,,,,,,,2025-06-10,1,,,,,アルーフ,0
601,3011101112036,新規,0,2025-06-10,2025-06-10,三光交易株式会社,,株式会社,東京都,新宿区,高田馬場１丁目３２番１０号,,13,104,1690075,,,,,,,2025-06-10,1,,,,,サンコウコウエキ,0
602,3011101112044,新規,0,2025-06-10,2025-06-10,株式会社ＡｒｃＢｉｏ,,株式会社,東京都,新宿区,新宿２丁目５－１２ＦＯＲＥＣＡＳＴ新宿ＡＶＥＮＵＥ,,13,104,1600022,,,,,,,2025-06-10,1,,,,,アークバイオ,0
603,3011103016004,新規,0,2025-06-10,2025-06-10,Ｔｉｋｖａ合同会社,,合同会社,東京都,新宿区,上落合３丁目１９番地１３号,,13,104,1610034,,,,,,,2025-06-10,1,,,,,ティクバ,0
605,3011303005590,新規,0,2025-06-10,2025-06-10,ＤＲＥＡＭ　ＢＩＧ合同会社,,合同会社,東京都,杉並区,上高井戸１丁目８番３号メゾン八幡山３０１号室,,13,115,1680074,,,,,,,2025-06-10,1,,,,,,0
613,3011701028400,新規,0,2025-06-10,2025-06-10,株式会社ｃｉｒｃｌｅ,,株式会社,東京都,江戸川区,西一之江３丁目１番２－１０４号,,13,123,1320023,,,,,,,2025-06-10,1,,,,,サークル,0
619,3011801046260,新規,0,2025-06-10,2025-06-10,株式会社ＣＲＵＩＳＥ,,株式会社,東京都,足立区,関原３丁目３番１０号,,13,121,1230852,,,,,,,2025-06-10,1,,,,,クルーズ,0
620,3011801046285,新規,0,2025-06-10,2025-06-10,株式会社ミタス,,株式会社,東京都,足立区,東綾瀬２丁目２番８号グランドゥール東綾瀬２０６,,13,121,1200004,,,,,,,2025-06-10,1,,,,,ミタス,0
625,3012703003291,新規,0,2025-06-10,2025-06-10,合同会社ＩＺＡ,,合同会社,東京都,東村山市,秋津町４丁目１６－２８５,,13,213,1890001,,,,,,,2025-06-10,1,,,,,イザ,0
627,3013303007708,新規,0,2025-06-10,2025-06-10,ＵＮＰＯＳＳ合同会社,,合同会社,東京都,豊島区,東池袋１丁目３４番５号いちご東池袋ビル６階,,13,116,1700013,,,,,,,2025-06-10,1,,,,,アンポス,0
630,3020001163246,新規,0,2025-06-10,2025-06-10,株式会社Ｔｅｊｏｕｌｅ,,株式会社,神奈川県,横浜市緑区,新治町６８４番地ファイベータキャッパＡ棟１０１号,,14,113,2260017,,,,,,,2025-06-10,1,,,,,テジュール,0
646,3030001166999,新規,0,2025-06-10,2025-06-10,株式会社テクノコアホールディングス,,株式会社,埼玉県,さいたま市緑区,東浦和８丁目７番地２,,11,109,3360926,,,,,,,2025-06-10,1,,,,,テクノコアホールディングス,0
652,3040001139145,新規,0,2025-06-10,2025-06-10,株式会社ウォールペーパー・ベン,,株式会社,千葉県,市川市,塩焼２丁目２番２号棟５０７号,,12,203,2720114,,,,,,,2025-06-10,1,,,,,ウォールペーパーベン,0
653,3040001139153,新規,0,2025-06-10,2025-06-10,株式会社ｆｏｒｃｅ,,株式会社,千葉県,習志野市,谷津７丁目７番１号,,12,216,2750026,,,,,,,2025-06-10,1,,,,,フォース,0
654,3040001139186,新規,0,2025-06-10,2025-06-10,株式会社リンク,,株式会社,千葉県,市原市,国分寺台中央７丁目７番地１,,12,219,2900073,,,,,,,2025-06-10,1,,,,,リンク,0
656,3040003027769,新規,0,2025-06-10,2025-06-10,ｔｈｒｅｅ合同会社,,合同会社,千葉県,習志野市,藤崎４丁目１４番４４号,,12,216,2750017,,,,,,,2025-06-10,1,,,,,スリー,0
665,3070001043014,新規,0,2025-06-10,2025-06-10,キムラデンキサービス株式会社,,株式会社,群馬県,邑楽郡大泉町,大字吉田９５６番地の８,,10,524,3700523,,,,,,,2025-06-10,1,,,,,キムラデンキサービス,0
667,3070003005945,新規,0,2025-06-10,2025-06-10,ＡＭＳ合同会社,,合同会社,群馬県,前橋市,石倉町１丁目１３－６トモｇハウス木造平家建,,10,201,3710841,,,,,,,2025-06-10,1,,,,,,0
668,3070003005953,新規,0,2025-06-10,2025-06-10,合同会社みのり不動産,,合同会社,群馬県,伊勢崎市,今泉町２丁目９４５番地３４,,10,204,3720031,,,,,,,2025-06-10,1,,,,,ミノリフドウサン,0
674,3080403005271,新規,0,2025-06-10,2025-06-10,合同会社ＤＥＳＩＧＮ　ＴＵＲＦ,,合同会社,静岡県,浜松市中央区,笠井新田町１２５３番地,,22,138,4313105,,,,,,,2025-06-10,1,,,,,デザインターフ,0
676,3090001019318,新規,0,2025-06-10,2025-06-10,ＣＯＷＳ株式会社,,株式会社,山梨県,北杜市,高根町浅川２７５番地１５９,,19,209,4070302,,,,,,,2025-06-10,1,,,,,カウズ,0
692,3120003029617,新規,0,2025-06-10,2025-06-10,合同会社副業時代,,合同会社,大阪府,大阪市北区,梅田２丁目５番１３号桜橋第一ビル３０４号,,27,127,5300001,,,,,,,2025-06-10,1,,,,,フクギョウジダイ,0
695,3120901051028,新規,0,2025-06-10,2025-06-10,株式会社ＢＲＥＡＤ　ＳＴＵＤＩＯ,,株式会社,大阪府,吹田市,原町３丁目１８番２号,,27,205,5640004,,,,,,,2025-06-10,1,,,,,ブレッドスタジオ,0
698,3120903005709,新規,0,2025-06-10,2025-06-10,Ｐａｒａ　Ｂｅｌｌｕｍ合同会社,,合同会社,大阪府,箕面市,彩都粟生南４丁目２－１０－１２０,,27,220,5620028,,,,,,,2025-06-10,1,,,,,パラベラム,0
701,3122003003221,新規,0,2025-06-10,2025-06-10,合同会社ソロル,,合同会社,大阪府,東大阪市,加納７丁目２３番アメリア６－１００１,,27,227,5780901,,,,,,,2025-06-10,1,,,,,ソロル,0
708,3130003010518,新規,0,2025-06-10,2025-06-10,合同会社京都バックオフィス・コンサルティング,,合同会社,京都府,京都市上京区,妙蓮寺前町３５２番地の６,,26,102,6028418,,,,,,,2025-06-10,1,,,,,キョウトバックオフィスコンサルティング,0
709,3130003010526,新規,0,2025-06-10,2025-06-10,合同会社恒美荘,,合同会社,京都府,長岡京市,長法寺中畠３番地の８,,26,209,6170812,,,,,,,2025-06-10,1,,,,,コウミソウ,0
718,3140001138822,新規,0,2025-06-10,2025-06-10,株式会社Ｓｅａｙｏｕ,,株式会社,兵庫県,神戸市須磨区,前池町２丁目５－３,,28,107,6540011,,,,,,,2025-06-10,1,,,,,シーユー,0
719,3140001138839,新規,0,2025-06-10,2025-06-10,株式会社たつやまの里,,株式会社,兵庫県,高砂市,竜山２丁目１７０番地２８,,28,216,6760811,,,,,,,2025-06-10,1,,,,,タツヤマノサト,0
720,3140001138847,新規,0,2025-06-10,2025-06-10,株式会社忠工房,,株式会社,兵庫県,西宮市,山口町上山口２丁目２９番２９号,,28,204,6511421,,,,,,,2025-06-10,1,,,,,チュウコウボウ,0
723,3140003022149,新規,0,2025-06-10,2025-06-10,合同会社ＯＴＣ　ＡＮＣＨＯＲＳ,,合同会社,兵庫県,神戸市中央区,港島南町５丁目４番地８,,28,110,6500047,,,,,,,2025-06-10,1,,,,,オーティシーアンカーズ,0
729,3170001018666,新規,0,2025-06-10,2025-06-10,株式会社房生工務店,,株式会社,和歌山県,岩出市,清水４４３,,30,209,6496227,,,,,,,2025-06-10,1,,,,,フサオコウムテン,0
735,3180001167181,新規,0,2025-06-10,2025-06-10,株式会社Ｄｏ　ｉｔ,,株式会社,愛知県,名古屋市天白区,池場３丁目３１６番地の１,,23,116,4680055,,,,,,,2025-06-10,1,,,,,ドゥイット,0
736,3180001167256,新規,0,2025-06-10,2025-06-10,株式会社ＥＬＥラック,,株式会社,愛知県,春日井市,松河戸町２丁目１０－９,,23,206,4860932,,,,,,,2025-06-10,1,,,,,イーエルイーラック,0
737,3180001167264,新規,0,2025-06-10,2025-06-10,株式会社ＥｄｇｅＣｏｒｅ,,株式会社,愛知県,一宮市,大和町毛受字辻畑８６番地１,00139518,23,203,4910932,,,,,,,2025-06-10,1,,,,,エッジコア,0
739,3190001032285,新規,0,2025-06-10,2025-06-10,ＡＭ　ＩＮＴＥＲＮＡＴＩＯＮＡＬ株式会社,,株式会社,三重県,桑名郡木曽岬町,大字富田子２０４番地２,,24,303,4980813,,,,,,,2025-06-10,1,,,,,,0
740,3190001032293,新規,0,2025-06-10,2025-06-10,岡田協業株式会社,,株式会社,三重県,津市,一志町日置２６６番地１７,,24,201,5152503,,,,,,,2025-06-10,1,,,,,オカダキョウギョウ,0
746,3210001020205,新規,0,2025-06-10,2025-06-10,株式会社コネクトアーク,,株式会社,福井県,福井市,西天田町８号１５番地,,18,201,9102355,,,,,,,2025-06-10,1,,,,,コネクトアーク,0
749,3230001020954,新規,0,2025-06-10,2025-06-10,株式会社ＴＷＩＦＦＩＣ,,株式会社,富山県,富山市,鹿島町１丁目４番３号,,16,201,9300086,,,,,,,2025-06-10,1,,,,,ティフィック,0
750,3230003002447,新規,0,2025-06-10,2025-06-10,合同会社和,,合同会社,富山県,高岡市,長慶寺８４７番地２,,16,202,9330951,,,,,,,2025-06-10,1,,,,,ナゴミ,0
771,3290001110262,新規,0,2025-06-10,2025-06-10,株式会社有田商店,,株式会社,福岡県,福岡市東区,箱崎７丁目６番８－４０１号,,40,131,8120053,,,,,,,2025-06-10,1,,,,,アリタショウテン,0
772,3290001110287,新規,0,2025-06-10,2025-06-10,株式会社レストリビング,,株式会社,福岡県,福岡市博多区,祇園町８番１２号,,40,132,8120038,,,,,,,2025-06-10,1,,,,,レストリビング,0
773,3290001110295,新規,0,2025-06-10,2025-06-10,株式会社エーサポート,,株式会社,福岡県,古賀市,青柳町２８１１－１,,40,223,8113133,,,,,,,2025-06-10,1,,,,,エーサポート,0
774,3290001110312,新規,0,2025-06-10,2025-06-10,株式会社ＭＵＳＴｍａｓ,,株式会社,福岡県,飯塚市,新立岩８番１４号,,40,205,8200004,,,,,,,2025-06-10,1,,,,,マストマス,0
775,3290001110320,新規,0,2025-06-10,2025-06-10,ライフアップ株式会社,,株式会社,福岡県,大野城市,仲畑３丁目７－２３リバーサイド御笠１０５,,40,219,8160921,,,,,,,2025-06-10,1,,,,,ライフアップ,0
779,3290005019772,新規,0,2025-06-10,2025-06-10,一般社団法人日本臨床技能教育機構,,その他の設立登記法人,福岡県,福岡市南区,野多目１丁目９番１５号,,40,134,8111347,,,,,,,2025-06-10,1,,,,,ニホンリンショウギノウキョウイクキコウ,0
780,3290801031600,新規,0,2025-06-10,2025-06-10,株式会社Ｌ’ＡＵＴＯＭＮＥ,,株式会社,福岡県,築上郡吉富町,大字今吉２３０番地１,,40,642,8710822,,,,,,,2025-06-10,1,,,,,ロトンヌ,0
782,3310001019641,新規,0,2025-06-10,2025-06-10,株式会社ＳＨＥＮ,,株式会社,長崎県,佐世保市,原分町１０７１番地,,42,202,8570103,,,,,,,2025-06-10,1,,,,,シェン,0
784,3320001021159,新規,0,2025-06-10,2025-06-10,株式会社Ｃｏｒｒｅｓｔａｔｅ,,株式会社,大分県,別府市,駅前本町９番７号１階,,44,202,8740934,,,,,,,2025-06-10,1,,,,,コレステート,0
787,3340001027410,新規,0,2025-06-10,2025-06-10,株式会社モトシーズ,,株式会社,鹿児島県,姶良市,西餅田２８７４番地１,,46,225,8995431,,,,,,,2025-06-10,1,,,,,モトシーズ,0
802,3380001035376,新規,0,2025-06-10,2025-06-10,株式会社尚建工業,,株式会社,福島県,郡山市,熱海町玉川字古川１番地,,07,203,9631303,,,,,,,2025-06-10,1,,,,,ショウケンコウギョウ,0
805,3400001017066,新規,0,2025-06-10,2025-06-10,ＴＲＡＮＳＩＴＩＯＮ　ＦＵＮＤＳ株式会社,,株式会社,岩手県,盛岡市,菜園１丁目８番１５号パルクアベニュー・カワトクｃｕｂｅ－ＩＩＢ１Ｆ,00139520,03,201,0200024,,,,,,,2025-06-10,1,,,,,トランジションファンズ,0
831,3490001011077,新規,0,2025-06-10,2025-06-10,株式会社国志開発興業,,株式会社,高知県,高知市,北本町４丁目２番２３号,,39,201,7800056,,,,,,,2025-06-10,1,,,,,コクシカイハツコウギョウ,0
834,3700150130960,新規,0,2025-06-10,2025-06-10,Ｋｅｙｓｉｇｈｔ　Ｔｅｃｈｎｏｌｏｇｉｅｓ　Ｆｒａｎｃｅ　ＳＡＳ,,外国会社等,,,,,,,,１０　Ａｖｅｎｕｅ　Ａｒｉｓｔｉｄｅ　Ｂｒｉａｎｄ　９２２２０　Ｂａｇｎｅｕｘ　Ｆｒａｎｃｅ,,,,,,2025-06-10,1,,,,,キーサイトテクノロジーフランスサース,0
835,3700150130977,新規,0,2025-06-10,2025-06-10,中田島土地改良区,,その他,静岡県,浜松市中央区,中田島町２８０,,22,138,4300845,,,,,,,2025-06-10,1,,,,,ナカタジマトチカイリヨウク,0
836,3700150131001,新規,0,2025-06-10,2025-06-10,ＥＺＧＯ　Ｇｒｏｕｐ　Ｉｎｃ,,外国会社等,,,,,,,,８２３８　Ｍａｙｔｅｎ　ａｖｅ　ＲＡＮＣＨＯ　ＣＵＣＡＭＯＮＧＡ　ＣＡ　９１７３０　ＵＳ,,,,,,2025-06-10,1,,,,,イジゴウグループインシ,0
842,4010001255373,新規,0,2025-06-10,2025-06-10,ＭｅｄｉＶｉｓｔａ株式会社,,株式会社,東京都,中央区,銀座１丁目１２番４号Ｎ＆ＥＢＬＤ．６Ｆ,,13,102,1040061,,,,,,,2025-06-10,1,,,,,メディビスタ,0
843,4010001255670,新規,0,2025-06-10,2025-06-10,株式会社ＮＡＫ,,株式会社,東京都,中央区,銀座１丁目２２番１１銀座大竹ビジデンス２階,,13,102,1040061,,,,,,,2025-06-10,1,,,,,エヌエイケイ,0
844,4010001255712,新規,0,2025-06-10,2025-06-10,ＡＩＭスペース株式会社,,株式会社,東京都,中央区,築地４丁目３番８号５階,,13,102,1040045,,,,,,,2025-06-10,1,,,,,エイムスペース,0
845,4010001255893,新規,0,2025-06-10,2025-06-10,株式会社ニコニコパートナーズ,,株式会社,東京都,千代田区,神田練塀町６６,,13,101,1010022,,,,,,,2025-06-10,1,,,,,ニコニコパートナーズ,0
848,4010003047645,新規,0,2025-06-10,2025-06-10,合同会社ＧＨプロパティ３,,合同会社,東京都,千代田区,神田錦町１丁目２１番１号,,13,101,1010054,,,,,,,2025-06-10,1,,,,,ジーエイチプロパティスリー,0
850,4010005040136,新規,0,2025-06-10,2025-06-10,一般社団法人情報危機管理対策コンソーシアム,,その他の設立登記法人,東京都,千代田区,平河町１丁目４番１５号ＶＯＲＴ麹町５階,,13,101,1020093,,,,,,,2025-06-10,1,,,,,ジョウホウキキカンリタイサクコンソーシアム,0
851,4010005040177,新規,0,2025-06-10,2025-06-10,一般社団法人劇団演奏舞台,,その他の設立登記法人,東京都,千代田区,九段北１丁目１０番２号タイヤビル５階,,13,101,1020073,,,,,,,2025-06-10,1,,,,,ゲキダンエンソウブタイ,0
854,4010401190856,新規,0,2025-06-10,2025-06-10,ＥＶＡＬＡＳＴＩＮ株式会社,,株式会社,東京都,港区,芝５丁目２６－２４田町スクエア２Ｆ,,13,103,1080014,,,,,,,2025-06-10,1,,,,,エヴァラスティン,0
855,4010401190864,新規,0,2025-06-10,2025-06-10,ジャパンユジン株式会社,,株式会社,東京都,港区,三田１丁目２番１８号ＴＴＤビル,,13,103,1080073,,,,,,,2025-06-10,1,,,,,ジャパンユジン,0
857,4010403035316,新規,0,2025-06-10,2025-06-10,合同会社ルナクオーレ,,合同会社,東京都,港区,南青山２丁目２２－１４－１０３,,13,103,1070062,,,,,,,2025-06-10,1,,,,,ルナクオーレ,0
858,4010403035332,新規,0,2025-06-10,2025-06-10,アリエス太陽光開発合同会社,,合同会社,東京都,港区,虎ノ門５丁目３番２０号株式会社アカウンティング・マネジメント・サービス内,,13,103,1050001,,,,,,,2025-06-10,1,,,,,アリエスタイヨウコウカイハツ,0
859,4010403035357,新規,0,2025-06-10,2025-06-10,フィン・キャピタル船合同会社,,合同会社,東京都,港区,元麻布３丁目１番６号,,13,103,1060046,,,,,,,2025-06-10,1,,,,,フィンキャピタルフネ,0
864,4010701047839,新規,0,2025-06-10,2025-06-10,株式会社Ｊ‐ｓｕｒｅ,,株式会社,東京都,品川区,西五反田８丁目９－１１Ｌａｓａｎｔｅ７０３,,13,109,1410031,,,,,,,2025-06-10,1,,,,,ジェイシュア,0
866,4010801036238,新規,0,2025-06-10,2025-06-10,株式会社Ｐｌｕｖｉａ,,株式会社,東京都,大田区,大森中２丁目１５番２５号,,13,111,1430014,,,,,,,2025-06-10,1,,,,,プルヴィア,0
867,4010803005430,新規,0,2025-06-10,2025-06-10,よりそいサポート＆ネットワーク合同会社,,合同会社,東京都,大田区,南久が原２丁目１１番１３号開元荘７号室,,13,111,1460084,,,,,,,2025-06-10,1,,,,,ヨリソイサポートアンドネットワーク,0
868,4010901057522,新規,0,2025-06-10,2025-06-10,世田谷自然食品ホールディングス株式会社,,株式会社,東京都,世田谷区,用賀４丁目１０番１号,,13,112,1580097,,,,,,,2025-06-10,1,,,,,セタガヤシゼンショクヒンホールディングス,0
873,4011001169943,新規,0,2025-06-10,2025-06-10,Ｎｏｖａ　ＡＩ株式会社,,株式会社,東京都,渋谷区,東３丁目８番２１号シュクレＹＥＢＩＳＵ２０１,,13,113,1500011,,,,,,,2025-06-10,1,,,,,ノバエーアイ,0
874,4011001170067,新規,0,2025-06-10,2025-06-10,株式会社ＣＲＡＺＹ　ＩＢＩＳ,,株式会社,東京都,渋谷区,恵比寿西２丁目８番４号ＥＸ恵比寿西ビル５階,,13,113,1500021,,,,,,,2025-06-10,1,,,,,クレイジーアイビス,0
875,4011001170521,新規,0,2025-06-10,2025-06-10,株式会社ＳｅｃＤｅｖＬａｂ,,株式会社,東京都,渋谷区,神南１丁目１１―４ＦＰＧリンクス神南５階,,13,113,1500041,,,,,,,2025-06-10,1,,,,,セックデブラボ,0
876,4011003021796,新規,0,2025-06-10,2025-06-10,合同会社Ｆｉｖｅ　ｓｅｎｓｅｓ,,合同会社,東京都,渋谷区,神宮前２丁目１２番９号,,13,113,1500001,,,,,,,2025-06-10,1,,,,,ファイブセンス,0
878,4011101112027,新規,0,2025-06-10,2025-06-10,株式会社Ｇ‐ＩＮＸ,,株式会社,東京都,新宿区,新宿７丁目８－１２セブン１０３号室,,13,104,1600022,,,,,,,2025-06-10,1,,,,,ジーインクス,0
885,4011701028408,新規,0,2025-06-10,2025-06-10,株式会社ＡＫＩＲＡ,,株式会社,東京都,江戸川区,東小岩５丁目３２番２号,,13,123,1330052,,,,,,,2025-06-10,1,,,,,アキラ,0
887,4011703004282,新規,0,2025-06-10,2025-06-10,合同会社Ｚｅｎｋｏ　Ｅｎｅｒｇｙ　Ｏｎｅ,,合同会社,東京都,江戸川区,松島３丁目１４番７－２１０号若林ビル,,13,123,1320031,,,,,,,2025-06-10,1,,,,,ゼンコエナジーワン,0
896,4012801024024,新規,0,2025-06-10,2025-06-10,ＦＩＯ株式会社,,株式会社,東京都,立川市,曙町３丁目２－２４グレーシアシティ立川ブロードウィング３１３号室,00139515,13,202,1900012,,,,,,,2025-06-10,1,,,,,エフアイオー,0
898,4013303007715,新規,0,2025-06-10,2025-06-10,Ｊａｌｉｙａ　Ａｕｔｏ　Ｚｏｎｅ合同会社,,合同会社,東京都,豊島区,南池袋１丁目９番１８号２６７号室,,13,116,1710022,,,,,,,2025-06-10,1,,,,,ジャリヤオートゾーン,0
903,4020001163245,新規,0,2025-06-10,2025-06-10,株式会社田口佳宏事務所,,株式会社,神奈川県,横浜市青葉区,荏田西２丁目３６番地４,,14,117,2250014,,,,,,,2025-06-10,1,,,,,タグチヨシヒロジムショ,0
904,4020001163286,新規,0,2025-06-10,2025-06-10,譽‐ＨＯＭＡＲＥ株式会社,,株式会社,神奈川県,川崎市幸区,小向西町１丁目２０番地４,,14,132,2120004,,,,,,,2025-06-10,1,,,,,ホマレ,0
905,4020001163344,新規,0,2025-06-10,2025-06-10,株式会社ＵＮＩＴＥＤ　ＲＡＶＥＮ,,株式会社,神奈川県,横浜市中区,海岸通１丁目１番地,,14,104,2310002,,,,,,,2025-06-10,1,,,,,ユナイテッドレイブン,0
906,4020001163352,新規,0,2025-06-10,2025-06-10,株式会社ＷＩＳＴＥＲＩＡ,,株式会社,神奈川県,横浜市中区,南仲通１丁目２番地１００１号室,,14,104,2310006,,,,,,,2025-06-10,1,,,,,ウィステリア,0
912,4020003028636,新規,0,2025-06-10,2025-06-10,リブナック合同会社,,合同会社,神奈川県,川崎市麻生区,上麻生２丁目４番１６－１号,,14,137,2150021,,,,,,,2025-06-10,1,,,,,リブナック,0
914,4021001085446,新規,0,2025-06-10,2025-06-10,株式会社千良,,株式会社,神奈川県,藤沢市,菖蒲沢５２８番地,,14,205,2520823,,,,,,,2025-06-10,1,,,,,センリョウ,0
917,4021003016102,新規,0,2025-06-10,2025-06-10,ｇｅｎｅｒａｔｅ合同会社,,合同会社,神奈川県,平塚市,紅谷町８－１６サニープラザ平塚３Ｆ,,14,203,2540043,,,,,,,2025-06-10,1,,,,,ジェネレイト,0
918,4021003016119,新規,0,2025-06-10,2025-06-10,合同会社ひとり不動産,,合同会社,神奈川県,南足柄市,狩野９３８番地,,14,217,2500126,,,,,,,2025-06-10,1,,,,,ヒトリフドウサン,0
919,4021003016127,新規,0,2025-06-10,2025-06-10,アライアンス・タイヤ合同会社,,合同会社,神奈川県,平塚市,追分２番１号,,14,203,2540047,,,,,,,2025-06-10,1,,,,,アライアンスタイヤ,0
925,4030001166998,新規,0,2025-06-10,2025-06-10,株式会社ゴリラ,,株式会社,埼玉県,草加市,松原２丁目３番７－１１３号,,11,221,3400041,,,,,,,2025-06-10,1,,,,,ゴリラ,0
926,4030001167006,新規,0,2025-06-10,2025-06-10,株式会社オリーザ,,株式会社,埼玉県,和光市,本町３１番１６－７０５号,,11,229,3510114,,,,,,,2025-06-10,1,,,,,オリーザ,0
927,4030001167022,新規,0,2025-06-10,2025-06-10,ＨＫＧメディカルホールディングス株式会社,,株式会社,埼玉県,草加市,氷川町２１２７番地１３ケイユービル５階Ｃ,,11,221,3400034,,,,,,,2025-06-10,1,,,,,エイチケージーメディカルホールディングス,0
936,4040001139094,新規,0,2025-06-10,2025-06-10,秀栄測量株式会社,,株式会社,千葉県,野田市,上花輪６２５番地４,,12,208,2780033,,,,,,,2025-06-10,1,,,,,シュウエイソクリョウ,0
937,4040001139111,新規,0,2025-06-10,2025-06-10,株式会社ＧＳＫホールディングス,,株式会社,千葉県,船橋市,習志野台４丁目３９番７－１０５号,,12,204,2740063,,,,,,,2025-06-10,1,,,,,ジーエスケイホールディングス,0
938,4040001139128,新規,0,2025-06-10,2025-06-10,株式会社ソトワドビル,,株式会社,千葉県,柏市,逆井５丁目２６番１４号,,12,217,2770042,,,,,,,2025-06-10,1,,,,,ソトワドビル,0
939,4040001139136,新規,0,2025-06-10,2025-06-10,サイエンエステート株式会社,,株式会社,千葉県,柏市,名戸ケ谷１丁目７番４１号,,12,217,2770032,,,,,,,2025-06-10,1,,,,,サイエンエステート,0
940,4040001139144,新規,0,2025-06-10,2025-06-10,株式会社Ｖｏｙａｇｅ‐Ｌｉｎｋ,,株式会社,千葉県,野田市,宮崎３５番地の１４,,12,208,2780005,,,,,,,2025-06-10,1,,,,,ボヤージュリンク,0
950,4040003027735,新規,0,2025-06-10,2025-06-10,合同会社ＴＸＢ,,合同会社,千葉県,四街道市,物井７３８ー２０,,12,228,2840012,,,,,,,2025-06-10,1,,,,,ティーエクスビー,0
952,4040005022791,新規,0,2025-06-10,2025-06-10,特定非営利活動法人ＮＯＭＡＲＫ‐ａｄａｐｔ,,その他の設立登記法人,千葉県,いすみ市,岬町江場土１９６５番地３,,12,238,2994612,,,,,,,2025-06-10,1,,,,,ノーマークアダプト,0
958,4070001043013,新規,0,2025-06-10,2025-06-10,株式会社ｎｅｏ,,株式会社,群馬県,前橋市,柏倉町１７７４番地１,,10,201,3710246,,,,,,,2025-06-10,1,,,,,ネオ,0
961,4070003005952,新規,0,2025-06-10,2025-06-10,トリノバ合同会社,,合同会社,群馬県,伊勢崎市,東町２２７８番地４,,10,204,3792231,,,,,,,2025-06-10,1,,,,,トリノバ,0
962,4080001026982,新規,0,2025-06-10,2025-06-10,株式会社Ｏ．Ｃ．Ｄ,,株式会社,静岡県,焼津市,五ケ堀之内１６３４番地の２,,22,212,4250077,,,,,,,2025-06-10,1,,,,,アウトプットコミュニケーションデザイン,0
963,4080005007698,新規,0,2025-06-10,2025-06-10,特定非営利活動法人まんまる,,その他の設立登記法人,静岡県,静岡市駿河区,稲川３丁目５番３－９０２,,22,102,4228062,,,,,,,2025-06-10,1,,,,,マンマル,0
965,4080403005279,新規,0,2025-06-10,2025-06-10,合同会社オリベル,,合同会社,静岡県,浜松市中央区,蜆塚２丁目１４番２６号,,22,138,4328018,,,,,,,2025-06-10,1,,,,,オリベル,0
983,4120001276292,新規,0,2025-06-10,2025-06-10,騰月株式会社,,株式会社,大阪府,大阪市東成区,中本３丁目８番２１号プレステイジ緑橋１０６号室,,27,115,5370022,,,,,,,2025-06-10,1,,,,,トウゲツ,0
984,4120001276549,新規,0,2025-06-10,2025-06-10,北川産業株式会社,,株式会社,大阪府,大阪市阿倍野区,文の里４丁目２５番５号,,27,119,5450004,,,,,,,2025-06-10,1,,,,,キタガワサンギョウ,0
985,4120001276714,新規,0,2025-06-10,2025-06-10,大阪利知行株式会社,,株式会社,大阪府,大阪市淀川区,加島２丁目２番６９号,,27,123,5320031,,,,,,,2025-06-10,1,,,,,オオサカリチギョウ,0
992,4120003029657,新規,0,2025-06-10,2025-06-10,Ｔｈｉｎｈ　Ｖｕｏｎｇ合同会社,,合同会社,大阪府,大阪市生野区,中川西２丁目２４－２９号,,27,116,5440032,,,,,,,2025-06-10,1,,,,,ティンヴオン,0
997,4120901050953,新規,0,2025-06-10,2025-06-10,株式会社京月,,株式会社,大阪府,高槻市,芝生町３丁目３３番１０号,,27,207,5690823,,,,,,,2025-06-10,1,,,,,キョウゲツ,0
998,4120901050994,新規,0,2025-06-10,2025-06-10,ボーダレスウィル株式会社,,株式会社,大阪府,豊中市,野田町１－１,,27,203,5610855,,,,,,,2025-06-10,1,,,,,ボーダレスウィル,0
999,4120901051010,新規,0,2025-06-10,2025-06-10,株式会社ｔｈｅ　ＲＯＯＴｓ,,株式会社,大阪府,箕面市,船場西２丁目７番１１,,27,220,5620036,,,,,,,2025-06-10,1,,,,,ザルーツ,0
1000,4120901051019,新規,0,2025-06-10,2025-06-10,株式会社バーディー,,株式会社,大阪府,豊中市,上野坂１丁目２２番１０号,,27,203,5600012,,,,,,,2025-06-10,1,,,,,バーディー,0
1006,4130001079827,新規,0,2025-06-10,2025-06-10,株式会社碧,,株式会社,京都府,宮津市,字鶴賀２０６５番地の２,,26,205,6260041,,,,,,,2025-06-10,1,,,,,ミドリ,0
1013,4140001138895,新規,0,2025-06-10,2025-06-10,興永建設株式会社,,株式会社,兵庫県,神戸市西区,井吹台西町８丁目２番地の２、３０４号,,28,111,6512243,,,,,,,2025-06-10,1,,,,,コウエイケンセツ,0
1018,4170001018665,新規,0,2025-06-10,2025-06-10,来福株式会社,,株式会社,和歌山県,西牟婁郡白浜町,３０３１番地の２０１,,30,401,6492211,,,,,,,2025-06-10,1,,,,,ライフク,0
1023,4180001167081,新規,0,2025-06-10,2025-06-10,株式会社ＲＥ’ｓ　ＨＯＭＥ,,株式会社,愛知県,名古屋市千種区,下方町７丁目６番地の６（ＨＩＬＬＳ覚王山北１０３号）,,23,101,4640096,,,,,,,2025-06-10,1,,,,,リズホーム,0
1024,4180001167115,新規,0,2025-06-10,2025-06-10,マイコンセプト株式会社,,株式会社,愛知県,名古屋市中村区,名駅１丁目１番３号,,23,105,4500002,,,,,,,2025-06-10,1,,,,,マイコンセプト,0
1025,4180001167239,新規,0,2025-06-10,2025-06-10,ＬＥＣ株式会社,,株式会社,愛知県,尾張旭市,瀬戸川町２丁目１０番地,,23,226,4880023,,,,,,,2025-06-10,1,,,,,エルイーシー,0
1026,4180001167247,新規,0,2025-06-10,2025-06-10,株式会社ＢＲＩＧＨＴＮＥＳＳ,,株式会社,愛知県,名古屋市中区,新栄２丁目２０－７,,23,106,4600007,,,,,,,2025-06-10,1,,,,,ブライトネス,0
1027,4180001167255,新規,0,2025-06-10,2025-06-10,黒馬株式会社,,株式会社,愛知県,名古屋市中区,栄３丁目２番３号名古屋日興證券ビル,,23,106,4600008,,,,,,,2025-06-10,1,,,,,コクバ,0
1028,4180001167263,新規,0,2025-06-10,2025-06-10,ＨＥＩＢＥＩ不動産株式会社,,株式会社,愛知県,名古屋市中村区,森末町１丁目５９番地２プラスパー森末３０５号,,23,105,4530052,,,,,,,2025-06-10,1,,,,,ヘイベイフドウサン,0
1059,4260001040271,新規,0,2025-06-10,2025-06-10,株式会社アイビー,,株式会社,岡山県,岡山市南区,下中野９４番地１０５,,33,104,7000973,,,,,,,2025-06-10,1,,,,,アイビー,0
1068,4290001110261,新規,0,2025-06-10,2025-06-10,株式会社ＫＩＺＵＮＡ,,株式会社,福岡県,福岡市城南区,神松寺３丁目１３番３１－２０２号,,40,136,8140121,,,,,,,2025-06-10,1,,,,,キズナ,0
1069,4290001110278,新規,0,2025-06-10,2025-06-10,株式会社Ｖｉｏｌａ　Ｆｕｋｕｏｋａ,,株式会社,福岡県,福岡市博多区,博多駅前１丁目２３－２ＰａｒｋＦｒｏｎｔ博多駅前１丁目５Ｆ－Ｂ,,40,132,8120011,,,,,,,2025-06-10,1,,,,,,0
1070,4290001110303,新規,0,2025-06-10,2025-06-10,株式会社地域地熱デザイン,,株式会社,福岡県,福岡市中央区,舞鶴１丁目３番３１－５２１号,,40,133,8100073,,,,,,,2025-06-10,1,,,,,チイキチネツデザイン,0
1071,4290001110328,新規,0,2025-06-10,2025-06-10,株式会社ＣＨＯＭＯＴＯ,,株式会社,福岡県,福岡市南区,柏原６丁目３１番１号,,40,134,8111353,,,,,,,2025-06-10,1,,,,,チョモト,0
1076,4290003016944,新規,0,2025-06-10,2025-06-10,合同会社ＩＴＯＷＡ,,合同会社,福岡県,糸島市,志摩東貝塚１６４,,40,230,8191324,,,,,,,2025-06-10,1,,,,,,0
1082,4290801031616,新規,0,2025-06-10,2025-06-10,昇建株式会社,,株式会社,福岡県,北九州市八幡西区,町上津役東１丁目１９番７号,,40,109,8070073,,,,,,,2025-06-10,1,,,,,ショウケン,0
1085,4310001019649,新規,0,2025-06-10,2025-06-10,株式会社ハート,,株式会社,長崎県,雲仙市,小浜町南木指３５０番地１,,42,213,8540511,,,,,,,2025-06-10,1,,,,,ハート,0
1087,4320003004689,新規,0,2025-06-10,2025-06-10,合同会社ＡＪＡＢ　ＲＡＨＭＡＮ　ＴＲＡＤＩＮＧ,,合同会社,大分県,中津市,大字伊藤田３１６５番地,,44,203,8790111,,,,,,,2025-06-10,1,,,,,アジャブラフマントレーディング,0
1088,4340001027384,新規,0,2025-06-10,2025-06-10,株式会社龍郷水産,,株式会社,鹿児島県,大島郡龍郷町,久場６２８番地,,46,527,8940322,,,,,,,2025-06-10,1,,,,,タツゴウスイサン,0
1089,4340003004869,新規,0,2025-06-10,2025-06-10,ＲＩＳＥ　ＩＮＴＥＲＮＡＴＩＯＮＡＬ　ＴＲＡＤＩＮＧ合同会社,,合同会社,鹿児島県,鹿児島市,東俣町３４８５番地４,,46,201,8911102,,,,,,,2025-06-10,1,,,,,ライズインターナショナルトレーディング,0
1091,4350003004950,新規,0,2025-06-10,2025-06-10,合同会社ブルームアップ,,合同会社,宮崎県,宮崎市,大字田吉１２６９番地２８,,45,201,8800911,,,,,,,2025-06-10,1,,,,,ブルームアップ,0
1094,4360001035311,新規,0,2025-06-10,2025-06-10,株式会社ＣＵＥ,,株式会社,沖縄県,那覇市,銘苅１丁目１０番２１－３０６号センチュリーヒルズ新都心,,47,201,9000004,,,,,,,2025-06-10,1,,,,,キュー,0
1099,4370001052652,新規,0,2025-06-10,2025-06-10,株式会社エドワード・ドック,,株式会社,宮城県,仙台市青葉区,中央２丁目９番１号,,04,101,9800021,,,,,,,2025-06-10,1,,,,,エドワードドック,0
1110,4470003002901,新規,0,2025-06-10,2025-06-10,合同会社ＳＩＮ,,合同会社,香川県,高松市,鬼無町鬼無５００番地１８,,37,201,7618026,,,,,,,2025-06-10,1,,,,,シン,0
1115,4490001011076,新規,0,2025-06-10,2025-06-10,株式会社中城丸,,株式会社,高知県,高岡郡中土佐町,久礼６２６８番地２,,39,401,7891301,,,,,,,2025-06-10,1,,,,,ナカジョウマル,0
1116,4700150131000,新規,0,2025-06-10,2025-06-10,ｘｉａｍｅｎ　ｗｅｉ　ｙｉｎ　ｔｉｎｇ　ｌｉ　ｊｉ　ｓｈｕ　ｙｏｕ　ｘｉａｎ　ｇｏｎｇ　ｓｉ,,外国会社等,,,,,,,,Ａ６５１，Ｕｎｉｔ　６１８，Ｎｏ．８８９，Ｆａｎｇｈｕｂｅｉ’ｅｒ　Ｒｏａｄ，Ｈｕｌｉ　Ｄｉｓｔｒｉｃｔ，Ｘｉａｍｅｎ，Ｆｕｊｉａｎ,,,,,,2025-06-10,1,,,,,シャアメンウエイインティーンリージーシュウヨウシエンゴーンスー,0
1127,5010001255802,新規,0,2025-06-10,2025-06-10,株式会社ハートビートパック,,株式会社,東京都,千代田区,神田須田町２丁目１５－３、２１５ビル２１５号室,,13,101,1010041,,,,,,,2025-06-10,1,,,,,ハートビートパック,0
1130,5010003047652,新規,0,2025-06-10,2025-06-10,合同会社ＯＷＬ,,合同会社,東京都,中央区,銀座１丁目１２番４号Ｎ＆ＥＢＬＤ．６Ｆ,,13,102,1040061,,,,,,,2025-06-10,1,,,,,アウル,0
1133,5010101016724,新規,0,2025-06-10,2025-06-10,株式会社Ｌｉｖａｎｔｅ,,株式会社,東京都,八王子市,散田町２丁目５２－３,,13,201,1930832,,,,,,,2025-06-10,1,,,,,リヴァンテ,0
1136,5010401190871,新規,0,2025-06-10,2025-06-10,株式会社ＫＲＴ＆Ｃｏ．,,株式会社,東京都,港区,六本木３丁目４番８号,,13,103,1060032,,,,,,,2025-06-10,1,,,,,ケーアールティーアンドカンパニー,0
1137,5010401190888,新規,0,2025-06-10,2025-06-10,株式会社Ｎｕｍｉｎｉｓ,,株式会社,東京都,港区,赤坂２丁目２１番４号天翔赤坂ＡＮＮＥＸビル５０４,,13,103,1070052,,,,,,,2025-06-10,1,,,,,ニューミニス,0
1138,5010401190995,新規,0,2025-06-10,2025-06-10,株式会社ＳｔｏｒｅＨｕｂ,,株式会社,東京都,港区,六本木７丁目１２番２号Ｒ７ビルディングＳＰＡＣＥＳ六本木,,13,103,1060032,,,,,,,2025-06-10,1,,,,,ストアハブ,0
1140,5010403035265,新規,0,2025-06-10,2025-06-10,パルスタレント合同会社,,合同会社,東京都,港区,三田１丁目３－４０，６０１号室,,13,103,1080073,,,,,,,2025-06-10,1,,,,,パルスタレント,0
1141,5010403035323,新規,0,2025-06-10,2025-06-10,合同会社ＬＤ,,合同会社,東京都,港区,白金１丁目２－１白金ザスカイＥ１９１８,,13,103,1080072,,,,,,,2025-06-10,1,,,,,エルディー,0
1145,5010701047838,新規,0,2025-06-10,2025-06-10,株式会社グローバルシグネチャージャパン,,株式会社,東京都,品川区,北品川５丁目３番１－２６０２号,,13,109,1410001,,,,,,,2025-06-10,1,,,,,グローバルシグネチャージャパン,0
1147,5010801036220,新規,0,2025-06-10,2025-06-10,西馬込不動産株式会社,,株式会社,東京都,大田区,中央７丁目１１番１４号,,13,111,1430024,,,,,,,2025-06-10,1,,,,,ニシマゴメフドウサン,0
1148,5010905004783,新規,0,2025-06-10,2025-06-10,一般社団法人ヤングアメリカンズ基金,,その他の設立登記法人,東京都,世田谷区,代田６丁目８番１７号ベルエアレジデンス下北沢３号,,13,112,1550033,,,,,,,2025-06-10,1,,,,,ヤングアメリカンズキキン,0
1155,5011001169785,新規,0,2025-06-10,2025-06-10,株式会社Ｄｉｇｉｔａｌ　Ｓｈｉｆｔ,,株式会社,東京都,渋谷区,渋谷２丁目１９‐１５宮益坂ビルディング６０９,,13,113,1500002,,,,,,,2025-06-10,1,,,,,デジタルシフト,0
1156,5011001169942,新規,0,2025-06-10,2025-06-10,セメラロ株式会社,,株式会社,東京都,渋谷区,円山町５番３号ＭＩＥＵＸ渋谷ビル８階,,13,113,1500044,,,,,,,2025-06-10,1,,,,,セメラロ,0
1157,5011001170090,新規,0,2025-06-10,2025-06-10,株式会社ＳｃｉＣｕｒｉｏ,,株式会社,東京都,渋谷区,円山町５番３号ＭＩＥＵＸ渋谷ビル８階,,13,113,1500044,,,,,,,2025-06-10,1,,,,,サイキュリオ,0
1158,5011003021829,新規,0,2025-06-10,2025-06-10,合同会社ＴｏＰＡＲＺ,,合同会社,東京都,渋谷区,円山町５番３号ＭＩＥＵＸ渋谷ビル８階,,13,113,1500044,,,,,,,2025-06-10,1,,,,,トパアズ,0
1159,5011101112125,新規,0,2025-06-10,2025-06-10,株式会社Ｋｏｔｅｒｉ,,株式会社,東京都,新宿区,市谷台町９番９号,,13,104,1620066,,,,,,,2025-06-10,1,,,,,コテリ,0
1162,5011103015994,新規,0,2025-06-10,2025-06-10,合同会社零,,合同会社,東京都,新宿区,西新宿３丁目３番１３号西新宿水間ビル６階,,13,104,1600023,,,,,,,2025-06-10,1,,,,,レイ,0
1167,5011601028705,新規,0,2025-06-10,2025-06-10,株式会社ＨＡＯ,,株式会社,東京都,練馬区,春日町６丁目１６－１１フォーチュン光が丘２８３号室,,13,120,1790074,,,,,,,2025-06-10,1,,,,,エイチエーオー,0
1168,5011603004729,新規,0,2025-06-10,2025-06-10,合同会社白華,,合同会社,東京都,練馬区,大泉学園町４丁目２９－６,,13,120,1780061,,,,,,,2025-06-10,1,,,,,ハッカ,0
1170,5011703004273,新規,0,2025-06-10,2025-06-10,華蔵合同会社,,合同会社,東京都,江戸川区,西小岩５丁目１３番１３号小出マンション１１１号室,,13,123,1330057,,,,,,,2025-06-10,1,,,,,ケゾウ,0
1172,5011801046192,新規,0,2025-06-10,2025-06-10,株式会社Ｕｎｌｉｍｉ,,株式会社,東京都,足立区,六町３丁目１３番地４号ロシュブランＡ３０１,,13,121,1210073,,,,,,,2025-06-10,1,,,,,アンリミ,0
1173,5011801046283,新規,0,2025-06-10,2025-06-10,ＫＯＨＡＮ株式会社,,株式会社,東京都,足立区,栗原３丁目２２－１－２０１号,,13,121,1230842,,,,,,,2025-06-10,1,,,,,コウハン,0
1181,5013301054353,新規,0,2025-06-10,2025-06-10,株式会社Ｌｅ’ａ,,株式会社,東京都,豊島区,南大塚２丁目１１－１０ミモザビル３階,,13,116,1700005,,,,,,,2025-06-10,1,,,,,レア,0
1182,5013303007706,新規,0,2025-06-10,2025-06-10,ＲＨ合同会社,,合同会社,東京都,豊島区,池袋２丁目６８－８ヴィラ高山３０１号室,,13,116,1710014,,,,,,,2025-06-10,1,,,,,アールエイチ,0
1189,5020003028676,新規,0,2025-06-10,2025-06-10,ＫＲリンク合同会社,,合同会社,神奈川県,横浜市緑区,中山１丁目１０番２５号第３河内ハイツ２０５号室,,14,113,2260019,,,,,,,2025-06-10,1,,,,,ケーアールリンク,0
1192,5021001085445,新規,0,2025-06-10,2025-06-10,衛藤電設株式会社,,株式会社,神奈川県,足柄上郡松田町,神山８７番地１２,,14,363,2580002,,,,,,,2025-06-10,1,,,,,エトウデンセツ,0
1195,5021003015862,新規,0,2025-06-10,2025-06-10,合同会社ｃｏｑｕｅｌｉｃｏｔ,,合同会社,神奈川県,相模原市南区,東林間２丁目８番１１号,,14,153,2520311,,,,,,,2025-06-10,1,,,,,コクリコ,0
1204,5040001139168,新規,0,2025-06-10,2025-06-10,株式会社ＫＹＢ,,株式会社,千葉県,市原市,五井中央西２丁目１３番地１６,,12,219,2900081,,,,,,,2025-06-10,1,,,,,ケイワイビー,0
1207,5040003027809,新規,0,2025-06-10,2025-06-10,合同会社半蔵,,合同会社,千葉県,松戸市,本町４番地の１松戸駅前ハイツ１００２号,,12,207,2710091,,,,,,,2025-06-10,1,,,,,ハンゾウ,0
1210,5050003009335,新規,0,2025-06-10,2025-06-10,合同会社ハルリエ,,合同会社,茨城県,龍ケ崎市,長山２丁目１番地５,,08,208,3010042,,,,,,,2025-06-10,1,,,,,,0
1214,5080001026981,新規,0,2025-06-10,2025-06-10,ユニークピース株式会社,,株式会社,静岡県,焼津市,塩津２０５番地の６,,22,212,4250085,,,,,,,2025-06-10,1,,,,,ユニークピース,0
1216,5080103003350,新規,0,2025-06-10,2025-06-10,合同会社ＢＬＯＯＭＥ,,合同会社,静岡県,駿東郡長泉町,南一色３３１番地の６１,,22,342,4110932,,,,,,,2025-06-10,1,,,,,ブルーミー,0
1223,5090001019316,新規,0,2025-06-10,2025-06-10,株式会社Ｒｅｔａｉｌ　Ｆｕｔｕｒｅ,,株式会社,山梨県,南都留郡富士河口湖町,船津２４４１番地１,,19,430,4010301,,,,,,,2025-06-10,1,,,,,リテイルフューチャー,0
1225,5100001038669,新規,0,2025-06-10,2025-06-10,ローカラボ株式会社,,株式会社,長野県,下伊那郡阿智村,浪合１１９２番地８９４,,20,407,3950501,,,,,,,2025-06-10,1,,,,,ローカラボ,0
1226,5100001038685,新規,0,2025-06-10,2025-06-10,株式会社ＩＭＰＲＥＳＳ,,株式会社,長野県,須坂市,大字小河原６５７番地１,,20,207,3820901,,,,,,,2025-06-10,1,,,,,インプレス,0
1242,5120001276639,新規,0,2025-06-10,2025-06-10,株式会社ＲＥＳＵＲＧＩＲ,,株式会社,大阪府,大阪市旭区,大宮１丁目６－２６,,27,117,5350002,,,,,,,2025-06-10,1,,,,,レスルヒール,0
1243,5120001276655,新規,0,2025-06-10,2025-06-10,Ｔ＆Ｃ株式会社,,株式会社,大阪府,大阪市北区,兎我野町３番２２号５階Ｃ号室,,27,127,5300056,,,,,,,2025-06-10,1,,,,,ティーアンドシー,0
1244,5120001276663,新規,0,2025-06-10,2025-06-10,行学株式会社,,株式会社,大阪府,大阪市生野区,生野東３丁目１番３９号,,27,116,5440025,,,,,,,2025-06-10,1,,,,,イマ,0
1245,5120003029697,新規,0,2025-06-10,2025-06-10,合同会社塩山,,合同会社,大阪府,交野市,倉治３丁目１８番１０号,,27,230,5760051,,,,,,,2025-06-10,1,,,,,エンザン,0
1246,5120003029706,新規,0,2025-06-10,2025-06-10,合同会社Ｌｕｏｄａ,,合同会社,大阪府,大阪市北区,豊崎３丁目１５番５号ＴＫビル２Ｆ,,27,127,5310072,,,,,,,2025-06-10,1,,,,,ルオーダ,0
1248,5120901051018,新規,0,2025-06-10,2025-06-10,株式会社ＦＮＣＬＹ,,株式会社,大阪府,茨木市,松ケ本町２番３０号,,27,211,5670033,,,,,,,2025-06-10,1,,,,,ファンシル,0
1249,5120903005715,新規,0,2025-06-10,2025-06-10,合同会社大晴紘,,合同会社,大阪府,吹田市,片山町１丁目３０番１１‐５０３号,,27,205,5640082,,,,,,,2025-06-10,1,,,,,ダイセイコウ,0
1250,5122001039315,新規,0,2025-06-10,2025-06-10,株式会社Ｃｒｅｓｔｏ,,株式会社,大阪府,東大阪市,玉串元町２丁目１３番１０号,,27,227,5780933,,,,,,,2025-06-10,1,,,,,クレスト,0
1254,5130001079891,新規,0,2025-06-10,2025-06-10,株式会社ｍｉｒａｉ,,株式会社,京都府,亀岡市,大井町小金岐２丁目１４番１９号,,26,206,6210018,,,,,,,2025-06-10,1,,,,,ミライ,0
1262,5140003022147,新規,0,2025-06-10,2025-06-10,合同会社めい,,合同会社,兵庫県,姫路市,西中島３２－４－１０３,,28,201,6700805,,,,,,,2025-06-10,1,,,,,メイ,0
1265,5150001028186,新規,0,2025-06-10,2025-06-10,クロスロード株式会社,,株式会社,奈良県,磯城郡三宅町,大字石見５０４番地,,29,362,6360212,,,,,,,2025-06-10,1,,,,,クロスロード,0
1268,5160001026817,新規,0,2025-06-10,2025-06-10,リンクティブ株式会社,,株式会社,滋賀県,高島市,新旭町針江５－２８０,,25,212,5201502,,,,,,,2025-06-10,1,,,,,リンクティブ,0
1271,5180001167188,新規,0,2025-06-10,2025-06-10,株式会社小林アパートリース,,株式会社,愛知県,長久手市,久保山９０８番地,,23,238,4801151,,,,,,,2025-06-10,1,,,,,,0
1272,5180001167196,新規,0,2025-06-10,2025-06-10,株式会社ＺＩＮ企画,,株式会社,愛知県,日進市,岩崎町神明１３７番地,,23,230,4700131,,,,,,,2025-06-10,1,,,,,ジンキカク,0
1273,5180001167246,新規,0,2025-06-10,2025-06-10,株式会社ＬＩＦＥ　ＵＰ,,株式会社,愛知県,春日井市,東野町４丁目３番地３,,23,206,4860817,,,,,,,2025-06-10,1,,,,,ライフアップ,0
1274,5180001167254,新規,0,2025-06-10,2025-06-10,株式会社お宝創庫,,株式会社,愛知県,半田市,岩滑中町２丁目１０５番地,,23,205,4750961,,,,,,,2025-06-10,1,,,,,オタカラソウコ,0
1279,5180003028594,新規,0,2025-06-10,2025-06-10,ふじいろ不動産合同会社,,合同会社,愛知県,江南市,赤童子町藤宮３８番地フジミックス第二ビル１０１号,,23,217,4838222,,,,,,,2025-06-10,1,,,,,フジイロフドウサン,0
1283,5190001032275,新規,0,2025-06-10,2025-06-10,株式会社ＭＥＤ’Ｓ,,株式会社,三重県,四日市市,下海老町５８番地３,,24,202,5121203,,,,,,,2025-06-10,1,,,,,メッズ,0
1306,5290001110260,新規,0,2025-06-10,2025-06-10,株式会社ナカハラ,,株式会社,福岡県,八女郡広川町,大字川上１４７番地８,,40,544,8340113,,,,,,,2025-06-10,1,,,,,ナカハラ,0
1307,5290001110302,新規,0,2025-06-10,2025-06-10,株式会社ウェルテクノ,,株式会社,福岡県,福岡市博多区,浦田２丁目１番２６号,,40,132,8120861,,,,,,,2025-06-10,1,,,,,ウェルテクノ,0
1314,5320001021157,新規,0,2025-06-10,2025-06-10,永井コンサルティング株式会社,,株式会社,大分県,中津市,三光臼木１２０８番地１,,44,203,8710112,,,,,,,2025-06-10,1,,,,,ナガイコンサルティング,0
1318,5340001027391,新規,0,2025-06-10,2025-06-10,株式会社ヤスエ,,株式会社,鹿児島県,大島郡瀬戸内町,大字篠川５７７番地１,,46,525,8941741,,,,,,,2025-06-10,1,,,,,ヤスエ,0
1331,5370003007133,新規,0,2025-06-10,2025-06-10,合同会社ＨＡＭＡ＆ＣＯ．,,合同会社,宮城県,塩竈市,東玉川町８―２ＮＫ―１ビル３階,,04,203,9850036,,,,,,,2025-06-10,1,,,,,ハマアンドコー,0
1332,5370005010977,新規,0,2025-06-10,2025-06-10,医療法人ＳＭＯＣ,,その他の設立登記法人,宮城県,仙台市青葉区,郷六字舘６７番地の１,,04,101,9893121,,,,,,,2025-06-10,1,,,,,エスエムオーシー,0
1339,5400003003475,新規,0,2025-06-10,2025-06-10,合同会社ネギ屋及川,,合同会社,岩手県,奥州市,江刺愛宕字駒籠２８６番地１,,03,215,0231131,,,,,,,2025-06-10,1,,,,,ネギヤオイカワ,0
1354,5430001094613,新規,0,2025-06-10,2025-06-10,株式会社ジェイコントロール,,株式会社,北海道,札幌市北区,屯田八条７丁目２番１５号,,01,102,0020858,,,,,,,2025-06-10,1,,,,,ジェイコントロール,0
1355,5430001094621,新規,0,2025-06-10,2025-06-10,株式会社Ｄ‐ＦＲＥＥＤ,,株式会社,北海道,札幌市東区,東雁来町３０９番地１０９,,01,103,0070820,,,,,,,2025-06-10,1,,,,,ディーフリード,0
1356,5430001094638,新規,0,2025-06-10,2025-06-10,株式会社ＺＯＯＴＥＣＨ,,株式会社,北海道,札幌市南区,藻岩下１９７７番地２５９,,01,106,0050040,,,,,,,2025-06-10,1,,,,,ズーテック,0
1359,5430003017745,新規,0,2025-06-10,2025-06-10,合同会社ＩＮＳＰＡＳＳＩＯＮ　ＬＡＢ,,合同会社,北海道,札幌市豊平区,西岡四条５丁目８番１号,,01,105,0620034,,,,,,,2025-06-10,1,,,,,インスパッションラボ,0
1360,5430003017761,新規,0,2025-06-10,2025-06-10,合同会社絆創造,,合同会社,北海道,札幌市白石区,本通１２－７－１９グランディール南郷１３－２０６号,,01,104,0030000,,,,,,,2025-06-10,1,,,,,キズナソウゾウ,0
1376,5700150056634,新規,0,2025-06-10,2015-10-09,学校給食センター納入組合,,その他,香川県,観音寺市,柞田町甲１０４７番地,,37,205,7680040,,,,,,,2015-10-09,1,,,,,ガツコウキユウシヨクセンターノウニユウクミアイ,0
1379,5700150130959,新規,0,2025-06-10,2025-06-10,出野尾区,,その他,千葉県,館山市,出野尾４７５番地の３,,12,205,2940026,,,,,,,2025-06-10,1,,,,,イデノオク,0
1380,5700150130975,新規,0,2025-06-10,2025-06-10,ＳＨＯＢＡＩ　ＴＲＡＤＩＮＧ　ＰＶＴ　ＬＴＤ,,外国会社等,神奈川県,厚木市,山際１－６オリエントハイツＮｏ．５－２１０号室,00139499,14,212,2430803,スリランカ民主社会主義共和国、サーキュラーロード、マラダンカダバラ,,,,,,2025-06-10,1,,,,,シヨウバイトレーデイングプライベートリミテツド,0
1389,6010001255660,新規,0,2025-06-10,2025-06-10,イデユテック株式会社,,株式会社,東京都,千代田区,二番町９－３ＴＨＥＢＡＳＥ麹町１階,,13,101,1020084,,,,,,,2025-06-10,1,,,,,イデユテック,0
1390,6010001255859,新規,0,2025-06-10,2025-06-10,株式会社Ａｌｌ　ｆｏｒ　ｏｎｅ,,株式会社,東京都,中央区,銀座８丁目１９番２－１００２号,,13,102,1040061,,,,,,,2025-06-10,1,,,,,オールフォーワン,0
1391,6010001255883,新規,0,2025-06-10,2025-06-10,株式会社ＢｉｏＲｅｇｅｎｉｘ,,株式会社,東京都,中央区,日本橋１丁目１１番１２号日本橋水野ビル７Ｆ,,13,102,1030027,,,,,,,2025-06-10,1,,,,,バイオリジェニックス,0
1392,6010003047651,新規,0,2025-06-10,2025-06-10,一ツ橋１号合同会社,,合同会社,東京都,千代田区,丸の内１丁目４番１号東京共同会計事務所内,,13,101,1000005,,,,,,,2025-06-10,1,,,,,ヒトツバシイチゴウ,0
1403,6010401188601,新規,0,2025-06-10,2025-06-10,株式会社ＬＩＭＩｔＬＥＳＳ,,株式会社,東京都,港区,新橋１丁目１２－９新橋プレイス７階（ビジネスエアポート新橋内）,,13,103,1050004,,,,,,,2025-06-10,1,,,,,リミレス,0
1404,6010401190573,新規,0,2025-06-10,2025-06-10,株式会社キャンピングプラッツ,,株式会社,東京都,港区,港南４丁目６－７,,13,103,1080075,,,,,,,2025-06-10,1,,,,,キャンピングプラッツ,0
1405,6010401190607,新規,0,2025-06-10,2025-06-10,株式会社クロススキル,,株式会社,東京都,港区,北青山１丁目３－３三橋ビル３階,,13,103,1070061,,,,,,,2025-06-10,1,,,,,クロススキル,0
1406,6010401190771,新規,0,2025-06-10,2025-06-10,株式会社Ｔｒｅｎｄ,,株式会社,東京都,港区,虎ノ門３丁目１８番６号朝日虎ノ門マンション６１４号室,,13,103,1050001,,,,,,,2025-06-10,1,,,,,トレンド,0
1407,6010403035314,新規,0,2025-06-10,2025-06-10,ＥｎＳｈｕ　Ｓｔｕｄｉｏ合同会社,,合同会社,東京都,港区,浜松町２丁目７番１７号イーグル浜松町,,13,103,1050013,,,,,,,2025-06-10,1,,,,,エンシュースタジオ,0
1408,6010403035322,新規,0,2025-06-10,2025-06-10,シャルトルーズ合同会社,,合同会社,東京都,港区,六本木７丁目１０番２７号,,13,103,1060032,,,,,,,2025-06-10,1,,,,,シャルトルーズ,0
1417,6010803005437,新規,0,2025-06-10,2025-06-10,ＣｈａｔＷｉｚＢｏｘ合同会社,,合同会社,東京都,大田区,矢口２丁目５－１０,,13,111,1460093,,,,,,,2025-06-10,1,,,,,チャットウィズボックス,0
1427,6011001170040,新規,0,2025-06-10,2025-06-10,株式会社ｓｋｅｔｃｈｂｏｏｋ,,株式会社,東京都,渋谷区,神宮前６丁目２３番４号桑野ビル２階,,13,113,1500001,,,,,,,2025-06-10,1,,,,,スケッチブック,0
1428,6011001170081,新規,0,2025-06-10,2025-06-10,株式会社ＫＢＬ,,株式会社,東京都,渋谷区,桜丘町２９番１０－１１０号ルピナス渋谷桜丘ガーデンコート,,13,113,1500031,,,,,,,2025-06-10,1,,,,,ケービーエル,0
1429,6011001170115,新規,0,2025-06-10,2025-06-10,株式会社Ｏｒｉｇｉｎ,,株式会社,東京都,目黒区,下目黒１丁目１番１４号コノトラビル７Ｆ,,13,110,1530064,,,,,,,2025-06-10,1,,,,,オリジン,0
1430,6011001170296,新規,0,2025-06-10,2025-06-10,株式会社Ａｓｔｒｕｃｔａ,,株式会社,東京都,渋谷区,道玄坂１丁目１０番８号渋谷道玄坂東急ビル２Ｆ－Ｃ,,13,113,1500043,,,,,,,2025-06-10,1,,,,,アストラクタ,0
1431,6011003021761,新規,0,2025-06-10,2025-06-10,Ｐａｒａｐａｒａｓ合同会社,,合同会社,東京都,渋谷区,桜丘町２３－１７シティコート桜丘４０８,,13,113,1500031,,,,,,,2025-06-10,1,,,,,パラパラス,0
1432,6011005011042,新規,0,2025-06-10,2025-06-10,一般社団法人１００年時代支援機構,,その他の設立登記法人,東京都,渋谷区,恵比寿西２丁目８番４号ＥＸ恵比寿西ビル５階,,13,113,1500021,,,,,,,2025-06-10,1,,,,,ヒャクネンジダイシエンキコウ,0
1434,6011103015993,新規,0,2025-06-10,2025-06-10,合同会社さいきんの若者は,,合同会社,東京都,新宿区,西新宿３丁目３番１３号西新宿水間ビル２Ｆ,,13,104,1600023,,,,,,,2025-06-10,1,,,,,サイキンノワカモノワ,0
1436,6011201026414,新規,0,2025-06-10,2025-06-10,株式会社ブレイズ,,株式会社,東京都,中野区,中野３丁目２８番７号,,13,114,1640001,,,,,,,2025-06-10,1,,,,,ブレイズ,0
1437,6011201026422,新規,0,2025-06-10,2025-06-10,株式会社Ａ２Ｃ,,株式会社,東京都,中野区,松が丘１丁目１－１３ウエストコート新井薬師１０１,,13,114,1650024,,,,,,,2025-06-10,1,,,,,エーツーシー,0
1438,6011401027154,新規,0,2025-06-10,2025-06-10,株式会社メディキャリー,,株式会社,東京都,板橋区,板橋１丁目４７番１３－９０２号,,13,119,1730004,,,,,,,2025-06-10,1,,,,,メディキャリー,0
1442,6011601028720,新規,0,2025-06-10,2025-06-10,ＳＵＮ電気株式会社,,株式会社,東京都,練馬区,旭町２丁目４３番６号,,13,120,1790071,,,,,,,2025-06-10,1,,,,,サンデンキ,0
1445,6011701028406,新規,0,2025-06-10,2025-06-10,株式会社實平設備,,株式会社,東京都,江戸川区,平井７丁目１７番３７号,,13,123,1320035,,,,,,,2025-06-10,1,,,,,ジツヒラセツビ,0
1446,6011701028414,新規,0,2025-06-10,2025-06-10,来財株式会社,,株式会社,東京都,江戸川区,西小岩５丁目１３－１３,,13,123,1330057,,,,,,,2025-06-10,1,,,,,ライサイ,0
1447,6011703004272,新規,0,2025-06-10,2025-06-10,Ｗｅｌｌ　Ｇｉｆｔ合同会社,,合同会社,東京都,江戸川区,西小岩５丁目１３番１３号小出マンション１５６号室,,13,123,1330057,,,,,,,2025-06-10,1,,,,,ウェルギフト,0
1448,6011703004280,新規,0,2025-06-10,2025-06-10,合同会社ｎｔｏ．,,合同会社,東京都,江戸川区,西小岩５丁目３番１６号,,13,123,1330057,,,,,,,2025-06-10,1,,,,,ント,0
1454,6011803006912,新規,0,2025-06-10,2025-06-10,合同会社ｄｏｐｅ,,合同会社,東京都,葛飾区,新宿６丁目２－１８シティテラス金町１１０７,,13,122,1250051,,,,,,,2025-06-10,1,,,,,ドープ,0
1461,6012801024022,新規,0,2025-06-10,2025-06-10,ＩＷａコンサルティング株式会社,,株式会社,東京都,国立市,北２丁目２５－９,,13,215,1860001,,,,,,,2025-06-10,1,,,,,アイダブルエーコンサルティング,0
1462,6012805003344,新規,0,2025-06-10,2025-06-10,一般社団法人ミューシグ,,その他の設立登記法人,東京都,国立市,富士見台１丁目３番地の９富士ビューマンション２０２,,13,215,1860003,,,,,,,2025-06-10,1,,,,,ミューシグ,0
1463,6013101009713,新規,0,2025-06-10,2025-06-10,株式会社ネオ・ビルド,,株式会社,東京都,西多摩郡瑞穂町,箱根ケ崎西松原３６番地４２,,13,303,1901223,,,,,,,2025-06-10,1,,,,,ネオビルド,0
1466,6013301054402,新規,0,2025-06-10,2025-06-10,株式会社Ｍａｋｅ,,株式会社,東京都,豊島区,巣鴨３丁目１９番７－４０４号,,13,116,1700002,,,,,,,2025-06-10,1,,,,,メイク,0
1483,6021003016117,新規,0,2025-06-10,2025-06-10,オフグリッドカフェ合同会社,,合同会社,神奈川県,横須賀市,佐島３丁目９－１９,,14,201,2400103,,,,,,,2025-06-10,1,,,,,オフグリッドカフェ,0
1489,6030001166939,新規,0,2025-06-10,2025-06-10,株式会社川那子工務店,,株式会社,埼玉県,越谷市,伊原２丁目３番５４号,,11,222,3430831,,,,,,,2025-06-10,1,,,,,カワナゴコウムテン,0
1490,6030001167020,新規,0,2025-06-10,2025-06-10,株式会社ＥＲＤＥＮＥ,,株式会社,埼玉県,蕨市,南町３丁目２０番８号里見ビル３０５号室,,11,223,3350003,,,,,,,2025-06-10,1,,,,,エルデネ,0
1496,6030003026959,新規,0,2025-06-10,2025-06-10,合同会社秀和,,合同会社,埼玉県,春日部市,豊町２丁目９番地１カメリアコート３０５,,11,214,3440066,,,,,,,2025-06-10,1,,,,,シュウワ,0
1501,6040001139084,新規,0,2025-06-10,2025-06-10,ケンクレスト株式会社,,株式会社,千葉県,我孫子市,中里６７７番地,,12,222,2701122,,,,,,,2025-06-10,1,,,,,ケンクレスト,0
1502,6040001139118,新規,0,2025-06-10,2025-06-10,株式会社Ｉｎｆｉｎｉｔｙ９,,株式会社,千葉県,千葉市美浜区,真砂５丁目２１番９－１２０３号,,12,106,2610011,,,,,,,2025-06-10,1,,,,,インフィニティナイン,0
1503,6040001139134,新規,0,2025-06-10,2025-06-10,株式会社マイホームプランふなばし,,株式会社,千葉県,千葉市中央区,仁戸名町６３５番地１カインドステージ千葉大森台４０３,,12,101,2600801,,,,,,,2025-06-10,1,,,,,マイホームプランフナバシ,0
1504,6040001139150,新規,0,2025-06-10,2025-06-10,株式会社加藤硝子,,株式会社,千葉県,柏市,南増尾４丁目２番１３－１０１号,,12,217,2770054,,,,,,,2025-06-10,1,,,,,カトウガラス,0
1505,6040001139159,新規,0,2025-06-10,2025-06-10,サンセリテ株式会社,,株式会社,千葉県,富津市,青木３丁目５番地８,,12,226,2930012,,,,,,,2025-06-10,1,,,,,サンセリテ,0
1506,6040001139167,新規,0,2025-06-10,2025-06-10,株式会社ｍｕｓｕｂｕ,,株式会社,千葉県,浦安市,高洲５丁目１－Ａ－６０２,,12,227,2790023,,,,,,,2025-06-10,1,,,,,ムスブ,0
1514,6060001038284,新規,0,2025-06-10,2025-06-10,株式会社麗澤舎,,株式会社,栃木県,鹿沼市,茂呂６８５番地３,,09,205,3220026,,,,,,,2025-06-10,1,,,,,レイタクシャ,0
1519,6080003003474,新規,0,2025-06-10,2025-06-10,合同会社しつらえ,,合同会社,静岡県,静岡市清水区,馬走９７４－１３,,22,103,4240875,,,,,,,2025-06-10,1,,,,,シツラエ,0
1522,6080401027967,新規,0,2025-06-10,2025-06-10,株式会社タイルアート,,株式会社,静岡県,磐田市,池田１１０９番地２,,22,211,4380805,,,,,,,2025-06-10,1,,,,,タイルアート,0
1526,6100001038684,新規,0,2025-06-10,2025-06-10,株式会社雪だるま電力,,株式会社,長野県,北安曇郡白馬村,大字北城１１０２６番地,,20,485,3999301,,,,,,,2025-06-10,1,,,,,ユキダルマデンリョク,0
1539,6120001276415,新規,0,2025-06-10,2025-06-10,株式会社おむすび,,株式会社,大阪府,大阪市淀川区,西宮原２丁目７番３３－１０２号,,27,123,5320004,,,,,,,2025-06-10,1,,,,,オムスビ,0
1540,6120001276687,新規,0,2025-06-10,2025-06-10,ＭＡＫＯＴＯ株式会社,,株式会社,大阪府,大阪市淀川区,十三元今里２丁目１－１２－１階,,27,123,5320028,,,,,,,2025-06-10,1,,,,,マコト,0
1542,6120003029663,新規,0,2025-06-10,2025-06-10,合同会社Ｈｏｌｏｎ,,合同会社,大阪府,大阪市東住吉区,南田辺１丁目２－２０（東側）,,27,121,5460033,,,,,,,2025-06-10,1,,,,,ホロン,0
1544,6120901051009,新規,0,2025-06-10,2025-06-10,株式会社ＡＣＴ,,株式会社,大阪府,箕面市,坊島５丁目１１番４４号,,27,220,5620013,,,,,,,2025-06-10,1,,,,,アクト,0
1545,6120901051033,新規,0,2025-06-10,2025-06-10,グランソ株式会社,,株式会社,大阪府,池田市,槻木町２－７－１－５１０,,27,204,5630057,,,,,,,2025-06-10,1,,,,,グランソ,0
1548,6120903005706,新規,0,2025-06-10,2025-06-10,合同会社ＮＥＯ,,合同会社,大阪府,吹田市,南吹田５丁目１番２５号（３０７）,,27,205,5640043,,,,,,,2025-06-10,1,,,,,ネオ,0
1549,6120903005714,新規,0,2025-06-10,2025-06-10,合同会社ＫＡＴＡＨＩＤＥ,,合同会社,大阪府,豊中市,桜の町６丁目７番３号,,27,203,5600054,,,,,,,2025-06-10,1,,,,,カタヒデ,0
1563,6140003022154,新規,0,2025-06-10,2025-06-10,合同会社たでの里,,合同会社,兵庫県,赤穂市,加里屋２０９４番地,,28,212,6780239,,,,,,,2025-06-10,1,,,,,タデノサト,0
1564,6140003022179,新規,0,2025-06-10,2025-06-10,エフェクチュアルバリュークリエイションＬＡＢＯ合同会社,,合同会社,兵庫県,神戸市灘区,深田町３丁目１番１６－８０１号,,28,102,6570038,,,,,,,2025-06-10,1,,,,,エフェクチュアルバリュークリエイションラボ,0
1565,6140005027531,新規,0,2025-06-10,2025-06-10,特定非営利活動法人アイ,,その他の設立登記法人,兵庫県,神戸市北区,上津台４丁目１５番１７号,,28,109,6511515,,,,,,,2025-06-10,1,,,,,アイ,0
1577,6180003028593,新規,0,2025-06-10,2025-06-10,合同会社Ｋｈｉｄｍａ,,合同会社,愛知県,名古屋市中村区,名駅４丁目２４番５号第２森ビル４０１,,23,105,4500002,,,,,,,2025-06-10,1,,,,,ヒドマ,0
1599,6260003005196,新規,0,2025-06-10,2025-06-10,合同会社Ｋ＆Ｉ,,合同会社,岡山県,総社市,総社２５５９番地フィオーレ・カーサ１０１号,,33,208,7191126,,,,,,,2025-06-10,1,,,,,ケーアンドアイ,0
1609,6290801031597,新規,0,2025-06-10,2025-06-10,上野ＡＩロボット株式会社,,株式会社,福岡県,田川郡福智町,上野１６９８番地,,40,610,8221102,,,,,,,2025-06-10,1,,,,,アガノエーアイロボット,0
1611,6340001027390,新規,0,2025-06-10,2025-06-10,株式会社福金ワークス,,株式会社,鹿児島県,大島郡龍郷町,戸口１３７５番地下戸口団地５６－１号,,46,527,8940107,,,,,,,2025-06-10,1,,,,,フクカネワークス,0
1626,6370003007140,新規,0,2025-06-10,2025-06-10,合同会社Ｌｅａｆ,,合同会社,宮城県,仙台市青葉区,一番町１丁目１１番９号,,04,101,9800811,,,,,,,2025-06-10,1,,,,,リーフ,0
1627,6370005010976,新規,0,2025-06-10,2025-06-10,医療法人青葉なかやま整形外科,,その他の設立登記法人,宮城県,仙台市青葉区,中山１丁目１番１２号,,04,101,9810952,,,,,,,2025-06-10,1,,,,,アオバナカヤマセイケイゲカ,0
1632,6410001014183,新規,0,2025-06-10,2025-06-10,株式会社リクアカトウ,,株式会社,秋田県,秋田市,山王中島町１５番２５号,,05,201,0100955,,,,,,,2025-06-10,1,,,,,リクアカトウ,0
1637,6420005007959,新規,0,2025-06-10,2025-06-10,一般社団法人興新リース,,その他の設立登記法人,青森県,八戸市,大字白銀町字大沢頭１９番地３,,02,203,0310822,,,,,,,2025-06-10,1,,,,,コウシンリース,0
1641,6430001094637,新規,0,2025-06-10,2025-06-10,株式会社岩鐵工業,,株式会社,北海道,札幌市白石区,平和通１丁目南１番４６－５０３号,,01,104,0030028,,,,,,,2025-06-10,1,,,,,ガンテツコウギョウ,0
1642,6430001094645,新規,0,2025-06-10,2025-06-10,大＿双葉株式会社,00139519,株式会社,北海道,札幌市東区,北二十五条東１８丁目３番１０号フタバスクエア元町１階,,01,103,0650025,,,,,,,2025-06-10,1,,,,,ダイテツフタバ,0
1659,6700150130974,新規,0,2025-06-10,2025-06-10,ＲＵＢＹ　ＭＯＴＯＲＳ　ＰＶＴ　ＬＴＤ,,外国会社等,千葉県,山武市,白幡２７３６番地２オフィスＥ,,12,237,2891306,スリランカ民主社会主義共和国、マタレ、メインストリート、Ｎｏ．３３４,,,,,,2025-06-10,1,,,,,ルビーモータースプライベートリミテツド,0
1660,6700150130999,新規,0,2025-06-10,2025-06-10,Ｓｈｅｎｚｈｅｎ　Ｋｅｄｅｌｉ　Ｅｌｅｃｔｒｏｎｉｃ　Ｔｅｃｈｎｏｌｏｇｙ　Ｃｏ．，Ｌｔｄ,,外国会社等,,,,,,,,Ｂａｏａｎ　Ｓｈａｊｉｎｇ　Ｓｔｒｅｅｔ　Ｈａｏｘｉａｎｇ　Ｃｏｍｍｕｎｉｔｙ，Ｒｏｏｍ　１３Ａ，Ｇｕａｎｈｕａ　Ｌｉａｎｔｏｕ　Ｂｕｓｉｎｅｓｓ　Ｂｕｉｌｄｉｎｇ，Ｗｅｓｔ　Ｃｏａｓｔ　Ｇａｒｄ，Ｓｈｅｎｚｈｅｎ，Ｇｕａｎｇｄｏｎｇ,,,,,,2025-06-10,1,,,,,シェンジェンコーァリーディエンズーコーァジーヨウシエンゴーンスー,0
1667,7010001255668,新規,0,2025-06-10,2025-06-10,Ｗｅａｌｔｈ　Ｌａｂ株式会社,,株式会社,東京都,中央区,銀座６丁目６番１号銀座風月堂ビル５Ｆ,,13,102,1040061,,,,,,,2025-06-10,1,,,,,ウェルスラボ,0
1668,7010001255833,新規,0,2025-06-10,2025-06-10,利衆舞動株式会社,,株式会社,東京都,千代田区,三番町３０番地２ジオサイド三番町１００２号,,13,101,1020075,,,,,,,2025-06-10,1,,,,,リシュウブドウ,0
1671,7010003047650,新規,0,2025-06-10,2025-06-10,合同会社ＳｕｎＸ１,,合同会社,東京都,千代田区,丸の内１丁目４番１号東京共同会計事務所内,,13,101,1000005,,,,,,,2025-06-10,1,,,,,サンエックスワン,0
1672,7010005040174,新規,0,2025-06-10,2025-06-10,行政書士法人ＴＳＫ,,その他の設立登記法人,東京都,中央区,日本橋２丁目１番３号アーバンネット日本橋二丁目ビル３階,,13,102,1030027,,,,,,,2025-06-10,1,,,,,ティーエスケー,0
1678,7010401190804,新規,0,2025-06-10,2025-06-10,株式会社Ｎａｖａｌｔａ　Ｄｉｇｉｔａｌ　Ｉｎｓｉｇｈｔ,,株式会社,東京都,港区,海岸１丁目２－２０汐留ビルディング３階,,13,103,1050022,,,,,,,2025-06-10,1,,,,,ナヴァルタデジタルインサイト,0
1679,7010403035305,新規,0,2025-06-10,2025-06-10,合同会社ＣＨＲ,,合同会社,東京都,港区,浜松町２丁目２－１５浜松町ダイヤビル２Ｆ,,13,103,1050013,,,,,,,2025-06-10,1,,,,,シーエイチアール,0
1680,7010403035321,新規,0,2025-06-10,2025-06-10,翠美合同会社,,合同会社,東京都,港区,港南４丁目６番８－２８０９号,,13,103,1080075,,,,,,,2025-06-10,1,,,,,スイビ,0
1681,7010405024462,新規,0,2025-06-10,2025-06-10,一般社団法人未来細胞培養センター,,その他の設立登記法人,東京都,港区,北青山３丁目２番２号ＡＹビル８階,,13,103,1070061,,,,,,,2025-06-10,1,,,,,ミライサイボウバイヨウセンター,0
1682,7010601067439,新規,0,2025-06-10,2025-06-10,株式会社美月,,株式会社,東京都,江東区,東陽２丁目４番４１－５０２号,,13,108,1350016,,,,,,,2025-06-10,1,,,,,ミヅキ,0
1683,7010603011601,新規,0,2025-06-10,2025-06-10,合同会社せん,,合同会社,東京都,江東区,亀戸４丁目３６－６,,13,108,1360071,,,,,,,2025-06-10,1,,,,,セン,0
1692,7011001169940,新規,0,2025-06-10,2025-06-10,株式会社マネーココ,,株式会社,東京都,渋谷区,道玄坂１丁目１０番８号渋谷道玄坂東急ビル２Ｆ－Ｃ,,13,113,1500043,,,,,,,2025-06-10,1,,,,,マネーココ,0
1693,7011001169965,新規,0,2025-06-10,2025-06-10,ＦＡＮＥ株式会社,,株式会社,東京都,渋谷区,富ヶ谷１丁目１４番１４号４階,,13,113,1510063,,,,,,,2025-06-10,1,,,,,ファンイ,0
1694,7011001170064,新規,0,2025-06-10,2025-06-10,株式会社Ｎａｔｕｒｅ　Ｐｌａｎｎｉｎｇ,,株式会社,東京都,渋谷区,恵比寿西２丁目８番４号ＥＸ恵比寿西ビル５階,,13,113,1500021,,,,,,,2025-06-10,1,,,,,ネイチャープランニング,0
1695,7011001170114,新規,0,2025-06-10,2025-06-10,ホクト工業株式会社,,株式会社,東京都,渋谷区,代々木１丁目６番４号,,13,113,1510053,,,,,,,2025-06-10,1,,,,,ホクトコウギョウ,0
1696,7011001170147,新規,0,2025-06-10,2025-06-10,株式会社ミュージアム,,株式会社,東京都,渋谷区,恵比寿西２丁目４番８号ウィンド恵比寿ビル８Ｆ,,13,113,1500021,,,,,,,2025-06-10,1,,,,,ミュージアム,0
1697,7011001170428,新規,0,2025-06-10,2025-06-10,株式会社ＦａｓｔＸ,,株式会社,東京都,渋谷区,渋谷２丁目１９―１５宮益坂ビルディング６０９,,13,113,1500002,,,,,,,2025-06-10,1,,,,,ファストエックス,0
1698,7011001170452,新規,0,2025-06-10,2025-06-10,株式会社Ａｒｔｌｅａｆ,,株式会社,東京都,渋谷区,神南１丁目１１－４ＦＰＧリンクス神南５階,,13,113,1500041,,,,,,,2025-06-10,1,,,,,アートリーフ,0
1699,7011003021793,新規,0,2025-06-10,2025-06-10,Ｈｕｇ　ｔｈｅ　ｍｏｏｎ合同会社,,合同会社,東京都,渋谷区,恵比寿４丁目３番１号ＱＩＺ・ＥＢＩＳＵ５０９,,13,113,1500013,,,,,,,2025-06-10,1,,,,,ハグザムーン,0
1709,7011103015992,新規,0,2025-06-10,2025-06-10,ＪＥＴＷＥＧ合同会社,,合同会社,東京都,新宿区,西新宿４丁目７番７号フェリス西新宿１０３,,13,104,1600023,,,,,,,2025-06-10,1,,,,,ジェットウェグ,0
1710,7011203004714,新規,0,2025-06-10,2025-06-10,Ｃｒｅｄｅｌ合同会社,,合同会社,東京都,中野区,本町３丁目３２番地２１号２０２号室,,13,114,1640012,,,,,,,2025-06-10,1,,,,,クレデル,0
1720,7011701028405,新規,0,2025-06-10,2025-06-10,日本サクラ株式会社,,株式会社,東京都,江戸川区,平井５丁目４５番５号渡辺ハイツ１０１,,13,123,1320035,,,,,,,2025-06-10,1,,,,,ニホンサクラ,0
1721,7011701028413,新規,0,2025-06-10,2025-06-10,瑞鼎株式会社,,株式会社,東京都,江戸川区,西小岩５丁目１３番１３号小出マンション１３０室,,13,123,1330057,,,,,,,2025-06-10,1,,,,,ズイテイ,0
1722,7011703004271,新規,0,2025-06-10,2025-06-10,合同会社スターカプセル,,合同会社,東京都,江戸川区,上篠崎４丁目１４番１１号,,13,123,1330054,,,,,,,2025-06-10,1,,,,,スターカプセル,0
1724,7012301014423,新規,0,2025-06-10,2025-06-10,株式会社ＢｉｏＭｅｄ　Ａｌｌｉａｎｃｅ,,株式会社,東京都,町田市,成瀬４丁目１３－１,,13,209,1940044,,,,,,,2025-06-10,1,,,,,バイオメッドアライアンス,0
1727,7012403007176,新規,0,2025-06-10,2025-06-10,Ｗａｌｌｂｒｉｄｇｅ合同会社,,合同会社,東京都,小金井市,本町５丁目１８－９キープＬ武蔵小金井５０１,,13,210,1840004,,,,,,,2025-06-10,1,,,,,ウォールブリッジ,0
1730,7012801024021,新規,0,2025-06-10,2025-06-10,株式会社ＫＧＲ　Ｐｈａｒｍａｃｙ,,株式会社,東京都,国立市,中１丁目１番６号,,13,215,1860004,,,,,,,2025-06-10,1,,,,,ケージーアールファーマシー,0
1732,7013301054418,新規,0,2025-06-10,2025-06-10,株式会社グローバルサポート,,株式会社,東京都,豊島区,巣鴨１丁目２４番１１号ＯＰＴビル６階,,13,116,1700002,,,,,,,2025-06-10,1,,,,,グローバルサポート,0
1733,7013303007712,新規,0,2025-06-10,2025-06-10,こてら産業医事務所合同会社,,合同会社,東京都,豊島区,東池袋２丁目６２番８号ＢＩＧオフィスプラザ池袋１２０６,,13,116,1700013,,,,,,,2025-06-10,1,,,,,コテラサンギョウイジムショ,0
1740,7020001163325,新規,0,2025-06-10,2025-06-10,株式会社プラッツ,,株式会社,神奈川県,横浜市中区,野毛町１丁目４１番地２ＫＯＭＡＴＳＵビル２階,,14,104,2310064,,,,,,,2025-06-10,1,,,,,プラッツ,0
1741,7020001163341,新規,0,2025-06-10,2025-06-10,創和興株式会社,,株式会社,神奈川県,横浜市南区,東蒔田町２番地１７,,14,105,2320045,,,,,,,2025-06-10,1,,,,,ソウワコウ,0
1744,7020003028682,新規,0,2025-06-10,2025-06-10,合同会社福,,合同会社,神奈川県,川崎市宮前区,馬絹３丁目４番２号,,14,136,2160035,,,,,,,2025-06-10,1,,,,,フク,0
1751,7021001085468,新規,0,2025-06-10,2025-06-10,ファクトリックス株式会社,,株式会社,神奈川県,相模原市中央区,淵野辺本町３丁目２２番２８－４０４号,,14,152,2520202,,,,,,,2025-06-10,1,,,,,ファクトリックス,0
1755,7021003016124,新規,0,2025-06-10,2025-06-10,合同会社ＧＥＯ　ＪＡＹ　ＪＯＹ,,合同会社,神奈川県,相模原市南区,麻溝台６丁目１６番４号コーポ深沢１０３,,14,153,2520328,,,,,,,2025-06-10,1,,,,,ゲオジャイジョイ,0
1759,7030001166921,新規,0,2025-06-10,2025-06-10,ｈｏｔｃｈｐｏｔｃｈ株式会社,,株式会社,埼玉県,草加市,瀬崎３丁目１０番６号,,11,221,3400022,,,,,,,2025-06-10,1,,,,,ハッチポッチ,0
1760,7030001167003,新規,0,2025-06-10,2025-06-10,株式会社ｐｒｅｍｅ,,株式会社,埼玉県,春日部市,大枝８９番地武里団地１街区３１棟１０４号,,11,214,3440023,,,,,,,2025-06-10,1,,,,,プラム,0
1761,7030001167011,新規,0,2025-06-10,2025-06-10,株式会社北村塗装店,,株式会社,埼玉県,さいたま市桜区,大字神田４６１番地８,,11,106,3380812,,,,,,,2025-06-10,1,,,,,,0
1770,7030003026900,新規,0,2025-06-10,2025-06-10,合同会社Ｅｘ．ガーデン,,合同会社,埼玉県,春日部市,不動院野１４８４番地４９,,11,214,3440001,,,,,,,2025-06-10,1,,,,,エクステリアガーデン,0
1771,7030003026909,新規,0,2025-06-10,2025-06-10,合同会社Ｎｅｘｔ　Ｄｏｏｒ,,合同会社,埼玉県,鴻巣市,吹上富士見１丁目５番地２１,,11,217,3690121,,,,,,,2025-06-10,1,,,,,ネクストドア,0
1772,7030003026958,新規,0,2025-06-10,2025-06-10,合同会社Ｙ．Ｔ　Ｐｌａｎｎｉｎｇ,,合同会社,埼玉県,草加市,谷塚町６２８番地２エバークローネ３０２号,,11,221,3400023,,,,,,,2025-06-10,1,,,,,ワイティープランニング,0
1773,7030005022187,新規,0,2025-06-10,2025-06-10,一般社団法人アクト・コア,,その他の設立登記法人,埼玉県,狭山市,富士見１丁目２０番１８号,,11,215,3501306,,,,,,,2025-06-10,1,,,,,アクトコア,0
1778,7040001139109,新規,0,2025-06-10,2025-06-10,株式会社なか幸,,株式会社,千葉県,船橋市,高根台４丁目３２番１０号シャンブル学１０２号,,12,204,2740065,,,,,,,2025-06-10,1,,,,,ナカコウ,0
1779,7040001139125,新規,0,2025-06-10,2025-06-10,株式会社百々船,,株式会社,千葉県,旭市,イの１８５６番地１１,,12,215,2892511,,,,,,,2025-06-10,1,,,,,モモセン,0
1780,7040001139133,新規,0,2025-06-10,2025-06-10,株式会社Ｈｏｐｅ＆Ｅｎｇｉｎｅｅｒ,,株式会社,千葉県,松戸市,平賀４２番地の１２,,12,207,2700002,,,,,,,2025-06-10,1,,,,,ホープアンドエンジニア,0
1781,7040001139182,新規,0,2025-06-10,2025-06-10,株式会社ＹＡＭＡＩＣＨＩ　ＷＯＲＫＳ,,株式会社,千葉県,君津市,法木作１丁目５番地,,12,225,2991174,,,,,,,2025-06-10,1,,,,,ヤマイチワークス,0
1794,7070001043002,新規,0,2025-06-10,2025-06-10,永耀国際株式会社,,株式会社,群馬県,沼田市,横塚町１２０７－１,,10,206,3780002,,,,,,,2025-06-10,1,,,,,エイヨウコクサイ,0
1800,7080003003473,新規,0,2025-06-10,2025-06-10,合同会社ＭＡＹ,,合同会社,静岡県,静岡市葵区,常磐町３丁目３番１５－３０１号,,22,101,4200034,,,,,,,2025-06-10,1,,,,,メイ,0
1809,7090003002838,新規,0,2025-06-10,2025-06-10,合同会社ＫＡＩＬＡＳＨ,,合同会社,山梨県,甲州市,塩山下於曽１５３９－２,,19,213,4040043,,,,,,,2025-06-10,1,,,,,カイラス,0
1834,7120001276141,新規,0,2025-06-10,2025-06-10,株式会社正玉,,株式会社,大阪府,大阪市城東区,中浜３丁目２５－１５－３Ａ,,27,118,5360024,,,,,,,2025-06-10,1,,,,,セイギョク,0
1835,7120001276315,新規,0,2025-06-10,2025-06-10,株式会社Ａｃｏｅｕｒ　Ｃｒｅａｔｉｏｎｓ,,株式会社,大阪府,大阪市北区,梅田１丁目１－３大阪駅前第３ビル２９階１－１－１号室,,27,127,5300001,,,,,,,2025-06-10,1,,,,,アクールクリエイションズ,0
1836,7120001276604,新規,0,2025-06-10,2025-06-10,株式会社ＡＮＹ,,株式会社,大阪府,大阪市生野区,巽東１丁目１５番３号,00139517,27,116,5440014,,,,,,,2025-06-10,1,,,,,エニィ,0
1837,7120001276686,新規,0,2025-06-10,2025-06-10,株式会社アンドメロウ,,株式会社,大阪府,大阪市中央区,谷町２丁目５番４号エフベースラドルフ５０７号室,,27,128,5400012,,,,,,,2025-06-10,1,,,,,アンドメロウ,0
1838,7120001276752,新規,0,2025-06-10,2025-06-10,ジーエム技建株式会社,,株式会社,大阪府,門真市,下馬伏町１０－３４－７番,,27,223,5710009,,,,,,,2025-06-10,1,,,,,ジーエムギケン,0
1848,7120101071871,新規,0,2025-06-10,2025-06-10,株式会社レックスブリッジ,,株式会社,大阪府,堺市北区,金岡町３０３４―２９,,27,146,5918022,,,,,,,2025-06-10,1,,,,,レックスブリッジ,0
1849,7120903005713,新規,0,2025-06-10,2025-06-10,ＬｕｍｉＶａｎｃｅ合同会社,,合同会社,大阪府,豊中市,西緑丘１丁目３－１－１０１６,,27,203,5600005,,,,,,,2025-06-10,1,,,,,ルミヴァンス,0
1859,7130003010530,新規,0,2025-06-10,2025-06-10,合同会社ＡＲＲＯＷＺ,,合同会社,京都府,京都市伏見区,久我東町３－４ローゼンハウス３０３,,26,109,6128494,,,,,,,2025-06-10,1,,,,,アロウズ,0
1866,7140001138843,新規,0,2025-06-10,2025-06-10,株式会社ＡＰＥＸ,,株式会社,兵庫県,尼崎市,道意町２丁目２２番地,,28,202,6600083,,,,,,,2025-06-10,1,,,,,エイペックス,0
1867,7140001138892,新規,0,2025-06-10,2025-06-10,株式会社リバース,,株式会社,兵庫県,三田市,高次１丁目１番３３－７１１号,,28,219,6691512,,,,,,,2025-06-10,1,,,,,リバース,0
1869,7140003022153,新規,0,2025-06-10,2025-06-10,ＴＳ合同会社,,合同会社,兵庫県,姫路市,四郷町見野８３６番地１,,28,201,6710244,,,,,,,2025-06-10,1,,,,,ティーエス,0
1870,7140003022161,新規,0,2025-06-10,2025-06-10,デントジャーニージャパン合同会社,,合同会社,兵庫県,三田市,けやき台３丁目２６番地６,,28,219,6691321,,,,,,,2025-06-10,1,,,,,デントジャーニージャパン,0
1871,7140005027530,新規,0,2025-06-10,2025-06-10,一般社団法人未来創生協会,,その他の設立登記法人,兵庫県,神戸市中央区,港島南町１丁目５番６号神戸大学インキュベーションセンター・ＢＴセンター,,28,110,6500047,,,,,,,2025-06-10,1,,,,,ミライソウセイキョウカイ,0
1877,7180001167236,新規,0,2025-06-10,2025-06-10,株式会社笑門,,株式会社,愛知県,名古屋市守山区,大森５丁目２００５番地,,23,113,4630021,,,,,,,2025-06-10,1,,,,,ショウモン,0
1878,7180001167244,新規,0,2025-06-10,2025-06-10,Ｉ‐Ｃａｒｒｙｔｙｏ株式会社,,株式会社,愛知県,名古屋市西区,名駅２丁目３４番１７号セントラル名古屋１１０１号,,23,104,4510045,,,,,,,2025-06-10,1,,,,,アイキャリトウ,0
1881,7200001001152,新規,0,2025-06-10,2025-06-10,株式会社河商,,株式会社,岐阜県,岐阜市,芋島２丁目２番６号,,21,201,5008234,,,,,,,2025-06-10,1,,,,,カワショウ,0
1885,7200003006876,新規,0,2025-06-10,2025-06-10,合同会社ＫＴ,,合同会社,岐阜県,岐阜市,芋島３丁目３番２号１０１号室,,21,201,5008234,,,,,,,2025-06-10,1,,,,,ケイティー,0
1887,7210001020201,新規,0,2025-06-10,2025-06-10,株式会社松本工業,,株式会社,福井県,大飯郡高浜町,和田第１１７号９７番地,,18,481,9192201,,,,,,,2025-06-10,1,,,,,マツモトコウギョウ,0
1891,7230001020950,新規,0,2025-06-10,2025-06-10,ひばり会計株式会社,,株式会社,富山県,射水市,戸破１７３０番地８,,16,211,9390351,,,,,,,2025-06-10,1,,,,,ヒバリカイケイ,0
1893,7240001065061,新規,0,2025-06-10,2025-06-10,株式会社ＲｅＣＵ,,株式会社,広島県,広島市西区,庚午中１丁目１２－７リバーサイド庚午１０３号,,34,104,7330822,,,,,,,2025-06-10,1,,,,,レク,0
1902,7290001110275,新規,0,2025-06-10,2025-06-10,彩水道設備株式会社,,株式会社,福岡県,糟屋郡粕屋町,甲仲原２丁目６番２５号,,40,349,8112315,,,,,,,2025-06-10,1,,,,,アヤスイドウセツビ,0
1907,7290005019769,新規,0,2025-06-10,2025-06-10,行政書士法人オフィスわこう,,その他の設立登記法人,福岡県,八女市,稲富２１３番地１,,40,210,8340047,,,,,,,2025-06-10,1,,,,,オフィスワコウ,0
1909,7290801031613,新規,0,2025-06-10,2025-06-10,株式会社水口,,株式会社,福岡県,行橋市,西宮市５丁目２番３－８０３号,,40,213,8240031,,,,,,,2025-06-10,1,,,,,ミズグチ,0
1913,7300001014219,新規,0,2025-06-10,2025-06-10,トータルアシスト株式会社,,株式会社,佐賀県,神埼郡吉野ヶ里町,田手１９６７番地１３,,41,327,8420035,,,,,,,2025-06-10,1,,,,,トータルアシスト,0
1918,7330003011021,新規,0,2025-06-10,2025-06-10,合同会社田園,,合同会社,熊本県,熊本市北区,植木町轟１６２７番地,,43,105,8610155,,,,,,,2025-06-10,1,,,,,デンエン,0
1919,7330005010921,新規,0,2025-06-10,2025-06-10,弁護士法人上田法律事務所,,その他の設立登記法人,熊本県,熊本市北区,清水万石３丁目３番１７号,,43,105,8618068,,,,,,,2025-06-10,1,,,,,ウエダホウリツジムショ,0
1936,7370001052690,新規,0,2025-06-10,2025-06-10,株式会社Ｇｒｏｏｖｅ,,株式会社,宮城県,仙台市若林区,卸町東４丁目４番１９号,,04,103,9840002,,,,,,,2025-06-10,1,,,,,グルーヴ,0
1939,7380003006066,新規,0,2025-06-10,2025-06-10,合同会社Ｓｍｉｌｅｙ,,合同会社,福島県,いわき市,常磐西郷町岩崎９０番地の２ウィンディア２６Ｃ１０１,,07,204,9728316,,,,,,,2025-06-10,1,,,,,スマイリー,0
1941,7400005008495,新規,0,2025-06-10,2025-06-10,特定非営利活動法人一関市国際交流協会,,その他の設立登記法人,岩手県,一関市,大町４番２９号なのはなプラザ４階,,03,209,0210881,,,,,,,2025-06-10,1,,,,,イチノセキシコクサイコウリュウキョウカイ,0
1944,7410005006647,新規,0,2025-06-10,2025-06-10,農事組合法人高崎ファーム,,その他の設立登記法人,秋田県,南秋田郡五城目町,高崎字下川原８４番地,,05,361,0181711,,,,,,,2025-06-10,1,,,,,タカサキファーム,0
1953,7430003017743,新規,0,2025-06-10,2025-06-10,合同会社リモートパスカル,,合同会社,北海道,札幌市中央区,南五条西１５丁目２番３－５０３号,,01,101,0640805,,,,,,,2025-06-10,1,,,,,リモートパスカル,0
1959,7450003002669,新規,0,2025-06-10,2025-06-10,合同会社ＳＵＩ,,合同会社,北海道,旭川市,曙二条５丁目２番２号２０１,,01,204,0700062,,,,,,,2025-06-10,1,,,,,スイ,0
1960,7460103001719,新規,0,2025-06-10,2025-06-10,青木削蹄合同会社,,合同会社,北海道,帯広市,西十一条南４１丁目７番８号,,01,207,0800021,,,,,,,2025-06-10,1,,,,,アオキサクテイ,0
1965,7700150130973,新規,0,2025-06-10,2025-06-10,ＦＵＪＩＯＫＡ　ＥＮＴＥＲＰＲＩＳＥＳ,,外国会社等,群馬県,藤岡市,浄法寺４２２－１,,10,209,3701406,スリランカ民主社会主義共和国コヒレゲダラ県トラワトゥラ,,,,,,2025-06-10,1,,,,,フジオカエンタープライゼス,0
1966,7700150130998,新規,0,2025-06-10,2025-06-10,ｘｉｎｙｅｘｉａｎｊｕｎｍｉｎｇｓｈａｎｇｍａｏｙｏｕｘｉａｎｇｏｎｇｓｉ,,外国会社等,,,,,,,,Ｎｏ．１３，Ｍｉｄｄｌｅ　Ｓｅｃｔｉｏｎ　ｏｆ　Ｈａｎｃｈｅｎｇ　Ｒｏａｄ，Ｘｉｎｙｅ　Ｃｏｕｎｔｙ，Ｎａｎｙａｎｇ　Ｃｉｔｙ，Ｈｅｎａｎ　Ｐｒｏｖｉｎｃｅ,,,,,,2025-06-10,1,,,,,シンイエシエンジュインミーンシャーンマオヨウシエンゴーンスー,0
1973,8010001255667,新規,0,2025-06-10,2025-06-10,ピアアセット株式会社,,株式会社,東京都,中央区,銀座６丁目６番１号銀座風月堂ビル５Ｆ,,13,102,1040061,,,,,,,2025-06-10,1,,,,,ピアアセット,0
1974,8010001255774,新規,0,2025-06-10,2025-06-10,株式会社Ｈ　ｐｌｕｓ　ＴＨＲＥＥ,,株式会社,東京都,中央区,銀座７丁目１３番２０号銀座ＴＨビル９階,,13,102,1040061,,,,,,,2025-06-10,1,,,,,エイチプラススリー,0
1975,8010001255790,新規,0,2025-06-10,2025-06-10,株式会社セールスエスコート,,株式会社,東京都,中央区,銀座１丁目１２番４号Ｎ＆ＥＢＬＤ．７階,,13,102,1040061,,,,,,,2025-06-10,1,,,,,セールスエスコート,0
1976,8010001255857,新規,0,2025-06-10,2025-06-10,テックリブ株式会社,,株式会社,東京都,千代田区,神田神保町１丁目１０５番地,,13,101,1010051,,,,,,,2025-06-10,1,,,,,テックリブ,0
1977,8010003047583,新規,0,2025-06-10,2025-06-10,合同会社ソネット,,合同会社,東京都,千代田区,神田佐久間町１丁目１４第二東ビル３０３,,13,101,1010025,,,,,,,2025-06-10,1,,,,,ソネット,0
1979,8010005040181,新規,0,2025-06-10,2025-06-10,一ツ橋１号一般社団法人,,その他の設立登記法人,東京都,千代田区,丸の内１丁目４番１号東京共同会計事務所内,,13,101,1000005,,,,,,,2025-06-10,1,,,,,ヒトツバシイチゴウ,0
1986,8010401190943,新規,0,2025-06-10,2025-06-10,シンエナジージャパン株式会社,,株式会社,東京都,港区,西新橋３丁目１２番９－１２０１号,,13,103,1050003,,,,,,,2025-06-10,1,,,,,シンエナジージャパン,0
1987,8010403035304,新規,0,2025-06-10,2025-06-10,合同会社ケーオー,,合同会社,東京都,港区,新橋４丁目１４番１号新橋ＡＵＮＢＬＤＧ４階,,13,103,1050004,,,,,,,2025-06-10,1,,,,,ケーオー,0
1996,8010801036226,新規,0,2025-06-10,2025-06-10,株式会社ＪＡＭＣＵＢＥ,,株式会社,東京都,大田区,大森北１丁目１６番１２－１１０５号,,13,111,1430016,,,,,,,2025-06-10,1,,,,,ジャムキューブ,0
1997,8010801036250,新規,0,2025-06-10,2025-06-10,株式会社ＤｒｅａＭ　Ｍａｐ,,株式会社,東京都,大田区,西蒲田７丁目６７－２－２Ｆ,,13,111,1440051,,,,,,,2025-06-10,1,,,,,ドリームマップ,0
1998,8010901057527,新規,0,2025-06-10,2025-06-10,株式会社ヒカリヲエガク,,株式会社,東京都,世田谷区,大原１丁目５番２５号,,13,112,1560041,,,,,,,2025-06-10,1,,,,,ヒカリヲエガク,0
1999,8010901057543,新規,0,2025-06-10,2025-06-10,株式会社Ａｎｔｌｅｒ,,株式会社,東京都,世田谷区,喜多見４丁目３３番８号,,13,112,1570067,,,,,,,2025-06-10,1,,,,,アントラー,0
2005,8011001170096,新規,0,2025-06-10,2025-06-10,株式会社ＶＯＸ,,株式会社,東京都,渋谷区,恵比寿３丁目３番３号,,13,113,1500013,,,,,,,2025-06-10,1,,,,,ヴォックス,0
2006,8011001170113,新規,0,2025-06-10,2025-06-10,株式会社エネリンク,,株式会社,東京都,渋谷区,宇田川町４１番２３号,,13,113,1500042,,,,,,,2025-06-10,1,,,,,エネリンク,0
2009,8011003021768,新規,0,2025-06-10,2025-06-10,合同会社７８７,,合同会社,東京都,渋谷区,渋谷２丁目１９番１５号宮益坂ビルディング６０９,,13,113,1500002,,,,,,,2025-06-10,1,,,,,ナバナ,0
2010,8011003021883,新規,0,2025-06-10,2025-06-10,合同会社華流製作所,,合同会社,東京都,目黒区,目黒３丁目１８－８ヴァンヴェール目黒１０１,,13,110,1530063,,,,,,,2025-06-10,1,,,,,カリュウセイサクジョ,0
2012,8011101112015,新規,0,2025-06-10,2025-06-10,日本太川製薬株式会社,00139514,株式会社,東京都,新宿区,歌舞伎町２丁目２５番８号,,13,104,1600021,,,,,,,2025-06-10,1,,,,,ニホンタイセンセイヤク,0
2013,8011101112023,新規,0,2025-06-10,2025-06-10,ｉｎＵＴＡ株式会社,,株式会社,東京都,新宿区,四谷坂町１２番１２－１００２号,,13,104,1600002,,,,,,,2025-06-10,1,,,,,インウタ,0
2014,8011101112056,新規,0,2025-06-10,2025-06-10,株式会社マイクル,,株式会社,東京都,新宿区,四谷三栄町１１番２０号東礼自動車別館３階,,13,104,1600008,,,,,,,2025-06-10,1,,,,,マイクル,0
2015,8011103016008,新規,0,2025-06-10,2025-06-10,ぷわぽのん合同会社,,合同会社,東京都,新宿区,西新宿３丁目３番１３号西新宿水間ビル６階,,13,104,1600023,,,,,,,2025-06-10,1,,,,,プワポノン,0
2017,8011105011460,新規,0,2025-06-10,2025-06-10,一般社団法人徳翔会,,その他の設立登記法人,東京都,新宿区,下落合４丁目２番９号ＴＨＥＰＲＥＭＩＵＭＳＵＩＴ新宿下落合１０１,,13,104,1610033,,,,,,,2025-06-10,1,,,,,トクショウカイ,0
2024,8011503006566,新規,0,2025-06-10,2025-06-10,Ｗｏｌｆ　Ｃａｐｉｔａｌ　Ｊａｐａｎ合同会社,,合同会社,東京都,北区,西ケ原１丁目２０番７号,,13,117,1140024,,,,,,,2025-06-10,1,,,,,ウルフキャピタルジャパン,0
2025,8011503006574,新規,0,2025-06-10,2025-06-10,ＡＫＲコンサルティング合同会社,,合同会社,東京都,北区,赤羽台１丁目６番１３－８０８号,,13,117,1150053,,,,,,,2025-06-10,1,,,,,エーケーアールコンサルティング,0
2026,8011601028719,新規,0,2025-06-10,2025-06-10,株式会社ＭＧＤ,,株式会社,東京都,練馬区,石神井台３丁目２６番３－１０２号,,13,120,1770045,,,,,,,2025-06-10,1,,,,,エムジーディー,0
2034,8012801024020,新規,0,2025-06-10,2025-06-10,イマジナリア株式会社,,株式会社,東京都,国立市,東４丁目１２番地の１９,,13,215,1860002,,,,,,,2025-06-10,1,,,,,イマジナリア,0
2039,8020001163175,新規,0,2025-06-10,2025-06-10,株式会社ＲＥＩ　ＰＲＯＪＥＣＴ,,株式会社,神奈川県,横浜市南区,六ツ川１丁目２０８番地１フレックス弘明寺２０１,,14,105,2320066,,,,,,,2025-06-10,1,,,,,レイプロジェクト,0
2040,8020001163183,新規,0,2025-06-10,2025-06-10,株式会社Ｒｅｌａｔｉｏｎ　Ｆｉｅｌｄ,,株式会社,神奈川県,川崎市多摩区,三田１丁目２６番地３モアクレスト生田２０１,,14,135,2140034,,,,,,,2025-06-10,1,,,,,リレーションフィールド,0
2041,8020001163299,新規,0,2025-06-10,2025-06-10,株式会社あかさ,,株式会社,神奈川県,横浜市港北区,日吉６丁目６番８号,,14,109,2230061,,,,,,,2025-06-10,1,,,,,アカサ,0
2047,8021001085459,新規,0,2025-06-10,2025-06-10,株式会社ワールドリンク,,株式会社,神奈川県,高座郡寒川町,一之宮２丁目１０番地１６号,,14,321,2530111,,,,,,,2025-06-10,1,,,,,ワールドリンク,0
2052,8021005013382,新規,0,2025-06-10,2025-06-10,一般社団法人小田原市ラグビーフットボール協会,,その他の設立登記法人,神奈川県,小田原市,浜町２丁目１８番６号,,14,206,2500004,,,,,,,2025-06-10,1,,,,,オダワラシラグビーフットボールキョウカイ,0
2056,8030001167002,新規,0,2025-06-10,2025-06-10,株式会社ＣＨＥＣＫＭＡＮ　ＨＤ,,株式会社,埼玉県,越谷市,千間台西４丁目１４番地２０,,11,222,3430041,,,,,,,2025-06-10,1,,,,,チェックマンホールディングス,0
2057,8030001167019,新規,0,2025-06-10,2025-06-10,株式会社ＢＧシュパース,,株式会社,埼玉県,熊谷市,本石２丁目２１７番地－２Ｆ,,11,202,3600815,,,,,,,2025-06-10,1,,,,,ビージーシュパース,0
2060,8030003026940,新規,0,2025-06-10,2025-06-10,ＴＡＲＡ合同会社,,合同会社,埼玉県,春日部市,梅田本町１丁目９番２号,,11,214,3440053,,,,,,,2025-06-10,1,,,,,タラ,0
2064,8040001139041,新規,0,2025-06-10,2025-06-10,株式会社ｓｉｘｔｈ　ｓｅｎｓｅ,,株式会社,千葉県,四街道市,美しが丘３丁目２１番２号,,12,228,2840045,,,,,,,2025-06-10,1,,,,,シックスセンス,0
2065,8040001139099,新規,0,2025-06-10,2025-06-10,ＩＫＨＲ株式会社,,株式会社,千葉県,船橋市,海神町南１丁目１５４４番地９フオルトゥーナ４０５号,,12,204,2730024,,,,,,,2025-06-10,1,,,,,アイケーエイチアール,0
2066,8040001139124,新規,0,2025-06-10,2025-06-10,株式会社ビレオ,,株式会社,千葉県,柏市,東上町２番２８号第一水戸屋ビル３Ｆ,,12,217,2770011,,,,,,,2025-06-10,1,,,,,ビレオ,0
2067,8040001139132,新規,0,2025-06-10,2025-06-10,株式会社三慶工業,,株式会社,千葉県,船橋市,前貝塚町３１１番地５,,12,204,2730042,,,,,,,2025-06-10,1,,,,,ミヨシコウギョウ,0
2068,8040001139140,新規,0,2025-06-10,2025-06-10,株式会社雅,,株式会社,千葉県,白井市,河原子２６６,,12,232,2701403,,,,,,,2025-06-10,1,,,,,ミヤビ,0
2069,8040001139149,新規,0,2025-06-10,2025-06-10,株式会社ワプレイス,,株式会社,千葉県,習志野市,津田沼１丁目３番１１号昭和第三ビル６階,,12,216,2750016,,,,,,,2025-06-10,1,,,,,ワプレイス,0
2073,8040003027772,新規,0,2025-06-10,2025-06-10,合同会社デンタックス,,合同会社,千葉県,千葉市緑区,土気町１６２８番地１１,,12,105,2670061,,,,,,,2025-06-10,1,,,,,デンタックス,0
2075,8040005022796,新規,0,2025-06-10,2025-06-10,社会保険労務士法人なのはな,,その他の設立登記法人,千葉県,千葉市中央区,新千葉１丁目７番地２,,12,101,2600031,,,,,,,2025-06-10,1,,,,,ナノハナ,0
2080,8060001038282,新規,0,2025-06-10,2025-06-10,株式会社Ｔ’ｓＣｏｎｎｅｃｔ,,株式会社,栃木県,宇都宮市,西１丁目１番３３号西ハイツ４０３,,09,201,3200861,,,,,,,2025-06-10,1,,,,,ティーズコネクト,0
2082,8070003005957,新規,0,2025-06-10,2025-06-10,合同会社ｔ．ｃ．ｂｒａｎｄ,,合同会社,群馬県,高崎市,萩原町９５０－４４,,10,202,3700013,,,,,,,2025-06-10,1,,,,,ティーシーブランド,0
2094,8080401027965,新規,0,2025-06-10,2025-06-10,株式会社ｓｐａｃｅ　Ａｌｄｉ,,株式会社,静岡県,浜松市中央区,有玉台３丁目１番３６号,,22,138,4313126,,,,,,,2025-06-10,1,,,,,スペースアルディ,0
2102,8100001038682,新規,0,2025-06-10,2025-06-10,株式会社Ｆｏｒｅｔｔａ,,株式会社,長野県,茅野市,豊平１００２８番地１,,20,214,3910213,,,,,,,2025-06-10,1,,,,,フォレッタ,0
2123,8120005024982,新規,0,2025-06-10,2025-06-10,司法書士法人學国際総合法務事務所,,その他の設立登記法人,大阪府,大阪市中央区,内本町１丁目１番１０号－４階Ａ室,,27,128,5400026,,,,,,,2025-06-10,1,,,,,ガクコクサイソウゴウホウムジムショ,0
2128,8120901051015,新規,0,2025-06-10,2025-06-10,株式会社スナダ企画,,株式会社,大阪府,高槻市,山手町２丁目３番２０号,,27,207,5691103,,,,,,,2025-06-10,1,,,,,スナダキカク,0
2133,8120905006741,新規,0,2025-06-10,2025-06-10,一般社団法人ジモトでベンチャー,,その他の設立登記法人,大阪府,豊中市,庄内西町３丁目１番５号サンパティオ３階ＴｏｙｏｎａｋａＶｅｎｔｕｒｅ内,,27,203,5610832,,,,,,,2025-06-10,1,,,,,ジモトデベンチャー,0
2141,8130001079889,新規,0,2025-06-10,2025-06-10,Ｉｎ　ｏｒ　Ｉｎｔｏ　Ｈｏｌｄｉｎｇｓ株式会社,,株式会社,京都府,宇治市,伊勢田町中山１５－１８ソーム中山２０５,,26,204,6110043,,,,,,,2025-06-10,1,,,,,インオアイントゥホールディングス,0
2148,8140001138850,新規,0,2025-06-10,2025-06-10,株式会社Ａｖａｎｔ,,株式会社,兵庫県,尼崎市,西難波町１丁目２９番１７号,,28,202,6600893,,,,,,,2025-06-10,1,,,,,アヴァン,0
2161,8180001167160,新規,0,2025-06-10,2025-06-10,株式会社ウエノホールディングス,,株式会社,愛知県,名古屋市千種区,茶屋が坂１丁目１７番１１号,,23,101,4640092,,,,,,,2025-06-10,1,,,,,ウエノホールディングス,0
2162,8180001167169,新規,0,2025-06-10,2025-06-10,株式会社大樹,,株式会社,愛知県,名古屋市中川区,南脇町２丁目３６番地,,23,110,4540817,,,,,,,2025-06-10,1,,,,,タイジュ,0
2163,8180001167219,新規,0,2025-06-10,2025-06-10,株式会社サンテック,,株式会社,愛知県,名古屋市瑞穂区,井の元町５４番地,,23,108,4670057,,,,,,,2025-06-10,1,,,,,サンテック,0
2164,8180001167235,新規,0,2025-06-10,2025-06-10,株式会社ＴＡＳＡＩ,,株式会社,愛知県,名古屋市中区,栄２丁目３－１８長者町中京ビル２０２,,23,106,4600008,,,,,,,2025-06-10,1,,,,,タサイ,0
2171,8220003004051,新規,0,2025-06-10,2025-06-10,Ｐｅｎｔｅ合同会社,,合同会社,石川県,小松市,島町リ３４７,,17,203,9230303,,,,,,,2025-06-10,1,,,,,パント,0
2182,8290001110258,新規,0,2025-06-10,2025-06-10,ＫＴＳ株式会社,,株式会社,福岡県,福岡市東区,奈多１丁目１６番２５号,,40,131,8110204,,,,,,,2025-06-10,1,,,,,ケイティエス,0
2183,8290001110266,新規,0,2025-06-10,2025-06-10,株式会社高千穂サッシセンター,,株式会社,福岡県,福岡市早良区,梅林６丁目９番２３号,,40,137,8140172,,,,,,,2025-06-10,1,,,,,タカチホサッシセンター,0
2184,8290003016949,新規,0,2025-06-10,2025-06-10,おかざきアセットマネジメント合同会社,,合同会社,福岡県,福岡市博多区,博多駅前１丁目２３番２号ＰａｒｋＦｒｏｎｔ博多駅前１丁目５Ｆ－Ｂ,,40,132,8120011,,,,,,,2025-06-10,1,,,,,オカザキアセットマネジメント,0
2185,8290803005077,新規,0,2025-06-10,2025-06-10,立花合同会社,,合同会社,福岡県,北九州市小倉北区,黄金２丁目５番２７号,,40,106,8020071,,,,,,,2025-06-10,1,,,,,タチバナ,0
2193,8340001027389,新規,0,2025-06-10,2025-06-10,株式会社真興業,,株式会社,鹿児島県,奄美市,名瀬朝仁町２番地１６,,46,222,8940042,,,,,,,2025-06-10,1,,,,,シンコウギョウ,0
2201,8360001035209,新規,0,2025-06-10,2025-06-10,株式会社Ｋａｎｏａ,,株式会社,沖縄県,那覇市,久茂地２丁目１２－６ライフワーク久茂地ビル４Ｆ,,47,201,9000015,,,,,,,2025-06-10,1,,,,,カノア,0
2205,8370003007130,新規,0,2025-06-10,2025-06-10,合同会社鎌田建築装備,,合同会社,宮城県,栗原市,築館伊豆１丁目１２番４８号,,04,213,9872216,,,,,,,2025-06-10,1,,,,,カマタケンチクソウビ,0
2216,8430001094635,新規,0,2025-06-10,2025-06-10,株式会社ＭＩＪＩＣＡ,,株式会社,北海道,札幌市北区,屯田六条１０丁目７番４号,,01,102,0020856,,,,,,,2025-06-10,1,,,,,ミヂカ,0
2225,8440001009625,新規,0,2025-06-10,2025-06-10,株式会社坂下商店,,株式会社,北海道,茅部郡鹿部町,字鹿部９２番地３,,01,343,0411402,,,,,,,2025-06-10,1,,,,,サカシタショウテン,0
2227,8440003001695,新規,0,2025-06-10,2025-06-10,合同会社カサノバ,,合同会社,北海道,函館市,宇賀浦町７番７号,,01,202,0400023,,,,,,,2025-06-10,1,,,,,カサノバ,0
2239,8500001026341,新規,0,2025-06-10,2025-06-10,マノージ株式会社,,株式会社,愛媛県,松山市,西垣生町２８８６番地２,,38,201,7918044,,,,,,,2025-06-10,1,,,,,マノージ,0
2241,8700150130964,新規,0,2025-06-10,2025-06-10,Ｍａｋａｚｕ　Ｃｏ,,外国会社等,,,,,,,,６０　Ｓｔｏｎｅ　Ｒｄ，Ｈａｍｂｕｒｇ，Ｐｅｎｎｓｙｌｖａｎｉａ　１９５２６　ＵＳＡ,,,,,,2025-06-10,1,,,,,マーカスコー,0
2242,8700150130972,新規,0,2025-06-10,2025-06-10,Ｆａｃｔｏｒｙ　Ｅｎｏｖａ，ＬＬＣ,,外国会社等,,,,,,,,１９５１　Ｅ　ＷＲＩＧＨＴ　ＣＩＲ　ＡＮＡＨＥＩＭ　ＣＡ　９２８０６　ＵＳ,,,,,,2025-06-10,1,,,,,ファクトリーエノバエルエルシー,0
2243,8700150130997,新規,0,2025-06-10,2025-06-10,Ｗｉｘｚ　Ｂ．Ｖ．,,外国会社等,,,,,,,,Ｇｒｏｅｎｅｗｏｕｄ　１４ａ，５１５１　ＲＭ，Ｄｒｕｎｅｎ，ｔｈｅ　Ｎｅｔｈｅｒｌａｎｄｓ,,,,,,2025-06-10,1,,,,,ウィクス,0
2255,9010003047590,新規,0,2025-06-10,2025-06-10,ＢＩＮＵ合同会社,,合同会社,東京都,千代田区,神田平河町１番地第３東ビル,,13,101,1010027,,,,,,,2025-06-10,1,,,,,ビヌ,0
2256,9010003047624,新規,0,2025-06-10,2025-06-10,合同会社エスオーケー,,合同会社,東京都,千代田区,神田和泉町１番地６－１６ヤマトビル４０５,,13,101,1010024,,,,,,,2025-06-10,1,,,,,エスオーケー,0
2257,9010003047632,新規,0,2025-06-10,2025-06-10,合同会社いたび社,,合同会社,東京都,中央区,日本橋茅場町２丁目８番１号ＢＲＩＣＫＧＡＴＥ茅場町Ｂ１Ｆ,,13,102,1030025,,,,,,,2025-06-10,1,,,,,イタビシャ,0
2258,9010003047649,新規,0,2025-06-10,2025-06-10,合同会社ＳＧＢ００２,,合同会社,東京都,千代田区,丸の内３丁目２番２号丸の内二重橋ビル２階,,13,101,1000005,,,,,,,2025-06-10,1,,,,,エスジービーゼロゼロツー,0
2259,9010005040164,新規,0,2025-06-10,2025-06-10,税理士法人Ｔ＆Ｍ税務会計事務所,,その他の設立登記法人,東京都,中央区,銀座８丁目１７番５号,,13,102,1040061,,,,,,,2025-06-10,1,,,,,ティーアンドエムゼイムカイケイジムウショ,0
2260,9010103002594,新規,0,2025-06-10,2025-06-10,合同会社Ｓｔａｒｄｕｓｔ　Ｐｒｏｄｕｃｔｉｏｎ,,合同会社,東京都,八王子市,中野上町３丁目２３番４号ブルーハイツ２０２号室,,13,201,1920041,,,,,,,2025-06-10,1,,,,,スターダストプロダクション,0
2269,9010403035328,新規,0,2025-06-10,2025-06-10,合同会社行田,,合同会社,東京都,港区,南青山２丁目２番１５－８２５号,,13,103,1070062,,,,,,,2025-06-10,1,,,,,ギョウダ,0
2273,9010405024485,新規,0,2025-06-10,2025-06-10,福岡赤坂蓄電所一般社団法人,,その他の設立登記法人,東京都,港区,虎ノ門５丁目３番２０号株式会社アカウンティング・マネジメント・サービス内,,13,103,1050001,,,,,,,2025-06-10,1,,,,,フクオカアカサカチクデンショ,0
2276,9010601067437,新規,0,2025-06-10,2025-06-10,株式会社にじいろ商会,,株式会社,東京都,江東区,亀戸４丁目３４番５号,,13,108,1360071,,,,,,,2025-06-10,1,,,,,ニジイロショウカイ,0
2281,9010801036233,新規,0,2025-06-10,2025-06-10,りれい株式会社,,株式会社,東京都,大田区,山王１丁目３３番２６号,,13,111,1430023,,,,,,,2025-06-10,1,,,,,リレイ,0
2291,9011001170046,新規,0,2025-06-10,2025-06-10,ＴＣ株式会社,,株式会社,東京都,目黒区,目黒３丁目５番１２－３０２号ザ・レジデンス目黒,,13,110,1530063,,,,,,,2025-06-10,1,,,,,ティーシー,0
2292,9011001170186,新規,0,2025-06-10,2025-06-10,株式会社Ｎ＆Ｗパートナーズ,,株式会社,東京都,渋谷区,恵比寿西１丁目９番６号アストウルビル６階,,13,113,1500021,,,,,,,2025-06-10,1,,,,,エヌアンドダブルパートナーズ,0
2293,9011001170293,新規,0,2025-06-10,2025-06-10,株式会社ＹＯＨＳＡＧＲＡ,,株式会社,東京都,目黒区,東山３丁目１５番１４号喜久ビル５Ｆ,,13,110,1530043,,,,,,,2025-06-10,1,,,,,ヨウサグラ,0
2294,9011001170319,新規,0,2025-06-10,2025-06-10,ＡＲＩＧＡＴＯ株式会社,,株式会社,東京都,渋谷区,元代々木町３０番１３号,,13,113,1510062,,,,,,,2025-06-10,1,,,,,アリガト,0
2295,9011001170450,新規,0,2025-06-10,2025-06-10,株式会社Ｈａｔｃｈ　ＩＴ,,株式会社,東京都,渋谷区,道玄坂１丁目１７番６号プロスペクト渋谷道玄坂１３０２,,13,113,1500043,,,,,,,2025-06-10,1,,,,,ハッチアイティー,0
2297,9011003021718,新規,0,2025-06-10,2025-06-10,ハウスマネジメント合同会社,,合同会社,東京都,渋谷区,道玄坂１丁目１０番８号渋谷道玄坂東急ビル２Ｆ－Ｃ,,13,113,1500043,,,,,,,2025-06-10,1,,,,,ハウスマネジメント,0
2298,9011003021759,新規,0,2025-06-10,2025-06-10,Ａａｙａｎ　Ｊａｐａｎ合同会社,,合同会社,東京都,渋谷区,神宮前４丁目１６番１５号Ｄ’クラディア青山ラグゼス３０３,,13,113,1500001,,,,,,,2025-06-10,1,,,,,エーヤンジャパン,0
2299,9011003021791,新規,0,2025-06-10,2025-06-10,合同会社秦嶺,,合同会社,東京都,目黒区,下目黒５丁目７番６号,,13,110,1530064,,,,,,,2025-06-10,1,,,,,シンレイ,0
2300,9011003021841,新規,0,2025-06-10,2025-06-10,合同会社ＪＯＵＲＮＥＥ,,合同会社,東京都,渋谷区,千駄ヶ谷１丁目９番１１号フレンシア外苑西４１１,,13,113,1510051,,,,,,,2025-06-10,1,,,,,ジュルネ,0
2301,9011003021890,新規,0,2025-06-10,2025-06-10,合同会社Ｔｉａｍｙ,,合同会社,東京都,渋谷区,代々木２丁目１１番１２号ＫＯＡＬＡ・ＢＬＤＧ・ＳＨＩＮＪＵＫＵ６０３,,13,113,1510053,,,,,,,2025-06-10,1,,,,,ティアミー,0
2304,9011101112030,新規,0,2025-06-10,2025-06-10,株式会社ＶＢＶ,,株式会社,東京都,新宿区,下落合３丁目１７番４２号,,13,104,1610033,,,,,,,2025-06-10,1,,,,,ブイビーブイ,0
2307,9011303005593,新規,0,2025-06-10,2025-06-10,ＳＨｉＮｉＮＧ合同会社,,合同会社,東京都,杉並区,梅里１丁目２１番１７号栗田ビル１階,,13,115,1660011,,,,,,,2025-06-10,1,,,,,,0
2309,9011601028718,新規,0,2025-06-10,2025-06-10,株式会社まくろあーつ,,株式会社,東京都,練馬区,石神井台８丁目１６－２３－１０１,,13,120,1770045,,,,,,,2025-06-10,1,,,,,マクロアーツ,0
2311,9011701028411,新規,0,2025-06-10,2025-06-10,進学園教育株式会社,,株式会社,東京都,江戸川区,平井４丁目１０番８号平井シティハウス６０３,,13,123,1320035,,,,,,,2025-06-10,1,,,,,シンガクエンキョウイク,0
2313,9011801046271,新規,0,2025-06-10,2025-06-10,株式会社島村管工,,株式会社,東京都,足立区,鹿浜１丁目５番１５－１３０５号,,13,121,1230864,,,,,,,2025-06-10,1,,,,,シマムラカンコウ,0
2330,9020001163298,新規,0,2025-06-10,2025-06-10,株式会社ＢＰＫ,,株式会社,神奈川県,横浜市金沢区,幸浦２丁目２２番１４号,,14,108,2360003,,,,,,,2025-06-10,1,,,,,,0
2331,9020001163307,新規,0,2025-06-10,2025-06-10,株式会社ｂａｍｂｏｏｏｏ,,株式会社,神奈川県,横浜市金沢区,寺前１丁目１６番８号２階,,14,108,2360014,,,,,,,2025-06-10,1,,,,,バンブー,0
2334,9020003028664,新規,0,2025-06-10,2025-06-10,楽買堂合同会社,,合同会社,神奈川県,横浜市旭区,若葉台３丁目２－１２０５号,,14,112,2410801,,,,,,,2025-06-10,1,,,,,ラクバイドウ,0
2335,9020003028680,新規,0,2025-06-10,2025-06-10,合同会社ａｌｃｈｅｍｉｓｔ,,合同会社,神奈川県,横浜市西区,浅間町１丁目４番３号ウィザードビル４０２,,14,103,2200072,,,,,,,2025-06-10,1,,,,,アルケミスト,0
2336,9020003028697,新規,0,2025-06-10,2025-06-10,合同会社ＦＬＹＩＮＧ　ＳＨＥＥＰ,,合同会社,神奈川県,横浜市中区,山下町９９サンライトマンション１－９０２,,14,104,2310023,,,,,,,2025-06-10,1,,,,,フライングシープ,0
2341,9021003016130,新規,0,2025-06-10,2025-06-10,合同会社千颯会,,合同会社,神奈川県,厚木市,寿町３丁目１１番３号,,14,212,2430003,,,,,,,2025-06-10,1,,,,,チハヤカイ,0
2350,9030003026956,新規,0,2025-06-10,2025-06-10,合同会社ツナギアヱル,,合同会社,埼玉県,飯能市,大字原市場９番地３,,11,209,3570124,,,,,,,2025-06-10,1,,,,,ツナギアヱル,0
2360,9040001139115,新規,0,2025-06-10,2025-06-10,株式会社誠伸,,株式会社,千葉県,千葉市中央区,新宿２丁目７番５号ＤＣ．ＦＯＲＴ千葉中央１５０１号,,12,101,2600021,,,,,,,2025-06-10,1,,,,,セイシン,0
2361,9040001139131,新規,0,2025-06-10,2025-06-10,株式会社堀工務店,,株式会社,千葉県,柏市,新逆井２丁目１番４５号,,12,217,2770044,,,,,,,2025-06-10,1,,,,,ホリコウムテン,0
2362,9040001139156,新規,0,2025-06-10,2025-06-10,ライジング株式会社,,株式会社,千葉県,千葉市中央区,南生実町９４番地２６０フラワーハイツ２０１,,12,101,2600814,,,,,,,2025-06-10,1,,,,,ライジング,0
2366,9040003027763,新規,0,2025-06-10,2025-06-10,４８２プロダクション合同会社,,合同会社,千葉県,柏市,若柴１７８番地４柏の葉キャンパス１４８街区２ショップ＆オフィス棟ＫＯＩＬ５階,,12,217,2770871,,,,,,,2025-06-10,1,,,,,シバフプロダクション,0
2371,9060003005593,新規,0,2025-06-10,2025-06-10,ＮＥＷ　ＨＡＤＩ　ＥＮＴＥＲＰＲＩＳＥ合同会社,,合同会社,栃木県,小山市,城東７丁目１６番２６号アーバンハイツ青空２０１号室,,09,208,3230807,,,,,,,2025-06-10,1,,,,,ニューハディエンタープライズ,0
2374,9070005010401,新規,0,2025-06-10,2025-06-10,一般社団法人日本バウビオロギー研究会,,その他の設立登記法人,群馬県,前橋市,上佐鳥町４６０番地１,,10,201,3710816,,,,,,,2025-06-10,1,,,,,ニホンバウビオロギーケンキュウカイ,0
2379,9090001019320,新規,0,2025-06-10,2025-06-10,株式会社ＳＺ　ＴＲＡＤＩＮＧ,,株式会社,山梨県,笛吹市,境川町藤垈３５４１番地１０,,19,211,4060853,,,,,,,2025-06-10,1,,,,,エスゼットトレーディング,0
2398,9120001276453,新規,0,2025-06-10,2025-06-10,清水スピリッツ株式会社,,株式会社,大阪府,大阪市西区,北堀江１丁目２１－１２－１００２,,27,106,5500014,,,,,,,2025-06-10,1,,,,,シミズスピリッツ,0
2399,9120001276767,新規,0,2025-06-10,2025-06-10,吉川メディカル株式会社,,株式会社,大阪府,大阪市天王寺区,生玉町１番２７号大阪プレステージ・アコモデーション５０８号室,,27,109,5430071,,,,,,,2025-06-10,1,,,,,ヨシカワメディカル,0
2400,9120001276775,新規,0,2025-06-10,2025-06-10,株式会社ローレル,,株式会社,大阪府,大阪市西区,立売堀５丁目７番１４－５０２号,,27,106,5500012,,,,,,,2025-06-10,1,,,,,ローレル,0
2404,9120901051006,新規,0,2025-06-10,2025-06-10,株式会社ＡＭＡＴＵＢＵ　Ｒｅｃ．,,株式会社,大阪府,三島郡島本町,若山台２丁目２番２５‐５０２号,,27,301,6180024,,,,,,,2025-06-10,1,,,,,アマツブレック,0
2405,9120901051014,新規,0,2025-06-10,2025-06-10,株式会社カワカミ,,株式会社,大阪府,茨木市,島４丁目２６番１４号,,27,211,5670854,,,,,,,2025-06-10,1,,,,,カワカミ,0
2406,9120901051055,新規,0,2025-06-10,2025-06-10,株式会社カワシマリフォーム,,株式会社,大阪府,茨木市,庄１丁目２１番２２号,,27,211,5670806,,,,,,,2025-06-10,1,,,,,カワシマリフォーム,0
2414,9130001079855,新規,0,2025-06-10,2025-06-10,運浜株式会社,,株式会社,京都府,京都市右京区,太秦北路町２４番地７,,26,108,6168182,,,,,,,2025-06-10,1,,,,,ウンヒン,0
2415,9130003010520,新規,0,2025-06-10,2025-06-10,Ｐｌｕｍｅｒｉａ合同会社,,合同会社,京都府,京都市下京区,朱雀宝蔵町４４番地、協栄ビル２階、京都朱雀スタジオＡＰ－５０１,,26,106,6008846,,,,,,,2025-06-10,1,,,,,プルメリア,0
2416,9130003010537,新規,0,2025-06-10,2025-06-10,合同会社ライフケアしろくま,,合同会社,京都府,長岡京市,長岡３丁目５番１３号,,26,209,6170823,,,,,,,2025-06-10,1,,,,,ライフケアシロクマ,0
2420,9140001138825,新規,0,2025-06-10,2025-06-10,株式会社ＢＥＥＣＨ,,株式会社,兵庫県,神戸市中央区,北長狭通４丁目２－１９アムズ元町ビル４Ｆ－１１,,28,110,6500012,,,,,,,2025-06-10,1,,,,,ビーチ,0
2421,9140001138841,新規,0,2025-06-10,2025-06-10,株式会社アールテック,,株式会社,兵庫県,姫路市,京町２丁目１２番地２,,28,201,6700824,,,,,,,2025-06-10,1,,,,,アールテック,0
2422,9140003022151,新規,0,2025-06-10,2025-06-10,合同会社リリーフ,,合同会社,兵庫県,西宮市,甲東園１丁目１番６－９０５号,,28,204,6620812,,,,,,,2025-06-10,1,,,,,リリーフ,0
2423,9140003022168,新規,0,2025-06-10,2025-06-10,合同会社ＢｅＫｎｏｗｎ,,合同会社,兵庫県,神戸市西区,学園東町４丁目２７－４,,28,111,6512102,,,,,,,2025-06-10,1,,,,,ビーノーン,0
2424,9140003022176,新規,0,2025-06-10,2025-06-10,合同会社ｂｏｔｔｏ,,合同会社,兵庫県,神戸市北区,松が枝町１丁目１番地の４８－８０２号,,28,109,6511232,,,,,,,2025-06-10,1,,,,,ボット,0
2435,9180001167234,新規,0,2025-06-10,2025-06-10,株式会社リエル,,株式会社,愛知県,一宮市,萩原町串作字北方９番地１,,23,203,4910376,,,,,,,2025-06-10,1,,,,,リエル,0
2436,9180001167250,新規,0,2025-06-10,2025-06-10,株式会社ＢＲＯＨ,,株式会社,愛知県,豊明市,栄町武侍２２番地４レインボー豊明４０３号,,23,229,4701161,,,,,,,2025-06-10,1,,,,,ブロー,0
2437,9180001167267,新規,0,2025-06-10,2025-06-10,株式会社ＬＥＤＯＵＸ,,株式会社,愛知県,名古屋市南区,鶴見通１丁目６番地５,,23,112,4570807,,,,,,,2025-06-10,1,,,,,ルドゥー,0
2439,9190001032239,新規,0,2025-06-10,2025-06-10,株式会社ＥＤＤＹ　ＣＵＲＲＥＮＴ,,株式会社,三重県,鈴鹿市,江島町１４４９番地アルデンヌＡ棟１０２号室,,24,207,5100237,,,,,,,2025-06-10,1,,,,,エディーカレント,0
2456,9250003003743,新規,0,2025-06-10,2025-06-10,珊瑚カフェ合同会社,,合同会社,山口県,岩国市,中津町３丁目６番１７号,,35,208,7400027,,,,,,,2025-06-10,1,,,,,サンゴカフェ,0
2460,9290001110257,新規,0,2025-06-10,2025-06-10,株式会社セイフティージオサービス,,株式会社,福岡県,那珂川市,大字上梶原３７８番８,,40,231,8111223,,,,,,,2025-06-10,1,,,,,セイフティージオサービス,0
2461,9290001110307,新規,0,2025-06-10,2025-06-10,株式会社ＭａｒｅＰＬＵＳ,,株式会社,福岡県,大野城市,中央２丁目８番１０号－１０２,,40,219,8160942,,,,,,,2025-06-10,1,,,,,マーレプラス,0
2465,9290801031611,新規,0,2025-06-10,2025-06-10,株式会社Ｄｏｒｉｇｈｔ,,株式会社,福岡県,北九州市八幡西区,竹末１丁目１３番１９－１０２号,,40,109,8060045,,,,,,,2025-06-10,1,,,,,ドライト,0
2473,9320001021161,新規,0,2025-06-10,2025-06-10,株式会社ＳＴＡＹ　ＣＬＯＵＤ,,株式会社,大分県,別府市,駅前本町９番７号１階,,44,202,8740934,,,,,,,2025-06-10,1,,,,,ステイクラウド,0
2475,9340001027388,新規,0,2025-06-10,2025-06-10,南西開発株式会社,,株式会社,鹿児島県,奄美市,名瀬小俣町２９番２５号,,46,222,8940012,,,,,,,2025-06-10,1,,,,,ナンセイカイハツ,0
2481,9360003014936,新規,0,2025-06-10,2025-06-10,ＡＹＵＲＶＥＤＡ合同会社,,合同会社,沖縄県,沖縄市,中央１丁目１４番７号,,47,211,9040004,,,,,,,2025-06-10,1,,,,,アーユルヴェーダ,0
2485,9370005010973,新規,0,2025-06-10,2025-06-10,一般社団法人ＣＭＲ工法協会,,その他の設立登記法人,宮城県,仙台市青葉区,台原４丁目１３番１７号,,04,101,9810911,,,,,,,2025-06-10,1,,,,,シーエムアールコウホウキョウカイ,0
2491,9410003004114,新規,0,2025-06-10,2025-06-10,合同会社緑のティー,,合同会社,秋田県,秋田市,広面字近藤堰越８番地７,,05,201,0100041,,,,,,,2025-06-10,1,,,,,ミドリノティー,0
2496,9430001094642,新規,0,2025-06-10,2025-06-10,骨材工業株式会社,,株式会社,北海道,石狩郡当別町,字茂平沢４９５１番地,,01,303,0610202,,,,,,,2025-06-10,1,,,,,コツザイコウギョウ,0
2501,9430003017758,新規,0,2025-06-10,2025-06-10,合同会社ＣＲＥＡ,,合同会社,北海道,小樽市,桜３丁目１番２１６号,,01,203,0470156,,,,,,,2025-06-10,1,,,,,クレア,0
2509,9470001020751,新規,0,2025-06-10,2025-06-10,株式会社瀬戸内ＳＵＰリゾート碧,,株式会社,香川県,小豆郡小豆島町,西村甲２０２１－２,,37,324,7614434,,,,,,,2025-06-10,1,,,,,セトウチサップリゾートアオ,0
2516,9500001026340,新規,0,2025-06-10,2025-06-10,株式会社レジリエンス・パートナーズ,,株式会社,愛媛県,松山市,古三津１丁目２２番２２号,,38,201,7918067,,,,,,,2025-06-10,1,,,,,レジリエンスパートナーズ,0
2518,9700150130963,新規,0,2025-06-10,2025-06-10,Ｐｈｏｔｏｒｏｏｍ,,外国会社等,,,,,,,,２２９　Ｒｕｅ　Ｓａｉｎｔ－Ｈｏｎｏｒｅ，Ｐａｒｉｓ，Ｆｒａｎｃｅ，７５００１,,,,,,2025-06-10,1,,,,,フオトルーム,0
2519,9700150130996,新規,0,2025-06-10,2025-06-10,６６エスディー・ジャパン・エルエルシー,,外国会社等,東京都,千代田区,丸の内２丁目１番１号明治生命館７階ディーエルエイ・パイパー東京パートナーシップ外国法共同事業法律事務所内,,13,101,1000005,アメリカ合衆国デラウエア州ウィルミントン、オレンジ・ストリート１２０９、ナショナル・レジスタード・エージェント・インク内,,,,,,2025-06-10,1,,,,,シツクステイーシツクスエスデイージヤパンエルエルシー,0
