sequenceNumber,corporateNumber,process,correct,updateDate,changeDate,name,nameImageId,kind,prefectureName,cityName,streetNumber,addressImageId,prefectureCode,cityCode,postCode,addressOutside,addressOutsideImageId,closeDate,closeCause,successorCorporateNumber,changeCause,assignmentDate,latest,enName,enPrefectureName,enCityName,enAddressOutside,furigana,hihyoji
4,1010001261630,新規,0,2026-01-15,2026-01-15,株式会社ＩＫ不動産,,株式会社,東京都,千代田区,神田紺屋町２０番地遠藤ビル２階,,13,101,1010035,,,,,,,2026-01-15,1,,,,,アイケーフドウサン,0
5,1010001261688,新規,0,2026-01-15,2026-01-15,株式会社Ａｘｗｏｒｋｓ,,株式会社,東京都,中央区,日本橋室町１丁目１１番１２号日本橋水野ビル７階,,13,102,1030022,,,,,,,2026-01-15,1,,,,,アクスワークス,0
6,1010001261705,新規,0,2026-01-15,2026-01-15,ＧＲＣＥＥＤ株式会社,,株式会社,東京都,中央区,日本橋兜町１７番２号兜町第６葉山ビル４階,,13,102,1030026,,,,,,,2026-01-15,1,,,,,グリシード,0
7,1010001261795,新規,0,2026-01-15,2026-01-15,株式会社ＣＴＣ,,株式会社,東京都,中央区,日本橋兜町５－１兜町第１平和ビル３Ｆ,,13,102,1030026,,,,,,,2026-01-15,1,,,,,シーティーシー,0
10,1010003049966,新規,0,2026-01-15,2026-01-15,ラバーズホールディングス合同会社,,合同会社,東京都,中央区,銀座７丁目１３番６号サガミビル２階,,13,102,1040061,,,,,,,2026-01-15,1,,,,,ラバーズホールディングス,0
11,1010003050016,新規,0,2026-01-15,2026-01-15,合同会社ＧＭＳキャピタル,,合同会社,東京都,千代田区,丸の内１丁目６番５号,,13,101,1000005,,,,,,,2026-01-15,1,,,,,ジーエムエスキャピタル,0
14,1010005041211,新規,0,2026-01-15,2026-01-15,一般社団法人産業ケアマネ協会,,その他の設立登記法人,東京都,千代田区,丸の内１丁目１１番１号パシフィックセンチュリープレイス丸の内１３Ｆ,,13,101,1000005,,,,,,,2026-01-15,1,,,,,サンギョウケアマネキョウカイ,0
15,1010101017040,新規,0,2026-01-15,2026-01-15,株式会社Ｓｕｉ　Ｒｅａｌ　Ｅｓｔａｔｅ,,株式会社,東京都,八王子市,横川町４５８番地５,,13,201,1930823,,,,,,,2026-01-15,1,,,,,スイリアルエステート,0
20,1010401195503,新規,0,2026-01-15,2026-01-15,株式会社ＫＵＲＯＮ,,株式会社,東京都,港区,東麻布１丁目２９番１３号,,13,103,1060044,,,,,,,2026-01-15,1,,,,,クロン,0
21,1010401195577,新規,0,2026-01-15,2026-01-15,株式会社エルピーダ,,株式会社,東京都,港区,芝浦４丁目１０－１キャピタルマークタワー６１６,,13,103,1080023,,,,,,,2026-01-15,1,,,,,エルピーダ,0
22,1010401195742,新規,0,2026-01-15,2026-01-15,株式会社みなと住宅,,株式会社,東京都,港区,芝４丁目１８番３号,,13,103,1080014,,,,,,,2026-01-15,1,,,,,ミナトジュウタク,0
23,1010403037050,新規,0,2026-01-15,2026-01-15,合同会社ＲａｉｎｂｏｗＴｒｅｅ,,合同会社,東京都,港区,北青山１丁目３番１号アールキューブ青山３階,,13,103,1070061,,,,,,,2026-01-15,1,,,,,レインボーツリー,0
24,1010403037059,新規,0,2026-01-15,2026-01-15,ＥＮ００３合同会社,,合同会社,東京都,港区,西新橋３丁目５番２号,,13,103,1050003,,,,,,,2026-01-15,1,,,,,イーエヌゼロゼロスリー,0
25,1010403037067,新規,0,2026-01-15,2026-01-15,赤坂建物合同会社,,合同会社,東京都,港区,赤坂３丁目１１番１４号赤坂ベルゴ９０９,,13,103,1070052,,,,,,,2026-01-15,1,,,,,アカサカタテモノ,0
26,1010405025243,新規,0,2026-01-15,2026-01-15,ＥＮ００１一般社団法人,,その他の設立登記法人,東京都,港区,西新橋３丁目５番２号,,13,103,1050003,,,,,,,2026-01-15,1,,,,,イーエヌゼロゼロワン,0
38,1010801036934,新規,0,2026-01-15,2026-01-15,金莱雅株式会社,,株式会社,東京都,大田区,仲池上１丁目３１番１７号仲池ビル４０５室,,13,111,1460081,,,,,,,2026-01-15,1,,,,,キンライヤ,0
40,1010903010556,新規,0,2026-01-15,2026-01-15,合同会社ＹＡ,,合同会社,東京都,世田谷区,深沢２丁目１８番２３号,,13,112,1580081,,,,,,,2026-01-15,1,,,,,ワイエイ,0
45,1011001174772,新規,0,2026-01-15,2026-01-15,株式会社ＢＩＧ　ＷＥＳＴ,,株式会社,東京都,渋谷区,広尾５丁目１２－１０,,13,113,1500012,,,,,,,2026-01-15,1,,,,,ビッグウエスト,0
47,1011003023317,新規,0,2026-01-15,2026-01-15,スプリング合同会社,,合同会社,東京都,目黒区,駒場１丁目４３番８－３０３号,,13,110,1530041,,,,,,,2026-01-15,1,,,,,スプリング,0
48,1011003023341,新規,0,2026-01-15,2026-01-15,ＭＷＶワークス合同会社,,合同会社,東京都,渋谷区,道玄坂１丁目１０番８号渋谷道玄坂東急ビル２階,,13,113,1500043,,,,,,,2026-01-15,1,,,,,エムダブリューヴイワークス,0
72,1021001087230,新規,0,2026-01-15,2026-01-15,株式会社弘樹,,株式会社,神奈川県,三浦市,三崎町小網代８番地８,,14,210,2380225,,,,,,,2026-01-15,1,,,,,ヒロキ,0
82,1030001170532,新規,0,2026-01-15,2026-01-15,株式会社亀山鐵工,,株式会社,埼玉県,さいたま市岩槻区,原町９番２４号,,11,110,3390047,,,,,,,2026-01-15,1,,,,,カメヤマテッコウ,0
84,1030003028431,新規,0,2026-01-15,2026-01-15,合同会社ＳＢＣ,,合同会社,埼玉県,さいたま市中央区,鈴谷２丁目６２６－１－３０５,,11,105,3380013,,,,,,,2026-01-15,1,,,,,,0
85,1030003028456,新規,0,2026-01-15,2026-01-15,ＦＡＨＡＤ　ＴＲＡＤＩＮＧ合同会社,,合同会社,埼玉県,鴻巣市,箕田１３７４番地１エルディム加藤１０２,,11,217,3650062,,,,,,,2026-01-15,1,,,,,ファハドトレーディング,0
90,1040001142092,新規,0,2026-01-15,2026-01-15,株式会社ＴａｓｋＬｉｎｋ,,株式会社,千葉県,柏市,高柳１６７０番地７８,,12,217,2770941,,,,,,,2026-01-15,1,,,,,タスクリンク,0
97,1050001057843,新規,0,2026-01-15,2026-01-15,株式会社サン・フィオーレ,,株式会社,茨城県,日立市,弁天町１丁目３番１８号,,08,202,3170072,,,,,,,2026-01-15,1,,,,,サンフィオーレ,0
98,1050001057851,新規,0,2026-01-15,2026-01-15,株式会社Ｆｒａｇｕｍ,,株式会社,茨城県,結城市,大字上成２７番地２２,,08,207,3070045,,,,,,,2026-01-15,1,,,,,フラガム,0
99,1050003009867,新規,0,2026-01-15,2026-01-15,合同会社愛総リサイクル,,合同会社,茨城県,稲敷市,江戸崎甲４７３２番地,,08,229,3000504,,,,,,,2026-01-15,1,,,,,アイソウリサイクル,0
101,1060001038925,新規,0,2026-01-15,2026-01-15,大進テック株式会社,,株式会社,栃木県,宇都宮市,東塙田２丁目２番１８号,,09,201,3200021,,,,,,,2026-01-15,1,,,,,ダイシンテック,0
105,1080001027372,新規,0,2026-01-15,2026-01-15,株式会社いろは,,株式会社,静岡県,静岡市葵区,千代２丁目４番１号,,22,101,4211212,,,,,,,2026-01-15,1,,,,,イロハ,0
106,1080001027380,新規,0,2026-01-15,2026-01-15,株式会社ティー・ファクトリー,,株式会社,静岡県,静岡市駿河区,手越３６２番地の４,,22,102,4210102,,,,,,,2026-01-15,1,,,,,ティーファクトリー,0
110,1080401028383,新規,0,2026-01-15,2026-01-15,ＧＴＢ　Ｈｏｌｄｉｎｇｓ株式会社,,株式会社,静岡県,浜松市中央区,天龍川町３０３番地の３Ｊハイム東浜松１００７号室,,22,138,4350013,,,,,,,2026-01-15,1,,,,,ジーティービーホールディングス,0
123,1120001283358,新規,0,2026-01-15,2026-01-15,株式会社ＳＡＶＯＩＲ,,株式会社,大阪府,大阪市福島区,大開１丁目１番１２－３０４号,,27,103,5530007,,,,,,,2026-01-15,1,,,,,サヴォワール,0
124,1120001283366,新規,0,2026-01-15,2026-01-15,株式会社福ちゃん建設不動産,,株式会社,大阪府,大阪市淀川区,東三国４丁目１８番１８号,,27,123,5320002,,,,,,,2026-01-15,1,,,,,フクチャンケンセツフドウサン,0
129,1120005025327,新規,0,2026-01-15,2026-01-15,一般社団法人女性ホリスティックケア協会,,その他の設立登記法人,大阪府,大阪市北区,鶴野町３番２１号,,27,127,5300014,,,,,,,2026-01-15,1,,,,,ジョセイホリスティックケアキョウカイ,0
136,1130001081389,新規,0,2026-01-15,2026-01-15,株式会社ＳＴＫＦ,,株式会社,京都府,京都市北区,平野鳥居前町２４番地６３,,26,101,6038321,,,,,,,2026-01-15,1,,,,,エスティーケーエフ,0
137,1130001081414,新規,0,2026-01-15,2026-01-15,株式会社Ｌａｕｌｅ’ａ,,株式会社,京都府,京都市右京区,西院東今田町４４,,26,108,6150002,,,,,,,2026-01-15,1,,,,,ラウレア,0
138,1130003011014,新規,0,2026-01-15,2026-01-15,びっくりボックス合同会社,,合同会社,京都府,京都市中京区,堺町通蛸薬師下る菊屋町５１４ディアステージ堺町錦２０３,,26,104,6048127,,,,,,,2026-01-15,1,,,,,ビックリボックス,0
140,1140001141332,新規,0,2026-01-15,2026-01-15,株式会社殿脇製作所,,株式会社,兵庫県,南あわじ市,松帆櫟田２０７番地９,,28,224,6560307,,,,,,,2026-01-15,1,,,,,トノワキセイサクショ,0
145,1150001028652,新規,0,2026-01-15,2026-01-15,株式会社ｓｅｔ　ｕｐ　ｌａｂｏｒａｔｏｒｙ,,株式会社,奈良県,奈良市,東登美ヶ丘６丁目３番６４号,,29,201,6310002,,,,,,,2026-01-15,1,,,,,セットアップラボラトリー,0
146,1150001028660,新規,0,2026-01-15,2026-01-15,株式会社勇成技建,,株式会社,奈良県,橿原市,地黄町２０番地の８,,29,205,6340805,,,,,,,2026-01-15,1,,,,,ユウセイギケン,0
148,1150003003793,新規,0,2026-01-15,2026-01-15,Ｙｕｋｔ合同会社,,合同会社,奈良県,奈良市,柳町１０－１エステムコート奈良セントテラス６０１号,,29,201,6308353,,,,,,,2026-01-15,1,,,,,ユクト,0
418,1180001170253,新規,0,2026-01-15,2026-01-15,株式会社大樹,,株式会社,愛知県,名古屋市中川区,丸米町１丁目２３番地の２,,23,110,4540834,,,,,,,2026-01-15,1,,,,,タイジュ,0
419,1180001170261,新規,0,2026-01-15,2026-01-15,株式会社エモーショナルエージェント,,株式会社,愛知県,名古屋市中区,金山２丁目１３番１２号廣目屋ビル２Ｆ,,23,106,4600022,,,,,,,2026-01-15,1,,,,,エモーショナルエージェント,0
420,1180001170278,新規,0,2026-01-15,2026-01-15,株式会社Ａｓａｈｉ,,株式会社,愛知県,知多郡武豊町,大字冨貴字新薄里１２番地コリナノルテ２０３,,23,447,4702531,,,,,,,2026-01-15,1,,,,,アサヒ,0
429,1180003029605,新規,0,2026-01-15,2026-01-15,合同会社トライアンフ・タイガー,,合同会社,愛知県,名古屋市中区,栄１丁目２１番３１号,,23,106,4600008,,,,,,,2026-01-15,1,,,,,トライアンフタイガー,0
483,1180301040610,新規,0,2026-01-15,2026-01-15,株式会社ＬＵＣＥＥＤ,,株式会社,愛知県,豊田市,白山町七曲１２番地２２８,,23,211,4710056,,,,,,,2026-01-15,1,,,,,ルシード,0
497,1220003004207,新規,0,2026-01-15,2026-01-15,合同会社ＨＲＧ,,合同会社,石川県,金沢市,押野３丁目６０３番地（グランソルテ・３０２号）,,17,201,9218056,,,,,,,2026-01-15,1,,,,,,0
499,1240001066032,新規,0,2026-01-15,2026-01-15,株式会社福岡農園,,株式会社,広島県,庄原市,西城町中野字一日市５６１番地１,,34,210,7295742,,,,,,,2026-01-15,1,,,,,フクオカノウエン,0
501,1260001040902,新規,0,2026-01-15,2026-01-15,マルコースポーツファシリティ株式会社,,株式会社,岡山県,岡山市北区,平野４４５番地６,,33,101,7010151,,,,,,,2026-01-15,1,,,,,マルコースポーツファシリティ,0
505,1290001112847,新規,0,2026-01-15,2026-01-15,Ｐｅｎｔａ　Ｔｅｎｊｉｎ株式会社,,株式会社,福岡県,福岡市中央区,赤坂３丁目１３番３号ＡｋａｓａｋａＳａｎａｓ,,40,133,8100042,,,,,,,2026-01-15,1,,,,,ペンタテンジン,0
508,1290005019956,新規,0,2026-01-15,2026-01-15,一般社団法人ハコタス,,その他の設立登記法人,福岡県,古賀市,青柳町１００番１,,40,223,8113133,,,,,,,2026-01-15,1,,,,,ハコタス,0
517,1320001021516,新規,0,2026-01-15,2026-01-15,ステイリンク株式会社,,株式会社,大分県,別府市,駅前本町１番３４号,,44,202,8740934,,,,,,,2026-01-15,1,,,,,ステイリンク,0
518,1320001021540,新規,0,2026-01-15,2026-01-15,株式会社ＣＯＲＮＥＲ　ＦＡＲＭ,,株式会社,大分県,中津市,大字下宮永６８番地３,,44,203,8710029,,,,,,,2026-01-15,1,,,,,コーナーファーム,0
525,1330005011017,新規,0,2026-01-15,2026-01-15,一般社団法人熊本県日本拳法連盟,,その他の設立登記法人,熊本県,熊本市中央区,水前寺３丁目３１番１０号,,43,101,8620950,,,,,,,2026-01-15,1,,,,,クマモトケンニッポンケンポウレンメイ,0
526,1340001027899,新規,0,2026-01-15,2026-01-15,株式会社エンドレスブルー,,株式会社,鹿児島県,奄美市,名瀬入舟町２２番５号,,46,222,8940034,,,,,,,2026-01-15,1,,,,,エンドレスブルー,0
530,1350001019887,新規,0,2026-01-15,2026-01-15,Ｒｏｂｉｎｓｏｎ　Ｆａｍｉｌｙ株式会社,,株式会社,宮崎県,日南市,大字楠原１１番地１,,45,204,8892514,,,,,,,2026-01-15,1,,,,,ロビンソンファミリー,0
619,1360003015561,新規,0,2026-01-15,2026-01-15,Ａｄｖａｎｃｅ　Ｃｏｒｅホールディングス合同会社,,合同会社,沖縄県,うるま市,みどり町２丁目１３番８号２階,,47,213,9042215,,,,,,,2026-01-15,1,,,,,アドバンスコアホールディングス,0
626,1380001035808,新規,0,2026-01-15,2026-01-15,株式会社ワンネス,,株式会社,福島県,いわき市,鹿島町走熊字小和口２５番地,,07,204,9718141,,,,,,,2026-01-15,1,,,,,ワンネス,0
630,1420001019392,新規,0,2026-01-15,2026-01-15,翠穂ファーム株式会社,,株式会社,青森県,平川市,猿賀下野５番地１,,02,210,0360242,,,,,,,2026-01-15,1,,,,,スイスイ,0
634,1430001096051,新規,0,2026-01-15,2026-01-15,株式会社ＴｉＭｉ,,株式会社,北海道,札幌市豊平区,豊平四条５丁目２番１３号,,01,105,0620904,,,,,,,2026-01-15,1,,,,,ティミ,0
638,1430003018490,新規,0,2026-01-15,2026-01-15,合同会社ニューフロンテア童夢,,合同会社,北海道,伊達市,末永町９７番地１１,,01,233,0520021,,,,,,,2026-01-15,1,,,,,ニューフロンテアドウム,0
644,1450001014837,新規,0,2026-01-15,2026-01-15,株式会社タカラ工業所,,株式会社,北海道,旭川市,末広東一条３丁目７番９号,,01,204,0718121,,,,,,,2026-01-15,1,,,,,タカラコウギョウショ,0
646,1460103001773,新規,0,2026-01-15,2026-01-15,ＴＯＫＡＣＨＩ　ＦＡＮ＆ＦＵＮ　ＢＡＳＥ合同会社,,合同会社,北海道,帯広市,西四条南１丁目１－１コーラルレッド２０５,,01,207,0800014,,,,,,,2026-01-15,1,,,,,トカチファンファンベース,0
648,1470001021055,新規,0,2026-01-15,2026-01-15,株式会社オスカー,,株式会社,香川県,高松市,三谷町１７９７番地１,,37,201,7610450,,,,,,,2026-01-15,1,,,,,,0
654,1700150133949,新規,0,2026-01-15,2026-01-15,Ｎｅｗａｃｍｅ　ＬＬＣ,,外国会社等,,,,,,,,１３５１５　ｓｔｒｅａｍｓｉｄｅ　ｄｒ　ＬＡＫＥ　ＯＳＷＥＧＯ　ＯＲ　９７０３５　ＵＳ,,,,,,2026-01-15,1,,,,,ニューアクミリミテッドライアビリティカンパニー,0
661,2010001261761,新規,0,2026-01-15,2026-01-15,ＡＮＮ株式会社,,株式会社,東京都,中央区,月島３丁目１３番４号,,13,102,1040052,,,,,,,2026-01-15,1,,,,,アン,0
664,2010003049908,新規,0,2026-01-15,2026-01-15,合同会社ＫＥＲ４号,,合同会社,東京都,中央区,京橋２丁目１２番６号ＡＯＪ税理士法人内,,13,102,1040031,,,,,,,2026-01-15,1,,,,,ケーイーアールヨンゴウ,0
665,2010003049957,新規,0,2026-01-15,2026-01-15,合同会社ＫＲＦ１１８,,合同会社,東京都,千代田区,内幸町２丁目１番６号,,13,101,1000011,,,,,,,2026-01-15,1,,,,,ケイアールエフヒャクジュウハチ,0
677,2010401195725,新規,0,2026-01-15,2026-01-15,株式会社ＧＯＱＯＲＯ,,株式会社,東京都,港区,南青山２丁目４番１５号天翔南青山ビル２階Ｓ２０５号室,,13,103,1070062,,,,,,,2026-01-15,1,,,,,ゴコロ,0
678,2010401195733,新規,0,2026-01-15,2026-01-15,光和キャピタル株式会社,,株式会社,東京都,港区,三田２丁目１４番７号,,13,103,1080073,,,,,,,2026-01-15,1,,,,,コウワキャピタル,0
679,2010401195774,新規,0,2026-01-15,2026-01-15,株式会社オールラックコネクティング,,株式会社,東京都,港区,南青山２丁目２番８号,,13,103,1070062,,,,,,,2026-01-15,1,,,,,オールラックコネクティング,0
680,2010401195832,新規,0,2026-01-15,2026-01-15,株式会社ＨＩＮＤＷＩＬＬ,,株式会社,東京都,港区,南麻布１丁目１２番２－７０３号,,13,103,1060047,,,,,,,2026-01-15,1,,,,,ハインドウィル,0
682,2010403037017,新規,0,2026-01-15,2026-01-15,Ｗｏｏｄ　Ｒｉｖｅｒ開発４号合同会社,,合同会社,東京都,港区,新橋５丁目１３番５号,,13,103,1050004,,,,,,,2026-01-15,1,,,,,ウッドリバーカイハツヨンゴウ,0
683,2010403037058,新規,0,2026-01-15,2026-01-15,ＥＮ００２合同会社,,合同会社,東京都,港区,西新橋３丁目５番２号,,13,103,1050003,,,,,,,2026-01-15,1,,,,,イーエヌゼロゼロツー,0
690,2010605004541,新規,0,2026-01-15,2026-01-15,司法書士法人高柳総合事務所,,その他の設立登記法人,東京都,江東区,海辺１７番４号,,13,108,1350012,,,,,,,2026-01-15,1,,,,,タカヤナギソウゴウジムショ,0
692,2010805003236,新規,0,2026-01-15,2026-01-15,一般社団法人日本臨床作業療法学会,,その他の設立登記法人,東京都,大田区,西蒲田５丁目２３番２２号東京工科大学Ｍ２２９大野勘太研究室,,13,111,1440051,,,,,,,2026-01-15,1,,,,,ニホンリンショウサギョウリョウホウガッカイ,0
704,2011001174838,新規,0,2026-01-15,2026-01-15,株式会社ＧｅｎＣｏｎｎｅｃｔ,,株式会社,東京都,渋谷区,西原２丁目２８番１号ガーデン第２ビル４０４,,13,113,1510066,,,,,,,2026-01-15,1,,,,,ジェンコネクト,0
705,2011001174879,新規,0,2026-01-15,2026-01-15,株式会社ＷＯＬＶＳ,,株式会社,東京都,渋谷区,道玄坂１丁目１０番８号渋谷道玄坂東急ビル２Ｆ－Ｃ,,13,113,1500043,,,,,,,2026-01-15,1,,,,,ウルブス,0
706,2011001175027,新規,0,2026-01-15,2026-01-15,株式会社ＯＫＡＧＥ,,株式会社,東京都,渋谷区,本町１丁目５３番１１－６０１号,,13,113,1510071,,,,,,,2026-01-15,1,,,,,オカゲ,0
709,2011003023316,新規,0,2026-01-15,2026-01-15,合同会社シトラス,,合同会社,東京都,渋谷区,上原１丁目１４－４－３０１,,13,113,1510064,,,,,,,2026-01-15,1,,,,,シトラス,0
710,2011003023332,新規,0,2026-01-15,2026-01-15,アリックス・ステイズ合同会社,,合同会社,東京都,渋谷区,道玄坂１丁目１０番８号渋谷道玄坂東急ビル２Ｆ－Ｃ,,13,113,1500043,,,,,,,2026-01-15,1,,,,,,0
711,2011003023398,新規,0,2026-01-15,2026-01-15,ＭＯＮＥＴＡ　ＣＯＤＥ合同会社,,合同会社,東京都,目黒区,鷹番３丁目１９番５号,,13,110,1520004,,,,,,,2026-01-15,1,,,,,モネタコード,0
714,2011101114272,新規,0,2026-01-15,2026-01-15,株式会社ＡＳＯＢＩマーケティング,,株式会社,東京都,新宿区,西新宿３丁目３－１３西新宿水間ビル,,13,104,1600023,,,,,,,2026-01-15,1,,,,,アソビマーケティング,0
715,2011101114371,新規,0,2026-01-15,2026-01-15,株式会社ＡＱ,,株式会社,東京都,新宿区,西新宿３丁目３－１３西新宿水間ビル６Ｆ,,13,104,1600023,,,,,,,2026-01-15,1,,,,,エーキュー,0
720,2011301031185,新規,0,2026-01-15,2026-01-15,株式会社山口美紀不動産鑑定事務所,,株式会社,東京都,杉並区,西荻北２丁目３５－８,,13,115,1670042,,,,,,,2026-01-15,1,,,,,ヤマグチミキフドウサンカンテイジムショ,0
721,2011301031193,新規,0,2026-01-15,2026-01-15,株式会社藤,,株式会社,東京都,杉並区,高円寺南１丁目１７番１４号,,13,115,1660003,,,,,,,2026-01-15,1,,,,,フジ,0
729,2013101009907,新規,0,2026-01-15,2026-01-15,株式会社Ｒｅｖｅｌｌｏ,,株式会社,東京都,羽村市,川崎３丁目２－２０－２０１,,13,227,2050021,,,,,,,2026-01-15,1,,,,,リヴェロ,0
741,2020003030098,新規,0,2026-01-15,2026-01-15,合同会社ＰＲＡＹＥＲ,,合同会社,神奈川県,川崎市川崎区,台町２５番８‐３０２号ウイステリア弐番館,,14,131,2100814,,,,,,,2026-01-15,1,,,,,プライヤー,0
745,2021001087221,新規,0,2026-01-15,2026-01-15,株式会社小杉空調設備,,株式会社,神奈川県,伊勢原市,板戸７４７番地１－１０３,,14,214,2591145,,,,,,,2026-01-15,1,,,,,コスギクウチョウセツビ,0
751,2030001170531,新規,0,2026-01-15,2026-01-15,ＧＡＲＴ９株式会社,,株式会社,埼玉県,さいたま市西区,大字指扇３３６３番地２（１０１０）,,11,101,3310047,,,,,,,2026-01-15,1,,,,,ガルトナイン,0
752,2030001170564,新規,0,2026-01-15,2026-01-15,株式会社和信,,株式会社,埼玉県,川越市,連雀町１４番地６キャッスルマンションＤ４０４,,11,201,3500066,,,,,,,2026-01-15,1,,,,,ワシン,0
753,2030001170580,新規,0,2026-01-15,2026-01-15,株式会社ＥＮＩＷＡ,,株式会社,埼玉県,越谷市,神明町１丁目９３番地９,,11,222,3430805,,,,,,,2026-01-15,1,,,,,エニワ,0
754,2030001170606,新規,0,2026-01-15,2026-01-15,株式会社縁,,株式会社,埼玉県,草加市,金明町３５１番地６,,11,221,3400052,,,,,,,2026-01-15,1,,,,,エン,0
760,2030003028430,新規,0,2026-01-15,2026-01-15,合同会社Ｙａｔｔｅｍｉｉｉ,,合同会社,埼玉県,川越市,中台２丁目５－７３,,11,201,3501159,,,,,,,2026-01-15,1,,,,,ヤッテミー,0
761,2030003028455,新規,0,2026-01-15,2026-01-15,合同会社京匠,,合同会社,埼玉県,戸田市,大字新曽１０３８番地の４（４０６号室）,,11,224,3350021,,,,,,,2026-01-15,1,,,,,アズミ,0
762,2030003028471,新規,0,2026-01-15,2026-01-15,黒牙システム合同会社,,合同会社,埼玉県,越谷市,千間台東３丁目２９―１ランドロードＵＡ―１０５,,11,222,3430042,,,,,,,2026-01-15,1,,,,,クロキシステム,0
765,2040001142083,新規,0,2026-01-15,2026-01-15,株式会社Ｆ．ｐｌｕｓ,,株式会社,千葉県,流山市,おおたかの森南１丁目７番地の２Ｇｌｉｃｉｎａ・Ｏｔａｋａ－４０７,,12,220,2700139,,,,,,,2026-01-15,1,,,,,エフプラス,0
766,2040001142109,新規,0,2026-01-15,2026-01-15,株式会社アペリオ,,株式会社,千葉県,木更津市,八幡台５丁目２６番１号,,12,206,2920814,,,,,,,2026-01-15,1,,,,,アペリオ,0
770,2040003029279,新規,0,2026-01-15,2026-01-15,合同会社Ｎ‐ＳｔｙｌｅＬａｂｏ,,合同会社,千葉県,船橋市,本町６丁目１８－１９－４０１,,12,204,2730005,,,,,,,2026-01-15,1,,,,,エヌスタイルラボ,0
771,2040003029287,新規,0,2026-01-15,2026-01-15,合同会社アキュレート翻訳,,合同会社,千葉県,鴨川市,横渚１０４２番地６,,12,223,2960001,,,,,,,2026-01-15,1,,,,,アキュレートホンヤク,0
772,2050001057842,新規,0,2026-01-15,2026-01-15,ｕｓ‐ａｓｓｉｓｔ株式会社,,株式会社,茨城県,日立市,本宮町１丁目７番３１号,,08,202,3170054,,,,,,,2026-01-15,1,,,,,アスアシスト,0
773,2050003009858,新規,0,2026-01-15,2026-01-15,合同会社将軍旅行,,合同会社,茨城県,牛久市,東猯穴町１２６８番３号,,08,219,3001201,,,,,,,2026-01-15,1,,,,,ショウグンリョコウ,0
776,2060001038924,新規,0,2026-01-15,2026-01-15,ヤンマーファーム栃木株式会社,,株式会社,栃木県,鹿沼市,磯町２７番地４,,09,205,3220536,,,,,,,2026-01-15,1,,,,,ヤンマーファームトチギ,0
780,2060003005922,新規,0,2026-01-15,2026-01-15,Ｐａｋ　Ｌｉｎｋｓ　ｉｎｔｅｒｎａｔｉｏｎａｌ合同会社,,合同会社,栃木県,小山市,大字大行寺１１４８番地７モンパレス小山第一２号館１０２号室,,09,208,3230041,,,,,,,2026-01-15,1,,,,,パクリンクスインターナショナル,0
783,2070003006259,新規,0,2026-01-15,2026-01-15,ＭＦＣ合同会社,,合同会社,群馬県,前橋市,江田町６７番地９,,10,201,3710836,,,,,,,2026-01-15,1,,,,,エムエフシー,0
786,2080401028390,新規,0,2026-01-15,2026-01-15,株式会社ＣａｒｅＰｌｕｓ,,株式会社,静岡県,磐田市,福田３６１番地,,22,211,4371203,,,,,,,2026-01-15,1,,,,,ケアプラス,0
788,2100001039265,新規,0,2026-01-15,2026-01-15,株式会社明岳社,,株式会社,長野県,松本市,大字里山辺３９２２番地６,,20,202,3900221,,,,,,,2026-01-15,1,,,,,メイガクシャ,0
802,2120001283258,新規,0,2026-01-15,2026-01-15,株式会社Ｈ＆Ｈ,,株式会社,大阪府,大阪市福島区,鷺洲３丁目１０－５ビバーチェ鷺洲７０１,,27,103,5530002,,,,,,,2026-01-15,1,,,,,エイチアンドエイチ,0
803,2120001283290,新規,0,2026-01-15,2026-01-15,株式会社ＩＤＥＬＩＯＮ,,株式会社,大阪府,大阪市城東区,諏訪３丁目１番２６号２階,,27,118,5360021,,,,,,,2026-01-15,1,,,,,アイディリオン,0
804,2120001283316,新規,0,2026-01-15,2026-01-15,ＴＡＣＨＩＫＯＧＩ株式会社,,株式会社,大阪府,大阪市北区,梅田１丁目２番２号大阪駅前第２ビル１２－１２,,27,127,5300001,,,,,,,2026-01-15,1,,,,,タチコギ,0
805,2120001283340,新規,0,2026-01-15,2026-01-15,株式会社Ｓｔｕｎｎｉｎｇ＆Ｍ,,株式会社,大阪府,大阪市北区,梅田１丁目２番２号大阪駅前第２ビル１２－１２,,27,127,5300001,,,,,,,2026-01-15,1,,,,,スタニングアンドエム,0
806,2120001283472,新規,0,2026-01-15,2026-01-15,株式会社Ｓｕｎｒｉｓｅ,,株式会社,大阪府,大阪市北区,芝田２丁目１番１８号,,27,127,5300012,,,,,,,2026-01-15,1,,,,,サンライズ,0
812,2120003031598,新規,0,2026-01-15,2026-01-15,合同会社Ｃｌｏｕｄ９,,合同会社,大阪府,大阪市西成区,松２丁目５番１５号ティーマノワール天下茶屋１０２号室,,27,122,5570034,,,,,,,2026-01-15,1,,,,,クラウドナイン,0
813,2120003031714,新規,0,2026-01-15,2026-01-15,合同会社ＳＥＡＨＯＲＳＥ,,合同会社,大阪府,大阪市北区,芝田２丁目８‐１１‐３Ｆ,,27,127,5300012,,,,,,,2026-01-15,1,,,,,シーホース,0
816,2120903006039,新規,0,2026-01-15,2026-01-15,合同会社大地の恵み,,合同会社,大阪府,茨木市,鮎川３丁目２２番１５号,,27,211,5670831,,,,,,,2026-01-15,1,,,,,ダイチノメグミ,0
821,2130001081396,新規,0,2026-01-15,2026-01-15,三辰株式会社,,株式会社,京都府,京都市西京区,大枝東長町１番地の４５,,26,111,6101111,,,,,,,2026-01-15,1,,,,,サンタツ,0
822,2130001081405,新規,0,2026-01-15,2026-01-15,株式会社ＥＮＴＲＯＰＩＥ,,株式会社,京都府,京都市左京区,吉田下阿達町４６番地２９イノベーションハブ京都京都大学医薬系総合研究棟,,26,103,6068304,,,,,,,2026-01-15,1,,,,,エントロピー,0
823,2130001081413,新規,0,2026-01-15,2026-01-15,株式会社清風,,株式会社,京都府,京都市下京区,東塩小路町５７９－１,,26,106,6008216,,,,,,,2026-01-15,1,,,,,セイフウ,0
824,2130003011062,新規,0,2026-01-15,2026-01-15,合同会社ぼちぼち,,合同会社,京都府,相楽郡精華町,大字祝園小字榊ケ坪５３番地５,,26,366,6190241,,,,,,,2026-01-15,1,,,,,ボチボチ,0
825,2130003011079,新規,0,2026-01-15,2026-01-15,合同会社設備設計企画ＮＡＯ,,合同会社,京都府,長岡京市,開田４丁目８番１号長岡中央第一ビル２０２,,26,209,6170826,,,,,,,2026-01-15,1,,,,,セツビセッケイキカクナオ,0
829,2140003023040,新規,0,2026-01-15,2026-01-15,合同会社Ｓａｃｈｉ,,合同会社,兵庫県,尼崎市,椎堂１丁目１４番５号,,28,202,6610952,,,,,,,2026-01-15,1,,,,,サチ,0
830,2140005027774,新規,0,2026-01-15,2026-01-15,医療法人社団いたがき総合診療クリニック,,その他の設立登記法人,兵庫県,たつの市,揖西町南山２丁目１１１番地,,28,229,6794016,,,,,,,2026-01-15,1,,,,,イタガキソウゴウシンリョウクリニック,0
1113,2180001170244,新規,0,2026-01-15,2026-01-15,株式会社アイフォーツー,,株式会社,愛知県,名古屋市中川区,八熊通６丁目４９番地の１ファミリアーレ八熊通９０３号,,23,110,4540035,,,,,,,2026-01-15,1,,,,,アイフォーツー,0
1114,2180001170252,新規,0,2026-01-15,2026-01-15,株式会社かわとも,,株式会社,愛知県,長久手市,城屋敷２４１１番地,,23,238,4801122,,,,,,,2026-01-15,1,,,,,カワトモ,0
1130,2180005021385,新規,0,2026-01-15,2026-01-15,一般社団法人ヨゴスポーツ,,その他の設立登記法人,愛知県,小牧市,大字東田中６８３番地２,,23,219,4850826,,,,,,,2026-01-15,1,,,,,ヨゴスポーツ,0
1190,2180301040601,新規,0,2026-01-15,2026-01-15,Ｍｉｎｔｈ　Ｍｅｔａｌ　Ａｉｃｈｉ株式会社,,株式会社,愛知県,豊川市,穂ノ原２丁目１番地１４,,23,207,4420061,,,,,,,2026-01-15,1,,,,,ミンスメタルアイチ,0
1194,2180303006864,新規,0,2026-01-15,2026-01-15,合同会社Ｋ‐Ｇｌａｎｚ,,合同会社,愛知県,安城市,箕輪町鳥屋金１４―１０,,23,212,4460051,,,,,,,2026-01-15,1,,,,,ケーグランツ,0
1195,2180303006872,新規,0,2026-01-15,2026-01-15,ＦＩＲ合同会社,,合同会社,愛知県,豊川市,堺町１丁目１２番地,,23,207,4420836,,,,,,,2026-01-15,1,,,,,エフアイアール,0
1201,2210001020461,新規,0,2026-01-15,2026-01-15,株式会社越前くろさき,,株式会社,福井県,越前市,武生柳町９番２４号,,18,209,9150824,,,,,,,2026-01-15,1,,,,,エチゼンクロサキ,0
1204,2220003004206,新規,0,2026-01-15,2026-01-15,合同会社たま不動産,,合同会社,石川県,金沢市,西泉２丁目２番地,,17,201,9218043,,,,,,,2026-01-15,1,,,,,タマフドウサン,0
1206,2230003002563,新規,0,2026-01-15,2026-01-15,合同会社みずほちゃん,,合同会社,富山県,南砺市,嫁兼１９１番地,,16,210,9391754,,,,,,,2026-01-15,1,,,,,ミズホチャン,0
1212,2250003003881,新規,0,2026-01-15,2026-01-15,合同会社トゥルース,,合同会社,山口県,周南市,速玉町１番１１号,,35,215,7450844,,,,,,,2026-01-15,1,,,,,トゥルース,0
1215,2270005005676,新規,0,2026-01-15,2026-01-15,無限責任種原負債整理組合,,その他の設立登記法人,鳥取県,西伯郡大山町,,,31,386,6893200,,,,,,,2026-01-15,1,,,,,,0
1221,2290001112656,新規,0,2026-01-15,2026-01-15,株式会社ＯＡＳホールディングス,,株式会社,福岡県,福岡市中央区,港３丁目１番８１号,,40,133,8100075,,,,,,,2026-01-15,1,,,,,オーエーエスホールディングス,0
1222,2290001112664,新規,0,2026-01-15,2026-01-15,株式会社Ｎｏｂｌｅ　Ｉｓｌａｎｄｓ,,株式会社,福岡県,福岡市東区,西戸崎５丁目２０番５号,,40,131,8110321,,,,,,,2026-01-15,1,,,,,ノーブルアイランズ,0
1223,2290001112813,新規,0,2026-01-15,2026-01-15,株式会社渕上緑化造園,,株式会社,福岡県,久留米市,荒木町白口１８３６番地１,,40,203,8300062,,,,,,,2026-01-15,1,,,,,フチガミリョクカゾウエン,0
1226,2290003017903,新規,0,2026-01-15,2026-01-15,合同会社ＥＮ．,,合同会社,福岡県,福岡市南区,老司２丁目２７番３９号,,40,134,8111346,,,,,,,2026-01-15,1,,,,,エン,0
1227,2290005019971,新規,0,2026-01-15,2026-01-15,医療法人Ｊｏｙｅｕｘ,,その他の設立登記法人,福岡県,福岡市博多区,千代４丁目２９－４６,,40,132,8120044,,,,,,,2026-01-15,1,,,,,ジョワイユ,0
1239,2330001033922,新規,0,2026-01-15,2026-01-15,天源日本服装株式会社,,株式会社,熊本県,宇城市,三角町波多２８６４番地１１１,,43,213,8693205,,,,,,,2026-01-15,1,,,,,テンゲンニホンフクソウ,0
1318,2360001036187,新規,0,2026-01-15,2026-01-15,株式会社ＮＯＫＩ,,株式会社,沖縄県,宮古島市,平良字下里５１７番地山吉マンション２０６,,47,214,9060013,,,,,,,2026-01-15,1,,,,,ノキ,0
1319,2360001036245,新規,0,2026-01-15,2026-01-15,ネオポリタン株式会社,,株式会社,沖縄県,那覇市,牧志２丁目１７番地２７－４０１,,47,201,9000013,,,,,,,2026-01-15,1,,,,,ネオポリタン,0
1320,2360001036253,新規,0,2026-01-15,2026-01-15,株式会社日月百貨店,,株式会社,沖縄県,那覇市,高良２丁目１５番３号１０１,,47,201,9010145,,,,,,,2026-01-15,1,,,,,ニチゲツヒャッカテン,0
1321,2360001036261,新規,0,2026-01-15,2026-01-15,株式会社琉球ルミナス,,株式会社,沖縄県,那覇市,久茂地１丁目１番１号９Ｆ,,47,201,9000015,,,,,,,2026-01-15,1,,,,,リュウキュウルミナス,0
1325,2360003015544,新規,0,2026-01-15,2026-01-15,合同会社ゴヤスケ,,合同会社,沖縄県,宜野湾市,普天間１丁目３３－１８ＢＥＮアパート３０３,,47,205,9012202,,,,,,,2026-01-15,1,,,,,,0
1332,2370005011061,新規,0,2026-01-15,2026-01-15,一般社団法人香道三品大枝流,,その他の設立登記法人,宮城県,仙台市青葉区,小田原７丁目１－５－１０３,,04,101,9800003,,,,,,,2026-01-15,1,,,,,コウドウミシナオオエリュウ,0
1335,2410001014369,新規,0,2026-01-15,2026-01-15,株式会社わきあいあい,,株式会社,秋田県,秋田市,新屋北浜町１３番３５号,,05,201,0101608,,,,,,,2026-01-15,1,,,,,ワキアイアイ,0
1343,2430001096042,新規,0,2026-01-15,2026-01-15,株式会社Ｍｏｎｄｅ,,株式会社,北海道,札幌市豊平区,月寒西一条１０丁目５番２１号,,01,105,0620021,,,,,,,2026-01-15,1,,,,,モンド,0
1344,2430001096050,新規,0,2026-01-15,2026-01-15,株式会社Ｒｅｍａｉｎ,,株式会社,北海道,札幌市西区,発寒三条１丁目１０番２０号,,01,107,0630823,,,,,,,2026-01-15,1,,,,,リメイン,0
1345,2430001096067,新規,0,2026-01-15,2026-01-15,株式会社ＥＲ,,株式会社,北海道,札幌市東区,東雁来町３５３番地７２,,01,103,0070820,,,,,,,2026-01-15,1,,,,,イーアール,0
1361,2470001021054,新規,0,2026-01-15,2026-01-15,株式会社テクノクラス,,株式会社,香川県,坂出市,林田町１０９８番地１,,37,203,7620012,,,,,,,2026-01-15,1,,,,,テクノクラス,0
1362,2480003002373,新規,0,2026-01-15,2026-01-15,合同会社ｆｕｍｉ,,合同会社,徳島県,鳴門市,鳴門町土佐泊浦字黒山１１８番地８０,,36,202,7720053,,,,,,,2026-01-15,1,,,,,フミ,0
1367,2700150133948,新規,0,2026-01-15,2026-01-15,Ａｐｐｌｉｅｄ　Ｌａｃｑｕｅｒ　Ｉｎｄｕｓｔｒｉｅｓ　Ｉｎｃ,,外国会社等,,,,,,,,１６８３９　Ｇａｌｅ　Ａｖｅ，Ｃｉｔｙ　ｏｆ　Ｉｎｄｕｓｔｒｙ，ＣＡ　９１７４５,,,,,,2026-01-15,1,,,,,アプライドラツカーインダストリーズインク,0
1370,3010001261810,新規,0,2026-01-15,2026-01-15,株式会社ソラノワーク,,株式会社,東京都,中央区,銀座１丁目１２番４号Ｎ＆ＥＢＬＤ．６Ｆ,,13,102,1040061,,,,,,,2026-01-15,1,,,,,ソラノワーク,0
1371,3010001261975,新規,0,2026-01-15,2026-01-15,株式会社バロン,,株式会社,東京都,千代田区,丸の内２丁目３番２号郵船ビルディング１階,,13,101,1000005,,,,,,,2026-01-15,1,,,,,バロン,0
1373,3010003049865,新規,0,2026-01-15,2026-01-15,合同会社ほたわーるど,,合同会社,東京都,中央区,銀座１丁目１２番４号Ｎ＆ＥＢＬＤ．６Ｆ,,13,102,1040061,,,,,,,2026-01-15,1,,,,,ホタワールド,0
1374,3010003049964,新規,0,2026-01-15,2026-01-15,合同会社ＮＣＭ,,合同会社,東京都,中央区,晴海５丁目６番７－１５１４号,,13,102,1040053,,,,,,,2026-01-15,1,,,,,エヌシーエム,0
1375,3010003050006,新規,0,2026-01-15,2026-01-15,ＴＣアマテラス合同会社,,合同会社,東京都,千代田区,神田練塀町３番地,,13,101,1010022,,,,,,,2026-01-15,1,,,,,ティーシーアマテラス,0
1376,3010003050022,新規,0,2026-01-15,2026-01-15,合同会社サイプレオン,,合同会社,東京都,中央区,銀座１丁目１２番４号Ｎ＆ＥＢＬＤ．６Ｆ,,13,102,1040061,,,,,,,2026-01-15,1,,,,,サイプレオン,0
1388,3010401195468,新規,0,2026-01-15,2026-01-15,晴‐ｈａｌｅ株式会社,,株式会社,東京都,港区,赤坂２丁目１７番５０－３８０４号,,13,103,1070052,,,,,,,2026-01-15,1,,,,,ハレ,0
1389,3010401195609,新規,0,2026-01-15,2026-01-15,サントリースポーツ株式会社,,株式会社,東京都,港区,台場２丁目３番３号,,13,103,1350091,,,,,,,2026-01-15,1,,,,,サントリースポーツ,0
1390,3010401195773,新規,0,2026-01-15,2026-01-15,株式会社ＢＥＳＩＤＥ　ＰＡＲＴＮＥＲＳ,,株式会社,東京都,港区,芝３丁目２－１８ＩＣＯＮＰＬＡＣＥＳＨＩＢＡＫＯＥＮ１－２５,,13,103,1050014,,,,,,,2026-01-15,1,,,,,ビサイドパートナーズ,0
1391,3010401195815,新規,0,2026-01-15,2026-01-15,株式会社くゆ,,株式会社,東京都,港区,高輪３丁目１４番２８－２０２号,,13,103,1080074,,,,,,,2026-01-15,1,,,,,クユ,0
1392,3010401195872,新規,0,2026-01-15,2026-01-15,シンフォサイト株式会社,,株式会社,東京都,港区,南青山２丁目２番１５号ウィン青山９４２,,13,103,1070062,,,,,,,2026-01-15,1,,,,,シンフォサイト,0
1395,3010403037040,新規,0,2026-01-15,2026-01-15,合同会社パワーホーンズ,,合同会社,東京都,港区,北青山１丁目３番１号アールキューブ青山３階,,13,103,1070061,,,,,,,2026-01-15,1,,,,,パワーホーンズ,0
1396,3010403037057,新規,0,2026-01-15,2026-01-15,ＥＮ００１合同会社,,合同会社,東京都,港区,西新橋３丁目５番２号,,13,103,1050003,,,,,,,2026-01-15,1,,,,,イーエヌゼロゼロワン,0
1397,3010403037065,新規,0,2026-01-15,2026-01-15,ＨＡＣＨＩ　Ｈｏｌｄｉｎｇｓ合同会社,,合同会社,東京都,港区,虎ノ門１丁目１６番６号虎ノ門ＲａｐｐｏｒｔビルＵＣＦ７Ｆ,,13,103,1050001,,,,,,,2026-01-15,1,,,,,ハチホールディングス,0
1398,3010405025241,新規,0,2026-01-15,2026-01-15,アンカーリンク社会保険労務士法人,,その他の設立登記法人,東京都,港区,海岸１丁目７番１号,,13,103,1050022,,,,,,,2026-01-15,1,,,,,アンカーリンク,0
1405,3010603011976,新規,0,2026-01-15,2026-01-15,合同会社パピヨン,,合同会社,東京都,墨田区,錦糸４丁目９－１０メゾンサンレミィ１０２,,13,107,1300013,,,,,,,2026-01-15,1,,,,,パピヨン,0
1408,3010801036973,新規,0,2026-01-15,2026-01-15,アルファ・ガバナンス株式会社,,株式会社,東京都,大田区,南千束１丁目２４番２０号,,13,111,1450063,,,,,,,2026-01-15,1,,,,,アルファガバナンス,0
1409,3010803005679,新規,0,2026-01-15,2026-01-15,ワタナベユタカ合同会社,,合同会社,東京都,大田区,池上５丁目１９番７号,,13,111,1460082,,,,,,,2026-01-15,1,,,,,ワタナベユタカ,0
1411,3010901058793,新規,0,2026-01-15,2026-01-15,産業ケアマネ協会パートナーズ株式会社,,株式会社,東京都,世田谷区,深沢１丁目３１番１１号,,13,112,1580081,,,,,,,2026-01-15,1,,,,,サンギョウケアマネキョウカイパートナーズ,0
1415,3011001174738,新規,0,2026-01-15,2026-01-15,株式会社Ｏｃｌｘ,,株式会社,東京都,渋谷区,初台１丁目２番５－５０１号,,13,113,1510061,,,,,,,2026-01-15,1,,,,,オクジャガー,0
1416,3011001174746,新規,0,2026-01-15,2026-01-15,株式会社ＮＫ,,株式会社,東京都,渋谷区,恵比寿西２丁目８－４－５Ｆ,,13,113,1500021,,,,,,,2026-01-15,1,,,,,エヌケー,0
1421,3011003023199,新規,0,2026-01-15,2026-01-15,合同会社ＤＢ　ＬＡＢＯ,,合同会社,東京都,渋谷区,神南１丁目１１‐４ＦＰＧリンクス神南５階,,13,113,1500041,,,,,,,2026-01-15,1,,,,,ディービーラボ,0
1422,3011005011318,新規,0,2026-01-15,2026-01-15,一般社団法人ＫＤＰ,,その他の設立登記法人,東京都,渋谷区,広尾１丁目３－１７オーツービルディング７階,,13,113,1500012,,,,,,,2026-01-15,1,,,,,ケーディーピー,0
1423,3011005011342,新規,0,2026-01-15,2026-01-15,一般社団法人ＳＨＣ加西,,その他の設立登記法人,東京都,目黒区,洗足２丁目１６番１９号,,13,110,1520012,,,,,,,2026-01-15,1,,,,,エスエイチシーカサイ,0
1441,3012301014674,新規,0,2026-01-15,2026-01-15,株式会社トラスト・ブリッジ・アドバイザーズ,,株式会社,東京都,町田市,高ヶ坂６丁目２７番３５号,,13,209,1940014,,,,,,,2026-01-15,1,,,,,トラストブリッジアドバイザーズ,0
1442,3012401043978,新規,0,2026-01-15,2026-01-15,株式会社Ｍｉｓｆｉｔｔ,,株式会社,東京都,武蔵野市,吉祥寺東町３丁目１番７号,,13,203,1800002,,,,,,,2026-01-15,1,,,,,ミスフィット,0
1445,3012801024462,新規,0,2026-01-15,2026-01-15,株式会社ＳＨＡ‐ＹＡ,,株式会社,東京都,国立市,西２丁目２３番地の４７,,13,215,1860005,,,,,,,2026-01-15,1,,,,,シャヤ,0
1447,3013301055601,新規,0,2026-01-15,2026-01-15,株式会社ＡＰＩ,,株式会社,東京都,豊島区,巣鴨５丁目１６番９－８０２号,,13,116,1700002,,,,,,,2026-01-15,1,,,,,エーピーアイ,0
1452,3020003030106,新規,0,2026-01-15,2026-01-15,ＪＵＮＯ　Ｐａｒｔｎｅｒｓ合同会社,,合同会社,神奈川県,横浜市港北区,箕輪町２丁目７番６０－１５１６号,,14,109,2230051,,,,,,,2026-01-15,1,,,,,ジュノパートナーズ,0
1453,3020003030163,新規,0,2026-01-15,2026-01-15,合同会社ｉ‐ｍａｇｉｃ,,合同会社,神奈川県,横浜市西区,浅間町１丁目４番３号ウィザードビル４０２,,14,103,2200072,,,,,,,2026-01-15,1,,,,,アイマジック,0
1456,3021001087237,新規,0,2026-01-15,2026-01-15,Ｃｒｉａｓ　ｖｉｅｗ株式会社,,株式会社,神奈川県,鎌倉市,材木座４丁目１３番７号,,14,204,2480013,,,,,,,2026-01-15,1,,,,,クリアスビュー,0
1458,3021003016961,新規,0,2026-01-15,2026-01-15,ＲＪＴ合同会社,,合同会社,神奈川県,藤沢市,円行１８９３番地の１ブランズシティ湘南台７０１号室,,14,205,2520805,,,,,,,2026-01-15,1,,,,,アールジェイティ,0
1459,3021003016994,新規,0,2026-01-15,2026-01-15,アツトモ合同会社,,合同会社,神奈川県,茅ヶ崎市,東海岸南１丁目２２番３－３０６号,,14,207,2530054,,,,,,,2026-01-15,1,,,,,アツトモ,0
1466,3030001170530,新規,0,2026-01-15,2026-01-15,栄誉株式会社,,株式会社,埼玉県,幸手市,大字内国府間１３２番地４,,11,240,3400103,,,,,,,2026-01-15,1,,,,,エイヨ,0
1467,3030001170563,新規,0,2026-01-15,2026-01-15,株式会社ＤＳ‐ＰＲＯ,,株式会社,埼玉県,越谷市,神明町２丁目３０７番地１プティトゥルス２０１,,11,222,3430805,,,,,,,2026-01-15,1,,,,,ディーエスプロ,0
1468,3030003028446,新規,0,2026-01-15,2026-01-15,ＰｉｃｋＴａｌｅ合同会社,,合同会社,埼玉県,志木市,中宗岡２丁目２９－１,,11,228,3530002,,,,,,,2026-01-15,1,,,,,ピックテイル,0
1476,3040001141803,新規,0,2026-01-15,2026-01-15,ＴＯＹＯＴＯＭＩ　ＩＮＴＥＲＮＡＴＩＯＮＡＬ株式会社,,株式会社,千葉県,八千代市,神野１０７６番地４５,,12,221,2760016,,,,,,,2026-01-15,1,,,,,トヨトミインターナショナル,0
1477,3040001142074,新規,0,2026-01-15,2026-01-15,ミナトワークス株式会社,,株式会社,千葉県,流山市,木１丁目４０番地の１,,12,220,2700162,,,,,,,2026-01-15,1,,,,,ミナトワークス,0
1478,3040001142116,新規,0,2026-01-15,2026-01-15,株式会社類はトモをよぶ,,株式会社,千葉県,我孫子市,並木７丁目１番９号,,12,222,2701165,,,,,,,2026-01-15,1,,,,,ルイハトモヲヨブ,0
1484,3040003029286,新規,0,2026-01-15,2026-01-15,合同会社ヒルデブランド商会,,合同会社,千葉県,木更津市,真舟１丁目１２番４号,,12,206,2920802,,,,,,,2026-01-15,1,,,,,ヒルデブランドショウカイ,0
1485,3040003029303,新規,0,2026-01-15,2026-01-15,動静生物合同会社,,合同会社,千葉県,南房総市,千倉町瀬戸１２６３番地５,,12,234,2950004,,,,,,,2026-01-15,1,,,,,ドウセイセイブツ,0
1486,3040003029311,新規,0,2026-01-15,2026-01-15,合同会社ザクセス,,合同会社,千葉県,野田市,日の出町３２－７,,12,208,2700234,,,,,,,2026-01-15,1,,,,,ザクセス,0
1487,3050001057841,新規,0,2026-01-15,2026-01-15,株式会社ｏｔｏ．,,株式会社,茨城県,水戸市,石川１丁目３７８７番地の５,,08,201,3100905,,,,,,,2026-01-15,1,,,,,オト,0
1488,3050001057858,新規,0,2026-01-15,2026-01-15,株式会社らすかる,,株式会社,茨城県,取手市,新取手３丁目２０番１０号,,08,217,3020031,,,,,,,2026-01-15,1,,,,,ラスカル,0
1502,3090003002957,新規,0,2026-01-15,2026-01-15,合同会社小さき者,,合同会社,山梨県,大月市,猿橋町藤崎７０８番,,19,206,4090612,,,,,,,2026-01-15,1,,,,,チイサキモノ,0
1514,3120001283356,新規,0,2026-01-15,2026-01-15,福栄ホールディングス株式会社,,株式会社,大阪府,大阪市中央区,道修町３丁目６番１号,,27,128,5410045,,,,,,,2026-01-15,1,,,,,フクエイホールディングス,0
1515,3120001283364,新規,0,2026-01-15,2026-01-15,株式会社フタノバ,,株式会社,大阪府,大阪市北区,本庄西１丁目１番７－３４０２号,,27,127,5310073,,,,,,,2026-01-15,1,,,,,フタノバ,0
1516,3120001283414,新規,0,2026-01-15,2026-01-15,株式会社Ｃｏｃｏｗａ,,株式会社,大阪府,大阪市北区,梅田１丁目２番２号大阪駅前第２ビル１２－１２,,27,127,5300001,,,,,,,2026-01-15,1,,,,,ココワ,0
1521,3120003031671,新規,0,2026-01-15,2026-01-15,合同会社ＳＩＮＳＥＩ,,合同会社,大阪府,大阪市浪速区,下寺３丁目６番７号３０１号,,27,111,5560001,,,,,,,2026-01-15,1,,,,,シンセイ,0
1531,3122001040076,新規,0,2026-01-15,2026-01-15,株式会社よいこのおみせ,,株式会社,大阪府,東大阪市,西堤本通東２丁目７番２４号,,27,227,5770045,,,,,,,2026-01-15,1,,,,,ヨイコノオミセ,0
1538,3130001081412,新規,0,2026-01-15,2026-01-15,株式会社奏音楽事務所,,株式会社,京都府,京都市下京区,西七条西久保町３６,,26,106,6008874,,,,,,,2026-01-15,1,,,,,カナデオンガクジムショ,0
1543,3140001141330,新規,0,2026-01-15,2026-01-15,株式会社高橋不動産,,株式会社,兵庫県,姫路市,五軒邸２丁目３２番地,,28,201,6700854,,,,,,,2026-01-15,1,,,,,タカハシフドウサン,0
1544,3140005027773,新規,0,2026-01-15,2026-01-15,医療法人にのみや歯科医院,,その他の設立登記法人,兵庫県,神戸市中央区,二宮町３丁目５番１５号アーバンライフ藤田１Ｆ,,28,110,6510093,,,,,,,2026-01-15,1,,,,,ニノミヤシカイイン,0
1546,3150001028659,新規,0,2026-01-15,2026-01-15,株式会社竹村電気,,株式会社,奈良県,香芝市,磯壁１丁目９７９番地６,,29,210,6390236,,,,,,,2026-01-15,1,,,,,タケムラデンキ,0
1547,3150003003800,新規,0,2026-01-15,2026-01-15,ＺＯＯ　ＦＡＣＴＯＲＹ合同会社,,合同会社,奈良県,奈良市,右京４丁目１４－１６,,29,201,6310805,,,,,,,2026-01-15,1,,,,,ズーファクトリー,0
1549,3160001027354,新規,0,2026-01-15,2026-01-15,近江土地イノベーションサービス株式会社,,株式会社,滋賀県,近江八幡市,倉橋部町１４６番地５（２Ｆ）,,25,204,5230023,,,,,,,2026-01-15,1,,,,,オウミトチイノベーションサービス,0
1551,3170003002370,新規,0,2026-01-15,2026-01-15,合同会社アセット・マネジメント・イノベーション,,合同会社,和歌山県,和歌山市,栄谷２３０番地５,,30,201,6408441,,,,,,,2026-01-15,1,,,,,アセットマネジメントイノベーション,0
1850,3180001170243,新規,0,2026-01-15,2026-01-15,株式会社ファイブステップ,,株式会社,愛知県,名古屋市名東区,藤見が丘２番地藤が丘Ｋ’Ｓビル１階,,23,115,4650048,,,,,,,2026-01-15,1,,,,,ファイブステップ,0
1851,3180001170251,新規,0,2026-01-15,2026-01-15,株式会社フィッツ,,株式会社,愛知県,名古屋市港区,港栄２丁目７番８号,,23,111,4550015,,,,,,,2026-01-15,1,,,,,フィッツ,0
1852,3180001170268,新規,0,2026-01-15,2026-01-15,株式会社Ｇ‐Ｌａｎｄ,,株式会社,愛知県,名古屋市中村区,鳥居通５丁目３５番地ディアレイシャス名古屋中村公園ＩＩ６０３号,00142183,23,105,4530044,,,,,,,2026-01-15,1,,,,,ジーランド,0
1853,3180001170284,新規,0,2026-01-15,2026-01-15,株式会社ＬＯＮ,,株式会社,愛知県,あま市,西今宿平割四３４番地２,,23,237,4901104,,,,,,,2026-01-15,1,,,,,ロン,0
1911,3180301040600,新規,0,2026-01-15,2026-01-15,株式会社Ｍａｉｔｙ,,株式会社,愛知県,岡崎市,森越町字郷前１７森越町のおうちＡ,,23,202,4440901,,,,,,,2026-01-15,1,,,,,マイティ,0
1921,3210001020452,新規,0,2026-01-15,2026-01-15,株式会社ｔｏｋａ,,株式会社,福井県,福井市,門前２丁目６１４番地,,18,201,9188021,,,,,,,2026-01-15,1,,,,,トカ,0
1922,3220001027125,新規,0,2026-01-15,2026-01-15,オリエンタルＧＢ株式会社,,株式会社,石川県,白山市,宮永市町４８５番地,,17,210,9240016,,,,,,,2026-01-15,1,,,,,オリエンタルジービー,0
1926,3240003007560,新規,0,2026-01-15,2026-01-15,合同会社もなまめ,,合同会社,広島県,福山市,日吉台３丁目１８番１号,,34,207,7210972,,,,,,,2026-01-15,1,,,,,モナマメ,0
1928,3250003003880,新規,0,2026-01-15,2026-01-15,ＶＥＲＴＥＸ　ＧＬＯＢＡＬ合同会社,,合同会社,山口県,下関市,一の宮町１丁目６番１６号サンシティ一の宮Ｄ棟２０２号,,35,201,7510806,,,,,,,2026-01-15,1,,,,,バーテックスグローバル,0
1934,3270003001833,新規,0,2026-01-15,2026-01-15,シーサイドパートナーズ合同会社,,合同会社,鳥取県,境港市,昭和町９番地７,,31,204,6840034,,,,,,,2026-01-15,1,,,,,シーサイドパートナーズ,0
1939,3290001112770,新規,0,2026-01-15,2026-01-15,株式会社ネクストライフソリューションズ,,株式会社,福岡県,福岡市南区,寺塚２丁目２８番地１号シャンビ寺塚１０３号,,40,134,8150074,,,,,,,2026-01-15,1,,,,,ネクストライフソリューションズ,0
1945,3320001021530,新規,0,2026-01-15,2026-01-15,株式会社パインヒルズ,,株式会社,大分県,大分市,大字松岡３８９５番地１,,44,201,8700125,,,,,,,2026-01-15,1,,,,,パインヒルズ,0
1950,3330001033913,新規,0,2026-01-15,2026-01-15,株式会社北開林業,,株式会社,熊本県,阿蘇市,一の宮町北坂梨７５６番地,,43,214,8692603,,,,,,,2026-01-15,1,,,,,ホッカイリンギョウ,0
1953,3340001027897,新規,0,2026-01-15,2026-01-15,株式会社和栄丸水産,,株式会社,鹿児島県,出水郡長島町,浦底６６３番地１,,46,404,8991402,,,,,,,2026-01-15,1,,,,,カズエイマルスイサン,0
1954,3340003005067,新規,0,2026-01-15,2026-01-15,合同会社マーノプラス,,合同会社,鹿児島県,曽於市,末吉町上町３丁目１０番地６,,46,217,8998609,,,,,,,2026-01-15,1,,,,,マーノプラス,0
2014,3360001036252,新規,0,2026-01-15,2026-01-15,株式会社Ｌｉｎｏ沖縄,,株式会社,沖縄県,沖縄市,越来３丁目１２番２１号,,47,211,9040001,,,,,,,2026-01-15,1,,,,,リノオキナワ,0
2023,3360003015543,新規,0,2026-01-15,2026-01-15,合同会社ＳＡＲＡＳＡカンパニー,,合同会社,沖縄県,浦添市,勢理客１丁目２０番１９号,,47,208,9012122,,,,,,,2026-01-15,1,,,,,サラサカンパニー,0
2028,3370001053395,新規,0,2026-01-15,2026-01-15,株式会社ＳＰＣＴＥＣ,,株式会社,宮城県,仙台市若林区,古城３丁目８番２６－１０１号,,04,103,9840825,,,,,,,2026-01-15,1,,,,,エスピーシーテック,0
2029,3370001053404,新規,0,2026-01-15,2026-01-15,株式会社ｇｅｎｅｓｉｓ　ｌｉｆｅ,,株式会社,宮城県,仙台市泉区,泉中央３丁目８－５泉中央ＳＴビル４０２号,,04,105,9813133,,,,,,,2026-01-15,1,,,,,ジェネシスライフ,0
2034,3380001035806,新規,0,2026-01-15,2026-01-15,株式会社シシル,,株式会社,福島県,郡山市,清水台２丁目７番７号サーパス清水台１１０２号,,07,203,9638005,,,,,,,2026-01-15,1,,,,,シシル,0
2035,3380001035814,新規,0,2026-01-15,2026-01-15,會パブリッシュ株式会社,,株式会社,福島県,会津若松市,真宮新町南２丁目１０番地の２,,07,202,9650103,,,,,,,2026-01-15,1,,,,,アイパブリッシュ,0
2037,3380005013056,新規,0,2026-01-15,2026-01-15,一般社団法人玉川村観光物産協会,,その他の設立登記法人,福島県,石川郡玉川村,大字竜崎字滝山１２番地の２６,,07,502,9636316,,,,,,,2026-01-15,1,,,,,タマカワムラカンコウブッサンキョウカイ,0
2038,3410001014368,新規,0,2026-01-15,2026-01-15,株式会社村政,,株式会社,秋田県,由利本荘市,神沢字辰巳ノ沢２０番地１,,05,210,0150033,,,,,,,2026-01-15,1,,,,,ムラマサ,0
2039,3410003004202,新規,0,2026-01-15,2026-01-15,合同会社田村,,合同会社,秋田県,秋田市,新屋田尻沢中町６番２８号,,05,201,0101644,,,,,,,2026-01-15,1,,,,,,0
2040,3420003003228,新規,0,2026-01-15,2026-01-15,Ａｏｍｏｒｉ　Ｗｈｉｔｅ　Ｈａｒｖｅｓｔ合同会社,,合同会社,青森県,上北郡東北町,大字上野字山添３２番地２,,02,408,0392401,,,,,,,2026-01-15,1,,,,,アオモリホワイトハーベスト,0
2044,3430001096058,新規,0,2026-01-15,2026-01-15,ニチメンライフパートナーズ株式会社,,株式会社,北海道,札幌市北区,東茨戸一条１丁目８番５号,,01,102,0028041,,,,,,,2026-01-15,1,,,,,ニチメンライフパートナーズ,0
2045,3430003018497,新規,0,2026-01-15,2026-01-15,合同会社きびと,,合同会社,北海道,札幌市東区,北二十三条東２０丁目２番１３号ＶＡＬＮＴＩＡ２３,,01,103,0650023,,,,,,,2026-01-15,1,,,,,キビト,0
2055,3440003001741,新規,0,2026-01-15,2026-01-15,フュージョンエンタープライズ合同会社,,合同会社,北海道,函館市,富岡町３丁目２２番３号,,01,202,0410811,,,,,,,2026-01-15,1,,,,,フュージョンエンタープライズ,0
2057,3500001026718,新規,0,2026-01-15,2026-01-15,株式会社幸和電気,,株式会社,愛媛県,西条市,福武甲１５７８番地５,,38,206,7930035,,,,,,,2026-01-15,1,,,,,コウワデンキ,0
2064,4010001261776,新規,0,2026-01-15,2026-01-15,山佐ネクストＮＫＬＭ２リース株式会社,,株式会社,東京都,千代田区,丸の内１丁目４番１号東京共同会計事務所内,,13,101,1000005,,,,,,,2026-01-15,1,,,,,ヤマサネクストエヌケイエルエムツーリース,0
2067,4010005041217,新規,0,2026-01-15,2026-01-15,一般社団法人キュアラボ,,その他の設立登記法人,東京都,中央区,日本橋横山町１番３０号ＫＫ日本橋ビル２Ｆ,,13,102,1030003,,,,,,,2026-01-15,1,,,,,キュアラボ,0
2076,4010401195764,新規,0,2026-01-15,2026-01-15,株式会社Ｆｏｕｒｃｅ,,株式会社,東京都,港区,麻布十番２丁目５番９号－３０３,,13,103,1060045,,,,,,,2026-01-15,1,,,,,フォース,0
2077,4010401195814,新規,0,2026-01-15,2026-01-15,株式会社Ｐｅａｋ　Ｓｈｏｒｅ,,株式会社,東京都,港区,北青山１丁目３番１号アールキューブ青山３Ｆ,,13,103,1070061,,,,,,,2026-01-15,1,,,,,ピークショア,0
2088,4010701048878,新規,0,2026-01-15,2026-01-15,株式会社Ｍｅｔａ　Ｍｏｔｉｏｎ,,株式会社,東京都,品川区,北品川５丁目３番１号,,13,109,1410001,,,,,,,2026-01-15,1,,,,,メタモーション,0
2091,4010901058792,新規,0,2026-01-15,2026-01-15,ｏｍｏｃｈｉｉｉ株式会社,,株式会社,東京都,世田谷区,太子堂４丁目１８番１５号マガザン三軒茶屋２－３Ｆ－３,,13,112,1540004,,,,,,,2026-01-15,1,,,,,オモチー,0
2097,4011001174753,新規,0,2026-01-15,2026-01-15,ＴＨＥ　ＶＩＮＴＡＧＥ株式会社,,株式会社,東京都,渋谷区,神南１丁目１１－４ＦＰＧリンクス神南５階,,13,113,1500041,,,,,,,2026-01-15,1,,,,,ザビンテージ,0
2098,4011001174828,新規,0,2026-01-15,2026-01-15,株式会社ｔｒａｉｎｉｎｇ　ＢＯＸＸ,,株式会社,東京都,渋谷区,恵比寿西１丁目３０番１４号,,13,113,1500021,,,,,,,2026-01-15,1,,,,,トレーニングボックス,0
2099,4011003023280,新規,0,2026-01-15,2026-01-15,Ｓｔａｇｅ　Ｘ合同会社,,合同会社,東京都,渋谷区,道玄坂１丁目１０番８号渋谷道玄坂東急ビル２Ｆ－Ｃ,,13,113,1500043,,,,,,,2026-01-15,1,,,,,ステージエックス,0
2108,4011401027726,新規,0,2026-01-15,2026-01-15,株式会社大川塗装,,株式会社,東京都,板橋区,赤塚１丁目２７番２号,,13,119,1750092,,,,,,,2026-01-15,1,,,,,オオカワトソウ,0
2113,4011801047299,新規,0,2026-01-15,2026-01-15,株式会社ＳＥＩＥＩ,,株式会社,東京都,足立区,扇１丁目１９番２７号,,13,121,1230873,,,,,,,2026-01-15,1,,,,,セイエイ,0
2116,4011803007268,新規,0,2026-01-15,2026-01-15,合同会社あーるあい,,合同会社,東京都,足立区,東保木間２丁目６番２号,,13,121,1210063,,,,,,,2026-01-15,1,,,,,アールアイ,0
2117,4012401043977,新規,0,2026-01-15,2026-01-15,株式会社圓山商會,,株式会社,東京都,三鷹市,下連雀３丁目５番１４‐１０４号,,13,204,1810013,,,,,,,2026-01-15,1,,,,,マルヤマショウカイ,0
2121,4012803003975,新規,0,2026-01-15,2026-01-15,合同会社ＭＫＴアセットマネジメント,,合同会社,東京都,昭島市,つつじが丘３丁目４番７－６０２号,,13,207,1960012,,,,,,,2026-01-15,1,,,,,エムケイティーアセットマネジメント,0
2128,4020001166652,新規,0,2026-01-15,2026-01-15,株式会社ウッドパーク,,株式会社,神奈川県,横浜市戸塚区,川上町４１２番地１シーアイマンション東戸塚Ａ棟１階,,14,110,2440805,,,,,,,2026-01-15,1,,,,,ウッドパーク,0
2129,4020001166660,新規,0,2026-01-15,2026-01-15,株式会社ＯＮＯＳＴＹＬＥ,,株式会社,神奈川県,横浜市都筑区,荏田南２丁目１２―１３,,14,118,2240007,,,,,,,2026-01-15,1,,,,,オンスタイル,0
2136,4021003016969,新規,0,2026-01-15,2026-01-15,合同会社ストーリーテイル,,合同会社,神奈川県,横須賀市,小矢部４丁目３－１０,,14,201,2380026,,,,,,,2026-01-15,1,,,,,ストーリーテイル,0
2137,4021003017001,新規,0,2026-01-15,2026-01-15,合同会社片岡不動産,,合同会社,神奈川県,茅ヶ崎市,東海岸南５丁目２番４５－１号,,14,207,2530054,,,,,,,2026-01-15,1,,,,,カタオカフドウサン,0
2145,4030001170538,新規,0,2026-01-15,2026-01-15,株式会社Ｈａｔｔｉｐ,,株式会社,埼玉県,八潮市,緑町１丁目３５番地１８,,11,234,3400808,,,,,,,2026-01-15,1,,,,,ハットティップ,0
2146,4030001170562,新規,0,2026-01-15,2026-01-15,ハートサービスホールディングス株式会社,,株式会社,埼玉県,桶川市,北２丁目６番１５号,,11,231,3630011,,,,,,,2026-01-15,1,,,,,ハートサービスホールディングス,0
2147,4030001170587,新規,0,2026-01-15,2026-01-15,株式会社フェレスジーナ,,株式会社,埼玉県,春日部市,東中野１５１０番地１６,,11,214,3440114,,,,,,,2026-01-15,1,,,,,フェレスジーナ,0
2148,4030001170595,新規,0,2026-01-15,2026-01-15,株式会社エヌ・ボーン,,株式会社,埼玉県,戸田市,新曽南２丁目１番３－３０６号,,11,224,3350026,,,,,,,2026-01-15,1,,,,,エヌボーン,0
2149,4030001170604,新規,0,2026-01-15,2026-01-15,株式会社ＢＭセキュリティー,,株式会社,埼玉県,川口市,芝中田２丁目３３番１１号,,11,203,3330847,,,,,,,2026-01-15,1,,,,,ビーエムセキュリティー,0
2151,4030003028429,新規,0,2026-01-15,2026-01-15,合同会社ＫＡＩＲＡ,,合同会社,埼玉県,さいたま市大宮区,桜木町２丁目３番地大宮マルイ７階,,11,103,3300854,,,,,,,2026-01-15,1,,,,,カイラ,0
2152,4030003028453,新規,0,2026-01-15,2026-01-15,ＹＮアセット合同会社,,合同会社,埼玉県,越谷市,大字下間久里１０５９番地２,,11,222,3430045,,,,,,,2026-01-15,1,,,,,ワイエヌアセット,0
2156,4040001142040,新規,0,2026-01-15,2026-01-15,株式会社アクセル・オン,,株式会社,千葉県,松戸市,上矢切１１５０番地の１,,12,207,2710094,,,,,,,2026-01-15,1,,,,,アクセルオン,0
2157,4040001142081,新規,0,2026-01-15,2026-01-15,株式会社エンリンクプロ,,株式会社,千葉県,流山市,前ケ崎２１番地の７３,,12,220,2700144,,,,,,,2026-01-15,1,,,,,エンリンクプロ,0
2158,4040001142107,新規,0,2026-01-15,2026-01-15,株式会社日成自動車ホールディングス,,株式会社,千葉県,柏市,花野井７３５番地の２０,,12,217,2770812,,,,,,,2026-01-15,1,,,,,ニッセイジドウシャホールディングス,0
2161,4040003029277,新規,0,2026-01-15,2026-01-15,合同会社ｈｙｍｙ　ｔｏｒｉ,,合同会社,千葉県,千葉市花見川区,作新台６丁目２０－６－１Ｆ,,12,102,2620045,,,,,,,2026-01-15,1,,,,,ヒュミトリ,0
2162,4040003029310,新規,0,2026-01-15,2026-01-15,Ｒａｐｔｕｒｅｓ合同会社,,合同会社,千葉県,流山市,大字流山３９９－２,,12,220,2700164,,,,,,,2026-01-15,1,,,,,ラプチャーズ,0
2164,4050001057840,新規,0,2026-01-15,2026-01-15,大吉通商株式会社,,株式会社,茨城県,水戸市,城南３丁目９番１３号,,08,201,3100803,,,,,,,2026-01-15,1,,,,,ダイキチツウショウ,0
2165,4050001057849,新規,0,2026-01-15,2026-01-15,株式会社ＳＡＫＵＲＡ,,株式会社,茨城県,水戸市,笠原町１０９７番地の４サンビレッジ笠原Ｄ棟２０１号,,08,201,3100852,,,,,,,2026-01-15,1,,,,,サクラ,0
2166,4050003009864,新規,0,2026-01-15,2026-01-15,ＣｅｌＰｏｉｎｔｓ合同会社,,合同会社,茨城県,つくば市,二の宮３丁目２１番地１５,,08,220,3050051,,,,,,,2026-01-15,1,,,,,セルポイント,0
2175,4100001039263,新規,0,2026-01-15,2026-01-15,株式会社銀河,,株式会社,長野県,伊那市,境１５８１番地９,,20,209,3960010,,,,,,,2026-01-15,1,,,,,ギンガ,0
2176,4100001039271,新規,0,2026-01-15,2026-01-15,株式会社高木制作所,,株式会社,長野県,松本市,小屋南１丁目１１番１３号,,20,202,3990038,,,,,,,2026-01-15,1,,,,,タカキセイサクショ,0
2197,4120001283207,新規,0,2026-01-15,2026-01-15,トイル・カフェ株式会社,,株式会社,大阪府,大阪市北区,天満橋３丁目３番５号,,27,127,5300042,,,,,,,2026-01-15,1,,,,,トイルカフェ,0
2198,4120001283322,新規,0,2026-01-15,2026-01-15,株式会社じんざい,,株式会社,大阪府,大阪市北区,天神橋２丁目４番１７号千代田第１ビル１０階Ｇ号室,,27,127,5300041,,,,,,,2026-01-15,1,,,,,ジンザイ,0
2199,4120001283330,新規,0,2026-01-15,2026-01-15,ＥＮＡ　ｔｅｃ株式会社,,株式会社,大阪府,大阪市中央区,南船場１丁目６番１３号,,27,128,5420081,,,,,,,2026-01-15,1,,,,,エナテック,0
2200,4120001283371,新規,0,2026-01-15,2026-01-15,森林株式会社,,株式会社,大阪府,大阪市城東区,古市３丁目２１－１０,,27,118,5360001,,,,,,,2026-01-15,1,,,,,シンリン,0
2201,4120001283512,新規,0,2026-01-15,2026-01-15,株式会社ホースゲート,,株式会社,大阪府,大阪市都島区,都島南通２丁目１番２‐１２１４号,,27,102,5340023,,,,,,,2026-01-15,1,,,,,ホースゲート,0
2206,4120003031662,新規,0,2026-01-15,2026-01-15,ＵＢＵ合同会社,,合同会社,大阪府,大阪市東成区,中本５丁目１５番７号,,27,115,5370022,,,,,,,2026-01-15,1,,,,,ウブ,0
2219,4130001081386,新規,0,2026-01-15,2026-01-15,株式会社いのはな夢創園,,株式会社,京都府,京都市伏見区,日野岡西町４番地３０,,26,109,6011416,,,,,,,2026-01-15,1,,,,,イノハナムソウエン,0
2501,4180001170259,新規,0,2026-01-15,2026-01-15,株式会社エクサ,,株式会社,愛知県,北名古屋市,石橋郷２１９番地１,,23,234,4810046,,,,,,,2026-01-15,1,,,,,エクサ,0
2511,4180003029610,新規,0,2026-01-15,2026-01-15,合同会社Ｋｕｎ９,,合同会社,愛知県,名古屋市中区,栄１丁目２４番１１号タワー・ザ・ファースト名古屋栄１７０４号,,23,106,4600008,,,,,,,2026-01-15,1,,,,,クンキュー,0
2576,4240001066046,新規,0,2026-01-15,2026-01-15,ヤマトプロジェクト株式会社,,株式会社,広島県,安芸郡海田町,栄町４番１０号,,34,304,7360043,,,,,,,2026-01-15,1,,,,,ヤマトプロジェクト,0
2578,4250001021495,新規,0,2026-01-15,2026-01-15,株式会社ケイシン,,株式会社,山口県,下関市,田倉御殿町１丁目５番地２,,35,201,7510882,,,,,,,2026-01-15,1,,,,,ケイシン,0
2583,4290001112753,新規,0,2026-01-15,2026-01-15,株式会社オートワン,,株式会社,福岡県,三潴郡大木町,大字侍島１００７番地１,,40,522,8300412,,,,,,,2026-01-15,1,,,,,オートワン,0
2584,4290001112778,新規,0,2026-01-15,2026-01-15,株式会社Ｂ‐Ｓｈｉｆｔ,,株式会社,福岡県,福岡市西区,下山門１丁目７番６２号アメックス姪浜４０１号,,40,135,8190052,,,,,,,2026-01-15,1,,,,,ビーシフト,0
2585,4290001112877,新規,0,2026-01-15,2026-01-15,フードトラベル株式会社,,株式会社,福岡県,福岡市中央区,平尾４丁目１０番１－５０５号,,40,133,8100014,,,,,,,2026-01-15,1,,,,,フードトラベル,0
2589,4290003017926,新規,0,2026-01-15,2026-01-15,合同会社Ｃｒｏｓｓ‐ｂｏｒｄｅｒ会計法人,,合同会社,福岡県,那珂川市,大字西畑４５３－８８,,40,231,8111246,,,,,,,2026-01-15,1,,,,,クロスボーダーカイケイホウジン,0
2590,4290003017950,新規,0,2026-01-15,2026-01-15,合同会社Ｂａｍｂｏｏ,,合同会社,福岡県,福岡市早良区,飯倉２丁目７－１９,,40,137,8140161,,,,,,,2026-01-15,1,,,,,バンブー,0
2592,4290801032168,新規,0,2026-01-15,2026-01-15,株式会社テイオー．ｃｏｍ,,株式会社,福岡県,遠賀郡岡垣町,中央台２丁目１６番５号,,40,383,8114218,,,,,,,2026-01-15,1,,,,,テイオードットコム,0
2593,4310003005168,新規,0,2026-01-15,2026-01-15,合同会社Ｎ．Ｓ,,合同会社,長崎県,西彼杵郡長与町,平木場郷５９番地３,,42,307,8512123,,,,,,,2026-01-15,1,,,,,エヌエス,0
2599,4320003004879,新規,0,2026-01-15,2026-01-15,光殿合同会社,,合同会社,大分県,大分市,大字三芳９８６番地の１６,,44,201,8700030,,,,,,,2026-01-15,1,,,,,コウデン,0
2602,4340001027905,新規,0,2026-01-15,2026-01-15,アキュームキャップテクノロジー株式会社,,株式会社,鹿児島県,鹿児島市,紫原３丁目４３番１１－６０４号,,46,201,8900082,,,,,,,2026-01-15,1,,,,,アキュームキャップテクノロジー,0
2605,4350003005107,新規,0,2026-01-15,2026-01-15,合同会社ＤＩＰＡ,,合同会社,宮崎県,延岡市,北川町川内名５９２３－４,,45,203,8890101,,,,,,,2026-01-15,1,,,,,ディーパ,0
2669,4360001036227,新規,0,2026-01-15,2026-01-15,永美株式会社,,株式会社,沖縄県,宜野湾市,上原１丁目１番２号２階,,47,205,9012204,,,,,,,2026-01-15,1,,,,,エイミ,0
2670,4360001036251,新規,0,2026-01-15,2026-01-15,株式会社共進技研,,株式会社,沖縄県,宜野湾市,愛知１丁目６番２２号１０７号室,,47,205,9012206,,,,,,,2026-01-15,1,,,,,,0
2675,4360003015550,新規,0,2026-01-15,2026-01-15,合同会社ＪＡＰＡＮ　ＩＳＨＩＧＡＫＩＪＩＭＡ,,合同会社,沖縄県,石垣市,字真栄里３８５番地３ルパラディーゆいＮ号,,47,207,9070002,,,,,,,2026-01-15,1,,,,,ジャパンイシガキジマ,0
2683,4360005007348,新規,0,2026-01-15,2026-01-15,一般社団法人日本沖縄剛柔流空手道連盟,,その他の設立登記法人,沖縄県,糸満市,字潮平６３０－３番地ゴールドキャッスルマンション３階店舗３０２号,,47,210,9010302,,,,,,,2026-01-15,1,,,,,ニホンオキナワゴウジュウリュウカラテドウレンメイ,0
2693,4380001035805,新規,0,2026-01-15,2026-01-15,株式会社あじま農園,,株式会社,福島県,いわき市,山田町林崎前２１番地,,07,204,9748241,,,,,,,2026-01-15,1,,,,,アジマノウエン,0
2694,4380001035813,新規,0,2026-01-15,2026-01-15,株式会社Ｇ　Ｐｏｗｅｒ,,株式会社,福島県,いわき市,平字菱川町２番地の８,,07,204,9708026,,,,,,,2026-01-15,1,,,,,ジーパワー,0
2695,4390001018222,新規,0,2026-01-15,2026-01-15,酒田医療看護動物病院株式会社,,株式会社,山形県,酒田市,東泉町６丁目１番地の１２,,06,204,9980013,,,,,,,2026-01-15,1,,,,,サカタイリョウカンゴドウブツビョウイン,0
2697,4410001014367,新規,0,2026-01-15,2026-01-15,株式会社Ｐｉｅｒ,,株式会社,秋田県,大仙市,角間川町字町頭１７４番地３０,,05,212,0141413,,,,,,,2026-01-15,1,,,,,,0
2698,4430001096065,新規,0,2026-01-15,2026-01-15,ＬａｓｔＳｔａｎｄ株式会社,,株式会社,北海道,滝川市,空知町１丁目１番２０,,01,225,0730034,,,,,,,2026-01-15,1,,,,,ラストスタンド,0
2700,4430003018496,新規,0,2026-01-15,2026-01-15,合同会社ルピナス,,合同会社,北海道,札幌市東区,伏古九条３丁目２番６号,,01,103,0070869,,,,,,,2026-01-15,1,,,,,ルピナス,0
2710,4460001006062,新規,0,2026-01-15,2026-01-15,株式会社ＨＡＮＡ,,株式会社,北海道,釧路市,昭和南５丁目３番１号,,01,206,0840909,,,,,,,2026-01-15,1,,,,,ハナ,0
2711,4470001021052,新規,0,2026-01-15,2026-01-15,株式会社ＰＡＬＭＩＸ,,株式会社,香川県,仲多度郡まんのう町,新目１１１４番地２,,37,406,7690317,,,,,,,2026-01-15,1,,,,,,0
2734,5010001261651,新規,0,2026-01-15,2026-01-15,ＹＫＫインベストメント株式会社,,株式会社,東京都,千代田区,神田和泉町１番地,,13,101,1010024,,,,,,,2026-01-15,1,,,,,ワイケイケイインベストメント,0
2735,5010001261668,新規,0,2026-01-15,2026-01-15,株式会社錦,,株式会社,東京都,中央区,銀座１丁目１２番４号Ｎ＆ＥＢＬＤ．６Ｆ,,13,102,1040061,,,,,,,2026-01-15,1,,,,,ニシキ,0
2736,5010001261742,新規,0,2026-01-15,2026-01-15,株式会社福,,株式会社,東京都,中央区,湊３丁目８番１号,,13,102,1040043,,,,,,,2026-01-15,1,,,,,フク,0
2737,5010001261866,新規,0,2026-01-15,2026-01-15,株式会社エコテクソリューション,,株式会社,東京都,中央区,日本橋蛎殻町２丁目１３番６号,,13,102,1030014,,,,,,,2026-01-15,1,,,,,エコテクソリューション,0
2738,5010001261916,新規,0,2026-01-15,2026-01-15,ＫＪ００６株式会社,,株式会社,東京都,千代田区,丸の内２丁目１番１号明治安田生命ビル１１階,,13,101,1000005,,,,,,,2026-01-15,1,,,,,ケージェーゼロゼロロク,0
2742,5010005041208,新規,0,2026-01-15,2026-01-15,税理士法人丹羽会計,,その他の設立登記法人,東京都,中央区,日本橋本石町３丁目２番７号,,13,102,1030021,,,,,,,2026-01-15,1,,,,,ニワカイケイ,0
2743,5010005041216,新規,0,2026-01-15,2026-01-15,一般社団法人線乃美術舎,,その他の設立登記法人,東京都,中央区,銀座１丁目１２番４号,,13,102,1040061,,,,,,,2026-01-15,1,,,,,センノビジュツシャ,0
2755,5010503008146,新規,0,2026-01-15,2026-01-15,合同会社ＭｉｄｄｌｅＭａｎ,,合同会社,東京都,台東区,寿３丁目１３番５－５０１号アミ・フルール,,13,106,1110042,,,,,,,2026-01-15,1,,,,,ミドルマン,0
2763,5010901058767,新規,0,2026-01-15,2026-01-15,株式会社ＴｗｉｎＲ,,株式会社,東京都,世田谷区,下馬３丁目３２－１２マンション望月３０２,,13,112,1540002,,,,,,,2026-01-15,1,,,,,ツインレイ,0
2777,5011001174802,新規,0,2026-01-15,2026-01-15,株式会社ＷＡＹＦＩＮＤＥＲ,,株式会社,東京都,渋谷区,広尾１丁目２番１号ヒカリエビル４階,,13,113,1500012,,,,,,,2026-01-15,1,,,,,ウェイファインダー,0
2782,5011003023313,新規,0,2026-01-15,2026-01-15,Ｅｄｉｔｉｏｎ　Ｔｏｋｙｏ合同会社,,合同会社,東京都,渋谷区,広尾１丁目２番１号,,13,113,1500012,,,,,,,2026-01-15,1,,,,,エディショントウキョウ,0
2789,5011101114402,新規,0,2026-01-15,2026-01-15,キャリズム株式会社,,株式会社,東京都,新宿区,富久町１６番９号７０５,,13,104,1620067,,,,,,,2026-01-15,1,,,,,キャリズム,0
2790,5011101114468,新規,0,2026-01-15,2026-01-15,株式会社Ｌｏｏｅｓ,,株式会社,東京都,新宿区,西新宿３丁目３番１３号西新宿水間ビル６階,,13,104,1600023,,,,,,,2026-01-15,1,,,,,ルエス,0
2798,5011303005829,新規,0,2026-01-15,2026-01-15,合同会社真和,,合同会社,東京都,杉並区,高円寺南１丁目１６番１１号,,13,115,1660003,,,,,,,2026-01-15,1,,,,,シンワ,0
2800,5011401027683,新規,0,2026-01-15,2026-01-15,株式会社大トゥライ部,,株式会社,東京都,板橋区,常盤台１丁目４４番１－２１２号,,13,119,1740071,,,,,,,2026-01-15,1,,,,,タイトゥライブ,0
2801,5011401027725,新規,0,2026-01-15,2026-01-15,株式会社２４,,株式会社,東京都,板橋区,小茂根４丁目１８番７号,,13,119,1730037,,,,,,,2026-01-15,1,,,,,トゥエンティーフォー,0
2803,5011503006833,新規,0,2026-01-15,2026-01-15,壱恵合同会社,,合同会社,東京都,北区,田端１丁目１１－７－４０３,,13,117,1140014,,,,,,,2026-01-15,1,,,,,イチエ,0
2810,5013101009904,新規,0,2026-01-15,2026-01-15,株式会社サカエランドスケーピング,,株式会社,東京都,青梅市,今寺４丁目２番地の２４,,13,205,1980021,,,,,,,2026-01-15,1,,,,,サカエランドスケーピング,0
2816,5013301055590,新規,0,2026-01-15,2026-01-15,株式会社Ｔｈａｔ’ｓ　ｗｈｙ,,株式会社,東京都,豊島区,西巣鴨２丁目２１番３－８０２号,,13,116,1700001,,,,,,,2026-01-15,1,,,,,ダッツホワイ,0
2822,5020003030129,新規,0,2026-01-15,2026-01-15,合同会社ユカトモホンポ,,合同会社,神奈川県,横浜市栄区,笠間５丁目２－３０Ｂａｙｍａｉｓｏｎ大船１０３,,14,115,2470006,,,,,,,2026-01-15,1,,,,,ユカトモホンポ,0
2823,5020003030137,新規,0,2026-01-15,2026-01-15,合同会社Ｋｐａｌ,,合同会社,神奈川県,横浜市南区,堀ノ内町２丁目１６８番地６１,,14,105,2320042,,,,,,,2026-01-15,1,,,,,ケイパル,0
2831,5021001087235,新規,0,2026-01-15,2026-01-15,株式会社Ａｒｃ　ＮＥＸＴ,,株式会社,神奈川県,秦野市,千村４丁目９番１１号,,14,211,2591324,,,,,,,2026-01-15,1,,,,,アークネクスト,0
2832,5021003016984,新規,0,2026-01-15,2026-01-15,湘南淡水合同会社,,合同会社,神奈川県,藤沢市,石川６３５番地の９めぐみビル１０１,,14,205,2520815,,,,,,,2026-01-15,1,,,,,ショウナンタンスイ,0
2836,5030001170479,新規,0,2026-01-15,2026-01-15,株式会社トレスペクト,,株式会社,埼玉県,所沢市,大字山口５０９６番地の５＿７１－１－１０４,,11,208,3591145,,,,,,,2026-01-15,1,,,,,トレスペクト,0
2837,5030001170504,新規,0,2026-01-15,2026-01-15,株式会社シーアイエス,,株式会社,埼玉県,坂戸市,大字中小坂２８３番地１,,11,239,3500206,,,,,,,2026-01-15,1,,,,,シーアイエス,0
2838,5030001170537,新規,0,2026-01-15,2026-01-15,ＵＮＩＨＵＢ　ＪＡＰＡＮ株式会社,,株式会社,埼玉県,さいたま市南区,辻８丁目７８８－２,,11,108,3360026,,,,,,,2026-01-15,1,,,,,ユニハブジャパン,0
2839,5030001170553,新規,0,2026-01-15,2026-01-15,株式会社オオトシ点検,,株式会社,埼玉県,川口市,安行出羽４丁目１７番１１号中山マンション弐番館１０６号,,11,203,3340052,,,,,,,2026-01-15,1,,,,,オオトシテンケン,0
2840,5030001170578,新規,0,2026-01-15,2026-01-15,株式会社しあわせ研究室,,株式会社,埼玉県,坂戸市,にっさい花みず木７丁目２番地８３,,11,239,3500269,,,,,,,2026-01-15,1,,,,,シアワセケンキュウシツ,0
2841,5030001170611,新規,0,2026-01-15,2026-01-15,クロジョウ株式会社,,株式会社,埼玉県,川口市,芝下１丁目１４－１１市川ビル２０２号室,,11,203,3330848,,,,,,,2026-01-15,1,,,,,クロジョウ,0
2845,5030003028452,新規,0,2026-01-15,2026-01-15,合同会社にじのわパートナーズ,,合同会社,埼玉県,朝霞市,根岸台４丁目７番５９号,,11,227,3510005,,,,,,,2026-01-15,1,,,,,ニジノワパートナーズ,0
2850,5050001057856,新規,0,2026-01-15,2026-01-15,ＺＴＣグローバル株式会社,,株式会社,茨城県,下妻市,村岡字屋敷１０４１番地,,08,210,3040824,,,,,,,2026-01-15,1,,,,,ゼットティーシーグローバル,0
2859,5070001043730,新規,0,2026-01-15,2026-01-15,株式会社采宝,,株式会社,群馬県,太田市,高林南町７００番地５,,10,205,3730827,,,,,,,2026-01-15,1,,,,,サイホウ,0
2860,5070001043739,新規,0,2026-01-15,2026-01-15,株式会社ＮＥＸＴ　ＩＮＮＯＶＡＴＩＯＮ,,株式会社,群馬県,伊勢崎市,三室町６０４９番地１ｃａｓａＩ－１０３,00142181,10,204,3792235,,,,,,,2026-01-15,1,,,,,ネクストイノベーション,0
2866,5080001027385,新規,0,2026-01-15,2026-01-15,株式会社一茶,,株式会社,静岡県,静岡市葵区,千代田２丁目１３番３８号,,22,101,4200803,,,,,,,2026-01-15,1,,,,,イッサ,0
2867,5080101026015,新規,0,2026-01-15,2026-01-15,株式会社三島セントラルホールディングス,,株式会社,静岡県,三島市,加茂川町１３番６号,,22,206,4110034,,,,,,,2026-01-15,1,,,,,ミシマセントラルホールディングス,0
2874,5100003008570,新規,0,2026-01-15,2026-01-15,ＣＨ合同会社,,合同会社,長野県,大町市,大町２８８０－１１,,20,212,3980002,,,,,,,2026-01-15,1,,,,,シーエイチ,0
2899,5120001283354,新規,0,2026-01-15,2026-01-15,株式会社和泉機械,,株式会社,大阪府,門真市,下馬伏町３０番２６号,,27,223,5710009,,,,,,,2026-01-15,1,,,,,イズミキカイ,0
2900,5120001283395,新規,0,2026-01-15,2026-01-15,株式会社まほろばビジネスサービス,,株式会社,大阪府,大阪市北区,大淀南２丁目２番９－３９０５号,,27,127,5310075,,,,,,,2026-01-15,1,,,,,マホロバビジネスサービス,0
2907,5122001040074,新規,0,2026-01-15,2026-01-15,株式会社クレスト建設,,株式会社,大阪府,八尾市,高安町北５丁目１８３番地,,27,212,5810871,,,,,,,2026-01-15,1,,,,,クレストケンセツ,0
2912,5130001081352,新規,0,2026-01-15,2026-01-15,株式会社ＳＥＮエステート,,株式会社,京都府,京都市下京区,烏丸通仏光寺下る大政所町６８５番地,,26,106,6008413,,,,,,,2026-01-15,1,,,,,エスイーエヌエステート,0
2915,5130003011068,新規,0,2026-01-15,2026-01-15,石原アセット合同会社,,合同会社,京都府,向日市,寺戸町小佃５－１グランマークシティ東向日駅前１３２３号室,,26,208,6170002,,,,,,,2026-01-15,1,,,,,イシハラアセット,0
2916,5130003011076,新規,0,2026-01-15,2026-01-15,合同会社ＹＡＭＡＮＯＨＡ　ＫＹＯＴＯ　ＣＲＡＦＴ,,合同会社,京都府,京都市下京区,小稲荷町８５－２Ｇｒａｎｄ－Ｋ京都駅前ビル２０１,,26,106,6008208,,,,,,,2026-01-15,1,,,,,ヤマノハキョウトクラフト,0
2919,5140001141312,新規,0,2026-01-15,2026-01-15,株式会社Ｉ‐ｄｅａ,,株式会社,兵庫県,姫路市,広畑区長町２丁目１４０番地２,,28,201,6711125,,,,,,,2026-01-15,1,,,,,アイデア,0
2920,5140001141378,新規,0,2026-01-15,2026-01-15,株式会社長水設計,,株式会社,兵庫県,姫路市,飾磨区清水２丁目５番地岩崎ビル３Ｆ西,,28,201,6728051,,,,,,,2026-01-15,1,,,,,ナガミズセッケイ,0
2922,5140003023038,新規,0,2026-01-15,2026-01-15,合同会社Ｋａｋｏｉ,,合同会社,兵庫県,川西市,東畦野２丁目５番２号,,28,217,6660117,,,,,,,2026-01-15,1,,,,,カコイ,0
2923,5160001027360,新規,0,2026-01-15,2026-01-15,株式会社Ｃａｒｒｙ　ｏｎ,,株式会社,滋賀県,彦根市,平田町４２１番地３Ｄ,,25,202,5220041,,,,,,,2026-01-15,1,,,,,キャリーオン,0
3227,5180001170241,新規,0,2026-01-15,2026-01-15,株式会社オールインテリア,,株式会社,愛知県,小牧市,若草町１６９番地３,,23,219,4850031,,,,,,,2026-01-15,1,,,,,オールインテリア,0
3228,5180001170258,新規,0,2026-01-15,2026-01-15,株式会社アップル,,株式会社,愛知県,名古屋市南区,明治２丁目７番９号,,23,112,4570861,,,,,,,2026-01-15,1,,,,,アップル,0
3229,5180001170274,新規,0,2026-01-15,2026-01-15,株式会社うみしろ,,株式会社,愛知県,名古屋市天白区,土原１丁目１９７番地の１０,,23,116,4680026,,,,,,,2026-01-15,1,,,,,ウミシロ,0
3319,5200001044624,新規,0,2026-01-15,2026-01-15,株式会社ＧＯＴＯ,,株式会社,岐阜県,各務原市,鵜沼羽場町１丁目１７－１,,21,213,5090135,,,,,,,2026-01-15,1,,,,,ゴトウ,0
3320,5200003007190,新規,0,2026-01-15,2026-01-15,合同会社コアリンク,,合同会社,岐阜県,養老郡養老町,一色１０２１番地３,,21,341,5031264,,,,,,,2026-01-15,1,,,,,コアリンク,0
3322,5240001066053,新規,0,2026-01-15,2026-01-15,株式会社ＮＤＯ,,株式会社,広島県,尾道市,栗原町９７３１番地５,,34,205,7220022,,,,,,,2026-01-15,1,,,,,エヌディーオー,0
3323,5240003007559,新規,0,2026-01-15,2026-01-15,合同会社Ｌｉｔａ,,合同会社,広島県,広島市西区,南観音町１１番２１ー１０１号,,34,104,7330034,,,,,,,2026-01-15,1,,,,,リタ,0
3327,5260001040907,新規,0,2026-01-15,2026-01-15,株式会社リーフ,,株式会社,岡山県,倉敷市,幸町７番２３号,,33,202,7100051,,,,,,,2026-01-15,1,,,,,リーフ,0
3336,5290001112777,新規,0,2026-01-15,2026-01-15,株式会社みなと設備,,株式会社,福岡県,糸島市,加布里５丁目１２番２２号,,40,230,8191124,,,,,,,2026-01-15,1,,,,,ミナトセツビ,0
3337,5290001112785,新規,0,2026-01-15,2026-01-15,株式会社ＳＡＫＯＵ,,株式会社,福岡県,福岡市東区,箱崎１丁目２８－１０,,40,131,8120053,,,,,,,2026-01-15,1,,,,,サコウ,0
3340,5290003017925,新規,0,2026-01-15,2026-01-15,合同会社管財,,合同会社,福岡県,福岡市中央区,警固２丁目１３－１７－１５０６号,,40,133,8100023,,,,,,,2026-01-15,1,,,,,カンザイ,0
3341,5300001014476,新規,0,2026-01-15,2026-01-15,株式会社ＣＳＣ,,株式会社,佐賀県,佐賀市,本庄町大字鹿子１６番地１,,41,201,8400025,,,,,,,2026-01-15,1,,,,,シーエスシー,0
3344,5310001019929,新規,0,2026-01-15,2026-01-15,株式会社琉,,株式会社,長崎県,諫早市,高来町東平原２０５番地１,,42,204,8590133,,,,,,,2026-01-15,1,,,,,リュウ,0
3358,5340001027895,新規,0,2026-01-15,2026-01-15,ＭＣＭ株式会社,,株式会社,鹿児島県,いちき串木野市,八房３０３８番地１,,46,219,8960056,,,,,,,2026-01-15,1,,,,,エムシーエム,0
3359,5340003005065,新規,0,2026-01-15,2026-01-15,合同会社２１０８,,合同会社,鹿児島県,出水市,高尾野町下高尾野２２４７番地１,,46,208,8990404,,,,,,,2026-01-15,1,,,,,ブドウヤ,0
3443,5360001036234,新規,0,2026-01-15,2026-01-15,ＬＭ　Ｇｒｏｕｐ株式会社,,株式会社,沖縄県,島尻郡与那原町,字与那原３５７５－１－７Ｆ,,47,348,9011303,,,,,,,2026-01-15,1,,,,,エルエムグループ,0
3444,5360001036250,新規,0,2026-01-15,2026-01-15,株式会社Ｌｉｆｅ　ｉｓｓｕｅｓ,,株式会社,沖縄県,那覇市,首里崎山町３丁目２３番地３,,47,201,9030814,,,,,,,2026-01-15,1,,,,,ライフイシューズ,0
3445,5360001036259,新規,0,2026-01-15,2026-01-15,株式会社テトラコア,,株式会社,沖縄県,沖縄市,美里４丁目９番８号,,47,211,9042153,,,,,,,2026-01-15,1,,,,,テトラコア,0
3446,5360001036267,新規,0,2026-01-15,2026-01-15,ルートスター株式会社,,株式会社,沖縄県,浦添市,城間３丁目１５番１号レジデンス吉元１０３,,47,208,9012133,,,,,,,2026-01-15,1,,,,,ルートスター,0
3451,5360003015558,新規,0,2026-01-15,2026-01-15,合同会社ミヤザトワークス,,合同会社,沖縄県,那覇市,古波蔵４丁目２番７号１０１,,47,201,9000024,,,,,,,2026-01-15,1,,,,,ミヤザトワークス,0
3454,5370003007447,新規,0,2026-01-15,2026-01-15,合同会社スリーステップ,,合同会社,宮城県,岩沼市,字西六角５８－１,,04,211,9892446,,,,,,,2026-01-15,1,,,,,スリーステップ,0
3457,5380001035795,新規,0,2026-01-15,2026-01-15,株式会社斎藤耕道會,,株式会社,福島県,二本松市,古家６１番地,,07,210,9640007,,,,,,,2026-01-15,1,,,,,サイトウコウドウカイ,0
3458,5380001035804,新規,0,2026-01-15,2026-01-15,株式会社なみえミライエナジー,,株式会社,福島県,双葉郡浪江町,大字権現堂字下柳町４番地３,,07,547,9791521,,,,,,,2026-01-15,1,,,,,ナミエミライエナジー,0
3459,5380001035812,新規,0,2026-01-15,2026-01-15,Ｉ＆Ｍ株式会社,,株式会社,福島県,郡山市,富田町字北向１４番地,,07,203,9638041,,,,,,,2026-01-15,1,,,,,アイアンドエム,0
3462,5380003006233,新規,0,2026-01-15,2026-01-15,合同会社Ｅｍｉｎｅ,,合同会社,福島県,南会津郡南会津町,金井沢字広面１４－１,,07,368,9670024,,,,,,,2026-01-15,1,,,,,エミーネ,0
3463,5390001018221,新規,0,2026-01-15,2026-01-15,株式会社サンテックホールディングス,,株式会社,山形県,鶴岡市,宝田３丁目６番１号,,06,203,9970011,,,,,,,2026-01-15,1,,,,,サンテックホールディングス,0
3464,5420001019389,新規,0,2026-01-15,2026-01-15,株式会社アスナロブリッジ,,株式会社,青森県,弘前市,大字土手町３１土手町コミュニティパークＫＡＤＡＲＵ＋,,02,202,0368182,,,,,,,2026-01-15,1,,,,,アスナロブリッジ,0
3465,5420003003226,新規,0,2026-01-15,2026-01-15,合同会社Ｔ・ＲＥ,,合同会社,青森県,十和田市,大字三本木字北平１４７番地２０,,02,206,0340001,,,,,,,2026-01-15,1,,,,,タシマリアルエステート,0
3466,5430001096048,新規,0,2026-01-15,2026-01-15,株式会社Ｒｅｃｏｌｌｅ　Ｆｉｔ,,株式会社,北海道,札幌市厚別区,大谷地東２丁目５番６０号,,01,108,0040041,,,,,,,2026-01-15,1,,,,,レコレフィット,0
3467,5430001096064,新規,0,2026-01-15,2026-01-15,株式会社ＭＮＫ,,株式会社,北海道,札幌市中央区,南四条西８丁目２番地１ＩＮＯＶＥ札幌資生館前９０２号室,,01,101,0640804,,,,,,,2026-01-15,1,,,,,エムエヌケー,0
3469,5430003018495,新規,0,2026-01-15,2026-01-15,合同会社ＴＺコネクト,,合同会社,北海道,札幌市中央区,宮の森三条６丁目５番１０－４０２号,,01,101,0640953,,,,,,,2026-01-15,1,,,,,ティージィーコネクト,0
3479,5450001014833,新規,0,2026-01-15,2026-01-15,株式会社Ｌｉｆｅ　ａｓ　Ｌｉｋｅ,,株式会社,北海道,旭川市,春光一条７丁目２番２５号第二ダイワビル１Ｆ,,01,204,0700871,,,,,,,2026-01-15,1,,,,,ライフアズライク,0
3483,5470001021051,新規,0,2026-01-15,2026-01-15,宏テック株式会社,,株式会社,香川県,綾歌郡綾川町,陶７０９３番地１,,37,387,7612103,,,,,,,2026-01-15,1,,,,,ヒロテック,0
3495,6010001261667,新規,0,2026-01-15,2026-01-15,ＶＡＳＴ株式会社,,株式会社,東京都,千代田区,丸の内３丁目２番２号丸の内二重橋ビル２階,,13,101,1000005,,,,,,,2026-01-15,1,,,,,ヴァスト,0
3496,6010001261758,新規,0,2026-01-15,2026-01-15,株式会社Ｒｅｅｌｙ,,株式会社,東京都,文京区,向丘１丁目１６番２４号,,13,105,1130023,,,,,,,2026-01-15,1,,,,,リーリ,0
3497,6010001261766,新規,0,2026-01-15,2026-01-15,株式会社ＭｅｄｉＬｉｎｘ,,株式会社,東京都,中央区,勝どき１丁目８番１－３１０２号,,13,102,1040054,,,,,,,2026-01-15,1,,,,,メディリンクス,0
3498,6010001261808,新規,0,2026-01-15,2026-01-15,株式会社アルファクエスト,,株式会社,東京都,中央区,築地２丁目５番７号,,13,102,1040045,,,,,,,2026-01-15,1,,,,,アルファクエスト,0
3499,6010001261849,新規,0,2026-01-15,2026-01-15,株式会社ＶＡＣＡＮ　Ｔｅｃｈｎｏｌｏｇｉｅｓ,,株式会社,東京都,中央区,新川２丁目８番４号,,13,102,1040033,,,,,,,2026-01-15,1,,,,,バカンテクノロジーズ,0
3500,6010001261915,新規,0,2026-01-15,2026-01-15,ＫＪ００６Ｇｒｏｕｐ株式会社,,株式会社,東京都,千代田区,丸の内２丁目１番１号明治安田生命ビル１１階,,13,101,1000005,,,,,,,2026-01-15,1,,,,,ケージェーゼロゼロロクグループ,0
3511,6010401195498,新規,0,2026-01-15,2026-01-15,株式会社ＢＬＹＫ,,株式会社,東京都,港区,南青山１丁目２６番６号,,13,103,1070062,,,,,,,2026-01-15,1,,,,,ブリック,0
3512,6010401195639,新規,0,2026-01-15,2026-01-15,ＥＶＥＮＴ　ＭＹＳＴＡＲ株式会社,,株式会社,東京都,港区,高輪２丁目１９番１７号ＰＭＯ高輪ゲートウェイ,,13,103,1080074,,,,,,,2026-01-15,1,,,,,イベントマイスター,0
3513,6010401195671,新規,0,2026-01-15,2026-01-15,Ｃａｍｅｍｉｌ　Ｊａｐａｎ株式会社,,株式会社,東京都,港区,南青山２丁目２番１５号ウィン青山９４２,,13,103,1070062,,,,,,,2026-01-15,1,,,,,キャメミルジャパン,0
3514,6010401195754,新規,0,2026-01-15,2026-01-15,株式会社フルハウス,,株式会社,東京都,港区,麻布十番１丁目８番地１０ＴＨＥＶ－ＣＩＴＹ麻布十番ＣＥＮＴＲＥ９階,,13,103,1060045,,,,,,,2026-01-15,1,,,,,フルハウス,0
3515,6010401195787,新規,0,2026-01-15,2026-01-15,愛瑪株式会社,,株式会社,東京都,港区,六本木１丁目９番１８－１６０２号,,13,103,1060032,,,,,,,2026-01-15,1,,,,,アイバ,0
3516,6010403037038,新規,0,2026-01-15,2026-01-15,合同会社Ｃ２Ｃ　Ｉｎｖｅｓｔｍｅｎｔ　Ｆｕｎｄ,,合同会社,東京都,港区,西新橋１丁目７番２号,,13,103,1050003,,,,,,,2026-01-15,1,,,,,シートゥーシーインベストメントファンド,0
3518,6010405025247,新規,0,2026-01-15,2026-01-15,ＥＮ００５一般社団法人,,その他の設立登記法人,東京都,港区,西新橋３丁目５番２号,,13,103,1050003,,,,,,,2026-01-15,1,,,,,イーエヌゼロゼロファイブ,0
3526,6010801036970,新規,0,2026-01-15,2026-01-15,株式会社ＫＹテクノス,,株式会社,東京都,大田区,中馬込２丁目８番１－５０９号,,13,111,1430027,,,,,,,2026-01-15,1,,,,,ケイワイテクノス,0
3532,6011001174801,新規,0,2026-01-15,2026-01-15,イーエス企画株式会社,,株式会社,東京都,目黒区,東山３丁目１２番１５号メゾン東山２０２,,13,110,1530043,,,,,,,2026-01-15,1,,,,,イーエスキカク,0
3533,6011001174818,新規,0,2026-01-15,2026-01-15,株式会社Ｓｅｌｍｉｎａ,,株式会社,東京都,渋谷区,神泉町１０番１５号アネックス神泉３０１,,13,113,1500045,,,,,,,2026-01-15,1,,,,,セルミナ,0
3534,6011003023262,新規,0,2026-01-15,2026-01-15,セントリック・アセットマネジメント合同会社,,合同会社,東京都,渋谷区,渋谷１丁目３－９ヒューリック渋谷一丁目ビル７階,,13,113,1500002,,,,,,,2026-01-15,1,,,,,セントリックアセットマネジメント,0
3537,6011101114376,新規,0,2026-01-15,2026-01-15,Ｐａｔｈｉｔｔａ　Ｓｅｒｖｉｃｅ＆Ｃｏｍｍｕｎｉｃａｔｉｏｎｓ株式会社,,株式会社,東京都,新宿区,百人町１丁目２４番６号百山荘１階,,13,104,1690073,,,,,,,2026-01-15,1,,,,,パティターサービスアンドコミュニケーションズ,0
3551,6011601029314,新規,0,2026-01-15,2026-01-15,株式会社ハナユナ,,株式会社,東京都,練馬区,高松２丁目６番１７号,,13,120,1790075,,,,,,,2026-01-15,1,,,,,ハナユナ,0
3558,6011803007274,新規,0,2026-01-15,2026-01-15,合同会社シムサポート,,合同会社,東京都,足立区,足立２丁目５０番６号,,13,121,1200015,,,,,,,2026-01-15,1,,,,,シムサポート,0
3568,6013301055573,新規,0,2026-01-15,2026-01-15,ウルク・パートナーズ株式会社,,株式会社,東京都,豊島区,池袋４丁目３２番８サンポウ池袋ビル４０２,,13,116,1710014,,,,,,,2026-01-15,1,,,,,ウルクパートナーズ,0
3573,6020001166626,新規,0,2026-01-15,2026-01-15,株式会社ｌｉｎｋ,,株式会社,神奈川県,横浜市港北区,高田東３丁目１番４２号－２Ｆ,,14,109,2230065,,,,,,,2026-01-15,1,,,,,リンク,0
3574,6020001166675,新規,0,2026-01-15,2026-01-15,株式会社春花秋月,,株式会社,神奈川県,川崎市川崎区,駅前本町１１番地２川崎フロンティアビル４階,,14,131,2100007,,,,,,,2026-01-15,1,,,,,シュンカシュウゲツ,0
3575,6020001166683,新規,0,2026-01-15,2026-01-15,ネクリア株式会社,,株式会社,神奈川県,横浜市都筑区,東山田４丁目４８番地１４－１号,,14,118,2240023,,,,,,,2026-01-15,1,,,,,ネクリア,0
3578,6021001087234,新規,0,2026-01-15,2026-01-15,株式会社和多志,,株式会社,神奈川県,海老名市,国分北１丁目２０番１５号コージーカサマ１Ｆ,,14,215,2430406,,,,,,,2026-01-15,1,,,,,ワタシ,0
3583,6030003028402,新規,0,2026-01-15,2026-01-15,合同会社さけとめし,,合同会社,埼玉県,越谷市,登戸町３１番５号,,11,222,3430846,,,,,,,2026-01-15,1,,,,,サケトメシ,0
3584,6030003028443,新規,0,2026-01-15,2026-01-15,ヴィラネクスト合同会社,,合同会社,埼玉県,さいたま市浦和区,高砂３丁目１４－１４ライオンズマンション浦和第２,,11,107,3300063,,,,,,,2026-01-15,1,,,,,ヴィラネクスト,0
3585,6030003028451,新規,0,2026-01-15,2026-01-15,シオツカ合同会社,,合同会社,埼玉県,さいたま市南区,文蔵２丁目５番４号ＣＡＲＩＮＯＮＯＣＥ３０１,,11,108,3360025,,,,,,,2026-01-15,1,,,,,シオツカ,0
3586,6030003028468,新規,0,2026-01-15,2026-01-15,Ｋアセットマネジメント合同会社,,合同会社,埼玉県,川口市,長蔵３丁目３―６,,11,203,3330807,,,,,,,2026-01-15,1,,,,,ケーアセットマネジメント,0
3595,6040001142088,新規,0,2026-01-15,2026-01-15,株式会社ＪａｃＫ,,株式会社,千葉県,茂原市,緑ケ丘２丁目１０番地９,,12,210,2970065,,,,,,,2026-01-15,1,,,,,ジャック,0
3596,6040001142096,新規,0,2026-01-15,2026-01-15,株式会社コンパスアーク,,株式会社,千葉県,佐倉市,上座５８１番地２７,,12,212,2850854,,,,,,,2026-01-15,1,,,,,コンパスアーク,0
3601,6040003029234,新規,0,2026-01-15,2026-01-15,合同会社トッカイ・イント,,合同会社,千葉県,柏市,大津ケ丘３丁目５３番地５棟２０１号,,12,217,2770921,,,,,,,2026-01-15,1,,,,,トッカイイント,0
3602,6040003029275,新規,0,2026-01-15,2026-01-15,合同会社大樹,,合同会社,千葉県,柏市,旭町５丁目２番４号,,12,217,2770852,,,,,,,2026-01-15,1,,,,,ダイジュ,0
3603,6040003029300,新規,0,2026-01-15,2026-01-15,合同会社ＳＰＡＲＫ　ＢＡＳＥ,,合同会社,千葉県,四街道市,大日３５７番地３６,,12,228,2840001,,,,,,,2026-01-15,1,,,,,スパークベース,0
3604,6040005022996,新規,0,2026-01-15,2026-01-15,一般社団法人ｐｏｃｏ　ａ　ｐｏｃｏ,,その他の設立登記法人,千葉県,鎌ケ谷市,鎌ケ谷６丁目２番２３号,,12,224,2730105,,,,,,,2026-01-15,1,,,,,ポコアポコ,0
3607,6050001057814,新規,0,2026-01-15,2026-01-15,株式会社Ｂｅｌｎａ,,株式会社,茨城県,水戸市,西原２丁目１０番５号,,08,201,3100044,,,,,,,2026-01-15,1,,,,,ベルナ,0
3608,6050001057847,新規,0,2026-01-15,2026-01-15,ａｎｄ　ＬＩＦＥ株式会社,,株式会社,茨城県,つくば市,高野台２丁目４番地５－２０２号室,,08,220,3050074,,,,,,,2026-01-15,1,,,,,アンドライフ,0
3609,6050001057863,新規,0,2026-01-15,2026-01-15,岩瀬コンクリート工業株式会社,,株式会社,茨城県,桜川市,南飯田３３４番地,,08,231,3091344,,,,,,,2026-01-15,1,,,,,イワセコンクリートコウギョウ,0
3617,6070001043738,新規,0,2026-01-15,2026-01-15,株式会社クラタプラン,,株式会社,群馬県,高崎市,小八木町８２８番地１富沢ビル２０１,,10,202,3700071,,,,,,,2026-01-15,1,,,,,クラタプラン,0
3622,6080401028387,新規,0,2026-01-15,2026-01-15,宏和ボデー株式会社,,株式会社,静岡県,周智郡森町,睦実１８５０,,22,461,4370213,,,,,,,2026-01-15,1,,,,,コウワボデー,0
3624,6090001019694,新規,0,2026-01-15,2026-01-15,株式会社安部農園,,株式会社,山梨県,山梨市,牧丘町倉科３５８０番地,,19,205,4040003,,,,,,,2026-01-15,1,,,,,アベノウエン,0
3628,6090003002962,新規,0,2026-01-15,2026-01-15,合同会社田中,,合同会社,山梨県,韮崎市,大草町下條西割４００番地,,19,207,4070035,,,,,,,2026-01-15,1,,,,,タナカ,0
3632,6110001039855,新規,0,2026-01-15,2026-01-15,株式会社カワミ工業,,株式会社,新潟県,新潟市東区,江南１丁目８番地１,,15,102,9500855,,,,,,,2026-01-15,1,,,,,カワミコウギョウ,0
3642,6120001283329,新規,0,2026-01-15,2026-01-15,株式会社陽ホーム,,株式会社,大阪府,寝屋川市,高柳５丁目１７番２４号,,27,215,5720051,,,,,,,2026-01-15,1,,,,,ヒナタホーム,0
3643,6120001283345,新規,0,2026-01-15,2026-01-15,ガリレオ株式会社,,株式会社,大阪府,大阪市中央区,安土町１丁目７番２０号新トヤマビル７階,,27,128,5410052,,,,,,,2026-01-15,1,,,,,ガリレオ,0
3644,6120001283394,新規,0,2026-01-15,2026-01-15,株式会社Ｒｅｆｒａｉｎ,,株式会社,大阪府,大阪市北区,堂山町１３番１－８１０号,,27,127,5300027,,,,,,,2026-01-15,1,,,,,リフレイン,0
3648,6120003031652,新規,0,2026-01-15,2026-01-15,合同会社オフィスマイペンライ,,合同会社,大阪府,大阪市北区,茶屋町８番２１－２００２号,,27,127,5300013,,,,,,,2026-01-15,1,,,,,オフィスマイペンライ,0
3659,6130001081376,新規,0,2026-01-15,2026-01-15,メゾンセリエ株式会社,,株式会社,京都府,京都市西京区,大枝北沓掛町４丁目４番地６,,26,111,6101101,,,,,,,2026-01-15,1,,,,,メゾンセリエ,0
3660,6130001081384,新規,0,2026-01-15,2026-01-15,Ｌｅｎｔ　Ｄｅｓｉｇｎ株式会社,,株式会社,京都府,京都市右京区,西院春栄町３６番サインハイツコジマパートＩＩ４０２号,00142184,26,108,6150005,,,,,,,2026-01-15,1,,,,,レントデザイン,0
3661,6130001081418,新規,0,2026-01-15,2026-01-15,３８５ホールディングス株式会社,,株式会社,京都府,京都市中京区,壬生天池町２１番地ホルツカステンデアフロイデ１０１,,26,104,6048874,,,,,,,2026-01-15,1,,,,,ミヤコホールディングス,0
3662,6130003011050,新規,0,2026-01-15,2026-01-15,ＴＨＥＴＡ合同会社,,合同会社,京都府,京都市伏見区,観音寺町２１２－１伏見ビル２Ｆ,,26,109,6128101,,,,,,,2026-01-15,1,,,,,シータ,0
3663,6130005017558,新規,0,2026-01-15,2026-01-15,医療法人翔仁会,,その他の設立登記法人,京都府,京都市山科区,大塚野溝町８６番地２,00142176,26,110,6078135,,,,,,,2026-01-15,1,,,,,ショウジンカイ,0
3665,6140001141294,新規,0,2026-01-15,2026-01-15,株式会社ＴＰＣ兵庫,,株式会社,兵庫県,南あわじ市,八木新庄３１８番地６,,28,224,6560436,,,,,,,2026-01-15,1,,,,,テーピーシーヒョウゴ,0
3666,6140005027770,新規,0,2026-01-15,2026-01-15,医療法人健光会,,その他の設立登記法人,兵庫県,尼崎市,神田中通５丁目１９５番地,,28,202,6600884,,,,,,,2026-01-15,1,,,,,ケンコウカイ,0
3667,6150003003806,新規,0,2026-01-15,2026-01-15,合同会社ジェイ・スターセット,,合同会社,奈良県,橿原市,南八木町３丁目７番３２－４号,,29,205,6340077,,,,,,,2026-01-15,1,,,,,ジェイスターセット,0
3961,6180001170240,新規,0,2026-01-15,2026-01-15,株式会社不動産プロデュース,,株式会社,愛知県,名古屋市中区,栄２丁目２番１号広小路伏見中駒ビル５Ｆ,,23,106,4600008,,,,,,,2026-01-15,1,,,,,フドウサンプロデュース,0
3962,6180001170249,新規,0,2026-01-15,2026-01-15,株式会社ＹＭＨコンサルティング,,株式会社,愛知県,名古屋市昭和区,元宮町２丁目１７番地の２バンベール昭和元宮町９０２号,,23,107,4660851,,,,,,,2026-01-15,1,,,,,ワイエムエイチコンサルティング,0
3963,6180001170257,新規,0,2026-01-15,2026-01-15,株式会社まなこ名古屋,,株式会社,愛知県,名古屋市中村区,名駅３丁目２２番４号,,23,105,4500002,,,,,,,2026-01-15,1,,,,,マナコナゴヤ,0
3977,6180003029609,新規,0,2026-01-15,2026-01-15,小野コンサルティングパートナーズ合同会社,,合同会社,愛知県,名古屋市名東区,大針３丁目１５１番地,,23,115,4650064,,,,,,,2026-01-15,1,,,,,オノコンサルティングパートナーズ,0
4055,6220003004202,新規,0,2026-01-15,2026-01-15,合同会社ＯＡＨＵ　ＶＩＰ　ＪＡＰＡＮ,,合同会社,石川県,金沢市,堀川新町５番１号,,17,201,9200849,,,,,,,2026-01-15,1,,,,,オーエーエッチユーヴイアイピージャパン,0
4059,6240001066052,新規,0,2026-01-15,2026-01-15,株式会社プレイランド・エンターテインメント,,株式会社,広島県,広島市佐伯区,五日市駅前１丁目１０番１３－３０６号,,34,108,7315125,,,,,,,2026-01-15,1,,,,,プレイランドエンターテインメント,0
4063,6260001040872,新規,0,2026-01-15,2026-01-15,株式会社ＲｅＮｏｖａ,,株式会社,岡山県,岡山市東区,瀬戸町沖３４９番地２,,33,103,7090855,,,,,,,2026-01-15,1,,,,,リノヴァ,0
4065,6260003005485,新規,0,2026-01-15,2026-01-15,山下商事合同会社,,合同会社,岡山県,岡山市中区,倉田６８８番地１,,33,102,7038265,,,,,,,2026-01-15,1,,,,,ヤマシタショウジ,0
4071,6290001112826,新規,0,2026-01-15,2026-01-15,株式会社ＮＥＴＥＭＯ　ＣＲＥＷ,,株式会社,福岡県,福岡市東区,馬出２丁目２－１４田村ビル３Ｆ,,40,131,8120054,,,,,,,2026-01-15,1,,,,,ネテモクルー,0
4079,6290005019976,新規,0,2026-01-15,2026-01-15,特定非営利活動法人半導体文明推進研究会,,その他の設立登記法人,福岡県,福岡市中央区,渡辺通１丁目１番２号ホテルニューオータニ博多５階５１１号,,40,133,8100004,,,,,,,2026-01-15,1,,,,,ハンドウタイブンメイスイシンケンキュウカイ,0
4084,6310001019928,新規,0,2026-01-15,2026-01-15,株式会社水匠ラボ,,株式会社,長崎県,長崎市,小江原４丁目２７番１９号,,42,201,8511132,,,,,,,2026-01-15,1,,,,,スイショウラボ,0
4092,6320001021528,新規,0,2026-01-15,2026-01-15,株式会社ＨＹＲＳ,,株式会社,大分県,大分市,下郡中央２丁目１０－３５シティーコート田島２０１,,44,201,8700954,,,,,,,2026-01-15,1,,,,,ハリス,0
4093,6320001021544,新規,0,2026-01-15,2026-01-15,株式会社ＦＵＫＵＲＡ,,株式会社,大分県,大分市,大字皆春２９８番地の１,,44,201,8700131,,,,,,,2026-01-15,1,,,,,フクラ,0
4099,6330001033919,新規,0,2026-01-15,2026-01-15,ＹＵＴＡＴＴＯ株式会社,,株式会社,熊本県,熊本市中央区,神水本町１８番４号,,43,101,8620955,,,,,,,2026-01-15,1,,,,,ユタット,0
4103,6340001027894,新規,0,2026-01-15,2026-01-15,株式会社小田ブロイラーファーム,,株式会社,鹿児島県,出水市,上知識町５５８番地２,,46,208,8990212,,,,,,,2026-01-15,1,,,,,オダブロイラーファーム,0
4104,6340001027911,新規,0,2026-01-15,2026-01-15,ＨＲＭ　Ｎｅｘｔ　Ｈｏｌｄｉｎｇｓ株式会社,,株式会社,鹿児島県,鹿屋市,寿４丁目１１番８－５号,,46,203,8930014,,,,,,,2026-01-15,1,,,,,エイチアールエムネクストホールディングス,0
4190,6360001036241,新規,0,2026-01-15,2026-01-15,株式会社長浜,,株式会社,沖縄県,石垣市,字新川２２２４番地３６,,47,207,9070024,,,,,,,2026-01-15,1,,,,,ナガハマ,0
4195,6360003015532,新規,0,2026-01-15,2026-01-15,合同会社アクアドライビングスクール,,合同会社,沖縄県,那覇市,久茂地１丁目１番１号９階,,47,201,9000015,,,,,,,2026-01-15,1,,,,,,0
4196,6360003015549,新規,0,2026-01-15,2026-01-15,８ｓｔａｒｓ合同会社,,合同会社,沖縄県,那覇市,壺屋２丁目２４番１２号コスミオン壺屋ＩＩ２－Ｂ,00142196,47,201,9020065,,,,,,,2026-01-15,1,,,,,エイトスターズ,0
4203,6370001053401,新規,0,2026-01-15,2026-01-15,エムズフィールド株式会社,,株式会社,宮城県,仙台市青葉区,上杉２丁目１０番５３－６１０号,,04,101,9800011,,,,,,,2026-01-15,1,,,,,エムズフィールド,0
4204,6370005011058,新規,0,2026-01-15,2026-01-15,特定非営利活動法人ＰＯＮＥＹ’ｓ　Ｇａｒｄｅｎ,,その他の設立登記法人,宮城県,大崎市,鹿島台広長字杢師前４８番地,,04,215,9894104,,,,,,,2026-01-15,1,,,,,ポニーズガーデン,0
4207,6380001035811,新規,0,2026-01-15,2026-01-15,株式会社とみなが工業,,株式会社,福島県,石川郡浅川町,大字浅川字大明塚１１８番地の３５,,07,504,9636204,,,,,,,2026-01-15,1,,,,,トミナガコウギョウ,0
4208,6380005013053,新規,0,2026-01-15,2026-01-15,一般財団法人日本英語発音評価協会,,その他の設立登記法人,福島県,南相馬市,小高区東町２丁目４９,,07,212,9792121,,,,,,,2026-01-15,1,,,,,ニホンエイゴハツオンヒョウカキョウカイ,0
4214,6430001096047,新規,0,2026-01-15,2026-01-15,ＲｅａｌｔｙＯｎｅ株式会社,,株式会社,北海道,札幌市中央区,南三条西１３丁目３２０番地５,,01,101,0600063,,,,,,,2026-01-15,1,,,,,リアルティワン,0
4215,6430001096055,新規,0,2026-01-15,2026-01-15,株式会社ＭＥＮＴＲＡ,,株式会社,北海道,札幌市中央区,南十八条西１２丁目２－２０,,01,101,0640918,,,,,,,2026-01-15,1,,,,,メントラ,0
4216,6430001096063,新規,0,2026-01-15,2026-01-15,株式会社Ｎｏｒｔｈ　Ｇａｔｅ　Ｐｒｏｍｏｔｉｏｎ,,株式会社,北海道,札幌市東区,北七条東７丁目１２－４Ｈｉｇｈｇａｔｅ１０３号,,01,103,0600907,,,,,,,2026-01-15,1,,,,,ノースゲートプロモーション,0
4217,6430003018486,新規,0,2026-01-15,2026-01-15,合同会社ＤＣＣサービス,,合同会社,北海道,石狩市,親船町２５番地９,,01,235,0613377,,,,,,,2026-01-15,1,,,,,ディーシーシーサービス,0
4230,6700150133952,新規,0,2026-01-15,2026-01-15,Ｓｈｅｎ　ｚｈｅｎ　ｑｕ　ｙｉ　ｄａ　ｋｅ　ｊｉ　ｙｏｕ　ｘｉａｎ　ｇｏｎｇ　ｓｉ,,外国会社等,,,,,,,,Ｌｏｎｇｇａｎｇ　Ｑｕ　Ｂａｎｔｉａｎ　Ｊｉｅｄａｏ　Ｎａｎｋｅｎｇ　Ｓｈｅｑｕ　Ｙａｂａｏ　ｌｕ　１Ｈａｏ　Ｘｉｎｇｈｅ　ＷｏｒｌｄＡ１６０８Ｂ　Ｓｈｅｎｚｈｅｎ　Ｓｈｉ,,,,,,2026-01-15,1,,,,,シンセンクイダカギユウゲンコウシ,0
4238,7010001261600,新規,0,2026-01-15,2026-01-15,Ｃａｓａ　Ｃａｌｏｒ株式会社,,株式会社,東京都,中央区,銀座１丁目１２番４号Ｎ＆ＥＢＬＤ．６階,,13,102,1040061,,,,,,,2026-01-15,1,,,,,カーサカロール,0
4239,7010001261708,新規,0,2026-01-15,2026-01-15,株式会社共同ピーアールＲｉｎｇ,,株式会社,東京都,中央区,築地１丁目１３番１号,,13,102,1040045,,,,,,,2026-01-15,1,,,,,キョウドウピーアールリング,0
4240,7010001261724,新規,0,2026-01-15,2026-01-15,株式会社ｃａｌｍｅ,,株式会社,東京都,千代田区,富士見２丁目１番１０号,,13,101,1020071,,,,,,,2026-01-15,1,,,,,カルム,0
4241,7010001261831,新規,0,2026-01-15,2026-01-15,マイカイ株式会社,,株式会社,東京都,千代田区,神田佐久間町２丁目１８番地１秋葉原ＳＴＮフロント１０階,,13,101,1010025,,,,,,,2026-01-15,1,,,,,マイカイ,0
4242,7010001261914,新規,0,2026-01-15,2026-01-15,ＫＪ００６ＨＤ株式会社,,株式会社,東京都,千代田区,丸の内２丁目１番１号明治安田生命ビル１１階,,13,101,1000005,,,,,,,2026-01-15,1,,,,,ケージェーゼロゼロロクホールディングス,0
4243,7010001261971,新規,0,2026-01-15,2026-01-15,株式会社よりみち,,株式会社,東京都,中央区,日本橋室町１丁目１１番１２号日本橋水野ビル７階,,13,102,1030022,,,,,,,2026-01-15,1,,,,,ヨリミチ,0
4247,7010003049886,新規,0,2026-01-15,2026-01-15,合同会社Ｓｏｒａ,,合同会社,東京都,中央区,銀座１丁目２２番１１号銀座大竹ビジデンス２Ｆ,,13,102,1040061,,,,,,,2026-01-15,1,,,,,ソラ,0
4248,7010003049936,新規,0,2026-01-15,2026-01-15,合同会社京橋インベストメント,,合同会社,東京都,中央区,京橋２丁目１２番６号ＡＯＪ税理士法人内,,13,102,1040031,,,,,,,2026-01-15,1,,,,,キョウバシインベストメント,0
4249,7010003049960,新規,0,2026-01-15,2026-01-15,コールドストレージ仙台扇町合同会社,,合同会社,東京都,中央区,日本橋１丁目４番１号,,13,102,1030027,,,,,,,2026-01-15,1,,,,,コールドストレージセンダイオウギマチ,0
4264,7010401195654,新規,0,2026-01-15,2026-01-15,株式会社ｍｉｎｏｔｏ,,株式会社,東京都,港区,芝１丁目１５番９号,,13,103,1050014,,,,,,,2026-01-15,1,,,,,ミノト,0
4265,7010401195729,新規,0,2026-01-15,2026-01-15,株式会社ＩＴファブリッジ,,株式会社,東京都,港区,北青山１丁目３番１号アールキューブ青山３階,,13,103,1070061,,,,,,,2026-01-15,1,,,,,アイティーファブリッジ,0
4267,7010403037037,新規,0,2026-01-15,2026-01-15,合同会社ＨｉＪｏＪｏ　Ｆｕｎｄ５４,,合同会社,東京都,港区,西新橋１丁目７番２号,,13,103,1050003,,,,,,,2026-01-15,1,,,,,ヒジョージョーファンドゴジュウヨン,0
4268,7010403037061,新規,0,2026-01-15,2026-01-15,ＥＮ００５合同会社,,合同会社,東京都,港区,西新橋３丁目５番２号,,13,103,1050003,,,,,,,2026-01-15,1,,,,,イーエヌゼロゼロファイブ,0
4269,7010405025238,新規,0,2026-01-15,2026-01-15,一般社団法人ｃｏｒｅ１８,,その他の設立登記法人,東京都,港区,芝浦１丁目１番１号,,13,103,1050023,,,,,,,2026-01-15,1,,,,,コアエイティーン,0
4270,7010405025246,新規,0,2026-01-15,2026-01-15,ＥＮ００４一般社団法人,,その他の設立登記法人,東京都,港区,西新橋３丁目５番２号,,13,103,1050003,,,,,,,2026-01-15,1,,,,,イーエヌゼロゼロフォー,0
4277,7010701048859,新規,0,2026-01-15,2026-01-15,株式会社フォーティアス,,株式会社,東京都,品川区,上大崎２丁目１５番１９号,,13,109,1410021,,,,,,,2026-01-15,1,,,,,フォーティアス,0
4278,7010701048891,新規,0,2026-01-15,2026-01-15,株式会社Ｓｋｙｂｏｕｎｄ　Ｆｉｎａｎｃｅ,,株式会社,東京都,品川区,八潮５丁目６番２５－３０１号,,13,109,1400003,,,,,,,2026-01-15,1,,,,,スカイバウンドファイナンス,0
4287,7010901058773,新規,0,2026-01-15,2026-01-15,株式会社裕友ドライブ,,株式会社,東京都,世田谷区,成城８丁目３番１９号３０１,,13,112,1570066,,,,,,,2026-01-15,1,,,,,ヒロトモドライブ,0
4288,7010901058781,新規,0,2026-01-15,2026-01-15,株式会社ＴＲＡＮＳＭＩＳＳＩＯＮ,,株式会社,東京都,世田谷区,池尻２丁目４番５号ＨＯＭＥ／ＷＯＲＫＶＩＬＬＡＧＥＭＩＤＯＲＩ．ｓｏＩｋｅｊｉｒｉ,,13,112,1540001,,,,,,,2026-01-15,1,,,,,トランスミッション,0
4289,7010903010559,新規,0,2026-01-15,2026-01-15,合同会社ＯＮＥ　ＥＤＩＴＩＯＮ,,合同会社,東京都,世田谷区,太子堂４丁目１８番１５号マガザン三軒茶屋２‐３Ｆ‐３,,13,112,1540004,,,,,,,2026-01-15,1,,,,,ワンエディション,0
4294,7011001174767,新規,0,2026-01-15,2026-01-15,株式会社プブリカ,,株式会社,東京都,渋谷区,道玄坂１丁目１０番８号渋谷道玄坂東急ビル２Ｆ－Ｃ,,13,113,1500043,,,,,,,2026-01-15,1,,,,,プブリカ,0
4296,7011003023294,新規,0,2026-01-15,2026-01-15,合同会社ＢＡＬＡＮＣＥ　ＤＥＳＩＧＮ　ＬＡＢ　ＦＯＲ　ＷＥＬＬＮＥＳＳ,,合同会社,東京都,渋谷区,道玄坂１丁目１０番８号渋谷道玄坂東急ビル２Ｆ－Ｃ,,13,113,1500043,,,,,,,2026-01-15,1,,,,,バランスデザインラボフォーウェルネス,0
4297,7011003023328,新規,0,2026-01-15,2026-01-15,合同会社ＰｒｏｔＡｇｏｎ,,合同会社,東京都,渋谷区,道玄坂１丁目１６番６号二葉ビル８Ｂ,,13,113,1500043,,,,,,,2026-01-15,1,,,,,プロタゴン,0
4305,7011301031189,新規,0,2026-01-15,2026-01-15,株式会社ノンキデンキ,,株式会社,東京都,杉並区,今川２丁目１１番１８号,,13,115,1670035,,,,,,,2026-01-15,1,,,,,ノンキデンキ,0
4308,7011501032994,新規,0,2026-01-15,2026-01-15,株式会社アクスクラフト,,株式会社,東京都,荒川区,西尾久６丁目２４番２号,,13,118,1160011,,,,,,,2026-01-15,1,,,,,アクスクラフト,0
4324,7020001166666,新規,0,2026-01-15,2026-01-15,株式会社ＴＳＵＮＡＧＵ,,株式会社,神奈川県,横浜市港南区,上永谷１丁目２５番４号,,14,111,2330012,,,,,,,2026-01-15,1,,,,,ツナグ,0
4325,7020001166674,新規,0,2026-01-15,2026-01-15,株式会社万衛堂,,株式会社,神奈川県,横浜市神奈川区,金港町５－１４クアドリフォリオ８階,,14,102,2210056,,,,,,,2026-01-15,1,,,,,バンエイドウ,0
4326,7020003030119,新規,0,2026-01-15,2026-01-15,Ｅｘｔｒａ　Ｍｉｌｅａｇｅ　Ｊａｐａｎ合同会社,,合同会社,神奈川県,川崎市川崎区,殿町１丁目１８番１１号,,14,131,2100821,,,,,,,2026-01-15,1,,,,,エクストラマイレージジャパン,0
4328,7020005017114,新規,0,2026-01-15,2026-01-15,一般社団法人Ｂｅｓｈａ神奈川,,その他の設立登記法人,神奈川県,横浜市神奈川区,西寺尾１丁目１番１‐４３２号,,14,102,2210001,,,,,,,2026-01-15,1,,,,,ビーシャカナガワ,0
4329,7021001087233,新規,0,2026-01-15,2026-01-15,株式会社ＧＯＡＴ,,株式会社,神奈川県,横須賀市,久里浜１丁目４番１５号鈴木ビル４Ｆ,,14,201,2390831,,,,,,,2026-01-15,1,,,,,ゴート,0
4330,7021001087241,新規,0,2026-01-15,2026-01-15,株式会社竹松商事,,株式会社,神奈川県,足柄上郡開成町,宮台３４１番地１,,14,366,2580023,,,,,,,2026-01-15,1,,,,,タケマツショウジ,0
4339,7030001170519,新規,0,2026-01-15,2026-01-15,株式会社戸井田ホーム,,株式会社,埼玉県,北本市,大字下石戸下６０７番地６,,11,233,3640023,,,,,,,2026-01-15,1,,,,,トイダホーム,0
4340,7030001170551,新規,0,2026-01-15,2026-01-15,株式会社ａｊｒ,,株式会社,埼玉県,所沢市,北野南２丁目２番地の９,,11,208,3591156,,,,,,,2026-01-15,1,,,,,エージェーアール,0
4341,7030001170568,新規,0,2026-01-15,2026-01-15,株式会社アーク,,株式会社,埼玉県,春日部市,永沼１６１７番地１,,11,214,3440123,,,,,,,2026-01-15,1,,,,,アーク,0
4342,7030001170584,新規,0,2026-01-15,2026-01-15,株式会社Ｔｏｋｙｏ　Ｎｉｇｈｔ　Ｃｒｕｉｓｉｎｇ,,株式会社,埼玉県,さいたま市緑区,大字下野田１４５番地１,,11,109,3360962,,,,,,,2026-01-15,1,,,,,トウキョウナイトクルージング,0
4347,7030003028426,新規,0,2026-01-15,2026-01-15,合同会社ＴＯＢＩＤＡＳＥ,,合同会社,埼玉県,さいたま市浦和区,常盤１丁目３番３４－３０１号,,11,107,3300061,,,,,,,2026-01-15,1,,,,,トビダセ,0
4348,7030003028442,新規,0,2026-01-15,2026-01-15,合同会社ＮＯＡ,,合同会社,埼玉県,所沢市,北有楽町１番２－２０１号,,11,208,3591114,,,,,,,2026-01-15,1,,,,,ノア,0
4354,7040001142038,新規,0,2026-01-15,2026-01-15,株式会社クラフテイル,,株式会社,千葉県,市原市,馬立４７３番地４,,12,219,2900221,,,,,,,2026-01-15,1,,,,,クラフテイル,0
4355,7040001142046,新規,0,2026-01-15,2026-01-15,ＡＭＧ株式会社,,株式会社,千葉県,袖ケ浦市,のぞみ野１６番地５,,12,229,2990251,,,,,,,2026-01-15,1,,,,,エーエムジー,0
4356,7040001142054,新規,0,2026-01-15,2026-01-15,株式会社ＳＨＯ‐ＫＥＮ,,株式会社,千葉県,船橋市,本町６丁目３番１４号,,12,204,2730005,,,,,,,2026-01-15,1,,,,,ショウケン,0
4358,7040003029274,新規,0,2026-01-15,2026-01-15,合同会社光里,,合同会社,千葉県,東金市,小沼田１４７０番地３,,12,213,2830044,,,,,,,2026-01-15,1,,,,,ヒカリ,0
4359,7040003029282,新規,0,2026-01-15,2026-01-15,合同会社ＡＴＳＵ,,合同会社,千葉県,船橋市,前原西４丁目６－１５プレイスセトル１０２,,12,204,2740825,,,,,,,2026-01-15,1,,,,,アツ,0
4360,7040003029308,新規,0,2026-01-15,2026-01-15,役丸合同会社,,合同会社,千葉県,君津市,糠田１２７番地５,,12,225,2991104,,,,,,,2026-01-15,1,,,,,ヤクマル,0
4361,7050001057854,新規,0,2026-01-15,2026-01-15,株式会社ＲＡＭＩＲＡ,,株式会社,茨城県,ひたちなか市,外野２丁目９番１９号,,08,221,3120053,,,,,,,2026-01-15,1,,,,,ラミラ,0
4364,7060003005926,新規,0,2026-01-15,2026-01-15,合同会社ヴォルフェ・ジャパン,,合同会社,栃木県,宇都宮市,大曽１丁目５番１０号,,09,201,3200014,,,,,,,2026-01-15,1,,,,,ヴォルフェジャパン,0
4367,7080401028386,新規,0,2026-01-15,2026-01-15,株式会社ウェルワン,,株式会社,静岡県,浜松市中央区,上西町９５７番地の３,,22,138,4350048,,,,,,,2026-01-15,1,,,,,ウェルワン,0
4372,7110005017311,新規,0,2026-01-15,2026-01-15,つばさ社会保険労務士法人,,その他の設立登記法人,新潟県,燕市,南７丁目１７番９－５号県央ランドマークＡＮＸ１－Ｂ、２Ｆ,,15,213,9591234,,,,,,,2026-01-15,1,,,,,ツバサ,0
4375,7120001283212,新規,0,2026-01-15,2026-01-15,株式会社八勢,,株式会社,大阪府,大阪市西区,立売堀４丁目６番２０号戎阿波座ビル３０７号,,27,106,5500012,,,,,,,2026-01-15,1,,,,,ハッセイ,0
4376,7120001283344,新規,0,2026-01-15,2026-01-15,株式会社オフィスＫＤ,,株式会社,大阪府,大阪市淀川区,東三国５丁目７番４号－３０１,,27,123,5320002,,,,,,,2026-01-15,1,,,,,オフィスケーディー,0
4377,7120001283352,新規,0,2026-01-15,2026-01-15,株式会社メタセキュア,,株式会社,大阪府,大阪市中央区,和泉町１丁目１番１４号シイナＨＤビル谷町北館１１Ｆ,,27,128,5400019,,,,,,,2026-01-15,1,,,,,メタセキュア,0
4378,7120001283369,新規,0,2026-01-15,2026-01-15,株式会社Ｔ３．,,株式会社,大阪府,大阪市生野区,林寺２丁目１番１号,,27,116,5440023,,,,,,,2026-01-15,1,,,,,ティースリー,0
4382,7120003031651,新規,0,2026-01-15,2026-01-15,ＡＦＲＩＤＩ　ＴＲＡＤＩＮＧ合同会社,,合同会社,大阪府,大阪市西淀川区,佃３丁目１４０－１３,,27,113,5550001,,,,,,,2026-01-15,1,,,,,アフリディトレーディング,0
4392,7130001081417,新規,0,2026-01-15,2026-01-15,株式会社ｈａｃｈｉ,,株式会社,京都府,京都市右京区,嵯峨水尾岡ノ窪町２０番地,,26,108,6168462,,,,,,,2026-01-15,1,,,,,ハチ,0
4393,7130003011058,新規,0,2026-01-15,2026-01-15,合同会社Ｐａｒａｌｏｏｍ,,合同会社,京都府,京都市右京区,西京極野田町５９－１１Ｆ２号室,,26,108,6150861,,,,,,,2026-01-15,1,,,,,パラルーム,0
4397,7140003023036,新規,0,2026-01-15,2026-01-15,合同会社Ｔｓｕｍｕｇｉ,,合同会社,兵庫県,川西市,矢問３丁目９番１０号,,28,217,6660131,,,,,,,2026-01-15,1,,,,,ツムギ,0
4398,7140003023077,新規,0,2026-01-15,2026-01-15,アストロフィア合同会社,,合同会社,兵庫県,姫路市,野里中町５番３０号,,28,201,6700864,,,,,,,2026-01-15,1,,,,,アストロフィア,0
4722,7180001170165,新規,0,2026-01-15,2026-01-15,株式会社ＤＮＥＡ　Ｃａｐｉｔａｌ,,株式会社,愛知県,名古屋市中区,丸の内２丁目１９番３２号,,23,106,4600002,,,,,,,2026-01-15,1,,,,,ディーエヌイーエーキャピタル,0
4723,7180001170264,新規,0,2026-01-15,2026-01-15,株式会社中田翔,,株式会社,愛知県,名古屋市中村区,名駅４丁目２４番５号第２森ビル４０１,,23,105,4500002,,,,,,,2026-01-15,1,,,,,ナカタショウ,0
4730,7180003029608,新規,0,2026-01-15,2026-01-15,エムズｅ合同会社,,合同会社,愛知県,名古屋市昭和区,八事本町３１番地２１,,23,107,4660825,,,,,,,2026-01-15,1,,,,,エムズイー,0
4788,7180301040596,新規,0,2026-01-15,2026-01-15,株式会社ｓａｌｕｔｅ,,株式会社,愛知県,豊橋市,高洲町字高洲２５番地,,23,201,4418006,,,,,,,2026-01-15,1,,,,,サルー,0
4789,7180301040605,新規,0,2026-01-15,2026-01-15,オーティックスインターナショナル株式会社,,株式会社,愛知県,豊田市,平山町６丁目１６番地１６,,23,211,4710827,,,,,,,2026-01-15,1,,,,,オーティックスインターナショナル,0
4797,7200003007197,新規,0,2026-01-15,2026-01-15,合同会社Ｇｏｏｄ　Ｗａｖｅ,,合同会社,岐阜県,羽島市,竹鼻町１０７７－１,,21,209,5016241,,,,,,,2026-01-15,1,,,,,グッドウェイブ,0
4803,7240001066043,新規,0,2026-01-15,2026-01-15,株式会社ＥＤＧＥ,,株式会社,広島県,広島市中区,八丁堀１番１５－１２０３号,,34,101,7300013,,,,,,,2026-01-15,1,,,,,エッジ,0
4806,7260003005484,新規,0,2026-01-15,2026-01-15,さんさんグローバルエージェンシー合同会社,,合同会社,岡山県,岡山市中区,国府市場８１－５石原ビル２階南,,33,102,7038203,,,,,,,2026-01-15,1,,,,,サンサングローバルエージェンシー,0
4812,7290001112692,新規,0,2026-01-15,2026-01-15,株式会社ＡＩＲＩＸ,,株式会社,福岡県,那珂川市,大字上梶原９３３番地２４,,40,231,8111223,,,,,,,2026-01-15,1,,,,,エアリクス,0
4823,7300003002403,新規,0,2026-01-15,2026-01-15,ＬｏｇｉＧｒｉｄ合同会社,,合同会社,佐賀県,唐津市,鏡４１９８番地９,,41,202,8470022,,,,,,,2026-01-15,1,,,,,ロジグリッド,0
4827,7320001021535,新規,0,2026-01-15,2026-01-15,株式会社大虎建設,,株式会社,大分県,大分市,大字森町７１８番地の１０,,44,201,8700127,,,,,,,2026-01-15,1,,,,,ダイコウケンセツ,0
4833,7330001033918,新規,0,2026-01-15,2026-01-15,株式会社ＯＮ‐ＴＯＰ,,株式会社,熊本県,熊本市中央区,出水１丁目６番４２号リンデンビル１０１,,43,101,8620941,,,,,,,2026-01-15,1,,,,,オントップ,0
4835,7330003011384,新規,0,2026-01-15,2026-01-15,合同会社ＳＡＴＯ　ＬＩＮＫ　ＦＡＲＭ,,合同会社,熊本県,阿蘇市,黒川１６８６番地１１,,43,214,8692225,,,,,,,2026-01-15,1,,,,,サトウリンクファーム,0
4836,7340001027902,新規,0,2026-01-15,2026-01-15,株式会社ＦＵＬＬｍｅｋａｓｈｉＡＴＡＲＡｓｈｉｉ,,株式会社,鹿児島県,奄美市,名瀬金久町６－２,,46,222,8940031,,,,,,,2026-01-15,1,,,,,フルメカシアタラシ,0
4837,7350003005120,新規,0,2026-01-15,2026-01-15,合同会社ＦＵＪＩＹＡＭＡ,,合同会社,宮崎県,宮崎市,神宮１丁目２４０番地１オフィス・Ｔ第１ビル１－Ｂ号室,,45,201,8800053,,,,,,,2026-01-15,1,,,,,フジヤマ,0
4908,7360001036265,新規,0,2026-01-15,2026-01-15,株式会社Ｃ‐Ｂｒｉｄｇｅ,,株式会社,沖縄県,那覇市,首里大名町２丁目１０２番地,,47,201,9030802,,,,,,,2026-01-15,1,,,,,シーブリッジ,0
4921,7370003007445,新規,0,2026-01-15,2026-01-15,合同会社ねこのて,,合同会社,宮城県,仙台市太白区,金剛沢１丁目８番１７号,,04,104,9820803,,,,,,,2026-01-15,1,,,,,ネコノテ,0
4926,7430001096054,新規,0,2026-01-15,2026-01-15,オレアワールド株式会社,,株式会社,北海道,札幌市中央区,南八条西２５丁目２番１２－５０１号,,01,101,0640808,,,,,,,2026-01-15,1,,,,,オレアワールド,0
4927,7430001096070,新規,0,2026-01-15,2026-01-15,株式会社ティーコネクト,,株式会社,北海道,札幌市中央区,北十一条西２１丁目１番１号マルワビル２階,,01,101,0600011,,,,,,,2026-01-15,1,,,,,ティーコネクト,0
4941,7450001014831,新規,0,2026-01-15,2026-01-15,株式会社三日月,,株式会社,北海道,旭川市,三条通２２丁目１９７３番地,,01,204,0788213,,,,,,,2026-01-15,1,,,,,ミカヅキ,0
4944,7460101007800,新規,0,2026-01-15,2026-01-15,株式会社ＫＯＮ’Ｓ　ＦＩＥＬＤ,,株式会社,北海道,中川郡本別町,押帯４０９番地１０,,01,646,0893283,,,,,,,2026-01-15,1,,,,,コンズフィールド,0
4945,7470003003054,新規,0,2026-01-15,2026-01-15,合同会社窓香,,合同会社,香川県,丸亀市,六番丁４番地１,,37,202,7630026,,,,,,,2026-01-15,1,,,,,マドカ,0
4946,7480001013054,新規,0,2026-01-15,2026-01-15,株式会社ニシノサトシ建築設計事務所,,株式会社,徳島県,板野郡北島町,北村字千田ノ木３０番地,,36,402,7710201,,,,,,,2026-01-15,1,,,,,,0
4947,7490003002087,新規,0,2026-01-15,2026-01-15,合同会社おさき農場,,合同会社,高知県,高知市,土佐山高川３５１番地１,,39,201,7813211,,,,,,,2026-01-15,1,,,,,オサキノウジョウ,0
4949,7500001026714,新規,0,2026-01-15,2026-01-15,株式会社日本海事ＤＸ,,株式会社,愛媛県,今治市,辻堂４丁目３－１１,,38,202,7940827,,,,,,,2026-01-15,1,,,,,ニホンカイジディーエックス,0
4952,7700150133951,新規,0,2026-01-15,2026-01-15,ＣｈａｎｇＳｈａ　Ｈｅｒｍｅｓ　Ｉｎｆｏ　＆　Ｔｅｃｈ　Ｃｏ．，Ｌｔｄ．,,外国会社等,,,,,,,,Ｒｍ２８０３，Ｕｎｉｔ　Ｎ，ＮＯ．２０，Ａｒｅａ　Ｂ，２ｎｄ　Ｄｉｓｔ，ＷａｎＫｅＣｈｅｎ　ＮＯ．１４８　ＦｕＹｕａｎＸｉ　Ｒｏａｄ，ＬｉｕＹａｎｇＨｅＪｉｅＤａｏ　ＫａｉＦｕ　Ｄｉｓｔ．，Ｃｈａｎｇｓｈａ,,,,,,2026-01-15,1,,,,,チャンシャハーメスインフォアンドテックカンパニーリミテッド,0
4955,8010001261665,新規,0,2026-01-15,2026-01-15,みけねこエステート株式会社,,株式会社,東京都,文京区,千駄木５丁目１１番７号,,13,105,1130022,,,,,,,2026-01-15,1,,,,,ミケネコエステート,0
4956,8010001261814,新規,0,2026-01-15,2026-01-15,Ｄｉｎｉｎｇ　Ａｍｅｎｉｔｙ株式会社,,株式会社,東京都,中央区,銀座１丁目２２番１１号銀座大竹ビジデンス２Ｆ,,13,102,1040061,,,,,,,2026-01-15,1,,,,,ダイニングアメニティ,0
4959,8010003049877,新規,0,2026-01-15,2026-01-15,合同会社ＲＩＳＥＯＮＥ,,合同会社,東京都,中央区,晴海２丁目２－４２パークタワー晴海３６０２,,13,102,1040053,,,,,,,2026-01-15,1,,,,,ライズワン,0
4960,8010003049943,新規,0,2026-01-15,2026-01-15,ＲＳＶ合同会社,,合同会社,東京都,千代田区,内幸町２丁目１番１号飯野ビル９階,,13,101,1000011,,,,,,,2026-01-15,1,,,,,アールエスブイ,0
4974,8010401195637,新規,0,2026-01-15,2026-01-15,株式会社ＰＡＳＯＮＡ　ＶＩＶ　ＪＡＰＡＮ,,株式会社,東京都,港区,南青山３丁目１番３０号,,13,103,1070062,,,,,,,2026-01-15,1,,,,,パソナビブジャパン,0
4976,8010403037036,新規,0,2026-01-15,2026-01-15,合同会社ＨｉＪｏＪｏ　Ｆｕｎｄ５３,,合同会社,東京都,港区,西新橋１丁目７番２号,,13,103,1050003,,,,,,,2026-01-15,1,,,,,ヒジョージョーファンドゴジュウサン,0
4977,8010403037060,新規,0,2026-01-15,2026-01-15,ＥＮ００４合同会社,,合同会社,東京都,港区,西新橋３丁目５番２号,,13,103,1050003,,,,,,,2026-01-15,1,,,,,イーエヌゼロゼロフォー,0
4979,8010405025245,新規,0,2026-01-15,2026-01-15,ＥＮ００３一般社団法人,,その他の設立登記法人,東京都,港区,西新橋３丁目５番２号,,13,103,1050003,,,,,,,2026-01-15,1,,,,,イーエヌゼロゼロスリー,0
4985,8010601068584,新規,0,2026-01-15,2026-01-15,アナテース株式会社,,株式会社,東京都,江東区,東陽７丁目３番１－６０９号,,13,108,1350016,,,,,,,2026-01-15,1,,,,,アナテース,0
4993,8011001174840,新規,0,2026-01-15,2026-01-15,株式会社Ｅ．Ｌ．Ｄ,,株式会社,東京都,目黒区,目黒１丁目５－１６経研第一ビル５Ｆ,,13,110,1530063,,,,,,,2026-01-15,1,,,,,イーエルディー,0
4994,8011001174849,新規,0,2026-01-15,2026-01-15,株式会社Ｂｅｌｌｅ　Ｂｏｎｄ,,株式会社,東京都,渋谷区,千駄ヶ谷３丁目８番６号ラピス原宿Ｉ,00142177,13,113,1510051,,,,,,,2026-01-15,1,,,,,ベルボンド,0
5003,8011201026890,新規,0,2026-01-15,2026-01-15,株式会社ＳＹホールディングス,,株式会社,東京都,中野区,新井１丁目１２番１４号,,13,114,1650026,,,,,,,2026-01-15,1,,,,,エスワイホールディングス,0
5005,8011303005826,新規,0,2026-01-15,2026-01-15,バックアップワールド合同会社,,合同会社,東京都,杉並区,西荻北５丁目４番４号,,13,115,1670042,,,,,,,2026-01-15,1,,,,,バックアップワールド,0
5009,8011801047304,新規,0,2026-01-15,2026-01-15,株式会社グッドヒルズ,,株式会社,東京都,足立区,保木間５丁目７番１０号,,13,121,1210064,,,,,,,2026-01-15,1,,,,,グッドヒルズ,0
5014,8013301055588,新規,0,2026-01-15,2026-01-15,株式会社フミヒロアセット,,株式会社,東京都,豊島区,東池袋２丁目４番７号フォンターナ大塚３０３号,,13,116,1700013,,,,,,,2026-01-15,1,,,,,フミヒロアセット,0
5019,8020001166582,新規,0,2026-01-15,2026-01-15,株式会社エアーメイド,,株式会社,神奈川県,横浜市青葉区,あかね台１丁目１７番地２３和興ビルあかね台１０２,,14,117,2270066,,,,,,,2026-01-15,1,,,,,エアーメイド,0
5020,8020001166681,新規,0,2026-01-15,2026-01-15,株式会社ＭＫＭ,,株式会社,神奈川県,横浜市旭区,笹野台４丁目６５番１２号,,14,112,2410816,,,,,,,2026-01-15,1,,,,,エムケイエム,0
5021,8020003030167,新規,0,2026-01-15,2026-01-15,合同会社Ｔｏｍｏｎａｒｙ,,合同会社,神奈川県,横浜市神奈川区,金港町５―１４クアドリフォリオ８階,,14,102,2210056,,,,,,,2026-01-15,1,,,,,トモナリ,0
5025,8021001087232,新規,0,2026-01-15,2026-01-15,株式会社ＳＥＮＳＥＳＳ,,株式会社,神奈川県,藤沢市,鵠沼石上１丁目２番７号ＧＯＡＴ２０２号,,14,205,2510025,,,,,,,2026-01-15,1,,,,,センシズ,0
5031,8030001170526,新規,0,2026-01-15,2026-01-15,株式会社ＷｏｏｄＬｉｎｋ,,株式会社,埼玉県,加須市,北小浜１３２番地,,11,210,3470011,,,,,,,2026-01-15,1,,,,,ウッドリンク,0
5032,8030001170542,新規,0,2026-01-15,2026-01-15,株式会社樹,,株式会社,埼玉県,さいたま市見沼区,大字上山口新田１８７番地８,,11,104,3370044,,,,,,,2026-01-15,1,,,,,イツキ,0
5033,8030001170567,新規,0,2026-01-15,2026-01-15,株式会社ＳＫモーターサイクル,,株式会社,埼玉県,川越市,大字天沼新田３３６番地５,,11,201,3500806,,,,,,,2026-01-15,1,,,,,エスケーモーターサイクル,0
5037,8040001142103,新規,0,2026-01-15,2026-01-15,株式会社ＮＥＸ,,株式会社,千葉県,千葉市中央区,星久喜町１９３番地１６,,12,101,2600808,,,,,,,2026-01-15,1,,,,,ネックス,0
5038,8040003029281,新規,0,2026-01-15,2026-01-15,ペイルブルー・ジャパン合同会社,,合同会社,千葉県,流山市,おおたかの森西１丁目２０－１－５０４,,12,220,2700128,,,,,,,2026-01-15,1,,,,,ペイルブルージャパン,0
5039,8050001057853,新規,0,2026-01-15,2026-01-15,株式会社ＡＰＴ,,株式会社,茨城県,日立市,東成沢町３丁目１１番１３号,,08,202,3160034,,,,,,,2026-01-15,1,,,,,アプト,0
5040,8050001057861,新規,0,2026-01-15,2026-01-15,株式会社岡村工業,,株式会社,茨城県,結城市,大字結城９９３２番地７,,08,207,3070001,,,,,,,2026-01-15,1,,,,,オカムラコウギョウ,0
5044,8060001038910,新規,0,2026-01-15,2026-01-15,株式会社アイカ,,株式会社,栃木県,真岡市,清水３７２番地,,09,209,3214402,,,,,,,2026-01-15,1,,,,,アイカ,0
5046,8060003005925,新規,0,2026-01-15,2026-01-15,合同会社エコバリュー,,合同会社,栃木県,宇都宮市,川田町１２９１番地１アラモードＩＩ１０２,00142178,09,201,3210111,,,,,,,2026-01-15,1,,,,,エコバリュー,0
5053,8090001019692,新規,0,2026-01-15,2026-01-15,くすりの森グループ株式会社,,株式会社,山梨県,南都留郡富士河口湖町,船津７４３４番地１２,,19,430,4010301,,,,,,,2026-01-15,1,,,,,クスリノモリグループ,0
5054,8090003002944,新規,0,2026-01-15,2026-01-15,木花民泊運営合同会社,,合同会社,山梨県,南都留郡山中湖村,平野字皆形２１９７番１１６６,,19,425,4010502,,,,,,,2026-01-15,1,,,,,コノハナミンパクウンエイ,0
5055,8110001039853,新規,0,2026-01-15,2026-01-15,石井テクノ株式会社,,株式会社,新潟県,柏崎市,剣野町３３番９号,,15,205,9450835,,,,,,,2026-01-15,1,,,,,イシイテクノ,0
5057,8110005017310,新規,0,2026-01-15,2026-01-15,レクス協同組合,,その他の設立登記法人,新潟県,新潟市中央区,西堀通４番町２５９番５８,,15,103,9518061,,,,,,,2026-01-15,1,,,,,レクス,0
5062,8120001283293,新規,0,2026-01-15,2026-01-15,株式会社ｒｅｖｉｖｅ　ａｎｅｗ,,株式会社,大阪府,大阪市東淀川区,淡路３丁目３番２１号淡路グリーンマンション１階北側,,27,114,5330032,,,,,,,2026-01-15,1,,,,,リバイブアニュー,0
5063,8120001283376,新規,0,2026-01-15,2026-01-15,株式会社Ｂｅｎｅ,,株式会社,大阪府,大阪市中央区,本町橋５番１４号Ｏｚｉ本町橋５０７号室,,27,128,5400029,,,,,,,2026-01-15,1,,,,,ベーネ,0
5064,8120001283392,新規,0,2026-01-15,2026-01-15,株式会社ｌｉｌｙ,,株式会社,大阪府,大阪市福島区,福島２丁目４番１７－２０５号,,27,103,5530003,,,,,,,2026-01-15,1,,,,,リリー,0
5068,8120003031543,新規,0,2026-01-15,2026-01-15,合同会社リハすく,,合同会社,大阪府,守口市,金田町６丁目６番３１号,,27,209,5700011,,,,,,,2026-01-15,1,,,,,リハスク,0
5075,8122001040063,新規,0,2026-01-15,2026-01-15,株式会社ＭＢ,,株式会社,大阪府,東大阪市,西堤２丁目３番５号,,27,227,5770042,,,,,,,2026-01-15,1,,,,,エムビー,0
5078,8130001081408,新規,0,2026-01-15,2026-01-15,株式会社フラワー,,株式会社,京都府,木津川市,山城町上狛中桑垣外１５番地,,26,214,6190204,,,,,,,2026-01-15,1,,,,,フラワー,0
5089,8140001141359,新規,0,2026-01-15,2026-01-15,株式会社ＳＥＩＺＥ,,株式会社,兵庫県,西宮市,常磐町１番３１号アットマークビル３階,,28,204,6620043,,,,,,,2026-01-15,1,,,,,シーズ,0
5090,8140001141375,新規,0,2026-01-15,2026-01-15,三福田株式会社,,株式会社,兵庫県,三田市,池尻６４番地,,28,219,6691548,,,,,,,2026-01-15,1,,,,,サンプクデン,0
5092,8150003003804,新規,0,2026-01-15,2026-01-15,ＲＥＡＬＢＩＴ合同会社,,合同会社,奈良県,北葛城郡広陵町,大字大塚２２２番地１リバティ３号室,,29,426,6350834,,,,,,,2026-01-15,1,,,,,リアルビット,0
5093,8160001027358,新規,0,2026-01-15,2026-01-15,株式会社ヨコガワ,,株式会社,滋賀県,草津市,追分４丁目６番１４号,,25,206,5250047,,,,,,,2026-01-15,1,,,,,ヨコガワ,0
5414,8180001170239,新規,0,2026-01-15,2026-01-15,株式会社Ｈｉｔｏ‐Ｍｏｒｉ,,株式会社,愛知県,名古屋市中村区,名駅４丁目２４番５号第２森ビル４０１,,23,105,4500002,,,,,,,2026-01-15,1,,,,,ヒトモリ,0
5415,8180001170247,新規,0,2026-01-15,2026-01-15,まるはちライスファーム株式会社,,株式会社,愛知県,一宮市,萩原町高木２７７番地１,,23,203,4910371,,,,,,,2026-01-15,1,,,,,マルハチライスファーム,0
5416,8180001170263,新規,0,2026-01-15,2026-01-15,Ｍｏｒｅ　Ｄｅｓｉｇｎ株式会社,,株式会社,愛知県,一宮市,猿海道１丁目８番５号サザンコスモ３０１号,,23,203,4910838,,,,,,,2026-01-15,1,,,,,モアデザイン,0
5417,8180001170296,新規,0,2026-01-15,2026-01-15,株式会社風匠,,株式会社,愛知県,名古屋市守山区,廿軒家１５番２２号エレストビル３Ｆ,,23,113,4630065,,,,,,,2026-01-15,1,,,,,フウショウ,0
5432,8180003029631,新規,0,2026-01-15,2026-01-15,ＴｅｃｈＦｏｒｗａｒｄ合同会社,,合同会社,愛知県,名古屋市中村区,名駅４丁目２４番５号第２森ビル４０１,,23,105,4500002,,,,,,,2026-01-15,1,,,,,テックフォワード,0
5435,8180005021363,新規,0,2026-01-15,2026-01-15,一般財団法人ＡＴグループ財団,,その他の設立登記法人,愛知県,名古屋市昭和区,高辻町６番８号,00142180,23,107,4660057,,,,,,,2026-01-15,1,,,,,エーティーグループザイダン,0
5484,8190005012106,新規,0,2026-01-15,2026-01-15,一般社団法人ＳＵＺＵＫＡ２８ＦＣ,,その他の設立登記法人,三重県,鈴鹿市,郡山町２００１番地１０,,24,207,5100263,,,,,,,2026-01-15,1,,,,,スズカニジュウハチエフシー,0
5485,8200001044621,新規,0,2026-01-15,2026-01-15,株式会社清岐設備,,株式会社,岐阜県,岐阜市,西河渡３丁目８１番地,,21,201,5010106,,,,,,,2026-01-15,1,,,,,セイギセツビ,0
5491,8240001066050,新規,0,2026-01-15,2026-01-15,株式会社エスポワールシエル,,株式会社,広島県,広島市西区,古江新町８－１４光ビル１０１号,,34,104,7330873,,,,,,,2026-01-15,1,,,,,エスポワールシエル,0
5493,8250001021500,新規,0,2026-01-15,2026-01-15,吉岡組株式会社,,株式会社,山口県,光市,室積２丁目６番３０号,,35,210,7430007,,,,,,,2026-01-15,1,,,,,ヨシオカグミ,0
5498,8260001040904,新規,0,2026-01-15,2026-01-15,株式会社ＮＥＯＴＥＲＩＣ,,株式会社,岡山県,岡山市中区,平井１丁目３番５号,,33,102,7038282,,,,,,,2026-01-15,1,,,,,ネオテリック,0
5506,8290801032180,新規,0,2026-01-15,2026-01-15,株式会社三昂,,株式会社,福岡県,北九州市小倉北区,日明５丁目１番１５－１０２号,,40,106,8030831,,,,,,,2026-01-15,1,,,,,サンコウ,0
5509,8310001019926,新規,0,2026-01-15,2026-01-15,株式会社ｆｌｙ　ａｇａｉｎ,,株式会社,長崎県,東彼杵郡波佐見町,岳辺田郷４４５番地,,42,323,8593722,,,,,,,2026-01-15,1,,,,,フライアゲイン,0
5591,8360001036256,新規,0,2026-01-15,2026-01-15,アーバンステイ株式会社,,株式会社,沖縄県,那覇市,前島２丁目１番６号レーヴレアリゼ美栄橋８０１,,47,201,9000016,,,,,,,2026-01-15,1,,,,,アーバンステイ,0
5607,8380003006230,新規,0,2026-01-15,2026-01-15,合同会社リリー,,合同会社,福島県,いわき市,小名浜下神白字狩亦６番地の１３,,07,204,9700316,,,,,,,2026-01-15,1,,,,,リリー,0
5612,8420003003223,新規,0,2026-01-15,2026-01-15,ＡＫＩＲＡ　ＨＯＭＥ合同会社,,合同会社,青森県,上北郡おいらせ町,向山南３０４１番地４４,,02,412,0392158,,,,,,,2026-01-15,1,,,,,アキラホーム,0
5613,8420005007998,新規,0,2026-01-15,2026-01-15,一般社団法人Ｃｉｒｃｌｅ,,その他の設立登記法人,青森県,黒石市,大字横町１４番地４ストゼン＋２０５,,02,204,0360368,,,,,,,2026-01-15,1,,,,,サークル,0
5614,8430001096045,新規,0,2026-01-15,2026-01-15,ＨＳクリエイト株式会社,,株式会社,北海道,苫小牧市,緑町１丁目９番２号,,01,213,0530032,,,,,,,2026-01-15,1,,,,,エイチエスクリエイト,0
5615,8430001096053,新規,0,2026-01-15,2026-01-15,株式会社Ｒｉｓｅ　Ｙｏｕｒ　Ｒｏｏｔｓ,,株式会社,北海道,札幌市中央区,南三条西６丁目１番地３,,01,101,0600063,,,,,,,2026-01-15,1,,,,,ライズユアルーツ,0
5616,8430001096061,新規,0,2026-01-15,2026-01-15,青空興業株式会社,,株式会社,北海道,岩見沢市,上幌向南一条４丁目１２６３番地７,,01,210,0690362,,,,,,,2026-01-15,1,,,,,アオゾラコウギョウ,0
5625,8460103001775,新規,0,2026-01-15,2026-01-15,合同会社ｃｈａｍｐｓ,,合同会社,北海道,帯広市,西二十三条南１丁目１２６番地３８ＴＯＷＮ２３１Ａ,,01,207,0802473,,,,,,,2026-01-15,1,,,,,シャン,0
5627,8470001021057,新規,0,2026-01-15,2026-01-15,株式会社ジェイテック,,株式会社,香川県,仲多度郡琴平町,苗田６８４番地１,,37,403,7660005,,,,,,,2026-01-15,1,,,,,ジェイテック,0
5630,8490003002086,新規,0,2026-01-15,2026-01-15,合同会社ＨＡＳＨＩＤＡ,,合同会社,高知県,南国市,篠原８２９番地,,39,204,7830006,,,,,,,2026-01-15,1,,,,,ハシダ,0
5634,8500001026721,新規,0,2026-01-15,2026-01-15,株式会社Ｄ電機,,株式会社,愛媛県,伊予郡砥部町,高尾田１３０７番地２６,,38,402,7912101,,,,,,,2026-01-15,1,,,,,ディーデンキ,0
5637,8700150133950,新規,0,2026-01-15,2026-01-15,Ｍａｋｅｒａ　Ｔｅｃｈｎｏｌｏｇｙ（Ｈｏｎｇ　Ｋｏｎｇ）Ｃｏｍｐａｎｙ　Ｌｉｍｉｔｅｄ,,外国会社等,,,,,,,,ＲＯＯＭ　Ｅ－６，ＦＬＡＴ　Ｃ，１２／Ｆ，ＭＡＮ　ＦＯＯＮＧ　ＩＮＤＵＳＴＲＩＡＬ　ＢＵＩＬＤＩＮＧ　７　ＣＨＥＵＮＧ　ＬＥＥ　ＳＴＲＥＥＴ　ＣＨＡＩ　ＷＡＮ　ＨＯＮＧ　ＫＯＮＧ,,,,,,2026-01-15,1,,,,,マケラテクノロジーホンコンカンパニーリミテッド,0
5645,9010001261598,新規,0,2026-01-15,2026-01-15,京都国際技術開発株式会社,,株式会社,東京都,中央区,東日本橋２丁目６－５－５０３,,13,102,1030004,,,,,,,2026-01-15,1,,,,,,0
5646,9010001261805,新規,0,2026-01-15,2026-01-15,株式会社Ｏｐｔｉｍｉｚｅ,,株式会社,東京都,文京区,本郷３丁目３番１５号プロックスビル４Ｆ,,13,105,1130033,,,,,,,2026-01-15,1,,,,,オプティマイズ,0
5647,9010001261862,新規,0,2026-01-15,2026-01-15,株式会社ＹＵＡ,,株式会社,東京都,中央区,銀座１丁目２２番１１号銀座大竹ビジデンス２Ｆ,,13,102,1040061,,,,,,,2026-01-15,1,,,,,ワイユーエー,0
5653,9010003049843,新規,0,2026-01-15,2026-01-15,Ｈｉｋａｒｉ　Ｅｓｐｏｒｔｓ合同会社,,合同会社,東京都,文京区,本郷４丁目１６番６号天翔オフィス後楽園３０５,,13,105,1130033,,,,,,,2026-01-15,1,,,,,ヒカリエスポーツ,0
5654,9010003049884,新規,0,2026-01-15,2026-01-15,合同会社河口湖ホテルプロジェクト,,合同会社,東京都,千代田区,霞が関３丁目２番５号,,13,101,1000013,,,,,,,2026-01-15,1,,,,,カワグチコホテルプロジェクト,0
5655,9010003049942,新規,0,2026-01-15,2026-01-15,ＶＲＢ研究所合同会社,,合同会社,東京都,千代田区,内幸町２丁目１番１号飯野ビル９階,,13,101,1000011,,,,,,,2026-01-15,1,,,,,ブイアールビーケンキュウジョ,0
5659,9010103002735,新規,0,2026-01-15,2026-01-15,ＢＲＡＶＥ　ＥＳＴＡＴＥ　ＰＡＲＴＮＥＲＳ合同会社,,合同会社,東京都,八王子市,元横山町２丁目１－３エクセルビル２０１,,13,201,1920063,,,,,,,2026-01-15,1,,,,,ブレイブエステートパートナーズ,0
5664,9010401195660,新規,0,2026-01-15,2026-01-15,株式会社ＪＰコンサルティング,,株式会社,東京都,港区,白金６丁目１６番３０ー７０１号,,13,103,1080072,,,,,,,2026-01-15,1,,,,,ジェイピーコンサルティング,0
5665,9010401195792,新規,0,2026-01-15,2026-01-15,株式会社八艘飛,,株式会社,東京都,港区,赤坂３丁目１番２号,,13,103,1070052,,,,,,,2026-01-15,1,,,,,ハッソウトビ,0
5667,9010405025244,新規,0,2026-01-15,2026-01-15,ＥＮ００２一般社団法人,,その他の設立登記法人,東京都,港区,西新橋３丁目５番２号,,13,103,1050003,,,,,,,2026-01-15,1,,,,,イーエヌゼロゼロツー,0
5673,9010605004543,新規,0,2026-01-15,2026-01-15,一般社団法人キノヤマ・セレモニー,,その他の設立登記法人,東京都,江東区,亀戸７丁目４－４,,13,108,1360071,,,,,,,2026-01-15,1,,,,,キノヤマセレモニー,0
5679,9010901058788,新規,0,2026-01-15,2026-01-15,株式会社Ｃａｌｌｉｎｇ,,株式会社,東京都,世田谷区,深沢４丁目２７番１０号,,13,112,1580081,,,,,,,2026-01-15,1,,,,,コーリング,0
5680,9010901058796,新規,0,2026-01-15,2026-01-15,株式会社リザードテイル,,株式会社,東京都,世田谷区,成城１丁目４番１号,,13,112,1570066,,,,,,,2026-01-15,1,,,,,リザードテイル,0
5685,9011001174807,新規,0,2026-01-15,2026-01-15,株式会社Ｗｅｂ　Ｐａｌｅｔｔｅ,,株式会社,東京都,渋谷区,道玄坂１丁目１０番８号渋谷道玄坂東急ビル２Ｆ－Ｃ,,13,113,1500043,,,,,,,2026-01-15,1,,,,,ウェブパレット,0
5686,9011001174823,新規,0,2026-01-15,2026-01-15,株式会社ビジョンドライブ,,株式会社,東京都,渋谷区,恵比寿西２丁目８番４号ＥＸ恵比寿西ビル５階,,13,113,1500021,,,,,,,2026-01-15,1,,,,,ビジョンドライブ,0
5695,9011101114398,新規,0,2026-01-15,2026-01-15,株式会社Ｎｕｒｓｅ　Ｌｉｎｋ　Ｋｏｃｈｉ,,株式会社,東京都,新宿区,中井１丁目２番４号,,13,104,1610035,,,,,,,2026-01-15,1,,,,,ナースリンクコウチ,0
5696,9011101114407,新規,0,2026-01-15,2026-01-15,株式会社ネクストキャリア,,株式会社,東京都,新宿区,西新宿３丁目３番１３号西新宿水間ビル２Ｆ,,13,104,1600023,,,,,,,2026-01-15,1,,,,,ネクストキャリア,0
5697,9011201026907,新規,0,2026-01-15,2026-01-15,株式会社ラクセプト,,株式会社,東京都,中野区,中野５丁目３２番２２号ＬｕｃｋｙＨｏｕｓｅ２０１,,13,114,1640001,,,,,,,2026-01-15,1,,,,,ラクセプト,0
5701,9011501033000,新規,0,2026-01-15,2026-01-15,東京華莱士飲食管理株式会社,,株式会社,東京都,北区,赤羽３丁目１９番２０号,,13,117,1150045,,,,,,,2026-01-15,1,,,,,トウキョウカライシインショクカンリ,0
5705,9011801047303,新規,0,2026-01-15,2026-01-15,株式会社フロンティア,,株式会社,東京都,足立区,梅田６丁目２８番２２号ＭＥＬＤＩＡ２０３,,13,121,1230851,,,,,,,2026-01-15,1,,,,,フロンティア,0
5706,9011803007263,新規,0,2026-01-15,2026-01-15,リトルベアキャピタル合同会社,,合同会社,東京都,足立区,千住仲町４９－１－７０１,,13,121,1200036,,,,,,,2026-01-15,1,,,,,リトルベアキャピタル,0
5707,9011803007271,新規,0,2026-01-15,2026-01-15,合同会社ＳＯＭＡ　Ｃｏｎｎｅｃｔ,,合同会社,東京都,足立区,柳原２丁目２９－１６,,13,121,1200022,,,,,,,2026-01-15,1,,,,,ソマコネクト,0
5709,9012403007562,新規,0,2026-01-15,2026-01-15,合同会社Ｍｅｌｇｌｏｂｅ,,合同会社,東京都,府中市,朝日町２丁目２０番地の１７,,13,206,1830003,,,,,,,2026-01-15,1,,,,,メルグローブ,0
5711,9012803003970,新規,0,2026-01-15,2026-01-15,合同会社クリップデザイン,,合同会社,東京都,日野市,神明２丁目１４番地の１－１－１０２,,13,212,1910016,,,,,,,2026-01-15,1,,,,,クリップデザイン,0
5719,9020001166672,新規,0,2026-01-15,2026-01-15,株式会社オーバーザトップ・ワークス,,株式会社,神奈川県,横浜市西区,北幸１丁目１１番１号水信ビル７階,,14,103,2200004,,,,,,,2026-01-15,1,,,,,オーバーザトップワークス,0
5722,9021001087165,新規,0,2026-01-15,2026-01-15,株式会社ベローク,,株式会社,神奈川県,相模原市中央区,上溝５丁目１２－４スピアッジャ５０５,,14,152,2520243,,,,,,,2026-01-15,1,,,,,ベローク,0
5723,9021001087215,新規,0,2026-01-15,2026-01-15,ＧＬＩＤＥ　ＩＮＴＥＲＮＡＴＩＯＮＡＬ株式会社,,株式会社,神奈川県,茅ヶ崎市,堤２４１６番地,,14,207,2530006,,,,,,,2026-01-15,1,,,,,グライドインターナショナル,0
5724,9021001087231,新規,0,2026-01-15,2026-01-15,株式会社舎代,,株式会社,神奈川県,横須賀市,平和台１０番地,,14,201,2380055,,,,,,,2026-01-15,1,,,,,ヤシロ,0
5727,9030001170541,新規,0,2026-01-15,2026-01-15,株式会社Ｆａｌｃｏｎ　Ｈｏｌｄｉｎｇｓ,,株式会社,埼玉県,さいたま市岩槻区,美園東１丁目１番地１－１３０５,,11,110,3390028,,,,,,,2026-01-15,1,,,,,ファルコンホールディングス,0
5728,9030001170558,新規,0,2026-01-15,2026-01-15,株式会社ＣＨＯ,,株式会社,埼玉県,川口市,大字東本郷１６０５番地の１６,,11,203,3340063,,,,,,,2026-01-15,1,,,,,シーエイチオー,0
5729,9030001170574,新規,0,2026-01-15,2026-01-15,つくしＭＩＲＡＩアカデミー株式会社,,株式会社,埼玉県,さいたま市南区,別所７丁目１９番１９号３階,,11,108,3360021,,,,,,,2026-01-15,1,,,,,ツクシミライアカデミー,0
5730,9030001170599,新規,0,2026-01-15,2026-01-15,株式会社Ｊマシナリー,,株式会社,埼玉県,三郷市,鷹野５丁目２０番地１,,11,237,3410035,,,,,,,2026-01-15,1,,,,,ジェイマシナリー,0
5731,9030001170608,新規,0,2026-01-15,2026-01-15,豊平商事株式会社,,株式会社,埼玉県,さいたま市南区,文蔵５丁目７番５－２号,,11,108,3360025,,,,,,,2026-01-15,1,,,,,トヨヒラショウジ,0
5734,9030003028341,新規,0,2026-01-15,2026-01-15,合同会社ソーシャルインパクト学園,,合同会社,埼玉県,三郷市,彦糸３丁目１番１号,,11,237,3410001,,,,,,,2026-01-15,1,,,,,ソーシャルインパクトガクエン,0
5735,9030003028424,新規,0,2026-01-15,2026-01-15,合同会社ＨＡＫＵＥＩ,,合同会社,埼玉県,八潮市,八潮８丁目１２番地５,,11,234,3400815,,,,,,,2026-01-15,1,,,,,ハクエイ,0
5736,9030003028457,新規,0,2026-01-15,2026-01-15,ＺＡＨＩＤ　ＴＲＡＤＩＮＧ合同会社,,合同会社,埼玉県,鴻巣市,箕田１３７４番地１エルディム加藤１０２,,11,217,3650062,,,,,,,2026-01-15,1,,,,,ザヒドトレーディング,0
5737,9030005022391,新規,0,2026-01-15,2026-01-15,一般社団法人福清華僑中学日本校友会,,その他の設立登記法人,埼玉県,川口市,大字榛松７５７番地の２,,11,203,3340062,,,,,,,2026-01-15,1,,,,,フクセイカキョウチュウガクニホンコウユウカイ,0
5742,9040001141987,新規,0,2026-01-15,2026-01-15,泰達株式会社,00142198,株式会社,千葉県,船橋市,三咲９丁目１４番１６号,,12,204,2740812,,,,,,,2026-01-15,1,,,,,タイテイ,0
5743,9040001142077,新規,0,2026-01-15,2026-01-15,株式会社ＪＢＫ,,株式会社,千葉県,千葉市中央区,南生実町１２２５番地１,,12,101,2600814,,,,,,,2026-01-15,1,,,,,ジェービーケー,0
5744,9040001142085,新規,0,2026-01-15,2026-01-15,株式会社オーケー企画,,株式会社,千葉県,佐倉市,井野１３８４番地１２１,,12,212,2850855,,,,,,,2026-01-15,1,,,,,オーケーキカク,0
5745,9040001142093,新規,0,2026-01-15,2026-01-15,株式会社Ｐｏｎｙ,,株式会社,千葉県,船橋市,夏見３丁目３２－１９,,12,204,2730865,,,,,,,2026-01-15,1,,,,,ポニー,0
5746,9040001142110,新規,0,2026-01-15,2026-01-15,株式会社長八,,株式会社,千葉県,富津市,富津３６７番地１,,12,226,2930021,,,,,,,2026-01-15,1,,,,,チョウハチ,0
5747,9040005023026,新規,0,2026-01-15,2026-01-15,医療法人社団彩瑛会,,その他の設立登記法人,千葉県,印西市,西の原５丁目１２番地１印西医療クリニックビル２階,,12,231,2701334,,,,,,,2026-01-15,1,,,,,サイエイカイ,0
5748,9050003009876,新規,0,2026-01-15,2026-01-15,福祉革命合同会社,,合同会社,茨城県,龍ケ崎市,上町４２６０－３,,08,208,3010012,,,,,,,2026-01-15,1,,,,,フクシカクメイ,0
5755,9060001038926,新規,0,2026-01-15,2026-01-15,株式会社ＡＲＣ,,株式会社,栃木県,栃木市,藤岡町蛭沼１４６１番地１,,09,203,3290312,,,,,,,2026-01-15,1,,,,,アーク,0
5762,9070001043735,新規,0,2026-01-15,2026-01-15,オーレックス株式会社,,株式会社,群馬県,太田市,新道町１２１１番地１３,,10,205,3730037,,,,,,,2026-01-15,1,,,,,オーレックス,0
5763,9070001043743,新規,0,2026-01-15,2026-01-15,ＣＬＡＩＲＥ株式会社,,株式会社,群馬県,太田市,新田上田中町８８８番地１４,,10,205,3700346,,,,,,,2026-01-15,1,,,,,クレール,0
5768,9080001027373,新規,0,2026-01-15,2026-01-15,株式会社佐野保温,,株式会社,静岡県,島田市,御仮屋町７４７３番地の２５,,22,209,4270053,,,,,,,2026-01-15,1,,,,,サノホオン,0
5774,9110001039852,新規,0,2026-01-15,2026-01-15,株式会社イーワークス,,株式会社,新潟県,柏崎市,大字両田尻２０１番地２,,15,205,9451344,,,,,,,2026-01-15,1,,,,,イーワークス,0
5785,9120001283334,新規,0,2026-01-15,2026-01-15,株式会社ＫＮＭ,,株式会社,大阪府,大阪市平野区,長吉六反２丁目１番２５号,,27,126,5470012,,,,,,,2026-01-15,1,,,,,ケイエヌエム,0
5786,9120001283342,新規,0,2026-01-15,2026-01-15,株式会社アセンブル,,株式会社,大阪府,大阪市東住吉区,杭全６丁目４番２３号,,27,121,5460002,,,,,,,2026-01-15,1,,,,,アセンブル,0
5787,9120001283375,新規,0,2026-01-15,2026-01-15,株式会社Ｃｈｒｙｓａｎｔｈｅｍｕｍ,,株式会社,大阪府,大阪市西成区,松３丁目２番１７号,,27,122,5570034,,,,,,,2026-01-15,1,,,,,クリサンセマム,0
5791,9120005025336,新規,0,2026-01-15,2026-01-15,一般社団法人性と身体を考えるネットワーク,,その他の設立登記法人,大阪府,大阪市阿倍野区,旭町２丁目１番１号－３０７号室,,27,119,5450051,,,,,,,2026-01-15,1,,,,,セイトカラダヲカンガエルネットワーク,0
5797,9122001040079,新規,0,2026-01-15,2026-01-15,株式会社５‐Ｌｉｎｋ,,株式会社,大阪府,柏原市,大県２丁目３番２号,,27,221,5820018,,,,,,,2026-01-15,1,,,,,ファイブリンク,0
5799,9130001081398,新規,0,2026-01-15,2026-01-15,株式会社ハシモト設備,,株式会社,京都府,京都市南区,上鳥羽山ノ本町３３７番地,,26,107,6018176,,,,,,,2026-01-15,1,,,,,ハシモトセツビ,0
5800,9130001081415,新規,0,2026-01-15,2026-01-15,株式会社Ｂｌｕｅ,,株式会社,京都府,京都市右京区,山ノ内宮脇町１５－１クエスト御池２Ｆ,,26,108,6150092,,,,,,,2026-01-15,1,,,,,ブルー,0
5801,9130003011048,新規,0,2026-01-15,2026-01-15,ｚａｒｔｅ合同会社,,合同会社,京都府,京都市東山区,祇園町北側３１３番地７,,26,105,6050073,,,,,,,2026-01-15,1,,,,,ツアルテ,0
5805,9140001141300,新規,0,2026-01-15,2026-01-15,レーヴ株式会社,,株式会社,兵庫県,神戸市中央区,日暮通６丁目４番１８－１０１号,,28,110,6510077,,,,,,,2026-01-15,1,,,,,レーヴ,0
5806,9140001141341,新規,0,2026-01-15,2026-01-15,横山商事株式会社,,株式会社,兵庫県,西宮市,鳴尾浜２丁目１番２９号,,28,204,6638142,,,,,,,2026-01-15,1,,,,,ヨコヤマショウジ,0
6086,9180001170246,新規,0,2026-01-15,2026-01-15,株式会社ＵＮ・ＷＩＮＤ,,株式会社,愛知県,長久手市,城屋敷２２０１番地２,,23,238,4801122,,,,,,,2026-01-15,1,,,,,アンウィンド,0
6087,9180001170254,新規,0,2026-01-15,2026-01-15,株式会社かるん西日本,,株式会社,愛知県,名古屋市中村区,名駅３丁目２２番４号,,23,105,4500002,,,,,,,2026-01-15,1,,,,,カルンニシニホン,0
6088,9180001170262,新規,0,2026-01-15,2026-01-15,株式会社ＦＯＲＭＯＳＡ　ＪＡＰＡＮ,,株式会社,愛知県,名古屋市昭和区,明月町１丁目２５番地の１,,23,107,4660034,,,,,,,2026-01-15,1,,,,,フォルモサジャパン,0
6089,9180001170270,新規,0,2026-01-15,2026-01-15,株式会社愛和ホールディングス,,株式会社,愛知県,稲沢市,日下部西町１丁目５９番地,,23,220,4928185,,,,,,,2026-01-15,1,,,,,アイワホールディングス,0
6090,9180001170337,新規,0,2026-01-15,2026-01-15,コネクトリッチ株式会社,,株式会社,愛知県,名古屋市中村区,向島町４丁目１７番地の８,,23,105,4530838,,,,,,,2026-01-15,1,,,,,コネクトリッチ,0
6096,9180003029606,新規,0,2026-01-15,2026-01-15,合同会社ウォーク・ビレッジ,,合同会社,愛知県,名古屋市中区,栄５丁目２６番３６号,,23,106,4600008,,,,,,,2026-01-15,1,,,,,ウォークビレッジ,0
6168,9200001044612,新規,0,2026-01-15,2026-01-15,オアピース株式会社,,株式会社,岐阜県,不破郡垂井町,府中１５５５番地１,,21,361,5032114,,,,,,,2026-01-15,1,,,,,オアピース,0
6171,9230001021245,新規,0,2026-01-15,2026-01-15,オラゴー株式会社,,株式会社,富山県,富山市,小杉８１４番地１ドゥ・ステージアＶＩＩ２０２号,00142199,16,201,9398063,,,,,,,2026-01-15,1,,,,,オラゴー,0
6173,9240001066017,新規,0,2026-01-15,2026-01-15,内田産業株式会社,,株式会社,広島県,広島市安芸区,矢野南２丁目３番６号,,34,107,7360086,,,,,,,2026-01-15,1,,,,,ウチダサンギョウ,0
6175,9260001040903,新規,0,2026-01-15,2026-01-15,株式会社ＡＮＫ,,株式会社,岡山県,岡山市北区,中山下１丁目１１番１５号新田第１ビル４０２,,33,101,7000821,,,,,,,2026-01-15,1,,,,,アンク,0
6182,9290001112690,新規,0,2026-01-15,2026-01-15,ＣＯＣＯ株式会社,,株式会社,福岡県,福岡市中央区,六本松４丁目１０番８号３Ｆ－Ａ,,40,133,8100044,,,,,,,2026-01-15,1,,,,,ココ,0
6183,9290001112749,新規,0,2026-01-15,2026-01-15,株式会社肉本舗ジャパン,,株式会社,福岡県,福岡市東区,高美台２丁目４２番１２号,,40,131,8110215,,,,,,,2026-01-15,1,,,,,ニクホンポジャパン,0
6184,9290001112757,新規,0,2026-01-15,2026-01-15,株式会社ｓｏｍｅｔｈｉｎｇ,,株式会社,福岡県,春日市,須玖南４丁目５０番地１０１,,40,218,8160863,,,,,,,2026-01-15,1,,,,,サムシング,0
6185,9290001112823,新規,0,2026-01-15,2026-01-15,株式会社ＹＫＵ福岡,,株式会社,福岡県,糟屋郡久山町,大字久原３２９７番地,,40,348,8112501,,,,,,,2026-01-15,1,,,,,ワイケーユーフクオカ,0
6187,9290003017921,新規,0,2026-01-15,2026-01-15,合同会社Ｇｕｕｐｉｓ,,合同会社,福岡県,福岡市早良区,藤崎１丁目１４番２０号ＢＬＡＣＫＢＡＳＥＦＵＪＩＳＡＫＩ０４号,,40,137,8140013,,,,,,,2026-01-15,1,,,,,グーピス,0
6204,9340001027909,新規,0,2026-01-15,2026-01-15,株式会社みーこ商事,,株式会社,鹿児島県,霧島市,国分福島２丁目２２番１７号,,46,218,8994322,,,,,,,2026-01-15,1,,,,,ミーコショウジ,0
6285,9360001036255,新規,0,2026-01-15,2026-01-15,株式会社琉企画,,株式会社,沖縄県,うるま市,石川東恩納４７４番地１グランドキャニオン信３０３,,47,213,9041111,,,,,,,2026-01-15,1,,,,,リュウキカク,0
6295,9360003015546,新規,0,2026-01-15,2026-01-15,合同会社しまぐくるサービス,,合同会社,沖縄県,那覇市,寄宮３丁目１８番３号３Ｆ,,47,201,9020064,,,,,,,2026-01-15,1,,,,,シマグクルサービス,0
6303,9380001035809,新規,0,2026-01-15,2026-01-15,安藤株式会社,,株式会社,福島県,双葉郡富岡町,大字上手岡字下千里２０９番地２,,07,543,9791141,,,,,,,2026-01-15,1,,,,,アンドウ,0
6305,9390003002483,新規,0,2026-01-15,2026-01-15,合同会社ａｏｃ,,合同会社,山形県,飽海郡遊佐町,藤崎字千代ノ藤５番地の６４６,,06,461,9998437,,,,,,,2026-01-15,1,,,,,エーオーシー,0
6309,9430001096052,新規,0,2026-01-15,2026-01-15,株式会社ｅｂｏｎｙ　ａｎｄ　ｉｖｏｒｙ,,株式会社,北海道,札幌市南区,澄川四条５丁目９番１５号,,01,106,0050004,,,,,,,2026-01-15,1,,,,,エボニーアンドアイボリー,0
6310,9430001096060,新規,0,2026-01-15,2026-01-15,株式会社ＯＳＨＩＶＥＲＳＥ,,株式会社,北海道,札幌市白石区,菊水三条３丁目１番１８－２０３号,,01,104,0030803,,,,,,,2026-01-15,1,,,,,オシバース,0
6317,9440001009748,新規,0,2026-01-15,2026-01-15,株式会社ＪＵＬＡ,,株式会社,北海道,北斗市,追分４丁目１１番８号,,01,236,0490101,,,,,,,2026-01-15,1,,,,,ユラ,0
6325,9490003002085,新規,0,2026-01-15,2026-01-15,健美食ひでまひろ合同会社,,合同会社,高知県,須崎市,池ノ内３９６番地,,39,206,7850021,,,,,,,2026-01-15,1,,,,,ケンビショクヒデマヒロ,0
6328,9700150066043,新規,0,2026-01-15,2015-10-09,全日本自治団体労働組合自治労沖縄県本部,,その他,沖縄県,那覇市,壺川３丁目２番６号　壷川ビル３階,,47,201,9000025,,,,,,,2015-10-09,1,,,,,ゼンニホンジチダンタイロウドウクミアイジチロウオキナワケンホンブ,0
