sequenceNumber,corporateNumber,process,correct,updateDate,changeDate,name,nameImageId,kind,prefectureName,cityName,streetNumber,addressImageId,prefectureCode,cityCode,postCode,addressOutside,addressOutsideImageId,closeDate,closeCause,successorCorporateNumber,changeCause,assignmentDate,latest,enName,enPrefectureName,enCityName,enAddressOutside,furigana,hihyoji
5,1010001229669,登記記録の閉鎖等,0,2025-03-24,2025-03-03,株式会社成実フィナンシャルアドバイザリー,,株式会社,東京都,千代田区,麹町３丁目３番地８麹町センタープレイス９階,,13,101,1020083,,,2025-03-03,合併による解散等,6010001212570,令和７年３月１日東京都千代田区麹町三丁目３番地８麹町センタープレイス９階株式会社成実フィナンシャルアドバイザリー（6010001212570）に合併し解散,2022-09-26,1,,,,,ナルミフィナンシャルアドバイザリー,0
18,1010401149673,登記記録の閉鎖等,0,2025-03-24,2025-03-03,株式会社ＴＨＥ　ＴＨＩＲＤ,,株式会社,東京都,港区,赤坂９丁目７番２号ミッドタウン・イースト４階,,13,103,1070052,,,2025-03-03,合併による解散等,2010401102796,令和７年３月１日東京都港区赤坂九丁目７番２号ミッドタウン・イースト４階株式会社７７（2010401102796）に合併し解散,2019-12-05,1,,,,,ザサード,0
27,1010503007060,登記記録の閉鎖等,0,2025-03-24,2025-03-10,合同会社アーステック,,合同会社,東京都,台東区,花川戸１丁目７番５号,,13,106,1110033,,,2025-03-10,清算の結了等,,,2023-06-27,1,,,,,アーステック,0
42,1011001016850,登記記録の閉鎖等,0,2025-03-24,2025-03-03,株式会社ナンバー・ツー,,株式会社,東京都,中央区,日本橋２丁目１番１０号,,13,102,1030027,,,2025-03-03,合併による解散等,8010001163259,令和７年３月１日東京都中央区日本橋二丁目１番１０号株式会社双葉通信社（8010001163259）に合併し解散,2015-10-05,1,,,,,ナンバーツー,0
65,1011603001762,登記記録の閉鎖等,0,2025-03-24,2025-03-10,ＴＭＳカンパニー合同会社,,合同会社,東京都,練馬区,南大泉４丁目３４番２０号,,13,120,1780064,,,2025-03-10,清算の結了等,,,2016-01-21,1,,,,,ティーエムエスカンパニー,0
69,1011702017651,登記記録の閉鎖等,0,2025-03-24,2025-03-14,有限会社森田商会,,有限会社,東京都,江戸川区,南篠崎町５丁目２番１２号,,13,123,1330065,,,2025-03-14,清算の結了等,,,2015-10-05,1,,,,,,0
83,1020001096860,登記記録の閉鎖等,0,2025-03-24,2025-03-04,株式会社ネクストアメニティ,,株式会社,神奈川県,横浜市青葉区,青葉台２丁目１１番地２７,,14,117,2270062,,,2025-03-04,合併による解散等,9010001148424,令和７年３月１日横浜市青葉区青葉台二丁目１１番地２７株式会社ネクストアメニティ（9010001148424）に合併し解散,2015-10-05,1,,,,,ネクストアメニティ,0
92,1021001022369,登記記録の閉鎖等,0,2025-03-24,2025-03-21,株式会社稲本組,,株式会社,神奈川県,秦野市,本町３丁目１１番１０号,,14,211,2570035,,,2025-03-21,清算の結了等,,,2015-10-05,1,,,,,イナモトクミ,0
93,1021001064147,登記記録の閉鎖等,0,2025-03-24,2025-03-21,株式会社ＰＲＥＣＴ,,株式会社,神奈川県,大和市,つきみ野１丁目１１番地１０,,14,213,2420002,,,2025-03-21,清算の結了等,,,2018-02-13,1,,,,,,0
145,1130001064311,登記記録の閉鎖等,0,2025-03-24,2025-03-18,株式会社オーク投資,,株式会社,京都府,京都市上京区,丸太町通堀川西入西丸太町１８７番地アネックス１０Ｆ,,26,102,6028148,,,2025-03-18,清算の結了等,,,2019-04-18,1,,,,,オークトウシ,0
153,1150003001509,登記記録の閉鎖等,0,2025-03-24,2025-02-26,合同会社オレンジスカイ,,合同会社,奈良県,奈良市,北向町１２番地の３,,29,201,6308232,,,2025-02-26,合併による解散等,6150003001586,令和７年２月１８日奈良市北向町１２番地の３合同会社東風（6150003001586）に合併し解散,2016-09-21,1,,,,,オレンジスカイ,0
156,1180001103725,登記記録の閉鎖等,0,2025-03-24,2025-03-13,株式会社ポリネシアンカンパニー,,株式会社,愛知県,名古屋市中区,金山１丁目６番２号,,23,106,4600022,,,2025-03-13,清算の結了等,,,2015-10-05,1,,,,,ポリネシアンカンパニー,0
162,1180305003324,登記記録の閉鎖等,0,2025-03-24,2025-03-13,特定非営利活動法人ハーベスト,,その他の設立登記法人,愛知県,豊橋市,西幸町字幸６４番地１,,23,201,4418113,,,2025-03-13,清算の結了等,,,2015-10-05,1,,,,,ハーベスト,0
171,1250001018932,登記記録の閉鎖等,0,2025-03-24,2025-03-14,株式会社ＥＭＮパートナーズ,,株式会社,山口県,周南市,若宮町１丁目２１,,35,215,7450016,,,2025-03-14,清算の結了等,,,2021-06-10,1,,,,,イーエムエヌパートナーズ,0
173,1280001006430,登記記録の閉鎖等,0,2025-03-24,2025-03-03,株式会社ＭＡＴＵ,,株式会社,島根県,益田市,東町３１番１０９号,,32,204,6980004,,,2025-03-03,清算の結了等,,,2015-10-05,1,,,,,,0
175,1280003000340,登記記録の閉鎖等,0,2025-03-24,2025-03-21,合同会社マルテック,,合同会社,島根県,出雲市,荒茅町２１７５番地７,,32,203,6930044,,,2025-03-21,清算の結了等,,,2015-10-05,1,,,,,マルテック,0
191,1380002029073,登記記録の閉鎖等,0,2025-03-24,2025-03-11,有限会社フシミ,,有限会社,福島県,相馬市,中村字新町１３４番地,,07,209,9760042,,,2025-03-11,清算の結了等,,,2015-10-05,1,,,,,フシミ,0
212,2010001125009,登記記録の閉鎖等,0,2025-03-24,2025-03-07,三菱商事パワーシステムズ株式会社,,株式会社,東京都,千代田区,丸の内２丁目６番１号,,13,101,1000005,,,2025-03-07,清算の結了等,,,2015-10-05,1,,,,,ミツビシショウジパワーシステムズ,0
223,2010401062355,登記記録の閉鎖等,0,2025-03-24,2025-03-03,テアトルエンタープライズ株式会社,,株式会社,東京都,港区,赤坂４丁目１３番５号,,13,103,1070052,,,2025-03-03,清算の結了等,,,2015-10-05,1,,,,,テアトルエンタープライズ,0
231,2010501044963,登記記録の閉鎖等,0,2025-03-24,2025-03-10,株式会社ユー・エス・ケイ,,株式会社,東京都,台東区,浅草１丁目３４番９号,,13,106,1110032,,,2025-03-10,清算の結了等,,,2019-12-02,1,,,,,ユーエスケイ,0
236,2010601038007,登記記録の閉鎖等,0,2025-03-24,2025-03-21,株式会社プライムロジスティクス,,株式会社,東京都,江東区,亀戸６丁目４１番５－１８０４号,,13,108,1360071,,,2025-03-21,清算の結了等,,,2015-10-05,1,,,,,プライムロジスティクス,0
258,2011105010311,登記記録の閉鎖等,0,2025-03-24,2025-03-10,スタンダード税理士法人,,その他の設立登記法人,東京都,新宿区,新宿１丁目１５－１５,,13,104,1600022,,,2025-03-10,清算の結了等,,,2022-07-12,1,,,,,スタンダード,0
260,2011301015510,登記記録の閉鎖等,0,2025-03-24,2025-03-21,株式会社Ｆ．ｒｅｖ,,株式会社,東京都,中野区,南台２丁目２４番２号３０１,,13,114,1640014,,,2025-03-21,清算の結了等,,,2015-10-05,1,,,,,エフレヴ,0
280,2020001029398,登記記録の閉鎖等,0,2025-03-24,2025-03-17,株式会社横浜インポートマート,,株式会社,神奈川県,横浜市中区,新港２丁目２番１号,,14,104,2310001,,,2025-03-17,合併による解散等,5040001000461,令和７年３月１日千葉市美浜区中瀬一丁目５番地１イオンモール株式会社（5040001000461）に合併し解散,2015-10-05,1,,,,,ヨコハマインポートマート,0
282,2020001043812,登記記録の閉鎖等,0,2025-03-24,2025-03-10,ＪＣＮ関東株式会社,,株式会社,神奈川県,横浜市戸塚区,上矢部町２０６１番地１,,14,110,2450053,,,2025-03-10,清算の結了等,,,2015-10-05,1,,,,,ジェイシーエヌカントウ,0
286,2020001144593,登記記録の閉鎖等,0,2025-03-24,2025-03-17,株式会社ビヨンドアカデミー,,株式会社,神奈川県,横浜市鶴見区,市場大和町６番６号大和ビル２階,,14,101,2300025,,,2025-03-17,清算の結了等,,,2022-01-07,1,,,,,ビヨンドアカデミー,0
291,2021001051292,登記記録の閉鎖等,0,2025-03-24,2025-03-21,株式会社泰平装建,,株式会社,神奈川県,綾瀬市,綾西３丁目３番４号,,14,218,2521126,,,2025-03-21,清算の結了等,,,2015-10-05,1,,,,,,0
292,2021001064971,登記記録の閉鎖等,0,2025-03-24,2025-03-21,株式会社日吉組,,株式会社,神奈川県,藤沢市,湘南台５丁目３５－１１ハイツ湘南１０１号,,14,205,2520804,,,2025-03-21,清算の結了等,,,2018-06-08,1,,,,,ヒヨシグミ,0
297,2021002066653,登記記録の閉鎖等,0,2025-03-24,2025-03-13,プロスパー興産有限会社,,有限会社,神奈川県,鎌倉市,浄明寺１丁目３番７号,,14,204,2480003,,,2025-03-13,清算の結了等,,,2015-10-05,1,,,,,プロスパーコウサン,0
319,2040003006311,登記記録の閉鎖等,0,2025-03-24,2025-03-11,ファーストリンク合同会社,,合同会社,千葉県,市川市,北国分４丁目２３番１３号,,12,203,2720836,,,2025-03-11,清算の結了等,,,2015-10-05,1,,,,,ファーストリンク,0
334,2080001003281,登記記録の閉鎖等,0,2025-03-24,2025-03-18,株式会社田中忠雄建築設計事務所,,株式会社,静岡県,静岡市葵区,大岩本町２８番５号,,22,101,4200884,,,2025-03-18,清算の結了等,,,2015-10-05,1,,,,,タナカタダオケンチクセッケイジムショ,0
336,2080005000829,登記記録の閉鎖等,0,2025-03-24,2025-03-17,協業組合静岡若どり,,その他の設立登記法人,静岡県,静岡市葵区,慈悲尾１５７番地,,22,101,4211211,,,2025-03-17,清算の結了等,,,2015-10-05,1,,,,,シズオカワカドリ,0
337,2080005004045,登記記録の閉鎖等,0,2025-03-24,2025-03-17,特定非営利活動法人ハミング,,その他の設立登記法人,静岡県,静岡市清水区,三保３０６２番地,,22,103,4240901,,,2025-03-17,清算の結了等,,,2015-10-05,1,,,,,ハミング,0
350,2110002033670,登記記録の閉鎖等,0,2025-03-24,2025-03-19,有限会社奥只見ターミナル,,有限会社,新潟県,魚沼市,宇津野６７４番地１,,15,225,9460084,,,2025-03-19,清算の結了等,,,2015-10-05,1,,,,,オクタダミターミナル,0
355,2120001235358,登記記録の閉鎖等,0,2025-03-24,2025-03-10,株式会社ＴＮＤＷ,,株式会社,大阪府,大阪市北区,鶴野町２番１号梅田タナダビル６階,,27,127,5300014,,,2025-03-10,清算の結了等,,,2021-02-18,1,,,,,ティーエヌディーダブリュ,0
381,2180003023540,登記記録の閉鎖等,0,2025-03-24,2025-03-10,合同会社フレッシュハート,,合同会社,愛知県,名古屋市瑞穂区,白砂町１丁目４７番地,,23,108,4670056,,,2025-03-10,清算の結了等,,,2022-02-25,1,,,,,フレッシュハート,0
386,2200005007373,登記記録の閉鎖等,0,2025-03-24,2025-03-18,特定非営利活動法人てのひらの会,,その他の設立登記法人,岐阜県,可児市,広見２０５７番地１ロイヤルマンション広見２０１,,21,214,5090214,,,2025-03-18,清算の結了等,,,2015-10-05,1,,,,,テノヒラノカイ,0
394,2220002001889,登記記録の閉鎖等,0,2025-03-24,2025-03-18,有限会社ファームカタバミ,,有限会社,石川県,金沢市,玉川町１０番２２号,,17,201,9200863,,,2025-03-18,清算の結了等,,,2015-10-05,1,,,,,ファームカタバミ,0
397,2230001000940,登記記録の閉鎖等,0,2025-03-24,2025-03-17,株式会社コニシ,,株式会社,富山県,富山市,総曲輪２丁目８番１０号,,16,201,9300083,,,2025-03-17,清算の結了等,,,2015-10-05,1,,,,,コニシ,0
402,2240001060769,登記記録の閉鎖等,0,2025-03-24,2025-03-17,株式会社あおばメモリアル駅北会館,,株式会社,広島県,広島市東区,愛宕町５番８号,,34,102,7320054,,,2025-03-17,合併による解散等,9240001021681,令和７年３月１７日広島市中区堺町一丁目３番１６号あおばメモリアル株式会社（9240001021681）に合併し解散,2022-12-12,1,,,,,アオバメモリアルエキキタカイカン,0
407,2240002047732,登記記録の閉鎖等,0,2025-03-24,2025-03-19,有限会社安芸アローサービス,,有限会社,広島県,安芸郡熊野町,萩原２丁目１３番１８号,,34,307,7314213,,,2025-03-19,清算の結了等,,,2015-10-05,1,,,,,アキアローサービス,0
414,2290003005016,登記記録の閉鎖等,0,2025-03-24,2025-03-10,合同会社たくす,,合同会社,福岡県,朝倉市,甘木３０７番地１,,40,228,8380068,,,2025-03-10,清算の結了等,,,2015-10-05,1,,,,,タクス,0
423,2360001011628,登記記録の閉鎖等,0,2025-03-24,2025-03-03,株式会社みなとコーポレーション,,株式会社,沖縄県,那覇市,港町２丁目１６番５号,,47,201,9000001,,,2025-03-03,合併による解散等,8360001002043,令和７年３月１日沖縄県那覇市港町二丁目１６番５号株式会社みなと食品沖縄（8360001002043）に合併し解散,2015-10-05,1,,,,,ミナトコーポレーション,0
433,2430001061120,登記記録の閉鎖等,0,2025-03-24,2025-03-19,ビーエヌ・ファーム株式会社,,株式会社,北海道,沙流郡平取町,字貫気別１３６番地１６,,01,602,0550321,,,2025-03-19,清算の結了等,,,2015-10-05,1,,,,,ビーエヌファーム,0
439,2480003000410,登記記録の閉鎖等,0,2025-03-24,2025-03-18,合同会社セーフエネルギー,,合同会社,大阪府,大阪市北区,堂山町１番５号三共梅田ビル６階,,27,127,5300027,,,2025-03-18,合併による解散等,6480002007543,令和７年３月１日徳島県鳴門市撫養町立岩字六枚１７７番地株式会社ソリシターコンサルティング（6480002007543）に合併し解散,2015-10-05,1,,,,,セーフエネルギー,0
443,3010002043902,登記記録の閉鎖等,0,2025-03-24,2025-03-07,有限会社ファースト,,有限会社,東京都,千代田区,九段北１丁目９番５号朝日九段マンション５０８号室,,13,101,1020073,,,2025-03-07,清算の結了等,,,2015-10-05,1,,,,,,0
445,3010401029741,登記記録の閉鎖等,0,2025-03-24,2025-03-03,矢口販売サービス株式会社,,株式会社,東京都,港区,海岸２丁目１番２１号,,13,103,1050022,,,2025-03-03,合併による解散等,8010401152588,令和７年３月１日東京都港区海岸二丁目１番２１号株式会社東浜ホールディングス（8010401152588）に合併し解散,2015-10-05,1,,,,,ヤグチハンバイサービス,0
468,3011001120337,登記記録の閉鎖等,0,2025-03-24,2025-02-20,株式会社ミツヤエージェンシー,,株式会社,東京都,目黒区,東山２丁目２－５日興パレス東山６０９,,13,110,1530043,,,2025-02-20,清算の結了等,,,2018-01-29,1,,,,,ミツヤエージェンシー,0
481,3011103010766,登記記録の閉鎖等,0,2025-03-24,2025-03-10,合同会社ジェイ・ヴイ・ダブリュー,,合同会社,東京都,新宿区,下宮比町１番４号,,13,104,1620822,,,2025-03-10,清算の結了等,,,2021-06-16,1,,,,,ジェイヴイダブリュー,0
483,3011301018900,登記記録の閉鎖等,0,2025-03-24,2025-03-11,日栄産業株式会社,,株式会社,東京都,豊島区,目白２丁目１６番２０号,,13,116,1710031,,,2025-03-11,清算の結了等,,,2015-10-05,1,,,,,ニチエイサンギョウ,0
495,3012801003532,登記記録の閉鎖等,0,2025-03-24,2025-03-07,株式会社東京電機工業,,株式会社,東京都,立川市,砂川町８丁目７２番地の７,,13,202,1900031,,,2025-03-07,清算の結了等,,,2015-10-05,1,,,,,トウキョウデンキコウギョウ,0
502,3020002010356,登記記録の閉鎖等,0,2025-03-24,2025-03-10,有限会社ナカニシ建設,,有限会社,神奈川県,横浜市磯子区,磯子６丁目３６番１１号,,14,107,2350016,,,2025-03-10,清算の結了等,,,2015-10-05,1,,,,,ナカニシケンセツ,0
509,3021001083310,登記記録の閉鎖等,0,2025-03-24,2025-03-18,株式会社道屋,,株式会社,神奈川県,相模原市南区,松が枝町１８番１２号松が枝ビル３０２,,14,153,2520313,,,2025-03-18,清算の結了等,,,2024-09-25,1,,,,,ミチヤ,0
512,3021002004513,登記記録の閉鎖等,0,2025-03-24,2025-03-21,有限会社北栄,,有限会社,神奈川県,藤沢市,善行７丁目４番１－１Ｆ号,,14,205,2510871,,,2025-03-21,清算の結了等,,,2015-10-05,1,,,,,ホクエイ,0
538,3040001086412,登記記録の閉鎖等,0,2025-03-24,2025-03-10,株式会社ｅケアサービス,,株式会社,千葉県,印西市,瀬戸７２１番地２,,12,231,2701614,,,2025-03-10,清算の結了等,,,2015-10-05,1,,,,,エーケアサービス,0
544,3050005010771,登記記録の閉鎖等,0,2025-03-24,2025-03-13,特定非営利活動法人シティメイトかしま,,その他の設立登記法人,茨城県,鹿嶋市,大字平井１２２８番地１３,,08,222,3140012,,,2025-03-13,清算の結了等,,,2015-10-05,1,,,,,シティメイトカシマ,0
545,3060001008323,登記記録の閉鎖等,0,2025-03-24,2025-03-04,株式会社住まい館,,株式会社,栃木県,那須烏山市,旭１丁目２１番１０号,,09,215,3210624,,,2025-03-04,合併による解散等,6040001052139,令和７年２月２１日千葉県君津市俵田１６３５番地ひらいホールディングス株式会社（6040001052139）に合併し解散,2015-10-05,1,,,,,スマイカン,0
546,3060002031258,登記記録の閉鎖等,0,2025-03-24,2025-03-18,有限会社ウッドハーモニー,,有限会社,東京都,練馬区,北町６丁目３２番３６号,,13,120,1790081,,,2025-03-18,合併による解散等,7050001040711,令和７年２月２８日茨城県つくば市東光台五丁目３番地株式会社ウッドラック（7050001040711）に合併し解散,2015-10-05,1,,,,,ウッドハーモニー,0
551,3070002020425,登記記録の閉鎖等,0,2025-03-24,2025-03-17,有限会社佐波浄化,,有限会社,群馬県,伊勢崎市,境米岡２９４番地,,10,204,3700131,,,2025-03-17,清算の結了等,,,2015-10-05,1,,,,,サバジョウカ,0
560,3110002033364,登記記録の閉鎖等,0,2025-03-24,2025-03-18,有限会社山源商店,,有限会社,新潟県,南魚沼市,六日町１１８６番地,,15,226,9496680,,,2025-03-18,清算の結了等,,,2015-10-05,1,,,,,ヤマゲンショウテン,0
572,3120002081511,登記記録の閉鎖等,0,2025-03-24,2025-03-17,株式会社エクスメディカル,,株式会社,大阪府,大阪市北区,角田町８番１号１７階,,27,127,5300017,,,2025-03-17,合併による解散等,2180301035015,令和７年３月１日愛知県安城市三河安城町一丁目８番地４株式会社ＭＣＳ（2180301035015）に合併し解散,2015-10-05,1,,,,,エクスメディカル,0
580,3130001020361,登記記録の閉鎖等,0,2025-03-24,2025-03-18,株式会社カンパーニャ,,株式会社,京都府,京都市中京区,壬生東桧町３番地,,26,104,6040000,,,2025-03-18,清算の結了等,,,2015-10-05,1,,,,,カンパーニャ,0
583,3140001029328,登記記録の閉鎖等,0,2025-03-24,2025-03-14,株式会社ＭＩＮＡＭＯ,,株式会社,兵庫県,神戸市東灘区,住吉宮町３丁目１３‐２４,,28,101,6580053,,,2025-03-14,清算の結了等,,,2015-10-05,1,,,,,ミナモ,0
603,3180001077018,登記記録の閉鎖等,0,2025-03-24,2025-03-14,株式会社アルゴ・インターナショナル,,株式会社,愛知県,春日井市,押沢台５丁目１３番地１,,23,206,4870005,,,2025-03-14,清算の結了等,,,2015-10-05,1,,,,,アルゴインターナショナル,0
606,3180001147258,登記記録の閉鎖等,0,2025-03-24,2025-03-14,株式会社ゴールデンハウス,,株式会社,愛知県,名古屋市中区,栄２丁目２番１号広小路伏見中駒ビル２Ｆー９,,23,106,4600008,,,2025-03-14,清算の結了等,,,2021-08-05,1,,,,,ゴールデンハウス,0
608,3180002069815,登記記録の閉鎖等,0,2025-03-24,2025-03-17,有限会社ファッションバッグウシダ,,有限会社,愛知県,小牧市,大字久保一色３１８２番地,,23,219,4850003,,,2025-03-17,清算の結了等,,,2015-10-05,1,,,,,ファッションバッグウシダ,0
616,3200002003498,登記記録の閉鎖等,0,2025-03-24,2025-03-11,有限会社日栄化成,,有限会社,岐阜県,岐阜市,次木６８１番地,,21,201,5016132,,,2025-03-11,清算の結了等,,,2015-10-05,1,,,,,ニチエイカセイ,0
617,3200002010164,登記記録の閉鎖等,0,2025-03-24,2025-03-18,有限会社ミノホーム,,有限会社,岐阜県,瑞穂市,宝江４２３番地１,,21,216,5010233,,,2025-03-18,清算の結了等,,,2015-10-05,1,,,,,ミノホーム,0
618,3200005002670,登記記録の閉鎖等,0,2025-03-24,2025-03-18,日月之宮天地の会,,その他の設立登記法人,岐阜県,岐阜市,柳津町大字佐波４４７８番地の１,,21,201,5000000,,,2025-03-18,清算の結了等,,,2015-10-05,1,,,,,,0
626,3240001059406,登記記録の閉鎖等,0,2025-03-24,2025-03-17,株式会社あおばメモリアル廿日市会館,,株式会社,広島県,廿日市市,宮内４４９１番地６,,34,213,7380034,,,2025-03-17,合併による解散等,9240001021681,令和７年３月１７日広島市中区堺町一丁目３番１６号あおばメモリアル株式会社（9240001021681）に合併し解散,2022-03-02,1,,,,,アオバメモリアルハツカイチカイカン,0
629,3260001004302,登記記録の閉鎖等,0,2025-03-24,2025-03-18,中国乳業株式会社,,株式会社,岡山県,岡山市東区,藤井１５５番地,,33,103,7038213,,,2025-03-18,合併による解散等,8120001040678,令和７年３月１日大阪市浪速区塩草二丁目９番５号日本酪農協同株式会社（8120001040678）に合併し解散,2015-10-05,1,,,,,チュウゴクニュウギョウ,0
643,3300001008133,登記記録の閉鎖等,0,2025-03-24,2025-03-18,ギャラリーフジヤマ株式会社,,株式会社,佐賀県,佐賀市,天神２丁目２番３３号,,41,201,8400815,,,2025-03-18,清算の結了等,,,2015-10-05,1,,,,,ギャラリーフジヤマ,0
649,3350001007568,登記記録の閉鎖等,0,2025-03-24,2025-03-17,株式会社ウッドデザイン,,株式会社,宮崎県,宮崎市,清武町加納甲１９９８番地１４,,45,201,8891605,,,2025-03-17,清算の結了等,,,2015-10-05,1,,,,,ウッドデザイン,0
663,3430001042490,登記記録の閉鎖等,0,2025-03-24,2025-03-12,株式会社桜井工業,,株式会社,北海道,江別市,あけぼの町１４番地の１１,,01,217,0670025,,,2025-03-12,清算の結了等,,,2015-10-05,1,,,,,サクライコウギョウ,0
666,3430001086348,登記記録の閉鎖等,0,2025-03-24,2025-02-28,株式会社ＡＣＮ北海道,,株式会社,北海道,札幌市中央区,大通西４丁目６番地１,,01,101,0600042,,,2025-02-28,合併による解散等,1010401166603,令和７年２月１日東京都港区芝大門二丁目２番１号株式会社ＡＣＮ東京（1010401166603）に合併し解散,2022-04-12,1,,,,,エーシーエヌホッカイドウ,0
669,3460301004774,登記記録の閉鎖等,0,2025-03-24,2025-03-19,ナチュラルジャパン株式会社,,株式会社,北海道,網走市,能取港町２丁目４番２号,,01,211,0930131,,,2025-03-19,合併による解散等,3380001011872,令和７年３月１日福島県石川郡石川町大字北山字矢津２２番地３株式会社ＳＤ科学（3380001011872）に合併し解散,2019-03-12,1,,,,,ナチュラルジャパン,0
680,4010001185876,登記記録の閉鎖等,0,2025-03-24,2025-03-18,株式会社ＣＪトラスト,,株式会社,東京都,墨田区,太平１丁目３番８－１００２号,,13,107,1300012,,,2025-03-18,清算の結了等,,,2017-09-07,1,,,,,シージェートラスト,0
689,4010401055423,登記記録の閉鎖等,0,2025-03-24,2025-03-03,アジアリング株式会社,,株式会社,東京都,港区,麻布台３丁目４番１１号,,13,103,1060041,,,2025-03-03,清算の結了等,,,2015-10-05,1,,,,,アジアリング,0
701,4010401173282,登記記録の閉鎖等,0,2025-03-24,2025-03-19,株式会社ＭＥＮＧ,,株式会社,東京都,江東区,北砂３丁目２８番１号不動コーポ３０３,,13,108,1360073,,,2025-03-19,清算の結了等,,,2023-03-27,1,,,,,モウ,0
707,4010505001744,登記記録の閉鎖等,0,2025-03-24,2025-03-11,一般社団法人隅田川有効活用推進協議会,,その他の設立登記法人,東京都,台東区,寿１丁目５番１０号,,13,106,1110042,,,2025-03-11,清算の結了等,,,2015-10-05,1,,,,,スミダガワユウコウカツヨウスイシンキョウギカイ,0
709,4010701022602,登記記録の閉鎖等,0,2025-03-24,2025-03-03,ライフ・サービス株式会社,,株式会社,東京都,品川区,大井１丁目４２番２号,,13,109,1400014,,,2025-03-03,清算の結了等,,,2015-10-05,1,,,,,ライフサービス,0
721,4011001073146,登記記録の閉鎖等,0,2025-03-24,2025-02-20,株式会社日本フォーサイトロボ,,株式会社,東京都,渋谷区,渋谷３丁目１２番１８号,,13,113,1500002,,,2025-02-20,清算の結了等,,,2015-10-05,1,,,,,ニホンフォーサイトロボ,0
732,4011101050251,登記記録の閉鎖等,0,2025-03-24,2025-03-07,株式会社ＣＲＯＳＳ,,株式会社,東京都,新宿区,歌舞伎町２丁目２２－８第八金嶋ビル４階Ｃ号室,,13,104,1600021,,,2025-03-07,清算の結了等,,,2015-10-05,1,,,,,クロス,0
737,4011302008602,登記記録の閉鎖等,0,2025-03-24,2025-03-19,有限会社満蒼,,有限会社,東京都,杉並区,宮前５丁目１３番１９号,,13,115,1680081,,,2025-03-19,清算の結了等,,,2015-10-05,1,,,,,マンソウ,0
750,4020001027342,登記記録の閉鎖等,0,2025-03-24,2025-03-06,株式会社大康水産貿易,,株式会社,神奈川県,横浜市中区,太田町２丁目２８番地大黒ビル２階,,14,104,2310011,,,2025-03-06,合併による解散等,3020001027475,令和７年３月１日横浜市中区太田町二丁目２８番地大洋食品株式会社（3020001027475）に合併し解散,2015-10-05,1,,,,,ダイコウスイサンボウエキ,0
754,4020002038347,登記記録の閉鎖等,0,2025-03-24,2025-03-17,有限会社三葉設備工業,,有限会社,神奈川県,横浜市鶴見区,獅子ケ谷１丁目３７番３５号,,14,101,2300073,,,2025-03-17,清算の結了等,,,2015-10-05,1,,,,,サンヨウセツビコウギョウ,0
782,4080102016684,登記記録の閉鎖等,0,2025-03-24,2025-03-17,有限会社光龍物産,,有限会社,静岡県,富士宮市,沼久保３９８番地,,22,207,4180036,,,2025-03-17,清算の結了等,,,2015-10-05,1,,,,,コウリュウブッサン,0
799,4120001221752,登記記録の閉鎖等,0,2025-03-24,2025-03-21,株式会社ディーサポ,,株式会社,大阪府,東大阪市,善根寺町５丁目１番１４号,,27,227,5798001,,,2025-03-21,清算の結了等,,,2019-06-14,1,,,,,ディーサポ,0
817,4130001008232,登記記録の閉鎖等,0,2025-03-24,2025-03-19,株式会社三協,,株式会社,京都府,京都市西京区,桂上野東町１５７番地,,26,111,6158003,,,2025-03-19,清算の結了等,,,2015-10-05,1,,,,,サンキョウ,0
830,4180001097015,登記記録の閉鎖等,0,2025-03-24,2025-03-14,東海フイルム加工株式会社,,株式会社,愛知県,弥富市,森津４丁目１８番地の６,,23,235,4980036,,,2025-03-14,合併による解散等,6180001044205,令和７年３月１４日名古屋市中区丸の内一丁目５番３９号株式会社ミツボシビル（6180001044205）に合併し解散,2015-10-05,1,,,,,トウカイフイルムカコウ,0
831,4180001105099,登記記録の閉鎖等,0,2025-03-24,2025-03-17,株式会社グローバルファーム,,株式会社,愛知県,名古屋市東区,葵２丁目３番２２号ハウスアベニュー１Ｆ,,23,102,4610004,,,2025-03-17,清算の結了等,,,2015-10-05,1,,,,,グローバルファーム,0
834,4180001148288,登記記録の閉鎖等,0,2025-03-24,2025-03-17,ＭＣＯＭＰＡＮＹ株式会社,,株式会社,愛知県,一宮市,木曽川町門間字西郷４９５番地２,,23,203,4930002,,,2025-03-17,清算の結了等,,,2021-10-13,1,,,,,エムカンパニー,0
837,4180003012442,登記記録の閉鎖等,0,2025-03-24,2025-03-17,合名会社共和金属製作所,,合名会社,愛知県,江南市,宮後町王塚１１２番地,,23,217,4838044,,,2025-03-17,清算の結了等,,,2015-10-05,1,,,,,キョウワキンゾクセイサクショ,0
840,4200001035293,登記記録の閉鎖等,0,2025-03-24,2025-03-21,オフィススギウラ株式会社,,株式会社,岐阜県,岐阜市,須賀３丁目１－２２ＳＳビル３０３,,21,201,5008289,,,2025-03-21,清算の結了等,,,2018-06-18,1,,,,,オフィススギウラ,0
842,4210003000798,登記記録の閉鎖等,0,2025-03-24,2025-03-14,合同会社ＴＫＤ,,合同会社,福井県,越前市,芝原５丁目１７番２１号,,18,209,9150805,,,2025-03-14,清算の結了等,,,2015-10-05,1,,,,,ティケイディ,0
846,4230002013163,登記記録の閉鎖等,0,2025-03-24,2025-03-18,有限会社民宿げんろく,,有限会社,富山県,氷見市,阿尾１７８番地１,,16,205,9350002,,,2025-03-18,清算の結了等,,,2015-10-05,1,,,,,ミンシュクゲンロク,0
851,4240003002899,登記記録の閉鎖等,0,2025-03-24,2025-03-21,合同会社田川保険事務所,,合同会社,広島県,広島市東区,光が丘２番７号,,34,102,7320051,,,2025-03-21,清算の結了等,,,2015-10-05,1,,,,,,0
854,4250002006941,登記記録の閉鎖等,0,2025-03-24,2025-03-21,有限会社ワンステップ,,有限会社,山口県,宇部市,島３丁目６番８号,,35,202,7550047,,,2025-03-21,清算の結了等,,,2015-10-05,1,,,,,ワンステップ,0
864,4290801018893,登記記録の閉鎖等,0,2025-03-24,2025-03-21,株式会社みつば不動産,,株式会社,福岡県,北九州市小倉北区,木町４丁目１３番１３－２０１号,,40,106,8030851,,,2025-03-21,清算の結了等,,,2015-10-05,1,,,,,ミツバフドウサン,0
883,4370101001170,登記記録の閉鎖等,0,2025-03-24,2025-03-13,株式会社ヒシダイ,,株式会社,宮城県,角田市,角田字田町８２番地１３,,04,208,9811505,,,2025-03-13,清算の結了等,,,2015-10-05,1,,,,,ヒシダイ,0
898,4430001024942,登記記録の閉鎖等,0,2025-03-24,2025-03-21,株式会社アスト・ジャパン,,株式会社,北海道,札幌市北区,新川一条５丁目１番８号,,01,102,0010921,,,2025-03-21,清算の結了等,,,2015-10-05,1,,,,,アストジャパン,0
899,4430001045071,登記記録の閉鎖等,0,2025-03-24,2025-03-19,株式会社イー・モーション,,株式会社,北海道,札幌市西区,琴似四条５丁目３番１－６０２号,,01,107,0630814,,,2025-03-19,清算の結了等,,,2015-10-05,1,,,,,イーモーション,0
906,4460102001053,登記記録の閉鎖等,0,2025-03-24,2025-03-18,げんきの子園有限会社,,有限会社,北海道,河西郡芽室町,東芽室北１線２５番地,,01,637,0820004,,,2025-03-18,清算の結了等,,,2015-10-05,1,,,,,ゲンキノコエン,0
909,4500002004300,登記記録の閉鎖等,0,2025-03-24,2025-03-18,有限会社辰已商事,,有限会社,愛媛県,松山市,南斎院町１３３８番地５２,,38,201,7918032,,,2025-03-18,清算の結了等,,,2015-10-05,1,,,,,タツミショウジ,0
912,5010001195486,登記記録の閉鎖等,0,2025-03-24,2025-03-07,ダンハンビー・三井物産カスタマーサイエンス株式会社,,株式会社,東京都,千代田区,麹町３丁目１番ＫＯＪＩＭＡＣＨＩＴＥＲＲＡＣＥ４Ｆ,,13,101,1020083,,,2025-03-07,清算の結了等,,,2018-10-15,1,,,,,ダンハンビーミツイブッサンカスタマーサイエンス,0
922,5010401172622,登記記録の閉鎖等,0,2025-03-24,2025-03-17,株式会社ＯＮＥ,,株式会社,東京都,杉並区,松ノ木３丁目２３番１０号サットンプレイス・ＳＫ１０１号室,,13,115,1660014,,,2025-03-17,清算の結了等,,,2023-02-21,1,,,,,ワン,0
928,5010601010375,登記記録の閉鎖等,0,2025-03-24,2025-03-21,株式会社カメラの八咫,,株式会社,東京都,墨田区,業平２丁目１７番７号,,13,107,1300002,,,2025-03-21,清算の結了等,,,2015-10-05,1,,,,,,0
960,5012701017184,登記記録の閉鎖等,0,2025-03-24,2025-03-17,株式会社Ｃ＆Ｃパートナーズ,,株式会社,東京都,西東京市,住吉町４丁目１７番１３号,,13,229,2020005,,,2025-03-17,清算の結了等,,,2022-08-04,1,,,,,シーアンドシーパートナーズ,0
963,5013301049460,登記記録の閉鎖等,0,2025-03-24,2025-03-11,琥珀株式会社,,株式会社,東京都,豊島区,高田３丁目３番２２－１０３号,,13,116,1710033,,,2025-03-11,清算の結了等,,,2022-08-02,1,,,,,コハク,0
970,5021001035870,登記記録の閉鎖等,0,2025-03-24,2025-03-21,バーディスＴ株式会社,,株式会社,神奈川県,鎌倉市,岡本２丁目１番１７号,,14,204,2470072,,,2025-03-21,清算の結了等,,,2015-10-05,1,,,,,,0
979,5021005008724,登記記録の閉鎖等,0,2025-03-24,2025-03-18,ＮＰＯ法人高齢者賃貸住宅等を支援推進する会,,その他の設立登記法人,神奈川県,相模原市南区,東大沼４丁目１８番５４号,,14,153,2520333,,,2025-03-18,清算の結了等,,,2015-10-05,1,,,,,コウレイシャチンタイジュウタクナドヲシエンスイシンスルカイ,0
1004,5050003002587,登記記録の閉鎖等,0,2025-03-24,2025-03-13,合同会社ひまわりハウス,,合同会社,茨城県,筑西市,幸町３丁目３１番２号北棟１階,,08,227,3080848,,,2025-03-13,清算の結了等,,,2015-10-05,1,,,,,ヒマワリハウス,0
1021,5110001004554,登記記録の閉鎖等,0,2025-03-24,2025-03-19,野崎印刷株式会社,,株式会社,新潟県,新潟市中央区,二葉町２丁目５１６６番地,,15,103,9518102,,,2025-03-19,清算の結了等,,,2015-10-05,1,,,,,ノザキインサツ,0
1042,5150003001414,登記記録の閉鎖等,0,2025-03-24,2025-02-26,合同会社ブルーリバー,,合同会社,奈良県,奈良市,北向町１２番地の３,,29,201,6308232,,,2025-02-26,合併による解散等,6150003001586,令和７年２月１８日奈良市北向町１２番地の３合同会社東風（6150003001586）に合併し解散,2016-01-27,1,,,,,ブルーリバー,0
1050,5180003000826,登記記録の閉鎖等,0,2025-03-24,2025-03-17,合同会社中橋商店,,合同会社,愛知県,名古屋市緑区,鳴海町字長田５２番地,,23,114,4580801,,,2025-03-17,清算の結了等,,,2015-10-05,1,,,,,ナカハシショウテン,0
1075,5250001003344,登記記録の閉鎖等,0,2025-03-24,2025-03-18,株式会社千粋,,株式会社,山口県,宇部市,中央町１丁目７－２５,,35,202,7550045,,,2025-03-18,清算の結了等,,,2015-10-05,1,,,,,センスイ,0
1100,5310003003939,登記記録の閉鎖等,0,2025-03-24,2025-03-17,サマー・ロイス合同会社,,合同会社,長崎県,島原市,浦田２丁目６２７番地５,,42,203,8550817,,,2025-03-17,清算の結了等,,,2020-10-20,1,,,,,サマーロイス,0
1101,5310005003210,登記記録の閉鎖等,0,2025-03-24,2025-03-03,天理教上長崎分教会,00096375,その他の設立登記法人,長崎県,西海市,崎戸町蠣浦郷１６６８番地の１,,42,212,8573101,,,2025-03-03,合併による解散等,3150005005365,令和７年２月２１日奈良県橿原市雲梯町５６５番地の１天理教高橋分教会（3150005005365）に合併し解散,2015-10-05,1,,,,,テンリキョウカミナガサキブンキョウカイ,0
1102,5320002007320,登記記録の閉鎖等,0,2025-03-24,2025-03-21,株式会社ラ・ムール,,株式会社,大分県,大分市,東春日町８番１１号,,44,201,8700037,,,2025-03-21,清算の結了等,,,2015-10-05,1,,,,,ラムール,0
1112,5370003003677,登記記録の閉鎖等,0,2025-03-24,2025-03-17,合同会社Ｓｐｒｉｎｇ,,合同会社,宮城県,仙台市泉区,高森８丁目４番地の４,,04,105,9813203,,,2025-03-17,清算の結了等,,,2016-12-26,1,,,,,スプリング,0
1113,5370202004939,登記記録の閉鎖等,0,2025-03-24,2025-03-17,有限会社三浦工業,,有限会社,宮城県,栗原市,志波姫刈敷治郎１４４番地,,04,213,9895601,,,2025-03-17,清算の結了等,,,2015-10-05,1,,,,,ミウラコウギョウ,0
1128,6010001032366,登記記録の閉鎖等,0,2025-03-24,2025-03-07,株式会社レッツ,,株式会社,東京都,千代田区,神田駿河台２丁目５番地,,13,101,1010062,,,2025-03-07,清算の結了等,,,2015-10-05,1,,,,,レッツ,0
1140,6010001244036,登記記録の閉鎖等,0,2025-03-24,2025-03-10,株式会社ＥＮＴｓ　Ｌａｂ．,,株式会社,東京都,中央区,日本橋室町３丁目３番１号,,13,102,1030022,,,2025-03-10,清算の結了等,,,2024-04-17,1,,,,,イーエヌティーラボ,0
1176,6011501027558,登記記録の閉鎖等,0,2025-03-24,2025-03-13,株式会社ＰＲＩＳＫＡ　ＣＯＲＰＯＲＡＴＩＯＮ,,株式会社,東京都,荒川区,西日暮里６丁目３４番２－３０１号古市ビル,,13,118,1160013,,,2025-03-13,清算の結了等,,,2021-12-09,1,,,,,プリスカコーポレーション,0
1199,6021001044879,登記記録の閉鎖等,0,2025-03-24,2025-03-19,エイチアンドエイチソリューションズ株式会社,,株式会社,神奈川県,小田原市,中里７番地の３８,,14,206,2500872,,,2025-03-19,清算の結了等,,,2015-10-05,1,,,,,エイチアンドエイチソリューションズ,0
1206,6030001083770,登記記録の閉鎖等,0,2025-03-24,2025-03-14,株式会社メルモ,,株式会社,山口県,岩国市,多田１１９８－５,,35,208,7410092,,,2025-03-14,清算の結了等,,,2015-10-05,1,,,,,メルモ,0
1234,6080401005535,登記記録の閉鎖等,0,2025-03-24,2025-03-14,ヤマサン株式会社,,株式会社,静岡県,浜松市中央区,有玉西町２４１４番地の１６,,22,138,4313123,,,2025-03-14,清算の結了等,,,2015-10-05,1,,,,,ヤマサン,0
1268,6140002027055,登記記録の閉鎖等,0,2025-03-24,2025-03-11,有限会社エスケイケイ,,有限会社,大阪府,大阪市西淀川区,大和田６丁目１０番２４号,,27,113,5550032,,,2025-03-11,清算の結了等,,,2015-10-05,1,,,,,エスケイケイ,0
1269,6140003017930,登記記録の閉鎖等,0,2025-03-24,2025-03-13,合同会社Ｅｔｏｉｌｅ　ＩＰ,,合同会社,兵庫県,川西市,花屋敷２丁目９番３号,,28,217,6660035,,,2025-03-13,清算の結了等,,,2022-07-22,1,,,,,エトワールアイピー,0
1276,6180002019800,登記記録の閉鎖等,0,2025-03-24,2025-03-14,有限会社吉田鉄工所,00072964,有限会社,愛知県,名古屋市港区,当知３丁目１５０１番地,,23,111,4550804,,,2025-03-14,清算の結了等,,,2015-10-05,1,,,,,ヨシダテッコウショ,0
1289,6240001029810,登記記録の閉鎖等,0,2025-03-24,2025-03-19,株式会社アンゼン,,株式会社,広島県,福山市,北吉津町４丁目５番２号,,34,207,7200073,,,2025-03-19,清算の結了等,,,2015-10-05,1,,,,,アンゼン,0
1302,6290005000746,登記記録の閉鎖等,0,2025-03-24,2025-02-21,天理教水源分教会,,その他の設立登記法人,福岡県,福岡市早良区,大字石釜１２１８番地,,40,137,8111132,,,2025-02-21,合併による解散等,4290005000426,令和７年２月２１日福岡市西区小戸四丁目４番５号天理教福岡分教会（4290005000426）に合併し解散,2015-10-05,1,,,,,テンリキョウスイゲンブンキョウカイ,0
1313,6350002002128,登記記録の閉鎖等,0,2025-03-24,2025-03-19,有限会社シオザワ設計,,有限会社,宮崎県,宮崎市,新別府町江田原４８番地８,,45,201,8800834,,,2025-03-19,清算の結了等,,,2015-10-05,1,,,,,シオザワセッケイ,0
1322,6370005003006,登記記録の閉鎖等,0,2025-03-24,2025-03-10,特定非営利活動法人新現役生活,,その他の設立登記法人,宮城県,仙台市宮城野区,白鳥２丁目１番１０号,,04,102,9830006,,,2025-03-10,清算の結了等,,,2015-10-05,1,,,,,シンゲンエキセイカツ,0
1326,6380001005244,登記記録の閉鎖等,0,2025-03-24,2025-03-07,株式会社ケーディー,,株式会社,東京都,文京区,小石川３丁目３５番１３号,,13,105,1120002,,,2025-03-07,清算の結了等,,,2015-10-05,1,,,,,ケーディー,0
1357,7010401150816,登記記録の閉鎖等,0,2025-03-24,2025-03-11,株式会社ナリナル,,株式会社,東京都,中央区,銀座７丁目１３－２０銀座ＴＨビル９Ｆ,,13,102,1040061,,,2025-03-11,清算の結了等,,,2020-02-04,1,NaLyNaLu Inc.,,,,ナリナル,0
1365,7010403033234,登記記録の閉鎖等,0,2025-03-24,2025-03-03,合同会社ななつつ,,合同会社,東京都,港区,麻布十番２丁目２－５－３０１,,13,103,1060045,,,2025-03-03,清算の結了等,,,2024-08-19,1,,,,,ナナツツ,0
1380,7011005006776,登記記録の閉鎖等,0,2025-03-24,2025-02-20,一般社団法人レモネードスタンド普及協会,,その他の設立登記法人,東京都,渋谷区,恵比寿４丁目２０番１号,,13,113,1500013,,,2025-02-20,清算の結了等,,,2016-05-17,1,,,,,レモネードスタンドフキュウキョウカイ,0
1382,7011101101745,登記記録の閉鎖等,0,2025-03-24,2025-03-07,ＭＪ企画株式会社,,株式会社,東京都,新宿区,神楽坂６丁目７６番地,,13,104,1620825,,,2025-03-07,清算の結了等,,,2023-02-14,1,,,,,エムジェイキカク,0
1400,7012702001474,登記記録の閉鎖等,0,2025-03-24,2025-03-17,有限会社白水タイル,,有限会社,東京都,小平市,津田町３丁目３７番４号,,13,211,1870025,,,2025-03-17,清算の結了等,,,2015-10-05,1,,,,,シラミズタイル,0
1440,7100001022869,登記記録の閉鎖等,0,2025-03-24,2025-03-13,株式会社サン・テクニカル・ゴルフ,,株式会社,長野県,下伊那郡喬木村,８６０９番地１,,20,415,3951100,,,2025-03-13,清算の結了等,,,2015-10-05,1,,,,,サンテクニカルゴルフ,0
1451,7120101047665,登記記録の閉鎖等,0,2025-03-24,2025-03-10,株式会社大久保建設,,株式会社,大阪府,和泉市,井ノ口町３番２号,,27,219,5940072,,,2025-03-10,清算の結了等,,,2015-10-05,1,,,,,オオクボケンセツ,0
1458,7130002032798,登記記録の閉鎖等,0,2025-03-24,2025-03-19,ヒロキ金物有限会社,,有限会社,京都府,福知山市,字裏ノ１０番地,,26,201,6200000,,,2025-03-19,清算の結了等,,,2015-10-05,1,,,,,,0
1466,7140003009670,登記記録の閉鎖等,0,2025-03-24,2025-03-07,株式会社ネクストワンミカエルリリース,,株式会社,東京都,中央区,日本橋２丁目１番１７号２Ｆトリエル東京,,13,102,1030027,,,2025-03-07,清算の結了等,,,2015-10-05,1,,,,,ネクストワンミカエルリリース,0
1476,7180002031374,登記記録の閉鎖等,0,2025-03-24,2025-03-17,有限会社ステップ,,有限会社,愛知県,名古屋市中区,栄４丁目１７番２４号,,23,106,4600008,,,2025-03-17,清算の結了等,,,2015-10-05,1,,,,,ステップ,0
1484,7200002018922,登記記録の閉鎖等,0,2025-03-24,2025-03-19,有限会社九十九商事,,有限会社,岐阜県,関市,肥田瀬２１９７番地,,21,205,5013911,,,2025-03-19,清算の結了等,,,2015-10-05,1,,,,,ツクモショウジ,0
1485,7200003004533,登記記録の閉鎖等,0,2025-03-24,2025-03-12,合同会社Ｌｉｎｌｉｎ,,合同会社,岐阜県,揖斐郡大野町,大字五之里７４３番地２,,21,403,5010554,,,2025-03-12,清算の結了等,,,2019-07-12,1,,,,,リンリン,0
1495,7270005002669,登記記録の閉鎖等,0,2025-03-24,2025-03-21,農事組合法人北村生産組合,,その他の設立登記法人,鳥取県,鳥取市,北村１０９番地,,31,201,6801172,,,2025-03-21,清算の結了等,,,2015-10-05,1,,,,,キタムラセイサンクミアイ,0
1498,7280003001077,登記記録の閉鎖等,0,2025-03-24,2025-03-21,合同会社Ｌｉｎｋｉ,,合同会社,島根県,松江市,古志原１丁目６番１号,,32,201,6900012,,,2025-03-21,清算の結了等,,,2016-03-23,1,,,,,リンキィ,0
1510,7360005006462,登記記録の閉鎖等,0,2025-03-24,2025-03-18,ＮＰＯ法人育夢舎ランニングクラブ,,その他の設立登記法人,沖縄県,那覇市,字小禄４７番地－２Ｆ,,47,201,9010152,,,2025-03-18,清算の結了等,,,2021-06-21,1,,,,,イクムシャランニングクラブ,0
1511,7370001021530,登記記録の閉鎖等,0,2025-03-24,2025-03-05,株式会社ゼネラルスタッフ第二,,株式会社,宮城県,仙台市太白区,あすと長町１丁目６番３７号,,04,104,9820007,,,2025-03-05,合併による解散等,6110001027934,令和７年３月１日新潟市西区小新五丁目６番９号株式会社ゼネラルスタッフ第一（6110001027934）に合併し解散,2015-10-05,1,,,,,ゼネラルスタッフダイニ,0
1512,7370001044936,登記記録の閉鎖等,0,2025-03-24,2025-03-13,株式会社建部商会,,株式会社,宮城県,亘理郡亘理町,荒浜字我妻３８番地１,,04,361,9892311,,,2025-03-13,清算の結了等,,,2019-10-04,1,,,,,タケベショウカイ,0
1513,7370002015168,登記記録の閉鎖等,0,2025-03-24,2025-03-10,有限会社アトミ不動産,,有限会社,宮城県,仙台市太白区,鹿野２丁目１６番１２号,,04,104,9820023,,,2025-03-10,清算の結了等,,,2015-10-05,1,,,,,アトミフドウサン,0
1523,7430001063013,登記記録の閉鎖等,0,2025-03-24,2025-03-03,株式会社ＦＤＳ,,株式会社,北海道,札幌市東区,北九条東８丁目１番１　５０１号,,01,103,0650009,,,2025-03-03,合併による解散等,2430003009051,令和７年３月１日札幌市東区北九条東八丁目１番１　５０１号オチアス合同会社（2430003009051）に合併し解散,2015-10-05,1,,,,,エフディーエス,0
1562,8010505001674,登記記録の閉鎖等,0,2025-03-24,2025-03-11,全国住宅生活協同組合連合会,,その他の設立登記法人,東京都,台東区,浅草橋１丁目３５番７号,,13,106,1110053,,,2025-03-11,清算の結了等,,,2015-10-05,1,,,,,ゼンコクジュウタクセイカツ,0
1565,8010602023605,登記記録の閉鎖等,0,2025-03-24,2025-03-21,有限会社八咫,,有限会社,東京都,墨田区,業平２丁目１７番７号,,13,107,1300002,,,2025-03-21,清算の結了等,,,2015-10-05,1,,,,,,0
1574,8011001017033,登記記録の閉鎖等,0,2025-03-24,2025-02-20,株式会社西山自動車整備工場,,株式会社,東京都,渋谷区,本町５丁目２９番１２号,,13,113,1510071,,,2025-02-20,清算の結了等,,,2015-10-05,1,,,,,ニシヤマジドウシャセイビコウジョウ,0
1607,8011803004014,登記記録の閉鎖等,0,2025-03-24,2025-02-28,ニューエネルギーマネジメント合同会社,,合同会社,東京都,千代田区,神田神保町１丁目１８番１号千石屋ビル２０１号室,,13,101,1010051,,,2025-02-28,清算の結了等,,,2020-02-17,1,,,,,ニューエネルギーマネジメント,0
1611,8013301046117,登記記録の閉鎖等,0,2025-03-24,2025-03-11,ケミカルアウト株式会社,,株式会社,東京都,豊島区,南大塚１丁目４６番２３－２０３号,,13,116,1700005,,,2025-03-11,清算の結了等,,,2020-08-24,1,,,,,ケミカルアウト,0
1613,8013301049210,登記記録の閉鎖等,0,2025-03-24,2025-03-12,株式会社ＷＯＲＬＤ　ＰＬＡＹ,,株式会社,東京都,豊島区,西池袋５丁目４番１号,,13,116,1710021,,,2025-03-12,清算の結了等,,,2022-06-07,1,,,,,ワールドプレイ,0
1618,8013402000848,登記記録の閉鎖等,0,2025-03-24,2025-03-06,有限会社多摩薬局,,有限会社,東京都,日野市,日野本町３丁目１２番地の１０,,13,212,1910011,,,2025-03-06,清算の結了等,,,2023-12-08,1,,,,,タマヤッキョク,0
1623,8020001145842,登記記録の閉鎖等,0,2025-03-24,2025-02-27,株式会社Ｈｏｍｉｒａｃｌｅ,,株式会社,神奈川県,横浜市中区,相生町３丁目６０泰生ビル３Ｆ,,14,104,2310012,,,2025-02-27,清算の結了等,,,2022-03-30,1,,,,,ホミラクル,0
1626,8020003010945,登記記録の閉鎖等,0,2025-03-24,2025-03-10,合同会社ミレニアムキタノ,,合同会社,神奈川県,横浜市磯子区,汐見台３丁目７番地１,,14,107,2350022,,,2025-03-10,清算の結了等,,,2016-02-15,1,,,,,ミレニアムキタノ,0
1628,8020005002718,登記記録の閉鎖等,0,2025-03-24,2025-03-07,宗教法人自修院,,その他の設立登記法人,神奈川県,横浜市緑区,三保町２６６２番,,14,113,2260015,,,2025-03-07,清算の結了等,,,2015-10-05,1,,,,,ジシュウイン,0
1644,8040001055189,登記記録の閉鎖等,0,2025-03-24,2025-03-10,君塚建設株式会社,,株式会社,千葉県,市原市,菊間１３７４番地５,,12,219,2900007,,,2025-03-10,清算の結了等,,,2021-07-09,1,,,,,キミヅカケンセツ,0
1655,8080001020718,登記記録の閉鎖等,0,2025-03-24,2025-03-03,ウィズ・インターナショナル株式会社,,株式会社,静岡県,静岡市葵区,千代田３丁目１１番２３号,,22,101,4200803,,,2025-03-03,合併による解散等,7080001022228,　令和７年３月１日静岡市葵区沓谷五丁目６番地２ウィズ・ホールディングス株式会社（7080001022228）に合併し解散,2016-01-25,1,,,,,ウィズインターナショナル,0
1674,8120101057837,登記記録の閉鎖等,0,2025-03-24,2025-03-10,ＳＧ工建株式会社,,株式会社,大阪府,泉北郡忠岡町,忠岡東１丁目１６番１号２Ｆ,,27,341,5950805,,,2025-03-10,清算の結了等,,,2018-02-23,1,,,,,エスジーコウケン,0
1688,8140001078238,登記記録の閉鎖等,0,2025-03-24,2025-03-17,北尾建設株式会社,,株式会社,兵庫県,伊丹市,瑞穂町３丁目９番地,,28,207,6640013,,,2025-03-17,清算の結了等,,,2015-10-05,1,,,,,キタオケンセツ,0
1699,8180001150736,登記記録の閉鎖等,0,2025-03-24,2025-02-28,株式会社ＡＣＮ東海,,株式会社,愛知県,名古屋市中区,錦１丁目４番６号,,23,106,4600003,,,2025-02-28,合併による解散等,1010401166603,令和７年２月１日東京都港区芝大門二丁目２番１号株式会社ＡＣＮ東京（1010401166603）に合併し解散,2022-04-14,1,,,,,エーシーエヌトウカイ,0
1703,8180002017678,登記記録の閉鎖等,0,2025-03-24,2025-03-13,有限会社小川商店,,有限会社,愛知県,名古屋市中川区,露橋１丁目１４番３号,,23,110,4540022,,,2025-03-13,清算の結了等,,,2015-10-05,1,,,,,オガワショウテン,0
1709,8200001035802,登記記録の閉鎖等,0,2025-03-24,2025-03-21,株式会社ｌａｂｏ,,株式会社,岐阜県,岐阜市,三歳町４丁目１番地１１,,21,201,5008335,,,2025-03-21,清算の結了等,,,2018-12-19,1,,,,,,0
1710,8200001040455,登記記録の閉鎖等,0,2025-03-24,2025-03-19,株式会社Ｓｍｉｌｅ　Ｌａｎ,,株式会社,岐阜県,多治見市,美坂町１丁目３４番地,,21,204,5070803,,,2025-03-19,清算の結了等,,,2022-09-20,1,,,,,スマイルラン,0
1714,8230001006214,登記記録の閉鎖等,0,2025-03-24,2025-03-17,株式会社ニッショウコーポレーション,,株式会社,富山県,富山市,野口３９１番地Ｍ－２ビル,,16,201,9300173,,,2025-03-17,清算の結了等,,,2015-10-05,1,,,,,ニッショウコーポレーション,0
1726,8280002005417,登記記録の閉鎖等,0,2025-03-24,2025-03-14,有限会社くすりのファミリア,,有限会社,島根県,出雲市,渡橋町９８６番地１,,32,203,6930004,,,2025-03-14,合併による解散等,4290802007012,令和７年３月１日北九州市小倉南区下石田一丁目２番５号株式会社レーベル薬局（4290802007012）に合併し解散,2015-10-05,1,,,,,クスリノファミリア,0
1737,8340002000337,登記記録の閉鎖等,0,2025-03-24,2025-03-17,有限会社協同建工,,有限会社,鹿児島県,鹿児島市,入佐町８４０番地,,46,201,8992706,,,2025-03-17,清算の結了等,,,2015-10-05,1,,,,,,0
1751,8430002063110,登記記録の閉鎖等,0,2025-03-24,2025-03-18,有限会社ヒラガ産業,,有限会社,北海道,沙流郡平取町,本町１０３番地６７,,01,602,0550107,,,2025-03-18,清算の結了等,,,2015-10-05,1,,,,,ヒラガサンギョウ,0
1754,8470002000150,登記記録の閉鎖等,0,2025-03-24,2025-03-19,有限会社大一石材工業,,有限会社,香川県,高松市,庵治町１１４番地第２,,37,201,7610130,,,2025-03-19,清算の結了等,,,2015-10-05,1,,,,,ダイイチセキザイコウギョウ,0
1773,9010001216998,登記記録の閉鎖等,0,2025-03-24,2025-03-13,Ａｎｙｓｏｆｔ株式会社,,株式会社,東京都,北区,赤羽１丁目７－９赤羽第一葉山ビル４Ｆ,,13,117,1150045,,,2025-03-13,清算の結了等,,,2021-04-02,1,,,,,エニイソフト,0
1786,9010401154699,登記記録の閉鎖等,0,2025-03-24,2025-03-03,ＰＳＴ　ｉｎｔｅｒｎａｔｉｏｎａｌ株式会社,,株式会社,東京都,港区,六本木７丁目６番２号１階,,13,103,1060032,,,2025-03-03,合併による解散等,1010401126540,令和７年３月１日東京都港区東麻布一丁目２４番６号ＴＫａｄｖａｎｃｅ株式会社（1010401126540）に合併し解散,2020-08-21,1,,,,,ピーエスティーインターナショナル,0
1787,9010401186692,登記記録の閉鎖等,0,2025-03-24,2025-02-17,カントビホールディングス株式会社,,株式会社,東京都,港区,西新橋２丁目８番６号,,13,103,1050003,,,2025-02-17,合併による解散等,6010401178338,令和７年２月１７日東京都港区西新橋二丁目８番６号ニューブリッジ８株式会社（6010401178338）に合併して解散,2024-11-28,1,,,,,カントビホールディングス,0
1792,9010403026558,登記記録の閉鎖等,0,2025-03-24,2025-03-19,合同会社グリーンパワー深浦ホールディングス,,合同会社,東京都,港区,赤坂１丁目１１番地４４号赤坂インターシティ,,13,103,1070052,,,2025-03-19,合併による解散等,1420003002058,令和７年３月５日青森県西津軽郡深浦町大字風合瀬字上砂子川１４４番地８９合同会社グリーンパワー深浦（1420003002058）に合併し解散,2021-12-20,1,,,,,グリーンパワーフカウラホールディングス,0
1816,9011003012147,登記記録の閉鎖等,0,2025-03-24,2025-02-20,合同会社ＳＴ所沢,,合同会社,東京都,目黒区,洗足２丁目１６番１９号,,13,110,1520012,,,2025-02-20,清算の結了等,,,2021-01-20,1,,,,,エスティートコロザワ,0
1818,9011003016271,登記記録の閉鎖等,0,2025-03-24,2025-02-20,１合同会社,,合同会社,東京都,渋谷区,渋谷２丁目１９番１５号宮益坂ビルディング６０９,,13,113,1500002,,,2025-02-20,清算の結了等,,,2023-02-14,1,,,,,イチ,0
1829,9011202007591,登記記録の閉鎖等,0,2025-03-24,2025-03-21,有限会社まごころ介護支援サービスセンター,,有限会社,東京都,中野区,中野５丁目２４番１６号,,13,114,1640001,,,2025-03-21,清算の結了等,,,2015-10-05,1,,,,,マゴコロカイゴシエンサービスセンター,0
1830,9011501003176,登記記録の閉鎖等,0,2025-03-24,2025-03-07,株式会社藤工,,株式会社,埼玉県,さいたま市浦和区,常盤５丁目１番２２号,,11,107,3300061,,,2025-03-07,清算の結了等,,,2015-10-05,1,,,,,フジコウ,0
1875,9070005006127,登記記録の閉鎖等,0,2025-03-24,2025-03-04,天理教強戸分教会,,その他の設立登記法人,群馬県,太田市,強戸町９６２番地,,10,205,3730004,,,2025-03-04,合併による解散等,7070005006228,令和７年３月４日群馬県太田市尾島町３９０番地の１天理教尾島分教会（7070005006228）に合併し解散,2015-10-05,1,,,,,テンリキョウゴウドブンキョウカイ,0
1890,9120002055311,登記記録の閉鎖等,0,2025-03-24,2025-03-18,総合会計有限会社,,有限会社,大阪府,大阪市淀川区,西中島４丁目４番２５号,,27,123,5320011,,,2025-03-18,清算の結了等,,,2015-10-05,1,,,,,ソウゴウカイケイ,0
1898,9120102016246,登記記録の閉鎖等,0,2025-03-24,2025-03-18,有限会社ケーワイオフィス,,有限会社,大阪府,大阪狭山市,茱萸木７丁目１３５８番地の４,00046969,27,231,5890013,,,2025-03-18,清算の結了等,,,2015-10-05,1,,,,,ケーワイオフィス,0
1908,9140001093236,登記記録の閉鎖等,0,2025-03-24,2025-03-14,株式会社ランドマーク・パートナーズ,,株式会社,兵庫県,姫路市,西二階町５９番地,,28,201,6700901,,,2025-03-14,清算の結了等,,,2015-10-05,1,,,,,ランドマークパートナーズ,0
1913,9140003013464,登記記録の閉鎖等,0,2025-03-24,2025-03-17,合同会社農価本店,,合同会社,兵庫県,朝来市,山東町越田１３７番地,,28,225,6695142,,,2025-03-17,清算の結了等,,,2018-11-19,1,,,,,ノウカホンテン,0
1916,9160001018793,登記記録の閉鎖等,0,2025-03-24,2025-03-18,株式会社プラムパートナーズ,,株式会社,滋賀県,近江八幡市,鷹飼町東２丁目１２番地１,,25,204,5230897,,,2025-03-18,清算の結了等,,,2015-10-05,1,,,,,プラムパートナーズ,0
1918,9180001028007,登記記録の閉鎖等,0,2025-03-24,2025-03-17,株式会社協伸精機,,株式会社,愛知県,名古屋市緑区,浦里３丁目２１５番地２,,23,114,4580847,,,2025-03-17,清算の結了等,,,2015-10-05,1,,,,,キョウシンセイキ,0
1919,9180001108329,登記記録の閉鎖等,0,2025-03-24,2025-03-17,株式会社ＯＫＳＲ,,株式会社,愛知県,瀬戸市,萩山台９丁目２１８番地の１,,23,204,4890886,,,2025-03-17,清算の結了等,,,2015-10-05,1,,,,,オーケイエスアール,0
1923,9180001138549,登記記録の閉鎖等,0,2025-03-24,2025-03-17,株式会社ＺＥＵＳＥＳ,,株式会社,愛知県,名古屋市千種区,松軒１丁目１番１８号,,23,101,4640084,,,2025-03-17,清算の結了等,,,2019-10-18,1,,,,,ゼウセス,0
1927,9180002008825,登記記録の閉鎖等,0,2025-03-24,2025-03-17,有限会社まると屋,,有限会社,愛知県,名古屋市昭和区,鶴舞３丁目２１番１７号,,23,107,4660064,,,2025-03-17,清算の結了等,,,2015-10-05,1,,,,,マルトヤ,0
1936,9280002000986,登記記録の閉鎖等,0,2025-03-24,2025-03-21,有限会社サンドライ,,有限会社,島根県,松江市,春日町３２１番地,,32,201,6900877,,,2025-03-21,清算の結了等,,,2015-10-05,1,,,,,サンドライ,0
1937,9280002001035,登記記録の閉鎖等,0,2025-03-24,2025-03-14,有限会社島根県森産業,,有限会社,島根県,松江市,母衣町５５番地,,32,201,6900886,,,2025-03-14,清算の結了等,,,2015-10-05,1,,,,,シマネケンモリサンギョウ,0
1962,9420005007106,登記記録の閉鎖等,0,2025-03-24,2025-03-11,特定非営利活動法人ういむい未来の里ＣＳＯ,,その他の設立登記法人,青森県,青森市,松原３丁目１９番１号,,02,201,0300813,,,2025-03-11,清算の結了等,,,2015-10-05,1,,,,,ウイムイミライノサトシーエスオー,0
1963,9430001004502,登記記録の閉鎖等,0,2025-03-24,2025-03-21,株式会社ギミック,,株式会社,北海道,札幌市西区,発寒六条９丁目３番１号,,01,107,0630826,,,2025-03-21,清算の結了等,,,2015-10-05,1,,,,,,0
1966,9430001039176,登記記録の閉鎖等,0,2025-03-24,2025-03-06,株式会社マルタカヒーリングジャパン,,株式会社,東京都,中央区,銀座６丁目１６番１２号,,13,102,1040061,,,2025-03-06,清算の結了等,,,2015-10-05,1,,,,,,0
