sequenceNumber,corporateNumber,process,correct,updateDate,changeDate,name,nameImageId,kind,prefectureName,cityName,streetNumber,addressImageId,prefectureCode,cityCode,postCode,addressOutside,addressOutsideImageId,closeDate,closeCause,successorCorporateNumber,changeCause,assignmentDate,latest,enName,enPrefectureName,enCityName,enAddressOutside,furigana,hihyoji
4,1010001242390,登記記録の閉鎖等,0,2025-10-29,2025-10-01,株式会社ＣＯＳＯ,,株式会社,東京都,渋谷区,恵比寿南１丁目２番３号４Ｆ,,13,113,1500022,,,2025-10-01,清算の結了等,,,2024-02-19,1,,,,,コウソ,0
28,1010602024007,登記記録の閉鎖等,0,2025-10-29,2025-10-17,有限会社明治製作所,,有限会社,東京都,墨田区,業平３丁目４番１号,,13,107,1300002,,,2025-10-17,清算の結了等,,,2015-10-05,1,,,,,メイジセイサクショ,0
64,1012801008319,登記記録の閉鎖等,0,2025-10-29,2025-10-16,株式会社ＹＳＫ,,株式会社,東京都,昭島市,武蔵野２丁目１３番５号,,13,207,1960021,,,2025-10-16,清算の結了等,,,2015-10-05,1,,,,,ワイエスケー,0
81,1021001009366,登記記録の閉鎖等,0,2025-10-29,2025-10-10,株式会社中川電機製作所,,株式会社,神奈川県,鎌倉市,台３丁目４番２号,,14,204,2470061,,,2025-10-10,清算の結了等,,,2015-10-05,1,,,,,ナカガワデンキセイサクジョ,0
82,1021001041162,登記記録の閉鎖等,0,2025-10-29,2025-10-10,株式会社三留畜産,,株式会社,神奈川県,横須賀市,武１丁目３番１５号,,14,201,2380313,,,2025-10-10,清算の結了等,,,2015-10-05,1,,,,,ミトメチクサン,0
83,1021001047531,登記記録の閉鎖等,0,2025-10-29,2025-10-10,中峯架設株式会社,,株式会社,神奈川県,大和市,下草柳５５１番地１１フォンテーヌ大和５番１０１,,14,213,2420027,,,2025-10-10,清算の結了等,,,2015-10-05,1,,,,,ナカミネカセツ,0
88,1030001027864,登記記録の閉鎖等,0,2025-10-29,2025-10-16,牧野木工株式会社,,株式会社,埼玉県,所沢市,大字北秋津８７６番地２Ｅー９０７,,11,208,3590038,,,2025-10-16,清算の結了等,,,2015-10-05,1,,,,,マキノモッコウ,0
98,1030003014035,登記記録の閉鎖等,0,2025-10-29,2025-10-21,合同会社ＪＯＢ・ＩＴマネジメント,,合同会社,埼玉県,北本市,本町３丁目７５番地１,,11,233,3640033,,,2025-10-21,清算の結了等,,,2019-09-05,1,,,,,ジョブアイティーマネジメント,0
111,1050001036962,登記記録の閉鎖等,0,2025-10-29,2025-10-17,いろは商会株式会社,,株式会社,茨城県,土浦市,富士崎１丁目１７番１号,,08,203,3000813,,,2025-10-17,清算の結了等,,,2015-10-05,1,,,,,,0
116,1070001022878,登記記録の閉鎖等,0,2025-10-29,2025-10-23,共同アスコン株式会社,,株式会社,群馬県,沼田市,町田町１９７０番地,,10,206,3780062,,,2025-10-23,清算の結了等,,,2015-10-05,1,,,,,キョウドウアスコン,0
119,1080102015342,登記記録の閉鎖等,0,2025-10-29,2025-10-24,有限会社洋光物産,,有限会社,静岡県,富士市,松本１８８番地の１コーポ稲垣Ａ－２０１,,22,210,4160903,,,2025-10-24,清算の結了等,,,2015-10-05,1,,,,,ヨウコウブッサン,0
120,1100002012098,登記記録の閉鎖等,0,2025-10-29,2025-10-23,有限会社北成ブルトーザ工事,,有限会社,長野県,南佐久郡佐久穂町,大字畑１４３番地３４,,20,309,3840701,,,2025-10-23,清算の結了等,,,2015-10-05,1,,,,,ホクセイブルトーザコウジ,0
147,1120102001676,登記記録の閉鎖等,0,2025-10-29,2025-10-20,有限会社幸栄土木,,有限会社,大阪府,堺市堺区,大仙中町８番１４号,,27,141,5900801,,,2025-10-20,清算の結了等,,,2015-10-05,1,,,,,コウエイドボク,0
153,1130001019827,登記記録の閉鎖等,0,2025-10-29,2025-10-27,株式会社伊勢長,,株式会社,京都府,京都市上京区,今出川通河原町西入上る三芳町１３９番地,,26,102,6020823,,,2025-10-27,清算の結了等,,,2015-10-05,1,,,,,イセチョウ,0
189,1180002069833,登記記録の閉鎖等,0,2025-10-29,2025-10-17,フォルト・テック有限会社,,有限会社,愛知県,小牧市,大字舟津１－７スペクトル舟津２－３１２,,23,219,4850073,,,2025-10-17,清算の結了等,,,2015-10-05,1,,,,,フォルトテック,0
190,1180002086936,登記記録の閉鎖等,0,2025-10-29,2025-10-20,有限会社新和興業,,有限会社,愛知県,大府市,横根町名高１６７番地の３,,23,223,4740011,,,2025-10-20,清算の結了等,,,2015-10-05,1,,,,,シンワコウギョウ,0
191,1180003009747,登記記録の閉鎖等,0,2025-10-29,2025-10-20,合同会社ＡＩＦ,,合同会社,愛知県,名古屋市西区,上小田井１丁目２３４番地,,23,104,4520821,,,2025-10-20,清算の結了等,,,2015-10-05,1,,,,,エーアイエフ,0
198,1190005005256,登記記録の閉鎖等,0,2025-10-29,2025-10-23,農事組合法人迫間浦柑橘協業組合,,その他の設立登記法人,三重県,度会郡南伊勢町,迫間浦４９６番地の１６,,24,472,5160116,,,2025-10-23,清算の結了等,,,2015-10-05,1,,,,,,0
201,1200002008532,登記記録の閉鎖等,0,2025-10-29,2025-10-21,有限会社　トーヨーコンサルタント,,有限会社,岐阜県,岐阜市,福光西１丁目１４番６号,,21,201,5020814,,,2025-10-21,清算の結了等,,,2015-10-05,1,,,,,トーヨーコンサルタント,0
202,1200003004794,登記記録の閉鎖等,0,2025-10-29,2025-10-24,合同会社ケアプランひまわり,,合同会社,岐阜県,瑞浪市,日吉町６８４番地,,21,208,5096251,,,2025-10-24,清算の結了等,,,2020-05-11,1,,,,,ケアプランヒマワリ,0
217,1250002013973,登記記録の閉鎖等,0,2025-10-29,2025-10-27,有限会社長門エフシーシー,,有限会社,山口県,長門市,東深川８８９番地の１,,35,211,7594101,,,2025-10-27,清算の結了等,,,2015-10-05,1,,,,,ナガトエフシーシー,0
222,1270002007750,登記記録の閉鎖等,0,2025-10-29,2025-10-27,有限会社佐藤建設,,有限会社,鳥取県,境港市,外江町３２５６番地,,31,204,6840071,,,2025-10-27,清算の結了等,,,2015-10-05,1,,,,,サトウケンセツ,0
228,1300002008951,登記記録の閉鎖等,0,2025-10-29,2025-10-27,サンテックケミカル九州有限会社,,有限会社,佐賀県,鳥栖市,原町字松尾８７６番地１,,41,203,8410024,,,2025-10-27,清算の結了等,,,2015-10-05,1,,,,,サンテックケミカルキュウシュウ,0
234,1330002018469,登記記録の閉鎖等,0,2025-10-29,2025-10-20,有限会社ケナト,,有限会社,熊本県,山鹿市,中４４１番地１,,43,208,8610531,,,2025-10-20,清算の結了等,,,2015-10-05,1,,,,,ケナト,0
242,1340005001082,登記記録の閉鎖等,0,2025-10-29,2025-10-23,医療法人恵純会,,その他の設立登記法人,鹿児島県,鹿児島市,吉野３丁目５９番１号,,46,201,8920877,,,2025-10-23,清算の結了等,,,2015-10-05,1,,,,,ケイジュンカイ,0
247,1370005003282,登記記録の閉鎖等,0,2025-10-29,2025-10-14,特定非営利活動法人エバーオンワード,,その他の設立登記法人,宮城県,仙台市太白区,八木山松波町２番２４号,,04,104,9820836,,,2025-10-14,清算の結了等,,,2015-10-05,1,,,,,エバーオンワード,0
251,1380002026665,登記記録の閉鎖等,0,2025-10-29,2025-10-17,有限会社吉邦工業,,有限会社,福島県,いわき市,平豊間字原町３３番地,,07,204,9700224,,,2025-10-17,清算の結了等,,,2015-10-05,1,,,,,,0
253,1390001001189,登記記録の閉鎖等,0,2025-10-29,2025-10-24,株式会社大福壽,,株式会社,山形県,山形市,成沢西１丁目１番４２号,,06,201,9902339,,,2025-10-24,清算の結了等,,,2015-10-05,1,,,,,ダイフクジュ,0
263,1470002004645,登記記録の閉鎖等,0,2025-10-29,2025-10-24,有限会社千代田商事,,有限会社,香川県,高松市,宮脇町２丁目１０番１５号,,37,201,7600005,,,2025-10-24,清算の結了等,,,2015-10-05,1,,,,,チヨダショウジ,0
276,2010001234916,登記記録の閉鎖等,0,2025-10-29,2025-10-08,株式会社シーユーエンターテインメント,,株式会社,東京都,中央区,日本橋室町１丁目１１番１２号日本橋水野ビル７階,,13,102,1030022,,,2025-10-08,清算の結了等,,,2023-04-28,1,,,,,シーユーエンターテインメント,0
284,2010003036410,登記記録の閉鎖等,0,2025-10-29,2025-10-09,ＦＰＳ合同会社,,合同会社,東京都,文京区,小日向４丁目５番１０号,,13,105,1120006,,,2025-10-09,清算の結了等,,,2021-11-26,1,,,,,エフピーエス,0
291,2010401139211,登記記録の閉鎖等,0,2025-10-29,2025-10-24,株式会社ＪＷ　ＩＮＴＥＲＮＡＴＩＯＮＡＬ,,株式会社,東京都,港区,赤坂３丁目４－３,,13,103,1070052,,,2025-10-24,合併による解散等,8011301020397,令和７年１０月１日東京都渋谷区恵比寿２－３１－５株式会社ＧＲＡＮＤ　ＬＩＮＥ（8011301020397）に合併し解散,2018-07-02,1,,,,,ジェイダブルインターナショナル,0
312,2011001129965,登記記録の閉鎖等,0,2025-10-29,2025-10-03,株式会社ｂｙ　ＫＯＨ,,株式会社,東京都,渋谷区,広尾５丁目３番１２号田口ビル２Ｆ,,13,113,1500012,,,2025-10-03,清算の結了等,,,2019-10-07,1,,,,,バイコウ,0
316,2011001153148,登記記録の閉鎖等,0,2025-10-29,2025-10-06,株式会社ｉｎｖｅｓｔｍｅｎｔ　ｅｎｔｅｒｔａｉｎｍｅｎｔ,,株式会社,東京都,渋谷区,神宮前４丁目２６番２８号２階,,13,113,1500001,,,2025-10-06,清算の結了等,,,2023-03-17,1,,,,,インベストメントエンターテインメント,0
340,2013202003908,登記記録の閉鎖等,0,2025-10-29,2025-10-01,有限会社竹内商店,,有限会社,東京都,目黒区,中央町１丁目９番５号,,13,110,1520001,,,2025-10-01,清算の結了等,,,2015-10-05,1,,,,,,0
352,2020002032327,登記記録の閉鎖等,0,2025-10-29,2025-10-14,有限会社安斉酒店,,有限会社,神奈川県,横浜市港北区,箕輪町１丁目２５番２５号,,14,109,2230051,,,2025-10-14,清算の結了等,,,2015-10-05,1,,,,,アンザイサケテン,0
357,2020005007929,登記記録の閉鎖等,0,2025-10-29,2025-10-14,中原産業振興協同組合,,その他の設立登記法人,神奈川県,川崎市川崎区,東田町５番地３,,14,131,2100005,,,2025-10-14,清算の結了等,,,2015-10-05,1,,,,,,0
358,2021001005521,登記記録の閉鎖等,0,2025-10-29,2025-10-09,株式会社サワヤ,,株式会社,神奈川県,藤沢市,石川２丁目２０番地の２７サングレイス湘南台５０３号,,14,205,2520815,,,2025-10-09,清算の結了等,,,2015-10-05,1,,,,,サワヤ,0
366,2021002067461,登記記録の閉鎖等,0,2025-10-29,2025-10-09,有限会社ヤマダ衛設,,有限会社,神奈川県,横須賀市,長沢６丁目４番４７号,,14,201,2390842,,,2025-10-09,清算の結了等,,,2015-10-05,1,,,,,ヤマダエイセツ,0
370,2030001046327,登記記録の閉鎖等,0,2025-10-29,2025-10-21,株式会社吉田内装設備,,株式会社,埼玉県,新座市,野火止１丁目１４番７号,,11,230,3520011,,,2025-10-21,清算の結了等,,,2015-10-05,1,,,,,ヨシダナイソウセツビ,0
383,2030003026319,登記記録の閉鎖等,0,2025-10-29,2025-10-21,合同会社Ｚ・Ｚ・Ｃコ・クリエーション,,合同会社,埼玉県,川口市,西青木４丁目７番１４－５号,,11,203,3320035,,,2025-10-21,清算の結了等,,,2025-03-17,1,,,,,ゼットゼットシーコクリエーション,0
399,2080003001647,登記記録の閉鎖等,0,2025-10-29,2025-10-23,山田陽子合同会社,,合同会社,静岡県,静岡市駿河区,石部４６番３０号,,22,102,4210123,,,2025-10-23,清算の結了等,,,2015-10-05,1,,,,,ヤマダヨウコ,0
400,2080402005208,登記記録の閉鎖等,0,2025-10-29,2025-10-22,有限会社データサイエンス,,有限会社,静岡県,浜松市中央区,上島４丁目２６番１６－７０１号,,22,138,4338122,,,2025-10-22,清算の結了等,,,2015-10-05,1,,,,,データサイエンス,0
403,2110002021717,登記記録の閉鎖等,0,2025-10-29,2025-10-22,有限会社ふとんのわたじん,,有限会社,新潟県,村上市,塩谷１２００番地,,15,212,9593441,,,2025-10-22,清算の結了等,,,2015-10-05,1,,,,,フトンノワタジン,0
419,2120102025996,登記記録の閉鎖等,0,2025-10-29,2025-10-21,有限会社ヒログローリー,,有限会社,大阪府,泉大津市,穴田５７番地の１,,27,206,5950032,,,2025-10-21,清算の結了等,,,2015-10-05,1,,,,,,0
423,2130001064384,登記記録の閉鎖等,0,2025-10-29,2025-10-24,株式会社Ｉｋａｚｕｃｈｉｙａ,,株式会社,京都府,京都市伏見区,久我東町６番地２７グランペレ３０３,,26,109,6128494,,,2025-10-24,清算の結了等,,,2019-04-25,1,,,,,イカズチヤ,0
428,2150001020179,登記記録の閉鎖等,0,2025-10-29,2025-10-23,株式会社ムラキビルド,,株式会社,奈良県,奈良市,北之庄西町１丁目４番地の１４,,29,201,6308452,,,2025-10-23,清算の結了等,,,2015-10-05,1,,,,,ムラキビルド,0
436,2180001146707,登記記録の閉鎖等,0,2025-10-29,2025-10-10,株式会社キャリアデザインＡＣＤＲ,,株式会社,愛知県,清須市,枇杷島駅前東１丁目１－９ライオンズ枇杷島リビオステーションマークス１００２,,23,233,4520037,,,2025-10-10,清算の結了等,,,2021-06-24,1,,,,,キャリアデザインエーシーディーアール,0
438,2180002047284,登記記録の閉鎖等,0,2025-10-29,2025-10-17,有限会社エフアンドビーホテルサービス,,有限会社,愛知県,名古屋市千種区,千種２丁目５番１２号千種ガーデンテラス３０４号,,23,101,4640858,,,2025-10-17,清算の結了等,,,2015-10-05,1,,,,,エフアンドビーホテルサービス,0
439,2180002067720,登記記録の閉鎖等,0,2025-10-29,2025-10-20,有限会社高蔵,00073318,有限会社,愛知県,春日井市,高蔵寺町６丁目４番地の１３,,23,206,4870013,,,2025-10-20,清算の結了等,,,2015-10-05,1,,,,,タカクラ,0
445,2180302026780,登記記録の閉鎖等,0,2025-10-29,2025-10-21,有限会社今井縫製,,有限会社,愛知県,西尾市,西幡豆町東見影８番地２,,23,213,4440703,,,2025-10-21,清算の結了等,,,2015-10-05,1,,,,,イマイホウセイ,0
446,2190001013914,登記記録の閉鎖等,0,2025-10-29,2025-10-21,株式会社アイ・エス・ケイ,,株式会社,三重県,桑名市,大字小貝須字橋爪１１７６番地,,24,205,5110841,,,2025-10-21,清算の結了等,,,2015-10-05,1,,,,,,0
463,2260005003648,登記記録の閉鎖等,0,2025-10-29,2025-10-20,医療法人正療ヒフ科クリニック,,その他の設立登記法人,岡山県,倉敷市,児島小川２丁目５番４６号,,33,202,7110911,,,2025-10-20,清算の結了等,,,2015-10-05,1,,,,,セイリョウヒフカクリニック,0
468,2290002012847,登記記録の閉鎖等,0,2025-10-29,2025-09-30,有限会社ふぐ大将いし松,,有限会社,福岡県,福岡市中央区,春吉３丁目２２番２２号,,40,133,8100003,,,2025-09-30,清算の結了等,,,2015-10-05,1,,,,,フグタイショウイシマツ,0
474,2290805005832,登記記録の閉鎖等,0,2025-10-29,2025-10-16,中山身語正宗下新入教会,,その他の設立登記法人,福岡県,直方市,大字下新入２２７８番地,,40,204,8220032,,,2025-10-16,清算の結了等,,,2015-10-05,1,,,,,,0
475,2290805009008,登記記録の閉鎖等,0,2025-10-29,2025-10-21,特定非営利活動法人愛と感謝の会,,その他の設立登記法人,福岡県,直方市,大字頓野５１３番地１,,40,204,8220002,,,2025-10-21,清算の結了等,,,2017-08-01,1,,,,,,0
480,2330003007395,登記記録の閉鎖等,0,2025-10-29,2025-10-21,合同会社Ｍｏｅｇｉ,,合同会社,熊本県,熊本市中央区,水前寺１丁目２１番４７号,,43,101,8620950,,,2025-10-21,清算の結了等,,,2018-02-16,1,,,,,モエギ,0
488,2380001022037,登記記録の閉鎖等,0,2025-10-29,2025-10-17,株式会社ホームケアセンターいわき,,株式会社,福島県,いわき市,中岡町３丁目１番地の８,,07,204,9748251,,,2025-10-17,清算の結了等,,,2015-10-05,1,,,,,,0
520,3010001239773,登記記録の閉鎖等,0,2025-10-29,2025-10-09,株式会社ＯＮＯＤＥＲＡホールディングス,,株式会社,東京都,千代田区,大手町１丁目１番３号,,13,101,1000004,,,2025-10-09,合併による解散等,8010001179437,令和７年１０月１日東京都千代田区大手町一丁目１番３号株式会社ＯＮＯＤＥＲＡ　ＧＲＯＵＰ（8010001179437）に合併し解散,2023-11-08,1,,,,,オノデラホールディングス,0
543,3010403015450,登記記録の閉鎖等,0,2025-10-29,2025-09-29,Ｈａｎｓｏｎ＆Ｒｈｏｄｅｓ合同会社,,合同会社,東京都,港区,白金１丁目２５番２０－４０３号,,13,103,1080072,,,2025-09-29,清算の結了等,,,2016-10-12,1,,,,,ハンソンアンドローズ,0
555,3011001159862,登記記録の閉鎖等,0,2025-10-29,2025-09-29,株式会社あわい,,株式会社,東京都,渋谷区,神宮前２丁目１９番１０号,,13,113,1500001,,,2025-09-29,清算の結了等,,,2024-02-07,1,,,,,アワイ,0
560,3011002034635,登記記録の閉鎖等,0,2025-10-29,2025-10-01,株式会社ｗａｄｉ,,株式会社,東京都,渋谷区,桜丘町２９番３３号,,13,113,1500031,,,2025-10-01,清算の結了等,,,2015-10-05,1,,,,,ワディ,0
569,3011102009413,登記記録の閉鎖等,0,2025-10-29,2025-10-24,有限会社中田商会,,有限会社,東京都,新宿区,百人町１丁目６番１６号,,13,104,1690073,,,2025-10-24,合併による解散等,5011101015393,令和７年１０月１９日東京都板橋区宮本町３５番１２号株式会社ナカタカラー（5011101015393）に合併し解散,2015-10-05,1,,,,,ナカタショウカイ,0
586,3012402017279,登記記録の閉鎖等,0,2025-10-29,2025-10-23,有限会社ティー・エス,,有限会社,東京都,武蔵野市,吉祥寺本町２丁目１１番９号,,13,203,1800004,,,2025-10-23,清算の結了等,,,2015-10-05,1,,,,,,0
596,3020002008755,登記記録の閉鎖等,0,2025-10-29,2025-10-15,有限会社福屋,,有限会社,神奈川県,横浜市金沢区,富岡西１丁目３６番１０号,,14,108,2360052,,,2025-10-15,清算の結了等,,,2015-10-05,1,,,,,フクヤ,0
597,3020002023671,登記記録の閉鎖等,0,2025-10-29,2025-10-17,有限会社小林空調設備,,有限会社,神奈川県,横浜市保土ケ谷区,上菅田町９５１番地,,14,106,2400051,,,2025-10-17,清算の結了等,,,2015-10-05,1,,,,,コバヤシクウチョウセツビ,0
599,3020002103622,登記記録の閉鎖等,0,2025-10-29,2025-10-01,有限会社メディコプランニング,,有限会社,東京都,港区,虎ノ門１丁目１番１８号,,13,103,1050001,,,2025-10-01,合併による解散等,9010401061136,令和７年１０月１日東京都港区虎ノ門一丁目１番１８号株式会社なの花東日本（9010401061136）に合併し解散,2015-10-05,1,,,,,メディコプランニング,0
649,3060001017415,登記記録の閉鎖等,0,2025-10-29,2025-10-24,鈴庄建設株式会社,,株式会社,栃木県,下都賀郡壬生町,大字壬生丁５９番地１,,09,361,3210216,,,2025-10-24,清算の結了等,,,2025-08-27,1,,,,,スズショウケンセツ,0
654,3080001022108,登記記録の閉鎖等,0,2025-10-29,2025-10-08,株式会社ユニファイド,,株式会社,東京都,中央区,銀座１丁目２２番１１号,,13,102,1040061,,,2025-10-08,清算の結了等,,,2018-03-08,1,"Unified Co., Ltd.",Tokyo,"1-22-11 Ginza, Chuo-ku",,ユニファイド,0
656,3080101021983,登記記録の閉鎖等,0,2025-10-29,2025-10-24,株式会社熱海スパ＆リゾート,,株式会社,静岡県,熱海市,熱海１８７６－１０,,22,205,4130033,,,2025-10-24,合併による解散等,6010401088000,令和７年１０月１日東京都渋谷区西原二丁目２６番３号ＧＡ西原１階ＧＡキャピタル株式会社（6010401088000）に合併し解散,2020-09-01,1,,,,,アタミスパアンドリゾート,0
664,3110002020057,登記記録の閉鎖等,0,2025-10-29,2025-10-22,有限会社山中刃物製作所,,有限会社,新潟県,燕市,南５丁目９番３号,,15,213,9591234,,,2025-10-22,清算の結了等,,,2015-10-05,1,,,,,ヤマナカハモノセイサクショ,0
677,3120001249299,登記記録の閉鎖等,0,2025-10-29,2025-10-17,株式会社Ｕ‐Ｓｔｙｌｅ,,株式会社,大阪府,大阪市住吉区,苅田５丁目１９番５号,,27,120,5580011,,,2025-10-17,清算の結了等,,,2022-10-06,1,,,,,ユースタイル,0
711,3140002017942,登記記録の閉鎖等,0,2025-10-29,2025-10-20,有限会社さいわい薬局,,有限会社,兵庫県,芦屋市,浜芦屋町３番１５－６０４号,00040676,28,206,6590054,,,2025-10-20,清算の結了等,,,2015-10-05,1,,,,,サイワイヤッキョク,0
717,3140005020729,登記記録の閉鎖等,0,2025-10-29,2025-10-21,ＮＰＯ法人コクーンコンサルタンツ,,その他の設立登記法人,兵庫県,宝塚市,宝松苑１３番４３－１０２号,,28,214,6650016,,,2025-10-21,清算の結了等,,,2015-10-05,1,,,,,コクーンコンサルタンツ,0
735,3180002026642,登記記録の閉鎖等,0,2025-10-29,2025-10-17,有限会社緑建材,,有限会社,愛知県,名古屋市緑区,鳴海町字赤塚９３番地の１,,23,114,4580845,,,2025-10-17,清算の結了等,,,2015-10-05,1,,,,,ミドリケンザイ,0
737,3180002068858,登記記録の閉鎖等,0,2025-10-29,2025-10-20,有限会社梶田塗装,,有限会社,愛知県,小牧市,小牧５丁目３７０番地,,23,219,4850041,,,2025-10-20,清算の結了等,,,2015-10-05,1,,,,,カジタトソウ,0
747,3200002024890,登記記録の閉鎖等,0,2025-10-29,2025-10-23,有限会社テクノワン,,有限会社,岐阜県,高山市,桐生町８丁目５３１番地,,21,203,5060004,,,2025-10-23,清算の結了等,,,2015-10-05,1,,,,,,0
749,3240001021621,登記記録の閉鎖等,0,2025-10-29,2025-10-23,株式会社ママ保険事務所,,株式会社,広島県,広島市安芸区,中野２丁目１９番５号,,34,107,7390321,,,2025-10-23,清算の結了等,,,2015-10-05,1,,,,,ママホケンジムショ,0
752,3250002019036,登記記録の閉鎖等,0,2025-10-29,2025-10-27,有限会社ゆうこうはつ,,有限会社,山口県,岩国市,由宇町中央２丁目９番７号,,35,208,7401428,,,2025-10-27,清算の結了等,,,2015-10-05,1,,,,,ユウコウハツ,0
757,3260005010924,登記記録の閉鎖等,0,2025-10-29,2025-10-20,特定非営利活動法人子ども食堂おむすびころりん,,その他の設立登記法人,岡山県,岡山市北区,今５丁目５番１６号,,33,101,7000975,,,2025-10-20,清算の結了等,,,2021-06-03,1,,,,,コドモショクドウオムスビコロリン,0
758,3270001002255,登記記録の閉鎖等,0,2025-10-29,2025-10-28,株式会社やまね工業,,株式会社,鳥取県,鳥取市,河原町山手２２８番地,,31,201,6801211,,,2025-10-28,清算の結了等,,,2015-10-05,1,,,,,ヤマネコウギョウ,0
767,3290002053353,登記記録の閉鎖等,0,2025-10-29,2025-09-30,有限会社佐藤材木店,,有限会社,福岡県,柳川市,七ツ家１０２５番地の１,,40,207,8320087,,,2025-09-30,清算の結了等,,,2015-10-05,1,,,,,サトウザイモクテン,0
778,3370001042266,登記記録の閉鎖等,0,2025-10-29,2025-10-14,株式会社ＴＡＫＡＹＵ,,株式会社,宮城県,仙台市泉区,上谷刈字館１２番地の１５,,04,105,9813121,,,2025-10-14,清算の結了等,,,2017-11-06,1,,,,,タカユ,0
783,3390002012043,登記記録の閉鎖等,0,2025-10-29,2025-10-24,有限会社さくらんぼ代行社,,有限会社,山形県,村山市,楯岡荒町１丁目２番２２号,,06,208,9950032,,,2025-10-24,清算の結了等,,,2015-10-05,1,,,,,サクランボダイコウシャ,0
800,4010001233065,登記記録の閉鎖等,0,2025-10-29,2025-10-01,株式会社Ｆａｎｇ　Ｐｒｏｍｏｔｉｏｎ,,株式会社,東京都,渋谷区,道玄坂１丁目１０番８号渋谷道玄坂東急ビル２Ｆ－Ｃ,,13,113,1500043,,,2025-10-01,清算の結了等,,,2023-02-22,1,,,,,ファングプロモーション,0
817,4010101016270,登記記録の閉鎖等,0,2025-10-29,2025-10-24,株式会社ワイケー興業,,株式会社,東京都,八王子市,堀之内２丁目１番地１５,,13,201,1920355,,,2025-10-24,清算の結了等,,,2024-08-06,1,,,,,ワイケーコウギョウ,0
842,4011001115773,登記記録の閉鎖等,0,2025-10-29,2025-10-01,ＩｍｐａｃｔＬｉｎｋ株式会社,,株式会社,東京都,渋谷区,桜丘町２３番１７号シティコート桜丘４０８,,13,113,1500031,,,2025-10-01,清算の結了等,,,2017-04-13,1,,,,,インパクトリンク,0
843,4011001122274,登記記録の閉鎖等,0,2025-10-29,2025-10-06,株式会社Ｌｉｋｅ　Ｗａｌｋ,,株式会社,東京都,渋谷区,宇田川町２－１渋谷ホームズ２０６,,13,113,1500042,,,2025-10-06,清算の結了等,,,2018-05-22,1,,,,,ライクウォーク,0
847,4011003019007,登記記録の閉鎖等,0,2025-10-29,2025-09-30,合同会社ａｄｄｉｎｇｆｏｏｄｓ,,合同会社,東京都,渋谷区,渋谷２丁目５－８藤和シティスクエア渋谷２０１,,13,113,1500002,,,2025-09-30,清算の結了等,,,2024-04-24,1,,,,,アディングフーズ,0
886,4020001091487,登記記録の閉鎖等,0,2025-10-29,2025-10-17,株式会社クニミ,,株式会社,神奈川県,横浜市旭区,上川井町２２７２番地,,14,112,2410802,,,2025-10-17,清算の結了等,,,2015-10-05,1,,,,,クニミ,0
898,4020002104099,登記記録の閉鎖等,0,2025-10-29,2025-10-17,有限会社ｓｕｇａｒ　ｐｅａ,,有限会社,神奈川県,川崎市麻生区,高石４丁目２番１０－４０１号,,14,137,2150003,,,2025-10-17,清算の結了等,,,2015-10-05,1,,,,,シュガーピー,0
904,4021002032117,登記記録の閉鎖等,0,2025-10-29,2025-10-14,有限会社すずめさん薬局,,有限会社,神奈川県,厚木市,毛利台２丁目２番１５号,,14,212,2430037,,,2025-10-14,清算の結了等,,,2015-10-05,1,,,,,スズメサンヤッキョク,0
905,4021002055076,登記記録の閉鎖等,0,2025-10-29,2025-10-09,有限会社ユニオン自動車,,有限会社,神奈川県,南足柄市,塚原３０４２番地１,,14,217,2500117,,,2025-10-09,清算の結了等,,,2015-10-05,1,,,,,ユニオンジドウシャ,0
917,4030002012730,登記記録の閉鎖等,0,2025-10-29,2025-10-20,有限会社マイウェイ,,有限会社,埼玉県,さいたま市見沼区,東大宮５丁目３１番地の１８,,11,104,3370051,,,2025-10-20,清算の結了等,,,2015-10-05,1,,,,,マイウェイ,0
932,4040002013281,登記記録の閉鎖等,0,2025-10-29,2025-10-01,有限会社みどり生研,,有限会社,千葉県,千葉市緑区,おゆみ野４丁目２５番地１,,12,105,2660031,,,2025-10-01,清算の結了等,,,2015-10-05,1,,,,,ミドリセイケン,0
940,4050002038955,登記記録の閉鎖等,0,2025-10-29,2025-10-08,有限会社三石設備,,有限会社,茨城県,取手市,高須９８５番地,,08,217,3001522,,,2025-10-08,清算の結了等,,,2015-10-05,1,,,,,ミツイシセツビ,0
946,4080001007941,登記記録の閉鎖等,0,2025-10-29,2025-10-21,株式会社清水給食センター,,株式会社,静岡県,静岡市駿河区,北丸子１丁目１９番２０号,,22,102,4210106,,,2025-10-21,清算の結了等,,,2015-10-05,1,,,,,シミズキュウショクセンター,0
947,4080001014104,登記記録の閉鎖等,0,2025-10-29,2025-10-23,株式会社横田建設,,株式会社,静岡県,榛原郡吉田町,片岡２４７７番地の１,,22,424,4210303,,,2025-10-23,清算の結了等,,,2015-10-05,1,,,,,ヨコタケンセツ,0
948,4080005001008,登記記録の閉鎖等,0,2025-10-29,2025-10-22,静岡市造園業協同組合,,その他の設立登記法人,静岡県,静岡市駿河区,中島１５６番地の５,,22,102,4228046,,,2025-10-22,清算の結了等,,,2015-10-05,1,,,,,シズオカシゾウエンギョウ,0
974,4120101025541,登記記録の閉鎖等,0,2025-10-29,2025-10-20,株式会社西山金物店,,株式会社,大阪府,松原市,高見の里３丁目３番３号,,27,217,5800021,,,2025-10-20,清算の結了等,,,2015-10-05,1,,,,,ニシヤマカナモノテン,0
978,4120901006690,登記記録の閉鎖等,0,2025-10-29,2025-10-20,株式会社ジェノア,,株式会社,大阪府,吹田市,垂水町３丁目１９番１２号２０１号室,,27,205,5640062,,,2025-10-20,清算の結了等,,,2015-10-05,1,,,,,ジェノア,0
990,4140003018526,登記記録の閉鎖等,0,2025-10-29,2025-10-22,合同会社クレア,,合同会社,兵庫県,尼崎市,東難波町５丁目２２番３２号,,28,202,6600892,,,2025-10-22,清算の結了等,,,2023-01-11,1,,,,,クレア,0
996,4180002024257,登記記録の閉鎖等,0,2025-10-29,2025-10-20,有限会社丹羽総合紙工,,有限会社,愛知県,名古屋市西区,名駅２丁目４番１１号,,23,104,4510045,,,2025-10-20,清算の結了等,,,2015-10-05,1,,,,,ニワソウゴウシコウ,0
997,4180002047175,登記記録の閉鎖等,0,2025-10-29,2025-10-20,有限会社石口新聞店,,有限会社,愛知県,名古屋市中川区,西日置２丁目９番１２号,,23,110,4540004,,,2025-10-20,清算の結了等,,,2015-10-05,1,,,,,イシグチシンブンテン,0
1000,4180002091082,登記記録の閉鎖等,0,2025-10-29,2025-10-20,有限会社インプルーブ,,有限会社,愛知県,津島市,宇治町字小切３０番地,,23,208,4960008,,,2025-10-20,清算の結了等,,,2015-10-05,1,,,,,インプルーブ,0
1002,4180301014017,登記記録の閉鎖等,0,2025-10-29,2025-10-16,株式会社サンミ食品,,株式会社,愛知県,刈谷市,松栄町３丁目９番地２,,23,210,4480806,,,2025-10-16,清算の結了等,,,2015-10-05,1,,,,,サンミショクヒン,0
1010,4230002010219,登記記録の閉鎖等,0,2025-10-29,2025-10-23,有限会社ヤマト,,有限会社,富山県,小矢部市,後谷５００番地の２７,,16,209,9320831,,,2025-10-23,清算の結了等,,,2015-10-05,1,,,,,ヤマト,0
1024,4290801009380,登記記録の閉鎖等,0,2025-10-29,2025-10-21,株式会社光タクシー,,株式会社,福岡県,北九州市八幡東区,枝光本町７番１５号,,40,108,8050008,,,2025-10-21,清算の結了等,,,2015-10-05,1,,,,,ヒカリタクシー,0
1025,4290801029775,登記記録の閉鎖等,0,2025-10-29,2025-10-21,株式会社Ｎｅｘｔ　Ｂｒｉｇｈｔ,,株式会社,福岡県,北九州市小倉北区,中津口１丁目１１番１０号３０１号室,,40,106,8020018,,,2025-10-21,清算の結了等,,,2023-08-08,1,,,,,ネクストブライト,0
1029,4330002011090,登記記録の閉鎖等,0,2025-10-29,2025-10-20,有限会社熊柏商事,,有限会社,熊本県,熊本市中央区,坪井２丁目８番１７号,,43,101,8600863,,,2025-10-20,清算の結了等,,,2015-10-05,1,,,,,ユウハクショウジ,0
1048,4430003009842,登記記録の閉鎖等,0,2025-10-29,2025-10-07,合同会社ラビットプロモーション,,合同会社,北海道,札幌市中央区,南一条西１６丁目１番地３２３春野ビル３Ｆ,,01,101,0600061,,,2025-10-07,清算の結了等,,,2018-11-05,1,,,,,ラビットプロモーション,0
1053,5010001150739,登記記録の閉鎖等,0,2025-10-29,2025-10-17,株式会社ファインマックス,,株式会社,東京都,台東区,上野５丁目１１番３号愛ビル５階,,13,106,1100005,,,2025-10-17,清算の結了等,,,2015-10-05,1,,,,,ファインマックス,0
1064,5010003031029,登記記録の閉鎖等,0,2025-10-29,2025-10-07,札幌ホテル２ＧＰ合同会社,,合同会社,東京都,千代田区,九段南３丁目７番７号成和綜合会計事務所内,,13,101,1020074,,,2025-10-07,清算の結了等,,,2019-11-12,1,,,,,サッポロホテルツージーピー,0
1077,5010401144497,登記記録の閉鎖等,0,2025-10-29,2025-10-27,株式会社新世,,株式会社,東京都,渋谷区,宇田川町３番７号ヒューリック渋谷公園通りビル４階,,13,113,1500042,,,2025-10-27,合併による解散等,3010401133015,令和７年９月２７日東京都港区麻布台一丁目３番１号麻布台ヒルズ森ＪＰタワー２７階株式会社Ｓａｋｕｒａ　Ｃｒｏｓｓ　Ｒｅａｌ　Ｅｓｔａｔｅ（3010401133015）に合併し解散,2019-03-20,1,,,,,シンセイ,0
1079,5010401187612,登記記録の閉鎖等,0,2025-10-29,2025-10-23,Ｍ＆Ａ　ＢＡＳＥＣＡＭＰ０２株式会社,,株式会社,東京都,港区,麻布台１丁目３番１号麻布台ヒルズ森ＪＰタワー２７階,,13,103,1060041,,,2025-10-23,合併による解散等,1480001004439,令和７年９月１日徳島県吉野川市鴨島町上下島６６番地３株式会社アクト（1480001004439）に合併し解散,2025-01-17,1,,,,,エムアンドエーベースキャンプゼロニ,0
1086,5010501033195,登記記録の閉鎖等,0,2025-10-29,2025-10-17,株式会社エムズ,,株式会社,東京都,台東区,柳橋１丁目２７番７号,,13,106,1110052,,,2025-10-17,清算の結了等,,,2015-10-05,1,,,,,エムズ,0
1097,5011001072444,登記記録の閉鎖等,0,2025-10-29,2025-09-29,ジー・エヌ・インターナショナル株式会社,,株式会社,東京都,渋谷区,道玄坂１丁目１０番８号,,13,113,1500043,,,2025-09-29,清算の結了等,,,2015-10-05,1,,,,,ジーエヌインターナショナル,0
1122,5020001133057,登記記録の閉鎖等,0,2025-10-29,2025-10-15,株式会社ハウスイノベーション,,株式会社,神奈川県,横浜市旭区,柏町１３５番地１５,,14,112,2410835,,,2025-10-15,清算の結了等,,,2019-10-07,1,,,,,ハウスイノベーション,0
1127,5020003021706,登記記録の閉鎖等,0,2025-10-29,2025-10-14,合同会社ＦＥＬＩＣＥ,,合同会社,神奈川県,横浜市神奈川区,台町１番４ライオンズマンション台町第二・６０４,,14,102,2210834,,,2025-10-14,清算の結了等,,,2022-04-27,1,,,,,フェリーチェ,0
1133,5021002053269,登記記録の閉鎖等,0,2025-10-29,2025-10-14,有限会社村井包装,,有限会社,神奈川県,小田原市,栄町４丁目８番４号,,14,206,2500011,,,2025-10-14,清算の結了等,,,2015-10-05,1,,,,,ムライホウソウ,0
1135,5021003008718,登記記録の閉鎖等,0,2025-10-29,2025-10-09,なずなカンパニー合同会社,,合同会社,神奈川県,小田原市,矢作３４番地の１６,,14,206,2500873,,,2025-10-09,清算の結了等,,,2019-10-03,1,,,,,ナズナカンパニー,0
1145,5030002018173,登記記録の閉鎖等,0,2025-10-29,2025-10-22,有限会社ベストパートナー,,有限会社,埼玉県,鴻巣市,榎戸５１３番地５,,11,217,3690123,,,2025-10-22,清算の結了等,,,2015-10-05,1,,,,,ベストパートナー,0
1148,5030002102761,登記記録の閉鎖等,0,2025-10-29,2025-10-22,有限会社小宮食品,,有限会社,埼玉県,川口市,柳崎１丁目２１番９号,,11,203,3330861,,,2025-10-22,清算の結了等,,,2015-10-05,1,,,,,コミヤショクヒン,0
1154,5040001027166,登記記録の閉鎖等,0,2025-10-29,2025-10-02,株式会社ナック経営コンサルタント,,株式会社,千葉県,市川市,東菅野３丁目１７番６号,,12,203,2720823,,,2025-10-02,清算の結了等,,,2015-10-05,1,,,,,ナックケイエイコンサルタント,0
1166,5050002004551,登記記録の閉鎖等,0,2025-10-29,2025-10-17,有限会社デザート・ヘリテージ,,有限会社,茨城県,石岡市,北府中１丁目８番３２号,,08,205,3150012,,,2025-10-17,清算の結了等,,,2015-10-05,1,,,,,,0
1184,5080002003096,登記記録の閉鎖等,0,2025-10-29,2025-10-16,有限会社静岡光林堂,,有限会社,静岡県,静岡市葵区,池ケ谷８番５号,,22,101,4200936,,,2025-10-16,清算の結了等,,,2015-10-05,1,,,,,コウリンドウ,0
1189,5080402002350,登記記録の閉鎖等,0,2025-10-29,2025-10-21,有限会社木崎商会,00068362,有限会社,静岡県,浜松市中央区,入野町１６１３６番地の１７,,22,138,4328061,,,2025-10-21,清算の結了等,,,2015-10-05,1,,,,,キザキショウカイ,0
1205,5120001199253,登記記録の閉鎖等,0,2025-10-29,2025-10-27,株式会社ＮＡＶＩＳ　ＤＥＳＩＧＮ,,株式会社,大阪府,大阪市北区,天満１丁目１８番８－４０１号,,27,127,5300043,,,2025-10-27,清算の結了等,,,2016-07-04,1,,,,,ナビスデザイン,0
1232,5120102016984,登記記録の閉鎖等,0,2025-10-29,2025-10-20,ナニワ通商有限会社,,有限会社,大阪府,富田林市,寺池台２丁目６番１号,,27,214,5840073,,,2025-10-20,清算の結了等,,,2015-10-05,1,,,,,ナニワツウショウ,0
1280,5230001007438,登記記録の閉鎖等,0,2025-10-29,2025-10-24,宮野山観光株式会社,,株式会社,富山県,黒部市,宮野字二ツ谷２７２番地の１,,16,207,9380804,,,2025-10-24,清算の結了等,,,2015-10-05,1,,,,,ミヤノヤマカンコウ,0
1282,5240001058868,登記記録の閉鎖等,0,2025-10-29,2025-10-22,株式会社Ｔ＆Ａ,,株式会社,広島県,福山市,神村町字東竹５３３０番地１,,34,207,7290112,,,2025-10-22,清算の結了等,,,2021-11-08,1,,,,,ティーアンドエー,0
1289,5250001007080,登記記録の閉鎖等,0,2025-10-29,2025-10-24,株式会社下関商事,,株式会社,山口県,下関市,宮田町２丁目１番８号,,35,201,7500002,,,2025-10-24,清算の結了等,,,2015-10-05,1,,,,,シモノセキショウジ,0
1311,5390001015516,登記記録の閉鎖等,0,2025-10-29,2025-10-24,株式会社丸久川崎屋,00114978,株式会社,山形県,山形市,桧町２丁目７番３５号,,06,201,9900813,,,2025-10-24,清算の結了等,,,2018-11-16,1,,,,,マルキュウカワサキヤ,0
1315,5410002011222,登記記録の閉鎖等,0,2025-10-29,2025-10-27,有限会社池田珍味店,,有限会社,秋田県,大仙市,大曲上大町４番２８号,,05,212,0140048,,,2025-10-27,清算の結了等,,,2015-10-05,1,,,,,イケダチンミテン,0
1320,5430003008975,登記記録の閉鎖等,0,2025-10-29,2025-10-14,合同会社スタジオ・マイアディーガ,,合同会社,北海道,札幌市厚別区,厚別中央一条７丁目３番２０－４０１号,,01,108,0040051,,,2025-10-14,清算の結了等,,,2017-12-21,1,,,,,スタジオマイアディーガ,0
1337,6010002049203,登記記録の閉鎖等,0,2025-10-29,2025-10-07,有限会社デュエット・ファンディング・コーポレーション,,有限会社,東京都,中央区,新川２丁目２７番１号,,13,102,1040033,,,2025-10-07,清算の結了等,,,2015-10-05,1,,,,,デュエットファンディングコーポレーション,0
1344,6010401036685,登記記録の閉鎖等,0,2025-10-29,2025-10-01,株式会社兼松トレードサービス,,株式会社,東京都,千代田区,丸の内２丁目７番２号,,13,101,1000005,,,2025-10-01,合併による解散等,8010001140852,令和７年１０月１日東京都中央区日本橋人形町一丁目３番８号兼松ロジスティクスアンドインシュアランス株式会社（8010001140852）に合併し解散,2015-10-05,1,,,,,カネマツトレードサービス,0
1359,6010601035058,登記記録の閉鎖等,0,2025-10-29,2025-10-17,株式会社ジェイフィールド,,株式会社,東京都,墨田区,両国４丁目３５番１号,,13,107,1300026,,,2025-10-17,清算の結了等,,,2015-10-05,1,,,,,,0
1364,6010603010182,登記記録の閉鎖等,0,2025-10-29,2025-10-17,Ｃｈｏｕｃｈｏｕ合同会社,,合同会社,東京都,江東区,亀戸７丁目４３番５号,,13,108,1360071,,,2025-10-17,清算の結了等,,,2023-06-06,1,,,,,シュシュ,0
1373,6011001153053,登記記録の閉鎖等,0,2025-10-29,2025-09-30,株式会社メタフィ,,株式会社,東京都,渋谷区,道玄坂１丁目１０番８号渋谷道玄坂東急ビル２Ｆ－Ｃ,,13,113,1500043,,,2025-09-30,清算の結了等,,,2023-03-15,1,,,,,メタフィ,0
1379,6011005007750,登記記録の閉鎖等,0,2025-10-29,2025-10-01,一般社団法人シニア身元引受支援機構,,その他の設立登記法人,東京都,港区,新橋６丁目９番８号４階,,13,103,1050004,,,2025-10-01,合併による解散等,2011005007960,令和７年１０月１日東京都港区新橋六丁目９番８号４階一般社団法人もの忘れ信託普及協会（2011005007960）に合併し解散,2018-07-09,1,,,,,シニアミモトヒキウケシエンキコウ,0
1384,6011103009046,登記記録の閉鎖等,0,2025-10-29,2025-10-24,Ｍａｄ　Ｓｔｒｅｅｔ　Ｄｅｎ合同会社,,合同会社,東京都,新宿区,新宿４丁目３番１５号レイフラット新宿Ｂ棟３Ｆ,,13,104,1600022,,,2025-10-24,清算の結了等,,,2019-08-23,1,,,,,マッドストリートデン,0
1407,6012402014430,登記記録の閉鎖等,0,2025-10-29,2025-10-22,有限会社Ｓ．Ｉ．Ｐ,,有限会社,東京都,狛江市,和泉本町２丁目１１番４号,,13,219,2010003,,,2025-10-22,清算の結了等,,,2015-10-05,1,,,,,,0
1411,6013201014976,登記記録の閉鎖等,0,2025-10-29,2025-09-29,ボーナス株式会社,,株式会社,東京都,渋谷区,渋谷３丁目６番３号,,13,113,1500002,,,2025-09-29,清算の結了等,,,2015-10-05,1,,,,,ボーナス,0
1413,6013301035922,登記記録の閉鎖等,0,2025-10-29,2025-10-17,株式会社キャッスルワン,,株式会社,東京都,豊島区,西池袋５丁目２６番１１号ジョイフル西池袋１Ｆ,,13,116,1710021,,,2025-10-17,清算の結了等,,,2015-10-05,1,,,,,キャッスルワン,0
1440,6021001077730,登記記録の閉鎖等,0,2025-10-29,2025-10-15,株式会社伊之崎ホールディングス,,株式会社,神奈川県,横須賀市,長沢２丁目８番１４号,,14,201,2390842,,,2025-10-15,清算の結了等,,,2022-12-16,1,,,,,イノサキホールディングス,0
1444,6021002022306,登記記録の閉鎖等,0,2025-10-29,2025-10-10,千頭和工業有限会社,,有限会社,神奈川県,相模原市中央区,千代田５丁目１１番１８号,,14,152,2520237,,,2025-10-10,清算の結了等,,,2015-10-05,1,,,,,チズワコウギョウ,0
1445,6021002050959,登記記録の閉鎖等,0,2025-10-29,2025-10-14,いすず工芸有限会社,,有限会社,神奈川県,小田原市,東町１丁目１６番７号,,14,206,2500003,,,2025-10-14,清算の結了等,,,2015-10-05,1,,,,,イスズコウゲイ,0
1468,6040001133145,登記記録の閉鎖等,0,2025-10-29,2025-09-30,株式会社タカヤマ,,株式会社,千葉県,木更津市,千束台１丁目２３番地６,,12,206,2920808,,,2025-09-30,清算の結了等,,,2024-04-16,1,,,,,タカヤマ,0
1470,6040002066377,登記記録の閉鎖等,0,2025-10-29,2025-09-30,有限会社神子クリーニング工場,,有限会社,千葉県,木更津市,岩根１丁目３番４５号,,12,206,2920061,,,2025-09-30,清算の結了等,,,2015-10-05,1,,,,,カミコクリーニングコウジョウ,0
1471,6040002093636,登記記録の閉鎖等,0,2025-10-29,2025-09-30,有限会社西組運送,,有限会社,千葉県,柏市,藤ケ谷１７８４番地,,12,217,2770931,,,2025-09-30,清算の結了等,,,2015-10-05,1,,,,,ニシグミウンソウ,0
1477,6060001031157,登記記録の閉鎖等,0,2025-10-29,2025-10-27,株式会社晴善,,株式会社,栃木県,足利市,常見町３丁目９番地８,,09,202,3260022,,,2025-10-27,清算の結了等,,,2018-12-07,1,,,,,ハルヨシ,0
1540,6180003002078,登記記録の閉鎖等,0,2025-10-29,2025-10-20,株式会社みよしや,,株式会社,愛知県,名古屋市南区,三吉町１丁目２７番地,,23,112,4570805,,,2025-10-20,清算の結了等,,,2015-10-05,1,,,,,ミヨシヤ,0
1546,6190002002210,登記記録の閉鎖等,0,2025-10-29,2025-10-24,有限会社小野電気商会,,有限会社,三重県,津市,香良洲町５７０１番地,,24,201,5140315,,,2025-10-24,清算の結了等,,,2015-10-05,1,,,,,オノデンキショウカイ,0
1553,6220001021331,登記記録の閉鎖等,0,2025-10-29,2025-10-27,株式会社ローカルスタイル,,株式会社,石川県,金沢市,木越町ツ２番地,,17,201,9200203,,,2025-10-27,清算の結了等,,,2016-11-11,1,,,,,ローカルスタイル,0
1554,6220003003162,登記記録の閉鎖等,0,2025-10-29,2025-10-24,エアル合同会社,,合同会社,石川県,金沢市,大桑町平１５０番地２,,17,201,9218046,,,2025-10-24,清算の結了等,,,2021-12-02,1,,,,,エアル,0
1560,6270002000404,登記記録の閉鎖等,0,2025-10-29,2025-10-29,有限会社尾崎石油,00004289,有限会社,鳥取県,鳥取市,湖山町東４丁目７３番地,,31,201,6800942,,,2025-10-29,清算の結了等,,,2015-10-05,1,,,,,オサキセキユ,0
1566,6290801020071,登記記録の閉鎖等,0,2025-10-29,2025-10-21,株式会社スポ・コミ,,株式会社,福岡県,北九州市小倉南区,富士見１丁目５番３７号,,40,107,8020801,,,2025-10-21,清算の結了等,,,2015-10-05,1,,,,,スポコミ,0
1574,6340001000414,登記記録の閉鎖等,0,2025-10-29,2025-10-22,株式会社イケハタ企画,,株式会社,鹿児島県,鹿児島市,紫原３丁目３４番２４号,,46,201,8900082,,,2025-10-22,清算の結了等,,,2015-10-05,1,,,,,イケハタキカク,0
1578,6370002010434,登記記録の閉鎖等,0,2025-10-29,2025-10-14,有限会社神田重機,,有限会社,宮城県,仙台市青葉区,国見６丁目８番１３号,,04,101,9810943,,,2025-10-14,清算の結了等,,,2015-10-05,1,,,,,カンダジュウキ,0
1592,6430002047569,登記記録の閉鎖等,0,2025-10-29,2025-10-17,有限会社小林建築,,有限会社,北海道,恵庭市,住吉町４丁目３番１２号,,01,231,0611441,,,2025-10-17,清算の結了等,,,2015-10-05,1,,,,,コバヤシケンチク,0
1599,6500001016014,登記記録の閉鎖等,0,2025-10-29,2025-10-28,ハモニコ工房株式会社,,株式会社,愛媛県,北宇和郡鬼北町,大字東仲１０４１番地２,,38,488,7981366,,,2025-10-28,清算の結了等,,,2015-10-05,1,,,,,ハモニココウボウ,0
1618,7010401148645,登記記録の閉鎖等,0,2025-10-29,2025-10-20,株式会社Ｆａｒｏ,,株式会社,愛知県,春日井市,西本町２丁目７－１５宝マンション味美第２－９０６号,,23,206,4860958,,,2025-10-20,清算の結了等,,,2019-10-16,1,,,,,ファーロー,0
1631,7010701043793,登記記録の閉鎖等,0,2025-10-29,2025-10-23,ルートロニックエステティックスジャパン株式会社,,株式会社,東京都,品川区,東品川２丁目３番１４号,,13,109,1400002,,,2025-10-23,清算の結了等,,,2023-02-02,1,,,,,ルートロニックエステティックスジャパン,0
1633,7010705001459,登記記録の閉鎖等,0,2025-10-29,2025-10-22,一般社団法人日本デザインコンサルタント協会,,その他の設立登記法人,東京都,品川区,東五反田５丁目２５番１９号,,13,109,1410022,,,2025-10-22,清算の結了等,,,2015-10-05,1,,,,,ニホンデザインコンサルタントキョウカイ,0
1644,7010901033925,登記記録の閉鎖等,0,2025-10-29,2025-10-24,株式会社ＥａｒｔｈＣｏｎｓｃｉｏｕｓ,,株式会社,東京都,世田谷区,松原４丁目１１番３号,,13,112,1560043,,,2025-10-24,清算の結了等,,,2015-10-05,1,,,,,アースコンシャス,0
1646,7010903002003,登記記録の閉鎖等,0,2025-10-29,2025-10-27,Ｗｏｏｄ　Ｂｕｓｉｎｅｓｓ＆Ｃｏｎｓｕｌｔｉｎｇ合同会社,,合同会社,東京都,世田谷区,成城１丁目６番１９号成城南フラッツ７０５号,,13,112,1570066,,,2025-10-27,清算の結了等,,,2015-10-05,1,,,,,ウッドビジネスアンドコンサルティング,0
1649,7010903004073,登記記録の閉鎖等,0,2025-10-29,2025-10-24,合同会社ウィステリアガーデン,,合同会社,東京都,世田谷区,三軒茶屋１丁目３５番２２－７０２号,,13,112,1540024,,,2025-10-24,清算の結了等,,,2018-01-25,1,,,,,ウィステリアガーデン,0
1656,7011001128145,登記記録の閉鎖等,0,2025-10-29,2025-09-30,株式会社Ｋｅｉｔａｎ,,株式会社,東京都,渋谷区,渋谷２丁目２４番１２号渋谷スクランブルスクエア,,13,113,1500002,,,2025-09-30,清算の結了等,,,2019-05-21,1,,,,,ケイタン,0
1674,7011401012972,登記記録の閉鎖等,0,2025-10-29,2025-10-27,インターナショナルトレードサービスィズ株式会社,,株式会社,東京都,板橋区,徳丸８丁目１４番２０－８０５号,,13,119,1750083,,,2025-10-27,清算の結了等,,,2015-10-05,1,,,,,インターナショナルトレードサービスィズ,0
1679,7011801044070,登記記録の閉鎖等,0,2025-10-29,2025-10-24,パラマウントケアサービス東京株式会社,,株式会社,東京都,足立区,辰沼１丁目６番１４号,,13,121,1210054,,,2025-10-24,合併による解散等,1010601040112,令和７年１０月１日東京都墨田区太平二丁目９番４号パラマウントケアサービス株式会社（1010601040112）に合併し解散,2024-04-17,1,,,,,パラマウントケアサービストウキョウ,0
1684,7012801021092,登記記録の閉鎖等,0,2025-10-29,2025-10-16,株式会社ＬａｗＦｏｘ,,株式会社,東京都,立川市,錦町２丁目３番４号－２０１号,,13,202,1900022,,,2025-10-16,清算の結了等,,,2021-09-17,1,,,,,ローフォックス,0
1686,7013201017417,登記記録の閉鎖等,0,2025-10-29,2025-10-01,株式会社ＳＥＮＡ,,株式会社,東京都,目黒区,駒場１丁目１８番１３号,,13,110,1530041,,,2025-10-01,清算の結了等,,,2015-10-05,1,,,,,セナ,0
1696,7020002085915,登記記録の閉鎖等,0,2025-10-29,2025-10-14,有限会社飯塚ネジ製作所,,有限会社,神奈川県,川崎市宮前区,神木１丁目３番地３５,,14,136,2160032,,,2025-10-14,清算の結了等,,,2015-10-05,1,,,,,イイヅカネジセイサクショ,0
1700,7021001048144,登記記録の閉鎖等,0,2025-10-29,2025-10-09,ＫＥＮＳＥＩ株式会社,,株式会社,神奈川県,横須賀市,衣笠町２０番１号,,14,201,2380025,,,2025-10-09,清算の結了等,,,2015-10-05,1,,,,,,0
1720,7040002032139,登記記録の閉鎖等,0,2025-10-29,2025-09-30,有限会社織戸荷役運輸,,有限会社,千葉県,鎌ケ谷市,中沢４９５番地１１,,12,224,2730118,,,2025-09-30,清算の結了等,,,2015-10-05,1,,,,,オリドニヤクウンユ,0
1733,7110001001285,登記記録の閉鎖等,0,2025-10-29,2025-10-22,株式会社伊東鉄工,,株式会社,新潟県,新潟市東区,材木町５番３３号,,15,102,9500811,,,2025-10-22,清算の結了等,,,2015-10-05,1,,,,,イトウテッコウ,0
1739,7120001038921,登記記録の閉鎖等,0,2025-10-29,2025-10-17,株式会社大國市場,,株式会社,大阪府,大阪市西成区,松１丁目１番４号,,27,122,5570034,,,2025-10-17,清算の結了等,,,2015-10-05,1,,,,,ダイコクイチバ,0
1779,7122001007708,登記記録の閉鎖等,0,2025-10-29,2025-10-10,森繁金網株式会社,,株式会社,大阪府,東大阪市,高井田西３丁目８番３１号,,27,227,5770067,,,2025-10-10,清算の結了等,,,2015-10-05,1,,,,,モリシゲカナアミ,0
1780,7130001028772,登記記録の閉鎖等,0,2025-10-29,2025-10-24,株式会社まえだ,,株式会社,京都府,京都市西京区,山田大吉見町１８番地の５桂平安マンション１２５号室,,26,111,6158236,,,2025-10-24,清算の結了等,,,2015-10-05,1,,,,,,0
1781,7140001014656,登記記録の閉鎖等,0,2025-10-29,2025-10-23,神戸丸神株式会社,,株式会社,兵庫県,神戸市兵庫区,東山町４丁目７番地の１,,28,105,6520042,,,2025-10-23,清算の結了等,,,2015-10-05,1,,,,,コウベマルシン,0
1784,7140001066359,登記記録の閉鎖等,0,2025-10-29,2025-10-21,三友商事株式会社,,株式会社,兵庫県,三田市,駅前町３番３６号,,28,219,6691528,,,2025-10-21,清算の結了等,,,2015-10-05,1,,,,,サンユウショウジ,0
1793,7140005013274,登記記録の閉鎖等,0,2025-10-29,2025-10-20,姫路木工団地協同組合,,その他の設立登記法人,兵庫県,姫路市,別所町家具町８０番地,,28,201,6710225,,,2025-10-20,清算の結了等,,,2015-10-05,1,,,,,ヒメジモッコウダンチ,0
1813,7190002013578,登記記録の閉鎖等,0,2025-10-29,2025-10-21,有限会社イング,,有限会社,三重県,松阪市,朝日町一区１２番地の１,,24,204,5150003,,,2025-10-21,清算の結了等,,,2015-10-05,1,,,,,イング,0
1815,7200005009217,登記記録の閉鎖等,0,2025-10-29,2025-10-27,医療法人加藤クリニック,,その他の設立登記法人,岐阜県,恵那市,大井町２０８７番地４５０,,21,210,5097201,,,2025-10-27,清算の結了等,,,2015-10-05,1,,,,,カトウクリニック,0
1820,7230001003410,登記記録の閉鎖等,0,2025-10-29,2025-10-24,和光堂薬品株式会社,,株式会社,富山県,富山市,向新庄町７丁目１７番１２号,,16,201,9300916,,,2025-10-24,清算の結了等,,,2015-10-05,1,,,,,ワコウドウヤクヒン,0
1825,7240002050731,登記記録の閉鎖等,0,2025-10-29,2025-10-23,有限会社伸菱,,有限会社,広島県,尾道市,栗原町１１６６０番地３１,,34,205,7220022,,,2025-10-23,清算の結了等,,,2015-10-05,1,,,,,シンリョウ,0
1840,7340002010700,登記記録の閉鎖等,0,2025-10-29,2025-10-21,有限会社加治木窓業,,有限会社,鹿児島県,鹿児島市,常盤１丁目３１番１７号,,46,201,8900047,,,2025-10-21,清算の結了等,,,2015-10-05,1,,,,,カジキソウギョウ,0
1841,7340002023231,登記記録の閉鎖等,0,2025-10-29,2025-10-16,有限会社小田商事,,有限会社,鹿児島県,出水郡長島町,城川内２１９４番地５,,46,404,8991304,,,2025-10-16,清算の結了等,,,2015-10-05,1,,,,,オダショウジ,0
1852,7380005007285,登記記録の閉鎖等,0,2025-10-29,2025-10-16,三方山神神社,,その他の設立登記法人,福島県,相馬郡新地町,谷地小屋字新地１０５番地,,07,561,9792702,,,2025-10-16,清算の結了等,,,2015-10-05,1,,,,,,0
1854,7400001000992,登記記録の閉鎖等,0,2025-10-29,2025-10-16,株式会社地域環境計画,,株式会社,岩手県,盛岡市,紺屋町６番２７号,,03,201,0200885,,,2025-10-16,清算の結了等,,,2015-10-05,1,,,,,チイキカンキョウケイカク,0
1879,7430002045506,登記記録の閉鎖等,0,2025-10-29,2025-10-20,有限会社義建工業,,有限会社,北海道,江別市,東光町１１２番地の４,,01,217,0670023,,,2025-10-20,清算の結了等,,,2015-10-05,1,,,,,ヨシケンコウギョウ,0
1891,8010001042512,登記記録の閉鎖等,0,2025-10-29,2025-10-06,株式会社クロヌマ,,株式会社,東京都,中央区,日本橋浜町２丁目１７番７号,,13,102,1030007,,,2025-10-06,清算の結了等,,,2015-10-05,1,,,,,クロヌマ,0
1920,8010502002915,登記記録の閉鎖等,0,2025-10-29,2025-10-17,有限会社和則商店,,有限会社,東京都,台東区,橋場１丁目８番４号,,13,106,1110023,,,2025-10-17,清算の結了等,,,2015-10-05,1,,,,,カズノリショウテン,0
1931,8011001133912,登記記録の閉鎖等,0,2025-10-29,2025-10-01,ＳａｖｉｎｇｓＰｒｏ株式会社,,株式会社,東京都,渋谷区,円山町５番５号Ｎａｖｉ渋谷Ｖ３階,,13,113,1500044,,,2025-10-01,清算の結了等,,,2020-05-27,1,,,,,セイヴィングズプロ,0
1932,8011001137616,登記記録の閉鎖等,0,2025-10-29,2025-10-03,株式会社マチベン,,株式会社,東京都,渋谷区,宇田川町６－２０－１０３,,13,113,1500042,,,2025-10-03,清算の結了等,,,2020-12-22,1,,,,,マチベン,0
1941,8011101084353,登記記録の閉鎖等,0,2025-10-29,2025-09-30,クリアライズ株式会社,,株式会社,東京都,新宿区,新宿１丁目２４番２号長井ビル５Ｆ,,13,104,1600022,,,2025-09-30,清算の結了等,,,2018-06-07,1,,,,,クリアライズ,0
1942,8011101089063,登記記録の閉鎖等,0,2025-10-29,2025-10-27,株式会社ＦＯＳＩＤＥＡ．,,株式会社,東京都,新宿区,新宿５丁目１１番１３号富士新宿ビル４階,,13,104,1600022,,,2025-10-27,清算の結了等,,,2019-09-30,1,,,,,フォシディア,0
1956,8011801010237,登記記録の閉鎖等,0,2025-10-29,2025-10-24,東洋ハイテツク株式会社,,株式会社,東京都,足立区,西伊興４丁目１０番２２号,,13,121,1210824,,,2025-10-24,清算の結了等,,,2015-10-05,1,,,,,トウヨウハイテツク,0
1964,8012701012612,登記記録の閉鎖等,0,2025-10-29,2025-10-22,株式会社甲斐,,株式会社,東京都,東村山市,本町２丁目３番地７８,,13,213,1890014,,,2025-10-22,清算の結了等,,,2015-10-05,1,,,,,カイ,0
1968,8013301044863,登記記録の閉鎖等,0,2025-10-29,2025-10-17,株式会社ＧＦＩＸ,,株式会社,東京都,豊島区,東池袋５丁目７番３号,,13,116,1700013,,,2025-10-17,清算の結了等,,,2019-12-02,1,,,,,ジーフィックス,0
1971,8020001005963,登記記録の閉鎖等,0,2025-10-29,2025-10-17,株式会社大谷本店,,株式会社,神奈川県,横浜市金沢区,東朝比奈２丁目５２番１５号,,14,108,2360033,,,2025-10-17,清算の結了等,,,2015-10-05,1,,,,,オオタニホンテン,0
1976,8020001127873,登記記録の閉鎖等,0,2025-10-29,2025-10-02,株式会社Ａ＆Ｔコーポレーション,,株式会社,千葉県,千葉市美浜区,中瀬１丁目３番地幕張テクノガーデンＢ棟９階,,12,106,2610023,,,2025-10-02,合併による解散等,6020001109163,令和７年９月１日神奈川県横浜市神奈川区白楽６－６株式会社石田アソシエイツ（6020001109163）に合併し解散,2018-09-10,1,,,,,エーアンドティコーポレーション,0
1990,8021003011264,登記記録の閉鎖等,0,2025-10-29,2025-10-10,合同会社Ｒｏｍａｎｃｅ　Ｇｒｏｕｐ,,合同会社,神奈川県,相模原市緑区,橋本１丁目６番２６号,,14,151,2520143,,,2025-10-10,清算の結了等,,,2022-01-11,1,,,,,ロマンスグループ,0
1991,8021005006667,登記記録の閉鎖等,0,2025-10-29,2025-10-09,一般社団法人Ｔ・Ｍ・Ｓ,,その他の設立登記法人,神奈川県,厚木市,長谷１６６７番地１,,14,212,2430036,,,2025-10-09,清算の結了等,,,2015-10-05,1,,,,,ティーエムエス,0
2002,8030002115637,登記記録の閉鎖等,0,2025-10-29,2025-10-15,有限会社キヨオカ,,有限会社,埼玉県,北本市,深井１丁目２０番２号,,11,233,3640001,,,2025-10-15,清算の結了等,,,2015-10-05,1,,,,,キヨオカ,0
2009,8040001092884,登記記録の閉鎖等,0,2025-10-29,2025-09-29,ＩＣ　Ｄｅｓｉｇｎ　Ｌａｂ株式会社,,株式会社,東京都,目黒区,碑文谷４丁目２４番１３号クレッセント柿の木坂西悠ビル２０６号,,13,110,1520003,,,2025-09-29,清算の結了等,,,2015-11-18,1,,,,,アイシーデザインラボ,0
2019,8070002002187,登記記録の閉鎖等,0,2025-10-29,2025-10-23,有限会社小林理工,,有限会社,群馬県,前橋市,岩神町２丁目９番１２号,,10,201,3710035,,,2025-10-23,清算の結了等,,,2015-10-05,1,,,,,コバヤシリコウ,0
2022,8080402022321,登記記録の閉鎖等,0,2025-10-29,2025-10-08,株式会社ｉＮＣ,,株式会社,静岡県,周智郡森町,森１７８９番地の３６,,22,461,4370215,,,2025-10-08,清算の結了等,,,2015-10-05,1,,,,,アイエヌシー,0
2024,8090001000891,登記記録の閉鎖等,0,2025-10-29,2025-10-20,株式会社三建ハウス,,株式会社,山梨県,甲府市,太田町９番２号,,19,201,4000865,,,2025-10-20,清算の結了等,,,2015-10-05,1,,,,,サンケンハウス,0
2025,8120001030076,登記記録の閉鎖等,0,2025-10-29,2025-10-24,株式会社渡壁,,株式会社,大阪府,大阪市港区,市岡元町３丁目４番４号,,27,107,5520002,,,2025-10-24,清算の結了等,,,2015-10-05,1,,,,,ワタカベ,0
2026,8120001062202,登記記録の閉鎖等,0,2025-10-29,2025-10-23,株式会社カ・サ・ド,,株式会社,大阪府,大阪市北区,豊崎３丁目１５番１９号東洋東ビル３０４号,,27,127,5310072,,,2025-10-23,清算の結了等,,,2015-10-05,1,,,,,カサド,0
2064,8130002017889,登記記録の閉鎖等,0,2025-10-29,2025-10-22,有限会社エムアンドイープロダクツ,,有限会社,京都府,京都市北区,大北山原谷乾町３６番地の６４,,26,101,6038487,,,2025-10-22,清算の結了等,,,2015-10-05,1,,,,,エムアンドイープロダクツ,0
2067,8140001036716,登記記録の閉鎖等,0,2025-10-29,2025-10-23,株式会社明石インバウンド・ロジスティックス・センター,,株式会社,兵庫県,明石市,魚住町清水１０８３番地１,,28,203,6740074,,,2025-10-23,清算の結了等,,,2015-10-05,1,,,,,アカシインバウンドロジスティックスセンター,0
2072,8140005014602,登記記録の閉鎖等,0,2025-10-29,2025-10-22,医療法人社団桐月歯科診療所,,その他の設立登記法人,兵庫県,神崎郡神河町,吉冨１６２２番地の１,,28,446,6792434,,,2025-10-22,清算の結了等,,,2015-10-05,1,,,,,キリツキシカシンリョウジョ,0
2086,8180002048830,登記記録の閉鎖等,0,2025-10-29,2025-10-20,三雄建設有限会社,,有限会社,愛知県,名古屋市中村区,竹橋町１６番２号,,23,105,4530016,,,2025-10-20,清算の結了等,,,2015-10-05,1,,,,,サンユウケンセツ,0
2101,8190001030268,登記記録の閉鎖等,0,2025-10-29,2025-10-24,株式会社Ｈ＆Ｅサポート,,株式会社,三重県,四日市市,日永１丁目３番１２号,,24,202,5100885,,,2025-10-24,清算の結了等,,,2023-03-24,1,,,,,エイチアンドイーサポート,0
2110,8220002010389,登記記録の閉鎖等,0,2025-10-29,2025-10-23,有限会社オンタチ,,有限会社,石川県,小松市,大領町つ３２番地,,17,203,9230854,,,2025-10-23,清算の結了等,,,2015-10-05,1,,,,,オンタチ,0
2116,8250002013934,登記記録の閉鎖等,0,2025-10-29,2025-10-27,有限会社ツヨシ電設,,有限会社,山口県,長門市,日置上１３８１番地の１,,35,211,7594401,,,2025-10-27,清算の結了等,,,2015-10-05,1,,,,,ツヨシデンセツ,0
2118,8260003002555,登記記録の閉鎖等,0,2025-10-29,2025-10-17,ＭＨ　Ｓｏｌｕｔｉｏｎｓ合同会社,,合同会社,岡山県,総社市,清音軽部１５４５番地,,33,208,7191172,,,2025-10-17,清算の結了等,,,2018-05-22,1,,,,,エムエイチソリューションズ,0
2130,8330001022779,登記記録の閉鎖等,0,2025-10-29,2025-10-20,株式会社橋本測量,,株式会社,熊本県,阿蘇市,黒流町３９３番地,,43,214,8692316,,,2025-10-20,清算の結了等,,,2016-05-18,1,,,,,ハシモトソクリョウ,0
2141,8370101001679,登記記録の閉鎖等,0,2025-10-29,2025-10-27,株式会社自然人,,株式会社,山形県,天童市,老野森３丁目１５番１７号,,06,210,9940013,,,2025-10-27,清算の結了等,,,2015-10-05,1,,,,,シーゼント,0
2145,8390001010076,登記記録の閉鎖等,0,2025-10-29,2025-10-27,株式会社東屋,,株式会社,山形県,米沢市,大字関１５３７番地,,06,202,9921472,,,2025-10-27,清算の結了等,,,2015-10-05,1,,,,,ヒガシヤ,0
2150,8430002013552,登記記録の閉鎖等,0,2025-10-29,2025-10-21,有限会社東光キヤリアメディカル,,有限会社,北海道,札幌市東区,北三十三条東１３丁目２番７号,,01,103,0650033,,,2025-10-21,清算の結了等,,,2015-10-05,1,,,,,トウコウキヤリアメディカル,0
2155,9010001174577,登記記録の閉鎖等,0,2025-10-29,2025-10-17,株式会社ＳＯ,,株式会社,東京都,台東区,上野５丁目１３番４号,,13,106,1100005,,,2025-10-17,清算の結了等,,,2016-03-30,1,,,,,ソ,0
2161,9010003043672,登記記録の閉鎖等,0,2025-10-29,2025-10-06,合同会社ｒｉｋｉｍａｒｕ　Ｌａｂ,,合同会社,東京都,中央区,銀座１丁目１２－４Ｎ＆ＥＢＬＤ．７階,,13,102,1040061,,,2025-10-06,清算の結了等,,,2024-05-23,1,,,,,リキマルラボ,0
2196,9011201012790,登記記録の閉鎖等,0,2025-10-29,2025-10-20,株式会社ヴィジュアル・カンパニー,,株式会社,東京都,中野区,東中野５丁目２３番６号,,13,114,1640003,,,2025-10-20,清算の結了等,,,2015-10-05,1,,,,,ヴィジュアルカンパニー,0
2208,9012702003527,登記記録の閉鎖等,0,2025-10-29,2025-10-22,有限会社松尾商店,,有限会社,東京都,東村山市,本町２丁目３番地７８,,13,213,1890014,,,2025-10-22,清算の結了等,,,2015-10-05,1,,,,,,0
2215,9020001018106,登記記録の閉鎖等,0,2025-10-29,2025-10-16,テクノエンジニアリングサービス株式会社,,株式会社,神奈川県,横浜市鶴見区,佃野町２２番１３号,,14,101,2300061,,,2025-10-16,清算の結了等,,,2015-10-05,1,,,,,テクノエンジニアリングサービス,0
2234,9030001041908,登記記録の閉鎖等,0,2025-10-29,2025-10-21,株式会社平方ゴルフガーデン,,株式会社,埼玉県,上尾市,大字平方領々家８３番地の１,,11,219,3620055,,,2025-10-21,清算の結了等,,,2015-10-05,1,,,,,ヒラカタゴルフガーデン,0
2237,9030001149379,登記記録の閉鎖等,0,2025-10-29,2025-10-21,株式会社ハマショウ,,株式会社,埼玉県,秩父郡皆野町,大字金沢１２１８番地２,,11,362,3691601,,,2025-10-21,清算の結了等,,,2022-07-27,1,,,,,ハマショウ,0
2244,9030002105026,登記記録の閉鎖等,0,2025-10-29,2025-10-22,有限会社鶴岡鋳工所,,有限会社,埼玉県,川口市,幸町１丁目１４番１３号,,11,203,3320016,,,2025-10-22,清算の結了等,,,2015-10-05,1,,,,,ツルオカチュウコウショ,0
2245,9030003013632,登記記録の閉鎖等,0,2025-10-29,2025-10-21,合同会社Ｍ＆Ａ,,合同会社,埼玉県,さいたま市浦和区,岸町４丁目２１番１４号,,11,107,3300064,,,2025-10-21,合併による解散等,8030003015191,令和７年１０月１日埼玉県さいたま市浦和区岸町四丁目２１番１４号合同会社Ｍ＆Ｋ（8030003015191）に合併し解散,2019-06-07,1,,,,,エムアンドエー,0
2265,9070003005452,登記記録の閉鎖等,0,2025-10-29,2025-10-22,合同会社ＮＥＢＥＬ,,合同会社,群馬県,伊勢崎市,上田町３１番地６,,10,204,3792225,,,2025-10-22,清算の結了等,,,2024-06-10,1,,,,,ネベル,0
2268,9080401018245,登記記録の閉鎖等,0,2025-10-29,2025-10-22,株式会社美禄,,株式会社,静岡県,浜松市中央区,南浅田１丁目８番９号,,22,138,4328044,,,2025-10-22,清算の結了等,,,2015-10-05,1,,,,,ミロク,0
2272,9110001035760,登記記録の閉鎖等,0,2025-10-29,2025-10-24,株式会社エリアプランニング,,株式会社,新潟県,新潟市西区,大学南１丁目７８０９番地８,,15,107,9502111,,,2025-10-24,合併による解散等,7010001095222,令和７年１０月１日東京都千代田区丸の内一丁目８番１号丸の内トラストタワーＮ館Ａｐａｍａｎ　Ｐｒｏｐｅｒｔｙ株式会社（7010001095222）に合併し解散,2021-05-12,1,,,,,エリアプランニング,0
2277,9120001154989,登記記録の閉鎖等,0,2025-10-29,2025-10-22,株式会社ハーベスト福祉機器サプライ,,株式会社,大阪府,大阪市平野区,平野北２丁目６番７号,,27,126,5470041,,,2025-10-22,清算の結了等,,,2015-10-05,1,,,,,ハーベストフクシキキサプライ,0
2281,9120001219503,登記記録の閉鎖等,0,2025-10-29,2025-10-27,株式会社ｒｅ・ｓｔａｒｔ,,株式会社,大阪府,大阪市中央区,淡路町３丁目２番１号－２Ｆ,,27,128,5410047,,,2025-10-27,清算の結了等,,,2019-03-08,1,,,,,リスタート,0
2297,9120901025208,登記記録の閉鎖等,0,2025-10-29,2025-10-14,株式会社パープルクラウド,,株式会社,大阪府,豊中市,名神口３丁目６番１号,,27,203,5610841,,,2025-10-14,清算の結了等,,,2015-10-05,1,,,,,パープルクラウド,0
2303,9122001025014,登記記録の閉鎖等,0,2025-10-29,2025-10-08,株式会社ヨダマシナリー,,株式会社,大阪府,四條畷市,田原台５丁目５－５シャトルヒルズ１０３,,27,229,5750013,,,2025-10-08,清算の結了等,,,2015-10-05,1,,,,,ヨダマシナリー,0
2317,9150001008077,登記記録の閉鎖等,0,2025-10-29,2025-10-27,テクノバ株式会社,,株式会社,奈良県,奈良市,宝来３丁目１５番１号,,29,201,6310845,,,2025-10-27,清算の結了等,,,2015-10-05,1,,,,,テクノバ,0
2322,9180001125927,登記記録の閉鎖等,0,2025-10-29,2025-10-20,株式会社圓工舎,,株式会社,愛知県,名古屋市中川区,山王３丁目１８番２３号,,23,110,4540011,,,2025-10-20,清算の結了等,,,2016-12-19,1,,,,,エンコウシャ,0
2332,9180305009413,登記記録の閉鎖等,0,2025-10-29,2025-10-16,一般社団法人ｌｉｆｅ‐ｂｅｓｔ,,その他の設立登記法人,愛知県,豊田市,梅坪町１丁目１８番地８ＹＳビル１０１,,23,211,4710064,,,2025-10-16,清算の結了等,,,2022-11-30,1,,,,,ライフベスト,0
2333,9190005009316,登記記録の閉鎖等,0,2025-10-29,2025-10-21,ダイアパレス四日市管理組合法人,,その他の設立登記法人,三重県,四日市市,鵜の森２丁目３番１９号,,24,202,5100074,,,2025-10-21,清算の結了等,,,2015-10-05,1,,,,,ダイアパレスヨッカイチ,0
2335,9220001021048,登記記録の閉鎖等,0,2025-10-29,2025-10-27,レスピラトリーサービス株式会社,,株式会社,石川県,能美市,旭台２丁目１３番地,,17,211,9231211,,,2025-10-27,清算の結了等,,,2016-06-09,1,,,,,レスピラトリーサービス,0
2337,9240001004959,登記記録の閉鎖等,0,2025-10-29,2025-10-23,株式会社勝和,,株式会社,広島県,広島市佐伯区,五日市町大字石内３６８８番地,,34,108,7315102,,,2025-10-23,清算の結了等,,,2015-10-05,1,,,,,ショウワ,0
2338,9240001042587,登記記録の閉鎖等,0,2025-10-29,2025-10-28,野田ソフトウェア工房株式会社,,株式会社,滋賀県,大津市,一里山１丁目１番１９号ヒラソル瀬田１０４,,25,201,5202153,,,2025-10-28,清算の結了等,,,2015-10-05,1,,,,,ノダソフトウェアコウボウ,0
2339,9240002030137,登記記録の閉鎖等,0,2025-10-29,2025-10-20,有限会社スペースアート,,有限会社,広島県,三次市,四拾貫町７５０番地の６,,34,209,7280016,,,2025-10-20,清算の結了等,,,2015-10-05,1,,,,,スペースアート,0
2345,9260001019096,登記記録の閉鎖等,0,2025-10-29,2025-10-21,株式会社ゆめフク・ホーム,,株式会社,岡山県,高梁市,原田南町１１２４番地４,,33,209,7160044,,,2025-10-21,清算の結了等,,,2015-10-05,1,,,,,ユメフクホーム,0
2347,9260002013742,登記記録の閉鎖等,0,2025-10-29,2025-10-23,有限会社小倉運輸,,有限会社,岡山県,岡山市北区,清輝橋１丁目７番２０号,,33,101,7000861,,,2025-10-23,清算の結了等,,,2015-10-05,1,,,,,オグラウンユ,0
2349,9290001031395,登記記録の閉鎖等,0,2025-10-29,2025-09-30,株式会社マサキ住建,,株式会社,福岡県,糸島市,大門４６６番地３,,40,230,8191564,,,2025-09-30,清算の結了等,,,2015-10-05,1,,,,,マサキジュウケン,0
2355,9300001009092,登記記録の閉鎖等,0,2025-10-29,2025-10-23,株式会社リライアブル,,株式会社,大分県,日田市,大字東有田２０１０番地３,,44,204,8770000,,,2025-10-23,清算の結了等,,,2015-10-05,1,,,,,リライアブル,0
2368,9380001020117,登記記録の閉鎖等,0,2025-10-29,2025-10-15,株式会社かやの,,株式会社,福島県,大沼郡会津美里町,字川原町北甲１７６０番地,,07,447,9696024,,,2025-10-15,清算の結了等,,,2015-10-05,1,,,,,カヤノ,0
2370,9390005007745,登記記録の閉鎖等,0,2025-10-29,2025-10-24,協同組合山形ウッドエネルギー,,その他の設立登記法人,山形県,寒河江市,中央工業団地１８１番地９,,06,206,9910061,,,2025-10-24,清算の結了等,,,2015-10-05,1,,,,,ヤマガタウッドエネルギー,0
2377,9430001091045,登記記録の閉鎖等,0,2025-10-29,2025-10-17,ｆａｃｅｔ　ｅｄｇｅ株式会社,,株式会社,北海道,札幌市中央区,南二条西１０丁目１番地,,01,101,0600062,,,2025-10-17,合併による解散等,3430001058768,令和７年１０月１日札幌市中央区南一条西十六丁目１番地３２３春野ビル３Ｆ株式会社一宝（3430001058768）に合併し解散,2024-02-07,1,,,,,ファセットエッジ,0
2378,9430002063373,登記記録の閉鎖等,0,2025-10-29,2025-10-20,有限会社壺屋,,有限会社,北海道,伊達市,元町７番地,,01,233,0520023,,,2025-10-20,清算の結了等,,,2015-10-05,1,,,,,ツボヤ,0
2379,9450002005126,登記記録の閉鎖等,0,2025-10-29,2025-10-23,有限会社真下建設,,有限会社,北海道,旭川市,五条通２４丁目右１号,,01,204,0788215,,,2025-10-23,清算の結了等,,,2015-10-05,1,,,,,マシタケンセツ,0
2382,9470002013473,登記記録の閉鎖等,0,2025-10-29,2025-10-23,有限会社久元組,,有限会社,香川県,仲多度郡まんのう町,吉野下３４０番地１,,37,406,7660022,,,2025-10-23,清算の結了等,,,2015-10-05,1,,,,,,0
