sequenceNumber,corporateNumber,process,correct,updateDate,changeDate,name,nameImageId,kind,prefectureName,cityName,streetNumber,addressImageId,prefectureCode,cityCode,postCode,addressOutside,addressOutsideImageId,closeDate,closeCause,successorCorporateNumber,changeCause,assignmentDate,latest,enName,enPrefectureName,enCityName,enAddressOutside,furigana,hihyoji
6,1010001188923,登記記録の閉鎖等,0,2023-06-26,2023-06-19,株式会社ＭＩＬＥＳＴＯＮＥ,,株式会社,東京都,千代田区,鍛冶町２丁目６番２号上野ビルディング８階,,13,101,1010044,,,2023-06-19,清算の結了等,,,2018-01-16,1,,,,,マイルストーン,0
13,1010003020976,登記記録の閉鎖等,0,2023-06-26,2023-06-19,日光２５レオパレス阿佐ヶ谷合同会社,,合同会社,東京都,千代田区,丸の内３丁目１番１号東京共同会計事務所内,,13,101,1000005,,,2023-06-19,清算の結了等,,,2015-10-05,1,,,,,ニッコウトゥエンティーファイブレオパレスアサガヤ,0
51,1011001020852,登記記録の閉鎖等,0,2023-06-26,2023-06-21,株式会社ベルズ,,株式会社,東京都,渋谷区,恵比寿西１丁目２０番６号,,13,113,1500021,,,2023-06-21,清算の結了等,,,2015-10-05,1,,,,,ベルズ,0
54,1011002033325,登記記録の閉鎖等,0,2023-06-26,2023-06-22,有限会社エスワイジャパン,,有限会社,東京都,東久留米市,下里５丁目９番１５号ＬＩＢビル２階,,13,222,2030043,,,2023-06-22,清算の結了等,,,2015-10-05,1,,,,,,0
55,1011003006503,登記記録の閉鎖等,0,2023-06-26,2023-06-13,奈良ＩＢＬＰ合同会社,,合同会社,東京都,港区,赤坂２丁目１０番５号税理士法人赤坂国際会計事務所内,,13,103,1070052,,,2023-06-13,清算の結了等,,,2016-01-15,1,,,,,,0
56,1011005001089,登記記録の閉鎖等,0,2023-06-26,2023-06-09,特定非営利活動法人色彩ＮＰＯ日本カラーネットワーク協会,,その他の設立登記法人,千葉県,浦安市,北栄４丁目１８番１８－２０２号,,12,227,2790002,,,2023-06-09,清算の結了等,,,2015-10-05,1,,,,,シキサイエヌピーオーニホンカラーネットワークキョウカイ,0
64,1011605001901,登記記録の閉鎖等,0,2023-06-26,2023-06-22,一般社団法人スローン・アセットマネジメント,,その他の設立登記法人,東京都,練馬区,下石神井６丁目２４番６号,,13,120,1770042,,,2023-06-22,清算の結了等,,,2015-10-05,1,,,,,スローンアセットマネジメント,0
73,1012701011050,登記記録の閉鎖等,0,2023-06-26,2023-06-21,株式会社Ｎ・Ｕ・Ｂ,,株式会社,東京都,清瀬市,松山１丁目１３番２３号,,13,221,2040022,,,2023-06-21,清算の結了等,,,2015-10-05,1,,,,,ナブ,0
83,1020001133390,登記記録の閉鎖等,0,2023-06-26,2023-06-19,株式会社ネクスキャリア,,株式会社,神奈川県,横浜市港北区,小机町１５１２番地６,,14,109,2220036,,,2023-06-19,清算の結了等,,,2019-10-29,1,,,,,ネクスキャリア,0
97,1030001116592,登記記録の閉鎖等,0,2023-06-26,2023-06-08,トラスト・ループ株式会社,,株式会社,埼玉県,北葛飾郡杉戸町,杉戸５丁目９番１３号サンヴェール・ＳＯ２０７,,11,464,3450036,,,2023-06-08,清算の結了等,,,2016-10-06,1,,,,,トラストループ,0
108,1040002065565,登記記録の閉鎖等,0,2023-06-26,2023-06-09,有限会社すずらん整骨院,,有限会社,千葉県,成田市,橋賀台１丁目１７番地１８,,12,211,2860037,,,2023-06-09,清算の結了等,,,2015-10-05,1,,,,,スズランセイコツイン,0
119,1070002036729,登記記録の閉鎖等,0,2023-06-26,2023-06-22,有限会社初見牛乳店,,有限会社,群馬県,吾妻郡東吾妻町,大字原町２３３４番地,,10,429,3770801,,,2023-06-22,清算の結了等,,,2015-10-05,1,,,,,ハツミギュウニュウテン,0
125,1120001045931,登記記録の閉鎖等,0,2023-06-26,2023-06-15,株式会社トラスト・ホーム,,株式会社,大阪府,大阪市西区,新町１丁目２３番３号,,27,106,5500013,,,2023-06-15,清算の結了等,,,2015-10-05,1,,,,,トラストホーム,0
147,1120901045972,登記記録の閉鎖等,0,2023-06-26,2023-06-20,株式会社アップライド,,株式会社,大阪府,摂津市,新在家２丁目３０－５,,27,224,5660055,,,2023-06-20,清算の結了等,,,2022-05-17,1,,,,,アップライド,0
150,1130001070730,登記記録の閉鎖等,0,2023-06-26,2023-06-21,株式会社カチウム,,株式会社,京都府,福知山市,字堀１９６５番地の２,,26,201,6200000,,,2023-06-21,清算の結了等,,,2021-12-21,1,,,,,カチウム,0
151,1140001059707,登記記録の閉鎖等,0,2023-06-26,2023-06-21,第一安全工業株式会社,00039816,株式会社,兵庫県,姫路市,市之郷１２６９番地の１,,28,201,6700000,,,2023-06-21,清算の結了等,,,2015-10-05,1,,,,,ダイイチアンゼンコウギョウ,0
157,1140002061827,登記記録の閉鎖等,0,2023-06-26,2023-06-19,有限会社Ｄ・Ｈ・Ｓ大和ホームサービス,,有限会社,兵庫県,西脇市,和田町４６７番地の１,,28,213,6770052,,,2023-06-19,清算の結了等,,,2015-10-05,1,,,,,,0
167,1180001020945,登記記録の閉鎖等,0,2023-06-26,2023-06-22,株式会社マルト金物,,株式会社,愛知県,名古屋市中川区,中郷５丁目６６番地の１,,23,110,4540921,,,2023-06-22,清算の結了等,,,2015-10-05,1,,,,,マルトカナモノ,0
169,1180001137087,登記記録の閉鎖等,0,2023-06-26,2023-06-21,株式会社大輝興業,,株式会社,愛知県,北名古屋市,久地野牧野３１番地４,,23,234,4810012,,,2023-06-21,清算の結了等,,,2019-06-26,1,,,,,ダイキコウギョウ,0
173,1180002049430,登記記録の閉鎖等,0,2023-06-26,2023-06-16,有限会社オゾン,,有限会社,愛知県,名古屋市北区,山田町３丁目４０番地,,23,103,4620813,,,2023-06-16,清算の結了等,,,2015-10-05,1,,,,,オゾン,0
185,1240002024162,登記記録の閉鎖等,0,2023-06-26,2023-06-20,有限会社Ｋ・Ｋ技術コンサルタント,,有限会社,広島県,広島市安佐北区,あさひが丘５丁目１２番５号,,34,106,7313361,,,2023-06-20,清算の結了等,,,2015-10-05,1,,,,,ケイケイギジュツコンサルタント,0
187,1240003005046,登記記録の閉鎖等,0,2023-06-26,2023-06-22,合同会社ＧＡＭ,,合同会社,広島県,広島市東区,上温品４丁目３３番３０－１２０３号,,34,102,7320032,,,2023-06-22,清算の結了等,,,2021-04-06,1,,,,,ジーエーエム,0
234,1450002006049,登記記録の閉鎖等,0,2023-06-26,2023-06-19,有限会社凛花,,有限会社,北海道,旭川市,豊岡九条７丁目６番６号,,01,204,0788239,,,2023-06-19,清算の結了等,,,2015-10-05,1,,,,,リンカ,0
239,1470005000534,登記記録の閉鎖等,0,2023-06-26,2023-06-20,医療法人社団石田クリニック,,その他の設立登記法人,香川県,高松市,番町５丁目１番２３号,,37,201,7600017,,,2023-06-20,清算の結了等,,,2015-10-05,1,,,,,イシダクリニック,0
243,1480002009635,登記記録の閉鎖等,0,2023-06-26,2023-06-23,株式会社ＳＵＴ,,株式会社,徳島県,阿波市,土成町宮川内字広坪３番地の３,,36,206,7711508,,,2023-06-23,清算の結了等,,,2015-10-05,1,,,,,エスユーティ,0
244,1480003000659,登記記録の閉鎖等,0,2023-06-26,2023-06-22,合同会社Ｓ’Ｄｒｅａｍ,,合同会社,徳島県,徳島市,東新町１丁目１６番地３,,36,201,7700912,,,2023-06-22,清算の結了等,,,2015-10-05,1,,,,,エスドリーム,0
245,1490005000573,登記記録の閉鎖等,0,2023-06-26,2023-06-19,一般社団法人高知県勤労者旅行会,,その他の設立登記法人,高知県,高知市,本町４丁目１番３２号,,39,201,7800870,,,2023-06-19,清算の結了等,,,2015-10-05,1,,,,,,0
269,2010403022398,登記記録の閉鎖等,0,2023-06-26,2023-06-13,合同会社Ｙ．Ｏ．Ｓ,,合同会社,東京都,港区,浜松町２丁目２番１５号浜松町ダイヤビル２階,,13,103,1050013,,,2023-06-13,清算の結了等,,,2020-02-21,1,,,,,ワイオーエス,0
280,2010901042864,登記記録の閉鎖等,0,2023-06-26,2023-06-21,株式会社ヴィネット,,株式会社,東京都,世田谷区,祖師谷１丁目９番５号いづみビルＤ号室,,13,112,1570072,,,2023-06-21,清算の結了等,,,2018-10-04,1,,,,,ヴィネット,0
297,2011501016473,登記記録の閉鎖等,0,2023-06-26,2023-06-21,株式会社日ノ輪クリエイト,,株式会社,東京都,荒川区,西尾久６丁目１８番５号,,13,118,1160011,,,2023-06-21,清算の結了等,,,2015-10-05,1,,,,,ヒノワクリエイト,0
303,2012401032107,登記記録の閉鎖等,0,2023-06-26,2023-06-23,株式会社ＫＭスチール,,株式会社,東京都,多摩市,東寺方６２６－２－３－３号棟５０６号室,,13,224,2060003,,,2023-06-23,清算の結了等,,,2016-11-29,1,,,,,ケイエムスチール,0
313,2013402000829,登記記録の閉鎖等,0,2023-06-26,2023-06-20,有限会社ゾロアート,,有限会社,東京都,日野市,百草９９９番地百草団地１５４号館２０２,,13,212,1910033,,,2023-06-20,清算の結了等,,,2015-10-05,1,,,,,ゾロアート,0
314,2020001001464,登記記録の閉鎖等,0,2023-06-26,2023-06-19,関戸工業株式会社,,株式会社,神奈川県,横浜市瀬谷区,阿久和東４丁目２８番地１３,,14,114,2460023,,,2023-06-19,清算の結了等,,,2015-10-05,1,,,,,セキドコウギョウ,0
315,2020001109349,登記記録の閉鎖等,0,2023-06-26,2023-06-19,株式会社Ｊプロダクション,,株式会社,神奈川県,横浜市中区,真砂町３丁目３３番地セルテ６Ｆ,,14,104,2310016,,,2023-06-19,清算の結了等,,,2015-10-05,1,,,,,,0
325,2021002039915,登記記録の閉鎖等,0,2023-06-26,2023-06-20,有限会社安孫子商店,,有限会社,神奈川県,大和市,桜森３丁目３番７号,,14,213,2420028,,,2023-06-20,清算の結了等,,,2015-10-05,1,,,,,,0
344,2040002056687,登記記録の閉鎖等,0,2023-06-26,2023-06-06,有限会社印西化工,,有限会社,千葉県,印旛郡栄町,竜角寺台４丁目１０番５号,,12,329,2701505,,,2023-06-06,清算の結了等,,,2015-10-05,1,,,,,インザイカコウ,0
345,2040002099397,登記記録の閉鎖等,0,2023-06-26,2023-06-08,有限会社三栄オート,,有限会社,千葉県,館山市,館山１０３４番地,,12,205,2940036,,,2023-06-08,清算の結了等,,,2015-10-05,1,,,,,サンエイオート,0
349,2060001013910,登記記録の閉鎖等,0,2023-06-26,2023-06-15,株式会社こるり,,株式会社,栃木県,宇都宮市,下田原町３２５８番地１４,,09,201,3291115,,,2023-06-15,清算の結了等,,,2015-10-05,1,,,,,コルリ,0
360,2110001016024,登記記録の閉鎖等,0,2023-06-26,2023-06-19,株式会社羽賀設計,,株式会社,新潟県,燕市,下粟生津１３６２番地３,,15,213,9590222,,,2023-06-19,清算の結了等,,,2015-10-05,1,,,,,ハガセッケイ,0
367,2120001207480,登記記録の閉鎖等,0,2023-06-26,2023-06-21,株式会社ＩＳＡＭＩ,,株式会社,大阪府,大阪市東淀川区,豊里４丁目１１番１４号,,27,114,5330013,,,2023-06-21,清算の結了等,,,2017-08-18,1,,,,,,0
368,2120001214320,登記記録の閉鎖等,0,2023-06-26,2023-06-20,株式会社リバティホーム,,株式会社,大阪府,門真市,島頭４丁目２６番２１号,,27,223,5710016,,,2023-06-20,清算の結了等,,,2018-06-27,1,,,,,リバティホーム,0
383,2122001014923,登記記録の閉鎖等,0,2023-06-26,2023-06-21,フリーダムネットワーク株式会社,,株式会社,大阪府,大阪市淀川区,西中島７丁目１番３－２１１号,,27,123,5320011,,,2023-06-21,清算の結了等,,,2015-10-05,1,,,,,,0
402,2180001046898,登記記録の閉鎖等,0,2023-06-26,2023-06-22,ティケイ株式会社,,株式会社,愛知県,名古屋市中村区,井深町１番１号,,23,105,4530012,,,2023-06-22,清算の結了等,,,2015-10-05,1,,,,,ティケイ,0
408,2180002025785,登記記録の閉鎖等,0,2023-06-26,2023-06-20,有限会社サンユウ,,有限会社,愛知県,名古屋市緑区,文久山４５７番地,,23,114,4598008,,,2023-06-20,清算の結了等,,,2015-10-05,1,,,,,サンユウ,0
422,2260002021660,登記記録の閉鎖等,0,2023-06-26,2023-06-20,有限会社もうり工業,,有限会社,岡山県,倉敷市,児島柳田町１０５９番地の１,,33,202,7110936,,,2023-06-20,清算の結了等,,,2015-10-05,1,,,,,モウリコウギョウ,0
436,2300001006162,登記記録の閉鎖等,0,2023-06-26,2023-06-20,株式会社九州サンベンド,,株式会社,佐賀県,鳥栖市,蔵上町字外精２７番地１,,41,203,8410054,,,2023-06-20,合併による解散等,8010401080079,令和５年６月１日東京都港区芝浦三丁目１番１号サントリー食品インターナショナル株式会社（8010401080079）に合併し解散,2015-10-05,1,,,,,キュウシュウサンベンド,0
437,2300001008662,登記記録の閉鎖等,0,2023-06-26,2023-06-21,株式会社炭化,,株式会社,佐賀県,佐賀市,富士町大字古湯２６５５－３,,41,201,8400501,,,2023-06-21,清算の結了等,,,2015-10-05,1,,,,,タンカ,0
453,2380001020164,登記記録の閉鎖等,0,2023-06-26,2023-06-21,株式会社樹楽園,,株式会社,福島県,石川郡玉川村,大字川辺字宮ノ前３７２番地,,07,502,9636313,,,2023-06-21,清算の結了等,,,2015-10-05,1,,,,,キラクエン,0
454,2380001028117,登記記録の閉鎖等,0,2023-06-26,2023-06-20,穂積運輸株式会社,,株式会社,福島県,東白川郡塙町,大字上石井字上石井８８番地２,,07,483,9635411,,,2023-06-20,清算の結了等,,,2017-05-17,1,,,,,ホヅミウンユ,0
455,2380002013976,登記記録の閉鎖等,0,2023-06-26,2023-06-21,カードレスアップペイント倶楽部有限会社,,有限会社,福島県,郡山市,図景１丁目２番７号,,07,203,9638834,,,2023-06-21,清算の結了等,,,2015-10-05,1,,,,,カードレスアップペイントクラブ,0
466,2430001003320,登記記録の閉鎖等,0,2023-06-26,2023-06-21,小樽冷蔵株式会社,,株式会社,北海道,札幌市白石区,菊水八条４丁目２番２７号,,01,104,0030808,,,2023-06-21,清算の結了等,,,2015-10-05,1,,,,,オタルレイゾウ,0
510,3010701005590,登記記録の閉鎖等,0,2023-06-26,2023-06-20,大征工業株式会社,,株式会社,東京都,品川区,西五反田７丁目２２番１７号,,13,109,1410031,,,2023-06-20,清算の結了等,,,2015-10-05,1,,,,,タイセイコウギョウ,0
514,3010701041784,登記記録の閉鎖等,0,2023-06-26,2023-06-19,株式会社おさんぽ,,株式会社,神奈川県,横浜市南区,新川町５丁目３２,,14,105,2320027,,,2023-06-19,清算の結了等,,,2021-11-16,1,,,,,オサンポ,0
516,3010703004731,登記記録の閉鎖等,0,2023-06-26,2023-06-08,合同会社フォレスト・ライティング,,合同会社,東京都,品川区,北品川１丁目９番７号トップルーム品川１０１５号,,13,109,1400001,,,2023-06-08,清算の結了等,,,2019-04-10,1,,,,,フォレストライティング,0
520,3011001144039,登記記録の閉鎖等,0,2023-06-26,2023-05-26,株式会社ＪＯＢＯＲＡ,,株式会社,東京都,渋谷区,広尾１丁目１３番１号,,13,113,1500012,,,2023-05-26,清算の結了等,,,2021-11-24,1,,,,,ジョボラ,0
531,3011105006762,登記記録の閉鎖等,0,2023-06-26,2023-06-23,一般社団法人大阪福島レジデンシャル・ホールディングス,,その他の設立登記法人,東京都,新宿区,西新宿８丁目５番１号,,13,104,1600023,,,2023-06-23,清算の結了等,,,2015-10-05,1,,,,,オオサカフクシマレジデンシャルホールディングス,0
535,3011301025525,登記記録の閉鎖等,0,2023-06-26,2023-06-21,株式会社７ｎＳインターナショナル,,株式会社,東京都,世田谷区,代田３丁目２７番３１号,,13,112,1550033,,,2023-06-21,清算の結了等,,,2019-11-29,1,,,,,セブンズインターナショナル,0
539,3011501015466,登記記録の閉鎖等,0,2023-06-26,2023-06-21,株式会社オフィスＫａｗａｋｉｔａ,,株式会社,東京都,荒川区,荒川７丁目３８番５号,,13,118,1160002,,,2023-06-21,清算の結了等,,,2015-10-05,1,,,,,オフィスカワキタ,0
551,3020001120973,登記記録の閉鎖等,0,2023-06-26,2023-06-19,ＳｔｉＧ株式会社,,株式会社,神奈川県,横浜市旭区,さちが丘１８９番２３,,14,112,2410822,,,2023-06-19,清算の結了等,,,2017-04-21,1,,,,,,0
562,3021002010684,登記記録の閉鎖等,0,2023-06-26,2023-06-21,有限会社国松興業,,有限会社,神奈川県,茅ヶ崎市,室田１丁目１５番５２号ハイツカワバタ１号１０１,,14,207,2530018,,,2023-06-21,清算の結了等,,,2015-10-05,1,,,,,,0
582,3040001098787,登記記録の閉鎖等,0,2023-06-26,2023-06-12,株式会社エムズサービス,,株式会社,千葉県,千葉市花見川区,朝日ケ丘５丁目３５番５号,,12,102,2620019,,,2023-06-12,清算の結了等,,,2017-02-10,1,,,,,エムズサービス,0
586,3040002022787,登記記録の閉鎖等,0,2023-06-26,2023-06-08,有限会社照栄工業,,有限会社,千葉県,船橋市,藤原８丁目２７番１号,,12,204,2730047,,,2023-06-08,清算の結了等,,,2015-10-05,1,,,,,ショウエイコウギョウ,0
596,3070002034235,登記記録の閉鎖等,0,2023-06-26,2023-06-20,有限会社ミカモ技術,,有限会社,群馬県,館林市,上早川田町３８２番地,,10,207,3740079,,,2023-06-20,清算の結了等,,,2015-10-05,1,,,,,ミカモギジュツ,0
630,3140001042223,登記記録の閉鎖等,0,2023-06-26,2023-06-21,株式会社アトレ,,株式会社,兵庫県,神戸市中央区,御幸通４丁目１－２０,,28,110,6510087,,,2023-06-21,清算の結了等,,,2015-10-05,1,,,,,アトレ,0
633,3140002041686,登記記録の閉鎖等,0,2023-06-26,2023-06-20,有限会社辻井工務店,00041052,有限会社,兵庫県,尼崎市,金楽寺町２丁目７番１７号,,28,202,6600806,,,2023-06-20,清算の結了等,,,2015-10-05,1,,,,,ツジイコウムテン,0
646,3180001142267,登記記録の閉鎖等,0,2023-06-26,2023-06-16,株式会社ＡＧＥＮＴ　ＳＹＳＴＥＭＳ,,株式会社,愛知県,名古屋市中村区,名駅３丁目２３番１６号,,23,105,4500002,,,2023-06-16,清算の結了等,,,2020-08-07,1,,,,,エージェントシステムズ,0
664,3200003005510,登記記録の閉鎖等,0,2023-06-26,2023-06-22,合同会社アイズ,,合同会社,岐阜県,中津川市,千旦林１４１５番地の１０,,21,206,5099131,,,2023-06-22,清算の結了等,,,2022-03-25,1,,,,,,0
681,3290005015755,登記記録の閉鎖等,0,2023-06-26,2023-06-14,特定非営利活動法人ＤＫＰ,,その他の設立登記法人,福岡県,福岡市城南区,七隈２丁目１２番３８号,,40,136,8140133,,,2023-06-14,清算の結了等,,,2016-01-14,1,,,,,ディーケーピー,0
687,3310001015070,登記記録の閉鎖等,0,2023-06-26,2023-06-20,長崎クリエーション株式会社,,株式会社,長崎県,諫早市,有喜町１５番地３,,42,204,8540121,,,2023-06-20,清算の結了等,,,2017-08-09,1,,,,,ナガサキクリエーション,0
694,3330001026090,登記記録の閉鎖等,0,2023-06-26,2023-06-20,Ｗｉｎｙｏｕｔｈ株式会社,,株式会社,熊本県,熊本市南区,流通団地１丁目５７番地,,43,104,8620967,,,2023-06-20,清算の結了等,,,2019-02-07,1,,,,,ウィンユース,0
719,3480001010088,登記記録の閉鎖等,0,2023-06-26,2023-06-20,株式会社ニギワス,,株式会社,大阪府,吹田市,豊津町１番１８号,,27,205,5640051,,,2023-06-20,清算の結了等,,,2017-07-26,1,,,,,ニギワス,0
720,3490005006288,登記記録の閉鎖等,0,2023-06-26,2023-06-21,医療法人福井診療所,,その他の設立登記法人,高知県,高知市,福井扇町１１７８番地１,,39,201,7800966,,,2023-06-21,清算の結了等,,,2015-10-05,1,,,,,フクイシンリョウショ,0
730,4010001174441,登記記録の閉鎖等,0,2023-06-26,2023-06-19,株式会社ベルトップ,,株式会社,東京都,千代田区,神田神保町３丁目２３番地３メゾン千代田１００１号,,13,101,1010051,,,2023-06-19,清算の結了等,,,2016-03-23,1,,,,,ベルトップ,0
751,4010403022891,登記記録の閉鎖等,0,2023-06-26,2023-06-13,朝凪コンサルティング合同会社,,合同会社,東京都,港区,赤坂９丁目７番２号東京ミッドタウン・レジデンシィズ１８１３,,13,103,1070052,,,2023-06-13,清算の結了等,,,2020-04-27,1,,,,,アサナギコンサルティング,0
771,4011005002613,登記記録の閉鎖等,0,2023-06-26,2023-06-20,医療法人社団秀正会,,その他の設立登記法人,東京都,渋谷区,神宮前４丁目１１番６号表参道千代田ビル地下２階ＲＯＯＭ１,,13,113,1500001,,,2023-06-20,清算の結了等,,,2015-10-05,1,,,,,シュウセイカイ,0
779,4011402002653,登記記録の閉鎖等,0,2023-06-26,2023-06-21,有限会社杵渕製綿所,,有限会社,東京都,板橋区,前野町２丁目３６番３２号,,13,119,1740063,,,2023-06-21,清算の結了等,,,2015-10-05,1,,,,,キネブチセイメンショ,0
787,4011702006313,登記記録の閉鎖等,0,2023-06-26,2023-06-21,スミダプラント有限会社,,有限会社,東京都,江戸川区,西瑞江２丁目１８番地５４,,13,123,1320015,,,2023-06-21,清算の結了等,,,2015-10-05,1,,,,,スミダプラント,0
797,4013301049874,登記記録の閉鎖等,0,2023-06-26,2023-06-16,アールピーテクノロジー株式会社,,株式会社,東京都,豊島区,南池袋１丁目１６番２０号ぬかりやビル６階,,13,116,1710022,,,2023-06-16,清算の結了等,,,2022-11-01,1,,,,,,0
801,4020001101106,登記記録の閉鎖等,0,2023-06-26,2023-06-20,株式会社キュージーエンジニアリング,,株式会社,神奈川県,横浜市鶴見区,北寺尾７丁目７番１９－２号,,14,101,2300074,,,2023-06-20,清算の結了等,,,2015-10-05,1,,,,,キュージーエンジニアリング,0
805,4020002063799,登記記録の閉鎖等,0,2023-06-26,2023-06-19,中見電気有限会社,,有限会社,神奈川県,横浜市港北区,日吉４丁目１３番１１号,,14,109,2230061,,,2023-06-19,清算の結了等,,,2015-10-05,1,,,,,ナカミデンキ,0
806,4020002096642,登記記録の閉鎖等,0,2023-06-26,2023-06-19,有限会社郡司商店,,有限会社,神奈川県,川崎市川崎区,小田１丁目３１番１１号,,14,131,2100846,,,2023-06-19,清算の結了等,,,2015-10-05,1,,,,,グンジショウテン,0
811,4021002070050,登記記録の閉鎖等,0,2023-06-26,2023-06-19,有限会社オフィスエヌ・ビー・ピー,,有限会社,神奈川県,逗子市,新宿１丁目６番４３号,,14,208,2490007,,,2023-06-19,清算の結了等,,,2015-10-05,1,,,,,オフィスエヌビーピー,0
830,4080005007112,登記記録の閉鎖等,0,2023-06-26,2023-06-13,一般社団法人地域支援活動世代の郷,,その他の設立登記法人,静岡県,藤枝市,藤岡４丁目４８８番地の２２,,22,214,4260006,,,2023-06-13,清算の結了等,,,2018-06-15,1,,,,,チイキシエンカツドウセダイノサト,0
837,4100002026244,登記記録の閉鎖等,0,2023-06-26,2023-06-20,有限会社太田建築所,,有限会社,長野県,大町市,常盤３４８６番地２７１,,20,212,3980004,,,2023-06-20,清算の結了等,,,2015-10-05,1,,,,,オオタケンチクショ,0
843,4110005013065,登記記録の閉鎖等,0,2023-06-26,2023-06-19,一般社団法人長岡ＧＩＳ研究会,,その他の設立登記法人,新潟県,長岡市,中沢町１７７番地,,15,202,9400854,,,2023-06-19,清算の結了等,,,2015-10-05,1,,,,,ナガオカジーアイーエスケンキュウカイ,0
845,4120001075752,登記記録の閉鎖等,0,2023-06-26,2023-06-22,エバーグロー株式会社,,株式会社,大阪府,大阪市中央区,南船場１丁目３番２２号,,27,128,5420081,,,2023-06-22,清算の結了等,,,2015-10-05,1,,,,,エバーグロー,0
853,4120001206118,登記記録の閉鎖等,0,2023-06-26,2023-06-20,ヴァールコード株式会社,,株式会社,大阪府,大阪市中央区,南船場４丁目１０番５号南船場ＳＯＨＯビル７０２,,27,128,5420081,,,2023-06-20,清算の結了等,,,2017-05-31,1,,,,,ヴァールコード,0
873,4140001056783,登記記録の閉鎖等,0,2023-06-26,2023-06-19,瓜月弁当株式会社,,株式会社,兵庫県,豊岡市,江本３４５番地の１０,,28,209,6680852,,,2023-06-19,清算の結了等,,,2015-10-05,1,,,,,リュウゲツベントウ,0
883,4170005004769,登記記録の閉鎖等,0,2023-06-26,2023-06-22,橋本市商業協同組合,,その他の設立登記法人,和歌山県,橋本市,市脇１丁目３番１８号,,30,203,6480073,,,2023-06-22,清算の結了等,,,2015-10-05,1,,,,,ハシモトシショウギョウ,0
892,4180002075184,登記記録の閉鎖等,0,2023-06-26,2023-06-20,有限会社茂上建設,,有限会社,愛知県,丹羽郡扶桑町,大字柏森字西前１１１番地１,,23,362,4800103,,,2023-06-20,清算の結了等,,,2015-10-05,1,,,,,モガミケンセツ,0
893,4180005018000,登記記録の閉鎖等,0,2023-06-26,2023-06-21,一般社団法人エンジ会,,その他の設立登記法人,愛知県,知多市,岡田字善坪６４番地,,23,224,4780021,,,2023-06-21,清算の結了等,,,2018-10-10,1,,,,,エンジカイ,0
903,4200002001484,登記記録の閉鎖等,0,2023-06-26,2023-06-23,有限会社ギャロップ,,有限会社,岐阜県,岐阜市,田神５番４号,,21,201,5008158,,,2023-06-23,清算の結了等,,,2015-10-05,1,,,,,ギャロップ,0
909,4230005004390,登記記録の閉鎖等,0,2023-06-26,2023-06-20,協同組合ほたるＥカード会,,その他の設立登記法人,富山県,滑川市,下小泉町３１０番地,,16,206,9360058,,,2023-06-20,清算の結了等,,,2015-10-05,1,,,,,ホタルイーカードカイ,0
915,4270001005216,登記記録の閉鎖等,0,2023-06-26,2023-06-14,株式会社エクセル,,株式会社,鳥取県,倉吉市,上井２７番地１,,31,203,6820021,,,2023-06-14,清算の結了等,,,2015-10-05,1,,,,,エクセル,0
935,4320001016100,登記記録の閉鎖等,0,2023-06-26,2023-06-22,森の灯り株式会社,,株式会社,大分県,大分市,大字奥田３１番地の９,,44,201,8700100,,,2023-06-22,清算の結了等,,,2018-01-05,1,,,,,,0
936,4320002004913,登記記録の閉鎖等,0,2023-06-26,2023-06-20,有限会社ドリームキッズ,,有限会社,大分県,大分市,宮崎台三丁目４番２号,,44,201,,,,2023-06-20,清算の結了等,,,2015-10-05,1,,,,,,0
982,5010001035295,登記記録の閉鎖等,0,2023-06-26,2023-06-20,株式会社アイダ朝香真珠,,株式会社,東京都,中央区,佃２丁目１番１－１００２号,,13,102,1040051,,,2023-06-20,清算の結了等,,,2015-10-05,1,,,,,アイダアサカシンジュ,0
984,5010001143247,登記記録の閉鎖等,0,2023-06-26,2023-06-21,株式会社レゴラボ,,株式会社,東京都,目黒区,東山１丁目６番２号メイコービル４Ｆ,,13,110,1530043,,,2023-06-21,清算の結了等,,,2015-10-05,1,,,,,レゴラボ,0
987,5010001184662,登記記録の閉鎖等,0,2023-06-26,2023-06-19,株式会社レオ・エンタテイメント,,株式会社,東京都,千代田区,神田平河町１番地,,13,101,1010027,,,2023-06-19,清算の結了等,,,2017-07-07,1,,,,,レオエンタテイメント,0
1006,5010403025381,登記記録の閉鎖等,0,2023-06-26,2023-06-12,ネージュ合同会社,,合同会社,東京都,港区,南青山２丁目２番１５号ウィン青山９４２,,13,103,1070062,,,2023-06-12,清算の結了等,,,2021-05-25,1,,,,,ネージュ,0
1024,5010901023762,登記記録の閉鎖等,0,2023-06-26,2023-06-20,株式会社ＩＤ,,株式会社,東京都,世田谷区,大原２丁目２６番１２号ロイヤルパレス喜正堂３－Ｂ室,,13,112,1560041,,,2023-06-20,清算の結了等,,,2015-10-05,1,,,,,,0
1061,5013305002424,登記記録の閉鎖等,0,2023-06-26,2023-06-16,一般社団法人日本国際医療協力センター,,その他の設立登記法人,東京都,豊島区,西池袋５丁目１７番１２号創業新幹線ビル７Ｆ,,13,116,1710021,,,2023-06-16,清算の結了等,,,2015-10-05,1,,,,,ニホンコクサイイリョウキョウリョクセンター,0
1062,5020001038149,登記記録の閉鎖等,0,2023-06-26,2023-06-19,株式会社ティーズオフィス,,株式会社,神奈川県,横浜市都筑区,荏田南１丁目１１番２３号,,14,118,2240007,,,2023-06-19,清算の結了等,,,2015-10-05,1,,,,,ティーズオフィス,0
1076,5021001049904,登記記録の閉鎖等,0,2023-06-26,2023-06-07,株式会社東日本住宅エンジニアリング,,株式会社,神奈川県,鎌倉市,大船１１７５番地,,14,204,2470056,,,2023-06-07,清算の結了等,,,2015-10-05,1,,,,,ヒガシニホンジュウタクエンジニアリング,0
1077,5021001058541,登記記録の閉鎖等,0,2023-06-26,2023-06-21,株式会社Ｋ．ｎｏｗ,,株式会社,神奈川県,大和市,代官２丁目１番地４７,,14,213,2420025,,,2023-06-21,清算の結了等,,,2016-02-19,1,,,,,,0
1096,5040002040358,登記記録の閉鎖等,0,2023-06-26,2023-06-06,有限会社浦安工芸社,,有限会社,千葉県,浦安市,富士見１丁目６番１２号,,12,227,2790043,,,2023-06-06,清算の結了等,,,2015-10-05,1,,,,,ウラヤスコウゲイシャ,0
1104,5060002032320,登記記録の閉鎖等,0,2023-06-26,2023-06-16,有限会社ティアンドティ,,有限会社,栃木県,栃木市,寄居町１２５番地１,,09,203,3280005,,,2023-06-16,清算の結了等,,,2015-10-05,1,,,,,ティアンドティ,0
1106,5070001024937,登記記録の閉鎖等,0,2023-06-26,2023-06-21,マルタサポート株式会社,,株式会社,群馬県,沼田市,薄根町３３９２番地１２,,10,206,3780031,,,2023-06-21,清算の結了等,,,2015-10-05,1,,,,,マルタサポート,0
1124,5120001121150,登記記録の閉鎖等,0,2023-06-26,2023-06-21,株式会社パリパナトレーディング,,株式会社,大阪府,大阪市城東区,中央１丁目２番３－９０１号,,27,118,5360005,,,2023-06-21,清算の結了等,,,2015-10-05,1,,,,,,0
1149,5140003012528,登記記録の閉鎖等,0,2023-06-26,2023-06-21,合同会社Ｓ＆Ｓ,,合同会社,兵庫県,伊丹市,千僧３丁目１０３,,28,207,6640898,,,2023-06-21,清算の結了等,,,2017-10-19,1,,,,,エスアンドエス,0
1162,5180001126763,登記記録の閉鎖等,0,2023-06-26,2023-06-21,株式会社ハウディー,,株式会社,愛知県,稲沢市,高御堂１丁目９番１２号,,23,220,4928213,,,2023-06-21,清算の結了等,,,2017-03-03,1,,,,,ハウディー,0
1169,5180002083021,登記記録の閉鎖等,0,2023-06-26,2023-06-20,有限会社ＡＳ人事コンサルティング,,有限会社,愛知県,名古屋市中区,金山１丁目４番４号,,23,106,4600022,,,2023-06-20,清算の結了等,,,2015-10-05,1,,,,,エーエスジンジコンサルティング,0
1170,5180005007118,登記記録の閉鎖等,0,2023-06-26,2023-06-20,社会保険労務士法人あすなろ事務所,,その他の設立登記法人,愛知県,名古屋市中区,金山１丁目４番４号,,23,106,4600022,,,2023-06-20,清算の結了等,,,2015-10-05,1,,,,,アスナロジムショ,0
1182,5220001005715,登記記録の閉鎖等,0,2023-06-26,2023-06-22,株式会社プリント学習社,,株式会社,石川県,金沢市,北安江２丁目２７番１０号,,17,201,9200022,,,2023-06-22,清算の結了等,,,2015-10-05,1,,,,,プリントガクシュウシャ,0
1184,5220003000879,登記記録の閉鎖等,0,2023-06-26,2023-06-20,山光合資会社,,合資会社,石川県,能美市,小長野町ホ７・８合併番地,,17,211,9231116,,,2023-06-20,清算の結了等,,,2015-10-05,1,,,,,ヤマコウ,0
1226,5360003009089,登記記録の閉鎖等,0,2023-06-26,2023-06-21,Ｈａｐｐｙ　Ｔｉｍｅ　Ｃｏｒｐｏｒａｔｉｏｎ合同会社,,合同会社,沖縄県,那覇市,久米１丁目７番３号３１４号,,47,201,9000033,,,2023-06-21,清算の結了等,,,2018-10-02,1,,,,,ハッピータイムコーポレーション,0
1233,5420005005393,登記記録の閉鎖等,0,2023-06-26,2023-06-19,一番町通り商店街振興組合,,その他の設立登記法人,青森県,黒石市,一番町７番地,,02,204,0360301,,,2023-06-19,清算の結了等,,,2015-10-05,1,,,,,イチバンチョウドオリ,0
1234,5430001029775,登記記録の閉鎖等,0,2023-06-26,2023-06-23,株式会社ウィルマネジメント,,株式会社,北海道,札幌市北区,新琴似町５６０番地１,,01,102,0010915,,,2023-06-23,清算の結了等,,,2015-10-05,1,,,,,ウィルマネジメント,0
1235,5430001084944,登記記録の閉鎖等,0,2023-06-26,2023-06-15,株式会社ＬＧＭ．ＪＰ,,株式会社,北海道,札幌市中央区,北四条東２丁目８番地６－３０５,,01,101,0600034,,,2023-06-15,清算の結了等,,,2021-09-13,1,,,,,エルジーエムドットジェーピー,0
1238,5430003009379,登記記録の閉鎖等,0,2023-06-26,2023-06-20,合同会社ノースヴィレッジ札幌,,合同会社,北海道,札幌市北区,新川西一条６丁目５番２０号,,01,102,0010931,,,2023-06-20,清算の結了等,,,2018-05-18,1,,,,,ノースヴィレッジサッポロ,0
1241,5440005002587,登記記録の閉鎖等,0,2023-06-26,2023-06-21,一般社団法人礼空舎函館お焚き上げ供養所,,その他の設立登記法人,北海道,函館市,中道２丁目４９番１１号,,01,202,0410853,,,2023-06-21,清算の結了等,,,2017-01-26,1,,,,,レイクウシャハコダテオタキアゲクヨウショ,0
1253,6010005011250,登記記録の閉鎖等,0,2023-06-26,2023-06-21,ニュー・パースペクティブ一般社団法人,,その他の設立登記法人,東京都,中央区,日本橋１丁目４番１号日本橋一丁目ビルディング,,13,102,1030027,,,2023-06-21,清算の結了等,,,2015-10-05,1,,,,,ニューパースペクティブ,0
1255,6010401056519,登記記録の閉鎖等,0,2023-06-26,2023-06-12,株式会社ニューグロー,,株式会社,東京都,港区,赤坂３丁目６番１２号,,13,103,1070052,,,2023-06-12,合併による解散等,6010401075254,令和５年６月１日東京都港区西新橋一丁目６番１５号株式会社シービーエス（6010401075254）に合併し解散,2015-10-05,1,,,,,ニューグロー,0
1259,6010401110572,登記記録の閉鎖等,0,2023-06-26,2023-06-19,株式会社ＥＭコンサルティング,,株式会社,神奈川県,横浜市中区,太田町６丁目８６番地,,14,104,2310011,,,2023-06-19,清算の結了等,,,2015-10-05,1,,,,,イーエムコンサルティング,0
1263,6010403012354,登記記録の閉鎖等,0,2023-06-26,2023-06-13,ＲＰ　Ｈｏｌｄｉｎｇｓ合同会社,,合同会社,東京都,港区,虎ノ門３丁目２２番１０－２０１号,,13,103,1050001,,,2023-06-13,清算の結了等,,,2015-10-05,1,,,,,アールピーホールディングス,0
1267,6010503005274,登記記録の閉鎖等,0,2023-06-26,2023-06-21,合同会社Ａｍｂｅｒ,,合同会社,東京都,中央区,銀座１丁目２２番１１号銀座大竹ビジデンス２階,,13,102,1040061,,,2023-06-21,清算の結了等,,,2018-04-24,1,,,,,アンバー,0
1268,6010601041139,登記記録の閉鎖等,0,2023-06-26,2023-06-21,株式会社オマージュ,,株式会社,東京都,墨田区,菊川３丁目９番６号シャンボール菊川１０２号,,13,107,1300024,,,2023-06-21,清算の結了等,,,2015-10-05,1,,,,,,0
1272,6010802000075,登記記録の閉鎖等,0,2023-06-26,2023-06-20,有限会社アオイ企画設計,,有限会社,東京都,大田区,仲六郷２丁目４番９号,,13,111,1440055,,,2023-06-20,清算の結了等,,,2015-10-05,1,,,,,アオイキカクセッケイ,0
1276,6011001025062,登記記録の閉鎖等,0,2023-06-26,2023-06-08,株式会社リノハウス,,株式会社,千葉県,流山市,富士見台２丁目５番地の１小田急ハイツ２５－３０１,,12,220,2700127,,,2023-06-08,清算の結了等,,,2015-10-05,1,,,,,リノハウス,0
1302,6012801018478,登記記録の閉鎖等,0,2023-06-26,2023-06-21,株式会社Ｄｉｒｅｘ　Ｍａｒｋｅｔｉｎｇ,,株式会社,東京都,立川市,錦町１丁目４番２０号ＴＳＣビル５Ｆ,,13,202,1900022,,,2023-06-21,清算の結了等,,,2018-01-10,1,,,,,,0
1308,6013303004669,登記記録の閉鎖等,0,2023-06-26,2023-06-15,ＳＴＡＧＥ　Ｈｏｌｄｉｎｇｓ合同会社,,合同会社,東京都,豊島区,東池袋１丁目１０番１号,,13,116,1700013,,,2023-06-15,合併による解散等,8013301041869,令和５年５月２２日東京都豊島区東池袋一丁目１０番１号ＳＴＡＧＥ　Ｈｏｌｄｉｎｇｓ株式会社（8013301041869）に合併し解散,2019-06-07,1,,,,,ステージホールディングス,0
1309,6020001055969,登記記録の閉鎖等,0,2023-06-26,2023-06-19,株式会社ジャパン・ムエタイ・センター,,株式会社,神奈川県,横浜市神奈川区,台町１番地８号,,14,102,2210834,,,2023-06-19,清算の結了等,,,2015-10-05,1,,,,,ジャパンムエタイセンター,0
1322,6030001011459,登記記録の閉鎖等,0,2023-06-26,2023-06-09,株式会社カードクター栄和,,株式会社,埼玉県,さいたま市桜区,栄和４丁目２２番５号,,11,106,3380823,,,2023-06-09,清算の結了等,,,2015-10-05,1,,,,,カードクターサカワ,0
1331,6030002001723,登記記録の閉鎖等,0,2023-06-26,2023-06-09,有限会社牛山道路,,有限会社,埼玉県,さいたま市浦和区,本太５丁目３０番１１号,,11,107,3300052,,,2023-06-09,清算の結了等,,,2015-10-05,1,,,,,ウシヤマドウロ,0
1333,6030002054580,登記記録の閉鎖等,0,2023-06-26,2023-06-08,有限会社日本屋,,有限会社,埼玉県,上尾市,仲町１丁目９番１８号,,11,219,3620035,,,2023-06-08,清算の結了等,,,2015-10-05,1,,,,,ニホンヤ,0
1348,6040002087134,登記記録の閉鎖等,0,2023-06-26,2023-06-08,有限会社本田,,有限会社,千葉県,香取市,佐原イ５２８番地５,,12,236,2870003,,,2023-06-08,清算の結了等,,,2015-10-05,1,,,,,ホンダ,0
1357,6070001013030,登記記録の閉鎖等,0,2023-06-26,2023-06-20,株式会社アイテクス,,株式会社,群馬県,伊勢崎市,宮子町１２００番１,,10,204,3720801,,,2023-06-20,合併による解散等,3010401107506,令和５年６月１日東京都中央区銀座八丁目１８番７号パークリュクス銀座ｍｏｎｏ９０６号株式会社ＡＩ　Ａｓｓｏｃｉａｔｅｓ（3010401107506）に合併し解散,2015-10-05,1,,,,,,0
1372,6100003005237,登記記録の閉鎖等,0,2023-06-26,2023-06-20,合同会社高池,00115723,合同会社,長野県,長野市,大字稲葉１７３１番地１００,,20,201,3800911,,,2023-06-20,清算の結了等,,,2019-02-07,1,,,,,タカイケ,0
1373,6110001024832,登記記録の閉鎖等,0,2023-06-26,2023-06-19,株式会社マティーナ,,株式会社,新潟県,長岡市,東坂之上町１丁目２番地４,,15,202,9400066,,,2023-06-19,清算の結了等,,,2015-10-05,1,,,,,マティーナ,0
1424,6180002012565,登記記録の閉鎖等,0,2023-06-26,2023-06-22,有限会社穂積石材,,有限会社,愛知県,名古屋市北区,川中町１番１３号,,23,103,4620022,,,2023-06-22,清算の結了等,,,2015-10-05,1,,,,,ホズミセキザイ,0
1447,6330001021824,登記記録の閉鎖等,0,2023-06-26,2023-06-19,株式会社プラスト・アール,,株式会社,熊本県,熊本市北区,植木町舞尾５９３－２－２Ｃ,,43,105,8610134,,,2023-06-19,清算の結了等,,,2015-10-05,1,,,,,プラストアール,0
1455,6380002010383,登記記録の閉鎖等,0,2023-06-26,2023-06-21,有限会社想咲料理の伊藤,,有限会社,福島県,郡山市,八山田５丁目１０９番地,,07,203,9638052,,,2023-06-21,清算の結了等,,,2015-10-05,1,,,,,ソウサクリョウリノイトウ,0
1463,6420001014769,登記記録の閉鎖等,0,2023-06-26,2023-06-20,株式会社アイラス,,株式会社,青森県,八戸市,田向５丁目２８番２０号,,02,203,0310011,,,2023-06-20,清算の結了等,,,2015-10-05,1,,,,,アイラス,0
1466,6430001021153,登記記録の閉鎖等,0,2023-06-26,2023-06-13,株式会社藤エンタープライズ,,株式会社,北海道,札幌市北区,篠路三条２丁目１番１６号,,01,102,0028023,,,2023-06-13,清算の結了等,,,2015-10-05,1,,,,,フジエンタープライズ,0
1474,6470003001827,登記記録の閉鎖等,0,2023-06-26,2023-06-20,合同会社Ｋ－ＦＡＳＴＥＳＴ,,合同会社,香川県,丸亀市,垂水町１６７３番地ドゥヴァン・レコールＢ棟１０２号,,37,202,7630095,,,2023-06-20,清算の結了等,,,2020-09-04,1,,,,,ケイファステスト,0
1475,6480002006140,登記記録の閉鎖等,0,2023-06-26,2023-06-23,有限会社日新貿易,,有限会社,徳島県,徳島市,八多町野田坪７３番地１,,36,201,7714266,,,2023-06-23,清算の結了等,,,2015-10-05,1,,,,,,0
1489,7010403012353,登記記録の閉鎖等,0,2023-06-26,2023-06-13,Ａｒｓｅｎａｌ　Ａｓｓｅｔ　ＩＢＬＰ合同会社,,合同会社,東京都,港区,虎ノ門３丁目２２番１０－２０１号,,13,103,1050001,,,2023-06-13,清算の結了等,,,2015-10-05,1,,,,,アーセナルアセットアイビーエルピー,0
1491,7010403016131,登記記録の閉鎖等,0,2023-06-26,2023-06-13,１ｓｔ　Ｄｉｂｓ合同会社,,合同会社,東京都,港区,赤坂９丁目７番２号東京ミッドタウン・レジデンシィズ１８１３,,13,103,1070052,,,2023-06-13,清算の結了等,,,2017-02-14,1,,,,,ファーストディブス,0
1500,7011001112082,登記記録の閉鎖等,0,2023-06-26,2023-06-13,イーソリューションズ株式会社,,株式会社,東京都,港区,虎ノ門４丁目１番２８号虎ノ門タワーズオフィス３Ｆ,,13,103,1050001,,,2023-06-13,清算の結了等,,,2016-07-28,1,,,,,イーソリューションズ,0
1511,7011003011035,登記記録の閉鎖等,0,2023-06-26,2023-06-20,合同会社Ａｄ　Ｍａｉｏｒａ　Ｉｎｔｅｒｎａｔｉｏｎａｌ,,合同会社,東京都,目黒区,平町２丁目１５番１８号,,13,110,1520032,,,2023-06-20,清算の結了等,,,2020-03-26,1,,,,,アドマイオラインターナショナル,0
1527,7012802011142,登記記録の閉鎖等,0,2023-06-26,2023-06-21,有限会社じょんのび,,有限会社,東京都,立川市,曙町２丁目１１番８号スカイピア２階,00059448,13,202,1900012,,,2023-06-21,清算の結了等,,,2015-10-05,1,,,,,,0
1532,7020001060844,登記記録の閉鎖等,0,2023-06-26,2023-06-19,株式会社ＭＫフーズ,,株式会社,神奈川県,横浜市港北区,綱島西２丁目１１番２－５０１号,,14,109,2230053,,,2023-06-19,清算の結了等,,,2015-10-05,1,,,,,エムケイフーズ,0
1542,7021002057706,登記記録の閉鎖等,0,2023-06-26,2023-06-21,有限会社江陽,,有限会社,神奈川県,平塚市,久領堤７番２３号,,14,203,2540801,,,2023-06-21,清算の結了等,,,2015-10-05,1,,,,,コウヨウ,0
1543,7030001146865,登記記録の閉鎖等,0,2023-06-26,2023-06-09,鴻源興業株式会社,,株式会社,埼玉県,さいたま市浦和区,常盤５丁目１番７－５号,,11,107,3300061,,,2023-06-09,清算の結了等,,,2022-02-22,1,,,,,コウゲンコウギョウ,0
1550,7030002044069,登記記録の閉鎖等,0,2023-06-26,2023-06-02,有限会社浩友商事,,有限会社,埼玉県,草加市,稲荷４丁目６番６号,,11,221,3400003,,,2023-06-02,清算の結了等,,,2015-10-05,1,,,,,コウユウショウジ,0
1552,7040001036693,登記記録の閉鎖等,0,2023-06-26,2023-06-08,株式会社藤井鋼板,,株式会社,千葉県,松戸市,大橋１１０２番地,,12,207,2702224,,,2023-06-08,清算の結了等,,,2015-10-05,1,,,,,フジイコウハン,0
1559,7040002099789,登記記録の閉鎖等,0,2023-06-26,2023-06-08,北条興産有限会社,,有限会社,千葉県,館山市,北条１７５４番地,,12,205,2940045,,,2023-06-08,清算の結了等,,,2015-10-05,1,,,,,ホウジョウコウサン,0
1567,7070002000497,登記記録の閉鎖等,0,2023-06-26,2023-06-19,株式会社テクニカルセンター前橋,,株式会社,群馬県,高崎市,緑町４丁目１２番地５,,10,202,3700073,,,2023-06-19,合併による解散等,6030001018041,令和５年６月１日埼玉県さいたま市岩槻区大字浮谷１０００番地株式会社テクニカルセンター（6030001018041）に合併し解散,2015-10-05,1,,,,,テクニカルセンターマエバシ,0
1570,7070002024868,登記記録の閉鎖等,0,2023-06-26,2023-06-21,有限会社峰岸精麦所,,有限会社,群馬県,桐生市,新里町山上７９７番地,,10,203,3760125,,,2023-06-21,清算の結了等,,,2015-10-05,1,,,,,ミネギシセイバクジョ,0
1576,7080102013563,登記記録の閉鎖等,0,2023-06-26,2023-06-21,有限会社大渕工務店,,有限会社,静岡県,富士市,久沢４５９番地の５,,22,210,4190202,,,2023-06-21,清算の結了等,,,2015-10-05,1,,,,,オオブチコウムテン,0
1577,7080401025466,登記記録の閉鎖等,0,2023-06-26,2023-06-16,株式会社オオツカ,,株式会社,静岡県,浜松市東区,大蒲町７７番地の３,,22,132,4350014,,,2023-06-16,清算の結了等,,,2021-11-05,1,,,,,オオツカ,0
1586,7110001014766,登記記録の閉鎖等,0,2023-06-26,2023-06-19,株式会社ヤマイチ,,株式会社,新潟県,三条市,興野３丁目１１番５号,,15,204,9550046,,,2023-06-19,清算の結了等,,,2015-10-05,1,,,,,ヤマイチ,0
1608,7120901031810,登記記録の閉鎖等,0,2023-06-26,2023-06-19,キーネクストユニオン株式会社,,株式会社,大阪府,摂津市,桜町１丁目６番１８号,,27,224,5660032,,,2023-06-19,清算の結了等,,,2015-10-05,1,,,,,キーネクストユニオン,0
1613,7130005012590,登記記録の閉鎖等,0,2023-06-26,2023-06-19,ＮＰＯ法人田中セツ子京都結婚塾,,その他の設立登記法人,京都府,京都市南区,東九条西山王町１１番地,,26,107,6018003,,,2023-06-19,清算の結了等,,,2015-10-05,1,,,,,タナカセツコキョウトケッコンジュク,0
1619,7180001038321,登記記録の閉鎖等,0,2023-06-26,2023-06-21,株式会社蔦茂旅館,,株式会社,愛知県,名古屋市中区,栄３丁目１２番３２号,,23,106,4600008,,,2023-06-21,合併による解散等,8200001013997,令和５年６月１６日岐阜県大垣市加賀野四丁目１番地２０株式会社デリカスイト（8200001013997）に合併し解散,2015-10-05,1,,,,,ツタモリョカン,0
1620,7180001127314,登記記録の閉鎖等,0,2023-06-26,2023-06-21,株式会社ラ・カーサホールディングス,,株式会社,愛知県,名古屋市中区,栄３丁目１８番１号,,23,106,4600008,,,2023-06-21,清算の結了等,,,2017-04-17,1,,,,,ラカーサホールディングス,0
1631,7200002019854,登記記録の閉鎖等,0,2023-06-26,2023-06-23,有限会社ファッション愛栄,,有限会社,岐阜県,関市,桜台４丁目９番１号,,21,205,5013931,,,2023-06-23,清算の結了等,,,2015-10-05,1,,,,,,0
1645,7290001002506,登記記録の閉鎖等,0,2023-06-26,2023-06-19,株式会社九州無線サポート,,株式会社,福岡県,福岡市中央区,大宮２丁目６番１２号サンラビール平尾６０１号,,40,133,8100013,,,2023-06-19,清算の結了等,,,2015-10-05,1,,,,,キュウシュウムセンサポート,0
1689,8010001150397,登記記録の閉鎖等,0,2023-06-26,2023-06-19,株式会社Ｓ’ＳＰＩＲＩＴＳ,,株式会社,東京都,中央区,日本橋３丁目１３－１１,,13,102,1030027,,,2023-06-19,清算の結了等,,,2015-10-05,1,,,,,,0
1723,8011201019845,登記記録の閉鎖等,0,2023-06-26,2023-06-23,株式会社快進,,株式会社,東京都,中野区,鷺宮６丁目１６番１１号,,13,114,1650032,,,2023-06-23,清算の結了等,,,2017-04-27,1,,,,,カイシン,0
1727,8011701008802,登記記録の閉鎖等,0,2023-06-26,2023-06-22,株式会社リミューズ,,株式会社,東京都,江戸川区,北小岩８丁目６番１３号,,13,123,1330051,,,2023-06-22,清算の結了等,,,2015-10-05,1,,,,,リミューズ,0
1734,8011805003055,登記記録の閉鎖等,0,2023-06-26,2023-06-21,一般社団法人環境テクノ,,その他の設立登記法人,東京都,足立区,辰沼１丁目２番５－１０５号,,13,121,1210054,,,2023-06-21,清算の結了等,,,2021-03-15,1,,,,,カンキョウテクノ,0
1738,8012401029543,登記記録の閉鎖等,0,2023-06-26,2023-06-23,株式会社Ｐ＆Ｓ,,株式会社,東京都,調布市,菊野台２丁目２２番地１１,,13,208,1820007,,,2023-06-23,清算の結了等,,,2015-10-05,1,,,,,ピーアンドエス,0
1739,8012701009427,登記記録の閉鎖等,0,2023-06-26,2023-06-21,株式会社ＫＯＨ　ＴＶ　ｅｎｔｅｒｔａｉｎｍｅｎｔ,,株式会社,東京都,西東京市,東伏見４丁目９番２２号,,13,229,2020021,,,2023-06-21,清算の結了等,,,2015-10-05,1,,,,,コウティーブイエンターテイメント,0
1753,8020002036280,登記記録の閉鎖等,0,2023-06-26,2023-06-19,有限会社矢口産業,,有限会社,神奈川県,横浜市港北区,綱島西４丁目１３番１６号,,14,109,2230053,,,2023-06-19,清算の結了等,,,2015-10-05,1,,,,,ヤグチサンギョウ,0
1771,8040001015597,登記記録の閉鎖等,0,2023-06-26,2023-06-06,株式会社優悠社,,株式会社,千葉県,習志野市,鷺沼１丁目１４番３１号,,12,216,2750014,,,2023-06-06,清算の結了等,,,2015-10-05,1,,,,,ユウユウシャ,0
1775,8040001103848,登記記録の閉鎖等,0,2023-06-26,2023-06-08,株式会社優和,,株式会社,千葉県,富津市,大堀２丁目２０番地１３,,12,226,2930001,,,2023-06-08,清算の結了等,,,2018-03-13,1,,,,,ユウワ,0
1779,8040002004319,登記記録の閉鎖等,0,2023-06-26,2023-06-07,有限会社近藤企画,,有限会社,千葉県,千葉市中央区,長洲１丁目２８番３号,,12,101,2600854,,,2023-06-07,清算の結了等,,,2015-10-05,1,,,,,コンドウキカク,0
1804,8120003009060,登記記録の閉鎖等,0,2023-06-26,2023-06-21,合同会社創美企画,,合同会社,大阪府,大阪市中央区,船場中央３丁目２番船場センタービル８号館地下１階１８７号,,27,128,5410055,,,2023-06-21,清算の結了等,,,2015-10-05,1,,,,,,0
1837,8180002023024,登記記録の閉鎖等,0,2023-06-26,2023-06-21,有限会社加藤左官工業,,有限会社,愛知県,名古屋市西区,栄生１丁目３４番６号,,23,104,4510052,,,2023-06-21,清算の結了等,,,2015-10-05,1,,,,,カトウサカンコウギョウ,0
1858,8290002034480,登記記録の閉鎖等,0,2023-06-26,2023-06-20,有限会社ケントリー,,有限会社,福岡県,福津市,宮司６丁目２番３７号,,40,224,8113305,,,2023-06-20,清算の結了等,,,2015-10-05,1,,,,,ケントリー,0
1867,8310001013929,登記記録の閉鎖等,0,2023-06-26,2023-06-20,穎川株式会社,,株式会社,長崎県,長崎市,恵美須町２番６－１１０２号,,42,201,8500056,,,2023-06-20,清算の結了等,,,2015-11-12,1,,,,,エガワ,0
1869,8330001022580,登記記録の閉鎖等,0,2023-06-26,2023-06-19,株式会社今宵,,株式会社,熊本県,熊本市中央区,上通町５番６号,,43,101,8600845,,,2023-06-19,清算の結了等,,,2016-03-07,1,,,,,,0
1888,8430001080619,登記記録の閉鎖等,0,2023-06-26,2023-06-20,株式会社ゼルク,,株式会社,北海道,札幌市北区,篠路二条１０丁目５番９号,,01,102,0028022,,,2023-06-20,合併による解散等,6430001066792,令和５年６月１日札幌市北区篠路二条十丁目５番９号株式会社ビルセス（6430001066792）に合併し解散,2020-01-20,1,,,,,ゼルク,0
1909,9010003020977,登記記録の閉鎖等,0,2023-06-26,2023-06-19,日光２６シャルマン西巣鴨合同会社,,合同会社,東京都,千代田区,丸の内３丁目１番１号東京共同会計事務所内,,13,101,1000005,,,2023-06-19,清算の結了等,,,2015-10-05,1,,,,,ニッコウトゥエンティーシックスシャルマンニシスガモ,0
1911,9010005035701,登記記録の閉鎖等,0,2023-06-26,2023-06-21,一般社団法人ＳＲＥウェルビーイングファンド,,その他の設立登記法人,東京都,中央区,日本橋１丁目４番１号,,13,102,1030027,,,2023-06-21,清算の結了等,,,2022-10-24,1,,,,,エスアールイーウェルビーイングファンド,0
1943,9011101092165,登記記録の閉鎖等,0,2023-06-26,2023-06-08,株式会社Ａｌｏｎｚｏ　Ｗｏｒｋｓ,,株式会社,千葉県,流山市,西平井３丁目８－１３ベルリード西平井１０１,,12,220,2700156,,,2023-06-08,清算の結了等,,,2020-08-17,1,,,,,アロンゾワークス,0
1944,9011101100654,登記記録の閉鎖等,0,2023-06-26,2023-06-22,ブライトサイド株式会社,,株式会社,東京都,新宿区,西新宿３丁目３番１３号西新宿水間ビル６階,,13,104,1600023,,,2023-06-22,清算の結了等,,,2022-10-27,1,,,,,ブライトサイド,0
1947,9012301011088,登記記録の閉鎖等,0,2023-06-26,2023-06-22,株式会社グローバルビジネスコンサルティング,,株式会社,東京都,町田市,原町田６丁目２３番１５号セレーナ５０３,,13,209,1940013,,,2023-06-22,清算の結了等,,,2017-08-16,1,,,,,グローバルビジネスコンサルティング,0
1958,9013303004807,登記記録の閉鎖等,0,2023-06-26,2023-06-16,合同会社Ｕｎｉｑｕｅ　Ｃｒｏｗｄ,,合同会社,東京都,豊島区,目白５丁目２１番１３－５０４号,,13,116,1710031,,,2023-06-16,清算の結了等,,,2019-09-12,1,,,,,ユニーククラウド,0
1972,9020002038342,登記記録の閉鎖等,0,2023-06-26,2023-06-19,有限会社サンユー機械,,有限会社,神奈川県,横浜市鶴見区,獅子ケ谷１丁目４４番２１号,,14,101,2300073,,,2023-06-19,清算の結了等,,,2015-10-05,1,,,,,サンユーキカイ,0
1973,9020005011049,登記記録の閉鎖等,0,2023-06-26,2023-06-06,一般社団法人日本仮想通貨利用者協会,,その他の設立登記法人,東京都,品川区,東品川１丁目３番１５号,,13,109,1400002,,,2023-06-06,清算の結了等,,,2015-10-05,1,,,,,ニホンカソウツウカリヨウシャキョウカイ,0
1980,9021005000090,登記記録の閉鎖等,0,2023-06-26,2023-06-22,医療法人社団桧山医院,,その他の設立登記法人,神奈川県,藤沢市,湘南台３丁目１４番地の３,,14,205,2520804,,,2023-06-22,清算の結了等,,,2015-10-05,1,,,,,ヒヤマイイン,0
1981,9030001003676,登記記録の閉鎖等,0,2023-06-26,2023-06-12,三真宝飾株式会社,,株式会社,埼玉県,さいたま市北区,日進町２丁目８８９番地,,11,102,3310823,,,2023-06-12,清算の結了等,,,2015-10-05,1,,,,,サンシンホウショク,0
1982,9030001030836,登記記録の閉鎖等,0,2023-06-26,2023-06-12,株式会社トミタカ,,株式会社,埼玉県,久喜市,樋ノ口４９３番地１,,11,232,3460025,,,2023-06-12,清算の結了等,,,2015-10-05,1,,,,,トミタカ,0
1987,9030002112922,登記記録の閉鎖等,0,2023-06-26,2023-06-09,有限会社オーティエス,,有限会社,埼玉県,熊谷市,上之１３２１番地８,,11,202,3600012,,,2023-06-09,清算の結了等,,,2015-10-05,1,,,,,オーティエス,0
1995,9040001115727,登記記録の閉鎖等,0,2023-06-26,2023-06-08,にしむら不動産株式会社,,株式会社,千葉県,市原市,国分寺台中央３丁目７番地１１,,12,219,2900073,,,2023-06-08,清算の結了等,,,2020-11-02,1,,,,,ニシムラフドウサン,0
2004,9060003002302,登記記録の閉鎖等,0,2023-06-26,2023-06-15,ＳＡＫＵＲＡ　ＩＮＴＥＲＮＡＴＩＯＮＡＬ合同会社,,合同会社,栃木県,栃木市,嘉右衛門町６番３９号,,09,203,3280072,,,2023-06-15,清算の結了等,,,2016-07-04,1,,,,,サクラインターナショナル,0
2014,9110002000532,登記記録の閉鎖等,0,2023-06-26,2023-06-19,有限会社アンドウ,,有限会社,新潟県,新潟市東区,新岡山２丁目１７番７号,,15,102,9500822,,,2023-06-19,清算の結了等,,,2015-10-05,1,,,,,アンドウ,0
2026,9120003013136,登記記録の閉鎖等,0,2023-06-26,2023-06-21,合同会社藤商,,合同会社,大阪府,大阪市中央区,南船場１丁目１－８恵エクセルライフ２０５,,27,128,5420081,,,2023-06-21,清算の結了等,,,2017-08-16,1,,,,,フジショウ,0
2033,9120901034753,登記記録の閉鎖等,0,2023-06-26,2023-06-16,京都の四季株式会社,,株式会社,京都府,京都市中京区,柳水町８４番地,,26,104,6048242,,,2023-06-16,合併による解散等,2120901005141,令和５年６月８日大阪府吹田市垂水町三丁目７番１８号株式会社アーツ（2120901005141）に合併し解散,2015-10-05,1,,,,,キョウトノシキ,0
2038,9130002012419,登記記録の閉鎖等,0,2023-06-26,2023-06-20,有限会社タイムマシン,,有限会社,京都府,京都市山科区,勧修寺泉玉町６２番地,,26,110,6078229,,,2023-06-20,清算の結了等,,,2015-10-05,1,,,,,タイムマシン,0
2041,9140001036418,登記記録の閉鎖等,0,2023-06-26,2023-06-21,株式会社たけなか呉服店,,株式会社,兵庫県,三木市,本町２丁目１１番１２号,,28,215,6730431,,,2023-06-21,清算の結了等,,,2015-10-05,1,,,,,,0
2048,9150001011155,登記記録の閉鎖等,0,2023-06-26,2023-06-21,公文レジン工業株式会社,,株式会社,奈良県,磯城郡川西町,大字結崎５９６番地６,,29,361,6360202,,,2023-06-21,清算の結了等,,,2015-10-05,1,,,,,,0
2059,9180002093891,登記記録の閉鎖等,0,2023-06-26,2023-06-21,岩倉企画印刷有限会社,,有限会社,愛知県,岩倉市,八剱町下り松４２番地,,23,228,4820031,,,2023-06-21,清算の結了等,,,2021-03-01,1,,,,,イワクラキカクインサツ,0
2109,9430001008271,登記記録の閉鎖等,0,2023-06-26,2023-06-12,株式会社瑞宝舎,,株式会社,北海道,札幌市北区,北十条西３丁目２番地,,01,102,0010010,,,2023-06-12,清算の結了等,,,2015-10-05,1,,,,,ズイホウシャ,0
2110,9430001022826,登記記録の閉鎖等,0,2023-06-26,2023-06-12,丸市東洋興業株式会社,,株式会社,北海道,札幌市白石区,平和通１１丁目北６番１９号,,01,104,0030029,,,2023-06-12,清算の結了等,,,2015-10-05,1,,,,,マルイチトウヨウコウギョウ,0
2118,9460102005792,登記記録の閉鎖等,0,2023-06-26,2023-06-21,有限会社三好商店,,有限会社,北海道,上川郡清水町,南二条４丁目６番地１,,01,636,0890138,,,2023-06-21,清算の結了等,,,2015-10-05,1,,,,,ミヨシショウテン,0
