sequenceNumber,corporateNumber,process,correct,updateDate,changeDate,name,nameImageId,kind,prefectureName,cityName,streetNumber,addressImageId,prefectureCode,cityCode,postCode,addressOutside,addressOutsideImageId,closeDate,closeCause,successorCorporateNumber,changeCause,assignmentDate,latest,enName,enPrefectureName,enCityName,enAddressOutside,furigana,hihyoji
10,1010001221551,新規,0,2021-10-06,2021-10-06,株式会社みなかみ宝台樹リゾート,,株式会社,東京都,千代田区,丸の内２丁目４番１号,,13,101,1000005,,,,,,,2021-10-06,1,,,,,ミナカミホウダイギリゾート,0
11,1010001221576,新規,0,2021-10-06,2021-10-06,株式会社Ｈ＆Ｈ練馬,,株式会社,東京都,千代田区,神田小川町２丁目６番地１２,,13,101,1010052,,,,,,,2021-10-06,1,,,,,エイチアンドエイチネリマ,0
12,1010001221592,新規,0,2021-10-06,2021-10-06,株式会社麹町ファーストリース,,株式会社,東京都,千代田区,麹町１丁目４番地,,13,101,1020083,,,,,,,2021-10-06,1,,,,,コウジマチファーストリース,0
13,1010003035966,新規,0,2021-10-06,2021-10-06,合同会社ガバメントアフェアーズ・パートナーズ,,合同会社,東京都,千代田区,霞が関１丁目４番１号,,13,101,1000013,,,,,,,2021-10-06,1,,,,,ガバメントアフェアーズパートナーズ,0
14,1010003035974,新規,0,2021-10-06,2021-10-06,レコルト合同会社,,合同会社,東京都,千代田区,東神田３丁目４－１２,,13,101,1010031,,,,,,,2021-10-06,1,,,,,レコルト,0
16,1010005034041,新規,0,2021-10-06,2021-10-06,一般社団法人Ｍ＆Ａ仲介協会,,その他の設立登記法人,東京都,千代田区,丸の内１丁目８番３号丸の内トラストタワー本館２０階,,13,101,1000005,,,,,,,2021-10-06,1,,,,,エムアンドエーチュウカイキョウカイ,0
18,1010101014888,新規,0,2021-10-06,2021-10-06,株式会社Ｗｅｂ　Ｐｅａｃｅ,,株式会社,東京都,八王子市,上柚木３丁目３番地４－８０１,,13,201,1920373,,,,,,,2021-10-06,1,,,,,,0
19,1010101014896,新規,0,2021-10-06,2021-10-06,創八株式会社,,株式会社,東京都,八王子市,中町３番１４号ダイナシティ八王子３０５号,,13,201,1920085,,,,,,,2021-10-06,1,,,,,ソウハチ,0
25,1010401163014,新規,0,2021-10-06,2021-10-06,株式会社Ｔ＆Ｄコンサルティング,,株式会社,東京都,港区,高輪１丁目２７番３７－２８０６号,,13,103,1080074,,,,,,,2021-10-06,1,,,,,ティーアンドディーコンサルティング,0
26,1010401163022,新規,0,2021-10-06,2021-10-06,株式会社ロイヤル,,株式会社,東京都,港区,南麻布２丁目３番２－２０３号,,13,103,1060047,,,,,,,2021-10-06,1,,,,,ロイヤル,0
27,1010401163030,新規,0,2021-10-06,2021-10-06,株式会社Ｍ＆Ａ　ｗｏｒｋｓ,,株式会社,東京都,港区,東麻布１丁目９番１５号,,13,103,1060044,,,,,,,2021-10-06,1,,,,,エムアンドエーワークス,0
28,1010401163047,新規,0,2021-10-06,2021-10-06,株式会社ＨＲＳ,,株式会社,東京都,港区,南麻布２丁目１５番５号,,13,103,1060047,,,,,,,2021-10-06,1,,,,,エイチアールエス,0
39,1010801032371,新規,0,2021-10-06,2021-10-06,株式会社ｃｈｏｐｔｏｐ,,株式会社,東京都,大田区,多摩川２丁目９番１４号,,13,111,1460095,,,,,,,2021-10-06,1,,,,,チョップトップ,0
40,1010801032388,新規,0,2021-10-06,2021-10-06,株式会社７ｐｏｓｉｔｉｏｎ,,株式会社,東京都,大田区,山王２丁目１５番２０号,,13,111,1430023,,,,,,,2021-10-06,1,,,,,ナナポジション,0
42,1010803003908,新規,0,2021-10-06,2021-10-06,Ｏｍｉｓｅ　ｗｏ　Ｄｘ合同会社,,合同会社,東京都,大田区,西蒲田７丁目１０番１０号,,13,111,1440051,,,,,,,2021-10-06,1,,,,,オミセヲディーエックス,0
43,1010901049555,新規,0,2021-10-06,2021-10-06,株式会社ｓｅｅｄｓ,,株式会社,東京都,世田谷区,瀬田４丁目１５番３６－２０３号,,13,112,1580095,,,,,,,2021-10-06,1,,,,,シーズ,0
44,1010901049563,新規,0,2021-10-06,2021-10-06,カカワトル株式会社,,株式会社,東京都,世田谷区,玉川田園調布２丁目１３番１号,,13,112,1580085,,,,,,,2021-10-06,1,,,,,カカワトル,0
45,1010901049571,新規,0,2021-10-06,2021-10-06,株式会社シェフグラフィックス,,株式会社,東京都,世田谷区,祖師谷１丁目１４番５号,,13,112,1570072,,,,,,,2021-10-06,1,,,,,シェフグラフィックス,0
48,1010903006843,新規,0,2021-10-06,2021-10-06,ｒｏｏｍｓｅｒｖｉｃｅ合同会社,,合同会社,東京都,世田谷区,若林１丁目２１番４号タウンハウス若林１,,13,112,1540023,,,,,,,2021-10-06,1,,,,,ルームサービス,0
56,1011001143059,新規,0,2021-10-06,2021-10-06,株式会社ｓｔｕｄｉｏ　Ｓｈｉｏ‐ｓｉｄｅ,,株式会社,東京都,渋谷区,神宮前６丁目２３番４号,,13,113,1500001,,,,,,,2021-10-06,1,,,,,スタジオシオサイド,0
57,1011001143067,新規,0,2021-10-06,2021-10-06,株式会社ティーエイ,,株式会社,東京都,目黒区,上目黒１丁目１１－１ＯＡＫＢＬＤＧＩＩ,00124462,13,110,1530051,,,,,,,2021-10-06,1,,,,,ティーエイ,0
58,1011001143166,新規,0,2021-10-06,2021-10-06,Ｌｅｍｏｎ．株式会社,,株式会社,東京都,渋谷区,神宮前２丁目２番３９－８２４号ＴＨＥＣＯＵＲＴ神宮外苑,,13,113,1500001,,,,,,,2021-10-06,1,,,,,レモンドット,0
59,1011001143232,新規,0,2021-10-06,2021-10-06,株式会社ＱＵＡＬＩＡＳ,,株式会社,東京都,渋谷区,本町３丁目４９番１６号西新宿アイコービル４階,,13,113,1510071,,,,,,,2021-10-06,1,,,,,クオリアス,0
60,1011001143265,新規,0,2021-10-06,2021-10-06,ｉｎｆｏＶａｔｉｏｎ株式会社,,株式会社,東京都,渋谷区,神宮前６丁目２３番４号桑野ビル２階,,13,113,1500001,,,,,,,2021-10-06,1,,,,,インフォベーション,0
62,1011101096470,新規,0,2021-10-06,2021-10-06,日本電子通信サービス株式会社,,株式会社,東京都,新宿区,西新宿６丁目１０－１日土地西新宿ビル,,13,104,1600023,,,,,,,2021-10-06,1,,,,,ニッポンデンシツウシンサービス,0
63,1011101096479,新規,0,2021-10-06,2021-10-06,株式会社ＮＡｐｒｏｍｏｔｉｏｎ,,株式会社,東京都,新宿区,新宿５丁目１５－１２レックスハイツ新宿五丁目４０２,,13,104,1600022,,,,,,,2021-10-06,1,,,,,エヌエープロモーション,0
68,1011103011056,新規,0,2021-10-06,2021-10-06,合同会社ＤＥＣＥＮＴ,,合同会社,東京都,新宿区,西新宿１丁目４番１１号全研プラザＳＰＡＣＥＳ新宿,,13,104,1600023,,,,,,,2021-10-06,1,,,,,ディセント,0
74,1011401023711,新規,0,2021-10-06,2021-10-06,株式会社ＹＹ,,株式会社,東京都,板橋区,坂下１丁目１８番７－４０６号,,13,119,1740043,,,,,,,2021-10-06,1,,,,,,0
78,1011601025433,新規,0,2021-10-06,2021-10-06,ＡＡＭＡＢＡＢＡ株式会社,,株式会社,東京都,練馬区,桜台１丁目５番１１号２Ｆ,,13,120,1760002,,,,,,,2021-10-06,1,,,,,アマババ,0
79,1011701024756,新規,0,2021-10-06,2021-10-06,Ｋ・Ｓ設備株式会社,,株式会社,東京都,江戸川区,北小岩１丁目１８番１号,,13,123,1330051,,,,,,,2021-10-06,1,,,,,ケイエスセツビ,0
80,1011701024764,新規,0,2021-10-06,2021-10-06,株式会社山田屋,,株式会社,東京都,江戸川区,南篠崎町４丁目２番３号,,13,123,1330065,,,,,,,2021-10-06,1,,,,,ヤマダヤ,0
82,1011703002958,新規,0,2021-10-06,2021-10-06,合同会社木内工業所,,合同会社,東京都,江戸川区,東瑞江１丁目３７番１０号,,13,123,1320014,,,,,,,2021-10-06,1,,,,,キウチコウギョウショ,0
86,1012401038369,新規,0,2021-10-06,2021-10-06,フーコー株式会社,,株式会社,東京都,武蔵野市,吉祥寺本町１丁目５番１号吉祥寺ＰＡＲＣＯ内８Ｆ・ＳｋｉｉＭａ,,13,203,1800004,,,,,,,2021-10-06,1,,,,,フーコー,0
101,1020001143290,新規,0,2021-10-06,2021-10-06,株式会社角原架設,,株式会社,神奈川県,川崎市川崎区,東田町２番地１０ホワイトガーデン東田９０３,,14,131,2100005,,,,,,,2021-10-06,1,,,,,,0
102,1020001143299,新規,0,2021-10-06,2021-10-06,株式会社エイムデザイン,,株式会社,神奈川県,横浜市旭区,さちが丘５２番地７アーヴァイン山太４０３号,,14,112,2410822,,,,,,,2021-10-06,1,,,,,エイムデザイン,0
103,1020001143308,新規,0,2021-10-06,2021-10-06,株式会社エビスパイプライン,,株式会社,神奈川県,横浜市青葉区,すすき野１丁目４番地すすき野第三団地２棟１０２号,,14,117,2250021,,,,,,,2021-10-06,1,,,,,エビスパイプライン,0
104,1020001143332,新規,0,2021-10-06,2021-10-06,株式会社ＨｏｕｓｅＧｒｉｔ,,株式会社,神奈川県,横浜市泉区,岡津町１７３５番地,,14,116,2450003,,,,,,,2021-10-06,1,,,,,ハウスグリット,0
105,1020001143340,新規,0,2021-10-06,2021-10-06,株式会社セーリングペイフォワード,,株式会社,神奈川県,横浜市中区,羽衣町２丁目７－１０,,14,104,2310047,,,,,,,2021-10-06,1,,,,,セーリングペイフォワード,0
106,1020001143349,新規,0,2021-10-06,2021-10-06,株式会社おそうじ川崎,,株式会社,神奈川県,川崎市川崎区,観音１丁目１番１４号,,14,131,2100831,,,,,,,2021-10-06,1,,,,,,0
107,1020001143365,新規,0,2021-10-06,2021-10-06,株式会社はなぶさコーポレーション,,株式会社,神奈川県,横浜市瀬谷区,本郷３丁目３１番地２４カーサノーヴァ２０２,,14,114,2460015,,,,,,,2021-10-06,1,,,,,ハナブサコーポレーション,0
108,1020003020595,新規,0,2021-10-06,2021-10-06,合同会社Ｓｉｍｐｌｏｏｐ,,合同会社,神奈川県,川崎市高津区,末長３丁目２番７－４１６号ＢＥＬＩＳＴＡ溝の口,,14,134,2130013,,,,,,,2021-10-06,1,,,,,シンプループ,0
111,1021001074096,新規,0,2021-10-06,2021-10-06,株式会社ＳＵＣＲＥ．,,株式会社,神奈川県,横須賀市,本町２丁目６稲葉ビル２Ｆ,,14,201,2380041,,,,,,,2021-10-06,1,,,,,シュクレ,0
112,1021001074113,新規,0,2021-10-06,2021-10-06,株式会社ＥＡＧＬＥ,,株式会社,神奈川県,厚木市,上依知３７６番地６,,14,212,2430801,,,,,,,2021-10-06,1,,,,,イーグル,0
119,1030001144602,新規,0,2021-10-06,2021-10-06,株式会社Ｇｏ　Ｇｏ　Ｆａｃｔｏｒｙ,,株式会社,埼玉県,比企郡吉見町,大字北吉見３９３７番地２５,,11,347,3550155,,,,,,,2021-10-06,1,,,,,ゴーゴーファクトリー,0
120,1030001144610,新規,0,2021-10-06,2021-10-06,株式会社ライフネットバンク,,株式会社,埼玉県,三郷市,早稲田２丁目１２番地１７－３０３,,11,237,3410018,,,,,,,2021-10-06,1,,,,,ライフネットバンク,0
121,1030001144619,新規,0,2021-10-06,2021-10-06,株式会社ＷｉｓＨ　Ｌａｂ,,株式会社,埼玉県,川口市,芝樋ノ爪２丁目１６－２０,,11,203,3330852,,,,,,,2021-10-06,1,,,,,ウィッシュラボ,0
122,1030001144627,新規,0,2021-10-06,2021-10-06,株式会社ひまわり,,株式会社,埼玉県,所沢市,大字日比田１１０番地４,,11,208,3590015,,,,,,,2021-10-06,1,,,,,ヒマワリ,0
123,1030001144651,新規,0,2021-10-06,2021-10-06,株式会社セキトバ,,株式会社,埼玉県,鴻巣市,吹上富士見１丁目６番５２号ニチエイ吹上マンション１０１号室,,11,217,3690121,,,,,,,2021-10-06,1,,,,,セキトバ,0
124,1030001144676,新規,0,2021-10-06,2021-10-06,Ｌｕｖｔｈ’ｓ・Ｃｏｎｆｉｄｅｎｃｅ株式会社,,株式会社,埼玉県,川口市,飯塚４丁目１４番１７号,,11,203,3320023,,,,,,,2021-10-06,1,,,,,ラブスコンフィデンス,0
125,1030001144684,新規,0,2021-10-06,2021-10-06,株式会社百庭,,株式会社,埼玉県,蕨市,錦町６丁目３番５０号,,11,223,3350005,,,,,,,2021-10-06,1,,,,,ヒャクテイ,0
126,1030001144692,新規,0,2021-10-06,2021-10-06,株式会社ＳＵＲＡＪ　ＩＮＴＥＲＮＡＴＩＯＮＡＬ,,株式会社,埼玉県,入間郡三芳町,大字藤久保７５番地１５,,11,324,3540041,,,,,,,2021-10-06,1,,,,,スラズインターナショナル,0
127,1030001144701,新規,0,2021-10-06,2021-10-06,ＺＩＲＩ株式会社,,株式会社,埼玉県,川口市,芝新町６番２１号セイワハイツ１０１,,11,203,3330851,,,,,,,2021-10-06,1,,,,,ジリ,0
128,1030001144726,新規,0,2021-10-06,2021-10-06,株式会社ＥｎｉＶｅｒ,,株式会社,埼玉県,春日部市,栄町１丁目３１７番地ルピナス２０２,,11,214,3440058,,,,,,,2021-10-06,1,,,,,エニバー,0
131,1030003017995,新規,0,2021-10-06,2021-10-06,ＭＲＳ合同会社,,合同会社,埼玉県,さいたま市南区,南浦和２丁目６－１７－６,,11,108,3360017,,,,,,,2021-10-06,1,,,,,エムアールエス,0
132,1030003018052,新規,0,2021-10-06,2021-10-06,合同会社ピースアセンブル,,合同会社,埼玉県,所沢市,大字荒幡２４１番地の１７,,11,208,3591133,,,,,,,2021-10-06,1,,,,,ピースアセンブル,0
133,1030003018060,新規,0,2021-10-06,2021-10-06,合同会社ｔｈｒｅｅ,,合同会社,埼玉県,川越市,脇田本町１４番地２９,,11,201,3501123,,,,,,,2021-10-06,1,,,,,スリー,0
134,1030003018069,新規,0,2021-10-06,2021-10-06,栗子商事合同会社,,合同会社,埼玉県,草加市,弁天１丁目３番１１号１Ｆ,,11,221,3400004,,,,,,,2021-10-06,1,,,,,クリコショウジ,0
137,1040001120296,新規,0,2021-10-06,2021-10-06,株式会社まるんＷｏｎｄｅｒｌａｎｄ,,株式会社,千葉県,松戸市,東松戸３丁目２番地の１アルフレンテ１３０１号,,12,207,2702225,,,,,,,2021-10-06,1,,,,,マルンワンダーランド,0
138,1040001120395,新規,0,2021-10-06,2021-10-06,株式会社ｎｏｃａ,,株式会社,千葉県,八千代市,大和田新田８８５番地１４,,12,221,2760046,,,,,,,2021-10-06,1,,,,,ノウカ,0
139,1040001120404,新規,0,2021-10-06,2021-10-06,株式会社Ｊｈｏｊｏ　Ｔｒａｄｉｎｇ,,株式会社,千葉県,野田市,船形１７９２番地２,,12,208,2700233,,,,,,,2021-10-06,1,,,,,ジョジョトレイディング,0
140,1040001120420,新規,0,2021-10-06,2021-10-06,株式会社ユーホーム,,株式会社,千葉県,船橋市,田喜野井２丁目１６番１１号,,12,204,2740073,,,,,,,2021-10-06,1,,,,,ユーホーム,0
141,1040001120429,新規,0,2021-10-06,2021-10-06,株式会社桂木建設リフォーム,,株式会社,千葉県,千葉市中央区,鶴沢町２０番１６号,,12,101,2600003,,,,,,,2021-10-06,1,,,,,カツラギケンセツリフォーム,0
142,1040001120437,新規,0,2021-10-06,2021-10-06,株式会社ｍｅ　ｔｏ　ｙｏｕ,,株式会社,千葉県,流山市,おおたかの森東１丁目５番地の３,,12,220,2700138,,,,,,,2021-10-06,1,,,,,ミートゥーユー,0
143,1040001120453,新規,0,2021-10-06,2021-10-06,楽新商事株式会社,,株式会社,千葉県,千葉市中央区,市場町４番８号オーシャンビル,,12,101,2600855,,,,,,,2021-10-06,1,,,,,ラクシンショウジ,0
144,1040001120478,新規,0,2021-10-06,2021-10-06,株式会社フックテック,,株式会社,千葉県,船橋市,前原西８丁目２７番３１－１０１号,,12,204,2740825,,,,,,,2021-10-06,1,,,,,フックテック,0
145,1040001120503,新規,0,2021-10-06,2021-10-06,株式会社テヲ,,株式会社,千葉県,印西市,木下南２丁目２番地８,,12,231,2701328,,,,,,,2021-10-06,1,,,,,テヲ,0
146,1040001120511,新規,0,2021-10-06,2021-10-06,株式会社虎花龍重量,,株式会社,千葉県,八千代市,高津３０９番地４０,,12,221,2760036,,,,,,,2021-10-06,1,,,,,コハナタジュウリョウ,0
149,1040003018654,新規,0,2021-10-06,2021-10-06,Ｉ’ｚ　ＦＡＣＴＯＲＹ合同会社,,合同会社,千葉県,八千代市,八千代台東１丁目４４番２６－１号,,12,221,2760032,,,,,,,2021-10-06,1,,,,,アイズファクトリー,0
150,1040003018662,新規,0,2021-10-06,2021-10-06,合同会社ウエスティア,,合同会社,千葉県,成田市,大栄十余三無番地,,12,211,2870243,,,,,,,2021-10-06,1,,,,,ウエスティア,0
151,1040003018695,新規,0,2021-10-06,2021-10-06,ＫＲＮ合同会社,,合同会社,千葉県,松戸市,胡録台２８２－１４,,12,207,2710075,,,,,,,2021-10-06,1,,,,,ケーアールエヌ,0
152,1040005021326,新規,0,2021-10-06,2021-10-06,一般社団法人ＲＥＡＤＹ　ＢＯＸ,,その他の設立登記法人,千葉県,柏市,若柴１７８番地４柏の葉キャンパス１４８街区１Ｅ－４１０,,12,217,2770871,,,,,,,2021-10-06,1,,,,,レディーボックス,0
154,1050001049923,新規,0,2021-10-06,2021-10-06,Ｈｏｎｅｓｔ　ｆａｒｍ株式会社,,株式会社,茨城県,潮来市,日の出５丁目９番地１３８,,08,223,3112423,,,,,,,2021-10-06,1,,,,,オネストファーム,0
155,1050001049931,新規,0,2021-10-06,2021-10-06,防テックサービス株式会社,,株式会社,茨城県,ひたちなか市,大字枝川８５７番地２号,,08,221,3120035,,,,,,,2021-10-06,1,,,,,ボウテックサービス,0
156,1050001049948,新規,0,2021-10-06,2021-10-06,株式会社都波岐システム,,株式会社,茨城県,那珂郡東海村,舟石川駅西１丁目２番１号ポケットプラザビル３Ｆ,,08,341,3191116,,,,,,,2021-10-06,1,,,,,ツバキシステム,0
158,1050003006113,新規,0,2021-10-06,2021-10-06,ブリーズエックスコンサルティング合同会社,,合同会社,茨城県,つくば市,みどりの東２２－１、Ｄ１０３,,08,220,3050883,,,,,,,2021-10-06,1,,,,,ブリーズエックスコンサルティング,0
159,1050003006121,新規,0,2021-10-06,2021-10-06,合同会社ＳＡＬＵＴＥ　ＢＥＬＬＥＺＺＡ,,合同会社,茨城県,猿島郡五霞町,原宿台３丁目１３番地６,,08,542,3060306,,,,,,,2021-10-06,1,,,,,サルテベレッツァ,0
162,1060001034156,新規,0,2021-10-06,2021-10-06,株式会社ソエダ建装,,株式会社,栃木県,宇都宮市,ゆいの杜６丁目１３番３０号,,09,201,3213226,,,,,,,2021-10-06,1,,,,,ソエダケンソウ,0
167,1060003003828,新規,0,2021-10-06,2021-10-06,合同会社あるて共同サポート,,合同会社,栃木県,佐野市,植上町１７０３－２エクセルうえのタウン８号棟,,09,204,3270832,,,,,,,2021-10-06,1,,,,,アルテキョウドウサポート,0
171,1070003004255,新規,0,2021-10-06,2021-10-06,合同会社アイビー,,合同会社,群馬県,渋川市,渋川２１３５番地５５,,10,208,3770008,,,,,,,2021-10-06,1,,,,,アイビー,0
173,1080001024485,新規,0,2021-10-06,2021-10-06,株式会社ＡＦＣ建設,,株式会社,静岡県,静岡市駿河区,曲金２丁目５番３８号,,22,102,4228006,,,,,,,2021-10-06,1,,,,,エーエフシーケンセツ,0
177,1080401025372,新規,0,2021-10-06,2021-10-06,株式会社ワンワン久保,,株式会社,静岡県,菊川市,丹野２５１番地の１,,22,224,4371501,,,,,,,2021-10-06,1,,,,,ワンワンクボ,0
180,1090001017216,新規,0,2021-10-06,2021-10-06,株式会社菅谷内装,,株式会社,山梨県,南都留郡道志村,６８５１番地,,19,422,4020200,,,,,,,2021-10-06,1,,,,,スガヤナイソウ,0
184,1100001034663,新規,0,2021-10-06,2021-10-06,株式会社ＯｎｅＭａｄｅ,,株式会社,長野県,飯田市,八幡町２０３８番地２,,20,205,3950814,,,,,,,2021-10-06,1,,,,,ワンメイド,0
186,1110001036080,新規,0,2021-10-06,2021-10-06,Ｓ＆Ｓ株式会社,,株式会社,新潟県,上越市,木田２丁目７番２９号,,15,222,9430805,,,,,,,2021-10-06,1,,,,,エスアンドエス,0
187,1110001036089,新規,0,2021-10-06,2021-10-06,株式会社ＩＳ　ｍｏｒｅ,,株式会社,新潟県,新潟市西区,上新栄町４丁目１番２０号,,15,107,9502076,,,,,,,2021-10-06,1,,,,,イズモア,0
188,1110001036097,新規,0,2021-10-06,2021-10-06,株式会社越後村上うおや,,株式会社,新潟県,村上市,大町４番３号,,15,212,9580842,,,,,,,2021-10-06,1,,,,,エチゴムラカミウオヤ,0
204,1120001240805,新規,0,2021-10-06,2021-10-06,株式会社ＴＯＰ,,株式会社,大阪府,大阪市中央区,東心斎橋１丁目１８番２７号,,27,128,5420083,,,,,,,2021-10-06,1,,,,,トップ,0
205,1120001240821,新規,0,2021-10-06,2021-10-06,株式会社啓翔,,株式会社,大阪府,大阪市東住吉区,桑津３丁目２６番１－２０１号,,27,121,5460041,,,,,,,2021-10-06,1,,,,,ケイショウ,0
206,1120001240838,新規,0,2021-10-06,2021-10-06,株式会社ａｒｐ,,株式会社,大阪府,大阪市北区,西天満３丁目６番３５号Ｆ＋ＢＡＳＥｂｒｕｎｏビル６０１,,27,127,5300047,,,,,,,2021-10-06,1,,,,,アープ,0
207,1120001240846,新規,0,2021-10-06,2021-10-06,ＯＮＥ　ＭＯＲＥ株式会社,,株式会社,大阪府,大阪市北区,梅田２丁目６番２０号パシフィックマークス西梅田４階,,27,127,5300001,,,,,,,2021-10-06,1,,,,,ワンモア,0
208,1120001240870,新規,0,2021-10-06,2021-10-06,株式会社ｉ．Ｌ,,株式会社,大阪府,大阪市此花区,島屋６丁目２番１１０－８０３号,,27,104,5540024,,,,,,,2021-10-06,1,,,,,アイル,0
209,1120001240887,新規,0,2021-10-06,2021-10-06,株式会社ブルーオーシャン,,株式会社,大阪府,大阪市西淀川区,御幣島２丁目９番１４号,,27,113,5550012,,,,,,,2021-10-06,1,,,,,ブルーオーシャン,0
210,1120001240895,新規,0,2021-10-06,2021-10-06,株式会社Ｇｒａｎｔ　Ｈｏｕｓｅ,,株式会社,大阪府,門真市,野里町４番９号ライゼボビー４号,,27,223,5710079,,,,,,,2021-10-06,1,,,,,グラントハウス,0
211,1120001240904,新規,0,2021-10-06,2021-10-06,株式会社ＧＦＳ,,株式会社,大阪府,大阪市西区,靱本町１丁目１８番８号,,27,106,5500004,,,,,,,2021-10-06,1,,,,,ジーエフエス,0
212,1120001240912,新規,0,2021-10-06,2021-10-06,株式会社ＡＩＳ,,株式会社,大阪府,大阪市西区,江戸堀１丁目２５番２５－１００２号,,27,106,5500002,,,,,,,2021-10-06,1,,,,,エイアイエス,0
214,1120003020362,新規,0,2021-10-06,2021-10-06,合同会社ＭＡＧＥＮＴＡ,,合同会社,大阪府,大阪市鶴見区,横堤３丁目６番７号,,27,124,5380052,,,,,,,2021-10-06,1,,,,,マゼンタ,0
218,1120101064427,新規,0,2021-10-06,2021-10-06,株式会社ハクロ,,株式会社,大阪府,堺市美原区,平尾２４４８番地８,,27,147,5870022,,,,,,,2021-10-06,1,,,,,ハクロ,0
220,1120901044974,新規,0,2021-10-06,2021-10-06,ＫＶＥＬＬ株式会社,,株式会社,大阪府,摂津市,東一津屋３番１号,,27,224,5660074,,,,,,,2021-10-06,1,,,,,クヴェル,0
221,1120901044982,新規,0,2021-10-06,2021-10-06,株式会社普天間事務所,,株式会社,大阪府,吹田市,江坂町１丁目１４番４－７０３号,,27,205,5640063,,,,,,,2021-10-06,1,,,,,フテンマジムショ,0
222,1120901045015,新規,0,2021-10-06,2021-10-06,株式会社松本,,株式会社,大阪府,豊中市,上津島２丁目８番２４号,,27,203,5610843,,,,,,,2021-10-06,1,,,,,マツモト,0
223,1120901045023,新規,0,2021-10-06,2021-10-06,池田でんき株式会社,,株式会社,大阪府,茨木市,島４丁目１９番２３号,,27,211,5670854,,,,,,,2021-10-06,1,,,,,イケダデンキ,0
226,1122001035235,新規,0,2021-10-06,2021-10-06,株式会社Ｃｒａｆｔ　Ｍａｔｅｒｉａｌ　Ｄｉｎｅｒ,,株式会社,大阪府,東大阪市,荒川３丁目６－６,,27,227,5770843,,,,,,,2021-10-06,1,,,,,クラフトマテリアルダイナー,0
227,1130001070210,新規,0,2021-10-06,2021-10-06,株式会社山名造作工務,,株式会社,京都府,宇治市,槇島町郡３５番地の３,,26,204,6110041,,,,,,,2021-10-06,1,,,,,ヤマナゾウサクコウム,0
228,1130001070243,新規,0,2021-10-06,2021-10-06,株式会社ＢＥＫＳ,,株式会社,京都府,京都市西京区,桂南巽町３１番地１スタジオーネ桂１０１,00124454,26,111,6158074,,,,,,,2021-10-06,1,,,,,ヴェクス,0
229,1130001070251,新規,0,2021-10-06,2021-10-06,株式会社ひだまり,,株式会社,京都府,京都市中京区,壬生朱雀町３３－２サンハイツ西１０２号,,26,104,6048871,,,,,,,2021-10-06,1,,,,,ヒダマリ,0
230,1130001070284,新規,0,2021-10-06,2021-10-06,ＤＳＩ株式会社,,株式会社,京都府,京都市上京区,宮垣町９１番地１０２,,26,102,6020853,,,,,,,2021-10-06,1,,,,,ディーエスアイ,0
231,1130003007524,新規,0,2021-10-06,2021-10-06,ＴＨＥ　ＷＩＮＥＲＹ　ＪＡＰＡＮ合同会社,,合同会社,京都府,京都市中京区,三条通油小路東入塩屋町３９番地,,26,104,6048247,,,,,,,2021-10-06,1,,,,,ザワイナリージャパン,0
236,1140001123322,新規,0,2021-10-06,2021-10-06,株式会社ＷｉｎＤｕｃｅ,,株式会社,兵庫県,加古川市,平岡町高畑７２７番地の１、Ｂ１号,,28,210,6750103,,,,,,,2021-10-06,1,,,,,ウィンダス,0
237,1140001123413,新規,0,2021-10-06,2021-10-06,株式会社ＢＳ神戸,,株式会社,兵庫県,神戸市中央区,琴ノ緒町４丁目４番５号,,28,110,6510094,,,,,,,2021-10-06,1,,,,,ビーエスコウベ,0
242,1140003016813,新規,0,2021-10-06,2021-10-06,ＫＴ合同会社,,合同会社,兵庫県,明石市,魚住町錦が丘３丁目８番１１号,,28,203,6740081,,,,,,,2021-10-06,1,,,,,ケイティー,0
243,1140005025837,新規,0,2021-10-06,2021-10-06,一般社団法人但馬薬剤師会,,その他の設立登記法人,兵庫県,豊岡市,千代田町１１番３３号,,28,209,6680032,,,,,,,2021-10-06,1,,,,,タジマヤクザイシカイ,0
244,1140005025845,新規,0,2021-10-06,2021-10-06,一般社団法人夢咲社寺保存会,,その他の設立登記法人,兵庫県,姫路市,夢前町糸田５３２番地６,,28,201,6712114,,,,,,,2021-10-06,1,,,,,ユメサキシャジホゾンカイ,0
245,1150001024981,新規,0,2021-10-06,2021-10-06,沢野果市株式会社,,株式会社,奈良県,大和郡山市,北郡山町１５８番地６,,29,203,6391160,,,,,,,2021-10-06,1,,,,,サワヤカイチ,0
249,1160001023677,新規,0,2021-10-06,2021-10-06,株式会社クリーンスタジオ,,株式会社,滋賀県,草津市,渋川２丁目４番１０号アサヒマンション１０９号室,,25,206,5250026,,,,,,,2021-10-06,1,,,,,クリーンスタジオ,0
262,1180001147937,新規,0,2021-10-06,2021-10-06,株式会社Ｋ．Ｌ．Ｇ,,株式会社,愛知県,名古屋市南区,内田橋１丁目７番２号レジデンス内田橋６Ｃ,,23,112,4570862,,,,,,,2021-10-06,1,,,,,ケーエルジー,0
263,1180001148051,新規,0,2021-10-06,2021-10-06,株式会社ＴＳＰ,,株式会社,愛知県,名古屋市千種区,吹上１丁目２０６番地,,23,101,4640856,,,,,,,2021-10-06,1,,,,,ティーエスピー,0
264,1180001148118,新規,0,2021-10-06,2021-10-06,株式会社ＧＯＯＤ　ＬＵＣＫ　Ｓｅｃｕｒｉｔｙ,,株式会社,愛知県,名古屋市守山区,瀬古東１丁目２４３番地,,23,113,4630090,,,,,,,2021-10-06,1,,,,,グッドラックセキュリティ,0
265,1180001148134,新規,0,2021-10-06,2021-10-06,株式会社Ｉ．Ｓホールディングス,,株式会社,愛知県,名古屋市中村区,名駅３丁目１８番２２号,,23,105,4500002,,,,,,,2021-10-06,1,,,,,アイエスホールディングス,0
266,1180001148167,新規,0,2021-10-06,2021-10-06,株式会社ＴＬマネジメント東海,,株式会社,愛知県,名古屋市西区,鳥見町４丁目８１番地１,,23,104,4510071,,,,,,,2021-10-06,1,,,,,ティーエルマネジメントトウカイ,0
267,1180001148183,新規,0,2021-10-06,2021-10-06,株式会社美建屋,,株式会社,愛知県,春日井市,味美西本町２２７２番地,,23,206,4860967,,,,,,,2021-10-06,1,,,,,ビケンヤ,0
268,1180001148209,新規,0,2021-10-06,2021-10-06,株式会社笹谷福祉経営・教育研究所,,株式会社,愛知県,江南市,布袋下山町北２９番地２７,,23,217,4838147,,,,,,,2021-10-06,1,,,,,ササタニフクシケイエイキョウイクケンキュウジョ,0
271,1180003023038,新規,0,2021-10-06,2021-10-06,合同会社ルルス,,合同会社,愛知県,名古屋市瑞穂区,白龍町２丁目１９番地の１,,23,108,4670826,,,,,,,2021-10-06,1,,,,,ルルス,0
272,1180005019463,新規,0,2021-10-06,2021-10-06,税理士法人アクセス,,その他の設立登記法人,愛知県,名古屋市守山区,喜多山南１９番１５号ガーデンコート喜多山南２０３号,,23,113,4630043,,,,,,,2021-10-06,1,,,,,アクセス,0
276,1180301035437,新規,0,2021-10-06,2021-10-06,株式会社山郷総建,,株式会社,愛知県,豊田市,平戸橋町下井畑１５０番地１,,23,211,4700331,,,,,,,2021-10-06,1,,,,,ヤマサトソウケン,0
277,1180301035478,新規,0,2021-10-06,2021-10-06,株式会社瀧口フードサービス,,株式会社,愛知県,豊橋市,馬見塚町３５番地,,23,201,4418007,,,,,,,2021-10-06,1,,,,,タキグチフードサービス,0
283,1190001028723,新規,0,2021-10-06,2021-10-06,株式会社ＺＥＲＯ,,株式会社,三重県,鈴鹿市,岸岡町３１７５番地の２,,24,207,5100226,,,,,,,2021-10-06,1,,,,,ゼロ,0
284,1190001028748,新規,0,2021-10-06,2021-10-06,株式会社ゼロス,,株式会社,三重県,桑名市,長島町赤地１５７番地１,,24,205,5111131,,,,,,,2021-10-06,1,,,,,ゼロス,0
288,1190005011626,新規,0,2021-10-06,2021-10-06,一般社団法人Ｌａｎｄｉｎｇ　ｉｎ　ＨＡＫＵＳＡＮ,,その他の設立登記法人,三重県,津市,白山町中ノ村１３８番地４ハッレ倭Ａ－１,,24,201,5152622,,,,,,,2021-10-06,1,,,,,ランディングインハクサン,0
291,1200001039231,新規,0,2021-10-06,2021-10-06,株式会社闘心館,,株式会社,岐阜県,中津川市,苗木６３９３番地２,,21,206,5080101,,,,,,,2021-10-06,1,,,,,トウシンカン,0
292,1200001039264,新規,0,2021-10-06,2021-10-06,株式会社まこと設備,,株式会社,岐阜県,岐阜市,茶屋新田４８番地１,,21,201,5016135,,,,,,,2021-10-06,1,,,,,マコトセツビ,0
294,1200003005339,新規,0,2021-10-06,2021-10-06,Ｍ．Ｋ＆Ａｓｓｏｃｉａｔｅｓ合同会社,,合同会社,岐阜県,羽島市,小熊町東小熊３０２４番地,,21,209,5016271,,,,,,,2021-10-06,1,,,,,エムケーアンドアソシエイツ,0
298,1210001018630,新規,0,2021-10-06,2021-10-06,三四郎株式会社,,株式会社,福井県,大野市,蓑道第３６号７番地,,18,205,9120142,,,,,,,2021-10-06,1,,,,,サンシロウ,0
301,1210003001411,新規,0,2021-10-06,2021-10-06,合同会社橋本Ｒ．Ｅ．Ｃ,,合同会社,福井県,福井市,つくし野３丁目６０４番地,,18,201,9100101,,,,,,,2021-10-06,1,,,,,ハシモトアールイーシー,0
308,1250001019162,新規,0,2021-10-06,2021-10-06,株式会社山秀,,株式会社,山口県,岩国市,関戸１０１７番地４,,35,208,7410063,,,,,,,2021-10-06,1,,,,,ヤマシュウ,0
324,1290001094887,新規,0,2021-10-06,2021-10-06,株式会社ＯＭＯ鑑定,,株式会社,福岡県,筑紫野市,大字筑紫６８６番地２６マイプレイス筑紫１０１号,,40,217,8180025,,,,,,,2021-10-06,1,,,,,オーエムオーカンテイ,0
325,1290001094929,新規,0,2021-10-06,2021-10-06,株式会社ＡＬＬ,,株式会社,福岡県,久留米市,田主丸町長栖字前田５７２－２,,40,203,8391201,,,,,,,2021-10-06,1,,,,,オール,0
328,1290003011683,新規,0,2021-10-06,2021-10-06,合同会社すすきに月,,合同会社,福岡県,福津市,津屋崎１丁目１０番１０－１号,,40,224,8113304,,,,,,,2021-10-06,1,,,,,ススキニツキ,0
330,1290005018388,新規,0,2021-10-06,2021-10-06,ＮＰＯ法人ふれあい広場上山田駅,,その他の設立登記法人,福岡県,嘉麻市,上山田１３４７番地１０,,40,227,8210012,,,,,,,2021-10-06,1,,,,,フレアイヒロバカミヤマダエキ,0
333,1290801027864,新規,0,2021-10-06,2021-10-06,株式会社ＴＥＮＳＯＵ,,株式会社,福岡県,北九州市小倉南区,北方２丁目１８－１,,40,107,8020841,,,,,,,2021-10-06,1,,,,,テンソウ,0
334,1290801027889,新規,0,2021-10-06,2021-10-06,株式会社西村塗装,,株式会社,福岡県,鞍手郡鞍手町,大字新延１９２８番地１,,40,402,8071305,,,,,,,2021-10-06,1,,,,,ニシムラトソウ,0
335,1310001017515,新規,0,2021-10-06,2021-10-06,藤永テック株式会社,,株式会社,長崎県,佐世保市,八の久保町６４１番地３,,42,202,8580906,,,,,,,2021-10-06,1,,,,,フジナガテック,0
340,1330001029046,新規,0,2021-10-06,2021-10-06,株式会社アイゴ,,株式会社,熊本県,熊本市東区,月出２丁目３番７０号,,43,102,8620920,,,,,,,2021-10-06,1,,,,,アイゴ,0
344,1340001024153,新規,0,2021-10-06,2021-10-06,ヤハタ株式会社,,株式会社,鹿児島県,薩摩川内市,下甑町手打３４３６番地,00124468,46,215,8961601,,,,,,,2021-10-06,1,,,,,ヤハタ,0
345,1340001024161,新規,0,2021-10-06,2021-10-06,照株式会社,,株式会社,鹿児島県,鹿児島市,武３丁目２９番１２号,,46,201,8900045,,,,,,,2021-10-06,1,,,,,,0
348,1360005006526,新規,0,2021-10-06,2021-10-06,医療法人ＣＬＡＳＳ,,その他の設立登記法人,沖縄県,那覇市,久茂地２丁目１番３号久茂地ＭＫビル２Ｆ－Ａ,,47,201,9000015,,,,,,,2021-10-06,1,,,,,クラス,0
353,1370005010361,新規,0,2021-10-06,2021-10-06,一般社団法人あすとわ,,その他の設立登記法人,宮城県,仙台市泉区,上谷刈３丁目８番４６号,,04,105,9813121,,,,,,,2021-10-06,1,,,,,アストワ,0
358,1390001016625,新規,0,2021-10-06,2021-10-06,みらいカンパニー株式会社,,株式会社,山形県,天童市,北久野本４丁目５番５号,,06,210,9940011,,,,,,,2021-10-06,1,,,,,ミライカンパニー,0
365,1410001012984,新規,0,2021-10-06,2021-10-06,株式会社きららライフクリエーション,,株式会社,秋田県,秋田市,大町２丁目５番１号,,05,201,0100921,,,,,,,2021-10-06,1,,,,,キララライフクリエーション,0
369,1420001017611,新規,0,2021-10-06,2021-10-06,株式会社エーファクトリー,,株式会社,青森県,八戸市,大字市川町字轟木２８番地４,,02,203,0392241,,,,,,,2021-10-06,1,,,,,エーファクトリー,0
378,1460001005612,新規,0,2021-10-06,2021-10-06,株式会社リビングスペース森,,株式会社,北海道,釧路市,柏木町８番１０号,,01,206,0850824,,,,,,,2021-10-06,1,,,,,リビングスペースモリ,0
381,1460101007070,新規,0,2021-10-06,2021-10-06,株式会社Ｇ＆Ｓ,,株式会社,北海道,帯広市,西八条南２４丁目３９番地,,01,207,0800018,,,,,,,2021-10-06,1,,,,,ジーアンドエス,0
384,1470001018753,新規,0,2021-10-06,2021-10-06,株式会社ＲＩＮＧＵＥデザイン事務所,,株式会社,香川県,観音寺市,昭和町１丁目１番２２号,,37,205,7680066,,,,,,,2021-10-06,1,,,,,リングデザインジムショ,0
385,1470001018761,新規,0,2021-10-06,2021-10-06,株式会社横井自動車,,株式会社,香川県,坂出市,川津町３７４５番地１,,37,203,7620025,,,,,,,2021-10-06,1,,,,,ヨコイジドウシャ,0
388,1480005006860,新規,0,2021-10-06,2021-10-06,一般社団法人あわ・けんちょぴあ海の駅,,その他の設立登記法人,徳島県,徳島市,万代町５丁目７１番地９,,36,201,7700941,,,,,,,2021-10-06,1,,,,,アワケンチョピアウミノエキ,0
394,1500001023733,新規,0,2021-10-06,2021-10-06,株式会社三雄,,株式会社,愛媛県,宇和島市,遊子３６８６番地,,38,203,7980103,,,,,,,2021-10-06,1,,,,,サンユウ,0
396,1500003002702,新規,0,2021-10-06,2021-10-06,合同会社Ｄｉ,,合同会社,愛媛県,今治市,新谷甲１３０３番地６,,38,202,7940850,,,,,,,2021-10-06,1,,,,,ディーアイ,0
398,1700150105072,新規,0,2021-10-06,2021-10-06,全国シルバー人材センター企業年金基金,,その他,東京都,江東区,東陽３丁目２３－２２東陽ブラザビル３階,,13,108,1350016,,,,,,,2021-10-06,1,,,,,ゼンコクシンルバージンザイセンターキギヨウネンキンキキン,0
399,1700150105080,新規,0,2021-10-06,2021-10-06,中国薬業企業年金基金,,その他,広島県,広島市東区,二葉の里３丁目２番１号,,34,102,7320057,,,,,,,2021-10-06,1,,,,,チユウゴクヤクギヨウキギヨウネンキンキキン,0
408,2010001221501,新規,0,2021-10-06,2021-10-06,ＴＨＥ　ＺＥＮ株式会社,,株式会社,東京都,文京区,小石川３丁目３番７号,,13,105,1120002,,,,,,,2021-10-06,1,,,,,ザゼン,0
409,2010001221542,新規,0,2021-10-06,2021-10-06,株式会社ＮＲＳバリュークリエイト,,株式会社,東京都,千代田区,神田錦町３丁目７番地１,,13,101,1010054,,,,,,,2021-10-06,1,,,,,エヌアールエスバリュークリエイト,0
410,2010001221559,新規,0,2021-10-06,2021-10-06,Ｑｕａｔｔｒｏ　Ｋ株式会社,,株式会社,東京都,千代田区,紀尾井町３番２９号紀尾井ロイヤルハイツ１０１,,13,101,1020094,,,,,,,2021-10-06,1,,,,,クワトロケイ,0
411,2010001221591,新規,0,2021-10-06,2021-10-06,株式会社パレスサイドコンサルティング,,株式会社,東京都,千代田区,三番町３番地１パレスサイド三番町２０５号,,13,101,1020075,,,,,,,2021-10-06,1,,,,,パレスサイドコンサルティング,0
412,2010001221600,新規,0,2021-10-06,2021-10-06,株式会社シエロアスールプロジェクト,,株式会社,東京都,中央区,銀座１丁目１２番４号Ｎ＆Ｅ・ＢＬＤ．７Ｆ,,13,102,1040061,,,,,,,2021-10-06,1,,,,,シエロアスールプロジェクト,0
413,2010003035965,新規,0,2021-10-06,2021-10-06,合同会社川崎コーポレーション,,合同会社,東京都,千代田区,神田三崎町２丁目１７－８,,13,101,1010061,,,,,,,2021-10-06,1,,,,,カワサキコーポレーション,0
414,2010003035973,新規,0,2021-10-06,2021-10-06,合同会社プロジェクトＡ,,合同会社,東京都,中央区,銀座１丁目２２番１１号銀座大竹ビジデンス２階,,13,102,1040061,,,,,,,2021-10-06,1,,,,,プロジェクトエー,0
415,2010101014887,新規,0,2021-10-06,2021-10-06,株式会社キヤスカータ,,株式会社,東京都,八王子市,上野町１０－５,,13,201,1920902,,,,,,,2021-10-06,1,,,,,,0
426,2010401163013,新規,0,2021-10-06,2021-10-06,株式会社Ｙスピリッツ,,株式会社,東京都,港区,西麻布４丁目６番５号,,13,103,1060031,,,,,,,2021-10-06,1,,,,,ワイスピリッツ,0
427,2010401163021,新規,0,2021-10-06,2021-10-06,株式会社メビウスホールディングス,,株式会社,東京都,港区,赤坂２丁目５番１号Ｓ－ＧＡＴＥ赤坂山王６Ｆ,,13,103,1070052,,,,,,,2021-10-06,1,,,,,メビウスホールディングス,0
428,2010401163038,新規,0,2021-10-06,2021-10-06,プロパティデータサイエンス株式会社,,株式会社,東京都,港区,浜松町１丁目２９番６号,,13,103,1050013,,,,,,,2021-10-06,1,,,,,プロパティデータサイエンス,0
429,2010401163046,新規,0,2021-10-06,2021-10-06,風のコンサルティング株式会社,,株式会社,東京都,港区,北青山２丁目７番１３号,,13,103,1070061,,,,,,,2021-10-06,1,,,,,カゼノコンサルティング,0
430,2010401163054,新規,0,2021-10-06,2021-10-06,株式会社ｍｅｄｉｃＸ,,株式会社,東京都,港区,南青山３丁目１番３１号,,13,103,1070062,,,,,,,2021-10-06,1,,,,,メディックエックス,0
432,2010403026250,新規,0,2021-10-06,2021-10-06,Ｂ＆Ｍ　Ｐａｒｔｎｅｒｓ合同会社,,合同会社,東京都,港区,虎ノ門３丁目１４番１－１３０７号,,13,103,1050001,,,,,,,2021-10-06,1,,,,,ビーアンドエムパートナーズ,0
433,2010403026259,新規,0,2021-10-06,2021-10-06,合同会社テトラ,,合同会社,東京都,港区,南青山２丁目２番１５号,,13,103,1070062,,,,,,,2021-10-06,1,,,,,テトラ,0
435,2010501047900,新規,0,2021-10-06,2021-10-06,六利株式会社,,株式会社,東京都,台東区,上野６丁目１－６御徒町グリーンハイツ６０６号,,13,106,1100005,,,,,,,2021-10-06,1,,,,,ロクリ,0
436,2010501047909,新規,0,2021-10-06,2021-10-06,株式会社５３,,株式会社,東京都,台東区,小島２丁目２０番１１号,,13,106,1110056,,,,,,,2021-10-06,1,,,,,ゴーサン,0
437,2010501047917,新規,0,2021-10-06,2021-10-06,株式会社ＫＮプロダクション,,株式会社,東京都,台東区,松が谷４丁目２７番１１－８０４号,,13,106,1110036,,,,,,,2021-10-06,1,,,,,ケーエヌプロダクション,0
444,2010701041595,新規,0,2021-10-06,2021-10-06,株式会社ＢｕｚｚＣｏｎｎｅｃｔｉｏｎ,,株式会社,東京都,品川区,西品川３丁目６－９エルクラシス１０１,,13,109,1410033,,,,,,,2021-10-06,1,,,,,バズコネクション,0
445,2010701041604,新規,0,2021-10-06,2021-10-06,株式会社ＡＲＣホールディングス,,株式会社,東京都,品川区,東大井５丁目１１番２号,,13,109,1400011,,,,,,,2021-10-06,1,,,,,エーアールシーホールディングス,0
449,2010901049546,新規,0,2021-10-06,2021-10-06,株式会社Ｄｉｓｃｏｖｅｒ　Ｙｏｕｒ　Ｐｕｚｚｌｅ,,株式会社,東京都,世田谷区,粕谷３丁目３１番１８号,,13,112,1570063,,,,,,,2021-10-06,1,,,,,ディスカバーユアパズル,0
451,2010905004217,新規,0,2021-10-06,2021-10-06,医療法人社団英親会,,その他の設立登記法人,東京都,世田谷区,桜上水５丁目２０番１１号,,13,112,1560045,,,,,,,2021-10-06,1,,,,,エイシンカイ,0
456,2011001142910,新規,0,2021-10-06,2021-10-06,株式会社走馬灯,,株式会社,東京都,目黒区,青葉台１丁目１６－１５・２Ｆ,,13,110,1530042,,,,,,,2021-10-06,1,,,,,ソウマトウ,0
457,2011001143215,新規,0,2021-10-06,2021-10-06,ＬＡＧＦ株式会社,,株式会社,東京都,渋谷区,代官山町１６番５号アドレスガーデン代官山４０１,,13,113,1500034,,,,,,,2021-10-06,1,,,,,ラグフ,0
458,2011001143248,新規,0,2021-10-06,2021-10-06,株式会社ＳＳＤＤ,,株式会社,東京都,渋谷区,渋谷２丁目１９番１５号宮益坂ビルディング６０９,,13,113,1500002,,,,,,,2021-10-06,1,,,,,エスエスディーディー,0
459,2011003013481,新規,0,2021-10-06,2021-10-06,Ｆ＆Ａ合同会社,,合同会社,東京都,渋谷区,神宮前６丁目２３番４号桑野ビル２階,,13,113,1500001,,,,,,,2021-10-06,1,,,,,エフアンドエー,0
460,2011003013515,新規,0,2021-10-06,2021-10-06,ＭａｓｔｅｒＭａｒｋｅ合同会社,,合同会社,東京都,渋谷区,道玄坂１丁目２１－１渋谷ソラスタ３Ｆ,,13,113,1500043,,,,,,,2021-10-06,1,,,,,マスターマーケ,0
469,2011101096478,新規,0,2021-10-06,2021-10-06,株式会社ＲＳＦ,,株式会社,東京都,新宿区,西新宿３丁目９番７－１５１０号,,13,104,1600023,,,,,,,2021-10-06,1,,,,,アールエスエフ,0
470,2011101096494,新規,0,2021-10-06,2021-10-06,ｊｉｎｊｅｒ株式会社,,株式会社,東京都,新宿区,西新宿１丁目２２番２号,,13,104,1600023,,,,,,,2021-10-06,1,,,,,ジンジャー,0
471,2011103011055,新規,0,2021-10-06,2021-10-06,合同会社ＶＯＬＶＥ＆ＣＯ,,合同会社,東京都,新宿区,新宿７丁目９番２５号,,13,104,1600022,,,,,,,2021-10-06,1,,,,,ボルブアンドカンパニー,0
472,2011203003662,新規,0,2021-10-06,2021-10-06,合同会社ＰｒｅｃｉｏｕＳｍｉｌｅｓ,,合同会社,東京都,中野区,大和町４丁目９番１０号,,13,114,1650034,,,,,,,2021-10-06,1,,,,,プレシャスマイルズ,0
474,2011301027225,新規,0,2021-10-06,2021-10-06,株式会社零ＦＩＧＨＴＥＲ,,株式会社,東京都,杉並区,下井草４丁目１６番１５号ヴィラももいＡ,,13,115,1670022,,,,,,,2021-10-06,1,,,,,ゼロファイター,0
475,2011301027233,新規,0,2021-10-06,2021-10-06,株式会社ピートイナフ,,株式会社,東京都,杉並区,下高井戸２丁目１番１０号,,13,115,1680073,,,,,,,2021-10-06,1,,,,,ピートイナフ,0
476,2011401023735,新規,0,2021-10-06,2021-10-06,株式会社ＺＥＡＬＬ,,株式会社,東京都,板橋区,徳丸６丁目２３番４－６０２号,,13,119,1750083,,,,,,,2021-10-06,1,,,,,ジール,0
478,2011501027363,新規,0,2021-10-06,2021-10-06,ＩＳＳホールディングス株式会社,,株式会社,東京都,北区,赤羽２丁目５１番３号ＮＳ３ビル,,13,117,1150045,,,,,,,2021-10-06,1,,,,,アイエスエスホールディングス,0
480,2011603003403,新規,0,2021-10-06,2021-10-06,合同会社Ｗｈｉｓｋｅｒ　Ｐａｄ,,合同会社,東京都,練馬区,練馬４丁目２４番１１号レガート豊島園１０１,,13,120,1760001,,,,,,,2021-10-06,1,,,,,ウィスカーパッド,0
481,2011701024763,新規,0,2021-10-06,2021-10-06,株式会社金井興業,,株式会社,東京都,江戸川区,西瑞江５丁目１番地１６,,13,123,1340015,,,,,,,2021-10-06,1,,,,,カナイコウギョウ,0
488,2012401038368,新規,0,2021-10-06,2021-10-06,株式会社ＯＩＣ,,株式会社,東京都,武蔵野市,吉祥寺南町２丁目１６番１号,,13,203,1800003,,,,,,,2021-10-06,1,,,,,オーアイシー,0
491,2012801021139,新規,0,2021-10-06,2021-10-06,株式会社日建装社,,株式会社,東京都,昭島市,玉川町４丁目６番地２４号ハイツ玉和１０５号室,,13,207,1960034,,,,,,,2021-10-06,1,,,,,ニッケンソウシャ,0
492,2012801021147,新規,0,2021-10-06,2021-10-06,株式会社ＬｉＶＥ　ＬＯＮＧ,,株式会社,東京都,日野市,豊田３丁目２８番地の３,,13,212,1910053,,,,,,,2021-10-06,1,,,,,リブロング,0
493,2013101008743,新規,0,2021-10-06,2021-10-06,株式会社ＷＷＨ,,株式会社,東京都,あきる野市,野辺１２５５番地２０,,13,228,1970823,,,,,,,2021-10-06,1,,,,,ダブリューダブリューエイチ,0
496,2013301048102,新規,0,2021-10-06,2021-10-06,Ｗｉｚａｒｄ　Ｌｏｇｉｃ株式会社,,株式会社,東京都,豊島区,北大塚１丁目１９－１２コルティス大塚６Ｆ－１０,,13,116,1700004,,,,,,,2021-10-06,1,,,,,ウィザードロジック,0
505,2020001143281,新規,0,2021-10-06,2021-10-06,株式会社Ｇｒｏｗ　Ｐｅａｋ,,株式会社,神奈川県,横浜市都筑区,茅ケ崎南１丁目１番１―７１０号,,14,118,2240037,,,,,,,2021-10-06,1,,,,,グロウピーク,0
506,2020001143298,新規,0,2021-10-06,2021-10-06,株式会社リュウショウ,,株式会社,神奈川県,横浜市鶴見区,駒岡４丁目４１番３３－２０２号,,14,101,2300071,,,,,,,2021-10-06,1,,,,,リュウショウ,0
507,2020001143331,新規,0,2021-10-06,2021-10-06,株式会社エニシング,,株式会社,神奈川県,横浜市中区,吉浜町１番地９エトアール吉浜８０４,,14,104,2310024,,,,,,,2021-10-06,1,,,,,エニシング,0
508,2020001143364,新規,0,2021-10-06,2021-10-06,株式会社クインディ,,株式会社,神奈川県,横浜市西区,北幸１丁目１１番１号水信ビル７階,,14,103,2200004,,,,,,,2021-10-06,1,,,,,クインディ,0
514,2020003020594,新規,0,2021-10-06,2021-10-06,合同会社ＢＥＡＴＮＩＫ,,合同会社,神奈川県,横浜市中区,日本大通７・日本大通７ビル４ＦＹＢＰ,,14,104,2310021,,,,,,,2021-10-06,1,,,,,ビートニック,0
515,2020003020603,新規,0,2021-10-06,2021-10-06,ＡＮＡＴＡＴＥＬＡＳ合同会社,,合同会社,神奈川県,横浜市都筑区,茅ケ崎南２丁目１４番１９－２０１号,,14,118,2240037,,,,,,,2021-10-06,1,,,,,アナタテラス,0
519,2021001074112,新規,0,2021-10-06,2021-10-06,株式会社Ａｐｅｘ,,株式会社,神奈川県,相模原市中央区,共和３丁目８番１１号、２Ｆ,,14,152,2520234,,,,,,,2021-10-06,1,,,,,アペックス,0
522,2021005012316,新規,0,2021-10-06,2021-10-06,一般社団法人編鐘と心の耳を育てる会,,その他の設立登記法人,神奈川県,相模原市南区,上鶴間６丁目１７番５号,,14,153,2520302,,,,,,,2021-10-06,1,,,,,ヘンショウトココロノミミヲソダテルカイ,0
526,2030001144601,新規,0,2021-10-06,2021-10-06,株式会社マツムラタイル,,株式会社,埼玉県,さいたま市岩槻区,日の出町２番３７－１号,,11,110,3390064,,,,,,,2021-10-06,1,,,,,マツムラタイル,0
527,2030001144626,新規,0,2021-10-06,2021-10-06,株式会社ａｍｂｉｔｉｏｕｓ,,株式会社,埼玉県,蕨市,中央１丁目３番１号ぬくいビル１階,,11,223,3350004,,,,,,,2021-10-06,1,,,,,アンビシャス,0
528,2030001144634,新規,0,2021-10-06,2021-10-06,株式会社エステック,,株式会社,埼玉県,川口市,本蓮２丁目６番７号,,11,203,3340076,,,,,,,2021-10-06,1,,,,,エステック,0
529,2030001144642,新規,0,2021-10-06,2021-10-06,株式会社秩父ひなた村興産,,株式会社,埼玉県,秩父市,上吉田２５２５番地,,11,207,3691505,,,,,,,2021-10-06,1,,,,,チチブヒナタムラコウサン,0
530,2030001144650,新規,0,2021-10-06,2021-10-06,株式会社大宮清水,,株式会社,埼玉県,さいたま市大宮区,大門町３丁目１０３番地２,,11,103,3300846,,,,,,,2021-10-06,1,,,,,オオミヤシミズ,0
531,2030001144667,新規,0,2021-10-06,2021-10-06,株式会社Ｗｉｔｈｙｏｕプラス,,株式会社,埼玉県,川口市,戸塚鋏町６番６号－Ｃ号,,11,203,3330805,,,,,,,2021-10-06,1,,,,,ウィズユープラス,0
532,2030001144675,新規,0,2021-10-06,2021-10-06,株式会社三井総業,,株式会社,埼玉県,飯能市,大字岩沢８４０番地１岩沢ユニキューブ３号棟,,11,209,3570023,,,,,,,2021-10-06,1,,,,,ミツイソウギョウ,0
533,2030001144709,新規,0,2021-10-06,2021-10-06,株式会社スマイル設備,,株式会社,埼玉県,三郷市,泉２丁目３１番地６,,11,237,3410054,,,,,,,2021-10-06,1,,,,,スマイルセツビ,0
534,2030001144717,新規,0,2021-10-06,2021-10-06,株式会社ネクサス,,株式会社,埼玉県,川口市,領家２丁目１７番１０号,,11,203,3320004,,,,,,,2021-10-06,1,,,,,ネクサス,0
537,2030003018019,新規,0,2021-10-06,2021-10-06,合同会社Ｃｈｅｒｒｙ,,合同会社,埼玉県,和光市,新倉１丁目２７－１－２０９,,11,229,3510115,,,,,,,2021-10-06,1,,,,,チェリー,0
538,2030005020534,新規,0,2021-10-06,2021-10-06,一般社団法人処理状況監査員協会,,その他の設立登記法人,埼玉県,さいたま市大宮区,宮町４丁目１１１番地１号の２０５,,11,103,3300802,,,,,,,2021-10-06,1,,,,,ショリジョウキョウカンサインキョウカイ,0
544,2040001120378,新規,0,2021-10-06,2021-10-06,株式会社ＪＰトレーディング,,株式会社,千葉県,袖ケ浦市,下泉１４０６番地,,12,229,2990231,,,,,,,2021-10-06,1,,,,,ジェイピートレーディング,0
545,2040001120411,新規,0,2021-10-06,2021-10-06,株式会社Ｗ．エステート,,株式会社,千葉県,市原市,五井西６丁目３２番地３,,12,219,2900038,,,,,,,2021-10-06,1,,,,,ダブルエステート,0
546,2040001120460,新規,0,2021-10-06,2021-10-06,株式会社サトウ商会,,株式会社,千葉県,茂原市,北塚９４７番地１０,,12,210,2970009,,,,,,,2021-10-06,1,,,,,サトウショウカイ,0
547,2040001120477,新規,0,2021-10-06,2021-10-06,株式会社ヒポクラテス,,株式会社,千葉県,我孫子市,寿１丁目２１番６号,,12,222,2701152,,,,,,,2021-10-06,1,,,,,ヒポクラテス,0
548,2040001120485,新規,0,2021-10-06,2021-10-06,ヒカリアグリ株式会社,,株式会社,千葉県,四街道市,旭ケ丘２丁目１０番５号,,12,228,2840024,,,,,,,2021-10-06,1,,,,,ヒカリアグリ,0
549,2040001120493,新規,0,2021-10-06,2021-10-06,株式会社みつうろこ水産,,株式会社,千葉県,山武郡九十九里町,粟生２３５９番地１７,,12,403,2830105,,,,,,,2021-10-06,1,,,,,ミツウロコスイサン,0
550,2040003018661,新規,0,2021-10-06,2021-10-06,合同会社ＹＭ３あらきｍａｍ動物病院,,合同会社,千葉県,我孫子市,南新木３丁目１４番地の１２,,12,222,2701119,,,,,,,2021-10-06,1,,,,,ワイエムスリーアラキマムドウブツビョウイン,0
551,2040003018686,新規,0,2021-10-06,2021-10-06,合同会社いろりフード,,合同会社,千葉県,柏市,旭町１丁目１０番５号サンシャインヒルズ２０１,,12,217,2770852,,,,,,,2021-10-06,1,,,,,イロリフード,0
554,2050001049922,新規,0,2021-10-06,2021-10-06,ジャパスタトレーディング株式会社,,株式会社,茨城県,坂東市,生子２１１７番地３,,08,228,3060504,,,,,,,2021-10-06,1,,,,,ジャパスタトレーディング,0
555,2050001049930,新規,0,2021-10-06,2021-10-06,株式会社輝,,株式会社,茨城県,鹿嶋市,大字清水１９６番地１,,08,222,3140001,,,,,,,2021-10-06,1,,,,,カガヤキ,0
556,2050001049939,新規,0,2021-10-06,2021-10-06,株式会社村正商事,,株式会社,茨城県,取手市,井野台１丁目１３番２号,,08,217,3020015,,,,,,,2021-10-06,1,,,,,ムラマサショウジ,0
557,2050001049947,新規,0,2021-10-06,2021-10-06,株式会社ナベダン,,株式会社,茨城県,土浦市,神立町２５１０番地４,,08,203,3000013,,,,,,,2021-10-06,1,,,,,ナベダン,0
560,2060001034171,新規,0,2021-10-06,2021-10-06,株式会社轟,,株式会社,栃木県,宇都宮市,上戸祭町９３番地,,09,201,3200051,,,,,,,2021-10-06,1,,,,,トドロキ,0
566,2070003004254,新規,0,2021-10-06,2021-10-06,合同会社相生音響,,合同会社,群馬県,桐生市,相生町５丁目４４２番地の１,,10,203,3760011,,,,,,,2021-10-06,1,,,,,アイオイオンキョウ,0
572,2080001024492,新規,0,2021-10-06,2021-10-06,株式会社木伏ボーリング,,株式会社,静岡県,静岡市清水区,由比１０２５番地の１８,,22,103,4213103,,,,,,,2021-10-06,1,,,,,キフシボーリング,0
574,2080101022801,新規,0,2021-10-06,2021-10-06,株式会社コネクトＯＮＥ,,株式会社,静岡県,富士宮市,安居山６８２番地の１,,22,207,4180037,,,,,,,2021-10-06,1,,,,,コネクトワン,0
575,2080101022818,新規,0,2021-10-06,2021-10-06,豊田工業株式会社,,株式会社,静岡県,三島市,徳倉１丁目５番２９号エンゼルハイム徳倉４０３,,22,206,4110044,,,,,,,2021-10-06,1,,,,,トヨダコウギョウ,0
577,2080401025388,新規,0,2021-10-06,2021-10-06,株式会社ドリーミー,,株式会社,静岡県,浜松市西区,入野町６０８０番地,,22,133,4328061,,,,,,,2021-10-06,1,,,,,ドリーミー,0
579,2100001034662,新規,0,2021-10-06,2021-10-06,株式会社Ｋ－ＳＴＹＬＥ,,株式会社,長野県,下伊那郡高森町,出原２９４番地５,,20,403,3993107,,,,,,,2021-10-06,1,,,,,ケイスタイル,0
580,2100001034679,新規,0,2021-10-06,2021-10-06,株式会社ロジ,,株式会社,長野県,上田市,古里１７３２番地５,,20,203,3860005,,,,,,,2021-10-06,1,,,,,ロジ,0
583,2100003006255,新規,0,2021-10-06,2021-10-06,Ｓｈｉｆｔｅｒ　Ｐｒｏｊｅｃｔ合同会社,,合同会社,長野県,長野市,川中島町上氷鉋１７７番地２,,20,201,3812233,,,,,,,2021-10-06,1,,,,,,0
586,2110001036088,新規,0,2021-10-06,2021-10-06,株式会社ＴＫ防水,,株式会社,新潟県,長岡市,黒津町５３番地８,,15,202,9400007,,,,,,,2021-10-06,1,,,,,ティーケーボウスイ,0
599,2120001240713,新規,0,2021-10-06,2021-10-06,ＶＧＪ株式会社,,株式会社,大阪府,大阪市浪速区,難波中３丁目１６番１１号,,27,111,5560011,,,,,,,2021-10-06,1,,,,,ブイジージェイ,0
600,2120001240812,新規,0,2021-10-06,2021-10-06,株式会社Ｂｌｏｏｍ,,株式会社,大阪府,大阪市浪速区,難波中３丁目９番３号,,27,111,5560011,,,,,,,2021-10-06,1,,,,,ブルーム,0
601,2120001240837,新規,0,2021-10-06,2021-10-06,ＡＣＴ株式会社,,株式会社,大阪府,大阪市住吉区,長居２丁目２番１３号,,27,120,5580003,,,,,,,2021-10-06,1,,,,,アクト,0
602,2120001240878,新規,0,2021-10-06,2021-10-06,株式会社ユニシード,,株式会社,大阪府,大阪市北区,東天満１丁目１１番９号,,27,127,5300044,,,,,,,2021-10-06,1,,,,,ユニシード,0
603,2120001240894,新規,0,2021-10-06,2021-10-06,株式会社丸穂興産,,株式会社,大阪府,大阪市平野区,平野南１丁目６番９号,,27,126,5470031,,,,,,,2021-10-06,1,,,,,マルホコウサン,0
604,2120001240928,新規,0,2021-10-06,2021-10-06,不動産流通株式会社,,株式会社,大阪府,大阪市都島区,東野田町２丁目２番１０号,,27,102,5340024,,,,,,,2021-10-06,1,,,,,フドウサンリュウツウ,0
605,2120001240960,新規,0,2021-10-06,2021-10-06,株式会社エボデボデザイン,,株式会社,大阪府,大阪市中央区,久太郎町３丁目１番６号,,27,128,5410056,,,,,,,2021-10-06,1,,,,,エボデボデザイン,0
610,2120003020337,新規,0,2021-10-06,2021-10-06,合同会社ＴＲＡＮＧ　ＬＩＮＨ,,合同会社,大阪府,大阪市生野区,新今里３丁目２番６－７１３号,,27,116,5440001,,,,,,,2021-10-06,1,,,,,チャンリン,0
613,2120101064426,新規,0,2021-10-06,2021-10-06,株式会社梶谷工務店,,株式会社,大阪府,大阪狭山市,東池尻１丁目２０１４番地１,,27,231,5890004,,,,,,,2021-10-06,1,,,,,カジタニコウムテン,0
614,2120103004371,新規,0,2021-10-06,2021-10-06,合同会社山川建設,,合同会社,大阪府,岸和田市,春木旭町５番２８号－２０２,,27,202,5960005,,,,,,,2021-10-06,1,,,,,ヤマカワケンセツ,0
617,2120901045022,新規,0,2021-10-06,2021-10-06,株式会社皆越工業,,株式会社,大阪府,吹田市,南金田２丁目２６番２６号３０７号室,,27,205,5640044,,,,,,,2021-10-06,1,,,,,ミナゴシコウギョウ,0
619,2122001035234,新規,0,2021-10-06,2021-10-06,上町企画株式会社,,株式会社,大阪府,東大阪市,岸田堂南町３番２号,,27,227,5770847,,,,,,,2021-10-06,1,,,,,ウエマチキカク,0
620,2122001035242,新規,0,2021-10-06,2021-10-06,株式会社ちるる,,株式会社,大阪府,東大阪市,東山町１８番６号,,27,227,5798027,,,,,,,2021-10-06,1,,,,,チルル,0
625,2130001070226,新規,0,2021-10-06,2021-10-06,ＨＣＤホールディングス株式会社,,株式会社,京都府,京都市中京区,姉小路通神泉苑東入姉西町４６番地１６,,26,104,6048372,,,,,,,2021-10-06,1,,,,,エイチシーディーホールディングス,0
626,2130001070275,新規,0,2021-10-06,2021-10-06,株式会社ＹＲＣ,,株式会社,京都府,宇治市,広野町小根尾１９番地１４ワンルームマンションヒロ２０１号,,26,204,6110031,,,,,,,2021-10-06,1,,,,,ワイアールシー,0
628,2130003007523,新規,0,2021-10-06,2021-10-06,隆生商事合同会社,,合同会社,京都府,京都市山科区,西野楳本町２０番地の３２,,26,110,6078358,,,,,,,2021-10-06,1,,,,,リュウセイショウジ,0
629,2130003007531,新規,0,2021-10-06,2021-10-06,ＭＩＹＡＢＩ人財コンサルティンググループ合同会社,,合同会社,京都府,京都市左京区,一乗寺小谷町５番地,,26,103,6068147,,,,,,,2021-10-06,1,,,,,ミヤビジンザイコンサルティンググループ,0
645,2140001123230,新規,0,2021-10-06,2021-10-06,株式会社Ｗｅｂの相談所,,株式会社,兵庫県,神戸市中央区,下山手通３丁目４番３－２号,,28,110,6500011,,,,,,,2021-10-06,1,,,,,ウェブノソウダンジョ,0
646,2140001123412,新規,0,2021-10-06,2021-10-06,株式会社濱一,,株式会社,兵庫県,神戸市中央区,琴ノ緒町４丁目４番５号,,28,110,6510094,,,,,,,2021-10-06,1,,,,,ハマイチ,0
648,2140003016804,新規,0,2021-10-06,2021-10-06,合同会社ジーマ建築工房,,合同会社,兵庫県,姫路市,辻井１丁目５番１０号,,28,201,6700083,,,,,,,2021-10-06,1,,,,,ジーマケンチクコウボウ,0
649,2140003016820,新規,0,2021-10-06,2021-10-06,合同会社ＴＲＡＣＨ,,合同会社,兵庫県,川西市,湯山台２丁目１－５,,28,217,6660137,,,,,,,2021-10-06,1,,,,,トラッチ,0
653,2140005025844,新規,0,2021-10-06,2021-10-06,一般社団法人のはらくらぶ,,その他の設立登記法人,兵庫県,明石市,西明石北町２丁目２－２０,,28,203,6730018,,,,,,,2021-10-06,1,,,,,ノハラクラブ,0
655,2150001024972,新規,0,2021-10-06,2021-10-06,株式会社七葉,,株式会社,奈良県,奈良市,石木町５８０番地,,29,201,6310054,,,,,,,2021-10-06,1,,,,,ナナハ,0
656,2150001024980,新規,0,2021-10-06,2021-10-06,株式会社奥野ファーム大和,,株式会社,奈良県,御所市,大字西佐味１１５０番地２,,29,208,6392345,,,,,,,2021-10-06,1,,,,,オクノファームヤマト,0
657,2150001024989,新規,0,2021-10-06,2021-10-06,株式会社ＳＳメンテナンス,,株式会社,奈良県,生駒市,高山町１０３１３番地３,,29,209,6300101,,,,,,,2021-10-06,1,,,,,エスエスメンテナンス,0
659,2150003002506,新規,0,2021-10-06,2021-10-06,合同会社イーサン,,合同会社,奈良県,奈良市,桂木町８番３０３号,,29,201,6308143,,,,,,,2021-10-06,1,,,,,イーサン,0
663,2160001023668,新規,0,2021-10-06,2021-10-06,三方照明株式会社,,株式会社,滋賀県,甲賀市,水口町宇川８７９番地２,,25,209,5280052,,,,,,,2021-10-06,1,,,,,サンポウショウメイ,0
664,2160001023676,新規,0,2021-10-06,2021-10-06,株式会社コアプロダクト,,株式会社,滋賀県,近江八幡市,西庄町１３０２番地４,,25,204,5230816,,,,,,,2021-10-06,1,,,,,コアプロダクト,0
665,2160001023684,新規,0,2021-10-06,2021-10-06,株式会社ＳＩＲＩＵＳ,,株式会社,滋賀県,大津市,松が丘１丁目２番４号,,25,201,5202102,,,,,,,2021-10-06,1,,,,,シリウス,0
666,2160001023701,新規,0,2021-10-06,2021-10-06,株式会社ＪＰＮ,,株式会社,滋賀県,高島市,マキノ町新保１１６９番地３５,,25,212,5201822,,,,,,,2021-10-06,1,,,,,ジェイピーエヌ,0
667,2160005010992,新規,0,2021-10-06,2021-10-06,社会保険労務士法人川瀬事務所,,その他の設立登記法人,滋賀県,長浜市,神照町４８８番地１０,,25,203,5260015,,,,,,,2021-10-06,1,,,,,カワセジムショ,0
677,2180001148001,新規,0,2021-10-06,2021-10-06,株式会社オネスト,,株式会社,愛知県,海部郡蟹江町,須成西６番地６,,23,425,4970000,,,,,,,2021-10-06,1,,,,,オネスト,0
678,2180001148100,新規,0,2021-10-06,2021-10-06,中川正商店株式会社,,株式会社,愛知県,春日井市,上条町７丁目１３３番地９,,23,206,4860833,,,,,,,2021-10-06,1,,,,,ナカガワタダシショウテン,0
679,2180001148109,新規,0,2021-10-06,2021-10-06,株式会社メカホンダ,,株式会社,愛知県,名古屋市名東区,一社４丁目１５０番地の１,,23,115,4650093,,,,,,,2021-10-06,1,,,,,メカホンダ,0
682,2180005019462,新規,0,2021-10-06,2021-10-06,司法書士法人しょうむら法務事務所,,その他の設立登記法人,愛知県,常滑市,新開町３丁目１６９番地,,23,216,4790837,,,,,,,2021-10-06,1,,,,,ショウムラホウムジムショ,0
689,2190001028722,新規,0,2021-10-06,2021-10-06,ＷＩＮＤＯＭ　ＪＡＰＡＮ株式会社,,株式会社,三重県,伊賀市,下友生３４１３番地,,24,216,5180817,,,,,,,2021-10-06,1,,,,,ウィンダムジャパン,0
690,2190001028747,新規,0,2021-10-06,2021-10-06,アイホーム株式会社,,株式会社,三重県,名張市,夏見３１５３番地３,,24,208,5180441,,,,,,,2021-10-06,1,,,,,アイホーム,0
698,2200001039214,新規,0,2021-10-06,2021-10-06,株式会社清水,,株式会社,岐阜県,美濃加茂市,本郷町９丁目９番２４号カーザビヤンカ１０３号,,21,211,5050027,,,,,,,2021-10-06,1,,,,,シミズ,0
699,2200001039247,新規,0,2021-10-06,2021-10-06,株式会社かたぎり接骨院,,株式会社,岐阜県,関市,大杉４２２番地３,,21,205,5013922,,,,,,,2021-10-06,1,,,,,カタギリセッコツイン,0
700,2200001039263,新規,0,2021-10-06,2021-10-06,株式会社清水材木店,,株式会社,岐阜県,安八郡安八町,西結２８９３番地,,21,383,5030111,,,,,,,2021-10-06,1,,,,,シミズザイモクテン,0
709,2210003001410,新規,0,2021-10-06,2021-10-06,合同会社えじま農産,,合同会社,福井県,福井市,板垣２丁目５０２番地,,18,201,9188104,,,,,,,2021-10-06,1,,,,,エジマノウサン,0
716,2240001058730,新規,0,2021-10-06,2021-10-06,株式会社大成,,株式会社,広島県,呉市,天応西条４丁目４番２９号,,34,202,7370883,,,,,,,2021-10-06,1,,,,,オオナリ,0
721,2240003005301,新規,0,2021-10-06,2021-10-06,合同会社ゼロ,,合同会社,広島県,山県郡北広島町,本地９７９番地,,34,369,7311526,,,,,,,2021-10-06,1,,,,,ゼロ,0
723,2250001019161,新規,0,2021-10-06,2021-10-06,株式会社サンワエステート,,株式会社,山口県,山口市,今井町３番１２号,,35,203,7530055,,,,,,,2021-10-06,1,,,,,サンワエステート,0
724,2250001019178,新規,0,2021-10-06,2021-10-06,株式会社伊賀崎工務店,,株式会社,山口県,周南市,大字長穂１２９７番地の５,,35,215,7450125,,,,,,,2021-10-06,1,,,,,イカザキコウムテン,0
735,2260001036049,新規,0,2021-10-06,2021-10-06,株式会社いろは,,株式会社,岡山県,岡山市東区,南水門町４５７番地,,33,103,7048146,,,,,,,2021-10-06,1,,,,,イロハ,0
736,2260001036065,新規,0,2021-10-06,2021-10-06,株式会社おさるさん,,株式会社,岡山県,岡山市中区,海吉１３２６番地３８,,33,102,7038261,,,,,,,2021-10-06,1,,,,,オサルサン,0
740,2270001008369,新規,0,2021-10-06,2021-10-06,株式会社ハーティス,,株式会社,鳥取県,米子市,旗ヶ崎７丁目２３番３１号,,31,202,6830845,,,,,,,2021-10-06,1,,,,,ハーティス,0
742,2280001008533,新規,0,2021-10-06,2021-10-06,株式会社ｏｂｊｅｃｔ,,株式会社,島根県,松江市,上乃木４丁目２３番４８号,,32,201,6900015,,,,,,,2021-10-06,1,,,,,オブジェクト,0
747,2290001094928,新規,0,2021-10-06,2021-10-06,株式会社ＴＡＳＫ企画,,株式会社,福岡県,春日市,日の出町４丁目１１－７０２,,40,218,8160873,,,,,,,2021-10-06,1,,,,,タスクキカク,0
750,2290003011682,新規,0,2021-10-06,2021-10-06,合同会社リバー,,合同会社,福岡県,福岡市早良区,飯倉２丁目２１番１５号,,40,137,8140161,,,,,,,2021-10-06,1,,,,,リバー,0
752,2290803003945,新規,0,2021-10-06,2021-10-06,合同会社レストランサンキュー,,合同会社,福岡県,北九州市小倉北区,下到津４丁目１１番２８号,,40,106,8030846,,,,,,,2021-10-06,1,,,,,レストランサンキュー,0
754,2300005007033,新規,0,2021-10-06,2021-10-06,一般社団法人日中文化教育事業協会,,その他の設立登記法人,佐賀県,武雄市,山内町大字宮野２４７６５番地３８,,41,206,8492305,,,,,,,2021-10-06,1,,,,,ニッチュウブンカキョウイクジギョウキョウカイ,0
757,2310001017514,新規,0,2021-10-06,2021-10-06,株式会社平戸技研,,株式会社,長崎県,平戸市,鏡川町５６１番地,,42,207,8595152,,,,,,,2021-10-06,1,,,,,ヒラドギケン,0
765,2330001029045,新規,0,2021-10-06,2021-10-06,株式会社ａｒｔｉｃａｌ　ａｐｐｒｅｃｉａｔｅ,,株式会社,熊本県,宇城市,不知火町高良２１８５番地１７,,43,213,8690552,,,,,,,2021-10-06,1,,,,,アーティカルアプリシエイト,0
766,2330001029061,新規,0,2021-10-06,2021-10-06,株式会社ＬＯ　Ｃｏｍｐａｎｙ,,株式会社,熊本県,熊本市東区,戸島本町１番地６,,43,102,8618042,,,,,,,2021-10-06,1,,,,,エルオーカンパニー,0
774,2340001024152,新規,0,2021-10-06,2021-10-06,株式会社アリエス,,株式会社,鹿児島県,志布志市,志布志町安楽２０２４番地２,,46,221,8997104,,,,,,,2021-10-06,1,,,,,アリエス,0
778,2350001017345,新規,0,2021-10-06,2021-10-06,株式会社ｍａｓａコーポレーション,,株式会社,宮崎県,串間市,寺里２丁目８番地９,,45,207,8880011,,,,,,,2021-10-06,1,,,,,マサコーポレーション,0
780,2350003003938,新規,0,2021-10-06,2021-10-06,合同会社大和設備,,合同会社,宮崎県,北諸県郡三股町,大字樺山３６２８番地２,,45,341,8891901,,,,,,,2021-10-06,1,,,,,ヤマトセツビ,0
781,2350005006030,新規,0,2021-10-06,2021-10-06,医療法人のなか整形外科,,その他の設立登記法人,宮崎県,えびの市,大字原田字西谷ノ口３１８７番地,,45,209,8894301,,,,,,,2021-10-06,1,,,,,ノナカセイケイゲカ,0
783,2360001029439,新規,0,2021-10-06,2021-10-06,株式会社ベル・アムール,,株式会社,沖縄県,国頭郡金武町,字金武６１番地,,47,314,9041201,,,,,,,2021-10-06,1,,,,,ベルアムール,0
784,2360001029471,新規,0,2021-10-06,2021-10-06,株式会社おきなわフィナンシャルグループ,,株式会社,沖縄県,那覇市,久茂地３丁目１０番１号,,47,201,9000015,,,,,,,2021-10-06,1,,,,,オキナワフィナンシャルグループ,0
787,2360003011477,新規,0,2021-10-06,2021-10-06,久野島海業合同会社,00124464,合同会社,沖縄県,中頭郡北谷町,字桑江４５３－２－１０４,,47,326,9040103,,,,,,,2021-10-06,1,,,,,クノシマカイギョウ,0
788,2360005006525,新規,0,2021-10-06,2021-10-06,一般社団法人うりずんＯＫＩＮＡＷＡ,,その他の設立登記法人,沖縄県,沖縄市,山内２丁目３２番２号,,47,211,9040034,,,,,,,2021-10-06,1,,,,,ウリズンオキナワ,0
797,2390001016624,新規,0,2021-10-06,2021-10-06,株式会社Ｋ－ｗｏｒｋｓ,,株式会社,山形県,西置賜郡白鷹町,大字十王７５５番地４,,06,402,9920821,,,,,,,2021-10-06,1,,,,,ケーワークス,0
801,2420001017610,新規,0,2021-10-06,2021-10-06,青森ネクスト株式会社,,株式会社,青森県,青森市,新町２丁目６番２５号,,02,201,0300801,,,,,,,2021-10-06,1,,,,,アオモリ,0
803,2420003002395,新規,0,2021-10-06,2021-10-06,合同会社アカンパニー,,合同会社,青森県,青森市,第二問屋町４丁目６番１７号ヴェルニーチェＢ１０１,,02,201,0300113,,,,,,,2021-10-06,1,,,,,アカンパニー,0
809,2430001085094,新規,0,2021-10-06,2021-10-06,株式会社フォース,,株式会社,北海道,札幌市東区,北丘珠五条４丁目２番２４号,,01,103,0070885,,,,,,,2021-10-06,1,,,,,フォース,0
814,2430003013210,新規,0,2021-10-06,2021-10-06,合同会社ｅｃｌａｔ,,合同会社,北海道,札幌市豊平区,平岸四条１２丁目１２番１３号,,01,105,0620934,,,,,,,2021-10-06,1,,,,,エクラ,0
815,2440001008954,新規,0,2021-10-06,2021-10-06,株式会社ＡＮＦｉＮＹ,,株式会社,北海道,函館市,港町１丁目１番２号,,01,202,0410821,,,,,,,2021-10-06,1,,,,,アンフィニ,0
822,2460103001401,新規,0,2021-10-06,2021-10-06,合同会社ジー・エイチ,,合同会社,北海道,河東郡音更町,木野大通西１８丁目２番地１２,,01,631,0800301,,,,,,,2021-10-06,1,,,,,ジーエイチ,0
825,2470001018760,新規,0,2021-10-06,2021-10-06,株式会社ＦＵＮＮＹ　ＬＩＦＥ,,株式会社,香川県,仲多度郡多度津町,東浜３－８,,37,404,7640016,,,,,,,2021-10-06,1,,,,,ファニーライフ,0
831,2500001023732,新規,0,2021-10-06,2021-10-06,株式会社カワカミ,,株式会社,愛媛県,四国中央市,土居町蕪崎１５８１番地１,,38,213,7990724,,,,,,,2021-10-06,1,,,,,カワカミ,0
833,2500005008424,新規,0,2021-10-06,2021-10-06,一般社団法人生きろ,,その他の設立登記法人,愛媛県,松山市,清水町３丁目６４－１０池内ビル１Ｆ,,38,201,7900823,,,,,,,2021-10-06,1,,,,,イキロ,0
840,3010001221459,新規,0,2021-10-06,2021-10-06,株式会社リブラワークス,,株式会社,東京都,中央区,銀座３丁目１１－１９エスティメゾン銀座１２０６号室,,13,102,1040061,,,,,,,2021-10-06,1,,,,,リブラワークス,0
841,3010001221558,新規,0,2021-10-06,2021-10-06,株式会社ヤスナガ,,株式会社,東京都,文京区,本郷３丁目４－３ヒルズ８８４御茶ノ水ビル５階,,13,105,1130033,,,,,,,2021-10-06,1,,,,,ヤスナガ,0
842,3010001221608,新規,0,2021-10-06,2021-10-06,肌研皮膚研究所株式会社,,株式会社,東京都,中央区,東日本橋２丁目２８番５号５０８,,13,102,1030004,,,,,,,2021-10-06,1,,,,,ハダケンヒフケンキュウジョ,0
844,3010003035956,新規,0,2021-10-06,2021-10-06,亀井マネジメント合同会社,,合同会社,東京都,中央区,新富１丁目４番７－１００１号,,13,102,1040041,,,,,,,2021-10-06,1,,,,,カメイマネジメント,0
845,3010003035972,新規,0,2021-10-06,2021-10-06,ＳａｆｅＡＩジャパン合同会社,,合同会社,東京都,中央区,銀座１丁目１６番７号,,13,102,1040061,,,,,,,2021-10-06,1,,,,,セーフエーアイジャパン,0
846,3010101014886,新規,0,2021-10-06,2021-10-06,株式会社田実工業,,株式会社,東京都,八王子市,追分町４番地１１,,13,201,1920056,,,,,,,2021-10-06,1,,,,,タジツコウギョウ,0
857,3010401163012,新規,0,2021-10-06,2021-10-06,ＥＰＩＣ　ＰＡＲＴＮＥＲＳ株式会社,,株式会社,東京都,港区,南青山３丁目１番３号スプライン青山東急ビル６Ｆ,,13,103,1070062,,,,,,,2021-10-06,1,,,,,エピックパートナーズ,0
858,3010401163020,新規,0,2021-10-06,2021-10-06,株式会社パリシェ,,株式会社,東京都,港区,芝３丁目１番１４号芝公園阪神ビル４階,,13,103,1050014,,,,,,,2021-10-06,1,,,,,パリシェ,0
859,3010401163045,新規,0,2021-10-06,2021-10-06,株式会社Ｓｅａｈｏｒｓｅ　Ｓｔｕｄｉｏｓ,,株式会社,東京都,港区,三田５丁目７番８－７１９号,,13,103,1080073,,,,,,,2021-10-06,1,,,,,シーホーススタジオズ,0
860,3010401163061,新規,0,2021-10-06,2021-10-06,Ｐｏｓｔ　Ｐｅｒｓｏｎａ株式会社,,株式会社,東京都,港区,三田１丁目３－２４－１４０１,,13,103,1080073,,,,,,,2021-10-06,1,,,,,ポストペルソナ,0
861,3010403026241,新規,0,2021-10-06,2021-10-06,合同会社ＡＲＣ,,合同会社,東京都,港区,南青山２丁目５－１５，５３１,,13,103,1070062,,,,,,,2021-10-06,1,,,,,アーク,0
863,3010501047882,新規,0,2021-10-06,2021-10-06,海上風力発電サポート株式会社,,株式会社,東京都,台東区,根岸４丁目６番１２号,,13,106,1100003,,,,,,,2021-10-06,1,,,,,カイジョウフウリョクハツデンサポート,0
864,3010501047899,新規,0,2021-10-06,2021-10-06,株式会社ＦＵＢＵ,,株式会社,東京都,台東区,上野６丁目１番６－２０５号御徒町グリーンハイツ,,13,106,1100005,,,,,,,2021-10-06,1,,,,,,0
865,3010501047908,新規,0,2021-10-06,2021-10-06,株式会社大山オフィス,,株式会社,東京都,台東区,小島２丁目２０番１１号,,13,106,1110056,,,,,,,2021-10-06,1,,,,,オオヤマオフィス,0
867,3010503006399,新規,0,2021-10-06,2021-10-06,ＭＣＯＩＮＳ合同会社,,合同会社,東京都,台東区,浅草１丁目２番１１号,,13,106,1110032,,,,,,,2021-10-06,1,,,,,エムコインズ,0
875,3010801032386,新規,0,2021-10-06,2021-10-06,ＣｕＲａ　ＥＮＤＬＥＳＳ株式会社,,株式会社,東京都,大田区,西六郷２丁目５７番４号,,13,111,1440056,,,,,,,2021-10-06,1,,,,,キュアエンドレス,0
877,3010901049553,新規,0,2021-10-06,2021-10-06,Ｙｃｏｒｐｏｒａｔｉｏｎ株式会社,,株式会社,東京都,世田谷区,松原３丁目３９番１６－９０８号,,13,112,1560043,,,,,,,2021-10-06,1,,,,,ワイコーポレーション,0
878,3010901049561,新規,0,2021-10-06,2021-10-06,株式会社スケールシップ,,株式会社,東京都,世田谷区,代沢１丁目２９番１１号グランデュオ代沢ＩＩＩ３０１,00124460,13,112,1550032,,,,,,,2021-10-06,1,,,,,スケールシップ,0
889,3011001142876,新規,0,2021-10-06,2021-10-06,株式会社プロパティＳ,,株式会社,東京都,目黒区,中央町２丁目３９番１６号,,13,110,1520001,,,,,,,2021-10-06,1,,,,,プロパティエス,0
890,3011001143131,新規,0,2021-10-06,2021-10-06,株式会社イテラス,,株式会社,東京都,渋谷区,渋谷２丁目１９番１５号宮益坂ビルディング６０９,,13,113,1500002,,,,,,,2021-10-06,1,,,,,イテラス,0
891,3011001143197,新規,0,2021-10-06,2021-10-06,イグニション・ポイントベンチャーパートナーズ株式会社,,株式会社,東京都,渋谷区,東１丁目３２番１２号,,13,113,1500011,,,,,,,2021-10-06,1,,,,,イグニションポイントベンチャーパートナーズ,0
892,3011001143222,新規,0,2021-10-06,2021-10-06,株式会社ＢＯＢＯ,,株式会社,東京都,目黒区,下目黒１丁目５番１６号,,13,110,1530064,,,,,,,2021-10-06,1,,,,,ボボ,0
893,3011001143247,新規,0,2021-10-06,2021-10-06,ソデマク株式会社,,株式会社,東京都,渋谷区,代官山町８番７号Ｄａｉｗａ代官山ビル,,13,113,1500034,,,,,,,2021-10-06,1,,,,,ソデマク,0
894,3011001143255,新規,0,2021-10-06,2021-10-06,ワンディッシュ株式会社,,株式会社,東京都,渋谷区,東３丁目１５番１１号,,13,113,1500011,,,,,,,2021-10-06,1,,,,,ワンディッシュ,0
895,3011001143271,新規,0,2021-10-06,2021-10-06,株式会社ＳＬＥＥＰＹ,,株式会社,東京都,渋谷区,代官山町３番７号代官山田中ビル１Ｆ・Ｂ１,,13,113,1500034,,,,,,,2021-10-06,1,,,,,スリーピー,0
896,3011001143288,新規,0,2021-10-06,2021-10-06,Ｘｏｄｕｓ　Ｇｒｏｕｐ　Ｊａｐａｎ株式会社,,株式会社,東京都,渋谷区,恵比寿１丁目１９番１９号,,13,113,1500013,,,,,,,2021-10-06,1,,,,,エクソダスグループジャパン,0
897,3011003013506,新規,0,2021-10-06,2021-10-06,Ｗｅｌｌｕｍｕ合同会社,,合同会社,東京都,渋谷区,神宮前６丁目２３番４号桑野ビル２Ｆ,,13,113,1500001,,,,,,,2021-10-06,1,,,,,ウェルム,0
905,3011101096502,新規,0,2021-10-06,2021-10-06,株式会社Ｈ＆Ｓ,,株式会社,東京都,新宿区,新宿６丁目７番２２号エル・プリメント新宿３５２,,13,104,1600022,,,,,,,2021-10-06,1,,,,,エイチアンドエス,0
906,3011103011062,新規,0,2021-10-06,2021-10-06,ｉ－Ｄｒｉｖｅ合同会社,,合同会社,東京都,新宿区,下落合２丁目５番１４－１０２号,,13,104,1610033,,,,,,,2021-10-06,1,,,,,アイドライブ,0
907,3011105010005,新規,0,2021-10-06,2021-10-06,司法書士法人リーガル・デザイン,,その他の設立登記法人,東京都,新宿区,新宿５丁目１番１号４Ｆ,,13,104,1600022,,,,,,,2021-10-06,1,,,,,リーガルデザイン,0
908,3011203003661,新規,0,2021-10-06,2021-10-06,合同会社中野買取プラザ,,合同会社,東京都,中野区,中野５丁目６７－７プラザ中野７０３,,13,114,1640001,,,,,,,2021-10-06,1,,,,,ナカノカイトリプラザ,0
912,3011501027362,新規,0,2021-10-06,2021-10-06,ＪＳパートナーズ株式会社,,株式会社,東京都,荒川区,荒川６丁目１番２号,,13,118,1160002,,,,,,,2021-10-06,1,,,,,ジェイエスパートナーズ,0
914,3011601025431,新規,0,2021-10-06,2021-10-06,株式会社ＳｉｎＳｅｉ,,株式会社,東京都,練馬区,三原台２丁目１番２６号М’ｓＣＩＴＹ三原台１０１,,13,120,1770031,,,,,,,2021-10-06,1,,,,,シンセイ,0
915,3011603003402,新規,0,2021-10-06,2021-10-06,麓合同会社,,合同会社,東京都,練馬区,高野台２丁目１１－１５－４０８,,13,120,1770033,,,,,,,2021-10-06,1,,,,,ロク,0
916,3011701024754,新規,0,2021-10-06,2021-10-06,株式会社ＩＹＣ,,株式会社,東京都,江戸川区,中央２丁目１８番６号,,13,123,1320021,,,,,,,2021-10-06,1,,,,,アイワイシー,0
917,3011701024762,新規,0,2021-10-06,2021-10-06,インテルコム・スタッフ株式会社,,株式会社,東京都,江戸川区,江戸川２丁目３４番１３号,,13,123,1320013,,,,,,,2021-10-06,1,,,,,インテルコムスタッフ,0
919,3011801039768,新規,0,2021-10-06,2021-10-06,ＫＳＩ株式会社,,株式会社,東京都,足立区,鹿浜４丁目６番１３号,,13,121,1230864,,,,,,,2021-10-06,1,,,,,ケーエスアイ,0
920,3012403005043,新規,0,2021-10-06,2021-10-06,合同会社鹿島,,合同会社,東京都,府中市,白糸台２丁目６番地の３,,13,206,1830011,,,,,,,2021-10-06,1,,,,,カシマ,0
922,3012801021146,新規,0,2021-10-06,2021-10-06,フィールメディカルサービス株式会社,,株式会社,東京都,日野市,新町１丁目１３番地、１１号棟３０２,,13,212,1910002,,,,,,,2021-10-06,1,,,,,フィールメディカルサービス,0
925,3013301048092,新規,0,2021-10-06,2021-10-06,第二産業株式会社,,株式会社,東京都,豊島区,池袋４丁目２番１２号３０１号,,13,116,1710014,,,,,,,2021-10-06,1,,,,,ダイニサンギョウ,0
930,3020001143223,新規,0,2021-10-06,2021-10-06,株式会社大由,,株式会社,神奈川県,川崎市多摩区,菅２丁目１２番３０－１号,,14,135,2140001,,,,,,,2021-10-06,1,,,,,ダイユウ,0
931,3020001143280,新規,0,2021-10-06,2021-10-06,Ｐ＆Ａコンサルティング株式会社,,株式会社,神奈川県,横浜市緑区,鴨居１丁目１３番１－８０９号,,14,113,2260003,,,,,,,2021-10-06,1,,,,,ピーアンドエーコンサルティング,0
932,3020001143289,新規,0,2021-10-06,2021-10-06,株式会社アトリエＴ．Ａ,,株式会社,神奈川県,横浜市中区,山下町１１２番地３ポートタワー盛徳６０２,,14,104,2310023,,,,,,,2021-10-06,1,,,,,アトリエティーエー,0
933,3020001143314,新規,0,2021-10-06,2021-10-06,株式会社幸庵,,株式会社,神奈川県,横浜市中区,常盤町５丁目６２馬車道常盤ビル３階,,14,104,2310014,,,,,,,2021-10-06,1,,,,,コウアン,0
934,3020001143339,新規,0,2021-10-06,2021-10-06,株式会社アドコミ,,株式会社,神奈川県,川崎市中原区,市ノ坪３４番地１－３０５,,14,133,2110016,,,,,,,2021-10-06,1,,,,,アドコミ,0
935,3020001143347,新規,0,2021-10-06,2021-10-06,株式会社Ｎ－ｐｏｃｋｅｔ,,株式会社,神奈川県,横浜市港北区,新横浜２丁目３番１２号新横浜スクエアビル,,14,109,2220033,,,,,,,2021-10-06,1,,,,,エヌポケット,0
936,3020001143355,新規,0,2021-10-06,2021-10-06,株式会社ＧＯＡＴ,,株式会社,神奈川県,横浜市中区,長者町３丁目８番地２ライトワンビルＮＯ．１－３０２号室,,14,104,2310033,,,,,,,2021-10-06,1,,,,,ゴート,0
944,3021001074103,新規,0,2021-10-06,2021-10-06,株式会社竹内建業,,株式会社,神奈川県,茅ヶ崎市,鶴が台１番６－１０６号,,14,207,2530003,,,,,,,2021-10-06,1,,,,,タケウチケンギョウ,0
945,3021001074136,新規,0,2021-10-06,2021-10-06,湘南ブリューテック株式会社,,株式会社,神奈川県,平塚市,東豊田５９４番地３１,,14,203,2540082,,,,,,,2021-10-06,1,,,,,ショウナンブリューテック,0
946,3021001074144,新規,0,2021-10-06,2021-10-06,株式会社田畑農食文化,,株式会社,神奈川県,鎌倉市,材木座５丁目１５番１２号,,14,204,2480013,,,,,,,2021-10-06,1,,,,,タバタノウショクブンカ,0
953,3021003010956,新規,0,2021-10-06,2021-10-06,合同会社Ｃ－ｔｅｃ,,合同会社,神奈川県,相模原市緑区,下九沢１６３４番地１リラフォート１０３,,14,151,2520134,,,,,,,2021-10-06,1,,,,,シーテック,0
954,3030001144583,新規,0,2021-10-06,2021-10-06,Ｎ企画株式会社,,株式会社,埼玉県,富士見市,鶴瀬西２丁目１１番２号,,11,235,3540026,,,,,,,2021-10-06,1,,,,,エヌキカク,0
955,3030001144600,新規,0,2021-10-06,2021-10-06,ＨＯＢＩＷＯＲＫＳ株式会社,,株式会社,埼玉県,草加市,新栄１丁目３４番地５,,11,221,3400056,,,,,,,2021-10-06,1,,,,,ホビワークス,0
956,3030001144609,新規,0,2021-10-06,2021-10-06,株式会社Ｄｒｅａｍ　ｉｎｆｉｎｉｔｙ　ｃｏｍｐａｎｙ,,株式会社,埼玉県,さいたま市見沼区,大和田町１丁目９６９番地３０号アーバンパーク大和田２０１号室,,11,104,3370053,,,,,,,2021-10-06,1,,,,,ドリームインフィニティカンパニー,0
957,3030001144617,新規,0,2021-10-06,2021-10-06,株式会社オカジマ,,株式会社,埼玉県,さいたま市大宮区,土手町１丁目３３番地２ジェイドパレス６０２,,11,103,3300801,,,,,,,2021-10-06,1,,,,,オカジマ,0
958,3030001144641,新規,0,2021-10-06,2021-10-06,株式会社Ｔｒｉｃｋ　Ｆａｎｔａｓｙ,,株式会社,埼玉県,さいたま市大宮区,宮町１丁目８６番地１号６階,,11,103,3300802,,,,,,,2021-10-06,1,,,,,トリックファンタジー,0
959,3030001144658,新規,0,2021-10-06,2021-10-06,株式会社青山,,株式会社,埼玉県,さいたま市岩槻区,大字鹿室１３９５番地８,,11,110,3390001,,,,,,,2021-10-06,1,,,,,アオヤマ,0
960,3030001144666,新規,0,2021-10-06,2021-10-06,株式会社セイズワークス,,株式会社,埼玉県,川口市,江戸袋１丁目８番１５号,,11,203,3340075,,,,,,,2021-10-06,1,,,,,セイズワークス,0
961,3030001144699,新規,0,2021-10-06,2021-10-06,株式会社ＲＥＤＥＡＬ,,株式会社,埼玉県,さいたま市大宮区,宮町２丁目８番地１ｃｏｒｔｅ大宮４・５階,,11,103,3300802,,,,,,,2021-10-06,1,,,,,レディアル,0
966,3040001120410,新規,0,2021-10-06,2021-10-06,Ｍ－Ｂｌｏｏｍ株式会社,,株式会社,千葉県,市川市,南八幡４丁目５番２０号クローバービル１階右,,12,203,2720023,,,,,,,2021-10-06,1,,,,,エムブルーム,0
967,3040001120435,新規,0,2021-10-06,2021-10-06,株式会社Ｙ２Ｃ,,株式会社,千葉県,習志野市,藤崎５丁目４番５１－６０６号,,12,216,2750017,,,,,,,2021-10-06,1,,,,,ワイツーシー,0
968,3040001120443,新規,0,2021-10-06,2021-10-06,株式会社ポラリス,,株式会社,千葉県,柏市,柏５５２番地６エスポワール柏１０７号,,12,217,2770005,,,,,,,2021-10-06,1,,,,,ポラリス,0
969,3040001120484,新規,0,2021-10-06,2021-10-06,株式会社ＳＫ,,株式会社,千葉県,香取市,白井３４６番地１,,12,236,2890344,,,,,,,2021-10-06,1,,,,,エスケー,0
970,3040001120492,新規,0,2021-10-06,2021-10-06,株式会社スター,,株式会社,千葉県,柏市,中原１丁目２３番４８号,,12,217,2770085,,,,,,,2021-10-06,1,,,,,スター,0
971,3040001120501,新規,0,2021-10-06,2021-10-06,株式会社Ｆｏｒ　ｍａｎｙ　ｓｍｉｌｅｓ,,株式会社,千葉県,佐倉市,宮ノ台４丁目９番１号,,12,212,2850857,,,,,,,2021-10-06,1,,,,,フォーメニースマイルズ,0
976,3050001049921,新規,0,2021-10-06,2021-10-06,ミライズＨＯＵＳＥ株式会社,,株式会社,茨城県,ひたちなか市,松戸町２丁目２番３号,,08,221,3120016,,,,,,,2021-10-06,1,,,,,ミライズハウス,0
977,3050001049938,新規,0,2021-10-06,2021-10-06,株式会社茨城ポンプ,,株式会社,茨城県,東茨城郡茨城町,大字南島田５６９番地,,08,302,3113133,,,,,,,2021-10-06,1,,,,,イバラキポンプ,0
978,3050001049946,新規,0,2021-10-06,2021-10-06,株式会社エイテック,,株式会社,茨城県,稲敷郡阿見町,大字阿見４１１３番地１,,08,443,3000331,,,,,,,2021-10-06,1,,,,,エイテック,0
979,3050001049954,新規,0,2021-10-06,2021-10-06,株式会社石舘総業,,株式会社,茨城県,取手市,稲６０２番地１１,,08,217,3020026,,,,,,,2021-10-06,1,,,,,イシダテソウギョウ,0
983,3050003006111,新規,0,2021-10-06,2021-10-06,合同会社ＴＯＭＢＯ　ＧＩＲＩ　ＩＮＴＥＲＮＡＴＩＯＮＡＬ,,合同会社,茨城県,筑西市,野殿１５０２番地２,,08,227,3080843,,,,,,,2021-10-06,1,,,,,トンボギリインターナショナル,0
985,3060001034146,新規,0,2021-10-06,2021-10-06,タナリン株式会社,,株式会社,栃木県,佐野市,吉水町１１１６番地１ボナール諏訪２０３号室,,09,204,3270313,,,,,,,2021-10-06,1,,,,,タナリン,0
986,3060001034162,新規,0,2021-10-06,2021-10-06,株式会社Ｑｚｅｒｏ,,株式会社,栃木県,小山市,駅東通り２丁目８番地１小山ステーションヒルズ２０７号,,09,208,3230022,,,,,,,2021-10-06,1,,,,,クゼロ,0
989,3060003003826,新規,0,2021-10-06,2021-10-06,ベスパ合同会社,,合同会社,栃木県,矢板市,片岡１１９２番地１５,,09,211,3291571,,,,,,,2021-10-06,1,,,,,ベスパ,0
998,3070003004253,新規,0,2021-10-06,2021-10-06,合同会社ｓｅｖｅｎ　ｔｗｏｔｗｏ,,合同会社,群馬県,高崎市,高浜町１５４６番地６,,10,202,3703333,,,,,,,2021-10-06,1,,,,,セブンツーツー,0
1001,3080005007402,新規,0,2021-10-06,2021-10-06,一般社団法人有度アスレティックスポーツクラブ,,その他の設立登記法人,静岡県,静岡市清水区,吉川２７４番地の２,,22,103,4240055,,,,,,,2021-10-06,1,,,,,ウドアスレティックスポーツクラブ,0
1008,3090003001959,新規,0,2021-10-06,2021-10-06,合同会社山祇,,合同会社,山梨県,中巨摩郡昭和町,築地新居２２６１－１,,19,384,4093853,,,,,,,2021-10-06,1,,,,,ヤマツミ,0
1011,3100001034661,新規,0,2021-10-06,2021-10-06,株式会社ＶＦＥ,,株式会社,長野県,長野市,七瀬中町１６６番地１５,,20,201,3810000,,,,,,,2021-10-06,1,,,,,ブイエフイー,0
1012,3100001034686,新規,0,2021-10-06,2021-10-06,株式会社タムラクレーン,,株式会社,長野県,北佐久郡御代田町,大字御代田３９２３番地１４８,,20,323,3890206,,,,,,,2021-10-06,1,,,,,タムラクレーン,0
1016,3110001036079,新規,0,2021-10-06,2021-10-06,株式会社ｈｏｕｘ,,株式会社,新潟県,上越市,五智５丁目６番２８号,,15,222,9420081,,,,,,,2021-10-06,1,,,,,ウー,0
1017,3110001036087,新規,0,2021-10-06,2021-10-06,株式会社メッツゲライテラ,,株式会社,新潟県,新潟市東区,中木戸５０番地４,,15,102,9500886,,,,,,,2021-10-06,1,,,,,メッツゲライテラ,0
1018,3110001036095,新規,0,2021-10-06,2021-10-06,ＳＩＤＥ　ＢＹ　ＳＩＤＥ株式会社,,株式会社,新潟県,新潟市中央区,古町通５番町６３０番地３,,15,103,9518063,,,,,,,2021-10-06,1,,,,,サイドバイサイド,0
1031,3120001240704,新規,0,2021-10-06,2021-10-06,株式会社Ａｒｃｈ,,株式会社,大阪府,大阪市北区,梅田１丁目３－１大阪駅前第一ビル８Ｆ,,27,127,5300001,,,,,,,2021-10-06,1,,,,,アーチ,0
1032,3120001240803,新規,0,2021-10-06,2021-10-06,株式会社コア,,株式会社,大阪府,大阪市中央区,備後町３丁目５番３号,,27,128,5410051,,,,,,,2021-10-06,1,,,,,コア,0
1033,3120001240811,新規,0,2021-10-06,2021-10-06,株式会社エム・プリーズ,,株式会社,大阪府,大阪市北区,東天満２丁目３番７－５０５号,,27,127,5300044,,,,,,,2021-10-06,1,,,,,エムプリーズ,0
1034,3120001240828,新規,0,2021-10-06,2021-10-06,株式会社レイテック,,株式会社,大阪府,大阪市中央区,内本町２丁目４番１６号オフィスポート内本町４０１,,27,128,5400026,,,,,,,2021-10-06,1,,,,,レイテック,0
1035,3120001240844,新規,0,2021-10-06,2021-10-06,ミライテクノ総合設備株式会社,,株式会社,大阪府,大阪市城東区,東中浜３丁目８番５号,,27,118,5360023,,,,,,,2021-10-06,1,,,,,ミライテクノソウゴウセツビ,0
1036,3120001240869,新規,0,2021-10-06,2021-10-06,ハイエンド株式会社,,株式会社,大阪府,大阪市港区,弁天４丁目１２番２５号,,27,107,5520007,,,,,,,2021-10-06,1,,,,,ハイエンド,0
1037,3120001240976,新規,0,2021-10-06,2021-10-06,株式会社リアルスマイル,,株式会社,大阪府,大阪市都島区,東野田町４丁目９番１９号,,27,102,5340024,,,,,,,2021-10-06,1,,,,,リアルスマイル,0
1039,3120003020336,新規,0,2021-10-06,2021-10-06,合同会社綴,,合同会社,大阪府,大阪市福島区,海老江１丁目５番３０－１２３３号,,27,103,5530001,,,,,,,2021-10-06,1,,,,,ツヅル,0
1040,3120003020344,新規,0,2021-10-06,2021-10-06,合同会社ＩＲＣ,,合同会社,大阪府,大阪市北区,大淀中２丁目４番２４－１００３号,,27,127,5310076,,,,,,,2021-10-06,1,,,,,アイアールシー,0
1041,3120003020352,新規,0,2021-10-06,2021-10-06,合同会社Ｔ＆Ｈリアルエステート,,合同会社,大阪府,大阪市都島区,中野町１丁目５番１４－８０１号,,27,102,5340027,,,,,,,2021-10-06,1,,,,,ティーアンドエイチリアルエステート,0
1043,3120101064417,新規,0,2021-10-06,2021-10-06,株式会社Ｍ’ｓ　ｃｏｍｐａｎｙ,,株式会社,大阪府,和泉市,葛の葉町１丁目１４番４３－１０１号,,27,219,5940081,,,,,,,2021-10-06,1,,,,,エムズカンパニー,0
1046,3120103004379,新規,0,2021-10-06,2021-10-06,合同会社ｔｎｔ,,合同会社,大阪府,高石市,取石２丁目４０番３３号,,27,225,5920013,,,,,,,2021-10-06,1,,,,,ティーエヌティー,0
1048,3120901044997,新規,0,2021-10-06,2021-10-06,株式会社ムセン電化,,株式会社,大阪府,豊中市,北条町３丁目１番１号,,27,203,5610812,,,,,,,2021-10-06,1,,,,,ムセンデンカ,0
1050,3120903003852,新規,0,2021-10-06,2021-10-06,カルムテック合同会社,,合同会社,大阪府,吹田市,豊津町９番２２号大同門本部ビル６Ｆ,,27,205,5640051,,,,,,,2021-10-06,1,,,,,カルムテック,0
1056,3130001070225,新規,0,2021-10-06,2021-10-06,幸匠建設株式会社,,株式会社,京都府,京都市南区,上鳥羽戒光４４番地５・２０３号,,26,107,6018178,,,,,,,2021-10-06,1,,,,,コウショウケンセツ,0
1057,3130001070258,新規,0,2021-10-06,2021-10-06,ａｍビルサービス株式会社,,株式会社,京都府,京都市伏見区,醍醐下山口町４番地７,,26,109,6011343,,,,,,,2021-10-06,1,,,,,エーエムビルサービス,0
1058,3130001070266,新規,0,2021-10-06,2021-10-06,株式会社Ｓ．ＣＯ－ｎｎｅｃｔｉｏｎ,,株式会社,京都府,福知山市,字猪崎７６３番７,,26,201,6200017,,,,,,,2021-10-06,1,,,,,エスコネクション,0
1059,3130001070274,新規,0,2021-10-06,2021-10-06,株式会社Ｓｔｅａｄｉｅｓ,,株式会社,京都府,京都市北区,大宮東小野堀町５１番地２,,26,101,6038406,,,,,,,2021-10-06,1,,,,,ステディーズ,0
1060,3130001070282,新規,0,2021-10-06,2021-10-06,フォルテック株式会社,,株式会社,京都府,乙訓郡大山崎町,字円明寺小字鳥居前５４番地６,,26,303,6180091,,,,,,,2021-10-06,1,,,,,フォルテック,0
1062,3130003007530,新規,0,2021-10-06,2021-10-06,合同会社ｙ，ｓ　ｆｕｔｕｒｅ　ｇａｒｄｅｎ,,合同会社,京都府,宇治市,炭山谷山１３番地の１８,,26,204,6011395,,,,,,,2021-10-06,1,,,,,ワイズフューチャーガーデン,0
1064,3140001123262,新規,0,2021-10-06,2021-10-06,株式会社ｍｉｔａｉｎａ,,株式会社,兵庫県,西宮市,上甲東園２丁目１０番２６号,,28,204,6620813,,,,,,,2021-10-06,1,,,,,ミタイナ,0
1065,3140001123304,新規,0,2021-10-06,2021-10-06,株式会社加古川温泉みとろ荘,,株式会社,兵庫県,加古川市,上荘町井ノ口５２０番地,,28,210,6751212,,,,,,,2021-10-06,1,,,,,カコガワオンセンミトロソウ,0
1066,3140001123312,新規,0,2021-10-06,2021-10-06,上浩パール株式会社,,株式会社,兵庫県,神戸市中央区,布引町２丁目１番１３号松ビル２Ｆ,,28,110,6510097,,,,,,,2021-10-06,1,,,,,ジョウコウパール,0
1067,3140001123337,新規,0,2021-10-06,2021-10-06,ビークル不動産企画株式会社,,株式会社,兵庫県,伊丹市,稲野町２丁目５１番６,,28,207,6640861,,,,,,,2021-10-06,1,,,,,ビークルフドウサンキカク,0
1073,3150001024971,新規,0,2021-10-06,2021-10-06,ＩＴＫ株式会社,,株式会社,奈良県,葛城市,長尾２１８番地１６,,29,211,6392164,,,,,,,2021-10-06,1,,,,,アイティーケー,0
1074,3150003002505,新規,0,2021-10-06,2021-10-06,合同会社Ｔ－Ｄａｉｓｙ,,合同会社,奈良県,香芝市,下田西１丁目１２４番地１,,29,210,6390231,,,,,,,2021-10-06,1,,,,,ティーデイジー,0
1077,3170001016810,新規,0,2021-10-06,2021-10-06,株式会社エステクノ,,株式会社,和歌山県,有田郡広川町,大字和田４番地１７,,30,362,6430075,,,,,,,2021-10-06,1,,,,,エステクノ,0
1085,3180001148099,新規,0,2021-10-06,2021-10-06,株式会社オフィスＡ,,株式会社,愛知県,名古屋市千種区,朝岡町３丁目８７番地の１,,23,101,4640811,,,,,,,2021-10-06,1,,,,,オフィスエイ,0
1086,3180001148124,新規,0,2021-10-06,2021-10-06,株式会社テラインフォ,,株式会社,愛知県,名古屋市中区,伊勢山２丁目１１番１３号,,23,106,4600026,,,,,,,2021-10-06,1,,,,,テラインフォ,0
1087,3180001148165,新規,0,2021-10-06,2021-10-06,株式会社トール・クロノス,,株式会社,愛知県,小牧市,篠岡１丁目４５番地スカイステージ３３－２６０５号,,23,219,4850815,,,,,,,2021-10-06,1,,,,,トールクロノス,0
1093,3180301035435,新規,0,2021-10-06,2021-10-06,株式会社ルシードスタイルレアール,,株式会社,愛知県,豊川市,南大通５丁目５０番地１,,23,207,4420889,,,,,,,2021-10-06,1,,,,,ルシードスタイルレアール,0
1094,3180301035476,新規,0,2021-10-06,2021-10-06,株式会社ｆｒｏｎｔｅｘ．,,株式会社,愛知県,豊橋市,柱六番町６８番地１,,23,201,4418058,,,,,,,2021-10-06,1,,,,,フロンテクス,0
1099,3180303005130,新規,0,2021-10-06,2021-10-06,合同会社レアストーンパース,,合同会社,愛知県,豊田市,福受町四ツ屋３７番地４３,,23,211,4701214,,,,,,,2021-10-06,1,,,,,レアストーンパース,0
1101,3190001028738,新規,0,2021-10-06,2021-10-06,株式会社エクステリアＴＥＮＰＡＫＵ．,,株式会社,三重県,伊勢市,御薗町新開３２１番地１,,24,203,5160802,,,,,,,2021-10-06,1,,,,,エクステリアテンパク,0
1102,3190005011624,新規,0,2021-10-06,2021-10-06,特定非営利活動法人ｍｉｎａ,,その他の設立登記法人,三重県,伊勢市,二見町溝口２９７番地２,,24,203,5190605,,,,,,,2021-10-06,1,,,,,ミナ,0
1105,3200001039238,新規,0,2021-10-06,2021-10-06,株式会社東亜未来創造,,株式会社,岐阜県,美濃加茂市,西町５丁目３１９番地,,21,211,5050046,,,,,,,2021-10-06,1,,,,,トウアミライソウゾウ,0
1109,3210001018629,新規,0,2021-10-06,2021-10-06,株式会社ＺＥＲＯ,,株式会社,福井県,小浜市,駅前町８番２２号,,18,204,9170077,,,,,,,2021-10-06,1,,,,,ゼロ,0
1118,3240001058696,新規,0,2021-10-06,2021-10-06,株式会社ＤＥＬＡＭＥＲ,,株式会社,広島県,安芸郡海田町,東１丁目６番４号,,34,304,7360013,,,,,,,2021-10-06,1,,,,,ドゥラメール,0
1119,3240001058721,新規,0,2021-10-06,2021-10-06,株式会社スカイプロン,,株式会社,広島県,三原市,本郷町船木４８０６番地,,34,204,7290411,,,,,,,2021-10-06,1,,,,,スカイプロン,0
1125,3250001019160,新規,0,2021-10-06,2021-10-06,株式会社ＹＵＳＥＩ,,株式会社,山口県,防府市,大字新田９８０番地の３,,35,206,7470825,,,,,,,2021-10-06,1,,,,,ユウセイ,0
1130,3260001036007,新規,0,2021-10-06,2021-10-06,株式会社ｙａｍａｍｏｔｏ　ｉｎｄｕｓｔｒｉａｌ　ｓｏｌｕｔｉｏｎｓ,,株式会社,岡山県,笠岡市,笠岡５６２８番地２２,,33,205,7140081,,,,,,,2021-10-06,1,,,,,ヤマモトインダストリアルソリューションズ,0
1131,3270003001354,新規,0,2021-10-06,2021-10-06,合同会社ＫＮＴ,,合同会社,鳥取県,米子市,両三柳２３００番地１,,31,202,6830853,,,,,,,2021-10-06,1,,,,,ケーエヌティー,0
1132,3280001008532,新規,0,2021-10-06,2021-10-06,株式会社ＣＬＩＰ,,株式会社,島根県,松江市,東津田町１０３４番地５,,32,201,6900011,,,,,,,2021-10-06,1,,,,,クリップ,0
1136,3290001094885,新規,0,2021-10-06,2021-10-06,株式会社ＢｅａｕｔｙＭａｒｋ,,株式会社,福岡県,福岡市中央区,天神２丁目３番１０号７１９号,,40,133,8100001,,,,,,,2021-10-06,1,,,,,ビューティーマーク,0
1137,3290001094893,新規,0,2021-10-06,2021-10-06,株式会社ツインズ,,株式会社,福岡県,福岡市博多区,諸岡３丁目３３番５０－２０７号,,40,132,8120894,,,,,,,2021-10-06,1,,,,,ツインズ,0
1138,3290001094927,新規,0,2021-10-06,2021-10-06,株式会社ＳＴＩＮＧＲＡＹ,,株式会社,福岡県,飯塚市,内住１３０８番地,,40,205,8200713,,,,,,,2021-10-06,1,,,,,スティングレイ,0
1140,3290801027887,新規,0,2021-10-06,2021-10-06,株式会社スプレッドホーム,,株式会社,福岡県,北九州市小倉南区,蜷田若園３丁目１０番１４－２０１号,,40,107,8020814,,,,,,,2021-10-06,1,,,,,スプレッドホーム,0
1142,3320001018634,新規,0,2021-10-06,2021-10-06,株式会社太陽,,株式会社,大分県,臼杵市,大字野田５２８番地,,44,206,8750062,,,,,,,2021-10-06,1,,,,,タイヨウ,0
1148,3340001024151,新規,0,2021-10-06,2021-10-06,株式会社左近允,,株式会社,鹿児島県,薩摩郡さつま町,広瀬１３７６番地,,46,392,8951801,,,,,,,2021-10-06,1,,,,,サコンジュウ,0
1150,3340003003590,新規,0,2021-10-06,2021-10-06,合同会社ひかり潜水,,合同会社,鹿児島県,垂水市,市木１１７５番地７４,,46,214,8912103,,,,,,,2021-10-06,1,,,,,ヒカリセンスイ,0
1156,3350001017352,新規,0,2021-10-06,2021-10-06,株式会社ＴＵＮＡＧＵ,,株式会社,宮崎県,宮崎市,橘通西３丁目１０－２４竹原第３ビル６Ｆ,,45,201,8800001,,,,,,,2021-10-06,1,,,,,ツナグ,0
1158,3350003003937,新規,0,2021-10-06,2021-10-06,合同会社南九州眞輝林業,,合同会社,宮崎県,日南市,油津４丁目１番２５号,,45,204,8870001,,,,,,,2021-10-06,1,,,,,ミナミキュウシュウシンキリンギョウ,0
1161,3360001029470,新規,0,2021-10-06,2021-10-06,株式会社サウスウッド,,株式会社,沖縄県,石垣市,字新川２１４８番地２３、４０１,,47,207,9070024,,,,,,,2021-10-06,1,,,,,サウスウッド,0
1164,3370001047678,新規,0,2021-10-06,2021-10-06,株式会社フォレストキング,,株式会社,宮城県,仙台市宮城野区,福室字御蔵前二番７５番地の１,,04,102,9830005,,,,,,,2021-10-06,1,,,,,フォレストキング,0
1165,3370003005436,新規,0,2021-10-06,2021-10-06,合同会社ｃｕｂｅ,,合同会社,宮城県,岩沼市,大手町９番１,,04,211,9892442,,,,,,,2021-10-06,1,,,,,,0
1168,3380001032233,新規,0,2021-10-06,2021-10-06,株式会社サンメンテナンス,,株式会社,福島県,郡山市,御前南３丁目３６番地の１,,07,203,9630209,,,,,,,2021-10-06,1,,,,,サンメンテナンス,0
1170,3390001016615,新規,0,2021-10-06,2021-10-06,株式会社佐藤建業,,株式会社,山形県,酒田市,黒森字草刈谷地１１７番地１５,,06,204,9980111,,,,,,,2021-10-06,1,,,,,サトウケンギョウ,0
1171,3390001016623,新規,0,2021-10-06,2021-10-06,株式会社佐藤紀昭事務所,,株式会社,山形県,南陽市,赤湯２８６０番地の２,,06,213,9992211,,,,,,,2021-10-06,1,,,,,サトウノリアキジムショ,0
1178,3410001012982,新規,0,2021-10-06,2021-10-06,株式会社Ｋｅｎｚｉｎ,,株式会社,秋田県,大館市,下代野字代野道北７０番地６,,05,204,0170034,,,,,,,2021-10-06,1,,,,,ケンジン,0
1184,3420003002394,新規,0,2021-10-06,2021-10-06,合同会社おときた軽運送,,合同会社,青森県,八戸市,大字糠塚字長久保２９番地２２,,02,203,0310022,,,,,,,2021-10-06,1,,,,,オトキタケイウンソウ,0
1194,3430001085085,新規,0,2021-10-06,2021-10-06,株式会社永鉄,,株式会社,北海道,札幌市西区,西野八条９丁目１８番４７号,,01,107,0630038,,,,,,,2021-10-06,1,,,,,エイテツ,0
1195,3430001085093,新規,0,2021-10-06,2021-10-06,ＡＱＵＡ設備株式会社,,株式会社,北海道,札幌市北区,北二十三条西１４丁目５番地９－３１０号,,01,102,0010023,,,,,,,2021-10-06,1,,,,,アクアセツビ,0
1196,3430001085135,新規,0,2021-10-06,2021-10-06,株式会社Ｕｎｉｄｅｎ,,株式会社,北海道,札幌市東区,東苗穂十条３丁目１８番８－３０２号,,01,103,0070810,,,,,,,2021-10-06,1,,,,,ユニデン,0
1199,3430003013218,新規,0,2021-10-06,2021-10-06,合同会社イメージネオ,,合同会社,北海道,札幌市西区,八軒十条東１丁目１番５８号,,01,107,0630870,,,,,,,2021-10-06,1,,,,,イメージネオ,0
1203,3460001005610,新規,0,2021-10-06,2021-10-06,株式会社ミッキデール,,株式会社,北海道,厚岸郡浜中町,茶内西５線１３番地,,01,663,0881369,,,,,,,2021-10-06,1,,,,,ミッキデール,0
1204,3460101007069,新規,0,2021-10-06,2021-10-06,Ｐｏｎｏ　Ｗｏｌｖｅｓ株式会社,,株式会社,北海道,帯広市,西十三条南２９丁目１番地３,,01,207,0800023,,,,,,,2021-10-06,1,,,,,ポノウルヴス,0
1208,3480001011508,新規,0,2021-10-06,2021-10-06,戸田管財株式会社,,株式会社,徳島県,板野郡上板町,佐藤塚字西３３５番地,,36,405,7711342,,,,,,,2021-10-06,1,,,,,トダカンザイ,0
1213,3500001023723,新規,0,2021-10-06,2021-10-06,株式会社松田水産,,株式会社,愛媛県,宇和島市,津島町北灘乙３９４番地,00124457,38,203,7983362,,,,,,,2021-10-06,1,,,,,マツダスイサン,0
1215,3500003002700,新規,0,2021-10-06,2021-10-06,合同会社しまなみベース,,合同会社,愛媛県,松山市,東野３丁目３番１号Ｂ棟１０１号,,38,201,7900903,,,,,,,2021-10-06,1,,,,,シマナミベース,0
1216,3700150105087,新規,0,2021-10-06,2021-10-06,全国不動産業企業年金基金,,その他,東京都,港区,新橋１丁目１５－７,,13,103,1050004,,,,,,,2021-10-06,1,,,,,ゼンコクフドウサンギヨウキギヨウネンキンキキン,0
1227,4010001221516,新規,0,2021-10-06,2021-10-06,株式会社ＫｉｙｏＡｆｔｅｒｎｏｏｎ,,株式会社,東京都,千代田区,神田東松下町２５番地アルファグランデ千桜タワー２５０２号,,13,101,1010042,,,,,,,2021-10-06,1,,,,,キヨアフタヌーン,0
1228,4010001221557,新規,0,2021-10-06,2021-10-06,株式会社フォレスタ,,株式会社,東京都,文京区,白山３丁目３－８,,13,105,1120001,,,,,,,2021-10-06,1,,,,,フォレスタ,0
1229,4010001221581,新規,0,2021-10-06,2021-10-06,株式会社ｓｕｓｔａｉｎａｃｒａｆｔ,,株式会社,東京都,千代田区,平河町１丁目６番１５号ＵＳビル８階,,13,101,1020093,,,,,,,2021-10-06,1,,,,,サステナクラフト,0
1230,4010001221598,新規,0,2021-10-06,2021-10-06,ヒューリックスタートアップ株式会社,,株式会社,東京都,中央区,日本橋大伝馬町７番３号,,13,102,1030011,,,,,,,2021-10-06,1,,,,,ヒューリックスタートアップ,0
1231,4010001221607,新規,0,2021-10-06,2021-10-06,株式会社ダイナモアミューズメント,,株式会社,東京都,千代田区,神田淡路町２丁目２１番地,,13,101,1010063,,,,,,,2021-10-06,1,,,,,ダイナモアミューズメント,0
1234,4010005034039,新規,0,2021-10-06,2021-10-06,医療法人社団康善会,,その他の設立登記法人,東京都,文京区,関口１丁目１９番６号弥助ビル５階,,13,105,1120014,,,,,,,2021-10-06,1,,,,,コウゼンカイ,0
1235,4010101014893,新規,0,2021-10-06,2021-10-06,株式会社山田建美装,,株式会社,東京都,八王子市,上川町２２４２番地３,,13,201,1920151,,,,,,,2021-10-06,1,,,,,,0
1243,4010401162921,新規,0,2021-10-06,2021-10-06,ＯＵＲＳＥ株式会社,,株式会社,東京都,港区,南青山２丁目２番１５号ウィン青山９４２,,13,103,1070062,,,,,,,2021-10-06,1,,,,,ウルス,0
1244,4010401163011,新規,0,2021-10-06,2021-10-06,株式会社ＫＢＢ,,株式会社,東京都,港区,高輪２丁目１５番２１号,,13,103,1080074,,,,,,,2021-10-06,1,,,,,ケービービー,0
1245,4010401163028,新規,0,2021-10-06,2021-10-06,株式会社味享,,株式会社,東京都,港区,西新橋１丁目１８－８報徳ビル１Ｆ,,13,103,1050003,,,,,,,2021-10-06,1,,,,,ミタカ,0
1246,4010401163044,新規,0,2021-10-06,2021-10-06,ＪＯＹ　ＦＯＲ　ＪＯＹ　Ｗｏｒｋ　ｂｉｚ株式会社,,株式会社,東京都,港区,芝大門１丁目５番１２号芝大門松本ビル３Ｆ,,13,103,1050012,,,,,,,2021-10-06,1,,,,,ジョイフォージョイワークビズ,0
1247,4010403026240,新規,0,2021-10-06,2021-10-06,小平インターナショナル合同会社,,合同会社,東京都,港区,西新橋１丁目２２番５号６階,,13,103,1050003,,,,,,,2021-10-06,1,,,,,コダイラインターナショナル,0
1248,4010403026257,新規,0,2021-10-06,2021-10-06,Ｇｏｌｄｆｉｎｃｈ合同会社,,合同会社,東京都,港区,浜松町２丁目２番１５号,,13,103,1050013,,,,,,,2021-10-06,1,,,,,ゴールドフィンチ,0
1249,4010405020258,新規,0,2021-10-06,2021-10-06,シーズ税理士法人,,その他の設立登記法人,東京都,港区,三田３丁目４番３号,,13,103,1080073,,,,,,,2021-10-06,1,,,,,シーズ,0
1254,4010701041602,新規,0,2021-10-06,2021-10-06,Ｖマｐｌｕｓ制作委員会株式会社,,株式会社,東京都,品川区,西五反田１丁目１番８号ＮＭＦ五反田駅前ビル,,13,109,1410031,,,,,,,2021-10-06,1,,,,,ブイマプラスセイサクイインカイ,0
1257,4010801032385,新規,0,2021-10-06,2021-10-06,株式会社たかのは,,株式会社,東京都,大田区,大森北６丁目２７－１０平和島大西ビル１階,,13,111,1430016,,,,,,,2021-10-06,1,,,,,タカノハ,0
1258,4010901049560,新規,0,2021-10-06,2021-10-06,株式会社ＫＰＲＯＪＥＣＴ,,株式会社,東京都,世田谷区,上馬５丁目２番１１－Ｂ１０２号,,13,112,1540011,,,,,,,2021-10-06,1,,,,,ケープロジェクト,0
1259,4010903006849,新規,0,2021-10-06,2021-10-06,Ｔｅ＆Ｃｏ　Ｃｒｅａｔｉｖｅ合同会社,,合同会社,東京都,世田谷区,成城４丁目３３番１－４１１号,,13,112,1570066,,,,,,,2021-10-06,1,,,,,テコクリエイティブ,0
1264,4011001143295,新規,0,2021-10-06,2021-10-06,株式会社ＶＯＩＲＹ,,株式会社,東京都,目黒区,目黒４丁目１５番３号Ｎビル１号,,13,110,1530063,,,,,,,2021-10-06,1,,,,,ヴォイリー,0
1266,4011003013513,新規,0,2021-10-06,2021-10-06,合同会社ぬと,,合同会社,東京都,渋谷区,代々木５丁目２１番６号,,13,113,1510053,,,,,,,2021-10-06,1,,,,,ヌト,0
1277,4011103011061,新規,0,2021-10-06,2021-10-06,合同会社ＣＡＳＡ,,合同会社,東京都,新宿区,西新宿１丁目４番１１号,,13,104,1600023,,,,,,,2021-10-06,1,,,,,カーサ,0
1278,4011203003660,新規,0,2021-10-06,2021-10-06,ＨａｌＫ合同会社,,合同会社,東京都,中野区,中野５丁目３２番５号,,13,114,1640001,,,,,,,2021-10-06,1,,,,,ハルク,0
1281,4011301027223,新規,0,2021-10-06,2021-10-06,株式会社Ｒｉｖｅｒ　ｗｏｒｋｓ,,株式会社,東京都,杉並区,上井草３丁目１番２１号シャトー瀬戸原１０５,,13,115,1670023,,,,,,,2021-10-06,1,,,,,リバーワークス,0
1284,4011401023725,新規,0,2021-10-06,2021-10-06,株式会社Ｍ企画,,株式会社,東京都,板橋区,坂下２丁目１番２－５０２号けやき台ハイツ２号棟,,13,119,1740043,,,,,,,2021-10-06,1,,,,,エムキカク,0
1285,4011401023733,新規,0,2021-10-06,2021-10-06,株式会社タイセック東京,,株式会社,東京都,板橋区,大山金井町１３番８号,,13,119,1730024,,,,,,,2021-10-06,1,,,,,タイセックトウキョウ,0
1286,4011501027361,新規,0,2021-10-06,2021-10-06,米豊株式会社,,株式会社,東京都,荒川区,東日暮里５丁目５１番１３－９０２号パシフィック日暮里,,13,118,1160014,,,,,,,2021-10-06,1,,,,,ヨネブ,0
1287,4011503004920,新規,0,2021-10-06,2021-10-06,合同会社ＡＭＹカンパニー,,合同会社,東京都,北区,滝野川３丁目３番２－５０１号,,13,117,1140023,,,,,,,2021-10-06,1,,,,,エーエムワイカンパニー,0
1288,4011601025439,新規,0,2021-10-06,2021-10-06,株式会社Ｉｓｐｉｒａｒｅ,,株式会社,東京都,練馬区,西大泉４丁目１５番２０号,,13,120,1780065,,,,,,,2021-10-06,1,,,,,イスピラーレ,0
1289,4011601025447,新規,0,2021-10-06,2021-10-06,株式会社Ａ．Ｓｔｏｒｍ,,株式会社,東京都,練馬区,桜台４丁目３４番１６号,,13,120,1760002,,,,,,,2021-10-06,1,,,,,エーストーム,0
1290,4011603003401,新規,0,2021-10-06,2021-10-06,合同会社タマキ,,合同会社,東京都,練馬区,大泉学園町４丁目３０番５号,,13,120,1780061,,,,,,,2021-10-06,1,,,,,タマキ,0
1291,4011701024761,新規,0,2021-10-06,2021-10-06,株式会社巽,,株式会社,東京都,江戸川区,平井７丁目４番３－９０５号,,13,123,1320035,,,,,,,2021-10-06,1,,,,,タツミ,0
1292,4011801039783,新規,0,2021-10-06,2021-10-06,ＲＦＺ株式会社,,株式会社,東京都,足立区,伊興２丁目４番１５号,,13,121,1210823,,,,,,,2021-10-06,1,,,,,アールエフズィー,0
1299,4012403005059,新規,0,2021-10-06,2021-10-06,合同会社カサブランカ,,合同会社,東京都,稲城市,向陽台６丁目１２番地アルボの丘３－９１１号,,13,225,2060803,,,,,,,2021-10-06,1,,,,,カサブランカ,0
1300,4012701016699,新規,0,2021-10-06,2021-10-06,タワークレーンスタジオ株式会社,,株式会社,東京都,西東京市,富士町２丁目１１番１５号,,13,229,2020014,,,,,,,2021-10-06,1,,,,,タワークレーンスタジオ,0
1301,4012801021145,新規,0,2021-10-06,2021-10-06,株式会社Ｌｕａｎａ,,株式会社,東京都,国分寺市,南町２丁目１番２５号,,13,214,1850021,,,,,,,2021-10-06,1,,,,,ルアナ,0
1309,4013301048100,新規,0,2021-10-06,2021-10-06,株式会社タマエ,,株式会社,東京都,豊島区,南長崎５丁目２０番８号,,13,116,1710052,,,,,,,2021-10-06,1,,,,,タマエ,0
1315,4020001143271,新規,0,2021-10-06,2021-10-06,シームレスホールディングス株式会社,,株式会社,神奈川県,川崎市幸区,戸手１丁目６番６号エアリーアベニュー７０１,,14,132,2120005,,,,,,,2021-10-06,1,,,,,シームレスホールディングス,0
1316,4020001143321,新規,0,2021-10-06,2021-10-06,株式会社エアルーム,,株式会社,神奈川県,横浜市港北区,岸根町５５０番地,,14,109,2220034,,,,,,,2021-10-06,1,,,,,エアルーム,0
1317,4020001143338,新規,0,2021-10-06,2021-10-06,株式会社Ｔｏｙｏ　Ｃｈｅｍｉｃａｌ,,株式会社,神奈川県,横浜市西区,岡野２丁目１３番１７－４１０号,,14,103,2200073,,,,,,,2021-10-06,1,,,,,トウヨウケミカル,0
1318,4020001143354,新規,0,2021-10-06,2021-10-06,株式会社イケピー,,株式会社,神奈川県,横浜市旭区,上白根３丁目３８番３号,,14,112,2410002,,,,,,,2021-10-06,1,,,,,イケピー,0
1320,4020003020601,新規,0,2021-10-06,2021-10-06,合同会社Ｔｈｒｅｅ　ｔｒｅｅｓ,,合同会社,神奈川県,横浜市緑区,十日市場町８４７－５第２ヤマキビル１０２,,14,113,2260025,,,,,,,2021-10-06,1,,,,,スリートゥリィーズ,0
1322,4021001074093,新規,0,2021-10-06,2021-10-06,株式会社アイズ,,株式会社,神奈川県,秦野市,松原町５番３６号,,14,211,2591313,,,,,,,2021-10-06,1,,,,,アイズ,0
1323,4021001074102,新規,0,2021-10-06,2021-10-06,株式会社大木建築,,株式会社,神奈川県,相模原市中央区,陽光台５丁目１９番７号サンライズハイツ２０５号室,,14,152,2520226,,,,,,,2021-10-06,1,,,,,オオキケンチク,0
1324,4021001074110,新規,0,2021-10-06,2021-10-06,株式会社ワイエムフーズ,,株式会社,神奈川県,小田原市,南鴨宮３丁目１１番３号,,14,206,2500875,,,,,,,2021-10-06,1,,,,,ワイエムフーズ,0
1325,4021001074119,新規,0,2021-10-06,2021-10-06,株式会社いらか,,株式会社,神奈川県,平塚市,北豊田６２４番地,,14,203,2540088,,,,,,,2021-10-06,1,,,,,イラカ,0
1326,4021001074127,新規,0,2021-10-06,2021-10-06,株式会社ＨＡＭＭ,,株式会社,神奈川県,相模原市南区,上鶴間１丁目２６番６号セジュール上鶴間１０２,,14,153,2520302,,,,,,,2021-10-06,1,,,,,ハム,0
1327,4021001074135,新規,0,2021-10-06,2021-10-06,株式会社浦川屋,,株式会社,神奈川県,平塚市,明石町９番２号,,14,203,2540042,,,,,,,2021-10-06,1,,,,,ウラカワヤ,0
1328,4021001074143,新規,0,2021-10-06,2021-10-06,株式会社アクロ,,株式会社,神奈川県,茅ヶ崎市,東海岸南３丁目１番１１号クレシアＩ１０３,00124477,14,207,2530054,,,,,,,2021-10-06,1,,,,,アクロ,0
1329,4021003010955,新規,0,2021-10-06,2021-10-06,合同会社Ｒ．Ｓ．Ｋ,,合同会社,神奈川県,相模原市中央区,田名３５２４番地５,,14,152,2520244,,,,,,,2021-10-06,1,,,,,アールエスケー,0
1330,4021003010963,新規,0,2021-10-06,2021-10-06,ノーステック合同会社,,合同会社,神奈川県,相模原市中央区,淵野辺２丁目２４番８号,,14,152,2520206,,,,,,,2021-10-06,1,,,,,ノーステック,0
1331,4021005012314,新規,0,2021-10-06,2021-10-06,行政書士法人松尾嘉洋事務所,,その他の設立登記法人,神奈川県,平塚市,平塚４丁目１７番１２号,,14,203,2540052,,,,,,,2021-10-06,1,,,,,マツオヨシヒロジムショ,0
1340,4030001144599,新規,0,2021-10-06,2021-10-06,株式会社Ｈａｍａｄａ仮設,,株式会社,埼玉県,さいたま市岩槻区,大字横根１５００番地１,,11,110,3390036,,,,,,,2021-10-06,1,,,,,ハマダカセツ,0
1341,4030001144624,新規,0,2021-10-06,2021-10-06,株式会社エイト技研,,株式会社,埼玉県,北葛飾郡松伏町,大字大川戸３２８番地２,,11,465,3430106,,,,,,,2021-10-06,1,,,,,エイトギケン,0
1342,4030001144632,新規,0,2021-10-06,2021-10-06,株式会社Ｓ’ｓ　Ｆａｒｍ,,株式会社,埼玉県,本庄市,児玉町塩谷９７２番地１,,11,211,3670223,,,,,,,2021-10-06,1,,,,,スズファーム,0
1343,4030001144640,新規,0,2021-10-06,2021-10-06,株式会社ｒｅ．ｂｏ－ｒｎ,,株式会社,埼玉県,朝霞市,本町２丁目６番３２号秋桜マンション１０２,,11,227,3510011,,,,,,,2021-10-06,1,,,,,リボーン,0
1344,4030001144649,新規,0,2021-10-06,2021-10-06,株式会社原工芸,,株式会社,埼玉県,八潮市,大字鶴ケ曽根５７１番地５,,11,234,3400802,,,,,,,2021-10-06,1,,,,,ハラコウゲイ,0
1345,4030001144665,新規,0,2021-10-06,2021-10-06,株式会社プリンス,,株式会社,埼玉県,草加市,谷塚町６３３番地,,11,221,3400023,,,,,,,2021-10-06,1,,,,,プリンス,0
1346,4030001144681,新規,0,2021-10-06,2021-10-06,株式会社Ｒｉｔａ,,株式会社,埼玉県,川越市,脇田町３３番地２,,11,201,3501122,,,,,,,2021-10-06,1,,,,,リタ,0
1347,4030001144707,新規,0,2021-10-06,2021-10-06,株式会社滝澤自動車,,株式会社,埼玉県,入間市,大字狭山ケ原１３１番地１,,11,225,3580032,,,,,,,2021-10-06,1,,,,,タキザワジドウシャ,0
1350,4030003018058,新規,0,2021-10-06,2021-10-06,合同会社ｉｓｍ,,合同会社,埼玉県,さいたま市浦和区,領家３丁目１９番９－１２０３号,,11,107,3300072,,,,,,,2021-10-06,1,,,,,イズム,0
1351,4030003018082,新規,0,2021-10-06,2021-10-06,ＦＵＮＯＶＡ合同会社,,合同会社,埼玉県,東松山市,加美町２番１４号,,11,212,3550011,,,,,,,2021-10-06,1,,,,,ファノーヴァ,0
1360,4040001120418,新規,0,2021-10-06,2021-10-06,株式会社公津の杜ハウス,,株式会社,千葉県,成田市,公津の杜５丁目３番地４,,12,211,2860048,,,,,,,2021-10-06,1,,,,,コウヅノモリハウス,0
1361,4040001120434,新規,0,2021-10-06,2021-10-06,株式会社ネクスト,,株式会社,千葉県,柏市,柏４丁目６番１２－１０２号,,12,217,2770005,,,,,,,2021-10-06,1,,,,,ネクスト,0
1362,4040001120459,新規,0,2021-10-06,2021-10-06,釜石電工株式会社,,株式会社,千葉県,船橋市,北本町２丁目８番１－５０８号,,12,204,2730864,,,,,,,2021-10-06,1,,,,,カマイシデンコウ,0
1363,4040001120467,新規,0,2021-10-06,2021-10-06,株式会社アプトサービス,,株式会社,千葉県,松戸市,古ケ崎４丁目３５６９番地の１９,,12,207,2710068,,,,,,,2021-10-06,1,,,,,アプトサービス,0
1364,4040001120491,新規,0,2021-10-06,2021-10-06,株式会社リブコ,,株式会社,千葉県,流山市,おおたかの森北１丁目９番地の１,,12,220,2700119,,,,,,,2021-10-06,1,,,,,リブコ,0
1365,4040001120500,新規,0,2021-10-06,2021-10-06,株式会社サウザンドワールド,,株式会社,千葉県,千葉市中央区,登戸２丁目５番１７号,,12,101,2600032,,,,,,,2021-10-06,1,,,,,サウザンドワールド,0
1367,4040003018676,新規,0,2021-10-06,2021-10-06,合同会社ケーアンドエム,,合同会社,千葉県,船橋市,飯山満町１５３２－１３第四三晃ビル１０１,,12,204,2730000,,,,,,,2021-10-06,1,,,,,ケーアンドエム,0
1368,4040003018684,新規,0,2021-10-06,2021-10-06,Ｌｉｍｉｔ　ｏｆｆ合同会社,,合同会社,千葉県,松戸市,栄町４丁目２０４番地の３カネヨシマンション４０３号,,12,207,2710062,,,,,,,2021-10-06,1,,,,,リミットオフ,0
1369,4040003018692,新規,0,2021-10-06,2021-10-06,合同会社桃太郎,,合同会社,千葉県,松戸市,大金平２丁目９５番地の９レオパレス北小金第１６－２０３号,,12,207,2700006,,,,,,,2021-10-06,1,,,,,モモタロウ,0
1373,4050001049920,新規,0,2021-10-06,2021-10-06,株式会社グリーンハーツ,,株式会社,茨城県,古河市,仁連２４６０番地１,,08,204,3060125,,,,,,,2021-10-06,1,,,,,グリーンハーツ,0
1374,4050001049929,新規,0,2021-10-06,2021-10-06,株式会社Ｉ－Ｄｅａ,,株式会社,茨城県,龍ケ崎市,城ノ内４丁目２番地１０,,08,208,3010847,,,,,,,2021-10-06,1,,,,,アイディア,0
1375,4050001049961,新規,0,2021-10-06,2021-10-06,株式会社アークス,,株式会社,茨城県,つくばみらい市,富士見ヶ丘１丁目３１番地１２,,08,235,3002417,,,,,,,2021-10-06,1,,,,,アークス,0
1382,4060001034161,新規,0,2021-10-06,2021-10-06,株式会社茜屋,,株式会社,栃木県,宇都宮市,御幸町１００番地ウィングヴィラ枝野Ａ２０２,,09,201,3210984,,,,,,,2021-10-06,1,,,,,アカネヤ,0
1391,4080001024490,新規,0,2021-10-06,2021-10-06,株式会社Ｔ＆Ａ,,株式会社,静岡県,静岡市清水区,由比北田５１１番地,,22,103,4213104,,,,,,,2021-10-06,1,,,,,ティーアンドエイ,0
1399,4100001034669,新規,0,2021-10-06,2021-10-06,株式会社セフテック,,株式会社,長野県,上田市,塩川２８４０番地１１,,20,203,3860401,,,,,,,2021-10-06,1,,,,,セフテック,0
1400,4100001034677,新規,0,2021-10-06,2021-10-06,株式会社ながの営農,,株式会社,長野県,中野市,大字岩船２５６番地,,20,211,3830041,,,,,,,2021-10-06,1,,,,,ナガノエイノウ,0
1404,4110001036078,新規,0,2021-10-06,2021-10-06,株式会社サトウ設備,,株式会社,新潟県,魚沼市,山口６１４番地１,,15,225,9460115,,,,,,,2021-10-06,1,,,,,サトウセツビ,0
1406,4110003004594,新規,0,2021-10-06,2021-10-06,合同会社Ｊｏｉｎ,,合同会社,新潟県,妙高市,大字祖父竹４７７番地,,15,217,9492209,,,,,,,2021-10-06,1,,,,,ジョイン,0
1408,4110005016720,新規,0,2021-10-06,2021-10-06,農事組合法人いわで,,その他の設立登記法人,新潟県,上越市,柿崎区岩手８１７番地,,15,222,9493376,,,,,,,2021-10-06,1,,,,,イワデ,0
1416,4120001240827,新規,0,2021-10-06,2021-10-06,晃陽株式会社,,株式会社,大阪府,大阪市中央区,難波４丁目１番１５号,,27,128,5420076,,,,,,,2021-10-06,1,,,,,コウヨウ,0
1417,4120001240843,新規,0,2021-10-06,2021-10-06,株式会社パルピテーション,,株式会社,大阪府,大阪市福島区,玉川２丁目３番１６－８３０号,,27,103,5530004,,,,,,,2021-10-06,1,,,,,パルピテーション,0
1418,4120001240851,新規,0,2021-10-06,2021-10-06,株式会社ダイトー工業所,,株式会社,大阪府,大阪市東住吉区,今川４丁目６番３３号,,27,121,5460003,,,,,,,2021-10-06,1,,,,,ダイトーコウギョウショ,0
1419,4120001240884,新規,0,2021-10-06,2021-10-06,株式会社関西ＳＴ,,株式会社,大阪府,守口市,佐太中町６丁目５１番９－３０２号,,27,209,5700002,,,,,,,2021-10-06,1,,,,,カンサイエスティー,0
1420,4120001240918,新規,0,2021-10-06,2021-10-06,株式会社カヨシホーム,,株式会社,大阪府,大阪市天王寺区,石ケ辻町３番１０号,00124456,27,109,5430031,,,,,,,2021-10-06,1,,,,,カヨシホーム,0
1427,4120003020343,新規,0,2021-10-06,2021-10-06,合同会社ＵＪ,,合同会社,大阪府,大阪市淀川区,西宮原３丁目３番５－１３１２号,,27,123,5320004,,,,,,,2021-10-06,1,,,,,ユージェイ,0
1432,4120101064408,新規,0,2021-10-06,2021-10-06,毎日総合保険株式会社,,株式会社,大阪府,岸和田市,額原町１３６番地の１,,27,202,5960822,,,,,,,2021-10-06,1,,,,,マイニチソウゴウホケン,0
1433,4120101064432,新規,0,2021-10-06,2021-10-06,株式会社Ｆｉｎｅ,,株式会社,大阪府,堺市堺区,田出井町１番３－２６０５号,,27,141,5900014,,,,,,,2021-10-06,1,,,,,ファイン,0
1437,4120901044988,新規,0,2021-10-06,2021-10-06,株式会社天神部品,,株式会社,大阪府,吹田市,千里山西６丁目６２－Ｂ－２０８,,27,205,5650851,,,,,,,2021-10-06,1,,,,,テンジンブヒン,0
1438,4120901045004,新規,0,2021-10-06,2021-10-06,株式会社Ｄｉｎｎｅｒｏｕｔ,,株式会社,大阪府,豊中市,服部西町１丁目３番２０－２０６号,,27,203,5610858,,,,,,,2021-10-06,1,,,,,ディナーアウト,0
1439,4120901045020,新規,0,2021-10-06,2021-10-06,株式会社アセビ,,株式会社,大阪府,箕面市,粟生新家５丁目６番１１号,,27,220,5620024,,,,,,,2021-10-06,1,,,,,アセビ,0
1440,4130001070190,新規,0,2021-10-06,2021-10-06,ＢＬＵＥ　ＶＩＬＬＡＧＥ株式会社,,株式会社,京都府,京都市中京区,壬生坊城町５３坊城ビル１０１,,26,104,6048804,,,,,,,2021-10-06,1,,,,,ブルービレッジ,0
1441,4130001070216,新規,0,2021-10-06,2021-10-06,株式会社川添工業,,株式会社,京都府,城陽市,久世北垣内８７番地の３４,,26,207,6100102,,,,,,,2021-10-06,1,,,,,カワゾエコウギョウ,0
1442,4130001070232,新規,0,2021-10-06,2021-10-06,株式会社あおき建工,,株式会社,京都府,京都市伏見区,羽束師鴨川町１３４番地１１,,26,109,6128484,,,,,,,2021-10-06,1,,,,,アオキケンコウ,0
1443,4130001070265,新規,0,2021-10-06,2021-10-06,株式会社マシュマロータ,,株式会社,京都府,京都市中京区,西ノ京樋ノ口町１１９西ノ京ビル１Ｆ,,26,104,6048424,,,,,,,2021-10-06,1,,,,,マシュマロータ,0
1444,4130001070281,新規,0,2021-10-06,2021-10-06,株式会社翔美自動車,,株式会社,京都府,京都市南区,東九条上御霊町２３番地,,26,107,6018015,,,,,,,2021-10-06,1,,,,,ショウビジドウシャ,0
1445,4130001070298,新規,0,2021-10-06,2021-10-06,株式会社カチャカチャウェブ,,株式会社,京都府,京都市西京区,川島東代町５１番地マンハイム桂４０４号室,,26,111,6158101,,,,,,,2021-10-06,1,,,,,カチャカチャウェブ,0
1451,4140001123229,新規,0,2021-10-06,2021-10-06,株式会社アイスクリームユナイテッド,,株式会社,兵庫県,神戸市東灘区,向洋町中５丁目６番地の１、４３２号,,28,101,6580032,,,,,,,2021-10-06,1,,,,,アイスクリームユナイテッド,0
1452,4140001123261,新規,0,2021-10-06,2021-10-06,株式会社マリンガード兵庫,,株式会社,兵庫県,神戸市兵庫区,吉田町３丁目７番２９号,,28,105,6520872,,,,,,,2021-10-06,1,,,,,,0
1453,4140001123303,新規,0,2021-10-06,2021-10-06,株式会社シカンスイ,,株式会社,兵庫県,姫路市,飾磨区中島３丁目３７番地,,28,201,6728035,,,,,,,2021-10-06,1,,,,,シカンスイ,0
1454,4140001123369,新規,0,2021-10-06,2021-10-06,株式会社三裕,,株式会社,兵庫県,尼崎市,尾浜町１丁目２８番２３号,,28,202,6610022,,,,,,,2021-10-06,1,,,,,サンユウ,0
1460,4140005025842,新規,0,2021-10-06,2021-10-06,一般社団法人宝塚歌劇団卒業生の会・宝友会,00124466,その他の設立登記法人,兵庫県,宝塚市,栄町１丁目７番７号,,28,214,6650845,,,,,,,2021-10-06,1,,,,,タカラヅカカゲキダンソツギョウセイノカイホウユウカイ,0
1462,4150001024987,新規,0,2021-10-06,2021-10-06,株式会社紫光,,株式会社,奈良県,大和高田市,大字曽大根１８５－７,,29,202,6350054,,,,,,,2021-10-06,1,,,,,シコウ,0
1463,4150003002504,新規,0,2021-10-06,2021-10-06,合同会社らしさ工房,,合同会社,奈良県,奈良市,富雄川西１丁目２８番８号,,29,201,6310077,,,,,,,2021-10-06,1,,,,,ラシサコウボウ,0
1465,4160001023682,新規,0,2021-10-06,2021-10-06,ＧａｎｄＨ株式会社,,株式会社,滋賀県,蒲生郡竜王町,大字薬師１２１３番地１,,25,384,5202551,,,,,,,2021-10-06,1,,,,,ジーアンドエイチ,0
1482,4180001148040,新規,0,2021-10-06,2021-10-06,株式会社ｅａｒｔｈ,,株式会社,愛知県,名古屋市港区,正徳町３丁目９番地,,23,111,4550075,,,,,,,2021-10-06,1,,,,,アース,0
1483,4180001148049,新規,0,2021-10-06,2021-10-06,株式会社ＮＣホールディングス,,株式会社,愛知県,一宮市,多加木２丁目９番３号,,23,203,4910837,,,,,,,2021-10-06,1,,,,,エヌシーホールディングス,0
1484,4180001148073,新規,0,2021-10-06,2021-10-06,株式会社藤誠電工,,株式会社,愛知県,豊明市,新栄町３丁目２８１番地,,23,229,4701154,,,,,,,2021-10-06,1,,,,,トウセイデンコウ,0
1485,4180001148098,新規,0,2021-10-06,2021-10-06,株式会社ＯＮ　ＴＥＣ,,株式会社,愛知県,知多市,八幡新町３丁目２番地の２,,23,224,4780052,,,,,,,2021-10-06,1,,,,,オンテック,0
1486,4180001148180,新規,0,2021-10-06,2021-10-06,あおば工房株式会社,,株式会社,愛知県,尾張旭市,長坂町南山２９３９番地３８,,23,226,4880821,,,,,,,2021-10-06,1,,,,,アオバコウボウ,0
1487,4180001148189,新規,0,2021-10-06,2021-10-06,ＬａｕｇｈＴｅｃ株式会社,,株式会社,愛知県,長久手市,市が洞３丁目２４０３番地,,23,238,4801147,,,,,,,2021-10-06,1,,,,,ラフテック,0
1488,4180001148197,新規,0,2021-10-06,2021-10-06,株式会社ａｓｈｉａｔｏ,,株式会社,愛知県,名古屋市天白区,野並２丁目２５５番地,,23,116,4680045,,,,,,,2021-10-06,1,,,,,アシアト,0
1493,4180301035418,新規,0,2021-10-06,2021-10-06,株式会社Ｌｉｔｔｌｅ　Ｂｌｕｅ　Ｔｒａｄｉｎｇ,,株式会社,愛知県,豊橋市,飯村北４丁目８番地の１５,,23,201,4400834,,,,,,,2021-10-06,1,,,,,リトルブルートレーディング,0
1494,4190001028720,新規,0,2021-10-06,2021-10-06,ＧＡＬＬＥＹ株式会社,,株式会社,三重県,松阪市,星合町５１番地１,,24,204,5152101,,,,,,,2021-10-06,1,,,,,ガレー,0
1495,4190001028737,新規,0,2021-10-06,2021-10-06,株式会社イニシャルＫ,,株式会社,三重県,桑名市,陽だまりの丘３丁目７１０番地,,24,205,5110867,,,,,,,2021-10-06,1,,,,,イニシャルケイ,0
1496,4190001028745,新規,0,2021-10-06,2021-10-06,株式会社ＥＧサポート,,株式会社,三重県,多気郡明和町,大字有爾中１３３０番地１,,24,442,5150316,,,,,,,2021-10-06,1,,,,,イージーサポート,0
1502,4200001039261,新規,0,2021-10-06,2021-10-06,株式会社ＷＴＰ中部,,株式会社,岐阜県,各務原市,川島河田町１０９６番地１,,21,213,5016025,,,,,,,2021-10-06,1,,,,,ダブリュウティーピーチュウブ,0
1510,4210001018628,新規,0,2021-10-06,2021-10-06,高山鉄工所株式会社,00124459,株式会社,福井県,鯖江市,上氏家町第１８号８番地,,18,207,9160066,,,,,,,2021-10-06,1,,,,,タカヤマテッコウショ,0
1511,4210001018636,新規,0,2021-10-06,2021-10-06,ＵＲＧＥ株式会社,,株式会社,福井県,越前市,家久町８８－１２－２４,,18,209,9150801,,,,,,,2021-10-06,1,,,,,アージ,0
1520,4230001019013,新規,0,2021-10-06,2021-10-06,株式会社Ｆ‐ｃｌａｓｓ,,株式会社,富山県,富山市,塩６８０番地１,,16,201,9392242,,,,,,,2021-10-06,1,,,,,ファーストクラス,0
1523,4240001058679,新規,0,2021-10-06,2021-10-06,株式会社ＧＲＡＣＥ,,株式会社,広島県,福山市,今津町６丁目１１番２号,,34,207,7290111,,,,,,,2021-10-06,1,,,,,グレイス,0
1524,4240001058695,新規,0,2021-10-06,2021-10-06,ＫＩＣｏｍｐａｎｙ株式会社,,株式会社,広島県,東広島市,八本松町篠６８９番地３,,34,212,7390131,,,,,,,2021-10-06,1,,,,,ケイアイカンパニー,0
1525,4240001058704,新規,0,2021-10-06,2021-10-06,株式会社ナチュラルサウンド,,株式会社,広島県,三次市,南畑敷町８２９番地１,,34,209,7280017,,,,,,,2021-10-06,1,,,,,ナチュラルサウンド,0
1526,4240001058712,新規,0,2021-10-06,2021-10-06,株式会社ＡＩＲＰＲＯダクト,,株式会社,広島県,福山市,神辺町字上御領７２６番地１,,34,207,7202111,,,,,,,2021-10-06,1,,,,,エアプロダクト,0
1527,4240001058720,新規,0,2021-10-06,2021-10-06,桜光株式会社,,株式会社,広島県,福山市,御幸町中津原１８７６番地７,,34,207,7210000,,,,,,,2021-10-06,1,,,,,オウコウ,0
1528,4240001058729,新規,0,2021-10-06,2021-10-06,株式会社松田運送,,株式会社,広島県,広島市安佐南区,川内６丁目１番２９－１０３号,,34,105,7310102,,,,,,,2021-10-06,1,,,,,マツダウンソウ,0
1529,4240001058737,新規,0,2021-10-06,2021-10-06,株式会社リバイバルフーズ,,株式会社,広島県,広島市中区,流川町２番２０号ＳＳ館３階,,34,101,7300028,,,,,,,2021-10-06,1,,,,,リバイバルフーズ,0
1532,4240003005308,新規,0,2021-10-06,2021-10-06,合同会社ＭＳ,,合同会社,広島県,広島市西区,三篠北町９番８号ＫＮビル,,34,104,7330006,,,,,,,2021-10-06,1,,,,,エムエス,0
1544,4290001094819,新規,0,2021-10-06,2021-10-06,株式会社ＨＯＵＳＥ　ｄｅ　ｂｉｔｏ,,株式会社,福岡県,福岡市中央区,大手門３丁目１ー３０アメックス大濠タワー１３０６,,40,133,8100074,,,,,,,2021-10-06,1,,,,,ハウスデビイト,0
1548,4290003011680,新規,0,2021-10-06,2021-10-06,合同会社フィールドワンツーサービス,,合同会社,福岡県,福岡市早良区,高取１丁目２７番２－１０３号,,40,137,8140011,,,,,,,2021-10-06,1,,,,,フィールドワンツーサービス,0
1550,4290801027878,新規,0,2021-10-06,2021-10-06,株式会社竜営書店,,株式会社,福岡県,北九州市小倉北区,熊谷１丁目２８番４１号,,40,106,8030864,,,,,,,2021-10-06,1,,,,,リュウエイショテン,0
1551,4290803003943,新規,0,2021-10-06,2021-10-06,合同会社大嗣,,合同会社,福岡県,北九州市小倉北区,片野３丁目１－４,,40,106,8020064,,,,,,,2021-10-06,1,,,,,ダイシ,0
1553,4310001017520,新規,0,2021-10-06,2021-10-06,株式会社Ｇ－ＰＲＯＪＥＣＴ,,株式会社,長崎県,長崎市,金堀町５４番１０号,,42,201,8528026,,,,,,,2021-10-06,1,,,,,ジープロジェクト,0
1554,4310003004178,新規,0,2021-10-06,2021-10-06,ＴＥＭＰＯ合同会社,,合同会社,長崎県,長崎市,大黒町１０－１０ＫｏＫｏＲｏビル６ＤＰ号室,,42,201,8500057,,,,,,,2021-10-06,1,,,,,テンポ,0
1556,4320001018633,新規,0,2021-10-06,2021-10-06,株式会社ＢＥ　ＣＵＴ,,株式会社,大分県,中津市,中殿町４丁目６番地１０,,44,203,8710030,,,,,,,2021-10-06,1,,,,,ビーカット,0
1564,4340001024142,新規,0,2021-10-06,2021-10-06,株式会社霧島,,株式会社,鹿児島県,鹿児島市,郡山町２５４４番地７,,46,201,8911105,,,,,,,2021-10-06,1,,,,,キリシマ,0
1565,4340001024150,新規,0,2021-10-06,2021-10-06,株式会社ハルイチ,,株式会社,鹿児島県,薩摩川内市,入来町浦之名２７３６番地３,,46,215,8951402,,,,,,,2021-10-06,1,,,,,ハルイチ,0
1566,4340001024159,新規,0,2021-10-06,2021-10-06,株式会社永野畜産,,株式会社,鹿児島県,鹿児島市,下荒田４丁目１５番１１号,,46,201,8900056,,,,,,,2021-10-06,1,,,,,ナガノチクサン,0
1567,4340003003581,新規,0,2021-10-06,2021-10-06,アイフォワード合同会社,,合同会社,鹿児島県,肝属郡南大隅町,根占川北９６５０番地,,46,491,8932501,,,,,,,2021-10-06,1,,,,,アイフォワード,0
1571,4350001017343,新規,0,2021-10-06,2021-10-06,三桜ＰＬＡＮＰＬＵＳＴ株式会社,,株式会社,宮崎県,延岡市,川原崎町２１１９番地２,,45,203,8820033,,,,,,,2021-10-06,1,,,,,ミサクラプランプラスティー,0
1572,4350001017351,新規,0,2021-10-06,2021-10-06,株式会社ＢＩ　ＢＡＳＥＭＥＮＴ,,株式会社,宮崎県,延岡市,大貫町１丁目２９８１番地,,45,203,8820803,,,,,,,2021-10-06,1,,,,,ビーアイベースメント,0
1574,4350003003936,新規,0,2021-10-06,2021-10-06,合同会社和音,,合同会社,宮崎県,都城市,若葉町８３号１番地６,,45,202,8850054,,,,,,,2021-10-06,1,,,,,ワオン,0
1576,4360003011483,新規,0,2021-10-06,2021-10-06,Ｃ．Ｐ．Ｄ．Ｍｏｔｏｒｓ合同会社,,合同会社,沖縄県,沖縄市,泡瀬１丁目５番１０－１号,,47,211,9042172,,,,,,,2021-10-06,1,,,,,シーピーディモータース,0
1583,4370001047652,新規,0,2021-10-06,2021-10-06,株式会社早坂青果,,株式会社,宮城県,仙台市青葉区,下愛子字町７番地の１,,04,101,9893125,,,,,,,2021-10-06,1,,,,,ハヤサカセイカ,0
1584,4370003005435,新規,0,2021-10-06,2021-10-06,合同会社ＦＩＦＴＥＥＮ,,合同会社,宮城県,仙台市青葉区,北山２丁目１番地１６号セントラル北山１階,,04,101,9810931,,,,,,,2021-10-06,1,,,,,フィフティーン,0
1588,4380001032232,新規,0,2021-10-06,2021-10-06,株式会社Ａｄｍｉｒｅ,,株式会社,福島県,郡山市,若葉町１４番１８号,,07,203,9638011,,,,,,,2021-10-06,1,,,,,アドマイアー,0
1589,4380001032240,新規,0,2021-10-06,2021-10-06,遠藤建機株式会社,,株式会社,福島県,郡山市,大槻町字西荒久２９番地３,,07,203,9630201,,,,,,,2021-10-06,1,,,,,エンドウケンキ,0
1597,4400001015630,新規,0,2021-10-06,2021-10-06,株式会社成瀬総業,,株式会社,岩手県,北上市,二子町築舘８５番地８１,,03,206,0240104,,,,,,,2021-10-06,1,,,,,ナルセソウギョウ,0
1602,4410001012981,新規,0,2021-10-06,2021-10-06,株式会社ナガサキ塗装,,株式会社,秋田県,大館市,根下戸町１番３１－５号,,05,204,0170863,,,,,,,2021-10-06,1,,,,,ナガサキトソウ,0
1605,4420001017609,新規,0,2021-10-06,2021-10-06,株式会社ラッキー,,株式会社,青森県,八戸市,是川５丁目５番地９,,02,203,0310023,,,,,,,2021-10-06,1,,,,,ラッキー,0
1608,4420003002393,新規,0,2021-10-06,2021-10-06,合同会社つがる住研,,合同会社,青森県,弘前市,大字撫牛子３丁目２０番地１０２,,02,202,0368075,,,,,,,2021-10-06,1,,,,,ツガルジュウケン,0
1614,4430003013217,新規,0,2021-10-06,2021-10-06,合同会社メルリアン・オフィス,,合同会社,北海道,小樽市,花園３丁目１５番８号,,01,203,0470024,,,,,,,2021-10-06,1,,,,,メルリアンオフィス,0
1615,4430005014304,新規,0,2021-10-06,2021-10-06,特定非営利活動法人Ｌｏｖｅ＆Ｐｅａｃｅ,,その他の設立登記法人,北海道,札幌市厚別区,青葉町７丁目１番２５－１１０２号,,01,108,0040021,,,,,,,2021-10-06,1,,,,,ラブアンドピース,0
1623,4460003000864,新規,0,2021-10-06,2021-10-06,合同会社８８８,,合同会社,北海道,釧路市,芦野５丁目２１番６号,00124461,01,206,0850061,,,,,,,2021-10-06,1,,,,,サンエイト,0
1624,4460101007068,新規,0,2021-10-06,2021-10-06,株式会社ノースエネテック,,株式会社,北海道,上川郡清水町,字御影南２線５７番地３,,01,636,0890357,,,,,,,2021-10-06,1,,,,,ノースエネテック,0
1626,4460301005012,新規,0,2021-10-06,2021-10-06,株式会社木曽工業,,株式会社,北海道,北見市,小泉４６２番地１,,01,208,0900001,,,,,,,2021-10-06,1,,,,,キソコウギョウ,0
1637,4500001023722,新規,0,2021-10-06,2021-10-06,愛媛海運ホールディングス株式会社,,株式会社,愛媛県,今治市,恵美須町２丁目１番地３,,38,202,7940031,,,,,,,2021-10-06,1,,,,,エヒメカイウンホールディングスス,0
1638,4700150105086,新規,0,2021-10-06,2021-10-06,日本酒造企業年金基金,,その他,東京都,港区,西新橋１丁目６番１５号,,13,103,1050003,,,,,,,2021-10-06,1,,,,,ニホンシユゾウキギヨウネンキンキキン,0
1646,5010001221523,新規,0,2021-10-06,2021-10-06,株式会社Ｇｏｌｆ　Ｃｈａｉｎ,,株式会社,東京都,千代田区,丸の内１丁目１１番１号パシフィックセンチュリープレイス丸の内,,13,101,1000005,,,,,,,2021-10-06,1,,,,,ゴルフチェーン,0
1647,5010001221556,新規,0,2021-10-06,2021-10-06,株式会社Ｂ　Ｓｐａｒｋ,,株式会社,東京都,千代田区,麹町６丁目１番地１,,13,101,1020083,,,,,,,2021-10-06,1,,,,,ビースパーク,0
1648,5010001221564,新規,0,2021-10-06,2021-10-06,株式会社そのじ,,株式会社,東京都,中央区,日本橋人形町２丁目２２番１１号井上ビル１階,,13,102,1030013,,,,,,,2021-10-06,1,,,,,ソノジ,0
1649,5010001221589,新規,0,2021-10-06,2021-10-06,株式会社ミライクリエ,,株式会社,東京都,中央区,日本橋１丁目２番１０号東洋ビル３階,,13,102,1030027,,,,,,,2021-10-06,1,,,,,ミライクリエ,0
1650,5010001221606,新規,0,2021-10-06,2021-10-06,ＧＯＪＵ株式会社,,株式会社,東京都,千代田区,九段南１丁目５番６号りそな九段ビル５Ｆ－ＫＳフロア,,13,101,1020074,,,,,,,2021-10-06,1,,,,,ゴジュウ,0
1654,5010101014892,新規,0,2021-10-06,2021-10-06,株式会社シノザキ,,株式会社,東京都,八王子市,東中野１４３２番地２９,,13,201,1920351,,,,,,,2021-10-06,1,,,,,,0
1662,5010401162994,新規,0,2021-10-06,2021-10-06,株式会社ミカサ,,株式会社,東京都,港区,芝５丁目３２番１２号,,13,103,1080014,,,,,,,2021-10-06,1,,,,,ミカサ,0
1663,5010401163019,新規,0,2021-10-06,2021-10-06,株式会社Ｃｈｏｒｄ　Ｓｔｙｌｅ,,株式会社,東京都,港区,南青山６丁目２番６号－５０２,,13,103,1070062,,,,,,,2021-10-06,1,,,,,コードスタイル,0
1664,5010401163043,新規,0,2021-10-06,2021-10-06,ＪＯＹ　ＦＯＲ　ＪＯＹ　Ｔｅｃｈｎｏｌｏｇｉｅｓ株式会社,,株式会社,東京都,港区,芝大門１丁目５番１２号芝大門松本ビル３Ｆ,,13,103,1050012,,,,,,,2021-10-06,1,,,,,ジョイフォージョイテクノロジーズ,0
1665,5010503006397,新規,0,2021-10-06,2021-10-06,合同会社ＣＩＡ,,合同会社,東京都,台東区,柳橋２丁目１９番１２－１０１号,,13,106,1110052,,,,,,,2021-10-06,1,,,,,シーアイエー,0
1666,5010503006406,新規,0,2021-10-06,2021-10-06,合同会社Ｔ．Ｇ．Ｍ,,合同会社,東京都,台東区,清川２丁目１０番７－５０２号フォースター南千住,,13,106,1110022,,,,,,,2021-10-06,1,,,,,ティージーエム,0
1674,5010801032368,新規,0,2021-10-06,2021-10-06,株式会社ＡＮＤ　ＦＵＴＵＲＥ,,株式会社,東京都,大田区,中央５丁目１２番８号,,13,111,1430024,,,,,,,2021-10-06,1,,,,,アンドフューチャー,0
1675,5010801032376,新規,0,2021-10-06,2021-10-06,株式会社アイニューム,,株式会社,東京都,大田区,大森北３丁目１５番５－２０１号,,13,111,1430016,,,,,,,2021-10-06,1,,,,,アイニューム,0
1676,5010805002887,新規,0,2021-10-06,2021-10-06,一般社団法人スマートグリッド推進協会,,その他の設立登記法人,東京都,大田区,北千束３丁目２０番８号スターバレーＩＩ３０４号室,00124465,13,111,1450062,,,,,,,2021-10-06,1,,,,,スマートグリッドスイシンキョウカイ,0
1686,5011001143212,新規,0,2021-10-06,2021-10-06,株式会社ｗａｃａｘｉ,,株式会社,東京都,渋谷区,渋谷２丁目１９番１５号宮益坂ビルディング６０９,,13,113,1500002,,,,,,,2021-10-06,1,,,,,ワカシィ,0
1687,5011001143237,新規,0,2021-10-06,2021-10-06,株式会社Ｓｐａｒｅｓ,,株式会社,東京都,渋谷区,恵比寿２丁目２８番１０号,,13,113,1500013,,,,,,,2021-10-06,1,,,,,スペアーズ,0
1688,5011001143245,新規,0,2021-10-06,2021-10-06,株式会社シトラス・インク,,株式会社,東京都,目黒区,碑文谷５丁目２番５号Ｔ＆Ａビル５階,,13,110,1520003,,,,,,,2021-10-06,1,,,,,シトラスインク,0
1695,5011201023296,新規,0,2021-10-06,2021-10-06,株式会社グリーン,,株式会社,東京都,中野区,江原町１丁目５番５号,,13,114,1650023,,,,,,,2021-10-06,1,,,,,グリーン,0
1698,5011401023716,新規,0,2021-10-06,2021-10-06,株式会社ＣＵＣＵＬＩ,,株式会社,東京都,板橋区,向原１丁目１５番４号インハビットハウス,,13,119,1730036,,,,,,,2021-10-06,1,,,,,ククリ,0
1699,5011401023724,新規,0,2021-10-06,2021-10-06,株式会社Ｐｒｏｕｄ　Ｖｅｔｓ　Ｃｏｎｓｕｌｔｉｎｇ,,株式会社,東京都,板橋区,南常盤台１丁目３９番１号,,13,119,1740072,,,,,,,2021-10-06,1,,,,,プラウドベッツコンサルティング,0
1700,5011401023749,新規,0,2021-10-06,2021-10-06,株式会社ＡＩＭ,,株式会社,東京都,板橋区,中台３丁目２７－Ｄ－１４０４,,13,119,1740064,,,,,,,2021-10-06,1,,,,,エイム,0
1704,5011501027360,新規,0,2021-10-06,2021-10-06,株式会社安本設備,,株式会社,東京都,北区,西が丘１丁目３７番８－５０１号,,13,117,1150056,,,,,,,2021-10-06,1,,,,,ヤスモトセツビ,0
1707,5011601025438,新規,0,2021-10-06,2021-10-06,株式会社ＮＴＯＫ,,株式会社,東京都,練馬区,立野町７番５号,,13,120,1770054,,,,,,,2021-10-06,1,,,,,エヌトック,0
1710,5011701024752,新規,0,2021-10-06,2021-10-06,株式会社Ｅｎｄｌｅｓｓ　ｒｉｄｅ,,株式会社,東京都,江戸川区,篠崎町２丁目７番１号イーストハイム篠崎,,13,123,1330061,,,,,,,2021-10-06,1,,,,,,0
1711,5011701024760,新規,0,2021-10-06,2021-10-06,ＪＵＮコーポレーション株式会社,,株式会社,東京都,江戸川区,松江７丁目２３番２３号,,13,123,1320025,,,,,,,2021-10-06,1,,,,,,0
1713,5011801039766,新規,0,2021-10-06,2021-10-06,株式会社ＦＲＮＳ　Ｉｎｔｅｒｎａｔｉｏｎａｌ,,株式会社,東京都,葛飾区,堀切３丁目１番４号４０１,,13,122,1240006,,,,,,,2021-10-06,1,,,,,ファンスインターナショナル,0
1714,5011801039790,新規,0,2021-10-06,2021-10-06,株式会社東輝,,株式会社,東京都,足立区,西新井３丁目２１番１０－３０１号,,13,121,1230841,,,,,,,2021-10-06,1,,,,,トウキ,0
1721,5012401038365,新規,0,2021-10-06,2021-10-06,株式会社オフィスレゾネイト,,株式会社,東京都,調布市,多摩川５丁目３番地１,,13,208,1820025,,,,,,,2021-10-06,1,,,,,,0
1731,5020001143279,新規,0,2021-10-06,2021-10-06,株式会社シャルマンシステムデザイン,,株式会社,神奈川県,横浜市中区,相生町３丁目６１泰生ビル２階,,14,104,2310012,,,,,,,2021-10-06,1,,,,,シャルマンシステムデザイン,0
1732,5020001143295,新規,0,2021-10-06,2021-10-06,株式会社ムセイオン,,株式会社,神奈川県,川崎市多摩区,南生田７丁目９番６号,,14,135,2140036,,,,,,,2021-10-06,1,,,,,ムセイオン,0
1733,5020001143304,新規,0,2021-10-06,2021-10-06,株式会社フューチャーエイダホールディングス,,株式会社,神奈川県,横浜市中区,山吹町一丁目３,,14,104,2310038,,,,,,,2021-10-06,1,,,,,フューチャーエイダホールディングス,0
1734,5020001143337,新規,0,2021-10-06,2021-10-06,高橋設備サービス株式会社,00124458,株式会社,神奈川県,横浜市西区,高島２丁目１９番１２号スカイビル,,14,103,2200011,,,,,,,2021-10-06,1,,,,,タカハシセツビサービス,0
1735,5020001143345,新規,0,2021-10-06,2021-10-06,株式会社Ｌａｙｌａ,,株式会社,神奈川県,川崎市中原区,小杉陣屋町２丁目９－２７－２０１,,14,133,2110062,,,,,,,2021-10-06,1,,,,,レイラ,0
1736,5020001143353,新規,0,2021-10-06,2021-10-06,株式会社Ｆｏｒｅｓｔ　Ｂｏｏｋ,,株式会社,神奈川県,横浜市西区,みなとみらい３丁目７－１,,14,103,2200012,,,,,,,2021-10-06,1,,,,,フォレストブック,0
1737,5020001143361,新規,0,2021-10-06,2021-10-06,株式会社ＬＡＭＰ,,株式会社,神奈川県,横浜市金沢区,西柴４丁目１２番２０号,,14,108,2360017,,,,,,,2021-10-06,1,,,,,ランプ,0
1742,5021001074101,新規,0,2021-10-06,2021-10-06,株式会社ＭＥＴＡＬ　ＩＭＰＡＣＴ,,株式会社,神奈川県,横須賀市,内川２丁目４番４４号,,14,201,2390836,,,,,,,2021-10-06,1,,,,,メタルインパクト,0
1743,5021001074134,新規,0,2021-10-06,2021-10-06,スタートラックズ株式会社,,株式会社,神奈川県,厚木市,金田７４１－１リブレットハウス２－１０２,,14,212,2430807,,,,,,,2021-10-06,1,,,,,スタートラックズ,0
1754,5030001144598,新規,0,2021-10-06,2021-10-06,株式会社ＣＲＥＡＲ　ＦＥＡＴ,,株式会社,埼玉県,草加市,稲荷２丁目１３番１０号,,11,221,3400003,,,,,,,2021-10-06,1,,,,,クレアールフィート,0
1755,5030001144623,新規,0,2021-10-06,2021-10-06,株式会社大誠設備工業,,株式会社,埼玉県,新座市,片山３丁目１４番６号,,11,230,3520025,,,,,,,2021-10-06,1,,,,,タイセイセツビコウギョウ,0
1756,5030001144631,新規,0,2021-10-06,2021-10-06,株式会社油屋,,株式会社,埼玉県,八潮市,大瀬４丁目２５番地１３,,11,234,3400822,,,,,,,2021-10-06,1,,,,,アブラヤ,0
1757,5030001144648,新規,0,2021-10-06,2021-10-06,株式会社ＥＸＰＬＯＲＥＲ,,株式会社,埼玉県,三郷市,三郷２丁目２番地１８,,11,237,3410024,,,,,,,2021-10-06,1,,,,,エクスプローラー,0
1758,5030001144656,新規,0,2021-10-06,2021-10-06,株式会社Ｈ＆Ｊ,,株式会社,埼玉県,川口市,大字安行吉蔵５８番地の３,,11,203,3340053,,,,,,,2021-10-06,1,,,,,エイチアンドジェイ,0
1759,5030001144664,新規,0,2021-10-06,2021-10-06,株式会社ビッグフレンド,,株式会社,埼玉県,熊谷市,原島１３２１番地１０,,11,202,3600811,,,,,,,2021-10-06,1,,,,,ビッグフレンド,0
1760,5030001144689,新規,0,2021-10-06,2021-10-06,株式会社ＥＣＯ・ＵＥ,,株式会社,埼玉県,熊谷市,原島１１２０番地３,,11,202,3600811,,,,,,,2021-10-06,1,,,,,エコウエ,0
1761,5030001144706,新規,0,2021-10-06,2021-10-06,株式会社ＷＥＬＬＢＥＩＮＧ,,株式会社,埼玉県,深谷市,上柴町東４丁目１番地２４,,11,218,3660051,,,,,,,2021-10-06,1,,,,,ウェルビーイング,0
1763,5030003018057,新規,0,2021-10-06,2021-10-06,インディーズラン合同会社,,合同会社,埼玉県,さいたま市大宮区,仲町３丁目３６番地１プラティーヌ大宮８０３号,,11,103,3300845,,,,,,,2021-10-06,1,,,,,インディーズラン,0
1764,5030003018065,新規,0,2021-10-06,2021-10-06,Ｌａｃ　ｅｔ　ｓｏｌｅｉｌ合同会社,,合同会社,埼玉県,草加市,青柳８丁目１６番１６号パークアベニュー２０２号,,11,221,3400002,,,,,,,2021-10-06,1,,,,,ラックエソレイユ,0
1768,5040001120350,新規,0,2021-10-06,2021-10-06,株式会社ダイヤ,,株式会社,千葉県,我孫子市,布佐２２１１番地の５,,12,222,2701101,,,,,,,2021-10-06,1,,,,,ダイヤ,0
1769,5040001120409,新規,0,2021-10-06,2021-10-06,オーキッドビューティー株式会社,,株式会社,千葉県,旭市,井戸野３６６５番地,,12,215,2892531,,,,,,,2021-10-06,1,,,,,オーキッドビューティー,0
1770,5040001120417,新規,0,2021-10-06,2021-10-06,株式会社下山,,株式会社,千葉県,八街市,富山１３１４番地３２２５,,12,230,2891141,,,,,,,2021-10-06,1,,,,,シモヤマ,0
1771,5040001120425,新規,0,2021-10-06,2021-10-06,帝京ビルメンテナンス株式会社,,株式会社,千葉県,船橋市,前原西２丁目３０番７号,,12,204,2740825,,,,,,,2021-10-06,1,,,,,テイキョウビルメンテナンス,0
1772,5040001120433,新規,0,2021-10-06,2021-10-06,株式会社ブリッジ,,株式会社,千葉県,船橋市,丸山２丁目１９番２２号,,12,204,2730048,,,,,,,2021-10-06,1,,,,,ブリッジ,0
1773,5040001120441,新規,0,2021-10-06,2021-10-06,株式会社リコス,,株式会社,千葉県,千葉市緑区,高田町４１６番地２２３,,12,105,2660003,,,,,,,2021-10-06,1,,,,,リコス,0
1774,5040001120458,新規,0,2021-10-06,2021-10-06,株式会社Ｔ・Ｓプランニング,,株式会社,千葉県,習志野市,新栄１丁目１２番２－３０５号,,12,216,2750005,,,,,,,2021-10-06,1,,,,,ティーエスプランニング,0
1775,5040001120466,新規,0,2021-10-06,2021-10-06,株式会社リリア,,株式会社,千葉県,千葉市緑区,おゆみ野南４丁目３３番地１３,,12,105,2660033,,,,,,,2021-10-06,1,,,,,リリア,0
1776,5040001120482,新規,0,2021-10-06,2021-10-06,株式会社ダイシン,,株式会社,千葉県,松戸市,根木内５７３,,12,207,2700011,,,,,,,2021-10-06,1,,,,,ダイシン,0
1777,5040001120490,新規,0,2021-10-06,2021-10-06,株式会社ｎ,,株式会社,千葉県,千葉市緑区,おゆみ野３丁目１３番地９アプロード１０２号,,12,105,2660031,,,,,,,2021-10-06,1,,,,,エヌ,0
1780,5040003018675,新規,0,2021-10-06,2021-10-06,合同会社ＯＺ　Ｊａｐａｎ　Ｔｒａｄｉｎｇ,,合同会社,千葉県,習志野市,実籾６丁目１８番３号,,12,216,2750002,,,,,,,2021-10-06,1,,,,,オズジャパントレーディング,0
1782,5050001049928,新規,0,2021-10-06,2021-10-06,つくばトラベル株式会社,,株式会社,茨城県,つくば市,花畑３丁目１９番地４,,08,220,3003261,,,,,,,2021-10-06,1,,,,,ツクバトラベル,0
1783,5050001049936,新規,0,2021-10-06,2021-10-06,和興産業株式会社,,株式会社,茨城県,龍ケ崎市,藤ケ丘１丁目１６番地６,,08,208,3010855,,,,,,,2021-10-06,1,,,,,ワコウサンギョウ,0
1784,5050001049944,新規,0,2021-10-06,2021-10-06,株式会社ＭＩＣＫ,,株式会社,茨城県,常総市,水海道川又町５２９番地１,,08,211,3030032,,,,,,,2021-10-06,1,,,,,,0
1786,5050003006118,新規,0,2021-10-06,2021-10-06,合同会社ＫＫスタイル,,合同会社,茨城県,つくば市,さくらの森１０番地９ＫＫスタイルＣ,,08,220,3050019,,,,,,,2021-10-06,1,,,,,ケーケースタイル,0
1789,5060001034144,新規,0,2021-10-06,2021-10-06,株式会社田中建材,,株式会社,栃木県,栃木市,惣社町１９６３番地１,,09,203,3280002,,,,,,,2021-10-06,1,,,,,タナカケンザイ,0
1790,5060001034160,新規,0,2021-10-06,2021-10-06,株式会社ｅｘｔｅｎｓｉｏｎＱ,,株式会社,栃木県,宇都宮市,中今泉４丁目１２番１６号ＯＮＯビル１０２,,09,201,3210968,,,,,,,2021-10-06,1,,,,,エクステンションキュー,0
1796,5070001038482,新規,0,2021-10-06,2021-10-06,株式会社すまいる,,株式会社,群馬県,渋川市,有馬１４９－１０ファミーユ１０１号室,,10,208,3770005,,,,,,,2021-10-06,1,,,,,スマイル,0
1811,5090001017229,新規,0,2021-10-06,2021-10-06,株式会社ＡＨＯ‐Ｘ,,株式会社,山梨県,南都留郡富士河口湖町,小立４５６３番地,,19,430,4010302,,,,,,,2021-10-06,1,,,,,アホックス,0
1812,5090003001965,新規,0,2021-10-06,2021-10-06,合同会社ＢＯＵＮＣＥ　ＢＡＣＫ　ＣＯＭＰＡＮＹ,,合同会社,山梨県,甲府市,上今井町２１８０番地２２,,19,201,4000845,,,,,,,2021-10-06,1,,,,,バウンスバックカンパニー,0
1815,5100001034668,新規,0,2021-10-06,2021-10-06,株式会社Ｌｏｔ’ｓ．,,株式会社,長野県,安曇野市,豊科南穂高７８６番地１,,20,220,3998201,,,,,,,2021-10-06,1,,,,,ロッツ,0
1816,5100003006252,新規,0,2021-10-06,2021-10-06,合同会社北アルプス学びと遊びの旅行社,,合同会社,長野県,大町市,大町１５５９番地４,,20,212,3980002,,,,,,,2021-10-06,1,,,,,キタアルプスマナビトアソビノリョコウシャ,0
1817,5110001036085,新規,0,2021-10-06,2021-10-06,株式会社ＡＪ,,株式会社,新潟県,阿賀野市,下里１２９８番地１,,15,223,9592135,,,,,,,2021-10-06,1,,,,,エージェイ,0
1828,5120001240818,新規,0,2021-10-06,2021-10-06,株式会社Ｗ,,株式会社,大阪府,大阪市浪速区,桜川２丁目１２番２６－７０２号,,27,111,5560022,,,,,,,2021-10-06,1,,,,,ダブリュー,0
1829,5120001240826,新規,0,2021-10-06,2021-10-06,古川医療株式会社,,株式会社,大阪府,大阪市淀川区,西中島６丁目３番２４－Ｌ４０５号,,27,123,5320011,,,,,,,2021-10-06,1,,,,,フルカワイリョウ,0
1830,5120001240834,新規,0,2021-10-06,2021-10-06,株式会社松岡塗装店,,株式会社,大阪府,大阪市福島区,鷺洲５丁目１０番８－７０６号,,27,103,5530002,,,,,,,2021-10-06,1,,,,,マツオカトソウテン,0
1831,5120001240842,新規,0,2021-10-06,2021-10-06,株式会社小谷商店,,株式会社,大阪府,大阪市城東区,東中浜１丁目１０番１０号,,27,118,5360023,,,,,,,2021-10-06,1,,,,,コタニショウテン,0
1832,5120001240850,新規,0,2021-10-06,2021-10-06,Ｙａａｌａ株式会社,,株式会社,大阪府,大阪市北区,中之島３丁目６番１６号,,27,127,5300005,,,,,,,2021-10-06,1,,,,,ヤーラ,0
1833,5120001240867,新規,0,2021-10-06,2021-10-06,株式会社ハマリカラボ,,株式会社,大阪府,大阪市天王寺区,生玉前町１番１６号チェリービル３階,,27,109,5430072,,,,,,,2021-10-06,1,,,,,ハマリカラボ,0
1834,5120001240875,新規,0,2021-10-06,2021-10-06,株式会社光伸重機工業,,株式会社,大阪府,大阪市大正区,小林東３丁目１１番１９号,,27,108,5510011,,,,,,,2021-10-06,1,,,,,コウシンジュウキコウギョウ,0
1835,5120001240891,新規,0,2021-10-06,2021-10-06,株式会社ＣＡＮＯＷ,,株式会社,大阪府,大阪市浪速区,難波中３丁目１４番１６号靖安ビル２０３号室,,27,111,5560011,,,,,,,2021-10-06,1,,,,,カナウ,0
1836,5120001240900,新規,0,2021-10-06,2021-10-06,株式会社心菓,,株式会社,大阪府,大阪市西区,新町１丁目２５番１３号,,27,106,5500013,,,,,,,2021-10-06,1,,,,,シンカ,0
1837,5120001240909,新規,0,2021-10-06,2021-10-06,ＣＲＥＭＯ　ＨＯＭＥ’Ｓ株式会社,,株式会社,大阪府,大阪市中央区,谷町９丁目２番１４－４０５号,,27,128,5420012,,,,,,,2021-10-06,1,,,,,クレモホームズ,0
1838,5120001240917,新規,0,2021-10-06,2021-10-06,株式会社オールファイブ,,株式会社,大阪府,枚方市,長尾谷町２丁目３４番８号,,27,210,5730164,,,,,,,2021-10-06,1,,,,,オールファイブ,0
1839,5120001240925,新規,0,2021-10-06,2021-10-06,株式会社エクスマキア,,株式会社,大阪府,大阪市西区,北堀江１丁目１５番７号レガーロ北堀江９０１,,27,106,5500014,,,,,,,2021-10-06,1,,,,,エクスマキア,0
1845,5120101064407,新規,0,2021-10-06,2021-10-06,冨永ボーリング株式会社,,株式会社,大阪府,堺市東区,北野田９７４番地５,,27,143,5998123,,,,,,,2021-10-06,1,,,,,トミナガボーリング,0
1846,5120101064423,新規,0,2021-10-06,2021-10-06,株式会社吉川建具,,株式会社,大阪府,河内長野市,東片添町１５番１０号,,27,216,5860045,,,,,,,2021-10-06,1,,,,,ヨシカワタテグ,0
1847,5120103004377,新規,0,2021-10-06,2021-10-06,合同会社起き上がり小法師,,合同会社,大阪府,岸和田市,上野町西２２番４号,,27,202,5960048,,,,,,,2021-10-06,1,,,,,オキアガリコボシ,0
1851,5120901044987,新規,0,2021-10-06,2021-10-06,株式会社リトロック,,株式会社,大阪府,高槻市,南平台２丁目７番５号,,27,207,5691042,,,,,,,2021-10-06,1,,,,,リトロック,0
1852,5120901044995,新規,0,2021-10-06,2021-10-06,株式会社ＫＢＳ,,株式会社,大阪府,吹田市,朝日町２３番１７号,,27,205,5640027,,,,,,,2021-10-06,1,,,,,ケービーエス,0
1853,5120901045003,新規,0,2021-10-06,2021-10-06,株式会社鮫島クリーンサービス,,株式会社,大阪府,高槻市,大冠町１丁目１４番３９号,,27,207,5690031,,,,,,,2021-10-06,1,,,,,サメジマクリーンサービス,0
1854,5120901045011,新規,0,2021-10-06,2021-10-06,株式会社ＮＥＸＵＳ,,株式会社,大阪府,茨木市,沢良宜浜３丁目７番７号１Ｆ,,27,211,5670864,,,,,,,2021-10-06,1,,,,,ネクサス,0
1858,5122001035231,新規,0,2021-10-06,2021-10-06,株式会社正智,,株式会社,大阪府,八尾市,山本町南１丁目３番１５号,,27,212,5810013,,,,,,,2021-10-06,1,,,,,マサトモ,0
1861,5130001070272,新規,0,2021-10-06,2021-10-06,株式会社ＳＨＯＹＵ,,株式会社,京都府,舞鶴市,字余部上３６７,,26,202,6250083,,,,,,,2021-10-06,1,,,,,ショウユウ,0
1862,5130001070289,新規,0,2021-10-06,2021-10-06,株式会社ＰＦ,,株式会社,京都府,京都市中京区,西ノ京月輪町２０番地ルシエル西ノ京御池４０８号,,26,104,6048444,,,,,,,2021-10-06,1,,,,,ピーエフ,0
1863,5130003007529,新規,0,2021-10-06,2021-10-06,ｖａｎｄａｋａ　ｐｌａｎｔｓ合同会社,,合同会社,京都府,京都市上京区,中立売通七本松東入三軒町４８番地１５,,26,102,6028341,,,,,,,2021-10-06,1,,,,,バンダカプランツ,0
1867,5140001123252,新規,0,2021-10-06,2021-10-06,株式会社二宮工務店,,株式会社,兵庫県,宝塚市,ふじガ丘２７番１４号,,28,214,6650806,,,,,,,2021-10-06,1,,,,,ニノミヤコウムテン,0
1868,5140001123285,新規,0,2021-10-06,2021-10-06,株式会社ＭＣサービス,,株式会社,兵庫県,川西市,加茂６丁目７０番地の６,,28,217,6660025,,,,,,,2021-10-06,1,,,,,エムシーサービス,0
1869,5140001123351,新規,0,2021-10-06,2021-10-06,株式会社三原色,,株式会社,兵庫県,姫路市,玉手３丁目５７１番地１,,28,201,6700985,,,,,,,2021-10-06,1,,,,,サンゲンショク,0
1874,5150001024986,新規,0,2021-10-06,2021-10-06,株式会社米田設備工業所,,株式会社,奈良県,吉野郡大淀町,大字矢走３８３番地の１,,29,442,6380853,,,,,,,2021-10-06,1,,,,,コメダセツビコウギョウショ,0
1875,5160001023681,新規,0,2021-10-06,2021-10-06,近藤住マイル工業株式会社,,株式会社,滋賀県,大津市,北大路２丁目５番２４号,,25,201,5200843,,,,,,,2021-10-06,1,,,,,コンドウスマイルコウギョウ,0
1876,5160001023707,新規,0,2021-10-06,2021-10-06,株式会社絡合,,株式会社,滋賀県,大津市,大物８０４－８２,,25,201,5200512,,,,,,,2021-10-06,1,,,,,ラクゴウ,0
1877,5170001016809,新規,0,2021-10-06,2021-10-06,株式会社ラール,,株式会社,和歌山県,新宮市,下本町２丁目３番地の２,,30,207,6470011,,,,,,,2021-10-06,1,,,,,ラール,0
1879,5170003001643,新規,0,2021-10-06,2021-10-06,合同会社ＳｏＬ,,合同会社,和歌山県,和歌山市,黒田４５番地グランノーブル和歌山駅東４０２,,30,201,6408341,,,,,,,2021-10-06,1,,,,,ソル,0
1888,5180001148089,新規,0,2021-10-06,2021-10-06,株式会社ＡｉＮ,,株式会社,愛知県,名古屋市中区,富士見町５番７－４０３号,,23,106,4600014,,,,,,,2021-10-06,1,,,,,エイアイエヌ,0
1889,5180001148114,新規,0,2021-10-06,2021-10-06,株式会社Ｄｂｅｓｔ,,株式会社,愛知県,名古屋市中川区,高畑２丁目２４０番地,,23,110,4540911,,,,,,,2021-10-06,1,,,,,ディーベスト,0
1890,5180001148130,新規,0,2021-10-06,2021-10-06,株式会社ＢＡＴＯＮ,,株式会社,愛知県,名古屋市千種区,猫洞通４丁目４番地の１アイリス本山１Ｆ,,23,101,4640032,,,,,,,2021-10-06,1,,,,,バトン,0
1891,5180001148155,新規,0,2021-10-06,2021-10-06,株式会社Ｂ．Ｔａｋ　ｃａｍｐａｎｙ,,株式会社,愛知県,江南市,松竹町高山５２番地,,23,217,4838352,,,,,,,2021-10-06,1,,,,,ビィタックカンパニー,0
1892,5180001148188,新規,0,2021-10-06,2021-10-06,デイコックス株式会社,,株式会社,愛知県,名古屋市天白区,向が丘２丁目３０６番地,,23,116,4680012,,,,,,,2021-10-06,1,,,,,デイコックス,0
1900,5180003023042,新規,0,2021-10-06,2021-10-06,ＩＲランド合同会社,,合同会社,愛知県,名古屋市中村区,千成通１丁目８番地の２,,23,105,4530818,,,,,,,2021-10-06,1,,,,,アイアールランド,0
1904,5180301035433,新規,0,2021-10-06,2021-10-06,株式会社ＡＫＫ,,株式会社,愛知県,岡崎市,日名本町１８番地７,,23,202,4440916,,,,,,,2021-10-06,1,,,,,エーケーケー,0
1905,5180303005120,新規,0,2021-10-06,2021-10-06,合同会社アグリ,,合同会社,愛知県,豊田市,若林東町東山４０番地８,,23,211,4730914,,,,,,,2021-10-06,1,,,,,アグリ,0
1908,5190001028736,新規,0,2021-10-06,2021-10-06,株式会社麺剛,,株式会社,三重県,四日市市,楠町本郷１３３２番地２８,,24,202,5100106,,,,,,,2021-10-06,1,,,,,メンゴウ,0
1909,5190001028744,新規,0,2021-10-06,2021-10-06,株式会社ミヤモト工業,,株式会社,三重県,伊勢市,東豊浜町４７０６番地,,24,203,5150502,,,,,,,2021-10-06,1,,,,,ミヤモトコウギョウ,0
1910,5190001028752,新規,0,2021-10-06,2021-10-06,株式会社ＡＳＩＡＮ　ＦＯＯＤ　ＭＡＲＴ,,株式会社,三重県,四日市市,安島１丁目６番８号,,24,202,5100075,,,,,,,2021-10-06,1,,,,,アジアンフードマート,0
1911,5190003003778,新規,0,2021-10-06,2021-10-06,合同会社タテヨコ,,合同会社,三重県,鈴鹿市,住吉町７２６５番地の１８プランドール１階１号室,,24,207,5130825,,,,,,,2021-10-06,1,,,,,タテヨコ,0
1912,5200001039269,新規,0,2021-10-06,2021-10-06,ねこのて株式会社,,株式会社,岐阜県,多治見市,西坂町３丁目２４番地,,21,204,5070051,,,,,,,2021-10-06,1,,,,,ネコノテ,0
1914,5200003005335,新規,0,2021-10-06,2021-10-06,飯田合同会社,,合同会社,岐阜県,羽島郡笠松町,門間１５９３,,21,303,5016065,,,,,,,2021-10-06,1,,,,,イイダ,0
1916,5210001018627,新規,0,2021-10-06,2021-10-06,サイカワ電機株式会社,,株式会社,福井県,福井市,下六条町第９号２０番地,,18,201,9188135,,,,,,,2021-10-06,1,,,,,サイカワデンキ,0
1918,5220001024426,新規,0,2021-10-06,2021-10-06,株式会社ノトツグ,,株式会社,石川県,七尾市,鍛治町２８番地,,17,202,9260000,,,,,,,2021-10-06,1,,,,,ノトツグ,0
1923,5230001019012,新規,0,2021-10-06,2021-10-06,株式会社Ｃｙｔｏｎａ,,株式会社,富山県,富山市,文京町２丁目５番地１４,,16,201,9300876,,,,,,,2021-10-06,1,,,,,サイトナ,0
1926,5240001058736,新規,0,2021-10-06,2021-10-06,株式会社リフィックス,,株式会社,広島県,広島市中区,国泰寺町２丁目２番２５－９０１号,,34,101,7300042,,,,,,,2021-10-06,1,,,,,リフィックス,0
1927,5240003005307,新規,0,2021-10-06,2021-10-06,合同会社ただや,,合同会社,広島県,尾道市,高須町１３３９番地５４,,34,205,7290141,,,,,,,2021-10-06,1,,,,,タダヤ,0
1930,5250001019167,新規,0,2021-10-06,2021-10-06,株式会社永富,,株式会社,山口県,下関市,横野町１丁目１番１９号,,35,201,7596604,,,,,,,2021-10-06,1,,,,,ナガトミ,0
1931,5250001019175,新規,0,2021-10-06,2021-10-06,株式会社Ｓ＆グリーン,,株式会社,山口県,宇部市,大字矢矯４３９番地,,35,202,7570217,,,,,,,2021-10-06,1,,,,,エスアンドグリーン,0
1932,5250003002914,新規,0,2021-10-06,2021-10-06,キノイ合同会社,,合同会社,山口県,柳井市,余田１４０７番地,,35,212,7420034,,,,,,,2021-10-06,1,,,,,キノイ,0
1939,5270001008366,新規,0,2021-10-06,2021-10-06,株式会社上口工業,,株式会社,鳥取県,倉吉市,上米積４６５番地,,31,203,6820602,,,,,,,2021-10-06,1,,,,,カミグチコウギョウ,0
1947,5290001094900,新規,0,2021-10-06,2021-10-06,株式会社エフゴルフデザイン,,株式会社,福岡県,大野城市,紫台２１番２４号,,40,219,8160954,,,,,,,2021-10-06,1,,,,,エフゴルフデザイン,0
1950,5290005018384,新規,0,2021-10-06,2021-10-06,社会保険労務士法人クローバー福岡,,その他の設立登記法人,福岡県,糟屋郡志免町,桜丘４丁目２１番７号,,40,343,8112201,,,,,,,2021-10-06,1,,,,,クローバーフクオカ,0
1953,5290801027860,新規,0,2021-10-06,2021-10-06,ＩＣＳ株式会社,,株式会社,福岡県,北九州市八幡西区,北筑２丁目５番２８号,,40,109,8070857,,,,,,,2021-10-06,1,,,,,アイシーエス,0
1958,5300003001729,新規,0,2021-10-06,2021-10-06,合同会社井川酒店,,合同会社,佐賀県,鳥栖市,大正町７５１番地２,,41,203,8410032,,,,,,,2021-10-06,1,,,,,イガワサケテン,0
1961,5330001029042,新規,0,2021-10-06,2021-10-06,株式会社ｆｕｌｌ　ｏｆ　ｌｉｆｅ,,株式会社,熊本県,熊本市南区,薄場３丁目２番１２号,,43,104,8614131,,,,,,,2021-10-06,1,,,,,フルオブライフ,0
1962,5340001024158,新規,0,2021-10-06,2021-10-06,株式会社Ｕｍｅｚａｗａ,,株式会社,鹿児島県,志布志市,志布志町田之浦３００番地３,,46,221,8997212,,,,,,,2021-10-06,1,,,,,ウメザワ,0
1974,5360005006530,新規,0,2021-10-06,2021-10-06,医療法人マゴコロ,,その他の設立登記法人,沖縄県,島尻郡南風原町,字津嘉山１３３９番地１,,47,350,9011117,,,,,,,2021-10-06,1,,,,,マゴコロ,0
1976,5370001047651,新規,0,2021-10-06,2021-10-06,株式会社エスティエス不動産,,株式会社,宮城県,柴田郡大河原町,字幸町５番地１５－Ａ,,04,321,9891216,,,,,,,2021-10-06,1,,,,,エスティエスフドウサン,0
1977,5370005010366,新規,0,2021-10-06,2021-10-06,一般社団法人四條司家・真言宗護国派奉賛会,,その他の設立登記法人,宮城県,仙台市太白区,萩ケ丘２８番９号,,04,104,9820848,,,,,,,2021-10-06,1,,,,,シジョウツカサケシンゴンシュウゴコクハホウサンカイ,0
1982,5390001016621,新規,0,2021-10-06,2021-10-06,シャルム株式会社,,株式会社,山形県,山形市,春日町１２番１９号,,06,201,9900833,,,,,,,2021-10-06,1,,,,,シャルム,0
1983,5390003001877,新規,0,2021-10-06,2021-10-06,ミューク合同会社,,合同会社,山形県,酒田市,緑ケ丘２丁目２番地の１７,,06,204,9980052,,,,,,,2021-10-06,1,,,,,ミューク,0
1990,5420001017608,新規,0,2021-10-06,2021-10-06,株式会社ＣＩ,,株式会社,青森県,五所川原市,大字広田字榊森５４番地６４,00124455,02,205,0370023,,,,,,,2021-10-06,1,,,,,シーアイ,0
1991,5420001017616,新規,0,2021-10-06,2021-10-06,株式会社ＢＬＩＮＤ,,株式会社,青森県,青森市,浪岡浪岡林本１４５－２７,,02,201,0380000,,,,,,,2021-10-06,1,,,,,ブラインド,0
1992,5420003002392,新規,0,2021-10-06,2021-10-06,合同会社鈴木無線電気工業所,,合同会社,青森県,八戸市,新湊１丁目１１番１１号,,02,203,0310811,,,,,,,2021-10-06,1,,,,,スズキムセンデンキコウギョウショ,0
1995,5430001085083,新規,0,2021-10-06,2021-10-06,株式会社コンセリティ,,株式会社,北海道,北広島市,大曲光３丁目１番地１６,,01,234,0611277,,,,,,,2021-10-06,1,,,,,コンセリティ,0
1997,5430003013216,新規,0,2021-10-06,2021-10-06,合同会社くまのしっぽ,,合同会社,北海道,札幌市西区,発寒五条３丁目３番１号,,01,107,0630825,,,,,,,2021-10-06,1,,,,,クマノシッポ,0
1998,5440003001418,新規,0,2021-10-06,2021-10-06,合同会社エムケープランニング,,合同会社,北海道,函館市,亀田町４番１０号,,01,202,0400072,,,,,,,2021-10-06,1,,,,,エムケープランニング,0
1999,5450001013496,新規,0,2021-10-06,2021-10-06,ＡＷアグリトラスト株式会社,,株式会社,北海道,旭川市,永山北一条１０丁目１３番５号,,01,204,0798451,,,,,,,2021-10-06,1,,,,,エイダブリュウアグリトラスト,0
2000,5450003002142,新規,0,2021-10-06,2021-10-06,合同会社銀座フラワー,,合同会社,北海道,旭川市,三条通１４丁目１２７９番地９,,01,204,0700033,,,,,,,2021-10-06,1,,,,,ギンザフラワー,0
2004,5460101007067,新規,0,2021-10-06,2021-10-06,北匠電業株式会社,,株式会社,北海道,帯広市,西十条南３９丁目５番１４号,,01,207,0800020,,,,,,,2021-10-06,1,,,,,ホクショウデンギョウ,0
2005,5470005006387,新規,0,2021-10-06,2021-10-06,一般社団法人めぐみ鍼灸院,,その他の設立登記法人,香川県,高松市,春日町３７７番地１６,,37,201,7610101,,,,,,,2021-10-06,1,,,,,メグミシンキュウイン,0
2011,5500001023721,新規,0,2021-10-06,2021-10-06,株式会社魚崎水産,00124463,株式会社,愛媛県,宇和島市,津島町北灘乙１９９２番地２,,38,203,7983362,,,,,,,2021-10-06,1,,,,,ウオサキスイサン,0
2014,5700150105085,新規,0,2021-10-06,2021-10-06,日本自動車部品工業企業年金基金,,その他,東京都,港区,高輪１丁目１６－１５,,13,103,1080074,,,,,,,2021-10-06,1,,,,,ニホンジドウシヤブヒンコウギヨウキギヨウネンキンキキン,0
2027,6010001221480,新規,0,2021-10-06,2021-10-06,株式会社Ｚｏｎ,,株式会社,東京都,中央区,銀座１丁目１６－７銀座大栄ビル,,13,102,1040061,,,,,,,2021-10-06,1,,,,,ゾン,0
2028,6010001221522,新規,0,2021-10-06,2021-10-06,吉田ホールディングス株式会社,,株式会社,東京都,文京区,根津２丁目３４番１８号,,13,105,1130031,,,,,,,2021-10-06,1,,,,,ヨシダホールディングス,0
2029,6010001221547,新規,0,2021-10-06,2021-10-06,株式会社ＯｎｅＢＩＴ,,株式会社,東京都,中央区,銀座１丁目２２番１１号銀座大竹ビジデンス２階,,13,102,1040061,,,,,,,2021-10-06,1,,,,,ワンビット,0
2030,6010001221555,新規,0,2021-10-06,2021-10-06,株式会社ｈｅｘａｇｏｎｅ,,株式会社,東京都,千代田区,外神田１丁目９番９号内田ビル５階,,13,101,1010021,,,,,,,2021-10-06,1,,,,,エグザゴーヌ,0
2031,6010001221605,新規,0,2021-10-06,2021-10-06,ＪＯＭＹＡＫＵ株式会社,,株式会社,東京都,千代田区,四番町６番,,13,101,1020081,,,,,,,2021-10-06,1,,,,,ジョウミャク,0
2032,6010001221613,新規,0,2021-10-06,2021-10-06,センインテクノロジーズ株式会社,,株式会社,東京都,中央区,日本橋本町３丁目１１番５号,,13,102,1030023,,,,,,,2021-10-06,1,,,,,センインテクノロジーズ,0
2033,6010003035953,新規,0,2021-10-06,2021-10-06,ＡＩラビット合同会社,,合同会社,東京都,中央区,銀座１丁目２２番１１号銀座大竹ビジデンス２Ｆ,,13,102,1040061,,,,,,,2021-10-06,1,,,,,エーアイラビット,0
2034,6010003035961,新規,0,2021-10-06,2021-10-06,合同会社ＨＫＳ,,合同会社,東京都,中央区,銀座１丁目２２番１１号銀座大竹ビジデンス２階,,13,102,1040061,,,,,,,2021-10-06,1,,,,,エイチケーエス,0
2052,6010401162977,新規,0,2021-10-06,2021-10-06,株式会社Ｙｕｍｍｙ,,株式会社,東京都,港区,南青山２丁目２－１５ＷＩＮ青山５３１,,13,103,1070062,,,,,,,2021-10-06,1,,,,,ヤミー,0
2053,6010401162993,新規,0,2021-10-06,2021-10-06,株式会社ＷＡＶＥ　ＣＲＥＡＴＩＶＥ,,株式会社,東京都,港区,六本木７丁目１１番１８号サンフラット六本木３０１,,13,103,1060032,,,,,,,2021-10-06,1,,,,,ウェイブクリエィティブ,0
2054,6010401163001,新規,0,2021-10-06,2021-10-06,株式会社ケイスリーメディカル,,株式会社,東京都,港区,虎ノ門４丁目３番１号城山トラストタワー２７Ｆ,,13,103,1050001,,,,,,,2021-10-06,1,,,,,ケイスリーメディカル,0
2055,6010401163059,新規,0,2021-10-06,2021-10-06,株式会社エムエイト,,株式会社,東京都,港区,高輪３丁目７番８号高輪クリニックビル４階,,13,103,1080074,,,,,,,2021-10-06,1,,,,,エムエイト,0
2056,6010403026222,新規,0,2021-10-06,2021-10-06,ロコゴマ．合同会社,,合同会社,東京都,港区,南青山２丁目２番１５号,,13,103,1070062,,,,,,,2021-10-06,1,,,,,ロコゴマ,0
2057,6010403026247,新規,0,2021-10-06,2021-10-06,ＫＬＯコンサルティング合同会社,,合同会社,東京都,港区,虎ノ門３丁目６番２号第２秋山ビル５階,,13,103,1050001,,,,,,,2021-10-06,1,,,,,ケイエルオーコンサルティング,0
2063,6010503006405,新規,0,2021-10-06,2021-10-06,ＳＡＰＭｏｖｅｒ合同会社,,合同会社,東京都,台東区,浅草橋２丁目２７－１０,,13,106,1110053,,,,,,,2021-10-06,1,,,,,エスエーピーイコウ,0
2070,6010801032367,新規,0,2021-10-06,2021-10-06,株式会社ＭＨ．Ｄｅｓｉｇｎ,,株式会社,東京都,大田区,池上２丁目５番１６－４０２号,,13,111,1460082,,,,,,,2021-10-06,1,,,,,エムエイチデザイン,0
2071,6010801032375,新規,0,2021-10-06,2021-10-06,株式会社ライズ,,株式会社,東京都,大田区,東矢口３丁目２２番１１－５０２号,,13,111,1460094,,,,,,,2021-10-06,1,,,,,ライズ,0
2072,6010805002886,新規,0,2021-10-06,2021-10-06,一般社団法人疫学予防推進協会,,その他の設立登記法人,東京都,大田区,北千束２丁目２６番９号ヴァンテ北千束１０１,,13,111,1450062,,,,,,,2021-10-06,1,,,,,エキガクヨボウスイシンキョウカイ,0
2080,6010903006847,新規,0,2021-10-06,2021-10-06,超満室コンサルティング合同会社,,合同会社,東京都,世田谷区,宮坂２丁目２６番２４号,,13,112,1560051,,,,,,,2021-10-06,1,,,,,チョウマンシツコンサルティング,0
2081,6010903006855,新規,0,2021-10-06,2021-10-06,ＧｏＣｈｅｃｋＩｎ合同会社,,合同会社,東京都,世田谷区,北沢３丁目３４番１０号,,13,112,1550031,,,,,,,2021-10-06,1,,,,,ゴーチェックイン,0
2087,6011001143120,新規,0,2021-10-06,2021-10-06,日本益麻産業株式会社,,株式会社,東京都,渋谷区,神山町１２番８号,,13,113,1500047,,,,,,,2021-10-06,1,,,,,ニホンエキマサンギョウ,0
2088,6011001143145,新規,0,2021-10-06,2021-10-06,株式会社ささの,,株式会社,東京都,渋谷区,神宮前３丁目７番４号,,13,113,1500001,,,,,,,2021-10-06,1,,,,,ササノ,0
2089,6011001143252,新規,0,2021-10-06,2021-10-06,株式会社ＡＳ　ｇｒｏｕｐ,,株式会社,東京都,渋谷区,東３丁目２５番７号レスポアールビル３階,,13,113,1500011,,,,,,,2021-10-06,1,,,,,アスグループ,0
2091,6011003013503,新規,0,2021-10-06,2021-10-06,Ｃｏｓｍｅ　Ｔｏｋｙｏ合同会社,,合同会社,東京都,目黒区,駒場４丁目６番６号,,13,110,1530041,,,,,,,2021-10-06,1,,,,,コスメトウキョウ,0
2094,6011101096474,新規,0,2021-10-06,2021-10-06,株式会社アンブレラ,,株式会社,東京都,新宿区,西新宿６丁目１８番１ラトゥール新宿アネックス６１７号,,13,104,1600023,,,,,,,2021-10-06,1,,,,,アンブレラ,0
2095,6011101096499,新規,0,2021-10-06,2021-10-06,株式会社Ｍ＆Ｍ,,株式会社,東京都,新宿区,歌舞伎町２丁目９番１０号Ｇ２ビル３階,,13,104,1600021,,,,,,,2021-10-06,1,,,,,エムアンドエム,0
2102,6011403003459,新規,0,2021-10-06,2021-10-06,合同会社ＡＴＡＲＡＹＯ,,合同会社,東京都,板橋区,大和町３１番９号,,13,119,1730012,,,,,,,2021-10-06,1,,,,,アタラヨ,0
2104,6011601025429,新規,0,2021-10-06,2021-10-06,株式会社ＴＳＴ,,株式会社,東京都,練馬区,南大泉３丁目１４番３０号,,13,120,1780064,,,,,,,2021-10-06,1,,,,,ティーエスティー,0
2105,6011601025437,新規,0,2021-10-06,2021-10-06,株式会社Ｌｕｍｉ,,株式会社,東京都,練馬区,桜台１丁目２１番１１号,,13,120,1760002,,,,,,,2021-10-06,1,,,,,ルミ,0
2107,6011703002961,新規,0,2021-10-06,2021-10-06,合同会社ワイエムリーブス,,合同会社,東京都,江戸川区,平井６丁目３３番１８号第５京浜ハウス１０５,,13,123,1320035,,,,,,,2021-10-06,1,,,,,ワイエムリーブス,0
2110,6011803004817,新規,0,2021-10-06,2021-10-06,Ｑちゃん商事合同会社,,合同会社,東京都,足立区,扇１丁目１１番３号,,13,121,1230873,,,,,,,2021-10-06,1,,,,,キューチャンショウジ,0
2111,6012401038372,新規,0,2021-10-06,2021-10-06,テクノライフ株式会社,,株式会社,東京都,武蔵野市,吉祥寺南町１丁目１０－８－２０１,,13,203,1800003,,,,,,,2021-10-06,1,,,,,テクノライフ,0
2113,6012701016706,新規,0,2021-10-06,2021-10-06,株式会社水野設備,,株式会社,東京都,小平市,大沼町４丁目３６番１７号１０２,,13,211,1870001,,,,,,,2021-10-06,1,,,,,ミズノセツビ,0
2114,6012801021135,新規,0,2021-10-06,2021-10-06,りほーむの友株式会社,,株式会社,東京都,日野市,三沢１丁目２０番地の１４,,13,212,1910032,,,,,,,2021-10-06,1,,,,,リホームノトモ,0
2116,6020001143294,新規,0,2021-10-06,2021-10-06,株式会社ＹＤＳ,,株式会社,神奈川県,横浜市栄区,鍛冶ケ谷２丁目３５番１－２０１号,,14,115,2470009,,,,,,,2021-10-06,1,,,,,ワイディーエス,0
2117,6020001143303,新規,0,2021-10-06,2021-10-06,株式会社ＫＨＭ,,株式会社,神奈川県,川崎市宮前区,馬絹１丁目７番９号,,14,136,2160035,,,,,,,2021-10-06,1,,,,,ケイエイチエム,0
2118,6020001143311,新規,0,2021-10-06,2021-10-06,松本地財株式会社,,株式会社,神奈川県,横浜市青葉区,みすずが丘１２番地１３,,14,117,2250016,,,,,,,2021-10-06,1,,,,,マツモトチザイ,0
2119,6020001143344,新規,0,2021-10-06,2021-10-06,株式会社ハヤシサポート,,株式会社,神奈川県,横浜市西区,平沼１丁目７－１０横浜ＹＳＫビル,,14,103,2200023,,,,,,,2021-10-06,1,,,,,ハヤシサポート,0
2120,6020001143352,新規,0,2021-10-06,2021-10-06,ヴァンプキン株式会社,,株式会社,神奈川県,横浜市西区,北幸１丁目１１番１号水信ビル７階,,14,103,2200004,,,,,,,2021-10-06,1,,,,,ヴァンプキン,0
2121,6020001143360,新規,0,2021-10-06,2021-10-06,株式会社ティコム,,株式会社,神奈川県,横浜市西区,北幸１丁目１１番１号水信ビル７階,,14,103,2200004,,,,,,,2021-10-06,1,,,,,ティコム,0
2128,6021001074100,新規,0,2021-10-06,2021-10-06,株式会社グランユーズ,,株式会社,神奈川県,横須賀市,追浜町２丁目１５番地,,14,201,2370064,,,,,,,2021-10-06,1,,,,,グランユーズ,0
2129,6021001074109,新規,0,2021-10-06,2021-10-06,よのみ技建株式会社,,株式会社,神奈川県,平塚市,広川９３番地の３,,14,203,2591219,,,,,,,2021-10-06,1,,,,,ヨノミギケン,0
2133,6021003010961,新規,0,2021-10-06,2021-10-06,合同会社ＳｕｎＭ工房,,合同会社,神奈川県,相模原市南区,磯部１７７５番地１,,14,153,2520327,,,,,,,2021-10-06,1,,,,,サンエムコウボウ,0
2138,6030001144564,新規,0,2021-10-06,2021-10-06,株式会社ＢＰプラス,,株式会社,埼玉県,八潮市,大字八條５１８番地１,,11,234,3400801,,,,,,,2021-10-06,1,,,,,ベストパートナープラス,0
2139,6030001144597,新規,0,2021-10-06,2021-10-06,株式会社ＡＶＡＮＣＥ,,株式会社,埼玉県,草加市,氷川町２１０２番地１横山ビル１階,,11,221,3400034,,,,,,,2021-10-06,1,,,,,アバンス,0
2140,6030001144622,新規,0,2021-10-06,2021-10-06,ＨＯＮＢＩＫＥ　Ｒ＆Ｄ　ＪＡＰＡＮ株式会社,,株式会社,埼玉県,川越市,大字牛子６３０番地６３,,11,201,3500017,,,,,,,2021-10-06,1,,,,,ホンバイクアールアンドディージャパン,0
2141,6030001144630,新規,0,2021-10-06,2021-10-06,株式会社まんなか屋,,株式会社,埼玉県,草加市,住吉１丁目５番６号,,11,221,3400014,,,,,,,2021-10-06,1,,,,,マンナカヤ,0
2142,6030001144639,新規,0,2021-10-06,2021-10-06,株式会社おぎ自動車,,株式会社,埼玉県,草加市,長栄４丁目５番地３７,,11,221,3400051,,,,,,,2021-10-06,1,,,,,オギジドウシャ,0
2143,6030001144647,新規,0,2021-10-06,2021-10-06,株式会社ＳＨＩＮ,,株式会社,埼玉県,所沢市,東住吉１１番１－２７０６号,,11,208,3591124,,,,,,,2021-10-06,1,,,,,シン,0
2144,6030001144655,新規,0,2021-10-06,2021-10-06,株式会社クラフト,,株式会社,埼玉県,鴻巣市,新宿１丁目１１３番地１６,,11,217,3690111,,,,,,,2021-10-06,1,,,,,クラフト,0
2145,6030001144671,新規,0,2021-10-06,2021-10-06,株式会社ミライズ,,株式会社,埼玉県,本庄市,駅南２丁目２３番２７号,,11,211,3670041,,,,,,,2021-10-06,1,,,,,ミライズ,0
2146,6030001144688,新規,0,2021-10-06,2021-10-06,タクミテックサーベイ株式会社,,株式会社,埼玉県,朝霞市,岡３丁目８番１０号,,11,227,3510007,,,,,,,2021-10-06,1,,,,,タクミテックサーベイ,0
2147,6030001144696,新規,0,2021-10-06,2021-10-06,株式会社岡安製作所,,株式会社,埼玉県,羽生市,大字弥勒８００番地５,,11,216,3480004,,,,,,,2021-10-06,1,,,,,オカヤスセイサクショ,0
2148,6030001144705,新規,0,2021-10-06,2021-10-06,株式会社ワークヘルスプラン,,株式会社,埼玉県,北葛飾郡松伏町,ゆめみ野東３丁目１０番地１８,,11,465,3430114,,,,,,,2021-10-06,1,,,,,ワークヘルスプラン,0
2149,6030001144721,新規,0,2021-10-06,2021-10-06,生田目工業株式会社,,株式会社,埼玉県,蓮田市,西新宿４丁目８３番地１,,11,238,3490141,,,,,,,2021-10-06,1,,,,,ナマタメコウギョウ,0
2158,6040001120408,新規,0,2021-10-06,2021-10-06,株式会社す美将本店,,株式会社,千葉県,市原市,姉崎東１丁目８番地５,,12,219,2990110,,,,,,,2021-10-06,1,,,,,スミショウホンテン,0
2159,6040001120424,新規,0,2021-10-06,2021-10-06,ＴＭＫＣ株式会社,,株式会社,千葉県,習志野市,津田沼４丁目８番９号,,12,216,2750016,,,,,,,2021-10-06,1,,,,,ティーエムケーシー,0
2160,6040001120432,新規,0,2021-10-06,2021-10-06,株式会社ＦＡＮＴＡＳＩＳＴＡ,,株式会社,千葉県,松戸市,新松戸３丁目１２５番地クレスト新松戸１Ｆ,,12,207,2700034,,,,,,,2021-10-06,1,,,,,ファンタジスタ,0
2161,6040001120440,新規,0,2021-10-06,2021-10-06,アイコニックビート株式会社,,株式会社,千葉県,柏市,若柴１７８番地４柏の葉キャンパス１４８街区１パークシティ柏の葉キャンパスザ・ゲートタワーウェスト３階,,12,217,2770871,,,,,,,2021-10-06,1,,,,,アイコニックビート,0
2162,6040001120449,新規,0,2021-10-06,2021-10-06,株式会社ラビラボ,,株式会社,千葉県,松戸市,新松戸３丁目２５９番地の２－１Ｆ,,12,207,2700034,,,,,,,2021-10-06,1,,,,,ラビラボ,0
2163,6040001120473,新規,0,2021-10-06,2021-10-06,株式会社Ｒｅｌａｔｉｏｎａｌ,,株式会社,千葉県,柏市,若柴１７８番地４,,12,217,2770871,,,,,,,2021-10-06,1,,,,,リレーショナル,0
2166,6040003018641,新規,0,2021-10-06,2021-10-06,Ａｂｒｉｓｓ合同会社,,合同会社,千葉県,市川市,田尻２丁目１１番２１号クレイノリバティアークレイワ１０３号,,12,203,2720014,,,,,,,2021-10-06,1,,,,,アブリス,0
2167,6040003018674,新規,0,2021-10-06,2021-10-06,合同会社ＳＨＵ－ＣＯＭＰＡＮＹ,,合同会社,千葉県,千葉市中央区,生実町２２６３番地,,12,101,2600813,,,,,,,2021-10-06,1,,,,,シューカンパニー,0
2168,6040003018682,新規,0,2021-10-06,2021-10-06,ティヨニ合同会社,,合同会社,千葉県,白井市,根６７－２６フラワーマンション２０４号,,12,232,2701431,,,,,,,2021-10-06,1,,,,,ティヨニ,0
2169,6040003018690,新規,0,2021-10-06,2021-10-06,合同会社アトリエロバ次郎,,合同会社,千葉県,市川市,香取１丁目１２番１２号,,12,203,2720141,,,,,,,2021-10-06,1,,,,,アトリエロバジロウ,0
2173,6050001049919,新規,0,2021-10-06,2021-10-06,株式会社リノベーション,,株式会社,茨城県,筑西市,笹塚５０９番地２,,08,227,3080065,,,,,,,2021-10-06,1,,,,,リノベーション,0
2174,6050001049927,新規,0,2021-10-06,2021-10-06,株式会社ビズウェザー,,株式会社,茨城県,守谷市,ひがし野１丁目２１番地１８,,08,224,3020131,,,,,,,2021-10-06,1,,,,,ビズウェザー,0
2175,6050001049935,新規,0,2021-10-06,2021-10-06,株式会社コイズミ建設,,株式会社,茨城県,那珂市,南酒出７０５番地１,,08,226,3110132,,,,,,,2021-10-06,1,,,,,コイズミケンセツ,0
2176,6050001049943,新規,0,2021-10-06,2021-10-06,株式会社ファースト・イニシアチブ,,株式会社,茨城県,笠間市,八雲２丁目５番３８号,,08,216,3091736,,,,,,,2021-10-06,1,,,,,ファーストイニシアチブ,0
2177,6050003006117,新規,0,2021-10-06,2021-10-06,フルエイジＡ合同会社,,合同会社,茨城県,水戸市,鯉淵町１６６６番地６,,08,201,3190323,,,,,,,2021-10-06,1,,,,,フルエイジエー,0
2182,6060001034143,新規,0,2021-10-06,2021-10-06,株式会社ｄｅｃｏｒａ－ｍｏｋｏ,,株式会社,栃木県,鹿沼市,富岡１番地２０,,09,205,3220006,,,,,,,2021-10-06,1,,,,,デコラモコ,0
2189,6080001024489,新規,0,2021-10-06,2021-10-06,株式会社山村工業,,株式会社,静岡県,藤枝市,高柳２丁目９番７－１号リヴィエール・ゲンソウＡ棟２号室,,22,214,4260041,,,,,,,2021-10-06,1,,,,,ヤマムラコウギョウ,0
2190,6080401025376,新規,0,2021-10-06,2021-10-06,株式会社浜松ベース,,株式会社,静岡県,浜松市北区,根洗町１４９０番地の６,,22,135,4338108,,,,,,,2021-10-06,1,,,,,ハママツベース,0
2191,6090001017228,新規,0,2021-10-06,2021-10-06,ＡＸＩＥ株式会社,,株式会社,山梨県,富士吉田市,新西原４丁目１番８号,,19,202,4030017,,,,,,,2021-10-06,1,,,,,アクシー,0
2197,6100001034675,新規,0,2021-10-06,2021-10-06,巴商事株式会社,,株式会社,長野県,上田市,真田町傍陽８４０番地５,,20,203,3862203,,,,,,,2021-10-06,1,,,,,トモエショウジ,0
2198,6100001034691,新規,0,2021-10-06,2021-10-06,株式会社中町氷菓店,,株式会社,長野県,安曇野市,穂高有明２９２４番地２,,20,220,3998301,,,,,,,2021-10-06,1,,,,,ナカマチヒョウカテン,0
2200,6100003006251,新規,0,2021-10-06,2021-10-06,合同会社軽井沢チャイハネ,,合同会社,長野県,北佐久郡軽井沢町,大字長倉１７０８番地１５,,20,321,3890111,,,,,,,2021-10-06,1,,,,,カルイザワチャイハネ,0
2203,6110001036076,新規,0,2021-10-06,2021-10-06,株式会社味処まつや,,株式会社,新潟県,長岡市,下々条２丁目７番地２,,15,202,9400012,,,,,,,2021-10-06,1,,,,,アジドコロマツヤ,0
2215,6120001240833,新規,0,2021-10-06,2021-10-06,株式会社ＯＮＯＤＥ,,株式会社,大阪府,大阪市東成区,大今里南２丁目１３番３８－６０２号,,27,115,5370013,,,,,,,2021-10-06,1,,,,,ノード,0
2216,6120001240858,新規,0,2021-10-06,2021-10-06,株式会社オージンテック,,株式会社,大阪府,守口市,南寺方東通３丁目１番２５号,,27,209,5700043,,,,,,,2021-10-06,1,,,,,オージンテック,0
2217,6120001240874,新規,0,2021-10-06,2021-10-06,株式会社ＴｗｉｎｋｌｅＦｏｒｃｅ,,株式会社,大阪府,大阪市鶴見区,鶴見１丁目６番６－１６号,,27,124,5380053,,,,,,,2021-10-06,1,,,,,トゥインクルフォース,0
2218,6120001240882,新規,0,2021-10-06,2021-10-06,株式会社大阪燦々,,株式会社,大阪府,大阪市北区,天満３丁目１番５号南天満ビル４０４号,,27,127,5300043,,,,,,,2021-10-06,1,,,,,オオサカサンサン,0
2219,6120001240940,新規,0,2021-10-06,2021-10-06,佐日通国際株式会社,,株式会社,大阪府,大阪市中央区,内本町１丁目４番３－６０３号,,27,128,5400026,,,,,,,2021-10-06,1,,,,,サニッツウコクサイ,0
2220,6120001240949,新規,0,2021-10-06,2021-10-06,株式会社ｖａｃａｎｃｅｓ,,株式会社,大阪府,大阪市中央区,南船場２丁目７番６－１４０２号,,27,128,5420081,,,,,,,2021-10-06,1,,,,,バカンス,0
2221,6120001240998,新規,0,2021-10-06,2021-10-06,株式会社テイショウビジョン,,株式会社,大阪府,大阪市西成区,岸里２丁目３番３３－６０２号,,27,122,5570041,,,,,,,2021-10-06,1,,,,,テイショウビジョン,0
2222,6120003020341,新規,0,2021-10-06,2021-10-06,合同会社アジア労務研究所,,合同会社,大阪府,大阪市天王寺区,夕陽丘町４－２天王寺オフィス２３,,27,109,5430075,,,,,,,2021-10-06,1,,,,,アジアロウムケンキュウショ,0
2223,6120003020366,新規,0,2021-10-06,2021-10-06,合同会社ラック,,合同会社,大阪府,大阪市生野区,林寺３丁目８番９号,,27,116,5440023,,,,,,,2021-10-06,1,,,,,ラック,0
2224,6120005022534,新規,0,2021-10-06,2021-10-06,社会保険労務士法人ネオプランニング,,その他の設立登記法人,大阪府,大阪市西区,北堀江１丁目５番２号四ツ橋新興産ビル,,27,106,5500014,,,,,,,2021-10-06,1,,,,,ネオプランニング,0
2228,6120101064430,新規,0,2021-10-06,2021-10-06,株式会社スリーライズ,,株式会社,大阪府,堺市中区,深井沢町３２８３番地釜阪第２ビル２０３号,,27,142,5998236,,,,,,,2021-10-06,1,,,,,スリーライズ,0
2231,6120901044986,新規,0,2021-10-06,2021-10-06,アインスサポート株式会社,,株式会社,大阪府,吹田市,江坂町１丁目２３番４３－９０２号,,27,205,5640063,,,,,,,2021-10-06,1,,,,,アインスサポート,0
2232,6120901044994,新規,0,2021-10-06,2021-10-06,株式会社夕勝企画,,株式会社,大阪府,茨木市,山手台６丁目２１番１２号,,27,211,5670009,,,,,,,2021-10-06,1,,,,,ユウショウキカク,0
2233,6120901045002,新規,0,2021-10-06,2021-10-06,株式会社ミライアン,,株式会社,大阪府,吹田市,豊津町９番１５号,,27,205,5640051,,,,,,,2021-10-06,1,,,,,ミライアン,0
2234,6120901045010,新規,0,2021-10-06,2021-10-06,株式会社竹田空調工業,,株式会社,大阪府,摂津市,一津屋１丁目１８番２－１号,,27,224,5660043,,,,,,,2021-10-06,1,,,,,タケダクウチョウコウギョウ,0
2235,6122001035197,新規,0,2021-10-06,2021-10-06,株式会社ワイズ,,株式会社,大阪府,四條畷市,米崎町９番８号,,27,229,5750032,,,,,,,2021-10-06,1,,,,,ワイズ,0
2236,6122001035239,新規,0,2021-10-06,2021-10-06,株式会社フウキ,,株式会社,大阪府,八尾市,東山本新町４丁目４番２０号,,27,212,5810866,,,,,,,2021-10-06,1,,,,,フウキ,0
2238,6130001070255,新規,0,2021-10-06,2021-10-06,株式会社中堀工業,,株式会社,京都府,京都市南区,久世殿城町２３４番,,26,107,6018205,,,,,,,2021-10-06,1,,,,,ナカホリコウギョウ,0
2239,6130001070263,新規,0,2021-10-06,2021-10-06,株式会社Ｇｅｍｅｏｓ,,株式会社,京都府,京都市下京区,夷之町７０９番地,,26,106,6008183,,,,,,,2021-10-06,1,,,,,ジェメオス,0
2240,6130001070271,新規,0,2021-10-06,2021-10-06,株式会社敬信,,株式会社,京都府,宇治市,五ケ庄広岡谷２番地の７１１,,26,204,6110011,,,,,,,2021-10-06,1,,,,,ケイシン,0
2242,6130003007528,新規,0,2021-10-06,2021-10-06,合同会社マスモト建工,,合同会社,京都府,京田辺市,同志社山手４丁目１番地５７,,26,211,6100315,,,,,,,2021-10-06,1,,,,,マスモトケンコウ,0
2245,6140001123284,新規,0,2021-10-06,2021-10-06,株式会社中翔,,株式会社,兵庫県,神戸市須磨区,磯馴町５丁目１－２１－２０２,,28,107,6540047,,,,,,,2021-10-06,1,,,,,ナカショウ,0
2246,6140003016817,新規,0,2021-10-06,2021-10-06,合同会社ＨＡＮＳＨＩＮ　ＶＩＳＩＯＮ,,合同会社,兵庫県,西宮市,甲子園洲鳥町７番１６号,,28,204,6638151,,,,,,,2021-10-06,1,,,,,ハンシンビジョン,0
2248,6140005025840,新規,0,2021-10-06,2021-10-06,一般社団法人アクトセブン,,その他の設立登記法人,兵庫県,西宮市,若山町８番３５－６０３号,,28,204,6638016,,,,,,,2021-10-06,1,,,,,アクトセブン,0
2250,6150001024977,新規,0,2021-10-06,2021-10-06,株式会社トリップ,,株式会社,奈良県,奈良市,角振町１４番地の１,,29,201,6308224,,,,,,,2021-10-06,1,,,,,トリップ,0
2251,6150001024985,新規,0,2021-10-06,2021-10-06,株式会社ｈｉｔｏｋｏｔｏｍｏｎｏ,,株式会社,奈良県,橿原市,地黄町６７番地の６,,29,205,6340805,,,,,,,2021-10-06,1,,,,,ヒトコトモノ,0
2256,6160001023680,新規,0,2021-10-06,2021-10-06,ノナカデンキ株式会社,,株式会社,滋賀県,湖南市,若竹町１番地１１,,25,211,5203216,,,,,,,2021-10-06,1,,,,,ノナカデンキ,0
2257,6160003002393,新規,0,2021-10-06,2021-10-06,合同会社楽峰,,合同会社,滋賀県,甲賀市,甲南町新治２０８８番地,,25,209,5203313,,,,,,,2021-10-06,1,,,,,ラクホウ,0
2258,6170001016808,新規,0,2021-10-06,2021-10-06,株式会社ＨＳカンパニー,,株式会社,和歌山県,海南市,名高５３３番地３,,30,202,6420032,,,,,,,2021-10-06,1,,,,,エイチエスカンパニー,0
2267,6180001148063,新規,0,2021-10-06,2021-10-06,株式会社ＭＥＧＡＬＩＴＨ　ＪＡＰＡＮ,,株式会社,愛知県,名古屋市名東区,社台２丁目３１番地（アドリーム社台１０４号）,,23,115,4650092,,,,,,,2021-10-06,1,,,,,メガリスジャパン,0
2268,6180001148138,新規,0,2021-10-06,2021-10-06,株式会社ＬＩＫＥ　ＡＣＴ,,株式会社,愛知県,名古屋市天白区,原５丁目１４０６番地,,23,116,4680015,,,,,,,2021-10-06,1,,,,,ライクアクト,0
2269,6180001148187,新規,0,2021-10-06,2021-10-06,株式会社ＵｎＦｉｎｉＧｒｏｗ,,株式会社,愛知県,名古屋市昭和区,高峯町１２６番地の１（ファミーユ高峯Ｂ－１号）,,23,107,4660811,,,,,,,2021-10-06,1,,,,,アンフィニグロウ,0
2271,6180005019467,新規,0,2021-10-06,2021-10-06,司法書士法人サルビア事務所,,その他の設立登記法人,愛知県,名古屋市中区,丸の内２丁目１８番２２号,,23,106,4600002,,,,,,,2021-10-06,1,,,,,サルビアジムショ,0
2274,6180301035481,新規,0,2021-10-06,2021-10-06,株式会社ＯＵＴＦＬＡＧ,,株式会社,愛知県,安城市,今池町１丁目１６番４号,,23,212,4460071,,,,,,,2021-10-06,1,,,,,アウトフラッグ,0
2283,6190003003777,新規,0,2021-10-06,2021-10-06,合同会社柴山事務所,,合同会社,三重県,松阪市,射和町６９４番地７,,24,204,5192145,,,,,,,2021-10-06,1,,,,,シバヤマジムショ,0
2284,6190003003785,新規,0,2021-10-06,2021-10-06,合同会社チコローズ,,合同会社,三重県,三重郡菰野町,大字神森２５４番地,,24,341,5101231,,,,,,,2021-10-06,1,,,,,チコローズ,0
2285,6200001039243,新規,0,2021-10-06,2021-10-06,株式会社Ｐｉｎ・Ｐｕｒ,,株式会社,岐阜県,養老郡養老町,飯田８８９番地４,,21,341,5031304,,,,,,,2021-10-06,1,,,,,パンピュール,0
2291,6210001018634,新規,0,2021-10-06,2021-10-06,株式会社ヒカリバンキン,,株式会社,福井県,福井市,下馬２丁目１０１３番地２,,18,201,9188112,,,,,,,2021-10-06,1,,,,,ヒカリバンキン,0
2294,6240001058719,新規,0,2021-10-06,2021-10-06,Ｇｒｏｕｎｄ　Ｈｉｌｌｓ株式会社,,株式会社,広島県,広島市安芸区,船越南４丁目９番４１号,,34,107,7360082,,,,,,,2021-10-06,1,,,,,グランドヒルズ,0
2301,6250001019158,新規,0,2021-10-06,2021-10-06,株式会社キワミ,,株式会社,山口県,防府市,大字上右田２１１３番地の５,,35,206,7470062,,,,,,,2021-10-06,1,,,,,キワミ,0
2302,6250001019166,新規,0,2021-10-06,2021-10-06,株式会社久保建設,,株式会社,山口県,岩国市,御庄４丁目１０７番地１０,,35,208,7410083,,,,,,,2021-10-06,1,,,,,クボケンセツ,0
2303,6250001019174,新規,0,2021-10-06,2021-10-06,小坂電気株式会社,,株式会社,山口県,下関市,安岡町２丁目３番２３号,,35,201,7596603,,,,,,,2021-10-06,1,,,,,コサカデンキ,0
2306,6250003002913,新規,0,2021-10-06,2021-10-06,大和企画合同会社,,合同会社,山口県,防府市,上天神町１－３１,,35,206,7470033,,,,,,,2021-10-06,1,,,,,ヤマトキカク,0
2309,6260001036045,新規,0,2021-10-06,2021-10-06,岡山人材採用コンサルティング株式会社,,株式会社,岡山県,岡山市北区,川入９５７番地２４,,33,101,7010161,,,,,,,2021-10-06,1,,,,,オカヤマジンザイサイヨウコンサルティング,0
2315,6260005010979,新規,0,2021-10-06,2021-10-06,特定非営利活動法人八重の輪,,その他の設立登記法人,岡山県,岡山市北区,南方２丁目１３－１きらめきプラザ２Ｆ,,33,101,7000807,,,,,,,2021-10-06,1,,,,,ヤエノワ,0
2330,6290001094908,新規,0,2021-10-06,2021-10-06,株式会社ＥＣＬ,,株式会社,福岡県,福岡市南区,横手２丁目３１番１０－３１０号グレイス井尻,,40,134,8111311,,,,,,,2021-10-06,1,,,,,イーシーエル,0
2343,6310001017510,新規,0,2021-10-06,2021-10-06,ＳＥＫＩＳＨＯＷホールディングス株式会社,,株式会社,長崎県,松浦市,鷹島町阿翁免１９４２番地,,42,208,8594302,,,,,,,2021-10-06,1,,,,,セキショウホールディングス,0
2344,6310001017519,新規,0,2021-10-06,2021-10-06,株式会社創生工業,,株式会社,長崎県,長崎市,西海町１７５５番地６１,,42,201,8513101,,,,,,,2021-10-06,1,,,,,ソウセイコウギョウ,0
2361,6340001024140,新規,0,2021-10-06,2021-10-06,株式会社九州ファーム物流,,株式会社,鹿児島県,伊佐市,大口下殿字池ノ山１０２３番地２７０,,46,224,8952525,,,,,,,2021-10-06,1,,,,,キュウシュウファームブツリュウ,0
2366,6360001029468,新規,0,2021-10-06,2021-10-06,株式会社琉球Ｗａｖｅ,,株式会社,沖縄県,名護市,宇茂佐の森２丁目２１番地３グレイスフルひかり３０１号,,47,209,9050009,,,,,,,2021-10-06,1,,,,,リュウキュウウェイブ,0
2373,6370001047691,新規,0,2021-10-06,2021-10-06,株式会社アールポート東北,,株式会社,宮城県,仙台市宮城野区,榴岡４丁目１番８－５０９号,,04,102,9830852,,,,,,,2021-10-06,1,,,,,アールポートトウホク,0
2374,6370003005433,新規,0,2021-10-06,2021-10-06,合同会社スティーズ,,合同会社,宮城県,仙台市太白区,郡山２丁目１０－１１－１０３,,04,104,9820003,,,,,,,2021-10-06,1,,,,,スティーズ,0
2375,6380001032239,新規,0,2021-10-06,2021-10-06,株式会社ドリーム・ベース,,株式会社,福島県,郡山市,富久山町久保田字古町２４７番地１,,07,203,9638071,,,,,,,2021-10-06,1,,,,,ドリームベース,0
2384,6400001015620,新規,0,2021-10-06,2021-10-06,株式会社北米貿易,,株式会社,岩手県,奥州市,水沢字後田１７番地５,,03,215,0230898,,,,,,,2021-10-06,1,,,,,ホクベイボウエキ,0
2390,6420001017607,新規,0,2021-10-06,2021-10-06,株式会社水野自動車鈑金工業,,株式会社,青森県,八戸市,城下３丁目２番７１号,,02,203,0310072,,,,,,,2021-10-06,1,,,,,ミズノジドウシャバンキンコウギョウ,0
2391,6420001017615,新規,0,2021-10-06,2021-10-06,株式会社フードプロセシングファクトリー,,株式会社,青森県,東津軽郡平内町,大字浪打字深沢２９番地２,,02,301,0393373,,,,,,,2021-10-06,1,,,,,フードプロセシングファクトリー,0
2398,6430001085074,新規,0,2021-10-06,2021-10-06,よつ葉ホワイトコージ株式会社,,株式会社,北海道,札幌市中央区,北四条西１丁目１番地,,01,101,0600004,,,,,,,2021-10-06,1,,,,,ヨツバホワイトコージ,0
2399,6430001085116,新規,0,2021-10-06,2021-10-06,ＶＥＮＴＥＮ株式会社,,株式会社,北海道,札幌市白石区,川北二条３丁目５番２０号,,01,104,0030852,,,,,,,2021-10-06,1,,,,,ベンテン,0
2402,6430003013223,新規,0,2021-10-06,2021-10-06,コルソ仙北屋合同会社,,合同会社,北海道,札幌市北区,北二十七条西７丁目３－６,,01,102,0010027,,,,,,,2021-10-06,1,,,,,コルソセンボクヤ,0
2403,6440003001417,新規,0,2021-10-06,2021-10-06,合同会社いいねっと,,合同会社,北海道,函館市,高松町５３３番地３０,,01,202,0420952,,,,,,,2021-10-06,1,,,,,イイネット,0
2404,6450001013504,新規,0,2021-10-06,2021-10-06,Ｒｅｓｏｎａｎｚ株式会社,,株式会社,北海道,旭川市,台場三条１丁目６番１４号,,01,204,0708073,,,,,,,2021-10-06,1,,,,,リソナンズ,0
2409,6470001018757,新規,0,2021-10-06,2021-10-06,株式会社Ｊａｐａｎ　Ｓｅａｆｏｏｄ　Ｆｉｓｈｉｎｇ,,株式会社,香川県,高松市,庵治町１６８８番地３,,37,201,7610130,,,,,,,2021-10-06,1,,,,,ジャパンシーフードフィッシング,0
2420,6500001023720,新規,0,2021-10-06,2021-10-06,株式会社中川水産,,株式会社,愛媛県,南宇和郡愛南町,久良９５８番地１,,38,506,7984353,,,,,,,2021-10-06,1,,,,,ナカガワスイサン,0
2421,6500001023729,新規,0,2021-10-06,2021-10-06,株式会社М＆Ａ,,株式会社,愛媛県,松山市,三番町３丁目７番地１松山ランドマークタワー１８０３号,,38,201,7900003,,,,,,,2021-10-06,1,,,,,エムアンドエー,0
2423,6700150105084,新規,0,2021-10-06,2021-10-06,経済産業省関係公益法人企業年金基金,,その他,東京都,港区,芝公園３丁目５番２２号,,13,103,1050011,,,,,,,2021-10-06,1,,,,,ケイザイサンギヨウシヨウカンケイコウエキホウジンキギヨウネンキンキキン,0
2434,7010001221546,新規,0,2021-10-06,2021-10-06,株式会社サウス・ケンジントン,,株式会社,東京都,中央区,銀座３丁目５番８号,,13,102,1040061,,,,,,,2021-10-06,1,,,,,サウスケンジントン,0
2435,7010001221612,新規,0,2021-10-06,2021-10-06,Ａｎｄａｍａｎ株式会社,,株式会社,東京都,中央区,日本橋浜町２丁目５５番１号,,13,102,1030007,,,,,,,2021-10-06,1,,,,,アンダマン,0
2439,7010101014890,新規,0,2021-10-06,2021-10-06,株式会社ロボットライド,,株式会社,東京都,八王子市,下恩方町１１００－１６,,13,201,1920154,,,,,,,2021-10-06,1,,,,,,0
2445,7010401162992,新規,0,2021-10-06,2021-10-06,ＭＡＲＩＮＥＳＳ株式会社,,株式会社,東京都,港区,六本木７丁目７番７号トライセブンロッポンギ８階,,13,103,1060032,,,,,,,2021-10-06,1,,,,,マリネス,0
2446,7010401163017,新規,0,2021-10-06,2021-10-06,オーナーシップ株式会社,,株式会社,東京都,港区,赤坂４丁目８番２０号ＡＳＯビルディング４Ｆ,,13,103,1070052,,,,,,,2021-10-06,1,,,,,オーナーシップ,0
2447,7010401163058,新規,0,2021-10-06,2021-10-06,株式会社ＶＡＬＡＴＯＮＩ,,株式会社,東京都,港区,北青山３丁目５番１４号６階,,13,103,1070061,,,,,,,2021-10-06,1,,,,,バラトニ,0
2449,7010403026262,新規,0,2021-10-06,2021-10-06,ダブルスタイル・エイト合同会社,,合同会社,東京都,港区,北青山２丁目１２番８号ＢＩＺＳＭＡＲＴ青山,,13,103,1070061,,,,,,,2021-10-06,1,,,,,ダブルスタイルエイト,0
2452,7010501047912,新規,0,2021-10-06,2021-10-06,株式会社瀧口商店,,株式会社,東京都,台東区,浅草橋２丁目１３－８,,13,106,1110053,,,,,,,2021-10-06,1,,,,,タキグチショーテン,0
2458,7010701041608,新規,0,2021-10-06,2021-10-06,株式会社がつがつ,,株式会社,東京都,品川区,東品川４丁目１２番１１－８０１号,,13,109,1400002,,,,,,,2021-10-06,1,,,,,ガツガツ,0
2464,7010901049525,新規,0,2021-10-06,2021-10-06,ＤＡＰＰＩ株式会社,,株式会社,東京都,世田谷区,下馬１丁目３３番５号,,13,112,1540002,,,,,,,2021-10-06,1,,,,,ダッピ,0
2465,7010901049558,新規,0,2021-10-06,2021-10-06,ベストステージパートナーズ株式会社,,株式会社,東京都,世田谷区,上野毛２丁目２３番２９号,,13,112,1580093,,,,,,,2021-10-06,1,,,,,ベストステージパートナーズ,0
2471,7011001143210,新規,0,2021-10-06,2021-10-06,株式会社ＬＥＣＯ,,株式会社,東京都,渋谷区,渋谷１丁目５番５号デュラス青山Ｂ１Ｆ,,13,113,1500002,,,,,,,2021-10-06,1,,,,,レコ,0
2472,7011001143235,新規,0,2021-10-06,2021-10-06,ゲームチェンジャー株式会社,,株式会社,東京都,渋谷区,神宮前６丁目２３番４号桑野ビル２階,,13,113,1500001,,,,,,,2021-10-06,1,,,,,ゲームチェンジャー,0
2473,7011001143251,新規,0,2021-10-06,2021-10-06,株式会社ＣＡＳＩ,,株式会社,東京都,目黒区,青葉台１丁目１５番３号ＡＫ－４ビルディングＢ１Ｆ－Ａ,,13,110,1530042,,,,,,,2021-10-06,1,,,,,カシ,0
2474,7011001143268,新規,0,2021-10-06,2021-10-06,株式会社ユノユ,,株式会社,東京都,渋谷区,上原３丁目１０番３－４０１号,,13,113,1510064,,,,,,,2021-10-06,1,,,,,ユノユ,0
2484,7011201023286,新規,0,2021-10-06,2021-10-06,株式会社Ｔ＆Ｌ,,株式会社,東京都,中野区,中央１丁目２３番８号,,13,114,1640011,,,,,,,2021-10-06,1,,,,,ティーアンドエル,0
2486,7011301027229,新規,0,2021-10-06,2021-10-06,株式会社淳倭,,株式会社,東京都,杉並区,上荻４丁目１２番１２号,,13,115,1670043,,,,,,,2021-10-06,1,,,,,ジュンワ,0
2487,7011403003458,新規,0,2021-10-06,2021-10-06,合同会社ＨＡＲＵ・ＨＡＲＵ,,合同会社,東京都,板橋区,東新町１丁目３４番９号,,13,119,1740074,,,,,,,2021-10-06,1,,,,,ハルハル,0
2488,7011501027359,新規,0,2021-10-06,2021-10-06,ＷｉＬＬＤｅｓｉｇｎ株式会社,,株式会社,東京都,北区,田端新町１丁目２２番６－１００２号,,13,117,1140012,,,,,,,2021-10-06,1,,,,,ウィルデザイン,0
2489,7011503004918,新規,0,2021-10-06,2021-10-06,ＹＦＪ合同会社,,合同会社,東京都,北区,神谷３丁目４番３－７０２号Ｖｅｒｏｎａ王子神谷ＬＵＳＳＯ,,13,117,1150043,,,,,,,2021-10-06,1,,,,,ワイエフジェイ,0
2491,7011701024759,新規,0,2021-10-06,2021-10-06,株式会社Ｃａｙｔｏ,,株式会社,東京都,江戸川区,船堀６丁目１０番１９号,,13,123,1340091,,,,,,,2021-10-06,1,,,,,,0
2492,7011703002952,新規,0,2021-10-06,2021-10-06,合同会社ＳＥＭＯ,,合同会社,東京都,江戸川区,篠崎町１丁目４０－９,,13,123,1330061,,,,,,,2021-10-06,1,,,,,セモ,0
2493,7011703002960,新規,0,2021-10-06,2021-10-06,合同会社礎,,合同会社,東京都,江戸川区,中央１丁目３番７号,,13,123,1320021,,,,,,,2021-10-06,1,,,,,イシズエ,0
2494,7011801039772,新規,0,2021-10-06,2021-10-06,株式会社ＰｒｏＩＢ,,株式会社,東京都,足立区,千住緑町２丁目７番５号１階,,13,121,1200044,,,,,,,2021-10-06,1,,,,,プロイボ,0
2495,7011801039789,新規,0,2021-10-06,2021-10-06,株式会社三桜,,株式会社,東京都,足立区,舎人２丁目９番５号,,13,121,1210831,,,,,,,2021-10-06,1,,,,,サンオウ,0
2496,7011803004790,新規,0,2021-10-06,2021-10-06,嶋根商店合同会社,,合同会社,東京都,葛飾区,東金町２丁目９番１５号,,13,122,1250041,,,,,,,2021-10-06,1,,,,,シマネショウテン,0
2498,7012401038355,新規,0,2021-10-06,2021-10-06,ＡＩＲＫＩＸＸ株式会社,,株式会社,東京都,調布市,染地３丁目１番地１２７１,,13,208,1820023,,,,,,,2021-10-06,1,,,,,エアーキックス,0
2499,7012401038363,新規,0,2021-10-06,2021-10-06,株式会社Ｓｕｎｆｌｂａｂｙ,,株式会社,東京都,三鷹市,下連雀３丁目２４番１３－６０１号,,13,204,1810013,,,,,,,2021-10-06,1,,,,,サンフルベビー,0
2500,7012401038371,新規,0,2021-10-06,2021-10-06,株式会社Ｗｅｌｆａｓｔ,,株式会社,東京都,府中市,幸町１丁目３７番地の２,,13,206,1830054,,,,,,,2021-10-06,1,,,,,ウェルファスト,0
2503,7012801021142,新規,0,2021-10-06,2021-10-06,株式会社マッハコンサルティング,,株式会社,東京都,国分寺市,日吉町２丁目３６番地５２,,13,214,1850032,,,,,,,2021-10-06,1,,,,,マッハコンサルティング,0
2513,7020001143277,新規,0,2021-10-06,2021-10-06,株式会社光栄電工,,株式会社,神奈川県,横浜市鶴見区,下野谷町２丁目８１番,,14,101,2300047,,,,,,,2021-10-06,1,,,,,コウエイデンコウ,0
2514,7020001143310,新規,0,2021-10-06,2021-10-06,株式会社アネスト,,株式会社,神奈川県,横浜市保土ケ谷区,仏向町１２１６番地,,14,106,2400044,,,,,,,2021-10-06,1,,,,,アネスト,0
2515,7020001143327,新規,0,2021-10-06,2021-10-06,Ａｃｓｔｒａｓ株式会社,,株式会社,神奈川県,横浜市西区,霞ケ丘１０７番地２２,,14,103,2200035,,,,,,,2021-10-06,1,,,,,アクストラズ,0
2516,7020001143335,新規,0,2021-10-06,2021-10-06,株式会社ｃｏｒｒｅｃｔ,,株式会社,神奈川県,横浜市旭区,上白根３丁目４１番１号,,14,112,2410002,,,,,,,2021-10-06,1,,,,,コレクト,0
2517,7020001143351,新規,0,2021-10-06,2021-10-06,株式会社ほぬん,,株式会社,神奈川県,川崎市中原区,上小田中６丁目３１番５－１号,,14,133,2110053,,,,,,,2021-10-06,1,,,,,ホヌン,0
2519,7021001074099,新規,0,2021-10-06,2021-10-06,モリマーテックラボ株式会社,,株式会社,神奈川県,相模原市中央区,宮下１丁目２番２７号,,14,152,2520212,,,,,,,2021-10-06,1,,,,,モリマーテックラボ,0
2520,7021001074116,新規,0,2021-10-06,2021-10-06,コラムライフサポート株式会社,,株式会社,神奈川県,秦野市,鈴張町７番７号１階,,14,211,2570055,,,,,,,2021-10-06,1,,,,,コラムライフサポート,0
2521,7021001074165,新規,0,2021-10-06,2021-10-06,株式会社ソシュール,,株式会社,神奈川県,横須賀市,長井１丁目２３番７号,,14,201,2380316,,,,,,,2021-10-06,1,,,,,ソシュール,0
2525,7021005012311,新規,0,2021-10-06,2021-10-06,一般社団法人ＲＹＮＣ教育機構,,その他の設立登記法人,神奈川県,横須賀市,馬堀町２丁目２７番地２０－１号,,14,201,2390802,,,,,,,2021-10-06,1,,,,,リンクキョウイクキコウ,0
2528,7030001144596,新規,0,2021-10-06,2021-10-06,株式会社ｓｔｕｄｉｏ　Ｄ　ｐｌｕｓ,,株式会社,埼玉県,さいたま市大宮区,土手町３丁目１０３番地２土手町ビルＡ２０１号室,,11,103,3300801,,,,,,,2021-10-06,1,,,,,スタジオディープラス,0
2529,7030001144605,新規,0,2021-10-06,2021-10-06,ランセル株式会社,,株式会社,埼玉県,北葛飾郡杉戸町,倉松１丁目８番１３号,,11,464,3450034,,,,,,,2021-10-06,1,,,,,ランセル,0
2530,7030001144613,新規,0,2021-10-06,2021-10-06,株式会社ブルームアカウンティング,,株式会社,埼玉県,さいたま市南区,大谷場１丁目１番１号,,11,108,3360016,,,,,,,2021-10-06,1,,,,,ブルームアカウンティング,0
2531,7030001144638,新規,0,2021-10-06,2021-10-06,ＫＡＭＯコンサルティング株式会社,,株式会社,埼玉県,越谷市,東柳田町７番７号,,11,222,3430814,,,,,,,2021-10-06,1,,,,,カモコンサルティング,0
2532,7030001144646,新規,0,2021-10-06,2021-10-06,株式会社ＫＣ工業,,株式会社,埼玉県,越谷市,蒲生南町２番１３－１号,,11,222,3430833,,,,,,,2021-10-06,1,,,,,ケーシーコウギョウ,0
2533,7030001144662,新規,0,2021-10-06,2021-10-06,ＧＳ株式会社,,株式会社,埼玉県,東松山市,材木町２２番地１６野嵜ビル１階,,11,212,3550016,,,,,,,2021-10-06,1,,,,,ジーエス,0
2534,7030001144670,新規,0,2021-10-06,2021-10-06,株式会社キビズ,,株式会社,埼玉県,朝霞市,本町２丁目２番１５－３０４号,,11,227,3510011,,,,,,,2021-10-06,1,,,,,キビズ,0
2535,7030001144687,新規,0,2021-10-06,2021-10-06,株式会社しらね,,株式会社,埼玉県,さいたま市岩槻区,大字古ケ場５８０番地,,11,110,3390072,,,,,,,2021-10-06,1,,,,,シラネ,0
2536,7030001144695,新規,0,2021-10-06,2021-10-06,株式会社宮の杜,,株式会社,埼玉県,さいたま市北区,日進町２丁目９３７番地１,,11,102,3310823,,,,,,,2021-10-06,1,,,,,ミヤノモリ,0
2540,7030003018030,新規,0,2021-10-06,2021-10-06,合同会社ｍｉｎｏｌｉｂｅｒａ,,合同会社,埼玉県,さいたま市浦和区,東仲町６番１１－１３０１号,,11,107,3300056,,,,,,,2021-10-06,1,,,,,ミノリベラ,0
2544,7040001120415,新規,0,2021-10-06,2021-10-06,アステロイド・クリエイティブ株式会社,,株式会社,千葉県,船橋市,薬円台５丁目４番５号グランドセラーコート１０１,,12,204,2740077,,,,,,,2021-10-06,1,,,,,アステロイドクリエイティブ,0
2545,7040001120431,新規,0,2021-10-06,2021-10-06,株式会社ＷＥＳＴ　ＶＩＬＬＡＧＥ,,株式会社,千葉県,柏市,柏１丁目５番１２号エクセルエイトビル７階,,12,217,2770005,,,,,,,2021-10-06,1,,,,,ウエストビレッジ,0
2546,7040001120464,新規,0,2021-10-06,2021-10-06,株式会社ＯＮプランニング,,株式会社,千葉県,千葉市中央区,末広１丁目１１番１号,,12,101,2600843,,,,,,,2021-10-06,1,,,,,オーエヌプランニング,0
2547,7040001120472,新規,0,2021-10-06,2021-10-06,株式会社柳希,,株式会社,千葉県,野田市,大殿井２６７番地の３３,,12,208,2780017,,,,,,,2021-10-06,1,,,,,リュウキ,0
2548,7040001120489,新規,0,2021-10-06,2021-10-06,株式会社さくら,,株式会社,千葉県,千葉市若葉区,大宮台１丁目５番７号,,12,104,2640015,,,,,,,2021-10-06,1,,,,,サクラ,0
2549,7040001120506,新規,0,2021-10-06,2021-10-06,株式会社ＰｅｅＬｉｎｅ,,株式会社,千葉県,船橋市,藤原５丁目１２番５７号,,12,204,2730047,,,,,,,2021-10-06,1,,,,,ピーライン,0
2554,7040003018665,新規,0,2021-10-06,2021-10-06,近江屋管財合同会社,,合同会社,千葉県,市原市,八幡１３７７番地,,12,219,2900062,,,,,,,2021-10-06,1,,,,,オウミヤカンザイ,0
2555,7040003018698,新規,0,2021-10-06,2021-10-06,合同会社セントラルインベストメント,,合同会社,千葉県,船橋市,薬円台１丁目３０番１号,,12,204,2740077,,,,,,,2021-10-06,1,,,,,セントラルインベストメント,0
2556,7040003018707,新規,0,2021-10-06,2021-10-06,合同会社ハッピーフラワー,,合同会社,千葉県,市川市,南行徳３丁目２４番１－７０４号,,12,203,2720138,,,,,,,2021-10-06,1,,,,,ハッピーフラワー,0
2560,7050001049926,新規,0,2021-10-06,2021-10-06,ＣＯＮＣ株式会社,,株式会社,茨城県,結城市,大字結城７２４９番地３ＣＯＮＣ株式会社寮３０１号,,08,207,3070001,,,,,,,2021-10-06,1,,,,,コンク,0
2561,7050001049934,新規,0,2021-10-06,2021-10-06,株式会社ＥＡＲＴＨ,,株式会社,茨城県,日立市,中成沢町４丁目５番１３号,,08,202,3160033,,,,,,,2021-10-06,1,,,,,アース,0
2562,7050001049942,新規,0,2021-10-06,2021-10-06,株式会社パンセコンサルティング,,株式会社,茨城県,鹿嶋市,緑ヶ丘３丁目１５番地３,,08,222,3140039,,,,,,,2021-10-06,1,,,,,パンセコンサルティング,0
2563,7050003006116,新規,0,2021-10-06,2021-10-06,合同会社ＦＴＳ,,合同会社,茨城県,那珂郡東海村,大字船場５５３番地４０,,08,341,3191115,,,,,,,2021-10-06,1,,,,,エフティーエス,0
2569,7060001034142,新規,0,2021-10-06,2021-10-06,ＹＭＴ株式会社,,株式会社,栃木県,栃木市,大平町牛久３６２番地３,,09,203,3294401,,,,,,,2021-10-06,1,,,,,ワイエムティー,0
2580,7080101022805,新規,0,2021-10-06,2021-10-06,株式会社なごみ興業,,株式会社,静岡県,富士市,今泉３６８９番地の２２,,22,210,4170001,,,,,,,2021-10-06,1,,,,,ナゴミコウギョウ,0
2586,7090001017227,新規,0,2021-10-06,2021-10-06,株式会社斉藤塗装興業,,株式会社,山梨県,都留市,鹿留２０７９番地５,,19,204,4020032,,,,,,,2021-10-06,1,,,,,サイトウトソウコウギョウ,0
2589,7100001034666,新規,0,2021-10-06,2021-10-06,株式会社光智運輸,,株式会社,長野県,木曽郡南木曽町,吾妻３６８９番地１,,20,423,3995302,,,,,,,2021-10-06,1,,,,,コウチウンユ,0
2590,7100001034690,新規,0,2021-10-06,2021-10-06,株式会社ＲＥ－ＶＯ,,株式会社,長野県,茅野市,玉川３１５０－７,,20,214,3910011,,,,,,,2021-10-06,1,,,,,リーボ,0
2593,7100003006250,新規,0,2021-10-06,2021-10-06,合同会社ＡＬＢＥＲＯ,,合同会社,長野県,安曇野市,穂高有明１８１５番地１,,20,220,3998301,,,,,,,2021-10-06,1,,,,,アルベロ,0
2594,7110001036075,新規,0,2021-10-06,2021-10-06,アール金属工業株式会社,,株式会社,新潟県,上越市,新光町３丁目４番７号,,15,222,9430804,,,,,,,2021-10-06,1,,,,,アールキンゾクコウギョウ,0
2595,7110003004591,新規,0,2021-10-06,2021-10-06,ニッキコイ合同会社,,合同会社,新潟県,小千谷市,城内４丁目２番２６号,,15,208,9470028,,,,,,,2021-10-06,1,,,,,ニッキコイ,0
2603,7120001240758,新規,0,2021-10-06,2021-10-06,ティーパートナーズ株式会社,,株式会社,大阪府,大阪市中央区,博労町１丁目４－９－１００３,,27,128,5410059,,,,,,,2021-10-06,1,,,,,ティーパートナーズ,0
2604,7120001240832,新規,0,2021-10-06,2021-10-06,株式会社エヌボーテ,,株式会社,大阪府,大阪市福島区,福島５丁目１番５号ハイツアケボノ３０１号,,27,103,5530003,,,,,,,2021-10-06,1,,,,,エヌボーテ,0
2605,7120001240840,新規,0,2021-10-06,2021-10-06,株式会社３６５ｆｏｏｄｓ,,株式会社,大阪府,大阪市中央区,本町２丁目３番４号アソルティ本町４Ｆ,,27,128,5410053,,,,,,,2021-10-06,1,,,,,サンロクゴフーズ,0
2606,7120001240898,新規,0,2021-10-06,2021-10-06,株式会社澪森,,株式会社,大阪府,大阪市中央区,谷町６丁目１７番５号,,27,128,5420012,,,,,,,2021-10-06,1,,,,,ミオモリ,0
2607,7120001240923,新規,0,2021-10-06,2021-10-06,株式会社フォーカス,,株式会社,大阪府,大阪市中央区,石町１丁目１番１号,,27,128,5400033,,,,,,,2021-10-06,1,,,,,フォーカス,0
2608,7120001240964,新規,0,2021-10-06,2021-10-06,株式会社タニケンホーム,,株式会社,大阪府,大阪市鶴見区,今津北２丁目２番１－３０３号,,27,124,5380041,,,,,,,2021-10-06,1,,,,,タニケンホーム,0
2610,7120003020332,新規,0,2021-10-06,2021-10-06,合同会社ＢＩＡ　ＨＯＩ,,合同会社,大阪府,大阪市生野区,新今里２丁目９番８－１０３号,,27,116,5440001,,,,,,,2021-10-06,1,,,,,ビアホイ,0
2611,7120003020357,新規,0,2021-10-06,2021-10-06,合同会社侍,,合同会社,大阪府,大阪市西淀川区,佃３丁目８番９号,,27,113,5550001,,,,,,,2021-10-06,1,,,,,サムライ,0
2614,7120101064396,新規,0,2021-10-06,2021-10-06,株式会社ユウ建設工業,,株式会社,大阪府,阪南市,下出３８５番地の１０,,27,232,5990202,,,,,,,2021-10-06,1,,,,,ユウケンセツコウギョウ,0
2615,7120101064405,新規,0,2021-10-06,2021-10-06,株式会社Ｓｔｙｌｅ,,株式会社,大阪府,堺市東区,南野田２６２番地１０,,27,143,5998124,,,,,,,2021-10-06,1,,,,,スタイル,0
2617,7120901044985,新規,0,2021-10-06,2021-10-06,まるみ設備株式会社,,株式会社,大阪府,豊中市,小曽根５丁目６番４号,,27,203,5610813,,,,,,,2021-10-06,1,,,,,マルミセツビ,0
2618,7120901045001,新規,0,2021-10-06,2021-10-06,株式会社伍六物流,,株式会社,大阪府,摂津市,鶴野３丁目３番２４号,,27,224,5660035,,,,,,,2021-10-06,1,,,,,ゴロクブツリュウ,0
2619,7122001035238,新規,0,2021-10-06,2021-10-06,株式会社コクセイ金属製作所,,株式会社,大阪府,八尾市,泉町３丁目６７番地,,27,212,5810813,,,,,,,2021-10-06,1,,,,,コクセイキンゾクセイサクショ,0
2620,7122005003587,新規,0,2021-10-06,2021-10-06,特定非営利活動法人音頭座がらく,,その他の設立登記法人,大阪府,東大阪市,友井２丁目３４番２７号幸宝ビルＩ３０５号,,27,227,5770816,,,,,,,2021-10-06,1,,,,,オンドザガラク,0
2623,7130001070205,新規,0,2021-10-06,2021-10-06,ｎｐｓＨＤ株式会社,,株式会社,京都府,八幡市,下奈良榊６番地の１,,26,210,6148132,,,,,,,2021-10-06,1,,,,,エヌピーエスホールディングス,0
2624,7130001070213,新規,0,2021-10-06,2021-10-06,株式会社京天神野口,,株式会社,京都府,京都市上京区,天神道上の下立売上る北町５７３番地１１,,26,102,6028368,,,,,,,2021-10-06,1,,,,,キョウテンジンノグチ,0
2625,7130001070221,新規,0,2021-10-06,2021-10-06,株式会社絆,,株式会社,京都府,京都市上京区,上長者町通千本西入五番町１７９番地Ｒｅｓｏｎａｎｃｅ西陣３０１,,26,102,6028342,,,,,,,2021-10-06,1,,,,,キズナ,0
2626,7130001070238,新規,0,2021-10-06,2021-10-06,株式会社エムケイ,,株式会社,京都府,八幡市,男山松里４番地３１,,26,210,6148364,,,,,,,2021-10-06,1,,,,,エムケイ,0
2627,7130001070254,新規,0,2021-10-06,2021-10-06,いとはシステム株式会社,,株式会社,京都府,舞鶴市,字長浜５５番地,,26,202,6250086,,,,,,,2021-10-06,1,,,,,イトハシステム,0
2628,7130001070262,新規,0,2021-10-06,2021-10-06,勇電設株式会社,,株式会社,京都府,亀岡市,曽我部町寺広畑９番地,,26,206,6210023,,,,,,,2021-10-06,1,,,,,ユウデンセツ,0
2629,7130001070270,新規,0,2021-10-06,2021-10-06,株式会社ＳＨＩＮＡＧＡＷＡ　ＳＴＵＤＩＯ,,株式会社,京都府,京都市東山区,今熊野宝蔵町３７－７,,26,105,6050952,,,,,,,2021-10-06,1,,,,,シナガワスタジオ,0
2630,7130001070287,新規,0,2021-10-06,2021-10-06,株式会社マウンテンキャッスル,,株式会社,京都府,京都市上京区,出水通裏門東入田村備前町２２１番地４,,26,102,6028177,,,,,,,2021-10-06,1,,,,,マウンテンキャッスル,0
2640,7140001123250,新規,0,2021-10-06,2021-10-06,株式会社ノリアキテック,,株式会社,兵庫県,姫路市,飾磨区須加２６７番地２,,28,201,6728063,,,,,,,2021-10-06,1,,,,,ノリアキテック,0
2641,7140001123325,新規,0,2021-10-06,2021-10-06,株式会社クレイエール,,株式会社,兵庫県,神戸市中央区,中山手通１丁目２番３号リアライズ生田新道ビル４階,,28,110,6500004,,,,,,,2021-10-06,1,,,,,クレイエール,0
2642,7140001123333,新規,0,2021-10-06,2021-10-06,ウエヤママネジメント株式会社,,株式会社,兵庫県,丹波篠山市,中野４５番地,,28,221,6692213,,,,,,,2021-10-06,1,,,,,ウエヤママネジメント,0
2645,7150001024984,新規,0,2021-10-06,2021-10-06,タンセイエンヂニヤリング株式会社,,株式会社,奈良県,御所市,大字鴨神１８０４番地２,,29,208,6392343,,,,,,,2021-10-06,1,,,,,タンセイエンヂニヤリング,0
2646,7160001023688,新規,0,2021-10-06,2021-10-06,株式会社ＳＡＲＡプロパティマネジメント,,株式会社,滋賀県,大津市,浜大津４丁目８番３－１５１０号,,25,201,5200047,,,,,,,2021-10-06,1,,,,,サラプロパティマネジメント,0
2654,7180001148046,新規,0,2021-10-06,2021-10-06,株式会社シード,,株式会社,愛知県,清須市,阿原神門１番地,,23,233,4520901,,,,,,,2021-10-06,1,,,,,シード,0
2655,7180001148104,新規,0,2021-10-06,2021-10-06,株式会社オルテガ,,株式会社,愛知県,名古屋市西区,名駅１丁目１番１７号名駅ダイヤメイテツビル１１階,,23,104,4510045,,,,,,,2021-10-06,1,,,,,オルテガ,0
2656,7180001148186,新規,0,2021-10-06,2021-10-06,株式会社ひさご,,株式会社,愛知県,名古屋市中村区,中村中町２丁目１８番地,,23,105,4530831,,,,,,,2021-10-06,1,,,,,ヒサゴ,0
2660,7180005019466,新規,0,2021-10-06,2021-10-06,ゆう司法書士法人,,その他の設立登記法人,愛知県,名古屋市北区,田幡２丁目１２番１４号明治安田生命黒川ビル５階南,,23,103,4620843,,,,,,,2021-10-06,1,,,,,ユウ,0
2671,7190001028734,新規,0,2021-10-06,2021-10-06,株式会社トラスティ－ライフ,,株式会社,三重県,四日市市,南浜田町８番４６号,,24,202,5100066,,,,,,,2021-10-06,1,,,,,トラスティーライフ,0
2672,7190001028750,新規,0,2021-10-06,2021-10-06,株式会社荒川新聞舗,,株式会社,三重県,四日市市,楠町北五味塚１１４番地の１,,24,202,5100103,,,,,,,2021-10-06,1,,,,,アラカワシンブンホ,0
2673,7190003003776,新規,0,2021-10-06,2021-10-06,合同会社オフィス三滝,,合同会社,三重県,四日市市,諏訪栄町２１番１１号八宝ビル３Ｆ,,24,202,5100086,,,,,,,2021-10-06,1,,,,,オフィスミタキ,0
2675,7200001039218,新規,0,2021-10-06,2021-10-06,株式会社ＫＮＣ製作所,,株式会社,岐阜県,多治見市,赤坂町７丁目１１３番地,,21,204,5070057,,,,,,,2021-10-06,1,,,,,ケーエヌシーセイサクショ,0
2676,7200001039267,新規,0,2021-10-06,2021-10-06,株式会社ＵＣＨＩＤＡ内装,,株式会社,岐阜県,各務原市,蘇原希望町１丁目２３番地１,,21,213,5040829,,,,,,,2021-10-06,1,,,,,ウチダナイソウ,0
2677,7200003005333,新規,0,2021-10-06,2021-10-06,合同会社ナカジマエアテクノサービス,,合同会社,岐阜県,各務原市,蘇原大島町１丁目１９番地３７,,21,213,5040847,,,,,,,2021-10-06,1,,,,,ナカジマエアテクノサービス,0
2678,7200003005341,新規,0,2021-10-06,2021-10-06,いわと合同会社,,合同会社,岐阜県,岐阜市,早田１９０１－６オハナビル１階,,21,201,5020842,,,,,,,2021-10-06,1,,,,,イワト,0
2681,7210001018633,新規,0,2021-10-06,2021-10-06,株式会社太田商事,,株式会社,福井県,丹生郡越前町,佐々生第３３号２６番地,,18,423,9160144,,,,,,,2021-10-06,1,,,,,オオタショウジ,0
2694,7240001058734,新規,0,2021-10-06,2021-10-06,株式会社ジェネシス,,株式会社,広島県,広島市中区,猫屋町２－１４－１０６,,34,101,7300852,,,,,,,2021-10-06,1,,,,,ジェネシス,0
2698,7250001019157,新規,0,2021-10-06,2021-10-06,モダン壁装株式会社,,株式会社,山口県,周南市,大字久米２９８１番地,,35,215,7450801,,,,,,,2021-10-06,1,,,,,モダンヘキソウ,0
2699,7250001019173,新規,0,2021-10-06,2021-10-06,株式会社ヨシナカ精溶,,株式会社,山口県,下松市,瑞穂町４丁目９番４号,,35,207,7440075,,,,,,,2021-10-06,1,,,,,ヨシナカセイヨウ,0
2701,7250003002912,新規,0,2021-10-06,2021-10-06,合同会社ペイル,,合同会社,山口県,山口市,小郡黄金町６番３１－２０３号,,35,203,7540021,,,,,,,2021-10-06,1,,,,,ペイル,0
2716,7290001094832,新規,0,2021-10-06,2021-10-06,株式会社ＫＡＩ－ＹＯＵ,,株式会社,福岡県,福岡市博多区,築港本町７番１４－１１１０号,,40,132,8120021,,,,,,,2021-10-06,1,,,,,カイユウ,0
2717,7290001094923,新規,0,2021-10-06,2021-10-06,一景工業株式会社,,株式会社,福岡県,柳川市,南浜武４４０番地,,40,207,8320083,,,,,,,2021-10-06,1,,,,,イッケイコウギョウ,0
2718,7290001094948,新規,0,2021-10-06,2021-10-06,株式会社ワカタケ不動産,,株式会社,福岡県,福岡市西区,姪の浜２丁目１番１２－２０２号,,40,135,8190002,,,,,,,2021-10-06,1,,,,,ワカタケフドウサン,0
2721,7290005018382,新規,0,2021-10-06,2021-10-06,土地家屋調査士法人せんざき事務所,,その他の設立登記法人,福岡県,福岡市南区,皿山２丁目１番４５号,,40,134,8111365,,,,,,,2021-10-06,1,,,,,センザキジムショ,0
2722,7300001012651,新規,0,2021-10-06,2021-10-06,ティーアールエフ株式会社,,株式会社,佐賀県,武雄市,北方町大字志久４５３１番地２,,41,206,8492201,,,,,,,2021-10-06,1,,,,,ティーアールエフ,0
2729,7320001018655,新規,0,2021-10-06,2021-10-06,Ｋ‐ｄｏ株式会社,,株式会社,大分県,大分市,大字勢家１３６８番地,,44,201,8700100,,,,,,,2021-10-06,1,,,,,ケイドゥ,0
2742,7350003003941,新規,0,2021-10-06,2021-10-06,合同会社オーシャントレーディング,,合同会社,宮崎県,日向市,亀崎東４丁目４９番地１マーキーＩＩＩ１０３号,00124473,45,206,8830067,,,,,,,2021-10-06,1,,,,,オーシャントレーディング,0
2746,7360001029459,新規,0,2021-10-06,2021-10-06,Ｌ．Ｄ．Ｉ株式会社,,株式会社,沖縄県,中頭郡西原町,字嘉手苅１０２－２シャルムＴ４０１,,47,329,9030102,,,,,,,2021-10-06,1,,,,,エルディーアイ,0
2751,7370001047682,新規,0,2021-10-06,2021-10-06,株式会社Ｗｅｅｄ,,株式会社,宮城県,塩竈市,藤倉２丁目１１番１５号,,04,203,9850004,,,,,,,2021-10-06,1,,,,,ウィード,0
2756,7380001032238,新規,0,2021-10-06,2021-10-06,株式会社土佐建設,,株式会社,福島県,いわき市,平薄磯二丁目２番地の７,,07,204,9700223,,,,,,,2021-10-06,1,,,,,トサケンセツ,0
2759,7400003002839,新規,0,2021-10-06,2021-10-06,合同会社５０ＵＰ,,合同会社,岩手県,下閉伊郡山田町,船越第１５地割３番地９４,,03,482,0281371,,,,,,,2021-10-06,1,,,,,フィフティーアップ,0
2760,7420001017614,新規,0,2021-10-06,2021-10-06,ワイズ・ビルド株式会社,,株式会社,青森県,弘前市,大字早稲田３丁目１４番地３,,02,202,0368087,,,,,,,2021-10-06,1,,,,,ワイズビルド,0
2774,7450003002140,新規,0,2021-10-06,2021-10-06,合同会社ワイズ・メイト,,合同会社,北海道,旭川市,末広一条９丁目１番２６号,,01,204,0718131,,,,,,,2021-10-06,1,,,,,ワイズメイト,0
2782,7470001018756,新規,0,2021-10-06,2021-10-06,株式会社ＺＢ,,株式会社,香川県,仲多度郡多度津町,堀江３丁目１０番６－１号,,37,404,7640021,,,,,,,2021-10-06,1,,,,,ゼットビー,0
2795,7700150105075,新規,0,2021-10-06,2021-10-06,ウシオ電機企業年金基金,,その他,神奈川県,横浜市青葉区,元石川町６４０９,,14,117,2250004,,,,,,,2021-10-06,1,,,,,ウシオデンキキギヨウネンキンキキン,0
2796,7700150105083,新規,0,2021-10-06,2021-10-06,科学技術企業年金基金,,その他,東京都,港区,西新橋３丁目２３－１１,,13,103,1050003,,,,,,,2021-10-06,1,,,,,カガクギジユツキギヨウネンキンキキン,0
2803,8010001221545,新規,0,2021-10-06,2021-10-06,株式会社ポラリス,,株式会社,東京都,中央区,銀座３丁目５番８号,,13,102,1040061,,,,,,,2021-10-06,1,,,,,ポラリス,0
2804,8010001221561,新規,0,2021-10-06,2021-10-06,エターナルウェルスマネジメント株式会社,,株式会社,東京都,中央区,日本橋２丁目１番１７号,,13,102,1030027,,,,,,,2021-10-06,1,,,,,エターナルウェルスマネジメント,0
2805,8010001221578,新規,0,2021-10-06,2021-10-06,株式会社ＥＭＡ,,株式会社,東京都,千代田区,神田三崎町３丁目１０番２号,,13,101,1010061,,,,,,,2021-10-06,1,,,,,イーエムエー,0
2806,8010001221611,新規,0,2021-10-06,2021-10-06,Ｂｏｏｋｓ株式会社,,株式会社,東京都,千代田区,外神田３丁目６番４号第一勧業信用組合ビル５階,,13,101,1010021,,,,,,,2021-10-06,1,,,,,ブックス,0
2812,8010401163008,新規,0,2021-10-06,2021-10-06,株式会社学燈舎,,株式会社,東京都,港区,三田５丁目１５番１２－４０４号,,13,103,1080073,,,,,,,2021-10-06,1,,,,,ガクトウシャ,0
2813,8010401163016,新規,0,2021-10-06,2021-10-06,株式会社コンサルティングＪｅａｎ,,株式会社,東京都,港区,三田２丁目１０番２号三田耀ビル３Ｆ,,13,103,1080073,,,,,,,2021-10-06,1,,,,,コンサルティングジェアン,0
2814,8010401163040,新規,0,2021-10-06,2021-10-06,株式会社ベンタル・パートナーズ,,株式会社,東京都,港区,赤坂９丁目７番１号,,13,103,1070052,,,,,,,2021-10-06,1,,,,,ベンタルパートナーズ,0
2815,8010403026261,新規,0,2021-10-06,2021-10-06,ｈｉｋａｒｉ合同会社,,合同会社,東京都,港区,麻布十番２丁目４番１－７０１号,,13,103,1060045,,,,,,,2021-10-06,1,,,,,ヒカリ,0
2819,8010501047903,新規,0,2021-10-06,2021-10-06,株式会社タブロー,,株式会社,東京都,台東区,元浅草１丁目１５番９号ＳＡＫＵＲＡビル２階,,13,106,1110041,,,,,,,2021-10-06,1,,,,,タブロー,0
2832,8010901049549,新規,0,2021-10-06,2021-10-06,成城開発株式会社,,株式会社,東京都,世田谷区,成城１丁目３０番２号,,13,112,1570066,,,,,,,2021-10-06,1,,,,,セイジョウカイハツ,0
2833,8010901049557,新規,0,2021-10-06,2021-10-06,株式会社ルミナス,,株式会社,東京都,世田谷区,弦巻３丁目２４番１８号,,13,112,1540016,,,,,,,2021-10-06,1,,,,,ルミナス,0
2835,8011001143069,新規,0,2021-10-06,2021-10-06,株式会社ＢＬＡＳＴ,,株式会社,東京都,渋谷区,円山町５番５号Ｎａｖｉ渋谷Ｖ３階,,13,113,1500044,,,,,,,2021-10-06,1,,,,,ブラスト,0
2836,8011001143127,新規,0,2021-10-06,2021-10-06,ＴＯＫＹＯ　ＲＡＭＰ株式会社,,株式会社,東京都,渋谷区,富ヶ谷１丁目１７番７号第二山栄ビル２０２,,13,113,1510063,,,,,,,2021-10-06,1,,,,,トウキョウランプ,0
2837,8011001143151,新規,0,2021-10-06,2021-10-06,Ｖａｌｏｏｎ株式会社,,株式会社,東京都,渋谷区,東３丁目２４番２号,,13,113,1500011,,,,,,,2021-10-06,1,,,,,ヴァローン,0
2838,8011001143176,新規,0,2021-10-06,2021-10-06,株式会社ｎｅｘｕｓ,,株式会社,東京都,目黒区,平町１丁目１番１８号都立大平町コーポ１０５,,13,110,1520032,,,,,,,2021-10-06,1,,,,,ネクサス,0
2839,8011003013501,新規,0,2021-10-06,2021-10-06,ブルーノードアドバイザリー合同会社,,合同会社,東京都,渋谷区,代官山町１１番１号住友不動産代官山ハイツＢ３０２,,13,113,1500034,,,,,,,2021-10-06,1,,,,,ブルーノードアドバイザリー,0
2852,8011101096497,新規,0,2021-10-06,2021-10-06,株式会社ザ・サードプレイス,,株式会社,東京都,新宿区,新宿３丁目５番６号,,13,104,1600022,,,,,,,2021-10-06,1,,,,,ザサードプレイス,0
2858,8011401023721,新規,0,2021-10-06,2021-10-06,株式会社Ｇｅｎｅｒａｔｉｏｎ　Ｆｒｅｅ,,株式会社,東京都,板橋区,中丸町２－６ＫＤＸレジデンス池袋ウエスト８０７,,13,119,1730026,,,,,,,2021-10-06,1,,,,,,0
2859,8011401023738,新規,0,2021-10-06,2021-10-06,株式会社ワイズプロパティ,,株式会社,東京都,板橋区,南常盤台２丁目４番２号,,13,119,1740072,,,,,,,2021-10-06,1,,,,,ワイズプロパティ,0
2860,8011403003457,新規,0,2021-10-06,2021-10-06,いいねカンパニー合同会社,,合同会社,東京都,板橋区,幸町４５番７－３０７号,,13,119,1730034,,,,,,,2021-10-06,1,,,,,イイネカンパニー,0
2862,8011501027374,新規,0,2021-10-06,2021-10-06,株式会社エーエスシー,,株式会社,東京都,北区,赤羽１丁目７－９赤羽第一葉山ビル４階,,13,117,1150045,,,,,,,2021-10-06,1,,,,,エーエスシー,0
2864,8011601025443,新規,0,2021-10-06,2021-10-06,株式会社リラース,,株式会社,東京都,練馬区,田柄５丁目１２番３６号,,13,120,1790073,,,,,,,2021-10-06,1,,,,,リラース,0
2875,8012403005055,新規,0,2021-10-06,2021-10-06,合同会社ＳａｆｅｔｙＭｅｅｔｉｎｇ,,合同会社,東京都,武蔵野市,吉祥寺本町１丁目５－１吉祥寺ＰＡＲＣＯ８Ｆ・ＳｋｉｉＭａ,,13,203,1800004,,,,,,,2021-10-06,1,,,,,セーフティーミーティング,0
2876,8012701016704,新規,0,2021-10-06,2021-10-06,株式会社ＨｙＢｒｉｄｇｅ,,株式会社,東京都,東久留米市,八幡町１丁目９番２８号Ｂ－９０３号室,,13,222,2030042,,,,,,,2021-10-06,1,,,,,ハイブリッジ,0
2877,8012703002322,新規,0,2021-10-06,2021-10-06,ゆくら合同会社,,合同会社,東京都,西東京市,向台町３丁目４番８３号,,13,229,1880013,,,,,,,2021-10-06,1,,,,,ユクラ,0
2885,8020001143276,新規,0,2021-10-06,2021-10-06,プライムサービス横浜株式会社,,株式会社,神奈川県,横浜市戸塚区,前田町５０８番地４４,,14,110,2440804,,,,,,,2021-10-06,1,,,,,プライムサービスヨコハマ,0
2886,8020001143292,新規,0,2021-10-06,2021-10-06,株式会社ひらのＦｏｏｄｓ,,株式会社,神奈川県,横浜市青葉区,すすき野３丁目８番３号,,14,117,2250021,,,,,,,2021-10-06,1,,,,,ヒラノフーズ,0
2887,8020001143301,新規,0,2021-10-06,2021-10-06,株式会社メルティンググッズ,,株式会社,神奈川県,横浜市旭区,都岡町２６番地２,,14,112,2410805,,,,,,,2021-10-06,1,,,,,メルティンググッズ,0
2888,8020001143326,新規,0,2021-10-06,2021-10-06,株式会社青翔工業,,株式会社,神奈川県,川崎市川崎区,桜本１丁目８番３号セレッソウスイ２０２号,,14,131,2100833,,,,,,,2021-10-06,1,,,,,セイショウコウギョウ,0
2889,8020001143342,新規,0,2021-10-06,2021-10-06,株式会社ＲＳ興業,,株式会社,神奈川県,横浜市神奈川区,片倉２丁目９番３号,,14,102,2210865,,,,,,,2021-10-06,1,,,,,アールエスコウギョウ,0
2890,8020001143350,新規,0,2021-10-06,2021-10-06,株式会社安達空調サービス,,株式会社,神奈川県,川崎市中原区,小杉町１丁目３５８番地,,14,133,2110063,,,,,,,2021-10-06,1,,,,,アダチクウチョウサービス,0
2891,8020001143359,新規,0,2021-10-06,2021-10-06,みどりコンピュータ株式会社,,株式会社,神奈川県,横浜市泉区,緑園２丁目２０番地２８,,14,116,2450002,,,,,,,2021-10-06,1,,,,,ミドリコンピュータ,0
2894,8020003020597,新規,0,2021-10-06,2021-10-06,合同会社ＶＥＣＣＳ横浜,,合同会社,神奈川県,横浜市鶴見区,上の宮１丁目２８番地２２号,,14,101,2300075,,,,,,,2021-10-06,1,,,,,ベックスヨコハマ,0
2898,8021001074098,新規,0,2021-10-06,2021-10-06,株式会社西湘プランニング,,株式会社,神奈川県,中郡大磯町,国府本郷８３２番地５,,14,341,2590111,,,,,,,2021-10-06,1,,,,,セイショウプランニング,0
2899,8021001074115,新規,0,2021-10-06,2021-10-06,株式会社Ｇ・Ｈ・Ｔ　ｄｅｌｉｖｅｒｙ,,株式会社,神奈川県,横須賀市,ハイランド４丁目２４番１７号,,14,201,2390833,,,,,,,2021-10-06,1,,,,,ジーエイチティーデリバリー,0
2900,8021001074123,新規,0,2021-10-06,2021-10-06,株式会社小泉土建,,株式会社,神奈川県,相模原市南区,下溝１３６４番地１３,,14,153,2520335,,,,,,,2021-10-06,1,,,,,コイズミドケン,0
2905,8030001144620,新規,0,2021-10-06,2021-10-06,株式会社コネクト,,株式会社,埼玉県,日高市,高萩東３丁目１５番１号,,11,242,3501215,,,,,,,2021-10-06,1,,,,,コネクト,0
2906,8030001144629,新規,0,2021-10-06,2021-10-06,ｈｏｌｌｙ　ｇｒａｃｅ株式会社,,株式会社,埼玉県,所沢市,くすのき台１丁目１２番地の６,,11,208,3590037,,,,,,,2021-10-06,1,,,,,ホーリーグレイス,0
2907,8030001144645,新規,0,2021-10-06,2021-10-06,株式会社ｉＤＳ,,株式会社,埼玉県,戸田市,南町３番２６号,,11,224,3350025,,,,,,,2021-10-06,1,,,,,アイディエス,0
2908,8030001144653,新規,0,2021-10-06,2021-10-06,株式会社ｂｕｉｌｄ,,株式会社,埼玉県,川口市,大字東本郷５６７番地の５１,,11,203,3340063,,,,,,,2021-10-06,1,,,,,ビルド,0
2909,8030001144661,新規,0,2021-10-06,2021-10-06,株式会社ＰＭＰ,,株式会社,埼玉県,戸田市,喜沢１丁目１８番地１１－１０４号,,11,224,3350013,,,,,,,2021-10-06,1,,,,,ピーエムピー,0
2910,8030001144711,新規,0,2021-10-06,2021-10-06,株式会社Ｌｅ　ＤｅｕＴ,,株式会社,埼玉県,川越市,熊野町２０番７号２０２号,,11,201,3501146,,,,,,,2021-10-06,1,,,,,ラデュート,0
2913,8030003018070,新規,0,2021-10-06,2021-10-06,合同会社安心空間,,合同会社,埼玉県,越谷市,大字下間久里９２２番地７,,11,222,3430045,,,,,,,2021-10-06,1,,,,,アンシンクウカン,0
2919,8040001120397,新規,0,2021-10-06,2021-10-06,株式会社誠和管理,,株式会社,千葉県,八街市,小谷流８７６番地２,,12,230,2891135,,,,,,,2021-10-06,1,,,,,セイワカンリ,0
2920,8040001120406,新規,0,2021-10-06,2021-10-06,株式会社Ｒ５,,株式会社,千葉県,千葉市稲毛区,黒砂２丁目７番２４号,,12,103,2630042,,,,,,,2021-10-06,1,,,,,リファイブ,0
2921,8040001120430,新規,0,2021-10-06,2021-10-06,株式会社クラウンテック,,株式会社,千葉県,千葉市花見川区,柏井１丁目１２番１３号,,12,102,2620048,,,,,,,2021-10-06,1,,,,,クラウンテック,0
2922,8040001120447,新規,0,2021-10-06,2021-10-06,ＹＡＡ株式会社,,株式会社,千葉県,柏市,中新宿１丁目８番１９号,,12,217,2770066,,,,,,,2021-10-06,1,,,,,ワイエーエー,0
2923,8040001120463,新規,0,2021-10-06,2021-10-06,株式会社リバーズ,,株式会社,千葉県,千葉市稲毛区,園生町１２５番地１７,,12,103,2630051,,,,,,,2021-10-06,1,,,,,リバーズ,0
2924,8040001120471,新規,0,2021-10-06,2021-10-06,株式会社小林燃料店,,株式会社,千葉県,千葉市中央区,南町３丁目２２番１２号,,12,101,2600842,,,,,,,2021-10-06,1,,,,,コバヤシネンリョウテン,0
2925,8040001120488,新規,0,2021-10-06,2021-10-06,創栄貿易株式会社,,株式会社,千葉県,船橋市,栄町１丁目６－７－５,,12,204,2730018,,,,,,,2021-10-06,1,,,,,ソウエイボウエキ,0
2927,8040003018664,新規,0,2021-10-06,2021-10-06,合同会社ティーウル,,合同会社,千葉県,千葉市若葉区,貝塚１丁目３番１１号,,12,104,2640020,,,,,,,2021-10-06,1,,,,,ティーウル,0
2928,8040003018689,新規,0,2021-10-06,2021-10-06,合同会社サクセスホーム,,合同会社,千葉県,香取市,佐原ロ２０２８番地２２,,12,236,2870001,,,,,,,2021-10-06,1,,,,,サクセスホーム,0
2929,8040003018697,新規,0,2021-10-06,2021-10-06,合同会社セントラルインベストメント１号,,合同会社,千葉県,船橋市,薬円台１丁目３０番１号,,12,204,2740077,,,,,,,2021-10-06,1,,,,,セントラルインベストメントイチゴウ,0
2932,8050001049917,新規,0,2021-10-06,2021-10-06,株式会社Ｗｉｌｌ　Ｆｏｒｃｅ,,株式会社,茨城県,つくば市,学園の森３丁目１５番地２フラットフォレストＦ号,,08,220,3050816,,,,,,,2021-10-06,1,,,,,ウィルフォース,0
2933,8050001049933,新規,0,2021-10-06,2021-10-06,株式会社ａｂｐ,,株式会社,茨城県,水戸市,河和田３丁目２２８１番地６はるなビル１－Ｂ,,08,201,3114152,,,,,,,2021-10-06,1,,,,,エービーピー,0
2938,8050003006115,新規,0,2021-10-06,2021-10-06,住まいのドクター茨城店合同会社,,合同会社,茨城県,鉾田市,菅野谷１７４番地,,08,234,3111531,,,,,,,2021-10-06,1,,,,,スマイノドクターイバラキテン,0
2939,8050003006123,新規,0,2021-10-06,2021-10-06,合同会社ＳＯＣＩＣＯ,,合同会社,茨城県,つくば市,学園南３丁目１３番地４,,08,220,3050818,,,,,,,2021-10-06,1,,,,,ソシコ,0
2951,8080101022804,新規,0,2021-10-06,2021-10-06,株式会社コレカラ,,株式会社,静岡県,沼津市,下香貫島郷２９６４番地の５,,22,203,4100822,,,,,,,2021-10-06,1,,,,,コレカラ,0
2952,8080401025399,新規,0,2021-10-06,2021-10-06,株式会社ＬＣＨ,,株式会社,静岡県,浜松市西区,村櫛町４６６８番地の３９,,22,133,4311207,,,,,,,2021-10-06,1,,,,,エルシーエイチ,0
2954,8090001017218,新規,0,2021-10-06,2021-10-06,株式会社ＦＡＴＥ,,株式会社,山梨県,南巨摩郡富士川町,駅前通２丁目１番地２,,19,368,4000602,,,,,,,2021-10-06,1,,,,,フェイト,0
2955,8100001034665,新規,0,2021-10-06,2021-10-06,番長株式会社,,株式会社,長野県,上田市,中央３丁目７番６号,,20,203,3860012,,,,,,,2021-10-06,1,,,,,バンチョウ,0
2956,8100001034681,新規,0,2021-10-06,2021-10-06,株式会社三峰技術研究所,,株式会社,長野県,伊那市,伊那部２８３３番６,,20,209,3960011,,,,,,,2021-10-06,1,,,,,ミブギジュツケンキュウショ,0
2958,8110001036074,新規,0,2021-10-06,2021-10-06,株式会社Ａｌｏｈａｎａ,,株式会社,新潟県,村上市,坂町３６２０番地４,,15,212,9593132,,,,,,,2021-10-06,1,,,,,アロハナ,0
2959,8110001036082,新規,0,2021-10-06,2021-10-06,ａｉｍａｎ株式会社,,株式会社,新潟県,糸魚川市,中央２丁目２番１２号,,15,216,9410062,,,,,,,2021-10-06,1,,,,,エマン,0
2960,8110001036090,新規,0,2021-10-06,2021-10-06,株式会社昇栄建総,,株式会社,新潟県,長岡市,悠久町４丁目１１０８番地３,,15,202,9400827,,,,,,,2021-10-06,1,,,,,ショウエイケンソウ,0
2966,8120001240823,新規,0,2021-10-06,2021-10-06,株式会社房本,,株式会社,大阪府,大阪市東住吉区,鷹合４丁目８番６号,,27,121,5460014,,,,,,,2021-10-06,1,,,,,フサモト,0
2967,8120001240848,新規,0,2021-10-06,2021-10-06,エア・ウォーター西日本メディエス株式会社,,株式会社,大阪府,大阪市中央区,南船場４丁目４番２１号,,27,128,5420081,,,,,,,2021-10-06,1,,,,,エアウォーターニシニホンメディエス,0
2968,8120001240864,新規,0,2021-10-06,2021-10-06,株式会社つるまさ,,株式会社,大阪府,大阪市西淀川区,柏里３丁目１２番３０号,,27,113,5550022,,,,,,,2021-10-06,1,,,,,ツルマサ,0
2969,8120001240922,新規,0,2021-10-06,2021-10-06,株式会社ヒト,,株式会社,大阪府,門真市,南野口町１７番４号,,27,223,5710005,,,,,,,2021-10-06,1,,,,,ヒト,0
2970,8120001240939,新規,0,2021-10-06,2021-10-06,株式会社エスディード,,株式会社,大阪府,大阪市天王寺区,東上町７－９,,27,109,5430026,,,,,,,2021-10-06,1,,,,,エスディード,0
2971,8120001240971,新規,0,2021-10-06,2021-10-06,株式会社ＳＯＬＥＩＬ,,株式会社,大阪府,大阪市北区,同心２丁目６－１７ステイシティ同心４０２号室,,27,127,5300035,,,,,,,2021-10-06,1,,,,,ソレイユ,0
2974,8120003020348,新規,0,2021-10-06,2021-10-06,合同会社ＧＭＰ,,合同会社,大阪府,大阪市北区,中崎３丁目１番２０号,,27,127,5300016,,,,,,,2021-10-06,1,,,,,ジーエムピー,0
2975,8120003020356,新規,0,2021-10-06,2021-10-06,ラフィーネ合同会社,,合同会社,大阪府,寝屋川市,八坂町２６番３７号２０１号室,,27,215,5720838,,,,,,,2021-10-06,1,,,,,ラフィーネ,0
2978,8120101064404,新規,0,2021-10-06,2021-10-06,株式会社ブルズ,,株式会社,大阪府,堺市美原区,多治井４９１番地６,,27,147,5870012,,,,,,,2021-10-06,1,,,,,ブルズ,0
2979,8120101064445,新規,0,2021-10-06,2021-10-06,株式会社Ｙ’ｓ　ｔｒｕｓｔ,,株式会社,大阪府,堺市東区,高松８６番地ヴィスタシア１０１号,,27,143,5998121,,,,,,,2021-10-06,1,,,,,ワイズトラスト,0
2981,8120901044976,新規,0,2021-10-06,2021-10-06,リボンマーケティングジャパン株式会社,,株式会社,大阪府,豊中市,南桜塚２丁目５番２０－７０２号,,27,203,5610882,,,,,,,2021-10-06,1,,,,,リボンマーケティングジャパン,0
2982,8120901044992,新規,0,2021-10-06,2021-10-06,株式会社グラン・イルホーム,,株式会社,大阪府,池田市,住吉１丁目１６番５－４０５号,,27,204,5630033,,,,,,,2021-10-06,1,,,,,グランイルホーム,0
2983,8120901045009,新規,0,2021-10-06,2021-10-06,株式会社アンジュ,,株式会社,大阪府,豊中市,本町３丁目６番１２号,,27,203,5600021,,,,,,,2021-10-06,1,,,,,アンジュ,0
2984,8120901045017,新規,0,2021-10-06,2021-10-06,株式会社プラスチックヨネダ,,株式会社,大阪府,豊中市,清風荘２丁目４番３１号,,27,203,5600041,,,,,,,2021-10-06,1,,,,,プラスチックヨネダ,0
2985,8120903003848,新規,0,2021-10-06,2021-10-06,合同会社リブート,,合同会社,大阪府,豊中市,服部本町１丁目５番７の２号,,27,203,5610852,,,,,,,2021-10-06,1,,,,,リブート,0
2988,8122001035253,新規,0,2021-10-06,2021-10-06,株式会社ＰＨＯＥＮＩＸ,,株式会社,大阪府,東大阪市,長瀬町１丁目１５番５号,,27,227,5770832,,,,,,,2021-10-06,1,,,,,フェニックス,0
2991,8130001070245,新規,0,2021-10-06,2021-10-06,株式会社にし川,,株式会社,京都府,京都市中京区,丸太町通堀川東入丸太町３３,,26,104,6040077,,,,,,,2021-10-06,1,,,,,ニシカワ,0
2992,8130001070278,新規,0,2021-10-06,2021-10-06,株式会社黒金興業,,株式会社,京都府,京田辺市,薪茶屋前１０番地１０－１階,,26,211,6100341,,,,,,,2021-10-06,1,,,,,クロガネコウギョウ,0
2994,8130003007534,新規,0,2021-10-06,2021-10-06,トライデントアドバイザーズ合同会社,,合同会社,京都府,京都市中京区,西ノ京中御門東町７０番地,,26,104,6048471,,,,,,,2021-10-06,1,,,,,トライデントアドバイザーズ,0
3002,8140001123299,新規,0,2021-10-06,2021-10-06,株式会社ＭＫ工業,,株式会社,兵庫県,尼崎市,武庫の里１丁目７番１８号,,28,202,6610041,,,,,,,2021-10-06,1,,,,,エムケイコウギョウ,0
3003,8140001123308,新規,0,2021-10-06,2021-10-06,株式会社クラスアーク,,株式会社,兵庫県,尼崎市,東難波町３丁目２２番３０号コーラクビル３Ｆ南,,28,202,6600892,,,,,,,2021-10-06,1,,,,,クラスアーク,0
3004,8140001123324,新規,0,2021-10-06,2021-10-06,神戸海洋技術株式会社,,株式会社,兵庫県,神戸市中央区,浪花町５９番地,,28,110,6500035,,,,,,,2021-10-06,1,,,,,コウベカイヨウギジュツ,0
3005,8140001123332,新規,0,2021-10-06,2021-10-06,株式会社営繕はせ川,,株式会社,兵庫県,神戸市西区,美穂が丘２丁目９－２５,,28,111,6512216,,,,,,,2021-10-06,1,,,,,エイゼンハセガワ,0
3006,8140001123349,新規,0,2021-10-06,2021-10-06,株式会社ＳＩＮＢＡ,,株式会社,兵庫県,尼崎市,神田中通３丁目３０番地グラン・ノアールビル３０２号室,,28,202,6600884,,,,,,,2021-10-06,1,,,,,シンバ,0
3009,8140003016823,新規,0,2021-10-06,2021-10-06,イエネコ工務店合同会社,,合同会社,兵庫県,宝塚市,南ひばりガ丘３丁目２７－１３,,28,214,6650811,,,,,,,2021-10-06,1,,,,,イエネココウムテン,0
3012,8140005025847,新規,0,2021-10-06,2021-10-06,一般社団法人ＥＬＩＴＥ,,その他の設立登記法人,兵庫県,伊丹市,瑞ケ丘１丁目１６番地ウィステリアハイツ３０１号,,28,207,6640017,,,,,,,2021-10-06,1,,,,,エリート,0
3014,8150001024967,新規,0,2021-10-06,2021-10-06,株式会社ライズ,,株式会社,奈良県,橿原市,地黄町６７番地の６,,29,205,6340805,,,,,,,2021-10-06,1,,,,,ライズ,0
3017,8160005010995,新規,0,2021-10-06,2021-10-06,一般社団法人しふく福祉人材協会,,その他の設立登記法人,滋賀県,草津市,志那中町１０２番地１,,25,206,5250006,,,,,,,2021-10-06,1,,,,,シフクフクシジンザイキョウカイ,0
3018,8170001016806,新規,0,2021-10-06,2021-10-06,ＡＩ商事株式会社,,株式会社,和歌山県,有田市,初島町里１９８８番地の６,,30,204,6490307,,,,,,,2021-10-06,1,,,,,エーアイ,0
3026,8180001148029,新規,0,2021-10-06,2021-10-06,株式会社Ｃｈａｒｍ,,株式会社,愛知県,名古屋市中村区,名駅５丁目１６－１７,,23,105,4500002,,,,,,,2021-10-06,1,,,,,チャーム,0
3027,8180001148078,新規,0,2021-10-06,2021-10-06,株式会社ＡＫＳＰ,,株式会社,愛知県,名古屋市中川区,法華２丁目６４番地,,23,110,4540933,,,,,,,2021-10-06,1,,,,,エーケーエスピー,0
3028,8180001148094,新規,0,2021-10-06,2021-10-06,株式会社エルアイエフ,,株式会社,愛知県,名古屋市緑区,水広１丁目１０１番地－３０１号,,23,114,4580848,,,,,,,2021-10-06,1,,,,,エルアイエフ,0
3029,8180001148177,新規,0,2021-10-06,2021-10-06,株式会社ＳＱＵＡＤ,,株式会社,愛知県,一宮市,大和町妙興寺字出町前７５番地１,,23,203,4910922,,,,,,,2021-10-06,1,,,,,スクワッド,0
3039,8190001028741,新規,0,2021-10-06,2021-10-06,株式会社スマイルデンタルラボ,,株式会社,三重県,桑名市,大字東汰上５５５番地１,,24,205,5110806,,,,,,,2021-10-06,1,,,,,スマイルデンタルラボ,0
3040,8190001028758,新規,0,2021-10-06,2021-10-06,株式会社岡田会計グループ,,株式会社,三重県,四日市市,中部１７番６号,,24,202,5100082,,,,,,,2021-10-06,1,,,,,オカダカイケイグループ,0
3044,8200001039217,新規,0,2021-10-06,2021-10-06,株式会社リーチ,,株式会社,岐阜県,可児市,土田３４９２番地１,,21,214,5090206,,,,,,,2021-10-06,1,,,,,リーチ,0
3045,8200001039241,新規,0,2021-10-06,2021-10-06,株式会社美誠社,,株式会社,岐阜県,羽島市,竹鼻町２７７０番地１,,21,209,5016241,,,,,,,2021-10-06,1,,,,,ビセイシャ,0
3046,8200001039258,新規,0,2021-10-06,2021-10-06,株式会社パタータドルチェ,,株式会社,岐阜県,岐阜市,長森細畑１８３１番地,,21,201,5008247,,,,,,,2021-10-06,1,,,,,パタータドルチェ,0
3047,8200001039266,新規,0,2021-10-06,2021-10-06,株式会社ＯＣＥＡＮ,,株式会社,岐阜県,土岐市,泉町河合３４４番地,,21,212,5095101,,,,,,,2021-10-06,1,,,,,オーシャン,0
3048,8200001039274,新規,0,2021-10-06,2021-10-06,株式会社デリカデイ,,株式会社,岐阜県,羽島市,正木町坂丸３丁目２６番地２,,21,209,5016229,,,,,,,2021-10-06,1,,,,,デリカデイ,0
3050,8210001018632,新規,0,2021-10-06,2021-10-06,藤本テキスタイル株式会社,,株式会社,福井県,福井市,上野本町４丁目１１３番地,,18,201,9100134,,,,,,,2021-10-06,1,,,,,フジモトテキスタイル,0
3051,8210001018640,新規,0,2021-10-06,2021-10-06,株式会社ＨＡＳＨＵ,,株式会社,福井県,大野市,本町１０－２１,,18,205,9120025,,,,,,,2021-10-06,1,,,,,ハシュ,0
3063,8240001058709,新規,0,2021-10-06,2021-10-06,株式会社建塗,,株式会社,広島県,大竹市,元町２丁目１０番１０号,,34,211,7390615,,,,,,,2021-10-06,1,,,,,ケント,0
3064,8240001058725,新規,0,2021-10-06,2021-10-06,株式会社ワイエムワークス,,株式会社,広島県,広島市安佐北区,口田５丁目３１番７号,,34,106,7391734,,,,,,,2021-10-06,1,,,,,ワイエムワークス,0
3065,8240001058733,新規,0,2021-10-06,2021-10-06,株式会社ＬＡＳＴ　ＡＬＬＹ,,株式会社,広島県,呉市,安浦町内海北２丁目５番３６号,,34,202,7372518,,,,,,,2021-10-06,1,,,,,ラストアリー,0
3071,8240003005304,新規,0,2021-10-06,2021-10-06,レスカ合同会社,,合同会社,広島県,広島市西区,三滝本町１丁目２７番２－４０１号,,34,104,7330802,,,,,,,2021-10-06,1,,,,,レスカ,0
3073,8240005015284,新規,0,2021-10-06,2021-10-06,社会保険労務士法人ウィスト,,その他の設立登記法人,広島県,広島市中区,大手町４丁目３番１７号,,34,101,7300051,,,,,,,2021-10-06,1,,,,,ウィスト,0
3076,8250001019172,新規,0,2021-10-06,2021-10-06,株式会社テリオス,,株式会社,山口県,下関市,綾羅木本町７丁目１８番１－１０５号,,35,201,7510849,,,,,,,2021-10-06,1,,,,,テリオス,0
3081,8260001036051,新規,0,2021-10-06,2021-10-06,株式会社ジェイ・イー・ティ・アグリ,,株式会社,岡山県,浅口郡里庄町,大字新庄字金山６０７８番,,33,445,7190302,,,,,,,2021-10-06,1,,,,,ジェイイーティアグリ,0
3093,8290005018381,新規,0,2021-10-06,2021-10-06,一般社団法人ＳＶＩ推進協議会,,その他の設立登記法人,福岡県,糸島市,志摩馬場８４６番地２,,40,230,8191305,,,,,,,2021-10-06,1,,,,,エスブイアイスイシンキョウギカイ,0
3094,8290801027858,新規,0,2021-10-06,2021-10-06,株式会社大英エステート,,株式会社,福岡県,北九州市八幡西区,下上津役４丁目１番６号,,40,109,8070075,,,,,,,2021-10-06,1,,,,,ダイエイエステート,0
3095,8290801027890,新規,0,2021-10-06,2021-10-06,株式会社蒼建,,株式会社,福岡県,北九州市八幡西区,馬場山西９番７号,,40,109,8071132,,,,,,,2021-10-06,1,,,,,ソウケン,0
3096,8310001017517,新規,0,2021-10-06,2021-10-06,株式会社ＲＡＮＫ,,株式会社,長崎県,諫早市,多良見町化屋１２３５番地９片山ＡＰＴ２Ｆ,,42,204,8590401,,,,,,,2021-10-06,1,,,,,ランク,0
3101,8330003009072,新規,0,2021-10-06,2021-10-06,合同会社Ｍ＆Ｔ,,合同会社,熊本県,玉名市,玉名１７８９番地１,,43,206,8650005,,,,,,,2021-10-06,1,,,,,エムアンドティ,0
3104,8340003003578,新規,0,2021-10-06,2021-10-06,合同会社メディビータ,,合同会社,鹿児島県,鹿児島市,薬師２丁目２５番７号,,46,201,8900042,,,,,,,2021-10-06,1,,,,,メディビータ,0
3105,8350001017348,新規,0,2021-10-06,2021-10-06,株式会社Ｆ．ＪＵＭＰＭＡＮ,,株式会社,宮崎県,都城市,下長飯町４９４番地２,,45,202,8850061,,,,,,,2021-10-06,1,,,,,エフジャンプマン,0
3106,8360001029466,新規,0,2021-10-06,2021-10-06,株式会社ＡＫＡＨＩＲＯ,,株式会社,沖縄県,島尻郡南風原町,字津嘉山１２７７番地１２セゾンライト津嘉山１Ｆ,,47,350,9011117,,,,,,,2021-10-06,1,,,,,アカヒロ,0
3107,8360001029474,新規,0,2021-10-06,2021-10-06,株式会社ＵＢ　Ｄａｔａｔｅｃｈ,,株式会社,沖縄県,宜野湾市,大山７丁目１０番１４号,,47,205,9012223,,,,,,,2021-10-06,1,,,,,ユービーデータテック,0
3109,8360003011488,新規,0,2021-10-06,2021-10-06,合同会社ニューキャッスルプロジェクト,,合同会社,沖縄県,宮古島市,平良字西里３３３番地１,,47,214,9060012,,,,,,,2021-10-06,1,,,,,ニューキャッスルプロジェクト,0
3110,8360005006528,新規,0,2021-10-06,2021-10-06,一般社団法人ごちゃまぜ沖縄,,その他の設立登記法人,沖縄県,那覇市,首里大名町１丁目２５６番地,,47,201,9030802,,,,,,,2021-10-06,1,,,,,ゴチャマゼオキナワ,0
3113,8370001047665,新規,0,2021-10-06,2021-10-06,株式会社仙台林業,,株式会社,宮城県,仙台市太白区,日本平３９番１０号,,04,104,9820221,,,,,,,2021-10-06,1,,,,,センダイリンギョウ,0
3114,8370001047681,新規,0,2021-10-06,2021-10-06,Ｙｅｓｍａｒｔ東北株式会社,,株式会社,宮城県,柴田郡大河原町,字新桜町２番地１１,,04,321,9891274,,,,,,,2021-10-06,1,,,,,イエスマートトウホク,0
3119,8380001032237,新規,0,2021-10-06,2021-10-06,株式会社クロパス,,株式会社,福島県,西白河郡泉崎村,大字関和久字瀬知房１８番地,,07,464,9690102,,,,,,,2021-10-06,1,,,,,クロパス,0
3122,8390001016610,新規,0,2021-10-06,2021-10-06,株式会社エクシア,,株式会社,山形県,東村山郡山辺町,緑ケ丘６丁目２番地５,,06,301,9900302,,,,,,,2021-10-06,1,,,,,エクシア,0
3123,8390001016627,新規,0,2021-10-06,2021-10-06,株式会社斎藤左官,,株式会社,山形県,南陽市,三間通８番地の１,,06,213,9992232,,,,,,,2021-10-06,1,,,,,サイトウサカン,0
3131,8410003003579,新規,0,2021-10-06,2021-10-06,Ｑｕｅｅｎ　ｃｌｅｏｐａｔｒａ７合同会社,,合同会社,秋田県,秋田市,山王新町２番１７号中田第一マンション３０２,,05,201,0100952,,,,,,,2021-10-06,1,,,,,クイーンクレオパトラセブン,0
3133,8420001017613,新規,0,2021-10-06,2021-10-06,株式会社河村工業,,株式会社,青森県,八戸市,大字尻内町字尻内河原５１番地７,,02,203,0391101,,,,,,,2021-10-06,1,,,,,カワムラコウギョウ,0
3135,8430001085080,新規,0,2021-10-06,2021-10-06,株式会社Ｒｉｌａｓｓａ,,株式会社,北海道,札幌市西区,平和二条３丁目５番７号,,01,107,0630022,,,,,,,2021-10-06,1,,,,,リラッサ,0
3136,8430001085089,新規,0,2021-10-06,2021-10-06,株式会社Ａｓｓｉｓｔ,,株式会社,北海道,夕張郡長沼町,西６線南５番地,,01,428,0691476,,,,,,,2021-10-06,1,,,,,アシスト,0
3137,8430001085106,新規,0,2021-10-06,2021-10-06,縁ｅｎ株式会社,,株式会社,北海道,札幌市白石区,南郷通１５丁目北３番２７号,,01,104,0030023,,,,,,,2021-10-06,1,,,,,エン,0
3139,8450001013502,新規,0,2021-10-06,2021-10-06,株式会社蛯天,,株式会社,北海道,深川市,三条９番７号,,01,228,0740003,,,,,,,2021-10-06,1,,,,,エビテン,0
3143,8470003002047,新規,0,2021-10-06,2021-10-06,合同会社ＡＳＡ牟礼,,合同会社,香川県,高松市,牟礼町牟礼１１５７番地１,,37,201,7610121,,,,,,,2021-10-06,1,,,,,エイエスエイムレ,0
3151,8490005006804,新規,0,2021-10-06,2021-10-06,特定非営利活動法人高知県ウオーキング協会,,その他の設立登記法人,高知県,高知市,入明町７番７セブンシーズ入明４１３号室,,39,201,7800041,,,,,,,2021-10-06,1,,,,,コウチケンウォーキングキョウカイ,0
3152,8500001023727,新規,0,2021-10-06,2021-10-06,株式会社エフト,,株式会社,愛媛県,八幡浜市,保内町喜木１番耕地７８３番地,,38,204,7960111,,,,,,,2021-10-06,1,,,,,エフト,0
3160,8700150105082,新規,0,2021-10-06,2021-10-06,長野県機械工業企業年金基金,,その他,長野県,松本市,大手３丁目６－２０,,20,202,3900874,,,,,,,2021-10-06,1,,,,,ナガノケンキカイコウギヨウキギヨウネンキンキキン,0
3161,8700150105090,新規,0,2021-10-06,2021-10-06,秋田県自動車販売企業年金基金,,その他,秋田県,秋田市,八橋大畑２丁目１２番５５号,,05,201,0100962,,,,,,,2021-10-06,1,,,,,アキタケンジドウシヤハンバイキギヨウネンキンキキン,0
3169,9010001221429,新規,0,2021-10-06,2021-10-06,株式会社Ａｒａｂｉｒｔｈ,,株式会社,東京都,中央区,銀座１丁目１２－４Ｎ＆Ｅ、ＢＬＤ．７階,,13,102,1040061,,,,,,,2021-10-06,1,,,,,アラバス,0
3170,9010001221544,新規,0,2021-10-06,2021-10-06,株式会社Ｃｌｕｔｃｈ,,株式会社,東京都,文京区,本郷４丁目１４番１０号プライムメゾン本郷８０４,,13,105,1130033,,,,,,,2021-10-06,1,,,,,クラッチ,0
3171,9010001221585,新規,0,2021-10-06,2021-10-06,ＳＪフューチャーホールディングス株式会社,,株式会社,東京都,千代田区,内幸町２丁目１番１号,,13,101,1000011,,,,,,,2021-10-06,1,,,,,エスジェイフューチャーホールディングス,0
3172,9010001221593,新規,0,2021-10-06,2021-10-06,株式会社ＫＡＮＮＡ　ＰＬＡＣＥ,,株式会社,東京都,中央区,日本橋本町２丁目７番地１,,13,102,1030023,,,,,,,2021-10-06,1,,,,,カンナプレイス,0
3173,9010001221610,新規,0,2021-10-06,2021-10-06,株式会社絵本の城,,株式会社,東京都,中央区,銀座１丁目２２番１１号銀座大竹ビジデンス２階,,13,102,1040061,,,,,,,2021-10-06,1,,,,,エホンノシロ,0
3176,9010003035950,新規,0,2021-10-06,2021-10-06,合同会社Ｓｕｎｔａ　Ｌｉｆｅ,,合同会社,東京都,中央区,銀座１丁目２２番１１号銀座大竹ビジデンス２階,,13,102,1040061,,,,,,,2021-10-06,1,,,,,サンタライフ,0
3177,9010003035959,新規,0,2021-10-06,2021-10-06,電話秘書代行合同会社,,合同会社,東京都,文京区,千石４丁目４４番８号,,13,105,1120011,,,,,,,2021-10-06,1,,,,,デンワヒショダイコウ,0
3178,9010003035967,新規,0,2021-10-06,2021-10-06,Ｒｏｕｎｄ　Ｇｌｏｂａｌ合同会社,,合同会社,東京都,文京区,小石川３丁目３５番１５号,,13,105,1120002,,,,,,,2021-10-06,1,,,,,ラウンドグローバル,0
3179,9010005034026,新規,0,2021-10-06,2021-10-06,司法書士法人アレクシア,,その他の設立登記法人,東京都,中央区,京橋２丁目１１番５号パインセントラルビル６階,,13,102,1040031,,,,,,,2021-10-06,1,,,,,アレクシア,0
3186,9010401162982,新規,0,2021-10-06,2021-10-06,ＨＥＲＭＥ株式会社,,株式会社,東京都,港区,芝４丁目７－６芝ビルディング７０４,,13,103,1080014,,,,,,,2021-10-06,1,,,,,エルメ,0
3187,9010401163015,新規,0,2021-10-06,2021-10-06,ココナッツ株式会社,,株式会社,東京都,港区,六本木７丁目１４番２３号４階,,13,103,1060032,,,,,,,2021-10-06,1,,,,,ココナッツ,0
3188,9010401163048,新規,0,2021-10-06,2021-10-06,株式会社ＳｏＤａｙｏｎｅ,,株式会社,東京都,港区,麻布狸穴町６２番地の３,,13,103,1060042,,,,,,,2021-10-06,1,,,,,ソウダヨネ,0
3189,9010401163064,新規,0,2021-10-06,2021-10-06,株式会社ケン横浜ＳＡマネジメント,,株式会社,東京都,港区,西麻布１丁目２番７号,,13,103,1060031,,,,,,,2021-10-06,1,,,,,ケンヨコハマエスエーマネジメント,0
3192,9010403026244,新規,0,2021-10-06,2021-10-06,合同会社ＳＡＭＵＲＡＩ１６,,合同会社,東京都,港区,赤坂２丁目１０番５号税理士法人赤坂国際会計事務所内,,13,103,1070052,,,,,,,2021-10-06,1,,,,,サムライシックスティーン,0
3193,9010405020261,新規,0,2021-10-06,2021-10-06,一般社団法人頭領,,その他の設立登記法人,東京都,港区,南青山２丁目２２番１４－７０２号,,13,103,1070062,,,,,,,2021-10-06,1,,,,,トウリョウ,0
3194,9010501047902,新規,0,2021-10-06,2021-10-06,株式会社プライスタグ,,株式会社,東京都,台東区,東浅草１丁目１０番地８号伊藤ビル１Ｆ,,13,106,1110025,,,,,,,2021-10-06,1,,,,,プライスタグ,0
3195,9010501047910,新規,0,2021-10-06,2021-10-06,株式会社日本Ｇｅｏｔｅｃｈｎｏｌｏｇｙ,,株式会社,東京都,台東区,千束２丁目２２番６号,,13,106,1110031,,,,,,,2021-10-06,1,,,,,ニッポンジオテクノロジー,0
3205,9010701041606,新規,0,2021-10-06,2021-10-06,株式会社リフトアップ,,株式会社,東京都,品川区,南品川２丁目２番５号,,13,109,1400004,,,,,,,2021-10-06,1,,,,,リフトアップ,0
3206,9010801032372,新規,0,2021-10-06,2021-10-06,ＴＩＰＳ株式会社,,株式会社,東京都,大田区,北馬込１丁目３２番３号,,13,111,1430021,,,,,,,2021-10-06,1,,,,,ティップス,0
3207,9010901049548,新規,0,2021-10-06,2021-10-06,株式会社スポーツ＆テクノロジーズ,,株式会社,東京都,世田谷区,深沢２丁目１番７－４０８号,,13,112,1580081,,,,,,,2021-10-06,1,,,,,スポーツアンドテクノロジーズ,0
3208,9010901049564,新規,0,2021-10-06,2021-10-06,株式会社岡田工務店,,株式会社,東京都,世田谷区,深沢１丁目４１番１３号,,13,112,1580081,,,,,,,2021-10-06,1,,,,,オカダコウムテン,0
3210,9010903006860,新規,0,2021-10-06,2021-10-06,合同会社ｓｃｅｎｅ２,,合同会社,東京都,世田谷区,松原３丁目２番１４号,,13,112,1560043,,,,,,,2021-10-06,1,,,,,シーンツー,0
3215,9011001143200,新規,0,2021-10-06,2021-10-06,株式会社スタイル,,株式会社,東京都,渋谷区,神宮前６丁目２３番４号桑野ビル２階,,13,113,1500001,,,,,,,2021-10-06,1,,,,,スタイル,0
3216,9011001143225,新規,0,2021-10-06,2021-10-06,株式会社ＳＯＴ,,株式会社,東京都,渋谷区,恵比寿１丁目１５番９号日宝恵比寿ビル４０３,,13,113,1500013,,,,,,,2021-10-06,1,,,,,エスオーティー,0
3217,9011001143241,新規,0,2021-10-06,2021-10-06,株式会社Ｒ,,株式会社,東京都,渋谷区,桜丘町１６番１４号ドルチェ渋谷５階,,13,113,1500031,,,,,,,2021-10-06,1,,,,,アール,0
3232,9011101096505,新規,0,2021-10-06,2021-10-06,株式会社ＹＫサービス,,株式会社,東京都,新宿区,新宿５丁目１８番２０号ルックハイツ新宿８０３号,,13,104,1600022,,,,,,,2021-10-06,1,,,,,ワイケーサービス,0
3235,9011103011057,新規,0,2021-10-06,2021-10-06,合同会社Ｍｔ　Ｓｏｕｔｈ,,合同会社,東京都,新宿区,上落合２丁目８番９号,,13,104,1610034,,,,,,,2021-10-06,1,,,,,エムティーサウス,0
3236,9011103011065,新規,0,2021-10-06,2021-10-06,亜百商事合同会社,,合同会社,東京都,新宿区,西新宿７丁目１番７号新宿ダイカンプラザＡ１０１８,,13,104,1600023,,,,,,,2021-10-06,1,,,,,アヒャクショウジ,0
3238,9011301027227,新規,0,2021-10-06,2021-10-06,株式会社健康生活工房,,株式会社,東京都,杉並区,高井戸西１丁目３３番１１号コハセビル,,13,115,1680071,,,,,,,2021-10-06,1,,,,,ケンコウセイカツコウボウ,0
3239,9011501027316,新規,0,2021-10-06,2021-10-06,株式会社ＭＫＹ,,株式会社,東京都,荒川区,町屋８丁目２番６号,,13,118,1160001,,,,,,,2021-10-06,1,,,,,エムケーワイ,0
3240,9011501027340,新規,0,2021-10-06,2021-10-06,株式会社一嵐青菓,,株式会社,東京都,北区,滝野川７丁目９番１１－４０１号,,13,117,1140023,,,,,,,2021-10-06,1,,,,,イチランセイカ,0
3241,9011503004916,新規,0,2021-10-06,2021-10-06,合名会社エム・グローリア,,合名会社,東京都,北区,滝野川６丁目８番７号,,13,117,1140023,,,,,,,2021-10-06,1,,,,,エムグローリア,0
3244,9011701024749,新規,0,2021-10-06,2021-10-06,株式会社ＭＡＳＩＲＡ,,株式会社,東京都,江戸川区,北小岩５丁目３１番６号グリーンハイツ,,13,123,1330051,,,,,,,2021-10-06,1,,,,,マシラ,0
3245,9011701024757,新規,0,2021-10-06,2021-10-06,株式会社ＪＳＹ,,株式会社,東京都,江戸川区,北小岩５丁目４－１７,,13,123,1330051,,,,,,,2021-10-06,1,,,,,ジェーエスワイ,0
3246,9011703002959,新規,0,2021-10-06,2021-10-06,Ｙ．Ｙｌｉｆｅｓｔｙｌｅ合同会社,,合同会社,東京都,江戸川区,松江７丁目１５番１４号,,13,123,1320025,,,,,,,2021-10-06,1,,,,,ワイワイライフスタイル,0
3253,9011801039762,新規,0,2021-10-06,2021-10-06,株式会社ＡＰＥＸ,,株式会社,東京都,足立区,中央本町４丁目１１番３０号ステラ２０１,,13,121,1210011,,,,,,,2021-10-06,1,,,,,アペックス,0
3255,9011803004814,新規,0,2021-10-06,2021-10-06,Ｇ．Ｐ．マネージメント合同会社,,合同会社,東京都,足立区,扇１丁目１５番７ルフォン扇大橋８０３号,,13,121,1230873,,,,,,,2021-10-06,1,,,,,ジーピーマネージメント,0
3259,9012401038378,新規,0,2021-10-06,2021-10-06,株式会社むすび,,株式会社,東京都,三鷹市,下連雀３丁目９番１０号コスモ三鷹エクセラ１０１,,13,204,1810013,,,,,,,2021-10-06,1,,,,,ムスビ,0
3263,9012801021132,新規,0,2021-10-06,2021-10-06,株式会社ヒライ,,株式会社,東京都,東大和市,向原６丁目１２０１番地の１０６,,13,220,2070013,,,,,,,2021-10-06,1,,,,,ヒライ,0
3269,9013301048095,新規,0,2021-10-06,2021-10-06,Ｔ．Ｉ．Ｃ株式会社,,株式会社,東京都,豊島区,池袋３丁目３４番７号ビジネスパーク２階,,13,116,1710014,,,,,,,2021-10-06,1,,,,,ティーアイシー,0
3270,9013301048104,新規,0,2021-10-06,2021-10-06,株式会社ステップアウト,,株式会社,東京都,豊島区,南池袋１丁目１６番１５号,,13,116,1710022,,,,,,,2021-10-06,1,,,,,ステップアウト,0
3277,9020001143201,新規,0,2021-10-06,2021-10-06,テクノジャパン株式会社,,株式会社,神奈川県,川崎市多摩区,菅馬場１丁目２５番２７号,,14,135,2140004,,,,,,,2021-10-06,1,,,,,テクノジャパン,0
3278,9020001143267,新規,0,2021-10-06,2021-10-06,株式会社Ｌｅｅｎｄｅ,,株式会社,神奈川県,横浜市旭区,中希望が丘６４－１３３コートタウン１０１,,14,112,2410825,,,,,,,2021-10-06,1,,,,,リーエンダ,0
3279,9020001143283,新規,0,2021-10-06,2021-10-06,株式会社彩希水産,,株式会社,神奈川県,川崎市多摩区,南生田６丁目３３番９号,,14,135,2140036,,,,,,,2021-10-06,1,,,,,サイキスイサン,0
3280,9020001143291,新規,0,2021-10-06,2021-10-06,株式会社ＲｅｎｏＦｉｔ,,株式会社,神奈川県,横浜市青葉区,榎が丘５６番地２５,,14,117,2270063,,,,,,,2021-10-06,1,,,,,リノフィット,0
3281,9020001143309,新規,0,2021-10-06,2021-10-06,株式会社ヌビア,,株式会社,神奈川県,横浜市青葉区,藤が丘２丁目１番７号横山ビル２Ｆ,,14,117,2270043,,,,,,,2021-10-06,1,,,,,ヌビア,0
3282,9020001143325,新規,0,2021-10-06,2021-10-06,株式会社ＮＲ企画,,株式会社,神奈川県,横浜市都筑区,折本町４８４番地１Ｆ,,14,118,2240043,,,,,,,2021-10-06,1,,,,,エヌアールキカク,0
3283,9020001143358,新規,0,2021-10-06,2021-10-06,株式会社ボロミアンリング,,株式会社,神奈川県,川崎市多摩区,登戸３２３１番地メゾンベリテ１０２,,14,135,2140014,,,,,,,2021-10-06,1,,,,,ボロミアンリング,0
3285,9020003020588,新規,0,2021-10-06,2021-10-06,ＯＣＴＡＬＥＡ合同会社,,合同会社,神奈川県,川崎市宮前区,鷺沼４丁目１４－２ドレッセ鷺沼の杜プライムフォレストＣ－６０４,,14,136,2160004,,,,,,,2021-10-06,1,,,,,オクタレア,0
3286,9020003020596,新規,0,2021-10-06,2021-10-06,イーケーオフィス合同会社,,合同会社,神奈川県,川崎市宮前区,犬蔵２丁目５番３－７０９号,,14,136,2160011,,,,,,,2021-10-06,1,,,,,イーケーオフィス,0
3287,9021001074122,新規,0,2021-10-06,2021-10-06,バス窓ホールディングス株式会社,,株式会社,神奈川県,相模原市緑区,橋本８丁目１６番３－１０２号,,14,151,2520143,,,,,,,2021-10-06,1,,,,,バスマドホールディングス,0
3290,9021003010950,新規,0,2021-10-06,2021-10-06,合同会社ＨＡＮＩＭＯ,,合同会社,神奈川県,小田原市,久野７０７番地,,14,206,2500055,,,,,,,2021-10-06,1,,,,,ハニモ,0
3295,9030001144578,新規,0,2021-10-06,2021-10-06,株式会社６０９,,株式会社,埼玉県,草加市,瀬崎７丁目２番９号,,11,221,3400022,,,,,,,2021-10-06,1,,,,,ロクマルキュウ,0
3296,9030001144603,新規,0,2021-10-06,2021-10-06,株式会社彩硝子工事,,株式会社,埼玉県,草加市,旭町５丁目１２番２２号,,11,221,3400053,,,,,,,2021-10-06,1,,,,,サイガラスコウジ,0
3297,9030001144628,新規,0,2021-10-06,2021-10-06,株式会社越谷レイクタウン観光バス,,株式会社,埼玉県,越谷市,大成町６丁目４２２番地１９,,11,222,3430825,,,,,,,2021-10-06,1,,,,,コシガヤレイクタウンカンコウバス,0
3298,9030001144636,新規,0,2021-10-06,2021-10-06,株式会社カーショップリング,,株式会社,埼玉県,春日部市,東中野８１２番地７,,11,214,3440114,,,,,,,2021-10-06,1,,,,,カーショップリング,0
3299,9030001144669,新規,0,2021-10-06,2021-10-06,株式会社Ｍｅｅｖｏ,,株式会社,埼玉県,さいたま市浦和区,仲町２丁目５番１号Ｂ１Ｆ,,11,107,3300062,,,,,,,2021-10-06,1,,,,,ミーボ,0
3300,9030001144685,新規,0,2021-10-06,2021-10-06,介護ＭＭＴサービス株式会社,,株式会社,埼玉県,深谷市,上野台１９６７番地５,,11,218,3660801,,,,,,,2021-10-06,1,,,,,カイゴエムエムティーサービス,0
3301,9030001144693,新規,0,2021-10-06,2021-10-06,株式会社ＩＤＥＡ　ｏｕ,,株式会社,埼玉県,所沢市,大字久米１８７６番地の１エステートしんめい２－１０１,,11,208,3591131,,,,,,,2021-10-06,1,,,,,イデアオウ,0
3302,9030001144702,新規,0,2021-10-06,2021-10-06,株式会社Ｒｏｏｔｓ,,株式会社,埼玉県,上尾市,宮本町６番４号,,11,219,3620036,,,,,,,2021-10-06,1,,,,,ルーツ,0
3305,9030003018053,新規,0,2021-10-06,2021-10-06,ＲＩＴＡ合同会社,,合同会社,埼玉県,ふじみ野市,南台２丁目１１－１７,,11,245,3560036,,,,,,,2021-10-06,1,,,,,リタ,0
3306,9030003018086,新規,0,2021-10-06,2021-10-06,合同会社ＳＣＯＯＰ,,合同会社,埼玉県,秩父市,荒川日野５０８,,11,207,3691803,,,,,,,2021-10-06,1,,,,,スコップ,0
3309,9040001120421,新規,0,2021-10-06,2021-10-06,株式会社ラムターン,,株式会社,千葉県,習志野市,大久保１丁目１３番１５号,,12,216,2750011,,,,,,,2021-10-06,1,,,,,ラムターン,0
3310,9040001120470,新規,0,2021-10-06,2021-10-06,株式会社お＿川,00124474,株式会社,千葉県,我孫子市,湖北台３丁目３番２１号,,12,222,2701132,,,,,,,2021-10-06,1,,,,,オガワ,0
3311,9040001120487,新規,0,2021-10-06,2021-10-06,株式会社ＭＯＲＩＴＡ　ＦＡＲＭ,,株式会社,千葉県,流山市,名都借１０９３番地,,12,220,2700145,,,,,,,2021-10-06,1,,,,,モリタファーム,0
3312,9040001120495,新規,0,2021-10-06,2021-10-06,美浜建物管理株式会社,,株式会社,千葉県,浦安市,美浜３丁目３１番８号,,12,227,2790011,,,,,,,2021-10-06,1,,,,,ミハマタテモノカンリ,0
3313,9040003018663,新規,0,2021-10-06,2021-10-06,かがやき設計合同会社,,合同会社,千葉県,船橋市,山野町４１番１－２０３号メゾンベール西船,,12,204,2730026,,,,,,,2021-10-06,1,,,,,カガヤキセッケイ,0
3314,9040003018696,新規,0,2021-10-06,2021-10-06,合同会社セントラルインベストメント２号,,合同会社,千葉県,船橋市,薬円台１丁目３０番１号,,12,204,2740077,,,,,,,2021-10-06,1,,,,,セントラルインベストメントニゴウ,0
3318,9050001049924,新規,0,2021-10-06,2021-10-06,株式会社ＫＡサービス,,株式会社,茨城県,那珂市,本米崎２２２０番地３,,08,226,3110101,,,,,,,2021-10-06,1,,,,,ケーエーサービス,0
3319,9050001049940,新規,0,2021-10-06,2021-10-06,株式会社バディシステム,,株式会社,茨城県,日立市,白銀町２丁目８番２号,,08,202,3170056,,,,,,,2021-10-06,1,,,,,バディシステム,0
3321,9060001034140,新規,0,2021-10-06,2021-10-06,アプリーズ株式会社,,株式会社,栃木県,那須郡那須町,大字高久丙１５６５番地３ロワジール那須高原ハイジ７０８,,09,407,3250302,,,,,,,2021-10-06,1,,,,,アプリーズ,0
3322,9060001034149,新規,0,2021-10-06,2021-10-06,株式会社吉田左官,,株式会社,栃木県,宇都宮市,東木代町８１３番地１７,,09,201,3210916,,,,,,,2021-10-06,1,,,,,ヨシダサカン,0
3323,9060001034157,新規,0,2021-10-06,2021-10-06,株式会社ＪＯＩＮＴ,,株式会社,栃木県,佐野市,越名町１１６６番地１,,09,204,3270822,,,,,,,2021-10-06,1,,,,,ジョイント,0
3324,9060001034165,新規,0,2021-10-06,2021-10-06,アースナガノ株式会社,,株式会社,栃木県,宇都宮市,インターパーク４丁目７番地６,,09,201,3210118,,,,,,,2021-10-06,1,,,,,アースナガノ,0
3331,9070005009906,新規,0,2021-10-06,2021-10-06,一般社団法人ローズヴィレッジ,,その他の設立登記法人,群馬県,桐生市,新里町新川５８４番地３,,10,203,3760121,,,,,,,2021-10-06,1,,,,,ローズヴィレッジ,0
3334,9080101022828,新規,0,2021-10-06,2021-10-06,株式会社ふじ未来サポート,,株式会社,静岡県,富士市,中之郷３１９９番地の１４,,22,210,4213306,,,,,,,2021-10-06,1,,,,,フジミライサポート,0
3337,9080401025398,新規,0,2021-10-06,2021-10-06,株式会社新セーコー,,株式会社,静岡県,浜松市北区,三方原町２１８１番地の１,,22,135,4338105,,,,,,,2021-10-06,1,,,,,シンセーコー,0
3339,9080405007392,新規,0,2021-10-06,2021-10-06,一般社団法人ＨＯＴプロジェクト,,その他の設立登記法人,静岡県,浜松市東区,小池町１３６３番地の１小池ビル２階北,,22,132,4350056,,,,,,,2021-10-06,1,,,,,ホットプロジェクト,0
3341,9090001017225,新規,0,2021-10-06,2021-10-06,込山建材株式会社,,株式会社,山梨県,南アルプス市,榎原８６３番地４１,,19,208,4000204,,,,,,,2021-10-06,1,,,,,コミヤマケンザイ,0
3342,9100001034672,新規,0,2021-10-06,2021-10-06,株式会社ＫＴＢ,,株式会社,長野県,伊那市,西春近５３９３番地２,,20,209,3994431,,,,,,,2021-10-06,1,,,,,ケーティービー,0
3369,9120001240806,新規,0,2021-10-06,2021-10-06,五四七株式会社,,株式会社,大阪府,大阪市浪速区,元町３丁目７番１－９０２号,,27,111,5560016,,,,,,,2021-10-06,1,,,,,ゴヨンシチ,0
3370,9120001240814,新規,0,2021-10-06,2021-10-06,株式会社今下工業,,株式会社,大阪府,大阪市住之江区,南加賀屋２丁目１２番６号,,27,125,5590015,,,,,,,2021-10-06,1,,,,,イマシタコウギョウ,0
3371,9120001240822,新規,0,2021-10-06,2021-10-06,株式会社Ｍ．ｋ．ｄｅｓｉｇｎ,,株式会社,大阪府,大阪市住吉区,苅田８丁目１１番１０号,,27,120,5580011,,,,,,,2021-10-06,1,,,,,エムケイデザイン,0
3372,9120001240839,新規,0,2021-10-06,2021-10-06,株式会社ＺＯＤＩＡＣ　ＰＬＡＮＮＩＮＧ,,株式会社,大阪府,大阪市中央区,難波５丁目１－６０なんばスカイオ２７Ｆ,,27,128,5420076,,,,,,,2021-10-06,1,,,,,ゾディアックプランニング,0
3373,9120001240855,新規,0,2021-10-06,2021-10-06,株式会社光伸,,株式会社,大阪府,大阪市平野区,喜連３丁目６番８号,,27,126,5470027,,,,,,,2021-10-06,1,,,,,コウシン,0
3374,9120001240863,新規,0,2021-10-06,2021-10-06,株式会社Ｅｎｅｒｇｙｓｏｌｕｔｉｏｎ,,株式会社,大阪府,大阪市北区,西天満３丁目１番１３号満州西天満ビル５Ｆ,,27,127,5300047,,,,,,,2021-10-06,1,,,,,エネルギーソリューション,0
3375,9120001240913,新規,0,2021-10-06,2021-10-06,株式会社つむぎ商會,,株式会社,大阪府,大阪市東住吉区,今林２丁目１２－１７,,27,121,5460001,,,,,,,2021-10-06,1,,,,,ツムギショウカイ,0
3376,9120001240938,新規,0,2021-10-06,2021-10-06,株式会社そらいろ,,株式会社,大阪府,大阪市西淀川区,大和田６丁目１１番１７号,,27,113,5550032,,,,,,,2021-10-06,1,,,,,ソライロ,0
3377,9120001240946,新規,0,2021-10-06,2021-10-06,株式会社Ｍａｋｅ　ｉｔ　Ｎｉｃｅ,,株式会社,大阪府,大阪市北区,堂島浜１丁目４番４号アクア堂島フォンターナ３階,,27,127,5300004,,,,,,,2021-10-06,1,,,,,メイクイットナイス,0
3378,9120001240962,新規,0,2021-10-06,2021-10-06,株式会社山口珈琲,,株式会社,大阪府,大阪市西区,北堀江３丁目６－２６－６００３,,27,106,5500014,,,,,,,2021-10-06,1,,,,,ヤマグチコーヒー,0
3379,9120001240979,新規,0,2021-10-06,2021-10-06,株式会社富豚,,株式会社,大阪府,大阪市北区,本庄東２丁目２番３５－５０１号,,27,127,5310074,,,,,,,2021-10-06,1,,,,,トミトン,0
3382,9120003020339,新規,0,2021-10-06,2021-10-06,合同会社Ｌｉｂｒｅ,,合同会社,大阪府,門真市,東江端町１２番２５－６０７号,,27,223,5710008,,,,,,,2021-10-06,1,,,,,リブレ,0
3383,9120003020347,新規,0,2021-10-06,2021-10-06,合同会社ＴＨ商会,,合同会社,大阪府,門真市,新橋町３１番２８号平野マンション１０２号室,,27,223,5710048,,,,,,,2021-10-06,1,,,,,ティーエイチショウカイ,0
3384,9120003020355,新規,0,2021-10-06,2021-10-06,ＧＥＮＫＩＢＲＩＤＧＥ合同会社,,合同会社,大阪府,大阪市北区,長柄東１丁目１番１１－３０２号,,27,127,5310063,,,,,,,2021-10-06,1,,,,,ゲンキブリッジ,0
3386,9120005022531,新規,0,2021-10-06,2021-10-06,社会保険労務士法人ＡｄｊｕｓｔＨＲ,,その他の設立登記法人,大阪府,大阪市中央区,南本町２丁目４番１０号（丸忠第２ビル７０３号室）,,27,128,5410054,,,,,,,2021-10-06,1,,,,,アジャストエイチアール,0
3389,9120101064403,新規,0,2021-10-06,2021-10-06,スペースコム株式会社,,株式会社,大阪府,南河内郡河南町,大字中５７７番地,,27,382,5850031,,,,,,,2021-10-06,1,,,,,スペースコム,0
3390,9120103004381,新規,0,2021-10-06,2021-10-06,合同会社フーチェ,,合同会社,大阪府,堺市中区,深井中町６８０番地１－４０５号,,27,142,5998272,,,,,,,2021-10-06,1,,,,,フーチェ,0
3393,9120901044975,新規,0,2021-10-06,2021-10-06,株式会社ＲＡＤ,,株式会社,大阪府,豊能郡豊能町,東ときわ台８丁目２０番地の７,,27,321,5630103,,,,,,,2021-10-06,1,,,,,ラッド,0
3394,9120901045016,新規,0,2021-10-06,2021-10-06,ＭＯＱＡＲＴ株式会社,,株式会社,大阪府,高槻市,南庄所町１番１号,,27,207,5690063,,,,,,,2021-10-06,1,,,,,モクアート,0
3396,9122001035236,新規,0,2021-10-06,2021-10-06,株式会社高瀬製作所,00124475,株式会社,大阪府,東大阪市,川中５番２４号,,27,227,5780902,,,,,,,2021-10-06,1,,,,,タカセセイサクショ,0
3397,9122001035244,新規,0,2021-10-06,2021-10-06,株式会社橋本製作所,,株式会社,大阪府,東大阪市,渋川町２丁目９番２８号,,27,227,5770836,,,,,,,2021-10-06,1,,,,,ハシモトセイサクショ,0
3398,9122005003585,新規,0,2021-10-06,2021-10-06,税理士法人やの会計事務所,,その他の設立登記法人,大阪府,東大阪市,長田東２丁目１番３３号長田平成ビル７０５号室,,27,227,5770012,,,,,,,2021-10-06,1,,,,,ヤノカイケイジムショ,0
3403,9130001070211,新規,0,2021-10-06,2021-10-06,株式会社ホイスト商事,,株式会社,京都府,久世郡久御山町,野村村東２９１番地２,,26,322,6130023,,,,,,,2021-10-06,1,,,,,ホイストショウジ,0
3404,9130001070228,新規,0,2021-10-06,2021-10-06,株式会社ウェステージ,,株式会社,京都府,京都市中京区,錦小路通室町西入天神山町２８０番地・４階－５７番,,26,104,6048221,,,,,,,2021-10-06,1,,,,,ウェステージ,0
3405,9130001070269,新規,0,2021-10-06,2021-10-06,株式会社ＦｏｒＳａｌｅＤｅｓｉｇｎＩｎｃ．,,株式会社,京都府,宇治市,宇治妙楽１７１－２１,,26,204,6110021,,,,,,,2021-10-06,1,,,,,フォーセールデザインインク,0
3407,9130003007525,新規,0,2021-10-06,2021-10-06,合同会社ベーシック,,合同会社,京都府,京都市北区,上賀茂中大路町１１－２,,26,101,6038075,,,,,,,2021-10-06,1,,,,,ベーシック,0
3408,9130003007533,新規,0,2021-10-06,2021-10-06,合同会社ＦＲＩＥＤＥＮ,,合同会社,京都府,京都市中京区,西ノ京職司町６７番地の５４,,26,104,6048381,,,,,,,2021-10-06,1,,,,,フリーデン,0
3411,9140001123265,新規,0,2021-10-06,2021-10-06,株式会社ミユキ,,株式会社,兵庫県,川辺郡猪名川町,肝川字畦田３２番地,,28,301,6660254,,,,,,,2021-10-06,1,,,,,ミユキ,0
3412,9140001123298,新規,0,2021-10-06,2021-10-06,株式会社中村電設,,株式会社,兵庫県,西宮市,苦楽園一番町７番１７号,,28,204,6620083,,,,,,,2021-10-06,1,,,,,ナカムラデンセツ,0
3413,9140001123315,新規,0,2021-10-06,2021-10-06,ｍｉｃｒｏ　ｄｅｓｉｇｎ株式会社,,株式会社,兵庫県,三木市,志染町東自由が丘１丁目６２８,,28,215,6730553,,,,,,,2021-10-06,1,,,,,マイクロデザイン,0
3414,9140001123372,新規,0,2021-10-06,2021-10-06,株式会社ＷＬ　ＡＵＴＯ,,株式会社,兵庫県,高砂市,春日野町６番１１号,,28,216,6760814,,,,,,,2021-10-06,1,,,,,ワールドオート,0
3417,9140003016822,新規,0,2021-10-06,2021-10-06,ザインクリエイト合同会社,,合同会社,兵庫県,神戸市東灘区,住吉山手５丁目５番１－１０３号,,28,101,6580063,,,,,,,2021-10-06,1,,,,,ザインクリエイト,0
3420,9150001024982,新規,0,2021-10-06,2021-10-06,株式会社Ｈ．Ｓ．Ｂ．ＭＡＮＡＧＥＭＥＮＴ,,株式会社,奈良県,奈良市,学園大和町６丁目７０６番地の１,,29,201,6310041,,,,,,,2021-10-06,1,,,,,エイチエスビーマネージメント,0
3429,9160005010994,新規,0,2021-10-06,2021-10-06,司法書士法人プラスエム,,その他の設立登記法人,滋賀県,米原市,顔戸２００２番地８,,25,214,5210072,,,,,,,2021-10-06,1,,,,,プラスエム,0
3437,9180001148184,新規,0,2021-10-06,2021-10-06,株式会社インテリアシマ,,株式会社,愛知県,名古屋市守山区,向台３丁目２１１０番地,,23,113,4630036,,,,,,,2021-10-06,1,,,,,インテリアシマ,0
3444,9180005019456,新規,0,2021-10-06,2021-10-06,特定非営利活動法人亮と共助の会,,その他の設立登記法人,愛知県,名古屋市千種区,自由ケ丘２丁目８番８号,,23,101,4640044,,,,,,,2021-10-06,1,,,,,リョウトキョウジョノカイ,0
3445,9180005019472,新規,0,2021-10-06,2021-10-06,司法書士法人ロータス法務事務所,,その他の設立登記法人,愛知県,名古屋市名東区,一社２丁目３０番地東名グランドビル,,23,115,4650093,,,,,,,2021-10-06,1,,,,,ロータスホウムジムショ,0
3449,9180301035413,新規,0,2021-10-06,2021-10-06,ＳＢＡＮＴ　ＣＲＡＦＴ株式会社,,株式会社,愛知県,豊田市,扶桑町３丁目７６番地,,23,211,4710009,,,,,,,2021-10-06,1,,,,,サバントクラフト,0
3456,9180305009248,新規,0,2021-10-06,2021-10-06,特定非営利活動法人りすたぁと,,その他の設立登記法人,愛知県,田原市,神戸町東大坪２８番地５,,23,231,4413415,,,,,,,2021-10-06,1,,,,,リスタァト,0
3461,9190001028724,新規,0,2021-10-06,2021-10-06,株式会社ＢＲＡＩＮ　ＧＡＲＤＥＮ,,株式会社,三重県,四日市市,大矢知町１６３８番地１,,24,202,5108034,,,,,,,2021-10-06,1,,,,,ブレインガーデン,0
3462,9190001028749,新規,0,2021-10-06,2021-10-06,株式会社エムスリー,,株式会社,三重県,南牟婁郡御浜町,大字阿田和５１８５番地４,,24,561,5195204,,,,,,,2021-10-06,1,,,,,エムスリー,0
3463,9190003003782,新規,0,2021-10-06,2021-10-06,合同会社太西,,合同会社,三重県,四日市市,釆女町２９９７番地１２２,,24,202,5100954,,,,,,,2021-10-06,1,,,,,タイセイ,0
3465,9200001039224,新規,0,2021-10-06,2021-10-06,大幸化成株式会社,,株式会社,岐阜県,岐阜市,神田町９丁目２７番地,,21,201,5008833,,,,,,,2021-10-06,1,,,,,タイコウカセイ,0
3466,9200001039240,新規,0,2021-10-06,2021-10-06,株式会社鮮魚かねや,,株式会社,岐阜県,海津市,海津町福江５５０番地６,,21,221,5030628,,,,,,,2021-10-06,1,,,,,センギョカネヤ,0
3467,9200001039265,新規,0,2021-10-06,2021-10-06,株式会社ＩＦＳ,,株式会社,岐阜県,多治見市,宝町２丁目４１番地,,21,204,5070054,,,,,,,2021-10-06,1,,,,,アイエフエス,0
3469,9210001018631,新規,0,2021-10-06,2021-10-06,株式会社ＤＥＮＴ　ＬＡＢＯ,,株式会社,福井県,勝山市,片瀬町２丁目２１４番地,,18,206,9110811,,,,,,,2021-10-06,1,,,,,デントラボ,0
3475,9230001019025,新規,0,2021-10-06,2021-10-06,東亜住工株式会社,,株式会社,富山県,富山市,稲代２２２番地３０,,16,201,9392231,,,,,,,2021-10-06,1,,,,,トウアジュウコウ,0
3479,9240001058708,新規,0,2021-10-06,2021-10-06,ＳＥＩＷＡロジスティクスソリューションズ株式会社,,株式会社,広島県,呉市,郷原町字一ノ松光山６２６番地の１２,,34,202,7370161,,,,,,,2021-10-06,1,,,,,セイワロジスティクスソリューションズ,0
3480,9240001058716,新規,0,2021-10-06,2021-10-06,株式会社ｓｕｎｎｙ　ｌｉｎｋ　ｃｏｍｐａｎｙ,,株式会社,広島県,広島市中区,上八丁堀７番７号Ｈ＆Ａ八丁堀ビル３０１号室,,34,101,7300012,,,,,,,2021-10-06,1,,,,,サニーリンクカンパニー,0
3481,9240001058732,新規,0,2021-10-06,2021-10-06,株式会社功成,,株式会社,広島県,広島市東区,戸坂新町２丁目４２番１０－１号,,34,102,7320012,,,,,,,2021-10-06,1,,,,,コウセイ,0
3482,9240005015283,新規,0,2021-10-06,2021-10-06,社会保険労務士法人ヒロシマ労務経営,,その他の設立登記法人,広島県,広島市中区,上八丁堀７番７号Ｈ＆Ａ八丁堀ビル２０１,,34,101,7300012,,,,,,,2021-10-06,1,,,,,ヒロシマロウムケイエイ,0
3483,9250001019171,新規,0,2021-10-06,2021-10-06,株式会社吉見,,株式会社,山口県,下関市,永田本町４丁目４番１号,,35,201,7596533,,,,,,,2021-10-06,1,,,,,ヨシミ,0
3484,9250003002910,新規,0,2021-10-06,2021-10-06,ＮＰソフト合同会社,,合同会社,山口県,山口市,大内矢田北２丁目７番５０号,,35,203,7530221,,,,,,,2021-10-06,1,,,,,エヌピーソフト,0
3486,9260001036034,新規,0,2021-10-06,2021-10-06,ＫＩＲ’Ｓエンジニアリング株式会社,,株式会社,岡山県,岡山市北区,本町６番３６号第一セントラルビル４階,,33,101,7000901,,,,,,,2021-10-06,1,,,,,ケーアイアールズエンジニアリング,0
3487,9270003001357,新規,0,2021-10-06,2021-10-06,合同会社ＩＬＬＵＳ１０,,合同会社,鳥取県,西伯郡日吉津村,大字今吉３９２番地３,,31,384,6893551,,,,,,,2021-10-06,1,,,,,イラステン,0
3492,9280001008527,新規,0,2021-10-06,2021-10-06,株式会社ＷＡＮ設計事務所,,株式会社,島根県,安来市,広瀬町広瀬２１１６番地２,,32,206,6920404,,,,,,,2021-10-06,1,,,,,ワンセッケイジムショ,0
3497,9290001094806,新規,0,2021-10-06,2021-10-06,株式会社花鶴生花店,,株式会社,福岡県,久留米市,御井旗崎４丁目２番１２号,,40,203,8390841,,,,,,,2021-10-06,1,,,,,ハナツルセイカテン,0
3498,9290001094896,新規,0,2021-10-06,2021-10-06,株式会社コスモウェーブホールディングス,,株式会社,福岡県,福岡市博多区,博多駅前３丁目２５番２４号,,40,132,8120011,,,,,,,2021-10-06,1,,,,,コスモウェーブホールディングス,0
3502,9290801027857,新規,0,2021-10-06,2021-10-06,株式会社大英不動産販売,,株式会社,福岡県,北九州市八幡西区,下上津役４丁目１番６号,,40,109,8070075,,,,,,,2021-10-06,1,,,,,ダイエイフドウサンハンバイ,0
3505,9310001017516,新規,0,2021-10-06,2021-10-06,株式会社下條マリン,,株式会社,長崎県,佐世保市,相浦町２７５０番地,,42,202,8580918,,,,,,,2021-10-06,1,,,,,シモジョウマリン,0
3506,9310003004181,新規,0,2021-10-06,2021-10-06,ミツワハーモニー合同会社,,合同会社,長崎県,諫早市,飯盛町野中９３８番地８,,42,204,8541101,,,,,,,2021-10-06,1,,,,,ミツワハーモニー,0
3511,9360001029457,新規,0,2021-10-06,2021-10-06,株式会社Ｉｓｌａｎｄ　Ｈｏｕｓｉｎｇ,,株式会社,沖縄県,沖縄市,上地４丁目１番１９号,,47,211,9040031,,,,,,,2021-10-06,1,,,,,アイランドハウジング,0
3512,9360001029465,新規,0,2021-10-06,2021-10-06,株式会社ジャパンホテルマネジメントサービス,,株式会社,沖縄県,那覇市,壺屋１丁目１番３号,,47,201,9020065,,,,,,,2021-10-06,1,,,,,ジャパンホテルマネジメントサービス,0
3513,9360001029481,新規,0,2021-10-06,2021-10-06,ＲＡＣＣＯＯＮ株式会社,,株式会社,沖縄県,那覇市,真嘉比１丁目２６番３号,,47,201,9020068,,,,,,,2021-10-06,1,,,,,ラクーン,0
3518,9370003005430,新規,0,2021-10-06,2021-10-06,Ｓｑｕａｒｅ合同会社,,合同会社,宮城県,仙台市泉区,南中山２丁目５番５号,,04,105,9813213,,,,,,,2021-10-06,1,,,,,スクエア,0
3519,9370005010362,新規,0,2021-10-06,2021-10-06,一般社団法人蔵王町シルバー人材センター,,その他の設立登記法人,宮城県,刈田郡蔵王町,宮字東原田５７番地,,04,301,9890701,,,,,,,2021-10-06,1,,,,,ザオウマチシルバージンザイセンター,0
3526,9380001032236,新規,0,2021-10-06,2021-10-06,株式会社カラダベース,,株式会社,福島県,郡山市,開成４丁目３番１３号,,07,203,9638851,,,,,,,2021-10-06,1,,,,,カラダベース,0
3528,9390003001881,新規,0,2021-10-06,2021-10-06,合同会社ＳＵＮＳＨＩＮＥ,,合同会社,山形県,東根市,さくらんぼ駅前２丁目１０－１１,,06,211,9993720,,,,,,,2021-10-06,1,,,,,サンシャイン,0
3540,9430001085096,新規,0,2021-10-06,2021-10-06,株式会社リズム,,株式会社,北海道,札幌市白石区,本郷通１１丁目北２番１２号,,01,104,0030025,,,,,,,2021-10-06,1,,,,,リズム,0
3542,9430003013212,新規,0,2021-10-06,2021-10-06,Ｓ＆Ｓ合同会社,,合同会社,北海道,札幌市豊平区,平岸一条１８丁目２番４１号,,01,105,0620931,,,,,,,2021-10-06,1,,,,,エスアンドエス,0
3553,9470001018754,新規,0,2021-10-06,2021-10-06,株式会社イイゲル,,株式会社,香川県,さぬき市,津田町津田２４４番地１,,37,206,7692401,,,,,,,2021-10-06,1,,,,,イイゲル,0
3556,9490005006803,新規,0,2021-10-06,2021-10-06,行政書士法人アネクト法務事務所,,その他の設立登記法人,高知県,高知市,杉井流１６番５号６階Ｂ号室,,39,201,7800072,,,,,,,2021-10-06,1,,,,,,0
3558,9500001023718,新規,0,2021-10-06,2021-10-06,ステディマネジメント株式会社,,株式会社,愛媛県,松山市,祝谷２丁目６番２９号,,38,201,7900833,,,,,,,2021-10-06,1,,,,,ステディマネジメント,0
3559,9500001023734,新規,0,2021-10-06,2021-10-06,株式会社ノブズ・ファクトリー,,株式会社,愛媛県,新居浜市,八幡１丁目９番１３号,,38,205,7920871,,,,,,,2021-10-06,1,,,,,ノブズファクトリー,0
3561,9500003002703,新規,0,2021-10-06,2021-10-06,合同会社ＢＲＩＤＧＥ,,合同会社,愛媛県,松山市,針田町１２５－８・２０５,,38,201,7900055,,,,,,,2021-10-06,1,,,,,ブリッジ,0
3566,9700150105073,新規,0,2021-10-06,2021-10-06,東京都電設工業企業年金基金,,その他,東京都,新宿区,大久保２丁目８番３号,,13,104,1690072,,,,,,,2021-10-06,1,,,,,トウキヨウトデンセツコウギヨウキギヨウネンキンキキン,0
3567,9700150105081,新規,0,2021-10-06,2021-10-06,京都府病院企業年金基金,,その他,京都府,京都市下京区,万寿寺通烏丸西入御供石町３６９番地ＮＯ．６０京都烏丸万寿寺ビル５階,,26,106,6008429,,,,,,,2021-10-06,1,,,,,キヨウトフビヨウインキギヨウネンキンキキン,0
