sequenceNumber,corporateNumber,process,correct,updateDate,changeDate,name,nameImageId,kind,prefectureName,cityName,streetNumber,addressImageId,prefectureCode,cityCode,postCode,addressOutside,addressOutsideImageId,closeDate,closeCause,successorCorporateNumber,changeCause,assignmentDate,latest,enName,enPrefectureName,enCityName,enAddressOutside,furigana,hihyoji
17,1010502018918,登記記録の閉鎖等,0,2022-10-24,2022-10-21,有限会社オーエフエー工業,,有限会社,東京都,台東区,日本堤２丁目２２番１２号,,13,106,1110021,,,2022-10-21,清算の結了等,,,2015-10-05,1,,,,,,0
19,1010601055192,登記記録の閉鎖等,0,2022-10-24,2022-10-19,ＢＭ　ＬＡＢＯ株式会社,,株式会社,東京都,江東区,辰巳１丁目４番２４号プレール・ドゥーク東雲４０５号室,,13,108,1350053,,,2022-10-19,清算の結了等,,,2019-03-18,1,,,,,ビーエムラボ,0
23,1010701022778,登記記録の閉鎖等,0,2022-10-24,2022-10-11,株式会社学研出版サービス,,株式会社,東京都,品川区,西五反田２丁目１１番８号,,13,109,1410031,,,2022-10-11,合併による解散等,2010701021655,令和４年１０月１日東京都品川区西五反田二丁目１１番８号株式会社Ｇａｋｋｅｎ（2010701021655）に合併し解散,2015-10-05,1,,,,,ガッケンシュッパンサービス,0
25,1010701027554,登記記録の閉鎖等,0,2022-10-24,2022-10-19,株式会社ビバックロジスティクス,,株式会社,東京都,品川区,旗の台２丁目１番６号ｆｆｆビル３Ｆ,,13,109,1420064,,,2022-10-19,清算の結了等,,,2015-10-05,1,,,,,ビバックロジスティクス,0
35,1011005006988,登記記録の閉鎖等,0,2022-10-24,2022-10-20,一般社団法人情報流通協会,,その他の設立登記法人,東京都,板橋区,蓮根３丁目１４番２５－５０９号,,13,119,1740046,,,2022-10-20,清算の結了等,,,2016-11-22,1,,,,,ジョウホウリュウツウキョウカイ,0
41,1011202004398,登記記録の閉鎖等,0,2022-10-24,2022-10-19,有限会社永井商店,,有限会社,東京都,中野区,沼袋２丁目１４番１０号,,13,114,1650025,,,2022-10-19,清算の結了等,,,2015-10-05,1,,,,,ナガイショウテン,0
80,1030002101610,登記記録の閉鎖等,0,2022-10-24,2022-10-18,有限会社笠原油店,,有限会社,埼玉県,川口市,青木４丁目６番６－２０５号,,11,203,3320031,,,2022-10-18,清算の結了等,,,2015-10-05,1,,,,,カサハラアブラテン,0
81,1030005011971,登記記録の閉鎖等,0,2022-10-24,2022-10-13,特定非営利活動法人カメラーデン,,その他の設立登記法人,埼玉県,春日部市,大枝８９武里団地８－２０－３０１,,11,214,3440023,,,2022-10-13,清算の結了等,,,2015-10-05,1,,,,,カメラーデン,0
97,1070001003060,登記記録の閉鎖等,0,2022-10-24,2022-10-14,株式会社ヴィムディーノ,,株式会社,群馬県,前橋市,駒形町１２９番地,,10,201,3792122,,,2022-10-14,清算の結了等,,,2015-10-05,1,,,,,ヴィムディーノ,0
103,1080101021341,登記記録の閉鎖等,0,2022-10-24,2022-10-20,参巳建設株式会社,,株式会社,静岡県,三島市,光ケ丘１０番地の１１,,22,206,4110029,,,2022-10-20,清算の結了等,,,2019-09-11,1,,,,,サンミケンセツ,0
130,1120901044776,登記記録の閉鎖等,0,2022-10-24,2022-10-20,株式会社アンビション,,株式会社,大阪府,豊中市,新千里東町１丁目１－２－４７０９,,27,203,5600082,,,2022-10-20,清算の結了等,,,2021-08-18,1,,,,,アンビション,0
148,1140005019839,登記記録の閉鎖等,0,2022-10-24,2022-10-20,医療法人社団前田整形外科,,その他の設立登記法人,兵庫県,南あわじ市,志知中島９０４番地の３,,28,224,6560483,,,2022-10-20,清算の結了等,,,2015-10-05,1,,,,,マエダセイケイゲカ,0
157,1180001134464,登記記録の閉鎖等,0,2022-10-24,2022-10-17,株式会社Ｇ＆Ｇ,,株式会社,愛知県,名古屋市中区,錦３丁目１３番１３号アロン錦ビル,,23,106,4600003,,,2022-10-17,清算の結了等,,,2018-11-16,1,,,,,ジーアンドジー,0
164,1190005010941,登記記録の閉鎖等,0,2022-10-24,2022-10-20,特定非営利活動法人地球のいきもの,,その他の設立登記法人,三重県,三重郡菰野町,大字菰野４８００番地１,,24,341,5101233,,,2022-10-20,清算の結了等,,,2016-05-18,1,,,,,チキュウノイキモノ,0
185,1260002030051,登記記録の閉鎖等,0,2022-10-24,2022-10-19,株式会社グランドカミーノ,,株式会社,岡山県,津山市,二宮５４番地の１,,33,203,7080013,,,2022-10-19,清算の結了等,,,2015-10-05,1,,,,,グランドカミーノ,0
190,1290001010233,登記記録の閉鎖等,0,2022-10-24,2022-10-14,株式会社プラン,,株式会社,福岡県,福津市,宮司浜３丁目２３番１２号,,40,224,8113311,,,2022-10-14,清算の結了等,,,2015-10-05,1,,,,,プラン,0
204,1300001008515,登記記録の閉鎖等,0,2022-10-24,2022-10-17,株式会社アクセル,,株式会社,佐賀県,小城市,三日月町織島２４５５番地１,,41,208,8450023,,,2022-10-17,清算の結了等,,,2015-10-05,1,,,,,アクセル,0
208,1330003005219,登記記録の閉鎖等,0,2022-10-24,2022-10-19,合同会社ラルーチェ,,合同会社,熊本県,玉名市,岱明町高道１４９７番地２,,43,206,8690202,,,2022-10-19,清算の結了等,,,2015-10-05,1,,,,,ラルーチェ,0
209,1330003005268,登記記録の閉鎖等,0,2022-10-24,2022-10-19,合同会社咲喜,,合同会社,熊本県,玉名市,岱明町浜田２８６０番地３,,43,206,8690203,,,2022-10-19,清算の結了等,,,2015-10-05,1,,,,,サキ,0
216,1360002003798,登記記録の閉鎖等,0,2022-10-24,2022-10-07,有限会社プロシード沖縄,,有限会社,沖縄県,那覇市,字松川４３８番地の１,,47,201,9020062,,,2022-10-07,清算の結了等,,,2015-10-05,1,,,,,,0
226,1370503000228,登記記録の閉鎖等,0,2022-10-24,2022-10-07,合同会社東商・トキワほけん,,合同会社,宮城県,気仙沼市,田谷１７番地３,,04,205,9880045,,,2022-10-07,清算の結了等,,,2015-10-05,1,,,,,トウショウトキワホケン,0
274,2010701022777,登記記録の閉鎖等,0,2022-10-24,2022-10-11,株式会社学研プラス,,株式会社,東京都,品川区,西五反田２丁目１１番８号,,13,109,1410031,,,2022-10-11,合併による解散等,2010701021655,令和４年１０月１日東京都品川区西五反田二丁目１１番８号株式会社Ｇａｋｋｅｎ（2010701021655）に合併し解散,2015-10-05,1,,,,,ガッケンプラス,0
279,2010702007901,登記記録の閉鎖等,0,2022-10-24,2022-10-19,有限会社丸陽,,有限会社,東京都,品川区,旗の台５丁目１番６号,,13,109,1420064,,,2022-10-19,清算の結了等,,,2015-10-05,1,,,,,マルヨウ,0
282,2010901039522,登記記録の閉鎖等,0,2022-10-24,2022-10-14,ドレープフィーチャリング株式会社,,株式会社,神奈川県,川崎市宮前区,宮崎２丁目６番地１０宮崎台ガーデンオフィス２階,,14,136,2160033,,,2022-10-14,合併による解散等,1020001068356,令和４年１０月１日神奈川県川崎市宮前区宮崎二丁目６番地１０宮崎台ガーデンオフィス２階株式会社レクスポート（1020001068356）に合併し解散,2017-02-07,1,,,,,ドレープフィーチャリング,0
283,2010901043409,登記記録の閉鎖等,0,2022-10-24,2022-10-20,株式会社Ｆｏｏｄｙｅｓ,,株式会社,東京都,世田谷区,世田谷２丁目１９番１１号,,13,112,1540017,,,2022-10-20,清算の結了等,,,2019-01-15,1,,,,,フーディーズ,0
300,2011302010056,登記記録の閉鎖等,0,2022-10-24,2022-10-12,有限会社リカーナカマス,,有限会社,東京都,杉並区,阿佐谷南１丁目４７番８号,,13,115,1660004,,,2022-10-12,清算の結了等,,,2015-10-05,1,,,,,リカーナカマス,0
305,2011502008726,登記記録の閉鎖等,0,2022-10-24,2022-10-18,有限会社佐藤プラスチツク製作所,,有限会社,東京都,荒川区,東日暮里１丁目２３番７号,,13,118,1160014,,,2022-10-18,清算の結了等,,,2015-10-05,1,,,,,サトウプラスチックセイサクジョ,0
310,2012401002051,登記記録の閉鎖等,0,2022-10-24,2022-10-14,株式会社加藤シーリング,,株式会社,東京都,国分寺市,富士本３丁目１４番地１３,,13,214,1850031,,,2022-10-14,清算の結了等,,,2015-10-05,1,,,,,カトウシーリング,0
314,2020001067084,登記記録の閉鎖等,0,2022-10-24,2022-10-17,宮田土建工業株式会社,,株式会社,神奈川県,川崎市高津区,新作３丁目１５番２９号,,14,134,2130014,,,2022-10-17,清算の結了等,,,2015-10-05,1,,,,,ミヤタドケンコウギョウ,0
331,2030001019092,登記記録の閉鎖等,0,2022-10-24,2022-10-13,株式会社野崎塗装,,株式会社,埼玉県,さいたま市岩槻区,美幸町１番２６－１号,,11,110,3390063,,,2022-10-13,清算の結了等,,,2015-10-05,1,,,,,,0
338,2030002009828,登記記録の閉鎖等,0,2022-10-24,2022-10-14,有限会社富川商店,,有限会社,埼玉県,さいたま市大宮区,土手町３丁目１４番地,,11,103,3300801,,,2022-10-14,清算の結了等,,,2015-10-05,1,,,,,トミカワショウテン,0
364,2080001002234,登記記録の閉鎖等,0,2022-10-24,2022-10-21,株式会社杉本商店,,株式会社,静岡県,静岡市駿河区,八幡２丁目２番１７号,,22,102,4228076,,,2022-10-21,清算の結了等,,,2015-10-05,1,,,,,スギモトショウテン,0
366,2080101006135,登記記録の閉鎖等,0,2022-10-24,2022-10-19,株式会社不二精機製造所,,株式会社,静岡県,駿東郡長泉町,下土狩８４０番地,,22,342,4110943,,,2022-10-19,合併による解散等,3010001034836,令和４年１０月１日東京都千代田区内幸町二丁目２番２号芝浦機械株式会社（3010001034836）に合併し解散,2015-10-05,1,,,,,フジセイキセイゾウショ,0
367,2080101018452,登記記録の閉鎖等,0,2022-10-24,2022-10-20,株式会社英勝,,株式会社,静岡県,富士宮市,北山５６３７番地の１,,22,207,4180112,,,2022-10-20,清算の結了等,,,2015-10-05,1,,,,,エイショウ,0
376,2110003001222,登記記録の閉鎖等,0,2022-10-24,2022-10-20,合資会社泉商店,,合資会社,新潟県,上越市,中央２丁目７番２６号,,15,222,9420001,,,2022-10-20,清算の結了等,,,2015-10-05,1,,,,,,0
385,2120001211912,登記記録の閉鎖等,0,2022-10-24,2022-10-20,Ａｔｌａｎｔｉｃ　Ｓｕｎ株式会社,,株式会社,大阪府,大阪市中央区,久太郎町２丁目４番１１号,,27,128,5410056,,,2022-10-20,合併による解散等,8010401167108,令和４年１０月１日東京都港区南青山三丁目１番３号ＦＣ　Ｄｉｇｉｔａｌ　Ｆｏｒｗａｒｄｅｒ株式会社（8010401167108）に合併し解散,2018-03-12,1,,,,,アトランティックサン,0
386,2120001222620,登記記録の閉鎖等,0,2022-10-24,2022-10-21,株式会社Ｃ７,,株式会社,大阪府,寝屋川市,香里南之町６番８号飯田ビル３０１,,27,215,5720084,,,2022-10-21,清算の結了等,,,2019-07-23,1,,,,,シーセブン,0
390,2120002009678,登記記録の閉鎖等,0,2022-10-24,2022-10-20,有限会社白鳥商店,,有限会社,大阪府,大阪市生野区,鶴橋２丁目６番７号,,27,116,5440031,,,2022-10-20,清算の結了等,,,2015-10-05,1,,,,,シラトリショウテン,0
410,2160002011192,登記記録の閉鎖等,0,2022-10-24,2022-10-21,有限会社池本新聞舗,,有限会社,滋賀県,高島市,今津町今津１５６９番地の１,,25,212,5201621,,,2022-10-21,清算の結了等,,,2015-10-05,1,,,,,,0
416,2180002015984,登記記録の閉鎖等,0,2022-10-24,2022-10-17,有限会社三明,,有限会社,愛知県,名古屋市東区,東大曽根町２番２３号,,23,102,4610022,,,2022-10-17,清算の結了等,,,2015-10-05,1,,,,,サンメイ,0
432,2260001019813,登記記録の閉鎖等,0,2022-10-24,2022-10-19,株式会社ジェージェー企画,,株式会社,岡山県,津山市,二宮５４番地の１,,33,203,7080013,,,2022-10-19,清算の結了等,,,2015-10-05,1,,,,,ジェージェーキカク,0
433,2280002006354,登記記録の閉鎖等,0,2022-10-24,2022-10-21,有限会社すだ美容院,,有限会社,島根県,出雲市,斐川町荘原８７３番地,,32,203,6990502,,,2022-10-21,清算の結了等,,,2015-10-05,1,,,,,スダビヨウイン,0
434,2290001059815,登記記録の閉鎖等,0,2022-10-24,2022-10-14,株式会社フロンティア,,株式会社,福岡県,福岡市中央区,天神３丁目１１番２２号Ｗビルディング天神,,40,133,8100001,,,2022-10-14,清算の結了等,,,2015-10-05,1,,,,,フロンティア,0
446,2310002001558,登記記録の閉鎖等,0,2022-10-24,2022-10-21,有限会社熊製麺,,有限会社,長崎県,長崎市,高浜町３４３５番地,,42,201,8510503,,,2022-10-21,清算の結了等,,,2015-10-05,1,,,,,クマセイメン,0
456,2330003005242,登記記録の閉鎖等,0,2022-10-24,2022-10-19,合同会社ハッピートワエ,,合同会社,熊本県,玉名市,岱明町中土１０６０番地１０,,43,206,8690223,,,2022-10-19,清算の結了等,,,2015-10-05,1,,,,,ハッピートワエ,0
467,2380001008531,登記記録の閉鎖等,0,2022-10-24,2022-10-17,株式会社プレシャス,,株式会社,福島県,郡山市,富田町字町西４４番地８,,07,203,9638041,,,2022-10-17,清算の結了等,,,2015-10-05,1,,,,,プレシャス,0
472,2430001055626,登記記録の閉鎖等,0,2022-10-24,2022-10-12,株式会社山三天野商店,,株式会社,北海道,様似郡様似町,字鵜苫２７３番地,,01,608,0580033,,,2022-10-12,清算の結了等,,,2015-10-05,1,,,,,ヤマサンアマノショウテン,0
474,2430002007469,登記記録の閉鎖等,0,2022-10-24,2022-10-06,有限会社鋼施ワタナベ,,有限会社,北海道,札幌市清田区,北野六条２丁目６番２０号,,01,110,0040866,,,2022-10-06,清算の結了等,,,2015-10-05,1,,,,,コウセワタナベ,0
477,2470002013868,登記記録の閉鎖等,0,2022-10-24,2022-10-19,三光測量有限会社,,有限会社,香川県,仲多度郡まんのう町,岸上９２３番地１,,37,406,7660026,,,2022-10-19,清算の結了等,,,2015-10-05,1,,,,,サンコウソクリョウ,0
550,3012801008779,登記記録の閉鎖等,0,2022-10-24,2022-10-18,株式会社アクセルソリューションズ,,株式会社,東京都,立川市,曙町２丁目９番８号,00059079,13,202,1900012,,,2022-10-18,合併による解散等,1180001120282,令和４年１０月１日名古屋市名東区本郷二丁目２１８番地株式会社ヒトトコＬａｂｏ（1180001120282）に合併し解散,2015-10-05,1,,,,,アクセルソリューションズ,0
557,3013301000433,登記記録の閉鎖等,0,2022-10-24,2022-10-19,株式会社アスペクト,,株式会社,東京都,豊島区,東池袋３丁目４番３号池袋イースト１４階,,13,116,1700013,,,2022-10-19,清算の結了等,,,2015-10-05,1,,,,,アスペクト,0
570,3021001042852,登記記録の閉鎖等,0,2022-10-24,2022-10-19,サン産業株式会社,,株式会社,神奈川県,逗子市,山の根１丁目３番６号,,14,208,2490002,,,2022-10-19,清算の結了等,,,2015-10-05,1,,,,,サンサンギョウ,0
599,3030002102177,登記記録の閉鎖等,0,2022-10-24,2022-10-12,有限会社倉田機械,,有限会社,埼玉県,川口市,大字安行領根岸１８１１番地１,,11,203,3330834,,,2022-10-12,清算の結了等,,,2015-10-05,1,,,,,クラタキカイ,0
610,3040002036647,登記記録の閉鎖等,0,2022-10-24,2022-10-11,有限会社マツダ電器,,有限会社,千葉県,市川市,富浜２丁目８番８号,,12,203,2720115,,,2022-10-11,清算の結了等,,,2015-10-05,1,,,,,マツダデンキ,0
611,3040002072873,登記記録の閉鎖等,0,2022-10-24,2022-10-14,苅田計装有限会社,,有限会社,千葉県,市原市,五井西２丁目１８番地８,,12,219,2900038,,,2022-10-14,清算の結了等,,,2022-08-29,1,,,,,カリタケイソウ,0
612,3050002002251,登記記録の閉鎖等,0,2022-10-24,2022-10-13,有限会社ケイ・アール・ツー,,有限会社,茨城県,水戸市,河和田１丁目１５８０番地の１２,,08,201,3114152,,,2022-10-13,清算の結了等,,,2015-10-05,1,,,,,ケイアールツー,0
624,3070001012472,登記記録の閉鎖等,0,2022-10-24,2022-10-17,株式会社田囗製作所,,株式会社,群馬県,藤岡市,藤岡５８６番地の１,,10,209,3750024,,,2022-10-17,清算の結了等,,,2015-10-05,1,,,,,タグチセイサクジョ,0
627,3080101008386,登記記録の閉鎖等,0,2022-10-24,2022-10-20,株式会社川嶋昆布,,株式会社,静岡県,富士市,中里水門前２６２６番地の３３,,22,210,4170826,,,2022-10-20,清算の結了等,,,2015-10-05,1,,,,,カワシマコンブ,0
630,3080101014590,登記記録の閉鎖等,0,2022-10-24,2022-10-20,株式会社若林商店,,株式会社,静岡県,下田市,一丁目５番２２号,,22,219,4150021,,,2022-10-20,清算の結了等,,,2015-10-05,1,,,,,ワカバヤシショウテン,0
636,3090005006205,登記記録の閉鎖等,0,2022-10-24,2022-10-12,特定非営利活動法人山中湖自然研究会,,その他の設立登記法人,山梨県,南都留郡山中湖村,山中８６５番地の３３６,,19,425,4010501,,,2022-10-12,清算の結了等,,,2015-10-05,1,,,,,ヤマナカコシゼンケンキュウカイ,0
644,3110002022838,登記記録の閉鎖等,0,2022-10-24,2022-10-14,有限会社ジェイ・エス,,有限会社,新潟県,上越市,本町７丁目２番１２号,,15,222,9430832,,,2022-10-14,清算の結了等,,,2015-10-05,1,,,,,ジェイエス,0
647,3120001177418,登記記録の閉鎖等,0,2022-10-24,2022-10-18,株式会社このはな出食品,,株式会社,東京都,港区,芝３丁目２番１１号,,13,103,1050014,,,2022-10-18,合併による解散等,8010001110946,令和４年９月２５日東京都中央区八丁堀二丁目７番１号株式会社マイワーク（8010001110946）に合併し解散,2015-10-05,1,,,,,コノハナイヅルショクヒン,0
659,3120003018405,登記記録の閉鎖等,0,2022-10-24,2022-10-18,合同会社彩惺,,合同会社,大阪府,大阪市平野区,平野本町２丁目３番１２号,,27,126,5470044,,,2022-10-18,清算の結了等,,,2020-11-13,1,,,,,サイセイ,0
667,3130001049046,登記記録の閉鎖等,0,2022-10-24,2022-10-07,株式会社京都とよ國屋,,株式会社,京都府,京都市中京区,高倉通竹屋町下る福屋町７１６番地,,26,104,6040882,,,2022-10-07,清算の結了等,,,2015-10-05,1,,,,,キョウトトヨクニヤ,0
692,3180303004578,登記記録の閉鎖等,0,2022-10-24,2022-10-07,Ａｂｕｅｌｏ合同会社,,合同会社,愛知県,豊田市,小坂本町１丁目１５番地８－５０１,,23,211,4710034,,,2022-10-07,清算の結了等,,,2020-03-10,1,,,,,アブエロ,0
693,3190002004663,登記記録の閉鎖等,0,2022-10-24,2022-10-19,有限会社小平製作所,,有限会社,三重県,亀山市,布気町１４６９番地の１,,24,210,5190166,,,2022-10-19,清算の結了等,,,2015-10-05,1,,,,,コヒラセイサクショ,0
701,3240003004442,登記記録の閉鎖等,0,2022-10-24,2022-10-21,合同会社合掌社,,合同会社,広島県,広島市中区,東白島町１９番６２－１４０１号,,34,101,7300004,,,2022-10-21,清算の結了等,,,2019-11-06,1,,,,,ガッショウシャ,0
706,3260002021734,登記記録の閉鎖等,0,2022-10-24,2022-10-21,有限会社守屋商店,,有限会社,岡山県,倉敷市,児島味野３丁目４番２５号,,33,202,7110913,,,2022-10-21,清算の結了等,,,2015-10-05,1,,,,,モリヤショウテン,0
717,3310002015136,登記記録の閉鎖等,0,2022-10-24,2022-10-20,有限会社五洋ビル,,有限会社,長崎県,諫早市,本町１番１３号,,42,204,8540012,,,2022-10-20,清算の結了等,,,2015-10-05,1,,,,,ゴヨウビル,0
720,3330002018244,登記記録の閉鎖等,0,2022-10-24,2022-10-19,株式会社ＪＤＣ,,株式会社,東京都,新宿区,西早稲田２丁目１１番１５号ルイシャトレ早稲田１２０１,,13,104,1690051,,,2022-10-19,清算の結了等,,,2015-10-05,1,,,,,ジェイディーシー,0
737,3380002011153,登記記録の閉鎖等,0,2022-10-24,2022-10-17,有限会社トクちゃん,,有限会社,福島県,郡山市,桑野１丁目２５番９号,,07,203,9638025,,,2022-10-17,清算の結了等,,,2015-10-05,1,,,,,トクチャン,0
739,3380003004107,登記記録の閉鎖等,0,2022-10-24,2022-10-14,ＥＫ合同会社,,合同会社,福島県,福島市,南沢又字桜内１１－１阿部アパート１０１号,,07,201,9608254,,,2022-10-14,清算の結了等,,,2017-10-03,1,,,,,イーケー,0
742,3420002002610,登記記録の閉鎖等,0,2022-10-24,2022-10-18,有限会社北陽印刷,,有限会社,青森県,青森市,大字油川字中道３６番地２２,,02,201,0380059,,,2022-10-18,清算の結了等,,,2015-10-05,1,,,,,ホクヨウインサツ,0
773,4010001205849,登記記録の閉鎖等,0,2022-10-24,2022-10-14,株式会社イキシア,,株式会社,東京都,千代田区,外神田２丁目１２番３号,,13,101,1010021,,,2022-10-14,清算の結了等,,,2019-12-09,1,,,,,イキシア,0
780,4010005016367,登記記録の閉鎖等,0,2022-10-24,2022-10-20,東京コスモ石油協同組合,,その他の設立登記法人,東京都,文京区,千石１丁目１５番５号,,13,105,1120011,,,2022-10-20,清算の結了等,,,2015-10-05,1,,,,,トウキョウコスモセキユ,0
781,4010005027505,登記記録の閉鎖等,0,2022-10-24,2022-10-21,ＯＳＪ　ＮＳＹ一般社団法人,,その他の設立登記法人,東京都,千代田区,丸の内３丁目１番１号東京共同会計事務所内,,13,101,1000005,,,2022-10-21,清算の結了等,,,2017-09-27,1,,,,,オーエスジェイエヌエスワイ,0
788,4010701022833,登記記録の閉鎖等,0,2022-10-24,2022-10-11,株式会社学研メディカル秀潤社,,株式会社,東京都,品川区,西五反田２丁目１１番８号,,13,109,1410031,,,2022-10-11,合併による解散等,2010701021655,令和４年１０月１日東京都品川区西五反田二丁目１１番８号株式会社Ｇａｋｋｅｎ（2010701021655）に合併し解散,2015-10-05,1,,,,,ガッケンメディカルシュウジュンシャ,0
810,4011101035277,登記記録の閉鎖等,0,2022-10-24,2022-10-18,日生開発株式会社,,株式会社,東京都,新宿区,西新宿７丁目２２番３４号,,13,104,1600023,,,2022-10-18,清算の結了等,,,2015-10-05,1,,,,,ニッセイカイハツ,0
816,4011201005270,登記記録の閉鎖等,0,2022-10-24,2022-10-20,ミック株式会社,,株式会社,東京都,中野区,弥生町５丁目１番１５号,,13,114,1640013,,,2022-10-20,清算の結了等,,,2015-10-05,1,,,,,ミック,0
826,4011705001402,登記記録の閉鎖等,0,2022-10-24,2022-10-20,一般社団法人東京新画派,,その他の設立登記法人,東京都,江戸川区,南葛西７丁目１番７－９１２号,,13,123,1340085,,,2022-10-20,清算の結了等,,,2016-01-06,1,,,,,トウキョウシンガハ,0
854,4030001140862,登記記録の閉鎖等,0,2022-10-24,2022-10-13,株式会社ペットケアサービスメイト,,株式会社,埼玉県,比企郡滑川町,大字月輪４３番地１,,11,341,3550813,,,2022-10-13,清算の結了等,,,2021-02-24,1,,,,,ペットケアサービスメイト,0
859,4030003004751,登記記録の閉鎖等,0,2022-10-24,2022-10-13,合資会社ムーバル,,合資会社,埼玉県,行田市,中央１７番１０－１１０号,,11,206,3610078,,,2022-10-13,清算の結了等,,,2015-10-05,1,,,,,ムーバル,0
860,4030003007473,登記記録の閉鎖等,0,2022-10-24,2022-10-18,興隆合同会社,,合同会社,東京都,荒川区,西日暮里１丁目５９－２０田宮海野ビル１階,,13,118,1160013,,,2022-10-18,清算の結了等,,,2015-10-05,1,,,,,コウリュウ,0
861,4030005019624,登記記録の閉鎖等,0,2022-10-24,2022-10-14,特定非営利活動法人獣肉加工施設連絡協議会,,その他の設立登記法人,埼玉県,三郷市,谷口６７７番地１,,11,237,3410042,,,2022-10-14,清算の結了等,,,2019-10-09,1,,,,,ジュウニクカコウシセツレンラクキョウギカイ,0
863,4040001077575,登記記録の閉鎖等,0,2022-10-24,2022-10-14,株式会社大森設計,,株式会社,千葉県,千葉市中央区,末広２丁目１２番１７号３０２,,12,101,2600843,,,2022-10-14,清算の結了等,,,2015-10-05,1,,,,,オオモリセッケイ,0
869,4040002094009,登記記録の閉鎖等,0,2022-10-24,2022-10-14,ダイヤモンドツール有限会社,,有限会社,千葉県,柏市,西柏台１丁目４番２４号,,12,217,2770886,,,2022-10-14,清算の結了等,,,2015-10-05,1,,,,,ダイヤモンドツール,0
890,4100005007704,登記記録の閉鎖等,0,2022-10-24,2022-10-14,農事組合法人長者畑草地利用組合,,その他の設立登記法人,長野県,木曽郡南木曽町,読書３６６８番地１,,20,423,3995301,,,2022-10-14,清算の結了等,,,2015-10-05,1,,,,,チョウジャバタソウチリヨウクミアイ,0
904,4120003012919,登記記録の閉鎖等,0,2022-10-24,2022-10-20,パシフィックウェーブホールディング合同会社,,合同会社,大阪府,大阪市城東区,森之宮２丁目４番１９号,,27,118,5360025,,,2022-10-20,合併による解散等,8010401167108,令和４年１０月１日東京都港区南青山三丁目１番３号ＦＣ　Ｄｉｇｉｔａｌ　Ｆｏｒｗａｒｄｅｒ株式会社（8010401167108）に合併し解散,2017-06-09,1,,,,,パシフィックウェーブホールディング,0
924,4140001087507,登記記録の閉鎖等,0,2022-10-24,2022-10-20,Ｓ＆Ｈ株式会社,,株式会社,兵庫県,宝塚市,梅野町２番３７－６０２号,,28,214,6650004,,,2022-10-20,清算の結了等,,,2015-10-05,1,,,,,,0
928,4140003017288,登記記録の閉鎖等,0,2022-10-24,2022-10-21,合同会社神元ファンド,,合同会社,兵庫県,神戸市中央区,栄町通７丁目１番１－８１８号,,28,110,6500023,,,2022-10-21,清算の結了等,,,2022-01-31,1,,,,,シンゲンファンド,0
931,4150002003370,登記記録の閉鎖等,0,2022-10-24,2022-09-27,明昌貿易有限会社,,有限会社,奈良県,奈良市,左京３丁目４番地の１６,,29,201,6310801,,,2022-09-27,清算の結了等,,,2015-10-05,1,,,,,メイショウボウエキ,0
940,4180001092957,登記記録の閉鎖等,0,2022-10-24,2022-10-14,株式会社タイヨーサービス,,株式会社,愛知県,知多郡南知多町,大字大井字浜辺３０番地の４,,23,445,4703501,,,2022-10-14,清算の結了等,,,2015-10-05,1,,,,,タイヨーサービス,0
956,4230002000954,登記記録の閉鎖等,0,2022-10-24,2022-10-21,有限会社共栄電設,,有限会社,富山県,富山市,鍋田１７番地の１１,,16,201,9300831,,,2022-10-21,清算の結了等,,,2015-10-05,1,,,,,キョウエイデンセツ,0
972,4290002040573,登記記録の閉鎖等,0,2022-10-24,2022-10-17,有限会社うしじま調剤薬局,,有限会社,福岡県,春日市,春日原東町３丁目２２番地,,40,218,8160801,,,2022-10-17,清算の結了等,,,2015-10-05,1,,,,,ウシジマチョウザイヤッキョク,0
979,4300005002965,登記記録の閉鎖等,0,2022-10-24,2022-10-13,特定非営利活動法人よこべた３町パトロール,,その他の設立登記法人,佐賀県,佐賀市,川副町大字鹿江６７０番地８,,41,201,8402213,,,2022-10-13,清算の結了等,,,2015-10-05,1,,,,,ヨコベタサンチョウパトロール,0
981,4320001017057,登記記録の閉鎖等,0,2022-10-24,2022-10-19,ドリーム・ネット・インターナショナル株式会社,,株式会社,大分県,大分市,大字家島２４０番地の１,,44,201,8700113,,,2022-10-19,清算の結了等,,,2019-05-17,1,,,,,ドリームネットインターナショナル,0
992,4370002018058,登記記録の閉鎖等,0,2022-10-24,2022-10-14,有限会社杜の都測量,,有限会社,宮城県,仙台市泉区,南光台４丁目４番６号,,04,105,9818003,,,2022-10-14,清算の結了等,,,2015-10-05,1,,,,,,0
996,4380001025905,登記記録の閉鎖等,0,2022-10-24,2022-10-17,株式会社進成,,株式会社,福島県,福島市,野田町字八天３２番地の１１,,07,201,9608055,,,2022-10-17,清算の結了等,,,2015-10-05,1,,,,,シンセイ,0
998,4380002030788,登記記録の閉鎖等,0,2022-10-24,2022-10-14,有限会社やまだや,,有限会社,福島県,双葉郡大熊町,大字下野上字大野２４２番地,,07,545,9791308,,,2022-10-14,清算の結了等,,,2015-10-05,1,,,,,ヤマダヤ,0
1000,4420005003571,登記記録の閉鎖等,0,2022-10-24,2022-10-17,五所川原りんご商業協同組合,,その他の設立登記法人,青森県,五所川原市,大字広田字柳沼７０番地１５,,02,205,0370023,,,2022-10-17,清算の結了等,,,2015-10-05,1,,,,,ゴショガワラリンゴショウギョウ,0
1031,5010401009725,登記記録の閉鎖等,0,2022-10-24,2022-10-04,光進商事株式会社,,株式会社,東京都,港区,芝大門２丁目４番５－８０５号,,13,103,1050012,,,2022-10-04,清算の結了等,,,2015-10-05,1,,,,,コウシンショウジ,0
1045,5010702004292,登記記録の閉鎖等,0,2022-10-24,2022-10-19,有限会社鈴木左官,,有限会社,東京都,品川区,北品川２丁目３番２０号,,13,109,1400001,,,2022-10-19,清算の結了等,,,2015-10-05,1,,,,,スズキサカン,0
1052,5011001065547,登記記録の閉鎖等,0,2022-10-24,2022-10-12,株式会社クリッチ,,株式会社,東京都,渋谷区,代官山町１４番１０号,,13,113,1500034,,,2022-10-12,清算の結了等,,,2015-10-05,1,,,,,クリッチ,0
1121,5030002115870,登記記録の閉鎖等,0,2022-10-24,2022-10-12,有限会社丹野商店,,有限会社,埼玉県,大里郡寄居町,大字寄居１０３８番地,,11,408,3691203,,,2022-10-12,清算の結了等,,,2015-10-05,1,,,,,タンノショウテン,0
1126,5030005001671,登記記録の閉鎖等,0,2022-10-24,2022-10-11,特定非営利活動法人ユーアンドユーサポート,,その他の設立登記法人,埼玉県,さいたま市浦和区,神明１丁目２１番１８号グリーンハイツ１０５,,11,107,3300065,,,2022-10-11,清算の結了等,,,2015-10-05,1,,,,,ユーアンドユーサポート,0
1131,5040003016258,登記記録の閉鎖等,0,2022-10-24,2022-10-17,福成合同会社,,合同会社,千葉県,千葉市花見川区,天戸町１２９６－１－１Ｆ,,12,102,2620043,,,2022-10-17,清算の結了等,,,2020-10-15,1,,,,,フクセイ,0
1135,5050001008215,登記記録の閉鎖等,0,2022-10-24,2022-10-19,八幡砕石工業株式会社,,株式会社,茨城県,笠間市,下郷２２７８番地,,08,216,3190202,,,2022-10-19,合併による解散等,7060001020927,令和４年１０月１日栃木県佐野市中町１５３２番地株式会社藤坂（7060001020927）に合併し解散,2015-10-05,1,,,,,ヤハタサイセキコウギョウ,0
1173,5180001071472,登記記録の閉鎖等,0,2022-10-24,2022-10-18,株式会社丸山急便,,株式会社,愛知県,名古屋市中川区,松重町一丁目１８番地,,23,110,4540003,,,2022-10-18,清算の結了等,,,2015-10-05,1,,,,,マルヤマキュウビン,0
1185,5200001022134,登記記録の閉鎖等,0,2022-10-24,2022-10-20,多治見まちづくり株式会社,,株式会社,岐阜県,多治見市,本町３丁目２５番地,,21,204,5070033,,,2022-10-20,清算の結了等,,,2015-10-05,1,,,,,タジミマチヅクリ,0
1195,5270005005054,登記記録の閉鎖等,0,2022-10-24,2022-10-17,特定非営利活動法人アイビー,,その他の設立登記法人,鳥取県,西伯郡伯耆町,金屋谷４１０番地２７,,31,390,6894213,,,2022-10-17,清算の結了等,,,2015-10-05,1,,,,,,0
1226,5420002015627,登記記録の閉鎖等,0,2022-10-24,2022-10-17,有限会社測研,,有限会社,青森県,黒石市,西ケ丘７４番地,,02,204,0360388,,,2022-10-17,清算の結了等,,,2015-10-05,1,,,,,ソッケン,0
1235,5450002009832,登記記録の閉鎖等,0,2022-10-24,2022-10-20,有限会社寿永堂,,有限会社,北海道,名寄市,西十条南９丁目４８番地１２,,01,221,0960020,,,2022-10-20,清算の結了等,,,2015-10-05,1,,,,,ジュエイドウ,0
1236,5460401001166,登記記録の閉鎖等,0,2022-10-24,2022-10-18,ＪＥＮ昆布盛ウインドファーム株式会社,,株式会社,北海道,根室市,昆布盛１４９番地１２,,01,223,0881784,,,2022-10-18,清算の結了等,,,2017-03-27,1,,,,,ジェイイーエヌコンブモリウインドファーム,0
1240,5480002014706,登記記録の閉鎖等,0,2022-10-24,2022-10-19,有限会社ケイリース,,有限会社,徳島県,美馬郡つるぎ町,貞光字前田３４番地,,36,468,7794102,,,2022-10-19,清算の結了等,,,2015-10-05,1,,,,,ケイリース,0
1312,6011601004151,登記記録の閉鎖等,0,2022-10-24,2022-10-20,株式会社ダンシング・オフィス西条,,株式会社,東京都,世田谷区,経堂５丁目１８番５号,,13,112,1560052,,,2022-10-20,清算の結了等,,,2015-10-05,1,,,,,ダンシングオフィスサイジョウ,0
1317,6012701002326,登記記録の閉鎖等,0,2022-10-24,2022-10-21,大光建設工業株式会社,,株式会社,東京都,西東京市,向台町６丁目４番１０号,,13,229,1880013,,,2022-10-21,清算の結了等,,,2015-10-05,1,,,,,ダイコウケンセツコウギョウ,0
1319,6013201002097,登記記録の閉鎖等,0,2022-10-24,2022-10-20,株式会社ゴンドラ,,株式会社,東京都,目黒区,目黒１丁目６番１３号,,13,110,1530063,,,2022-10-20,合併による解散等,5180001122358,令和４年９月３０日名古屋市中村区名駅一丁目２番４号１０階ＧＯＯＤ　ＡＩＤ株式会社（5180001122358）に合併し解散,2015-10-05,1,,,,,ゴンドラ,0
1331,6020003017942,登記記録の閉鎖等,0,2022-10-24,2022-10-17,合同会社フォース,,合同会社,神奈川県,川崎市中原区,市ノ坪４１５番地１－３０３,,14,133,2110016,,,2022-10-17,清算の結了等,,,2020-06-02,1,,,,,フォース,0
1341,6030001091022,登記記録の閉鎖等,0,2022-10-24,2022-10-13,黒澤建設株式会社,,株式会社,埼玉県,秩父郡小鹿野町,小鹿野５６０番地６,,11,365,3680105,,,2022-10-13,清算の結了等,,,2015-10-05,1,,,,,クロサワケンセツ,0
1342,6030001111234,登記記録の閉鎖等,0,2022-10-24,2022-10-11,株式会社サンストン,,株式会社,埼玉県,鶴ヶ島市,大字脚折１１４番地５－３０１号,,11,241,3502213,,,2022-10-11,清算の結了等,,,2015-11-10,1,,,,,サンストン,0
1355,6030002055216,登記記録の閉鎖等,0,2022-10-24,2022-10-06,有限会社森田人形店,,有限会社,埼玉県,上尾市,大字戸崎４１９番地,,11,219,3620053,,,2022-10-06,清算の結了等,,,2015-10-05,1,,,,,モリタニンギョウテン,0
1361,6040001011400,登記記録の閉鎖等,0,2022-10-24,2022-10-12,東京ブライト株式会社,,株式会社,千葉県,千葉市花見川区,犢橋町３５８番地の３,,12,102,2620013,,,2022-10-12,清算の結了等,,,2015-10-05,1,,,,,トウキョウブライト,0
1364,6040002077416,登記記録の閉鎖等,0,2022-10-24,2022-10-14,有限会社コウ英,,有限会社,千葉県,東金市,上武射田２４６２番地の１,,12,213,2830011,,,2022-10-14,清算の結了等,,,2015-10-05,1,,,,,コウエイ,0
1368,6050002035224,登記記録の閉鎖等,0,2022-10-24,2022-10-17,有限会社アトミシステム,,有限会社,茨城県,常陸太田市,大里町３２５７番地,,08,212,3130125,,,2022-10-17,清算の結了等,,,2015-10-05,1,,,,,アトミシステム,0
1376,6070001007148,登記記録の閉鎖等,0,2022-10-24,2022-10-17,株式会社シェルビーチ,,株式会社,群馬県,高崎市,末広町２０８番地５,,10,202,3700065,,,2022-10-17,合併による解散等,3011001017236,令和４年１０月１日東京都渋谷区笹塚一丁目５４番５号ニッタン株式会社（3011001017236）に合併し解散,2015-10-05,1,,,,,シェルビーチ,0
1379,6080001022930,登記記録の閉鎖等,0,2022-10-24,2022-10-21,株式会社カナロアジャパン,,株式会社,静岡県,静岡市葵区,御幸町６番地静岡セントラルビル７Ｆ,,22,101,4200857,,,2022-10-21,清算の結了等,,,2019-06-17,1,,,,,カナロアジャパン,0
1384,6100002036217,登記記録の閉鎖等,0,2022-10-24,2022-10-19,有限会社熊谷総業,,有限会社,長野県,飯田市,鼎名古熊２０４６番地２,,20,205,3950804,,,2022-10-19,清算の結了等,,,2015-10-05,1,,,,,クマガイソウギョウ,0
1385,6100005012090,登記記録の閉鎖等,0,2022-10-24,2022-10-19,特定非営利活動法人伊那谷スタイル,,その他の設立登記法人,長野県,駒ヶ根市,赤穂５５５４番地１４,,20,210,3994117,,,2022-10-19,清算の結了等,,,2017-07-07,1,,,,,イナダニスタイル,0
1393,6120003010301,登記記録の閉鎖等,0,2022-10-24,2022-10-18,第１小浜バイナリ発電所合同会社,,合同会社,長崎県,雲仙市,小浜町マリーナ８番地１,,42,213,8540517,,,2022-10-18,合併による解散等,3140001020393,令和４年１０月１日神戸市東灘区住吉宮町三丁目７番１４号シン・エナジー株式会社（3140001020393）に合併し解散,2015-10-05,1,,,,,ダイイチオバマバイナリハツデンショ,0
1394,6120003013535,登記記録の閉鎖等,0,2022-10-24,2022-10-20,パシフィックウェーブ合同会社,,合同会社,大阪府,大阪市城東区,森之宮２丁目４番１９号,,27,118,5360025,,,2022-10-20,合併による解散等,8010401167108,令和４年１０月１日東京都港区南青山三丁目１番３号ＦＣ　Ｄｉｇｉｔａｌ　Ｆｏｒｗａｒｄｅｒ株式会社（8010401167108）に合併し解散,2017-11-15,1,,,,,パシフィックウェーブ,0
1419,6140001087100,登記記録の閉鎖等,0,2022-10-24,2022-10-19,株式会社アーネスト,,株式会社,兵庫県,神戸市兵庫区,西柳原町４番２１－１００１号,,28,105,6520806,,,2022-10-19,清算の結了等,,,2015-10-05,1,,,,,アーネスト,0
1420,6140001088296,登記記録の閉鎖等,0,2022-10-24,2022-10-19,株式会社ななみ居宅介護事業所,,株式会社,兵庫県,姫路市,東山７５番地９,,28,201,6728014,,,2022-10-19,清算の結了等,,,2015-10-05,1,,,,,ナナミキョタクカイゴジギョウショ,0
1426,6160001004788,登記記録の閉鎖等,0,2022-10-24,2022-10-20,株式会社コナン,,株式会社,滋賀県,湖南市,石部北３丁目１番８号,,25,211,5203113,,,2022-10-20,清算の結了等,,,2015-10-05,1,,,,,コナン,0
1429,6180001061142,登記記録の閉鎖等,0,2022-10-24,2022-10-18,株式会社春工業,,株式会社,愛知県,名古屋市緑区,鳴海町字山下７７番地,,23,114,4580801,,,2022-10-18,清算の結了等,,,2015-10-05,1,,,,,ハルコウギョウ,0
1439,6180002060110,登記記録の閉鎖等,0,2022-10-24,2022-10-20,有限会社サカクラ工業,,有限会社,愛知県,名古屋市北区,上飯田南町５丁目７９番地の９,,23,103,4620804,,,2022-10-20,清算の結了等,,,2015-10-05,1,,,,,サカクラコウギョウ,0
1448,6230001013955,登記記録の閉鎖等,0,2022-10-24,2022-10-20,株式会社ホウセイ,,株式会社,富山県,富山市,上二杉２８１番地２,,16,201,9392256,,,2022-10-20,清算の結了等,,,2015-10-05,1,,,,,ホウセイ,0
1464,6290802018420,登記記録の閉鎖等,0,2022-10-24,2022-10-24,有限会社八光,,有限会社,福岡県,北九州市八幡東区,竹下町８番４号,,40,108,8050022,,,2022-10-24,清算の結了等,,,2015-10-05,1,,,,,ハッコウ,0
1469,6340002027605,登記記録の閉鎖等,0,2022-10-24,2022-10-19,有限会社上床製材所,,有限会社,鹿児島県,曽於郡大崎町,井俣２４５５番地,,46,468,8997309,,,2022-10-19,清算の結了等,,,2015-10-05,1,,,,,ウワトコセイザイショ,0
1489,6430001009693,登記記録の閉鎖等,0,2022-10-24,2022-10-11,田井自動車工業株式会社,,株式会社,北海道,札幌市東区,北丘珠五条４丁目３番１号,,01,103,0070885,,,2022-10-11,清算の結了等,,,2015-10-05,1,,,,,タイジドウシャコウギョウ,0
1520,7010001140597,登記記録の閉鎖等,0,2022-10-24,2022-10-19,株式会社ＬＯＣＨ　ＥＮＥＲＧＹ　ＪＡＰＡＮ,,株式会社,東京都,新宿区,払方町４番地,,13,104,1620841,,,2022-10-19,清算の結了等,,,2015-10-05,1,,,,,ロッホエナジージャパン,0
1525,7010101008562,登記記録の閉鎖等,0,2022-10-24,2022-10-21,株式会社マイクロ電子,,株式会社,東京都,八王子市,小津町１１９－２,,13,201,1920155,,,2022-10-21,清算の結了等,,,2015-10-05,1,,,,,マイクロデンシ,0
1532,7010405017409,登記記録の閉鎖等,0,2022-10-24,2022-10-05,あおば一般社団法人,,その他の設立登記法人,東京都,港区,北青山１丁目２番３号,,13,103,1070061,,,2022-10-05,清算の結了等,,,2019-01-28,1,,,,,アオバ,0
1533,7010501034043,登記記録の閉鎖等,0,2022-10-24,2022-10-21,株式会社Ｃｅｅ　Ｃｌｉｍｂ　ｃｏｒｐｏｒａｔｉｏｎ,,株式会社,東京都,台東区,雷門２丁目３番１１号ビッグベンビル３階,,13,106,1110034,,,2022-10-21,清算の結了等,,,2015-10-05,1,,,,,シークライムコーポレーション,0
1595,7020005011364,登記記録の閉鎖等,0,2022-10-24,2022-10-17,特定非営利活動法人ＡＳＥＡＮ相互支援協会,,その他の設立登記法人,山形県,最上郡舟形町,堀内１５番地１,,06,363,9994604,,,2022-10-17,清算の結了等,,,2015-10-05,1,,,,,アセアンソウゴシエンキョウカイ,0
1606,7030001141718,登記記録の閉鎖等,0,2022-10-24,2022-10-12,株式会社Ｖａｓｅ,,株式会社,埼玉県,新座市,東北２丁目１７番２２号グリーンハイツ３０４,,11,230,3520001,,,2022-10-12,清算の結了等,,,2021-04-12,1,,,,,ヴェイス,0
1626,7040002030290,登記記録の閉鎖等,0,2022-10-24,2022-10-17,見延商事有限会社,,有限会社,千葉県,八千代市,大和田新田４１番地３７,,12,221,2760046,,,2022-10-17,清算の結了等,,,2015-10-05,1,,,,,,0
1629,7050001012347,登記記録の閉鎖等,0,2022-10-24,2022-10-14,尾形商事株式会社,,株式会社,茨城県,小美玉市,中台２９１番地２,,08,236,3190116,,,2022-10-14,清算の結了等,,,2015-10-05,1,,,,,オガタショウジ,0
1662,7120102026809,登記記録の閉鎖等,0,2022-10-24,2022-10-20,有限会社ミナノインターナショナル,,有限会社,大阪府,和泉市,唐国町１丁目９番１０号,,27,219,5941151,,,2022-10-20,合併による解散等,1120101046680,令和４年１０月２０日大阪府和泉市唐国町一丁目９番１０号株式会社和泉観光（1120101046680）に合併し解散,2015-10-05,1,,,,,ミナノインターナショナル,0
1672,7140001001720,登記記録の閉鎖等,0,2022-10-24,2022-10-20,株式会社神味,,株式会社,兵庫県,神戸市東灘区,深江浜町６３番地,,28,101,6580023,,,2022-10-20,清算の結了等,,,2015-10-05,1,,,,,シンミ,0
1673,7140001039678,登記記録の閉鎖等,0,2022-10-24,2022-10-18,相三工業株式会社,,株式会社,兵庫県,たつの市,揖保川町養久１２７番地１４,,28,229,6711603,,,2022-10-18,清算の結了等,,,2015-10-05,1,,,,,アイサンコウギョウ,0
1693,7180001132223,登記記録の閉鎖等,0,2022-10-24,2022-10-17,株式会社ＮｅｘＳｔｅｒ,,株式会社,愛知県,名古屋市中区,錦３丁目１４番４号シャインαビル８０１号室,,23,106,4600003,,,2022-10-17,清算の結了等,,,2018-05-09,1,,,,,ネクスター,0
1702,7180002088407,登記記録の閉鎖等,0,2022-10-24,2022-10-17,有限会社ブックケイ,,有限会社,愛知県,知多市,八幡字汐海道１１番地,,23,224,4780001,,,2022-10-17,清算の結了等,,,2015-10-05,1,,,,,ブックケイ,0
1709,7200001021159,登記記録の閉鎖等,0,2022-10-24,2022-10-19,株式会社若尾商店,,株式会社,岐阜県,多治見市,池田町６丁目７７番地,,21,204,5070048,,,2022-10-19,清算の結了等,,,2015-10-05,1,,,,,ワカオショウテン,0
1721,7270003000930,登記記録の閉鎖等,0,2022-10-24,2022-10-20,合同会社Ｄｉｅ　Ｅｎｔｅ,,合同会社,鳥取県,米子市,西福原５丁目３番６１号,,31,202,6830805,,,2022-10-20,清算の結了等,,,2016-07-29,1,,,,,,0
1723,7290001046288,登記記録の閉鎖等,0,2022-10-24,2022-10-17,株式会社森田フーズ,,株式会社,福岡県,飯塚市,有井字鳥羽３５４番地の２３,,40,205,8200112,,,2022-10-17,清算の結了等,,,2015-10-05,1,,,,,モリタフーズ,0
1739,7330001002708,登記記録の閉鎖等,0,2022-10-24,2022-10-14,大幸プロパン株式会社,,株式会社,熊本県,熊本市東区,健軍１丁目３１番１０号,,43,102,8620911,,,2022-10-14,合併による解散等,6330001000398,令和４年１０月１日熊本市東区健軍一丁目３１番１０号岩本設備工業株式会社（6330001000398）に合併し解散,2015-10-05,1,,,,,ダイコウプロパン,0
1741,7330002014702,登記記録の閉鎖等,0,2022-10-24,2022-10-19,有限会社大江会計センター,,有限会社,熊本県,熊本市南区,川口町２８１１番地,,43,104,8614123,,,2022-10-19,清算の結了等,,,2015-10-05,1,,,,,オオエカイケイセンター,0
1748,7360005005101,登記記録の閉鎖等,0,2022-10-24,2022-10-06,特定非営利活動法人あひるの会,,その他の設立登記法人,沖縄県,浦添市,城間４丁目１９番７－４０１号ウインズ城間,,47,208,9012133,,,2022-10-06,清算の結了等,,,2015-10-05,1,,,,,,0
1756,7380001010086,登記記録の閉鎖等,0,2022-10-24,2022-10-19,秋山プラスチックス株式会社,,株式会社,福島県,西白河郡中島村,大字滑津字愛宕山６番１３,,07,465,9610102,,,2022-10-19,清算の結了等,,,2015-10-05,1,,,,,アキヤマプラスチックス,0
1764,7430001043543,登記記録の閉鎖等,0,2022-10-24,2022-10-13,クサカ工業株式会社,,株式会社,北海道,千歳市,信濃１丁目１３番３号,,01,224,0660038,,,2022-10-13,清算の結了等,,,2015-10-05,1,,,,,クサカコウギョウ,0
1765,7430001086336,登記記録の閉鎖等,0,2022-10-24,2022-10-12,株式会社Ｈｏｎｅｓｔ,,株式会社,北海道,札幌市豊平区,月寒東三条１９丁目１４番７号,,01,105,0620053,,,2022-10-12,清算の結了等,,,2022-04-07,1,,,,,オネスト,0
1816,8010603005734,登記記録の閉鎖等,0,2022-10-24,2022-10-19,合同会社ＳＭＡＳＨ,,合同会社,東京都,墨田区,業平１丁目２－７俵藤ビル２０２号室,,13,107,1300002,,,2022-10-19,清算の結了等,,,2015-10-05,1,,,,,スマッシュ,0
1823,8010901043031,登記記録の閉鎖等,0,2022-10-24,2022-10-19,株式会社Ｓｏｍｅｔｈｉｎｇ　Ｆｏｕｒ,,株式会社,東京都,世田谷区,千歳台１丁目３１番８－３０２号,,13,112,1570071,,,2022-10-19,清算の結了等,,,2018-11-02,1,,,,,サムシングフォー,0
1824,8010901043072,登記記録の閉鎖等,0,2022-10-24,2022-10-20,株式会社Ｓｌｅｅｔ,,株式会社,東京都,世田谷区,太子堂２丁目１５番１号,,13,112,1540004,,,2022-10-20,清算の結了等,,,2018-11-07,1,,,,,スリィートゥ,0
1830,8011001094873,登記記録の閉鎖等,0,2022-10-24,2022-10-20,株式会社小野プロダクション,,株式会社,東京都,新宿区,歌舞伎町２丁目２５番８－３２３号,,13,104,1600021,,,2022-10-20,清算の結了等,,,2015-10-05,1,,,,,オノプロダクション,0
1837,8011001148828,登記記録の閉鎖等,0,2022-10-24,2022-10-14,株式会社マーケティングアプリケーションズ,,株式会社,東京都,渋谷区,千駄ヶ谷５丁目２７番５号,,13,113,1510051,,,2022-10-14,合併による解散等,1010401167667,令和４年１０月１日東京都港区虎ノ門一丁目３番１号株式会社マーケティングアプリケーションズ（1010401167667）に合併し解散,2022-07-28,1,,,,,,0
1873,8020002074586,登記記録の閉鎖等,0,2022-10-24,2022-10-17,有限会社ＮＩコーポレーション,,有限会社,神奈川県,横浜市磯子区,磯子台２番７号,,14,107,2350019,,,2022-10-17,清算の結了等,,,2015-10-05,1,,,,,,0
1893,8030003009739,登記記録の閉鎖等,0,2022-10-24,2022-10-14,合同会社Ｆａｉｔｈ,,合同会社,埼玉県,川口市,本町４丁目３－１４,,11,203,3320012,,,2022-10-14,清算の結了等,,,2017-01-10,1,,,,,フェイス,0
1895,8030005006164,登記記録の閉鎖等,0,2022-10-24,2022-10-13,学校法人丸山学園,,その他の設立登記法人,埼玉県,桶川市,大字倉田字前方１０３番地,,11,231,3630006,,,2022-10-13,清算の結了等,,,2015-10-05,1,,,,,マルヤマガクエン,0
1896,8030005011081,登記記録の閉鎖等,0,2022-10-24,2022-10-13,特定非営利活動法人鶴ヶ島なごみ,,その他の設立登記法人,埼玉県,鶴ヶ島市,富士見２丁目１４番地６かもめ邸Ｂ号室,,11,241,3502201,,,2022-10-13,清算の結了等,,,2015-10-05,1,,,,,ツルガシマナゴミ,0
1897,8040001036387,登記記録の閉鎖等,0,2022-10-24,2022-10-17,株式会社中川製作所,,株式会社,千葉県,松戸市,竹ケ花西町３０２番地,,12,207,2710071,,,2022-10-17,清算の結了等,,,2015-10-05,1,,,,,,0
1909,8080001011378,登記記録の閉鎖等,0,2022-10-24,2022-10-20,株式会社コイケ不動産,,株式会社,静岡県,静岡市葵区,大岩本町３番５号,,22,101,4200884,,,2022-10-20,清算の結了等,,,2015-10-05,1,,,,,コイケフドウサン,0
1920,8080401022982,登記記録の閉鎖等,0,2022-10-24,2022-10-19,株式会社クリーク,,株式会社,静岡県,浜松市東区,植松町８６番地の７３ブライトタウン植松６０４,,22,132,4300803,,,2022-10-19,清算の結了等,,,2018-06-11,1,,,,,クリーク,0
1924,8080402005103,登記記録の閉鎖等,0,2022-10-24,2022-10-19,有限会社つばめクリーニング,,有限会社,静岡県,浜松市南区,芳川町１３１番地,,22,134,4300813,,,2022-10-19,清算の結了等,,,2015-10-05,1,,,,,ツバメクリーニング,0
1926,8100001031852,登記記録の閉鎖等,0,2022-10-24,2022-10-20,株式会社ＫＡＷＡＴＡ,,株式会社,長野県,長野市,大字鶴賀６５２番地１３,,20,201,3800907,,,2022-10-20,清算の結了等,,,2018-12-26,1,,,,,カワタ,0
1946,8120101062829,登記記録の閉鎖等,0,2022-10-24,2022-10-14,株式会社エスポワール,,株式会社,大阪府,泉南郡熊取町,五門東２丁目２－３２－５,,27,361,5900414,,,2022-10-14,清算の結了等,,,2021-01-04,1,,,,,エスポワール,0
1953,8130001032609,登記記録の閉鎖等,0,2022-10-24,2022-10-07,互応産業株式会社,,株式会社,京都府,宇治市,伊勢田町井尻５８番地,,26,204,6110043,,,2022-10-07,合併による解散等,9130001032599,令和４年１０月１日京都府宇治市伊勢田町井尻５８番地互応化学工業株式会社（9130001032599）に合併し解散,2015-10-05,1,,,,,ゴオウサンギョウ,0
1963,8130002006669,登記記録の閉鎖等,0,2022-10-24,2022-10-13,井上伊有限会社,,有限会社,京都府,京都市西京区,桂浅原町８９番地の１,,26,111,6158021,,,2022-10-13,清算の結了等,,,2015-10-05,1,,,,,イノウエイ,0
1974,8140002048090,登記記録の閉鎖等,0,2022-10-24,2022-10-19,有限会社構協議所,,有限会社,兵庫県,姫路市,飾磨区構３丁目４８９番地,,28,201,6728071,,,2022-10-19,清算の結了等,,,2015-10-05,1,,,,,カマエキョウギショ,0
1981,8160005004700,登記記録の閉鎖等,0,2022-10-24,2022-10-20,特定非営利活動法人みらい,,その他の設立登記法人,滋賀県,長浜市,南高田町６番１０号,,25,203,5260032,,,2022-10-20,清算の結了等,,,2015-10-05,1,,,,,ミライ,0
1997,8180002086649,登記記録の閉鎖等,0,2022-10-24,2022-10-17,有限会社石龍陶苑,,有限会社,愛知県,常滑市,保示町４丁目５６番地,,23,216,4790827,,,2022-10-17,清算の結了等,,,2015-10-05,1,,,,,セキリュウトウエン,0
2002,8180301016307,登記記録の閉鎖等,0,2022-10-24,2022-10-17,株式会社ビーテック,,株式会社,愛知県,高浜市,新田町５丁目１番地１７,,23,227,4441301,,,2022-10-17,清算の結了等,,,2015-10-05,1,,,,,,0
2003,8200001000517,登記記録の閉鎖等,0,2022-10-24,2022-10-21,株式会社ウズラ日石,,株式会社,岐阜県,岐阜市,西鶉１丁目３０番地の２,,21,201,5008286,,,2022-10-21,清算の結了等,,,2015-10-05,1,,,,,ウズラニッセキ,0
2011,8230002013523,登記記録の閉鎖等,0,2022-10-24,2022-10-20,有限会社グルテンフリー,,有限会社,富山県,高岡市,能町１３８５番地,,16,202,9330003,,,2022-10-20,清算の結了等,,,2015-10-05,1,,,,,グルテンフリー,0
2019,8260002012209,登記記録の閉鎖等,0,2022-10-24,2022-10-20,有限会社ダイアナポッシブル,,有限会社,岡山県,岡山市北区,奉還町１丁目９番５号カルマ済生会ビル,,33,101,7000026,,,2022-10-20,清算の結了等,,,2015-10-05,1,,,,,ダイアナポッシブル,0
2020,8290001036008,登記記録の閉鎖等,0,2022-10-24,2022-10-14,株式会社インスピリット,,株式会社,福岡県,福岡市中央区,桜坂３丁目１番１４－４０４号,,40,133,8100024,,,2022-10-14,清算の結了等,,,2015-10-05,1,,,,,インスピリット,0
2024,8290001087281,登記記録の閉鎖等,0,2022-10-24,2022-10-17,株式会社Ｎ２プランニング,,株式会社,福岡県,福岡市中央区,警固２丁目２番２３号ウイングコート警固５０２,,40,133,8100023,,,2022-10-17,清算の結了等,,,2019-11-29,1,,,,,エヌツープランニング,0
2031,8290005016575,登記記録の閉鎖等,0,2022-10-24,2022-10-19,一般社団法人プリズムＣｏｌｏｒ,,その他の設立登記法人,福岡県,久留米市,御井朝妻１丁目１番１３号,,40,203,8390842,,,2022-10-19,清算の結了等,,,2017-09-13,1,,,,,プリズムカラー,0
2035,8320001017854,登記記録の閉鎖等,0,2022-10-24,2022-10-17,株式会社ＣｌｏｕｄＢＣＰ,,株式会社,大分県,津久見市,港町１番２１号津久見商工会館２階,,44,207,8792442,,,2022-10-17,合併による解散等,9320003003447,令和４年１０月１５日大分県津久見市港町１－２１津久見商工会館２階グラージベンチャーズ株式会社（9320003003447）に合併し解散,2020-08-12,1,,,,,クラウドビーシーピー,0
2052,8380002022988,登記記録の閉鎖等,0,2022-10-24,2022-10-17,有限会社柏屋商店,,有限会社,福島県,いわき市,平字堂ノ前１０番地,,07,204,9708026,,,2022-10-17,清算の結了等,,,2015-10-05,1,,,,,カシワヤショウテン,0
2056,8420002007299,登記記録の閉鎖等,0,2022-10-24,2022-10-18,信成建業有限会社,,有限会社,青森県,八戸市,大字田面木字赤坂４０番地７,,02,203,0391104,,,2022-10-18,清算の結了等,,,2015-10-05,1,,,,,シンセイケンギョウ,0
2058,8430001052329,登記記録の閉鎖等,0,2022-10-24,2022-10-13,株式会社神女,,株式会社,北海道,札幌市中央区,大通東２丁目８番１００８号,,01,101,0600041,,,2022-10-13,清算の結了等,,,2015-10-05,1,,,,,シンニョ,0
2091,9010801021433,登記記録の閉鎖等,0,2022-10-24,2022-10-14,株式会社誠フーズ,,株式会社,東京都,大田区,東雪谷５丁目２５番１６号,,13,111,1450065,,,2022-10-14,清算の結了等,,,2015-10-05,1,,,,,マコトフーズ,0
2092,9010901036372,登記記録の閉鎖等,0,2022-10-24,2022-10-19,株式会社アイエフヴイアジア,,株式会社,東京都,新宿区,西早稲田２丁目２１番１２号,,13,104,1690051,,,2022-10-19,合併による解散等,2011101068618,令和４年１０月１日東京都新宿区西早稲田二丁目２１番１２号株式会社ドキドキグルーヴワークス（2011101068618）に合併し解散,2015-10-05,1,,,,,アイエフヴイアジア,0
2100,9011001119794,登記記録の閉鎖等,0,2022-10-24,2022-10-24,株式会社健さん岩田商事,,株式会社,静岡県,三島市,平田１６５番地の２,,22,206,4110821,,,2022-10-24,清算の結了等,,,2017-12-20,1,,,,,ケンサンイワタショウジ,0
2110,9011102029851,登記記録の閉鎖等,0,2022-10-24,2022-10-20,有限会社ユーロン,,有限会社,東京都,新宿区,百人町４丁目７番１１－４０１号,,13,104,1690073,,,2022-10-20,清算の結了等,,,2015-10-05,1,,,,,ユーロン,0
2133,9030001100993,登記記録の閉鎖等,0,2022-10-24,2022-10-11,イーコンサルティング株式会社,,株式会社,埼玉県,南埼玉郡宮代町,百間４丁目６番２４号,,11,442,3450801,,,2022-10-11,清算の結了等,,,2015-10-05,1,,,,,イーコンサルティング,0
2135,9030002024614,登記記録の閉鎖等,0,2022-10-24,2022-10-18,有限会社タイセーテクノス,,有限会社,埼玉県,戸田市,川岸２丁目１０番２号,,11,224,3350015,,,2022-10-18,清算の結了等,,,2015-10-05,1,,,,,タイセーテクノス,0
2139,9030003019381,登記記録の閉鎖等,0,2022-10-24,2022-10-13,合同会社亀さん,,合同会社,埼玉県,さいたま市緑区,大字大門２８９３－２４,,11,109,3360963,,,2022-10-13,清算の結了等,,,2022-05-11,1,,,,,カメサン,0
2148,9040002026808,登記記録の閉鎖等,0,2022-10-24,2022-10-17,有限会社千葉七福,,有限会社,千葉県,船橋市,本町１丁目２０番３２号,,12,204,2730005,,,2022-10-17,清算の結了等,,,2015-10-05,1,,,,,,0
2166,9080005007297,登記記録の閉鎖等,0,2022-10-24,2022-10-20,一般社団法人１ｘ１,,その他の設立登記法人,静岡県,静岡市葵区,大原８５９番地の１,,22,101,4211314,,,2022-10-20,清算の結了等,,,2020-08-06,1,,,,,ワンバイワン,0
2187,9120003006718,登記記録の閉鎖等,0,2022-10-24,2022-10-19,ＢＢＫ　Ｗｏｒｌｄｗｉｄｅ　Ｊａｐａｎ合同会社,,合同会社,東京都,中央区,日本橋３丁目４番１５号八重洲通ビル４階及び５階,,13,102,1030027,,,2022-10-19,清算の結了等,,,2015-10-05,1,,,,,ビービーケーワールドワイドジャパン,0
2194,9120901010655,登記記録の閉鎖等,0,2022-10-24,2022-10-20,株式会社カレントプランニング,,株式会社,大阪府,高槻市,津之江町１丁目９番２７号,,27,207,5690822,,,2022-10-20,合併による解散等,3120901010586,令和４年１０月２０日大阪府高槻市津之江町一丁目９番２７号大阪電材株式会社（3120901010586）に合併し解散,2015-10-05,1,,,,,カレントプランニング,0
2200,9122001021194,登記記録の閉鎖等,0,2022-10-24,2022-10-20,株式会社フルモト,,株式会社,大阪府,柏原市,旭ケ丘３丁目１１番３５号,,27,221,5820026,,,2022-10-20,清算の結了等,,,2015-10-05,1,,,,,フルモト,0
2211,9140001060145,登記記録の閉鎖等,0,2022-10-24,2022-10-19,電研メンテナンス株式会社,00039836,株式会社,兵庫県,姫路市,飾磨区妻鹿１９８５番地の１,,28,201,6728031,,,2022-10-19,清算の結了等,,,2015-10-05,1,,,,,デンケンメンテナンス,0
2213,9140001123091,登記記録の閉鎖等,0,2022-10-24,2022-10-21,株式会社これなんで商会,,株式会社,兵庫県,西宮市,西田町１番５号,,28,204,6620034,,,2022-10-21,清算の結了等,,,2021-09-22,1,,,,,コレナンデショウカイ,0
2223,9180001075206,登記記録の閉鎖等,0,2022-10-24,2022-10-18,株式会社緑建,,株式会社,愛知県,春日井市,中央台５丁目７番地の３,,23,206,4870011,,,2022-10-18,清算の結了等,,,2015-10-05,1,,,,,リョクケン,0
2224,9180001100954,登記記録の閉鎖等,0,2022-10-24,2022-10-18,宮野電気工事株式会社,,株式会社,愛知県,名古屋市中川区,戸田４丁目２２０２番地,,23,110,4540962,,,2022-10-18,清算の結了等,,,2015-10-05,1,,,,,ミヤノデンキコウジ,0
2232,9180001137559,登記記録の閉鎖等,0,2022-10-24,2022-10-18,株式会社ＴＡＫＥＲＵ,,株式会社,愛知県,清須市,阿原星の宮１９６番地,,23,233,4520901,,,2022-10-18,清算の結了等,,,2019-08-01,1,,,,,タケル,0
2239,9240001022465,登記記録の閉鎖等,0,2022-10-24,2022-10-20,関西薬品工業株式会社,,株式会社,広島県,東広島市,志和町別府２０６１番地３,,34,212,7390267,,,2022-10-20,清算の結了等,,,2015-10-05,1,,,,,カンサイヤクヒンコウギョウ,0
2253,9290001097123,登記記録の閉鎖等,0,2022-10-24,2022-10-17,株式会社三和ハウジング,,株式会社,福岡県,福岡市中央区,六本松３丁目１６番４１－３０２号,,40,133,8100044,,,2022-10-17,清算の結了等,,,2022-04-07,1,,,,,,0
2261,9330003004873,登記記録の閉鎖等,0,2022-10-24,2022-10-19,合同会社アスモ・ヘルス,,合同会社,熊本県,玉名市,岱明町中土１０６０番地１２,,43,206,8690223,,,2022-10-19,清算の結了等,,,2015-10-05,1,,,,,アスモヘルス,0
2267,9370002001307,登記記録の閉鎖等,0,2022-10-24,2022-10-13,有限会社幹オフィス,,有限会社,宮城県,仙台市宮城野区,新田４丁目３３番２２－１０２号,,04,102,9830038,,,2022-10-13,清算の結了等,,,2015-10-05,1,,,,,,0
2271,9370302003267,登記記録の閉鎖等,0,2022-10-24,2022-10-13,有限会社丸慶水産,,有限会社,宮城県,石巻市,日和が丘１丁目１０番１５号,,04,202,9860833,,,2022-10-13,清算の結了等,,,2015-10-05,1,,,,,,0
2273,9380001016536,登記記録の閉鎖等,0,2022-10-24,2022-10-17,櫻本建設株式会社,,株式会社,福島県,双葉郡双葉町,大字新山字久保前８７番地,,07,546,9791472,,,2022-10-17,清算の結了等,,,2015-10-05,1,,,,,サクラモトケンセツ,0
2277,9380003004126,登記記録の閉鎖等,0,2022-10-24,2022-10-17,Ｒ＆Ｉ合同会社,,合同会社,福島県,福島市,万世町４番２８号レーベン万世町２０３号,,07,201,9608033,,,2022-10-17,清算の結了等,,,2017-11-08,1,,,,,アールアンドアイ,0
2281,9410005005399,登記記録の閉鎖等,0,2022-10-24,2022-10-20,特定非営利活動法人ひびきの詩,,その他の設立登記法人,秋田県,能代市,二ツ井町仁鮒字家後３４番地３,,05,202,0183113,,,2022-10-20,清算の結了等,,,2015-10-05,1,,,,,ヒビキノウタ,0
2287,9430002019796,登記記録の閉鎖等,0,2022-10-24,2022-10-13,有限会社村上商店,,有限会社,北海道,札幌市南区,藤野五条２丁目２番１号,,01,106,0612285,,,2022-10-13,清算の結了等,,,2015-10-05,1,,,,,ムラカミショウテン,0
