sequenceNumber,corporateNumber,process,correct,updateDate,changeDate,name,nameImageId,kind,prefectureName,cityName,streetNumber,addressImageId,prefectureCode,cityCode,postCode,addressOutside,addressOutsideImageId,closeDate,closeCause,successorCorporateNumber,changeCause,assignmentDate,latest,enName,enPrefectureName,enCityName,enAddressOutside,furigana,hihyoji
6,1010003034828,登記記録の閉鎖等,0,2023-02-03,2023-01-31,ディアールエス合同会社,,合同会社,東京都,千代田区,二番町１番２－１１０８号,,13,101,1020084,,,2023-01-31,清算の結了等,,,2021-05-13,1,,,,,ディアールエス,0
7,1010005025395,登記記録の閉鎖等,0,2023-02-03,2023-02-01,一般社団法人日本生前整理・遺品整理協会,,その他の設立登記法人,東京都,中央区,日本橋箱崎町２８番地１－２０５株式会社ティー・エス・シー防犯システム研究所内,,13,102,1030015,,,2023-02-01,清算の結了等,,,2016-06-13,1,,,,,ニホンセイゼンセイリイヒンセイリキョウカイ,0
20,1010403019362,登記記録の閉鎖等,0,2023-02-03,2023-01-20,Ｍｕｒａｎｏ２合同会社,,合同会社,東京都,港区,虎ノ門４丁目１番２８号,,13,103,1050001,,,2023-01-20,清算の結了等,,,2018-09-21,1,,,,,ムラーノツー,0
25,1010603004965,登記記録の閉鎖等,0,2023-02-03,2023-02-01,合同会社ビリーブ,,合同会社,宮崎県,宮崎市,下北方町椎ケ迫５５５３番地１３,,45,201,8800035,,,2023-02-01,清算の結了等,,,2015-10-05,1,,,,,ビリーブ,0
33,1011001071565,登記記録の閉鎖等,0,2023-02-03,2023-01-30,株式会社ダッカ,,株式会社,東京都,渋谷区,神宮前２丁目５番８号,,13,113,1500001,,,2023-01-30,清算の結了等,,,2015-10-05,1,,,,,ダッカ,0
35,1011101047093,登記記録の閉鎖等,0,2023-02-03,2023-01-19,株式会社イーアール,,株式会社,山梨県,甲府市,城東３丁目１６－３０ダイアパレス甲府城東ＩＩ４０３,00125170,19,201,4000861,,,2023-01-19,清算の結了等,,,2015-10-05,1,,,,,イーアール,0
36,1011101054916,登記記録の閉鎖等,0,2023-02-03,2023-02-02,株式会社リトル・エル,,株式会社,東京都,新宿区,上落合３丁目３１番８号,,13,104,1610034,,,2023-02-02,清算の結了等,,,2015-10-05,1,,,,,リトルエル,0
43,1011403003190,登記記録の閉鎖等,0,2023-02-03,2023-02-01,合同会社ＫＩＡＭコンサル,,合同会社,東京都,板橋区,西台２丁目４番１５号,,13,119,1750045,,,2023-02-01,清算の結了等,,,2020-12-08,1,,,,,キアムコンサル,0
50,1012401001483,登記記録の閉鎖等,0,2023-02-03,2023-01-26,株式会社フォーライフ,,株式会社,東京都,府中市,本町４丁目１１番地の２,,13,206,1830027,,,2023-01-26,清算の結了等,,,2015-10-05,1,,,,,フォーライフ,0
51,1012401002812,登記記録の閉鎖等,0,2023-02-03,2023-01-31,株式会社遠藤工務店,,株式会社,東京都,武蔵野市,境南町２丁目２６番５号,,13,203,1800023,,,2023-01-31,清算の結了等,,,2015-10-05,1,,,,,エンドウコウムテン,0
59,1013202012034,登記記録の閉鎖等,0,2023-02-03,2023-01-30,株式会社アールケイベッツサービス,,株式会社,東京都,目黒区,緑が丘１丁目５番２２号,,13,110,1520034,,,2023-01-30,清算の結了等,,,2015-10-05,1,,,,,アールケイベッツサービス,0
74,1021002060789,登記記録の閉鎖等,0,2023-02-03,2023-01-31,相模水産有限会社,,有限会社,神奈川県,平塚市,根坂間３７３番地の６,,14,203,2540904,,,2023-01-31,清算の結了等,,,2015-10-05,1,,,,,サガミスイサン,0
75,1021002064195,登記記録の閉鎖等,0,2023-02-03,2023-01-31,有限会社小杉商事,,有限会社,神奈川県,横須賀市,長沢１丁目５９番２０号,,14,201,2390842,,,2023-01-31,清算の結了等,,,2015-10-05,1,,,,,コスギショウジ,0
92,1030002117152,登記記録の閉鎖等,0,2023-02-03,2023-01-31,有限会社福島電機商会,,有限会社,埼玉県,深谷市,稲荷町２丁目１番３６号,,11,218,3660026,,,2023-01-31,清算の結了等,,,2015-10-05,1,,,,,フクシマデンキショウカイ,0
103,1040002029561,登記記録の閉鎖等,0,2023-02-03,2023-01-31,有限会社高橋起業,00019984,有限会社,千葉県,印西市,武西２３２番地,,12,231,2701354,,,2023-01-31,清算の結了等,,,2015-10-05,1,,,,,タカハシキギョウ,0
104,1040002089242,登記記録の閉鎖等,0,2023-02-03,2023-01-31,有限会社押鐘測量企画設計,,有限会社,千葉県,柏市,亀甲台町１丁目１２番１号,,12,217,2770031,,,2023-01-31,清算の結了等,,,2015-10-05,1,,,,,オシガネソクリョウキカクセッケイ,0
115,1070001021624,登記記録の閉鎖等,0,2023-02-03,2023-01-31,株式会社オーテック,,株式会社,群馬県,館林市,堀工町１８５７番地の１,,10,207,3740033,,,2023-01-31,清算の結了等,,,2015-10-05,1,,,,,オーテック,0
135,1080401020670,登記記録の閉鎖等,0,2023-02-03,2023-02-01,株式会社餃子の浜松,,株式会社,静岡県,浜松市中区,佐鳴台４丁目４０番２６号,,22,131,4328021,,,2023-02-01,合併による解散等,4080402002756,令和５年２月１日静岡県浜松市中区佐鳴台四丁目４０番２６号ジェックアクティビティ株式会社（4080402002756）に合併し解散,2015-10-05,1,,,,,ギョウザノハママツ,0
148,1120001243691,登記記録の閉鎖等,0,2023-02-03,2023-01-31,ＺＷＥＩ株式会社,,株式会社,大阪府,大阪市北区,鶴野町１番９号,,27,127,5300014,,,2023-01-31,合併による解散等,9120001244063,令和５年１月３１日大阪市北区鶴野町１番９号２株式会社（9120001244063）に合併し解散,2022-02-04,1,,,,,ツヴァイ,0
165,1122001030921,登記記録の閉鎖等,0,2023-02-03,2023-01-31,株式会社アズフィールド,,株式会社,大阪府,東大阪市,藤戸新田２丁目９番２４号,,27,227,5770017,,,2023-01-31,清算の結了等,,,2017-09-05,1,,,,,アズフィールド,0
169,1140001022482,登記記録の閉鎖等,0,2023-02-03,2023-01-31,ビリーブトレーディング株式会社,,株式会社,兵庫県,神戸市東灘区,御影本町６丁目３－３,,28,101,6580046,,,2023-01-31,清算の結了等,,,2015-10-05,1,,,,,ビリーブトレーディング,0
181,1140005005054,登記記録の閉鎖等,0,2023-02-03,2023-02-02,特定非営利活動法人神戸キャリアコンサルティング・アソシエ,,その他の設立登記法人,兵庫県,神戸市北区,鈴蘭台北町３丁目２１番５号,,28,109,6511111,,,2023-02-02,清算の結了等,,,2015-10-05,1,,,,,コウベキャリアコンサルティングアソシエ,0
189,1180001080790,登記記録の閉鎖等,0,2023-02-03,2023-01-30,株式会社ダイワショッピ,,株式会社,愛知県,犬山市,大字羽黒字古市場１０７番地の１,,23,215,4840894,,,2023-01-30,清算の結了等,,,2015-10-05,1,,,,,ダイワショッピ,0
197,1180003024473,登記記録の閉鎖等,0,2023-02-03,2023-02-02,合同会社ケー・エム・イー,,合同会社,愛知県,名古屋市中村区,中村町５丁目５０番地,,23,105,4530053,,,2023-02-02,清算の結了等,,,2022-11-14,1,,,,,ケーエムイー,0
202,1180302009968,登記記録の閉鎖等,0,2023-02-03,2023-01-31,有限会社まるぺけさんかく,,有限会社,愛知県,豊橋市,八町通３丁目１２番地,,23,201,4400806,,,2023-01-31,清算の結了等,,,2015-10-05,1,,,,,マルペケサンカク,0
222,1270005004794,登記記録の閉鎖等,0,2023-02-03,2023-02-01,特定非営利活動法人ココロプラス,,その他の設立登記法人,鳥取県,鳥取市,大覚寺１７０番地５５,,31,201,6800863,,,2023-02-01,清算の結了等,,,2015-10-05,1,,,,,ココロプラス,0
224,1280002008194,登記記録の閉鎖等,0,2023-02-03,2023-02-01,有限会社マスイ物産,,有限会社,島根県,浜田市,野原町１９６２番地１,,32,202,6970016,,,2023-02-01,清算の結了等,,,2015-10-05,1,,,,,マスイブッサン,0
225,1290001036534,登記記録の閉鎖等,0,2023-02-03,2023-02-01,株式会社増田興産,,株式会社,福岡県,福津市,日蒔野５丁目４番地の５,,40,224,8113209,,,2023-02-01,清算の結了等,,,2015-10-05,1,,,,,マスダコウサン,0
243,1300005006969,登記記録の閉鎖等,0,2023-02-03,2023-01-31,特定非営利活動法人キャンバス,,その他の設立登記法人,佐賀県,佐賀市,高木瀬町大字長瀬１５８２番地５宝栄アパート１０６号室,,41,201,8490917,,,2023-01-31,清算の結了等,,,2021-01-12,1,,,,,キャンバス,0
284,1490005006777,登記記録の閉鎖等,0,2023-02-03,2023-02-01,医療法人ＫＳ会,,その他の設立登記法人,高知県,高知市,帯屋町１丁目１０番１７号,,39,201,7800841,,,2023-02-01,清算の結了等,,,2021-04-13,1,,,,,ケーエスカイ,0
294,2010001145980,登記記録の閉鎖等,0,2023-02-03,2023-01-18,株式会社ケンクリード,,株式会社,東京都,大田区,上池台２丁目１２番１３号,,13,111,1450064,,,2023-01-18,清算の結了等,,,2015-10-05,1,,,,,,0
295,2010001172430,登記記録の閉鎖等,0,2023-02-03,2023-01-31,Ｍｉｎａｔｏ株式会社,,株式会社,東京都,中央区,日本橋兜町１７番２号兜町第６葉山ビル４階,,13,102,1030026,,,2023-01-31,清算の結了等,,,2015-12-25,1,,,,,ミナト,0
306,2010005028620,登記記録の閉鎖等,0,2023-02-03,2023-02-02,サファリ特定目的会社,,その他の設立登記法人,東京都,千代田区,丸の内３丁目１番１号東京共同会計事務所内,,13,101,1000005,,,2023-02-02,清算の結了等,,,2018-06-06,1,,,,,サファリ,0
321,2010403019361,登記記録の閉鎖等,0,2023-02-03,2023-01-20,Ｍｕｒａｎｏ１合同会社,,合同会社,東京都,港区,虎ノ門４丁目１番２８号,,13,103,1050001,,,2023-01-20,清算の結了等,,,2018-09-21,1,,,,,ムラーノワン,0
381,2020002018540,登記記録の閉鎖等,0,2023-02-03,2023-01-31,クリーンサービス有限会社,,有限会社,神奈川県,横浜市港南区,日野４丁目４１番１号,,14,111,2340051,,,2023-01-31,清算の結了等,,,2015-10-05,1,,,,,クリーンサービス,0
383,2020002032500,登記記録の閉鎖等,0,2023-02-03,2023-02-01,有限会社泉屋,,有限会社,神奈川県,横浜市港北区,綱島西４丁目７番１４号,,14,109,2230053,,,2023-02-01,清算の結了等,,,2015-10-05,1,,,,,イズミヤ,0
392,2030001031312,登記記録の閉鎖等,0,2023-02-03,2023-01-31,辰巳商事株式会社,,株式会社,埼玉県,久喜市,栗橋北１丁目１８番２号,,11,232,3491101,,,2023-01-31,清算の結了等,,,2015-10-05,1,,,,,タツミショウジ,0
393,2030001047127,登記記録の閉鎖等,0,2023-02-03,2023-01-31,サンエイ株式会社,,株式会社,埼玉県,新座市,片山１丁目１３番４号,,11,230,3520025,,,2023-01-31,清算の結了等,,,2015-10-05,1,,,,,サンエイ,0
401,2030001150434,登記記録の閉鎖等,0,2023-02-03,2023-02-01,エクセル・ワン株式会社,,株式会社,埼玉県,草加市,谷塚上町２２４番地１,,11,221,3400024,,,2023-02-01,清算の結了等,,,2022-10-12,1,,,,,エクセルワン,0
407,2030002021188,登記記録の閉鎖等,0,2023-02-03,2023-01-31,有限会社システムランド,,有限会社,埼玉県,さいたま市岩槻区,美園東１丁目６番地１３,,11,110,3390028,,,2023-01-31,清算の結了等,,,2015-10-05,1,,,,,,0
409,2030002027689,登記記録の閉鎖等,0,2023-02-03,2023-01-31,有限会社小原塗装,,有限会社,埼玉県,蕨市,錦町３丁目７番５号,,11,223,3350005,,,2023-01-31,清算の結了等,,,2015-10-05,1,,,,,コハラトソウ,0
419,2040001120956,登記記録の閉鎖等,0,2023-02-03,2023-01-31,函館再生パートナーズ株式会社,,株式会社,千葉県,習志野市,本大久保１丁目２番２４－３０１号,,12,216,2750012,,,2023-01-31,清算の結了等,,,2021-11-12,1,,,,,ハコダテサイセイパートナーズ,0
424,2040002063015,登記記録の閉鎖等,0,2023-02-03,2023-01-31,有限会社飯生自動車商会,,有限会社,千葉県,八街市,八街ほ１０３０番地の１３,,12,230,2891115,,,2023-01-31,清算の結了等,,,2015-10-05,1,,,,,イイオジドウシャショウカイ,0
433,2060002019980,登記記録の閉鎖等,0,2023-02-03,2023-01-31,北田工業有限会社,,有限会社,栃木県,鹿沼市,東町３丁目６番１６号,,09,205,3220022,,,2023-01-31,清算の結了等,,,2015-10-05,1,,,,,キタダコウギョウ,0
440,2070002030177,登記記録の閉鎖等,0,2023-02-03,2023-01-27,有限会社ドゥ・プランニング,,有限会社,群馬県,太田市,由良町１１３５番地１０,,10,205,3730036,,,2023-01-27,清算の結了等,,,2015-10-05,1,,,,,ドゥプランニング,0
450,2090001014955,登記記録の閉鎖等,0,2023-02-03,2023-02-01,山梨Ｍａｄｅ株式会社,,株式会社,山梨県,南アルプス市,和泉９８４番地１,,19,208,4000413,,,2023-02-01,清算の結了等,,,2017-02-01,1,,,,,ヤマナシメイド,0
506,2140005020977,登記記録の閉鎖等,0,2023-02-03,2023-02-01,特定非営利活動法人ｓｋｙトゥルーカラーズ加西,,その他の設立登記法人,兵庫県,加西市,北条町古坂１丁目２４番地の１６,,28,220,6752303,,,2023-02-01,清算の結了等,,,2015-10-05,1,,,,,エスケーワイトゥルーカラーズカサイ,0
517,2180001123458,登記記録の閉鎖等,0,2023-02-03,2023-01-31,株式会社ＳＧＲＡＮＤＥ,,株式会社,愛知県,愛西市,江西町寺北６２番地,,23,232,4968044,,,2023-01-31,清算の結了等,,,2016-05-26,1,,,,,エスグランデ,0
524,2180002087990,登記記録の閉鎖等,0,2023-02-03,2023-01-30,有限会社富木島寿司,,有限会社,愛知県,東海市,富木島町伏見１丁目１１番地の１２,,23,222,4760012,,,2023-01-30,清算の結了等,,,2015-10-05,1,,,,,フキシマズシ,0
527,2180302010727,登記記録の閉鎖等,0,2023-02-03,2023-01-31,有限会社コクボスポーツ田原店,,有限会社,愛知県,田原市,田原町南晩田１１番地の１２,,23,231,4413421,,,2023-01-31,清算の結了等,,,2015-10-05,1,,,,,コクボスポーツタハラテン,0
546,2250002013989,登記記録の閉鎖等,0,2023-02-03,2023-02-01,有限会社西岡家具店,,有限会社,山口県,長門市,西深川８１０番地,,35,211,7594102,,,2023-02-01,清算の結了等,,,2015-10-05,1,,,,,ニシオカカグテン,0
547,2260002008550,登記記録の閉鎖等,0,2023-02-03,2023-02-01,有限会社フォレストヒルズ,,有限会社,岡山県,岡山市北区,幸町３番１０号,,33,101,7000903,,,2023-02-01,清算の結了等,,,2015-10-05,1,,,,,フォレストヒルズ,0
579,2330001030424,登記記録の閉鎖等,0,2023-02-03,2023-02-01,カラル熊本株式会社,,株式会社,熊本県,熊本市中央区,坪井４丁目１０番１号,,43,101,8600863,,,2023-02-01,合併による解散等,1330001016696,令和５年２月１日熊本県阿蘇郡南阿蘇村大字長野１８４６番２ＳＯＴパートナーズ株式会社（1330001016696）に合併し解散,2022-12-26,1,,,,,カラルクマモト,0
583,2330003005176,登記記録の閉鎖等,0,2023-02-03,2023-02-01,合同会社織,,合同会社,熊本県,八代市,中片町５４８番地１,,43,202,8660812,,,2023-02-01,合併による解散等,4330003004787,令和５年２月１日熊本県八代市中片町５４８番地１合同会社アンクレージュ（4330003004787）に合併し解散,2015-10-05,1,,,,,イオリ,0
603,2410001008775,登記記録の閉鎖等,0,2023-02-03,2023-01-30,株式会社アクトビジョン,,株式会社,秋田県,横手市,安田字堰端７４番地,,05,203,0130043,,,2023-01-30,清算の結了等,,,2015-10-05,1,,,,,アクトビジョン,0
609,2430005003894,登記記録の閉鎖等,0,2023-02-03,2023-01-30,特定非営利活動法人札幌市ＩＴ振興普及推進協議会,,その他の設立登記法人,北海道,札幌市厚別区,下野幌テクノパーク１丁目１番１０号札幌市エレクトロニクスセンター,,01,108,0040015,,,2023-01-30,清算の結了等,,,2015-10-05,1,,,,,サッポロシアイティーシンコウフキュウスイシンキョウギカイ,0
611,2460301004817,登記記録の閉鎖等,0,2023-02-03,2023-02-01,きたせきエネルギー株式会社,,株式会社,北海道,北見市,とん田西町３７８番地２,,01,208,0900834,,,2023-02-01,合併による解散等,8460301004142,令和５年２月１日北海道北見市とん田西町３７８番地２ｋｓコーポレーション北海道株式会社（8460301004142）に合併し解散,2019-08-15,1,,,,,キタセキエネルギー,0
628,3010001192155,登記記録の閉鎖等,0,2023-02-03,2023-02-01,株式会社クレシータ,,株式会社,千葉県,松戸市,松戸１８３４番地の１５キュービック松戸ビル３階,,12,207,2710092,,,2023-02-01,清算の結了等,,,2018-05-30,1,,,,,クレシータ,0
650,3010501030475,登記記録の閉鎖等,0,2023-02-03,2023-02-01,株式会社アートオブライフ,,株式会社,東京都,台東区,浅草橋４丁目１０番７号,,13,106,1110053,,,2023-02-01,清算の結了等,,,2015-10-05,1,,,,,アートオブライフ,0
658,3010702006019,登記記録の閉鎖等,0,2023-02-03,2023-02-01,有限会社中原出版企画事務所,,有限会社,東京都,品川区,旗の台５丁目７番６－８０２号,,13,109,1420064,,,2023-02-01,清算の結了等,,,2015-10-05,1,,,,,ナカハラシュッパンキカクジムショ,0
660,3010702007520,登記記録の閉鎖等,0,2023-02-03,2023-02-01,星野電業有限会社,,有限会社,東京都,品川区,荏原７丁目１４番１１号,,13,109,1420063,,,2023-02-01,清算の結了等,,,2015-10-05,1,,,,,ホシノデンギョウ,0
666,3011001068931,登記記録の閉鎖等,0,2023-02-03,2023-01-20,株式会社ピーチ,,株式会社,東京都,港区,虎ノ門４丁目１番１号神谷町トラストタワー２３階,,13,103,1050001,,,2023-01-20,清算の結了等,,,2015-10-05,1,,,,,ピーチ,0
678,3011802024661,登記記録の閉鎖等,0,2023-02-03,2023-01-30,有限会社皆諾,,有限会社,東京都,足立区,千住東２丁目８番４号,,13,121,1200025,,,2023-01-30,清算の結了等,,,2015-10-05,1,,,,,カイダク,0
700,3020001130502,登記記録の閉鎖等,0,2023-02-03,2023-02-01,ナナイロ株式会社,,株式会社,東京都,武蔵野市,吉祥寺東町１丁目５番２５号新井ビル,,13,203,1800002,,,2023-02-01,清算の結了等,,,2019-04-04,1,,,,,ナナイロ,0
711,3020002102905,登記記録の閉鎖等,0,2023-02-03,2023-01-31,有限会社新大和技研,,有限会社,神奈川県,川崎市幸区,南加瀬４丁目３９番１８号,,14,132,2120055,,,2023-01-31,清算の結了等,,,2015-10-05,1,,,,,シンダイワギケン,0
727,3030002044196,登記記録の閉鎖等,0,2023-02-03,2023-01-31,有限会社彩美,,有限会社,埼玉県,八潮市,中央３丁目９番地３９,,11,234,3400816,,,2023-01-31,清算の結了等,,,2015-10-05,1,,,,,サイビ,0
733,3040001069342,登記記録の閉鎖等,0,2023-02-03,2023-02-01,株式会社シンシア,,株式会社,千葉県,柏市,あけぼの５丁目５番３５－３０３号,,12,217,2770841,,,2023-02-01,清算の結了等,,,2015-10-05,1,,,,,シンシア,0
741,3040002092847,登記記録の閉鎖等,0,2023-02-03,2023-02-01,有限会社茶畑商店,,有限会社,千葉県,我孫子市,中峠１７６２番地,,12,222,2701121,,,2023-02-01,清算の結了等,,,2015-10-05,1,,,,,チャバタケショウテン,0
748,3060002037726,登記記録の閉鎖等,0,2023-02-03,2023-02-01,有限会社ワインメーカー,,有限会社,栃木県,足利市,島田町６０７番地１,,09,202,3260337,,,2023-02-01,清算の結了等,,,2015-10-05,1,,,,,ワインメーカー,0
768,3110002018885,登記記録の閉鎖等,0,2023-02-03,2023-01-30,有限会社石圭金型工業,,有限会社,新潟県,燕市,小関９７６番地１,,15,213,9591286,,,2023-01-30,清算の結了等,,,2015-10-05,1,,,,,イシケイカナガタコウギョウ,0
779,3120002047479,登記記録の閉鎖等,0,2023-02-03,2023-02-02,有限会社スマイル淀川,,有限会社,大阪府,大阪市淀川区,宮原２丁目５番１２号,,27,123,5320003,,,2023-02-02,清算の結了等,,,2015-10-05,1,,,,,,0
781,3120005000162,登記記録の閉鎖等,0,2023-02-03,2023-01-20,天理教甲阪分教会,,その他の設立登記法人,大阪府,大阪市城東区,野江４丁目１番４５号,,27,118,5360006,,,2023-01-20,合併による解散等,7160005002746,令和５年１月１８日滋賀県甲賀市水口町嶬峨１８５０番地天理教大野分教会（7160005002746）に合併し解散,2015-10-05,1,,,,,テンリキョウコウハンブンキョウカイ,0
787,3120901023217,登記記録の閉鎖等,0,2023-02-03,2023-02-01,株式会社大阪サービス・ゲームス,,株式会社,大阪府,豊中市,北桜塚３丁目５番３号,,27,203,5600022,,,2023-02-01,清算の結了等,,,2015-10-05,1,,,,,オオサカサービスゲームス,0
816,3150003001903,登記記録の閉鎖等,0,2023-02-03,2023-01-31,レータジャパン合同会社,,合同会社,奈良県,生駒市,俵口町２１７番地１ルネグレースヒル４０３,,29,209,6300243,,,2023-01-31,清算の結了等,,,2019-03-07,1,,,,,レータジャパン,0
819,3180001043283,登記記録の閉鎖等,0,2023-02-03,2023-02-01,株式会社愛知コンサルタント,,株式会社,愛知県,名古屋市中区,金山５丁目１６番８号,,23,106,4600022,,,2023-02-01,清算の結了等,,,2015-10-05,1,,,,,アイチコンサルタント,0
838,3180303000032,登記記録の閉鎖等,0,2023-02-03,2023-01-31,合資会社鳥居商店,,合資会社,愛知県,岡崎市,戸崎町字一丁田１８番地,,23,202,4440840,,,2023-01-31,清算の結了等,,,2015-10-05,1,,,,,トリイショウテン,0
840,3190001027871,登記記録の閉鎖等,0,2023-02-03,2023-01-31,株式会社ホープワン,,株式会社,三重県,度会郡度会町,棚橋８５８番地２,,24,470,5162103,,,2023-01-31,清算の結了等,,,2020-12-09,1,,,,,ホープワン,0
856,3240003000152,登記記録の閉鎖等,0,2023-02-03,2023-02-01,合名会社ビューティユー,,合名会社,広島県,広島市中区,国泰寺町２丁目４番１２－１０１号,,34,101,7300042,,,2023-02-01,清算の結了等,,,2015-10-05,1,,,,,ビューティユー,0
858,3240005009183,登記記録の閉鎖等,0,2023-02-03,2023-01-13,八幡神社,,その他の設立登記法人,広島県,福山市,新市町大字常２６１２番地,,34,207,7293107,,,2023-01-13,合併による解散等,8240005009179,令和５年１月１３日広島県福山市新市町大字常甲２２８８番地楢原神社（8240005009179）に合併し解散,2015-10-05,1,,,,,ハチマンジンジャ,0
863,3260003003005,登記記録の閉鎖等,0,2023-02-03,2023-02-01,０８６７合同会社,,合同会社,岡山県,真庭市,本郷１７５６番地,,33,214,7170007,,,2023-02-01,清算の結了等,,,2019-11-18,1,,,,,ゼロハチロクナナ,0
873,3290801012435,登記記録の閉鎖等,0,2023-02-03,2023-02-01,明治屋畜産株式会社,,株式会社,福岡県,北九州市若松区,中川町２番２７号,,40,103,8080025,,,2023-02-01,清算の結了等,,,2015-10-05,1,,,,,メイジヤチクサン,0
894,3340002027062,登記記録の閉鎖等,0,2023-02-03,2023-02-02,有限会社マンモス建巧,,有限会社,鹿児島県,肝属郡肝付町,新富２２１８番地２,,46,492,8931207,,,2023-02-02,清算の結了等,,,2015-10-05,1,,,,,マンモスケンコウ,0
928,3480001001211,登記記録の閉鎖等,0,2023-02-03,2023-02-01,スズエホーム株式会社,,株式会社,徳島県,徳島市,大松町榎原外８４番地９,,36,201,7708022,,,2023-02-01,合併による解散等,8480001001207,令和５年２月１日徳島市南昭和町一丁目４６番地１株式会社鈴江組（8480001001207）に合併し解散,2015-10-05,1,,,,,スズエホーム,0
950,4010002000092,登記記録の閉鎖等,0,2023-02-03,2023-02-01,有限会社アートアンドサイエンス,,有限会社,千葉県,柏市,大室１丁目８番地１３,,12,217,2770813,,,2023-02-01,清算の結了等,,,2015-10-05,1,,,,,アートアンドサイエンス,0
960,4010401090809,登記記録の閉鎖等,0,2023-02-03,2023-01-23,株式会社マーノンゴッツォ,,株式会社,東京都,港区,六本木１丁目５番３－１００７号,,13,103,1060032,,,2023-01-23,清算の結了等,,,2015-10-05,1,,,,,マーノンゴッツォ,0
973,4010403020623,登記記録の閉鎖等,0,2023-02-03,2023-01-23,Ｅｌｙｓｉｕｍ合同会社,,合同会社,東京都,港区,西麻布３丁目２番４７号エスナ六本木６０３,,13,103,1060031,,,2023-01-23,清算の結了等,,,2019-04-25,1,,,,,エリシャム,0
1002,4011103007035,登記記録の閉鎖等,0,2023-02-03,2023-02-01,合同会社ジェイ・エックス・ブイ,,合同会社,東京都,新宿区,下宮比町１番４号,,13,104,1620822,,,2023-02-01,清算の結了等,,,2017-05-10,1,,,,,ジェイエックスブイ,0
1022,4013402006411,登記記録の閉鎖等,0,2023-02-03,2023-02-01,有限会社長谷部建築設計事務所,,有限会社,東京都,多摩市,桜ヶ丘２丁目１３番地の３,,13,224,2060013,,,2023-02-01,清算の結了等,,,2015-10-05,1,,,,,ハセベケンチクセッケイジムショ,0
1044,4030002124880,登記記録の閉鎖等,0,2023-02-03,2023-01-31,北田工業有限会社,,有限会社,埼玉県,川口市,南町３０番地,,11,203,3320000,,,2023-01-31,清算の結了等,,,2020-12-21,1,,,,,キタダコウギョウ,0
1068,4070001003801,登記記録の閉鎖等,0,2023-02-03,2023-01-31,株式会社セントラル不動産,,株式会社,群馬県,前橋市,朝倉町３丁目２８番地の２１,,10,201,3710811,,,2023-01-31,清算の結了等,,,2015-10-05,1,,,,,セントラルフドウサン,0
1094,4120001130227,登記記録の閉鎖等,0,2023-02-03,2023-01-30,株式会社ユカリズム,,株式会社,沖縄県,那覇市,首里寒川町２丁目１９番地サンクレスト首里寒川南綾門３０５,,47,201,9030826,,,2023-01-30,清算の結了等,,,2015-10-05,1,,,,,,0
1110,4122001003651,登記記録の閉鎖等,0,2023-02-03,2023-01-27,正光株式会社,,株式会社,大阪府,東大阪市,水走４丁目１番３２号,,27,227,5780921,,,2023-01-27,清算の結了等,,,2015-10-05,1,,,,,マサミツ,0
1145,4140002031158,登記記録の閉鎖等,0,2023-02-03,2023-01-31,有限会社藤原建築工房,,有限会社,兵庫県,三木市,跡部２１２番地,,28,215,6730401,,,2023-01-31,清算の結了等,,,2015-10-05,1,,,,,,0
1148,4140005025181,登記記録の閉鎖等,0,2023-02-03,2023-02-02,一般社団法人くらし支援ネット神戸,,その他の設立登記法人,兵庫県,神戸市中央区,江戸町８５番１ベイ・ウイング神戸ビル１４階,,28,110,6500033,,,2023-02-02,清算の結了等,,,2020-05-28,1,,,,,クラシシエンネットコウベ,0
1166,4180301016335,登記記録の閉鎖等,0,2023-02-03,2023-02-01,株式会社テスコシステム,,株式会社,愛知県,碧南市,宮後町１丁目６５番地,,23,209,4470856,,,2023-02-01,合併による解散等,9180301015324,令和５年２月１日愛知県碧南市宮後町三丁目５８番地株式会社竹中電機（9180301015324）に合併し解散,2015-10-05,1,,,,,テスコシステム,0
1167,4180301025393,登記記録の閉鎖等,0,2023-02-03,2023-01-31,株式会社四ツ葉メディカルグループ,,株式会社,愛知県,岡崎市,大門５丁目１番地１５,,23,202,4442135,,,2023-01-31,清算の結了等,,,2015-10-05,1,,,,,ヨツバメディカルグループ,0
1170,4190001010240,登記記録の閉鎖等,0,2023-02-03,2023-02-01,三恵興産株式会社,,株式会社,三重県,松阪市,久保町１８５５番地の４５７,,24,204,5150044,,,2023-02-01,清算の結了等,,,2015-10-05,1,,,,,サンケイコウサン,0
1172,4190001024926,登記記録の閉鎖等,0,2023-02-03,2023-01-31,株式会社ダイムコスモス,,株式会社,三重県,伊勢市,上地町２６９１番地６,,24,203,5160051,,,2023-01-31,清算の結了等,,,2017-09-05,1,,,,,ダイムコスモス,0
1178,4200001035137,登記記録の閉鎖等,0,2023-02-03,2023-02-02,株式会社ほがらカンパニー,,株式会社,岐阜県,瑞穂市,別府６５８番地１４,,21,216,5010222,,,2023-02-02,清算の結了等,,,2018-05-07,1,,,,,ホガラカンパニー,0
1181,4200002013546,登記記録の閉鎖等,0,2023-02-03,2023-02-01,有限会社西貞,,有限会社,岐阜県,安八郡神戸町,大字南方２６１番地,,21,381,5032328,,,2023-02-01,清算の結了等,,,2015-10-05,1,,,,,ニシサダ,0
1200,4290001071157,登記記録の閉鎖等,0,2023-02-03,2023-01-30,株式会社サンゴルフコミュニケーションズ,,株式会社,福岡県,宮若市,乙野１１２１番地,,40,226,8220131,,,2023-01-30,清算の結了等,,,2015-10-05,1,,,,,サンゴルフコミュニケーションズ,0
1213,4290802012961,登記記録の閉鎖等,0,2023-02-03,2023-02-01,有限会社ほほえみ,,有限会社,福岡県,北九州市八幡西区,永犬丸南町２丁目２番４１号,,40,109,8070845,,,2023-02-01,合併による解散等,2290802014134,令和５年２月１日北九州市八幡西区永犬丸南町二丁目２番４１号株式会社ほほえみ（2290802014134）に合併し解散,2015-10-05,1,,,,,ホホエミ,0
1215,4300005004458,登記記録の閉鎖等,0,2023-02-03,2023-02-02,特定非営利活動法人ジョイナス有田,,その他の設立登記法人,佐賀県,西松浦郡有田町,外尾町丙１３７９番地,,41,401,8440026,,,2023-02-02,清算の結了等,,,2015-10-05,1,,,,,ジョイナスアリタ,0
1216,4310001012182,登記記録の閉鎖等,0,2023-02-03,2023-02-01,長崎吉原工業株式会社,,株式会社,長崎県,大村市,松並２丁目１８４番地９,,42,205,8560814,,,2023-02-01,清算の結了等,,,2015-10-05,1,,,,,ナガサキヨシハラコウギョウ,0
1220,4320205000172,登記記録の閉鎖等,0,2023-02-03,2023-01-23,天理教下浦分教会,,その他の設立登記法人,大分県,津久見市,徳浦本町９番１９号,,44,207,8792472,,,2023-01-23,合併による解散等,1320205000233,令和５年１月２３日大分県臼杵市大字前田字中原１４１番地天理教臼杵分教会（1320205000233）に合併し解散,2015-10-05,1,,,,,,0
1224,4340001024076,登記記録の閉鎖等,0,2023-02-03,2023-02-01,株式会社ＭＢＣグッドコミュニケーションズ,,株式会社,鹿児島県,鹿児島市,高麗町５番２５号,,46,201,8900051,,,2023-02-01,清算の結了等,,,2021-09-13,1,,,,,エムビーシーグッドコミュニケーションズ,0
1236,4370001018075,登記記録の閉鎖等,0,2023-02-03,2023-02-02,株式会社ファインサポート,,株式会社,宮城県,仙台市泉区,泉中央４丁目１１番地６啓進ビル泉中央４階,,04,105,9813133,,,2023-02-02,清算の結了等,,,2015-10-05,1,,,,,ファインサポート,0
1239,4370001039187,登記記録の閉鎖等,0,2023-02-03,2023-01-30,株式会社スピリットパワー,,株式会社,宮城県,東松島市,矢本字上新沼１６番地１,,04,214,9810503,,,2023-01-30,清算の結了等,,,2016-02-15,1,,,,,,0
1248,4390003001762,登記記録の閉鎖等,0,2023-02-03,2023-01-30,合同会社リーフエディット,,合同会社,山形県,山形市,深町２丁目３番３３号Ｋｉｚｕｎａ　Ｏｆｆｉｃｅ　Ｂ,,06,201,9902462,,,2023-01-30,清算の結了等,,,2020-10-13,1,,,,,リーフエディット,0
1264,5010001037317,登記記録の閉鎖等,0,2023-02-03,2023-01-25,伊藤装身具株式会社,,株式会社,東京都,中央区,日本橋堀留町２丁目１番５－５０３号,,13,102,1030012,,,2023-01-25,清算の結了等,,,2015-10-05,1,,,,,イトウソウシング,0
1272,5010001123117,登記記録の閉鎖等,0,2023-02-03,2023-02-01,ポーレックス・テクノロジーズ日本株式会社,,株式会社,静岡県,富士宮市,小泉１９８０番地５,,22,207,4180022,,,2023-02-01,清算の結了等,,,2015-10-05,1,,,,,ポーレックステクノロジーズニホン,0
1276,5010001190462,登記記録の閉鎖等,0,2023-02-03,2023-01-31,株式会社ネクトン,,株式会社,東京都,千代田区,外神田５丁目１番１５号,,13,101,1010021,,,2023-01-31,清算の結了等,,,2018-03-28,1,,,,,ネクトン,0
1278,5010002004464,登記記録の閉鎖等,0,2023-02-03,2023-01-31,有限会社中村蒲団店,,有限会社,千葉県,我孫子市,つくし野４丁目１５番４号,,12,222,2701164,,,2023-01-31,清算の結了等,,,2015-10-05,1,,,,,ナカムラフトンテン,0
1294,5010403015077,登記記録の閉鎖等,0,2023-02-03,2023-01-30,合同会社福島猪苗代太陽光発電,,合同会社,東京都,千代田区,九段北３丁目２番４号,,13,101,1020073,,,2023-01-30,清算の結了等,,,2016-07-25,1,,,,,フクシマイナワシロタイヨウコウハツデン,0
1302,5010802014299,登記記録の閉鎖等,0,2023-02-03,2023-01-30,有限会社ミルヴェール,,有限会社,東京都,大田区,鵜の木１丁目５番２－８０４号,,13,111,1460091,,,2023-01-30,清算の結了等,,,2015-10-05,1,,,,,ミルヴェール,0
1310,5011101092433,登記記録の閉鎖等,0,2023-02-03,2023-01-31,Ｃｏｏｋｉｆｙ株式会社,,株式会社,東京都,新宿区,四谷１丁目２２番地５ＷＥＳＴＡＬＬ四谷ビル１階,,13,104,1600004,,,2023-01-31,合併による解散等,9011101065740,令和５年１月３１日東京都新宿区四谷一丁目２２番地株式会社ルーデル（9011101065740）に合併し解散,2020-09-08,1,,,,,クッキファイ,0
1322,5011602001529,登記記録の閉鎖等,0,2023-02-03,2023-02-01,有限会社エス・イー・プランニング,,有限会社,東京都,練馬区,春日町１丁目１１番１６号,,13,120,1790074,,,2023-02-01,清算の結了等,,,2015-10-05,1,,,,,エスイープランニング,0
1329,5012401030512,登記記録の閉鎖等,0,2023-02-03,2023-02-01,株式会社デインヒル,,株式会社,東京都,稲城市,大丸２２１１番地の４０,,13,225,2060801,,,2023-02-01,清算の結了等,,,2015-10-05,1,,,,,デインヒル,0
1340,5020001094191,登記記録の閉鎖等,0,2023-02-03,2023-02-01,株式会社エムシーク,,株式会社,神奈川県,川崎市多摩区,登戸３３９８番地１,,14,135,2140014,,,2023-02-01,清算の結了等,,,2015-10-05,1,,,,,エムシーク,0
1348,5020002068574,登記記録の閉鎖等,0,2023-02-03,2023-01-31,有限会社ヘルスケアやまびこ,,有限会社,神奈川県,横浜市栄区,中野町１０６３番地の３,,14,115,2470015,,,2023-01-31,清算の結了等,,,2015-10-05,1,,,,,ヘルスケアヤマビコ,0
1356,5030001092277,登記記録の閉鎖等,0,2023-02-03,2023-01-24,株式会社２９８Ｃｏｍｐａｎｙ,,株式会社,埼玉県,川口市,大字安行藤八４６番地の３９,,11,203,3340051,,,2023-01-24,清算の結了等,,,2015-10-05,1,,,,,ニキュウハチカンパニー,0
1365,5030002107100,登記記録の閉鎖等,0,2023-02-03,2023-01-31,有限会社松石製作所,,有限会社,埼玉県,川口市,元郷４丁目２２番５号,,11,203,3320011,,,2023-01-31,清算の結了等,,,2015-10-05,1,,,,,マツイシセイサクショ,0
1369,5040001012977,登記記録の閉鎖等,0,2023-02-03,2023-02-01,株式会社富士工務店,,株式会社,千葉県,千葉市中央区,登戸１丁目１９番６－６０１号,,12,101,2600032,,,2023-02-01,清算の結了等,,,2015-10-05,1,,,,,フジコウムテン,0
1372,5040001116142,登記記録の閉鎖等,0,2023-02-03,2023-01-24,株式会社Ｒｅ．ｇｅｎｅｒａｔｉｏｎ,,株式会社,東京都,中央区,銀座１丁目２２番１１号銀座大竹ビジデンス２階,,13,102,1040061,,,2023-01-24,清算の結了等,,,2020-12-07,1,,,,,アールイージェネレーション,0
1386,5050002012901,登記記録の閉鎖等,0,2023-02-03,2023-01-30,有限会社ワコー工業,,有限会社,茨城県,稲敷郡阿見町,大字荒川本郷２０５５番地の４,,08,443,3001152,,,2023-01-30,清算の結了等,,,2015-10-05,1,,,,,ワコーコウギョウ,0
1390,5060002002785,登記記録の閉鎖等,0,2023-02-03,2023-02-01,有限会社片野商店,,有限会社,栃木県,宇都宮市,南大通り１丁目３番２５号,,09,201,3210963,,,2023-02-01,清算の結了等,,,2015-10-05,1,,,,,カタノショウテン,0
1409,5090002014019,登記記録の閉鎖等,0,2023-02-03,2023-02-01,有限会社アンパオ,,有限会社,山梨県,北杜市,長坂町白井沢３０４６番地２,,19,209,4080033,,,2023-02-01,清算の結了等,,,2015-10-05,1,,,,,,0
1412,5110001031499,登記記録の閉鎖等,0,2023-02-03,2023-02-01,横田企画株式会社,,株式会社,新潟県,新潟市中央区,上近江１丁目４番６４号ソレイユタナカマンション６０３号室,,15,103,9500973,,,2023-02-01,合併による解散等,6110001035739,令和５年２月１日新潟市西区上新栄町三丁目３番２０号株式会社ＫＡＮＡＭＩコンサルティング（6110001035739）に合併し解散,2016-05-09,1,,,,,ヨコタキカク,0
1425,5120101027009,登記記録の閉鎖等,0,2023-02-03,2023-02-01,株式会社Ｓ・Ｂ・Ｒ,,株式会社,大阪府,松原市,上田１丁目４番５号,,27,217,5800016,,,2023-02-01,合併による解散等,9120001033631,令和５年２月１日大阪市住吉区苅田五丁目１８番１２号富士ホームサービス株式会社（9120001033631）に合併し解散,2015-10-05,1,,,,,エスビーアール,0
1437,5130001060868,登記記録の閉鎖等,0,2023-02-03,2023-02-01,株式会社Ｉ・Ｔ地所,,株式会社,京都府,福知山市,字土師小字澤居山１７６番地,,26,201,6200857,,,2023-02-01,合併による解散等,4130001041992,令和５年２月１日京都府福知山市字土師小字澤居山１７６番地株式会社東亜興産（4130001041992）に合併し解散,2017-11-07,1,,,,,アイティージショ,0
1447,5140001045653,登記記録の閉鎖等,0,2023-02-03,2023-01-31,株式会社ＬＥＭＣＯ,,株式会社,兵庫県,高砂市,高砂町朝日町２丁目１４番５号,,28,216,6760021,,,2023-01-31,清算の結了等,,,2015-10-05,1,,,,,レムコ,0
1455,5150001018204,登記記録の閉鎖等,0,2023-02-03,2023-01-30,株式会社ＭＯＲＥ,,株式会社,奈良県,磯城郡田原本町,大字宮古２２８番地の２,,29,363,6360302,,,2023-01-30,清算の結了等,,,2015-10-05,1,,,,,,0
1463,5180001009662,登記記録の閉鎖等,0,2023-02-03,2023-02-01,余語金物株式会社,,株式会社,愛知県,名古屋市昭和区,川名本町３丁目１番地,,23,107,4660855,,,2023-02-01,清算の結了等,,,2015-10-05,1,,,,,ヨゴカナモノ,0
1464,5180001020917,登記記録の閉鎖等,0,2023-02-03,2023-01-31,株式会社マルキ,,株式会社,愛知県,名古屋市熱田区,大宝１丁目１４番１－７０１号,,23,109,4560062,,,2023-01-31,清算の結了等,,,2015-10-05,1,,,,,マルキ,0
1465,5180001063536,登記記録の閉鎖等,0,2023-02-03,2023-01-30,ＴＫテック株式会社,,株式会社,愛知県,清須市,須ケ口駅前１丁目１０番地,,23,233,4520912,,,2023-01-30,清算の結了等,,,2015-10-05,1,,,,,テイケイテック,0
1476,5180003023959,登記記録の閉鎖等,0,2023-02-03,2023-02-01,アクア商事合同会社,,合同会社,愛知県,名古屋市西区,名駅２丁目３４番１７号セントラル名古屋１１０１号,,23,104,4510045,,,2023-02-01,清算の結了等,,,2022-06-22,1,,,,,アクアショウジ,0
1480,5180302007043,登記記録の閉鎖等,0,2023-02-03,2023-01-31,有限会社カマダ青果,,有限会社,愛知県,豊橋市,富士見台４丁目７番地４,,23,201,4418135,,,2023-01-31,清算の結了等,,,2015-10-05,1,,,,,カマダセイカ,0
1485,5180305000607,登記記録の閉鎖等,0,2023-02-03,2023-01-31,梅園百貨商業協同組合,,その他の設立登記法人,愛知県,岡崎市,梅園町字１丁目３番地,,23,202,4440031,,,2023-01-31,清算の結了等,,,2015-10-05,1,,,,,ウメゾノヒャッカショウギョウ,0
1491,5220001016761,登記記録の閉鎖等,0,2023-02-03,2023-02-01,株式会社たかだや,,株式会社,石川県,鳳珠郡能登町,字宇出津新１０５番地,,17,463,9270432,,,2023-02-01,合併による解散等,7220002015901,令和５年２月１日石川県鳳珠郡能登町字宇出津新港二丁目７番地株式会社たかだや（7220002015901）に合併し解散,2015-10-05,1,,,,,タカダヤ,0
1499,5240001055329,登記記録の閉鎖等,0,2023-02-03,2023-01-31,株式会社沙沙貴,,株式会社,広島県,呉市,西鹿田２丁目１１番１８号,,34,202,7370074,,,2023-01-31,清算の結了等,,,2019-12-03,1,,,,,ササキ,0
1504,5250001016800,登記記録の閉鎖等,0,2023-02-03,2023-02-01,株式会社ａｏ,,株式会社,山口県,美祢市,伊佐町伊佐二ノ北川３８９９番地３,,35,213,7592222,,,2023-02-01,清算の結了等,,,2017-09-20,1,,,,,アオ,0
1521,5340005008818,登記記録の閉鎖等,0,2023-02-03,2023-02-02,特定非営利活動法人Ｓｉｌｋ　Ｏｓｈｉｍａ,,その他の設立登記法人,鹿児島県,奄美市,名瀬柳町１２番１１号,,46,222,8940032,,,2023-02-02,清算の結了等,,,2018-01-30,1,,,,,シルクオオシマ,0
1524,5360001017556,登記記録の閉鎖等,0,2023-02-03,2023-01-19,株式会社Ａｋｕｓｈｕ,,株式会社,東京都,新宿区,荒木町５番地４クサフカビル５Ｆ,,13,104,1600007,,,2023-01-19,合併による解散等,4360001014637,令和５年１月１日沖縄県浦添市仲西三丁目１５番５号　財全ＧＲＯＵＰ・ＢＬＤ株式会社財全ＧＲＯＵＰ（4360001014637）に合併し解散,2015-10-05,1,,,,,アクシュ,0
1531,5370801000776,登記記録の閉鎖等,0,2023-02-03,2023-01-31,株式会社東北リフォーム,,株式会社,宮城県,岩沼市,押分字南谷地８６番地の１,,04,211,9892423,,,2023-01-31,清算の結了等,,,2015-10-05,1,,,,,トウホクリフォーム,0
1547,5430005004956,登記記録の閉鎖等,0,2023-02-03,2023-01-31,医療法人社団ベテル泌尿器科クリニック,,その他の設立登記法人,北海道,札幌市北区,新琴似十一条１７丁目１番３３号,,01,102,0010911,,,2023-01-31,清算の結了等,,,2015-10-05,1,,,,,ベテルヒニョウキカクリニック,0
1548,5440005000979,登記記録の閉鎖等,0,2023-02-03,2023-01-27,医療法人社団かくもと内科消化器科クリニック,,その他の設立登記法人,北海道,函館市,杉並町２３番２０号,,01,202,0400004,,,2023-01-27,清算の結了等,,,2015-10-05,1,,,,,カクモトナイカショウカキカクリニック,0
1565,6010001144979,登記記録の閉鎖等,0,2023-02-03,2023-01-30,山佐ＣＥＳ６リース株式会社,,株式会社,東京都,千代田区,丸の内３丁目１番１号東京共同会計事務所内,,13,101,1000005,,,2023-01-30,清算の結了等,,,2015-10-05,1,,,,,ヤマサシーイーエスロクリース,0
1571,6010002014025,登記記録の閉鎖等,0,2023-02-03,2023-01-31,有限会社ブイ・シー・エイ,,有限会社,東京都,千代田区,神田神保町２丁目４６番地,,13,101,1010051,,,2023-01-31,清算の結了等,,,2015-10-05,1,,,,,ブイシーエイ,0
1605,6011001059044,登記記録の閉鎖等,0,2023-02-03,2023-01-25,株式会社ＯＫＡ,,株式会社,東京都,渋谷区,恵比寿西１丁目３４番２１号,,13,113,1500021,,,2023-01-25,清算の結了等,,,2015-10-05,1,,,,,オーケーエー,0
1609,6011002027248,登記記録の閉鎖等,0,2023-02-03,2023-01-30,有限会社現代工房建築設計事務所,,有限会社,東京都,渋谷区,代々木２丁目３０番２号,,13,113,1510053,,,2023-01-30,清算の結了等,,,2015-10-05,1,,,,,ゲンダイコウボウケンチクセッケイジムショ,0
1642,6020001040392,登記記録の閉鎖等,0,2023-02-03,2023-02-01,大我管理センター株式会社,,株式会社,神奈川県,横浜市神奈川区,鶴屋町３丁目３２番地１４新港ビル２０２号室,,14,102,2210835,,,2023-02-01,合併による解散等,9020001035142,令和５年２月１日横浜市神奈川区鶴屋町三丁目３２番地１４新港ビル２０２号室チームワン株式会社（9020001035142）に合併し解散,2015-10-05,1,,,,,タイガカンリセンター,0
1677,6030002042874,登記記録の閉鎖等,0,2023-02-03,2023-01-31,有限会社ヒロ・テクノ,,有限会社,埼玉県,比企郡滑川町,月の輪３丁目８番地１４,,11,341,3550815,,,2023-01-31,清算の結了等,,,2015-10-05,1,,,,,ヒロテクノ,0
1680,6030002105904,登記記録の閉鎖等,0,2023-02-03,2023-01-31,有限会社貫井商会,,有限会社,埼玉県,川口市,本町３丁目１５番１３号,,11,203,3320012,,,2023-01-31,清算の結了等,,,2015-10-05,1,,,,,ヌクイショウカイ,0
1690,6040002077218,登記記録の閉鎖等,0,2023-02-03,2023-01-31,有限会社大多和商事,,有限会社,千葉県,東金市,東新宿１２番地２２,,12,213,2830006,,,2023-01-31,清算の結了等,,,2015-10-05,1,,,,,オオタワショウジ,0
1702,6070002037755,登記記録の閉鎖等,0,2023-02-03,2023-01-31,有限会社ホテルキャニオン,,有限会社,群馬県,利根郡みなかみ町,小仁田５５８番地,,10,449,3791615,,,2023-01-31,清算の結了等,,,2023-01-13,1,,,,,ホテルキャニオン,0
1720,6120001128129,登記記録の閉鎖等,0,2023-02-03,2023-02-02,ＭＫ管財株式会社,,株式会社,大阪府,大阪市淀川区,三国本町１丁目１５番２５号,,27,123,5320005,,,2023-02-02,清算の結了等,,,2015-10-05,1,,,,,エムケイカンザイ,0
1726,6120001192587,登記記録の閉鎖等,0,2023-02-03,2023-02-01,株式会社西原工業,,株式会社,大阪府,守口市,大日町２丁目８番１号,,27,209,5700003,,,2023-02-01,清算の結了等,,,2015-10-05,1,,,,,ニシハラコウギョウ,0
1771,6180001018002,登記記録の閉鎖等,0,2023-02-03,2023-01-31,株式会社浜久,,株式会社,愛知県,名古屋市東区,東桜２丁目３番７号,,23,102,4610005,,,2023-01-31,清算の結了等,,,2015-10-05,1,,,,,ハマキュウ,0
1778,6180002067386,登記記録の閉鎖等,0,2023-02-03,2023-02-01,有限会社マルハチ,,有限会社,愛知県,春日井市,鳥居松町７丁目１１５番地,,23,206,4860844,,,2023-02-01,清算の結了等,,,2015-10-05,1,,,,,マルハチ,0
1779,6180003011335,登記記録の閉鎖等,0,2023-02-03,2023-02-01,合同会社ゆう,,合同会社,愛知県,春日井市,大手町３丁目６番地１,,23,206,4860807,,,2023-02-01,清算の結了等,,,2015-10-05,1,,,,,ユウ,0
1784,6190001018447,登記記録の閉鎖等,0,2023-02-03,2023-02-01,株式会社サクシードビルド,,株式会社,三重県,鈴鹿市,高岡町６５４番地の１,,24,207,5130014,,,2023-02-01,清算の結了等,,,2015-10-05,1,,,,,サクシードビルド,0
1785,6190002004776,登記記録の閉鎖等,0,2023-02-03,2023-01-31,有限会社堤住機プラントサービス,,有限会社,三重県,亀山市,三寺町１７７５番地の２,,24,210,5190135,,,2023-01-31,清算の結了等,,,2015-10-05,1,,,,,ツツミジュウキプラントサービス,0
1810,6290001053772,登記記録の閉鎖等,0,2023-02-03,2023-01-30,株式会社川口薬店,,株式会社,福岡県,大牟田市,大字倉永６６番地６,,40,202,8370906,,,2023-01-30,清算の結了等,,,2015-10-05,1,,,,,カワグチヤクテン,0
1820,6290801008950,登記記録の閉鎖等,0,2023-02-03,2023-02-01,株式会社中野,,株式会社,福岡県,北九州市小倉南区,志井６丁目４番３０号,,40,107,8020985,,,2023-02-01,清算の結了等,,,2015-10-05,1,,,,,ナカノ,0
1846,6350001010494,登記記録の閉鎖等,0,2023-02-03,2023-02-01,現代ホールディングス株式会社,,株式会社,東京都,新宿区,市谷本村町１番１号住友市ヶ谷ビル,,13,104,1620845,,,2023-02-01,合併による解散等,4010401090957,令和５年２月１日東京都新宿区市谷本村町１番１号住友市ヶ谷ビル株式会社ベストランド（4010401090957）に合併し解散,2015-10-05,1,,,,,ゲンダイホールディングス,0
1859,6380003003650,登記記録の閉鎖等,0,2023-02-03,2023-01-30,合同会社政祐土工,,合同会社,福島県,白河市,鬼越７８番地８,,07,205,9610885,,,2023-01-30,清算の結了等,,,2016-06-13,1,,,,,セイユウドコウ,0
1883,7010001144978,登記記録の閉鎖等,0,2023-02-03,2023-01-30,山佐ＣＥＳ５リース株式会社,,株式会社,東京都,千代田区,丸の内３丁目１番１号東京共同会計事務所内,,13,101,1000005,,,2023-01-30,清算の結了等,,,2015-10-05,1,,,,,ヤマサシーイーエスゴリース,0
1885,7010001166519,登記記録の閉鎖等,0,2023-02-03,2023-01-31,株式会社ＳＩＭＰＬＥＸ　ＰＥ,,株式会社,東京都,渋谷区,桜丘町２９番１２号,,13,113,1500031,,,2023-01-31,清算の結了等,,,2015-10-05,1,,,,,シンプレクスピーイー,0
1887,7010001182508,登記記録の閉鎖等,0,2023-02-03,2023-01-19,株式会社渡辺ホールディングス,,株式会社,東京都,千代田区,九段北１丁目６番７号岡部ビル５階,,13,101,1020073,,,2023-01-19,合併による解散等,1010001224414,令和５年１月１７日東京都千代田区九段北一丁目６番７号岡部ビル５階ストラク株式会社（1010001224414）に合併し解散,2017-04-04,1,,,,,ワタナベホールディングス,0
1923,7011001129267,登記記録の閉鎖等,0,2023-02-03,2023-01-27,株式会社ＧＲＩＴ,,株式会社,東京都,渋谷区,神宮前１丁目５－８,,13,113,1500001,,,2023-01-27,清算の結了等,,,2019-08-01,1,,,,,グリット,0
1946,7012403000032,登記記録の閉鎖等,0,2023-02-03,2023-01-31,合資会社小田川商店,,合資会社,東京都,府中市,宮西町５丁目５番地１３,,13,206,1830022,,,2023-01-31,清算の結了等,,,2015-10-05,1,,,,,オダガワショウテン,0
1949,7012803001729,登記記録の閉鎖等,0,2023-02-03,2023-02-01,合同会社スマイルフェイズ,,合同会社,東京都,立川市,西砂町６丁目６２番地の１１,,13,202,1900034,,,2023-02-01,清算の結了等,,,2017-12-27,1,,,,,スマイルフェイズ,0
1956,7020001020872,登記記録の閉鎖等,0,2023-02-03,2023-01-31,株式会社大裕,,株式会社,神奈川県,横浜市港北区,樽町３丁目７番７７号大塚工機ビル内,,14,109,2220001,,,2023-01-31,清算の結了等,,,2015-10-05,1,,,,,ダイユウ,0
1957,7020001080900,登記記録の閉鎖等,0,2023-02-03,2023-01-31,株式会社アイシーク,,株式会社,神奈川県,川崎市高津区,梶ケ谷２丁目３番５号,,14,134,2130015,,,2023-01-31,清算の結了等,,,2015-10-05,1,,,,,アイシーク,0
1958,7020001094479,登記記録の閉鎖等,0,2023-02-03,2023-02-01,株式会社ＶＩＶＬＥ,,株式会社,神奈川県,川崎市中原区,小杉町１丁目５１６番地２,,14,133,2110063,,,2023-02-01,清算の結了等,,,2015-10-05,1,,,,,ビブレ,0
1962,7020002040390,登記記録の閉鎖等,0,2023-02-03,2023-01-31,有限会社ミヤ建材,,有限会社,神奈川県,横浜市鶴見区,向井町１丁目５３番地,,14,101,2300037,,,2023-01-31,清算の結了等,,,2015-10-05,1,,,,,ミヤケンザイ,0
1965,7021001043599,登記記録の閉鎖等,0,2023-02-03,2023-01-31,石原建設工業株式会社,,株式会社,神奈川県,三浦市,三崎町小網代１５３２番地,,14,210,2380225,,,2023-01-31,清算の結了等,,,2015-10-05,1,,,,,イシハラケンセツコウギョウ,0
1984,7040001124192,登記記録の閉鎖等,0,2023-02-03,2023-02-01,株式会社アイケー,,株式会社,千葉県,市川市,市川南１丁目７番３２号,,12,203,2720033,,,2023-02-01,清算の結了等,,,2022-07-12,1,,,,,アイケー,0
2000,7060002036690,登記記録の閉鎖等,0,2023-02-03,2023-02-01,有限会社たちばな商事,,有限会社,栃木県,足利市,田中町８３１番地３,,09,202,3260822,,,2023-02-01,清算の結了等,,,2015-10-05,1,,,,,タチバナショウジ,0
2005,7070002023795,登記記録の閉鎖等,0,2023-02-03,2023-01-31,有限会社すずき,,有限会社,群馬県,桐生市,新宿２丁目１番８号,,10,203,3760006,,,2023-01-31,清算の結了等,,,2015-10-05,1,,,,,スズキ,0
2011,7080101006857,登記記録の閉鎖等,0,2023-02-03,2023-02-01,サン＆ナチュラル株式会社,,株式会社,静岡県,田方郡函南町,上沢９５１番地の２６８,,22,325,4190122,,,2023-02-01,清算の結了等,,,2015-10-05,1,,,,,サンアンドナチュラル,0
2022,7120001021803,登記記録の閉鎖等,0,2023-02-03,2023-02-02,株式会社南プロセス工芸社,,株式会社,大阪府,大阪市平野区,平野上町１丁目１１番１７号,,27,126,5470045,,,2023-02-02,清算の結了等,,,2015-10-05,1,,,,,,0
2043,7120101035884,登記記録の閉鎖等,0,2023-02-03,2023-02-02,株式会社マエカワ,,株式会社,大阪府,堺市堺区,三宝町２丁１４２番地９,,27,141,5900906,,,2023-02-02,清算の結了等,,,2015-10-05,1,,,,,マエカワ,0
2059,7130002002990,登記記録の閉鎖等,0,2023-02-03,2023-02-02,有限会社ミクルマ,,有限会社,京都府,京都市上京区,今出川通寺町東入表町４０番地,,26,102,6020825,,,2023-02-02,清算の結了等,,,2015-10-05,1,,,,,ミクルマ,0
2070,7140002005514,登記記録の閉鎖等,0,2023-02-03,2023-01-30,有限会社神戸ユニ,,有限会社,兵庫県,神戸市西区,秋葉台３丁目６番地の１１,,28,111,6512224,,,2023-01-30,清算の結了等,,,2015-10-05,1,,,,,コウベユニ,0
2076,7160003001568,登記記録の閉鎖等,0,2023-02-03,2023-02-01,合同会社敷波保夫研究所,,合同会社,滋賀県,草津市,南山田町１０６３番地２,,25,206,5250063,,,2023-02-01,清算の結了等,,,2017-09-28,1,,,,,シキナミヤスオケンキュウショ,0
2086,7180002013991,登記記録の閉鎖等,0,2023-02-03,2023-02-02,有限会社菅沼研磨工業所,,有限会社,愛知県,名古屋市南区,北内町２丁目３番地,,23,112,4570049,,,2023-02-02,清算の結了等,,,2015-10-05,1,,,,,スガヌマケンマコウギョウショ,0
2091,7180301025639,登記記録の閉鎖等,0,2023-02-03,2023-02-01,株式会社エリアプランナーズ岡崎,,株式会社,愛知県,岡崎市,福岡町字南藤六２１番地１,,23,202,4440825,,,2023-02-01,清算の結了等,,,2015-10-05,1,,,,,エリアプランナーズオカザキ,0
2095,7190001015204,登記記録の閉鎖等,0,2023-02-03,2023-02-01,株式会社ＪＳ総合エンジニアリング,,株式会社,三重県,鈴鹿市,高岡町６５４番地の１,,24,207,5130014,,,2023-02-01,清算の結了等,,,2015-10-05,1,,,,,ジェイエスソウゴウエンジニアリング,0
2098,7190003002381,登記記録の閉鎖等,0,2023-02-03,2023-02-01,合同会社太陽光発電西条,,合同会社,三重県,鈴鹿市,西条１丁目１９番２号,,24,207,5130809,,,2023-02-01,清算の結了等,,,2015-10-05,1,,,,,タイヨウコウハツデンニシジョウ,0
2130,7290002054372,登記記録の閉鎖等,0,2023-02-03,2023-01-31,有限会社誠晃エンジニアリング,,有限会社,福岡県,柳川市,上宮永町９７１番地の１,,40,207,8320058,,,2023-01-31,清算の結了等,,,2015-10-05,1,,,,,ヨミガナ,0
2131,7290801004115,登記記録の閉鎖等,0,2023-02-03,2023-02-01,北九州エル・エヌ・ジー・ローリー販売株式会社,,株式会社,福岡県,北九州市戸畑区,飛幡町２番２号,,40,105,8040001,,,2023-02-01,合併による解散等,3290801000704,令和５年２月１日北九州市戸畑区大字中原字先の浜４６番１１７北九州エル・エヌ・ジー株式会社（3290801000704）に合併し解散,2015-10-05,1,,,,,キタキュウシュウエルエヌジーローリーハンバイ,0
2171,7470002003971,登記記録の閉鎖等,0,2023-02-03,2023-02-01,有限会社瀬戸内スイミングスクール,,有限会社,香川県,高松市,木太町５４６番地,,37,201,7600080,,,2023-02-01,合併による解散等,3470001004116,令和５年２月１日香川県高松市田村町３９７番地株式会社ヤマウチ（3470001004116）に合併し解散,2015-10-05,1,,,,,セトウチスイミングスクール,0
2172,7480002015520,登記記録の閉鎖等,0,2023-02-03,2023-02-02,近藤左官工業有限会社,,有限会社,徳島県,三好市,池田町ウヱノ２６９５番地の１,,36,208,7780001,,,2023-02-02,清算の結了等,,,2015-10-05,1,,,,,コンドウサカンコウギョウ,0
2173,7490002007665,登記記録の閉鎖等,0,2023-02-03,2023-02-01,有限会社マイエステート,,有限会社,高知県,高知市,中久万５７４番地１,,39,201,7800983,,,2023-02-01,合併による解散等,4490001008089,令和５年２月１日高知市中久万５７４番地１株式会社濱田ビルディング（4490001008089）に合併し解散,2015-10-05,1,,,,,マイエステート,0
2190,8010001189345,登記記録の閉鎖等,0,2023-02-03,2023-01-31,Ｂｅｙｏｎｄ株式会社,,株式会社,東京都,新宿区,新宿１丁目２４番７号,,13,104,1600022,,,2023-01-31,合併による解散等,9011101065740,令和５年１月３１日東京都新宿区四谷一丁目２２番地株式会社ルーデル（9011101065740）に合併し解散,2018-02-01,1,,,,,ビヨンド,0
2192,8010002031852,登記記録の閉鎖等,0,2023-02-03,2023-02-01,有限会社誠倖トレーディング,,有限会社,千葉県,船橋市,三咲７丁目２２番地２０号,,12,204,2740812,,,2023-02-01,清算の結了等,,,2015-10-05,1,,,,,セイコウトレーディング,0
2194,8010005025496,登記記録の閉鎖等,0,2023-02-03,2023-02-01,一般社団法人ぐるっとパト,,その他の設立登記法人,東京都,中央区,日本橋箱崎町２８番地１－２０５,,13,102,1030015,,,2023-02-01,清算の結了等,,,2016-06-29,1,,,,,グルットパト,0
2197,8010401042178,登記記録の閉鎖等,0,2023-02-03,2023-01-31,株式会社ＲＲＡ,,株式会社,東京都,千代田区,九段南３丁目３番１４号フラット九段南４０２号室,,13,101,1020074,,,2023-01-31,清算の結了等,,,2015-10-05,1,,,,,アールアールエイ,0
2225,8010702013159,登記記録の閉鎖等,0,2023-02-03,2023-02-01,ａｐｏ’ｓｔｒｏｐｈｅ有限会社,,有限会社,静岡県,伊東市,池８９３番地の９７,,22,208,4130234,,,2023-02-01,清算の結了等,,,2015-10-05,1,,,,,アポストロフィ,0
2229,8010802010428,登記記録の閉鎖等,0,2023-02-03,2023-01-30,有限会社友谷運輸,,有限会社,東京都,大田区,北糀谷１丁目１８番８－５０１号,,13,111,1440032,,,2023-01-30,清算の結了等,,,2015-10-05,1,,,,,トモヤウンユ,0
2264,8012702013898,登記記録の閉鎖等,0,2023-02-03,2023-02-01,有限会社ダウランドアンドカンパニイ,,有限会社,東京都,東村山市,萩山町３丁目２１番地１７,,13,213,1890012,,,2023-02-01,清算の結了等,,,2015-10-05,1,,,,,ダウランドアンドカンパニイ,0
2288,8030001008131,登記記録の閉鎖等,0,2023-02-03,2023-01-30,株式会社三浦造園設計事務所,,株式会社,埼玉県,さいたま市見沼区,東大宮２丁目２０番地の８,,11,104,3370051,,,2023-01-30,清算の結了等,,,2015-10-05,1,,,,,ミウラゾウエンセッケイジムショ,0
2289,8030001040150,登記記録の閉鎖等,0,2023-02-03,2023-02-01,株式会社クマガイアート,,株式会社,埼玉県,草加市,青柳町４２９,,11,221,3400007,,,2023-02-01,清算の結了等,,,2015-10-05,1,,,,,クマガイアート,0
2332,8120001181225,登記記録の閉鎖等,0,2023-02-03,2023-02-01,株式会社馬場建装,,株式会社,大阪府,大阪市西成区,松３丁目１番２９号,,27,122,5570034,,,2023-02-01,清算の結了等,,,2015-10-05,1,,,,,ババケンソウ,0
2401,8190003002380,登記記録の閉鎖等,0,2023-02-03,2023-02-01,合同会社自然エネルギーＫＡＮＢＥ,,合同会社,三重県,鈴鹿市,神戸８丁目１７番１５号,,24,207,5130801,,,2023-02-01,清算の結了等,,,2015-10-05,1,,,,,シゼンエネルギーカンベ,0
2411,8240001022029,登記記録の閉鎖等,0,2023-02-03,2023-02-01,株式会社ケイズ・エンタープライズ,,株式会社,広島県,広島市中区,舟入本町１７番２号,,34,101,7300843,,,2023-02-01,清算の結了等,,,2015-10-05,1,,,,,ケイズエンタープライズ,0
2415,8240002044303,登記記録の閉鎖等,0,2023-02-03,2023-02-01,有限会社ワイエスネットワーク,,有限会社,岡山県,笠岡市,七番町１番地２１,,33,205,7140094,,,2023-02-01,清算の結了等,,,2015-10-05,1,,,,,ワイエスネットワーク,0
2417,8240005005780,登記記録の閉鎖等,0,2023-02-03,2023-02-01,光徳寺,,その他の設立登記法人,広島県,呉市,和庄２丁目１１番１５号,,34,202,7370041,,,2023-02-01,清算の結了等,,,2015-10-05,1,,,,,コウトクジ,0
2421,8240005013965,登記記録の閉鎖等,0,2023-02-03,2023-01-31,特定非営利活動法人孝,,その他の設立登記法人,広島県,広島市安芸区,畑賀３丁目２５番７号,,34,107,7360088,,,2023-01-31,清算の結了等,,,2015-10-05,1,,,,,コウ,0
2435,8290002021636,登記記録の閉鎖等,0,2023-02-03,2023-02-01,有限会社天匠,,有限会社,福岡県,春日市,白水ヶ丘３丁目３７番地,,40,218,8160845,,,2023-02-01,清算の結了等,,,2015-10-05,1,,,,,テンショウ,0
2448,8330001016129,登記記録の閉鎖等,0,2023-02-03,2023-01-31,多良木青果株式会社,,株式会社,熊本県,球磨郡多良木町,大字多良木３９８９番地,,43,505,8680501,,,2023-01-31,清算の結了等,,,2015-10-05,1,,,,,タラギセイカ,0
2458,8370001017734,登記記録の閉鎖等,0,2023-02-03,2023-01-31,東宝開発株式会社,,株式会社,宮城県,富谷市,穀田丸森一番９番地,,04,216,9813327,,,2023-01-31,清算の結了等,,,2015-10-05,1,,,,,トウホウカイハツ,0
2477,8430001086459,登記記録の閉鎖等,0,2023-02-03,2023-02-01,株式会社関伸工業,,株式会社,北海道,札幌市北区,新琴似八条１５丁目８番１０号,,01,102,0010908,,,2023-02-01,清算の結了等,,,2022-04-19,1,,,,,セキシンコウギョウ,0
2482,8430005010101,登記記録の閉鎖等,0,2023-02-03,2023-02-01,室蘭登別家具建具工業協同組合,,その他の設立登記法人,北海道,室蘭市,東町３丁目２６番３号,,01,205,0500083,,,2023-02-01,清算の結了等,,,2015-10-05,1,,,,,ムロランノボリベツカグタテグ,0
2498,8500002019096,登記記録の閉鎖等,0,2023-02-03,2023-01-31,有限会社正岡木工所,,有限会社,愛媛県,今治市,波方町波方甲１９３３番地４０,,38,202,7992101,,,2023-01-31,清算の結了等,,,2015-10-05,1,,,,,マサオカモッコウショ,0
2504,9010001156947,登記記録の閉鎖等,0,2023-02-03,2023-01-23,Ａｃｔｉｆｉｏ　Ｊａｐａｎ株式会社,,株式会社,東京都,港区,六本木６丁目１０番１号六本木ヒルズ森タワー,,13,103,1060032,,,2023-01-23,清算の結了等,,,2015-10-05,1,,,,,アクティフィオジャパン,0
2510,9010003027873,登記記録の閉鎖等,0,2023-02-03,2023-01-30,ＥＣＢホールディング合同会社,,合同会社,東京都,千代田区,丸の内３丁目１番１号東京共同会計事務所内,,13,101,1000005,,,2023-01-30,清算の結了等,,,2018-07-10,1,,,,,イーシービーホールディング,0
2522,9010401150921,登記記録の閉鎖等,0,2023-02-03,2023-01-23,株式会社ビオライトニング,,株式会社,東京都,港区,北青山２丁目７番１３号,,13,103,1070061,,,2023-01-23,清算の結了等,,,2020-02-07,1,,,,,ビオライトニング,0
2529,9010403019363,登記記録の閉鎖等,0,2023-02-03,2023-01-20,Ｍｕｒａｎｏ３合同会社,,合同会社,東京都,港区,虎ノ門４丁目１番２８号,,13,103,1050001,,,2023-01-20,清算の結了等,,,2018-09-21,1,,,,,ムラーノスリー,0
2550,9011001066252,登記記録の閉鎖等,0,2023-02-03,2023-01-31,株式会社ＥＮ,,株式会社,東京都,渋谷区,広尾５丁目１９番９号,,13,113,1500012,,,2023-01-31,合併による解散等,4011001026302,令和５年１月３１日東京都渋谷区広尾五丁目１９番９号広尾ＯＮビルＧＭＯ　ＥＮＧＩＮＥ株式会社（4011001026302）に合併し解散,2015-10-05,1,,,,,エン,0
2569,9011201002387,登記記録の閉鎖等,0,2023-02-03,2023-02-02,株式会社システムプランニング,,株式会社,東京都,中野区,沼袋３丁目２５番５号,,13,114,1650025,,,2023-02-02,清算の結了等,,,2015-10-05,1,,,,,システムプランニング,0
2654,9080002006203,登記記録の閉鎖等,0,2023-02-03,2023-02-02,有限会社ユニオンネームプレート工業所,,有限会社,静岡県,静岡市葵区,岳美２０番９号,,22,101,4200934,,,2023-02-02,清算の結了等,,,2015-10-05,1,,,,,ユニオンネームプレートコウギョウショ,0
2664,9100001000897,登記記録の閉鎖等,0,2023-02-03,2023-02-01,ケイ・ビー・アイ株式会社,,株式会社,長野県,長野市,大字富田１番地８０,,20,201,3800882,,,2023-02-01,清算の結了等,,,2015-10-05,1,,,,,ケイビーアイ,0
2678,9120001224619,登記記録の閉鎖等,0,2023-02-03,2023-01-31,ウエストバレー株式会社,,株式会社,大阪府,大阪市淀川区,木川西１丁目２番５号,,27,123,5320013,,,2023-01-31,合併による解散等,9120001244063,令和５年１月３１日大阪市北区鶴野町１番９号２株式会社（9120001244063）に合併し解散,2019-10-25,1,,,,,ウエストバレー,0
2692,9122001009025,登記記録の閉鎖等,0,2023-02-03,2023-02-01,クーフィー商事株式会社,,株式会社,大阪府,東大阪市,横枕西１０番３０号,,27,227,5780956,,,2023-02-01,合併による解散等,7122001006511,令和５年２月１日大阪府東大阪市横枕西１０番３０号株式会社ヘキサケミカル（7122001006511）に合併し解散,2015-10-05,1,,,,,クーフィーショウジ,0
2693,9122001024107,登記記録の閉鎖等,0,2023-02-03,2023-02-01,株式会社カプシカンパニー,,株式会社,大阪府,東大阪市,長田２丁目１５番８号,,27,227,5770015,,,2023-02-01,合併による解散等,4122001012990,令和５年２月１日大阪府東大阪市長田二丁目１５番８号株式会社ジェイブネット（4122001012990）に合併し解散,2015-10-05,1,,,,,カプシカンパニー,0
2699,9130001016874,登記記録の閉鎖等,0,2023-02-03,2023-02-02,株式会社兼田紙巧,,株式会社,京都府,京都市下京区,猪熊通綾小路下る瀬戸屋町２８９番地,00047175,26,106,6008398,,,2023-02-02,清算の結了等,,,2015-10-05,1,,,,,カネダシコウ,0
2712,9140001049923,登記記録の閉鎖等,0,2023-02-03,2023-01-31,株式会社田中延治郎商店,,株式会社,兵庫県,尼崎市,東大物町２丁目２番２２号,,28,202,6600828,,,2023-01-31,清算の結了等,,,2015-10-05,1,,,,,タナカエンジロウショウテン,0
2743,9180301000540,登記記録の閉鎖等,0,2023-02-03,2023-02-01,太田工業株式会社,,株式会社,愛知県,岡崎市,美合町字生田１９番地１,,23,202,4440804,,,2023-02-01,清算の結了等,,,2015-10-05,1,,,,,オオタコウギョウ,0
2748,9180302008822,登記記録の閉鎖等,0,2023-02-03,2023-01-31,有限会社豊橋機器,,有限会社,愛知県,豊橋市,往完町字往還西３４番地１,,23,201,4418082,,,2023-01-31,清算の結了等,,,2015-10-05,1,,,,,トヨハシキキ,0
2751,9190001026109,登記記録の閉鎖等,0,2023-02-03,2023-02-01,株式会社スズカエージェント,,株式会社,三重県,鈴鹿市,江島本町３９番８号,,24,207,5100234,,,2023-02-01,清算の結了等,,,2019-01-07,1,,,,,スズカエージェント,0
2764,9240001051662,登記記録の閉鎖等,0,2023-02-03,2023-02-02,株式会社エネオプティ,,株式会社,広島県,広島市中区,土橋町７番１号,,34,101,7300854,,,2023-02-02,清算の結了等,,,2017-09-06,1,,,,,エネオプティ,0
2776,9260002000550,登記記録の閉鎖等,0,2023-02-03,2023-02-01,有限会社アレス,,有限会社,岡山県,岡山市中区,藤原２３番地１５,,33,102,7038245,,,2023-02-01,合併による解散等,2260002010886,令和５年２月１日岡山市中区藤原２３番地の１５株式会社アレス（2260002010886）に合併し解散,2015-10-05,1,,,,,アレス,0
2790,9290002021635,登記記録の閉鎖等,0,2023-02-03,2023-02-01,有限会社マルヤ商事,,有限会社,福岡県,春日市,白水ヶ丘３丁目３７番地,,40,218,8160845,,,2023-02-01,清算の結了等,,,2015-10-05,1,,,,,マルヤショウジ,0
2795,9290801012669,登記記録の閉鎖等,0,2023-02-03,2023-02-01,株式会社北九リニューアル工業,,株式会社,福岡県,北九州市八幡東区,枝光本町７番１号,,40,108,8050008,,,2023-02-01,合併による解散等,6290801023801,令和５年２月１日福岡県直方市殿町１１－３６株式会社関谷（6290801023801）に合併し解散,2015-10-05,1,,,,,キタキュウリニューアルコウギョウ,0
2804,9330001011343,登記記録の閉鎖等,0,2023-02-03,2023-02-01,株式会社オカモト,,株式会社,熊本県,熊本市中央区,草葉町２番地２６号,,43,101,8600843,,,2023-02-01,清算の結了等,,,2015-10-05,1,,,,,オカモト,0
2806,9330002025607,登記記録の閉鎖等,0,2023-02-03,2023-02-01,有限会社エム・エス・エム,,有限会社,熊本県,八代市,萩原町１丁目５番２３号,,43,202,8660831,,,2023-02-01,清算の結了等,,,2015-10-05,1,,,,,エムエスエム,0
2808,9340002016910,登記記録の閉鎖等,0,2023-02-03,2023-02-01,有限会社永田水産,,有限会社,鹿児島県,薩摩川内市,港町６４番地,,46,215,8991924,,,2023-02-01,清算の結了等,,,2015-10-05,1,,,,,ナガタスイサン,0
2814,9370001017568,登記記録の閉鎖等,0,2023-02-03,2023-01-31,新永株式会社,,株式会社,宮城県,富谷市,穀田丸森一番９番地,,04,216,9813327,,,2023-01-31,清算の結了等,,,2015-10-05,1,,,,,シンエイ,0
2815,9370001024531,登記記録の閉鎖等,0,2023-02-03,2023-01-31,株式会社ＺＯＮＥ,,株式会社,東京都,新宿区,大久保１丁目１番１０号ＧＵＮＫＡＮ東新宿６０５号室,,13,104,1690072,,,2023-01-31,清算の結了等,,,2015-10-05,1,,,,,ゾーン,0
2821,9400602000357,登記記録の閉鎖等,0,2023-02-03,2023-02-01,有限会社小洞天,,有限会社,岩手県,奥州市,水沢東上野町４番１６号,,03,215,0230853,,,2023-02-01,清算の結了等,,,2015-10-05,1,,,,,ショウドウテン,0
2828,9430005002007,登記記録の閉鎖等,0,2023-02-03,2023-02-01,医療法人社団北耀会あさぶ小児科,00090005,その他の設立登記法人,北海道,札幌市北区,北四十条西４丁目２番１５号東光ストア麻生店２階,,01,102,0010040,,,2023-02-01,清算の結了等,,,2015-10-05,1,,,,,ホクヨウカイアサブショウニカ,0
