sequenceNumber,corporateNumber,process,correct,updateDate,changeDate,name,nameImageId,kind,prefectureName,cityName,streetNumber,addressImageId,prefectureCode,cityCode,postCode,addressOutside,addressOutsideImageId,closeDate,closeCause,successorCorporateNumber,changeCause,assignmentDate,latest,enName,enPrefectureName,enCityName,enAddressOutside,furigana,hihyoji
10,1010001239775,新規,0,2023-11-09,2023-11-09,株式会社メプロホールディングス,,株式会社,東京都,千代田区,丸の内２丁目５番１号丸の内二丁目ビル６階,,13,101,1000005,,,,,,,2023-11-09,1,,,,,メプロホールディングス,0
11,1010001239800,新規,0,2023-11-09,2023-11-09,Ａｓｃｅｎｄａｎｔ株式会社,,株式会社,東京都,中央区,銀座７丁目１５番８号タウンハイツ銀座４０６,,13,102,1040061,,,,,,,2023-11-09,1,,,,,アセンダント,0
12,1010001239932,新規,0,2023-11-09,2023-11-09,株式会社Ｍｅｔａ　Ａｕｔｏ,,株式会社,東京都,千代田区,神田練塀町３富士ソフト秋葉原ビル１２Ｆ,,13,101,1010022,,,,,,,2023-11-09,1,,,,,メタオート,0
21,1010003042153,新規,0,2023-11-09,2023-11-09,合同会社シーブックス,,合同会社,東京都,中央区,銀座１丁目２２番１１号銀座大竹ビジデンス２Ｆ,,13,102,1040061,,,,,,,2023-11-09,1,,,,,シーブックス,0
22,1010003042161,新規,0,2023-11-09,2023-11-09,エスケーエージェント合同会社,,合同会社,東京都,中央区,銀座１丁目１２－４Ｎ＆ＥＢＬＤ．７階,,13,102,1040061,,,,,,,2023-11-09,1,,,,,エスケーエージェント,0
24,1010005037465,新規,0,2023-11-09,2023-11-09,弁護士法人高原総合法律事務所,00132576,その他の設立登記法人,東京都,中央区,銀座２丁目３－１９銀座深田ビル３階,,13,102,1040061,,,,,,,2023-11-09,1,,,,,タカハラソウゴウホウリツジムショ,0
25,1010101015878,新規,0,2023-11-09,2023-11-09,株式会社Ｆｏｒ　Ｒ,,株式会社,東京都,八王子市,中野山王１丁目６番１４号,,13,201,1920042,,,,,,,2023-11-09,1,,,,,フォーアール,0
38,1010401178318,新規,0,2023-11-09,2023-11-09,株式会社ソムリエ,,株式会社,東京都,港区,六本木６丁目１番１２号６階,,13,103,1060032,,,,,,,2023-11-09,1,,,,,ソムリエ,0
44,1010403031342,新規,0,2023-11-09,2023-11-09,合同会社Ｍｏｎｔｒｏｓｅ,,合同会社,東京都,港区,虎ノ門５丁目１番４号,,13,103,1050001,,,,,,,2023-11-09,1,,,,,モントローズ,0
46,1010405022661,新規,0,2023-11-09,2023-11-09,一般社団法人ケーインベストメント,,その他の設立登記法人,東京都,港区,元赤坂１丁目１番８号株式会社赤坂国際会計内,,13,103,1070051,,,,,,,2023-11-09,1,,,,,ケーインベストメント,0
53,1010601064111,新規,0,2023-11-09,2023-11-09,株式会社ＮＹパートナーズ,,株式会社,東京都,江東区,南砂５丁目２３番１１－５０４号,,13,108,1360076,,,,,,,2023-11-09,1,,,,,エヌワイパートナーズ,0
57,1010701045077,新規,0,2023-11-09,2023-11-09,株式会社セイトウテクノロジ,,株式会社,東京都,品川区,小山台２丁目３－５,,13,109,1420061,,,,,,,2023-11-09,1,,,,,セイトウテクノロジ,0
58,1010701045102,新規,0,2023-11-09,2023-11-09,株式会社ＰＲＥＳＡＧＥ,,株式会社,東京都,品川区,北品川３丁目１１番１３－２６０２号,,13,109,1400001,,,,,,,2023-11-09,1,,,,,プレセージ,0
67,1011001158040,新規,0,2023-11-09,2023-11-09,株式会社ＮＯＵＫＡ,,株式会社,東京都,渋谷区,宇田川町３０番５号ＪＯＷビル３階,,13,113,1500042,,,,,,,2023-11-09,1,,,,,ノウカ,0
68,1011001158081,新規,0,2023-11-09,2023-11-09,株式会社ＪＣＩ,,株式会社,東京都,目黒区,東が丘２丁目９番６号,,13,110,1520021,,,,,,,2023-11-09,1,,,,,ジェイシーアイ,0
69,1011001158148,新規,0,2023-11-09,2023-11-09,株式会社ＴＥＡＲＳ,,株式会社,東京都,渋谷区,神宮前６丁目２３番４号桑野ビル２階,,13,113,1500001,,,,,,,2023-11-09,1,,,,,ティアーズ,0
70,1011003017905,新規,0,2023-11-09,2023-11-09,ＥＣＵＡＮＥＳＴ合同会社,,合同会社,東京都,目黒区,祐天寺１丁目２３番６号,,13,110,1530052,,,,,,,2023-11-09,1,,,,,エクアネスト,0
74,1011101105041,新規,0,2023-11-09,2023-11-09,Ｈａｄ．株式会社,,株式会社,東京都,新宿区,横寺町５８－３ザ・パークハビオ神楽坂１０５,,13,104,1620831,,,,,,,2023-11-09,1,,,,,エイチアドドット,0
81,1011701026728,新規,0,2023-11-09,2023-11-09,株式会社ＳＫＴ,,株式会社,東京都,江戸川区,松江３丁目８番５－５０５号,,13,123,1320025,,,,,,,2023-11-09,1,,,,,エスケーティー,0
84,1011801043326,新規,0,2023-11-09,2023-11-09,株式会社ＫＨＴ　Ｒａｃｉｎｇ　Ｓｅｒｖｉｃｅ,,株式会社,東京都,足立区,舎人５丁目２番２３号,,13,121,1210831,,,,,,,2023-11-09,1,,,,,ケーエイチティーレーシングサービス,0
85,1011803005927,新規,0,2023-11-09,2023-11-09,ＨＴ　ＧＲＯＵＰ合同会社,,合同会社,東京都,葛飾区,亀有２丁目３４番４号第３東和ビル２０３号,,13,122,1250061,,,,,,,2023-11-09,1,,,,,エイチティーグループ,0
92,1013301051585,新規,0,2023-11-09,2023-11-09,株式会社ＣＣＣ,,株式会社,東京都,豊島区,目白５丁目２７番１３－３０７号,,13,116,1710031,,,,,,,2023-11-09,1,,,,,シーシーシー,0
96,1020001154404,新規,0,2023-11-09,2023-11-09,株式会社ＩＡＣＣ,,株式会社,神奈川県,横浜市磯子区,西町６番３１号,,14,107,2350007,,,,,,,2023-11-09,1,,,,,イアック,0
100,1020003024919,新規,0,2023-11-09,2023-11-09,合同会社ＴＤＹ　Ｌａｂ,,合同会社,神奈川県,川崎市幸区,鹿島田２丁目１６番１３－１号,,14,132,2120058,,,,,,,2023-11-09,1,,,,,ティーディーワイラボ,0
101,1020003024951,新規,0,2023-11-09,2023-11-09,合同会社ＲＥＮＳＥＩ,,合同会社,神奈川県,横浜市鶴見区,市場下町１１番３７－５０７号,,14,101,2300024,,,,,,,2023-11-09,1,,,,,レンセイ,0
103,1021001080664,新規,0,2023-11-09,2023-11-09,株式会社藤生,,株式会社,神奈川県,平塚市,岡崎６３７４番地の８,,14,203,2591212,,,,,,,2023-11-09,1,,,,,フジキ,0
104,1021003013770,新規,0,2023-11-09,2023-11-09,合同会社Ｍｏｍｅｎｔ,,合同会社,神奈川県,藤沢市,南藤沢７番２号沢滝ビル２階ｔｈｅＫＡＩＤＡＮｆｕｊｉｓａｗａ内,,14,205,2510055,,,,,,,2023-11-09,1,,,,,モーメント,0
114,1030001157034,新規,0,2023-11-09,2023-11-09,株式会社エレクオ,,株式会社,埼玉県,三郷市,彦成１丁目３７番地４,,11,237,3410003,,,,,,,2023-11-09,1,,,,,エレクオ,0
115,1030001157042,新規,0,2023-11-09,2023-11-09,株式会社Ｍｏｍ．,,株式会社,埼玉県,越谷市,大字大道７７４番地,,11,222,3430035,,,,,,,2023-11-09,1,,,,,マム,0
116,1030001157075,新規,0,2023-11-09,2023-11-09,株式会社ＷｅｂＶａｔｉｏｎ,,株式会社,埼玉県,草加市,西町１１１２番地１０,,11,221,3400035,,,,,,,2023-11-09,1,,,,,ウェブベーション,0
129,1050001053776,新規,0,2023-11-09,2023-11-09,株式会社大宮清掃,,株式会社,茨城県,鹿嶋市,大字平井４９４番地,,08,222,3140012,,,,,,,2023-11-09,1,,,,,オオミヤセイソウ,0
130,1050003007920,新規,0,2023-11-09,2023-11-09,合同会社事務サポ,,合同会社,茨城県,守谷市,松前台１丁目５番地２アビタシオン松前台Ａ棟２０２,,08,224,3020102,,,,,,,2023-11-09,1,,,,,ジムサポ,0
133,1060001036516,新規,0,2023-11-09,2023-11-09,株式会社ブービーメーカー,,株式会社,栃木県,栃木市,西方町金崎７５４－３,,09,203,3220601,,,,,,,2023-11-09,1,,,,,ブービーメーカー,0
139,1080101024328,新規,0,2023-11-09,2023-11-09,株式会社Ｄプロジェクトコンサルティング,,株式会社,静岡県,伊東市,宇佐美１８１６番地の２,,22,208,4140001,,,,,,,2023-11-09,1,,,,,ディープロジェクトコンサルティング,0
142,1080103002918,新規,0,2023-11-09,2023-11-09,合同会社メンサ,,合同会社,静岡県,富士市,柳島２２９番地の６,,22,210,4160932,,,,,,,2023-11-09,1,,,,,メンサ,0
151,1100003007262,新規,0,2023-11-09,2023-11-09,たてしなパートナーズ合同会社,,合同会社,長野県,茅野市,北山５５１３蓼科ビレッジりんどう平８７,,20,214,3910301,,,,,,,2023-11-09,1,,,,,タテシナパートナーズ,0
155,1110001037962,新規,0,2023-11-09,2023-11-09,株式会社レアーレ,,株式会社,新潟県,長岡市,巻島１丁目２９番地,,15,202,9402005,,,,,,,2023-11-09,1,,,,,レアーレ,0
164,1120001259382,新規,0,2023-11-09,2023-11-09,宏呈＿＿株式会社,00132575,株式会社,大阪府,大阪市西区,南堀江４丁目３－１９ブライトゾーン南堀江２０３号室,,27,106,5500015,,,,,,,2023-11-09,1,,,,,コウテイケイイク,0
165,1120001259580,新規,0,2023-11-09,2023-11-09,株式会社山内電設,,株式会社,大阪府,大阪市住之江区,北加賀屋１丁目２番２１号,,27,125,5590011,,,,,,,2023-11-09,1,,,,,ヤマウチデンセツ,0
166,1120001259589,新規,0,2023-11-09,2023-11-09,株式会社ライフリノベーション,,株式会社,大阪府,枚方市,茄子作２丁目１２番８－４号,,27,210,5730071,,,,,,,2023-11-09,1,,,,,ライフリノベーション,0
167,1120001259622,新規,0,2023-11-09,2023-11-09,株式会社ゲンキダマ,,株式会社,大阪府,大阪市天王寺区,大道４丁目５番２号１階,,27,109,5430052,,,,,,,2023-11-09,1,,,,,ゲンキダマ,0
168,1120001259655,新規,0,2023-11-09,2023-11-09,株式会社ＲＥＤ　ＴＲＩＤＥＮＴ,,株式会社,大阪府,大阪市西成区,北開１丁目３番４号２階,,27,122,5570021,,,,,,,2023-11-09,1,,,,,レッドトライデント,0
169,1120001259713,新規,0,2023-11-09,2023-11-09,株式会社直江堂,,株式会社,大阪府,大阪市北区,梅田１丁目２番２号大阪駅前第２ビル１２－１２,,27,127,5300001,,,,,,,2023-11-09,1,,,,,ナオエドウ,0
173,1120003025221,新規,0,2023-11-09,2023-11-09,大阪合同会社,,合同会社,大阪府,大阪市北区,梅田１丁目２番２号大阪駅前第２ビル１２－１２,,27,127,5300001,,,,,,,2023-11-09,1,,,,,オオサカ,0
174,1120003025279,新規,0,2023-11-09,2023-11-09,ＳＴＡＲ合同会社,,合同会社,大阪府,大阪市住吉区,長居東４丁目５番２５号ノバカネイチ長居３０２号,,27,120,5580004,,,,,,,2023-11-09,1,,,,,スター,0
175,1120003025287,新規,0,2023-11-09,2023-11-09,合同会社きずなグループ隼,,合同会社,大阪府,大阪市北区,鶴野町３番９－２５０２号,,27,127,5300014,,,,,,,2023-11-09,1,,,,,キズナグループハヤブサ,0
176,1120003025304,新規,0,2023-11-09,2023-11-09,ＴＤリフォーム合同会社,,合同会社,大阪府,大阪市生野区,中川東１丁目２番３号,,27,116,5440006,,,,,,,2023-11-09,1,,,,,ティディリフォーム,0
186,1120903004910,新規,0,2023-11-09,2023-11-09,合同会社京,,合同会社,大阪府,茨木市,大池１丁目７番７号,,27,211,5670826,,,,,,,2023-11-09,1,,,,,ケイ,0
188,1122001037553,新規,0,2023-11-09,2023-11-09,株式会社共同精機,,株式会社,大阪府,東大阪市,菱江２丁目１番２３号,,27,227,5780984,,,,,,,2023-11-09,1,,,,,キョウドウセイキ,0
196,1130001075663,新規,0,2023-11-09,2023-11-09,株式会社スペランツァ,,株式会社,京都府,京都市山科区,四ノ宮小金塚１番地の３８７,00132590,26,110,6078022,,,,,,,2023-11-09,1,,,,,スペランツァ,0
204,1140001132265,新規,0,2023-11-09,2023-11-09,ＫＴＣ株式会社,,株式会社,兵庫県,尼崎市,昭和通４丁目１１８番地ダイアパレス北側２Ｆ２０７,,28,202,6600881,,,,,,,2023-11-09,1,,,,,ケーティーシー,0
205,1140005026793,新規,0,2023-11-09,2023-11-09,エホバの証人の兵庫県宍粟市一宮会衆,,その他の設立登記法人,兵庫県,宍粟市,山崎町杉ケ瀬字前河原２９８番１,,28,227,6712522,,,,,,,2023-11-09,1,,,,,エホバノショウニンノヒョウゴケンシソウシイチノミヤカイシュウ,0
207,1150001026870,新規,0,2023-11-09,2023-11-09,ＶＩＴＡ株式会社,,株式会社,奈良県,桜井市,大字川合２５６－３ハーモニアＮ２号室,,29,206,6330063,,,,,,,2023-11-09,1,,,,,ヴィータ,0
214,1180001158835,新規,0,2023-11-09,2023-11-09,株式会社ｗｉｎｇ,,株式会社,愛知県,名古屋市千種区,朝岡町２丁目１９番地の１,,23,101,4640811,,,,,,,2023-11-09,1,,,,,ウィング,0
219,1180301037978,新規,0,2023-11-09,2023-11-09,株式会社セントビスタ,,株式会社,愛知県,豊田市,泉町１丁目１番地２,,23,211,4710803,,,,,,,2023-11-09,1,,,,,セントビスタ,0
220,1180301037994,新規,0,2023-11-09,2023-11-09,株式会社ＢＩＧ　ＦＯＲＥＳＴ,,株式会社,愛知県,豊橋市,大岩町字佃１番地の６,,23,201,4413147,,,,,,,2023-11-09,1,,,,,ビッグフォーレスト,0
221,1180301038010,新規,0,2023-11-09,2023-11-09,株式会社ＫＳＴ,,株式会社,愛知県,豊川市,新栄町１丁目１０番地５,,23,207,4420855,,,,,,,2023-11-09,1,,,,,ケイエスティー,0
224,1220003003621,新規,0,2023-11-09,2023-11-09,Ｐｈｉｓｏｎ合同会社,,合同会社,石川県,白山市,湊町ヨ９７‐１,,17,210,9290217,,,,,,,2023-11-09,1,,,,,フィソン,0
230,1240001062403,新規,0,2023-11-09,2023-11-09,株式会社ＡＯＪａｐａｎ,,株式会社,広島県,広島市中区,西平塚町８番１２号シャトレ三陽３０３,,34,101,7300024,,,,,,,2023-11-09,1,,,,,エイオージャパン,0
246,1290001103656,新規,0,2023-11-09,2023-11-09,ユウラクフーズ株式会社,,株式会社,福岡県,糟屋郡粕屋町,仲原３丁目２番６号,,40,349,8112304,,,,,,,2023-11-09,1,,,,,ユウラクフーズ,0
247,1290001103680,新規,0,2023-11-09,2023-11-09,株式会社タニファ,,株式会社,福岡県,福岡市西区,姪浜駅南１丁目７番１３－７０３号,,40,135,8190006,,,,,,,2023-11-09,1,,,,,タニファ,0
248,1290001103697,新規,0,2023-11-09,2023-11-09,株式会社ＭＯＧＣＩＡ,,株式会社,福岡県,福岡市中央区,天神４丁目６番２８号天神ファーストビル７階,,40,133,8100001,,,,,,,2023-11-09,1,,,,,モグシア,0
249,1290003014587,新規,0,2023-11-09,2023-11-09,合同会社らんたん,,合同会社,福岡県,福岡市早良区,西新４丁目８－３４ＳＡＺＡ２１ビル３０６,,40,137,8140002,,,,,,,2023-11-09,1,,,,,ランタン,0
250,1290003014595,新規,0,2023-11-09,2023-11-09,アイゼンホールディングス合同会社,,合同会社,福岡県,福岡市博多区,東光寺町２丁目７番５－１０２号,,40,132,8120896,,,,,,,2023-11-09,1,,,,,アイゼンホールディングス,0
252,1290801030034,新規,0,2023-11-09,2023-11-09,ＬＩＮＫＩＮＧＭＡＸ株式会社,,株式会社,福岡県,北九州市小倉北区,浅野３丁目８番１号６階,,40,106,8020001,,,,,,,2023-11-09,1,,,,,リンキングマックス,0
254,1300001013523,新規,0,2023-11-09,2023-11-09,ＳＫＳ株式会社,,株式会社,佐賀県,佐賀市,北川副町大字光法１１７９番地５,,41,201,8400012,,,,,,,2023-11-09,1,,,,,エスケイエス,0
257,1320005010110,新規,0,2023-11-09,2023-11-09,山慶国際事業協同組合,,その他の設立登記法人,大分県,大分市,賀来南２丁目３０８２番地レーゼ賀来２０２,,44,201,8700849,,,,,,,2023-11-09,1,,,,,サンケイコクサイジギョウ,0
262,1350003004482,新規,0,2023-11-09,2023-11-09,余楽合同会社,,合同会社,宮崎県,西都市,大字妻１５２０番地１,,45,208,8810033,,,,,,,2023-11-09,1,,,,,ヨラク,0
269,1370003006361,新規,0,2023-11-09,2023-11-09,合同会社あんぱさんど,,合同会社,宮城県,亘理郡山元町,高瀬字東石山原８２番地８８,00132578,04,362,9892202,,,,,,,2023-11-09,1,,,,,アンパサンド,0
277,1430001090384,新規,0,2023-11-09,2023-11-09,株式会社ＡＳＳＫ,,株式会社,北海道,札幌市清田区,北野三条３丁目１番１２号,,01,110,0040863,,,,,,,2023-11-09,1,,,,,アスク,0
278,1430001090392,新規,0,2023-11-09,2023-11-09,株式会社ツインワークス,,株式会社,北海道,札幌市東区,北二十六条東１８丁目２番１５号クルーズハウス元町１０２号,,01,103,0650026,,,,,,,2023-11-09,1,,,,,ツインワークス,0
286,1700150115451,新規,0,2023-11-09,2023-11-09,Ｆｏｓｈａｎ　Ｘｉａｎｚｅ　Ｄｉａｎｚｉｓｈａｎｇｗｕ　ｙｏｕｘｉａｎ　ｇｏｎｇｓｉ,,外国会社等,,,,,,,,ｘｉａｏｈｕａｎｇｐｕ　ｊｕｗｅｉｈｕｉ　ｃｈａｏｇｕｉｎａｎｌｕ　１ｈａｏ　ｇａｏｊｕｎｋｅｊｉ　ｃｈｕａｎｇｉｘｎ　ｚｈｏｎｇｘｉｎ　４ｚｕｏ　２２０６　ｄａｎｙｕａｎ　ｆｏｓｈａｎ　ｓｈｉ　ｓｈｕｎｄｅ　ｑｕ　ｒｏｎｇｇｕｉ　ｇｕａｇｎｄｏｎｇ　ＣＮ　５２８３０５,,,,,,2023-11-09,1,,,,,フォーシャンシシェンズァディエンズシャンウヨウシェンゴンス,0
287,1700150121953,新規,0,2023-11-09,2023-11-09,ＦｕＺｈｏｕＷｅｉＫｅＴｅＬｉＭａｏＹｉＹｏｕＸｉａｎＧｏｎｇＳｉ,,外国会社等,,,,,,,,ｆｕｊｉａｎｓｈｅｎｇ　ｆｕｚｈｏｕｓｈｉ　ｔａｉｊｉａｎｇｑｕ　ｗｕｙｉｚｈｏｎｇｌｕ１６９ｈａｏｌｉｊｉａｃｈｅｎｇＢｑｕｚｏｎｇｈｅｃｅｎｇｄｉｘｉａ１ｃｅｎｇ１２３ｓｈａｎｇｃｈａｎｇ,,,,,,2023-11-09,1,,,,,フクシュウウェイコテリマオイユウゲンコウシ,0
288,1700150121961,新規,0,2023-11-09,2023-11-09,Ｃｈａｓｅ　Ｐｕｂｌｉｓｈｉｎｇ　ａｎｄ　Ｅｄｕｃａｔｉｏｎ　Ｔｅｃｈｎｏｌｏｇｙ　Ｃｏｒｐｏｒａｔ,,外国会社等,,,,,,,,ＳＥＣ．２，Ｚｈｏｎｇｚｈｅｎｇ　Ｅ．ＲＤ．５ＦＬ．，ＮＯ．２７３　ＤＡＮＳＨＵＩ　ＤＩＳＴ　ＮＥＷ　ＴＡＩＰＥＩ　ＣＩＴＹ　２５１　ＴＷ,,,,,,2023-11-09,1,,,,,チースーウェンフワーコージーグーフェンヨウシエンゴンスー,0
295,2010001239799,新規,0,2023-11-09,2023-11-09,株式会社Ｐｒｅｆｅｒｒｅｄ　Ｅｌｅｍｅｎｔｓ,,株式会社,東京都,千代田区,大手町１丁目６番１号大手町ビル,,13,101,1000004,,,,,,,2023-11-09,1,,,,,プリファードエレメンツ,0
296,2010001239849,新規,0,2023-11-09,2023-11-09,ウルトラメトラ・ジャパン株式会社,,株式会社,東京都,千代田区,神田須田町２丁目２３－１天翔秋葉原万世橋ビル４１０号室,,13,101,1010041,,,,,,,2023-11-09,1,,,,,ウルトラメトラジャパン,0
297,2010001239881,新規,0,2023-11-09,2023-11-09,Ｓｔｏｒｙｐｏｄ株式会社,,株式会社,東京都,中央区,日本橋堀留町１丁目１０－１カクタビル２Ｆ,,13,102,1030012,,,,,,,2023-11-09,1,,,,,ストーリーポッド,0
298,2010001239931,新規,0,2023-11-09,2023-11-09,グーゴルプレックスグループ株式会社,,株式会社,東京都,中央区,新川１丁目２２－１３新川一棟ビル４Ｆ,,13,102,1040033,,,,,,,2023-11-09,1,,,,,グーゴルプレックスグループ,0
304,2010003042169,新規,0,2023-11-09,2023-11-09,合同会社アイナグリーン,,合同会社,東京都,千代田区,外神田６丁目２番４号荒井ビル３階３０２号室,,13,101,1010021,,,,,,,2023-11-09,1,,,,,アイナグリーン,0
308,2010101015877,新規,0,2023-11-09,2023-11-09,株式会社エヌ管理,,株式会社,東京都,八王子市,富士見町３番４号,,13,201,1920044,,,,,,,2023-11-09,1,,,,,エヌカンリ,0
312,2010401178366,新規,0,2023-11-09,2023-11-09,Ｏｒｉｖｉｅ株式会社,,株式会社,東京都,港区,六本木７丁目１２番２号Ｒ７ビルディング,,13,103,1060032,,,,,,,2023-11-09,1,,,,,オリヴィエ,0
320,2010601064110,新規,0,2023-11-09,2023-11-09,Ｓｅａｓｏｎｓ　Ｇｌｏｂａｌ株式会社,,株式会社,東京都,江東区,猿江１丁目１９番７号マ・メゾン猿江１０１号室,,13,108,1350003,,,,,,,2023-11-09,1,,,,,シーズンズグローバル,0
321,2010801034508,新規,0,2023-11-09,2023-11-09,株式会社ＦＵＮＦＡＮＣＹ,,株式会社,東京都,大田区,蒲田４丁目１０番１４－１６１６号,,13,111,1440052,,,,,,,2023-11-09,1,,,,,ファンファンシー,0
324,2010903008582,新規,0,2023-11-09,2023-11-09,合同会社Ｓｕｎｒｉｓｅ,,合同会社,東京都,世田谷区,成城４丁目３番９号,,13,112,1570066,,,,,,,2023-11-09,1,,,,,サンライズ,0
335,2011001158023,新規,0,2023-11-09,2023-11-09,株式会社ｐａｓｏ,,株式会社,東京都,渋谷区,恵比寿１丁目１５番９号,,13,113,1500013,,,,,,,2023-11-09,1,,,,,パソ,0
336,2011001158056,新規,0,2023-11-09,2023-11-09,株式会社ＣｈａｎｔｏＢｉｔ,,株式会社,東京都,渋谷区,道玄坂１丁目１０番８号渋谷道玄坂東急ビル２Ｆ－Ｃ,,13,113,1500043,,,,,,,2023-11-09,1,,,,,チャントビット,0
337,2011001158147,新規,0,2023-11-09,2023-11-09,株式会社おいでなす,,株式会社,東京都,渋谷区,恵比寿３丁目３－９ＳＥ３３９－１階,,13,113,1500013,,,,,,,2023-11-09,1,,,,,オイデナス,0
345,2011101105032,新規,0,2023-11-09,2023-11-09,株式会社ＥＵＣ,,株式会社,東京都,新宿区,大久保１丁目２番１号,,13,104,1690072,,,,,,,2023-11-09,1,,,,,イーユーシー,0
349,2011203004223,新規,0,2023-11-09,2023-11-09,合同会社ＶＩＳＩＯＮ,,合同会社,東京都,中野区,上高田２丁目１－１２,,13,114,1640002,,,,,,,2023-11-09,1,,,,,ビジョン,0
357,2011701026727,新規,0,2023-11-09,2023-11-09,株式会社さくら,,株式会社,東京都,江戸川区,春江町５丁目１８番地１０５,,13,123,1340003,,,,,,,2023-11-09,1,,,,,サクラ,0
360,2011801043309,新規,0,2023-11-09,2023-11-09,株式会社Ｋ．Ｕ　Ｌｉｎｋ,,株式会社,東京都,足立区,千住緑町１丁目２番１－１４０２号,,13,121,1200044,,,,,,,2023-11-09,1,,,,,ケイユーリンク,0
362,2011803005926,新規,0,2023-11-09,2023-11-09,マネチル合同会社,,合同会社,東京都,足立区,鹿浜６丁目２９番６号,,13,121,1230864,,,,,,,2023-11-09,1,,,,,マネチル,0
367,2012701017939,新規,0,2023-11-09,2023-11-09,ＫＳＧ株式会社,,株式会社,東京都,西東京市,谷戸町２丁目６番９－１２１号,,13,229,1880001,,,,,,,2023-11-09,1,,,,,ケーエスジー,0
374,2013301051535,新規,0,2023-11-09,2023-11-09,川月医療株式会社,,株式会社,東京都,豊島区,西池袋４丁目８番２－４０６号,,13,116,1710021,,,,,,,2023-11-09,1,,,,,カワツキイリョウ,0
375,2013301051601,新規,0,2023-11-09,2023-11-09,株式会社Ｋ’ｓ,,株式会社,東京都,豊島区,池袋２丁目５７番１１号鷲山ビル１階,,13,116,1710014,,,,,,,2023-11-09,1,,,,,ケーズ,0
386,2020001154411,新規,0,2023-11-09,2023-11-09,株式会社Ｍナガシマ企画,,株式会社,神奈川県,横浜市金沢区,能見台通２４番２４号,,14,108,2360053,,,,,,,2023-11-09,1,,,,,エムナガシマキカク,0
388,2020003024744,新規,0,2023-11-09,2023-11-09,合同会社公私混同,,合同会社,神奈川県,川崎市川崎区,駅前本町１１番地２川崎フロンティアビル４階,,14,131,2100007,,,,,,,2023-11-09,1,,,,,コウシコンドウ,0
390,2021001080481,新規,0,2023-11-09,2023-11-09,株式会社ロディオニカインテルグループ,,株式会社,神奈川県,綾瀬市,上土棚中４丁目１番５－９０２号,,14,218,2521113,,,,,,,2023-11-09,1,,,,,ロディオニカインテルグループ,0
392,2021003013786,新規,0,2023-11-09,2023-11-09,合同会社トライブリッジズ,,合同会社,神奈川県,茅ヶ崎市,南湖５丁目１０番６号,,14,207,2530061,,,,,,,2023-11-09,1,,,,,トライブリッジズ,0
396,2021005012935,新規,0,2023-11-09,2023-11-09,一般社団法人表面・超原子先端材料工学研究所,,その他の設立登記法人,神奈川県,小田原市,荻窪１１６２番地２,,14,206,2500042,,,,,,,2023-11-09,1,,,,,ヒョウメンチョウゲンシセンタンザイリョウコウガクケンキュウショ,0
408,2030001157066,新規,0,2023-11-09,2023-11-09,株式会社Ａｌｌ　Ｇｅｔ,,株式会社,埼玉県,吉川市,中央２丁目４４番地７グラン・ド・メゾン１０２号,,11,243,3420061,,,,,,,2023-11-09,1,,,,,オールゲット,0
409,2030001157074,新規,0,2023-11-09,2023-11-09,株式会社コトブキモータース,,株式会社,埼玉県,北葛飾郡松伏町,大字築比地４１９番地１,,11,465,3430102,,,,,,,2023-11-09,1,,,,,コトブキモータース,0
410,2030001157082,新規,0,2023-11-09,2023-11-09,株式会社Ｂ‐ｏｎｅ,,株式会社,埼玉県,川口市,領家３丁目１９番２５号エトワール・テラ２１０号,,11,203,3320004,,,,,,,2023-11-09,1,,,,,ビーワン,0
418,2030003022953,新規,0,2023-11-09,2023-11-09,合同会社ビーワーカーズ,,合同会社,埼玉県,草加市,旭町６丁目２番１２号第２寿ハウス２０７,,11,221,3400053,,,,,,,2023-11-09,1,,,,,ビーワーカーズ,0
419,2030003022961,新規,0,2023-11-09,2023-11-09,ＥＲＢ合同会社,,合同会社,埼玉県,鶴ヶ島市,富士見５丁目２２番３号,,11,241,3502201,,,,,,,2023-11-09,1,,,,,イーアールビー,0
423,2040003023703,新規,0,2023-11-09,2023-11-09,合同会社ビサイドグループ,,合同会社,千葉県,船橋市,習志野台２丁目３５番３３号,,12,204,2740063,,,,,,,2023-11-09,1,,,,,ビサイドグループ,0
427,2050001053767,新規,0,2023-11-09,2023-11-09,浩森産業株式会社,,株式会社,茨城県,つくば市,吾妻１丁目５－７ダイワロイネットホテルつくばビル２階,,08,220,3050031,,,,,,,2023-11-09,1,,,,,ヒロモリサンギョウ,0
428,2050001053775,新規,0,2023-11-09,2023-11-09,株式会社ＫＧ水戸,,株式会社,茨城県,水戸市,三の丸２丁目１番２３号中村屋ビル１階,,08,201,3100011,,,,,,,2023-11-09,1,,,,,ケージーミト,0
429,2050001053791,新規,0,2023-11-09,2023-11-09,株式会社石渡航輸,,株式会社,茨城県,東茨城郡茨城町,大字小幡２５２２番地１９,,08,302,3113157,,,,,,,2023-11-09,1,,,,,イシワタコウユ,0
435,2050003007911,新規,0,2023-11-09,2023-11-09,合同会社ＫＳＳｔｕｄｉｏ,,合同会社,茨城県,行方市,芹沢１７７５番地１ハイホーム１０号,,08,233,3113501,,,,,,,2023-11-09,1,,,,,ケーエススタジオ,0
442,2080101024327,新規,0,2023-11-09,2023-11-09,株式会社ＴＯＹ,,株式会社,静岡県,沼津市,東椎路１２７４－３,,22,203,4100302,,,,,,,2023-11-09,1,,,,,トイ,0
443,2080103002917,新規,0,2023-11-09,2023-11-09,合同会社ＤＥＦＥＣＴ,,合同会社,静岡県,熱海市,咲見町７番１８号,,22,205,4130019,,,,,,,2023-11-09,1,,,,,デフェクト,0
447,2100003007261,新規,0,2023-11-09,2023-11-09,合同会社いちまるいちラボ,,合同会社,長野県,長野市,戸隠１０７０１番地２０,,20,201,3814101,,,,,,,2023-11-09,1,,,,,イチマルイチラボ,0
463,2120001259514,新規,0,2023-11-09,2023-11-09,英派来株式会社,,株式会社,大阪府,大阪市住之江区,安立２丁目１０番１４号三坂ビル２０２号室,,27,125,5590003,,,,,,,2023-11-09,1,,,,,エイハライ,0
464,2120001259605,新規,0,2023-11-09,2023-11-09,Ｔｏｐｐａｎ株式会社,,株式会社,大阪府,大阪市住吉区,苅田１０丁目８番１２－１９号,,27,120,5580011,,,,,,,2023-11-09,1,,,,,トッパン,0
465,2120001259638,新規,0,2023-11-09,2023-11-09,株式会社ザイオンリアルティ,,株式会社,大阪府,大阪市中央区,日本橋１丁目２５番１１号,,27,128,5420073,,,,,,,2023-11-09,1,,,,,ザイオンリアルティ,0
466,2120001259687,新規,0,2023-11-09,2023-11-09,Ｔ’ｓ　Ｃｒｅａｔｅ株式会社,,株式会社,大阪府,大阪市東住吉区,駒川４丁目５番６号エンプラスビル１Ｂ,,27,121,5460043,,,,,,,2023-11-09,1,,,,,ティーズクリエイト,0
472,2120003025311,新規,0,2023-11-09,2023-11-09,合同会社ＬＩＢｉ,,合同会社,大阪府,枚方市,山之上北町２９番４０号,,27,210,5730049,,,,,,,2023-11-09,1,,,,,リビ,0
482,2122001037544,新規,0,2023-11-09,2023-11-09,株式会社喜工業,,株式会社,大阪府,四條畷市,岡山東４丁目５番１３号,,27,229,5750003,,,,,,,2023-11-09,1,,,,,ヨシコウギョウ,0
485,2130001075670,新規,0,2023-11-09,2023-11-09,株式会社エスプラン,,株式会社,京都府,京都市右京区,常盤下田町２０番地,,26,108,6168228,,,,,,,2023-11-09,1,,,,,エスプラン,0
486,2130001075687,新規,0,2023-11-09,2023-11-09,株式会社ＲＯＫ,,株式会社,京都府,亀岡市,安町野々神４７番地１６,,26,206,6210805,,,,,,,2023-11-09,1,,,,,ロク,0
487,2130003009123,新規,0,2023-11-09,2023-11-09,合同会社羽裏,,合同会社,京都府,京都市東山区,上田町８４－１,,26,105,6050852,,,,,,,2023-11-09,1,,,,,ハウラ,0
503,2140003019773,新規,0,2023-11-09,2023-11-09,合同会社菅工業,,合同会社,兵庫県,神戸市西区,王塚台７丁目７１－１,,28,111,6512135,,,,,,,2023-11-09,1,,,,,スガコウギョウ,0
516,2180001158859,新規,0,2023-11-09,2023-11-09,ＮｅｘｕｓＴｒｙ株式会社,,株式会社,愛知県,名古屋市熱田区,大宝２丁目４番５－５０６号,,23,109,4560062,,,,,,,2023-11-09,1,,,,,ネクサストライ,0
517,2180001158867,新規,0,2023-11-09,2023-11-09,株式会社縁Ｃｏｌｏｒ,,株式会社,愛知県,名古屋市西区,中小田井５丁目４６０番地（プレシアスコート上小田井１０７号）,,23,104,4520822,,,,,,,2023-11-09,1,,,,,エンカラー,0
518,2180001158875,新規,0,2023-11-09,2023-11-09,株式会社ブランク,,株式会社,愛知県,清須市,鍋片３丁目１番地２,,23,233,4520907,,,,,,,2023-11-09,1,,,,,ブランク,0
519,2180001158883,新規,0,2023-11-09,2023-11-09,株式会社トコステージ,,株式会社,愛知県,常滑市,栄町３丁目４５番地,,23,216,4790836,,,,,,,2023-11-09,1,,,,,トコステージ,0
525,2180301037977,新規,0,2023-11-09,2023-11-09,株式会社ＡＮＤ　ＮＥＷ,,株式会社,愛知県,豊田市,広田町稲荷山３０番地２１,,23,211,4730912,,,,,,,2023-11-09,1,,,,,アンドニュー,0
526,2180301037993,新規,0,2023-11-09,2023-11-09,株式会社Ｓｍｉｌｉｎｇ　Ｃｏｎｎｅｃｔ,,株式会社,愛知県,岡崎市,鴨田町字南魂場４８番地１７,,23,202,4442121,,,,,,,2023-11-09,1,,,,,スマイリングコネクト,0
537,2240001062402,新規,0,2023-11-09,2023-11-09,株式会社エルエー,,株式会社,広島県,広島市南区,宇品西２丁目７番６－３０３号,,34,103,7340014,,,,,,,2023-11-09,1,,,,,エルエー,0
543,2240003006407,新規,0,2023-11-09,2023-11-09,ツリーピーク合同会社,,合同会社,広島県,豊田郡大崎上島町,木江５１７０番地３,,34,431,7250401,,,,,,,2023-11-09,1,,,,,ツリーピーク,0
546,2240005015678,新規,0,2023-11-09,2023-11-09,一般社団法人Ａｓｙｎｃ,,その他の設立登記法人,広島県,東広島市,志和町志和東２０３３番地２,,34,212,7390262,,,,,,,2023-11-09,1,,,,,アシンク,0
557,2290001103639,新規,0,2023-11-09,2023-11-09,株式会社Ｒｅエスト山田,,株式会社,福岡県,大野城市,下大利２丁目３番３号,,40,219,8160952,,,,,,,2023-11-09,1,,,,,リエストヤマダ,0
558,2290001103671,新規,0,2023-11-09,2023-11-09,株式会社ＳｍｉｌｅＭａｋｅｒｓ,,株式会社,福岡県,福岡市中央区,小笹３丁目９番２７－１１１１号,,40,133,8100033,,,,,,,2023-11-09,1,,,,,スマイルメーカーズ,0
564,2290805009684,新規,0,2023-11-09,2023-11-09,特定非営利活動法人スポーツコミュニティ北九州,,その他の設立登記法人,福岡県,北九州市小倉南区,中曽根５丁目３番４２号,,40,107,8000222,,,,,,,2023-11-09,1,,,,,スポーツコミュニティキタキュウシュウ,0
566,2330001031430,新規,0,2023-11-09,2023-11-09,エコのわ不動産株式会社,,株式会社,熊本県,熊本市南区,馬渡２丁目３番２５号,,43,104,8620968,,,,,,,2023-11-09,1,,,,,エコノワフドウサン,0
572,2360003013465,新規,0,2023-11-09,2023-11-09,ワン・ブレス合同会社,,合同会社,沖縄県,那覇市,牧志２丁目１７－２７－４０１,,47,201,9000013,,,,,,,2023-11-09,1,,,,,ワンブレス,0
573,2360003013473,新規,0,2023-11-09,2023-11-09,合同会社ＭＩＡ,,合同会社,沖縄県,那覇市,牧志３丁目１３－５９,,47,201,9000013,,,,,,,2023-11-09,1,,,,,ミア,0
576,2370003006360,新規,0,2023-11-09,2023-11-09,合同会社アドホック仙台,,合同会社,宮城県,仙台市太白区,泉崎１丁目６－３,,04,104,9820031,,,,,,,2023-11-09,1,,,,,アドホックセンダイ,0
583,2430001090383,新規,0,2023-11-09,2023-11-09,株式会社洞爺デリ,,株式会社,北海道,虻田郡洞爺湖町,月浦４４番地,,01,584,0495723,,,,,,,2023-11-09,1,,,,,トウヤデリ,0
586,2430003015611,新規,0,2023-11-09,2023-11-09,合同会社リーディング,,合同会社,北海道,札幌市中央区,北二条西２丁目３４番地,,01,101,0600002,,,,,,,2023-11-09,1,,,,,リーディング,0
590,2460101007458,新規,0,2023-11-09,2023-11-09,Ｋ＆Ｄ株式会社,,株式会社,北海道,足寄郡足寄町,下愛冠１丁目３番地２,,01,647,0893707,,,,,,,2023-11-09,1,,,,,ケーアンドディー,0
595,2700150121960,新規,0,2023-11-09,2023-11-09,Ｓｈｉｊｉａｚｈｕａｎｇ　Ｚｈｏｎｇｑｉｎｇ　Ｒｕｉｊｉ　Ｔｅｃｈｎｏｌｏｇｙ　Ｃｏ．，Ｌｔｄ,,外国会社等,,,,,,,,５ｔｈ　Ｆｌｏｏｒ，Ｕｎｉｔ　１，Ｂｕｉｌｄｉｎｇ　１０，Ｒｕｎｊｉａｎｇ　Ｈｅａｄｑｕａｒｔｅｒｓ　Ｉｎｔｅｒｎａｔｉｏｎａｌ，Ｎｏ．１１６　Ｃｈａｎｇｊｉａｎｇ　Ａｖｅｎｕｅ　ＳｈｉｊｉａｚｈｕａｎｇＨｉｇｈｔｅｃｈ　Ｚｏｎｅ　０５００００　ＣＮ,,,,,,2023-11-09,1,,,,,シージャージュワンジョンチンルイジーコージーヨウシエンゴンスー,0
596,2700150121969,新規,0,2023-11-09,2023-11-09,廣華汽車飾件股斌有限公司,00132572,外国会社等,静岡県,静岡市葵区,御幸町１１番地の３０,,22,101,4200857,台湾桃園市楊梅区青山二街３０８号,,,,,,2023-11-09,1,,,,,ヒロカキシヤシヨクケンコフンユウゲンコウシ,0
606,3010001239914,新規,0,2023-11-09,2023-11-09,株式会社Ｌ’ｓ,,株式会社,東京都,中央区,日本橋室町１丁目１１番１２号日本橋水野ビル７階,,13,102,1030022,,,,,,,2023-11-09,1,,,,,エルス,0
607,3010001239922,新規,0,2023-11-09,2023-11-09,株式会社イオニス,,株式会社,東京都,千代田区,永田町２丁目１４番２号山王グランドビル５階５１５区,,13,101,1000014,,,,,,,2023-11-09,1,,,,,イオニス,0
608,3010001239955,新規,0,2023-11-09,2023-11-09,株式会社ＤＦＪ,,株式会社,東京都,文京区,本郷４丁目１５番７号,,13,105,1130033,,,,,,,2023-11-09,1,,,,,ディーエフジェー,0
615,3010003042135,新規,0,2023-11-09,2023-11-09,イノベーティブメディカルソリューション合同会社,,合同会社,東京都,千代田区,神田和泉町１番地６－１６ヤマトビル４０５,,13,101,1010024,,,,,,,2023-11-09,1,,,,,イノベーティブメディカルソリューション,0
616,3010003042151,新規,0,2023-11-09,2023-11-09,ＹＫアセットマネジメント合同会社,,合同会社,東京都,中央区,晴海３丁目１３番２－２８０６号,,13,102,1040053,,,,,,,2023-11-09,1,,,,,ワイケイアセットマネジメント,0
622,3010101015876,新規,0,2023-11-09,2023-11-09,株式会社アイ・テック,,株式会社,東京都,八王子市,明神町１丁目３－７,,13,201,1920046,,,,,,,2023-11-09,1,,,,,,0
632,3010401178217,新規,0,2023-11-09,2023-11-09,株式会社株式会社ｈｅｌｉｓ,,株式会社,東京都,港区,東麻布１丁目２９番１６号プレシス東麻布９０１,,13,103,1060044,,,,,,,2023-11-09,1,,,,,ヘリス,0
634,3010403031308,新規,0,2023-11-09,2023-11-09,Ｈｅｍ‐Ｐｌｕｓ合同会社,,合同会社,東京都,港区,南青山２丁目２番１５号,,13,103,1070062,,,,,,,2023-11-09,1,,,,,ヘムプラス,0
635,3010403031316,新規,0,2023-11-09,2023-11-09,鍛冶屋日本語アカデミー合同会社,,合同会社,東京都,港区,芝浦２丁目１４番１８号,,13,103,1080023,,,,,,,2023-11-09,1,,,,,カジヤニホンゴアカデミー,0
637,3010501051307,新規,0,2023-11-09,2023-11-09,株式会社シンエイ,,株式会社,東京都,台東区,上野１丁目９番４号ＳａｔｅｌｌｉｔｅＵＥＮＯＢＬＤ．１Ｆ,,13,106,1100005,,,,,,,2023-11-09,1,,,,,シンエイ,0
639,3010601064084,新規,0,2023-11-09,2023-11-09,ＷＥ１７Ｊａｐａｎ株式会社,,株式会社,東京都,墨田区,本所１丁目４番７号栗本ビル,,13,107,1300004,,,,,,,2023-11-09,1,,,,,ウィイチナナジャパン,0
640,3010701045100,新規,0,2023-11-09,2023-11-09,株式会社ウィルヘルムセン・ポート・サービシズ・ジャパン,,株式会社,東京都,品川区,北品川４丁目７番３５号御殿山トラストタワー,,13,109,1400001,,,,,,,2023-11-09,1,,,,,ウィルヘルムセンポートサービシズジャパン,0
650,3011001158055,新規,0,2023-11-09,2023-11-09,ｍｄｓ‐ｃｉｖｉｌ株式会社,,株式会社,東京都,渋谷区,道玄坂１丁目１０番８号渋谷道玄坂東急ビル２Ｆ－Ｃ,,13,113,1500043,,,,,,,2023-11-09,1,,,,,エムディーエスシビル,0
651,3011001158113,新規,0,2023-11-09,2023-11-09,株式会社ケテル・エンターテインメント,,株式会社,東京都,渋谷区,神山町１１番１７号パレス渋谷４０２,,13,113,1500047,,,,,,,2023-11-09,1,,,,,ケテルエンターテインメント,0
653,3011003017861,新規,0,2023-11-09,2023-11-09,合同会社オレンジフィルム,,合同会社,東京都,渋谷区,神泉町１０番１５号アネックス神泉３０１,,13,113,1500045,,,,,,,2023-11-09,1,,,,,オレンジフィルム,0
654,3011003017894,新規,0,2023-11-09,2023-11-09,Ｃｏｐｐｅｒ合同会社,,合同会社,東京都,目黒区,上目黒３丁目２９番５－３０３号,,13,110,1530051,,,,,,,2023-11-09,1,,,,,コッパー,0
655,3011003017903,新規,0,2023-11-09,2023-11-09,合同会社ａｌｍｏ,,合同会社,東京都,渋谷区,道玄坂１丁目１０番８号渋谷道玄坂東急ビル２ＦーＣ,,13,113,1500043,,,,,,,2023-11-09,1,,,,,アルモ,0
680,3011801043308,新規,0,2023-11-09,2023-11-09,株式会社ＡＲＫＬＩＶＥＳ,,株式会社,東京都,葛飾区,小菅１丁目２１番８号,,13,122,1240001,,,,,,,2023-11-09,1,,,,,アークライブズ,0
692,3012703002855,新規,0,2023-11-09,2023-11-09,合同会社ｂｅｉｎｇ,,合同会社,東京都,小平市,津田町３丁目３５番１２号,,13,211,1870025,,,,,,,2023-11-09,1,,,,,ビーイング,0
699,3013301051600,新規,0,2023-11-09,2023-11-09,Ｂｉｚ　Ｃｕｒｅ株式会社,,株式会社,東京都,豊島区,駒込６丁目２２番６号,,13,116,1700003,,,,,,,2023-11-09,1,,,,,ビズキュアー,0
705,3020001154385,新規,0,2023-11-09,2023-11-09,株式会社ＶＮＥＴテクノロジー,,株式会社,神奈川県,横浜市西区,浅間町１丁目４番３号ウィザードビル４０２,,14,103,2200072,,,,,,,2023-11-09,1,,,,,ブイネットテクノロジー,0
706,3020001154393,新規,0,2023-11-09,2023-11-09,ＧｒｅｅｎＴｅｘ株式会社,,株式会社,神奈川県,横浜市鶴見区,生麦３丁目１３番３３号,,14,101,2300052,,,,,,,2023-11-09,1,,,,,グリーンテックス,0
707,3020001154427,新規,0,2023-11-09,2023-11-09,株式会社ネクストリーフ,,株式会社,神奈川県,横浜市戸塚区,品濃町１７４４番地,,14,110,2440801,,,,,,,2023-11-09,1,,,,,ネクストリーフ,0
708,3020003024966,新規,0,2023-11-09,2023-11-09,ＬＤ合同会社,,合同会社,神奈川県,横浜市鶴見区,下末吉２丁目４－２１,,14,101,2300012,,,,,,,2023-11-09,1,,,,,エルディー,0
709,3021001080654,新規,0,2023-11-09,2023-11-09,株式会社Ｆ，ｓコーポレーション,,株式会社,神奈川県,横須賀市,芦名１丁目１－１４,,14,201,2400104,,,,,,,2023-11-09,1,,,,,エフズコーポレーション,0
710,3021001080679,新規,0,2023-11-09,2023-11-09,株式会社ＢＵＺＺＲＯ,,株式会社,神奈川県,相模原市緑区,与瀬４０６－５,,14,151,2520171,,,,,,,2023-11-09,1,,,,,バズロー,0
717,3030001157073,新規,0,2023-11-09,2023-11-09,株式会社アルファ,,株式会社,埼玉県,新座市,野火止５丁目２番１－１５０２号,,11,230,3520011,,,,,,,2023-11-09,1,,,,,アルファ,0
723,3030003022944,新規,0,2023-11-09,2023-11-09,合同会社ジェイ・イー・ティー,,合同会社,埼玉県,志木市,柏町４丁目５番１号,,11,228,3530007,,,,,,,2023-11-09,1,,,,,ジェイイーティー,0
724,3040001130822,新規,0,2023-11-09,2023-11-09,株式会社３Ｂ,,株式会社,千葉県,市川市,市川南３丁目１４番８号,,12,203,2720033,,,,,,,2023-11-09,1,,,,,スリービー,0
725,3040001130839,新規,0,2023-11-09,2023-11-09,霍普株式会社,,株式会社,千葉県,市川市,南行徳３丁目２４番１－２２２号（シティテラス南行徳テラスＡ）,,12,203,2720138,,,,,,,2023-11-09,1,,,,,カクフ,0
726,3040001130855,新規,0,2023-11-09,2023-11-09,しまなみトラスト株式会社,,株式会社,千葉県,千葉市美浜区,幕張西６丁目１５番地５,,12,106,2610026,,,,,,,2023-11-09,1,,,,,シマナミトラスト,0
727,3040001130871,新規,0,2023-11-09,2023-11-09,株式会社アイイロ,,株式会社,千葉県,柏市,大室１８７４番地９５,,12,217,2770813,,,,,,,2023-11-09,1,,,,,アイイロ,0
735,3050001053766,新規,0,2023-11-09,2023-11-09,株式会社ＳＵＹＡＭＡ,,株式会社,茨城県,取手市,新取手４丁目１４番１９号,,08,217,3020031,,,,,,,2023-11-09,1,,,,,スヤマ,0
736,3050001053799,新規,0,2023-11-09,2023-11-09,原町ベース株式会社,,株式会社,茨城県,古河市,原町７番４５号,,08,204,3060025,,,,,,,2023-11-09,1,,,,,ハラマチベース,0
740,3060003004799,新規,0,2023-11-09,2023-11-09,桜合同会社,,合同会社,栃木県,足利市,鹿島町６０１番地１菫リヴァージュ２０２,,09,202,3260844,,,,,,,2023-11-09,1,,,,,サクラ,0
748,3100001036963,新規,0,2023-11-09,2023-11-09,株式会社ＡＬＰＨＡ,,株式会社,長野県,長野市,吉田５丁目６番４５号,,20,201,3810043,,,,,,,2023-11-09,1,,,,,アルファ,0
763,3120001259538,新規,0,2023-11-09,2023-11-09,多田機設工業株式会社,,株式会社,大阪府,大阪市東淀川区,菅原７丁目２番７号,,27,114,5330022,,,,,,,2023-11-09,1,,,,,タダキセツコウギョウ,0
764,3120001259546,新規,0,2023-11-09,2023-11-09,ＫＪＯ株式会社,,株式会社,大阪府,大阪市北区,梅田１丁目２番２号大阪駅前第２ビル１２－１２,,27,127,5300001,,,,,,,2023-11-09,1,,,,,ケイジェイオウ,0
765,3120001259595,新規,0,2023-11-09,2023-11-09,佳雄株式会社,,株式会社,大阪府,大阪市住吉区,南住吉２丁目２番２５号クレールド長居４０６号室,,27,120,5580041,,,,,,,2023-11-09,1,,,,,カユウ,0
766,3120001259620,新規,0,2023-11-09,2023-11-09,株式会社ペンギン座,,株式会社,大阪府,大阪市城東区,今福東１丁目９番１６号,,27,118,5360002,,,,,,,2023-11-09,1,,,,,ペンギンザ,0
767,3120001259728,新規,0,2023-11-09,2023-11-09,嘉程株式会社,,株式会社,大阪府,大阪市港区,弁天２丁目１４－２５中野ビル３階Ｂ－２号室,,27,107,5520007,,,,,,,2023-11-09,1,,,,,カテイ,0
772,3120005023980,新規,0,2023-11-09,2023-11-09,一般社団法人どんぐりの会,,その他の設立登記法人,大阪府,大阪市城東区,中浜２丁目１５番９－１１０４号,,27,118,5360024,,,,,,,2023-11-09,1,,,,,ドングリノカイ,0
775,3120101068509,新規,0,2023-11-09,2023-11-09,株式会社鳴神,,株式会社,大阪府,堺市南区,大庭寺６２２番地,,27,145,5900153,,,,,,,2023-11-09,1,,,,,ナルカミ,0
777,3120901048321,新規,0,2023-11-09,2023-11-09,ヤチヨリアルエステート株式会社,,株式会社,大阪府,豊中市,新千里南町２丁目１９番１８号,,27,203,5600084,,,,,,,2023-11-09,1,,,,,ヤチヨリアルエステート,0
779,3120903004909,新規,0,2023-11-09,2023-11-09,合同会社夢追い人,,合同会社,大阪府,摂津市,千里丘２丁目２番２１号,,27,224,5660001,,,,,,,2023-11-09,1,,,,,ユメオイビト,0
780,3122001037551,新規,0,2023-11-09,2023-11-09,株式会社ハルケシ,,株式会社,大阪府,八尾市,水越１丁目１２番地,,27,212,5810856,,,,,,,2023-11-09,1,,,,,ハルケシ,0
781,3122003002719,新規,0,2023-11-09,2023-11-09,アーキクリエイト合同会社,,合同会社,大阪府,東大阪市,森河内西１丁目１０番８－３０６号,,27,227,5770061,,,,,,,2023-11-09,1,,,,,アーキクリエイト,0
784,3130001075645,新規,0,2023-11-09,2023-11-09,株式会社丸福写真,,株式会社,京都府,京都市左京区,粟田口鳥居町２１番地１４,,26,103,6068436,,,,,,,2023-11-09,1,,,,,マルフクシャシン,0
790,3140001132255,新規,0,2023-11-09,2023-11-09,株式会社おん義,,株式会社,兵庫県,赤穂市,片浜町８２番地,,28,212,6780249,,,,,,,2023-11-09,1,,,,,オンギ,0
791,3140001132271,新規,0,2023-11-09,2023-11-09,株式会社ＪＯＯＲ,,株式会社,兵庫県,神戸市西区,井吹台北町２丁目６番地の３,,28,111,6512244,,,,,,,2023-11-09,1,,,,,ジョア,0
792,3140001132313,新規,0,2023-11-09,2023-11-09,株式会社十人十色,,株式会社,兵庫県,西宮市,城ケ堀町３番１７号,,28,204,6620856,,,,,,,2023-11-09,1,,,,,ジュウニントイロ,0
798,3170001017882,新規,0,2023-11-09,2023-11-09,安藤商事株式会社,,株式会社,和歌山県,有田郡有田川町,大字出２８０番地,,30,366,6430851,,,,,,,2023-11-09,1,,,,,アンドウショウジ,0
806,3180001158882,新規,0,2023-11-09,2023-11-09,株式会社ＨＲＡＴ,,株式会社,愛知県,名古屋市中川区,松葉町１丁目４８番地,,23,110,4540818,,,,,,,2023-11-09,1,,,,,エイチアールエーティー,0
807,3180001158890,新規,0,2023-11-09,2023-11-09,Ｍｏｂｉｌｉｔｙ　Ｂａｓｅ株式会社,,株式会社,愛知県,名古屋市熱田区,古新町１丁目２３番地の１,,23,109,4560064,,,,,,,2023-11-09,1,,,,,モビリティベース,0
808,3180001158899,新規,0,2023-11-09,2023-11-09,株式会社中山装業,,株式会社,愛知県,一宮市,大和町妙興寺字伊勢田４９番地４,,23,203,4910922,,,,,,,2023-11-09,1,,,,,ナカヤマソウギョウ,0
809,3180001158908,新規,0,2023-11-09,2023-11-09,株式会社リリット,,株式会社,愛知県,名古屋市中区,錦３丁目１０番２１号プロシーム錦ビル３階,,23,106,4600003,,,,,,,2023-11-09,1,,,,,リリット,0
814,3180003025973,新規,0,2023-11-09,2023-11-09,コクアプロ合同会社,,合同会社,愛知県,知多郡阿久比町,陽なたの丘３丁目２６番地,,23,441,4702207,,,,,,,2023-11-09,1,,,,,コクアプロ,0
816,3180301037976,新規,0,2023-11-09,2023-11-09,株式会社ｓｓｋ,,株式会社,愛知県,岡崎市,中町字栄通１３番地４,,23,202,4440015,,,,,,,2023-11-09,1,,,,,エスエスケー,0
817,3180301037984,新規,0,2023-11-09,2023-11-09,株式会社ＳＴＲ,,株式会社,愛知県,豊田市,若林東町中外根３９番地６,,23,211,4730915,,,,,,,2023-11-09,1,,,,,エスティーアール,0
818,3180301037992,新規,0,2023-11-09,2023-11-09,株式会社成田左官,,株式会社,愛知県,蒲郡市,形原町鹿末３８番地５,,23,214,4430104,,,,,,,2023-11-09,1,,,,,ナリタサカン,0
819,3180301038009,新規,0,2023-11-09,2023-11-09,ＳＱＵＡＤ　ＧＡＲＡＧＥ株式会社,,株式会社,愛知県,刈谷市,築地町２丁目１１番地８リトルフィールド２０１号,,23,210,4480011,,,,,,,2023-11-09,1,,,,,スクワッドガレージ,0
827,3220001025681,新規,0,2023-11-09,2023-11-09,株式会社ＬＩＶＥＬＬ,,株式会社,石川県,小松市,国府台２丁目３９番,,17,203,9230061,,,,,,,2023-11-09,1,,,,,リベル,0
833,3240001062401,新規,0,2023-11-09,2023-11-09,株式会社女神,,株式会社,広島県,広島市中区,宝町１０－５ｈｉｒｏｓｈｉｍａ　ｗｈｏｌｅｈｏｕｓｅ,,34,101,7300044,,,,,,,2023-11-09,1,,,,,メガミ,0
843,3250003003377,新規,0,2023-11-09,2023-11-09,合同会社こまめ,,合同会社,山口県,岩国市,平田５丁目１０番２１号,,35,208,7410072,,,,,,,2023-11-09,1,,,,,コマメ,0
844,3260001038481,新規,0,2023-11-09,2023-11-09,ＳＧＡ株式会社,,株式会社,岡山県,岡山市南区,豊成３丁目２番３４号,,33,104,7000942,,,,,,,2023-11-09,1,,,,,エスジーエー,0
849,3290001103670,新規,0,2023-11-09,2023-11-09,株式会社ＩＣＣ,,株式会社,福岡県,福岡市南区,皿山３丁目１１－１４キャッスル皿山４０３号室,,40,134,8111365,,,,,,,2023-11-09,1,,,,,アイシーシー,0
850,3290001103687,新規,0,2023-11-09,2023-11-09,ロバストライフ株式会社,,株式会社,福岡県,朝倉市,甘木３８０イオン甘木ショッピングセンター１Ｆ,,40,228,8380068,,,,,,,2023-11-09,1,,,,,ロバストライフ,0
854,3300003002043,新規,0,2023-11-09,2023-11-09,あしたもらんらん合同会社,,合同会社,佐賀県,小城市,牛津町上砥川字赤佐古１７６１番地１,,41,208,8490305,,,,,,,2023-11-09,1,,,,,アシタモランラン,0
855,3300005007164,新規,0,2023-11-09,2023-11-09,一般社団法人地域セキュリティ協議会,,その他の設立登記法人,佐賀県,佐賀市,水ヶ江１丁目１番１１号,,41,201,8400054,,,,,,,2023-11-09,1,,,,,チイキセキュリティキョウギカイ,0
858,3320001020136,新規,0,2023-11-09,2023-11-09,株式会社來Ｈｕ,,株式会社,大分県,大分市,新川町２丁目４番８－２号,,44,201,8700016,,,,,,,2023-11-09,1,,,,,ライフ,0
859,3320003004228,新規,0,2023-11-09,2023-11-09,合同会社オガワクリエート,,合同会社,大分県,大分市,山津町１丁目１１番１号,,44,201,8700136,,,,,,,2023-11-09,1,,,,,オガワクリエート,0
873,3360005006929,新規,0,2023-11-09,2023-11-09,一般社団法人ＨｅｌｌｏＷｏｒｌｄ,,その他の設立登記法人,沖縄県,沖縄市,中央１丁目７－８,,47,211,9040004,,,,,,,2023-11-09,1,,,,,ハローワールド,0
875,3370005010707,新規,0,2023-11-09,2023-11-09,一般社団法人ひこうき雲,,その他の設立登記法人,宮城県,仙台市太白区,松が丘３５番１７号ハイツヒルサイド２０２,,04,104,9820821,,,,,,,2023-11-09,1,,,,,ヒコウキグモ,0
877,3380001034122,新規,0,2023-11-09,2023-11-09,株式会社宝松,,株式会社,福島県,いわき市,郷ケ丘２丁目１１７番地の１７,,07,204,9708045,,,,,,,2023-11-09,1,,,,,ホウショウ,0
882,3420005007870,新規,0,2023-11-09,2023-11-09,一般社団法人青森雪対策支援協会,,その他の設立登記法人,青森県,青森市,大字諏訪沢字岩田４６番２,,02,201,0300933,,,,,,,2023-11-09,1,,,,,アオモリユキタイサクシエンキョウカイ,0
885,3430001090358,新規,0,2023-11-09,2023-11-09,株式会社ドワンズ,,株式会社,北海道,室蘭市,幌萌町１０４番地,,01,205,0500066,,,,,,,2023-11-09,1,,,,,ドワンズ,0
886,3430001090382,新規,0,2023-11-09,2023-11-09,優和株式会社,,株式会社,北海道,岩見沢市,北本町東４丁目２番１２号,,01,210,0680057,,,,,,,2023-11-09,1,,,,,ユウワ,0
887,3430001090390,新規,0,2023-11-09,2023-11-09,ＮＩＳＥＫＯ・ＭＡＴＳＵ株式会社,,株式会社,北海道,虻田郡ニセコ町,字富士見４５番地２,,01,395,0481501,,,,,,,2023-11-09,1,,,,,ニセコマツ,0
888,3430001090399,新規,0,2023-11-09,2023-11-09,株式会社アランド,,株式会社,北海道,札幌市白石区,菊水三条２丁目６番２０号多田ビル２階,,01,104,0030803,,,,,,,2023-11-09,1,,,,,アランド,0
889,3430003015610,新規,0,2023-11-09,2023-11-09,合同会社うま味屋,,合同会社,北海道,札幌市白石区,栄通１７丁目１５－２４,,01,104,0030021,,,,,,,2023-11-09,1,,,,,ウマミヤ,0
890,3430003015619,新規,0,2023-11-09,2023-11-09,合同会社ラペ,,合同会社,北海道,札幌市中央区,南二条西８丁目１番地ベルネージュ札幌２０２号,,01,101,0600062,,,,,,,2023-11-09,1,,,,,ラペ,0
895,3700150121968,新規,0,2023-11-09,2023-11-09,ＥＣＯＭ　ＥＮＴＥＲＰＲＩＳＥＳ,,外国会社等,千葉県,市原市,泉台２丁目７番地５,,12,219,2990114,パキスタン・イスラム共和国、カラチ、ノースカラチ、セクター９、Ｒ－２７７,,,,,,2023-11-09,1,,,,,イーコムエンタープライズ,0
902,4010001239962,新規,0,2023-11-09,2023-11-09,株式会社Ｃｒｙｓｔａｌ,,株式会社,東京都,千代田区,四番町２番地４,,13,101,1020081,,,,,,,2023-11-09,1,,,,,クリスタル,0
909,4010005037470,新規,0,2023-11-09,2023-11-09,一般社団法人トーワ,,その他の設立登記法人,東京都,千代田区,外神田２丁目１４番１０号第２電波ビル,,13,101,1010021,,,,,,,2023-11-09,1,,,,,トーワ,0
910,4010005037479,新規,0,2023-11-09,2023-11-09,流山ロジスティクス一般社団法人,,その他の設立登記法人,東京都,千代田区,九段南３丁目７番７号成和綜合会計事務所内,,13,101,1020074,,,,,,,2023-11-09,1,,,,,ナガレヤマロジスティクス,0
924,4010401178356,新規,0,2023-11-09,2023-11-09,株式会社アドワン・ホールディングス,,株式会社,東京都,港区,赤坂１丁目１２番３２号アーク森ビル１２階,,13,103,1070052,,,,,,,2023-11-09,1,,,,,アドワンホールディングス,0
925,4010401178389,新規,0,2023-11-09,2023-11-09,茗峰商事株式会社,,株式会社,東京都,港区,赤坂１丁目１１番１２号１３０３号室,,13,103,1070052,,,,,,,2023-11-09,1,,,,,メイホウショウジ,0
926,4010401178397,新規,0,2023-11-09,2023-11-09,ＡＬコーポレーション株式会社,,株式会社,東京都,港区,虎ノ門４丁目１番１号,,13,103,1050001,,,,,,,2023-11-09,1,,,,,アルコーポレーション,0
927,4010401178471,新規,0,2023-11-09,2023-11-09,ＩＦＸ　ＰＯＷＥＲ　ＳＴＯＲＡＧＥ株式会社,,株式会社,東京都,港区,新橋６丁目１７番２１号住友不動産御成門駅前ビル１０階,,13,103,1050004,,,,,,,2023-11-09,1,,,,,アイエフエックスパワーストレージ,0
931,4010403031331,新規,0,2023-11-09,2023-11-09,合同会社ケーインベストメント,,合同会社,東京都,港区,元赤坂１丁目１番８号株式会社赤坂国際会計内,,13,103,1070051,,,,,,,2023-11-09,1,,,,,ケーインベストメント,0
932,4010503007215,新規,0,2023-11-09,2023-11-09,ＭＩＺＵＫＩ　ＴＲＡＤＥ　ＩＮＴＥＲＮＡＴＩＯＮＡＬ合同会社,,合同会社,東京都,台東区,元浅草１丁目６番１２号３０４号室,,13,106,1110041,,,,,,,2023-11-09,1,,,,,ミズキトレードインターナショナル,0
939,4011001157758,新規,0,2023-11-09,2023-11-09,株式会社大学スポーツチャンネル,,株式会社,東京都,渋谷区,渋谷２丁目２２番６号幸和ビル,,13,113,1500002,,,,,,,2023-11-09,1,,,,,ダイガクスポーツチャンネル,0
940,4011001158145,新規,0,2023-11-09,2023-11-09,株式会社ｇｒａｆｔｏ,,株式会社,東京都,目黒区,上目黒３丁目１９番１５号,,13,110,1530051,,,,,,,2023-11-09,1,,,,,グラフト,0
948,4011303004955,新規,0,2023-11-09,2023-11-09,ネコの手グループ合同会社,,合同会社,東京都,杉並区,高井戸東４丁目１０番９号コスモスハイム２０２,,13,115,1680072,,,,,,,2023-11-09,1,,,,,ネコノテグループ,0
949,4011303004963,新規,0,2023-11-09,2023-11-09,合同会社第六銀座ウェスト目黒,,合同会社,東京都,杉並区,成田東４丁目３８番１７号,,13,115,1660015,,,,,,,2023-11-09,1,,,,,ダイロクギンザウェストメグロ,0
951,4011501029969,新規,0,2023-11-09,2023-11-09,吉泰ソフトウェア株式会社,,株式会社,東京都,北区,浮間１丁目１－１４リムジンビル１３１号,,13,117,1150051,,,,,,,2023-11-09,1,,,,,ヨシヤスソフトウェア,0
956,4011701026733,新規,0,2023-11-09,2023-11-09,株式会社Ａｃｔｉｖｉｓｔ,,株式会社,東京都,江戸川区,松江１丁目１０番２０号,,13,123,1320025,,,,,,,2023-11-09,1,,,,,アクティビスト,0
958,4011703003648,新規,0,2023-11-09,2023-11-09,合同会社ワークス,,合同会社,東京都,江戸川区,松島３丁目２５番５号,,13,123,1320031,,,,,,,2023-11-09,1,,,,,ワークス,0
959,4011801043315,新規,0,2023-11-09,2023-11-09,株式会社佐々木空調,,株式会社,東京都,足立区,神明２丁目１番１３－３０２号,,13,121,1210051,,,,,,,2023-11-09,1,,,,,ササキクウチョウ,0
960,4011801043323,新規,0,2023-11-09,2023-11-09,東来工業株式会社,,株式会社,東京都,葛飾区,東新小岩７丁目１５－１４－４０２,,13,122,1240023,,,,,,,2023-11-09,1,,,,,トウライコウギョウ,0
974,4013301051599,新規,0,2023-11-09,2023-11-09,株式会社Ｃｌｏｕｄ９,,株式会社,東京都,豊島区,池袋３丁目１番６号,,13,116,1710014,,,,,,,2023-11-09,1,,,,,クラウドナイン,0
975,4013305003539,新規,0,2023-11-09,2023-11-09,一般社団法人アジア教育協会,,その他の設立登記法人,東京都,豊島区,南池袋１丁目１６－１５ダイヤゲート池袋４Ｆ,,13,116,1710022,,,,,,,2023-11-09,1,,,,,アジアキョウイクキョウカイ,0
979,4020001154392,新規,0,2023-11-09,2023-11-09,ＮＰＥＸ株式会社,,株式会社,神奈川県,川崎市川崎区,南町１番地８林ビル川崎３０２号室,,14,131,2100015,,,,,,,2023-11-09,1,,,,,エンペックス,0
980,4020001154401,新規,0,2023-11-09,2023-11-09,株式会社ＫＴＣ,,株式会社,神奈川県,横浜市中区,本牧町１番地１００武本ビル５０２,,14,104,2310000,,,,,,,2023-11-09,1,,,,,ケーティーシー,0
988,4021001080661,新規,0,2023-11-09,2023-11-09,株式会社柴田組,,株式会社,神奈川県,厚木市,三田南２丁目１５番１８号シティハイムアークヒルズ１０２,,14,212,2430217,,,,,,,2023-11-09,1,,,,,シバタグミ,0
989,4021003013784,新規,0,2023-11-09,2023-11-09,ＡＲＭ商会合同会社,,合同会社,神奈川県,愛甲郡清川村,煤ヶ谷１０３８－１,,14,402,2430112,,,,,,,2023-11-09,1,,,,,エーアールエムショウカイ,0
990,4021005012933,新規,0,2023-11-09,2023-11-09,一般社団法人ＴＯＲＩＯＳ　ＬＩＮＯ,,その他の設立登記法人,神奈川県,座間市,相模が丘１丁目４０番３－２１０号ライオンズマンション相模が丘第２,,14,216,2520001,,,,,,,2023-11-09,1,,,,,トリオスリノ,0
995,4030001157097,新規,0,2023-11-09,2023-11-09,株式会社ドリームＥｃｏ,,株式会社,埼玉県,春日部市,道口蛭田１７７－６－１０２,,11,214,3440045,,,,,,,2023-11-09,1,,,,,ドリームエコー,0
1007,4040001130870,新規,0,2023-11-09,2023-11-09,株式会社樋下建設,,株式会社,千葉県,君津市,戸崎１５９３番地６,,12,225,2920441,,,,,,,2023-11-09,1,,,,,ヒノシタケンセツ,0
1011,4040003023643,新規,0,2023-11-09,2023-11-09,ＭＧ建装合同会社,,合同会社,千葉県,市川市,市川南４丁目１２－３,,12,203,2720033,,,,,,,2023-11-09,1,,,,,エムジケンソウ,0
1012,4040003023701,新規,0,2023-11-09,2023-11-09,合同会社アイランド,,合同会社,千葉県,柏市,中央２丁目３番２７号グランディール柏３０２号,,12,217,2770023,,,,,,,2023-11-09,1,,,,,アイランド,0
1014,4050001053765,新規,0,2023-11-09,2023-11-09,株式会社心美創,,株式会社,茨城県,神栖市,賀２１０８番地４５,,08,232,3140134,,,,,,,2023-11-09,1,,,,,ココロビソウ,0
1015,4050001053773,新規,0,2023-11-09,2023-11-09,ＩＫＣ株式会社,,株式会社,茨城県,つくばみらい市,絹の台１丁目７番地１０,,08,235,3002436,,,,,,,2023-11-09,1,,,,,アイケーシー,0
1016,4050001053781,新規,0,2023-11-09,2023-11-09,株式会社Ｋ‐ＰＲＯＧＲＥＳＳ,,株式会社,茨城県,つくば市,自由ケ丘１６９番地７,,08,220,3001266,,,,,,,2023-11-09,1,,,,,ケープログレス,0
1018,4050003007934,新規,0,2023-11-09,2023-11-09,合同会社たけのこ会,,合同会社,茨城県,守谷市,松ケ丘７丁目２１番地１４,,08,224,3020127,,,,,,,2023-11-09,1,,,,,タケノコカイ,0
1024,4080005007582,新規,0,2023-11-09,2023-11-09,一般社団法人ＳＨＳ静岡,,その他の設立登記法人,静岡県,焼津市,柳新屋７４８番地の１,,22,212,4250074,,,,,,,2023-11-09,1,,,,,エスエイチエスシズオカ,0
1025,4080101024317,新規,0,2023-11-09,2023-11-09,ＨＡＰＰＹ　ＣＬＥＡＮＩＮＧ　ＳＥＲＶＩＣＥ株式会社,,株式会社,静岡県,駿東郡清水町,徳倉９９８番地フレマリール９９８Ｂ２０１,,22,341,4110917,,,,,,,2023-11-09,1,,,,,ハッピークリーニングサービス,0
1026,4080101024325,新規,0,2023-11-09,2023-11-09,株式会社ＹＵ‐ＯＮＥ,,株式会社,静岡県,駿東郡小山町,菅沼１８３９番地の７,,22,344,4101312,,,,,,,2023-11-09,1,,,,,ユーワン,0
1032,4100001036962,新規,0,2023-11-09,2023-11-09,株式会社ＧＬＯＷ　ＦＩＥＬＤ,,株式会社,長野県,北佐久郡軽井沢町,大字発地２１８９,,20,321,3890113,,,,,,,2023-11-09,1,,,,,グロウフィールド,0
1049,4120001259470,新規,0,2023-11-09,2023-11-09,ｙｕｋｏ株式会社,,株式会社,大阪府,大阪市都島区,片町２丁目５番６－４０７号,,27,102,5340025,,,,,,,2023-11-09,1,,,,,ユコ,0
1050,4120001259669,新規,0,2023-11-09,2023-11-09,株式会社ＳＯＲＡ,,株式会社,大阪府,大阪市北区,梅田１丁目２番２号,,27,127,5300001,,,,,,,2023-11-09,1,,,,,ソラ,0
1051,4120001259677,新規,0,2023-11-09,2023-11-09,ＳＬ株式会社,,株式会社,大阪府,大阪市中央区,内平野町１丁目３番９－３０３号,,27,128,5400037,,,,,,,2023-11-09,1,,,,,エスエル,0
1054,4120003025276,新規,0,2023-11-09,2023-11-09,合同会社ショート,,合同会社,大阪府,大阪市住吉区,上住吉１丁目９番２５号－５０１,,27,120,5580046,,,,,,,2023-11-09,1,,,,,ショート,0
1055,4120101068508,新規,0,2023-11-09,2023-11-09,ＦＡＷ株式会社,,株式会社,大阪府,堺市南区,新檜尾台３丁１番７－４０７号,,27,145,5900143,,,,,,,2023-11-09,1,,,,,ファウ,0
1058,4120901048337,新規,0,2023-11-09,2023-11-09,株式会社ＧａｓｔｒｏＭｅｄｉｃａ,,株式会社,大阪府,吹田市,豊津町９－２２－６Ｆ,,27,205,5640051,,,,,,,2023-11-09,1,,,,,ガストロメディカ,0
1061,4130001075660,新規,0,2023-11-09,2023-11-09,株式会社ＳｈｉＮ,,株式会社,京都府,亀岡市,曽我部町南条岩ケ谷１番地７１,,26,206,6210022,,,,,,,2023-11-09,1,,,,,シン,0
1064,4140001132304,新規,0,2023-11-09,2023-11-09,株式会社あんど・ゆー,,株式会社,兵庫県,神戸市北区,谷上西町２７番２号谷上ハイツ３０５号室,,28,109,6511246,,,,,,,2023-11-09,1,,,,,アンドユー,0
1075,4170001017881,新規,0,2023-11-09,2023-11-09,株式会社Ｋ’ｓ,,株式会社,和歌山県,田辺市,中万呂３８３番地の１１,,30,206,6460003,,,,,,,2023-11-09,1,,,,,ケーズ,0
1080,4180001158873,新規,0,2023-11-09,2023-11-09,株式会社中西,,株式会社,愛知県,名古屋市中川区,吉津１丁目７０３番地,,23,110,4540981,,,,,,,2023-11-09,1,,,,,ナカニシ,0
1086,4180301038008,新規,0,2023-11-09,2023-11-09,ＴＳＵＭＩＫＩ株式会社,,株式会社,愛知県,蒲郡市,豊岡町畑ケ田２番地１,,23,214,4430011,,,,,,,2023-11-09,1,,,,,,0
1089,4190003004496,新規,0,2023-11-09,2023-11-09,合同会社ＨＡＲＥ,,合同会社,三重県,四日市市,日永西１丁目１４－７サニーコート黒宮１０３,,24,202,5100891,,,,,,,2023-11-09,1,,,,,ハレ,0
1099,4240001062400,新規,0,2023-11-09,2023-11-09,株式会社森然,,株式会社,広島県,広島市中区,広瀬北町２－２８－１３０１,,34,101,7300803,,,,,,,2023-11-09,1,,,,,モリゼン,0
1112,4290001103587,新規,0,2023-11-09,2023-11-09,株式会社スーパーレンタカー,,株式会社,福岡県,福岡市東区,原田１丁目４２番３８号,,40,131,8120063,,,,,,,2023-11-09,1,,,,,スーパーレンタカー,0
1113,4290001103678,新規,0,2023-11-09,2023-11-09,株式会社Ｇ．Ｓ　ＰＲＯＤＵＣＴＳ,,株式会社,福岡県,福岡市博多区,寿町２丁目８番１９－２０２号,,40,132,8120884,,,,,,,2023-11-09,1,,,,,ジーエスプロダクツ,0
1114,4290001103694,新規,0,2023-11-09,2023-11-09,株式会社ツープレイス,,株式会社,福岡県,福岡市博多区,三筑１丁目６番１４号,,40,132,8120887,,,,,,,2023-11-09,1,,,,,ツープレイス,0
1116,4290003014584,新規,0,2023-11-09,2023-11-09,合同会社やまかわＳＷ,,合同会社,福岡県,みやま市,山川町立山１００６番地１,,40,229,8350101,,,,,,,2023-11-09,1,,,,,ヤマカワエスダブリュ,0
1118,4290801030031,新規,0,2023-11-09,2023-11-09,株式会社ＦＡＬＣＯＮ,,株式会社,福岡県,田川郡川崎町,大字川崎４６２９－２,,40,605,8270003,,,,,,,2023-11-09,1,,,,,ファルコン,0
1120,4300003002042,新規,0,2023-11-09,2023-11-09,ソラ合同会社,,合同会社,佐賀県,杵島郡大町町,大字福母字二本柳１１７９－４,,41,423,8492102,,,,,,,2023-11-09,1,,,,,ソラ,0
1124,4330001031453,新規,0,2023-11-09,2023-11-09,株式会社ワンネス,,株式会社,熊本県,熊本市東区,尾ノ上１丁目１番８号,,43,102,8620913,,,,,,,2023-11-09,1,,,,,ワンネス,0
1125,4330001031461,新規,0,2023-11-09,2023-11-09,アミィ株式会社,,株式会社,熊本県,熊本市北区,室園町１２番６７号３１－１０５,,43,105,8618072,,,,,,,2023-11-09,1,,,,,アミィ,0
1129,4340003004308,新規,0,2023-11-09,2023-11-09,エラブハーモニー合同会社,,合同会社,鹿児島県,大島郡知名町,大字知名３１２番地１０,,46,534,8919214,,,,,,,2023-11-09,1,,,,,エラブハーモニー,0
1132,4360001032779,新規,0,2023-11-09,2023-11-09,株式会社リトルハピネス,,株式会社,沖縄県,那覇市,泉崎１丁目２２番１１号,,47,201,9000021,,,,,,,2023-11-09,1,,,,,リトルハピネス,0
1133,4360003013471,新規,0,2023-11-09,2023-11-09,合同会社ＧＯＳＨＯＷ,,合同会社,沖縄県,石垣市,字登野城１４５番地１メゾンミナミ１Ｆ,,47,207,9070004,,,,,,,2023-11-09,1,,,,,ゴーショウ,0
1137,4370001050615,新規,0,2023-11-09,2023-11-09,アストラ運輸株式会社,,株式会社,宮城県,仙台市泉区,南光台東１丁目２番２６号,,04,105,9818001,,,,,,,2023-11-09,1,,,,,アストラウンユ,0
1138,4370003006367,新規,0,2023-11-09,2023-11-09,ＮＦＣ合同会社,,合同会社,宮城県,仙台市青葉区,国見６丁目３８－７ＭＳＣコーポＩＩＩ１０２,00132589,04,101,9810943,,,,,,,2023-11-09,1,,,,,エヌエフシー,0
1139,4370005010706,新規,0,2023-11-09,2023-11-09,特定非営利活動法人ＳＰＡＲＫ,,その他の設立登記法人,宮城県,宮城郡利府町,菅谷台４丁目２番地４リラフォートエス２０１,,04,406,9810135,,,,,,,2023-11-09,1,,,,,スパーク,0
1147,4430001090357,新規,0,2023-11-09,2023-11-09,株式会社豪建,,株式会社,北海道,札幌市中央区,宮の森三条９丁目４番１５－４０１号,,01,101,0640953,,,,,,,2023-11-09,1,,,,,ゴウケン,0
1148,4430001090365,新規,0,2023-11-09,2023-11-09,株式会社ＷＳＣ,,株式会社,北海道,札幌市白石区,本通３丁目南２番１８号ベルヴィコート本通ＩＩＩ,00132588,01,104,0030026,,,,,,,2023-11-09,1,,,,,ダブリューエスシー,0
1149,4430001090381,新規,0,2023-11-09,2023-11-09,イーネクスト株式会社,,株式会社,北海道,札幌市白石区,栄通７丁目１－１２ラフィット栄通２０２号,,01,104,0030021,,,,,,,2023-11-09,1,,,,,イーネクスト,0
1150,4430001090398,新規,0,2023-11-09,2023-11-09,株式会社ＨＡＮＡＥＭＩ,,株式会社,北海道,札幌市手稲区,手稲本町一条３丁目１番２０－６０６号,,01,109,0060021,,,,,,,2023-11-09,1,,,,,ハナエミ,0
1151,4430003015601,新規,0,2023-11-09,2023-11-09,合同会社オーシャンウェーブ,,合同会社,北海道,白老郡白老町,東町５丁目１１番７号,,01,578,0590904,,,,,,,2023-11-09,1,,,,,オーシャンウェーブ,0
1152,4430003015618,新規,0,2023-11-09,2023-11-09,合同会社Ｒａｉｎｙ,,合同会社,北海道,札幌市中央区,南七条西８丁目１番地１１ローレル７・８ビル１Ｆ,,01,101,0640807,,,,,,,2023-11-09,1,,,,,レイニー,0
1153,4450005004385,新規,0,2023-11-09,2023-11-09,一般社団法人北海道探偵協会,,その他の設立登記法人,北海道,旭川市,四条通７丁目７９３番地１旭川トラストビル５Ｆ,,01,204,0700034,,,,,,,2023-11-09,1,,,,,,0
1158,4490001010631,新規,0,2023-11-09,2023-11-09,株式会社はらだ保険企画,,株式会社,高知県,高知市,昭和町１０番５号,,39,201,7800063,,,,,,,2023-11-09,1,,,,,ハラダホケンキカク,0
1160,4700150121942,新規,0,2023-11-09,2023-11-09,国道２５４号バイパスふじみ野地区土地区画整理組合,,その他,埼玉県,ふじみ野市,福岡新田１１６－２,,11,245,3560014,,,,,,,2023-11-09,1,,,,,コクドウニヒヤクゴジユウヨンゴウバイパスフジミノチクトチクカクセイリクミアイ,0
1161,4700150121959,新規,0,2023-11-09,2023-11-09,ａｎｙｉｎｇｙｉｋｅｓｈｅｎｚｈｅｎｍａｏｙｉｙｏｕｘｉａｎｇｏｎｇｓｉ,,外国会社等,,,,,,,,Ｎｏ．２　Ｊｕｃｕｉ　Ｒｏａｄ，Ｊｉｎｓｈａ　Ｃｏｍｍｕｎｉｔｙ，Ｋｅｎｚｉ　Ｓｔｒｅｅｔ，Ｐｉｎｇｓｈａｎｑｕ１７０３，Ｂｌｏｃｋ　Ａ，Ｂｕｉｌｄｉｎｇ　２４，Ｙａｄｉ　Ｔｈｒｅｅ　Ｖｉｌｌａｇｅｓｈｅｎｚｈｅｎｓｈｉ　５１８１２２　ＣＮ,,,,,,2023-11-09,1,,,,,アンインイーコーシェンジェンマオイーヨウシエンゴンスー,0
1162,4700150121967,新規,0,2023-11-09,2023-11-09,ｗｕ　ｈａｎ　ｊｉ　ｙｉ　ｊｉａ　ｄｉａｎ　ｚｉ　ｋｅ　ｊｉ　ｙｏｕ　ｘｉａｎ　ｇｏｎｇ　ｓｉ,,外国会社等,,,,,,,,ｗｕｈａｎｓｈｉ　ｈａｎｙａｎｇｑｕ　ｊｉａｎｇｃｈｅｎｇｄａｄａｏ２８８ｈａｏ　ｚｈａｏｓｈａｎｇｇｏｎｇｙｕａｎ１８７２ｘｉａｎｇｍｕ　Ａ４ｄｉｋｕａｉ７ｄｏｎｇ１０ｃｅｎｇ３ｈａｏ,,,,,,2023-11-09,1,,,,,ウーハンジーイージャーディエンズーコージーヨウシエンゴンスー,0
1181,5010001239904,新規,0,2023-11-09,2023-11-09,株式会社オーデプラス,,株式会社,東京都,中央区,日本橋本町３丁目１０番５号,,13,102,1030023,,,,,,,2023-11-09,1,,,,,オーデプラス,0
1190,5010003042109,新規,0,2023-11-09,2023-11-09,ＦｌｏｗＭａｇｉｃ合同会社,,合同会社,東京都,中央区,銀座１丁目１２－４Ｎ＆ＥＢＬＤ．７階,,13,102,1040061,,,,,,,2023-11-09,1,,,,,フローマジック,0
1191,5010003042166,新規,0,2023-11-09,2023-11-09,Ｍｅｒｌｉｎ合同会社,,合同会社,東京都,千代田区,霞が関３丁目２番５号霞が関ビルディング３１階,,13,101,1000013,,,,,,,2023-11-09,1,,,,,マーリン,0
1194,5010101015874,新規,0,2023-11-09,2023-11-09,株式会社ペイントラボ,,株式会社,東京都,八王子市,散田町５丁目３２番６号,,13,201,1930832,,,,,,,2023-11-09,1,,,,,ペイントラボ,0
1205,5010401178371,新規,0,2023-11-09,2023-11-09,株式会社Ｅｎｄｏｏｒ,,株式会社,東京都,港区,西麻布１丁目１４番１号井門西麻布ビル５階,,13,103,1060031,,,,,,,2023-11-09,1,,,,,エンドア,0
1208,5010403031314,新規,0,2023-11-09,2023-11-09,Ｓｐｏｒｔｓ　Ｅｖｅｎｔｓ　Ｍａｎａｇｅｍｅｎｔ　Ｊａｐａｎ合同会社,,合同会社,東京都,港区,西新橋３丁目２４番８号山内ビル３階,,13,103,1050003,,,,,,,2023-11-09,1,,,,,スポーツイベンツマネジメントジャパン,0
1211,5010501051313,新規,0,2023-11-09,2023-11-09,東海瀛洲株式会社,,株式会社,東京都,台東区,下谷２丁目３－１６－４０１,,13,106,1100004,,,,,,,2023-11-09,1,,,,,トウカイエイシュウ,0
1212,5010601064108,新規,0,2023-11-09,2023-11-09,ＦＯＲＯ株式会社,,株式会社,東京都,江東区,三好１丁目８番３号越前屋ビル２階,,13,108,1350022,,,,,,,2023-11-09,1,,,,,フォロ,0
1213,5010703006932,新規,0,2023-11-09,2023-11-09,ＧＴＭ合同会社,,合同会社,東京都,品川区,西五反田６丁目２２番１０号１Ｆ,,13,109,1410031,,,,,,,2023-11-09,1,,,,,ジーティエム,0
1216,5010901054147,新規,0,2023-11-09,2023-11-09,株式会社ＮＳリレーションズ,,株式会社,東京都,世田谷区,玉川４丁目２９番２号,,13,112,1580094,,,,,,,2023-11-09,1,,,,,エヌエスリレーションズ,0
1221,5011001158020,新規,0,2023-11-09,2023-11-09,株式会社ＤＩＳＣＯＲＤＡＮＣＥ,,株式会社,東京都,渋谷区,桜丘町９番１７号ＡＮＤＦＩＲＳＴＢＬＤＧ．６階,,13,113,1500031,,,,,,,2023-11-09,1,,,,,ディスコーダンス,0
1222,5011001158053,新規,0,2023-11-09,2023-11-09,Ｕｎｌｅａｓｈ株式会社,,株式会社,東京都,渋谷区,渋谷２丁目１９－１５宮益坂ビルディング６０９,,13,113,1500002,,,,,,,2023-11-09,1,,,,,アンリーシュ,0
1223,5011001158094,新規,0,2023-11-09,2023-11-09,株式会社ｘｉｏ　ｆｏｏｄ,,株式会社,東京都,渋谷区,神南１丁目２３番１４号リージャス渋谷公園通りビル,,13,113,1500041,,,,,,,2023-11-09,1,,,,,シオフード,0
1231,5011105010853,新規,0,2023-11-09,2023-11-09,一般財団法人ヨーロッパ医科大学事務局,,その他の設立登記法人,東京都,新宿区,西新宿６丁目５番１号,,13,104,1600023,,,,,,,2023-11-09,1,,,,,ヨーロッパイカダイガクジムキョク,0
1232,5011303004954,新規,0,2023-11-09,2023-11-09,ＮＡＭ　ＮＨＩ合同会社,,合同会社,東京都,杉並区,高円寺北２丁目１０番７号ヴィラグリーン１ＦＡ,,13,115,1660002,,,,,,,2023-11-09,1,,,,,ナムニィ,0
1233,5011401025596,新規,0,2023-11-09,2023-11-09,Ｙ　ＧＬＥＡＭ　ＨＯＭＥ株式会社,,株式会社,東京都,板橋区,板橋２丁目６３番３号ソフトタウン板橋区役所前１階,,13,119,1730004,,,,,,,2023-11-09,1,,,,,ワイグリームホーム,0
1235,5011501029968,新規,0,2023-11-09,2023-11-09,済州島株式会社,,株式会社,東京都,荒川区,西日暮里６丁目１３番１２号,,13,118,1160013,,,,,,,2023-11-09,1,,,,,サイシュウトウ,0
1236,5011701026732,新規,0,2023-11-09,2023-11-09,東欣株式会社,,株式会社,東京都,江戸川区,松島３丁目３６番３号,,13,123,1320031,,,,,,,2023-11-09,1,,,,,トウキン,0
1237,5011701026740,新規,0,2023-11-09,2023-11-09,成康産業株式会社,,株式会社,東京都,江戸川区,平井４丁目９－４ＥＫビル１０１号室,,13,123,1320035,,,,,,,2023-11-09,1,,,,,ナリヤスサンギョウ,0
1238,5011701026749,新規,0,2023-11-09,2023-11-09,株式会社東旭,,株式会社,東京都,江戸川区,東瑞江１丁目２７－５メゾンド・コスモ３－４０１,,13,123,1320014,,,,,,,2023-11-09,1,,,,,トウキョク,0
1248,5012403006262,新規,0,2023-11-09,2023-11-09,合同会社ごえん,,合同会社,東京都,三鷹市,下連雀４丁目６番３１号,,13,204,1810013,,,,,,,2023-11-09,1,,,,,,0
1250,5012703002853,新規,0,2023-11-09,2023-11-09,合同会社ＬＩＭＰＩＤＥ,,合同会社,東京都,東村山市,栄町２丁目２９番地９ＷＨＩＴＥＣＡＳＴＬＥ３０２,,13,213,1890013,,,,,,,2023-11-09,1,,,,,ランピード,0
1256,5013301051598,新規,0,2023-11-09,2023-11-09,株式会社エンジェルライト,,株式会社,東京都,豊島区,駒込４丁目８番１５号レーベンリヴァーレシュアレジデンス駒込７０２号,,13,116,1700003,,,,,,,2023-11-09,1,,,,,エンジェルライト,0
1266,5020001154326,新規,0,2023-11-09,2023-11-09,株式会社エムオーテックアイデアズ,,株式会社,神奈川県,横浜市西区,北幸１丁目１１番１号水信ビル７階,,14,103,2200004,,,,,,,2023-11-09,1,,,,,エムオーテックアイデアズ,0
1267,5020001154383,新規,0,2023-11-09,2023-11-09,ＳＦインベストメント株式会社,,株式会社,神奈川県,横浜市神奈川区,鶴屋町２丁目１２番１号横浜カリオカビル,,14,102,2210835,,,,,,,2023-11-09,1,,,,,エスエフインベストメント,0
1268,5020001154391,新規,0,2023-11-09,2023-11-09,株式会社ＣＲＡＦＴ　ＷＯＲＫＳ,,株式会社,神奈川県,横浜市神奈川区,大口仲町１０７番地,,14,102,2210003,,,,,,,2023-11-09,1,,,,,クラフトワークス,0
1270,5021001080677,新規,0,2023-11-09,2023-11-09,株式会社Ｌａｙｅｒ,,株式会社,神奈川県,伊勢原市,沼目２丁目７番３９号和泉ハイツ１０２号,,14,214,2591126,,,,,,,2023-11-09,1,,,,,レイヤー,0
1271,5021001080685,新規,0,2023-11-09,2023-11-09,株式会社ＭＡＳＳ,,株式会社,神奈川県,鎌倉市,材木座３丁目４番７－２号,,14,204,2480013,,,,,,,2023-11-09,1,,,,,マス,0
1280,5030001157039,新規,0,2023-11-09,2023-11-09,株式会社サンラージ,,株式会社,埼玉県,蓮田市,西新宿６丁目１４２番地９,,11,238,3490141,,,,,,,2023-11-09,1,,,,,サンラージ,0
1285,5030003022827,新規,0,2023-11-09,2023-11-09,ならのき合同会社,,合同会社,埼玉県,川口市,大字安行領根岸３０５２番地,,11,203,3330834,,,,,,,2023-11-09,1,,,,,ナラノキ,0
1286,5030003022926,新規,0,2023-11-09,2023-11-09,合同会社ノアール,,合同会社,埼玉県,川口市,本町４丁目５－２６－２００５,,11,203,3320012,,,,,,,2023-11-09,1,,,,,ノアール,0
1296,5040003023700,新規,0,2023-11-09,2023-11-09,合同会社ライフ,,合同会社,千葉県,千葉市中央区,要町２番１６号ロザール東千葉６０２号,,12,101,2600017,,,,,,,2023-11-09,1,,,,,ライフ,0
1299,5050001053772,新規,0,2023-11-09,2023-11-09,株式会社ＭＫグローバル,,株式会社,茨城県,水戸市,北見町２番２６号,,08,201,3100061,,,,,,,2023-11-09,1,,,,,エムケーグローバル,0
1300,5050001053780,新規,0,2023-11-09,2023-11-09,真和工業株式会社,,株式会社,茨城県,常総市,平内１１５番地３,,08,211,3002714,,,,,,,2023-11-09,1,,,,,シンワコウギョウ,0
1309,5080401026838,新規,0,2023-11-09,2023-11-09,株式会社ＡＪ,,株式会社,静岡県,浜松市中区,田町３２３番地の１１ＯＲＩＴＯビル４Ｆ西,,22,131,4300944,,,,,,,2023-11-09,1,,,,,エージェイ,0
1311,5110001037967,新規,0,2023-11-09,2023-11-09,株式会社オズワン新潟,,株式会社,新潟県,燕市,大関１２５番地１,,15,213,9591287,,,,,,,2023-11-09,1,,,,,オズワンニイガタ,0
1320,5120001259726,新規,0,2023-11-09,2023-11-09,株式会社Ｎｏ．９,,株式会社,大阪府,寝屋川市,成田西町１番２６号,,27,215,5720005,,,,,,,2023-11-09,1,,,,,ナンバーナイン,0
1324,5120003025309,新規,0,2023-11-09,2023-11-09,合同会社ココミライ,,合同会社,大阪府,枚方市,香里ケ丘１０丁目８番地の８１,,27,210,5730084,,,,,,,2023-11-09,1,,,,,ココミライ,0
1328,5120101068507,新規,0,2023-11-09,2023-11-09,株式会社エフドット,,株式会社,大阪府,堺市堺区,田出井町２番９－２０８号,,27,141,5900014,,,,,,,2023-11-09,1,,,,,エフドット,0
1330,5120901048344,新規,0,2023-11-09,2023-11-09,株式会社延原設備,,株式会社,大阪府,茨木市,郡４丁目１６番３４号,,27,211,5670072,,,,,,,2023-11-09,1,,,,,ノブハラセツビ,0
1336,5130001075668,新規,0,2023-11-09,2023-11-09,ＴＣＲホールディングス株式会社,,株式会社,京都府,綾部市,幸通３４番地１,,26,203,6230052,,,,,,,2023-11-09,1,,,,,ティーシーアールホールディングス,0
1337,5130001075676,新規,0,2023-11-09,2023-11-09,株式会社遊々舎,,株式会社,京都府,船井郡京丹波町,蒲生蒲生野６９番地２,,26,407,6220214,,,,,,,2023-11-09,1,,,,,ユウユウシャ,0
1338,5130001075684,新規,0,2023-11-09,2023-11-09,株式会社虫秘茶,,株式会社,京都府,京都市左京区,田中高原町１－２ディアコート１０２,,26,103,6068242,,,,,,,2023-11-09,1,,,,,チュウヒチャ,0
1353,5140001132286,新規,0,2023-11-09,2023-11-09,株式会社ＯＣＴ,,株式会社,兵庫県,神戸市東灘区,向洋町中１丁目１８番地,,28,101,6580032,,,,,,,2023-11-09,1,,,,,オーシーティー,0
1368,5180001158864,新規,0,2023-11-09,2023-11-09,星月株式会社,,株式会社,愛知県,名古屋市熱田区,幡野町１８番１１号,,23,109,4560077,,,,,,,2023-11-09,1,,,,,セイゲツ,0
1369,5180001158872,新規,0,2023-11-09,2023-11-09,株式会社オクムラ,,株式会社,愛知県,名古屋市中川区,高畑３丁目１０６番地,,23,110,4540911,,,,,,,2023-11-09,1,,,,,オクムラ,0
1370,5180001158906,新規,0,2023-11-09,2023-11-09,ｅ．ｎ株式会社,,株式会社,愛知県,名古屋市西区,菊井２丁目２１番３号プラセシオン名古屋駅パークフロント５０２号,,23,104,4510044,,,,,,,2023-11-09,1,,,,,,0
1375,5180003025971,新規,0,2023-11-09,2023-11-09,合同会社Ｐｅｒｆｅｃｔ,,合同会社,愛知県,清須市,西枇杷島町泉６番地,,23,233,4520015,,,,,,,2023-11-09,1,,,,,パーフェクト,0
1379,5180301037933,新規,0,2023-11-09,2023-11-09,株式会社ヤシの木,,株式会社,愛知県,刈谷市,半城土西町３丁目１番地２１加藤ハイツＢ２０２号室,,23,210,4480816,,,,,,,2023-11-09,1,,,,,ヤシノキ,0
1380,5180301037982,新規,0,2023-11-09,2023-11-09,株式会社ＡＤｇａｒａｇｅ,,株式会社,愛知県,豊田市,朝日町３丁目４番地,,23,211,4710031,,,,,,,2023-11-09,1,,,,,エーディーガレージ,0
1381,5180301037990,新規,0,2023-11-09,2023-11-09,株式会社ＢＬＵＥ　ＢＯＸ,,株式会社,愛知県,西尾市,一色町味浜屋下１１番地,,23,213,4440422,,,,,,,2023-11-09,1,,,,,ブルーボックス,0
1382,5180301037999,新規,0,2023-11-09,2023-11-09,株式会社陽,,株式会社,愛知県,豊橋市,旭本町２番地,,23,201,4400058,,,,,,,2023-11-09,1,,,,,ヒナタ,0
1383,5180301038007,新規,0,2023-11-09,2023-11-09,株式会社Ａｃｔ．,,株式会社,愛知県,豊橋市,牟呂大西町４番地の２０,,23,201,4418089,,,,,,,2023-11-09,1,,,,,アクト,0
1390,5240003006412,新規,0,2023-11-09,2023-11-09,合同会社ファンまち,,合同会社,広島県,尾道市,久保２丁目１７－２,,34,205,7220045,,,,,,,2023-11-09,1,,,,,ファンマチ,0
1392,5250001020389,新規,0,2023-11-09,2023-11-09,株式会社三六堂,,株式会社,山口県,下関市,上新地町１丁目６－４,,35,201,7500061,,,,,,,2023-11-09,1,,,,,サブロクドウ,0
1401,5290001103693,新規,0,2023-11-09,2023-11-09,ゲインモーション株式会社,,株式会社,福岡県,福岡市中央区,舞鶴１丁目９番３号朝日プラザ天神９０４,,40,133,8100073,,,,,,,2023-11-09,1,,,,,ゲインモーション,0
1402,5290001103702,新規,0,2023-11-09,2023-11-09,株式会社ｇｒａｎｄｉｒ,,株式会社,福岡県,福岡市中央区,渡辺通５丁目８－１７－７０２号ラフレシーサ天神南,,40,133,8100004,,,,,,,2023-11-09,1,,,,,グランディール,0
1403,5290003014583,新規,0,2023-11-09,2023-11-09,Ａｒａｕｋａｎａ　Ｍｅｄｉａ合同会社,,合同会社,福岡県,福岡市中央区,大名２丁目６番１１号,,40,133,8100041,,,,,,,2023-11-09,1,,,,,アラウカナメディア,0
1410,5350001018646,新規,0,2023-11-09,2023-11-09,飫肥杉ホールディングス株式会社,,株式会社,宮崎県,日南市,北郷町郷之原甲８８８番地,,45,204,8892402,,,,,,,2023-11-09,1,,,,,オビスギホールディングス,0
1415,5370003006358,新規,0,2023-11-09,2023-11-09,福喜多不動産合同会社,,合同会社,宮城県,仙台市太白区,ひより台１番１０号,,04,104,9820811,,,,,,,2023-11-09,1,,,,,フクキタフドウサン,0
1416,5370003006366,新規,0,2023-11-09,2023-11-09,合同会社大沢ＡＭＫＡ,,合同会社,宮城県,登米市,豊里町大沢２４番地８,,04,212,9870341,,,,,,,2023-11-09,1,,,,,オオサワエーエムケーエー,0
1421,5380005012766,新規,0,2023-11-09,2023-11-09,ＮＰＯ法人かけはし,,その他の設立登記法人,福島県,郡山市,富田町字大徳南３２番地の１０,,07,203,9638041,,,,,,,2023-11-09,1,,,,,カケハシ,0
1430,5430001090364,新規,0,2023-11-09,2023-11-09,株式会社ＯＶＥＲ,,株式会社,北海道,札幌市中央区,南二条西２２丁目１番４５号ＨＡＬＬ２２ビル４階,,01,101,0640802,,,,,,,2023-11-09,1,,,,,オーバー,0
1431,5430001090389,新規,0,2023-11-09,2023-11-09,株式会社Ｋａ’ｓ　ＮＡＫＡＭＵＲＡ,,株式会社,北海道,虻田郡倶知安町,南七条西１丁目１０番地１０,,01,400,0440041,,,,,,,2023-11-09,1,,,,,カズナカムラ,0
1432,5430003015600,新規,0,2023-11-09,2023-11-09,合同会社リョクチュウ,,合同会社,北海道,北広島市,松葉町６丁目１番地,,01,234,0611136,,,,,,,2023-11-09,1,,,,,リョクチュウ,0
1442,5500001025296,新規,0,2023-11-09,2023-11-09,株式会社たけざき,,株式会社,愛媛県,新居浜市,北新町１３番４６号,,38,205,7920004,,,,,,,2023-11-09,1,,,,,タケザキ,0
1443,5700150121958,新規,0,2023-11-09,2023-11-09,ｙｉｎｇｋｏｕｇａｎｇｓｈａｎｓｈａｎｇｍａｏｙｏｕｘｉａｎｇｏｎｇｓｉ,,外国会社等,,,,,,,,Ｂａｙｕｑｕａｎ　ＤｉｓｔｒｉｃｔＥａｓｔ　ｓｉｄｅ　ｏｆ　ｔｈｅ　ｆｉｒｓｔ　ｆｌｏｏｒ　ｏｆ　Ｕｎｉｔ　０４１３３，ＲｅｎｆｕＹｉｎｇｋｏｕ　ＣｉｔｙＬｉａｏｎｉｎｇ　Ｐｒｏｖｉｎｃｅ１１５００７ＣＮ,,,,,,2023-11-09,1,,,,,インコウガンシャンシャンマオヨウシエンゴンスー,0
1444,5700150121966,新規,0,2023-11-09,2023-11-09,ｓｈｅｎｚｈｅｎｓｈｉ　ｚｈｏｎｇｗｅｉｊｉａｍａｏｙｉ　ｙｏｕｘｉａｎｇｏｎｇｓｉ,,外国会社等,,,,,,,,ｌｕｏｈｕｑｕｄｏｎｇｍｅｎｊｉｅｄａｏｈｕｂｅｉｓｈｅｑｕｗｅｎｊｉｎｚｈｏｎｇｌｕ１０１３ｈａｏｚｈａｏｈｕａｄａｓｈａｂｅｉｚｕｏ１２０６ｓｈｅｎｚｈｅｎｓｈｉｇｕａｎｇｄｏｎｇｓｈｅｎｇ５１８００１ＣＮ,,,,,,2023-11-09,1,,,,,シェンジェンシージョンウェイジャーマオイーヨウシエンゴンスー,0
1459,6010001239845,新規,0,2023-11-09,2023-11-09,ｍｉｎｉｔｔｏ株式会社,,株式会社,東京都,千代田区,丸の内２丁目５番１号丸の内二丁目ビル４階ｐｏｉｎｔ０ｍａｒｕｎｏｕｃｈｉ内,,13,101,1000005,,,,,,,2023-11-09,1,,,,,ミニット,0
1460,6010001239928,新規,0,2023-11-09,2023-11-09,築地株価算定株式会社,,株式会社,東京都,中央区,築地６丁目７番１号,,13,102,1040045,,,,,,,2023-11-09,1,,,,,ツキジカブカサンテイ,0
1461,6010001239960,新規,0,2023-11-09,2023-11-09,ＧＫ株式会社,,株式会社,東京都,千代田区,平河町１丁目５－１５ＶＯＲＴ平河町５０２号室,,13,101,1020093,,,,,,,2023-11-09,1,,,,,ジーケー,0
1468,6010101015873,新規,0,2023-11-09,2023-11-09,株式会社はじめ,,株式会社,東京都,八王子市,横川町１０３番地レユシール６０１号,,13,201,1930823,,,,,,,2023-11-09,1,,,,,ハジメ,0
1469,6010101015881,新規,0,2023-11-09,2023-11-09,株式会社ＥＣＨＯＯＺ,,株式会社,東京都,八王子市,南町３番５号シュゼル八王子４０３号,,13,201,1920072,,,,,,,2023-11-09,1,,,,,エコーズ,0
1485,6010405022640,新規,0,2023-11-09,2023-11-09,一般社団法人ことのはカウンセリング＆サポート,,その他の設立登記法人,東京都,港区,南青山４丁目１番１号,,13,103,1070062,,,,,,,2023-11-09,1,,,,,コトノハカウンセリングアンドサポート,0
1486,6010501051295,新規,0,2023-11-09,2023-11-09,株式会社ＴＯＫＩＷＡ,,株式会社,東京都,台東区,入谷２丁目１５番１号レゴ・キューブ１０１,,13,106,1100013,,,,,,,2023-11-09,1,,,,,トキワ,0
1498,6010901054121,新規,0,2023-11-09,2023-11-09,株式会社ソレイユパートナーズ,,株式会社,東京都,世田谷区,成城９丁目３１番２０号,,13,112,1570066,,,,,,,2023-11-09,1,,,,,ソレイユパートナーズ,0
1499,6010901054146,新規,0,2023-11-09,2023-11-09,株式会社１００Ｘ,,株式会社,東京都,世田谷区,野沢４丁目２１番１８号,,13,112,1540003,,,,,,,2023-11-09,1,,,,,ヒャクエックス,0
1501,6011001157905,新規,0,2023-11-09,2023-11-09,株式会社Ｉ・Ｐ・Ｌ２５,,株式会社,東京都,目黒区,八雲３丁目１２番１０号,,13,110,1520023,,,,,,,2023-11-09,1,,,,,アイピーエル,0
1502,6011001158028,新規,0,2023-11-09,2023-11-09,北斗株式会社,,株式会社,東京都,渋谷区,広尾３丁目１７番２７－１１０１号,,13,113,1500012,,,,,,,2023-11-09,1,,,,,ホクト,0
1503,6011001158102,新規,0,2023-11-09,2023-11-09,株式会社セラピスト不動産,,株式会社,東京都,目黒区,下目黒２丁目２番２号パークキューブ目黒タワー１９０２,,13,110,1530064,,,,,,,2023-11-09,1,,,,,セラピストフドウサン,0
1504,6011001158127,新規,0,2023-11-09,2023-11-09,株式会社ステイライド,,株式会社,東京都,目黒区,目黒本町６丁目４番８号,,13,110,1520002,,,,,,,2023-11-09,1,,,,,ステイライド,0
1505,6011001158168,新規,0,2023-11-09,2023-11-09,ＤＶＣキャピタルマネジメント株式会社,,株式会社,東京都,渋谷区,代々木１丁目２５番５号,,13,113,1510053,,,,,,,2023-11-09,1,,,,,ディーブイシー,0
1508,6011003017834,新規,0,2023-11-09,2023-11-09,ｅｎｍｅｍｅ合同会社,,合同会社,東京都,渋谷区,道玄坂１丁目１０番８号渋谷道玄坂東急ビル２Ｆ－Ｃ,,13,113,1500043,,,,,,,2023-11-09,1,,,,,エンミーム,0
1509,6011003017859,新規,0,2023-11-09,2023-11-09,合同会社ｇｏｏｏｏｗａｙ,,合同会社,東京都,目黒区,中町１丁目２５番１０－２０８号ユニフォート目黒中町,,13,110,1530065,,,,,,,2023-11-09,1,,,,,グーウェイ,0
1510,6011003017900,新規,0,2023-11-09,2023-11-09,合同会社Ｃｏｆｆｒｅｔ,,合同会社,東京都,渋谷区,初台１丁目５４－４,,13,113,1510061,,,,,,,2023-11-09,1,,,,,コフレ,0
1515,6011101105037,新規,0,2023-11-09,2023-11-09,ジーエンタ株式会社,,株式会社,東京都,新宿区,高田馬場３丁目１番５号サンパティオ高田馬場３０９号室,,13,104,1690075,,,,,,,2023-11-09,1,,,,,ジーエンタ,0
1516,6011103013709,新規,0,2023-11-09,2023-11-09,エムティーアソシア合同会社,,合同会社,東京都,新宿区,新宿１丁目３６番２号新宿第七葉山ビル３Ｆ,,13,104,1600022,,,,,,,2023-11-09,1,,,,,エムティーアソシア,0
1517,6011103013725,新規,0,2023-11-09,2023-11-09,合同会社みーてぃあ,,合同会社,東京都,新宿区,細工町１－５牛込北町マンション１０２,,13,104,1620838,,,,,,,2023-11-09,1,,,,,ミーティア,0
1520,6011301029151,新規,0,2023-11-09,2023-11-09,セル画ラボ株式会社,,株式会社,東京都,杉並区,上井草２丁目３５－１１Ｓｔｏｒｋｐｏｎｄ上井草,,13,115,1670023,,,,,,,2023-11-09,1,,,,,セルガラボ,0
1523,6011503005834,新規,0,2023-11-09,2023-11-09,合同会社トリシクロ,,合同会社,東京都,北区,豊島７丁目２１番７－１０７号,,13,117,1140003,,,,,,,2023-11-09,1,,,,,トリシクロ,0
1528,6011801043313,新規,0,2023-11-09,2023-11-09,大地通建株式会社,,株式会社,東京都,足立区,扇３丁目２１番８号アビタシオン扇３０６,,13,121,1230873,,,,,,,2023-11-09,1,,,,,ダイチツウケン,0
1532,6012303001899,新規,0,2023-11-09,2023-11-09,合同会社ＴＳＵＲＵＹＡ,,合同会社,東京都,町田市,木曽西１丁目３７番２１号２,,13,209,1940037,,,,,,,2023-11-09,1,,,,,ツルヤ,0
1535,6012401041203,新規,0,2023-11-09,2023-11-09,株式会社熊澤亮輔,,株式会社,東京都,調布市,下石原１丁目２９番地９,,13,208,1820034,,,,,,,2023-11-09,1,,,,,クマザワリョウスケ,0
1553,6020001154382,新規,0,2023-11-09,2023-11-09,株式会社プロスパーワン,,株式会社,神奈川県,横浜市中区,野毛町２丁目７７番地１ニックハイムリビュレット野毛４０５号室,,14,104,2310064,,,,,,,2023-11-09,1,,,,,プロスパーワン,0
1554,6020001154390,新規,0,2023-11-09,2023-11-09,東海岸パートナーズ株式会社,,株式会社,神奈川県,横浜市都筑区,大棚町５０６番地４,,14,118,2240027,,,,,,,2023-11-09,1,,,,,ヒガシカイガンパートナーズ,0
1555,6020001154408,新規,0,2023-11-09,2023-11-09,株式会社ＭＳＫＹＳホールディングス,,株式会社,神奈川県,横浜市瀬谷区,卸本町９２７７番地７,,14,114,2460001,,,,,,,2023-11-09,1,,,,,エムスキースホールディングス,0
1557,6020003024955,新規,0,2023-11-09,2023-11-09,合同会社ｑｕｅｕｅ　ｄｅ　ｃｌｅ,,合同会社,神奈川県,横浜市旭区,中希望が丘２１７番地２５,,14,112,2410825,,,,,,,2023-11-09,1,,,,,クーデクレ,0
1568,6021001080684,新規,0,2023-11-09,2023-11-09,株式会社ＯＲＩＴ．,,株式会社,神奈川県,茅ヶ崎市,十間坂２丁目１番８号チューダーハウスＢ棟１号,,14,207,2530045,,,,,,,2023-11-09,1,,,,,オリット,0
1569,6021001080701,新規,0,2023-11-09,2023-11-09,株式会社シーウイング,,株式会社,神奈川県,三浦市,三崎２丁目２０－１５,,14,210,2380243,,,,,,,2023-11-09,1,,,,,シーウイング,0
1573,6030001157079,新規,0,2023-11-09,2023-11-09,株式会社ＡＩＯＷＮ,,株式会社,埼玉県,さいたま市南区,文蔵１丁目１２番１２－３０７号,,11,108,3360025,,,,,,,2023-11-09,1,,,,,アイオウン,0
1578,6030003022966,新規,0,2023-11-09,2023-11-09,ザクロ合同会社,,合同会社,埼玉県,本庄市,四季の里３丁目９番１２号,,11,211,3670039,,,,,,,2023-11-09,1,,,,,ザクロ,0
1583,6040001130852,新規,0,2023-11-09,2023-11-09,共千株式会社,,株式会社,千葉県,松戸市,本町１７番地の１１芹澤ビル６Ｆ,,12,207,2710091,,,,,,,2023-11-09,1,,,,,キョウセン,0
1589,6040003023682,新規,0,2023-11-09,2023-11-09,あかつき合同会社,,合同会社,千葉県,我孫子市,若松１３６－７コーポ鈴木２０３号室,,12,222,2701147,,,,,,,2023-11-09,1,,,,,アカツキ,0
1590,6040003023690,新規,0,2023-11-09,2023-11-09,合同会社ｔｒｅｎｄｌｉｎｅ,,合同会社,千葉県,我孫子市,柴崎台５丁目３番地１５号柴崎台ビューハイツ１０１号室,,12,222,2701176,,,,,,,2023-11-09,1,,,,,トレンドライン,0
1591,6040005022195,新規,0,2023-11-09,2023-11-09,一般社団法人Ｈａｐｐｙらいふ,,その他の設立登記法人,千葉県,船橋市,大穴北３丁目２８－１１,,12,204,2740068,,,,,,,2023-11-09,1,,,,,ハッピーライフ,0
1596,6050001053771,新規,0,2023-11-09,2023-11-09,光神商事株式会社,,株式会社,茨城県,鹿嶋市,大字平井１３５０番地１２９,,08,222,3140012,,,,,,,2023-11-09,1,,,,,コウシンショウジ,0
1597,6050001053805,新規,0,2023-11-09,2023-11-09,ファンファンＧＯＬＦ株式会社,,株式会社,茨城県,日立市,城南町４丁目１４番２０号,,08,202,3170077,,,,,,,2023-11-09,1,,,,,ファンファンゴルフ,0
1605,6080101024331,新規,0,2023-11-09,2023-11-09,株式会社ＹＡＭＡＤＡ　Ｇｒｏｕｐ,,株式会社,静岡県,熱海市,上多賀１０６５－２０４,,22,205,4130101,,,,,,,2023-11-09,1,,,,,,0
1608,6100001036960,新規,0,2023-11-09,2023-11-09,株式会社ｊｕｖｅｎｉｌｅ,,株式会社,長野県,長野市,真島町真島２０７,,20,201,3812204,,,,,,,2023-11-09,1,,,,,ジュブナイル,0
1624,6120001259592,新規,0,2023-11-09,2023-11-09,株式会社塩濱,,株式会社,大阪府,寝屋川市,八坂町１４番１５号,,27,215,5720838,,,,,,,2023-11-09,1,,,,,シオハマ,0
1625,6120001259626,新規,0,2023-11-09,2023-11-09,清藤株式会社,,株式会社,大阪府,大阪市住吉区,遠里小野６丁目１７－１８プロスピロティー住吉３０５号,,27,120,5580032,,,,,,,2023-11-09,1,,,,,セイトウ,0
1626,6120001259667,新規,0,2023-11-09,2023-11-09,ＨＯＯＲＡＹ株式会社,,株式会社,大阪府,大阪市浪速区,幸町２丁目３番４－７０３号,,27,111,5560021,,,,,,,2023-11-09,1,,,,,フーレイ,0
1627,6120003025282,新規,0,2023-11-09,2023-11-09,博爾合同会社,,合同会社,大阪府,大阪市大正区,小林東２丁目９－５－５０５,,27,108,5510011,,,,,,,2023-11-09,1,,,,,ヒロジ,0
1628,6120003025308,新規,0,2023-11-09,2023-11-09,Ｔｒｅｓｓａｉｌｌｉｒ　Ｌａｂ．合同会社,,合同会社,大阪府,大阪市福島区,海老江１丁目１１番１－８０５号,,27,103,5530001,,,,,,,2023-11-09,1,,,,,トレサイーユラボ,0
1629,6120101068506,新規,0,2023-11-09,2023-11-09,株式会社市道,,株式会社,大阪府,泉南市,中小路２丁目２６０１番地の１,,27,228,5900533,,,,,,,2023-11-09,1,,,,,イチミチ,0
1637,6122001037549,新規,0,2023-11-09,2023-11-09,株式会社ダヴィール,,株式会社,大阪府,東大阪市,渋川町１丁目３番１５号,,27,227,5770836,,,,,,,2023-11-09,1,,,,,ダヴィール,0
1641,6130001075642,新規,0,2023-11-09,2023-11-09,株式会社カレン,,株式会社,京都府,京都市伏見区,深草越後屋敷町６０番地９,,26,109,6128431,,,,,,,2023-11-09,1,,,,,カレン,0
1642,6130001075659,新規,0,2023-11-09,2023-11-09,株式会社ピースエステート,,株式会社,京都府,京都市西京区,桂巽町６２番地２,,26,111,6158075,,,,,,,2023-11-09,1,,,,,ピースエステート,0
1643,6130001075675,新規,0,2023-11-09,2023-11-09,源兵衛株式会社,,株式会社,京都府,京都市南区,吉祥院前河原町１番地富家ビル２Ｆ１１号,,26,107,6018304,,,,,,,2023-11-09,1,,,,,ゲンベエ,0
1650,6140001132244,新規,0,2023-11-09,2023-11-09,株式会社ｃｏｏｄ,,株式会社,兵庫県,神戸市中央区,琴ノ緒町５丁目５－８Ｍ‘ｓインターナショナル３Ｆ,,28,110,6510094,,,,,,,2023-11-09,1,,,,,クード,0
1656,6160001025495,新規,0,2023-11-09,2023-11-09,株式会社ＳＫＹ’Ｓ,,株式会社,滋賀県,野洲市,市三宅１２６４番地３,,25,210,5202362,,,,,,,2023-11-09,1,,,,,スカイズ,0
1669,6180001158780,新規,0,2023-11-09,2023-11-09,株式会社グローバルライブ,,株式会社,愛知県,常滑市,港町４丁目１６０番地の３,,23,216,4790848,,,,,,,2023-11-09,1,,,,,グローバルライブ,0
1670,6180001158863,新規,0,2023-11-09,2023-11-09,株式会社東海デザイン研究所,,株式会社,愛知県,名古屋市中区,大須２丁目１０番４５号,,23,106,4600011,,,,,,,2023-11-09,1,,,,,トウカイデザインケンキュウショ,0
1678,6180301037981,新規,0,2023-11-09,2023-11-09,株式会社ｎａｔｕｒａｌ　ｐｅａｋ,,株式会社,愛知県,豊田市,大林町１０丁目１０番地６,,23,211,4730902,,,,,,,2023-11-09,1,,,,,ナチュラルピーク,0
1679,6180301037998,新規,0,2023-11-09,2023-11-09,Ａ‐ＴＥＣ株式会社,,株式会社,愛知県,豊田市,市木町２丁目１４番地１０,,23,211,4710006,,,,,,,2023-11-09,1,,,,,エイテック,0
1680,6180301038006,新規,0,2023-11-09,2023-11-09,株式会社リライト,,株式会社,愛知県,豊川市,光明町２丁目６番地の２,,23,207,4420884,,,,,,,2023-11-09,1,,,,,リライト,0
1682,6180303005895,新規,0,2023-11-09,2023-11-09,Ｙｏｕ合同会社,,合同会社,愛知県,新城市,字町並２３５－５,,23,221,4411374,,,,,,,2023-11-09,1,,,,,ユー,0
1685,6220001025679,新規,0,2023-11-09,2023-11-09,株式会社ＨＬＲホールディングス,,株式会社,石川県,金沢市,寺町１丁目５番１１号,,17,201,9218033,,,,,,,2023-11-09,1,,,,,エイチエルアールホールディングス,0
1694,6260001038479,新規,0,2023-11-09,2023-11-09,株式会社らぽーる,,株式会社,岡山県,岡山市北区,白石２８５番地８,,33,101,7010143,,,,,,,2023-11-09,1,,,,,ラポール,0
1701,6290001103684,新規,0,2023-11-09,2023-11-09,株式会社ＢＭＳ,,株式会社,福岡県,福岡市中央区,今泉１丁目２－２０天神プレイスウエスト１Ｆ２号,,40,133,8100021,,,,,,,2023-11-09,1,,,,,ビーエムエス,0
1702,6290001103701,新規,0,2023-11-09,2023-11-09,株式会社ＧＯＡＴ,,株式会社,福岡県,福岡市中央区,天神４丁目３番８号ミーナ天神８Ｆ,,40,133,8100001,,,,,,,2023-11-09,1,,,,,ゴート,0
1703,6290003014566,新規,0,2023-11-09,2023-11-09,ＤｅＣＡ合同会社,,合同会社,福岡県,筑紫野市,大字筑紫６６２－６－８０１,,40,217,8180025,,,,,,,2023-11-09,1,,,,,デカ,0
1714,6330001031435,新規,0,2023-11-09,2023-11-09,ＫＳマリン株式会社,,株式会社,熊本県,上天草市,松島町阿村５９４２番地,,43,212,8616101,,,,,,,2023-11-09,1,,,,,ケイエスマリン,0
1718,6360001032802,新規,0,2023-11-09,2023-11-09,笑売株式会社,,株式会社,沖縄県,那覇市,字宇栄原６８０番地,,47,201,9010153,,,,,,,2023-11-09,1,,,,,ショウバイ,0
1721,6370001050613,新規,0,2023-11-09,2023-11-09,勝花藏株式会社,,株式会社,宮城県,仙台市青葉区,東勝山３丁目１４番５号,,04,101,9810923,,,,,,,2023-11-09,1,,,,,ショウカグラ,0
1723,6370003006365,新規,0,2023-11-09,2023-11-09,合同会社庚申圭,,合同会社,宮城県,登米市,豊里町大沢２４番地８,,04,212,9870341,,,,,,,2023-11-09,1,,,,,コウシンケイ,0
1728,6380003005614,新規,0,2023-11-09,2023-11-09,ＮｅＸＴ・Ｆａｒｍ合同会社,,合同会社,福島県,福島市,御山字仲ノ町８８番地６,,07,201,9608252,,,,,,,2023-11-09,1,,,,,ネクストファーム,0
1735,6430001090371,新規,0,2023-11-09,2023-11-09,株式会社グッドプラスワン,,株式会社,北海道,札幌市中央区,南五条東２丁目１３－１セントポーリアスイート４０２,,01,101,0600055,,,,,,,2023-11-09,1,,,,,グッドプラスワン,0
1736,6430001090396,新規,0,2023-11-09,2023-11-09,ＡＹサービス株式会社,,株式会社,北海道,札幌市北区,篠路七条４丁目２番８号,,01,102,0028027,,,,,,,2023-11-09,1,,,,,エーワイサービス,0
1737,6430003015616,新規,0,2023-11-09,2023-11-09,合同会社Ｋ‐Ｆｌａｔ,,合同会社,北海道,札幌市北区,北九条西４丁目２４番地パークホームズ札幌ステーションサイド１１０３号,,01,102,0600809,,,,,,,2023-11-09,1,,,,,ケーフラット,0
1744,6490003001833,新規,0,2023-11-09,2023-11-09,合同会社サンエイ,,合同会社,高知県,高知市,瀬戸南町２丁目８－４３－２０１号,,39,201,7810253,,,,,,,2023-11-09,1,,,,,サンエイ,0
1746,6700150121957,新規,0,2023-11-09,2023-11-09,ＳｈｅｎｚｈｅｎＸｕｎｙｉｎＴｅｃｈｎｏｌｏｇｙ　Ｃｏ．，Ｌｔｄ,,外国会社等,,,,,,,,１００２Ｂｕｉｌｄｉｎｇ３Ｒｏｗ１ＷｅｓｔＤｉｓｔｒｉｃｔＨｅｓｈｕｉｋｏｕＮｅｗＶｉｌｌａｇｅＨｅｓｈｕｉｋｏｕＣｏｍｍｕｎｉｔｙＭａｔｉａｎＳｔｒｅｅｔ　Ｇｕａｎｇｍｉｎｇ　Ｄｉｓｔｒｉｃｔ　Ｓｈｅｎｚｈｅｎ,,,,,,2023-11-09,1,,,,,シンセンシュンインテクノロジーカンパニーリミテッド,0
1747,6700150121965,新規,0,2023-11-09,2023-11-09,ｓｈｅｎｚｈｅｎｓｈｉｑｉｎｇｔｉａｎｌｕｄｉａｎｚｉｓｈａｎｇｗｕｙｏｕｘｉａｎｇｏｎｇｓｉ,,外国会社等,,,,,,,,ｓｈｅｎｚｈｅｎｓｈｉｌｏｎｇｈｕａｑｕｍｉｎｚｈｉｊｉｅｄａｏｂｅｉｚｈａｎｓｈｅｑｕｄｏｎｇｑｕａｎｘｉｎｃｕｎ１５８ｄｏｎｇ７０２　ｓｈｅｎｚｈｅｎｓｈｉ　ｌｏｎｇｈｕａｑｕ　ｇｕａｎｇｄｏｎｇｓｈｅｎｇ　５１８０００　ＣＮ,,,,,,2023-11-09,1,,,,,シェンジェンシーチンティエンルーディエンズーシャンウーヨウシエンゴンスー,0
1760,7010003042164,新規,0,2023-11-09,2023-11-09,ビター８２１合同会社,,合同会社,東京都,中央区,銀座１丁目２２番１１号,,13,102,1040061,,,,,,,2023-11-09,1,,,,,ビターハチニイチ,0
1761,7010003042172,新規,0,2023-11-09,2023-11-09,ｉＣｏｎｓｕｌｔａｎｔ合同会社,,合同会社,東京都,中央区,銀座１丁目１２番４号Ｎ＆ＥＢＬＤ．６Ｆ,,13,102,1040061,,,,,,,2023-11-09,1,,,,,アイコンサルタント,0
1764,7010005037468,新規,0,2023-11-09,2023-11-09,税理士法人Ｌｕｃａ,,その他の設立登記法人,東京都,千代田区,神田小川町３丁目２０番地,,13,101,1010052,,,,,,,2023-11-09,1,,,,,ルカ,0
1768,7010101015872,新規,0,2023-11-09,2023-11-09,株式会社余白,,株式会社,東京都,八王子市,長房町４５０番地１１２,,13,201,1930824,,,,,,,2023-11-09,1,,,,,ヨハク,0
1769,7010101015880,新規,0,2023-11-09,2023-11-09,株式会社舵丸水産,,株式会社,東京都,八王子市,散田町３丁目３３番６号,,13,201,1930832,,,,,,,2023-11-09,1,,,,,カジマルスイサン,0
1781,7010403031312,新規,0,2023-11-09,2023-11-09,ＡＣＴＩＧＡＴＥ合同会社,,合同会社,東京都,港区,北青山１丁目３番１号アールキューブ青山３階,,13,103,1070061,,,,,,,2023-11-09,1,,,,,アクティゲート,0
1784,7010503007212,新規,0,2023-11-09,2023-11-09,合同会社Ｎ．Ａプラン,,合同会社,東京都,台東区,千束１丁目１番１号－１３０２号,,13,106,1110031,,,,,,,2023-11-09,1,,,,,エヌエープラン,0
1793,7010703006939,新規,0,2023-11-09,2023-11-09,合同会社バディスビジネスパートナーズ,,合同会社,東京都,品川区,南大井３丁目２１番７－１５０３号,,13,109,1400013,,,,,,,2023-11-09,1,,,,,バディスビジネスパートナーズ,0
1794,7010705003562,新規,0,2023-11-09,2023-11-09,一般社団法人メッツアソーラー,,その他の設立登記法人,東京都,品川区,上大崎３丁目１番１号目黒セントラルスクエア１５階,,13,109,1410021,,,,,,,2023-11-09,1,,,,,メッツアソーラー,0
1798,7010805003074,新規,0,2023-11-09,2023-11-09,特定非営利活動法人スポーツ医療連携強化医会ＭＥＤｉＳＰＯＲＴＳ,,その他の設立登記法人,東京都,大田区,田園調布２丁目２番１７号,,13,111,1450071,,,,,,,2023-11-09,1,,,,,スポーツイリョウレンケイキョウカイカイメディスポーツ,0
1810,7011001157994,新規,0,2023-11-09,2023-11-09,株式会社ＯｃｅａｎＢｌｕｅ　Ｔｅｃｈｎｏｌｏｇｉｅｓ,,株式会社,東京都,渋谷区,道玄坂１丁目５－７,,13,113,1500043,,,,,,,2023-11-09,1,,,,,オーシャンブルーテクノロジーズ,0
1811,7011001158019,新規,0,2023-11-09,2023-11-09,株式会社ＣｈｏｐｓＴｅｃｈ,,株式会社,東京都,渋谷区,神宮前３丁目２４－１原宿鈴木ビル３階・４階,,13,113,1500001,,,,,,,2023-11-09,1,,,,,チョップステック,0
1812,7011001158159,新規,0,2023-11-09,2023-11-09,株式会社ＫＩＴＡＺＵＭＩ,,株式会社,東京都,目黒区,祐天寺１丁目１１番２号,,13,110,1530052,,,,,,,2023-11-09,1,,,,,キタズミ,0
1813,7011003017908,新規,0,2023-11-09,2023-11-09,Ｌｉｇｏ　Ｓｙｓｔｅｍｓ合同会社,,合同会社,東京都,渋谷区,広尾３丁目１番２５－４０１号,,13,113,1500012,,,,,,,2023-11-09,1,,,,,リゴシステムズ,0
1815,7011005010266,新規,0,2023-11-09,2023-11-09,一般社団法人日本個人事業主支援協会,,その他の設立登記法人,東京都,渋谷区,渋谷２丁目３番４号スタービル青山３階,,13,113,1500002,,,,,,,2023-11-09,1,,,,,ニホンコジンジギヨウヌシシエンキヨウカイ,0
1819,7011101105028,新規,0,2023-11-09,2023-11-09,新・産業洗浄株式会社,,株式会社,東京都,新宿区,新宿１丁目３２番１１号山口ビル６Ｆ,,13,104,1600022,,,,,,,2023-11-09,1,,,,,シンサンギョウセンジョウ,0
1821,7011103013724,新規,0,2023-11-09,2023-11-09,合同会社ばしろ,,合同会社,東京都,新宿区,新宿１丁目３６番２号新宿第七葉山ビル３階,,13,104,1600022,,,,,,,2023-11-09,1,,,,,バシロ,0
1825,7011303004969,新規,0,2023-11-09,2023-11-09,ｃｏｍｍｍｏｎ合同会社,,合同会社,東京都,杉並区,阿佐谷北４丁目１３番２号川元マンションＢ１０１,,13,115,1660001,,,,,,,2023-11-09,1,,,,,コモン,0
1831,7011705001804,新規,0,2023-11-09,2023-11-09,医療法人社団ＳＫＩＭ,,その他の設立登記法人,東京都,江戸川区,松本１丁目２５番１号ル・ヴィラージュ松本１階,,13,123,1330043,,,,,,,2023-11-09,1,,,,,エスケーアイエム,0
1832,7011801043312,新規,0,2023-11-09,2023-11-09,Ｔ．Ｉ　ＪＡＰＡＮ株式会社,,株式会社,東京都,足立区,小台１丁目２１番１－６０３号,,13,121,1200046,,,,,,,2023-11-09,1,,,,,ティアイジャパン,0
1834,7012301013656,新規,0,2023-11-09,2023-11-09,株式会社ココカシコ,,株式会社,東京都,町田市,金森７丁目１８番１号,,13,209,1940012,,,,,,,2023-11-09,1,,,,,ココカシコ,0
1843,7013301051596,新規,0,2023-11-09,2023-11-09,株式会社Ｃａｐｕｔ,,株式会社,東京都,豊島区,東池袋３丁目８番５号,,13,116,1700013,,,,,,,2023-11-09,1,,,,,カプト,0
1845,7013303006862,新規,0,2023-11-09,2023-11-09,合同会社もなか,,合同会社,東京都,豊島区,池袋２丁目７１番９号エクセルコート２０５,,13,116,1710014,,,,,,,2023-11-09,1,,,,,モナカ,0
1846,7013303006870,新規,0,2023-11-09,2023-11-09,合同会社ＰＯＴ,,合同会社,東京都,豊島区,東池袋１丁目３８－７コンシェリア池袋マスターズビラ１４０７,,13,116,1700013,,,,,,,2023-11-09,1,,,,,ピーオーティー,0
1852,7020001154398,新規,0,2023-11-09,2023-11-09,株式会社ＥｙｅＭｅｄ　Ｉｎｎｏｖａｔｉｏｎｓ,,株式会社,神奈川県,川崎市中原区,上小田中３丁目２３番３２号ヴァンベール２階,,14,133,2110053,,,,,,,2023-11-09,1,,,,,アイメッドイノベーションズ,0
1853,7020001154407,新規,0,2023-11-09,2023-11-09,あおぞら株式会社,,株式会社,神奈川県,横浜市都筑区,長坂６番３１号クレール２０１,,14,118,2240063,,,,,,,2023-11-09,1,,,,,アオゾラ,0
1861,7020003024962,新規,0,2023-11-09,2023-11-09,合同会社のきした,,合同会社,神奈川県,横浜市中区,鷺山２０番地１－３０２,,14,104,2310848,,,,,,,2023-11-09,1,,,,,ノキシタ,0
1865,7021001080683,新規,0,2023-11-09,2023-11-09,株式会社ＤＧアセットマネジメント,,株式会社,神奈川県,藤沢市,辻堂１丁目１４番１号,,14,205,2510047,,,,,,,2023-11-09,1,,,,,ディージーアセットマネジメント,0
1866,7021001080700,新規,0,2023-11-09,2023-11-09,株式会社ＳｔｙｌｅＰｌｕｓ,,株式会社,神奈川県,相模原市中央区,富士見４丁目５番２４号,,14,152,2520236,,,,,,,2023-11-09,1,,,,,スタイルプラス,0
1880,7030001157037,新規,0,2023-11-09,2023-11-09,株式会社影山電設,,株式会社,埼玉県,三郷市,戸ケ崎３丁目２７３番地６,,11,237,3410044,,,,,,,2023-11-09,1,,,,,カゲヤマデンセツ,0
1881,7030001157061,新規,0,2023-11-09,2023-11-09,株式会社Ｆｉｒｍ,,株式会社,埼玉県,秩父市,道生町１番８号,,11,207,3680045,,,,,,,2023-11-09,1,,,,,ファーム,0
1882,7030001157078,新規,0,2023-11-09,2023-11-09,株式会社ＥＬＬＹ,,株式会社,埼玉県,草加市,氷川町６０番地３ヘルリッヒ２０２号,,11,221,3400034,,,,,,,2023-11-09,1,,,,,エリー,0
1883,7030001157086,新規,0,2023-11-09,2023-11-09,株式会社オーベルジュ,,株式会社,埼玉県,川口市,並木２丁目１８番１号,,11,203,3320034,,,,,,,2023-11-09,1,,,,,オーベルジュ,0
1887,7030003022908,新規,0,2023-11-09,2023-11-09,ＫＡＩ　ＪＰ合同会社,,合同会社,埼玉県,熊谷市,妻沼小島２３５５－５,,11,202,3600245,,,,,,,2023-11-09,1,,,,,カイジェイピィー,0
1891,7040001130876,新規,0,2023-11-09,2023-11-09,株式会社防水屋ＳＨ,,株式会社,千葉県,四街道市,大日２２１４－３３,,12,228,2840001,,,,,,,2023-11-09,1,,,,,ボウスイヤエスエイチ,0
1898,7050001053804,新規,0,2023-11-09,2023-11-09,リューベインターナショナル株式会社,,株式会社,茨城県,桜川市,長方１１８０番地１,,08,231,3091222,,,,,,,2023-11-09,1,,,,,リューベインターナショナル,0
1908,7070001041063,新規,0,2023-11-09,2023-11-09,株式会社エイプラス,,株式会社,群馬県,前橋市,駒形町１１６２番地３,,10,201,3792122,,,,,,,2023-11-09,1,,,,,エイプラス,0
1910,7080101024314,新規,0,2023-11-09,2023-11-09,株式会社ＴＡＣ,,株式会社,静岡県,三島市,南本町１番３２号,,22,206,4110841,,,,,,,2023-11-09,1,,,,,ティーエーシー,0
1911,7080101024322,新規,0,2023-11-09,2023-11-09,株式会社ＭＥマネジメント,,株式会社,静岡県,富士宮市,元城町２１番１１号,,22,207,4180064,,,,,,,2023-11-09,1,,,,,エムイーマネジメント,0
1912,7080101024330,新規,0,2023-11-09,2023-11-09,Ｍウェーブ株式会社,,株式会社,静岡県,三島市,谷田５３１番地の２,,22,206,4110801,,,,,,,2023-11-09,1,,,,,エムウェーブ,0
1914,7080401026836,新規,0,2023-11-09,2023-11-09,株式会社ワンステップ,,株式会社,静岡県,浜松市北区,三ヶ日町都筑１１４８番地の１１,,22,135,4311402,,,,,,,2023-11-09,1,,,,,ワンステップ,0
1917,7090001018407,新規,0,2023-11-09,2023-11-09,株式会社Ｓｉｏｓｔａｎｄａｒｄ,,株式会社,山梨県,甲府市,上石田１丁目１３－１０,,19,201,4000041,,,,,,,2023-11-09,1,,,,,シオスタンダード,0
1930,7120001259534,新規,0,2023-11-09,2023-11-09,ｐａｖａｙ株式会社,,株式会社,大阪府,大阪市西成区,玉出中２丁目１４番９号４０５室,,27,122,5570044,,,,,,,2023-11-09,1,,,,,パベイ,0
1931,7120001259600,新規,0,2023-11-09,2023-11-09,コスモプランニング株式会社,,株式会社,大阪府,大阪市城東区,東中浜５丁目６番２１号Ｃスギモト３０２,,27,118,5360023,,,,,,,2023-11-09,1,,,,,コスモプランニング,0
1932,7120001259609,新規,0,2023-11-09,2023-11-09,株式会社７２コーポレーション,,株式会社,大阪府,大阪市此花区,伝法３丁目１番１２－１１０５号,,27,104,5540002,,,,,,,2023-11-09,1,,,,,セブントゥコーポレーション,0
1933,7120001259749,新規,0,2023-11-09,2023-11-09,株式会社ＲＳＴ,,株式会社,大阪府,大阪市中央区,東心斎橋１丁目１５－１１サザンクロスビル４Ｆ,,27,128,5420083,,,,,,,2023-11-09,1,,,,,アールエスティ,0
1941,7120901048342,新規,0,2023-11-09,2023-11-09,株式会社タイリン,,株式会社,大阪府,池田市,鉢塚３丁目１４番９－５１０号,,27,204,5630024,,,,,,,2023-11-09,1,,,,,タイリン,0
1942,7120903004896,新規,0,2023-11-09,2023-11-09,合同会社リエゾンデソレイユ,,合同会社,大阪府,豊中市,服部寿町２丁目１３番１メゾン樋口３０１,,27,203,5610857,,,,,,,2023-11-09,1,,,,,リエゾンデソレイユ,0
1943,7120903004913,新規,0,2023-11-09,2023-11-09,合同会社あぷりこ,,合同会社,大阪府,豊中市,上野東２丁目１９－５５－６０４,,27,203,5600013,,,,,,,2023-11-09,1,,,,,アプリコ,0
1944,7122001037548,新規,0,2023-11-09,2023-11-09,株式会社谷口建装,,株式会社,大阪府,東大阪市,中石切町５丁目１３番６号,,27,227,5798014,,,,,,,2023-11-09,1,,,,,タニグチケンソウ,0
1949,7130001075674,新規,0,2023-11-09,2023-11-09,株式会社キセ工務店,,株式会社,京都府,京都市伏見区,紺屋町１７２－５,,26,109,6128064,,,,,,,2023-11-09,1,,,,,キセコウムテン,0
1950,7130001075690,新規,0,2023-11-09,2023-11-09,株式会社ＬＥＯ,,株式会社,京都府,長岡京市,奥海印寺片山田６番地１（２－２０５）メゾン・ナチュール長岡京,,26,209,6170853,,,,,,,2023-11-09,1,,,,,レオ,0
1958,7140001132251,新規,0,2023-11-09,2023-11-09,株式会社ｍｏｇａ,,株式会社,兵庫県,西宮市,鷲林寺南町１７番１号,,28,204,6620002,,,,,,,2023-11-09,1,,,,,モガ,0
1967,7160001025494,新規,0,2023-11-09,2023-11-09,株式会社Ｄｉｇｉｔａｌ　Ｈｅａｄ,,株式会社,滋賀県,大津市,大石東３丁目１１番１５号,,25,201,5202264,,,,,,,2023-11-09,1,,,,,デジタルヘッド,0
1979,7180001158821,新規,0,2023-11-09,2023-11-09,株式会社ガレア,,株式会社,愛知県,名古屋市中区,栄２丁目２番１号,,23,106,4600008,,,,,,,2023-11-09,1,,,,,ガレア,0
1980,7180001158904,新規,0,2023-11-09,2023-11-09,株式会社Ｆｏｕｒ　Ｃｌｏｖｅｒ,,株式会社,愛知県,名古屋市北区,米が瀬町１１５番地の３,,23,103,4620031,,,,,,,2023-11-09,1,,,,,フォークローバー,0
1983,7180003025912,新規,0,2023-11-09,2023-11-09,合同会社Ｏｎｌｙ　Ｏｎｅ　Ｅｘｐｒｅｓｓ,,合同会社,愛知県,名古屋市天白区,向が丘１丁目１６０５番地１,,23,116,4680012,,,,,,,2023-11-09,1,,,,,オンリーワンエクスプレス,0
1986,7180301037989,新規,0,2023-11-09,2023-11-09,株式会社Ａｉｌｕ,,株式会社,愛知県,豊橋市,松葉町１丁目６６番地１マツバレーンビル１Ｆ,,23,201,4400897,,,,,,,2023-11-09,1,,,,,アイル,0
1987,7180301038005,新規,0,2023-11-09,2023-11-09,株式会社ＦＯＴ　ＪＰ．,,株式会社,愛知県,安城市,東別所町屋敷４５４番地,,23,212,4460013,,,,,,,2023-11-09,1,,,,,エフオーティージャパン,0
1988,7180303005894,新規,0,2023-11-09,2023-11-09,合同会社Ｃ＆Ｍ,,合同会社,愛知県,豊田市,川見町堂ノ洞２００番地,,23,211,4700506,,,,,,,2023-11-09,1,,,,,シーアンドエムアンドエム,0
1998,7240001062406,新規,0,2023-11-09,2023-11-09,株式会社Ｂ．Ｋ,,株式会社,広島県,広島市南区,段原南１丁目１－７,,34,103,7320814,,,,,,,2023-11-09,1,,,,,ビーケイ,0
2002,7260001038478,新規,0,2023-11-09,2023-11-09,株式会社ウェルテック,,株式会社,岡山県,岡山市南区,妹尾３５１６,,33,104,7010205,,,,,,,2023-11-09,1,,,,,ウェルテック,0
2014,7290001103691,新規,0,2023-11-09,2023-11-09,ＹＴＹ株式会社,,株式会社,福岡県,うきは市,吉井町徳丸１０９番地,,40,225,8391302,,,,,,,2023-11-09,1,,,,,ワイティーワイ,0
2027,7340001026061,新規,0,2023-11-09,2023-11-09,デイジー株式会社,,株式会社,鹿児島県,鹿屋市,寿３丁目３番３３－２０２号,,46,203,8930014,,,,,,,2023-11-09,1,,,,,デイジー,0
2031,7360003013469,新規,0,2023-11-09,2023-11-09,合同会社コンテンティー,,合同会社,沖縄県,浦添市,牧港１丁目５８－１１－２０３号,,47,208,9012131,,,,,,,2023-11-09,1,,,,,コンテンティー,0
2035,7370003006356,新規,0,2023-11-09,2023-11-09,合同会社Ｃｏｃｏｍｉｒａ,,合同会社,宮城県,柴田郡柴田町,西船迫１丁目８番地６８,,04,323,9891622,,,,,,,2023-11-09,1,,,,,ココミラ,0
2036,7370003006364,新規,0,2023-11-09,2023-11-09,合同会社ＧＯＲＹＯ,,合同会社,宮城県,仙台市太白区,西多賀５丁目６番５３号,,04,104,9820034,,,,,,,2023-11-09,1,,,,,ゴリョウ,0
2037,7370005010703,新規,0,2023-11-09,2023-11-09,一般社団法人鉄道文化連結会,,その他の設立登記法人,宮城県,大崎市,古川駅東１丁目７番３２号,,04,215,9896115,,,,,,,2023-11-09,1,,,,,テツドウブンカレンケツカイ,0
2041,7400001016460,新規,0,2023-11-09,2023-11-09,株式会社勇徳板金興業,,株式会社,岩手県,花巻市,高木第７地割６６番地１,,03,205,0250016,,,,,,,2023-11-09,1,,,,,ユウトクバンキンコウギョウ,0
2043,7400005008363,新規,0,2023-11-09,2023-11-09,特定非営利活動法人やまぼうしネットワーク,,その他の設立登記法人,岩手県,滝沢市,土沢３１０番地１０２,,03,216,0200638,,,,,,,2023-11-09,1,,,,,トクテイヒエイリカツドウホウジンヤマボウシネットワーク,0
2049,7430001090338,新規,0,2023-11-09,2023-11-09,しなねんグループ株式会社,,株式会社,北海道,札幌市西区,発寒三条１丁目６番６号,,01,107,0630823,,,,,,,2023-11-09,1,,,,,シナネングループ,0
2050,7430001090354,新規,0,2023-11-09,2023-11-09,株式会社エーアイ,,株式会社,北海道,札幌市南区,簾舞三条６丁目７番１５号,,01,106,0612263,,,,,,,2023-11-09,1,,,,,エーアイ,0
2051,7430001090387,新規,0,2023-11-09,2023-11-09,株式会社Ｔ‐ｓｔｙｌｅ,,株式会社,北海道,札幌市中央区,北七条西１９丁目１番地拓商ビル２Ｆ,,01,101,0600007,,,,,,,2023-11-09,1,,,,,ティースタイル,0
2052,7430001090404,新規,0,2023-11-09,2023-11-09,ＯＭＫ株式会社,,株式会社,北海道,札幌市北区,篠路町上篠路１０９番地９７,,01,102,0028052,,,,,,,2023-11-09,1,,,,,オオエムケイ,0
2054,7430003015615,新規,0,2023-11-09,2023-11-09,利坊建装合同会社,,合同会社,北海道,札幌市北区,新琴似七条６丁目３－９なつねビル２０１,,01,102,0010907,,,,,,,2023-11-09,1,,,,,トシボウケンソウ,0
2060,7700150121956,新規,0,2023-11-09,2023-11-09,ｓｈｅｎｚｈｅｎｓｈｉｈｏｎｇｚｈｏｎｇｍａｏｙｉｙｏｕｘｉａｎｇｏｎｇｓｉ,,外国会社等,,,,,,,,６１０Ｂｕｉｌｄｉｎｇ８　１９７０ＳｃｉｅｎｃｅａｎｄＴｅｃｈｎｏｌｏｇｙＰａｒｋＭｉｎｋａｎｇＣｏｍｍｕｎｉｔｙＭｉｎｚｈｉＳｔｒｅｅｔＬｏｎｇｈｕａＤｉｓｔｒｉｃｔ　ＳｈｅｎｚｈｅｎＣｉｔｙ,,,,,,2023-11-09,1,,,,,シンセンシホンゾンマオイユウゲンコウシ,0
2061,7700150121964,新規,0,2023-11-09,2023-11-09,Ｌｏｎｇｙａｎ　ｃｉｔｙ　ｌａｕｇｈ　Ｙａｎｇ　ｃｌｏｔｈｉｎｇ　ｃｏ．，ＬＴＤ,,外国会社等,,,,,,,,ｆｕ　ｊｉａｎ　ｓｈｅｎｇ　ｌｏｎｇ　ｙａｎ　ｓｈｉ　ｘｉｎ　ｌｕｏ　ｑｕ　ｃａｏ　ｘｉ　ｊｉｅ　ｄａｏ　ｚｈａｎｇ　ｃｈａｉ　ｓｈｕ　ｓｈｅ　ｑｕ　ｓｈｕａｎｇ　ｌｏｎｇ　ｌｕ　１　ｈａｏ　Ｂ　１　ｚｈｕａｎｇ　ｗａｎ　ｄａ　ｚｈｏｎｇ　ｘｉｎ　１６０８　ｓｈｉ,,,,,,2023-11-09,1,,,,,ロンイエンシーヤンシャオフーシーヨウシエンゴンスー,0
2062,7700150121972,新規,0,2023-11-09,2023-11-09,北海道工学教育協会,,その他,北海道,札幌市北区,北十三条西８丁目,,01,102,0600813,,,,,,,2023-11-09,1,,,,,ホッカイドウコウガクキョウイクキョウカイ,0
2071,8010001239785,新規,0,2023-11-09,2023-11-09,株式会社コンビベース,,株式会社,東京都,中央区,日本橋茅場町３丁目１１番１０号ＰＭＯ日本橋茅場町ビル８階,,13,102,1030025,,,,,,,2023-11-09,1,,,,,コンビベース,0
2072,8010001239868,新規,0,2023-11-09,2023-11-09,株式会社Ａｄｄ　ｓｐｉｃｅ,,株式会社,東京都,千代田区,神田佐久間町３丁目２１番地第一宮沢ビル３階,,13,101,1010025,,,,,,,2023-11-09,1,,,,,アッドスパイス,0
2073,8010001239934,新規,0,2023-11-09,2023-11-09,ＭＡＩＤＡ　ＪＡＰＡＮ株式会社,,株式会社,東京都,千代田区,神田須田町１丁目２８番地ＶＯＲＴ神田ＩＩＩ９Ｆ,00132592,13,101,1010041,,,,,,,2023-11-09,1,,,,,マイダジャパン,0
2088,8010401178402,新規,0,2023-11-09,2023-11-09,株式会社ゼンジョウホールディングス,,株式会社,東京都,港区,虎ノ門１丁目１番２１号新虎ノ門実業会館５階,,13,103,1050001,,,,,,,2023-11-09,1,,,,,ゼンジョウホールディングス,0
2094,8010403031278,新規,0,2023-11-09,2023-11-09,Ａｒｃｈｅｒｓ合同会社,,合同会社,東京都,港区,南青山２丁目２番１５号,,13,103,1070062,,,,,,,2023-11-09,1,,,,,アーチャーズ,0
2102,8010701045095,新規,0,2023-11-09,2023-11-09,株式会社イーシンテクノロジー,,株式会社,東京都,品川区,東品川４丁目５番８－３０３号,,13,109,1400002,,,,,,,2023-11-09,1,,,,,イーシンテクノロジー,0
2103,8010701045104,新規,0,2023-11-09,2023-11-09,日進株式会社,,株式会社,東京都,品川区,東五反田５丁目２２番３７号,,13,109,1410022,,,,,,,2023-11-09,1,,,,,ニッシン,0
2107,8010901054144,新規,0,2023-11-09,2023-11-09,株式会社コスプレイヤーズ,,株式会社,東京都,世田谷区,代田５丁目２番２２号アルカディア下北沢３０５,,13,112,1550033,,,,,,,2023-11-09,1,,,,,コスプレイヤーズ,0
2111,8011001157993,新規,0,2023-11-09,2023-11-09,株式会社ｃａｓｃａｄｅ,,株式会社,東京都,渋谷区,神南１丁目２３－１４,,13,113,1500041,,,,,,,2023-11-09,1,,,,,カスケイド,0
2112,8011001158026,新規,0,2023-11-09,2023-11-09,株式会社ｉＴＲＥＥ,,株式会社,東京都,渋谷区,恵比寿西１丁目３３番１８－８０４号,,13,113,1500021,,,,,,,2023-11-09,1,,,,,アイツリー,0
2113,8011001158050,新規,0,2023-11-09,2023-11-09,株式会社Ｒｏｕｎｄａ,,株式会社,東京都,渋谷区,道玄坂１丁目１０番８号渋谷道玄坂東急ビル２Ｆ－Ｃ,,13,113,1500043,,,,,,,2023-11-09,1,,,,,ラウンダ,0
2114,8011001158067,新規,0,2023-11-09,2023-11-09,株式会社ＷｉｔｈＲｅｅｄ,,株式会社,東京都,渋谷区,恵比寿１丁目１番１号,,13,113,1500013,,,,,,,2023-11-09,1,,,,,ウィズリード,0
2116,8011003017857,新規,0,2023-11-09,2023-11-09,合同会社ｎａｍｏｎａｋｉ,,合同会社,東京都,渋谷区,南平台町１２－１３秀和南平台第二レジデンス８１８,,13,113,1500036,,,,,,,2023-11-09,1,,,,,ナモナキ,0
2117,8011003017873,新規,0,2023-11-09,2023-11-09,Ｔｒｉｓｍｅｇｉｓｔｅｓ合同会社,,合同会社,東京都,渋谷区,神宮前６丁目２３番４号桑野ビル２階,,13,113,1500001,,,,,,,2023-11-09,1,,,,,トリスメゲステス,0
2121,8011101105076,新規,0,2023-11-09,2023-11-09,株式会社Ｇｏｌｄｅｎ　Ｂｒｅｗ,,株式会社,東京都,新宿区,矢来町６４－４ＤＥＡＲ神楽坂３Ｆ・ＢＥＥＲＯＬＹＮ（ビアオリン）,,13,104,1620805,,,,,,,2023-11-09,1,,,,,ゴールデンブリュー,0
2127,8011501029973,新規,0,2023-11-09,2023-11-09,株式会社Ａｌｌｕｒｅ,,株式会社,東京都,北区,赤羽２丁目５５番４－２０２号,,13,117,1150045,,,,,,,2023-11-09,1,,,,,アリュール,0
2128,8011503005840,新規,0,2023-11-09,2023-11-09,次世代合同会社,,合同会社,東京都,北区,滝野川３丁目３５－３エムズフラット１０１,,13,117,1140023,,,,,,,2023-11-09,1,,,,,ジセダイ,0
2129,8011603004123,新規,0,2023-11-09,2023-11-09,合同会社ｍｏｖｅ　ｆｒｅｅ,,合同会社,東京都,練馬区,向山２丁目３－１３,,13,120,1760022,,,,,,,2023-11-09,1,,,,,ムーブフリー,0
2135,8011801043311,新規,0,2023-11-09,2023-11-09,孫八キャピタル株式会社,,株式会社,東京都,足立区,谷中４丁目１０番１３号,,13,121,1200006,,,,,,,2023-11-09,1,,,,,マゴハチキャピタル,0
2136,8011803005929,新規,0,2023-11-09,2023-11-09,合同会社スタージュ,,合同会社,東京都,足立区,中川５丁目１５番６号,,13,121,1200002,,,,,,,2023-11-09,1,,,,,スタージュ,0
2137,8012301013655,新規,0,2023-11-09,2023-11-09,ＯＤＳ‐ｌａｂｏ株式会社,,株式会社,東京都,町田市,鶴間３丁目４番１号,,13,209,1940004,,,,,,,2023-11-09,1,,,,,オーディーエスラボ,0
2139,8012401041201,新規,0,2023-11-09,2023-11-09,株式会社タートル,,株式会社,東京都,多摩市,東寺方１丁目３番地の２１－２０７,,13,224,2060003,,,,,,,2023-11-09,1,,,,,タートル,0
2140,8012403006251,新規,0,2023-11-09,2023-11-09,ＨＭ分倍河原合同会社,,合同会社,東京都,府中市,分梅町１丁目１０－１３,,13,206,1830033,,,,,,,2023-11-09,1,,,,,エイチエムブバイガワラ,0
2141,8012705002378,新規,0,2023-11-09,2023-11-09,特定非営利活動法人Ｇ‐Ｍｏｔｉｖａｔｉｏｎ　Ｆｉｔ　ＬＡＢ,,その他の設立登記法人,東京都,小平市,学園西町２丁目１３番２６－８０６号,,13,211,1870045,,,,,,,2023-11-09,1,,,,,ジーモチベーションフィットラボ,0
2142,8012803003229,新規,0,2023-11-09,2023-11-09,合同会社ルーイヒ,,合同会社,東京都,東大和市,狭山１丁目８４３番地の５５,,13,220,2070003,,,,,,,2023-11-09,1,,,,,ルーイヒ,0
2146,8013301051595,新規,0,2023-11-09,2023-11-09,株式会社三友,,株式会社,東京都,豊島区,高田３丁目６番１０号三信ビル３０３,,13,116,1710033,,,,,,,2023-11-09,1,,,,,サンユウ,0
2155,8020003024961,新規,0,2023-11-09,2023-11-09,合同会社Ａｄｖａｎｃｅ　ｍｅｄｉｃａｌ　ｏｆｆｅｒ,,合同会社,神奈川県,横浜市中区,新山下１丁目１５番１３,,14,104,2310801,,,,,,,2023-11-09,1,,,,,アドバンスメディカルオファー,0
2156,8020005016172,新規,0,2023-11-09,2023-11-09,一般社団法人自動車技術振興機構,,その他の設立登記法人,神奈川県,横浜市都筑区,池辺町４８７６番地,,14,118,2240053,,,,,,,2023-11-09,1,,,,,ジドウシャギジュツシンコウキコウ,0
2159,8021001080666,新規,0,2023-11-09,2023-11-09,マハロリアルティ株式会社,,株式会社,神奈川県,藤沢市,本町２丁目１０番１２号,,14,205,2510053,,,,,,,2023-11-09,1,,,,,マハロリアルティ,0
2160,8021001080708,新規,0,2023-11-09,2023-11-09,株式会社リプロ,,株式会社,神奈川県,厚木市,みはる野１丁目１４番５号,,14,212,2430208,,,,,,,2023-11-09,1,,,,,リプロ,0
2170,8030001157077,新規,0,2023-11-09,2023-11-09,株式会社オフィディア,,株式会社,埼玉県,川口市,芝３丁目１番２４号メゾンハピーＩ３０３号,00132586,11,203,3330866,,,,,,,2023-11-09,1,,,,,オフィディア,0
2171,8030001157085,新規,0,2023-11-09,2023-11-09,株式会社フラクタル,,株式会社,埼玉県,川口市,幸町１丁目７番１－１８０７号川口パークタワー,,11,203,3320016,,,,,,,2023-11-09,1,,,,,フラクタル,0
2176,8030003022964,新規,0,2023-11-09,2023-11-09,安い不動産合同会社,,合同会社,埼玉県,川越市,大字砂新田８６番地２,,11,201,3501137,,,,,,,2023-11-09,1,,,,,ヤスイフドウサン,0
2177,8030003022980,新規,0,2023-11-09,2023-11-09,パンラボ合同会社,,合同会社,埼玉県,さいたま市浦和区,岸町５丁目１０番２２号Ｃ－１１２,,11,107,3300064,,,,,,,2023-11-09,1,,,,,パンラボ,0
2180,8040001130842,新規,0,2023-11-09,2023-11-09,株式会社Ａ＆ＤＲＥＡＭ,,株式会社,千葉県,市原市,ちはら台西１丁目２６番１０１号,,12,219,2900143,,,,,,,2023-11-09,1,,,,,エーアンドドリーム,0
2184,8040003023697,新規,0,2023-11-09,2023-11-09,合同会社ＳＯＯ　ＰＬＵＳ,,合同会社,千葉県,松戸市,金ケ作２４番地の１第５泉ビル５０３号,,12,207,2702251,,,,,,,2023-11-09,1,,,,,スープラス,0
2188,8050001053778,新規,0,2023-11-09,2023-11-09,株式会社ふくまる,,株式会社,茨城県,水戸市,新原１丁目１９番３号,,08,201,3100045,,,,,,,2023-11-09,1,,,,,フクマル,0
2189,8050001053794,新規,0,2023-11-09,2023-11-09,株式会社柚電,,株式会社,茨城県,土浦市,城北町３番１０号,,08,203,3000042,,,,,,,2023-11-09,1,,,,,ユズデン,0
2190,8050001053811,新規,0,2023-11-09,2023-11-09,株式会社ＬＥＢＥＮ,,株式会社,茨城県,潮来市,宮前１丁目１１番地８,,08,223,3112412,,,,,,,2023-11-09,1,,,,,レーベン,0
2192,8050003007914,新規,0,2023-11-09,2023-11-09,合同会社ＡＭＵＮＩＧＡＳ,,合同会社,茨城県,つくば市,上郷７０６９－７,,08,220,3002645,,,,,,,2023-11-09,1,,,,,アムニガス,0
2198,8080101024321,新規,0,2023-11-09,2023-11-09,開墾型農業法人株式会社かいこん,,株式会社,静岡県,沼津市,内浦重須３０１番地,,22,203,4100225,,,,,,,2023-11-09,1,,,,,カイコンガタノウギョウホウジンカイコン,0
2200,8080401026835,新規,0,2023-11-09,2023-11-09,リクエル株式会社,,株式会社,静岡県,磐田市,大原８３７番地１,,22,211,4371211,,,,,,,2023-11-09,1,,,,,リクエル,0
2202,8100001036959,新規,0,2023-11-09,2023-11-09,株式会社ティエヌビー長野,,株式会社,長野県,中野市,大字草間１５３７番地５,,20,211,3830053,,,,,,,2023-11-09,1,,,,,ティエヌビーナガノ,0
2209,8110005017021,新規,0,2023-11-09,2023-11-09,医療法人社団大島通り歯科,,その他の設立登記法人,新潟県,長岡市,大島本町５丁目１１８番地１８,,15,202,9402112,,,,,,,2023-11-09,1,,,,,オオジマドオリシカ,0
2220,8120001259640,新規,0,2023-11-09,2023-11-09,株式会社ｅｎｇｒａｖｅ,,株式会社,大阪府,大阪市北区,中崎西１丁目８番２４号アインズビル梅田４００号,,27,127,5300015,,,,,,,2023-11-09,1,,,,,エングレイヴ,0
2221,8120001259649,新規,0,2023-11-09,2023-11-09,中辻電気株式会社,00132587,株式会社,大阪府,大阪市東住吉区,公園南矢田２丁目３番１４号,,27,121,5460024,,,,,,,2023-11-09,1,,,,,ナカツジデンキ,0
2222,8120001259657,新規,0,2023-11-09,2023-11-09,株式会社Ｏｎｅ　Ｌｉｆｅ,,株式会社,大阪府,大阪市淀川区,野中南１丁目９－２０,,27,123,5320022,,,,,,,2023-11-09,1,,,,,ワンライフ,0
2223,8120001259731,新規,0,2023-11-09,2023-11-09,株式会社Ｒｅｍｏｄｅｌ,,株式会社,大阪府,大阪市平野区,加美鞍作３丁目１番１２号,,27,126,5470004,,,,,,,2023-11-09,1,,,,,リモデル,0
2224,8120003025272,新規,0,2023-11-09,2023-11-09,博識商事合同会社,,合同会社,大阪府,大阪市阿倍野区,阪南町１丁目１６番２７－４０４号,,27,119,5450021,,,,,,,2023-11-09,1,,,,,ハクシキショウジ,0
2225,8120003025280,新規,0,2023-11-09,2023-11-09,滄海明珠合同会社,,合同会社,大阪府,大阪市住吉区,長居東４丁目５番２５号ノバカネイチ長居４０２号,,27,120,5580004,,,,,,,2023-11-09,1,,,,,ソウカイメイシュ,0
2226,8120003025306,新規,0,2023-11-09,2023-11-09,合同会社すずちゃん不動産,,合同会社,大阪府,大阪市西区,江之子島１丁目６番５号,,27,106,5500006,,,,,,,2023-11-09,1,,,,,スズチャンフドウサン,0
2244,8130003009126,新規,0,2023-11-09,2023-11-09,合同会社Ｂ・Ｄ　Ｗｏｒｋｓ,,合同会社,京都府,京都市中京区,大宮通蛸薬師下る四坊大宮町１７６番地１,,26,104,6048356,,,,,,,2023-11-09,1,,,,,ビーディワークス,0
2245,8130003009134,新規,0,2023-11-09,2023-11-09,合同会社Ｒ２４６,,合同会社,京都府,京都市伏見区,向島津田町７０番地の３９,,26,109,6128154,,,,,,,2023-11-09,1,,,,,アールニーヨンロク,0
2250,8140001132218,新規,0,2023-11-09,2023-11-09,ヘームル・ヘネーシング株式会社,,株式会社,兵庫県,神戸市中央区,元町通３丁目４番２号ＢＵＣＣＩＫＯＢＥＭＯＴＯＭＡＣＨＩ１Ｆ,,28,110,6500022,,,,,,,2023-11-09,1,,,,,ヘームルヘネーシング,0
2251,8140001132250,新規,0,2023-11-09,2023-11-09,株式会社食彩Ｓｍｉｌｅ　Ｌａｂｏ　Ｎａｔｕｒｅ,,株式会社,兵庫県,多可郡多可町,中区天田１９５番地２,,28,365,6791115,,,,,,,2023-11-09,1,,,,,ショクサイスマイルラボナチュール,0
2252,8140001132283,新規,0,2023-11-09,2023-11-09,株式会社ＷＥ　ＲＥＡＬ,,株式会社,兵庫県,神戸市中央区,相生町１丁目１番１－１２０４号,,28,110,6500025,,,,,,,2023-11-09,1,,,,,ウィリアル,0
2256,8150001026864,新規,0,2023-11-09,2023-11-09,インフィニティキャッスル株式会社,,株式会社,奈良県,北葛城郡河合町,池部３丁目２１番１６号,,29,427,6360053,,,,,,,2023-11-09,1,,,,,インフィニティキャッスル,0
2272,8180001158878,新規,0,2023-11-09,2023-11-09,株式会社松栄システムズ,,株式会社,愛知県,一宮市,大和町馬引字郷裏４１番地ハイツノダコウ１０５号,,23,203,4910931,,,,,,,2023-11-09,1,,,,,ショウエイシステムズ,0
2273,8180001158903,新規,0,2023-11-09,2023-11-09,株式会社三吉テクノ,,株式会社,愛知県,春日井市,中央台５丁目２番地１０,,23,206,4870011,,,,,,,2023-11-09,1,,,,,ミヨシテクノ,0
2277,8180003025960,新規,0,2023-11-09,2023-11-09,合同会社ユビキタス,,合同会社,愛知県,一宮市,末広２丁目１１番１８号リヴェール末広１０１号,,23,203,4910918,,,,,,,2023-11-09,1,,,,,ユビキタス,0
2278,8180003025977,新規,0,2023-11-09,2023-11-09,合同会社トリニティコーポレーション,,合同会社,愛知県,一宮市,泉２丁目２２番９－１２０１号エスポア一宮ＩＩ,00132591,23,203,4910861,,,,,,,2023-11-09,1,,,,,トリニティコーポレーション,0
2280,8180301038004,新規,0,2023-11-09,2023-11-09,株式会社ＦＡＲＵ９ＡＳ,,株式会社,愛知県,岡崎市,竜泉寺町字上野畔８９番地,,23,202,4443524,,,,,,,2023-11-09,1,,,,,ファルカス,0
2284,8180303005893,新規,0,2023-11-09,2023-11-09,合同会社はやま企画,,合同会社,愛知県,豊橋市,前田町２丁目１０番地の１６,,23,201,4400814,,,,,,,2023-11-09,1,,,,,ハヤマキカク,0
2296,8240005015680,新規,0,2023-11-09,2023-11-09,特定非営利活動法人三篠地区青少年健全育成連絡協議会,,その他の設立登記法人,広島県,広島市西区,中広町３丁目１番５１－１０５号,,34,104,7330012,,,,,,,2023-11-09,1,,,,,ミササチクセイショウネンケンゼンイクセイレンラクキョウギカイ,0
2299,8270001008867,新規,0,2023-11-09,2023-11-09,株式会社イルジーリオ・マネージメント,,株式会社,鳥取県,米子市,上福原５丁目５番７９号,,31,202,6830004,,,,,,,2023-11-09,1,,,,,イルジーリオマネージメント,0
2308,8330003010071,新規,0,2023-11-09,2023-11-09,合同会社花日,,合同会社,熊本県,熊本市中央区,下通１丁目３番８号下通ＮＳビル６階,,43,101,8600807,,,,,,,2023-11-09,1,,,,,ハナビ,0
2311,8350001018651,新規,0,2023-11-09,2023-11-09,株式会社日本アクアエンジニアリング宮崎,,株式会社,宮崎県,都城市,上長飯町５４番地４,,45,202,8850042,,,,,,,2023-11-09,1,,,,,ニホンアクアエンジニアリングミヤザキ,0
2318,8370003006363,新規,0,2023-11-09,2023-11-09,合同会社ＲＯＫＵＴＡ,,合同会社,宮城県,仙台市太白区,西多賀５丁目６番５３号,,04,104,9820034,,,,,,,2023-11-09,1,,,,,ロクタ,0
2324,8390005009040,新規,0,2023-11-09,2023-11-09,医療法人社団ＭＳＯ,,その他の設立登記法人,山形県,山形市,桧町３丁目８番１０号,,06,201,9900813,,,,,,,2023-11-09,1,,,,,エムエスオー,0
2332,8430001090345,新規,0,2023-11-09,2023-11-09,株式会社ＧＯＯＤ　ＡＳ　ＣＯＮＮＥＣＴＩＯＮ,,株式会社,北海道,札幌市東区,北二十二条東３丁目１番３５号,,01,103,0650022,,,,,,,2023-11-09,1,,,,,グッドアズコネクション,0
2333,8430001090353,新規,0,2023-11-09,2023-11-09,株式会社ＲＭＴＣ２３２３,,株式会社,北海道,札幌市中央区,北三条東６丁目３５６－４,,01,101,0600033,,,,,,,2023-11-09,1,,,,,アールエムティシーニイサンニイサン,0
2334,8430001090386,新規,0,2023-11-09,2023-11-09,株式会社アエル,,株式会社,北海道,札幌市中央区,南三条西４丁目２０番地東昌ビル６Ｆ,,01,101,0600063,,,,,,,2023-11-09,1,,,,,アエル,0
2335,8430001090394,新規,0,2023-11-09,2023-11-09,株式会社メカノクロス,,株式会社,北海道,札幌市中央区,北五条西２９丁目２番３３号,,01,101,0640825,,,,,,,2023-11-09,1,,,,,メカノクロス,0
2336,8430003015606,新規,0,2023-11-09,2023-11-09,合同会社翔恵建設工業,,合同会社,北海道,札幌市南区,真駒内柏丘１１丁目１番７５号,,01,106,0050022,,,,,,,2023-11-09,1,,,,,ショウケイケンセツコウギョウ,0
2337,8430003015614,新規,0,2023-11-09,2023-11-09,合同会社植田不動産,,合同会社,北海道,札幌市北区,新琴似六条１０丁目３番１７号,,01,102,0010906,,,,,,,2023-11-09,1,,,,,ウエダフドウサン,0
2338,8430005014829,新規,0,2023-11-09,2023-11-09,一般社団法人Ｙｏｒｏｚ　Ｈｏｕｓｅ,,その他の設立登記法人,北海道,苫小牧市,見山町３丁目８番１０号,,01,213,0530855,,,,,,,2023-11-09,1,,,,,ヨロズハウス,0
2339,8450001014137,新規,0,2023-11-09,2023-11-09,株式会社金一,,株式会社,北海道,紋別市,港町１丁目３番１２号,,01,219,0940011,,,,,,,2023-11-09,1,,,,,キンイチ,0
2341,8480001012286,新規,0,2023-11-09,2023-11-09,株式会社ＮｏｒｔｈＳｅａ,,株式会社,徳島県,板野郡北島町,高房字東中道３２番地７,,36,402,7710206,,,,,,,2023-11-09,1,,,,,ノースシー,0
2344,8500001025302,新規,0,2023-11-09,2023-11-09,株式会社パシフィック,,株式会社,愛媛県,松山市,高砂町２丁目６番地２,,38,201,7900822,,,,,,,2023-11-09,1,,,,,パシフィック,0
2352,8700150121955,新規,0,2023-11-09,2023-11-09,ｓｈｅｎｚｈｅｎｓｈｉｃｈｕａｎｇｘｉｎｘｉｎｇｍｕｊｕｙｏｕｘｉａｎｇｏｎｇｓｉ,,外国会社等,,,,,,,,Ａ２３６ＢｕｉｌｄｉｎｇＡＸｉｎｆａＣｏｍｍｅｒｃｉａｌＳｔｒｅｅｔＷｅｎｇｅＲｏａｄＨｅｓｈｕｉｋｏｕＣｏｍｍｕｎｉｔｙＭａｔｉａｎＳｔｒｅｅｔ　ＧｕａｎｇｍｉｎｇＤｉｓｔｒｉｃｔ　Ｓｈｅｎｚｈｅｎ,,,,,,2023-11-09,1,,,,,シンセンシツウンシンシンムジュユウゲンコウシ,0
2353,8700150121963,新規,0,2023-11-09,2023-11-09,ｚｈｏｎｇｓｈａｎｓｈｉｂｉａｎｋａｎｇｙｉｌｉａｏｑｉｘｉｅｙｏｕｘｉａｎｇｏｎｇｓｉ,,外国会社等,,,,,,,,Ｎｏ．１ｚｈｉ　２，Ｙｏｎｇｈｅｎｇ　Ｓｔｒｅｅｔ，Ｊｉｎｃｈａｎｇ　Ｉｎｄｕｓｔｒｉａｌ　Ｒｏａｄ，Ｗｅｓｔ　Ｄｉｓｔｒｉｃｔ，Ｚｈｏｎｇｓｈａｎ,,,,,,2023-11-09,1,,,,,ジョンシャンシービエンカンイーリャオチーシエヨウシエンゴンスー,0
2354,8700150121971,新規,0,2023-11-09,2023-11-09,北九州しねま研究会,,その他,福岡県,北九州市小倉北区,上到津１丁目１－２５－４０２,,40,106,8030845,,,,,,,2023-11-09,1,,,,,キタキュウシュウシネマケンキュウカイ,0
2362,9010001239850,新規,0,2023-11-09,2023-11-09,株式会社モルガナイト,,株式会社,東京都,千代田区,九段南１丁目５番６号りそな九段ビル５階ＫＳフロア,,13,101,1020074,,,,,,,2023-11-09,1,,,,,モルガナイト,0
2363,9010001239891,新規,0,2023-11-09,2023-11-09,ＬＩＥＮ　ＶＩＥＴ　ＪＡＰＡＮ株式会社,,株式会社,東京都,中央区,銀座８丁目１７番５号ＴＨＥＨＵＢ銀座ＯＣＴ６階,,13,102,1040061,,,,,,,2023-11-09,1,,,,,リエンベットジャパン,0
2364,9010001239925,新規,0,2023-11-09,2023-11-09,株式会社エスド,,株式会社,東京都,中央区,銀座６丁目４番１７号３階,,13,102,1040061,,,,,,,2023-11-09,1,,,,,エスド,0
2365,9010001239933,新規,0,2023-11-09,2023-11-09,サン・エム・ホールディングス株式会社,,株式会社,東京都,中央区,日本橋富沢町１１－１日本橋富沢町１１１ビル７階,,13,102,1030006,,,,,,,2023-11-09,1,,,,,サンエムホールディングス,0
2367,9010003042162,新規,0,2023-11-09,2023-11-09,ｖｎｑ合同会社,,合同会社,東京都,千代田区,麹町１丁目６番１６号半蔵門海和ビル９階（Ｃ／ＯＪｏｏ－ｒｅａｌｅｓｔａｔｅ－ｏｆｆｉｃｅ）,,13,101,1020083,,,,,,,2023-11-09,1,,,,,ブイエヌキュー,0
2370,9010101015879,新規,0,2023-11-09,2023-11-09,株式会社わんだふる,,株式会社,東京都,八王子市,明神町３丁目７番４号すずらんビル１Ｆ北,,13,201,1920046,,,,,,,2023-11-09,1,,,,,ワンダフル,0
2375,9010103002248,新規,0,2023-11-09,2023-11-09,アルファプラス合同会社,,合同会社,東京都,八王子市,下恩方町１７８８番地１,,13,201,1920154,,,,,,,2023-11-09,1,,,,,アルファプラス,0
2382,9010401178384,新規,0,2023-11-09,2023-11-09,ＨＯＤＬ株式会社,,株式会社,東京都,港区,虎ノ門１丁目１７番１号,,13,103,1050001,,,,,,,2023-11-09,1,,,,,ホードル,0
2383,9010401178392,新規,0,2023-11-09,2023-11-09,株式会社ＳＹＮＤＩＣＡＴＥ,,株式会社,東京都,港区,西麻布４丁目５－１０ザ・パークハウス西麻布レジデンス５０１号室,,13,103,1060031,,,,,,,2023-11-09,1,,,,,シンジケート,0
2384,9010403031302,新規,0,2023-11-09,2023-11-09,合同会社ＴＫＤＳ,,合同会社,東京都,港区,南青山７丁目８－１５Ｕｓｈａｒｅ南青山１０４,,13,103,1070062,,,,,,,2023-11-09,1,,,,,ティーケーディーエス,0
2394,9010601064112,新規,0,2023-11-09,2023-11-09,幅田屋ヴィレッジ株式会社,,株式会社,東京都,墨田区,石原１丁目１６番２号,,13,107,1300011,,,,,,,2023-11-09,1,,,,,ハバタヤヴィレッジ,0
2397,9010701045103,新規,0,2023-11-09,2023-11-09,ＭＳＴ　ＪＡＬＵＸインシュアランス株式会社,,株式会社,東京都,品川区,東品川２丁目３番１４号東京フロントテラス１９Ｆ,,13,109,1400002,,,,,,,2023-11-09,1,,,,,エムエスティージャルックスインシュアランス,0
2399,9010901054143,新規,0,2023-11-09,2023-11-09,株式会社ＨＡ　Ａｃｃｏｕｎｔｉｎｇ,,株式会社,東京都,世田谷区,成城１丁目４番１号東宝スタジオプロダクションセンター２０５,,13,112,1570066,,,,,,,2023-11-09,1,,,,,エイチエーアカウンティング,0
2404,9011001157968,新規,0,2023-11-09,2023-11-09,株式会社ＤｉｖｅｓＡｆｆｅｃｔｕｓ,,株式会社,東京都,渋谷区,代官山町８－７Ｄａｉｗａ代官山ビル１Ｆ－６Ｆ,,13,113,1500034,,,,,,,2023-11-09,1,,,,,ディーバイスアフェクトゥス,0
2405,9011001158025,新規,0,2023-11-09,2023-11-09,株式会社Ａｎｄ　Ｔｈｒｅｅ,,株式会社,東京都,渋谷区,神宮前５丁目１２－１０鈴木マンション４０１,,13,113,1500001,,,,,,,2023-11-09,1,,,,,アンドスリー,0
2406,9011001158058,新規,0,2023-11-09,2023-11-09,株式会社Ｈｏｃｈｅ,,株式会社,東京都,渋谷区,渋谷１丁目７番４号青山小林ビル２階,,13,113,1500002,,,,,,,2023-11-09,1,,,,,オッシュ,0
2407,9011001158066,新規,0,2023-11-09,2023-11-09,株式会社うぐいすソリューションズ,,株式会社,東京都,渋谷区,渋谷２丁目１９－１５宮益坂ビルディング６０９,,13,113,1500002,,,,,,,2023-11-09,1,,,,,ウグイスソリューションズ,0
2408,9011001158082,新規,0,2023-11-09,2023-11-09,ｕｎｓ株式会社,,株式会社,東京都,目黒区,鷹番３丁目８番７号ＯＮビル３Ｆ,,13,110,1520004,,,,,,,2023-11-09,1,,,,,アンス,0
2409,9011001158116,新規,0,2023-11-09,2023-11-09,ＲｅｓｋｉｌｌｉｎｇＬａｂ株式会社,,株式会社,東京都,渋谷区,渋谷１丁目１番３号アミーホール３階,,13,113,1500002,,,,,,,2023-11-09,1,,,,,リスキリングラボ,0
2415,9011101105034,新規,0,2023-11-09,2023-11-09,株式会社Ｃｏｎｆｉｄｅｎｃｅ,,株式会社,東京都,新宿区,西新宿８丁目１７番２号ラ・トゥール新宿グランド５０１,,13,104,1600023,,,,,,,2023-11-09,1,,,,,コンフィデンス,0
2416,9011101105050,新規,0,2023-11-09,2023-11-09,株式会社友情,,株式会社,東京都,新宿区,中井２丁目２１番２６号,,13,104,1610035,,,,,,,2023-11-09,1,,,,,ユウジョウ,0
2417,9011103013706,新規,0,2023-11-09,2023-11-09,合同会社スカイネット,,合同会社,東京都,新宿区,西新宿３丁目３番１３号西新宿水間ビル２Ｆ,,13,104,1600023,,,,,,,2023-11-09,1,,,,,スカイネット,0
2421,9011301029149,新規,0,2023-11-09,2023-11-09,株式会社ａｗａｈｉｔｏ,,株式会社,東京都,杉並区,方南１丁目５１番６号５０２,,13,115,1680062,,,,,,,2023-11-09,1,,,,,アワヒト,0
2427,9011501029948,新規,0,2023-11-09,2023-11-09,株式会社大野,,株式会社,東京都,北区,志茂３丁目２４番８号,,13,117,1150042,,,,,,,2023-11-09,1,,,,,オオノ,0
2435,9011703003651,新規,0,2023-11-09,2023-11-09,ｆｏｒ　ＬＤＫｐｒｏｄｕｃｔｉｏｎｓ合同会社,,合同会社,東京都,江戸川区,南葛西５丁目１８番２－７０６号,,13,123,1340085,,,,,,,2023-11-09,1,,,,,フォーエルディーケープロダクションズ,0
2436,9011801043310,新規,0,2023-11-09,2023-11-09,大安吉日株式会社,,株式会社,東京都,足立区,扇１丁目５番４号,,13,121,1230873,,,,,,,2023-11-09,1,,,,,タイアンキチジツ,0
2452,9013301051578,新規,0,2023-11-09,2023-11-09,株式会社アーバンストラクション,,株式会社,東京都,豊島区,西池袋３丁目１番１５号,,13,116,1710021,,,,,,,2023-11-09,1,,,,,アーバンストラクション,0
2464,9020001154322,新規,0,2023-11-09,2023-11-09,株式会社リコ,,株式会社,神奈川県,川崎市多摩区,長尾７丁目３番１８－１００１号,,14,135,2140023,,,,,,,2023-11-09,1,,,,,リコ,0
2465,9020001154330,新規,0,2023-11-09,2023-11-09,株式会社Ｐｉｉ　Ｗｅｌｉｎａ,,株式会社,神奈川県,川崎市麻生区,細山４丁目２５番４－４号,,14,137,2150001,,,,,,,2023-11-09,1,,,,,ピーウェリナ,0
2467,9020003024911,新規,0,2023-11-09,2023-11-09,合同会社高橋商会,00132577,合同会社,神奈川県,川崎市川崎区,大島１丁目５番１１－２０２号パールハイム,,14,131,2100834,,,,,,,2023-11-09,1,,,,,タカハシショウカイ,0
2468,9020003024952,新規,0,2023-11-09,2023-11-09,合同会社ＡＶＡＬＯＮ,,合同会社,神奈川県,川崎市中原区,上平間３９２番地１５ＡＲＣＯＢＡＬＥＮＯ－ＫＡＷＡＳＡＫＩＨＩＲＡＭＡ１０５,,14,133,2110013,,,,,,,2023-11-09,1,,,,,アヴァロン,0
2478,9021001080681,新規,0,2023-11-09,2023-11-09,錦澤株式会社,,株式会社,神奈川県,大和市,中央林間５丁目９番２－２０２号,,14,213,2420007,,,,,,,2023-11-09,1,,,,,ニシキザワ,0
2479,9021003013771,新規,0,2023-11-09,2023-11-09,Ｂｌｕｅ　Ｖｉｌｌａｇｅ合同会社,,合同会社,神奈川県,鎌倉市,材木座３丁目１２番８号,,14,204,2480013,,,,,,,2023-11-09,1,,,,,ブルービレッジ,0
2480,9021005012929,新規,0,2023-11-09,2023-11-09,一般社団法人しょうなん,,その他の設立登記法人,神奈川県,藤沢市,湘南台４丁目３９番地の５,,14,205,2520804,,,,,,,2023-11-09,1,,,,,ショウナン,0
2489,9030001157076,新規,0,2023-11-09,2023-11-09,株式会社ｍｍデザイン,,株式会社,埼玉県,さいたま市西区,大字二ツ宮７番地１２,,11,101,3310065,,,,,,,2023-11-09,1,,,,,エムエムデザイン,0
2493,9030003022955,新規,0,2023-11-09,2023-11-09,アリ合同会社,,合同会社,埼玉県,鶴ヶ島市,大字中新田６６－６,,11,241,3502226,,,,,,,2023-11-09,1,,,,,,0
2496,9040001130841,新規,0,2023-11-09,2023-11-09,株式会社ＧＲＯＳＳ,,株式会社,千葉県,木更津市,港南台３丁目１８番地９ニューレセンテ港南台１０１,,12,206,2920827,,,,,,,2023-11-09,1,,,,,グロス,0
2499,9050001053777,新規,0,2023-11-09,2023-11-09,株式会社ｉ　ｆｅｅｌ　ｆａｉｎ,,株式会社,茨城県,小美玉市,羽鳥２９０９番地６２,,08,236,3190123,,,,,,,2023-11-09,1,,,,,アイフィールファイン,0
2506,9060003004802,新規,0,2023-11-09,2023-11-09,ＮＧｉＳＴ合同会社,,合同会社,栃木県,日光市,板橋１７８番地２４４,,09,206,3211102,,,,,,,2023-11-09,1,,,,,エヌジスト,0
2510,9080101024329,新規,0,2023-11-09,2023-11-09,株式会社一楽,,株式会社,静岡県,駿東郡清水町,伏見５８４番地の２,,22,341,4110907,,,,,,,2023-11-09,1,,,,,イチラク,0
2520,9110001037963,新規,0,2023-11-09,2023-11-09,株式会社テツシン,,株式会社,新潟県,魚沼市,大沢５０２番地,,15,225,9460073,,,,,,,2023-11-09,1,,,,,テツシン,0
2522,9110005017020,新規,0,2023-11-09,2023-11-09,社会保険労務士法人労務技術研究会,,その他の設立登記法人,新潟県,新潟市東区,中島２丁目１番３１号レ・モンデ新潟３－Ｂ,,15,102,9500824,,,,,,,2023-11-09,1,,,,,ロウムギジュツケンキュウカイ,0
2527,9120001259549,新規,0,2023-11-09,2023-11-09,株式会社宝塚ウェルネスアカデミー,,株式会社,大阪府,大阪市北区,芝田１丁目１３番１６号,,27,127,5300012,,,,,,,2023-11-09,1,,,,,タカラヅカウェルネスアカデミー,0
2528,9120001259623,新規,0,2023-11-09,2023-11-09,株式会社楠,,株式会社,大阪府,大阪市北区,梅田１丁目２番２号大阪駅前第２ビル１２－１２,,27,127,5300001,,,,,,,2023-11-09,1,,,,,クスノキ,0
2531,9120003025305,新規,0,2023-11-09,2023-11-09,プレザントグループ合同会社,,合同会社,大阪府,大阪市中央区,南船場２丁目３番４号,,27,128,5420081,,,,,,,2023-11-09,1,,,,,プレザントグループ,0
2537,9120901048324,新規,0,2023-11-09,2023-11-09,株式会社ｌｉｇｈｔ,,株式会社,大阪府,吹田市,津雲台３丁目２番６－５１４号,,27,205,5650862,,,,,,,2023-11-09,1,,,,,ライト,0
2559,9140001132241,新規,0,2023-11-09,2023-11-09,株式会社ＮＯＡＨＲＥＳＴ,,株式会社,兵庫県,西宮市,櫨塚町１番１４号,,28,204,6620854,,,,,,,2023-11-09,1,,,,,ノアレスト,0
2560,9140001132258,新規,0,2023-11-09,2023-11-09,株式会社Ｌｙｋｋｅ,,株式会社,兵庫県,宝塚市,宝梅２丁目６番５８－４０３号,,28,214,6650013,,,,,,,2023-11-09,1,,,,,リュッケ,0
2575,9180001158877,新規,0,2023-11-09,2023-11-09,株式会社康和工務店,,株式会社,愛知県,一宮市,平島１丁目２５番１５号,,23,203,4910833,,,,,,,2023-11-09,1,,,,,コウワコウムテン,0
2577,9180003025968,新規,0,2023-11-09,2023-11-09,代合同会社,,合同会社,愛知県,名古屋市熱田区,八番２丁目１１番１６号,,23,109,4560059,,,,,,,2023-11-09,1,,,,,シロ,0
2578,9180003025976,新規,0,2023-11-09,2023-11-09,合同会社グレースハーモニー,,合同会社,愛知県,半田市,平井町２丁目４８番地の２,,23,205,4750964,,,,,,,2023-11-09,1,,,,,グレースハーモニー,0
2586,9220001025684,新規,0,2023-11-09,2023-11-09,株式会社雪月花,,株式会社,石川県,金沢市,小坂町北１６４番地４,,17,201,9200811,,,,,,,2023-11-09,1,,,,,セツゲッカ,0
2596,9240001062404,新規,0,2023-11-09,2023-11-09,株式会社ミリオン,,株式会社,広島県,広島市中区,幟町１２番１５号,,34,101,7300016,,,,,,,2023-11-09,1,,,,,ミリオン,0
2601,9250001020377,新規,0,2023-11-09,2023-11-09,株式会社パークアンドパートナーズ,,株式会社,山口県,下関市,赤間町１番１６号,,35,201,7500007,,,,,,,2023-11-09,1,,,,,パークアンドパートナーズ,0
2609,9290001103608,新規,0,2023-11-09,2023-11-09,株式会社アクト・プランナー,,株式会社,福岡県,福岡市博多区,吉塚５丁目２番１０号２Ｄ,,40,132,8120041,,,,,,,2023-11-09,1,,,,,アクトプランナー,0
2610,9290001103657,新規,0,2023-11-09,2023-11-09,株式会社ＹＳＤグローバル,,株式会社,福岡県,福岡市東区,松田１丁目１２番３２号,,40,131,8120064,,,,,,,2023-11-09,1,,,,,ワイエスディーグローバル,0
2612,9290803004540,新規,0,2023-11-09,2023-11-09,合同会社サード・クォーター,,合同会社,福岡県,北九州市門司区,大里東２丁目７番１１－４０３号,,40,101,8000022,,,,,,,2023-11-09,1,,,,,サードクォーター,0
2613,9300001013524,新規,0,2023-11-09,2023-11-09,株式会社Ａ‐ＳＴＹＬＥ,,株式会社,佐賀県,唐津市,東町１９番地３－８０５号,,41,202,8470063,,,,,,,2023-11-09,1,,,,,エースタイル,0
2622,9370001050610,新規,0,2023-11-09,2023-11-09,株式会社ＺＰＦ,,株式会社,宮城県,白石市,福岡深谷字二ノ萱２８２－２,,04,206,9890731,,,,,,,2023-11-09,1,,,,,ゼットピーエフ,0
2624,9370003006362,新規,0,2023-11-09,2023-11-09,合同会社信華,,合同会社,宮城県,仙台市若林区,沖野１丁目５０－５サンシティ沖野Ａ２０２,,04,103,9840831,,,,,,,2023-11-09,1,,,,,シンカ,0
2643,9430001090369,新規,0,2023-11-09,2023-11-09,株式会社ヤマト電設工業,,株式会社,北海道,札幌市清田区,平岡五条１丁目５番１７－１０２号,,01,110,0040875,,,,,,,2023-11-09,1,,,,,ヤマトデンセツコウギョウ,0
2644,9430001090385,新規,0,2023-11-09,2023-11-09,株式会社一蓮,,株式会社,北海道,札幌市北区,新琴似一条１１丁目１０番２２号,,01,102,0010901,,,,,,,2023-11-09,1,,,,,イチレン,0
2645,9430001090393,新規,0,2023-11-09,2023-11-09,株式会社ＪＵＭＰ　ＦＯＲ　ＡＬＬ,,株式会社,北海道,札幌市中央区,大通東８丁目１－６２,,01,101,0600041,,,,,,,2023-11-09,1,,,,,ジャンプフォーオール,0
2646,9430001090402,新規,0,2023-11-09,2023-11-09,株式会社ラフテルランド,,株式会社,北海道,札幌市白石区,菊水上町四条１丁目１３６番地１４２,,01,104,0030814,,,,,,,2023-11-09,1,,,,,ラフテルランド,0
2647,9430003015613,新規,0,2023-11-09,2023-11-09,合同会社ＫｕｒｕＫｕｒｕ,,合同会社,北海道,北広島市,中央１丁目１－２,,01,234,0611121,,,,,,,2023-11-09,1,,,,,クルクル,0
2648,9430003015621,新規,0,2023-11-09,2023-11-09,ｂａｏｂａｏ合同会社,,合同会社,北海道,積丹郡積丹町,大字美国町字船澗４１２番地,,01,405,0460201,,,,,,,2023-11-09,1,,,,,バオバオ,0
2651,9700150121954,新規,0,2023-11-09,2023-11-09,Ｓｈｅｎｚｈｅｎ　Ｈａｌｉ－Ｐｏｗｅｒ　Ｉｎｄｕｓｔｒｉａｌ　Ｃｏ．，Ｌｔｄ．,,外国会社等,,,,,,,,ｓｈｅｎｚｈｅｎｓｈｉ　ｎａｎｓｈａｎｑｕ　ｘｉｌｉｄａｋａｎｇｏｎｇｙｅｅｒｌｕ１１ｈａｏＣｄｏｎｇｙｉｌｏｕ,,,,,,2023-11-09,1,,,,,シンセンハリパワーインダストリアルカンパニーリミテッド,0
2652,9700150121962,新規,0,2023-11-09,2023-11-09,Ｓｈｅｎｚｈｅｎｓｈｉ　Ｙａｎｇｂｉｎ　Ｄｉａｎｚｉ　Ｙｏｕｘｉａｎ　Ｇｏｎｇｓｉ,,外国会社等,,,,,,,,Ｒｍ２７０１　Ｂｕｉｌｄｉｎｇ　Ａ　ＫａｉＸｕａｎ　Ｔｉａｎｘｉｍｉｎｇｔｉｎｇ　Ｊｉｎｌｉ　Ｒｄ．Ｎｏ．４８　Ｃｈａｎｇｌｏｎｇ　Ｃｏｍｍｕｎｉｔｙ　Ｂｕｊｉ　Ａｖｅ．Ｓｈｅｎｚｈｅｎ　Ｌｏｎｇｇａｎｇ,,,,,,2023-11-09,1,,,,,シェンジェンシーヤンビンディエンズーヨウシエンゴンスー,0
