sequenceNumber,corporateNumber,process,correct,updateDate,changeDate,name,nameImageId,kind,prefectureName,cityName,streetNumber,addressImageId,prefectureCode,cityCode,postCode,addressOutside,addressOutsideImageId,closeDate,closeCause,successorCorporateNumber,changeCause,assignmentDate,latest,enName,enPrefectureName,enCityName,enAddressOutside,furigana,hihyoji
18,1010401147470,登記記録の閉鎖等,0,2025-11-26,2025-11-20,株式会社ｓｔａｖｅｒ,,株式会社,東京都,港区,南青山２丁目３番３号ＡＯＹＡＭＡ・ＴＨＥ・ＴＯＷＥＲ７０３,,13,103,1070062,,,2025-11-20,合併による解散等,8021001018583,令和７年１１月１日長野県北佐久郡軽井沢町大字発地１３９８－３０２我々の株式会社（8021001018583）に合併し解散,2019-08-16,1,,,,,ステイバー,0
33,1010403033462,登記記録の閉鎖等,0,2025-11-26,2025-10-31,シルクリオ合同会社,,合同会社,東京都,港区,浜松町２丁目２番１５号浜松町ダイヤビル２Ｆ,,13,103,1050013,,,2025-10-31,清算の結了等,,,2024-09-24,1,,,,,シルクリオ,0
48,1010603002787,登記記録の閉鎖等,0,2025-11-26,2025-11-18,合資会社笠原スプリング製作所,,合資会社,東京都,墨田区,八広５丁目１７番３号,,13,107,1310041,,,2025-11-18,清算の結了等,,,2015-10-05,1,,,,,カサハラスプリング,0
55,1010902005540,登記記録の閉鎖等,0,2025-11-26,2025-11-21,有限会社健次倶楽部,,有限会社,東京都,世田谷区,上馬２丁目２７番１８号,,13,112,1540011,,,2025-11-21,清算の結了等,,,2015-10-05,1,,,,,ケンジクラブ,0
58,1011001114902,登記記録の閉鎖等,0,2025-11-26,2025-11-04,株式会社デジタルプラント,,株式会社,東京都,港区,六本木３丁目２番１号,,13,103,1060032,,,2025-11-04,合併による解散等,6013301032985,令和７年１１月１日東京都港区六本木三丁目２番１号株式会社テトラクローマ（6013301032985）に合併し解散,2017-02-17,1,,,,,デジタルプラント,0
84,1011701024392,登記記録の閉鎖等,0,2025-11-26,2025-11-12,ＷＯＲＬＤ設備株式会社,,株式会社,東京都,江戸川区,東小松川２丁目１０番５号三京ビル２階,,13,123,1320033,,,2025-11-12,合併による解散等,1011701013817,令和７年１１月１日東京都江戸川区東小松川二丁目１０番５号三京ビル２階Ｗｏｒｌｄ・Ｄｅｓｉｇｎｓ・Ｈｏｕｓｅ株式会社（1011701013817）に合併し解散,2021-05-25,1,,,,,ワールドセツビ,0
88,1011802019960,登記記録の閉鎖等,0,2025-11-26,2025-11-20,有限会社ユー・エス・エー,,有限会社,東京都,足立区,足立４丁目１３番９号ベルビュービルディング,,13,121,1200015,,,2025-11-20,清算の結了等,,,2015-10-05,1,,,,,ユーエスエー,0
97,1013302013205,登記記録の閉鎖等,0,2025-11-26,2025-11-18,有限会社ワイ・ティー・エイ,,有限会社,埼玉県,鴻巣市,箕田９４５番地,,11,217,3650062,,,2025-11-18,清算の結了等,,,2015-10-05,1,,,,,ワイティーエイ,0
114,1020003009580,登記記録の閉鎖等,0,2025-11-26,2025-11-04,合同会社管理技術,,合同会社,神奈川県,横浜市港北区,日吉本町６丁目１３番２６号,,14,109,2230062,,,2025-11-04,清算の結了等,,,2015-10-05,1,,,,,カンリギジュツ,0
115,1020003011223,登記記録の閉鎖等,0,2025-11-26,2025-11-18,Ａ＆Ｋ合同会社,,合同会社,神奈川県,横浜市青葉区,市ケ尾町１０７３番地１６,,14,117,2250024,,,2025-11-18,清算の結了等,,,2016-04-22,1,,,,,エイアンドケイ,0
126,1021002071695,登記記録の閉鎖等,0,2025-11-26,2025-11-10,有限会社花石,,有限会社,神奈川県,三浦市,向ケ崎町３番１０号,,14,210,2380233,,,2025-11-10,清算の結了等,,,2015-10-05,1,,,,,ハナイシ,0
149,1050002021889,登記記録の閉鎖等,0,2025-11-26,2025-11-17,有限会社ナカノエ,,有限会社,茨城県,つくば市,苅間１５６８番地,,08,220,3050822,,,2025-11-17,清算の結了等,,,2015-10-05,1,,,,,ナカノエ,0
152,1070001035673,登記記録の閉鎖等,0,2025-11-26,2025-06-02,株式会社コシオ,,株式会社,群馬県,みどり市,大間々町大間々２２７９番地２,,10,212,3760101,,,2025-06-02,合併による解散等,1070001015964,令和７年５月３１日群馬県みどり市大間々町大間々２２７９番地の２古塩建設株式会社（1070001015964）に合併し解散,2019-04-24,1,,,,,コシオ,0
157,1110002022105,登記記録の閉鎖等,0,2025-11-26,2025-11-19,有限会社Ｓ・Ｄ,,有限会社,新潟県,村上市,学校町３番２８号,,15,212,9580031,,,2025-11-19,清算の結了等,,,2015-10-05,1,,,,,エスディー,0
179,1122001022274,登記記録の閉鎖等,0,2025-11-26,2025-11-13,新寿サービス株式会社,,株式会社,大阪府,八尾市,二俣２丁目２２番地,,27,212,5810024,,,2025-11-13,清算の結了等,,,2015-10-05,1,,,,,シンジュサービス,0
181,1130001024298,登記記録の閉鎖等,0,2025-11-26,2025-11-21,株式会社京都庭園研究所,,株式会社,京都府,京都市左京区,大原勝林院町５９１番地３,,26,103,6011241,,,2025-11-21,清算の結了等,,,2015-10-05,1,,,,,キョウトテイエンケンキュウショ,0
196,1180001116140,登記記録の閉鎖等,0,2025-11-26,2025-11-20,株式会社福昌,,株式会社,愛知県,名古屋市中区,錦３丁目１８番１２号,,23,106,4600003,,,2025-11-20,合併による解散等,8180001109699,令和７年１１月２０日愛知県豊明市栄町西大根３０番地３４７株式会社ＩＫＫＯ　ｔｏ　ＥＹＥＳ（8180001109699）に合併し解散,2015-10-05,1,,,,,フクマサ,0
199,1180301000102,登記記録の閉鎖等,0,2025-11-26,2025-11-11,オートセンター藤枝株式会社,,株式会社,愛知県,岡崎市,大平町字市木２８番地,,23,202,4440007,,,2025-11-11,合併による解散等,7180301002266,令和７年１１月１日愛知県岡崎市藤川町字境松西１番地株式会社レッドバロン（7180301002266）に合併し解散,2015-10-05,1,,,,,オートセンターフジエダ,0
200,1180301000408,登記記録の閉鎖等,0,2025-11-26,2025-11-11,オートセンター岐阜株式会社,,株式会社,愛知県,岡崎市,大平町字市木２８番地,,23,202,4440007,,,2025-11-11,合併による解散等,7180301002266,令和７年１１月１日愛知県岡崎市藤川町字境松西１番地株式会社レッドバロン（7180301002266）に合併し解散,2015-10-05,1,,,,,オートセンターギフ,0
201,1180301000416,登記記録の閉鎖等,0,2025-11-26,2025-11-11,オートセンター千葉株式会社,,株式会社,愛知県,岡崎市,大平町字市木２８番地,,23,202,4440007,,,2025-11-11,合併による解散等,7180301002266,令和７年１１月１日愛知県岡崎市藤川町字境松西１番地株式会社レッドバロン（7180301002266）に合併し解散,2015-10-05,1,,,,,オートセンターチバ,0
202,1180301002354,登記記録の閉鎖等,0,2025-11-26,2025-11-11,レッドバロン徳島株式会社,,株式会社,愛知県,岡崎市,大平町字市木２８番地,,23,202,4440007,,,2025-11-11,合併による解散等,7180301002266,令和７年１１月１日愛知県岡崎市藤川町字境松西１番地株式会社レッドバロン（7180301002266）に合併し解散,2015-10-05,1,,,,,レッドバロントクシマ,0
203,1180301002684,登記記録の閉鎖等,0,2025-11-26,2025-11-11,オートセンター新札幌株式会社,,株式会社,愛知県,岡崎市,大平町字市木２８番地,,23,202,4440007,,,2025-11-11,合併による解散等,7180301002266,令和７年１１月１日愛知県岡崎市藤川町字境松西１番地株式会社レッドバロン（7180301002266）に合併し解散,2015-10-05,1,,,,,オートセンターシンサッポロ,0
204,1180301012519,登記記録の閉鎖等,0,2025-11-26,2025-11-11,オートセンター大宮株式会社,,株式会社,愛知県,岡崎市,大平町字市木２８番地,,23,202,4440007,,,2025-11-11,合併による解散等,7180301002266,令和７年１１月１日愛知県岡崎市藤川町字境松西１番地株式会社レッドバロン（7180301002266）に合併し解散,2015-10-05,1,,,,,オートセンターオオミヤ,0
215,1240001036902,登記記録の閉鎖等,0,2025-11-26,2025-11-20,株式会社柏木工業,,株式会社,広島県,廿日市市,前空５丁目１０番２６号,,34,213,7390424,,,2025-11-20,清算の結了等,,,2015-10-05,1,,,,,,0
250,1350003001158,登記記録の閉鎖等,0,2025-11-26,2025-11-19,合資会社田中自転車店,,合資会社,宮崎県,延岡市,愛宕町３丁目２１５８番地,,45,203,8820872,,,2025-11-19,清算の結了等,,,2015-10-05,1,,,,,タナカジテンシャテン,0
322,2011003014117,登記記録の閉鎖等,0,2025-11-26,2025-10-23,ボクノラボ合同会社,,合同会社,東京都,渋谷区,神宮前６丁目２３番４号桑野ビル２階,,13,113,1500001,,,2025-10-23,清算の結了等,,,2022-02-07,1,,,,,ボクノラボ,0
333,2011203002994,登記記録の閉鎖等,0,2025-11-26,2025-11-18,向陽合同会社,,合同会社,東京都,板橋区,中丸町３３－１５,,13,119,1730026,,,2025-11-18,清算の結了等,,,2019-04-09,1,,,,,コウヨウ,0
364,2020002000003,登記記録の閉鎖等,0,2025-11-26,2025-11-17,有限会社愛喜,,有限会社,神奈川県,横浜市栄区,笠間２丁目１５番４号,,14,115,2470006,,,2025-11-17,清算の結了等,,,2015-10-05,1,,,,,アイキ,0
366,2020002093518,登記記録の閉鎖等,0,2025-11-26,2025-11-13,有限会社まもる建設,,有限会社,神奈川県,川崎市多摩区,菅馬場２丁目１番７号,,14,135,2140004,,,2025-11-13,清算の結了等,,,2015-10-05,1,,,,,マモルケンセツ,0
368,2021001018085,登記記録の閉鎖等,0,2025-11-26,2025-11-10,アオイ設備株式会社,,株式会社,神奈川県,相模原市南区,上鶴間本町８丁目４４番２７号セントラルハイム１０３号,,14,153,2520318,,,2025-11-10,清算の結了等,,,2015-10-05,1,,,,,アオイセツビ,0
371,2021001058726,登記記録の閉鎖等,0,2025-11-26,2025-11-06,株式会社健康学舎,,株式会社,神奈川県,平塚市,代官町３５番１－１００１号,,14,203,2540807,,,2025-11-06,清算の結了等,,,2016-03-09,1,,,,,ケンコウガクシャ,0
374,2021002058452,登記記録の閉鎖等,0,2025-11-26,2025-11-06,有限会社関根電気,,有限会社,神奈川県,平塚市,山下３丁目１３番４９号,,14,203,2540911,,,2025-11-06,清算の結了等,,,2015-10-05,1,,,,,セキネデンキ,0
389,2040001125443,登記記録の閉鎖等,0,2025-11-26,2025-10-29,Ｔｒｕｓｔ　Ｄａｙｓ　Ｊａｐａｎ株式会社,,株式会社,千葉県,柏市,布施１３２６番地１,,12,217,2770825,,,2025-10-29,清算の結了等,,,2022-10-17,1,,,,,トラストデイズジャパン,0
415,2120001181841,登記記録の閉鎖等,0,2025-11-26,2025-11-20,株式会社プロスパー,,株式会社,大阪府,大阪市東淀川区,上新庄３丁目２－３,,27,114,5330006,,,2025-11-20,清算の結了等,,,2015-10-05,1,,,,,プロスパー,0
429,2120102004769,登記記録の閉鎖等,0,2025-11-26,2025-11-10,有限会社岬電気工業,,有限会社,大阪府,堺市中区,東山１０４２番地の２,,27,142,5998247,,,2025-11-10,清算の結了等,,,2015-10-05,1,,,,,ミサキデンキコウギョウ,0
447,2160003002091,登記記録の閉鎖等,0,2025-11-26,2025-11-21,合同会社ＪＫＲ,,合同会社,滋賀県,守山市,大門町１５９－１,,25,207,5240052,,,2025-11-21,清算の結了等,,,2020-08-12,1,,,,,ジェイケイアール,0
466,2180301000415,登記記録の閉鎖等,0,2025-11-26,2025-11-11,オートセンター高崎株式会社,,株式会社,愛知県,岡崎市,大平町字市木２８番地,,23,202,4440007,,,2025-11-11,合併による解散等,7180301002266,令和７年１１月１日愛知県岡崎市藤川町字境松西１番地株式会社レッドバロン（7180301002266）に合併し解散,2015-10-05,1,,,,,オートセンタータカサキ,0
467,2180301000423,登記記録の閉鎖等,0,2025-11-26,2025-11-11,オートセンター寝屋川株式会社,,株式会社,愛知県,岡崎市,大平町字市木２８番地,,23,202,4440007,,,2025-11-11,合併による解散等,7180301002266,令和７年１１月１日愛知県岡崎市藤川町字境松西１番地株式会社レッドバロン（7180301002266）に合併し解散,2015-10-05,1,,,,,オートセンターネヤガワ,0
468,2180301002337,登記記録の閉鎖等,0,2025-11-26,2025-11-11,レッドバロン磐田株式会社,,株式会社,愛知県,岡崎市,大平町字市木２８番地,,23,202,4440007,,,2025-11-11,合併による解散等,7180301002266,令和７年１１月１日愛知県岡崎市藤川町字境松西１番地株式会社レッドバロン（7180301002266）に合併し解散,2015-10-05,1,,,,,レッドバロンイワタ,0
470,2180302000612,登記記録の閉鎖等,0,2025-11-26,2025-11-11,オートセンター大阪東有限会社,,有限会社,愛知県,岡崎市,大平町字市木２８番地,,23,202,4440007,,,2025-11-11,合併による解散等,7180301002266,令和７年１１月１日愛知県岡崎市藤川町字境松西１番地株式会社レッドバロン（7180301002266）に合併し解散,2015-10-05,1,,,,,オートセンターオオサカヒガシ,0
474,2220002012192,登記記録の閉鎖等,0,2025-11-26,2025-11-25,有限会社表電機,,有限会社,石川県,加賀市,大聖寺番場町１番地１１,,17,206,9220067,,,2025-11-25,清算の結了等,,,2015-10-05,1,,,,,オモテデンキ,0
476,2220005008873,登記記録の閉鎖等,0,2025-11-26,2025-11-20,一般社団法人グランディール能登スポーツクラブ,,その他の設立登記法人,石川県,羽咋市,立開町ニ９番地８,,17,207,9250041,,,2025-11-20,清算の結了等,,,2024-08-07,1,,,,,グランディールノトスポーツクラブ,0
501,2340002019151,登記記録の閉鎖等,0,2025-11-26,2025-11-18,有限会社ファミリーハウスいわい,,有限会社,鹿児島県,指宿市,開聞十町２７４５番地１,,46,210,8910603,,,2025-11-18,清算の結了等,,,2015-10-05,1,,,,,ファミリーハウスイワイ,0
506,2370001006627,登記記録の閉鎖等,0,2025-11-26,2025-11-17,仙台鋼材株式会社,,株式会社,宮城県,仙台市宮城野区,銀杏町２番６号,,04,102,9830047,,,2025-11-17,清算の結了等,,,2015-10-05,1,,,,,センダイコウザイ,0
510,2370602000598,登記記録の閉鎖等,0,2025-11-26,2025-11-17,有限会社げば薬局,,有限会社,宮城県,塩竈市,錦町１３番１１号,,04,203,9850024,,,2025-11-17,清算の結了等,,,2015-10-05,1,,,,,ゲバヤッキョク,0
538,3010001020118,登記記録の閉鎖等,0,2025-11-26,2025-11-10,株式会社鈴共商店,,株式会社,東京都,千代田区,神田佐久間町４丁目３番地,,13,101,1010025,,,2025-11-10,清算の結了等,,,2015-10-05,1,,,,,スズトモショウテン,0
540,3010001143281,登記記録の閉鎖等,0,2025-11-26,2025-11-19,倍速ＤＸ株式会社,,株式会社,東京都,練馬区,中村北２丁目２０番１１号－２Ｆ,,13,120,1760023,,,2025-11-19,清算の結了等,,,2015-10-05,1,,,,,バイソクディーエックス,0
542,3010001177940,登記記録の閉鎖等,0,2025-11-26,2025-11-25,株式会社ルイーダ商会,,株式会社,東京都,世田谷区,奥沢５丁目４２番３号２階,,13,112,1580083,,,2025-11-25,清算の結了等,,,2016-08-26,1,,,,,ルイーダショウカイ,0
558,3010401097961,登記記録の閉鎖等,0,2025-11-26,2025-11-04,株式会社東京商社,,株式会社,東京都,港区,港南２丁目１３番４０号,,13,103,1080075,,,2025-11-04,合併による解散等,6010401013305,令和７年１１月１日東京都港区港南二丁目１３番４０号新東物産株式会社（6010401013305）に合併し解散,2015-10-05,1,,,,,トウキョウショウシャ,0
561,3010401130763,登記記録の閉鎖等,0,2025-11-26,2025-11-14,株式会社リッチモンドキャピタル,,株式会社,東京都,港区,赤坂１丁目１２番２０号,,13,103,1070052,,,2025-11-14,合併による解散等,7010001181864,令和７年１１月１日東京都千代田区紀尾井町１番５－２００２号株式会社ＫＩＯＩ（7010001181864）に合併し解散,2017-04-13,1,,,,,,0
563,3010401159885,登記記録の閉鎖等,0,2025-11-26,2025-10-24,ｙｏｔｔａ　ｌｉｇａｒｅ株式会社,,株式会社,東京都,港区,麻布十番１丁目５番１０号麻布ヒルサイド４Ｆ,,13,103,1060045,,,2025-10-24,清算の結了等,,,2021-04-30,1,,,,,ヨタリガーレ,0
588,3010903009778,登記記録の閉鎖等,0,2025-11-26,2025-11-20,合同会社ｆｏｒ　ｈ,,合同会社,東京都,世田谷区,北沢３丁目２番１１号２階,,13,112,1550031,,,2025-11-20,清算の結了等,,,2025-03-14,1,,,,,フォーアッシュ,0
592,3011001129948,登記記録の閉鎖等,0,2025-11-26,2025-11-04,株式会社ココ・ホーム,,株式会社,東京都,港区,芝２丁目２７番８号ＶＯＲＴ芝公園７Ｆ,,13,103,1050014,,,2025-11-04,合併による解散等,6011001111903,令和７年１１月１日東京都港区芝二丁目２７番８号ＶＯＲＴ芝公園７Ｆココザス株式会社（6011001111903）に合併し解散,2019-09-12,1,,,,,ココホーム,0
593,3011001148329,登記記録の閉鎖等,0,2025-11-26,2025-11-04,株式会社ＭＥＴＡＶＥＲＳＥ　Ａ　ＣＬＵＢ,,株式会社,東京都,港区,六本木３丁目２番１号,,13,103,1060032,,,2025-11-04,合併による解散等,2011001067406,令和７年１１月１日東京都港区六本木三丁目２番１号株式会社ティファレト（2011001067406）に合併し解散,2022-06-27,1,,,,,メタバースエースクラブ,0
603,3011003013142,登記記録の閉鎖等,0,2025-11-26,2025-10-31,合同会社Ｄｏｏｒｋｎｏｂ,,合同会社,東京都,渋谷区,道玄坂１丁目１０番８号渋谷道玄坂東急ビル２Ｆ―Ｃ,,13,113,1500043,,,2025-10-31,清算の結了等,,,2021-08-03,1,,,,,ドアノブ,0
621,3013301008088,登記記録の閉鎖等,0,2025-11-26,2025-11-18,株式会社タカプランニング,,株式会社,東京都,豊島区,千早１丁目３５番１１号,,13,116,1710044,,,2025-11-18,清算の結了等,,,2015-10-05,1,,,,,タカプランニング,0
627,3020002028423,登記記録の閉鎖等,0,2025-11-26,2025-11-18,有限会社八百六,,有限会社,神奈川県,横浜市神奈川区,平川町２５番地４,,14,102,2210812,,,2025-11-18,清算の結了等,,,2015-10-05,1,,,,,ヤオロク,0
628,3020002071522,登記記録の閉鎖等,0,2025-11-26,2025-11-19,ワタベフードサービス有限会社,,有限会社,東京都,品川区,東大井３丁目２２番３－２０５号,,13,109,1400011,,,2025-11-19,清算の結了等,,,2015-10-05,1,,,,,ワタベフードサービス,0
637,3021001013408,登記記録の閉鎖等,0,2025-11-26,2025-11-10,中里商亊株式会社,,株式会社,神奈川県,相模原市中央区,相模原２丁目７番４号,,14,152,2520231,,,2025-11-10,清算の結了等,,,2015-10-05,1,,,,,ナカザトショウジ,0
638,3021001084770,登記記録の閉鎖等,0,2025-11-26,2025-11-10,タクシーチャンネル不動産株式会社,,株式会社,神奈川県,藤沢市,辻堂神台１丁目３番３９号オザワビル５階５０１－１２号室,,14,205,2510041,,,2025-11-10,清算の結了等,,,2025-04-01,1,,,,,タクシーチャンネルフドウサン,0
643,3030001045170,登記記録の閉鎖等,0,2025-11-26,2025-11-11,株式会社ルポン,,株式会社,埼玉県,朝霞市,根岸台７丁目１４番２１号,,11,227,3510005,,,2025-11-11,清算の結了等,,,2015-10-05,1,,,,,ルポン,0
645,3030002108827,登記記録の閉鎖等,0,2025-11-26,2025-11-13,有限会社関孝工務店,,有限会社,埼玉県,川口市,大字蓮沼２６５番地３,00017852,11,203,3340064,,,2025-11-13,清算の結了等,,,2015-10-05,1,,,,,,0
660,3070002014971,登記記録の閉鎖等,0,2025-11-26,2025-11-20,有限会社中島商店,,有限会社,群馬県,安中市,磯部４丁目１６番２８号,,10,211,3790127,,,2025-11-20,清算の結了等,,,2015-10-05,1,,,,,,0
665,3100002019372,登記記録の閉鎖等,0,2025-11-26,2025-11-20,有限会社エスポ,,有限会社,長野県,塩尻市,大字広丘野村１８１０番地,,20,215,3990702,,,2025-11-20,清算の結了等,,,2015-10-05,1,,,,,エスポ,0
668,3120001109585,登記記録の閉鎖等,0,2025-11-26,2025-11-19,株式会社エマージー,,株式会社,大阪府,大阪市淀川区,西中島７丁目４番１７号,,27,123,5320011,,,2025-11-19,合併による解散等,6140001023113,令和７年１１月１６日兵庫県芦屋市船戸町５番２号株式会社ハープコーポレーション（6140001023113）に合併し解散,2015-10-05,1,,,,,,0
669,3120001125442,登記記録の閉鎖等,0,2025-11-26,2025-11-20,株式会社マルベージャ,,株式会社,大阪府,大阪市西区,新町１丁目３４番２号パシフィックタワー大阪新町２１０２,,27,106,5500013,,,2025-11-20,清算の結了等,,,2015-10-05,1,,,,,マルベージャ,0
709,3180001151375,登記記録の閉鎖等,0,2025-11-26,2025-11-19,エニタイム株式会社,,株式会社,愛知県,名古屋市千種区,法王町２丁目５番地７－６０５,,23,101,4640057,,,2025-11-19,清算の結了等,,,2022-05-18,1,,,,,エニタイム,0
720,3180301000406,登記記録の閉鎖等,0,2025-11-26,2025-11-11,オートセンター神戸垂水株式会社,,株式会社,愛知県,岡崎市,大平町字市木２８番地,,23,202,4440007,,,2025-11-11,合併による解散等,7180301002266,令和７年１１月１日愛知県岡崎市藤川町字境松西１番地株式会社レッドバロン（7180301002266）に合併し解散,2015-10-05,1,,,,,オートセンターコウベタルミ,0
721,3180301000422,登記記録の閉鎖等,0,2025-11-26,2025-11-11,オートセンター名古屋南株式会社,,株式会社,愛知県,岡崎市,大平町字市木２８番地,,23,202,4440007,,,2025-11-11,合併による解散等,7180301002266,令和７年１１月１日愛知県岡崎市藤川町字境松西１番地株式会社レッドバロン（7180301002266）に合併し解散,2015-10-05,1,,,,,オートセンターナゴヤミナミ,0
722,3180301002352,登記記録の閉鎖等,0,2025-11-26,2025-11-11,レッドバロン東京大田株式会社,,株式会社,愛知県,岡崎市,大平町字市木２８番地,,23,202,4440007,,,2025-11-11,合併による解散等,7180301002266,令和７年１１月１日愛知県岡崎市藤川町字境松西１番地株式会社レッドバロン（7180301002266）に合併し解散,2015-10-05,1,,,,,レッドバロントウキョウオオタ,0
723,3180301002360,登記記録の閉鎖等,0,2025-11-26,2025-11-11,レッドバロン福井株式会社,,株式会社,愛知県,岡崎市,大平町字市木２８番地,,23,202,4440007,,,2025-11-11,合併による解散等,7180301002266,令和７年１１月１日愛知県岡崎市藤川町字境松西１番地株式会社レッドバロン（7180301002266）に合併し解散,2015-10-05,1,,,,,レッドバロンフクイ,0
724,3180301024652,登記記録の閉鎖等,0,2025-11-26,2025-11-11,オートセンター長野株式会社,,株式会社,愛知県,岡崎市,大平町字市木２８番地,,23,202,4440007,,,2025-11-11,合併による解散等,7180301002266,令和７年１１月１日愛知県岡崎市藤川町字境松西１番地株式会社レッドバロン（7180301002266）に合併し解散,2015-10-05,1,,,,,オートセンターナガノ,0
729,3180302003259,登記記録の閉鎖等,0,2025-11-26,2025-11-11,レッドバロン吹田有限会社,,有限会社,愛知県,岡崎市,大平町字市木２８番地,,23,202,4440007,,,2025-11-11,合併による解散等,7180301002266,令和７年１１月１日愛知県岡崎市藤川町字境松西１番地株式会社レッドバロン（7180301002266）に合併し解散,2015-10-05,1,,,,,レッドバロンスイタ,0
740,3220002000700,登記記録の閉鎖等,0,2025-11-26,2025-11-21,有限会社元建工業,,有限会社,石川県,野々市市,新庄２丁目６７７番地,,17,212,9218824,,,2025-11-21,清算の結了等,,,2015-10-05,1,,,,,モトケンコウギョウ,0
749,3260003001207,登記記録の閉鎖等,0,2025-11-26,2025-11-10,合同会社備前興産,,合同会社,岡山県,岡山市北区,柳町２丁目３番５号,,33,101,7000904,,,2025-11-10,清算の結了等,,,2015-10-05,1,,,,,ビゼンコウサン,0
759,3290002013084,登記記録の閉鎖等,0,2025-11-26,2025-11-18,有限会社ラテン,,有限会社,福岡県,福岡市中央区,平尾３丁目２３番４号,,40,133,8100014,,,2025-11-18,清算の結了等,,,2015-10-05,1,,,,,ラテン,0
788,3380002028271,登記記録の閉鎖等,0,2025-11-26,2025-11-19,有限会社片山ボーリング,,有限会社,福島県,南相馬市,原町区日の出町１５４番地の２,,07,212,9750038,,,2025-11-19,清算の結了等,,,2015-10-05,1,,,,,カタヤマボーリング,0
807,3480001000543,登記記録の閉鎖等,0,2025-11-26,2025-11-25,株式会社キャプテンオート,,株式会社,徳島県,徳島市,国府町井戸字高輪地５３番地１,,36,201,7793118,,,2025-11-25,清算の結了等,,,2015-10-05,1,,,,,キャプテンオート,0
817,4010001135690,登記記録の閉鎖等,0,2025-11-26,2025-11-04,株式会社トライスタージャパン,,株式会社,東京都,港区,赤坂３丁目２１－４新日本ビルディング赤坂３Ｆ,,13,103,1070052,,,2025-11-04,合併による解散等,2010401020783,令和７年１１月１日東京都港区赤坂三丁目２１番４号新日本ビルディング赤坂３階東京商事株式会社（2010401020783）に合併し解散,2015-10-05,1,,,,,トライスタージャパン,0
827,4010003045013,登記記録の閉鎖等,0,2025-11-26,2025-11-06,合同会社ＦＥ石岡ＰＰＡ,,合同会社,東京都,中央区,日本橋室町２丁目３番１号,,13,102,1030022,,,2025-11-06,合併による解散等,9010701028545,令和７年１１月１日東京都中央区日本橋室町二丁目３番１号株式会社フソウ・エナジー（9010701028545）に合併し解散,2024-10-03,1,,,,,エフイーイシオカピーピーエー,0
832,4010401077913,登記記録の閉鎖等,0,2025-11-26,2025-11-14,サンマネージメント株式会社,,株式会社,東京都,港区,赤坂５丁目３番１号,,13,103,1070052,,,2025-11-14,合併による解散等,7010001181864,令和７年１１月１日東京都千代田区紀尾井町１番５－２００２号株式会社ＫＩＯＩ（7010001181864）に合併し解散,2015-10-05,1,,,,,サンマネージメント,0
844,4010502005888,登記記録の閉鎖等,0,2025-11-26,2025-11-19,有限会社末廣ホテル,,有限会社,東京都,台東区,根岸１丁目７番１５号,,13,106,1100003,,,2025-11-19,清算の結了等,,,2015-10-05,1,,,,,スエヒロホテル,0
849,4010602015028,登記記録の閉鎖等,0,2025-11-26,2025-11-18,有限会社木造ゴム工業,,有限会社,東京都,墨田区,東向島２丁目２３番７－１３０６号,,13,107,1310032,,,2025-11-18,清算の結了等,,,2015-10-05,1,,,,,モクゾウゴムコウギョウ,0
852,4010602018303,登記記録の閉鎖等,0,2025-11-26,2025-11-20,有限会社ルナ,,有限会社,東京都,江東区,富岡１丁目９番８号上森ビル２階,,13,108,1350047,,,2025-11-20,清算の結了等,,,2015-10-05,1,,,,,ルナ,0
865,4011001095371,登記記録の閉鎖等,0,2025-11-26,2025-10-30,株式会社東京梨庵,,株式会社,東京都,渋谷区,神宮前６丁目２３番４号桑野ビル２階,,13,113,1500001,,,2025-10-30,清算の結了等,,,2015-10-05,1,,,,,トウキョウリアン,0
872,4011101093366,登記記録の閉鎖等,0,2025-11-26,2025-10-23,株式会社Ｂｏｕｑｕｅｔ,,株式会社,東京都,新宿区,西新宿３丁目２番９号新宿ワシントンホテルビル本館２Ｆ,,13,104,1600023,,,2025-10-23,清算の結了等,,,2020-12-07,1,,,,,ブーケ,0
878,4011105004781,登記記録の閉鎖等,0,2025-11-26,2025-10-23,医療法人社団ＩＭＡ,,その他の設立登記法人,東京都,新宿区,四谷１丁目８番１４号四谷一丁目ビル２階２０２号室,,13,104,1600004,,,2025-10-23,清算の結了等,,,2015-10-05,1,,,,,アイエムエー,0
891,4011701022063,登記記録の閉鎖等,0,2025-11-26,2025-11-05,ＶＪ　Ｔｒａｄｉｎｇ株式会社,,株式会社,東京都,江戸川区,上篠崎４丁目１３番４号,,13,123,1330054,,,2025-11-05,清算の結了等,,,2018-09-14,1,,,,,ベジエトランデイング,0
898,4012403000828,登記記録の閉鎖等,0,2025-11-26,2025-11-21,合資会社ＳＯ,,合資会社,東京都,武蔵野市,吉祥寺南町５丁目６番８号,,13,203,1800003,,,2025-11-21,清算の結了等,,,2015-10-05,1,,,,,ソウ,0
905,4020001048248,登記記録の閉鎖等,0,2025-11-26,2025-11-18,株式会社モナビＩＴコンサルティング,,株式会社,神奈川県,横浜市栄区,笠間５丁目１１番３４号,,14,115,2470006,,,2025-11-18,清算の結了等,,,2015-10-05,1,,,,,モナビアイティーコンサルティング,0
909,4020002068872,登記記録の閉鎖等,0,2025-11-26,2025-11-10,有限会社創美,,有限会社,神奈川県,横浜市戸塚区,原宿３丁目５７番３－７－５０２号,,14,110,2450063,,,2025-11-10,清算の結了等,,,2015-10-05,1,,,,,ソウビ,0
910,4020003024800,登記記録の閉鎖等,0,2025-11-26,2025-11-10,合同会社ＣＬＥＢ,,合同会社,神奈川県,横浜市神奈川区,金港町５－１４クアドリフォリオ８階,,14,102,2210056,,,2025-11-10,清算の結了等,,,2023-10-18,1,,,,,クレブ,0
941,4050001034939,登記記録の閉鎖等,0,2025-11-26,2025-11-13,株式会社アズミ技研,,株式会社,茨城県,取手市,双葉２丁目２９番６号,,08,217,3001501,,,2025-11-13,清算の結了等,,,2015-10-05,1,,,,,アズミギケン,0
942,4050002015797,登記記録の閉鎖等,0,2025-11-26,2025-11-18,有限会社パレットコンタクト,,有限会社,茨城県,石岡市,旭台１丁目１番１号,,08,205,3150038,,,2025-11-18,清算の結了等,,,2015-10-05,1,,,,,パレットコンタクト,0
944,4070001019483,登記記録の閉鎖等,0,2025-11-26,2025-11-19,株式会社ジャブラス,,株式会社,群馬県,太田市,東長岡町２９１番地４,,10,205,3730812,,,2025-11-19,合併による解散等,7150001011859,令和７年１１月１７日奈良県磯城郡田原本町大字千代７５番地の１株式会社ジャブラスネオ（7150001011859）に合併し解散,2015-10-05,1,,,,,ジャブラス,0
945,4070002031454,登記記録の閉鎖等,0,2025-11-26,2025-11-20,有限会社吉羽自工,00025867,有限会社,群馬県,邑楽郡大泉町,東小泉３丁目１４番８号,,10,524,3700513,,,2025-11-20,清算の結了等,,,2015-10-05,1,,,,,ヨシバジコウ,0
946,4080002005366,登記記録の閉鎖等,0,2025-11-26,2025-11-20,有限会社ますい,,有限会社,静岡県,静岡市葵区,安東１丁目２１番１号,,22,101,4200882,,,2025-11-20,清算の結了等,,,2015-10-05,1,,,,,マスイ,0
951,4100002012871,登記記録の閉鎖等,0,2025-11-26,2025-11-17,有限会社アイ・ディー・イー,,有限会社,長野県,南佐久郡川上村,大字原１８０番地１,,20,304,3841406,,,2025-11-17,清算の結了等,,,2015-10-05,1,,,,,アイディーイー,0
957,4120001153310,登記記録の閉鎖等,0,2025-11-26,2025-11-18,株式会社サンワエステート,,株式会社,大阪府,枚方市,都丘町１９番７号,,27,210,5731165,,,2025-11-18,清算の結了等,,,2015-10-05,1,,,,,サンワエステート,0
958,4120001207396,登記記録の閉鎖等,0,2025-11-26,2025-11-20,株式会社Ｊａｐａｎ　Ｃｏｎｎｅｃｔｉｅｓ,,株式会社,兵庫県,宝塚市,泉ガ丘１２番３０号,,28,214,6650851,,,2025-11-20,清算の結了等,,,2017-08-16,1,,,,,ジャパンコネクティーズ,0
967,4120102027462,登記記録の閉鎖等,0,2025-11-26,2025-11-13,有限会社エヌケイリビング,,有限会社,大阪府,泉南市,新家６１５９番地,,27,228,5900503,,,2025-11-13,清算の結了等,,,2015-10-05,1,,,,,エヌケイリビング,0
969,4120901006402,登記記録の閉鎖等,0,2025-11-26,2025-11-17,康有株式会社,,株式会社,大阪府,大阪市淀川区,宮原４丁目５番３３－２１５号,,27,123,5320003,,,2025-11-17,合併による解散等,9120001169574,令和７年１１月１５日大阪市淀川区宮原四丁目５番３３号株式会社メディネットシステムズ（9120001169574）に合併し解散,2015-10-05,1,,,,,コウユウ,0
973,4120902008463,登記記録の閉鎖等,0,2025-11-26,2025-11-17,有限会社片桐建設工業,,有限会社,大阪府,摂津市,鳥飼野々３丁目９番７号,,27,224,5660053,,,2025-11-17,清算の結了等,,,2015-10-05,1,,,,,カタギリケンセツコウギョウ,0
990,4140003017684,登記記録の閉鎖等,0,2025-11-26,2025-11-14,合同会社ＳＯＡ,,合同会社,兵庫県,西宮市,屋敷町１９番４号,,28,204,6620963,,,2025-11-14,清算の結了等,,,2022-05-16,1,,,,,ソア,0
993,4150001026521,登記記録の閉鎖等,0,2025-11-26,2025-11-21,株式会社豊真,,株式会社,奈良県,橿原市,城殿町３９９番地の３,,29,205,6340033,,,2025-11-21,清算の結了等,,,2023-07-06,1,,,,,トヨシン,0
1006,4180002036855,登記記録の閉鎖等,0,2025-11-26,2025-11-19,有限会社アルボル,,有限会社,愛知県,名古屋市南区,呼続３丁目２番１６号,,23,112,4570014,,,2025-11-19,清算の結了等,,,2015-10-05,1,,,,,アルボル,0
1011,4180301000405,登記記録の閉鎖等,0,2025-11-26,2025-11-11,オートセンター浦和株式会社,,株式会社,愛知県,岡崎市,大平町字市木２８番地,,23,202,4440007,,,2025-11-11,合併による解散等,7180301002266,令和７年１１月１日愛知県岡崎市藤川町字境松西１番地株式会社レッドバロン（7180301002266）に合併し解散,2015-10-05,1,,,,,オートセンターウラワ,0
1012,4180301000421,登記記録の閉鎖等,0,2025-11-26,2025-11-11,オートセンター名古屋東株式会社,,株式会社,愛知県,岡崎市,大平町字市木２８番地,,23,202,4440007,,,2025-11-11,合併による解散等,7180301002266,令和７年１１月１日愛知県岡崎市藤川町字境松西１番地株式会社レッドバロン（7180301002266）に合併し解散,2015-10-05,1,,,,,オートセンターナゴヤヒガシ,0
1014,4180302003290,登記記録の閉鎖等,0,2025-11-26,2025-11-11,レッドバロン松山有限会社,,有限会社,愛知県,岡崎市,大平町字市木２８番地,,23,202,4440007,,,2025-11-11,合併による解散等,7180301002266,令和７年１１月１日愛知県岡崎市藤川町字境松西１番地株式会社レッドバロン（7180301002266）に合併し解散,2015-10-05,1,,,,,レッドバロンマツヤマ,0
1028,4240005015032,登記記録の閉鎖等,0,2025-11-26,2025-11-21,一般社団法人ウェルビ,,その他の設立登記法人,広島県,広島市東区,光町１丁目１２番１６号広島ビル７階医療法人好縁会,,34,102,7320052,,,2025-11-21,清算の結了等,,,2020-06-05,1,,,,,ウェルビ,0
1035,4270002004167,登記記録の閉鎖等,0,2025-11-26,2025-11-25,有限会社鉄永商店,,有限会社,鳥取県,鳥取市,青谷町青谷３８５３番地６,,31,201,6890501,,,2025-11-25,清算の結了等,,,2015-10-05,1,,,,,テツナガショウテン,0
1118,5010902019751,登記記録の閉鎖等,0,2025-11-26,2025-11-20,有限会社国際伝統医学研究所,,有限会社,東京都,世田谷区,若林１丁目１２番１３号,,13,112,1540023,,,2025-11-20,清算の結了等,,,2015-10-05,1,,,,,,0
1121,5011001161362,登記記録の閉鎖等,0,2025-11-26,2025-11-04,８Ｎａｎａ株式会社,,株式会社,東京都,渋谷区,渋谷２丁目２１番１号,,13,113,1500002,,,2025-11-04,清算の結了等,,,2024-04-16,1,,,,,ハチナナ,0
1147,5011802018769,登記記録の閉鎖等,0,2025-11-26,2025-11-17,有限会社眞鍋紙工,,有限会社,東京都,足立区,西伊興４丁目１２番１６号,,13,121,1210824,,,2025-11-17,清算の結了等,,,2015-10-05,1,,,,,マナベシコウ,0
1148,5011803004834,登記記録の閉鎖等,0,2025-11-26,2025-10-29,アインホルン合同会社,,合同会社,東京都,渋谷区,恵比寿４丁目２２－８－２０４,,13,113,1500013,,,2025-10-29,清算の結了等,,,2021-10-15,1,,,,,アインホルン,0
1154,5013301014241,登記記録の閉鎖等,0,2025-11-26,2025-11-17,ジェー・シー・イー株式会社,,株式会社,東京都,豊島区,巣鴨１丁目２４番１１号,,13,116,1700002,,,2025-11-17,清算の結了等,,,2015-10-05,1,,,,,,0
1161,5020002037769,登記記録の閉鎖等,0,2025-11-26,2025-11-17,有限会社協進塗装,,有限会社,神奈川県,横浜市港北区,師岡町９８９番地の１１,,14,109,2220002,,,2025-11-17,清算の結了等,,,2015-10-05,1,,,,,キョウシントソウ,0
1173,5030001005585,登記記録の閉鎖等,0,2025-11-26,2025-11-19,株式会社テイーアンドエム,,株式会社,埼玉県,さいたま市北区,宮原町４丁目８５番地の１３,,11,102,3310812,,,2025-11-19,清算の結了等,,,2015-10-05,1,,,,,テイーアンドエム,0
1182,5030005018039,登記記録の閉鎖等,0,2025-11-26,2025-11-18,特定非営利活動法人マイムマイム,,その他の設立登記法人,埼玉県,入間郡毛呂山町,前久保南１丁目２７番地８,,11,326,3500463,,,2025-11-18,清算の結了等,,,2016-07-05,1,,,,,マイムマイム,0
1200,5050001007596,登記記録の閉鎖等,0,2025-11-26,2025-11-17,株式会社庄兵衛,,株式会社,茨城県,ひたちなか市,湊泉町４番８号,,08,221,3111216,,,2025-11-17,清算の結了等,,,2015-10-05,1,,,,,ショウベエ,0
1212,5080402016160,登記記録の閉鎖等,0,2025-11-26,2025-11-21,有限会社タグチ,,有限会社,静岡県,浜松市浜名区,三ヶ日町三ヶ日４８５番地の１,,22,139,4311414,,,2025-11-21,清算の結了等,,,2015-10-05,1,,,,,タグチ,0
1217,5100001005792,登記記録の閉鎖等,0,2025-11-26,2025-11-21,株式会社大塚製作所,,株式会社,長野県,上高井郡高山村,大字高井十二崖５８７１番地,,20,543,3820800,,,2025-11-21,清算の結了等,,,2015-10-05,1,,,,,オオツカセイサクジョ,0
1224,5120001193108,登記記録の閉鎖等,0,2025-11-26,2025-11-21,株式会社ＬＩＮＤＡ　ＭＡＲＩＮＥ,,株式会社,大阪府,大阪市中央区,玉造２丁目４番８号,,27,128,5400004,,,2025-11-21,合併による解散等,1120001129676,令和７年１０月３０日大阪府泉南郡岬町淡輪１３８７番地９株式会社ＬＩＮＤＡ　ＲＥＳＯＲＴ　ＳＥＲＶＩＣＥ（1120001129676）に合併し解散,2015-10-05,1,,,,,リンダマリン,0
1240,5120901042132,登記記録の閉鎖等,0,2025-11-26,2025-11-20,株式会社ＡＫＩ,,株式会社,大阪府,吹田市,山田東２丁目４０番１９号,,27,205,5650821,,,2025-11-20,清算の結了等,,,2019-12-24,1,,,,,,0
1256,5140003011546,登記記録の閉鎖等,0,2025-11-26,2025-11-19,合同会社Ｇｌｏｂｅ　ａＭａｒａＮｔｈ,,合同会社,兵庫県,西宮市,甲子園高潮町７番８号セレニテ甲子園ＩＩ７０７,00127606,28,204,6638166,,,2025-11-19,清算の結了等,,,2016-08-01,1,,,,,グローブアマランス,0
1257,5140005021213,登記記録の閉鎖等,0,2025-11-26,2025-11-21,医療法人社団芦屋橋本クリニック,00042523,その他の設立登記法人,兵庫県,芦屋市,業平町６番３１号,,28,206,6590068,,,2025-11-21,清算の結了等,,,2015-10-05,1,,,,,アシヤハシモトクリニック,0
1272,5180301000412,登記記録の閉鎖等,0,2025-11-26,2025-11-11,オートセンター埼玉西株式会社,,株式会社,愛知県,岡崎市,大平町字市木２８番地,,23,202,4440007,,,2025-11-11,合併による解散等,7180301002266,令和７年１１月１日愛知県岡崎市藤川町字境松西１番地株式会社レッドバロン（7180301002266）に合併し解散,2015-10-05,1,,,,,オートセンターサイタマニシ,0
1273,5180301000420,登記記録の閉鎖等,0,2025-11-26,2025-11-11,オートセンター長崎株式会社,,株式会社,愛知県,岡崎市,大平町字市木２８番地,,23,202,4440007,,,2025-11-11,合併による解散等,7180301002266,令和７年１１月１日愛知県岡崎市藤川町字境松西１番地株式会社レッドバロン（7180301002266）に合併し解散,2015-10-05,1,,,,,オートセンターナガサキ,0
1274,5180301000429,登記記録の閉鎖等,0,2025-11-26,2025-11-11,オートセンター船橋株式会社,,株式会社,愛知県,岡崎市,大平町字市木２８番地,,23,202,4440007,,,2025-11-11,合併による解散等,7180301002266,令和７年１１月１日愛知県岡崎市藤川町字境松西１番地株式会社レッドバロン（7180301002266）に合併し解散,2015-10-05,1,,,,,オートセンターフナバシ,0
1275,5180301002334,登記記録の閉鎖等,0,2025-11-26,2025-11-11,レッドバロン大阪北株式会社,,株式会社,愛知県,岡崎市,大平町字市木２８番地,,23,202,4440007,,,2025-11-11,合併による解散等,7180301002266,令和７年１１月１日愛知県岡崎市藤川町字境松西１番地株式会社レッドバロン（7180301002266）に合併し解散,2015-10-05,1,,,,,レッドバロンオオサカキタ,0
1276,5180301002342,登記記録の閉鎖等,0,2025-11-26,2025-11-11,レッドバロン神奈川株式会社,,株式会社,愛知県,岡崎市,大平町字市木２８番地,,23,202,4440007,,,2025-11-11,合併による解散等,7180301002266,令和７年１１月１日愛知県岡崎市藤川町字境松西１番地株式会社レッドバロン（7180301002266）に合併し解散,2015-10-05,1,,,,,レッドバロンカナガワ,0
1277,5180301002367,登記記録の閉鎖等,0,2025-11-26,2025-11-11,レッドバロン八事株式会社,,株式会社,愛知県,岡崎市,大平町字市木２８番地,,23,202,4440007,,,2025-11-11,合併による解散等,7180301002266,令和７年１１月１日愛知県岡崎市藤川町字境松西１番地株式会社レッドバロン（7180301002266）に合併し解散,2015-10-05,1,,,,,レッドバロンヤゴト,0
1278,5180301012523,登記記録の閉鎖等,0,2025-11-26,2025-11-11,レッドバロン姫路株式会社,,株式会社,愛知県,岡崎市,大平町字市木２８番地,,23,202,4440007,,,2025-11-11,合併による解散等,7180301002266,令和７年１１月１日愛知県岡崎市藤川町字境松西１番地株式会社レッドバロン（7180301002266）に合併し解散,2015-10-05,1,,,,,レッドバロンヒメジ,0
1283,5210001002853,登記記録の閉鎖等,0,2025-11-26,2025-11-20,株式会社ハヤデン,,株式会社,福井県,福井市,新保２丁目１０６番地,,18,201,9100833,,,2025-11-20,清算の結了等,,,2015-10-05,1,,,,,ハヤデン,0
1285,5220001007455,登記記録の閉鎖等,0,2025-11-26,2025-11-25,株式会社ライク,,株式会社,石川県,金沢市,新保本５丁目１２１番地,,17,201,9218062,,,2025-11-25,清算の結了等,,,2015-10-05,1,,,,,,0
1290,5240001019267,登記記録の閉鎖等,0,2025-11-26,2025-11-19,株式会社ズーム,,株式会社,広島県,廿日市市,宮園２丁目５番地２３,,34,213,7380035,,,2025-11-19,清算の結了等,,,2015-10-05,1,,,,,ズーム,0
1300,5250002015074,登記記録の閉鎖等,0,2025-11-26,2025-11-21,有限会社徳山キュウソウ,,有限会社,山口県,周南市,今住町６番２号,,35,215,7450063,,,2025-11-21,清算の結了等,,,2015-10-05,1,,,,,トクヤマキュウソウ,0
1302,5260002027176,登記記録の閉鎖等,0,2025-11-26,2025-11-19,有限会社京極,,有限会社,岡山県,新見市,西方４５０番地の９,,33,210,7180017,,,2025-11-19,清算の結了等,,,2015-10-05,1,,,,,キョウゴク,0
1307,5290001094149,登記記録の閉鎖等,0,2025-11-26,2025-11-19,Ｒａｂｂｉｔ　Ｂ　Ｍａｒｋｅｔｉｎｇ株式会社,,株式会社,福岡県,福岡市中央区,渡辺通５丁目８番１８号,,40,133,8100004,,,2025-11-19,清算の結了等,,,2021-08-11,1,,,,,ラビットビーマーケティング,0
1311,5300001005632,登記記録の閉鎖等,0,2025-11-26,2025-11-21,株式会社前田工芸社,,株式会社,佐賀県,伊万里市,山代町立岩２６５３番地の１,,41,205,8494261,,,2025-11-21,清算の結了等,,,2015-10-05,1,,,,,マエダコウゲイシャ,0
1313,5310005007112,登記記録の閉鎖等,0,2025-11-26,2025-11-25,一般社団法人遊,,その他の設立登記法人,長崎県,長崎市,愛宕３丁目４番１４号,,42,201,8500822,,,2025-11-25,清算の結了等,,,2015-10-05,1,,,,,ユウ,0
1317,5330002025239,登記記録の閉鎖等,0,2025-11-26,2025-11-17,有限会社日章,,有限会社,熊本県,上益城郡嘉島町,大字鯰２８２８番地５,,43,442,8613101,,,2025-11-17,清算の結了等,,,2015-10-05,1,,,,,ニッショウ,0
1341,5380001020483,登記記録の閉鎖等,0,2025-11-26,2025-11-19,日畜フード株式会社,,株式会社,福島県,須賀川市,岩崎３６番地１,,07,207,9620026,,,2025-11-19,清算の結了等,,,2015-10-05,1,,,,,ニッチクフード,0
1342,5400503000006,登記記録の閉鎖等,0,2025-11-26,2025-11-17,合資会社磐井牛乳,,合資会社,岩手県,一関市,宮下町１１番７号,,03,209,0210013,,,2025-11-17,清算の結了等,,,2015-10-05,1,,,,,イワイギュウニュウ,0
1347,5460002002943,登記記録の閉鎖等,0,2025-11-26,2025-11-17,丸三共伸水産有限会社,,有限会社,北海道,釧路市,愛国東２丁目２８番１９号,,01,206,0850058,,,2025-11-17,清算の結了等,,,2015-10-05,1,,,,,,0
1348,5460302004268,登記記録の閉鎖等,0,2025-11-26,2025-11-25,有限会社九州屋,,有限会社,北海道,網走市,南五条西２丁目７番地,,01,211,0930015,,,2025-11-25,清算の結了等,,,2015-10-05,1,,,,,,0
1350,5470002007149,登記記録の閉鎖等,0,2025-11-26,2025-11-25,有限会社山下義商店,,有限会社,香川県,高松市,上福岡町７５４番地,,37,201,7600077,,,2025-11-25,清算の結了等,,,2015-10-05,1,,,,,ヤマシタヨシショウテン,0
1361,6010003040243,登記記録の閉鎖等,0,2025-11-26,2025-11-06,合同会社ＦＥ大船渡ＰＰＡ１,,合同会社,東京都,中央区,日本橋室町２丁目３番１号,,13,102,1030022,,,2025-11-06,合併による解散等,9010701028545,令和７年１１月１日東京都中央区日本橋室町二丁目３番１号株式会社フソウ・エナジー（9010701028545）に合併し解散,2023-04-10,1,,,,,エフイーオオフナトピーピーエーイチ,0
1370,6010401132204,登記記録の閉鎖等,0,2025-11-26,2025-11-04,キャシュモ株式会社,,株式会社,東京都,港区,赤坂５丁目２番２０号赤坂パークビル１９階,,13,103,1070052,,,2025-11-04,合併による解散等,5010401064183,令和７年１１月１日東京都港区赤坂五丁目２番２０号赤坂パークビル１９階株式会社キャシュモ（5010401064183）に合併し解散,2017-06-26,1,,,,,キャシュモ,0
1372,6010401159081,登記記録の閉鎖等,0,2025-11-26,2025-10-31,Ｒｏｓｅ　Ｂａｋｅｒｙ　Ｊａｐａｎ株式会社,,株式会社,東京都,港区,西麻布４丁目１４番１４号シャンブル・ド・西麻布２０１株式会社プラス・ワン・サービス内,,13,103,1060031,,,2025-10-31,清算の結了等,,,2021-03-29,1,,,,,ローズベーカリージャパン,0
1376,6010402034366,登記記録の閉鎖等,0,2025-11-26,2025-10-30,有限会社紀尾井ハウジング,,有限会社,東京都,港区,六本木４丁目１番４号,,13,103,1060032,,,2025-10-30,清算の結了等,,,2015-10-05,1,,,,,キオイハウジング,0
1378,6010403019259,登記記録の閉鎖等,0,2025-11-26,2025-11-04,合同会社ＫＭ住宅管理,,合同会社,東京都,港区,三田５丁目２番１８－１００２号,,13,103,1080073,,,2025-11-04,合併による解散等,9010403015081,令和７年１１月１日東京都港区三田五丁目２番１８－１００２号合同会社ＭＫ住宅管理（9010403015081）に合併し解散,2018-09-07,1,,,,,ケイエムジュウタクカンリ,0
1387,6010601057804,登記記録の閉鎖等,0,2025-11-26,2025-11-19,ミツヨフーズ株式会社,,株式会社,東京都,墨田区,文花１丁目９番８号,,13,107,1310044,,,2025-11-19,清算の結了等,,,2020-08-12,1,,,,,ミツヨフーズ,0
1407,6011101061552,登記記録の閉鎖等,0,2025-11-26,2025-11-17,株式会社ナマステジャパン,,株式会社,埼玉県,所沢市,けやき台１丁目２番地の１,,11,208,3591118,,,2025-11-17,清算の結了等,,,2015-10-05,1,,,,,ナマステジャパン,0
1408,6011101077359,登記記録の閉鎖等,0,2025-11-26,2025-11-20,株式会社ｍｅｅｔｒａｎｃｅ,,株式会社,東京都,国立市,東１丁目１５－１１、４４８ビル３Ｆ,,13,215,1860002,,,2025-11-20,清算の結了等,,,2016-06-17,1,,,,,ミートランス,0
1424,6011801014727,登記記録の閉鎖等,0,2025-11-26,2025-11-21,株式会社アズシステム,,株式会社,東京都,足立区,加平３丁目１２番１号,,13,121,1210055,,,2025-11-21,清算の結了等,,,2015-10-05,1,,,,,,0
1425,6012305001559,登記記録の閉鎖等,0,2025-11-26,2025-11-12,医療法人社団東八雲会,,その他の設立登記法人,東京都,町田市,つくし野４丁目９番地８,,13,209,1940001,,,2025-11-12,清算の結了等,,,2015-10-05,1,,,,,ヒガシヤクモカイ,0
1426,6012701009610,登記記録の閉鎖等,0,2025-11-26,2025-11-19,株式会社本村製作所,,株式会社,東京都,小平市,天神町１丁目６番３号,,13,211,1870004,,,2025-11-19,清算の結了等,,,2015-10-05,1,,,,,モトムラセイサクショ,0
1427,6013301023530,登記記録の閉鎖等,0,2025-11-26,2025-11-12,株式会社レター,,株式会社,東京都,町田市,鶴間１丁目１９番地７,,13,209,1940004,,,2025-11-12,清算の結了等,,,2015-10-05,1,,,,,レター,0
1440,6030001042933,登記記録の閉鎖等,0,2025-11-26,2025-11-13,株式会社アイダム,,株式会社,埼玉県,上尾市,富士見１丁目１７番１号,,11,219,3620041,,,2025-11-13,清算の結了等,,,2015-10-05,1,,,,,,0
1448,6030002040036,登記記録の閉鎖等,0,2025-11-26,2025-11-18,有限会社福田電設,,有限会社,埼玉県,加須市,麦倉２２０５番地,,11,210,3491212,,,2025-11-18,清算の結了等,,,2015-10-05,1,,,,,フクダデンセツ,0
1461,6040001089098,登記記録の閉鎖等,0,2025-11-26,2025-10-27,株式会社ピュールホーム,,株式会社,千葉県,柏市,柏６丁目９番１８号柏パークビル１Ｆ,,12,217,2770005,,,2025-10-27,清算の結了等,,,2015-10-05,1,,,,,ピュールホーム,0
1473,6070005001741,登記記録の閉鎖等,0,2025-11-26,2025-11-17,特定非営利活動法人Ｅｃｏ　Ｃｌｅａｎｕｐ　Ｓｅｒｖｉｃｅ　２１,,その他の設立登記法人,群馬県,前橋市,市之関町５８４番地,,10,201,3710245,,,2025-11-17,清算の結了等,,,2015-10-05,1,,,,,エコクリナップサービスニジュウイチ,0
1528,6170002003854,登記記録の閉鎖等,0,2025-11-26,2025-11-26,有限会社薮下石油,,有限会社,和歌山県,和歌山市,大垣内６６４番地の１,,30,201,6496272,,,2025-11-26,清算の結了等,,,2015-10-05,1,,,,,ヤブシタセキユ,0
1529,6180001029321,登記記録の閉鎖等,0,2025-11-26,2025-11-19,株式会社アンフアンテ,,株式会社,愛知県,名古屋市中村区,靖国町２丁目８１番地,,23,105,4530065,,,2025-11-19,清算の結了等,,,2015-10-05,1,,,,,アンフアンテ,0
1532,6180001070688,登記記録の閉鎖等,0,2025-11-26,2025-11-19,株式会社ハルーセシオ,,株式会社,愛知県,名古屋市北区,喜惣治１丁目８番地エテルノオオヒラ２０３号,,23,103,4620065,,,2025-11-19,清算の結了等,,,2015-10-05,1,,,,,,0
1544,6180002088085,登記記録の閉鎖等,0,2025-11-26,2025-11-20,有限会社ヤスミネ産業,,有限会社,愛知県,東海市,加木屋町大堀１０９番地の１,,23,222,4770032,,,2025-11-20,清算の結了等,,,2015-10-05,1,,,,,ヤスミネサンギョウ,0
1545,6180301000403,登記記録の閉鎖等,0,2025-11-26,2025-11-11,オートセンター岡山株式会社,,株式会社,愛知県,岡崎市,大平町字市木２８番地,,23,202,4440007,,,2025-11-11,合併による解散等,7180301002266,令和７年１１月１日愛知県岡崎市藤川町字境松西１番地株式会社レッドバロン（7180301002266）に合併し解散,2015-10-05,1,,,,,オートセンターオカヤマ,0
1546,6180301000411,登記記録の閉鎖等,0,2025-11-26,2025-11-11,オートセンター久留米株式会社,,株式会社,愛知県,岡崎市,大平町字市木２８番地,,23,202,4440007,,,2025-11-11,合併による解散等,7180301002266,令和７年１１月１日愛知県岡崎市藤川町字境松西１番地株式会社レッドバロン（7180301002266）に合併し解散,2015-10-05,1,,,,,オートセンタークルメ,0
1547,6180301000428,登記記録の閉鎖等,0,2025-11-26,2025-11-11,オートセンター八高株式会社,,株式会社,愛知県,岡崎市,大平町字市木２８番地,,23,202,4440007,,,2025-11-11,合併による解散等,7180301002266,令和７年１１月１日愛知県岡崎市藤川町字境松西１番地株式会社レッドバロン（7180301002266）に合併し解散,2015-10-05,1,,,,,オートセンターハチコウ,0
1548,6180301012522,登記記録の閉鎖等,0,2025-11-26,2025-11-11,レッドバロン知立株式会社,,株式会社,愛知県,岡崎市,大平町字市木２８番地,,23,202,4440007,,,2025-11-11,合併による解散等,7180301002266,令和７年１１月１日愛知県岡崎市藤川町字境松西１番地株式会社レッドバロン（7180301002266）に合併し解散,2015-10-05,1,,,,,レッドバロンチリュウ,0
1549,6180302003248,登記記録の閉鎖等,0,2025-11-26,2025-11-11,レッドバロン宇都宮有限会社,,有限会社,愛知県,岡崎市,大平町字市木２８番地,,23,202,4440007,,,2025-11-11,合併による解散等,7180301002266,令和７年１１月１日愛知県岡崎市藤川町字境松西１番地株式会社レッドバロン（7180301002266）に合併し解散,2015-10-05,1,,,,,レッドバロンウツノミヤ,0
1571,6260002029254,登記記録の閉鎖等,0,2025-11-26,2025-11-19,有限会社ファミリーショップマエバシ,,有限会社,岡山県,津山市,加茂町中原３３番地,,33,203,7093931,,,2025-11-19,清算の結了等,,,2015-10-05,1,,,,,ファミリーショップマエバシ,0
1621,7010003043410,登記記録の閉鎖等,0,2025-11-26,2025-10-30,合同会社ＨｉＪｏＪｏ．ｃｏｍ１２,,合同会社,東京都,千代田区,霞が関３丁目２番５号,,13,101,1000013,,,2025-10-30,清算の結了等,,,2024-04-08,1,,,,,ヒジョージョードットコムトゥエルヴ,0
1622,7010003045729,登記記録の閉鎖等,0,2025-11-26,2025-06-10,Ｍｉｍａｓａｋａ‐１ＢＥＳＳ合同会社,,合同会社,東京都,千代田区,霞が関３丁目２番６号東京倶楽部ビルディング１１階,,13,101,1000013,,,2025-06-10,合併による解散等,3010003042283,令和７年６月１０日東京都千代田区霞が関三丁目２番６号東京倶楽部ビルディング１１階合同会社バッテリーファーム（3010003042283）に合併し解散,2024-12-12,1,,,,,ミマサカワンベス,0
1627,7010401027832,登記記録の閉鎖等,0,2025-11-26,2025-11-04,マウンテントラベル株式会社,,株式会社,東京都,港区,新橋３丁目２６番３号,,13,103,1050004,,,2025-11-04,清算の結了等,,,2015-10-05,1,,,,,マウンテントラベル,0
1648,7010902006525,登記記録の閉鎖等,0,2025-11-26,2025-11-21,有限会社サンクロード,,有限会社,東京都,世田谷区,成城２丁目３４番１３号,,13,112,1570066,,,2025-11-21,清算の結了等,,,2015-10-05,1,,,,,サンクロード,0
1650,7011001101779,登記記録の閉鎖等,0,2025-11-26,2025-10-31,株式会社福柳,,株式会社,東京都,目黒区,下目黒５丁目２３番１７号,,13,110,1530064,,,2025-10-31,清算の結了等,,,2015-10-05,1,,,,,フクリュウ,0
1656,7011003012487,登記記録の閉鎖等,0,2025-11-26,2025-10-31,合同会社あぱいさん,,合同会社,東京都,渋谷区,西原３丁目２４番５号大黒マンション５０１,,13,113,1510066,,,2025-10-31,清算の結了等,,,2021-03-29,1,,,,,アパイサン,0
1685,7020001077707,登記記録の閉鎖等,0,2025-11-26,2025-11-18,株式会社Ｈｅｍｐ,,株式会社,神奈川県,横浜市中区,本牧元町３１番２２号,,14,104,2310822,,,2025-11-18,清算の結了等,,,2015-10-05,1,,,,,ヘンプ,0
1693,7020002006771,登記記録の閉鎖等,0,2025-11-26,2025-11-11,日圧東海総業有限会社,,有限会社,神奈川県,横浜市都筑区,茅ケ崎東１丁目３番地９号,,14,118,2240033,,,2025-11-11,清算の結了等,,,2015-10-05,1,,,,,ニチアツトウカイソウギョウ,0
1705,7021002028137,登記記録の閉鎖等,0,2025-11-26,2025-11-06,有限会社ＩＳＴ,,有限会社,神奈川県,相模原市中央区,田名４１００番地８,,14,152,2520244,,,2025-11-06,清算の結了等,,,2015-10-05,1,,,,,,0
1711,7030001043600,登記記録の閉鎖等,0,2025-11-26,2025-11-20,株式会社鳶猿,,株式会社,埼玉県,上尾市,向山２丁目１番地１２ガーデン向山,,11,219,3620045,,,2025-11-20,清算の結了等,,,2015-10-05,1,,,,,トビザル,0
1718,7030001119061,登記記録の閉鎖等,0,2025-11-26,2025-11-04,株式会社関根トラックレンタル,,株式会社,埼玉県,越谷市,大字増森２０７番地１２,,11,222,3430012,,,2025-11-04,合併による解散等,7030001065231,令和７年１１月１日埼玉県越谷市大字増森２０７番地１２株式会社関根エンタープライズ（7030001065231）に合併し解散,2017-03-07,1,,,,,セキネトラックレンタル,0
1733,7050001018393,登記記録の閉鎖等,0,2025-11-26,2025-11-13,株式会社サンインテリア,,株式会社,茨城県,古河市,三杉町１丁目２番１号,,08,204,3060002,,,2025-11-13,清算の結了等,,,2015-10-05,1,,,,,サンインテリア,0
1734,7050001018451,登記記録の閉鎖等,0,2025-11-26,2025-11-13,太陽工業株式会社,,株式会社,茨城県,古河市,三杉町１丁目２番１号,,08,204,3060002,,,2025-11-13,清算の結了等,,,2015-10-05,1,,,,,タイヨウコウギョウ,0
1745,7100001001690,登記記録の閉鎖等,0,2025-11-26,2025-11-21,創研工業株式会社,,株式会社,長野県,長野市,大字北長池１１９１番地,,20,201,3810025,,,2025-11-21,清算の結了等,,,2015-10-05,1,,,,,ソウケンコウギョウ,0
1752,7120001111331,登記記録の閉鎖等,0,2025-11-26,2025-11-19,株式会社河口無線,,株式会社,大阪府,大阪市浪速区,日本橋４丁目８番１２号,,27,111,5560005,,,2025-11-19,合併による解散等,6140001023113,令和７年１１月１６日兵庫県芦屋市船戸町５番２号株式会社ハープコーポレーション（6140001023113）に合併し解散,2015-10-05,1,,,,,カワグチムセン,0
1773,7120902010400,登記記録の閉鎖等,0,2025-11-26,2025-11-21,有限会社白川自動車工業,,有限会社,大阪府,高槻市,唐崎中４丁目６７５番地の３,,27,207,5690832,,,2025-11-21,清算の結了等,,,2015-10-05,1,,,,,,0
1784,7140002026741,登記記録の閉鎖等,0,2025-11-26,2025-11-18,株式会社レッツ,,株式会社,大阪府,大阪市中央区,瓦町３丁目４番１０号,,27,128,5410048,,,2025-11-18,清算の結了等,,,2015-10-05,1,,,,,レッツ,0
1785,7140003010538,登記記録の閉鎖等,0,2025-11-26,2025-11-20,合同会社Ｋマイルストーン,,合同会社,兵庫県,尼崎市,富松町４丁目１番６号,,28,202,6610003,,,2025-11-20,清算の結了等,,,2015-10-05,1,,,,,ケイマイルストーン,0
1787,7150002010827,登記記録の閉鎖等,0,2025-11-26,2025-11-07,伸有商事有限会社,,有限会社,奈良県,葛城市,疋田９６番地３４,,29,211,6392101,,,2025-11-07,清算の結了等,,,2015-10-05,1,,,,,シンユウショウジ,0
1788,7180001042488,登記記録の閉鎖等,0,2025-11-26,2025-11-19,株式会社流通経済社,,株式会社,愛知県,名古屋市中区,丸の内１丁目４番２９号,,23,106,4600002,,,2025-11-19,清算の結了等,,,2015-10-05,1,,,,,リュウツウケイザイシャ,0
1797,7180002020591,登記記録の閉鎖等,0,2025-11-26,2025-11-18,有限会社ナガヤ電器,,有限会社,愛知県,名古屋市熱田区,白鳥２丁目９番１６号,,23,109,4560035,,,2025-11-18,清算の結了等,,,2015-10-05,1,,,,,ナガヤデンキ,0
1803,7180301000402,登記記録の閉鎖等,0,2025-11-26,2025-11-11,オートセンター大分株式会社,,株式会社,愛知県,岡崎市,大平町字市木２８番地,,23,202,4440007,,,2025-11-11,合併による解散等,7180301002266,令和７年１１月１日愛知県岡崎市藤川町字境松西１番地株式会社レッドバロン（7180301002266）に合併し解散,2015-10-05,1,,,,,オートセンターオオイタ,0
1804,7180301000410,登記記録の閉鎖等,0,2025-11-26,2025-11-11,オートセンター倉敷株式会社,,株式会社,愛知県,岡崎市,大平町字市木２８番地,,23,202,4440007,,,2025-11-11,合併による解散等,7180301002266,令和７年１１月１日愛知県岡崎市藤川町字境松西１番地株式会社レッドバロン（7180301002266）に合併し解散,2015-10-05,1,,,,,オートセンタークラシキ,0
1805,7180301000419,登記記録の閉鎖等,0,2025-11-26,2025-11-11,オートセンター新潟株式会社,,株式会社,愛知県,岡崎市,大平町字市木２８番地,,23,202,4440007,,,2025-11-11,合併による解散等,7180301002266,令和７年１１月１日愛知県岡崎市藤川町字境松西１番地株式会社レッドバロン（7180301002266）に合併し解散,2015-10-05,1,,,,,オートセンターニイガタ,0
1806,7180301000427,登記記録の閉鎖等,0,2025-11-26,2025-11-11,オートセンター八王子株式会社,,株式会社,愛知県,岡崎市,大平町字市木２８番地,,23,202,4440007,,,2025-11-11,合併による解散等,7180301002266,令和７年１１月１日愛知県岡崎市藤川町字境松西１番地株式会社レッドバロン（7180301002266）に合併し解散,2015-10-05,1,,,,,オートセンターハチオウジ,0
1807,7180301002340,登記記録の閉鎖等,0,2025-11-26,2025-11-11,レッドバロン加古川株式会社,,株式会社,愛知県,岡崎市,大平町字市木２８番地,,23,202,4440007,,,2025-11-11,合併による解散等,7180301002266,令和７年１１月１日愛知県岡崎市藤川町字境松西１番地株式会社レッドバロン（7180301002266）に合併し解散,2015-10-05,1,,,,,レッドバロンカコガワ,0
1808,7180301002349,登記記録の閉鎖等,0,2025-11-26,2025-11-11,レッドバロン仙台株式会社,,株式会社,愛知県,岡崎市,大平町字市木２８番地,,23,202,4440007,,,2025-11-11,合併による解散等,7180301002266,令和７年１１月１日愛知県岡崎市藤川町字境松西１番地株式会社レッドバロン（7180301002266）に合併し解散,2015-10-05,1,,,,,レッドバロンセンダイ,0
1817,7210001012883,登記記録の閉鎖等,0,2025-11-26,2025-11-20,鯖江サイジング株式会社,00077756,株式会社,福井県,鯖江市,定次町第９号２９番地１,,18,207,9160043,,,2025-11-20,清算の結了等,,,2015-10-05,1,,,,,サバエ,0
1836,7340005000946,登記記録の閉鎖等,0,2025-11-26,2025-11-18,鹿児島県図書教材販売協同組合,,その他の設立登記法人,鹿児島県,鹿児島市,西陵４丁目２０番１号,,46,201,8900032,,,2025-11-18,清算の結了等,,,2015-10-05,1,,,,,カゴシマケントショキョウザイハンバイ,0
1843,7380005012608,登記記録の閉鎖等,0,2025-11-26,2025-11-17,一般社団法人里山創生やぶき,,その他の設立登記法人,福島県,西白河郡矢吹町,滝八幡２番地,,07,466,9690284,,,2025-11-17,清算の結了等,,,2022-08-09,1,,,,,サトヤマソウセイヤブキ,0
1856,7430003015417,登記記録の閉鎖等,0,2025-11-26,2025-11-17,合同会社コマイヌ,,合同会社,北海道,札幌市清田区,清田二条１丁目６番２１－４０２号,,01,110,0040842,,,2025-11-17,清算の結了等,,,2023-09-15,1,,,,,コマイヌ,0
1859,7470002015364,登記記録の閉鎖等,0,2025-11-26,2025-11-21,有限会社ワカバ開発,,有限会社,香川県,坂出市,林田町２８５１番地２４７,,37,203,7620012,,,2025-11-21,清算の結了等,,,2015-10-05,1,,,,,ワカバカイハツ,0
1861,7500001016070,登記記録の閉鎖等,0,2025-11-26,2025-11-13,株式会社シャローム・ハート,,株式会社,愛媛県,宇和島市,津島町下畑地甲１５９４番地,,38,203,7983321,,,2025-11-13,清算の結了等,,,2015-10-05,1,,,,,シャロームハート,0
1877,8010005029407,登記記録の閉鎖等,0,2025-11-26,2025-11-21,一般社団法人ＤｅｖＯｐｓＤａｙｓＴｏｋｙｏ,,その他の設立登記法人,東京都,千代田区,神田佐久間町３丁目６番地,,13,101,1010025,,,2025-11-21,清算の結了等,,,2018-11-27,1,,,,,デプオプスデイズトウキョウ,0
1882,8010401169608,登記記録の閉鎖等,0,2025-11-26,2025-11-04,株式会社シーカーズポート,,株式会社,東京都,港区,六本木３丁目２番１号,,13,103,1060032,,,2025-11-04,合併による解散等,2011001067406,令和７年１１月１日東京都港区六本木三丁目２番１号株式会社ティファレト（2011001067406）に合併し解散,2022-09-12,1,,,,,シーカーズポート,0
1896,8010501046665,登記記録の閉鎖等,0,2025-11-26,2025-11-19,株式会社シティアイナーシングサービス,,株式会社,東京都,台東区,東上野３丁目１５番１２号,,13,106,1100015,,,2025-11-19,清算の結了等,,,2020-12-16,1,,,,,シティアイナーシングサービス,0
1908,8010901017984,登記記録の閉鎖等,0,2025-11-26,2025-11-20,株式会社エスアンドエー,,株式会社,東京都,世田谷区,代田５丁目３４番１７号ロイヤルハイツ３０７,,13,112,1550033,,,2025-11-20,合併による解散等,5011801000298,令和７年１１月１日東京都葛飾区亀有五丁目２１番５号飯塚工業株式会社（5011801000298）に合併し解散,2015-10-05,1,,,,,エスアンドエー,0
1909,8010901044616,登記記録の閉鎖等,0,2025-11-26,2025-11-17,株式会社ｃｏｋｏｗｉｌｌ,,株式会社,東京都,世田谷区,玉川３丁目２０番２号マノア玉川第３ビル５０１号室,,13,112,1580094,,,2025-11-17,清算の結了等,,,2019-08-01,1,,,,,ココウィル,0
1934,8011602009866,登記記録の閉鎖等,0,2025-11-26,2025-11-21,有限会社インターキャスト,,有限会社,東京都,練馬区,田柄４丁目１０番２５号,,13,120,1790073,,,2025-11-21,清算の結了等,,,2015-10-05,1,,,,,インターキャスト,0
1972,8030001134332,登記記録の閉鎖等,0,2025-11-26,2025-11-18,Ｓｕｒｖｅｌｉｏｎ株式会社,,株式会社,埼玉県,川口市,西川口２丁目１４－２６，アレッサ仁志１０３号室,,11,203,3320021,,,2025-11-18,清算の結了等,,,2019-12-27,1,,,,,サーベリオン,0
1989,8040005016071,登記記録の閉鎖等,0,2025-11-26,2025-10-28,大原水産加工業協同組合,,その他の設立登記法人,千葉県,いすみ市,大原１１４９７番地,,12,238,2980004,,,2025-10-28,清算の結了等,,,2015-10-05,1,,,,,オオハラスイサンカコウギョウ,0
2005,8080401024112,登記記録の閉鎖等,0,2025-11-26,2025-11-21,株式会社Ｍ．Ｓ．Ｃ輸送,,株式会社,静岡県,磐田市,富丘８５８番地１,,22,211,4380803,,,2025-11-21,清算の結了等,,,2020-02-06,1,,,,,エムエスシーユソウ,0
2007,8080405006288,登記記録の閉鎖等,0,2025-11-26,2025-11-18,特定非営利活動法人浜松・百姓のチカラ,,その他の設立登記法人,静岡県,浜松市浜名区,細江町中川１１９０番地の１,,22,139,4311304,,,2025-11-18,清算の結了等,,,2015-10-05,1,,,,,ハママツヒャクショウノチカラ,0
2009,8090002012738,登記記録の閉鎖等,0,2025-11-26,2025-11-20,有限会社武藤設備工業所,,有限会社,山梨県,富士吉田市,上吉田３丁目２番１５号,,19,202,4030005,,,2025-11-20,清算の結了等,,,2015-10-05,1,,,,,ムトウセツビコウギョウショ,0
2010,8100001023701,登記記録の閉鎖等,0,2025-11-26,2025-11-20,株式会社諏訪菜,,株式会社,長野県,茅野市,ちの１７６番地５,,20,214,3910001,,,2025-11-20,清算の結了等,,,2015-10-05,1,,,,,スワナ,0
2026,8120901047673,登記記録の閉鎖等,0,2025-11-26,2025-11-10,株式会社識彩,,株式会社,大阪府,吹田市,内本町１丁目２番７号Ａｎｄｏ．Ａ．Ｐ３ａ,,27,205,5640032,,,2025-11-10,清算の結了等,,,2023-06-21,1,,,,,シキサイ,0
2028,8120902020522,登記記録の閉鎖等,0,2025-11-26,2025-11-20,有限会社ノバテックトラスティ,,有限会社,大阪府,豊中市,名神口３丁目１番３１号,,27,203,5610841,,,2025-11-20,清算の結了等,,,2015-10-05,1,,,,,,0
2030,8122003002730,登記記録の閉鎖等,0,2025-11-26,2025-11-13,合同会社六文銭,,合同会社,大阪府,東大阪市,永和１丁目２６番２０－７０２号,,27,227,5770809,,,2025-11-13,清算の結了等,,,2023-11-14,1,,,,,ロクモンセン,0
2033,8140001109018,登記記録の閉鎖等,0,2025-11-26,2025-11-17,株式会社ビオラボ,,株式会社,兵庫県,神戸市長田区,苅藻通１丁目４番９号,,28,106,6530032,,,2025-11-17,合併による解散等,4180001130320,令和７年１１月１５日神戸市中央区御幸通八丁目１番６号株式会社ＧＥホールディングス（4180001130320）に合併し解散,2018-02-14,1,,,,,ビオラボ,0
2042,8140005024709,登記記録の閉鎖等,0,2025-11-26,2025-11-20,一般社団法人須磨海岸の魅力推進協議会,,その他の設立登記法人,兵庫県,神戸市長田区,浪松町５丁目１番１９号,,28,106,6530055,,,2025-11-20,清算の結了等,,,2019-07-19,1,,,,,スマカイガンノミリョクスイシンキョウギカイ,0
2045,8160001023687,登記記録の閉鎖等,0,2025-11-26,2025-11-17,ＳＧ株式会社,,株式会社,滋賀県,栗東市,川辺３３１番地９,,25,208,5203014,,,2025-11-17,清算の結了等,,,2021-10-04,1,,,,,エスジー,0
2057,8180002001681,登記記録の閉鎖等,0,2025-11-26,2025-11-18,有限会社山光,,有限会社,愛知県,名古屋市守山区,村前町１５４番地,,23,113,4630082,,,2025-11-18,清算の結了等,,,2015-10-05,1,,,,,サンコウ,0
2060,8180003025688,登記記録の閉鎖等,0,2025-11-26,2025-11-19,Ｊｉｎ合同会社,,合同会社,愛知県,尾張旭市,東大道町原田２６７２－７－Ｋ１０３,,23,226,4880801,,,2025-11-19,清算の結了等,,,2023-09-13,1,,,,,ジン,0
2062,8180301000418,登記記録の閉鎖等,0,2025-11-26,2025-11-11,オートセンター豊橋株式会社,,株式会社,愛知県,岡崎市,大平町字市木２８番地,,23,202,4440007,,,2025-11-11,合併による解散等,7180301002266,令和７年１１月１日愛知県岡崎市藤川町字境松西１番地株式会社レッドバロン（7180301002266）に合併し解散,2015-10-05,1,,,,,オートセンタートヨハシ,0
2063,8180301000426,登記記録の閉鎖等,0,2025-11-26,2025-11-11,オートセンター富士株式会社,,株式会社,愛知県,岡崎市,大平町字市木２８番地,,23,202,4440007,,,2025-11-11,合併による解散等,7180301002266,令和７年１１月１日愛知県岡崎市藤川町字境松西１番地株式会社レッドバロン（7180301002266）に合併し解散,2015-10-05,1,,,,,オートセンターフジ,0
2064,8180301002372,登記記録の閉鎖等,0,2025-11-26,2025-11-11,レッドバロン和歌山株式会社,,株式会社,愛知県,岡崎市,大平町字市木２８番地,,23,202,4440007,,,2025-11-11,合併による解散等,7180301002266,令和７年１１月１日愛知県岡崎市藤川町字境松西１番地株式会社レッドバロン（7180301002266）に合併し解散,2015-10-05,1,,,,,レッドバロンワカヤマ,0
2065,8180301002554,登記記録の閉鎖等,0,2025-11-26,2025-11-11,レッドバロン八幡株式会社,,株式会社,愛知県,岡崎市,大平町字市木２８番地,,23,202,4440007,,,2025-11-11,合併による解散等,7180301002266,令和７年１１月１日愛知県岡崎市藤川町字境松西１番地株式会社レッドバロン（7180301002266）に合併し解散,2015-10-05,1,,,,,レッドバロンヤハタ,0
2066,8180301012520,登記記録の閉鎖等,0,2025-11-26,2025-11-11,レッドバロン府中株式会社,,株式会社,愛知県,岡崎市,大平町字市木２８番地,,23,202,4440007,,,2025-11-11,合併による解散等,7180301002266,令和７年１１月１日愛知県岡崎市藤川町字境松西１番地株式会社レッドバロン（7180301002266）に合併し解散,2015-10-05,1,,,,,レッドバロンフチュウ,0
2069,8180302003287,登記記録の閉鎖等,0,2025-11-26,2025-11-11,レッドバロン平塚有限会社,,有限会社,愛知県,岡崎市,大平町字市木２８番地,,23,202,4440007,,,2025-11-11,合併による解散等,7180301002266,令和７年１１月１日愛知県岡崎市藤川町字境松西１番地株式会社レッドバロン（7180301002266）に合併し解散,2015-10-05,1,,,,,レッドバロンヒラツカ,0
2070,8180302017964,登記記録の閉鎖等,0,2025-11-26,2025-11-20,有限会社ウッド,,有限会社,愛知県,刈谷市,新栄町７丁目４２番地１ユーハウス第５刈谷２０５号,,23,210,4480843,,,2025-11-20,清算の結了等,,,2015-10-05,1,,,,,ウッド,0
2078,8190001003637,登記記録の閉鎖等,0,2025-11-26,2025-11-20,アルバデント株式会社,,株式会社,三重県,津市,大里川北町４０１番地の２１,,24,201,5140124,,,2025-11-20,清算の結了等,,,2015-10-05,1,,,,,アルバデント,0
2085,8200002009474,登記記録の閉鎖等,0,2025-11-26,2025-11-21,有限会社河村青果,,有限会社,岐阜県,本巣市,北野１５０番地の２,,21,218,5010403,,,2025-11-21,清算の結了等,,,2015-10-05,1,,,,,コウムラセイカ,0
2087,8210001013781,登記記録の閉鎖等,0,2025-11-26,2025-11-20,株式会社エーリンクサービス,,株式会社,福井県,鯖江市,吉谷町第１６号５２番地１,,18,207,9161105,,,2025-11-20,合併による解散等,7010601063198,令和７年１１月１日東京都江東区枝川一丁目１０番２４号株式会社ラクスルファクトリー（7010601063198）に合併し解散,2015-10-05,1,,,,,エーリンクサービス,0
2088,8220002016171,登記記録の閉鎖等,0,2025-11-26,2025-11-21,有限会社西石材,,有限会社,石川県,珠洲市,正院町正院を部２４番地１,,17,205,9271206,,,2025-11-21,清算の結了等,,,2015-10-05,1,,,,,ニシセキザイ,0
2090,8240001033182,登記記録の閉鎖等,0,2025-11-26,2025-11-21,ロイヤル株式会社,,株式会社,広島県,福山市,光南町１丁目１０番３２号,,34,207,7200814,,,2025-11-21,清算の結了等,,,2015-10-05,1,,,,,ロイヤル,0
2182,9010505001806,登記記録の閉鎖等,0,2025-11-26,2025-11-17,一般社団法人ＡＧＴホールディングス,,その他の設立登記法人,東京都,台東区,東上野２丁目１番１３号,,13,106,1100015,,,2025-11-17,清算の結了等,,,2015-10-05,1,,,,,エージーティーホールディングス,0
2213,9011802026479,登記記録の閉鎖等,0,2025-11-26,2025-11-25,有限会社サイトー住設,,有限会社,東京都,足立区,興野２丁目３０番３３号,,13,121,1230844,,,2025-11-25,清算の結了等,,,2015-10-05,1,,,,,サイトージュウセツ,0
2214,9012301005692,登記記録の閉鎖等,0,2025-11-26,2025-11-12,株式会社地研,,株式会社,東京都,町田市,広袴３丁目３２番１０号,,13,209,1950056,,,2025-11-12,清算の結了等,,,2015-10-05,1,,,,,チケン,0
2219,9012701014186,登記記録の閉鎖等,0,2025-11-26,2025-11-18,株式会社マシーネ,,株式会社,東京都,西東京市,向台町１丁目１番４号,,13,229,1880013,,,2025-11-18,清算の結了等,,,2017-03-14,1,,,,,マシーネ,0
2220,9012803003095,登記記録の閉鎖等,0,2025-11-26,2025-11-17,株式会社英智エデュケーション,,株式会社,東京都,国分寺市,南町３丁目２３番４号第三浦野ビル３階,,13,214,1850021,,,2025-11-17,清算の結了等,,,2023-06-15,1,,,,,エイチエデュケーション,0
2226,9013402007090,登記記録の閉鎖等,0,2025-11-26,2025-11-13,株式会社ベルパレット,,株式会社,東京都,多摩市,永山６丁目３０番地の１,,13,224,2060025,,,2025-11-13,合併による解散等,3013401001018,令和７年１０月３０日東京都多摩市永山六丁目３０番地の１ウッドベル株式会社（3013401001018）に合併し解散,2015-10-05,1,,,,,ベルパレット,0
2234,9020003011810,登記記録の閉鎖等,0,2025-11-26,2025-11-04,ラウンド合同会社,,合同会社,神奈川県,横浜市磯子区,洋光台３丁目１３番５－５０２号,,14,107,2350045,,,2025-11-04,清算の結了等,,,2016-09-20,1,,,,,ラウンド,0
2238,9021001062630,登記記録の閉鎖等,0,2025-11-26,2025-11-07,株式会社ハローマーケティング,,株式会社,神奈川県,横浜市鶴見区,鶴見中央５丁目１１番２－１０３号,,14,101,2300051,,,2025-11-07,清算の結了等,,,2017-07-19,1,,,,,ハローマーケティング,0
2249,9030003017815,登記記録の閉鎖等,0,2025-11-26,2025-11-12,合同会社ＳｔｏｒｙＣｏｌｏｒ,,合同会社,埼玉県,さいたま市岩槻区,大字岩槻４９４７－１,,11,110,3390061,,,2025-11-12,清算の結了等,,,2021-08-20,1,,,,,ストーリーカラー,0
2252,9030005004209,登記記録の閉鎖等,0,2025-11-26,2025-11-18,特定非営利活動法人彩の国ＧＩＳ研究所,,その他の設立登記法人,埼玉県,狭山市,入間川１丁目１４番２２号,,11,215,3501305,,,2025-11-18,清算の結了等,,,2015-10-05,1,,,,,サイノクニジーアイエスケンキュウショ,0
2253,9030005020494,登記記録の閉鎖等,0,2025-11-26,2025-11-13,特定非営利活動法人エシカルプロジェクト,,その他の設立登記法人,埼玉県,本庄市,児玉町共栄５４９番地３ＩＳハイツ１Ｆ,,11,211,3670206,,,2025-11-13,清算の結了等,,,2021-09-02,1,,,,,エシカルプロジェクト,0
2254,9040001047367,登記記録の閉鎖等,0,2025-11-26,2025-11-07,株式会社桐和設計,,株式会社,千葉県,四街道市,池花１丁目１４番８号,,12,228,2840014,,,2025-11-07,清算の結了等,,,2015-10-05,1,,,,,トウワセッケイ,0
2256,9040001097354,登記記録の閉鎖等,0,2025-11-26,2025-10-24,株式会社おおたかの森医療開発,,株式会社,千葉県,流山市,西初石４丁目４６２番地の５アルカンシエルフォレＩ－２０３,00108160,12,220,2700121,,,2025-10-24,清算の結了等,,,2016-10-21,1,,,,,オオタカノモリイリョウカイハツ,0
2271,9100001006110,登記記録の閉鎖等,0,2025-11-26,2025-11-20,株式会社和組,,株式会社,長野県,千曲市,大字内川９５８番地,,20,218,3890802,,,2025-11-20,清算の結了等,,,2015-10-05,1,,,,,カノウグミ,0
2282,9120001265935,登記記録の閉鎖等,0,2025-11-26,2025-08-01,株式会社ＨＩＣデジタルソリューション,,株式会社,大阪府,大阪市北区,豊崎１丁目１１番１９号,,27,127,5310072,,,2025-08-01,合併による解散等,5120001229506,令和７年５月３１日東京都品川区東五反田五丁目２５番１８号株式会社ＨＩＣ（5120001229506）に合併し解散,2024-06-17,1,,,,,エイチアイシーデジタルソリューション,0
2287,9120102025734,登記記録の閉鎖等,0,2025-11-26,2025-11-13,有限会社岩谷電設,,有限会社,大阪府,泉大津市,松之浜町２丁目１３番１号,,27,206,5950072,,,2025-11-13,清算の結了等,,,2015-10-05,1,,,,,イワタニデンセツ,0
2314,9150002007524,登記記録の閉鎖等,0,2025-11-26,2025-11-20,有限会社島津時計店,,有限会社,奈良県,橿原市,木原町５番地の５,,29,205,6340004,,,2025-11-20,清算の結了等,,,2015-10-05,1,,,,,シマヅトケイテン,0
2321,9180002066699,登記記録の閉鎖等,0,2025-11-26,2025-11-17,東亜建設有限会社,,有限会社,愛知県,春日井市,藤山台８丁目１番地の２,,23,206,4870035,,,2025-11-17,清算の結了等,,,2015-10-05,1,,,,,トウアケンセツ,0
2325,9180301000243,登記記録の閉鎖等,0,2025-11-26,2025-11-11,株式会社ウイル,,株式会社,愛知県,岡崎市,大平町字市木２８番地,,23,202,4440007,,,2025-11-11,合併による解散等,7180301002266,令和７年１１月１日愛知県岡崎市藤川町字境松西１番地株式会社レッドバロン（7180301002266）に合併し解散,2015-10-05,1,,,,,ウイル,0
2326,9180301000417,登記記録の閉鎖等,0,2025-11-26,2025-11-11,オートセンター豊田株式会社,,株式会社,愛知県,岡崎市,大平町字市木２８番地,,23,202,4440007,,,2025-11-11,合併による解散等,7180301002266,令和７年１１月１日愛知県岡崎市藤川町字境松西１番地株式会社レッドバロン（7180301002266）に合併し解散,2015-10-05,1,,,,,オートセンタートヨタ,0
2327,9180301000425,登記記録の閉鎖等,0,2025-11-26,2025-11-11,オートセンター博多株式会社,,株式会社,愛知県,岡崎市,大平町字市木２８番地,,23,202,4440007,,,2025-11-11,合併による解散等,7180301002266,令和７年１１月１日愛知県岡崎市藤川町字境松西１番地株式会社レッドバロン（7180301002266）に合併し解散,2015-10-05,1,,,,,オートセンターハカタ,0
2328,9180301005102,登記記録の閉鎖等,0,2025-11-26,2025-11-25,株式会社一声社,,株式会社,愛知県,豊橋市,つつじが丘３丁目３６番地の４,,23,201,4400858,,,2025-11-25,清算の結了等,,,2015-10-05,1,,,,,イッセイシャ,0
2329,9180302003245,登記記録の閉鎖等,0,2025-11-26,2025-11-11,レッドバロン旭川有限会社,,有限会社,愛知県,岡崎市,大平町字市木２８番地,,23,202,4440007,,,2025-11-11,合併による解散等,7180301002266,令和７年１１月１日愛知県岡崎市藤川町字境松西１番地株式会社レッドバロン（7180301002266）に合併し解散,2015-10-05,1,,,,,レッドバロンアサヒカワ,0
2330,9180302003253,登記記録の閉鎖等,0,2025-11-26,2025-11-11,レッドバロン春日井有限会社,,有限会社,愛知県,岡崎市,大平町字市木２８番地,,23,202,4440007,,,2025-11-11,合併による解散等,7180301002266,令和７年１１月１日愛知県岡崎市藤川町字境松西１番地株式会社レッドバロン（7180301002266）に合併し解散,2015-10-05,1,,,,,レッドバロンカスガイ,0
2331,9180302003261,登記記録の閉鎖等,0,2025-11-26,2025-11-11,レッドバロン佐賀有限会社,,有限会社,愛知県,岡崎市,大平町字市木２８番地,,23,202,4440007,,,2025-11-11,合併による解散等,7180301002266,令和７年１１月１日愛知県岡崎市藤川町字境松西１番地株式会社レッドバロン（7180301002266）に合併し解散,2015-10-05,1,,,,,レッドバロンサガ,0
2340,9220005000147,登記記録の閉鎖等,0,2025-11-26,2025-11-19,一般社団法人北陸自動車無線協会,,その他の設立登記法人,石川県,金沢市,尾山町９番１３号金沢商工会議所会館３階,,17,201,9200918,,,2025-11-19,清算の結了等,,,2015-10-05,1,,,,,ホクリクジドウシャムセンキョウカイ,0
2347,9250005003378,登記記録の閉鎖等,0,2025-11-26,2025-11-21,川棚温泉観光旅館協同組合,,その他の設立登記法人,山口県,下関市,豊浦町大字川棚５１３９番地,,35,201,7596301,,,2025-11-21,清算の結了等,,,2015-10-05,1,,,,,カワタナオンセンカンコウリョカン,0
2350,9280002002611,登記記録の閉鎖等,0,2025-11-26,2025-11-19,有限会社味浩,,有限会社,島根県,松江市,鹿島町恵曇４番地５,,32,201,6900322,,,2025-11-19,清算の結了等,,,2015-10-05,1,,,,,アジヒロ,0
2368,9370601003018,登記記録の閉鎖等,0,2025-11-26,2025-11-18,株式会社ＫＤＳ,,株式会社,宮城県,宮城郡利府町,青葉台２丁目１番地２６３,,04,406,9810133,,,2025-11-18,清算の結了等,,,2015-10-05,1,,,,,ケイディーエス,0
2369,9380001017055,登記記録の閉鎖等,0,2025-11-26,2025-11-20,鹿島建工業株式会社,,株式会社,福島県,いわき市,四倉町字東三丁目１４７番地,,07,204,9790201,,,2025-11-20,清算の結了等,,,2015-10-05,1,,,,,,0
2370,9380002024983,登記記録の閉鎖等,0,2025-11-26,2025-11-20,有限会社東匠,,有限会社,福島県,いわき市,鹿島町久保１丁目１番地の３,,07,204,9718144,,,2025-11-20,清算の結了等,,,2015-10-05,1,,,,,,0
2378,9430002053317,登記記録の閉鎖等,0,2025-11-26,2025-11-20,有限会社吉川商事,,有限会社,北海道,芦別市,北一条西１丁目１０番地,,01,216,0750001,,,2025-11-20,清算の結了等,,,2015-10-05,1,,,,,ヨシカワショウジ,0
2379,9430003013807,登記記録の閉鎖等,0,2025-11-26,2025-11-25,合同会社フーズラヴィやました,,合同会社,北海道,北見市,北三条西６丁目１１番地１ロイヤルハイツ石北通り３－Ｄ号,,01,208,0900043,,,2025-11-25,清算の結了等,,,2022-04-14,1,,,,,フーズラヴィヤマシタ,0
2380,9430005012674,登記記録の閉鎖等,0,2025-11-26,2025-11-20,特定非営利活動法人外国人スキー支援ネットワーク,,その他の設立登記法人,北海道,札幌市南区,真駒内緑町４丁目１番２３－２０２号,,01,106,0050013,,,2025-11-20,清算の結了等,,,2016-01-06,1,,,,,ガイコクジンスキーシエンネットワーク,0
