sequenceNumber,corporateNumber,process,correct,updateDate,changeDate,name,nameImageId,kind,prefectureName,cityName,streetNumber,addressImageId,prefectureCode,cityCode,postCode,addressOutside,addressOutsideImageId,closeDate,closeCause,successorCorporateNumber,changeCause,assignmentDate,latest,enName,enPrefectureName,enCityName,enAddressOutside,furigana,hihyoji
17,1010401024975,登記記録の閉鎖等,0,2022-11-01,2022-10-13,株式会社一ツ木不動産,00050658,株式会社,東京都,港区,赤坂３丁目１７番８号都ビル４０２号,,13,103,1070052,,,2022-10-13,清算の結了等,,,2015-10-05,1,,,,,ヒトツギフドウサン,0
28,1010403011848,登記記録の閉鎖等,0,2022-11-01,2022-10-13,合同会社宇佐スマートソーラー,,合同会社,東京都,港区,赤坂１丁目９番１３号,,13,103,1070052,,,2022-10-13,清算の結了等,,,2015-10-05,1,,,,,,0
31,1010503005642,登記記録の閉鎖等,0,2022-11-01,2022-10-31,Ｒａｙａｎｎ　Ｃａｐｉｔａｌ合同会社,,合同会社,東京都,台東区,寿３丁目９－３丸大自動車ビル２Ｆ－７号室,,13,106,1110042,,,2022-10-31,清算の結了等,,,2019-07-17,1,,,,,レイアンキャピタル,0
64,1011001127375,登記記録の閉鎖等,0,2022-11-01,2022-10-20,株式会社フェアスタディズグロース,,株式会社,東京都,渋谷区,上原１丁目３番９号,,13,113,1510064,,,2022-10-20,清算の結了等,,,2019-04-05,1,,,,,フェアスタディズグロース,0
73,1011002009795,登記記録の閉鎖等,0,2022-11-01,2022-10-24,有限会社バク,,有限会社,東京都,渋谷区,東１丁目２３番４号,,13,113,1500011,,,2022-10-24,清算の結了等,,,2015-10-05,1,,,,,バク,0
86,1011301017986,登記記録の閉鎖等,0,2022-11-01,2022-10-27,株式会社クリエイティブ・ソリューションズ,,株式会社,東京都,江戸川区,北葛西４丁目１４番１号,,13,123,1340081,,,2022-10-27,合併による解散等,3011001114099,令和４年１０月１日東京都目黒区青葉台二丁目１９番１０号株式会社アセッツ・パートナーズ（3011001114099）に合併し解散,2015-10-05,1,,,,,クリエイティブソリューションズ,0
104,1013301027676,登記記録の閉鎖等,0,2022-11-01,2022-10-27,福島サークル・ソーイング株式会社,,株式会社,東京都,豊島区,南大塚３丁目３８番１５号シャトーセイシェル２階,,13,116,1700005,,,2022-10-27,清算の結了等,,,2015-10-05,1,,,,,フクシマサークルソーイング,0
122,1021002003070,登記記録の閉鎖等,0,2022-11-01,2022-10-04,有限会社ソニック,,有限会社,神奈川県,藤沢市,鵠沼石上１丁目１３番１３～８０５号,00012920,14,205,2510025,,,2022-10-04,清算の結了等,,,2015-10-05,1,,,,,ソニック,0
141,1040001101057,登記記録の閉鎖等,0,2022-11-01,2022-10-24,株式会社祥巧,00110899,株式会社,千葉県,八千代市,大和田新田３５２番地３１１,,12,221,2760046,,,2022-10-24,清算の結了等,,,2017-07-24,1,,,,,ショウコウ,0
145,1040001120957,登記記録の閉鎖等,0,2022-11-01,2022-10-20,ｗｉｌｌａｒｔｓ株式会社,,株式会社,千葉県,松戸市,本町１７番地１１芹澤ビル６Ｆ,,12,207,2710091,,,2022-10-20,清算の結了等,,,2021-11-12,1,,,,,ウイルアーツ,0
152,1040003012525,登記記録の閉鎖等,0,2022-11-01,2022-10-03,ワン・ライフ合同会社,,合同会社,千葉県,松戸市,六高台４丁目１３２番１８号,,12,207,2702203,,,2022-10-03,合併による解散等,9040001124827,令和４年１０月１日千葉県松戸市新松戸三丁目３番地１株式会社よつば（9040001124827）に合併し解散,2018-11-28,1,,,,,ワンライフ,0
157,1060001012491,登記記録の閉鎖等,0,2022-11-01,2022-10-26,株式会社こめや,,株式会社,栃木県,那須塩原市,一区町２３７番地１０,,09,213,3292732,,,2022-10-26,清算の結了等,,,2015-10-05,1,,,,,コメヤ,0
158,1060001023043,登記記録の閉鎖等,0,2022-11-01,2022-10-26,株式会社ゆかりファーム,,株式会社,栃木県,小山市,東間々田２丁目１０４番地７,,09,208,3290206,,,2022-10-26,清算の結了等,,,2015-10-05,1,,,,,ユカリファーム,0
159,1070001003102,登記記録の閉鎖等,0,2022-11-01,2022-10-26,株式会社丸大オヲツヤ商店,,株式会社,群馬県,前橋市,東片貝町４７２番地の１,,10,201,3710012,,,2022-10-26,清算の結了等,,,2015-10-05,1,,,,,,0
162,1080003001598,登記記録の閉鎖等,0,2022-11-01,2022-10-31,合同会社ＧＬＰ,,合同会社,静岡県,静岡市葵区,瀬名１丁目２７番１９号フロイデミーツＩＩＩＡ１０５号,00104996,22,101,4200911,,,2022-10-31,清算の結了等,,,2015-10-05,1,,,,,ジーエルピー,0
169,1090001000782,登記記録の閉鎖等,0,2022-11-01,2022-10-27,株式会社小倉袋物店,,株式会社,山梨県,甲府市,中央４丁目４番２９号,,19,201,4000032,,,2022-10-27,清算の結了等,,,2015-10-05,1,,,,,オグラフクロモノテン,0
170,1090001010914,登記記録の閉鎖等,0,2022-11-01,2022-10-27,株式会社渡辺肉店,,株式会社,山梨県,富士吉田市,旭１丁目９番３号,,19,202,4030012,,,2022-10-27,清算の結了等,,,2015-10-05,1,,,,,ワタナベニクテン,0
172,1100005010462,登記記録の閉鎖等,0,2022-11-01,2022-10-27,特定非営利活動法人八ヶ岳スーパートレイルクラブ,,その他の設立登記法人,長野県,茅野市,玉川１１４００番地６６４,,20,214,3910011,,,2022-10-27,清算の結了等,,,2015-10-05,1,,,,,ヤツガタケスーパートレイルクラブ,0
174,1120001013640,登記記録の閉鎖等,0,2022-11-01,2022-10-28,松井商事株式会社,,株式会社,大阪府,大阪市東成区,深江北１丁目３番２２号,,27,115,5370001,,,2022-10-28,清算の結了等,,,2015-10-05,1,,,,,マツイショウジ,0
200,1120901036781,登記記録の閉鎖等,0,2022-11-01,2022-10-31,株式会社ＫＤＭ,,株式会社,大阪府,茨木市,耳原２丁目１８番１０号,,27,211,5670006,,,2022-10-31,清算の結了等,,,2016-04-12,1,,,,,ケーディーエム,0
223,1140005001276,登記記録の閉鎖等,0,2022-11-01,2022-10-13,天理教千尋分教会,,その他の設立登記法人,兵庫県,神戸市兵庫区,熊野町５丁目１４番６号,,28,105,6520064,,,2022-10-13,合併による解散等,1470005002670,令和４年１０月１１日香川県丸亀市本島町泊２６８番地天理教本島大教会（1470005002670）に合併し解散,2015-10-05,1,,,,,テンリキョウチヒロブンキョウカイ,0
227,1180001042469,登記記録の閉鎖等,0,2022-11-01,2022-10-26,ニッコアイエム株式会社,,株式会社,岐阜県,瑞浪市,明世町月吉９３１番地の１,,21,208,5096131,,,2022-10-26,清算の結了等,,,2015-10-05,1,,,,,ニッコアイエム,0
237,1180303000133,登記記録の閉鎖等,0,2022-11-01,2022-10-25,合資会社かじ吉商店,,合資会社,愛知県,岡崎市,福岡町字北西仲１９番地,,23,202,4440825,,,2022-10-25,清算の結了等,,,2015-10-05,1,,,,,カジキチショウテン,0
242,1190002022527,登記記録の閉鎖等,0,2022-11-01,2022-10-28,有限会社山大プロパン,,有限会社,三重県,四日市市,西富田町１６４番地,,24,202,5108024,,,2022-10-28,清算の結了等,,,2015-10-05,1,,,,,,0
249,1210002004737,登記記録の閉鎖等,0,2022-11-01,2022-10-27,有限会社ヒロテック,,有限会社,福井県,福井市,中手町第７号２６番地,,18,201,9102464,,,2022-10-27,清算の結了等,,,2015-10-05,1,,,,,ヒロテック,0
256,1240001003662,登記記録の閉鎖等,0,2022-11-01,2022-10-28,株式会社コムテック広島,,株式会社,広島県,広島市南区,的場町１丁目５番５号,,34,103,7320824,,,2022-10-28,清算の結了等,,,2015-10-05,1,,,,,コムテックヒロシマ,0
259,1240001033965,登記記録の閉鎖等,0,2022-11-01,2022-10-26,神石機械株式会社,,株式会社,広島県,神石郡神石高原町,油木乙１６２６番地の１,,34,545,7201812,,,2022-10-26,清算の結了等,,,2015-10-05,1,,,,,ジンセキキカイ,0
260,1240001034492,登記記録の閉鎖等,0,2022-11-01,2022-10-26,甲奴機械株式会社,,株式会社,広島県,府中市,上下町上下１４１１番地の１,,34,208,7293431,,,2022-10-26,清算の結了等,,,2015-10-05,1,,,,,コウヌキカイ,0
271,1270002010969,登記記録の閉鎖等,0,2022-11-01,2022-10-28,有限会社グロウ,,有限会社,鳥取県,東伯郡三朝町,大字大瀬２１１９番地３,,31,364,6820121,,,2022-10-28,清算の結了等,,,2015-10-05,1,,,,,グロウ,0
272,1270005004927,登記記録の閉鎖等,0,2022-11-01,2022-10-27,一般財団法人うなばら福祉事業団,,その他の設立登記法人,鳥取県,西伯郡日吉津村,大字日吉津８７２番地１５,,31,384,6893553,,,2022-10-27,清算の結了等,,,2015-10-05,1,,,,,ウナバラフクシジギョウダン,0
273,1280002002890,登記記録の閉鎖等,0,2022-11-01,2022-10-24,有限会社ニチクボ工業,,有限会社,島根県,松江市,東出雲町揖屋２０２番地３,,32,201,6990101,,,2022-10-24,清算の結了等,,,2015-10-05,1,,,,,ニチクボコウギョウ,0
284,1290001095126,登記記録の閉鎖等,0,2022-11-01,2022-10-27,株式会社ユニバーサル・ブレイン,,株式会社,福岡県,福岡市中央区,大名２丁目４番２２号,,40,133,8100041,,,2022-10-27,合併による解散等,8010003038665,令和４年１０月１４日東京都文京区本郷五丁目２５番１８号合同会社ユニバーサル・ブレイン（8010003038665）に合併し解散,2021-10-26,1,,,,,ユニバーサルブレイン,0
285,1290002032739,登記記録の閉鎖等,0,2022-11-01,2022-10-27,有限会社しげとみ,,有限会社,福岡県,糸島市,荻浦２丁目１４番８号,,40,230,8191121,,,2022-10-27,清算の結了等,,,2015-10-05,1,,,,,シゲトミ,0
295,1350005002170,登記記録の閉鎖等,0,2022-11-01,2022-10-28,特定非営利活動法人ゆうあい川南,,その他の設立登記法人,宮崎県,児湯郡川南町,大字川南９３７８番地３,,45,405,8891301,,,2022-10-28,清算の結了等,,,2015-10-05,1,,,,,ユウアイカワミナミ,0
300,1370302001583,登記記録の閉鎖等,0,2022-11-01,2022-10-24,有限会社武山住宅,,有限会社,宮城県,石巻市,相野谷字飯野川町１６１番地４,,04,202,9860101,,,2022-10-24,清算の結了等,,,2015-10-05,1,,,,,タケヤマジュウタク,0
307,1430001065205,登記記録の閉鎖等,0,2022-11-01,2022-10-24,ＩＫＩ株式会社,,株式会社,北海道,虻田郡倶知安町,字山田１７９番地８,,01,400,0440081,,,2022-10-24,清算の結了等,,,2015-10-05,1,,,,,,0
331,2010001161516,登記記録の閉鎖等,0,2022-11-01,2022-10-27,株式会社ジー・エム・ティー,,株式会社,東京都,千代田区,神田佐久間町３丁目２１番地５ヒガシカンダビル３０７号,,13,101,1010025,,,2022-10-27,合併による解散等,3011001114099,令和４年１０月１日東京都目黒区青葉台二丁目１９番１０号株式会社アセッツ・パートナーズ（3011001114099）に合併し解散,2015-10-05,1,,,,,,0
338,2010102011446,登記記録の閉鎖等,0,2022-11-01,2022-10-26,有限会社パシフィック海洋調査,,有限会社,神奈川県,川崎市高津区,溝口３丁目２４番７号,,14,134,2130001,,,2022-10-26,清算の結了等,,,2015-10-05,1,,,,,パシフィックカイヨウチョウサ,0
350,2010501044880,登記記録の閉鎖等,0,2022-11-01,2022-10-27,ＶＯＡ株式会社,,株式会社,東京都,文京区,湯島３丁目３９－１武南ビル６階,,13,105,1130034,,,2022-10-27,清算の結了等,,,2019-11-26,1,,,,,ヴィイオーエー,0
356,2010902022568,登記記録の閉鎖等,0,2022-11-01,2022-10-27,株式会社ビーンズ,,株式会社,神奈川県,厚木市,妻田西１丁目２番３号,,14,212,2430815,,,2022-10-27,清算の結了等,,,2015-10-05,1,,,,,ビーンズ,0
377,2012401020656,登記記録の閉鎖等,0,2022-11-01,2022-10-28,株式会社創幹舎,,株式会社,東京都,小金井市,本町２丁目６番１２－２０５号,,13,210,1840004,,,2022-10-28,清算の結了等,,,2015-10-05,1,,,,,ソウカンシャ,0
379,2012801019182,登記記録の閉鎖等,0,2022-11-01,2022-10-24,株式会社ＡＶＡＮＴＩ,,株式会社,東京都,東大和市,桜が丘４丁目２８７番地の２クレイノＫＥＥＰ・ＮＥＸＴＩ－３０６号室,00115405,13,220,2070022,,,2022-10-24,清算の結了等,,,2019-01-08,1,,,,,アヴァンティ,0
428,2070002017711,登記記録の閉鎖等,0,2022-11-01,2022-10-24,有限会社藤岡交通,,有限会社,群馬県,藤岡市,藤岡１７１５番地の４,,10,209,3750024,,,2022-10-24,清算の結了等,,,2015-10-05,1,,,,,フジオカコウツウ,0
431,2080102008155,登記記録の閉鎖等,0,2022-11-01,2022-10-31,有限会社カザミ,,有限会社,静岡県,伊豆の国市,花坂２番地の３,,22,225,4102214,,,2022-10-31,清算の結了等,,,2015-10-05,1,,,,,カザミ,0
433,2080401010472,登記記録の閉鎖等,0,2022-11-01,2022-10-28,株式会社マルソー,,株式会社,静岡県,浜松市浜北区,中瀬６６１６番地の１３,,22,136,4340012,,,2022-10-28,清算の結了等,,,2015-10-05,1,,,,,マルソー,0
434,2110001000119,登記記録の閉鎖等,0,2022-11-01,2022-10-28,株式会社丸勇,,株式会社,新潟県,新潟市西区,大野町２６６９番地,,15,107,9501111,,,2022-10-28,清算の結了等,,,2015-10-05,1,,,,,マルユウ,0
436,2110002034470,登記記録の閉鎖等,0,2022-11-01,2022-10-27,有限会社小林菓子舗,,有限会社,新潟県,佐渡市,中原６６５番地２,,15,224,9521324,,,2022-10-27,清算の結了等,,,2015-10-05,1,,,,,コバヤシカシホ,0
472,2130002029510,登記記録の閉鎖等,0,2022-11-01,2022-10-26,株式会社建匠プランニング,,株式会社,京都府,京都市中京区,西ノ京中御門東町１３１番地オオスミＢＯＸ,,26,104,6048471,,,2022-10-26,清算の結了等,,,2015-10-05,1,,,,,ケンショウプランニング,0
484,2150002003769,登記記録の閉鎖等,0,2022-11-01,2022-10-27,有限会社希望,,有限会社,奈良県,奈良市,秋篠早月町１０番２８－５０９号,,29,201,6310812,,,2022-10-27,清算の結了等,,,2015-10-05,1,,,,,ノゾミ,0
492,2180001024697,登記記録の閉鎖等,0,2022-11-01,2022-10-26,株式会社イシカワ,,株式会社,愛知県,名古屋市西区,見寄町２９番地の３,,23,104,4520839,,,2022-10-26,合併による解散等,2120001021304,令和４年１０月２１日大阪市平野区加美北六丁目１５番１４号ハシダ技研工業株式会社（2120001021304）に合併し解散,2015-10-05,1,,,,,イシカワ,0
500,2180301013747,登記記録の閉鎖等,0,2022-11-01,2022-10-14,株式会社エステート刈谷,,株式会社,愛知県,刈谷市,一里山町新屋敷２７番地,,23,210,4480002,,,2022-10-14,清算の結了等,,,2015-10-05,1,,,,,エステートカリヤ,0
501,2180301032870,登記記録の閉鎖等,0,2022-11-01,2022-10-25,株式会社かかし,,株式会社,愛知県,みよし市,三好町上１００番地,,23,236,4700224,,,2022-10-25,清算の結了等,,,2019-08-14,1,,,,,カカシ,0
502,2180302024207,登記記録の閉鎖等,0,2022-11-01,2022-10-25,有限会社ニシザキ技研,,有限会社,愛知県,豊田市,大池町汐取３９番地１,,23,211,4710058,,,2022-10-25,清算の結了等,,,2015-10-05,1,,,,,ニシザキギケン,0
504,2190001008798,登記記録の閉鎖等,0,2022-11-01,2022-10-28,株式会社坂口印房,,株式会社,三重県,伊賀市,山神５５１番地,,24,216,5180016,,,2022-10-28,清算の結了等,,,2015-10-05,1,,,,,サカグチインボウ,0
512,2200001019372,登記記録の閉鎖等,0,2022-11-01,2022-10-31,株式会社テレディック,,株式会社,岐阜県,岐阜市,都通１丁目１５番地,,21,201,5008309,,,2022-10-31,合併による解散等,1200001003311,令和４年１０月３１日岐阜市都通一丁目１５番地中部事務機株式会社（1200001003311）に合併し解散,2015-10-05,1,,,,,テレディック,0
524,2240002042808,登記記録の閉鎖等,0,2022-11-01,2022-10-31,有限会社フジタカ技研,,有限会社,広島県,福山市,本庄町中３丁目９番７号,,34,207,7200076,,,2022-10-31,清算の結了等,,,2015-10-05,1,,,,,,0
526,2240005008599,登記記録の閉鎖等,0,2022-11-01,2022-10-31,本部陰陽石神社,,その他の設立登記法人,広島県,福山市,今津町７９８番地,,34,207,7290111,,,2022-10-31,清算の結了等,,,2015-10-05,1,,,,,ホンブインヨウセキジンジャ,0
530,2260002016693,登記記録の閉鎖等,0,2022-11-01,2022-10-31,有限会社内田新聞舗,,有限会社,岡山県,倉敷市,茶屋町９０番地,,33,202,7101101,,,2022-10-31,清算の結了等,,,2015-10-05,1,,,,,ウチダシンブンホ,0
537,2290005001863,登記記録の閉鎖等,0,2022-11-01,2022-10-28,医療法人戸次整形外科クリニック,,その他の設立登記法人,福岡県,福岡市中央区,草香江１丁目１番２７号,,40,133,8100045,,,2022-10-28,清算の結了等,,,2015-10-05,1,,,,,ベッキセイケイゲカクリニック,0
540,2290802012435,登記記録の閉鎖等,0,2022-11-01,2022-10-31,有限会社小川印刷,,有限会社,福岡県,北九州市八幡東区,山王１丁目１４番１０号,,40,108,8050017,,,2022-10-31,清算の結了等,,,2015-10-05,1,,,,,,0
544,2340001004154,登記記録の閉鎖等,0,2022-11-01,2022-10-31,三園株式会社,,株式会社,鹿児島県,鹿児島市,西伊敷４丁目１６番４号,,46,201,8900002,,,2022-10-31,清算の結了等,,,2015-10-05,1,,,,,,0
546,2340002002867,登記記録の閉鎖等,0,2022-11-01,2022-10-28,鹿児島石油有限会社,,有限会社,鹿児島県,鹿児島市,上之園町４番地５,,46,201,8900052,,,2022-10-28,清算の結了等,,,2015-10-05,1,,,,,カゴシマセキユ,0
557,2410001001433,登記記録の閉鎖等,0,2022-11-01,2022-10-28,株式会社数寄屋建商,,株式会社,秋田県,秋田市,寺内油田２丁目８番１３号,,05,201,0110903,,,2022-10-28,清算の結了等,,,2015-10-05,1,,,,,スキヤケンショウ,0
590,3010005025699,登記記録の閉鎖等,0,2022-11-01,2022-10-28,地主一般社団法人,,その他の設立登記法人,東京都,千代田区,内神田２丁目２番６号５階あすな会計事務所内,,13,101,1010047,,,2022-10-28,清算の結了等,,,2016-08-26,1,,,,,ジヌシ,0
619,3011001037399,登記記録の閉鎖等,0,2022-11-01,2022-10-14,エア・ウォーター・メディカル株式会社,,株式会社,東京都,品川区,西五反田２丁目１２番３号,,13,109,1410031,,,2022-10-14,合併による解散等,8030001027486,令和４年１０月１日埼玉県狭山市新狭山二丁目１２番２７号株式会社医器研（8030001027486）に合併し解散,2015-10-05,1,,,,,エアウォーターメディカル,0
638,3011502003305,登記記録の閉鎖等,0,2022-11-01,2022-10-25,有限会社セイリョウ工業,,有限会社,東京都,北区,滝野川４丁目２９番１０－Ｂ号,,13,117,1140023,,,2022-10-25,清算の結了等,,,2015-10-05,1,,,,,セイリョウコウギョウ,0
649,3012402008492,登記記録の閉鎖等,0,2022-11-01,2022-10-28,さくら運送有限会社,,有限会社,東京都,狛江市,猪方４丁目３番２号,,13,219,2010015,,,2022-10-28,清算の結了等,,,2015-10-05,1,,,,,,0
655,3013201018162,登記記録の閉鎖等,0,2022-11-01,2022-10-27,チェリッシュ株式会社,,株式会社,東京都,目黒区,青葉台１丁目２番６号コートハウス青葉台２Ｆ,,13,110,1530042,,,2022-10-27,清算の結了等,,,2015-10-05,1,,,,,チェリッシュ,0
657,3020001022377,登記記録の閉鎖等,0,2022-11-01,2022-10-25,株式会社いづみ商会,,株式会社,神奈川県,横浜市神奈川区,神奈川１丁目５番地の２０,,14,102,2210045,,,2022-10-25,清算の結了等,,,2015-10-05,1,,,,,イヅミショウカイ,0
674,3021005004972,登記記録の閉鎖等,0,2022-11-01,2022-10-27,県央エビナ設計協同組合,,その他の設立登記法人,神奈川県,海老名市,杉久保北４丁目６番１５号,,14,215,2430410,,,2022-10-27,清算の結了等,,,2015-10-05,1,,,,,ケンオウエビナセッケイ,0
712,3080002003750,登記記録の閉鎖等,0,2022-11-01,2022-10-31,有限会社立花美容商会,,有限会社,静岡県,静岡市葵区,内牧１３２番地の３,,22,101,4212118,,,2022-10-31,清算の結了等,,,2015-10-05,1,,,,,,0
718,3100002028092,登記記録の閉鎖等,0,2022-11-01,2022-10-27,有限会社クリエイト開発,,有限会社,長野県,諏訪市,小和田南１０番３１号,,20,206,3920023,,,2022-10-27,清算の結了等,,,2015-10-05,1,,,,,クリエイトカイハツ,0
797,3240002044621,登記記録の閉鎖等,0,2022-11-01,2022-10-28,丸和食品加工有限会社,,有限会社,広島県,福山市,明神町２丁目１６番２号,,34,207,7210961,,,2022-10-28,清算の結了等,,,2015-10-05,1,,,,,マルワショクヒンカコウ,0
803,3260002023268,登記記録の閉鎖等,0,2022-11-01,2022-10-28,有限会社エコプランニング,,有限会社,岡山県,倉敷市,北畝６丁目８番５号,,33,202,7128032,,,2022-10-28,清算の結了等,,,2015-10-05,1,,,,,エコプランニング,0
823,3350002005505,登記記録の閉鎖等,0,2022-11-01,2022-10-28,有限会社フジタオート,,有限会社,宮崎県,宮崎市,高岡町浦之名３３０８の１,,45,201,8802323,,,2022-10-28,清算の結了等,,,2015-10-05,1,,,,,フジタオート,0
830,3380001030187,登記記録の閉鎖等,0,2022-11-01,2022-10-27,株式会社彩和,,株式会社,福島県,西白河郡西郷村,大字熊倉字折口原４８番地１ベアパークヒルズ１０２号,,07,461,9618091,,,2022-10-27,清算の結了等,,,2019-07-16,1,,,,,サイワ,0
840,3410002005192,登記記録の閉鎖等,0,2022-11-01,2022-10-28,有限会社スガノ,,有限会社,秋田県,秋田市,牛島西２丁目１９番３号,,05,201,0100063,,,2022-10-28,清算の結了等,,,2015-10-05,1,,,,,スガノ,0
841,3410003003022,登記記録の閉鎖等,0,2022-11-01,2022-10-28,アイル合同会社,,合同会社,秋田県,秋田市,保戸野桜町１５番３９号,,05,201,0100901,,,2022-10-28,清算の結了等,,,2016-07-25,1,,,,,アイル,0
850,3430002020421,登記記録の閉鎖等,0,2022-11-01,2022-10-19,有限会社ヤマイチ山下総業,,有限会社,北海道,札幌市北区,北十八条西４丁目２番４０－７０１号,,01,102,0010018,,,2022-10-19,清算の結了等,,,2015-10-05,1,,,,,ヤマイチヤマシタソウギョウ,0
854,3430005003976,登記記録の閉鎖等,0,2022-11-01,2022-10-26,特定非営利活動法人フォーラムネット白石,,その他の設立登記法人,北海道,札幌市白石区,東札幌二条４丁目８番１０号,,01,104,0030002,,,2022-10-26,清算の結了等,,,2015-10-05,1,,,,,フォーラムネットシロイシ,0
869,4010001162198,登記記録の閉鎖等,0,2022-11-01,2022-10-26,株式会社オルドスファッションジャパン,,株式会社,東京都,中央区,日本橋人形町１丁目１１－１２Ｂ３０２,,13,102,1030013,,,2022-10-26,清算の結了等,,,2015-10-05,1,,,,,オルドスファッションジャパン,0
891,4010405014623,登記記録の閉鎖等,0,2022-11-01,2022-10-14,一般社団法人日本オゾン・水素療法協会,,その他の設立登記法人,東京都,港区,赤坂３丁目１３番１０号,,13,103,1070052,,,2022-10-14,清算の結了等,,,2016-03-04,1,,,,,ニホンオゾンスイソリョウホウキョウカイ,0
899,4010703005332,登記記録の閉鎖等,0,2022-11-01,2022-10-26,合同会社地盤安心．ｃｏｍ,,合同会社,東京都,品川区,東五反田３丁目１番４号６０１,,13,109,1410022,,,2022-10-26,清算の結了等,,,2020-07-20,1,,,,,ジバンアンシンドットコム,0
918,4011101070472,登記記録の閉鎖等,0,2022-11-01,2022-10-27,株式会社ティー・ワイ・シー,,株式会社,東京都,新宿区,新宿５丁目１０番１０号海老沢ビル２０２,,13,104,1600022,,,2022-10-27,合併による解散等,3011001114099,令和４年１０月１日東京都目黒区青葉台二丁目１９番１０号株式会社アセッツ・パートナーズ（3011001114099）に合併し解散,2015-10-05,1,,,,,,0
931,4011701022022,登記記録の閉鎖等,0,2022-11-01,2022-10-28,日本勁豹株式会社,,株式会社,東京都,江戸川区,平井５丁目２３番５－７０１号,,13,123,1320035,,,2022-10-28,清算の結了等,,,2018-08-28,1,,,,,,0
957,4021003002234,登記記録の閉鎖等,0,2022-11-01,2022-10-27,合同会社ＴＳＵＣＨＩＹＡ,,合同会社,神奈川県,鎌倉市,関谷６６０－３,,14,204,2470075,,,2022-10-27,清算の結了等,,,2015-10-05,1,,,,,,0
970,4040001121564,登記記録の閉鎖等,0,2022-11-01,2022-10-25,株式会社ＳＨＩＲＯ．,,株式会社,千葉県,柏市,旭町１丁目１番９号オダヤマ第３ビル２Ｆ,,12,217,2770852,,,2022-10-25,清算の結了等,,,2021-12-28,1,,,,,シロ,0
1015,4120902002441,登記記録の閉鎖等,0,2022-11-01,2022-10-27,有限会社八幸マリン,,有限会社,大阪府,茨木市,大字粟生岩阪４９３番地,,27,211,5680096,,,2022-10-27,合併による解散等,1140002017754,令和４年１０月２１日神戸市東灘区御影石町二丁目１６番１４号株式会社六甲船舶（1140002017754）に合併し解散,2015-10-05,1,,,,,ハッコウマリン,0
1047,4180002001693,登記記録の閉鎖等,0,2022-11-01,2022-10-25,有限会社山尚,,有限会社,愛知県,名古屋市守山区,市場１９番７号,,23,113,4630075,,,2022-10-25,清算の結了等,,,2015-10-05,1,,,,,ヤマショウ,0
1049,4180002036368,登記記録の閉鎖等,0,2022-11-01,2022-10-27,丸八土地有限会社,,有限会社,愛知県,名古屋市中区,千代田２丁目１５番２１号,,23,106,4600012,,,2022-10-27,清算の結了等,,,2015-10-05,1,,,,,マルハチトチ,0
1061,4190002016740,登記記録の閉鎖等,0,2022-11-01,2022-10-27,有限会社清美軒,,有限会社,三重県,桑名市,大字矢田９８番地の２７,,24,205,5110821,,,2022-10-27,清算の結了等,,,2015-10-05,1,,,,,キヨミケン,0
1069,4240001035505,登記記録の閉鎖等,0,2022-11-01,2022-10-13,アシード株式会社,,株式会社,広島県,福山市,箕島町５７２５番地１,,34,207,7210957,,,2022-10-13,合併による解散等,3070001000790,令和４年１０月１日群馬県前橋市元総社町一丁目１６番地８北関東ペプシコーラ販売株式会社（3070001000790）に合併し解散,2015-10-05,1,,,,,アシード,0
1074,4260001009564,登記記録の閉鎖等,0,2022-11-01,2022-10-28,株式会社ワークプラニング,,株式会社,岡山県,岡山市東区,西大寺中野３６８番地１２,,33,103,7048191,,,2022-10-28,清算の結了等,,,2015-10-05,1,,,,,ワークプラニング,0
1086,4310005005075,登記記録の閉鎖等,0,2022-11-01,2022-10-12,天理教黄浦江分教会,,その他の設立登記法人,長崎県,大村市,上諏訪町１６７１番地１,,42,205,8560023,,,2022-10-12,合併による解散等,1470005002670,令和４年１０月１１日香川県丸亀市本島町泊２６８番地天理教本島大教会（1470005002670）に合併し解散,2015-10-05,1,,,,,テンリキョウコウホウコウブンキョウカイ,0
1092,4350003000933,登記記録の閉鎖等,0,2022-11-01,2022-10-28,合資会社金丸水産,,合資会社,宮崎県,東臼杵郡門川町,中須５丁目１６番地,,45,421,8890612,,,2022-10-28,清算の結了等,,,2015-10-05,1,,,,,,0
1100,4410002011297,登記記録の閉鎖等,0,2022-11-01,2022-10-26,有限会社大曲興業,,有限会社,秋田県,大仙市,四ツ屋字上古道１２１番地,,05,212,0140102,,,2022-10-26,清算の結了等,,,2015-10-05,1,,,,,オオマガリコウギョウ,0
1103,4430001047613,登記記録の閉鎖等,0,2022-11-01,2022-10-24,株式会社南幌工業,,株式会社,北海道,空知郡南幌町,栄町１丁目２番２７号,,01,423,0690237,,,2022-10-24,清算の結了等,,,2015-10-05,1,,,,,ナンポロコウギョウ,0
1113,4430003007367,登記記録の閉鎖等,0,2022-11-01,2022-10-24,合同会社ラベルナ,,合同会社,北海道,札幌市白石区,川北二条１丁目１０番３４号,,01,104,0030852,,,2022-10-24,清算の結了等,,,2016-02-15,1,,,,,ラベルナ,0
1149,5010602027328,登記記録の閉鎖等,0,2022-11-01,2022-10-28,有限会社ヒロ・コーポレーション,,有限会社,東京都,墨田区,堤通２丁目１３番１－１０１６号,,13,107,1310034,,,2022-10-28,清算の結了等,,,2015-10-05,1,,,,,ヒロコーポレーション,0
1170,5011102014832,登記記録の閉鎖等,0,2022-11-01,2022-10-31,有限会社生田編集事務所,,有限会社,東京都,新宿区,矢来町１１５番地８０１号,,13,104,1620805,,,2022-10-31,清算の結了等,,,2015-10-05,1,,,,,イクタヘンシュウジムショ,0
1175,5011402009152,登記記録の閉鎖等,0,2022-11-01,2022-10-27,有限会社山崎塗装工業,,有限会社,東京都,板橋区,成増５丁目２０番３号,,13,119,1750094,,,2022-10-27,清算の結了等,,,2015-10-05,1,,,,,ヤマザキトソウコウギョウ,0
1189,5012401021890,登記記録の閉鎖等,0,2022-11-01,2022-10-21,株式会社メデュー,,株式会社,東京都,日野市,南平５丁目２６番３４号,,13,212,1910041,,,2022-10-21,清算の結了等,,,2015-10-05,1,,,,,メデュー,0
1202,5020001117712,登記記録の閉鎖等,0,2022-11-01,2022-10-26,野本工業株式会社,,株式会社,神奈川県,川崎市幸区,塚越２丁目２２８－２９,,14,132,2120024,,,2022-10-26,清算の結了等,,,2016-09-05,1,,,,,,0
1207,5020002018851,登記記録の閉鎖等,0,2022-11-01,2022-10-26,有限会社三星食品工業所,,有限会社,神奈川県,横浜市港南区,日野南６丁目３３番２５号,,14,111,2340055,,,2022-10-26,清算の結了等,,,2015-10-05,1,,,,,ミツボシショクヒンコウギョウショ,0
1210,5020005006069,登記記録の閉鎖等,0,2022-11-01,2022-10-25,特定非営利活動法人はまつ子・元石川,,その他の設立登記法人,神奈川県,横浜市青葉区,美しが丘４丁目３１番地１,,14,117,2250002,,,2022-10-25,清算の結了等,,,2015-10-05,1,,,,,ハマッコモトイシカワ,0
1231,5040001020088,登記記録の閉鎖等,0,2022-11-01,2022-10-25,株式会社インスパイア,,株式会社,千葉県,船橋市,市場４丁目７番１２号,,12,204,2730001,,,2022-10-25,清算の結了等,,,2015-10-05,1,,,,,インスパイア,0
1245,5080402015955,登記記録の閉鎖等,0,2022-11-01,2022-10-31,有限会社ポリシス研究所,,有限会社,静岡県,浜松市北区,細江町中川８８８番地の２１９,,22,135,4311304,,,2022-10-31,清算の結了等,,,2015-10-05,1,,,,,ポリシスケンキュウジョ,0
1252,5120101029632,登記記録の閉鎖等,0,2022-11-01,2022-10-31,株式会社ブレスワーク,,株式会社,大阪府,高石市,西取石８丁目２番５号ラフィネ西取石３０１,,27,225,5920012,,,2022-10-31,清算の結了等,,,2015-10-05,1,,,,,ブレスワーク,0
1253,5120101061701,登記記録の閉鎖等,0,2022-11-01,2022-10-31,株式会社タクイ建設,,株式会社,大阪府,堺市中区,大野芝町５９３－１０アメニティ白鷺１階,,27,142,5998233,,,2022-10-31,清算の結了等,,,2020-05-14,1,,,,,タクイケンセツ,0
1271,5140002039200,登記記録の閉鎖等,0,2022-11-01,2022-10-27,有限会社山根電工,,有限会社,兵庫県,養父市,中瀬１４９４番地,,28,222,6671116,,,2022-10-27,清算の結了等,,,2015-10-05,1,,,,,ヤマネデンコウ,0
1276,5150001009979,登記記録の閉鎖等,0,2022-11-01,2022-10-31,株式会社ビーワン,,株式会社,奈良県,宇陀市,榛原長峯３９９番地の４,,29,212,6330203,,,2022-10-31,清算の結了等,,,2015-10-05,1,,,,,ビーワン,0
1278,5170001007849,登記記録の閉鎖等,0,2022-11-01,2022-10-28,株式会社テクノコート,,株式会社,和歌山県,紀の川市,貴志川町北１３２２番地,,30,208,6400421,,,2022-10-28,清算の結了等,,,2015-10-05,1,,,,,テクノコート,0
1287,5180301000057,登記記録の閉鎖等,0,2022-11-01,2022-10-25,株式会社アクセサリートツプ,,株式会社,愛知県,岡崎市,元能見町１１７番地,,23,202,4440063,,,2022-10-25,清算の結了等,,,2022-08-15,1,,,,,アクセサリートツプ,0
1313,5290002000592,登記記録の閉鎖等,0,2022-11-01,2022-10-26,有限会社青菱産業,,有限会社,福岡県,福岡市西区,福重３丁目８番１７号オリエントハイツ新室見ＩＩ１０８号,00115687,40,135,8190022,,,2022-10-26,清算の結了等,,,2015-10-05,1,,,,,セイリョウサンギョウ,0
1317,5290005003312,登記記録の閉鎖等,0,2022-11-01,2022-10-28,特定非営利活動法人起業家支援センター,,その他の設立登記法人,福岡県,福岡市博多区,堅粕４丁目２６番２８号,,40,132,8120043,,,2022-10-28,清算の結了等,,,2015-10-05,1,,,,,キギョウカシエンセンター,0
1330,5340002005611,登記記録の閉鎖等,0,2022-11-01,2022-10-31,有限会社大輝技研コンサルタント,,有限会社,鹿児島県,鹿児島市,清和１丁目３０番５号,,46,201,8910109,,,2022-10-31,清算の結了等,,,2015-10-05,1,,,,,タイキギケンコンサルタント,0
1334,5410002000695,登記記録の閉鎖等,0,2022-11-01,2022-10-28,有限会社一力商事,,有限会社,秋田県,秋田市,山王中園町３番８号,,05,201,0100953,,,2022-10-28,清算の結了等,,,2015-10-05,1,,,,,イチリキショウジ,0
1337,5430001015899,登記記録の閉鎖等,0,2022-11-01,2022-10-21,幌北不動産株式会社,,株式会社,北海道,札幌市北区,北十四条西４丁目１番１１号,,01,102,0010014,,,2022-10-21,清算の結了等,,,2015-10-05,1,,,,,ホロキタフドウサン,0
1349,5470005006131,登記記録の閉鎖等,0,2022-11-01,2022-10-26,せとうち税理士法人,,その他の設立登記法人,香川県,高松市,中野町２９番５,,37,201,7600008,,,2022-10-26,清算の結了等,,,2018-10-04,1,,,,,セトウチ,0
1351,5490002011974,登記記録の閉鎖等,0,2022-11-01,2022-10-25,船岡輸送有限会社,,有限会社,高知県,南国市,小篭７７０番地３,,39,204,7830000,,,2022-10-25,清算の結了等,,,2015-10-05,1,,,,,フナオカユソウ,0
1405,6011001096938,登記記録の閉鎖等,0,2022-11-01,2022-10-28,株式会社ライトニング,,株式会社,東京都,千代田区,麹町４丁目７番地５麹町ロイヤルビル２Ｆ株式会社エンノシタノチカラモチ内,,13,101,1020083,,,2022-10-28,合併による解散等,1011001092710,令和４年９月３０日東京都渋谷区代々木一丁目２５番５号ＢＩＺＳＭＡＲＴ代々木株式会社フィールド（1011001092710）に合併し解散,2015-10-05,1,,,,,,0
1428,6012402014604,登記記録の閉鎖等,0,2022-11-01,2022-10-27,成田テクノ有限会社,,有限会社,東京都,調布市,佐須町１丁目１８番地４,,13,208,1820016,,,2022-10-27,清算の結了等,,,2015-10-05,1,,,,,ナリタテクノ,0
1433,6013301033554,登記記録の閉鎖等,0,2022-11-01,2022-10-27,株式会社ティーティーマネジメント,,株式会社,東京都,豊島区,東池袋２丁目６２番８号,,13,116,1700013,,,2022-10-27,合併による解散等,3011001114099,令和４年１０月１日東京都目黒区青葉台二丁目１９番１０号株式会社アセッツ・パートナーズ（3011001114099）に合併し解散,2015-10-05,1,,,,,ティーティーマネジメント,0
1436,6020001030360,登記記録の閉鎖等,0,2022-11-01,2022-10-26,京三システム株式会社,,株式会社,神奈川県,横浜市鶴見区,平安町２丁目２９番地の４,,14,101,2300031,,,2022-10-26,清算の結了等,,,2015-10-05,1,,,,,キョウサンシステム,0
1437,6020001075562,登記記録の閉鎖等,0,2022-11-01,2022-10-20,三宝建設工業株式会社,,株式会社,神奈川県,川崎市宮前区,野川台１丁目１４番６号,,14,136,2160043,,,2022-10-20,清算の結了等,,,2015-10-05,1,,,,,サンポウケンセツコウギョウ,0
1440,6020001119699,登記記録の閉鎖等,0,2022-11-01,2022-10-26,株式会社ペットオーシャン,,株式会社,神奈川県,横浜市中区,吉田町７２番サリュートビル６０１,,14,104,2310041,,,2022-10-26,清算の結了等,,,2017-02-01,1,,,,,ペットオーシャン,0
1462,6040001084223,登記記録の閉鎖等,0,2022-11-01,2022-10-24,株式会社プラウドエンタープライズ,,株式会社,千葉県,千葉市中央区,登戸１丁目１５番３２号キャピタル登戸ビル６階,,12,101,2600032,,,2022-10-24,清算の結了等,,,2015-10-05,1,,,,,プラウドエンタープライズ,0
1464,6040003016133,登記記録の閉鎖等,0,2022-11-01,2022-10-27,漢川合同会社,,合同会社,東京都,板橋区,大谷口上町３６－２ジョイビル１０３Ｂ,,13,119,1730032,,,2022-10-27,清算の結了等,,,2020-09-25,1,,,,,カンカワ,0
1468,6060002023640,登記記録の閉鎖等,0,2022-11-01,2022-10-25,有限会社臼井林業,,有限会社,栃木県,那須塩原市,上大貫１９００番地,,09,213,3292814,,,2022-10-25,清算の結了等,,,2015-10-05,1,,,,,ウスイリンギョウ,0
1476,6080401024493,登記記録の閉鎖等,0,2022-11-01,2022-10-27,株式会社海船,,株式会社,静岡県,浜松市中区,中島４丁目９番２３号,,22,131,4300856,,,2022-10-27,清算の結了等,,,2020-08-17,1,,,,,カイセン,0
1491,6120001145231,登記記録の閉鎖等,0,2022-11-01,2022-10-26,株式会社ナカミチ,,株式会社,大阪府,大阪市淀川区,西中島５丁目８番３－４０７号,,27,123,5320011,,,2022-10-26,清算の結了等,,,2015-10-05,1,,,,,ナカミチ,0
1510,6130001065206,登記記録の閉鎖等,0,2022-11-01,2022-10-27,株式会社エムケイシー,,株式会社,京都府,京都市南区,久世高田町３５－２７,,26,107,6018211,,,2022-10-27,清算の結了等,,,2019-09-06,1,,,,,エムケイシー,0
1513,6140001004526,登記記録の閉鎖等,0,2022-11-01,2022-10-28,株式会社エム・シー・シーサービス,,株式会社,兵庫県,神戸市西区,桜が丘西町２丁目１８番地の２,,28,111,6512227,,,2022-10-28,清算の結了等,,,2015-10-05,1,,,,,エムシーシーサービス,0
1523,6160001019431,登記記録の閉鎖等,0,2022-11-01,2022-10-25,株式会社サンライズ工業,,株式会社,滋賀県,蒲生郡竜王町,大字小口１２７８－５,,25,384,5202552,,,2022-10-25,清算の結了等,,,2016-04-15,1,,,,,サンライズコウギョウ,0
1526,6160002011148,登記記録の閉鎖等,0,2022-11-01,2022-10-31,有限会社ピーシーブート,,有限会社,滋賀県,近江八幡市,安土町下豊浦４５５２番地１,,25,204,5211311,,,2022-10-31,清算の結了等,,,2015-10-05,1,,,,,ピーシーブート,0
1527,6180001067429,登記記録の閉鎖等,0,2022-11-01,2022-10-28,アート工房株式会社,,株式会社,愛知県,日進市,米野木町北山１番地１０８,,23,230,4700111,,,2022-10-28,清算の結了等,,,2015-10-05,1,,,,,アートコウボウ,0
1533,6180303002117,登記記録の閉鎖等,0,2022-11-01,2022-10-26,合資会社丸山,,合資会社,愛知県,刈谷市,新栄町７丁目１番地１,,23,210,4480843,,,2022-10-26,清算の結了等,,,2015-10-05,1,,,,,マルヤマ,0
1536,6190001022779,登記記録の閉鎖等,0,2022-11-01,2022-10-27,株式会社マルセ鋼業,,株式会社,三重県,桑名市,大字福島８８０番地８,,24,205,5110002,,,2022-10-27,清算の結了等,,,2015-10-05,1,,,,,マルセコウギョウ,0
1542,6210001004089,登記記録の閉鎖等,0,2022-11-01,2022-10-28,株式会社メイコー,,株式会社,福井県,福井市,問屋町１丁目１２８番地１,,18,201,9188231,,,2022-10-28,清算の結了等,,,2015-10-05,1,,,,,メイコー,0
1544,6230001017080,登記記録の閉鎖等,0,2022-11-01,2022-10-28,株式会社シーバス,,株式会社,富山県,滑川市,北野３７４番地６,,16,206,9360806,,,2022-10-28,清算の結了等,,,2017-08-08,1,,,,,シーバス,0
1566,6310001011208,登記記録の閉鎖等,0,2022-11-01,2022-10-28,株式会社バースト,,株式会社,長崎県,佐世保市,小佐世保町７１７番地８,,42,202,8570813,,,2022-10-28,清算の結了等,,,2015-10-05,1,,,,,バースト,0
1570,6330001013680,登記記録の閉鎖等,0,2022-11-01,2022-10-26,株式会社野田設備,,株式会社,熊本県,八代市,松崎町４７７番地の３,,43,202,8660884,,,2022-10-26,清算の結了等,,,2015-10-05,1,,,,,ノダセツビ,0
1579,6390001012586,登記記録の閉鎖等,0,2022-11-01,2022-10-28,株式会社齋藤テクサービス,,株式会社,山形県,西村山郡河北町,谷地所岡１丁目５番地の２,,06,321,9993513,,,2022-10-28,清算の結了等,,,2015-10-05,1,,,,,サイトウテクサービス,0
1590,6430001008992,登記記録の閉鎖等,0,2022-11-01,2022-10-20,株式会社ソウカン,,株式会社,北海道,札幌市北区,北三十三条西１０丁目１４８番地,,01,102,0010033,,,2022-10-20,清算の結了等,,,2015-10-05,1,,,,,ソウカン,0
1603,6440002003265,登記記録の閉鎖等,0,2022-11-01,2022-10-25,有限会社ニツカバンク,,有限会社,北海道,函館市,美原２丁目１番６号,,01,202,0410806,,,2022-10-25,清算の結了等,,,2015-10-05,1,,,,,ニツカバンク,0
1606,6480002014977,登記記録の閉鎖等,0,2022-11-01,2022-10-18,有限会社藤山企画,,有限会社,徳島県,美馬市,美馬町字中耕地６４番地,,36,207,7712107,,,2022-10-18,清算の結了等,,,2015-10-05,1,,,,,フジヤマキカク,0
1608,6500002002616,登記記録の閉鎖等,0,2022-11-01,2022-10-31,有限会社建築板金平岡,,有限会社,愛媛県,松山市,北梅本町２７４４番地の１,,38,201,7910242,,,2022-10-31,清算の結了等,,,2015-10-05,1,,,,,ケンチクバンキンヒラオカ,0
1613,7010001112373,登記記録の閉鎖等,0,2022-11-01,2022-10-26,コム六本木株式会社,,株式会社,東京都,千代田区,内幸町１丁目５番２号,,13,101,1000011,,,2022-10-26,清算の結了等,,,2015-10-05,1,,,,,コムロッポンギ,0
1628,7010401040001,登記記録の閉鎖等,0,2022-11-01,2022-10-12,ヒューマン・フロンティア株式会社,,株式会社,東京都,港区,南青山１丁目３番３号,,13,103,1070062,,,2022-10-12,合併による解散等,4010001029042,令和４年１０月１日東京都港区新橋一丁目１番１号日比谷ビルディング株式会社保健同人フロンティア（4010001029042）に合併し解散,2015-10-05,1,,,,,ヒューマンフロンティア,0
1636,7010401125009,登記記録の閉鎖等,0,2022-11-01,2022-10-17,ＯＵＲＰＡＬＭ株式会社,,株式会社,東京都,港区,六本木１丁目９番１０号,,13,103,1060032,,,2022-10-17,清算の結了等,,,2016-05-25,1,,,,,アウアパーム,0
1637,7010401162803,登記記録の閉鎖等,0,2022-11-01,2022-10-14,ＩＴＳ株式会社,,株式会社,東京都,港区,港南２丁目１５番１号,,13,103,1080075,,,2022-10-14,清算の結了等,,,2021-09-22,1,,,,,アイティエス,0
1639,7010402002693,登記記録の閉鎖等,0,2022-11-01,2022-10-17,有限会社オートクリニック,,有限会社,東京都,港区,麻布十番４丁目３番１号,,13,103,1060045,,,2022-10-17,清算の結了等,,,2015-10-05,1,,,,,,0
1646,7010603004778,登記記録の閉鎖等,0,2022-11-01,2022-10-28,ベックマン・コールター・ホールディングス合同会社,,合同会社,東京都,江東区,有明３丁目５番７号ＴＯＣ有明ウエストタワー,,13,108,1350063,,,2022-10-28,合併による解散等,7010403008368,令和４年１０月１０日東京都新宿区西新宿六丁目５番１号ＤＨ　Ｊａｐａｎ　Ｈｏｌｄｉｎｇ合同会社（7010403008368）に合併し解散,2015-10-05,1,,,,,ベックマンコールターホールディングス,0
1647,7010703004777,登記記録の閉鎖等,0,2022-11-01,2022-10-28,合同会社小林開発,,合同会社,三重県,桑名市,大字東方２７３番地グランツ輝ＩＩ２０３,00121606,24,205,5110811,,,2022-10-28,清算の結了等,,,2019-05-14,1,,,,,コバヤシカイハツ,0
1681,7012401022796,登記記録の閉鎖等,0,2022-11-01,2022-10-26,三協実業株式会社,,株式会社,東京都,府中市,清水が丘２丁目１６番地の１オーベル府中清水が丘１１１,,13,206,1830015,,,2022-10-26,清算の結了等,,,2015-10-05,1,,,,,サンキョウジツギョウ,0
1699,7020002069703,登記記録の閉鎖等,0,2022-11-01,2022-10-26,有限会社グッドスペース,,有限会社,神奈川県,横浜市西区,中央２丁目９－４,,14,103,2200051,,,2022-10-26,清算の結了等,,,2015-10-05,1,,,,,グッドスペース,0
1723,7040001113609,登記記録の閉鎖等,0,2022-11-01,2022-10-05,株式会社ＩＹＬ,,株式会社,千葉県,松戸市,根本６番地の４,,12,207,2710077,,,2022-10-05,清算の結了等,,,2020-05-12,1,,,,,アイル,0
1734,7070001032327,登記記録の閉鎖等,0,2022-11-01,2022-10-27,ダイハツ前橋南販売株式会社,,株式会社,群馬県,前橋市,鶴光路町１４３番地８,,10,201,3792141,,,2022-10-27,合併による解散等,7070001002528,令和４年１０月１日群馬県前橋市笂井町４５６番地１３ネッツトヨタ群馬株式会社（7070001002528）に合併し解散,2016-06-23,1,,,,,ダイハツマエバシミナミハンバイ,0
1740,7080401022232,登記記録の閉鎖等,0,2022-11-01,2022-11-01,丸八エリアデザイン株式会社,,株式会社,静岡県,浜松市中区,田町２２３番地の２１,,22,131,4300944,,,2022-11-01,合併による解散等,1080401000920,令和４年１１月１日浜松市中区田町２２３番地の２１株式会社丸八アセットマネージメント（1080401000920）に合併し解散,2017-06-06,1,,,,,マルハチエリアデザイン,0
1741,7080402009369,登記記録の閉鎖等,0,2022-11-01,2022-10-28,有限会社電化のイシハラ,,有限会社,静岡県,湖西市,古見８９６番地の１,,22,221,4310442,,,2022-10-28,清算の結了等,,,2015-10-05,1,,,,,デンカノイシハラ,0
1747,7110002020549,登記記録の閉鎖等,0,2022-11-01,2022-10-26,有限会社マルカシ,,有限会社,新潟県,柏崎市,北半田１丁目１番１８号,,15,205,9450035,,,2022-10-26,清算の結了等,,,2015-10-05,1,,,,,マルカシ,0
1791,7180001141141,登記記録の閉鎖等,0,2022-11-01,2022-10-26,株式会社ＦＥＬＩＸ,,株式会社,東京都,千代田区,九段南１丁目５番６号りそな九段ビル５階ＫＳフロア,,13,101,1020074,,,2022-10-26,清算の結了等,,,2020-05-15,1,,,,,フェリックス,0
1793,7180002030608,登記記録の閉鎖等,0,2022-11-01,2022-10-28,有限会社桑原マーク製作所,,有限会社,愛知県,名古屋市中区,新栄１丁目３２番２５号,,23,106,4600007,,,2022-10-28,清算の結了等,,,2015-10-05,1,,,,,クワハラマークセイサクショ,0
1795,7180002084109,登記記録の閉鎖等,0,2022-11-01,2022-10-25,有限会社ヤマト精工,,有限会社,愛知県,半田市,浜田町１丁目２８番地,,23,205,4750805,,,2022-10-25,清算の結了等,,,2015-10-05,1,,,,,ヤマトセイコウ,0
1798,7190003003545,登記記録の閉鎖等,0,2022-11-01,2022-10-27,合同会社ライフワーク,,合同会社,三重県,伊勢市,野村町５５８９番地１,,24,203,5150511,,,2022-10-27,清算の結了等,,,2020-12-14,1,,,,,ライフワーク,0
1800,7200002011101,登記記録の閉鎖等,0,2022-11-01,2022-10-31,有限会社花村土建,,有限会社,岐阜県,羽島市,正木町南及５丁目３６番地,,21,209,5016211,,,2022-10-31,清算の結了等,,,2015-10-05,1,,,,,ハナムラドケン,0
1804,7230002010604,登記記録の閉鎖等,0,2022-11-01,2022-10-28,有限会社アリカワ,,有限会社,富山県,高岡市,宝町８番１４号,,16,202,9330064,,,2022-10-28,清算の結了等,,,2015-10-05,1,,,,,アリカワ,0
1805,7240001042580,登記記録の閉鎖等,0,2022-11-01,2022-10-31,株式会社まろ,,株式会社,広島県,広島市中区,橋本町６番１０－４０１号,,34,101,7300015,,,2022-10-31,清算の結了等,,,2015-10-05,1,,,,,マロ,0
1821,7300001006083,登記記録の閉鎖等,0,2022-11-01,2022-10-24,伊万里中央プロパン株式会社,,株式会社,佐賀県,伊万里市,新天町６１９番地,,41,205,8480041,,,2022-10-24,清算の結了等,,,2015-10-05,1,,,,,イマリチュウオウプロパン,0
1823,7310001014606,登記記録の閉鎖等,0,2022-11-01,2022-10-31,五島ヤブ椿株式会社,,株式会社,長崎県,五島市,富江町松尾１９１３番地１,,42,211,8530202,,,2022-10-31,清算の結了等,,,2016-12-09,1,,,,,ゴトウヤブツバキ,0
1840,7370102001992,登記記録の閉鎖等,0,2022-11-01,2022-10-20,有限会社彦坂興業,,有限会社,宮城県,角田市,横倉字平３番地の５,,04,208,9811512,,,2022-10-20,清算の結了等,,,2015-10-05,1,,,,,ヒコサカコウギョウ,0
1847,7400002003689,登記記録の閉鎖等,0,2022-11-01,2022-10-27,有限会社ラボネットワーク,,有限会社,岩手県,盛岡市,緑が丘３丁目３３番１０号,,03,201,0200117,,,2022-10-27,清算の結了等,,,2015-10-05,1,,,,,ラボネットワーク,0
1852,7410002006609,登記記録の閉鎖等,0,2022-11-01,2022-10-27,有限会社協栄建工,,有限会社,秋田県,由利本荘市,古雪町９５番地５,,05,210,0150824,,,2022-10-27,清算の結了等,,,2015-10-05,1,,,,,キョウエイケンコウ,0
1871,7450005000943,登記記録の閉鎖等,0,2022-11-01,2022-10-13,天理教上愛分教会,,その他の設立登記法人,北海道,上川郡愛別町,字愛山７１４番地,,01,456,0781653,,,2022-10-13,合併による解散等,7130005000661,令和４年９月２９日京都市南区唐橋西寺町３０番地天理教唐橋分教会（7130005000661）に合併し解散,2015-10-05,1,,,,,テンリキョウジョウアイブンキョウカイ,0
1892,8010001178018,登記記録の閉鎖等,0,2022-11-01,2022-10-28,ロックハラードエナジー株式会社,,株式会社,東京都,中央区,日本橋２丁目８番６号,,13,102,1030027,,,2022-10-28,清算の結了等,,,2016-08-29,1,,,,,ロックハラードエナジー,0
1914,8010405009314,登記記録の閉鎖等,0,2022-11-01,2022-10-14,特定非営利活動法人クウォーター・グッド・オフィス,,その他の設立登記法人,東京都,港区,高輪２丁目１－２高輪ハイツ５０１号,,13,103,1080074,,,2022-10-14,清算の結了等,,,2015-10-05,1,,,,,クウォーターグッドオフィス,0
1915,8010405017184,登記記録の閉鎖等,0,2022-11-01,2022-10-14,一般社団法人日本財宅振興協会,,その他の設立登記法人,東京都,港区,台場２丁目２,,13,103,1350091,,,2022-10-14,清算の結了等,,,2018-10-24,1,,,,,ニホンザイタクシンコウキョウカイ,0
1926,8011001145429,登記記録の閉鎖等,0,2022-11-01,2022-09-22,神楽坂パートナーズ株式会社,,株式会社,東京都,渋谷区,神宮前６丁目２３番４号桑野ビル２階,,13,113,1500001,,,2022-09-22,合併による解散等,8011001148448,令和４年９月１６日東京都渋谷区神宮前六丁目２３番４号桑野ビル２階Ａｘｅｌａｇｅ株式会社（8011001148448）に合併し解散,2022-02-03,1,,,,,カグラザカパートナーズ,0
1946,8011401000927,登記記録の閉鎖等,0,2022-11-01,2022-10-27,株式会社エステートよしや,,株式会社,東京都,板橋区,中板橋１６番１０号,,13,119,1730016,,,2022-10-27,清算の結了等,,,2015-10-05,1,,,,,エステートヨシヤ,0
1961,8012702001028,登記記録の閉鎖等,0,2022-11-01,2022-10-26,有限会社西峰,,有限会社,東京都,小平市,小川町２丁目１３４８番地あおきハイツ１０３号,,13,211,1870032,,,2022-10-26,清算の結了等,,,2015-10-05,1,,,,,セイホウ,0
1968,8020001063978,登記記録の閉鎖等,0,2022-11-01,2022-10-26,協立建設工業株式会社,,株式会社,神奈川県,川崎市多摩区,枡形１丁目１０番７号,,14,135,2140032,,,2022-10-26,清算の結了等,,,2015-10-05,1,,,,,キョウリツケンセツコウギョウ,0
1972,8020001123443,登記記録の閉鎖等,0,2022-11-01,2022-10-26,株式会社フルーヴボーテ,,株式会社,神奈川県,横浜市西区,みなとみらい３丁目６番４号,,14,103,2200012,,,2022-10-26,清算の結了等,,,2017-10-18,1,,,,,フルーヴボーテ,0
1995,8030001143358,登記記録の閉鎖等,0,2022-11-01,2022-10-24,リリーコンサルティング株式会社,,株式会社,埼玉県,さいたま市浦和区,常盤１丁目３番１８－２０４号,,11,107,3300061,,,2022-10-24,清算の結了等,,,2021-07-19,1,,,,,リリーコンサルティング,0
2025,8080101017639,登記記録の閉鎖等,0,2022-11-01,2022-10-25,ピーエフシー株式会社,,株式会社,静岡県,下田市,三丁目７０７番地７,,22,219,4150023,,,2022-10-25,清算の結了等,,,2015-10-05,1,,,,,ピーエフシー,0
2042,8120001161672,登記記録の閉鎖等,0,2022-11-01,2022-10-28,株式会社バジェットレンタリース関西,,株式会社,大阪府,大阪市東淀川区,西淡路１丁目２番６４号,,27,114,5330031,,,2022-10-28,清算の結了等,,,2015-10-05,1,,,,,,0
2057,8122001026640,登記記録の閉鎖等,0,2022-11-01,2022-10-27,株式会社モリタ,,株式会社,大阪府,東大阪市,箕輪２丁目１番４３号,,27,227,5780914,,,2022-10-27,合併による解散等,4120101004306,令和４年１０月１日大阪府堺市西区築港浜寺西町７番地３千代田機工株式会社（4120101004306）に合併し解散,2015-10-05,1,,,,,モリタ,0
2064,8130002035073,登記記録の閉鎖等,0,2022-11-01,2022-10-25,有限会社古川乳業,,有限会社,京都府,相楽郡精華町,大字柘榴小字松ケ平１番地１,,26,366,6190234,,,2022-10-25,清算の結了等,,,2015-10-05,1,,,,,フルカワニュウギョウ,0
2082,8180001142329,登記記録の閉鎖等,0,2022-11-01,2022-10-25,中通物流株式会社,,株式会社,愛知県,名古屋市港区,西福田５丁目１９０５番地,,23,111,4550874,,,2022-10-25,清算の結了等,,,2020-08-07,1,,,,,チュウツウブツリュウ,0
2102,8240005008602,登記記録の閉鎖等,0,2022-11-01,2022-10-31,誠心明生会,,その他の設立登記法人,広島県,福山市,今津町７９８番地本部陰陽石神社内,,34,207,7290111,,,2022-10-31,清算の結了等,,,2015-10-05,1,,,,,セイシンメイセイカイ,0
2134,8340001000701,登記記録の閉鎖等,0,2022-11-01,2022-10-31,株式会社大高産業,,株式会社,鹿児島県,鹿児島市,天保山町１２番１５号,,46,201,8900061,,,2022-10-31,清算の結了等,,,2015-10-05,1,,,,,オオタカサンギョウ,0
2161,8450005000942,登記記録の閉鎖等,0,2022-11-01,2022-10-13,天理教愛別分教会,,その他の設立登記法人,北海道,旭川市,東鷹栖一条３丁目６３５番地８０,,01,204,0718101,,,2022-10-13,合併による解散等,7130005000661,令和４年９月２９日京都市南区唐橋西寺町３０番地天理教唐橋分教会（7130005000661）に合併し解散,2015-10-05,1,,,,,テンリキョウアイベツブンキョウカイ,0
2169,9010001006796,登記記録の閉鎖等,0,2022-11-01,2022-10-27,株式会社藤屋裁縫所,,株式会社,東京都,文京区,白山５丁目３１番２５号,,13,105,1120001,,,2022-10-27,清算の結了等,,,2015-10-05,1,,,,,フジヤサイホウジョ,0
2174,9010001178982,登記記録の閉鎖等,0,2022-11-01,2022-10-18,株式会社楽タス,,株式会社,東京都,足立区,西新井本町２丁目２７番１３,,13,121,1230845,,,2022-10-18,合併による解散等,7010001126092,令和４年１０月１日東京都足立区扇一丁目３０番１３号株式会社アスワイ（7010001126092）に合併し解散,2016-10-17,1,,,,,ラクタス,0
2182,9010001210522,登記記録の閉鎖等,0,2022-11-01,2022-10-19,ヤマト薬品株式会社,,株式会社,東京都,千代田区,鍛冶町２丁目９番７号大貫ビル３Ｆ,,13,101,1010044,,,2022-10-19,清算の結了等,,,2020-06-30,1,,,,,ヤマトヤクヒン,0
2199,9010403025659,登記記録の閉鎖等,0,2022-11-01,2022-10-17,合同会社ＴＯＢ企画,,合同会社,東京都,港区,芝大門２丁目７番１号,,13,103,1050012,,,2022-10-17,清算の結了等,,,2021-07-05,1,,,,,ティーオービーキカク,0
2223,9011101006505,登記記録の閉鎖等,0,2022-11-01,2022-10-28,株式会社コア創建設計,,株式会社,東京都,新宿区,新宿６丁目２７番地,,13,104,1600022,,,2022-10-28,清算の結了等,,,2015-10-05,1,,,,,コアソウケンセッケイ,0
2234,9011601015542,登記記録の閉鎖等,0,2022-11-01,2022-10-25,株式会社大場工務店,,株式会社,茨城県,守谷市,松前台３丁目２７番地１３,,08,224,3020102,,,2022-10-25,清算の結了等,,,2015-10-05,1,,,,,オオバコウムテン,0
2239,9012402005798,登記記録の閉鎖等,0,2022-11-01,2022-10-21,有限会社アドラック,,有限会社,東京都,国分寺市,西町５丁目１３番地１,,13,214,1850035,,,2022-10-21,清算の結了等,,,2015-10-05,1,,,,,アドラック,0
2271,9030005004035,登記記録の閉鎖等,0,2022-11-01,2022-10-24,特定非営利活動法人グリーンオフィスさやま,,その他の設立登記法人,埼玉県,狭山市,大字青柳６３番地新狭山ハイツ３１棟１０２号,,11,215,3501301,,,2022-10-24,清算の結了等,,,2015-10-05,1,,,,,グリーンオフィスサヤマ,0
2285,9070002016070,登記記録の閉鎖等,0,2022-11-01,2022-10-24,有限会社小幡製作所,,有限会社,群馬県,甘楽郡甘楽町,大字小幡８６３番地,,10,384,3702202,,,2022-10-24,清算の結了等,,,2015-10-05,1,,,,,オバタセイサクショ,0
2290,9080101016193,登記記録の閉鎖等,0,2022-11-01,2022-10-28,株式会社サイセイ,,株式会社,静岡県,富士市,天間１１７２番地の４,,22,210,4190205,,,2022-10-28,清算の結了等,,,2015-10-05,1,,,,,サイセイ,0
2295,9110001014442,登記記録の閉鎖等,0,2022-11-01,2022-10-26,外栄金物株式会社,,株式会社,新潟県,三条市,柳川新田８４４番地４,,15,204,9550002,,,2022-10-26,合併による解散等,5180001015545,令和４年１０月２１日名古屋市南区星崎二丁目１０１番地株式会社丸政（5180001015545）に合併し解散,2015-10-05,1,,,,,,0
2314,9120901025604,登記記録の閉鎖等,0,2022-11-01,2022-10-31,豊和電設株式会社,,株式会社,大阪府,豊中市,庄内幸町１丁目１番２８号,,27,203,5610833,,,2022-10-31,清算の結了等,,,2015-10-05,1,,,,,ホウワデンセツ,0
2315,9120901041873,登記記録の閉鎖等,0,2022-11-01,2022-10-28,株式会社ＲＤＫ,,株式会社,大阪府,大阪市中央区,北久宝寺町３丁目６番１号本町南ガーデンシティ７階,,27,128,5410057,,,2022-10-28,清算の結了等,,,2019-10-08,1,,,,,アールディーケー,0
2323,9140001078550,登記記録の閉鎖等,0,2022-11-01,2022-10-27,大棟工作株式会社,,株式会社,兵庫県,伊丹市,山田６丁目３番７号,,28,207,6640874,,,2022-10-27,清算の結了等,,,2015-10-05,1,,,,,ダイトウコウサク,0
2348,9180301032055,登記記録の閉鎖等,0,2022-11-01,2022-10-25,株式会社光星,,株式会社,愛知県,蒲郡市,緑町４番２号,,23,214,4430048,,,2022-10-25,清算の結了等,,,2018-11-26,1,,,,,コウセイ,0
2351,9180302023920,登記記録の閉鎖等,0,2022-11-01,2022-10-26,有限会社リカーシヨップ八百周,,有限会社,愛知県,豊田市,高美町３丁目４６番地３,,23,211,4730918,,,2022-10-26,清算の結了等,,,2015-10-05,1,,,,,リカーショップヤオシュウ,0
2353,9190001018840,登記記録の閉鎖等,0,2022-11-01,2022-10-27,株式会社ＫＥソーイング,,株式会社,三重県,四日市市,八王子町９９７番地５,,24,202,5100947,,,2022-10-27,清算の結了等,,,2015-10-05,1,,,,,ケーイーソーイング,0
2356,9200003001479,登記記録の閉鎖等,0,2022-11-01,2022-10-28,合資会社トヨダ,,合資会社,岐阜県,羽島市,堀津町２４４４番地の１,,21,209,5016330,,,2022-10-28,清算の結了等,,,2015-10-05,1,,,,,トヨダ,0
2360,9210002009092,登記記録の閉鎖等,0,2022-11-01,2022-10-28,有限会社三好,,有限会社,福井県,坂井市,三国町米ケ脇４丁目４番１６号,,18,210,9130057,,,2022-10-28,清算の結了等,,,2015-10-05,1,,,,,ミヨシ,0
2363,9240001028140,登記記録の閉鎖等,0,2022-11-01,2022-10-31,宮島製＿株式会社,00000256,株式会社,広島県,廿日市市,宮島町８２１番地,,34,213,7390588,,,2022-10-31,清算の結了等,,,2015-10-05,1,,,,,ミヤジマセイアン,0
2365,9240002032067,登記記録の閉鎖等,0,2022-11-01,2022-10-28,有限会社板岡鉄工所,,有限会社,広島県,呉市,警固屋５丁目７番１３号,,34,202,7370012,,,2022-10-28,清算の結了等,,,2015-10-05,1,,,,,イタオカテッコウショ,0
2376,9290001048737,登記記録の閉鎖等,0,2022-11-01,2022-10-21,久留米電算機販売株式会社,,株式会社,福岡県,久留米市,梅満町５９０番地の１,,40,203,8300048,,,2022-10-21,清算の結了等,,,2015-10-05,1,,,,,クルメデンサンキハンバイ,0
2382,9310001007921,登記記録の閉鎖等,0,2022-11-01,2022-10-31,株式会社九州チキン,,株式会社,長崎県,諫早市,貝津町１５９３番地,,42,204,8540063,,,2022-10-31,清算の結了等,,,2015-10-05,1,,,,,キュウシュウチキン,0
2410,9500001016028,登記記録の閉鎖等,0,2022-11-01,2022-10-31,株式会社チュモン,,株式会社,愛媛県,松山市,下伊台町乙７４番地８９,,38,201,7910112,,,2022-10-31,清算の結了等,,,2015-10-05,1,,,,,チュモン,0
