sequenceNumber,corporateNumber,process,correct,updateDate,changeDate,name,nameImageId,kind,prefectureName,cityName,streetNumber,addressImageId,prefectureCode,cityCode,postCode,addressOutside,addressOutsideImageId,closeDate,closeCause,successorCorporateNumber,changeCause,assignmentDate,latest,enName,enPrefectureName,enCityName,enAddressOutside,furigana,hihyoji
9,1010005040691,新規,0,2025-09-22,2025-09-22,ＡＡＪ　Ｌ一般社団法人,,その他の設立登記法人,東京都,千代田区,霞が関３丁目２番５号,,13,101,1000013,,,,,,,2025-09-22,1,,,,,エーエージェーエル,0
10,1010005040700,新規,0,2025-09-22,2025-09-22,Ｂｅｙｏｎｄ　ＡＩ技術研究組合,,その他の設立登記法人,東京都,文京区,弥生２丁目１１番１６号,,13,105,1130032,,,,,,,2025-09-22,1,,,,,ビヨンドエーアイ,0
18,1010801036620,新規,0,2025-09-22,2025-09-22,株式会社日本財茂,,株式会社,東京都,大田区,大森東２丁目３番５－４０１号,,13,111,1430012,,,,,,,2025-09-22,1,,,,,ニホンザイモウ,0
25,1011001172116,新規,0,2025-09-22,2025-09-22,株式会社ＡＩＸ,,株式会社,東京都,渋谷区,恵比寿西２丁目４番８号ウィンド恵比寿ビル８Ｆ,,13,113,1500021,,,,,,,2025-09-22,1,,,,,エーアイエックス,0
26,1011001172157,新規,0,2025-09-22,2025-09-22,株式会社スポルエンタ,,株式会社,東京都,渋谷区,円山町５番３号ＭＩＥＵＸ渋谷ビル８階,,13,113,1500044,,,,,,,2025-09-22,1,,,,,スポルエンタ,0
27,1011001172173,新規,0,2025-09-22,2025-09-22,株式会社ＥＮＯＷＡ,,株式会社,東京都,目黒区,大橋２丁目２２－６唐木ビル８階,,13,110,1530044,,,,,,,2025-09-22,1,,,,,エノワ,0
28,1011001172248,新規,0,2025-09-22,2025-09-22,株式会社ＹＵＮＡＫＵ,,株式会社,東京都,渋谷区,神宮前６丁目１９番１５号,,13,113,1500001,,,,,,,2025-09-22,1,,,,,ユナク,0
29,1011001172586,新規,0,2025-09-22,2025-09-22,株式会社Ｍｉｃｒｏｎｉｔｙ１,,株式会社,東京都,渋谷区,渋谷２丁目２４番１２号,,13,113,1500002,,,,,,,2025-09-22,1,,,,,マイクロニティワン,0
30,1011003022426,新規,0,2025-09-22,2025-09-22,Ｇａｌｌｅｒｙ　ＩＲＲＩＴＵＭ　Ｔｏｋｙｏ合同会社,,合同会社,東京都,渋谷区,神宮前４丁目１６番１０号Ｃ．ＣＯＬＯＲビル神宮前２Ｆ,,13,113,1500001,,,,,,,2025-09-22,1,,,,,ギャラリーイリトゥムトウキョウ,0
34,1011101113226,新規,0,2025-09-22,2025-09-22,株式会社ＮｅＥＸＩＳ,,株式会社,東京都,新宿区,西新宿４丁目１２番４号西新宿レジデンス３０２,,13,104,1600023,,,,,,,2025-09-22,1,,,,,ネクシス,0
35,1011101113309,新規,0,2025-09-22,2025-09-22,ブレイクスルー・ファンドマネジメント株式会社,,株式会社,東京都,新宿区,新宿４丁目３番１５号レイフラット新宿Ｂ棟３Ｆ,,13,104,1600022,,,,,,,2025-09-22,1,,,,,ブレイクスルーファンドマネジメント,0
37,1011303005725,新規,0,2025-09-22,2025-09-22,合同会社Ａ,,合同会社,東京都,杉並区,高円寺北２丁目１番２２号サン・ハイム高円寺４０１,,13,115,1660002,,,,,,,2025-09-22,1,,,,,エー,0
43,1011601028964,新規,0,2025-09-22,2025-09-22,小太陽株式会社,,株式会社,東京都,練馬区,春日町６丁目１６番１１号２３０号室,,13,120,1790074,,,,,,,2025-09-22,1,,,,,ショウタイヨウ,0
44,1011603004848,新規,0,2025-09-22,2025-09-22,利達国際合同会社,,合同会社,東京都,練馬区,春日町６丁目１６番１１号フォーチュン光が丘２２９号,,13,120,1790074,,,,,,,2025-09-22,1,,,,,リタツコクサイ,0
49,1012701019085,新規,0,2025-09-22,2025-09-22,株式会社ＳＲプラミング,,株式会社,東京都,東久留米市,前沢４丁目６番１４号,,13,222,2030032,,,,,,,2025-09-22,1,,,,,エスアールプラミング,0
50,1012803003879,新規,0,2025-09-22,2025-09-22,合同会社ＢＩＳＨＮＵ,,合同会社,東京都,立川市,高松町３丁目１４番２号,,13,202,1900011,,,,,,,2025-09-22,1,,,,,ビスヌ,0
58,1020001164857,新規,0,2025-09-22,2025-09-22,株式会社ｃｉｅｌ,,株式会社,神奈川県,横浜市西区,楠町１４－１９－１００９号室,,14,103,2200003,,,,,,,2025-09-22,1,,,,,シエル,0
59,1020001164873,新規,0,2025-09-22,2025-09-22,株式会社Ｔａｌｅｎｔ　Ｆａｃｔｏｒｙ,,株式会社,神奈川県,横浜市神奈川区,金港町５－１４クアドリフォリオ８階,,14,102,2210056,,,,,,,2025-09-22,1,,,,,タレントファクトリー,0
60,1020001164915,新規,0,2025-09-22,2025-09-22,株式会社さあはじめようぜ,,株式会社,神奈川県,横浜市都筑区,茅ケ崎中央２１番１１号ソレーユみなみ３０２,,14,118,2240032,,,,,,,2025-09-22,1,,,,,サアハジメヨウゼ,0
61,1020001164956,新規,0,2025-09-22,2025-09-22,アールホールディングス株式会社,,株式会社,神奈川県,横浜市旭区,川島町１７２３番地,,14,112,2410011,,,,,,,2025-09-22,1,,,,,アールホールディングス,0
62,1020003029406,新規,0,2025-09-22,2025-09-22,合同会社和光興業,,合同会社,神奈川県,横浜市西区,北幸２丁目１０－４８むつみビル３階,,14,103,2200004,,,,,,,2025-09-22,1,,,,,ワコウコウギョウ,0
63,1020003029422,新規,0,2025-09-22,2025-09-22,壹品合同会社,,合同会社,神奈川県,横浜市南区,高根町１丁目４－４０ＫＹＳオフイス２ＦＡ０１２,,14,105,2320022,,,,,,,2025-09-22,1,,,,,イッピン,0
64,1020005016988,新規,0,2025-09-22,2025-09-22,特定非営利活動法人にじいろパレット,,その他の設立登記法人,神奈川県,横浜市南区,別所２丁目１７番２３号,,14,105,2320064,,,,,,,2025-09-22,1,,,,,ニジイロパレット,0
68,1021001086091,新規,0,2025-09-22,2025-09-22,株式会社Ｎコーポレーション,,株式会社,神奈川県,座間市,入谷東２丁目２９番１３号,,14,216,2520028,,,,,,,2025-09-22,1,,,,,エヌコーポレーション,0
69,1021001086315,新規,0,2025-09-22,2025-09-22,Ｂｏｎｎｅ　ｃｈａｎｃｅ株式会社,,株式会社,神奈川県,藤沢市,鵠沼橘１丁目２番４～２０３号,,14,205,2510024,,,,,,,2025-09-22,1,,,,,ボンシャンス,0
76,1030001168700,新規,0,2025-09-22,2025-09-22,株式会社ＳＡＬＡＭ　ＩＮＴＥＲＮＡＴＩＯＮＡＬ,,株式会社,埼玉県,羽生市,東６丁目２０番地８－Ａ－１０１,,11,216,3480052,,,,,,,2025-09-22,1,,,,,サラームインターナショナル,0
77,1030001168733,新規,0,2025-09-22,2025-09-22,京建通商株式会社,,株式会社,埼玉県,川口市,並木元町２－７－１０１,,11,203,3320033,,,,,,,2025-09-22,1,,,,,キョウケンツウショウ,0
83,1040003028554,新規,0,2025-09-22,2025-09-22,ＢＥＳＴ　ＷＩＳＨ合同会社,,合同会社,千葉県,柏市,東中新宿４丁目１番１８－１号１０１号室,,12,217,2770061,,,,,,,2025-09-22,1,,,,,ベストウィッシュ,0
84,1040003028562,新規,0,2025-09-22,2025-09-22,東秦合同会社,,合同会社,千葉県,柏市,光ケ丘２丁目３番７号,,12,217,2770065,,,,,,,2025-09-22,1,,,,,トウシン,0
86,1050001057281,新規,0,2025-09-22,2025-09-22,株式会社秋桜,,株式会社,茨城県,日立市,幸町１丁目１５番１号,,08,202,3170073,,,,,,,2025-09-22,1,,,,,コスモス,0
87,1050001057307,新規,0,2025-09-22,2025-09-22,株式会社ＲＡＹＡＮ　ＴＲＡＤＩＮＧ,,株式会社,茨城県,坂東市,上出島１４８９番地１,,08,228,3060654,,,,,,,2025-09-22,1,,,,,レイアントレイデイング,0
89,1060001038578,新規,0,2025-09-22,2025-09-22,株式会社遠藤ファーム,,株式会社,栃木県,佐野市,下彦間町６９７番地,,09,204,3270325,,,,,,,2025-09-22,1,,,,,エンドウファーム,0
90,1060001038586,新規,0,2025-09-22,2025-09-22,株式会社Ｏｌｉｖｅ,,株式会社,栃木県,さくら市,櫻野１１０２番地１,,09,214,3291312,,,,,,,2025-09-22,1,,,,,オーリブ,0
91,1060001038594,新規,0,2025-09-22,2025-09-22,株式会社ＶＯＬＴＥＸ,,株式会社,栃木県,栃木市,岩舟町新里１１１１番地１,,09,203,3294316,,,,,,,2025-09-22,1,,,,,ボルテックス,0
93,1070001043362,新規,0,2025-09-22,2025-09-22,株式会社ＧＴＫ経済研究所,,株式会社,群馬県,伊勢崎市,除ケ町３５３番地５,,10,204,3720832,,,,,,,2025-09-22,1,,,,,ジーティーケーケイザイケンキュウジョ,0
115,1120001279752,新規,0,2025-09-22,2025-09-22,ＬＵＮＡ株式会社,,株式会社,大阪府,大阪市西成区,萩之茶屋２丁目６番４号、２２６号室,,27,122,5570004,,,,,,,2025-09-22,1,,,,,ルナ,0
116,1120001279777,新規,0,2025-09-22,2025-09-22,株式会社片山工業所,,株式会社,大阪府,大阪市西淀川区,竹島３丁目９番７号,,27,113,5550011,,,,,,,2025-09-22,1,,,,,カタヤマコウギョウショ,0
117,1120001279810,新規,0,2025-09-22,2025-09-22,林森株式会社,,株式会社,大阪府,大阪市生野区,舎利寺３丁目５番１５号,,27,116,5440022,,,,,,,2025-09-22,1,,,,,リンシン,0
118,1120001279827,新規,0,2025-09-22,2025-09-22,株式会社ＨＯＭＥ　ＷＩＮ,,株式会社,大阪府,大阪市東淀川区,東淡路４丁目３０番２号１－Ｂ,,27,114,5330023,,,,,,,2025-09-22,1,,,,,ホームウィン,0
119,1120001279918,新規,0,2025-09-22,2025-09-22,小満株式会社,,株式会社,大阪府,大阪市鶴見区,鶴見５丁目１－１１、５０６号室,,27,124,5380053,,,,,,,2025-09-22,1,,,,,コマン,0
120,1120001280173,新規,0,2025-09-22,2025-09-22,龍光世紀株式会社,,株式会社,大阪府,大阪市東成区,大今里３丁目１５番６号ＩｍａｚａｔｏＴｏｗｅｒ２１１Ｂ,,27,115,5370012,,,,,,,2025-09-22,1,,,,,リュウコウセキ,0
124,1120003030592,新規,0,2025-09-22,2025-09-22,植田美景合同会社,,合同会社,大阪府,大阪市東成区,深江南２丁目８番８－３０２号,,27,115,5370002,,,,,,,2025-09-22,1,,,,,ショクタビケイ,0
125,1120003030601,新規,0,2025-09-22,2025-09-22,佳瑞福合同会社,,合同会社,大阪府,大阪市住吉区,遠里小野６丁目１７番１８－５０４号,,27,120,5580032,,,,,,,2025-09-22,1,,,,,カリフ,0
126,1120003030626,新規,0,2025-09-22,2025-09-22,玄曜イノベーション通商合同会社,,合同会社,大阪府,大阪市北区,豊崎５丁目７番１５号,,27,127,5310072,,,,,,,2025-09-22,1,,,,,ゲンヨウイノベーションツウショウ,0
127,1120003030642,新規,0,2025-09-22,2025-09-22,Ａ＆Ｔ　Ｇｒｏｕｐ合同会社,,合同会社,大阪府,寝屋川市,萱島本町２１番１１号,,27,215,5720827,,,,,,,2025-09-22,1,,,,,エーアンドティーグループ,0
128,1120003030683,新規,0,2025-09-22,2025-09-22,粟合同会社,,合同会社,大阪府,大阪市中央区,平野町１丁目８番１３号平野町八千代ビル３階Ｎｏ．３３３,,27,128,5410046,,,,,,,2025-09-22,1,,,,,アワ,0
133,1120901051517,新規,0,2025-09-22,2025-09-22,株式会社メディスリー,,株式会社,大阪府,豊中市,上新田２丁目３番２０号,,27,203,5600085,,,,,,,2025-09-22,1,,,,,メディスリー,0
140,1130001080556,新規,0,2025-09-22,2025-09-22,株式会社Ｋｓ,,株式会社,京都府,京都市西京区,牛ケ瀬南ノ口町１９番地２,,26,111,6158045,,,,,,,2025-09-22,1,,,,,ケイズ,0
149,1140001140086,新規,0,2025-09-22,2025-09-22,株式会社ＲＵＵＢＯ,,株式会社,兵庫県,尼崎市,久々知１丁目１２番１２レジデンス塚口１０７,,28,202,6610977,,,,,,,2025-09-22,1,,,,,ルウボウ,0
150,1140001140094,新規,0,2025-09-22,2025-09-22,株式会社ＨＡＬグループ,,株式会社,兵庫県,加古川市,野口町長砂１２９９番地の１２,,28,210,6750016,,,,,,,2025-09-22,1,,,,,ハルグループ,0
166,1180001168529,新規,0,2025-09-22,2025-09-22,株式会社エイヤホールディングス,,株式会社,愛知県,名古屋市瑞穂区,堀田通２丁目１６番地,,23,108,4670862,,,,,,,2025-09-22,1,,,,,エイヤホールディングス,0
170,1180003029092,新規,0,2025-09-22,2025-09-22,エニサルタ合同会社,,合同会社,愛知県,東海市,富木島町山中８７番地６,,23,222,4760011,,,,,,,2025-09-22,1,,,,,エニサルタ,0
173,1180301040222,新規,0,2025-09-22,2025-09-22,三川屋農園株式会社,,株式会社,愛知県,豊田市,御作町西川１２０９,,23,211,4700424,,,,,,,2025-09-22,1,,,,,ミカワヤノウエン,0
178,1200001044256,新規,0,2025-09-22,2025-09-22,桜途株式会社,,株式会社,岐阜県,岐阜市,長住町９丁目１１番地ＴＡＮＡＫＡビル８０１号室,,21,201,5008175,,,,,,,2025-09-22,1,,,,,オウト,0
181,1230001021087,新規,0,2025-09-22,2025-09-22,株式会社ＮＯＶＩＫ　ＧＲＯＵＰ,,株式会社,富山県,射水市,堀岡新明神３１番地１,,16,211,9330221,,,,,,,2025-09-22,1,,,,,ノビックグループ,0
184,1230003002507,新規,0,2025-09-22,2025-09-22,合同会社ＰＯＳＩＴＩＶＥ　ＰＲＯＪＥＣＴ,,合同会社,富山県,射水市,三ケ１７２７番地,,16,211,9390341,,,,,,,2025-09-22,1,,,,,ポジティブプロジェクト,0
185,1240001065521,新規,0,2025-09-22,2025-09-22,株式会社アイビー,,株式会社,広島県,呉市,広横路３丁目１番８－３０１号,,34,202,7370113,,,,,,,2025-09-22,1,,,,,アイビー,0
187,1270001009285,新規,0,2025-09-22,2025-09-22,株式会社吉木工業,00140728,株式会社,鳥取県,西伯郡日吉津村,大字日吉津１４６７番地６,,31,384,6893553,,,,,,,2025-09-22,1,,,,,ヨシギコウギョウ,0
190,1290001111428,新規,0,2025-09-22,2025-09-22,株式会社ＹＵＩ,,株式会社,福岡県,糟屋郡粕屋町,原町５丁目６番３５号,,40,349,8112307,,,,,,,2025-09-22,1,,,,,ユイ,0
191,1290001111527,新規,0,2025-09-22,2025-09-22,茉宜商事株式会社,,株式会社,福岡県,福岡市東区,原田１丁目１６番４－１０６号大丸荘,,40,131,8120063,,,,,,,2025-09-22,1,,,,,マツギショウジ,0
192,1290001111568,新規,0,2025-09-22,2025-09-22,株式会社熊谷組,,株式会社,福岡県,那珂川市,大字西畑４５３－７７,,40,231,8111246,,,,,,,2025-09-22,1,,,,,クマガエグミ,0
193,1290003017417,新規,0,2025-09-22,2025-09-22,合同会社オフィステータ・テート,,合同会社,福岡県,久留米市,田主丸町長栖７９０－２－２Ｆ,,40,203,8391201,,,,,,,2025-09-22,1,,,,,オフィステータテート,0
194,1290005019808,新規,0,2025-09-22,2025-09-22,一般社団法人Ｃｉｒｃｕｌａｒ　Ｖａｌｕｅ　ｏｆ　Ｃａｒｂｏｎ,,その他の設立登記法人,福岡県,福岡市西区,大字元岡７４４九州大学都市研究センター（工学研究院内）,,40,135,8190385,,,,,,,2025-09-22,1,,,,,サーキュラーバリューオブカーボン,0
195,1290801031866,新規,0,2025-09-22,2025-09-22,ミンキー株式会社,,株式会社,福岡県,北九州市小倉北区,須賀町１７番８号,,40,106,8020034,,,,,,,2025-09-22,1,,,,,ミンキー,0
196,1290803005158,新規,0,2025-09-22,2025-09-22,合同会社Ａｎｃｈｏｒ,,合同会社,福岡県,中間市,扇ヶ浦１丁目２５番３号,,40,215,8090023,,,,,,,2025-09-22,1,,,,,アンカー,0
197,1310001019791,新規,0,2025-09-22,2025-09-22,株式会社浅栄,,株式会社,長崎県,長崎市,川平町１２０７番地５ほっとメゾン川平３０７,,42,201,8528143,,,,,,,2025-09-22,1,,,,,センエイ,0
201,1330003011225,新規,0,2025-09-22,2025-09-22,合同会社Ｈｉｇｏ　Ｆｏｏｄ　Ｗｏｒｋｓ,,合同会社,熊本県,熊本市中央区,花畑町１番１４号Ａ＆Ｍ・ＨＡＮＡＢＡＴＡ３０１号,,43,101,8600806,,,,,,,2025-09-22,1,,,,,ヒゴフードワークス,0
202,1360001035792,新規,0,2025-09-22,2025-09-22,株式会社Ｒｉｔａｌｎａ,,株式会社,沖縄県,中頭郡読谷村,字高志保２２８番地,,47,324,9040323,,,,,,,2025-09-22,1,,,,,リタルナ,0
203,1360003015256,新規,0,2025-09-22,2025-09-22,琉球風鈴合同会社,,合同会社,沖縄県,中頭郡北谷町,桑江１丁目３番１９号ウィングシャトー北谷７０２,,47,326,9040103,,,,,,,2025-09-22,1,,,,,リュウキュウフウリン,0
204,1360003015264,新規,0,2025-09-22,2025-09-22,Ａｓｉａ　Ｎｅｘｕｓ合同会社,,合同会社,沖縄県,那覇市,久茂地３丁目２６－３２ＹＳＣビル２０２,,47,201,9000015,,,,,,,2025-09-22,1,,,,,アジアネクサス,0
210,1370001053067,新規,0,2025-09-22,2025-09-22,株式会社Ｌｉｍ　Ｃａｒｅ,,株式会社,宮城県,仙台市宮城野区,岩切字入山８３番地の２６９,,04,102,9830821,,,,,,,2025-09-22,1,,,,,リムケア,0
213,1370003007293,新規,0,2025-09-22,2025-09-22,合同会社Ｂ・Ｋ　ＴＲＡＤＩＮＧ,,合同会社,宮城県,黒川郡大郷町,東成田字板谷西山１３番地の２２,,04,422,9813522,,,,,,,2025-09-22,1,,,,,ビーケートレーディング,0
215,1380001035592,新規,0,2025-09-22,2025-09-22,株式会社肉匠,,株式会社,福島県,福島市,北矢野目字竹ノ花３４番地の１,,07,201,9600113,,,,,,,2025-09-22,1,,,,,ニクショウ,0
219,1430001095210,新規,0,2025-09-22,2025-09-22,株式会社アイコニック,,株式会社,北海道,札幌市西区,西野三条９丁目５番８号,,01,107,0630033,,,,,,,2025-09-22,1,,,,,アイコニック,0
220,1430003018078,新規,0,2025-09-22,2025-09-22,ＵＹＵＮＩ合同会社,,合同会社,北海道,室蘭市,天神町３番１号,,01,205,0500077,,,,,,,2025-09-22,1,,,,,ウユニ,0
221,1450001014738,新規,0,2025-09-22,2025-09-22,株式会社ｈｅｄｇｅｈｏｇ,,株式会社,北海道,旭川市,三条通７丁目４４３番地２ヨネザワ第４ビル３階,,01,204,0700033,,,,,,,2025-09-22,1,,,,,ヘッジホッグ,0
231,2010001258568,新規,0,2025-09-22,2025-09-22,イライ不動産株式会社,,株式会社,東京都,千代田区,一番町１９番地麹町サニーマンション７０７号室,,13,101,1020082,,,,,,,2025-09-22,1,,,,,イライフドウサン,0
243,2010401193142,新規,0,2025-09-22,2025-09-22,株式会社ＭｅｄＶｏｙａｇｅ,,株式会社,東京都,港区,北青山１丁目３番１号アールキューブ青山３階,,13,103,1070061,,,,,,,2025-09-22,1,,,,,メドヴォヤージュ,0
248,2010405024806,新規,0,2025-09-22,2025-09-22,一般社団法人ＴＳＭ１７３,,その他の設立登記法人,東京都,港区,元赤坂１丁目１番７号,,13,103,1070051,,,,,,,2025-09-22,1,,,,,ティーエスエムヒャクナナジュウサン,0
252,2010501054748,新規,0,2025-09-22,2025-09-22,株式会社アゴー,,株式会社,東京都,台東区,上野６丁目１６番１８号ＴＨＥＢＬＯＯＭＵＥＮＯ２ｎｄ７階,,13,106,1100005,,,,,,,2025-09-22,1,,,,,アゴー,0
254,2010601067988,新規,0,2025-09-22,2025-09-22,株式会社ＶＩＶＡ　ｋｉｄｓ,,株式会社,東京都,江東区,枝川１丁目６番２０号ＲＹＵ’Ｓ　ＣＯＵＲＴ２０４,,13,108,1350051,,,,,,,2025-09-22,1,,,,,ビバキッズ,0
255,2010601068004,新規,0,2025-09-22,2025-09-22,株式会社グラシア,,株式会社,東京都,墨田区,立花３丁目２６番１５号,,13,107,1310043,,,,,,,2025-09-22,1,,,,,グラシア,0
257,2010701048343,新規,0,2025-09-22,2025-09-22,株式会社ＴａｍａＳｏｒａ,,株式会社,東京都,品川区,南品川３丁目６－７ｔｏｇｇｌｅ南品川３Ｂ,,13,109,1400004,,,,,,,2025-09-22,1,,,,,タマソラ,0
271,2011001172131,新規,0,2025-09-22,2025-09-22,株式会社Ｌｉｔｔｌｅ　Ｆｏｕｎｔａｉｎ,,株式会社,東京都,渋谷区,道玄坂１丁目１６－６二葉ビル８ｂ,,13,113,1500043,,,,,,,2025-09-22,1,,,,,リトルファウンテン,0
272,2011001172156,新規,0,2025-09-22,2025-09-22,株式会社Ｍｏｒｐｌｕｓ,,株式会社,東京都,渋谷区,幡ヶ谷３丁目３７番１１,,13,113,1510072,,,,,,,2025-09-22,1,,,,,モアプラス,0
273,2011001172189,新規,0,2025-09-22,2025-09-22,オフィスムラカミ株式会社,,株式会社,東京都,渋谷区,恵比寿４丁目２０番３号恵比寿ガーデンプレイスタワー２９階,,13,113,1500013,,,,,,,2025-09-22,1,,,,,オフィスムラカミ,0
274,2011001172206,新規,0,2025-09-22,2025-09-22,ＳＷ‐０６０８株式会社,,株式会社,東京都,渋谷区,恵比寿４丁目１１番９号,,13,113,1500013,,,,,,,2025-09-22,1,,,,,エスダブリューゼロシックスゼロエイト,0
275,2011001172569,新規,0,2025-09-22,2025-09-22,株式会社アメリオ・アール,,株式会社,東京都,渋谷区,道玄坂２丁目２０番２６－２０６号,,13,113,1500043,,,,,,,2025-09-22,1,,,,,アメリオアール,0
276,2011003022417,新規,0,2025-09-22,2025-09-22,合同会社Ｃ＆Ｂコンサルティング,,合同会社,東京都,渋谷区,道玄坂２丁目６番１２号,,13,113,1500043,,,,,,,2025-09-22,1,,,,,シーアンドビーコンサルティング,0
277,2011003022433,新規,0,2025-09-22,2025-09-22,ＪＩＧＡ　ＣＯＲＰＯＲＡＴＩＯＮ合同会社,,合同会社,東京都,渋谷区,神宮前１丁目７－１０－１０５,,13,113,1500001,,,,,,,2025-09-22,1,,,,,ジガコーポレーション,0
280,2011101113290,新規,0,2025-09-22,2025-09-22,株式会社天使企画,,株式会社,東京都,新宿区,西新宿３丁目３番１３号西新宿水間ビル２Ｆ,,13,104,1600023,,,,,,,2025-09-22,1,,,,,テンシキカク,0
282,2011105011598,新規,0,2025-09-22,2025-09-22,一般社団法人静けさの森共鳴機構,,その他の設立登記法人,東京都,新宿区,信濃町３５,,13,104,1600016,,,,,,,2025-09-22,1,,,,,シズケサノモリキョウメイキコウ,0
285,2011501032586,新規,0,2025-09-22,2025-09-22,株式会社那由多,,株式会社,東京都,荒川区,南千住４丁目７番３－３５１０号,,13,118,1160003,,,,,,,2025-09-22,1,,,,,ナユタ,0
288,2011601028963,新規,0,2025-09-22,2025-09-22,何生国際貿易株式会社,,株式会社,東京都,練馬区,春日町６丁目１６番１１号２３２号室,,13,120,1790074,,,,,,,2025-09-22,1,,,,,カセイコクサイボウエキ,0
289,2011603004847,新規,0,2025-09-22,2025-09-22,麟潤麟合同会社,,合同会社,東京都,練馬区,春日町６丁目１６番１１号フォーチュン光が丘２８９号,,13,120,1790074,,,,,,,2025-09-22,1,,,,,リンジュンリン,0
292,2011701028748,新規,0,2025-09-22,2025-09-22,豊川株式会社,,株式会社,東京都,江戸川区,西小岩５丁目１３番１３小出マンション１３２号室,,13,123,1330057,,,,,,,2025-09-22,1,,,,,トヨカワ,0
296,2013101009799,新規,0,2025-09-22,2025-09-22,ＨＷＹ株式会社,,株式会社,東京都,青梅市,黒沢２丁目１０５２－６コーポ黒沢西２０３,,13,205,1980005,,,,,,,2025-09-22,1,,,,,エイチダブリューワイ,0
297,2013301054983,新規,0,2025-09-22,2025-09-22,株式会社ｋｏｂａｋｏ,,株式会社,東京都,豊島区,池袋１丁目４２番１４号２８山京ビル７階２３号,,13,116,1700014,,,,,,,2025-09-22,1,,,,,コバコ,0
307,2020001164872,新規,0,2025-09-22,2025-09-22,信和財託株式会社,,株式会社,神奈川県,横浜市西区,西戸部町２丁目２０３番地３２,,14,103,2200046,,,,,,,2025-09-22,1,,,,,シンワザイタク,0
308,2020001164914,新規,0,2025-09-22,2025-09-22,錦程株式会社,,株式会社,神奈川県,川崎市川崎区,本町２丁目１３番地１１・１４０４,,14,131,2100001,,,,,,,2025-09-22,1,,,,,キンテイ,0
309,2020001164922,新規,0,2025-09-22,2025-09-22,株式会社Ｔ＆Ｓヒューミリティサービス,,株式会社,神奈川県,横浜市金沢区,谷津町４０番地２３,,14,108,2360016,,,,,,,2025-09-22,1,,,,,ティーアンエスヒューミリティサービス,0
312,2020003029413,新規,0,2025-09-22,2025-09-22,スマイル藤井合同会社,,合同会社,神奈川県,横浜市瀬谷区,阿久和東２丁目６番地１１,,14,114,2460023,,,,,,,2025-09-22,1,,,,,スマイルフジイ,0
316,2021001086297,新規,0,2025-09-22,2025-09-22,ＡＬＥＸＡＮＤＲＩＡ　ＩＮＤＵＳＴＲＩＥＳ株式会社,,株式会社,神奈川県,座間市,相模が丘１丁目６番１２号サンパレス第１０相模が丘Ｂ棟２０２号室,,14,216,2520001,,,,,,,2025-09-22,1,,,,,アレクサンドリアインダストリーズ,0
317,2021001086306,新規,0,2025-09-22,2025-09-22,株式会社さんゆーず,,株式会社,神奈川県,座間市,南栗原５丁目１３番１０号第３よしのハイツ１０５号,,14,216,2520015,,,,,,,2025-09-22,1,,,,,サンユーズ,0
318,2021001086314,新規,0,2025-09-22,2025-09-22,コウノ株式会社,,株式会社,神奈川県,綾瀬市,深谷中６丁目１０番３８号,,14,218,2521107,,,,,,,2025-09-22,1,,,,,コウノ,0
319,2021003016558,新規,0,2025-09-22,2025-09-22,合同会社サニー,,合同会社,神奈川県,秦野市,戸川５１５番地２５,,14,211,2591306,,,,,,,2025-09-22,1,,,,,サニー,0
320,2021003016566,新規,0,2025-09-22,2025-09-22,合同会社ＳＭＺ,,合同会社,神奈川県,相模原市南区,相模大野１丁目１７番７号エクセルコート２－１０１,,14,153,2520303,,,,,,,2025-09-22,1,,,,,エスエムゼット,0
325,2030001168740,新規,0,2025-09-22,2025-09-22,脱兎株式会社,,株式会社,埼玉県,坂戸市,伊豆の山町２１番地４７ＫＩＶオフィス伊豆の山１号棟Ｂ号室,,11,239,3500275,,,,,,,2025-09-22,1,,,,,ダット,0
328,2030003027671,新規,0,2025-09-22,2025-09-22,ＭＩＵＭＩＵ合同会社,,合同会社,埼玉県,川口市,並木３丁目１８番２０号,,11,203,3320034,,,,,,,2025-09-22,1,,,,,ミウミウ,0
334,2040003028561,新規,0,2025-09-22,2025-09-22,Ｓ＆Ｎ合同会社,,合同会社,千葉県,富里市,日吉台３丁目１３番４,,12,233,2860201,,,,,,,2025-09-22,1,,,,,エスアンドエヌ,0
344,2050003009585,新規,0,2025-09-22,2025-09-22,合同会社ｍｅｄｉＴＯＳ,,合同会社,茨城県,那珂郡東海村,白方中央１丁目１７－５,,08,341,3191109,,,,,,,2025-09-22,1,,,,,メディトス,0
348,2060001038593,新規,0,2025-09-22,2025-09-22,ＢＩＬＡＬ　ＥＮＴＥＲＰＲＩＳＥＳ株式会社,,株式会社,栃木県,栃木市,西方町真名子２２１８－７グループハウスマナゴＭ－３,,09,203,3220605,,,,,,,2025-09-22,1,,,,,ビラルエンタープライセス,0
353,2070003006093,新規,0,2025-09-22,2025-09-22,合同会社ケイエムディ,,合同会社,群馬県,伊勢崎市,三和町２１７２番地１,,10,204,3720011,,,,,,,2025-09-22,1,,,,,ケイエムディ,0
354,2070003006102,新規,0,2025-09-22,2025-09-22,エーエートレーディング合同会社,,合同会社,群馬県,高崎市,倉賀野町２７３７番地１（３号棟）,,10,202,3701201,,,,,,,2025-09-22,1,,,,,エーエートレーディング,0
356,2080101025795,新規,0,2025-09-22,2025-09-22,株式会社オートユートピア,,株式会社,静岡県,伊豆の国市,原木７４２―１７,,22,225,4102124,,,,,,,2025-09-22,1,,,,,オートユートピア,0
374,2120001279801,新規,0,2025-09-22,2025-09-22,聿良株式会社,,株式会社,大阪府,大阪市大正区,平尾４丁目１１－７共栄ビル１０１,,27,108,5510012,,,,,,,2025-09-22,1,,,,,イツリョウ,0
375,2120001279818,新規,0,2025-09-22,2025-09-22,大阪美しい未来株式会社,,株式会社,大阪府,大阪市西成区,天下茶屋２丁目２０番１６－２０３号室,,27,122,5570014,,,,,,,2025-09-22,1,,,,,オオサカオイシイミライ,0
376,2120001279875,新規,0,2025-09-22,2025-09-22,株式会社タオウェル,,株式会社,大阪府,大阪市鶴見区,放出東１丁目３番１８号,,27,124,5380044,,,,,,,2025-09-22,1,,,,,タオウェル,0
377,2120001280008,新規,0,2025-09-22,2025-09-22,三井根気株式会社,,株式会社,大阪府,大阪市住吉区,遠里小野３丁目１番１２号２－Ｉ号室,,27,120,5580032,,,,,,,2025-09-22,1,,,,,ミツイコンキ,0
378,2120001280172,新規,0,2025-09-22,2025-09-22,松基株式会社,,株式会社,大阪府,大阪市東成区,大今里３丁目１５番６号ＩｍａｚａｔｏＴｏｗｅｒ３１１Ｃ,,27,115,5370012,,,,,,,2025-09-22,1,,,,,ショウキ,0
383,2120903005841,新規,0,2025-09-22,2025-09-22,合同会社バロムワン,,合同会社,大阪府,吹田市,古江台２丁目８番１８号,,27,205,5650874,,,,,,,2025-09-22,1,,,,,バロムワン,0
384,2122001039648,新規,0,2025-09-22,2025-09-22,福田電設株式会社,,株式会社,大阪府,東大阪市,加納８丁目３１番１２号,,27,227,5780901,,,,,,,2025-09-22,1,,,,,フクダデンセツ,0
385,2122001039664,新規,0,2025-09-22,2025-09-22,阪奈ホールディングス株式会社,,株式会社,大阪府,東大阪市,島之内１丁目７番２７号,,27,227,5780981,,,,,,,2025-09-22,1,,,,,ハンナホールディングス,0
386,2122005003848,新規,0,2025-09-22,2025-09-22,一般社団法人Ｒｅｔｒｅａｔ＆Ｒｅｃｏｖｅｒｙ,,その他の設立登記法人,大阪府,東大阪市,池島町３丁目４番６号,,27,227,5798064,,,,,,,2025-09-22,1,,,,,リトリートアンドリカバリー,0
390,2130001080571,新規,0,2025-09-22,2025-09-22,ＧＯＡＬ　ＥＡＧＬＥ株式会社,,株式会社,京都府,京都市伏見区,風呂屋町２６５番地,,26,109,6128058,,,,,,,2025-09-22,1,,,,,ゴールイーグル,0
397,2140001140028,新規,0,2025-09-22,2025-09-22,株式会社エヌオート,,株式会社,兵庫県,神戸市長田区,五番町１丁目５－２,,28,106,6530003,,,,,,,2025-09-22,1,,,,,エヌオート,0
398,2140001140077,新規,0,2025-09-22,2025-09-22,ＱＵＡＤ‐ＪＡＰＡＮ株式会社,,株式会社,兵庫県,神戸市中央区,栄町通５丁目１番１４号,,28,110,6500023,,,,,,,2025-09-22,1,,,,,クアッドジャパン,0
399,2140001140085,新規,0,2025-09-22,2025-09-22,株式会社ハレ工務店,,株式会社,兵庫県,明石市,大久保町駅前２丁目６番地８ＮＲビル５０１,,28,203,6740058,,,,,,,2025-09-22,1,,,,,ハレコウムテン,0
400,2140001140093,新規,0,2025-09-22,2025-09-22,株式会社ＡＸＩＡ,,株式会社,兵庫県,三木市,鳥町３６９番地,,28,215,6730456,,,,,,,2025-09-22,1,,,,,アクシア,0
401,2140001140119,新規,0,2025-09-22,2025-09-22,株式会社ＰＳＣ,,株式会社,兵庫県,丹波篠山市,東吹９４１番地－１号館,,28,221,6692202,,,,,,,2025-09-22,1,,,,,ピーエスシー,0
405,2140002071478,新規,0,2025-09-22,2025-09-22,有限会社信和水産,,有限会社,兵庫県,明石市,林２丁目１０番１１号,,28,203,6730034,,,,,,,2025-09-22,1,,,,,,0
408,2170003002306,新規,0,2025-09-22,2025-09-22,ＩＪＡＺ　ＴＲＡＤＩＮＧ合同会社,,合同会社,和歌山県,岩出市,清水１２７番３号グリーンハイツ４－４号室,,30,209,6496227,,,,,,,2025-09-22,1,,,,,イジャズトレーディング,0
422,2180001168718,新規,0,2025-09-22,2025-09-22,株式会社ｅＸｉｌｌｉｏｎ,,株式会社,愛知県,名古屋市名東区,藤見が丘６０番地,,23,115,4650048,,,,,,,2025-09-22,1,,,,,エクシリオン,0
428,2180005021237,新規,0,2025-09-22,2025-09-22,一般社団法人あいち未来創生プラットフォーム,,その他の設立登記法人,愛知県,名古屋市天白区,鴻の巣２丁目３１５番地の２,,23,116,4680003,,,,,,,2025-09-22,1,,,,,アイチミライソウセイプロットフォーム,0
430,2190001032534,新規,0,2025-09-22,2025-09-22,三重広域エネルギー株式会社,,株式会社,三重県,度会郡度会町,棚橋１２１５番地１,,24,470,5162103,,,,,,,2025-09-22,1,,,,,ミエコウイキエネルギー,0
431,2190003005182,新規,0,2025-09-22,2025-09-22,ミラリンク合同会社,,合同会社,三重県,亀山市,和賀町１１番２８号,,24,210,5190145,,,,,,,2025-09-22,1,,,,,ミラリンク,0
433,2200003007045,新規,0,2025-09-22,2025-09-22,合同会社こころ,,合同会社,岐阜県,各務原市,川島緑町２丁目１９７番地１４,,21,213,5016027,,,,,,,2025-09-22,1,,,,,ココロ,0
438,2240001065512,新規,0,2025-09-22,2025-09-22,株式会社アルファベット,,株式会社,広島県,広島市西区,大宮１丁目１番３３－１０１号,,34,104,7330007,,,,,,,2025-09-22,1,,,,,アルファベット,0
439,2240001065520,新規,0,2025-09-22,2025-09-22,株式会社佳耀,,株式会社,広島県,広島市東区,山根町２７番１－１４１１号,,34,102,7320048,,,,,,,2025-09-22,1,,,,,カヨウ,0
440,2240001065529,新規,0,2025-09-22,2025-09-22,株式会社ボルツグループ,,株式会社,広島県,広島市中区,三川町４番１０号６階,,34,101,7300029,,,,,,,2025-09-22,1,,,,,ボルツグループ,0
444,2240003007413,新規,0,2025-09-22,2025-09-22,合同会社アマヤ,,合同会社,広島県,広島市西区,己斐本町３丁目９－３－７０７号,,34,104,7330812,,,,,,,2025-09-22,1,,,,,アマヤ,0
447,2250003003816,新規,0,2025-09-22,2025-09-22,合同会社ランダーブルー,,合同会社,山口県,下関市,竹崎町３丁目５番２２号,,35,201,7500025,,,,,,,2025-09-22,1,,,,,ランダーブルー,0
449,2260001040562,新規,0,2025-09-22,2025-09-22,Ｓフィールド株式会社,,株式会社,岡山県,都窪郡早島町,早島３９９１番地１１４,,33,423,7010304,,,,,,,2025-09-22,1,,,,,エスフィールド,0
450,2260003005349,新規,0,2025-09-22,2025-09-22,コトウラ染色所合同会社,,合同会社,岡山県,倉敷市,児島田の口４丁目１７番１３号,,33,202,7110903,,,,,,,2025-09-22,1,,,,,コトウラセンショクショ,0
454,2290001111369,新規,0,2025-09-22,2025-09-22,アネーラ株式会社,,株式会社,福岡県,福岡市中央区,大名２丁目６番５０号福岡大名ガーデンシティ,,40,133,8100041,,,,,,,2025-09-22,1,,,,,アネーラ,0
455,2290001111435,新規,0,2025-09-22,2025-09-22,株式会社Ｃｒｅｄｏａ,,株式会社,福岡県,福岡市中央区,警固２丁目１９番１３号警固ロイヤルビル５Ｆ－５１３号,,40,133,8100023,,,,,,,2025-09-22,1,,,,,クレドア,0
456,2290001111443,新規,0,2025-09-22,2025-09-22,博多スピリッツ株式会社,,株式会社,福岡県,福岡市博多区,祇園町３番６号,,40,132,8120038,,,,,,,2025-09-22,1,,,,,ハカタスピリッツ,0
457,2290001111468,新規,0,2025-09-22,2025-09-22,株式会社Ｔｅｎｏｗａ,,株式会社,福岡県,筑後市,大字久富１５３３番地１０,,40,211,8330056,,,,,,,2025-09-22,1,,,,,テノワ,0
458,2290001111567,新規,0,2025-09-22,2025-09-22,マリーテクノス株式会社,,株式会社,福岡県,大野城市,大城４丁目３１－１７,,40,219,8160911,,,,,,,2025-09-22,1,,,,,マリーテクノス,0
459,2290001111575,新規,0,2025-09-22,2025-09-22,株式会社ＭｙＧｒａｎｔ,,株式会社,福岡県,福岡市博多区,中洲３丁目５番１０号ジョイパックビル３階,,40,132,8100801,,,,,,,2025-09-22,1,,,,,マイグラント,0
460,2290003017399,新規,0,2025-09-22,2025-09-22,合同会社ＤａｔａＣｒｅｓｔ,,合同会社,福岡県,宗像市,自由ヶ丘南２丁目１番地４,,40,220,8114156,,,,,,,2025-09-22,1,,,,,データクレスト,0
464,2310001019790,新規,0,2025-09-22,2025-09-22,大興エナジー株式会社,,株式会社,長崎県,佐世保市,卸本町２８番２号,,42,202,8571162,,,,,,,2025-09-22,1,,,,,タイコウエナジー,0
465,2320003004773,新規,0,2025-09-22,2025-09-22,Ｓａｒｄｉｎａｓ＆Ｃｏ．合同会社,,合同会社,大分県,中津市,耶馬溪町大字大島１４７６番地,,44,203,8710431,,,,,,,2025-09-22,1,,,,,サルディナスアンドカンパニー,0
466,2330005010950,新規,0,2025-09-22,2025-09-22,一般社団法人ＩＫＩ,,その他の設立登記法人,熊本県,上天草市,大矢野町中２８３４,,43,212,8693603,,,,,,,2025-09-22,1,,,,,イキ,0
468,2340003004953,新規,0,2025-09-22,2025-09-22,合同会社ｆｕｍｉｃｏライフ＆テック,,合同会社,鹿児島県,鹿児島市,上本町１６番２号,,46,201,8920818,,,,,,,2025-09-22,1,,,,,フミコーライフアンドテック,0
471,2360001035800,新規,0,2025-09-22,2025-09-22,株式会社沖縄ＲＥＤ,,株式会社,沖縄県,国頭郡恩納村,字真栄田３６０１番地３,,47,311,9040417,,,,,,,2025-09-22,1,,,,,オキナワレッド,0
472,2360003015263,新規,0,2025-09-22,2025-09-22,合同会社ＴＡＹＯＲＩ‐１１,,合同会社,沖縄県,宜野湾市,宇地泊１丁目７番２０号レキオススクエア２－Ｄ,,47,205,9012227,,,,,,,2025-09-22,1,,,,,タヨリイレブン,0
474,2370001053058,新規,0,2025-09-22,2025-09-22,株式会社ＺＥＮ,,株式会社,宮城県,仙台市若林区,白萩町９番２６－１０２号,,04,103,9840048,,,,,,,2025-09-22,1,,,,,ゼン,0
475,2370001053066,新規,0,2025-09-22,2025-09-22,ＤＮ　ＥＸＰＯＲＴＳ株式会社,,株式会社,宮城県,柴田郡大河原町,字新南７２番地５,,04,321,9891245,,,,,,,2025-09-22,1,,,,,ディーエヌエクスポーツ,0
476,2370003007292,新規,0,2025-09-22,2025-09-22,合同会社かえで,,合同会社,宮城県,塩竈市,楓町３丁目１３番４号,,04,203,9850084,,,,,,,2025-09-22,1,,,,,カエデ,0
479,2390003002449,新規,0,2025-09-22,2025-09-22,Ｃｌｏｖｅｒ　ｙｕｈｒｉｋｕ合同会社,,合同会社,山形県,山形市,肴町４番８号,,06,201,9900824,,,,,,,2025-09-22,1,,,,,クローバーユーリク,0
490,2440001009688,新規,0,2025-09-22,2025-09-22,株式会社華縁日和,,株式会社,北海道,函館市,東山２丁目６５番２１号,,01,202,0410835,,,,,,,2025-09-22,1,,,,,カエンビヨリ,0
497,3010001258534,新規,0,2025-09-22,2025-09-22,Ａｒｅａ　Ｔｏｋｙｏ株式会社,,株式会社,東京都,中央区,八重洲２丁目１番１号１２階,,13,102,1040028,,,,,,,2025-09-22,1,,,,,エリアトウキョウ,0
498,3010001258550,新規,0,2025-09-22,2025-09-22,エフジーグリーン流動化株式会社,,株式会社,東京都,千代田区,麹町５丁目１番地１,,13,101,1020083,,,,,,,2025-09-22,1,,,,,エフジーグリーンリュウドウカ,0
499,3010001258716,新規,0,2025-09-22,2025-09-22,株式会社エイムホールディングス,,株式会社,東京都,中央区,築地１丁目１２番２２号コンワビル２階,,13,102,1040045,,,,,,,2025-09-22,1,,,,,エイムホールディングス,0
500,3010003048710,新規,0,2025-09-22,2025-09-22,Ｎｅｗ　Ｃｉｒｃｌｅ　Ｓｔｕｄｉｏｓ合同会社,,合同会社,東京都,千代田区,神田東松下町３７番地２加瀬ビル１３０、３０３号室,,13,101,1010042,,,,,,,2025-09-22,1,,,,,ニューサークルスタジオ,0
519,3010401193224,新規,0,2025-09-22,2025-09-22,東京浩文株式会社,,株式会社,東京都,港区,赤坂９丁目２番６－３０３号,,13,103,1070052,,,,,,,2025-09-22,1,,,,,トウキョウコウブン,0
520,3010401193232,新規,0,2025-09-22,2025-09-22,株式会社ＳＥＥＤ,,株式会社,東京都,港区,北青山１丁目３番１号アールキューブ青山３階,,13,103,1070061,,,,,,,2025-09-22,1,,,,,シード,0
524,3010403036075,新規,0,2025-09-22,2025-09-22,Ｐｒｏｃｅｄｅ合同会社,,合同会社,東京都,港区,赤坂２丁目１４番１１号天翔赤坂ビル２階２１０号室,,13,103,1070052,,,,,,,2025-09-22,1,,,,,プロシデ,0
526,3010701048268,新規,0,2025-09-22,2025-09-22,株式会社インターリンクテクノロジーズ,,株式会社,東京都,品川区,南大井６丁目２８番９号大成ビル９階,,13,109,1400013,,,,,,,2025-09-22,1,,,,,インターリンクテクノロジー,0
527,3010701048334,新規,0,2025-09-22,2025-09-22,日本池田商事株式会社,,株式会社,東京都,品川区,東五反田５丁目４－６,,13,109,1410022,,,,,,,2025-09-22,1,,,,,ニホンイケダショウジ,0
528,3010703007924,新規,0,2025-09-22,2025-09-22,合同会社ＰＤコンサルティング,,合同会社,東京都,品川区,東五反田２丁目１０番１－３７０３号,,13,109,1410022,,,,,,,2025-09-22,1,,,,,ピーディーコンサルティング,0
531,3010801036619,新規,0,2025-09-22,2025-09-22,ＧＲＡＮＤ　ＧＡＴＥ株式会社,,株式会社,東京都,大田区,大森北６丁目２５－１１,,13,111,1430016,,,,,,,2025-09-22,1,,,,,グランドゲート,0
533,3010901058075,新規,0,2025-09-22,2025-09-22,生活クラブ東京まちなか市民ソーラー株式会社,,株式会社,東京都,世田谷区,宮坂３丁目１３番１３号,,13,112,1560051,,,,,,,2025-09-22,1,,,,,セイカツクラブトウキョウマチナカシミンソーラー,0
537,3011001172130,新規,0,2025-09-22,2025-09-22,株式会社ＡＬＧＯＶＩＳＩＯＮＳ,,株式会社,東京都,渋谷区,円山町５番３号ＭＩＥＵＸ渋谷ビル８階,,13,113,1500044,,,,,,,2025-09-22,1,,,,,アルゴビジョンズ,0
539,3011003022432,新規,0,2025-09-22,2025-09-22,合同会社Ｓｏｙｏ’ｓ,,合同会社,東京都,渋谷区,恵比寿南１丁目４番２号紀伊國屋ビル４階,,13,113,1500022,,,,,,,2025-09-22,1,,,,,ソーヨーズ,0
546,3011203004825,新規,0,2025-09-22,2025-09-22,合同会社Ｍｏｖｅｏ,,合同会社,東京都,中野区,新井３丁目２４番７号Ａ．Ｉ．ＣｏｒｐｏＢ－２,,13,114,1650026,,,,,,,2025-09-22,1,,,,,モベオ,0
550,3011301030905,新規,0,2025-09-22,2025-09-22,株式会社ベッツやまざき,,株式会社,東京都,杉並区,永福４丁目２２番６号,,13,115,1680064,,,,,,,2025-09-22,1,,,,,ベッツヤマザキ,0
551,3011501032577,新規,0,2025-09-22,2025-09-22,＿享安和株式会社,00140734,株式会社,東京都,荒川区,西尾久６丁目２４番３－１０９号,,13,118,1160011,,,,,,,2025-09-22,1,,,,,キンキョウアンワ,0
553,3011701028747,新規,0,2025-09-22,2025-09-22,建偉コンサルティング株式会社,,株式会社,東京都,江戸川区,平井７丁目２０－１３－２０２室,,13,123,1320035,,,,,,,2025-09-22,1,,,,,ケンイコンサルティング,0
555,3011703004382,新規,0,2025-09-22,2025-09-22,Ｔ‐ＳＫＹ　ＪＡＰＡＮ合同会社,,合同会社,東京都,江戸川区,平井５丁目３２番１１号伊藤荘２０１,,13,123,1320035,,,,,,,2025-09-22,1,,,,,ティースカイジャパン,0
558,3012701019083,新規,0,2025-09-22,2025-09-22,Ｌ１株式会社,,株式会社,東京都,小平市,学園東町１丁目７番８－２号,,13,211,1870043,,,,,,,2025-09-22,1,,,,,エルワン,0
559,3012703003374,新規,0,2025-09-22,2025-09-22,合同会社近所のお坊さん,,合同会社,東京都,小平市,花小金井１丁目２９番９号,,13,211,1870002,,,,,,,2025-09-22,1,,,,,キンジョノオボウサン,0
561,3013103001489,新規,0,2025-09-22,2025-09-22,合同会社Ｌｉｎｏａ,,合同会社,東京都,あきる野市,草花２８６６番地２,,13,228,1970802,,,,,,,2025-09-22,1,,,,,リノア,0
566,3020001164905,新規,0,2025-09-22,2025-09-22,株式会社発心社,,株式会社,神奈川県,川崎市宮前区,犬蔵１丁目１９番６号,,14,136,2160011,,,,,,,2025-09-22,1,,,,,ホッシンシャ,0
571,3020003029395,新規,0,2025-09-22,2025-09-22,ＴＨＴ合同会社,,合同会社,神奈川県,横浜市鶴見区,梶山１丁目２３番６号プラムハイツ２０３,,14,101,2300072,,,,,,,2025-09-22,1,,,,,ティーエイチティー,0
572,3020003029453,新規,0,2025-09-22,2025-09-22,合同会社Ａｚ’Ｌｉｎｋ．ｓ,,合同会社,神奈川県,川崎市多摩区,長沢３丁目１５－５１,,14,135,2140035,,,,,,,2025-09-22,1,,,,,アズリンクス,0
574,3020005016986,新規,0,2025-09-22,2025-09-22,一般社団法人こども保育支援協会,,その他の設立登記法人,神奈川県,横浜市南区,永田東１丁目１８番６－３０１号,,14,105,2320072,,,,,,,2025-09-22,1,,,,,コドモホイクシエンキョウカイ,0
576,3021001086296,新規,0,2025-09-22,2025-09-22,藍然株式会社,,株式会社,神奈川県,小田原市,米神２４７番地の３,,14,206,2500023,,,,,,,2025-09-22,1,,,,,アイゼン,0
577,3021001086305,新規,0,2025-09-22,2025-09-22,株式会社Ｈ．Ｙ．ＴＲＡＤＩＮＧ,,株式会社,神奈川県,座間市,相模が丘４丁目２４番３号ヴァンハウス小田急相模原２０７号,,14,216,2520001,,,,,,,2025-09-22,1,,,,,エイチワイトレーディング,0
578,3021003016549,新規,0,2025-09-22,2025-09-22,欣栄合同会社,,合同会社,神奈川県,小田原市,小田原南町四丁目１０－２０,,14,206,2500000,,,,,,,2025-09-22,1,,,,,キンエイ,0
580,3030001168707,新規,0,2025-09-22,2025-09-22,ＹＫＤ株式会社,,株式会社,埼玉県,さいたま市浦和区,仲町２丁目１６－４第３アルクビル２ＦＢ,,11,107,3300062,,,,,,,2025-09-22,1,,,,,ワイケーディー,0
583,3030003027522,新規,0,2025-09-22,2025-09-22,ＲｅａｌＬｉｎｋ合同会社,,合同会社,埼玉県,三郷市,彦成３丁目８－９－５０４,,11,237,3410003,,,,,,,2025-09-22,1,,,,,リアルリンク,0
586,3040001140516,新規,0,2025-09-22,2025-09-22,株式会社ソナトレーダース,,株式会社,千葉県,四街道市,大日５９番地１４,,12,228,2840001,,,,,,,2025-09-22,1,,,,,ソナトレーダース,0
592,3040003028560,新規,0,2025-09-22,2025-09-22,合同会社香取工業,,合同会社,千葉県,香取市,玉造３丁目１５番地４,,12,236,2870041,,,,,,,2025-09-22,1,,,,,カトリコウギョウ,0
596,3050001057247,新規,0,2025-09-22,2025-09-22,自在縁株式会社,,株式会社,茨城県,日立市,幸町１丁目１５番１号,,08,202,3170073,,,,,,,2025-09-22,1,,,,,ジザイエン,0
597,3050003009592,新規,0,2025-09-22,2025-09-22,Ｓａｈｉ　Ｔｒａｄｉｎｇ合同会社,,合同会社,茨城県,古河市,大山１４４番地１,,08,204,3060052,,,,,,,2025-09-22,1,,,,,サヒトレーディング,0
602,3060001038576,新規,0,2025-09-22,2025-09-22,株式会社ＦＡＩＺ貿易,,株式会社,栃木県,栃木市,皆川城内町７７２番地３,,09,203,3280067,,,,,,,2025-09-22,1,,,,,,0
603,3060001038592,新規,0,2025-09-22,2025-09-22,株式会社ＥＩＺＯ　ＳＨＯＰ,,株式会社,栃木県,宇都宮市,駒生町３３２５番地２３,,09,201,3200065,,,,,,,2025-09-22,1,,,,,エイゾーショップ,0
610,3080101025794,新規,0,2025-09-22,2025-09-22,株式会社ａｕｔｏ　ｎｅｘｕｓ,,株式会社,静岡県,三島市,長伏５０番地の３の２,,22,206,4110824,,,,,,,2025-09-22,1,,,,,オートネクサス,0
614,3090003002899,新規,0,2025-09-22,2025-09-22,合同会社山口設備興業,,合同会社,山梨県,南アルプス市,寺部３９番地１,,19,208,4000337,,,,,,,2025-09-22,1,,,,,ヤマグチセツビコウギョウ,0
633,3120001279197,新規,0,2025-09-22,2025-09-22,株式会社ソナエ,,株式会社,大阪府,大阪市城東区,鴫野東１丁目１番１３－３０１号,,27,118,5360013,,,,,,,2025-09-22,1,,,,,ソナエ,0
634,3120001279627,新規,0,2025-09-22,2025-09-22,三ＩＮ　ＯＮＥ株式会社,,株式会社,大阪府,大阪市天王寺区,伶人町２－３１ＳｔａｒＯｆｆｉｃｅ大阪天王寺北２０６号室,,27,109,5430061,,,,,,,2025-09-22,1,,,,,サンインワン,0
635,3120001279668,新規,0,2025-09-22,2025-09-22,株式会社宝雅,,株式会社,大阪府,大阪市西成区,萩之茶屋２丁目６－４－２６７号室,,27,122,5570004,,,,,,,2025-09-22,1,,,,,ホウガ,0
636,3120001279718,新規,0,2025-09-22,2025-09-22,ＭＹＥＳ株式会社,,株式会社,大阪府,大阪市東淀川区,豊里５丁目２７－１７ＪＰ豊里レジデンス２０１号室,,27,114,5330013,,,,,,,2025-09-22,1,,,,,エムワイイーエス,0
637,3120001279734,新規,0,2025-09-22,2025-09-22,株式会社ポケギャン,,株式会社,大阪府,大阪市浪速区,日本橋４丁目１７番１５号ぽんばしＯＯＰＳ２階,,27,111,5560005,,,,,,,2025-09-22,1,,,,,ポケギャン,0
638,3120001279759,新規,0,2025-09-22,2025-09-22,株式会社Ｄｉｎｅｒ,,株式会社,大阪府,大阪市北区,天神橋３丁目１１番９号６Ｆ,,27,127,5300041,,,,,,,2025-09-22,1,,,,,ダイナー,0
639,3120001279800,新規,0,2025-09-22,2025-09-22,ＳＫＹ株式会社,,株式会社,大阪府,大阪市港区,港晴４丁目１４－５港晴パールシティビル４０３号,,27,107,5520023,,,,,,,2025-09-22,1,,,,,スカイ,0
640,3120001279874,新規,0,2025-09-22,2025-09-22,株式会社ＯＰＥＲＡ,,株式会社,大阪府,大阪市浪速区,難波中１丁目４番２１号,,27,111,5560011,,,,,,,2025-09-22,1,,,,,オペラ,0
641,3120001280171,新規,0,2025-09-22,2025-09-22,日庭株式会社,,株式会社,大阪府,大阪市中央区,瓦屋町３丁目４番９号サンシャイン瓦屋町２０７Ｂ,,27,128,5420066,,,,,,,2025-09-22,1,,,,,ニテイ,0
645,3120003030566,新規,0,2025-09-22,2025-09-22,Ｔｒｉｖｅｘ合同会社,,合同会社,大阪府,大阪市北区,中津６丁目９番８号杉本マンション２Ｂ号室,,27,127,5310071,,,,,,,2025-09-22,1,,,,,トリベックス,0
646,3120003030599,新規,0,2025-09-22,2025-09-22,合同会社インテリア金光,,合同会社,大阪府,大阪市西成区,山王２丁目１３－６－２０２号,,27,122,5570001,,,,,,,2025-09-22,1,,,,,インテリアコンコウ,0
647,3120003030731,新規,0,2025-09-22,2025-09-22,聖域ブラジリアン柔術合同会社,,合同会社,大阪府,大阪市中央区,北浜３丁目２番２５号京阪淀屋橋ビル８階８０４号室,,27,128,5410041,,,,,,,2025-09-22,1,,,,,セイイキブラジリアンジュウジュツ,0
653,3120901051507,新規,0,2025-09-22,2025-09-22,瑾康株式会社,,株式会社,大阪府,箕面市,彩都粟生南４丁目１番２０－９０５号,,27,220,5620028,,,,,,,2025-09-22,1,,,,,キンコウ,0
654,3120903005790,新規,0,2025-09-22,2025-09-22,合同会社ＯＭＹＫ,,合同会社,大阪府,豊中市,本町３丁目１３番１２号,,27,203,5600021,,,,,,,2025-09-22,1,,,,,オーエムワイケー,0
668,3140001140076,新規,0,2025-09-22,2025-09-22,ＩＫＡＭＩ　ＪＡＰＡＮ株式会社,,株式会社,兵庫県,西宮市,西宮浜２丁目４２番地,,28,204,6620934,,,,,,,2025-09-22,1,,,,,イカミジャパン,0
669,3140001140084,新規,0,2025-09-22,2025-09-22,Ｗｉｎ　Ｗｏｒｌｄ　Ｃｏｎｓｕｌｔ株式会社,,株式会社,兵庫県,神戸市中央区,八幡通１丁目１番１４号ＩＰＳＸＳＯＵＴＨ１００４,,28,110,6510085,,,,,,,2025-09-22,1,,,,,ウィンワールドコンサルト,0
670,3140001140092,新規,0,2025-09-22,2025-09-22,株式会社東釧路畜電所,,株式会社,兵庫県,加古川市,平岡町新在家１３７９番地の１,,28,210,6750101,,,,,,,2025-09-22,1,,,,,ヒガシクシロチクデンショ,0
676,3140003022611,新規,0,2025-09-22,2025-09-22,ＭＫ　ＧＯＬＤ合同会社,,合同会社,兵庫県,神戸市兵庫区,西橘通２丁目１番４号鈴木ハイツ１階,,28,105,6520034,,,,,,,2025-09-22,1,,,,,エムケーゴールド,0
690,3180003029025,新規,0,2025-09-22,2025-09-22,澄鉄合同会社,,合同会社,愛知県,津島市,唐臼町柳原６５番地唐臼町柳原工場１－１０１,,23,208,4960026,,,,,,,2025-09-22,1,,,,,スミテツ,0
691,3180003029066,新規,0,2025-09-22,2025-09-22,ｍｅｒｃｉ‐ｕ合同会社,,合同会社,愛知県,名古屋市中川区,山王２丁目６番Ａ－６１６号（一光ハイツ山王）,,23,110,4540011,,,,,,,2025-09-22,1,,,,,メルシーユー,0
692,3180303006731,新規,0,2025-09-22,2025-09-22,Ｚ　ＪＡＰＡＮ合同会社,,合同会社,愛知県,刈谷市,小垣江町蚰ケ坪２１番地１－２０２号室,,23,210,4480813,,,,,,,2025-09-22,1,,,,,ゼットジャパン,0
697,3200001044254,新規,0,2025-09-22,2025-09-22,株式会社ＫＧ,,株式会社,岐阜県,羽島市,上中町一色４０３番地,,21,209,5016312,,,,,,,2025-09-22,1,,,,,ケージー,0
700,3200003007044,新規,0,2025-09-22,2025-09-22,合同会社ＤＡＩ　ＨＯＮＧ　ＴＨＵＹ,,合同会社,岐阜県,安八郡神戸町,大字神戸５６２号,,21,381,5032305,,,,,,,2025-09-22,1,,,,,ダイホントウイ,0
702,3220003004122,新規,0,2025-09-22,2025-09-22,マルイチ・キャピタル合同会社,,合同会社,石川県,金沢市,間明町１丁目１６７番地２,,17,201,9218005,,,,,,,2025-09-22,1,,,,,マルイチキャピタル,0
707,3240003007404,新規,0,2025-09-22,2025-09-22,合同会社リリィ,,合同会社,広島県,福山市,松浜町１丁目１番１２号ゴールドパレスビル４Ｆ,,34,207,7200802,,,,,,,2025-09-22,1,,,,,リリィ,0
710,3260001040545,新規,0,2025-09-22,2025-09-22,山成ホールディングス株式会社,,株式会社,岡山県,岡山市南区,西市８０６番９　Ａ－１０３,,33,104,7000953,,,,,,,2025-09-22,1,,,,,ヤマセイホールディングス,0
715,3290001111418,新規,0,2025-09-22,2025-09-22,株式会社ＣＯＰＥＲＮＩＣＵＳ,,株式会社,福岡県,福岡市中央区,天神２丁目２番１２号Ｔ＆Ｊビルディング７Ｆ,,40,133,8100001,,,,,,,2025-09-22,1,,,,,コペルニクス,0
716,3290001111426,新規,0,2025-09-22,2025-09-22,株式会社フォーシーズン,,株式会社,福岡県,福岡市博多区,中洲２丁目６番７号中洲エレガンスビル３０１号,,40,132,8100801,,,,,,,2025-09-22,1,,,,,フォーシーズン,0
717,3290001111442,新規,0,2025-09-22,2025-09-22,株式会社ＣｌｏｓｅＬｉｆｅ,,株式会社,福岡県,福岡市早良区,百道浜１丁目３－７０,,40,137,8140001,,,,,,,2025-09-22,1,,,,,クローズライフ,0
718,3290001111450,新規,0,2025-09-22,2025-09-22,株式会社ＣＬＯＯＳ,,株式会社,福岡県,福岡市南区,高宮１丁目１２番４－５０５号,,40,134,8150083,,,,,,,2025-09-22,1,,,,,クロス,0
719,3290001111459,新規,0,2025-09-22,2025-09-22,株式会社鮨ぶんぺい,,株式会社,福岡県,福岡市中央区,西中洲２番２５号ステージ１西中洲２階Ｃ号,,40,133,8100002,,,,,,,2025-09-22,1,,,,,スシブンペイ,0
720,3290003017398,新規,0,2025-09-22,2025-09-22,合同会社クリアーアウルズ,,合同会社,福岡県,福岡市東区,香椎駅東４丁目６１番６号,,40,131,8130012,,,,,,,2025-09-22,1,,,,,クリアーアウルズ,0
721,3290003017407,新規,0,2025-09-22,2025-09-22,合同会社ＳＬ　Ｌｉｎｋ　Ｐｏｗｅｒ,,合同会社,福岡県,福岡市博多区,東那珂２丁目６番１５号７０１,,40,132,8120892,,,,,,,2025-09-22,1,,,,,エスエルリンクパワー,0
722,3290003017415,新規,0,2025-09-22,2025-09-22,合同会社安栄社,,合同会社,福岡県,福岡市博多区,上牟田２丁目１番１８号アクセス２１、２０２号室,,40,132,8120006,,,,,,,2025-09-22,1,,,,,アンエイシャ,0
727,3300003002340,新規,0,2025-09-22,2025-09-22,合同会社ｃａｓａ,,合同会社,佐賀県,佐賀市,田代１丁目１番５号カルム佐賀６１２号,,41,201,8400051,,,,,,,2025-09-22,1,,,,,カーザ,0
735,3330003011223,新規,0,2025-09-22,2025-09-22,合同会社Ｃｒａｎｅ＆Ｈｅａｒｔ,,合同会社,熊本県,熊本市北区,植木町広住４１９番地４１,,43,105,8610131,,,,,,,2025-09-22,1,,,,,クレーンハート,0
736,3330003011231,新規,0,2025-09-22,2025-09-22,合同会社ＭＥＡＬＬ,,合同会社,熊本県,熊本市中央区,出水８丁目８番１６－７０４号,,43,101,8620941,,,,,,,2025-09-22,1,,,,,ミール,0
737,3340005009909,新規,0,2025-09-22,2025-09-22,医療法人仁洋会,,その他の設立登記法人,鹿児島県,鹿児島市,西千石町３番２６号,,46,201,8920847,,,,,,,2025-09-22,1,,,,,ジンヨウカイ,0
741,3360001035799,新規,0,2025-09-22,2025-09-22,株式会社沖縄ＬＩＮＫ,,株式会社,沖縄県,那覇市,与儀１丁目１０番２６号,,47,201,9020076,,,,,,,2025-09-22,1,,,,,オキナワリンク,0
742,3360001035808,新規,0,2025-09-22,2025-09-22,アキ施工株式会社,,株式会社,沖縄県,浦添市,勢理客２丁目８番１１号,,47,208,9012122,,,,,,,2025-09-22,1,,,,,アキセコウ,0
747,3370001053049,新規,0,2025-09-22,2025-09-22,宮城福祉事業株式会社,,株式会社,宮城県,名取市,増田５丁目３番１２号,,04,207,9811224,,,,,,,2025-09-22,1,,,,,ミヤギフクシジギョウ,0
750,3370003007291,新規,0,2025-09-22,2025-09-22,合同会社岩沼クラフトビア工房,,合同会社,宮城県,岩沼市,中央２丁目３番１０号,,04,211,9892432,,,,,,,2025-09-22,1,,,,,イワヌマクラフトビアコウボウ,0
752,3390001018108,新規,0,2025-09-22,2025-09-22,株式会社ｏｆｆｉｃｅ　ｈａｎｎａ,,株式会社,山形県,鶴岡市,山王町８番１３号,,06,203,9970028,,,,,,,2025-09-22,1,,,,,オフィスハンナ,0
760,3410001014277,新規,0,2025-09-22,2025-09-22,株式会社東北ナイス,,株式会社,秋田県,秋田市,御所野湯本６丁目２番４０号,,05,201,0101415,,,,,,,2025-09-22,1,,,,,トウホクナイス,0
780,4010001258418,新規,0,2025-09-22,2025-09-22,株式会社ＳｅＣｏｒｅ,,株式会社,東京都,千代田区,神田三崎町３丁目５番９号天翔水道橋ビル４階４０５－Ｉ,,13,101,1010061,,,,,,,2025-09-22,1,,,,,セコア,0
781,4010001258459,新規,0,2025-09-22,2025-09-22,株式会社ＮＯＡＨ,,株式会社,東京都,千代田区,永田町２丁目１２番８号永田町ＳＲビル８Ｆ,,13,101,1000014,,,,,,,2025-09-22,1,,,,,ノア,0
782,4010005040689,新規,0,2025-09-22,2025-09-22,一般社団法人ワーカーズホテル２号,,その他の設立登記法人,東京都,中央区,京橋２丁目１２番６号ＡＯＪ税理士法人内,,13,102,1040031,,,,,,,2025-09-22,1,,,,,ワーカーズホテルニゴウ,0
794,4010501054746,新規,0,2025-09-22,2025-09-22,ナンジン株式会社,,株式会社,東京都,台東区,上野６丁目１番６号御徒町グリーンハイツ３０７号,,13,106,1100005,,,,,,,2025-09-22,1,,,,,ナンジン,0
802,4010701048325,新規,0,2025-09-22,2025-09-22,株式会社ハシカケ,,株式会社,東京都,品川区,東品川２丁目２番４３号,,13,109,1400002,,,,,,,2025-09-22,1,,,,,ハシカケ,0
803,4010701048333,新規,0,2025-09-22,2025-09-22,株式会社立ち食い寿司東京,,株式会社,東京都,品川区,大崎１丁目１１番２号,,13,109,1410032,,,,,,,2025-09-22,1,,,,,タチグイズシトウキョウ,0
810,4011001171882,新規,0,2025-09-22,2025-09-22,株式会社ピオニーズ,,株式会社,東京都,渋谷区,恵比寿西２丁目８番４号ＥＸ恵比寿西ビル５階,,13,113,1500021,,,,,,,2025-09-22,1,,,,,ピオニーズ,0
811,4011001172179,新規,0,2025-09-22,2025-09-22,株式会社ジュピバース,,株式会社,東京都,渋谷区,広尾５丁目４番１６号ＥＡＴＰＬＡＹＷＯＲＫＳ３Ｆ,,13,113,1500012,,,,,,,2025-09-22,1,,,,,ジュピバース,0
813,4011003022373,新規,0,2025-09-22,2025-09-22,合同会社Ｙａｓｕｍｉｎ,,合同会社,東京都,渋谷区,神宮前３丁目２番１３号,,13,113,1500001,,,,,,,2025-09-22,1,,,,,ヤスミン,0
814,4011003022431,新規,0,2025-09-22,2025-09-22,合同会社ＢｏｏｓｔＢｉｚ,,合同会社,東京都,渋谷区,東３丁目１５番６号レジディア恵比寿９０１,,13,113,1500011,,,,,,,2025-09-22,1,,,,,ブーストビズ,0
821,4011101113082,新規,0,2025-09-22,2025-09-22,株式会社ｖｉｔａｍｉｎ‐Ａ,,株式会社,東京都,新宿区,新宿２丁目１３番３号グローリー西田１階,,13,104,1600022,,,,,,,2025-09-22,1,,,,,ビタミンエー,0
822,4011101113165,新規,0,2025-09-22,2025-09-22,株式会社ＮＯＡＮ,,株式会社,東京都,新宿区,新宿２丁目１２番１３号新宿アントレサロンビル２階,,13,104,1600022,,,,,,,2025-09-22,1,,,,,ノアン,0
823,4011101113280,新規,0,2025-09-22,2025-09-22,Ｂｒｉｆｌｏｗ株式会社,,株式会社,東京都,新宿区,若葉１丁目６番１号ビジネスガーデン四ツ谷アネックス００１号,,13,104,1600011,,,,,,,2025-09-22,1,,,,,ブリフロ,0
824,4011101113289,新規,0,2025-09-22,2025-09-22,株式会社ＲＧインベストメント,,株式会社,東京都,新宿区,新宿４丁目３番２３号,,13,104,1600022,,,,,,,2025-09-22,1,,,,,アールジーインベストメント,0
826,4011103016366,新規,0,2025-09-22,2025-09-22,合同会社ベータ,,合同会社,東京都,新宿区,西新宿５丁目６番１―２００１号,,13,104,1600023,,,,,,,2025-09-22,1,,,,,ベータ,0
830,4011203004824,新規,0,2025-09-22,2025-09-22,ＮＥＯ合同会社,,合同会社,東京都,中野区,中央１丁目４５番１３－２０３号,,13,114,1640011,,,,,,,2025-09-22,1,,,,,ネオ,0
835,4011501032601,新規,0,2025-09-22,2025-09-22,株式会社ミントマネジメント,,株式会社,東京都,北区,滝野川６丁目７７番１５－６０２号クレスト滝野川・ＩＩ,00140733,13,117,1140023,,,,,,,2025-09-22,1,,,,,ミントマネジメント,0
838,4011603004837,新規,0,2025-09-22,2025-09-22,嘉清商事合同会社,,合同会社,東京都,練馬区,関町北５丁目１３番２５－Ｂ１－ｃ,,13,120,1770051,,,,,,,2025-09-22,1,,,,,カセイショウジ,0
839,4011603004845,新規,0,2025-09-22,2025-09-22,ＡＲＭＳ合同会社,,合同会社,東京都,練馬区,小竹町１丁目２８番７号,,13,120,1760004,,,,,,,2025-09-22,1,,,,,アームス,0
855,4020001164920,新規,0,2025-09-22,2025-09-22,ウッド株式会社,,株式会社,神奈川県,横浜市西区,浅間町１丁目４番地３ウィザードビル４０２,,14,103,2200072,,,,,,,2025-09-22,1,,,,,ウッド,0
858,4020003029436,新規,0,2025-09-22,2025-09-22,合同会社タラプランニング,,合同会社,神奈川県,川崎市中原区,今井上町１番２６号ＮＯＣビル４階,,14,133,2110067,,,,,,,2025-09-22,1,,,,,タラプランニング,0
861,4021001086320,新規,0,2025-09-22,2025-09-22,Ｅｘｐｏｎｅｎｔ株式会社,,株式会社,神奈川県,藤沢市,羽鳥１丁目１番１～１０３７号,,14,205,2510056,,,,,,,2025-09-22,1,,,,,エクスポウネント,0
863,4021003016556,新規,0,2025-09-22,2025-09-22,合同会社ｆｒｏｍ　Ｚ,,合同会社,神奈川県,藤沢市,善行１丁目１１番地の１１,,14,205,2510871,,,,,,,2025-09-22,1,,,,,フロムゼット,0
882,4050003009583,新規,0,2025-09-22,2025-09-22,ＨＡ　ＳＨＯＫＡＩ合同会社,,合同会社,茨城県,結城郡八千代町,大字平塚４８２４番１３Ｅ,,08,521,3003561,,,,,,,2025-09-22,1,,,,,エイチエーショウカイ,0
883,4050003009591,新規,0,2025-09-22,2025-09-22,ＪＡＮＮＡＴ　ＴＲＡＤＩＮＧ合同会社,,合同会社,茨城県,結城郡八千代町,大字東蕗田６８４－４－２０９号,,08,521,3003545,,,,,,,2025-09-22,1,,,,,ジャンナットトレーディング,0
884,4050005013699,新規,0,2025-09-22,2025-09-22,医療法人社団Ｊ’ｓ会,,その他の設立登記法人,茨城県,水戸市,袴塚１丁目７番８号,,08,201,3100055,,,,,,,2025-09-22,1,,,,,ジェイズカイ,0
886,4060001038591,新規,0,2025-09-22,2025-09-22,クリスタル出版株式会社,,株式会社,栃木県,那須塩原市,上横林４１４番地９５０,,09,213,3292805,,,,,,,2025-09-22,1,,,,,クリスタルシュッパン,0
887,4060003005763,新規,0,2025-09-22,2025-09-22,ＭＩＲＺＡ　ＴＲＡＤＩＮＧ合同会社,,合同会社,栃木県,小山市,駅東通り１丁目１０番１０号経友会メゾン２０３号室,,09,208,3230022,,,,,,,2025-09-22,1,,,,,ミルザトレーディング,0
890,4070001043368,新規,0,2025-09-22,2025-09-22,株式会社ＡＲＩＡＮ　ＣＯＯＰＥＲＡＴＩＯＮ,,株式会社,群馬県,館林市,西美園町７９４番地の１６パールメゾンマスダ－２０３,,10,207,3740038,,,,,,,2025-09-22,1,,,,,アリアンコーペレーション,0
895,4080401028174,新規,0,2025-09-22,2025-09-22,株式会社マルク,,株式会社,静岡県,浜松市浜名区,平口１３００番地,,22,139,4340041,,,,,,,2025-09-22,1,,,,,マルク,0
897,4090001019515,新規,0,2025-09-22,2025-09-22,株式会社ウェルリッチ,,株式会社,山梨県,甲斐市,中下条１０７７番地１シャーメゾンカームタッセルＡ２０２号室,,19,210,4000124,,,,,,,2025-09-22,1,,,,,ウェルリッチ,0
909,4120001279196,新規,0,2025-09-22,2025-09-22,株式会社発酵屋,,株式会社,大阪府,大阪市北区,与力町７番９号,,27,127,5300036,,,,,,,2025-09-22,1,,,,,ハッコウヤ,0
910,4120001279667,新規,0,2025-09-22,2025-09-22,柏瑞株式会社,,株式会社,大阪府,大阪市東住吉区,照ケ丘矢田２丁目１７番１７号,,27,121,5460021,,,,,,,2025-09-22,1,,,,,ハクズイ,0
911,4120001279790,新規,0,2025-09-22,2025-09-22,美佳星株式会社,,株式会社,大阪府,大阪市北区,堂山町１番５号三共梅田ビル６Ｆセンターオフィス内２８号室,,27,127,5300027,,,,,,,2025-09-22,1,,,,,ステラービューティー,0
912,4120001279808,新規,0,2025-09-22,2025-09-22,株式会社ＡＰＥＸ,,株式会社,大阪府,大阪市西区,本田１丁目３番３３－１００２号,,27,106,5500022,,,,,,,2025-09-22,1,,,,,エイペックス,0
913,4120001279816,新規,0,2025-09-22,2025-09-22,桜華株式会社,,株式会社,大阪府,大阪市中央区,東心斎橋２丁目２－１２－１Ｆ,,27,128,5420083,,,,,,,2025-09-22,1,,,,,サクラカ,0
914,4120001279832,新規,0,2025-09-22,2025-09-22,株式会社１０ｙ　Ｌｉｋｅ　ｍｅ,,株式会社,大阪府,大阪市淀川区,東三国４丁目４番１７号岸本第２ビル２階,,27,123,5320002,,,,,,,2025-09-22,1,,,,,テンワイライクミー,0
915,4120001279849,新規,0,2025-09-22,2025-09-22,株式会社ワンアップクリエイティブ,,株式会社,大阪府,大阪市天王寺区,上本町６丁目６番２７号,,27,109,5430001,,,,,,,2025-09-22,1,,,,,ワンアップクリエイティブ,0
916,4120001280162,新規,0,2025-09-22,2025-09-22,清歓株式会社,,株式会社,大阪府,大阪市東住吉区,中野４丁目１番１６号リベラルオリエンテ中野３０２Ａ,,27,121,5460012,,,,,,,2025-09-22,1,,,,,セイカン,0
917,4120001280170,新規,0,2025-09-22,2025-09-22,Ｄｏｕｂｌｅ　Ｓｅｖｅｎ株式会社,,株式会社,大阪府,大阪市東成区,大今里３丁目１５番６号ＩｍａｚａｔｏＴｏｗｅｒ３１１Ｂ,,27,115,5370012,,,,,,,2025-09-22,1,,,,,ダブルセブン,0
921,4120901051514,新規,0,2025-09-22,2025-09-22,株式会社ぎんのつばさ,,株式会社,大阪府,箕面市,森町中２丁目７番１２号,,27,220,5630257,,,,,,,2025-09-22,1,,,,,ギンノツバサ,0
922,4120903005856,新規,0,2025-09-22,2025-09-22,合同会社ｓｏａｒＫ,,合同会社,大阪府,高槻市,本町８番１５号,,27,207,5690074,,,,,,,2025-09-22,1,,,,,ソアーク,0
924,4122001039638,新規,0,2025-09-22,2025-09-22,株式会社平山,,株式会社,大阪府,八尾市,小畑町４丁目４８番地,,27,212,5810835,,,,,,,2025-09-22,1,,,,,ヒラヤマ,0
928,4130003010797,新規,0,2025-09-22,2025-09-22,ＰＨＡＮ　ＤＡＮＧ合同会社,,合同会社,京都府,京都市伏見区,向島中島町４４番地伴コーポラス３０１号,,26,109,6128113,,,,,,,2025-09-22,1,,,,,ファンダン,0
929,4130003010806,新規,0,2025-09-22,2025-09-22,合同会社みつば,,合同会社,京都府,京都市北区,衣笠赤阪町１番地２８８,,26,101,6038486,,,,,,,2025-09-22,1,,,,,ミツバ,0
933,4140001140075,新規,0,2025-09-22,2025-09-22,株式会社清洋,,株式会社,兵庫県,神戸市灘区,上野通６丁目１番２２号,,28,102,6570817,,,,,,,2025-09-22,1,,,,,セイヨウ,0
934,4140001140100,新規,0,2025-09-22,2025-09-22,ＨＩＮＡ株式会社,,株式会社,兵庫県,姫路市,安田４丁目１７番地高田ビル５階,,28,201,6700955,,,,,,,2025-09-22,1,,,,,ヒナ,0
938,4140003022602,新規,0,2025-09-22,2025-09-22,ＣＡＲＮＯＶＡ　ＴＲＡＤＩＮＧ合同会社,,合同会社,兵庫県,神戸市北区,鈴蘭台東町２丁目１６番１０号,,28,109,6511112,,,,,,,2025-09-22,1,,,,,カルノワトレーディング,0
942,4160003003600,新規,0,2025-09-22,2025-09-22,フリーマーケット合同会社,,合同会社,滋賀県,大津市,一里山１丁目１６－１エスコ一里山１０１号室,,25,201,5202153,,,,,,,2025-09-22,1,,,,,フリーマーケット,0
953,4180003029049,新規,0,2025-09-22,2025-09-22,ＴＨ合同会社,,合同会社,愛知県,名古屋市緑区,森の里１丁目９４番地森の里荘２棟８１２号,,23,114,4598002,,,,,,,2025-09-22,1,,,,,ティーエイチ,0
955,4180301040228,新規,0,2025-09-22,2025-09-22,株式会社甲辰総業,,株式会社,愛知県,岡崎市,六供町字３丁目４２番地１,,23,202,4440072,,,,,,,2025-09-22,1,,,,,コウシンソウギョウ,0
959,4190001032549,新規,0,2025-09-22,2025-09-22,株式会社ＴＲＩＢＥＮＩ,,株式会社,三重県,津市,丸之内８番８号,,24,201,5140033,,,,,,,2025-09-22,1,,,,,トリベニ,0
960,4190003005189,新規,0,2025-09-22,2025-09-22,ＲＯＯＴＳ合同会社,,合同会社,三重県,員弁郡東員町,大字瀬古泉７５９‐１０,,24,324,5110252,,,,,,,2025-09-22,1,,,,,ルーツ,0
963,4200001044220,新規,0,2025-09-22,2025-09-22,株式会社メソラボ,,株式会社,岐阜県,岐阜市,東鶉１丁目１２８番地１ノースガーデンＢ２０６号,,21,201,5008281,,,,,,,2025-09-22,1,,,,,メソラボ,0
966,4210005010226,新規,0,2025-09-22,2025-09-22,医療法人あしひきの,,その他の設立登記法人,福井県,福井市,開発４丁目４０１番地１,,18,201,9100842,,,,,,,2025-09-22,1,,,,,アシヒキノ,0
968,4240001065519,新規,0,2025-09-22,2025-09-22,ワンマイルサポート株式会社,,株式会社,広島県,広島市中区,舟入川口町１３番３５号,,34,101,7300845,,,,,,,2025-09-22,1,,,,,ワンマイルサポート,0
969,4240001065527,新規,0,2025-09-22,2025-09-22,株式会社ＡＳＰＩＲＥ,,株式会社,広島県,広島市中区,新天地１番１３号,,34,101,7300034,,,,,,,2025-09-22,1,,,,,アスパイヤ,0
972,4240003007411,新規,0,2025-09-22,2025-09-22,合同会社小林,,合同会社,広島県,東広島市,西条町西条東８９８番地１,,34,212,7390042,,,,,,,2025-09-22,1,,,,,コバヤシ,0
988,4290001111400,新規,0,2025-09-22,2025-09-22,株式会社シェアストリーム,,株式会社,福岡県,筑紫野市,大字筑紫６００番地１－１１０３号,,40,217,8180025,,,,,,,2025-09-22,1,,,,,シェアストリーム,0
989,4290001111409,新規,0,2025-09-22,2025-09-22,株式会社ＭＡＮＤＡＲＩＮ　ＭＡＲＫＥＴ,,株式会社,福岡県,福岡市中央区,小笹２丁目１０番２５－３０８号,,40,133,8100033,,,,,,,2025-09-22,1,,,,,マンダリンマーケット,0
990,4290001111417,新規,0,2025-09-22,2025-09-22,株式会社ＭＥＴ,,株式会社,福岡県,福岡市博多区,博多駅前２丁目１７番１号博多プレステージ本館１Ｆ,,40,132,8120011,,,,,,,2025-09-22,1,,,,,メット,0
991,4290001111441,新規,0,2025-09-22,2025-09-22,Ｍｏｒｓｖｏｒｘ株式会社,,株式会社,福岡県,福岡市中央区,薬院３丁目１６番２６号西鉄薬院ビル５Ｆ,,40,133,8100022,,,,,,,2025-09-22,1,,,,,モルスヴォルクス,0
992,4290001111458,新規,0,2025-09-22,2025-09-22,株式会社人寄,,株式会社,福岡県,筑紫野市,塔原西１丁目３番５号,,40,217,8180073,,,,,,,2025-09-22,1,,,,,ヒトヨリ,0
993,4290001111549,新規,0,2025-09-22,2025-09-22,株式会社パル・ビルド,,株式会社,福岡県,福岡市南区,塩原３丁目５番４号２階,,40,134,8150032,,,,,,,2025-09-22,1,,,,,パルビルド,0
999,4290003017430,新規,0,2025-09-22,2025-09-22,滬悉実業合同会社,,合同会社,福岡県,福岡市早良区,飯倉３丁目４５－１７ファミールハピネス原１０１室,,40,137,8140161,,,,,,,2025-09-22,1,,,,,コシジツギョウ,0
1001,4320003004763,新規,0,2025-09-22,2025-09-22,合同会社金子自動車整備,,合同会社,大分県,豊後大野市,大野町田中２０８番地１,,44,212,8796441,,,,,,,2025-09-22,1,,,,,カネコジドウシャセイビ,0
1004,4330003011222,新規,0,2025-09-22,2025-09-22,幸せのたね合同会社,,合同会社,熊本県,熊本市中央区,水前寺公園１６番８９号,,43,101,8620956,,,,,,,2025-09-22,1,,,,,シアワセノタネ,0
1008,4360003015253,新規,0,2025-09-22,2025-09-22,合同会社ＯＫＩらくバケーション,,合同会社,沖縄県,国頭郡宜野座村,字漢那２０４２－５リゾートマンショントーラスＩＩ８０２,00140730,47,313,9041304,,,,,,,2025-09-22,1,,,,,オキラクバケーション,0
1009,4370001053015,新規,0,2025-09-22,2025-09-22,サイバーコム株式会社,,株式会社,宮城県,仙台市青葉区,一番町２丁目７番１７号朝日生命仙台一番町ビル,,04,101,9800811,,,,,,,2025-09-22,1,,,,,サイバーコム,0
1026,4490001011167,新規,0,2025-09-22,2025-09-22,株式会社ルクス,,株式会社,高知県,高知市,朝倉甲２９－２,,39,201,7808061,,,,,,,2025-09-22,1,,,,,ルクス,0
1037,5010001257311,新規,0,2025-09-22,2025-09-22,株式会社ＲｎＡ,,株式会社,東京都,中央区,銀座１丁目１２－４Ｎ＆ＥＢＬＤ．７階,,13,102,1040061,,,,,,,2025-09-22,1,,,,,アールエヌエー,0
1038,5010001258284,新規,0,2025-09-22,2025-09-22,株式会社Ｒｅａｌｍ,,株式会社,東京都,千代田区,神田和泉町１番地６の１６ヤマトビル４０５,,13,101,1010024,,,,,,,2025-09-22,1,,,,,レルム,0
1039,5010001258581,新規,0,2025-09-22,2025-09-22,マルエン株式会社,,株式会社,東京都,千代田区,外神田６丁目９番５号大陸ビル４階,,13,101,1010021,,,,,,,2025-09-22,1,,,,,マルエン,0
1043,5010003048691,新規,0,2025-09-22,2025-09-22,Ｓｐｅｅｄ　Ｓｃｏｒｅ　Ｒａｎｋｉｎｇ合同会社,,合同会社,東京都,中央区,銀座６丁目６番１号銀座風月堂ビル５Ｆ,,13,102,1040061,,,,,,,2025-09-22,1,,,,,スピードスコアランキング,0
1045,5010005040688,新規,0,2025-09-22,2025-09-22,シャーソレールホールディングス一般社団法人,,その他の設立登記法人,東京都,千代田区,九段南３丁目７番７号成和綜合会計事務所内,,13,101,1020074,,,,,,,2025-09-22,1,,,,,シャーソレールホールディングス,0
1047,5010401192851,新規,0,2025-09-22,2025-09-22,ＯｍｎｉＳｈｅｌｆ株式会社,,株式会社,東京都,港区,東麻布１丁目２３番５号ＰＭＣビル２Ｆ,,13,103,1060044,,,,,,,2025-09-22,1,,,,,オムニシェルフ,0
1048,5010401193065,新規,0,2025-09-22,2025-09-22,株式会社Ｃｈｅｌｌｉｅｎ,,株式会社,東京都,港区,南青山２丁目２番１５号,,13,103,1070062,,,,,,,2025-09-22,1,,,,,シェルリエン,0
1049,5010401193206,新規,0,2025-09-22,2025-09-22,株式会社Ｂｌｏｏｍｅｄｇｅ,,株式会社,東京都,港区,白金台２丁目２６番１２－８０１号,,13,103,1080071,,,,,,,2025-09-22,1,,,,,ブルーメッジ,0
1050,5010401193263,新規,0,2025-09-22,2025-09-22,ＷＭ　Ｉｎｔｅｒｎａｔｉｏｎａｌ株式会社,,株式会社,東京都,港区,虎ノ門４丁目３番１号城山トラストタワー東京赤坂法律事務所内,,13,103,1050001,,,,,,,2025-09-22,1,,,,,ダブリュエムインターナショナル,0
1055,5010501054729,新規,0,2025-09-22,2025-09-22,Ｂｕｊｉ株式会社,,株式会社,東京都,台東区,松が谷２丁目１５番８号浅草Ｋ２ビル３０８号室,,13,106,1110036,,,,,,,2025-09-22,1,,,,,ブジ,0
1057,5010601067985,新規,0,2025-09-22,2025-09-22,尚美株式会社,,株式会社,東京都,墨田区,千歳３丁目６－５－５１０号室,,13,107,1300025,,,,,,,2025-09-22,1,,,,,ショウビ,0
1062,5010801036617,新規,0,2025-09-22,2025-09-22,株式会社九狐,,株式会社,東京都,大田区,東六郷１丁目９番９号ルークス蒲田ＩＩ１０３,00140737,13,111,1440046,,,,,,,2025-09-22,1,,,,,キュウコ,0
1070,5011001172153,新規,0,2025-09-22,2025-09-22,Ｏｎｅ　Ｒｉｓｅ株式会社,,株式会社,東京都,渋谷区,恵比寿西１丁目３４番６－５０５号シティカレント代官山,,13,113,1500021,,,,,,,2025-09-22,1,,,,,ワンライズ,0
1076,5011101113197,新規,0,2025-09-22,2025-09-22,株式会社Ｌａｐｉｄａｒｙ,,株式会社,東京都,新宿区,高田馬場３丁目１番５号サンパティオ高田馬場３０９号室,,13,104,1690075,,,,,,,2025-09-22,1,,,,,ラピダリー,0
1077,5011101113255,新規,0,2025-09-22,2025-09-22,日本救命士株式会社,,株式会社,東京都,新宿区,西新宿３丁目３番１３号西新宿水間ビル６階,,13,104,1600023,,,,,,,2025-09-22,1,,,,,ニホンキュウメイシ,0
1082,5011201026654,新規,0,2025-09-22,2025-09-22,株式会社東京テクノロジー,,株式会社,東京都,中野区,若宮１丁目４６－１１－１０４,,13,114,1650033,,,,,,,2025-09-22,1,,,,,トウキョウテクノロジー,0
1083,5011301030837,新規,0,2025-09-22,2025-09-22,株式会社クリーンカール,,株式会社,東京都,杉並区,和田１丁目５９番８号,,13,115,1660012,,,,,,,2025-09-22,1,,,,,クリーンカール,0
1084,5011301030911,新規,0,2025-09-22,2025-09-22,Ｍａｉｓｏｎ　Ｂｌａｎｃｈｅ株式会社,,株式会社,東京都,杉並区,善福寺２丁目３９－３,,13,115,1670041,,,,,,,2025-09-22,1,,,,,メゾンブランシュ,0
1088,5011503006692,新規,0,2025-09-22,2025-09-22,Ｃａｎｎｏｎｂｕｒｙ　Ｐａｒｔｎｅｒｓ合同会社,,合同会社,東京都,北区,赤羽北１丁目１２番１２－９０５号クレイシア・ヴァースクレイシアＩＤＺ北赤羽,,13,117,1150052,,,,,,,2025-09-22,1,,,,,キャノンベリーパートナーズ,0
1094,5011703004389,新規,0,2025-09-22,2025-09-22,デルタビニール合同会社,,合同会社,東京都,江戸川区,上一色２丁目１６番１９号,,13,123,1330041,,,,,,,2025-09-22,1,,,,,デルタビニール,0
1096,5011803007093,新規,0,2025-09-22,2025-09-22,合同会社ぽこ,,合同会社,東京都,葛飾区,青戸４丁目２１－９,,13,122,1250062,,,,,,,2025-09-22,1,,,,,ポコ,0
1100,5012701019081,新規,0,2025-09-22,2025-09-22,株式会社Ｃｒｏｓｓｉｎｇ　Ｓｅａｓ,,株式会社,東京都,東村山市,諏訪町２丁目２１番地１７,,13,213,1890021,,,,,,,2025-09-22,1,,,,,クロッシングシーズ,0
1116,5020003029393,新規,0,2025-09-22,2025-09-22,リーオアニメ合同会社,,合同会社,神奈川県,横浜市南区,高根町１丁目４－４０ＫＹＳオフイス２ＦＡ００３,,14,105,2320022,,,,,,,2025-09-22,1,,,,,リーオアニメ,0
1123,5021001086261,新規,0,2025-09-22,2025-09-22,ＡＣＥ　ＧＬＯＢＡＬ株式会社,,株式会社,神奈川県,相模原市南区,相模台２丁目２番２号ガーデンビルＩＩ３階フェルゴ内,00140735,14,153,2520321,,,,,,,2025-09-22,1,,,,,エースグローバル,0
1124,5021003016555,新規,0,2025-09-22,2025-09-22,ＡＤＪ合同会社,,合同会社,神奈川県,厚木市,中町４丁目１４番２号６階６０２号室,,14,212,2430018,,,,,,,2025-09-22,1,,,,,エーディージェー,0
1131,5030001168663,新規,0,2025-09-22,2025-09-22,株式会社ＣＡＲ　ＴＲＵＳＴ　ＪＡＰＡＮ,,株式会社,埼玉県,春日部市,金崎１０４８番１,,11,214,3440117,,,,,,,2025-09-22,1,,,,,カートラストジャパン,0
1137,5040001140530,新規,0,2025-09-22,2025-09-22,株式会社ＹＵＩ　Ｌａｂ,,株式会社,千葉県,佐倉市,王子台２丁目２６番地１２東丘ビル４０２,,12,212,2850837,,,,,,,2025-09-22,1,,,,,ユイラボ,0
1138,5040001140539,新規,0,2025-09-22,2025-09-22,田村パッケージ株式会社,,株式会社,千葉県,流山市,西初石３丁目９番地の１０,,12,220,2700121,,,,,,,2025-09-22,1,,,,,タムラパッケージ,0
1141,5040003028559,新規,0,2025-09-22,2025-09-22,合同会社陽々商会,,合同会社,千葉県,千葉市稲毛区,黒砂台２丁目１２番１１号,,12,103,2630041,,,,,,,2025-09-22,1,,,,,ヨウヨウショウカイ,0
1145,5050003009558,新規,0,2025-09-22,2025-09-22,ＧＲＥＥＮ　ＦＡＲＭ合同会社,,合同会社,茨城県,水戸市,開江町３４７－２,,08,201,3114144,,,,,,,2025-09-22,1,,,,,グリーンファーム,0
1146,5050003009599,新規,0,2025-09-22,2025-09-22,合同会社Ａｌｎｏｊｏｏｍ,,合同会社,茨城県,古河市,久能１０３９番地２３,,08,204,3060212,,,,,,,2025-09-22,1,,,,,アルヌジューム,0
1149,5060001038574,新規,0,2025-09-22,2025-09-22,ＩＭＡＺＴＲＡＤＩＮＧ株式会社,,株式会社,栃木県,小山市,駅南町５丁目２－１３ハイコーポ望光１０１号,,09,208,3230822,,,,,,,2025-09-22,1,,,,,イマズトレーディング,0
1153,5080003003558,新規,0,2025-09-22,2025-09-22,合同会社ＲＥＡＬＶＥ,,合同会社,静岡県,静岡市駿河区,下島３７３‐２グレイス下島１０３,,22,102,4228037,,,,,,,2025-09-22,1,,,,,リアルヴ,0
1160,5090001019514,新規,0,2025-09-22,2025-09-22,株式会社星野エクステリア,,株式会社,山梨県,甲府市,善光寺１丁目１９番２０号,,19,201,4000806,,,,,,,2025-09-22,1,,,,,ホシノエクステリア,0
1163,5120001279674,新規,0,2025-09-22,2025-09-22,詰＿株式会社,00140732,株式会社,大阪府,大阪市北区,同心２丁目１３番１６号ラシュレ大阪同心１１０７号室,,27,127,5300035,,,,,,,2025-09-22,1,,,,,キツキン,0
1164,5120001279815,新規,0,2025-09-22,2025-09-22,光大株式会社,,株式会社,大阪府,大阪市中央区,備後町１丁目６番１号甲賀ビル８０２号室,,27,128,5410051,,,,,,,2025-09-22,1,,,,,コウダイ,0
1165,5120001279831,新規,0,2025-09-22,2025-09-22,株式会社コンパス,,株式会社,大阪府,大阪市北区,梅田１丁目２番２号大阪駅前第２ビル１２－１２,,27,127,5300001,,,,,,,2025-09-22,1,,,,,コンパス,0
1166,5120001279897,新規,0,2025-09-22,2025-09-22,青木国際株式会社,,株式会社,大阪府,大阪市東住吉区,照ケ丘矢田１丁目２２番１３号（１Ｆ）,,27,121,5460021,,,,,,,2025-09-22,1,,,,,アオキコクサイ,0
1167,5120001280161,新規,0,2025-09-22,2025-09-22,三元株式会社,,株式会社,大阪府,大阪市生野区,田島６丁目２番２８号２０５号室,,27,116,5440011,,,,,,,2025-09-22,1,,,,,サンゲン,0
1171,5120003030606,新規,0,2025-09-22,2025-09-22,ササラクション合同会社,,合同会社,大阪府,大阪市中央区,龍造寺町４番３号,,27,128,5400014,,,,,,,2025-09-22,1,,,,,ササラクション,0
1172,5120003030655,新規,0,2025-09-22,2025-09-22,合同会社八十八コーポレーション,,合同会社,大阪府,大阪市住吉区,殿辻１丁目２番３１－２０６号,00140744,27,120,5580042,,,,,,,2025-09-22,1,,,,,ハチジュウハチコーポレーション,0
1174,5120901051505,新規,0,2025-09-22,2025-09-22,株式会社ユーケー,,株式会社,大阪府,吹田市,長野西１７番１０－１０８号,,27,205,5650817,,,,,,,2025-09-22,1,,,,,ユーケー,0
1175,5120901051521,新規,0,2025-09-22,2025-09-22,株式会社Ｂｏｎｄ．ｏｎｅ,,株式会社,大阪府,豊中市,服部本町５丁目２番３３号,,27,203,5610852,,,,,,,2025-09-22,1,,,,,ボンドワン,0
1176,5120903005839,新規,0,2025-09-22,2025-09-22,合同会社エクボパートナーズ,,合同会社,大阪府,摂津市,千里丘新町４番１０－１００１号,,27,224,5660002,,,,,,,2025-09-22,1,,,,,エクボパートナーズ,0
1177,5120905006793,新規,0,2025-09-22,2025-09-22,一般社団法人ギャンブル依存症家族の会大阪,,その他の設立登記法人,大阪府,豊中市,刀根山６丁目２番１９号,,27,203,5600045,,,,,,,2025-09-22,1,,,,,ギャンブルイゾンショウカゾクノカイオオサカ,0
1178,5122001039645,新規,0,2025-09-22,2025-09-22,株式会社ＶＯＩＴＵＲＥ,,株式会社,大阪府,東大阪市,東山町４－１０－６Ｆ,,27,227,5798027,,,,,,,2025-09-22,1,,,,,ヴォワチュール,0
1187,5130003010788,新規,0,2025-09-22,2025-09-22,オアシスルーム合同会社,,合同会社,京都府,京都市伏見区,鳥羽町６９８番地１ＭＳＴ清久２０１,,26,109,6128308,,,,,,,2025-09-22,1,,,,,オアシスルーム,0
1188,5130005017451,新規,0,2025-09-22,2025-09-22,一般社団法人インクルーシブジャーニー,,その他の設立登記法人,京都府,京都市下京区,朱雀宝蔵町１０１番地２２,,26,106,6008846,,,,,,,2025-09-22,1,,,,,インクルーシブジャーニー,0
1193,5140001140082,新規,0,2025-09-22,2025-09-22,ＨＩＲＩＮ株式会社,,株式会社,兵庫県,淡路市,野島江崎７９番地１,,28,226,6561725,,,,,,,2025-09-22,1,,,,,ヒリン,0
1194,5140001140108,新規,0,2025-09-22,2025-09-22,株式会社ＳｏｎｒｉｓａＳ,,株式会社,兵庫県,神戸市垂水区,狩口台７丁目７番８号,,28,108,6550049,,,,,,,2025-09-22,1,,,,,ソンリサス,0
1205,5180001168632,新規,0,2025-09-22,2025-09-22,株式会社ＣＩＭＡ,,株式会社,愛知県,名古屋市南区,白水町４－１白水マンション１Ｆ,,23,112,4570818,,,,,,,2025-09-22,1,,,,,シーマ,0
1206,5180003029064,新規,0,2025-09-22,2025-09-22,合同会社タタラボウエキ,,合同会社,愛知県,名古屋市中川区,東かの里町２０６番地の２コーポサトウ２０２号,,23,110,4540958,,,,,,,2025-09-22,1,,,,,タタラボウエキ,0
1207,5180003029080,新規,0,2025-09-22,2025-09-22,Ａ‐ＺＩＡ合同会社,,合同会社,愛知県,海部郡飛島村,大字渚８丁目６１番地,,23,427,4901433,,,,,,,2025-09-22,1,,,,,エイジア,0
1208,5180005021234,新規,0,2025-09-22,2025-09-22,医療法人一社アレルギー科・こどもクリニック,,その他の設立登記法人,愛知県,名古屋市名東区,一社２丁目８７番地プラザ・タマ１Ｆ,,23,115,4650093,,,,,,,2025-09-22,1,,,,,イッシャアレルギーカコドモクリニック,0
1209,5180301040227,新規,0,2025-09-22,2025-09-22,株式会社平岩技建,,株式会社,愛知県,安城市,高木町下屋敷１７番地,,23,212,4460015,,,,,,,2025-09-22,1,,,,,ヒライワギケン,0
1214,5200003007050,新規,0,2025-09-22,2025-09-22,ＩＢ　ＴＲＡＤＩＮＧ合同会社,,合同会社,岐阜県,可児市,東帷子字道弁当２５５１番地１,,21,214,5090256,,,,,,,2025-09-22,1,,,,,アイビートレーディング,0
1217,5220001026934,新規,0,2025-09-22,2025-09-22,株式会社Ｓｏｌｅｖｉａ,,株式会社,石川県,野々市市,太平寺４丁目７番地２階,,17,212,9218845,,,,,,,2025-09-22,1,,,,,,0
1218,5230001021091,新規,0,2025-09-22,2025-09-22,ＳＰ　ＴＯＹＡＭＡ株式会社,,株式会社,富山県,射水市,庄川本町２３番１７号,,16,211,9340003,,,,,,,2025-09-22,1,,,,,エスピートヤマ,0
1220,5240003007410,新規,0,2025-09-22,2025-09-22,合同会社ＰＲＩＭＥ,,合同会社,広島県,福山市,西深津町１丁目２番７号１０１,,34,207,7210975,,,,,,,2025-09-22,1,,,,,プライム,0
1226,5290001111432,新規,0,2025-09-22,2025-09-22,株式会社アールエフシー,,株式会社,福岡県,柳川市,三橋町久末１３１８番地１,,40,207,8320816,,,,,,,2025-09-22,1,,,,,アールエフシー,0
1227,5290001111481,新規,0,2025-09-22,2025-09-22,株式会社ＭＩＮＡＴＯ,,株式会社,福岡県,那珂川市,下梶原２丁目１１番８号,,40,231,8111222,,,,,,,2025-09-22,1,,,,,ミナト,0
1228,5290001111572,新規,0,2025-09-22,2025-09-22,Ｊ‐ＡｌｌＬＩＮＫ株式会社,,株式会社,福岡県,古賀市,久保１３０４番地１（ネオス千鳥ザ・プレイス４０６号）,,40,223,8113115,,,,,,,2025-09-22,1,,,,,ジェイオールリンク,0
1230,5290805009863,新規,0,2025-09-22,2025-09-22,ＮＰＯ法人さくら,,その他の設立登記法人,福岡県,遠賀郡水巻町,吉田東５丁目２番１８号,,40,382,8070045,,,,,,,2025-09-22,1,,,,,サクラ,0
1232,5310001019763,新規,0,2025-09-22,2025-09-22,株式会社０１ｚｅｒｏ　ｏｎｅ,,株式会社,長崎県,平戸市,大石脇町６０５番地１,,42,207,8595376,,,,,,,2025-09-22,1,,,,,ゼロワン,0
1235,5320003004762,新規,0,2025-09-22,2025-09-22,リードライズ合同会社,,合同会社,大分県,日田市,隈１丁目３番１４号,,44,204,8770044,,,,,,,2025-09-22,1,,,,,リードライズ,0
1241,5340001027664,新規,0,2025-09-22,2025-09-22,株式会社朝日総合警備,,株式会社,鹿児島県,鹿児島市,下荒田３丁目１番１１号３Ｆ,,46,201,8900056,,,,,,,2025-09-22,1,,,,,アサヒソウゴウケイビ,0
1244,5340003004950,新規,0,2025-09-22,2025-09-22,合同会社ＨＡＴ,,合同会社,鹿児島県,鹿児島市,西田３丁目３３番２号,,46,201,8900046,,,,,,,2025-09-22,1,,,,,ハット,0
1246,5360003015260,新規,0,2025-09-22,2025-09-22,合同会社琉心,,合同会社,沖縄県,沖縄市,胡屋６丁目１０番２６号アペルト３０２号室,,47,211,9040021,,,,,,,2025-09-22,1,,,,,リュウシン,0
1250,5370001053063,新規,0,2025-09-22,2025-09-22,株式会社メドリープファーマ,,株式会社,宮城県,仙台市泉区,八乙女３丁目３番１号,,04,105,9813112,,,,,,,2025-09-22,1,,,,,メドリープファーマ,0
1259,5400001017163,新規,0,2025-09-22,2025-09-22,株式会社みんなのみらいホールディングス,,株式会社,岩手県,盛岡市,本宮字荒屋２４番２１,,03,201,0200866,,,,,,,2025-09-22,1,,,,,ミンナノミライホールディングス,0
1261,5410001014275,新規,0,2025-09-22,2025-09-22,株式会社グローバル光望,,株式会社,秋田県,秋田市,山王３丁目８番３４号山王ツインビル２０３,,05,201,0100951,,,,,,,2025-09-22,1,,,,,グローバルコウボウ,0
1270,5480003002321,新規,0,2025-09-22,2025-09-22,ＳＮＳ　ＢＯＥＫＩ合同会社,,合同会社,徳島県,板野郡上板町,神宅字宮ノ北２５番地３,,36,405,7711320,,,,,,,2025-09-22,1,,,,,エスエヌエスボウエキ,0
1281,6010001258300,新規,0,2025-09-22,2025-09-22,株式会社Ｚｅｎ　Ｓｔｏｃｋ,,株式会社,東京都,中央区,銀座１丁目２２番１１号銀座大竹ビジデンス２Ｆ,,13,102,1040061,,,,,,,2025-09-22,1,,,,,ゼンストック,0
1282,6010001258399,新規,0,2025-09-22,2025-09-22,株式会社ＯＺｕ‐Ｅｎｅｒｇｙ,,株式会社,東京都,中央区,日本橋人形町２丁目３３番８号,,13,102,1030013,,,,,,,2025-09-22,1,,,,,オズエナジー,0
1283,6010001258556,新規,0,2025-09-22,2025-09-22,株式会社ＪＳＳ０４,,株式会社,東京都,千代田区,大手町２丁目３番１号大手町プレイスウエストタワー２４階,,13,101,1000004,,,,,,,2025-09-22,1,,,,,ジェイエスエスゼロヨン,0
1284,6010001258622,新規,0,2025-09-22,2025-09-22,ＮＳＨＤ株式会社,,株式会社,東京都,千代田区,富士見１丁目５番８号,,13,101,1020071,,,,,,,2025-09-22,1,,,,,エヌエスエイチディー,0
1285,6010001258705,新規,0,2025-09-22,2025-09-22,豊隆インターナショナル株式会社,,株式会社,東京都,中央区,銀座１丁目１９番１４号銀座ＯＮＥビル６階,,13,102,1040061,,,,,,,2025-09-22,1,,,,,トヨタカ,0
1291,6010003048708,新規,0,2025-09-22,2025-09-22,Ｃｏｗｍｅｎ　Ｇｒｏｕｐ合同会社,,合同会社,東京都,千代田区,神田錦町３丁目１５番地錦精社神田ビル天翔オフィス大手町竹橋１階１３３号室,,13,101,1010054,,,,,,,2025-09-22,1,,,,,カウメングループ,0
1292,6010005040654,新規,0,2025-09-22,2025-09-22,一般社団法人レッジョ・レミダ・ジャパン,,その他の設立登記法人,東京都,中央区,銀座１丁目２２番１１号銀座大竹ビジデンス２階,,13,102,1040061,,,,,,,2025-09-22,1,,,,,,0
1293,6010005040704,新規,0,2025-09-22,2025-09-22,ＪＤＰ開発ロジスティック３特定目的会社,,その他の設立登記法人,東京都,中央区,八重洲２丁目２番１号,,13,102,1040028,,,,,,,2025-09-22,1,,,,,ジェイディーピーカイハツロジスティックスリー,0
1296,6010103002655,新規,0,2025-09-22,2025-09-22,合同会社ファンタクロース,,合同会社,東京都,八王子市,東浅川町５５３番地３９,,13,201,1930834,,,,,,,2025-09-22,1,,,,,ファンタクロース,0
1303,6010401192644,新規,0,2025-09-22,2025-09-22,株式会社クオンティアホールディングス,,株式会社,東京都,港区,南青山３丁目３番３号,,13,103,1070062,,,,,,,2025-09-22,1,,,,,クオンティアホールディングス,0
1305,6010701048331,新規,0,2025-09-22,2025-09-22,Ｇａｍａ株式会社,,株式会社,東京都,品川区,東五反田４丁目１０番２２号パークアクシス池田山１０１１,,13,109,1410022,,,,,,,2025-09-22,1,,,,,,0
1308,6010801036616,新規,0,2025-09-22,2025-09-22,東京セレモニーサービス株式会社,,株式会社,東京都,大田区,上池台２丁目３８番３号,,13,111,1450064,,,,,,,2025-09-22,1,,,,,トウキョウセレモニーサービス,0
1309,6010801036624,新規,0,2025-09-22,2025-09-22,２ｃｕｂｅｓ　Ｊａｐａｎ株式会社,,株式会社,東京都,大田区,大森北３丁目４－４ＫＴ大森北ビル４階,,13,111,1430016,,,,,,,2025-09-22,1,,,,,ツーキューブスジャパン,0
1313,6010901058072,新規,0,2025-09-22,2025-09-22,株式会社ＨＬＵ,,株式会社,東京都,世田谷区,駒沢５丁目１３－１－３０３,,13,112,1540012,,,,,,,2025-09-22,1,,,,,エイチエルユー,0
1318,6011001172128,新規,0,2025-09-22,2025-09-22,株式会社Ｋｏｔｉ　ｄｅｓｉｇｎ,,株式会社,東京都,渋谷区,神南１丁目１１－４ＦＰＧリンクス神南５階,,13,113,1500041,,,,,,,2025-09-22,1,,,,,コティデザイン,0
1323,6011003022438,新規,0,2025-09-22,2025-09-22,Ｓｅｒｅｎａｇｉ合同会社,,合同会社,東京都,渋谷区,恵比寿西２丁目４番８号ウィンド恵比寿ビル８Ｆ,,13,113,1500021,,,,,,,2025-09-22,1,,,,,セレナギ,0
1326,6011101113122,新規,0,2025-09-22,2025-09-22,株式会社ひろば,,株式会社,東京都,新宿区,大久保１丁目１２番１号,,13,104,1690072,,,,,,,2025-09-22,1,,,,,ヒロバ,0
1327,6011101113213,新規,0,2025-09-22,2025-09-22,文瀾閣株式会社,,株式会社,東京都,新宿区,百人町２丁目５－４土屋ビル２ＦＬｉｎｋＳｐａｃｅＮ１４号室,,13,104,1690073,,,,,,,2025-09-22,1,,,,,ブンランカク,0
1328,6011101113221,新規,0,2025-09-22,2025-09-22,株式会社Ｌｕｘｉｒａ,,株式会社,東京都,新宿区,新宿１丁目３６番２号新宿第七葉山ビル４Ｆ,,13,104,1600022,,,,,,,2025-09-22,1,,,,,ルクシア,0
1329,6011101113262,新規,0,2025-09-22,2025-09-22,華信置業株式会社,,株式会社,東京都,新宿区,西新宿７丁目１８番７－４０３,,13,104,1600023,,,,,,,2025-09-22,1,,,,,カシンチギョウ,0
1330,6011101113279,新規,0,2025-09-22,2025-09-22,株式会社クレイ,,株式会社,東京都,新宿区,西新宿３丁目６番４号ＣＩＲＣＬＥＳ西新宿５Ｆ,,13,104,1600023,,,,,,,2025-09-22,1,,,,,クレイ,0
1332,6011103016422,新規,0,2025-09-22,2025-09-22,スティーロ合同会社,,合同会社,東京都,新宿区,市谷加賀町２丁目５番４－５０４号,,13,104,1620062,,,,,,,2025-09-22,1,,,,,スティーロ,0
1333,6011105011586,新規,0,2025-09-22,2025-09-22,医療法人社団ヨノナカ,,その他の設立登記法人,東京都,新宿区,新宿６丁目２８番１２号ＤＳ新宿ビル２階,,13,104,1600022,,,,,,,2025-09-22,1,,,,,ヨノナカ,0
1334,6011203004822,新規,0,2025-09-22,2025-09-22,リブファイ合同会社,,合同会社,東京都,中野区,新井２丁目１２番６号,,13,114,1650026,,,,,,,2025-09-22,1,,,,,リブファイ,0
1337,6011401027419,新規,0,2025-09-22,2025-09-22,エバーグリーントップ株式会社,,株式会社,東京都,板橋区,大谷口北町２２番３－３０５号,,13,119,1730031,,,,,,,2025-09-22,1,,,,,エバーグリーントップ,0
1339,6011501032590,新規,0,2025-09-22,2025-09-22,プラスベリティー株式会社,,株式会社,東京都,荒川区,西日暮里１丁目５９－３－１０５室,,13,118,1160013,,,,,,,2025-09-22,1,,,,,プラスベリティー,0
1344,6011701028744,新規,0,2025-09-22,2025-09-22,株式会社トウヤ,,株式会社,東京都,江戸川区,西小岩３丁目３３番６号エポアールＦ４０１,,13,123,1330057,,,,,,,2025-09-22,1,,,,,トウヤ,0
1347,6011703004388,新規,0,2025-09-22,2025-09-22,鴻運内装合同会社,,合同会社,東京都,江戸川区,西小岩２丁目２０番１６号ライオンズマンション西小岩第３－３１１号室,,13,123,1330057,,,,,,,2025-09-22,1,,,,,コウウンナイソウ,0
1351,6012803003874,新規,0,2025-09-22,2025-09-22,合同会社ＳＴＵＤＩＯ　ＡＮ,,合同会社,東京都,国分寺市,東恋ヶ窪４丁目１８番地８アスコットヒル１０５,,13,214,1850014,,,,,,,2025-09-22,1,,,,,スタジオアン,0
1352,6013101009804,新規,0,2025-09-22,2025-09-22,前田総業株式会社,,株式会社,東京都,あきる野市,山田５６０番地１５,,13,228,1900144,,,,,,,2025-09-22,1,,,,,マエダソウギョウ,0
1353,6013301054914,新規,0,2025-09-22,2025-09-22,ＡＩ　Ｌｉｎｋ株式会社,,株式会社,東京都,豊島区,南池袋４丁目２０－９サンロードビル１０３,,13,116,1710022,,,,,,,2025-09-22,1,,,,,エーアイリンク,0
1362,6020001011550,新規,0,2025-09-22,2025-09-22,株式会社昭和地建,,株式会社,神奈川県,横浜市青葉区,市ケ尾町１１６２番地１,,14,117,2250024,,,,,,,2025-09-22,1,,,,,ショウワチケン,0
1365,6020001164877,新規,0,2025-09-22,2025-09-22,みなとみらいインベストメント株式会社,,株式会社,神奈川県,横浜市中区,真砂町４丁目４３番地木下商事ビル２階,,14,104,2310016,,,,,,,2025-09-22,1,,,,,ミナトミライインベストメント,0
1369,6020003029434,新規,0,2025-09-22,2025-09-22,合同会社Ｐｏｒｔ,,合同会社,神奈川県,横浜市西区,南幸２丁目１９番２号第二土屋ビル,,14,103,2200005,,,,,,,2025-09-22,1,,,,,ポート,0
1373,6021003016554,新規,0,2025-09-22,2025-09-22,合同会社ＹＴカンパニー,,合同会社,神奈川県,綾瀬市,深谷南１丁目５番４９号,,14,218,2521106,,,,,,,2025-09-22,1,,,,,ワイティーカンパニー,0
1376,6030003027643,新規,0,2025-09-22,2025-09-22,ばんだ合同会社,,合同会社,埼玉県,飯能市,大字双柳９１５―１２,,11,209,3570021,,,,,,,2025-09-22,1,,,,,バンダ,0
1382,6040001140587,新規,0,2025-09-22,2025-09-22,弓長建設株式会社,,株式会社,千葉県,松戸市,松戸新田５７９－８,,12,207,2702241,,,,,,,2025-09-22,1,,,,,ユミナガケンセツ,0
1389,6050003009581,新規,0,2025-09-22,2025-09-22,ＲＡＮＤＨＡＷＡ　ＳＨＯＫＡＩ合同会社,,合同会社,茨城県,下妻市,江１５７３－１７ＳＵＷＡコーポ,,08,210,3040002,,,,,,,2025-09-22,1,,,,,ランダワショウカイ,0
1393,6070001043358,新規,0,2025-09-22,2025-09-22,山王商会株式会社,,株式会社,群馬県,前橋市,西善町１２０１番地１,,10,201,3792131,,,,,,,2025-09-22,1,,,,,サンノウショウカイ,0
1394,6070001043366,新規,0,2025-09-22,2025-09-22,株式会社エムジー,,株式会社,群馬県,前橋市,天川大島町４３番地ＣＡＳＡセフィーロ１－Ｄ,,10,201,3792154,,,,,,,2025-09-22,1,,,,,エムジー,0
1398,6070003006098,新規,0,2025-09-22,2025-09-22,合同会社成夢,,合同会社,群馬県,高崎市,下小塙町１７４４番地１４,,10,202,3700076,,,,,,,2025-09-22,1,,,,,セイム,0
1406,6090001019513,新規,0,2025-09-22,2025-09-22,ＳｙｎｏｖａＴＥＸ株式会社,,株式会社,山梨県,甲府市,中央３丁目１０－１０フラワーローム２Ｆ,,19,201,4000032,,,,,,,2025-09-22,1,,,,,,0
1409,6100003008388,新規,0,2025-09-22,2025-09-22,ＭｅｄｉａＲｏｏｔｓ合同会社,,合同会社,長野県,上田市,材木町２丁目７番１１号,,20,203,3860014,,,,,,,2025-09-22,1,,,,,メディアルーツ,0
1410,6100003008396,新規,0,2025-09-22,2025-09-22,Ｎｏｚａｗａ　Ｌｉｆｅｓｔｙｌｅ　Ｗｏｒｋｓ合同会社,,合同会社,長野県,飯山市,大字一山３３８９番地,,20,213,3892602,,,,,,,2025-09-22,1,,,,,ノザワライフスタイルワークス,0
1417,6120001279789,新規,0,2025-09-22,2025-09-22,株式会社ＢＬＩＳＳ．ＥＴＥＲＮＡＬ,,株式会社,大阪府,大阪市北区,西天満４丁目１番１１号昭栄ビル南館２０５号室,,27,127,5300047,,,,,,,2025-09-22,1,,,,,ブリスエターナル,0
1418,6120001279814,新規,0,2025-09-22,2025-09-22,銀谷美地砿業機械商貿株式会社,,株式会社,大阪府,大阪市東成区,中本３丁目８番２１号５０５号室,,27,115,5370022,,,,,,,2025-09-22,1,,,,,ギンヤビチコウギョウキカイショウボウ,0
1419,6120001279888,新規,0,2025-09-22,2025-09-22,株式会社天一興業,,株式会社,大阪府,守口市,梶町４丁目７９番１１号,,27,209,5700015,,,,,,,2025-09-22,1,,,,,テンイチコウギョウ,0
1420,6120001279905,新規,0,2025-09-22,2025-09-22,株式会社ＯＮＥ　ＴＯ　ＯＮＥ,,株式会社,大阪府,大阪市平野区,加美正覚寺１丁目５番３－２Ｂ,,27,126,5470006,,,,,,,2025-09-22,1,,,,,ワントゥワン,0
1422,6120003030596,新規,0,2025-09-22,2025-09-22,ＬＡ合同会社,,合同会社,大阪府,大阪市東住吉区,桑津３丁目２５番１９－４０６号,,27,121,5460041,,,,,,,2025-09-22,1,,,,,エルエー,0
1423,6120003030638,新規,0,2025-09-22,2025-09-22,昇和合同会社,,合同会社,大阪府,大阪市都島区,都島本通３丁目１８番４号サニータウン日新２階２０８－３号室,,27,102,5340021,,,,,,,2025-09-22,1,,,,,ショウワ,0
1426,6120901051512,新規,0,2025-09-22,2025-09-22,株式会社Ｄ９,,株式会社,大阪府,箕面市,西宿１丁目１番１０号,,27,220,5620034,,,,,,,2025-09-22,1,,,,,ディーナイン,0
1430,6120903005854,新規,0,2025-09-22,2025-09-22,合同会社ＭＫ,,合同会社,大阪府,高槻市,藤の里町３１番５号,,27,207,5690025,,,,,,,2025-09-22,1,,,,,エムケイ,0
1434,6130001080568,新規,0,2025-09-22,2025-09-22,株式会社ケイテック,,株式会社,京都府,京都市西京区,桂河田町１２４,,26,111,6158017,,,,,,,2025-09-22,1,,,,,ケイテック,0
1439,6140001140073,新規,0,2025-09-22,2025-09-22,株式会社ＷＡ,,株式会社,兵庫県,芦屋市,大原町１６番４号,,28,206,6590092,,,,,,,2025-09-22,1,,,,,ワ,0
1440,6140001140098,新規,0,2025-09-22,2025-09-22,緑動未来商事株式会社,,株式会社,兵庫県,神戸市中央区,下山手通７丁目１５－５、２０３号室,,28,110,6500011,,,,,,,2025-09-22,1,,,,,リョクドウミライショウジ,0
1443,6140003022609,新規,0,2025-09-22,2025-09-22,ＨＯＡＮＧ　ＡＮＨ合同会社,,合同会社,兵庫県,神戸市灘区,泉通４丁目５番１号泉ハイツ４０１号室,,28,102,6570834,,,,,,,2025-09-22,1,,,,,ホアンアィン,0
1444,6140003022617,新規,0,2025-09-22,2025-09-22,合同会社ＶＥＲＩＴＡ,,合同会社,兵庫県,伊丹市,平松７丁目２番２０号,,28,207,6640853,,,,,,,2025-09-22,1,,,,,ヴェリタ,0
1449,6180001168706,新規,0,2025-09-22,2025-09-22,株式会社Ｔ＆Ｙ,,株式会社,愛知県,名古屋市中区,錦１丁目７番２７号,,23,106,4600003,,,,,,,2025-09-22,1,,,,,ティアンドワイ,0
1455,6180301040192,新規,0,2025-09-22,2025-09-22,ＳＩＬＫ　ＢＯＤＹ　ＷＯＲＫＳ株式会社,,株式会社,愛知県,豊川市,長沢町東千束１０５番地１,,23,207,4410203,,,,,,,2025-09-22,1,,,,,シルクボディーワークス,0
1456,6180301040218,新規,0,2025-09-22,2025-09-22,佑逸株式会社,,株式会社,愛知県,岡崎市,生平町字東野５番地１,,23,202,4443334,,,,,,,2025-09-22,1,,,,,ユウイツ,0
1457,6180303006729,新規,0,2025-09-22,2025-09-22,合同会社Ｔｏｙふるアドベンチャー,,合同会社,愛知県,安城市,今本町１丁目７番８号,,23,212,4460008,,,,,,,2025-09-22,1,,,,,トイフルアドベンチャー,0
1467,6220001001746,新規,0,2025-09-22,2025-09-22,株式会社角谷商店,,株式会社,石川県,金沢市,打木町東１３２８番地,,17,201,9200377,,,,,,,2025-09-22,1,,,,,,0
1470,6220001026933,新規,0,2025-09-22,2025-09-22,株式会社アルミガレージ,,株式会社,石川県,金沢市,長田２丁目７番１６号,,17,201,9200043,,,,,,,2025-09-22,1,,,,,アルミガレージ,0
1471,6230003002502,新規,0,2025-09-22,2025-09-22,合同会社ＹＯＵＳＵＦ　ＴＲＡＤＩＮＧ,,合同会社,富山県,射水市,鷲塚８６番地８,,16,211,9390305,,,,,,,2025-09-22,1,,,,,ユーセフトレーディング,0
1475,6240001065517,新規,0,2025-09-22,2025-09-22,株式会社Ｃｕｒｅ＆Ｃａｒｅ,,株式会社,広島県,広島市佐伯区,観音台２丁目２０番６号,,34,108,7315157,,,,,,,2025-09-22,1,,,,,キュアアンドケア,0
1476,6240001065525,新規,0,2025-09-22,2025-09-22,ノトス株式会社,,株式会社,広島県,広島市東区,牛田旭２丁目２０番１－１０１０号,,34,102,7320067,,,,,,,2025-09-22,1,,,,,ノトス,0
1478,6250001021329,新規,0,2025-09-22,2025-09-22,株式会社スターライン,,株式会社,山口県,山口市,黒川１０７３番地６,,35,203,7530851,,,,,,,2025-09-22,1,,,,,スターライン,0
1485,6290001111423,新規,0,2025-09-22,2025-09-22,株式会社森弘解体,,株式会社,福岡県,福岡市東区,松香台１丁目１９番１８－１０３号パレーシャル香椎,,40,131,8130004,,,,,,,2025-09-22,1,,,,,モリヒロカイタイ,0
1486,6290001111431,新規,0,2025-09-22,2025-09-22,株式会社茗＿,00140731,株式会社,福岡県,福岡市博多区,博多駅中央街５番１１号,,40,132,8120012,,,,,,,2025-09-22,1,,,,,メイキ,0
1487,6290001111456,新規,0,2025-09-22,2025-09-22,株式会社ＡＰＲ,,株式会社,福岡県,福岡市博多区,店屋町６－６,,40,132,8120025,,,,,,,2025-09-22,1,,,,,エーピーアール,0
1488,6290001111514,新規,0,2025-09-22,2025-09-22,株式会社連迅,,株式会社,福岡県,福岡市中央区,舞鶴２丁目７番１－３１２号,,40,133,8100073,,,,,,,2025-09-22,1,,,,,レンジン,0
1489,6290001111522,新規,0,2025-09-22,2025-09-22,株式会社Ｎクリーン,,株式会社,福岡県,福岡市西区,姪浜駅南４丁目９番１５号,,40,135,8190006,,,,,,,2025-09-22,1,,,,,エヌクリーン,0
1490,6290001111539,新規,0,2025-09-22,2025-09-22,株式会社ＩＲＥＭ鳥栖,,株式会社,福岡県,福岡市東区,箱崎１丁目６番１６号,,40,131,8120053,,,,,,,2025-09-22,1,,,,,アイアールイーエムトス,0
1491,6290003017420,新規,0,2025-09-22,2025-09-22,合同会社ソアリア,,合同会社,福岡県,福岡市中央区,薬院３丁目１１番３３号,,40,133,8100022,,,,,,,2025-09-22,1,,,,,ソアリア,0
1492,6290003017437,新規,0,2025-09-22,2025-09-22,アグリチャレンジ合同会社,,合同会社,福岡県,福岡市西区,愛宕１丁目１４－４１,,40,135,8190015,,,,,,,2025-09-22,1,,,,,アグリチャレンジ,0
1493,6290003017494,新規,0,2025-09-22,2025-09-22,惠商合同会社,,合同会社,福岡県,朝倉郡筑前町,依井４９８番地１,,40,447,8380813,,,,,,,2025-09-22,1,,,,,ケイショウ,0
1498,6330001033588,新規,0,2025-09-22,2025-09-22,株式会社金山本店,,株式会社,熊本県,熊本市南区,城南町島田１９番地,,43,104,8614236,,,,,,,2025-09-22,1,,,,,カナヤマホンテン,0
1499,6330001033596,新規,0,2025-09-22,2025-09-22,株式会社大信エキスプレス,,株式会社,熊本県,熊本市東区,小山３丁目１番７号,,43,102,8618045,,,,,,,2025-09-22,1,,,,,ダイシンエキスプレス,0
1501,6330005010955,新規,0,2025-09-22,2025-09-22,弁護士法人山下法律事務所,,その他の設立登記法人,熊本県,熊本市中央区,水前寺６丁目１番３８号ヨネザワ本店ビル２階,,43,101,8620950,,,,,,,2025-09-22,1,,,,,ヤマシタホウリツジムショ,0
1502,6340001027663,新規,0,2025-09-22,2025-09-22,株式会社山口水産,,株式会社,鹿児島県,出水郡長島町,諸浦５２０番地９,,46,404,8991403,,,,,,,2025-09-22,1,,,,,ヤマグチスイサン,0
1505,6360001035805,新規,0,2025-09-22,2025-09-22,晨曦株式会社,00140741,株式会社,沖縄県,那覇市,具志２丁目２０番７号カンセイホーム具志１０５室,,47,201,9010146,,,,,,,2025-09-22,1,,,,,シンギ,0
1514,6420001019280,新規,0,2025-09-22,2025-09-22,株式会社ショウホク,,株式会社,青森県,上北郡東北町,字滝沢平９６５番地２,,02,408,0392631,,,,,,,2025-09-22,1,,,,,ショウホク,0
1517,6430001095296,新規,0,2025-09-22,2025-09-22,株式会社ＢｒａｖｅＰｒｏｇｒｅｓｓ,,株式会社,北海道,札幌市中央区,南一条西９丁目５番地１札幌１９Ｌビル６Ｆ,,01,101,0600061,,,,,,,2025-09-22,1,,,,,ブレイブプログレス,0
1522,6480001012957,新規,0,2025-09-22,2025-09-22,株式会社ＭａｇＤｏｔ,,株式会社,徳島県,徳島市,飯谷町本谷３３番地１,,36,201,7714265,,,,,,,2025-09-22,1,,,,,マグドット,0
1528,6700150132310,新規,0,2025-09-22,2025-09-22,Ｐ＆Ｍ　ＩＮＶＥＳＴＭＥＮＴ　ＨＯＬＤＩＮＧＳ　ＣＯ．，ＬＩＭＩＴＥＤ,,外国会社等,,,,,,,,Ｖｉｓｔｒａ　Ｃｏｒｐｏｒａｔｅ　Ｓｅｒｖｉｃｅｓ　Ｃｅｎｔｒｅ，Ｇｒｏｕｎｄ　Ｆｌｏｏｒ　ＮＰＦ　Ｂｕｉｌｄｉｎｇ，Ｂｅａｃｈ　Ｒｏａｄ，Ａｐｉａ，Ｓａｍｏａ,,,,,,2025-09-22,1,,,,,ピーアンドエムインベストメントホールデイングスカンパニーリミテツド,0
1533,7010001258555,新規,0,2025-09-22,2025-09-22,株式会社メタノヴァ・グローバル,,株式会社,東京都,千代田区,神田駿河台２丁目１１－７,,13,101,1010062,,,,,,,2025-09-22,1,,,,,メタノヴァグローバル,0
1534,7010001258613,新規,0,2025-09-22,2025-09-22,株式会社地域ものづくり活性化機構,,株式会社,東京都,千代田区,大手町１丁目９番２号,,13,101,1000004,,,,,,,2025-09-22,1,,,,,チイキモノヅクリカッセイカキコウ,0
1535,7010001258662,新規,0,2025-09-22,2025-09-22,アスレイム株式会社,,株式会社,東京都,千代田区,有楽町１丁目５番２号,,13,101,1000006,,,,,,,2025-09-22,1,,,,,アスレイム,0
1537,7010005040653,新規,0,2025-09-22,2025-09-22,社会保険労務士法人石川労務管理事務所,,その他の設立登記法人,東京都,文京区,本郷４丁目２番８号,,13,105,1130033,,,,,,,2025-09-22,1,,,,,イシカワロウムカンリジムショ,0
1538,7010005040678,新規,0,2025-09-22,2025-09-22,一般社団法人日蒙共創ソーラー水素フロンティア推進協議会,,その他の設立登記法人,東京都,中央区,日本橋兜町１３番１号,,13,102,1030026,,,,,,,2025-09-22,1,,,,,ニチモウキョウソウソーラースイソフロンティアスイシンキョウギカイ,0
1539,7010005040703,新規,0,2025-09-22,2025-09-22,鳴尾浜２ロジスティック特定目的会社,,その他の設立登記法人,東京都,中央区,八重洲２丁目２番１号,,13,102,1040028,,,,,,,2025-09-22,1,,,,,ナルオハマツーロジスティック,0
1546,7010401193022,新規,0,2025-09-22,2025-09-22,株式会社ＨＡＴＣＨ＆ＢＯＯＳＴ,,株式会社,東京都,港区,北青山１丁目３番１号アールキューブ青山３階,,13,103,1070061,,,,,,,2025-09-22,1,,,,,ハッチアンドブースト,0
1547,7010401193229,新規,0,2025-09-22,2025-09-22,ＥＲＳＧ建設株式会社,,株式会社,東京都,港区,芝浦３丁目１７番１１号天翔オフィス田町７０５号室,,13,103,1080023,,,,,,,2025-09-22,1,,,,,イーアールエスジーケンセツ,0
1550,7010405024693,新規,0,2025-09-22,2025-09-22,特定非営利活動法人山本教育支援団体,,その他の設立登記法人,東京都,港区,六本木７丁目７番１３－５０２号,,13,103,1060032,,,,,,,2025-09-22,1,,,,,ヤマモトキョウイクシエンダンタイ,0
1556,7010601067991,新規,0,2025-09-22,2025-09-22,株式会社櫻華,,株式会社,東京都,墨田区,千歳３丁目６番５－５０１号,,13,107,1300025,,,,,,,2025-09-22,1,,,,,サクラバナ,0
1557,7010701048330,新規,0,2025-09-22,2025-09-22,株式会社アシキタ,,株式会社,東京都,品川区,大井４丁目１８番２号,,13,109,1400014,,,,,,,2025-09-22,1,,,,,アシキタ,0
1558,7010703007920,新規,0,2025-09-22,2025-09-22,ｉＯＧＲＡＦ合同会社,,合同会社,東京都,品川区,西五反田３丁目８－３町原ビル３Ｆ,,13,109,1410031,,,,,,,2025-09-22,1,,,,,イオグラフ,0
1565,7011001172102,新規,0,2025-09-22,2025-09-22,ジャズマーケティング株式会社,,株式会社,東京都,渋谷区,渋谷３丁目１９番１号,,13,113,1500002,,,,,,,2025-09-22,1,,,,,ジャズマーケティング,0
1566,7011001172119,新規,0,2025-09-22,2025-09-22,桜星彩株式会社,,株式会社,東京都,渋谷区,富ヶ谷１丁目１４番１４号３階・４階,,13,113,1510063,,,,,,,2025-09-22,1,,,,,サクラセイサイ,0
1567,7011001172192,新規,0,2025-09-22,2025-09-22,Ｏｎｅ　ｍｅａｌ株式会社,,株式会社,東京都,渋谷区,道玄坂１丁目１０番８号渋谷道玄坂東急ビル２Ｆ－Ｃ,,13,113,1500043,,,,,,,2025-09-22,1,,,,,ワンミール,0
1568,7011001172408,新規,0,2025-09-22,2025-09-22,株式会社Ｔｏｋｙｏ　Ｌｉｔｔｌｅ　Ｈａｎｄｓ,,株式会社,東京都,渋谷区,道玄坂１丁目１０番８号渋谷道玄坂東急ビル２Ｆ―Ｃ,,13,113,1500043,,,,,,,2025-09-22,1,,,,,トウキョウリトルハンズ,0
1570,7011003022437,新規,0,2025-09-22,2025-09-22,ふじ合同会社,,合同会社,東京都,渋谷区,円山町５番３号ＭＩＥＵＸ渋谷ビル８階,,13,113,1500044,,,,,,,2025-09-22,1,,,,,フジ,0
1573,7011101113237,新規,0,2025-09-22,2025-09-22,株式会社米莱国際健康管理,,株式会社,東京都,新宿区,西早稲田２丁目７番１６号,,13,104,1690051,,,,,,,2025-09-22,1,,,,,ミライコクサイケンコウカンリ,0
1574,7011101113311,新規,0,2025-09-22,2025-09-22,Ｇｌｏｂａｌ　Ｎｅｘｕｓ株式会社,,株式会社,東京都,新宿区,西新宿５丁目８番２号惠徳ビル,,13,104,1600023,,,,,,,2025-09-22,1,,,,,グロバールネクサス,0
1578,7011201026652,新規,0,2025-09-22,2025-09-22,株式会社勝千,,株式会社,東京都,中野区,新井１丁目３６―８,,13,114,1650026,,,,,,,2025-09-22,1,,,,,ショウセン,0
1580,7011401027418,新規,0,2025-09-22,2025-09-22,株式会社香,,株式会社,東京都,板橋区,仲町２３－１７,,13,119,1730022,,,,,,,2025-09-22,1,,,,,カオル,0
1582,7011403004860,新規,0,2025-09-22,2025-09-22,合同会社ＰＯＬＥ,,合同会社,東京都,板橋区,高島平２丁目３３番４－１１２号,,13,119,1750082,,,,,,,2025-09-22,1,,,,,ポール,0
1587,7011701028545,新規,0,2025-09-22,2025-09-22,未蘭株式会社,,株式会社,東京都,江戸川区,上篠崎２丁目２－１６－４０２号室,,13,123,1330054,,,,,,,2025-09-22,1,,,,,ミラン,0
1588,7011701028743,新規,0,2025-09-22,2025-09-22,瑞吉株式会社,,株式会社,東京都,江戸川区,南小岩３丁目１番１４号プランドールＭ１１５,,13,123,1330056,,,,,,,2025-09-22,1,,,,,スイキチ,0
1589,7011701028751,新規,0,2025-09-22,2025-09-22,株式会社ポリカファクトリー,,株式会社,東京都,江戸川区,松島１丁目２６番２号,,13,123,1320031,,,,,,,2025-09-22,1,,,,,ポリカファクトリー,0
1600,7020001164868,新規,0,2025-09-22,2025-09-22,株式会社創,,株式会社,神奈川県,横浜市神奈川区,新子安１丁目２７番１７号エンゼルハイム新子安４０１号,,14,102,2210013,,,,,,,2025-09-22,1,,,,,ソウ,0
1602,7020003029383,新規,0,2025-09-22,2025-09-22,合同会社ワンダーポテト,,合同会社,神奈川県,横浜市神奈川区,星野町８番地１ＭＧＴ－１５０５,,14,102,2210035,,,,,,,2025-09-22,1,,,,,ワンダーポテト,0
1603,7020003029391,新規,0,2025-09-22,2025-09-22,合同会社オレンジエクスプレス,,合同会社,神奈川県,横浜市西区,霞ケ丘４１番地５メゾン・ド・セヴェール・パートＩＩ２０３号,00140736,14,103,2200035,,,,,,,2025-09-22,1,,,,,オレンジエクスプレス,0
1605,7020005016990,新規,0,2025-09-22,2025-09-22,一般社団法人Ｂｅａｒｔｈ,,その他の設立登記法人,神奈川県,横浜市都筑区,見花山１－３０見花山ビル３階,,14,118,2240066,,,,,,,2025-09-22,1,,,,,ベアース,0
1612,7030001168612,新規,0,2025-09-22,2025-09-22,宇祥株式会社,,株式会社,埼玉県,川口市,芝３丁目１２番１９－３号,,11,203,3330866,,,,,,,2025-09-22,1,,,,,ウショウ,0
1618,7040001140470,新規,0,2025-09-22,2025-09-22,プレジャー・シェア株式会社,,株式会社,千葉県,千葉市中央区,稲荷町２丁目８－３,,12,101,2600833,,,,,,,2025-09-22,1,,,,,プレジャーシェア,0
1619,7040001140586,新規,0,2025-09-22,2025-09-22,株式会社スタジオアッツー,,株式会社,千葉県,柏市,明原２丁目９番１号ＣＡＳＳＩＡ柏１０３,,12,217,2770843,,,,,,,2025-09-22,1,,,,,スタジオアッツー,0
1622,7040003028532,新規,0,2025-09-22,2025-09-22,ＪＡＮＮＡＨ　ＴＲＡＤＩＮＧ合同会社,,合同会社,千葉県,千葉市花見川区,こてはし台３丁目１８番１４号,,12,102,2620005,,,,,,,2025-09-22,1,,,,,ジャンナトレーディング,0
1623,7040003028565,新規,0,2025-09-22,2025-09-22,合同会社ＧＡＲＮＩＴＵＲＥ,,合同会社,千葉県,銚子市,猿田町１１７９番地の２,,12,202,2880855,,,,,,,2025-09-22,1,,,,,ガルニチュール,0
1639,7090003002895,新規,0,2025-09-22,2025-09-22,合同会社ＨＡＲＡ,,合同会社,山梨県,北杜市,小淵沢町１０４５番地７,,19,209,4080044,,,,,,,2025-09-22,1,,,,,ハラ,0
1640,7100003008395,新規,0,2025-09-22,2025-09-22,合同会社Ｋ’ｓ　Ｗａｌｌｅｔ,,合同会社,長野県,東御市,八重原９１５－３,,20,219,3890406,,,,,,,2025-09-22,1,,,,,ケーズウォレット,0
1654,7120001279755,新規,0,2025-09-22,2025-09-22,株式会社ＭＩＲＡＫＯ,,株式会社,大阪府,大阪市東住吉区,今川６丁目３番５号白鷺コーポ４０３号,,27,121,5460003,,,,,,,2025-09-22,1,,,,,ミラコ,0
1655,7120001279771,新規,0,2025-09-22,2025-09-22,ｍｅｌｌｏｗ株式会社,,株式会社,大阪府,交野市,私部７丁目１１番２６号,,27,230,5760052,,,,,,,2025-09-22,1,,,,,メロウ,0
1656,7120001279788,新規,0,2025-09-22,2025-09-22,株式会社Ｈｅｒ,,株式会社,大阪府,大阪市西区,川口１丁目１番１１号５０２,,27,106,5500021,,,,,,,2025-09-22,1,,,,,ハー,0
1657,7120001279813,新規,0,2025-09-22,2025-09-22,日本グローバル株式会社,,株式会社,大阪府,大阪市生野区,勝山北２丁目５番７号,,27,116,5440033,,,,,,,2025-09-22,1,,,,,ニホングローバル,0
1658,7120001280176,新規,0,2025-09-22,2025-09-22,株式会社ＩＭＡ,,株式会社,大阪府,大阪市東住吉区,中野４丁目１番１６号リベラルオリエンテ中野２０３Ｂ,,27,121,5460012,,,,,,,2025-09-22,1,,,,,イマ,0
1659,7120003030587,新規,0,2025-09-22,2025-09-22,ＫＲ合同会社,,合同会社,大阪府,大阪市西成区,鶴見橋３丁目５番２号,,27,122,5570031,,,,,,,2025-09-22,1,,,,,ケーアール,0
1660,7120003030595,新規,0,2025-09-22,2025-09-22,合同会社ＬＩＯＮＳ,,合同会社,大阪府,大阪市平野区,加美鞍作３丁目７番６号,,27,126,5470004,,,,,,,2025-09-22,1,,,,,ライオンズ,0
1664,7120901051528,新規,0,2025-09-22,2025-09-22,株式会社サイトインデックス,,株式会社,大阪府,高槻市,萩之庄５丁目１－１ブライトン高槻５０２号,,27,207,5690093,,,,,,,2025-09-22,1,,,,,サイトインデックス,0
1666,7120903005845,新規,0,2025-09-22,2025-09-22,合同会社ＲＩＴＯＲＥ,,合同会社,大阪府,豊中市,若竹町１丁目１－４６－５０１,,27,203,5610811,,,,,,,2025-09-22,1,,,,,リトレ,0
1667,7122001039610,新規,0,2025-09-22,2025-09-22,株式会社Ｈ．Ｅ．Ｒ．Ｏ．,,株式会社,大阪府,八尾市,西弓削１丁目４７番地,,27,212,5810035,,,,,,,2025-09-22,1,,,,,ヒーロー,0
1671,7130001080567,新規,0,2025-09-22,2025-09-22,株式会社Ｓｏｌｃｉｅｒ,,株式会社,京都府,京都市下京区,朱雀宝蔵町４４番地協栄ビル２階京都朱雀スタジオ,,26,106,6008846,,,,,,,2025-09-22,1,,,,,ソルシェール,0
1672,7130003010786,新規,0,2025-09-22,2025-09-22,ＴＨＥ‐ＩＦ合同会社,,合同会社,京都府,京都市下京区,天王町１５３,,26,106,6008013,,,,,,,2025-09-22,1,,,,,ザイフ,0
1680,7140001140072,新規,0,2025-09-22,2025-09-22,株式会社山種,,株式会社,兵庫県,伊丹市,清水１丁目１番８号,,28,207,6640894,,,,,,,2025-09-22,1,,,,,ヤマタネ,0
1681,7140001140080,新規,0,2025-09-22,2025-09-22,光潤株式会社,,株式会社,兵庫県,神戸市兵庫区,福原町２－１５三木ビル１０４号室,,28,105,6520036,,,,,,,2025-09-22,1,,,,,コウジュン,0
1682,7140001140097,新規,0,2025-09-22,2025-09-22,株式会社ｆｏｏｓｅ,,株式会社,兵庫県,神戸市須磨区,緑が丘１丁目９番３１号,,28,107,6540113,,,,,,,2025-09-22,1,,,,,フース,0
1683,7140001140106,新規,0,2025-09-22,2025-09-22,ＡＲＩＦＵＬ　ＴＲＡＤＩＮＧ株式会社,,株式会社,兵庫県,神戸市西区,富士見が丘１丁目７－２富士見ヶ丘ショッピングプラザ３階,,28,111,6512214,,,,,,,2025-09-22,1,,,,,アリフルトレーディング,0
1689,7140003022608,新規,0,2025-09-22,2025-09-22,合同会社ヒマラヤン,,合同会社,兵庫県,加東市,社５３３番地８,,28,228,6731431,,,,,,,2025-09-22,1,,,,,ヒマラヤン,0
1691,7160001027061,新規,0,2025-09-22,2025-09-22,株式会社真花,,株式会社,滋賀県,野洲市,北野１丁目１２－３１ドリームビル２階,,25,210,5202361,,,,,,,2025-09-22,1,,,,,シンカ,0
1701,7180001168721,新規,0,2025-09-22,2025-09-22,株式会社Ｔ＆Ｅパートナーズ,,株式会社,愛知県,名古屋市中区,丸の内２丁目１番３６号,,23,106,4600002,,,,,,,2025-09-22,1,,,,,ティアンドイーパートナーズ,0
1704,7180003029095,新規,0,2025-09-22,2025-09-22,合同会社ＴＵＲＮ,,合同会社,愛知県,名古屋市天白区,植田東２丁目１０１２番地カオシンパレス２０１号,,23,116,4680006,,,,,,,2025-09-22,1,,,,,ターン,0
1707,7190001032538,新規,0,2025-09-22,2025-09-22,Ｂｅｌｌｅ　Ｂｉｚ株式会社,,株式会社,三重県,津市,栄町２丁目３１２番地日進三重ビル５Ｆ・ｅ,,24,201,5140004,,,,,,,2025-09-22,1,,,,,ベルビズ,0
1708,7190001032546,新規,0,2025-09-22,2025-09-22,ＡＡＢＩＤ　ＮＩＰＰＯＮ株式会社,,株式会社,三重県,鈴鹿市,稲生西２丁目１番３０号サーキットハイツ１０６,,24,207,5100204,,,,,,,2025-09-22,1,,,,,アビッドニッポン,0
1709,7190003005186,新規,0,2025-09-22,2025-09-22,合同会社マリックブラザー,,合同会社,三重県,桑名郡木曽岬町,大字富田子３１０番地５,,24,303,4980813,,,,,,,2025-09-22,1,,,,,マリックブラザー,0
1716,7200003007049,新規,0,2025-09-22,2025-09-22,合同会社ワイエムオ,,合同会社,岐阜県,加茂郡八百津町,上牧野６５９番地６,,21,505,5050304,,,,,,,2025-09-22,1,,,,,ワイエムオ,0
1717,7210001020317,新規,0,2025-09-22,2025-09-22,株式会社ＵＮＭＩＬＥＳ,,株式会社,福井県,福井市,花堂北１丁目９番１８号,,18,201,9188012,,,,,,,2025-09-22,1,,,,,アンマイルズ,0
1721,7240001065508,新規,0,2025-09-22,2025-09-22,ＧＵＴＳ株式会社,,株式会社,広島県,福山市,南今津町１３０番地,,34,207,7290115,,,,,,,2025-09-22,1,,,,,ガッツ,0
1724,7250005009030,新規,0,2025-09-22,2025-09-22,非営利型一般社団法人日本発達予育研究所,,その他の設立登記法人,山口県,下関市,古屋町２丁目２番５号,,35,201,7510847,,,,,,,2025-09-22,1,,,,,ニホンハッタツヨイクケンキュウジョ,0
1733,7290001111406,新規,0,2025-09-22,2025-09-22,杉本酒店株式会社,,株式会社,福岡県,糟屋郡志免町,別府４丁目８番１８号,,40,343,8112205,,,,,,,2025-09-22,1,,,,,スギモトサケテン,0
1734,7290001111422,新規,0,2025-09-22,2025-09-22,株式会社源建設,,株式会社,福岡県,福岡市城南区,西片江２丁目２８番５号エクセル西片江２０３号,,40,136,8140141,,,,,,,2025-09-22,1,,,,,ミナモトケンセツ,0
1735,7290001111447,新規,0,2025-09-22,2025-09-22,株式会社Ｓｙｒｕｐ,,株式会社,福岡県,福岡市中央区,天神４丁目６－２８いちご天神ノースビル７階,,40,133,8100001,,,,,,,2025-09-22,1,,,,,シロップ,0
1736,7290001111455,新規,0,2025-09-22,2025-09-22,Ａｖｉｓ株式会社,,株式会社,福岡県,福岡市博多区,住吉５丁目１９－１３・２Ｆ,,40,132,8120018,,,,,,,2025-09-22,1,,,,,アヴィス,0
1737,7290001111463,新規,0,2025-09-22,2025-09-22,株式会社Ａ・Ｑ福岡,,株式会社,福岡県,太宰府市,大字北谷７１７番地１０,,40,221,8180114,,,,,,,2025-09-22,1,,,,,エーキューフクオカ,0
1738,7290001111471,新規,0,2025-09-22,2025-09-22,株式会社ＣＥＫＩＮＡ,,株式会社,福岡県,福岡市博多区,博多駅前１丁目２３番２号ＰａｒｋＦｒｏｎｔ博多駅前一丁目５Ｆ－Ｂ,,40,132,8120011,,,,,,,2025-09-22,1,,,,,セキナ,0
1740,7290003017403,新規,0,2025-09-22,2025-09-22,Ｈｅａｌｕｓ　Ｈｅａｌｔｈ合同会社,,合同会社,福岡県,那珂川市,中原２丁目１２７博多南駅前医療ビル２階,,40,231,8111213,,,,,,,2025-09-22,1,,,,,ヒーラスヘルス,0
1745,7330001033570,新規,0,2025-09-22,2025-09-22,株式会社ジェイレック九州,,株式会社,熊本県,熊本市西区,島崎２丁目２８番２４号,,43,103,8600073,,,,,,,2025-09-22,1,,,,,ジェイレックキュウシュウ,0
1746,7330001033587,新規,0,2025-09-22,2025-09-22,株式会社ｎｕｎｅ,,株式会社,熊本県,熊本市中央区,新町３丁目４番８号１階,,43,101,8600004,,,,,,,2025-09-22,1,,,,,ヌネ,0
1747,7330001033595,新規,0,2025-09-22,2025-09-22,株式会社ＳＰ　ＰＲＯＣＥＳＳ,,株式会社,熊本県,八代郡氷川町,宮原３７６－５,,43,468,8694602,,,,,,,2025-09-22,1,,,,,エスピープロセス,0
1748,7330003011228,新規,0,2025-09-22,2025-09-22,合同会社とも興産,,合同会社,熊本県,熊本市南区,畠口町５４番地２,,43,104,8615265,,,,,,,2025-09-22,1,,,,,トモコウサン,0
1752,7360003015259,新規,0,2025-09-22,2025-09-22,合同会社クリエモーション,,合同会社,沖縄県,南城市,玉城字船越１３３５番地１マンション未来ＩＶ１０１号,00140742,47,215,9010618,,,,,,,2025-09-22,1,,,,,クリエモーション,0
1753,7370003007296,新規,0,2025-09-22,2025-09-22,合同会社光盛,,合同会社,宮城県,仙台市太白区,富沢西５丁目６番地の９,,04,104,9820037,,,,,,,2025-09-22,1,,,,,コウセイ,0
1760,7470001020902,新規,0,2025-09-22,2025-09-22,株式会社補助金サポートサービス,,株式会社,香川県,高松市,天神前１０番５号高松セントラルスカイビル,,37,201,7600018,,,,,,,2025-09-22,1,,,,,ホジョキンサポートサービス,0
1761,7470003002980,新規,0,2025-09-22,2025-09-22,Ｓａｉ　Ｇｏｎ　Ｃｈｉｌｌ合同会社,,合同会社,香川県,高松市,木太町２０３５番地１Ｌｅｇａｓｉｓ玉藻ＩＩ１０３,00140745,37,201,7600080,,,,,,,2025-09-22,1,,,,,サイゴンチル,0
1775,8010001258554,新規,0,2025-09-22,2025-09-22,株式会社ワイエスエヌ,,株式会社,東京都,中央区,新富１丁目６番１号ＧＧＩＣ京橋ビルディング９Ｆ・Ｂ,,13,102,1040041,,,,,,,2025-09-22,1,,,,,ワイエスエヌ,0
1787,8010401193161,新規,0,2025-09-22,2025-09-22,株式会社コマンドアール,,株式会社,東京都,港区,東麻布２丁目２８番１－５０４号,,13,103,1060044,,,,,,,2025-09-22,1,,,,,コマンドアール,0
1788,8010403035948,新規,0,2025-09-22,2025-09-22,Ｓｏｌｕｔｉｏｎ　Ｋｅｅｐｅｒｓ合同会社,,合同会社,東京都,港区,東麻布１丁目２３番５号ＰＭＣビル２Ｆ,,13,103,1060044,,,,,,,2025-09-22,1,,,,,ソリューションキーパーズ,0
1789,8010403036070,新規,0,2025-09-22,2025-09-22,合同会社アルキスルーメル,,合同会社,東京都,港区,芝浦４丁目２０番２－２１１３号,,13,103,1080023,,,,,,,2025-09-22,1,,,,,アルキスルーメル,0
1790,8010403036087,新規,0,2025-09-22,2025-09-22,合同会社ＴＳＭ１７３,,合同会社,東京都,港区,元赤坂１丁目１番７号,,13,103,1070051,,,,,,,2025-09-22,1,,,,,ティーエスエムヒャクナナジュウサン,0
1791,8010405024692,新規,0,2025-09-22,2025-09-22,一般社団法人ジャパンメイドコレクションコンソーシアム,,その他の設立登記法人,東京都,港区,北青山１丁目３番３号三橋ビル３階,,13,103,1070061,,,,,,,2025-09-22,1,,,,,ジャパンメイドコレクションコンソーシアム,0
1807,8010603011807,新規,0,2025-09-22,2025-09-22,上組神栖蓄電事業合同会社,,合同会社,東京都,江東区,海の森１丁目３番４号,,13,108,1350066,,,,,,,2025-09-22,1,,,,,カミグミカミスチクデンジギョウ,0
1809,8010705003801,新規,0,2025-09-22,2025-09-22,医療法人社団優栄会,,その他の設立登記法人,東京都,品川区,上大崎２丁目２７番３号目黒駅前山田ビル２階,,13,109,1410021,,,,,,,2025-09-22,1,,,,,ユウエイカイ,0
1810,8010801036622,新規,0,2025-09-22,2025-09-22,思越智能株式会社,,株式会社,東京都,大田区,山王２丁目１番８号６１５号室,,13,111,1430023,,,,,,,2025-09-22,1,,,,,シエツチノウ,0
1817,8011001172134,新規,0,2025-09-22,2025-09-22,株式会社クレイジーキルト,,株式会社,東京都,渋谷区,渋谷２丁目１９番１９号ワコー宮益坂ビル５階,,13,113,1500002,,,,,,,2025-09-22,1,,,,,クレイジーキルト,0
1818,8011001172142,新規,0,2025-09-22,2025-09-22,株式会社Ｃｏｃｏｌｅｔｔｅ,,株式会社,東京都,渋谷区,広尾１丁目２番地１号ヒカリビル４階,,13,113,1500012,,,,,,,2025-09-22,1,,,,,ココレット,0
1819,8011001172191,新規,0,2025-09-22,2025-09-22,株式会社ＥＬＰ,,株式会社,東京都,渋谷区,神南１丁目１１－４ＦＰＧリンクス神南５階,,13,113,1500041,,,,,,,2025-09-22,1,,,,,イーエルピー,0
1820,8011001172209,新規,0,2025-09-22,2025-09-22,ＴＫＧ株式会社,,株式会社,東京都,渋谷区,渋谷２丁目１９番１５号宮益坂ビルディング６０９,,13,113,1500002,,,,,,,2025-09-22,1,,,,,ティーケージー,0
1821,8011001172638,新規,0,2025-09-22,2025-09-22,株式会社Ｌａｎｔｅｒｎ２４,,株式会社,東京都,渋谷区,円山町５番３号ＭＩＥＵＸ渋谷ビル８階,,13,113,1500044,,,,,,,2025-09-22,1,,,,,ランタンニヨン,0
1826,8011003022444,新規,0,2025-09-22,2025-09-22,Ｉｍｍｕｔａｂｌｅ　Ｓｉｎｃｅｒｉｔｙ合同会社,,合同会社,東京都,渋谷区,恵比寿西２丁目４番８号ウィンド恵比寿ビル８Ｆ,,13,113,1500021,,,,,,,2025-09-22,1,,,,,イミュータブルシンセリティ,0
1832,8011101113228,新規,0,2025-09-22,2025-09-22,Ｍｅｒｇｅｒｓ　Ｇｒｏｕｐ　Ｊａｐａｎ株式会社,,株式会社,東京都,新宿区,市谷仲之町１番７－３０４号,,13,104,1620064,,,,,,,2025-09-22,1,,,,,マージャーズグループジャパン,0
1833,8011101113277,新規,0,2025-09-22,2025-09-22,幻瑩株式会社,,株式会社,東京都,新宿区,西新宿３丁目８番１３号セントラル新宿公園５０２,,13,104,1600023,,,,,,,2025-09-22,1,,,,,ゲンエイ,0
1834,8011101113343,新規,0,2025-09-22,2025-09-22,株式会社ジェイ・ケイ・オー,,株式会社,東京都,新宿区,下宮比町１番４号,,13,104,1620822,,,,,,,2025-09-22,1,,,,,ジェイケイオー,0
1840,8011401027383,新規,0,2025-09-22,2025-09-22,株式会社Ｃｏｍｍｏｍ　Ｐｌａｃｅ,,株式会社,東京都,板橋区,大山金井町３５－５,,13,119,1730024,,,,,,,2025-09-22,1,,,,,コモンプレイス,0
1844,8011703004378,新規,0,2025-09-22,2025-09-22,万達国際合同会社,,合同会社,東京都,江戸川区,北小岩５丁目４－１８,,13,123,1330051,,,,,,,2025-09-22,1,,,,,マンタツコクサイ,0
1845,8011703004386,新規,0,2025-09-22,2025-09-22,ｓｗｅｅｔ　ｏｎｅ合同会社,,合同会社,東京都,江戸川区,平井５丁目４４番６号ＣＷＨ平井ビルディング２０６号室,,13,123,1320035,,,,,,,2025-09-22,1,,,,,スウィートワン,0
1852,8012803003872,新規,0,2025-09-22,2025-09-22,合同会社ミライハウス,,合同会社,東京都,立川市,羽衣町１丁目６番２－３０２号,,13,202,1900021,,,,,,,2025-09-22,1,,,,,ミライハウス,0
1862,8020001164850,新規,0,2025-09-22,2025-09-22,株式会社Ｌ．Ｍ．Ｎ．,,株式会社,神奈川県,横浜市青葉区,荏子田２丁目１９番地１９三喜ビレッジ１０３号,,14,117,2250005,,,,,,,2025-09-22,1,,,,,エルエムエヌ,0
1863,8020001164900,新規,0,2025-09-22,2025-09-22,株式会社ポプリス,,株式会社,神奈川県,横浜市旭区,西川島町７１番地の８－８,,14,112,2410012,,,,,,,2025-09-22,1,,,,,ポプリス,0
1865,8020003029382,新規,0,2025-09-22,2025-09-22,イノベーション瑞穂合同会社,,合同会社,神奈川県,横浜市西区,北幸２丁目１０番４８号むつみビル３階,,14,103,2200004,,,,,,,2025-09-22,1,,,,,イノベーションミズホ,0
1866,8021001086317,新規,0,2025-09-22,2025-09-22,株式会社Ｂｌｕｅ　Ｈａｐｐｉｎｅｓｓ,,株式会社,神奈川県,藤沢市,辻堂神台２丁目２番３４号,,14,205,2510041,,,,,,,2025-09-22,1,,,,,ブルーハピネス,0
1868,8030001168594,新規,0,2025-09-22,2025-09-22,株式会社Ａライン,,株式会社,埼玉県,久喜市,上内１３６７番地３３,,11,232,3400211,,,,,,,2025-09-22,1,,,,,エーライン,0
1869,8030001168693,新規,0,2025-09-22,2025-09-22,株式会社イッショウ,,株式会社,埼玉県,朝霞市,膝折町２丁目１８番３７－１０２号,,11,227,3510014,,,,,,,2025-09-22,1,,,,,イッショウ,0
1870,8030001168710,新規,0,2025-09-22,2025-09-22,ｐｏｔｅ株式会社,,株式会社,埼玉県,さいたま市大宮区,大門町２丁目１１番地プロスパーワンビル７階,,11,103,3300846,,,,,,,2025-09-22,1,,,,,ポット,0
1871,8030001168727,新規,0,2025-09-22,2025-09-22,株式会社ＳＫ　ＴＲＡＤＩＮＧ,,株式会社,埼玉県,加須市,阿良川２６８番地４,,11,210,3470047,,,,,,,2025-09-22,1,,,,,エスケートレーディング,0
1872,8030001168743,新規,0,2025-09-22,2025-09-22,ＮＡＭＯＢＵＤＤＨＡ　ＩＮＴＥＲＮＡＴＩＯＮＡＬ　ＰＬＴ株式会社,,株式会社,埼玉県,羽生市,中央２丁目１１番１０号,,11,216,3480058,,,,,,,2025-09-22,1,,,,,ナモブッダインターナショナルピーエルティー,0
1875,8040001140560,新規,0,2025-09-22,2025-09-22,チーム・レジャーアセット株式会社,,株式会社,千葉県,八千代市,八千代台北１０丁目１５－１６ＣＬＵＢＯＲＩＲＮＴＢＬＤＮｏ１４１ＹＡＣＨＩＹＯＤＡＩ２０２０,,12,221,2760031,,,,,,,2025-09-22,1,,,,,チームレジャーアセット,0
1876,8040001140585,新規,0,2025-09-22,2025-09-22,株式会社ＫＥＦ,,株式会社,千葉県,東金市,一之袋２２６－４１,,12,213,2830057,,,,,,,2025-09-22,1,,,,,ケーイーエフ,0
1878,8050001057300,新規,0,2025-09-22,2025-09-22,ＬＨＳ　Ｔｒａｄｉｎｇ株式会社,,株式会社,茨城県,古河市,大山１４８３番地８,,08,204,3060052,,,,,,,2025-09-22,1,,,,,エルエイチエストレーディング,0
1880,8050003009596,新規,0,2025-09-22,2025-09-22,恒順合同会社,,合同会社,茨城県,つくば市,小白硲６１６－２７,,08,220,3050844,,,,,,,2025-09-22,1,,,,,コウジュン,0
1882,8050005013704,新規,0,2025-09-22,2025-09-22,医療法人社団伊藤歯科,,その他の設立登記法人,茨城県,那珂郡東海村,大字石神内宿字滝ノ上１１６７番地７２,,08,341,3191102,,,,,,,2025-09-22,1,,,,,イトウシカ,0
1889,8070003006096,新規,0,2025-09-22,2025-09-22,合同会社デスティーノ,,合同会社,群馬県,伊勢崎市,喜多町３７番地５,,10,204,3720056,,,,,,,2025-09-22,1,,,,,デスティーノ,0
1912,8120001279721,新規,0,2025-09-22,2025-09-22,Ａｉｍｅｒｏｓｅ株式会社,,株式会社,大阪府,大阪市西区,土佐堀３丁目１番９号ＴＬビル５階,,27,106,5500001,,,,,,,2025-09-22,1,,,,,エメローズ,0
1913,8120001279762,新規,0,2025-09-22,2025-09-22,株式会社泰蔵,,株式会社,大阪府,大阪市北区,梅田１丁目２番２号大阪駅前第２ビル１２－１２,,27,127,5300001,,,,,,,2025-09-22,1,,,,,タイゾウ,0
1914,8120001279795,新規,0,2025-09-22,2025-09-22,ＣｉＣｉ推薦株式会社,,株式会社,大阪府,大阪市浪速区,幸町２丁目３番３７グランピア西道頓８０４号,,27,111,5560021,,,,,,,2025-09-22,1,,,,,シーシースイセン,0
1915,8120001279812,新規,0,2025-09-22,2025-09-22,十二縁起株式会社,,株式会社,大阪府,大阪市東成区,東小橋１丁目１７番３１号グランドハイツ東小橋２１５号室,,27,115,5370024,,,,,,,2025-09-22,1,,,,,ジュウニエンギ,0
1916,8120001279944,新規,0,2025-09-22,2025-09-22,株式会社ＳＺ工業,,株式会社,大阪府,大阪市生野区,新今里３丁目１０番２号,,27,116,5440001,,,,,,,2025-09-22,1,,,,,エスズィコウギョウ,0
1917,8120001280175,新規,0,2025-09-22,2025-09-22,環福株式会社,,株式会社,大阪府,大阪市中央区,瓦屋町３丁目４番９号サンシャイン瓦屋町３０１Ｂ,,27,128,5420066,,,,,,,2025-09-22,1,,,,,カンフク,0
1919,8120003030636,新規,0,2025-09-22,2025-09-22,＿洋合同会社,00140743,合同会社,大阪府,大阪市中央区,平野町１丁目８番１３号平野町八千代ビル３階,,27,128,5410046,,,,,,,2025-09-22,1,,,,,ゲツヨウ,0
1923,8120901051502,新規,0,2025-09-22,2025-09-22,株式会社ＨＡＳＨＩＲＵ　ＪＡＰＡＮ,,株式会社,大阪府,吹田市,青山台３丁目１０番４－１号,,27,205,5650875,,,,,,,2025-09-22,1,,,,,ハシルジャパン,0
1928,8122001039659,新規,0,2025-09-22,2025-09-22,ＳＩＭＡ株式会社,,株式会社,大阪府,東大阪市,菱屋西２丁目８番２３号,,27,227,5770807,,,,,,,2025-09-22,1,,,,,シマ,0
1929,8122003003316,新規,0,2025-09-22,2025-09-22,Ｊａｐａｎ　Ａｐｐａｒｅｌ合同会社,,合同会社,大阪府,東大阪市,菱屋西５丁目２番１号ジェイルミナ小阪２階,,27,227,5770807,,,,,,,2025-09-22,1,,,,,ジャパンアパレル,0
1935,8130001080599,新規,0,2025-09-22,2025-09-22,株式会社ＳＯＡＲ,,株式会社,京都府,京都市西京区,大枝北沓掛町２丁目６番地３,,26,111,6101101,,,,,,,2025-09-22,1,,,,,ソア,0
1937,8130003010793,新規,0,2025-09-22,2025-09-22,山霧合同会社,,合同会社,京都府,京都市中京区,三条通烏丸東入梅忠町２４,,26,104,6048136,,,,,,,2025-09-22,1,,,,,ヤマギリ,0
1941,8140001140088,新規,0,2025-09-22,2025-09-22,株式会社ＮＩＣＯ,,株式会社,兵庫県,姫路市,北原２４４番地１,,28,201,6728002,,,,,,,2025-09-22,1,,,,,ニコ,0
1942,8140001140096,新規,0,2025-09-22,2025-09-22,株式会社中下興産,,株式会社,兵庫県,宝塚市,泉町７番１６号,,28,214,6650864,,,,,,,2025-09-22,1,,,,,ナカシタコウサン,0
1943,8140001140105,新規,0,2025-09-22,2025-09-22,株式会社シンワ玩具,,株式会社,兵庫県,宝塚市,逆瀬川１丁目１３番１－８０６号,,28,214,6650035,,,,,,,2025-09-22,1,,,,,シンワガング,0
1945,8140003022607,新規,0,2025-09-22,2025-09-22,合同会社ＩＳＥ,,合同会社,兵庫県,伊丹市,野間北４丁目４番２３号,,28,207,6640875,,,,,,,2025-09-22,1,,,,,アイエスイー,0
1946,8140003022615,新規,0,2025-09-22,2025-09-22,ＢＢＣ　Ｑｕｉｃｋ合同会社,,合同会社,兵庫県,西宮市,常磐町３－２２ヴェラロホ１０２,,28,204,6620043,,,,,,,2025-09-22,1,,,,,ビービーシークイック,0
1949,8180001168571,新規,0,2025-09-22,2025-09-22,株式会社ＢＥＡＲＩＤＥ,,株式会社,愛知県,名古屋市北区,清水２丁目２５－８,,23,103,4620844,,,,,,,2025-09-22,1,,,,,ベアライド,0
1957,8180301040216,新規,0,2025-09-22,2025-09-22,株式会社エノワ,,株式会社,愛知県,豊川市,新道町１丁目２８番地の２,,23,207,4420878,,,,,,,2025-09-22,1,,,,,エノワ,0
1959,8190001032545,新規,0,2025-09-22,2025-09-22,シンフォテック株式会社,,株式会社,三重県,度会郡大紀町,阿曽２４４５番地,,24,471,5192704,,,,,,,2025-09-22,1,,,,,シンフォテック,0
1961,8190003005185,新規,0,2025-09-22,2025-09-22,ＰＲＩＭＥ　ＴＲＡＤＩＮＧ合同会社,,合同会社,三重県,四日市市,日永２丁目１０‐１７,,24,202,5100885,,,,,,,2025-09-22,1,,,,,プライムトレーディング,0
1965,8200003007048,新規,0,2025-09-22,2025-09-22,合同会社エジュール,,合同会社,岐阜県,瑞穂市,稲里４４５番地１セザール穂積４０３号,,21,216,5010224,,,,,,,2025-09-22,1,,,,,エジュール,0
1966,8230001021080,新規,0,2025-09-22,2025-09-22,株式会社Ｊｏｉｎａ,,株式会社,富山県,富山市,黒崎９７番地１,,16,201,9398214,,,,,,,2025-09-22,1,,,,,ジョイナ,0
1967,8230001021089,新規,0,2025-09-22,2025-09-22,株式会社ＳＫＹ　ＴＲＡＤＥＲＳ,,株式会社,富山県,射水市,新片町２丁目６番地２,,16,211,9340033,,,,,,,2025-09-22,1,,,,,スカイトレーダーズ,0
1977,8240003007408,新規,0,2025-09-22,2025-09-22,ＫＩＴＡ　ＢＯＥＫＩ合同会社,,合同会社,広島県,福山市,南手城町４丁目１０番３号,,34,207,7210963,,,,,,,2025-09-22,1,,,,,キタボウエキ,0
1984,8260001040565,新規,0,2025-09-22,2025-09-22,株式会社Ｋ’ｓＩ,,株式会社,岡山県,津山市,上田邑２７６８番地１,,33,203,7080011,,,,,,,2025-09-22,1,,,,,ケーズアイ,0
1986,8290001111438,新規,0,2025-09-22,2025-09-22,株式会社諸積家,,株式会社,福岡県,福岡市博多区,諸岡２丁目１３番３５－２０２号,,40,132,8120894,,,,,,,2025-09-22,1,,,,,,0
1987,8290001111446,新規,0,2025-09-22,2025-09-22,株式会社ＢＩＭＩ,,株式会社,福岡県,福岡市博多区,住吉３丁目９番１５－１０１号,,40,132,8120018,,,,,,,2025-09-22,1,,,,,ビミ,0
1991,8290003017402,新規,0,2025-09-22,2025-09-22,ＬＴ合同会社,,合同会社,福岡県,小郡市,小板井３７２番地１五番街住宅２号,,40,216,8380143,,,,,,,2025-09-22,1,,,,,エルティー,0
1992,8290003017419,新規,0,2025-09-22,2025-09-22,合同会社Ｓｐｉ‐ｒｉＣａ,,合同会社,福岡県,福岡市西区,愛宕１丁目１６番６－３０３号,,40,135,8190015,,,,,,,2025-09-22,1,,,,,スピリカ,0
1998,8300003002336,新規,0,2025-09-22,2025-09-22,合同会社サイクエンス,,合同会社,佐賀県,佐賀市,木原３丁目８番２１号,,41,201,8400015,,,,,,,2025-09-22,1,,,,,サイクエンス,0
2012,8360001035803,新規,0,2025-09-22,2025-09-22,株式会社Ｔｉｄａ,,株式会社,沖縄県,浦添市,宮城５丁目４番２８号,,47,208,9012126,,,,,,,2025-09-22,1,,,,,ティダ,0
2013,8360001035811,新規,0,2025-09-22,2025-09-22,株式会社ＬＩＡＺ,,株式会社,沖縄県,浦添市,仲西１丁目３番２５号フロンテージ仲西３０６号室,,47,208,9012125,,,,,,,2025-09-22,1,,,,,リアズ,0
2015,8360003015258,新規,0,2025-09-22,2025-09-22,合同会社福翔,,合同会社,沖縄県,島尻郡南風原町,字与那覇１７６番地アラカキ建設アパート４０１,,47,350,9011103,,,,,,,2025-09-22,1,,,,,フクショウ,0
2022,8390001018111,新規,0,2025-09-22,2025-09-22,株式会社Ｓｐｅｅｄ　Ｌｉｎｅ,,株式会社,山形県,東田川郡庄内町,余目字町１７番地１内,,06,428,9997781,,,,,,,2025-09-22,1,,,,,スピードライン,0
2024,8420005007973,新規,0,2025-09-22,2025-09-22,医療法人社団医仁会,,その他の設立登記法人,青森県,八戸市,大字沢里字二ツ屋１番地２１２,,02,203,0391167,,,,,,,2025-09-22,1,,,,,イジンカイ,0
2028,8430003018096,新規,0,2025-09-22,2025-09-22,合同会社サーブコーポレーション,,合同会社,北海道,小樽市,桂岡町６番２３号,,01,203,0470264,,,,,,,2025-09-22,1,,,,,サーブコーポレーション,0
2029,8430003018146,新規,0,2025-09-22,2025-09-22,合同会社サポートギルド,,合同会社,北海道,岩見沢市,北五条西１４丁目２番１４号,,01,210,0680045,,,,,,,2025-09-22,1,,,,,サポートギルド,0
2041,9010001258702,新規,0,2025-09-22,2025-09-22,株式会社ヴァンダランド,,株式会社,東京都,中央区,晴海２丁目３番２－７１０号,,13,102,1040053,,,,,,,2025-09-22,1,,,,,ヴァンダランド,0
2042,9010001258719,新規,0,2025-09-22,2025-09-22,ＵＭＩグロースキャピタル株式会社,,株式会社,東京都,中央区,築地１丁目１２番２２号コンワビル２階,,13,102,1040045,,,,,,,2025-09-22,1,,,,,ユーエムアイグロースキャピタル,0
2044,9010005040692,新規,0,2025-09-22,2025-09-22,一般社団法人豊俊会,,その他の設立登記法人,東京都,文京区,白山２丁目２０番１０号,,13,105,1120001,,,,,,,2025-09-22,1,,,,,ホウシュンカイ,0
2050,9010401193227,新規,0,2025-09-22,2025-09-22,雅＿国際株式会社,00140738,株式会社,東京都,港区,三田３丁目４番６－５０１号,,13,103,1080073,,,,,,,2025-09-22,1,,,,,ヤソンコクサイ,0
2051,9010401193243,新規,0,2025-09-22,2025-09-22,株式会社ｆｕｌｎａｓ,,株式会社,東京都,港区,西麻布４丁目１６番３号リビオレジデンス西麻布３１０２,,13,103,1060031,,,,,,,2025-09-22,1,,,,,フルナス,0
2055,9010701048329,新規,0,2025-09-22,2025-09-22,Ｌｉｆｅ　Ｃａｒｅ　Ｐｌｕｓ株式会社,,株式会社,東京都,品川区,東品川４丁目１２番８号品川シーサイドイーストタワー１５Ｆ,,13,109,1400002,,,,,,,2025-09-22,1,,,,,ライフケアプラス,0
2056,9010703007910,新規,0,2025-09-22,2025-09-22,ＧＥＸＴ合同会社,,合同会社,東京都,品川区,西大井１丁目１－２,,13,109,1400015,,,,,,,2025-09-22,1,,,,,ジェクスト,0
2057,9010705003800,新規,0,2025-09-22,2025-09-22,一般社団法人ライジングウィメンズアソシエーション,,その他の設立登記法人,東京都,品川区,上大崎３丁目１０番５１号,,13,109,1410021,,,,,,,2025-09-22,1,,,,,ライジングウィメンズアソシエーション,0
2062,9010901058103,新規,0,2025-09-22,2025-09-22,株式会社日本観光センター,,株式会社,東京都,世田谷区,太子堂４丁目－１８－１５マガザン三軒茶屋２－３階３,,13,112,1540004,,,,,,,2025-09-22,1,,,,,ニッポンカンコウセンター,0
2065,9011001172158,新規,0,2025-09-22,2025-09-22,株式会社Ｄｅｆｒａｇ　Ｗｏｒｋｓ,,株式会社,東京都,渋谷区,恵比寿西２丁目８番４号ＥＸ恵比寿西ビル５階,,13,113,1500021,,,,,,,2025-09-22,1,,,,,デフラグワークス,0
2066,9011001172174,新規,0,2025-09-22,2025-09-22,株式会社ミニダクトジャパン,,株式会社,東京都,渋谷区,桜丘町２６番１号セルリアンタワー１５階,,13,113,1500031,,,,,,,2025-09-22,1,,,,,ミニダクトジャパン,0
2067,9011001172629,新規,0,2025-09-22,2025-09-22,株式会社ｃｅ　ｗａｔｅｒ,,株式会社,東京都,渋谷区,恵比寿１丁目２４番７号,,13,113,1500013,,,,,,,2025-09-22,1,,,,,シーウォーター,0
2068,9011001172645,新規,0,2025-09-22,2025-09-22,株式会社組立四季,,株式会社,東京都,渋谷区,神宮前６丁目２３番４号桑野ビル２階,,13,113,1500001,,,,,,,2025-09-22,1,,,,,クミタテシキ,0
2069,9011003022377,新規,0,2025-09-22,2025-09-22,合同会社五南ｐｒｏｄｕｃｔｉｏｎ,,合同会社,東京都,目黒区,東が丘１丁目６－１５サンセリテ東が丘壱番館２０２,,13,110,1520021,,,,,,,2025-09-22,1,,,,,,0
2070,9011003022427,新規,0,2025-09-22,2025-09-22,合同会社Ｚｉｐｈｕｂ,,合同会社,東京都,渋谷区,道玄坂１丁目１０番８号渋谷道玄坂東急ビル２Ｆ－Ｃ,,13,113,1500043,,,,,,,2025-09-22,1,,,,,ジップハブ,0
2071,9011003022435,新規,0,2025-09-22,2025-09-22,合同会社アーク・シフト,,合同会社,東京都,渋谷区,円山町５番３号ＭＩＥＵＸ渋谷ビル８階,,13,113,1500044,,,,,,,2025-09-22,1,,,,,アークシフト,0
2072,9011003022451,新規,0,2025-09-22,2025-09-22,Ａｔｔｉｔｕｄｅ合同会社,,合同会社,東京都,渋谷区,神宮前６丁目１番５号原宿ロイヤルハイツ２０２,,13,113,1500001,,,,,,,2025-09-22,1,,,,,アチチュード,0
2073,9011003022609,新規,0,2025-09-22,2025-09-22,合同会社鈴木平和,,合同会社,東京都,渋谷区,千駄ヶ谷５丁目１２番１６号益本ビル２Ｆ,,13,113,1510051,,,,,,,2025-09-22,1,,,,,スズキヘイワ,0
2078,9011101113160,新規,0,2025-09-22,2025-09-22,株式会社ＫＵＮＩコーポレーション,,株式会社,東京都,新宿区,北新宿２丁目６番２９－６１０号,,13,104,1690074,,,,,,,2025-09-22,1,,,,,クニコーポレーション,0
2086,9011401027416,新規,0,2025-09-22,2025-09-22,祖山創業株式会社,,株式会社,東京都,板橋区,舟渡２丁目１６番２－３０３号,,13,119,1740041,,,,,,,2025-09-22,1,,,,,ソヤマソウギョウ,0
2089,9011703004385,新規,0,2025-09-22,2025-09-22,合同会社ＳＳＯかりな,,合同会社,東京都,江戸川区,中葛西５丁目１８番１４号,,13,123,1340083,,,,,,,2025-09-22,1,,,,,エスエスオーカリナ,0
2091,9012403007331,新規,0,2025-09-22,2025-09-22,Ｓｕｎｆｌｏｗｅｒｓ合同会社,,合同会社,東京都,狛江市,駒井町１丁目２２番６号,,13,219,2010016,,,,,,,2025-09-22,1,,,,,サンフラワーズ,0
2092,9012803003871,新規,0,2025-09-22,2025-09-22,合同会社山岡商事,,合同会社,東京都,立川市,柴崎町５丁目１３番４号,,13,202,1900023,,,,,,,2025-09-22,1,,,,,ヤマオカショウジ,0
2104,9020001164899,新規,0,2025-09-22,2025-09-22,株式会社フォトヴェルデ,,株式会社,神奈川県,横浜市都筑区,折本町１７８８番地６,,14,118,2240043,,,,,,,2025-09-22,1,,,,,フォトヴェルデ,0
2105,9020001164949,新規,0,2025-09-22,2025-09-22,ＨＡＭＡプランニング株式会社,,株式会社,神奈川県,横浜市中区,山手町３５番地１山手町コーポラスＢ棟６０７号室,,14,104,2310862,,,,,,,2025-09-22,1,,,,,ハマプランニング,0
2111,9020003029423,新規,0,2025-09-22,2025-09-22,和翼創合同会社,,合同会社,神奈川県,横浜市西区,北幸１丁目５番１０号ＪＰＲ横浜ビルエキスパートオフィス横浜８階１１０号室,,14,103,2200004,,,,,,,2025-09-22,1,,,,,ワイソウ,0
2113,9021001086349,新規,0,2025-09-22,2025-09-22,株式会社我夢者楽,,株式会社,神奈川県,厚木市,中町２丁目１２番２１号２Ｆ,,14,212,2430018,,,,,,,2025-09-22,1,,,,,ガムシャラ,0
2117,9021003016584,新規,0,2025-09-22,2025-09-22,合同会社ＦＡＳＭ,,合同会社,神奈川県,座間市,入谷西２丁目８番１６号,,14,216,2520029,,,,,,,2025-09-22,1,,,,,ファズム,0
2119,9030001168701,新規,0,2025-09-22,2025-09-22,株式会社ＦＺＫ　ＴＲＡＤＩＮＧ,,株式会社,埼玉県,羽生市,南羽生１丁目１４番地２６－１０１,,11,216,3480071,,,,,,,2025-09-22,1,,,,,エフゼットケイトレーディング,0
2120,9030001168734,新規,0,2025-09-22,2025-09-22,株式会社タネコ,,株式会社,埼玉県,比企郡吉見町,大字下細谷５３６番地１ハレアカラ１０６,,11,347,3550118,,,,,,,2025-09-22,1,,,,,タネコ,0
2121,9030003027640,新規,0,2025-09-22,2025-09-22,ＤＴ通信合同会社,,合同会社,埼玉県,越谷市,南越谷３丁目２２番８号キャピタル南越２０３,,11,222,3430845,,,,,,,2025-09-22,1,,,,,ディーティーツウシン,0
2122,9030003027649,新規,0,2025-09-22,2025-09-22,ＡＭ　ＴＲＡＤＩＮＧ合同会社,,合同会社,埼玉県,久喜市,鷲宮５丁目１０－３０ソフィアハイツ８号棟５号室,,11,232,3400217,,,,,,,2025-09-22,1,,,,,エーエムトレーディング,0
2129,9040001140584,新規,0,2025-09-22,2025-09-22,株式会社Ｒｅｓｔａｒｔ,,株式会社,千葉県,市原市,青柳５５７番地１,,12,219,2990102,,,,,,,2025-09-22,1,,,,,リスタート,0
2135,9050001057266,新規,0,2025-09-22,2025-09-22,ＳＬＲ　ＩＮＴＥＲＮＡＴＩＯＮＡＬ株式会社,,株式会社,茨城県,古河市,尾崎３４７５番地１０,,08,204,3060101,,,,,,,2025-09-22,1,,,,,エスエルアールインターナショナル,0
2136,9050001057274,新規,0,2025-09-22,2025-09-22,株式会社ナミキ防水,,株式会社,茨城県,古河市,東山田１９６４番地３,,08,204,3060112,,,,,,,2025-09-22,1,,,,,ナミキボウスイ,0
2137,9050001057308,新規,0,2025-09-22,2025-09-22,株式会社翔大,,株式会社,茨城県,北茨城市,磯原町磯原１丁目１１３番地２０１号,,08,215,3191541,,,,,,,2025-09-22,1,,,,,ショウダイ,0
2144,9070001043363,新規,0,2025-09-22,2025-09-22,納巡株式会社,,株式会社,群馬県,前橋市,城東町５丁目３番１４号アッコラファースト１０３号,,10,201,3710016,,,,,,,2025-09-22,1,,,,,ノウジュン,0
2146,9070003006087,新規,0,2025-09-22,2025-09-22,ＥＬＫモーターＪＡＰＡＮ合同会社,,合同会社,群馬県,富岡市,一ノ宮１６２４－１,,10,210,3702452,,,,,,,2025-09-22,1,,,,,イーエルケーモータージャパン,0
2147,9070003006104,新規,0,2025-09-22,2025-09-22,合同会社一本松,,合同会社,群馬県,高崎市,石原町４１５０番地ソフィアＢ１０１号,,10,202,3700864,,,,,,,2025-09-22,1,,,,,イッポンマツ,0
2150,9080401028178,新規,0,2025-09-22,2025-09-22,カーボナードウェルスマネジメント株式会社,,株式会社,静岡県,浜松市中央区,松城町２０１番地の５７,,22,138,4300947,,,,,,,2025-09-22,1,,,,,カーボナードウェルスマネジメント,0
2165,9120001279794,新規,0,2025-09-22,2025-09-22,プラコム株式会社,,株式会社,大阪府,大阪市此花区,北港２丁目１番７１号,,27,104,5540033,,,,,,,2025-09-22,1,,,,,プラコム,0
2166,9120001279811,新規,0,2025-09-22,2025-09-22,Ｎｅｗｔｏｎ株式会社,,株式会社,大阪府,大阪市西区,北堀江１丁目１４番１０号北堀江Ｔビル２Ｆ,,27,106,5500014,,,,,,,2025-09-22,1,,,,,ニュートン,0
2167,9120001279852,新規,0,2025-09-22,2025-09-22,大成株式会社,,株式会社,大阪府,大阪市西成区,旭２丁目６番７号ハイツひまわり１０３号室,,27,122,5570032,,,,,,,2025-09-22,1,,,,,タイセイ,0
2168,9120001279860,新規,0,2025-09-22,2025-09-22,東慧インベストメント株式会社,,株式会社,大阪府,大阪市住之江区,御崎１丁目１１番１９－２０１号,,27,125,5590013,,,,,,,2025-09-22,1,,,,,トウケイインベストメント,0
2169,9120001279919,新規,0,2025-09-22,2025-09-22,安和生物株式会社,,株式会社,大阪府,大阪市北区,与力町７－１１グランドメゾン与力町２０１号室,,27,127,5300036,,,,,,,2025-09-22,1,,,,,アンワセイブツ,0
2170,9120001279935,新規,0,2025-09-22,2025-09-22,藝彩株式会社,,株式会社,大阪府,大阪市住吉区,住吉１丁目４番１７号,,27,120,5580045,,,,,,,2025-09-22,1,,,,,ゲイサイ,0
2172,9120003030635,新規,0,2025-09-22,2025-09-22,恒星商事合同会社,,合同会社,大阪府,大阪市港区,三先１丁目１２番９号倉本ビル２０９号室,,27,107,5520016,,,,,,,2025-09-22,1,,,,,コウセイショウジ,0
2173,9120003030767,新規,0,2025-09-22,2025-09-22,モモゼン合同会社,,合同会社,大阪府,大阪市西淀川区,姫島１丁目２８番３号,,27,113,5550033,,,,,,,2025-09-22,1,,,,,モモゼン,0
2184,9130001080573,新規,0,2025-09-22,2025-09-22,株式会社Ｆｏｍａｌｈａｕｔ,,株式会社,京都府,京都市下京区,七条通油小路東入大黒町２２７番地第２キョートビル４０２,,26,106,6008223,,,,,,,2025-09-22,1,,,,,フォーマルハウト,0
2185,9130001080607,新規,0,2025-09-22,2025-09-22,レイジーキョウトバイクツアー株式会社,,株式会社,京都府,京都市中京区,聚楽廻東町２０番地６二条城西ビル５階,,26,104,6048404,,,,,,,2025-09-22,1,,,,,レイジーキョウトバイクツアー,0
2188,9140001140095,新規,0,2025-09-22,2025-09-22,駿永株式会社,,株式会社,兵庫県,神戸市中央区,二宮町４丁目８番９－７０３号,,28,110,6510093,,,,,,,2025-09-22,1,,,,,シュンエイ,0
2189,9140001140104,新規,0,2025-09-22,2025-09-22,株式会社ＫＡＩＲＩ,,株式会社,兵庫県,姫路市,青山３丁目７番２２号,,28,201,6712222,,,,,,,2025-09-22,1,,,,,カイリ,0
2194,9140003022606,新規,0,2025-09-22,2025-09-22,ＰＲＭＡＮ合同会社,,合同会社,兵庫県,神戸市東灘区,御影本町４丁目８－１７パルコ御影１０５号室,,28,101,6580046,,,,,,,2025-09-22,1,,,,,ピアルマン,0
2206,9180001168587,新規,0,2025-09-22,2025-09-22,株式会社ＡＳＸＥＥＤ,,株式会社,愛知県,小牧市,小牧原３丁目１００番地,,23,219,4850829,,,,,,,2025-09-22,1,,,,,アスシード,0
2211,9180301040223,新規,0,2025-09-22,2025-09-22,平田商会株式会社,,株式会社,愛知県,豊田市,今町７丁目２０番地１,,23,211,4710823,,,,,,,2025-09-22,1,,,,,ヒラタショウカイ,0
2213,9180303006742,新規,0,2025-09-22,2025-09-22,ＳＦ　ＴＲＡＤＩＮＧ合同会社,,合同会社,愛知県,みよし市,莇生町藤塚６－１５０－２,,23,236,4700206,,,,,,,2025-09-22,1,,,,,エスエフトレーディング,0
2217,9190003005184,新規,0,2025-09-22,2025-09-22,合同会社ｋｉｔｃｈｏ,,合同会社,三重県,伊勢市,上野町３３２２番地,,24,203,5161104,,,,,,,2025-09-22,1,,,,,キッチョウ,0
2222,9200001044257,新規,0,2025-09-22,2025-09-22,ｈｏｏｋ　ｕｐ株式会社,,株式会社,岐阜県,岐阜市,茜部寺屋敷１丁目１１３番地１ティアーモ１・１０１号室,,21,201,5008267,,,,,,,2025-09-22,1,,,,,ホックアップ,0
2224,9210001020315,新規,0,2025-09-22,2025-09-22,浦谷水産株式会社,,株式会社,福井県,小浜市,宇久第６号９番地,,18,204,9170113,,,,,,,2025-09-22,1,,,,,ウラタニスイサン,0
2240,9290001111412,新規,0,2025-09-22,2025-09-22,株式会社のうる,,株式会社,福岡県,福岡市中央区,大名１丁目３番３２－２０３号内,,40,133,8100041,,,,,,,2025-09-22,1,,,,,ノウル,0
2241,9290001111420,新規,0,2025-09-22,2025-09-22,株式会社ツーレックス,,株式会社,福岡県,福岡市東区,名島５丁目６９番１２－２０３号,,40,131,8130043,,,,,,,2025-09-22,1,,,,,ツーレックス,0
2242,9290003017343,新規,0,2025-09-22,2025-09-22,合同会社ＫＡＳＨＩＦ　ＴＲＡＤＩＮＧ,,合同会社,福岡県,古賀市,小竹１１３番地１５,,40,223,8113135,,,,,,,2025-09-22,1,,,,,カシフトレーディング,0
2243,9290003017418,新規,0,2025-09-22,2025-09-22,ＣＨＥＲＲＹＬ９９合同会社,,合同会社,福岡県,福岡市博多区,博多駅南２丁目１０番６号パークサイドコーポ４０２号,,40,132,8120016,,,,,,,2025-09-22,1,,,,,チャリールナインナイン,0
2244,9290801031867,新規,0,2025-09-22,2025-09-22,株式会社ネクストアップ,,株式会社,福岡県,田川市,大字弓削田３６０番地３,,40,206,8260041,,,,,,,2025-09-22,1,,,,,ネクストアップ,0
2248,9330003011218,新規,0,2025-09-22,2025-09-22,合同会社オスカーゼニス,,合同会社,熊本県,熊本市中央区,本荘３丁目７－１４グリーンウッドビル１階,,43,101,8600811,,,,,,,2025-09-22,1,,,,,オスカーゼニス,0
2252,9360001035802,新規,0,2025-09-22,2025-09-22,株式会社ＩＮＳＩＤＥ,,株式会社,沖縄県,那覇市,久米２丁目２２番１６号ラ・シャンブル久米２０７号室,,47,201,9000033,,,,,,,2025-09-22,1,,,,,インサイド,0
2253,9360003015257,新規,0,2025-09-22,2025-09-22,合同会社Ｋｙｏｗａ‐ＷＳＰ　ＪＶ,,合同会社,沖縄県,中頭郡北中城村,字島袋７０１－８,,47,327,9012301,,,,,,,2025-09-22,1,,,,,キョウワダブリューエスピージェイブイ,0
2254,9360003015265,新規,0,2025-09-22,2025-09-22,合同会社ＲＥＡＬ　ＦＯＣＵＳ,,合同会社,沖縄県,南城市,玉城字奥武５３番地,,47,215,9010614,,,,,,,2025-09-22,1,,,,,リアルフォーカス,0
2257,9370003007294,新規,0,2025-09-22,2025-09-22,合同会社ＵｇａｎｄａＦｏｒｅｖｅｒ,,合同会社,宮城県,仙台市青葉区,中央２丁目１１－１９仙南ビル４階－Ａ,,04,101,9800021,,,,,,,2025-09-22,1,,,,,ウガンダフォーエバー,0
2259,9380001035585,新規,0,2025-09-22,2025-09-22,フェルマレル株式会社,,株式会社,福島県,いわき市,常磐湯本町天王崎９１番地の２湯本ビル３０１－Ａ,,07,204,9728321,,,,,,,2025-09-22,1,,,,,フェルマレル,0
2265,9420001019278,新規,0,2025-09-22,2025-09-22,恒通青流株式会社,,株式会社,青森県,青森市,古川２丁目１５番１８号あおもりみなみビル２０２,,02,201,0300862,,,,,,,2025-09-22,1,,,,,コウツウセイリュウ,0
2268,9430001095236,新規,0,2025-09-22,2025-09-22,株式会社ＴＭＳフリック,,株式会社,北海道,札幌市中央区,南十四条西７丁目１番３３号ＴＨＥ　ＰＲＥＭＩＵＭ山鼻３０１,,01,101,0640914,,,,,,,2025-09-22,1,,,,,ティーエムエスフリック,0
2269,9430001095277,新規,0,2025-09-22,2025-09-22,京都匠職人株式会社,,株式会社,北海道,札幌市中央区,南十一条西１丁目５番１６－２１９号,,01,101,0640811,,,,,,,2025-09-22,1,,,,,キョウトタクミショクニン,0
2270,9430001095319,新規,0,2025-09-22,2025-09-22,株式会社ハロープランニング,,株式会社,北海道,札幌市東区,北五条東１０丁目１６番地４グランアルト札幌苗穂２３０２,,01,103,0650005,,,,,,,2025-09-22,1,,,,,ハロープランニング,0
2272,9480001012954,新規,0,2025-09-22,2025-09-22,株式会社アイオーライト,,株式会社,徳島県,阿南市,長生町宮内３４３番地２,,36,204,7740046,,,,,,,2025-09-22,1,,,,,アイオーライト,0
