sequenceNumber,corporateNumber,process,correct,updateDate,changeDate,name,nameImageId,kind,prefectureName,cityName,streetNumber,addressImageId,prefectureCode,cityCode,postCode,addressOutside,addressOutsideImageId,closeDate,closeCause,successorCorporateNumber,changeCause,assignmentDate,latest,enName,enPrefectureName,enCityName,enAddressOutside,furigana,hihyoji
23,1010003045726,新規,0,2024-12-09,2024-12-09,ハウスプラスＫＳＡ合同会社,,合同会社,東京都,中央区,築地２丁目６番４号,,13,102,1040045,,,,,,,2024-12-09,1,,,,,ハウスプラスケーエスエー,0
27,1010101016430,新規,0,2024-12-09,2024-12-09,漢普株式会社,,株式会社,東京都,八王子市,寺町４３－９,,13,201,1920073,,,,,,,2024-12-09,1,,,,,カンフ,0
35,1010401186832,新規,0,2024-12-09,2024-12-09,株式会社ＳＧＫパートナーズ,,株式会社,東京都,港区,六本木６丁目１０番１号六本木ヒルズ森タワー１６階,,13,103,1060032,,,,,,,2024-12-09,1,,,,,エスジーケーパートナーズ,0
36,1010401186873,新規,0,2024-12-09,2024-12-09,株式会社ＬＯＣＡＴＩＤＥ,,株式会社,東京都,港区,浜松町２丁目２番１５号浜松町ダイヤビル２Ｆ,,13,103,1050013,,,,,,,2024-12-09,1,,,,,ロカタイド,0
37,1010401186907,新規,0,2024-12-09,2024-12-09,株式会社ピート,,株式会社,東京都,港区,南青山５丁目７番１７号,,13,103,1070062,,,,,,,2024-12-09,1,,,,,ピート,0
42,1010603011243,新規,0,2024-12-09,2024-12-09,合同会社セブンジェネレーション,,合同会社,東京都,江東区,永代２丁目３７番２４号,,13,108,1350034,,,,,,,2024-12-09,1,,,,,セブンジェネレーション,0
49,1010903009540,新規,0,2024-12-09,2024-12-09,ｉＣ　Ｅｎｔｅｒｔａｉｎｍｅｎｔ合同会社,,合同会社,東京都,世田谷区,駒沢２丁目１７番９号,,13,112,1540012,,,,,,,2024-12-09,1,,,,,アイシーエンターテイメント,0
50,1010903009557,新規,0,2024-12-09,2024-12-09,合同会社サキプロ,,合同会社,東京都,世田谷区,北沢１丁目３２番１７号,,13,112,1550031,,,,,,,2024-12-09,1,,,,,サキプロ,0
59,1011001166200,新規,0,2024-12-09,2024-12-09,株式会社リノベイトパートナーズ,,株式会社,東京都,渋谷区,道玄坂１丁目１２番１号渋谷マークシティＷ２２階,,13,113,1500043,,,,,,,2024-12-09,1,,,,,リノベイトパートナーズ,0
60,1011001166225,新規,0,2024-12-09,2024-12-09,Ｓｈｉｂａｔｔｉｃ株式会社,,株式会社,東京都,渋谷区,渋谷２丁目１９－１５宮益坂ビルディング６０９,,13,113,1500002,,,,,,,2024-12-09,1,,,,,シバティック,0
65,1011005010767,新規,0,2024-12-09,2024-12-09,一般社団法人ＡＣＡサービスオフィス,,その他の設立登記法人,東京都,渋谷区,道玄坂１丁目１６－６二葉ビル８Ｂ,,13,113,1500043,,,,,,,2024-12-09,1,,,,,エーシーエーサービスオフィス,0
72,1011101109810,新規,0,2024-12-09,2024-12-09,ＳＫ株式会社,,株式会社,東京都,新宿区,神楽坂６丁目７６,,13,104,1620825,,,,,,,2024-12-09,1,,,,,エスケー,0
73,1011101109868,新規,0,2024-12-09,2024-12-09,日研商事株式会社,,株式会社,東京都,新宿区,百人町１丁目１８番８号ＳｐａｃｅＭｏｂｉｌｅ１Ｆ,,13,104,1690073,,,,,,,2024-12-09,1,,,,,ニッケンショウジ,0
74,1011303005353,新規,0,2024-12-09,2024-12-09,合同会社キュアデントワークス,,合同会社,東京都,杉並区,阿佐谷南３丁目３３番１７号フィオーレ・ベルデ２０３,,13,115,1660004,,,,,,,2024-12-09,1,,,,,キュアデントワークス,0
78,1011401026615,新規,0,2024-12-09,2024-12-09,ＯＮＥ　ＬＩＮＥ株式会社,,株式会社,東京都,板橋区,小豆沢２丁目３３番６－５１１号,,13,119,1740051,,,,,,,2024-12-09,1,,,,,ワンライン,0
84,1011601028262,新規,0,2024-12-09,2024-12-09,株式会社よむべえ,,株式会社,東京都,練馬区,豊玉上１丁目１５番６号１階,,13,120,1760011,,,,,,,2024-12-09,1,,,,,ヨムベエ,0
88,1011801045264,新規,0,2024-12-09,2024-12-09,株式会社ＬＵＸＳＳＹ,,株式会社,東京都,葛飾区,東立石２丁目１０番３号,,13,122,1240013,,,,,,,2024-12-09,1,,,,,ラクシー,0
89,1011801045289,新規,0,2024-12-09,2024-12-09,株式会社Ｃａｒｅ１ｓｔ,,株式会社,東京都,葛飾区,亀有２丁目３３－１８,,13,122,1250061,,,,,,,2024-12-09,1,,,,,ケアファースト,0
93,1012401042536,新規,0,2024-12-09,2024-12-09,株式会社ＡＭＣ‐２,,株式会社,東京都,武蔵野市,中町１丁目１２番１０‐１５０６号,,13,203,1800006,,,,,,,2024-12-09,1,,,,,エイエムシーツー,0
98,1012801023623,新規,0,2024-12-09,2024-12-09,Ｗａｃｃｅｌｅ株式会社,,株式会社,東京都,立川市,錦町１丁目４－４サニービル２ＦＣＳ－２２５,,13,202,1900022,,,,,,,2024-12-09,1,,,,,ワクセル,0
103,1013305003673,新規,0,2024-12-09,2024-12-09,特定非営利活動法人ＳＣＨＯＯＬ　ＯＦ　ＨＡＲＤ　ＫＮＯＣＫＳ,,その他の設立登記法人,東京都,豊島区,高松１丁目７番６号３Ｆ,,13,116,1710042,,,,,,,2024-12-09,1,,,,,スクールオブハードノックス,0
109,1020001160427,新規,0,2024-12-09,2024-12-09,株式会社ＪＲＵＮ　ＡＵＴＯ,,株式会社,神奈川県,横浜市旭区,今宿２５６１番地２６,,14,112,2410000,,,,,,,2024-12-09,1,,,,,,0
112,1021001083956,新規,0,2024-12-09,2024-12-09,ＥＣビバレッジ株式会社,,株式会社,神奈川県,相模原市南区,上鶴間本町３丁目１０番６号サトービル２階,,14,153,2520318,,,,,,,2024-12-09,1,,,,,イーシービバレッジ,0
113,1021003015313,新規,0,2024-12-09,2024-12-09,Ｓｉｌｉｔｅｃｈ　Ｊａｐａｎ　Ｉｎｖｅｓｔｍｅｎｔ合同会社,,合同会社,神奈川県,大和市,中央６丁目１番６号ＰＳＡビルディング,,14,213,2420021,,,,,,,2024-12-09,1,,,,,シリテックジャパンインベストメント,0
120,1030001163791,新規,0,2024-12-09,2024-12-09,ＳＨＲＥＥ　ＢＩＮＤＡＢＡＳＨＩＮＩ株式会社,,株式会社,埼玉県,北本市,石戸４丁目３７５番地,,11,233,3640024,,,,,,,2024-12-09,1,,,,,シュリービンダバシニ,0
121,1030001163817,新規,0,2024-12-09,2024-12-09,株式会社ＭＳＫホールディング,,株式会社,埼玉県,熊谷市,見晴町２０６番地,,11,202,3600824,,,,,,,2024-12-09,1,,,,,エムエスケーホールディング,0
127,1030003025651,新規,0,2024-12-09,2024-12-09,合同会社ｙｕｅ,,合同会社,埼玉県,川越市,六軒町１丁目１６－２５,,11,201,3500041,,,,,,,2024-12-09,1,,,,,ユエ,0
128,1030005021970,新規,0,2024-12-09,2024-12-09,一般社団法人大福,,その他の設立登記法人,埼玉県,八潮市,大字木曽根１１２５－１,,11,234,3400813,,,,,,,2024-12-09,1,,,,,ダイフク,0
130,1040001136466,新規,0,2024-12-09,2024-12-09,株式会社ジャムストー,,株式会社,千葉県,市原市,姉崎９７２番地,,12,219,2990111,,,,,,,2024-12-09,1,,,,,ジャムストー,0
131,1040003026343,新規,0,2024-12-09,2024-12-09,合同会社ｃｏｕｒｉｅｒ,,合同会社,千葉県,船橋市,本町６丁目１８番１９号第３山中ビル４０１号室,,12,204,2730005,,,,,,,2024-12-09,1,,,,,クーリエ,0
136,1060001037712,新規,0,2024-12-09,2024-12-09,株式会社ペイヴメントコーヒー,,株式会社,栃木県,宇都宮市,西３丁目１番２号,,09,201,3200861,,,,,,,2024-12-09,1,,,,,ペイヴメントコーヒー,0
143,1080001026647,新規,0,2024-12-09,2024-12-09,株式会社ＹＵＹＡ　Ｉｎｔｅｒｎａｔｉｏｎａｌ,,株式会社,静岡県,藤枝市,築地６１６番地の４,,22,214,4260031,,,,,,,2024-12-09,1,,,,,ユウヤインターナショナル,0
146,1080103003214,新規,0,2024-12-09,2024-12-09,合同会社アクシス,,合同会社,静岡県,駿東郡清水町,伏見５１５番地の７,,22,341,4110907,,,,,,,2024-12-09,1,,,,,アクシス,0
167,1120001270835,新規,0,2024-12-09,2024-12-09,株式会社ＯＲＥＳＳ関西,,株式会社,大阪府,大阪市北区,梅田１丁目１３番１号大阪梅田ツインタワーズ・サウス１７階,,27,127,5300001,,,,,,,2024-12-09,1,,,,,オーレスカンサイ,0
168,1120001270901,新規,0,2024-12-09,2024-12-09,柯南商事株式会社,,株式会社,大阪府,大阪市東淀川区,北江口２丁目１０番１８－１０５号,,27,114,5330002,,,,,,,2024-12-09,1,,,,,コナンショウジ,0
169,1120001270959,新規,0,2024-12-09,2024-12-09,櫻特株式会社,,株式会社,大阪府,大阪市東淀川区,北江口２丁目１０番１８－２０２号,,27,114,5330002,,,,,,,2024-12-09,1,,,,,サクラトク,0
170,1120001271040,新規,0,2024-12-09,2024-12-09,貫通株式会社,,株式会社,大阪府,大阪市住吉区,長居３丁目３番１７号,,27,120,5580003,,,,,,,2024-12-09,1,,,,,カンツウ,0
177,1120101070706,新規,0,2024-12-09,2024-12-09,株式会社もっといーらいふ,,株式会社,大阪府,堺市東区,日置荘原寺町５３０番地,,27,143,5998112,,,,,,,2024-12-09,1,,,,,モットイーライフ,0
178,1120101070714,新規,0,2024-12-09,2024-12-09,株式会社ナカフジ,,株式会社,大阪府,和泉市,万町２０２番地,,27,219,5941104,,,,,,,2024-12-09,1,,,,,ナカフジ,0
179,1120101070722,新規,0,2024-12-09,2024-12-09,株式会社ＡＬＬ‐ＬＩＮＫＳ,,株式会社,大阪府,堺市美原区,多治井２３２番地６０,,27,147,5870012,,,,,,,2024-12-09,1,,,,,オールリンクス,0
183,1120103006170,新規,0,2024-12-09,2024-12-09,ＤＴＴ合同会社,,合同会社,大阪府,富田林市,錦織東１丁目６番５号－２０２号室,,27,214,5840069,,,,,,,2024-12-09,1,,,,,ディーティーティー,0
184,1120103006179,新規,0,2024-12-09,2024-12-09,ティーエム．ティー合同会社,,合同会社,大阪府,堺市南区,城山台２丁３番４－２０６号,,27,145,5900137,,,,,,,2024-12-09,1,,,,,ティーエムティー,0
187,1120901050155,新規,0,2024-12-09,2024-12-09,株式会社Ｚｏｏ,,株式会社,大阪府,高槻市,紺屋町７－６コスミティ高槻２Ｆ,,27,207,5690804,,,,,,,2024-12-09,1,,,,,ズー,0
188,1120903005446,新規,0,2024-12-09,2024-12-09,豊中３５区流通合同会社,,合同会社,大阪府,豊中市,本町３丁目１番３６号,,27,203,5600021,,,,,,,2024-12-09,1,,,,,トヨナカサンジュウゴクリュウツウ,0
190,1122001038709,新規,0,2024-12-09,2024-12-09,株式会社颯晴電設,,株式会社,大阪府,八尾市,南植松町５丁目２７４番地,,27,212,5810091,,,,,,,2024-12-09,1,,,,,ソウハルデンセツ,0
191,1122003003058,新規,0,2024-12-09,2024-12-09,オフィス尋合同会社,,合同会社,大阪府,八尾市,安中町６丁目１１番３－２０１号,,27,212,5810085,,,,,,,2024-12-09,1,,,,,オフィスヒロ,0
195,1130001078559,新規,0,2024-12-09,2024-12-09,株式会社シャティス,,株式会社,京都府,京都市伏見区,久我森の宮町１０番地３２９,,26,109,6128495,,,,,,,2024-12-09,1,,,,,シャティス,0
198,1130005017249,新規,0,2024-12-09,2024-12-09,一般社団法人仁木医院,,その他の設立登記法人,京都府,京都市伏見区,深草西浦町４丁目２１番地,,26,109,6120029,,,,,,,2024-12-09,1,,,,,ニキイイン,0
204,1140001136662,新規,0,2024-12-09,2024-12-09,株式会社エースフロンティア,,株式会社,兵庫県,尼崎市,塚口町１丁目２８番地の６,,28,202,6610002,,,,,,,2024-12-09,1,,,,,エースフロンティア,0
206,1150001027729,新規,0,2024-12-09,2024-12-09,株式会社あいわ,,株式会社,奈良県,生駒郡平群町,緑ケ丘３丁目１番２０号,,29,342,6360941,,,,,,,2024-12-09,1,,,,,アイワ,0
207,1150003003439,新規,0,2024-12-09,2024-12-09,合同会社ｓｏｍｕｔａｍｕ,,合同会社,奈良県,奈良市,敷島町２丁目５５３番地の２３,,29,201,6310031,,,,,,,2024-12-09,1,,,,,ソムタム,0
219,1180001164445,新規,0,2024-12-09,2024-12-09,株式会社こぶたしゃしんかん,,株式会社,愛知県,稲沢市,稲沢町前田５番地９３,,23,220,4928217,,,,,,,2024-12-09,1,,,,,コブタシャシンカン,0
220,1180001164453,新規,0,2024-12-09,2024-12-09,株式会社プライムスタッフ,,株式会社,愛知県,名古屋市中区,栄１丁目１２番１０５号ＳＦＰビル４Ｆ,,23,106,4600008,,,,,,,2024-12-09,1,,,,,プライムスタッフ,0
221,1180001164461,新規,0,2024-12-09,2024-12-09,株式会社ＳＴＡＴＩＣＥ,,株式会社,愛知県,名古屋市中区,錦３丁目１３番４号,,23,106,4600003,,,,,,,2024-12-09,1,,,,,スターチス,0
222,1180001164503,新規,0,2024-12-09,2024-12-09,株式会社Ｍｕｒａｓａｋｉ,,株式会社,愛知県,名古屋市中村区,東宿町１丁目１２番地の２,,23,105,4530063,,,,,,,2024-12-09,1,,,,,ムラサキ,0
231,1190002024721,新規,0,2024-12-09,2024-12-09,有限会社八風建設,,有限会社,三重県,四日市市,平町２５番２号,,24,202,5108017,,,,,,,2024-12-09,1,,,,,ハップウケンセツ,0
233,1200001043209,新規,0,2024-12-09,2024-12-09,トリプルウィン株式会社,,株式会社,岐阜県,岐阜市,岩崎３４２番地１９,,21,201,5020005,,,,,,,2024-12-09,1,,,,,トリプルウィン,0
253,1290001108176,新規,0,2024-12-09,2024-12-09,株式会社よん,,株式会社,福岡県,福岡市中央区,今泉１丁目２－２０天神プレイスＷ１１０１,,40,133,8100021,,,,,,,2024-12-09,1,,,,,ヨン,0
254,1290001108201,新規,0,2024-12-09,2024-12-09,株式会社フリーリーケア,,株式会社,福岡県,福岡市博多区,博多駅前３丁目２７番２２号,,40,132,8120011,,,,,,,2024-12-09,1,,,,,フリーリーケア,0
255,1290001108226,新規,0,2024-12-09,2024-12-09,株式会社Ｌ　Ｄｅｓｉｇｎ,,株式会社,福岡県,嘉麻市,下山田４４７－１４－１階,,40,227,8210011,,,,,,,2024-12-09,1,,,,,エルデザイン,0
259,1300001014001,新規,0,2024-12-09,2024-12-09,株式会社イズミホールディングス,,株式会社,佐賀県,唐津市,原１５２５番地５,,41,202,8470031,,,,,,,2024-12-09,1,,,,,イズミホールディングス,0
260,1310003004908,新規,0,2024-12-09,2024-12-09,合同会社Ｇｌａｄ,,合同会社,長崎県,佐世保市,大和町１０７６－１ＮＪＪビル１階,,42,202,8571165,,,,,,,2024-12-09,1,,,,,グラッド,0
265,1340003004681,新規,0,2024-12-09,2024-12-09,合同会社ＹＳＡ,,合同会社,鹿児島県,薩摩川内市,御陵下町１４番４号,,46,215,8950061,,,,,,,2024-12-09,1,,,,,ワイエスエー,0
275,1370001052028,新規,0,2024-12-09,2024-12-09,株式会社エイタン,,株式会社,宮城県,石巻市,穀町１２番２５号,,04,202,9860825,,,,,,,2024-12-09,1,,,,,エイタン,0
277,1380001034974,新規,0,2024-12-09,2024-12-09,株式会社遠藤工業,,株式会社,福島県,郡山市,富久山町堂坂字岩ケ作６５番地,,07,203,9630673,,,,,,,2024-12-09,1,,,,,エンドウコウギョウ,0
293,1430003017055,新規,0,2024-12-09,2024-12-09,ＡＩＭ合同会社,,合同会社,北海道,虻田郡倶知安町,字瑞穂３２０－１,,01,400,0440067,,,,,,,2024-12-09,1,,,,,エイム,0
294,1440001009532,新規,0,2024-12-09,2024-12-09,株式会社レッドスマイル,,株式会社,北海道,函館市,若松町２５番３号２階,,01,202,0400063,,,,,,,2024-12-09,1,,,,,レッドスマイル,0
311,2010001250517,新規,0,2024-12-09,2024-12-09,Ｎｅｘｔ　Ｌａｂ株式会社,,株式会社,東京都,千代田区,神田三崎町２丁目６番９号,,13,101,1010061,,,,,,,2024-12-09,1,,,,,ネクストラボ,0
313,2010003045741,新規,0,2024-12-09,2024-12-09,ライフ合同会社,,合同会社,東京都,中央区,日本橋馬喰町１丁目３番１０－２０２号,,13,102,1030002,,,,,,,2024-12-09,1,,,,,ライフ,0
314,2010005039238,新規,0,2024-12-09,2024-12-09,一般社団法人統計関連学会連合,,その他の設立登記法人,東京都,千代田区,神田神保町３丁目６番能楽書林ビル５Ｆ公益財団法人統計情報研究開発センター内,,13,101,1010051,,,,,,,2024-12-09,1,,,,,トウケイカンレンガッカイレンゴウ,0
320,2010401186897,新規,0,2024-12-09,2024-12-09,赤坂のら犬株式会社,,株式会社,東京都,港区,赤坂３丁目９番４号赤坂扇やビル７－Ｂ,,13,103,1070052,,,,,,,2024-12-09,1,,,,,アカサカノライヌ,0
321,2010401186914,新規,0,2024-12-09,2024-12-09,株式会社ＨＩＲＡＮＯ・Ｅｎｔｅｒｐｒｉｓｅ,,株式会社,東京都,港区,南青山３丁目１番３６号青山丸竹ビル６Ｆ,,13,103,1070062,,,,,,,2024-12-09,1,,,,,ヒラノエンタープライズ,0
322,2010403033957,新規,0,2024-12-09,2024-12-09,クリーム合同会社,,合同会社,東京都,港区,赤坂４丁目５番２０－３０２号,,13,103,1070052,,,,,,,2024-12-09,1,,,,,クリーム,0
323,2010405023816,新規,0,2024-12-09,2024-12-09,一般財団法人Ｇｒｏｕｐ　ｏｆ　Ｎａｔｉｏｎｓ,,その他の設立登記法人,東京都,港区,虎ノ門３丁目８番２５号,,13,103,1050001,,,,,,,2024-12-09,1,,,,,グループオブネーションズ,0
327,2010601066429,新規,0,2024-12-09,2024-12-09,旭日株式会社,,株式会社,東京都,墨田区,石原２丁目１６番１０－３０１号,,13,107,1300011,,,,,,,2024-12-09,1,,,,,アサヒ,0
331,2010901056435,新規,0,2024-12-09,2024-12-09,株式会社デトリタス,,株式会社,東京都,世田谷区,上用賀５丁目２６－７,,13,112,1580098,,,,,,,2024-12-09,1,,,,,デトリタス,0
332,2010901056443,新規,0,2024-12-09,2024-12-09,株式会社ＡＹＡコンサルティング,,株式会社,東京都,世田谷区,赤堤３丁目７番１０号,,13,112,1560044,,,,,,,2024-12-09,1,,,,,アヤコンサルティング,0
334,2010903009548,新規,0,2024-12-09,2024-12-09,ＦＡＳＴ　ＴＲＡＣＫ　ＣＡＰＩＴＡＬ合同会社,,合同会社,東京都,世田谷区,太子堂４丁目６－４アーバイル三軒茶屋１０２,,13,112,1540004,,,,,,,2024-12-09,1,,,,,ファストトラックキャピタル,0
340,2011003020494,新規,0,2024-12-09,2024-12-09,Ｐａｎｄａａｓ合同会社,,合同会社,東京都,渋谷区,恵比寿西２丁目８番４号ＥＸ恵比寿西ビル５階,,13,113,1500021,,,,,,,2024-12-09,1,,,,,パンダース,0
347,2011101109850,新規,0,2024-12-09,2024-12-09,株式会社ＫＳＭ,,株式会社,東京都,新宿区,西新宿５丁目５番１－３５１５号,,13,104,1600023,,,,,,,2024-12-09,1,,,,,ケーエスエム,0
348,2011101109859,新規,0,2024-12-09,2024-12-09,翰徳株式会社,00137278,株式会社,東京都,新宿区,赤城下町４５ＫＢＣ・Ｃ－２,,13,104,1620803,,,,,,,2024-12-09,1,,,,,カントク,0
349,2011103015262,新規,0,2024-12-09,2024-12-09,合同会社ｔｒｅｅ,,合同会社,東京都,新宿区,新宿１丁目３５番１３号スカイパーク御苑６０２,,13,104,1600022,,,,,,,2024-12-09,1,,,,,ツリー,0
350,2011203004553,新規,0,2024-12-09,2024-12-09,ＡＰＴヒカリ合同会社,,合同会社,東京都,中野区,沼袋１丁目２－５ハイツ英静１０２,,13,114,1650025,,,,,,,2024-12-09,1,,,,,エーピーティーヒカリ,0
351,2011301030212,新規,0,2024-12-09,2024-12-09,株式会社イチシン,,株式会社,東京都,杉並区,堀ノ内２丁目１番３２号,,13,115,1660013,,,,,,,2024-12-09,1,,,,,イチシン,0
352,2011401026622,新規,0,2024-12-09,2024-12-09,ＦＣ　Ｓｃｒｏｏｇｅ株式会社,,株式会社,東京都,板橋区,富士見町５番３－５０２号,,13,119,1740062,,,,,,,2024-12-09,1,,,,,エフシースクルージ,0
354,2011403004568,新規,0,2024-12-09,2024-12-09,Ｐ＆Ｖ商事合同会社,,合同会社,東京都,板橋区,成増３丁目２６－２５,,13,119,1750094,,,,,,,2024-12-09,1,,,,,ピーアンドブイショウジ,0
355,2011501031448,新規,0,2024-12-09,2024-12-09,尼瑪製薬株式会社,,株式会社,東京都,北区,浮間１丁目７－２３兆豊浮間ビル５０３号室,,13,117,1150051,,,,,,,2024-12-09,1,,,,,ニメセイヤク,0
372,2012803003564,新規,0,2024-12-09,2024-12-09,友和合同会社,,合同会社,東京都,日野市,日野本町３丁目１４番１８号谷井ビル４階４１１号,,13,212,1910011,,,,,,,2024-12-09,1,,,,,ユウワ,0
389,2020001160434,新規,0,2024-12-09,2024-12-09,株式会社Ｂｉｚｍａ,,株式会社,神奈川県,横浜市都筑区,茅ケ崎中央２１番７号コントレイル１Ｆ・２Ｆ,,14,118,2240032,,,,,,,2024-12-09,1,,,,,ビズマ,0
390,2020001160450,新規,0,2024-12-09,2024-12-09,株式会社Ｏｐｔｉｍａ,,株式会社,神奈川県,川崎市川崎区,榎町７番１－６０３号,,14,131,2100002,,,,,,,2024-12-09,1,,,,,オプティマ,0
391,2020001160491,新規,0,2024-12-09,2024-12-09,株式会社ｓｕｚｕｎｏｎｅ,,株式会社,神奈川県,横浜市旭区,善部町１０９番地８アジュール南まきが原６０３,,14,112,2410823,,,,,,,2024-12-09,1,,,,,スズノネ,0
392,2020001160509,新規,0,2024-12-09,2024-12-09,株式会社フィックスプラス,,株式会社,神奈川県,横浜市磯子区,岡村４丁目３０番５号,,14,107,2350021,,,,,,,2024-12-09,1,,,,,フィックスプラス,0
393,2020001160525,新規,0,2024-12-09,2024-12-09,宮崎真空リング株式会社,,株式会社,神奈川県,横浜市都筑区,東山田１丁目８番８号,,14,118,2240023,,,,,,,2024-12-09,1,,,,,ミヤザキシンクウリング,0
404,2030001163642,新規,0,2024-12-09,2024-12-09,株式会社Ｓｏｎｏｒｅ,,株式会社,埼玉県,蕨市,中央７丁目３９－８,,11,223,3350004,,,,,,,2024-12-09,1,,,,,ソノレ,0
405,2030001163758,新規,0,2024-12-09,2024-12-09,株式会社Ｌｉ’ａｎａ,,株式会社,埼玉県,新座市,栗原３丁目１０番２３号,,11,230,3520035,,,,,,,2024-12-09,1,,,,,リアナ,0
414,2040001136465,新規,0,2024-12-09,2024-12-09,株式会社ジャーブイ,,株式会社,千葉県,市原市,姉崎９７２番地,,12,219,2990111,,,,,,,2024-12-09,1,,,,,ジャーブイ,0
415,2040001136481,新規,0,2024-12-09,2024-12-09,株式会社ＲＩＮＫＡ,,株式会社,千葉県,市川市,南八幡４丁目４番５－５０２号,,12,203,2720023,,,,,,,2024-12-09,1,,,,,リンカ,0
425,2080001026638,新規,0,2024-12-09,2024-12-09,株式会社こがらし,,株式会社,静岡県,静岡市駿河区,馬渕３丁目８番２２－３０２号,,22,102,4228063,,,,,,,2024-12-09,1,,,,,コガラシ,0
428,2080103003213,新規,0,2024-12-09,2024-12-09,合同会社ＴＯＴＴＡＮ,,合同会社,静岡県,裾野市,佐野１１２３－１２,,22,220,4101118,,,,,,,2024-12-09,1,,,,,,0
432,2080403005157,新規,0,2024-12-09,2024-12-09,合同会社ｓＰｅｃＩａｌ,,合同会社,静岡県,浜松市中央区,幸４丁目３２番１１号,,22,138,4338123,,,,,,,2024-12-09,1,,,,,スピーシアイル,0
449,2120001270834,新規,0,2024-12-09,2024-12-09,株式会社ＯＲＥＳＳ東海,,株式会社,大阪府,大阪市北区,梅田１丁目１３番１号大阪梅田ツインタワーズ・サウス１７階,,27,127,5300001,,,,,,,2024-12-09,1,,,,,オーレストウカイ,0
450,2120001270859,新規,0,2024-12-09,2024-12-09,大田株式会社,,株式会社,大阪府,大阪市中央区,松屋町９番２０号ローレルステート松屋町５１０Ａ,,27,128,5420067,,,,,,,2024-12-09,1,,,,,オオタ,0
451,2120001270883,新規,0,2024-12-09,2024-12-09,ＫＥＩＯＮメディカルホールディングス株式会社,,株式会社,大阪府,大阪市西成区,玉出西１丁目８番８号,,27,122,5570045,,,,,,,2024-12-09,1,,,,,ケイオンメディカルホールディングス,0
452,2120001270891,新規,0,2024-12-09,2024-12-09,株式会社ジーゼキャピタル,,株式会社,大阪府,大阪市西区,土佐堀１丁目５番１１号,,27,106,5500001,,,,,,,2024-12-09,1,,,,,ジーゼキャピタル,0
453,2120001270958,新規,0,2024-12-09,2024-12-09,森茂株式会社,,株式会社,大阪府,大阪市東淀川区,北江口２丁目１０番１８－２０５号,,27,114,5330002,,,,,,,2024-12-09,1,,,,,モリシゲ,0
459,2120003028132,新規,0,2024-12-09,2024-12-09,合同会社ネットエイド,,合同会社,大阪府,大阪市北区,梅田１丁目２番２号大阪駅前第２ビル１２－１２,,27,127,5300001,,,,,,,2024-12-09,1,,,,,ネットエイド,0
460,2120005024641,新規,0,2024-12-09,2024-12-09,特定非営利活動法人モノづくり就労支援,,その他の設立登記法人,大阪府,大阪市生野区,勝山南２丁目２番２１号,,27,116,5440021,,,,,,,2024-12-09,1,,,,,モノヅクリシュウロウシエン,0
461,2120101070713,新規,0,2024-12-09,2024-12-09,株式会社Ｈ・Ｙ・Ｔ,,株式会社,大阪府,藤井寺市,惣社２丁目１０番２９号,,27,226,5830005,,,,,,,2024-12-09,1,,,,,ハイト,0
462,2120101070721,新規,0,2024-12-09,2024-12-09,ＹＡＭＡＭＯＴＯロジスティクス株式会社,,株式会社,大阪府,泉北郡忠岡町,忠岡東１丁目１８番６号,,27,341,5950805,,,,,,,2024-12-09,1,,,,,ヤマモトロジスティクス,0
465,2120901050105,新規,0,2024-12-09,2024-12-09,株式会社ＲｅＰｏＰ,,株式会社,大阪府,茨木市,永代町５ソシオいばらき１－４０４号,,27,211,5670816,,,,,,,2024-12-09,1,,,,,リポップ,0
476,2140001136678,新規,0,2024-12-09,2024-12-09,株式会社明優,,株式会社,兵庫県,神戸市灘区,赤松町２丁目２番９号,,28,102,6570061,,,,,,,2024-12-09,1,,,,,メイユウ,0
477,2150001027728,新規,0,2024-12-09,2024-12-09,天一貿易株式会社,,株式会社,奈良県,大和高田市,北本町９番６号,,29,202,6350097,,,,,,,2024-12-09,1,,,,,テンイチボウエキ,0
478,2150001027736,新規,0,2024-12-09,2024-12-09,株式会社ビジネスキッチン,,株式会社,奈良県,奈良市,神功３丁目１番地の９,,29,201,6310804,,,,,,,2024-12-09,1,,,,,ビジネスキッチン,0
480,2150003003446,新規,0,2024-12-09,2024-12-09,合同会社三澤福祉サービス,,合同会社,奈良県,大和郡山市,新町９０５番地１５,,29,203,6391054,,,,,,,2024-12-09,1,,,,,ミサワフクシサービス,0
490,2180001164403,新規,0,2024-12-09,2024-12-09,Ｌｉｂｅｒｔｙ株式会社,,株式会社,愛知県,名古屋市西区,名駅２丁目２７番８号名古屋プライムセントラルタワー３Ｆ,,23,104,4510045,,,,,,,2024-12-09,1,,,,,リバティー,0
491,2180001164428,新規,0,2024-12-09,2024-12-09,株式会社カワイ建築工房,,株式会社,愛知県,知多市,日長字多倉田６番地の２,,23,224,4780041,,,,,,,2024-12-09,1,,,,,カワイケンチクコウボウ,0
492,2180001164469,新規,0,2024-12-09,2024-12-09,株式会社ＴＫＧ,,株式会社,愛知県,名古屋市緑区,漆山１０４１番地,,23,114,4580832,,,,,,,2024-12-09,1,,,,,ティーケージー,0
493,2180001164477,新規,0,2024-12-09,2024-12-09,ルートラボ株式会社,,株式会社,愛知県,岩倉市,稲荷町樋先１１番地,00137272,23,228,4820012,,,,,,,2024-12-09,1,,,,,ルートラボ,0
494,2180001164510,新規,0,2024-12-09,2024-12-09,株式会社つるや,,株式会社,愛知県,名古屋市緑区,鳴海町字母呂後１３５番地,,23,114,4580801,,,,,,,2024-12-09,1,,,,,ツルヤ,0
513,2240001064183,新規,0,2024-12-09,2024-12-09,株式会社サイドフィールド,,株式会社,広島県,広島市西区,井口３丁目１７番３１号,,34,104,7330842,,,,,,,2024-12-09,1,,,,,サイドフィールド,0
527,2290001108200,新規,0,2024-12-09,2024-12-09,ＬＯＬ株式会社,,株式会社,福岡県,福岡市博多区,諸岡３丁目２０番３２－３０１号,,40,132,8120894,,,,,,,2024-12-09,1,,,,,エルオーエル,0
528,2290001108233,新規,0,2024-12-09,2024-12-09,株式会社クローバーズ,,株式会社,福岡県,糟屋郡粕屋町,酒殿２丁目１７番５号,,40,349,8112303,,,,,,,2024-12-09,1,,,,,クローバーズ,0
529,2290001108241,新規,0,2024-12-09,2024-12-09,アンドＹＯＵ株式会社,,株式会社,福岡県,久留米市,三潴町西牟田６５５８番地８,,40,203,8300111,,,,,,,2024-12-09,1,,,,,アンドユウ,0
532,2290003016153,新規,0,2024-12-09,2024-12-09,合同会社ｆｒａｃｔａｌ８,,合同会社,福岡県,福岡市中央区,天神４丁目６番２８号天神ファーストビル７階,,40,133,8100001,,,,,,,2024-12-09,1,,,,,フラクタルエイト,0
534,2330001032726,新規,0,2024-12-09,2024-12-09,株式会社Ｌａｎｋａ,,株式会社,熊本県,天草市,有明町大島子２３８０番地１・２Ｆ,,43,215,8617314,,,,,,,2024-12-09,1,,,,,ランカ,0
545,2370001052010,新規,0,2024-12-09,2024-12-09,株式会社青洞,,株式会社,宮城県,仙台市宮城野区,鉄砲町中３－４プラザ和光２０６号,,04,102,9830868,,,,,,,2024-12-09,1,,,,,セイドウ,0
547,2380001034965,新規,0,2024-12-09,2024-12-09,株式会社ＨＯＮＥＳＴ,,株式会社,福島県,南相馬市,原町区信田沢字下信田２８７番地１,,07,212,9750076,,,,,,,2024-12-09,1,,,,,,0
548,2380003005907,新規,0,2024-12-09,2024-12-09,合同会社ビクトワール,,合同会社,福島県,郡山市,田村町徳定字下河原１７４番地,,07,203,9631165,,,,,,,2024-12-09,1,,,,,ビクトワール,0
550,2420001018947,新規,0,2024-12-09,2024-12-09,株式会社ミライテラス,,株式会社,青森県,弘前市,大字桶屋町２９番地,,02,202,0368197,,,,,,,2024-12-09,1,,,,,ミライテラス,0
556,2430001093221,新規,0,2024-12-09,2024-12-09,株式会社アイＨＤ,,株式会社,北海道,札幌市厚別区,厚別中央二条１丁目２番８号,,01,108,0040052,,,,,,,2024-12-09,1,,,,,アイホールディングス,0
561,2470001020493,新規,0,2024-12-09,2024-12-09,株式会社Ｃａｒｓ,,株式会社,香川県,善通寺市,金蔵寺町１１９３番地１,,37,204,7650031,,,,,,,2024-12-09,1,,,,,カーズ,0
563,2480003002209,新規,0,2024-12-09,2024-12-09,合同会社ＩＰＰＯＮ,,合同会社,徳島県,三好市,池田町サラダ１６５７番地アーク山本２Ｃ,,36,208,7780003,,,,,,,2024-12-09,1,,,,,,0
564,2480005007049,新規,0,2024-12-09,2024-12-09,一般社団法人阿南市観光協会,,その他の設立登記法人,徳島県,阿南市,富岡町今福寺４０番地１７,,36,204,7740030,,,,,,,2024-12-09,1,,,,,アナンシカンコウキョウカイ,0
579,3010003045716,新規,0,2024-12-09,2024-12-09,合同会社ＥＱＵＥ,,合同会社,東京都,中央区,新川２丁目６番１２－１０３号,,13,102,1040033,,,,,,,2024-12-09,1,,,,,エクエ,0
580,3010005039220,新規,0,2024-12-09,2024-12-09,弁理士法人小野・引田特許商標事務所,,その他の設立登記法人,東京都,千代田区,麹町１丁目８番地,,13,101,1020083,,,,,,,2024-12-09,1,,,,,オノヒキタトッキョショウヒョウジムショ,0
586,3010401186814,新規,0,2024-12-09,2024-12-09,株式会社ユーダイモニアユニバースジャパン,,株式会社,東京都,港区,北青山２丁目７－１３,,13,103,1070061,,,,,,,2024-12-09,1,,,,,ユーダイモニアユニバースジャパン,0
587,3010401186855,新規,0,2024-12-09,2024-12-09,３ｆｏｒｇｅ株式会社,,株式会社,東京都,港区,西新橋３丁目２４番８号山内ビル３Ｆ,,13,103,1050003,,,,,,,2024-12-09,1,,,,,スリーフォージ,0
588,3010401186913,新規,0,2024-12-09,2024-12-09,株式会社エイトノット,,株式会社,東京都,港区,海岸１丁目７番１号東京ポートシティ竹芝オフィスタワー８Ｆ,,13,103,1050022,,,,,,,2024-12-09,1,,,,,,0
590,3010405023880,新規,0,2024-12-09,2024-12-09,一般社団法人擁壁調査協会,,その他の設立登記法人,東京都,港区,北青山１丁目３番１号アールキューブ青山３階,,13,103,1070061,,,,,,,2024-12-09,1,,,,,ヨウヘキチョウサキョウカイ,0
598,3010903009539,新規,0,2024-12-09,2024-12-09,合同会社マルワコネクト,,合同会社,東京都,世田谷区,南烏山５丁目３２番１４号アルファビル２２０１号,,13,112,1570062,,,,,,,2024-12-09,1,,,,,マルワコネクト,0
603,3011001165968,新規,0,2024-12-09,2024-12-09,Ｃｒｅｗｗ　Ｒｅｇｉｏｎａｌ　Ｉｎｎｏｖａｔｉｏｎｓ株式会社,,株式会社,東京都,渋谷区,道玄坂１丁目１９番９号,,13,113,1500043,,,,,,,2024-12-09,1,,,,,クルーリージョナルイノベーションズ,0
604,3011001166215,新規,0,2024-12-09,2024-12-09,株式会社ＨＹサポート,,株式会社,東京都,渋谷区,恵比寿西２丁目８番４号ＥＸ恵比寿西ビル５階,,13,113,1500021,,,,,,,2024-12-09,1,,,,,エイチワイサポート,0
605,3011001166223,新規,0,2024-12-09,2024-12-09,株式会社ＳＫＡＳＨ,,株式会社,東京都,渋谷区,恵比寿２丁目６番９号,,13,113,1500013,,,,,,,2024-12-09,1,,,,,スカッシュ,0
611,3011003020502,新規,0,2024-12-09,2024-12-09,合同会社オアシス,,合同会社,東京都,渋谷区,代々木１丁目２５番５号,,13,113,1510053,,,,,,,2024-12-09,1,,,,,オアシス,0
612,3011005010773,新規,0,2024-12-09,2024-12-09,一般財団法人青色家づくり支援機構,,その他の設立登記法人,東京都,目黒区,中目黒５丁目２８番３号,,13,110,1530061,,,,,,,2024-12-09,1,,,,,アオイロイエヅクリシエンキコウ,0
617,3011101109800,新規,0,2024-12-09,2024-12-09,ＩＫＩジャパン株式会社,,株式会社,東京都,新宿区,信濃町３５番地慶應義塾大学信濃町キャンパス２号館９階ＣＲＩＫ信濃町,,13,104,1600016,,,,,,,2024-12-09,1,,,,,イキジャパン,0
618,3011101109874,新規,0,2024-12-09,2024-12-09,株式会社ぽわりん,,株式会社,東京都,新宿区,市谷台町１４番６号,,13,104,1620066,,,,,,,2024-12-09,1,,,,,ポワリン,0
620,3011203004552,新規,0,2024-12-09,2024-12-09,合同会社東南,,合同会社,東京都,中野区,上高田４丁目１７番２号,,13,114,1640002,,,,,,,2024-12-09,1,,,,,トウナン,0
624,3011501031331,新規,0,2024-12-09,2024-12-09,株式会社ハピアー,,株式会社,東京都,荒川区,東日暮里６丁目１－１－６１０,,13,118,1160014,,,,,,,2024-12-09,1,,,,,ハピアー,0
625,3011501031439,新規,0,2024-12-09,2024-12-09,株式会社耀美,,株式会社,東京都,北区,赤羽西４丁目２１番１４－１０２号,,13,117,1150055,,,,,,,2024-12-09,1,,,,,ヨウミ,0
629,3011601028269,新規,0,2024-12-09,2024-12-09,株式会社Ｗｈｉｔｅ　Ｂｅａｒｓ,,株式会社,東京都,練馬区,石神井町３丁目２０番２５号サンビレッジ１階,,13,120,1770041,,,,,,,2024-12-09,1,,,,,ホワイトベアーズ,0
631,3011701027889,新規,0,2024-12-09,2024-12-09,株式会社晃運,,株式会社,東京都,江戸川区,北小岩２丁目６番１－１０１,,13,123,1330051,,,,,,,2024-12-09,1,,,,,コーウン,0
638,3012401042559,新規,0,2024-12-09,2024-12-09,株式会社ＧＲＡＰＨＩＣ　ＳＱＵＡＲＥ,,株式会社,東京都,調布市,上石原３丁目５５番地１アクアシティオ・メイツ調布２０２,,13,208,1820035,,,,,,,2024-12-09,1,,,,,グラフィックスクエア,0
640,3012701018597,新規,0,2024-12-09,2024-12-09,Ｌｉｎｋａｇｅ株式会社,,株式会社,東京都,清瀬市,元町１丁目８－２０エスタ清瀬３０５号,,13,221,2040021,,,,,,,2024-12-09,1,,,,,リンケージ,0
641,3012801023621,新規,0,2024-12-09,2024-12-09,三葉株式会社,,株式会社,東京都,日野市,多摩平１丁目４番地の１１大彌ビル１Ｆ,,13,212,1910062,,,,,,,2024-12-09,1,,,,,ミツバ,0
644,3012803003563,新規,0,2024-12-09,2024-12-09,合同会社鯨屋ソリューション,,合同会社,東京都,昭島市,宮沢町２丁目２７番４３号,,13,207,1960024,,,,,,,2024-12-09,1,,,,,クジラヤソリューション,0
650,3020001160482,新規,0,2024-12-09,2024-12-09,オールフラッツつつみね株式会社,,株式会社,神奈川県,川崎市宮前区,野川台１丁目２２番３号,,14,136,2160043,,,,,,,2024-12-09,1,,,,,オールフラッツツツミネ,0
651,3020001160565,新規,0,2024-12-09,2024-12-09,株式会社Ｈ・Ｓホールディングス,,株式会社,神奈川県,横浜市緑区,竹山１丁目２０番地５,,14,113,2260005,,,,,,,2024-12-09,1,,,,,エイチエスホールディングス,0
654,3020003027390,新規,0,2024-12-09,2024-12-09,ＫＯＲＮＥＬ合同会社,,合同会社,神奈川県,横浜市鶴見区,上末吉４丁目２３番６号,,14,101,2300011,,,,,,,2024-12-09,1,,,,,コーネル,0
655,3020003027440,新規,0,2024-12-09,2024-12-09,合同会社オーシャンズ,,合同会社,神奈川県,横浜市金沢区,谷津町２５３番地５,,14,108,2360016,,,,,,,2024-12-09,1,,,,,オーシャンズ,0
658,3021001083946,新規,0,2024-12-09,2024-12-09,テノアクラフト株式会社,,株式会社,神奈川県,藤沢市,鵠沼石上１丁目５番９号メガサンエスビル６階,,14,205,2510025,,,,,,,2024-12-09,1,,,,,テノアクラフト,0
662,3030001163765,新規,0,2024-12-09,2024-12-09,株式会社Ｆｊｃｏｍｐａｎｙ‐ｊａｐａｎ,,株式会社,埼玉県,川口市,西川口３丁目２番１４－１００１号スタジオデン西川口,,11,203,3320021,,,,,,,2024-12-09,1,,,,,エフジェイカンパニージャパン,0
663,3030001163831,新規,0,2024-12-09,2024-12-09,株式会社ｄｏｐｅ．,,株式会社,埼玉県,八潮市,大字西袋１１４２番地ＦｉｒｓｔＢａｓｅ３号室,,11,234,3400833,,,,,,,2024-12-09,1,,,,,ドープ,0
664,3030001163856,新規,0,2024-12-09,2024-12-09,株式会社ＳＮＡ,,株式会社,埼玉県,行田市,大字野１５８４番地８,,11,206,3610026,,,,,,,2024-12-09,1,,,,,エスエヌエイ,0
672,3040001136448,新規,0,2024-12-09,2024-12-09,株式会社希彩,,株式会社,千葉県,市原市,飯沼１４０番地３フラワーＢ－２０２,,12,219,2900037,,,,,,,2024-12-09,1,,,,,キサイ,0
673,3040001136464,新規,0,2024-12-09,2024-12-09,株式会社ケットムーン,,株式会社,千葉県,木更津市,富士見２丁目８番１４号,,12,206,2920831,,,,,,,2024-12-09,1,,,,,ケットムーン,0
674,3040001136472,新規,0,2024-12-09,2024-12-09,株式会社ＮＢＯ総研,,株式会社,千葉県,八千代市,八千代台西５丁目１番地６,,12,221,2760034,,,,,,,2024-12-09,1,,,,,エヌビーオーソウケン,0
680,3050001055853,新規,0,2024-12-09,2024-12-09,株式会社沼尻ロジスティクス・パートナーズ,,株式会社,茨城県,つくば市,榎戸７８３番地の１２,,08,220,3050853,,,,,,,2024-12-09,1,,,,,ヌマジリロジスティクスパートナーズ,0
683,3050003008850,新規,0,2024-12-09,2024-12-09,ＨＰ合同会社,,合同会社,茨城県,常総市,水海道森下４３６０番地ＥＴＳＵビル１ＦＤ,,08,211,3030000,,,,,,,2024-12-09,1,,,,,エイチピー,0
685,3060001037719,新規,0,2024-12-09,2024-12-09,ＥＭＬ株式会社,,株式会社,栃木県,宇都宮市,野沢町６０２番地９,,09,201,3200071,,,,,,,2024-12-09,1,,,,,イーエムエル,0
690,3070003005697,新規,0,2024-12-09,2024-12-09,合同会社Ｈ．Ｓ　ＰＬＡＮＮＩＮＧ,,合同会社,群馬県,前橋市,下大島町１０５５番地３９,,10,201,3792152,,,,,,,2024-12-09,1,,,,,エイチエスプランニング,0
697,3090001019037,新規,0,2024-12-09,2024-12-09,株式会社やまだい,,株式会社,山梨県,北杜市,高根町村山西割９７４番地,,19,209,4080018,,,,,,,2024-12-09,1,,,,,ヤマダイ,0
709,3120001270833,新規,0,2024-12-09,2024-12-09,株式会社ＯＲＥＳＳ東京,,株式会社,大阪府,大阪市北区,梅田１丁目１３番１号大阪梅田ツインタワーズ・サウス１７階,,27,127,5300001,,,,,,,2024-12-09,1,,,,,オーレストウキョウ,0
710,3120001270890,新規,0,2024-12-09,2024-12-09,株式会社大琉建設,,株式会社,大阪府,大阪市平野区,長吉長原東１丁目７番１６号メゾンカタケ２０１,,27,126,5470013,,,,,,,2024-12-09,1,,,,,オルカケンセツ,0
711,3120001270940,新規,0,2024-12-09,2024-12-09,株式会社ＧＵＴ,,株式会社,大阪府,大阪市北区,梅田１丁目１番３号大阪駅前第３ビル２９階１－１－１号室,,27,127,5300001,,,,,,,2024-12-09,1,,,,,ジーユーティー,0
714,3120003028123,新規,0,2024-12-09,2024-12-09,日本東進国際合同会社,,合同会社,大阪府,大阪市天王寺区,上本町１丁目１番１８－４０７号,,27,109,5430001,,,,,,,2024-12-09,1,,,,,ニホントウシンコクサイ,0
715,3120005024632,新規,0,2024-12-09,2024-12-09,一般社団法人京阪相続センター,,その他の設立登記法人,大阪府,寝屋川市,大利町２０番１７号,,27,215,5720048,,,,,,,2024-12-09,1,,,,,ケイハンソウゾクセンター,0
716,3120005024649,新規,0,2024-12-09,2024-12-09,ＮＰＯ法人ＣＹサポート,,その他の設立登記法人,大阪府,大阪市北区,西天満１丁目１１番２０－１００２号,,27,127,5300047,,,,,,,2024-12-09,1,,,,,シーワイサポート,0
719,3120103006169,新規,0,2024-12-09,2024-12-09,ＨＫＨ合同会社,,合同会社,大阪府,富田林市,錦織東１丁目６番５号－２０３号室,,27,214,5840069,,,,,,,2024-12-09,1,,,,,エッチケーエッチ,0
720,3120103006177,新規,0,2024-12-09,2024-12-09,ジェイ・アイ・システム合同会社,,合同会社,大阪府,堺市西区,菱木２丁２２１８番地３,,27,144,5938315,,,,,,,2024-12-09,1,,,,,ジェイアイシステム,0
727,3130001078524,新規,0,2024-12-09,2024-12-09,株式会社Ｅａｓｔ　Ｌｉｎｋ　Ｅｄｕｃａｔｉｏｎ,,株式会社,京都府,京都市伏見区,中島鳥羽離宮町７２番地,,26,109,6128459,,,,,,,2024-12-09,1,,,,,イーストリンクエデュケーション,0
728,3130001078565,新規,0,2024-12-09,2024-12-09,株式会社色彩,,株式会社,京都府,京都市下京区,七条通油小路東入大黒町２２７番地第２キョートビル４０２,,26,106,6008223,,,,,,,2024-12-09,1,,,,,シキサイ,0
730,3130003010063,新規,0,2024-12-09,2024-12-09,ＣＭＧ　Ｊａｐａｎ合同会社,,合同会社,京都府,京都市伏見区,深草野手町３７番地６,,26,109,6120887,,,,,,,2024-12-09,1,,,,,シーエムジージャパン,0
736,3140001136660,新規,0,2024-12-09,2024-12-09,株式会社ＨＵＸ　ＣＯＭＰＡＮＹ,,株式会社,兵庫県,神戸市長田区,若松町１丁目２番１１号,,28,106,6530038,,,,,,,2024-12-09,1,,,,,フックスカンパニー,0
737,3140001136669,新規,0,2024-12-09,2024-12-09,株式会社ピーヌスリーベル,,株式会社,兵庫県,芦屋市,船戸町３番６－２０５号,,28,206,6590093,,,,,,,2024-12-09,1,,,,,ピーヌスリーベル,0
738,3140001136677,新規,0,2024-12-09,2024-12-09,株式会社ＧＬＪ,,株式会社,兵庫県,神戸市北区,ひよどり台南町２丁目６番地の２０,,28,109,6511125,,,,,,,2024-12-09,1,,,,,ジーエルジェイ,0
739,3140001136693,新規,0,2024-12-09,2024-12-09,株式会社かさいスマートエナジー,,株式会社,兵庫県,加西市,都染町６５番地,,28,220,6790101,,,,,,,2024-12-09,1,,,,,カサイスマートエナジー,0
742,3150001027735,新規,0,2024-12-09,2024-12-09,株式会社Ｎａｌｕ,,株式会社,奈良県,奈良市,あやめ池南１丁目７番３７号,,29,201,6310033,,,,,,,2024-12-09,1,,,,,ナル,0
744,3150003003445,新規,0,2024-12-09,2024-12-09,合同会社ＨＥＩ．ｃｏ,,合同会社,奈良県,桜井市,大字河西７３６番地の３,,29,206,6330051,,,,,,,2024-12-09,1,,,,,ヘイドットシーオー,0
755,3180001164402,新規,0,2024-12-09,2024-12-09,ＴＳアセット株式会社,,株式会社,愛知県,江南市,五明町青木２８９番地,,23,217,4838241,,,,,,,2024-12-09,1,,,,,ティーエスアセット,0
756,3180001164435,新規,0,2024-12-09,2024-12-09,株式会社Ｊ．Ｋ．Ｒ．ｔｉｅｓ３,,株式会社,愛知県,東海市,加木屋町陀々法師１４番地の１３,,23,222,4770032,,,,,,,2024-12-09,1,,,,,ジェイケイアールタイズスリー,0
757,3180001164451,新規,0,2024-12-09,2024-12-09,株式会社シンタック,,株式会社,愛知県,名古屋市天白区,平針１丁目１８０６番地の６,,23,116,4680011,,,,,,,2024-12-09,1,,,,,シンタック,0
758,3180001164476,新規,0,2024-12-09,2024-12-09,株式会社ドリームツールマネジメント,,株式会社,愛知県,東海市,富貴ノ台２丁目９８番地,,23,222,4760014,,,,,,,2024-12-09,1,,,,,ドリームツールマネジメント,0
760,3180003027714,新規,0,2024-12-09,2024-12-09,合同会社シティーリバー,,合同会社,愛知県,日進市,梅森町上松６４９番地１,,23,230,4700132,,,,,,,2024-12-09,1,,,,,シティーリバー,0
761,3180005020849,新規,0,2024-12-09,2024-12-09,特定非営利活動法人ヒカリ,,その他の設立登記法人,愛知県,海部郡大治町,大字花常字福島９４番地１,,23,424,4901136,,,,,,,2024-12-09,1,,,,,ヒカリ,0
764,3180301039312,新規,0,2024-12-09,2024-12-09,株式会社つむぐハーモニー,,株式会社,愛知県,岡崎市,百々町字東側４３番地,,23,202,4442115,,,,,,,2024-12-09,1,,,,,ツムグハーモニー,0
768,3220003003909,新規,0,2024-12-09,2024-12-09,合同会社ＦｌｏｏｒＷｏｒｋｓ,,合同会社,石川県,野々市市,高橋町９番１２号,,17,212,9218811,,,,,,,2024-12-09,1,,,,,フロアワークス,0
771,3240001064216,新規,0,2024-12-09,2024-12-09,株式会社土居光アセットマネジメント,,株式会社,広島県,東広島市,八本松東５丁目７番２７号,,34,212,7390142,,,,,,,2024-12-09,1,,,,,ドイミツアセットマネジメント,0
778,3290001108109,新規,0,2024-12-09,2024-12-09,株式会社クオーレ,,株式会社,福岡県,福岡市博多区,井相田３丁目４番４１－４０２号,,40,132,8120881,,,,,,,2024-12-09,1,,,,,クオーレ,0
779,3290001108190,新規,0,2024-12-09,2024-12-09,株式会社Ｍａｔｉｓｓｅ．Ｔ,,株式会社,福岡県,福岡市南区,井尻４丁目５番６号,,40,134,8111302,,,,,,,2024-12-09,1,,,,,マティスドットティー,0
780,3290001108199,新規,0,2024-12-09,2024-12-09,株式会社ｆａｍｉｌｉｅ,,株式会社,福岡県,小郡市,横隈２４番地１,,40,216,8380105,,,,,,,2024-12-09,1,,,,,ファミリエ,0
781,3290001108224,新規,0,2024-12-09,2024-12-09,ミノアカ株式会社,,株式会社,福岡県,糸島市,潤４丁目１２番１３号,,40,230,8191105,,,,,,,2024-12-09,1,,,,,ミノアカ,0
784,3290005019574,新規,0,2024-12-09,2024-12-09,一般社団法人掬び社,,その他の設立登記法人,福岡県,福岡市城南区,鳥飼６丁目１０番７－４０４号ファミール鳥飼,,40,136,8140103,,,,,,,2024-12-09,1,,,,,ムスビシャ,0
788,3320001020846,新規,0,2024-12-09,2024-12-09,志津里株式会社,,株式会社,大分県,大分市,国分新町９－２,,44,201,8700869,,,,,,,2024-12-09,1,,,,,シヅリ,0
789,3330001032717,新規,0,2024-12-09,2024-12-09,有鈞株式会社,,株式会社,熊本県,熊本市東区,御領６丁目３番２２号,,43,102,8618035,,,,,,,2024-12-09,1,,,,,ユウキン,0
805,3370003006847,新規,0,2024-12-09,2024-12-09,合同会社ＲＩＳＥ,,合同会社,宮城県,仙台市青葉区,堤町２丁目７番１５号,,04,101,9810912,,,,,,,2024-12-09,1,,,,,ライズ,0
807,3380001034964,新規,0,2024-12-09,2024-12-09,株式会社ホンシュウマシナリー,,株式会社,福島県,二本松市,永田積内１９５番地,,07,210,9640012,,,,,,,2024-12-09,1,,,,,ホンシュウマシナリー,0
815,3430001093237,新規,0,2024-12-09,2024-12-09,日日高ｄａｙｄａｙｇｏ株式会社,,株式会社,北海道,札幌市西区,西野七条１０丁目２３番１９号－１０２,,01,107,0630037,,,,,,,2024-12-09,1,,,,,ヒビダガデイデイゴー,0
823,3440003001650,新規,0,2024-12-09,2024-12-09,合同会社Ｄ　ｗｉｔｈ,,合同会社,北海道,北斗市,久根別４丁目３９番１号,,01,236,0490121,,,,,,,2024-12-09,1,,,,,ディーウィズ,0
827,3470001020492,新規,0,2024-12-09,2024-12-09,株式会社Ｓｕｎ　Ｇｅｎｅｒａｔｅ,,株式会社,香川県,三豊市,豊中町本山甲１２１９番地２,,37,208,7691506,,,,,,,2024-12-09,1,,,,,サンジェネレイト,0
833,3700150128071,新規,0,2024-12-09,2024-12-06,ワーカーズ　ナビレラ８０,,その他,福岡県,福岡市博多区,博多駅前１丁目５－１,,40,132,8120011,,,,,,,2024-12-06,1,,,,,ワーカーズナビレラハチジユウ,0
838,4010001250531,新規,0,2024-12-09,2024-12-09,ＣＲＥＡＸ株式会社,,株式会社,東京都,中央区,銀座１丁目２２番１１号銀座大竹ビジデンス２Ｆ,,13,102,1040061,,,,,,,2024-12-09,1,,,,,クレアス,0
848,4010401186846,新規,0,2024-12-09,2024-12-09,株式会社医薬品情報,,株式会社,東京都,港区,赤坂６丁目４番１９号赤坂Ｔ．Ｓ．Ｃ．ビル５階,,13,103,1070052,,,,,,,2024-12-09,1,,,,,イヤクヒンジョウホウ,0
849,4010401186870,新規,0,2024-12-09,2024-12-09,安佑株式会社,,株式会社,東京都,港区,元赤坂１丁目２番７号赤坂Ｋタワー,,13,103,1070051,,,,,,,2024-12-09,1,,,,,アンユウ,0
850,4010401186912,新規,0,2024-12-09,2024-12-09,アメーカー株式会社,,株式会社,東京都,港区,赤坂２丁目８番１４－５０４号,,13,103,1070052,,,,,,,2024-12-09,1,,,,,アメーカー,0
851,4010401186945,新規,0,2024-12-09,2024-12-09,アニマル・ニュートリション・アンド・ヘルス・ジャパン株式会社,,株式会社,東京都,港区,芝公園２丁目６番３号,,13,103,1050011,,,,,,,2024-12-09,1,,,,,アニマルニュートリションアンドヘルスジャパン,0
861,4010901056441,新規,0,2024-12-09,2024-12-09,株式会社洪記,,株式会社,東京都,世田谷区,南烏山５丁目１８番１９号多胡ビル１Ｆ,,13,112,1570062,,,,,,,2024-12-09,1,,,,,ホンキ,0
865,4011001166206,新規,0,2024-12-09,2024-12-09,エッジクラフテック株式会社,,株式会社,東京都,渋谷区,道玄坂１丁目１０番８号渋谷道玄坂東急ビル２Ｆ－Ｃ,,13,113,1500043,,,,,,,2024-12-09,1,,,,,エッジクラフテック,0
866,4011001166214,新規,0,2024-12-09,2024-12-09,株式会社ｉＭＡＧＯ＆ｉＭＡＧＥ,,株式会社,東京都,渋谷区,道玄坂１丁目１０番８号渋谷道玄坂東急ビル２Ｆ－Ｃ,,13,113,1500043,,,,,,,2024-12-09,1,,,,,イマーゴイメージ,0
867,4011001166445,新規,0,2024-12-09,2024-12-09,株式会社Ｒｅｇａｌｏ,,株式会社,東京都,渋谷区,代官山町１４番７号,,13,113,1500034,,,,,,,2024-12-09,1,,,,,レガロ,0
877,4011101109832,新規,0,2024-12-09,2024-12-09,株式会社ポリーザ,,株式会社,東京都,新宿区,中落合３丁目２９番１０号６階,,13,104,1610032,,,,,,,2024-12-09,1,,,,,ポリーザ,0
878,4011103015269,新規,0,2024-12-09,2024-12-09,合同会社空想Ｆｒｉｄｇｅ,,合同会社,東京都,新宿区,西新宿７丁目５番５号Ｐｌａｚａ西新宿ＵＣＦ４０６,,13,104,1600023,,,,,,,2024-12-09,1,,,,,クウソウフリッジ,0
881,4011401026629,新規,0,2024-12-09,2024-12-09,株式会社エーブレインズ,,株式会社,東京都,板橋区,泉町４７番１２号,,13,119,1740055,,,,,,,2024-12-09,1,,,,,エーブレインズ,0
884,4011701027888,新規,0,2024-12-09,2024-12-09,東京外国人集合研修センター株式会社,,株式会社,東京都,江戸川区,中央４丁目１０－１２セントラルハイツ,,13,123,1320021,,,,,,,2024-12-09,1,,,,,トウキョウガイコクジンシュウゴウケンシュウセンター,0
889,4012801023629,新規,0,2024-12-09,2024-12-09,株式会社エービーオーエス,,株式会社,東京都,立川市,錦町２丁目５番５号立川錦町スカイマンション７０２,,13,202,1900022,,,,,,,2024-12-09,1,,,,,エービーオーエス,0
891,4012803003562,新規,0,2024-12-09,2024-12-09,ＡＲＸＥ　Ａｎａｌｙｔｉｃｓ合同会社,,合同会社,東京都,国分寺市,本町２丁目２番１号,,13,214,1850012,,,,,,,2024-12-09,1,,,,,アークスアナリティクス,0
898,4020001160465,新規,0,2024-12-09,2024-12-09,株式会社Ｍａｃｏｒｅ．Ｈｏａ,,株式会社,神奈川県,川崎市麻生区,片平２丁目２９－５粕谷ビル１０４,,14,137,2150023,,,,,,,2024-12-09,1,,,,,マコアホア,0
901,4020005016630,新規,0,2024-12-09,2024-12-09,医療法人ＬＯＭ,,その他の設立登記法人,神奈川県,横浜市磯子区,洋光台６丁目２０番１号大久保ビル２階２Ａ,,14,107,2350045,,,,,,,2024-12-09,1,,,,,ロム,0
915,4030001163789,新規,0,2024-12-09,2024-12-09,株式会社エスケイビズ,,株式会社,埼玉県,深谷市,荒川１４０７番地,,11,218,3691245,,,,,,,2024-12-09,1,,,,,エスケイビズ,0
916,4030001163806,新規,0,2024-12-09,2024-12-09,株式会社美容室ＴＯＭＯ,,株式会社,埼玉県,加須市,琴寄字下川島１５７番３,,11,210,3491133,,,,,,,2024-12-09,1,,,,,ビヨウシツトモ,0
917,4030001163847,新規,0,2024-12-09,2024-12-09,株式会社無窮,,株式会社,埼玉県,新座市,馬場１丁目２番２３号,,11,230,3520016,,,,,,,2024-12-09,1,,,,,ムキュウ,0
918,4030001163871,新規,0,2024-12-09,2024-12-09,株式会社さくらコーポレーション,,株式会社,埼玉県,越谷市,東越谷６丁目３２番６号ヴィルドモアＡ,,11,222,3430023,,,,,,,2024-12-09,1,,,,,サクラコーポレーション,0
921,4030003025657,新規,0,2024-12-09,2024-12-09,ＬＥＧＡＣＹ　ＡＣＡＤＥＭＹ合同会社,,合同会社,埼玉県,草加市,弁天２丁目２７－４５スカイハイツ３Ｃ号室,,11,221,3400004,,,,,,,2024-12-09,1,,,,,レガシーアカデミー,0
926,4040001136430,新規,0,2024-12-09,2024-12-09,株式会社リバーサイド,,株式会社,千葉県,松戸市,紙敷１丁目１６番地３,,12,207,2702221,,,,,,,2024-12-09,1,,,,,リバーサイド,0
927,4040001136447,新規,0,2024-12-09,2024-12-09,ＨＡ‐ｔｏ　Ｆｕｌｌ株式会社,,株式会社,千葉県,八街市,ほ２番地４,,12,230,2891100,,,,,,,2024-12-09,1,,,,,ハートフル,0
928,4040001136463,新規,0,2024-12-09,2024-12-09,株式会社カンタリア,,株式会社,千葉県,木更津市,富士見２丁目８番１４号,,12,206,2920831,,,,,,,2024-12-09,1,,,,,カンタリア,0
929,4040001136505,新規,0,2024-12-09,2024-12-09,株式会社ショーウィン,,株式会社,千葉県,市川市,本塩２番２４号,,12,203,2720104,,,,,,,2024-12-09,1,,,,,ショーウィン,0
933,4040003026340,新規,0,2024-12-09,2024-12-09,合同会社ＬＡＵＧＨ　ＰＬＵＳ,,合同会社,千葉県,千葉市美浜区,稲毛海岸２丁目３０番１号ザ・ガーデンズ稲毛海岸６２５号,,12,106,2610005,,,,,,,2024-12-09,1,,,,,ラフプラス,0
935,4050001055836,新規,0,2024-12-09,2024-12-09,株式会社テクノ,,株式会社,茨城県,つくば市,天久保２丁目８番地１８,,08,220,3050005,,,,,,,2024-12-09,1,,,,,テクノ,0
936,4050001055869,新規,0,2024-12-09,2024-12-09,株式会社リラボ,,株式会社,茨城県,つくば市,上ノ室２０３２番７,,08,220,3050023,,,,,,,2024-12-09,1,,,,,リラボ,0
966,4120001270832,新規,0,2024-12-09,2024-12-09,株式会社ＯＲＥＳＳ関東,,株式会社,大阪府,大阪市北区,梅田１丁目１３番１号大阪梅田ツインタワーズ・サウス１７階,,27,127,5300001,,,,,,,2024-12-09,1,,,,,オーレスカントウ,0
974,4120903005443,新規,0,2024-12-09,2024-12-09,合同会社ＳＣＲＹ,,合同会社,大阪府,豊中市,新千里東町２丁目５番２５－５１１号,,27,203,5600082,,,,,,,2024-12-09,1,,,,,スクライ,0
975,4120903005451,新規,0,2024-12-09,2024-12-09,ＫＨ　ＲＥＴＲＥＡＴ合同会社,,合同会社,大阪府,吹田市,垂水町１丁目５０番８号,,27,205,5640062,,,,,,,2024-12-09,1,,,,,ケーエイチリトリート,0
1002,4140001136635,新規,0,2024-12-09,2024-12-09,株式会社ＴＯＭＯＷＡ　ＩＮＴＥＲＮＡＴＩＯＮＡＬ　ＪＡＰＡＮ,,株式会社,兵庫県,宝塚市,武庫山２丁目４－５２藤和宝塚武庫山ホームズ３０６,,28,214,6650005,,,,,,,2024-12-09,1,,,,,トモワインターナショナルジャパン,0
1013,4150003003436,新規,0,2024-12-09,2024-12-09,合同会社温故知新,,合同会社,奈良県,天理市,杉本町２８５－１ネオハイムＣ２０２,,29,204,6320078,,,,,,,2024-12-09,1,,,,,オンコチシン,0
1014,4160003003352,新規,0,2024-12-09,2024-12-09,合同会社ａｂｒｉｒ,,合同会社,滋賀県,長浜市,木之本町木之本１２８７－１,,25,203,5290425,,,,,,,2024-12-09,1,,,,,アブリル,0
1020,4180001164450,新規,0,2024-12-09,2024-12-09,ＴＯＯＬＳ株式会社,,株式会社,愛知県,名古屋市中川区,好本町２丁目７２番地１,,23,110,4540825,,,,,,,2024-12-09,1,,,,,ツール,0
1021,4180001164467,新規,0,2024-12-09,2024-12-09,株式会社ＭＲ　ｃｏｍｐａｎｙ,,株式会社,愛知県,知多郡武豊町,字上山１丁目１１０番地１５,,23,447,4702387,,,,,,,2024-12-09,1,,,,,エムアールカンパニー,0
1022,4180001164475,新規,0,2024-12-09,2024-12-09,株式会社マウントワン,,株式会社,愛知県,名古屋市北区,浪打町１丁目３７番地の１４,,23,103,4620041,,,,,,,2024-12-09,1,,,,,マウントワン,0
1023,4180001164509,新規,0,2024-12-09,2024-12-09,株式会社オフィスワタナベ,,株式会社,愛知県,名古屋市緑区,青山２丁目１８６番地,,23,114,4580833,,,,,,,2024-12-09,1,,,,,オフィスワタナベ,0
1024,4180001164517,新規,0,2024-12-09,2024-12-09,東海サイディング株式会社,,株式会社,愛知県,名古屋市熱田区,大宝２丁目２番２５号,,23,109,4560062,,,,,,,2024-12-09,1,,,,,トウカイサイディング,0
1036,4200003006607,新規,0,2024-12-09,2024-12-09,合同会社トップエイム,,合同会社,岐阜県,揖斐郡揖斐川町,谷汲名礼１７６６－３５,,21,401,5011314,,,,,,,2024-12-09,1,,,,,トップエイム,0
1042,4240001064231,新規,0,2024-12-09,2024-12-09,シーベッセル株式会社,,株式会社,広島県,呉市,神山３丁目３５番１７号,,34,202,7370923,,,,,,,2024-12-09,1,,,,,シーベッセル,0
1046,4250001020927,新規,0,2024-12-09,2024-12-09,株式会社ＶＩＳＩＴ,,株式会社,山口県,岩国市,麻里布町３丁目１４－１０コスモ８８－４Ｆ－Ｂ,,35,208,7400018,,,,,,,2024-12-09,1,,,,,ビジット,0
1050,4270003001691,新規,0,2024-12-09,2024-12-09,合同会社スクエア,,合同会社,鳥取県,鳥取市,吉方１６８番地７第３ちけんビル２階,,31,201,6800842,,,,,,,2024-12-09,1,,,,,スクエア,0
1054,4290001108157,新規,0,2024-12-09,2024-12-09,株式会社四鏡,,株式会社,福岡県,福岡市南区,市崎１丁目２－８,,40,134,8150084,,,,,,,2024-12-09,1,,,,,シキョウ,0
1055,4290001108231,新規,0,2024-12-09,2024-12-09,株式会社ＬｕＲｃｈｅ,,株式会社,福岡県,宗像市,栄町２－１第二自転車駐車場２階,,40,220,8114173,,,,,,,2024-12-09,1,,,,,ルルシェ,0
1061,4300003002208,新規,0,2024-12-09,2024-12-09,合同会社ＣＴマネジメントサービス,,合同会社,佐賀県,佐賀市,兵庫南１丁目６番３２－５０１号サーパス兵庫南,,41,201,8490918,,,,,,,2024-12-09,1,,,,,シーティーマネジメントサービス,0
1067,4340001026989,新規,0,2024-12-09,2024-12-09,株式会社真,,株式会社,鹿児島県,鹿児島市,加治屋町１１番１８－４０３号,,46,201,8920846,,,,,,,2024-12-09,1,,,,,マコト,0
1071,4360003014511,新規,0,2024-12-09,2024-12-09,合同会社沖縄まちづくり企画,,合同会社,沖縄県,那覇市,松島２丁目６番地１,,47,201,9020069,,,,,,,2024-12-09,1,,,,,オキナワマチヅクリキカク,0
1075,4370001052033,新規,0,2024-12-09,2024-12-09,株式会社新名取学校給食サービス,,株式会社,宮城県,名取市,杜せきのした２丁目６番地の１,,04,207,9811227,,,,,,,2024-12-09,1,,,,,シンナトリガッコウキュウショクサービス,0
1080,4380001034963,新規,0,2024-12-09,2024-12-09,株式会社ＡＩＬＥ,,株式会社,福島県,双葉郡楢葉町,大字山田岡字堂ノ下６－４,,07,542,9790513,,,,,,,2024-12-09,1,,,,,アイル,0
1081,4380001034971,新規,0,2024-12-09,2024-12-09,ＥＢＩＳ株式会社,,株式会社,福島県,いわき市,小名浜大原字西橋本４８番地の２３,,07,204,9718111,,,,,,,2024-12-09,1,,,,,イービーアイエス,0
1082,4380005012899,新規,0,2024-12-09,2024-12-09,特定非営利活動法人リアン絆の会,,その他の設立登記法人,福島県,いわき市,江名字寺作１０番地の４２,,07,204,9700311,,,,,,,2024-12-09,1,,,,,,0
1084,4400003003360,新規,0,2024-12-09,2024-12-09,合同会社ほほえみ,,合同会社,岩手県,盛岡市,北夕顔瀬町１０番４３号,,03,201,0200031,,,,,,,2024-12-09,1,,,,,ホホエミ,0
1091,4430003017060,新規,0,2024-12-09,2024-12-09,合同会社このは,,合同会社,北海道,札幌市中央区,旭ケ丘１丁目９番３－１０２号,,01,101,0640941,,,,,,,2024-12-09,1,,,,,コノハ,0
1098,4500001026031,新規,0,2024-12-09,2024-12-09,株式会社スギウラ,,株式会社,愛媛県,松山市,針田町８６番地１,,38,201,7900055,,,,,,,2024-12-09,1,,,,,スギウラ,0
1099,4500003003383,新規,0,2024-12-09,2024-12-09,合同会社パロール,,合同会社,愛媛県,今治市,黄金町２丁目５番地２２,,38,202,7940037,,,,,,,2024-12-09,1,,,,,パロール,0
1108,5010001250506,新規,0,2024-12-09,2024-12-09,株式会社アズールコンサルティング,,株式会社,東京都,中央区,銀座１丁目２２番１１号銀座大竹ビジデンス２階,,13,102,1040061,,,,,,,2024-12-09,1,,,,,アズールコンサルティング,0
1109,5010001250571,新規,0,2024-12-09,2024-12-09,サンエレーデ株式会社,,株式会社,東京都,中央区,銀座１丁目１２番４号Ｎ＆ＥＢＬＤ．７階,,13,102,1040061,,,,,,,2024-12-09,1,,,,,サンエレーデ,0
1110,5010001250588,新規,0,2024-12-09,2024-12-09,株式会社カガヤキ,,株式会社,東京都,中央区,日本橋室町１丁目１１番１２号日本橋水野ビル７階,,13,102,1030022,,,,,,,2024-12-09,1,,,,,カガヤキ,0
1112,5010003045739,新規,0,2024-12-09,2024-12-09,浅草プロパティー合同会社,,合同会社,東京都,千代田区,丸の内１丁目１１番１号,,13,101,1000005,,,,,,,2024-12-09,1,,,,,アサクサプロパティー,0
1114,5010005039235,新規,0,2024-12-09,2024-12-09,マルハングループ労働組合連合会,,その他の設立登記法人,東京都,中央区,八丁堀２丁目２９番１４号カイセイ八丁堀ビル７階,,13,102,1040032,,,,,,,2024-12-09,1,,,,,マルハングループレンゴウカイ,0
1115,5010005039251,新規,0,2024-12-09,2024-12-09,行政書士法人きわみ事務所,,その他の設立登記法人,東京都,中央区,八重洲２丁目２番１号,,13,102,1040028,,,,,,,2024-12-09,1,,,,,キワミジムショ,0
1116,5010101016435,新規,0,2024-12-09,2024-12-09,Ｒｅｐａｙ０株式会社,,株式会社,東京都,八王子市,椚田町５１２－７,,13,201,1930942,,,,,,,2024-12-09,1,,,,,リペイオ,0
1117,5010101016443,新規,0,2024-12-09,2024-12-09,株式会社湊,,株式会社,東京都,八王子市,大楽寺町２８４番地,,13,201,1930816,,,,,,,2024-12-09,1,,,,,ミナト,0
1124,5010401186845,新規,0,2024-12-09,2024-12-09,Ｑｕｅｕｅ　Ａｓｓｏｃｉａｔｅｓ　Ｗｏｒｌｄｗｉｄｅ　Ｊａｐａｎ株式会社,,株式会社,東京都,港区,港南２丁目１６番４号品川グランドセントラルタワー８階,,13,103,1080075,,,,,,,2024-12-09,1,,,,,キューアソシエイツワールドワイドジャパン,0
1125,5010401186911,新規,0,2024-12-09,2024-12-09,株式会社マツキアセットマネジメント,,株式会社,東京都,港区,芝浦４丁目２２番１－４００９号,,13,103,1080023,,,,,,,2024-12-09,1,,,,,マツキアセットマネジメント,0
1129,5010603011256,新規,0,2024-12-09,2024-12-09,Ｉｎｆｉｎｉｔｙ　Ｃｌｏｕｄ　Ｓｏｌｕｔｉｏｎｓ合同会社,,合同会社,東京都,江東区,塩浜２丁目５番１－４１８号,,13,108,1350043,,,,,,,2024-12-09,1,,,,,インフィニティクラウドソリューションズ,0
1137,5010903009553,新規,0,2024-12-09,2024-12-09,合同会社ＨＯＶＥ,,合同会社,東京都,世田谷区,奥沢５丁目４０番１２号南国ビル１階,,13,112,1580083,,,,,,,2024-12-09,1,,,,,ホーブ,0
1141,5011001166213,新規,0,2024-12-09,2024-12-09,株式会社ＦＡＨＰ,,株式会社,東京都,渋谷区,千駄ヶ谷３丁目５３番１７号原宿グリーンハイツ２０１,,13,113,1510051,,,,,,,2024-12-09,1,,,,,ファープ,0
1142,5011001166221,新規,0,2024-12-09,2024-12-09,ハチメディカル株式会社,,株式会社,東京都,渋谷区,本町２丁目６番１３－１０１号,,13,113,1510071,,,,,,,2024-12-09,1,,,,,ハチメディカル,0
1143,5011001166329,新規,0,2024-12-09,2024-12-09,株式会社レフト,,株式会社,東京都,目黒区,中目黒４丁目８番５号－５Ｆ,,13,110,1530061,,,,,,,2024-12-09,1,,,,,,0
1145,5011003020500,新規,0,2024-12-09,2024-12-09,合同会社Ｏｌｉｖｅ,,合同会社,東京都,渋谷区,恵比寿３丁目１８番１０号３０１号室,,13,113,1500013,,,,,,,2024-12-09,1,,,,,オリーブ,0
1148,5011101109708,新規,0,2024-12-09,2024-12-09,株式会社ＦＯＸＰＬＵＳ,,株式会社,東京都,新宿区,西新宿４丁目１１番２０号,,13,104,1600023,,,,,,,2024-12-09,1,,,,,フォックスプラス,0
1149,5011101109823,新規,0,2024-12-09,2024-12-09,株式会社ＮａｐＨａｒｅ,,株式会社,東京都,新宿区,西新宿３丁目３番１３号西新宿水間ビル２Ｆ,,13,104,1600023,,,,,,,2024-12-09,1,,,,,ナップヘア,0
1150,5011101109831,新規,0,2024-12-09,2024-12-09,株式会社ベニスジン,,株式会社,東京都,新宿区,中落合３丁目２９番１０号６階,,13,104,1610032,,,,,,,2024-12-09,1,,,,,ベニスジン,0
1151,5011101109856,新規,0,2024-12-09,2024-12-09,ＨｉＢＲＩＤＧＥ株式会社,,株式会社,東京都,新宿区,西新宿３丁目３番１３号西新宿水間ビル２Ｆ,,13,104,1600023,,,,,,,2024-12-09,1,,,,,ハイブリッジ,0
1161,5011601028267,新規,0,2024-12-09,2024-12-09,株式会社ルートコンサルティング,,株式会社,東京都,練馬区,練馬１丁目６番１２－６０４号,,13,120,1760001,,,,,,,2024-12-09,1,,,,,ルートコンサルティング,0
1162,5011605002623,新規,0,2024-12-09,2024-12-09,一般社団法人リバティ,,その他の設立登記法人,東京都,練馬区,上石神井２丁目３６番８号メリオール２０１,,13,120,1770044,,,,,,,2024-12-09,1,,,,,リバティ,0
1164,5011703004050,新規,0,2024-12-09,2024-12-09,合同会社ａｄｅｕｌ,,合同会社,東京都,江戸川区,東葛西８丁目４０,,13,123,1340084,,,,,,,2024-12-09,1,,,,,アドゥル,0
1166,5011803006582,新規,0,2024-12-09,2024-12-09,合同会社杭,,合同会社,東京都,足立区,梅田７丁目３０番１０号,,13,121,1230851,,,,,,,2024-12-09,1,,,,,クイ,0
1168,5012301014185,新規,0,2024-12-09,2024-12-09,株式会社プアトア,,株式会社,東京都,町田市,南成瀬７丁目１３番３号,,13,209,1940045,,,,,,,2024-12-09,1,,,,,プアトア,0
1169,5012303002080,新規,0,2024-12-09,2024-12-09,合同会社ナカジマ,,合同会社,東京都,町田市,中町１丁目２６番１５号,,13,209,1940021,,,,,,,2024-12-09,1,,,,,ナカジマ,0
1178,5013301053470,新規,0,2024-12-09,2024-12-09,聡和クリーン株式会社,,株式会社,東京都,豊島区,東池袋１丁目３３番４号,,13,116,1700013,,,,,,,2024-12-09,1,,,,,ソウワクリーン,0
1185,5020001160497,新規,0,2024-12-09,2024-12-09,株式会社Ｍｏｍｅｎｔｕｍ,,株式会社,神奈川県,横浜市青葉区,美しが丘１丁目１９番地５９,,14,117,2250002,,,,,,,2024-12-09,1,,,,,モメンタム,0
1186,5020001160514,新規,0,2024-12-09,2024-12-09,株式会社湘南ＹＯＬＯ’ｓ,,株式会社,神奈川県,横浜市西区,浅間町１丁目４番３号ウィザードビル４０２,,14,103,2200072,,,,,,,2024-12-09,1,,,,,ショウナンヨロズ,0
1187,5020001160522,新規,0,2024-12-09,2024-12-09,株式会社Ｓｔｅｌｌａ　Ｌｉｑｕｏｒ,,株式会社,神奈川県,横浜市鶴見区,市場東中町１２番２号アルプス５号館１階,,14,101,2300022,,,,,,,2024-12-09,1,,,,,ステラリカー,0
1192,5020003027439,新規,0,2024-12-09,2024-12-09,合同会社Ｅ‐ＣＩＲＣＬＥ,,合同会社,神奈川県,横浜市西区,楠町１３番地３グリフォーネ横浜・西口６０１号,,14,103,2200003,,,,,,,2024-12-09,1,,,,,イーサークル,0
1194,5021001083952,新規,0,2024-12-09,2024-12-09,株式会社ＲＯＬＥＡ,,株式会社,神奈川県,相模原市中央区,中央５丁目１－１１,,14,152,2520239,,,,,,,2024-12-09,1,,,,,ロレア,0
1195,5021001083960,新規,0,2024-12-09,2024-12-09,株式会社エムエスサポート,,株式会社,神奈川県,逗子市,沼間５丁目１６番３６号,,14,208,2490004,,,,,,,2024-12-09,1,,,,,エムエスサポート,0
1202,5030001163730,新規,0,2024-12-09,2024-12-09,駿和株式会社,,株式会社,埼玉県,和光市,白子２丁目１７番３５－４０７号ライオンズマンション和光第２,,11,229,3510101,,,,,,,2024-12-09,1,,,,,シュンワ,0
1203,5030001163805,新規,0,2024-12-09,2024-12-09,株式会社三好ダクト,,株式会社,埼玉県,所沢市,大字下安松９７０番地の１３,,11,208,3590024,,,,,,,2024-12-09,1,,,,,ミヨシダクト,0
1204,5030001163821,新規,0,2024-12-09,2024-12-09,株式会社佐久間コンサルティング,,株式会社,埼玉県,川越市,南台２丁目１番地２レーベン川越南台ＴｈｅＡｒｅｎａ１００７号室,,11,201,3501165,,,,,,,2024-12-09,1,,,,,サクマコンサルティング,0
1205,5030001163846,新規,0,2024-12-09,2024-12-09,株式会社アール建装,,株式会社,埼玉県,草加市,氷川町６３５番地６シャーメゾン・バトー３０１号,,11,221,3400034,,,,,,,2024-12-09,1,,,,,アールケンソウ,0
1206,5030001163870,新規,0,2024-12-09,2024-12-09,未来株式会社,,株式会社,埼玉県,川口市,西川口１丁目３０番２０－３０７号室,,11,203,3320021,,,,,,,2024-12-09,1,,,,,ミライ,0
1211,5030003025656,新規,0,2024-12-09,2024-12-09,エヌシープレス合同会社,,合同会社,埼玉県,所沢市,御幸町１番１６－１３０５号所沢スカイライズタワー,,11,208,3591115,,,,,,,2024-12-09,1,,,,,エヌシープレス,0
1215,5040001136421,新規,0,2024-12-09,2024-12-09,株式会社新田牧場,,株式会社,千葉県,鴨川市,西町１１１２番地,,12,223,2960043,,,,,,,2024-12-09,1,,,,,シンデンボクジョウ,0
1216,5040001136454,新規,0,2024-12-09,2024-12-09,株式会社ＡＺＵ,,株式会社,千葉県,旭市,後草１６１２番地６,,12,215,2892613,,,,,,,2024-12-09,1,,,,,アズ,0
1217,5040001136462,新規,0,2024-12-09,2024-12-09,株式会社ガレニア,,株式会社,千葉県,木更津市,富士見２丁目８番１４号,,12,206,2920831,,,,,,,2024-12-09,1,,,,,ガレニア,0
1218,5040001136495,新規,0,2024-12-09,2024-12-09,株式会社大人の和み場,,株式会社,千葉県,香取市,佐原イ３２１４番地１,,12,236,2870003,,,,,,,2024-12-09,1,,,,,オトナノナゴミバ,0
1219,5040001136504,新規,0,2024-12-09,2024-12-09,農地再整備機構株式会社,,株式会社,千葉県,木更津市,幸町１丁目１番６号,,12,206,2920803,,,,,,,2024-12-09,1,,,,,ノウチサイセイビキコウ,0
1228,5050003008857,新規,0,2024-12-09,2024-12-09,アールシーワン合同会社,,合同会社,茨城県,日立市,田尻町１丁目４２番２号,,08,202,3191416,,,,,,,2024-12-09,1,,,,,アールシーワン,0
1231,5070001042419,新規,0,2024-12-09,2024-12-09,株式会社Ｇｏｒｉｌｌａ　Ｇｒａｐｈｉｃｓ,,株式会社,群馬県,前橋市,三俣町３丁目２１番地２３グリーンハイツ１０１,,10,201,3710018,,,,,,,2024-12-09,1,,,,,ゴリラグラフィックス,0
1245,5100001038116,新規,0,2024-12-09,2024-12-09,株式会社ＳＡＣＨＩ,,株式会社,長野県,千曲市,上山田温泉１丁目３１番地３,,20,218,3890821,,,,,,,2024-12-09,1,,,,,サチ,0
1263,5120001270831,新規,0,2024-12-09,2024-12-09,株式会社ＯＲＥＳＳ東北,,株式会社,大阪府,大阪市北区,梅田１丁目１３番１号大阪梅田ツインタワーズ・サウス１７階,,27,127,5300001,,,,,,,2024-12-09,1,,,,,オーレストウホク,0
1264,5120001270856,新規,0,2024-12-09,2024-12-09,誠達株式会社,,株式会社,大阪府,大阪市天王寺区,筆ケ崎町２番１０－３２０２号,,27,109,5430027,,,,,,,2024-12-09,1,,,,,セイタツ,0
1265,5120001270955,新規,0,2024-12-09,2024-12-09,株式会社Ｈ２,,株式会社,大阪府,大阪市平野区,加美北９丁目７番１４号,,27,126,5470001,,,,,,,2024-12-09,1,,,,,エイチツー,0
1266,5120001270963,新規,0,2024-12-09,2024-12-09,ＬＥＡＲＮＥＳＥ株式会社,,株式会社,大阪府,大阪市東住吉区,駒川４丁目８番１３号,,27,121,5460043,,,,,,,2024-12-09,1,,,,,ランニーズ,0
1268,5120003028113,新規,0,2024-12-09,2024-12-09,ＨｅｒｏＤｅｖｅｌｏｐｅｒ合同会社,,合同会社,大阪府,守口市,緑町１－４ＴｓＣｕｂｅ緑町４０２号室,,27,209,5700084,,,,,,,2024-12-09,1,,,,,ヒーローデベロッパー,0
1269,5120003028121,新規,0,2024-12-09,2024-12-09,合同会社ＫＳＦテクノ,,合同会社,大阪府,大阪市中央区,南船場３丁目２番２２号おおきに南船場ビル２０５,,27,128,5420081,,,,,,,2024-12-09,1,,,,,ケイエスエフテクノ,0
1270,5120005024647,新規,0,2024-12-09,2024-12-09,特定非営利活動法人はいだうぇい,,その他の設立登記法人,大阪府,大阪市天王寺区,六万体町３番２１－５０２,,27,109,5430074,,,,,,,2024-12-09,1,,,,,ハイダウェイ,0
1273,5120101070710,新規,0,2024-12-09,2024-12-09,株式会社植松建設,,株式会社,大阪府,藤井寺市,道明寺５丁目８番１６号,,27,226,5830012,,,,,,,2024-12-09,1,,,,,ウエマツケンセツ,0
1274,5120101070719,新規,0,2024-12-09,2024-12-09,株式会社ｓｅｅｄｓ,,株式会社,大阪府,泉南市,信達牧野６４７番地の１,,27,228,5900522,,,,,,,2024-12-09,1,,,,,シーズ,0
1275,5120101070727,新規,0,2024-12-09,2024-12-09,株式会社きぼう不動産,,株式会社,大阪府,堺市西区,鳳中町３丁６６番地３,,27,144,5938327,,,,,,,2024-12-09,1,,,,,キボウフドウサン,0
1276,5120103006175,新規,0,2024-12-09,2024-12-09,合同会社ゆかり,,合同会社,大阪府,岸和田市,磯上町２丁目６番７－１０１号,,27,202,5960001,,,,,,,2024-12-09,1,,,,,ユカリ,0
1285,5130001078539,新規,0,2024-12-09,2024-12-09,株式会社サコン・マネジメント・オフィス,,株式会社,京都府,京都市下京区,烏丸通五条下ル大阪町３９１番地第１０長谷ビル,,26,106,6000000,,,,,,,2024-12-09,1,,,,,サコンマネジメントオフィス,0
1295,5140001136659,新規,0,2024-12-09,2024-12-09,株式会社ＴＴＷハウジング,,株式会社,兵庫県,西宮市,上甲子園３丁目３番６号,,28,204,6638114,,,,,,,2024-12-09,1,,,,,ティーティーダブルハウジング,0
1296,5140001136683,新規,0,2024-12-09,2024-12-09,株式会社ビジョンクレール,,株式会社,兵庫県,神戸市東灘区,御影中町４丁目５番８－１０２号原方,,28,101,6580054,,,,,,,2024-12-09,1,,,,,ビジョンクレール,0
1300,5150001027725,新規,0,2024-12-09,2024-12-09,Ｅ‐ｓｕｎ株式会社,,株式会社,奈良県,奈良市,東九条町６６９番地の１リノムア３０５号,,29,201,6308144,,,,,,,2024-12-09,1,,,,,イーサン,0
1301,5150001027733,新規,0,2024-12-09,2024-12-09,五條市環境衛生協会株式会社,,株式会社,奈良県,五條市,野原西３丁目７番６号,,29,207,6370036,,,,,,,2024-12-09,1,,,,,ゴジョウシカンキョウエイセイキョウカイ,0
1303,5150005009645,新規,0,2024-12-09,2024-12-09,一般社団法人Ｋａｎａｕ,,その他の設立登記法人,奈良県,橿原市,東坊城町５７５番地の３１,,29,205,6340835,,,,,,,2024-12-09,1,,,,,カナウ,0
1309,5180001164441,新規,0,2024-12-09,2024-12-09,愛和土地株式会社,,株式会社,愛知県,名古屋市中区,錦２丁目１２番２４号,,23,106,4600003,,,,,,,2024-12-09,1,,,,,アイワトチ,0
1310,5180001164499,新規,0,2024-12-09,2024-12-09,名西機械株式会社,,株式会社,愛知県,清須市,朝日天王３１番地,,23,233,4520932,,,,,,,2024-12-09,1,,,,,メイセイキカイ,0
1313,5180003027737,新規,0,2024-12-09,2024-12-09,合同会社Ａｒｋ,,合同会社,愛知県,名古屋市中村区,名駅４丁目２４番５号第２森ビル４０１,,23,105,4500002,,,,,,,2024-12-09,1,,,,,アーク,0
1317,5220001026364,新規,0,2024-12-09,2024-12-09,株式会社能登のいっぽ,,株式会社,石川県,珠洲市,宝立町柏原酉字６３番３,,17,205,9271228,,,,,,,2024-12-09,1,,,,,ノトノイッポ,0
1320,5220003003907,新規,0,2024-12-09,2024-12-09,合同会社ｓｈｉｎｙ,,合同会社,石川県,金沢市,中屋南２５２番地,,17,201,9200379,,,,,,,2024-12-09,1,,,,,シャイニー,0
1328,5260001039701,新規,0,2024-12-09,2024-12-09,株式会社夏鈴クリエイト,,株式会社,岡山県,倉敷市,玉島黒崎５０６６番地,,33,202,7138126,,,,,,,2024-12-09,1,,,,,カリンクリエイト,0
1335,5290001108189,新規,0,2024-12-09,2024-12-09,ｏｆｆｉｃｅ　ｍ＆ｍ株式会社,,株式会社,福岡県,福岡市城南区,友丘４丁目１２番１０号,,40,136,8140112,,,,,,,2024-12-09,1,,,,,オフィスエムアンドエム,0
1336,5290001108197,新規,0,2024-12-09,2024-12-09,株式会社ニアレイフーズ,,株式会社,福岡県,福岡市中央区,六本松２丁目１５番１８号,,40,133,8100044,,,,,,,2024-12-09,1,,,,,ニアレイフーズ,0
1337,5290001108222,新規,0,2024-12-09,2024-12-09,株式会社アップ・タウン,,株式会社,福岡県,福岡市中央区,高砂１丁目１番２５号,,40,133,8100011,,,,,,,2024-12-09,1,,,,,アップタウン,0
1345,5300003002207,新規,0,2024-12-09,2024-12-09,合同会社ＫＥＮＵ,,合同会社,佐賀県,鳥栖市,弥生が丘４丁目２５７－１,,41,203,8410005,,,,,,,2024-12-09,1,,,,,ケンユー,0
1351,5330001032698,新規,0,2024-12-09,2024-12-09,ダルマエレクトロニクス株式会社,,株式会社,熊本県,上益城郡益城町,大字宮園４００Ｂ室,,43,443,8612241,,,,,,,2024-12-09,1,,,,,ダルマエレクトロニクス,0
1360,5350005006275,新規,0,2024-12-09,2024-12-09,一般社団法人シンクアクト,,その他の設立登記法人,宮崎県,宮崎市,橘通東３丁目３番７号,,45,201,8800805,,,,,,,2024-12-09,1,,,,,シンクアクト,0
1367,5380001034962,新規,0,2024-12-09,2024-12-09,木村建築株式会社,,株式会社,福島県,南相馬市,原町区大甕字戸屋下６５番地の１,,07,212,9750049,,,,,,,2024-12-09,1,,,,,キムラケンチク,0
1368,5380001034970,新規,0,2024-12-09,2024-12-09,株式会社Ｇｏｏｄｅｎ,,株式会社,福島県,双葉郡大熊町,大字下野上字大野１１６－６,,07,545,9791308,,,,,,,2024-12-09,1,,,,,グッデン,0
1378,5430001093235,新規,0,2024-12-09,2024-12-09,株式会社ＳＬＶ,,株式会社,北海道,札幌市中央区,南九条西４丁目１番６－６０１号,,01,101,0640809,,,,,,,2024-12-09,1,,,,,エスエルブイ,0
1386,5500001026030,新規,0,2024-12-09,2024-12-09,株式会社手羽先カンパニー松山,,株式会社,愛媛県,松山市,大街道２丁目２番地７,,38,201,7900004,,,,,,,2024-12-09,1,,,,,テバサキカンパニーマツヤマ,0
1388,5500003003382,新規,0,2024-12-09,2024-12-09,合同会社いろは,,合同会社,愛媛県,上浮穴郡久万高原町,入野２３８番地１,,38,386,7911202,,,,,,,2024-12-09,1,,,,,イロハ,0
1398,6010001250546,新規,0,2024-12-09,2024-12-09,ＡＳ‐２４０２株式会社,,株式会社,東京都,千代田区,丸の内２丁目４番１号,,13,101,1000005,,,,,,,2024-12-09,1,,,,,エーエスニヨンゼロニ,0
1399,6010001250562,新規,0,2024-12-09,2024-12-09,星誉株式会社,,株式会社,東京都,中央区,銀座７丁目８－４－６Ｆ,,13,102,1040061,,,,,,,2024-12-09,1,,,,,ホシヨ,0
1400,6010003045713,新規,0,2024-12-09,2024-12-09,合同会社Ｔｈｅ　ＣＴＲ,,合同会社,東京都,千代田区,神田和泉町１番地２の７,,13,101,1010024,,,,,,,2024-12-09,1,,,,,ザシーティーアール,0
1412,6010401186869,新規,0,2024-12-09,2024-12-09,株式会社Ｎａｔｕｒｅ　Ｄｅｆｉｎｅ,,株式会社,東京都,港区,虎ノ門３丁目１－１虎ノ門三丁目ビルディング２Ｆ,,13,103,1050001,,,,,,,2024-12-09,1,,,,,ネイチャーデファイン,0
1413,6010401186885,新規,0,2024-12-09,2024-12-09,株式会社ファリー,,株式会社,東京都,港区,麻布十番２丁目２１番６－２１０２号,,13,103,1060045,,,,,,,2024-12-09,1,,,,,ファリー,0
1414,6010401186910,新規,0,2024-12-09,2024-12-09,Ｋｉｎｇｓｌｅｙ　Ｇｒｏｕｐ株式会社,,株式会社,東京都,港区,六本木３丁目１８番２－８０６号,,13,103,1060032,,,,,,,2024-12-09,1,,,,,キングスレイグループ,0
1415,6010401186927,新規,0,2024-12-09,2024-12-09,株式会社ＡＢＵＫＵ,,株式会社,東京都,港区,六本木４丁目２番３５号,,13,103,1060032,,,,,,,2024-12-09,1,,,,,アブク,0
1417,6010405023853,新規,0,2024-12-09,2024-12-09,一般社団法人リバー,,その他の設立登記法人,東京都,港区,六本木６丁目１番８号六本木グリーンビル８階,,13,103,1060032,,,,,,,2024-12-09,1,,,,,リバー,0
1423,6010601066417,新規,0,2024-12-09,2024-12-09,株式会社アバンス,,株式会社,東京都,江東区,亀戸７丁目４番１４号,,13,108,1360071,,,,,,,2024-12-09,1,,,,,アバンス,0
1424,6010601066433,新規,0,2024-12-09,2024-12-09,株式会社おはかんり,,株式会社,東京都,江東区,白河２丁目１４番２－２０６号,,13,108,1350021,,,,,,,2024-12-09,1,,,,,オハカンリ,0
1426,6010901056448,新規,0,2024-12-09,2024-12-09,株式会社Ｒ３ＹＫ,,株式会社,東京都,世田谷区,鎌田２丁目２５番１２－２１４号,,13,112,1570077,,,,,,,2024-12-09,1,,,,,アールスリーワイケー,0
1427,6010901056456,新規,0,2024-12-09,2024-12-09,株式会社アトリエ・スプラウト,,株式会社,東京都,世田谷区,玉川３丁目１０番５号,,13,112,1580094,,,,,,,2024-12-09,1,,,,,アトリエスプラウト,0
1428,6010903009544,新規,0,2024-12-09,2024-12-09,Ａｋｉｎａｉ　Ｊａｐａｎ合同会社,,合同会社,東京都,世田谷区,太子堂４丁目１８番１５号マガザン三軒茶屋２－３Ｆ－３,,13,112,1540004,,,,,,,2024-12-09,1,,,,,アキナイジャパン,0
1429,6010903009560,新規,0,2024-12-09,2024-12-09,小野路子合同会社,,合同会社,東京都,世田谷区,北沢３丁目２番１１号下北沢オフィス４Ｆ－０１,,13,112,1550031,,,,,,,2024-12-09,1,,,,,オノミチコ,0
1437,6011001166204,新規,0,2024-12-09,2024-12-09,株式会社Ｓｉｄｅ　ｂｙ　ｍｅ,,株式会社,東京都,渋谷区,代々木５丁目６０番１号５０２,,13,113,1510053,,,,,,,2024-12-09,1,,,,,サイドバイミー,0
1438,6011001166212,新規,0,2024-12-09,2024-12-09,株式会社マーブル,,株式会社,東京都,渋谷区,代々木５丁目５７番２－６０４号ザ・パークハビオＳＯＨＯ代々木公園,,13,113,1510053,,,,,,,2024-12-09,1,,,,,マーブル,0
1439,6011001166220,新規,0,2024-12-09,2024-12-09,株式会社ＬＵＮＡＲ　ＲＯＳＥ,,株式会社,東京都,渋谷区,東１丁目２２番１１号Ｔｏｋｙｏ・Ｃｅｎｔｒａｌ・Ｓｈｉｂｕｙａ１階,,13,113,1500011,,,,,,,2024-12-09,1,,,,,ルナーローズ,0
1443,6011003020499,新規,0,2024-12-09,2024-12-09,合同会社さかだち,,合同会社,東京都,渋谷区,道玄坂１丁目１０番８号渋谷道玄坂東急ビル２Ｆ－Ｃ,,13,113,1500043,,,,,,,2024-12-09,1,,,,,サカダチ,0
1447,6011101109830,新規,0,2024-12-09,2024-12-09,株式会社ベッキヨ,,株式会社,東京都,新宿区,中落合３丁目２９番１０号６階,,13,104,1610032,,,,,,,2024-12-09,1,,,,,ベッキヨ,0
1450,6011103015275,新規,0,2024-12-09,2024-12-09,合同会社ケイエス,,合同会社,東京都,新宿区,西新宿３丁目３番１３号西新宿水間ビル６階,,13,104,1600023,,,,,,,2024-12-09,1,,,,,ケイエス,0
1452,6011301030217,新規,0,2024-12-09,2024-12-09,株式会社ディッシュ,,株式会社,東京都,杉並区,高円寺北１丁目４番１５号,,13,115,1660002,,,,,,,2024-12-09,1,,,,,,0
1453,6011401026627,新規,0,2024-12-09,2024-12-09,株式会社Ｌｉｂｅｒｉｏ,,株式会社,東京都,板橋区,赤塚５丁目２３－９,,13,119,1750092,,,,,,,2024-12-09,1,,,,,リベリオ,0
1455,6011503006329,新規,0,2024-12-09,2024-12-09,Ｎ＆Ｉコンサルティング合同会社,,合同会社,東京都,荒川区,西日暮里６丁目６５－２プリーマ幸３０１,,13,118,1160013,,,,,,,2024-12-09,1,,,,,エヌアンドアイコンサルティング,0
1460,6012301014184,新規,0,2024-12-09,2024-12-09,株式会社ＲｅＮＥＸＴ,,株式会社,東京都,町田市,小野路町３１８６番地６,,13,209,1950064,,,,,,,2024-12-09,1,,,,,リネクスト,0
1465,6012801023619,新規,0,2024-12-09,2024-12-09,株式会社ＩＳＵ,,株式会社,東京都,立川市,錦町２丁目６番８号,,13,202,1900022,,,,,,,2024-12-09,1,,,,,アイエスユー,0
1469,6013101009580,新規,0,2024-12-09,2024-12-09,錦総業株式会社,,株式会社,東京都,羽村市,緑ヶ丘１丁目２３番９ウィンディ３０５号,,13,227,2050003,,,,,,,2024-12-09,1,,,,,ニシキソウギョウ,0
1478,6020001160513,新規,0,2024-12-09,2024-12-09,株式会社フロントウェーブ,,株式会社,神奈川県,横浜市港北区,岸根町４５１番地２６,,14,109,2220034,,,,,,,2024-12-09,1,,,,,フロントウェーブ,0
1483,6020003027438,新規,0,2024-12-09,2024-12-09,Ｊ・Ｆｏｃｕｓ合同会社,,合同会社,神奈川県,横浜市神奈川区,金港町２番地１パークタワー横濱ポートサイド３２０１号,,14,102,2210056,,,,,,,2024-12-09,1,,,,,ジェイフォーカス,0
1491,6021001083951,新規,0,2024-12-09,2024-12-09,すみれ株式会社,,株式会社,神奈川県,茅ヶ崎市,松風台９番１２号,,14,207,2530005,,,,,,,2024-12-09,1,,,,,スミレ,0
1492,6021003015325,新規,0,2024-12-09,2024-12-09,仲邨功業合同会社,,合同会社,神奈川県,座間市,広野台１丁目４２番３６－４０１号,,14,216,2520012,,,,,,,2024-12-09,1,,,,,ナカムラコウギョウ,0
1501,6030003025416,新規,0,2024-12-09,2024-12-09,合同会社ｓａｋｕｌｉｆｅ,,合同会社,埼玉県,さいたま市西区,大字中釘字子ノ神２９４番５８,,11,101,3310077,,,,,,,2024-12-09,1,,,,,サクライフ,0
1502,6030003025622,新規,0,2024-12-09,2024-12-09,合同会社ｓｕｌｌａ　ｃｏｓｔａ,,合同会社,埼玉県,桶川市,下日出谷東２丁目５番地の１１,,11,231,3630029,,,,,,,2024-12-09,1,,,,,スラコスタ,0
1507,6040001136461,新規,0,2024-12-09,2024-12-09,株式会社オーミラン,,株式会社,千葉県,木更津市,富士見２丁目８番１４号,,12,206,2920831,,,,,,,2024-12-09,1,,,,,オーミラン,0
1508,6040001136503,新規,0,2024-12-09,2024-12-09,株式会社ＣＨＡＮＧＥ,,株式会社,千葉県,八千代市,八千代台北６丁目２番地１９,,12,221,2760031,,,,,,,2024-12-09,1,,,,,チェンジ,0
1511,6040003026347,新規,0,2024-12-09,2024-12-09,合同会社グローバルライン,,合同会社,千葉県,船橋市,芝山６丁目５４番１５号コータース芝山１０３号,,12,204,2740816,,,,,,,2024-12-09,1,,,,,グローバルライン,0
1513,6060001037699,新規,0,2024-12-09,2024-12-09,株式会社Ａｉｍｈｉｇｈ　Ｒｅｂｏｏｔ,,株式会社,栃木県,小山市,天神町２丁目８番地５０トーヨーハイツ１０２号,,09,208,3230032,,,,,,,2024-12-09,1,,,,,エイムハイリブート,0
1514,6060001037716,新規,0,2024-12-09,2024-12-09,株式会社ＮＥＸＴＡＲＴ,,株式会社,栃木県,小山市,駅東通り１丁目１０番９ＨＮＫビル２階西側北,,09,208,3230022,,,,,,,2024-12-09,1,,,,,ネクスタート,0
1516,6070003005686,新規,0,2024-12-09,2024-12-09,合同会社ＫＯＫＯＬＯ,,合同会社,群馬県,前橋市,横手町８０２－７,,10,201,3792145,,,,,,,2024-12-09,1,,,,,ココロ,0
1519,6080101025180,新規,0,2024-12-09,2024-12-09,株式会社Ｍ’ｓＷｏｒｋｓ,,株式会社,静岡県,御殿場市,新橋１９８４ＴＡＫＡ２２ビル１Ｆ北側,,22,215,4120043,,,,,,,2024-12-09,1,,,,,エムズワークス,0
1528,6110003005608,新規,0,2024-12-09,2024-12-09,合同会社Ｎｉｗａ,,合同会社,新潟県,上越市,加賀町７番１６号,,15,222,9420086,,,,,,,2024-12-09,1,,,,,ニワ,0
1536,6120001270772,新規,0,2024-12-09,2024-12-09,＿溪株式会社,00137277,株式会社,大阪府,大阪市住之江区,安立１丁目２番１３号３Ｃ,,27,125,5590003,,,,,,,2024-12-09,1,,,,,ゲンケイ,0
1537,6120001270871,新規,0,2024-12-09,2024-12-09,契谷株式会社,,株式会社,大阪府,大阪市浪速区,日本橋東２丁目２番１４号中川マンション６０２,,27,111,5560006,,,,,,,2024-12-09,1,,,,,チギリヤ,0
1538,6120001270913,新規,0,2024-12-09,2024-12-09,株式会社リスミー,,株式会社,大阪府,大阪市西淀川区,歌島１丁目２－５,,27,113,5550021,,,,,,,2024-12-09,1,,,,,リスミー,0
1557,6130001078554,新規,0,2024-12-09,2024-12-09,株式会社Ｓｏｎｔａｎａ,,株式会社,京都府,京都市下京区,朱雀宝蔵町４４番地協栄ビル２階京都朱雀スタジオ,,26,106,6008846,,,,,,,2024-12-09,1,,,,,ソンタナ,0
1571,6140001136674,新規,0,2024-12-09,2024-12-09,株式会社ＬＥＡＦ,,株式会社,兵庫県,明石市,本町１丁目２番３３号興生ビル４階,,28,203,6730892,,,,,,,2024-12-09,1,,,,,リーフ,0
1573,6140003021395,新規,0,2024-12-09,2024-12-09,シーバードジャパン合同会社,,合同会社,兵庫県,神戸市中央区,磯辺通１丁目１番１８号カサベラ国際プラザビル７０７,,28,110,6510084,,,,,,,2024-12-09,1,,,,,シーバードジャパン,0
1577,6150003003442,新規,0,2024-12-09,2024-12-09,合同会社ふわふわストア,,合同会社,奈良県,奈良市,六条西１丁目１２－６３－２,,29,201,6308044,,,,,,,2024-12-09,1,,,,,フワフワストア,0
1580,6170005007118,新規,0,2024-12-09,2024-12-09,紀州登記土地家屋調査士法人,,その他の設立登記法人,和歌山県,日高郡みなべ町,東吉田１９９番地１０,,30,391,6450001,,,,,,,2024-12-09,1,,,,,キシュウトウキ,0
1587,6180001164432,新規,0,2024-12-09,2024-12-09,中日本資材株式会社,,株式会社,愛知県,名古屋市昭和区,広路通６丁目１８番地１,,23,107,4660854,,,,,,,2024-12-09,1,,,,,ナカニホンシザイ,0
1588,6180001164440,新規,0,2024-12-09,2024-12-09,株式会社ｓｅａｍｌｅｓｓ,,株式会社,愛知県,名古屋市中区,栄３丁目２３番２４号ＮＡＧＯＹＡＦＬＡＴ８０１,,23,106,4600008,,,,,,,2024-12-09,1,,,,,シームレス,0
1589,6180001164465,新規,0,2024-12-09,2024-12-09,株式会社Ｒｊ＆Ｙ,,株式会社,愛知県,名古屋市東区,東桜２丁目９番４号（サンパーク高岳駅前１３０１号）,,23,102,4610005,,,,,,,2024-12-09,1,,,,,アールジェイアンドワイ,0
1590,6180001164498,新規,0,2024-12-09,2024-12-09,株式会社ＣＨ建装,,株式会社,愛知県,名古屋市緑区,諸の木２丁目６１０番地,,23,114,4580817,,,,,,,2024-12-09,1,,,,,シーエイチケンソウ,0
1592,6180005020838,新規,0,2024-12-09,2024-12-09,特定非営利活動法人日本牛乳文化協会,,その他の設立登記法人,愛知県,名古屋市南区,豊２丁目１２番５７号南豊第二住宅１棟４２２号,,23,112,4570863,,,,,,,2024-12-09,1,,,,,ニホンギュウニュウブンカキョウカイ,0
1593,6180005020854,新規,0,2024-12-09,2024-12-09,ヒカリコ社会保険労務士法人,,その他の設立登記法人,愛知県,一宮市,大毛字丸田２８番地,,23,203,4910132,,,,,,,2024-12-09,1,,,,,ヒカリコ,0
1602,6200001043212,新規,0,2024-12-09,2024-12-09,株式会社天翔,,株式会社,岐阜県,可児市,下切５１１番地３,,21,214,5090245,,,,,,,2024-12-09,1,,,,,テンショウ,0
1611,6290001108213,新規,0,2024-12-09,2024-12-09,株式会社ｍｔｔｔ,,株式会社,福岡県,福岡市博多区,中洲４丁目７番８号ラ・パピヨンビル４１４号,,40,132,8100801,,,,,,,2024-12-09,1,,,,,エムティティティ,0
1618,6290803004915,新規,0,2024-12-09,2024-12-09,合同会社マルトＮＥＸＴ,,合同会社,福岡県,北九州市八幡西区,岩崎１丁目２８２６－３,,40,109,8071153,,,,,,,2024-12-09,1,,,,,マルトネクスト,0
1623,6330001032697,新規,0,2024-12-09,2024-12-09,Ｉｎｆｉｎｉｔｙ株式会社,,株式会社,熊本県,熊本市北区,楡木２丁目３番７２号,,43,105,8618083,,,,,,,2024-12-09,1,,,,,インフィニティ,0
1631,6390001017817,新規,0,2024-12-09,2024-12-09,株式会社ｏｎｔｈｅ,,株式会社,山形県,山形市,蔵王温泉８０８番地５,,06,201,9902301,,,,,,,2024-12-09,1,,,,,オンザ,0
1637,6420001018951,新規,0,2024-12-09,2024-12-09,株式会社ＦＮファーム,,株式会社,青森県,上北郡野辺地町,字新町裏４７番地１１ワークポイント・ヒロ２０４,,02,401,0393163,,,,,,,2024-12-09,1,,,,,エフエヌファーム,0
1641,6430001093226,新規,0,2024-12-09,2024-12-09,株式会社ｉＧＴパートナーズ,,株式会社,北海道,札幌市北区,北九条西４丁目１０－１－３０６,,01,102,0600809,,,,,,,2024-12-09,1,,,,,アイジーティーパートナーズ,0
1642,6430001093234,新規,0,2024-12-09,2024-12-09,株式会社ユニティホールディングス,,株式会社,北海道,札幌市中央区,南二条東１丁目１番地１２フラーテ札幌５１５,,01,101,0600052,,,,,,,2024-12-09,1,,,,,ユニティホールディングス,0
1644,6430003017059,新規,0,2024-12-09,2024-12-09,合同会社ＫＫＹ,,合同会社,北海道,札幌市南区,澄川三条１丁目２番１－２２２号,,01,106,0050003,,,,,,,2024-12-09,1,,,,,ケーケーワイ,0
1649,6500003003381,新規,0,2024-12-09,2024-12-09,合同会社Ｍａｒｕｋａｒａ,,合同会社,愛媛県,松山市,湊町６丁目５番地３,,38,201,7900012,,,,,,,2024-12-09,1,,,,,マルカラ,0
1658,7010001250529,新規,0,2024-12-09,2024-12-09,株式会社とうない,,株式会社,東京都,中央区,銀座４丁目１３番７号木挽町會所３Ｆ,,13,102,1040061,,,,,,,2024-12-09,1,,,,,トウナイ,0
1659,7010001250537,新規,0,2024-12-09,2024-12-09,ティエモ株式会社,,株式会社,東京都,中央区,銀座６丁目１３番１６号,,13,102,1040061,,,,,,,2024-12-09,1,,,,,ティエモ,0
1662,7010003045712,新規,0,2024-12-09,2024-12-09,Ｎ‐ＯＨ１インベストメント合同会社,,合同会社,東京都,中央区,日本橋１丁目４番１号,,13,102,1030027,,,,,,,2024-12-09,1,,,,,エヌオーエイチワンインベストメント,0
1666,7010401186884,新規,0,2024-12-09,2024-12-09,株式会社ファーリン,,株式会社,東京都,港区,麻布十番２丁目２１番６－２１０２号,,13,103,1060045,,,,,,,2024-12-09,1,,,,,ファーリン,0
1667,7010401186926,新規,0,2024-12-09,2024-12-09,株式会社ジェイエム・クレセント,,株式会社,東京都,港区,南青山２丁目２番１５号,,13,103,1070062,,,,,,,2024-12-09,1,,,,,ジェイエムクレセント,0
1668,7010401186942,新規,0,2024-12-09,2024-12-09,ドットシー株式会社,,株式会社,東京都,港区,南青山２丁目２－１５ＷＩＮ青山５３１,,13,103,1070062,,,,,,,2024-12-09,1,,,,,ドットシー,0
1669,7010401186967,新規,0,2024-12-09,2024-12-09,株式会社ライトメディア,,株式会社,東京都,港区,六本木７丁目１５番７号,,13,103,1060032,,,,,,,2024-12-09,1,,,,,ライトメディア,0
1670,7010403033977,新規,0,2024-12-09,2024-12-09,Ｖｅｎ‐ｔｏ　Ｊａｐａｎ合同会社,,合同会社,東京都,港区,赤坂２丁目２３番１号アークヒルズ・フロントタワーＲｏＰ８０６号室,,13,103,1070052,,,,,,,2024-12-09,1,,,,,ヴェントージャパン,0
1679,7010803005188,新規,0,2024-12-09,2024-12-09,合同会社ファニー大田,,合同会社,東京都,大田区,仲池上２丁目２２番２号,,13,111,1460081,,,,,,,2024-12-09,1,,,,,ファニーオオタ,0
1683,7010903009551,新規,0,2024-12-09,2024-12-09,合同会社ハッピーマンデーズ,,合同会社,東京都,世田谷区,大原２丁目１０－１大原Ｋハイツ１０１,,13,112,1560041,,,,,,,2024-12-09,1,,,,,ハッピーマンデーズ,0
1696,7011001166228,新規,0,2024-12-09,2024-12-09,Ｎｕｄｇｅ　Ｈｅａｌｔｈｃａｒｅ株式会社,,株式会社,東京都,渋谷区,渋谷３丁目１番９号Ｙａｚａｗａビル４階,,13,113,1500002,,,,,,,2024-12-09,1,,,,,ナッジヘルスケア,0
1697,7011003020498,新規,0,2024-12-09,2024-12-09,合同会社ＰＬＡＹＷＯＲＫ,,合同会社,東京都,渋谷区,恵比寿３丁目１０番１２号キャトルセゾン恵比寿２０３,,13,113,1500013,,,,,,,2024-12-09,1,,,,,プレイワーク,0
1710,7011101109838,新規,0,2024-12-09,2024-12-09,ＭＡＯ株式会社,,株式会社,東京都,新宿区,富久町２０番２号新宿御苑サニーコート２０６,,13,104,1620067,,,,,,,2024-12-09,1,,,,,マオ,0
1711,7011101109854,新規,0,2024-12-09,2024-12-09,株式会社ＢＩＫＯ,,株式会社,東京都,新宿区,四谷４丁目１９番地,,13,104,1600004,,,,,,,2024-12-09,1,,,,,ビコウ,0
1714,7011103015274,新規,0,2024-12-09,2024-12-09,スタープラチナ合同会社,,合同会社,東京都,新宿区,西早稲田３丁目１７番１１号,,13,104,1690051,,,,,,,2024-12-09,1,,,,,スタープラチナ,0
1715,7011201025976,新規,0,2024-12-09,2024-12-09,株式会社茶トラ,,株式会社,東京都,中野区,中央２丁目１５番１３号,,13,114,1640011,,,,,,,2024-12-09,1,,,,,チャトラ,0
1717,7011401026618,新規,0,2024-12-09,2024-12-09,株式会社ソラリス,,株式会社,東京都,板橋区,弥生町４９－４－１０１ハイツ中板橋,,13,119,1730021,,,,,,,2024-12-09,1,,,,,ソラリス,0
1718,7011401026634,新規,0,2024-12-09,2024-12-09,株式会社Ｒｕｍｉｎａｎｔ,,株式会社,東京都,板橋区,板橋１丁目３０番地９グレープコンポスト板橋４０３,,13,119,1730004,,,,,,,2024-12-09,1,,,,,ルミナント,0
1719,7011501031443,新規,0,2024-12-09,2024-12-09,株式会社セイル,,株式会社,東京都,荒川区,東尾久１丁目５番１３号,,13,118,1160012,,,,,,,2024-12-09,1,,,,,セイル,0
1726,7012401042539,新規,0,2024-12-09,2024-12-09,株式会社ＩＧＡ,,株式会社,東京都,小金井市,本町６丁目２番２０号プラウドタワー武蔵小金井クロスＥＡＳＴ棟１６０５号,,13,210,1840004,,,,,,,2024-12-09,1,,,,,アイジーエー,0
1730,7013301053469,新規,0,2024-12-09,2024-12-09,株式会社Ｃａｍｐｕｓ　Ｌｉｆｅ,,株式会社,東京都,豊島区,東池袋３丁目９番９号,,13,116,1700013,,,,,,,2024-12-09,1,,,,,キャンパスライフ,0
1739,7021001083959,新規,0,2024-12-09,2024-12-09,株式会社Ｗｅｌｉｎａ‐ｓｅ,,株式会社,神奈川県,厚木市,小野４０２番地１８,,14,212,2430125,,,,,,,2024-12-09,1,,,,,ウェリナス,0
1743,7030001163794,新規,0,2024-12-09,2024-12-09,株式会社ＵＮＤＥＲ　ＧＡＲＤＥＮ,,株式会社,埼玉県,上尾市,錦町３７番地５,,11,219,3620006,,,,,,,2024-12-09,1,,,,,アンダーガーデン,0
1744,7030001163811,新規,0,2024-12-09,2024-12-09,金傳株式会社,,株式会社,埼玉県,鶴ヶ島市,大字下新田５７５番地,,11,241,3502222,,,,,,,2024-12-09,1,,,,,カネデン,0
1745,7030001163836,新規,0,2024-12-09,2024-12-09,株式会社Ｒｉｓｅ,,株式会社,埼玉県,志木市,柏町１丁目６番３４－４１５号,,11,228,3530007,,,,,,,2024-12-09,1,,,,,ライズ,0
1747,7030003025638,新規,0,2024-12-09,2024-12-09,合同会社ＭＢ　Ｐｌｕｓ,,合同会社,埼玉県,三郷市,中央１丁目２番地１ザ・ライオンズ三郷中央５１１号,,11,237,3410038,,,,,,,2024-12-09,1,,,,,エムビープラス,0
1750,7040001136493,新規,0,2024-12-09,2024-12-09,株式会社平野建装,,株式会社,千葉県,富津市,二間塚２０１７番地１５,,12,226,2930002,,,,,,,2024-12-09,1,,,,,ヒラノケンソウ,0
1751,7040001136510,新規,0,2024-12-09,2024-12-09,ＭＬｉｓｍ株式会社,,株式会社,千葉県,柏市,若柴１７８番地４柏の葉キャンパス１４８街区２ショップ＆オフィス棟６Ｆ,,12,217,2770871,,,,,,,2024-12-09,1,,,,,エムリズム,0
1754,7040003026346,新規,0,2024-12-09,2024-12-09,合同会社スクルド,,合同会社,千葉県,柏市,新富町１丁目９番４号,,12,217,2770856,,,,,,,2024-12-09,1,,,,,スクルド,0
1781,7120001270838,新規,0,2024-12-09,2024-12-09,株式会社ｇａｎｅｓｈａ,,株式会社,大阪府,大阪市北区,梅田１丁目１３番１号大阪梅田ツインタワーズ・サウス１７階,,27,127,5300001,,,,,,,2024-12-09,1,,,,,ガネイシャ,0
1782,7120001270870,新規,0,2024-12-09,2024-12-09,株式会社プリザーブ,,株式会社,大阪府,大阪市淀川区,宮原１丁目１番１号,,27,123,5320003,,,,,,,2024-12-09,1,,,,,プリザーブ,0
1783,7120001270895,新規,0,2024-12-09,2024-12-09,ＯＢＴ株式会社,,株式会社,大阪府,大阪市中央区,南船場３丁目１－１５Ｒｅｗｉｔビル１４０１,,27,128,5420081,,,,,,,2024-12-09,1,,,,,オービーティー,0
1784,7120001270912,新規,0,2024-12-09,2024-12-09,ＨＯＬＬＹＳ株式会社,,株式会社,大阪府,大阪市西淀川区,佃１丁目２０番２号,,27,113,5550001,,,,,,,2024-12-09,1,,,,,ホーリーズ,0
1785,7120001270937,新規,0,2024-12-09,2024-12-09,株式会社カピバラクイーン,,株式会社,大阪府,大阪市生野区,巽東４丁目１番２３号,00137271,27,116,5440014,,,,,,,2024-12-09,1,,,,,カピバラクイーン,0
1791,7120101070709,新規,0,2024-12-09,2024-12-09,株式会社Ｌａ．Ｌｉｎｏ,,株式会社,大阪府,和泉市,唐国町１丁目１２番６号,,27,219,5941151,,,,,,,2024-12-09,1,,,,,ラリノ,0
1798,7120903005449,新規,0,2024-12-09,2024-12-09,スカイコネクト合同会社,,合同会社,大阪府,豊中市,熊野町２丁目２番９号,,27,203,5600014,,,,,,,2024-12-09,1,,,,,スカイコネクト,0
1813,7140001136665,新規,0,2024-12-09,2024-12-09,ＳＹＮＣ株式会社,,株式会社,兵庫県,姫路市,書写９６２番地１１,,28,201,6712201,,,,,,,2024-12-09,1,,,,,シンク,0
1815,7140003021394,新規,0,2024-12-09,2024-12-09,Ｃ＆Ｓ合同会社,,合同会社,兵庫県,西宮市,甲子園口３丁目１７番５号,,28,204,6638113,,,,,,,2024-12-09,1,,,,,シーアンドエス,0
1819,7150003003441,新規,0,2024-12-09,2024-12-09,ワンライブ合同会社,,合同会社,奈良県,奈良市,西登美ヶ丘４丁目４番１２号,,29,201,6310006,,,,,,,2024-12-09,1,,,,,,0
1820,7160001026402,新規,0,2024-12-09,2024-12-09,蘇閣株式会社,,株式会社,滋賀県,彦根市,肥田町９８１－１－２０２号,,25,202,5211123,,,,,,,2024-12-09,1,,,,,ソカク,0
1822,7170001018407,新規,0,2024-12-09,2024-12-09,株式会社角蔵,,株式会社,和歌山県,新宮市,佐野３丁目６番２１号,,30,207,6470071,,,,,,,2024-12-09,1,,,,,カクドヤ,0
1829,7180001164423,新規,0,2024-12-09,2024-12-09,株式会社エフテック,,株式会社,愛知県,大府市,月見町６丁目７番地,,23,223,4740036,,,,,,,2024-12-09,1,,,,,エフテック,0
1830,7180001164431,新規,0,2024-12-09,2024-12-09,スリーテイク株式会社,,株式会社,愛知県,名古屋市中村区,椿町５番１２号,,23,105,4530015,,,,,,,2024-12-09,1,,,,,スリーテイク,0
1831,7180001164472,新規,0,2024-12-09,2024-12-09,株式会社リバイタル,,株式会社,愛知県,名古屋市中村区,名駅３丁目４－１０アルティメイト名駅１ｓｔ２階,,23,105,4500002,,,,,,,2024-12-09,1,,,,,リバイタル,0
1832,7180001164480,新規,0,2024-12-09,2024-12-09,株式会社宣通ホールディングス,,株式会社,愛知県,名古屋市東区,東桜２丁目１６番２７号,,23,102,4610005,,,,,,,2024-12-09,1,,,,,センツウホールディングス,0
1833,7180001164489,新規,0,2024-12-09,2024-12-09,株式会社ＨＩＶＥ,,株式会社,愛知県,名古屋市中区,正木１丁目２番地８号,,23,106,4600024,,,,,,,2024-12-09,1,,,,,ハイブ,0
1834,7180003027693,新規,0,2024-12-09,2024-12-09,合同会社ｄｏｏｒｓ　ｔａｐ,,合同会社,愛知県,名古屋市東区,芳野３丁目６番４号ダイアパレス東白壁Ａ棟１１２号,,23,102,4610027,,,,,,,2024-12-09,1,,,,,ドアーズタップ,0
1835,7180003027702,新規,0,2024-12-09,2024-12-09,合同会社Ｌｉｂｅｒｔｙ‐ｏｎｅ,,合同会社,愛知県,名古屋市天白区,御幸山６１１番地,,23,116,4680075,,,,,,,2024-12-09,1,,,,,リバティーワン,0
1836,7180003027719,新規,0,2024-12-09,2024-12-09,ＳＡＬＥＳ　ＡＩＤ合同会社,,合同会社,愛知県,名古屋市中村区,名駅４丁目２４番５号第２森ビル４０１,,23,105,4500002,,,,,,,2024-12-09,1,,,,,セールスエイド,0
1837,7180003027735,新規,0,2024-12-09,2024-12-09,Ｇ・Ｋ合同会社,,合同会社,愛知県,春日井市,小野町２丁目１８６番地１・１号,,23,206,4860926,,,,,,,2024-12-09,1,,,,,ジーケー,0
1840,7180301039309,新規,0,2024-12-09,2024-12-09,株式会社フルサポート,,株式会社,愛知県,刈谷市,山池町３丁目１０４番地,,23,210,4480036,,,,,,,2024-12-09,1,,,,,フルサポート,0
1849,7220003003905,新規,0,2024-12-09,2024-12-09,合同会社結穂,,合同会社,石川県,野々市市,末松３丁目５７０番,,17,212,9218836,,,,,,,2024-12-09,1,,,,,ユイホ,0
1864,7290001108212,新規,0,2024-12-09,2024-12-09,株式会社栄仁会,,株式会社,福岡県,福岡市中央区,天神４丁目５番１０号チサンマンション第二天神８０３号,,40,133,8100001,,,,,,,2024-12-09,1,,,,,エイジンカイ,0
1865,7290001108220,新規,0,2024-12-09,2024-12-09,株式会社池田建設,,株式会社,福岡県,久留米市,城南町８番地１０ロフティ城南５０５号,,40,203,8300022,,,,,,,2024-12-09,1,,,,,イケダケンセツ,0
1866,7290001108253,新規,0,2024-12-09,2024-12-09,株式会社Ｇｒａｎｄｉｒ,,株式会社,福岡県,福岡市中央区,地行３丁目１６番３１－２０７号,,40,133,8100064,,,,,,,2024-12-09,1,,,,,グランディール,0
1868,7290003016149,新規,0,2024-12-09,2024-12-09,ＴＨ　ＧＲＯＵＰ合同会社,,合同会社,福岡県,飯塚市,菰田西３丁目１４番４３号飯塚杜興産ビル２０１号室,,40,205,8200017,,,,,,,2024-12-09,1,,,,,ティーエイチグループ,0
1870,7310003004910,新規,0,2024-12-09,2024-12-09,合同会社ｓｃａｉ,,合同会社,長崎県,西彼杵郡時津町,西時津郷１７－８橋田ビル１Ｆ,,42,308,8512101,,,,,,,2024-12-09,1,,,,,スカイ,0
1876,7340003004684,新規,0,2024-12-09,2024-12-09,バンヤンルーツ合同会社,,合同会社,鹿児島県,熊毛郡屋久島町,尾之間８０２番地１７,,46,505,8914404,,,,,,,2024-12-09,1,,,,,バンヤンルーツ,0
1881,7360001034525,新規,0,2024-12-09,2024-12-09,株式会社ピパーチ,,株式会社,沖縄県,那覇市,西２丁目６－１６ピパーチキッチン,,47,201,9000036,,,,,,,2024-12-09,1,,,,,ピバーチ,0
1893,7420001018950,新規,0,2024-12-09,2024-12-09,アルファ株式会社,,株式会社,青森県,八戸市,長根３丁目９番８号,,02,203,0310077,,,,,,,2024-12-09,1,,,,,アルファ,0
1894,7420005007933,新規,0,2024-12-09,2024-12-09,一般社団法人ＴＵＲＴＬＥ　ＲＥＳＣＵＥ　ＪＡＰＡＮ,,その他の設立登記法人,青森県,八戸市,大字売市字観音下６１番地３,,02,203,0310073,,,,,,,2024-12-09,1,,,,,タートルレスキュージャパン,0
1898,7430001093225,新規,0,2024-12-09,2024-12-09,旭岳株式会社,,株式会社,北海道,札幌市中央区,北二十二条西二丁目３２番地第３７桂和ビル６Ｆ６１６号室,,01,101,0600000,,,,,,,2024-12-09,1,,,,,アサヒダケ,0
1902,7470003002766,新規,0,2024-12-09,2024-12-09,ＫＹＭ企画合同会社,,合同会社,香川県,高松市,東山崎町９４６番地１,,37,201,7610312,,,,,,,2024-12-09,1,,,,,ケイワイエムキカク,0
1906,7700150128051,新規,0,2024-12-09,2024-12-04,ワーカーズコレクティブぬるま湯,,その他,岡山県,岡山市北区,辰巳１４－１０１,,33,101,7000976,,,,,,,2024-12-04,1,,,,,ワーカーズコレクテイブヌルマユ,0
1915,8010001250206,新規,0,2024-12-09,2024-12-09,よーてらよてら株式会社,,株式会社,東京都,中央区,日本橋兜町２２番６号,,13,102,1030026,,,,,,,2024-12-09,1,,,,,ヨーテラヨテラ,0
1924,8010401186842,新規,0,2024-12-09,2024-12-09,株式会社ｓｏｍａ,,株式会社,東京都,港区,白金１丁目１１番１２号,,13,103,1080072,,,,,,,2024-12-09,1,,,,,ソーマ,0
1925,8010401186867,新規,0,2024-12-09,2024-12-09,株式会社Ｂ＆ＬＤＫ,,株式会社,東京都,港区,南青山５丁目６番１６号,,13,103,1070062,,,,,,,2024-12-09,1,,,,,ビーエルディーケー,0
1926,8010401186875,新規,0,2024-12-09,2024-12-09,Ｇｌｏｂａｌ　ＫＡ　Ｈｏｌｄｉｎｇｓ株式会社,,株式会社,東京都,港区,芝浦４丁目２２番１－７２３号,,13,103,1080023,,,,,,,2024-12-09,1,,,,,グローバルケーエーホールディングス,0
1927,8010401186883,新規,0,2024-12-09,2024-12-09,株式会社ヒルドバ,,株式会社,東京都,港区,麻布十番２丁目２１番６－２１０２号,,13,103,1060045,,,,,,,2024-12-09,1,,,,,ヒルドバ,0
1928,8010401186891,新規,0,2024-12-09,2024-12-09,株式会社エトワール,,株式会社,東京都,港区,新橋２丁目１６番１号ニュー新橋ビル３Ｆ,,13,103,1050004,,,,,,,2024-12-09,1,,,,,エトワール,0
1938,8010803005187,新規,0,2024-12-09,2024-12-09,合同会社ＦＰ・Ｌａｂｏ,,合同会社,東京都,大田区,蒲田１丁目１番２２号,,13,111,1440052,,,,,,,2024-12-09,1,,,,,エフピーラボ,0
1941,8010903009542,新規,0,2024-12-09,2024-12-09,ｙｍｃｋ合同会社,,合同会社,東京都,世田谷区,太子堂２丁目４－２２,,13,112,1540004,,,,,,,2024-12-09,1,,,,,ワイエムシーケー,0
1942,8010903009550,新規,0,2024-12-09,2024-12-09,合同会社ＴＲＵＴＨ,,合同会社,東京都,世田谷区,世田谷２丁目２９－２６,,13,112,1540017,,,,,,,2024-12-09,1,,,,,トゥルース,0
1944,8011001166202,新規,0,2024-12-09,2024-12-09,株式会社Ｓｎａｃｋ,,株式会社,東京都,渋谷区,恵比寿３丁目７－２,,13,113,1500013,,,,,,,2024-12-09,1,,,,,スナック,0
1945,8011001166219,新規,0,2024-12-09,2024-12-09,株式会社ＢＥＬＩＫ,,株式会社,東京都,渋谷区,千駄ヶ谷５丁目１５番５号ＤＳビル９０２,,13,113,1510051,,,,,,,2024-12-09,1,,,,,ベリック,0
1947,8011005010777,新規,0,2024-12-09,2024-12-09,一般社団法人孝情ファミリー協会,,その他の設立登記法人,東京都,渋谷区,宇田川町３７番１８号,,13,113,1500042,,,,,,,2024-12-09,1,,,,,コウジョウファミリーキョウカイ,0
1949,8011101109721,新規,0,2024-12-09,2024-12-09,ＣｏｓｍｉｘＬａｂ株式会社,,株式会社,東京都,新宿区,西新宿６丁目５－１新宿アイランドタワー２Ｆ,,13,104,1600023,,,,,,,2024-12-09,1,,,,,コスミックスラボ,0
1950,8011101109829,新規,0,2024-12-09,2024-12-09,株式会社フューチャン,,株式会社,東京都,新宿区,中落合３丁目２９番１０号６階,,13,104,1610032,,,,,,,2024-12-09,1,,,,,フューチャン,0
1955,8011303005355,新規,0,2024-12-09,2024-12-09,合同会社丸茂,,合同会社,東京都,杉並区,上荻１丁目５番１０号アクトワールド１Ｆ,,13,115,1670043,,,,,,,2024-12-09,1,,,,,マルシゲ,0
1957,8011501031434,新規,0,2024-12-09,2024-12-09,双建株式会社,,株式会社,東京都,北区,滝野川５丁目５番５号シンエイビル８階,,13,117,1140023,,,,,,,2024-12-09,1,,,,,ソウケン,0
1958,8011601028272,新規,0,2024-12-09,2024-12-09,株式会社テクノクリーン,,株式会社,東京都,練馬区,東大泉６丁目２０番１３号メゾンドソフィーナ２０１,,13,120,1780063,,,,,,,2024-12-09,1,,,,,テクノクリーン,0
1964,8012401042554,新規,0,2024-12-09,2024-12-09,ＭＳＫ株式会社,,株式会社,東京都,府中市,宮町１丁目３６番地の７マイキャッスル府中宮町１００３,,13,206,1830023,,,,,,,2024-12-09,1,,,,,エムエスケイ,0
1969,8012801023617,新規,0,2024-12-09,2024-12-09,株式会社ＴＯＫＹＯＲＯＣＫ,,株式会社,東京都,立川市,富士見町１丁目２番７号,,13,202,1900013,,,,,,,2024-12-09,1,,,,,トウキョウロック,0
1971,8013301053468,新規,0,2024-12-09,2024-12-09,茶丸株式会社,,株式会社,東京都,豊島区,西巣鴨２丁目１－２０ベルジュール大塚３０５号室,,13,116,1700001,,,,,,,2024-12-09,1,,,,,チャマル,0
1978,8020001160511,新規,0,2024-12-09,2024-12-09,三金工業株式会社,,株式会社,神奈川県,横浜市中区,石川町５丁目１８６番地２,,14,104,2310868,,,,,,,2024-12-09,1,,,,,サンキンコウギョウ,0
1980,8020003027411,新規,0,2024-12-09,2024-12-09,合同会社アムール,,合同会社,神奈川県,川崎市川崎区,観音２丁目１０番７－２０２号,,14,131,2100831,,,,,,,2024-12-09,1,,,,,アムール,0
1987,8021001083958,新規,0,2024-12-09,2024-12-09,神奈園株式会社,,株式会社,神奈川県,愛甲郡愛川町,半原８０７番地の１,,14,401,2430307,,,,,,,2024-12-09,1,,,,,カンナエン,0
1995,8030001163835,新規,0,2024-12-09,2024-12-09,株式会社ＥＬｓｈａ,,株式会社,埼玉県,さいたま市浦和区,前地２丁目２番６号２０１,,11,107,3300053,,,,,,,2024-12-09,1,,,,,エルシャ,0
1997,8030005021972,新規,0,2024-12-09,2024-12-09,一般社団法人ＩＳＬＡＭＩＣ　ＭＩＳＳＩＯＮ　ＪＡＰＡＮ,,その他の設立登記法人,埼玉県,越谷市,大間野町２丁目１５番１号,,11,222,3430844,,,,,,,2024-12-09,1,,,,,イスラミックミッションジャパン,0
2000,8040001136468,新規,0,2024-12-09,2024-12-09,株式会社ビックルーン,,株式会社,千葉県,市原市,姉崎９７２番地,,12,219,2990111,,,,,,,2024-12-09,1,,,,,ビックルーン,0
2001,8040001136501,新規,0,2024-12-09,2024-12-09,株式会社Ｃａｒ　Ｂｏｄｙ　ＯＮＥ　Ｐｌｕｓ,,株式会社,千葉県,千葉市中央区,出洲港３－１,,12,101,2600023,,,,,,,2024-12-09,1,,,,,カーボディーワンプラス,0
2003,8040003026345,新規,0,2024-12-09,2024-12-09,合同会社インフィニタス,,合同会社,千葉県,松戸市,岩瀬６３１番地の１９パティエール松戸１０３号,,12,207,2710076,,,,,,,2024-12-09,1,,,,,インフィニタス,0
2004,8050001055840,新規,0,2024-12-09,2024-12-09,金子産業株式会社,,株式会社,茨城県,稲敷郡阿見町,大字荒川本郷２３７８番地１１,,08,443,3001152,,,,,,,2024-12-09,1,,,,,,0
2007,8070001042416,新規,0,2024-12-09,2024-12-09,ＢＬＡＳＴ株式会社,,株式会社,群馬県,伊勢崎市,西小保方町３４７番地２３,,10,204,3792224,,,,,,,2024-12-09,1,,,,,ブラスト,0
2008,8070001042440,新規,0,2024-12-09,2024-12-09,株式会社ＴＵＭＵＧＵ,,株式会社,群馬県,佐波郡玉村町,大字藤川２４－１６,,10,464,3701101,,,,,,,2024-12-09,1,,,,,ツムグ,0
2012,8080101025179,新規,0,2024-12-09,2024-12-09,株式会社功伸テック,,株式会社,静岡県,富士市,中之郷３９４８番地の２２,,22,210,4213306,,,,,,,2024-12-09,1,,,,,コウシンテック,0
2019,8100001038105,新規,0,2024-12-09,2024-12-09,株式会社結,,株式会社,長野県,茅野市,豊平１８６５番地１コーポ若葉２０２号,,20,214,3910213,,,,,,,2024-12-09,1,,,,,ユイ,0
2032,8120001270837,新規,0,2024-12-09,2024-12-09,株式会社ＯＲＥＳＳ九州,,株式会社,大阪府,大阪市北区,梅田１丁目１３番１号大阪梅田ツインタワーズ・サウス１７階,,27,127,5300001,,,,,,,2024-12-09,1,,,,,オーレスキュウシュウ,0
2033,8120001270886,新規,0,2024-12-09,2024-12-09,株式会社テイクレスト,,株式会社,大阪府,大阪市北区,紅梅町１番１８号,,27,127,5300038,,,,,,,2024-12-09,1,,,,,テイクレスト,0
2034,8120001270936,新規,0,2024-12-09,2024-12-09,株式会社Ａ,,株式会社,大阪府,大阪市中央区,宗右衛門町５－４ＮＩＰＰＯベルソワール玉屋町５階,,27,128,5420084,,,,,,,2024-12-09,1,,,,,エース,0
2035,8120001270960,新規,0,2024-12-09,2024-12-09,恒遠国際投資株式会社,,株式会社,大阪府,大阪市西成区,天下茶屋２丁目２１－６パインリーフ天下茶屋１１１室,,27,122,5570014,,,,,,,2024-12-09,1,,,,,コウエンコクサイトウシ,0
2038,8120003028102,新規,0,2024-12-09,2024-12-09,ＹＹＹ　Ｌｉｎｋ　Ｊａｐａｎ合同会社,,合同会社,大阪府,大阪市阿倍野区,天王寺町北３丁目１８番２１－１４０９号,,27,119,5450001,,,,,,,2024-12-09,1,,,,,ワイワイリンクジャパン,0
2039,8120003028119,新規,0,2024-12-09,2024-12-09,合同会社声縁ラボ,,合同会社,大阪府,大阪市西区,西本町１丁目１１番２１号ミュージックキューブ４階,,27,106,5500005,,,,,,,2024-12-09,1,,,,,セイエンラボ,0
2042,8120101070708,新規,0,2024-12-09,2024-12-09,株式会社南河ファーム,,株式会社,大阪府,羽曳野市,西浦３丁目９２０番地の１,,27,222,5830861,,,,,,,2024-12-09,1,,,,,ナンコウファーム,0
2043,8120101070716,新規,0,2024-12-09,2024-12-09,株式会社ピース,,株式会社,大阪府,堺市堺区,中向陽町１丁１番９号３０２号室,,27,141,5900072,,,,,,,2024-12-09,1,,,,,ピース,0
2048,8120901050157,新規,0,2024-12-09,2024-12-09,株式会社ＭＡＫＯＴＯＹＡ,,株式会社,大阪府,茨木市,沢良宜西２丁目３番地９号,,27,211,5670868,,,,,,,2024-12-09,1,,,,,マコトヤ,0
2050,8120903005456,新規,0,2024-12-09,2024-12-09,合同会社せんり会計,,合同会社,大阪府,豊中市,上新田１丁目１８番１－３０１号,,27,203,5600085,,,,,,,2024-12-09,1,,,,,センリカイケイ,0
2058,8130001078552,新規,0,2024-12-09,2024-12-09,株式会社京都徒手技研,,株式会社,京都府,京都市中京区,西大文字町６１６番地富小路ビル３階,,26,104,6048054,,,,,,,2024-12-09,1,,,,,キョウトトシュギケン,0
2066,8140001136672,新規,0,2024-12-09,2024-12-09,株式会社Ｋペイント,,株式会社,兵庫県,朝来市,和田山町岡田６１番地２,,28,225,6695224,,,,,,,2024-12-09,1,,,,,ケーペイント,0
2067,8140001136689,新規,0,2024-12-09,2024-12-09,ヘッドハイ株式会社,,株式会社,兵庫県,芦屋市,奥山１２番地３０１号,,28,206,6590002,,,,,,,2024-12-09,1,,,,,ヘッドハイ,0
2068,8140001136697,新規,0,2024-12-09,2024-12-09,株式会社ＡＯＩ　ｌａｂ,,株式会社,兵庫県,神戸市灘区,大内通４丁目１番１１号,,28,102,6570833,,,,,,,2024-12-09,1,,,,,アオイラボ,0
2073,8140003021402,新規,0,2024-12-09,2024-12-09,合同会社オフィスいぐち,,合同会社,兵庫県,尼崎市,南竹谷町３丁目６番地の７９,,28,202,6600875,,,,,,,2024-12-09,1,,,,,オフィスイグチ,0
2074,8150001027730,新規,0,2024-12-09,2024-12-09,株式会社Ｅ．Ｍ．Ａ,,株式会社,奈良県,橿原市,膳夫町４６８番地の１６,,29,205,6340012,,,,,,,2024-12-09,1,,,,,イーエムエー,0
2084,8180001164463,新規,0,2024-12-09,2024-12-09,株式会社アイリーパートナーズ,,株式会社,愛知県,小牧市,常普請１丁目７０番地,,23,219,4850044,,,,,,,2024-12-09,1,,,,,アイリーパートナーズ,0
2085,8180001164488,新規,0,2024-12-09,2024-12-09,株式会社Ａｌｌ　Ｗｈｉｔｅ,,株式会社,愛知県,名古屋市中区,錦３丁目２番２５号,,23,106,4600003,,,,,,,2024-12-09,1,,,,,オールホワイト,0
2086,8180001164505,新規,0,2024-12-09,2024-12-09,株式会社アオーレ,,株式会社,愛知県,名古屋市守山区,永森町３０２番地,,23,113,4630086,,,,,,,2024-12-09,1,,,,,アオーレ,0
2087,8180001164513,新規,0,2024-12-09,2024-12-09,株式会社ｒｅｓｔａｒ,,株式会社,愛知県,日進市,岩崎町西ノ平２４,,23,230,4700131,,,,,,,2024-12-09,1,,,,,リスター,0
2095,8180003027718,新規,0,2024-12-09,2024-12-09,合同会社Ｔｏｍ,,合同会社,愛知県,知多郡武豊町,字桜ケ丘４丁目８番地,,23,447,4702359,,,,,,,2024-12-09,1,,,,,トム,0
2099,8200003006611,新規,0,2024-12-09,2024-12-09,合同会社Ｌａ　ｃｈａｎｃｅ,,合同会社,岐阜県,土岐市,泉西原町１丁目１１番地,,21,212,5095153,,,,,,,2024-12-09,1,,,,,ラチャンス,0
2108,8240001064228,新規,0,2024-12-09,2024-12-09,株式会社ニュー・ワールド,,株式会社,広島県,広島市南区,上東雲町３０－１３ロイヤルシャトー１５０２,,34,103,7340021,,,,,,,2024-12-09,1,,,,,ニューワールド,0
2110,8240005015862,新規,0,2024-12-09,2024-12-09,一般社団法人ＤＡＲ,,その他の設立登記法人,広島県,広島市中区,橋本町９番７号８Ｆ,,34,101,7300015,,,,,,,2024-12-09,1,,,,,ダイアンドロールス,0
2119,8290001108211,新規,0,2024-12-09,2024-12-09,グラティアス株式会社,,株式会社,福岡県,春日市,須玖南３丁目１３７番地２,,40,218,8160863,,,,,,,2024-12-09,1,,,,,グラティアス,0
2120,8290001108228,新規,0,2024-12-09,2024-12-09,株式会社Ｍ,,株式会社,福岡県,那珂川市,今光５丁目２１８番地,,40,231,8111211,,,,,,,2024-12-09,1,,,,,エム,0
2121,8290001108244,新規,0,2024-12-09,2024-12-09,株式会社レースフェーベル,,株式会社,福岡県,福岡市中央区,大名２丁目６番１１号,,40,133,8100041,,,,,,,2024-12-09,1,,,,,レースフェーベル,0
2125,8290005019578,新規,0,2024-12-09,2024-12-09,一般財団法人Ｈｕｍａｎ　Ｐｅａｃｅ,,その他の設立登記法人,福岡県,福岡市城南区,神松寺３丁目９番１３号,,40,136,8140121,,,,,,,2024-12-09,1,,,,,ヒューマンピース,0
2126,8290801031109,新規,0,2024-12-09,2024-12-09,株式会社京祥,,株式会社,福岡県,行橋市,大字今井１５８９番地７,,40,213,8240018,,,,,,,2024-12-09,1,,,,,ケイショウ,0
2131,8310005008818,新規,0,2024-12-09,2024-12-09,一般社団法人長崎県病院薬剤師会,,その他の設立登記法人,長崎県,長崎市,坂本１丁目７番１号長崎大学病院薬剤部内,,42,201,8528102,,,,,,,2024-12-09,1,,,,,ナガサキケンビョウインヤクザイシカイ,0
2139,8350001019311,新規,0,2024-12-09,2024-12-09,株式会社グレイスコミュニティ,,株式会社,宮崎県,都城市,上町１２街区４号,,45,202,8850072,,,,,,,2024-12-09,1,,,,,グレイスコミュニティ,0
2141,8360003014508,新規,0,2024-12-09,2024-12-09,合同会社ＡＬＰＨＡ,,合同会社,沖縄県,那覇市,松山１丁目１４番１７号池原ビル２Ｆ,,47,201,9000032,,,,,,,2024-12-09,1,,,,,アルファ,0
2142,8370001052013,新規,0,2024-12-09,2024-12-09,ＳＢＲ　ＴＲＡＤＩＮＧ株式会社,,株式会社,宮城県,黒川郡大和町,鶴巣大平字郷ノ目５８番地の２,,04,421,9813411,,,,,,,2024-12-09,1,,,,,エスビーアールトレーディング,0
2146,8380001034976,新規,0,2024-12-09,2024-12-09,株式会社パル・コンサルティング,,株式会社,福島県,郡山市,島２丁目３８番１６号新さくらビル２０２号,,07,203,9638034,,,,,,,2024-12-09,1,,,,,パルコンサルティング,0
2147,8410003004016,新規,0,2024-12-09,2024-12-09,ＣＡＣ‐Ｈ２合同会社,,合同会社,秋田県,秋田市,新屋松美町４番１１号アートメゾン光２０１号室,,05,201,0101604,,,,,,,2024-12-09,1,,,,,シーエーシーエイチツー,0
2150,8430001093240,新規,0,2024-12-09,2024-12-09,株式会社Ａｍｂｅｒ,,株式会社,北海道,札幌市南区,真駒内１３８番地７３,,01,106,0050861,,,,,,,2024-12-09,1,,,,,アンバー,0
2155,8490001010917,新規,0,2024-12-09,2024-12-09,株式会社結,,株式会社,高知県,南国市,緑ケ丘２丁目１９０８番地２,,39,204,7830086,,,,,,,2024-12-09,1,,,,,,0
2159,8500005008749,新規,0,2024-12-09,2024-12-09,医療法人いずみ内科循環器クリニック,,その他の設立登記法人,愛媛県,東温市,志津川南１丁目１番地２,,38,215,7910206,,,,,,,2024-12-09,1,,,,,イズミナイカジュンカンキクリニック,0
2167,9010003045710,新規,0,2024-12-09,2024-12-09,合同会社Ｋ企画,,合同会社,東京都,千代田区,九段南１丁目５番６号りそな九段ビル５階ＫＳフロア,,13,101,1020074,,,,,,,2024-12-09,1,,,,,ケーキカク,0
2175,9010401186841,新規,0,2024-12-09,2024-12-09,株式会社ダブリュ・エム・コーポレーション,,株式会社,東京都,港区,南麻布５丁目１１番１号南麻布ハウス２０２,,13,103,1060047,,,,,,,2024-12-09,1,,,,,ダブリュエムコーポレーション,0
2176,9010401186882,新規,0,2024-12-09,2024-12-09,株式会社ヒルジャー,,株式会社,東京都,港区,麻布十番２丁目２１番６－２１０２号,,13,103,1060045,,,,,,,2024-12-09,1,,,,,ヒルジャー,0
2177,9010401186890,新規,0,2024-12-09,2024-12-09,株式会社酉囃子,,株式会社,東京都,港区,麻布十番１丁目６番９号ＡＲＵＧＡ２２・４階,,13,103,1060045,,,,,,,2024-12-09,1,,,,,トリバヤシ,0
2178,9010401186924,新規,0,2024-12-09,2024-12-09,Ｆｉｎ　Ｐａｒｔｎｅｒｓ株式会社,,株式会社,東京都,港区,新橋１丁目１２番９号新橋プレイス６階,,13,103,1050004,,,,,,,2024-12-09,1,,,,,フィンパートナーズ,0
2179,9010403033950,新規,0,2024-12-09,2024-12-09,ＪＷマリオット・ホテル・マネジメント・カンパニー東京合同会社,,合同会社,東京都,港区,海岸１丁目７番１号,,13,103,1050022,,,,,,,2024-12-09,1,,,,,ジェイダブリューマリオットホテルマネジメントカンパニートウキョウ,0
2193,9010901056437,新規,0,2024-12-09,2024-12-09,株式会社スターベイ,,株式会社,東京都,世田谷区,代田２丁目１番１９号,,13,112,1550033,,,,,,,2024-12-09,1,,,,,スターベイ,0
2194,9010901056445,新規,0,2024-12-09,2024-12-09,Ｎｏｗｈｅｒｅ株式会社,,株式会社,東京都,世田谷区,太子堂２丁目２２番地９中野ビル４０２,,13,112,1540004,,,,,,,2024-12-09,1,,,,,ノーウェア,0
2198,9011001166201,新規,0,2024-12-09,2024-12-09,株式会社クロスドット,,株式会社,東京都,渋谷区,神宮前６丁目２３番４号桑野ビル２階,,13,113,1500001,,,,,,,2024-12-09,1,,,,,クロスドット,0
2199,9011001166218,新規,0,2024-12-09,2024-12-09,株式会社オサラロック,,株式会社,東京都,渋谷区,道玄坂１丁目１０番８号渋谷道玄坂東急ビル２Ｆ－Ｃ,,13,113,1500043,,,,,,,2024-12-09,1,,,,,オサラロック,0
2204,9011101109869,新規,0,2024-12-09,2024-12-09,株式会社ＨＹＤＲＯ‐ＢＬＯＫ　Ｊａｐａｎ,,株式会社,東京都,新宿区,西新宿３丁目７番１号新宿パークタワーＮ３０Ｆ,,13,104,1600023,,,,,,,2024-12-09,1,,,,,ハイドロボロクジャパン,0
2206,9011103015264,新規,0,2024-12-09,2024-12-09,合同会社ｉｒｏｏｍ,,合同会社,東京都,新宿区,新宿６丁目９番７号１０１号室,,13,104,1600022,,,,,,,2024-12-09,1,,,,,アイルーム,0
2207,9011103015272,新規,0,2024-12-09,2024-12-09,合同会社モンテル,,合同会社,東京都,新宿区,西新宿３丁目３番１３号西新宿水間ビル６階,,13,104,1600023,,,,,,,2024-12-09,1,,,,,モンテル,0
2208,9011105011253,新規,0,2024-12-09,2024-12-09,一般社団法人外食アレルギー対応協会,,その他の設立登記法人,東京都,新宿区,天神町７番地１１,,13,104,1620808,,,,,,,2024-12-09,1,,,,,ガイショクアレルギータイオウキョウカイ,0
2210,9011203004547,新規,0,2024-12-09,2024-12-09,ナチュラルヴィータ合同会社,,合同会社,東京都,中野区,江原町１丁目２‐７,,13,114,1650023,,,,,,,2024-12-09,1,,,,,ナチュラルヴィータ,0
2212,9011301030214,新規,0,2024-12-09,2024-12-09,株式会社５５,,株式会社,東京都,杉並区,永福１丁目１６番１４号,,13,115,1680064,,,,,,,2024-12-09,1,,,,,ゴーゴー,0
2213,9011303005354,新規,0,2024-12-09,2024-12-09,合同会社よいしょ,,合同会社,東京都,杉並区,下高井戸４丁目４２番２８号,,13,115,1680073,,,,,,,2024-12-09,1,,,,,ヨイショ,0
2217,9011501031441,新規,0,2024-12-09,2024-12-09,ＭＩＫＡＤＯ　ＩＣＨＩＲＯ株式会社,,株式会社,東京都,荒川区,荒川３丁目２４番４号浜野ビル２０３号室,,13,118,1160002,,,,,,,2024-12-09,1,,,,,ミカドイチロ,0
2228,9013301053475,新規,0,2024-12-09,2024-12-09,株式会社デジール,,株式会社,東京都,豊島区,東池袋１丁目４４番１０号タイガースビル２０３号室,,13,116,1700013,,,,,,,2024-12-09,1,,,,,デジール,0
2237,9020001160428,新規,0,2024-12-09,2024-12-09,ＥＱＵＡＴＩＶ　ＪＡＰＡＮ株式会社,,株式会社,神奈川県,横浜市中区,吉田町７２番地サリュートビル８階島田＆アソシエイツ国際税理士事務所内,,14,104,2310041,,,,,,,2024-12-09,1,,,,,エクアティブジャパン,0
2238,9020001160502,新規,0,2024-12-09,2024-12-09,株式会社湘建ホールディングス,,株式会社,神奈川県,横浜市西区,みなとみらい３丁目６番１号,,14,103,2200012,,,,,,,2024-12-09,1,,,,,ショウケンホールディングス,0
2239,9020003027427,新規,0,2024-12-09,2024-12-09,合同会社ＲＮ,,合同会社,神奈川県,川崎市幸区,中幸町４丁目４６‐２０３,,14,132,2120012,,,,,,,2024-12-09,1,,,,,アールエヌ,0
2243,9021001083742,新規,0,2024-12-09,2024-12-09,株式会社曾屋都市開発,,株式会社,神奈川県,小田原市,飯田岡８３番地５,,14,206,2500854,,,,,,,2024-12-09,1,,,,,ソヤトシカイハツ,0
2245,9021003015289,新規,0,2024-12-09,2024-12-09,合同会社ＡＤＨＩＬ＆ＣＯ,,合同会社,神奈川県,愛甲郡愛川町,三増１５０７－３,,14,401,2430308,,,,,,,2024-12-09,1,,,,,,0
2246,9021003015297,新規,0,2024-12-09,2024-12-09,合同会社ブルーノ,,合同会社,神奈川県,相模原市南区,上鶴間本町６丁目３－１－５０４,,14,153,2520318,,,,,,,2024-12-09,1,,,,,ブルーノ,0
2247,9021003015322,新規,0,2024-12-09,2024-12-09,ＫＯＮＡＫＡ電設合同会社,,合同会社,神奈川県,秦野市,堀西４８番地の２シティハイツ渋沢２０３号,,14,211,2591331,,,,,,,2024-12-09,1,,,,,コナカデンセツ,0
2249,9030001163801,新規,0,2024-12-09,2024-12-09,株式会社Ｄｒｅａｍ　Ｐｌａｔｆｏｒｍ,,株式会社,埼玉県,さいたま市中央区,上落合２丁目１番２４号,,11,105,3380001,,,,,,,2024-12-09,1,,,,,ドリームプラットフォーム,0
2250,9030001163818,新規,0,2024-12-09,2024-12-09,株式会社富士管理サービス,,株式会社,埼玉県,入間郡毛呂山町,中央４丁目２２番地５１,,11,326,3500461,,,,,,,2024-12-09,1,,,,,フジカンリサービス,0
2251,9030001163842,新規,0,2024-12-09,2024-12-09,株式会社塚田建築所,,株式会社,埼玉県,入間郡越生町,大字小杉６４７番地１,,11,327,3500422,,,,,,,2024-12-09,1,,,,,ツカダケンチクショ,0
2256,9030005021971,新規,0,2024-12-09,2024-12-09,特定非営利活動法人川島町総合型地域スポーツクラブ,,その他の設立登記法人,埼玉県,比企郡川島町,大字下八ツ林９２３番地,,11,346,3500122,,,,,,,2024-12-09,1,,,,,カワジママチソウゴウガタチイキスポーツクラブ,0
2260,9040001136459,新規,0,2024-12-09,2024-12-09,ＳｉＯＹＮＡ株式会社,,株式会社,千葉県,市川市,塩焼４丁目１０番３棟２１８号,,12,203,2720114,,,,,,,2024-12-09,1,,,,,シオナ,0
2261,9040001136467,新規,0,2024-12-09,2024-12-09,株式会社ドメスパラ,,株式会社,千葉県,市原市,姉崎９７２番地,,12,219,2990111,,,,,,,2024-12-09,1,,,,,ドメスパラ,0
2262,9040001136500,新規,0,2024-12-09,2024-12-09,株式会社Ａｕｒｏｒｅ,,株式会社,千葉県,柏市,柏２丁目９番７号,,12,217,2770005,,,,,,,2024-12-09,1,,,,,オロル,0
2263,9040001136509,新規,0,2024-12-09,2024-12-09,株式会社千翔,,株式会社,千葉県,木更津市,羽鳥野６丁目２０番地１０ソレイユルヴァンＢ２０２,,12,206,2920819,,,,,,,2024-12-09,1,,,,,センカ,0
2269,9040003026336,新規,0,2024-12-09,2024-12-09,日本オートハブ合同会社,,合同会社,千葉県,山武市,大木５４９番地１,,12,237,2891211,,,,,,,2024-12-09,1,,,,,ニホンオートハブ,0
2270,9040003026344,新規,0,2024-12-09,2024-12-09,合同会社Ｅｔｏｉｌｅ,,合同会社,千葉県,船橋市,二和西５丁目６－２６,,12,204,2740806,,,,,,,2024-12-09,1,,,,,エトワール,0
2297,9120001270836,新規,0,2024-12-09,2024-12-09,株式会社ＯＲＥＳＳ大阪,,株式会社,大阪府,大阪市北区,梅田１丁目１３番１号大阪梅田ツインタワーズ・サウス１７階,,27,127,5300001,,,,,,,2024-12-09,1,,,,,オーレスオオサカ,0
2298,9120001270910,新規,0,2024-12-09,2024-12-09,株式会社ガジュマル,,株式会社,大阪府,大阪市天王寺区,四天王寺１丁目１番２－１４０１号,,27,109,5430051,,,,,,,2024-12-09,1,,,,,ガジュマル,0
2302,9120101070707,新規,0,2024-12-09,2024-12-09,株式会社ＢＲＡＶＥ,,株式会社,大阪府,羽曳野市,野２７６番地の６,,27,222,5830884,,,,,,,2024-12-09,1,,,,,ブレイブ,0
2303,9120101070715,新規,0,2024-12-09,2024-12-09,株式会社福家,,株式会社,大阪府,藤井寺市,林１丁目７番１１号,,27,226,5830007,,,,,,,2024-12-09,1,,,,,フクヤ,0
2306,9120105009940,新規,0,2024-12-09,2024-12-09,一般社団法人正久,,その他の設立登記法人,大阪府,堺市東区,北野田１０７７番地１２０３号,,27,143,5998123,,,,,,,2024-12-09,1,,,,,セイキュウ,0
2318,9130001078502,新規,0,2024-12-09,2024-12-09,るり溪ホールディングス株式会社,,株式会社,京都府,南丹市,園部町大河内深田１番地,,26,213,6220065,,,,,,,2024-12-09,1,,,,,ルリケイホールディングス,0
2319,9130001078551,新規,0,2024-12-09,2024-12-09,株式会社ＳＴＫベクセス,,株式会社,京都府,京都市山科区,川田清水焼団地町６番地２コーポきよみず１０４,,26,110,6078322,,,,,,,2024-12-09,1,,,,,エスティーケーベクセス,0
2322,9140001136531,新規,0,2024-12-09,2024-12-09,Ｕ．Ｋ　Ｔｒｕｓｔ株式会社,,株式会社,兵庫県,芦屋市,岩園町２８番２０号Ｂ２０２,,28,206,6590013,,,,,,,2024-12-09,1,,,,,ユーケートラスト,0
2323,9140001136671,新規,0,2024-12-09,2024-12-09,ＫＫＴ株式会社,,株式会社,兵庫県,姫路市,豊富町御蔭５００番地２,,28,201,6792122,,,,,,,2024-12-09,1,,,,,ケイケイティ,0
2330,9160001026400,新規,0,2024-12-09,2024-12-09,株式会社Ａｋａｒｉ,,株式会社,滋賀県,草津市,野路６丁目１６－８Ｎ’ｓＳＴＹＬＥ２、１０３号室,,25,206,5250059,,,,,,,2024-12-09,1,,,,,アカリ,0
2336,9180001164487,新規,0,2024-12-09,2024-12-09,株式会社セカンド,,株式会社,愛知県,名古屋市守山区,天子田１丁目１００３番地２０３号,,23,113,4630037,,,,,,,2024-12-09,1,,,,,セカンド,0
2337,9180001164504,新規,0,2024-12-09,2024-12-09,株式会社Ｏｆｆｉｃｅ　ＭＩＦ,,株式会社,愛知県,名古屋市名東区,藤が丘８番地,,23,115,4650032,,,,,,,2024-12-09,1,,,,,オフィスエムアイエフ,0
2354,9270001009096,新規,0,2024-12-09,2024-12-09,株式会社スマートエコー,,株式会社,鳥取県,米子市,天神町２丁目４８番地,,31,202,6830821,,,,,,,2024-12-09,1,,,,,スマートエコー,0
2360,9290001108210,新規,0,2024-12-09,2024-12-09,株式会社オオモリ,,株式会社,福岡県,福岡市東区,箱崎ふ頭５丁目１番１９号,,40,131,8120051,,,,,,,2024-12-09,1,,,,,オオモリ,0
2362,9290003016147,新規,0,2024-12-09,2024-12-09,合同会社ＹＫ,,合同会社,福岡県,福岡市中央区,薬院４丁目２番２８－６０５号,,40,133,8100022,,,,,,,2024-12-09,1,,,,,ワイケイ,0
2363,9290003016155,新規,0,2024-12-09,2024-12-09,合同会社ＮＯＡＨ,,合同会社,福岡県,福岡市南区,井尻２丁目３８番２２－２０３号,,40,134,8111302,,,,,,,2024-12-09,1,,,,,ノア,0
2364,9290801031108,新規,0,2024-12-09,2024-12-09,ＰＲＯＧＥＡＲ株式会社,,株式会社,福岡県,京都郡苅田町,新津４丁目８番地１３,,40,621,8000344,,,,,,,2024-12-09,1,,,,,プロギア,0
2373,9330001032711,新規,0,2024-12-09,2024-12-09,株式会社ＭＵ,,株式会社,熊本県,熊本市北区,植木町滴水１７５６番地１２,,43,105,8610133,,,,,,,2024-12-09,1,,,,,エムユー,0
2388,9380001034975,新規,0,2024-12-09,2024-12-09,株式会社山木林業サービス,,株式会社,福島県,いわき市,平下神谷字仲田１０メゾンドノエル２－Ａ,,07,204,9700101,,,,,,,2024-12-09,1,,,,,ヤマキリンギョウサービス,0
2396,9410003004015,新規,0,2024-12-09,2024-12-09,合同会社Ｋ,,合同会社,秋田県,湯沢市,愛宕町３丁目１０番６号,,05,207,0120855,,,,,,,2024-12-09,1,,,,,ケイ,0
2398,9420003003032,新規,0,2024-12-09,2024-12-09,合同会社ＴＹエンジニアリング,,合同会社,青森県,八戸市,大字大久保字下大久保１５番地１０,,02,203,0310833,,,,,,,2024-12-09,1,,,,,ティーワイエンジニアリング,0
2401,9430001093231,新規,0,2024-12-09,2024-12-09,株式会社エフケア,,株式会社,北海道,札幌市中央区,南十五条西６丁目３番１７－６０１号,,01,101,0640915,,,,,,,2024-12-09,1,,,,,エフケア,0
2406,9430003017056,新規,0,2024-12-09,2024-12-09,合同会社Ｐｉｏｎｅｅｒ,,合同会社,北海道,札幌市中央区,大通西１５丁目３－５－１００７,,01,101,0600042,,,,,,,2024-12-09,1,,,,,パイオニア,0
2407,9470001020495,新規,0,2024-12-09,2024-12-09,株式会社四国建装,,株式会社,香川県,高松市,香川町大野１２３８番地２,,37,201,7611701,,,,,,,2024-12-09,1,,,,,シコクケンソウ,0
2408,9480001012673,新規,0,2024-12-09,2024-12-09,株式会社ＥｖｏＤｖｏ　Ｔｅｃｈ,,株式会社,徳島県,徳島市,北矢三町４丁目３番３２－１号,,36,201,7700006,,,,,,,2024-12-09,1,,,,,エボデボテック,0
