sequenceNumber,corporateNumber,process,correct,updateDate,changeDate,name,nameImageId,kind,prefectureName,cityName,streetNumber,addressImageId,prefectureCode,cityCode,postCode,addressOutside,addressOutsideImageId,closeDate,closeCause,successorCorporateNumber,changeCause,assignmentDate,latest,enName,enPrefectureName,enCityName,enAddressOutside,furigana,hihyoji
6,1010002006308,登記記録の閉鎖等,0,2024-05-01,2024-04-17,有限会社ユーテイリテイ設計事務所,,有限会社,東京都,文京区,本郷３丁目４１番９号,,13,105,1130033,,,2024-04-17,清算の結了等,,,2015-10-05,1,,,,,ユーテイリテイセッケイジムショ,0
25,1010502017630,登記記録の閉鎖等,0,2024-05-01,2024-04-22,有限会社ソラボルジュエリー,,有限会社,東京都,台東区,台東４丁目８番９号,,13,106,1100016,,,2024-04-22,清算の結了等,,,2015-10-05,1,,,,,,0
31,1010801031828,登記記録の閉鎖等,0,2024-05-01,2024-04-23,ユーアイケンコウ株式会社,,株式会社,東京都,大田区,田園調布５丁目２－８,,13,111,1450071,,,2024-04-23,清算の結了等,,,2021-04-07,1,,,,,ユーアイケンコウ,0
36,1010903003510,登記記録の閉鎖等,0,2024-05-01,2024-04-22,合同会社ランドカルテ,,合同会社,東京都,世田谷区,上北沢３丁目３４番１７号,,13,112,1560057,,,2024-04-22,清算の結了等,,,2017-02-23,1,,,,,ランドカルテ,0
82,1021001070203,登記記録の閉鎖等,0,2024-05-01,2024-04-01,ＧＯＯＤ　ＷＡＶＥ株式会社,,株式会社,神奈川県,綾瀬市,小園９２３－１,,14,218,2521121,,,2024-04-01,合併による解散等,2021001027334,令和６年３月３１日神奈川県綾瀬市小園９２３番地の１株式会社向隆（2021001027334）に合併し解散,2020-06-29,1,,,,,グッドウェーブ,0
86,1021002001826,登記記録の閉鎖等,0,2024-05-01,2024-04-26,小菅動物病院有限会社,,有限会社,神奈川県,藤沢市,湘南台５丁目２６番地の３,,14,205,2520804,,,2024-04-26,清算の結了等,,,2015-10-05,1,,,,,コスゲドウブツビョウイン,0
132,1050002010149,登記記録の閉鎖等,0,2024-05-01,2024-04-25,有限会社サカモト,,有限会社,茨城県,笠間市,大字石井９４５番地,,08,216,3091600,,,2024-04-25,清算の結了等,,,2015-10-05,1,,,,,サカモト,0
141,1080002001723,登記記録の閉鎖等,0,2024-05-01,2024-04-23,有限会社串田製作所,,有限会社,静岡県,静岡市駿河区,登呂６丁目８番１８号,,22,102,4228033,,,2024-04-23,清算の結了等,,,2015-10-05,1,,,,,クシダセイサクジョ,0
149,1100002031668,登記記録の閉鎖等,0,2024-05-01,2024-04-12,有限会社ハチヤ木工,,有限会社,長野県,岡谷市,長地小萩２丁目８番４３号,,20,204,3940085,,,2024-04-12,清算の結了等,,,2015-10-05,1,,,,,ハチヤモッコウ,0
171,1120003016484,登記記録の閉鎖等,0,2024-05-01,2024-04-18,Ｖｉｖａｎｔ　Ｃｏｎｓｕｌｔｉｎｇ合同会社,,合同会社,大阪府,大阪市東住吉区,東田辺２丁目１７－１０,,27,121,5460032,,,2024-04-18,清算の結了等,,,2019-11-05,1,,,,,ヴィバンコンサルティング,0
205,1170002011309,登記記録の閉鎖等,0,2024-05-01,2024-04-26,有限会社文具センターツツ井,,有限会社,和歌山県,新宮市,伊佐田町２丁目１番地の１０,,30,207,6470012,,,2024-04-26,清算の結了等,,,2015-10-05,1,,,,,ブングセンターツツイ,0
207,1180001043905,登記記録の閉鎖等,0,2024-05-01,2024-04-01,株式会社清里中央オートキャンプ場,,株式会社,愛知県,名古屋市北区,若葉通１丁目３８番地,,23,103,4620854,,,2024-04-01,合併による解散等,9180001011920,令和６年４月１日名古屋市北区若葉通一丁目３８番地株式会社清里中央オートキャンプ場（9180001011920）に合併し解散,2015-10-05,1,,,,,キヨサトチュウオウオートキャンプジョウ,0
208,1180001048243,登記記録の閉鎖等,0,2024-05-01,2024-04-01,株式会社ケイエムコーポ,,株式会社,愛知県,名古屋市北区,若葉通１丁目３８番地,,23,103,4620854,,,2024-04-01,合併による解散等,9180001011920,令和６年４月１日名古屋市北区若葉通一丁目３８番地株式会社清里中央オートキャンプ場（9180001011920）に合併し解散,2015-10-05,1,,,,,ケイエムコーポ,0
217,1180002075716,登記記録の閉鎖等,0,2024-05-01,2024-04-19,有限会社一電,,有限会社,愛知県,一宮市,瀬部字流５１番地,,23,203,4910001,,,2024-04-19,清算の結了等,,,2015-10-05,1,,,,,イチデン,0
221,1180301008806,登記記録の閉鎖等,0,2024-05-01,2024-04-22,株式会社アウル,,株式会社,愛知県,豊橋市,曙町字測点１７６番地の５,00074504,23,201,4418151,,,2024-04-22,清算の結了等,,,2015-10-05,1,,,,,アウル,0
229,1200003005999,登記記録の閉鎖等,0,2024-05-01,2024-04-22,合同会社ＳＯＵＬＡＢＯ,,合同会社,岐阜県,山県市,徳永２０５番地１,,21,215,5012313,,,2024-04-22,清算の結了等,,,2023-06-29,1,,,,,ソウラボ,0
232,1230001002426,登記記録の閉鎖等,0,2024-05-01,2024-04-25,中村テント株式会社,,株式会社,富山県,富山市,清水町９丁目２番６号,,16,201,9300036,,,2024-04-25,清算の結了等,,,2015-10-05,1,,,,,ナカムラテント,0
236,1250001002770,登記記録の閉鎖等,0,2024-05-01,2024-04-26,株式会社ｔ‐プラン,,株式会社,山口県,防府市,新築地町２６番地の３,,35,206,7470824,,,2024-04-26,清算の結了等,,,2015-10-05,1,,,,,ティープラン,0
240,1260002016629,登記記録の閉鎖等,0,2024-05-01,2024-04-16,有限会社岩知道設備,,有限会社,岡山県,倉敷市,福田町浦田２３７８番地の２,,33,202,7128031,,,2024-04-16,清算の結了等,,,2015-10-05,1,,,,,イワチドウセツビ,0
253,1310002004454,登記記録の閉鎖等,0,2024-05-01,2024-04-25,林田プロパン有限会社,,有限会社,長崎県,長崎市,界２丁目４番１号,,42,201,8510122,,,2024-04-25,清算の結了等,,,2015-10-05,1,,,,,ハヤシダプロパン,0
258,1350002015431,登記記録の閉鎖等,0,2024-05-01,2024-04-23,有限会社山領組,,有限会社,宮崎県,北諸県郡三股町,大字宮村３５９１番地２,,45,341,8891912,,,2024-04-23,清算の結了等,,,2015-10-05,1,,,,,ヤマリョウグミ,0
278,1410001008875,登記記録の閉鎖等,0,2024-05-01,2024-04-01,株式会社トラストシール,,株式会社,秋田県,横手市,大雄字田根森東１０３番地５,,05,203,0130325,,,2024-04-01,合併による解散等,6410001013796,令和６年４月１日秋田県大仙市飯田字大道端１６番地有限会社羽後シール印刷（3410002011249）と合併して秋田県大仙市飯田字大道端１４番地２株式会社Ｔｏ‐Ｕｐ（6410001013796）を設立し解散,2015-10-05,1,,,,,トラストシール,0
283,1420005006131,登記記録の閉鎖等,0,2024-05-01,2024-04-01,上北町商工会,,その他の設立登記法人,青森県,上北郡東北町,上北南４丁目３２番地４８０,,02,408,0392405,,,2024-04-01,合併による解散等,5420005007893,令和６年４月１日青森県上北郡東北町字上笹橋１７番地２東北町商工会（8420005006133）と合併して青森県上北郡東北町上北南四丁目３２番地４８０東北町商工会（5420005007893）を設立し解散,2015-10-05,1,,,,,カミキタマチ,0
293,1500002012009,登記記録の閉鎖等,0,2024-05-01,2024-04-26,有限会社溜水園芸,,有限会社,愛媛県,喜多郡内子町,大瀬東２１６５番地,,38,422,7913363,,,2024-04-26,清算の結了等,,,2015-10-05,1,,,,,,0
294,1500005000729,登記記録の閉鎖等,0,2024-05-01,2024-04-26,医療法人玉貫耳鼻咽喉科,,その他の設立登記法人,愛媛県,松山市,越智２丁目５番７号,,38,201,7900933,,,2024-04-26,清算の結了等,,,2015-10-05,1,,,,,タマキジビインコウカ,0
298,2010001019235,登記記録の閉鎖等,0,2024-05-01,2024-04-16,株式会社ジャパンフアイナンス,,株式会社,東京都,千代田区,神田多町２丁目８番地１３,,13,101,1010046,,,2024-04-16,清算の結了等,,,2015-10-05,1,,,,,ジャパンファイナンス,0
300,2010001031066,登記記録の閉鎖等,0,2024-05-01,2024-04-16,株式会社山販,,株式会社,東京都,千代田区,神田須田町１丁目１６番地,,13,101,1010041,,,2024-04-16,清算の結了等,,,2015-10-05,1,,,,,ヤマハン,0
304,2010001192123,登記記録の閉鎖等,0,2024-05-01,2024-04-22,株式会社インエッセンス,,株式会社,東京都,新宿区,新宿１丁目３３－１０,,13,104,1600022,,,2024-04-22,清算の結了等,,,2018-06-29,1,,,,,インエッセンス,0
321,2010401117745,登記記録の閉鎖等,0,2024-05-01,2024-04-17,ＰＬＵＳ８１株式会社,,株式会社,東京都,豊島区,西池袋５丁目２５番２号ルーチェ要町Ｂ１階,,13,116,1710021,,,2024-04-17,清算の結了等,,,2015-10-05,1,,,,,プラスエイティーワン,0
323,2010401157964,登記記録の閉鎖等,0,2024-05-01,2024-04-11,株式会社ソウゾウ,,株式会社,東京都,港区,六本木６丁目１０番１号,,13,103,1060032,,,2024-04-11,合併による解散等,6010701027558,令和６年４月１日東京都港区六本木六丁目１０番１号株式会社メルカリ（6010701027558）に合併し解散,2021-02-04,1,,,,,ソウゾウ,0
334,2010705000960,登記記録の閉鎖等,0,2024-05-01,2024-04-12,一般社団法人日本臨床高気圧酸素・潜水医学会,,その他の設立登記法人,東京都,品川区,旗の台１丁目５番８号昭和大学医学部救急医学教室,,13,109,1420064,,,2024-04-12,合併による解散等,8010005010861,令和６年４月１日東京都文京区湯島一丁目５番４５号東京医科歯科大学病院高気圧治療部内一般社団法人日本高気圧環境・潜水医学会（8010005010861）に合併し解散,2015-10-05,1,,,,,ニホンリンショウコウキアツサンソセンスイイガクカイ,0
337,2010803004005,登記記録の閉鎖等,0,2024-05-01,2024-04-23,合同会社ＭＫＣ,,合同会社,東京都,大田区,山王３丁目９番２３号,,13,111,1430023,,,2024-04-23,清算の結了等,,,2022-01-11,1,,,,,エムケーシー,0
338,2010901022965,登記記録の閉鎖等,0,2024-05-01,2024-04-22,株式会社ビバックトランスポート,,株式会社,宮城県,仙台市宮城野区,中野４丁目１番地の３９,,04,102,9830013,,,2024-04-22,清算の結了等,,,2015-10-05,1,,,,,ビバックトランスポート,0
359,2011801027229,登記記録の閉鎖等,0,2024-05-01,2024-04-24,東亜デンキ株式会社,,株式会社,東京都,葛飾区,宝町２丁目４番７号,,13,122,1240005,,,2024-04-24,清算の結了等,,,2015-10-05,1,,,,,トウアデンキ,0
364,2012801016626,登記記録の閉鎖等,0,2024-05-01,2024-04-19,株式会社ＷＯＲＬＤ　ＲＥＦＬＥＣＴ,,株式会社,東京都,立川市,柴崎町２丁目１番６号,,13,202,1900023,,,2024-04-19,清算の結了等,,,2015-10-05,1,,,,,ワールドリフレクト,0
368,2013202002356,登記記録の閉鎖等,0,2024-05-01,2024-04-11,ケイエムジーエステート有限会社,,有限会社,東京都,目黒区,上目黒４丁目３５番７号,,13,110,1530051,,,2024-04-11,清算の結了等,,,2015-10-05,1,,,,,ケイエムジーエステート,0
380,2020001145063,登記記録の閉鎖等,0,2024-05-01,2024-04-22,株式会社スコーパ,,株式会社,神奈川県,横浜市瀬谷区,相沢３丁目４６番地２グリーンヒルハイツ２０５号,,14,114,2460013,,,2024-04-22,清算の結了等,,,2022-01-31,1,,,,,スコーパ,0
408,2040001066778,登記記録の閉鎖等,0,2024-05-01,2024-04-18,株式会社エムシーコミュニケーションズ,,株式会社,千葉県,我孫子市,緑２丁目７番４７号,,12,222,2701153,,,2024-04-18,清算の結了等,,,2015-10-05,1,,,,,エムシーコミュニケーションズ,0
434,2080101012802,登記記録の閉鎖等,0,2024-05-01,2024-04-25,株式会社日航亭,,株式会社,静岡県,熱海市,上宿町５番２６号,,22,205,4130018,,,2024-04-25,清算の結了等,,,2015-10-05,1,,,,,ニッコウテイ,0
436,2080402007567,登記記録の閉鎖等,0,2024-05-01,2024-04-25,有限会社松本基礎,,有限会社,静岡県,浜松市浜名区,滝沢町１７３２番地の１,,22,139,4312101,,,2024-04-25,清算の結了等,,,2015-10-05,1,,,,,マツモトキソ,0
445,2120001064286,登記記録の閉鎖等,0,2024-05-01,2024-04-12,ＳＫ管財株式会社,,株式会社,大阪府,大阪市淀川区,新北野１丁目１０番１９号,,27,123,5320025,,,2024-04-12,清算の結了等,,,2015-10-05,1,,,,,エスケーカンザイ,0
450,2120001212398,登記記録の閉鎖等,0,2024-05-01,2024-04-22,株式会社ナカイエ,,株式会社,大阪府,大阪市淀川区,野中南２丁目１１番５号,,27,123,5320022,,,2024-04-22,清算の結了等,,,2018-04-06,1,,,,,ナカイエ,0
451,2120001224187,登記記録の閉鎖等,0,2024-05-01,2024-04-24,株式会社アーキ,,株式会社,大阪府,大阪市東淀川区,北江口４丁目３番４０号,,27,114,5330002,,,2024-04-24,清算の結了等,,,2019-10-08,1,,,,,アーキ,0
465,2120105001103,登記記録の閉鎖等,0,2024-05-01,2024-04-11,天理教長立分教会,,その他の設立登記法人,大阪府,堺市堺区,五月町７番３０号,,27,141,5900031,,,2024-04-11,合併による解散等,3120105001110,令和６年４月１１日大阪府堺市堺区五月町１番７号天理教長堺分教会（3120105001110）に合併し解散,2015-10-05,1,,,,,テンリキョウチョウリツブンキョウカイ,0
467,2120905003067,登記記録の閉鎖等,0,2024-05-01,2024-04-24,弁理士法人山村特許事務所,,その他の設立登記法人,大阪府,茨木市,駅前３丁目２番２号晃永ビル,,27,211,5670888,,,2024-04-24,清算の結了等,,,2015-10-05,1,,,,,ヤマムラトッキョジムショ,0
477,2140003009816,登記記録の閉鎖等,0,2024-05-01,2024-04-26,合同会社沖廣屋,,合同会社,兵庫県,神戸市中央区,海岸通２８番地,,28,110,6500024,,,2024-04-26,清算の結了等,,,2015-10-05,1,,,,,オキヒロヤ,0
492,2180003007650,登記記録の閉鎖等,0,2024-05-01,2024-04-17,合資会社池下コンタクト,,合資会社,愛知県,名古屋市千種区,向陽町２丁目５番地の４,,23,101,4640062,,,2024-04-17,清算の結了等,,,2015-10-05,1,,,,,イケシタコンタクト,0
500,2220003002424,登記記録の閉鎖等,0,2024-05-01,2024-04-18,合同会社ＫＡＺＡＹＡＭＡ,,合同会社,石川県,金沢市,八日市出町４５９番地,,17,201,9218063,,,2024-04-18,清算の結了等,,,2018-05-08,1,,,,,カザヤマ,0
502,2240001056809,登記記録の閉鎖等,0,2024-05-01,2024-04-26,株式会社ＭＫ＆Ｙ,,株式会社,広島県,廿日市市,宮島口１丁目８番１４号,,34,213,7390411,,,2024-04-26,合併による解散等,7220001001497,令和６年４月１日石川県金沢市八日市三丁目６０４番地株式会社エムアンドケイ（7220001001497）に合併し解散,2020-10-21,1,,,,,エムケイアンドワイ,0
525,2330001030432,登記記録の閉鎖等,0,2024-05-01,2024-04-23,株式会社アシスト２,,株式会社,熊本県,八代郡氷川町,宮原５６６番地２,,43,468,8694602,,,2024-04-23,清算の結了等,,,2022-12-28,1,,,,,アシストツー,0
532,2350001014953,登記記録の閉鎖等,0,2024-05-01,2024-04-24,株式会社ＡＭＹ,,株式会社,宮崎県,宮崎市,大塚町天神後２６９８番地４,,45,201,8800951,,,2024-04-24,清算の結了等,,,2017-10-06,1,,,,,エーエムワイ,0
536,2370001008722,登記記録の閉鎖等,0,2024-05-01,2024-04-22,菅原保険リスクマネジメント株式会社,,株式会社,宮城県,仙台市青葉区,八幡４丁目１１番１１号,,04,101,9800871,,,2024-04-22,清算の結了等,,,2015-10-05,1,,,,,スガワラホケンリスクマネジメント,0
542,2380002020502,登記記録の閉鎖等,0,2024-05-01,2024-04-24,有限会社鈴木製作所,,有限会社,福島県,岩瀬郡鏡石町,深内町４６番地２,,07,342,9690401,,,2024-04-24,合併による解散等,6012401008524,令和６年４月１日東京都調布市国領町七丁目５２番地の９二見屋工業株式会社（6012401008524）に合併し解散,2015-10-05,1,,,,,スズキセイサクジョ,0
548,2410005001306,登記記録の閉鎖等,0,2024-05-01,2024-04-22,こまちタクシー企業組合,,その他の設立登記法人,秋田県,秋田市,寺内後城２２番２号,,05,201,0110906,,,2024-04-22,清算の結了等,,,2015-10-05,1,,,,,コマチタクシー,0
550,2430003012121,登記記録の閉鎖等,0,2024-05-01,2024-04-25,合同会社Ｎｅｘｔ　Ｌｉｆｅ,,合同会社,北海道,苫小牧市,啓北町１丁目１０番７号,,01,213,0530854,,,2024-04-25,清算の結了等,,,2020-11-06,1,,,,,ネクストライフ,0
569,3010002044768,登記記録の閉鎖等,0,2024-05-01,2024-04-18,有限会社吉田建築工房,,有限会社,千葉県,八千代市,八千代台北６丁目１番地３,,12,221,2760031,,,2024-04-18,清算の結了等,,,2015-10-05,1,,,,,,0
574,3010401084927,登記記録の閉鎖等,0,2024-05-01,2024-04-11,株式会社ＩＢＦＭ,,株式会社,東京都,目黒区,大橋２丁目２２番４７号,,13,110,1530044,,,2024-04-11,合併による解散等,4010401063145,令和６年３月３１日東京都目黒区大橋二丁目２２番４７号株式会社フランドル（4010401063145）に合併し解散,2015-10-05,1,,,,,アイビーエフエム,0
598,3011001137273,登記記録の閉鎖等,0,2024-05-01,2024-04-11,アファーマティブ・インベストメント・マネジメント・ジャパン株式会社,,株式会社,東京都,渋谷区,道玄坂１丁目１２番１号渋谷マークシティ,,13,113,1500043,,,2024-04-11,清算の結了等,,,2020-12-07,1,,,,,,0
612,3011401016135,登記記録の閉鎖等,0,2024-05-01,2024-04-22,株式会社サウンドボンズ,,株式会社,東京都,新宿区,新小川町４番１６ー１０２号,,13,104,1620814,,,2024-04-22,清算の結了等,,,2015-10-05,1,,,,,サウンドボンズ,0
615,3011402018774,登記記録の閉鎖等,0,2024-05-01,2024-04-22,有限会社ソーユーシステム,,有限会社,東京都,板橋区,大山西町５６番３号,,13,119,1730033,,,2024-04-22,清算の結了等,,,2015-10-05,1,,,,,ソーユーシステム,0
625,3012701002072,登記記録の閉鎖等,0,2024-05-01,2024-04-22,永和電設株式会社,,株式会社,東京都,西東京市,芝久保町４丁目２３番２０号,,13,229,1880014,,,2024-04-22,清算の結了等,,,2015-10-05,1,,,,,エイワデンセツ,0
660,3030002079333,登記記録の閉鎖等,0,2024-05-01,2024-04-25,有限会社クロス,,有限会社,埼玉県,川越市,砂新田５丁目２４番地１８,,11,201,3501137,,,2024-04-25,清算の結了等,,,2015-10-05,1,,,,,クロス,0
661,3030002097252,登記記録の閉鎖等,0,2024-05-01,2024-04-23,有限会社伊勢屋商店,,有限会社,埼玉県,比企郡小川町,大字大塚４６番地の１,,11,343,3550328,,,2024-04-23,清算の結了等,,,2015-10-05,1,,,,,イセヤショウテン,0
665,3040001080951,登記記録の閉鎖等,0,2024-05-01,2024-04-15,株式会社ＰＯＰ,,株式会社,千葉県,成田市,並木町１４５番地１２４,,12,211,2860045,,,2024-04-15,合併による解散等,5010001119197,令和６年４月１日東京都中央区日本橋３－１２－２朝日ビルヂング４Ｆ－Ｂ、ＳＯＵキッズケア株式会社（5010001119197）に合併し解散,2015-10-05,1,,,,,ピーオーピー,0
672,3040005018287,登記記録の閉鎖等,0,2024-05-01,2024-04-17,特定非営利活動法人Ｃｈａｎｋｕｓフォーラム,,その他の設立登記法人,千葉県,習志野市,香澄６丁目１４番４号,,12,216,2750022,,,2024-04-17,清算の結了等,,,2015-10-05,1,,,,,チャンクスフォーラム,0
677,3060001027348,登記記録の閉鎖等,0,2024-05-01,2024-04-23,株式会社バロン・ド・エム,,株式会社,栃木県,宇都宮市,東宿郷１丁目７番１号,,09,201,3210953,,,2024-04-23,清算の結了等,,,2015-10-05,1,,,,,バロンドエム,0
679,3070001027000,登記記録の閉鎖等,0,2024-05-01,2024-04-26,群馬環境マネジメント株式会社,,株式会社,群馬県,高崎市,貝沢町１３７０番地,,10,202,3700042,,,2024-04-26,清算の結了等,,,2015-10-05,1,,,,,グンマカンキョウマネジメント,0
698,3110001012344,登記記録の閉鎖等,0,2024-05-01,2024-04-22,株式会社晃照,,株式会社,新潟県,五泉市,論瀬５９０４番地５,,15,218,9591604,,,2024-04-22,清算の結了等,,,2015-10-05,1,,,,,コウショウ,0
706,3120001160811,登記記録の閉鎖等,0,2024-05-01,2024-04-30,Ｊ＆Ｔトレーディング株式会社,,株式会社,大阪府,大阪市中央区,安土町１丁目５番８号,,27,128,5410052,,,2024-04-30,清算の結了等,,,2015-10-05,1,,,,,ジェイアンドティトレーディング,0
738,3130005000905,登記記録の閉鎖等,0,2024-05-01,2024-04-15,金光教竹田教会,,その他の設立登記法人,京都府,京都市伏見区,竹田七瀬川町８６番地の１,00047998,26,109,6128422,,,2024-04-15,合併による解散等,2130005000914,令和６年４月１５日京都市下京区油小路通松原下ル樋口町２９６番地金光教平安教会（2130005000914）に合併し解散,2015-10-05,1,,,,,コンコウキョウタケダキョウカイ,0
744,3140001091872,登記記録の閉鎖等,0,2024-05-01,2024-04-25,株式会社福八,,株式会社,兵庫県,尼崎市,神田中通２丁目２７番２６号ＢＣ,,28,202,6600884,,,2024-04-25,合併による解散等,5140002011217,令和６年４月２５日兵庫県尼崎市北大物町７番１２－２０１号株式会社宏越商事（5140002011217）に合併し解散,2015-10-05,1,,,,,フクハチ,0
748,3140001124005,登記記録の閉鎖等,0,2024-05-01,2024-04-25,Ｐｈａｒｍｉｒａ株式会社,,株式会社,兵庫県,尼崎市,杭瀬寺島２丁目１番３号,,28,202,6600813,,,2024-04-25,合併による解散等,6120901040440,令和６年４月１日大阪府摂津市三島二丁目５番１号シオノギファーマ株式会社（6120901040440）に合併し解散,2021-11-30,1,,,,,ファーミラ,0
750,3140002057864,登記記録の閉鎖等,0,2024-05-01,2024-04-22,有限会社マコト食料品,,有限会社,兵庫県,西宮市,上鳴尾町１７番１９号,,28,204,6638186,,,2024-04-22,合併による解散等,1140002055614,令和６年４月１２日兵庫県西宮市芦原町４番１号株式会社池田マコト酒店（1140002055614）に合併し解散,2015-10-05,1,,,,,マコトショクリョウヒン,0
758,3160003001530,登記記録の閉鎖等,0,2024-05-01,2024-04-30,合同会社上岩,,合同会社,滋賀県,栗東市,中沢３丁目７番５０号,,25,208,5203025,,,2024-04-30,清算の結了等,,,2017-07-21,1,,,,,ウエイワ,0
762,3180001105703,登記記録の閉鎖等,0,2024-05-01,2024-04-19,株式会社ＳＮＫ保険事務所,,株式会社,愛知県,名古屋市緑区,池上台３丁目２０番地サンヴェール池上台３Ｃ号,,23,114,4580044,,,2024-04-19,清算の結了等,,,2015-10-05,1,,,,,エスエヌケイホケンジムショ,0
769,3180002027384,登記記録の閉鎖等,0,2024-05-01,2024-04-22,加藤組有限会社,,有限会社,愛知県,名古屋市中村区,烏森町６丁目１６８番地,,23,105,4530855,,,2024-04-22,清算の結了等,,,2015-10-05,1,,,,,カトウグミ,0
786,3220001009783,登記記録の閉鎖等,0,2024-05-01,2024-04-22,株式会社クレストホーム,,株式会社,石川県,金沢市,吉原町イ２０２番地,,17,201,9203114,,,2024-04-22,清算の結了等,,,2015-10-05,1,,,,,クレストホーム,0
791,3250001015283,登記記録の閉鎖等,0,2024-05-01,2024-04-25,株式会社ミズノメンテナンス,,株式会社,山口県,下関市,王喜本町５丁目４番１０号,,35,201,7501114,,,2024-04-25,清算の結了等,,,2015-10-05,1,,,,,,0
809,3330001015580,登記記録の閉鎖等,0,2024-05-01,2024-04-25,株式会社アクロス天草,,株式会社,熊本県,天草市,本渡町広瀬２１９番地６,,43,215,8630001,,,2024-04-25,清算の結了等,,,2015-10-05,1,,,,,アクロスアマクサ,0
817,3350003003672,登記記録の閉鎖等,0,2024-05-01,2024-04-24,合同会社ののかハウス,,合同会社,宮崎県,都城市,高崎町江平１３６０番地,,45,202,8894502,,,2024-04-24,清算の結了等,,,2020-09-18,1,,,,,ノノカハウス,0
824,3380002036340,登記記録の閉鎖等,0,2024-05-01,2024-04-22,三栄木材有限会社,,有限会社,福島県,いわき市,鹿島町下矢田字榎木内５番地の１,,07,204,9718132,,,2024-04-22,清算の結了等,,,2023-09-25,1,,,,,サンエイモクザイ,0
827,3410002011249,登記記録の閉鎖等,0,2024-05-01,2024-04-01,有限会社羽後シール印刷,,有限会社,秋田県,大仙市,飯田字大道端１６番地,,05,212,0140067,,,2024-04-01,合併による解散等,6410001013796,令和６年４月１日秋田県横手市大雄字田根森東１０３番地５株式会社トラストシール（1410001008875）と合併して秋田県大仙市飯田字大道端１４番地２株式会社Ｔｏ‐Ｕｐ（6410001013796）を設立し解散,2015-10-05,1,,,,,ウゴシールインサツ,0
842,3480002001169,登記記録の閉鎖等,0,2024-05-01,2024-04-26,有限会社クリエイト,,有限会社,徳島県,徳島市,国府町府中６７番地２,,36,201,7793122,,,2024-04-26,清算の結了等,,,2015-10-05,1,,,,,クリエイト,0
843,3480002008429,登記記録の閉鎖等,0,2024-05-01,2024-04-30,有限会社広瀬金物,,有限会社,徳島県,徳島市,南前川町４丁目４６番地７,,36,201,7700808,,,2024-04-30,清算の結了等,,,2015-10-05,1,,,,,ヒロセカナモノ,0
861,4010005027793,登記記録の閉鎖等,0,2024-05-01,2024-04-24,トゥエンティワン協同組合,,その他の設立登記法人,東京都,千代田区,岩本町１丁目３番８号,,13,101,1010032,,,2024-04-24,清算の結了等,,,2017-11-29,1,,,,,トゥエンティワン,0
871,4010503006217,登記記録の閉鎖等,0,2024-05-01,2024-04-10,Ｌｏｏｏｐ未来発電合同会社,,合同会社,東京都,港区,新橋４丁目１１番１号,,13,103,1050004,,,2024-04-10,合併による解散等,5010701035215,令和６年３月３１日東京都港区新橋四丁目１１番１号株式会社シェアリングエネルギー（5010701035215）に合併し解散,2021-04-05,1,,,,,ループミライハツデン,0
873,4010601031521,登記記録の閉鎖等,0,2024-05-01,2024-04-22,株式会社匠,,株式会社,東京都,江戸川区,平井６丁目１２番１８号,,13,123,1320035,,,2024-04-22,清算の結了等,,,2015-10-05,1,,,,,タクミ,0
875,4010701019409,登記記録の閉鎖等,0,2024-05-01,2024-04-22,株式会社ビバックレンタル,,株式会社,宮城県,仙台市宮城野区,中野４丁目１番地の３９,,04,102,9830013,,,2024-04-22,清算の結了等,,,2015-10-05,1,,,,,,0
884,4010901052085,登記記録の閉鎖等,0,2024-05-01,2024-04-22,ＮＦＴコンサルティング株式会社,,株式会社,東京都,世田谷区,野沢３丁目１７番５－３０１号,,13,112,1540003,,,2024-04-22,清算の結了等,,,2022-12-06,1,,,,,エヌエフティーコンサルティング,0
891,4011101076115,登記記録の閉鎖等,0,2024-05-01,2024-04-15,ＡＪＥＸ株式会社,,株式会社,東京都,渋谷区,幡ヶ谷１丁目３４番１４号,,13,113,1510072,,,2024-04-15,合併による解散等,7011101038252,令和６年４月１日東京都千代田区神田神保町一丁目１０５番地旭化成住宅建設株式会社（7011101038252）に合併し解散,2016-02-24,1,,,,,エイジェックス,0
898,4011301021507,登記記録の閉鎖等,0,2024-05-01,2024-04-22,株式会社ペイスタッフサービス,,株式会社,東京都,杉並区,高円寺南１丁目７番２１号,,13,115,1660003,,,2024-04-22,清算の結了等,,,2015-10-05,1,,,,,ペイスタッフサービス,0
899,4011303003651,登記記録の閉鎖等,0,2024-05-01,2024-04-22,ｐｒｏｍ合同会社,,合同会社,東京都,杉並区,松庵２丁目１８番２０号ローレルコート杉並松庵３０５,,13,115,1670054,,,2024-04-22,清算の結了等,,,2020-05-28,1,,,,,プロム,0
907,4011501023815,登記記録の閉鎖等,0,2024-05-01,2024-04-24,Ｂ－ＳＴＡＲ株式会社,,株式会社,東京都,台東区,入谷１丁目２７番５号,,13,106,1100013,,,2024-04-24,清算の結了等,,,2018-06-19,1,,,,,ビースター,0
914,4012402017146,登記記録の閉鎖等,0,2024-05-01,2024-04-25,有限会社タイズコーポレーション,,有限会社,東京都,武蔵野市,関前２丁目１１番３号,,13,203,1800014,,,2024-04-25,清算の結了等,,,2015-10-05,1,,,,,タイズコーポレーション,0
915,4012701011873,登記記録の閉鎖等,0,2024-05-01,2024-04-23,株式会社サンデイ,,株式会社,東京都,西東京市,泉町５丁目５番１３号,,13,229,2020011,,,2024-04-23,清算の結了等,,,2015-10-05,1,,,,,サンデイ,0
923,4020001078212,登記記録の閉鎖等,0,2024-05-01,2024-04-22,リソー株式会社,,株式会社,神奈川県,川崎市幸区,北加瀬２丁目１番２１－２０１号,,14,132,2120057,,,2024-04-22,清算の結了等,,,2015-10-05,1,,,,,リソー,0
940,4021002014866,登記記録の閉鎖等,0,2024-05-01,2024-04-26,有限会社湘南出版センター,,有限会社,神奈川県,鎌倉市,寺分２丁目３０番８号,,14,204,2470064,,,2024-04-26,清算の結了等,,,2015-10-05,1,,,,,ショウナンシュッパンセンター,0
946,4030001146141,登記記録の閉鎖等,0,2024-05-01,2024-04-23,株式会社システムＳ,,株式会社,埼玉県,鴻巣市,原馬室２４２４番地６,,11,217,3650043,,,2024-04-23,清算の結了等,,,2022-01-05,1,,,,,システムエス,0
951,4030005003297,登記記録の閉鎖等,0,2024-05-01,2024-04-23,一般社団法人埼玉いえ・まち再生会議,,その他の設立登記法人,埼玉県,さいたま市南区,大字広ヶ谷戸５４８番地,,11,108,3360041,,,2024-04-23,清算の結了等,,,2015-10-05,1,,,,,サイタマイエマチサイセイカイギ,0
965,4070001003462,登記記録の閉鎖等,0,2024-05-01,2024-04-05,力丸流通サービス株式会社,,株式会社,群馬県,前橋市,力丸町２２１番地,,10,201,3792134,,,2024-04-05,合併による解散等,4070001002844,令和６年４月１日群馬県前橋市力丸町４９１番地１株式会社フレッセイ（4070001002844）に合併し解散,2015-10-05,1,,,,,リキマルリュウツウサービス,0
986,4110002009660,登記記録の閉鎖等,0,2024-05-01,2024-04-24,有限会社土田洋服店,,有限会社,新潟県,新潟市秋葉区,新津本町２丁目３番１１号,,15,105,9560864,,,2024-04-24,清算の結了等,,,2015-10-05,1,,,,,ツチダヨウフクテン,0
1008,4120901013373,登記記録の閉鎖等,0,2024-05-01,2024-04-26,株式会社Ｍ・Ｔ技研,,株式会社,大阪府,吹田市,広芝町７番３０号,,27,205,5640052,,,2024-04-26,合併による解散等,3010001062242,令和６年４月１日東京都千代田区麹町五丁目７番地２ベルテクス株式会社（3010001062242）に合併し解散,2015-10-05,1,,,,,エムティーギケン,0
1016,4130001029138,登記記録の閉鎖等,0,2024-05-01,2024-04-30,株式会社近畿陸運,,株式会社,京都府,京都市伏見区,横大路六反畑８番地２２,,26,109,6128255,,,2024-04-30,清算の結了等,,,2015-10-05,1,,,,,キンキリクウン,0
1022,4130001067179,登記記録の閉鎖等,0,2024-05-01,2024-04-26,株式会社クリアトップ,,株式会社,京都府,京都市右京区,西京極新明町７番地３,,26,108,6150864,,,2024-04-26,清算の結了等,,,2020-07-10,1,,,,,,0
1026,4140001024963,登記記録の閉鎖等,0,2024-05-01,2024-04-22,株式会社Ｂｒｉｌｌｉａｎｔ　Ｗａｙｓ,,株式会社,兵庫県,神戸市中央区,海岸通２丁目２番３号サンエービル５０１号,,28,110,6500024,,,2024-04-22,清算の結了等,,,2015-10-05,1,,,,,ブリリアントウエイズ,0
1027,4140001044318,登記記録の閉鎖等,0,2024-05-01,2024-04-26,菱工株式会社,,株式会社,兵庫県,高砂市,高砂町栄町１０５番地,,28,216,6760038,,,2024-04-26,合併による解散等,6420001006320,令和６年４月１日青森県八戸市大字河原木字青森谷地３番地三菱製紙エンジニアリング株式会社（6420001006320）に合併し解散,2015-10-05,1,,,,,リョウコウ,0
1039,4180001024448,登記記録の閉鎖等,0,2024-05-01,2024-04-18,ヤマト産業株式会社,,株式会社,愛知県,名古屋市熱田区,西野町２丁目５４番地,,23,109,4560063,,,2024-04-18,清算の結了等,,,2015-10-05,1,,,,,ヤマトサンギョウ,0
1061,4220001018461,登記記録の閉鎖等,0,2024-05-01,2024-04-19,株式会社ハナワールド,,株式会社,石川県,金沢市,諸江町２８番１号,,17,201,9200014,,,2024-04-19,清算の結了等,,,2015-10-05,1,,,,,ハナワールド,0
1062,4220002007835,登記記録の閉鎖等,0,2024-05-01,2024-04-22,有限会社文真堂,,有限会社,石川県,金沢市,尾張町２丁目１１番２８号,,17,201,9200902,,,2024-04-22,清算の結了等,,,2015-10-05,1,,,,,ブンシンドウ,0
1068,4250001002058,登記記録の閉鎖等,0,2024-05-01,2024-04-30,株式会社たからや,,株式会社,山口県,防府市,八王子１丁目１３番２７号,,35,206,7470037,,,2024-04-30,清算の結了等,,,2015-10-05,1,,,,,タカラヤ,0
1074,4260002000167,登記記録の閉鎖等,0,2024-05-01,2024-04-17,有限会社エーネット,,有限会社,岡山県,岡山市北区,駅元町２３番９号,,33,101,7000024,,,2024-04-17,清算の結了等,,,2015-10-05,1,,,,,エーネット,0
1078,4290001072766,登記記録の閉鎖等,0,2024-05-01,2024-04-03,株式会社ブラバント,,株式会社,福岡県,福岡市東区,千早６丁目６番１６号,,40,131,8130044,,,2024-04-03,清算の結了等,,,2016-02-04,1,,,,,ブラバント,0
1084,4290801003887,登記記録の閉鎖等,0,2024-05-01,2024-04-12,株式会社ワイズヨシハラ,,株式会社,福岡県,北九州市小倉北区,西港町８８番地１１,,40,106,8030801,,,2024-04-12,合併による解散等,5470001003017,令和６年４月１日香川県高松市円座町５７１番地コベルコ建機トータルサポート株式会社（5470001003017）に合併し解散,2015-10-05,1,,,,,ワイズヨシハラ,0
1096,4330001017790,登記記録の閉鎖等,0,2024-05-01,2024-04-24,株式会社ヒカル電設,,株式会社,熊本県,玉名市,中５３６番地１,,43,206,8650064,,,2024-04-24,清算の結了等,,,2015-10-05,1,,,,,ヒカルデンセツ,0
1097,4330002029769,登記記録の閉鎖等,0,2024-05-01,2024-04-25,有限会社マルコ水産養殖場,,有限会社,熊本県,上天草市,大矢野町維和２４２番地,,43,212,8693604,,,2024-04-25,清算の結了等,,,2015-10-05,1,,,,,マルコスイサンヨウショクジョウ,0
1098,4330005007598,登記記録の閉鎖等,0,2024-05-01,2024-04-01,球磨畜産農業協同組合,,その他の設立登記法人,熊本県,球磨郡錦町,大字一武１５４６番地,,43,501,8680302,,,2024-04-01,合併による解散等,2330005000761,令和６年４月１日熊本市東区桜木六丁目３番５４号熊本県畜産農業協同組合（2330005000761）に合併し解散,2015-10-05,1,,,,,クマチクサン,0
1102,4370002012382,登記記録の閉鎖等,0,2024-05-01,2024-04-22,有限会社ティティコーポレーション,,有限会社,宮城県,仙台市青葉区,二日町１６番２０号二日町ホームプラザ８０１号,,04,101,9800802,,,2024-04-22,清算の結了等,,,2015-10-05,1,,,,,,0
1113,4430003011030,登記記録の閉鎖等,0,2024-05-01,2024-04-22,合同会社札幌タウンコーチ,,合同会社,北海道,札幌市南区,真駒内柏丘１０丁目２番１－４０３号,,01,106,0050022,,,2024-04-22,清算の結了等,,,2019-12-02,1,,,,,サッポロタウンコーチ,0
1116,4460101005575,登記記録の閉鎖等,0,2024-05-01,2024-04-25,株式会社ＴＲＡＮＳ,,株式会社,北海道,帯広市,西五条南２４丁目１７番地,,01,207,0800015,,,2024-04-25,清算の結了等,,,2015-10-05,1,,,,,,0
1124,4700150008000,登記記録の閉鎖等,0,2024-05-01,2023-10-20,ラディアントピクチャーズインク,,外国会社等,東京都,世田谷区,深沢２丁目１２－１,,13,112,1580081,アメリカ合衆国カリフォルニア州９００４６ロスアンジェルス、メルローズ通り７２５０番地＃６,,2023-10-20,その他の清算の結了等,,,2015-10-09,1,,,,,ラデイアントピクチヤーズインク,0
1126,5010001076810,登記記録の閉鎖等,0,2024-05-01,2024-04-11,アイ・ネット・リリー・コーポレーション株式会社,,株式会社,東京都,中央区,日本橋箱崎町１番１３号,,13,102,1030015,,,2024-04-11,合併による解散等,5011501015290,令和６年４月１日東京都荒川区東日暮里五丁目７番１８号デジタルテクノロジー株式会社（5011501015290）に合併し解散,2015-10-05,1,,,,,アイネットリリーコーポレーション,0
1132,5010001165720,登記記録の閉鎖等,0,2024-05-01,2024-04-16,株式会社ＭＪ　ＢＲＩＤＧＥ,,株式会社,東京都,千代田区,外神田３丁目１６番１４号,,13,101,1010021,,,2024-04-16,清算の結了等,,,2015-10-05,1,,,,,エムジェイブリッジ,0
1141,5010002034528,登記記録の閉鎖等,0,2024-05-01,2024-04-22,有限会社大吾,,有限会社,東京都,江東区,豊洲６丁目５番１号,,13,108,1350061,,,2024-04-22,清算の結了等,,,2015-10-05,1,,,,,ダイゴ,0
1142,5010003025476,登記記録の閉鎖等,0,2024-05-01,2024-04-16,ＡＫＡ　Ｈｏｓｐｉｔａｌｉｔｙ合同会社,,合同会社,東京都,中央区,銀座２丁目１２－５銀座ＮＦビル４Ｆ,,13,102,1040061,,,2024-04-16,清算の結了等,,,2017-06-13,1,,,,,エーケーエーホスピタリティ,0
1148,5010401152203,登記記録の閉鎖等,0,2024-05-01,2024-04-11,ＭｅｅＴｒｕｃｋ株式会社,,株式会社,東京都,港区,海岸１丁目７番１号,,13,103,1050022,,,2024-04-11,清算の結了等,,,2020-04-13,1,,,,,ミートラック,0
1159,5010601050025,登記記録の閉鎖等,0,2024-05-01,2024-04-22,株式会社ゴールドタイガー運送,,株式会社,東京都,墨田区,押上３丁目１５番１４号,,13,107,1310045,,,2024-04-22,清算の結了等,,,2016-07-12,1,,,,,,0
1193,5012402017665,登記記録の閉鎖等,0,2024-05-01,2024-04-25,有限会社フチタキン,,有限会社,東京都,武蔵野市,吉祥寺本町１丁目４番１５号ホワイトハウスビル４階,,13,203,1800004,,,2024-04-25,清算の結了等,,,2015-10-05,1,,,,,フチタキン,0
1199,5013202006305,登記記録の閉鎖等,0,2024-05-01,2024-04-19,有限会社ムサシビジネス,,有限会社,神奈川県,横浜市西区,平沼１丁目４０番１１－９１４号,,14,103,2200023,,,2024-04-19,清算の結了等,,,2015-10-05,1,,,,,ムサシビジネス,0
1200,5013301020264,登記記録の閉鎖等,0,2024-05-01,2024-04-17,ＱＪ株式会社,,株式会社,東京都,豊島区,東池袋１丁目２２番５号,,13,116,1700013,,,2024-04-17,清算の結了等,,,2015-10-05,1,,,,,キュウジェイ,0
1207,5020001148971,登記記録の閉鎖等,0,2024-05-01,2024-04-08,株式会社ＬＩＢＥＲＴＥ,,株式会社,神奈川県,川崎市多摩区,登戸７７２クレールメゾンＡ２０３,,14,135,2140014,,,2024-04-08,清算の結了等,,,2022-11-11,1,,,,,リベルテ,0
1215,5030001042546,登記記録の閉鎖等,0,2024-05-01,2024-04-23,日本アシスト株式会社,,株式会社,埼玉県,桶川市,東２丁目１４番６号,,11,231,3630013,,,2024-04-23,清算の結了等,,,2015-10-05,1,,,,,ニホンアシスト,0
1230,5030002118907,登記記録の閉鎖等,0,2024-05-01,2024-04-23,有限会社ショップラプター,,有限会社,埼玉県,深谷市,本田３３４５番地１１,,11,218,3691105,,,2024-04-23,清算の結了等,,,2015-10-05,1,,,,,ショップラプター,0
1231,5040001113610,登記記録の閉鎖等,0,2024-05-01,2024-04-18,株式会社日森商事,,株式会社,千葉県,野田市,上花輪１３５１番地１１,,12,208,2780033,,,2024-04-18,清算の結了等,,,2020-05-13,1,,,,,ニチシンショウジ,0
1244,5070001020102,登記記録の閉鎖等,0,2024-05-01,2024-04-12,株式会社プロシード,,株式会社,群馬県,太田市,東新町５１０番地４,,10,205,3730015,,,2024-04-12,合併による解散等,3410001012891,令和６年４月１日秋田県秋田市河辺戸島字七曲台１２０番地１０２第一電材エレクトロニクス株式会社（3410001012891）に合併し解散,2015-10-05,1,,,,,,0
1248,5070005006824,登記記録の閉鎖等,0,2024-05-01,2024-04-26,農事組合法人生活スパイス東日本,,その他の設立登記法人,群馬県,太田市,大久保町３１１番地,,10,205,3792306,,,2024-04-26,清算の結了等,,,2015-10-05,1,,,,,セイカツスパイスヒガシニホン,0
1267,5120001101920,登記記録の閉鎖等,0,2024-05-01,2024-04-23,ヨシモトサッシ工業株式会社,,株式会社,大阪府,大阪市西区,西本町１丁目５番１号,,27,106,5500005,,,2024-04-23,清算の結了等,,,2015-10-05,1,,,,,ヨシモトサッシコウギョウ,0
1268,5120001162392,登記記録の閉鎖等,0,2024-05-01,2024-04-23,株式会社リモデル電化,,株式会社,大阪府,大阪市東淀川区,東淡路１丁目５番５１号,,27,114,5330023,,,2024-04-23,清算の結了等,,,2015-10-05,1,,,,,リモデルデンカ,0
1273,5120001211348,登記記録の閉鎖等,0,2024-05-01,2024-04-25,日楽株式会社,,株式会社,大阪府,大阪市天王寺区,上本町８丁目９番２３号,,27,109,5430001,,,2024-04-25,清算の結了等,,,2018-02-15,1,,,,,ヒラク,0
1302,5140001118228,登記記録の閉鎖等,0,2024-05-01,2024-04-23,松岡福祉事業株式会社,,株式会社,兵庫県,姫路市,北平野南の町１６番２２号シャルマンＳ＆Ｔ１０２号,,28,201,6700887,,,2024-04-23,清算の結了等,,,2020-08-05,1,,,,,マツオカフクシジギョウ,0
1311,5160001000516,登記記録の閉鎖等,0,2024-05-01,2024-04-26,株式会社関西水資源管理サービス,,株式会社,滋賀県,大津市,日吉台１丁目１０番１号,,25,201,5200112,,,2024-04-26,清算の結了等,,,2015-10-05,1,,,,,カンサイミズシゲンカンリサービス,0
1312,5160001004500,登記記録の閉鎖等,0,2024-05-01,2024-04-26,株式会社ｅｃｏワールド・ジャパン,,株式会社,京都府,京都市左京区,北白川下池田町７９番地１（３階）,,26,103,6068284,,,2024-04-26,清算の結了等,,,2015-10-05,1,,,,,エコワールドジャパン,0
1314,5160003001958,登記記録の閉鎖等,0,2024-05-01,2024-04-30,合同会社伊藤工業,,合同会社,滋賀県,大津市,大平２丁目２７番１０号,,25,201,5200867,,,2024-04-30,清算の結了等,,,2019-12-16,1,,,,,イトウコウギョウ,0
1315,5160005000470,登記記録の閉鎖等,0,2024-05-01,2024-04-05,滋賀大学大津地区生活協同組合,,その他の設立登記法人,滋賀県,大津市,平津２丁目５番１号滋賀大学構内,,25,201,5200862,,,2024-04-05,合併による解散等,2160005004994,令和６年３月２８日滋賀県彦根市馬場一丁目１番１号滋賀大学構内滋賀大学生活協同組合（2160005004994）に合併し解散,2015-10-05,1,,,,,シガダイガクオオツチク,0
1319,5180001040733,登記記録の閉鎖等,0,2024-05-01,2024-04-22,丸の内システムサービス株式会社,,株式会社,愛知県,名古屋市北区,柳原４丁目４番１８号,,23,103,4620845,,,2024-04-22,清算の結了等,,,2015-10-05,1,,,,,マルノウチシステムサービス,0
1325,5180001121418,登記記録の閉鎖等,0,2024-05-01,2024-04-19,株式会社ウェルフェア,,株式会社,愛知県,愛西市,北河田町郷前３５０番地３,,23,232,4968008,,,2024-04-19,清算の結了等,,,2015-12-21,1,,,,,ウェルフェア,0
1332,5180002070119,登記記録の閉鎖等,0,2024-05-01,2024-04-22,有限会社山信製作所,,有限会社,愛知県,小牧市,新町３丁目５６番地,,23,219,4850013,,,2024-04-22,清算の結了等,,,2015-10-05,1,,,,,ヤマシンセイサクショ,0
1340,5200002018924,登記記録の閉鎖等,0,2024-05-01,2024-04-30,有限会社塚原組,,有限会社,岐阜県,関市,山田９４７番地の１,,21,205,5013944,,,2024-04-30,清算の結了等,,,2015-10-05,1,,,,,,0
1341,5200003001086,登記記録の閉鎖等,0,2024-05-01,2024-04-30,合資会社折忠,,合資会社,岐阜県,各務原市,那加西那加町１７番地,,21,213,5040952,,,2024-04-30,清算の結了等,,,2015-10-05,1,,,,,オリチュウ,0
1345,5210002011622,登記記録の閉鎖等,0,2024-05-01,2024-04-25,有限会社ケィ・ティ・ブレーン,,有限会社,福井県,越前市,芝原３丁目５番４２号,,18,209,9150805,,,2024-04-25,清算の結了等,,,2015-10-05,1,,,,,ケィティブレーン,0
1348,5240005010420,登記記録の閉鎖等,0,2024-05-01,2024-04-11,天理教堀廣分教会,,その他の設立登記法人,広島県,竹原市,下野町１８７９番地,,34,203,7250012,,,2024-04-11,合併による解散等,6120005000465,令和６年４月１０日大阪市港区南市岡二丁目８番２０号天理教堀西分教会（6120005000465）に合併し解散,2015-10-05,1,,,,,テンリキョウホリヒロブンキョウカイ,0
1350,5260001003715,登記記録の閉鎖等,0,2024-05-01,2024-04-17,瀬戸内物産株式会社,,株式会社,岡山県,岡山市中区,土田２６７番地の１,,33,102,7038217,,,2024-04-17,清算の結了等,,,2015-10-05,1,,,,,セトウチブッサン,0
1362,5290002056180,登記記録の閉鎖等,0,2024-05-01,2024-04-03,有限会社サカ建工業,,有限会社,福岡県,大牟田市,大字吉野６９８番地,,40,202,8370904,,,2024-04-03,清算の結了等,,,2015-10-05,1,,,,,サカケンコウギョウ,0
1370,5340003001386,登記記録の閉鎖等,0,2024-05-01,2024-04-24,合同会社ののか,,合同会社,鹿児島県,鹿児島市,明和２丁目３３番１４号,,46,201,8900024,,,2024-04-24,清算の結了等,,,2015-10-05,1,,,,,ノノカ,0
1372,5340005005071,登記記録の閉鎖等,0,2024-05-01,2024-04-23,特定非営利活動法人小さな命も守ろう会,,その他の設立登記法人,鹿児島県,鹿児島市,吉野町２１１９番地の２,,46,201,8920871,,,2024-04-23,清算の結了等,,,2015-10-05,1,,,,,チイサナイノチモマモロウカイ,0
1373,5350001008589,登記記録の閉鎖等,0,2024-05-01,2024-04-23,株式会社藤野商店,,株式会社,宮崎県,都城市,都北町７４６３番地１,,45,202,8850004,,,2024-04-23,清算の結了等,,,2015-10-05,1,,,,,フジノショウテン,0
1378,5350002007078,登記記録の閉鎖等,0,2024-05-01,2024-04-26,有限会社黒木木材,,有限会社,宮崎県,東諸県郡国富町,大字八代北俣２１３３番地８,,45,382,8801222,,,2024-04-26,清算の結了等,,,2015-10-05,1,,,,,クロキモクザイ,0
1382,5370302003155,登記記録の閉鎖等,0,2024-05-01,2024-04-22,オフィス・クサカ有限会社,,有限会社,宮城県,石巻市,羽黒町２丁目６番３１号,,04,202,9860831,,,2024-04-22,清算の結了等,,,2015-10-05,1,,,,,オフィスクサカ,0
1388,5380001030763,登記記録の閉鎖等,0,2024-05-01,2024-04-24,志賀物産管理株式会社,,株式会社,福島県,双葉郡広野町,大字下北迫字新町１１番地,,07,541,9790402,,,2024-04-24,清算の結了等,,,2020-03-12,1,,,,,シガブッサンカンリ,0
1394,5400001014425,登記記録の閉鎖等,0,2024-05-01,2024-04-17,株式会社ティートラスト,,株式会社,岩手県,北上市,上江釣子１９地割５番地１フィレンツェＩ－３０１号,00119088,03,206,0240071,,,2024-04-17,清算の結了等,,,2018-12-07,1,,,,,,0
1413,5480001004906,登記記録の閉鎖等,0,2024-05-01,2024-04-26,ＮＸ阿波合同株式会社,,株式会社,徳島県,徳島市,東沖洲２丁目６０番地,,36,201,7700873,,,2024-04-26,清算の結了等,,,2015-10-05,1,,,,,エヌエックスアワゴウドウ,0
1457,6010901038875,登記記録の閉鎖等,0,2024-05-01,2024-04-25,荏原交通株式会社,,株式会社,東京都,世田谷区,玉堤１丁目７番２０号,,13,112,1580087,,,2024-04-25,合併による解散等,8010701015412,令和６年４月１日東京都品川区荏原六丁目１２番１２号荏原交通株式会社（8010701015412）に合併し解散,2016-10-06,1,,,,,,0
1460,6011001138500,登記記録の閉鎖等,0,2024-05-01,2024-04-11,株式会社ＬｉＬｙ,,株式会社,東京都,目黒区,上目黒１丁目２６番１,,13,110,1530051,,,2024-04-11,清算の結了等,,,2021-02-16,1,,,,,リリー,0
1471,6011201003198,登記記録の閉鎖等,0,2024-05-01,2024-04-30,竹本金属株式会社,,株式会社,東京都,中野区,南台２丁目２９番８号,,13,114,1640014,,,2024-04-30,清算の結了等,,,2015-10-05,1,,,,,タケモトキンゾク,0
1481,6013301019603,登記記録の閉鎖等,0,2024-05-01,2024-04-17,株式会社創作社エス・ディー・シー,,株式会社,東京都,豊島区,高田３丁目１９番２号,,13,116,1710033,,,2024-04-17,清算の結了等,,,2015-10-05,1,,,,,ソウサクシャエスディーシー,0
1485,6020001018199,登記記録の閉鎖等,0,2024-05-01,2024-04-18,東南総業株式会社,,株式会社,神奈川県,横浜市鶴見区,生麦５丁目８番８号,,14,101,2300052,,,2024-04-18,清算の結了等,,,2015-10-05,1,,,,,トウナンソウギョウ,0
1492,6020002024642,登記記録の閉鎖等,0,2024-05-01,2024-04-22,有限会社ヒューマンデンタル,,有限会社,神奈川県,横浜市保土ケ谷区,桜ケ丘１丁目３０番１５号,,14,106,2400011,,,2024-04-22,清算の結了等,,,2015-10-05,1,,,,,ヒューマンデンタル,0
1497,6030001047627,登記記録の閉鎖等,0,2024-05-01,2024-04-24,株式会社元町シティー,,株式会社,埼玉県,富士見市,西みずほ台３丁目３番１０号,,11,235,3540018,,,2024-04-24,清算の結了等,,,2015-10-05,1,,,,,モトマチシティー,0
1509,6030002112834,登記記録の閉鎖等,0,2024-05-01,2024-04-22,栄明住宅有限会社,,有限会社,埼玉県,熊谷市,桜町１丁目１番１５号,,11,202,3600814,,,2024-04-22,清算の結了等,,,2015-10-05,1,,,,,エイメイジュウタク,0
1522,6040002087935,登記記録の閉鎖等,0,2024-05-01,2024-04-18,有限会社佐藤製作所,,有限会社,千葉県,香取郡東庄町,東今泉２３１９番地の１,,12,349,2890613,,,2024-04-18,清算の結了等,,,2015-10-05,1,,,,,サトウセイサクショ,0
1524,6040003017395,登記記録の閉鎖等,0,2024-05-01,2024-04-16,合同会社おりーぶ,,合同会社,千葉県,八千代市,村上１１１３番地１、１街区２棟２０４号,,12,221,2760028,,,2024-04-16,清算の結了等,,,2021-04-02,1,,,,,オリーブ,0
1557,6120001171962,登記記録の閉鎖等,0,2024-05-01,2024-04-02,株式会社Ｐｒｅｃｉｏｕｓ,,株式会社,福岡県,福岡市博多区,博多駅東２丁目４番３０号いわきビル２０１,,40,132,8120013,,,2024-04-02,清算の結了等,,,2015-10-05,1,,,,,プレシャス,0
1570,6120005007642,登記記録の閉鎖等,0,2024-05-01,2024-04-15,医療法人拓海会,,その他の設立登記法人,大阪府,大阪市淀川区,西宮原１丁目８番２４号,,27,123,5320004,,,2024-04-15,合併による解散等,7180005005409,令和６年４月１日名古屋市千種区谷口町４番５号プレステージ千種七番館内１階医療法人社団西日本平郁会（7180005005409）に合併し解散,2015-10-05,1,,,,,タクミカイ,0
1573,6120101028848,登記記録の閉鎖等,0,2024-05-01,2024-04-23,株式会社創期,,株式会社,大阪府,堺市西区,浜寺昭和町２丁３１９番地,,27,144,5928345,,,2024-04-23,清算の結了等,,,2015-10-05,1,,,,,ソウキ,0
1588,6130001075452,登記記録の閉鎖等,0,2024-05-01,2024-04-26,株式会社Ｋ．王道,,株式会社,京都府,相楽郡精華町,精華台１丁目６番地１,,26,366,6190238,,,2024-04-26,清算の結了等,,,2023-10-11,1,,,,,,0
1592,6130005009778,登記記録の閉鎖等,0,2024-05-01,2024-04-12,天理教與謝分教会,,その他の設立登記法人,京都府,与謝郡伊根町,字本庄上９６０番地,,26,463,6260405,,,2024-04-12,合併による解散等,3130005009599,令和６年４月１２日京都府宮津市字文珠小字上路４３３番地天理教宮津分教会（3130005009599）に合併し解散,2015-10-05,1,,,,,テンリキョウヨザブンキョウカイ,0
1599,6140002040272,登記記録の閉鎖等,0,2024-05-01,2024-04-25,大村産業有限会社,,有限会社,兵庫県,尼崎市,昭和通１丁目９番４５号,,28,202,6600881,,,2024-04-25,清算の結了等,,,2015-10-05,1,,,,,オオムラサンギョウ,0
1601,6140003011792,登記記録の閉鎖等,0,2024-05-01,2024-04-25,Ｃｏｌｌｅｇｅ　Ｃｌｏｕｄ＆Ｔｅｃｈ合同会社,,合同会社,兵庫県,神戸市灘区,岩屋北町５丁目２番２１号ライオンズマンション灘南１階,,28,102,6570846,,,2024-04-25,清算の結了等,,,2016-12-14,1,,,,,カレッジクラウドテック,0
1610,6180001108158,登記記録の閉鎖等,0,2024-05-01,2024-04-22,株式会社ＥＣＯリサイクル,,株式会社,愛知県,瀬戸市,西本地町２丁目２７６番地,,23,204,4890971,,,2024-04-22,清算の結了等,,,2015-10-05,1,,,,,エコリサイクル,0
1617,6180002048097,登記記録の閉鎖等,0,2024-05-01,2024-04-18,有限会社エスティエム,,有限会社,愛知県,名古屋市北区,平安２丁目２４番８６号ダイヤパレス平安通４０４,,23,103,4620819,,,2024-04-18,清算の結了等,,,2015-10-05,1,,,,,エスティエム,0
1618,6180002063294,登記記録の閉鎖等,0,2024-05-01,2024-04-19,有限会社大井金型,,有限会社,愛知県,日進市,北新町八幡西１２３０番地１,,23,230,4700103,,,2024-04-19,清算の結了等,,,2015-10-05,1,,,,,オオイカナガタ,0
1626,6200002003693,登記記録の閉鎖等,0,2024-05-01,2024-04-30,有限会社花工房カタオカ,,有限会社,岐阜県,岐阜市,茜部新所４丁目１３５－５,,21,201,5008263,,,2024-04-30,清算の結了等,,,2015-10-05,1,,,,,ハナコウボウカタオカ,0
1630,6210001014039,登記記録の閉鎖等,0,2024-05-01,2024-04-24,丸加産業株式会社,,株式会社,福井県,小浜市,中井第９号５０番地の１,,18,204,9170036,,,2024-04-24,清算の結了等,,,2024-01-10,1,,,,,マルカサンギョウ,0
1637,6240002005752,登記記録の閉鎖等,0,2024-05-01,2024-04-30,有限会社小出料理学園,,有限会社,広島県,広島市中区,上幟町１０番１２－９０４号,,34,101,7300014,,,2024-04-30,清算の結了等,,,2015-10-05,1,,,,,コイデリョウリガクエン,0
1638,6240002032623,登記記録の閉鎖等,0,2024-05-01,2024-04-26,有限会社おさかなのなかた,,有限会社,広島県,呉市,阿賀中央４丁目９番２１号,,34,202,7370003,,,2024-04-26,清算の結了等,,,2015-10-05,1,,,,,オサカナノナカタ,0
1639,6240003006056,登記記録の閉鎖等,0,2024-05-01,2024-04-26,合同会社束力,,合同会社,広島県,広島市中区,袋町５－３５－１４０２号,,34,101,7300036,,,2024-04-26,清算の結了等,,,2023-03-17,1,,,,,タバリキ,0
1643,6290001050902,登記記録の閉鎖等,0,2024-05-01,2024-04-01,株式会社ライングラフィコ,,株式会社,福岡県,久留米市,諏訪野町２５７０番地１３アーサー久留米グランセ４０４号,,40,203,8300037,,,2024-04-01,合併による解散等,3290001075976,令和６年４月１日福岡県久留米市東櫛原町２５８９番地６株式会社駅前不動産ホールディングス（3290001075976）に合併し解散,2015-10-05,1,,,,,ライングラフィコ,0
1650,6300002009284,登記記録の閉鎖等,0,2024-05-01,2024-04-24,天本薬品有限会社,,有限会社,佐賀県,三養基郡基山町,大字宮浦２０２９番地,,41,341,8410204,,,2024-04-24,清算の結了等,,,2015-10-05,1,,,,,アマモトヤクヒン,0
1656,6330001028935,登記記録の閉鎖等,0,2024-05-01,2024-04-23,ＢｉｚＭｏｗＣＡＲＥＥＲ株式会社,,株式会社,熊本県,八代市,本町１丁目９番１５号衆１Ｆ,,43,202,8660861,,,2024-04-23,清算の結了等,,,2021-08-24,1,,,,,ビズモウキャリア,0
1667,6370302002081,登記記録の閉鎖等,0,2024-05-01,2024-04-22,株式会社ヒマワリコーポレーション,,株式会社,宮城県,石巻市,貞山１丁目１３番２号,,04,202,9860851,,,2024-04-22,清算の結了等,,,2015-10-05,1,,,,,ヒマワリコーポレーション,0
1668,6380001012678,登記記録の閉鎖等,0,2024-05-01,2024-04-24,株式会社菅野米穀店,,株式会社,福島県,いわき市,植田町中央２丁目５番地の８,,07,204,9748261,,,2024-04-24,清算の結了等,,,2015-10-05,1,,,,,カンノベイコクテン,0
1672,6402701000562,登記記録の閉鎖等,0,2024-05-01,2024-04-22,大船渡ヤクルト販売株式会社,,株式会社,岩手県,大船渡市,大船渡町字台２０番地１２,,03,203,0220002,,,2024-04-22,合併による解散等,1370801000276,令和６年４月１日宮城県名取市植松字宮島７７番地宮城中央ヤクルト販売株式会社（1370801000276）に合併し解散,2015-10-05,1,,,,,オオフナトヤクルトハンバイ,0
1673,6410001006461,登記記録の閉鎖等,0,2024-05-01,2024-04-19,株式会社ナリタヤ,,株式会社,秋田県,北秋田市,材木町７番３２号,,05,213,0183311,,,2024-04-19,清算の結了等,,,2015-10-05,1,,,,,ナリタヤ,0
1718,7010501043787,登記記録の閉鎖等,0,2024-05-01,2024-04-24,東洋株式会社,,株式会社,東京都,台東区,寿１丁目５番５号,,13,106,1110042,,,2024-04-24,清算の結了等,,,2019-03-06,1,,,,,トウヨウ,0
1722,7010701015561,登記記録の閉鎖等,0,2024-05-01,2024-04-19,株式会社キャプティ・テック,,株式会社,東京都,墨田区,堤通１丁目１９番９号,,13,107,1310034,,,2024-04-19,清算の結了等,,,2015-10-05,1,,,,,キャプティテック,0
1730,7010902015286,登記記録の閉鎖等,0,2024-05-01,2024-04-22,有限会社元井製作所,,有限会社,東京都,世田谷区,野沢４丁目２２番１７号,,13,112,1540003,,,2024-04-22,清算の結了等,,,2015-10-05,1,,,,,,0
1754,7012401014414,登記記録の閉鎖等,0,2024-05-01,2024-04-26,株式会社パース,,株式会社,東京都,武蔵野市,御殿山１丁目６番１１号,,13,203,1800005,,,2024-04-26,清算の結了等,,,2015-10-05,1,,,,,パース,0
1772,7021005004390,登記記録の閉鎖等,0,2024-05-01,2024-04-16,社会福祉法人いずみ福祉会,,その他の設立登記法人,神奈川県,秦野市,東田原４１９番地の１,,14,211,2570028,,,2024-04-16,合併による解散等,8020005003897,令和６年４月１日横浜市西区北幸二丁目８番４号社会福祉法人昴（8020005003897）に合併し解散,2015-10-05,1,,,,,イズミフクシカイ,0
1775,7030001023874,登記記録の閉鎖等,0,2024-05-01,2024-04-24,株式会社金子製作所,,株式会社,埼玉県,所沢市,大字下富１４４６番地２,,11,208,3590001,,,2024-04-24,清算の結了等,,,2015-10-05,1,,,,,カネコセイサクショ,0
1784,7030002029805,登記記録の閉鎖等,0,2024-05-01,2024-04-23,有限会社鈴木製作所,,有限会社,埼玉県,所沢市,堀之内６７３番地,,11,208,3591165,,,2024-04-23,清算の結了等,,,2015-10-05,1,,,,,スズキセイサクショ,0
1786,7030002097645,登記記録の閉鎖等,0,2024-05-01,2024-04-22,有限会社青田電気設計事務所,,有限会社,埼玉県,比企郡嵐山町,むさし台１丁目７番地５,,11,342,3550216,,,2024-04-22,清算の結了等,,,2015-10-05,1,,,,,アオタデンキセッケイジムショ,0
1787,7030002114383,登記記録の閉鎖等,0,2024-05-01,2024-04-22,有限会社ユー・エイ・オー,,有限会社,埼玉県,熊谷市,久保島９５８番地７,,11,202,3600831,,,2024-04-22,清算の結了等,,,2015-10-05,1,,,,,ユーエイオー,0
1805,7070002014902,登記記録の閉鎖等,0,2024-05-01,2024-04-26,有限会社ダイイチ,,有限会社,群馬県,安中市,松井田町新堀３２４番地の１,,10,211,3790221,,,2024-04-26,清算の結了等,,,2015-10-05,1,,,,,ダイイチ,0
1818,7110001008504,登記記録の閉鎖等,0,2024-05-01,2024-04-19,株式会社グッドビズ新潟,,株式会社,新潟県,新潟市西区,平島１丁目２０番地７,,15,107,9502004,,,2024-04-19,清算の結了等,,,2015-10-05,1,,,,,グッドビズニイガタ,0
1823,7120001055248,登記記録の閉鎖等,0,2024-05-01,2024-04-15,コスモスサービス株式会社,,株式会社,大阪府,大阪市淀川区,三津屋中２丁目５番４号,,27,123,5320036,,,2024-04-15,合併による解散等,3010001018401,令和６年４月１日東京都千代田区神田司町二丁目６番地新コスモス電機メンテナンス株式会社（3010001018401）に合併し解散,2015-10-05,1,,,,,コスモスサービス,0
1846,7122001014101,登記記録の閉鎖等,0,2024-05-01,2024-04-30,株式会社太伸製作所,,株式会社,大阪府,東大阪市,川俣１丁目１０－４２,,27,227,5770063,,,2024-04-30,清算の結了等,,,2015-10-05,1,,,,,タイシンセイサクショ,0
1858,7140005011550,登記記録の閉鎖等,0,2024-05-01,2024-04-15,医療法人社団裕和会,,その他の設立登記法人,兵庫県,尼崎市,昭和通７丁目２４２番地,,28,202,6600881,,,2024-04-15,合併による解散等,7180005005409,令和６年４月１日名古屋市千種区谷口町４番５号プレステージ千種七番館内１階医療法人社団西日本平郁会（7180005005409）に合併し解散,2015-10-05,1,,,,,ユウワカイ,0
1859,7140005015072,登記記録の閉鎖等,0,2024-05-01,2024-04-24,関生産森林組合,,その他の設立登記法人,兵庫県,姫路市,安富町関６９６番地,,28,201,6712416,,,2024-04-24,清算の結了等,,,2015-10-05,1,,,,,セキ,0
1864,7180001131844,登記記録の閉鎖等,0,2024-05-01,2024-04-15,株式会社Ｄｉｓｈ,,株式会社,愛知県,名古屋市中区,丸の内３丁目７番２６号５階,,23,106,4600002,,,2024-04-15,清算の結了等,,,2018-04-09,1,,,,,ディッシュ,0
1872,7180305000679,登記記録の閉鎖等,0,2024-05-01,2024-04-08,天理教愛柱分教会,,その他の設立登記法人,愛知県,岡崎市,柱曙３丁目５番地３０,,23,202,4440833,,,2024-04-08,合併による解散等,5180305002982,令和６年４月８日愛知県豊橋市牛川町字薬師前５番地１天理教愛一分教会（5180305002982）に合併し解散,2015-10-05,1,,,,,,0
1881,7190001011979,登記記録の閉鎖等,0,2024-05-01,2024-04-19,ＡＫ株式会社,,株式会社,大阪府,大阪市中央区,道修町１丁目６番７号ＪＭＦビル北浜０１（９階）,,27,128,5410045,,,2024-04-19,清算の結了等,,,2015-10-05,1,,,,,エーケー,0
1883,7190002003133,登記記録の閉鎖等,0,2024-05-01,2024-04-24,ＭＭ株式会社,,株式会社,大阪府,大阪市中央区,道修町１丁目６番７号ＪＭＦビル北浜０１（９階）,,27,128,5410045,,,2024-04-24,清算の結了等,,,2015-10-05,1,,,,,エムエム,0
1891,7210001009236,登記記録の閉鎖等,0,2024-05-01,2024-04-26,ユニバーサルビジネス企画株式会社,,株式会社,福井県,福井市,今市町６６号２０番地の２,,18,201,9188152,,,2024-04-26,合併による解散等,3010001062242,令和６年４月１日東京都千代田区麹町五丁目７番地２ベルテクス株式会社（3010001062242）に合併し解散,2015-10-05,1,,,,,ユニバーサルビジネスキカク,0
1904,7260001005131,登記記録の閉鎖等,0,2024-05-01,2024-04-17,西日本シヤッター岡山株式会社,,株式会社,岡山県,岡山市南区,当新田４６７番地４,,33,104,7000956,,,2024-04-17,清算の結了等,,,2015-10-05,1,,,,,ニシニホンシヤッターオカヤマ,0
1905,7260002028040,登記記録の閉鎖等,0,2024-05-01,2024-04-17,有限会社片山食品,,有限会社,岡山県,久米郡久米南町,神目中２２５番地,,33,663,7093627,,,2024-04-17,清算の結了等,,,2024-02-22,1,,,,,カタヤマショクヒン,0
1906,7260002029749,登記記録の閉鎖等,0,2024-05-01,2024-04-17,有限会社リッツ,,有限会社,岡山県,津山市,東一宮６３番地の５,,33,203,7080814,,,2024-04-17,清算の結了等,,,2015-10-05,1,,,,,リッツ,0
1908,7260005009822,登記記録の閉鎖等,0,2024-05-01,2024-04-17,一般社団法人岡山杖の会,,その他の設立登記法人,岡山県,岡山市北区,天瀬南町２番１号,,33,101,7000834,,,2024-04-17,清算の結了等,,,2015-10-05,1,,,,,オカヤマツエノカイ,0
1938,7370601002946,登記記録の閉鎖等,0,2024-05-01,2024-04-22,松栄工業株式会社,,株式会社,宮城県,塩竈市,青葉ケ丘１２番５号,,04,203,9850082,,,2024-04-22,清算の結了等,,,2015-10-05,1,,,,,,0
1948,7420001007937,登記記録の閉鎖等,0,2024-05-01,2024-04-19,朝日商事株式会社,,株式会社,青森県,五所川原市,字大町３５番地,,02,205,0370063,,,2024-04-19,清算の結了等,,,2015-10-05,1,,,,,,0
1955,7430002016804,登記記録の閉鎖等,0,2024-05-01,2024-04-22,有限会社ふぉーらいふ,,有限会社,北海道,札幌市東区,東苗穂十条３丁目１１番４０号,,01,103,0070810,,,2024-04-22,清算の結了等,,,2015-10-05,1,,,,,フォーライフ,0
1968,8010001075933,登記記録の閉鎖等,0,2024-05-01,2024-04-24,株式会社ソニー・ミュージックマーケティングユナイテッド,,株式会社,東京都,千代田区,六番町４番地５,,13,101,1020085,,,2024-04-24,合併による解散等,3011101011642,令和６年４月１日東京都港区赤坂九丁目７番１号株式会社ソニー・ミュージックソリューションズ（3011101011642）に合併し解散,2015-10-05,1,,,,,ソニーミュージックマーケティングユナイテッド,0
1974,8010001229943,登記記録の閉鎖等,0,2024-05-01,2024-04-24,ＪＡ全農くみあい飼料ホールディングス株式会社,,株式会社,東京都,千代田区,大手町１丁目３番１号,,13,101,1000004,,,2024-04-24,合併による解散等,8070001021304,令和６年４月１日群馬県太田市東新町８１８番地ＪＡ全農くみあい飼料株式会社（8070001021304）に合併し解散,2022-10-05,1,,,,,ジェイエイゼンノウクミアイシリョウホールディングス,0
1979,8010003037048,登記記録の閉鎖等,0,2024-05-01,2024-04-16,ニーハオ中文合同会社,,合同会社,東京都,文京区,向丘１丁目１２番４号ミセレニ白山３０２,,13,105,1130023,,,2024-04-16,清算の結了等,,,2022-02-24,1,,,,,ニーハオチュウブン,0
1981,8010101000155,登記記録の閉鎖等,0,2024-05-01,2024-04-30,安全塗料株式会社,,株式会社,東京都,八王子市,台町２丁目１９番１０号,,13,201,1930931,,,2024-04-30,清算の結了等,,,2015-10-05,1,,,,,アンゼントリョウ,0
1987,8010401157439,登記記録の閉鎖等,0,2024-05-01,2024-04-11,株式会社ＡＤＡＭ,,株式会社,東京都,港区,東麻布３丁目１番２号,,13,103,1060044,,,2024-04-11,清算の結了等,,,2021-01-06,1,,,,,アダム,0
1989,8010501014044,登記記録の閉鎖等,0,2024-05-01,2024-04-25,株式会社安田工業所,,株式会社,東京都,台東区,上野３丁目９番３号,,13,106,1100005,,,2024-04-25,清算の結了等,,,2015-10-05,1,,,,,ヤスダコウギョウショ,0
2008,8011001068679,登記記録の閉鎖等,0,2024-05-01,2024-04-10,株式会社アイピーオンウェブジャパン,,株式会社,東京都,渋谷区,恵比寿４丁目２０番３号,,13,113,1500013,,,2024-04-10,合併による解散等,7011001068151,令和６年３月３１日東京都渋谷区恵比寿四丁目２０番３号株式会社プラットフォーム・ワン（7011001068151）に合併し解散,2015-10-05,1,,,,,アイピーオンウェブジャパン,0
2021,8011102021173,登記記録の閉鎖等,0,2024-05-01,2024-04-19,有限会社シーエスター,,有限会社,東京都,新宿区,西新宿７丁目１９番１７号３０４号室,,13,104,1600023,,,2024-04-19,清算の結了等,,,2015-10-05,1,,,,,シーエスター,0
2037,8020002014534,登記記録の閉鎖等,0,2024-05-01,2024-04-22,有限会社成美精工,,有限会社,神奈川県,横浜市青葉区,鴨志田町２１７番地１,,14,117,2270033,,,2024-04-22,清算の結了等,,,2015-10-05,1,,,,,ナルミセイコウ,0
2039,8020002094444,登記記録の閉鎖等,0,2024-05-01,2024-04-22,有限会社シャロームインシュアランス,,有限会社,神奈川県,川崎市麻生区,千代ケ丘４丁目２１番地３１,,14,137,2150005,,,2024-04-22,清算の結了等,,,2015-10-05,1,,,,,,0
2045,8021005011840,登記記録の閉鎖等,0,2024-05-01,2024-04-30,一般社団法人菜の花教育研究会,,その他の設立登記法人,神奈川県,鎌倉市,小町１丁目１０番１６号,,14,204,2480006,,,2024-04-30,清算の結了等,,,2020-02-07,1,,,,,ナノハナキョウイクケンキュウカイ,0
2085,8070001017632,登記記録の閉鎖等,0,2024-05-01,2024-04-25,株式会社小林本店,,株式会社,群馬県,渋川市,渋川２１３６番地乙,,10,208,3770008,,,2024-04-25,清算の結了等,,,2015-10-05,1,,,,,コバヤシホンテン,0
2091,8080102000684,登記記録の閉鎖等,0,2024-05-01,2024-04-24,有限会社大杉自動車工業,,有限会社,静岡県,沼津市,今沢３８番地の１,,22,203,4100875,,,2024-04-24,清算の結了等,,,2015-10-05,1,,,,,オオスギジドウシャコウギョウ,0
2098,8110001034458,登記記録の閉鎖等,0,2024-05-01,2024-04-24,株式会社Ｌｅａｆｙ,,株式会社,新潟県,柏崎市,駅前１丁目４番２２号,,15,205,9450055,,,2024-04-24,清算の結了等,,,2019-12-04,1,,,,,リーフィー,0
2105,8120001087629,登記記録の閉鎖等,0,2024-05-01,2024-04-24,株式会社ビー・アイ・シー,,株式会社,大阪府,大阪市中央区,谷町２丁目４番５号,,27,128,5400012,,,2024-04-24,清算の結了等,,,2015-10-05,1,,,,,ビーアイシー,0
2117,8120002007065,登記記録の閉鎖等,0,2024-05-01,2024-04-30,有限会社典紀彫刻,,有限会社,大阪府,大阪市東成区,玉津２丁目１９番２５号,,27,115,5370023,,,2024-04-30,清算の結了等,,,2015-10-05,1,,,,,ノリキチョウコク,0
2119,8120002048349,登記記録の閉鎖等,0,2024-05-01,2024-04-30,有限会社ブランチ,,有限会社,大阪府,大阪市港区,築港３丁目３番２－４０３号,,27,107,5520021,,,2024-04-30,清算の結了等,,,2015-10-05,1,,,,,ブランチ,0
2128,8120901013790,登記記録の閉鎖等,0,2024-05-01,2024-04-24,株式会社信和テクノス,,株式会社,大阪府,摂津市,鳥飼上３丁目６番２１号,,27,224,5660062,,,2024-04-24,合併による解散等,8010001047759,令和６年４月１日東京都港区三田三丁目１３番１６号株式会社スペイスエイジ（8010001047759）に合併し解散,2015-10-05,1,,,,,シンワテクノス,0
2143,8140001002180,登記記録の閉鎖等,0,2024-05-01,2024-04-24,ＪＡ西日本くみあい飼料株式会社,,株式会社,兵庫県,神戸市中央区,浜辺通５丁目１番１４号,,28,110,6510083,,,2024-04-24,合併による解散等,8070001021304,令和６年４月１日群馬県太田市東新町８１８番地ＪＡ全農くみあい飼料株式会社（8070001021304）に合併し解散,2015-10-05,1,,,,,ジェイエイニシニホンクミアイシリョウ,0
2145,8140001073825,登記記録の閉鎖等,0,2024-05-01,2024-04-23,株式会社ウェリアコーポレーション,,株式会社,兵庫県,西宮市,鳴尾町１丁目２１番９号,,28,204,6638184,,,2024-04-23,清算の結了等,,,2015-10-05,1,,,,,ウェリアコーポレーション,0
2155,8180001066544,登記記録の閉鎖等,0,2024-05-01,2024-04-15,株式会社アクティブシープロダクツ,,株式会社,愛知県,名古屋市熱田区,川並町２番２２号,,23,109,4560072,,,2024-04-15,合併による解散等,8180002020731,令和６年３月３１日名古屋市熱田区川並町２番２２号株式会社餅市商店（8180002020731）に合併し解散,2015-10-05,1,,,,,アクティブシープロダクツ,0
2160,8180002056032,登記記録の閉鎖等,0,2024-05-01,2024-04-19,有限会社ブレス建設,,有限会社,愛知県,尾張旭市,庄南町３丁目８番地１,,23,226,4880823,,,2024-04-19,清算の結了等,,,2015-10-05,1,,,,,ブレスケンセツ,0
2167,8180301007834,登記記録の閉鎖等,0,2024-05-01,2024-04-25,株式会社青山鉄工所,,株式会社,愛知県,田原市,古田町郷中１９４番地の４,,23,231,4413613,,,2024-04-25,清算の結了等,,,2015-10-05,1,,,,,アオヤマテッコウジョ,0
2168,8180301020812,登記記録の閉鎖等,0,2024-05-01,2024-04-26,株式会社サンライズロジコム,,株式会社,愛知県,みよし市,福田町一本松２０番地,,23,236,4700225,,,2024-04-26,清算の結了等,,,2015-10-05,1,,,,,サンライズロジコム,0
2173,8200001034878,登記記録の閉鎖等,0,2024-05-01,2024-04-26,グリーンアイランド株式会社,,株式会社,岐阜県,安八郡安八町,西結２０３５番地の１,,21,383,5030111,,,2024-04-26,清算の結了等,,,2018-02-13,1,,,,,グリーンアイランド,0
2178,8240005007579,登記記録の閉鎖等,0,2024-05-01,2024-04-26,広島県臨床検査事業協同組合,,その他の設立登記法人,広島県,福山市,草戸町１丁目２３番２１号,,34,207,7200831,,,2024-04-26,清算の結了等,,,2015-10-05,1,,,,,ヒロシマケンリンショウケンサジギョウ,0
2180,8250001018777,登記記録の閉鎖等,0,2024-05-01,2024-04-25,株式会社ＥＮＬＡＲＧＥ　ＨＩＬＬ,,株式会社,山口県,宇部市,大字沖宇部１７７番地８,,35,202,7550001,,,2024-04-25,清算の結了等,,,2021-04-05,1,,,,,エンラージヒル,0
2191,8260002011425,登記記録の閉鎖等,0,2024-05-01,2024-04-16,有限会社友望園,,有限会社,岡山県,赤磐市,大苅田１８８番地,,33,213,7012221,,,2024-04-16,清算の結了等,,,2015-10-05,1,,,,,ユウボウエン,0
2194,8280002007974,登記記録の閉鎖等,0,2024-05-01,2024-04-30,有限会社インク・ルージュ,,有限会社,島根県,大田市,大田町大田ロ２６８番地５,,32,205,6940064,,,2024-04-30,清算の結了等,,,2015-10-05,1,,,,,インクルージュ,0
2218,8350001015418,登記記録の閉鎖等,0,2024-05-01,2024-04-24,株式会社恵比寿屋,,株式会社,宮崎県,宮崎市,大字小松３１６７番２,,45,201,8802112,,,2024-04-24,清算の結了等,,,2018-08-17,1,,,,,エビスヤ,0
2222,8370001021942,登記記録の閉鎖等,0,2024-05-01,2024-04-17,ライフツリー株式会社,,株式会社,東京都,千代田区,飯田橋１丁目７番１０号,,13,101,1020072,,,2024-04-17,清算の結了等,,,2015-10-05,1,,,,,ライフツリー,0
2233,8420005006133,登記記録の閉鎖等,0,2024-05-01,2024-04-01,東北町商工会,,その他の設立登記法人,青森県,上北郡東北町,字上笹橋１７番地２,,02,408,0392661,,,2024-04-01,合併による解散等,5420005007893,令和６年４月１日青森県上北郡東北町上北南四丁目３２番地４８０上北町商工会（1420005006131）と合併して青森県上北郡東北町上北南四丁目３２番地４８０東北町商工会（5420005007893）を設立し解散,2015-10-05,1,,,,,トウホクマチ,0
2241,8490005000641,登記記録の閉鎖等,0,2024-05-01,2024-04-30,医療法人仁愛会,,その他の設立登記法人,高知県,高知市,仁井田６４５番地,,39,201,7810112,,,2024-04-30,清算の結了等,,,2015-10-05,1,,,,,ジンアイカイ,0
2249,9010001017538,登記記録の閉鎖等,0,2024-05-01,2024-04-18,サンイーストオーバーシーズ株式会社,,株式会社,東京都,千代田区,岩本町３丁目８番９号,,13,101,1010032,,,2024-04-18,清算の結了等,,,2015-10-05,1,,,,,サンイーストオーバーシーズ,0
2299,9011102011842,登記記録の閉鎖等,0,2024-05-01,2024-04-22,有限会社ほるす,,有限会社,東京都,新宿区,市谷薬王寺町５８番地,,13,104,1620063,,,2024-04-22,清算の結了等,,,2015-10-05,1,,,,,ホルス,0
2300,9011103006057,登記記録の閉鎖等,0,2024-05-01,2024-04-12,合同会社ＨＣＴ,,合同会社,東京都,港区,三田４丁目９番７号,,13,103,1080073,,,2024-04-12,清算の結了等,,,2016-01-14,1,,,,,エイチシーティー,0
2303,9011305001905,登記記録の閉鎖等,0,2024-05-01,2024-04-24,一般社団法人フューチャー・ラボ,,その他の設立登記法人,東京都,台東区,上野６丁目１番６号御徒町グリーンハイツ１００５号,,13,106,1100005,,,2024-04-24,清算の結了等,,,2015-10-05,1,,,,,フューチャーラボ,0
2318,9013301037296,登記記録の閉鎖等,0,2024-05-01,2024-04-24,株式会社猪苗代リゾート,,株式会社,福島県,耶麻郡猪苗代町,字綿場７１２６,,07,408,9693288,,,2024-04-24,清算の結了等,,,2015-10-05,1,,,,,イナワシロリゾート,0
2358,9050001012031,登記記録の閉鎖等,0,2024-05-01,2024-04-24,株式会社アーカ,,株式会社,茨城県,石岡市,柴間５０９番地９,,08,205,3150124,,,2024-04-24,清算の結了等,,,2015-10-05,1,,,,,,0
2369,9060001023003,登記記録の閉鎖等,0,2024-05-01,2024-04-23,株式会社ダイニング心,,株式会社,栃木県,宇都宮市,竹林町４９５番地７,,09,201,3210974,,,2024-04-23,清算の結了等,,,2015-10-05,1,,,,,ダイニングシン,0
2376,9070003004058,登記記録の閉鎖等,0,2024-05-01,2024-04-24,エイトアップ合同会社,,合同会社,群馬県,高崎市,金古町１３５５番地１０,,10,202,3703511,,,2024-04-24,清算の結了等,,,2021-04-02,1,,,,,エイトアップ,0
2379,9080002000825,登記記録の閉鎖等,0,2024-05-01,2024-04-22,有限会社エイ・エス・ケイ,,有限会社,静岡県,静岡市駿河区,八幡２丁目３番１５号,,22,102,4228076,,,2024-04-22,清算の結了等,,,2015-10-05,1,,,,,エイエスケイ,0
2382,9080401018724,登記記録の閉鎖等,0,2024-05-01,2024-04-26,東海環境マネジメント株式会社,,株式会社,静岡県,浜松市中央区,雄踏町宇布見８９０４番地１,,22,138,4310102,,,2024-04-26,清算の結了等,,,2015-10-05,1,,,,,トウカイカンキョウマネジメント,0
2405,9120002062423,登記記録の閉鎖等,0,2024-05-01,2024-04-23,有限会社ミユキ商事,,有限会社,大阪府,大阪市港区,波除４丁目２番２７号,,27,107,5520001,,,2024-04-23,清算の結了等,,,2015-10-05,1,,,,,,0
2436,9160005010078,登記記録の閉鎖等,0,2024-05-01,2024-04-25,一般社団法人滋賀でいい暮らしいえづくりの会,,その他の設立登記法人,滋賀県,彦根市,西沼波町１７５番地１,,25,202,5220038,,,2024-04-25,清算の結了等,,,2015-10-05,1,,,,,シガデイイクラシイエヅクリノカイ,0
2439,9170002000519,登記記録の閉鎖等,0,2024-05-01,2024-04-30,有限会社エース技研,,有限会社,和歌山県,和歌山市,有家７５番地の６,,30,201,6408316,,,2024-04-30,清算の結了等,,,2015-10-05,1,,,,,エースギケン,0
2454,9180301019746,登記記録の閉鎖等,0,2024-05-01,2024-04-26,日東精機株式会社,,株式会社,愛知県,みよし市,三好町中鯰ヶ池３０番地の３３,,23,236,4700224,,,2024-04-26,清算の結了等,,,2015-10-05,1,,,,,ニットウセイキ,0
2455,9180303003797,登記記録の閉鎖等,0,2024-05-01,2024-04-16,アスパイアー合同会社,,合同会社,愛知県,豊橋市,弥生町字中原３４番地３,,23,201,4418106,,,2024-04-16,清算の結了等,,,2017-03-13,1,,,,,アスパイアー,0
2459,9200002004929,登記記録の閉鎖等,0,2024-05-01,2024-04-30,有限会社ヤナマ,,有限会社,岐阜県,岐阜市,真砂町７丁目１２番１０号,,21,201,5008864,,,2024-04-30,清算の結了等,,,2015-10-05,1,,,,,,0
2463,9220001020306,登記記録の閉鎖等,0,2024-05-01,2024-04-22,アートコンストラクション株式会社,,株式会社,石川県,金沢市,長土塀２丁目１０番３９号,,17,201,9200867,,,2024-04-22,清算の結了等,,,2015-10-05,1,,,,,,0
2505,9350001012447,登記記録の閉鎖等,0,2024-05-01,2024-04-22,日向技術開発株式会社,,株式会社,宮崎県,日向市,東郷町山陰己１０５２番地２５,,45,206,8830105,,,2024-04-22,清算の結了等,,,2015-10-05,1,,,,,ヒュウガギジュツカイハツ,0
2516,9380001012799,登記記録の閉鎖等,0,2024-05-01,2024-04-22,株式会社栗林呉服店,,株式会社,福島県,いわき市,江名字南町２６番地,,07,204,9700311,,,2024-04-22,清算の結了等,,,2015-10-05,1,,,,,クリバヤシゴフクテン,0
2536,9470001000092,登記記録の閉鎖等,0,2024-05-01,2024-04-17,神前鉄工株式会社,,株式会社,香川県,高松市,牟礼町大町１１７７番地３,,37,201,7610122,,,2024-04-17,合併による解散等,9470001018374,令和６年４月１７日香川県高松市牟礼町大町１１７７番地３株式会社ＳＵＮＳＵＩ（9470001018374）に合併し解散,2015-10-05,1,,,,,カンザキテッコウ,0
