sequenceNumber,corporateNumber,process,correct,updateDate,changeDate,name,nameImageId,kind,prefectureName,cityName,streetNumber,addressImageId,prefectureCode,cityCode,postCode,addressOutside,addressOutsideImageId,closeDate,closeCause,successorCorporateNumber,changeCause,assignmentDate,latest,enName,enPrefectureName,enCityName,enAddressOutside,furigana,hihyoji
11,1010003041907,新規,0,2023-10-17,2023-10-17,マクラビン合同会社,,合同会社,東京都,千代田区,神田和泉町１番地６－１６ヤマトビル４０５,,13,101,1010024,,,,,,,2023-10-17,1,,,,,マクラビン,0
12,1010005037374,新規,0,2023-10-17,2023-10-17,一般社団法人日本・大湾区・海南自由貿易港投資促進連合会,,その他の設立登記法人,東京都,中央区,京橋２丁目８番１号４Ｆ,,13,102,1040031,,,,,,,2023-10-17,1,,,,,ニホンダイワンクハイナンジユウボウエキコウトウシソクシンレンゴウカイ,0
21,1010401177732,新規,0,2023-10-17,2023-10-17,株式会社Ｅｕｒｅｋａｓｔａｒｓ,,株式会社,東京都,港区,虎ノ門１丁目１７番１号虎ノ門ヒルズビジネスタワー１５階,,13,103,1050001,,,,,,,2023-10-17,1,,,,,エウレカスターズ,0
23,1010403031111,新規,0,2023-10-17,2023-10-17,シーキューブ合同会社,,合同会社,東京都,港区,北青山１丁目３番１号,,13,103,1070061,,,,,,,2023-10-17,1,,,,,シーキューブ,0
30,1010701044987,新規,0,2023-10-17,2023-10-17,東京代行株式会社,,株式会社,東京都,品川区,西五反田２丁目１５番１０号９０１,,13,109,1410031,,,,,,,2023-10-17,1,,,,,トウキョウダイコウ,0
31,1010701044995,新規,0,2023-10-17,2023-10-17,株式会社ＬＥシステム,,株式会社,東京都,品川区,大井１丁目４７番１号ＮＴビル,,13,109,1400014,,,,,,,2023-10-17,1,,,,,エルイーシステム,0
32,1010703006911,新規,0,2023-10-17,2023-10-17,合同会社エテ,,合同会社,東京都,品川区,旗の台５丁目２７番１０号,,13,109,1420064,,,,,,,2023-10-17,1,,,,,エテ,0
33,1010705003551,新規,0,2023-10-17,2023-10-17,一般社団法人ソーシャルコレクティブ,,その他の設立登記法人,東京都,品川区,小山２丁目４番１８－４０６号,,13,109,1420062,,,,,,,2023-10-17,1,,,,,ソーシャルコレクティブ,0
36,1010901054002,新規,0,2023-10-17,2023-10-17,株式会社Ｍｙ　Ｆｒｉｅｎｄ　Ｅｎｇｌｉｓｈ,,株式会社,東京都,世田谷区,深沢５丁目３６番３号,,13,112,1580081,,,,,,,2023-10-17,1,,,,,マイフレンドイングリッシュ,0
40,1011001157612,新規,0,2023-10-17,2023-10-17,株式会社ＴＳＵＫＩＡＧＥ　ＣＵＬＴＵＲＥ　ＰＲＯＪＥＣＴ,,株式会社,東京都,渋谷区,桜丘町４ー１４ＶＯＲＴ渋谷桜丘８Ｆ,,13,113,1500031,,,,,,,2023-10-17,1,,,,,ツキアゲカルチャープロジェクト,0
41,1011001157637,新規,0,2023-10-17,2023-10-17,株式会社ａｏ．,,株式会社,東京都,渋谷区,渋谷２丁目１番１２号ＶＯＲＴＡＯＹＡＭＡＩＩ２階Ｍ区画,00132274,13,113,1500002,,,,,,,2023-10-17,1,,,,,アオ,0
42,1011001157661,新規,0,2023-10-17,2023-10-17,株式会社ｙｏｆｕｋａｓｈｉ,,株式会社,東京都,目黒区,青葉台４丁目７番７号住友不動産青葉台ヒルズ６階,,13,110,1530042,,,,,,,2023-10-17,1,,,,,ヨフカシ,0
44,1011101104753,新規,0,2023-10-17,2023-10-17,株式会社肉＆麺,,株式会社,東京都,新宿区,大久保１丁目１３番５号大久保マンション２号館１０５,,13,104,1690072,,,,,,,2023-10-17,1,,,,,ニクアンドメン,0
45,1011101104761,新規,0,2023-10-17,2023-10-17,株式会社Ｔパートナーズ,,株式会社,東京都,新宿区,高田馬場１丁目１７番１６号,,13,104,1690075,,,,,,,2023-10-17,1,,,,,ティーパートナーズ,0
47,1011103013606,新規,0,2023-10-17,2023-10-17,クレステップ合同会社,,合同会社,東京都,新宿区,西新宿３丁目３－１２水間ビル６Ｆ,,13,104,1600023,,,,,,,2023-10-17,1,,,,,クレステップ,0
54,1011401025534,新規,0,2023-10-17,2023-10-17,株式会社安田幸平ＨＲ事務所,,株式会社,東京都,板橋区,宮本町４５番７－５０３号,,13,119,1740054,,,,,,,2023-10-17,1,,,,,ヤスダコウヘイエイチアールジムショ,0
55,1011401025542,新規,0,2023-10-17,2023-10-17,麟琅株式会社,,株式会社,東京都,板橋区,熊野町５番地１－２０３,,13,119,1730025,,,,,,,2023-10-17,1,,,,,リンロウ,0
59,1011603004096,新規,0,2023-10-17,2023-10-17,Ｆｅｅｌ’ｓ合同会社,,合同会社,東京都,練馬区,谷原２丁目８番７－２０１号,,13,120,1770032,,,,,,,2023-10-17,1,,,,,フィールズ,0
60,1011801043177,新規,0,2023-10-17,2023-10-17,株式会社アースアライブ,,株式会社,東京都,葛飾区,西新小岩４丁目１４番３号メゾン・ド・メイ１０１号室,,13,122,1240025,,,,,,,2023-10-17,1,,,,,アースアライブ,0
66,1012801022699,新規,0,2023-10-17,2023-10-17,Ｓ．Ｃ．Ｍ．テクノロジー株式会社,,株式会社,東京都,立川市,幸町５丁目１０６番１８号,,13,202,1900002,,,,,,,2023-10-17,1,,,,,エスシーエムテクノロジー,0
77,1020001153942,新規,0,2023-10-17,2023-10-17,株式会社ＭＡＵマネジメント,,株式会社,神奈川県,川崎市中原区,新丸子東３丁目１１００－１２Ｍ４６１０,,14,133,2110004,,,,,,,2023-10-17,1,,,,,マウマネジメント,0
79,1020003024778,新規,0,2023-10-17,2023-10-17,合同会社ＡＬＭＡ,,合同会社,神奈川県,川崎市多摩区,三田１丁目１２番５－４０８,,14,135,2140034,,,,,,,2023-10-17,1,,,,,アルマ,0
80,1020003024803,新規,0,2023-10-17,2023-10-17,合同会社ＨＭ,,合同会社,神奈川県,横浜市西区,北幸２丁目１０番地４８むつみビル３Ｆ,,14,103,2200004,,,,,,,2023-10-17,1,,,,,エイチエム,0
84,1021001080466,新規,0,2023-10-17,2023-10-17,株式会社ミリョクリエ,,株式会社,神奈川県,足柄上郡開成町,吉田島４３４１－１,,14,366,2580021,,,,,,,2023-10-17,1,,,,,ミリョクリエ,0
89,1021005012911,新規,0,2023-10-17,2023-10-17,一般社団法人湘南鎌倉まごころが届く,,その他の設立登記法人,神奈川県,鎌倉市,大船５丁目７番２７号コーポ常楽２０１,,14,204,2470056,,,,,,,2023-10-17,1,,,,,ショウナンカマクラマゴコロガトドク,0
92,1030001156639,新規,0,2023-10-17,2023-10-17,株式会社淺井空調,,株式会社,埼玉県,さいたま市岩槻区,大字馬込２９７番地５,,11,110,3390077,,,,,,,2023-10-17,1,,,,,アサイクウチョウ,0
93,1030001156688,新規,0,2023-10-17,2023-10-17,極ジャパン株式会社,,株式会社,埼玉県,越谷市,大沢３丁目６番１号,,11,222,3430025,,,,,,,2023-10-17,1,,,,,キワミジャパン,0
94,1030001156705,新規,0,2023-10-17,2023-10-17,株式会社ウルブス,,株式会社,埼玉県,鴻巣市,鴻巣１１８８番地１,,11,217,3650028,,,,,,,2023-10-17,1,,,,,ウルブス,0
98,1030003022789,新規,0,2023-10-17,2023-10-17,合同会社ケイツーサービス,,合同会社,埼玉県,川越市,大字鴨田２４４４番地１０,,11,201,3500844,,,,,,,2023-10-17,1,,,,,ケイツーサービス,0
99,1030003022797,新規,0,2023-10-17,2023-10-17,合同会社エスティーライン,,合同会社,埼玉県,富士見市,東みずほ台３丁目２３番地１２,,11,235,3540015,,,,,,,2023-10-17,1,,,,,エスティーライン,0
101,1030005021418,新規,0,2023-10-17,2023-10-17,医療法人社団Ｋｅｉ　Ｄｅｎｔａｌ,,その他の設立登記法人,埼玉県,比企郡滑川町,大字羽尾５００番地２権田アパート２０２号室,,11,341,3550811,,,,,,,2023-10-17,1,,,,,ケイデンタル,0
105,1040001130452,新規,0,2023-10-17,2023-10-17,株式会社浦建設,,株式会社,千葉県,千葉市緑区,椎名崎町１１５６番地３－１０２,,12,105,2660016,,,,,,,2023-10-17,1,,,,,ウラケンセツ,0
106,1040001130535,新規,0,2023-10-17,2023-10-17,株式会社田所自動車,,株式会社,千葉県,山武市,本須賀３０５１番地１,,12,237,2891305,,,,,,,2023-10-17,1,,,,,タドコロジドウシャ,0
110,1040003023514,新規,0,2023-10-17,2023-10-17,合同会社ブライトエンジン,,合同会社,千葉県,松戸市,六実５丁目２６番地１８,,12,207,2702204,,,,,,,2023-10-17,1,,,,,ブライトエンジン,0
111,1040003023555,新規,0,2023-10-17,2023-10-17,サクラインターナショナル合同会社,,合同会社,千葉県,印西市,草深２４４１番地５,,12,231,2701337,,,,,,,2023-10-17,1,,,,,サクラインターナショナル,0
112,1040003023563,新規,0,2023-10-17,2023-10-17,合同会社エクストラ,,合同会社,千葉県,市原市,古都辺３６３番地２２,,12,219,2900165,,,,,,,2023-10-17,1,,,,,エクストラ,0
119,1050001053628,新規,0,2023-10-17,2023-10-17,株式会社茨城ビジネスサポート,,株式会社,茨城県,水戸市,宮町１丁目２－４ＭＹＭビル３Ｆ,,08,201,3100015,,,,,,,2023-10-17,1,,,,,イバラキビジネスサポート,0
120,1050001053636,新規,0,2023-10-17,2023-10-17,株式会社１ｕｐｓｔｙｌｅ,,株式会社,茨城県,古河市,宮前町５番１６号桜台西３０６,,08,204,3060031,,,,,,,2023-10-17,1,,,,,ワンナップスタイル,0
121,1050001053644,新規,0,2023-10-17,2023-10-17,株式会社やす農蜂舎,,株式会社,茨城県,ひたちなか市,大字中根４４０９番地１,,08,221,3120011,,,,,,,2023-10-17,1,,,,,ヤスノウホウシャ,0
127,1070001040970,新規,0,2023-10-17,2023-10-17,株式会社マユズミ,,株式会社,群馬県,北群馬郡吉岡町,大字下野田１３１１番地４,,10,345,3703608,,,,,,,2023-10-17,1,,,,,マユズミ,0
128,1070001040979,新規,0,2023-10-17,2023-10-17,株式会社はらっぱフーズ,,株式会社,群馬県,高崎市,下里見町９８３番地２,,10,202,3703343,,,,,,,2023-10-17,1,,,,,ハラッパフーズ,0
130,1070003005138,新規,0,2023-10-17,2023-10-17,合同会社貴水工業,,合同会社,群馬県,伊勢崎市,赤堀今井町２丁目１２４１番地２０,,10,204,3792215,,,,,,,2023-10-17,1,,,,,キスイコウギョウ,0
150,1120001258772,新規,0,2023-10-17,2023-10-17,株式会社ＰＵＲＯ,,株式会社,大阪府,大阪市中央区,日本橋２丁目１９－１３－１階,,27,128,5420073,,,,,,,2023-10-17,1,,,,,プロ,0
151,1120001258806,新規,0,2023-10-17,2023-10-17,株式会社クラン,,株式会社,大阪府,大阪市住吉区,清水丘１丁目３番１１号,,27,120,5580033,,,,,,,2023-10-17,1,,,,,クラン,0
152,1120001258822,新規,0,2023-10-17,2023-10-17,商流羽株式会社,,株式会社,大阪府,大阪市港区,市岡２丁目２番４号,,27,107,5520012,,,,,,,2023-10-17,1,,,,,ショウリュウウ,0
153,1120001258830,新規,0,2023-10-17,2023-10-17,プロベクタ株式会社,,株式会社,大阪府,大阪市淀川区,西宮原１丁目５－３３新大阪飯田ビル１Ｆ,,27,123,5320004,,,,,,,2023-10-17,1,,,,,プロベクタ,0
159,1120003025097,新規,0,2023-10-17,2023-10-17,Ｅｘｃｅｌ　Ｌｉｆｅ合同会社,,合同会社,大阪府,大阪市生野区,小路東６丁目５番１７号,,27,116,5440003,,,,,,,2023-10-17,1,,,,,エクセルライフ,0
160,1120003025106,新規,0,2023-10-17,2023-10-17,合同会社川口屋,,合同会社,大阪府,大阪市西区,江戸堀１丁目６番１７号,,27,106,5500002,,,,,,,2023-10-17,1,,,,,カワグチヤ,0
164,1120101068378,新規,0,2023-10-17,2023-10-17,ＭＭＳ株式会社,,株式会社,大阪府,堺市西区,浜寺昭和町３丁４２２番地１,,27,144,5928345,,,,,,,2023-10-17,1,,,,,エムエムエス,0
165,1120103005486,新規,0,2023-10-17,2023-10-17,宇航合同会社,,合同会社,大阪府,堺市堺区,少林寺町東３丁１番２４号２Ｆ,,27,141,5900963,,,,,,,2023-10-17,1,,,,,ウコウ,0
166,1120105009774,新規,0,2023-10-17,2023-10-17,一般社団法人Ｄｒｅａｍ　Ｃｏｍｐａｎｙ,,その他の設立登記法人,大阪府,和泉市,いぶき野３丁目３番２号,,27,219,5940041,,,,,,,2023-10-17,1,,,,,ドリームカンパニー,0
171,1120901048174,新規,0,2023-10-17,2023-10-17,Ｔｈｒｅｅ‐Ｃ株式会社,,株式会社,大阪府,吹田市,五月が丘南９番５号ハイツネーバ１Ｆ,,27,205,5650832,,,,,,,2023-10-17,1,,,,,スリーシー,0
172,1120903004869,新規,0,2023-10-17,2023-10-17,岸本商事合同会社,,合同会社,大阪府,吹田市,千里丘下６番Ｆ－６０１号,,27,205,5650813,,,,,,,2023-10-17,1,,,,,キシモトショウジ,0
175,1130001075390,新規,0,2023-10-17,2023-10-17,株式会社ＫＭＣホールディングス,,株式会社,京都府,京都市西京区,大枝中山町２番４４,,26,111,6101104,,,,,,,2023-10-17,1,,,,,ケーエムシーホールディングス,0
187,1140001132001,新規,0,2023-10-17,2023-10-17,心誠重機株式会社,,株式会社,兵庫県,丹波市,市島町与戸１２４９番地,,28,223,6694335,,,,,,,2023-10-17,1,,,,,シンセイジュウキ,0
188,1140005026769,新規,0,2023-10-17,2023-10-17,特定非営利活動法人もとさん子,,その他の設立登記法人,兵庫県,神戸市東灘区,森南町２丁目８番２５号,,28,101,6580011,,,,,,,2023-10-17,1,,,,,モトサンコ,0
196,1180001158430,新規,0,2023-10-17,2023-10-17,株式会社ＭＥＬＭＯ,,株式会社,愛知県,名古屋市中村区,鳥居通２丁目１０番地,,23,105,4530044,,,,,,,2023-10-17,1,,,,,,0
197,1180001158455,新規,0,2023-10-17,2023-10-17,株式会社Ａｄｅ,,株式会社,愛知県,名古屋市守山区,喜多山１丁目６番２４号,,23,113,4630017,,,,,,,2023-10-17,1,,,,,エイド,0
198,1180001158496,新規,0,2023-10-17,2023-10-17,株式会社Ｙプロダクション,,株式会社,愛知県,常滑市,字堕星１９番地の９,,23,216,4790022,,,,,,,2023-10-17,1,,,,,ワイプロダクション,0
202,1180003025835,新規,0,2023-10-17,2023-10-17,ＺＡＮ合同会社,,合同会社,愛知県,名古屋市西区,名駅２丁目４番３号ウエスタンビル１階,,23,104,4510045,,,,,,,2023-10-17,1,,,,,ザン,0
203,1180003025876,新規,0,2023-10-17,2023-10-17,でらＤＸ研究所合同会社,,合同会社,愛知県,豊明市,阿野町藤手３番地１レインボー豊明前後６０７号,,23,229,4701141,,,,,,,2023-10-17,1,,,,,デラディーエクスケンキュウジョ,0
204,1180005020388,新規,0,2023-10-17,2023-10-17,一般社団法人音物語,,その他の設立登記法人,愛知県,犬山市,字横町２３４番地１,,23,215,4840853,,,,,,,2023-10-17,1,,,,,オトモノガタリ,0
205,1180301037895,新規,0,2023-10-17,2023-10-17,株式会社サルバトーレ,,株式会社,愛知県,豊川市,千歳通１丁目４０番地,,23,207,4420888,,,,,,,2023-10-17,1,,,,,サルバトーレ,0
206,1180301037912,新規,0,2023-10-17,2023-10-17,株式会社ＩＹＡＳＡＫＡ,,株式会社,愛知県,岡崎市,福岡町字天白１１番地,,23,202,4440825,,,,,,,2023-10-17,1,,,,,イヤサカ,0
207,1180303005867,新規,0,2023-10-17,2023-10-17,合同会社もも,,合同会社,愛知県,豊田市,美里１丁目１２番地７,,23,211,4710805,,,,,,,2023-10-17,1,,,,,モモ,0
209,1200001041823,新規,0,2023-10-17,2023-10-17,株式会社Ｔｒｉ‐Ａｒｒｏｗ,,株式会社,岐阜県,可児市,今渡２４４３番地３,,21,214,5090207,,,,,,,2023-10-17,1,,,,,トライアロー,0
212,1200003006106,新規,0,2023-10-17,2023-10-17,合同会社ＩＣＨＩＧＯ,,合同会社,岐阜県,大垣市,中野町５丁目４２５番地,,21,202,5030022,,,,,,,2023-10-17,1,,,,,イチゴ,0
213,1210001019513,新規,0,2023-10-17,2023-10-17,株式会社マイホームデザイン,,株式会社,福井県,鯖江市,鳥羽１丁目１３番１６号,,18,207,9160013,,,,,,,2023-10-17,1,,,,,マイホームデザイン,0
223,1240003006374,新規,0,2023-10-17,2023-10-17,ラ・サール合同会社,,合同会社,広島県,広島市中区,上幟町７番１０－１００１号,,34,101,7300014,,,,,,,2023-10-17,1,,,,,ラサール,0
225,1250001020351,新規,0,2023-10-17,2023-10-17,エスエイチ電工株式会社,,株式会社,山口県,宇部市,末広町９番１８号,,35,202,7550014,,,,,,,2023-10-17,1,,,,,エスエイチデンコウ,0
232,1290001103417,新規,0,2023-10-17,2023-10-17,株式会社Ｆｉｌｌ　Ｃｒｅａｔｉｖｅ,,株式会社,福岡県,福岡市南区,寺塚２丁目９番２９－１０４号,,40,134,8150074,,,,,,,2023-10-17,1,,,,,フィルクリエイティブ,0
239,1290003014488,新規,0,2023-10-17,2023-10-17,カタオカベース合同会社,,合同会社,福岡県,福岡市東区,西戸崎３丁目４－７５,,40,131,8110321,,,,,,,2023-10-17,1,,,,,カタオカベース,0
241,1290801029951,新規,0,2023-10-17,2023-10-17,株式会社Ｗｉｎ’ｓ‐Ｗｉｄｅ,,株式会社,福岡県,北九州市八幡東区,槻田２丁目１０番３１号,,40,108,8050031,,,,,,,2023-10-17,1,,,,,ウィンズワイド,0
256,1360001032682,新規,0,2023-10-17,2023-10-17,株式会社Ｍａｍｍａ,,株式会社,沖縄県,石垣市,字平得８３番地１３,,47,207,9070003,,,,,,,2023-10-17,1,,,,,マンマ,0
257,1360001032690,新規,0,2023-10-17,2023-10-17,株式会社ＴＥＮＯＨ,,株式会社,沖縄県,浦添市,仲西３丁目８番１２号１Ｆ,,47,208,9012125,,,,,,,2023-10-17,1,,,,,テンオオ,0
258,1360003013375,新規,0,2023-10-17,2023-10-17,ＵＰ・ＦＩＥＬＤ合同会社,,合同会社,沖縄県,那覇市,小禄５丁目８番地９（２０１）,,47,201,9010152,,,,,,,2023-10-17,1,,,,,アップフィールド,0
262,1390001017391,新規,0,2023-10-17,2023-10-17,みらい貞太郎農園株式会社,,株式会社,山形県,酒田市,引地字宅地８５番地,,06,204,9996847,,,,,,,2023-10-17,1,,,,,ミライテイタロウノウエン,0
265,1400001016425,新規,0,2023-10-17,2023-10-17,株式会社エス,,株式会社,岩手県,北上市,諏訪町２丁目１番２４号第２ふくろうビル２階Ａ,,03,206,0240034,,,,,,,2023-10-17,1,,,,,エス,0
288,2010001239254,新規,0,2023-10-17,2023-10-17,ＧａｍｅＴｒｅｅ　Ｅｎｔｅｒｔａｉｎｍｅｎｔ株式会社,,株式会社,東京都,千代田区,内幸町２丁目２番２号富国生命ビル渥美坂井法律事務所・外国法共同事業所内,,13,101,1000011,,,,,,,2023-10-17,1,,,,,ゲームツリーエンターテインメント,0
289,2010001239279,新規,0,2023-10-17,2023-10-17,ＰｅｒｆＴｅｃｈ株式会社,,株式会社,東京都,中央区,日本橋室町１丁目１１番１２号,,13,102,1030022,,,,,,,2023-10-17,1,,,,,パーフテック,0
301,2010101015852,新規,0,2023-10-17,2023-10-17,株式会社ＷＨＩＴＥ　ＨＯＷＬ,,株式会社,東京都,八王子市,東町１２番６号Ｂ１Ｆ,,13,201,1920082,,,,,,,2023-10-17,1,,,,,ホワイトハウル,0
315,2010401177748,新規,0,2023-10-17,2023-10-17,株式会社フェアリス,,株式会社,東京都,港区,浜松町２丁目２番１５号,,13,103,1050013,,,,,,,2023-10-17,1,,,,,フェアリス,0
316,2010401177797,新規,0,2023-10-17,2023-10-17,株式会社はいくる,,株式会社,東京都,港区,南青山３丁目１番３６号青山丸竹ビル６Ｆ,,13,103,1070062,,,,,,,2023-10-17,1,,,,,,0
319,2010601063962,新規,0,2023-10-17,2023-10-17,株式会社ＢＴＯＣＳ,,株式会社,東京都,江東区,東陽５丁目２９番４３号,,13,108,1350016,,,,,,,2023-10-17,1,,,,,ビートックス,0
339,2011001157529,新規,0,2023-10-17,2023-10-17,株式会社ｔｃ‐ｉ,,株式会社,東京都,渋谷区,神宮前６丁目２３番４号桑野ビル２階,,13,113,1500001,,,,,,,2023-10-17,1,,,,,ティーシーアイ,0
341,2011003017664,新規,0,2023-10-17,2023-10-17,Ｅｖｏｋｅ　Ｖｅｎｔｕｒｅｓ合同会社,,合同会社,東京都,目黒区,碑文谷５丁目２番５号Ｔ＆Ａビル５階,,13,110,1520003,,,,,,,2023-10-17,1,,,,,エボークベンチャーズ,0
342,2011003017680,新規,0,2023-10-17,2023-10-17,合同会社ＷｅｂＸ,,合同会社,東京都,渋谷区,神泉町１０番１５号アネックス神泉３０１,,13,113,1500045,,,,,,,2023-10-17,1,,,,,ウェブエックス,0
344,2011101104769,新規,0,2023-10-17,2023-10-17,株式会社ＰＡＣＥ,,株式会社,東京都,新宿区,百人町２丁目２７－７ハンドレッドステイレジデンス８０４号,,13,104,1690073,,,,,,,2023-10-17,1,,,,,ペース,0
345,2011101104785,新規,0,2023-10-17,2023-10-17,盛元日本株式会社,,株式会社,東京都,新宿区,上落合３丁目１９番地２１号１０８,,13,104,1610034,,,,,,,2023-10-17,1,,,,,セイゲンニホン,0
346,2011305002942,新規,0,2023-10-17,2023-10-17,一般社団法人日本インストラクターサポート協会,,その他の設立登記法人,東京都,杉並区,下高井戸５丁目１０番２号‐ｂｆ１０１,,13,115,1680073,,,,,,,2023-10-17,1,,,,,ニホンインストラクターサポートキョウカイ,0
349,2011401025541,新規,0,2023-10-17,2023-10-17,株式会社Ｄｒｅａｍ　Ｆｏｏｄｓ,,株式会社,東京都,板橋区,三園２丁目１６－７,,13,119,1750091,,,,,,,2023-10-17,1,,,,,ドリームフーズ,0
350,2011403004139,新規,0,2023-10-17,2023-10-17,合同会社プラウド,,合同会社,東京都,板橋区,四葉１丁目２５番１６号ドミール藤久２０２,,13,119,1750084,,,,,,,2023-10-17,1,,,,,プラウド,0
358,2011801043192,新規,0,2023-10-17,2023-10-17,ＧＫＣ　ＪＡＰＡＮ株式会社,,株式会社,東京都,葛飾区,堀切２丁目６０－９,,13,122,1240006,,,,,,,2023-10-17,1,,,,,ジーケーシージャパン,0
364,2013301051469,新規,0,2023-10-17,2023-10-17,株式会社ツキアカリ,,株式会社,東京都,豊島区,南池袋１丁目１２番６号母家ビル５階,,13,116,1710022,,,,,,,2023-10-17,1,,,,,ツキアカリ,0
367,2020001153933,新規,0,2023-10-17,2023-10-17,株式会社Ｅ．Ｉ．Ｓ,,株式会社,神奈川県,横浜市緑区,十日市場町８９４番地３ドレッセ横浜十日市場レジデンス１０４,,14,113,2260025,,,,,,,2023-10-17,1,,,,,イーアイエス,0
368,2020001153941,新規,0,2023-10-17,2023-10-17,ＮＳサポート株式会社,,株式会社,神奈川県,川崎市高津区,子母口５１２番地ステイツ武蔵新城市民プラザ通り２１５号,,14,134,2130023,,,,,,,2023-10-17,1,,,,,エヌエスサポート,0
369,2020001153958,新規,0,2023-10-17,2023-10-17,株式会社Ｆｉｒｓｔ　Ｂｏｎｄ,,株式会社,神奈川県,横浜市中区,桜木町１丁目１０１番地１クロスゲート７階,,14,104,2310062,,,,,,,2023-10-17,1,,,,,ファーストボンド,0
370,2020001153966,新規,0,2023-10-17,2023-10-17,株式会社ＧＯＧＯＯＵＴ,,株式会社,神奈川県,横浜市中区,相生町１丁目７番地和同ビル２階,,14,104,2310012,,,,,,,2023-10-17,1,,,,,ゴゴアウト,0
373,2020003024769,新規,0,2023-10-17,2023-10-17,フルオール合同会社,,合同会社,神奈川県,横浜市磯子区,田中１丁目１８番２８－１号,,14,107,2350035,,,,,,,2023-10-17,1,,,,,フルオール,0
374,2020003024777,新規,0,2023-10-17,2023-10-17,テンカラーズ・クラフト合同会社,,合同会社,神奈川県,川崎市宮前区,犬蔵１丁目２２番３０－１号,,14,136,2160011,,,,,,,2023-10-17,1,,,,,テンカラーズクラフト,0
384,2021001080473,新規,0,2023-10-17,2023-10-17,ユウシンホールディングス株式会社,,株式会社,神奈川県,横須賀市,久里浜１丁目２０００番地,,14,201,2390831,,,,,,,2023-10-17,1,,,,,ユウシンホールディングスユウシンホールディングス,0
388,2021003013679,新規,0,2023-10-17,2023-10-17,合同会社ＮＯＢＬＥ,,合同会社,神奈川県,相模原市緑区,大島１１番地１７７,,14,151,2520135,,,,,,,2023-10-17,1,,,,,,0
395,2030001156695,新規,0,2023-10-17,2023-10-17,ＡＳＫＳ株式会社,,株式会社,埼玉県,さいたま市南区,南本町２丁目１４番３－３０２号,,11,108,3360018,,,,,,,2023-10-17,1,,,,,アスクス,0
396,2030001156704,新規,0,2023-10-17,2023-10-17,株式会社Ｌｉｆｅ　ｓｕｎ,,株式会社,埼玉県,狭山市,広瀬３丁目６番１０号マロンリジェールＩ２０４,00132282,11,215,3501319,,,,,,,2023-10-17,1,,,,,ライフサン,0
397,2030001156712,新規,0,2023-10-17,2023-10-17,株式会社Ｒｅ・ＬＩＦＥ,,株式会社,埼玉県,川口市,仲町４番２号,,11,203,3320022,,,,,,,2023-10-17,1,,,,,リライフ,0
403,2030003022565,新規,0,2023-10-17,2023-10-17,ＡＪＪ合同会社,,合同会社,埼玉県,狭山市,大字北入曽２３４番地の１９,,11,215,3501315,,,,,,,2023-10-17,1,,,,,エィジェージェー,0
404,2030003022648,新規,0,2023-10-17,2023-10-17,ＩＢＳ　ＡＵＴＯ　ＰＡＲＴＳ合同会社,,合同会社,埼玉県,羽生市,大字今泉５４４番地イエロータウン２,,11,216,3480017,,,,,,,2023-10-17,1,,,,,アイビーエスオートパーツ,0
405,2030003022788,新規,0,2023-10-17,2023-10-17,合同会社マイ・アジャスト,,合同会社,埼玉県,越谷市,大字大里７９９番地６,,11,222,3430031,,,,,,,2023-10-17,1,,,,,マイアジャスト,0
410,2040001130534,新規,0,2023-10-17,2023-10-17,株式会社ｇｅｎｉｅｓｓｅｎ,,株式会社,千葉県,市原市,瀬又６１１番地５４,,12,219,2900151,,,,,,,2023-10-17,1,,,,,ゲニーセン,0
412,2040003023505,新規,0,2023-10-17,2023-10-17,合同会社鈴農,,合同会社,千葉県,成田市,新田３０１番地,,12,211,2870224,,,,,,,2023-10-17,1,,,,,スズノウ,0
413,2040003023538,新規,0,2023-10-17,2023-10-17,合同会社ｓｏｕｒｉａｎｔｐｓｏ,,合同会社,千葉県,市川市,市川１丁目２１番７号クレール市川プラザピコ２０６,,12,203,2720034,,,,,,,2023-10-17,1,,,,,スリアンピーエスオー,0
414,2040003023554,新規,0,2023-10-17,2023-10-17,アシスト合同会社,,合同会社,千葉県,市川市,香取１丁目９番５－２０１号ＯＭハイツ,,12,203,2720141,,,,,,,2023-10-17,1,,,,,アシスト,0
415,2040003023562,新規,0,2023-10-17,2023-10-17,合同会社アクセルアップ,,合同会社,千葉県,柏市,松葉町６丁目１７番地１７,,12,217,2770827,,,,,,,2023-10-17,1,,,,,アクセルアップ,0
417,2050001053635,新規,0,2023-10-17,2023-10-17,株式会社ちかべん,,株式会社,茨城県,常総市,新井木町９７番地１,,08,211,3030016,,,,,,,2023-10-17,1,,,,,チカベン,0
418,2050001053651,新規,0,2023-10-17,2023-10-17,ターナ株式会社,,株式会社,茨城県,古河市,仁連２０５４番地２３,,08,204,3060125,,,,,,,2023-10-17,1,,,,,ターナ,0
420,2060001036440,新規,0,2023-10-17,2023-10-17,株式会社フレワーク,,株式会社,栃木県,佐野市,天神町７２６番地５,,09,204,3270847,,,,,,,2023-10-17,1,,,,,フレワーク,0
426,2070001040978,新規,0,2023-10-17,2023-10-17,株式会社クレアーレ・コーポレーション,,株式会社,群馬県,前橋市,茂木町１２５１番地１２,,10,201,3710232,,,,,,,2023-10-17,1,,,,,クレアーレコーポレーション,0
427,2070001040986,新規,0,2023-10-17,2023-10-17,株式会社群馬商会,,株式会社,群馬県,伊勢崎市,茂呂町２丁目３５４０番地５,,10,204,3720034,,,,,,,2023-10-17,1,,,,,グンマショウカイ,0
428,2070003005129,新規,0,2023-10-17,2023-10-17,合同会社スイテック,,合同会社,群馬県,伊勢崎市,宗高町２１番地１,,10,204,3720053,,,,,,,2023-10-17,1,,,,,スイテック,0
431,2080003003073,新規,0,2023-10-17,2023-10-17,合同会社ダップ,,合同会社,静岡県,静岡市葵区,鷹匠１丁目１２－１静鉄鷹匠青葉円ビル１０５,,22,101,4200839,,,,,,,2023-10-17,1,,,,,ダップ,0
432,2080101024277,新規,0,2023-10-17,2023-10-17,株式会社野村エステート,,株式会社,静岡県,富士市,石坂２３番地の１,,22,210,4170862,,,,,,,2023-10-17,1,,,,,ノムラエステート,0
435,2080403004893,新規,0,2023-10-17,2023-10-17,ＴＥＲＡＫＯＹＡ合同会社,,合同会社,静岡県,浜松市浜北区,宮口４９０７番地の１,,22,136,4340004,,,,,,,2023-10-17,1,,,,,テラコヤ,0
446,2120001258796,新規,0,2023-10-17,2023-10-17,株式会社二羽,,株式会社,大阪府,大阪市平野区,平野西４丁目６番２０号プレアール平野西２０１号室,,27,126,5470033,,,,,,,2023-10-17,1,,,,,ニウ,0
447,2120001258821,新規,0,2023-10-17,2023-10-17,株式会社ＬＡＬＡＬＡ,,株式会社,大阪府,大阪市中央区,難波１丁目５番５号,,27,128,5420076,,,,,,,2023-10-17,1,,,,,ラララ,0
448,2120001258838,新規,0,2023-10-17,2023-10-17,栄創株式会社,,株式会社,大阪府,大阪市中央区,島之内２丁目４－１６ケイアンドティ道頓堀２０６,,27,128,5420082,,,,,,,2023-10-17,1,,,,,エイソウ,0
449,2120001258846,新規,0,2023-10-17,2023-10-17,Ｋ＆Ｆ株式会社,,株式会社,大阪府,大阪市浪速区,湊町２丁目２番５－１６０１号,,27,111,5560017,,,,,,,2023-10-17,1,,,,,ケーアンドエフ,0
450,2120001258854,新規,0,2023-10-17,2023-10-17,Ｙ’ｓ　Ａｃｃｏｕｎｔｉｎｇ株式会社,,株式会社,大阪府,大阪市北区,天神橋１丁目１８番２７－２０１号,,27,127,5300041,,,,,,,2023-10-17,1,,,,,ワイズアカウンティング,0
451,2120001258879,新規,0,2023-10-17,2023-10-17,和美堂株式会社,,株式会社,大阪府,大阪市東淀川区,豊里２丁目１８－１４アヴァンス淀川－ｅａｓｔ,,27,114,5330013,,,,,,,2023-10-17,1,,,,,ワミドウ,0
453,2120003025096,新規,0,2023-10-17,2023-10-17,合同会社ＳＨＩＤＯＨ,,合同会社,大阪府,大阪市北区,西天満４丁目７番１号北ビル１号館２０１,,27,127,5300047,,,,,,,2023-10-17,1,,,,,シドウ,0
454,2120003025105,新規,0,2023-10-17,2023-10-17,合同会社ＴＬＣ　Ｇａｒａｇｅ,,合同会社,大阪府,寝屋川市,北大利町４番６号,,27,215,5720032,,,,,,,2023-10-17,1,,,,,ティーエルシーガレージ,0
460,2120105009773,新規,0,2023-10-17,2023-10-17,ＮＰＯ法人Ｆｃ　Ｒｏｌｌ　Ｐａｎｅｎｋａ,,その他の設立登記法人,大阪府,松原市,西大塚２丁目３９６番地の１８,,27,217,5800011,,,,,,,2023-10-17,1,,,,,エフシーロールパネンカ,0
461,2120901048181,新規,0,2023-10-17,2023-10-17,株式会社結び,,株式会社,大阪府,三島郡島本町,青葉３丁目１２番３‐６０６号,,27,301,6180015,,,,,,,2023-10-17,1,,,,,ムスビ,0
465,2140001131968,新規,0,2023-10-17,2023-10-17,株式会社豆福,,株式会社,兵庫県,明石市,山下町４番２３号,,28,203,6730878,,,,,,,2023-10-17,1,,,,,マメフク,0
466,2140001131984,新規,0,2023-10-17,2023-10-17,株式会社自然をちからに,,株式会社,兵庫県,宝塚市,御殿山２丁目６番４号,,28,214,6650841,,,,,,,2023-10-17,1,,,,,シゼンヲチカラニ,0
467,2140001131992,新規,0,2023-10-17,2023-10-17,株式会社Ｓ．ＴＲＵＳＴ,,株式会社,兵庫県,姫路市,城東町６０番地９,,28,201,6700841,,,,,,,2023-10-17,1,,,,,エストラスト,0
468,2140001132000,新規,0,2023-10-17,2023-10-17,Ｎｅｓｔプロダクション株式会社,,株式会社,兵庫県,神戸市東灘区,魚崎南町５丁目５番１２－６０７号,,28,101,6580025,,,,,,,2023-10-17,1,,,,,ネストプロダクション,0
471,2140003019674,新規,0,2023-10-17,2023-10-17,合同会社アレグロ,,合同会社,兵庫県,西宮市,津門大箇町１３番２４－５０４号,,28,204,6638243,,,,,,,2023-10-17,1,,,,,アレグロ,0
472,2140003019690,新規,0,2023-10-17,2023-10-17,合同会社ＸＩＡＭＩ,,合同会社,兵庫県,西宮市,老松町１８－５－７３６,,28,204,6620085,,,,,,,2023-10-17,1,,,,,シャミ,0
482,2170005007047,新規,0,2023-10-17,2023-10-17,一般社団法人ワーカルラボ,,その他の設立登記法人,和歌山県,和歌山市,畑屋敷西ノ丁２３アトリエグリッド１階,,30,201,6408396,,,,,,,2023-10-17,1,,,,,ワーカルラボ,0
490,2180001158495,新規,0,2023-10-17,2023-10-17,株式会社貞・工房,,株式会社,愛知県,清須市,朝日五条１０３番地,,23,233,4520932,,,,,,,2023-10-17,1,,,,,サダコウボウ,0
491,2180001158504,新規,0,2023-10-17,2023-10-17,株式会社ＨＡＴＣＨ,,株式会社,愛知県,名古屋市西区,大野木４丁目３７９番地,,23,104,4520803,,,,,,,2023-10-17,1,,,,,ハッチ,0
494,2180003025859,新規,0,2023-10-17,2023-10-17,モリタ商事合同会社,,合同会社,愛知県,名古屋市中区,栄５丁目９番１５号,,23,106,4600008,,,,,,,2023-10-17,1,,,,,モリタショウジ,0
496,2180301037894,新規,0,2023-10-17,2023-10-17,株式会社英芳建工,,株式会社,愛知県,高浜市,湯山町５丁目８番地３ガーデンホームズ高浜３０２,,23,227,4441332,,,,,,,2023-10-17,1,,,,,ヒデヨシケンコウ,0
497,2180301037903,新規,0,2023-10-17,2023-10-17,株式会社フォルテ,,株式会社,愛知県,刈谷市,井ケ谷町孫六７２番地２,,23,210,4480001,,,,,,,2023-10-17,1,,,,,フォルテ,0
499,2190001030810,新規,0,2023-10-17,2023-10-17,株式会社クラフトフレッシュカネテ,,株式会社,三重県,津市,河芸町中別保字香浦１９６０番地,,24,201,5100305,,,,,,,2023-10-17,1,,,,,クラフトフレッシュカネテ,0
505,2220003003604,新規,0,2023-10-17,2023-10-17,ケークラッセ合同会社,,合同会社,石川県,白山市,長屋町イ６３番地１,,17,210,9290214,,,,,,,2023-10-17,1,,,,,ケークラッセ,0
514,2250001020350,新規,0,2023-10-17,2023-10-17,株式会社ＪＡＭ,,株式会社,山口県,下関市,大字小野４１６－１,,35,201,7510887,,,,,,,2023-10-17,1,,,,,ジャム,0
518,2260001038400,新規,0,2023-10-17,2023-10-17,株式会社ＫＡＧＵＲＡ,,株式会社,岡山県,岡山市中区,祇園５５７番地３,00132272,33,102,7038207,,,,,,,2023-10-17,1,,,,,カグラ,0
533,2290003014479,新規,0,2023-10-17,2023-10-17,ＭａｋｅＣａｒｅｅｒ合同会社,,合同会社,福岡県,福岡市中央区,渡辺通２丁目９－２０,,40,133,8100004,,,,,,,2023-10-17,1,,,,,メイクキャリア,0
538,2290801029950,新規,0,2023-10-17,2023-10-17,Ｒｅ・ｍａｉｓｏｎ株式会社,,株式会社,福岡県,北九州市小倉南区,守恒本町２丁目１１番３－３０１号,,40,107,8020971,,,,,,,2023-10-17,1,,,,,リメゾン,0
549,2320003004204,新規,0,2023-10-17,2023-10-17,合同会社リンクテック,,合同会社,大分県,大分市,大字旦野原５４７番地の１７,,44,201,8701124,,,,,,,2023-10-17,1,,,,,リンクテック,0
556,2360001032665,新規,0,2023-10-17,2023-10-17,株式会社東羅青,,株式会社,沖縄県,国頭郡宜野座村,字漢那６４番地２,,47,313,9041304,,,,,,,2023-10-17,1,,,,,トウラジョウ,0
560,2370001050526,新規,0,2023-10-17,2023-10-17,株式会社ゆう,,株式会社,宮城県,仙台市宮城野区,宮千代２丁目１番地の２アイランドビル３０１号,,04,102,9830044,,,,,,,2023-10-17,1,,,,,ユウ,0
562,2380001034065,新規,0,2023-10-17,2023-10-17,ｈｉｋａｒｉ機工株式会社,,株式会社,福島県,大沼郡会津美里町,寺崎字寺崎４７番地,,07,447,9696271,,,,,,,2023-10-17,1,,,,,ヒカリキコウ,0
563,2380003005592,新規,0,2023-10-17,2023-10-17,合同会社マチカドヤ,,合同会社,福島県,南会津郡南会津町,田島字寺前甲２９２３,,07,368,9670004,,,,,,,2023-10-17,1,,,,,マチカドヤ,0
564,2380005012760,新規,0,2023-10-17,2023-10-17,医療法人天藤会,,その他の設立登記法人,福島県,伊達郡桑折町,字陣屋１番地６,,07,301,9691617,,,,,,,2023-10-17,1,,,,,テンドウカイ,0
565,2400001016432,新規,0,2023-10-17,2023-10-17,株式会社リクラフト,,株式会社,岩手県,紫波郡紫波町,日詰西４丁目１番１９号,,03,321,0283306,,,,,,,2023-10-17,1,,,,,リクラフト,0
566,2420001018451,新規,0,2023-10-17,2023-10-17,株式会社ＫＴＳ,,株式会社,青森県,青森市,大字浦町字奥野３４８番地２６,,02,201,0300842,,,,,,,2023-10-17,1,,,,,ケーティーエス,0
590,3010001239187,新規,0,2023-10-17,2023-10-17,ＹＵＷＡ株式会社,,株式会社,東京都,中央区,入船３丁目２番９号築地ハイツ６０１,,13,102,1040042,,,,,,,2023-10-17,1,,,,,ユーワ,0
591,3010001239253,新規,0,2023-10-17,2023-10-17,株式会社Ｋｏｋｉ,,株式会社,東京都,中央区,日本橋２丁目２番３号ＲＩＳＨＥビルＵＣＦ４０２,,13,102,1030027,,,,,,,2023-10-17,1,,,,,コウキ,0
595,3010003041913,新規,0,2023-10-17,2023-10-17,合同会社Ｍａｇｅ,,合同会社,東京都,中央区,銀座１丁目２２番１１号銀座大竹ビジデンス２Ｆ,,13,102,1040061,,,,,,,2023-10-17,1,,,,,マゲ,0
596,3010003041938,新規,0,2023-10-17,2023-10-17,合同会社ＨＩＯ,,合同会社,東京都,千代田区,二番町５番７号ＪＰビル６階,,13,101,1020084,,,,,,,2023-10-17,1,,,,,エイチアイオー,0
597,3010003041946,新規,0,2023-10-17,2023-10-17,合同会社フレンテアーク,,合同会社,東京都,千代田区,内神田３丁目２３番８号,,13,101,1010047,,,,,,,2023-10-17,1,,,,,フレンテアーク,0
605,3010401177821,新規,0,2023-10-17,2023-10-17,Ｔｈｅ　Ｃａｐｉｔａｌ　ＥＬ　Ｊａｐａｎ株式会社,,株式会社,東京都,港区,赤坂２丁目２１番８号,,13,103,1070052,,,,,,,2023-10-17,1,,,,,ザキャピタルイーエルジャパン,0
608,3010405022560,新規,0,2023-10-17,2023-10-17,一般社団法人Ｄｏｃｕ　Ａｔｈａｎ,,その他の設立登記法人,東京都,港区,南青山２丁目２番１５号,,13,103,1070062,,,,,,,2023-10-17,1,,,,,ドキュアッタン,0
609,3010501051208,新規,0,2023-10-17,2023-10-17,株式会社クラウドワーカー,,株式会社,東京都,台東区,上野２丁目１２番１８号,,13,106,1100005,,,,,,,2023-10-17,1,,,,,クラウドワーカー,0
612,3010603010425,新規,0,2023-10-17,2023-10-17,合同会社Ｏｐｔｉｌｅ,,合同会社,東京都,江東区,塩浜１丁目６番８‐４０１号,,13,108,1350043,,,,,,,2023-10-17,1,,,,,オプティル,0
615,3010701044985,新規,0,2023-10-17,2023-10-17,株式会社あんしんビジネス,,株式会社,東京都,品川区,大井７丁目１９番７号,,13,109,1400014,,,,,,,2023-10-17,1,,,,,アンシンビジネス,0
617,3010801034432,新規,0,2023-10-17,2023-10-17,株式会社ＡＤＬ,,株式会社,東京都,大田区,西糀谷４丁目４番４号－１０３,,13,111,1440034,,,,,,,2023-10-17,1,,,,,エーディエル,0
621,3010901053984,新規,0,2023-10-17,2023-10-17,株式会社オフィスゼロ,,株式会社,東京都,世田谷区,若林２丁目１１番１１号,,13,112,1540023,,,,,,,2023-10-17,1,,,,,オフィスゼロ,0
629,3011001157536,新規,0,2023-10-17,2023-10-17,株式会社ｂａｓｅ３,,株式会社,東京都,渋谷区,神宮前６丁目２３番４号桑野ビル２階,,13,113,1500001,,,,,,,2023-10-17,1,,,,,ベーススリー,0
630,3011001157619,新規,0,2023-10-17,2023-10-17,株式会社ＡＫＴ,,株式会社,東京都,渋谷区,渋谷１丁目２２番１号ＣＨビル,,13,113,1500002,,,,,,,2023-10-17,1,,,,,エーケーティー,0
636,3011103013604,新規,0,2023-10-17,2023-10-17,合同会社志菴,,合同会社,東京都,新宿区,西新宿３丁目５番１２号トーカン新宿第二キャステール３１０号室,,13,104,1600023,,,,,,,2023-10-17,1,,,,,シアン,0
638,3011203004197,新規,0,2023-10-17,2023-10-17,Ｓｏｌｉｓ合同会社,,合同会社,東京都,中野区,野方２丁目５６番６号ソル・レヴェンテ高円寺Ｉ３０２,00132281,13,114,1650027,,,,,,,2023-10-17,1,,,,,ソリス,0
642,3011301029096,新規,0,2023-10-17,2023-10-17,株式会社中澤住宅,,株式会社,東京都,杉並区,成田東５丁目１５番１７号４０１,,13,115,1660015,,,,,,,2023-10-17,1,,,,,ナカザワジュウタク,0
649,3012401041115,新規,0,2023-10-17,2023-10-17,株式会社みなもと,,株式会社,東京都,府中市,本町２丁目２０番地の４４,,13,206,1830027,,,,,,,2023-10-17,1,,,,,ミナモト,0
650,3012403006231,新規,0,2023-10-17,2023-10-17,合同会社キャトルアッシュ,,合同会社,東京都,狛江市,中和泉１丁目３番２号,,13,219,2010012,,,,,,,2023-10-17,1,,,,,キャトルアッシュ,0
651,3012801022697,新規,0,2023-10-17,2023-10-17,株式会社Ｓ・Ｃ・Ｎ,,株式会社,東京都,立川市,柴崎町３丁目８番５号立川ＮＸビル５Ｆ,,13,202,1900023,,,,,,,2023-10-17,1,,,,,エスシーエヌ,0
652,3013301051484,新規,0,2023-10-17,2023-10-17,株式会社田中,,株式会社,東京都,豊島区,雑司が谷１丁目２６番８号,,13,116,1710032,,,,,,,2023-10-17,1,,,,,タナカ,0
653,3013301051501,新規,0,2023-10-17,2023-10-17,株式会社エアーランド,,株式会社,東京都,豊島区,目白２丁目５番２７号,,13,116,1710031,,,,,,,2023-10-17,1,,,,,エアーランド,0
668,3020001153998,新規,0,2023-10-17,2023-10-17,ＴＡＫ株式会社,,株式会社,神奈川県,川崎市高津区,蟹ケ谷３３５番地５,,14,134,2130025,,,,,,,2023-10-17,1,,,,,ティーエーケー,0
671,3020003024768,新規,0,2023-10-17,2023-10-17,合同会社ちょび,,合同会社,神奈川県,川崎市中原区,新丸子東３丁目１１１１番地１レジデンス・ザ・武蔵小杉２００１,,14,133,2110004,,,,,,,2023-10-17,1,,,,,チョビ,0
672,3020003024784,新規,0,2023-10-17,2023-10-17,Ｍ＆Ｍ合同会社,,合同会社,神奈川県,横浜市中区,根岸旭台１１．レガティス横濱山手４０２,,14,104,2310854,,,,,,,2023-10-17,1,,,,,エムアンドエム,0
677,3021001080480,新規,0,2023-10-17,2023-10-17,Ｚ＆Ｗ株式会社,,株式会社,神奈川県,大和市,上和田８９６番地,,14,213,2420014,,,,,,,2023-10-17,1,,,,,ゼットアンドダブリュウ,0
678,3021001080489,新規,0,2023-10-17,2023-10-17,株式会社大華,,株式会社,神奈川県,相模原市中央区,相模原５丁目２番１６－３０４号,,14,152,2520231,,,,,,,2023-10-17,1,,,,,ダイカ,0
682,3021003013686,新規,0,2023-10-17,2023-10-17,合同会社サプナ,,合同会社,神奈川県,座間市,相模が丘４丁目５番地１５号ＳｈａｄｙＬａｎｅ１０３号,,14,216,2520001,,,,,,,2023-10-17,1,,,,,サプナ,0
694,3030001156463,新規,0,2023-10-17,2023-10-17,株式会社フィールド,,株式会社,埼玉県,戸田市,美女木東２丁目２番地１号,,11,224,3350032,,,,,,,2023-10-17,1,,,,,フィールド,0
695,3030001156645,新規,0,2023-10-17,2023-10-17,株式会社ｕ,,株式会社,埼玉県,さいたま市緑区,大字大門７５２番地,,11,109,3360963,,,,,,,2023-10-17,1,,,,,ユー,0
696,3030001156686,新規,0,2023-10-17,2023-10-17,株式会社ＪＹ‐ｏｆｆｉｃｅ,,株式会社,埼玉県,北葛飾郡松伏町,田中３丁目１６番地２アネックスミオンＡ１０１,,11,465,3430117,,,,,,,2023-10-17,1,,,,,ジェーワイオフィス,0
697,3030001156694,新規,0,2023-10-17,2023-10-17,株式会社Ｒａｖｉｅ,,株式会社,埼玉県,さいたま市西区,大字中釘２０２７－５,,11,101,3310077,,,,,,,2023-10-17,1,,,,,ラヴィー,0
698,3030001156703,新規,0,2023-10-17,2023-10-17,株式会社サニー,,株式会社,埼玉県,川越市,大字吉田１６９番地３,,11,201,3500807,,,,,,,2023-10-17,1,,,,,サニー,0
699,3030001156736,新規,0,2023-10-17,2023-10-17,株式会社ＡＹＡＮＡ,,株式会社,埼玉県,久喜市,久喜中央２丁目９－３４－２０１,,11,232,3460003,,,,,,,2023-10-17,1,,,,,アヤナ,0
701,3030003022647,新規,0,2023-10-17,2023-10-17,ＡＹＮＡＮ　ＡＵＴＯＶＩＳＩＯＮ合同会社,,合同会社,埼玉県,羽生市,大字今泉５４４番地イエロータウン３,,11,216,3480017,,,,,,,2023-10-17,1,,,,,アイネンオートビセン,0
702,3030003022770,新規,0,2023-10-17,2023-10-17,合同会社ＳＴＡＹＤＲＥＭ,,合同会社,埼玉県,ふじみ野市,南台２丁目１番１３号サウスコートふじみ野１０６号室,,11,245,3560036,,,,,,,2023-10-17,1,,,,,ステイドリーム,0
703,3030003022795,新規,0,2023-10-17,2023-10-17,合同会社ＭＯＣＯ．ＬＡＢ,,合同会社,埼玉県,所沢市,上新井３丁目４４－１２,,11,208,3591142,,,,,,,2023-10-17,1,,,,,モコラボ,0
710,3040001130509,新規,0,2023-10-17,2023-10-17,株式会社モモ,,株式会社,千葉県,長生郡長生村,一松丙４３５５番地１,,12,423,2994325,,,,,,,2023-10-17,1,,,,,モモ,0
711,3040001130517,新規,0,2023-10-17,2023-10-17,株式会社むさし野建工,,株式会社,千葉県,市川市,大野町３丁目２１３番地,,12,203,2720805,,,,,,,2023-10-17,1,,,,,ムサシノケンコウ,0
712,3040001130533,新規,0,2023-10-17,2023-10-17,株式会社ＤＶＩ,,株式会社,千葉県,印旛郡栄町,布鎌酒直３番地,,12,329,2701522,,,,,,,2023-10-17,1,,,,,ディブイアイ,0
713,3040001130566,新規,0,2023-10-17,2023-10-17,株式会社美祈工業,,株式会社,千葉県,八千代市,大和田新田４８５番地１スミィード１０２号,,12,221,2760046,,,,,,,2023-10-17,1,,,,,,0
717,3040003023561,新規,0,2023-10-17,2023-10-17,合同会社メリディアン,,合同会社,千葉県,我孫子市,新木野３丁目１１番１７号,,12,222,2701114,,,,,,,2023-10-17,1,,,,,メリディアン,0
719,3050001053634,新規,0,2023-10-17,2023-10-17,株式会社プログレス,,株式会社,茨城県,土浦市,木田余東台１丁目５番４号,,08,203,3000027,,,,,,,2023-10-17,1,,,,,プログレス,0
720,3050001053642,新規,0,2023-10-17,2023-10-17,一和プラント株式会社,,株式会社,茨城県,神栖市,柳川中央１丁目７番地１４,,08,232,3140258,,,,,,,2023-10-17,1,,,,,イチワプラント,0
721,3050001053650,新規,0,2023-10-17,2023-10-17,株式会社田山工業,,株式会社,茨城県,神栖市,平泉９０３番地７０チェリーブルームＢｌｏｃｋ９－１０１,,08,232,3140146,,,,,,,2023-10-17,1,,,,,タヤマコウギョウ,0
724,3050003007852,新規,0,2023-10-17,2023-10-17,合同会社ＥＬＰＵＬＰＯＬＯＣＯ,,合同会社,茨城県,つくば市,花室１５９６番地１,,08,220,3050025,,,,,,,2023-10-17,1,,,,,エルポルポルコ,0
726,3070001040960,新規,0,2023-10-17,2023-10-17,株式会社ｂａｌａｎｃｅ‐ｇ,,株式会社,群馬県,藤岡市,本郷３２４番地８,,10,209,3750023,,,,,,,2023-10-17,1,,,,,,0
727,3070001040977,新規,0,2023-10-17,2023-10-17,株式会社ＫＡＴＥＫＹＯ東毛,,株式会社,群馬県,太田市,東本町２６番地７金万ビル２Ｆ,,10,205,3730026,,,,,,,2023-10-17,1,,,,,カテキョウトウモウ,0
728,3070003005136,新規,0,2023-10-17,2023-10-17,ゴーリンク合同会社,,合同会社,群馬県,吾妻郡長野原町,大字北軽井沢１９２４番地１７２－９０２号,,10,424,3771412,,,,,,,2023-10-17,1,,,,,ゴーリンク,0
733,3080101024268,新規,0,2023-10-17,2023-10-17,株式会社大建,,株式会社,静岡県,富士市,入山瀬２丁目５番７３号,,22,210,4190204,,,,,,,2023-10-17,1,,,,,ダイケン,0
743,3120001258812,新規,0,2023-10-17,2023-10-17,株式会社ＣＯＭＲＡＤＥ,,株式会社,大阪府,大阪市大正区,千島３丁目１８番地１６号,,27,108,5510003,,,,,,,2023-10-17,1,,,,,コムレイド,0
744,3120001258845,新規,0,2023-10-17,2023-10-17,株式会社コネック,,株式会社,大阪府,大阪市北区,芝田２丁目２番１３号,,27,127,5300012,,,,,,,2023-10-17,1,,,,,コネック,0
745,3120001258853,新規,0,2023-10-17,2023-10-17,株式会社ファースト,,株式会社,大阪府,大阪市中央区,西心斎橋２丁目１８番１３号ザ・レジデンス心斎橋７０５,,27,128,5420086,,,,,,,2023-10-17,1,,,,,ファースト,0
746,3120001258861,新規,0,2023-10-17,2023-10-17,株式会社サービスＦＯＷ,,株式会社,大阪府,大阪市北区,大淀中３丁目１３番１６号,,27,127,5310076,,,,,,,2023-10-17,1,,,,,サービスホウ,0
749,3120005023931,新規,0,2023-10-17,2023-10-17,一般社団法人ウェルネス＆フィットネストレーナー協会,,その他の設立登記法人,大阪府,大阪市福島区,福島６丁目１７－５,,27,103,5530003,,,,,,,2023-10-17,1,,,,,ウェルネスアンドフィットネストレーナーキョウカイ,0
752,3120901048180,新規,0,2023-10-17,2023-10-17,株式会社北斗自動車,,株式会社,大阪府,豊中市,走井１丁目１７番７号,,27,203,5610891,,,,,,,2023-10-17,1,,,,,ホクトジドウシャ,0
753,3120901048197,新規,0,2023-10-17,2023-10-17,創喜株式会社,,株式会社,大阪府,茨木市,花園２丁目１番３９号の１,,27,211,5670017,,,,,,,2023-10-17,1,,,,,ソウキ,0
754,3120903004867,新規,0,2023-10-17,2023-10-17,合同会社今西企画,,合同会社,大阪府,摂津市,鳥飼野々２丁目２番３－７０１号,,27,224,5660053,,,,,,,2023-10-17,1,,,,,イマニシキカク,0
758,3130001075463,新規,0,2023-10-17,2023-10-17,株式会社Ａｔａｓｉｎｏ,,株式会社,京都府,京都市下京区,朱雀宝蔵町４４番地協栄ビル２階京都朱雀スタジオ,,26,106,6008846,,,,,,,2023-10-17,1,,,,,アタシノ,0
759,3130001075505,新規,0,2023-10-17,2023-10-17,アスシード株式会社,,株式会社,京都府,福知山市,字土師７６６番地,,26,201,6200857,,,,,,,2023-10-17,1,,,,,アスシード,0
770,3140001131950,新規,0,2023-10-17,2023-10-17,株式会社クルマの秘密基地,,株式会社,兵庫県,加古郡稲美町,六分一１１７８－５５９,,28,381,6751112,,,,,,,2023-10-17,1,,,,,クルマノヒミツキチ,0
771,3140001131983,新規,0,2023-10-17,2023-10-17,株式会社山陽,,株式会社,兵庫県,姫路市,飾磨区構２丁目１３８番地シャーメゾン構２０３,,28,201,6728071,,,,,,,2023-10-17,1,,,,,サンヨウ,0
772,3140001132016,新規,0,2023-10-17,2023-10-17,株式会社阪神トラスト,,株式会社,兵庫県,神戸市灘区,土山町７番４２－８０３号,,28,102,6570022,,,,,,,2023-10-17,1,,,,,ハンシントラスト,0
773,3140003019681,新規,0,2023-10-17,2023-10-17,合同会社前島自動車商会,,合同会社,兵庫県,相生市,佐方杉原タワ７５４番地１,,28,208,6780063,,,,,,,2023-10-17,1,,,,,マエジマジドウシャショウカイ,0
780,3180001158494,新規,0,2023-10-17,2023-10-17,株式会社ＯＸＹＴＲＯＮ,,株式会社,愛知県,名古屋市中区,栄２丁目３番１号名古屋広小路ビルヂング１１階,,23,106,4600008,,,,,,,2023-10-17,1,,,,,オキシトロン,0
781,3180001158511,新規,0,2023-10-17,2023-10-17,株式会社Ｊｕ‐Ｎｅｘｔ,,株式会社,愛知県,名古屋市西区,城西４丁目５番４号,,23,104,4510031,,,,,,,2023-10-17,1,,,,,ジェイユーネクスト,0
784,3180301037893,新規,0,2023-10-17,2023-10-17,株式会社ＴＲＵＮＫ　ＨＯＭＥ,,株式会社,愛知県,豊田市,勘八町長根４６番地１５,,23,211,4700328,,,,,,,2023-10-17,1,,,,,トランクホーム,0
785,3180301037910,新規,0,2023-10-17,2023-10-17,株式会社向日葵のひざし,,株式会社,愛知県,岡崎市,欠町字金谷１０番地１Ｓ＆Ｓビル５０２,,23,202,4440011,,,,,,,2023-10-17,1,,,,,ヒマワリノヒザシ,0
787,3190001030792,新規,0,2023-10-17,2023-10-17,炬佳國際貿易株式会社,,株式会社,三重県,四日市市,高浜町１０－１０,,24,202,5100026,,,,,,,2023-10-17,1,,,,,キョカコクサイボウエキ,0
795,3200003006112,新規,0,2023-10-17,2023-10-17,ＪＣ　ＬＡＮＫＡ合同会社,,合同会社,岐阜県,土岐市,泉明治町１丁目２２番地の２,,21,212,5095146,,,,,,,2023-10-17,1,,,,,ジェイシーランカ,0
796,3210001019511,新規,0,2023-10-17,2023-10-17,株式会社Ａ＆Ｈ,,株式会社,福井県,福井市,西木田５丁目９番６号,,18,201,9188004,,,,,,,2023-10-17,1,,,,,エイアンドエイチ,0
818,3280001009051,新規,0,2023-10-17,2023-10-17,株式会社ＭＦＣ,,株式会社,島根県,隠岐郡隠岐の島町,大久諾浦４１番地,,32,528,6850001,,,,,,,2023-10-17,1,,,,,メフチャー,0
825,3290001103183,新規,0,2023-10-17,2023-10-17,株式会社ＩＮＳＩＤＥＳＴ,,株式会社,福岡県,福岡市中央区,天神４丁目６‐２８天神ファーストビル７階,,40,133,8100001,,,,,,,2023-10-17,1,,,,,インサイディスト,0
829,3290003014445,新規,0,2023-10-17,2023-10-17,合資会社Ｄｅａｒｅｓｔ,,合資会社,福岡県,福岡市中央区,薬院２丁目２番２４－３０１号,,40,133,8100022,,,,,,,2023-10-17,1,,,,,ディアレスト,0
830,3290003014486,新規,0,2023-10-17,2023-10-17,合同会社Ｊ＆Ｗ,,合同会社,福岡県,福岡市中央区,赤坂１丁目７番５号,,40,133,8100042,,,,,,,2023-10-17,1,,,,,ジェイアンドダブル,0
839,3360001032689,新規,0,2023-10-17,2023-10-17,アクラス株式会社,,株式会社,沖縄県,中頭郡北谷町,美浜３丁目１番地８ソフィア美浜３－Ｂ,,47,326,9040115,,,,,,,2023-10-17,1,,,,,アクラス,0
855,3380003005591,新規,0,2023-10-17,2023-10-17,楽らくカンパニー合同会社,,合同会社,福島県,いわき市,中央台高久３丁目３６番地の７,,07,204,9708047,,,,,,,2023-10-17,1,,,,,ラクラクカンパニー,0
858,3410003003848,新規,0,2023-10-17,2023-10-17,合同会社ＴＳ企画,,合同会社,秋田県,横手市,雄物川町今宿字下谷地４,,05,203,0130205,,,,,,,2023-10-17,1,,,,,テーエスキカク,0
865,3430001090192,新規,0,2023-10-17,2023-10-17,株式会社サポーター,,株式会社,北海道,札幌市中央区,北二条東１０丁目１５番地１１,,01,101,0600032,,,,,,,2023-10-17,1,,,,,サポーター,0
866,3430001090226,新規,0,2023-10-17,2023-10-17,株式会社永進,,株式会社,北海道,札幌市白石区,北郷二条７丁目１番２号,,01,104,0030832,,,,,,,2023-10-17,1,,,,,エイシン,0
867,3430003015453,新規,0,2023-10-17,2023-10-17,合同会社Ｎダイニング,,合同会社,北海道,札幌市厚別区,厚別西三条５丁目１番２９号,,01,108,0040063,,,,,,,2023-10-17,1,,,,,エヌダイニング,0
868,3460103001565,新規,0,2023-10-17,2023-10-17,合同会社七星,,合同会社,北海道,帯広市,西二十条南２丁目２４－１０,,01,207,0802470,,,,,,,2023-10-17,1,,,,,シチセイ,0
870,3480003002034,新規,0,2023-10-17,2023-10-17,合同会社ＪＷ,,合同会社,徳島県,徳島市,北田宮３丁目９番４５号,,36,201,7700003,,,,,,,2023-10-17,1,,,,,ジェイダブリュー,0
883,4010001239252,新規,0,2023-10-17,2023-10-17,株式会社Ｃｒｅｅｒ,,株式会社,東京都,文京区,本郷３丁目１９番６号ワイユウビル７階,,13,105,1130033,,,,,,,2023-10-17,1,,,,,クリエー,0
884,4010001239285,新規,0,2023-10-17,2023-10-17,株式会社うまずたゆまず,,株式会社,東京都,中央区,日本橋室町１丁目１２番１３号,,13,102,1030022,,,,,,,2023-10-17,1,,,,,ウマズタユマズ,0
886,4010003041953,新規,0,2023-10-17,2023-10-17,合同会社Ｌｉｂｅｒｔａ,,合同会社,東京都,千代田区,神田和泉町一丁目６番地１６ヤマトビル４０５,,13,101,1010024,,,,,,,2023-10-17,1,,,,,リベルタ,0
898,4010403031174,新規,0,2023-10-17,2023-10-17,Ｇキャピタル１号合同会社,,合同会社,東京都,港区,西新橋１丁目２０番１０号,,13,103,1050003,,,,,,,2023-10-17,1,,,,,ジーキャピタルイチゴウ,0
902,4010701044984,新規,0,2023-10-17,2023-10-17,株式会社ＡＴ９０,,株式会社,東京都,品川区,上大崎３丁目１４－４４－２０６,,13,109,1410021,,,,,,,2023-10-17,1,,,,,エーティーナインティ,0
904,4010801034423,新規,0,2023-10-17,2023-10-17,株式会社ハヤシ商事,,株式会社,東京都,大田区,西蒲田６丁目７番２号,,13,111,1440051,,,,,,,2023-10-17,1,,,,,ハヤシショウジ,0
906,4010901053983,新規,0,2023-10-17,2023-10-17,株式会社ＦＡＩＲＹ　ＭＵＳＩＣ　ＯＦＦＩＣＥ,,株式会社,東京都,世田谷区,成城８丁目３１番１２号,,13,112,1570066,,,,,,,2023-10-17,1,,,,,フェアリーミュージックオフィス,0
921,4011001157642,新規,0,2023-10-17,2023-10-17,株式会社ノイエージェンシー,,株式会社,東京都,渋谷区,本町５丁目２７番１４号アームふくよし３０１,,13,113,1510071,,,,,,,2023-10-17,1,,,,,ノイエージェンシー,0
922,4011001157659,新規,0,2023-10-17,2023-10-17,株式会社ｍｅｍｏｒａｎｄｏｍ,,株式会社,東京都,渋谷区,広尾３丁目１２番４０号広尾ビル６０２号室,,13,113,1500012,,,,,,,2023-10-17,1,,,,,メモランダム,0
932,4011101104750,新規,0,2023-10-17,2023-10-17,株式会社一振り,,株式会社,東京都,新宿区,西早稲田２丁目１７番１２－３１１号,,13,104,1690051,,,,,,,2023-10-17,1,,,,,ヒトフリ,0
936,4011303004939,新規,0,2023-10-17,2023-10-17,合同会社Ｉｎｄｉｅ,,合同会社,東京都,杉並区,阿佐谷北２丁目５番７－３０６号ＡＲＫＨＯＵＳＥＡＳＡＧＡＹＡ,,13,115,1660001,,,,,,,2023-10-17,1,,,,,インディ,0
945,4012801022696,新規,0,2023-10-17,2023-10-17,株式会社Ｅ‐ｓｔｙｌｅ,,株式会社,東京都,日野市,日野台４丁目３０番地の５,,13,212,1910003,,,,,,,2023-10-17,1,,,,,イースタイル,0
949,4013301051475,新規,0,2023-10-17,2023-10-17,株式会社ｂａｍｂｉ,,株式会社,東京都,豊島区,池袋２丁目１１－２アルコイルスＫビル４Ｆ,,13,116,1710014,,,,,,,2023-10-17,1,,,,,バンビ,0
950,4013301051483,新規,0,2023-10-17,2023-10-17,拓普佰林株式会社,,株式会社,東京都,豊島区,東池袋４丁目８番１号エイチエックスビルＢ１０７号室,,13,116,1700013,,,,,,,2023-10-17,1,,,,,トプヒャクリン,0
956,4020001153989,新規,0,2023-10-17,2023-10-17,株式会社アース,,株式会社,神奈川県,横浜市都筑区,中川１丁目２番Ｄ―７０１,,14,118,2240001,,,,,,,2023-10-17,1,,,,,アース,0
960,4020003024783,新規,0,2023-10-17,2023-10-17,合同会社ＳＴＫ　ＬＩＭＩＴＥＤ　ＣＯＭＰＡＮＹ,,合同会社,神奈川県,横浜市南区,新川町５丁目２９番地６リバーサイドマンション４０２号室,,14,105,2320027,,,,,,,2023-10-17,1,,,,,エスティーケーリミテッドカンパニー,0
966,4021001080463,新規,0,2023-10-17,2023-10-17,株式会社エアワン,,株式会社,神奈川県,茅ヶ崎市,緑が浜８番１５－２０１号ライオンズマンション湘南緑が浜,,14,207,2530034,,,,,,,2023-10-17,1,,,,,エアワン,0
968,4021003013685,新規,0,2023-10-17,2023-10-17,合同会社ＫＹＥ,,合同会社,神奈川県,横須賀市,小川町七丁目１９番５号富士ビル３階,,14,201,2380004,,,,,,,2023-10-17,1,,,,,ケイワイイ,0
975,4030001156628,新規,0,2023-10-17,2023-10-17,株式会社明和興業,,株式会社,埼玉県,和光市,新倉２丁目１５番６号,,11,229,3510115,,,,,,,2023-10-17,1,,,,,メイワコウギョウ,0
976,4030001156693,新規,0,2023-10-17,2023-10-17,株式会社ＢｉｚＧｅｎｉｘ,,株式会社,埼玉県,所沢市,小手指元町３丁目２７番地の１７,,11,208,3591147,,,,,,,2023-10-17,1,,,,,ビズジェニックス,0
990,4030003022786,新規,0,2023-10-17,2023-10-17,合同会社也紗,,合同会社,埼玉県,川口市,芝西２丁目１７番１８号,,11,203,3330855,,,,,,,2023-10-17,1,,,,,ナリサ,0
993,4030005021423,新規,0,2023-10-17,2023-10-17,弁護士法人岸町法律事務所,,その他の設立登記法人,埼玉県,さいたま市浦和区,岸町７丁目１２番１０号,,11,107,3300064,,,,,,,2023-10-17,1,,,,,キシチョウホウリツジムショ,0
996,4040001130540,新規,0,2023-10-17,2023-10-17,株式会社テンクック,,株式会社,千葉県,松戸市,本町１７－１１芹澤ビル６Ｆ,,12,207,2710091,,,,,,,2023-10-17,1,,,,,テンクック,0
1000,4050001053641,新規,0,2023-10-17,2023-10-17,株式会社フィールドリペア,,株式会社,茨城県,古河市,大山１５９１番地２３オークヒルズＢ棟１０３号室,,08,204,3060052,,,,,,,2023-10-17,1,,,,,フィールドリペア,0
1007,4070001040984,新規,0,2023-10-17,2023-10-17,興融商事株式会社,,株式会社,群馬県,北群馬郡吉岡町,大字小倉７６３番地５１,,10,345,3703607,,,,,,,2023-10-17,1,,,,,コウユウショウジ,0
1009,4080001025919,新規,0,2023-10-17,2023-10-17,株式会社ＥＭ,,株式会社,静岡県,静岡市駿河区,敷地１丁目１番３５号仲屋ハイツ７０３号,,22,102,4228036,,,,,,,2023-10-17,1,,,,,イーエム,0
1011,4080103002907,新規,0,2023-10-17,2023-10-17,ＩＬＣ合同会社,,合同会社,静岡県,熱海市,上多賀９８０－１,,22,205,4130101,,,,,,,2023-10-17,1,,,,,アイエルシー,0
1012,4080401026789,新規,0,2023-10-17,2023-10-17,株式会社となりモータース,,株式会社,静岡県,浜松市中区,萩丘２丁目３０番２３号,,22,131,4338121,,,,,,,2023-10-17,1,,,,,トナリモータース,0
1019,4110001037919,新規,0,2023-10-17,2023-10-17,株式会社和花,,株式会社,新潟県,新潟市東区,新松崎１丁目１０番１５号,,15,102,9500017,,,,,,,2023-10-17,1,,,,,ノドカ,0
1034,4120001258794,新規,0,2023-10-17,2023-10-17,晨宇株式会社,,株式会社,大阪府,大阪市旭区,赤川１丁目５－１３天理マンション３０６,,27,117,5350005,,,,,,,2023-10-17,1,,,,,シンウ,0
1035,4120001258852,新規,0,2023-10-17,2023-10-17,株式会社イーエイト,,株式会社,大阪府,大阪市生野区,巽北４丁目１番３４号,00132285,27,116,5440004,,,,,,,2023-10-17,1,,,,,イーエイト,0
1036,4120001258869,新規,0,2023-10-17,2023-10-17,三星美装株式会社,,株式会社,大阪府,大阪市平野区,西脇１丁目２１番２３号,,27,126,5470035,,,,,,,2023-10-17,1,,,,,サンセイビソウ,0
1037,4120001258893,新規,0,2023-10-17,2023-10-17,株式会社ｓｓｅｎｓｅ,,株式会社,大阪府,大阪市東淀川区,下新庄５丁目６番１６－８０８号,,27,114,5330021,,,,,,,2023-10-17,1,,,,,エッセンス,0
1038,4120001258984,新規,0,2023-10-17,2023-10-17,株式会社ＢＢ,,株式会社,大阪府,大阪市東成区,深江南２丁目１１番９号,,27,115,5370002,,,,,,,2023-10-17,1,,,,,ビービー,0
1039,4120001259074,新規,0,2023-10-17,2023-10-17,エースホールディングス株式会社,,株式会社,大阪府,大阪市生野区,巽北４丁目１４番２１号,00132280,27,116,5440004,,,,,,,2023-10-17,1,,,,,エースホールディングス,0
1044,4120003025053,新規,0,2023-10-17,2023-10-17,合同会社Ｎ’ｓ,,合同会社,大阪府,大阪市浪速区,稲荷１丁目５番２０－１４０２号,,27,111,5560023,,,,,,,2023-10-17,1,,,,,エヌエス,0
1045,4120003025086,新規,0,2023-10-17,2023-10-17,合同会社Ｌｚ,,合同会社,大阪府,大阪市西区,阿波座１丁目１４－６－７０６号室,,27,106,5500011,,,,,,,2023-10-17,1,,,,,エルズ,0
1048,4120103005491,新規,0,2023-10-17,2023-10-17,悠不動産合同会社,,合同会社,大阪府,富田林市,常盤町５番１２号,,27,214,5840032,,,,,,,2023-10-17,1,,,,,ユウフドウサン,0
1063,4140001131990,新規,0,2023-10-17,2023-10-17,ホクシンカンパニー株式会社,,株式会社,兵庫県,尼崎市,潮江５丁目９番１号,,28,202,6610976,,,,,,,2023-10-17,1,,,,,ホクシンカンパニー,0
1064,4140001131999,新規,0,2023-10-17,2023-10-17,かねしんあぐり産業株式会社,,株式会社,兵庫県,南あわじ市,榎列大榎列６５６番地１,,28,224,6560426,,,,,,,2023-10-17,1,,,,,カネシンアグリサンギョウ,0
1065,4140003019648,新規,0,2023-10-17,2023-10-17,合同会社Ｓｔａｎｄ　ｕｐ,,合同会社,兵庫県,神戸市東灘区,向洋町中５丁目１１－５０１－２３０８,,28,101,6580032,,,,,,,2023-10-17,1,,,,,スタンドアップ,0
1070,4150001026802,新規,0,2023-10-17,2023-10-17,株式会社ＡＴＡトレーディング,,株式会社,奈良県,御所市,大字南郷１４９番地１号,,29,208,6392331,,,,,,,2023-10-17,1,,,,,エーティーエートレーディング,0
1073,4150003003097,新規,0,2023-10-17,2023-10-17,合同会社優,,合同会社,奈良県,香芝市,上中１１８３番地１アシビハイツ６号棟２０６号,,29,210,6390265,,,,,,,2023-10-17,1,,,,,ユウ,0
1077,4170001017832,新規,0,2023-10-17,2023-10-17,株式会社山永クリエイティブ,,株式会社,和歌山県,東牟婁郡太地町,大字太地２９７３番地の４,,30,422,6495171,,,,,,,2023-10-17,1,,,,,サンエイクリエイティブ,0
1085,4180001158493,新規,0,2023-10-17,2023-10-17,ＴＨ通信株式会社,,株式会社,愛知県,春日井市,西山町１５９９番地２１２,,23,206,4860803,,,,,,,2023-10-17,1,,,,,ティーエイチツウシン,0
1086,4180001158502,新規,0,2023-10-17,2023-10-17,株式会社ホープテット,,株式会社,愛知県,丹羽郡大口町,中小口２丁目１４０番地ヴェリテ２０３号,,23,361,4800142,,,,,,,2023-10-17,1,,,,,ホープテット,0
1087,4180001158510,新規,0,2023-10-17,2023-10-17,株式会社コミレ,,株式会社,愛知県,名古屋市中区,上前津１丁目２番３４号,,23,106,4600013,,,,,,,2023-10-17,1,,,,,コミレ,0
1100,4200003006111,新規,0,2023-10-17,2023-10-17,合同会社ルフレ,,合同会社,岐阜県,岐阜市,薮田南１丁目３番１２号,,21,201,5008384,,,,,,,2023-10-17,1,,,,,ルフレ,0
1101,4210001019510,新規,0,2023-10-17,2023-10-17,株式会社なごみ,,株式会社,福井県,福井市,和田２丁目１２１４番地エム・ブラン２０２,,18,201,9188238,,,,,,,2023-10-17,1,,,,,ナゴミ,0
1109,4240003006371,新規,0,2023-10-17,2023-10-17,合同会社ベレッタ,,合同会社,広島県,広島市西区,井口１丁目１９番５号,,34,104,7330842,,,,,,,2023-10-17,1,,,,,ベレッタ,0
1113,4280001009050,新規,0,2023-10-17,2023-10-17,株式会社アベックス工業,,株式会社,島根県,松江市,西川津町３０７９番地７,,32,201,6900823,,,,,,,2023-10-17,1,,,,,アベックスコウギョウ,0
1122,4290801029949,新規,0,2023-10-17,2023-10-17,株式会社３９,,株式会社,福岡県,鞍手郡小竹町,大字勝野３７９０番地６,,40,401,8201103,,,,,,,2023-10-17,1,,,,,サンキュー,0
1125,4290803004520,新規,0,2023-10-17,2023-10-17,合同会社ＥＲＡ,,合同会社,福岡県,北九州市小倉北区,真鶴１丁目２番１７－７０１号,,40,106,8030844,,,,,,,2023-10-17,1,,,,,イアラ,0
1127,4310003004649,新規,0,2023-10-17,2023-10-17,合同会社ＤＧ総合商事,,合同会社,長崎県,対馬市,厳原町東里字野良２３８番７,,42,209,8170016,,,,,,,2023-10-17,1,,,,,,0
1133,4330003010018,新規,0,2023-10-17,2023-10-17,合同会社後藤,,合同会社,熊本県,熊本市中央区,新町３丁目１０番３号エルム新町１１０１,,43,101,8600004,,,,,,,2023-10-17,1,,,,,ゴトウ,0
1137,4340001025990,新規,0,2023-10-17,2023-10-17,株式会社Ｓ＆Ｄｇｒｏｕｐ,,株式会社,鹿児島県,鹿屋市,寿５丁目１４番８－３号エスパ・ソレアードＣ棟２０２号,,46,203,8930014,,,,,,,2023-10-17,1,,,,,エスアンドデーグループ,0
1140,4360001032688,新規,0,2023-10-17,2023-10-17,株式会社琉球ＧＬＯＣＡＬサービス,,株式会社,沖縄県,宜野湾市,大山６丁目３－２,,47,205,9012223,,,,,,,2023-10-17,1,,,,,リュウキュウグローカルサービス,0
1143,4370003006326,新規,0,2023-10-17,2023-10-17,合同会社エスアンドエヌ,,合同会社,宮城県,石巻市,前谷地字小友２１－２,,04,202,9871101,,,,,,,2023-10-17,1,,,,,エスアンドエヌ,0
1149,4380005012759,新規,0,2023-10-17,2023-10-17,医療法人社団ｓｍｉｌｅ,,その他の設立登記法人,福島県,いわき市,内郷御厩町１丁目１８６番地の１,,07,204,9738402,,,,,,,2023-10-17,1,,,,,スマイル,0
1155,4400003003162,新規,0,2023-10-17,2023-10-17,合同会社イントラクション,,合同会社,岩手県,胆沢郡金ケ崎町,西根南摩知田１２番地１,,03,381,0294503,,,,,,,2023-10-17,1,,,,,イントラクション,0
1163,4430001090225,新規,0,2023-10-17,2023-10-17,株式会社Ｌｉｓｔ　Ｂｕｄｄｙ,,株式会社,北海道,札幌市中央区,南四条西４丁目１６番地恵愛ビル８階,,01,101,0640804,,,,,,,2023-10-17,1,,,,,リストバディ,0
1167,4430003015535,新規,0,2023-10-17,2023-10-17,合同会社ｍｅｎｃｈ,,合同会社,北海道,札幌市豊平区,福住三条１０丁目８番３号,,01,105,0620043,,,,,,,2023-10-17,1,,,,,メンチ,0
1169,4450001014116,新規,0,2023-10-17,2023-10-17,株式会社美樹,,株式会社,北海道,旭川市,春光一条９丁目１３番２０号やすだビル１Ｆ,,01,204,0700871,,,,,,,2023-10-17,1,,,,,ミキ,0
1174,4490001010615,新規,0,2023-10-17,2023-10-17,株式会社ハナサクコーポレーション,,株式会社,高知県,高岡郡佐川町,乙２２７番地,,39,402,7891202,,,,,,,2023-10-17,1,,,,,ハナサクコーポレーション,0
1184,5010001239251,新規,0,2023-10-17,2023-10-17,株式会社ｓｔｕｄｉｏ４ｓｅｖｅｎ７,,株式会社,東京都,中央区,日本橋堀留町１丁目１０番１号カクタビル２Ｆ,,13,102,1030012,,,,,,,2023-10-17,1,,,,,スタジオフォーセブン,0
1185,5010001239276,新規,0,2023-10-17,2023-10-17,ＮＳホールディングス株式会社,,株式会社,東京都,千代田区,大手町１丁目７番２号,,13,101,1000004,,,,,,,2023-10-17,1,,,,,エヌエスホールディングス,0
1186,5010001239292,新規,0,2023-10-17,2023-10-17,株式会社熱テック,,株式会社,東京都,文京区,湯島２丁目３２番１４号２階,,13,105,1130034,,,,,,,2023-10-17,1,,,,,アツテック,0
1191,5010003041936,新規,0,2023-10-17,2023-10-17,合同会社チーフス・エディトリアル・オフィス,,合同会社,東京都,中央区,佃１丁目１１番９－８１０号,,13,102,1040051,,,,,,,2023-10-17,1,,,,,チーフスエディトリアルオフィス,0
1192,5010003041944,新規,0,2023-10-17,2023-10-17,合同会社ＡＬＥＲＯ７６,,合同会社,東京都,千代田区,神田錦町１丁目２１番１号,,13,101,1010054,,,,,,,2023-10-17,1,,,,,アレーロセブンティーシックス,0
1193,5010003041960,新規,0,2023-10-17,2023-10-17,合同会社ブライトライフクリエイション,,合同会社,東京都,千代田区,九段北２丁目３番２５－５０２号,,13,101,1020073,,,,,,,2023-10-17,1,,,,,ブライトライフクリエイション,0
1195,5010005037387,新規,0,2023-10-17,2023-10-17,一般社団法人日中農林水産物貿易発展協会,,その他の設立登記法人,東京都,文京区,後楽１丁目５番３号（日中友好会館Ｂ１）,,13,105,1120004,,,,,,,2023-10-17,1,,,,,ニッチュウノウリンスイサンブツボウエキハッテンキョウカイ,0
1200,5010401177811,新規,0,2023-10-17,2023-10-17,株式会社ＣＯＨ,,株式会社,東京都,港区,北青山１丁目３－１アールキューブ青山３Ｆ,,13,103,1070061,,,,,,,2023-10-17,1,,,,,シーオーエイチ,0
1204,5010403031181,新規,0,2023-10-17,2023-10-17,合同会社Ｒｅｄ　Ｒｏｏｍ,,合同会社,東京都,港区,六本木３丁目１５－２２陽光セントラル六本木ビル７階,,13,103,1060032,,,,,,,2023-10-17,1,,,,,レッドルーム,0
1205,5010503007180,新規,0,2023-10-17,2023-10-17,ガイドコンシェルジュ合同会社,,合同会社,東京都,台東区,池之端２丁目６番１３－１０１号,,13,106,1100008,,,,,,,2023-10-17,1,,,,,ガイドコンシェルジュ,0
1212,5010603010423,新規,0,2023-10-17,2023-10-17,合同会社ＦＯＲＲＩＤＥ,,合同会社,東京都,墨田区,江東橋２丁目９番５－２０１１号,,13,107,1300022,,,,,,,2023-10-17,1,,,,,,0
1214,5010801034422,新規,0,2023-10-17,2023-10-17,株式会社ＭＪｗｏｒｋｓ,,株式会社,東京都,大田区,下丸子１丁目１３番１６号,,13,111,1460092,,,,,,,2023-10-17,1,,,,,エムジェイワークス,0
1218,5010901053982,新規,0,2023-10-17,2023-10-17,株式会社ＭＧ,,株式会社,東京都,世田谷区,深沢５丁目２番９－６０２号,,13,112,1580081,,,,,,,2023-10-17,1,,,,,エムジー,0
1220,5010903008522,新規,0,2023-10-17,2023-10-17,合同会社ＭＨ,,合同会社,東京都,世田谷区,太子堂２丁目２０番２８号服部ハイツ３Ｆ,,13,112,1540004,,,,,,,2023-10-17,1,,,,,エムエイチ,0
1228,5011001157096,新規,0,2023-10-17,2023-10-17,株式会社山三コンサルティング,,株式会社,東京都,渋谷区,道玄坂１丁目１０番８号渋谷道玄坂東急ビル２Ｆ－Ｃ,,13,113,1500043,,,,,,,2023-10-17,1,,,,,ヤマサンコンサルティング,0
1229,5011001157534,新規,0,2023-10-17,2023-10-17,株式会社Ｈｏｎｅｓｔ　Ｂｅａｕｔｙ,,株式会社,東京都,渋谷区,道玄坂１丁目２１－１－３階ビジネスエアポート渋谷南平台,,13,113,1500043,,,,,,,2023-10-17,1,,,,,オネストビューティー,0
1230,5011001157641,新規,0,2023-10-17,2023-10-17,栄光パートナー株式会社,,株式会社,東京都,渋谷区,千駄ヶ谷４丁目２９番１２号北参道ダイヤモンドパレス５０８,,13,113,1510051,,,,,,,2023-10-17,1,,,,,エイコウパートナー,0
1232,5011003017711,新規,0,2023-10-17,2023-10-17,マナーブコンサルティング合同会社,,合同会社,東京都,渋谷区,猿楽町９番５－２１２号,,13,113,1500033,,,,,,,2023-10-17,1,,,,,マナーブコンサルティング,0
1241,5011203004195,新規,0,2023-10-17,2023-10-17,合同会社木部工務店,,合同会社,東京都,中野区,中野６丁目２‐１９,,13,114,1640001,,,,,,,2023-10-17,1,,,,,キベコウムテン,0
1242,5011401025530,新規,0,2023-10-17,2023-10-17,株式会社ＭＥＲＣＵＲＹ,,株式会社,東京都,板橋区,南常盤台１丁目１７番１０号,,13,119,1740072,,,,,,,2023-10-17,1,,,,,マーキュリー,0
1243,5011401025539,新規,0,2023-10-17,2023-10-17,株式会社Ｓｃｏｎ,,株式会社,東京都,板橋区,蓮根２丁目２７－１２－２Ｆ－０２,,13,119,1740046,,,,,,,2023-10-17,1,,,,,エスコン,0
1251,5012801022695,新規,0,2023-10-17,2023-10-17,株式会社坂本造園土木,,株式会社,東京都,国分寺市,並木町１丁目２番地５,,13,214,1850005,,,,,,,2023-10-17,1,,,,,サカモトゾウエンドボク,0
1252,5013301051482,新規,0,2023-10-17,2023-10-17,栄泰馬込不動産株式会社,,株式会社,東京都,豊島区,池袋２丁目６６－２小林ビル２階,,13,116,1710014,,,,,,,2023-10-17,1,,,,,エイタイマゴメフドウサン,0
1262,5020001153971,新規,0,2023-10-17,2023-10-17,株式会社サンヨウ,,株式会社,神奈川県,横浜市中区,山下町１４６番地,,14,104,2310023,,,,,,,2023-10-17,1,,,,,サンヨウ,0
1263,5020001153996,新規,0,2023-10-17,2023-10-17,Ｄ　Ａｇｅｎｔ株式会社,,株式会社,神奈川県,横浜市港北区,箕輪町２丁目７番３６－２０１７号,,14,109,2230051,,,,,,,2023-10-17,1,,,,,ディーエージェント,0
1269,5020003024741,新規,0,2023-10-17,2023-10-17,合同会社からだメイカー,,合同会社,神奈川県,横浜市港北区,綱島西６丁目２０番７号６,,14,109,2230053,,,,,,,2023-10-17,1,,,,,カラダメイカー,0
1270,5020003024774,新規,0,2023-10-17,2023-10-17,合同会社友コーポレーション,,合同会社,神奈川県,横浜市中区,赤門町１丁目７番１号デュオステージ横濱赤門通り４０３,,14,104,2310051,,,,,,,2023-10-17,1,,,,,ユウコーポレーション,0
1271,5020003024782,新規,0,2023-10-17,2023-10-17,ＹＣ合同会社,,合同会社,神奈川県,横浜市中区,長者町２丁目５番地５－３０１号,,14,104,2310033,,,,,,,2023-10-17,1,,,,,ワイシー,0
1272,5021001080462,新規,0,2023-10-17,2023-10-17,株式会社フランチャイズ起業センター,,株式会社,神奈川県,茅ヶ崎市,新栄町７番５号茅ヶ崎ビズナス３階,,14,207,2530044,,,,,,,2023-10-17,1,,,,,フランチャイズキギョウセンター,0
1273,5021001080470,新規,0,2023-10-17,2023-10-17,株式会社ＢｅＳｏｓｉＡ,,株式会社,神奈川県,茅ヶ崎市,新栄町７番５号３階,,14,207,2530044,,,,,,,2023-10-17,1,,,,,ビーソシア,0
1288,5030001156585,新規,0,2023-10-17,2023-10-17,株式会社ＧＭＹ,,株式会社,埼玉県,吉川市,中央３丁目２７番地４,,11,243,3420061,,,,,,,2023-10-17,1,,,,,ジーエムアイ,0
1289,5030001156701,新規,0,2023-10-17,2023-10-17,株式会社鈴木商事,,株式会社,埼玉県,さいたま市西区,大字佐知川１２２４番地６,,11,101,3310064,,,,,,,2023-10-17,1,,,,,スズキショウジ,0
1293,5030003022785,新規,0,2023-10-17,2023-10-17,合同会社ＲＡＹ‐ＰＬＡＮ,,合同会社,埼玉県,川越市,大字下赤坂６６８番地１,,11,201,3501155,,,,,,,2023-10-17,1,,,,,レイプラン,0
1294,5030003022793,新規,0,2023-10-17,2023-10-17,いつも青空合同会社,,合同会社,埼玉県,蕨市,北町１丁目１６番４号,,11,223,3350001,,,,,,,2023-10-17,1,,,,,イツモアオゾラ,0
1295,5030003022802,新規,0,2023-10-17,2023-10-17,ＫＨＡＮ＆ＢＲＯＴＨＥＲＳ　ＩＭＰＯＲＴ　ＥＸＰＯＲＴ合同会社,,合同会社,埼玉県,八潮市,中央１丁目１番地１２グリーンビレッジタテヤマ１０３,,11,234,3400816,,,,,,,2023-10-17,1,,,,,カーンアンドブラザーズインポートエクスポート,0
1303,5040001130507,新規,0,2023-10-17,2023-10-17,株式会社九三興業,,株式会社,千葉県,千葉市稲毛区,小深町１６５番地７プレミールＡ１０１号,,12,103,2630003,,,,,,,2023-10-17,1,,,,,クミコウギョウ,0
1304,5040001130523,新規,0,2023-10-17,2023-10-17,株式会社かわさき,,株式会社,千葉県,木更津市,江川１４２３番地１２,,12,206,2920063,,,,,,,2023-10-17,1,,,,,カワサキ,0
1309,5040003023551,新規,0,2023-10-17,2023-10-17,シリウス合同会社,,合同会社,千葉県,山武市,日向台５７番地３,,12,237,2891206,,,,,,,2023-10-17,1,,,,,シリウス,0
1315,5050001053640,新規,0,2023-10-17,2023-10-17,ベースポイント株式会社,,株式会社,茨城県,つくばみらい市,紫峰ヶ丘４丁目６番地２,,08,235,3002359,,,,,,,2023-10-17,1,,,,,ベースポイント,0
1321,5060003004764,新規,0,2023-10-17,2023-10-17,ＧＳ合同会社,,合同会社,栃木県,栃木市,岩舟町新里１３０３－２番地４６号室,,09,203,3294316,,,,,,,2023-10-17,1,,,,,ジエス,0
1322,5060003004772,新規,0,2023-10-17,2023-10-17,合同会社ラフター,,合同会社,栃木県,宇都宮市,一の沢１丁目４番２０号,,09,201,3200047,,,,,,,2023-10-17,1,,,,,ラフター,0
1323,5070003005134,新規,0,2023-10-17,2023-10-17,合同会社ｅｃｓ,,合同会社,群馬県,前橋市,荒口町６１１番地６,,10,201,3792107,,,,,,,2023-10-17,1,,,,,イーシーエス,0
1340,5120001258802,新規,0,2023-10-17,2023-10-17,株式会社久喜商事,,株式会社,大阪府,大阪市生野区,田島２丁目１０番３０－２０２号,,27,116,5440011,,,,,,,2023-10-17,1,,,,,クキショウジ,0
1341,5120001258876,新規,0,2023-10-17,2023-10-17,株式会社ＫＦＤ,,株式会社,大阪府,大阪市住吉区,長居東４丁目１番１２号,,27,120,5580004,,,,,,,2023-10-17,1,,,,,ケイエフディー,0
1344,5120003025093,新規,0,2023-10-17,2023-10-17,合同会社ホシカップ,,合同会社,大阪府,大阪市港区,磯路２丁目１６番１９－１０５号,,27,107,5520003,,,,,,,2023-10-17,1,,,,,ホシカップ,0
1345,5120003025110,新規,0,2023-10-17,2023-10-17,合同会社フォレストサイド,,合同会社,大阪府,大阪市淀川区,田川３丁目９番３９－１４号,,27,123,5320027,,,,,,,2023-10-17,1,,,,,フォレストサイド,0
1349,5120101068366,新規,0,2023-10-17,2023-10-17,ＴＫコネクト株式会社,,株式会社,大阪府,高石市,綾園４丁目９番７号,,27,225,5920014,,,,,,,2023-10-17,1,,,,,ティーケーコネクト,0
1350,5120101068382,新規,0,2023-10-17,2023-10-17,株式会社松下,,株式会社,大阪府,泉南市,信達大苗代３６３番地の８,,27,228,5900505,,,,,,,2023-10-17,1,,,,,マツシタ,0
1352,5120903004873,新規,0,2023-10-17,2023-10-17,ＲｕｓｈＲｅｓｃｕｅ合同会社,,合同会社,大阪府,豊中市,勝部３丁目８－３１ＳＳＧＰ・ＴＯＹＯＮＡＫＡ２－２０８,,27,203,5610894,,,,,,,2023-10-17,1,,,,,ラッシュレスキュー,0
1365,5160005011237,新規,0,2023-10-17,2023-10-17,医療法人わらい,,その他の設立登記法人,滋賀県,大津市,本堅田６丁目２番１号,,25,201,5200242,,,,,,,2023-10-17,1,,,,,ワライ,0
1371,5180001158501,新規,0,2023-10-17,2023-10-17,株式会社ＳＨＯＷＡ　ＣＯＲＰＯＲＡＴＩＯＮ,,株式会社,愛知県,名古屋市昭和区,明月町２丁目２７番地,,23,107,4660034,,,,,,,2023-10-17,1,,,,,ショーワコーポレーション,0
1376,5180003025864,新規,0,2023-10-17,2023-10-17,合同会社Ｌ＆Ｓ,,合同会社,愛知県,名古屋市東区,泉３丁目１４番１２号アーデン泉プレミア２０４号,,23,102,4610001,,,,,,,2023-10-17,1,,,,,エルアンドエス,0
1377,5180301037900,新規,0,2023-10-17,2023-10-17,ＭＩＺＵＮＯＨＯＳＥＩ株式会社,,株式会社,愛知県,刈谷市,小垣江町本郷下２３番１,,23,210,4480813,,,,,,,2023-10-17,1,,,,,ミズノホウセイ,0
1378,5180301037909,新規,0,2023-10-17,2023-10-17,株式会社ＲＰＧ,,株式会社,愛知県,豊川市,八幡町横道１番地の１１,,23,207,4420857,,,,,,,2023-10-17,1,,,,,アールピージー,0
1383,5200003006110,新規,0,2023-10-17,2023-10-17,合同会社光フード,,合同会社,岐阜県,羽島市,正木町曲利７５０番地５三旺２階２０２号,,21,209,5016227,,,,,,,2023-10-17,1,,,,,ヒカリフード,0
1410,5290001103413,新規,0,2023-10-17,2023-10-17,株式会社ＧＡＫＵ,,株式会社,福岡県,福岡市東区,和白東１丁目３番１０号マイカル和白１０５,,40,131,8110214,,,,,,,2023-10-17,1,,,,,ガク,0
1415,5290003014492,新規,0,2023-10-17,2023-10-17,ＭＴ．Ｃ合同会社,,合同会社,福岡県,福岡市城南区,干隈２丁目５２番１号,,40,136,8140132,,,,,,,2023-10-17,1,,,,,エムティードットシー,0
1417,5290801029956,新規,0,2023-10-17,2023-10-17,株式会社柳瀬継承,00132286,株式会社,福岡県,北九州市八幡東区,宮の町１丁目６番２８号,,40,108,8050023,,,,,,,2023-10-17,1,,,,,ヤナセケイショウ,0
1433,5360001032654,新規,0,2023-10-17,2023-10-17,株式会社美と健康研究所,,株式会社,沖縄県,那覇市,久茂地２丁目１６番２０号２０１,,47,201,9000015,,,,,,,2023-10-17,1,,,,,ビトケンコウケンキュウジョ,0
1434,5360001032670,新規,0,2023-10-17,2023-10-17,ニューヴィレッジ株式会社,,株式会社,沖縄県,浦添市,港川２丁目２１番１２－１１０３号ライオンズステージ浦添弐番館,,47,208,9012134,,,,,,,2023-10-17,1,,,,,ニューヴィレッジ,0
1435,5360001032679,新規,0,2023-10-17,2023-10-17,株式会社ＢＲＩＮＧＵＰ琉球,,株式会社,沖縄県,那覇市,金城３丁目８－１１,,47,201,9010155,,,,,,,2023-10-17,1,,,,,ブリングアップリュウキュウ,0
1436,5360003013363,新規,0,2023-10-17,2023-10-17,Ｂａｃｏｎ　Ｂａｒ　Ｊａｐａｎ合同会社,,合同会社,沖縄県,沖縄市,池原３丁目４－１６佐渡山店舗１階,,47,211,9042141,,,,,,,2023-10-17,1,,,,,ベーコンバージャパン,0
1442,5370001050531,新規,0,2023-10-17,2023-10-17,株式会社ＢＡＭＢＩ,,株式会社,宮城県,仙台市若林区,木ノ下４丁目３番－８－１０１,,04,103,9840047,,,,,,,2023-10-17,1,,,,,バンビ,0
1444,5370003006325,新規,0,2023-10-17,2023-10-17,ＲＫ合同会社,,合同会社,宮城県,仙台市宮城野区,小田原２丁目２番４６号,,04,102,9830803,,,,,,,2023-10-17,1,,,,,アールケー,0
1447,5380001034062,新規,0,2023-10-17,2023-10-17,東部産業ホールディングス株式会社,,株式会社,福島県,いわき市,内郷綴町金谷１５番地４,,07,204,9738403,,,,,,,2023-10-17,1,,,,,トウブサンギョウホールディングス,0
1451,5380005012758,新規,0,2023-10-17,2023-10-17,農事組合法人大松川ファーム,,その他の設立登記法人,福島県,南会津郡下郷町,大字合川字居平丙４４１番地,,07,362,9695333,,,,,,,2023-10-17,1,,,,,オオマツカワファーム,0
1455,5400003003161,新規,0,2023-10-17,2023-10-17,ＮＭＲ合同会社,,合同会社,岩手県,一関市,厳美町字雨田７５番地１,,03,209,0210101,,,,,,,2023-10-17,1,,,,,エヌエムアール,0
1463,5470001019847,新規,0,2023-10-17,2023-10-17,株式会社和と輪,,株式会社,香川県,高松市,春日町１６８６番地３０メゾンド春日２０１,,37,201,7610101,,,,,,,2023-10-17,1,,,,,ワトワ,0
1468,6010001239275,新規,0,2023-10-17,2023-10-17,株式会社アーク・ネット,,株式会社,東京都,千代田区,神田北乗物町２番地神田乗物町ビル３０１,,13,101,1010036,,,,,,,2023-10-17,1,,,,,アークネット,0
1469,6010001239283,新規,0,2023-10-17,2023-10-17,株式会社ナミック,,株式会社,東京都,中央区,日本橋３丁目６－２日本橋フロント１Ｆ,,13,102,1030027,,,,,,,2023-10-17,1,,,,,ナミック,0
1472,6010003041943,新規,0,2023-10-17,2023-10-17,合同会社ＡＬＥＲＯ７５,,合同会社,東京都,千代田区,神田錦町１丁目２１番１号,,13,101,1010054,,,,,,,2023-10-17,1,,,,,アレーロセブンティーファイブ,0
1485,6010403031172,新規,0,2023-10-17,2023-10-17,合同会社ルーマーズポイント,,合同会社,東京都,港区,白金１丁目２番１－Ｅ２５０６号,,13,103,1080072,,,,,,,2023-10-17,1,,,,,ルーマーズポイント,0
1497,6010701044982,新規,0,2023-10-17,2023-10-17,株式会社コンパクトビジネス,,株式会社,東京都,品川区,西五反田８丁目４番１５号グリンデル広小路３Ｆ,,13,109,1410031,,,,,,,2023-10-17,1,,,,,コンパクトビジネス,0
1500,6010901054006,新規,0,2023-10-17,2023-10-17,株式会社ｎｏｅｌ,,株式会社,東京都,世田谷区,太子堂２丁目９番３２－２０３号,,13,112,1540004,,,,,,,2023-10-17,1,,,,,ノエル,0
1505,6011001157500,新規,0,2023-10-17,2023-10-17,株式会社Ｉｎｎｅｒ　Ｔｈｏｕｇｈｔｓ,,株式会社,東京都,渋谷区,神宮前６丁目２３番４号桑野ビル２階,,13,113,1500001,,,,,,,2023-10-17,1,,,,,インナーソーツ,0
1506,6011001157541,新規,0,2023-10-17,2023-10-17,株式会社トレオン,,株式会社,東京都,渋谷区,代官山町８－７Ｄａｉｗａ代官山ビル１階,,13,113,1500034,,,,,,,2023-10-17,1,,,,,トレオン,0
1507,6011001157640,新規,0,2023-10-17,2023-10-17,株式会社レクトル,,株式会社,東京都,目黒区,青葉台４丁目５番２号,,13,110,1530042,,,,,,,2023-10-17,1,,,,,レクトル,0
1511,6011101104749,新規,0,2023-10-17,2023-10-17,株式会社ＭＥＬＭ,,株式会社,東京都,新宿区,余丁町１番１１－３０５号,,13,104,1620055,,,,,,,2023-10-17,1,,,,,メルム,0
1512,6011101104765,新規,0,2023-10-17,2023-10-17,株式会社ＬＯＧ,,株式会社,東京都,新宿区,市谷薬王寺町７１番地６スカイコート市ヶ谷２１９,,13,104,1620063,,,,,,,2023-10-17,1,,,,,ログ,0
1518,6011401025538,新規,0,2023-10-17,2023-10-17,金山カラット株式会社,,株式会社,東京都,板橋区,若木２丁目２７番２０号ＧＳコーポ２０５号室,,13,119,1740065,,,,,,,2023-10-17,1,,,,,カナヤマカラット,0
1519,6011403004135,新規,0,2023-10-17,2023-10-17,マイドリーム合同会社,,合同会社,東京都,板橋区,東山町１－１６,,13,119,1740073,,,,,,,2023-10-17,1,,,,,マイドリーム,0
1527,6012303001890,新規,0,2023-10-17,2023-10-17,ヒーリングミュージック合同会社,,合同会社,東京都,町田市,原町田６丁目２７－８サイドパーク５０２,,13,209,1940013,,,,,,,2023-10-17,1,,,,,ヒーリングミュージック,0
1529,6012401041120,新規,0,2023-10-17,2023-10-17,株式会社Ｍｅｉｒｕ,,株式会社,東京都,三鷹市,上連雀８丁目２番７号,,13,204,1810012,,,,,,,2023-10-17,1,,,,,メイル,0
1548,6020001153946,新規,0,2023-10-17,2023-10-17,ＧＴＤ株式会社,,株式会社,神奈川県,横浜市港北区,綱島西４丁目１５番８号,,14,109,2230053,,,,,,,2023-10-17,1,,,,,ジーティーディー,0
1561,6030001156691,新規,0,2023-10-17,2023-10-17,ＳＴＡＲ　ＫＩＮ　ＪＡＰＡＮ株式会社,,株式会社,埼玉県,越谷市,大字平方３０３７番地１０,,11,222,3430002,,,,,,,2023-10-17,1,,,,,スターキンジャパン,0
1565,6030003022784,新規,0,2023-10-17,2023-10-17,合同会社ｔｒｙ　ｆｏｒ,,合同会社,埼玉県,東松山市,神明町１丁目１３－３０,,11,212,3550021,,,,,,,2023-10-17,1,,,,,トライフォー,0
1570,6040001130506,新規,0,2023-10-17,2023-10-17,忠永株式会社,,株式会社,千葉県,市原市,椎の木台１丁目６番地１５,,12,219,2990128,,,,,,,2023-10-17,1,,,,,チュウエイ,0
1571,6040001130522,新規,0,2023-10-17,2023-10-17,株式会社ｋａｋｅｒｕ　ｔａｓｓ,,株式会社,千葉県,柏市,若柴字元堂１６７番アクロスキューブ柏の葉キャンパス４階,,12,217,2770871,,,,,,,2023-10-17,1,,,,,カケルタス,0
1572,6040001130530,新規,0,2023-10-17,2023-10-17,株式会社Ｒ．Ｏ．Ｇ,,株式会社,千葉県,松戸市,三ケ月１２７７番地ゼクシア新松戸８０２号,,12,207,2700026,,,,,,,2023-10-17,1,,,,,ログ,0
1573,6040001130539,新規,0,2023-10-17,2023-10-17,ＥＢＵＹ商事株式会社,,株式会社,千葉県,東金市,堀上１４５６番地,,12,213,2830063,,,,,,,2023-10-17,1,,,,,イーバイショウジ,0
1574,6040001130547,新規,0,2023-10-17,2023-10-17,ＴＡＮＩＳＨＡ　ＩＮＴＥＲＮＡＴＥＯＮＡＬ株式会社,,株式会社,千葉県,白井市,河原子２２８－２４,,12,232,2701403,,,,,,,2023-10-17,1,,,,,タニシャインターナショナル,0
1577,6040005022138,新規,0,2023-10-17,2023-10-17,特定非営利活動法人成田おむすびプレイパーク,,その他の設立登記法人,千葉県,成田市,公津の杜４丁目６番地７（Ａ棟８１１号室）,,12,211,2860048,,,,,,,2023-10-17,1,,,,,ナリタオムスビプレイパーク,0
1579,6050001053648,新規,0,2023-10-17,2023-10-17,高協株式会社,,株式会社,茨城県,つくば市,玉取２５９２アセンダスビルディング２０３,,08,220,3003255,,,,,,,2023-10-17,1,,,,,コウキョウ,0
1584,6050003007858,新規,0,2023-10-17,2023-10-17,合同会社Ｂｕｅｎａ　Ｄｉａ,,合同会社,茨城県,ひたちなか市,石川町２２番２－３０５号（アネージュ勝田エクステージ）,,08,221,3120057,,,,,,,2023-10-17,1,,,,,ブエナディア,0
1586,6070001040974,新規,0,2023-10-17,2023-10-17,株式会社佐藤総建,,株式会社,群馬県,高崎市,箕郷町白川９２１番地１,,10,202,3703117,,,,,,,2023-10-17,1,,,,,サトウソウケン,0
1588,6070003005133,新規,0,2023-10-17,2023-10-17,合同会社カンパイワークス,,合同会社,群馬県,藤岡市,藤岡６１９番地,,10,209,3750024,,,,,,,2023-10-17,1,,,,,カンパイワークス,0
1591,6080401026787,新規,0,2023-10-17,2023-10-17,株式会社ＲＣコーポレーション,,株式会社,静岡県,浜松市中区,和合町１２５２番地の７ＡＣＡＮＴＨＵＳ－Ａ２０１,,22,131,4338125,,,,,,,2023-10-17,1,,,,,アールシーコーポレーション,0
1607,6120001258784,新規,0,2023-10-17,2023-10-17,株式会社ルーメン,,株式会社,大阪府,門真市,岸和田３丁目７番８号,,27,223,5710002,,,,,,,2023-10-17,1,,,,,ルーメン,0
1608,6120001258792,新規,0,2023-10-17,2023-10-17,株式会社ＴＫカンパニー,,株式会社,大阪府,大阪市北区,豊崎１丁目１１番１９号,,27,127,5310072,,,,,,,2023-10-17,1,,,,,ティーケイカンパニー,0
1609,6120001258925,新規,0,2023-10-17,2023-10-17,株式会社コパンフール青組,,株式会社,大阪府,大阪市北区,東天満１丁目３番１５号,,27,127,5300044,,,,,,,2023-10-17,1,,,,,コパンフールアオグミ,0
1625,6140003019679,新規,0,2023-10-17,2023-10-17,合同会社ＳＣｈｉｎａｔｏｗｎ．,,合同会社,兵庫県,神戸市灘区,友田町３丁目４番１３号,,28,102,6570035,,,,,,,2023-10-17,1,,,,,シャイナタウン,0
1639,6180001158426,新規,0,2023-10-17,2023-10-17,株式会社匠建,,株式会社,愛知県,知多市,にしの台１丁目１１１４番地ラ・シャイン３０３,,23,224,4780055,,,,,,,2023-10-17,1,,,,,ショウケン,0
1640,6180001158509,新規,0,2023-10-17,2023-10-17,ライフセレモニーサービス株式会社,,株式会社,愛知県,一宮市,三条字郷南東４１番地１,,23,203,4940003,,,,,,,2023-10-17,1,,,,,ライフセレモニーサービス,0
1642,6180301037908,新規,0,2023-10-17,2023-10-17,株式会社ｒｏｏｍ,,株式会社,愛知県,豊川市,新桜町通１丁目２７番地１,,23,207,4420835,,,,,,,2023-10-17,1,,,,,ルーム,0
1643,6180301037916,新規,0,2023-10-17,2023-10-17,古居商会株式会社,,株式会社,愛知県,西尾市,羽塚町産畑１０－３０,,23,213,4440316,,,,,,,2023-10-17,1,,,,,フルイショウカイ,0
1644,6180303005862,新規,0,2023-10-17,2023-10-17,合同会社誠翠,,合同会社,愛知県,豊橋市,東小池町４８番地の１２,,23,201,4400855,,,,,,,2023-10-17,1,,,,,セイスイ,0
1645,6180303005870,新規,0,2023-10-17,2023-10-17,ＴＭＪ商事合同会社,,合同会社,愛知県,蒲郡市,神明町２３番１号,,23,214,4430056,,,,,,,2023-10-17,1,,,,,ティーエムジェーショウジ,0
1647,6190001030815,新規,0,2023-10-17,2023-10-17,新垣建設株式会社,,株式会社,三重県,三重郡菰野町,大字田口新田１５３番地９,,24,341,5101322,,,,,,,2023-10-17,1,,,,,,0
1668,6290001103387,新規,0,2023-10-17,2023-10-17,株式会社肉丸漫画制作工房,,株式会社,福岡県,福岡市中央区,桜坂１丁目７番４号,,40,133,8100024,,,,,,,2023-10-17,1,,,,,ニクマルマンガセイサクコウボウ,0
1669,6290003014491,新規,0,2023-10-17,2023-10-17,合同会社シェリシェリー,,合同会社,福岡県,福岡市早良区,飯倉４丁目１４番５号,,40,137,8140161,,,,,,,2023-10-17,1,,,,,シェリシェリー,0
1672,6290805009680,新規,0,2023-10-17,2023-10-17,一般社団法人Ｈ．Ｋ２４和工房凛,,その他の設立登記法人,福岡県,遠賀郡遠賀町,田園１丁目７番４号,,40,384,8114343,,,,,,,2023-10-17,1,,,,,エイチケイニジュウヨンワコウボウリン,0
1673,6300001013502,新規,0,2023-10-17,2023-10-17,都清流株式会社,,株式会社,佐賀県,佐賀市,大財３丁目１０－１４大財ビル２階,,41,201,8400811,,,,,,,2023-10-17,1,,,,,ミヤコセイリュウ,0
1675,6310001018665,新規,0,2023-10-17,2023-10-17,株式会社山本技建,,株式会社,長崎県,長崎市,大手３丁目１４番７号,,42,201,8528127,,,,,,,2023-10-17,1,,,,,ヤマモトギケン,0
1679,6340001025989,新規,0,2023-10-17,2023-10-17,株式会社ＴＴＣ,,株式会社,鹿児島県,鹿児島市,宮之浦町３４１７番地１,,46,201,8911305,,,,,,,2023-10-17,1,,,,,ティティシー,0
1683,6360001032678,新規,0,2023-10-17,2023-10-17,株式会社ヒロシ,,株式会社,沖縄県,宜野湾市,喜友名１丁目３１番１０号カサデセフィーロＣ,,47,205,9012222,,,,,,,2023-10-17,1,,,,,ヒロシ,0
1684,6360001032694,新規,0,2023-10-17,2023-10-17,株式会社丸久工務店,,株式会社,沖縄県,うるま市,字宮里２０２番地１,,47,213,9042243,,,,,,,2023-10-17,1,,,,,マルヒサコウムテン,0
1685,6360003013387,新規,0,2023-10-17,2023-10-17,合同会社悪魔と天使,,合同会社,沖縄県,那覇市,おもろまち４丁目７－２８リンバンプＢ．Ｌ．Ｄ５Ｆ,,47,201,9000006,,,,,,,2023-10-17,1,,,,,アクマトテンシ,0
1687,6360005006918,新規,0,2023-10-17,2023-10-17,医療法人朝陽,,その他の設立登記法人,沖縄県,那覇市,真嘉比２丁目２９番２８号２階,,47,201,9020068,,,,,,,2023-10-17,1,,,,,アサヒ,0
1688,6370003006324,新規,0,2023-10-17,2023-10-17,合同会社インサイド,,合同会社,宮城県,大崎市,古川駅前大通２丁目３番１３号,,04,215,9896162,,,,,,,2023-10-17,1,,,,,インサイド,0
1691,6380001034029,新規,0,2023-10-17,2023-10-17,株式会社ｅｉｇｈｔ,,株式会社,福島県,いわき市,平字二町目２８番地の１紅小路ビル２－１,,07,204,9708026,,,,,,,2023-10-17,1,,,,,エイト,0
1692,6380001034061,新規,0,2023-10-17,2023-10-17,株式会社ビッグワールドインターナショナル,,株式会社,福島県,いわき市,好間町下好間字中島１４１番地の７,,07,204,9701151,,,,,,,2023-10-17,1,,,,,ビッグワールドインターナショナル,0
1694,6380003005589,新規,0,2023-10-17,2023-10-17,合同会社稔興業,,合同会社,福島県,いわき市,錦町御宝殿６番地の１,,07,204,9748232,,,,,,,2023-10-17,1,,,,,ミノルコウギョウ,0
1698,6400003003160,新規,0,2023-10-17,2023-10-17,合同会社泰八林業,,合同会社,岩手県,奥州市,胆沢小山字上中沢１６８番地,,03,215,0230402,,,,,,,2023-10-17,1,,,,,ヤスパチリンギョウ,0
1704,6430001090215,新規,0,2023-10-17,2023-10-17,株式会社ブザービータージャパン,,株式会社,北海道,札幌市中央区,北七条西１３丁目５番地塚本ビル５号館,,01,101,0600007,,,,,,,2023-10-17,1,,,,,ブザービータージャパン,0
1705,6430005014806,新規,0,2023-10-17,2023-10-17,一般社団法人はーとＭＩＸ,,その他の設立登記法人,北海道,札幌市東区,北三十四条東９丁目３番１２号,,01,103,0070834,,,,,,,2023-10-17,1,,,,,ハートミックス,0
1711,6490001010613,新規,0,2023-10-17,2023-10-17,株式会社公文事務所,,株式会社,高知県,高知市,新本町１丁目６番１５号,,39,201,7800062,,,,,,,2023-10-17,1,,,,,,0
1715,6700150116494,新規,0,2023-10-17,2023-10-17,ＳＭＢＣ　Ａｖｉａｔｉｏｎ　Ｃａｐｉｔａｌ　Ｈｏｎｇ　Ｋｏｎｇ　３　Ｌｉｍｉｔｅｄ,,外国会社等,,,,,,,,Ｓｉｇｎａｔｕｒｅ　ａｔ　Ｈｙｓａｎ　Ｐｌａｃｅ：３２－１１１３２／Ｆ，Ｈｙｓａｎ　Ｐｌａｃｅ　５００　Ｈｅｎｎｅｓｓｙ　Ｒｏａｄ，Ｃａｕｓｅｗａｙ　Ｂａｙ，Ｈｏｎｇ　Ｋｏｎｇ,,,,,,2023-10-17,1,,,,,エスエムビーシーアビエーシヨンキヤピタルホンコンスリーリミテツド,0
1728,7010001239282,新規,0,2023-10-17,2023-10-17,辻・本郷ＦＡＳ株式会社,,株式会社,東京都,千代田区,丸の内１丁目７番１２号サピアタワー１８階,,13,101,1000005,,,,,,,2023-10-17,1,,,,,ツジホンゴウエフエーエス,0
1729,7010001239290,新規,0,2023-10-17,2023-10-17,田村不動産株式会社,,株式会社,東京都,文京区,白山１丁目５番１０号１Ｆ,,13,105,1130001,,,,,,,2023-10-17,1,,,,,タムラフドウサン,0
1734,7010003041950,新規,0,2023-10-17,2023-10-17,合同会社ＮＨ,,合同会社,東京都,中央区,八丁堀４丁目１１－２－１０１号,,13,102,1040032,,,,,,,2023-10-17,1,,,,,エヌエイチ,0
1747,7010401177768,新規,0,2023-10-17,2023-10-17,株式会社クリマグリット,,株式会社,東京都,港区,浜松町２丁目２番１５号浜松町ダイヤビル２Ｆ,,13,103,1050013,,,,,,,2023-10-17,1,,,,,クリマグリット,0
1748,7010401177792,新規,0,2023-10-17,2023-10-17,株式会社ＵＣＰ,,株式会社,東京都,港区,六本木７丁目１７－２２－２１０,,13,103,1060032,,,,,,,2023-10-17,1,,,,,ユーシーピー,0
1749,7010403031130,新規,0,2023-10-17,2023-10-17,ＥＳＲ３９合同会社,,合同会社,東京都,港区,浜松町１丁目２０番１０号ライオネス浜松町５０６号室,,13,103,1050013,,,,,,,2023-10-17,1,,,,,イーエスアールサンジュウキュウ,0
1752,7010405022573,新規,0,2023-10-17,2023-10-17,ＥＳＲ３９・１一般社団法人,,その他の設立登記法人,東京都,港区,浜松町１丁目２０番１０号ライオネス浜松町５０６号室,,13,103,1050013,,,,,,,2023-10-17,1,,,,,イーエスアールサンジュウキュウイチ,0
1753,7010405022598,新規,0,2023-10-17,2023-10-17,一般社団法人城南プロパティー,,その他の設立登記法人,東京都,港区,元赤坂１丁目１番８号赤坂コミュニティビル４階,,13,103,1070051,,,,,,,2023-10-17,1,,,,,ジョウナンプロパティー,0
1763,7010701044981,新規,0,2023-10-17,2023-10-17,株式会社ワンダフルワン,,株式会社,東京都,品川区,西五反田５丁目２番４号レキシントン・プラザ西五反田９Ｆ,,13,109,1410031,,,,,,,2023-10-17,1,,,,,ワンダフルワン,0
1769,7010903008520,新規,0,2023-10-17,2023-10-17,合同会社デラックス商会,,合同会社,東京都,世田谷区,等々力８丁目２４－１１エフワン等々力１０２,,13,112,1580082,,,,,,,2023-10-17,1,,,,,デラックスショウカイ,0
1775,7011001157375,新規,0,2023-10-17,2023-10-17,株式会社まきと,,株式会社,東京都,渋谷区,渋谷２丁目１９－１５宮益坂ビルディング６０９,,13,113,1500002,,,,,,,2023-10-17,1,,,,,マキト,0
1776,7011001157516,新規,0,2023-10-17,2023-10-17,Ｆｕｔｕｒｅ　Ａｇｅｎｔ株式会社,,株式会社,東京都,渋谷区,桜丘町７番３号ベラコート渋谷２０３,,13,113,1500031,,,,,,,2023-10-17,1,,,,,フューチャーエージェント,0
1785,7011103013600,新規,0,2023-10-17,2023-10-17,合同会社ドットスペース,,合同会社,東京都,新宿区,西新宿３丁目３番１３号西新宿水間ビル２Ｆ,,13,104,1600023,,,,,,,2023-10-17,1,,,,,ドットスペース,0
1801,7011803005888,新規,0,2023-10-17,2023-10-17,ＡＰＧＯ貿易合同会社,,合同会社,東京都,葛飾区,西亀有１丁目１４番４－３０５号レクセルアヤセ,,13,122,1240002,,,,,,,2023-10-17,1,,,,,エーピージーオーボウエキ,0
1814,7020001153929,新規,0,2023-10-17,2023-10-17,株式会社ＥＳＣ,,株式会社,神奈川県,横浜市神奈川区,栄町５番地１横浜クリエーションスクエア１４階,,14,102,2210052,,,,,,,2023-10-17,1,,,,,イーエスシー,0
1815,7020001153945,新規,0,2023-10-17,2023-10-17,ＥＩ屋株式会社,,株式会社,神奈川県,横浜市旭区,中希望が丘１５２番地１ハローヒルズＶ,,14,112,2410825,,,,,,,2023-10-17,1,,,,,エイヤ,0
1816,7020003024772,新規,0,2023-10-17,2023-10-17,ＩＭＰＥＬ‐ＮＥＸＴ合同会社,,合同会社,神奈川県,横浜市中区,桜木町１丁目１０１番地１号クロスゲート７階,,14,104,2310062,,,,,,,2023-10-17,1,,,,,インペルネクスト,0
1817,7020003024780,新規,0,2023-10-17,2023-10-17,合同会社ビッグアロー,,合同会社,神奈川県,横浜市泉区,西が岡１丁目６－１,,14,116,2450006,,,,,,,2023-10-17,1,,,,,ビッグアロー,0
1818,7020005016149,新規,0,2023-10-17,2023-10-17,一般社団法人瑛進会,,その他の設立登記法人,神奈川県,横浜市中区,豆口台９０－３０,,14,104,2310838,,,,,,,2023-10-17,1,,,,,エイシンカイ,0
1820,7021001080469,新規,0,2023-10-17,2023-10-17,株式会社ポルヴィダ,,株式会社,神奈川県,大和市,つきみ野３丁目１５－９,,14,213,2420002,,,,,,,2023-10-17,1,,,,,ポルヴィダ,0
1823,7021003013690,新規,0,2023-10-17,2023-10-17,合同会社Ｔｒａｄｅ　Ｌｅａｄｉｎｇ,,合同会社,神奈川県,綾瀬市,寺尾本町１丁目１６番１２号,,14,218,2521133,,,,,,,2023-10-17,1,,,,,トレードリーディング,0
1828,7030001156658,新規,0,2023-10-17,2023-10-17,株式会社ＭＩＴ,,株式会社,埼玉県,さいたま市大宮区,桜木町２丁目３番地,,11,103,3300854,,,,,,,2023-10-17,1,,,,,エムアイティー,0
1829,7030001156708,新規,0,2023-10-17,2023-10-17,株式会社和,,株式会社,埼玉県,坂戸市,大字中小坂７７０番地８,,11,239,3500206,,,,,,,2023-10-17,1,,,,,ナゴミ,0
1832,7030003022783,新規,0,2023-10-17,2023-10-17,Ｇｌｏｂａｌ　Ｐｌｕｇ　Ｃｏｎｓｕｌｔ合同会社,,合同会社,埼玉県,草加市,金明町３５１－６ウェルネス金明４０２,,11,221,3400052,,,,,,,2023-10-17,1,,,,,グローバルプラグコンサルト,0
1833,7030003022809,新規,0,2023-10-17,2023-10-17,合同会社むらかみ,,合同会社,埼玉県,川口市,朝日１丁目６番６－７０６号,,11,203,3320001,,,,,,,2023-10-17,1,,,,,ムラカミ,0
1836,7030005021412,新規,0,2023-10-17,2023-10-17,司法書士法人かしのき事務所,,その他の設立登記法人,埼玉県,さいたま市西区,宮前町１０８６番地４,,11,101,3310046,,,,,,,2023-10-17,1,,,,,カシノキジムショ,0
1837,7030005021445,新規,0,2023-10-17,2023-10-17,医療法人奏生会,,その他の設立登記法人,埼玉県,蓮田市,本町２番２３号稲橋ビル３階・４階,,11,238,3490123,,,,,,,2023-10-17,1,,,,,ソウセイカイ,0
1841,7040001130521,新規,0,2023-10-17,2023-10-17,久保電気株式会社,,株式会社,千葉県,君津市,南子安６丁目２番２０号,,12,225,2991162,,,,,,,2023-10-17,1,,,,,クボデンキ,0
1842,7040001130538,新規,0,2023-10-17,2023-10-17,株式会社毀生,,株式会社,千葉県,市川市,広尾１丁目４番１３－２０３号（パークサイド・ハナ）,,12,203,2720146,,,,,,,2023-10-17,1,,,,,キショウ,0
1844,7040003023541,新規,0,2023-10-17,2023-10-17,惠比澤商事合同会社,,合同会社,千葉県,船橋市,西船４丁目２８番１２号古田澄子店舗２階,,12,204,2730031,,,,,,,2023-10-17,1,,,,,エビサワショウジ,0
1846,7050001053630,新規,0,2023-10-17,2023-10-17,株式会社Ｂ‐ｓｔｕｄｉｏ,,株式会社,茨城県,稲敷市,羽賀１１４９番地,,08,229,3000525,,,,,,,2023-10-17,1,,,,,ビースタジオ,0
1847,7050001053639,新規,0,2023-10-17,2023-10-17,株式会社ＹＯＲＩＳＯＵ　ＯＦＦＩＣＥ,,株式会社,茨城県,土浦市,神立町６７８番地１３,,08,203,3000013,,,,,,,2023-10-17,1,,,,,ヨリソウオフィス,0
1848,7050001053647,新規,0,2023-10-17,2023-10-17,ＨＭＷ株式会社,,株式会社,茨城県,神栖市,日川４０２２番地４,,08,232,3140114,,,,,,,2023-10-17,1,,,,,エイチエムダブリュー,0
1851,7060001036436,新規,0,2023-10-17,2023-10-17,株式会社Ｓ・Ｅ・Ｓ,,株式会社,栃木県,小山市,若木町３丁目１１番５号,,09,208,3230028,,,,,,,2023-10-17,1,,,,,エスイーエス,0
1856,7070001040981,新規,0,2023-10-17,2023-10-17,株式会社プルーブ,,株式会社,群馬県,伊勢崎市,上植木本町２６９６,,10,204,3720013,,,,,,,2023-10-17,1,,,,,,0
1867,7100001036860,新規,0,2023-10-17,2023-10-17,株式会社Ｗｅｌｆａｒｅ,,株式会社,長野県,松本市,浅間温泉２丁目７番５－２号メモリアセレレＢ,,20,202,3900303,,,,,,,2023-10-17,1,,,,,ウェルフェア,0
1880,7120001258817,新規,0,2023-10-17,2023-10-17,ＭＤ株式会社,,株式会社,大阪府,大阪市東住吉区,照ケ丘矢田２丁目７番２号淘金ビルＣ号室,,27,121,5460021,,,,,,,2023-10-17,1,,,,,エムディー,0
1881,7120001258890,新規,0,2023-10-17,2023-10-17,ＰＡＩＮＴ　ＰＡＬＥＴＴＥ　ＢＲＥＷＩＮＧ株式会社,,株式会社,大阪府,大阪市北区,西天満３丁目８－１１－７０２,,27,127,5300047,,,,,,,2023-10-17,1,,,,,ペイントパレットブリューイング,0
1886,7120005023944,新規,0,2023-10-17,2023-10-17,一般社団法人梓総研,,その他の設立登記法人,大阪府,大阪市北区,豊崎１丁目１１番２５号,,27,127,5310072,,,,,,,2023-10-17,1,,,,,アズサソウケン,0
1888,7120101068372,新規,0,2023-10-17,2023-10-17,株式会社ＴＨＲＥＥ,,株式会社,大阪府,堺市堺区,中瓦町１丁３番１５号,,27,141,5900077,,,,,,,2023-10-17,1,,,,,スリー,0
1891,7120901048193,新規,0,2023-10-17,2023-10-17,株式会社Ａｓ　Ｔｏ,,株式会社,大阪府,吹田市,藤白台４丁目１６番４号,,27,205,5650873,,,,,,,2023-10-17,1,,,,,アズトゥ,0
1911,7140001131823,新規,0,2023-10-17,2023-10-17,株式会社ＡＴＹ,,株式会社,兵庫県,神戸市長田区,東尻池町９丁目１番２４－３０２号,,28,106,6530022,,,,,,,2023-10-17,1,,,,,エーティーワイ,0
1912,7140001131880,新規,0,2023-10-17,2023-10-17,株式会社ティーオリーヴホールディングス,,株式会社,兵庫県,神戸市西区,学園東町４丁目３８－１３,,28,111,6512102,,,,,,,2023-10-17,1,,,,,ティーオリーヴホールディングス,0
1913,7140001131996,新規,0,2023-10-17,2023-10-17,ＳＥＮＹ株式会社,,株式会社,兵庫県,川西市,出在家町４番２０－２号,,28,217,6660011,,,,,,,2023-10-17,1,,,,,セニー,0
1914,7140001132004,新規,0,2023-10-17,2023-10-17,株式会社ＡＳＤ,,株式会社,兵庫県,加古川市,野口町坂井１５７番地の８,,28,210,6750015,,,,,,,2023-10-17,1,,,,,エーエスディー,0
1918,7140003019678,新規,0,2023-10-17,2023-10-17,合同会社ＲＥＡＬＩＳ,,合同会社,兵庫県,明石市,東藤江１丁目５番９－２号,,28,203,6730042,,,,,,,2023-10-17,1,,,,,レアリス,0
1923,7160003003011,新規,0,2023-10-17,2023-10-17,合同会社ＭＴＳＳ,,合同会社,滋賀県,大津市,国分１丁目３１番５号,,25,201,5200844,,,,,,,2023-10-17,1,,,,,エムティエスエス,0
1929,7180001158482,新規,0,2023-10-17,2023-10-17,イロハ株式会社,,株式会社,愛知県,豊明市,新田町門先１１－１３,,23,229,4701112,,,,,,,2023-10-17,1,,,,,イロハ,0
1930,7180001158490,新規,0,2023-10-17,2023-10-17,株式会社Ｃｙｂｅｒ　Ｃｈａｍｅｌｅｏｎ　Ｓｏｆｔ,,株式会社,愛知県,名古屋市北区,城東町５丁目１０１－１,,23,103,4620831,,,,,,,2023-10-17,1,,,,,サイバーカメレオンソフト,0
1931,7180001158508,新規,0,2023-10-17,2023-10-17,誠信エンジニアリング株式会社,,株式会社,愛知県,大府市,追分町２丁目２９６番地２,,23,223,4740027,,,,,,,2023-10-17,1,,,,,セイシンエンジニアリング,0
1937,7180003025846,新規,0,2023-10-17,2023-10-17,ＩＫＲＡ合同会社,,合同会社,愛知県,津島市,神尾町字西之割７５番地,,23,208,4960013,,,,,,,2023-10-17,1,,,,,イクラ,0
1938,7180301037898,新規,0,2023-10-17,2023-10-17,株式会社江川建築計画事務所,,株式会社,愛知県,刈谷市,若松町２丁目１０３番地パークホームズ刈谷サザンゲートイースト１４０２,,23,210,4480858,,,,,,,2023-10-17,1,,,,,エガワケンチクケイカクジムショ,0
1939,7180301037907,新規,0,2023-10-17,2023-10-17,株式会社祭りファクトリー,,株式会社,愛知県,豊橋市,前田町２丁目１２番地２３ヨネザワビル１階南,,23,201,4400814,,,,,,,2023-10-17,1,,,,,マツリファクトリー,0
1940,7180301037915,新規,0,2023-10-17,2023-10-17,株式会社ａｂｉｌｉｔｙ,,株式会社,愛知県,豊川市,末広通２丁目４０番地,,23,207,4420029,,,,,,,2023-10-17,1,,,,,アビリティ,0
1945,7190001030806,新規,0,2023-10-17,2023-10-17,株式会社三重再生活用,,株式会社,三重県,鈴鹿市,南玉垣町４９６５番地,,24,207,5130816,,,,,,,2023-10-17,1,,,,,ミエサイセイカツヨウ,0
1948,7200001041818,新規,0,2023-10-17,2023-10-17,株式会社やまのはたへ,,株式会社,岐阜県,美濃加茂市,蜂屋町上蜂屋１７５６番地１,,21,211,5050004,,,,,,,2023-10-17,1,,,,,ヤマノハタヘ,0
1956,7230001020059,新規,0,2023-10-17,2023-10-17,株式会社ＲＯＫＡ　ＳＴＹＬＥ,,株式会社,富山県,高岡市,立野３０６５番地,,16,202,9330325,,,,,,,2023-10-17,1,,,,,ロカスタイル,0
1959,7240001062273,新規,0,2023-10-17,2023-10-17,株式会社Ｂｅ　ｓｈｏｔ,,株式会社,広島県,広島市中区,流川町４番１７号,,34,101,7300028,,,,,,,2023-10-17,1,,,,,ビーショット,0
1961,7250001020338,新規,0,2023-10-17,2023-10-17,株式会社Ｋａｉｔｅｃ,,株式会社,山口県,山口市,小郡下郷２６４８－３,,35,203,7540002,,,,,,,2023-10-17,1,,,,,カイテック,0
1966,7290001103394,新規,0,2023-10-17,2023-10-17,ＳＩＮ株式会社,,株式会社,福岡県,福岡市博多区,東平尾２丁目９番２号,,40,132,8120853,,,,,,,2023-10-17,1,,,,,エスアイエヌ,0
1967,7290001103411,新規,0,2023-10-17,2023-10-17,株式会社Ｚ,,株式会社,福岡県,福岡市中央区,赤坂１丁目１４番２２号,,40,133,8100042,,,,,,,2023-10-17,1,,,,,ゼット,0
1968,7300001013501,新規,0,2023-10-17,2023-10-17,株式会社ともに,,株式会社,佐賀県,三養基郡みやき町,大字白壁３５１６番地６,,41,346,8490111,,,,,,,2023-10-17,1,,,,,トモニ,0
1977,7340003004288,新規,0,2023-10-17,2023-10-17,合同会社ＢＲＡＶＩＳＴＡ,,合同会社,鹿児島県,鹿児島市,住吉町１２番５号プライムステージ６０３号,,46,201,8920823,,,,,,,2023-10-17,1,,,,,ブラヴィスタ,0
1982,7360001032669,新規,0,2023-10-17,2023-10-17,株式会社琉城ブロック工業,,株式会社,沖縄県,浦添市,大平３丁目１５番２１号ユカリ荘ＩＩ２０３号,00132273,47,208,9012113,,,,,,,2023-10-17,1,,,,,リュウキブロックコウギョウ,0
1983,7360005006917,新規,0,2023-10-17,2023-10-17,一般社団法人地域共生ライフアップ,,その他の設立登記法人,沖縄県,那覇市,首里末吉町３丁目８番地６,,47,201,9030801,,,,,,,2023-10-17,1,,,,,チイキキョウセイライフアップ,0
1986,7370001050521,新規,0,2023-10-17,2023-10-17,株式会社グランエンジニアリング東日本,,株式会社,宮城県,仙台市青葉区,一番町２丁目７番１２号,,04,101,9800811,,,,,,,2023-10-17,1,,,,,グランエンジニアリングヒガシニホン,0
2007,7430001090206,新規,0,2023-10-17,2023-10-17,株式会社さっぽろ天空セレモニー,,株式会社,北海道,札幌市北区,新琴似二条１丁目１番４９号,,01,102,0010902,,,,,,,2023-10-17,1,,,,,サッポロテンクウセレモニー,0
2009,7460303000801,新規,0,2023-10-17,2023-10-17,合同会社トリコ,,合同会社,北海道,斜里郡小清水町,南町１丁目２５番１７号,,01,547,0993642,,,,,,,2023-10-17,1,,,,,トリコ,0
2025,8010001239273,新規,0,2023-10-17,2023-10-17,株式会社Ｍａｓｔｅｒ　Ｐｉｅｃｅ,,株式会社,東京都,中央区,銀座６丁目１０番１号ＧＩＮＺＡＳＩＸ１３Ｆ,,13,102,1040061,,,,,,,2023-10-17,1,,,,,マスターピース,0
2026,8010001239281,新規,0,2023-10-17,2023-10-17,株式会社リーチポイント,,株式会社,東京都,中央区,日本橋小網町３番地１８カネトモ第２ビル２階,,13,102,1030016,,,,,,,2023-10-17,1,,,,,リーチポイント,0
2027,8010001239298,新規,0,2023-10-17,2023-10-17,株式会社ジャパンキャリアマネージメント,,株式会社,東京都,千代田区,二番町９番地１０号,,13,101,1020084,,,,,,,2023-10-17,1,,,,,,0
2028,8010001239307,新規,0,2023-10-17,2023-10-17,ローマテキスタイルジャパン株式会社,,株式会社,東京都,千代田区,神田三崎町３丁目５番９号２階,,13,101,1010061,,,,,,,2023-10-17,1,,,,,ローマテキスタイルジャパン,0
2031,8010003041917,新規,0,2023-10-17,2023-10-17,合同会社ソラトウミ舎,,合同会社,東京都,中央区,銀座１丁目１２番４号Ｎ＆ＥＢＬＤ．６Ｆ,,13,102,1040061,,,,,,,2023-10-17,1,,,,,ソラトウミシャ,0
2035,8010401177800,新規,0,2023-10-17,2023-10-17,株式会社ケイク,,株式会社,東京都,港区,北青山１丁目３番１号アールキューブ青山３階,,13,103,1070061,,,,,,,2023-10-17,1,,,,,ケイク,0
2044,8010803004718,新規,0,2023-10-17,2023-10-17,ＨＲＢ合同会社,,合同会社,東京都,大田区,西嶺町３－１ルーブル田園調布南５０４,,13,111,1450075,,,,,,,2023-10-17,1,,,,,エイチアールビー,0
2047,8010901054004,新規,0,2023-10-17,2023-10-17,株式会社フォーシーズン,,株式会社,東京都,世田谷区,上野毛４丁目２０番１６号,,13,112,1580093,,,,,,,2023-10-17,1,,,,,フォーシーズン,0
2057,8011101104722,新規,0,2023-10-17,2023-10-17,株式会社カランコロン,,株式会社,東京都,新宿区,西新宿１丁目２６番２号新宿野村ビル４８階,,13,104,1600023,,,,,,,2023-10-17,1,,,,,カランコロン,0
2058,8011101104763,新規,0,2023-10-17,2023-10-17,クロノブレイク株式会社,,株式会社,東京都,新宿区,西新宿３丁目３番１３号西新宿水間ビル２Ｆ,,13,104,1600023,,,,,,,2023-10-17,1,,,,,クロノブレイク,0
2059,8011101104771,新規,0,2023-10-17,2023-10-17,株式会社Ｉｒｉｄａ,,株式会社,東京都,新宿区,西新宿７丁目１番７号新宿ダイカンプラザＡ館７１４,,13,104,1600023,,,,,,,2023-10-17,1,,,,,イリーダ,0
2060,8011101104788,新規,0,2023-10-17,2023-10-17,株式会社リージョナルメディカルユナイト,,株式会社,東京都,新宿区,築地町６番地１１,,13,104,1620818,,,,,,,2023-10-17,1,,,,,リージョナルメディカルユナイト,0
2065,8011201024985,新規,0,2023-10-17,2023-10-17,株式会社エムアンドオー,,株式会社,東京都,中野区,上鷺宮４丁目２０番５号,,13,114,1650031,,,,,,,2023-10-17,1,,,,,エムアンドオー,0
2070,8011503005758,新規,0,2023-10-17,2023-10-17,合同会社カンザス,,合同会社,東京都,北区,田端２丁目６－２０－７０１,,13,117,1140014,,,,,,,2023-10-17,1,,,,,カンザス,0
2076,8012301013630,新規,0,2023-10-17,2023-10-17,株式会社ａｔｅｌｉｅｒ木陰,,株式会社,東京都,町田市,小山ヶ丘３丁目２７－２１１,,13,209,1940215,,,,,,,2023-10-17,1,,,,,アトリエコカゲ,0
2082,8013101009265,新規,0,2023-10-17,2023-10-17,ケア・マッチメイカー株式会社,,株式会社,東京都,福生市,大字熊川１６６７番地８,,13,218,1970003,,,,,,,2023-10-17,1,,,,,ケアマッチメイカー,0
2085,8013303006837,新規,0,2023-10-17,2023-10-17,ＨＲＡＯＩ商事合同会社,,合同会社,東京都,豊島区,西池袋５丁目５－２１ザ・タワーグランディア１９０７号室,,13,116,1710021,,,,,,,2023-10-17,1,,,,,エッチアールアオイショウジ,0
2092,8020003024805,新規,0,2023-10-17,2023-10-17,ＦＦ技研合同会社,,合同会社,神奈川県,川崎市中原区,井田中ノ町３４番２０ー５２４号,,14,133,2110034,,,,,,,2023-10-17,1,,,,,エフエフギケン,0
2096,8021001080468,新規,0,2023-10-17,2023-10-17,株式会社大輝,,株式会社,神奈川県,座間市,相模が丘６丁目３４番１－１２０８号,,14,216,2520001,,,,,,,2023-10-17,1,,,,,ダイキ,0
2097,8021001080476,新規,0,2023-10-17,2023-10-17,株式会社ムクロジ,,株式会社,神奈川県,三浦郡葉山町,上山口３３７８番地,,14,301,2400115,,,,,,,2023-10-17,1,,,,,ムクロジ,0
2102,8021003013681,新規,0,2023-10-17,2023-10-17,ｃｏｓｍｉｃ．Ｙ合同会社,,合同会社,神奈川県,高座郡寒川町,一之宮７丁目４番ソフィア茅ヶ崎Ａ棟８０３号,,14,321,2530111,,,,,,,2023-10-17,1,,,,,コズミックワイ,0
2113,8030001156665,新規,0,2023-10-17,2023-10-17,株式会社令名,,株式会社,埼玉県,さいたま市浦和区,常盤７丁目１４番１７号,,11,107,3300061,,,,,,,2023-10-17,1,,,,,レイナ,0
2114,8030001156707,新規,0,2023-10-17,2023-10-17,株式会社伊藤園,,株式会社,埼玉県,加須市,平永８５５番地１,,11,210,3470046,,,,,,,2023-10-17,1,,,,,イトウエン,0
2124,8030003022733,新規,0,2023-10-17,2023-10-17,三和合同会社,,合同会社,埼玉県,熊谷市,肥塚３丁目６－１三合第２マンション２０１号室,,11,202,3600015,,,,,,,2023-10-17,1,,,,,サンワ,0
2125,8030003022790,新規,0,2023-10-17,2023-10-17,合同会社笹尾産業グループ,,合同会社,埼玉県,さいたま市緑区,大字大間木１８３０番地３,,11,109,3360923,,,,,,,2023-10-17,1,,,,,ササオサンギョウグループ,0
2133,8040003023490,新規,0,2023-10-17,2023-10-17,紬夢つむはせがわ合同会社,,合同会社,千葉県,松戸市,新松戸２丁目４３２,,12,207,2700034,,,,,,,2023-10-17,1,,,,,ツムツムハセガワ,0
2134,8040003023549,新規,0,2023-10-17,2023-10-17,合同会社春恋,,合同会社,千葉県,松戸市,西馬橋２丁目３２番地１５,,12,207,2710044,,,,,,,2023-10-17,1,,,,,ハルコイ,0
2137,8050001053638,新規,0,2023-10-17,2023-10-17,Ｓ．Ｊ国際株式会社,,株式会社,茨城県,取手市,戸頭６丁目１番１２－４０１号,,08,217,3020034,,,,,,,2023-10-17,1,,,,,エスジェイコクサイ,0
2138,8050001053654,新規,0,2023-10-17,2023-10-17,株式会社未来プランニング,,株式会社,茨城県,潮来市,潮来５００３番地９,,08,223,3112424,,,,,,,2023-10-17,1,,,,,ミライプランニング,0
2141,8060001036427,新規,0,2023-10-17,2023-10-17,株式会社ＳＴＧ,,株式会社,栃木県,宇都宮市,西川田５丁目１４番１号,,09,201,3210152,,,,,,,2023-10-17,1,,,,,エスティージー,0
2144,8070001040980,新規,0,2023-10-17,2023-10-17,株式会社ＴＫプラン,,株式会社,群馬県,高崎市,旭町１３８番地１ラディファンス２０６号,,10,202,3700052,,,,,,,2023-10-17,1,,,,,ティーケープラン,0
2150,8110005017013,新規,0,2023-10-17,2023-10-17,医療法人社団明幸会,,その他の設立登記法人,新潟県,新発田市,諏訪町１丁目２番１１号イクネスしばたＭＩＮＴＯ館２階,,15,206,9570055,,,,,,,2023-10-17,1,,,,,メイコウカイ,0
2158,8120001258865,新規,0,2023-10-17,2023-10-17,ロゼッタ株式会社,,株式会社,大阪府,大阪市浪速区,稲荷１丁目６番１６－６０２号,,27,111,5560023,,,,,,,2023-10-17,1,,,,,ロゼッタ,0
2159,8120001258873,新規,0,2023-10-17,2023-10-17,株式会社ＳＴＵＤＩＯＴＲＥＥ,,株式会社,大阪府,大阪市福島区,福島６丁目１８－１８Ｗ．Ｏ．ＢＮＩＳＨＩＵＭＥＤＡ５０１,,27,103,5530003,,,,,,,2023-10-17,1,,,,,スタジオツリー,0
2160,8120001258964,新規,0,2023-10-17,2023-10-17,Ｓｕｎｗａｙ　Ｉｎｔｅｒｎａｔｉｏｎａｌ株式会社,,株式会社,大阪府,大阪市中央区,島之内１丁目１５－９アイテックスビル５階５０４室,,27,128,5420082,,,,,,,2023-10-17,1,,,,,サンウェイインターナショナル,0
2168,8120101068388,新規,0,2023-10-17,2023-10-17,株式会社ＩＬＵＣａ,,株式会社,大阪府,貝塚市,堤３７１－１,,27,208,5970054,,,,,,,2023-10-17,1,,,,,イルカ,0
2173,8120903004870,新規,0,2023-10-17,2023-10-17,ヒラオ合同会社,,合同会社,大阪府,豊中市,北緑丘２丁目１番１０－５０１号,,27,203,5600001,,,,,,,2023-10-17,1,,,,,ヒラオ,0
2174,8120903004879,新規,0,2023-10-17,2023-10-17,合同会社Ｋｅｎｏｓｕｋｅ,,合同会社,大阪府,豊中市,新千里西町１丁目１番１０号ディーグラフォート千里中央３０１,,27,203,5600083,,,,,,,2023-10-17,1,,,,,ケノスケ,0
2176,8122001037480,新規,0,2023-10-17,2023-10-17,株式会社ＮＣｃｔｒｌ,,株式会社,大阪府,八尾市,垣内２丁目２２０番地の１,,27,212,5810881,,,,,,,2023-10-17,1,,,,,エヌシーコントロール,0
2181,8130003009027,新規,0,2023-10-17,2023-10-17,合同会社Ｅ‐Ｚｏｎｅ,,合同会社,京都府,城陽市,長池北裏１０３－１４,,26,207,6100112,,,,,,,2023-10-17,1,,,,,イーゾーン,0
2188,8140003019677,新規,0,2023-10-17,2023-10-17,合同会社ビットリサーチ,,合同会社,兵庫県,芦屋市,大桝町５番１２号たのしやビル４階,,28,206,6590066,,,,,,,2023-10-17,1,,,,,,0
2190,8150001026749,新規,0,2023-10-17,2023-10-17,株式会社ｕｎＳｕｎｇ,,株式会社,奈良県,桜井市,大字西之宮２５３－３,,29,206,6330066,,,,,,,2023-10-17,1,,,,,アンサング,0
2193,8180001158473,新規,0,2023-10-17,2023-10-17,株式会社ＲＡＮＳＵ,,株式会社,愛知県,名古屋市東区,泉１丁目１９番５号ハートヒルズ久屋大通２Ｂ号,,23,102,4610001,,,,,,,2023-10-17,1,,,,,ランス,0
2194,8180001158481,新規,0,2023-10-17,2023-10-17,株式会社ＲＡＪジャパン,,株式会社,愛知県,名古屋市東区,泉１丁目６－２４,,23,102,4610001,,,,,,,2023-10-17,1,,,,,アールエイジェイジャパン,0
2198,8180301037914,新規,0,2023-10-17,2023-10-17,株式会社オカキュー,,株式会社,愛知県,豊橋市,中橋良町４４番地,,23,201,4418037,,,,,,,2023-10-17,1,,,,,オカキュー,0
2199,8180303005860,新規,0,2023-10-17,2023-10-17,Ｌａｎｉ　Ｓｔｙｌｅ合同会社,,合同会社,愛知県,岡崎市,橋目町字御小屋西８１番地１,,23,202,4440909,,,,,,,2023-10-17,1,,,,,ラニスタイル,0
2200,8180303005869,新規,0,2023-10-17,2023-10-17,大嶺合同会社,,合同会社,愛知県,みよし市,三好丘旭３丁目１－２プロムナード三好ヶ丘３－３０４,,23,236,4700203,,,,,,,2023-10-17,1,,,,,オオミネ,0
2202,8190001030805,新規,0,2023-10-17,2023-10-17,株式会社大栄電気工業所,,株式会社,三重県,いなべ市,北勢町麻生田３６６０番地１,,24,214,5110427,,,,,,,2023-10-17,1,,,,,ダイエイデンキコウギョウショ,0
2203,8190001030813,新規,0,2023-10-17,2023-10-17,株式会社エレガントフリット,,株式会社,三重県,鈴鹿市,稲生４丁目１３番１９号,,24,207,5100205,,,,,,,2023-10-17,1,,,,,エレガントフリット,0
2208,8220001025628,新規,0,2023-10-17,2023-10-17,エムシーアール株式会社,,株式会社,石川県,金沢市,此花町５番６号ライフ金沢第１ビル６０１Ａ,,17,201,9200852,,,,,,,2023-10-17,1,,,,,エムシーアール,0
2213,8240001062272,新規,0,2023-10-17,2023-10-17,ソエル株式会社,,株式会社,広島県,安芸郡海田町,大立町４番２３－１０２号,,34,304,7360025,,,,,,,2023-10-17,1,,,,,ソエル,0
2221,8260001038411,新規,0,2023-10-17,2023-10-17,株式会社守時ファーム,,株式会社,岡山県,岡山市北区,横井上４１番地１エルモントＡ－２０１,,33,101,7011145,,,,,,,2023-10-17,1,,,,,モリトキファーム,0
2230,8290001103419,新規,0,2023-10-17,2023-10-17,ＺＪ　ＴＲＡＤＩＮＧ株式会社,,株式会社,福岡県,糟屋郡新宮町,大字立花口２１７６番地３,,40,345,8110102,,,,,,,2023-10-17,1,,,,,ゼットジェイトレーディング,0
2232,8290003014473,新規,0,2023-10-17,2023-10-17,合同会社ＮＫ,,合同会社,福岡県,福岡市博多区,中洲２丁目４番２０号第２１ポールスタービル２階,,40,132,8100801,,,,,,,2023-10-17,1,,,,,エヌケイ,0
2233,8290003014498,新規,0,2023-10-17,2023-10-17,ＣＫＥ合同会社,,合同会社,福岡県,福岡市城南区,別府３丁目４－２８プランドール別府４０４号,,40,136,8140104,,,,,,,2023-10-17,1,,,,,シーケーイー,0
2239,8340001025987,新規,0,2023-10-17,2023-10-17,株式会社下田グループ,,株式会社,鹿児島県,鹿児島市,小川町２７番２号,,46,201,8920817,,,,,,,2023-10-17,1,,,,,シモダグループ,0
2244,8340003004287,新規,0,2023-10-17,2023-10-17,合同会社シティライツ,,合同会社,鹿児島県,鹿児島市,上荒田町３４－１－８０４,,46,201,8900055,,,,,,,2023-10-17,1,,,,,シティライツ,0
2248,8360001032668,新規,0,2023-10-17,2023-10-17,株式会社ＢＬＥＴＨ,,株式会社,沖縄県,うるま市,字栄野比８２番地１,,47,213,9042205,,,,,,,2023-10-17,1,,,,,ブレス,0
2249,8360001032676,新規,0,2023-10-17,2023-10-17,株式会社ＥＬＵ,,株式会社,沖縄県,那覇市,字上間１８５番地３、３０１,,47,201,9020073,,,,,,,2023-10-17,1,,,,,エル,0
2250,8360001032684,新規,0,2023-10-17,2023-10-17,株式会社牛信ファーム,,株式会社,沖縄県,石垣市,新栄町５７番地３,,47,207,9070014,,,,,,,2023-10-17,1,,,,,ギュウシンファーム,0
2254,8360003013369,新規,0,2023-10-17,2023-10-17,合同会社ＩＴＡＶＩＳＩ,,合同会社,沖縄県,国頭郡国頭村,字楚洲５７５番地１,,47,301,9051502,,,,,,,2023-10-17,1,,,,,イタビシ,0
2255,8360005006916,新規,0,2023-10-17,2023-10-17,一般財団法人太田サンシャイン,,その他の設立登記法人,沖縄県,宜野湾市,志真志４丁目１番１号,,47,205,9012213,,,,,,,2023-10-17,1,,,,,オオタサンシャイン,0
2256,8370001050537,新規,0,2023-10-17,2023-10-17,ＹＳＰマネジメント株式会社,,株式会社,宮城県,仙台市青葉区,一番町２丁目１０番１７号,,04,101,9800811,,,,,,,2023-10-17,1,,,,,ワイエスピーマネジメント,0
2259,8400003003159,新規,0,2023-10-17,2023-10-17,合同会社いちじゅ,,合同会社,岩手県,盛岡市,本町通１丁目９番１２号,,03,201,0200015,,,,,,,2023-10-17,1,,,,,イチジュ,0
2267,8420003002811,新規,0,2023-10-17,2023-10-17,合同会社Ａｏｎ　Ｏｏｋ,,合同会社,青森県,八戸市,新湊２丁目３番１３号,,02,203,0310811,,,,,,,2023-10-17,1,,,,,エンオーク,0
2272,8430001090205,新規,0,2023-10-17,2023-10-17,株式会社ウイングアップ,,株式会社,北海道,札幌市東区,北六条東８丁目１番２－１１０８号,,01,103,0650006,,,,,,,2023-10-17,1,,,,,ウイングアップ,0
2273,8430001090213,新規,0,2023-10-17,2023-10-17,株式会社ＢＳＪ,,株式会社,北海道,札幌市中央区,南九条西１１丁目１－５－Ｓｔｅｌｌａ９１１－２Ｆ,,01,101,0640809,,,,,,,2023-10-17,1,,,,,ビーエスジェー,0
2293,9010001239272,新規,0,2023-10-17,2023-10-17,ＬＥＡ株式会社,,株式会社,東京都,文京区,湯島３丁目３７番１３号ＴＳＯｋａｃｈｉｍａｃｈｉ４０２号室,,13,105,1130034,,,,,,,2023-10-17,1,,,,,エルイーエー,0
2294,9010001239306,新規,0,2023-10-17,2023-10-17,３６０Ｒｅａｌ株式会社,,株式会社,東京都,中央区,銀座１丁目２２番１１号銀座大竹ビジデンス２階,,13,102,1040061,,,,,,,2023-10-17,1,,,,,サンロクマルリアル,0
2298,9010003041940,新規,0,2023-10-17,2023-10-17,合同会社ＥＮＥＲＧＥＥ,,合同会社,東京都,千代田区,神田三崎町３丁目１０番２２号ＷＨＡＲＦ神田三崎町ビル６階,,13,101,1010061,,,,,,,2023-10-17,1,,,,,エナジー,0
2299,9010003041949,新規,0,2023-10-17,2023-10-17,合同会社ｂｕｄｄｙ,,合同会社,東京都,文京区,大塚６丁目１５－１１－５０１,,13,105,1120012,,,,,,,2023-10-17,1,,,,,バディ,0
2309,9010401177857,新規,0,2023-10-17,2023-10-17,株式会社メディカルワン,,株式会社,東京都,港区,愛宕１丁目１番１－２６０６号,,13,103,1050002,,,,,,,2023-10-17,1,,,,,メディカルワン,0
2313,9010405022563,新規,0,2023-10-17,2023-10-17,一般社団法人集合住宅デジタル高度化協議会,,その他の設立登記法人,東京都,港区,芝５丁目２７番６号,,13,103,1080014,,,,,,,2023-10-17,1,,,,,シュウゴウジュウタクデジタルコウドカキョウギカイ,0
2323,9010703006912,新規,0,2023-10-17,2023-10-17,ＭＯＧＩアソシエイト合同会社,,合同会社,東京都,品川区,上大崎３丁目１２番２９－４０１号,,13,109,1410021,,,,,,,2023-10-17,1,,,,,モギアソシエイト,0
2326,9010901053946,新規,0,2023-10-17,2023-10-17,株式会社Ｔｕｒｎ　Ｔｈｅ　Ｔｉｄｅ,,株式会社,東京都,世田谷区,松原１丁目５５番１０,,13,112,1560043,,,,,,,2023-10-17,1,,,,,ターンザタイド,0
2327,9010901054003,新規,0,2023-10-17,2023-10-17,Ｄｉｓｃｏｖｅｒｙ　Ｄｅｓｉｇｎ株式会社,,株式会社,東京都,世田谷区,世田谷１丁目１６番１４号,,13,112,1540017,,,,,,,2023-10-17,1,,,,,ディスカバリーデザイン,0
2330,9011001157308,新規,0,2023-10-17,2023-10-17,ｎｏｏｋ株式会社,,株式会社,東京都,渋谷区,神泉町１０番１５号アネックス神泉３０１,,13,113,1500045,,,,,,,2023-10-17,1,,,,,ヌーク,0
2331,9011001157472,新規,0,2023-10-17,2023-10-17,株式会社ＮＷＳＧ,,株式会社,東京都,渋谷区,道玄坂１丁目１０番８号渋谷道玄坂東急ビル２ＦーＣ,,13,113,1500043,,,,,,,2023-10-17,1,,,,,エヌダブルエスジー,0
2332,9011001157613,新規,0,2023-10-17,2023-10-17,ＨＦＴＦ株式会社,,株式会社,東京都,渋谷区,道玄坂１丁目１０番２号,,13,113,1500043,,,,,,,2023-10-17,1,,,,,エイチエフティーエフ,0
2333,9011101104746,新規,0,2023-10-17,2023-10-17,エボリスコンサルティング株式会社,,株式会社,東京都,新宿区,北新宿３丁目１番２０号北新宿ユニオンビル１階,,13,104,1690074,,,,,,,2023-10-17,1,,,,,エボリスコンサルティング,0
2334,9011101104754,新規,0,2023-10-17,2023-10-17,株式会社諦康,,株式会社,東京都,新宿区,新宿５丁目３番４－２０７号,,13,104,1600022,,,,,,,2023-10-17,1,,,,,テイコウ,0
2335,9011101104770,新規,0,2023-10-17,2023-10-17,Ｓｅｌａｓ株式会社,,株式会社,東京都,新宿区,西新宿６丁目５番地１号新宿アイランドタワー２階,,13,104,1600023,,,,,,,2023-10-17,1,,,,,セラス,0
2339,9011801043178,新規,0,2023-10-17,2023-10-17,株式会社ルーツ,,株式会社,東京都,足立区,西新井栄町３丁目１０番１号,,13,121,1230843,,,,,,,2023-10-17,1,,,,,ルーツ,0
2343,9012401041101,新規,0,2023-10-17,2023-10-17,株式会社和,,株式会社,東京都,府中市,宮西町３丁目１番地の６ナイスアーバン府中３０１,,13,206,1830022,,,,,,,2023-10-17,1,,,,,ナゴミ,0
2344,9012401041118,新規,0,2023-10-17,2023-10-17,アイレックスマテリアルズ株式会社,,株式会社,東京都,多摩市,永山２丁目１６番地の２３ライオンズモリス京王永山４０２,,13,224,2060025,,,,,,,2023-10-17,1,,,,,アイレックスマテリアルズ,0
2346,9012801022700,新規,0,2023-10-17,2023-10-17,株式会社ゲレンデ,,株式会社,東京都,国分寺市,本町２丁目１４番３号,,13,214,1850012,,,,,,,2023-10-17,1,,,,,ゲレンデ,0
2370,9021001080467,新規,0,2023-10-17,2023-10-17,株式会社無垢,,株式会社,神奈川県,足柄上郡山北町,向原２４０３,,14,364,2580111,,,,,,,2023-10-17,1,,,,,ムク,0
2375,9030001156656,新規,0,2023-10-17,2023-10-17,ＳＯＲＡ．ＪＰ株式会社,,株式会社,埼玉県,朝霞市,三原２丁目４番２９号,,11,227,3510025,,,,,,,2023-10-17,1,,,,,ソラジェイピー,0
2376,9030001156697,新規,0,2023-10-17,2023-10-17,株式会社ハーベストムーン,,株式会社,埼玉県,上尾市,大字上尾下９１６番地２４,,11,219,3620025,,,,,,,2023-10-17,1,,,,,ハーベストムーン,0
2388,9040001130544,新規,0,2023-10-17,2023-10-17,株式会社ＫＯＡ　ＧＡＲＡＧＥ,,株式会社,千葉県,佐倉市,染井野２丁目４６番地１,,12,212,2850831,,,,,,,2023-10-17,1,,,,,コアカレージ,0
2389,9040003023523,新規,0,2023-10-17,2023-10-17,ＤＫＣＴＲＡＤＩＮＧ合同会社,,合同会社,千葉県,野田市,岩名２００９番地４５－１０１,,12,208,2780055,,,,,,,2023-10-17,1,,,,,ディーケーシートレーデイング,0
2390,9040003023556,新規,0,2023-10-17,2023-10-17,合同会社館山水庭,,合同会社,千葉県,館山市,下真倉４４８－１０,,12,205,2940048,,,,,,,2023-10-17,1,,,,,タテヤマスイテイ,0
2391,9040003023572,新規,0,2023-10-17,2023-10-17,合同会社ＹＳＧ,,合同会社,千葉県,山武市,松尾町猿尾２１３―３,,12,237,2891513,,,,,,,2023-10-17,1,,,,,ワイエスジー,0
2392,9050001053661,新規,0,2023-10-17,2023-10-17,Ｋｉｔグループ株式会社,,株式会社,茨城県,牛久市,柏田町１６０８番地７,,08,219,3001211,,,,,,,2023-10-17,1,,,,,キットグループ,0
2394,9050003007855,新規,0,2023-10-17,2023-10-17,キウチエコパワー合同会社,,合同会社,茨城県,神栖市,息栖７５１番地１,,08,232,3140133,,,,,,,2023-10-17,1,,,,,キウチエコパワー,0
2400,9070001040971,新規,0,2023-10-17,2023-10-17,株式会社ハシモト,,株式会社,群馬県,伊勢崎市,連取町２０５１番地,,10,204,3720812,,,,,,,2023-10-17,1,,,,,ハシモト,0
2419,9110005017012,新規,0,2023-10-17,2023-10-17,一般財団法人コスモス財団,,その他の設立登記法人,新潟県,新潟市江南区,西町１丁目２番１号,,15,104,9500165,,,,,,,2023-10-17,1,,,,,コスモスザイダン,0
2426,9120001258848,新規,0,2023-10-17,2023-10-17,株式会社万屋ＥＮＤＯ,,株式会社,大阪府,大阪市城東区,鴫野西２丁目４番２１号,,27,118,5360014,,,,,,,2023-10-17,1,,,,,ヨロズヤエンドウ,0
2427,9120001258864,新規,0,2023-10-17,2023-10-17,株式会社力丸海運,,株式会社,大阪府,大阪市港区,築港４丁目９番７号,,27,107,5520021,,,,,,,2023-10-17,1,,,,,リキマルカイウン,0
2430,9120003025081,新規,0,2023-10-17,2023-10-17,ＳＡＬＯＮ　ＤＥ　ＴＨＥ　ＡＭＩＴＩＥ合同会社,,合同会社,大阪府,大阪市淀川区,東三国１丁目４番１７号,,27,123,5320002,,,,,,,2023-10-17,1,,,,,サロンドテアミティ,0
2431,9120005023926,新規,0,2023-10-17,2023-10-17,一般社団法人詐欺被害相談センター,,その他の設立登記法人,大阪府,大阪市北区,西天満３丁目５－１０オフィスポート大阪５１６,,27,127,5300047,,,,,,,2023-10-17,1,,,,,サギヒガイソウダンセンター,0
2434,9120901048200,新規,0,2023-10-17,2023-10-17,株式会社ボノール,,株式会社,大阪府,高槻市,日吉台七番町１３番２号,,27,207,5691022,,,,,,,2023-10-17,1,,,,,ボノール,0
2440,9140001131986,新規,0,2023-10-17,2023-10-17,ＥＮＯＮ株式会社,,株式会社,兵庫県,姫路市,広畑区才１１６０番地１,,28,201,6711104,,,,,,,2023-10-17,1,,,,,エノン,0
2454,9180001158489,新規,0,2023-10-17,2023-10-17,株式会社ＡＴコーポレーション,,株式会社,愛知県,大府市,吉川町６丁目１２９番地の２,,23,223,4740046,,,,,,,2023-10-17,1,,,,,エイティコーポレーション,0
2457,9180301037905,新規,0,2023-10-17,2023-10-17,株式会社ＩＢＵＫＵＲＯ,,株式会社,愛知県,豊橋市,八通町１２０番地の２,,23,201,4418023,,,,,,,2023-10-17,1,,,,,イブクロ,0
2460,9180303005868,新規,0,2023-10-17,2023-10-17,合同会社ＧＯＫＡＳＥ,,合同会社,愛知県,安城市,堀内町屋敷６３番地１,,23,212,4441155,,,,,,,2023-10-17,1,,,,,ゴカセ,0
2464,9200005013530,新規,0,2023-10-17,2023-10-17,農事組合法人下大榑営農,,その他の設立登記法人,岐阜県,安八郡輪之内町,下大榑７２０番地,,21,382,5030205,,,,,,,2023-10-17,1,,,,,シモオオグレエイノウ,0
2472,9240001062271,新規,0,2023-10-17,2023-10-17,株式会社ＫＭホールディングス,,株式会社,広島県,広島市安佐北区,深川２丁目４７番２２号,,34,106,7391751,,,,,,,2023-10-17,1,,,,,ケイエムホールディングス,0
2481,9260001038393,新規,0,2023-10-17,2023-10-17,株式会社川元運送,,株式会社,岡山県,真庭市,月田６６７２番地,,33,214,7170024,,,,,,,2023-10-17,1,,,,,カワモトウンソウ,0
2497,9310001018662,新規,0,2023-10-17,2023-10-17,株式会社ＳＳＷ,,株式会社,長崎県,長崎市,入船町１２番２号,,42,201,8500065,,,,,,,2023-10-17,1,,,,,エスエスダブリュー,0
2498,9320001020080,新規,0,2023-10-17,2023-10-17,株式会社縁繋,00132284,株式会社,大分県,大分市,明野西１丁目２６番１５－５０７号,,44,201,8700164,,,,,,,2023-10-17,1,,,,,エンケイ,0
2500,9330001031358,新規,0,2023-10-17,2023-10-17,株式会社ｋａｗａｉｉ,,株式会社,熊本県,熊本市中央区,下通１丁目１２番２７号下通ビル５階,,43,101,8600807,,,,,,,2023-10-17,1,,,,,カワイイ,0
2506,9340003004286,新規,0,2023-10-17,2023-10-17,合同会社Ｆ１,,合同会社,鹿児島県,南九州市,川辺町田部田３６１２－３第一芝原Ａ,,46,223,8970221,,,,,,,2023-10-17,1,,,,,エフワン,0
2513,9360001032675,新規,0,2023-10-17,2023-10-17,株式会社ＱＵＥＳＴ．,,株式会社,沖縄県,国頭郡今帰仁村,字兼次８１７番地５,,47,306,9050427,,,,,,,2023-10-17,1,,,,,クエストドット,0
2514,9360001032683,新規,0,2023-10-17,2023-10-17,株式会社ホテルエアポートビューＮＡＨＡ,,株式会社,沖縄県,那覇市,具志３丁目３９番１号,,47,201,9010146,,,,,,,2023-10-17,1,,,,,ホテルエアポートビューナハ,0
2515,9360001032691,新規,0,2023-10-17,2023-10-17,株式会社ｋｎｃ,,株式会社,沖縄県,名護市,宮里１丁目２８番８号南西ビル２階,,47,209,9050011,,,,,,,2023-10-17,1,,,,,ケーエヌシー,0
2518,9370001050528,新規,0,2023-10-17,2023-10-17,株式会社ＶＡＬＵＭＡＮＺ,,株式会社,宮城県,仙台市青葉区,滝道４０番５号,,04,101,9810951,,,,,,,2023-10-17,1,,,,,バリューマンズ,0
2533,9400001016426,新規,0,2023-10-17,2023-10-17,株式会社ネクストサークル,,株式会社,岩手県,北上市,青柳町２丁目５番４０号,,03,206,0240031,,,,,,,2023-10-17,1,,,,,ネクストサークル,0
2534,9410005006546,新規,0,2023-10-17,2023-10-17,農事組合法人高花ファーム,,その他の設立登記法人,秋田県,大仙市,太田町三本扇字葛堀２２２番地１,00132283,05,212,0191602,,,,,,,2023-10-17,1,,,,,タカハナファーム,0
