sequenceNumber,corporateNumber,process,correct,updateDate,changeDate,name,nameImageId,kind,prefectureName,cityName,streetNumber,addressImageId,prefectureCode,cityCode,postCode,addressOutside,addressOutsideImageId,closeDate,closeCause,successorCorporateNumber,changeCause,assignmentDate,latest,enName,enPrefectureName,enCityName,enAddressOutside,furigana,hihyoji
9,1010001225775,新規,0,2022-04-19,2022-04-19,株式会社しあわせ,,株式会社,東京都,中央区,日本橋兜町１７番１号日本橋ロイヤルプラザ７階,,13,102,1030026,,,,,,,2022-04-19,1,,,,,シアワセ,0
10,1010001225783,新規,0,2022-04-19,2022-04-19,株式会社キャリプラ,,株式会社,東京都,中央区,東日本橋３丁目９番１２号,,13,102,1030004,,,,,,,2022-04-19,1,,,,,キャリプラ,0
11,1010001225924,新規,0,2022-04-19,2022-04-19,シートメタルコンサルティング株式会社,,株式会社,東京都,中央区,日本橋本町４丁目１番１３－７０１号,,13,102,1030023,,,,,,,2022-04-19,1,,,,,シートメタルコンサルティング,0
12,1010001226022,新規,0,2022-04-19,2022-04-19,日本皮膚美容研究院株式会社,,株式会社,東京都,中央区,東日本橋２丁目２８番５号５０８,,13,102,1030004,,,,,,,2022-04-19,1,,,,,ニホンヒフビヨウケンキュウイン,0
13,1010003037491,新規,0,2022-04-19,2022-04-19,合同会社フェイスサイン,,合同会社,東京都,中央区,銀座１丁目２２番１１号,,13,102,1040061,,,,,,,2022-04-19,1,,,,,フェイスサイン,0
24,1010401166883,新規,0,2022-04-19,2022-04-19,スマートガバナンス株式会社,,株式会社,東京都,港区,南青山２丁目２番１５号ウィン青山９４２,,13,103,1070062,,,,,,,2022-04-19,1,,,,,スマートガバナンス,0
25,1010401166925,新規,0,2022-04-19,2022-04-19,ＯＰＩ・１７株式会社,,株式会社,東京都,港区,浜松町２丁目４番１号,,13,103,1050013,,,,,,,2022-04-19,1,,,,,オーピーアイセブンティーン,0
26,1010401166966,新規,0,2022-04-19,2022-04-19,株式会社ＣｅｌＲｅｊｕ,,株式会社,東京都,港区,三田１丁目６番３－７０２号,,13,103,1080073,,,,,,,2022-04-19,1,,,,,セレジュ,0
31,1010601060952,新規,0,2022-04-19,2022-04-19,株式会社Ｋインターナショナル,,株式会社,東京都,江東区,豊洲３丁目６番５－８０８号,,13,108,1350061,,,,,,,2022-04-19,1,,,,,ケイインターナショナル,0
40,1011001146788,新規,0,2022-04-19,2022-04-19,Ｔｈｅｅ　Ｂｌｕｅ　Ｈｅｅｌｓ株式会社,,株式会社,東京都,目黒区,下目黒２丁目３番７号,,13,110,1530064,,,,,,,2022-04-19,1,,,,,ブルーヒールズ,0
41,1011001146978,新規,0,2022-04-19,2022-04-19,ヘルスケアビジョン株式会社,,株式会社,東京都,渋谷区,恵比寿西２丁目２０－８代官山パーフェクトルーム６１３号,,13,113,1500021,,,,,,,2022-04-19,1,,,,,ヘルスケアビジョン,0
46,1011101098590,新規,0,2022-04-19,2022-04-19,よき仲間たち株式会社,,株式会社,東京都,新宿区,住吉町２番１８号ウィン四谷１０９,,13,104,1620065,,,,,,,2022-04-19,1,,,,,ヨキナカマタチ,0
48,1011103011675,新規,0,2022-04-19,2022-04-19,合同会社ｌｉｇｈｔ　ｔｈｒｅｅ,,合同会社,東京都,新宿区,西新宿５丁目５－１ザ・パークハウス西新宿タワー６０、３１０３号室,,13,104,1600023,,,,,,,2022-04-19,1,,,,,ライトスリー,0
49,1011201023770,新規,0,2022-04-19,2022-04-19,株式会社Ｔ＆Ｔ,,株式会社,東京都,中野区,江古田４丁目２１番１３号,,13,114,1650022,,,,,,,2022-04-19,1,,,,,ティーアンドティー,0
55,1011503005137,新規,0,2022-04-19,2022-04-19,合同会社ＤＩＣＥ,,合同会社,東京都,荒川区,東尾久４丁目４番１０号,,13,118,1160012,,,,,,,2022-04-19,1,,,,,ダイス,0
57,1011605002445,新規,0,2022-04-19,2022-04-19,一般社団法人Ｊウエルネス振興会,,その他の設立登記法人,東京都,練馬区,小竹町２丁目８番８号,,13,120,1760004,,,,,,,2022-04-19,1,,,,,ジェイウエルネスシンコウカイ,0
81,1020003021651,新規,0,2022-04-19,2022-04-19,合同会社スリートップス,,合同会社,神奈川県,横浜市鶴見区,馬場４丁目１番３５号,,14,101,2300076,,,,,,,2022-04-19,1,,,,,スリートップス,0
86,1021001075755,新規,0,2022-04-19,2022-04-19,株式会社フルトン,,株式会社,神奈川県,横須賀市,光の丘８番３号ＹＲＰベンチャー棟３０３,,14,201,2390847,,,,,,,2022-04-19,1,,,,,フルトン,0
96,1030001147786,新規,0,2022-04-19,2022-04-19,株式会社ＴＫｃｏｎｎｅｃｔｉｏｎ,,株式会社,埼玉県,蓮田市,蓮田２丁目１２５番地,,11,238,3490115,,,,,,,2022-04-19,1,,,,,ティーケーコネクション,0
97,1030003019257,新規,0,2022-04-19,2022-04-19,合同会社ネクスタート,,合同会社,埼玉県,川口市,大字道合１３２番地の８,,11,203,3330835,,,,,,,2022-04-19,1,,,,,ネクスタート,0
105,1040001122912,新規,0,2022-04-19,2022-04-19,株式会社Ｂ‐ＣＯＮＮＥＣＴ,,株式会社,千葉県,八千代市,八千代台西８丁目１１－１,,12,221,2760034,,,,,,,2022-04-19,1,,,,,,0
107,1040005021565,新規,0,2022-04-19,2022-04-19,一般財団法人タムス岡本記念財団,,その他の設立登記法人,千葉県,浦安市,高洲７丁目２番３６号,,12,227,2790023,,,,,,,2022-04-19,1,,,,,タムスオカモトキネンザイダン,0
109,1060001034783,新規,0,2022-04-19,2022-04-19,株式会社京屋未来研究所,,株式会社,栃木県,宇都宮市,大網町９０５番地１,,09,201,3212111,,,,,,,2022-04-19,1,,,,,キョウヤミライケンキュウジョ,0
114,1080003002786,新規,0,2022-04-19,2022-04-19,ｅ‐Ｓｔａｇｅｃｏｕｃｈ合同会社,,合同会社,静岡県,静岡市葵区,岳美１丁目１５番２４－４０１号,,22,101,4200934,,,,,,,2022-04-19,1,,,,,イーステージコーチ,0
116,1080101023230,新規,0,2022-04-19,2022-04-19,株式会社ＨＵＧ　ＬＩＦＥ,,株式会社,静岡県,富士市,川成島５４９番地の１クレアＩＩ－２０２号,00126334,22,210,4160939,,,,,,,2022-04-19,1,,,,,ハグライフ,0
117,1080401025760,新規,0,2022-04-19,2022-04-19,株式会社福上自動車,,株式会社,静岡県,浜松市東区,貴平町５５１番地,,22,132,4313104,,,,,,,2022-04-19,1,,,,,フクガミジドウシャ,0
118,1080403004523,新規,0,2022-04-19,2022-04-19,ぷれいフル合同会社,,合同会社,静岡県,浜松市北区,引佐町横尾９０７－１２,,22,135,4312214,,,,,,,2022-04-19,1,,,,,プレイフル,0
139,1120001245218,新規,0,2022-04-19,2022-04-19,株式会社ＢＬＡＮＤＡＲＣ,,株式会社,大阪府,枚方市,池之宮２丁目１３番７号,,27,210,5730005,,,,,,,2022-04-19,1,,,,,ブランダーク,0
140,1120001245226,新規,0,2022-04-19,2022-04-19,株式会社Ｗｅｓｔ　Ｃｏａｓｔ,,株式会社,大阪府,大阪市西成区,玉出西２丁目１２番１１号,,27,122,5570045,,,,,,,2022-04-19,1,,,,,ウエストコースト,0
141,1120001245275,新規,0,2022-04-19,2022-04-19,株式会社ひびき,,株式会社,大阪府,大阪市城東区,蒲生２丁目１０番３３号２Ｆ,,27,118,5360016,,,,,,,2022-04-19,1,,,,,ヒビキ,0
142,1120001245291,新規,0,2022-04-19,2022-04-19,株式会社中出商会,,株式会社,大阪府,大阪市鶴見区,諸口１丁目１番４１号,,27,124,5380051,,,,,,,2022-04-19,1,,,,,ナカデショウカイ,0
143,1120001245300,新規,0,2022-04-19,2022-04-19,株式会社プログレス,,株式会社,大阪府,大阪市東淀川区,相川２丁目２２番１２－２０１号,,27,114,5330007,,,,,,,2022-04-19,1,,,,,プログレス,0
144,1120001245317,新規,0,2022-04-19,2022-04-19,株式会社オーロ不動産,,株式会社,大阪府,大阪市生野区,小路東２丁目１９番１２号,,27,116,5440003,,,,,,,2022-04-19,1,,,,,オーロフドウサン,0
145,1120001245333,新規,0,2022-04-19,2022-04-19,株式会社ＥＤＳ　ＪＡＰＡＮ,,株式会社,大阪府,大阪市中央区,安土町２丁目３番１３号大阪国際ビルディング２０階,,27,128,5410052,,,,,,,2022-04-19,1,,,,,イーディーエスジャパン,0
152,1120101065417,新規,0,2022-04-19,2022-04-19,株式会社ＹＴ２,,株式会社,大阪府,泉大津市,二田町３丁目４番４１－２号,,27,206,5950015,,,,,,,2022-04-19,1,,,,,ワイティツー,0
156,1120103004661,新規,0,2022-04-19,2022-04-19,合同会社アライブ,,合同会社,大阪府,富田林市,大字嬉７３０番地,,27,214,5840056,,,,,,,2022-04-19,1,,,,,アライブ,0
163,1140001125681,新規,0,2022-04-19,2022-04-19,株式会社ＳＵＮ　ＯＮＥ,,株式会社,兵庫県,神戸市垂水区,青山台５丁目３番２０号,,28,108,6550873,,,,,,,2022-04-19,1,,,,,サンワン,0
164,1140001125698,新規,0,2022-04-19,2022-04-19,株式会社エル・コーポレーション,,株式会社,兵庫県,神戸市中央区,磯上通８丁目１番２９号カサベラビルＣ＆Ｍ４０３号室,,28,110,6510086,,,,,,,2022-04-19,1,,,,,エルコーポレーション,0
169,1140003017588,新規,0,2022-04-19,2022-04-19,合同会社貴光工務店,,合同会社,兵庫県,伊丹市,昆陽南３丁目５番１２号,,28,207,6640888,,,,,,,2022-04-19,1,,,,,タカミツコウムテン,0
179,1180001150924,新規,0,2022-04-19,2022-04-19,ジー・エム・フード株式会社,,株式会社,愛知県,知多市,新舞子字南西田２９番地１,,23,224,4780036,,,,,,,2022-04-19,1,,,,,ジーエムフード,0
180,1180001151022,新規,0,2022-04-19,2022-04-19,株式会社ハグデン,,株式会社,愛知県,津島市,西柳原町２丁目３番地,,23,208,4960047,,,,,,,2022-04-19,1,,,,,ハグデン,0
183,1180003023715,新規,0,2022-04-19,2022-04-19,ＲＹｚＭ合同会社,,合同会社,愛知県,名古屋市中区,大須４丁目２番２１号グリーンハイツ南久屋４０１号,,23,106,4600011,,,,,,,2022-04-19,1,,,,,リズム,0
184,1180303005306,新規,0,2022-04-19,2022-04-19,バンベール豊田寿管理組合合同会社,,合同会社,愛知県,豊田市,寿町４丁目３６番地,,23,211,4710834,,,,,,,2022-04-19,1,,,,,バンベールトヨタコトブキカンリクミアイ,0
191,1200001039990,新規,0,2022-04-19,2022-04-19,株式会社ＫＥＮ・コーポレーション,,株式会社,岐阜県,土岐市,曽木町８６８番地,,21,212,5095402,,,,,,,2022-04-19,1,,,,,ケンコーポレーション,0
203,1260001036768,新規,0,2022-04-19,2022-04-19,清和建設株式会社,,株式会社,岡山県,美作市,栄町２０２番地３,,33,215,7070025,,,,,,,2022-04-19,1,,,,,セイワケンセツ,0
204,1270001008493,新規,0,2022-04-19,2022-04-19,ＮＫコンサルティング株式会社,,株式会社,鳥取県,米子市,花園町１１８番地３,,31,202,6830836,,,,,,,2022-04-19,1,,,,,エヌケイコンサルティング,0
205,1270005005512,新規,0,2022-04-19,2022-04-19,一般社団法人ひまわりライフサポート協会,,その他の設立登記法人,鳥取県,鳥取市,元町２４７番地,,31,201,6800037,,,,,,,2022-04-19,1,,,,,,0
210,1290001097246,新規,0,2022-04-19,2022-04-19,Ｇｉｎｇ株式会社,,株式会社,福岡県,福岡市博多区,東那珂１丁目１８－２７－５０８,,40,132,8120892,,,,,,,2022-04-19,1,,,,,ジーアイエヌジー,0
213,1290003012418,新規,0,2022-04-19,2022-04-19,Ｄ．Ｇ　Ｐｌａｎｎｉｎｇ合同会社,,合同会社,福岡県,福津市,日蒔野１丁目２番地の６－４０１号,,40,224,8113209,,,,,,,2022-04-19,1,,,,,ディージープランニング,0
214,1290003012426,新規,0,2022-04-19,2022-04-19,Ｔｈｒｅｅ１ｓｔ　ｐｌｕｓ合同会社,,合同会社,福岡県,福岡市博多区,博多駅前２丁目１９番１７号トーカン博多第５ビル３１２号室,,40,132,8120011,,,,,,,2022-04-19,1,,,,,スリーファーストプラス,0
215,1290005018652,新規,0,2022-04-19,2022-04-19,医療法人統,,その他の設立登記法人,福岡県,福岡市中央区,高砂２丁目８番１２号,,40,133,8100011,,,,,,,2022-04-19,1,,,,,スベル,0
229,1330003009335,新規,0,2022-04-19,2022-04-19,合同会社ＳＲ企画,,合同会社,熊本県,熊本市北区,鶴羽田５丁目８番３７号,,43,105,8615517,,,,,,,2022-04-19,1,,,,,エスアールキカク,0
233,1340001024665,新規,0,2022-04-19,2022-04-19,株式会社ＩＲＩＥ,,株式会社,鹿児島県,鹿児島市,紫原５丁目２９番２０号１Ｆ,,46,201,8900082,,,,,,,2022-04-19,1,,,,,イリエ,0
237,1360003011932,新規,0,2022-04-19,2022-04-19,合同会社４Ｐオート,,合同会社,沖縄県,国頭郡今帰仁村,字天底５０９番地,,47,306,9050411,,,,,,,2022-04-19,1,,,,,ヨッピーオート,0
239,1370003005660,新規,0,2022-04-19,2022-04-19,合同会社ケンホームズ,,合同会社,宮城県,仙台市泉区,住吉台東１丁目１番地の４,,04,105,9813222,,,,,,,2022-04-19,1,,,,,ケンホームズ,0
244,1400003002927,新規,0,2022-04-19,2022-04-19,合同会社倖羽,,合同会社,岩手県,二戸郡一戸町,小鳥谷字仁昌寺７６番地２０,,03,524,0285221,,,,,,,2022-04-19,1,,,,,コトハ,0
256,1430003013822,新規,0,2022-04-19,2022-04-19,合同会社サクシード,,合同会社,北海道,札幌市中央区,南八条西１２丁目１番３０号,,01,101,0640808,,,,,,,2022-04-19,1,,,,,サクシード,0
258,1460001005686,新規,0,2022-04-19,2022-04-19,株式会社ＣＬＯＳＥＲ,,株式会社,北海道,釧路市,桜ケ岡７丁目６番１２号,,01,206,0850805,,,,,,,2022-04-19,1,,,,,クローザー,0
269,1500001024161,新規,0,2022-04-19,2022-04-19,株式会社濱本建設,,株式会社,愛媛県,松山市,余戸中３丁目６番２９号セジュールまこと１０１号,,38,201,7900045,,,,,,,2022-04-19,1,,,,,ハマモトケンセツ,0
279,2010001225774,新規,0,2022-04-19,2022-04-19,セルプロファイン株式会社,,株式会社,東京都,中央区,八丁堀３丁目１８番１１号八丁堀サウスビル５階,,13,102,1040032,,,,,,,2022-04-19,1,,,,,セルプロファイン,0
280,2010001225907,新規,0,2022-04-19,2022-04-19,株式会社ＳＩＫ,,株式会社,東京都,千代田区,外神田６丁目５番９号,,13,101,1010021,,,,,,,2022-04-19,1,,,,,シック,0
281,2010003037433,新規,0,2022-04-19,2022-04-19,イグニッションジャパン合同会社,,合同会社,東京都,中央区,銀座１丁目２２－１１銀座大竹ビジデンス２階,,13,102,1040061,,,,,,,2022-04-19,1,,,,,イグニッションジャパン,0
282,2010003037458,新規,0,2022-04-19,2022-04-19,ＲＩＳＳＤ合同会社,,合同会社,東京都,千代田区,丸の内３丁目２－２丸の内二重橋ビル２階,,13,101,1000005,,,,,,,2022-04-19,1,,,,,リスド,0
283,2010003037490,新規,0,2022-04-19,2022-04-19,合同会社ダンスセントラル,,合同会社,東京都,文京区,後楽２丁目６番１－１４０３号,,13,105,1120004,,,,,,,2022-04-19,1,,,,,ダンスセントラル,0
284,2010003037508,新規,0,2022-04-19,2022-04-19,茨木松下２合同会社,,合同会社,東京都,千代田区,飯田橋４丁目７番１号結和税理士法人内,,13,101,1020072,,,,,,,2022-04-19,1,,,,,イバラキマツシタツー,0
287,2010005034882,新規,0,2022-04-19,2022-04-19,一般社団法人社外取締役女性ラボ,,その他の設立登記法人,東京都,中央区,銀座１丁目２２－１１,,13,102,1040061,,,,,,,2022-04-19,1,,,,,シャガイトリシマリヤクジョセイラボ,0
288,2010005034899,新規,0,2022-04-19,2022-04-19,一般財団法人資源活用ネットワークＣ＆Ｍ,,その他の設立登記法人,東京都,中央区,日本橋茅場町１丁目３番７号千代田ビル５階,,13,102,1030025,,,,,,,2022-04-19,1,,,,,シゲンカツヨウネットワークシーアンドエム,0
293,2010401166627,新規,0,2022-04-19,2022-04-19,ＭＡアルミニウム株式会社,,株式会社,東京都,港区,芝２丁目３番３号,,13,103,1050014,,,,,,,2022-04-19,1,,,,,エムエーアルミニウム,0
310,2011003014562,新規,0,2022-04-19,2022-04-19,合同会社ｍｏｎｇｅｎ,,合同会社,東京都,渋谷区,神宮前６丁目２３－４桑野ビル２Ｆ,,13,113,1500001,,,,,,,2022-04-19,1,,,,,モンゲン,0
319,2011401024155,新規,0,2022-04-19,2022-04-19,佑川株式会社,,株式会社,東京都,板橋区,成増１丁目１４－９成増グリーンハイツ４０１,,13,119,1750094,,,,,,,2022-04-19,1,,,,,ユウガワ,0
321,2011701025217,新規,0,2022-04-19,2022-04-19,株式会社Ｍ＆ＡＪａｐａｎ,,株式会社,東京都,江戸川区,松江７丁目２７－１６,,13,123,1320025,,,,,,,2022-04-19,1,,,,,エムアンドエージャパン,0
322,2011701025241,新規,0,2022-04-19,2022-04-19,株式会社シリウス,,株式会社,東京都,江戸川区,小松川３丁目８番１－７１２号,,13,123,1320034,,,,,,,2022-04-19,1,,,,,シリウス,0
323,2011703003113,新規,0,2022-04-19,2022-04-19,合同会社モデル・オン・デマンド,,合同会社,東京都,江戸川区,江戸川３丁目３２番６－２０２号,,13,123,1320013,,,,,,,2022-04-19,1,,,,,モデルオンデマンド,0
324,2011703003121,新規,0,2022-04-19,2022-04-19,カラーシステム合同会社,,合同会社,東京都,江戸川区,篠崎町７丁目８番１３号シノザキスクエアー３Ｆ,,13,123,1330061,,,,,,,2022-04-19,1,,,,,カラーシステム,0
330,2012403005325,新規,0,2022-04-19,2022-04-19,合同会社響都,,合同会社,東京都,三鷹市,新川４丁目８番４号ボワ・フルールＢ１０１,,13,204,1810004,,,,,,,2022-04-19,1,,,,,キョウト,0
334,2012803002756,新規,0,2022-04-19,2022-04-19,Ｋ．ｔｒａｄｅｒｓ合同会社,,合同会社,東京都,東大和市,桜が丘４丁目２９番地の９４,,13,220,2070022,,,,,,,2022-04-19,1,,,,,ケイトレーダーズ,0
351,2020001146160,新規,0,2022-04-19,2022-04-19,株式会社航空システムリサーチ,,株式会社,神奈川県,横浜市都筑区,東山田３丁目２３番２－１１０２号,,14,118,2240023,,,,,,,2022-04-19,1,,,,,コウクウシステムリサーチ,0
358,2021003011617,新規,0,2022-04-19,2022-04-19,中川記帳代行合同会社,,合同会社,神奈川県,藤沢市,長後１２２５番地の１レーベンスクエア藤沢プレイジアム４２０,,14,205,2520801,,,,,,,2022-04-19,1,,,,,ナカガワキチョウダイコウ,0
359,2021003011625,新規,0,2022-04-19,2022-04-19,合同会社ＬＩＮＯ,,合同会社,神奈川県,藤沢市,弥勒寺５０３番地の４タウンハウスＢ～２,,14,205,2510016,,,,,,,2022-04-19,1,,,,,リノ,0
361,2030001147785,新規,0,2022-04-19,2022-04-19,グローバルスター株式会社,,株式会社,埼玉県,草加市,瀬崎７丁目２９番１号,,11,221,3400022,,,,,,,2022-04-19,1,,,,,グローバルスター,0
366,2030005020831,新規,0,2022-04-19,2022-04-19,医療法人ＴＨＲＥＥ,,その他の設立登記法人,埼玉県,さいたま市北区,東大成町１丁目５８４番地アイマウスビル１階,,11,102,3310814,,,,,,,2022-04-19,1,,,,,スリー,0
371,2040001123059,新規,0,2022-04-19,2022-04-19,株式会社リブラ,,株式会社,千葉県,市川市,行徳駅前１丁目１７番９号ステップワンビル１階１－Ｂ号室,,12,203,2720133,,,,,,,2022-04-19,1,,,,,リブラ,0
372,2040001123075,新規,0,2022-04-19,2022-04-19,株式会社トウズ・ファイブ,,株式会社,千葉県,佐倉市,宮前３丁目６番１１号,,12,212,2850005,,,,,,,2022-04-19,1,,,,,トウズファイブ,0
373,2040001123083,新規,0,2022-04-19,2022-04-19,ＦＡＳＴロジスティクス株式会社,,株式会社,千葉県,千葉市中央区,中央３丁目１６番１号－４０１号,,12,101,2600013,,,,,,,2022-04-19,1,,,,,ファストロジスティクス,0
374,2040001123091,新規,0,2022-04-19,2022-04-19,Ａ＆Ｓソリューションズ株式会社,,株式会社,千葉県,千葉市中央区,春日２丁目１９番１１号,,12,101,2600033,,,,,,,2022-04-19,1,,,,,エーアンドエスソリューションズ,0
379,2040003019899,新規,0,2022-04-19,2022-04-19,合同会社継和企画,,合同会社,千葉県,船橋市,芝山４丁目１４番１３号,,12,204,2740816,,,,,,,2022-04-19,1,,,,,ケイワキカク,0
381,2050001050970,新規,0,2022-04-19,2022-04-19,株式会社Ｃｏｅｌａｃａｎｔｈ,,株式会社,茨城県,東茨城郡大洗町,磯浜町１０６０番地,,08,309,3111301,,,,,,,2022-04-19,1,,,,,シーラカンス,0
383,2050005013065,新規,0,2022-04-19,2022-04-19,特定非営利活動法人Ａｎｇｅｌ’ｓ　Ｌａｄｄｅｒ,,その他の設立登記法人,茨城県,東茨城郡茨城町,大字奥谷１９２４番地２,,08,302,3113156,,,,,,,2022-04-19,1,,,,,エンジェルラダー,0
384,2060001034766,新規,0,2022-04-19,2022-04-19,株式会社ＡＬＩＶＥ．,,株式会社,栃木県,宇都宮市,東宿郷２丁目１６番１号１０１号室,,09,201,3210953,,,,,,,2022-04-19,1,,,,,アライブ,0
394,2100001035264,新規,0,2022-04-19,2022-04-19,株式会社セリタ食品,,株式会社,長野県,長野市,大字栗田５５番地,,20,201,3800921,,,,,,,2022-04-19,1,,,,,セリタショクヒン,0
420,2120001245308,新規,0,2022-04-19,2022-04-19,株式会社スイフト,,株式会社,大阪府,大阪市北区,太融寺町１番９号,,27,127,5300051,,,,,,,2022-04-19,1,,,,,スイフト,0
421,2120001245324,新規,0,2022-04-19,2022-04-19,株式会社ラインメディカル,,株式会社,大阪府,寝屋川市,香里西之町１４番４号（２０３号）,,27,215,5720089,,,,,,,2022-04-19,1,,,,,ラインメディカル,0
426,2120003021509,新規,0,2022-04-19,2022-04-19,合同会社松下アセットインベストメント,,合同会社,大阪府,大阪市中央区,南船場４丁目１０番５－７０２号,,27,128,5420081,,,,,,,2022-04-19,1,,,,,マツシタアセットインベストメント,0
427,2120003021517,新規,0,2022-04-19,2022-04-19,ＯＴマネジメント合同会社,,合同会社,大阪府,大阪市北区,芝田２丁目８番１１号共栄ビル３階,,27,127,5300012,,,,,,,2022-04-19,1,,,,,オーティーマネジメント,0
428,2120003021525,新規,0,2022-04-19,2022-04-19,合同会社ＮＦ,,合同会社,大阪府,大阪市北区,西天満５丁目１６番１５号エフワンビル４階,,27,127,5300047,,,,,,,2022-04-19,1,,,,,エヌエフ,0
442,2130001071595,新規,0,2022-04-19,2022-04-19,株式会社東海工業所,,株式会社,京都府,京都市上京区,烏丸通鞍馬口下る東入上御霊中町４５２番地３,,26,102,6020894,,,,,,,2022-04-19,1,,,,,トウカイコウギョウショ,0
450,2140001125706,新規,0,2022-04-19,2022-04-19,株式会社基裕,,株式会社,兵庫県,神戸市東灘区,西岡本１丁目５番８－１号,,28,101,6580073,,,,,,,2022-04-19,1,,,,,キユウ,0
467,2180301036120,新規,0,2022-04-19,2022-04-19,株式会社ライフステーション,,株式会社,愛知県,みよし市,三好丘緑２丁目５番地２３,,23,236,4700205,,,,,,,2022-04-19,1,,,,,ライフステーション,0
468,2180301036129,新規,0,2022-04-19,2022-04-19,ＨＯＵＨＯＵ技研株式会社,,株式会社,愛知県,豊田市,昭和町１丁目６－１０,,23,211,4710078,,,,,,,2022-04-19,1,,,,,,0
475,2190001029340,新規,0,2022-04-19,2022-04-19,株式会社バンビ,,株式会社,三重県,四日市市,釆女町１８３７番地７,,24,202,5100954,,,,,,,2022-04-19,1,,,,,バンビ,0
481,2220005008659,新規,0,2022-04-19,2022-04-19,医療法人社団藤田内科リウマチ膠原病クリニック,,その他の設立登記法人,石川県,金沢市,直江西１丁目９９番地,,17,201,9208215,,,,,,,2022-04-19,1,,,,,フジタナイカリウマチコウゲンビョウクリニック,0
491,2240001059646,新規,0,2022-04-19,2022-04-19,株式会社セライ,,株式会社,広島県,広島市西区,古江上２丁目５０２－７－１００９,,34,104,7330875,,,,,,,2022-04-19,1,,,,,セライ,0
499,2290001097278,新規,0,2022-04-19,2022-04-19,株式会社ｂｅａｕｔｉｆｕｌ　ｇｌｉｄｅｒｓ,,株式会社,福岡県,八女市,高塚６１４番地４,,40,210,8340034,,,,,,,2022-04-19,1,,,,,ビューティフルグライダーズ,0
502,2290003012409,新規,0,2022-04-19,2022-04-19,にほんいちゆるいキックボクシング合同会社,,合同会社,福岡県,古賀市,天神５丁目１１－１,,40,223,8113101,,,,,,,2022-04-19,1,,,,,ニホンイチユルイキックボクシング,0
503,2290003012425,新規,0,2022-04-19,2022-04-19,グリンリンクス合同会社,,合同会社,福岡県,久留米市,国分町３２８番地１,,40,203,8390863,,,,,,,2022-04-19,1,,,,,グリンリンクス,0
504,2290003012433,新規,0,2022-04-19,2022-04-19,ＯＹＡＳＡＩ合同会社,,合同会社,福岡県,久留米市,北野町大城７９６番地５,,40,203,8301104,,,,,,,2022-04-19,1,,,,,オヤサイ,0
505,2290005018635,新規,0,2022-04-19,2022-04-19,ファイン事業協同組合,,その他の設立登記法人,福岡県,飯塚市,新飯塚６番地４セブンビル４階,,40,205,8200005,,,,,,,2022-04-19,1,,,,,ファイン,0
507,2300001012895,新規,0,2022-04-19,2022-04-19,株式会社ベルナフーズ,,株式会社,佐賀県,唐津市,栄町２５６９番地９－３Ｆ,,41,202,8470011,,,,,,,2022-04-19,1,,,,,ベルナフーズ,0
509,2320003003783,新規,0,2022-04-19,2022-04-19,合同会社Ｅ・Ｇリンク,,合同会社,大分県,宇佐市,安心院町森５４７番地,,44,211,8720516,,,,,,,2022-04-19,1,,,,,イージーリンク,0
510,2330005010505,新規,0,2022-04-19,2022-04-19,行政書士法人森本法務事務所,,その他の設立登記法人,熊本県,熊本市中央区,帯山３丁目４２番５号,,43,101,8620924,,,,,,,2022-04-19,1,,,,,モリモトホウムジムショ,0
515,2350001017709,新規,0,2022-04-19,2022-04-19,株式会社Ｄ‐ｅｎｔｒａｎｃｅ,,株式会社,宮崎県,宮崎市,田野町甲６６５７番地３,,45,201,8891701,,,,,,,2022-04-19,1,,,,,ディーエントランス,0
520,2360001030256,新規,0,2022-04-19,2022-04-19,ＷＡＣＣＡ株式会社,,株式会社,沖縄県,国頭郡今帰仁村,字玉城西アザナ原８７４番地２,,47,306,9050415,,,,,,,2022-04-19,1,,,,,,0
523,2360003011931,新規,0,2022-04-19,2022-04-19,合同会社４Ｐレンタカー,,合同会社,沖縄県,国頭郡今帰仁村,字天底５０９番地,,47,306,9050411,,,,,,,2022-04-19,1,,,,,ヨッピーレンタカー,0
532,2420003002503,新規,0,2022-04-19,2022-04-19,合同会社ＡＤＶＡＮＣＥ,,合同会社,青森県,三戸郡階上町,大字鳥屋部字大鶴音１３－５９,,02,446,0391203,,,,,,,2022-04-19,1,,,,,アドバンス,0
535,2430001086456,新規,0,2022-04-19,2022-04-19,株式会社ティーベストホーム,,株式会社,北海道,札幌市北区,新琴似八条１６丁目６番９号,,01,102,0010908,,,,,,,2022-04-19,1,,,,,ティーベストホーム,0
536,2430001086506,新規,0,2022-04-19,2022-04-19,株式会社鮨草平,,株式会社,北海道,札幌市中央区,南二条西２８丁目１番１０号,,01,101,0640802,,,,,,,2022-04-19,1,,,,,スシソウヘイ,0
547,2700150107860,新規,0,2022-04-19,2022-04-12,万博設計,,その他,大阪府,大阪市城東区,今福西２丁目１５－１６－４Ｂ,,27,118,5360004,,,,,,,2022-04-12,1,,,,,バンパクセツケイ,0
552,3010001225807,新規,0,2022-04-19,2022-04-19,株式会社Ｈプラス,,株式会社,東京都,中央区,銀座１丁目１２－４Ｎ＆ＥＢＬＤ．７階,,13,102,1040061,,,,,,,2022-04-19,1,,,,,エイチプラス,0
553,3010001225823,新規,0,2022-04-19,2022-04-19,株式会社テリロジーホールディングス,,株式会社,東京都,千代田区,九段北１丁目１３番５号,,13,101,1020073,,,,,,,2022-04-19,1,,,,,テリロジーホールディングス,0
554,3010001225880,新規,0,2022-04-19,2022-04-19,株式会社ドクター総合支援センター,,株式会社,東京都,千代田区,飯田橋２丁目９番６号,,13,101,1020072,,,,,,,2022-04-19,1,,,,,ドクターソウゴウシエンセンター,0
555,3010001225955,新規,0,2022-04-19,2022-04-19,バリューアッド・パートナーズ株式会社,,株式会社,東京都,千代田区,富士見１丁目３番１１号４階,,13,101,1020071,,,,,,,2022-04-19,1,,,,,バリューアッドパートナーズ,0
556,3010001225988,新規,0,2022-04-19,2022-04-19,株式会社ＥＳＴ,,株式会社,東京都,文京区,本郷１丁目３３番１２－２０２号室,,13,105,1130033,,,,,,,2022-04-19,1,,,,,イーエスティー,0
557,3010001226004,新規,0,2022-04-19,2022-04-19,株式会社ＰＲＯＳＰＥＲ,,株式会社,東京都,千代田区,丸の内２丁目１番１号,,13,101,1000005,,,,,,,2022-04-19,1,,,,,プロスパー,0
558,3010001226020,新規,0,2022-04-19,2022-04-19,株式会社エナジーアップ,,株式会社,東京都,千代田区,外神田１丁目８番５号,,13,101,1010021,,,,,,,2022-04-19,1,,,,,エナジーアップ,0
567,3010401166717,新規,0,2022-04-19,2022-04-19,株式会社プロモリア,,株式会社,東京都,港区,浜松町２丁目２番１５号浜松町ダイヤビル２Ｆ,,13,103,1050013,,,,,,,2022-04-19,1,,,,,プロモリア,0
568,3010401166824,新規,0,2022-04-19,2022-04-19,ＶＲＷ　Ｊａｐａｎ株式会社,,株式会社,東京都,港区,赤坂２丁目８番１４－５０４号,,13,103,1070052,,,,,,,2022-04-19,1,,,,,ヴィアールダブリュージャパン,0
575,3010601061040,新規,0,2022-04-19,2022-04-19,株式会社アリゴテ,,株式会社,東京都,墨田区,江東橋４丁目２４番３号Ｃｒｏｂｉｓ錦糸町７階,,13,107,1300022,,,,,,,2022-04-19,1,,,,,アリゴテ,0
583,3010903007311,新規,0,2022-04-19,2022-04-19,合同会社Ｏ．,,合同会社,東京都,世田谷区,弦巻５丁目１２番１６号,,13,112,1540016,,,,,,,2022-04-19,1,,,,,オードット,0
589,3011001147025,新規,0,2022-04-19,2022-04-19,株式会社ｒａｗ,,株式会社,東京都,目黒区,三田２丁目１４番１０－３０９号,,13,110,1530062,,,,,,,2022-04-19,1,,,,,ロウ,0
593,3011003014561,新規,0,2022-04-19,2022-04-19,合同会社ヴェルク兄弟社,,合同会社,東京都,渋谷区,神宮前２丁目３１番７号,,13,113,1500001,,,,,,,2022-04-19,1,,,,,ヴェルクキョウダイシャ,0
599,3011301027728,新規,0,2022-04-19,2022-04-19,株式会社まじろ,,株式会社,東京都,杉並区,和泉２丁目４５番１３号,,13,115,1680063,,,,,,,2022-04-19,1,,,,,マジロ,0
600,3011303004386,新規,0,2022-04-19,2022-04-19,合同会社ＶｅｒｂａＬ１７,,合同会社,東京都,杉並区,高井戸西２丁目１０番９－５０４号,,13,115,1680071,,,,,,,2022-04-19,1,,,,,バーバルイチナナ,0
608,3011701025240,新規,0,2022-04-19,2022-04-19,株式会社マニフーズ,,株式会社,東京都,江戸川区,平井２丁目２１番１３号,,13,123,1320035,,,,,,,2022-04-19,1,,,,,マニフーズ,0
609,3011703003120,新規,0,2022-04-19,2022-04-19,合同会社Ｐｒｏｌｏｇｏ,,合同会社,東京都,江戸川区,平井６丁目７０番１８号,,13,123,1320035,,,,,,,2022-04-19,1,,,,,プロローゴ,0
614,3012401039092,新規,0,2022-04-19,2022-04-19,株式会社ａｌｏ,,株式会社,東京都,武蔵野市,吉祥寺本町４丁目１７－１４ハイムサトー２０１,,13,203,1800004,,,,,,,2022-04-19,1,,,,,アロ,0
627,3020003021633,新規,0,2022-04-19,2022-04-19,鶴亀商会合同会社,,合同会社,神奈川県,横浜市旭区,上川井町２５８－２Ｍグリーンパレスナカノ５０３,,14,112,2410802,,,,,,,2022-04-19,1,,,,,ツルカメショウカイ,0
630,3021001075761,新規,0,2022-04-19,2022-04-19,七美建装株式会社,,株式会社,神奈川県,大和市,林間１丁目１３番１０号,,14,213,2420003,,,,,,,2022-04-19,1,,,,,シチビケンソウ,0
633,3021003011624,新規,0,2022-04-19,2022-04-19,合同会社ＡＯ,,合同会社,神奈川県,三浦郡葉山町,長柄５８０番地の１,,14,301,2400113,,,,,,,2022-04-19,1,,,,,エーオー,0
655,3040001123108,新規,0,2022-04-19,2022-04-19,ＭＫアドバンス株式会社,,株式会社,千葉県,柏市,末広町７番１５号新海ビル２階,,12,217,2770842,,,,,,,2022-04-19,1,,,,,エムケイアドバンス,0
660,3040003019907,新規,0,2022-04-19,2022-04-19,合同会社美よし,,合同会社,千葉県,浦安市,富士見３丁目５番３４号,,12,227,2790043,,,,,,,2022-04-19,1,,,,,ミヨシ,0
662,3050001050961,新規,0,2022-04-19,2022-04-19,株式会社ＡＲＡＴＡ,,株式会社,茨城県,東茨城郡城里町,大字那珂西１８６９番地の２,,08,310,3114302,,,,,,,2022-04-19,1,,,,,アラタ,0
666,3050003006508,新規,0,2022-04-19,2022-04-19,こおじ屋合同会社,,合同会社,茨城県,桜川市,門毛３番地,,08,231,3091341,,,,,,,2022-04-19,1,,,,,コオジヤ,0
668,3060001034781,新規,0,2022-04-19,2022-04-19,株式会社ＰＧＥイノベーション,,株式会社,栃木県,宇都宮市,住吉町１８番１３号シーズンコート住吉３０２,,09,201,3200864,,,,,,,2022-04-19,1,,,,,,0
671,3070001039160,新規,0,2022-04-19,2022-04-19,株式会社和紬,,株式会社,群馬県,高崎市,栄町３番１１号高崎バナーズビル４階,,10,202,3700841,,,,,,,2022-04-19,1,,,,,ワムギ,0
673,3080101023229,新規,0,2022-04-19,2022-04-19,株式会社サン・セリテ,,株式会社,静岡県,伊東市,岡広町１番１４号２階,,22,208,4140016,,,,,,,2022-04-19,1,,,,,サンセリテ,0
676,3090001017536,新規,0,2022-04-19,2022-04-19,株式会社そうる,,株式会社,山梨県,甲州市,勝沼町菱山２１７１番地,,19,213,4091302,,,,,,,2022-04-19,1,,,,,ソウル,0
678,3100001035263,新規,0,2022-04-19,2022-04-19,北ながの不動産株式会社,,株式会社,長野県,長野市,中越２丁目１１番１７号,,20,201,3810044,,,,,,,2022-04-19,1,,,,,キタナガノフドウサン,0
683,3110005016795,新規,0,2022-04-19,2022-04-19,医療法人社団ＩＤＣ,,その他の設立登記法人,新潟県,新潟市西区,坂井砂山２丁目１５番１７号,,15,107,9502044,,,,,,,2022-04-19,1,,,,,アイディーシー,0
687,3120001245281,新規,0,2022-04-19,2022-04-19,ナニワ経営株式会社,,株式会社,大阪府,大阪市中央区,天満橋京町２番６号天満橋八千代ビル別館名和会計事務所内,,27,128,5400032,,,,,,,2022-04-19,1,,,,,ナニワケイエイ,0
688,3120001245356,新規,0,2022-04-19,2022-04-19,ライジング株式会社,,株式会社,大阪府,寝屋川市,香里新町２８番３０－９０５号,,27,215,5720085,,,,,,,2022-04-19,1,,,,,ライジング,0
698,3120101065415,新規,0,2022-04-19,2022-04-19,株式会社ＰＲＯＧＲＥＳＳ,,株式会社,大阪府,岸和田市,土生町１２丁目２番２８号ファーストハイム土生１０３号,,27,202,5960825,,,,,,,2022-04-19,1,,,,,プログレス,0
718,3140001125705,新規,0,2022-04-19,2022-04-19,株式会社ｒｅｗｒｉｔｅ,,株式会社,兵庫県,西宮市,川東町１０番２０－１４０７号,,28,204,6620945,,,,,,,2022-04-19,1,,,,,リライト,0
722,3160001024129,新規,0,2022-04-19,2022-04-19,株式会社ほしぞら,,株式会社,滋賀県,草津市,草津町１５０２番地８４,,25,206,5250036,,,,,,,2022-04-19,1,,,,,ホシゾラ,0
725,3170003001711,新規,0,2022-04-19,2022-04-19,スリーエフ合同会社,,合同会社,和歌山県,橋本市,高野口町大野８７０番地２,,30,203,6497207,,,,,,,2022-04-19,1,,,,,スリーエフ,0
733,3180001150922,新規,0,2022-04-19,2022-04-19,株式会社ＮＡＶＹ,,株式会社,愛知県,名古屋市名東区,亀の井２丁目２５５番地,,23,115,4650094,,,,,,,2022-04-19,1,,,,,ネイビー,0
739,3180003023738,新規,0,2022-04-19,2022-04-19,合同会社サークル・Ｓ・ビジョン,,合同会社,愛知県,一宮市,今伊勢町本神戸字上町１０３５番地２,,23,203,4910053,,,,,,,2022-04-19,1,,,,,サークルエスビジョン,0
741,3180005019750,新規,0,2022-04-19,2022-04-19,一般社団法人ヘルスウィーブ,,その他の設立登記法人,愛知県,名古屋市中区,栄５丁目２６番３９号ＧＳ栄ビル３Ｆ,,23,106,4600008,,,,,,,2022-04-19,1,,,,,ヘルスウィーブ,0
750,3200001039980,新規,0,2022-04-19,2022-04-19,中村電工株式会社,,株式会社,岐阜県,多治見市,大薮町１６４５番地の３,,21,204,5070068,,,,,,,2022-04-19,1,,,,,ナカムラデンコウ,0
753,3220005008658,新規,0,2022-04-19,2022-04-19,医療法人社団祐真会,,その他の設立登記法人,石川県,金沢市,黒田１丁目１８８番地,,17,201,9218051,,,,,,,2022-04-19,1,,,,,ユウシンカイ,0
759,3240001059637,新規,0,2022-04-19,2022-04-19,王泊株式会社,,株式会社,広島県,江田島市,大柿町大君６９７番地３６,,34,215,7372212,,,,,,,2022-04-19,1,,,,,オウドマリ,0
766,3270001008500,新規,0,2022-04-19,2022-04-19,株式会社グランツリー,,株式会社,鳥取県,米子市,皆生温泉３丁目１４番１０号芙蓉別館内,,31,202,6830001,,,,,,,2022-04-19,1,,,,,グランツリー,0
768,3280001008680,新規,0,2022-04-19,2022-04-19,株式会社ｉ．ｙ,,株式会社,島根県,出雲市,上塩冶町２６６６番地３パストラル上塩冶２０３号,,32,203,6930022,,,,,,,2022-04-19,1,,,,,アイドットワイ,0
777,3290001097269,新規,0,2022-04-19,2022-04-19,株式会社檜の森,,株式会社,福岡県,福岡市博多区,博多駅前２丁目１０番１２号,,40,132,8120011,,,,,,,2022-04-19,1,,,,,ヒノキノモリ,0
786,3300001012894,新規,0,2022-04-19,2022-04-19,せんちゃんスポネット株式会社,,株式会社,佐賀県,伊万里市,大坪町字石原川内甲１４２１番地１,,41,205,8480000,,,,,,,2022-04-19,1,,,,,センチャンスポネット,0
792,3320001019013,新規,0,2022-04-19,2022-04-19,株式会社ｇｒａｔｚ,,株式会社,大分県,竹田市,大字玉来１１９７番地６,,44,208,8780024,,,,,,,2022-04-19,1,,,,,グラッツ,0
805,3370003005659,新規,0,2022-04-19,2022-04-19,合同会社文七,,合同会社,宮城県,仙台市青葉区,荒巻本沢２丁目１１番１１号,,04,101,9810966,,,,,,,2022-04-19,1,,,,,ブンシチ,0
815,3430001086397,新規,0,2022-04-19,2022-04-19,株式会社ＫＳ　Ｄｒｏｎｅ,,株式会社,北海道,札幌市厚別区,厚別北三条４丁目８番３号,,01,108,0040073,,,,,,,2022-04-19,1,,,,,ケーエスドローン,0
816,3430001086447,新規,0,2022-04-19,2022-04-19,株式会社エントロースＧｒ,,株式会社,北海道,札幌市北区,新川西二条６丁目５番６号,,01,102,0010932,,,,,,,2022-04-19,1,,,,,エントロースジーアール,0
819,3460001005684,新規,0,2022-04-19,2022-04-19,株式会社マルヒデ産業,,株式会社,北海道,釧路郡釧路町,新開５丁目９番地,,01,661,0880624,,,,,,,2022-04-19,1,,,,,マルヒデサンギョウ,0
820,3460101007184,新規,0,2022-04-19,2022-04-19,タケホールディングス株式会社,,株式会社,北海道,帯広市,西五条南２９丁目５番地,,01,207,0800015,,,,,,,2022-04-19,1,,,,,タケホールディングス,0
827,3490005006841,新規,0,2022-04-19,2022-04-19,一般社団法人であいの里蜷川,,その他の設立登記法人,高知県,幡多郡黒潮町,蜷川６６０番地１,,39,428,7891902,,,,,,,2022-04-19,1,,,,,デアイノサトミナガワ,0
830,3500001024119,新規,0,2022-04-19,2022-04-19,株式会社ユニコープ総合リビング,,株式会社,愛媛県,松山市,道後樋又３番２４号,,38,201,7900825,,,,,,,2022-04-19,1,,,,,ユニコープソウゴウリビング,0
831,3500001024151,新規,0,2022-04-19,2022-04-19,株式会社ナカムラ工業,,株式会社,愛媛県,新居浜市,岸の上町１丁目６番１４号,,38,205,7920815,,,,,,,2022-04-19,1,,,,,ナカムラコウギョウ,0
832,3500001024168,新規,0,2022-04-19,2022-04-19,株式会社ＦＲＥＥＤＯＭ,,株式会社,愛媛県,伊予郡松前町,大字神崎７９４番地５,,38,401,7913161,,,,,,,2022-04-19,1,,,,,フリーダム,0
835,3700150031713,新規,0,2022-04-19,2015-10-09,田根地区・地域づくり協議会,,その他,滋賀県,長浜市,高畑町３１６－１,,25,203,5260273,,,,,,,2015-10-09,1,,,,,タネチクチイキヅクリキヨウギカイ,0
839,3700150107926,新規,0,2022-04-19,2022-04-13,Ｍｕｓｉｃ　Ｌａｂ　Ｈｅｒｂｓｔ,,その他,岐阜県,岐阜市,山県北野１３５１番地２,,21,201,5012502,,,,,,,2022-04-13,1,,,,,ミユージツクラボハーブスト,0
850,4010001225871,新規,0,2022-04-19,2022-04-19,株式会社バイテック,,株式会社,東京都,中央区,月島１丁目２２番１－１９０８号,,13,102,1040052,,,,,,,2022-04-19,1,,,,,バイテック,0
851,4010001225954,新規,0,2022-04-19,2022-04-19,株式会社田,,株式会社,東京都,中央区,築地１丁目９番１３－１００１号,,13,102,1040045,,,,,,,2022-04-19,1,,,,,デン,0
852,4010001225979,新規,0,2022-04-19,2022-04-19,株式会社高家,00126324,株式会社,東京都,千代田区,二番町５番地２,,13,101,1020084,,,,,,,2022-04-19,1,,,,,タカヤ,0
854,4010005034914,新規,0,2022-04-19,2022-04-19,行政書士法人ＪＡＰＡＮ　ＶＩＳＡ　ＳＴＡＴＵＳ,,その他の設立登記法人,東京都,千代田区,内神田１丁目６番７号,,13,101,1010047,,,,,,,2022-04-19,1,,,,,ジャパンビザステータス,0
856,4010101015149,新規,0,2022-04-19,2022-04-19,株式会社みさ,,株式会社,東京都,八王子市,城山手１丁目９番１５号,,13,201,1930825,,,,,,,2022-04-19,1,,,,,ミサ,0
857,4010103001898,新規,0,2022-04-19,2022-04-19,合同会社１１０８工舎,,合同会社,東京都,八王子市,丹木町１丁目６５番地５,,13,201,1920003,,,,,,,2022-04-19,1,,,,,イトウヤコウシャ,0
866,4010401166856,新規,0,2022-04-19,2022-04-19,株式会社リアライズアート,,株式会社,東京都,港区,六本木６丁目１０番１号六本木ヒルズ森タワー３４階,,13,103,1060032,,,,,,,2022-04-19,1,,,,,リアライズアート,0
868,4010501048715,新規,0,2022-04-19,2022-04-19,株式会社Ｃｌａｓｓ,,株式会社,東京都,台東区,柳橋２丁目１４番２号アリス・マナーガーデン１００３号室,,13,106,1110052,,,,,,,2022-04-19,1,,,,,クラス,0
869,4010501048723,新規,0,2022-04-19,2022-04-19,Ｓ’ｓ株式会社,,株式会社,東京都,台東区,上野６丁目２番１０号竹内ビル６０１,,13,106,1100005,,,,,,,2022-04-19,1,,,,,エスエス,0
871,4010601061015,新規,0,2022-04-19,2022-04-19,株式会社Ｌａｓｈｕｌ,,株式会社,東京都,江東区,有明３丁目７番２６号,,13,108,1350063,,,,,,,2022-04-19,1,,,,,ラシュル,0
872,4010603009499,新規,0,2022-04-19,2022-04-19,合同会社ＴｈＡＮＭ,,合同会社,東京都,墨田区,江東橋４丁目１３－１４プラザＧ５ビル５ａ,,13,107,1300022,,,,,,,2022-04-19,1,,,,,ザン,0
876,4010701042526,新規,0,2022-04-19,2022-04-19,株式会社岡田商事,,株式会社,東京都,品川区,南大井３丁目３３番３号,,13,109,1400013,,,,,,,2022-04-19,1,,,,,オカダショウジ,0
881,4010901050733,新規,0,2022-04-19,2022-04-19,株式会社令和コンサル,,株式会社,東京都,世田谷区,豪徳寺１丁目４１－８－３０１,,13,112,1540021,,,,,,,2022-04-19,1,,,,,レイワコンサル,0
888,4011001146975,新規,0,2022-04-19,2022-04-19,株式会社ＦＩＫＡ,,株式会社,東京都,目黒区,自由が丘２丁目１６－１２ＬＣ１Ｆ,,13,110,1520035,,,,,,,2022-04-19,1,,,,,フィーカ,0
889,4011001147040,新規,0,2022-04-19,2022-04-19,株式会社ｐｈｙｓｉｃａＲ　ｋｉｎｇｄｏｍ,,株式会社,東京都,渋谷区,西原３丁目７番５号ミタニビル２Ａ,,13,113,1510066,,,,,,,2022-04-19,1,,,,,フィジカルキングダム,0
892,4011003014569,新規,0,2022-04-19,2022-04-19,合同会社ＭＫ　ｓｔｙｌｅ,,合同会社,東京都,目黒区,上目黒１丁目２６番１号中目黒アトラスタワー,,13,110,1530051,,,,,,,2022-04-19,1,,,,,エムケイスタイル,0
906,4011503005142,新規,0,2022-04-19,2022-04-19,合同会社ミーデン,,合同会社,東京都,北区,浮間１丁目５番３１－２０３号高島ハイツ,,13,117,1150051,,,,,,,2022-04-19,1,,,,,ミーデン,0
908,4011601025901,新規,0,2022-04-19,2022-04-19,株式会社ＨＥＯ,,株式会社,東京都,練馬区,石神井町５丁目２番２０－１０７号,,13,120,1770041,,,,,,,2022-04-19,1,,,,,エイチイーオー,0
911,4011701025248,新規,0,2022-04-19,2022-04-19,こいで石綿対策株式会社,,株式会社,東京都,江戸川区,北小岩６丁目２６番１３号,,13,123,1330051,,,,,,,2022-04-19,1,,,,,コイデイシワタタイサク,0
916,4012303001661,新規,0,2022-04-19,2022-04-19,エヌスラッシュエイ合同会社,,合同会社,東京都,町田市,高ヶ坂７丁目１番１７号,,13,209,1940014,,,,,,,2022-04-19,1,,,,,エヌスラッシュエイ,0
924,4013303006114,新規,0,2022-04-19,2022-04-19,アジアネットワーク合同会社,,合同会社,東京都,豊島区,北大塚２丁目１６番９号ライオンズマンション大塚５０４号,,13,116,1700004,,,,,,,2022-04-19,1,,,,,アジアネットワーク,0
932,4020003021649,新規,0,2022-04-19,2022-04-19,Ｒｉｔａｓｈｉｎ合同会社,,合同会社,神奈川県,横浜市西区,北幸１丁目１１番１号水信ビル７階,,14,103,2200004,,,,,,,2022-04-19,1,,,,,リタシン,0
936,4021001075744,新規,0,2022-04-19,2022-04-19,株式会社ラフィー,,株式会社,神奈川県,相模原市中央区,相模原８丁目１番９号アンセム相模原３０３号室,,14,152,2520231,,,,,,,2022-04-19,1,,,,,ラフィー,0
938,4021003011615,新規,0,2022-04-19,2022-04-19,合同会社ｃｏｍｂｉｎａｔｉｏｎ,,合同会社,神奈川県,厚木市,中町２丁目７番１８号佐々木エステートビル１階,,14,212,2430018,,,,,,,2022-04-19,1,,,,,コンビネイション,0
939,4021003011623,新規,0,2022-04-19,2022-04-19,合同会社ＨＵＧＯ,,合同会社,神奈川県,逗子市,桜山３丁目１２番１６号,,14,208,2490005,,,,,,,2022-04-19,1,,,,,ヒューゴ,0
954,4040001123081,新規,0,2022-04-19,2022-04-19,株式会社ＭＡＲＣＯ,,株式会社,千葉県,千葉市中央区,神明町２２番地４サンライズシティ１階,,12,101,2600022,,,,,,,2022-04-19,1,,,,,マルコ,0
961,4040003019897,新規,0,2022-04-19,2022-04-19,合同会社Ａｃｔ　ｅｎｇｉｎｅｅｒｉｎｇ,,合同会社,千葉県,印旛郡栄町,安食３丁目７番地１２号,,12,329,2701516,,,,,,,2022-04-19,1,,,,,アクトエンジニアリング,0
964,4050001050960,新規,0,2022-04-19,2022-04-19,シャイン精工株式会社,,株式会社,茨城県,小美玉市,大谷７０６番地,,08,236,3190126,,,,,,,2022-04-19,1,,,,,シャインセイコウ,0
965,4050001050969,新規,0,2022-04-19,2022-04-19,株式会社ＨＭＤ,,株式会社,茨城県,東茨城郡大洗町,磯浜町８８１番地の７,,08,309,3111301,,,,,,,2022-04-19,1,,,,,エイチエムディー,0
969,4070003004459,新規,0,2022-04-19,2022-04-19,合同会社ＵＳＭＡＮ　ＭＯＴＯＲＳ,,合同会社,群馬県,太田市,西新町２７番地１３バカンスハイツ１０５号,,10,205,3730847,,,,,,,2022-04-19,1,,,,,ウスマンモータース,0
982,4120001245289,新規,0,2022-04-19,2022-04-19,株式会社ＦＫ不動産,,株式会社,大阪府,大阪市東成区,深江南２丁目４番７号,,27,115,5370002,,,,,,,2022-04-19,1,,,,,エフケイフドウサン,0
983,4120001245297,新規,0,2022-04-19,2022-04-19,株式会社ｂｅ　ＳＭＩＬＥ,,株式会社,大阪府,大阪市中央区,難波１丁目８番１６号ｎａｍＢａＨＩＰＳ９階,,27,128,5420076,,,,,,,2022-04-19,1,,,,,ビースマイル,0
984,4120001245314,新規,0,2022-04-19,2022-04-19,株式会社ｌｉｌＡｆａｍ,,株式会社,大阪府,大阪市中央区,南船場１丁目５番１８号南船場第ＩＩＣｒｏｓｓビル３階３０１号室,00126328,27,128,5420081,,,,,,,2022-04-19,1,,,,,リラファム,0
985,4120001245322,新規,0,2022-04-19,2022-04-19,株式会社ａｂトレード,,株式会社,大阪府,大阪市住之江区,平林南２丁目４－２３,,27,125,5590025,,,,,,,2022-04-19,1,,,,,エービートレード,0
986,4120001245330,新規,0,2022-04-19,2022-04-19,株式会社ａｏ　ａｋｕａ,,株式会社,大阪府,寝屋川市,石津元町１３番２９号,,27,215,5720025,,,,,,,2022-04-19,1,,,,,アオアクア,0
987,4120001245347,新規,0,2022-04-19,2022-04-19,株式会社ＴＲＩＳＩＣ,,株式会社,大阪府,大阪市西区,靱本町２丁目２－２２ウツボパークビル５０１,,27,106,5500004,,,,,,,2022-04-19,1,,,,,トライシック,0
991,4120005022924,新規,0,2022-04-19,2022-04-19,一般社団法人京都から伝統の宝を発信する研究会,,その他の設立登記法人,大阪府,大阪市淀川区,十三東２丁目１２番３８号,,27,123,5320023,,,,,,,2022-04-19,1,,,,,キョウトカラデントウノタカラヲハッシンスルケンキュウカイ,0
997,4122001035777,新規,0,2022-04-19,2022-04-19,株式会社ＲＡＩＭＵ　ＣＯＭＰＡＮＹ,,株式会社,大阪府,東大阪市,吉田６丁目２番５３号ダイショウビル,,27,227,5780924,,,,,,,2022-04-19,1,,,,,ライムカンパニー,0
1016,4160003002552,新規,0,2022-04-19,2022-04-19,合同会社コクラ,,合同会社,滋賀県,大津市,月輪４丁目１１－１０,,25,201,5202152,,,,,,,2022-04-19,1,,,,,コクラ,0
1025,4180001150913,新規,0,2022-04-19,2022-04-19,株式会社グローバル,,株式会社,愛知県,名古屋市守山区,大字下志段味字東新田１３５７番地の４,,23,113,4630003,,,,,,,2022-04-19,1,,,,,グローバル,0
1026,4180001150970,新規,0,2022-04-19,2022-04-19,株式会社Ｔ,,株式会社,愛知県,名古屋市中区,栄４丁目４番１８号大善ビル４階,,23,106,4600008,,,,,,,2022-04-19,1,,,,,ティー,0
1027,4180001151003,新規,0,2022-04-19,2022-04-19,株式会社加藤ホールディングス,,株式会社,愛知県,名古屋市港区,知多２丁目２００６番地の１,,23,111,4550883,,,,,,,2022-04-19,1,,,,,カトウホールディングス,0
1031,4180003023670,新規,0,2022-04-19,2022-04-19,合同会社アンドワイコンサルティング,,合同会社,愛知県,名古屋市中村区,名駅５丁目３３番２１号アクアタウン納屋橋３１０５号,,23,105,4500002,,,,,,,2022-04-19,1,,,,,アンドワイコンサルティング,0
1032,4180003023737,新規,0,2022-04-19,2022-04-19,合同会社ゼブラサービス,,合同会社,愛知県,北名古屋市,二子比良出１９９番地,,23,234,4810013,,,,,,,2022-04-19,1,,,,,ゼブラサービス,0
1043,4200001039988,新規,0,2022-04-19,2022-04-19,株式会社キョウワ,,株式会社,岐阜県,可児郡御嵩町,伏見１８６２番地１２,,21,521,5050125,,,,,,,2022-04-19,1,,,,,キョウワ,0
1050,4210003001499,新規,0,2022-04-19,2022-04-19,合同会社ツキダハウス,,合同会社,福井県,丹生郡越前町,朝日２－１８－５,,18,423,9160146,,,,,,,2022-04-19,1,,,,,ツキダハウス,0
1057,4240001059636,新規,0,2022-04-19,2022-04-19,株式会社北浦建築,,株式会社,広島県,東広島市,西条町吉行１０８６番地７,,34,212,7390002,,,,,,,2022-04-19,1,,,,,キタウラケンチク,0
1062,4250003003046,新規,0,2022-04-19,2022-04-19,合同会社シエル,,合同会社,山口県,下関市,王司川端１丁目７番２４号,,35,201,7520912,,,,,,,2022-04-19,1,,,,,シエル,0
1073,4290003012423,新規,0,2022-04-19,2022-04-19,フィーデネスト合同会社,,合同会社,福岡県,福岡市城南区,神松寺２丁目１３番１５号ユンゲルハイム１０６,,40,136,8140121,,,,,,,2022-04-19,1,,,,,フィーデネスト,0
1074,4290003012431,新規,0,2022-04-19,2022-04-19,合同会社ダブルスプリット,,合同会社,福岡県,糟屋郡篠栗町,中央６丁目５番１号,,40,342,8112417,,,,,,,2022-04-19,1,,,,,ダブルスプリット,0
1088,4350003004067,新規,0,2022-04-19,2022-04-19,合同会社ａｇｉｌｉ,,合同会社,宮崎県,宮崎市,橘通東３丁目２番２１号ＴＯＫＩＷＡ２４ビル３０１,,45,201,8800805,,,,,,,2022-04-19,1,,,,,アジリ,0
1092,4360001030270,新規,0,2022-04-19,2022-04-19,株式会社東城建設,,株式会社,沖縄県,うるま市,石川東山２丁目１８番地１０,,47,213,9041102,,,,,,,2022-04-19,1,,,,,トウジョウケンセツ,0
1093,4370005010474,新規,0,2022-04-19,2022-04-19,一般社団法人東北駆け込み寺,,その他の設立登記法人,宮城県,仙台市青葉区,一番町２丁目３－２８,,04,101,9800811,,,,,,,2022-04-19,1,,,,,トウホクカケコミデラ,0
1100,4410001013154,新規,0,2022-04-19,2022-04-19,株式会社ＷａｖｅＡｒｔ,,株式会社,秋田県,仙北市,田沢湖生保内字牛沢５２－３,,05,215,0141201,,,,,,,2022-04-19,1,,,,,ウェイブアート,0
1105,4430001086495,新規,0,2022-04-19,2022-04-19,ピクシー株式会社,,株式会社,北海道,札幌市中央区,南一条西４丁目１３番地,,01,101,0600061,,,,,,,2022-04-19,1,,,,,ピクシー,0
1108,4430005014452,新規,0,2022-04-19,2022-04-19,一般社団法人北海道ガストロノミー協議会,,その他の設立登記法人,北海道,札幌市中央区,南二条東１丁目１－１２フラーテ札幌４Ｆ,,01,101,0600052,,,,,,,2022-04-19,1,,,,,ホッカイドウガストロノミーキョウギカイ,0
1110,4460103001449,新規,0,2022-04-19,2022-04-19,合同会社ツリーベル,,合同会社,北海道,河東郡音更町,共栄台西１２丁目５番地１４,,01,631,0800314,,,,,,,2022-04-19,1,,,,,ツリーベル,0
1115,4480001011713,新規,0,2022-04-19,2022-04-19,株式会社Ｉｒｉｓ,,株式会社,徳島県,徳島市,西新浜町１丁目２番７－５号,,36,201,7708008,,,,,,,2022-04-19,1,,,,,イリス,0
1118,4500001024150,新規,0,2022-04-19,2022-04-19,株式会社マインインシュアランス,,株式会社,愛媛県,松山市,東野５丁目甲８９８番地１０,,38,201,7900903,,,,,,,2022-04-19,1,,,,,マインインシュアランス,0
1123,4700150107974,新規,0,2022-04-19,2022-04-14,守屋純子オーケストラ,,その他,東京都,新宿区,上落合１丁目３０－１５－７１０,,13,104,1610034,,,,,,,2022-04-14,1,,,,,モリヤジユンコオーケストラ,0
1124,4700150108163,新規,0,2022-04-19,2022-04-19,那珂川町土地改良区,,その他,栃木県,那須郡那珂川町,小川２５２４－１,,09,411,3240501,,,,,,,2022-04-19,1,,,,,ナカガワマチトチカイリヨウク,0
1132,5010001225796,新規,0,2022-04-19,2022-04-19,ＡＩ　ｓｅｅ株式会社,,株式会社,東京都,千代田区,一番町２０番地５,,13,101,1020082,,,,,,,2022-04-19,1,,,,,アイシー,0
1133,5010001225854,新規,0,2022-04-19,2022-04-19,株式会社ユイット,,株式会社,東京都,千代田区,隼町２番１６－３０１号,,13,101,1020092,,,,,,,2022-04-19,1,,,,,ユイット,0
1134,5010001225945,新規,0,2022-04-19,2022-04-19,Ｒａｕｔｅ株式会社,,株式会社,東京都,千代田区,外神田４丁目１２番２号,,13,101,1010021,,,,,,,2022-04-19,1,,,,,ラテ,0
1135,5010001225961,新規,0,2022-04-19,2022-04-19,株式会社サクセションサポートジャパン,,株式会社,東京都,中央区,銀座６丁目６－１銀座風月堂ビル５Ｆ,,13,102,1040061,,,,,,,2022-04-19,1,,,,,サクセションサポートジャパン,0
1136,5010001225994,新規,0,2022-04-19,2022-04-19,ＫＦＩ株式会社,,株式会社,東京都,千代田区,紀尾井町４番１号ニューオータニガーデンコート１９階,,13,101,1020094,,,,,,,2022-04-19,1,,,,,ケーエフアイ,0
1139,5010003037430,新規,0,2022-04-19,2022-04-19,合同会社ＣＥＲＫ,,合同会社,東京都,中央区,勝どき６丁目３番１－５８０７号,,13,102,1040054,,,,,,,2022-04-19,1,,,,,サーク,0
1142,5010101015148,新規,0,2022-04-19,2022-04-19,株式会社サキガケ,,株式会社,東京都,八王子市,大谷町５４番地７８,,13,201,1920034,,,,,,,2022-04-19,1,,,,,サキガケ,0
1156,5010601061014,新規,0,2022-04-19,2022-04-19,株式会社華陽堂,,株式会社,東京都,江東区,亀戸３丁目１２番５号６０１号室,,13,108,1360071,,,,,,,2022-04-19,1,,,,,カヨウドウ,0
1157,5010603009498,新規,0,2022-04-19,2022-04-19,合同会社タイムライン,,合同会社,東京都,墨田区,向島５丁目４５番１０－８０７号,,13,107,1310033,,,,,,,2022-04-19,1,,,,,タイムライン,0
1173,5011001146842,新規,0,2022-04-19,2022-04-19,株式会社ＭＥＤＶＥＲＳＥ,,株式会社,東京都,渋谷区,恵比寿２丁目２８番１０号ＳｈｕＢＬＤＧ２９６４,,13,113,1500013,,,,,,,2022-04-19,1,,,,,メドバース,0
1174,5011001146990,新規,0,2022-04-19,2022-04-19,株式会社ヴァンファーム,,株式会社,東京都,目黒区,下目黒３丁目７－３プレスタ目黒２Ｆ,,13,110,1530064,,,,,,,2022-04-19,1,,,,,ヴァンファーム,0
1175,5011001147007,新規,0,2022-04-19,2022-04-19,ＥＩＫＯ株式会社,,株式会社,東京都,目黒区,上目黒２丁目１番２－１１０２号中目黒ＧＴハイツ,,13,110,1530051,,,,,,,2022-04-19,1,,,,,エイコウ,0
1176,5011003014551,新規,0,2022-04-19,2022-04-19,合同会社ＡＳＨＩＢＡ　ＡＤ,,合同会社,東京都,渋谷区,神宮前６丁目２３番４号桑野ビル２階,,13,113,1500001,,,,,,,2022-04-19,1,,,,,アシバアド,0
1181,5011101098521,新規,0,2022-04-19,2022-04-19,ＫＲＥＦ　ＤＸ　ＳＯＬＵＴＩＯＮＳ株式会社,,株式会社,東京都,新宿区,西新宿１丁目２６番２号新宿野村ビル３２階,,13,104,1600023,,,,,,,2022-04-19,1,,,,,クレフディーエックスソリューションズ,0
1182,5011201023775,新規,0,2022-04-19,2022-04-19,株式会社ＮＯＡ,,株式会社,東京都,中野区,鷺宮１丁目１番３号,,13,114,1650032,,,,,,,2022-04-19,1,,,,,ノア,0
1183,5011203003800,新規,0,2022-04-19,2022-04-19,合同会社イチコマ,,合同会社,東京都,中野区,弥生町１丁目２０番１０号ＬＡＰｉＳ中野坂上４０２,,13,114,1640013,,,,,,,2022-04-19,1,,,,,イチコマ,0
1185,5011401024169,新規,0,2022-04-19,2022-04-19,株式会社エムケーホールディングス,,株式会社,東京都,板橋区,南町５７番２号,,13,119,1730027,,,,,,,2022-04-19,1,,,,,エムケーホールディングス,0
1186,5011401024177,新規,0,2022-04-19,2022-04-19,株式会社ＳｏＣａｌ,,株式会社,東京都,板橋区,大谷口上町７９番２号,,13,119,1730032,,,,,,,2022-04-19,1,,,,,ソーキャル,0
1187,5011501027955,新規,0,2022-04-19,2022-04-19,未来株式会社,,株式会社,東京都,荒川区,町屋３丁目１－１３,,13,118,1160001,,,,,,,2022-04-19,1,,,,,ミライ,0
1190,5011601025900,新規,0,2022-04-19,2022-04-19,株式会社ＲＥＫ．,,株式会社,東京都,練馬区,栄町２１番１４号,,13,120,1760006,,,,,,,2022-04-19,1,,,,,アールイーケードット,0
1191,5011603003581,新規,0,2022-04-19,2022-04-19,合同会社ベンガル,,合同会社,東京都,練馬区,石神井町４丁目１番１２号,,13,120,1770041,,,,,,,2022-04-19,1,,,,,ベンガル,0
1193,5011701025239,新規,0,2022-04-19,2022-04-19,株式会社リバー,,株式会社,東京都,江戸川区,鹿骨１丁目２５番１５号,,13,123,1330073,,,,,,,2022-04-19,1,,,,,リバー,0
1194,5011701025247,新規,0,2022-04-19,2022-04-19,株式会社アリーフ,,株式会社,東京都,江戸川区,西葛西８丁目１８－３,,13,123,1340088,,,,,,,2022-04-19,1,,,,,アリーフ,0
1195,5011703003110,新規,0,2022-04-19,2022-04-19,Ｓ‐ＵＰ合同会社,,合同会社,東京都,江戸川区,東葛西１丁目１５番９号,,13,123,1340084,,,,,,,2022-04-19,1,,,,,エスアップ,0
1201,5012301012957,新規,0,2022-04-19,2022-04-19,桜咲株式会社,,株式会社,東京都,町田市,中町１丁目１２番１６号,,13,209,1940021,,,,,,,2022-04-19,1,,,,,サクラサク,0
1204,5012401039116,新規,0,2022-04-19,2022-04-19,株式会社コレオ,,株式会社,東京都,調布市,深大寺東町２丁目１７－４ドミールツカサ２０４,,13,208,1820012,,,,,,,2022-04-19,1,,,,,コレオ,0
1208,5013101008897,新規,0,2022-04-19,2022-04-19,株式会社レセアップ,,株式会社,東京都,あきる野市,草花２１００番地６０,,13,228,1970802,,,,,,,2022-04-19,1,,,,,レセアップ,0
1211,5013301048933,新規,0,2022-04-19,2022-04-19,株式会社Ｌｉｆｅ　ｉｓ　ｙｏｕｒｓ,,株式会社,東京都,豊島区,千早１丁目３－１４田嶋ハイツ４０２,,13,116,1710044,,,,,,,2022-04-19,1,,,,,ライフイズユアーズ,0
1224,5020003021648,新規,0,2022-04-19,2022-04-19,ナビゲーター合同会社,,合同会社,神奈川県,横浜市港北区,篠原町２５９４－１,,14,109,2220026,,,,,,,2022-04-19,1,,,,,ナビゲーター,0
1233,5030001147766,新規,0,2022-04-19,2022-04-19,株式会社Ａｃｅ　ｆｉｅｌｄ,,株式会社,埼玉県,八潮市,大字大瀬１４０７番地６１,,11,234,3400822,,,,,,,2022-04-19,1,,,,,エースフィールド,0
1236,5030003019261,新規,0,2022-04-19,2022-04-19,ｎｅｘｕｓ　ｙｉｅｌｄｓ　ｆａｃｔｏｒｙ合同会社,,合同会社,埼玉県,久喜市,鷲宮７７０番地１１,,11,232,3400217,,,,,,,2022-04-19,1,,,,,ネクサスイールズファクトリー,0
1240,5040001122990,新規,0,2022-04-19,2022-04-19,ＳｕｙａＩ株式会社,,株式会社,千葉県,流山市,西初石１丁目７７３番地の４６,,12,220,2700121,,,,,,,2022-04-19,1,,,,,スヤイ,0
1241,5040001123072,新規,0,2022-04-19,2022-04-19,株式会社ｗａｎｃｏｔｏ,,株式会社,千葉県,山武市,蓮沼ホ６５０－１,,12,237,2891803,,,,,,,2022-04-19,1,,,,,ワンコト,0
1242,5040001123089,新規,0,2022-04-19,2022-04-19,株式会社明環,,株式会社,千葉県,千葉市若葉区,源町５７９番地１１,,12,104,2640037,,,,,,,2022-04-19,1,,,,,メイワ,0
1243,5040001123097,新規,0,2022-04-19,2022-04-19,株式会社ＭＩＲＡＩ,,株式会社,千葉県,千葉市中央区,川戸町５１６－１３,,12,101,2600802,,,,,,,2022-04-19,1,,,,,ミライ,0
1245,5040003019871,新規,0,2022-04-19,2022-04-19,合同会社ＫＨＮ,,合同会社,千葉県,柏市,豊四季２２６－８柏ビクトリーマンション弐番館２０８,,12,217,2770863,,,,,,,2022-04-19,1,,,,,ケイエイチエヌ,0
1246,5040003019896,新規,0,2022-04-19,2022-04-19,合同会社佐藤建工,,合同会社,千葉県,千葉市花見川区,宮野木台１丁目２４番１５号ナイスアーバン稲毛２０６号,,12,102,2620015,,,,,,,2022-04-19,1,,,,,サトウケンコウ,0
1248,5050003006506,新規,0,2022-04-19,2022-04-19,Ｖ＆Ｎ　Ｎｉｈｏｎ　Ｌａｎｋａ　ＡｕｔｏＭａｒｔ合同会社,,合同会社,茨城県,鉾田市,汲上３６５７番地４,,08,234,3112103,,,,,,,2022-04-19,1,,,,,ブイアンドエヌニホンランカオートマート,0
1249,5050003006514,新規,0,2022-04-19,2022-04-19,あうるケア合同会社,,合同会社,茨城県,つくば市,篠崎４１９番地５,,08,220,3003264,,,,,,,2022-04-19,1,,,,,アウルケア,0
1250,5060001034739,新規,0,2022-04-19,2022-04-19,株式会社ミンナのミカタＨＤ,,株式会社,栃木県,鹿沼市,貝島町５１２番地４北星ビル２Ｆ,,09,205,3220027,,,,,,,2022-04-19,1,,,,,ミンナノミカタホールディングス,0
1251,5070003004458,新規,0,2022-04-19,2022-04-19,合同会社たいこうネクスト,,合同会社,群馬県,北群馬郡吉岡町,大字大久保１４１６番地２,,10,345,3703602,,,,,,,2022-04-19,1,,,,,タイコウネクスト,0
1254,5080401025757,新規,0,2022-04-19,2022-04-19,株式会社庭司いとう,,株式会社,静岡県,浜松市浜北区,新原３４０５番地,,22,136,4340003,,,,,,,2022-04-19,1,,,,,ニワツカサイトウ,0
1289,5120001245288,新規,0,2022-04-19,2022-04-19,株式会社あおい,,株式会社,大阪府,大阪市淀川区,西中島６丁目２番３－２２１号,,27,123,5320011,,,,,,,2022-04-19,1,,,,,アオイ,0
1290,5120001245305,新規,0,2022-04-19,2022-04-19,ノータスソーラージャパン株式会社,,株式会社,大阪府,大阪市淀川区,西中島４丁目３番２１号,,27,123,5320011,,,,,,,2022-04-19,1,,,,,ノータスソーラージャパン,0
1291,5120001245354,新規,0,2022-04-19,2022-04-19,株式会社三洋総合研究所,,株式会社,大阪府,大阪市浪速区,湊町２丁目２番５号,,27,111,5560017,,,,,,,2022-04-19,1,,,,,サンヨウソウゴウケンキュウショ,0
1296,5120003021522,新規,0,2022-04-19,2022-04-19,合同会社カウアンドキャット,,合同会社,大阪府,大阪市北区,長柄西１丁目３番２２－２３１３号,,27,127,5310061,,,,,,,2022-04-19,1,,,,,カウアンドキャット,0
1299,5120101065421,新規,0,2022-04-19,2022-04-19,ｓｅｅｄｏｏ株式会社,,株式会社,大阪府,堺市堺区,竜神橋町１丁３番６号,,27,141,5900972,,,,,,,2022-04-19,1,,,,,シード,0
1300,5120101065438,新規,0,2022-04-19,2022-04-19,株式会社繁田興業,,株式会社,大阪府,堺市北区,大豆塚町２丁９１番地８,00126336,27,146,5918042,,,,,,,2022-04-19,1,,,,,シゲタコウギョウ,0
1324,5160001024135,新規,0,2022-04-19,2022-04-19,株式会社あおばアプレイザル,,株式会社,滋賀県,大津市,におの浜２丁目２番５－１００８号,,25,201,5200801,,,,,,,2022-04-19,1,,,,,アオバアプレイザル,0
1336,5180003023728,新規,0,2022-04-19,2022-04-19,合同会社リベロ,,合同会社,愛知県,名古屋市中区,大須４丁目１１番４４－１００４号,,23,106,4600011,,,,,,,2022-04-19,1,,,,,リベロ,0
1339,5180301036134,新規,0,2022-04-19,2022-04-19,株式会社オアシス開発,,株式会社,愛知県,安城市,三河安城町２丁目２６番地６,,23,212,4460056,,,,,,,2022-04-19,1,,,,,オアシスカイハツ,0
1343,5200001039987,新規,0,2022-04-19,2022-04-19,株式会社若山牧場,,株式会社,岐阜県,中津川市,高山２１５９番地１,,21,206,5080204,,,,,,,2022-04-19,1,,,,,ワカヤマボクジョウ,0
1344,5200001039995,新規,0,2022-04-19,2022-04-19,株式会社ライン測量,,株式会社,岐阜県,加茂郡坂祝町,黒岩４６２番地３,,21,501,5050071,,,,,,,2022-04-19,1,,,,,ラインソクリョウ,0
1347,5210003001498,新規,0,2022-04-19,2022-04-19,ＳＹ合同会社,,合同会社,福井県,吉田郡永平寺町,吉峰第５号５番地,,18,322,9101304,,,,,,,2022-04-19,1,,,,,エスワイ,0
1351,5220005008656,新規,0,2022-04-19,2022-04-19,医療法人社団くまぶん堂,,その他の設立登記法人,石川県,金沢市,本町２丁目１５番１号ポルテ金沢３Ｆ,,17,201,9200853,,,,,,,2022-04-19,1,,,,,クマブンドウ,0
1354,5230003001835,新規,0,2022-04-19,2022-04-19,ＬＥＡ合同会社,,合同会社,富山県,高岡市,福岡町土屋５２５番地,,16,202,9390142,,,,,,,2022-04-19,1,,,,,エルイーエー,0
1355,5240001059643,新規,0,2022-04-19,2022-04-19,幸工業株式会社,,株式会社,広島県,広島市佐伯区,五日市中央１丁目１７番１３－５－１０１号,,34,108,7315128,,,,,,,2022-04-19,1,,,,,コウコウギョウ,0
1365,5260001036764,新規,0,2022-04-19,2022-04-19,株式会社ＫＭＲ,,株式会社,岡山県,倉敷市,藤戸町天城１６５５番地６,,33,202,7100132,,,,,,,2022-04-19,1,,,,,ケーエムアール,0
1374,5290001097003,新規,0,2022-04-19,2022-04-19,株式会社Ｐｒｏｂｉｔｙ,,株式会社,福岡県,福岡市早良区,重留５丁目７番５－２号,,40,137,8111101,,,,,,,2022-04-19,1,,,,,プロビティ,0
1375,5290001097283,新規,0,2022-04-19,2022-04-19,株式会社ヒュミリティ,,株式会社,福岡県,福岡市南区,長住３丁目１番２３号プロムナード長住２０２号,,40,134,8111362,,,,,,,2022-04-19,1,,,,,ヒュミリティ,0
1378,5290801028421,新規,0,2022-04-19,2022-04-19,株式会社ブラストワークス,,株式会社,福岡県,遠賀郡岡垣町,大字糠塚１２０３番７号,,40,383,8114213,,,,,,,2022-04-19,1,,,,,ブラストワークス,0
1383,5300005007071,新規,0,2022-04-19,2022-04-19,一般社団法人みらい,,その他の設立登記法人,佐賀県,小城市,芦刈町三王崎１５６番地１１,00126327,41,208,8490314,,,,,,,2022-04-19,1,,,,,ミライ,0
1385,5310003004334,新規,0,2022-04-19,2022-04-19,グレートセントラルサン合同会社,,合同会社,長崎県,東彼杵郡東彼杵町,大音琴郷１７２１番地３,,42,321,8593811,,,,,,,2022-04-19,1,,,,,グレートセントラルサン,0
1388,5330001029629,新規,0,2022-04-19,2022-04-19,テコハブ株式会社,,株式会社,熊本県,熊本市中央区,迎町１丁目１－７ハナサキサンフォートビル２０３,,43,101,8600817,,,,,,,2022-04-19,1,,,,,テコハブ,0
1393,5350001017706,新規,0,2022-04-19,2022-04-19,株式会社アウルライフ福ろう不動産,,株式会社,宮崎県,宮崎市,和知川原３丁目１２０番地,,45,201,8800023,,,,,,,2022-04-19,1,,,,,アウルライフフクロウフドウサン,0
1395,5350003004066,新規,0,2022-04-19,2022-04-19,合同会社ＴＭＳ,,合同会社,宮崎県,宮崎市,波島２丁目３３番８号,,45,201,8800826,,,,,,,2022-04-19,1,,,,,ティーエムエス,0
1399,5360001030278,新規,0,2022-04-19,2022-04-19,株式会社エックスビズ,,株式会社,沖縄県,那覇市,牧志２丁目２０－２８グランドパレス牧志センターコート９０２,,47,201,9000013,,,,,,,2022-04-19,1,,,,,,0
1401,5360005006638,新規,0,2022-04-19,2022-04-19,特定非営利活動法人かなめ,,その他の設立登記法人,沖縄県,名護市,字源河１５４６番地,,47,209,9051141,,,,,,,2022-04-19,1,,,,,カナメ,0
1402,5370001048476,新規,0,2022-04-19,2022-04-19,株式会社ＣＯＤＥ４,,株式会社,宮城県,仙台市青葉区,中央２丁目２－１０仙都会館５Ｆ,,04,101,9800021,,,,,,,2022-04-19,1,,,,,コードフォー,0
1410,5400001015860,新規,0,2022-04-19,2022-04-19,株式会社遊楽,,株式会社,岩手県,奥州市,江刺愛宕字梁川１２４番地１佐々木住宅２号室,,03,215,0231131,,,,,,,2022-04-19,1,,,,,ユウラク,0
1414,5410001013161,新規,0,2022-04-19,2022-04-19,株式会社ひの里,,株式会社,秋田県,にかほ市,釜ケ台字堂ノ下９４番地１,,05,214,0180421,,,,,,,2022-04-19,1,,,,,ヒノサト,0
1417,5430001086453,新規,0,2022-04-19,2022-04-19,ＮＮ商会株式会社,,株式会社,北海道,札幌市東区,丘珠町７１２番地２９,,01,103,0070880,,,,,,,2022-04-19,1,,,,,エヌエヌショウカイ,0
1420,5430003013819,新規,0,2022-04-19,2022-04-19,合同会社カペラ,,合同会社,北海道,札幌市中央区,南一条西１０丁目４番地１６３－７０７号,,01,101,0600061,,,,,,,2022-04-19,1,,,,,カペラ,0
1422,5460003000896,新規,0,2022-04-19,2022-04-19,アイトレード合同会社,,合同会社,北海道,釧路市,柳町１１番１４号,,01,206,0850037,,,,,,,2022-04-19,1,,,,,アイトレード,0
1432,5700150107172,新規,0,2022-04-19,2022-02-24,福本地域振興会,,その他,岡山県,新見市,菅生８８３２番地,,33,210,7180211,,,,,,,2022-02-24,1,,,,,フクモトチイキシンコウカイ,0
1433,5700150107445,新規,0,2022-04-19,2022-03-22,みあれ祭前夜祭花火大会実行委員会,,その他,福岡県,宗像市,日の里１丁目団地１０５－１００,,40,220,8113425,,,,,,,2022-03-22,1,,,,,ミアレサイゼンヤサイハナビタイカイジツコウイインカイ,0
1437,6010001225820,新規,0,2022-04-19,2022-04-19,エリックスギルダン株式会社,,株式会社,東京都,中央区,日本橋２丁目１番１７号丹生ビル２階Ｔｒａｉｌ東京,,13,102,1030027,,,,,,,2022-04-19,1,,,,,エリックスギルダン,0
1438,6010001225969,新規,0,2022-04-19,2022-04-19,みらいコンサルティング投資株式会社,,株式会社,東京都,中央区,京橋２丁目２番１号京橋エドグラン１９階,,13,102,1040031,,,,,,,2022-04-19,1,,,,,ミライコンサルティングトウシ,0
1439,6010001226018,新規,0,2022-04-19,2022-04-19,シリオン・マネジメント株式会社,,株式会社,東京都,千代田区,六番町５番５号,,13,101,1020085,,,,,,,2022-04-19,1,,,,,シリオンマネジメント,0
1440,6010003037462,新規,0,2022-04-19,2022-04-19,合同会社ぼくらはてんさい,,合同会社,東京都,中央区,銀座１丁目２２番１１号銀座大竹ビジデンス２階,,13,102,1040061,,,,,,,2022-04-19,1,,,,,ボクラハテンサイ,0
1441,6010003037495,新規,0,2022-04-19,2022-04-19,プロフィット合同会社,,合同会社,東京都,千代田区,東神田１丁目２番２－１０２号,,13,101,1010031,,,,,,,2022-04-19,1,,,,,プロフィット,0
1443,6010401166788,新規,0,2022-04-19,2022-04-19,株式会社ＱｍＯ,,株式会社,東京都,港区,南青山２丁目２番１５号,,13,103,1070062,,,,,,,2022-04-19,1,,,,,クモ,0
1444,6010401166887,新規,0,2022-04-19,2022-04-19,株式会社リアテクス,,株式会社,東京都,港区,六本木４丁目８番７号,,13,103,1060032,,,,,,,2022-04-19,1,,,,,リアテクス,0
1446,6010403027518,新規,0,2022-04-19,2022-04-19,合同会社週末カンパニー,,合同会社,東京都,港区,西新橋３丁目１６番８号ＴＳＩＡＴＡＧＯ４０１,,13,103,1050003,,,,,,,2022-04-19,1,,,,,シュウマツカンパニー,0
1448,6010601061013,新規,0,2022-04-19,2022-04-19,株式会社チャンピオンフードサービス,,株式会社,東京都,江東区,東砂７丁目１８番１０－７０１号,,13,108,1360074,,,,,,,2022-04-19,1,,,,,チャンピオンフードサービス,0
1450,6010605004067,新規,0,2022-04-19,2022-04-19,一般社団法人清水建設江東ブルーシャークス,,その他の設立登記法人,東京都,江東区,豊洲４丁目２番２号,,13,108,1350061,,,,,,,2022-04-19,1,,,,,シミズケンセツコウトウブルーシャークス,0
1454,6010703006188,新規,0,2022-04-19,2022-04-19,遠州チップ合同会社,,合同会社,東京都,品川区,上大崎３丁目１４番３７号,,13,109,1410021,,,,,,,2022-04-19,1,,,,,エンシュウチップ,0
1458,6010803004141,新規,0,2022-04-19,2022-04-19,合同会社Ｌｅｎｋａｎｏ,,合同会社,東京都,大田区,西六郷３丁目２番１４－３２２号,,13,111,1440056,,,,,,,2022-04-19,1,,,,,レンカーノ,0
1461,6010901050731,新規,0,2022-04-19,2022-04-19,株式会社パンタ,,株式会社,東京都,世田谷区,駒沢３丁目１０番１－１２１号,,13,112,1540012,,,,,,,2022-04-19,1,,,,,パンタ,0
1462,6010903007317,新規,0,2022-04-19,2022-04-19,いせちゅう合同会社,,合同会社,東京都,世田谷区,梅丘１丁目２１番５号,,13,112,1540022,,,,,,,2022-04-19,1,,,,,,0
1464,6011001147014,新規,0,2022-04-19,2022-04-19,株式会社伊豆高原ダイビングスクール,,株式会社,東京都,渋谷区,渋谷１丁目８番５号グローリア宮益坂５０３,,13,113,1500002,,,,,,,2022-04-19,1,,,,,イズコウゲンダイビングスクール,0
1465,6011001147022,新規,0,2022-04-19,2022-04-19,株式会社Ｏｆｆｂｅａｔ　Ｓｔｕｄｉｏ,,株式会社,東京都,渋谷区,渋谷２丁目１９番１５号宮益坂ビルディング６０９,,13,113,1500002,,,,,,,2022-04-19,1,,,,,,0
1466,6011001147047,新規,0,2022-04-19,2022-04-19,エルピーワークス株式会社,,株式会社,東京都,渋谷区,神宮前６丁目２３－４桑野ビル２Ｆ,,13,113,1500001,,,,,,,2022-04-19,1,,,,,エルピーワークス,0
1467,6011003014550,新規,0,2022-04-19,2022-04-19,ホジョキング合同会社,,合同会社,東京都,渋谷区,神宮前６丁目２３番４号桑野ビル２Ｆ,,13,113,1500001,,,,,,,2022-04-19,1,,,,,ホジョキング,0
1474,6011401024176,新規,0,2022-04-19,2022-04-19,株式会社翔和,,株式会社,東京都,板橋区,西台３丁目２７番９号フジハイム西台２０２,,13,119,1750045,,,,,,,2022-04-19,1,,,,,ショウワ,0
1476,6011501027954,新規,0,2022-04-19,2022-04-19,株式会社ムラカミデザイン,,株式会社,東京都,北区,滝野川７丁目４８番１３号,,13,117,1140023,,,,,,,2022-04-19,1,,,,,ムラカミデザイン,0
1478,6011601025899,新規,0,2022-04-19,2022-04-19,１’ｆ株式会社,,株式会社,東京都,練馬区,高松１丁目３２番１５号,,13,120,1790075,,,,,,,2022-04-19,1,,,,,アンエフ,0
1479,6011603003580,新規,0,2022-04-19,2022-04-19,Ｊ‐ｓｔａｒ合同会社,,合同会社,東京都,練馬区,東大泉６丁目４６－８－１０２,,13,120,1780063,,,,,,,2022-04-19,1,,,,,ジェイスター,0
1482,6011701025246,新規,0,2022-04-19,2022-04-19,エコシステム環境株式会社,,株式会社,東京都,江戸川区,本一色２丁目６番１２号,,13,123,1330044,,,,,,,2022-04-19,1,,,,,エコシステムカンキョウ,0
1484,6011803005047,新規,0,2022-04-19,2022-04-19,クロス・Ａ合同会社,,合同会社,東京都,葛飾区,柴又５丁目１０番１４号,,13,122,1250052,,,,,,,2022-04-19,1,,,,,クロスアクティブ,0
1486,6012401039115,新規,0,2022-04-19,2022-04-19,株式会社ｆｉｄｅｓ　ｗｏｒｌｄ,,株式会社,東京都,稲城市,向陽台４丁目４番地の２ビュープラザ向陽台２－４０１,,13,225,2060803,,,,,,,2022-04-19,1,,,,,フィデスワールド,0
1489,6012405004726,新規,0,2022-04-19,2022-04-19,特定非営利活動法人ぽこぽこクラブ,,その他の設立登記法人,東京都,三鷹市,上連雀３丁目１０番２１－１０１号,,13,204,1810012,,,,,,,2022-04-19,1,,,,,ポコポコクラブ,0
1492,6013101008896,新規,0,2022-04-19,2022-04-19,株式会社喜一建設,,株式会社,東京都,福生市,大字熊川９６６番地１５,,13,218,1970003,,,,,,,2022-04-19,1,,,,,キイチケンセツ,0
1503,6020001146173,新規,0,2022-04-19,2022-04-19,株式会社ＢｅｎＹ,,株式会社,神奈川県,横浜市中区,小港町１丁目５番地６,,14,104,2310802,,,,,,,2022-04-19,1,,,,,ベンイ,0
1512,6030001147831,新規,0,2022-04-19,2022-04-19,兆祥株式会社,,株式会社,埼玉県,川口市,西川口１丁目３０番２０－２０３号,,11,203,3320021,,,,,,,2022-04-19,1,,,,,チョウショウ,0
1517,6030003019260,新規,0,2022-04-19,2022-04-19,合同会社ネクストハート,,合同会社,埼玉県,東松山市,大字石橋２１７０番地１０,,11,212,3550072,,,,,,,2022-04-19,1,,,,,ネクストハート,0
1528,6040003019895,新規,0,2022-04-19,2022-04-19,合同会社樋熊商店,00126325,合同会社,千葉県,習志野市,東習志野８丁目２７番２７号アルファネクスト１０１号,,12,216,2750001,,,,,,,2022-04-19,1,,,,,ヒグマショウテン,0
1529,6040003019904,新規,0,2022-04-19,2022-04-19,合同会社ライノホーム,,合同会社,千葉県,千葉市稲毛区,黒砂２丁目７番１２号,,12,103,2630042,,,,,,,2022-04-19,1,,,,,ライノホーム,0
1530,6050001050967,新規,0,2022-04-19,2022-04-19,一心工業株式会社,,株式会社,茨城県,鹿嶋市,大字小山２６番地,,08,222,3112222,,,,,,,2022-04-19,1,,,,,イッシンコウギョウ,0
1531,6050001050975,新規,0,2022-04-19,2022-04-19,株式会社ＫＲＥＳＴ,,株式会社,茨城県,つくばみらい市,紫峰ヶ丘２丁目４番地８カン・ティセＮ－２０２,,08,235,3002359,,,,,,,2022-04-19,1,,,,,クレスト,0
1532,6050003006513,新規,0,2022-04-19,2022-04-19,合同会社トロイヤーフント,,合同会社,茨城県,古河市,東本町１丁目４－２２セラヴィ２１・３階Ｃ,,08,204,3060013,,,,,,,2022-04-19,1,,,,,トロイヤーフント,0
1541,6070001039158,新規,0,2022-04-19,2022-04-19,＿福商事株式会社,00126329,株式会社,群馬県,高崎市,栄町２番１１号,,10,202,3700841,,,,,,,2022-04-19,1,,,,,キフクショウジ,0
1543,6080101023226,新規,0,2022-04-19,2022-04-19,株式会社翔飛建設,,株式会社,静岡県,駿東郡清水町,伏見３１０番地の３,,22,341,4110907,,,,,,,2022-04-19,1,,,,,ショウトケンセツ,0
1544,6080101023234,新規,0,2022-04-19,2022-04-19,蒼馬経理サポート株式会社,,株式会社,静岡県,富士市,中央町１丁目９番６号,,22,210,4170052,,,,,,,2022-04-19,1,,,,,アオバケイリサポート,0
1546,6080103002574,新規,0,2022-04-19,2022-04-19,合同会社笑福,,合同会社,静岡県,富士市,岩本５３７番地の８５,,22,210,4160901,,,,,,,2022-04-19,1,,,,,エフ,0
1547,6080105006251,新規,0,2022-04-19,2022-04-19,医療法人社団ひだまり会,,その他の設立登記法人,静岡県,裾野市,佐野９１９番地の１,,22,220,4101118,,,,,,,2022-04-19,1,,,,,ヒダマリカイ,0
1553,6100001035269,新規,0,2022-04-19,2022-04-19,株式会社Ｌｉｇ,,株式会社,長野県,長野市,吉田２丁目７番３３号,,20,201,3810043,,,,,,,2022-04-19,1,,,,,リグ,0
1557,6110001036596,新規,0,2022-04-19,2022-04-19,株式会社ライズ,,株式会社,新潟県,新潟市西区,寺尾朝日通１２番１１号,,15,107,9502051,,,,,,,2022-04-19,1,,,,,ライズ,0
1568,6120001245270,新規,0,2022-04-19,2022-04-19,富友株式会社,,株式会社,大阪府,大阪市住之江区,安立２丁目１０番１４号三坂ビル２０１号室,,27,125,5590003,,,,,,,2022-04-19,1,,,,,フユウ,0
1569,6120001245279,新規,0,2022-04-19,2022-04-19,ｅｌｕａ株式会社,,株式会社,大阪府,大阪市淀川区,西中島６丁目３番２４号Ｌ４０６,,27,123,5320011,,,,,,,2022-04-19,1,,,,,エルア,0
1570,6120001245295,新規,0,2022-04-19,2022-04-19,池田泉州債権回収株式会社,,株式会社,大阪府,大阪市北区,茶屋町１８番１４号,,27,127,5300013,,,,,,,2022-04-19,1,,,,,イケダセンシュウサイケンカイシュウ,0
1571,6120001245304,新規,0,2022-04-19,2022-04-19,株式会社具,,株式会社,大阪府,大阪市西区,京町堀１丁目３番１号ワイズビスタビル４階,,27,106,5500003,,,,,,,2022-04-19,1,,,,,グ,0
1572,6120001245312,新規,0,2022-04-19,2022-04-19,株式会社タナベコンサルティング,,株式会社,大阪府,大阪市淀川区,宮原３丁目３番４１号,,27,123,5320003,,,,,,,2022-04-19,1,,,,,タナベコンサルティング,0
1573,6120001245329,新規,0,2022-04-19,2022-04-19,株式会社Ｒａｈｕ　ｎｏｄｅ,,株式会社,大阪府,寝屋川市,打上中町１３番５－５０５号,,27,215,5720857,,,,,,,2022-04-19,1,,,,,ラフノード,0
1578,6120101065395,新規,0,2022-04-19,2022-04-19,株式会社アンサンブル,,株式会社,大阪府,岸和田市,加守町３丁目１２番２２号,,27,202,5960042,,,,,,,2022-04-19,1,,,,,アンサンブル,0
1594,6130001071583,新規,0,2022-04-19,2022-04-19,株式会社詔,,株式会社,京都府,京都市上京区,土屋町通一条下る西入東西俵屋町６５３番地,,26,102,6028294,,,,,,,2022-04-19,1,,,,,ショウ,0
1606,6160003002550,新規,0,2022-04-19,2022-04-19,合同会社キッカケッコ,,合同会社,滋賀県,大津市,大門通四丁目３番,,25,201,5200033,,,,,,,2022-04-19,1,,,,,キッカケッコ,0
1613,6180001150416,新規,0,2022-04-19,2022-04-19,株式会社ｊｕｇａｋｕ,,株式会社,愛知県,名古屋市瑞穂区,津賀田町３丁目８５番地,,23,108,4670823,,,,,,,2022-04-19,1,,,,,ジュガク,0
1614,6180001150928,新規,0,2022-04-19,2022-04-19,株式会社回有会,,株式会社,愛知県,海部郡蟹江町,大字西之森字長瀬下６５番地２２,,23,425,4970052,,,,,,,2022-04-19,1,,,,,カイユウカイ,0
1619,6180003023735,新規,0,2022-04-19,2022-04-19,合同会社み・ず・ほ,,合同会社,愛知県,名古屋市瑞穂区,浮島町１２番瑞穂センチュリーマンション７０４号,,23,108,4670854,,,,,,,2022-04-19,1,,,,,ミズホ,0
1623,6180301036117,新規,0,2022-04-19,2022-04-19,株式会社リテラ,,株式会社,愛知県,安城市,緑町１丁目４番地３ＧｒｅｅｎＰａｒｋＳｉｄｅ３０５,,23,212,4460055,,,,,,,2022-04-19,1,,,,,リテラ,0
1631,6200001039986,新規,0,2022-04-19,2022-04-19,令和株式会社,,株式会社,岐阜県,高山市,昭和町２丁目１１７番地５,,21,203,5060053,,,,,,,2022-04-19,1,,,,,レイワ,0
1632,6200001039994,新規,0,2022-04-19,2022-04-19,Ｔ’ｓＳＵＮ株式会社,,株式会社,岐阜県,各務原市,新鵜沼台８丁目６４番地,,21,213,5090122,,,,,,,2022-04-19,1,,,,,ティーズサン,0
1644,6240001059618,新規,0,2022-04-19,2022-04-19,レインボーカーサービス株式会社,,株式会社,広島県,福山市,北吉津町３丁目１４番１２号,,34,207,7200073,,,,,,,2022-04-19,1,,,,,レインボーカーサービス,0
1652,6250001019513,新規,0,2022-04-19,2022-04-19,あゆみ商事株式会社,,株式会社,山口県,宇部市,大字東須恵１６７番地９,,35,202,7590206,,,,,,,2022-04-19,1,,,,,アユミショウジ,0
1655,6260003003885,新規,0,2022-04-19,2022-04-19,合同会社ＴＴＣ,,合同会社,岡山県,倉敷市,新田２８５３番地７,,33,202,7100038,,,,,,,2022-04-19,1,,,,,ティティシィ,0
1665,6290001097241,新規,0,2022-04-19,2022-04-19,メグリフト株式会社,,株式会社,福岡県,福岡市中央区,天神２丁目３番１０号天神パインクレスト７１９番,,40,133,8100001,,,,,,,2022-04-19,1,,,,,メグリフト,0
1668,6290003012347,新規,0,2022-04-19,2022-04-19,ＡｔｏＭ合同会社,,合同会社,福岡県,福岡市博多区,住吉２丁目５番１１―８０２号,,40,132,8120018,,,,,,,2022-04-19,1,,,,,エートゥエム,0
1669,6290003012405,新規,0,2022-04-19,2022-04-19,ＤＵＣ　ＨＡＩ合同会社,,合同会社,福岡県,福岡市南区,塩原４丁目２０番１７号メゾン・ド・セリーズ５０９号,,40,134,8150032,,,,,,,2022-04-19,1,,,,,ドウックハイ,0
1670,6290003012413,新規,0,2022-04-19,2022-04-19,Ｔ＆Ｑ合同会社,,合同会社,福岡県,福岡市博多区,博多駅前４丁目３２番１４－３０３号ＭＳＣビル,,40,132,8120011,,,,,,,2022-04-19,1,,,,,ティーアンドキュー,0
1672,6290803004106,新規,0,2022-04-19,2022-04-19,ＭＭＴ合同会社,,合同会社,福岡県,北九州市若松区,本町２丁目９番４号,,40,103,8080034,,,,,,,2022-04-19,1,,,,,エムエムティー,0
1673,6300005007070,新規,0,2022-04-19,2022-04-19,武雄市環境整備事業協同組合,,その他の設立登記法人,佐賀県,武雄市,武雄町大字富岡１２７１２番地１,,41,206,8430024,,,,,,,2022-04-19,1,,,,,タケオシカンキョウセイビ,0
1675,6320001019019,新規,0,2022-04-19,2022-04-19,株式会社Ｇ　ＣＵＢＥ,,株式会社,大分県,大分市,三佐４丁目１４番２６号,,44,201,8700108,,,,,,,2022-04-19,1,,,,,ジーキューブ,0
1679,6330001029652,新規,0,2022-04-19,2022-04-19,梅原総合商事株式会社,,株式会社,熊本県,熊本市中央区,米屋町１丁目７番地２（９０４号）,,43,101,8600029,,,,,,,2022-04-19,1,,,,,ウメハラソウゴウショウジ,0
1683,6350003004065,新規,0,2022-04-19,2022-04-19,合同会社ビーマス,,合同会社,宮崎県,宮崎市,清水１丁目６番３号グランドパレス橘通り１３０１号,,45,201,8800021,,,,,,,2022-04-19,1,,,,,ビーマス,0
1686,6370001048475,新規,0,2022-04-19,2022-04-19,株式会社ｐｒｅｒｙ,,株式会社,宮城県,塩竈市,海岸通１番２０号デュオヒルズ塩竈海岸通４０５号,,04,203,9850002,,,,,,,2022-04-19,1,,,,,プレリー,0
1688,6370005010472,新規,0,2022-04-19,2022-04-19,一般社団法人ＷＩＴＨ,,その他の設立登記法人,宮城県,仙台市青葉区,台原４丁目１５番４－２０３号,,04,101,9810911,,,,,,,2022-04-19,1,,,,,ウィズ,0
1704,6410001013169,新規,0,2022-04-19,2022-04-19,株式会社きららファーム,,株式会社,秋田県,秋田市,大町２丁目５番１号,,05,201,0100921,,,,,,,2022-04-19,1,,,,,キララファーム,0
1714,6430005014450,新規,0,2022-04-19,2022-04-19,特定非営利活動法人Ｓａｐｐｏｒｏ　Ｙｏｕｔｈ　Ｃｒｅａｔｉｏｎ,,その他の設立登記法人,北海道,札幌市豊平区,中の島一条２丁目１番８－３２１号,,01,105,0620921,,,,,,,2022-04-19,1,,,,,サッポロユースクリエーション,0
1715,6440001009065,新規,0,2022-04-19,2022-04-19,株式会社エヌケーツーファーム,,株式会社,北海道,函館市,松川町１０番９号,,01,202,0400074,,,,,,,2022-04-19,1,,,,,,0
1718,6460003000895,新規,0,2022-04-19,2022-04-19,えいようラボラトリ合同会社,,合同会社,北海道,釧路市,宮本１丁目５番２６号大三堂マンション３－２,,01,206,0850833,,,,,,,2022-04-19,1,,,,,エイヨウラボラトリ,0
1723,6490001010159,新規,0,2022-04-19,2022-04-19,株式会社Ｓｋｙｓｕｎ,,株式会社,高知県,高知市,神田２０６１－７,,39,201,7808040,,,,,,,2022-04-19,1,,,,,スカイサン,0
1725,6500001024149,新規,0,2022-04-19,2022-04-19,株式会社ＭＫＳ,,株式会社,愛媛県,松山市,桑原２丁目１０番４０号,,38,201,7900911,,,,,,,2022-04-19,1,,,,,エムケイエス,0
1726,6500001024157,新規,0,2022-04-19,2022-04-19,株式会社ｓ’ｗａｌｋｅｒ,,株式会社,愛媛県,新居浜市,西の土居町２丁目９番３３号,,38,205,7920035,,,,,,,2022-04-19,1,,,,,エスウォーカー,0
1727,6500001024165,新規,0,2022-04-19,2022-04-19,株式会社ベンテン,,株式会社,愛媛県,松山市,西長戸町７６２番地１３,,38,201,7918017,,,,,,,2022-04-19,1,,,,,ベンテン,0
1731,6700150107477,新規,0,2022-04-19,2022-03-23,吹上ワンダーマップ実行委員会,,その他,鹿児島県,日置市,吹上町田尻６０３８,,46,216,8993308,,,,,,,2022-03-23,1,,,,,フキアゲワンダーマツプジツコウイインカイ,0
1741,7010001225968,新規,0,2022-04-19,2022-04-19,ＥＸホールディングス株式会社,,株式会社,東京都,千代田区,永田町２丁目１４番３号,,13,101,1000014,,,,,,,2022-04-19,1,,,,,イーエックスホールディングス,0
1742,7010001225992,新規,0,2022-04-19,2022-04-19,株式会社Ｂｉｏｃｏｒｐ,,株式会社,東京都,中央区,日本橋本町２丁目２番２号日本橋本町ＹＳビル２階在日フランス商工会議所,,13,102,1030023,,,,,,,2022-04-19,1,,,,,ビオコープ,0
1743,7010001226017,新規,0,2022-04-19,2022-04-19,Ｂｅｌｌ　Ａｇｒｉ株式会社,,株式会社,東京都,千代田区,大手町１丁目７番２号,,13,101,1000004,,,,,,,2022-04-19,1,,,,,ベルアグリ,0
1745,7010003037478,新規,0,2022-04-19,2022-04-19,合同会社Ｓ．ＣＯＭＰＡＮＹ,,合同会社,東京都,中央区,晴海３丁目１３番２－２５１２号,,13,102,1040053,,,,,,,2022-04-19,1,,,,,エスカンパニー,0
1747,7010005034903,新規,0,2022-04-19,2022-04-19,岡山早島デベロップメント特定目的会社,,その他の設立登記法人,東京都,中央区,日本橋１丁目４番１号日本橋一丁目ビルディング,,13,102,1030027,,,,,,,2022-04-19,1,,,,,オカヤマハヤシマデベロップメント,0
1748,7010101015146,新規,0,2022-04-19,2022-04-19,株式会社みつみオフィス,,株式会社,東京都,八王子市,滝山町１丁目２６７番地６,,13,201,1920011,,,,,,,2022-04-19,1,,,,,ミツミオフィス,0
1755,7010401166903,新規,0,2022-04-19,2022-04-19,株式会社ＫＷＡホールディングス,,株式会社,東京都,港区,虎ノ門１丁目２３番１号ジャフコグループ株式会社内,,13,103,1050001,,,,,,,2022-04-19,1,,,,,ケーダブルエーホールディングス,0
1767,7010603009496,新規,0,2022-04-19,2022-04-19,象鯨管理合同会社,00126331,合同会社,東京都,江東区,亀戸６丁目３１番２－２２０２号,,13,108,1360071,,,,,,,2022-04-19,1,,,,,ゾウゲイカンリ,0
1775,7011001146972,新規,0,2022-04-19,2022-04-19,株式会社ティーマイス,,株式会社,東京都,渋谷区,広尾３丁目９－２７,,13,113,1500012,,,,,,,2022-04-19,1,,,,,ティーマイス,0
1778,7011003014558,新規,0,2022-04-19,2022-04-19,合同会社ｌｉｎｏｓｔｕｄｉｏ,,合同会社,東京都,目黒区,目黒本町３丁目１番７号ハイツ山本２０１,,13,110,1520002,,,,,,,2022-04-19,1,,,,,ライノスタジオ,0
1791,7011401024183,新規,0,2022-04-19,2022-04-19,株式会社ＡＫＭ,,株式会社,東京都,板橋区,舟渡１丁目１５番１５－３０７号,,13,119,1740041,,,,,,,2022-04-19,1,,,,,エーケーエム,0
1795,7011701025237,新規,0,2022-04-19,2022-04-19,株式会社ミタク実業,,株式会社,東京都,江戸川区,北篠崎２丁目２番３号,,13,123,1330053,,,,,,,2022-04-19,1,,,,,ミタクジツギョウ,0
1796,7011701025245,新規,0,2022-04-19,2022-04-19,株式会社ＴＳＵＫＡ,,株式会社,東京都,江戸川区,北葛西２丁目２９番１１－１０１号,,13,123,1340081,,,,,,,2022-04-19,1,,,,,ツカ,0
1808,7012401039097,新規,0,2022-04-19,2022-04-19,株式会社Ｒｅｗｉｎｄ　Ｃｒｅａｔｉｖｅ,,株式会社,東京都,府中市,寿町２丁目９番地の２５寿町レジデンス１０１,,13,206,1830056,,,,,,,2022-04-19,1,,,,,リウィンドクリエイティブ,0
1810,7012803002751,新規,0,2022-04-19,2022-04-19,合同会社田尾企画編集室,,合同会社,東京都,国分寺市,西町１丁目１１番地４８,,13,214,1850035,,,,,,,2022-04-19,1,,,,,タオキカクヘンシュウシツ,0
1812,7013101008895,新規,0,2022-04-19,2022-04-19,株式会社クロスロード,,株式会社,東京都,福生市,大字熊川７９３番地３,,13,218,1970003,,,,,,,2022-04-19,1,,,,,クロスロード,0
1830,7021003011620,新規,0,2022-04-19,2022-04-19,合同会社近藤企画,,合同会社,神奈川県,厚木市,緑ケ丘４丁目３－５４３,,14,212,2430041,,,,,,,2022-04-19,1,,,,,コンドウキカク,0
1836,7030001147822,新規,0,2022-04-19,2022-04-19,株式会社ＧＯＤＡＲＴ,,株式会社,埼玉県,さいたま市南区,松本１丁目１１番５号,,11,108,3360035,,,,,,,2022-04-19,1,,,,,ゴッドアート,0
1845,7040003019903,新規,0,2022-04-19,2022-04-19,合同会社ケイティープラス,,合同会社,千葉県,船橋市,本町４丁目３８番２２－５０５号,,12,204,2730005,,,,,,,2022-04-19,1,,,,,ケイティープラス,0
1847,7060003004044,新規,0,2022-04-19,2022-04-19,Ｐ＆Ｅ　Ｂｌｉｓｓｆｕｌ合同会社,,合同会社,栃木県,宇都宮市,鶴田町７５６番地６号,,09,201,3200851,,,,,,,2022-04-19,1,,,,,ピーアンドイーブリスフル,0
1848,7060005009966,新規,0,2022-04-19,2022-04-19,一般社団法人栃木県レクリエーション協会,,その他の設立登記法人,栃木県,宇都宮市,駒生１丁目１番６号,,09,201,3200066,,,,,,,2022-04-19,1,,,,,,0
1851,7070001039149,新規,0,2022-04-19,2022-04-19,株式会社ＥＢＦ,,株式会社,群馬県,桐生市,相生町１丁目５６７‐３イヤーズクライム１‐Ｂ,,10,203,3760011,,,,,,,2022-04-19,1,,,,,イービーエフ,0
1853,7070003004456,新規,0,2022-04-19,2022-04-19,合同会社負動産の窓口,,合同会社,群馬県,前橋市,石倉町２丁目５―４,,10,201,3710841,,,,,,,2022-04-19,1,,,,,フドウサンノマドグチ,0
1857,7080101023225,新規,0,2022-04-19,2022-04-19,株式会社いぶきぶらん,,株式会社,静岡県,富士市,大淵３５８３番地の９,,22,210,4170801,,,,,,,2022-04-19,1,,,,,イブキブラン,0
1858,7080101023233,新規,0,2022-04-19,2022-04-19,株式会社ＡＩＲ　ＧＲＯＯＶＥ,,株式会社,静岡県,富士市,岩本１８８７番地の８,,22,210,4160901,,,,,,,2022-04-19,1,,,,,エアーグルーヴ,0
1861,7090001017532,新規,0,2022-04-19,2022-04-19,株式会社ＡＯ,,株式会社,山梨県,甲府市,丸の内２丁目２番１号ＣＲＯＳＳ５００、１Ｆ,,19,201,4000031,,,,,,,2022-04-19,1,,,,,アオ,0
1875,7110005016800,新規,0,2022-04-19,2022-04-19,ｉＳＰ司法書士法人,,その他の設立登記法人,新潟県,新潟市中央区,女池神明２丁目３番地３－２Ｂ,,15,103,9500943,,,,,,,2022-04-19,1,,,,,アイエスピー,0
1888,7120001245294,新規,0,2022-04-19,2022-04-19,株式会社ビズ・テクニカ,,株式会社,大阪府,大阪市淀川区,西中島３丁目２３番１５号,,27,123,5320011,,,,,,,2022-04-19,1,,,,,ビズテクニカ,0
1891,7120005022913,新規,0,2022-04-19,2022-04-19,一般社団法人先幸会,,その他の設立登記法人,大阪府,大阪市中央区,南船場１丁目４番１１号モリビル４階,,27,128,5420081,,,,,,,2022-04-19,1,,,,,センコウカイ,0
1896,7120105009546,新規,0,2022-04-19,2022-04-19,一般社団法人日本フレームｄｅレジン協会,,その他の設立登記法人,大阪府,堺市中区,八田南之町４３５番地,,27,142,5998263,,,,,,,2022-04-19,1,,,,,ニホンフレームデレジンキョウカイ,0
1899,7120903004112,新規,0,2022-04-19,2022-04-19,Ｎｉｃｅｄｕｃｋ合同会社,,合同会社,大阪府,箕面市,小野原西６丁目１３－３４サクシード胤４０８,,27,220,5620032,,,,,,,2022-04-19,1,,,,,ナイスダック,0
1904,7130001071608,新規,0,2022-04-19,2022-04-19,アーカイラス株式会社,,株式会社,京都府,京都市下京区,中堂寺南町１３４番地京都高度技術研究所８Ｆ８Ｅ０９,,26,106,6008813,,,,,,,2022-04-19,1,,,,,アーカイラス,0
1915,7140001125701,新規,0,2022-04-19,2022-04-19,株式会社吉永機工,,株式会社,兵庫県,三木市,別所町高木９４９番地の２０８,,28,215,6730435,,,,,,,2022-04-19,1,,,,,ヨシナガキコウ,0
1918,7160001024133,新規,0,2022-04-19,2022-04-19,株式会社エスワンテクト,,株式会社,滋賀県,高島市,マキノ町沢１９２５番地２,,25,212,5201821,,,,,,,2022-04-19,1,,,,,エスワンテクト,0
1928,7180001150638,新規,0,2022-04-19,2022-04-19,株式会社サカイホールディングス,,株式会社,愛知県,江南市,古知野町広見１０番地,,23,217,4838274,,,,,,,2022-04-19,1,,,,,サカイホールディングス,0
1935,7180005019747,新規,0,2022-04-19,2022-04-19,一般社団法人診断改善研究会,,その他の設立登記法人,愛知県,名古屋市中区,丸の内１丁目１４番２４号－４０２,,23,106,4600002,,,,,,,2022-04-19,1,,,,,シンダンカイゼンケンキュウカイ,0
1936,7210001018889,新規,0,2022-04-19,2022-04-19,ヤマトタカハシ株式会社,,株式会社,福井県,福井市,長本町１０３４番地,,18,201,9100844,,,,,,,2022-04-19,1,,,,,ヤマトタカハシ,0
1937,7210005010025,新規,0,2022-04-19,2022-04-19,医療法人みさわクリニック,,その他の設立登記法人,福井県,福井市,舟橋黒竜１丁目１１９,,18,201,9100069,,,,,,,2022-04-19,1,,,,,ミサワクリニック,0
1964,7260003003884,新規,0,2022-04-19,2022-04-19,Ｔａｓ合同会社,,合同会社,岡山県,倉敷市,中島１４４番３サンガーデン倉敷Ｂ１０１,,33,202,7100803,,,,,,,2022-04-19,1,,,,,タス,0
1968,7280005007477,新規,0,2022-04-19,2022-04-19,一般社団法人島根県まちづくり振興公社,,その他の設立登記法人,島根県,鹿足郡吉賀町,柿木３１２番３,,32,505,6995301,,,,,,,2022-04-19,1,,,,,シマネケンマチヅクリシンコウコウシャ,0
1976,7290001097240,新規,0,2022-04-19,2022-04-19,株式会社櫻愛カンパニー,,株式会社,福岡県,福岡市東区,箱崎ふ頭６丁目７－１２,,40,131,8120051,,,,,,,2022-04-19,1,,,,,サクラアイカンパニー,0
1977,7290001097281,新規,0,2022-04-19,2022-04-19,株式会社ＡＬＬＴＡＧ,,株式会社,福岡県,福岡市博多区,東比恵３丁目１６番２６－３０３号,,40,132,8120007,,,,,,,2022-04-19,1,,,,,オールタグ,0
1982,7310001017823,新規,0,2022-04-19,2022-04-19,オフィスブルー株式会社,,株式会社,長崎県,佐世保市,木宮町５番３１号,,42,202,8580916,,,,,,,2022-04-19,1,,,,,オフィスブルー,0
1983,7320003003779,新規,0,2022-04-19,2022-04-19,合同会社白眉コンサルティング,,合同会社,大分県,大分市,末広町１丁目５‐１６,,44,201,8700027,,,,,,,2022-04-19,1,,,,,ハクビコンサルティング,0
1993,7350001017704,新規,0,2022-04-19,2022-04-19,株式会社ＣＩＴＲＵＳ　ＪＡＰＡＮ,,株式会社,宮崎県,日南市,大字平野８０００番地,,45,204,8870015,,,,,,,2022-04-19,1,,,,,シトラスジャパン,0
1996,7360001030243,新規,0,2022-04-19,2022-04-19,株式会社ＫＮＡ,,株式会社,沖縄県,国頭郡宜野座村,字漢那１６３３番地,,47,313,9041304,,,,,,,2022-04-19,1,,,,,ケイエヌエイ,0
1998,7370001048482,新規,0,2022-04-19,2022-04-19,ＢＬＵＥ　ＳＹＳＴＥＭ株式会社,,株式会社,宮城県,仙台市青葉区,上杉３丁目４番４５－１０８号,,04,101,9800011,,,,,,,2022-04-19,1,,,,,ブルーシステム,0
2007,7390001016867,新規,0,2022-04-19,2022-04-19,すいかや‐やまへいＣＷＡ株式会社,,株式会社,山形県,尾花沢市,若葉町３丁目１番２９号,,06,212,9994225,,,,,,,2022-04-19,1,,,,,スイカヤヤマヘイシーダブリューエー,0
2009,7400001015859,新規,0,2022-04-19,2022-04-19,ドリームキャッチ株式会社,,株式会社,岩手県,花巻市,下北万丁目１６１番地３,,03,205,0250054,,,,,,,2022-04-19,1,,,,,ドリームキャッチ,0
2015,7430001086451,新規,0,2022-04-19,2022-04-19,株式会社Ｓｏｌ　ＥＮＥＴＩＣＫ,,株式会社,北海道,札幌市豊平区,美園十一条４丁目２番２０号,,01,105,0620011,,,,,,,2022-04-19,1,,,,,ソルエネティック,0
2019,7460003000894,新規,0,2022-04-19,2022-04-19,合同会社ＥＲＢＥ,,合同会社,北海道,厚岸郡浜中町,姉別北１１６番地,,01,663,0881648,,,,,,,2022-04-19,1,,,,,エーベ,0
2022,7470001019044,新規,0,2022-04-19,2022-04-19,株式会社Ｎ’ｓ　ｉｎｄｕｓｔｒｙ,,株式会社,香川県,坂出市,林田町字川向１４５６番１,,37,203,7620012,,,,,,,2022-04-19,1,,,,,エヌズインダストリー,0
2026,7500001024156,新規,0,2022-04-19,2022-04-19,株式会社ＥＳＳ,,株式会社,愛媛県,松山市,木屋町２丁目４番地７,,38,201,7900821,,,,,,,2022-04-19,1,,,,,イーエスエス,0
2031,7700150107682,新規,0,2022-04-19,2022-04-05,チームまん〇,,その他,埼玉県,草加市,旭町１丁目４－４６ヤマサコーポ３０２,,11,221,3400053,,,,,,,2022-04-05,1,,,,,チームマンマル,0
2032,7700150107724,新規,0,2022-04-19,2022-04-07,京都府テニス協会,,その他,京都府,京都市中京区,壬生東高田町２－１－２１２,,26,104,6048845,,,,,,,2022-04-07,1,,,,,キヨウトフテニスキヨウカイ,0
2033,7700150107939,新規,0,2022-04-19,2022-04-13,華夢工房,,その他,兵庫県,神戸市兵庫区,里山町６５２,,28,105,6520051,,,,,,,2022-04-13,1,,,,,ハナユメコウボウ,0
2040,8010001225793,新規,0,2022-04-19,2022-04-19,株式会社愛＆美,,株式会社,東京都,中央区,銀座５丁目１０－６御幸ビル３階,,13,102,1040061,,,,,,,2022-04-19,1,,,,,アイアンドビー,0
2041,8010001225926,新規,0,2022-04-19,2022-04-19,Ｈｉｎｄａｌｃｏ株式会社,,株式会社,東京都,中央区,日本橋小網町１２番地７日本橋小網ビル８Ｆ,,13,102,1030016,,,,,,,2022-04-19,1,,,,,ヒンダルコ,0
2050,8010401166860,新規,0,2022-04-19,2022-04-19,株式会社ＰＯＰＯ,,株式会社,東京都,港区,浜松町２丁目２番１５号浜松町ダイヤビル２Ｆ,,13,103,1050013,,,,,,,2022-04-19,1,,,,,ポポ,0
2051,8010401166877,新規,0,2022-04-19,2022-04-19,ｅｂｉｓｕ株式会社,,株式会社,東京都,港区,芝浦４丁目２１番１－４６１１号,,13,103,1080023,,,,,,,2022-04-19,1,,,,,エビス,0
2059,8010601061011,新規,0,2022-04-19,2022-04-19,株式会社ふらっとぴーち,,株式会社,東京都,墨田区,向島５丁目１９番１０－２０１号,,13,107,1310033,,,,,,,2022-04-19,1,,,,,フラットピーチ,0
2061,8010603009495,新規,0,2022-04-19,2022-04-19,合同会社エンジェル,,合同会社,東京都,墨田区,緑４丁目５番１５号ルクレ墨田緑Ｉ３０２,00126326,13,107,1300021,,,,,,,2022-04-19,1,,,,,エンジェル,0
2063,8010701042497,新規,0,2022-04-19,2022-04-19,株式会社ｅｔｅｎｏｉｒ,,株式会社,東京都,品川区,北品川１丁目３０番９号,,13,109,1400001,,,,,,,2022-04-19,1,,,,,エテノワール,0
2075,8011001146947,新規,0,2022-04-19,2022-04-19,株式会社いいよね,,株式会社,東京都,渋谷区,千駄ヶ谷２丁目２９番８号さかえビル１階マイガレージ,,13,113,1510051,,,,,,,2022-04-19,1,,,,,イイヨネ,0
2076,8011001146955,新規,0,2022-04-19,2022-04-19,サイクルネット株式会社,,株式会社,東京都,渋谷区,千駄ヶ谷１丁目５番１号,,13,113,1510051,,,,,,,2022-04-19,1,,,,,サイクルネット,0
2077,8011005009547,新規,0,2022-04-19,2022-04-19,一般社団法人日本セラピーメイト協会,,その他の設立登記法人,東京都,渋谷区,鶯谷町１７－１５,,13,113,1500032,,,,,,,2022-04-19,1,,,,,ニッポンセラピーメイトキョウカイ,0
2085,8011101098584,新規,0,2022-04-19,2022-04-19,株式会社峰誠コーポレーション,,株式会社,東京都,新宿区,大久保１丁目１－３０－１０１,,13,104,1690072,,,,,,,2022-04-19,1,,,,,ホウセイコーポレーション,0
2087,8011301027731,新規,0,2022-04-19,2022-04-19,株式会社ＬａｌａＮｏａ,,株式会社,東京都,杉並区,下高井戸２丁目１番１０号イヤシロチ下高井戸０５,,13,115,1680073,,,,,,,2022-04-19,1,,,,,ララノア,0
2088,8011401024174,新規,0,2022-04-19,2022-04-19,株式会社ＭＩＦＲ,,株式会社,東京都,板橋区,成増５丁目１９番１４－６０１号,,13,119,1750094,,,,,,,2022-04-19,1,,,,,ミイファ,0
2089,8011403003630,新規,0,2022-04-19,2022-04-19,合同会社ＡＫ,,合同会社,東京都,板橋区,上板橋３丁目１４番１２号,,13,119,1740076,,,,,,,2022-04-19,1,,,,,エーケー,0
2095,8011701025236,新規,0,2022-04-19,2022-04-19,ヴィラーツ株式会社,,株式会社,東京都,江戸川区,西瑞江３丁目２番地８ＭＡＤＯ・ＴＥＲＲＡＣＥ・ＤＯＭＡ・ＴＥＲＲＡＣＥ１１,,13,123,1320015,,,,,,,2022-04-19,1,,,,,ヴィラーツ,0
2096,8011701025244,新規,0,2022-04-19,2022-04-19,株式会社おおまつばら,,株式会社,東京都,江戸川区,篠崎町２丁目２３番２０－１０１号,,13,123,1330061,,,,,,,2022-04-19,1,,,,,オオマツバラ,0
2102,8012403005328,新規,0,2022-04-19,2022-04-19,松尾商会合同会社,,合同会社,東京都,調布市,菊野台２丁目５３番地１５,,13,208,1820007,,,,,,,2022-04-19,1,,,,,マツオショウカイ,0
2123,8030001147813,新規,0,2022-04-19,2022-04-19,株式会社島崎組,00126330,株式会社,埼玉県,さいたま市見沼区,大字大谷１５２８番地１４,,11,104,3370014,,,,,,,2022-04-19,1,,,,,,0
2129,8030003019234,新規,0,2022-04-19,2022-04-19,合同会社ロータス,,合同会社,埼玉県,行田市,長野４丁目７番地３６,,11,206,3610023,,,,,,,2022-04-19,1,,,,,ロータス,0
2130,8030003019267,新規,0,2022-04-19,2022-04-19,合同会社Ｍａｈａｌｏ,,合同会社,埼玉県,さいたま市見沼区,東大宮４丁目７３－３－１０４,,11,104,3370051,,,,,,,2022-04-19,1,,,,,マハロ,0
2133,8040003019902,新規,0,2022-04-19,2022-04-19,合同会社ｌｉｅｎ,,合同会社,千葉県,千葉市中央区,富士見２丁目７番９号富士見ビル６０９号,,12,101,2600015,,,,,,,2022-04-19,1,,,,,リアン,0
2135,8050001050965,新規,0,2022-04-19,2022-04-19,株式会社一大心工業,,株式会社,茨城県,那珂市,菅谷６２７６番地１,,08,226,3110105,,,,,,,2022-04-19,1,,,,,ヒダイシンコウギョウ,0
2136,8050003006511,新規,0,2022-04-19,2022-04-19,合同会社ぱまや,,合同会社,茨城県,筑西市,松原１２５８番地４,,08,227,3004541,,,,,,,2022-04-19,1,,,,,パマヤ,0
2146,8080101023224,新規,0,2022-04-19,2022-04-19,株式会社スタイルフリー,,株式会社,静岡県,伊豆の国市,北江間４７８番地,,22,225,4102223,,,,,,,2022-04-19,1,,,,,スタイルフリー,0
2147,8080101023232,新規,0,2022-04-19,2022-04-19,株式会社ＢＡＳＥ,,株式会社,静岡県,富士市,富士見台６丁目５番地の７,,22,210,4170851,,,,,,,2022-04-19,1,,,,,ベース,0
2161,8090001017531,新規,0,2022-04-19,2022-04-19,株式会社グリーンプランニング,,株式会社,山梨県,大月市,猿橋町桂台２丁目１８番地５,,19,206,4090618,,,,,,,2022-04-19,1,,,,,グリーンプランニング,0
2169,8110001036594,新規,0,2022-04-19,2022-04-19,裳衣之路服装設計株式会社,,株式会社,新潟県,新潟市江南区,梅見台２丁目７番６号,,15,104,9500140,,,,,,,2022-04-19,1,,,,,ショイウシロフクソウセッケイ,0
2186,8120001245293,新規,0,2022-04-19,2022-04-19,株式会社エーペックス,,株式会社,大阪府,大阪市阿倍野区,美章園２丁目６番４号西,,27,119,5450003,,,,,,,2022-04-19,1,,,,,エーペックス,0
2187,8120001245310,新規,0,2022-04-19,2022-04-19,相本設備株式会社,,株式会社,大阪府,大阪市淀川区,十八条１丁目４番２８－１０４号,,27,123,5320001,,,,,,,2022-04-19,1,,,,,アイモトセツビ,0
2193,8120101065352,新規,0,2022-04-19,2022-04-19,株式会社角野工業,,株式会社,大阪府,松原市,東新町３丁目２番１４号,,27,217,5800024,,,,,,,2022-04-19,1,,,,,,0
2194,8120101065443,新規,0,2022-04-19,2022-04-19,園部運送株式会社,,株式会社,大阪府,岸和田市,戎町７番２３号,,27,202,5960022,,,,,,,2022-04-19,1,,,,,ソノベウンソウ,0
2195,8120103004663,新規,0,2022-04-19,2022-04-19,合同会社ａｌｌｅｇｒｏｄｉｐｉｔｙ,,合同会社,大阪府,松原市,松ケ丘４丁目２３番３号,,27,217,5800042,,,,,,,2022-04-19,1,,,,,アレグロディピティ,0
2205,8140001125709,新規,0,2022-04-19,2022-04-19,株式会社Ｍａｔｓｕｄａｉｒａ,,株式会社,兵庫県,神戸市北区,鈴蘭台東町７丁目４番５号,,28,109,6511112,,,,,,,2022-04-19,1,,,,,マツダイラ,0
2217,8180001150926,新規,0,2022-04-19,2022-04-19,フォレストオート株式会社,,株式会社,愛知県,一宮市,萩原町萩原字押切１７番地５,,23,203,4910353,,,,,,,2022-04-19,1,,,,,フォレストオート,0
2218,8180001150950,新規,0,2022-04-19,2022-04-19,株式会社ＴＡＫＵＹＵ,,株式会社,愛知県,名古屋市名東区,藤巻町２丁目２番地の１２７６,,23,115,4650075,,,,,,,2022-04-19,1,,,,,タクユー,0
2224,8180005019746,新規,0,2022-04-19,2022-04-19,一般社団法人未来を拓く学校づくり研究会,,その他の設立登記法人,愛知県,名古屋市西区,那古野２丁目１４番１号,,23,104,4510042,,,,,,,2022-04-19,1,,,,,ミライヲヒラクガッコウヅクリケンキュウカイ,0
2228,8180303005299,新規,0,2022-04-19,2022-04-19,ＮＮサービス合同会社,,合同会社,愛知県,豊田市,山之手２丁目１０７番地サンポール山之手１０４号,,23,211,4710833,,,,,,,2022-04-19,1,,,,,エヌエヌサービス,0
2230,8200001039984,新規,0,2022-04-19,2022-04-19,株式会社いんくるファーム,,株式会社,岐阜県,岐阜市,柳津町下佐波４丁目１番地,,21,201,5016121,,,,,,,2022-04-19,1,,,,,インクルファーム,0
2231,8200001039992,新規,0,2022-04-19,2022-04-19,株式会社高山トラベル,,株式会社,岐阜県,高山市,本町３丁目１９番地,,21,203,5060011,,,,,,,2022-04-19,1,,,,,タカヤマトラベル,0
2237,8210005010024,新規,0,2022-04-19,2022-04-19,医療法人ひらざわハート,,その他の設立登記法人,福井県,福井市,西谷２丁目２１１３番地,,18,201,9188023,,,,,,,2022-04-19,1,,,,,ヒラザワハート,0
2242,8220001024811,新規,0,2022-04-19,2022-04-19,リアン株式会社,,株式会社,石川県,かほく市,木津ハ５９番地１,,17,209,9291171,,,,,,,2022-04-19,1,,,,,リアン,0
2252,8240001059649,新規,0,2022-04-19,2022-04-19,ｋｉｒｉｎ株式会社,,株式会社,広島県,広島市東区,牛田本町２丁目１番２－２０４号,,34,102,7320066,,,,,,,2022-04-19,1,,,,,キリン,0
2262,8270001008495,新規,0,2022-04-19,2022-04-19,ヤマトＨＤ株式会社,,株式会社,鳥取県,鳥取市,卯垣１３０番地１３,,31,201,6800074,,,,,,,2022-04-19,1,,,,,ヤマトホールディングス,0
2270,8290003012394,新規,0,2022-04-19,2022-04-19,ねもふぃ合同会社,,合同会社,福岡県,福岡市中央区,天神２丁目３番１０号天神パインクレスト７１９号,,40,133,8100001,,,,,,,2022-04-19,1,,,,,ネモフィ,0
2280,8320003003778,新規,0,2022-04-19,2022-04-19,合同会社ＴＢＡＭ,,合同会社,大分県,別府市,石垣西６丁目２番２６号,,44,202,8740910,,,,,,,2022-04-19,1,,,,,ティービーエーエム,0
2290,8360001030275,新規,0,2022-04-19,2022-04-19,株式会社ハウスシッターふどうさん,,株式会社,沖縄県,うるま市,字川崎３９１伊野波アパート２０２号室,,47,213,9042203,,,,,,,2022-04-19,1,,,,,ハウスシッターフドウサン,0
2292,8360003011950,新規,0,2022-04-19,2022-04-19,島唐食品合同会社,,合同会社,沖縄県,宮古島市,上野字宮国３２番地１２,,47,214,9060203,,,,,,,2022-04-19,1,,,,,,0
2293,8380001032757,新規,0,2022-04-19,2022-04-19,レムサスウェル株式会社,,株式会社,福島県,大沼郡会津美里町,字高田甲２８９１番地１,,07,447,9696264,,,,,,,2022-04-19,1,,,,,レムサスウェル,0
2298,8390003001949,新規,0,2022-04-19,2022-04-19,合同会社カジワラ,,合同会社,山形県,酒田市,北沢字新川作２番地の２,,06,204,9980801,,,,,,,2022-04-19,1,,,,,カジワラ,0
2304,8430001086418,新規,0,2022-04-19,2022-04-19,株式会社ファーム白倉,,株式会社,北海道,空知郡南幌町,南９線西１３番地,,01,423,0690209,,,,,,,2022-04-19,1,,,,,ファームシラクラ,0
2305,8430001086450,新規,0,2022-04-19,2022-04-19,株式会社イディアルＩ,,株式会社,北海道,苫小牧市,美原町３丁目１９番２２号,,01,213,0591262,,,,,,,2022-04-19,1,,,,,イディアルアイ,0
2306,8430001086459,新規,0,2022-04-19,2022-04-19,株式会社関伸工業,,株式会社,北海道,札幌市北区,新琴似八条１５丁目８番１０号,,01,102,0010908,,,,,,,2022-04-19,1,,,,,セキシンコウギョウ,0
2318,8500001024163,新規,0,2022-04-19,2022-04-19,株式会社ＳＥＩＷＡ,,株式会社,愛媛県,今治市,小浦町１丁目４番５２号今治造船株式会社内,,38,202,7992111,,,,,,,2022-04-19,1,,,,,セイワ,0
2320,8700150107624,新規,0,2022-04-19,2022-04-01,ＥＮＳＥＭＢＬＥ　ＩＭＭＡＧＩＮＥ,,その他,東京都,新宿区,北新宿３丁目４０－１４クレストレジデンス東中野２０６,,13,104,1690074,,,,,,,2022-04-01,1,,,,,アンサンブルイマージネ,0
2326,9010001225768,新規,0,2022-04-19,2022-04-19,株式会社ＤａｎＲａｎ,,株式会社,東京都,中央区,日本橋久松町４－７グリームス日本橋８階,,13,102,1030005,,,,,,,2022-04-19,1,,,,,,0
2327,9010001225801,新規,0,2022-04-19,2022-04-19,株式会社むつみ,,株式会社,東京都,中央区,佃２丁目１０－９ライオンズタワー月島２４０９,,13,102,1040051,,,,,,,2022-04-19,1,,,,,ムツミ,0
2328,9010001225859,新規,0,2022-04-19,2022-04-19,株式会社さくら,,株式会社,東京都,千代田区,九段北１丁目の２,,13,101,1020073,,,,,,,2022-04-19,1,,,,,サクラ,0
2329,9010001225900,新規,0,2022-04-19,2022-04-19,株式会社世界１のブランチ,,株式会社,東京都,千代田区,神田駿河台２丁目５番１号住友不動産御茶ノ水ファーストビル８Ｆ,,13,101,1010062,,,,,,,2022-04-19,1,,,,,セカイイチノブランチ,0
2330,9010001226023,新規,0,2022-04-19,2022-04-19,日本医薬研究院株式会社,,株式会社,東京都,中央区,東日本橋２丁目２８番５号５０８,,13,102,1030004,,,,,,,2022-04-19,1,,,,,ニホンイヤクケンキュウイン,0
2332,9010003037427,新規,0,2022-04-19,2022-04-19,合同会社ｙｏｍｉｂａｓｈｏ,,合同会社,東京都,中央区,湊２丁目１１番１シティタワー銀座東１７１７,,13,102,1040043,,,,,,,2022-04-19,1,,,,,ヨミバショ,0
2333,9010003037492,新規,0,2022-04-19,2022-04-19,ＭＡＩＤＯ　Ｃｏｎｓｕｌｔｉｎｇ合同会社,,合同会社,東京都,千代田区,平河町２丁目５番５号全国旅館会館４Ｆ,,13,101,1020093,,,,,,,2022-04-19,1,,,,,マイドコンサルティング,0
2334,9010101015144,新規,0,2022-04-19,2022-04-19,株式会社マネーラボ,,株式会社,東京都,八王子市,北野町５３６番地１ブリーズコート北野３０１号,,13,201,1920906,,,,,,,2022-04-19,1,,,,,マネーラボ,0
2337,9010401166769,新規,0,2022-04-19,2022-04-19,株式会社ＣＤ３４‐ｃｅｌｌ,,株式会社,東京都,港区,赤坂５丁目２番４１号赤坂サンクビル２０１号,,13,103,1070052,,,,,,,2022-04-19,1,,,,,シーディーマイナスセル,0
2338,9010401166884,新規,0,2022-04-19,2022-04-19,株式会社ＫＡエステート,,株式会社,東京都,港区,高輪３丁目１９番４４－２０３号,,13,103,1080074,,,,,,,2022-04-19,1,,,,,ケーエーエステート,0
2341,9010501048727,新規,0,2022-04-19,2022-04-19,株式会社ＢＲＩＧＨＴ・Ｂ,,株式会社,東京都,台東区,上野３丁目１６番２号,,13,106,1100005,,,,,,,2022-04-19,1,,,,,ブライトビー,0
2347,9010601060961,新規,0,2022-04-19,2022-04-19,株式会社フルール,,株式会社,東京都,江東区,亀戸２丁目３３番１０号ＳＴプラザ亀戸４０２号室,,13,108,1360071,,,,,,,2022-04-19,1,,,,,フルール,0
2352,9010701042513,新規,0,2022-04-19,2022-04-19,ＷｅＰｌａｙ株式会社,,株式会社,東京都,品川区,西五反田２丁目１１番１５－６０３室,,13,109,1410031,,,,,,,2022-04-19,1,,,,,ウィプレー,0
2358,9010801032901,新規,0,2022-04-19,2022-04-19,株式会社ＳｈｉｒｕＢｅ,,株式会社,東京都,大田区,大森西１丁目１５番１３号,,13,111,1430015,,,,,,,2022-04-19,1,,,,,シルベ,0
2366,9011001146954,新規,0,2022-04-19,2022-04-19,株式会社ＮＯＲＡＮＥＣＯ,,株式会社,東京都,渋谷区,神宮前６丁目１９－１５－５階,,13,113,1500001,,,,,,,2022-04-19,1,,,,,ノラネコ,0
2372,9011101098609,新規,0,2022-04-19,2022-04-19,株式会社ＨＩＧＨＥＳＴ,,株式会社,東京都,新宿区,西新宿３丁目７番１号新宿パークタワーＮ３０Ｆ,,13,104,1600023,,,,,,,2022-04-19,1,,,,,ハイエスト,0
2375,9011401024173,新規,0,2022-04-19,2022-04-19,株式会社まてい社,,株式会社,東京都,板橋区,成増１丁目２７番１７号ライオンズマンション成増第五２１３,,13,119,1750094,,,,,,,2022-04-19,1,,,,,マテイシャ,0
2384,9011701025235,新規,0,2022-04-19,2022-04-19,株式会社京葉ライフテック,,株式会社,東京都,江戸川区,篠崎町１丁目３９番９号,,13,123,1330061,,,,,,,2022-04-19,1,,,,,ケイヨウライフテック,0
2385,9011701025243,新規,0,2022-04-19,2022-04-19,隆天国際株式会社,,株式会社,東京都,江戸川区,松島３丁目３番１号幸栄ハイツ１０５,,13,123,1320031,,,,,,,2022-04-19,1,,,,,リュウテンコクサイ,0
2386,9011703003123,新規,0,2022-04-19,2022-04-19,Ｂｌｕｅ　Ｓｔａｒｔ合同会社,,合同会社,東京都,江戸川区,南小岩５丁目９－１１,,13,123,1330056,,,,,,,2022-04-19,1,,,,,ブルースタート,0
2392,9012401039104,新規,0,2022-04-19,2022-04-19,ＧＡＮＥＳＨＡ　ＥＮＴＥＲＰＲＩＳＥＳ株式会社,,株式会社,東京都,武蔵野市,吉祥寺本町１丁目２０番１２号芙蓉荘１－５号室,,13,203,1800004,,,,,,,2022-04-19,1,,,,,ガネーシャエンタープライゼズ,0
2393,9012801021520,新規,0,2022-04-19,2022-04-19,株式会社ＭＡ　ＧＬＯＢＡＬ,,株式会社,東京都,立川市,錦町１丁目４番２０号ＴＳＣビル６Ｆ,,13,202,1900022,,,,,,,2022-04-19,1,,,,,エイムエーグロバール,0
2411,9021001075748,新規,0,2022-04-19,2022-04-19,ユナイテッド・メンバーズ株式会社,,株式会社,神奈川県,鎌倉市,材木座６丁目９番４６号,,14,204,2480013,,,,,,,2022-04-19,1,,,,,ユナイテッドメンバーズ,0
2419,9030003019217,新規,0,2022-04-19,2022-04-19,華平工業合同会社,,合同会社,埼玉県,蕨市,塚越７丁目１８－１５,,11,223,3350002,,,,,,,2022-04-19,1,,,,,カヘイコウギョウ,0
2420,9030003019266,新規,0,2022-04-19,2022-04-19,合同会社ｄｅｃｅｎｔ,,合同会社,埼玉県,日高市,大字梅原１８８番地１,,11,242,3501246,,,,,,,2022-04-19,1,,,,,ディーセント,0
2422,9040001123085,新規,0,2022-04-19,2022-04-19,株式会社トラスエス,,株式会社,千葉県,市川市,大和田２丁目１０番１７号,,12,203,2720025,,,,,,,2022-04-19,1,,,,,トラスエス,0
2423,9040001123093,新規,0,2022-04-19,2022-04-19,株式会社三洋工事,,株式会社,千葉県,千葉市緑区,おゆみ野中央４丁目３０番地１サンヴィレッジおゆみ野Ｄ－２０１号,,12,105,2660032,,,,,,,2022-04-19,1,,,,,サンヨウコウジ,0
2424,9040001123102,新規,0,2022-04-19,2022-04-19,株式会社ブリエ,,株式会社,千葉県,山武市,椎崎３３９番地１,,12,237,2891205,,,,,,,2022-04-19,1,,,,,ブリエ,0
2430,9040005021574,新規,0,2022-04-19,2022-04-19,一般社団法人かずさ総研,,その他の設立登記法人,千葉県,木更津市,清見台南３丁目４番２１号,,12,206,2920042,,,,,,,2022-04-19,1,,,,,カズサソウケン,0
2433,9050003006510,新規,0,2022-04-19,2022-04-19,住居ハウス合同会社,,合同会社,茨城県,つくば市,自由ケ丘８２０番地１２,,08,220,3001266,,,,,,,2022-04-19,1,,,,,スマイルハウス,0
2434,9060001034784,新規,0,2022-04-19,2022-04-19,株式会社ライブハピリー,,株式会社,栃木県,鹿沼市,上奈良部町２番地８０,,09,205,3220522,,,,,,,2022-04-19,1,,,,,ライブハピリー,0
2435,9060003004042,新規,0,2022-04-19,2022-04-19,合同会社トチワン,,合同会社,栃木県,宇都宮市,元今泉１丁目１９番５号,,09,201,3210954,,,,,,,2022-04-19,1,,,,,,0
2443,9080003002787,新規,0,2022-04-19,2022-04-19,ａｎｓａｎｂｏｗ合同会社,,合同会社,静岡県,焼津市,大住９９番地,,22,212,4250072,,,,,,,2022-04-19,1,,,,,アンサンボウ,0
2449,9100001035258,新規,0,2022-04-19,2022-04-19,株式会社リアシン,,株式会社,長野県,長野市,大字鶴賀上千歳町１４１２－５中部ちとせビル２階,,20,201,3800821,,,,,,,2022-04-19,1,,,,,リアシン,0
2452,9110005016798,新規,0,2022-04-19,2022-04-19,一般社団法人つなぐらいふ,,その他の設立登記法人,新潟県,新発田市,荒町甲１５２１番地,,15,206,9592311,,,,,,,2022-04-19,1,,,,,ツナグライフ,0
2465,9120001245276,新規,0,2022-04-19,2022-04-19,ＨＴＳ　ＪＡＰＡＮ株式会社,,株式会社,大阪府,大阪市中央区,島之内２丁目１２番１６号八代ビル３階,,27,128,5420082,,,,,,,2022-04-19,1,,,,,エイチティエスジャパン,0
2477,9120101065351,新規,0,2022-04-19,2022-04-19,三井金属パーライト株式会社,,株式会社,大阪府,貝塚市,港１４番地,,27,208,5970095,,,,,,,2022-04-19,1,,,,,ミツイキンゾクパーライト,0
2478,9120101065426,新規,0,2022-04-19,2022-04-19,株式会社ｃｕｄｄｌｅ,,株式会社,大阪府,泉佐野市,大宮町５番１４号,,27,213,5980053,,,,,,,2022-04-19,1,,,,,カドゥル,0
2488,9140001125724,新規,0,2022-04-19,2022-04-19,遅宗信建築設計事務所株式会社,,株式会社,兵庫県,神戸市中央区,東町１１６番地の２,,28,110,6500031,,,,,,,2022-04-19,1,,,,,チムネノブケンチクセッケイジムショ,0
2502,9180001150883,新規,0,2022-04-19,2022-04-19,株式会社ＴＨＥ　ＺＡＩＮ　ＡＵＴＯ,,株式会社,愛知県,清須市,寺野池端６０番地西棟,,23,233,4520908,,,,,,,2022-04-19,1,,,,,ザゼンオート,0
2505,9180003023732,新規,0,2022-04-19,2022-04-19,ＹＵｋａｓＩ合同会社,,合同会社,愛知県,名古屋市昭和区,塩付通３丁目１番地の５サンマンション御器所８１１,,23,107,4660022,,,,,,,2022-04-19,1,,,,,ユカシ,0
2508,9180005019745,新規,0,2022-04-19,2022-04-19,税理士法人ＬＥＣＴ,,その他の設立登記法人,愛知県,名古屋市中区,大須３丁目２番１５号栄南ＫＴビル２階,,23,106,4600011,,,,,,,2022-04-19,1,,,,,レクト,0
2510,9180301036139,新規,0,2022-04-19,2022-04-19,芳賀板金株式会社,,株式会社,愛知県,豊川市,美園３丁目１１番地２５,,23,207,4410106,,,,,,,2022-04-19,1,,,,,ハガバンキン,0
2520,9200001039991,新規,0,2022-04-19,2022-04-19,ＡＸＥＥＺ株式会社,,株式会社,岐阜県,岐阜市,沖ノ橋町２丁目４番地２,,21,201,5008305,,,,,,,2022-04-19,1,,,,,アクシーズ,0
2537,9240003005591,新規,0,2022-04-19,2022-04-19,合同会社あしかきね,,合同会社,広島県,広島市西区,南観音３丁目２番２３号,,34,104,7330035,,,,,,,2022-04-19,1,,,,,アシカキネ,0
2540,9250001019510,新規,0,2022-04-19,2022-04-19,株式会社日建,,株式会社,山口県,山口市,大内長野６１番地１,,35,203,7530211,,,,,,,2022-04-19,1,,,,,ニッケン,0
2544,9260001036769,新規,0,2022-04-19,2022-04-19,ＴＲＵＳＴ　ＷＯＲＫ株式会社,,株式会社,岡山県,岡山市北区,御津新庄３１７０番地１,,33,101,7092106,,,,,,,2022-04-19,1,,,,,トラストワーク,0
2554,9290001097247,新規,0,2022-04-19,2022-04-19,株式会社ブレイブプラス,,株式会社,福岡県,福岡市中央区,平尾浄水町９番５－４０２号,,40,133,8100029,,,,,,,2022-04-19,1,,,,,ブレイブプラス,0
2555,9290801028450,新規,0,2022-04-19,2022-04-19,ユウシン株式会社,,株式会社,福岡県,北九州市八幡西区,香月西１丁目１７番５号,,40,109,8071103,,,,,,,2022-04-19,1,,,,,,0
2568,9320001019016,新規,0,2022-04-19,2022-04-19,株式会社ＡＸＩＳ,,株式会社,大分県,大分市,大在中央１丁目８番１０号,,44,201,8700251,,,,,,,2022-04-19,1,,,,,アクシス,0
2569,9320005009987,新規,0,2022-04-19,2022-04-19,社会福祉法人新緑会,,その他の設立登記法人,大分県,日田市,本町８番２０号,,44,204,8770014,,,,,,,2022-04-19,1,,,,,シンリョクカイ,0
2580,9360001030258,新規,0,2022-04-19,2022-04-19,ＢＡＬ株式会社,,株式会社,沖縄県,那覇市,久茂地２丁目３番１１号レナトス久茂地７階,,47,201,9000015,,,,,,,2022-04-19,1,,,,,バル,0
2581,9360003011941,新規,0,2022-04-19,2022-04-19,合同会社かりゆし設計,,合同会社,沖縄県,沖縄市,泡瀬１丁目１番１９号,,47,211,9042172,,,,,,,2022-04-19,1,,,,,,0
2582,9360005006642,新規,0,2022-04-19,2022-04-19,ＮＰＯ法人ちむ美らゆいまーる連合会,,その他の設立登記法人,沖縄県,宜野湾市,愛知２丁目１０番１３号,,47,205,9012206,,,,,,,2022-04-19,1,,,,,チムチュラユイマールレンゴウカイ,0
2602,9410001013166,新規,0,2022-04-19,2022-04-19,株式会社めぐるめぐ,,株式会社,秋田県,にかほ市,象潟町小滝字石名坂２３番地,,05,214,0180153,,,,,,,2022-04-19,1,,,,,メグルメグ,0
2606,9430001086458,新規,0,2022-04-19,2022-04-19,株式会社ツルイコーポレーション,,株式会社,北海道,札幌市中央区,南十九条西１０丁目１番１５－２０４号,,01,101,0640919,,,,,,,2022-04-19,1,,,,,ツルイコーポレーション,0
2607,9430001086482,新規,0,2022-04-19,2022-04-19,株式会社ＳＭＧＣ,,株式会社,北海道,滝川市,江部乙町東１２丁目１８４３番地３３,,01,225,0790463,,,,,,,2022-04-19,1,,,,,エスエムジーシー,0
