sequenceNumber,corporateNumber,process,correct,updateDate,changeDate,name,nameImageId,kind,prefectureName,cityName,streetNumber,addressImageId,prefectureCode,cityCode,postCode,addressOutside,addressOutsideImageId,closeDate,closeCause,successorCorporateNumber,changeCause,assignmentDate,latest,enName,enPrefectureName,enCityName,enAddressOutside,furigana,hihyoji
4,1010001044647,登記記録の閉鎖等,0,2023-04-28,2023-04-14,株式会社山昌商店,,株式会社,東京都,中央区,日本橋人形町１丁目１３番９－６０６号,,13,102,1030013,,,2023-04-14,清算の結了等,,,2015-10-05,1,,,,,ヤマショウショウテン,0
7,1010001121157,登記記録の閉鎖等,0,2023-04-28,2023-04-25,株式会社ＪＴＢメディアリテーリング,,株式会社,東京都,文京区,小日向４丁目６番１５号,,13,105,1120006,,,2023-04-25,合併による解散等,8010701012863,令和５年４月１日東京都品川区東品川二丁目３番１１号株式会社ＪＴＢ（8010701012863）に合併し解散,2015-10-05,1,,,,,ジェイティービーメディアリテーリング,0
38,1010401123538,登記記録の閉鎖等,0,2023-04-28,2023-04-21,ＡＮＡ　Ｃｒｅａｔｉｖｅ　Ｏｐｅｒａｔｉｏｎ　Ｓｅｒｖｉｃｅｓ株式会社,,株式会社,東京都,中央区,銀座６丁目１０番１号,,13,102,1040061,,,2023-04-21,合併による解散等,3010401036985,令和５年４月１日東京都港区東新橋一丁目５番２号全日空商事株式会社（3010401036985）に合併し解散,2016-03-08,1,,,,,エーエヌエークリエイティブオペレーションサービス,0
39,1010401126615,登記記録の閉鎖等,0,2023-04-28,2023-04-10,ｅ．シッピング株式会社,,株式会社,東京都,港区,新橋１丁目１１番７号,,13,103,1050004,,,2023-04-10,清算の結了等,,,2016-08-22,1,,,,,イードットシッピング,0
53,1010803003692,登記記録の閉鎖等,0,2023-04-28,2023-04-17,合同会社Ａｎｇｅｌｏｕｓ,,合同会社,東京都,大田区,蒲田５丁目２０番３号,,13,111,1440052,,,2023-04-17,清算の結了等,,,2021-03-25,1,,,,,アンジェラス,0
56,1010901024351,登記記録の閉鎖等,0,2023-04-28,2023-04-24,ｒｅｖｓ株式会社,,株式会社,東京都,世田谷区,池尻２丁目４番５号２０１Ｂ,,13,112,1540001,,,2023-04-24,清算の結了等,,,2015-10-05,1,,,,,レブス,0
98,1013105000284,登記記録の閉鎖等,0,2023-04-28,2023-04-25,医療法人社団惠心会,,その他の設立登記法人,東京都,福生市,加美平３丁目３４番地５,,13,218,1970012,,,2023-04-25,清算の結了等,,,2015-10-05,1,,,,,ケイシンカイ,0
107,1020002053984,登記記録の閉鎖等,0,2023-04-28,2023-04-13,ディーシー動物病院有限会社,,有限会社,神奈川県,横浜市鶴見区,東寺尾６丁目５番２６号,,14,101,2300077,,,2023-04-13,清算の結了等,,,2015-10-05,1,,,,,ディーシードウブツビョウイン,0
108,1021001005621,登記記録の閉鎖等,0,2023-04-28,2023-04-25,相模ハム株式会社,,株式会社,神奈川県,藤沢市,遠藤４２６２番地,,14,205,2520816,,,2023-04-25,合併による解散等,7430001027950,令和５年４月１日大阪市中央区南船場二丁目１２番８号エア・ウォーターアグリ＆フーズ株式会社（7430001027950）に合併し解散,2015-10-05,1,,,,,サガミハム,0
126,1040001000622,登記記録の閉鎖等,0,2023-04-28,2023-04-17,株式会社市川ソフトラボラトリー,,株式会社,東京都,千代田区,富士見２丁目７番２号,,13,101,1020071,,,2023-04-17,合併による解散等,2010001073884,令和５年４月１日東京都千代田区富士見二丁目７番２号アイ・ティ・エル株式会社（2010001073884）に合併し解散,2015-10-05,1,,,,,イチカワソフトラボラトリー,0
150,1050001019447,登記記録の閉鎖等,0,2023-04-28,2023-04-24,株式会社ＡＥＲＯ,,株式会社,茨城県,古河市,大山１７３０番地４,,08,204,3060052,,,2023-04-24,清算の結了等,,,2015-10-05,1,,,,,,0
152,1050002039304,登記記録の閉鎖等,0,2023-04-28,2023-04-21,有限会社エフ・アンド・エフ,,有限会社,茨城県,つくばみらい市,筒戸１８２２番地２,,08,235,3002435,,,2023-04-21,清算の結了等,,,2015-10-05,1,,,,,エフアンドエフ,0
158,1070001024255,登記記録の閉鎖等,0,2023-04-28,2023-04-24,株式会社ＦｕＲｕＹａ,,株式会社,群馬県,太田市,新田早川町１７９番地,,10,205,3700344,,,2023-04-24,清算の結了等,,,2015-10-05,1,,,,,フルヤ,0
161,1090001013751,登記記録の閉鎖等,0,2023-04-28,2023-04-26,ＦＯＭＡＬＨＡＵＴ　ＤＥＳＩＧＮ株式会社,,株式会社,山梨県,甲府市,飯田４丁目７番１４号,,19,201,4000035,,,2023-04-26,清算の結了等,,,2015-10-05,1,,,,,フォーマルハウトデザイン,0
169,1120001239434,登記記録の閉鎖等,0,2023-04-28,2023-04-26,海燕株式会社,,株式会社,大阪府,大阪市生野区,巽中３丁目１１番４号,00123785,27,116,5440013,,,2023-04-26,清算の結了等,,,2021-07-30,1,,,,,ウミツバメ,0
190,1140001119873,登記記録の閉鎖等,0,2023-04-28,2023-04-24,株式会社ｓｏｌｅｉｌ,,株式会社,兵庫県,神戸市長田区,西尻池町１丁目２番２５号,,28,106,6530031,,,2023-04-24,合併による解散等,1140002024288,令和５年４月２４日神戸市長田区西尻池町一丁目２番２５号株式会社ＣＥＬＥＳＴＥ（1140002024288）に合併し解散,2020-12-24,1,,,,,ソレイユ,0
203,1180001025804,登記記録の閉鎖等,0,2023-04-28,2023-04-25,株式会社新菱電機商会,,株式会社,愛知県,名古屋市西区,児玉３丁目３２番３号,,23,104,4510066,,,2023-04-25,清算の結了等,,,2015-10-05,1,,,,,シンリョウデンキショウカイ,0
213,1180002090748,登記記録の閉鎖等,0,2023-04-28,2023-04-25,有限会社ディング・ドング,,有限会社,愛知県,愛西市,西保町森浦４６番地,,23,232,4960911,,,2023-04-25,清算の結了等,,,2015-10-05,1,,,,,ディングドング,0
224,1200002013615,登記記録の閉鎖等,0,2023-04-28,2023-04-24,有限会社伊吹興産,,有限会社,岐阜県,不破郡関ケ原町,大字玉１６０７番地の４５,,21,362,5031545,,,2023-04-24,清算の結了等,,,2015-10-05,1,,,,,イブキコウサン,0
234,1240001032967,登記記録の閉鎖等,0,2023-04-28,2023-04-25,備後車輛株式会社,,株式会社,広島県,福山市,引野町５丁目１９番３５号,,34,207,7210942,,,2023-04-25,清算の結了等,,,2015-10-05,1,,,,,ビンゴシャリョウ,0
235,1240002015491,登記記録の閉鎖等,0,2023-04-28,2023-04-26,有限会社正本工務店,,有限会社,広島県,広島市佐伯区,皆賀３丁目１９番２号,,34,108,7315124,,,2023-04-26,清算の結了等,,,2015-10-05,1,,,,,マサモトコウムテン,0
272,1380001016642,登記記録の閉鎖等,0,2023-04-28,2023-04-26,日新産業株式会社,,株式会社,福島県,双葉郡浪江町,大字高瀬字穴田９番地の１,,07,547,9791525,,,2023-04-26,清算の結了等,,,2015-10-05,1,,,,,ニッシンサンギョウ,0
275,1380002006270,登記記録の閉鎖等,0,2023-04-28,2023-04-25,有限会社禅,,有限会社,福島県,伊達市,保原町字赤橋３７番地１,,07,213,9600669,,,2023-04-25,清算の結了等,,,2015-10-05,1,,,,,ゼン,0
277,1400001007416,登記記録の閉鎖等,0,2023-04-28,2023-04-19,北光水道土木株式会社,,株式会社,岩手県,釜石市,片岸町第８地割１１４番地１,,03,211,0260302,,,2023-04-19,清算の結了等,,,2015-10-05,1,,,,,ホッコウスイドウドボク,0
293,1480003000873,登記記録の閉鎖等,0,2023-04-28,2023-04-27,コーポＮＷ合同会社,,合同会社,徳島県,板野郡松茂町,長岸２２９番地２,,36,401,7710211,,,2023-04-27,清算の結了等,,,2015-10-05,1,,,,,コーポエヌダブリュー,0
328,2010003032260,登記記録の閉鎖等,0,2023-04-28,2023-04-14,合同会社ＶＨＭホールディングス,,合同会社,東京都,千代田区,神田美土代町９番１号,,13,101,1010053,,,2023-04-14,清算の結了等,,,2020-05-19,1,,,,,ブイエイチエムホールディングス,0
341,2010401145597,登記記録の閉鎖等,0,2023-04-28,2023-04-10,Ｄａｔａ　Ｄｕｃｔｕｓ　Ｊａｐａｎ株式会社,,株式会社,東京都,港区,六本木１丁目１０番３－９０１号,,13,103,1060032,,,2023-04-10,清算の結了等,,,2019-05-21,1,,,,,データダクタスジャパン,0
372,2011102030295,登記記録の閉鎖等,0,2023-04-28,2023-04-26,有限会社トミックス,,有限会社,東京都,新宿区,下落合４丁目２２番１３号,,13,104,1610033,,,2023-04-26,清算の結了等,,,2015-10-05,1,,,,,トミックス,0
382,2011805001650,登記記録の閉鎖等,0,2023-04-28,2023-04-26,特定非営利活動法人柔道で世界と手をつなぐ育成クラブ,,その他の設立登記法人,東京都,葛飾区,高砂３丁目２番３号,,13,122,1250054,,,2023-04-26,清算の結了等,,,2015-10-05,1,,,,,ジュウドウデセカイトテヲツナグイクセイクラブ,0
386,2013401000037,登記記録の閉鎖等,0,2023-04-28,2023-04-25,旭電話工業株式会社,,株式会社,東京都,日野市,旭が丘３丁目２番地の７,,13,212,1910065,,,2023-04-25,合併による解散等,5010001066010,令和５年４月１日東京都千代田区神田駿河台四丁目２番５号エクシオ・システムマネジメント株式会社（5010001066010）に合併し解散,2015-10-05,1,,,,,アサヒデンワコウギョウ,0
396,2020003006726,登記記録の閉鎖等,0,2023-04-28,2023-04-18,ライムライト合同会社,,合同会社,神奈川県,横浜市青葉区,田奈町３１番地６,,14,117,2270064,,,2023-04-18,合併による解散等,5020003006640,令和５年４月１日横浜市青葉区田奈町３１番地６ル・テロワール合同会社（5020003006640）に合併し解散,2015-10-05,1,,,,,ライムライト,0
416,2040001055806,登記記録の閉鎖等,0,2023-04-28,2023-04-14,日本板硝子ウムプロダクツ株式会社,,株式会社,千葉県,市原市,千種海岸１５番地,,12,219,2990108,,,2023-04-14,合併による解散等,1040001054585,令和５年４月１日千葉県市原市姉崎海岸６番地日本板硝子ビルディングプロダクツ株式会社（1040001054585）に合併し解散,2015-10-05,1,"NSG UMU PRODUCTS CO.,LTD.",Chiba,"CHIGUSAKAIGAN 15, Ichihara shi",,ニホンイタガラスウムプロダクツ,0
443,2120001043934,登記記録の閉鎖等,0,2023-04-28,2023-04-24,昭和油脂株式会社,,株式会社,大阪府,大阪市西区,九条南２丁目１番１４号,,27,106,5500025,,,2023-04-24,清算の結了等,,,2015-10-05,1,,,,,,0
456,2120002080852,登記記録の閉鎖等,0,2023-04-28,2023-04-18,有限会社アートプラスターオザキ,,有限会社,大阪府,門真市,北岸和田３丁目３番８号,,27,223,5710007,,,2023-04-18,清算の結了等,,,2015-10-05,1,,,,,アートプラスターオザキ,0
477,2140002063822,登記記録の閉鎖等,0,2023-04-28,2023-04-26,有限会社ナニワ流通,,有限会社,兵庫県,伊丹市,千僧５丁目５０番地の１ダイヤハイツ４１２号,,28,207,6640898,,,2023-04-26,清算の結了等,,,2015-10-05,1,,,,,,0
484,2180003021040,登記記録の閉鎖等,0,2023-04-28,2023-04-24,ｊｉｃｃａ合同会社,,合同会社,愛知県,一宮市,木曽川町黒田字往還西南ノ切１３１番地１,,23,203,4930001,,,2023-04-24,清算の結了等,,,2020-04-15,1,,,,,ジッカ,0
488,2180005006956,登記記録の閉鎖等,0,2023-04-28,2023-04-17,特定目的会社なごやプロジェクト第２号,,その他の設立登記法人,愛知県,名古屋市中区,錦２丁目２番１３号,,23,106,4600003,,,2023-04-17,清算の結了等,,,2015-10-05,1,,,,,ナゴヤプロジェクトダイニゴウ,0
490,2180302023092,登記記録の閉鎖等,0,2023-04-28,2023-04-24,有限会社ハーモニー,,有限会社,愛知県,豊田市,丸山町４丁目３番地１８,,23,211,4710832,,,2023-04-24,清算の結了等,,,2015-10-05,1,,,,,ハーモニー,0
495,2190002023598,登記記録の閉鎖等,0,2023-04-28,2023-04-20,有限会社三好ライフシステム,,有限会社,三重県,四日市市,芝田１丁目３番１１号,,24,202,5100822,,,2023-04-20,清算の結了等,,,2015-10-05,1,,,,,ミヨシライフシステム,0
501,2220002007878,登記記録の閉鎖等,0,2023-04-28,2023-04-24,有限会社浅ノ川フーズ,,有限会社,石川県,金沢市,窪４丁目４００番地,,17,201,9218151,,,2023-04-24,清算の結了等,,,2015-10-05,1,,,,,アサノガワフーズ,0
505,2250002004757,登記記録の閉鎖等,0,2023-04-28,2023-04-14,有限会社笹尾工業所,,有限会社,山口県,宇部市,大字上宇部２５６２番地の９,,35,202,7550091,,,2023-04-14,清算の結了等,,,2015-10-05,1,,,,,ササオコウギョウショ,0
516,2300001000685,登記記録の閉鎖等,0,2023-04-28,2023-04-20,平野物産株式会社,,株式会社,佐賀県,佐賀市,八幡小路２番１０号,,41,201,8400834,,,2023-04-20,清算の結了等,,,2015-10-05,1,,,,,ヒラノブッサン,0
521,2330001005327,登記記録の閉鎖等,0,2023-04-28,2023-04-21,株式会社グッドホエール,,株式会社,熊本県,熊本市南区,南高江７丁目６番８号,,43,104,8614106,,,2023-04-21,清算の結了等,,,2015-10-05,1,,,,,グッドホエール,0
526,2360001021445,登記記録の閉鎖等,0,2023-04-28,2023-04-25,ポテンティア株式会社,,株式会社,沖縄県,豊見城市,字高安４６０,,47,212,9010242,,,2023-04-25,清算の結了等,,,2016-10-18,1,,,,,ポテンティア,0
553,2430001087982,登記記録の閉鎖等,0,2023-04-28,2023-04-14,サイロ工業株式会社,,株式会社,北海道,札幌市厚別区,厚別西二条４丁目２番１７号,,01,108,0040062,,,2023-04-14,清算の結了等,,,2022-12-05,1,,,,,サイロコウギョウ,0
561,2460102002219,登記記録の閉鎖等,0,2023-04-28,2023-04-24,有限会社トカチガス,,有限会社,北海道,帯広市,西二十三条南４丁目２番地１,,01,207,0802473,,,2023-04-24,合併による解散等,6430001020188,令和５年４月１日札幌市中央区北一条西三丁目３番地伊藤忠エネクスホームライフ北海道株式会社（6430001020188）に合併し解散,2015-10-05,1,,,,,トカチガス,0
564,2480005006447,登記記録の閉鎖等,0,2023-04-28,2023-04-25,一般社団法人アルカンシェル,,その他の設立登記法人,徳島県,徳島市,新浜本町２丁目３番３５号,,36,201,7708007,,,2023-04-25,清算の結了等,,,2016-01-04,1,,,,,アルカンシェル,0
582,3010001172264,登記記録の閉鎖等,0,2023-04-28,2023-04-24,株式会社プラティア,,株式会社,大阪府,大阪市天王寺区,上汐６丁目３番９号山本ビル２階,,27,109,5430002,,,2023-04-24,合併による解散等,3010001025868,令和５年４月１日東京都千代田区神田駿河台四丁目６番地株式会社ニチイ学館（3010001025868）に合併し解散,2015-12-14,1,,,,,プラティア,0
587,3010003018259,登記記録の閉鎖等,0,2023-04-28,2023-04-17,合同会社麻布十番地所,,合同会社,東京都,千代田区,内幸町１丁目１番１号,,13,101,1000011,,,2023-04-17,清算の結了等,,,2015-10-05,1,,,,,アザブジュウバンジショ,0
588,3010003038694,登記記録の閉鎖等,0,2023-04-28,2023-04-14,ジェイコアレジ７合同会社,,合同会社,東京都,千代田区,丸の内３丁目１番１号東京共同会計事務所内,,13,101,1000005,,,2023-04-14,清算の結了等,,,2022-09-22,1,,,,,ジェイコアレジセブン,0
615,3011001005694,登記記録の閉鎖等,0,2023-04-28,2023-04-19,株式会社カトルモンド,,株式会社,東京都,渋谷区,鶯谷町５番７号,,13,113,1500032,,,2023-04-19,清算の結了等,,,2015-10-05,1,,,,,カトルモンド,0
632,3011801016973,登記記録の閉鎖等,0,2023-04-28,2023-04-13,株式会社ＰＵＲＥ,,株式会社,千葉県,成田市,公津の杜２丁目１５番地１６,,12,211,2860048,,,2023-04-13,清算の結了等,,,2015-10-05,1,,,,,ピュア,0
636,3011801035321,登記記録の閉鎖等,0,2023-04-28,2023-04-19,株式会社上野企画,,株式会社,東京都,文京区,湯島３丁目２８番１２－７０１号,,13,105,1130034,,,2023-04-19,清算の結了等,,,2018-10-30,1,,,,,ウエノキカク,0
641,3012402015431,登記記録の閉鎖等,0,2023-04-28,2023-04-27,有限会社タクトスタッフ,,有限会社,東京都,国分寺市,泉町３丁目１番２号,,13,214,1850024,,,2023-04-27,清算の結了等,,,2015-10-05,1,,,,,タクトスタッフ,0
665,3021001047967,登記記録の閉鎖等,0,2023-04-28,2023-04-26,株式会社タケケン,,株式会社,神奈川県,鎌倉市,由比ガ浜４丁目３番２４号チサンマンション鎌倉２０１号,,14,204,2480014,,,2023-04-26,清算の結了等,,,2015-10-05,1,,,,,タケケン,0
668,3021005001235,登記記録の閉鎖等,0,2023-04-28,2023-04-25,特定非営利活動法人くらし・環境・再生ネットワーク,,その他の設立登記法人,神奈川県,藤沢市,亀井野１丁目２１番地の２１,,14,205,2520813,,,2023-04-25,清算の結了等,,,2015-10-05,1,,,,,クラシカンキョウサイセイネットワーク,0
697,3040003014032,登記記録の閉鎖等,0,2023-04-28,2023-04-13,ｔｏｒｉｋａ合同会社,,合同会社,千葉県,柏市,加賀３丁目２５番１号１階,,12,217,2770051,,,2023-04-13,清算の結了等,,,2019-09-17,1,,,,,トリカ,0
715,3080005005166,登記記録の閉鎖等,0,2023-04-28,2023-04-25,医療法人社団則天会,,その他の設立登記法人,静岡県,周智郡森町,円田字松ヶ谷１２９７番地の１,,22,461,4370221,,,2023-04-25,清算の結了等,,,2015-10-05,1,,,,,ソクテンカイ,0
716,3080101013262,登記記録の閉鎖等,0,2023-04-28,2023-04-26,イズケン株式会社,,株式会社,静岡県,伊東市,渚町３番２０号,,22,208,4140023,,,2023-04-26,清算の結了等,,,2015-10-05,1,,,,,イズケン,0
745,3140001080990,登記記録の閉鎖等,0,2023-04-28,2023-04-26,株式会社ウィッシュ,,株式会社,大阪府,豊能郡豊能町,光風台３丁目２１番地（２－７０６）,,27,321,5630104,,,2023-04-26,清算の結了等,,,2015-10-05,1,,,,,ウィッシュ,0
756,3160001005145,登記記録の閉鎖等,0,2023-04-28,2023-04-25,株式会社スティック,,株式会社,滋賀県,甲賀市,水口町北泉１丁目９番地,,25,209,5280058,,,2023-04-25,清算の結了等,,,2015-10-05,1,,,,,スティック,0
778,3200001038801,登記記録の閉鎖等,0,2023-04-28,2023-04-24,玄珠Ｂｒｅｗｅｒｙ株式会社,,株式会社,岐阜県,高山市,清見町大原８０１番地５,,21,203,5092702,,,2023-04-24,清算の結了等,,,2021-06-17,1,,,,,ゲンジュブリュワリー,0
780,3200003004207,登記記録の閉鎖等,0,2023-04-28,2023-04-25,合同会社Ｍ－ＴＥＣＨ,,合同会社,岐阜県,中津川市,千旦林１５２１番地の１９０,,21,206,5099131,,,2023-04-25,清算の結了等,,,2018-05-25,1,,,,,エムテック,0
781,3220001004495,登記記録の閉鎖等,0,2023-04-28,2023-04-24,株式会社東幹管工,,株式会社,石川県,金沢市,額谷２丁目９３番地４,,17,201,9218145,,,2023-04-24,清算の結了等,,,2015-10-05,1,,,,,トウカンカンコウ,0
783,3220001009172,登記記録の閉鎖等,0,2023-04-28,2023-04-25,シンクロ電機株式会社,,株式会社,石川県,白山市,宮永市町６５４番地７,,17,210,9240016,,,2023-04-25,清算の結了等,,,2015-10-05,1,,,,,シンクロデンキ,0
793,3250002004079,登記記録の閉鎖等,0,2023-04-28,2023-04-13,有限会社相本鉄工所,,有限会社,山口県,宇部市,東本町２丁目６番４号,,35,202,7550028,,,2023-04-13,清算の結了等,,,2015-10-05,1,,,,,アイモトテッコウショ,0
798,3260001035124,登記記録の閉鎖等,0,2023-04-28,2023-04-26,株式会社ノイギア,,株式会社,岡山県,新見市,西方１５０５ＳＳＫコーポ金子Ｂ,,33,210,7180017,,,2023-04-26,清算の結了等,,,2021-01-19,1,,,,,ノイギア,0
800,3270001007832,登記記録の閉鎖等,0,2023-04-28,2023-04-25,大山ハム株式会社,,株式会社,鳥取県,米子市,夜見町３０１８番地,,31,202,6830851,,,2023-04-25,合併による解散等,7430001027950,令和５年４月１日大阪市中央区南船場二丁目１２番８号エア・ウォーターアグリ＆フーズ株式会社（7430001027950）に合併し解散,2019-09-11,1,,,,,ダイセンハム,0
808,3290802012616,登記記録の閉鎖等,0,2023-04-28,2023-04-27,有限会社坂口設計事務所,,有限会社,福岡県,北九州市八幡東区,祝町２丁目６番７号,,40,108,8050041,,,2023-04-27,清算の結了等,,,2015-10-05,1,,,,,サカグチセッケイジムショ,0
833,3380002012754,登記記録の閉鎖等,0,2023-04-28,2023-04-26,有限会社柳沼鉄工所,00083615,有限会社,福島県,郡山市,安積荒井１丁目１５７番地,,07,203,9630117,,,2023-04-26,清算の結了等,,,2015-10-05,1,,,,,,0
837,3400003002446,登記記録の閉鎖等,0,2023-04-28,2023-04-20,合同会社優殷,,合同会社,岩手県,盛岡市,八幡町１番７号,,03,201,0200872,,,2023-04-20,清算の結了等,,,2019-03-28,1,,,,,,0
854,3500001015349,登記記録の閉鎖等,0,2023-04-28,2023-04-27,株式会社大見屋,,株式会社,愛媛県,宇和島市,新町１丁目４番６号,,38,203,7980035,,,2023-04-27,清算の結了等,,,2015-10-05,1,,,,,オオミヤ,0
859,4010001002387,登記記録の閉鎖等,0,2023-04-28,2023-04-17,株式会社エルモケイグランデ,,株式会社,東京都,千代田区,富士見２丁目７番２号,,13,101,1020071,,,2023-04-17,合併による解散等,2010001073884,令和５年４月１日東京都千代田区富士見二丁目７番２号アイ・ティ・エル株式会社（2010001073884）に合併し解散,2015-10-05,1,,,,,エルモケイグランデ,0
867,4010001206987,登記記録の閉鎖等,0,2023-04-28,2023-04-18,Ｐａｙｍｅｎｔ　Ｂｒｉｄｇｅ株式会社,,株式会社,東京都,千代田区,九段南１丁目５番６号りそな九段ビル５Ｆ,,13,101,1020074,,,2023-04-18,清算の結了等,,,2020-01-27,1,,,,,ペイメントブリッジ,0
886,4010102008382,登記記録の閉鎖等,0,2023-04-28,2023-04-21,有限会社プレスト,,有限会社,東京都,八王子市,下柚木３丁目１番地Ａ－３０７,,13,201,1920372,,,2023-04-21,清算の結了等,,,2015-10-05,1,,,,,,0
901,4010801032385,登記記録の閉鎖等,0,2023-04-28,2023-04-10,株式会社たかのは,,株式会社,東京都,大田区,大森北６丁目２７－１０平和島大西ビル１階,,13,111,1430016,,,2023-04-10,清算の結了等,,,2021-10-06,1,,,,,タカノハ,0
912,4011001067668,登記記録の閉鎖等,0,2023-04-28,2023-04-20,エストレーディングジャパン株式会社,,株式会社,兵庫県,神戸市中央区,北長狭通４丁目７番２８－１３０３号,,28,110,6500012,,,2023-04-20,清算の結了等,,,2015-10-05,1,,,,,エストレーディングジャパン,0
923,4011101097342,登記記録の閉鎖等,0,2023-04-28,2023-04-24,株式会社ネオパワー,,株式会社,東京都,新宿区,上落合３丁目３４番２号,,13,104,1610034,,,2023-04-24,清算の結了等,,,2022-01-04,1,,,,,ネオパワー,0
939,4011802003805,登記記録の閉鎖等,0,2023-04-28,2023-04-25,有限会社清水ランドリー,,有限会社,東京都,葛飾区,西水元１丁目２番７号,,13,122,1250031,,,2023-04-25,清算の結了等,,,2015-10-05,1,,,,,シミズランドリー,0
944,4012402008888,登記記録の閉鎖等,0,2023-04-28,2023-04-14,有限会社真光シップ・サービス,,有限会社,東京都,調布市,多摩川３丁目１９番地１,,13,208,1820025,,,2023-04-14,清算の結了等,,,2015-10-05,1,,,,,シンコウシップサービス,0
958,4020003020452,登記記録の閉鎖等,0,2023-04-28,2023-04-27,合同会社メガハウス,,合同会社,神奈川県,横浜市金沢区,六浦東２丁目２３－１リバーサイドスクエア２０２,,14,108,2360037,,,2023-04-27,清算の結了等,,,2021-09-10,1,,,,,メガハウス,0
969,4030001057842,登記記録の閉鎖等,0,2023-04-28,2023-04-10,株式会社グローバル・コネクション,,株式会社,埼玉県,川越市,脇田町８番地３,,11,201,3501122,,,2023-04-10,清算の結了等,,,2015-10-05,1,,,,,グローバルコネクション,0
976,4030002075975,登記記録の閉鎖等,0,2023-04-28,2023-04-13,有限会社島村設備,,有限会社,埼玉県,ふじみ野市,西原１丁目２番地１,,11,245,3560028,,,2023-04-13,清算の結了等,,,2015-10-05,1,,,,,シマムラセツビ,0
1015,4070002015952,登記記録の閉鎖等,0,2023-04-28,2023-04-26,有限会社アイビー,,有限会社,群馬県,富岡市,中高瀬５１９番地１,,10,210,3702333,,,2023-04-26,清算の結了等,,,2015-10-05,1,,,,,アイビー,0
1020,4090001007874,登記記録の閉鎖等,0,2023-04-28,2023-04-26,エヌエーピー株式会社,,株式会社,山梨県,大月市,七保町下和田２２６番地,,19,206,4090622,,,2023-04-26,清算の結了等,,,2015-10-05,1,,,,,エヌエーピー,0
1026,4110001004539,登記記録の閉鎖等,0,2023-04-28,2023-04-24,株式会社ネスティワールドウェイ,,株式会社,新潟県,新潟市中央区,神道寺南２丁目１番４３号,,15,103,9500986,,,2023-04-24,清算の結了等,,,2015-10-05,1,,,,,ネスティワールドウェイ,0
1031,4120001228252,登記記録の閉鎖等,0,2023-04-28,2023-04-24,株式会社日物マリン,,株式会社,大阪府,大阪市此花区,桜島３丁目１０番４４号,,27,104,5540031,,,2023-04-24,合併による解散等,1010001098619,令和５年４月１日東京都中央区日本橋一丁目１３番１号日鉄物流株式会社（1010001098619）に合併し解散,2020-04-07,1,,,,,ニチブツマリン,0
1071,4160001016595,登記記録の閉鎖等,0,2023-04-28,2023-04-27,株式会社エムワークス,,株式会社,滋賀県,栗東市,御園３３９番地,,25,208,5203005,,,2023-04-27,清算の結了等,,,2015-10-05,1,,,,,エムワークス,0
1086,4180003012203,登記記録の閉鎖等,0,2023-04-28,2023-04-25,合資会社司工業,,合資会社,愛知県,稲沢市,祖父江町祖父江北方１６１番地,,23,220,4950001,,,2023-04-25,清算の結了等,,,2015-10-05,1,,,,,ツカサコウギョウ,0
1087,4180003024628,登記記録の閉鎖等,0,2023-04-28,2023-04-25,エゾムラサキ合同会社,,合同会社,愛知県,名古屋市中区,錦１丁目２０番１９号名神ビルエイディシーテクノロジー株式会社内,,23,106,4600003,,,2023-04-25,清算の結了等,,,2022-12-22,1,,,,,エゾムラサキ,0
1089,4180005012424,登記記録の閉鎖等,0,2023-04-28,2023-04-27,知多半島観光事業協同組合,,その他の設立登記法人,愛知県,知多郡南知多町,大字山海字屋敷４７番地,,23,445,4703322,,,2023-04-27,清算の結了等,,,2015-10-05,1,,,,,チタハントウカンコウ,0
1091,4180301020709,登記記録の閉鎖等,0,2023-04-28,2023-04-19,株式会社エナジー,,株式会社,愛知県,豊田市,御船町山屋敷４８番地１０,,23,211,4700371,,,2023-04-19,清算の結了等,,,2015-10-05,1,,,,,エナジー,0
1092,4180302020278,登記記録の閉鎖等,0,2023-04-28,2023-04-24,有限会社三島屋商店,,有限会社,愛知県,碧南市,棚尾本町４丁目１５番地,,23,209,4470815,,,2023-04-24,清算の結了等,,,2015-10-05,1,,,,,ミシマヤショウテン,0
1099,4200001035987,登記記録の閉鎖等,0,2023-04-28,2023-04-27,株式会社結,,株式会社,岐阜県,高山市,八幡町２８０番地,,21,203,5060852,,,2023-04-27,清算の結了等,,,2019-03-04,1,,,,,ユイ,0
1100,4200002024782,登記記録の閉鎖等,0,2023-04-28,2023-04-25,有限会社リード保険企画,,有限会社,岐阜県,中津川市,中一色町３番３号,,21,206,5080003,,,2023-04-25,清算の結了等,,,2015-10-05,1,,,,,リードホケンキカク,0
1114,4260001002619,登記記録の閉鎖等,0,2023-04-28,2023-04-25,山陽鑑定コンサルタント株式会社,,株式会社,岡山県,岡山市北区,大供１丁目７番９号,,33,101,7000913,,,2023-04-25,清算の結了等,,,2015-10-05,1,,,,,サンヨウカンテイ,0
1136,4310001011110,登記記録の閉鎖等,0,2023-04-28,2023-04-24,株式会社ワンズ・ライフ,,株式会社,長崎県,五島市,坂の上１丁目４番７号,,42,211,8530065,,,2023-04-24,清算の結了等,,,2015-10-05,1,,,,,ワンズライフ,0
1137,4310001015152,登記記録の閉鎖等,0,2023-04-28,2023-04-14,株式会社甑，禰,,株式会社,長崎県,佐世保市,白岳町１８２番地サンライズ佐世保２０１,,42,202,8571164,,,2023-04-14,清算の結了等,,,2017-09-13,1,,,,,コシキデイ,0
1149,4360001001684,登記記録の閉鎖等,0,2023-04-28,2023-04-21,株式会社ニッタ,,株式会社,沖縄県,那覇市,前島１丁目１４番１号ニッタマンション２０２,,47,201,9000016,,,2023-04-21,清算の結了等,,,2015-10-05,1,,,,,ニッタ,0
1163,4400002001183,登記記録の閉鎖等,0,2023-04-28,2023-04-20,有限会社昂星,00085536,有限会社,岩手県,盛岡市,上田１丁目１１番５号,,03,201,0200066,,,2023-04-20,清算の結了等,,,2015-10-05,1,,,,,コウセイ,0
1198,5010003035368,登記記録の閉鎖等,0,2023-04-28,2023-04-14,ＲＢソーラークローバー合同会社,,合同会社,東京都,中央区,八丁堀４丁目２番１０号ＡＯＪ税理士法人内,,13,102,1040032,,,2023-04-14,清算の結了等,,,2021-07-21,1,,,,,アールビーソーラークローバー,0
1205,5010402005962,登記記録の閉鎖等,0,2023-04-28,2023-04-10,有限会社ジェー・シー・エイ企画,,有限会社,東京都,港区,新橋６丁目２１番３号ＵＭＡＸビル５Ｆ,,13,103,1050004,,,2023-04-10,清算の結了等,,,2015-10-05,1,,,,,ジェーシーエイキカク,0
1221,5011001051167,登記記録の閉鎖等,0,2023-04-28,2023-04-20,株式会社日本都市建築総合研究所,,株式会社,神奈川県,横浜市磯子区,中原３丁目４番９号,,14,107,2350036,,,2023-04-20,清算の結了等,,,2015-10-05,1,,,,,ニホントシケンチクソウゴウケンキュウジョ,0
1230,5011101095535,登記記録の閉鎖等,0,2023-04-28,2023-04-25,ワールズキー株式会社,,株式会社,東京都,新宿区,新宿１丁目５番１３号溝呂木第一ビル,,13,104,1600022,,,2023-04-25,清算の結了等,,,2021-06-28,1,,,,,ワールズキー,0
1232,5011102007596,登記記録の閉鎖等,0,2023-04-28,2023-03-27,有限会社大扇商事,,有限会社,東京都,新宿区,早稲田鶴巻町５２８番地マンション大扇２０１,,13,104,1620041,,,2023-03-27,清算の結了等,,,2015-10-05,1,,,,,ダイセンショウジ,0
1244,5011802024767,登記記録の閉鎖等,0,2023-04-28,2023-04-25,有限会社ゴルフパーク,,有限会社,東京都,足立区,東保木間１丁目６番２０号,,13,121,1210063,,,2023-04-25,清算の結了等,,,2015-10-05,1,,,,,ゴルフパーク,0
1266,5020003004058,登記記録の閉鎖等,0,2023-04-28,2023-04-18,合資会社プライムサーチ,,合資会社,神奈川県,横浜市青葉区,美しが丘１丁目１２番地１,,14,117,2250002,,,2023-04-18,清算の結了等,,,2015-10-05,1,,,,,プライムサーチ,0
1271,5020005015177,登記記録の閉鎖等,0,2023-04-28,2023-04-19,特定非営利活動法人ＮｕＲｓｉｎＧａｔｅ,,その他の設立登記法人,神奈川県,横浜市青葉区,美しが丘１丁目１３番地１０吉村ビル１０７号,,14,117,2250002,,,2023-04-19,清算の結了等,,,2021-09-03,1,,,,,ナーシンゲート,0
1272,5021001023561,登記記録の閉鎖等,0,2023-04-28,2023-04-24,株式会社吉央,,株式会社,神奈川県,秦野市,南矢名２丁目１０番２６号,,14,211,2570003,,,2023-04-24,清算の結了等,,,2015-10-05,1,,,,,キチオウ,0
1279,5030001073541,登記記録の閉鎖等,0,2023-04-28,2023-04-13,株式会社浅尾,,株式会社,埼玉県,川口市,前川２丁目３４番１７号,,11,203,3330842,,,2023-04-13,清算の結了等,,,2015-10-05,1,,,,,アサオ,0
1281,5030001084893,登記記録の閉鎖等,0,2023-04-28,2023-04-12,株式会社末廣産業,,株式会社,埼玉県,熊谷市,末広１丁目４８番地,,11,202,3600031,,,2023-04-12,清算の結了等,,,2015-10-05,1,,,,,スエヒロサンギョウ,0
1289,5030002093695,登記記録の閉鎖等,0,2023-04-28,2023-04-12,有限会社レオ企画,,有限会社,埼玉県,鶴ヶ島市,大字鶴ヶ丘１２－７ウィステリアコーポラス１０１,,11,241,3502204,,,2023-04-12,清算の結了等,,,2015-10-05,1,,,,,レオキカク,0
1298,5040002024113,登記記録の閉鎖等,0,2023-04-28,2023-04-13,有限会社ドレス鈴木,,有限会社,千葉県,船橋市,みやぎ台２丁目４番１７号,,12,204,2740804,,,2023-04-13,清算の結了等,,,2015-10-05,1,,,,,ドレススズキ,0
1300,5040002101820,登記記録の閉鎖等,0,2023-04-28,2023-04-14,有限会社ジオデータサプライ,,有限会社,千葉県,いすみ市,上布施６９５番地５,,12,238,2980018,,,2023-04-14,清算の結了等,,,2015-10-05,1,,,,,ジオデータサプライ,0
1301,5040003008734,登記記録の閉鎖等,0,2023-04-28,2023-04-17,合同会社ただの人,,合同会社,千葉県,千葉市美浜区,打瀬１丁目２番地２セントラルパーク・イーストＨ棟９０５号,,12,106,2610013,,,2023-04-17,清算の結了等,,,2016-06-22,1,,,,,タダノヒト,0
1340,5120901007589,登記記録の閉鎖等,0,2023-04-28,2023-04-25,トリム株式会社,,株式会社,大阪府,吹田市,樫切山４番５２号,,27,205,5650806,,,2023-04-25,清算の結了等,,,2015-10-05,1,,,,,トリム,0
1348,5140001021308,登記記録の閉鎖等,0,2023-04-28,2023-04-26,株式会社ジェイケイ,,株式会社,兵庫県,神戸市東灘区,向洋町中１丁目１０番地１０１号棟１４０９号室,,28,101,6580032,,,2023-04-26,清算の結了等,,,2015-10-05,1,,,,,ジェイケイ,0
1376,5190002003143,登記記録の閉鎖等,0,2023-04-28,2023-04-25,有限会社山本縫製,,有限会社,三重県,津市,美杉町太郎生２０４８番地の１,,24,201,5153536,,,2023-04-25,清算の結了等,,,2015-10-05,1,,,,,ヤマモトホウセイ,0
1381,5220002017148,登記記録の閉鎖等,0,2023-04-28,2023-04-24,有限会社森邦製紐,,有限会社,石川県,かほく市,高松レ３５番地,,17,209,9291215,,,2023-04-24,清算の結了等,,,2015-10-05,1,,,,,モリクニセイチュウ,0
1385,5240002032153,登記記録の閉鎖等,0,2023-04-28,2023-04-24,有限会社いしおか,,有限会社,広島県,呉市,郷原町６３３３番地,,34,202,7370161,,,2023-04-24,清算の結了等,,,2015-10-05,1,,,,,イシオカ,0
1396,5290001071973,登記記録の閉鎖等,0,2023-04-28,2023-04-18,株式会社ＢＬＡＺＥＳ,,株式会社,福岡県,糟屋郡志免町,志免東２丁目８－１０－２号室,,40,343,8112243,,,2023-04-18,清算の結了等,,,2015-11-13,1,,,,,ブレイザス,0
1400,5290002053590,登記記録の閉鎖等,0,2023-04-28,2023-04-18,有限会社タジマックス,,有限会社,福岡県,大川市,大字郷原４３２番地の１,,40,212,8310028,,,2023-04-18,清算の結了等,,,2015-10-05,1,,,,,タジマックス,0
1410,5300001010632,登記記録の閉鎖等,0,2023-04-28,2023-04-20,株式会社リアライズ,,株式会社,佐賀県,佐賀市,諸富町大字山領５６１番地１０,,41,201,8402106,,,2023-04-20,清算の結了等,,,2017-01-16,1,,,,,,0
1412,5310002004698,登記記録の閉鎖等,0,2023-04-28,2023-04-26,有限会社深井商事,,有限会社,長崎県,長崎市,小峰町３番１１号,,42,201,8528125,,,2023-04-26,清算の結了等,,,2015-10-05,1,,,,,フカイショウジ,0
1418,5360003004024,登記記録の閉鎖等,0,2023-04-28,2023-04-24,合資会社大浦商事,,合資会社,沖縄県,浦添市,城間１丁目１２番８号,,47,208,9012133,,,2023-04-24,清算の結了等,,,2015-10-05,1,,,,,オオウラショウジ,0
1419,5370002014774,登記記録の閉鎖等,0,2023-04-28,2023-04-26,有限会社銀河計画,,有限会社,宮城県,仙台市泉区,南光台２丁目２１番１６号,,04,105,9818003,,,2023-04-26,清算の結了等,,,2015-10-05,1,,,,,ギンガケイカク,0
1425,5390002001952,登記記録の閉鎖等,0,2023-04-28,2023-04-24,有限会社トステック,,有限会社,山形県,山形市,三日町１丁目４番２８号,,06,201,9900036,,,2023-04-24,清算の結了等,,,2023-03-17,1,,,,,トステック,0
1430,5430005004519,登記記録の閉鎖等,0,2023-04-28,2023-04-17,特定非営利活動法人イクシア札幌,,その他の設立登記法人,北海道,札幌市清田区,平岡九条３丁目１２番１５号,,01,110,0040879,,,2023-04-17,清算の結了等,,,2015-10-05,1,,,,,イクシアサッポロ,0
1442,6010001080282,登記記録の閉鎖等,0,2023-04-28,2023-04-17,アンビシャスネット株式会社,,株式会社,東京都,中央区,八丁堀３丁目２４番１号,,13,102,1040032,,,2023-04-17,清算の結了等,,,2015-10-05,1,,,,,アンビシャスネット,0
1486,6010901044196,登記記録の閉鎖等,0,2023-04-28,2023-04-14,株式会社まなびコーチ,,株式会社,東京都,千代田区,神田駿河台１丁目７番地,,13,101,1010062,,,2023-04-14,合併による解散等,3010001166968,令和５年４月１日東京都千代田区神田駿河台一丁目７番地駿台教育センター株式会社（3010001166968）に合併し解散,2019-05-22,1,,,,,マナビコーチ,0
1493,6011003013577,登記記録の閉鎖等,0,2023-04-28,2023-04-18,ＫＩＫＯ　ＡＣＣＡ合同会社,,合同会社,東京都,渋谷区,円山町５番５号Ｎａｖｉ渋谷Ｖ３ｆ,,13,113,1500044,,,2023-04-18,清算の結了等,,,2021-10-21,1,,,,,キコアッカ,0
1494,6011101007415,登記記録の閉鎖等,0,2023-04-28,2023-04-25,サンエンジニヤリング株式会社,,株式会社,東京都,新宿区,西新宿７丁目１６番７号,,13,104,1600023,,,2023-04-25,清算の結了等,,,2015-10-05,1,,,,,サンエンジニヤリング,0
1498,6011101100005,登記記録の閉鎖等,0,2023-04-28,2023-04-26,大通農牧科技株式会社,,株式会社,東京都,新宿区,西新宿３丁目３番－１３号西新宿水間ビル６階,,13,104,1600023,,,2023-04-26,清算の結了等,,,2022-08-29,1,,,,,タイツウノウモクカギ,0
1539,6020002019527,登記記録の閉鎖等,0,2023-04-28,2023-04-19,有限会社昇商事,,有限会社,神奈川県,横浜市港南区,上永谷３丁目１５番９号,,14,111,2330012,,,2023-04-19,清算の結了等,,,2015-10-05,1,,,,,ノボルショウジ,0
1555,6030002004544,登記記録の閉鎖等,0,2023-04-28,2023-04-13,有限会社佳和,,有限会社,埼玉県,さいたま市南区,別所２丁目３９番２２号,,11,108,3360021,,,2023-04-13,清算の結了等,,,2015-10-05,1,,,,,ケイワ,0
1558,6030005019713,登記記録の閉鎖等,0,2023-04-28,2023-04-12,一般社団法人ＳＹＲＣ－Ｒ,,その他の設立登記法人,埼玉県,草加市,草加１丁目４番５号,,11,221,3400043,,,2023-04-12,清算の結了等,,,2019-11-21,1,,,,,シルクアール,0
1566,6040002100887,登記記録の閉鎖等,0,2023-04-28,2023-04-14,有限会社すずき家,,有限会社,千葉県,鴨川市,横渚１１０４番地１６,,12,223,2960001,,,2023-04-14,清算の結了等,,,2015-10-05,1,,,,,,0
1597,6120001161419,登記記録の閉鎖等,0,2023-04-28,2023-04-27,株式会社セイカ,,株式会社,大阪府,大阪市淀川区,田川３丁目６番１０号,,27,123,5320027,,,2023-04-27,清算の結了等,,,2015-10-05,1,,,,,セイカ,0
1605,6120002007777,登記記録の閉鎖等,0,2023-04-28,2023-04-26,有限会社エヌ・エス経営サービス,,有限会社,大阪府,大阪市城東区,東中浜３丁目７番２０号,,27,118,5360023,,,2023-04-26,清算の結了等,,,2015-10-05,1,,,,,エヌエスケイエイサービス,0
1618,6120103003865,登記記録の閉鎖等,0,2023-04-28,2023-04-26,襟裳再生エネルギー合同会社,,合同会社,大阪府,泉佐野市,鶴原１８４７番地１－３０７号,,27,213,5980071,,,2023-04-26,清算の結了等,,,2020-09-28,1,,,,,エリモサイセイエネルギー,0
1653,6190001025501,登記記録の閉鎖等,0,2023-04-28,2023-04-21,株式会社デイファクター,,株式会社,三重県,鈴鹿市,阿古曽町２８番１３号,,24,207,5130828,,,2023-04-21,清算の結了等,,,2018-04-26,1,,,,,デイファクター,0
1664,6240003004885,登記記録の閉鎖等,0,2023-04-28,2023-04-26,合同会社ｃｏｃｏ．ｉｓｍ,,合同会社,広島県,広島市西区,商工センター８丁目６番２９号,,34,104,7330833,,,2023-04-26,清算の結了等,,,2020-12-02,1,,,,,ココイズム,0
1675,6290002020045,登記記録の閉鎖等,0,2023-04-28,2023-04-18,有限会社東興業,,有限会社,福岡県,福岡市東区,若宮２丁目３４番５号,,40,131,8130036,,,2023-04-18,清算の結了等,,,2015-10-05,1,,,,,ヒガシコウギョウ,0
1688,6350003003141,登記記録の閉鎖等,0,2023-04-28,2023-04-17,ひゅっげレスパイトサービス合同会社,,合同会社,宮崎県,東臼杵郡門川町,南町４丁目１０４番地,,45,421,8890616,,,2023-04-17,清算の結了等,,,2018-07-06,1,,,,,ヒュッゲレスパイトサービス,0
1695,6370001017785,登記記録の閉鎖等,0,2023-04-28,2023-04-24,株式会社萩原・運輸,,株式会社,宮城県,黒川郡大衡村,大衡字待井沢５７－６,,04,424,9813602,,,2023-04-24,清算の結了等,,,2015-10-05,1,,,,,,0
1697,6370002014749,登記記録の閉鎖等,0,2023-04-28,2023-04-26,有限会社ディーズマーケット,,有限会社,宮城県,仙台市泉区,南光台２丁目２１番１６号,,04,105,9818003,,,2023-04-26,清算の結了等,,,2015-10-05,1,,,,,ディーズマーケット,0
1699,6370301003304,登記記録の閉鎖等,0,2023-04-28,2023-04-24,リアン株式会社,,株式会社,宮城県,東松島市,矢本字四反走１７６番地,,04,214,9810503,,,2023-04-24,清算の結了等,,,2015-10-05,1,,,,,リアン,0
1706,6400005000354,登記記録の閉鎖等,0,2023-04-28,2023-04-21,盛岡更生市場協同組合,,その他の設立登記法人,岩手県,盛岡市,内丸４番５号,,03,201,0200023,,,2023-04-21,清算の結了等,,,2015-10-05,1,,,,,モリオカコウセイシジョウ,0
1721,6460005000068,登記記録の閉鎖等,0,2023-04-28,2023-04-25,天理教久壽榮分教会,,その他の設立登記法人,北海道,釧路市,中鶴野４１番６号,,01,206,0840929,,,2023-04-25,合併による解散等,1450005001716,令和５年４月１８日北海道雨竜郡沼田町旭町三丁目２番２２号天理教高臺分教会（1450005001716）に合併し解散,2015-10-05,1,,,,,テンリキョウクスエイブンキョウカイ,0
1723,6500001011089,登記記録の閉鎖等,0,2023-04-28,2023-04-27,株式会社阿部満商店,,株式会社,愛媛県,今治市,常盤町４丁目９番地の４,,38,202,7940015,,,2023-04-27,清算の結了等,,,2015-10-05,1,,,,,アベマンショウテン,0
1732,7010001146933,登記記録の閉鎖等,0,2023-04-28,2023-04-14,株式会社地球快適化インスティテュート,,株式会社,東京都,千代田区,丸の内１丁目１番１号,,13,101,1000005,,,2023-04-14,合併による解散等,8010401059206,令和５年４月１日東京都千代田区丸の内一丁目１番１号三菱ケミカルグループ株式会社（8010401059206）に合併し解散,2015-10-05,1,,,,,チキュウカイテキカインスティテュート,0
1740,7010003018651,登記記録の閉鎖等,0,2023-04-28,2023-04-10,グリーンパワーキャピタルジャパン合同会社,,合同会社,東京都,港区,赤坂２丁目１４番５号Ｄａｉｗａ赤坂ビル４階,,13,103,1070052,,,2023-04-10,清算の結了等,,,2015-10-05,1,,,,,グリーンパワーキャピタルジャパン,0
1741,7010003033980,登記記録の閉鎖等,0,2023-04-28,2023-04-14,合同会社ミヨンラボ,,合同会社,東京都,中央区,銀座４丁目９番８号,,13,102,1040061,,,2023-04-14,清算の結了等,,,2021-01-22,1,,,,,ミヨンラボ,0
1742,7010003038749,登記記録の閉鎖等,0,2023-04-28,2023-04-14,ジェイコアレジ７ホールディング合同会社,,合同会社,東京都,千代田区,丸の内３丁目１番１号東京共同会計事務所内,,13,101,1000005,,,2023-04-14,清算の結了等,,,2022-09-30,1,,,,,ジェイコアレジセブンホールディング,0
1750,7010401022437,登記記録の閉鎖等,0,2023-04-28,2023-04-11,日本工業エツキス線株式会社,,株式会社,東京都,港区,新橋５丁目１６番６号,,13,103,1050004,,,2023-04-11,清算の結了等,,,2015-10-05,1,,,,,ニホンコウギョウエツキスセン,0
1758,7010401104128,登記記録の閉鎖等,0,2023-04-28,2023-04-18,玖暉合同会社,,合同会社,東京都,千代田区,内神田２丁目２番６号５階あすな会計事務所内,,13,101,1010047,,,2023-04-18,清算の結了等,,,2015-10-05,1,,,,,キュウキ,0
1765,7010601034249,登記記録の閉鎖等,0,2023-04-28,2023-04-25,ＨＯＰＳ株式会社,,株式会社,東京都,江東区,新大橋２丁目７番２号,,13,108,1350007,,,2023-04-25,清算の結了等,,,2015-10-05,1,,,,,ホップス,0
1770,7010901038214,登記記録の閉鎖等,0,2023-04-28,2023-04-24,株式会社ネビュラ,,株式会社,東京都,世田谷区,岡本１丁目１６番２１号ＳＯＬＡＮＡ２１－２１０,,13,112,1570076,,,2023-04-24,清算の結了等,,,2016-06-06,1,,,,,ネビュラ,0
1771,7010903005682,登記記録の閉鎖等,0,2023-04-28,2023-04-17,シュバルツ合同会社,,合同会社,東京都,千代田区,九段南４丁目６番１－２０２号,,13,101,1020074,,,2023-04-17,清算の結了等,,,2020-05-12,1,,,,,シュバルツ,0
1786,7011101100004,登記記録の閉鎖等,0,2023-04-28,2023-04-26,三一科技株式会社,,株式会社,東京都,新宿区,西新宿３丁目３番－１３号西新宿水間ビル６階,,13,104,1600023,,,2023-04-26,清算の結了等,,,2022-08-29,1,,,,,サンイチカギ,0
1828,7030002031199,登記記録の閉鎖等,0,2023-04-28,2023-04-12,有限会社マサダ空調,,有限会社,埼玉県,所沢市,大字下富１１５６番地の２７,,11,208,3590001,,,2023-04-12,清算の結了等,,,2015-10-05,1,,,,,マサダクウチョウ,0
1830,7030003017115,登記記録の閉鎖等,0,2023-04-28,2023-04-18,マッシブ合同会社,,合同会社,埼玉県,比企郡吉見町,大字江和井１６４４－２４,,11,347,3550133,,,2023-04-18,清算の結了等,,,2021-04-15,1,,,,,マッシブ,0
1888,7120103003864,登記記録の閉鎖等,0,2023-04-28,2023-04-26,トタル＆シンワ合同会社,,合同会社,大阪府,泉佐野市,鶴原１８４７番地１－３０６号,,27,213,5980071,,,2023-04-26,清算の結了等,,,2020-09-28,1,,,,,トタルアンドシンワ,0
1916,7180003020954,登記記録の閉鎖等,0,2023-04-28,2023-04-25,一合同会社,,合同会社,愛知県,名古屋市天白区,中平２丁目１０１７番地,,23,116,4680014,,,2023-04-25,清算の結了等,,,2020-03-16,1,,,,,ヨコイチ,0
1925,7200001016514,登記記録の閉鎖等,0,2023-04-28,2023-04-26,豊化成産業株式会社,,株式会社,岐阜県,海津市,南濃町駒野８８５番地１,,21,221,5030411,,,2023-04-26,清算の結了等,,,2015-10-05,1,,,,,,0
1926,7200001019649,登記記録の閉鎖等,0,2023-04-28,2023-04-21,株式会社宮京木工所,,株式会社,岐阜県,美濃市,１８７７番地,,21,207,5013701,,,2023-04-21,清算の結了等,,,2015-10-05,1,,,,,ミヤキョウモッコウショ,0
1951,7290002044662,登記記録の閉鎖等,0,2023-04-28,2023-04-18,有限会社歳美屋,,有限会社,福岡県,嘉麻市,鴨生７２番地１,,40,227,8200206,,,2023-04-18,清算の結了等,,,2015-10-05,1,,,,,,0
1989,7430002008909,登記記録の閉鎖等,0,2023-04-28,2023-04-14,有限会社澤田電気商会,,有限会社,北海道,札幌市東区,中沼四条２丁目１番１５号,,01,103,0070004,,,2023-04-14,清算の結了等,,,2015-10-05,1,,,,,サワダデンキショウカイ,0
1991,7430002042180,登記記録の閉鎖等,0,2023-04-28,2023-04-14,有限会社アラタ,,有限会社,北海道,札幌市中央区,大通西１４丁目１番１４号ネオレジデンス６０１号,,01,101,0600042,,,2023-04-14,清算の結了等,,,2015-10-05,1,,,,,アラタ,0
2017,8010001182606,登記記録の閉鎖等,0,2023-04-28,2023-04-14,株式会社駿台教育研究所,,株式会社,東京都,千代田区,神田駿河台１丁目７番地４,,13,101,1010062,,,2023-04-14,合併による解散等,3010001166968,令和５年４月１日東京都千代田区神田駿河台一丁目７番地駿台教育センター株式会社（3010001166968）に合併し解散,2017-04-12,1,,,,,スンダイキョウイクケンキュウジョ,0
2027,8010003016373,登記記録の閉鎖等,0,2023-04-28,2023-04-14,アンサイリ・ソリューションズ合同会社,,合同会社,東京都,千代田区,霞が関３丁目２番６号東京倶楽部ビルディング１１階ＴＭＦＧｒｏｕｐ株式会社内,,13,101,1000013,,,2023-04-14,清算の結了等,,,2015-10-05,1,,,,,アンサイリソリューションズ,0
2037,8010401017510,登記記録の閉鎖等,0,2023-04-28,2023-04-17,大洋株式会社,,株式会社,東京都,中央区,佃２丁目１番１号,,13,102,1040051,,,2023-04-17,清算の結了等,,,2015-10-05,1,,,,,タイヨウ,0
2052,8010801024321,登記記録の閉鎖等,0,2023-04-28,2023-04-18,ヒルクレスト・ホールディングス株式会社,,株式会社,東京都,大田区,田園調布４丁目２８番１０号,,13,111,1450071,,,2023-04-18,清算の結了等,,,2015-10-05,1,,,,,ヒルクレストホールディングス,0
2077,8011303003152,登記記録の閉鎖等,0,2023-04-28,2023-04-12,アストロボーイ合同会社,,合同会社,埼玉県,所沢市,松葉町１－５新所沢ビルＢ１Ｆ,,11,208,3590044,,,2023-04-12,清算の結了等,,,2018-10-22,1,,,,,アストロボーイ,0
2092,8012702002208,登記記録の閉鎖等,0,2023-04-28,2023-04-26,飯田財産研究所有限会社,,有限会社,東京都,東村山市,本町１丁目２０番地２７,,13,213,1890014,,,2023-04-26,清算の結了等,,,2015-10-05,1,,,,,イイダザイサンケンキュウショ,0
2096,8013301027521,登記記録の閉鎖等,0,2023-04-28,2023-04-20,株式会社イージーグループ,,株式会社,東京都,豊島区,池袋２丁目４１番５号－８Ｆ,,13,116,1710014,,,2023-04-20,清算の結了等,,,2015-10-05,1,,,,,イージーグループ,0
2105,8020003006761,登記記録の閉鎖等,0,2023-04-28,2023-04-18,ノブレス・オブリージュ合同会社,,合同会社,神奈川県,横浜市青葉区,田奈町３１番地６,,14,117,2270064,,,2023-04-18,合併による解散等,5020003006640,令和５年４月１日横浜市青葉区田奈町３１番地６ル・テロワール合同会社（5020003006640）に合併し解散,2015-10-05,1,,,,,ノブレスオブリージュ,0
2112,8021002058620,登記記録の閉鎖等,0,2023-04-28,2023-04-25,有限会社タカスクリーン,,有限会社,神奈川県,平塚市,万田３丁目３０番２号,,14,203,2540913,,,2023-04-25,清算の結了等,,,2015-10-05,1,,,,,タカスクリーン,0
2116,8030001052641,登記記録の閉鎖等,0,2023-04-28,2023-04-11,株式会社アルファ・ルファ,,株式会社,埼玉県,春日部市,南中曽根１１２５番地４,,11,214,3440048,,,2023-04-11,清算の結了等,,,2015-10-05,1,,,,,アルファルファ,0
2118,8030001075733,登記記録の閉鎖等,0,2023-04-28,2023-04-13,株式会社第一精機,,株式会社,埼玉県,川口市,戸塚南４丁目３番８号,,11,203,3330817,,,2023-04-13,清算の結了等,,,2015-10-05,1,,,,,,0
2124,8030002064561,登記記録の閉鎖等,0,2023-04-28,2023-04-12,有限会社柳下米店,,有限会社,埼玉県,和光市,下新倉４丁目２６番７号,,11,229,3510111,,,2023-04-12,清算の結了等,,,2015-10-05,1,,,,,ヤギシタコメテン,0
2125,8030002067481,登記記録の閉鎖等,0,2023-04-28,2023-04-12,有限会社清瀬ダンス教室,,有限会社,埼玉県,新座市,新堀２丁目１６番１９号渡部ビル１階,,11,230,3520032,,,2023-04-12,清算の結了等,,,2015-10-05,1,,,,,キヨセダンスキョウシツ,0
2127,8030002099178,登記記録の閉鎖等,0,2023-04-28,2023-04-12,有限会社ツバメ建材,,有限会社,埼玉県,川口市,大字里４５１番地,,11,203,3340005,,,2023-04-12,清算の結了等,,,2015-10-05,1,,,,,ツバメケンザイ,0
2138,8040002000326,登記記録の閉鎖等,0,2023-04-28,2023-04-13,有限会社秋元,,有限会社,千葉県,千葉市中央区,千葉寺町１８３番地,,12,101,2600844,,,2023-04-13,清算の結了等,,,2015-10-05,1,,,,,アキモト,0
2145,8050002033275,登記記録の閉鎖等,0,2023-04-28,2023-04-18,有限会社高野工業所,,有限会社,茨城県,龍ケ崎市,若柴町２９３８番地,,08,208,3010041,,,2023-04-18,清算の結了等,,,2015-10-05,1,,,,,タカノコウギョウショ,0
2148,8050002042235,登記記録の閉鎖等,0,2023-04-28,2023-04-18,有限会社タイヤセンター下館,,有限会社,茨城県,筑西市,玉戸１８６０番地の１,,08,227,3080847,,,2023-04-18,清算の結了等,,,2015-10-05,1,,,,,タイヤセンターシモダテ,0
2156,8080101007458,登記記録の閉鎖等,0,2023-04-28,2023-04-27,株式会社技建工業,,株式会社,静岡県,沼津市,岡一色７２１番地の２,,22,203,4100012,,,2023-04-27,清算の結了等,,,2015-10-05,1,,,,,,0
2158,8080403003956,登記記録の閉鎖等,0,2023-04-28,2023-04-25,合同会社ぴあ・すまいる,,合同会社,静岡県,浜松市南区,楊子町２９３番地,,22,134,4300855,,,2023-04-25,清算の結了等,,,2019-12-04,1,,,,,ピアスマイル,0
2171,8120001248288,登記記録の閉鎖等,0,2023-04-28,2023-04-24,株式会社東欧インターナショナル大阪,,株式会社,大阪府,大阪市中央区,北久宝寺町３丁目６番１号,,27,128,5410057,,,2023-04-24,清算の結了等,,,2022-08-19,1,,,,,トウオウインターナショナルオオサカ,0
2178,8120002062291,登記記録の閉鎖等,0,2023-04-28,2023-04-24,有限会社ＴＲＵＥ　ＬＩＶＥ,,有限会社,大阪府,大阪市北区,兎我野町７番２５号ＫＴＶパーキングビル１Ｆ,00031222,27,127,5300056,,,2023-04-24,清算の結了等,,,2015-10-05,1,,,,,,0
2187,8120901016455,登記記録の閉鎖等,0,2023-04-28,2023-04-27,北摂加工株式会社,,株式会社,大阪府,摂津市,鳥飼本町４丁目１５番２８号,,27,224,5660052,,,2023-04-27,清算の結了等,,,2015-10-05,1,,,,,ホクセツカコウ,0
2190,8122001036326,登記記録の閉鎖等,0,2023-04-28,2023-04-26,株式会社トライファー,,株式会社,大阪府,四條畷市,田原台２丁目８番５号,,27,229,5750013,,,2023-04-26,清算の結了等,,,2022-10-20,1,,,,,トライファー,0
2191,8122003002053,登記記録の閉鎖等,0,2023-04-28,2023-04-25,合同会社植田,,合同会社,大阪府,東大阪市,東鴻池町４丁目４番６号,,27,227,5780973,,,2023-04-25,清算の結了等,,,2021-03-23,1,,,,,ウエダ,0
2193,8130001060048,登記記録の閉鎖等,0,2023-04-28,2023-04-21,株式会社アクタス,,株式会社,京都府,京都市上京区,河原町今出川下ル大宮町３２７番地,,26,102,6020000,,,2023-04-21,清算の結了等,,,2017-06-27,1,,,,,アクタス,0
2208,8180001138657,登記記録の閉鎖等,0,2023-04-28,2023-04-25,株式会社サミット・ドローン・アカデミー,,株式会社,愛知県,名古屋市千種区,内山３丁目８番１６号,,23,101,4640075,,,2023-04-25,合併による解散等,7200001022891,令和５年４月１日岐阜県多治見市本町五丁目９番１号株式会社へいせい義塾館（7200001022891）に合併し解散,2019-10-30,1,,,,,サミットドローンアカデミー,0
2216,8180302013286,登記記録の閉鎖等,0,2023-04-28,2023-04-25,有限会社竹下鉄工所,,有限会社,愛知県,豊川市,下長山町西道貝津１３番地の３,,23,207,4420824,,,2023-04-25,清算の結了等,,,2015-10-05,1,,,,,タケシタテッコウジョ,0
2224,8200001012009,登記記録の閉鎖等,0,2023-04-28,2023-04-27,日昇株式会社,,株式会社,岐阜県,瑞穂市,別府７９３番地８,,21,216,5010222,,,2023-04-27,清算の結了等,,,2015-10-05,1,,,,,ニッショウ,0
2227,8200002025645,登記記録の閉鎖等,0,2023-04-28,2023-04-27,有限会社中田中央薬品,,有限会社,岐阜県,高山市,本町３丁目５５番地,,21,203,5060011,,,2023-04-27,清算の結了等,,,2015-10-05,1,,,,,,0
2228,8200003003996,登記記録の閉鎖等,0,2023-04-28,2023-04-26,合同会社丸鐘,,合同会社,岐阜県,養老郡養老町,高田３９８０番地２,,21,341,5031314,,,2023-04-26,清算の結了等,,,2017-05-29,1,,,,,マルショウ,0
2249,8290002025967,登記記録の閉鎖等,0,2023-04-28,2023-04-20,有限会社都絲キカク,,有限会社,福岡県,福岡市中央区,港２丁目１番３０ベイベリー西公園７０１,,40,133,8100075,,,2023-04-20,清算の結了等,,,2015-10-05,1,,,,,トシキカク,0
2250,8290003001694,登記記録の閉鎖等,0,2023-04-28,2023-04-18,エコラス合資会社,,合資会社,福岡県,福津市,西福間３丁目４番２５号,,40,224,8113219,,,2023-04-18,清算の結了等,,,2015-10-05,1,,,,,エコラス,0
2255,8290802005276,登記記録の閉鎖等,0,2023-04-28,2023-04-19,有限会社聖工務店,,有限会社,大分県,宇佐市,大字下矢部１２８３番地,,44,211,8720111,,,2023-04-19,清算の結了等,,,2015-10-05,1,,,,,ヒジリコウムテン,0
2273,8380001012370,登記記録の閉鎖等,0,2023-04-28,2023-04-26,イチハラミツウロコ株式会社,,株式会社,福島県,いわき市,渡辺町泉田字狐塚４１番地の２,,07,204,9728331,,,2023-04-26,合併による解散等,6390001004641,令和５年４月１日仙台市青葉区二日町２番２７号株式会社ミツウロコヴェッセル東北（6390001004641）に合併し解散,2015-10-05,1,,,,,イチハラミツウロコ,0
2274,8380001031602,登記記録の閉鎖等,0,2023-04-28,2023-04-26,株式会社農業法人芝さくら,,株式会社,福島県,石川郡平田村,大字蓬田新田字新田前２００番地,00122271,07,503,9638201,,,2023-04-26,清算の結了等,,,2021-03-01,1,,,,,ノウギョウホウジンシバサクラ,0
2279,8410002000643,登記記録の閉鎖等,0,2023-04-28,2023-04-20,有限会社伊藤機械店,,有限会社,秋田県,秋田市,泉南１丁目１６番２号,,05,201,0100918,,,2023-04-20,清算の結了等,,,2015-10-05,1,,,,,,0
2283,8430001042759,登記記録の閉鎖等,0,2023-04-28,2023-04-24,土岐株式会社,,株式会社,北海道,石狩郡当別町,北栄町３５番地３,,01,303,0610235,,,2023-04-24,清算の結了等,,,2023-02-13,1,,,,,ドキ,0
2302,8500002001327,登記記録の閉鎖等,0,2023-04-28,2023-04-27,愛媛信用調査有限会社,00007716,有限会社,愛媛県,松山市,一番町１丁目６番地１１,,38,201,7900001,,,2023-04-27,清算の結了等,,,2015-10-05,1,,,,,エヒメシンヨウチョウサ,0
2314,9010001186374,登記記録の閉鎖等,0,2023-04-28,2023-04-14,株式会社小福商店,,株式会社,東京都,中央区,築地１丁目９番１１－７０３号,,13,102,1040045,,,2023-04-14,清算の結了等,,,2017-09-21,1,,,,,コフクショウテン,0
2315,9010001197990,登記記録の閉鎖等,0,2023-04-28,2023-04-14,クロスタス株式会社,,株式会社,東京都,千代田区,神田小川町１丁目１１番地千代田小川町クロスタ５階,,13,101,1010052,,,2023-04-14,合併による解散等,8010001197991,令和５年４月１日東京都千代田区神田小川町一丁目１１番地千代田小川町クロスタ５階株式会社ＰＥＺＹ　Ｃｏｍｐｕｔｉｎｇ（8010001197991）に合併し解散,2019-03-06,1,,,,,クロスタス,0
2321,9010003023906,登記記録の閉鎖等,0,2023-04-28,2023-04-24,合同会社シー・エム・パス,,合同会社,東京都,中央区,銀座６丁目１３番９号ｂｉｚｃｕｂｅ,,13,102,1040061,,,2023-04-24,清算の結了等,,,2016-07-29,1,,,,,シーエムパス,0
2336,9010501003203,登記記録の閉鎖等,0,2023-04-28,2023-04-27,株式会社黒川銀器製作所,,株式会社,東京都,台東区,寿１丁目１１番１２号,,13,106,1110042,,,2023-04-27,清算の結了等,,,2015-10-05,1,,,,,クロカワギンキセイサクショ,0
2353,9011101046963,登記記録の閉鎖等,0,2023-04-28,2023-04-26,株式会社ナリッシュ,,株式会社,東京都,新宿区,西新宿７丁目５番地１３号,,13,104,1600023,,,2023-04-26,清算の結了等,,,2015-10-05,1,,,,,ナリッシュ,0
2411,9030002074576,登記記録の閉鎖等,0,2023-04-28,2023-04-13,有限会社根岸電線,,有限会社,埼玉県,川越市,大字木野目１０５９番地,,11,201,3500016,,,2023-04-13,清算の結了等,,,2015-10-05,1,,,,,ネギシデンセン,0
2433,9050002021849,登記記録の閉鎖等,0,2023-04-28,2023-04-18,有限会社とり文,,有限会社,茨城県,つくば市,北条４０番地の１,,08,220,3004231,,,2023-04-18,清算の結了等,,,2015-10-05,1,,,,,トリブン,0
2436,9060002019215,登記記録の閉鎖等,0,2023-04-28,2023-04-13,有限会社岩田整骨院,,有限会社,栃木県,芳賀郡芳賀町,祖母井南１丁目１６番地８,,09,345,3213307,,,2023-04-13,清算の結了等,,,2015-10-05,1,,,,,イワタセイコツイン,0
2438,9070002013729,登記記録の閉鎖等,0,2023-04-28,2023-04-25,有限会社金井建設工業,,有限会社,群馬県,高崎市,棟高町１９０６番地,,10,202,3703521,,,2023-04-25,清算の結了等,,,2015-10-05,1,,,,,カナイケンセツコウギョウ,0
2442,9080102010105,登記記録の閉鎖等,0,2023-04-28,2023-04-26,有限会社ケイズ,,有限会社,静岡県,田方郡函南町,塚本１８５番地の１シャルマンコーポ塚本５０１,,22,325,4190124,,,2023-04-26,清算の結了等,,,2015-10-05,1,,,,,ケイズ,0
2449,9120001062250,登記記録の閉鎖等,0,2023-04-28,2023-04-24,ガッツインタラクション株式会社,,株式会社,京都府,長岡京市,開田２丁目１３番１２号,,26,209,6170826,,,2023-04-24,清算の結了等,,,2015-10-05,1,,,,,ガッツインタラクション,0
2464,9120003014803,登記記録の閉鎖等,0,2023-04-28,2023-04-24,合同会社Ｒｏｃｋ　ｂｌｏｓｓｏｍ,,合同会社,大阪府,大阪市北区,豊崎５丁目１番１６号,,27,127,5310072,,,2023-04-24,清算の結了等,,,2018-10-11,1,,,,,ロックブロッサム,0
2516,9250001007242,登記記録の閉鎖等,0,2023-04-28,2023-04-14,山田建設株式会社,,株式会社,山口県,下関市,稗田西町８番１２号,00002431,35,201,7510855,,,2023-04-14,清算の結了等,,,2015-10-05,1,,,,,ヤマダケンセツ,0
2527,9290803002437,登記記録の閉鎖等,0,2023-04-28,2023-04-26,西日本留学教育サービス合同会社,,合同会社,福岡県,北九州市小倉北区,木町１丁目２番１－５０４号,,40,106,8030851,,,2023-04-26,清算の結了等,,,2015-10-05,1,,,,,ニシニホンリュウガクキョウイクサービス,0
2530,9330002021985,登記記録の閉鎖等,0,2023-04-28,2023-03-31,有限会社山下工業所,,有限会社,熊本県,荒尾市,本井手１３２５番地の１,,43,204,8640012,,,2023-03-31,清算の結了等,,,2015-10-05,1,,,,,ヤマシタコウギョウショ,0
2531,9340001021572,登記記録の閉鎖等,0,2023-04-28,2023-04-27,株式会社あおぞら農園,,株式会社,鹿児島県,鹿児島市,西田１丁目５番地１５グランドロイヤルハイツ４０２号,,46,201,8900046,,,2023-04-27,清算の結了等,,,2018-11-02,1,,,,,アオゾラノウエン,0
2542,9380002023465,登記記録の閉鎖等,0,2023-04-28,2023-04-24,有限会社工研産業,,有限会社,福島県,いわき市,泉町滝尻字根ノ町６３番地の３,,07,204,9718182,,,2023-04-24,清算の結了等,,,2015-10-05,1,,,,,コウケンサンギョウ,0
2546,9400502001050,登記記録の閉鎖等,0,2023-04-28,2023-04-20,有限会社佐藤新聞店,,有限会社,岩手県,一関市,東山町長坂字町１９５番地,,03,209,0290302,,,2023-04-20,清算の結了等,,,2015-10-05,1,,,,,サトウシンブンテン,0
2551,9420001017190,登記記録の閉鎖等,0,2023-04-28,2023-04-20,株式会社竹内企画,,株式会社,青森県,五所川原市,字川端町４３番地１８,,02,205,0370072,,,2023-04-20,清算の結了等,,,2020-11-02,1,,,,,タケウチキカク,0
2559,9450002010539,登記記録の閉鎖等,0,2023-04-28,2023-04-21,池田水産有限会社,,有限会社,北海道,枝幸郡枝幸町,北浜町１４３番地,,01,514,0985826,,,2023-04-21,清算の結了等,,,2015-10-05,1,,,,,イケダスイサン,0
2561,9460302005048,登記記録の閉鎖等,0,2023-04-28,2023-04-21,有限会社マルス泰山農場,,有限会社,北海道,斜里郡小清水町,字小清水１２４番地の３,,01,547,0993600,,,2023-04-21,清算の結了等,,,2015-10-05,1,,,,,マルスタイザンノウジョウ,0
