sequenceNumber,corporateNumber,process,correct,updateDate,changeDate,name,nameImageId,kind,prefectureName,cityName,streetNumber,addressImageId,prefectureCode,cityCode,postCode,addressOutside,addressOutsideImageId,closeDate,closeCause,successorCorporateNumber,changeCause,assignmentDate,latest,enName,enPrefectureName,enCityName,enAddressOutside,furigana,hihyoji
1,1010001025317,登記記録の閉鎖等,0,2022-03-04,2022-02-24,株式会社ナレッジビジネス研究所,,株式会社,東京都,千代田区,神田三崎町２丁目９番１２号弥栄ビル３Ｆ,,13,101,1010061,,,2022-02-24,清算の結了等,,,2015-10-05,1,,,,,ナレッジビジネスケンキュウジョ,0
32,1010701027785,登記記録の閉鎖等,0,2022-03-04,2022-02-28,株式会社Ｎａｔｕｒｅ’ｓ　Ｃｈｅｓｔ　Ｊａｐａｎ,,株式会社,東京都,港区,白金３丁目２３－２－４０３,,13,103,1080072,,,2022-02-28,合併による解散等,5010401145982,令和４年２月２８日東京都港区白金三丁目２３番２－４０３号Ｃｏｒ－ａｎ　Ｈｏｌｄｉｎｇｓ株式会社（5010401145982）に合併し解散,2015-10-05,1,,,,,ネイチャーズチェストジャパン,0
38,1010902020333,登記記録の閉鎖等,0,2022-03-04,2022-03-02,有限会社むさし管財,,有限会社,東京都,世田谷区,世田谷１丁目４番２１号,,13,112,1540017,,,2022-03-02,清算の結了等,,,2015-10-05,1,,,,,ムサシカンザイ,0
39,1011001049322,登記記録の閉鎖等,0,2022-03-04,2022-02-24,株式会社スタイルワン,,株式会社,東京都,渋谷区,南平台町１２－１３秀和第二南平台レジデンス６Ｆ,,13,113,1500036,,,2022-02-24,清算の結了等,,,2015-10-05,1,,,,,,0
51,1011101074749,登記記録の閉鎖等,0,2022-03-04,2022-02-24,株式会社表参道ファイブタウン,,株式会社,東京都,墨田区,押上２丁目１３番１号,,13,107,1310045,,,2022-02-24,清算の結了等,,,2015-10-05,1,,,,,オモテサンドウファイブタウン,0
71,1011702010796,登記記録の閉鎖等,0,2022-03-04,2022-02-28,有限会社的場設備,,有限会社,東京都,江戸川区,篠崎町３丁目１６番１３号,,13,123,1330061,,,2022-02-28,清算の結了等,,,2015-10-05,1,,,,,マトバセツビ,0
95,1020002081366,登記記録の閉鎖等,0,2022-03-04,2022-03-01,有限会社中塚牛乳店,00011409,有限会社,神奈川県,川崎市幸区,古市場１８４８番地,,14,132,2120052,,,2022-03-01,清算の結了等,,,2015-10-05,1,,,,,ナカツカギュウニュウテン,0
122,1040001079269,登記記録の閉鎖等,0,2022-03-04,2022-02-28,株式会社エコ・フェザー,,株式会社,千葉県,千葉市若葉区,桜木北２丁目４番３６号,,12,104,2640029,,,2022-02-28,清算の結了等,,,2015-10-05,1,,,,,エコフェザー,0
155,1080001021615,登記記録の閉鎖等,0,2022-03-04,2022-03-01,株式会社Ｙａｍａｄａ－Ｅｎ．Ｓｈｉｚｕｏｋａ,,株式会社,静岡県,静岡市駿河区,手越原２３６番地の１,,22,102,4210131,,,2022-03-01,合併による解散等,2080001013495,令和４年３月１日静岡県島田市川根町家山６０３番地の１株式会社山田園（2080001013495）に合併し解散,2017-05-31,1,,,,,ヤマダエンシズオカ,0
160,1090005002569,登記記録の閉鎖等,0,2022-03-04,2022-02-28,リヴァージュ石和管理組合法人,,その他の設立登記法人,山梨県,笛吹市,石和町川中島字宮ノ東３０番１,,19,211,4060024,,,2022-02-28,清算の結了等,,,2015-10-05,1,,,,,リヴァージュイサワ,0
161,1100001029374,登記記録の閉鎖等,0,2022-03-04,2022-03-01,株式会社Ｎｉｋｋｏフーズ,,株式会社,長野県,長野市,大字稲葉１４１１番地１,,20,201,3800911,,,2022-03-01,合併による解散等,8100001002630,令和４年３月１日長野市大字南長野妻科９６２番地ブライト信州株式会社（8100001002630）に合併し解散,2016-06-01,1,,,,,ニッコーフーズ,0
164,1110001012643,登記記録の閉鎖等,0,2022-03-04,2022-03-01,株式会社トラベル２１,,株式会社,新潟県,新発田市,大栄町５丁目４番２号,,15,206,9570056,,,2022-03-01,清算の結了等,,,2015-10-05,1,,,,,トラベルニジュウイチ,0
189,1120103003432,登記記録の閉鎖等,0,2022-03-04,2022-02-28,ｓａｉｊｉ合同会社,,合同会社,大阪府,堺市南区,新檜尾台３丁３番２－２０９号,,27,145,5900143,,,2022-02-28,清算の結了等,,,2019-08-08,1,,,,,サイジ,0
205,1140001030997,登記記録の閉鎖等,0,2022-03-04,2022-02-28,株式会社ディメンション,,株式会社,兵庫県,芦屋市,奥山１５番２０９号,,28,206,6590002,,,2022-02-28,清算の結了等,,,2015-10-05,1,,,,,ディメンション,0
218,1180001079899,登記記録の閉鎖等,0,2022-03-04,2022-02-28,株式会社ＬＡＮデータセンター,,株式会社,愛知県,瀬戸市,上之山町３丁目１５７番地,,23,204,4890964,,,2022-02-28,清算の結了等,,,2015-10-05,1,,,,,ランデータセンター,0
220,1180001113542,登記記録の閉鎖等,0,2022-03-04,2022-02-28,株式会社ジンズ,,株式会社,愛知県,瀬戸市,萩山台２丁目１４７番地,,23,204,4890886,,,2022-02-28,清算の結了等,,,2015-10-05,1,,,,,ジンズ,0
232,1180301023128,登記記録の閉鎖等,0,2022-03-04,2022-02-28,ダイヤクリーナー株式会社,,株式会社,愛知県,西尾市,東幡豆町中川原８８番地,,23,213,4440701,,,2022-02-28,清算の結了等,,,2015-10-05,1,,,,,ダイヤクリーナー,0
254,1280002001637,登記記録の閉鎖等,0,2022-03-04,2022-03-03,有限会社ＮＡＤＡ,,有限会社,島根県,松江市,東津田町７３３番地,,32,201,6900011,,,2022-03-03,清算の結了等,,,2015-10-05,1,,,,,ナダ,0
262,1290002032895,登記記録の閉鎖等,0,2022-03-04,2022-03-01,有限会社福井資材,,有限会社,福岡県,糸島市,瀬戸２９２番地,,40,230,8191156,,,2022-03-01,清算の結了等,,,2015-10-05,1,,,,,フクイシザイ,0
289,1370001008186,登記記録の閉鎖等,0,2022-03-04,2022-02-28,株式会社作庭舎,,株式会社,宮城県,仙台市青葉区,霊屋下７番１０－３０１号,,04,101,9800814,,,2022-02-28,清算の結了等,,,2015-10-05,1,,,,,サクテイシャ,0
300,1380002030114,登記記録の閉鎖等,0,2022-03-04,2022-02-28,有限会社杉内建設総合コンサルタント,,有限会社,福島県,双葉郡大熊町,大字下野上字清水５７４番地,,07,545,9791308,,,2022-02-28,清算の結了等,,,2015-10-05,1,,,,,スギウチケンセツソウゴウコンサルタント,0
305,1400001002053,登記記録の閉鎖等,0,2022-03-04,2022-03-03,株式会社岩手振興開発,,株式会社,岩手県,盛岡市,西松園３丁目１１番５号,,03,201,0200103,,,2022-03-03,清算の結了等,,,2015-10-05,1,,,,,イワテシンコウカイハツ,0
316,1470001002113,登記記録の閉鎖等,0,2022-03-04,2022-03-01,新日本通商株式会社,,株式会社,香川県,高松市,国分寺町新居１３９３番地１,,37,201,7690101,,,2022-03-01,合併による解散等,6500001015949,令和４年３月１日愛媛県宇和島市丸之内五丁目４番７号株式会社シンツ（6500001015949）に合併し解散,2015-10-05,1,,,,,シンニホンツウショウ,0
331,2010002043515,登記記録の閉鎖等,0,2022-03-04,2022-02-24,トキヲカガヤク有限会社,,有限会社,東京都,中央区,日本橋浜町３丁目１９番２号日本橋ユウキビル３０３,,13,102,1030007,,,2022-02-24,清算の結了等,,,2015-10-05,1,,,,,トキオカガヤク,0
338,2010401122167,登記記録の閉鎖等,0,2022-03-04,2022-02-28,ｉ－ｏｎ株式会社,,株式会社,東京都,港区,西新橋１丁目６番１３号柏屋ビル６Ｆ,,13,103,1050003,,,2022-02-28,清算の結了等,,,2015-12-18,1,,,,,,0
357,2010501032596,登記記録の閉鎖等,0,2022-03-04,2022-02-28,ＡＴＴ株式会社,,株式会社,東京都,墨田区,両国２丁目１７番１７号両国ＳＴビル４階,,13,107,1300026,,,2022-02-28,清算の結了等,,,2015-10-05,1,,,,,,0
364,2010605001877,登記記録の閉鎖等,0,2022-03-04,2022-02-28,特定非営利活動法人ＤａｒｌｕｎＳｕｐｐｏｒｔｓＡｎｉｍａｌｓ,,その他の設立登記法人,東京都,江東区,大島１丁目２番１－３８０２号,,13,108,1360072,,,2022-02-28,清算の結了等,,,2015-10-05,1,,,,,ダールンサポーツアニマルズ,0
377,2010902001241,登記記録の閉鎖等,0,2022-03-04,2022-02-21,有限会社イーディーアイコンサルティング,,有限会社,東京都,世田谷区,深沢５丁目２番９－７０７号,,13,112,1580081,,,2022-02-21,清算の結了等,,,2015-10-05,1,,,,,イーディーアイコンサルティング,0
390,2011101068139,登記記録の閉鎖等,0,2022-03-04,2022-02-24,株式会社パジカリー,,株式会社,東京都,目黒区,青葉台３丁目１番１２号,,13,110,1530042,,,2022-02-24,清算の結了等,,,2015-10-05,1,,,,,パジカリー,0
396,2011102027713,登記記録の閉鎖等,0,2022-03-04,2022-02-25,有限会社Ｋ－Ｌｏｇｉｓｔｉｃｓ,,有限会社,東京都,中野区,弥生町５丁目８番５号,,13,114,1640013,,,2022-02-25,清算の結了等,,,2015-10-05,1,,,,,,0
401,2011601016274,登記記録の閉鎖等,0,2022-03-04,2022-02-28,株式会社ＳＫパートナーズ,,株式会社,東京都,練馬区,早宮１丁目１８番１７号,,13,120,1790085,,,2022-02-28,清算の結了等,,,2015-10-05,1,,,,,エスケーパートナーズ,0
412,2011803003442,登記記録の閉鎖等,0,2022-03-04,2022-02-24,平安商事合同会社,,合同会社,千葉県,市川市,曽谷８丁目１８番１１号,,12,203,2720832,,,2022-02-24,清算の結了等,,,2018-09-18,1,,,,,ヘイアンショウジ,0
420,2013301027163,登記記録の閉鎖等,0,2022-03-04,2022-03-01,アイカンタム株式会社,,株式会社,東京都,豊島区,高松１丁目１１番１６号西池袋フジタビル,,13,116,1710042,,,2022-03-01,合併による解散等,3013301029695,令和４年３月１日東京都豊島区高松一丁目１１番１６号西池袋フジタビル日本カンタム・デザイン株式会社（3013301029695）に合併し解散,2015-10-05,1,,,,,アイカンタム,0
435,2020002048075,登記記録の閉鎖等,0,2022-03-04,2022-03-01,有限会社三松タイル店,,有限会社,神奈川県,横浜市西区,浅間町２丁目１００番地の１,,14,103,2200072,,,2022-03-01,清算の結了等,,,2015-10-05,1,,,,,,0
437,2020003004770,登記記録の閉鎖等,0,2022-03-04,2022-02-28,洋行・インターナショナル合同会社,,合同会社,東京都,足立区,新田３丁目３７－１３－Ａ７１０,,13,121,1230865,,,2022-02-28,清算の結了等,,,2015-10-05,1,,,,,,0
454,2030002027185,登記記録の閉鎖等,0,2022-03-04,2022-03-01,有限会社盛オフセット印刷,,有限会社,埼玉県,戸田市,美女木５丁目１３番地の７,,11,224,3350031,,,2022-03-01,清算の結了等,,,2015-10-05,1,,,,,モリオフセットインサツ,0
459,2040001047803,登記記録の閉鎖等,0,2022-03-04,2022-02-28,八街観光自動車株式会社,,株式会社,千葉県,八街市,八街ほ３７３番地６９,,12,230,2891115,,,2022-02-28,清算の結了等,,,2015-10-05,1,,,,,ヤチマタカンコウジドウシャ,0
480,2060005004286,登記記録の閉鎖等,0,2022-03-04,2022-03-01,栃北自動車工業企業組合,,その他の設立登記法人,栃木県,大田原市,浅香３丁目３５７８番地３６７,,09,210,3240043,,,2022-03-01,清算の結了等,,,2015-10-05,1,,,,,トチホクジドウシャコウギョウ,0
503,2110002017319,登記記録の閉鎖等,0,2022-03-04,2022-03-01,有限会社ダイエーサービス,,有限会社,新潟県,新潟市中央区,古町通６番町９６３番地１,,15,103,9518063,,,2022-03-01,合併による解散等,6110001016771,令和４年３月１日新潟市中央区古町通六番町９６３番地１株式会社ヌーベル古町（6110001016771）に合併し解散,2015-10-05,1,,,,,ダイエーサービス,0
507,2120001180744,登記記録の閉鎖等,0,2022-03-04,2022-02-24,株式会社アカデミー,,株式会社,大阪府,大阪市阿倍野区,阿倍野筋３丁目１－１,,27,119,5450052,,,2022-02-24,清算の結了等,,,2015-10-05,1,,,,,アカデミー,0
564,2180001138167,登記記録の閉鎖等,0,2022-03-04,2022-03-01,株式会社ステップサポーター,,株式会社,愛知県,稲沢市,北麻績町郷前１５番地,,23,220,4928448,,,2022-03-01,合併による解散等,2180001100762,令和４年３月１日愛知県稲沢市北麻績町郷前１５番地株式会社オーテクニック（2180001100762）に合併し解散,2019-09-30,1,,,,,ステップサポーター,0
623,2330002021505,登記記録の閉鎖等,0,2022-03-04,2022-02-25,有限会社甲斐木材工業,,有限会社,熊本県,玉名市,天水町小天６５３７番地の２,,43,206,8615401,,,2022-02-25,清算の結了等,,,2015-10-05,1,,,,,カイモクザイコウギョウ,0
668,2500001017701,登記記録の閉鎖等,0,2022-03-04,2022-03-01,株式会社グリップコーポレイション,,株式会社,愛媛県,今治市,大西町九王甲１５２０番地,,38,202,7992201,,,2022-03-01,合併による解散等,1500001011226,令和４年３月１日愛媛県今治市野間甲１０５番地ＢＥＭＡＣ株式会社（1500001011226）に合併し解散,2015-10-05,1,,,,,グリップコーポレイション,0
681,3010003021618,登記記録の閉鎖等,0,2022-03-04,2022-02-28,プライムスマートソーラー大波合同会社,,合同会社,東京都,中央区,日本橋堀留町１丁目１１番地４号パルサービル４階,,13,102,1030012,,,2022-02-28,清算の結了等,,,2015-10-05,1,,,,,プライムスマートソーラー,0
707,3010502018627,登記記録の閉鎖等,0,2022-03-04,2022-03-02,有限会社カサピエル・エス・エー,,有限会社,東京都,台東区,雷門２丁目１６番６号グランコピエ浅草雷門２０３,,13,106,1110034,,,2022-03-02,清算の結了等,,,2015-10-05,1,,,,,カサピエルエスエー,0
709,3010701038277,登記記録の閉鎖等,0,2022-03-04,2022-03-01,株式会社エイアイ・フィールド,,株式会社,東京都,品川区,東五反田１丁目２１番１３号,,13,109,1410022,,,2022-03-01,合併による解散等,8013201016723,令和４年３月１日東京都品川区大崎一丁目２番２号ＡＭＢＬ株式会社（8013201016723）に合併し解散,2019-10-15,1,,,,,エイアイフィールド,0
755,3013201000748,登記記録の閉鎖等,0,2022-03-04,2022-02-22,株式会社ヴァルト,,株式会社,東京都,目黒区,鷹番３丁目４番９号,,13,110,1520004,,,2022-02-22,清算の結了等,,,2015-10-05,1,,,,,ヴァルト,0
759,3013401006586,登記記録の閉鎖等,0,2022-03-04,2022-03-01,株式会社伸和,,株式会社,東京都,八王子市,南大沢１丁目１５番地１,,13,201,1920364,,,2022-03-01,清算の結了等,,,2015-10-05,1,,,,,シンワ,0
771,3020002034264,登記記録の閉鎖等,0,2022-03-04,2022-02-28,有限会社瑞涛,,有限会社,神奈川県,横浜市港北区,綱島西２丁目７番３０号,,14,109,2230053,,,2022-02-28,清算の結了等,,,2015-10-05,1,,,,,ズイトウ,0
785,3021002005627,登記記録の閉鎖等,0,2022-03-04,2022-03-01,有限会社鳶翔建設,,有限会社,神奈川県,藤沢市,辻堂５丁目１番１１号,,14,205,2510047,,,2022-03-01,清算の結了等,,,2015-10-05,1,,,,,トビショウケンセツ,0
821,3100001032574,登記記録の閉鎖等,0,2022-03-04,2022-03-01,株式会社スイスイン,,株式会社,長野県,下高井郡山ノ内町,大字平穏７１４９番地,,20,561,3810401,,,2022-03-01,合併による解散等,4100001032573,令和４年３月１日長野県下高井郡山ノ内町大字平穏７１４９番地株式会社スイスイン（4100001032573）に合併し解散,2019-10-03,1,,,,,スイスイン,0
826,3110002003697,登記記録の閉鎖等,0,2022-03-04,2022-03-01,有限会社ダイエーアシスト,,有限会社,新潟県,新潟市中央区,古町通６番町９６３番地,,15,103,9518063,,,2022-03-01,合併による解散等,6110001016771,令和４年３月１日新潟市中央区古町通六番町９６３番地１株式会社ヌーベル古町（6110001016771）に合併し解散,2015-10-05,1,,,,,,0
827,3110002004092,登記記録の閉鎖等,0,2022-03-04,2022-03-01,有限会社田村保険事務所,,有限会社,新潟県,新潟市中央区,古町通６番町９６３番地,,15,103,9518063,,,2022-03-01,合併による解散等,6110001016771,令和４年３月１日新潟市中央区古町通六番町９６３番地１株式会社ヌーベル古町（6110001016771）に合併し解散,2015-10-05,1,,,,,,0
833,3120001212546,登記記録の閉鎖等,0,2022-03-04,2022-02-28,株式会社ホテルシーガルてんぽーざん大阪,,株式会社,大阪府,大阪市港区,海岸通１丁目５番１５号,,27,107,5520022,,,2022-02-28,合併による解散等,9120001212540,令和４年２月２８日大阪市住之江区南港北一丁目３番５号株式会社大阪アカデミア（9120001212540）に合併し解散,2018-04-10,1,,,,,ホテルシーガルテンポーザンオオサカ,0
836,3120001233798,登記記録の閉鎖等,0,2022-03-04,2022-02-22,株式会社ＪＢＣ,,株式会社,大阪府,大阪市中央区,難波４丁目１番１５号近鉄難波ビル１Ｆ１１７,,27,128,5420076,,,2022-02-22,清算の結了等,,,2020-12-15,1,,,,,ジェービーシー,0
846,3120103001806,登記記録の閉鎖等,0,2022-03-04,2022-02-28,合同会社イーアス,,合同会社,大阪府,堺市西区,上野芝向ヶ丘町５丁１３番６号,,27,144,5938303,,,2022-02-28,清算の結了等,,,2015-10-05,1,,,,,イーアス,0
872,3160005007369,登記記録の閉鎖等,0,2022-03-04,2022-02-28,ＮＰＯ法人近江八幡市中間支援センター,,その他の設立登記法人,滋賀県,近江八幡市,為心町元９,,25,204,5230864,,,2022-02-28,清算の結了等,,,2015-10-05,1,,,,,オウミハチマンシチュウカンシエンセンター,0
874,3180001026940,登記記録の閉鎖等,0,2022-03-04,2022-02-28,株式会社富士工業所,,株式会社,愛知県,名古屋市西区,笠取町１丁目２１番地,,23,104,4510072,,,2022-02-28,清算の結了等,,,2015-10-05,1,,,,,フジコウギョウショ,0
919,3250005005784,登記記録の閉鎖等,0,2022-03-04,2022-02-28,一般社団法人光青年会議所,,その他の設立登記法人,山口県,光市,島田４丁目１４番１５号,,35,210,7430063,,,2022-02-28,清算の結了等,,,2015-10-05,1,,,,,ヒカリセイネンカイギショ,0
962,3370002009297,登記記録の閉鎖等,0,2022-03-04,2022-02-28,有限会社アイピーエス,,有限会社,宮城県,仙台市青葉区,川平４丁目１番２４号,,04,101,9810954,,,2022-02-28,清算の結了等,,,2015-10-05,1,,,,,アイピーエス,0
996,4010401008356,登記記録の閉鎖等,0,2022-03-04,2022-02-24,スネル・アドバンスト・メディア株式会社,,株式会社,東京都,千代田区,神田司町２丁目７番地２,,13,101,1010048,,,2022-02-24,清算の結了等,,,2015-10-05,1,,,,,スネルアドバンストメディア,0
1006,4010402012522,登記記録の閉鎖等,0,2022-03-04,2022-02-28,有限会社美濃富ビル管理事務所,,有限会社,東京都,港区,芝公園３丁目１番１号,,13,103,1050011,,,2022-02-28,清算の結了等,,,2015-10-05,1,,,,,ミノトミビルカンリジムショ,0
1028,4011001071026,登記記録の閉鎖等,0,2022-03-04,2022-02-25,株式会社バレンティ,,株式会社,東京都,渋谷区,渋谷３丁目５番１６号,,13,113,1500002,,,2022-02-25,清算の結了等,,,2015-10-05,1,,,,,バレンティ,0
1029,4011001098408,登記記録の閉鎖等,0,2022-03-04,2022-02-21,ニューワールドワイン株式会社,,株式会社,東京都,渋谷区,恵比寿４丁目１１番９号,,13,113,1500013,,,2022-02-21,清算の結了等,,,2015-10-05,1,,,,,ニューワールドワイン,0
1034,4011001115765,登記記録の閉鎖等,0,2022-03-04,2022-02-24,株式会社ブラン,,株式会社,東京都,目黒区,緑が丘２丁目９－１７ＧＬＩＤＥ自由が丘２０４,,13,110,1520034,,,2022-02-24,清算の結了等,,,2017-04-18,1,,,,,ブラン,0
1066,4012401018938,登記記録の閉鎖等,0,2022-03-04,2022-02-28,株式会社コーポ・フォーリア,,株式会社,東京都,調布市,深大寺元町４丁目３番地１９,,13,208,1820017,,,2022-02-28,清算の結了等,,,2015-10-05,1,,,,,,0
1131,4060002020177,登記記録の閉鎖等,0,2022-03-04,2022-03-01,有限会社佐野鈑金工業,,有限会社,栃木県,鹿沼市,茂呂８１２番地９,,09,205,3220026,,,2022-03-01,清算の結了等,,,2015-10-05,1,,,,,サノバンキンコウギョウ,0
1140,4080102014242,登記記録の閉鎖等,0,2022-03-04,2022-03-01,有限会社ストローイヤー,,有限会社,静岡県,富士市,比奈８５５番地の１,,22,210,4170847,,,2022-03-01,清算の結了等,,,2015-10-05,1,,,,,ストローイヤー,0
1152,4110001001131,登記記録の閉鎖等,0,2022-03-04,2022-03-01,株式会社アペックス,,株式会社,新潟県,新潟市中央区,古町通６番町９６３番地,,15,103,9518063,,,2022-03-01,合併による解散等,6110001016771,令和４年３月１日新潟市中央区古町通六番町９６３番地１株式会社ヌーベル古町（6110001016771）に合併し解散,2015-10-05,1,,,,,,0
1155,4120001023208,登記記録の閉鎖等,0,2022-03-04,2022-02-28,株式会社ケイエイ,,株式会社,大阪府,大阪市天王寺区,清水谷町２番３３号,,27,109,5430011,,,2022-02-28,合併による解散等,9120001100638,令和４年２月２０日大阪市天王寺区清水谷町２番３３号株式会社スミタ商事（9120001100638）に合併し解散,2015-10-05,1,,,,,ケイエイ,0
1157,4120001032150,登記記録の閉鎖等,0,2022-03-04,2022-03-02,伊澤タオル株式会社,,株式会社,東京都,渋谷区,恵比寿西１丁目２６番６号,,13,113,1500021,,,2022-03-02,合併による解散等,9010401160598,令和４年３月１日東京都港区虎ノ門一丁目２３番１号ジャフコグループ株式会社内伊澤タオル株式会社（9010401160598）に合併し解散,2015-10-05,1,,,,,イザワタオル,0
1177,4120101060968,登記記録の閉鎖等,0,2022-03-04,2022-02-28,株式会社テック・フィフティフォー,,株式会社,大阪府,堺市堺区,南旅篭町東２丁２番２２号,,27,141,5900965,,,2022-02-28,清算の結了等,,,2019-12-12,1,,,,,テックフィフティフォー,0
1189,4130001063748,登記記録の閉鎖等,0,2022-03-04,2022-02-28,株式会社エイト,,株式会社,京都府,京都市西京区,川島玉頭町３４番地１３,,26,111,6158193,,,2022-02-28,清算の結了等,,,2019-01-22,1,,,,,エイト,0
1206,4140002024533,登記記録の閉鎖等,0,2022-03-04,2022-02-24,有限会社ＩＳＯ＆生産技術コンサルティング,,有限会社,兵庫県,神戸市垂水区,つつじが丘２丁目１番地の９,,28,108,6550853,,,2022-02-24,清算の結了等,,,2015-10-05,1,,,,,アイエスオーアンドセイサンギジュツコンサルティング,0
1233,4190001014431,登記記録の閉鎖等,0,2022-03-04,2022-03-01,株式会社エスアイティ,,株式会社,三重県,四日市市,鵜の森２丁目２番１９号,,24,202,5100074,,,2022-03-01,合併による解散等,9190001017264,令和４年３月１日三重県四日市市北浜町８番１６号株式会社センコーコーポレーション（9190001017264）に合併し解散,2015-10-05,1,,,,,エスアイティ,0
1234,4190003002665,登記記録の閉鎖等,0,2022-03-04,2022-03-02,宝聚合同会社,,合同会社,三重県,いなべ市,大安町石榑南３７４番地,,24,214,5110266,,,2022-03-02,清算の結了等,,,2017-03-09,1,,,,,ホウジュ,0
1282,4330001016165,登記記録の閉鎖等,0,2022-03-04,2022-03-01,株式会社やまもと,,株式会社,熊本県,球磨郡あさぎり町,免田東１４９７番地の３２,,43,514,8680408,,,2022-03-01,清算の結了等,,,2015-10-05,1,,,,,ヤマモト,0
1305,4380005004624,登記記録の閉鎖等,0,2022-03-04,2022-02-28,白河地区木材製材協同組合,,その他の設立登記法人,福島県,白河市,会津町９３番地２１,,07,205,9610075,,,2022-02-28,清算の結了等,,,2015-10-05,1,,,,,シラカワチクモクザイセイザイ,0
1366,5010701035041,登記記録の閉鎖等,0,2022-03-04,2022-03-01,ｂａｌｃｏｎｉａ株式会社,,株式会社,東京都,品川区,東五反田２丁目７番１８号,,13,109,1410022,,,2022-03-01,合併による解散等,8013201016723,令和４年３月１日東京都品川区大崎一丁目２番２号ＡＭＢＬ株式会社（8013201016723）に合併し解散,2017-12-07,1,,,,,バルコニア,0
1369,5010801009481,登記記録の閉鎖等,0,2022-03-04,2022-03-01,株式会社仁和製作所,,株式会社,東京都,大田区,西糀谷２丁目２７番地１０号,,13,111,1440034,,,2022-03-01,清算の結了等,,,2015-10-05,1,,,,,ニワセイサクショ,0
1453,5050001031497,登記記録の閉鎖等,0,2022-03-04,2022-02-25,株式会社スプラッシュ,,株式会社,茨城県,筑西市,下中山１２４６番地の３,,08,227,3080825,,,2022-02-25,清算の結了等,,,2015-10-05,1,,,,,スプラッシュ,0
1468,5080001011091,登記記録の閉鎖等,0,2022-03-04,2022-03-03,株式会社地建静岡,,株式会社,静岡県,静岡市葵区,千代田７丁目４番１２－２号,,22,101,4200803,,,2022-03-03,清算の結了等,,,2015-10-05,1,,,,,,0
1482,5110001008976,登記記録の閉鎖等,0,2022-03-04,2022-03-01,株式会社西堀写真館,,株式会社,新潟県,新潟市中央区,東大畑通２番町４８７番地１,,15,103,9518106,,,2022-03-01,合併による解散等,6110001034294,令和４年３月１日新潟市中央区東大畑通二番町４８７番地１株式会社晴涼（6110001034294）に合併し解散,2015-10-05,1,,,,,ニシボリシャシンカン,0
1485,5120001032199,登記記録の閉鎖等,0,2022-03-04,2022-03-02,インタークラフト通商株式会社,,株式会社,東京都,渋谷区,恵比寿西１丁目２６番６号,,13,113,1500021,,,2022-03-02,合併による解散等,9010401160598,令和４年３月１日東京都港区虎ノ門一丁目２３番１号ジャフコグループ株式会社内伊澤タオル株式会社（9010401160598）に合併し解散,2015-10-05,1,,,,,インタークラフトツウショウ,0
1490,5120001137007,登記記録の閉鎖等,0,2022-03-04,2022-03-01,カオン株式会社,,株式会社,大阪府,大阪市北区,豊崎３丁目１９番３号,,27,127,5310072,,,2022-03-01,合併による解散等,7120001069280,令和４年３月１日大阪市北区豊崎三丁目１９番３号ピアス株式会社（7120001069280）に合併し解散,2015-10-05,1,,,,,カオン,0
1492,5120001145959,登記記録の閉鎖等,0,2022-03-04,2022-03-01,リヴォーン株式会社,,株式会社,大阪府,大阪市北区,豊崎３丁目１９番３号,,27,127,5310072,,,2022-03-01,合併による解散等,7120001069280,令和４年３月１日大阪市北区豊崎三丁目１９番３号ピアス株式会社（7120001069280）に合併し解散,2015-10-05,1,,,,,リヴォーン,0
1539,5170001006685,登記記録の閉鎖等,0,2022-03-04,2022-03-03,株式会社田淵鉄工所,,株式会社,和歌山県,和歌山市,鳴神５５０番地,,30,201,6408303,,,2022-03-03,清算の結了等,,,2015-10-05,1,,,,,タブチテッコウショ,0
1575,5250001016180,登記記録の閉鎖等,0,2022-03-04,2022-03-01,株式会社とうや,,株式会社,山口県,岩国市,中津町１丁目３番５号,,35,208,7400027,,,2022-03-01,清算の結了等,,,2016-09-09,1,,,,,トウヤ,0
1579,5250002020041,登記記録の閉鎖等,0,2022-03-04,2022-02-28,有限会社福吉,,有限会社,山口県,熊毛郡平生町,大字平生町５８５番地,,35,344,7421101,,,2022-02-28,清算の結了等,,,2015-10-05,1,,,,,ユクヨシ,0
1621,5390001001185,登記記録の閉鎖等,0,2022-03-04,2022-02-28,株式会社宅建設,,株式会社,山形県,山形市,蔵王成沢８９５番３号,,06,201,9902334,,,2022-02-28,清算の結了等,,,2015-10-05,1,,,,,タクケンセツ,0
1623,5410001009333,登記記録の閉鎖等,0,2022-03-04,2022-03-01,株式会社アリビオ,,株式会社,秋田県,横手市,十文字町宝竜１丁目１８番地,,05,203,0190518,,,2022-03-01,清算の結了等,,,2015-10-05,1,,,,,アリビオ,0
1646,5490002011272,登記記録の閉鎖等,0,2022-03-04,2022-03-02,有限会社小松印刷所,,有限会社,高知県,香美市,土佐山田町西本町１丁目３番２４号,,39,212,7820032,,,2022-03-02,清算の結了等,,,2015-10-05,1,,,,,コマツインサツショ,0
1687,6010601009466,登記記録の閉鎖等,0,2022-03-04,2022-03-02,大井工業株式会社,,株式会社,東京都,墨田区,亀沢４丁目１７番２号,,13,107,1300014,,,2022-03-02,合併による解散等,8010001131934,令和４年３月１日東京都港区東新橋二丁目１４番１号株式会社ワールドレジデンシャル（8010001131934）に合併し解散,2015-10-05,1,,,,,オオイコウギョウ,0
1691,6010701037508,登記記録の閉鎖等,0,2022-03-04,2022-03-02,株式会社テン,,株式会社,東京都,品川区,西五反田５丁目１３番８号不動前アパートメント４Ａ,,13,109,1410031,,,2022-03-02,清算の結了等,,,2019-05-10,1,,,,,テン,0
1701,6010903005130,登記記録の閉鎖等,0,2022-03-04,2022-03-02,合同会社ＮＯＴＯ,,合同会社,東京都,世田谷区,砧１丁目３３番７号リヴェールコンステラション,,13,112,1570073,,,2022-03-02,清算の結了等,,,2019-08-26,1,,,,,ノート,0
1728,6012401014547,登記記録の閉鎖等,0,2022-03-04,2022-03-01,株式会社ナレッジデザイン,,株式会社,東京都,武蔵野市,関前１丁目１番４号,,13,203,1800014,,,2022-03-01,清算の結了等,,,2015-10-05,1,,,,,,0
1745,6020002059093,登記記録の閉鎖等,0,2022-03-04,2022-03-01,有限会社鈴博建設,,有限会社,神奈川県,横浜市瀬谷区,宮沢３丁目５番地１,,14,114,2460038,,,2022-03-01,清算の結了等,,,2015-10-05,1,,,,,,0
1752,6021001021036,登記記録の閉鎖等,0,2022-03-04,2022-03-01,株式会社企業事務センター,,株式会社,神奈川県,伊勢原市,石田３５０番地,,14,214,2591116,,,2022-03-01,清算の結了等,,,2015-10-05,1,,,,,キギョウジムセンター,0
1755,6021001032495,登記記録の閉鎖等,0,2022-03-04,2022-03-01,株式会社勝沢商事,,株式会社,神奈川県,小田原市,久野２３６０番地１,,14,206,2500055,,,2022-03-01,清算の結了等,,,2015-10-05,1,,,,,カツサワショウジ,0
1759,6021002016092,登記記録の閉鎖等,0,2022-03-04,2022-03-01,有限会社ブルーワー,,有限会社,神奈川県,鎌倉市,寺分２１４番地５９,,14,204,2470064,,,2022-03-01,清算の結了等,,,2015-10-05,1,,,,,ブルーワー,0
1760,6021002045166,登記記録の閉鎖等,0,2022-03-04,2022-03-01,有限会社ショッピングセンター升彦,,有限会社,神奈川県,海老名市,東柏ケ谷５丁目７番７号,,14,215,2430401,,,2022-03-01,清算の結了等,,,2015-10-05,1,,,,,ショッピングセンターマスヒコ,0
1776,6030002108345,登記記録の閉鎖等,0,2022-03-04,2022-02-28,有限会社和光木型製作所,,有限会社,埼玉県,川口市,元郷３丁目１９番２０号,,11,203,3320011,,,2022-02-28,清算の結了等,,,2015-10-05,1,,,,,ワコウキガタセイサクショ,0
1797,6050002012834,登記記録の閉鎖等,0,2022-03-04,2022-02-21,有限会社松浦工務店,,有限会社,茨城県,稲敷郡阿見町,大字廻戸３２６番地,,08,443,3000302,,,2022-02-21,清算の結了等,,,2015-10-05,1,,,,,マツウラコウムテン,0
1799,6060001008106,登記記録の閉鎖等,0,2022-03-04,2022-02-28,株式会社成田製作所,,株式会社,栃木県,那須烏山市,横枕６８番地,,09,215,3210618,,,2022-02-28,清算の結了等,,,2015-10-05,1,,,,,ナリタセイサクショ,0
1805,6080002000035,登記記録の閉鎖等,0,2022-03-04,2022-03-02,有限会社アークス,,有限会社,静岡県,静岡市葵区,瀬名中央４丁目６番６号,,22,101,4200916,,,2022-03-02,清算の結了等,,,2015-10-05,1,,,,,,0
1814,6100005009079,登記記録の閉鎖等,0,2022-03-04,2022-02-28,大昌寺,,その他の設立登記法人,長野県,上伊那郡中川村,片桐７２１４番地,,20,386,3993802,,,2022-02-28,清算の結了等,,,2015-10-05,1,,,,,ダイショウジ,0
1830,6120001145207,登記記録の閉鎖等,0,2022-03-04,2022-03-01,松屋産業株式会社,,株式会社,大阪府,大阪市中央区,松屋町３番２３号,,27,128,5420067,,,2022-03-01,合併による解散等,7120001171094,令和４年３月１日大阪市中央区松屋町３番２３号株式会社清晨（7120001171094）に合併し解散,2015-10-05,1,,,,,マツヤサンギョウ,0
1884,6180001070102,登記記録の閉鎖等,0,2022-03-04,2022-03-01,株式会社ここお,,株式会社,愛知県,名古屋市守山区,大永寺町２７８番地,,23,113,4630087,,,2022-03-01,合併による解散等,6180001071174,令和４年３月１日名古屋市守山区鳥神町１８０番地株式会社あかり（6180001071174）に合併し解散,2015-10-05,1,,,,,ココオ,0
1888,6180001122431,登記記録の閉鎖等,0,2022-03-04,2022-03-01,株式会社プラカフェ,,株式会社,愛知県,名古屋市中川区,上高畑２丁目４２番地,,23,110,4540873,,,2022-03-01,清算の結了等,,,2016-03-08,1,,,,,プラカフェ,0
1907,6200002008189,登記記録の閉鎖等,0,2022-03-04,2022-03-02,有限会社美那登ドライ商会,,有限会社,岐阜県,各務原市,那加西那加町１３番地,,21,213,5040952,,,2022-03-02,清算の結了等,,,2015-10-05,1,,,,,ミナトドライショウカイ,0
1918,6240003003284,登記記録の閉鎖等,0,2022-03-04,2022-03-02,合同会社中屋玉仙堂,,合同会社,広島県,廿日市市,宮島町５３６番地９,,34,213,7390588,,,2022-03-02,清算の結了等,,,2016-05-12,1,,,,,ナカヤギョクセンドウ,0
1923,6250001018622,登記記録の閉鎖等,0,2022-03-04,2022-03-02,新日本機工株式会社,,株式会社,山口県,下松市,大字山田１１番地の５,,35,207,7440041,,,2022-03-02,清算の結了等,,,2021-01-05,1,,,,,シンニホンキコウ,0
1925,6250002004844,登記記録の閉鎖等,0,2022-03-04,2022-03-02,有限会社サテライト,,有限会社,山口県,宇部市,草江２丁目４番１３－１号,,35,202,7550004,,,2022-03-02,清算の結了等,,,2015-10-05,1,,,,,サテライト,0
1950,6320001012824,登記記録の閉鎖等,0,2022-03-04,2022-03-01,株式会社ユーワンオート,,株式会社,大分県,佐伯市,大字海崎１２８番地４,,44,205,8761105,,,2022-03-01,合併による解散等,4320002017238,令和４年３月１日大分県佐伯市弥生大字門田１２６２番地１株式会社豊南産業（4320002017238）に合併し解散,2015-10-05,1,,,,,,0
1964,6350001017151,登記記録の閉鎖等,0,2022-03-04,2022-02-28,ユナイテッドキッチン株式会社,,株式会社,宮崎県,宮崎市,橘通東４丁目１－４河北ビル１階,,45,201,8800805,,,2022-02-28,清算の結了等,,,2021-06-21,1,,,,,ユナイテッドキッチン,0
1971,6360001019782,登記記録の閉鎖等,0,2022-03-04,2022-02-28,株式会社ＳＥＶＥＮ　ＲＥＳＯＲＴＳ,,株式会社,沖縄県,国頭郡本部町,字崎本部５０２０番地２,,47,308,9050225,,,2022-02-28,清算の結了等,,,2015-10-05,1,,,,,セブンリゾーツ,0
1978,6370101001508,登記記録の閉鎖等,0,2022-03-04,2022-02-25,株式会社星野製作所,,株式会社,宮城県,白石市,大平森合字寺前１５番地,,04,206,9890217,,,2022-02-25,清算の結了等,,,2021-09-15,1,,,,,ホシノセイサクショ,0
1997,6490002002048,登記記録の閉鎖等,0,2022-03-04,2022-03-02,有限会社エコーサービス,,有限会社,高知県,高知市,南河ノ瀬町７９番地２,,39,201,7808034,,,2022-03-02,清算の結了等,,,2015-10-05,1,,,,,エコーサービス,0
1999,6490002011890,登記記録の閉鎖等,0,2022-03-04,2022-03-02,有限会社浜すし,,有限会社,高知県,南国市,大＿甲１５０４番地８,00006799,39,204,7830004,,,2022-03-02,清算の結了等,,,2015-10-05,1,,,,,,0
2020,7010003036430,登記記録の閉鎖等,0,2022-03-04,2022-03-01,フリーア合同会社,,合同会社,東京都,中央区,東日本橋２丁目２８番４号日本橋ＣＥＴビル２階,,13,102,1030004,,,2022-03-01,清算の結了等,,,2021-12-01,1,,,,,フリーア,0
2028,7010105001423,登記記録の閉鎖等,0,2022-03-04,2022-03-02,特定非営利活動法人八王子乳がんを知る会,,その他の設立登記法人,東京都,八王子市,戸吹町１１８０番地,,13,201,1920001,,,2022-03-02,清算の結了等,,,2015-10-05,1,,,,,ハチオウジニュウガンヲシルカイ,0
2042,7010501037368,登記記録の閉鎖等,0,2022-03-04,2022-03-03,株式会社東総,,株式会社,東京都,台東区,浅草２丁目１１番７号,,13,106,1110032,,,2022-03-03,清算の結了等,,,2015-10-05,1,,,,,,0
2043,7010502015380,登記記録の閉鎖等,0,2022-03-04,2022-03-04,有限会社まこと屋エース,,有限会社,東京都,台東区,竜泉３丁目１３番１３号,,13,106,1100012,,,2022-03-04,清算の結了等,,,2015-10-05,1,,,,,,0
2069,7011001106679,登記記録の閉鎖等,0,2022-03-04,2022-02-21,株式会社スタイリィ不動産,,株式会社,東京都,渋谷区,代々木３丁目４５番８号ザ・ヨークハウス１３号,,13,113,1510053,,,2022-02-21,清算の結了等,,,2015-10-05,1,,,,,スタイリィフドウサン,0
2101,7011802029847,登記記録の閉鎖等,0,2022-03-04,2022-02-24,埼玉新川運輸株式会社,,株式会社,埼玉県,三郷市,栄４丁目２７番地,,11,237,3410043,,,2022-02-24,清算の結了等,,,2015-10-05,1,,,,,サイタマシンカワウンユ,0
2103,7012302003144,登記記録の閉鎖等,0,2022-03-04,2022-02-17,有限会社露木商店,,有限会社,東京都,町田市,本町田２５０番地,,13,209,1940032,,,2022-02-17,清算の結了等,,,2015-10-05,1,,,,,ツユキショウテン,0
2111,7020001059787,登記記録の閉鎖等,0,2022-03-04,2022-03-02,株式会社遠藤商会,,株式会社,神奈川県,横浜市港北区,新横浜２丁目１２番地１６,,14,109,2220033,,,2022-03-02,清算の結了等,,,2015-10-05,1,,,,,エンドウショウカイ,0
2129,7021001010707,登記記録の閉鎖等,0,2022-03-04,2022-02-28,株式会社ＡＤ　ｏｆｆｉｃｅ,,株式会社,神奈川県,鎌倉市,笛田４丁目２６番６号,,14,204,2480027,,,2022-02-28,清算の結了等,,,2015-10-05,1,,,,,エーディーオフィス,0
2173,7060002034414,登記記録の閉鎖等,0,2022-03-04,2022-03-01,有限会社高橋養豚場,,有限会社,栃木県,下都賀郡壬生町,大字藤井１２４４番地１,,09,361,3210221,,,2022-03-01,清算の結了等,,,2015-10-05,1,,,,,タカハシヨウトンジョウ,0
2178,7080101017846,登記記録の閉鎖等,0,2022-03-04,2022-03-01,リュクスブライダル株式会社,,株式会社,静岡県,富士市,永田町２丁目１番１号,,22,210,4170055,,,2022-03-01,清算の結了等,,,2015-10-05,1,,,,,リュクスブライダル,0
2185,7110001018478,登記記録の閉鎖等,0,2022-03-04,2022-02-25,カイセイ農研株式会社,,株式会社,新潟県,村上市,宿田字神上り１０４番地２６,,15,212,9593435,,,2022-02-25,清算の結了等,,,2015-10-05,1,,,,,カイセイノウケン,0
2187,7120001004196,登記記録の閉鎖等,0,2022-03-04,2022-03-01,ファミリーオートサービス株式会社,,株式会社,大阪府,大阪市西成区,岸里東１丁目１５番１８号,,27,122,5570042,,,2022-03-01,清算の結了等,,,2015-10-05,1,,,,,,0
2191,7120001116999,登記記録の閉鎖等,0,2022-03-04,2022-03-01,ケサランパサラン株式会社,,株式会社,大阪府,大阪市北区,豊崎３丁目１９番３号,,27,127,5310072,,,2022-03-01,合併による解散等,7120001069280,令和４年３月１日大阪市北区豊崎三丁目１９番３号ピアス株式会社（7120001069280）に合併し解散,2015-10-05,1,,,,,ケサランパサラン,0
2239,7160001008400,登記記録の閉鎖等,0,2022-03-04,2022-03-03,株式会社鈴鹿工業,,株式会社,滋賀県,犬上郡多賀町,大字川相６０７番地の１,,25,443,5220324,,,2022-03-03,清算の結了等,,,2015-10-05,1,,,,,スズカコウギョウ,0
2248,7180001078284,登記記録の閉鎖等,0,2022-03-04,2022-02-28,株式会社エターナル,,株式会社,愛知県,春日井市,中央台６丁目５番地１０,,23,206,4870011,,,2022-02-28,清算の結了等,,,2015-10-05,1,,,,,エターナル,0
2262,7180002063293,登記記録の閉鎖等,0,2022-03-04,2022-02-28,有限会社大久保自動車,,有限会社,愛知県,長久手市,立花２８９６番地２３３,,23,238,4801307,,,2022-02-28,清算の結了等,,,2015-10-05,1,,,,,オオクボジドウシャ,0
2267,7180301025564,登記記録の閉鎖等,0,2022-03-04,2022-03-01,ペガサスクラブ株式会社,,株式会社,愛知県,岡崎市,日名南町５番地５,,23,202,4440915,,,2022-03-01,合併による解散等,9180301001687,令和４年３月１日愛知県岡崎市明大寺町字耳取８０番地１アオイ管理システム株式会社（9180301001687）に合併し解散,2015-10-05,1,,,,,ペガサスクラブ,0
2283,7230001009829,登記記録の閉鎖等,0,2022-03-04,2022-03-01,加越能自動車整備株式会社,,株式会社,富山県,高岡市,江尻字村中１２４３番地の１,,16,202,9330062,,,2022-03-01,合併による解散等,5230001009830,令和４年３月１日富山県高岡市江尻字村中１２４３番地の１加越能バス株式会社（5230001009830）に合併し解散,2015-10-05,1,,,,,カエツノウジドウシャセイビ,0
2290,7240003003390,登記記録の閉鎖等,0,2022-03-04,2022-03-01,イロア工業合同会社,,合同会社,広島県,福山市,神辺町大字川南１２８６番地７,,34,207,7202124,,,2022-03-01,清算の結了等,,,2016-10-07,1,,,,,イロアコウギョウ,0
2314,7330005007934,登記記録の閉鎖等,0,2022-03-04,2022-03-01,特定非営利活動法人熊本国際コミュニケーションズ,,その他の設立登記法人,熊本県,人吉市,願成寺町４５６番地４,,43,203,8680022,,,2022-03-01,清算の結了等,,,2015-10-05,1,,,,,クマモトコクサイコミュニケーションズ,0
2356,7480001011322,登記記録の閉鎖等,0,2022-03-04,2022-03-04,株式会社すき肌プロジェクト,,株式会社,徳島県,徳島市,北沖洲４丁目１０番２２－２－１０２号,,36,201,7700872,,,2022-03-04,清算の結了等,,,2021-04-06,1,,,,,スキハダプロジェクト,0
2391,8010402012857,登記記録の閉鎖等,0,2022-03-04,2022-02-28,有限会社惠堂,,有限会社,東京都,港区,西新橋３丁目２４番３号,,13,103,1050003,,,2022-02-28,合併による解散等,6500002016772,令和４年２月２８日東京都港区麻布台三丁目５番３－２６０１号Ｃ－ＮＥＸＴ株式会社（6500002016772）に合併し解散,2015-10-05,1,,,,,メグミドウ,0
2396,8010602032837,登記記録の閉鎖等,0,2022-03-04,2022-02-24,有限会社リアルタイムマネジメント,,有限会社,東京都,江東区,大島１丁目２番２－３９０１号,,13,108,1360072,,,2022-02-24,清算の結了等,,,2015-10-05,1,,,,,リアルタイムマネジメント,0
2525,8060002022161,登記記録の閉鎖等,0,2022-03-04,2022-02-28,有限会社ケー・ユー・エスプラニング,,有限会社,栃木県,那須塩原市,寺子字街道西３５７番７６,,09,213,3250011,,,2022-02-28,清算の結了等,,,2015-10-05,1,,,,,ケーユーエスプラニング,0
2528,8080001001627,登記記録の閉鎖等,0,2022-03-04,2022-03-03,株式会社賛倖建材,,株式会社,静岡県,静岡市駿河区,敷地１丁目７番１７号,,22,102,4228036,,,2022-03-03,清算の結了等,,,2015-10-05,1,,,,,,0
2545,8100001025747,登記記録の閉鎖等,0,2022-03-04,2022-03-01,株式会社フラワーステージながの,,株式会社,長野県,長野市,大字稲葉中千田２０２５番地,,20,201,3800916,,,2022-03-01,合併による解散等,2100001002710,令和４年３月１日長野市大字南長野妻科９６２番地株式会社ＮＩＫＫＯホールディングス（2100001002710）に合併し解散,2015-10-05,1,,,,,フラワーステージナガノ,0
2593,8140001000829,登記記録の閉鎖等,0,2022-03-04,2022-03-01,株式会社山村,,株式会社,大阪府,大阪市中央区,西心斎橋１丁目１３番２１号コーニッシュビル５Ｆ,,27,128,5420086,,,2022-03-01,合併による解散等,5120001063946,令和４年３月１日大阪市中央区西心斎橋一丁目１３番２１号コーニッシュビル５Ｆ株式会社コーニッシュ（5120001063946）に合併し解散,2015-10-05,1,,,,,ヤマムラ,0
2616,8180001101680,登記記録の閉鎖等,0,2022-03-04,2022-02-28,株式会社ＶＩＴＡＬ,,株式会社,愛知県,春日井市,大泉寺町２１７番地３５,,23,206,4860812,,,2022-02-28,清算の結了等,,,2015-10-05,1,,,,,バイタル,0
2648,8240005012653,登記記録の閉鎖等,0,2022-03-04,2022-03-02,特定非営利活動法人元気ヘッズアップ,,その他の設立登記法人,広島県,福山市,曙町３丁目３１番２０号,,34,207,7210952,,,2022-03-02,清算の結了等,,,2015-10-05,1,,,,,ゲンキヘッズアップ,0
2660,8290001045396,登記記録の閉鎖等,0,2022-03-04,2022-02-25,株式会社大澤商店,,株式会社,福岡県,飯塚市,横田５６８番地の３,,40,205,8200044,,,2022-02-25,清算の結了等,,,2015-10-05,1,,,,,オオサワショウテン,0
2693,8380001010382,登記記録の閉鎖等,0,2022-03-04,2022-02-28,白菱ペーパーテクノロジー株式会社,,株式会社,福島県,西白河郡西郷村,字前山西３番地,,07,461,9618054,,,2022-02-28,清算の結了等,,,2015-10-05,1,,,,,ハクリョウペーパーテクノロジー,0
2713,8440002010078,登記記録の閉鎖等,0,2022-03-04,2022-02-25,有限会社黒松内光農場,,有限会社,北海道,寿都郡寿都町,字歌棄町歌棄２６６番地２,,01,392,0480415,,,2022-02-25,清算の結了等,,,2015-10-05,1,,,,,クロマツナイヒカリノウジョウ,0
2735,9010001203559,登記記録の閉鎖等,0,2022-03-04,2022-02-28,株式会社ＤＢＤＢ,,株式会社,東京都,中央区,新川１丁目２５番１,,13,102,1040033,,,2022-02-28,清算の結了等,,,2019-08-28,1,,,,,ディービーディービー,0
2743,9010005027756,登記記録の閉鎖等,0,2022-03-04,2022-02-28,一般社団法人ハウス６,,その他の設立登記法人,東京都,千代田区,丸の内３丁目１番１号東京共同会計事務所内,,13,101,1000005,,,2022-02-28,清算の結了等,,,2017-11-20,1,,,,,ハウスシックス,0
2746,9010102007470,登記記録の閉鎖等,0,2022-03-04,2022-02-28,有限会社渡邊清商店,00050464,有限会社,東京都,八王子市,子安町１丁目２５番４号,,13,201,1920904,,,2022-02-28,清算の結了等,,,2015-10-05,1,,,,,ワタナベキヨシショウテン,0
2760,9010602030071,登記記録の閉鎖等,0,2022-03-04,2022-02-24,有限会社ヒロ商事,,有限会社,東京都,墨田区,両国２丁目２１番５号両国ダイカンプラザ７０１号,,13,107,1300026,,,2022-02-24,清算の結了等,,,2015-10-05,1,,,,,ヒロショウジ,0
2781,9011001137937,登記記録の閉鎖等,0,2022-03-04,2022-02-21,株式会社ＭＡＲＹ　ＷＥＬＬＮＥＳＳ,,株式会社,東京都,渋谷区,神宮前６丁目２３番４号桑野ビル２階,,13,113,1500001,,,2022-02-21,清算の結了等,,,2021-01-18,1,,,,,メリーウェルネス,0
2804,9011601024519,登記記録の閉鎖等,0,2022-03-04,2022-02-28,株式会社Ａｎｄｃａｌｌ,,株式会社,東京都,練馬区,石神井町７丁目２７番２１号,,13,120,1770041,,,2022-02-28,清算の結了等,,,2020-09-24,1,,,,,アンコール,0
2806,9011801007397,登記記録の閉鎖等,0,2022-03-04,2022-03-02,黒沢商事株式会社,,株式会社,東京都,足立区,栗原４丁目２１番３号,,13,121,1230842,,,2022-03-02,清算の結了等,,,2015-10-05,1,,,,,クロサワショウジ,0
2823,9020001124622,登記記録の閉鎖等,0,2022-03-04,2022-02-22,斎藤株式会社,,株式会社,神奈川県,川崎市高津区,久地３丁目１６番６－２０１６号,,14,134,2130032,,,2022-02-22,清算の結了等,,,2018-01-19,1,,,,,サイトウ,0
2871,9060001029999,登記記録の閉鎖等,0,2022-03-04,2022-03-01,株式会社ウィング,,株式会社,栃木県,下野市,柴字飯塚１１３２番地１３,,09,216,3290412,,,2022-03-01,清算の結了等,,,2017-11-22,1,,,,,ウィング,0
2878,9070005009518,登記記録の閉鎖等,0,2022-03-04,2022-03-01,ＮＰＯ法人永久,,その他の設立登記法人,群馬県,沼田市,町田町１９９３番地１,,10,206,3780062,,,2022-03-01,清算の結了等,,,2018-10-05,1,,,,,トワ,0
2889,9100001032338,登記記録の閉鎖等,0,2022-03-04,2022-03-01,株式会社Ｎｉｋｋｏマネジメント,,株式会社,長野県,長野市,大字南長野妻科９６２番地,,20,201,3800872,,,2022-03-01,合併による解散等,2100001002710,令和４年３月１日長野市大字南長野妻科９６２番地株式会社ＮＩＫＫＯホールディングス（2100001002710）に合併し解散,2019-07-12,1,,,,,ニッコーマネジメント,0
2940,9140001119172,登記記録の閉鎖等,0,2022-03-04,2022-02-28,株式会社Ｍ＆Ｄ,,株式会社,兵庫県,神戸市中央区,港島中町６丁目４番２号,,28,110,6500046,,,2022-02-28,合併による解散等,9140001107185,令和４年２月２８日神戸市中央区琴ノ緒町二丁目２番１号株式会社エスウィル（9140001107185）に合併し解散,2020-10-21,1,,,,,エムアンドディ,0
2966,9180002036306,登記記録の閉鎖等,0,2022-03-04,2022-03-01,有限会社永江設計事務所,,有限会社,愛知県,名古屋市東区,東外堀町４１番地,,23,102,4610017,,,2022-03-01,清算の結了等,,,2015-10-05,1,,,,,ナガエセッケイジムショ,0
2979,9200002019274,登記記録の閉鎖等,0,2022-03-04,2022-02-28,山一化成有限会社,,有限会社,岐阜県,関市,武芸川町小知野４８番地,,21,205,5012602,,,2022-02-28,清算の結了等,,,2015-10-05,1,,,,,ヤマイチカセイ,0
2980,9220001009002,登記記録の閉鎖等,0,2022-03-04,2022-03-01,株式会社イーピーエム・プレミアムルパ,,株式会社,石川県,白山市,田中町１７６番地の１,,17,210,9240801,,,2022-03-01,合併による解散等,6220001008972,令和４年３月１日石川県白山市田中町１７６番地の１株式会社イーピーエム・コーポレーション（6220001008972）に合併し解散,2015-10-05,1,,,,,イーピーエムプレミアムルパ,0
2982,9220005004180,登記記録の閉鎖等,0,2022-03-04,2022-02-28,山代温泉鍼灸マッサージ師協同組合,,その他の設立登記法人,石川県,加賀市,山代温泉１７の１３番地の４,,17,206,9220242,,,2022-02-28,清算の結了等,,,2015-10-05,1,,,,,ヤマシロオンセンシンキュウマッサージシ,0
2986,9230002010718,登記記録の閉鎖等,0,2022-03-04,2022-02-28,有限会社梅田呉服店,00079144,有限会社,富山県,高岡市,小馬出町８番地,,16,202,9330914,,,2022-02-28,清算の結了等,,,2015-10-05,1,,,,,ウメダゴフクテン,0
2998,9280002011942,登記記録の閉鎖等,0,2022-03-04,2022-03-01,有限会社しまネット,,有限会社,島根県,仁多郡奥出雲町,八川１５３５番地,,32,343,6991811,,,2022-03-01,清算の結了等,,,2015-10-05,1,,,,,シマネット,0
3013,9300001010637,登記記録の閉鎖等,0,2022-03-04,2022-03-02,株式会社ＳＳＫ,,株式会社,佐賀県,鳥栖市,下野町２４６０番地,,41,203,8410063,,,2022-03-02,清算の結了等,,,2017-01-19,1,,,,,エスエスケー,0
3018,9310001011551,登記記録の閉鎖等,0,2022-03-04,2022-03-02,株式会社アール・ワイ,,株式会社,長崎県,佐世保市,天神２丁目２３１番地１,,42,202,8571174,,,2022-03-02,清算の結了等,,,2015-10-05,1,,,,,アールワイ,0
3023,9320001015691,登記記録の閉鎖等,0,2022-03-04,2022-03-02,株式会社ＯＮＥ　ＨＥＡＲＴコーポレーション,,株式会社,大分県,宇佐市,大字吉松２１６番地の４,,44,211,8790441,,,2022-03-02,清算の結了等,,,2017-05-29,1,,,,,ワンハートコーポレーション,0
3029,9330001009040,登記記録の閉鎖等,0,2022-03-04,2022-03-01,株式会社シーズ,,株式会社,熊本県,熊本市中央区,上通町８番１４号,,43,101,8600845,,,2022-03-01,合併による解散等,5330001001760,令和４年３月１日熊本市中央区上通町８番１４号株式会社興農園（5330001001760）に合併し解散,2015-10-05,1,,,,,シーズ,0
3039,9360001011852,登記記録の閉鎖等,0,2022-03-04,2022-02-25,株式会社アッパーカット,,株式会社,沖縄県,中頭郡西原町,字我謝７９３番地フローレンスガーデン２０４号室,,47,329,9030112,,,2022-02-25,清算の結了等,,,2015-10-05,1,,,,,,0
3044,9370001002586,登記記録の閉鎖等,0,2022-03-04,2022-02-28,株式会社ＴＥＬＥ,,株式会社,宮城県,仙台市若林区,南材木町３番地,,04,103,9840805,,,2022-02-28,清算の結了等,,,2015-10-05,1,,,,,テレ,0
3045,9370001004054,登記記録の閉鎖等,0,2022-03-04,2022-02-28,株式会社まるきゅう,,株式会社,宮城県,仙台市若林区,南材木町３番地,,04,103,9840805,,,2022-02-28,清算の結了等,,,2015-10-05,1,,,,,,0
3048,9370002004508,登記記録の閉鎖等,0,2022-03-04,2022-02-28,有限会社ＴＥＬＥエナジー,,有限会社,宮城県,仙台市若林区,南材木町３番地,,04,103,9840805,,,2022-02-28,清算の結了等,,,2015-10-05,1,,,,,テレエナジー,0
3067,9430001080048,登記記録の閉鎖等,0,2022-03-04,2022-03-01,株式会社エフクロ,,株式会社,和歌山県,橋本市,南馬場３７９番地の１,,30,203,6480044,,,2022-03-01,清算の結了等,,,2019-10-11,1,,,,,エフクロ,0
