sequenceNumber,corporateNumber,process,correct,updateDate,changeDate,name,nameImageId,kind,prefectureName,cityName,streetNumber,addressImageId,prefectureCode,cityCode,postCode,addressOutside,addressOutsideImageId,closeDate,closeCause,successorCorporateNumber,changeCause,assignmentDate,latest,enName,enPrefectureName,enCityName,enAddressOutside,furigana,hihyoji
8,1010001223804,新規,0,2022-01-20,2022-01-20,株式会社ＷａＣＣａ,,株式会社,東京都,中央区,銀座１丁目１２－４Ｎ＆ＥＢＬＤ．７階,,13,102,1040061,,,,,,,2022-01-20,1,,,,,ワッカ,0
9,1010001223853,新規,0,2022-01-20,2022-01-20,ＨＲ－ｏｃｋｅｔ株式会社,,株式会社,東京都,千代田区,九段南１丁目５番６号りそな九段ビル５階,,13,101,1020074,,,,,,,2022-01-20,1,,,,,エイチアールロケット,0
10,1010001223928,新規,0,2022-01-20,2022-01-20,グリフィンジャパン株式会社,,株式会社,東京都,中央区,日本橋箱崎町３５番３号ＢＲＩＣＫＧＡＴＥ日本橋６階,,13,102,1030015,,,,,,,2022-01-20,1,,,,,グリフィンジャパン,0
11,1010001223960,新規,0,2022-01-20,2022-01-20,株式会社Ｒ,,株式会社,東京都,千代田区,隼町２番１２号６０６,,13,101,1020092,,,,,,,2022-01-20,1,,,,,アール,0
12,1010001223993,新規,0,2022-01-20,2022-01-20,株式会社クレカリ,,株式会社,東京都,中央区,月島３丁目１３番４号,,13,102,1040052,,,,,,,2022-01-20,1,,,,,クレカリ,0
15,1010003036799,新規,0,2022-01-20,2022-01-20,合同会社マイクロコンプレックス,,合同会社,東京都,文京区,目白台２丁目９番１３号,,13,105,1120015,,,,,,,2022-01-20,1,,,,,マイクロコンプレックス,0
20,1010005034479,新規,0,2022-01-20,2022-01-20,一般社団法人プラチナ構想ネットワーク,,その他の設立登記法人,東京都,千代田区,永田町２丁目１０番３号,,13,101,1000014,,,,,,,2022-01-20,1,,,,,プラチナコウソウネットワーク,0
27,1010401164961,新規,0,2022-01-20,2022-01-20,株式会社Ｒｏｙａｌ　Ｈｏｕｓｅ　Ｋｅｙ,,株式会社,東京都,港区,南青山６丁目２番９号ＫＳビル２Ｆ,,13,103,1070062,,,,,,,2022-01-20,1,,,,,ロイヤルハウスキー,0
28,1010401165027,新規,0,2022-01-20,2022-01-20,株式会社スカーラ,,株式会社,東京都,港区,赤坂３丁目２番６号アパ赤坂中央ビルＢ１,,13,103,1070052,,,,,,,2022-01-20,1,,,,,スカーラ,0
29,1010401165068,新規,0,2022-01-20,2022-01-20,株式会社サードナレッジ,,株式会社,東京都,港区,南青山２丁目２番１５号ウィン青山１２１４号,,13,103,1070062,,,,,,,2022-01-20,1,,,,,サードナレッジ,0
30,1010403026920,新規,0,2022-01-20,2022-01-20,合同会社ＧＫ０５３,,合同会社,東京都,港区,虎ノ門３丁目２２番１０－２０１号,,13,103,1050001,,,,,,,2022-01-20,1,,,,,ジーケイゼロファイブスリー,0
31,1010403026929,新規,0,2022-01-20,2022-01-20,エナジーワン合同会社,,合同会社,東京都,港区,港南４丁目６番１－１６０３号,,13,103,1080075,,,,,,,2022-01-20,1,,,,,エナジーワン,0
37,1010501048346,新規,0,2022-01-20,2022-01-20,楽邦株式会社,,株式会社,東京都,台東区,台東２丁目６番地６号３０１号室,,13,106,1100016,,,,,,,2022-01-20,1,,,,,ラクホウ,0
50,1011001144998,新規,0,2022-01-20,2022-01-20,株式会社ライズサクセス,,株式会社,東京都,目黒区,下目黒１丁目２－２１,,13,110,1530064,,,,,,,2022-01-20,1,,,,,ライズサクセス,0
51,1011001145195,新規,0,2022-01-20,2022-01-20,株式会社ＭＯＭＯ,,株式会社,東京都,渋谷区,神宮前４丁目７番８－３０１号,,13,113,1500001,,,,,,,2022-01-20,1,,,,,モモ,0
53,1011003014035,新規,0,2022-01-20,2022-01-20,合同会社ｏｚｅｋｉ　ｄｅｓｉｇｎ,,合同会社,東京都,渋谷区,東１丁目２５番５号フィルパーク渋谷東３階,,13,113,1500011,,,,,,,2022-01-20,1,,,,,オゼキデザイン,0
55,1011101097535,新規,0,2022-01-20,2022-01-20,株式会社ＵＬＵＣＯＳ,,株式会社,東京都,新宿区,西新宿３丁目３番１３号西新宿水間ビル６階,,13,104,1600023,,,,,,,2022-01-20,1,,,,,ウルコス,0
71,1011503005021,新規,0,2022-01-20,2022-01-20,合同会社ホープ,,合同会社,東京都,北区,西ケ原３丁目２－１東高駒込ペアシティ４１０,,13,117,1140024,,,,,,,2022-01-20,1,,,,,ホープ,0
72,1011503005046,新規,0,2022-01-20,2022-01-20,望み通り合同会社,,合同会社,東京都,荒川区,東日暮里５丁目４２番１０－２５０１号日暮里アインスタワー,,13,118,1160014,,,,,,,2022-01-20,1,,,,,ノゾミドオリ,0
75,1011703003048,新規,0,2022-01-20,2022-01-20,合同会社ピース３,,合同会社,東京都,江戸川区,松島３丁目４６番１６－１５０６号,,13,123,1320031,,,,,,,2022-01-20,1,,,,,ピースサン,0
81,1012401038781,新規,0,2022-01-20,2022-01-20,株式会社Ｃｒｙｓｔａｌ　Ｐａｌａｃｅ,,株式会社,東京都,調布市,飛田給２丁目８番地１３セカンド調布Ｂ２０２,,13,208,1820036,,,,,,,2022-01-20,1,,,,,クリスタルパレス,0
87,1013301048540,新規,0,2022-01-20,2022-01-20,株式会社ｄｙｅｒｓ,,株式会社,東京都,豊島区,南池袋１丁目２１番５号第７野萩ビルＢ１Ｆ,,13,116,1710022,,,,,,,2022-01-20,1,,,,,ダイナーズ,0
88,1013301048573,新規,0,2022-01-20,2022-01-20,度言株式会社,,株式会社,東京都,豊島区,巣鴨４丁目２１番９号下野第五ビル４階ハッピーｏｆｆｉｃｅ４０４号,,13,116,1700002,,,,,,,2022-01-20,1,,,,,ドゲン,0
97,1020001144867,新規,0,2022-01-20,2022-01-20,株式会社ＦＡＳグループ,,株式会社,神奈川県,横浜市戸塚区,上柏尾町３２３番地４２,,14,110,2440811,,,,,,,2022-01-20,1,,,,,エフエーエスグループ,0
98,1020001144883,新規,0,2022-01-20,2022-01-20,株式会社高島住設,00125461,株式会社,神奈川県,横浜市港南区,笹下６丁目３０番８号,,14,111,2340052,,,,,,,2022-01-20,1,,,,,タカシマジュウセツ,0
99,1020001144891,新規,0,2022-01-20,2022-01-20,ＬＴＦ株式会社,,株式会社,神奈川県,横浜市西区,浅間町１丁目５番地１,,14,103,2200072,,,,,,,2022-01-20,1,,,,,エルティーエフ,0
102,1020003021172,新規,0,2022-01-20,2022-01-20,合同会社彰美堂,,合同会社,神奈川県,横浜市磯子区,森５丁目１番１７号,,14,107,2350023,,,,,,,2022-01-20,1,,,,,ショウビドウ,0
109,1021001074988,新規,0,2022-01-20,2022-01-20,株式会社ダイワリノベーション,,株式会社,神奈川県,大和市,下鶴間８０６番地１４,,14,213,2420001,,,,,,,2022-01-20,1,,,,,ダイワリノベーション,0
127,1030003018696,新規,0,2022-01-20,2022-01-20,合同会社ｃｏｎｎｅｃｔｏｒ,,合同会社,埼玉県,さいたま市南区,鹿手袋７丁目１番１４号グレースマンション３０３,,11,108,3360031,,,,,,,2022-01-20,1,,,,,コネクター,0
134,1040001121831,新規,0,2022-01-20,2022-01-20,株式会社トランフテック,,株式会社,千葉県,野田市,なみき４丁目１７番地９,,12,208,2700229,,,,,,,2022-01-20,1,,,,,トランフテック,0
135,1040001121864,新規,0,2022-01-20,2022-01-20,梅田工業株式会社,,株式会社,千葉県,市原市,高坂３６２番地２,,12,219,2900254,,,,,,,2022-01-20,1,,,,,ウメダコウギョウ,0
136,1040001121872,新規,0,2022-01-20,2022-01-20,株式会社Ｕｎｉｇｍａ,,株式会社,千葉県,松戸市,大橋４６４番地の２０,,12,207,2702224,,,,,,,2022-01-20,1,,,,,ウニグマ,0
137,1040001121889,新規,0,2022-01-20,2022-01-20,株式会社安房リゾート,,株式会社,千葉県,館山市,館山８５２,,12,205,2940036,,,,,,,2022-01-20,1,,,,,アワリゾート,0
141,1040003019330,新規,0,2022-01-20,2022-01-20,合同会社宝佑,,合同会社,千葉県,市川市,相之川３丁目１１番３号,,12,203,2720143,,,,,,,2022-01-20,1,,,,,ホウユウ,0
142,1040005021499,新規,0,2022-01-20,2022-01-20,アクア国際技術人材支援協同組合,,その他の設立登記法人,千葉県,木更津市,畔戸１３５０番地２８,,12,206,2920005,,,,,,,2022-01-20,1,,,,,アクアコクサイギノウジンザイシエン,0
150,1060001034494,新規,0,2022-01-20,2022-01-20,株式会社カーライフトーヨー,,株式会社,栃木県,栃木市,大光寺町２５番地５,,09,203,3280003,,,,,,,2022-01-20,1,,,,,カーライフトーヨー,0
151,1060001034503,新規,0,2022-01-20,2022-01-20,株式会社友工業,,株式会社,栃木県,宇都宮市,下栗町７７２番地８０,,09,201,3210923,,,,,,,2022-01-20,1,,,,,ユウコウギョウ,0
152,1070001038866,新規,0,2022-01-20,2022-01-20,華盛中古商会株式会社,,株式会社,群馬県,桐生市,相生町２丁目７４０番地の９グロースベルクＢ２０２,,10,203,3760011,,,,,,,2022-01-20,1,,,,,カセイチュウコショウカイ,0
156,1080101023057,新規,0,2022-01-20,2022-01-20,株式会社瑞泰,,株式会社,静岡県,富士市,永田北町１３７番地４,,22,210,4170058,,,,,,,2022-01-20,1,,,,,ズイタイ,0
157,1080103002496,新規,0,2022-01-20,2022-01-20,合同会社ランプエース,,合同会社,静岡県,駿東郡小山町,上野１５８６番地,,22,344,4101306,,,,,,,2022-01-20,1,,,,,ランプエース,0
211,1120001243097,新規,0,2022-01-20,2022-01-20,株式会社オールリノベーション,,株式会社,大阪府,大阪市都島区,大東町１丁目２番１０号,,27,102,5340002,,,,,,,2022-01-20,1,,,,,オールリノベーション,0
212,1120001243295,新規,0,2022-01-20,2022-01-20,株式会社Ｍｅｄｉｃａｌ　Ｇｒｅｅｎ,,株式会社,大阪府,大阪市浪速区,難波中３丁目９番３号,,27,111,5560011,,,,,,,2022-01-20,1,,,,,メディカルグリーン,0
232,1120003020998,新規,0,2022-01-20,2022-01-20,合同会社ＷＡＶＥ,,合同会社,大阪府,大阪市浪速区,塩草３丁目９番２７－２０５号,,27,111,5560024,,,,,,,2022-01-20,1,,,,,ウェーブ,0
240,1120101064963,新規,0,2022-01-20,2022-01-20,株式会社キトミ,,株式会社,大阪府,岸和田市,沼町３３番４号,,27,202,5960053,,,,,,,2022-01-20,1,,,,,キトミ,0
252,1120903004002,新規,0,2022-01-20,2022-01-20,合同会社ｓａｔｊｉｍ,,合同会社,大阪府,豊中市,庄内幸町３丁目１０番５号,,27,203,5610833,,,,,,,2022-01-20,1,,,,,サトジム,0
260,1122001035516,新規,0,2022-01-20,2022-01-20,株式会社ＳＫＹＢＬＵＥ　ＰＲＯＤＵＣＴＩＯＮ,,株式会社,大阪府,東大阪市,永和２丁目８番２８号東大阪商工会議所別館１階株式会社Ｆ．Ｃ．大阪内,,27,227,5770809,,,,,,,2022-01-20,1,,,,,スカイブループロダクション,0
287,1130003007664,新規,0,2022-01-20,2022-01-20,合同会社ロフル,,合同会社,京都府,京都市上京区,東立売町２０６－３ブリリア御所西２０６,,26,102,6028027,,,,,,,2022-01-20,1,,,,,ロフル,0
288,1130003007706,新規,0,2022-01-20,2022-01-20,合同会社Ｈ．Ａ．Ｎ　Ｇｒｏｕｐ,,合同会社,京都府,京都市伏見区,深草紺屋町１１－６,,26,109,6120087,,,,,,,2022-01-20,1,,,,,ハングループ,0
303,1140001124626,新規,0,2022-01-20,2022-01-20,株式会社ＳＨＡＤＵＰ,,株式会社,兵庫県,西宮市,里中町２丁目１番７号,,28,204,6638183,,,,,,,2022-01-20,1,,,,,シャダップ,0
304,1140001124634,新規,0,2022-01-20,2022-01-20,株式会社コミット,,株式会社,兵庫県,神戸市中央区,脇浜海岸通４丁目１番７－８０２号,,28,110,6510073,,,,,,,2022-01-20,1,,,,,コミット,0
314,1170001016952,新規,0,2022-01-20,2022-01-20,株式会社ノット,,株式会社,和歌山県,西牟婁郡すさみ町,周参見４０９５番地の５,,30,406,6492621,,,,,,,2022-01-20,1,,,,,ノット,0
323,1180001149537,新規,0,2022-01-20,2022-01-20,株式会社レシャン出版,,株式会社,愛知県,名古屋市中村区,名駅４丁目１７番３号メイヨンビル２Ｆ,,23,105,4500002,,,,,,,2022-01-20,1,,,,,レシャンシュッパン,0
324,1180001149611,新規,0,2022-01-20,2022-01-20,ＣＢＣ共同技術美術設立準備株式会社,,株式会社,愛知県,名古屋市中区,新栄１丁目２番８号,,23,106,4600007,,,,,,,2022-01-20,1,,,,,シービーシーキョウドウギジュツビジュツセツリツジュンビ,0
325,1180001149636,新規,0,2022-01-20,2022-01-20,株式会社ｍｙ　Ｂａｃｋ　Ｏｆｆｉｃｅ,,株式会社,愛知県,名古屋市中区,栄２丁目２番１号広小路伏見中駒ビル５階,,23,106,4600008,,,,,,,2022-01-20,1,,,,,マイバックオフィス,0
328,1180003023401,新規,0,2022-01-20,2022-01-20,リンカルン合同会社,,合同会社,愛知県,名古屋市中川区,三ツ屋町２丁目９２番地ポラリス２０２号,,23,110,4540831,,,,,,,2022-01-20,1,,,,,リンカルン,0
350,1240001059226,新規,0,2022-01-20,2022-01-20,株式会社カーサービス・トラスト,,株式会社,広島県,三原市,幸崎能地１丁目１番８号,,34,204,7292252,,,,,,,2022-01-20,1,,,,,カーサービストラスト,0
380,1290001096132,新規,0,2022-01-20,2022-01-20,株式会社ＨＯＷＡ,,株式会社,福岡県,柳川市,隅町７２番地３５,,40,207,8320021,,,,,,,2022-01-20,1,,,,,ホウワ,0
381,1290001096140,新規,0,2022-01-20,2022-01-20,株式会社ｖｉｖａｃｅ,,株式会社,福岡県,糟屋郡粕屋町,大字仲原２７３４番地１,,40,349,8112304,,,,,,,2022-01-20,1,,,,,ヴィバーチェ,0
382,1290001096157,新規,0,2022-01-20,2022-01-20,株式会社フォーチューン,,株式会社,福岡県,福岡市中央区,西中洲１番１１号‐Ｎ３Ｆ,,40,133,8100002,,,,,,,2022-01-20,1,,,,,フォーチューン,0
426,1340003003691,新規,0,2022-01-20,2022-01-20,合同会社まるがま,,合同会社,鹿児島県,鹿児島市,紫原５丁目２０番１号どりーむ綾２０３号,,46,201,8900082,,,,,,,2022-01-20,1,,,,,マルガマ,0
450,1400001015749,新規,0,2022-01-20,2022-01-20,ジュンダジャパン株式会社,,株式会社,岩手県,胆沢郡金ケ崎町,六原伊吹３番地４,,03,381,0294501,,,,,,,2022-01-20,1,,,,,ジュンダジャパン,0
471,1430001085839,新規,0,2022-01-20,2022-01-20,株式会社ＳＯＣＩＡＬ　ＧＡＴＥ,,株式会社,北海道,札幌市手稲区,金山三条１丁目１番１０号,,01,109,0060043,,,,,,,2022-01-20,1,,,,,ソーシャルゲート,0
519,2010001223761,新規,0,2022-01-20,2022-01-20,レプリスクジャパン株式会社,,株式会社,東京都,千代田区,平河町１丁目６番１５号ＵＳビル８階,,13,101,1020093,,,,,,,2022-01-20,1,,,,,レプリスクジャパン,0
520,2010001223860,新規,0,2022-01-20,2022-01-20,株式会社あたらしいもの,,株式会社,東京都,千代田区,九段南１丁目５番６号りそな九段ビル５階,,13,101,1020074,,,,,,,2022-01-20,1,,,,,アタラシイモノ,0
521,2010001223877,新規,0,2022-01-20,2022-01-20,株式会社Ｃｕｉｓｉｎｅ　Ｒｅｐｏｒｔ,,株式会社,東京都,中央区,日本橋３丁目６－２日本橋フロント１Ｆ,,13,102,1030027,,,,,,,2022-01-20,1,,,,,クイジンレポート,0
522,2010001223968,新規,0,2022-01-20,2022-01-20,アロハプランニング株式会社,,株式会社,東京都,千代田区,飯田橋１丁目１２番７号ＭＳビル６階,,13,101,1020072,,,,,,,2022-01-20,1,,,,,アロハプランニング,0
527,2010003036724,新規,0,2022-01-20,2022-01-20,合同会社チカラ,,合同会社,東京都,千代田区,九段南１丁目５番６号りそな九段ビル５階,,13,101,1020074,,,,,,,2022-01-20,1,,,,,チカラ,0
528,2010003036765,新規,0,2022-01-20,2022-01-20,合同会社ＯＮＥ　ＰＬＵＳ,,合同会社,東京都,中央区,日本橋２丁目１番１７号,,13,102,1030027,,,,,,,2022-01-20,1,,,,,ワンプラス,0
543,2010401165034,新規,0,2022-01-20,2022-01-20,Ｆｏｕｒｚ株式会社,,株式会社,東京都,港区,三田２丁目１４番５号フロイントゥ三田９０８,,13,103,1080073,,,,,,,2022-01-20,1,,,,,フォーズ,0
546,2010403026894,新規,0,2022-01-20,2022-01-20,響合同会社,,合同会社,東京都,港区,東新橋２丁目１０番７－２０２号,,13,103,1050021,,,,,,,2022-01-20,1,,,,,ヒビキ,0
549,2010503006482,新規,0,2022-01-20,2022-01-20,忍びの一族合同会社,,合同会社,東京都,台東区,上野３丁目１９番６号江口ビル地下一階,,13,106,1100005,,,,,,,2022-01-20,1,,,,,シノビノイチゾク,0
553,2010703006076,新規,0,2022-01-20,2022-01-20,日本投資リテラシー合同会社,,合同会社,東京都,品川区,大崎３丁目１６番１５号,,13,109,1410032,,,,,,,2022-01-20,1,,,,,ニホントウシリテラシー,0
558,2010901050198,新規,0,2022-01-20,2022-01-20,ＴＡＣＴ株式会社,,株式会社,東京都,世田谷区,若林２丁目３４番８,,13,112,1540023,,,,,,,2022-01-20,1,,,,,タクト,0
565,2011001145194,新規,0,2022-01-20,2022-01-20,Ｃｌａｒｉｔｙ株式会社,,株式会社,東京都,渋谷区,神宮前２丁目２番３９－２００６号,,13,113,1500001,,,,,,,2022-01-20,1,,,,,クラリティ,0
568,2011003013985,新規,0,2022-01-20,2022-01-20,ニュウタイラ合同会社,,合同会社,東京都,目黒区,自由が丘１丁目１６－１８,,13,110,1520035,,,,,,,2022-01-20,1,,,,,ニュウタイラ,0
569,2011003014026,新規,0,2022-01-20,2022-01-20,未来ヤタガラス合同会社,,合同会社,東京都,目黒区,八雲５丁目３番１０号,,13,110,1520023,,,,,,,2022-01-20,1,,,,,ミライヤタガラス,0
571,2011101097534,新規,0,2022-01-20,2022-01-20,株式会社Ｓａｂｂｅｃ,,株式会社,東京都,新宿区,大久保２丁目１番８－１１０５号,,13,104,1690072,,,,,,,2022-01-20,1,,,,,サベック,0
572,2011101097550,新規,0,2022-01-20,2022-01-20,株式会社ＬＡＮＢＡＮ,,株式会社,東京都,新宿区,百人町２丁目１番４５号赤煉瓦２１５,,13,104,1690073,,,,,,,2022-01-20,1,,,,,ランバン,0
589,2011801040207,新規,0,2022-01-20,2022-01-20,高伸プランニング株式会社,,株式会社,東京都,足立区,千住旭町２５番３号,,13,121,1200026,,,,,,,2022-01-20,1,,,,,,0
605,2013301048572,新規,0,2022-01-20,2022-01-20,ＰＵＬＡ株式会社,,株式会社,東京都,豊島区,巣鴨４丁目２１番９号下野第五ビルハッピーｏｆｆｉｃｅ４０５号,,13,116,1700002,,,,,,,2022-01-20,1,,,,,プーラ,0
607,2020001144882,新規,0,2022-01-20,2022-01-20,株式会社ユーイ,,株式会社,神奈川県,横浜市西区,北幸１丁目１１番１号水信ビル７階,,14,103,2200004,,,,,,,2022-01-20,1,,,,,ユーイ,0
608,2020001144890,新規,0,2022-01-20,2022-01-20,株式会社ラロシェル,,株式会社,神奈川県,横浜市鶴見区,馬場４丁目３０番３号,,14,101,2300076,,,,,,,2022-01-20,1,,,,,ラロシェル,0
609,2020001144899,新規,0,2022-01-20,2022-01-20,安藤Ｍ＆Ａインサイト株式会社,,株式会社,神奈川県,横浜市港南区,上大岡東２丁目１１番７号,,14,111,2330001,,,,,,,2022-01-20,1,,,,,アンドウエムアンドエーインサイト,0
614,2020003021171,新規,0,2022-01-20,2022-01-20,合同会社ＮＤＸ,,合同会社,神奈川県,川崎市宮前区,有馬７丁目１１－３鷺沼ショウエイプラザ１０５,,14,136,2160003,,,,,,,2022-01-20,1,,,,,エヌディーエックス,0
618,2021001074987,新規,0,2022-01-20,2022-01-20,株式会社光和,,株式会社,神奈川県,小田原市,中村原３３８番地の７,,14,206,2560803,,,,,,,2022-01-20,1,,,,,コウワ,0
621,2021005012423,新規,0,2022-01-20,2022-01-20,一般社団法人しゃらの樹,,その他の設立登記法人,神奈川県,横須賀市,岩戸１丁目９番６号,,14,201,2390844,,,,,,,2022-01-20,1,,,,,シャラノジュ,0
625,2030001146432,新規,0,2022-01-20,2022-01-20,株式会社矢尾塗装,,株式会社,埼玉県,川口市,栄町３丁目１３番１６－３０４号,,11,203,3320017,,,,,,,2022-01-20,1,,,,,ヤオトソウ,0
629,2030003018695,新規,0,2022-01-20,2022-01-20,合同会社ＢＡＮＩ,,合同会社,埼玉県,越谷市,大沢３丁目１８－１６－２Ｆ,,11,222,3430025,,,,,,,2022-01-20,1,,,,,バァニ,0
632,2040001121830,新規,0,2022-01-20,2022-01-20,株式会社マイスター・コーポレーション,,株式会社,千葉県,松戸市,常盤平４丁目１５番地常盤平公団住宅Ｅ街区５１棟４０８号,,12,207,2702261,,,,,,,2022-01-20,1,,,,,マイスターコーポレーション,0
633,2040001121888,新規,0,2022-01-20,2022-01-20,株式会社Ｍａｋｅ　ｍｙ　ｌｉｆｅ,,株式会社,千葉県,印西市,西の原４丁目４番地５,,12,231,2701334,,,,,,,2022-01-20,1,,,,,メイクマイライフ,0
640,2040005021498,新規,0,2022-01-20,2022-01-20,一般社団法人次世代自動車整備技術普及協会,,その他の設立登記法人,千葉県,柏市,若柴２番地２０,,12,217,2770871,,,,,,,2022-01-20,1,,,,,ジセダイジドウシャセイビギジュツフキュウキョウカイ,0
642,2050001050500,新規,0,2022-01-20,2022-01-20,株式会社ルワズカンパニー,,株式会社,茨城県,水戸市,石川１丁目４０８４－１,,08,201,3100905,,,,,,,2022-01-20,1,,,,,ルワズカンパニー,0
644,2060001034502,新規,0,2022-01-20,2022-01-20,株式会社ＫＯＵＴＡＫＵ,,株式会社,栃木県,栃木市,岩舟町和泉１４１３番地１,,09,203,3294303,,,,,,,2022-01-20,1,,,,,コウタク,0
646,2080001024699,新規,0,2022-01-20,2022-01-20,オートドア１１０番株式会社,,株式会社,静岡県,静岡市駿河区,東新田１丁目１４番２５号,,22,102,4210112,,,,,,,2022-01-20,1,,,,,オートドアヒャクトウバン,0
655,2110003004687,新規,0,2022-01-20,2022-01-20,合同会社東北エネルギー,,合同会社,新潟県,十日町市,田中戊６０８番地,,15,210,9498407,,,,,,,2022-01-20,1,,,,,トウホクエネルギー,0
699,2120001243303,新規,0,2022-01-20,2022-01-20,株式会社トライデント,,株式会社,大阪府,大阪市都島区,片町２丁目７番２６号京橋ファインビル２階,,27,102,5340025,,,,,,,2022-01-20,1,,,,,トライデント,0
700,2120001243336,新規,0,2022-01-20,2022-01-20,株式会社エヌクル,,株式会社,大阪府,大阪市中央区,東心斎橋２丁目３番４号エムズビレッジ４０２,,27,128,5420083,,,,,,,2022-01-20,1,,,,,エヌクル,0
716,2120003020989,新規,0,2022-01-20,2022-01-20,合同会社Ｍｏｔｚ,,合同会社,大阪府,大阪市中央区,南船場４丁目１０番５号南船場ＳＯＨＯビル７０２,,27,128,5420081,,,,,,,2022-01-20,1,,,,,モッツ,0
730,2120005022728,新規,0,2022-01-20,2022-01-20,医療法人敬志会,,その他の設立登記法人,大阪府,枚方市,藤阪南町２丁目３２番１号,,27,210,5730156,,,,,,,2022-01-20,1,,,,,ケイシカイ,0
738,2120101064979,新規,0,2022-01-20,2022-01-20,株式会社Ａ－ＴＥＮ,,株式会社,大阪府,堺市中区,八田寺町１５７番地２２,,27,142,5998267,,,,,,,2022-01-20,1,,,,,エーテン,0
776,2130001070960,新規,0,2022-01-20,2022-01-20,株式会社オールウェイズ,,株式会社,京都府,京都市中京区,西ノ京星池町２０番地４８,,26,104,6048416,,,,,,,2022-01-20,1,,,,,オールウェイズ,0
783,2130003007705,新規,0,2022-01-20,2022-01-20,合同会社ＹｏＫｕＮａＲｕ,,合同会社,京都府,京都市右京区,梅津北町４１番地８,,26,108,6150911,,,,,,,2022-01-20,1,,,,,ヨクナル,0
792,2140001124641,新規,0,2022-01-20,2022-01-20,ワイエスマリン株式会社,,株式会社,兵庫県,神戸市兵庫区,鍛治屋町一丁目３番２１号,,28,105,6520000,,,,,,,2022-01-20,1,,,,,ワイエスマリン,0
795,2140003017232,新規,0,2022-01-20,2022-01-20,合同会社ＭＤＳ,,合同会社,兵庫県,神戸市兵庫区,荒田町３丁目４２番１１号,,28,105,6520032,,,,,,,2022-01-20,1,,,,,エムディーエス,0
801,2140005026000,新規,0,2022-01-20,2022-01-20,医療法人社団なかじま整形外科,,その他の設立登記法人,兵庫県,加西市,段下町８４７番地の３０,,28,220,6752241,,,,,,,2022-01-20,1,,,,,ナカジマセイケイゲカ,0
825,2200001039676,新規,0,2022-01-20,2022-01-20,株式会社千信国際,,株式会社,岐阜県,大垣市,内原１丁目６１番地ロジュマンＤ棟２０２室,,21,202,5030936,,,,,,,2022-01-20,1,,,,,センシンコクサイ,0
832,2240001059209,新規,0,2022-01-20,2022-01-20,株式会社宅味實商店,,株式会社,広島県,府中市,府中町６９３番地,,34,208,7260005,,,,,,,2022-01-20,1,,,,,タクミミノルショウテン,0
834,2240003005466,新規,0,2022-01-20,2022-01-20,合同会社伊藤鍼灸院,,合同会社,広島県,三原市,港町１丁目１３番２９号,,34,204,7230017,,,,,,,2022-01-20,1,,,,,イトウシンキュウイン,0
859,2280003001569,新規,0,2022-01-20,2022-01-20,合同会社Ｋクリニック,,合同会社,島根県,松江市,北田町６７番地１８,,32,201,6900883,,,,,,,2022-01-20,1,,,,,ケイクリニック,0
870,2290001096081,新規,0,2022-01-20,2022-01-20,株式会社シンメトリー西日本,,株式会社,福岡県,福岡市中央区,天神２丁目３番１０号天神パインクレストビル３２１号室,,40,133,8100001,,,,,,,2022-01-20,1,,,,,シンメトリーニシニホン,0
871,2290001096115,新規,0,2022-01-20,2022-01-20,株式会社幸吉総本店,,株式会社,福岡県,福岡市博多区,中洲３丁目３番１号ＴＭセレスビル４階４０２号,,40,132,8100801,,,,,,,2022-01-20,1,,,,,ユキヨシソウホンテン,0
886,2300003001780,新規,0,2022-01-20,2022-01-20,合同会社ＨＩＫＡＲＩ,,合同会社,佐賀県,杵島郡白石町,大字福田２２８５番地,,41,425,8491112,,,,,,,2022-01-20,1,,,,,ヒカリ,0
893,2330001009492,新規,0,2022-01-20,2022-01-20,株式会社藤野地所,,株式会社,熊本県,合志市,須屋７１４番地１３,,43,216,8611102,,,,,,,2022-01-20,1,,,,,フジノチショ,0
915,2360001029892,新規,0,2022-01-20,2022-01-20,株式会社ＷＯＯＤＳＩＤＥ,,株式会社,沖縄県,那覇市,松山１丁目１２番１８号,,47,201,9000032,,,,,,,2022-01-20,1,,,,,ウッドサイド,0
922,2370003005560,新規,0,2022-01-20,2022-01-20,合同会社ＲＡＪＩＣＯ　ＡＵＴＯ,,合同会社,宮城県,加美郡加美町,字押登目１０番地１,,04,445,9814226,,,,,,,2022-01-20,1,,,,,ラジコオート,0
969,2430005014371,新規,0,2022-01-20,2022-01-20,一般社団法人ほくジョブ,,その他の設立登記法人,北海道,札幌市北区,北三十二条西５丁目３－２８,,01,102,0010032,,,,,,,2022-01-20,1,,,,,ホクジョブ,0
985,2500001023955,新規,0,2022-01-20,2022-01-20,株式会社ＢＲＩＧＨＴ,,株式会社,愛媛県,松山市,二番町１丁目４番地８Ｆ－ＣＩＴＹビル４Ｆ,,38,201,7900002,,,,,,,2022-01-20,1,,,,,ブライト,0
1002,3010001223851,新規,0,2022-01-20,2022-01-20,株式会社リンクォード,,株式会社,東京都,中央区,銀座１丁目２２－１１銀座大竹ビジデンス２階,,13,102,1040061,,,,,,,2022-01-20,1,,,,,リンクフォード,0
1003,3010001223934,新規,0,2022-01-20,2022-01-20,株式会社ＨＪＴ,,株式会社,東京都,千代田区,五番町６番地２,,13,101,1020076,,,,,,,2022-01-20,1,,,,,エイチジェイティ,0
1004,3010001223942,新規,0,2022-01-20,2022-01-20,明大嘉和開発投資株式会社,,株式会社,東京都,中央区,銀座１丁目１６番７号銀座大栄ビル５階,,13,102,1040061,,,,,,,2022-01-20,1,,,,,メイダイカワカイハツトウシ,0
1005,3010001223967,新規,0,2022-01-20,2022-01-20,株式会社ディジョン,,株式会社,東京都,千代田区,飯田橋１丁目１２番７号ＭＳビル６階,,13,101,1020072,,,,,,,2022-01-20,1,,,,,ディジョン,0
1006,3010001223975,新規,0,2022-01-20,2022-01-20,株式会社ＡＺＩＥＳ,,株式会社,東京都,中央区,日本橋茅場町２丁目２番２－９０２号,,13,102,1030025,,,,,,,2022-01-20,1,,,,,アジエス,0
1009,3010003036789,新規,0,2022-01-20,2022-01-20,合同会社ｃｒｏｗｒｅｅ,,合同会社,東京都,千代田区,外神田１丁目１０番１１号,,13,101,1010021,,,,,,,2022-01-20,1,,,,,クロウリー,0
1017,3010401165041,新規,0,2022-01-20,2022-01-20,株式会社Ｇ．Ｍ．Ｓ,,株式会社,東京都,港区,港南３丁目６番２１,,13,103,1080075,,,,,,,2022-01-20,1,,,,,ジーエムエス,0
1019,3010403026919,新規,0,2022-01-20,2022-01-20,合同会社ＧＫ０５２,,合同会社,東京都,港区,虎ノ門３丁目２２番１０－２０１号,,13,103,1050001,,,,,,,2022-01-20,1,,,,,ジーケイゼロファイブツー,0
1029,3010901050206,新規,0,2022-01-20,2022-01-20,株式会社ＴＭプランニング,,株式会社,東京都,世田谷区,駒沢３丁目１番３－５０６号,,13,112,1540012,,,,,,,2022-01-20,1,,,,,ティーエムプランニング,0
1033,3011001145193,新規,0,2022-01-20,2022-01-20,ウィシード株式会社,,株式会社,東京都,渋谷区,神宮前６丁目２３番４号,,13,113,1500001,,,,,,,2022-01-20,1,,,,,ウィシード,0
1034,3011001145219,新規,0,2022-01-20,2022-01-20,株式会社ＡＩＧｉｆｔ,,株式会社,東京都,目黒区,鷹番３丁目２１番８号コーポ大久保２Ｆ,,13,110,1520004,,,,,,,2022-01-20,1,,,,,エーアイギフト,0
1035,3011001145227,新規,0,2022-01-20,2022-01-20,株式会社ＰＳＳ,,株式会社,東京都,渋谷区,上原３丁目１番１５号パミス代々木上原ＳＯＵＴＨ２階,,13,113,1510064,,,,,,,2022-01-20,1,,,,,ピーエスエス,0
1036,3011001145235,新規,0,2022-01-20,2022-01-20,株式会社グローサイト,,株式会社,東京都,渋谷区,渋谷２丁目１９番１５号宮益坂ビルディング６０９,,13,113,1500002,,,,,,,2022-01-20,1,,,,,グローサイト,0
1038,3011003013976,新規,0,2022-01-20,2022-01-20,合同会社オールグリーン,,合同会社,東京都,渋谷区,神宮前６丁目２９番４号原宿ｋｏｍｉｙａビル６階,,13,113,1500001,,,,,,,2022-01-20,1,,,,,オールグリーン,0
1039,3011003014009,新規,0,2022-01-20,2022-01-20,タスキ合同会社,,合同会社,東京都,渋谷区,本町３丁目４９番１７号ザ・パークワンズ渋谷本町,,13,113,1510071,,,,,,,2022-01-20,1,,,,,タスキ,0
1042,3011101097491,新規,0,2022-01-20,2022-01-20,開門株式会社,,株式会社,東京都,新宿区,西新宿３丁目３番１３号６Ｆ,,13,104,1600023,,,,,,,2022-01-20,1,,,,,カイモン,0
1043,3011101097533,新規,0,2022-01-20,2022-01-20,株式会社沁透,,株式会社,東京都,新宿区,西新宿３丁目３番１３号西新宿水間ビル６階,,13,104,1600023,,,,,,,2022-01-20,1,,,,,シントウ,0
1046,3011305002801,新規,0,2022-01-20,2022-01-20,一般社団法人タッチダウンネットワーク,,その他の設立登記法人,東京都,杉並区,上井草４丁目１６番１１号,,13,115,1670023,,,,,,,2022-01-20,1,,,,,タッチダウンネットワーク,0
1055,3011603003501,新規,0,2022-01-20,2022-01-20,合同会社正明国際,,合同会社,東京都,練馬区,豊玉南３丁目２７番１８－３１４号,,13,120,1760014,,,,,,,2022-01-20,1,,,,,ショウメイコクサイ,0
1064,3013301048571,新規,0,2022-01-20,2022-01-20,ＬＤＫ株式会社,,株式会社,東京都,豊島区,東池袋２丁目５５番１２号１Ｆ,,13,116,1700013,,,,,,,2022-01-20,1,,,,,エルディーケー,0
1077,3021001074986,新規,0,2022-01-20,2022-01-20,株式会社ｗｉｓｈ,,株式会社,神奈川県,厚木市,中町４丁目１４番４号サクセス本厚木ビル６階,,14,212,2430018,,,,,,,2022-01-20,1,,,,,ウィッシュ,0
1095,3030005020698,新規,0,2022-01-20,2022-01-20,一般社団法人ビヨンドザット,,その他の設立登記法人,埼玉県,川越市,新宿町５丁目２２番地６,,11,201,3501124,,,,,,,2022-01-20,1,,,,,ビヨンドザット,0
1106,3040003019270,新規,0,2022-01-20,2022-01-20,スタンドアップ合同会社,,合同会社,千葉県,松戸市,小金原３丁目１８小金原団地２４号棟３０３,,12,207,2700021,,,,,,,2022-01-20,1,,,,,スタンドアップ,0
1107,3040003019329,新規,0,2022-01-20,2022-01-20,合同会社神楽,,合同会社,千葉県,我孫子市,布佐平和台２丁目７番２７号,,12,222,2701108,,,,,,,2022-01-20,1,,,,,カグラ,0
1112,3060001034501,新規,0,2022-01-20,2022-01-20,株式会社ＳＫＹ　ＬＡＲＫＩＮ,,株式会社,栃木県,宇都宮市,上横田町１４６８番地７,,09,201,3210106,,,,,,,2022-01-20,1,,,,,スカイラーキン,0
1114,3070003004360,新規,0,2022-01-20,2022-01-20,九十九プロパティマネジメント合同会社,,合同会社,群馬県,高崎市,上大島町７６番地１,,10,202,3703335,,,,,,,2022-01-20,1,,,,,ツクモプロパティマネジメント,0
1130,3100001034991,新規,0,2022-01-20,2022-01-20,株式会社安騰産業,,株式会社,長野県,佐久市,下平尾７２番地,,20,217,3850003,,,,,,,2022-01-20,1,,,,,アントウサンギョウ,0
1182,3120001243277,新規,0,2022-01-20,2022-01-20,株式会社旭陽建設,,株式会社,大阪府,大阪市旭区,生江３丁目１番１４号,,27,117,5350004,,,,,,,2022-01-20,1,,,,,アサヒケンセツ,0
1183,3120001243285,新規,0,2022-01-20,2022-01-20,株式会社ＣＯＳＭＯ,,株式会社,大阪府,大阪市中央区,北浜東二丁目１６番千歳第二ビル２階,,27,128,5400031,,,,,,,2022-01-20,1,,,,,コスモ,0
1184,3120001243310,新規,0,2022-01-20,2022-01-20,株式会社雅電設,,株式会社,大阪府,大阪市北区,池田町１番３０号,,27,127,5300033,,,,,,,2022-01-20,1,,,,,ミヤビデンセツ,0
1185,3120001243319,新規,0,2022-01-20,2022-01-20,エヌエスホールディングス株式会社,,株式会社,大阪府,大阪市西成区,北津守２丁目５番３２号,,27,122,5570061,,,,,,,2022-01-20,1,,,,,エヌエスホールディングス,0
1209,3120003020988,新規,0,2022-01-20,2022-01-20,合同会社ＫＨ貿易,,合同会社,大阪府,大阪市東成区,大今里南２丁目１２番４号,,27,115,5370013,,,,,,,2022-01-20,1,,,,,ケーエイチボウエキ,0
1210,3120003020996,新規,0,2022-01-20,2022-01-20,合同会社ＯＯＧＩ,,合同会社,大阪府,大阪市北区,扇町２丁目６番１７－２１０５号,,27,127,5300025,,,,,,,2022-01-20,1,,,,,オオギ,0
1222,3120101064953,新規,0,2022-01-20,2022-01-20,株式会社カラダビューティー,,株式会社,大阪府,堺市中区,深井清水町４００５番地１（１３０９号）,,27,142,5998273,,,,,,,2022-01-20,1,,,,,カラダビューティー,0
1238,3120903003992,新規,0,2022-01-20,2022-01-20,合同会社ディスコント,,合同会社,大阪府,豊能郡能勢町,下田尻２９８番地の１,,27,322,5630123,,,,,,,2022-01-20,1,,,,,ディスコント,0
1239,3120905006259,新規,0,2022-01-20,2022-01-20,一般社団法人災害食レシピ推進委員会,,その他の設立登記法人,大阪府,茨木市,下穂積３丁目１４番１号,,27,211,5670041,,,,,,,2022-01-20,1,,,,,サイガイショクレシピスイシンイインカイ,0
1243,3122001035522,新規,0,2022-01-20,2022-01-20,インテック株式会社,,株式会社,大阪府,大東市,寺川３丁目９－２７,,27,218,5740014,,,,,,,2022-01-20,1,,,,,インテック,0
1246,3122003002256,新規,0,2022-01-20,2022-01-20,合同会社茉莉,,合同会社,大阪府,東大阪市,鷹殿町１１番４号,,27,227,5798036,,,,,,,2022-01-20,1,,,,,マツリ,0
1263,3130001070976,新規,0,2022-01-20,2022-01-20,株式会社助成,,株式会社,京都府,京都市伏見区,桃山町因幡３１番地３３,,26,109,6128007,,,,,,,2022-01-20,1,,,,,ジョセイ,0
1275,3130003007704,新規,0,2022-01-20,2022-01-20,合同会社ＢＬＵＥ　ＴＯＲＵＳ,,合同会社,京都府,京都市南区,久世高田町２５７－１３９桂川駅前ビル２０３,,26,107,6018211,,,,,,,2022-01-20,1,,,,,ブルートーラス,0
1277,3130005016364,新規,0,2022-01-20,2022-01-20,医療法人雪鷹会,,その他の設立登記法人,京都府,向日市,物集女町豆尾３５番地１０,,26,208,6170001,,,,,,,2022-01-20,1,,,,,セツヨウカイ,0
1286,3140003017256,新規,0,2022-01-20,2022-01-20,合同会社ＮＴＸ,,合同会社,兵庫県,西宮市,芦原町１０番５－６１４号,00125469,28,204,6620842,,,,,,,2022-01-20,1,,,,,エヌティーエックス,0
1325,3180301035856,新規,0,2022-01-20,2022-01-20,株式会社オリーブ,,株式会社,愛知県,豊田市,中垣内町四ツ瀬２０番地,,23,211,4442215,,,,,,,2022-01-20,1,,,,,オリーブ,0
1334,3210001018777,新規,0,2022-01-20,2022-01-20,株式会社リンクス,,株式会社,福井県,福井市,順化２丁目１２－１４プリンスビル４０２,,18,201,9100023,,,,,,,2022-01-20,1,,,,,リンクス,0
1335,3210001018785,新規,0,2022-01-20,2022-01-20,株式会社クラフト・ワン,,株式会社,福井県,福井市,笹谷町第１２号６番地,,18,201,9103645,,,,,,,2022-01-20,1,,,,,クラフトワン,0
1338,3220001024659,新規,0,2022-01-20,2022-01-20,株式会社Ｃａｌｅｂ,,株式会社,石川県,金沢市,片町２丁目２番２１号コーシンビルＢＦ２号室,,17,201,9200981,,,,,,,2022-01-20,1,,,,,カレブ,0
1344,3250001019367,新規,0,2022-01-20,2022-01-20,株式会社支援の森,,株式会社,山口県,下関市,菊川町大字久野９４番地１,,35,201,7500324,,,,,,,2022-01-20,1,,,,,シエンノモリ,0
1364,3290001096139,新規,0,2022-01-20,2022-01-20,株式会社アーバン・ドリーム,,株式会社,福岡県,久留米市,藤山町７１８番地,,40,203,8300053,,,,,,,2022-01-20,1,,,,,アーバンドリーム,0
1367,3290005018535,新規,0,2022-01-20,2022-01-20,一般社団法人キャリスマ,,その他の設立登記法人,福岡県,福岡市西区,小戸３丁目５３番４号,,40,135,8190001,,,,,,,2022-01-20,1,,,,,キャリスマ,0
1397,3320003003709,新規,0,2022-01-20,2022-01-20,合同会社健志会,,合同会社,大分県,中津市,大字蛎瀬８４９番地２吉村店舗１Ｆ,,44,203,8710007,,,,,,,2022-01-20,1,,,,,ケンシカイ,0
1423,3360001029909,新規,0,2022-01-20,2022-01-20,農地所有適格法人株式会社あるふぁーむ,,株式会社,沖縄県,中頭郡中城村,字当間２８６番地,,47,328,9012406,,,,,,,2022-01-20,1,,,,,,0
1432,3400001015747,新規,0,2022-01-20,2022-01-20,株式会社風薫る丘みちのく乗馬クラブ,,株式会社,岩手県,一関市,赤荻字上台４２番地,,03,209,0210041,,,,,,,2022-01-20,1,,,,,カゼカオルオカミチノクジョウバクラブ,0
1452,3430001085845,新規,0,2022-01-20,2022-01-20,ＳＧ建築企画株式会社,,株式会社,北海道,札幌市中央区,南三条西１２丁目３２５番地９,,01,101,0600063,,,,,,,2022-01-20,1,,,,,エスジーケンチクキカク,0
1468,3430003013548,新規,0,2022-01-20,2022-01-20,ベターデイズ合同会社,,合同会社,北海道,札幌市白石区,川北二条１丁目４番６号,,01,104,0030852,,,,,,,2022-01-20,1,,,,,ベターデイズ,0
1503,4010001223801,新規,0,2022-01-20,2022-01-20,ＦＭＤ株式会社,,株式会社,東京都,千代田区,永田町２丁目９－６十全ビル,,13,101,1000014,,,,,,,2022-01-20,1,,,,,エフエムディー,0
1504,4010001223958,新規,0,2022-01-20,2022-01-20,株式会社リオン,,株式会社,東京都,中央区,銀座５丁目９番１７号あづまビル１０３,,13,102,1040061,,,,,,,2022-01-20,1,,,,,リオン,0
1505,4010001223974,新規,0,2022-01-20,2022-01-20,株式会社リッチウィン,,株式会社,東京都,中央区,銀座１丁目２２番１１号銀座大竹ビジデンス２階,,13,102,1040061,,,,,,,2022-01-20,1,,,,,リッチウィン,0
1506,4010001223999,新規,0,2022-01-20,2022-01-20,株式会社まるっと,,株式会社,東京都,千代田区,平河町１丁目６番１１号エクシール平河町２０４号,,13,101,1020093,,,,,,,2022-01-20,1,,,,,マルット,0
1508,4010003036805,新規,0,2022-01-20,2022-01-20,ｅｃｏＡＴＭジャパン合同会社,,合同会社,東京都,中央区,日本橋茅場町１丁目１３番１３号七宝ビルディング９階,,13,102,1030025,,,,,,,2022-01-20,1,,,,,エコエーティーエムジャパン,0
1509,4010005034476,新規,0,2022-01-20,2022-01-20,Ｓｉｌｖｅｒ　Ｇａｔｅ特定目的会社,,その他の設立登記法人,東京都,千代田区,丸の内３丁目１番１号東京共同会計事務所内,,13,101,1000005,,,,,,,2022-01-20,1,,,,,シルバーゲート,0
1511,4010401164876,新規,0,2022-01-20,2022-01-20,株式会社リベルタス,,株式会社,東京都,港区,海岸１丁目２－３汐留芝離宮ビルディング２１階,,13,103,1050022,,,,,,,2022-01-20,1,,,,,リベルタス,0
1512,4010401164926,新規,0,2022-01-20,2022-01-20,デューフィルム株式会社,,株式会社,東京都,港区,南青山２丁目２番１５号ＷｉｎＡｏｙａｍａビルＵＣＦ６３５,,13,103,1070062,,,,,,,2022-01-20,1,,,,,デューフィルム,0
1513,4010401165049,新規,0,2022-01-20,2022-01-20,株式会社燻会,,株式会社,東京都,港区,東新橋２丁目２番１０号,,13,103,1050021,,,,,,,2022-01-20,1,,,,,イブシカイ,0
1514,4010401165057,新規,0,2022-01-20,2022-01-20,株式会社博多都市伝説,,株式会社,東京都,港区,六本木６丁目２－３１六本木ヒルズノースタワー１７階,,13,103,1060032,,,,,,,2022-01-20,1,,,,,ハカタトシデンセツ,0
1519,4010501048343,新規,0,2022-01-20,2022-01-20,株式会社リーム井筒,,株式会社,東京都,台東区,池之端４丁目２６番３１号,,13,106,1100008,,,,,,,2022-01-20,1,,,,,リームイヅツ,0
1528,4010901050213,新規,0,2022-01-20,2022-01-20,株式会社レヴリー,,株式会社,東京都,世田谷区,等々力７丁目１８－２１－３１４,,13,112,1580082,,,,,,,2022-01-20,1,,,,,レヴリー,0
1529,4010903007095,新規,0,2022-01-20,2022-01-20,エルベックリ合同会社,,合同会社,東京都,世田谷区,砧７丁目１１番７号,,13,112,1570073,,,,,,,2022-01-20,1,,,,,エルベックリ,0
1530,4010905004248,新規,0,2022-01-20,2022-01-20,弁護士法人世田谷用賀法律事務所,,その他の設立登記法人,東京都,世田谷区,用賀４丁目４番７号福ビル４階,,13,112,1580097,,,,,,,2022-01-20,1,,,,,セタガヤヨウガホウリツジムショ,0
1536,4011001145003,新規,0,2022-01-20,2022-01-20,株式会社Ｓｉｐｈｅｒ,,株式会社,東京都,渋谷区,神宮前６丁目２３番４号桑野ビル２階,,13,113,1500001,,,,,,,2022-01-20,1,,,,,サイファー,0
1537,4011001145143,新規,0,2022-01-20,2022-01-20,Ｊａｐａｎ　ｆｏｏｄ　ｐｒｏｄｕｃｔｉｏｎ株式会社,,株式会社,東京都,渋谷区,東１丁目２７番５号,,13,113,1500011,,,,,,,2022-01-20,1,,,,,ジャパンフードプロダクション,0
1540,4011101097524,新規,0,2022-01-20,2022-01-20,株式会社Ｇ＆Ｇ　Ｈｅａｌｔｈｃａｒｅ,,株式会社,東京都,新宿区,東五軒町１番１３号ブラントン神楽坂５０１号,,13,104,1620813,,,,,,,2022-01-20,1,,,,,ジーアンドジーヘルスケア,0
1541,4011101097532,新規,0,2022-01-20,2022-01-20,ジーエーテック株式会社,,株式会社,東京都,新宿区,市谷加賀町２丁目２番９号,,13,104,1620062,,,,,,,2022-01-20,1,,,,,ジーエーテック,0
1562,4011801040213,新規,0,2022-01-20,2022-01-20,株式会社ＯＦＦＩＣＥ’Ｓ,,株式会社,東京都,足立区,梅島１丁目５番１号オーロプルーン１０１,,13,121,1210816,,,,,,,2022-01-20,1,,,,,オフィスズ,0
1569,4012401038770,新規,0,2022-01-20,2022-01-20,株式会社テゾーロ,,株式会社,東京都,三鷹市,井の頭１丁目２６番２号,,13,204,1810001,,,,,,,2022-01-20,1,,,,,テゾーロ,0
1578,4020001144864,新規,0,2022-01-20,2022-01-20,スクエアースター株式会社,,株式会社,神奈川県,川崎市川崎区,駅前本町１１番地２川崎フロンティアビル４階,,14,131,2100007,,,,,,,2022-01-20,1,,,,,スクエアースター,0
1579,4020001144880,新規,0,2022-01-20,2022-01-20,丸裕管工株式会社,,株式会社,神奈川県,川崎市幸区,神明町２丁目２２番地,,14,132,2120022,,,,,,,2022-01-20,1,,,,,,0
1583,4021001074993,新規,0,2022-01-20,2022-01-20,株式会社ベルディア,,株式会社,神奈川県,横須賀市,久里浜５丁目２番１－４０２号,,14,201,2390831,,,,,,,2022-01-20,1,,,,,ベルディア,0
1587,4030001146397,新規,0,2022-01-20,2022-01-20,株式会社スターダスト,,株式会社,埼玉県,さいたま市桜区,町谷４丁目８番１号,,11,106,3380836,,,,,,,2022-01-20,1,,,,,スターダスト,0
1588,4030001146430,新規,0,2022-01-20,2022-01-20,株式会社ＶＡＭＯＳ,,株式会社,埼玉県,飯能市,柳町３番１３号コヤマビル７０２,,11,209,3570035,,,,,,,2022-01-20,1,,,,,ヴァモス,0
1591,4040001121795,新規,0,2022-01-20,2022-01-20,株式会社ＪＡＴＲＡＣＫ,,株式会社,千葉県,我孫子市,柴崎台３丁目１０－３－２０３,,12,222,2701176,,,,,,,2022-01-20,1,,,,,ジャトラック,0
1592,4040001121829,新規,0,2022-01-20,2022-01-20,株式会社Ｉｉｔｏｋｉ,,株式会社,千葉県,木更津市,桜町１丁目２－５,,12,206,2920821,,,,,,,2022-01-20,1,,,,,イイトキ,0
1593,4040001121837,新規,0,2022-01-20,2022-01-20,株式会社ＥＮＯＮ,,株式会社,千葉県,四街道市,大日８６７番地１６,,12,228,2840001,,,,,,,2022-01-20,1,,,,,エノン,0
1594,4040001121853,新規,0,2022-01-20,2022-01-20,株式会社ファースト,,株式会社,千葉県,市川市,八幡２丁目１１番１３号,,12,203,2720021,,,,,,,2022-01-20,1,,,,,ファースト,0
1595,4040001121861,新規,0,2022-01-20,2022-01-20,株式会社勝秋,,株式会社,千葉県,船橋市,湊町２丁目１４番２５号,,12,204,2730011,,,,,,,2022-01-20,1,,,,,カツアキ,0
1596,4040001121886,新規,0,2022-01-20,2022-01-20,株式会社まきの自動車工場,,株式会社,千葉県,市原市,松ケ島西１丁目１－１６,,12,219,2900036,,,,,,,2022-01-20,1,,,,,マキノジドウシャコウジョウ,0
1598,4040003019328,新規,0,2022-01-20,2022-01-20,ＭＫｅｉｚｏ合同会社,,合同会社,千葉県,四街道市,さちが丘２丁目１５番５号,,12,228,2840025,,,,,,,2022-01-20,1,,,,,エムケイエイゾー,0
1611,4070001038863,新規,0,2022-01-20,2022-01-20,ガレージクロダ株式会社,,株式会社,群馬県,館林市,大谷町字大志辺２９２３番地,,10,207,3740054,,,,,,,2022-01-20,1,,,,,ガレージクロダ,0
1615,4080001024697,新規,0,2022-01-20,2022-01-20,株式会社ＵＮＩＴＥ,,株式会社,静岡県,静岡市葵区,羽鳥６丁目１２番１３号,,22,101,4211215,,,,,,,2022-01-20,1,,,,,ユナイト,0
1622,4090003002031,新規,0,2022-01-20,2022-01-20,合同会社ＮＩＹＵ,,合同会社,山梨県,甲斐市,竜王新町１３４４－２,,19,210,4000111,,,,,,,2022-01-20,1,,,,,ニユウ,0
1625,4100001034990,新規,0,2022-01-20,2022-01-20,株式会社Ｉ・Ｓ・Ｙ,,株式会社,長野県,茅野市,宮川８９１０番地１,,20,214,3910013,,,,,,,2022-01-20,1,,,,,アイエスワイ,0
1670,4120001243152,新規,0,2022-01-20,2022-01-20,株式会社リプラスアカデミー,,株式会社,大阪府,大阪市北区,梅田１丁目１１番４号大阪駅前第四ビル１２階１４－１,,27,127,5300001,,,,,,,2022-01-20,1,,,,,リプラスアカデミー,0
1671,4120001243292,新規,0,2022-01-20,2022-01-20,株式会社ＹＹ－ＦＡＣＴＯＲＹ,,株式会社,大阪府,大阪市東成区,大今里１丁目２０番２３号,,27,115,5370012,,,,,,,2022-01-20,1,,,,,ワイワイファクトリー,0
1691,4120003020905,新規,0,2022-01-20,2022-01-20,合同会社Ｌｅａｐａｌ,,合同会社,大阪府,大阪市北区,梅田１丁目１１番４－９２３号大阪駅前第３ビル２９階１－１－１,,27,127,5300001,,,,,,,2022-01-20,1,,,,,リーパル,0
1698,4120005022726,新規,0,2022-01-20,2022-01-20,医療法人秀陽会,,その他の設立登記法人,大阪府,大阪市生野区,生野西４丁目１４番１２号１階,,27,116,5440024,,,,,,,2022-01-20,1,,,,,シュウヨウカイ,0
1722,4120901045490,新規,0,2022-01-20,2022-01-20,照維トレーダース株式会社,,株式会社,大阪府,摂津市,千里丘東４丁目６番８－１２１号,,27,224,5660011,,,,,,,2022-01-20,1,,,,,テルイトレーダース,0
1750,4130001070975,新規,0,2022-01-20,2022-01-20,株式会社エスクラフト,,株式会社,京都府,宇治市,炭山乾谷７番地１,,26,204,6011395,,,,,,,2022-01-20,1,,,,,エスクラフト,0
1758,4130003007703,新規,0,2022-01-20,2022-01-20,イノベーティブクラフトワークス合同会社,,合同会社,京都府,京都市中京区,聚楽廻中町２７番地１２,,26,104,6048403,,,,,,,2022-01-20,1,,,,,イノベーティブクラフトワークス,0
1762,4140003017255,新規,0,2022-01-20,2022-01-20,アッシュ・アソシエ合同会社,,合同会社,兵庫県,芦屋市,六麓荘町７番６号,,28,206,6590011,,,,,,,2022-01-20,1,,,,,アッシュアソシエ,0
1763,4150001025267,新規,0,2022-01-20,2022-01-20,株式会社ＳＰＯＲＴＳ　ＪＡＭ,,株式会社,奈良県,橿原市,栄和町６９－３,,29,205,6340046,,,,,,,2022-01-20,1,,,,,スポーツジャム,0
1764,4150003002603,新規,0,2022-01-20,2022-01-20,ＭＡＫＡＲＩ　Ｅｎｔｅｒｐｒｉｓｅ合同会社,,合同会社,奈良県,橿原市,今井町２丁目５－１１,,29,205,6340812,,,,,,,2022-01-20,1,,,,,マカリエンタープライズ,0
1774,4180001149559,新規,0,2022-01-20,2022-01-20,株式会社マツダ耐火,,株式会社,愛知県,瀬戸市,仲切町１３番地,,23,204,4890042,,,,,,,2022-01-20,1,,,,,マツダタイカ,0
1775,4180001149617,新規,0,2022-01-20,2022-01-20,株式会社牧叶納,,株式会社,愛知県,春日井市,八事町２丁目１１０番地３,,23,206,4860836,,,,,,,2022-01-20,1,,,,,マキカノウ,0
1776,4180001149625,新規,0,2022-01-20,2022-01-20,お洒落株式会社,,株式会社,愛知県,名古屋市中区,栄３丁目１２番３３号,,23,106,4600008,,,,,,,2022-01-20,1,,,,,オシャレ,0
1795,4220001024658,新規,0,2022-01-20,2022-01-20,株式会社エー・オー・シーホールディングス,,株式会社,石川県,金沢市,広岡１丁目３番２０号,,17,201,9200031,,,,,,,2022-01-20,1,,,,,エーオーシーホールディングス,0
1803,4240003005456,新規,0,2022-01-20,2022-01-20,合同会社ＮＨＡＴ　ＭＩＮＨ,,合同会社,広島県,尾道市,土堂２丁目９番３３号,,34,205,7220035,,,,,,,2022-01-20,1,,,,,ニャットミン,0
1836,4290003012051,新規,0,2022-01-20,2022-01-20,ＨＣ‐１０Ａｓｉａ合同会社,,合同会社,福岡県,小郡市,小郡８２４－１４－１０１号,,40,216,8380141,,,,,,,2022-01-20,1,,,,,エイチシーテンアジア,0
1849,4290805009518,新規,0,2022-01-20,2022-01-20,一般社団法人日本築炉人材育成協会,,その他の設立登記法人,福岡県,北九州市若松区,大字払川３９番地３,,40,103,8080113,,,,,,,2022-01-20,1,,,,,ニホンチクロジンザイイクセイキョウカイ,0
1851,4320001018848,新規,0,2022-01-20,2022-01-20,株式会社Ｐ・Ｏ・Ｇ,,株式会社,大分県,大分市,明磧町２丁目１４番１１号,,44,201,8700860,,,,,,,2022-01-20,1,,,,,ピーオージー,0
1852,4330001029373,新規,0,2022-01-20,2022-01-20,南関電力株式会社,,株式会社,熊本県,熊本市中央区,上通町２番１７号びぷれす熊日会館７階,,43,101,8600845,,,,,,,2022-01-20,1,,,,,ナンカンデンリョク,0
1876,4360003011748,新規,0,2022-01-20,2022-01-20,合同会社ＣＥＮＴＲＯ,,合同会社,沖縄県,宮古島市,平良字下里１２８２番地１０,,47,214,9060013,,,,,,,2022-01-20,1,,,,,セントロ,0
1890,4420001017716,新規,0,2022-01-20,2022-01-20,株式会社Ｐａｓｔｏｒｅｌｌｉ　ＪＡＰＡＮ,,株式会社,青森県,青森市,虹ケ丘１丁目１１番地４,,02,201,0300948,,,,,,,2022-01-20,1,,,,,パストレリジャパン,0
1892,4420003002435,新規,0,2022-01-20,2022-01-20,合同会社モノトコト,,合同会社,青森県,青森市,古川１丁目２１番１１号第一須藤ビル１階１号室,,02,201,0300862,,,,,,,2022-01-20,1,,,,,モノトコト,0
1914,4430001085836,新規,0,2022-01-20,2022-01-20,株式会社太平建設,,株式会社,北海道,千歳市,幸福２丁目７番２４号,,01,224,0660082,,,,,,,2022-01-20,1,,,,,タイヘイケンセツ,0
1927,4430003013547,新規,0,2022-01-20,2022-01-20,合同会社ＬＵＦＦＹ,,合同会社,北海道,札幌市西区,西町南１８丁目４番８号,,01,107,0630062,,,,,,,2022-01-20,1,,,,,ルフィ,0
1934,4450001013596,新規,0,2022-01-20,2022-01-20,株式会社こしたか,,株式会社,北海道,旭川市,永山六条２１丁目３番６号,,01,204,0798416,,,,,,,2022-01-20,1,,,,,コシタカ,0
1969,5010001223775,新規,0,2022-01-20,2022-01-20,株式会社ステージ,,株式会社,東京都,中央区,日本橋茅場町２丁目７－３イーストインタービル８階,,13,102,1030025,,,,,,,2022-01-20,1,,,,,ステージ,0
1973,5010003036746,新規,0,2022-01-20,2022-01-20,Ｏｗｌサービス合同会社,,合同会社,東京都,千代田区,岩本町３丁目１１番８号イワモトチョービル２階,,13,101,1010032,,,,,,,2022-01-20,1,,,,,オウルサービス,0
1975,5010005034475,新規,0,2022-01-20,2022-01-20,一般社団法人日本イノベーション融合学会,,その他の設立登記法人,東京都,中央区,日本橋人形町１丁目９番２号冨士ビル５階,,13,102,1030013,,,,,,,2022-01-20,1,,,,,ニホンイノベーションユウゴウガッカイ,0
1976,5010101015032,新規,0,2022-01-20,2022-01-20,株式会社八みつ,,株式会社,東京都,八王子市,みつい台２丁目２８番１１号,,13,201,1920014,,,,,,,2022-01-20,1,,,,,ハチミツ,0
1985,5010403026925,新規,0,2022-01-20,2022-01-20,合同会社ベンチャーＦ２,,合同会社,東京都,港区,虎ノ門３丁目２２番１０－２０１号,,13,103,1050001,,,,,,,2022-01-20,1,,,,,ベンチャーエフツー,0
1987,5010405020604,新規,0,2022-01-20,2022-01-20,一般社団法人ＳＨ０５４,,その他の設立登記法人,東京都,港区,虎ノ門３丁目２２番１０－２０１号,,13,103,1050001,,,,,,,2022-01-20,1,,,,,エスエイチゼロファイブフォー,0
1997,5010803004035,新規,0,2022-01-20,2022-01-20,サラチ合同会社,,合同会社,東京都,大田区,久が原２丁目８－８,,13,111,1460085,,,,,,,2022-01-20,1,,,,,サラチ,0
2007,5011001145217,新規,0,2022-01-20,2022-01-20,株式会社Ｔｉｎｎ,,株式会社,東京都,渋谷区,神宮前２丁目３５番１３号,,13,113,1500001,,,,,,,2022-01-20,1,,,,,ティン,0
2011,5011003013974,新規,0,2022-01-20,2022-01-20,三葉堂合同会社,,合同会社,東京都,渋谷区,渋谷２丁目１９－１５宮益坂ビルディング６０９,,13,113,1500002,,,,,,,2022-01-20,1,,,,,サンヨウドウ,0
2017,5011303004285,新規,0,2022-01-20,2022-01-20,Ｚｅｕｓ合同会社,,合同会社,東京都,杉並区,下井草５丁目１０番２８号リキューザシモイグサ１０２,,13,115,1670022,,,,,,,2022-01-20,1,,,,,ゼウス,0
2030,5011801040220,新規,0,2022-01-20,2022-01-20,金莎国際株式会社,,株式会社,東京都,足立区,西新井本町５丁目２番４－２０３号,,13,121,1230845,,,,,,,2022-01-20,1,,,,,キンサコクサイ,0
2031,5011803004933,新規,0,2022-01-20,2022-01-20,Ｄｅｗｓｋｙ合同会社,,合同会社,東京都,足立区,中川２丁目２番１８号,,13,121,1200002,,,,,,,2022-01-20,1,,,,,デュースカイ,0
2040,5012703002390,新規,0,2022-01-20,2022-01-20,Ｈｏｒｓｅｐｏｗｅｒ　Ｊａｐａｎ合同会社,,合同会社,東京都,東村山市,美住町１丁目４番地１８Ｋ－１０２,,13,213,1890023,,,,,,,2022-01-20,1,,,,,ホースパワージャパン,0
2042,5012801021342,新規,0,2022-01-20,2022-01-20,守屋塗装株式会社,,株式会社,東京都,昭島市,拝島町１丁目７番３号,,13,207,1960002,,,,,,,2022-01-20,1,,,,,モリヤトソウ,0
2046,5013301048529,新規,0,2022-01-20,2022-01-20,株式会社リファイン,,株式会社,東京都,豊島区,南池袋２丁目３０番１２号ＢＩＴビル４階,,13,116,1710022,,,,,,,2022-01-20,1,,,,,リファイン,0
2047,5013301048561,新規,0,2022-01-20,2022-01-20,株式会社Ｐｒｅｍｉｅｒ,,株式会社,東京都,豊島区,池袋本町３丁目４番３号,,13,116,1700011,,,,,,,2022-01-20,1,,,,,プレミア,0
2052,5020001144830,新規,0,2022-01-20,2022-01-20,株式会社アールスケー,,株式会社,神奈川県,横浜市西区,西戸部町３丁目２６０番地４,,14,103,2200046,,,,,,,2022-01-20,1,,,,,アールスケー,0
2053,5020001144839,新規,0,2022-01-20,2022-01-20,株式会社ＳｗｉｎｄＳ,,株式会社,神奈川県,川崎市宮前区,宮崎３丁目１０番地７Ｍ－ＨＡＵＳ２０１,,14,136,2160033,,,,,,,2022-01-20,1,,,,,スウィンズ,0
2054,5020001144888,新規,0,2022-01-20,2022-01-20,株式会社Ｒｅｆｉｎｅ,,株式会社,神奈川県,横浜市神奈川区,入江１丁目２４番８－４０７号,,14,102,2210014,,,,,,,2022-01-20,1,,,,,リファイン,0
2057,5020005015350,新規,0,2022-01-20,2022-01-20,長津田みなみキリスト教会,,その他の設立登記法人,神奈川県,横浜市緑区,いぶき野２３番地１６,,14,113,2260028,,,,,,,2022-01-20,1,,,,,ナガツダミナミキリストキョウカイ,0
2060,5021001075000,新規,0,2022-01-20,2022-01-20,森山建機株式会社,,株式会社,神奈川県,綾瀬市,早川城山４丁目１番７号,,14,218,2521127,,,,,,,2022-01-20,1,,,,,モリヤマケンキ,0
2070,5030001146363,新規,0,2022-01-20,2022-01-20,株式会社Ｓｉｎｃｅｒｉｔｅ,,株式会社,埼玉県,さいたま市南区,南浦和１丁目４番６号,,11,108,3360017,,,,,,,2022-01-20,1,,,,,サンセリテ,0
2071,5030001146421,新規,0,2022-01-20,2022-01-20,株式会社フォーワンセブン,,株式会社,埼玉県,上尾市,壱丁目南５－１６,,11,219,3620083,,,,,,,2022-01-20,1,,,,,フォーワンセブン,0
2073,5030003018676,新規,0,2022-01-20,2022-01-20,合同会社ＨＭ＆Ｔ,,合同会社,埼玉県,新座市,大和田１丁目２０番７号,,11,230,3520004,,,,,,,2022-01-20,1,,,,,エイチエムアンドティー,0
2083,5040001121828,新規,0,2022-01-20,2022-01-20,株式会社Ｕｎｐｌｕｇｇｅｄ,,株式会社,千葉県,長生郡一宮町,東浪見７４１８番地５,,12,421,2994303,,,,,,,2022-01-20,1,,,,,アンプラグド,0
2084,5040001121869,新規,0,2022-01-20,2022-01-20,ＧＲＩＤＭＡＮ株式会社,,株式会社,千葉県,市川市,妙典５丁目１３番３３号Ａ＆Ｙビル３階ＢＩＺｃｏｍｆｏｒｔ市川妙典,,12,203,2720111,,,,,,,2022-01-20,1,,,,,グリッドマン,0
2091,5040005021487,新規,0,2022-01-20,2022-01-20,ＮＰＯ法人ＡＬＳひろば,,その他の設立登記法人,千葉県,船橋市,夏見６丁目７番地１４号第一エールハイツ１０１,,12,204,2730865,,,,,,,2022-01-20,1,,,,,エイエルエスヒロバ,0
2105,5080101023053,新規,0,2022-01-20,2022-01-20,ＹＵＵ株式会社,,株式会社,静岡県,伊豆市,城５６１番地の４,,22,222,4102503,,,,,,,2022-01-20,1,,,,,ユー,0
2106,5080103002501,新規,0,2022-01-20,2022-01-20,１７．ジオニッククリエイターズ合同会社,,合同会社,静岡県,下田市,吉佐美２１１２‐５０,,22,219,4150028,,,,,,,2022-01-20,1,,,,,イチナナドットジオニッククリエイターズ,0
2142,5120001243052,新規,0,2022-01-20,2022-01-20,株式会社クイーンチャイナ,,株式会社,大阪府,大阪市西区,江之子島２丁目１－３７－１７０７,,27,106,5500006,,,,,,,2022-01-20,1,,,,,クイーンチャイナ,0
2143,5120001243259,新規,0,2022-01-20,2022-01-20,エム・エイチ・エル株式会社,,株式会社,大阪府,大阪市淀川区,西三国４丁目３番９０号,,27,123,5320006,,,,,,,2022-01-20,1,,,,,エムエイチエル,0
2144,5120001243283,新規,0,2022-01-20,2022-01-20,株式会社アドバンス,,株式会社,大阪府,大阪市淀川区,宮原５丁目６番６－３０６号,,27,123,5320003,,,,,,,2022-01-20,1,,,,,アドバンス,0
2145,5120001243291,新規,0,2022-01-20,2022-01-20,株式会社Ｒｏｘｙ,,株式会社,大阪府,大阪市西区,川口２丁目７番３３号シリウス奥野ビル２０１号室,,27,106,5500021,,,,,,,2022-01-20,1,,,,,ロキシー,0
2146,5120001243317,新規,0,2022-01-20,2022-01-20,株式会社篠木電気商会,,株式会社,大阪府,守口市,梶町４丁目４９番２４号,,27,209,5700015,,,,,,,2022-01-20,1,,,,,シノキデンキショウカイ,0
2162,5120003020978,新規,0,2022-01-20,2022-01-20,Ａｎｊａｎ合同会社,,合同会社,大阪府,大阪市住吉区,我孫子３丁目８番１０号,,27,120,5580014,,,,,,,2022-01-20,1,,,,,アンジャン,0
2181,5120101064943,新規,0,2022-01-20,2022-01-20,株式会社ＯＮＥ,,株式会社,大阪府,和泉市,平井町１６８番地の１,,27,219,5941115,,,,,,,2022-01-20,1,,,,,オーエヌイー,0
2182,5120101064976,新規,0,2022-01-20,2022-01-20,株式会社ＳＫ－Ｃｏｎｎｅｃｔ,,株式会社,大阪府,堺市南区,美木多上３７１番地５,,27,145,5900136,,,,,,,2022-01-20,1,,,,,エスケイコネクト,0
2189,5120103004534,新規,0,2022-01-20,2022-01-20,合同会社瓶靖萬商,,合同会社,大阪府,高石市,綾園２丁目２番３１号,,27,225,5920014,,,,,,,2022-01-20,1,,,,,カメセイバンショウ,0
2204,5120901045449,新規,0,2022-01-20,2022-01-20,株式会社ユリシス,,株式会社,大阪府,豊中市,緑丘４丁目１番３０－７２１号,,27,203,5600002,,,,,,,2022-01-20,1,,,,,ユリシス,0
2210,5122001035520,新規,0,2022-01-20,2022-01-20,株式会社時宗,,株式会社,大阪府,東大阪市,長田西１丁目２番２３号,,27,227,5770016,,,,,,,2022-01-20,1,,,,,トキムネ,0
2225,5130001070941,新規,0,2022-01-20,2022-01-20,株式会社武専プロテクション,,株式会社,京都府,京都市上京区,堀松町４１９番地２Ｆ－Ｃ号室,,26,102,6028021,,,,,,,2022-01-20,1,,,,,ブセンプロテクション,0
2226,5130001070958,新規,0,2022-01-20,2022-01-20,株式会社山口製作所,,株式会社,京都府,船井郡京丹波町,下山中道７０番地１,,26,407,6220201,,,,,,,2022-01-20,1,,,,,ヤマグチセイサクショ,0
2227,5130001070966,新規,0,2022-01-20,2022-01-20,株式会社ＭＢＳ,,株式会社,京都府,京都市西京区,桂徳大寺北町１０７番地,,26,111,6158301,,,,,,,2022-01-20,1,,,,,エムビーエス,0
2228,5130001070974,新規,0,2022-01-20,2022-01-20,株式会社ＧＩＬＩＸＩＡ,,株式会社,京都府,京都市北区,等持院北町８番地３０１,,26,101,6038346,,,,,,,2022-01-20,1,,,,,ギリクシア,0
2236,5130003007702,新規,0,2022-01-20,2022-01-20,合同会社ミヤコ額縁,,合同会社,京都府,京都市伏見区,風呂屋町２４８番地１,,26,109,6128058,,,,,,,2022-01-20,1,,,,,ミヤコガクブチ,0
2240,5140003017246,新規,0,2022-01-20,2022-01-20,合同会社モレリア,,合同会社,兵庫県,尼崎市,武庫元町１丁目２１番３－２号シュプリームギフト１－２０１,,28,202,6610043,,,,,,,2022-01-20,1,,,,,モレリア,0
2241,5140003017254,新規,0,2022-01-20,2022-01-20,合同会社広田事務所,,合同会社,兵庫県,神戸市灘区,篠原本町３丁目８番７号,,28,102,6570067,,,,,,,2022-01-20,1,,,,,ヒロタジムショ,0
2242,5150001025191,新規,0,2022-01-20,2022-01-20,株式会社エコエスト,,株式会社,奈良県,北葛城郡河合町,高塚台２丁目２３－４,,29,427,6360071,,,,,,,2022-01-20,1,,,,,エコエスト,0
2245,5170003001676,新規,0,2022-01-20,2022-01-20,合同会社ＭＡＨＡＮＡＭＡ　ＴＲＡＤＩＮＧ,,合同会社,和歌山県,伊都郡かつらぎ町,大字広口上ヶ田１２０７－１,,30,341,6497103,,,,,,,2022-01-20,1,,,,,マハーナーマトレーディング,0
2249,5180001149491,新規,0,2022-01-20,2022-01-20,株式会社コスモスコンサルティング,,株式会社,愛知県,名古屋市中区,栄１丁目１２番５号,,23,106,4600008,,,,,,,2022-01-20,1,,,,,コスモスコンサルティング,0
2250,5180001149616,新規,0,2022-01-20,2022-01-20,株式会社センス,,株式会社,愛知県,名古屋市守山区,元郷１丁目１２５番地,,23,113,4630025,,,,,,,2022-01-20,1,,,,,センス,0
2256,5180003023406,新規,0,2022-01-20,2022-01-20,合同会社エクサテクノ,,合同会社,愛知県,一宮市,丹陽町九日市場６６１番地１,,23,203,4910824,,,,,,,2022-01-20,1,,,,,エクサテクノ,0
2259,5180005019600,新規,0,2022-01-20,2022-01-20,一般社団法人ａｃｈｉｅｖｅ,,その他の設立登記法人,愛知県,名古屋市守山区,大森八龍２丁目１０１７番地,,23,113,4630028,,,,,,,2022-01-20,1,,,,,アチーブ,0
2260,5180005019609,新規,0,2022-01-20,2022-01-20,ミライズ税理士法人,,その他の設立登記法人,愛知県,名古屋市中区,栄２丁目５番１３号アイ・エスビル,,23,106,4600008,,,,,,,2022-01-20,1,,,,,ミライズ,0
2280,5220001024657,新規,0,2022-01-20,2022-01-20,株式会社デジタルカレッジＫＡＧＡ,,株式会社,石川県,加賀市,大聖寺八間道６５番地かが交流プラザさくら,,17,206,9220057,,,,,,,2022-01-20,1,,,,,デジタルカレッジカガ,0
2282,5230001019202,新規,0,2022-01-20,2022-01-20,株式会社桶谷板金工業所,,株式会社,富山県,富山市,蓮町２丁目７番３０号,,16,201,9318333,,,,,,,2022-01-20,1,,,,,オケタニバンキンコウギョウショ,0
2315,5290001096079,新規,0,2022-01-20,2022-01-20,株式会社ＢｉｉＳ,,株式会社,福岡県,小郡市,小郡８９４番地２,,40,216,8380141,,,,,,,2022-01-20,1,,,,,ビース,0
2316,5290001096129,新規,0,2022-01-20,2022-01-20,セカンドオフィス株式会社,,株式会社,福岡県,筑紫野市,大字若江２２５番地２,,40,217,8180023,,,,,,,2022-01-20,1,,,,,セカンドオフィス,0
2317,5290001096137,新規,0,2022-01-20,2022-01-20,ＵＲ＆Ｈ株式会社,,株式会社,福岡県,福岡市博多区,吉塚本町９－１５,,40,132,8120046,,,,,,,2022-01-20,1,,,,,ユーテックリテールアンドホールセール,0
2318,5290003012050,新規,0,2022-01-20,2022-01-20,合同会社ＬＥ　ＴＨＡＮＨ,,合同会社,福岡県,久留米市,諏訪野町２１６２‐１‐５０１号,,40,203,8300037,,,,,,,2022-01-20,1,,,,,レタイン,0
2319,5290005018525,新規,0,2022-01-20,2022-01-20,司法書士法人ＣＯＭ事務所,,その他の設立登記法人,福岡県,福岡市博多区,中呉服町１番２２号,,40,132,8120035,,,,,,,2022-01-20,1,,,,,コムジムショ,0
2333,5330001029372,新規,0,2022-01-20,2022-01-20,株式会社弘栄工業,,株式会社,熊本県,玉名市,立願寺５６４番地,,43,206,8650061,,,,,,,2022-01-20,1,,,,,コウエイコウギョウ,0
2365,5360003011739,新規,0,2022-01-20,2022-01-20,合同会社朔まる,,合同会社,沖縄県,浦添市,宮城４丁目１９番５－２０１号Ｃａｌｍ宮城,,47,208,9012126,,,,,,,2022-01-20,1,,,,,サクマル,0
2377,5380001032504,新規,0,2022-01-20,2022-01-20,株式会社マルスズ,,株式会社,福島県,いわき市,勿来町窪田町通２丁目６９番地の３,,07,204,9790141,,,,,,,2022-01-20,1,,,,,マルスズ,0
2378,5380003005094,新規,0,2022-01-20,2022-01-20,合同会社ＡＩｔｅｃｈ,,合同会社,福島県,二本松市,表１丁目１２３番地５,,07,210,9640901,,,,,,,2022-01-20,1,,,,,,0
2405,5430001085835,新規,0,2022-01-20,2022-01-20,株式会社思惟林,,株式会社,北海道,千歳市,寿１丁目１０番２１号,,01,224,0660023,,,,,,,2022-01-20,1,,,,,シユイリン,0
2432,5450001013595,新規,0,2022-01-20,2022-01-20,グランド・サポート株式会社,,株式会社,北海道,旭川市,忠和七条５丁目５番１２号,,01,204,0708047,,,,,,,2022-01-20,1,,,,,グランドサポート,0
2448,5500001023952,新規,0,2022-01-20,2022-01-20,ＫＩボンズ株式会社,,株式会社,愛媛県,松山市,南久米町５４６番地１,,38,201,7900924,,,,,,,2022-01-20,1,,,,,ケーアイボンズ,0
2456,5700150106744,新規,0,2022-01-20,2022-01-20,ＴＯＫＹＯ　ＥＸＰＯＲＴ　ＬＡＮＫＡ　ＰＶＴ　ＬＴＤ,,外国会社等,千葉県,八街市,四木１１９３番地１１四木オフィス１０３,,12,230,2891122,スリランカ民主社会主義共和国、ラジャギリヤ、スリジャヤワルデナプラマワタ、ディヤナワンナレジデンシーズ、４８５Ｃ,,,,,,2022-01-20,1,,,,,トウキヨウエクスポートランカピーヴイテイエルテイデイ,0
2471,6010001223931,新規,0,2022-01-20,2022-01-20,授与品製作所株式会社,,株式会社,東京都,中央区,築地７丁目１８番２８号,,13,102,1040045,,,,,,,2022-01-20,1,,,,,ジュヨヒンセイサクジョ,0
2481,6010401165039,新規,0,2022-01-20,2022-01-20,株式会社ｎｏｚｚｙ　ｐｌｕｓ,,株式会社,東京都,港区,浜松町２丁目２番１５号浜松町ダイヤビル２Ｆ,,13,103,1050013,,,,,,,2022-01-20,1,,,,,ノージープラス,0
2482,6010401165055,新規,0,2022-01-20,2022-01-20,株式会社特化戦略研究所,,株式会社,東京都,港区,海岸３丁目１３番１２号,,13,103,1080022,,,,,,,2022-01-20,1,,,,,トッカセンリャクケンキュウジョ,0
2485,6010403026916,新規,0,2022-01-20,2022-01-20,合同会社Ａｐｏｐｐｏ,,合同会社,東京都,港区,南青山２丁目２番１５号,,13,103,1070062,,,,,,,2022-01-20,1,,,,,アポッポ,0
2486,6010403026924,新規,0,2022-01-20,2022-01-20,合同会社ベンチャーＦ１,,合同会社,東京都,港区,虎ノ門３丁目２２番１０－２０１号,,13,103,1050001,,,,,,,2022-01-20,1,,,,,ベンチャーエフワン,0
2488,6010405020603,新規,0,2022-01-20,2022-01-20,一般社団法人ＳＨ０５３,,その他の設立登記法人,東京都,港区,虎ノ門３丁目２２番１０－２０１号,,13,103,1050001,,,,,,,2022-01-20,1,,,,,エスエイチゼロファイブスリー,0
2489,6010405020611,新規,0,2022-01-20,2022-01-20,一般社団法人ベンチャーＦ１,,その他の設立登記法人,東京都,港区,虎ノ門３丁目２２番１０－２０１号,,13,103,1050001,,,,,,,2022-01-20,1,,,,,ベンチャーエフワン,0
2496,6010801032672,新規,0,2022-01-20,2022-01-20,株式会社Ｓｌａｎｇ,,株式会社,東京都,大田区,大森北２丁目１３番３１号大森プロストシティレジデンス２４０９,,13,111,1430016,,,,,,,2022-01-20,1,,,,,スラング,0
2501,6010901050203,新規,0,2022-01-20,2022-01-20,株式会社アイシーエー,,株式会社,東京都,世田谷区,若林４丁目１４番２７号ドウハイム若林２０４,,13,112,1540023,,,,,,,2022-01-20,1,,,,,アイシーエー,0
2504,6011001145001,新規,0,2022-01-20,2022-01-20,株式会社キャロット,,株式会社,東京都,渋谷区,千駄ヶ谷５丁目２７番５号リンクスクエア新宿,,13,113,1510051,,,,,,,2022-01-20,1,,,,,キャロット,0
2505,6011001145158,新規,0,2022-01-20,2022-01-20,株式会社ＬＩＦＩＸ,,株式会社,東京都,目黒区,中目黒１丁目１０－２５－５０３,,13,110,1530061,,,,,,,2022-01-20,1,,,,,リフィックス,0
2506,6011001145199,新規,0,2022-01-20,2022-01-20,株式会社ヨハク,,株式会社,東京都,渋谷区,神山町１７番１－３０１号,,13,113,1500047,,,,,,,2022-01-20,1,,,,,ヨハク,0
2507,6011001145208,新規,0,2022-01-20,2022-01-20,Ｅｑｕａｔｅ株式会社,,株式会社,東京都,渋谷区,神宮前６丁目２３番４号,,13,113,1500001,,,,,,,2022-01-20,1,,,,,イクエイト,0
2508,6011001145216,新規,0,2022-01-20,2022-01-20,株式会社ミライビズ,,株式会社,東京都,渋谷区,神宮前６丁目２８番９号東武ビル６階,,13,113,1500001,,,,,,,2022-01-20,1,,,,,ミライビズ,0
2509,6011101097514,新規,0,2022-01-20,2022-01-20,株式会社ＫＥＮ５,,株式会社,東京都,新宿区,神楽坂６丁目５０,,13,104,1620825,,,,,,,2022-01-20,1,,,,,ケンファイブ,0
2510,6011101097539,新規,0,2022-01-20,2022-01-20,株式会社ビリーブカラーオフィス,,株式会社,東京都,新宿区,下宮比町２番２８号飯田橋ハイタウン９１４号,,13,104,1620822,,,,,,,2022-01-20,1,,,,,ビリーブカラーオフィス,0
2511,6011101097547,新規,0,2022-01-20,2022-01-20,株式会社レストタイム,,株式会社,東京都,新宿区,西新宿１丁目１３番７号大和屋ビル４Ｆ,,13,104,1600023,,,,,,,2022-01-20,1,,,,,レストタイム,0
2518,6011501027673,新規,0,2022-01-20,2022-01-20,株式会社Ｃａｌｍ,,株式会社,東京都,荒川区,荒川３丁目７１番５号ＣＬＯＶＥＲＳＢＬＤＧ１Ｆ－Ｆ,,13,118,1160002,,,,,,,2022-01-20,1,,,,,カーム,0
2533,6013301048569,新規,0,2022-01-20,2022-01-20,株式会社デジタルコマース総合研究所,,株式会社,東京都,豊島区,西池袋２丁目３６－１０ＡＣＮ池袋ビル５Ｆ,,13,116,1710021,,,,,,,2022-01-20,1,,,,,デジタルコマースソウゴウケンキュウジョ,0
2542,6020001144879,新規,0,2022-01-20,2022-01-20,株式会社丸神断熱,,株式会社,神奈川県,横浜市都筑区,荏田南３丁目２４番６号,,14,118,2240007,,,,,,,2022-01-20,1,,,,,マルシンダンネツ,0
2547,6020003021168,新規,0,2022-01-20,2022-01-20,Ｊ－Ｔｒｉｂｕｔｅ合同会社,,合同会社,神奈川県,横浜市青葉区,美しが丘西２丁目５４番地５８,,14,117,2250001,,,,,,,2022-01-20,1,,,,,ジェイトリビュート,0
2550,6021001074991,新規,0,2022-01-20,2022-01-20,株式会社ハヤサンカンパニー,,株式会社,神奈川県,三浦郡葉山町,下山口１８２０番１８号,,14,301,2400116,,,,,,,2022-01-20,1,,,,,ハヤサンカンパニー,0
2552,6021003011258,新規,0,2022-01-20,2022-01-20,合同会社矢印,,合同会社,神奈川県,鎌倉市,由比ガ浜２丁目２４番３０ー４０３号,,14,204,2480014,,,,,,,2022-01-20,1,,,,,ヤジルシ,0
2558,6030001146420,新規,0,2022-01-20,2022-01-20,株式会社ＲＩＳＥ,,株式会社,埼玉県,さいたま市緑区,大字大牧１４９０番地２,,11,109,3360922,,,,,,,2022-01-20,1,,,,,ライズ,0
2562,6030003018683,新規,0,2022-01-20,2022-01-20,ＡＡＲＯＳＨＩ合同会社,,合同会社,埼玉県,川越市,霞ケ関東１丁目１８番地１４,,11,201,3501103,,,,,,,2022-01-20,1,,,,,アロシ,0
2568,6040001121835,新規,0,2022-01-20,2022-01-20,株式会社タクト,,株式会社,千葉県,佐倉市,王子台６丁目４４番地７,,12,212,2850837,,,,,,,2022-01-20,1,,,,,タクト,0
2569,6040001121868,新規,0,2022-01-20,2022-01-20,高久株式会社,,株式会社,千葉県,流山市,後平井１７０番地８１３号,,12,220,2700151,,,,,,,2022-01-20,1,,,,,タカヒサ,0
2577,6040003019326,新規,0,2022-01-20,2022-01-20,合同会社タックリテール,,合同会社,千葉県,浦安市,当代島２丁目４番１－２１３号ドミール浦安,,12,227,2790001,,,,,,,2022-01-20,1,,,,,タックリテール,0
2578,6040003019334,新規,0,2022-01-20,2022-01-20,合同会社メンデジ,,合同会社,千葉県,我孫子市,湖北台２丁目２－２－１,,12,222,2701132,,,,,,,2022-01-20,1,,,,,メンデジ,0
2581,6050003006307,新規,0,2022-01-20,2022-01-20,合同会社ＭＯＩ＆ＴＯＩ,,合同会社,茨城県,結城郡八千代町,大字塩本５４８－２６,,08,521,3003501,,,,,,,2022-01-20,1,,,,,モイアンドトイ,0
2582,6060003003930,新規,0,2022-01-20,2022-01-20,合同会社けあけあ,,合同会社,栃木県,鹿沼市,西鹿沼町２１番地１,,09,205,3220073,,,,,,,2022-01-20,1,,,,,ケアケア,0
2629,6120001243209,新規,0,2022-01-20,2022-01-20,Ｏｎｅ　Ｓｔａｇｅ株式会社,,株式会社,大阪府,大阪市淀川区,西宮原２丁目５番７－３０５号,,27,123,5320004,,,,,,,2022-01-20,1,,,,,ワンステージ,0
2630,6120001243290,新規,0,2022-01-20,2022-01-20,株式会社ＫＩＭペイント,,株式会社,大阪府,大阪市生野区,巽北１丁目７番３号,00125460,27,116,5440004,,,,,,,2022-01-20,1,,,,,ケイアイエムペイント,0
2631,6120001243332,新規,0,2022-01-20,2022-01-20,株式会社ＳＴＡＲ　ＭＡＲＫ,,株式会社,大阪府,大阪市北区,堂山町８番１８号,,27,127,5300027,,,,,,,2022-01-20,1,,,,,スターマアク,0
2632,6120001243349,新規,0,2022-01-20,2022-01-20,エムケイエス株式会社,,株式会社,大阪府,大阪市生野区,巽東２丁目５番３２号,00125471,27,116,5440014,,,,,,,2022-01-20,1,,,,,エムケイエス,0
2645,6120003020969,新規,0,2022-01-20,2022-01-20,合同会社裕翼,,合同会社,大阪府,大阪市淀川区,三津屋南３丁目８番５６号,,27,123,5320035,,,,,,,2022-01-20,1,,,,,ユウタスク,0
2646,6120003020993,新規,0,2022-01-20,2022-01-20,ＰＡＴＨＩ　ＢＨＡＲＡ　ＧＲＯＵＰ合同会社,,合同会社,大阪府,大阪市淀川区,塚本３丁目９番１４号すばる一番館１Ｉ号,,27,123,5320026,,,,,,,2022-01-20,1,,,,,パティバラグループ,0
2663,6120101064983,新規,0,2022-01-20,2022-01-20,白樫大樹ファッションスタイリング事務所株式会社,,株式会社,大阪府,藤井寺市,藤井寺４丁目１３番３７－１０５号,,27,226,5830024,,,,,,,2022-01-20,1,,,,,シラカシダイキファッションスタイリングジムショ,0
2669,6120103004533,新規,0,2022-01-20,2022-01-20,合同会社Ｇ＆Ｔコンサルティング,,合同会社,大阪府,羽曳野市,野々上１丁目１５番３号,,27,222,5830871,,,,,,,2022-01-20,1,,,,,ジーアンドティーコンサルティング,0
2696,6130001070940,新規,0,2022-01-20,2022-01-20,武専株式会社,,株式会社,京都府,京都市上京区,堀松町４１９番地２Ｆ－Ｃ号室,,26,102,6028021,,,,,,,2022-01-20,1,,,,,ブセン,0
2697,6130001070957,新規,0,2022-01-20,2022-01-20,株式会社湊,,株式会社,京都府,京都市右京区,西京極東大丸町２４番地１ハイツブルーバルーン１階,,26,108,6150807,,,,,,,2022-01-20,1,,,,,ミナト,0
2710,6130003007684,新規,0,2022-01-20,2022-01-20,合同会社Ｋｏｋｏｒｏ,,合同会社,京都府,京都市右京区,常盤山下町６番地４,,26,108,6168212,,,,,,,2022-01-20,1,,,,,ココロ,0
2711,6130003007701,新規,0,2022-01-20,2022-01-20,Ｔｅｌｅ－Ｒａｄｉｏ　Ｊａｐａｎ合同会社,,合同会社,京都府,京都市左京区,一乗寺樋ノ口町１０番地カサ・デ・ソーラ白川１００,,26,103,6068167,,,,,,,2022-01-20,1,,,,,テレラジオジャパン,0
2718,6140003017245,新規,0,2022-01-20,2022-01-20,合同会社トラストツーワン,,合同会社,兵庫県,宝塚市,高司２丁目１７番７号２０１,,28,214,6650051,,,,,,,2022-01-20,1,,,,,トラストツーワン,0
2732,6180001149598,新規,0,2022-01-20,2022-01-20,ティンツリー株式会社,,株式会社,愛知県,津島市,本町１丁目４８,,23,208,4960805,,,,,,,2022-01-20,1,,,,,ティンツリー,0
2733,6180001149623,新規,0,2022-01-20,2022-01-20,株式会社ファインド,,株式会社,愛知県,名古屋市東区,葵１丁目２６番１０号,,23,102,4610004,,,,,,,2022-01-20,1,,,,,ファインド,0
2734,6180001149648,新規,0,2022-01-20,2022-01-20,株式会社ＭＡＲＬ,,株式会社,愛知県,名古屋市中区,大須３丁目５番６号矢場町サンコービル４階,,23,106,4600011,,,,,,,2022-01-20,1,,,,,マール,0
2735,6180001149656,新規,0,2022-01-20,2022-01-20,株式会社ＨＡＮＥＤＡ,,株式会社,愛知県,名古屋市北区,水草町２丁目１５番地の３,,23,103,4620042,,,,,,,2022-01-20,1,,,,,ハネダ,0
2742,6180003023405,新規,0,2022-01-20,2022-01-20,合同会社ＹＭＥ,,合同会社,愛知県,名古屋市中村区,亀島１丁目３番１１号,,23,105,4530013,,,,,,,2022-01-20,1,,,,,ワイエムイー,0
2761,6210003001448,新規,0,2022-01-20,2022-01-20,合同会社Ｆ・上藤,,合同会社,福井県,小浜市,羽賀第７３号２１番地,,18,204,9170017,,,,,,,2022-01-20,1,,,,,エフジョウトウ,0
2791,6280005007461,新規,0,2022-01-20,2022-01-20,医療法人大國内科クリニック,,その他の設立登記法人,島根県,松江市,乃木福富町４１３－２,,32,201,6900046,,,,,,,2022-01-20,1,,,,,オオグニナイカクリニック,0
2798,6290001096078,新規,0,2022-01-20,2022-01-20,株式会社Ｕｎｌｅａｓｈ,,株式会社,福岡県,飯塚市,枝国４４９番地,,40,205,8200081,,,,,,,2022-01-20,1,,,,,アンリーシュ,0
2799,6290001096136,新規,0,2022-01-20,2022-01-20,株式会社ＡＮＤ,,株式会社,福岡県,福岡市中央区,平尾３丁目１９番２５号,,40,133,8100014,,,,,,,2022-01-20,1,,,,,アンディ,0
2800,6290001096152,新規,0,2022-01-20,2022-01-20,株式会社Ｄｅｃ,,株式会社,福岡県,福岡市西区,内浜２丁目２２番５号,,40,135,8190005,,,,,,,2022-01-20,1,,,,,デック,0
2802,6290003012025,新規,0,2022-01-20,2022-01-20,メゾンイサイ合同会社,,合同会社,福岡県,福岡市中央区,警固１丁目１－１清賀ビル３Ｆ,,40,133,8100023,,,,,,,2022-01-20,1,,,,,メゾンイサイ,0
2807,6290801028148,新規,0,2022-01-20,2022-01-20,株式会社ＭＡＴＳＵＫＡＴＳＵ,,株式会社,福岡県,北九州市小倉北区,三萩野２丁目６番１８号,,40,106,8020065,,,,,,,2022-01-20,1,,,,,マツカツ,0
2808,6290801028189,新規,0,2022-01-20,2022-01-20,株式会社子どもの未来応援ネットワーク,,株式会社,福岡県,田川郡香春町,大字採銅所４６４２番地１,,40,601,8221401,,,,,,,2022-01-20,1,,,,,コドモノミライオウエンネットワーク,0
2824,6330001029371,新規,0,2022-01-20,2022-01-20,株式会社華,,株式会社,熊本県,山鹿市,平山４９９８番地,,43,208,8610556,,,,,,,2022-01-20,1,,,,,ハナ,0
2830,6350005006043,新規,0,2022-01-20,2022-01-20,一般社団法人ハッピーコンシェルジュ協会,,その他の設立登記法人,宮崎県,都城市,立野町３６１６番地５トマトマンション１０２号,,45,202,8850035,,,,,,,2022-01-20,1,,,,,ハッピーコンシェルジュキョウカイ,0
2842,6370005010431,新規,0,2022-01-20,2022-01-20,一般社団法人まちとこ,,その他の設立登記法人,宮城県,牡鹿郡女川町,女川２丁目６１番地１,,04,581,9862265,,,,,,,2022-01-20,1,,,,,マチトコ,0
2847,6380003005093,新規,0,2022-01-20,2022-01-20,平田バイオエナジー合同会社,,合同会社,福島県,石川郡平田村,大字鴇子字坪内２３番８,,07,503,9638204,,,,,,,2022-01-20,1,,,,,ヒラタバイオエナジー,0
2848,6380005012526,新規,0,2022-01-20,2022-01-20,一般社団法人みなみ,,その他の設立登記法人,福島県,福島市,鳥谷野字舘４７番地１,,07,201,9608152,,,,,,,2022-01-20,1,,,,,,0
2858,6420005007785,新規,0,2022-01-20,2022-01-20,社会保険労務士法人東北ビジネスサポート,,その他の設立登記法人,青森県,五所川原市,大字広田字榊森５３番地１－３号棟,,02,205,0370023,,,,,,,2022-01-20,1,,,,,トウホクビジネスサポート,0
2873,6430001085826,新規,0,2022-01-20,2022-01-20,株式会社ＴＳタイガーセキュリティ,,株式会社,北海道,札幌市中央区,南一条西８丁目１０番３,,01,101,0600061,,,,,,,2022-01-20,1,,,,,ティエスタイガーセキュリティ,0
2874,6430001085834,新規,0,2022-01-20,2022-01-20,辰実工業株式会社,,株式会社,北海道,札幌市北区,屯田九条１１丁目１１番１７号,,01,102,0020859,,,,,,,2022-01-20,1,,,,,タツミコウギョウ,0
2875,6430001085842,新規,0,2022-01-20,2022-01-20,株式会社Ｆ,,株式会社,北海道,札幌市中央区,南八条西１４丁目２番３４号,,01,101,0640808,,,,,,,2022-01-20,1,,,,,エフ,0
2895,6450001013594,新規,0,2022-01-20,2022-01-20,株式会社道新矢野,,株式会社,北海道,中川郡美深町,字大通北３丁目１７番地,,01,469,0982220,,,,,,,2022-01-20,1,,,,,ドウシンヤノ,0
2904,6500001023951,新規,0,2022-01-20,2022-01-20,地域包括ケア研究会株式会社,,株式会社,愛媛県,松山市,西長戸町２７０番地１９,,38,201,7918017,,,,,,,2022-01-20,1,,,,,チイキホウカツケアケンキュウカイ,0
2916,6700150106743,新規,0,2022-01-20,2022-01-20,ＡＮＨＡ　ＥＮＴＥＲＰＲＩＳＥＳ,,外国会社等,千葉県,八街市,榎戸４１６番地２－２１－Ｃ,,12,230,2891106,スリランカ民主社会主義共和国、ガンポラ、キャンディロード、１８５－１－Ａ,,,,,,2022-01-20,1,,,,,アンハエンタープライズ,0
2919,7010001223848,新規,0,2022-01-20,2022-01-20,株式会社キャット,,株式会社,東京都,中央区,銀座１丁目２２番１１号銀座大竹ビジデンス２階,,13,102,1040061,,,,,,,2022-01-20,1,,,,,キャット,0
2920,7010001223939,新規,0,2022-01-20,2022-01-20,株式会社みらいぱす,,株式会社,東京都,千代田区,神田司町２丁目１３番地,,13,101,1010048,,,,,,,2022-01-20,1,,,,,ミライパス,0
2921,7010001223963,新規,0,2022-01-20,2022-01-20,株式会社エスアンドビー,,株式会社,東京都,中央区,銀座１丁目２２番１１号,,13,102,1040061,,,,,,,2022-01-20,1,,,,,エスアンドビー,0
2922,7010001223971,新規,0,2022-01-20,2022-01-20,株式会社Ｌｉｂｅｌｕｎａ,,株式会社,東京都,千代田区,九段南１丁目５番６号りそな九段ビル５階ＫＳフロア,,13,101,1020074,,,,,,,2022-01-20,1,,,,,リベルナ,0
2923,7010001223996,新規,0,2022-01-20,2022-01-20,株式会社ＲＡＫＩＡ,,株式会社,東京都,千代田区,神田佐久間町１丁目８－４,,13,101,1010025,,,,,,,2022-01-20,1,,,,,ラキア,0
2933,7010005034449,新規,0,2022-01-20,2022-01-20,一般社団法人居心地研究所,,その他の設立登記法人,東京都,中央区,銀座６丁目６－１銀座風月堂ビル５Ｆ,,13,102,1040061,,,,,,,2022-01-20,1,,,,,イゴコチケンキュウジョ,0
2934,7010005034473,新規,0,2022-01-20,2022-01-20,一般社団法人ＢＳＴＥＲ,,その他の設立登記法人,東京都,文京区,春日１丁目１６番２１号文京シビックセンター地下２階,,13,105,1120003,,,,,,,2022-01-20,1,,,,,ブースター,0
2935,7010005034481,新規,0,2022-01-20,2022-01-20,クレジット・ギャランティ６号一般社団法人,,その他の設立登記法人,東京都,千代田区,内神田２丁目２番６号５階あすな会計事務所内,,13,101,1010047,,,,,,,2022-01-20,1,,,,,クレジットギャランティロクゴウ,0
2945,7010403026915,新規,0,2022-01-20,2022-01-20,ｄｅｌｗａｌｄ合同会社,,合同会社,東京都,港区,南青山２丁目２番１５号,,13,103,1070062,,,,,,,2022-01-20,1,,,,,デルワルト,0
2947,7010405020585,新規,0,2022-01-20,2022-01-20,弁護士法人優誠法律事務所,,その他の設立登記法人,東京都,港区,元赤坂１丁目１－７オリエント赤坂モートサイド１１０５号室,,13,103,1070051,,,,,,,2022-01-20,1,,,,,ユウセイホウリツジムショ,0
2948,7010405020593,新規,0,2022-01-20,2022-01-20,一般社団法人日本骨格テイストスタイリング協会,,その他の設立登記法人,東京都,港区,南青山２丁目２－１５－１４０３,,13,103,1070062,,,,,,,2022-01-20,1,,,,,ニホンコッカクテイストスタイリングキョウカイ,0
2949,7010405020602,新規,0,2022-01-20,2022-01-20,一般社団法人ＳＨ０５２,,その他の設立登記法人,東京都,港区,虎ノ門３丁目２２番１０－２０１号,,13,103,1050001,,,,,,,2022-01-20,1,,,,,エスエイチゼロファイブツー,0
2953,7010801032671,新規,0,2022-01-20,2022-01-20,株式会社ＰｒｉｍａｒｙＢｏｄｙＣａｒｅ,,株式会社,東京都,大田区,久が原３丁目３９番３号オーバルＫ２３０号室,,13,111,1460085,,,,,,,2022-01-20,1,,,,,プライマリーボディーケア,0
2959,7010905004253,新規,0,2022-01-20,2022-01-20,一関１太陽光発電所一般社団法人,,その他の設立登記法人,東京都,世田谷区,経堂５丁目２０番７号,,13,112,1560052,,,,,,,2022-01-20,1,,,,,イチノセキイチタイヨウコウハツデンショ,0
2960,7011001145025,新規,0,2022-01-20,2022-01-20,株式会社ｅｋａｏ,,株式会社,東京都,目黒区,柿の木坂３丁目８番１７号,,13,110,1520022,,,,,,,2022-01-20,1,,,,,エカオ,0
2961,7011001145223,新規,0,2022-01-20,2022-01-20,株式会社ワイフ,,株式会社,東京都,渋谷区,渋谷１丁目３番１－１１０２号美竹コート,,13,113,1500002,,,,,,,2022-01-20,1,,,,,ワイフ,0
2989,7011801040219,新規,0,2022-01-20,2022-01-20,株式会社夜明け,,株式会社,東京都,足立区,西新井本町５丁目２番４－１０６号,,13,121,1230845,,,,,,,2022-01-20,1,,,,,ヨアケ,0
2995,7012401038776,新規,0,2022-01-20,2022-01-20,Ｔｈａｎｋｓ　Ｄｒｉｖｅ．株式会社,,株式会社,東京都,三鷹市,新川１丁目１０番１１号コーポ鈴木２０３,,13,204,1810004,,,,,,,2022-01-20,1,,,,,サンクスドライブ,0
2996,7012405004691,新規,0,2022-01-20,2022-01-20,ＮＰＯ法人３２１プロジェクト,,その他の設立登記法人,東京都,多摩市,鶴牧５丁目１２番地の１６,,13,224,2060034,,,,,,,2022-01-20,1,,,,,サンニィイチプロジェクト,0
3008,7020001144721,新規,0,2022-01-20,2022-01-20,株式会社イハラミュージックコネクト,,株式会社,神奈川県,横浜市旭区,中希望が丘５５番地５,,14,112,2410825,,,,,,,2022-01-20,1,,,,,イハラミュージックコネクト,0
3009,7020001144853,新規,0,2022-01-20,2022-01-20,株式会社クラシズ,,株式会社,神奈川県,川崎市宮前区,有馬１丁目１番４－１００号ＮＯＺＡＫＩ鷺沼アビテー,,14,136,2160003,,,,,,,2022-01-20,1,,,,,クラシズ,0
3010,7020001144878,新規,0,2022-01-20,2022-01-20,株式会社ＦＩＲ　ＴＲＵＳＴ,,株式会社,神奈川県,横浜市緑区,鴨居４丁目６６番７号,,14,113,2260003,,,,,,,2022-01-20,1,,,,,ファートラスト,0
3013,7020003021167,新規,0,2022-01-20,2022-01-20,合同会社Ｂ’ｄｏｇｓ　Ｕ＆Ａ,,合同会社,神奈川県,川崎市多摩区,長尾７丁目９番２６号,,14,135,2140023,,,,,,,2022-01-20,1,,,,,ビーズドッグスユーアンドエー,0
3015,7021001074990,新規,0,2022-01-20,2022-01-20,株式会社エヌプロジェクト,,株式会社,神奈川県,鎌倉市,台３丁目５番３号,,14,204,2470061,,,,,,,2022-01-20,1,,,,,エヌプロジェクト,0
3016,7021001074999,新規,0,2022-01-20,2022-01-20,株式会社ＣＯＲＥ,,株式会社,神奈川県,平塚市,桃浜町１７番１２号,,14,203,2540815,,,,,,,2022-01-20,1,,,,,コア,0
3027,7030003018674,新規,0,2022-01-20,2022-01-20,広日貿易合同会社,,合同会社,埼玉県,川口市,西川口１丁目３０番２０号３Ｆ,,11,203,3320021,,,,,,,2022-01-20,1,,,,,ヒロニチボウエキ,0
3035,7040001121818,新規,0,2022-01-20,2022-01-20,株式会社ＧｌｏｂａｌＡｓｃｅｎｓｉｏｎ,,株式会社,千葉県,船橋市,東船橋５丁目１２番１４号,,12,204,2730002,,,,,,,2022-01-20,1,,,,,グローバルアセンション,0
3036,7040001121842,新規,0,2022-01-20,2022-01-20,株式会社ＮＯＶＡＮＴＩＱＵＡ,,株式会社,千葉県,千葉市若葉区,加曽利町３３４番地２１,,12,104,2640017,,,,,,,2022-01-20,1,,,,,ノヴァンティカ,0
3042,7040003019333,新規,0,2022-01-20,2022-01-20,合同会社ビースパロウ,,合同会社,千葉県,柏市,柏１丁目１－１０ＫＡＳＨＩ－ＷＯＲＫビル,,12,217,2770005,,,,,,,2022-01-20,1,,,,,ビースパロウ,0
3050,7050001050495,新規,0,2022-01-20,2022-01-20,株式会社ｗｏｒｓｈｉｐ,,株式会社,茨城県,つくば市,要８４番地１３８,,08,220,3002622,,,,,,,2022-01-20,1,,,,,ワーシップ,0
3055,7070001038860,新規,0,2022-01-20,2022-01-20,キアパーツ株式会社,,株式会社,群馬県,桐生市,新里町新川２７４７番地１,,10,203,3760121,,,,,,,2022-01-20,1,,,,,キアパーツ,0
3061,7100001034988,新規,0,2022-01-20,2022-01-20,エイチアイシビルコンサル株式会社,,株式会社,長野県,飯田市,松尾明５３４４番地６,,20,205,3950823,,,,,,,2022-01-20,1,,,,,エイチアイシビルコンサル,0
3104,7120001243257,新規,0,2022-01-20,2022-01-20,株式会社ＳＯＤＡＳ,,株式会社,大阪府,大阪市天王寺区,国分町１７番６号,,27,109,5430044,,,,,,,2022-01-20,1,,,,,ソーダス,0
3117,7120003020992,新規,0,2022-01-20,2022-01-20,合同会社ミヤコ,,合同会社,大阪府,大阪市福島区,福島６丁目２２番１５号福島プライム４０２号,,27,103,5530003,,,,,,,2022-01-20,1,,,,,ミヤコ,0
3129,7120101064958,新規,0,2022-01-20,2022-01-20,株式会社咲弥,,株式会社,大阪府,堺市堺区,車之町西１丁１番２６号,,27,141,5900940,,,,,,,2022-01-20,1,,,,,サクヤ,0
3168,7130001070923,新規,0,2022-01-20,2022-01-20,株式会社ＹＡＭＡＭＯＴＯ,,株式会社,京都府,京都市南区,久世大藪町４９６番地１,,26,107,6010000,,,,,,,2022-01-20,1,,,,,ヤマモト,0
3169,7130001070964,新規,0,2022-01-20,2022-01-20,株式会社Ｓ　ｂｌｕｅ,,株式会社,京都府,京都市中京区,壬生朱雀町１７番地,,26,104,6048871,,,,,,,2022-01-20,1,,,,,エスブルー,0
3170,7130001070972,新規,0,2022-01-20,2022-01-20,興信金属株式会社,,株式会社,京都府,京都市中京区,西ノ京原町３７番地,,26,104,6048431,,,,,,,2022-01-20,1,,,,,コウシンキンゾク,0
3180,7130003007700,新規,0,2022-01-20,2022-01-20,合同会社ジュネス丸岡,,合同会社,京都府,京都市下京区,大宮通松原下る上五条町３８７番地２,,26,106,6008377,,,,,,,2022-01-20,1,,,,,ジュネスマルオカ,0
3185,7140001124620,新規,0,2022-01-20,2022-01-20,株式会社山崎電気通信,00125459,株式会社,兵庫県,神戸市垂水区,舞子台７丁目３番４－７０６号,,28,108,6550046,,,,,,,2022-01-20,1,,,,,ヤマサキデンキツウシン,0
3194,7150001025264,新規,0,2022-01-20,2022-01-20,株式会社Ａｎｙｔｈｉｎｇ,,株式会社,奈良県,天理市,田井庄町３０３－４コート藤の木２０１号,,29,204,6320071,,,,,,,2022-01-20,1,,,,,エニシング,0
3213,7180001149622,新規,0,2022-01-20,2022-01-20,株式会社吉林吉大法務日本事務所,,株式会社,愛知県,名古屋市中区,栄５丁目２５番４号－１－１Ｆ,,23,106,4600008,,,,,,,2022-01-20,1,,,,,キツリンキチダイホウムニホンジムショ,0
3214,7180001149630,新規,0,2022-01-20,2022-01-20,株式会社アシスト不動産,,株式会社,愛知県,清須市,阿原星の宮１４５番地１,,23,233,4520901,,,,,,,2022-01-20,1,,,,,アシストフドウサン,0
3215,7180001149647,新規,0,2022-01-20,2022-01-20,株式会社ハクト,,株式会社,愛知県,西春日井郡豊山町,大字豊場字中之町２５３番地,,23,342,4800202,,,,,,,2022-01-20,1,,,,,ハクト,0
3216,7180001149655,新規,0,2022-01-20,2022-01-20,株式会社大輝建創,,株式会社,愛知県,一宮市,常願通７丁目９番地３,,23,203,4910063,,,,,,,2022-01-20,1,,,,,ダイキケンソウ,0
3219,7180003023370,新規,0,2022-01-20,2022-01-20,合同会社林事務所,,合同会社,愛知県,名古屋市西区,大野木２丁目４０番地,,23,104,4520803,,,,,,,2022-01-20,1,,,,,ハヤシジムショ,0
3220,7180003023404,新規,0,2022-01-20,2022-01-20,合同会社ＫＥＹ,,合同会社,愛知県,名古屋市南区,明治１丁目１４番５３号,,23,112,4570861,,,,,,,2022-01-20,1,,,,,キー,0
3237,7230001019200,新規,0,2022-01-20,2022-01-20,アグリドリーム未来株式会社,,株式会社,富山県,富山市,本郷中部２７８番地２,,16,201,9300108,,,,,,,2022-01-20,1,,,,,アグリドリームミライ,0
3263,7290001095995,新規,0,2022-01-20,2022-01-20,株式会社アメリオ,,株式会社,福岡県,福岡市博多区,博多駅中央街８－１ＪＲＪＰ博多ビル３Ｆ,,40,132,8120012,,,,,,,2022-01-20,1,,,,,アメリオ,0
3264,7290001096119,新規,0,2022-01-20,2022-01-20,株式会社貢翔建設,,株式会社,福岡県,大野城市,下大利４丁目１３番１１‐１０３号,,40,219,8160952,,,,,,,2022-01-20,1,,,,,コウショウケンセツ,0
3265,7290001096135,新規,0,2022-01-20,2022-01-20,株式会社犬束設備,,株式会社,福岡県,糟屋郡須惠町,大字上須惠７３６番地６,,40,344,8112114,,,,,,,2022-01-20,1,,,,,イヌヅカセツビ,0
3267,7290003012057,新規,0,2022-01-20,2022-01-20,五常投資顧問合同会社,,合同会社,福岡県,福岡市中央区,天神１丁目９‐１７福岡天神フコク生命ビル１５Ｆ,,40,133,8100001,,,,,,,2022-01-20,1,,,,,ゴジョウトウシコモン,0
3296,7340003003694,新規,0,2022-01-20,2022-01-20,合同会社豊海,,合同会社,鹿児島県,鹿児島市,下荒田２丁目９番１２－４０１号,,46,201,8900056,,,,,,,2022-01-20,1,,,,,トミー,0
3303,7360001029913,新規,0,2022-01-20,2022-01-20,株式会社羚,,株式会社,沖縄県,うるま市,石川東山２丁目１１番２号,,47,213,9041102,,,,,,,2022-01-20,1,,,,,,0
3307,7360003011745,新規,0,2022-01-20,2022-01-20,合同会社ＴＪ,,合同会社,沖縄県,那覇市,松山１丁目１９－１８東和商事ビル５Ｆ,,47,201,9000032,,,,,,,2022-01-20,1,,,,,ティージェイ,0
3309,7370003005564,新規,0,2022-01-20,2022-01-20,合同会社やち,,合同会社,宮城県,仙台市泉区,鶴が丘３丁目２０－１２,,04,105,9813109,,,,,,,2022-01-20,1,,,,,ヤチ,0
3320,7410001013085,新規,0,2022-01-20,2022-01-20,能代港風力発電株式会社,,株式会社,秋田県,能代市,万町４番２９号,,05,202,0160804,,,,,,,2022-01-20,1,,,,,ノシロコウフウリョクハツデン,0
3322,7420001017713,新規,0,2022-01-20,2022-01-20,株式会社Ｒｅｍａｋｅ,,株式会社,青森県,黒石市,ちとせ１丁目１４２番地,,02,204,0360356,,,,,,,2022-01-20,1,,,,,リメイク,0
3344,7430001085817,新規,0,2022-01-20,2022-01-20,麗衆国際株式会社,,株式会社,北海道,札幌市中央区,南六条西４丁目５番地Ｇ４ビル８Ｆ,,01,101,0640806,,,,,,,2022-01-20,1,,,,,レイシュウコクサイ,0
3345,7430001085825,新規,0,2022-01-20,2022-01-20,株式会社ＧＦＯ,,株式会社,北海道,札幌市北区,北十三条西３丁目２番２１－４０６号,,01,102,0010013,,,,,,,2022-01-20,1,,,,,ジーエフオー,0
3346,7430001085841,新規,0,2022-01-20,2022-01-20,株式会社ノユクワークス,,株式会社,北海道,札幌市中央区,南二条西３丁目１３番地４カタオカビル３Ｆ,,01,101,0600062,,,,,,,2022-01-20,1,,,,,ノユクワークス,0
3395,7700150106750,新規,0,2022-01-20,2022-01-20,西尾土地改良区,,その他,愛知県,西尾市,今川町石橋１５番地,,23,213,4450063,,,,,,,2022-01-20,1,,,,,ニシオトチカイリヨウク,0
3396,8000020298581,新規,0,2022-01-20,2022-01-20,磯城郡水道企業団,,地方公共団体,奈良県,磯城郡田原本町,大字西竹田２８０,,29,363,6360306,,,,,,,2022-01-20,1,,,,,シキグンスイドウキギョウダン,0
3403,8010001223987,新規,0,2022-01-20,2022-01-20,株式会社日々不動産,,株式会社,東京都,中央区,銀座７丁目９番１３号,,13,102,1040061,,,,,,,2022-01-20,1,,,,,ニチニチフドウサン,0
3409,8010003036751,新規,0,2022-01-20,2022-01-20,エスイージー合同会社,,合同会社,東京都,中央区,銀座１丁目１２番４号Ｎ＆Ｅ・ＢＬＤ．７階,,13,102,1040061,,,,,,,2022-01-20,1,,,,,エスイージー,0
3410,8010005034472,新規,0,2022-01-20,2022-01-20,一般社団法人日本精米検査認証協会,,その他の設立登記法人,東京都,中央区,日本橋小伝馬町１５番１５号,,13,102,1030001,,,,,,,2022-01-20,1,,,,,ニホンセイマイケンサニンショウキョウカイ,0
3411,8010005034489,新規,0,2022-01-20,2022-01-20,一般社団法人Ｂｉｒｉｂｉ,,その他の設立登記法人,東京都,中央区,銀座１丁目６番１１号土志田ビルディング３Ｆ,,13,102,1040061,,,,,,,2022-01-20,1,,,,,ビリビ,0
3419,8010401165053,新規,0,2022-01-20,2022-01-20,株式会社ＰＬＵＳ　ＦＩＴ,,株式会社,東京都,港区,西麻布４丁目２－４ＴＨＥＷＡＬＬＢ２Ｆ,,13,103,1060031,,,,,,,2022-01-20,1,,,,,プラスフィット,0
3423,8010403026914,新規,0,2022-01-20,2022-01-20,ＴＳ　Ｅｓｔａｔｅ合同会社,,合同会社,東京都,港区,虎ノ門２丁目５番５号ニュー虎ノ門ビル６階,,13,103,1050001,,,,,,,2022-01-20,1,,,,,ティーエスエステート,0
3424,8010403026939,新規,0,2022-01-20,2022-01-20,ＷＨＩＮＫ合同会社,,合同会社,東京都,港区,六本木１丁目９番３９号六本木ファーストプラザ１４２１号室,,13,103,1060032,,,,,,,2022-01-20,1,,,,,ウィンク,0
3426,8010503006477,新規,0,2022-01-20,2022-01-20,日本理構想合同会社,,合同会社,東京都,台東区,竜泉２丁目１２番１２－２０３号ルピナス三ノ輪,,13,106,1100012,,,,,,,2022-01-20,1,,,,,ニホンリコウソウ,0
3431,8010801032670,新規,0,2022-01-20,2022-01-20,株式会社ＣｒｏｗｄＣｈｅｍ,,株式会社,東京都,大田区,山王２丁目７番２２号,,13,111,1430023,,,,,,,2022-01-20,1,,,,,クラウドケム,0
3437,8010905004252,新規,0,2022-01-20,2022-01-20,加治木太陽光発電所一般社団法人,,その他の設立登記法人,東京都,世田谷区,経堂５丁目２０番７号,,13,112,1560052,,,,,,,2022-01-20,1,,,,,カジキタイヨウコウハツデンショ,0
3442,8011001145197,新規,0,2022-01-20,2022-01-20,株式会社Ｌｕｎａｔｏｍｏ,,株式会社,東京都,渋谷区,宇田川町４０番１号,,13,113,1500042,,,,,,,2022-01-20,1,,,,,ルナトモ,0
3445,8011003014012,新規,0,2022-01-20,2022-01-20,Ｍ’ｓコネクション合同会社,,合同会社,東京都,渋谷区,千駄ヶ谷３丁目１６－５北参道ＧＡＴＥ９Ｆ,,13,113,1510051,,,,,,,2022-01-20,1,,,,,エムズコネクション,0
3448,8011101097454,新規,0,2022-01-20,2022-01-20,株式会社ＰＥＲＳ,,株式会社,東京都,新宿区,中落合３丁目１７番１４号,,13,104,1610032,,,,,,,2022-01-20,1,,,,,パース,0
3449,8011101097561,新規,0,2022-01-20,2022-01-20,メイスターズインターナショナル株式会社,,株式会社,東京都,新宿区,若葉１丁目６番地１ビジネスガーデン四ッ谷アネックス１０１号室,,13,104,1600011,,,,,,,2022-01-20,1,,,,,メイスターズインターナショナル,0
3466,8011705001712,新規,0,2022-01-20,2022-01-20,一般社団法人ＧＨＦＡ,,その他の設立登記法人,東京都,江戸川区,西葛西２丁目９－１６－７０２,,13,123,1340088,,,,,,,2022-01-20,1,,,,,ジーエイチエフエイ,0
3469,8011801040218,新規,0,2022-01-20,2022-01-20,株式会社インフィニティ,,株式会社,東京都,足立区,千住柳町６番７号,,13,121,1200032,,,,,,,2022-01-20,1,,,,,インフィニティ,0
3484,8020001144852,新規,0,2022-01-20,2022-01-20,リート株式会社,,株式会社,神奈川県,川崎市中原区,下沼部１９２４,,14,133,2110011,,,,,,,2022-01-20,1,,,,,リート,0
3485,8020001144869,新規,0,2022-01-20,2022-01-20,株式会社ＯＦＦＩｃｅ　ＢＵＧＳＹ,,株式会社,神奈川県,横浜市中区,伊勢佐木町５丁目１３０番地エランデヒロセマンション６０２号室,,14,104,2310045,,,,,,,2022-01-20,1,,,,,オフィスバグジー,0
3486,8020001144885,新規,0,2022-01-20,2022-01-20,株式会社ＯＷＮＥＲＳ,,株式会社,神奈川県,横浜市旭区,二俣川１丁目９番地２二俣川ハーモニビル１Ｆ,,14,112,2410821,,,,,,,2022-01-20,1,,,,,オーナーズ,0
3502,8021001074998,新規,0,2022-01-20,2022-01-20,株式会社ライノフィールド,,株式会社,神奈川県,相模原市南区,御園１丁目１８－５１,,14,153,2520317,,,,,,,2022-01-20,1,,,,,ライノフィールド,0
3509,8030001146352,新規,0,2022-01-20,2022-01-20,株式会社ＳＩＭ,,株式会社,埼玉県,さいたま市大宮区,下町１丁目４３番地７南銀プラザ５０３号,,11,103,3300844,,,,,,,2022-01-20,1,,,,,シム,0
3510,8030005020693,新規,0,2022-01-20,2022-01-20,一般社団法人いきいきライフ協会川越・ふじみ野,,その他の設立登記法人,埼玉県,ふじみ野市,大井武蔵野１３５８番地１,,11,245,3560054,,,,,,,2022-01-20,1,,,,,イキイキライフキョウカイカワゴエフジミノ,0
3519,8040001121858,新規,0,2022-01-20,2022-01-20,株式会社Ｍ‐ＨＯＰＥ,,株式会社,千葉県,船橋市,金杉３丁目１３番２８号,,12,204,2730853,,,,,,,2022-01-20,1,,,,,エムホープ,0
3520,8040001121890,新規,0,2022-01-20,2022-01-20,株式会社オリシャ,,株式会社,千葉県,館山市,見物７８２番地,,12,205,2940305,,,,,,,2022-01-20,1,,,,,オリシャ,0
3525,8040003019324,新規,0,2022-01-20,2022-01-20,ジェイスラッシュ合同会社,,合同会社,千葉県,浦安市,入船４丁目２４番２３－２号,,12,227,2790012,,,,,,,2022-01-20,1,,,,,ジェイスラッシュ,0
3528,8060001034496,新規,0,2022-01-20,2022-01-20,株式会社高尾,00125462,株式会社,栃木県,宇都宮市,下岡本町４２０１番地,,09,201,3291104,,,,,,,2022-01-20,1,,,,,タカオ,0
3531,8060003003929,新規,0,2022-01-20,2022-01-20,ＳＡＮＹＯ合同会社,,合同会社,栃木県,栃木市,岩舟曲ケ島１１１６番地３,,09,203,3280000,,,,,,,2022-01-20,1,,,,,サンヨー,0
3536,8080403004450,新規,0,2022-01-20,2022-01-20,共に生きる合同会社,,合同会社,静岡県,浜松市北区,初生町１４０８－８,,22,135,4338112,,,,,,,2022-01-20,1,,,,,トモニイキル,0
3538,8090005007462,新規,0,2022-01-20,2022-01-20,医療法人こぐれ眼科,,その他の設立登記法人,山梨県,中巨摩郡昭和町,押越７０番地１,,19,384,4093864,,,,,,,2022-01-20,1,,,,,コグレガンカ,0
3590,8120001243256,新規,0,2022-01-20,2022-01-20,岡本宝飾店株式会社,,株式会社,大阪府,大阪市中央区,南船場４丁目１０番５号南船場ＳＯＨＯビル７０２,,27,128,5420081,,,,,,,2022-01-20,1,,,,,オカモトホウショクテン,0
3591,8120001243314,新規,0,2022-01-20,2022-01-20,東亜産業株式会社,,株式会社,大阪府,大阪市東淀川区,南江口３丁目１番５８号,,27,114,5330003,,,,,,,2022-01-20,1,,,,,トウアサンギョウ,0
3592,8120001243330,新規,0,2022-01-20,2022-01-20,株式会社ＬＭＧ,,株式会社,大阪府,大阪市浪速区,恵美須西２丁目６番９号３Ｆ,,27,111,5560003,,,,,,,2022-01-20,1,,,,,エルエムジー,0
3607,8120003020983,新規,0,2022-01-20,2022-01-20,Ｅ－ａｇｅｎｔ合同会社,,合同会社,大阪府,大阪市阿倍野区,旭町１丁目１番２１号,,27,119,5450051,,,,,,,2022-01-20,1,,,,,イーエージェント,0
3608,8120003020991,新規,0,2022-01-20,2022-01-20,ＨＯＺＵＭＩ合同会社,,合同会社,大阪府,大阪市浪速区,敷津東３丁目１０－２４－４０４,,27,111,5560012,,,,,,,2022-01-20,1,,,,,ホズミ,0
3624,8120101064965,新規,0,2022-01-20,2022-01-20,株式会社柴原ブリキ工房,,株式会社,大阪府,藤井寺市,林２丁目１０番１５号,,27,226,5830007,,,,,,,2022-01-20,1,,,,,シバハラブリキコウボウ,0
3652,8120901045487,新規,0,2022-01-20,2022-01-20,株式会社ＣＯＯＫＥ,,株式会社,大阪府,箕面市,今宮３丁目６番２５号,,27,220,5620033,,,,,,,2022-01-20,1,,,,,クック,0
3653,8120901045495,新規,0,2022-01-20,2022-01-20,株式会社くれは工務店,,株式会社,大阪府,池田市,旭丘２丁目１１－１６,,27,204,5630022,,,,,,,2022-01-20,1,,,,,クレハコウムテン,0
3657,8120903004004,新規,0,2022-01-20,2022-01-20,ジャパン新綜合警備保障合同会社,,合同会社,大阪府,吹田市,山手町４丁目２４番１５－７０３号,,27,205,5640073,,,,,,,2022-01-20,1,,,,,ジャパンシンソウゴウケイビホショウ,0
3669,8130001070872,新規,0,2022-01-20,2022-01-20,株式会社潔き日本,,株式会社,京都府,京都市中京区,西ノ京樋ノ口町９番地,,26,104,6048424,,,,,,,2022-01-20,1,,,,,キヨキニッポン,0
3670,8130001070955,新規,0,2022-01-20,2022-01-20,株式会社オリーブの木,,株式会社,京都府,京都市下京区,不明門通七条上る粉川町２３７番地２,,26,106,6008149,,,,,,,2022-01-20,1,,,,,オリーブノキ,0
3671,8130001070963,新規,0,2022-01-20,2022-01-20,株式会社エル・プランニング,,株式会社,京都府,京都市中京区,釜座町２２番地,,26,104,6040000,,,,,,,2022-01-20,1,,,,,エルプランニング,0
3672,8130001070971,新規,0,2022-01-20,2022-01-20,株式会社庄次郎,,株式会社,京都府,京都市左京区,岩倉下在地町５３６番地,,26,103,6060013,,,,,,,2022-01-20,1,,,,,ショウジロウ,0
3680,8130003007699,新規,0,2022-01-20,2022-01-20,オーガストマーチ合同会社,,合同会社,京都府,京都市左京区,静市野中町２９１番地１０,,26,103,6011122,,,,,,,2022-01-20,1,,,,,オーガストマーチ,0
3683,8140001124636,新規,0,2022-01-20,2022-01-20,株式会社ダイシンサービス,,株式会社,兵庫県,神戸市中央区,琴ノ緒町５丁目５番２９号４０６号室,,28,110,6510094,,,,,,,2022-01-20,1,,,,,ダイシンサービス,0
3698,8180001149621,新規,0,2022-01-20,2022-01-20,学術・文学翻訳事務所Ｌｅ　Ｍｕｓｉｖａｒｉｕｓ株式会社,,株式会社,愛知県,名古屋市千種区,清住町２丁目３８番地の１（プラウド東山３０５）,,23,101,4640034,,,,,,,2022-01-20,1,,,,,ガクジュツブンガクホンヤクジムショルムジヴァリウス,0
3723,8200003005431,新規,0,2022-01-20,2022-01-20,ＩＴＡＬＣＨＥＥＳＥ合同会社,,合同会社,岐阜県,可児市,鳩吹台８丁目１５番地,,21,214,5090264,,,,,,,2022-01-20,1,,,,,イタルチーズ,0
3724,8220001024654,新規,0,2022-01-20,2022-01-20,飴谷興産株式会社,00125463,株式会社,石川県,かほく市,宇気ソ６番地２,,17,209,9291121,,,,,,,2022-01-20,1,,,,,アメタニコウサン,0
3729,8230005009188,新規,0,2022-01-20,2022-01-20,特定非営利活動法人神通川トライアスロンスクール,,その他の設立登記法人,富山県,富山市,北新町２丁目２番地６,,16,201,9300023,,,,,,,2022-01-20,1,,,,,ジンヅウガワトライアスロンスクール,0
3751,8290001096150,新規,0,2022-01-20,2022-01-20,猫谷株式会社,,株式会社,福岡県,福岡市博多区,博多駅前２丁目１９番１７号５階,,40,132,8120011,,,,,,,2022-01-20,1,,,,,ネコタニ,0
3752,8290001096159,新規,0,2022-01-20,2022-01-20,株式会社ＫＵ’Ｕ,,株式会社,福岡県,福岡市西区,西都２丁目１３番６－１０５号メゾン柳原,,40,135,8190367,,,,,,,2022-01-20,1,,,,,クゥー,0
3764,8310005008578,新規,0,2022-01-20,2022-01-20,特定非営利活動法人ＧＯＴＯ　Ｃｈａｌｌｅｎｇｅｄ椿,,その他の設立登記法人,長崎県,五島市,浜町１３４番地,,42,211,8530026,,,,,,,2022-01-20,1,,,,,ゴトウチャレンジドツバキ,0
3791,8370003005563,新規,0,2022-01-20,2022-01-20,合同会社Ｃｈｅｒｎｏｚｅｍ,,合同会社,宮城県,加美郡加美町,字雁原２５１番地１ステラＢ２０２号室,,04,445,9814263,,,,,,,2022-01-20,1,,,,,チェルノーゼム,0
3805,8420001017712,新規,0,2022-01-20,2022-01-20,株式会社未希工業,,株式会社,青森県,青森市,大字油川字浪返２６番地６,,02,201,0380059,,,,,,,2022-01-20,1,,,,,ミキコウギョウ,0
3823,8430001085840,新規,0,2022-01-20,2022-01-20,株式会社花田商会,,株式会社,北海道,夕張市,若菜１０番地,,01,209,0680425,,,,,,,2022-01-20,1,,,,,ハナダショウカイ,0
3871,8700150106733,新規,0,2022-01-20,2022-01-20,小鳥有限公司,,外国会社等,埼玉県,川口市,戸塚南５丁目１３番２２号サンシャイン３０４号,,11,203,3330817,台湾桃園市平鎮区新栄里新徳街２５０巷２２号３階,,,,,,2022-01-20,1,,,,,コトリユウゲンコウシ,0
3872,8700150106741,新規,0,2022-01-20,2022-01-20,Ｉ．Ｍ．ＭＯＴＯＲＳ,,外国会社等,千葉県,八街市,榎戸２６２－１－４,,12,230,2891106,スリランカ民主社会主義共和国、ムルサガハムラ、エラマルデニヤ、Ｎｏ．５５／Ａ／２,,,,,,2022-01-20,1,,,,,アイエムモータース,0
3881,9010001223854,新規,0,2022-01-20,2022-01-20,株式会社トリリオンドリーム,,株式会社,東京都,千代田区,内神田２丁目４番２号山崎ビル２Ｆ,,13,101,1010047,,,,,,,2022-01-20,1,,,,,トリリオンドリーム,0
3882,9010001223929,新規,0,2022-01-20,2022-01-20,セレモニーサービス株式会社,,株式会社,東京都,中央区,入船３丁目４番５号平田ビル２階,,13,102,1040042,,,,,,,2022-01-20,1,,,,,セレモニーサービス,0
3883,9010001223986,新規,0,2022-01-20,2022-01-20,ＰＩＬＩＮＡ株式会社,,株式会社,東京都,中央区,銀座１丁目２２番１１号銀座大竹ビジデンス２階,,13,102,1040061,,,,,,,2022-01-20,1,,,,,ピリナ,0
3884,9010001223994,新規,0,2022-01-20,2022-01-20,株式会社ストライプホールディングス,,株式会社,東京都,千代田区,大手町１丁目１番１号,,13,101,1000004,,,,,,,2022-01-20,1,,,,,ストライプホールディングス,0
3890,9010005034488,新規,0,2022-01-20,2022-01-20,一般社団法人Ｐｒｉｏｒｉ,,その他の設立登記法人,東京都,中央区,銀座１丁目６番１１号土志田ビルディング３Ｆ,,13,102,1040061,,,,,,,2022-01-20,1,,,,,プリオリ,0
3897,9010403026913,新規,0,2022-01-20,2022-01-20,合同会社ＨＡＮＡＮＡ,,合同会社,東京都,港区,芝浦３丁目１４番６号,,13,103,1080023,,,,,,,2022-01-20,1,,,,,ハナナ,0
3898,9010403026921,新規,0,2022-01-20,2022-01-20,合同会社ＧＫ０５４,,合同会社,東京都,港区,虎ノ門３丁目２２番１０－２０１号,,13,103,1050001,,,,,,,2022-01-20,1,,,,,ジーケイゼロファイブフォー,0
3910,9010901050200,新規,0,2022-01-20,2022-01-20,株式会社ラフォエム,,株式会社,東京都,世田谷区,太子堂２丁目７－２０ドーマ世田谷１３号,,13,112,1540004,,,,,,,2022-01-20,1,,,,,ラフォエム,0
3918,9011001144990,新規,0,2022-01-20,2022-01-20,株式会社コッキデザイン事務所,,株式会社,東京都,渋谷区,代々木４丁目２８－８代々木村田マンション４０７,,13,113,1510053,,,,,,,2022-01-20,1,,,,,コッキデザインジムショ,0
3919,9011001145196,新規,0,2022-01-20,2022-01-20,株式会社早崎,,株式会社,東京都,目黒区,自由が丘１丁目１２番１２号,,13,110,1520035,,,,,,,2022-01-20,1,,,,,ハヤサキ,0
3921,9011003013962,新規,0,2022-01-20,2022-01-20,Ｄｏｕｂｌｅ　Ｄｏｎｕｔ合同会社,,合同会社,東京都,目黒区,下目黒２丁目２－２パークキューブ目黒タワー４１３,,13,110,1530064,,,,,,,2022-01-20,1,,,,,ダブルドーナッツ,0
3923,9011103011379,新規,0,2022-01-20,2022-01-20,合同会社Ｋｙｕｎ,,合同会社,東京都,新宿区,西新宿８丁目９番１４号ベイベリー２０１,,13,104,1600023,,,,,,,2022-01-20,1,,,,,キュン,0
3926,9011301027508,新規,0,2022-01-20,2022-01-20,株式会社ヨチ,,株式会社,東京都,杉並区,高円寺南４丁目７番３サンシャイン高円寺８０３号,,13,115,1660003,,,,,,,2022-01-20,1,,,,,ヨチ,0
3961,9020001144884,新規,0,2022-01-20,2022-01-20,株式会社ＦＣＳ,,株式会社,神奈川県,横浜市磯子区,滝頭２丁目２６番３－４０２号,,14,107,2350012,,,,,,,2022-01-20,1,,,,,エフシーエス,0
3962,9020001144892,新規,0,2022-01-20,2022-01-20,株式会社ビーキャピタル,,株式会社,神奈川県,川崎市中原区,井田１丁目３８－１７,,14,133,2110035,,,,,,,2022-01-20,1,,,,,ビーキャピタル,0
3969,9020003021124,新規,0,2022-01-20,2022-01-20,合同会社鳴神,,合同会社,神奈川県,横浜市鶴見区,東寺尾３丁目８番１５号,,14,101,2300077,,,,,,,2022-01-20,1,,,,,ナルカミ,0
3983,9030001146426,新規,0,2022-01-20,2022-01-20,株式会社富建,,株式会社,埼玉県,蕨市,塚越１丁目１３番５号－１Ｆ,,11,223,3350002,,,,,,,2022-01-20,1,,,,,フケン,0
3990,9030003018615,新規,0,2022-01-20,2022-01-20,合同会社タナカ９０,,合同会社,埼玉県,朝霞市,本町２丁目１１番２８号,,11,227,3510011,,,,,,,2022-01-20,1,,,,,タナカキュウジュウ,0
3997,9040001121733,新規,0,2022-01-20,2022-01-20,株式会社ＲＵＲＩＨＡ,,株式会社,千葉県,船橋市,宮本８丁目１４番８号,,12,204,2730003,,,,,,,2022-01-20,1,,,,,ルリハ,0
3998,9040001121832,新規,0,2022-01-20,2022-01-20,スマイルインベストメンツ株式会社,,株式会社,千葉県,松戸市,八ケ崎６丁目４１番地の１８,,12,207,2700023,,,,,,,2022-01-20,1,,,,,スマイルインベストメンツ,0
3999,9040001121865,新規,0,2022-01-20,2022-01-20,てにをは株式会社,,株式会社,千葉県,習志野市,津田沼３丁目１１－１３菊田ハイツ５１０,,12,216,2750016,,,,,,,2022-01-20,1,,,,,テニヲハ,0
4004,9040003019331,新規,0,2022-01-20,2022-01-20,イーストワン合同会社,,合同会社,千葉県,船橋市,馬込町９４８－９２,,12,204,2730851,,,,,,,2022-01-20,1,,,,,イーストワン,0
4014,9060001034495,新規,0,2022-01-20,2022-01-20,麗和食技研株式会社,,株式会社,栃木県,真岡市,小林６３２番地２,,09,209,3214321,,,,,,,2022-01-20,1,,,,,レイワショクギケン,0
4015,9060003003928,新規,0,2022-01-20,2022-01-20,合同会社魁キャピタル,,合同会社,栃木県,宇都宮市,西川田本町２丁目６番１８号ＣｏｌｌａｂｏＭａｌｌ内,,09,201,3210158,,,,,,,2022-01-20,1,,,,,サキガケキャピタル,0
4019,9070001038867,新規,0,2022-01-20,2022-01-20,ｗｉｎ２ｗｏｒｋ株式会社,,株式会社,群馬県,みどり市,大間々町大間々２００８番地７マーリエヴィラＣ２０２,,10,212,3760101,,,,,,,2022-01-20,1,,,,,ウインツーワーク,0
4026,9090005007461,新規,0,2022-01-20,2022-01-20,一般社団法人コミュニティーパーク,,その他の設立登記法人,山梨県,山梨市,大野７７番地,,19,205,4050016,,,,,,,2022-01-20,1,,,,,コミュニティーパーク,0
4070,9120003020999,新規,0,2022-01-20,2022-01-20,合同会社ｈｉｔｏｒｉｃｃｏ,,合同会社,大阪府,大阪市北区,梅田１丁目１－３大阪駅前第３ビル２９階１－１－１号室,,27,127,5300001,,,,,,,2022-01-20,1,,,,,ヒトリッコ,0
4090,9120101064972,新規,0,2022-01-20,2022-01-20,株式会社ＯＨＡＮＡ,,株式会社,大阪府,泉南郡岬町,深日９９４番地の１８３,,27,366,5990303,,,,,,,2022-01-20,1,,,,,オハナ,0
4103,9120901045494,新規,0,2022-01-20,2022-01-20,株式会社ｓｔａｇｅ　ｐｌｕｓ,,株式会社,大阪府,箕面市,箕面２丁目１１番５３－５０１号,,27,220,5620001,,,,,,,2022-01-20,1,,,,,ステージプラス,0
4127,9130001070954,新規,0,2022-01-20,2022-01-20,株式会社大前,,株式会社,京都府,京都市伏見区,下鳥羽城ノ越町１６３番地プリマベーラ綾１０１,,26,109,6128466,,,,,,,2022-01-20,1,,,,,オオマエ,0
4128,9130001070970,新規,0,2022-01-20,2022-01-20,株式会社マトノクリエイト,,株式会社,京都府,京都市左京区,岩倉忠在地町４３番地１９,,26,103,6060021,,,,,,,2022-01-20,1,,,,,マトノクリエイト,0
4129,9130001070979,新規,0,2022-01-20,2022-01-20,ミクロ株式会社,,株式会社,京都府,京都市右京区,西院太田町６８番地４,,26,108,6150036,,,,,,,2022-01-20,1,,,,,ミクロ,0
4145,9130005016367,新規,0,2022-01-20,2022-01-20,一般社団法人Ｔｅａｍ　Ｄ．Ｉ．,,その他の設立登記法人,京都府,京都市左京区,聖護院円頓美町２２番５号,,26,103,6068323,,,,,,,2022-01-20,1,,,,,チームディーアイ,0
4156,9140003017250,新規,0,2022-01-20,2022-01-20,ＧｉＦＴ合同会社,,合同会社,兵庫県,神戸市北区,京地４丁目１５番地の８,,28,109,6511304,,,,,,,2022-01-20,1,,,,,ギフト,0
4157,9140003017259,新規,0,2022-01-20,2022-01-20,合同会社中川工房,,合同会社,兵庫県,神戸市西区,美賀多台１丁目９番地の１－１４０５,,28,111,6512277,,,,,,,2022-01-20,1,,,,,ナカガワコウボウ,0
4179,9180001149595,新規,0,2022-01-20,2022-01-20,株式会社Ｈ－ＰＬＵＳ,,株式会社,愛知県,名古屋市港区,本宮町１丁目２０番地大西パークマンション１Ｂ,,23,111,4550064,,,,,,,2022-01-20,1,,,,,エイチプラス,0
4180,9180001149620,新規,0,2022-01-20,2022-01-20,株式会社まちコム,,株式会社,愛知県,海部郡飛島村,大字梅之郷字中梅５３番３,,23,427,4901435,,,,,,,2022-01-20,1,,,,,マチコム,0
4181,9180001149637,新規,0,2022-01-20,2022-01-20,森商会株式会社,,株式会社,愛知県,名古屋市中区,栄３丁目７番４号トーシンサクラビル１０階,,23,106,4600008,,,,,,,2022-01-20,1,,,,,モリショウカイ,0
4182,9180001149645,新規,0,2022-01-20,2022-01-20,Ｕ’ｚ　ＥＸＴＥＲＩＯＲ株式会社,,株式会社,愛知県,小牧市,大字間々４１０番地１,,23,219,4850015,,,,,,,2022-01-20,1,,,,,ユーズエクステリア,0
4189,9180003023385,新規,0,2022-01-20,2022-01-20,クライムアップ合同会社,,合同会社,愛知県,名古屋市名東区,つつじが丘７０１番地,,23,115,4650017,,,,,,,2022-01-20,1,,,,,クライムアップ,0
4190,9180003023410,新規,0,2022-01-20,2022-01-20,ＣＳ合同会社,,合同会社,愛知県,丹羽郡大口町,河北２丁目１１７番地,,23,361,4800121,,,,,,,2022-01-20,1,,,,,シーエス,0
4207,9210001018788,新規,0,2022-01-20,2022-01-20,株式会社Ａ．Ａ．Ｓ,,株式会社,福井県,福井市,高木中央３丁目１４１４番地,,18,201,9100804,,,,,,,2022-01-20,1,,,,,エーエーエス,0
4235,9290001096158,新規,0,2022-01-20,2022-01-20,株式会社植村商事,,株式会社,福岡県,福岡市早良区,田村２丁目５－４２－１０５号,,40,137,8140175,,,,,,,2022-01-20,1,,,,,ウエムラショウジ,0
4287,9360005006584,新規,0,2022-01-20,2022-01-20,一般社団法人港川福祉会,,その他の設立登記法人,沖縄県,浦添市,伊祖２丁目１６番１０号,,47,208,9012132,,,,,,,2022-01-20,1,,,,,ミナトガワフクシカイ,0
4294,9370001048092,新規,0,2022-01-20,2022-01-20,株式会社馬籠フォレスト,,株式会社,宮城県,気仙沼市,本吉町小金山１番地１,,04,205,9880364,,,,,,,2022-01-20,1,,,,,マゴメフォレスト,0
4306,9420001017711,新規,0,2022-01-20,2022-01-20,株式会社樋口ファーム,,株式会社,青森県,つがる市,木造吹原若草１０５番地,,02,209,0382808,,,,,,,2022-01-20,1,,,,,ヒグチファーム,0
4332,9430001085823,新規,0,2022-01-20,2022-01-20,株式会社えが八ファーム,,株式会社,北海道,樺戸郡新十津川町,字花月１２６６番地２,,01,432,0731105,,,,,,,2022-01-20,1,,,,,エガハチファーム,0
4347,9430003013550,新規,0,2022-01-20,2022-01-20,サイクル北斗合同会社,,合同会社,北海道,札幌市北区,新琴似三条９丁目４番１８号,,01,102,0010903,,,,,,,2022-01-20,1,,,,,サイクルホクト,0
