sequenceNumber,corporateNumber,process,correct,updateDate,changeDate,name,nameImageId,kind,prefectureName,cityName,streetNumber,addressImageId,prefectureCode,cityCode,postCode,addressOutside,addressOutsideImageId,closeDate,closeCause,successorCorporateNumber,changeCause,assignmentDate,latest,enName,enPrefectureName,enCityName,enAddressOutside,furigana,hihyoji
5,1010001233811,新規,0,2023-03-30,2023-03-30,株式会社ツギイロ,,株式会社,東京都,中央区,日本橋中洲１２番１０号グランカーサ日本橋浜町５０２号,,13,102,1030008,,,,,,,2023-03-30,1,,,,,ツギイロ,0
6,1010001234025,新規,0,2023-03-30,2023-03-30,株式会社ＭＡＭＯＲＵ　ＪＡＰＡＮ,,株式会社,東京都,中央区,銀座１丁目１２－４Ｎ＆Ｅ．ＢＬＤ．７階,,13,102,1040061,,,,,,,2023-03-30,1,,,,,マモルジャパン,0
11,1010401173368,新規,0,2023-03-30,2023-03-30,株式会社鈴木父子商会,,株式会社,東京都,港区,赤坂８丁目１０番３０号,,13,103,1070052,,,,,,,2023-03-30,1,,,,,スズキフシショウカイ,0
27,1011101102344,新規,0,2023-03-30,2023-03-30,株式会社ＩＫコーポレーション,,株式会社,東京都,新宿区,西落合２丁目３番６号,,13,104,1610031,,,,,,,2023-03-30,1,,,,,アイケーコーポレーション,0
34,1011401025006,新規,0,2023-03-30,2023-03-30,理研薬化工業株式会社,,株式会社,東京都,板橋区,宮本町１９番１１号,,13,119,1740054,,,,,,,2023-03-30,1,,,,,リケンヤクカコウギョウ,0
39,1012401040325,新規,0,2023-03-30,2023-03-30,カネヤマ鑑定株式会社,,株式会社,東京都,小金井市,梶野町１丁目２番３６号,,13,210,1840002,,,,,,,2023-03-30,1,,,,,カネヤマカンテイ,0
40,1012703002659,新規,0,2023-03-30,2023-03-30,合同会社エコー定巡管理,,合同会社,東京都,西東京市,南町４丁目５番９号１階,,13,229,1880012,,,,,,,2023-03-30,1,,,,,エコーテイジュンカンリ,0
48,1020001150873,新規,0,2023-03-30,2023-03-30,株式会社ＪＹスペース,,株式会社,神奈川県,横浜市保土ケ谷区,上菅田町１０６番地の３０,,14,106,2400051,,,,,,,2023-03-30,1,,,,,ジェイワイスペース,0
51,1020003023615,新規,0,2023-03-30,2023-03-30,合同会社はあとぴあ,,合同会社,神奈川県,川崎市川崎区,川中島１丁目１６番３号,,14,131,2100803,,,,,,,2023-03-30,1,,,,,ハアトピア,0
53,1021005012770,新規,0,2023-03-30,2023-03-30,一般社団法人スプラウト・プラス,,その他の設立登記法人,神奈川県,小田原市,酒匂２丁目３５番２５号,,14,206,2560816,,,,,,,2023-03-30,1,,,,,スプラウトプラス,0
59,1030001153066,新規,0,2023-03-30,2023-03-30,Ａｃｈｔ　Ｌｉｎｋ株式会社,,株式会社,埼玉県,川口市,北原台２丁目１０番２１－３号,,11,203,3330815,,,,,,,2023-03-30,1,,,,,アハトリンク,0
60,1030001153074,新規,0,2023-03-30,2023-03-30,ＮＴＨ株式会社,,株式会社,埼玉県,さいたま市大宮区,三橋１丁目１３１１番地,,11,103,3300856,,,,,,,2023-03-30,1,,,,,エヌティエッチ,0
61,1030001153082,新規,0,2023-03-30,2023-03-30,株式会社ＴＡＫＵＭＩ,,株式会社,埼玉県,さいたま市西区,大字西遊馬１８３－５,,11,101,3310061,,,,,,,2023-03-30,1,,,,,タクミ,0
65,1030003021460,新規,0,2023-03-30,2023-03-30,合同会社リトルウイング,,合同会社,埼玉県,川口市,西川口２丁目１４番２６－３０９号アレッサ仁志,,11,203,3320021,,,,,,,2023-03-30,1,,,,,リトルウイング,0
66,1030003021469,新規,0,2023-03-30,2023-03-30,クウハク合同会社,,合同会社,埼玉県,さいたま市桜区,西堀６丁目１番６－３０７号,,11,106,3380832,,,,,,,2023-03-30,1,,,,,クウハク,0
72,1040001127696,新規,0,2023-03-30,2023-03-30,株式会社ミノル機工,,株式会社,千葉県,千葉市稲毛区,長沼原町３０８番地１,,12,103,2630001,,,,,,,2023-03-30,1,,,,,ミノルキコウ,0
77,1040003022219,新規,0,2023-03-30,2023-03-30,クロスメデイア合同会社,,合同会社,千葉県,我孫子市,布佐３２７５番地１１号２０５号室,,12,222,2701101,,,,,,,2023-03-30,1,,,,,クロスメデイア,0
78,1050003007350,新規,0,2023-03-30,2023-03-30,合同会社ＦＡＺＡＬ　ＭＡＪＥＥＤ　ＴＲＡＤＩＮＧ,,合同会社,茨城県,古河市,静町７番３号古河市貸家１０２号室,,08,204,3060001,,,,,,,2023-03-30,1,,,,,ファザルマジードトレーディング,0
86,1080101023874,新規,0,2023-03-30,2023-03-30,株式会社遠藤工業,,株式会社,静岡県,富士市,大淵６１７番地の４０,,22,210,4170801,,,,,,,2023-03-30,1,,,,,エンドウコウギョウ,0
103,1120003023704,新規,0,2023-03-30,2023-03-30,合同会社セルプラコーポレーション,,合同会社,大阪府,大阪市天王寺区,東高津町３番３４号,,27,109,5430021,,,,,,,2023-03-30,1,,,,,セルプラコーポレーション,0
107,1120101067207,新規,0,2023-03-30,2023-03-30,株式会社ＴＧダイニング,,株式会社,大阪府,岸和田市,作才町１１３番地,,27,202,5960826,,,,,,,2023-03-30,1,,,,,ティージーダイニング,0
108,1120101067215,新規,0,2023-03-30,2023-03-30,株式会社冨士山元サービス,,株式会社,大阪府,堺市堺区,神南辺町２丁９０番地,,27,141,5900984,,,,,,,2023-03-30,1,,,,,フジヤマモトサービス,0
109,1120101067223,新規,0,2023-03-30,2023-03-30,わかば建設株式会社,,株式会社,大阪府,阪南市,舞３丁目３－１０,,27,232,5990224,,,,,,,2023-03-30,1,,,,,ワカバケンセツ,0
118,1130001073964,新規,0,2023-03-30,2023-03-30,株式会社Ｌｉｅｎ,,株式会社,京都府,宇治市,明星町３丁目６番地の６０,,26,204,6110014,,,,,,,2023-03-30,1,,,,,リアン,0
120,1130003008621,新規,0,2023-03-30,2023-03-30,カグデン合同会社,,合同会社,京都府,乙訓郡大山崎町,字円明寺小字殿山３３番地７,,26,303,6180091,,,,,,,2023-03-30,1,,,,,カグデン,0
122,1130005016721,新規,0,2023-03-30,2023-03-30,一般社団法人リアントレッド,,その他の設立登記法人,京都府,長岡京市,今里川原３９番地１７,,26,209,6170814,,,,,,,2023-03-30,1,,,,,リアントレッド,0
123,1140001129583,新規,0,2023-03-30,2023-03-30,株式会社イマゴト,,株式会社,兵庫県,神戸市中央区,北野町１丁目１番,,28,110,6500002,,,,,,,2023-03-30,1,,,,,イマゴト,0
127,1150001026268,新規,0,2023-03-30,2023-03-30,Ｔｅｎｇ　Ｄｉｎｇ　Ｃｅｒａｍｉｃｓ藤町窯株式会社,,株式会社,奈良県,天理市,中之庄町４７,,29,204,6320001,,,,,,,2023-03-30,1,,,,,テンティンセラミックステンティンヨウ,0
131,1160001024923,新規,0,2023-03-30,2023-03-30,株式会社ＹＵＫＡＲＩコーポレーション,,株式会社,滋賀県,彦根市,稲部町８４番地,,25,202,5211113,,,,,,,2023-03-30,1,,,,,ユカリコーポレーション,0
132,1160001024931,新規,0,2023-03-30,2023-03-30,株式会社みのや,,株式会社,滋賀県,彦根市,高宮町２３０７番地,,25,202,5220201,,,,,,,2023-03-30,1,,,,,ミノヤ,0
140,1180001155493,新規,0,2023-03-30,2023-03-30,株式会社敬愛,,株式会社,愛知県,知多郡東浦町,大字緒川字沙弥田２２番地の１０２,,23,442,4702102,,,,,,,2023-03-30,1,,,,,ケイアイ,0
141,1180001155551,新規,0,2023-03-30,2023-03-30,株式会社横山工業,,株式会社,愛知県,東海市,富木島町石ケ根１０５番地の２,,23,222,4760011,,,,,,,2023-03-30,1,,,,,ヨコヤマコウギョウ,0
145,1180303005660,新規,0,2023-03-30,2023-03-30,ＳＴＡＲ　ＱＵＡＬＩＴＹＳ合同会社,,合同会社,愛知県,豊橋市,飯村町字西山２５番地の７,,23,201,4400833,,,,,,,2023-03-30,1,,,,,スタークオリティーズ,0
146,1190001030274,新規,0,2023-03-30,2023-03-30,浬颯商事株式会社,,株式会社,三重県,松阪市,駅部田町４２５番地２,,24,204,5150045,,,,,,,2023-03-30,1,,,,,リソウショウジ,0
151,1190003004276,新規,0,2023-03-30,2023-03-30,ＬＡＮＧＨＡＬＩ　ＧＲＯＵＰ合同会社,,合同会社,三重県,津市,栄町２丁目４１９番地,,24,201,5140004,,,,,,,2023-03-30,1,,,,,ランガリグループ,0
156,1200001041121,新規,0,2023-03-30,2023-03-30,株式会社ＫＳＴ,,株式会社,岐阜県,大垣市,長松町８６３番地ナイスコート２５、２０７,,21,202,5030997,,,,,,,2023-03-30,1,,,,,ケーエスティー,0
158,1220003003480,新規,0,2023-03-30,2023-03-30,合同会社里の帆,,合同会社,石川県,金沢市,笠舞３丁目５番２号,,17,201,9200965,,,,,,,2023-03-30,1,,,,,,0
166,1240003006077,新規,0,2023-03-30,2023-03-30,合同会社Ｔａｋｅ‐Ｇ　Ｍａｎａｇｅｍｅｎｔ,,合同会社,広島県,広島市中区,大手町１丁目１番２０号相生橋ビル７階,,34,101,7300051,,,,,,,2023-03-30,1,,,,,テイクジーマネジメント,0
172,1260003004252,新規,0,2023-03-30,2023-03-30,合同会社三ツ矢蕃茄ＬＡＢＯ,,合同会社,岡山県,高梁市,備中町西山２１７８,,33,209,7160323,,,,,,,2023-03-30,1,,,,,ミツヤトマトラボ,0
174,1290003013721,新規,0,2023-03-30,2023-03-30,合同会社最高境界,,合同会社,福岡県,福岡市早良区,室見３丁目８－６モア室見３階３０１号室,,40,137,8140015,,,,,,,2023-03-30,1,,,,,サイコウキョウカイ,0
182,1330001030706,新規,0,2023-03-30,2023-03-30,オオナミ商事株式会社,,株式会社,熊本県,熊本市中央区,八王寺町２６‐８シークシャルム２０１号,,43,101,8600831,,,,,,,2023-03-30,1,,,,,オオナミショウジ,0
190,1370001049767,新規,0,2023-03-30,2023-03-30,ＧＡＲＤＥＮ　ＮＩＧＡＣＨＩ株式会社,,株式会社,宮城県,仙台市青葉区,上愛子字遠野原３４番地の１,,04,101,9893124,,,,,,,2023-03-30,1,,,,,ガーデンニガチ,0
199,1430001088734,新規,0,2023-03-30,2023-03-30,株式会社イーライク,,株式会社,北海道,札幌市東区,北二十七条東２１丁目４番１３－３０１号,,01,103,0650027,,,,,,,2023-03-30,1,,,,,イーライク,0
200,1430001088742,新規,0,2023-03-30,2023-03-30,株式会社若葉ホームズ,,株式会社,北海道,江別市,野幌若葉町６１番地の３－２階,,01,217,0690831,,,,,,,2023-03-30,1,,,,,ワカバホームズ,0
202,1430005014678,新規,0,2023-03-30,2023-03-30,一般社団法人ヴェルサイユリゾートファーム,,その他の設立登記法人,北海道,沙流郡日高町,字庫富７３４番地,,01,601,0592124,,,,,,,2023-03-30,1,,,,,ヴェルサイユリゾートファーム,0
203,1440001009235,新規,0,2023-03-30,2023-03-30,株式会社カワムラ,,株式会社,北海道,函館市,美原４丁目３０番３７号,,01,202,0410806,,,,,,,2023-03-30,1,,,,,カワムラ,0
205,1460005001566,新規,0,2023-03-30,2023-03-30,一般社団法人エシカルプラス,,その他の設立登記法人,北海道,釧路市,富士見１丁目１番２４号１Ｆ,,01,206,0850832,,,,,,,2023-03-30,1,,,,,エシカルプラス,0
208,1460305001992,新規,0,2023-03-30,2023-03-30,ＮＰＯ法人クンネプ・コタン,,その他の設立登記法人,北海道,常呂郡訓子府町,字北栄１番地,,01,549,0991422,,,,,,,2023-03-30,1,,,,,クンネプコタン,0
211,1700150114841,新規,0,2023-03-30,2023-03-30,ケーオークラブ異業種交流委員会,,その他,愛媛県,今治市,富田新港１丁目３番地日本食研ホールディングス（株）内,,38,202,7991503,,,,,,,2023-03-30,1,,,,,ケーオークラブイギョウシュコウリュウイインカイ,0
212,1700150115088,新規,0,2023-03-30,2023-03-30,Ｓｈｅｎｚｈｅｎｓｈｉ　Ｗｕｙｉｓｈｉ　Ｔｅｃｈｎｏｌｏｇｙ　Ｃｏ．，Ｌｔｄ,,外国会社等,,,,,,,,Ｓｈｅｎｚｈｅｎｓｈｉ　Ｌｏｎｇｇａｎｇｑｕ　Ｂａｎｔｉａｎｊｉｅｄａｏ　Ｍａａｎｔａｎｇｓｈｅｑｕ　Ｙｏｎｇｘｉａｎｇｄｏｎｇｌｕ１７ｈａｏ　Ｂ　ｄｏｎｇ５０１－５０５,,,,,,2023-03-30,1,,,,,シエンジエンシウーイーシテクノロジーカンパニーリミテツド,0
217,2010001234032,新規,0,2023-03-30,2023-03-30,株式会社ナチュラローラ,,株式会社,東京都,中央区,銀座３丁目１１番５号第２中山ビル５Ｆ,,13,102,1040061,,,,,,,2023-03-30,1,,,,,ナチュラローラ,0
218,2010001234049,新規,0,2023-03-30,2023-03-30,株式会社モーブ,,株式会社,東京都,中央区,銀座６丁目１３番１６号,,13,102,1040061,,,,,,,2023-03-30,1,,,,,モーブ,0
219,2010001234073,新規,0,2023-03-30,2023-03-30,株式会社ＫＡＺ,,株式会社,東京都,千代田区,神田松永町１１－５Ｆ,,13,101,1010023,,,,,,,2023-03-30,1,,,,,カズ,0
222,2010003040172,新規,0,2023-03-30,2023-03-30,合同会社メタシナジー,,合同会社,東京都,千代田区,神田駿河台２丁目１－１９－２０４,,13,101,1010062,,,,,,,2023-03-30,1,,,,,メタシナジー,0
236,2010601062832,新規,0,2023-03-30,2023-03-30,銘城株式会社,,株式会社,東京都,江東区,東砂５丁目５番６－３０１号,,13,108,1360074,,,,,,,2023-03-30,1,,,,,メイジョウ,0
239,2010603010070,新規,0,2023-03-30,2023-03-30,合同会社催眠心理セラピー協会,,合同会社,東京都,墨田区,緑２丁目１１番８－４０１号,,13,107,1300021,,,,,,,2023-03-30,1,,,,,サイミンシンリセラピーキョウカイ,0
242,2010701044045,新規,0,2023-03-30,2023-03-30,株式会社ティーガ,,株式会社,東京都,品川区,上大崎２丁目３番２１号エヴァート長者丸１０３,,13,109,1410021,,,,,,,2023-03-30,1,,,,,ティーガ,0
251,2011001153429,新規,0,2023-03-30,2023-03-30,ファーストデータテクノロジーズ株式会社,,株式会社,東京都,渋谷区,円山町５番５号Ｎａｖｉ渋谷Ｖ３Ｆ,,13,113,1500044,,,,,,,2023-03-30,1,,,,,ファーストデータテクノロジーズ,0
252,2011001153437,新規,0,2023-03-30,2023-03-30,株式会社ＣＲＡＹＯＮＺ,,株式会社,東京都,渋谷区,猿楽町２番１３号,,13,113,1500033,,,,,,,2023-03-30,1,,,,,クレヨンズ,0
255,2011101102335,新規,0,2023-03-30,2023-03-30,株式会社ＯＴＨ,,株式会社,東京都,新宿区,西新宿３丁目３番１３号,,13,104,1600023,,,,,,,2023-03-30,1,,,,,オス,0
256,2011201024529,新規,0,2023-03-30,2023-03-30,パフォーマンスデータジャパン株式会社,,株式会社,東京都,中野区,東中野３丁目１９番１３号ビューステージ鈴木２階,,13,114,1640003,,,,,,,2023-03-30,1,,,,,パフォーマンスデータジャパン,0
270,2011601026686,新規,0,2023-03-30,2023-03-30,久実文化株式会社,,株式会社,東京都,練馬区,関町北５丁目６番７号関町マンション４０２Ｅ,,13,120,1770051,,,,,,,2023-03-30,1,,,,,クミブンカ,0
271,2011705001775,新規,0,2023-03-30,2023-03-30,一般社団法人ライフ,,その他の設立登記法人,東京都,江戸川区,東葛西６丁目４番１７号ＥＬＬＥ・ＰＬＡＮ５Ｆ,,13,123,1340084,,,,,,,2023-03-30,1,,,,,ライフ,0
273,2011801042129,新規,0,2023-03-30,2023-03-30,株式会社氷商ＳＯＳ,,株式会社,東京都,足立区,保木間１丁目７番８－１０１号,,13,121,1210064,,,,,,,2023-03-30,1,,,,,ヒョウショウエスオーエス,0
276,2012403005903,新規,0,2023-03-30,2023-03-30,合同会社フリーデン,,合同会社,東京都,三鷹市,新川５丁目１３番１７号,,13,204,1810004,,,,,,,2023-03-30,1,,,,,フリーデン,0
281,2013301050537,新規,0,2023-03-30,2023-03-30,禾正株式会社,,株式会社,東京都,豊島区,雑司が谷１丁目３番９－２０３号,,13,116,1710032,,,,,,,2023-03-30,1,,,,,カセイ,0
282,2013303006561,新規,0,2023-03-30,2023-03-30,合同会社ＢＲＩＥＮＤ,,合同会社,東京都,豊島区,東池袋１丁目１７番１１号パークハイツ池袋１１０５号,,13,116,1700013,,,,,,,2023-03-30,1,,,,,ブレンド,0
287,2020001150880,新規,0,2023-03-30,2023-03-30,株式会社アイランドテーブル,,株式会社,神奈川県,川崎市中原区,木月４丁目４６番１８号,,14,133,2110025,,,,,,,2023-03-30,1,,,,,アイランドテーブル,0
291,2021001078559,新規,0,2023-03-30,2023-03-30,冰偕陽光株式会社,,株式会社,神奈川県,小田原市,根府川３９８番地の３、３０１室,,14,206,2500024,,,,,,,2023-03-30,1,,,,,ヒョウカイヨウコウ,0
292,2021001078567,新規,0,2023-03-30,2023-03-30,Ｅｓｓｅｎｔｉａｌｓ株式会社,,株式会社,神奈川県,藤沢市,下土棚１０１８番地Ｋ湘南２０２,00129907,14,205,2520807,,,,,,,2023-03-30,1,,,,,エッセンシャルズ,0
302,2030001153081,新規,0,2023-03-30,2023-03-30,ＡＭＩＲ　ＡＬＡＭ　ＳＯＮＳ株式会社,,株式会社,埼玉県,さいたま市岩槻区,大字黒谷２０４番,,11,110,3390033,,,,,,,2023-03-30,1,,,,,アミールアラムサンズ,0
309,2040001127712,新規,0,2023-03-30,2023-03-30,株式会社ＫＯＤ,,株式会社,千葉県,柏市,十余二２４９番地４６８,,12,217,2770872,,,,,,,2023-03-30,1,,,,,ケーオーディー,0
310,2040001127720,新規,0,2023-03-30,2023-03-30,株式会社ウェラックス,,株式会社,千葉県,千葉市花見川区,柏井町１２９０番地１１,,12,102,2620041,,,,,,,2023-03-30,1,,,,,ウェラックス,0
317,2040003022300,新規,0,2023-03-30,2023-03-30,合同会社ファイブウェイグッド,,合同会社,千葉県,柏市,富里３丁目３番６４号,,12,217,2770081,,,,,,,2023-03-30,1,,,,,ファイブウェイグッド,0
319,2050001052570,新規,0,2023-03-30,2023-03-30,株式会社ワイズヤード,,株式会社,茨城県,ひたちなか市,東大島２丁目１１番２４号,,08,221,3120042,,,,,,,2023-03-30,1,,,,,ワイズヤード,0
320,2050001052587,新規,0,2023-03-30,2023-03-30,株式会社Ｔ‐ファクトリー,,株式会社,茨城県,筑西市,西山田２２７番１,,08,227,3080867,,,,,,,2023-03-30,1,,,,,ティーファクトリー,0
322,2060001035839,新規,0,2023-03-30,2023-03-30,株式会社クリーンエナジー・ソリューションズ,,株式会社,栃木県,宇都宮市,松が峰１丁目３番２０号とちぎんビル別館,,09,201,3200807,,,,,,,2023-03-30,1,,,,,クリーンエナジーソリューションズ,0
339,2110005016912,新規,0,2023-03-30,2023-03-30,一般社団法人新潟探求サポーターズ,,その他の設立登記法人,新潟県,新潟市中央区,川端町２丁目１１番地３,,15,103,9518053,,,,,,,2023-03-30,1,,,,,ニイガタタンキュウサポーターズ,0
345,2120001253533,新規,0,2023-03-30,2023-03-30,ＢＯＮＡ　ＣＯＮＳＵＬＴＩＮＧ株式会社,,株式会社,大阪府,大阪市北区,天満２丁目１２番３号ヴィレッジリバー南森町７－Ｅ,,27,127,5300043,,,,,,,2023-03-30,1,,,,,ボナコンサルティング,0
346,2120001253558,新規,0,2023-03-30,2023-03-30,株式会社Ｋ’３,,株式会社,大阪府,大阪市中央区,東平２丁目５番６号プロスピリティー谷九駅前ビル５０１号室,,27,128,5420063,,,,,,,2023-03-30,1,,,,,ケィスリー,0
348,2120101067206,新規,0,2023-03-30,2023-03-30,ＴＨカンパニー株式会社,,株式会社,大阪府,大阪狭山市,茱萸木４丁目３５番地の１０,,27,231,5890013,,,,,,,2023-03-30,1,,,,,ティエイチカンパニー,0
349,2120101067222,新規,0,2023-03-30,2023-03-30,株式会社和泉シート,,株式会社,大阪府,和泉市,伯太町３丁目３番２号,,27,219,5940023,,,,,,,2023-03-30,1,,,,,イズミシート,0
352,2120103005139,新規,0,2023-03-30,2023-03-30,合同会社ＥＨ,,合同会社,大阪府,岸和田市,今木町１３８番地の２０,,27,202,5960804,,,,,,,2023-03-30,1,,,,,イーエイチ,0
353,2120901047316,新規,0,2023-03-30,2023-03-30,株式会社ｆ．ｃ．ｆ,,株式会社,大阪府,箕面市,森町中３丁目２４番１２号,,27,220,5630257,,,,,,,2023-03-30,1,,,,,エフシーエフ,0
360,2130001073947,新規,0,2023-03-30,2023-03-30,株式会社てこ,,株式会社,京都府,京都市中京区,高倉通夷川上る福屋町７１８番地,,26,104,6040882,,,,,,,2023-03-30,1,,,,,テコ,0
361,2130001073955,新規,0,2023-03-30,2023-03-30,株式会社絆デンキ・縁工房,,株式会社,京都府,城陽市,市辺南垣内１１８番地１３,,26,207,6100114,,,,,,,2023-03-30,1,,,,,キズナデンキエンコウボウ,0
362,2130003008612,新規,0,2023-03-30,2023-03-30,ウィンリバー合同会社,,合同会社,京都府,京都市左京区,岩倉三宅町１９１－２,,26,103,6060022,,,,,,,2023-03-30,1,,,,,ウィンリバー,0
363,2130003008620,新規,0,2023-03-30,2023-03-30,合同会社福知山アエラ,,合同会社,京都府,福知山市,三和町高杉３２６番地,,26,201,6201423,,,,,,,2023-03-30,1,,,,,フクチヤマアエラ,0
365,2140001129566,新規,0,2023-03-30,2023-03-30,迅舟海運株式会社,,株式会社,兵庫県,神戸市東灘区,向洋町中１丁目１７アジア・ワン・センター２７Ｆ－２号室,,28,101,6580032,,,,,,,2023-03-30,1,,,,,ジンシュウカイウン,0
369,2160001024930,新規,0,2023-03-30,2023-03-30,株式会社ＷＨＥＬＩＸ,,株式会社,滋賀県,長浜市,十里町２１０番地１１,,25,203,5260016,,,,,,,2023-03-30,1,,,,,ダブルヘリックス,0
376,2180001155501,新規,0,2023-03-30,2023-03-30,株式会社ソヴリンキャピタル,,株式会社,愛知県,名古屋市天白区,井口１丁目６０１番地,,23,116,4680052,,,,,,,2023-03-30,1,,,,,ソヴリンキャピタル,0
377,2180001155550,新規,0,2023-03-30,2023-03-30,株式会社豊幸社,,株式会社,愛知県,名古屋市千種区,富士見台２丁目７番地の２ライオンズセレブ富士見台１－５０１号,,23,101,4640015,,,,,,,2023-03-30,1,,,,,ホウコウシャ,0
378,2180001155567,新規,0,2023-03-30,2023-03-30,株式会社いろは,,株式会社,愛知県,知多市,にしの台４丁目１３番地の６,,23,224,4780055,,,,,,,2023-03-30,1,,,,,イロハ,0
392,2200001041120,新規,0,2023-03-30,2023-03-30,株式会社ＭＬ　ＷＥＳＴ,,株式会社,岐阜県,大垣市,新田町２丁目２番地２,,21,202,5030856,,,,,,,2023-03-30,1,,,,,エムエルウエスト,0
393,2210001019264,新規,0,2023-03-30,2023-03-30,株式会社ＳＡＶＵＲＩ,,株式会社,福井県,大飯郡おおい町,本郷第１０３号４６番地,,18,483,9192111,,,,,,,2023-03-30,1,,,,,サブリ,0
399,2230005009284,新規,0,2023-03-30,2023-03-30,一般社団法人とやまのめ,,その他の設立登記法人,富山県,射水市,西高木７９５番地,,16,211,9390303,,,,,,,2023-03-30,1,,,,,トヤマノメ,0
401,2240001061255,新規,0,2023-03-30,2023-03-30,株式会社ＭＴ,,株式会社,広島県,福山市,幕山台８丁目９番１３号,,34,207,7210913,,,,,,,2023-03-30,1,,,,,エムティ,0
402,2240001061271,新規,0,2023-03-30,2023-03-30,株式会社ラシク,,株式会社,広島県,福山市,御幸町大字下岩成２７３番地１,,34,207,7200002,,,,,,,2023-03-30,1,,,,,ラシク,0
407,2250005008805,新規,0,2023-03-30,2023-03-30,一般財団法人花野,,その他の設立登記法人,山口県,宇部市,昭和町１丁目１番２３号,,35,202,7550011,,,,,,,2023-03-30,1,,,,,ハナノ,0
410,2260003004251,新規,0,2023-03-30,2023-03-30,合同会社Ｋ’ｓ　ＴＥＣＨ,,合同会社,岡山県,岡山市南区,泉田３丁目６‐２０‐１,,33,104,7000944,,,,,,,2023-03-30,1,,,,,ケーズテック,0
412,2280001008905,新規,0,2023-03-30,2023-03-30,ｇｒｏｗ株式会社,,株式会社,島根県,松江市,東出雲町下意東７６５番地９,,32,201,6990102,,,,,,,2023-03-30,1,,,,,グロー,0
414,2290001101007,新規,0,2023-03-30,2023-03-30,株式会社ＮｉｓｓｉＳｈｏｐ,,株式会社,福岡県,福岡市西区,大字宮浦２１２９番地１７,,40,135,8190201,,,,,,,2023-03-30,1,,,,,ニシシヨップ,0
415,2290001101015,新規,0,2023-03-30,2023-03-30,株式会社ひと結,,株式会社,福岡県,福岡市中央区,春吉３丁目１１番１８号,,40,133,8100003,,,,,,,2023-03-30,1,,,,,ヒトムスビ,0
419,2290003013720,新規,0,2023-03-30,2023-03-30,合同会社ＡＮＨ　ＳＯＮ,,合同会社,福岡県,福岡市東区,箱崎６丁目３－８プラザ九大前１－１０２号,,40,131,8120053,,,,,,,2023-03-30,1,,,,,アンソン,0
422,2290801029406,新規,0,2023-03-30,2023-03-30,株式会社サスケファーム,,株式会社,福岡県,北九州市小倉北区,浅野３丁目８番１号ＡＩＭビル６階,,40,106,8020001,,,,,,,2023-03-30,1,,,,,サスケファーム,0
427,2310001018330,新規,0,2023-03-30,2023-03-30,株式会社アイナ,,株式会社,長崎県,長崎市,小江町２７３４番地７５,,42,201,8511133,,,,,,,2023-03-30,1,,,,,アイナ,0
429,2330003009771,新規,0,2023-03-30,2023-03-30,バウムネイチャーファーム工房合同会社,,合同会社,熊本県,阿蘇市,小倉９８４,,43,214,8692312,,,,,,,2023-03-30,1,,,,,バウムネイチャーファームコウボウ,0
437,2360003012830,新規,0,2023-03-30,2023-03-30,合同会社ＰＩＮＥ　ＭＵＳＩＣ　ＦＡＣＴＯＲＹ,,合同会社,沖縄県,那覇市,牧志２丁目１７－２７－４０１,,47,201,9000013,,,,,,,2023-03-30,1,,,,,パインミュージックファクトリー,0
438,2370001049766,新規,0,2023-03-30,2023-03-30,株式会社ＡＣＴ,,株式会社,宮城県,大崎市,古川栄町１７番６号,,04,215,9896157,,,,,,,2023-03-30,1,,,,,アクト,0
440,2370003006055,新規,0,2023-03-30,2023-03-30,合同会社広志,,合同会社,宮城県,宮城郡利府町,春日字黒森１７番地２,,04,406,9810102,,,,,,,2023-03-30,1,,,,,ヒロシ,0
453,2430001088733,新規,0,2023-03-30,2023-03-30,株式会社ＤＯＧＳＴＲＥＥＴ,,株式会社,北海道,石狩郡当別町,太美町２３４３番地１２９,,01,303,0613776,,,,,,,2023-03-30,1,,,,,ドッグストリート,0
454,2430001088741,新規,0,2023-03-30,2023-03-30,株式会社源家,,株式会社,北海道,札幌市白石区,川下四条３丁目４番５号,,01,104,0030864,,,,,,,2023-03-30,1,,,,,ゲンヤ,0
461,2490001010435,新規,0,2023-03-30,2023-03-30,いちむじん株式会社,,株式会社,高知県,高知市,帯屋町２丁目２番４号,,39,201,7800841,,,,,,,2023-03-30,1,,,,,イチムジン,0
463,2700150115070,新規,0,2023-03-30,2023-03-30,ＧＳＮ　Ｇａｍｅｓ，Ｉｎｃ．,,外国会社等,,,,,,,,１６０　Ｇｒｅｅｎｔｒｅｅ　Ｄｒｉｖｅ，Ｓｕｉｔｅ　１０１，Ｄｏｖｅｒ　Ｋｅｎｔ，Ｄｅｌａｗａｒｅ　１９９０４,,,,,,2023-03-30,1,,,,,ジーエスエヌゲームズインク,0
464,2700150115087,新規,0,2023-03-30,2023-03-30,Ｚｈｕ　ｈａｉ　ｚｈｅｎ　ｇｅ　ｍａｏ　ｙｉ　ｙｏｕ　ｘｉａｎ　ｇｏｎｇ　ｓｉ,,外国会社等,,,,,,,,ｘｉａｎｇ　ｚｈｏｕ　ｑｕ　ｑｉａｎ　ｓｈａｎ　ｃｕｉ　ｚｈｕ　ｓｉ　ｊｉｅ　１　ｈａｏ　２　ｄｏｎｇ　２　ｌｏｕ　２１５　ｚｈｕ　ｈａｉ　ｓｈｉ　ｇｕａｎｇ　ｄｏｎｇ　５１９０００　ＣＮ,,,,,,2023-03-30,1,,,,,ジユウハイジエンゴアマオイーヨウシエンゴンス,0
472,3010001234023,新規,0,2023-03-30,2023-03-30,株式会社ＭＲＫコンサルティング,,株式会社,東京都,中央区,日本橋兜町１７番２号兜町第６葉山ビル４Ｆ,,13,102,1030026,,,,,,,2023-03-30,1,,,,,エムアールケーコンサルティング,0
473,3010001234056,新規,0,2023-03-30,2023-03-30,株式会社エナジー・リソーシズ研究所,,株式会社,東京都,中央区,銀座１丁目２２番１１号銀座大竹ビジデンス２Ｆ,,13,102,1040061,,,,,,,2023-03-30,1,,,,,エナジーリソーシズケンキュウショ,0
479,3010401173374,新規,0,2023-03-30,2023-03-30,株式会社Ｐｕｒｅ　ｅｔ　Ｐｒｏ,,株式会社,東京都,港区,芝５丁目１６番１４号,,13,103,1080014,,,,,,,2023-03-30,1,,,,,ピュアイープロ,0
480,3010401173399,新規,0,2023-03-30,2023-03-30,株式会社ＳＣＥＮＴ,,株式会社,東京都,港区,南青山２丁目２－１５ＷｉｎＡｏｙａｍａビルＵＣＦ６階,,13,103,1070062,,,,,,,2023-03-30,1,,,,,セント,0
486,3010405021950,新規,0,2023-03-30,2023-03-30,ティーマスター・ツー特定目的会社,,その他の設立登記法人,東京都,港区,虎ノ門３丁目２２番１０－２０１号,,13,103,1050001,,,,,,,2023-03-30,1,,,,,ティーマスターツー,0
488,3010701044044,新規,0,2023-03-30,2023-03-30,株式会社シャスタ,,株式会社,東京都,品川区,上大崎２丁目２４番１３－１００３号,,13,109,1410021,,,,,,,2023-03-30,1,,,,,シャスタ,0
490,3010801033814,新規,0,2023-03-30,2023-03-30,株式会社ＳＴＥＬＬＡ,,株式会社,東京都,大田区,千鳥３丁目４番１５号ベルメゾン１０１号室,,13,111,1460083,,,,,,,2023-03-30,1,,,,,ステラ,0
497,3011101102350,新規,0,2023-03-30,2023-03-30,株式会社ウィリングスタッフ,,株式会社,東京都,新宿区,高田馬場１丁目２７番１３号,,13,104,1690075,,,,,,,2023-03-30,1,,,,,ウィリングスタッフ,0
508,3011801042144,新規,0,2023-03-30,2023-03-30,東銀商事株式会社,,株式会社,東京都,葛飾区,お花茶屋１丁目２８番１１－２０６号パレ・ドールお花茶屋,,13,122,1240003,,,,,,,2023-03-30,1,,,,,トウギンショウジ,0
509,3011801042152,新規,0,2023-03-30,2023-03-30,株式会社蔵の目,,株式会社,東京都,葛飾区,西水元３丁目３番１９号,,13,122,1250031,,,,,,,2023-03-30,1,,,,,,0
511,3012701017558,新規,0,2023-03-30,2023-03-30,株式会社ＴａｋｕＳｈｉｎ,,株式会社,東京都,清瀬市,竹丘１丁目４番３号グランコート清瀬２０５号,,13,221,2040023,,,,,,,2023-03-30,1,,,,,タクシン,0
512,3012803003043,新規,0,2023-03-30,2023-03-30,Ｏｒａｌ　ｄｅｓｉｇｎ　ｉ‐ｖｏｒｙ合同会社,,合同会社,東京都,国分寺市,内藤１丁目１０番地４６,,13,214,1850033,,,,,,,2023-03-30,1,,,,,オーラルデザインアイボリー,0
521,3020001150863,新規,0,2023-03-30,2023-03-30,株式会社ＵＧ　ｚｏｎｅ,,株式会社,神奈川県,横浜市鶴見区,豊岡町１７番９号ラレーブ鶴見５階,,14,101,2300062,,,,,,,2023-03-30,1,,,,,ユージーゾーン,0
523,3020003023621,新規,0,2023-03-30,2023-03-30,合同会社ＦＬＹＩＮＧ,,合同会社,神奈川県,横浜市鶴見区,佃野町３５－２－３０２,,14,101,2300061,,,,,,,2023-03-30,1,,,,,フライング,0
524,3020005015906,新規,0,2023-03-30,2023-03-30,一般社団法人ＰＯＥＴＳコンサルティング,,その他の設立登記法人,神奈川県,川崎市宮前区,五所塚１丁目４番地４,,14,136,2160021,,,,,,,2023-03-30,1,,,,,ポエッツコンサルティング,0
525,3021001078541,新規,0,2023-03-30,2023-03-30,フィットネス工房株式会社,,株式会社,神奈川県,茅ヶ崎市,中海岸４丁目１２９８６番地５２,,14,207,2530055,,,,,,,2023-03-30,1,,,,,フィットネスコウボウ,0
527,3021003012928,新規,0,2023-03-30,2023-03-30,栄智通信合同会社,,合同会社,神奈川県,茅ヶ崎市,香川４丁目３６番１１号,,14,207,2530082,,,,,,,2023-03-30,1,,,,,エイチツウシン,0
535,3030001153080,新規,0,2023-03-30,2023-03-30,株式会社ＲＵＴＯ,,株式会社,埼玉県,川口市,元郷５丁目２６番１３号,,11,203,3320011,,,,,,,2023-03-30,1,,,,,ルト,0
540,3030003021450,新規,0,2023-03-30,2023-03-30,Ｈ＆Ｋ合同会社,,合同会社,埼玉県,三郷市,中央５丁目４２－８,,11,237,3410038,,,,,,,2023-03-30,1,,,,,エイチアンドケー,0
541,3030003021459,新規,0,2023-03-30,2023-03-30,Ｙｅｌｌｏｗ　Ｌｉｎｅ合同会社,,合同会社,埼玉県,戸田市,美女木１丁目２８－６,,11,224,3350031,,,,,,,2023-03-30,1,,,,,イエローライン,0
542,3030005021184,新規,0,2023-03-30,2023-03-30,協同組合こころ,,その他の設立登記法人,埼玉県,越谷市,新越谷２丁目１９２番地,,11,222,3430857,,,,,,,2023-03-30,1,,,,,ココロ,0
546,3040001127703,新規,0,2023-03-30,2023-03-30,株式会社フィデス,,株式会社,千葉県,習志野市,藤崎５丁目４番５１－１０６号,,12,216,2750017,,,,,,,2023-03-30,1,,,,,フィデス,0
554,3040003022290,新規,0,2023-03-30,2023-03-30,ＡＹＳ合同会社,,合同会社,千葉県,千葉市稲毛区,稲毛３丁目８番１５号ハピネス２０２号,,12,103,2630034,,,,,,,2023-03-30,1,,,,,エーワイエス,0
558,3050001052586,新規,0,2023-03-30,2023-03-30,株式会社Ｋプランニング,,株式会社,茨城県,つくば市,みどりの１丁目１番地４グランドパレスＮＳ１０、５１２号室,,08,220,3050881,,,,,,,2023-03-30,1,,,,,ケイプランニング,0
559,3050003007349,新規,0,2023-03-30,2023-03-30,５ＴＡＮ　ＴＲＡＤＩＮＧ合同会社,,合同会社,茨城県,桜川市,真壁町古城３２１番地２（３）,,08,231,3004407,,,,,,,2023-03-30,1,,,,,ファイブタントレーディング,0
560,3050003007357,新規,0,2023-03-30,2023-03-30,ＡＨ　ＴＲＡＤＩＮＧ合同会社,,合同会社,茨城県,猿島郡境町,２１２１番地３ウエスト・フジナミ３０６号,,08,546,3060433,,,,,,,2023-03-30,1,,,,,エーエイチトレーディング,0
561,3050005013238,新規,0,2023-03-30,2023-03-30,産総研メトロロジーユニオン,,その他の設立登記法人,茨城県,つくば市,梅園１丁目１番地１号,,08,220,3050045,,,,,,,2023-03-30,1,,,,,メトロロジーユニオン,0
572,3080101023880,新規,0,2023-03-30,2023-03-30,株式会社ＳｈａｎＳｈａｎ．,,株式会社,静岡県,駿東郡清水町,長沢２４２番地の７,,22,341,4110905,,,,,,,2023-03-30,1,,,,,シャンシャン,0
576,3100003006948,新規,0,2023-03-30,2023-03-30,合同会社エアーアシスト,,合同会社,長野県,駒ヶ根市,赤穂１６３９８番地７１,,20,210,3994117,,,,,,,2023-03-30,1,,,,,エアーアシスト,0
581,3110005016911,新規,0,2023-03-30,2023-03-30,一般社団法人グランデアラ,,その他の設立登記法人,新潟県,新潟市東区,山の下町２番２号１,,15,102,9500057,,,,,,,2023-03-30,1,,,,,,0
589,3120001253573,新規,0,2023-03-30,2023-03-30,有余通商株式会社,,株式会社,大阪府,大阪市淀川区,西中島４丁目６番３０号チサンマンション第五新大阪５０４号,,27,123,5320011,,,,,,,2023-03-30,1,,,,,ユヨツウショウ,0
600,3120101067171,新規,0,2023-03-30,2023-03-30,イワタニ株式会社,,株式会社,大阪府,河内長野市,栄町２番２６号,,27,216,5860032,,,,,,,2023-03-30,1,,,,,イワタニ,0
601,3120101067205,新規,0,2023-03-30,2023-03-30,株式会社萩山工業,,株式会社,大阪府,羽曳野市,島泉６丁目５番１６号,,27,222,5830881,,,,,,,2023-03-30,1,,,,,ハギヤマコウギョウ,0
602,3120101067213,新規,0,2023-03-30,2023-03-30,株式会社ＯＮＥ　ＤＡＹコーポレーション,,株式会社,大阪府,和泉市,王子町１丁目１番４－４０２号,,27,219,5940004,,,,,,,2023-03-30,1,,,,,ワンデイコーポレーション,0
603,3120101067221,新規,0,2023-03-30,2023-03-30,セブンテン株式会社,,株式会社,大阪府,堺市東区,西野１６０番地１７,,27,143,5998125,,,,,,,2023-03-30,1,,,,,セブンテン,0
605,3120103005138,新規,0,2023-03-30,2023-03-30,合同会社ＴＯＴＡＬ　ＡＤＶＡＮＣＥ,,合同会社,大阪府,富田林市,大字伏見堂２０６番地３,,27,214,5840055,,,,,,,2023-03-30,1,,,,,トータルアドヴァンス,0
608,3130001073946,新規,0,2023-03-30,2023-03-30,株式会社Ｔｒａｎｓｆｅｒ,,株式会社,京都府,京都市伏見区,日野谷寺町３２番地９日野谷寺町貸家,,26,109,6011406,,,,,,,2023-03-30,1,,,,,トランスファー,0
610,3150001026266,新規,0,2023-03-30,2023-03-30,Ｓａｉｌ＆Ｔｈｒｅａｄ株式会社,,株式会社,奈良県,奈良市,西紀寺町３２番地４（１Ｆ）,,29,201,6308307,,,,,,,2023-03-30,1,,,,,セイルアンドスレッド,0
619,3180001155582,新規,0,2023-03-30,2023-03-30,ＲＦＣ株式会社,,株式会社,愛知県,津島市,東柳原町３丁目１７番地２,,23,208,4960045,,,,,,,2023-03-30,1,,,,,アールエフシー,0
623,3180303005667,新規,0,2023-03-30,2023-03-30,合同会社ＩＳＢｒａｎｄ,,合同会社,愛知県,安城市,新田町小山西１０７番地１１レオパレス安城ぱぴ１０１,,23,212,4460061,,,,,,,2023-03-30,1,,,,,アイエスブランド,0
631,3200001041111,新規,0,2023-03-30,2023-03-30,株式会社ＯＭＣ,,株式会社,岐阜県,安八郡安八町,東結８番地１,,21,383,5030112,,,,,,,2023-03-30,1,,,,,オーエムシー,0
634,3220003003487,新規,0,2023-03-30,2023-03-30,合同会社椿,,合同会社,石川県,金沢市,三口町火４４番地ヴィラ８８‐Ｔ１,,17,201,9200018,,,,,,,2023-03-30,1,,,,,ツバキ,0
651,3290801029405,新規,0,2023-03-30,2023-03-30,ＦＲＥＥ　ＣＲＡＦＴ株式会社,,株式会社,福岡県,北九州市小倉南区,南方３丁目１１番１０号,,40,107,8020976,,,,,,,2023-03-30,1,,,,,フリークラフト,0
654,3330003009779,新規,0,2023-03-30,2023-03-30,合同会社ななはち,,合同会社,熊本県,熊本市東区,健軍５丁目６番２号,,43,102,8620911,,,,,,,2023-03-30,1,,,,,ナナハチ,0
656,3360001031757,新規,0,2023-03-30,2023-03-30,株式会社小梅と諭吉舎,,株式会社,沖縄県,那覇市,寄宮１丁目１２番１７号２－Ｂ,,47,201,9020064,,,,,,,2023-03-30,1,,,,,コウメトユキチシャ,0
657,3360005006813,新規,0,2023-03-30,2023-03-30,医療法人伊良波会,,その他の設立登記法人,沖縄県,那覇市,田原１丁目９番２号,,47,201,9010156,,,,,,,2023-03-30,1,,,,,イラハカイ,0
658,3370001049765,新規,0,2023-03-30,2023-03-30,株式会社ＡＣＰ,,株式会社,宮城県,仙台市宮城野区,枡江２番３２－４０５号,,04,102,9830837,,,,,,,2023-03-30,1,,,,,エーシーピー,0
667,3470001019535,新規,0,2023-03-30,2023-03-30,ＫＡＩＯＮ株式会社,,株式会社,香川県,観音寺市,大野原町大野原１２５－１,,37,205,7691611,,,,,,,2023-03-30,1,,,,,カイオン,0
670,3500001024829,新規,0,2023-03-30,2023-03-30,株式会社アドレ,,株式会社,愛媛県,松山市,三番町１丁目１１番地１０Ｉｓｓｅｉビル２階,,38,201,7900003,,,,,,,2023-03-30,1,,,,,アドレ,0
672,3700150110335,新規,0,2023-03-30,2022-06-23,オペラのまど,,その他,東京都,東大和市,立野４丁目５６９－１０プレステージ３０１,,13,220,2070021,,,,,,,2022-06-23,1,,,,,オペラノマド,0
673,3700150115086,新規,0,2023-03-30,2023-03-30,Ｇｏｎｇｗｅｌｌ　Ｓｅｒｖｉｃｅｓ　Ｉｎｃｏｒｐｏｒａｔｅｄ,,外国会社等,,,,,,,,Ｂ２０１－２０９９　Ｌｏｕｇｈｅｅｄ　Ｈｉｇｈｗａｙ，Ｐｏｒｔ　Ｃｏｑｕｉｔｌａｍ，ＢＣ，Ｃａｎａｄａ．Ｐｏｓｔａｌ　ｃｏｄｅ：Ｖ３Ｂ　１Ａ８,,,,,,2023-03-30,1,,,,,ゴンウエルサービシーズインコーポレーテイツド,0
675,4010001234014,新規,0,2023-03-30,2023-03-30,株式会社Ｇｉｖｅｚ,,株式会社,東京都,文京区,小日向１丁目２４－７,,13,105,1120006,,,,,,,2023-03-30,1,,,,,ギブズ,0
676,4010001234071,新規,0,2023-03-30,2023-03-30,株式会社アップ,,株式会社,東京都,千代田区,神田和泉町１番地６－１６,,13,101,1010024,,,,,,,2023-03-30,1,,,,,アップ,0
678,4010003040170,新規,0,2023-03-30,2023-03-30,合同会社Ｋａｎｏｎ　Ｐａｒｔｎｅｒｓ,,合同会社,東京都,千代田区,神田和泉町１番地６－１６ヤマトビル４０５,,13,101,1010024,,,,,,,2023-03-30,1,,,,,カノンパートナーズ,0
684,4010401173357,新規,0,2023-03-30,2023-03-30,株式会社Ｆ＆Ｔ,,株式会社,東京都,港区,南青山１丁目１０番３号南青山Ｄビル６階,,13,103,1070062,,,,,,,2023-03-30,1,,,,,エフアンドティ,0
685,4010401173373,新規,0,2023-03-30,2023-03-30,Ｂｏｉｓｓｅｔ　Ｊａｐａｎ株式会社,,株式会社,東京都,港区,赤坂１丁目１１番４４号赤坂インターシティ５階Ｍａｚａｒｓ・Ｊａｐａｎ株式会社内,,13,103,1070052,,,,,,,2023-03-30,1,,,,,ボワセジャパン,0
689,4010503006927,新規,0,2023-03-30,2023-03-30,タイムリープ合同会社,,合同会社,東京都,台東区,浅草橋２丁目５－９ＴＡ２５９、４０３号,,13,106,1110053,,,,,,,2023-03-30,1,,,,,タイムリープ,0
692,4010603010085,新規,0,2023-03-30,2023-03-30,合同会社ｔｄｐ．ｓｔｕｄｉｏ,,合同会社,東京都,江東区,豊洲５丁目６番４５－１５０４号,,13,108,1350061,,,,,,,2023-03-30,1,,,,,ティーディーピースタジオ,0
696,4010901052787,新規,0,2023-03-30,2023-03-30,株式会社プランナーズラボ,,株式会社,東京都,世田谷区,宇奈根１丁目２０番１６号,,13,112,1570068,,,,,,,2023-03-30,1,,,,,プランナーズラボ,0
703,4011001153352,新規,0,2023-03-30,2023-03-30,株式会社ＯＦＦ　ＷＨＩＴＥ,,株式会社,東京都,渋谷区,神宮前６丁目２３番４号桑野ビル２階,,13,113,1500001,,,,,,,2023-03-30,1,,,,,オフホワイト,0
704,4011001153427,新規,0,2023-03-30,2023-03-30,ゼロイチファクトリー株式会社,,株式会社,東京都,渋谷区,代々木３丁目５７－７代々木ホームガーデン７０３号室,,13,113,1510053,,,,,,,2023-03-30,1,,,,,ゼロイチファクトリー,0
705,4011001153435,新規,0,2023-03-30,2023-03-30,株式会社ＭＥＡＬ　ＦＯＲＷＡＲＤ,,株式会社,東京都,渋谷区,恵比寿４丁目２０番３号恵比寿ガーデンプレイスタワー８階,,13,113,1500013,,,,,,,2023-03-30,1,,,,,ミールフォワード,0
706,4011001153451,新規,0,2023-03-30,2023-03-30,令和メディカルサービス株式会社,,株式会社,東京都,渋谷区,代々木１丁目５４番２号小林ビル３階,,13,113,1510053,,,,,,,2023-03-30,1,,,,,レイワメディカルサービス,0
713,4011101102291,新規,0,2023-03-30,2023-03-30,ＰＩＤＡＮ　ＪＰ株式会社,,株式会社,東京都,新宿区,北新宿１丁目８－２２,,13,104,1690074,,,,,,,2023-03-30,1,,,,,ピダンジェイピー,0
715,4011105010607,新規,0,2023-03-30,2023-03-30,一般社団法人ＢＥＲＹＬＳ,,その他の設立登記法人,東京都,新宿区,西新宿８丁目１４番１号,,13,104,1600023,,,,,,,2023-03-30,1,,,,,ベリルス,0
716,4011201024527,新規,0,2023-03-30,2023-03-30,米谷株式会社,,株式会社,東京都,中野区,沼袋２丁目７－１－１０１号室,,13,114,1650025,,,,,,,2023-03-30,1,,,,,ヨネタニ,0
717,4011301028568,新規,0,2023-03-30,2023-03-30,株式会社古川家,,株式会社,東京都,杉並区,天沼２丁目１７番３号,,13,115,1670032,,,,,,,2023-03-30,1,,,,,フルカワケ,0
718,4011401025003,新規,0,2023-03-30,2023-03-30,株式会社ＫＹＴ,,株式会社,東京都,板橋区,小茂根２丁目３０番１４号,,13,119,1730037,,,,,,,2023-03-30,1,,,,,ケイワイティ,0
722,4011501029102,新規,0,2023-03-30,2023-03-30,大華小悦株式会社,,株式会社,東京都,荒川区,西日暮里６丁目５２番５号西日暮里ＳＥＡビル３０２,,13,118,1160013,,,,,,,2023-03-30,1,,,,,オオハナコエツ,0
726,4011601026684,新規,0,2023-03-30,2023-03-30,株式会社アリ・クレセント,,株式会社,東京都,練馬区,豊玉上２丁目２３番１０－７０３号,,13,120,1760011,,,,,,,2023-03-30,1,,,,,アリクレセント,0
733,4011803005577,新規,0,2023-03-30,2023-03-30,合同会社若葉コーポレーション,,合同会社,東京都,足立区,千住緑町３丁目２３番２１号,,13,121,1200044,,,,,,,2023-03-30,1,,,,,ワカバコーポレーション,0
735,4012401040330,新規,0,2023-03-30,2023-03-30,株式会社クリエイトニューフォース,,株式会社,東京都,三鷹市,下連雀７丁目３番１‐２１３号,,13,204,1810013,,,,,,,2023-03-30,1,,,,,クリエイトニューフォース,0
760,4030001153063,新規,0,2023-03-30,2023-03-30,ジュエリーボックス株式会社,,株式会社,埼玉県,草加市,住吉１丁目１４番３－５０８号,,11,221,3400014,,,,,,,2023-03-30,1,,,,,ジュエリーボックス,0
765,4030005021183,新規,0,2023-03-30,2023-03-30,一般社団法人Ｌａｎｋａ,,その他の設立登記法人,埼玉県,さいたま市浦和区,常盤２丁目９番１８号,,11,107,3300061,,,,,,,2023-03-30,1,,,,,ランカ,0
767,4040001127470,新規,0,2023-03-30,2023-03-30,株式会社ＦＡＮＣＹ,,株式会社,千葉県,柏市,今谷南町５番３６号ロックガーデン森Ｄ－１０４号,,12,217,2770073,,,,,,,2023-03-30,1,,,,,ファンシー,0
768,4040001127719,新規,0,2023-03-30,2023-03-30,耐火検証株式会社,,株式会社,千葉県,鎌ケ谷市,東中沢１丁目８番１５号,,12,224,2730112,,,,,,,2023-03-30,1,,,,,タイカケンショウ,0
771,4040003022158,新規,0,2023-03-30,2023-03-30,オリオン合同会社,,合同会社,千葉県,夷隅郡御宿町,御宿台２０１番地３,,12,443,2995112,,,,,,,2023-03-30,1,,,,,オリオン,0
772,4040003022307,新規,0,2023-03-30,2023-03-30,合同会社Ａｌｅｅｎ,,合同会社,千葉県,印西市,草深２３１１番地１６,,12,231,2701337,,,,,,,2023-03-30,1,,,,,アーレン,0
776,4050003007348,新規,0,2023-03-30,2023-03-30,ＳＡＫＵＲＡ　ＢＯＵＥＫＩ合同会社,,合同会社,茨城県,猿島郡境町,大字上小橋２０７番地,,08,546,3060434,,,,,,,2023-03-30,1,,,,,サクラボウエキ,0
777,4050003007356,新規,0,2023-03-30,2023-03-30,ＮＡＳＩＲ　ＴＲＡＤＩＮＧ合同会社,,合同会社,茨城県,古河市,東牛谷２１６番地１,,08,204,3060232,,,,,,,2023-03-30,1,,,,,ナシールトレーディング,0
778,4050005013237,新規,0,2023-03-30,2023-03-30,特定非営利活動法人スポーツクラブスマイル東海,,その他の設立登記法人,茨城県,那珂郡東海村,大字船場７４９番地３,,08,341,3191115,,,,,,,2023-03-30,1,,,,,スポーツクラブスマイルトウカイ,0
779,4060001035837,新規,0,2023-03-30,2023-03-30,Ｓ‐ＭＯＮＤ株式会社,,株式会社,栃木県,さくら市,馬場１２６２番地１０７,,09,214,3291321,,,,,,,2023-03-30,1,,,,,エスモンド,0
785,4080005007525,新規,0,2023-03-30,2023-03-30,医療法人社団健歯会,,その他の設立登記法人,静岡県,静岡市清水区,鶴舞町２番２７号,,22,103,4240047,,,,,,,2023-03-30,1,,,,,ケンシカイ,0
801,4120001253548,新規,0,2023-03-30,2023-03-30,株式会社ダイシン,,株式会社,大阪府,大阪市西淀川区,大野１丁目６番２３号,,27,113,5550043,,,,,,,2023-03-30,1,,,,,ダイシン,0
802,4120001253597,新規,0,2023-03-30,2023-03-30,株式会社ＨＴＯ,,株式会社,大阪府,大阪市天王寺区,寺田町２丁目７－２０,,27,109,5430045,,,,,,,2023-03-30,1,,,,,エイチティオー,0
810,4120101067220,新規,0,2023-03-30,2023-03-30,ＨＯＴ株式会社,,株式会社,大阪府,泉佐野市,上瓦屋９１９番地の２２,,27,213,5980001,,,,,,,2023-03-30,1,,,,,ホット,0
813,4122001036833,新規,0,2023-03-30,2023-03-30,株式会社ＴＡ・ファクトリー,,株式会社,大阪府,東大阪市,瓜生堂１丁目１４番１３－７１５号,,27,227,5780946,,,,,,,2023-03-30,1,,,,,ティエイファクトリー,0
819,4130001073961,新規,0,2023-03-30,2023-03-30,株式会社ｔｓｕｎａｋａｎ,,株式会社,京都府,京都市上京区,一色町３マンハイム西陣３０３,,26,102,6028471,,,,,,,2023-03-30,1,,,,,ツナカン,0
823,4160001024920,新規,0,2023-03-30,2023-03-30,株式会社一陸建設,,株式会社,滋賀県,湖南市,岩根中央３丁目１６０番地,,25,211,5203254,,,,,,,2023-03-30,1,,,,,イチリクケンセツ,0
824,4160001024929,新規,0,2023-03-30,2023-03-30,株式会社Ｃｒｅａｔｅ・ｅｎｅｒｇｙ,,株式会社,滋賀県,大津市,大江５丁目１７番５号,,25,201,5202141,,,,,,,2023-03-30,1,,,,,クリエイトエナジー,0
841,4200001041119,新規,0,2023-03-30,2023-03-30,株式会社ＭＬ,,株式会社,岐阜県,岐阜市,花沢町５丁目９番地,,21,201,5008142,,,,,,,2023-03-30,1,,,,,エムエル,0
855,4260001037771,新規,0,2023-03-30,2023-03-30,株式会社Ｅｓ　Ｌｉｂｌｅ,,株式会社,岡山県,岡山市中区,海吉２１０３番地９,,33,102,7038261,,,,,,,2023-03-30,1,,,,,エスリブレ,0
856,4270001008747,新規,0,2023-03-30,2023-03-30,株式会社ディスカバリー日野,,株式会社,鳥取県,日野郡日野町,下榎１１８３番地,,31,402,6894526,,,,,,,2023-03-30,1,,,,,ヂィスカバリーヒノ,0
860,4290003013710,新規,0,2023-03-30,2023-03-30,福岡パースペクト合同会社,,合同会社,福岡県,福岡市博多区,麦野４丁目４０番１７‐１０４号,,40,132,8120882,,,,,,,2023-03-30,1,,,,,フクオカパースペクト,0
865,4330001030711,新規,0,2023-03-30,2023-03-30,株式会社熊創,,株式会社,熊本県,熊本市中央区,中央街４－２２アルバ銀座通りビル２階,,43,101,8600802,,,,,,,2023-03-30,1,,,,,クマソウ,0
866,4330003009778,新規,0,2023-03-30,2023-03-30,合同会社快,,合同会社,熊本県,山鹿市,方保田１１６番地２,,43,208,8610382,,,,,,,2023-03-30,1,,,,,カイ,0
869,4360001031748,新規,0,2023-03-30,2023-03-30,イワモト株式会社,,株式会社,沖縄県,那覇市,泊２丁目１０番地４、３０１,,47,201,9000012,,,,,,,2023-03-30,1,,,,,イワモト,0
872,4370001049764,新規,0,2023-03-30,2023-03-30,株式会社ウェルリースけやき,,株式会社,宮城県,仙台市泉区,高森４丁目２番地の２２２,,04,105,9813203,,,,,,,2023-03-30,1,,,,,ウェルリースケヤキ,0
882,4430005014675,新規,0,2023-03-30,2023-03-30,医療法人社団手稲つぶく耳鼻咽喉科,,その他の設立登記法人,北海道,札幌市手稲区,前田二条１３丁目３番１８号メディモテイネ２階,,01,109,0060812,,,,,,,2023-03-30,1,,,,,テイネツブクジビインコウカ,0
884,4470001019534,新規,0,2023-03-30,2023-03-30,株式会社ｍｓｓｈ,,株式会社,香川県,さぬき市,志度４１２５番地２９,,37,206,7692101,,,,,,,2023-03-30,1,,,,,エムエスエスエイチ,0
890,4700150115085,新規,0,2023-03-30,2023-03-30,ｍｉＨｏＹｏ　Ｌｉｍｉｔｅｄ,,外国会社等,,,,,,,,Ｒｏｏｍ１００３，１０／Ｆ，Ｔｏｗｅｒ　１　Ｌｉｐｐｏ　Ｃｅｎｔｒｅ，８９　Ｑｕｅｅｎｓｗａｙ，Ａｄｍｉｒａｌｔｙ，ＨＫ,,,,,,2023-03-30,1,,,,,ミホヨリミテツド,0
901,5010001234046,新規,0,2023-03-30,2023-03-30,株式会社Ｔｒｙトラベル,,株式会社,東京都,文京区,本郷４丁目１６番６号文京区本郷四丁目ビル天翔オフィス後楽園２階２０５号室,,13,105,1130033,,,,,,,2023-03-30,1,,,,,トライトラベル,0
902,5010001234070,新規,0,2023-03-30,2023-03-30,株式会社Ｙｚ,,株式会社,東京都,中央区,銀座８丁目１７番５号ＴＨＥＨＵＢ銀座ＯＣＴ,,13,102,1040061,,,,,,,2023-03-30,1,,,,,ワイズ,0
904,5010003040178,新規,0,2023-03-30,2023-03-30,ＳＥＮＳＴＥＣＨ合同会社,,合同会社,東京都,中央区,銀座１丁目１２番４号Ｎ＆ＥＢＬＤ．６Ｆ,,13,102,1040061,,,,,,,2023-03-30,1,,,,,センステック,0
905,5010003040186,新規,0,2023-03-30,2023-03-30,Ｐｈｉｌｉａ永田町合同会社,,合同会社,東京都,千代田区,永田町２丁目１７番５号,,13,101,1000014,,,,,,,2023-03-30,1,,,,,フィリアナガタチョウ,0
915,5010403029812,新規,0,2023-03-30,2023-03-30,ＫＫＡＲ．合同会社,,合同会社,東京都,港区,白金６丁目１４番２４号,,13,103,1080072,,,,,,,2023-03-30,1,,,,,カー,0
916,5010405021949,新規,0,2023-03-30,2023-03-30,ティーマスター・ワン特定目的会社,,その他の設立登記法人,東京都,港区,虎ノ門３丁目２２番１０－２０１号,,13,103,1050001,,,,,,,2023-03-30,1,,,,,ティーマスターワン,0
921,5010501050216,新規,0,2023-03-30,2023-03-30,株式会社クロスグリット,,株式会社,東京都,台東区,下谷１丁目４番１１号ヴェルデ上野ビル１０階,,13,106,1100004,,,,,,,2023-03-30,1,,,,,クロスグリット,0
927,5010801033812,新規,0,2023-03-30,2023-03-30,株式会社ＧＵＴＳＹ　ＴＯＹ,,株式会社,東京都,大田区,東糀谷５丁目８番２号,,13,111,1440033,,,,,,,2023-03-30,1,,,,,ガッツィトイ,0
937,5011001153434,新規,0,2023-03-30,2023-03-30,株式会社ｍｉｌｅ３,,株式会社,東京都,渋谷区,道玄坂１丁目１０番８号渋谷道玄坂東急ビル２Ｆ－Ｃ,,13,113,1500043,,,,,,,2023-03-30,1,,,,,マイルスリー,0
938,5011001153450,新規,0,2023-03-30,2023-03-30,Ｇｒａｉｌ　Ｍａｒｋｅｔｉｎｇ株式会社,,株式会社,東京都,渋谷区,円山町５番５号Ｎａｖｉ渋谷Ｖ３階,,13,113,1500044,,,,,,,2023-03-30,1,,,,,グライルマーケティング,0
939,5011005010012,新規,0,2023-03-30,2023-03-30,一般社団法人日本オントロジカル・コーチング協会,,その他の設立登記法人,東京都,渋谷区,道玄坂１丁目１０番８号渋谷道玄坂東急ビル２Ｆ－Ｃ,,13,113,1500043,,,,,,,2023-03-30,1,,,,,ニホンオントロジカルコーチングキョウカイ,0
951,5011203004039,新規,0,2023-03-30,2023-03-30,合同会社ＭａｇｉｃＨｏｌｉｃ,,合同会社,東京都,中野区,弥生町１丁目３３－５ＢＬＥＳＳ中野弥生町３１１,,13,114,1640013,,,,,,,2023-03-30,1,,,,,マジックホリック,0
953,5011301028567,新規,0,2023-03-30,2023-03-30,株式会社ＳＯ‐ＳＯ,,株式会社,東京都,杉並区,成田東４丁目８番１０号,,13,115,1660015,,,,,,,2023-03-30,1,,,,,ソウソウ,0
965,5011501029101,新規,0,2023-03-30,2023-03-30,株式会社Ｓｈｉｍｉｚｕ　Ｃｏｎｓｕｌｔｉｎｇ,,株式会社,東京都,荒川区,荒川３丁目１２番１６－２０７号,,13,118,1160002,,,,,,,2023-03-30,1,,,,,シミズコンサルティング,0
968,5011801042150,新規,0,2023-03-30,2023-03-30,株式会社ＩＣＯＮ　Ｓｔｒａｔｅｇｉｃ　Ｓｏｌｕｔｉｏｎｓ,,株式会社,東京都,足立区,西新井栄町２丁目１５番６号,,13,121,1230843,,,,,,,2023-03-30,1,,,,,アイコンストラテジックソリューションズ,0
971,5012701017556,新規,0,2023-03-30,2023-03-30,徳茂株式会社,,株式会社,東京都,西東京市,中町５丁目１８－５グリーンハウス２号室,,13,229,2020013,,,,,,,2023-03-30,1,,,,,トクシゲ,0
972,5012801022225,新規,0,2023-03-30,2023-03-30,株式会社ケイシン,,株式会社,東京都,東大和市,清水６丁目１１５６番地の１,,13,220,2070004,,,,,,,2023-03-30,1,,,,,ケイシン,0
985,5021003012926,新規,0,2023-03-30,2023-03-30,合同会社Ｄａｗｇ,,合同会社,神奈川県,平塚市,横内３７２６番地２Ｆ,,14,203,2540002,,,,,,,2023-03-30,1,,,,,ドウグ,0
992,5030001153070,新規,0,2023-03-30,2023-03-30,株式会社ｎｏｍａ,,株式会社,埼玉県,新座市,野火止１丁目７－５,,11,230,3520011,,,,,,,2023-03-30,1,,,,,ノマ,0
997,5030003021465,新規,0,2023-03-30,2023-03-30,合同会社ＳＡＴ,,合同会社,埼玉県,越谷市,大字南荻島３４４１－６,,11,222,3430804,,,,,,,2023-03-30,1,,,,,エスエイティー,0
1000,5040001127692,新規,0,2023-03-30,2023-03-30,ＴＯＫＹＯ　ＴＯＵＣＨ株式会社,,株式会社,千葉県,香取市,寺内１３３７番地１,,12,236,2870062,,,,,,,2023-03-30,1,,,,,トーキョータッチ,0
1001,5040001127718,新規,0,2023-03-30,2023-03-30,株式会社インクリット,,株式会社,千葉県,市原市,五井中央西１丁目６番地９－２０２,,12,219,2900081,,,,,,,2023-03-30,1,,,,,インクリット,0
1003,5040003022289,新規,0,2023-03-30,2023-03-30,ＩＣＯＮ　ＡＵＴＯ合同会社,,合同会社,千葉県,山武市,白幡２１８１番地２２,,12,237,2891306,,,,,,,2023-03-30,1,,,,,アイコンオート,0
1004,5040003022297,新規,0,2023-03-30,2023-03-30,合同会社ＹＵＶＩＮ　ＭＯＴＯＲＳ,,合同会社,千葉県,成田市,吉岡１２１７番地２８２,,12,211,2870225,,,,,,,2023-03-30,1,,,,,ユービンモータース,0
1005,5040003022306,新規,0,2023-03-30,2023-03-30,青木パートナーコンサルティング合同会社,,合同会社,千葉県,市川市,市川南３丁目３番１５号,,12,203,2720033,,,,,,,2023-03-30,1,,,,,アオキパートナーコンサルティング,0
1006,5050003007355,新規,0,2023-03-30,2023-03-30,ＳＩＮＧＨ　ＥＮＴＥＲＰＲＩＳＥ合同会社,,合同会社,茨城県,つくばみらい市,小絹１７１－２２－２０３号室,,08,235,3002445,,,,,,,2023-03-30,1,,,,,シングエンタープライズ,0
1007,5050003007363,新規,0,2023-03-30,2023-03-30,合同会社パーマネント,,合同会社,茨城県,つくば市,要８２番地２－２０６,,08,220,3002622,,,,,,,2023-03-30,1,,,,,パーマネント,0
1008,5060001035836,新規,0,2023-03-30,2023-03-30,株式会社オーキッズ,,株式会社,栃木県,小山市,大字雨ケ谷６０５番地１,,09,208,3230826,,,,,,,2023-03-30,1,,,,,オーキッズ,0
1029,5120001253547,新規,0,2023-03-30,2023-03-30,株式会社菅重量,00129903,株式会社,大阪府,大阪市港区,弁天５丁目４番１７号,,27,107,5520007,,,,,,,2023-03-30,1,,,,,スガジュウリョウ,0
1030,5120001253588,新規,0,2023-03-30,2023-03-30,いろんころん株式会社,,株式会社,大阪府,大阪市阿倍野区,松崎町２丁目３番３７号,,27,119,5450053,,,,,,,2023-03-30,1,,,,,イロンコロン,0
1031,5120001253596,新規,0,2023-03-30,2023-03-30,ＪＮＢ株式会社,,株式会社,大阪府,大阪市浪速区,久保吉１丁目４番４号１０２,,27,111,5560028,,,,,,,2023-03-30,1,,,,,ジェイエヌビー,0
1032,5120001253605,新規,0,2023-03-30,2023-03-30,ダイワ建工株式会社,,株式会社,大阪府,大阪市東住吉区,針中野４丁目１２番４０－２０２号,,27,121,5460011,,,,,,,2023-03-30,1,,,,,ダイワケンコウ,0
1034,5120003023717,新規,0,2023-03-30,2023-03-30,ＨＡＮＮＡＮ　ＴＲＡＤＩＮＧ合同会社,,合同会社,大阪府,大阪市西淀川区,大和田４丁目１５番２１号メモンリバーサイドＳ０２号室,,27,113,5550032,,,,,,,2023-03-30,1,,,,,ハンナントレーディング,0
1035,5120003023741,新規,0,2023-03-30,2023-03-30,立人合同会社,,合同会社,大阪府,大阪市生野区,巽北２丁目１１番１４号３０１号室,00129906,27,116,5440004,,,,,,,2023-03-30,1,,,,,リツジン,0
1040,5120103005144,新規,0,2023-03-30,2023-03-30,ＴＮＫ合同会社,,合同会社,大阪府,泉佐野市,羽倉崎上町３丁目１２番３０号,,27,213,5980037,,,,,,,2023-03-30,1,,,,,ティーエヌケー,0
1051,5130001073928,新規,0,2023-03-30,2023-03-30,株式会社ＢＬＡＣＫ　ＧＯＬＤ,,株式会社,京都府,京都市東山区,祇園町北側３４７－１８０,,26,105,6050073,,,,,,,2023-03-30,1,,,,,ブラックゴールド,0
1052,5130001073952,新規,0,2023-03-30,2023-03-30,らふＬａｕｇｈ株式会社,,株式会社,京都府,長岡京市,今里赤ノ上３３－７,,26,209,6170814,,,,,,,2023-03-30,1,,,,,ラフラフ,0
1053,5130001073960,新規,0,2023-03-30,2023-03-30,伊まる株式会社,,株式会社,京都府,京都市下京区,扇酒屋町２７６番地１,,26,106,6008095,,,,,,,2023-03-30,1,,,,,イマル,0
1056,5140003018888,新規,0,2023-03-30,2023-03-30,合同会社ＮＡＴＳＳＨ,,合同会社,兵庫県,芦屋市,上宮川町３番７号,,28,206,6590061,,,,,,,2023-03-30,1,,,,,ナッシュ,0
1057,5140003018896,新規,0,2023-03-30,2023-03-30,宝塚プラントサービス合同会社,,合同会社,兵庫県,宝塚市,仁川北３丁目４番５号,,28,214,6650061,,,,,,,2023-03-30,1,,,,,タカラヅカプラントサービス,0
1058,5140003018905,新規,0,2023-03-30,2023-03-30,ＳＨＩＥＮ合同会社,,合同会社,兵庫県,赤穂市,加里屋２１０３―１４―１０１,,28,212,6780239,,,,,,,2023-03-30,1,,,,,シエン,0
1059,5140005026534,新規,0,2023-03-30,2023-03-30,特定非営利活動法人１２０パーセント・アーツ・アカデミー・インターナショナル,,その他の設立登記法人,兵庫県,淡路市,仮屋１８２番地,,28,226,6562331,,,,,,,2023-03-30,1,,,,,ヒャクニジュッパーセントアーツアカデミーインターナショナル,0
1060,5140005026542,新規,0,2023-03-30,2023-03-30,ＮＰＯ法人日本鳥獣保護管理捕獲協議会,,その他の設立登記法人,兵庫県,川西市,丸山台３丁目１番地の５１,,28,217,6660152,,,,,,,2023-03-30,1,,,,,ニホンチョウジュウホゴカンリホカクキョウギカイ,0
1066,5160001024928,新規,0,2023-03-30,2023-03-30,株式会社北村工建,,株式会社,滋賀県,彦根市,小泉町８８７番地の４,,25,202,5220043,,,,,,,2023-03-30,1,,,,,キタムラコウケン,0
1074,5180001155523,新規,0,2023-03-30,2023-03-30,グレイス株式会社,,株式会社,愛知県,犬山市,上坂町２丁目１４１番地,,23,215,4840059,,,,,,,2023-03-30,1,,,,,グレイス,0
1075,5180001155548,新規,0,2023-03-30,2023-03-30,株式会社Ｇｏ　ｏＮ,,株式会社,愛知県,犬山市,大字五郎丸字堤北１番地４５,,23,215,4840066,,,,,,,2023-03-30,1,,,,,ゴーオン,0
1076,5180001155580,新規,0,2023-03-30,2023-03-30,株式会社ＭＰ工業,,株式会社,愛知県,愛西市,大井町浦田面４６４番地,,23,232,4960921,,,,,,,2023-03-30,1,,,,,エムピーコウギョウ,0
1082,5180303005665,新規,0,2023-03-30,2023-03-30,合同会社ＯＧＡＳＡＷＡＲＡ,,合同会社,愛知県,豊田市,栄町７丁目４番地１０サンロイヤル梅村４０１号,,23,211,4710066,,,,,,,2023-03-30,1,,,,,オガサワラ,0
1086,5190001030279,新規,0,2023-03-30,2023-03-30,株式会社吹上,,株式会社,三重県,三重郡菰野町,大字杉谷２３２８番地１６１,,24,341,5101326,,,,,,,2023-03-30,1,,,,,フキアゲ,0
1090,5200001041118,新規,0,2023-03-30,2023-03-30,リンクフロー株式会社,,株式会社,岐阜県,岐阜市,長住町９丁目１１番地,,21,201,5008175,,,,,,,2023-03-30,1,,,,,リンクフロー,0
1093,5240001061252,新規,0,2023-03-30,2023-03-30,株式会社ＭＯＣＩＡＳ,,株式会社,広島県,広島市中区,榎町９番２１号（０１）,,34,101,7300851,,,,,,,2023-03-30,1,,,,,モシアス,0
1095,5240003006073,新規,0,2023-03-30,2023-03-30,合同会社浅田工業,,合同会社,広島県,広島市佐伯区,八幡１丁目１８番７－５０１号,,34,108,7315116,,,,,,,2023-03-30,1,,,,,アサダコウギョウ,0
1096,5240005015551,新規,0,2023-03-30,2023-03-30,医療法人耕和会,,その他の設立登記法人,広島県,広島市中区,八丁堀４番１８－１０１号,,34,101,7300013,,,,,,,2023-03-30,1,,,,,コウワカイ,0
1103,5290001101004,新規,0,2023-03-30,2023-03-30,株式会社ランク,,株式会社,福岡県,福岡市東区,多々良１丁目７番１９号,,40,131,8130033,,,,,,,2023-03-30,1,,,,,ランク,0
1105,5290801029403,新規,0,2023-03-30,2023-03-30,Ｍ‐ＰＬＡＣＥ株式会社,,株式会社,福岡県,豊前市,大字八屋５０５番地２,,40,214,8280021,,,,,,,2023-03-30,1,,,,,エムプレイス,0
1106,5310001018328,新規,0,2023-03-30,2023-03-30,株式会社Ｃｈｉｅｍｉ　Ｔｈｉｓ　Ｗｏｒｌｄ,,株式会社,長崎県,佐世保市,小佐々町楠泊１８２７番地２,,42,202,8570413,,,,,,,2023-03-30,1,,,,,チエミジスワールド,0
1112,5340001025453,新規,0,2023-03-30,2023-03-30,ＬＡＮＤＵＳＥ　ＰＡＲＴＮＥＲＳ株式会社,,株式会社,鹿児島県,鹿児島市,荒田１丁目１６－３－２Ｆ,,46,201,8900054,,,,,,,2023-03-30,1,,,,,ランデュースパートナーズ,0
1116,5360001031747,新規,0,2023-03-30,2023-03-30,株式会社ａｐｌｕｓ,,株式会社,沖縄県,糸満市,西崎６丁目１７番１－１６０４プレサンスロジェ西崎レーヴタワー,,47,210,9010305,,,,,,,2023-03-30,1,,,,,アプラス,0
1132,5430001088730,新規,0,2023-03-30,2023-03-30,株式会社マルノウ,,株式会社,北海道,勇払郡むかわ町,米原１１０４番地,,01,586,0540014,,,,,,,2023-03-30,1,,,,,マルノウ,0
1133,5430001088739,新規,0,2023-03-30,2023-03-30,株式会社ＯＫＡＤＡ　ＦＡＲＭ,,株式会社,北海道,沙流郡平取町,字貫気別２４１番地１７,,01,602,0550321,,,,,,,2023-03-30,1,,,,,オカダファーム,0
1138,5430005014674,新規,0,2023-03-30,2023-03-30,一般社団法人ここあ,,その他の設立登記法人,北海道,苫小牧市,緑町１丁目１番６号,,01,213,0530032,,,,,,,2023-03-30,1,,,,,ココア,0
1141,5470001019533,新規,0,2023-03-30,2023-03-30,株式会社オークフィールド,,株式会社,香川県,高松市,鶴市町１５５９番地１,,37,201,7618032,,,,,,,2023-03-30,1,,,,,オークフィールド,0
1150,5700150115068,新規,0,2023-03-30,2023-03-30,Ｂｌａｃｋｓｔｏｎｅ　Ｆａｍｉｌｙ　Ｉｎｖｅｓｔｍｅｎｔ　Ｐａｒｔｎｅｒｓｈｉｐ　ＶＩＩ－ＳＭＤ（Ｃａｙｍａｎ）　Ｌ．Ｐ．,00129897,外国会社等,,,,,,,,１９０　Ｅｌｇｉｎ　Ａｖｅｎｕｅ，Ｇｅｏｒｇｅ　Ｔｏｗｎ，Ｇｒａｎｄ　Ｃａｙｍａｎ，ＫＹ１－９００５,,,,,,2023-03-30,1,,,,,ブラツクストーンフアミリーインベストメントパートナーシツプナナエスエムデーケイマンエルピー,0
1151,5700150115084,新規,0,2023-03-30,2023-03-30,Ｐｆｉｚｅｒ　Ｉｒｅｌａｎｄ　Ｐｈａｒｍａｃｅｕｔｉｃａｌｓ　Ｕｎｌｉｍｉｔｅｄ,,外国会社等,,,,,,,,Ｒｅｖｅｒｓｉｄｅ　Ｏｎｅ　Ｓｉｒ　Ｊｏｈｎ　Ｒｏｇｅｒｓｏｎ’ｓ　Ｑｕｑｙ　Ｄｕｂｌｉｎ２,,,,,,2023-03-30,1,,,,,フアイザーアイルランドフアーマシユーテイカルズアンリミテツド,0
1165,6010001234086,新規,0,2023-03-30,2023-03-30,株式会社Ｍｅｔｅｏｒ,,株式会社,東京都,千代田区,神田神保町１丁目５０番地５クラス・マカンビル内ケーマカンオフィス神保町,,13,101,1010051,,,,,,,2023-03-30,1,,,,,ミーティア,0
1177,6010403029745,新規,0,2023-03-30,2023-03-30,合同会社西武テック,,合同会社,東京都,港区,南麻布５丁目２番１３号,,13,103,1060047,,,,,,,2023-03-30,1,,,,,セイブテック,0
1179,6010501050215,新規,0,2023-03-30,2023-03-30,株式会社Ｂｕｉｌｄ　ＵＰ,,株式会社,東京都,台東区,三筋２丁目２４番６－１００６号,,13,106,1110055,,,,,,,2023-03-30,1,,,,,ビルドアップ,0
1182,6010601062829,新規,0,2023-03-30,2023-03-30,株式会社虎昇,,株式会社,東京都,江東区,豊洲３丁目６番８－２６２２号,,13,108,1350061,,,,,,,2023-03-30,1,,,,,コウショウ,0
1183,6010603010083,新規,0,2023-03-30,2023-03-30,合同会社Ｌｉｎｏ,,合同会社,東京都,江東区,常盤２丁目１３番９号アーバンフォレスト森下２０２,,13,108,1350006,,,,,,,2023-03-30,1,,,,,リノ,0
1188,6010901052793,新規,0,2023-03-30,2023-03-30,株式会社Ｍ,,株式会社,東京都,世田谷区,下馬６丁目３２番１８号,,13,112,1540002,,,,,,,2023-03-30,1,,,,,エム,0
1197,6011001153409,新規,0,2023-03-30,2023-03-30,株式会社ｍｉｒｏｋｕ,,株式会社,東京都,目黒区,青葉台３丁目９番１１号青葉台ＰＯＩＮＴ３Ｆ,,13,110,1530042,,,,,,,2023-03-30,1,,,,,ミロク,0
1198,6011001153433,新規,0,2023-03-30,2023-03-30,株式会社ムゴン,,株式会社,東京都,渋谷区,神宮前６丁目２３番４号桑野ビル２階,,13,113,1500001,,,,,,,2023-03-30,1,,,,,ムゴン,0
1201,6011101102315,新規,0,2023-03-30,2023-03-30,株式会社ラッキー,,株式会社,東京都,新宿区,西新宿３丁目３番－１３号西新宿水間ビル６階,,13,104,1600023,,,,,,,2023-03-30,1,,,,,ラッキー,0
1203,6011103012859,新規,0,2023-03-30,2023-03-30,合同会社Ｈａｐｐｙ　Ｑｕｅｓｔ,,合同会社,東京都,新宿区,新宿４丁目３番１５号レイフラット新宿Ｂ棟,,13,104,1600022,,,,,,,2023-03-30,1,,,,,ハッピークエスト,0
1205,6011301028566,新規,0,2023-03-30,2023-03-30,株式会社ｓｅｎａ　ｐｒｏｍｏｔｉｏｎ,,株式会社,東京都,杉並区,下高井戸３丁目９－２７,,13,115,1680073,,,,,,,2023-03-30,1,,,,,セナプロモーション,0
1207,6011701026112,新規,0,2023-03-30,2023-03-30,株式会社ＮＥＸＴＡＧＥ,,株式会社,東京都,江戸川区,東葛西６丁目３４番１８－１０２号,,13,123,1340084,,,,,,,2023-03-30,1,,,,,ネクステージ,0
1210,6011801042158,新規,0,2023-03-30,2023-03-30,株式会社永都商事,,株式会社,東京都,葛飾区,高砂１丁目１０－２－９０１,,13,122,1250054,,,,,,,2023-03-30,1,,,,,エイトショウジ,0
1212,6011803005575,新規,0,2023-03-30,2023-03-30,合同会社Ｆｕｒｉｈａｒａ,,合同会社,東京都,足立区,六町１丁目１３―１６―３０１,,13,121,1210073,,,,,,,2023-03-30,1,,,,,フリハラ,0
1216,6012403005908,新規,0,2023-03-30,2023-03-30,合同会社呼子事務所,,合同会社,東京都,小金井市,貫井北町２丁目５－４,,13,210,1840015,,,,,,,2023-03-30,1,,,,,ヨブコジムショ,0
1224,6020001150761,新規,0,2023-03-30,2023-03-30,株式会社かつき,,株式会社,神奈川県,横浜市青葉区,美しが丘５丁目１番地５第三吉春ビル２１６,,14,117,2250002,,,,,,,2023-03-30,1,,,,,カツキ,0
1225,6020001150860,新規,0,2023-03-30,2023-03-30,株式会社ＹＵＰＰＹ,,株式会社,神奈川県,横浜市磯子区,杉田７丁目１９－８,,14,107,2350033,,,,,,,2023-03-30,1,,,,,ユッピー,0
1228,6020003023619,新規,0,2023-03-30,2023-03-30,ＩＧＡ流体ｌａｂ合同会社,,合同会社,神奈川県,川崎市中原区,小杉町３丁目６００－Ｋ３Ａ３０１５,,14,133,2110063,,,,,,,2023-03-30,1,,,,,イガリュウタイラボ,0
1240,6030001152823,新規,0,2023-03-30,2023-03-30,株式会社ハウスプロテクト,,株式会社,埼玉県,蕨市,中央２丁目２番５号セントラルハイツＢ号,,11,223,3350004,,,,,,,2023-03-30,1,,,,,ハウスプロテクト,0
1246,6030003021464,新規,0,2023-03-30,2023-03-30,パレット合同会社,,合同会社,埼玉県,ふじみ野市,苗間３４５－２６,,11,245,3560052,,,,,,,2023-03-30,1,,,,,パレット,0
1251,6030005021181,新規,0,2023-03-30,2023-03-30,一般社団法人ときがわ町観光協会,,その他の設立登記法人,埼玉県,比企郡ときがわ町,大字番匠４７５番地２,,11,349,3550354,,,,,,,2023-03-30,1,,,,,トキガワマチカンコウキョウカイ,0
1254,6040001127691,新規,0,2023-03-30,2023-03-30,株式会社Ｍａｒｇｕｅｒｉｔｅ,,株式会社,千葉県,銚子市,新生町１丁目５５番地の５,,12,202,2880056,,,,,,,2023-03-30,1,,,,,マーガレット,0
1255,6040001127717,新規,0,2023-03-30,2023-03-30,株式会社Ｍ‐ｓｔｙｌｅ,,株式会社,千葉県,柏市,あかね町７番２９号,,12,217,2770027,,,,,,,2023-03-30,1,,,,,エムスタイル,0
1257,6040003022288,新規,0,2023-03-30,2023-03-30,ビーアイフードサービス合同会社,,合同会社,千葉県,松戸市,稔台７丁目３－１関コーポ１０２,,12,207,2702231,,,,,,,2023-03-30,1,,,,,ビーアイフードサービス,0
1258,6040003022296,新規,0,2023-03-30,2023-03-30,合同会社ひよこ,,合同会社,千葉県,千葉市中央区,川戸町４２６番地３,,12,101,2600802,,,,,,,2023-03-30,1,,,,,ヒヨコ,0
1263,6060001035835,新規,0,2023-03-30,2023-03-30,後越株式会社,,株式会社,栃木県,那須塩原市,石林６６２番地６,,09,213,3292711,,,,,,,2023-03-30,1,,,,,ゴイチ,0
1265,6060003004466,新規,0,2023-03-30,2023-03-30,駒場事業１号合同会社,,合同会社,栃木県,日光市,小代７３７番地４,,09,206,3211107,,,,,,,2023-03-30,1,,,,,コマバジギョウイチゴウ,0
1273,6070001040264,新規,0,2023-03-30,2023-03-30,株式会社Ｔｓｕｃｈｉｙａ　Ｅｎｇｉｎｅｅｒｓ,,株式会社,群馬県,富岡市,宇田２２番地２,,10,210,3702451,,,,,,,2023-03-30,1,,,,,ツチヤエンジニアーズ,0
1278,6080001025537,新規,0,2023-03-30,2023-03-30,株式会社ＨａＵフォーム,,株式会社,静岡県,牧之原市,坂部２６０２番地１,,22,226,4210412,,,,,,,2023-03-30,1,,,,,ハウフォーム,0
1279,6090001018044,新規,0,2023-03-30,2023-03-30,株式会社Ｆｕｎ　Ｔｉｍｅ　Ｓｅｒｖｉｃｅ,,株式会社,山梨県,甲府市,大里町２４８７番地３,,19,201,4000053,,,,,,,2023-03-30,1,,,,,ファンタイムサービス,0
1286,6110001037388,新規,0,2023-03-30,2023-03-30,株式会社キムチの家,,株式会社,新潟県,佐渡市,新穂長畝２７６３番地,,15,224,9520101,,,,,,,2023-03-30,1,,,,,キムチノイエ,0
1299,6120001253513,新規,0,2023-03-30,2023-03-30,Ｆｌｙ　Ｆｒｅｅ株式会社,,株式会社,大阪府,大阪市北区,長柄西１丁目１番１２号サンビルアパート３０５号室,,27,127,5310061,,,,,,,2023-03-30,1,,,,,フライフリー,0
1300,6120001253554,新規,0,2023-03-30,2023-03-30,株式会社建希,,株式会社,大阪府,枚方市,出口１丁目２番１２－５０３号,,27,210,5730065,,,,,,,2023-03-30,1,,,,,ケンキ,0
1302,6120003023724,新規,0,2023-03-30,2023-03-30,合同会社Ｎｏａｎｔｉｑｕｅ,,合同会社,大阪府,大阪市鶴見区,放出東３丁目２１番４０号ローレルコート放出２０５,,27,124,5380044,,,,,,,2023-03-30,1,,,,,ノアンティク,0
1306,6120101067219,新規,0,2023-03-30,2023-03-30,株式会社源治郎,,株式会社,大阪府,高石市,羽衣１丁目５番３５－５０２号,,27,225,5920002,,,,,,,2023-03-30,1,,,,,ゲンジロウ,0
1307,6120103005143,新規,0,2023-03-30,2023-03-30,アドラビリス合同会社,,合同会社,大阪府,高石市,取石３丁目１番地２９号,,27,225,5920013,,,,,,,2023-03-30,1,,,,,アドラビリス,0
1309,6120901047312,新規,0,2023-03-30,2023-03-30,株式会社ＳＡＫＵＲＡ,,株式会社,大阪府,豊中市,桜の町６丁目１２番１０号,,27,203,5600054,,,,,,,2023-03-30,1,,,,,サクラ,0
1310,6120905006446,新規,0,2023-03-30,2023-03-30,ワールドテクノス協同組合,,その他の設立登記法人,大阪府,茨木市,宿川原町１７番３号,,27,211,5670055,,,,,,,2023-03-30,1,,,,,ワールドテクノス,0
1314,6130001073951,新規,0,2023-03-30,2023-03-30,株式会社ＣＯＯ,,株式会社,京都府,京都市中京区,三条通高倉東入桝屋町５３－１Ｄｕｃｅｍｉｘビルヂング４０２,,26,104,6048111,,,,,,,2023-03-30,1,,,,,クゥ,0
1318,6140001129562,新規,0,2023-03-30,2023-03-30,株式会社ニケリス,,株式会社,兵庫県,明石市,魚住町西岡２１５９番地の１３,,28,203,6740084,,,,,,,2023-03-30,1,,,,,ニケリス,0
1323,6160001024927,新規,0,2023-03-30,2023-03-30,株式会社テン,,株式会社,滋賀県,甲賀市,水口町北泉１丁目１３１番地,,25,209,5280058,,,,,,,2023-03-30,1,,,,,テン,0
1325,6160003002831,新規,0,2023-03-30,2023-03-30,合同会社ｅｓｃａ,,合同会社,滋賀県,大津市,におの浜２丁目１番４８号第三森田ビル１Ｆ,,25,201,5200801,,,,,,,2023-03-30,1,,,,,エスカ,0
1333,6180001155563,新規,0,2023-03-30,2023-03-30,株式会社トリプルラボ,,株式会社,愛知県,一宮市,萩原町萩原字県６０番地２,,23,203,4910353,,,,,,,2023-03-30,1,,,,,トリプルラボ,0
1340,6180303005656,新規,0,2023-03-30,2023-03-30,ＨＡＳＴ合同会社,,合同会社,愛知県,豊橋市,二川町字新橋町３０番地,,23,201,4413155,,,,,,,2023-03-30,1,,,,,ハスト,0
1342,6190001030278,新規,0,2023-03-30,2023-03-30,蒼和株式会社,,株式会社,三重県,四日市市,大字羽津戊１２９６番地１,,24,202,5100012,,,,,,,2023-03-30,1,,,,,ソウワ,0
1343,6200001041117,新規,0,2023-03-30,2023-03-30,株式会社ＷＡＫＡＺＯＮＯ,,株式会社,岐阜県,大垣市,荒尾町１６１８番地３４,,21,202,5030034,,,,,,,2023-03-30,1,,,,,ワカゾノ,0
1350,6240001061268,新規,0,2023-03-30,2023-03-30,Ｗｏｏｄ　Ｃｒａｆｔ株式会社,,株式会社,広島県,福山市,千田町大字千田２２４３番地,,34,207,7200013,,,,,,,2023-03-30,1,,,,,ウッドクラフト,0
1354,6260001037778,新規,0,2023-03-30,2023-03-30,株式会社日名,,株式会社,岡山県,岡山市南区,豊成１丁目２番２７－６０５号,,33,104,7000942,,,,,,,2023-03-30,1,,,,,ヒナ,0
1355,6270003001509,新規,0,2023-03-30,2023-03-30,Ｔｒｉｖｅｔ合同会社,,合同会社,鳥取県,鳥取市,国府町新通り３丁目３５０番地１,,31,201,6808066,,,,,,,2023-03-30,1,,,,,トリベット,0
1357,6290001101011,新規,0,2023-03-30,2023-03-30,株式会社ｉｎｔｅｒｎａｔｉｏｎａｌ　ｒｅａｌ　ｅｓｔａｔｅ,,株式会社,福岡県,福岡市博多区,吉塚４丁目２番３７－３号,,40,132,8120041,,,,,,,2023-03-30,1,,,,,インターナショナルリアルエステート,0
1363,6320003004051,新規,0,2023-03-30,2023-03-30,合同会社ソニヤボルテックス,,合同会社,大分県,日田市,港町５番２０号,,44,204,8770006,,,,,,,2023-03-30,1,,,,,ソニヤボルテックス,0
1370,6360003012827,新規,0,2023-03-30,2023-03-30,合同会社Ｗプラント,,合同会社,沖縄県,沖縄市,登川３丁目７番２８号,,47,211,9042142,,,,,,,2023-03-30,1,,,,,ダブルプラント,0
1384,6430005014673,新規,0,2023-03-30,2023-03-30,医療法人社団成秀会,,その他の設立登記法人,北海道,札幌市中央区,宮の森三条４丁目６番１８号,,01,101,0640953,,,,,,,2023-03-30,1,,,,,セイシュウカイ,0
1388,6470003002379,新規,0,2023-03-30,2023-03-30,合同会社ｃｌａｒｕｓ,,合同会社,香川県,高松市,檀紙町４０２番地,,37,201,7618041,,,,,,,2023-03-30,1,,,,,クラルス,0
1389,6480005006947,新規,0,2023-03-30,2023-03-30,特定非営利活動法人ずうーっとくしまＦＵＮ,,その他の設立登記法人,徳島県,徳島市,川内町米津２６番地２,,36,201,7710139,,,,,,,2023-03-30,1,,,,,ズウーットクシマファン,0
1390,6500001024834,新規,0,2023-03-30,2023-03-30,株式会社小山水産,,株式会社,愛媛県,八幡浜市,向灘２３５１番地２,,38,204,7960001,,,,,,,2023-03-30,1,,,,,コヤマスイサン,0
1392,6700150115067,新規,0,2023-03-30,2023-03-30,Ｂｌａｃｋｓｔｏｎｅ　Ｆａｍｉｌｙ　Ｉｎｖｅｓｔｍｅｎｔ　Ｐａｒｔｎｅｒｓｈｉｐ（Ｃａｙｍａｎ）ＶＩＩ－ＥＳＣ　Ｌ．Ｐ．,00129896,外国会社等,,,,,,,,１９０　Ｅｌｇｉｎ　Ａｖｅｎｕｅ，Ｇｅｏｒｇｅ　Ｔｏｗｎ，Ｇｒａｎｄ　Ｃａｙｍａｎ，ＫＹ１－９００５,,,,,,2023-03-30,1,,,,,ブラツクストーンフアミリーインベストメントパートナーシツプケイマンナナイーエスシーエルピー,0
1393,6700150115083,新規,0,2023-03-30,2023-03-30,ＺｈｕＨａｉ　ＺｈｉＤＥ　ＴＥＣＨＮＯＬＯＧＹ　ＣＯ　ＬＴＤ,,外国会社等,,,,,,,,ｈｅｎｇ　ｑｉｎ　ｘｉｎ　ｑｕ　ｂａｏ　ｈｕａ　ｌｕ　６　ｈａｏ　１０５　ｓｈｉ－７１２７７　ｊｉ　ｚｈｏｎｇ　ｂａｎ　ｇｏｎｇ　ｑｕ　ｚｈｕ　ｈａｉ　ｓｈｉ　ｇｕａｎｇ　ｄｏｎｇ　５１９０００　ＣＮ,,,,,,2023-03-30,1,,,,,ジユウハイジーダテクノロジーカンパニーリミテツド,0
1403,7010001234044,新規,0,2023-03-30,2023-03-30,株式会社光相建,,株式会社,東京都,千代田区,神田和泉町１番地６－１６ヤマトビル４０５,,13,101,1010024,,,,,,,2023-03-30,1,,,,,ヒカリソウケン,0
1404,7010001234060,新規,0,2023-03-30,2023-03-30,Ｌｅｇｅｎｄａｒｙ　Ｈｏｎｇ　Ｋｏｎｇ　Ｈｏｌｄｉｎｇｓ株式会社,,株式会社,東京都,文京区,湯島３丁目３４－８－１Ｆ,,13,105,1130034,,,,,,,2023-03-30,1,,,,,レジェンダリーホンコンホールディングズ,0
1405,7010001234085,新規,0,2023-03-30,2023-03-30,コラボット株式会社,,株式会社,東京都,文京区,小石川５丁目４１番１０号住友不動産小石川ビル,,13,105,1120002,,,,,,,2023-03-30,1,,,,,コラボット,0
1406,7010003040168,新規,0,2023-03-30,2023-03-30,アクティブリーシング２６号合同会社,,合同会社,東京都,千代田区,麹町４丁目７番２号,,13,101,1020083,,,,,,,2023-03-30,1,,,,,アクティブリーシングニジュウロクゴウ,0
1407,7010003040184,新規,0,2023-03-30,2023-03-30,合同会社ＢＯＵＫＥＮ,,合同会社,東京都,中央区,日本橋室町１丁目１１番１２号,,13,102,1030022,,,,,,,2023-03-30,1,,,,,ボウケン,0
1412,7010401173362,新規,0,2023-03-30,2023-03-30,ロタンダコンサルティング株式会社,,株式会社,東京都,港区,南青山２丁目２番８号ＤＦビル６階,,13,103,1070062,,,,,,,2023-03-30,1,,,,,ロタンダコンサルティング,0
1413,7010401173404,新規,0,2023-03-30,2023-03-30,サンロク株式会社,,株式会社,東京都,港区,三田２丁目７番１－１５１０号,,13,103,1080073,,,,,,,2023-03-30,1,,,,,サンロク,0
1417,7010403029810,新規,0,2023-03-30,2023-03-30,合同会社ＴＭＳ,,合同会社,東京都,港区,南青山２丁目２番１５号,,13,103,1070062,,,,,,,2023-03-30,1,,,,,ティーエムエス,0
1427,7011001153416,新規,0,2023-03-30,2023-03-30,ＲＵＮ＆ＢＥＥＲ株式会社,,株式会社,東京都,渋谷区,本町６丁目１－２ルーブル渋谷初台５０１,,13,113,1510071,,,,,,,2023-03-30,1,,,,,ランアンドビアー,0
1428,7011001153432,新規,0,2023-03-30,2023-03-30,ＭＯＮＴＹ株式会社,,株式会社,東京都,渋谷区,渋谷２丁目１９－１５宮益坂ビルディング６０９,,13,113,1500002,,,,,,,2023-03-30,1,,,,,モンティ,0
1429,7011001153440,新規,0,2023-03-30,2023-03-30,フィランソロピー・アドバイザーズ株式会社,,株式会社,東京都,渋谷区,神宮前６丁目２３番４号桑野ビル２階ビル,,13,113,1500001,,,,,,,2023-03-30,1,,,,,フィランソロピーアドバイザーズ,0
1430,7011003016546,新規,0,2023-03-30,2023-03-30,ＭＮＫ合同会社,,合同会社,東京都,渋谷区,西原３丁目２０番１３号,,13,113,1510066,,,,,,,2023-03-30,1,,,,,エムエヌケー,0
1434,7011101102355,新規,0,2023-03-30,2023-03-30,株式会社ＹＹＺシステム,,株式会社,東京都,新宿区,西新宿３丁目３番１３号西新宿水間ビル２Ｆ,,13,104,1600023,,,,,,,2023-03-30,1,,,,,ワイワイジーシステム,0
1442,7011301028565,新規,0,2023-03-30,2023-03-30,プロセプト・バイオロボテックス株式会社,,株式会社,東京都,杉並区,西荻北３丁目３２番１１号Ｔｒｅｅｓ西荻３Ｆ－Ｅ,,13,115,1670042,,,,,,,2023-03-30,1,,,,,プロセプトバイオロボテックス,0
1455,7012303001799,新規,0,2023-03-30,2023-03-30,ｍｉｔｌｉｎｋ．合同会社,,合同会社,東京都,町田市,成瀬台２丁目１６－２ウィル成瀬台Ａ棟Ｄ号室,,13,209,1940043,,,,,,,2023-03-30,1,,,,,ミットリンクドット,0
1458,7012403005907,新規,0,2023-03-30,2023-03-30,合同会社Ｆｒｅｅ＆Ｃｏ,,合同会社,東京都,府中市,是政１丁目２０番地の１３５,,13,206,1830014,,,,,,,2023-03-30,1,,,,,フリーアンドコー,0
1459,7012703002661,新規,0,2023-03-30,2023-03-30,合同会社ワタナベエンジニアリング,,合同会社,東京都,西東京市,東伏見４丁目１０番１４号,,13,229,2020021,,,,,,,2023-03-30,1,,,,,ワタナベエンジニアリング,0
1465,7021001078570,新規,0,2023-03-30,2023-03-30,ＧＯＰＲＯ株式会社,,株式会社,神奈川県,伊勢原市,池端４８１番地の１ブルーメン２０１号,,14,214,2591144,,,,,,,2023-03-30,1,,,,,ゴープロ,0
1482,7040001127699,新規,0,2023-03-30,2023-03-30,大唐商事株式会社,,株式会社,千葉県,佐倉市,神門６５４番地１３－１０１号,,12,212,2850803,,,,,,,2023-03-30,1,,,,,ダイトウショウジ,0
1485,7040003022295,新規,0,2023-03-30,2023-03-30,合同会社美友園,,合同会社,千葉県,長生郡睦沢町,大八木４２１番地,,12,422,2994400,,,,,,,2023-03-30,1,,,,,ミトエン,0
1487,7050001052582,新規,0,2023-03-30,2023-03-30,株式会社マコトサービスホールディングス,,株式会社,茨城県,稲敷郡河内町,長竿５６１１番地,,08,447,3001312,,,,,,,2023-03-30,1,,,,,マコトサービスホールディングス,0
1488,7060001035834,新規,0,2023-03-30,2023-03-30,ＳＬＡＶＥＳＴ株式会社,,株式会社,栃木県,宇都宮市,江曽島町１３０６番地４コーポ白百合１０３,,09,201,3210102,,,,,,,2023-03-30,1,,,,,スレイヴェスト,0
1490,7070001040263,新規,0,2023-03-30,2023-03-30,仲川工業株式会社,,株式会社,群馬県,伊勢崎市,馬見塚町１１６１番地８,,10,204,3720842,,,,,,,2023-03-30,1,,,,,ナカガワコウギョウ,0
1492,7090001018043,新規,0,2023-03-30,2023-03-30,株式会社Ｓｔｅｐ　Ｆａｒｍ,,株式会社,山梨県,笛吹市,石和町市部１３０番地１,,19,211,4060031,,,,,,,2023-03-30,1,,,,,ステップファーム,0
1505,7120003023715,新規,0,2023-03-30,2023-03-30,ＪＪ　Ｃｏｍｐａｎｙ合同会社,,合同会社,大阪府,大阪市城東区,関目５丁目１５番９号,,27,118,5360008,,,,,,,2023-03-30,1,,,,,ジェイジェイ,0
1506,7120003023723,新規,0,2023-03-30,2023-03-30,合同会社Ｂｅ　Ｈａｐｐｙ,,合同会社,大阪府,大阪市住之江区,西加賀屋３丁目１２番１７号,,27,125,5590016,,,,,,,2023-03-30,1,,,,,ビーハッピー,0
1510,7120101067218,新規,0,2023-03-30,2023-03-30,ＭＴＭ　ＷＯＲＫＳ．株式会社,,株式会社,大阪府,松原市,小川４丁目１４番２４号,,27,217,5800002,,,,,,,2023-03-30,1,,,,,エムティーエムワークス,0
1521,7140001129553,新規,0,2023-03-30,2023-03-30,株式会社ＪＡＣ,,株式会社,兵庫県,神戸市中央区,割塚通２丁目３番１２号,,28,110,6510065,,,,,,,2023-03-30,1,,,,,ジェイエーシー,0
1522,7140001129561,新規,0,2023-03-30,2023-03-30,株式会社ＬＩＬＹ,,株式会社,兵庫県,姫路市,飾磨区加茂東７４２番地９・２Ｆ,,28,201,6728070,,,,,,,2023-03-30,1,,,,,リリー,0
1524,7140003018894,新規,0,2023-03-30,2023-03-30,合同会社Ｌｉｇｈｔ,,合同会社,兵庫県,川西市,山原１丁目５番１５号,,28,217,6660154,,,,,,,2023-03-30,1,,,,,ライト,0
1526,7140005026540,新規,0,2023-03-30,2023-03-30,医療法人飛翼会,,その他の設立登記法人,兵庫県,川西市,多田桜木２丁目８０５番,,28,217,6660124,,,,,,,2023-03-30,1,,,,,ヒヨクカイ,0
1530,7160003002830,新規,0,2023-03-30,2023-03-30,ｇｒｏｗ‐ｓｔｅｐ　ｋｏｏ合同会社,,合同会社,滋賀県,大津市,札の辻２－３,,25,201,5200045,,,,,,,2023-03-30,1,,,,,グロウステップコウ,0
1550,7200001041116,新規,0,2023-03-30,2023-03-30,ファイブセンス株式会社,,株式会社,岐阜県,飛騨市,古川町増島町１４番１７号,,21,217,5094242,,,,,,,2023-03-30,1,,,,,ファイブセンス,0
1559,7240001061267,新規,0,2023-03-30,2023-03-30,株式会社ＴＫ　ＣＲＥＡＴＩＯＮ,,株式会社,広島県,広島市南区,宇品西２丁目１１番１６号,,34,103,7340014,,,,,,,2023-03-30,1,,,,,ティーケークリエーション,0
1567,7260001037777,新規,0,2023-03-30,2023-03-30,株式会社三備ホールディングス,,株式会社,岡山県,倉敷市,北畝１丁目１３番１９号,,33,202,7128032,,,,,,,2023-03-30,1,,,,,サンビホールディングス,0
1571,7290001101002,新規,0,2023-03-30,2023-03-30,株式会社春雨,,株式会社,福岡県,福岡市中央区,赤坂２丁目２番９号,,40,133,8100042,,,,,,,2023-03-30,1,,,,,ハルサメ,0
1572,7290001101010,新規,0,2023-03-30,2023-03-30,株式会社ｉｎｏｕｔ,,株式会社,福岡県,福岡市東区,二又瀬１７－２０ー１Ｆ,,40,131,8120066,,,,,,,2023-03-30,1,,,,,イナウト,0
1574,7290005018985,新規,0,2023-03-30,2023-03-30,一般社団法人ひとり社長サポート協会,,その他の設立登記法人,福岡県,糟屋郡新宮町,花立花１丁目１番１１号,,40,345,8110103,,,,,,,2023-03-30,1,,,,,ヒトリシャチョウサポートキョウカイ,0
1580,7310003004539,新規,0,2023-03-30,2023-03-30,合同会社林田理財,,合同会社,長崎県,長崎市,泉１丁目２７番９号,,42,201,8528151,,,,,,,2023-03-30,1,,,,,ハヤシダリザイ,0
1587,7330003009783,新規,0,2023-03-30,2023-03-30,ネバーセイネバー合同会社,,合同会社,熊本県,熊本市西区,春日５丁目１８８４－３,,43,103,8600047,,,,,,,2023-03-30,1,,,,,ネバーセイネバー,0
1591,7340001025451,新規,0,2023-03-30,2023-03-30,九州化学株式会社,,株式会社,鹿児島県,南さつま市,加世田宮原字南石川２３８０番地３,,46,220,8971124,,,,,,,2023-03-30,1,,,,,キュウシュウカガク,0
1603,7430001088729,新規,0,2023-03-30,2023-03-30,株式会社Ｓｔａｒ　Ｐｒｏｊｅｃｔ,,株式会社,北海道,虻田郡ニセコ町,字ニセコ３２７番地７７,,01,395,0481511,,,,,,,2023-03-30,1,,,,,スタープロジェクト,0
1604,7430001088737,新規,0,2023-03-30,2023-03-30,株式会社海真建設,,株式会社,北海道,札幌市東区,北二十条東１５丁目２番３－２０３号,,01,103,0650020,,,,,,,2023-03-30,1,,,,,カイシンケンセツ,0
1605,7430001088745,新規,0,2023-03-30,2023-03-30,株式会社ＬＩＯ,,株式会社,北海道,札幌市手稲区,富丘四条４丁目３－１８,,01,109,0060014,,,,,,,2023-03-30,1,,,,,リオ,0
1611,7430005014672,新規,0,2023-03-30,2023-03-30,医療法人社団ｗａｌｌ４０２,,その他の設立登記法人,北海道,札幌市白石区,菊水三条１丁目２－１４－Ｂ４０２,,01,104,0030803,,,,,,,2023-03-30,1,,,,,ウォールヨンマルニ,0
1614,7470001019531,新規,0,2023-03-30,2023-03-30,株式会社勝院メンテナンス,,株式会社,香川県,丸亀市,三条町６４番地４,,37,202,7630094,,,,,,,2023-03-30,1,,,,,ショウインメンテナンス,0
1617,7480005006946,新規,0,2023-03-30,2023-03-30,特定非営利活動法人みっけ,,その他の設立登記法人,徳島県,名西郡神山町,神領字南上角２５７,,36,342,7713310,,,,,,,2023-03-30,1,,,,,ミッケ,0
1618,7700150115082,新規,0,2023-03-30,2023-03-30,Ｔｅｌｅｏｓ　Ａｇ　Ｓｏｌｕｔｉｏｎｓ，Ｉｎｃ．,,外国会社等,東京都,渋谷区,道玄坂１丁目１２－１,,13,113,1500043,１２０　Ａｐｐｌｅｃｒｏｓｓ　Ｒｄ．，Ｐｉｎｅｈｕｒｓｔ，ＮＣ　２８３７４,,,,,,2023-03-30,1,,,,,テレオスアグソリユーシヨンズインク,0
1622,8010001233986,新規,0,2023-03-30,2023-03-30,株式会社ミライズ,,株式会社,東京都,中央区,銀座６丁目１３番９号ｂｉｚｃｕｂｅ,,13,102,1040061,,,,,,,2023-03-30,1,,,,,ミライズ,0
1623,8010001234084,新規,0,2023-03-30,2023-03-30,株式会社ＩＲＯＲＩ,,株式会社,東京都,中央区,銀座７丁目１３－２０,,13,102,1040061,,,,,,,2023-03-30,1,,,,,イロリ,0
1625,8010003040167,新規,0,2023-03-30,2023-03-30,アクティブリーシング２５号合同会社,,合同会社,東京都,千代田区,麹町４丁目７番２号,,13,101,1020083,,,,,,,2023-03-30,1,,,,,アクティブリーシングニジュウゴゴウ,0
1626,8010003040183,新規,0,2023-03-30,2023-03-30,合同会社パズル,,合同会社,東京都,中央区,銀座１丁目１２番４号Ｎ＆ＥＢＬＤ．６Ｆ,,13,102,1040061,,,,,,,2023-03-30,1,,,,,パズル,0
1638,8010401173361,新規,0,2023-03-30,2023-03-30,株式会社ｋ‐ｆｅｅｌｓ,,株式会社,東京都,港区,西麻布１丁目１５番７号,,13,103,1060031,,,,,,,2023-03-30,1,,,,,ケイフィールズ,0
1642,8010403029628,新規,0,2023-03-30,2023-03-30,ＭＡＣ合同会社,,合同会社,東京都,港区,麻布十番３丁目１１番８‐５０１号,,13,103,1060045,,,,,,,2023-03-30,1,,,,,マック,0
1643,8010403029693,新規,0,2023-03-30,2023-03-30,合同会社ＥＤＯＪＯ,,合同会社,東京都,港区,虎ノ門５丁目３番地２０号４１０号室,,13,103,1050001,,,,,,,2023-03-30,1,,,,,エドジョウ,0
1644,8010403029818,新規,0,2023-03-30,2023-03-30,ＳＴＡＣＫ　ＯＣＭ　ＭＬ合同会社,,合同会社,東京都,港区,愛宕２丁目５番１号,,13,103,1050002,,,,,,,2023-03-30,1,,,,,スタックオーシーエムエムエル,0
1645,8010403029826,新規,0,2023-03-30,2023-03-30,日原アセットマネジメント合同会社,,合同会社,東京都,港区,六本木７丁目１５番７号,,13,103,1060032,,,,,,,2023-03-30,1,,,,,ヒハラアセットマネジメント,0
1660,8011001153415,新規,0,2023-03-30,2023-03-30,株式会社Ｂｏａ　Ｓｏｒｕｔｅ,,株式会社,東京都,渋谷区,道玄坂１丁目１２番１号渋谷マークシティＷ２２階,,13,113,1500043,,,,,,,2023-03-30,1,,,,,ボアソルテ,0
1661,8011001153423,新規,0,2023-03-30,2023-03-30,株式会社ビーイングキャリアサポート,,株式会社,東京都,目黒区,青葉台３丁目１８番３号ＴＨＥＷＯＲＫＳ４０３,,13,110,1530042,,,,,,,2023-03-30,1,,,,,ビーイングキャリアサポート,0
1664,8011101102354,新規,0,2023-03-30,2023-03-30,株式会社Ｈａｒｉｉｎｉ．,,株式会社,東京都,新宿区,荒木町３番地,,13,104,1600007,,,,,,,2023-03-30,1,,,,,ハリイニ,0
1665,8011103012881,新規,0,2023-03-30,2023-03-30,合同会社ＲＥＶ９ＪＡＰＡＮ,,合同会社,東京都,新宿区,西新宿３丁目３番１３号西新宿水間ビル６階,,13,104,1600023,,,,,,,2023-03-30,1,,,,,レブナインジャパン,0
1666,8011205002541,新規,0,2023-03-30,2023-03-30,一般社団法人防水アーカイブズ資料館,,その他の設立登記法人,東京都,中野区,新井１丁目３４番１４号,,13,114,1650026,,,,,,,2023-03-30,1,,,,,ボウスイアーカイブズシリョウカン,0
1671,8011701026110,新規,0,2023-03-30,2023-03-30,ＮＩＣＥ　ＲＥＦＯＲＭ株式会社,,株式会社,東京都,江戸川区,中葛西２丁目１９番４号吉橋ハイツ１階,,13,123,1340083,,,,,,,2023-03-30,1,,,,,ナイスリフォーム,0
1674,8012401040335,新規,0,2023-03-30,2023-03-30,株式会社Ｃｉｅｌｏ,,株式会社,東京都,小金井市,本町６丁目１４番２８－１７０５号,,13,210,1840004,,,,,,,2023-03-30,1,,,,,シエロ,0
1675,8012801022222,新規,0,2023-03-30,2023-03-30,ゴウリカマーケティング株式会社,,株式会社,東京都,国分寺市,光町１丁目４１番地５,,13,214,1850034,,,,,,,2023-03-30,1,,,,,ゴウリカマーケティング,0
1680,8020001150875,新規,0,2023-03-30,2023-03-30,株式会社ＳＹＫ,,株式会社,神奈川県,川崎市川崎区,榎町９番４－５０１号,,14,131,2100002,,,,,,,2023-03-30,1,,,,,エスワイケー,0
1686,8020003023559,新規,0,2023-03-30,2023-03-30,ミライプラス合同会社,,合同会社,神奈川県,川崎市多摩区,登戸２４３２－１ＢｌｕｅｗａｔｅｒＢｕｉｌｄｉｎｇ６Ｆ,,14,135,2140014,,,,,,,2023-03-30,1,,,,,ミライプラス,0
1687,8020003023617,新規,0,2023-03-30,2023-03-30,Ｆｕｔｕｒｅ　Ｍｉｎｄｓ　Ｇｒｏｕｐ合同会社,,合同会社,神奈川県,川崎市宮前区,平２丁目１２番１３号,,14,136,2160022,,,,,,,2023-03-30,1,,,,,フューチャーマインズグループ,0
1688,8021001078553,新規,0,2023-03-30,2023-03-30,株式会社Ｍｙファクトリー,,株式会社,神奈川県,相模原市中央区,田名３５８４番地１１,,14,152,2520244,,,,,,,2023-03-30,1,,,,,,0
1696,8030001153076,新規,0,2023-03-30,2023-03-30,株式会社ＭＡＲＵＦＵＭＩ,,株式会社,埼玉県,上尾市,仲町１丁目１１番５０号,,11,219,3620035,,,,,,,2023-03-30,1,,,,,マルフミ,0
1705,8040001127698,新規,0,2023-03-30,2023-03-30,福川株式会社,,株式会社,千葉県,四街道市,大日１６５２番地４,,12,228,2840001,,,,,,,2023-03-30,1,,,,,フクカワ,0
1706,8040001127715,新規,0,2023-03-30,2023-03-30,Ｈｙｐｅｒ　ｓｏｎｉｃ株式会社,,株式会社,千葉県,大網白里市,みずほ台２丁目２５番地１７,,12,239,2993234,,,,,,,2023-03-30,1,,,,,ハイパーソニック,0
1711,8050005013233,新規,0,2023-03-30,2023-03-30,特定非営利活動法人ＤＳＣアカデミー,,その他の設立登記法人,茨城県,土浦市,荒川沖東２丁目８－３,,08,203,3000871,,,,,,,2023-03-30,1,,,,,ディエスシー,0
1714,8060001035825,新規,0,2023-03-30,2023-03-30,株式会社ＳＡＲＦＲＡＺ　ＴＲＡＤＩＮＧ,,株式会社,栃木県,栃木市,岩舟町新里１３０４番地６号,,09,203,3294316,,,,,,,2023-03-30,1,,,,,サルフラズトレーディング,0
1737,8120001253585,新規,0,2023-03-30,2023-03-30,株式会社Ｊミシンソーイング,,株式会社,大阪府,大阪市淀川区,十三東２丁目７番１４号,,27,123,5320023,,,,,,,2023-03-30,1,,,,,ジェイミシンソーイング,0
1739,8120005023522,新規,0,2023-03-30,2023-03-30,特定非営利活動法人ＲＡＦＩＱ,,その他の設立登記法人,大阪府,大阪市淀川区,東三国４丁目９番１３号,,27,123,5320002,,,,,,,2023-03-30,1,,,,,ラフィック,0
1740,8120101067225,新規,0,2023-03-30,2023-03-30,ＡＣＳＩＯＮ株式会社,,株式会社,大阪府,南河内郡太子町,聖和台３丁目３番地の７,,27,381,5830996,,,,,,,2023-03-30,1,,,,,アクシオン,0
1742,8120901047319,新規,0,2023-03-30,2023-03-30,株式会社Ｋｉｎｄ　Ｅａｒｔｈ,,株式会社,大阪府,箕面市,桜ケ丘１丁目１０番４０号の２,,27,220,5620046,,,,,,,2023-03-30,1,,,,,カインドアース,0
1743,8120903004565,新規,0,2023-03-30,2023-03-30,合同会社ｍａｋｅ,,合同会社,大阪府,茨木市,双葉町１０‐１茨木東阪急ビル４Ｆ,,27,211,5670829,,,,,,,2023-03-30,1,,,,,メイク,0
1746,8130001073933,新規,0,2023-03-30,2023-03-30,いづくらホールディングス株式会社,,株式会社,京都府,京都市上京区,上立売通室町西入上る裏風呂町３６３番地,,26,102,6020025,,,,,,,2023-03-30,1,,,,,イヅクラホールディングス,0
1748,8140001129552,新規,0,2023-03-30,2023-03-30,株式会社大阪システム開発,,株式会社,兵庫県,尼崎市,椎堂１丁目１２番１号,,28,202,6610952,,,,,,,2023-03-30,1,,,,,オオサカシステムカイハツ,0
1749,8140001129560,新規,0,2023-03-30,2023-03-30,株式会社ＡＬＵＫＳ,,株式会社,兵庫県,姫路市,飾磨区加茂東７４２番地９,,28,201,6728070,,,,,,,2023-03-30,1,,,,,アルクス,0
1750,8140003018893,新規,0,2023-03-30,2023-03-30,和Ｉｎｔｅｒｎａｔｉｏｎａｌ合同会社,,合同会社,兵庫県,神戸市北区,山田町下谷上字池の内２５番地の１Ｂ２１３,,28,109,6511243,,,,,,,2023-03-30,1,,,,,ナゴミインターナショナル,0
1751,8140003018902,新規,0,2023-03-30,2023-03-30,合同会社そばかす,,合同会社,兵庫県,神戸市中央区,小野柄通５丁目１番１３号,,28,110,6510088,,,,,,,2023-03-30,1,,,,,ソバカス,0
1756,8160001024925,新規,0,2023-03-30,2023-03-30,宏達株式会社,,株式会社,滋賀県,大津市,馬場２丁目７番２２号,,25,201,5200802,,,,,,,2023-03-30,1,,,,,ヒロタツ,0
1757,8160001024933,新規,0,2023-03-30,2023-03-30,株式会社ＡＭＢＡＣＳ,,株式会社,滋賀県,大津市,富士見台２８番４号,,25,201,5200846,,,,,,,2023-03-30,1,,,,,アンバックス,0
1776,8180303005670,新規,0,2023-03-30,2023-03-30,合同会社Ｒｅ．ＮＫ,,合同会社,愛知県,西尾市,一色町一色山荒子３１番地２,,23,213,4440423,,,,,,,2023-03-30,1,,,,,リンク,0
1782,8190001030284,新規,0,2023-03-30,2023-03-30,株式会社ＴＳＵＭＵＧＩ,,株式会社,三重県,津市,新町２丁目５番１８号,,24,201,5140042,,,,,,,2023-03-30,1,,,,,ツムギ,0
1811,8330003009782,新規,0,2023-03-30,2023-03-30,合同会社園村興業,,合同会社,熊本県,宇城市,小川町河江３８８番地,,43,213,8690606,,,,,,,2023-03-30,1,,,,,ソノムラコウギョウ,0
1813,8350001018255,新規,0,2023-03-30,2023-03-30,株式会社フクマル,,株式会社,宮崎県,東諸県郡綾町,大字南俣２１１３番地,,45,383,8801303,,,,,,,2023-03-30,1,,,,,フクマル,0
1822,8380001033573,新規,0,2023-03-30,2023-03-30,ＤＷジャパン株式会社,,株式会社,福島県,福島市,松川町下川崎字梅田３番１,,07,201,9601232,,,,,,,2023-03-30,1,,,,,ディダブリュージャパン,0
1823,8390003002071,新規,0,2023-03-30,2023-03-30,合同会社ａｎｔ,,合同会社,山形県,山形市,美畑町３番２７－３０６号Ｄ’グランセ美畑,,06,201,9902493,,,,,,,2023-03-30,1,,,,,アント,0
1831,8450001013931,新規,0,2023-03-30,2023-03-30,株式会社プリティにゃんこのｍａｒｉｓ．Ｊ,,株式会社,北海道,旭川市,永山六条１１丁目４番１４号,,01,204,0798416,,,,,,,2023-03-30,1,,,,,プリティニャンコノマリーズジェイ,0
1836,8500001024832,新規,0,2023-03-30,2023-03-30,アックワシステムエンジニアリング株式会社,,株式会社,愛媛県,松山市,土居田町７８７番地３オックスフォードサーカス１０１号,,38,201,7900056,,,,,,,2023-03-30,1,,,,,アックワシステムエンジニアリング,0
1837,8700150110421,新規,0,2023-03-30,2022-06-27,Ｌｏｖｅ　ｓｈｏｗｅｒｓ,,その他,神奈川県,横浜市青葉区,若草台１０－８,,14,117,2270045,,,,,,,2022-06-27,1,,,,,ラブシヤワーズ,0
1838,8700150115016,新規,0,2023-03-30,2023-03-28,新潟県居住支援協議会,,その他,新潟県,新潟市中央区,信濃町３－１０,,15,103,9518152,,,,,,,2023-03-28,1,,,,,ニイガタケンキヨジユウシエンキヨウギカイ,0
1839,8700150115073,新規,0,2023-03-30,2023-03-30,美月芬開發股斌有限公司,00129898,外国会社等,東京都,港区,芝浦２丁目９－１ブランズタワー芝浦１１１４号室,,13,103,1080023,台湾新竹市東區關新路２７號１５樓之３,,,,,,2023-03-30,1,,,,,ミツキフンカイハツコフンヨウゲンコウシ,0
1840,8700150115081,新規,0,2023-03-30,2023-03-30,Ａｐａｌｏｎ　ＬＬＣ,,外国会社等,,,,,,,,５５５　Ｗｅｓｔ　１８ｔｈ　Ｓｔｒｅｅｔ，Ｎｅｗ　Ｙｏｒｋ，ＮＹ　１００１１，Ｕｎｉｔｅｄ　Ｓｔａｔｅｓ,,,,,,2023-03-30,1,,,,,アパロンエルエルシー,0
1847,9010001234042,新規,0,2023-03-30,2023-03-30,株式会社ハッピー,,株式会社,東京都,中央区,銀座１丁目２２番１１号銀座大竹ビジデンス２Ｆ,,13,102,1040061,,,,,,,2023-03-30,1,,,,,ハッピー,0
1848,9010001234083,新規,0,2023-03-30,2023-03-30,株式会社ＯＫＡフードコミュニケーションズ,,株式会社,東京都,中央区,勝どき１丁目７番１号勝どきサンスクェア１１０,,13,102,1040054,,,,,,,2023-03-30,1,,,,,オカフードコミュニケーションズ,0
1850,9010003040166,新規,0,2023-03-30,2023-03-30,合同会社ＲＨＹ　ＣＡＰＩＴＡＬ,,合同会社,東京都,中央区,銀座７丁目１５番８号タウンハイツ銀座４０６,,13,102,1040061,,,,,,,2023-03-30,1,,,,,アールエイチワイキャピタル,0
1857,9010401173393,新規,0,2023-03-30,2023-03-30,ペイフォワード株式会社,,株式会社,東京都,港区,南青山６丁目７番１４号,,13,103,1070062,,,,,,,2023-03-30,1,,,,,ペイフォワード,0
1860,9010403029809,新規,0,2023-03-30,2023-03-30,クリプトマネージ合同会社,,合同会社,東京都,港区,高輪４丁目２１‐２９,,13,103,1080074,,,,,,,2023-03-30,1,,,,,クリプトマネージ,0
1861,9010403029825,新規,0,2023-03-30,2023-03-30,合同会社ｏｆｆ　ｔｈｅ　ｇｒｉｄ,,合同会社,東京都,港区,南青山２丁目２番１５号,,13,103,1070062,,,,,,,2023-03-30,1,,,,,オフザグリッド,0
1862,9010405021953,新規,0,2023-03-30,2023-03-30,一般社団法人日本鉱物資源開発協会,,その他の設立登記法人,東京都,港区,赤坂１丁目１４番５号アークヒルズエグゼクティブタワーＳ８０１,,13,103,1070052,,,,,,,2023-03-30,1,,,,,ニホンコウブツシゲンカイハツキョウカイ,0
1871,9010801033809,新規,0,2023-03-30,2023-03-30,株式会社コレクテスト,,株式会社,東京都,大田区,池上３丁目３６－１０－２Ｆ,,13,111,1460082,,,,,,,2023-03-30,1,,,,,コレクテスト,0
1874,9010901052790,新規,0,2023-03-30,2023-03-30,株式会社るりはる,,株式会社,東京都,世田谷区,代田３丁目５８番１２号,,13,112,1550033,,,,,,,2023-03-30,1,,,,,,0
1884,9011001153397,新規,0,2023-03-30,2023-03-30,株式会社ｓ’ａｍｕｓｅｒ,,株式会社,東京都,渋谷区,神宮前２丁目３３－５パークノヴァ３０２,,13,113,1500001,,,,,,,2023-03-30,1,,,,,サミュゼ,0
1885,9011101102312,新規,0,2023-03-30,2023-03-30,日本愛拓瑪思動物生命科学株式会社,,株式会社,東京都,新宿区,百人町２丁目１番４５号赤煉瓦２３３,,13,104,1690073,,,,,,,2023-03-30,1,,,,,ニホンアイタクマスドウブツセイメイカガク,0
1886,9011101102345,新規,0,2023-03-30,2023-03-30,株式会社キリビ,,株式会社,東京都,新宿区,早稲田鶴巻町５２０番地１０,,13,104,1620041,,,,,,,2023-03-30,1,,,,,キリビ,0
1887,9011101102353,新規,0,2023-03-30,2023-03-30,景信達株式会社,,株式会社,東京都,新宿区,榎町３４－３榎町ビル７階－１８室,,13,104,1620806,,,,,,,2023-03-30,1,,,,,ケイシンタツ,0
1889,9011201024530,新規,0,2023-03-30,2023-03-30,株式会社ＳｔａｒＲｅｔｒｅａｔ,,株式会社,東京都,中野区,松が丘１丁目２番１６号,,13,114,1650024,,,,,,,2023-03-30,1,,,,,スターリトリート,0
1890,9011203004035,新規,0,2023-03-30,2023-03-30,合同会社Ｂａｒｕｔａｎ,,合同会社,東京都,中野区,本町１丁目１１－１－４０７,,13,114,1640012,,,,,,,2023-03-30,1,,,,,バルタン,0
1891,9011401025007,新規,0,2023-03-30,2023-03-30,株式会社一粒万倍,,株式会社,東京都,板橋区,若木１丁目２６－９,,13,119,1740065,,,,,,,2023-03-30,1,,,,,イチリュウマンバイ,0
1893,9011801042122,新規,0,2023-03-30,2023-03-30,株式会社日本エコプラスチック,,株式会社,東京都,足立区,入谷９丁目１７番３０－１０３号,,13,121,1210836,,,,,,,2023-03-30,1,,,,,ニホンエコプラスチック,0
1895,9011803005572,新規,0,2023-03-30,2023-03-30,合同会社ＣＳＲコンサルティング,,合同会社,東京都,足立区,西新井４丁目２番１４‐４０５号,,13,121,1230841,,,,,,,2023-03-30,1,,,,,シーエスアールコンサルティング,0
1896,9012301013365,新規,0,2023-03-30,2023-03-30,株式会社エブリワン・コホート,,株式会社,東京都,町田市,山崎町２０５５番地２,,13,209,1950074,,,,,,,2023-03-30,1,,,,,エブリワンコホート,0
1897,9012301013373,新規,0,2023-03-30,2023-03-30,株式会社魁皇,,株式会社,東京都,町田市,南町田５丁目４番１９号プロスタイル南町田,,13,209,1940005,,,,,,,2023-03-30,1,,,,,カイオウ,0
1898,9012401040334,新規,0,2023-03-30,2023-03-30,アイティーオー株式会社,,株式会社,東京都,調布市,染地２丁目９番地７スリーエース調布２０３,,13,208,1820023,,,,,,,2023-03-30,1,,,,,アイティーオー,0
1899,9012701017560,新規,0,2023-03-30,2023-03-30,株式会社ＫＩＮＧＳＰＡＣＥ,,株式会社,東京都,西東京市,富士町４丁目１７番９号東伏見駅北口駅前ビル２階,,13,229,2020014,,,,,,,2023-03-30,1,,,,,キングスペース,0
1901,9013101009140,新規,0,2023-03-30,2023-03-30,フジトレーディング株式会社,,株式会社,東京都,羽村市,富士見平２丁目１４番９号マミーショッピングセンター内,,13,227,2050013,,,,,,,2023-03-30,1,,,,,フジトレーディング,0
1902,9013305003451,新規,0,2023-03-30,2023-03-30,医療法人社団ＡＸＩＡＳ,,その他の設立登記法人,東京都,豊島区,西池袋２丁目３４番８号メゾンＲ大石１０２,,13,116,1710021,,,,,,,2023-03-30,1,,,,,アクシアス,0
1908,9020003023616,新規,0,2023-03-30,2023-03-30,合同会社ＬＯＣＡＴＥ,,合同会社,神奈川県,横浜市磯子区,森が丘１丁目４－２８,,14,107,2350024,,,,,,,2023-03-30,1,,,,,ロケイト,0
1909,9020005015900,新規,0,2023-03-30,2023-03-30,特定非営利活動法人学童の家わんぱく,,その他の設立登記法人,神奈川県,横浜市旭区,本宿町１２番地５,,14,112,2410023,,,,,,,2023-03-30,1,,,,,ガクドウノイエワンパク,0
1910,9020005015909,新規,0,2023-03-30,2023-03-30,鷺沼キリスト福音教会,,その他の設立登記法人,神奈川県,川崎市宮前区,鷺沼１丁目２番地１０,,14,136,2160004,,,,,,,2023-03-30,1,,,,,サギヌマキリストフクインキョウカイ,0
1921,9030001153067,新規,0,2023-03-30,2023-03-30,株式会社亀井自動車,,株式会社,埼玉県,北本市,深井５丁目６１番地２,,11,233,3640001,,,,,,,2023-03-30,1,,,,,カメイジドウシャ,0
1926,9030003021461,新規,0,2023-03-30,2023-03-30,合同会社ｍａｈａｌｏ,,合同会社,埼玉県,行田市,長野４丁目１７番地７,,11,206,3610023,,,,,,,2023-03-30,1,,,,,マハロ,0
1931,9040001127697,新規,0,2023-03-30,2023-03-30,合生医薬株式会社,,株式会社,千葉県,柏市,若柴１７８－４ゲートタワーウエスト２７０３号室,,12,217,2770871,,,,,,,2023-03-30,1,,,,,ゴウセイイヤク,0
1932,9040001127714,新規,0,2023-03-30,2023-03-30,株式会社ＳＯＬＶＥＳＴ,,株式会社,千葉県,成田市,花崎町８００番地６,,12,211,2860033,,,,,,,2023-03-30,1,,,,,ソルベスト,0
1938,9040003022293,新規,0,2023-03-30,2023-03-30,ＮＩＰＰＯＮ　ＡＪ　ＭＯＴＯＲ　ＣＯＭＰＡＮＹ合同会社,,合同会社,千葉県,八街市,文違３０１－１００４,,12,230,2891104,,,,,,,2023-03-30,1,,,,,ニッポンエージェイモーターカンパニー,0
1939,9040003022302,新規,0,2023-03-30,2023-03-30,Ｄａｔａｍｉｚｅ合同会社,,合同会社,千葉県,千葉市美浜区,打瀬１丁目５番地パティオス７番街５１６号,,12,106,2610013,,,,,,,2023-03-30,1,,,,,データマイズ,0
1940,9040003022310,新規,0,2023-03-30,2023-03-30,合同会社Ｃｏｍａｎｉ,,合同会社,千葉県,柏市,南増尾１丁目１５番４号シャルマンフラットリヴァＩＩ３０６,00129905,12,217,2770054,,,,,,,2023-03-30,1,,,,,コマニ,0
1959,9080101023875,新規,0,2023-03-30,2023-03-30,アークフーズ株式会社,,株式会社,静岡県,熱海市,下多賀８４１番地の９,,22,205,4130102,,,,,,,2023-03-30,1,,,,,アークフーズ,0
1961,9080405007533,新規,0,2023-03-30,2023-03-30,医療法人社団ＨＤＣ,,その他の設立登記法人,静岡県,浜松市東区,松小池町１６０番地,,22,132,4350008,,,,,,,2023-03-30,1,,,,,エイチディーシー,0
1974,9120001253460,新規,0,2023-03-30,2023-03-30,シンバモータース株式会社,,株式会社,大阪府,守口市,寺方錦通２丁目６－２１,,27,209,5700042,,,,,,,2023-03-30,1,,,,,シンバモータース,0
1975,9120001253485,新規,0,2023-03-30,2023-03-30,株式会社ｓｃｈｏｌａｓ,,株式会社,大阪府,大阪市北区,梅田２丁目２－２ヒルトンプラザウエストオフィスタワー１９階,,27,127,5300001,,,,,,,2023-03-30,1,,,,,スコラス,0
1976,9120001253543,新規,0,2023-03-30,2023-03-30,株式会社Ｉｃｈｉｒｏｎ‐市郎右衛門,,株式会社,大阪府,枚方市,出屋敷元町１丁目２７番１号,,27,210,5730002,,,,,,,2023-03-30,1,,,,,イチロン,0
1977,9120001253551,新規,0,2023-03-30,2023-03-30,株式会社ＦＭＯ,,株式会社,大阪府,大阪市東成区,深江南１丁目１６番２４－９０５号,,27,115,5370002,,,,,,,2023-03-30,1,,,,,エフエムオー,0
1978,9120001253592,新規,0,2023-03-30,2023-03-30,株式会社ミリオンマインド,,株式会社,大阪府,門真市,島頭３丁目１６－１３,,27,223,5710016,,,,,,,2023-03-30,1,,,,,ミリオンマインド,0
1981,9120003023705,新規,0,2023-03-30,2023-03-30,合同会社支援,,合同会社,大阪府,大阪市天王寺区,堂ケ芝２丁目９番４０号,,27,109,5430033,,,,,,,2023-03-30,1,,,,,シエン,0
1982,9120003023713,新規,0,2023-03-30,2023-03-30,Ｔｈａｏｎｈｉ合同会社,,合同会社,大阪府,大阪市生野区,新今里４丁目１１番２－１０１号,,27,116,5440001,,,,,,,2023-03-30,1,,,,,タオニー,0
1983,9120003023738,新規,0,2023-03-30,2023-03-30,リーベル合同会社,,合同会社,大阪府,大阪市北区,梅田１丁目２番２号大阪駅前第２ビル１２－１２,,27,127,5300001,,,,,,,2023-03-30,1,,,,,リーベル,0
1985,9120103005140,新規,0,2023-03-30,2023-03-30,合同会社大和,,合同会社,大阪府,羽曳野市,西浦６丁目２番２０号,,27,222,5830861,,,,,,,2023-03-30,1,,,,,ヤマト,0
1989,9122001036829,新規,0,2023-03-30,2023-03-30,株式会社オオツキ,,株式会社,大阪府,八尾市,桜ヶ丘１丁目８８番地２０３号,,27,212,5810869,,,,,,,2023-03-30,1,,,,,オオツキ,0
1990,9122003002548,新規,0,2023-03-30,2023-03-30,合同会社カラーズ,,合同会社,大阪府,八尾市,高美町４丁目１２－２４,,27,212,5810017,,,,,,,2023-03-30,1,,,,,カラーズ,0
2002,9130001073932,新規,0,2023-03-30,2023-03-30,株式会社ＲＲ,,株式会社,京都府,京都市東山区,祇園町北側３４７－１８０,,26,105,6050073,,,,,,,2023-03-30,1,,,,,アールアール,0
2003,9130001073957,新規,0,2023-03-30,2023-03-30,株式会社こもれ美,,株式会社,京都府,城陽市,奈島久保野４８番地の４,,26,207,6100116,,,,,,,2023-03-30,1,,,,,コモレビ,0
2005,9130005016730,新規,0,2023-03-30,2023-03-30,農事組合法人京都北ファームパーク,,その他の設立登記法人,京都府,京都市北区,西賀茂西氷室町１８,,26,101,6038854,,,,,,,2023-03-30,1,,,,,キョウトキタファームパーク,0
2011,9140003018868,新規,0,2023-03-30,2023-03-30,合同会社Ｙｕｉｃｈｉｒｏ,,合同会社,兵庫県,明石市,大久保町西島３８８－４,,28,203,6740065,,,,,,,2023-03-30,1,,,,,ユウイチロウ,0
2012,9140003018901,新規,0,2023-03-30,2023-03-30,合同会社Ｎｅｘｔ　Ｓｔａｇｅ,,合同会社,兵庫県,尼崎市,東七松町１丁目１０番１号,,28,202,6600051,,,,,,,2023-03-30,1,,,,,ネクストステージ,0
2017,9160001024924,新規,0,2023-03-30,2023-03-30,株式会社ｏｍｉｉ,,株式会社,滋賀県,草津市,上笠２丁目１２番１号,,25,206,5250028,,,,,,,2023-03-30,1,,,,,オミ,0
2024,9180001155536,新規,0,2023-03-30,2023-03-30,株式会社ＣＩＷＳ,,株式会社,愛知県,江南市,小折本町白山１４６番地２３,,23,217,4838124,,,,,,,2023-03-30,1,,,,,シウス,0
2025,9180001155560,新規,0,2023-03-30,2023-03-30,株式会社ＣＲ建設,,株式会社,愛知県,名古屋市中川区,大当郎２丁目９０６番地,,23,110,4540943,,,,,,,2023-03-30,1,,,,,シーアールケンセツ,0
2034,9190001030275,新規,0,2023-03-30,2023-03-30,株式会社Ｌｉｆｅ　ｐｌａｚａ,,株式会社,三重県,松阪市,東町１２２番地,,24,204,5150012,,,,,,,2023-03-30,1,,,,,ライフプラザ,0
2035,9190001030283,新規,0,2023-03-30,2023-03-30,株式会社森下山業,,株式会社,三重県,津市,稲葉町８３３番地,,24,201,5141252,,,,,,,2023-03-30,1,,,,,モリシタサンギョウ,0
2037,9200001041122,新規,0,2023-03-30,2023-03-30,株式会社ＡＤＶＡＮＣＥ,,株式会社,岐阜県,岐阜市,日ノ出町４丁目１７番地,,21,201,5008876,,,,,,,2023-03-30,1,,,,,アドバンス,0
2048,9240001061265,新規,0,2023-03-30,2023-03-30,株式会社ミクニオルソスタイル,,株式会社,広島県,呉市,焼山松ヶ丘１丁目２番５号,,34,202,7370932,,,,,,,2023-03-30,1,,,,,ミクニオルソスタイル,0
2050,9260001037775,新規,0,2023-03-30,2023-03-30,西粟倉百年の森林でんき株式会社,,株式会社,岡山県,英田郡西粟倉村,大字影石３３番地１,,33,643,7070503,,,,,,,2023-03-30,1,,,,,ニシアワクラヒャクネンノモリデンキ,0
2065,9290003013706,新規,0,2023-03-30,2023-03-30,合同会社ＵＭＩ,,合同会社,福岡県,福岡市中央区,今川２丁目１１番１４号Ｎ２,,40,133,8100054,,,,,,,2023-03-30,1,,,,,ウミ,0
2071,9330003009781,新規,0,2023-03-30,2023-03-30,合同会社ＮＮカンパニー,,合同会社,熊本県,熊本市東区,榎町１１番２３号,,43,102,8620917,,,,,,,2023-03-30,1,,,,,エヌエヌカンパニー,0
2073,9370003006057,新規,0,2023-03-30,2023-03-30,合同会社ＮＳＧ,,合同会社,宮城県,仙台市太白区,四郎丸字大宮６１番地Ｄ－ｒｏｏｍＡＴＥＡＳＥ２０１,,04,104,9811101,,,,,,,2023-03-30,1,,,,,エヌエスジー,0
2084,9430001088735,新規,0,2023-03-30,2023-03-30,株式会社クリーンエコロジーサービス,,株式会社,北海道,札幌市東区,東雁来八条１丁目１２番３０号,,01,103,0070828,,,,,,,2023-03-30,1,,,,,クリーンエコロジーサービス,0
2090,9700150115015,新規,0,2023-03-30,2023-03-28,小千谷市農業再生協議会,,その他,新潟県,小千谷市,城内４丁目１－５５,,15,208,9470028,,,,,,,2023-03-28,1,,,,,オヂヤシノウギヨウサイセイキヨウギカイ,0
2091,9700150115072,新規,0,2023-03-30,2023-03-30,ＭＡＮ　ＳＨＵＮ　ＩＮＤＵＳＴＲＩＡＬ　ＬＩＭＩＴＥＤ,,外国会社等,,,,,,,,ＵＮＩＴ　１５　１１／Ｆ　ＴＯＷＥＲ　Ｂ　ＳＯＵＴＨＭＡＲＫ，１１　ＹＩＰ　ＨＩＮＧ　ＳＴ　ＷＯＮＧ　ＣＨＵＫ　ＨＡＮＧ　ＨＯＮＧ　ＫＯＮＧ,,,,,,2023-03-30,1,,,,,マンシユンインダストリアルリミテツド,0
2092,9700150115080,新規,0,2023-03-30,2023-03-30,Ｃｌｉｍｅ　Ｗｅａｔｈｅｒ　Ｓｅｒｖｉｃｅ　ＬＬＣ,,外国会社等,,,,,,,,５５５　Ｗｅｓｔ　１８ｔｈ　Ｓｔｒｅｅｔ，Ｎｅｗ　Ｙｏｒｋ，ＮＹ　１００１１，Ｕｎｉｔｅｄ　Ｓｔａｔｅｓ,,,,,,2023-03-30,1,,,,,クライムウエザーサービスエルエルシー,0
