sequenceNumber,corporateNumber,process,correct,updateDate,changeDate,name,nameImageId,kind,prefectureName,cityName,streetNumber,addressImageId,prefectureCode,cityCode,postCode,addressOutside,addressOutsideImageId,closeDate,closeCause,successorCorporateNumber,changeCause,assignmentDate,latest,enName,enPrefectureName,enCityName,enAddressOutside,furigana,hihyoji
11,1010003037070,新規,0,2022-02-25,2022-02-25,須磨エクイップメント合同会社,,合同会社,東京都,千代田区,丸の内３丁目１番１号東京共同会計事務所内,,13,101,1000005,,,,,,,2022-02-25,1,,,,,スマエクイップメント,0
22,1010401165786,新規,0,2022-02-25,2022-02-25,クリーン水素投資株式会社,,株式会社,東京都,港区,北青山２丁目５番１号,,13,103,1070061,,,,,,,2022-02-25,1,,,,,クリーンスイソトウシ,0
23,1010401165794,新規,0,2022-02-25,2022-02-25,株式会社サンライト,,株式会社,東京都,港区,三田２丁目１９番１２号,,13,103,1080073,,,,,,,2022-02-25,1,,,,,サンライト,0
24,1010401165803,新規,0,2022-02-25,2022-02-25,のぞみコンサルティング株式会社,,株式会社,東京都,港区,浜松町２丁目２番１５号浜松町ダイヤビル２Ｆ,,13,103,1050013,,,,,,,2022-02-25,1,,,,,ノゾミコンサルティング,0
25,1010401165811,新規,0,2022-02-25,2022-02-25,Ｇ１２３株式会社,,株式会社,東京都,港区,六本木１丁目９番１０号,,13,103,1060032,,,,,,,2022-02-25,1,,,,,ジーイチニサン,0
36,1010803004071,新規,0,2022-02-25,2022-02-25,合同会社ＹＡＭＡＮＥ,,合同会社,東京都,大田区,蒲田１丁目２８番１５－２０１号,,13,111,1440052,,,,,,,2022-02-25,1,,,,,ヤマネ,0
48,1011001145781,新規,0,2022-02-25,2022-02-25,株式会社マシンテック,,株式会社,東京都,渋谷区,恵比寿３丁目４０－１９－１０１,,13,113,1500013,,,,,,,2022-02-25,1,,,,,マシンテック,0
57,1011105010130,新規,0,2022-02-25,2022-02-25,一般社団法人日本国際人材・科技創造協会,,その他の設立登記法人,東京都,新宿区,西新宿７丁目５－１４井上ビル１２号館２０１号,,13,104,1600023,,,,,,,2022-02-25,1,,,,,ニホンコクサイジンザイカギソウゾウキョウカイ,0
66,1011501027785,新規,0,2022-02-25,2022-02-25,株式会社アミ,,株式会社,東京都,北区,赤羽１丁目６４番９号,,13,117,1150045,,,,,,,2022-02-25,1,,,,,アミ,0
72,1011803004978,新規,0,2022-02-25,2022-02-25,合同会社ミラクルスター,,合同会社,東京都,足立区,鹿浜１丁目１４番４号,,13,121,1230864,,,,,,,2022-02-25,1,,,,,ミラクルスター,0
78,1013301048706,新規,0,2022-02-25,2022-02-25,ＡＢＣ株式会社,,株式会社,東京都,豊島区,池袋２丁目５７番６号ＭＣオフィス池袋西口１０２,,13,116,1710014,,,,,,,2022-02-25,1,,,,,エービーシー,0
79,1013305003310,新規,0,2022-02-25,2022-02-25,ＮＰＯ法人こそだてビレッジ,,その他の設立登記法人,東京都,豊島区,南大塚３丁目３６番７号南大塚Ｔ＆Ｔビル７階,,13,116,1700005,,,,,,,2022-02-25,1,,,,,エヌピーオーホウジンコソダテビレッジ,0
81,1020001145394,新規,0,2022-02-25,2022-02-25,株式会社けぱれる,,株式会社,神奈川県,横浜市西区,北幸１丁目１１番１号水信ビル７階,,14,103,2200004,,,,,,,2022-02-25,1,,,,,ケパレル,0
82,1020003021354,新規,0,2022-02-25,2022-02-25,合同会社Ｔｕｓｉｔａ,,合同会社,神奈川県,横浜市鶴見区,駒岡１丁目１０番大倉山ヒルズＡ－４０４号,,14,101,2300071,,,,,,,2022-02-25,1,,,,,トゥシタ,0
85,1021001075193,新規,0,2022-02-25,2022-02-25,株式会社ＷｏＷ　ＳＰＡＣＥ,,株式会社,神奈川県,藤沢市,遠藤４４８９番１０５慶應藤沢イノベーションビレッジ,,14,205,2520816,,,,,,,2022-02-25,1,,,,,ワオスペース,0
86,1021001075276,新規,0,2022-02-25,2022-02-25,株式会社ｉ・あとらす,,株式会社,神奈川県,茅ヶ崎市,東海岸南６丁目４番３７－Ｂ－１１０号パシフィックガーデン茅ヶ崎,,14,207,2530054,,,,,,,2022-02-25,1,,,,,アイアトラス,0
96,1030001146945,新規,0,2022-02-25,2022-02-25,Ａ１ＪＡＰＡＮ株式会社,,株式会社,埼玉県,上尾市,本町２丁目１３－１１,,11,219,3620014,,,,,,,2022-02-25,1,,,,,エーワンジャパン,0
97,1030001146953,新規,0,2022-02-25,2022-02-25,株式会社ＲＩＣＥ　ＶＩＳＩＯＮ,,株式会社,埼玉県,川口市,栄町３丁目２番１号,,11,203,3320017,,,,,,,2022-02-25,1,,,,,ライスヴィジョン,0
98,1030001146961,新規,0,2022-02-25,2022-02-25,株式会社ＢＧＨ,,株式会社,埼玉県,上尾市,愛宕１丁目７番１０号,,11,219,3620034,,,,,,,2022-02-25,1,,,,,ビージーエイチ,0
99,1030001146978,新規,0,2022-02-25,2022-02-25,株式会社ＳＫＹ,,株式会社,埼玉県,さいたま市浦和区,高砂２丁目１３番２１号ヴィアーレ浦和２０２,,11,107,3300063,,,,,,,2022-02-25,1,,,,,スカイ,0
106,1030003018894,新規,0,2022-02-25,2022-02-25,合同会社ヴィー,,合同会社,埼玉県,さいたま市南区,文蔵２丁目１８番５号,,11,108,3360025,,,,,,,2022-02-25,1,,,,,ヴィー,0
107,1030003018903,新規,0,2022-02-25,2022-02-25,アークワン合同会社,,合同会社,埼玉県,越谷市,東大沢３丁目３６番地２,,11,222,3430022,,,,,,,2022-02-25,1,,,,,アークワン,0
115,1040001122334,新規,0,2022-02-25,2022-02-25,株式会社カトルカール,,株式会社,千葉県,白井市,中３５５番地,,12,232,2701406,,,,,,,2022-02-25,1,,,,,カトルカール,0
121,1040005021524,新規,0,2022-02-25,2022-02-25,一般社団法人ＣＯＣＯ　ＰＯＲＴＡ,,その他の設立登記法人,千葉県,千葉市美浜区,磯辺５丁目１５番４－２０３,,12,106,2610012,,,,,,,2022-02-25,1,,,,,ココポルタ,0
124,1050003006393,新規,0,2022-02-25,2022-02-25,合同会社白糸ＩＮＴＥＲＮＡＴＩＯＮＡＬ,,合同会社,茨城県,古河市,関戸１７８６番地８,,08,204,3060205,,,,,,,2022-02-25,1,,,,,シライトインターナショナル,0
128,1080401025637,新規,0,2022-02-25,2022-02-25,株式会社ライツコンサルティング,,株式会社,静岡県,袋井市,上山梨２丁目６番地の６,,22,216,4370125,,,,,,,2022-02-25,1,,,,,ライツコンサルティング,0
134,1110001036460,新規,0,2022-02-25,2022-02-25,株式会社晃進,,株式会社,新潟県,阿賀野市,安野町１１番７号,,15,223,9592003,,,,,,,2022-02-25,1,,,,,コウシン,0
141,1120001244013,新規,0,2022-02-25,2022-02-25,株式会社Ａ－Ｆｒｏｎｔｉｅｒ,,株式会社,大阪府,大阪市阿倍野区,昭和町１丁目５番２６号ＥＢＩＳＵビル４０６,,27,119,5450011,,,,,,,2022-02-25,1,,,,,エーフロンティア,0
142,1120001244021,新規,0,2022-02-25,2022-02-25,株式会社ＬＥＴＣＯｂｉ,,株式会社,大阪府,交野市,倉治５丁目１番３３号,,27,230,5760051,,,,,,,2022-02-25,1,,,,,レトコビーアイ,0
143,1120001244038,新規,0,2022-02-25,2022-02-25,Ｓ＆ＧＭａｒｋｅｔｉｎｇ株式会社,,株式会社,大阪府,大阪市東成区,中道４丁目１番９号,,27,115,5370025,,,,,,,2022-02-25,1,,,,,エスアンドジーマーケティング,0
146,1120003021162,新規,0,2022-02-25,2022-02-25,ＫＵＣＨＡＷＨＯＯ合同会社,,合同会社,大阪府,大阪市港区,池島２丁目３番１３号２０２号室,,27,107,5520015,,,,,,,2022-02-25,1,,,,,クチャフー,0
152,1120101065128,新規,0,2022-02-25,2022-02-25,株式会社ＷＩＮＧＳ,,株式会社,大阪府,貝塚市,二色２丁目５番地コスタミラにしきのはま２棟１００５号室,,27,208,5970091,,,,,,,2022-02-25,1,,,,,ウイングス,0
153,1120901045642,新規,0,2022-02-25,2022-02-25,株式会社ｗｉｔｈ,,株式会社,大阪府,豊中市,上野東１丁目２１番７号,,27,203,5600013,,,,,,,2022-02-25,1,,,,,ウィズ,0
154,1130003007763,新規,0,2022-02-25,2022-02-25,合同会社てんきゅう,,合同会社,京都府,京都市上京区,室町通武者小路下る福長町５３５番地１ｓａｗａｒａｂｉ御所３Ｄ号室,,26,102,6020907,,,,,,,2022-02-25,1,,,,,テンキュウ,0
157,1140001125021,新規,0,2022-02-25,2022-02-25,Ｌｅｎｔｏ株式会社,,株式会社,兵庫県,神戸市中央区,三宮町１丁目６番１１号,,28,110,6500021,,,,,,,2022-02-25,1,,,,,レント,0
158,1140001125038,新規,0,2022-02-25,2022-02-25,株式会社Ｒｅｖｉｓｅ,,株式会社,兵庫県,加古川市,加古川町美乃利１１８－２,,28,210,6750062,,,,,,,2022-02-25,1,,,,,リバイス,0
161,1140003017357,新規,0,2022-02-25,2022-02-25,合同会社Ｔｕｎｉｎｇ　Ａ,,合同会社,兵庫県,明石市,川崎町２番１２－１７２９号,,28,203,6730014,,,,,,,2022-02-25,1,,,,,チューニングエー,0
162,1140003017398,新規,0,2022-02-25,2022-02-25,合同会社ＣＲＡＳ－ＦＩＴ,,合同会社,兵庫県,芦屋市,川西町４番２２号,,28,206,6590072,,,,,,,2022-02-25,1,,,,,クラスフィット,0
163,1140005026042,新規,0,2022-02-25,2022-02-25,一般社団法人医療と暮らしを考える会,,その他の設立登記法人,兵庫県,神戸市中央区,北長狭通４丁目２－１９アムズ元町ビル４Ｆ－２,,28,110,6500012,,,,,,,2022-02-25,1,,,,,イリョウトクラシヲカンガエルカイ,0
164,1150001025360,新規,0,2022-02-25,2022-02-25,株式会社今田重量,,株式会社,奈良県,生駒市,上町２２５４番地１,,29,209,6300131,,,,,,,2022-02-25,1,,,,,イマダジュウリョウ,0
165,1160001024007,新規,0,2022-02-25,2022-02-25,株式会社琵心,,株式会社,滋賀県,彦根市,南川瀬町１６４３番地１,,25,202,5220222,,,,,,,2022-02-25,1,,,,,ビシン,0
181,1180001150040,新規,0,2022-02-25,2022-02-25,ＨＥＡＬＴＨ　ＡＮＤ　ＷＥＬＬＮＥＳＳ　Ｔ．Ｃ．Ｎ株式会社,,株式会社,愛知県,名古屋市千種区,松軒２丁目１０番２８号－１,,23,101,4640084,,,,,,,2022-02-25,1,,,,,ヘルスアンドウェルネスティーシーエヌ,0
182,1180001150123,新規,0,2022-02-25,2022-02-25,株式会社レーヴ,,株式会社,愛知県,名古屋市名東区,平和が丘５丁目９３番地の１０,,23,115,4650097,,,,,,,2022-02-25,1,,,,,レーヴ,0
183,1180005019645,新規,0,2022-02-25,2022-02-25,一般社団法人日本ロシアンビットケア協会,,その他の設立登記法人,愛知県,名古屋市中村区,二ツ橋町３丁目５番地,,23,105,4530813,,,,,,,2022-02-25,1,,,,,ニホンロシアンビットケアキョウカイ,0
184,1180005019653,新規,0,2022-02-25,2022-02-25,一般社団法人ハピネスジャパン,,その他の設立登記法人,愛知県,あま市,甚目寺稲荷１１２番地２,,23,237,4901111,,,,,,,2022-02-25,1,,,,,ハピネスジャパン,0
194,1200001039784,新規,0,2022-02-25,2022-02-25,水本工務店株式会社,,株式会社,岐阜県,岐阜市,茜部野瀬１丁目５番地６,,21,201,5008283,,,,,,,2022-02-25,1,,,,,ミズモトコウムテン,0
196,1200005013315,新規,0,2022-02-25,2022-02-25,筒田事務所社会保険労務士法人,,その他の設立登記法人,岐阜県,関市,西本郷通５丁目６番３０号,,21,205,5013803,,,,,,,2022-02-25,1,,,,,ツツダジムショ,0
198,1240001059374,新規,0,2022-02-25,2022-02-25,アマテラス農園株式会社,,株式会社,広島県,福山市,御幸町大字中津原１４００番地１,,34,207,7200004,,,,,,,2022-02-25,1,,,,,アマテラスノウエン,0
204,1280003001578,新規,0,2022-02-25,2022-02-25,合同会社ＤＩＧＮＩＴＹ,,合同会社,島根県,隠岐郡海士町,大字海士２７８２－２,,32,525,6840403,,,,,,,2022-02-25,1,,,,,ディグニティ,0
210,1290001096561,新規,0,2022-02-25,2022-02-25,株式会社Ｃクリエイト,,株式会社,福岡県,福岡市中央区,御所ヶ谷２番１０号,,40,133,8100027,,,,,,,2022-02-25,1,,,,,シークリエイト,0
213,1290003012178,新規,0,2022-02-25,2022-02-25,プリズムアーチ合同会社,,合同会社,福岡県,みやま市,瀬高町下庄１７１８番地９,,40,229,8350024,,,,,,,2022-02-25,1,,,,,プリズムアーチ,0
214,1290003012194,新規,0,2022-02-25,2022-02-25,Ｍｏｎｉｑｕｅ合同会社,,合同会社,福岡県,八女郡広川町,大字広川７７５番地２,,40,544,8340121,,,,,,,2022-02-25,1,,,,,モニーク,0
215,1290803004069,新規,0,2022-02-25,2022-02-25,合同会社Ａ＆Ａ　Ｕｎｅｌｍａ,,合同会社,福岡県,北九州市小倉北区,下富野５丁目１３番１８号,,40,106,8020023,,,,,,,2022-02-25,1,,,,,エーアンドエーウネルマ,0
221,1320001018909,新規,0,2022-02-25,2022-02-25,株式会社日本緑建,,株式会社,大分県,中津市,大字高瀬２３５番地１０,,44,203,8710026,,,,,,,2022-02-25,1,,,,,ニホンリョッケン,0
224,1320003003735,新規,0,2022-02-25,2022-02-25,マーラマラマ合同会社,,合同会社,大分県,大分市,舞鶴町１丁目７番２－１１０５号（エイルマンション城址公園東）,,44,201,8700044,,,,,,,2022-02-25,1,,,,,マーラマラマ,0
227,1350001017602,新規,0,2022-02-25,2022-02-25,株式会社ＯＫサービス,,株式会社,宮崎県,宮崎市,大工２丁目１７５番地２佐々木ビル２Ｆ,,45,201,8800015,,,,,,,2022-02-25,1,,,,,オーケーサービス,0
228,1360001030034,新規,0,2022-02-25,2022-02-25,株式会社ＳＯＵＴＨＷＥＳＴ　ＨＯＳＰＩＴＡＬＩＴＹ．,,株式会社,沖縄県,那覇市,牧志３丁目９番１０号,,47,201,9000013,,,,,,,2022-02-25,1,,,,,サウスウエストホスピタリティ,0
230,1360005006600,新規,0,2022-02-25,2022-02-25,一般社団法人宜野湾子どもゲンキ食堂,,その他の設立登記法人,沖縄県,宜野湾市,真志喜１丁目１３番地２０号,,47,205,9012224,,,,,,,2022-02-25,1,,,,,ギノワンコドモゲンキショクドウ,0
234,1370001048232,新規,0,2022-02-25,2022-02-25,株式会社１０３８,,株式会社,宮城県,富谷市,富谷新町１１１番１,,04,216,9813311,,,,,,,2022-02-25,1,,,,,トミヤ,0
238,1380001032607,新規,0,2022-02-25,2022-02-25,株式会社三五六,,株式会社,福島県,郡山市,富田町字西原５７番地の１－２０８,,07,203,9638041,,,,,,,2022-02-25,1,,,,,サンゴロウ,0
242,1410003003619,新規,0,2022-02-25,2022-02-25,合同会社丸子川家守舎,,合同会社,秋田県,大仙市,大曲大町２番２４号,,05,212,0140025,,,,,,,2022-02-25,1,,,,,マルコガワヤモリシャ,0
247,1460003000883,新規,0,2022-02-25,2022-02-25,合同会社ＣＯ－ＮＮＥＣＴ,,合同会社,北海道,釧路市,若竹町１７番１９号１０３,,01,206,0850036,,,,,,,2022-02-25,1,,,,,コネクト,0
251,1470005006416,新規,0,2022-02-25,2022-02-25,一般社団法人ナチュラルヒーリングフート協会,,その他の設立登記法人,香川県,三豊市,高瀬町上高瀬１３７０番地４,,37,208,7670001,,,,,,,2022-02-25,1,,,,,ナチュラルヒーリングフートキョウカイ,0
259,1700150107135,新規,0,2022-02-25,2022-02-18,庄内農業農民運動連合会,,その他,山形県,鶴岡市,栃屋字天保恵６５－３,,06,203,9971132,,,,,,,2022-02-18,1,,,,,シヨウナイノウギヨウノウミンウンドウレンゴウカイ,0
276,2010001224735,新規,0,2022-02-25,2022-02-25,ケイズコンサルティング株式会社,,株式会社,東京都,千代田区,三番町３－２パークアクシス三番町２０４,,13,101,1020075,,,,,,,2022-02-25,1,,,,,ケイズコンサルティング,0
277,2010001224768,新規,0,2022-02-25,2022-02-25,株式会社Ｆａｎａｔｉｏｎ,,株式会社,東京都,中央区,銀座１丁目１２－４Ｎ＆Ｅ＿ＢＬＤ．７階,,13,102,1040061,,,,,,,2022-02-25,1,,,,,ファネーション,0
281,2010003037078,新規,0,2022-02-25,2022-02-25,合同会社ＮＴＭＦ,,合同会社,東京都,千代田区,神田佐久間町３丁目２１番５号ヒガシカンダビル３０７号,,13,101,1010025,,,,,,,2022-02-25,1,,,,,エヌティエムエフ,0
291,2010401165793,新規,0,2022-02-25,2022-02-25,株式会社グナ,,株式会社,東京都,港区,西麻布１丁目１５－１ＭＯＲＩＧＵＣＨＩＢＵＩＬＤ２Ｆ,,13,103,1060031,,,,,,,2022-02-25,1,,,,,グナ,0
292,2010401165802,新規,0,2022-02-25,2022-02-25,株式会社学びカンパニー,,株式会社,東京都,港区,芝浦４丁目１２番４４号芝浦ＴＭビル７階,,13,103,1080023,,,,,,,2022-02-25,1,,,,,マナビカンパニー,0
294,2010405020739,新規,0,2022-02-25,2022-02-25,一般社団法人ＳＨ０５６,,その他の設立登記法人,東京都,港区,虎ノ門３丁目２２番１０－２０１号,,13,103,1050001,,,,,,,2022-02-25,1,,,,,エスエイチゼロファイブシックス,0
318,2011001145905,新規,0,2022-02-25,2022-02-25,株式会社レベルアップ,,株式会社,東京都,渋谷区,渋谷２丁目１９－１５宮益坂ビルディング６０９,,13,113,1500002,,,,,,,2022-02-25,1,,,,,レベルアップ,0
319,2011001145913,新規,0,2022-02-25,2022-02-25,Ｇｕａｒｎｅｒｉ株式会社,,株式会社,東京都,渋谷区,広尾１丁目１３番５－９０１号,,13,113,1500012,,,,,,,2022-02-25,1,,,,,グァルネリ,0
323,2011005009437,新規,0,2022-02-25,2022-02-25,一般社団法人外部人材活用協会,,その他の設立登記法人,東京都,渋谷区,代々木１丁目４３番７号ＳＫビル５階,,13,113,1510053,,,,,,,2022-02-25,1,,,,,ガイブジンザイカツヨウキョウカイ,0
329,2011101097947,新規,0,2022-02-25,2022-02-25,株式会社たたふく,,株式会社,東京都,新宿区,西新宿３丁目３番１３号,,13,104,1600023,,,,,,,2022-02-25,1,,,,,タタフク,0
332,2011401024048,新規,0,2022-02-25,2022-02-25,株式会社住宅一家,,株式会社,東京都,板橋区,小豆沢４丁目２４番１８号サンマンション小豆沢８０１号,,13,119,1740051,,,,,,,2022-02-25,1,,,,,ジュウタクイッカ,0
333,2011601025762,新規,0,2022-02-25,2022-02-25,明豊和商事株式会社,,株式会社,東京都,練馬区,田柄４丁目３－２,,13,120,1790073,,,,,,,2022-02-25,1,,,,,メイホウワショウジ,0
336,2011801040363,新規,0,2022-02-25,2022-02-25,ＹＯＮＥＴＯ株式会社,,株式会社,東京都,葛飾区,西新小岩４丁目３６番１７号,,13,122,1240025,,,,,,,2022-02-25,1,,,,,ヨネト,0
337,2011803004977,新規,0,2022-02-25,2022-02-25,合同会社ＲＩＢＥＲＯ,,合同会社,東京都,葛飾区,新小岩１丁目３５－１０,,13,122,1240024,,,,,,,2022-02-25,1,,,,,リベロ,0
341,2012401038888,新規,0,2022-02-25,2022-02-25,株式会社チェルシージャパン,,株式会社,東京都,武蔵野市,吉祥寺南町２丁目１２番２号２０６,,13,203,1800003,,,,,,,2022-02-25,1,,,,,チェルシージャパン,0
342,2012401038896,新規,0,2022-02-25,2022-02-25,株式会社ｐｏｌａｒｅｗｏｎ,,株式会社,東京都,小金井市,東町２丁目４番２－４０５号,,13,210,1840011,,,,,,,2022-02-25,1,,,,,ポラレウォン,0
343,2012403005250,新規,0,2022-02-25,2022-02-25,Ｈ２グローバルパートナーズ合同会社,,合同会社,東京都,小金井市,貫井南町４丁目２４番３号,,13,210,1840014,,,,,,,2022-02-25,1,,,,,エイチツーグローバルパートナーズ,0
345,2012705002292,新規,0,2022-02-25,2022-02-25,一般社団法人前沢記念日本ＳＰレコード保存会,,その他の設立登記法人,東京都,小平市,学園西町３丁目１６番３号,,13,211,1870045,,,,,,,2022-02-25,1,,,,,マエサワキネンニホンエスピーレコードホゾンカイ,0
359,2020001145369,新規,0,2022-02-25,2022-02-25,株式会社アライアンス,,株式会社,神奈川県,横浜市都筑区,川和台１番５３号,,14,118,2240056,,,,,,,2022-02-25,1,,,,,アライアンス,0
360,2020001145385,新規,0,2022-02-25,2022-02-25,株式会社ＳＰＩＬ,,株式会社,神奈川県,横浜市神奈川区,菅田町２８５６番地,,14,102,2210864,,,,,,,2022-02-25,1,,,,,スピル,0
361,2020001145410,新規,0,2022-02-25,2022-02-25,株式会社ＧＯ　ＶＩＳＩＯＮ,,株式会社,神奈川県,横浜市神奈川区,六角橋１丁目２２番８号,,14,102,2210802,,,,,,,2022-02-25,1,,,,,ゴービジョン,0
362,2020003021353,新規,0,2022-02-25,2022-02-25,合同会社虹中,,合同会社,神奈川県,横浜市都筑区,荏田南５丁目１６－９,,14,118,2240007,,,,,,,2022-02-25,1,,,,,ニナカ,0
363,2020003021361,新規,0,2022-02-25,2022-02-25,合同会社日本特電,,合同会社,神奈川県,横浜市神奈川区,羽沢町１６８５番地２,,14,102,2210863,,,,,,,2022-02-25,1,,,,,ニホントクデン,0
368,2021001075267,新規,0,2022-02-25,2022-02-25,コネキス株式会社,,株式会社,神奈川県,鎌倉市,由比ガ浜３丁目４番１５－４０３号,,14,204,2480014,,,,,,,2022-02-25,1,,,,,コネキス,0
369,2021001075275,新規,0,2022-02-25,2022-02-25,株式会社ＡｋａＬａｂ,,株式会社,神奈川県,鎌倉市,西鎌倉１丁目７番２０号,,14,204,2480035,,,,,,,2022-02-25,1,,,,,アカラボ,0
377,2030001146952,新規,0,2022-02-25,2022-02-25,株式会社ＡｌｊｅＱｔｉｏｎ,,株式会社,埼玉県,川口市,上青木５丁目１６番７号２０１号,,11,203,3330844,,,,,,,2022-02-25,1,,,,,アルジェクション,0
378,2030001146960,新規,0,2022-02-25,2022-02-25,株式会社アズテックサービス,,株式会社,埼玉県,深谷市,天神町７番１４号,,11,218,3660027,,,,,,,2022-02-25,1,,,,,アズテックサービス,0
382,2030003018869,新規,0,2022-02-25,2022-02-25,合同会社東京ＨＦＴ,,合同会社,埼玉県,所沢市,西所沢１丁目３－１１アルカディア８（６０５）,,11,208,3591144,,,,,,,2022-02-25,1,,,,,トウキョウエイチエフティー,0
383,2030003018902,新規,0,2022-02-25,2022-02-25,合同会社ＣＭＴ,,合同会社,埼玉県,草加市,小山２丁目２０番１９号,,11,221,3400045,,,,,,,2022-02-25,1,,,,,シーエムティー,0
384,2030003018910,新規,0,2022-02-25,2022-02-25,博生合同会社,,合同会社,埼玉県,草加市,八幡町７３９－１,,11,221,3400006,,,,,,,2022-02-25,1,,,,,ハクショウ,0
385,2030003018919,新規,0,2022-02-25,2022-02-25,ＬＩＮＮＡ合同会社,,合同会社,埼玉県,さいたま市緑区,大字大間木５１２－７,,11,109,3360923,,,,,,,2022-02-25,1,,,,,リンナ,0
393,2040001122309,新規,0,2022-02-25,2022-02-25,株式会社匠フーズ,,株式会社,千葉県,柏市,柏４丁目４番１２号２１世紀第一ビル１Ｆ,,12,217,2770005,,,,,,,2022-02-25,1,,,,,タクミフーズ,0
394,2040001122358,新規,0,2022-02-25,2022-02-25,株式会社ＭＡＲＹ　ＭＥＤＩＴＡＴＩＯＮ,,株式会社,千葉県,千葉市稲毛区,稲毛東２丁目１６番３６号石井貸店舗ビル３Ｆ,,12,103,2630031,,,,,,,2022-02-25,1,,,,,マリーメディテーション,0
395,2040005021523,新規,0,2022-02-25,2022-02-25,医療法人社団産明会,,その他の設立登記法人,千葉県,佐倉市,西志津４丁目２７番地３,,12,212,2850845,,,,,,,2022-02-25,1,,,,,サンメイカイ,0
396,2050003006392,新規,0,2022-02-25,2022-02-25,合同会社ジェネシスコード,,合同会社,茨城県,水戸市,開江町７４３番地２,,08,201,3114144,,,,,,,2022-02-25,1,,,,,ジェネシスコード,0
402,2070001038972,新規,0,2022-02-25,2022-02-25,株式会社フクロウ商会,,株式会社,群馬県,桐生市,新里町新川３５６１番地７,,10,203,3760121,,,,,,,2022-02-25,1,,,,,フクロウショウカイ,0
405,2080001024781,新規,0,2022-02-25,2022-02-25,株式会社ＳＡＫＡＭＯ,,株式会社,静岡県,静岡市葵区,安東２丁目１２番２３号,,22,101,4200882,,,,,,,2022-02-25,1,,,,,サカモ,0
413,2110005016763,新規,0,2022-02-25,2022-02-25,一般社団法人Ｒｅｓｏｒｔ　Ｉｓｌａｎｄ　Ｓａｄｏｇａｓｈｉｍａ,,その他の設立登記法人,新潟県,佐渡市,橘５４４番地１,,15,224,9521644,,,,,,,2022-02-25,1,,,,,リゾートアイランドサドガシマ,0
425,2120001244012,新規,0,2022-02-25,2022-02-25,株式会社たつのき,,株式会社,大阪府,大阪市城東区,蒲生３丁目１１番３号,,27,118,5360016,,,,,,,2022-02-25,1,,,,,タツノキ,0
426,2120001244086,新規,0,2022-02-25,2022-02-25,株式会社ＨＯＳＯＫＡＷＡ,,株式会社,大阪府,大阪市天王寺区,国分町１７番２０号,,27,109,5430044,,,,,,,2022-02-25,1,,,,,ホソカワ,0
427,2120101065119,新規,0,2022-02-25,2022-02-25,株式会社Ｎｉｓｎｅ　Ｉｎｎｏｖａｔｉｏｎ,,株式会社,大阪府,泉大津市,東助松町４丁目５番２２号,,27,206,5950006,,,,,,,2022-02-25,1,,,,,ニスネイノベーション,0
430,2120901045633,新規,0,2022-02-25,2022-02-25,株式会社ブリリアント,,株式会社,大阪府,箕面市,粟生新家１丁目１０番２号,,27,220,5620024,,,,,,,2022-02-25,1,,,,,ブリリアント,0
432,2120903004042,新規,0,2022-02-25,2022-02-25,合同会社びっきー,,合同会社,大阪府,吹田市,昭和町８番１６号－３０２号,,27,205,5640028,,,,,,,2022-02-25,1,,,,,ビッキー,0
438,2130001071216,新規,0,2022-02-25,2022-02-25,株式会社ＹＵＴＡＫＡ,,株式会社,京都府,舞鶴市,天台新町６３番地４,,26,202,6240909,,,,,,,2022-02-25,1,,,,,ユタカ,0
439,2130003007779,新規,0,2022-02-25,2022-02-25,合同会社ヒュンヒュン,,合同会社,京都府,京都市中京区,壬生下溝町３０番地２０・１Ｆ,,26,104,6048832,,,,,,,2022-02-25,1,,,,,ヒュンヒュン,0
442,2140001125004,新規,0,2022-02-25,2022-02-25,株式会社いちらん,,株式会社,兵庫県,神戸市北区,山田町小部字西ノ岡谷１８－９,,28,109,6511101,,,,,,,2022-02-25,1,,,,,イチラン,0
443,2140001125012,新規,0,2022-02-25,2022-02-25,ＲＩＬＬ　ＷＯＲＫＳ株式会社,,株式会社,兵庫県,神戸市中央区,北長狭通２丁目７番１２号ＰＭＰＴビル３０２,,28,110,6500012,,,,,,,2022-02-25,1,,,,,リルワークス,0
455,2180001150106,新規,0,2022-02-25,2022-02-25,株式会社聡輝,,株式会社,愛知県,名古屋市西区,鳥見町１丁目９番地,,23,104,4510071,,,,,,,2022-02-25,1,,,,,ソウキ,0
461,2180003023532,新規,0,2022-02-25,2022-02-25,合同会社ＡＰｌｉｎｋｓ,,合同会社,愛知県,名古屋市昭和区,滝川町４７－３０滝川グランドハイツ竹棟１０１号,,23,107,4660826,,,,,,,2022-02-25,1,,,,,アップリンクス,0
462,2180003023540,新規,0,2022-02-25,2022-02-25,合同会社フレッシュハート,,合同会社,愛知県,名古屋市瑞穂区,白砂町１丁目４７番地,,23,108,4670056,,,,,,,2022-02-25,1,,,,,フレッシュハート,0
464,2180301035948,新規,0,2022-02-25,2022-02-25,株式会社三江,,株式会社,愛知県,知立市,西町亀池３６－２ＯＭビル５０１号,,23,225,4720023,,,,,,,2022-02-25,1,,,,,ミエ,0
465,2180301035956,新規,0,2022-02-25,2022-02-25,ＩＴＯＫＥＮ株式会社,,株式会社,愛知県,豊川市,上長山町西水神平８０番地６６,,23,207,4411202,,,,,,,2022-02-25,1,,,,,イトケン,0
467,2190001029150,新規,0,2022-02-25,2022-02-25,株式会社Ｃｅｎｔｕｒｉａ　Ｃｏｍｐｌｅｘ,,株式会社,三重県,四日市市,城東町１７番３号メゾン西浦３０２,,24,202,5100824,,,,,,,2022-02-25,1,,,,,ケントゥリアコンプレックス,0
468,2190001029159,新規,0,2022-02-25,2022-02-25,カズテック株式会社,,株式会社,三重県,四日市市,松本３丁目１番１９号,,24,202,5100836,,,,,,,2022-02-25,1,,,,,カズテック,0
469,2190005011674,新規,0,2022-02-25,2022-02-25,三重マスジド,,その他の設立登記法人,三重県,津市,栗真町屋町１４２６番地１,,24,201,5140102,,,,,,,2022-02-25,1,,,,,ミエマスジド,0
472,2200001039791,新規,0,2022-02-25,2022-02-25,株式会社ウッド・セブン,,株式会社,岐阜県,加茂郡七宗町,中麻生１０１１番地１,,21,504,5090403,,,,,,,2022-02-25,1,,,,,ウッドセブン,0
473,2200005013314,新規,0,2022-02-25,2022-02-25,白川ワークドット協同組合,,その他の設立登記法人,岐阜県,加茂郡白川町,三川９２３番地４,,21,506,5091113,,,,,,,2022-02-25,1,,,,,シラカワワークドット,0
482,2240001059373,新規,0,2022-02-25,2022-02-25,株式会社ヒロ建工,,株式会社,広島県,広島市西区,井口２丁目１６番６－１１号,,34,104,7330842,,,,,,,2022-02-25,1,,,,,ヒロケンコウ,0
483,2240001059381,新規,0,2022-02-25,2022-02-25,松誠建設株式会社,,株式会社,広島県,広島市東区,上温品４丁目４番２０号,,34,102,7320032,,,,,,,2022-02-25,1,,,,,マツセイケンセツ,0
484,2240003005508,新規,0,2022-02-25,2022-02-25,Ｌａｎｄ　Ｏｃｅａｎ合同会社,,合同会社,広島県,広島市西区,高須台６丁目８番２６号,,34,104,7330876,,,,,,,2022-02-25,1,,,,,ランドオーシャン,0
486,2250003003015,新規,0,2022-02-25,2022-02-25,合同会社いかざき,,合同会社,山口県,周南市,本町２丁目２６番地,,35,215,7450036,,,,,,,2022-02-25,1,,,,,イカザキ,0
487,2250005008722,新規,0,2022-02-25,2022-02-25,一般社団法人サンワールド,,その他の設立登記法人,山口県,宇部市,大字中宇部１７３５－４０,,35,202,7550086,,,,,,,2022-02-25,1,,,,,サンワールド,0
490,2260003003815,新規,0,2022-02-25,2022-02-25,合同会社ヒラオカ,,合同会社,岡山県,津山市,勝部２０番地１４,,33,203,7080804,,,,,,,2022-02-25,1,,,,,ヒラオカ,0
493,2280003001585,新規,0,2022-02-25,2022-02-25,ローカルアーツ合同会社,,合同会社,島根県,安来市,広瀬町西比田１６６３番地１,,32,206,6920731,,,,,,,2022-02-25,1,,,,,ローカルアーツ,0
497,2290001096511,新規,0,2022-02-25,2022-02-25,ＡＴＲＡＣＫ株式会社,,株式会社,福岡県,福岡市博多区,豊１丁目９番２７－１１１号レジデンス１８,,40,132,8120042,,,,,,,2022-02-25,1,,,,,アトラック,0
498,2290001096528,新規,0,2022-02-25,2022-02-25,秋葉コンサルティング株式会社,,株式会社,福岡県,八女郡広川町,大字新代１３６４－１２５,,40,544,8340115,,,,,,,2022-02-25,1,,,,,アキバコンサルティング,0
499,2290001096536,新規,0,2022-02-25,2022-02-25,株式会社サンライク,,株式会社,福岡県,福岡市南区,井尻４丁目２１番１５－７０１号,,40,134,8111302,,,,,,,2022-02-25,1,,,,,サンライク,0
500,2290001096544,新規,0,2022-02-25,2022-02-25,株式会社アップレイズ,,株式会社,福岡県,福岡市城南区,神松寺２丁目１５番２号,,40,136,8140121,,,,,,,2022-02-25,1,,,,,アップレイズ,0
501,2290003012193,新規,0,2022-02-25,2022-02-25,ゲッティングベター・コンサルティング合同会社,,合同会社,福岡県,福岡市早良区,次郎丸２丁目２５－３５－１０５,,40,137,8140165,,,,,,,2022-02-25,1,,,,,ゲッティングベターコンサルティング,0
502,2300001012821,新規,0,2022-02-25,2022-02-25,株式会社オールプランニング,,株式会社,佐賀県,佐賀市,本庄町大字鹿子１４７７－１,,41,201,8400025,,,,,,,2022-02-25,1,,,,,オールプランニング,0
505,2330001029474,新規,0,2022-02-25,2022-02-25,株式会社ＡＬＬ　ＷＩＮ,,株式会社,熊本県,熊本市西区,島崎３丁目１９番４２号,,43,103,8600073,,,,,,,2022-02-25,1,,,,,オールウィン,0
509,2350001017601,新規,0,2022-02-25,2022-02-25,株式会社コンチネンタルデザイン,,株式会社,宮崎県,日向市,向江町２丁目５０番地,,45,206,8830051,,,,,,,2022-02-25,1,,,,,コンチネンタルデザイン,0
514,2370003005593,新規,0,2022-02-25,2022-02-25,鴻飛商事合同会社,,合同会社,宮城県,角田市,角田字錦町５,,04,208,9811505,,,,,,,2022-02-25,1,,,,,コウヒショウジ,0
515,2370005010443,新規,0,2022-02-25,2022-02-25,一般社団法人登米芸術文化村,,その他の設立登記法人,宮城県,登米市,登米町寺池桜小路７６番地２,,04,212,9870702,,,,,,,2022-02-25,1,,,,,トメゲイジュツブンカムラ,0
520,2380001032597,新規,0,2022-02-25,2022-02-25,株式会社Ｒ‐ｇｒｏｕｐ,,株式会社,福島県,いわき市,東田町１丁目２２番地の１８テナント１,,07,204,9748212,,,,,,,2022-02-25,1,,,,,アールグループ,0
521,2380001032606,新規,0,2022-02-25,2022-02-25,株式会社ライズウッド,,株式会社,福島県,田村市,常葉町堀田字川越１６番地１,,07,211,9634611,,,,,,,2022-02-25,1,,,,,ライズウッド,0
529,2430003013656,新規,0,2022-02-25,2022-02-25,合同会社Ｕｎｌｉｍｉｔｅｄ,,合同会社,北海道,札幌市中央区,南十一条西７丁目３番２３号北旺館１１７、２階,,01,101,0640811,,,,,,,2022-02-25,1,,,,,アンリミテッド,0
531,2440003001445,新規,0,2022-02-25,2022-02-25,合同会社オルダ,,合同会社,北海道,函館市,美原５丁目１０番１６号,,01,202,0410806,,,,,,,2022-02-25,1,,,,,オルダ,0
533,2450003002178,新規,0,2022-02-25,2022-02-25,合同会社ＰＯＬＥＲ,,合同会社,北海道,上川郡東川町,西４号北３９番地,,01,458,0711404,,,,,,,2022-02-25,1,,,,,ポーラー,0
534,2460301005047,新規,0,2022-02-25,2022-02-25,株式会社倉吉商店,,株式会社,北海道,網走市,南五条西３丁目１０番地,,01,211,0930015,,,,,,,2022-02-25,1,,,,,クラキチショウテン,0
541,2500001024020,新規,0,2022-02-25,2022-02-25,株式会社Ｑｕａｎｔｕｍ　Ｌｅａｐ,,株式会社,愛媛県,西条市,丹原町古田甲９１３番地,,38,206,7910505,,,,,,,2022-02-25,1,,,,,クォンタムリープ,0
543,2700150056158,新規,0,2022-02-25,2015-10-09,益田建築組合,,その他,島根県,益田市,あけぼの西町４－６,,32,204,6980025,,,,,,,2015-10-09,1,,,,,マスダケンチククミアイ,0
545,2700150105757,新規,0,2022-02-25,2021-11-12,労働保険事務組合東京商工労務福祉協会,,その他,東京都,台東区,上野２丁目１２－１８池之端ヒロハイツ７０２,,13,106,1100005,,,,,,,2021-11-12,1,,,,,ロウドウホケンジムクミアイトウキヨウシヨウコウロウムフクシキヨウカイ,0
546,2700150107191,新規,0,2022-02-25,2022-02-25,ＳＴＪ　Ａｄｖｉｓｏｒｓ　Ｇｒｏｕｐ　Ｌｉｍｉｔｅｄ,,外国会社等,東京都,港区,西新橋１丁目１８番６号,,13,103,1050003,英国、ロンドンＳＷ１Ｙ６ＨＡ、ジャーミンストリート１０８ー１１０、イーグルハウス,,,,,,2022-02-25,1,,,,,エステイージエーアドバイザーズグループリミテツド,0
557,3010001224742,新規,0,2022-02-25,2022-02-25,ＲＡＮＺＵＫＵ株式会社,,株式会社,東京都,中央区,銀座１丁目２２番１１号銀座大竹ビジデンス２階,,13,102,1040061,,,,,,,2022-02-25,1,,,,,ランズク,0
560,3010003037060,新規,0,2022-02-25,2022-02-25,合同会社ブルーマウンテン,,合同会社,東京都,中央区,銀座１丁目２２番１１号銀座大竹ビジデンス２階,,13,102,1040061,,,,,,,2022-02-25,1,,,,,ブルーマウンテン,0
561,3010003037069,新規,0,2022-02-25,2022-02-25,合同会社センクシアホールディングス,,合同会社,東京都,千代田区,丸の内１丁目６番５号,,13,101,1000005,,,,,,,2022-02-25,1,,,,,センクシアホールディングス,0
562,3010003037077,新規,0,2022-02-25,2022-02-25,ＦＥＢ合同会社,,合同会社,東京都,文京区,本郷２丁目３９－７－２０３,,13,105,1130033,,,,,,,2022-02-25,1,,,,,エフイービー,0
564,3010005034634,新規,0,2022-02-25,2022-02-25,須磨エクイップメント一般社団法人,,その他の設立登記法人,東京都,千代田区,丸の内３丁目１番１号東京共同会計事務所内,,13,101,1000005,,,,,,,2022-02-25,1,,,,,スマエクイップメント,0
574,3010405020738,新規,0,2022-02-25,2022-02-25,一般社団法人ＳＨ０５５,,その他の設立登記法人,東京都,港区,虎ノ門３丁目２２番１０－２０１号,,13,103,1050001,,,,,,,2022-02-25,1,,,,,エスエイチゼロファイブファイブ,0
585,3010901050412,新規,0,2022-02-25,2022-02-25,株式会社ｔｓｕｎａｇｕ,,株式会社,東京都,世田谷区,松原４丁目１１番１０－４０９号,,13,112,1560043,,,,,,,2022-02-25,1,,,,,ツナグ,0
598,3011001145870,新規,0,2022-02-25,2022-02-25,株式会社サイバネティックシステムズ,,株式会社,東京都,渋谷区,神宮前６丁目２３番４号桑野ビル２階,,13,113,1500001,,,,,,,2022-02-25,1,,,,,サイバネティックシステムズ,0
599,3011001145904,新規,0,2022-02-25,2022-02-25,株式会社ＵＮＳＥＲ,,株式会社,東京都,渋谷区,松濤１丁目２８－２,,13,113,1500046,,,,,,,2022-02-25,1,,,,,アンサー,0
600,3011001145929,新規,0,2022-02-25,2022-02-25,株式会社日本教育研究所,,株式会社,東京都,渋谷区,桜丘町３１番１４号岡三桜丘ビルＳＬＡＣＫＳＨＩＢＵＹＡ６０３号室,,13,113,1500031,,,,,,,2022-02-25,1,,,,,ニホンキョウイクケンキュウジョ,0
602,3011105010145,新規,0,2022-02-25,2022-02-25,特定非営利活動法人キフジャパン,,その他の設立登記法人,東京都,新宿区,大久保２丁目１番８号プラザ新大樹ビル３０２,,13,104,1690072,,,,,,,2022-02-25,1,,,,,キフジャパン,0
605,3011501027783,新規,0,2022-02-25,2022-02-25,株式会社ＳＰＧ,,株式会社,東京都,荒川区,西日暮里２丁目２１番６号プロスペール日暮里３０２,,13,118,1160013,,,,,,,2022-02-25,1,,,,,エスピージー,0
609,3011601025761,新規,0,2022-02-25,2022-02-25,日本Ｓｉｈｏｏ　Ｉｎｔｅｌｌｉｇｅｎｔ　Ｈｏｍｅ株式会社,,株式会社,東京都,練馬区,中村北１丁目１１番３号フォーラムイン東京３１２号室,,13,120,1760023,,,,,,,2022-02-25,1,,,,,ニホンシホーインテリジェントホーム,0
610,3011701025075,新規,0,2022-02-25,2022-02-25,株式会社三木,,株式会社,東京都,江戸川区,西小岩５丁目１４番７号,,13,123,1330057,,,,,,,2022-02-25,1,,,,,ミツキ,0
615,3012401038887,新規,0,2022-02-25,2022-02-25,株式会社つながり愛,,株式会社,東京都,府中市,宮西町１丁目１８番地の６,,13,206,1830022,,,,,,,2022-02-25,1,,,,,ツナガリアイ,0
627,3020001145401,新規,0,2022-02-25,2022-02-25,株式会社Ｈ．Ｆ．Ｃ．,,株式会社,神奈川県,横浜市中区,福富町仲通３６番地１Ｎｏ．１３末廣ビル２Ｆ,,14,104,2310043,,,,,,,2022-02-25,1,,,,,,0
628,3020003021360,新規,0,2022-02-25,2022-02-25,藍染合同会社,,合同会社,神奈川県,横浜市西区,北幸１丁目１１番１号水信ビル７階,,14,103,2200004,,,,,,,2022-02-25,1,,,,,アイゼン,0
629,3020003021369,新規,0,2022-02-25,2022-02-25,合同会社Ｒｏｐｅｓ,,合同会社,神奈川県,川崎市幸区,幸町１丁目７８０－２クラリッサ川崎ブルーノ５０６,,14,132,2120011,,,,,,,2022-02-25,1,,,,,ロープス,0
631,3021001075266,新規,0,2022-02-25,2022-02-25,株式会社Ａｘｉｓｎｅｔ,,株式会社,神奈川県,藤沢市,長後１２２０番地の４,,14,205,2520801,,,,,,,2022-02-25,1,,,,,アクシスネット,0
632,3021001075274,新規,0,2022-02-25,2022-02-25,株式会社ＡＴＥＳＴ,,株式会社,神奈川県,相模原市緑区,橋本３丁目２７番６号Ｓ＆Ｙビル５階,,14,151,2520143,,,,,,,2022-02-25,1,,,,,アテスト,0
633,3021001075282,新規,0,2022-02-25,2022-02-25,ＪａｍＴｅｃｈ株式会社,,株式会社,神奈川県,相模原市中央区,淵野辺５丁目８番４号１Ｆ,,14,152,2520206,,,,,,,2022-02-25,1,,,,,ジャムテック,0
643,3030001146745,新規,0,2022-02-25,2022-02-25,株式会社てんとうむし,,株式会社,埼玉県,川口市,大字東本郷１２８番地１,,11,203,3340063,,,,,,,2022-02-25,1,,,,,テントウムシ,0
644,3030001146968,新規,0,2022-02-25,2022-02-25,株式会社総合ＥＮＧ,,株式会社,埼玉県,新座市,堀ノ内３丁目８番３３号,,11,230,3520023,,,,,,,2022-02-25,1,,,,,ソウゴウエンジ,0
645,3030001146992,新規,0,2022-02-25,2022-02-25,Ａｌｐｉｎｉａ株式会社,,株式会社,埼玉県,大里郡寄居町,大字三品３９８番地１,,11,408,3691232,,,,,,,2022-02-25,1,,,,,アルピニア,0
646,3030001147000,新規,0,2022-02-25,2022-02-25,東勝商事株式会社,,株式会社,埼玉県,加須市,川口４丁目８－２,,11,210,3470014,,,,,,,2022-02-25,1,,,,,トウショウショウジ,0
649,3030003018892,新規,0,2022-02-25,2022-02-25,合同会社ＰＲｉＳＭ　Ｌａｂ,,合同会社,埼玉県,狭山市,笹井３丁目２１番１４号,,11,215,3501327,,,,,,,2022-02-25,1,,,,,プリズムラボ,0
650,3030003018901,新規,0,2022-02-25,2022-02-25,合同会社グラウンドツールス,,合同会社,埼玉県,草加市,八幡町１０１５番地９,,11,221,3400006,,,,,,,2022-02-25,1,,,,,グラウンドツールス,0
651,3030003018918,新規,0,2022-02-25,2022-02-25,ｅｃｏ　ｍｏｂｉｌｉｔｙ　ｊａｐａｎ合同会社,,合同会社,埼玉県,戸田市,笹目４丁目５番１５号,,11,224,3350034,,,,,,,2022-02-25,1,,,,,エコモビリティジャパン,0
659,3040001122308,新規,0,2022-02-25,2022-02-25,Ｔ＆Ａ　Ｌａｂｏｒａｔｏｒｙ株式会社,,株式会社,千葉県,千葉市中央区,新町１番地１３木村ビル３Ｆ－Ａ,,12,101,2600028,,,,,,,2022-02-25,1,,,,,ティーアンドエーラボラトリー,0
660,3040001122357,新規,0,2022-02-25,2022-02-25,株式会社カリカリーナ,,株式会社,千葉県,館山市,神余４４２７－１０６,,12,205,2940023,,,,,,,2022-02-25,1,,,,,カリカリーナ,0
666,3040003019568,新規,0,2022-02-25,2022-02-25,合同会社サウザンドフィールド,,合同会社,千葉県,千葉市花見川区,幕張町５丁目４１７－１７エステシティ海浜幕張３番館１０５号,,12,102,2620032,,,,,,,2022-02-25,1,,,,,サウザンドフィールド,0
672,3040005021522,新規,0,2022-02-25,2022-02-25,医療法人社団ヴィータフェリーチェ,,その他の設立登記法人,千葉県,柏市,若柴１番地８１,,12,217,2770871,,,,,,,2022-02-25,1,,,,,ヴィータフェリーチェ,0
673,3050001050680,新規,0,2022-02-25,2022-02-25,ＨＩＲＵＫＯ株式会社,,株式会社,茨城県,坂東市,菅谷１０６１番地,,08,228,3060505,,,,,,,2022-02-25,1,,,,,ヒルコ,0
681,3080001024780,新規,0,2022-02-25,2022-02-25,株式会社一真,,株式会社,静岡県,榛原郡吉田町,住吉５４３６番地の５１３,,22,424,4210301,,,,,,,2022-02-25,1,,,,,イッシン,0
684,3080101023121,新規,0,2022-02-25,2022-02-25,株式会社ＺＥ１,,株式会社,静岡県,三島市,文教町１丁目９番１１号,,22,206,4110033,,,,,,,2022-02-25,1,,,,,ゼットイーワン,0
687,3080401025635,新規,0,2022-02-25,2022-02-25,株式会社ＨＡＰＰＹ,,株式会社,静岡県,菊川市,嶺田４８８番地,,22,224,4371522,,,,,,,2022-02-25,1,,,,,ハッピー,0
688,3080403004471,新規,0,2022-02-25,2022-02-25,ＰＯＲＴＡＳ　ＡＢＥＲＴＡＳ合同会社,,合同会社,静岡県,磐田市,中泉１５２８－６,,22,211,4380078,,,,,,,2022-02-25,1,,,,,ポルタスアベルタス,0
694,3110001036434,新規,0,2022-02-25,2022-02-25,株式会社ＦＩＴ　ＰＬＡＣＥ,,株式会社,新潟県,上越市,寺町３丁目１６－８,,15,222,9430892,,,,,,,2022-02-25,1,,,,,フィットプレイス,0
695,3110001036459,新規,0,2022-02-25,2022-02-25,バックス株式会社,,株式会社,新潟県,新潟市中央区,長潟１丁目１１番１４号１,,15,103,9500932,,,,,,,2022-02-25,1,,,,,バックス,0
704,3120001244028,新規,0,2022-02-25,2022-02-25,株式会社クリエイトピナクル,,株式会社,大阪府,大阪市北区,西天満４丁目１１番２号ＡＸＩＳＬＩＦＥＵＭＥＤＡ１２０２号室,,27,127,5300047,,,,,,,2022-02-25,1,,,,,クリエイトピナクル,0
705,3120001244044,新規,0,2022-02-25,2022-02-25,株式会社ランカー,,株式会社,大阪府,大阪市中央区,鎗屋町１丁目１番１号,,27,128,5400027,,,,,,,2022-02-25,1,,,,,ランカー,0
708,3120003021177,新規,0,2022-02-25,2022-02-25,ＫＯＵＴＡ合同会社,,合同会社,大阪府,大阪市北区,西天満５丁目１番１９号,,27,127,5300047,,,,,,,2022-02-25,1,,,,,コウタ,0
709,3120003021193,新規,0,2022-02-25,2022-02-25,Ｋ合同会社,,合同会社,大阪府,大阪市東成区,中道１丁目７－３２レ・ジェイド森ノ宮６０３,,27,115,5370025,,,,,,,2022-02-25,1,,,,,ケー,0
712,3120901045640,新規,0,2022-02-25,2022-02-25,株式会社ＡＮＥＬＡ,,株式会社,大阪府,吹田市,千里丘上３１番１６号,,27,205,5650811,,,,,,,2022-02-25,1,,,,,アネラ,0
719,3130001071198,新規,0,2022-02-25,2022-02-25,株式会社あまて,,株式会社,京都府,舞鶴市,字朝代１番地１,,26,202,6240842,,,,,,,2022-02-25,1,,,,,アマテ,0
724,3140001125036,新規,0,2022-02-25,2022-02-25,株式会社振興開発,,株式会社,兵庫県,小野市,鹿野町２３２３番地,,28,218,6751364,,,,,,,2022-02-25,1,,,,,シンコウカイハツ,0
727,3140003017388,新規,0,2022-02-25,2022-02-25,和ライフクリエイション合同会社,,合同会社,兵庫県,豊岡市,日高町岩中６４２番地の６,,28,209,6695302,,,,,,,2022-02-25,1,,,,,ワライフクリエイション,0
728,3140005026049,新規,0,2022-02-25,2022-02-25,一般社団法人日本ネイチャリスト協会,,その他の設立登記法人,兵庫県,芦屋市,船戸町５番２６号マリヤキャリーヌビル,,28,206,6590093,,,,,,,2022-02-25,1,,,,,ニホンネイチャリストキョウカイ,0
733,3160003002504,新規,0,2022-02-25,2022-02-25,合同会社Ｈｏｌｉｓｍ,,合同会社,滋賀県,栗東市,小柿８丁目３番１８号,,25,208,5203024,,,,,,,2022-02-25,1,,,,,ホーリズム,0
739,3180001150096,新規,0,2022-02-25,2022-02-25,ＳＫ株式会社,,株式会社,愛知県,名古屋市東区,東桜２丁目３番７号,,23,102,4610005,,,,,,,2022-02-25,1,,,,,エスケー,0
740,3180001150121,新規,0,2022-02-25,2022-02-25,株式会社ＳＡＲＯＯＭ,,株式会社,愛知県,名古屋市東区,泉１丁目２３番１号ＶＯＩＣＥビル３Ｆ,,23,102,4610001,,,,,,,2022-02-25,1,,,,,サルーム,0
741,3180003023531,新規,0,2022-02-25,2022-02-25,大恵合同会社,,合同会社,愛知県,瀬戸市,蛭子町１０番地の１６,,23,204,4890826,,,,,,,2022-02-25,1,,,,,ダイケイ,0
742,3180005019651,新規,0,2022-02-25,2022-02-25,特定非営利活動法人医療・保健・福祉ネット・みらいま,,その他の設立登記法人,愛知県,名古屋市熱田区,花町２番２号アルファメゾン沢上３０２号,,23,109,4560011,,,,,,,2022-02-25,1,,,,,イリョウホケンフクシネットミライマ,0
744,3180301035955,新規,0,2022-02-25,2022-02-25,株式会社ｎｅｃｏ,,株式会社,愛知県,岡崎市,牧平町字ゲンノウ５番地１,,23,202,4443624,,,,,,,2022-02-25,1,,,,,ネコ,0
748,3190001029158,新規,0,2022-02-25,2022-02-25,株式会社プライムサポート,,株式会社,三重県,鈴鹿市,岡田３丁目６番２０号,,24,207,5130027,,,,,,,2022-02-25,1,,,,,プライムサポート,0
752,3220001024709,新規,0,2022-02-25,2022-02-25,株式会社ファンカンパニー,,株式会社,石川県,能美市,倉重町戊８番地１,,17,211,9231246,,,,,,,2022-02-25,1,,,,,ファンカンパニー,0
754,3230001019253,新規,0,2022-02-25,2022-02-25,株式会社市場保険事務所,,株式会社,富山県,富山市,大泉町１丁目６番１７号大泉根塚ビルＦ号,,16,201,9398087,,,,,,,2022-02-25,1,,,,,イチバホケンジムショ,0
757,3240001059372,新規,0,2022-02-25,2022-02-25,株式会社真輝,,株式会社,広島県,福山市,南松永町１丁目６番１４号,,34,207,7290105,,,,,,,2022-02-25,1,,,,,シンキ,0
758,3240001059380,新規,0,2022-02-25,2022-02-25,ＧＭ　ａｎｄ　Ｓｕｎ株式会社,,株式会社,広島県,広島市西区,庚午中４丁目１９番２６号－２０１,,34,104,7330822,,,,,,,2022-02-25,1,,,,,ジーエムアンドサン,0
765,3260003003806,新規,0,2022-02-25,2022-02-25,合同会社まる,,合同会社,岡山県,都窪郡早島町,早島７５１－１,,33,423,7010304,,,,,,,2022-02-25,1,,,,,マル,0
766,3260003003814,新規,0,2022-02-25,2022-02-25,オネスト合同会社,,合同会社,岡山県,津山市,戸川町１２番地戸川乃宿２Ｆ,,33,203,7080037,,,,,,,2022-02-25,1,,,,,オネスト,0
776,3290001096519,新規,0,2022-02-25,2022-02-25,株式会社ＭＡＨＡＬＯ,,株式会社,福岡県,柳川市,三橋町棚町３２０番地４,,40,207,8320813,,,,,,,2022-02-25,1,,,,,マハロ,0
777,3290001096551,新規,0,2022-02-25,2022-02-25,株式会社クロス・シップ,,株式会社,福岡県,福岡市中央区,大名２丁目１番４３号,,40,133,8100041,,,,,,,2022-02-25,1,,,,,クロスシップ,0
779,3290003012192,新規,0,2022-02-25,2022-02-25,いやしｎｏみちしるべ合同会社,,合同会社,福岡県,福岡市東区,和白丘３丁目６番２８号,,40,131,8110213,,,,,,,2022-02-25,1,,,,,イヤシノミチシルベ,0
786,3340005009413,新規,0,2022-02-25,2022-02-25,特定非営利活動法人霧島エール会,,その他の設立登記法人,鹿児島県,霧島市,国分広瀬２丁目２０番５１号,,46,218,8994321,,,,,,,2022-02-25,1,,,,,キリシマエールカイ,0
787,3350003004035,新規,0,2022-02-25,2022-02-25,合同会社Ｔ－Ａｗａｋｅｎｉｎｇ,,合同会社,宮崎県,宮崎市,広島２丁目３番８号松山ビル２階,,45,201,8800806,,,,,,,2022-02-25,1,,,,,ティーアウェイクニング,0
789,3370001048230,新規,0,2022-02-25,2022-02-25,株式会社ランドワーク・グループ,,株式会社,宮城県,宮城郡松島町,松島字小梨屋２番地の１４,,04,401,9810213,,,,,,,2022-02-25,1,,,,,ランドワークグループ,0
790,3370005010442,新規,0,2022-02-25,2022-02-25,農事組合法人南大ファーム,,その他の設立登記法人,宮城県,加美郡色麻町,大字小原１１番地,,04,444,9814131,,,,,,,2022-02-25,1,,,,,ミナミダイファーム,0
792,3380001032596,新規,0,2022-02-25,2022-02-25,株式会社ＰＬＡＮＮＩＮＧ・創,,株式会社,福島県,郡山市,富田町字向舘６８番地,,07,203,9638041,,,,,,,2022-02-25,1,,,,,,0
793,3380001032605,新規,0,2022-02-25,2022-02-25,株式会社桜華,,株式会社,福島県,双葉郡富岡町,小浜４９７番地４１,,07,543,9791111,,,,,,,2022-02-25,1,,,,,オウカ,0
796,3430001086050,新規,0,2022-02-25,2022-02-25,株式会社クラフト熊谷,,株式会社,北海道,札幌市西区,八軒五条東４丁目４番２５－１０３号,,01,107,0630865,,,,,,,2022-02-25,1,,,,,クラフトクマガイ,0
797,3430001086067,新規,0,2022-02-25,2022-02-25,株式会社ＰｌｕｓＦｒｅｅ,,株式会社,北海道,札幌市中央区,北四条西４丁目１－７ＭＭＳ札幌駅前ビル１Ｆ,,01,101,0600004,,,,,,,2022-02-25,1,,,,,プラスフリー,0
805,3480001011656,新規,0,2022-02-25,2022-02-25,株式会社多田屋,,株式会社,徳島県,徳島市,津田浜之町１番２５号,,36,201,7708005,,,,,,,2022-02-25,1,,,,,タダヤ,0
807,3700150106936,新規,0,2022-02-25,2022-02-04,坂本学区まちづくり協議会,,その他,滋賀県,大津市,坂本６丁目１－１２,,25,201,5200113,,,,,,,2022-02-04,1,,,,,サカモトガツクマチヅクリキヨウギカイ,0
818,4010001224799,新規,0,2022-02-25,2022-02-25,株式会社パークホームズ・プラス,,株式会社,東京都,中央区,京橋１丁目６－１３,,13,102,1040031,,,,,,,2022-02-25,1,,,,,パークホームズプラス,0
822,4010003037092,新規,0,2022-02-25,2022-02-25,Ｋｒｏｔｒａ合同会社,,合同会社,東京都,中央区,銀座７丁目１３－６サガミビル２Ｆ,,13,102,1040061,,,,,,,2022-02-25,1,,,,,クロトラ,0
827,4010401165635,新規,0,2022-02-25,2022-02-25,株式会社ＡＹＵＭＩ,,株式会社,東京都,港区,六本木３丁目１１番２号ルーフ六本木３Ｆ,,13,103,1060032,,,,,,,2022-02-25,1,,,,,アユミ,0
828,4010401165800,新規,0,2022-02-25,2022-02-25,株式会社Ｏｎ　ｔｈｅ　Ｂｅａｃｈ,,株式会社,東京都,港区,赤坂２丁目１４－１１－７１１,,13,103,1070052,,,,,,,2022-02-25,1,,,,,オンザビーチ,0
829,4010401165809,新規,0,2022-02-25,2022-02-25,株式会社ＴＭＴ,,株式会社,東京都,港区,六本木３丁目１３番１２号エルサビル３０１,,13,103,1060032,,,,,,,2022-02-25,1,,,,,ティーエムティー,0
830,4010405020745,新規,0,2022-02-25,2022-02-25,一般社団法人Ｍｏｎ　Ｔａｌｉｓｍａｎ,,その他の設立登記法人,東京都,港区,虎ノ門５丁目１番４号,,13,103,1050001,,,,,,,2022-02-25,1,,,,,モンタリスマン,0
835,4010701042294,新規,0,2022-02-25,2022-02-25,株式会社味凜,,株式会社,東京都,品川区,上大崎２丁目１８－２５,,13,109,1410021,,,,,,,2022-02-25,1,,,,,ミリン,0
836,4010801032765,新規,0,2022-02-25,2022-02-25,株式会社三元,,株式会社,東京都,大田区,東糀谷５丁目１９番１号,,13,111,1440033,,,,,,,2022-02-25,1,,,,,ミツモト,0
844,4010901050411,新規,0,2022-02-25,2022-02-25,株式会社らくらく介護テラス,,株式会社,東京都,世田谷区,千歳台６丁目１６番７－１１６号,,13,112,1570071,,,,,,,2022-02-25,1,,,,,ラクラクカイゴテラス,0
855,4011001145903,新規,0,2022-02-25,2022-02-25,株式会社ｍｏｄｉｕｍ,,株式会社,東京都,目黒区,八雲５丁目６番１９号コートハウス八雲３０６,,13,110,1520023,,,,,,,2022-02-25,1,,,,,モーディアム,0
859,4011003014214,新規,0,2022-02-25,2022-02-25,合同会社一葉,,合同会社,東京都,渋谷区,東１丁目３２番１２号渋谷プロパティータワー１０階,,13,113,1500011,,,,,,,2022-02-25,1,,,,,イチハ,0
863,4011105010144,新規,0,2022-02-25,2022-02-25,一般社団法人日本コミュニケーション心理セラピー協会,,その他の設立登記法人,東京都,新宿区,新宿５丁目１８番２０－８０３号,,13,104,1600022,,,,,,,2022-02-25,1,,,,,ニホンコミュニケーションシンリセラピーキョウカイ,0
866,4011401024046,新規,0,2022-02-25,2022-02-25,株式会社ミカタ,,株式会社,東京都,板橋区,南常盤台１丁目１１番６号レフア南常盤台１０１号室,,13,119,1740072,,,,,,,2022-02-25,1,,,,,ミカタ,0
867,4011403003576,新規,0,2022-02-25,2022-02-25,合同会社和佳,,合同会社,東京都,板橋区,仲町２２－３津軽ハイツ２０１,,13,119,1730022,,,,,,,2022-02-25,1,,,,,ワカ,0
868,4011501027790,新規,0,2022-02-25,2022-02-25,株式会社ＧＯＷＬ,,株式会社,東京都,荒川区,南千住３丁目２番１４号,,13,118,1160003,,,,,,,2022-02-25,1,,,,,ゴウル,0
874,4012701016947,新規,0,2022-02-25,2022-02-25,株式会社Ｂｅｌｌｅ　ｄｅｓｉｇｎ,,株式会社,東京都,東久留米市,滝山５丁目１２番２号,,13,222,2030033,,,,,,,2022-02-25,1,,,,,ベルデザイン,0
875,4012801021368,新規,0,2022-02-25,2022-02-25,株式会社未来設計Ｌａｂ,,株式会社,東京都,日野市,旭が丘６丁目１０－２８,,13,212,1910065,,,,,,,2022-02-25,1,,,,,ミライセッケイラボ,0
878,4013103001109,新規,0,2022-02-25,2022-02-25,合同会社ｃｒｅｓｃｅｎｔ,,合同会社,東京都,福生市,大字福生８８７－６星野マンション２０２,,13,218,1970011,,,,,,,2022-02-25,1,,,,,クレシェント,0
879,4013301048711,新規,0,2022-02-25,2022-02-25,Ａ．ＳＫＹ　ｅｓｔａｔｅ株式会社,,株式会社,東京都,豊島区,西池袋１丁目５番４号,,13,116,1710021,,,,,,,2022-02-25,1,,,,,エースカイエステート,0
880,4013301048728,新規,0,2022-02-25,2022-02-25,株式会社ＧＬＯＢＡＬ　ＣＯＮＮＥＣＴ,,株式会社,東京都,豊島区,高松３丁目１０番３号,,13,116,1710042,,,,,,,2022-02-25,1,,,,,グローバルコネクト,0
881,4013303006048,新規,0,2022-02-25,2022-02-25,シムリジェンス合同会社,,合同会社,東京都,豊島区,高田３丁目３－１６東方高田ビル３０４号室,,13,116,1710033,,,,,,,2022-02-25,1,,,,,シムリジェンス,0
884,4020001145359,新規,0,2022-02-25,2022-02-25,華栄株式会社,,株式会社,神奈川県,横浜市泉区,上飯田町４６１７－８,,14,116,2450018,,,,,,,2022-02-25,1,,,,,カエイ,0
885,4020001145367,新規,0,2022-02-25,2022-02-25,ＴＯ’ｍａｎａｇｅｍｅｎｔ株式会社,,株式会社,神奈川県,川崎市宮前区,犬蔵２丁目３４番１０－４０４号,,14,136,2160011,,,,,,,2022-02-25,1,,,,,トゥーマネジメント,0
886,4020001145375,新規,0,2022-02-25,2022-02-25,サンエム興産株式会社,,株式会社,神奈川県,横浜市中区,宮川町２丁目２７－２第３前田ビル２階５号室,,14,104,2310065,,,,,,,2022-02-25,1,,,,,,0
887,4020001145400,新規,0,2022-02-25,2022-02-25,株式会社ＩＷＡＫＥ,,株式会社,神奈川県,横浜市青葉区,荏子田２丁目１８番地３１,,14,117,2250005,,,,,,,2022-02-25,1,,,,,イワケ,0
888,4020001145409,新規,0,2022-02-25,2022-02-25,株式会社勇健,,株式会社,神奈川県,川崎市高津区,久末２９８番地１３,,14,134,2130026,,,,,,,2022-02-25,1,,,,,ユウケン,0
892,4021001075273,新規,0,2022-02-25,2022-02-25,ＧＡＭＡ株式会社,,株式会社,神奈川県,相模原市南区,東林間３丁目３－４,,14,153,2520311,,,,,,,2022-02-25,1,,,,,ガマ,0
898,4030001146950,新規,0,2022-02-25,2022-02-25,株式会社ケイアール,,株式会社,埼玉県,上尾市,大字大谷本郷３５６番地９,,11,219,3620044,,,,,,,2022-02-25,1,,,,,ケイアール,0
899,4030001146959,新規,0,2022-02-25,2022-02-25,株式会社ｃｏｃｏｒｉ,,株式会社,埼玉県,白岡市,高岩１３０５番地４,,11,246,3490213,,,,,,,2022-02-25,1,,,,,ココリ,0
900,4030001146967,新規,0,2022-02-25,2022-02-25,Ｈｙｐｅ　Ａｄ　Ｃｏｍｐａｎｙ株式会社,,株式会社,埼玉県,川口市,大字西立野５５３番地の１ブラン・レザン５０３,,11,203,3330813,,,,,,,2022-02-25,1,,,,,ハイプアドカンパニー,0
901,4030001146975,新規,0,2022-02-25,2022-02-25,株式会社ＲＮＳ’３３,,株式会社,埼玉県,志木市,上宗岡３丁目２番２０号,,11,228,3530001,,,,,,,2022-02-25,1,,,,,ランズサンサン,0
907,4030003018900,新規,0,2022-02-25,2022-02-25,ＭＩＫＵＲＡ　ＨＯＭＥ合同会社,,合同会社,埼玉県,草加市,高砂１丁目１０－１０,,11,221,3400015,,,,,,,2022-02-25,1,,,,,ミクラホーム,0
908,4030003018909,新規,0,2022-02-25,2022-02-25,野牛ふくし合同会社,,合同会社,埼玉県,白岡市,新白岡７丁目６番地７,,11,246,3490212,,,,,,,2022-02-25,1,,,,,ヤギュウフクシ,0
909,4030003018917,新規,0,2022-02-25,2022-02-25,ライブネットファイナンスリース合同会社,,合同会社,埼玉県,深谷市,成塚３６２番地８,,11,218,3660018,,,,,,,2022-02-25,1,,,,,ライブネットファイナンスリース,0
921,4040001122348,新規,0,2022-02-25,2022-02-25,株式会社ツーエスラボ,,株式会社,千葉県,習志野市,谷津３丁目２９－２谷津遊園ハイツＢ２０６,,12,216,2750026,,,,,,,2022-02-25,1,,,,,ツーエスラボ,0
947,4110001036458,新規,0,2022-02-25,2022-02-25,株式会社ｈｉｃｅｅ,,株式会社,新潟県,新潟市西区,寺地５４４－２１,,15,107,9501104,,,,,,,2022-02-25,1,,,,,ハイシー,0
961,4120001243986,新規,0,2022-02-25,2022-02-25,ヤスエステート株式会社,,株式会社,大阪府,大阪市中央区,瓦屋町３丁目２番２０－１００２号,,27,128,5420066,,,,,,,2022-02-25,1,,,,,ヤスエステート,0
962,4120001244019,新規,0,2022-02-25,2022-02-25,株式会社四季,,株式会社,大阪府,大阪市西区,靱本町１丁目１８番７号,,27,106,5500004,,,,,,,2022-02-25,1,,,,,シキ,0
963,4120001244027,新規,0,2022-02-25,2022-02-25,株式会社ハガクレ,,株式会社,大阪府,大阪市鶴見区,今津北５丁目１４番１８号,,27,124,5380041,,,,,,,2022-02-25,1,,,,,ハガクレ,0
964,4120001244051,新規,0,2022-02-25,2022-02-25,株式会社ジャパン・アシスタンス,,株式会社,大阪府,大阪市西成区,天下茶屋３丁目１３－１９－２０２,,27,122,5570014,,,,,,,2022-02-25,1,,,,,ジャパンアシスタンス,0
965,4120001244068,新規,0,2022-02-25,2022-02-25,スクリュー株式会社,,株式会社,大阪府,大阪市北区,芝田１丁目１４－８梅田北プレイス２Ｆ,,27,127,5300012,,,,,,,2022-02-25,1,,,,,スクリュー,0
970,4120101065117,新規,0,2022-02-25,2022-02-25,株式会社ＬａＲｍＥ,,株式会社,大阪府,岸和田市,春木若松町７番２６号,,27,202,5960006,,,,,,,2022-02-25,1,,,,,ラルム,0
971,4120101065125,新規,0,2022-02-25,2022-02-25,株式会社豊和自動車,,株式会社,大阪府,堺市美原区,丹上２８０番地２,,27,147,5870011,,,,,,,2022-02-25,1,,,,,ホウワジドウシャ,0
973,4120103004592,新規,0,2022-02-25,2022-02-25,合同会社花ひらく,,合同会社,大阪府,堺市南区,桃山台１丁３番３５－２０７号,,27,145,5900141,,,,,,,2022-02-25,1,,,,,ハナヒラク,0
975,4120901045623,新規,0,2022-02-25,2022-02-25,株式会社あかつき,,株式会社,大阪府,吹田市,青葉丘北１４－１,,27,205,5650801,,,,,,,2022-02-25,1,,,,,アカツキ,0
982,4130001071180,新規,0,2022-02-25,2022-02-25,株式会社フルガード,,株式会社,京都府,宇治市,平尾台１丁目１番地の４,,26,204,6110003,,,,,,,2022-02-25,1,,,,,フルガード,0
990,4140001125002,新規,0,2022-02-25,2022-02-25,株式会社ＭＡＲＵＩ,,株式会社,兵庫県,神戸市中央区,浜辺通６丁目１－１－１３２４,,28,110,6510083,,,,,,,2022-02-25,1,,,,,マルイ,0
991,4140001125019,新規,0,2022-02-25,2022-02-25,株式会社ＩＯＲＩＴＥＮ,,株式会社,兵庫県,尼崎市,南武庫之荘７丁目２２番１５号ソレイユ南武庫之荘１０３,,28,202,6610033,,,,,,,2022-02-25,1,,,,,イオリテン,0
992,4140003017387,新規,0,2022-02-25,2022-02-25,合同会社ｍａａＤｅｆｔ,,合同会社,兵庫県,明石市,船上町９―８―１８,,28,203,6730026,,,,,,,2022-02-25,1,,,,,マーデフト,0
993,4150001025358,新規,0,2022-02-25,2022-02-25,株式会社中野醸造,,株式会社,奈良県,橿原市,中町２６７番地,,29,205,6340009,,,,,,,2022-02-25,1,,,,,ナカノジョウゾウ,0
994,4170001016990,新規,0,2022-02-25,2022-02-25,株式会社ほっこり,,株式会社,和歌山県,和歌山市,湊４丁目６番１０号,,30,201,6408404,,,,,,,2022-02-25,1,,,,,ホッコリ,0
995,4170005006947,新規,0,2022-02-25,2022-02-25,一般社団法人イナンナ・イマジネーション,,その他の設立登記法人,和歌山県,和歌山市,桑山１４６番地３,,30,201,6400345,,,,,,,2022-02-25,1,,,,,イナンナイマジネーション,0
1005,4180005019650,新規,0,2022-02-25,2022-02-25,一般社団法人ハピネスハウス,,その他の設立登記法人,愛知県,名古屋市守山区,小幡北２１１９番地,,23,113,4630008,,,,,,,2022-02-25,1,,,,,ハピネスハウス,0
1013,4180305009302,新規,0,2022-02-25,2022-02-25,税理士法人ＷＩＺ,,その他の設立登記法人,愛知県,豊橋市,東松山町１２３番地の２,,23,201,4400874,,,,,,,2022-02-25,1,,,,,ウィズ,0
1017,4200001039773,新規,0,2022-02-25,2022-02-25,株式会社ふどう,,株式会社,岐阜県,美濃市,松栄町２丁目４５番地,,21,207,5013752,,,,,,,2022-02-25,1,,,,,フドウ,0
1018,4200001039781,新規,0,2022-02-25,2022-02-25,株式会社ＢＩＭＢＬＥ,,株式会社,岐阜県,高山市,久々野町山梨２３０９番地,,21,203,5093206,,,,,,,2022-02-25,1,,,,,ビンブル,0
1019,4210001018818,新規,0,2022-02-25,2022-02-25,株式会社ＡＫＭ,,株式会社,福井県,福井市,東今泉町第２号１１番地６,,18,201,9188214,,,,,,,2022-02-25,1,,,,,エーケーエム,0
1020,4230001019252,新規,0,2022-02-25,2022-02-25,株式会社華未来カンパニー,,株式会社,富山県,富山市,呉羽町１番地４６,,16,201,9300138,,,,,,,2022-02-25,1,,,,,ハナミライカンパニー,0
1032,4260005011038,新規,0,2022-02-25,2022-02-25,ＮＰＯ法人妊娠しぇるとＳＯＳ,,その他の設立登記法人,岡山県,岡山市南区,新福１丁目１６番８号,,33,104,7000943,,,,,,,2022-02-25,1,,,,,ニンシンシェルトエスオーエス,0
1044,4290001096542,新規,0,2022-02-25,2022-02-25,株式会社隆雲,,株式会社,福岡県,福岡市博多区,博多駅前３丁目１５番１０－３０１号,,40,132,8120011,,,,,,,2022-02-25,1,,,,,リュウウン,0
1048,4310003004285,新規,0,2022-02-25,2022-02-25,合同会社ホースアイズ,,合同会社,長崎県,長崎市,田中町１５６４番地５マリーハイツホンダパートＩ２０３号,,42,201,8510134,,,,,,,2022-02-25,1,,,,,ホースアイズ,0
1052,4330001029464,新規,0,2022-02-25,2022-02-25,株式会社ワンエイト,,株式会社,熊本県,玉名郡南関町,大字下坂下４８２１番地１,,43,367,8610821,,,,,,,2022-02-25,1,,,,,ワンエイト,0
1054,4330003009258,新規,0,2022-02-25,2022-02-25,合同会社ＪＲＴみかん,,合同会社,熊本県,八代市,坂本町鮎帰ほ１２１９,,43,202,8696104,,,,,,,2022-02-25,1,,,,,ジェイアールティーミカン,0
1055,4330003009266,新規,0,2022-02-25,2022-02-25,合同会社ＭＡＫＯＴＯ,,合同会社,熊本県,菊池郡菊陽町,光の森４丁目３４７９番地１１,,43,404,8691108,,,,,,,2022-02-25,1,,,,,マコト,0
1057,4350003004034,新規,0,2022-02-25,2022-02-25,エース警備合同会社,,合同会社,宮崎県,えびの市,大字坂元１１９－６,,45,209,8894312,,,,,,,2022-02-25,1,,,,,エースケイビ,0
1061,4370001048246,新規,0,2022-02-25,2022-02-25,株式会社ニアファー,,株式会社,宮城県,仙台市青葉区,中央２丁目２番３０号日興ビル３Ｆ,,04,101,9800021,,,,,,,2022-02-25,1,,,,,ニアファー,0
1064,4370003005600,新規,0,2022-02-25,2022-02-25,合同会社Ｗｅｌｌｖｙ,,合同会社,宮城県,宮城郡利府町,青葉台２丁目２番地７４,,04,406,9810133,,,,,,,2022-02-25,1,,,,,ウェルヴィー,0
1070,4380001032604,新規,0,2022-02-25,2022-02-25,ニトリ電機株式会社,,株式会社,福島県,郡山市,八山田５丁目２８１番地,,07,203,9638052,,,,,,,2022-02-25,1,,,,,ニトリデンキ,0
1078,4420001017749,新規,0,2022-02-25,2022-02-25,株式会社成田商会,,株式会社,青森県,つがる市,森田町山田村雲１７番地１,,02,209,0382815,,,,,,,2022-02-25,1,,,,,ナリタショウカイ,0
1084,4430003013654,新規,0,2022-02-25,2022-02-25,サッポロパッグ合同会社,,合同会社,北海道,札幌市東区,丘珠町５８３番地４,,01,103,0070880,,,,,,,2022-02-25,1,,,,,サッポロパッグ,0
1087,4480001011655,新規,0,2022-02-25,2022-02-25,株式会社ちよがまるＡＣ,,株式会社,徳島県,徳島市,大原町千代ケ丸２４番地の１,,36,201,7708012,,,,,,,2022-02-25,1,,,,,チヨガマルエーシー,0
1090,4500001024019,新規,0,2022-02-25,2022-02-25,株式会社ＳｔａｎｄＲｏｃｋ,,株式会社,愛媛県,伊予市,中村１７５番地２,,38,210,7993123,,,,,,,2022-02-25,1,,,,,スタンドロック,0
1093,4700150107198,新規,0,2022-02-25,2022-02-25,高松東南部土地改良区,,その他,香川県,高松市,由良町３７２－１７,,37,201,7610441,,,,,,,2022-02-25,1,,,,,タカマツトウナンブトチカイリヨウク,0
1104,5010003037075,新規,0,2022-02-25,2022-02-25,合同会社Ｖｏｌｅｒｅ,,合同会社,東京都,文京区,小石川５丁目６番９－１００８号,,13,105,1120002,,,,,,,2022-02-25,1,,,,,ボレーレ,0
1105,5010003037083,新規,0,2022-02-25,2022-02-25,合同会社ワイズオフィス,,合同会社,東京都,中央区,築地２丁目１番２号,,13,102,1040045,,,,,,,2022-02-25,1,,,,,ワイズオフィス,0
1115,5010401165816,新規,0,2022-02-25,2022-02-25,株式会社ｏｐｅｎ　ａｒｔ,,株式会社,東京都,港区,南青山２丁目２番１５号,,13,103,1070062,,,,,,,2022-02-25,1,,,,,オープンアート,0
1117,5010403027155,新規,0,2022-02-25,2022-02-25,合同会社Ｍｏｎ　Ｔａｌｉｓｍａｎ,,合同会社,東京都,港区,虎ノ門５丁目１番４号,,13,103,1050001,,,,,,,2022-02-25,1,,,,,モンタリスマン,0
1118,5010403027163,新規,0,2022-02-25,2022-02-25,ＳＣＧ６９合同会社,,合同会社,東京都,港区,虎ノ門４丁目１番２８号,,13,103,1050001,,,,,,,2022-02-25,1,,,,,エスシージーシックスティナイン,0
1120,5010405020744,新規,0,2022-02-25,2022-02-25,一般社団法人日本メディカルアライアンス,,その他の設立登記法人,東京都,港区,西麻布３丁目２番３３号,,13,103,1060031,,,,,,,2022-02-25,1,,,,,ニホンメディカルアライアンス,0
1127,5010901050427,新規,0,2022-02-25,2022-02-25,株式会社ｔａｂｂｙ,,株式会社,東京都,世田谷区,玉川３丁目２０番４号,,13,112,1580094,,,,,,,2022-02-25,1,,,,,タビー,0
1140,5011001145778,新規,0,2022-02-25,2022-02-25,テックスクール株式会社,,株式会社,東京都,渋谷区,渋谷１丁目３番９号ヒューリック渋谷一丁目ビル７階,,13,113,1500002,,,,,,,2022-02-25,1,,,,,テックスクール,0
1141,5011001145877,新規,0,2022-02-25,2022-02-25,株式会社アミューレコンサルティング,,株式会社,東京都,渋谷区,道玄坂１丁目２１番１号ＳＨＩＢＵＹＡＳＯＬＡＳＴＡ３階,,13,113,1500043,,,,,,,2022-02-25,1,,,,,アミューレコンサルティング,0
1142,5011001145919,新規,0,2022-02-25,2022-02-25,ブライツ株式会社,,株式会社,東京都,渋谷区,神宮前６丁目２３番４号桑野ビル２階,,13,113,1500001,,,,,,,2022-02-25,1,,,,,ブライツ,0
1147,5011101097936,新規,0,2022-02-25,2022-02-25,株式会社誠川舎,,株式会社,東京都,新宿区,新小川町８番３２号,,13,104,1620814,,,,,,,2022-02-25,1,,,,,セイセンシャ,0
1148,5011103011507,新規,0,2022-02-25,2022-02-25,Ｆｕｅｎｔｅ合同会社,,合同会社,東京都,新宿区,神楽坂３丁目６ヤマダビル４階,,13,104,1620825,,,,,,,2022-02-25,1,,,,,フエンテ,0
1150,5011201023668,新規,0,2022-02-25,2022-02-25,株式会社辰巳土木,,株式会社,東京都,中野区,大和町２丁目７番３－２０４号,,13,114,1650034,,,,,,,2022-02-25,1,,,,,タツミドボク,0
1151,5011203003759,新規,0,2022-02-25,2022-02-25,合同会社ＣＡＴＬＥＡ,,合同会社,東京都,中野区,新井４丁目１５番５－６０５号,,13,114,1650026,,,,,,,2022-02-25,1,,,,,キャットレア,0
1159,5011403003583,新規,0,2022-02-25,2022-02-25,合同会社ＯｎｅＡｎｄＯｎｌｙ,,合同会社,東京都,板橋区,南常盤台１丁目１１番６号レフア南常盤台１０１号室,,13,119,1740072,,,,,,,2022-02-25,1,,,,,ワンアンドオンリー,0
1160,5011501027781,新規,0,2022-02-25,2022-02-25,株式会社もぐべりー,,株式会社,東京都,荒川区,東日暮里１丁目１番４－４０２号,,13,118,1160014,,,,,,,2022-02-25,1,,,,,モグベリー,0
1166,5012801021417,新規,0,2022-02-25,2022-02-25,株式会社ウイングシールド,,株式会社,東京都,昭島市,宮沢町２丁目３９番３８号,,13,207,1960024,,,,,,,2022-02-25,1,,,,,ウイングシールド,0
1169,5013301048702,新規,0,2022-02-25,2022-02-25,株式会社ＳＵＮＮＹ,,株式会社,東京都,豊島区,東池袋２丁目４番８号宮谷ビル,,13,116,1700013,,,,,,,2022-02-25,1,,,,,サニー,0
1170,5013301048710,新規,0,2022-02-25,2022-02-25,株式会社はぎもコンサルティング,,株式会社,東京都,豊島区,東池袋３丁目２３番２２－１３０６号,,13,116,1700013,,,,,,,2022-02-25,1,,,,,ハギモコンサルティング,0
1174,5020001145341,新規,0,2022-02-25,2022-02-25,株式会社ニックナック横浜,,株式会社,神奈川県,横浜市磯子区,磯子６丁目４１番５号,,14,107,2350016,,,,,,,2022-02-25,1,,,,,ニックナックヨコハマ,0
1175,5020001145358,新規,0,2022-02-25,2022-02-25,ワンズ・プレイス株式会社,,株式会社,神奈川県,横浜市青葉区,市ケ尾町１１６５番地２４,,14,117,2250024,,,,,,,2022-02-25,1,,,,,ワンズプレイス,0
1176,5020001145408,新規,0,2022-02-25,2022-02-25,株式会社ゴールドコンパス,,株式会社,神奈川県,横浜市都筑区,早渕１丁目２番４－３０４号,,14,118,2240025,,,,,,,2022-02-25,1,,,,,ゴールドコンパス,0
1181,5021001075272,新規,0,2022-02-25,2022-02-25,株式会社ＴＳＵＮＡＧＵ,,株式会社,神奈川県,相模原市南区,上鶴間４丁目２７番３号,,14,153,2520302,,,,,,,2022-02-25,1,,,,,ツナグ,0
1187,5021003011432,新規,0,2022-02-25,2022-02-25,アモト合同会社,,合同会社,神奈川県,三浦郡葉山町,長柄８８８－９,,14,301,2400113,,,,,,,2022-02-25,1,,,,,アモト,0
1197,5030001146958,新規,0,2022-02-25,2022-02-25,株式会社ダイコク地所,,株式会社,埼玉県,さいたま市大宮区,桜木町４丁目３２１番地３ドミール桜木２０１号室,,11,103,3300854,,,,,,,2022-02-25,1,,,,,ダイコクチショ,0
1198,5030001146982,新規,0,2022-02-25,2022-02-25,株式会社コタロー,,株式会社,埼玉県,川越市,脇田新町１０番地１４,,11,201,3501121,,,,,,,2022-02-25,1,,,,,コタロー,0
1199,5030001146999,新規,0,2022-02-25,2022-02-25,おうちで工房株式会社,,株式会社,埼玉県,さいたま市浦和区,常盤３丁目１１番１５－１１０４号,,11,107,3300061,,,,,,,2022-02-25,1,,,,,オウチデコウボウ,0
1200,5030003018866,新規,0,2022-02-25,2022-02-25,ＪＣ国際貿易合同会社,,合同会社,埼玉県,熊谷市,広瀬１２２,,11,202,3600833,,,,,,,2022-02-25,1,,,,,ジェーシーコクサイボウエキ,0
1201,5030003018916,新規,0,2022-02-25,2022-02-25,合同会社Ａｍａｉｎ,,合同会社,埼玉県,三郷市,彦野１丁目４０番地１,,11,237,3410052,,,,,,,2022-02-25,1,,,,,アメイン,0
1211,5040001122289,新規,0,2022-02-25,2022-02-25,株式会社田村工業,,株式会社,千葉県,君津市,杢師１丁目８番８号,,12,225,2991163,,,,,,,2022-02-25,1,,,,,タムラコウギョウ,0
1216,5050001050670,新規,0,2022-02-25,2022-02-25,株式会社Ｓｈｏｅ　ｍａｋｅｒ　ＳＡＫＡＭＯＴＯ,,株式会社,茨城県,稲敷郡美浦村,大字美駒２５００番地２開業装蹄所１－１,,08,442,3000415,,,,,,,2022-02-25,1,,,,,シューメーカーサカモト,0
1221,5060005009951,新規,0,2022-02-25,2022-02-25,特定非営利活動法人みんなの学び場おやま,,その他の設立登記法人,栃木県,小山市,宮本町３丁目２番１７号,,09,208,3230024,,,,,,,2022-02-25,1,,,,,ミンナノマナビバオヤマ,0
1229,5100003006426,新規,0,2022-02-25,2022-02-25,ＯＮＥＲＯＡ合同会社,,合同会社,長野県,下高井郡野沢温泉村,大字豊郷９５３５番地,,20,563,3892502,,,,,,,2022-02-25,1,,,,,オネロア,0
1231,5110001036457,新規,0,2022-02-25,2022-02-25,株式会社越里,,株式会社,新潟県,魚沼市,小平尾５７１２番地１,,15,225,9460101,,,,,,,2022-02-25,1,,,,,エツリ,0
1239,5120001243936,新規,0,2022-02-25,2022-02-25,ＫＹＣ株式会社,,株式会社,大阪府,大阪市北区,堂山町２－１３マルナカビル２階,,27,127,5300027,,,,,,,2022-02-25,1,,,,,ケイワイシー,0
1240,5120001244042,新規,0,2022-02-25,2022-02-25,株式会社ｃａｒｉｎｏ　ｌｉｌｙ,,株式会社,大阪府,大阪市城東区,関目６丁目１番２５－１１４号,,27,118,5360008,,,,,,,2022-02-25,1,,,,,カリーノリリー,0
1241,5120001244067,新規,0,2022-02-25,2022-02-25,株式会社Ｌｅｓｔ,,株式会社,大阪府,大阪市西区,西本町１丁目９番１６－５０２号,,27,106,5500005,,,,,,,2022-02-25,1,,,,,レスト,0
1243,5120005022816,新規,0,2022-02-25,2022-02-25,一般社団法人大阪透析研究会,,その他の設立登記法人,大阪府,大阪市阿倍野区,旭町１丁目４番３号,,27,119,5450051,,,,,,,2022-02-25,1,,,,,オオサカトウセキケンキュウカイ,0
1246,5120101065116,新規,0,2022-02-25,2022-02-25,そうだんしえん株式会社,,株式会社,大阪府,岸和田市,小松里町２０７５番地パレスＮＥＧＯＲＯＩ１０５号室,00125801,27,202,5960821,,,,,,,2022-02-25,1,,,,,ソウダンシエン,0
1247,5120101065124,新規,0,2022-02-25,2022-02-25,株式会社ツジモト,,株式会社,大阪府,羽曳野市,恵我之荘５丁目２番１５号,,27,222,5830886,,,,,,,2022-02-25,1,,,,,ツジモト,0
1250,5120901045614,新規,0,2022-02-25,2022-02-25,株式会社トレコ,,株式会社,大阪府,吹田市,藤白台４丁目３－３,,27,205,5650873,,,,,,,2022-02-25,1,,,,,トレコ,0
1251,5120903004048,新規,0,2022-02-25,2022-02-25,合同会社アールグレイ,,合同会社,大阪府,吹田市,江坂町１丁目１３番４６－１１０１号,,27,205,5640063,,,,,,,2022-02-25,1,,,,,アールグレイ,0
1253,5122003002279,新規,0,2022-02-25,2022-02-25,合同会社ＴＡＩＴＡＩ,,合同会社,大阪府,東大阪市,稲葉２丁目１番３号,,27,227,5780925,,,,,,,2022-02-25,1,,,,,タイタイ,0
1254,5130001071213,新規,0,2022-02-25,2022-02-25,セルファクター株式会社,,株式会社,京都府,京都市左京区,吉田下阿逹町４６番地２９,,26,103,6060000,,,,,,,2022-02-25,1,,,,,セルファクター,0
1259,5140001125034,新規,0,2022-02-25,2022-02-25,株式会社ＨＥＲＯ自動車,,株式会社,兵庫県,南あわじ市,榎列松田５０４番地１,,28,224,6560427,,,,,,,2022-02-25,1,,,,,ヒーロージドウシャ,0
1260,5140001125042,新規,0,2022-02-25,2022-02-25,株式会社サウザー,,株式会社,兵庫県,西宮市,産所町６番３号,,28,204,6620978,,,,,,,2022-02-25,1,,,,,サウザー,0
1263,5150001025357,新規,0,2022-02-25,2022-02-25,株式会社Ｒｏｃｋｙ,,株式会社,奈良県,奈良市,矢田原町１６０８番地,,29,201,6302166,,,,,,,2022-02-25,1,,,,,ロッキー,0
1264,5150003002627,新規,0,2022-02-25,2022-02-25,合同会社ＥＮＯ,,合同会社,奈良県,奈良市,西九条町１丁目４番地の１７,,29,201,6308453,,,,,,,2022-02-25,1,,,,,イーエヌオー,0
1271,5180001150061,新規,0,2022-02-25,2022-02-25,株式会社バードテクノ,,株式会社,愛知県,一宮市,伝法寺３丁目３番地６,,23,203,4910828,,,,,,,2022-02-25,1,,,,,バードテクノ,0
1272,5180001150103,新規,0,2022-02-25,2022-02-25,森本実業株式会社,,株式会社,愛知県,名古屋市中区,栄１丁目１６－１６－７０２,,23,106,4600008,,,,,,,2022-02-25,1,,,,,モリモトジツギョウ,0
1273,5180001150136,新規,0,2022-02-25,2022-02-25,株式会社Ｇｌａｄ　Ｗｏｒｋｓ,,株式会社,愛知県,春日井市,上条町１０丁目１７８番地１,,23,206,4860833,,,,,,,2022-02-25,1,,,,,グラッドワークス,0
1274,5180003023513,新規,0,2022-02-25,2022-02-25,合同会社ＭＩＬＳＥＥＤ,,合同会社,愛知県,春日井市,上条町２丁目１４３番地１プリンスハイツ春日井南１０２号,,23,206,4860833,,,,,,,2022-02-25,1,,,,,ミルシード,0
1275,5180303005260,新規,0,2022-02-25,2022-02-25,ＧＲＡＣＥＡフード合同会社,,合同会社,愛知県,蒲郡市,水竹町東後所１２番地１メゾンプルミエ１０１,,23,214,4430005,,,,,,,2022-02-25,1,,,,,グレーシアフード,0
1281,5200005013311,新規,0,2022-02-25,2022-02-25,一般社団法人宏友会,,その他の設立登記法人,岐阜県,大垣市,平町２４３番地２,,21,202,5030841,,,,,,,2022-02-25,1,,,,,コウユウカイ,0
1287,5240003005521,新規,0,2022-02-25,2022-02-25,Ｇｏｏｄ　Ａｒｔ合同会社,,合同会社,広島県,広島市安佐北区,上深川町７１６番地１,,34,106,7391752,,,,,,,2022-02-25,1,,,,,グッドアート,0
1292,5260003003820,新規,0,2022-02-25,2022-02-25,合同会社紡屋,,合同会社,岡山県,岡山市中区,福泊６２番地９,,33,102,7038262,,,,,,,2022-02-25,1,,,,,ツムギヤ,0
1303,5290001096541,新規,0,2022-02-25,2022-02-25,株式会社Ｇｒｅｅｎ　Ｏｃｅａｎ,,株式会社,福岡県,福岡市中央区,荒戸１丁目１番４号１Ｆ,,40,133,8100062,,,,,,,2022-02-25,1,,,,,グリーンオーシャン,0
1305,5300003001794,新規,0,2022-02-25,2022-02-25,ｐｒａｌｉｎｅ合同会社,,合同会社,佐賀県,佐賀市,兵庫北５丁目８番１－２０５号オーヴィジョン夢咲,,41,201,8490919,,,,,,,2022-02-25,1,,,,,プラリーヌ,0
1306,5320001018921,新規,0,2022-02-25,2022-02-25,株式会社ＴＫＴ,,株式会社,大分県,大分市,都町２丁目５番２２－２０１号,,44,201,8700034,,,,,,,2022-02-25,1,,,,,ティーケーティー,0
1312,5330001029471,新規,0,2022-02-25,2022-02-25,株式会社ｍｅｌｉｍｅｌｏ,,株式会社,熊本県,玉名郡玉東町,大字木葉５３２番地１,,43,364,8690303,,,,,,,2022-02-25,1,,,,,メリメロ,0
1315,5330003009265,新規,0,2022-02-25,2022-02-25,ＨＹＧＧＥ合同会社,,合同会社,熊本県,菊池郡菊陽町,光の森７丁目４１番地１６,,43,404,8691108,,,,,,,2022-02-25,1,,,,,ヒュッゲ,0
1318,5340001024521,新規,0,2022-02-25,2022-02-25,株式会社サスフォーユー,,株式会社,鹿児島県,姶良市,加治木町港町１３１番地３２,,46,225,8995221,,,,,,,2022-02-25,1,,,,,サスフォーユー,0
1320,5350001017598,新規,0,2022-02-25,2022-02-25,丸益商事株式会社,,株式会社,宮崎県,宮崎市,大淀４丁目４番３号,,45,201,8800902,,,,,,,2022-02-25,1,,,,,,0
1323,5360003011805,新規,0,2022-02-25,2022-02-25,合同会社エイシン企画,,合同会社,沖縄県,豊見城市,字与根１７４－３,,47,212,9010224,,,,,,,2022-02-25,1,,,,,エイシンキカク,0
1326,5360005006605,新規,0,2022-02-25,2022-02-25,一般社団法人祈りの森，風，名護曲,,その他の設立登記法人,沖縄県,名護市,字許田２８番地３,,47,209,9050024,,,,,,,2022-02-25,1,,,,,イノリノモリカゼナゴマガイ,0
1328,5370003005599,新規,0,2022-02-25,2022-02-25,ＫＥＹ・ｏｆｆｉｃｅ合同会社,,合同会社,宮城県,仙台市宮城野区,二の森１５番４２号,,04,102,9830838,,,,,,,2022-02-25,1,,,,,キーオフィス,0
1332,5380001032603,新規,0,2022-02-25,2022-02-25,ふくしま地域共創コンソーシアム株式会社,,株式会社,福島県,郡山市,駅前２丁目１０番１６号三共郡山ビル南館２階,,07,203,9638002,,,,,,,2022-02-25,1,,,,,フクシマチイキキョウソウコンソーシアム,0
1342,5420001017748,新規,0,2022-02-25,2022-02-25,株式会社エクラ,,株式会社,青森県,青森市,古川１丁目２１番２０号,,02,201,0300862,,,,,,,2022-02-25,1,,,,,エクラ,0
1344,5430001086057,新規,0,2022-02-25,2022-02-25,株式会社サンポ,,株式会社,北海道,札幌市豊平区,平岸三条９丁目１５番１号,,01,105,0620933,,,,,,,2022-02-25,1,,,,,サンポ,0
1345,5430001086065,新規,0,2022-02-25,2022-02-25,株式会社エンブレイス,,株式会社,北海道,札幌市中央区,南二条西９丁目１番地１１カサトレスネオ７０５,,01,101,0600062,,,,,,,2022-02-25,1,,,,,エンブレイス,0
1346,5430001086073,新規,0,2022-02-25,2022-02-25,株式会社ＮＣＧＲＯＵＰ,,株式会社,北海道,札幌市西区,琴似一条６丁目４－１９大輝ビル４０１,,01,107,0630811,,,,,,,2022-02-25,1,,,,,エヌシーグループ,0
1350,5430003013653,新規,0,2022-02-25,2022-02-25,合同会社森さんの所,,合同会社,北海道,北広島市,大曲４１１番地,,01,234,0611270,,,,,,,2022-02-25,1,,,,,モリサンノトコロ,0
1354,5430005014402,新規,0,2022-02-25,2022-02-25,一般社団法人シゼンタイ北海道循環型社会協議会,,その他の設立登記法人,北海道,石狩郡当別町,字高岡１０４６番１号,,01,303,0613771,,,,,,,2022-02-25,1,,,,,シゼンタイホッカイドウジュンカンガタシャカイキョウギカイ,0
1359,5470001018980,新規,0,2022-02-25,2022-02-25,電空株式会社,,株式会社,香川県,三豊市,仁尾町仁尾丁１１２２番地４,,37,208,7691407,,,,,,,2022-02-25,1,,,,,デンクウ,0
1363,5500001024018,新規,0,2022-02-25,2022-02-25,ファーストメック株式会社,,株式会社,愛媛県,新居浜市,萩生２７２番地８８,,38,205,7920050,,,,,,,2022-02-25,1,,,,,ファーストメック,0
1375,6010001224797,新規,0,2022-02-25,2022-02-25,ＣＡＮＤＥＸＪＡＰＡＮ株式会社,,株式会社,東京都,千代田区,五番町１２番地７－２０４３,,13,101,1020076,,,,,,,2022-02-25,1,,,,,キャンデックスジャパン,0
1376,6010001224814,新規,0,2022-02-25,2022-02-25,ケモインフォ株式会社,,株式会社,東京都,中央区,銀座１丁目２２番１１号銀座大竹ビジデンス２階,,13,102,1040061,,,,,,,2022-02-25,1,,,,,ケモインフォ,0
1377,6010001224847,新規,0,2022-02-25,2022-02-25,Ｗｉｎｄｓｏｒ＆Ｗｉｌｌｉａｍｓ　Ｉｎｖｅｓｔｍｅｎｔ株式会社,,株式会社,東京都,千代田区,丸の内１丁目８番３号丸の内トラストタワー本館２０階,,13,101,1000005,,,,,,,2022-02-25,1,,,,,ウィンザーアンドウィリアムズインベストメント,0
1378,6010001224871,新規,0,2022-02-25,2022-02-25,日本産業第６号ＧＰ株式会社,,株式会社,東京都,千代田区,丸の内２丁目１番１号,,13,101,1000005,,,,,,,2022-02-25,1,,,,,ニホンサンギョウダイロクゴウジーピー,0
1379,6010003036984,新規,0,2022-02-25,2022-02-25,合同会社システムユー,,合同会社,東京都,中央区,八丁堀２丁目１７－１－１１０３,,13,102,1040032,,,,,,,2022-02-25,1,,,,,システムユー,0
1380,6010003037074,新規,0,2022-02-25,2022-02-25,匠建設合同会社,,合同会社,東京都,中央区,日本橋箱崎町３２－３秀和箱崎レジデンス９１１,,13,102,1030015,,,,,,,2022-02-25,1,,,,,タクミケンセツ,0
1381,6010003037090,新規,0,2022-02-25,2022-02-25,ｎｋｋ　ｓｔｕｄｉｏｓ合同会社,,合同会社,東京都,中央区,銀座６丁目１３番１６号銀座ＷａｌｌビルＵＣＦ５階,,13,102,1040061,,,,,,,2022-02-25,1,,,,,エヌケーケースタジオ,0
1392,6010401165807,新規,0,2022-02-25,2022-02-25,株式会社ＮＥＯ　ＤＩＶＥＲＳＥ,,株式会社,東京都,港区,芝公園４丁目４－７東京タワーメディアセンター,,13,103,1050011,,,,,,,2022-02-25,1,,,,,ネオダイバース,0
1397,6010403027138,新規,0,2022-02-25,2022-02-25,Ｓｅｒｖｉｃｅ　Ｉｎｔｅｇｒｉｔｙ合同会社,,合同会社,東京都,港区,浜松町２丁目２番１５号浜松町ダイヤビル２Ｆ,,13,103,1050013,,,,,,,2022-02-25,1,,,,,サービスインテグリティ,0
1398,6010403027154,新規,0,2022-02-25,2022-02-25,ＦａｙｏＳａｙｕ合同会社,,合同会社,東京都,港区,麻布十番２丁目７－５－２０９,,13,103,1060045,,,,,,,2022-02-25,1,,,,,ファヨサユ,0
1399,6010403027162,新規,0,2022-02-25,2022-02-25,ＳＣＧ６８合同会社,,合同会社,東京都,港区,虎ノ門４丁目１番２８号,,13,103,1050001,,,,,,,2022-02-25,1,,,,,エスシージーシックスティエイト,0
1411,6010901050418,新規,0,2022-02-25,2022-02-25,株式会社中利組,,株式会社,東京都,世田谷区,用賀２丁目２３番１５号,,13,112,1580097,,,,,,,2022-02-25,1,,,,,ナカリグミ,0
1420,6011001145777,新規,0,2022-02-25,2022-02-25,株式会社ネットウェブ,,株式会社,東京都,渋谷区,渋谷２丁目１９番１５号宮益坂ビルディング６０９,,13,113,1500002,,,,,,,2022-02-25,1,,,,,ネットウェブ,0
1421,6011001145785,新規,0,2022-02-25,2022-02-25,株式会社Ｒ．Ｂｅａｕｔｙ,,株式会社,東京都,渋谷区,上原２丁目３３番２号,,13,113,1510064,,,,,,,2022-02-25,1,,,,,アールビューティ,0
1422,6011001145868,新規,0,2022-02-25,2022-02-25,株式会社ＳＳＡＡ,,株式会社,東京都,渋谷区,神宮前６丁目２９番４号原宿ｋｏｍｉｙａビル６階,,13,113,1500001,,,,,,,2022-02-25,1,,,,,エスエスエーエー,0
1423,6011001145959,新規,0,2022-02-25,2022-02-25,株式会社ＣＡＰＴＡＩＮ,,株式会社,東京都,渋谷区,神宮前６丁目２３番４号,,13,113,1500001,,,,,,,2022-02-25,1,,,,,キャプテン,0
1424,6011003014220,新規,0,2022-02-25,2022-02-25,合同会社Ｎｕｍｅ　ｄｅ　Ｅｔｈｅｒ,,合同会社,東京都,渋谷区,神宮前６丁目２３番４号桑野ビル２階,,13,113,1500001,,,,,,,2022-02-25,1,,,,,ヌメデイーサ,0
1436,6011305002807,新規,0,2022-02-25,2022-02-25,一般社団法人グレーテル座,,その他の設立登記法人,東京都,杉並区,浜田山１丁目３３番２５－１０３号,,13,115,1680065,,,,,,,2022-02-25,1,,,,,グレーテルザ,0
1438,6011501027780,新規,0,2022-02-25,2022-02-25,株式会社３ＬＹＮＸ,,株式会社,東京都,北区,西ケ原２丁目２８－８,,13,117,1140024,,,,,,,2022-02-25,1,,,,,スリーリンクス,0
1439,6011501027789,新規,0,2022-02-25,2022-02-25,株式会社ソーシャルヘッジホッグ,,株式会社,東京都,荒川区,西日暮里２丁目２６番１０号５階,,13,118,1160013,,,,,,,2022-02-25,1,,,,,ソーシャルヘッジホッグ,0
1441,6011503005082,新規,0,2022-02-25,2022-02-25,合同会社ユーアイ,,合同会社,東京都,北区,赤羽西３丁目８番２号,,13,117,1150055,,,,,,,2022-02-25,1,,,,,ユーアイ,0
1448,6012401038884,新規,0,2022-02-25,2022-02-25,オフィスナイス株式会社,,株式会社,東京都,武蔵野市,吉祥寺本町１丁目２０番１５号ルイーズビル２０１号,,13,203,1800004,,,,,,,2022-02-25,1,,,,,オフィスナイス,0
1449,6012401038901,新規,0,2022-02-25,2022-02-25,ホーネストホームズ株式会社,,株式会社,東京都,小金井市,緑町１丁目５番３号,,13,210,1840003,,,,,,,2022-02-25,1,,,,,ホーネストホームズ,0
1455,6013303006054,新規,0,2022-02-25,2022-02-25,ＬＥＸ合同会社,,合同会社,東京都,豊島区,東池袋１丁目１７番１１号パークハイツ池袋１１０５号,,13,116,1700013,,,,,,,2022-02-25,1,,,,,レックス,0
1459,6020001145381,新規,0,2022-02-25,2022-02-25,Ｆｉｎｅｓｓｅ．ｙ株式会社,,株式会社,神奈川県,川崎市川崎区,京町３丁目１番２－１３０２号,,14,131,2100848,,,,,,,2022-02-25,1,,,,,フィネスドットワイ,0
1464,6020003021366,新規,0,2022-02-25,2022-02-25,ＬＡＸＭＩ合同会社,,合同会社,神奈川県,横浜市港南区,上大岡西３丁目１３番３号メイゾン北川１階１０２号,,14,111,2330002,,,,,,,2022-02-25,1,,,,,ラクシミ,0
1466,6021001075230,新規,0,2022-02-25,2022-02-25,株式会社清新電気,,株式会社,神奈川県,相模原市緑区,橋本台２丁目１４番３１号,,14,151,2520132,,,,,,,2022-02-25,1,,,,,セイシンデンキ,0
1467,6021001075271,新規,0,2022-02-25,2022-02-25,株式会社Ｎｉｃｏ,,株式会社,神奈川県,藤沢市,辻堂西海岸２丁目１３－２－５０１,,14,205,2510046,,,,,,,2022-02-25,1,,,,,ニコ,0
1470,6030001146957,新規,0,2022-02-25,2022-02-25,株式会社ＤＤＬＬＳ,,株式会社,埼玉県,吉川市,平沼１丁目２３番地２１,,11,243,3420056,,,,,,,2022-02-25,1,,,,,ドドリス,0
1471,6030001146965,新規,0,2022-02-25,2022-02-25,株式会社ピピ,,株式会社,埼玉県,飯能市,新町２４番５号,,11,209,3570004,,,,,,,2022-02-25,1,,,,,ピピ,0
1472,6030001146973,新規,0,2022-02-25,2022-02-25,株式会社ＨＲＵ,,株式会社,埼玉県,本庄市,寿３丁目１１番３０号,,11,211,3670023,,,,,,,2022-02-25,1,,,,,エイチアールユー,0
1479,6030003018898,新規,0,2022-02-25,2022-02-25,ＳＵＭＩＫＡコンサルティング合同会社,,合同会社,埼玉県,ふじみ野市,新駒林３丁目３番１０号,,11,245,3560030,,,,,,,2022-02-25,1,,,,,スミカコンサルティング,0
1480,6030003018923,新規,0,2022-02-25,2022-02-25,合同会社ＰＮＴＳ,,合同会社,埼玉県,さいたま市北区,東大成町１丁目４２６番地２,,11,102,3310814,,,,,,,2022-02-25,1,,,,,ピーエヌティーエス,0
1492,6050001050678,新規,0,2022-02-25,2022-02-25,株式会社つくばサービスデザイン,,株式会社,茨城県,つくば市,天久保２丁目９番地２リッチモンド２番街Ｂ－２０３,,08,220,3050005,,,,,,,2022-02-25,1,,,,,ツクバサービスデザイン,0
1493,6050001050686,新規,0,2022-02-25,2022-02-25,株式会社ミロク,,株式会社,茨城県,つくば市,二の宮１丁目１６番地６４,,08,220,3050051,,,,,,,2022-02-25,1,,,,,ミロク,0
1496,6050003006389,新規,0,2022-02-25,2022-02-25,合同会社さんらいず,,合同会社,茨城県,結城市,大字結城１１４８６番地１,,08,207,3070001,,,,,,,2022-02-25,1,,,,,サンライズ,0
1497,6060003003963,新規,0,2022-02-25,2022-02-25,合同会社Ｓｍｉｌｅ　Ａｓｓｉｓｔ,,合同会社,栃木県,小山市,花垣町１丁目１番３３号ウィングＩＶ２階,00125805,09,208,3230027,,,,,,,2022-02-25,1,,,,,スマイルアシスト,0
1498,6070001038977,新規,0,2022-02-25,2022-02-25,株式会社エスペシア,,株式会社,群馬県,沼田市,下之町８８８番地テラス沼田６階６Ｃ,,10,206,3780044,,,,,,,2022-02-25,1,,,,,エスペシア,0
1504,6080003002740,新規,0,2022-02-25,2022-02-25,合同会社Ｓａｇｅ　Ｇｒｏｕｐ,,合同会社,静岡県,静岡市駿河区,南町５－２７－２０２,,22,102,4228067,,,,,,,2022-02-25,1,,,,,サージグループ,0
1510,6100001035095,新規,0,2022-02-25,2022-02-25,株式会社わらわ,,株式会社,長野県,安曇野市,穂高８３０７番地１,,20,220,3998303,,,,,,,2022-02-25,1,,,,,ワラワ,0
1517,6120001244017,新規,0,2022-02-25,2022-02-25,二次資源ホールディングス株式会社,,株式会社,大阪府,大阪市中央区,久太郎町１丁目９番４号,,27,128,5410056,,,,,,,2022-02-25,1,,,,,ニジシゲンホールディングス,0
1518,6120001244058,新規,0,2022-02-25,2022-02-25,ＴＲＹＯＵＴ株式会社,,株式会社,大阪府,大阪市淀川区,宮原４丁目４番２号,,27,123,5320003,,,,,,,2022-02-25,1,,,,,トライアウト,0
1522,6120005022815,新規,0,2022-02-25,2022-02-25,一般社団法人ジャパンブランドデザイン,,その他の設立登記法人,大阪府,大阪市福島区,海老江６丁目７番１０号１階,,27,103,5530001,,,,,,,2022-02-25,1,,,,,ジャパンブランドデザイン,0
1524,6120101065123,新規,0,2022-02-25,2022-02-25,株式会社ドリームワークス,,株式会社,大阪府,堺市東区,草尾１１６７番地１３,,27,143,5998127,,,,,,,2022-02-25,1,,,,,ドリームワークス,0
1528,6120901045638,新規,0,2022-02-25,2022-02-25,株式会社肉のいろは,,株式会社,大阪府,吹田市,元町６番８号万両ビル１Ｆ,,27,205,5640031,,,,,,,2022-02-25,1,,,,,ニクノイロハ,0
1529,6122001035610,新規,0,2022-02-25,2022-02-25,株式会社グリーントランスポート,,株式会社,大阪府,東大阪市,荒本新町３番４号ＳＥＩＫＯビル５Ｆ,,27,227,5770022,,,,,,,2022-02-25,1,,,,,グリーントランスポート,0
1530,6122003002278,新規,0,2022-02-25,2022-02-25,エイミーラボ合同会社,,合同会社,大阪府,八尾市,小畑町２丁目４５番地の１小畑コーポラスＡ－１０２号,,27,212,5810835,,,,,,,2022-02-25,1,,,,,エイミーラボ,0
1545,6140001125025,新規,0,2022-02-25,2022-02-25,株式会社ＡＷＪ,,株式会社,兵庫県,洲本市,物部１丁目１６番４号エスパスウルー物部２０１号,,28,205,6560051,,,,,,,2022-02-25,1,,,,,エーダブリュージェー,0
1546,6140003017393,新規,0,2022-02-25,2022-02-25,Ｍａｘｉｍ合同会社,,合同会社,兵庫県,西宮市,生瀬東町７－１５,,28,204,6691103,,,,,,,2022-02-25,1,,,,,マキシム,0
1550,6150001025364,新規,0,2022-02-25,2022-02-25,株式会社生駒堂,,株式会社,奈良県,生駒市,谷田町１６１５番地,,29,209,6300251,,,,,,,2022-02-25,1,,,,,イコマドウ,0
1552,6150003002626,新規,0,2022-02-25,2022-02-25,合同会社Ｌｉｌａ,,合同会社,奈良県,奈良市,六条緑町３丁目７番６号,,29,201,6308045,,,,,,,2022-02-25,1,,,,,リラ,0
1554,6160001024010,新規,0,2022-02-25,2022-02-25,株式会社タングルシード,,株式会社,滋賀県,湖南市,サイドタウン１丁目１－１９,,25,211,5203244,,,,,,,2022-02-25,1,,,,,タングルシード,0
1555,6160005011046,新規,0,2022-02-25,2022-02-25,特定非営利活動法人霊峰伊吹山の会,,その他の設立登記法人,滋賀県,米原市,上野７０２番地,,25,214,5210312,,,,,,,2022-02-25,1,,,,,レイホウイブキヤマノカイ,0
1563,6180001150119,新規,0,2022-02-25,2022-02-25,株式会社ＡＴＥＣ,,株式会社,愛知県,尾張旭市,渋川町３丁目２番地１７,,23,226,4880839,,,,,,,2022-02-25,1,,,,,アテック,0
1564,6180001150127,新規,0,2022-02-25,2022-02-25,株式会社Ｄｉｖｅｒ　Ｓｉｔｙ,,株式会社,愛知県,あま市,坂牧向江７５番地,,23,237,4901115,,,,,,,2022-02-25,1,,,,,ダイバーシティ,0
1565,6180001150135,新規,0,2022-02-25,2022-02-25,株式会社出前ライダー,,株式会社,愛知県,名古屋市北区,安井４丁目１３番４７号,,23,103,4620023,,,,,,,2022-02-25,1,,,,,デマエライダー,0
1566,6180002093944,新規,0,2022-02-25,2022-02-25,有限会社日吉ビル,,有限会社,愛知県,名古屋市名東区,社が丘１丁目１６０３番地,,23,115,4650051,,,,,,,2022-02-25,1,,,,,ヒヨシビル,0
1569,6180301035944,新規,0,2022-02-25,2022-02-25,株式会社ＡＣＸＩＡ,,株式会社,愛知県,豊田市,巴町神田３番地１２,,23,211,4442224,,,,,,,2022-02-25,1,,,,,アクシア,0
1575,6200003005466,新規,0,2022-02-25,2022-02-25,合同会社Ｃｏｒｓｏｙａｒｄ,,合同会社,岐阜県,美濃市,立花６７３番地１,,21,207,5013705,,,,,,,2022-02-25,1,,,,,コルソヤード,0
1580,6240001059378,新規,0,2022-02-25,2022-02-25,株式会社ｅｓｓｅｎｃｅ,,株式会社,広島県,広島市中区,本通１番７号,,34,101,7300035,,,,,,,2022-02-25,1,,,,,エッセンス,0
1583,6260001036557,新規,0,2022-02-25,2022-02-25,株式会社ピースライフ,,株式会社,岡山県,岡山市南区,福島４丁目４番６号,,33,104,7028044,,,,,,,2022-02-25,1,,,,,ピースライフ,0
1584,6260001036565,新規,0,2022-02-25,2022-02-25,ＦＯＵＲ　ＰＩＥＣＥ　Ｌａｂ．株式会社,,株式会社,岡山県,倉敷市,児島小川町９１１番地６３,,33,202,7110912,,,,,,,2022-02-25,1,,,,,フォーピースラボ,0
1589,6290001096516,新規,0,2022-02-25,2022-02-25,株式会社あおたび,,株式会社,福岡県,福岡市博多区,博多駅南４丁目１番１号岩保ビル駅南４Ａ,,40,132,8120016,,,,,,,2022-02-25,1,,,,,アオタビ,0
1590,6290005018573,新規,0,2022-02-25,2022-02-25,協同組合Ｊ・Ｈ・Ｓ,,その他の設立登記法人,福岡県,太宰府市,朱雀６丁目５番地１３オークスビル３Ｆ,,40,221,8180103,,,,,,,2022-02-25,1,,,,,ジェイエイチエス,0
1594,6310001017733,新規,0,2022-02-25,2022-02-25,株式会社ＭＯＲＩ,,株式会社,長崎県,西彼杵郡時津町,西時津郷２０７番地１２,,42,308,8512101,,,,,,,2022-02-25,1,,,,,モリ,0
1596,6320001018920,新規,0,2022-02-25,2022-02-25,Ｋ－ＬＩＮＥ株式会社,,株式会社,大分県,大分市,大字東上野２７３０番地,,44,201,8700306,,,,,,,2022-02-25,1,,,,,ケイライン,0
1599,6330001029470,新規,0,2022-02-25,2022-02-25,ＭＰＳ株式会社,,株式会社,熊本県,熊本市北区,楡木５丁目１２番５１号,,43,105,8618083,,,,,,,2022-02-25,1,,,,,エムピーエス,0
1600,6330003009264,新規,0,2022-02-25,2022-02-25,花林薬茶房合同会社,,合同会社,熊本県,球磨郡五木村,甲字白水４９４６番地,,43,511,8680201,,,,,,,2022-02-25,1,,,,,カリンヤクサボウ,0
1604,6360001030038,新規,0,2022-02-25,2022-02-25,株式会社サンリーフ,,株式会社,沖縄県,うるま市,喜仲１丁目５番２３号喜仲アップルハウス,,47,213,9042236,,,,,,,2022-02-25,1,,,,,サンリーフ,0
1605,6360001030046,新規,0,2022-02-25,2022-02-25,ＩＭＢ　Ｈｕｍａｎ　Ｒｅｓｏｕｒｃｅ株式会社,,株式会社,沖縄県,那覇市,天久２丁目２９番１６,,47,201,9000005,,,,,,,2022-02-25,1,,,,,アイエムビーヒューマンリソース,0
1606,6360003011829,新規,0,2022-02-25,2022-02-25,Ｌｉｎｋ　Ｔｉｍｅ合同会社,,合同会社,沖縄県,沖縄市,高原１丁目７番４０号,,47,211,9042171,,,,,,,2022-02-25,1,,,,,リンクタイム,0
1607,6360005006604,新規,0,2022-02-25,2022-02-25,一般社団法人虹の樹会,,その他の設立登記法人,沖縄県,島尻郡南風原町,字大名３５６番地６,,47,350,9011101,,,,,,,2022-02-25,1,,,,,ニジノキカイ,0
1615,6380001032602,新規,0,2022-02-25,2022-02-25,株式会社芳賀空調設備,,株式会社,福島県,いわき市,東田町菖蒲沢６５番地の１,,07,204,9748212,,,,,,,2022-02-25,1,,,,,ハガクウチョウセツビ,0
1616,6380005012542,新規,0,2022-02-25,2022-02-25,医療法人爽和会,,その他の設立登記法人,福島県,本宮市,高木字熊ノ木５番地,,07,214,9691101,,,,,,,2022-02-25,1,,,,,ソウワカイ,0
1625,6430003013652,新規,0,2022-02-25,2022-02-25,北海道防災行政合同会社,,合同会社,北海道,滝川市,黄金町西３丁目３番３号,,01,225,0730011,,,,,,,2022-02-25,1,,,,,ホッカイドウボウサイギョウセイ,0
1626,6430005014401,新規,0,2022-02-25,2022-02-25,一般社団法人北海道デザイン協議会,,その他の設立登記法人,北海道,札幌市中央区,北十条西２０丁目２番２２号有限会社パディック内,,01,101,0600010,,,,,,,2022-02-25,1,,,,,ホッカイドウデザインキョウギカイ,0
1630,6500001024009,新規,0,2022-02-25,2022-02-25,株式会社南風産業,,株式会社,愛媛県,今治市,上浦町盛１２０１番地１,,38,202,7941401,,,,,,,2022-02-25,1,,,,,ナンプウサンギョウ,0
1631,6500001024017,新規,0,2022-02-25,2022-02-25,株式会社ｄａｋｏｔａ,,株式会社,愛媛県,松山市,安城寺町１２５２番地,,38,201,7918006,,,,,,,2022-02-25,1,,,,,ダコタ,0
1634,6700150107015,新規,0,2022-02-25,2022-02-10,福島県社会民主主義フォーラム,,その他,福島県,福島市,天神町１０－３４ふくしま会館３階,,07,201,9608001,,,,,,,2022-02-10,1,,,,,フクシマケンシヤカイミンシユシユギフオーラム,0
1640,7010001224631,新規,0,2022-02-25,2022-02-25,Ｂ－ＹＩＮＡ株式会社,,株式会社,東京都,中央区,銀座３丁目４－１大倉別館５階,,13,102,1040061,,,,,,,2022-02-25,1,,,,,ビィーナ,0
1641,7010001224796,新規,0,2022-02-25,2022-02-25,株式会社ＹＦフードサービス,,株式会社,東京都,文京区,本郷４丁目５番９号１階,,13,105,1130033,,,,,,,2022-02-25,1,,,,,ワイエフフードサービス,0
1642,7010001224813,新規,0,2022-02-25,2022-02-25,株式会社ジャパンメイクユー,,株式会社,東京都,中央区,銀座１丁目１２－４Ｎ＆ＥＢＬＤ．７階,,13,102,1040061,,,,,,,2022-02-25,1,,,,,ジャパンメイクユー,0
1643,7010001224846,新規,0,2022-02-25,2022-02-25,株式会社Ｃｌｏｕｔ,,株式会社,東京都,中央区,銀座６丁目１３番９号ｂｉｚｃｕｂｅ,,13,102,1040061,,,,,,,2022-02-25,1,,,,,クラウト,0
1644,7010003037024,新規,0,2022-02-25,2022-02-25,ＹＭキャピタル合同会社,,合同会社,東京都,文京区,大塚２丁目９番７－３０４号,00125804,13,105,1120012,,,,,,,2022-02-25,1,,,,,ワイエムキャピタル,0
1645,7010003037081,新規,0,2022-02-25,2022-02-25,Ｍａｎａ　Ｐｌａｎｅｔ合同会社,,合同会社,東京都,中央区,勝どき２丁目３番１０号,,13,102,1040054,,,,,,,2022-02-25,1,,,,,マナプラネット,0
1650,7010401165715,新規,0,2022-02-25,2022-02-25,株式会社Ａｙａｎｅ,,株式会社,東京都,港区,海岸３丁目１９番２号マリンシティダイヤモンドパレス７１６号室,,13,103,1080022,,,,,,,2022-02-25,1,,,,,アヤネ,0
1651,7010401165789,新規,0,2022-02-25,2022-02-25,株式会社ＨｏＬｏ３６０,,株式会社,東京都,港区,赤坂８丁目５－６ＩＰＩＡＳ－Ａｏｙａｍａ１０２,,13,103,1070052,,,,,,,2022-02-25,1,,,,,ホロサンロクマル,0
1652,7010401165806,新規,0,2022-02-25,2022-02-25,２２２株式会社,,株式会社,東京都,港区,白金１丁目５番２－３０３号,,13,103,1080072,,,,,,,2022-02-25,1,,,,,トリプルツー,0
1655,7010403027120,新規,0,2022-02-25,2022-02-25,合同会社Ａｔｅｃｈ,,合同会社,東京都,港区,赤坂２丁目８番１３号,,13,103,1070052,,,,,,,2022-02-25,1,,,,,エーテック,0
1656,7010403027161,新規,0,2022-02-25,2022-02-25,ＳＣＧ６７合同会社,,合同会社,東京都,港区,虎ノ門４丁目１番２８号,,13,103,1050001,,,,,,,2022-02-25,1,,,,,エスシージーシックスティセブン,0
1658,7010405020734,新規,0,2022-02-25,2022-02-25,明日パワー一般社団法人,,その他の設立登記法人,東京都,港区,元赤坂１丁目１番７号,,13,103,1070051,,,,,,,2022-02-25,1,,,,,アシタパワー,0
1661,7010501048506,新規,0,2022-02-25,2022-02-25,株式会社プロスペリティ,,株式会社,東京都,台東区,上野４丁目５番２号,,13,106,1100005,,,,,,,2022-02-25,1,,,,,プロスペリティ,0
1665,7010701042267,新規,0,2022-02-25,2022-02-25,株式会社Ｓｔｒｅｅｔ　Ｊｏｕｒｎｅｙ,,株式会社,東京都,品川区,上大崎１丁目８番１０号エスアイハイム１０１,,13,109,1410021,,,,,,,2022-02-25,1,,,,,ストリートジャーニー,0
1666,7010701042275,新規,0,2022-02-25,2022-02-25,株式会社Ｏ－ＤＥＮ,,株式会社,東京都,品川区,西品川１丁目１番１号住友不動産大崎ガーデンタワー,,13,109,1410033,,,,,,,2022-02-25,1,,,,,オデン,0
1687,7011001145776,新規,0,2022-02-25,2022-02-25,ウェブシステム株式会社,,株式会社,東京都,渋谷区,渋谷３丁目１番９号,,13,113,1500002,,,,,,,2022-02-25,1,,,,,ウェブシステム,0
1688,7011001145792,新規,0,2022-02-25,2022-02-25,株式会社ジーク・エンターテインメント,,株式会社,東京都,渋谷区,神宮前６丁目２３番４号桑野ビル２階,,13,113,1500001,,,,,,,2022-02-25,1,,,,,ジークエンターテインメント,0
1690,7011003013980,新規,0,2022-02-25,2022-02-25,合同会社Ｋｏｅｌ　ｐａｒｔｎｅｒｓ,,合同会社,東京都,渋谷区,恵比寿西２丁目８番１０号ＯＲＩＸ恵比寿西ビル６Ｆ,,13,113,1500021,,,,,,,2022-02-25,1,,,,,コエルパートナーズ,0
1691,7011003014211,新規,0,2022-02-25,2022-02-25,合同会社フリーアズアバード,,合同会社,東京都,渋谷区,渋谷３丁目１番１号,,13,113,1500002,,,,,,,2022-02-25,1,,,,,フリーアズアバード,0
1693,7011005009440,新規,0,2022-02-25,2022-02-25,一般社団法人ＫＡＯミュージカルアカデミー,,その他の設立登記法人,東京都,渋谷区,笹塚３丁目５０番１号,,13,113,1510073,,,,,,,2022-02-25,1,,,,,カオミュージカルアカデミー,0
1698,7011305002806,新規,0,2022-02-25,2022-02-25,一般社団法人日本マルタ文化交流協会,,その他の設立登記法人,東京都,杉並区,久我山４丁目２番５号久我山センタービルＡ３Ｆ,,13,115,1680082,,,,,,,2022-02-25,1,,,,,ニホンマルタブンカコウリュウキョウカイ,0
1702,7011405002185,新規,0,2022-02-25,2022-02-25,一般社団法人Ｇｏｌｄ　Ｐｈｏｅｎｉｘ　Ｍｕｓｉｃ　Ｊａｐａｎ,,その他の設立登記法人,東京都,板橋区,南常盤台２丁目６番２号エクセルときわ台３０２,,13,119,1740072,,,,,,,2022-02-25,1,,,,,ゴールドフェニックスミュージックジャパン,0
1703,7011501027788,新規,0,2022-02-25,2022-02-25,ＯＳＤＯ株式会社,,株式会社,東京都,北区,赤羽２丁目６９番２号,,13,117,1150045,,,,,,,2022-02-25,1,,,,,オーエスディーオー,0
1711,7012701016944,新規,0,2022-02-25,2022-02-25,ノルン株式会社,,株式会社,東京都,小平市,花小金井４丁目８番１０号,,13,211,1870002,,,,,,,2022-02-25,1,,,,,ノルン,0
1712,7012803002710,新規,0,2022-02-25,2022-02-25,合同会社アポローナ,,合同会社,東京都,国立市,北１丁目５－１なるせビル１Ｆヘアーアーティス奥,,13,215,1860001,,,,,,,2022-02-25,1,,,,,アポローナ,0
1714,7013101008854,新規,0,2022-02-25,2022-02-25,株式会社ｐｉｇｎｉｃ,,株式会社,東京都,あきる野市,戸倉８３３番地１,,13,228,1900173,,,,,,,2022-02-25,1,,,,,ピグニック,0
1717,7013301048709,新規,0,2022-02-25,2022-02-25,株式会社ファースト・環境,,株式会社,東京都,豊島区,池袋２丁目７８番６号相光ビル,,13,116,1710014,,,,,,,2022-02-25,1,,,,,ファーストカンキョウ,0
1720,7013303006053,新規,0,2022-02-25,2022-02-25,合同会社クレバスパートナーズ,,合同会社,東京都,豊島区,長崎３丁目１２番６号,,13,116,1710051,,,,,,,2022-02-25,1,,,,,クレバスパートナーズ,0
1727,7020001145372,新規,0,2022-02-25,2022-02-25,株式会社Ｒｅａｌｉｚｅ,,株式会社,神奈川県,横浜市青葉区,みたけ台１５番地１９,,14,117,2270047,,,,,,,2022-02-25,1,,,,,リアライズ,0
1729,7020003021357,新規,0,2022-02-25,2022-02-25,合同会社茶奉,,合同会社,神奈川県,横浜市西区,北幸１丁目１－８エキニア横浜５階,,14,103,2200004,,,,,,,2022-02-25,1,,,,,サホウ,0
1732,7021003011430,新規,0,2022-02-25,2022-02-25,合同会社波色,,合同会社,神奈川県,茅ヶ崎市,幸町１３－５,,14,207,2530052,,,,,,,2022-02-25,1,,,,,ナミイロ,0
1736,7030001146956,新規,0,2022-02-25,2022-02-25,株式会社ＳＳコーポレーション,,株式会社,埼玉県,越谷市,谷中町１丁目６１番地１０,,11,222,3430856,,,,,,,2022-02-25,1,,,,,エスエスコーポレーション,0
1737,7030001146964,新規,0,2022-02-25,2022-02-25,株式会社Ｌｉｎｋ　ｏｆ　Ｌｉｆｅ,,株式会社,埼玉県,蓮田市,大字井沼８３１番地９,,11,238,3490135,,,,,,,2022-02-25,1,,,,,リンクオブライフ,0
1738,7030001146972,新規,0,2022-02-25,2022-02-25,株式会社Ｃｒｅａｔｉｖｅ　ｏｆｆｉｃｅ　Ｎ,,株式会社,埼玉県,八潮市,大字南川崎５３２番地１リコテラスＴＸ４０５号,,11,234,3400814,,,,,,,2022-02-25,1,,,,,クリエイティブオフィスエヌ,0
1739,7030001146997,新規,0,2022-02-25,2022-02-25,株式会社ジーク,,株式会社,埼玉県,春日部市,新宿新田３４０番地１１,,11,214,3440113,,,,,,,2022-02-25,1,,,,,ジーク,0
1748,7040001122361,新規,0,2022-02-25,2022-02-25,株式会社光緑園,,株式会社,千葉県,東金市,二又３７７番地,,12,213,2830004,,,,,,,2022-02-25,1,,,,,コウリョクエン,0
1753,7050001050669,新規,0,2022-02-25,2022-02-25,株式会社純新,,株式会社,茨城県,つくば市,手代木２０２０番地５,,08,220,3050834,,,,,,,2022-02-25,1,,,,,ジュンシン,0
1754,7050001050685,新規,0,2022-02-25,2022-02-25,株式会社ロメロ,,株式会社,茨城県,水戸市,青柳町５５６番地,,08,201,3100004,,,,,,,2022-02-25,1,,,,,ロメロ,0
1755,7050003006388,新規,0,2022-02-25,2022-02-25,合同会社ＩＤＥＡＬ．ｋ,,合同会社,茨城県,つくば市,竹園１丁目８番２－１２１５号,,08,220,3050032,,,,,,,2022-02-25,1,,,,,アイデアルケー,0
1760,7070001038968,新規,0,2022-02-25,2022-02-25,株式会社スティーブルエイド,,株式会社,群馬県,太田市,熊野町２９番地１４－１Ａ,,10,205,3730025,,,,,,,2022-02-25,1,,,,,スティーブルエイド,0
1761,7070001038976,新規,0,2022-02-25,2022-02-25,株式会社ラピスラズリ,,株式会社,群馬県,伊勢崎市,連取町１９１４番地４,,10,204,3720812,,,,,,,2022-02-25,1,,,,,ラピスラズリ,0
1766,7080403004476,新規,0,2022-02-25,2022-02-25,合同会社こころ,,合同会社,静岡県,掛川市,緑ケ丘２丁目１５番地の３ヴェルディーナＡ,,22,213,4360021,,,,,,,2022-02-25,1,,,,,ココロ,0
1771,7100005012825,新規,0,2022-02-25,2022-02-25,一般社団法人長野県ストリートダンス普及協会,,その他の設立登記法人,長野県,松本市,平田東３丁目１４番１０号,,20,202,3990014,,,,,,,2022-02-25,1,,,,,ナガノケンストリートダンスフキュウキョウカイ,0
1775,7120001244008,新規,0,2022-02-25,2022-02-25,株式会社豊裕,,株式会社,大阪府,大阪市淀川区,塚本５丁目３番１１号,,27,123,5320026,,,,,,,2022-02-25,1,,,,,トヨヒロ,0
1776,7120001244049,新規,0,2022-02-25,2022-02-25,株式会社ミラン,,株式会社,大阪府,大阪市天王寺区,真法院町１３番２６号,,27,109,5430041,,,,,,,2022-02-25,1,,,,,ミラン,0
1779,7120005022814,新規,0,2022-02-25,2022-02-25,一般社団法人ＴＯＲＩＩ　ＧＡＴＥ,,その他の設立登記法人,大阪府,大阪市東淀川区,上新庄２丁目２２番４号,,27,114,5330006,,,,,,,2022-02-25,1,,,,,トリイゲート,0
1781,7120901045645,新規,0,2022-02-25,2022-02-25,株式会社ＭＴＡ,,株式会社,大阪府,豊中市,本町３丁目１１番３号,,27,203,5600021,,,,,,,2022-02-25,1,,,,,エムティーエー,0
1787,7130001071211,新規,0,2022-02-25,2022-02-25,豊坂土建株式会社,,株式会社,京都府,京都市西京区,大枝中山町２番地３８６,,26,111,6101104,,,,,,,2022-02-25,1,,,,,トヨサカドケン,0
1790,7140001124991,新規,0,2022-02-25,2022-02-25,株式会社Ｐｒｅｃｉｏｕｓ,,株式会社,兵庫県,芦屋市,清水町５番１２号,,28,206,6590076,,,,,,,2022-02-25,1,,,,,プレシャス,0
1791,7140001125016,新規,0,2022-02-25,2022-02-25,株式会社ＡＶＡＮＣＥＲ,,株式会社,兵庫県,神戸市須磨区,中島町３丁目２番２２号,,28,107,6540035,,,,,,,2022-02-25,1,,,,,アバンシー,0
1792,7140001125024,新規,0,2022-02-25,2022-02-25,株式会社ＲＥＩ,,株式会社,兵庫県,姫路市,飾磨区英賀清水町１丁目２２番地－２０２号,,28,201,6728084,,,,,,,2022-02-25,1,,,,,レイ,0
1793,7140001125032,新規,0,2022-02-25,2022-02-25,株式会社ＩＳＩＩＳＩ,,株式会社,兵庫県,西宮市,上甲子園５丁目４番２０号,,28,204,6638114,,,,,,,2022-02-25,1,,,,,イシイシ,0
1800,7150003002625,新規,0,2022-02-25,2022-02-25,合同会社はなまる,,合同会社,奈良県,大和郡山市,新庄町４９３番地,,29,203,6391114,,,,,,,2022-02-25,1,,,,,ハナマル,0
1801,7160003002500,新規,0,2022-02-25,2022-02-25,Ｔ＆Ｌ第一合同会社,,合同会社,滋賀県,草津市,笠山３丁目６番２７号,,25,206,5250072,,,,,,,2022-02-25,1,,,,,ティーアンドエルダイイチ,0
1802,7160005011045,新規,0,2022-02-25,2022-02-25,社会保険労務士法人心陽,,その他の設立登記法人,滋賀県,大津市,南志賀１丁目７番６号,,25,201,5200011,,,,,,,2022-02-25,1,,,,,コハル,0
1803,7170001016988,新規,0,2022-02-25,2022-02-25,株式会社ヤマイチ産業,,株式会社,和歌山県,和歌山市,加納１７７番地２０,,30,201,6408391,,,,,,,2022-02-25,1,,,,,ヤマイチサンギョウ,0
1811,7180001150043,新規,0,2022-02-25,2022-02-25,ソア株式会社,,株式会社,愛知県,あま市,甚目寺山之浦１１１番地,,23,237,4901111,,,,,,,2022-02-25,1,,,,,ソア,0
1818,7180301035951,新規,0,2022-02-25,2022-02-25,ＭＡＧＵＳ　ＣＲＡＦＴ株式会社,,株式会社,愛知県,豊橋市,菰口町３丁目９５番地,,23,201,4418011,,,,,,,2022-02-25,1,,,,,メイガスクラフト,0
1824,7200001039770,新規,0,2022-02-25,2022-02-25,ＹＣ株式会社,,株式会社,岐阜県,美濃加茂市,牧野１０７６番地１０６,,21,211,5050016,,,,,,,2022-02-25,1,,,,,ワイシー,0
1825,7210001018823,新規,0,2022-02-25,2022-02-25,株式会社バックオフィス・ディレクション,,株式会社,福井県,福井市,順化１丁目１５番２９号ＬＵＦＦ２Ｆ,,18,201,9100023,,,,,,,2022-02-25,1,,,,,バックオフィスディレクション,0
1827,7220001024705,新規,0,2022-02-25,2022-02-25,株式会社Ｉｎｆｉｎｉｔｙ,,株式会社,石川県,野々市市,本町１丁目４８番２７号,,17,212,9218815,,,,,,,2022-02-25,1,,,,,インフィニティ,0
1828,7240001059369,新規,0,2022-02-25,2022-02-25,株式会社グラス,,株式会社,広島県,広島市安佐南区,大町東１丁目１３番７号,,34,105,7310124,,,,,,,2022-02-25,1,,,,,グラス,0
1834,7260001036564,新規,0,2022-02-25,2022-02-25,株式会社ドイテクス,,株式会社,岡山県,岡山市東区,中尾２６０番地,,33,103,7090626,,,,,,,2022-02-25,1,,,,,ドイテクス,0
1838,7290001096523,新規,0,2022-02-25,2022-02-25,株式会社アクロニム,,株式会社,福岡県,福岡市中央区,平和５丁目１３番４２号,,40,133,8100016,,,,,,,2022-02-25,1,,,,,アクロニム,0
1839,7290001096564,新規,0,2022-02-25,2022-02-25,株式会社新未来,,株式会社,福岡県,福岡市東区,松島４丁目１０番２１号,,40,131,8130062,,,,,,,2022-02-25,1,,,,,シンミライ,0
1847,7290803004071,新規,0,2022-02-25,2022-02-25,ＴＮＢＡ合同会社,,合同会社,福岡県,北九州市小倉北区,下富野４丁目４番１－１０２号,,40,106,8020023,,,,,,,2022-02-25,1,,,,,ティーエヌビーエー,0
1849,7310001017732,新規,0,2022-02-25,2022-02-25,株式会社プラス不動産,,株式会社,長崎県,佐世保市,戸尾町１３番１号４０１,,42,202,8570864,,,,,,,2022-02-25,1,,,,,プラスフドウサン,0
1851,7320003003738,新規,0,2022-02-25,2022-02-25,合同会社ワークトップ,,合同会社,大分県,大分市,大道町５丁目７番１９号,,44,201,8700822,,,,,,,2022-02-25,1,,,,,ワークトップ,0
1852,7330003009263,新規,0,2022-02-25,2022-02-25,合同会社フォロワーシップ,,合同会社,熊本県,熊本市南区,出仲間６丁目１１番３９号,,43,104,8620963,,,,,,,2022-02-25,1,,,,,フォロワーシップ,0
1857,7350005006050,新規,0,2022-02-25,2022-02-25,特定非営利活動法人宮崎中央自立支援センター,,その他の設立登記法人,宮崎県,宮崎市,大塚町八所３６０１番地５,,45,201,8800951,,,,,,,2022-02-25,1,,,,,ミヤザキチュウオウジリツシエンセンター,0
1858,7370003005597,新規,0,2022-02-25,2022-02-25,合同会社オフイス弘子,,合同会社,宮城県,仙台市青葉区,水の森２丁目５番１７号,,04,101,9810962,,,,,,,2022-02-25,1,,,,,オフイスヒロコ,0
1865,7400005008215,新規,0,2022-02-25,2022-02-25,一般社団法人フロムいわてソリューション,,その他の設立登記法人,岩手県,宮古市,末広町８番２４号,,03,202,0270084,,,,,,,2022-02-25,1,,,,,フロムイワテソリューション,0
1866,7420003002465,新規,0,2022-02-25,2022-02-25,合同会社ＤＥＥＰＥＲＳ＆Ｃｏ．,,合同会社,青森県,青森市,青柳１丁目６－２１,,02,201,0300811,,,,,,,2022-02-25,1,,,,,ディーパーズアンドコー,0
1877,7700150106981,新規,0,2022-02-25,2022-02-08,村上福音キリスト教会,,その他,新潟県,村上市,羽黒口３－１４,,15,212,9580836,,,,,,,2022-02-08,1,,,,,ムラカミフクインキリストキヨウカイ,0
1886,8010001224845,新規,0,2022-02-25,2022-02-25,株式会社ＥＩＣＨＩ．ＢＡＬＡＮＣＥＤ,,株式会社,東京都,中央区,銀座６丁目１３番１６号銀座ＷａｌｌビルＵＣＦ５０１,,13,102,1040061,,,,,,,2022-02-25,1,,,,,エイチバランスド,0
1887,8010001224903,新規,0,2022-02-25,2022-02-25,株式会社フィリップスマルチインターナショナル,,株式会社,東京都,千代田区,大手町１丁目７番２号東京サンケイビル２７階,,13,101,1000004,,,,,,,2022-02-25,1,,,,,フィリップスマルチインターナショナル,0
1888,8010003037080,新規,0,2022-02-25,2022-02-25,合同会社Ｓｉｓｙｒｉ,,合同会社,東京都,中央区,日本橋人形町１丁目１２番１１－９０４号,,13,102,1030013,,,,,,,2022-02-25,1,,,,,シシリ,0
1889,8010003037089,新規,0,2022-02-25,2022-02-25,ＭＡＲＳ　ＢＡＳＥ合同会社,,合同会社,東京都,千代田区,九段南１丁目５番６号５階,,13,101,1020074,,,,,,,2022-02-25,1,,,,,マースベース,0
1893,8010401165755,新規,0,2022-02-25,2022-02-25,ＡｉＮｉｖａ株式会社,,株式会社,東京都,港区,浜松町２丁目２番１５号浜松町ダイヤビル２Ｆ,,13,103,1050013,,,,,,,2022-02-25,1,,,,,アイニヴァ,0
1894,8010401165796,新規,0,2022-02-25,2022-02-25,株式会社ＡＳＴＲＩＡ,,株式会社,東京都,港区,南青山６丁目７番８－１１０５号,,13,103,1070062,,,,,,,2022-02-25,1,,,,,アストリア,0
1895,8010401165805,新規,0,2022-02-25,2022-02-25,株式会社ＦＯＲＴＵＮＥ．８,,株式会社,東京都,港区,南青山２丁目２番１５号,,13,103,1070062,,,,,,,2022-02-25,1,,,,,フォーチュンエイト,0
1896,8010401165813,新規,0,2022-02-25,2022-02-25,株式会社明善,,株式会社,東京都,港区,海岸１丁目１番１号,,13,103,1050022,,,,,,,2022-02-25,1,,,,,メイゼン,0
1898,8010403027144,新規,0,2022-02-25,2022-02-25,合同会社ＧＫ０５６,,合同会社,東京都,港区,虎ノ門３丁目２２番１０－２０１号,,13,103,1050001,,,,,,,2022-02-25,1,,,,,ジーケイゼロファイブシックス,0
1906,8010703006129,新規,0,2022-02-25,2022-02-25,アセット・オールラウンダー合同会社,,合同会社,東京都,品川区,西五反田３丁目９－１８－７０２,,13,109,1410031,,,,,,,2022-02-25,1,,,,,アセットオールラウンダー,0
1907,8010705003322,新規,0,2022-02-25,2022-02-25,一般社団法人ヒューマンマネジメント協会,,その他の設立登記法人,東京都,品川区,旗の台３丁目４番２４号,,13,109,1420064,,,,,,,2022-02-25,1,,,,,ヒューマンマネジメントキョウカイ,0
1908,8010801032761,新規,0,2022-02-25,2022-02-25,株式会社ｍａｓｔ一級建築士事務所,,株式会社,東京都,大田区,新蒲田３丁目１４番１３号,,13,111,1440054,,,,,,,2022-02-25,1,,,,,マストイッキュウケンチクシジムショ,0
1915,8010903007166,新規,0,2022-02-25,2022-02-25,ウルビスコンサルティング合同会社,,合同会社,東京都,世田谷区,深沢２丁目１２番１－１０７号,,13,112,1580081,,,,,,,2022-02-25,1,,,,,ウルビスコンサルティング,0
1923,8011001145874,新規,0,2022-02-25,2022-02-25,パラディーゾ株式会社,,株式会社,東京都,渋谷区,笹塚１丁目６１番８－６０１号,,13,113,1510073,,,,,,,2022-02-25,1,,,,,パラディーゾ,0
1924,8011001145949,新規,0,2022-02-25,2022-02-25,株式会社マンゴーメロン,,株式会社,東京都,目黒区,目黒３丁目４番７号ファインヴィレッジ目黒Ａ棟１０２,,13,110,1530063,,,,,,,2022-02-25,1,,,,,マンゴーメロン,0
1929,8011003014210,新規,0,2022-02-25,2022-02-25,合同会社ＥＰＳＩＬＯＮ,,合同会社,東京都,目黒区,中目黒５丁目２８－１４ウィン祐天寺１０２,,13,110,1530061,,,,,,,2022-02-25,1,,,,,イプシロン,0
1930,8011003014219,新規,0,2022-02-25,2022-02-25,合同会社ｌｅｓｅｎ,,合同会社,東京都,渋谷区,猿楽町１－３,,13,113,1500033,,,,,,,2022-02-25,1,,,,,リーズン,0
1931,8011005009431,新規,0,2022-02-25,2022-02-25,一般財団法人五常,,その他の設立登記法人,東京都,渋谷区,千駄ヶ谷３丁目１４番５号,,13,113,1510051,,,,,,,2022-02-25,1,,,,,ゴジョウ,0
1936,8011401024034,新規,0,2022-02-25,2022-02-25,ＴＩＭＩ株式会社,,株式会社,東京都,板橋区,前野町２丁目１５－７ライオンズマンションときわ台第２－１０３号室,,13,119,1740063,,,,,,,2022-02-25,1,,,,,ティミー,0
1943,8011501027787,新規,0,2022-02-25,2022-02-25,株式会社Ａｃｅ,,株式会社,東京都,北区,中里２丁目２７番１１－２０２号,,13,117,1140015,,,,,,,2022-02-25,1,,,,,エイス,0
1951,8011801040366,新規,0,2022-02-25,2022-02-25,株式会社ＺＥＮｚ,,株式会社,東京都,足立区,島根３丁目１０番９号,,13,121,1210815,,,,,,,2022-02-25,1,,,,,ゼンジー,0
1958,8012401038858,新規,0,2022-02-25,2022-02-25,株式会社オルクスクリーン,,株式会社,東京都,府中市,三好町２－４－１,,13,206,1830000,,,,,,,2022-02-25,1,,,,,オルクスクリーン,0
1971,8020001145355,新規,0,2022-02-25,2022-02-25,株式会社メドライフ,,株式会社,神奈川県,横浜市金沢区,六浦東２丁目４番１号菊池ビル２０１号室,,14,108,2360037,,,,,,,2022-02-25,1,,,,,メドライフ,0
1972,8020001145363,新規,0,2022-02-25,2022-02-25,Ｐｅｒｃｅｅ株式会社,,株式会社,神奈川県,横浜市中区,長者町５丁目７１－２ＫｙＭａｘビル５０５号室,,14,104,2310033,,,,,,,2022-02-25,1,,,,,パーシー,0
1973,8020001145388,新規,0,2022-02-25,2022-02-25,ＶＳＴ株式会社,,株式会社,神奈川県,川崎市宮前区,有馬１丁目１９番８号,,14,136,2160003,,,,,,,2022-02-25,1,,,,,ブイエスティー,0
1975,8020003021372,新規,0,2022-02-25,2022-02-25,Ｅｎｄｏ　Ｓｅｒｖｉｃｅｓ　ａｎｄ　Ｃｏｍｍｕｎｉｃａｔｉｏｎ合同会社,,合同会社,神奈川県,川崎市高津区,久本３丁目６番４号Ｄ１５１３号室,,14,134,2130011,,,,,,,2022-02-25,1,,,,,エンドウサービシーズアンドコミュニケーション,0
1982,8030001146963,新規,0,2022-02-25,2022-02-25,株式会社Ｇｒａｎ　Ｐｏｒｔｅｒ,,株式会社,埼玉県,行田市,城西４丁目１番１５号,,11,206,3610057,,,,,,,2022-02-25,1,,,,,グランポーター,0
1987,8030003018855,新規,0,2022-02-25,2022-02-25,ＭｏｏＮ８合同会社,,合同会社,埼玉県,さいたま市中央区,大戸２丁目１５番５号コーポ岡田１０１,,11,105,3380012,,,,,,,2022-02-25,1,,,,,ムーンエイト,0
1988,8030003018871,新規,0,2022-02-25,2022-02-25,合同会社ＨＦＴ科学,,合同会社,埼玉県,所沢市,西所沢１丁目３－１１アルカディア８（６０５）,,11,208,3591144,,,,,,,2022-02-25,1,,,,,エイチエフティーカガク,0
1989,8030003018905,新規,0,2022-02-25,2022-02-25,合同会社Ｍ４,,合同会社,埼玉県,飯能市,大字岩渕４７番地２２,,11,209,3570048,,,,,,,2022-02-25,1,,,,,エムフォー,0
1990,8030003018921,新規,0,2022-02-25,2022-02-25,リスタ合同会社,,合同会社,埼玉県,和光市,新倉２丁目２８番２９号,,11,229,3510115,,,,,,,2022-02-25,1,,,,,リスタ,0
1995,8040001122352,新規,0,2022-02-25,2022-02-25,株式会社ｘｘｘｘｎｅｓｅ,,株式会社,千葉県,千葉市花見川区,幕張町１丁目１３１９番５号,,12,102,2620032,,,,,,,2022-02-25,1,,,,,ニーズ,0
1996,8040001122360,新規,0,2022-02-25,2022-02-25,株式会社ＭＩＸ　ＧＡＴＥ,,株式会社,千葉県,千葉市中央区,新千葉１丁目６番４,,12,101,2600031,,,,,,,2022-02-25,1,,,,,ミックスゲート,0
1999,8040005021526,新規,0,2022-02-25,2022-02-25,一般社団法人Ｆｅｌｉｎｅととの森,,その他の設立登記法人,千葉県,千葉市花見川区,花島町３５７番地２,,12,102,2620042,,,,,,,2022-02-25,1,,,,,フィーライントトノモリ,0
2000,8050001050676,新規,0,2022-02-25,2022-02-25,株式会社ブルードロップ,,株式会社,茨城県,下妻市,今泉１２５番地１,,08,210,3040053,,,,,,,2022-02-25,1,,,,,ブルードロップ,0
2001,8050001050692,新規,0,2022-02-25,2022-02-25,株式会社Ｇｌｏｂａｌ　ｉｎｖｅｓｔｏｒ,,株式会社,茨城県,牛久市,猪子町９９２番地６９５,,08,219,3001231,,,,,,,2022-02-25,1,,,,,グローバルインベスター,0
2003,8050003006354,新規,0,2022-02-25,2022-02-25,合同会社みのろ家,,合同会社,茨城県,龍ケ崎市,佐貫２丁目１６－３,,08,208,3010032,,,,,,,2022-02-25,1,,,,,ミノロヤ,0
2004,8060001034587,新規,0,2022-02-25,2022-02-25,おうちねっと株式会社,,株式会社,栃木県,宇都宮市,泉が丘６丁目３番２５号,,09,201,3210952,,,,,,,2022-02-25,1,,,,,オウチネット,0
2007,8070001038975,新規,0,2022-02-25,2022-02-25,株式会社ＫｅＴＳＨｉ,,株式会社,群馬県,太田市,龍舞町２８０７番地１,,10,205,3730806,,,,,,,2022-02-25,1,,,,,ケットシー,0
2016,8100001035085,新規,0,2022-02-25,2022-02-25,株式会社ベジモ,,株式会社,長野県,佐久市,佐久平駅南１８－３ヴァローレビル１階１０２,,20,217,3850029,,,,,,,2022-02-25,1,,,,,ベジモ,0
2017,8100001035093,新規,0,2022-02-25,2022-02-25,株式会社無尽燈,,株式会社,長野県,北佐久郡軽井沢町,大字長倉２５１６番地４,,20,321,3890111,,,,,,,2022-02-25,1,,,,,ムジントウ,0
2019,8100003006423,新規,0,2022-02-25,2022-02-25,合同会社アグリカルエイト,,合同会社,長野県,東御市,海善寺７２６番地７,,20,219,3890504,,,,,,,2022-02-25,1,,,,,アグリカルエイト,0
2020,8110001036462,新規,0,2022-02-25,2022-02-25,株式会社カガヤキ,,株式会社,新潟県,長岡市,上除町甲１１４５番地,,15,202,9402033,,,,,,,2022-02-25,1,,,,,カガヤキ,0
2026,8120003021164,新規,0,2022-02-25,2022-02-25,合同会社タイガー,,合同会社,大阪府,大阪市東淀川区,西淡路４丁目１番３０－６０４号,,27,114,5330031,,,,,,,2022-02-25,1,,,,,タイガー,0
2027,8120003021189,新規,0,2022-02-25,2022-02-25,合同会社ＨＯＡＮＧ　ＡＮＨ　ＧＲＯＵＰ,,合同会社,大阪府,大阪市東淀川区,上新庄２丁目１番５４－２１７号,,27,114,5330006,,,,,,,2022-02-25,1,,,,,ホアンアングループ,0
2028,8120101065113,新規,0,2022-02-25,2022-02-25,ジエイソン・エンタープライズ株式会社,,株式会社,大阪府,泉佐野市,南中岡本１９６番地の２,,27,213,5980036,,,,,,,2022-02-25,1,,,,,ジエイソンエンタープライズ,0
2029,8120101065121,新規,0,2022-02-25,2022-02-25,株式会社吉村電気工事,,株式会社,大阪府,河内長野市,北貴望ケ丘２３番１２号,,27,216,5860091,,,,,,,2022-02-25,1,,,,,ヨシムラデンキコウジ,0
2033,8120105009529,新規,0,2022-02-25,2022-02-25,宗教法人唯心聖教,,その他の設立登記法人,大阪府,河内長野市,栄町１４番２号,,27,216,5860032,,,,,,,2022-02-25,1,,,,,ユイシンセイキョウ,0
2036,8122001035609,新規,0,2022-02-25,2022-02-25,株式会社ハスモ,,株式会社,大阪府,八尾市,志紀町２丁目４２番１１号,,27,212,5810031,,,,,,,2022-02-25,1,,,,,ハスモ,0
2040,8130001071177,新規,0,2022-02-25,2022-02-25,株式会社ＳＨＵＭＡ,,株式会社,京都府,八幡市,橋本栗ケ谷３７番地の１８,,26,210,6148327,,,,,,,2022-02-25,1,,,,,シューマ,0
2041,8130001071193,新規,0,2022-02-25,2022-02-25,株式会社福山合成,,株式会社,京都府,京都市右京区,西京極橋詰町２３,,26,108,6150833,,,,,,,2022-02-25,1,,,,,フクヤマゴウセイ,0
2042,8130001071210,新規,0,2022-02-25,2022-02-25,京都パートナーズ株式会社,,株式会社,京都府,京都市右京区,嵯峨天龍寺広道町２０－３０,,26,108,6168372,,,,,,,2022-02-25,1,,,,,キョウトパートナーズ,0
2043,8130001071219,新規,0,2022-02-25,2022-02-25,株式会社ｘＨｅａｌｔｈ,,株式会社,京都府,京都市北区,小山上板倉町３７番地２,,26,101,6038126,,,,,,,2022-02-25,1,,,,,クロスヘルス,0
2046,8130003007732,新規,0,2022-02-25,2022-02-25,合同会社京都村正,,合同会社,京都府,京都市上京区,大宮通寺之内上る西入東千本町４１２,,26,102,6028416,,,,,,,2022-02-25,1,,,,,キョウトムラマサ,0
2055,8140003017391,新規,0,2022-02-25,2022-02-25,合同会社ＯＫＯＳＨＩＹＡＳＵ,,合同会社,兵庫県,神戸市北区,鈴蘭台西町１丁目８番１８号,,28,109,6511114,,,,,,,2022-02-25,1,,,,,オコシヤス,0
2056,8150001025346,新規,0,2022-02-25,2022-02-25,株式会社アルバトロス,,株式会社,奈良県,橿原市,石原田町８８番地の６,,29,205,6340014,,,,,,,2022-02-25,1,,,,,アルバトロス,0
2057,8150001025362,新規,0,2022-02-25,2022-02-25,株式会社トキワ舎,,株式会社,奈良県,生駒郡平群町,大字梨本９２０番地,,29,342,6360931,,,,,,,2022-02-25,1,,,,,トキワシャ,0
2059,8160005011044,新規,0,2022-02-25,2022-02-25,協同組合Ｊ・Ｃ・Ｓ,,その他の設立登記法人,滋賀県,守山市,吉身４丁目３番３号,,25,207,5240021,,,,,,,2022-02-25,1,,,,,ジェイシーエス,0
2071,8180003023535,新規,0,2022-02-25,2022-02-25,合同会社ｗａｎａ　ａｏ,,合同会社,愛知県,名古屋市名東区,本郷３丁目８１番地ハイネス本郷６０２号,,23,115,4650024,,,,,,,2022-02-25,1,,,,,ワナアオ,0
2079,8200001039778,新規,0,2022-02-25,2022-02-25,株式会社Ｎ－ＢＡＳＥ,,株式会社,岐阜県,本巣市,随原６０４番地２,,21,218,5010416,,,,,,,2022-02-25,1,,,,,エヌベース,0
2081,8210001018822,新規,0,2022-02-25,2022-02-25,エデュケーションラボラトリー株式会社,,株式会社,福井県,福井市,高田町第３０号２６番地,,18,201,9102226,,,,,,,2022-02-25,1,,,,,エデュケーションラボラトリー,0
2082,8210003001462,新規,0,2022-02-25,2022-02-25,合同会社Ａｒｃｏｂａｌｅｎｏ,,合同会社,福井県,越前市,大虫町第２４号１０番地の２,,18,209,9150885,,,,,,,2022-02-25,1,,,,,アルコバレーノ,0
2085,8230001019249,新規,0,2022-02-25,2022-02-25,株式会社ＴＯＵＫＡＩ,,株式会社,富山県,氷見市,窪１２７９番地,,16,205,9350024,,,,,,,2022-02-25,1,,,,,トウカイ,0
2089,8240001059376,新規,0,2022-02-25,2022-02-25,株式会社エムサポート,,株式会社,広島県,福山市,東陽台２丁目１６番２０号,,34,207,7210912,,,,,,,2022-02-25,1,,,,,エムサポート,0
2093,8260003003818,新規,0,2022-02-25,2022-02-25,民布合同会社,,合同会社,岡山県,岡山市北区,西古松２丁目２番２４号７０１号,,33,101,7000927,,,,,,,2022-02-25,1,,,,,ミンフ,0
2105,8330001029469,新規,0,2022-02-25,2022-02-25,株式会社Ｖｉ－ＩＮＴＥＣ,,株式会社,熊本県,熊本市中央区,南熊本２丁目１２番１５号アーバンビルド３－２０４号,,43,101,8600812,,,,,,,2022-02-25,1,,,,,ヴィインテック,0
2106,8330003009262,新規,0,2022-02-25,2022-02-25,合同会社陽気プランニング,,合同会社,熊本県,球磨郡あさぎり町,上北１９５番地６,,43,514,8680422,,,,,,,2022-02-25,1,,,,,ヨウキプランニング,0
2107,8340001024519,新規,0,2022-02-25,2022-02-25,株式会社ＢＨＥＬ,,株式会社,鹿児島県,奄美市,名瀬小浜町２５番１－３０３号,,46,222,8940006,,,,,,,2022-02-25,1,,,,,ベル,0
2109,8350001017604,新規,0,2022-02-25,2022-02-25,株式会社はまゆう,,株式会社,宮崎県,都城市,都北町５１３４番地３,,45,202,8850004,,,,,,,2022-02-25,1,,,,,ハマユウ,0
2111,8360003011827,新規,0,2022-02-25,2022-02-25,合同会社ＹＵＮＡＭＩ　ＦＡＣＴＯＲＹ,,合同会社,沖縄県,島尻郡久米島町,字兼城１１４６－１,,47,361,9013122,,,,,,,2022-02-25,1,,,,,ユナミファクトリー,0
2112,8360005006602,新規,0,2022-02-25,2022-02-25,一般社団法人ドアレスアートオキナワ,,その他の設立登記法人,沖縄県,那覇市,牧志３丁目９番１０号,,47,201,9000013,,,,,,,2022-02-25,1,,,,,ドアレスアートオキナワ,0
2119,8380001032600,新規,0,2022-02-25,2022-02-25,株式会社風凛,,株式会社,福島県,福島市,飯坂町茂庭字遠西９６番地の１,,07,201,9600271,,,,,,,2022-02-25,1,,,,,フウリン,0
2120,8380003005109,新規,0,2022-02-25,2022-02-25,合同会社ＹＡＭＡＫＩ,,合同会社,福島県,福島市,宮代字下川原５７番地の５,,07,201,9600116,,,,,,,2022-02-25,1,,,,,ヤマキ,0
2128,8430001086054,新規,0,2022-02-25,2022-02-25,ＦＴＬアセット株式会社,,株式会社,北海道,札幌市中央区,北五条西８丁目１番地１ラトゥール札幌伊藤ガーデン２７０９号,,01,101,0600005,,,,,,,2022-02-25,1,,,,,エフティーエルアセット,0
2129,8430001086070,新規,0,2022-02-25,2022-02-25,株式会社あゆむ,,株式会社,北海道,札幌市厚別区,厚別中央三条５丁目７番３号,,01,108,0040053,,,,,,,2022-02-25,1,,,,,アユム,0
2141,9010001224687,新規,0,2022-02-25,2022-02-25,ユニワールド・エコシステム株式会社,,株式会社,東京都,中央区,銀座７丁目１３番６号サガミビル２階,,13,102,1040061,,,,,,,2022-02-25,1,,,,,ユニワールドエコシステム,0
2142,9010003037088,新規,0,2022-02-25,2022-02-25,ふるさとスタンド合同会社,,合同会社,東京都,中央区,銀座２丁目１２番１２号,,13,102,1040061,,,,,,,2022-02-25,1,,,,,フルサトスタンド,0
2151,9010401165795,新規,0,2022-02-25,2022-02-25,ＰｏｏＬ株式会社,,株式会社,東京都,港区,六本木７丁目１５番７号,,13,103,1060032,,,,,,,2022-02-25,1,,,,,プール,0
2152,9010401165804,新規,0,2022-02-25,2022-02-25,株式会社Ａ＆Ｃ,,株式会社,東京都,港区,港南４丁目６番８－１５０２号,,13,103,1080075,,,,,,,2022-02-25,1,,,,,エイアンドシー,0
2153,9010401165812,新規,0,2022-02-25,2022-02-25,サムライキャット株式会社,,株式会社,東京都,港区,六本木１丁目９番１０号,,13,103,1060032,,,,,,,2022-02-25,1,,,,,サムライキャット,0
2155,9010403027143,新規,0,2022-02-25,2022-02-25,合同会社ＧＫ０５５,,合同会社,東京都,港区,虎ノ門３丁目２２番１０－２０１号,,13,103,1050001,,,,,,,2022-02-25,1,,,,,ジーケイゼロファイブファイブ,0
2162,9010701042257,新規,0,2022-02-25,2022-02-25,Ｍａｚｅｒｕ　Ｓｈａｒｅ株式会社,,株式会社,東京都,品川区,中延２丁目３－４アトラス品川中延２０６,,13,109,1420053,,,,,,,2022-02-25,1,,,,,マゼルシェア,0
2165,9010801032760,新規,0,2022-02-25,2022-02-25,株式会社Ｂｉｓ，ｆｒｅｅｅ,,株式会社,東京都,大田区,西蒲田８丁目２４番１号ミマツビル４階,,13,111,1440051,,,,,,,2022-02-25,1,,,,,ビズフリー,0
2174,9011001145824,新規,0,2022-02-25,2022-02-25,株式会社シャルー,,株式会社,東京都,渋谷区,神宮前６丁目２３番４号２階,,13,113,1500001,,,,,,,2022-02-25,1,,,,,シャルー,0
2175,9011001145997,新規,0,2022-02-25,2022-02-25,Ｄｅｅｐ＆Ｌｉｇｈｔ　Ｔｅｃｈｎｏｌｏｇｙ株式会社,,株式会社,東京都,渋谷区,円山町５番５号,,13,113,1500044,,,,,,,2022-02-25,1,,,,,ディープアンドライトテクノロジー,0
2178,9011101097866,新規,0,2022-02-25,2022-02-25,日本大新東株式会社,,株式会社,東京都,新宿区,百人町２丁目６番２号日神シルバープラザ大久保第２、７０７,,13,104,1690073,,,,,,,2022-02-25,1,,,,,ニホンダイシンヒガシ,0
2179,9011101097916,新規,0,2022-02-25,2022-02-25,株式会社デザートアイランド,,株式会社,東京都,新宿区,西新宿３丁目３番１３号西新宿水間ビル６階,,13,104,1600023,,,,,,,2022-02-25,1,,,,,デザートアイランド,0
2183,9011201023672,新規,0,2022-02-25,2022-02-25,株式会社トゥーダブ,,株式会社,東京都,中野区,東中野３丁目２－１３,,13,114,1640003,,,,,,,2022-02-25,1,,,,,トゥーダブ,0
2186,9011501027786,新規,0,2022-02-25,2022-02-25,株式会社テンクス,,株式会社,東京都,荒川区,南千住３丁目１５番１３号,,13,118,1160003,,,,,,,2022-02-25,1,,,,,テンクス,0
2187,9011603003537,新規,0,2022-02-25,2022-02-25,合同会社Ｔｙｐｅ－Ｂｅ,,合同会社,東京都,練馬区,練馬１丁目２０番８号日建練馬ビル２Ｆ,,13,120,1760001,,,,,,,2022-02-25,1,,,,,タイプビー,0
2188,9011703003073,新規,0,2022-02-25,2022-02-25,ラ・プエルタ・アビエルタ合同会社,,合同会社,東京都,江戸川区,南小岩６丁目３０番１０号デンキランドビル３０１,,13,123,1330056,,,,,,,2022-02-25,1,,,,,ラプエルタアビエルタ,0
2197,9012403005252,新規,0,2022-02-25,2022-02-25,合同会社洋山社,,合同会社,東京都,調布市,西つつじケ丘３丁目１１番地９パークホームズ西つつじケ丘１１０号室,,13,208,1820006,,,,,,,2022-02-25,1,,,,,ヨウサンシャ,0
2201,9012701016942,新規,0,2022-02-25,2022-02-25,株式会社ママムーン,,株式会社,東京都,西東京市,西原町５丁目３番３２号,,13,229,1880004,,,,,,,2022-02-25,1,,,,,ママムーン,0
2209,9013301048707,新規,0,2022-02-25,2022-02-25,株式会社センターロック,,株式会社,東京都,豊島区,南大塚２丁目４５番８号,,13,116,1700005,,,,,,,2022-02-25,1,,,,,センターロック,0
2210,9013301048715,新規,0,2022-02-25,2022-02-25,株式会社ＲＩＴＯＲＩ,,株式会社,東京都,豊島区,東池袋２丁目４５番２号７階,,13,116,1700013,,,,,,,2022-02-25,1,,,,,リトリ,0
2211,9013301048723,新規,0,2022-02-25,2022-02-25,榮富株式会社,,株式会社,東京都,豊島区,西池袋１丁目１０－２日高ビル３０５号室,,13,116,1710021,,,,,,,2022-02-25,1,,,,,ロンフ,0
2213,9020001145346,新規,0,2022-02-25,2022-02-25,株式会社ＪＳＥ,,株式会社,神奈川県,川崎市麻生区,岡上３丁目１８番１０号,,14,137,2150027,,,,,,,2022-02-25,1,,,,,ジェイエスイー,0
2214,9020001145395,新規,0,2022-02-25,2022-02-25,株式会社ＬＥＧＩＴ,,株式会社,神奈川県,横浜市青葉区,荏田町１２３６番地７東急江田駅前ドエリング６０７号,,14,117,2250013,,,,,,,2022-02-25,1,,,,,レジット,0
2219,9020003021347,新規,0,2022-02-25,2022-02-25,Ｐｏｗｅｒｆｕｌ　Ｑｕｅｓｔ合同会社,,合同会社,神奈川県,川崎市中原区,新丸子東３丁目１１００番地１２Ｍ１００１,,14,133,2110004,,,,,,,2022-02-25,1,,,,,パワフルクエスト,0
2220,9020003021355,新規,0,2022-02-25,2022-02-25,ＫｉｃｋＴｅｃｈ合同会社,,合同会社,神奈川県,横浜市港北区,日吉７丁目２１番１８－５０２号,,14,109,2230061,,,,,,,2022-02-25,1,,,,,キックテック,0
2221,9020003021363,新規,0,2022-02-25,2022-02-25,合同会社アスキスト・センタリング,,合同会社,神奈川県,川崎市川崎区,駅前本町１１番地２川崎フロンティアビル４階,,14,131,2100007,,,,,,,2022-02-25,1,,,,,アスキストセンタリング,0
2226,9021001075203,新規,0,2022-02-25,2022-02-25,株式会社ペッティ,,株式会社,神奈川県,足柄下郡湯河原町,鍛冶屋８３９番地の３,,14,384,2590313,,,,,,,2022-02-25,1,,,,,ペッティ,0
2227,9021001075269,新規,0,2022-02-25,2022-02-25,株式会社にゃにゃにゃ,,株式会社,神奈川県,藤沢市,辻堂西海岸１丁目６－７－４０２,,14,205,2510046,,,,,,,2022-02-25,1,,,,,ニャニャニャ,0
2237,9030001146847,新規,0,2022-02-25,2022-02-25,桜一株式会社,,株式会社,埼玉県,越谷市,大間野町１丁目７７番地１,,11,222,3430844,,,,,,,2022-02-25,1,,,,,オウカ,0
2238,9030001146921,新規,0,2022-02-25,2022-02-25,株式会社イワシン,,株式会社,埼玉県,川口市,元郷２丁目１５番１－５００７号エルザタワー５５,,11,203,3320011,,,,,,,2022-02-25,1,,,,,イワシン,0
2239,9030001146954,新規,0,2022-02-25,2022-02-25,株式会社ＫＮＯＴ,,株式会社,埼玉県,行田市,長野２丁目２１番６号,,11,206,3610023,,,,,,,2022-02-25,1,,,,,ノット,0
2240,9030001146979,新規,0,2022-02-25,2022-02-25,株式会社ＴＯＰ　ＲＯＰＥコミュニケーションズ,,株式会社,埼玉県,川越市,大字山田１６２１番地１,,11,201,3500822,,,,,,,2022-02-25,1,,,,,トップロープコミュニケーションズ,0
2241,9030001146987,新規,0,2022-02-25,2022-02-25,株式会社Ｎ・Ｏ・Ｓ・９,,株式会社,埼玉県,吉川市,大字土場８５番地１,,11,243,3420026,,,,,,,2022-02-25,1,,,,,エヌオーエスキュウ,0
2242,9030001146995,新規,0,2022-02-25,2022-02-25,ウィンロング株式会社,,株式会社,埼玉県,越谷市,大字大房１１３１番地５,,11,222,3430027,,,,,,,2022-02-25,1,,,,,ウィンロング,0
2246,9030003018912,新規,0,2022-02-25,2022-02-25,合同会社ＭＩＹＵ,,合同会社,埼玉県,さいたま市見沼区,大字中川２５３番地１,,11,104,3370043,,,,,,,2022-02-25,1,,,,,ミユ,0
2249,9030005020726,新規,0,2022-02-25,2022-02-25,一般社団法人秩父商人仲間,,その他の設立登記法人,埼玉県,秩父郡小鹿野町,小鹿野１６３０番地１,,11,365,3680105,,,,,,,2022-02-25,1,,,,,チチブショウニンナカマ,0
2258,9040001122285,新規,0,2022-02-25,2022-02-25,ミライロジ株式会社,,株式会社,千葉県,千葉市美浜区,新港８８番地,,12,106,2610002,,,,,,,2022-02-25,1,,,,,ミライロジ,0
2261,9040005021525,新規,0,2022-02-25,2022-02-25,医療法人社団Ｒ＆Ｓ,,その他の設立登記法人,千葉県,成田市,はなのき台１丁目２２番地９,,12,211,2860007,,,,,,,2022-02-25,1,,,,,アールアンドエス,0
2264,9050001050683,新規,0,2022-02-25,2022-02-25,株式会社ブリッツソリューション,,株式会社,茨城県,ひたちなか市,大字勝倉３４３３番地１７９８,,08,221,3120024,,,,,,,2022-02-25,1,,,,,ブリッツソリューション,0
2267,9060003003960,新規,0,2022-02-25,2022-02-25,ＩＮＩＴＩＡＬＡＳＳＥＴＭＡＮＡＧＥＭＥＮＴ合同会社,,合同会社,栃木県,宇都宮市,上籠谷町１６１７番地１０,,09,201,3213233,,,,,,,2022-02-25,1,,,,,イニシアルアセットマネジメント,0
2269,9080401025638,新規,0,2022-02-25,2022-02-25,丸水織物株式会社,,株式会社,静岡県,浜松市東区,豊町２１８１番地の１,,22,132,4313101,,,,,,,2022-02-25,1,,,,,マルミズオリモノ,0
2270,9100001035092,新規,0,2022-02-25,2022-02-25,株式会社スパイクス,,株式会社,長野県,岡谷市,神明町１丁目１番２３号,,20,204,3940004,,,,,,,2022-02-25,1,,,,,スパイクス,0
2271,9100001035101,新規,0,2022-02-25,2022-02-25,ＤＴＥＬＬＡＲ株式会社,,株式会社,長野県,北佐久郡御代田町,大字馬瀬口２０９７－５,,20,323,3890207,,,,,,,2022-02-25,1,,,,,ディテラー,0
2284,9120001243899,新規,0,2022-02-25,2022-02-25,株式会社Ｌｉｖｅｗｏｏｄ,,株式会社,大阪府,守口市,梶町４丁目７８番１１号,,27,209,5700015,,,,,,,2022-02-25,1,,,,,ライブグッド,0
2285,9120001243998,新規,0,2022-02-25,2022-02-25,株式会社ＷＩＳＤＡＭ,,株式会社,大阪府,大阪市西淀川区,御幣島１丁目７番２２号,,27,113,5550012,,,,,,,2022-02-25,1,,,,,ウィズダム,0
2286,9120001244006,新規,0,2022-02-25,2022-02-25,株式会社永楽,,株式会社,大阪府,大阪市西成区,旭１丁目１０番２４－１０３号,,27,122,5570032,,,,,,,2022-02-25,1,,,,,エイラク,0
2287,9120001244039,新規,0,2022-02-25,2022-02-25,フロントクリエイト株式会社,,株式会社,大阪府,大阪市住之江区,北加賀屋２丁目７番２５号,,27,125,5590011,,,,,,,2022-02-25,1,,,,,フロントクリエイト,0
2288,9120001244055,新規,0,2022-02-25,2022-02-25,株式会社アルファ・コネクト,,株式会社,大阪府,大阪市中央区,本町２丁目３－４アソルティ本町４Ｆ,,27,128,5410053,,,,,,,2022-02-25,1,,,,,アルファコネクト,0
2289,9120001244071,新規,0,2022-02-25,2022-02-25,株式会社ＮｅｉｇｅＳｏｕｎｄ,,株式会社,大阪府,大阪市中央区,淡路町３丁目４－８リーガルタワー大阪２８０２号,,27,128,5410047,,,,,,,2022-02-25,1,,,,,ネージュサウンド,0
2297,9120901045635,新規,0,2022-02-25,2022-02-25,株式会社ハイブリッドメディカル,,株式会社,大阪府,豊中市,緑丘１丁目２８番２２の３号,,27,203,5600002,,,,,,,2022-02-25,1,,,,,ハイブリッドメディカル,0
2298,9120901045643,新規,0,2022-02-25,2022-02-25,株式会社ＷＡＫＵＷＡＫＵ,,株式会社,大阪府,豊中市,上野坂１丁目１０番３５号ゼファーヒル００６号,,27,203,5600012,,,,,,,2022-02-25,1,,,,,ワクワク,0
2302,9120905006286,新規,0,2022-02-25,2022-02-25,一般社団法人ＹＯＧＡクリエイトジャパン,,その他の設立登記法人,大阪府,箕面市,桜４丁目１８番１号１Ｆウィッシュ内,,27,220,5620041,,,,,,,2022-02-25,1,,,,,ヨガクリエイトジャパン,0
2310,9130001071176,新規,0,2022-02-25,2022-02-25,ＡｓａＢ株式会社,,株式会社,京都府,京都市下京区,東洞院通五条下る三丁目和泉町５２９番地,,26,106,6000000,,,,,,,2022-02-25,1,,,,,アサブ,0
2312,9140001125014,新規,0,2022-02-25,2022-02-25,株式会社ＬＹＯＳ,,株式会社,兵庫県,神戸市中央区,元町通１丁目７番１号－６Ｆ,,28,110,6500022,,,,,,,2022-02-25,1,,,,,リヨス,0
2313,9140001125022,新規,0,2022-02-25,2022-02-25,株式会社肉の外間,,株式会社,兵庫県,宝塚市,末成町３９番８号,,28,214,6650044,,,,,,,2022-02-25,1,,,,,ニクノソトマ,0
2314,9140001125039,新規,0,2022-02-25,2022-02-25,株式会社メタライフ,,株式会社,兵庫県,神戸市中央区,熊内町８丁目１４－１６Ｂ棟,,28,110,6510056,,,,,,,2022-02-25,1,,,,,メタライフ,0
2316,9140003017399,新規,0,2022-02-25,2022-02-25,合同会社ＤＯＡＬＬ,,合同会社,兵庫県,芦屋市,川西町４番２２号,,28,206,6590072,,,,,,,2022-02-25,1,,,,,ドール,0
2335,9180001150074,新規,0,2022-02-25,2022-02-25,Ｍ’ｓ　Ｌｉｎｋ株式会社,,株式会社,愛知県,名古屋市港区,当知３丁目２２０３番地レジデンスハーモニー２０５号,,23,111,4550804,,,,,,,2022-02-25,1,,,,,エムズリンク,0
2336,9180001150116,新規,0,2022-02-25,2022-02-25,株式会社Ｂａｉｓｕｌｌｅｎ,,株式会社,愛知県,名古屋市天白区,塩釜口１丁目８３６番地,,23,116,4680073,,,,,,,2022-02-25,1,,,,,バイサレン,0
2339,9180003023542,新規,0,2022-02-25,2022-02-25,ＨＲＫ合同会社,,合同会社,愛知県,北名古屋市,徳重小崎１４番地,,23,234,4810038,,,,,,,2022-02-25,1,,,,,エイチアールケー,0
2345,9190003003907,新規,0,2022-02-25,2022-02-25,リアンインターナショナル合同会社,,合同会社,三重県,津市,丸之内１０番１６号,,24,201,5140033,,,,,,,2022-02-25,1,,,,,リアンインターナショナル,0
2351,9200001039785,新規,0,2022-02-25,2022-02-25,株式会社ｔｒｏｉｓ,,株式会社,岐阜県,岐阜市,茜部菱野２丁目１０２番地７,,21,201,5008268,,,,,,,2022-02-25,1,,,,,トロワ,0
2355,9210001018821,新規,0,2022-02-25,2022-02-25,共栄マネジメント株式会社,,株式会社,福井県,敦賀市,中央町２丁目１１番２５号,,18,202,9140811,,,,,,,2022-02-25,1,,,,,キョウエイマネジメント,0
2356,9230005009204,新規,0,2022-02-25,2022-02-25,特定非営利活動法人富山動物愛護支援団体きょうのわんこ・あしたのにゃんこ,,その他の設立登記法人,富山県,富山市,婦中町広田４０４８番地,,16,201,9392745,,,,,,,2022-02-25,1,,,,,トヤマドウブツアイゴシエンダンタイキョウノワンコアシタノニャンコ,0
2360,9240001059375,新規,0,2022-02-25,2022-02-25,株式会社うみとうみへ,,株式会社,広島県,尾道市,久保町１９８８番地,,34,205,7220042,,,,,,,2022-02-25,1,,,,,ウミトウミヘ,0
2361,9240001059383,新規,0,2022-02-25,2022-02-25,ウォームス株式会社,,株式会社,広島県,廿日市市,宮内２７３５番地３,,34,213,7380034,,,,,,,2022-02-25,1,,,,,ウォームス,0
2367,9250001019428,新規,0,2022-02-25,2022-02-25,株式会社トラスト,,株式会社,山口県,下関市,彦島迫町６丁目１番９号プリオール２０２号,,35,201,7500092,,,,,,,2022-02-25,1,,,,,トラスト,0
2372,9270001008461,新規,0,2022-02-25,2022-02-25,株式会社６３,,株式会社,鳥取県,鳥取市,末広温泉町７７０番地１号,,31,201,6800833,,,,,,,2022-02-25,1,,,,,ロクサン,0
2373,9280001008642,新規,0,2022-02-25,2022-02-25,株式会社植竹,,株式会社,島根県,出雲市,平野町１４２８番地,,32,203,6930065,,,,,,,2022-02-25,1,,,,,ウエタケ,0
2376,9290001096488,新規,0,2022-02-25,2022-02-25,株式会社ｋｅｙ　ｌｉｎｋ,,株式会社,福岡県,福岡市博多区,博多駅前３丁目７番１号葵ビル４０５,,40,132,8120011,,,,,,,2022-02-25,1,,,,,キーリンク,0
2377,9290001096546,新規,0,2022-02-25,2022-02-25,株式会社いわきり,,株式会社,福岡県,福岡市博多区,博多駅南４丁目１９番１５号,,40,132,8120016,,,,,,,2022-02-25,1,,,,,イワキリ,0
2384,9290801028277,新規,0,2022-02-25,2022-02-25,株式会社ｎｅｘｔＵＰ,,株式会社,福岡県,田川市,白鳥町５－２,,40,206,8250003,,,,,,,2022-02-25,1,,,,,ネクストアップ,0
2388,9310005008585,新規,0,2022-02-25,2022-02-25,一般社団法人雲仙観光局,,その他の設立登記法人,長崎県,雲仙市,小浜町雲仙３２０番地,,42,213,8540621,,,,,,,2022-02-25,1,,,,,ウンゼンカンコウキョク,0
2390,9320001018918,新規,0,2022-02-25,2022-02-25,株式会社うちだ水道設備,,株式会社,大分県,大分市,法勝台１丁目５番２７号,,44,201,8700171,,,,,,,2022-02-25,1,,,,,ウチダスイドウセツビ,0
2391,9320003003736,新規,0,2022-02-25,2022-02-25,Ｍ・Ｆ・Ｔ合同会社,,合同会社,大分県,速見郡日出町,大字川崎２９５１番地５,,44,341,8791505,,,,,,,2022-02-25,1,,,,,エムエフティー,0
2395,9330001029468,新規,0,2022-02-25,2022-02-25,株式会社おさかなセンター魚光,,株式会社,熊本県,熊本市西区,城山半田１丁目２番２５号,,43,103,8600064,,,,,,,2022-02-25,1,,,,,オサカナセンターウオミツ,0
2396,9330001029476,新規,0,2022-02-25,2022-02-25,エッジモーメント九州株式会社,,株式会社,熊本県,熊本市東区,長嶺南６丁目７番３１号,,43,102,8618039,,,,,,,2022-02-25,1,,,,,エッジモーメントキュウシュウ,0
2399,9330005010473,新規,0,2022-02-25,2022-02-25,医療法人レチナ,,その他の設立登記法人,熊本県,熊本市南区,馬渡１丁目１４番２５号,,43,104,8620968,,,,,,,2022-02-25,1,,,,,レチナ,0
2406,9350001017603,新規,0,2022-02-25,2022-02-25,株式会社ミカタ不動産,,株式会社,宮崎県,都城市,郡元町３２６０番地３２９シンプルノート郡元Ｆ棟,,45,202,8850013,,,,,,,2022-02-25,1,,,,,ミカタフドウサン,0
2409,9360005006601,新規,0,2022-02-25,2022-02-25,一般社団法人ＦＵＴＵＲＥ　Ｓｐｏｒｔｓ＆Ｃｕｌｔｕｒｅ　Ａｃａｄｅｍｙ,,その他の設立登記法人,沖縄県,豊見城市,字豊崎３番地５９ＴＯＹＯＳＡＫＩプラットフォームセンター,,47,212,9010225,,,,,,,2022-02-25,1,,,,,フューチャースポーツアンドカルチャーアカデミー,0
2411,9370001048241,新規,0,2022-02-25,2022-02-25,ＫＨＡＮ　ＢＲＯＴＨＥＲＳ株式会社,,株式会社,宮城県,仙台市若林区,二軒茶屋１７番２２号,,04,103,9840046,,,,,,,2022-02-25,1,,,,,カーンブラザーズ,0
2413,9370003005595,新規,0,2022-02-25,2022-02-25,ジェイサーチ合同会社,,合同会社,宮城県,仙台市宮城野区,鉄砲町東４－４－２０１,,04,102,9830867,,,,,,,2022-02-25,1,,,,,ジェイサーチ,0
2424,9420003002463,新規,0,2022-02-25,2022-02-25,合同会社伊三郎商店,,合同会社,青森県,青森市,大字新城字平岡１５１番地１４８,,02,201,0380042,,,,,,,2022-02-25,1,,,,,イサブロウショウテン,0
2427,9430001086061,新規,0,2022-02-25,2022-02-25,株式会社札幌ヴィレッジワークス,,株式会社,北海道,札幌市北区,屯田七条１１丁目３番１号,,01,102,0020857,,,,,,,2022-02-25,1,,,,,サッポロヴィレッジワークス,0
2429,9460101007146,新規,0,2022-02-25,2022-02-25,株式会社Ｓｑｕａｌｌ,,株式会社,北海道,帯広市,自由が丘４丁目７番地１２,,01,207,0802476,,,,,,,2022-02-25,1,,,,,スコール,0
2432,9490001010123,新規,0,2022-02-25,2022-02-25,株式会社南部製作所,,株式会社,高知県,高知市,福井町３０７７番地,,39,201,7800965,,,,,,,2022-02-25,1,,,,,ナンブセイサクショ,0
2435,9700150062059,新規,0,2022-02-25,2015-10-09,有川漁業団,,その他,長崎県,南松浦郡新上五島町,有川郷４６３－３,,42,411,8574211,,,,,,,2015-10-09,1,,,,,アリカワギヨギヨウダン,0
