sequenceNumber,corporateNumber,process,correct,updateDate,changeDate,name,nameImageId,kind,prefectureName,cityName,streetNumber,addressImageId,prefectureCode,cityCode,postCode,addressOutside,addressOutsideImageId,closeDate,closeCause,successorCorporateNumber,changeCause,assignmentDate,latest,enName,enPrefectureName,enCityName,enAddressOutside,furigana,hihyoji
10,1010001233456,新規,0,2023-03-07,2023-03-07,株式会社松井貿易,,株式会社,東京都,中央区,日本橋蛎殻町１丁目１７番２－１００８号,,13,102,1030014,,,,,,,2023-03-07,1,,,,,マツイボウエキ,0
14,1010003039967,新規,0,2023-03-07,2023-03-07,合同会社銀杏信用サービス,,合同会社,東京都,千代田区,丸の内３丁目１番１号東京共同会計事務所内,,13,101,1000005,,,,,,,2023-03-07,1,,,,,イチョウシンヨウサービス,0
15,1010005036351,新規,0,2023-03-07,2023-03-07,アズマソーラーホールディングス一般社団法人,,その他の設立登記法人,東京都,千代田区,麹町２丁目８番地ＭＬＣ麹町ビル４階フィンポート税理士法人内,,13,101,1020083,,,,,,,2023-03-07,1,,,,,アズマソーラーホールディングス,0
21,1010401172907,新規,0,2023-03-07,2023-03-07,ＭＩＴアドバイザリー株式会社,,株式会社,東京都,港区,虎ノ門１丁目３番１号東京虎ノ門グローバルスクエア５階,,13,103,1050001,,,,,,,2023-03-07,1,,,,,エムアイティーアドバイザリー,0
22,1010402032242,新規,0,2023-03-07,2023-03-07,有限会社桜航産,,有限会社,東京都,港区,芝大門１丁目５番２号,,13,103,1050012,,,,,,,2023-03-07,1,,,,,サクラコウサン,0
27,1010403029650,新規,0,2023-03-07,2023-03-07,ソーラーファンドワン合同会社,,合同会社,東京都,港区,芝浦３丁目９番１号芝浦ルネサイトタワー６階株式会社ＣＯ２Ｏ内,,13,103,1080023,,,,,,,2023-03-07,1,,,,,ソーラーファンドワン,0
30,1010501050104,新規,0,2023-03-07,2023-03-07,株式会社Ｐｒｏｇｒｅ．,,株式会社,東京都,台東区,今戸１丁目１９番５号,,13,106,1110024,,,,,,,2023-03-07,1,,,,,プログレ,0
35,1010601062701,新規,0,2023-03-07,2023-03-07,株式会社ＴＩＫ,,株式会社,東京都,江東区,青海２丁目７番４号ｔｈｅＳＯＨＯ８１６号室,,13,108,1350064,,,,,,,2023-03-07,1,,,,,ティック,0
40,1010701043915,新規,0,2023-03-07,2023-03-07,ＳＴ　Ａｇｅｎｃｙ　Ｊａｐａｎ株式会社,,株式会社,東京都,品川区,上大崎２丁目１５番１９号,,13,109,1410021,,,,,,,2023-03-07,1,,,,,エスティーエージェンシージャパン,0
43,1010901052641,新規,0,2023-03-07,2023-03-07,株式会社Ｒｅｖｈｅａｄ,,株式会社,東京都,世田谷区,弦巻３丁目２２番１６号,,13,112,1540016,,,,,,,2023-03-07,1,,,,,レヴヘッド,0
49,1011001152951,新規,0,2023-03-07,2023-03-07,株式会社ｕｌｕｓａｇｅ,,株式会社,東京都,渋谷区,神宮前６丁目２３番４号桑野ビル２階,,13,113,1500001,,,,,,,2023-03-07,1,,,,,ウルスエイジ,0
50,1011001152968,新規,0,2023-03-07,2023-03-07,Ａｎｙｗｈｅｒｅ株式会社,,株式会社,東京都,渋谷区,神宮前１丁目５番８号神宮前タワービルディング１２階,,13,113,1500001,,,,,,,2023-03-07,1,,,,,エニウェアー,0
54,1011003016394,新規,0,2023-03-07,2023-03-07,合同会社ＬＹＳＯＵ,,合同会社,東京都,渋谷区,道玄坂１丁目１０番８号渋谷道玄坂東急ビル,,13,113,1500043,,,,,,,2023-03-07,1,,,,,リソウ,0
61,1011301028513,新規,0,2023-03-07,2023-03-07,株式会社ａｎｄＣ,,株式会社,東京都,杉並区,高円寺北３丁目２２番１５号ミカドビル２Ｆ,,13,115,1660002,,,,,,,2023-03-07,1,,,,,アンドシー,0
63,1011401024957,新規,0,2023-03-07,2023-03-07,株式会社ＣＲＹＳＴＡＬ　ＧＡＲＤＥＮ,,株式会社,東京都,板橋区,大谷口２丁目５６番１５号,,13,119,1730035,,,,,,,2023-03-07,1,,,,,クリスタルガーデン,0
65,1011403003934,新規,0,2023-03-07,2023-03-07,合同会社金鳳,,合同会社,東京都,板橋区,大山西町２６番７号サンパレス青山３０２,,13,119,1730033,,,,,,,2023-03-07,1,,,,,キンホウ,0
70,1011505002537,新規,0,2023-03-07,2023-03-07,医療法人社団白羽会,,その他の設立登記法人,東京都,北区,滝野川７丁目３３番５号,,13,117,1140023,,,,,,,2023-03-07,1,,,,,ハクハカイ,0
74,1011701026042,新規,0,2023-03-07,2023-03-07,Ｃ株式会社,,株式会社,東京都,江戸川区,中葛西１丁目１９番１１号,,13,123,1340083,,,,,,,2023-03-07,1,,,,,シ,0
75,1011705001768,新規,0,2023-03-07,2023-03-07,一般社団法人未来フリーランス協会,,その他の設立登記法人,東京都,江戸川区,南小岩５丁目２０番３号,,13,123,1330056,,,,,,,2023-03-07,1,,,,,ミライフリーランスキョウカイ,0
80,1012701017502,新規,0,2023-03-07,2023-03-07,株式会社ジースタイル,,株式会社,東京都,西東京市,南町１丁目６番８号,,13,229,1880012,,,,,,,2023-03-07,1,,,,,ジースタイル,0
81,1012701017519,新規,0,2023-03-07,2023-03-07,株式会社山わらう,,株式会社,東京都,小平市,御幸町３０６番地の１６,,13,211,1870012,,,,,,,2023-03-07,1,,,,,ヤマワラウ,0
87,1013301050389,新規,0,2023-03-07,2023-03-07,株式会社ＨＡＮ,,株式会社,東京都,豊島区,西池袋５丁目２６－１６ＣＨＩＢＡビル５１１号室,,13,116,1710021,,,,,,,2023-03-07,1,,,,,ハン,0
88,1013301050414,新規,0,2023-03-07,2023-03-07,株式会社Ｐａｂｌｏ　ｖｉｎｃｉ,,株式会社,東京都,豊島区,上池袋３丁目１９番７号グランメゾン２Ｆ,,13,116,1700012,,,,,,,2023-03-07,1,,,,,パブロヴィンチ,0
89,1013303006521,新規,0,2023-03-07,2023-03-07,合同会社ＵＺＯ,,合同会社,東京都,豊島区,南大塚３丁目４５番４号ドエル朝日２０１号室,,13,116,1700005,,,,,,,2023-03-07,1,,,,,ユーゼットオー,0
103,1020001150460,新規,0,2023-03-07,2023-03-07,株式会社ＣＫＫ,,株式会社,神奈川県,横浜市保土ケ谷区,瀬戸ケ谷町１１６番地３,,14,106,2400024,,,,,,,2023-03-07,1,,,,,シーケーケー,0
104,1020001150551,新規,0,2023-03-07,2023-03-07,株式会社Ｌｉｔ,,株式会社,神奈川県,横浜市港南区,芹が谷１丁目２０番３号,,14,111,2330006,,,,,,,2023-03-07,1,,,,,リット,0
105,1020001150568,新規,0,2023-03-07,2023-03-07,株式会社ミヤコ通商,,株式会社,神奈川県,横浜市栄区,桂台西２丁目１３番１号,,14,115,2470035,,,,,,,2023-03-07,1,,,,,ミヤコツウショウ,0
106,1020001150576,新規,0,2023-03-07,2023-03-07,株式会社Ｗｉｓｔｅｒｉａ,,株式会社,神奈川県,横浜市泉区,岡津町２５１番地コーポ和光１０１号室,,14,116,2450003,,,,,,,2023-03-07,1,,,,,ウィステリア,0
107,1020001150584,新規,0,2023-03-07,2023-03-07,株式会社Ｒｅｓｕｒｒｅｎｃｅ　Ｊａｐａｎ,,株式会社,神奈川県,横浜市港南区,上永谷１丁目８番４７号,,14,111,2330012,,,,,,,2023-03-07,1,,,,,リザレンスジャパン,0
108,1020003023391,新規,0,2023-03-07,2023-03-07,ＯＡＫ合同会社,,合同会社,神奈川県,横浜市青葉区,あかね台１丁目３４－８,,14,117,2270066,,,,,,,2023-03-07,1,,,,,オーク,0
109,1020003023466,新規,0,2023-03-07,2023-03-07,ＫＧＮ合同会社,,合同会社,神奈川県,川崎市高津区,久本１丁目３番３－７０５号,,14,134,2130011,,,,,,,2023-03-07,1,,,,,ケージーエヌ,0
117,1021001078337,新規,0,2023-03-07,2023-03-07,株式会社デイジック,,株式会社,神奈川県,茅ヶ崎市,下町屋２丁目２番１３号－Ａ２０２,,14,207,2530087,,,,,,,2023-03-07,1,,,,,デイジック,0
130,1030001152687,新規,0,2023-03-07,2023-03-07,桜恵株式会社,,株式会社,埼玉県,さいたま市大宮区,櫛引町１丁目５３７番地２,,11,103,3300851,,,,,,,2023-03-07,1,,,,,オウケイ,0
131,1030001152753,新規,0,2023-03-07,2023-03-07,ｐａｎｄａ　ｉｎｋ株式会社,,株式会社,埼玉県,蕨市,塚越２丁目１４－７蕨北野マンション１０２号室,,11,223,3350002,,,,,,,2023-03-07,1,,,,,パンダインク,0
138,1030003021320,新規,0,2023-03-07,2023-03-07,ＨＵＢＡＢ合同会社,,合同会社,埼玉県,羽生市,大字羽生４１１番地２,,11,216,3480055,,,,,,,2023-03-07,1,,,,,フバブ,0
141,1040001127317,新規,0,2023-03-07,2023-03-07,株式会社リフレッシュサロン,,株式会社,千葉県,市川市,曽谷３丁目１０番１３号,,12,203,2720832,,,,,,,2023-03-07,1,,,,,リフレッシュサロン,0
142,1040001127358,新規,0,2023-03-07,2023-03-07,Ａ．Ｋ株式会社,,株式会社,千葉県,木更津市,真里谷２１４番地９,,12,206,2920201,,,,,,,2023-03-07,1,,,,,エーケー,0
143,1040003022111,新規,0,2023-03-07,2023-03-07,合同会社康楽,,合同会社,千葉県,千葉市若葉区,桜木北１丁目３６番６号中２階,,12,104,2640029,,,,,,,2023-03-07,1,,,,,コウラク,0
145,1050001052472,新規,0,2023-03-07,2023-03-07,株式会社ＴＫ商会,,株式会社,茨城県,古河市,上和田１２１番地４,,08,204,3060122,,,,,,,2023-03-07,1,,,,,ティケイショウカイ,0
150,1060001035765,新規,0,2023-03-07,2023-03-07,株式会社ＭＵＨＡＭＭＡＤ　ＨＵＳＳＡＩＮ　ＴＲＡＤＩＮＧ,,株式会社,栃木県,小山市,大字羽川２７４番地７,,09,208,3230012,,,,,,,2023-03-07,1,,,,,ムハンマドフセイントレーディング,0
157,1080101023825,新規,0,2023-03-07,2023-03-07,株式会社ミウェル,,株式会社,静岡県,伊東市,湯川３６９番地の１２５,,22,208,4140002,,,,,,,2023-03-07,1,,,,,ミウェル,0
160,1100001036206,新規,0,2023-03-07,2023-03-07,株式会社青木商事,,株式会社,長野県,塩尻市,大字洗馬２５７番地１８,,20,215,3996462,,,,,,,2023-03-07,1,,,,,アオキショウジ,0
165,1100003006909,新規,0,2023-03-07,2023-03-07,合同会社訪問看護ステーションライフサポート,,合同会社,長野県,上田市,御嶽堂８０３－１,,20,203,3860412,,,,,,,2023-03-07,1,,,,,ホウモンカンゴステーションライフサポート,0
182,1120001252858,新規,0,2023-03-07,2023-03-07,株式会社ＦＭ．ａｉ,,株式会社,大阪府,大阪市北区,西天満４丁目２－３メゾンユタカファイブ２０５,,27,127,5300047,,,,,,,2023-03-07,1,,,,,エフエムアイ,0
183,1120001252899,新規,0,2023-03-07,2023-03-07,國島商事株式会社,,株式会社,大阪府,枚方市,楠葉中之芝２丁目１８番１０号,,27,210,5731101,,,,,,,2023-03-07,1,,,,,クニシマショウジ,0
184,1120001252924,新規,0,2023-03-07,2023-03-07,株式会社サンチョ,,株式会社,大阪府,大阪市浪速区,下寺３丁目４番５号,,27,111,5560001,,,,,,,2023-03-07,1,,,,,サンチョ,0
185,1120001252932,新規,0,2023-03-07,2023-03-07,光洋エンジニアリング株式会社,,株式会社,大阪府,大阪市住之江区,中加賀屋２丁目１４番５号,,27,125,5590017,,,,,,,2023-03-07,1,,,,,コウヨウエンジニアリング,0
186,1120001252949,新規,0,2023-03-07,2023-03-07,Ｙ．ＫＥＮ株式会社,,株式会社,大阪府,大阪市住之江区,東加賀屋１丁目１１番２４－６０５号,,27,125,5590012,,,,,,,2023-03-07,1,,,,,ワイケン,0
187,1120001252957,新規,0,2023-03-07,2023-03-07,株式会社ｓｋｙ,,株式会社,大阪府,大阪市東淀川区,南江口３丁目１番１１号,,27,114,5330003,,,,,,,2023-03-07,1,,,,,スカイ,0
192,1120003023530,新規,0,2023-03-07,2023-03-07,合同会社ｓｏｕｔｈｅｒｎ　ｃｒｏｓｓ,,合同会社,大阪府,大阪市北区,梅田１丁目２番２号大阪駅前第２ビル１２－１２,,27,127,5300001,,,,,,,2023-03-07,1,,,,,サザンクロス,0
195,1120101067090,新規,0,2023-03-07,2023-03-07,株式会社下町建物,,株式会社,大阪府,阪南市,箱作３５１７番地の１グラシアス２０２号,,27,232,5990232,,,,,,,2023-03-07,1,,,,,シタマチタテモノ,0
196,1120103005107,新規,0,2023-03-07,2023-03-07,合同会社Ｌｅｉ,,合同会社,大阪府,南河内郡太子町,大字春日１２０８番地の８,,27,381,5830991,,,,,,,2023-03-07,1,,,,,レイ,0
201,1120901047218,新規,0,2023-03-07,2023-03-07,株式会社Ｂｅｓｔ　Ｄｅｌｉｇｈｔ　Ｔｒａｄｉｎｇ,,株式会社,大阪府,豊中市,新千里東町１丁目１番２号,,27,203,5600082,,,,,,,2023-03-07,1,,,,,ベストディライトトレーディング,0
204,1130001073766,新規,0,2023-03-07,2023-03-07,株式会社ラフ,,株式会社,京都府,京都市中京区,西ノ京藤ノ木町１１番地の１１,,26,104,6048455,,,,,,,2023-03-07,1,,,,,ラフ,0
205,1130001073816,新規,0,2023-03-07,2023-03-07,株式会社Ｌｉｐｉｎｅ,,株式会社,京都府,京都市山科区,御陵進藤町１８番地の６,,26,110,6078416,,,,,,,2023-03-07,1,,,,,リピネ,0
214,1140001129278,新規,0,2023-03-07,2023-03-07,株式会社サンクスポート,,株式会社,兵庫県,神戸市兵庫区,東出町３丁目１９番６号,,28,105,6520823,,,,,,,2023-03-07,1,,,,,サンクスポート,0
215,1140001129311,新規,0,2023-03-07,2023-03-07,株式会社Ｎ２,,株式会社,兵庫県,姫路市,野里寺町６番地,,28,201,6700867,,,,,,,2023-03-07,1,,,,,エヌツー,0
216,1140001129344,新規,0,2023-03-07,2023-03-07,株式会社ｎｉｃａ,,株式会社,兵庫県,三田市,八景町１４８８－１,,28,219,6691524,,,,,,,2023-03-07,1,,,,,ニカ,0
228,1160001024881,新規,0,2023-03-07,2023-03-07,株式会社ｍｂｙコンサルティング,,株式会社,滋賀県,長浜市,新居町１３２番地,,25,203,5260107,,,,,,,2023-03-07,1,,,,,エムビーワイコンサルティング,0
230,1160003002811,新規,0,2023-03-07,2023-03-07,川魚の西友合同会社,,合同会社,滋賀県,高島市,今津町今津２２４番地の１,,25,212,5201621,,,,,,,2023-03-07,1,,,,,カワウオノニシトモ,0
237,1180001155171,新規,0,2023-03-07,2023-03-07,Ｎｅｘｔ　Ｈｏｍｅ株式会社,,株式会社,愛知県,名古屋市北区,中味鋺３丁目１０１２番地,,23,103,4620015,,,,,,,2023-03-07,1,,,,,ネクストホーム,0
238,1180001155196,新規,0,2023-03-07,2023-03-07,株式会社ＡＴＯＲＯ,,株式会社,愛知県,名古屋市西区,上名古屋２丁目２４番２４号野間ビル３Ｆ,,23,104,4510025,,,,,,,2023-03-07,1,,,,,アトロ,0
239,1180001155238,新規,0,2023-03-07,2023-03-07,株式会社Ａｓｃｅｎｓｉｏｎ,,株式会社,愛知県,名古屋市千種区,富士見台３丁目１４Ａｉｌｅ３０１,,23,101,4640015,,,,,,,2023-03-07,1,,,,,アセンション,0
240,1180001155246,新規,0,2023-03-07,2023-03-07,株式会社ＣＲＥＷＺ,,株式会社,愛知県,名古屋市守山区,瀬古東１丁目１５４７番地ライオンズマンション瀬古第２、８０３号,,23,113,4630090,,,,,,,2023-03-07,1,,,,,クルーズ,0
241,1180003024928,新規,0,2023-03-07,2023-03-07,合同会社ひなたの森,,合同会社,愛知県,名古屋市中川区,戸田ゆたか２丁目１４０３番地,,23,110,4540966,,,,,,,2023-03-07,1,,,,,ヒナタノモリ,0
242,1180301037160,新規,0,2023-03-07,2023-03-07,株式会社ＵＮＩＴＹ．,,株式会社,愛知県,岡崎市,戸崎町字越舞１８番地,,23,202,4440840,,,,,,,2023-03-07,1,,,,,ユニティー,0
244,1190001030217,新規,0,2023-03-07,2023-03-07,ＢＵＲＡＱ株式会社,,株式会社,三重県,桑名市,伊賀町２０番地,,24,205,5110036,,,,,,,2023-03-07,1,,,,,ブラーク,0
248,1200001041022,新規,0,2023-03-07,2023-03-07,株式会社園丁,,株式会社,岐阜県,岐阜市,水海道１丁目３番６号,,21,201,5008223,,,,,,,2023-03-07,1,,,,,エンテイ,0
249,1200001041039,新規,0,2023-03-07,2023-03-07,株式会社ＴＩＹＳ,,株式会社,岐阜県,多治見市,滝呂町１７丁目４５番地の５,,21,204,5070813,,,,,,,2023-03-07,1,,,,,ティーズ,0
250,1200001041047,新規,0,2023-03-07,2023-03-07,株式会社ｃｏｌｏｒｓ,,株式会社,岐阜県,本巣市,上保２１８番地,,21,218,5010401,,,,,,,2023-03-07,1,,,,,カラーズ,0
251,1200003005875,新規,0,2023-03-07,2023-03-07,合同会社Ｇｕｊｕｌａｎ,,合同会社,岐阜県,下呂市,萩原町萩原１５５０番地,,21,220,5092517,,,,,,,2023-03-07,1,,,,,グジュラン,0
261,1240001061181,新規,0,2023-03-07,2023-03-07,勝梅園株式会社,,株式会社,広島県,東広島市,黒瀬楢原西１丁目２５８－１,00129671,34,212,7392629,,,,,,,2023-03-07,1,,,,,ショウバイエン,0
267,1250001020005,新規,0,2023-03-07,2023-03-07,株式会社飯田興業,,株式会社,山口県,周南市,西松原３丁目３番１号,,35,215,7450054,,,,,,,2023-03-07,1,,,,,イイダコウギョウ,0
268,1260001037717,新規,0,2023-03-07,2023-03-07,株式会社マスカットファーム,,株式会社,岡山県,倉敷市,船穂町船穂４４８３番地,,33,202,7100261,,,,,,,2023-03-07,1,,,,,マスカットファーム,0
277,1290001100802,新規,0,2023-03-07,2023-03-07,Ｌｕｓｈ　Ｌｉｆｅ株式会社,,株式会社,福岡県,福岡市博多区,博多駅南１丁目１０番２０号,,40,132,8120016,,,,,,,2023-03-07,1,,,,,ラッシュライフ,0
278,1290001100810,新規,0,2023-03-07,2023-03-07,ＭＥＴＡ　ＵＰＤＡＴＥ株式会社,,株式会社,福岡県,福岡市博多区,博多駅前１丁目２３番１号ＰａｒｋＦｒｏｎｔ博多駅前１丁目５Ｆ－Ｂ,,40,132,8120011,,,,,,,2023-03-07,1,,,,,メタアップデート,0
281,1290003013622,新規,0,2023-03-07,2023-03-07,合同会社ＴＡＡＮ８,,合同会社,福岡県,福岡市中央区,清川２丁目３番１６アーベイン渡辺通り南１００８号,,40,133,8100005,,,,,,,2023-03-07,1,,,,,ターンエイト,0
286,1310005008659,新規,0,2023-03-07,2023-03-07,一般社団法人日本ワライフ推進協会,,その他の設立登記法人,長崎県,雲仙市,国見町土黒甲１８５番地１,,42,213,8591311,,,,,,,2023-03-07,1,,,,,ニホンワライフスイシンキョウカイ,0
287,1320003004031,新規,0,2023-03-07,2023-03-07,あいる合同会社,,合同会社,大分県,大分市,大字光吉１６００番地の４５,,44,201,8701132,,,,,,,2023-03-07,1,,,,,アイル,0
289,1330001030648,新規,0,2023-03-07,2023-03-07,株式会社エスグロウ,,株式会社,熊本県,熊本市北区,鹿子木町１０６番地７,,43,105,8615521,,,,,,,2023-03-07,1,,,,,エスグロウ,0
295,1370001049668,新規,0,2023-03-07,2023-03-07,株式会社ずんだ企画,,株式会社,宮城県,仙台市青葉区,本町１丁目５番２８号カーニープレイス仙台駅前通６０３号室,,04,101,9800014,,,,,,,2023-03-07,1,,,,,ズンダキカク,0
309,1430001088585,新規,0,2023-03-07,2023-03-07,Ｈｏｋｋａｉｄｏ　Ｐｉｏｎｅｅｒｓ株式会社,,株式会社,北海道,虻田郡倶知安町,南六条西２丁目２番地２０,,01,400,0440036,,,,,,,2023-03-07,1,,,,,ホッカイドウパイオニアーズ,0
314,1440001009227,新規,0,2023-03-07,2023-03-07,株式会社ＣＬＡＲＯ,,株式会社,北海道,函館市,本通２丁目５３番２２号,,01,202,0410851,,,,,,,2023-03-07,1,,,,,クラーロ,0
320,1470001019504,新規,0,2023-03-07,2023-03-07,株式会社ＤＲＢ,,株式会社,香川県,三豊市,豊中町比地大３０８３番地,,37,208,7691501,,,,,,,2023-03-07,1,,,,,ディーアールビー,0
328,1700150114338,新規,0,2023-03-07,2023-02-15,島田かおる後援会,,その他,秋田県,秋田市,中通６丁目７－１７,,05,201,0100001,,,,,,,2023-02-15,1,,,,,シマダカオルコウエンカイ,0
329,1700150114635,新規,0,2023-03-07,2023-03-07,北京四方日新投資控股有限公司　日本駐在員事務所,,外国会社等,東京都,台東区,浅草橋５丁目１－３１ロッキービル３階ＤＡＯＳＰＡＣＥ浅草橋３０６号室,,13,106,1110053,北京市石景山区八大処高科技園区中園路７号２幢３層３０１室,,,,,,2023-03-07,1,,,,,ペキンシホウニツシントウシコングユウゲンコウシニホンチユウザイインジムシヨ,0
341,2010001233364,新規,0,2023-03-07,2023-03-07,株式会社シャドーパーク,,株式会社,東京都,千代田区,神田猿楽町１丁目２番２－４０３号,,13,101,1010064,,,,,,,2023-03-07,1,,,,,シャドーパーク,0
342,2010001233397,新規,0,2023-03-07,2023-03-07,ＸＲ企画株式会社,,株式会社,東京都,千代田区,永田町２丁目１１番１号,,13,101,1000014,,,,,,,2023-03-07,1,,,,,エックスアールキカク,0
343,2010001233447,新規,0,2023-03-07,2023-03-07,ＳＢＩ新生ヒューマン・リソーシズ株式会社,,株式会社,東京都,中央区,日本橋室町２丁目４番３号,,13,102,1030022,,,,,,,2023-03-07,1,,,,,エスビーアイシンセイヒューマンリソーシズ,0
344,2010001233455,新規,0,2023-03-07,2023-03-07,Ｓｐｉｒａｌ．ＡＩ株式会社,,株式会社,東京都,文京区,小石川５丁目１７番１０号,,13,105,1120002,,,,,,,2023-03-07,1,,,,,スパイラルエーアイ,0
345,2010001233471,新規,0,2023-03-07,2023-03-07,株式会社快,,株式会社,東京都,中央区,銀座１丁目２２番１１号銀座大竹ビジデンス２Ｆ,,13,102,1040061,,,,,,,2023-03-07,1,,,,,カイ,0
346,2010001233496,新規,0,2023-03-07,2023-03-07,株式会社Ｋ＆Ｍ,,株式会社,東京都,千代田区,鍛冶町２丁目７番２号神田駅前ビル８階,,13,101,1010044,,,,,,,2023-03-07,1,,,,,ケーアンドエム,0
347,2010001233505,新規,0,2023-03-07,2023-03-07,株式会社吉本アンドカンパニー,,株式会社,東京都,千代田区,平河町２丁目１１番１０号,,13,101,1020093,,,,,,,2023-03-07,1,,,,,ヨシモトアンドカンパニー,0
349,2010005036342,新規,0,2023-03-07,2023-03-07,一般社団法人スリークラウン,,その他の設立登記法人,東京都,千代田区,東神田１丁目１４番４号松野ビル３Ｆ,,13,101,1010031,,,,,,,2023-03-07,1,,,,,スリークラウン,0
350,2010005036350,新規,0,2023-03-07,2023-03-07,ハイドランジア特定目的会社,,その他の設立登記法人,東京都,千代田区,丸の内３丁目１番１号,,13,101,1000005,,,,,,,2023-03-07,1,,,,,ハイドランジア,0
354,2010401172897,新規,0,2023-03-07,2023-03-07,株式会社ｔａｇａｙａｓ,,株式会社,東京都,港区,南青山２丁目４番１２号南青山アサヒビル地下１階,,13,103,1070062,,,,,,,2023-03-07,1,,,,,タガヤス,0
355,2010405021852,新規,0,2023-03-07,2023-03-07,一般社団法人風営適正化推進協会,,その他の設立登記法人,東京都,港区,白金３丁目１番１３号日恵ビル２階,,13,103,1080072,,,,,,,2023-03-07,1,,,,,フウエイテキセイカスイシンキョウカイ,0
356,2010405021893,新規,0,2023-03-07,2023-03-07,一般社団法人茶藝術協会,,その他の設立登記法人,東京都,港区,元麻布２丁目１番２１号,,13,103,1060046,,,,,,,2023-03-07,1,,,,,チャゲイジュツキョウカイ,0
360,2010601062717,新規,0,2023-03-07,2023-03-07,株式会社ＴＡＭＭＹＳ,,株式会社,東京都,墨田区,江東橋４丁目２６番１５号ＳＲビル３０２,,13,107,1300022,,,,,,,2023-03-07,1,,,,,タミーズ,0
361,2010603010046,新規,0,2023-03-07,2023-03-07,合同会社Ｇｒａｃｅ,,合同会社,東京都,江東区,森下１丁目１２番６号７階,,13,108,1350004,,,,,,,2023-03-07,1,,,,,グレイス,0
364,2010705003484,新規,0,2023-03-07,2023-03-07,医療法人社団山翠会,,その他の設立登記法人,東京都,品川区,西中延１丁目２番２３号ハイムエーデルワイス１００号室,,13,109,1420054,,,,,,,2023-03-07,1,,,,,サンスイカイ,0
373,2011001152950,新規,0,2023-03-07,2023-03-07,ＴＬＣ株式会社,,株式会社,東京都,目黒区,中町１丁目４０番７－３０４号,,13,110,1530065,,,,,,,2023-03-07,1,,,,,ティーエルシー,0
374,2011001152967,新規,0,2023-03-07,2023-03-07,株式会社ＢＲＢＤ,,株式会社,東京都,渋谷区,恵比寿４丁目１１番９号クオーレエビス５Ｆ,,13,113,1500013,,,,,,,2023-03-07,1,,,,,ビーアールビーディー,0
375,2011001152975,新規,0,2023-03-07,2023-03-07,株式会社キャンバス,,株式会社,東京都,渋谷区,千駄ヶ谷５丁目２０番１０号Ｃ棟２階,,13,113,1510051,,,,,,,2023-03-07,1,,,,,キャンバス,0
377,2011003016377,新規,0,2023-03-07,2023-03-07,繋家合同会社,,合同会社,東京都,渋谷区,道玄坂１丁目１０番８号渋谷道玄坂東急ビル２Ｆ－Ｃ,,13,113,1500043,,,,,,,2023-03-07,1,,,,,ツナギヤ,0
378,2011003016393,新規,0,2023-03-07,2023-03-07,ＡＮコンサルティング合同会社,,合同会社,東京都,渋谷区,渋谷２丁目１９番１５号宮益坂ビルディング６０９,,13,113,1500002,,,,,,,2023-03-07,1,,,,,エーエヌコンサルティング,0
379,2011005009973,新規,0,2023-03-07,2023-03-07,一般社団法人環境教育普及推進フォーラム,,その他の設立登記法人,東京都,目黒区,碑文谷３丁目３番１２－１０１号,,13,110,1520003,,,,,,,2023-03-07,1,,,,,カンキョウキョウイクフキュウスイシンフォーラム,0
391,2011301028520,新規,0,2023-03-07,2023-03-07,株式会社ヒラタ＆サンズ,,株式会社,東京都,杉並区,久我山４丁目３９番１４号,,13,115,1680082,,,,,,,2023-03-07,1,,,,,ヒラタアンドサンズ,0
392,2011303004692,新規,0,2023-03-07,2023-03-07,蓮見ｌｉｌｙｈｏｌｉｃ合同会社,,合同会社,東京都,杉並区,高円寺南１丁目６番５－９０４号高円寺サマリヤマンション,,13,115,1660003,,,,,,,2023-03-07,1,,,,,ハスミリリイホリック,0
394,2011505002536,新規,0,2023-03-07,2023-03-07,一般社団法人多幸会,,その他の設立登記法人,東京都,北区,滝野川７丁目７番１号ライズＦＴビル１階,,13,117,1140023,,,,,,,2023-03-07,1,,,,,タコウカイ,0
395,2011603003840,新規,0,2023-03-07,2023-03-07,合同会社Ｔｏｋｙｏ東京徳仁,,合同会社,東京都,練馬区,豊玉上２丁目２１番１８号ジェイコート桜台２Ｂ,,13,120,1760011,,,,,,,2023-03-07,1,,,,,トウキョウナルヒト,0
399,2011703003402,新規,0,2023-03-07,2023-03-07,點萬合同会社,,合同会社,東京都,江戸川区,篠崎町７丁目７番８号アメニティハイム２０３,,13,123,1330061,,,,,,,2023-03-07,1,,,,,テンマン,0
407,2013301050388,新規,0,2023-03-07,2023-03-07,株式会社ムイント,,株式会社,東京都,豊島区,東池袋１丁目３４番５号いちご東池袋ビル６階,,13,116,1700013,,,,,,,2023-03-07,1,,,,,ムイント,0
408,2013301050413,新規,0,2023-03-07,2023-03-07,株式会社ＩＫＥマネージメント,,株式会社,東京都,豊島区,池袋２丁目５４番５号,,13,116,1710014,,,,,,,2023-03-07,1,,,,,アイケーイーマネージメント,0
425,2020001150435,新規,0,2023-03-07,2023-03-07,株式会社そめや,,株式会社,神奈川県,川崎市川崎区,元木１丁目１０番６号,,14,131,2100021,,,,,,,2023-03-07,1,,,,,ソメヤ,0
429,2021001078336,新規,0,2023-03-07,2023-03-07,株式会社Ｆｒｕｉｔｓ　ｏｆ　ｌｉｆｅ,,株式会社,神奈川県,綾瀬市,大上６丁目５－３,,14,218,2521104,,,,,,,2023-03-07,1,,,,,フルーツオブライフ,0
430,2021001078352,新規,0,2023-03-07,2023-03-07,株式会社渡辺工業,,株式会社,神奈川県,大和市,下和田５番地１,,14,213,2420015,,,,,,,2023-03-07,1,,,,,ワタナベコウギョウ,0
431,2021001078360,新規,0,2023-03-07,2023-03-07,株式会社ｎｂｋ,,株式会社,神奈川県,綾瀬市,本蓼川３５０番地,,14,218,2521102,,,,,,,2023-03-07,1,,,,,エヌビーケー,0
443,2030001152645,新規,0,2023-03-07,2023-03-07,ワールド工業ホールディングス株式会社,,株式会社,埼玉県,さいたま市北区,奈良町１４７番地５,,11,102,3310822,,,,,,,2023-03-07,1,,,,,ワールドコウギョウホールディングス,0
444,2030001152752,新規,0,2023-03-07,2023-03-07,ＦＪ　ＳＯＮＳ株式会社,,株式会社,埼玉県,ふじみ野市,桜ケ丘２丁目２８番１９号,,11,245,3560059,,,,,,,2023-03-07,1,,,,,エフジェーサンズ,0
458,2040003022119,新規,0,2023-03-07,2023-03-07,合同会社ＧＢＳ,,合同会社,千葉県,柏市,松ケ崎７２６番地６,,12,217,2770835,,,,,,,2023-03-07,1,,,,,ジービーエス,0
459,2040003022127,新規,0,2023-03-07,2023-03-07,ひるた庭縁合同会社,,合同会社,千葉県,市川市,本塩８－６,,12,203,2720104,,,,,,,2023-03-07,1,,,,,ヒルタテイエン,0
462,2050001052488,新規,0,2023-03-07,2023-03-07,ライクス株式会社,,株式会社,茨城県,土浦市,中１８７番地１３１,,08,203,3000841,,,,,,,2023-03-07,1,,,,,ライクス,0
463,2050001052496,新規,0,2023-03-07,2023-03-07,株式会社絆陽企画,,株式会社,茨城県,常陸太田市,真弓町２４２８番地,,08,212,3130022,,,,,,,2023-03-07,1,,,,,バンビキカク,0
467,2080001025499,新規,0,2023-03-07,2023-03-07,株式会社かじやま冷熱,,株式会社,静岡県,島田市,東町１７３番地の４,,22,209,4270011,,,,,,,2023-03-07,1,,,,,カジヤマレイネツ,0
475,2110003005000,新規,0,2023-03-07,2023-03-07,合同会社新日本海交流機構,,合同会社,新潟県,新潟市江南区,早通４丁目１番３３号,,15,104,9500168,,,,,,,2023-03-07,1,,,,,シンニホンカイコウリュウキコウ,0
484,2120001252808,新規,0,2023-03-07,2023-03-07,株式会社ブランコパレット,,株式会社,大阪府,大阪市浪速区,敷津西２丁目１番１２号ＹＫビルディング４階４Ａ号室,,27,111,5560015,,,,,,,2023-03-07,1,,,,,ブランコパレット,0
485,2120001252873,新規,0,2023-03-07,2023-03-07,株式会社ＫＳＩ,,株式会社,大阪府,大阪市阿倍野区,阿倍野筋５丁目３番２２－１１０２号,,27,119,5450052,,,,,,,2023-03-07,1,,,,,ケーエスアイ,0
486,2120001252915,新規,0,2023-03-07,2023-03-07,株式会社アーネストプラス,,株式会社,大阪府,大阪市西成区,松１丁目２番１７号２ｈｅｖｅプラス３０３号室,,27,122,5570034,,,,,,,2023-03-07,1,,,,,アーネストプラス,0
487,2120001252931,新規,0,2023-03-07,2023-03-07,株式会社ドクター・リアライズ,,株式会社,大阪府,大阪市中央区,南船場４丁目６番１０号新東和ビルＡ棟３階,,27,128,5420081,,,,,,,2023-03-07,1,,,,,ドクターリアライズ,0
488,2120001252948,新規,0,2023-03-07,2023-03-07,株式会社ＵＰ‐ＲＩＳＥ,,株式会社,大阪府,大阪市東住吉区,今川６丁目１番１５号,,27,121,5460003,,,,,,,2023-03-07,1,,,,,アップライズ,0
489,2120001252956,新規,0,2023-03-07,2023-03-07,株式会社ライズ,,株式会社,大阪府,大阪市浪速区,湊町２丁目２番２２－１２１２号,,27,111,5560017,,,,,,,2023-03-07,1,,,,,ライズ,0
490,2120001252997,新規,0,2023-03-07,2023-03-07,株式会社ＥＬＥＶＥＮ,,株式会社,大阪府,大阪市中央区,南船場２丁目４番１号美貴ビル９階,,27,128,5420081,,,,,,,2023-03-07,1,,,,,イレブン,0
495,2120005023503,新規,0,2023-03-07,2023-03-07,一般社団法人音楽教育推進協会,,その他の設立登記法人,大阪府,大阪市阿倍野区,阿倍野筋２丁目４番３７－１１０１号,,27,119,5450052,,,,,,,2023-03-07,1,,,,,オンガクキョウイクスイシンキョウカイ,0
500,2120901047233,新規,0,2023-03-07,2023-03-07,新化学品通商株式会社,,株式会社,大阪府,茨木市,戸伏町２番１０号,,27,211,5670814,,,,,,,2023-03-07,1,,,,,シンカガクヒンツウショウ,0
503,2122001036760,新規,0,2023-03-07,2023-03-07,株式会社オフィス森田,,株式会社,大阪府,東大阪市,上石切町２丁目７番２２号,,27,227,5798012,,,,,,,2023-03-07,1,,,,,オフィスモリタ,0
509,2130001073815,新規,0,2023-03-07,2023-03-07,帝宝商事株式会社,,株式会社,京都府,宇治市,宇治壱番１３６番地の２,,26,204,6110021,,,,,,,2023-03-07,1,,,,,テイホウショウジ,0
510,2130003008562,新規,0,2023-03-07,2023-03-07,合同会社種治,,合同会社,京都府,向日市,上植野町下川原５２番地,,26,208,6170006,,,,,,,2023-03-07,1,,,,,タネジ,0
514,2140001129277,新規,0,2023-03-07,2023-03-07,株式会社オオクボホールディングス,,株式会社,兵庫県,宍粟市,山崎町野３１８番地,,28,227,6712543,,,,,,,2023-03-07,1,,,,,オオクボホールディングス,0
515,2140001129310,新規,0,2023-03-07,2023-03-07,アツシメディカル株式会社,,株式会社,兵庫県,明石市,林崎町３丁目５５０番地の１２ロレーヌハイツ明石林崎１０６号,,28,203,6730033,,,,,,,2023-03-07,1,,,,,アツシメディカル,0
516,2140001129327,新規,0,2023-03-07,2023-03-07,播州貿易株式会社,,株式会社,兵庫県,たつの市,龍野町富永７７８番地１エステート湯口３ＦＡ,,28,229,6794167,,,,,,,2023-03-07,1,,,,,バンシュウボウエキ,0
525,2160001024872,新規,0,2023-03-07,2023-03-07,株式会社キタガワフーズ,,株式会社,滋賀県,守山市,三宅町６０１番地の１,,25,207,5240051,,,,,,,2023-03-07,1,,,,,キタガワフーズ,0
526,2160001024880,新規,0,2023-03-07,2023-03-07,株式会社ユーテック,,株式会社,滋賀県,高島市,安曇川町川島６２８番地３,,25,212,5201231,,,,,,,2023-03-07,1,,,,,ユーテック,0
538,2180001155195,新規,0,2023-03-07,2023-03-07,株式会社創設計,,株式会社,愛知県,丹羽郡大口町,余野５丁目８番地,,23,361,4800146,,,,,,,2023-03-07,1,,,,,ハジメセッケイ,0
539,2180001155220,新規,0,2023-03-07,2023-03-07,株式会社ＳＧホールディングス,,株式会社,愛知県,清須市,阿原神門１番地,,23,233,4520901,,,,,,,2023-03-07,1,,,,,エスジーホールディングス,0
540,2180001155229,新規,0,2023-03-07,2023-03-07,リアン株式会社,,株式会社,愛知県,一宮市,大和町苅安賀字東北出３２６８番地１,,23,203,4910934,,,,,,,2023-03-07,1,,,,,リアン,0
541,2180003024910,新規,0,2023-03-07,2023-03-07,合同会社ことのはシステム,,合同会社,愛知県,名古屋市中村区,名駅４丁目２４番５号第２森ビル４０１,,23,105,4500002,,,,,,,2023-03-07,1,,,,,コトノハシステム,0
542,2180003024919,新規,0,2023-03-07,2023-03-07,合同会社Ｂ‐ＯＲＩＧＩＮ,,合同会社,愛知県,名古屋市北区,御成通４丁目３０番地の１,,23,103,4620807,,,,,,,2023-03-07,1,,,,,ビーオリジン,0
543,2180003024927,新規,0,2023-03-07,2023-03-07,ＲＡＮＡ　ＧＲＯＵＰ合同会社,,合同会社,愛知県,名古屋市中区,新栄１丁目６番２０号ＯＪビル６Ｅ号,,23,106,4600007,,,,,,,2023-03-07,1,,,,,ラナグループ,0
546,2190003004259,新規,0,2023-03-07,2023-03-07,合同会社ＣａｓａＢｌａｎｃａ,,合同会社,三重県,名張市,つつじが丘南７番町９２番,,24,208,5180427,,,,,,,2023-03-07,1,,,,,カーサブランカ,0
549,2200001041005,新規,0,2023-03-07,2023-03-07,株式会社ＫＯＡ,,株式会社,岐阜県,郡上市,八幡町旭３１２番地５,,21,219,5014204,,,,,,,2023-03-07,1,,,,,コア,0
550,2200003005890,新規,0,2023-03-07,2023-03-07,合同会社Ｔｈｅ　Ｂｌｕｅ　Ｈａｎｄｓ,,合同会社,岐阜県,高山市,昭和町２丁目２３番地２３,,21,203,5060053,,,,,,,2023-03-07,1,,,,,ザブルーハンズ,0
557,2220003003463,新規,0,2023-03-07,2023-03-07,合同会社Ｏｍｂｕｓ,,合同会社,石川県,金沢市,額新保１丁目２７３番地ＣＯＮＴＥＮＴＯＮＯＲＴＨ５０６号,,17,201,9218148,,,,,,,2023-03-07,1,,,,,オムバス,0
567,2260001037716,新規,0,2023-03-07,2023-03-07,株式会社ヤマシタ,,株式会社,岡山県,岡山市東区,瀬戸町万富９０５番地１,,33,103,7090841,,,,,,,2023-03-07,1,,,,,ヤマシタ,0
569,2270001008732,新規,0,2023-03-07,2023-03-07,ＥｌｅＡｃＴメンテナンス株式会社,,株式会社,鳥取県,東伯郡湯梨浜町,大字久留１２４番地４,,31,370,6820723,,,,,,,2023-03-07,1,,,,,エレアクトメンテナンス,0
574,2290001100727,新規,0,2023-03-07,2023-03-07,株式会社天ぷらながおか,,株式会社,福岡県,福岡市中央区,今泉２丁目４番１１号,,40,133,8100021,,,,,,,2023-03-07,1,,,,,テンプラナガオカ,0
575,2290001100776,新規,0,2023-03-07,2023-03-07,ＣＲＯＳＳ　ＬＩＮＥ株式会社,,株式会社,福岡県,春日市,須玖北２丁目２０番地,,40,218,8160864,,,,,,,2023-03-07,1,,,,,クロスライン,0
576,2290001100792,新規,0,2023-03-07,2023-03-07,日の出システム株式会社,,株式会社,福岡県,福岡市中央区,天神２丁目２番１２号Ｔ＆Ｊビルディング７Ｆ,,40,133,8100001,,,,,,,2023-03-07,1,,,,,ヒノデシステム,0
582,2320001019617,新規,0,2023-03-07,2023-03-07,株式会社青松,,株式会社,大分県,大分市,長浜町３丁目１６番３－９０１号,,44,201,8700023,,,,,,,2023-03-07,1,,,,,アオマツ,0
587,2330003009747,新規,0,2023-03-07,2023-03-07,ＴＨＡＮＨ　ＴＵＮＧ合同会社,,合同会社,熊本県,玉名市,天水町部田見２３０４－１,,43,206,8615403,,,,,,,2023-03-07,1,,,,,タントゥン,0
588,2330005010629,新規,0,2023-03-07,2023-03-07,ＮＰＯ法人えがおつながる健幸プロジェクト,,その他の設立登記法人,熊本県,玉名郡長洲町,大字宮野１２９６番地１４,,43,368,8690101,,,,,,,2023-03-07,1,,,,,エガオツナガルケンコウプロジェクト,0
596,2350003004309,新規,0,2023-03-07,2023-03-07,合同会社きりしま,,合同会社,宮崎県,都城市,高野町１５８４番地,,45,202,8850221,,,,,,,2023-03-07,1,,,,,キリシマ,0
599,2360003012780,新規,0,2023-03-07,2023-03-07,合同会社さら不動産,,合同会社,沖縄県,うるま市,字兼箇段９７０－９,,47,213,9042241,,,,,,,2023-03-07,1,,,,,サラフドウサン,0
600,2370001049667,新規,0,2023-03-07,2023-03-07,ユニバーサルシステム株式会社,,株式会社,宮城県,仙台市泉区,天神沢１丁目１１番５号セントヒルズ仙台Ｃ－０１４,,04,105,9813105,,,,,,,2023-03-07,1,,,,,ユニバーサルシステム,0
609,2430001088527,新規,0,2023-03-07,2023-03-07,株式会社優心,,株式会社,北海道,岩見沢市,南町九条２丁目１番２４号,,01,210,0680809,,,,,,,2023-03-07,1,,,,,ユウシン,0
613,2430005014644,新規,0,2023-03-07,2023-03-07,税理士法人ノース税務会計,,その他の設立登記法人,北海道,札幌市中央区,大通西１５丁目２番地１ラスコム１５ビル,,01,101,0600042,,,,,,,2023-03-07,1,,,,,ノースゼイムカイケイ,0
614,2440001009226,新規,0,2023-03-07,2023-03-07,株式会社ワタナベ企画,,株式会社,北海道,亀田郡七飯町,字鳴川町３３１番地１,,01,337,0411112,,,,,,,2023-03-07,1,,,,,ワタナベキカク,0
615,2460101007342,新規,0,2023-03-07,2023-03-07,株式会社Ｔ‐Ａｇｒｉ,,株式会社,北海道,河東郡鹿追町,笹川北１１線７番地４３,,01,634,0810204,,,,,,,2023-03-07,1,,,,,ティーアグリ,0
618,2470001019494,新規,0,2023-03-07,2023-03-07,石丸製麺グループ株式会社,,株式会社,香川県,高松市,香南町岡７０１番地,,37,201,7611401,,,,,,,2023-03-07,1,,,,,イシマルセイメングループ,0
625,2700150114634,新規,0,2023-03-07,2023-03-07,北京前門婦女服装有限責任公司　日本駐在員事務所,,外国会社等,東京都,台東区,千束３丁目２１－１２キートスビル５０１号室,,13,106,1110031,中国北京市西城区前門外大柵欄１号,,,,,,2023-03-07,1,,,,,ペキンゼンモンフジヨフクソウユウゲンセキニンコウシニホンチユウザイインジムシヨ,0
635,3010001233454,新規,0,2023-03-07,2023-03-07,冨士機材物流株式会社,,株式会社,東京都,千代田区,一番町１２,,13,101,1020082,,,,,,,2023-03-07,1,,,,,フジキザイブツリュウ,0
636,3010001233470,新規,0,2023-03-07,2023-03-07,株式会社福耳不動産,,株式会社,東京都,中央区,銀座３丁目１３番１－１３０３号,,13,102,1040061,,,,,,,2023-03-07,1,,,,,フクミミフドウサン,0
637,3010001233520,新規,0,2023-03-07,2023-03-07,株式会社ｒｕｍｉｎ,,株式会社,東京都,中央区,日本橋兜町１７－２兜町第６葉山ビル４Ｆ,,13,102,1030026,,,,,,,2023-03-07,1,,,,,ルミン,0
644,3010401172649,新規,0,2023-03-07,2023-03-07,Ｈｅｒｉｔａｇｅ　Ａｕｃｔｉｏｎｓ　Ｊａｐａｎ株式会社,,株式会社,東京都,港区,東麻布１丁目２３番５号ＰＭＣビル２Ｆ,,13,103,1060044,,,,,,,2023-03-07,1,,,,,ヘリテージオークションズジャパン,0
645,3010401172822,新規,0,2023-03-07,2023-03-07,株式会社１４０６,,株式会社,東京都,港区,六本木６丁目１５番１号,,13,103,1060032,,,,,,,2023-03-07,1,,,,,イチヨンゼロロク,0
646,3010401172863,新規,0,2023-03-07,2023-03-07,株式会社デスペラード,,株式会社,東京都,港区,南青山３丁目８番６－５０１号,,13,103,1070062,,,,,,,2023-03-07,1,,,,,デスペラード,0
647,3010401172896,新規,0,2023-03-07,2023-03-07,株式会社ライフトラスト,,株式会社,東京都,港区,東新橋２丁目６番７号電光ビル３階,,13,103,1050021,,,,,,,2023-03-07,1,,,,,ライフトラスト,0
656,3010505003386,新規,0,2023-03-07,2023-03-07,一般社団法人ｗａｉｗａｉ　Ｒｅｓｅａｒｃｈ＆Ｄｅｓｉｇｎ　Ａｇｅｎｃｙ,,その他の設立登記法人,東京都,台東区,寿３丁目９番１号Ｇ．Ｐビルディング２Ｆ,,13,106,1110042,,,,,,,2023-03-07,1,,,,,ワイワイリサーチアンドデザインエージェンシー,0
660,3010601062708,新規,0,2023-03-07,2023-03-07,株式会社ＢＲＩＤＧＩＮＧ,,株式会社,東京都,江東区,亀戸６丁目３１－２プラウドタワー亀戸クロスブライトタワー４２０,,13,108,1360071,,,,,,,2023-03-07,1,,,,,ブリッジング,0
662,3010603010045,新規,0,2023-03-07,2023-03-07,合同会社ｊｕｎｓｖｅｓｔ,,合同会社,東京都,江東区,牡丹３丁目１４番４号,,13,108,1350046,,,,,,,2023-03-07,1,,,,,ジュンズベスト,0
675,3011001152917,新規,0,2023-03-07,2023-03-07,株式会社ＨｅＲｏｓ,,株式会社,東京都,渋谷区,神南１丁目２３－１４リージャス渋谷公園通りセンター,,13,113,1500041,,,,,,,2023-03-07,1,,,,,ヒーローズ,0
676,3011001153007,新規,0,2023-03-07,2023-03-07,株式会社トリップスター,,株式会社,東京都,渋谷区,神宮前６丁目２３番４号桑野ビル２階,,13,113,1500001,,,,,,,2023-03-07,1,,,,,トリップスター,0
678,3011003016401,新規,0,2023-03-07,2023-03-07,合同会社ステイオネスト,,合同会社,東京都,目黒区,目黒１丁目１４番８号ウインベル目黒１０２,,13,110,1530063,,,,,,,2023-03-07,1,,,,,ステイオネスト,0
680,3011101102078,新規,0,2023-03-07,2023-03-07,株式会社ＳＥＡＧＵＬＬ,,株式会社,東京都,新宿区,西新宿３丁目３番１３号西新宿水間ビル２Ｆ,,13,104,1600023,,,,,,,2023-03-07,1,,,,,シーガル,0
682,3011305002891,新規,0,2023-03-07,2023-03-07,特定非営利活動法人子ども未来,,その他の設立登記法人,東京都,杉並区,和泉１丁目６番３号吉橋方,00129659,13,115,1680063,,,,,,,2023-03-07,1,,,,,コドモミライ,0
683,3011401024939,新規,0,2023-03-07,2023-03-07,株式会社ＬＯＧ　ＰＲＯＪＥＣＴ,,株式会社,東京都,板橋区,大山町３番９号島影ビル１Ｆ,,13,119,1730023,,,,,,,2023-03-07,1,,,,,ログプロジェクト,0
684,3011403003932,新規,0,2023-03-07,2023-03-07,合同会社シエルソナーレ,,合同会社,東京都,板橋区,西台４丁目９番４号,,13,119,1750045,,,,,,,2023-03-07,1,,,,,シエルソナーレ,0
695,3012401040249,新規,0,2023-03-07,2023-03-07,株式会社リンクライト,,株式会社,東京都,狛江市,岩戸北４丁目１番１２号,,13,219,2010004,,,,,,,2023-03-07,1,,,,,リンクライト,0
699,3012403005869,新規,0,2023-03-07,2023-03-07,合同会社ＧＯＡＴ,,合同会社,東京都,小金井市,貫井北町３丁目３３番１９号グリーンハイム２０２,,13,210,1840015,,,,,,,2023-03-07,1,,,,,ゴート,0
700,3012701017509,新規,0,2023-03-07,2023-03-07,株式会社つくってみた,,株式会社,東京都,小平市,鈴木町２丁目１７４番地の８いよやハイツ２０２号室,,13,211,1870011,,,,,,,2023-03-07,1,,,,,ツクッテミタ,0
701,3012703002649,新規,0,2023-03-07,2023-03-07,合同会社オフィスＯＭＯ,,合同会社,東京都,清瀬市,下清戸１丁目１７番地４７－１０１号,,13,221,2040011,,,,,,,2023-03-07,1,,,,,オフィスオモ,0
715,3020001150459,新規,0,2023-03-07,2023-03-07,株式会社Ｐｒｏｊｅｃｔ　Ｂｅａｔ,,株式会社,神奈川県,横浜市西区,みなとみらい５丁目３番３号,,14,103,2200012,,,,,,,2023-03-07,1,,,,,プロジェクトビート,0
716,3020001150566,新規,0,2023-03-07,2023-03-07,株式会社Ｒｅｖｉｖｅ,,株式会社,神奈川県,横浜市旭区,さちが丘１９０番地１グレーシアガーデン南万騎が原７０９号,,14,112,2410822,,,,,,,2023-03-07,1,,,,,リバイブ,0
717,3020001150582,新規,0,2023-03-07,2023-03-07,株式会社エイチエス・サポート,,株式会社,神奈川県,横浜市青葉区,すすき野２丁目６番地１０サンオータムビル３０１,,14,117,2250021,,,,,,,2023-03-07,1,,,,,エイチエスサポート,0
719,3020003023448,新規,0,2023-03-07,2023-03-07,合同会社インジニアスライフ,,合同会社,神奈川県,横浜市港北区,富士塚２丁目５番８号,,14,109,2220012,,,,,,,2023-03-07,1,,,,,インジニアスライフ,0
720,3020003023456,新規,0,2023-03-07,2023-03-07,合同会社えがおのはな,,合同会社,神奈川県,川崎市川崎区,四谷上町１２番９号１１０,,14,131,2100828,,,,,,,2023-03-07,1,,,,,エガオノハナ,0
723,3021001078327,新規,0,2023-03-07,2023-03-07,株式会社ＫＣＫ,,株式会社,神奈川県,小田原市,中里４０８番地の６,,14,206,2500872,,,,,,,2023-03-07,1,,,,,ケーシーケー,0
728,3030001152669,新規,0,2023-03-07,2023-03-07,株式会社シンヨー印刷,,株式会社,埼玉県,さいたま市大宮区,三橋２丁目５５１番地,,11,103,3300856,,,,,,,2023-03-07,1,,,,,シンヨーインサツ,0
729,3030001152710,新規,0,2023-03-07,2023-03-07,千歳交易株式会社,,株式会社,埼玉県,越谷市,赤山町４丁目９番１号,,11,222,3430807,,,,,,,2023-03-07,1,,,,,チトセコウエキ,0
732,3030003021302,新規,0,2023-03-07,2023-03-07,合同会社Ｃａｒ・ＥＲ,,合同会社,埼玉県,川越市,大字南田島５４５番地１,,11,201,3500027,,,,,,,2023-03-07,1,,,,,カーイーアール,0
733,3040001127323,新規,0,2023-03-07,2023-03-07,株式会社プロシンドサービス,,株式会社,千葉県,成田市,三里塚字御料牧場１－２臨空開発第１センタービル,,12,211,2860111,,,,,,,2023-03-07,1,,,,,プロシンドサービス,0
734,3040001127356,新規,0,2023-03-07,2023-03-07,株式会社カラフルシード,,株式会社,千葉県,船橋市,高根台２丁目９番２１号,,12,204,2740065,,,,,,,2023-03-07,1,,,,,カラフルシード,0
735,3040001127364,新規,0,2023-03-07,2023-03-07,エリオ株式会社,,株式会社,千葉県,浦安市,日の出１丁目３－３－７１２,,12,227,2790013,,,,,,,2023-03-07,1,,,,,エリオ,0
738,3040003022126,新規,0,2023-03-07,2023-03-07,合同会社新聞ペイメントサービス,,合同会社,千葉県,我孫子市,栄１１－１４,,12,222,2701141,,,,,,,2023-03-07,1,,,,,シンブンペイメントサービス,0
745,3070001040176,新規,0,2023-03-07,2023-03-07,株式会社プラスフィールズ,,株式会社,群馬県,前橋市,荒牧町２丁目５番地６サンモール２０２号,,10,201,3710044,,,,,,,2023-03-07,1,,,,,プラスフィールズ,0
751,3080401026360,新規,0,2023-03-07,2023-03-07,株式会社アズメイリー,,株式会社,静岡県,浜松市東区,原島町４２７番地の１,,22,132,4350047,,,,,,,2023-03-07,1,,,,,アズメイリー,0
758,3100003006907,新規,0,2023-03-07,2023-03-07,合同会社グリーン設備,,合同会社,長野県,北佐久郡軽井沢町,大字長倉５７７９番地,,20,321,3890111,,,,,,,2023-03-07,1,,,,,グリーンセツビ,0
771,3120001252914,新規,0,2023-03-07,2023-03-07,株式会社竪上,,株式会社,大阪府,大阪市生野区,巽中３丁目３番２０－３０１号,00129658,27,116,5440013,,,,,,,2023-03-07,1,,,,,タテウエ,0
772,3120001252930,新規,0,2023-03-07,2023-03-07,株式会社横店グループジャパン,,株式会社,大阪府,大阪市淀川区,西宮原１丁目８番１０号,,27,123,5320004,,,,,,,2023-03-07,1,,,,,ヨコミセグループジャパン,0
773,3120001252955,新規,0,2023-03-07,2023-03-07,株式会社フォローアップ,,株式会社,大阪府,門真市,大橋町２５番７号,,27,223,5710077,,,,,,,2023-03-07,1,,,,,フォローアップ,0
774,3120001252963,新規,0,2023-03-07,2023-03-07,株式会社ＱＬＥＴＳ,,株式会社,大阪府,大阪市中央区,内本町１丁目２－６内本町松林ビル３階,,27,128,5400026,,,,,,,2023-03-07,1,,,,,クレッツ,0
778,3120101067106,新規,0,2023-03-07,2023-03-07,株式会社ＫＤＣ,,株式会社,大阪府,大阪狭山市,金剛２丁目３番３８号,,27,231,5890006,,,,,,,2023-03-07,1,,,,,ケーディーシー,0
780,3120901047224,新規,0,2023-03-07,2023-03-07,株式会社Ｃ・ｐｒｏｇｒｅｓｓ,,株式会社,大阪府,吹田市,広芝町４－３４,,27,205,5640052,,,,,,,2023-03-07,1,,,,,シープログレス,0
782,3122001036743,新規,0,2023-03-07,2023-03-07,株式会社きねや,,株式会社,大阪府,四條畷市,楠公１丁目１０番１９号,,27,229,5750023,,,,,,,2023-03-07,1,,,,,キネヤ,0
796,3140001129301,新規,0,2023-03-07,2023-03-07,株式会社楽栄,,株式会社,兵庫県,たつの市,御津町苅屋４９６番地１８,,28,229,6711321,,,,,,,2023-03-07,1,,,,,ラクエイ,0
797,3140001129326,新規,0,2023-03-07,2023-03-07,ＰＴＴセールスソリューションズ株式会社,,株式会社,兵庫県,西宮市,二見町２番１８－２０１号,,28,204,6638111,,,,,,,2023-03-07,1,,,,,ピーティーティーセールスソリューションズ,0
798,3140001129342,新規,0,2023-03-07,2023-03-07,株式会社ＴＨＡＩ　ＡＮ,,株式会社,兵庫県,姫路市,花田町加納原田９５１番地８,,28,201,6710252,,,,,,,2023-03-07,1,,,,,タイアン,0
799,3140003018790,新規,0,2023-03-07,2023-03-07,合同会社ｅｖｅｒ　ｇｒｅｅｎ,,合同会社,兵庫県,加古郡播磨町,西野添３丁目４番６号,,28,382,6750160,,,,,,,2023-03-07,1,,,,,エバーグリーン,0
811,3180001155161,新規,0,2023-03-07,2023-03-07,株式会社ＯＮＳＯ,,株式会社,愛知県,小牧市,大字久保一色１６２０番地,,23,219,4850003,,,,,,,2023-03-07,1,,,,,オンソー,0
812,3180001155178,新規,0,2023-03-07,2023-03-07,株式会社Ｂ８,,株式会社,愛知県,名古屋市中区,栄５丁目３番６号エルマノス栄中駒ビル１１階１１Ｂ号,,23,106,4600008,,,,,,,2023-03-07,1,,,,,ビーエイト,0
813,3180001155228,新規,0,2023-03-07,2023-03-07,株式会社ニカ,,株式会社,愛知県,稲沢市,長野１丁目１４番１７号３Ｆ,,23,220,4928142,,,,,,,2023-03-07,1,,,,,ニカ,0
814,3180001155236,新規,0,2023-03-07,2023-03-07,株式会社イオーム,,株式会社,愛知県,稲沢市,中野川端町１３１番地２,,23,220,4928391,,,,,,,2023-03-07,1,,,,,イオーム,0
815,3180001155252,新規,0,2023-03-07,2023-03-07,株式会社得田管工芸,,株式会社,愛知県,名古屋市西区,比良２丁目１６０番地の３,,23,104,4520802,,,,,,,2023-03-07,1,,,,,トクダカンコウゲイ,0
819,3180003024892,新規,0,2023-03-07,2023-03-07,合同会社善積,,合同会社,愛知県,名古屋市中村区,名駅４丁目２４番５号第２森ビル４０１,,23,105,4500002,,,,,,,2023-03-07,1,,,,,ヨシヅミ,0
820,3180003024918,新規,0,2023-03-07,2023-03-07,ＹＭＯ合同会社,,合同会社,愛知県,名古屋市中村区,名駅４丁目２４番５号第２森ビル４０１,,23,105,4500002,,,,,,,2023-03-07,1,,,,,ワイエムオー,0
821,3180003024926,新規,0,2023-03-07,2023-03-07,合同会社ＳＰＡＣＥ　ＣＯＮＳＵＬＴＩＮＧ,,合同会社,愛知県,名古屋市中村区,名駅４丁目２４番５号第２森ビル４０１,,23,105,4500002,,,,,,,2023-03-07,1,,,,,スペースコンサルティング,0
829,3190001030215,新規,0,2023-03-07,2023-03-07,ＮＩＰＰＯＮ　ＴＲＡＤＥＲＳ株式会社,,株式会社,三重県,鈴鹿市,旭が丘二丁目１０番２６号マンション旭Ａ２Ａ号室,,24,207,5130000,,,,,,,2023-03-07,1,,,,,ニッポントレーダーズ,0
835,3220005008732,新規,0,2023-03-07,2023-03-07,一般社団法人石川文化倶楽部,,その他の設立登記法人,石川県,金沢市,泉野出町２丁目８番１１号,,17,201,9218116,,,,,,,2023-03-07,1,,,,,イシカワケンブンカクラブ,0
843,3250001019986,新規,0,2023-03-07,2023-03-07,株式会社ＴＭＲ,,株式会社,山口県,山口市,黄金町１０番１３－４号,,35,203,7530045,,,,,,,2023-03-07,1,,,,,ティーエムアール,0
846,3260001037715,新規,0,2023-03-07,2023-03-07,株式会社オーシャン,,株式会社,岡山県,岡山市北区,津島南２丁目３－１５－４,,33,101,7000085,,,,,,,2023-03-07,1,,,,,オーシャン,0
849,3290001100684,新規,0,2023-03-07,2023-03-07,株式会社ＧＯＬＤ　ＴＯＰＡＺ　ＪＡＰＡＮ,,株式会社,福岡県,福岡市博多区,千代１丁目３１－９エバーライフ東公園２０３,,40,132,8120044,,,,,,,2023-03-07,1,,,,,ゴールドトパズジャパン,0
850,3290001100692,新規,0,2023-03-07,2023-03-07,株式会社小林鋼建,,株式会社,福岡県,筑紫野市,大字牛島４３６番地３０,,40,217,8180014,,,,,,,2023-03-07,1,,,,,コバヤシゴウケン,0
851,3290001100759,新規,0,2023-03-07,2023-03-07,株式会社福岡電子紡績,,株式会社,福岡県,福岡市中央区,今泉２丁目３番３０号,,40,133,8100021,,,,,,,2023-03-07,1,,,,,フクオカデンシボウセキ,0
852,3290001100775,新規,0,2023-03-07,2023-03-07,株式会社Ｃｌｅｙｅｒａ　Ｆｕｋｕｏｋａ,,株式会社,福岡県,春日市,天神山６丁目１２番地,,40,218,8160855,,,,,,,2023-03-07,1,,,,,クライエラフクオカ,0
853,3290001100800,新規,0,2023-03-07,2023-03-07,株式会社ＬＥＮＣ,,株式会社,福岡県,福岡市中央区,警固１丁目６番５号,,40,133,8100023,,,,,,,2023-03-07,1,,,,,レンク,0
854,3290005018972,新規,0,2023-03-07,2023-03-07,医療法人藤音会,,その他の設立登記法人,福岡県,福岡市早良区,藤崎１丁目１番３２号ＧＡＴＥＨＯＰＥ藤崎３階,,40,137,8140013,,,,,,,2023-03-07,1,,,,,フジネカイ,0
872,3340001025414,新規,0,2023-03-07,2023-03-07,株式会社フードビジネス,,株式会社,鹿児島県,奄美市,名瀬幸町８番２号,,46,222,8940025,,,,,,,2023-03-07,1,,,,,フードビジネス,0
876,3360001031625,新規,0,2023-03-07,2023-03-07,株式会社ＫｙｕｕＪｉｔｓｕ,,株式会社,沖縄県,那覇市,松山１丁目２４－１,,47,201,9000032,,,,,,,2023-03-07,1,,,,,キュウジツ,0
877,3360001031658,新規,0,2023-03-07,2023-03-07,株式会社ｔｏｒｃｈ,,株式会社,沖縄県,宜野湾市,普天間１丁目１番１２号,,47,205,9012202,,,,,,,2023-03-07,1,,,,,トーチ,0
895,3430001088534,新規,0,2023-03-07,2023-03-07,株式会社新生メンテナンス,,株式会社,北海道,登別市,新生町３丁目２番地３,,01,230,0590032,,,,,,,2023-03-07,1,,,,,シンセイメンテナンス,0
896,3430001088550,新規,0,2023-03-07,2023-03-07,株式会社森の匠,,株式会社,北海道,虻田郡倶知安町,字山田４６番地１５１,,01,400,0440081,,,,,,,2023-03-07,1,,,,,モリノタクミ,0
902,3462503000205,新規,0,2023-03-07,2023-03-07,合同会社ダイゼン工業,,合同会社,北海道,標津郡中標津町,東三十八条南１丁目７番地１,,01,692,0861038,,,,,,,2023-03-07,1,,,,,ダイゼンコウギョウ,0
903,3470001019502,新規,0,2023-03-07,2023-03-07,株式会社ＴＨＲＥＥ‐Ｂ,,株式会社,香川県,小豆郡土庄町,大部甲３２６８番地,,37,322,7614145,,,,,,,2023-03-07,1,,,,,スリービー,0
910,3500001024795,新規,0,2023-03-07,2023-03-07,株式会社七福,,株式会社,愛媛県,松山市,湊町４丁目６番地１５,,38,201,7900012,,,,,,,2023-03-07,1,,,,,シチフク,0
911,3500003002989,新規,0,2023-03-07,2023-03-07,合同会社天神,,合同会社,愛媛県,喜多郡内子町,内子２０２３番地,,38,422,7913301,,,,,,,2023-03-07,1,,,,,テンジン,0
913,3700150114427,新規,0,2023-03-07,2023-02-21,出雲市地球温暖化対策協議会,,その他,島根県,出雲市,今市町７０,,32,203,6930001,,,,,,,2023-02-21,1,,,,,イズモシチキユウオンダンカタイサクキヨウギカイ,0
914,3700150114633,新規,0,2023-03-07,2023-03-07,＿克斯貿易（広州）有限公司,00129666,外国会社等,,,,,,,,中国広東省広州市茘湾区龍渓中路９８号９０５房,,,,,,2023-03-07,1,,,,,ハクコクシボウエキコウシユウユウゲンコウシ,0
926,4010003039964,新規,0,2023-03-07,2023-03-07,合同会社Ｐｒｅｍｉｓｉａ　Ｈｏｌｄｉｎｇｓ,,合同会社,東京都,千代田区,霞が関３丁目２番５号,,13,101,1000013,,,,,,,2023-03-07,1,,,,,プレミシアホールディングス,0
928,4010005036349,新規,0,2023-03-07,2023-03-07,チューリップ特定目的会社,,その他の設立登記法人,東京都,千代田区,丸の内３丁目１番１号,,13,101,1000005,,,,,,,2023-03-07,1,,,,,チューリップ,0
935,4010401172821,新規,0,2023-03-07,2023-03-07,株式会社こがけ,,株式会社,東京都,港区,六本木６丁目１５番１号,,13,103,1060032,,,,,,,2023-03-07,1,,,,,コガケ,0
936,4010401172895,新規,0,2023-03-07,2023-03-07,株式会社ｍｏｏｒｉ,,株式会社,東京都,港区,南青山３丁目１５番９号ＭＩＮＯＷＡ３Ｆ－２５４,,13,103,1070062,,,,,,,2023-03-07,1,,,,,ムーリ,0
939,4010403029664,新規,0,2023-03-07,2023-03-07,ＹＡＹＯＩ合同会社,,合同会社,東京都,港区,赤坂２丁目１０番５号税理士法人赤坂国際会計事務所内,,13,103,1070052,,,,,,,2023-03-07,1,,,,,ヤヨイ,0
941,4010501050092,新規,0,2023-03-07,2023-03-07,株式会社タッチポイント,,株式会社,東京都,台東区,上野３丁目２２番１号ＲｅＡｘｅｓＢｌｄｇ．５Ｆ,,13,106,1100005,,,,,,,2023-03-07,1,,,,,タッチポイント,0
942,4010501050101,新規,0,2023-03-07,2023-03-07,株式会社アズーリＦＭ,,株式会社,東京都,台東区,浅草橋２丁目１３番９号,,13,106,1110053,,,,,,,2023-03-07,1,,,,,アズーリエフエム,0
948,4010605004176,新規,0,2023-03-07,2023-03-07,一般社団法人日本学生ソフトテニス連盟,,その他の設立登記法人,東京都,墨田区,墨田２丁目３４番９号,,13,107,1310031,,,,,,,2023-03-07,1,,,,,ニホンガクセイソフトテニスレンメイ,0
952,4010801033747,新規,0,2023-03-07,2023-03-07,ＬＵＡＡＮＡ株式会社,,株式会社,東京都,大田区,蒲田１丁目３０番１３－１０１号,,13,111,1440052,,,,,,,2023-03-07,1,,,,,ルアーナ,0
955,4010905004446,新規,0,2023-03-07,2023-03-07,医療法人社団芦花ウエルネス会,,その他の設立登記法人,東京都,世田谷区,南烏山３丁目２番３号デンタルコーポ１階,,13,112,1570062,,,,,,,2023-03-07,1,,,,,ロカウエルネスカイ,0
959,4011001152940,新規,0,2023-03-07,2023-03-07,共立アセットコンサル株式会社,,株式会社,東京都,渋谷区,千駄ヶ谷５丁目１３番１８号,,13,113,1510051,,,,,,,2023-03-07,1,,,,,キョウリツアセットコンサル,0
960,4011001152949,新規,0,2023-03-07,2023-03-07,株式会社オーララ,,株式会社,東京都,渋谷区,宇田川町１番１２号パークコート渋谷ザタワー３８０１号室,,13,113,1500042,,,,,,,2023-03-07,1,,,,,オーララ,0
961,4011001152957,新規,0,2023-03-07,2023-03-07,株式会社ＢｙＧａｕｄｉ,,株式会社,東京都,渋谷区,代々木１丁目４４番４号,,13,113,1510053,,,,,,,2023-03-07,1,,,,,バイガウディ,0
962,4011001152998,新規,0,2023-03-07,2023-03-07,株式会社タンサン,,株式会社,東京都,目黒区,青葉台３丁目１３番１１号Ｂ１階,,13,110,1530042,,,,,,,2023-03-07,1,,,,,タンサン,0
964,4011003016383,新規,0,2023-03-07,2023-03-07,ＴＩＰ合同会社,,合同会社,東京都,渋谷区,渋谷１丁目１番３号,,13,113,1500002,,,,,,,2023-03-07,1,,,,,ティアイピー,0
965,4011201024477,新規,0,2023-03-07,2023-03-07,株式会社久旭,,株式会社,東京都,中野区,中央１丁目６－６レジデンシャル中野坂上３０３,,13,114,1640011,,,,,,,2023-03-07,1,,,,,ヒサアキ,0
966,4011203004023,新規,0,2023-03-07,2023-03-07,合同会社Ｇｕｉｄｅ　Ｊａｐａｎ,,合同会社,東京都,中野区,南台５丁目３０番１１号レジェンド南台１０１,,13,114,1640014,,,,,,,2023-03-07,1,,,,,ガイドジャパン,0
967,4011205002537,新規,0,2023-03-07,2023-03-07,医療法人社団ｐｌｕｓ　Ｗ,,その他の設立登記法人,東京都,中野区,中野５丁目６５番５号豊島興業ビル４階,,13,114,1640001,,,,,,,2023-03-07,1,,,,,プラスダブリュー,0
968,4011301028519,新規,0,2023-03-07,2023-03-07,株式会社オフィスＨＭ,,株式会社,東京都,杉並区,本天沼３丁目１１番１２号,,13,115,1670031,,,,,,,2023-03-07,1,,,,,オフィスエイチエム,0
969,4011303004690,新規,0,2023-03-07,2023-03-07,合同会社Ｓｈｉｐｓ‐Ｃｏｕｒｓｅ,,合同会社,東京都,杉並区,梅里２丁目１８番７号ツインパレス新高円寺Ａ棟１０５,,13,115,1660011,,,,,,,2023-03-07,1,,,,,シップスコース,0
970,4011305002890,新規,0,2023-03-07,2023-03-07,医療法人社団明誠会,,その他の設立登記法人,東京都,杉並区,上高井戸１丁目２０番５号新川ビル,,13,115,1680074,,,,,,,2023-03-07,1,,,,,メイセイカイ,0
972,4011401024946,新規,0,2023-03-07,2023-03-07,株式会社Ｃｏｆｆｉａ,,株式会社,東京都,板橋区,清水町２０番４号,,13,119,1740053,,,,,,,2023-03-07,1,,,,,コフィア,0
973,4011403003931,新規,0,2023-03-07,2023-03-07,合同会社Ａ１,,合同会社,東京都,板橋区,板橋１丁目３３番７号,,13,119,1730004,,,,,,,2023-03-07,1,,,,,エーワン,0
974,4011501028946,新規,0,2023-03-07,2023-03-07,凱欣株式会社,,株式会社,東京都,荒川区,東尾久２丁目２番９号三祥ビル２４１,,13,118,1160012,,,,,,,2023-03-07,1,,,,,ガイキン,0
976,4011801042011,新規,0,2023-03-07,2023-03-07,ＴＴＩコーポレーション株式会社,,株式会社,東京都,足立区,千住１丁目４番１号東京芸術センター１０階,,13,121,1200034,,,,,,,2023-03-07,1,,,,,ティーティーアイコーポレーション,0
978,4011803005544,新規,0,2023-03-07,2023-03-07,合同会社ｍｉｙｏｎｇ　ｔｏｋｙｏ,,合同会社,東京都,葛飾区,東金町１丁目１３番２号村上ビル２Ｆ,,13,122,1250041,,,,,,,2023-03-07,1,,,,,ミヨントーキョー,0
982,4012403005868,新規,0,2023-03-07,2023-03-07,合同会社リニューアブルタウン,,合同会社,東京都,多摩市,永山５丁目３４番地１３－２,,13,224,2060025,,,,,,,2023-03-07,1,,,,,リニューアブルタウン,0
988,4013301050411,新規,0,2023-03-07,2023-03-07,株式会社Ｍａｉｓｏｎ　Ｋｉｎｅｍａ,,株式会社,東京都,豊島区,上池袋３丁目１９番７号グランメゾン２Ｆ,,13,116,1700012,,,,,,,2023-03-07,1,,,,,メゾンキネマ,0
1006,4020003023422,新規,0,2023-03-07,2023-03-07,三澤内装合同会社,,合同会社,神奈川県,横浜市中区,曙町４丁目５０番地２ライオンズマンション横浜大通り公園第３・２０３号,,14,104,2310057,,,,,,,2023-03-07,1,,,,,ミサワナイソウ,0
1011,4021001078359,新規,0,2023-03-07,2023-03-07,株式会社天拓商事,,株式会社,神奈川県,厚木市,中町３丁目４番３号,,14,212,2430018,,,,,,,2023-03-07,1,,,,,テンタクショウジ,0
1013,4021003012836,新規,0,2023-03-07,2023-03-07,合同会社ＡＲＭＳ,,合同会社,神奈川県,海老名市,中央１丁目１６番３１号Ａ＆ＮＩビル１Ｆ,,14,215,2430432,,,,,,,2023-03-07,1,,,,,アームス,0
1019,4030001152668,新規,0,2023-03-07,2023-03-07,株式会社Ｓｕｎ　Ｆｕｔｕｒｅ,,株式会社,埼玉県,さいたま市浦和区,元町２丁目２４番２号,,11,107,3300073,,,,,,,2023-03-07,1,,,,,サンフューチャー,0
1020,4030001152676,新規,0,2023-03-07,2023-03-07,株式会社すまいる,,株式会社,埼玉県,所沢市,美原町２丁目２９６６番地の１オハナ新所沢６０６,,11,208,3590045,,,,,,,2023-03-07,1,,,,,スマイル,0
1027,4030003021318,新規,0,2023-03-07,2023-03-07,Ｌ＆Ｐ．Ｒコンサルティング合同会社,,合同会社,埼玉県,南埼玉郡宮代町,百間４丁目１０番４号,,11,442,3450801,,,,,,,2023-03-07,1,,,,,エルピーアールコンサルティング,0
1028,4030005021159,新規,0,2023-03-07,2023-03-07,一般社団法人福祉のよろず屋,,その他の設立登記法人,埼玉県,吉川市,美南５丁目２２番地３,,11,243,3420038,,,,,,,2023-03-07,1,,,,,フクシノヨロズヤ,0
1034,4040001127314,新規,0,2023-03-07,2023-03-07,株式会社ＰＡＮＣＨＩ,,株式会社,千葉県,成田市,橋賀台２丁目４番地１,,12,211,2860037,,,,,,,2023-03-07,1,,,,,パンチ,0
1035,4040001127322,新規,0,2023-03-07,2023-03-07,ＬＡＰ　ＳＯＬＡＲ株式会社,,株式会社,千葉県,八千代市,緑が丘１丁目１番地１,,12,221,2760049,,,,,,,2023-03-07,1,,,,,エルエーピーソーラー,0
1036,4040001127347,新規,0,2023-03-07,2023-03-07,ＣｏＣｏＧａｒｄｅｎ株式会社,,株式会社,千葉県,大網白里市,季美の森南３丁目３番地２１Ｂ,,12,239,2993241,,,,,,,2023-03-07,1,,,,,ココガーデン,0
1037,4040001127355,新規,0,2023-03-07,2023-03-07,株式会社セレスティア,,株式会社,千葉県,茂原市,本小轡１１３１番地１０,,12,210,2970005,,,,,,,2023-03-07,1,,,,,セレスティア,0
1040,4040003022050,新規,0,2023-03-07,2023-03-07,桜花国際合同会社,,合同会社,千葉県,佐倉市,生谷９７３－２－１０１室,,12,212,2850836,,,,,,,2023-03-07,1,,,,,サクラバナコクサイ,0
1041,4040003022125,新規,0,2023-03-07,2023-03-07,合同会社セブン,,合同会社,千葉県,千葉市花見川区,幕張本郷２丁目３－１ニューエイト第一１０４号室,,12,102,2620033,,,,,,,2023-03-07,1,,,,,セブン,0
1046,4060001035754,新規,0,2023-03-07,2023-03-07,株式会社ウェルネス,,株式会社,栃木県,宇都宮市,屋板町１１５番地４１,,09,201,3210112,,,,,,,2023-03-07,1,,,,,ウェルネス,0
1047,4060001035762,新規,0,2023-03-07,2023-03-07,株式会社まんまる不動産,,株式会社,栃木県,大田原市,蛭畑９３１番地,,09,210,3240411,,,,,,,2023-03-07,1,,,,,マンマルフドウサン,0
1051,4080101023822,新規,0,2023-03-07,2023-03-07,株式会社三井工業,,株式会社,静岡県,富士市,大淵２９４１番地の３,,22,210,4170801,,,,,,,2023-03-07,1,,,,,ミツイコウギョウ,0
1055,4090003002270,新規,0,2023-03-07,2023-03-07,鏡渡橋ファームカフェ合同会社,,合同会社,山梨県,上野原市,上野原５８９番地,,19,212,4090112,,,,,,,2023-03-07,1,,,,,キョウドバシファームカフェ,0
1056,4100003006914,新規,0,2023-03-07,2023-03-07,カエルフルーツ合同会社,,合同会社,長野県,上高井郡小布施町,大字小布施２４５２－４６,,20,541,3810201,,,,,,,2023-03-07,1,,,,,カエルフルーツ,0
1058,4110001023118,新規,0,2023-03-07,2023-03-07,新潟乳工業株式会社,,株式会社,新潟県,長岡市,下条町６６５番地,,15,202,9401146,,,,,,,2023-03-07,1,,,,,ニイガタニュウコウギョウ,0
1059,4110001037340,新規,0,2023-03-07,2023-03-07,あがる株式会社,,株式会社,新潟県,刈羽郡刈羽村,大字正明寺９６２番地１,,15,504,9450317,,,,,,,2023-03-07,1,,,,,アガル,0
1060,4110001037349,新規,0,2023-03-07,2023-03-07,株式会社辰正丸,,株式会社,新潟県,新潟市中央区,稲荷町３６１５番地,,15,103,9518018,,,,,,,2023-03-07,1,,,,,タツショウマル,0
1062,4110005016902,新規,0,2023-03-07,2023-03-07,一般社団法人きづき,,その他の設立登記法人,新潟県,村上市,南町２丁目１０番４号,,15,212,9580852,,,,,,,2023-03-07,1,,,,,キヅキ,0
1070,4120001252921,新規,0,2023-03-07,2023-03-07,株式会社ドミニア,,株式会社,大阪府,大阪市中央区,博労町４丁目２番８号ＬＯＧＥＲビル２階,,27,128,5410059,,,,,,,2023-03-07,1,,,,,ドミニア,0
1071,4120001253003,新規,0,2023-03-07,2023-03-07,ＴＢＴ株式会社,,株式会社,大阪府,守口市,梶町１丁目１０番３号,,27,209,5700015,,,,,,,2023-03-07,1,,,,,ティービーティー,0
1077,4120003023536,新規,0,2023-03-07,2023-03-07,合同会社エム＆エム,,合同会社,大阪府,大阪市生野区,勝山北４丁目１番５２号,,27,116,5440033,,,,,,,2023-03-07,1,,,,,エムアンドエム,0
1078,4120003023560,新規,0,2023-03-07,2023-03-07,合同会社Ｆｌｅｘｉｅ,,合同会社,大阪府,大阪市北区,梅田１丁目２番２号大阪駅前第２ビル１２－１２,,27,127,5300001,,,,,,,2023-03-07,1,,,,,フレクシィ,0
1081,4120901047223,新規,0,2023-03-07,2023-03-07,株式会社ピュアリアス,,株式会社,大阪府,豊中市,桜の町６丁目１０番１４号,,27,203,5600054,,,,,,,2023-03-07,1,,,,,ピュアリアス,0
1082,4120901047231,新規,0,2023-03-07,2023-03-07,株式会社農機具買取モノリーフ,,株式会社,大阪府,吹田市,広芝町８－１２第３マイダビル６０７,,27,205,5640052,,,,,,,2023-03-07,1,,,,,ノウキグカイトリモノリーフ,0
1083,4120903004528,新規,0,2023-03-07,2023-03-07,合同会社ＡＴＣ電気積算事務所,,合同会社,大阪府,高槻市,津之江町３丁目１８番１４号,,27,207,5690822,,,,,,,2023-03-07,1,,,,,エーティーシーデンキセキサンジムショ,0
1084,4122001036759,新規,0,2023-03-07,2023-03-07,株式会社ワタセトランスポート,,株式会社,大阪府,四條畷市,南野２丁目２番６９号２０２,,27,229,5750021,,,,,,,2023-03-07,1,,,,,ワタセトランスポート,0
1089,4130001073755,新規,0,2023-03-07,2023-03-07,ＫＹ企画株式会社,,株式会社,京都府,京都市右京区,太秦西野町１０番地,,26,108,6168156,,,,,,,2023-03-07,1,,,,,ケイワイキカク,0
1090,4130001073805,新規,0,2023-03-07,2023-03-07,株式会社杉本権七法衣店,,株式会社,京都府,京都市下京区,新町通六条下る艮町８７５番地,,26,106,6008304,,,,,,,2023-03-07,1,,,,,スギモトゴンシチホウイテン,0
1097,4140001129309,新規,0,2023-03-07,2023-03-07,スカイビーズ株式会社,,株式会社,兵庫県,宝塚市,武庫川町６番２６－２００１号,,28,214,6650844,,,,,,,2023-03-07,1,,,,,スカイビーズ,0
1098,4140001129366,新規,0,2023-03-07,2023-03-07,サンライトコーポレーション株式会社,,株式会社,兵庫県,三木市,別所町花尻字高岡６６７番地,,28,215,6730446,,,,,,,2023-03-07,1,,,,,サンライトコーポレーション,0
1099,4140001129374,新規,0,2023-03-07,2023-03-07,ｃｏｎｔｉｎｅｎｔ株式会社,,株式会社,兵庫県,姫路市,綿町１４６,,28,201,6700921,,,,,,,2023-03-07,1,,,,,コンティネント,0
1106,4140005026502,新規,0,2023-03-07,2023-03-07,医療法人裕心会,,その他の設立登記法人,兵庫県,西宮市,甲子園八番町２番１６号,,28,204,6638178,,,,,,,2023-03-07,1,,,,,ユウシンカイ,0
1115,4180001155202,新規,0,2023-03-07,2023-03-07,株式会社マスダフリーコーポレーション,,株式会社,愛知県,愛知郡東郷町,大字春木字音貝４３番地９８,,23,302,4700162,,,,,,,2023-03-07,1,,,,,マスダフリーコーポレーション,0
1116,4180001155210,新規,0,2023-03-07,2023-03-07,株式会社ひだりうま,,株式会社,愛知県,名古屋市守山区,更屋敷１５番２５号ライオンズマンション廿軒家７０２号,,23,113,4630064,,,,,,,2023-03-07,1,,,,,ヒダリウマ,0
1117,4180001155219,新規,0,2023-03-07,2023-03-07,株式会社まる,,株式会社,愛知県,名古屋市中村区,道下町４丁目５番地ヴェルドミール９０６号,,23,105,4530046,,,,,,,2023-03-07,1,,,,,マル,0
1118,4180001155235,新規,0,2023-03-07,2023-03-07,株式会社ＧＲＡＣＩＡＳ,,株式会社,愛知県,一宮市,大和町妙興寺字高畑２３番地１,,23,203,4910922,,,,,,,2023-03-07,1,,,,,グラシアス,0
1119,4180001155243,新規,0,2023-03-07,2023-03-07,デオグラフィ株式会社,,株式会社,愛知県,名古屋市守山区,八剣２丁目２３０３番地の１,,23,113,4630022,,,,,,,2023-03-07,1,,,,,デオグラフィ,0
1120,4180001155251,新規,0,2023-03-07,2023-03-07,株式会社Ｔｈａｌｅｉａ,,株式会社,愛知県,名古屋市中区,栄２丁目１５番１６号白川タワービル６階６０１号,,23,106,4600008,,,,,,,2023-03-07,1,,,,,タレイア,0
1122,4180003024900,新規,0,2023-03-07,2023-03-07,合同会社椿,,合同会社,愛知県,名古屋市中川区,荒子町字大門西５８番地,,23,110,4540861,,,,,,,2023-03-07,1,,,,,ツバキ,0
1123,4180003024925,新規,0,2023-03-07,2023-03-07,合同会社滝ノ水経営コンサルタント,,合同会社,愛知県,名古屋市緑区,滝ノ水２丁目８０３番地,,23,114,4580021,,,,,,,2023-03-07,1,,,,,タキノミズケイエイコンサルタント,0
1127,4180301037158,新規,0,2023-03-07,2023-03-07,株式会社ａｍｐｍ,,株式会社,愛知県,安城市,箕輪町唐生１８７番地,,23,212,4460051,,,,,,,2023-03-07,1,,,,,エーエムピーエム,0
1131,4190003004249,新規,0,2023-03-07,2023-03-07,合同会社つなぐ,,合同会社,三重県,いなべ市,員弁町上笠田２６５４番地１,,24,214,5110207,,,,,,,2023-03-07,1,,,,,ツナグ,0
1132,4190003004257,新規,0,2023-03-07,2023-03-07,合同会社ジーライツ,,合同会社,三重県,四日市市,川北１丁目１７番２０号プレジール宏１０２号室,,24,202,5108031,,,,,,,2023-03-07,1,,,,,ジーライツ,0
1133,4190005011796,新規,0,2023-03-07,2023-03-07,ＥＮＥＯＳマテリアル労働組合,,その他の設立登記法人,三重県,四日市市,川尻町１００番地,,24,202,5100871,,,,,,,2023-03-07,1,,,,,エネオスマテリアル,0
1143,4240001061179,新規,0,2023-03-07,2023-03-07,ＦＥＲＲＹ　ＷＥＬＤＩＮＧ株式会社,,株式会社,広島県,福山市,赤坂町大字早戸４２番地１,,34,207,7200844,,,,,,,2023-03-07,1,,,,,フェリウェルディング,0
1148,4290001100691,新規,0,2023-03-07,2023-03-07,株式会社松大,,株式会社,福岡県,福岡市博多区,博多駅東２丁目４番３０号,,40,132,8120013,,,,,,,2023-03-07,1,,,,,マツダイ,0
1149,4290001100758,新規,0,2023-03-07,2023-03-07,株式会社ＥＤＥＮ　ＢＡＮＫ,,株式会社,福岡県,福岡市中央区,笹丘３丁目１８番２８号,,40,133,8100034,,,,,,,2023-03-07,1,,,,,エデンバンク,0
1151,4290003013594,新規,0,2023-03-07,2023-03-07,合同会社オーメディカル,,合同会社,福岡県,福岡市東区,千早４丁目１５番１２－４０８号,,40,131,8130044,,,,,,,2023-03-07,1,,,,,オーメディカル,0
1153,4290803004363,新規,0,2023-03-07,2023-03-07,なごみ合同会社,,合同会社,福岡県,中間市,桜台１丁目１５番３２号,,40,215,8090017,,,,,,,2023-03-07,1,,,,,ナゴミ,0
1160,4330005010627,新規,0,2023-03-07,2023-03-07,一般社団法人Ｃｏｕｎｓｅｌｉｎｇ　Ｃｏｎｔｅｎｔｓ　Ｌａｂ,,その他の設立登記法人,熊本県,八代市,鷹辻町２－１２,00129670,43,202,8660866,,,,,,,2023-03-07,1,,,,,カウンセリングコンテンツラボラトリー,0
1162,4340001025413,新規,0,2023-03-07,2023-03-07,株式会社８８４８,,株式会社,鹿児島県,鹿児島市,西田２丁目１７番２８号,,46,201,8900046,,,,,,,2023-03-07,1,,,,,ハチハチヨンハチ,0
1163,4360001031649,新規,0,2023-03-07,2023-03-07,株式会社ルックル,,株式会社,沖縄県,浦添市,当山２丁目７－１ウエストサイド１－２０２号,,47,208,9012104,,,,,,,2023-03-07,1,,,,,ルックル,0
1183,4430001088541,新規,0,2023-03-07,2023-03-07,株式会社岩崎農場,,株式会社,北海道,岩見沢市,上幌向町９１０番地４,,01,210,0690365,,,,,,,2023-03-07,1,,,,,イワサキノウジョウ,0
1184,4430003014784,新規,0,2023-03-07,2023-03-07,合同会社ｅｕｔｈｙｍｉａ,,合同会社,北海道,札幌市北区,新琴似五条５丁目７番２２号,,01,102,0010905,,,,,,,2023-03-07,1,,,,,ユーシミア,0
1185,4430003014792,新規,0,2023-03-07,2023-03-07,合同会社ラッキー運転代行,,合同会社,北海道,札幌市豊平区,月寒東四条１６丁目１番３号月寒ＴＢ１０３号,,01,105,0620054,,,,,,,2023-03-07,1,,,,,ラッキーウンテンダイコウ,0
1188,4480001012026,新規,0,2023-03-07,2023-03-07,株式会社ＴＷＯ　ＳＴＡＲ,,株式会社,徳島県,名西郡石井町,浦庄字上浦２３２番地１,,36,341,7793245,,,,,,,2023-03-07,1,,,,,ツースター,0
1190,4700150114632,新規,0,2023-03-07,2023-03-07,深セン市同訊電子商務有限公司,,外国会社等,,,,,,,,中国深セン市龍崗区坪地街道中心社区山塘尾一巷４号４０２,,,,,,2023-03-07,1,,,,,シンセンシドウシンデンシシヨウムユウゲンコウシ,0
1201,5010001233394,新規,0,2023-03-07,2023-03-07,株式会社アルデバラン,,株式会社,東京都,文京区,白山４丁目３６番１６－４０１号,,13,105,1120001,,,,,,,2023-03-07,1,,,,,アルデバラン,0
1202,5010003039939,新規,0,2023-03-07,2023-03-07,ハイドランジア合同会社,,合同会社,東京都,千代田区,丸の内３丁目１番１号,,13,101,1000005,,,,,,,2023-03-07,1,,,,,ハイドランジア,0
1203,5010003039971,新規,0,2023-03-07,2023-03-07,合同会社わい企画,,合同会社,東京都,中央区,築地６丁目１８番３号ＳｗａｎＬａｋｅ築地４Ｆ,,13,102,1040045,,,,,,,2023-03-07,1,,,,,ワイキカク,0
1214,5010405021882,新規,0,2023-03-07,2023-03-07,一般社団法人インディペンデント・プロデューサーズ・ギルド,,その他の設立登記法人,東京都,港区,南青山１丁目２０番１５号,,13,103,1070062,,,,,,,2023-03-07,1,,,,,インディペンデントプロデューサーズギルド,0
1218,5010501050100,新規,0,2023-03-07,2023-03-07,株式会社ＺＩＲＡＫＵ,,株式会社,東京都,台東区,元浅草１丁目４番１１－１３０４号スカイグランデ新御徒町,,13,106,1110041,,,,,,,2023-03-07,1,,,,,ジラク,0
1221,5010601062697,新規,0,2023-03-07,2023-03-07,Ｖｅｎｔｕｒｅ　Ｇｒｏｗｔｈ株式会社,,株式会社,東京都,江東区,豊洲３丁目６番８号,,13,108,1350061,,,,,,,2023-03-07,1,,,,,ベンチャーグロース,0
1222,5010601062706,新規,0,2023-03-07,2023-03-07,株式会社オメガソリューションズ,,株式会社,東京都,江東区,塩浜２丁目７番５－３４７号,,13,108,1350043,,,,,,,2023-03-07,1,,,,,オメガソリューションズ,0
1223,5010603010051,新規,0,2023-03-07,2023-03-07,合同会社有す人,,合同会社,東京都,江東区,豊洲５丁目６番４５－３０６号,,13,108,1350061,,,,,,,2023-03-07,1,,,,,ユウスト,0
1225,5010701043928,新規,0,2023-03-07,2023-03-07,株式会社ＳｅｅｄＳ,,株式会社,東京都,品川区,東五反田１丁目６番３号,,13,109,1410022,,,,,,,2023-03-07,1,,,,,シーズ,0
1226,5010801033746,新規,0,2023-03-07,2023-03-07,中庭測量コンサルタント株式会社,,株式会社,東京都,大田区,蒲田５丁目３８番３号,,13,111,1440052,,,,,,,2023-03-07,1,,,,,ナカニワソクリョウコンサルタント,0
1230,5010901052646,新規,0,2023-03-07,2023-03-07,株式会社東京技研ホールディングス,,株式会社,東京都,世田谷区,玉堤１丁目２５番１３号,,13,112,1580087,,,,,,,2023-03-07,1,,,,,トウキョウギケンホールディングス,0
1232,5010905004445,新規,0,2023-03-07,2023-03-07,医療法人社団三薫会,,その他の設立登記法人,東京都,世田谷区,三軒茶屋１丁目３７番２号三茶ビル４０２,,13,112,1540024,,,,,,,2023-03-07,1,,,,,サンクンカイ,0
1236,5011001152931,新規,0,2023-03-07,2023-03-07,ＪＰａｎｃｈｅｎ株式会社,,株式会社,東京都,目黒区,上目黒１丁目１３番１１号リバーサイド中目黒１０２,,13,110,1530051,,,,,,,2023-03-07,1,,,,,ジェイパンチェン,0
1237,5011001152956,新規,0,2023-03-07,2023-03-07,株式会社ファレトス,,株式会社,東京都,渋谷区,本町４丁目１番１６－４０１号,,13,113,1510071,,,,,,,2023-03-07,1,,,,,ファレトス,0
1238,5011001152972,新規,0,2023-03-07,2023-03-07,ＵｓＴｉｍｅ株式会社,,株式会社,東京都,渋谷区,渋谷２丁目１９番１５号宮益坂ビルディング６０９,,13,113,1500002,,,,,,,2023-03-07,1,,,,,アスタイム,0
1239,5011001152997,新規,0,2023-03-07,2023-03-07,株式会社ウイスキー,,株式会社,東京都,渋谷区,渋谷３丁目１番９号ＹＡＺＡＷＡビルＵＣＦ３階,,13,113,1500002,,,,,,,2023-03-07,1,,,,,ウイスキー,0
1242,5011003016390,新規,0,2023-03-07,2023-03-07,ラズベリードロップス合同会社,,合同会社,東京都,渋谷区,恵比寿南２丁目２０番１４－６０２号,,13,113,1500022,,,,,,,2023-03-07,1,,,,,ラズベリードロップス,0
1245,5011005009970,新規,0,2023-03-07,2023-03-07,医療法人社団大山歯科医院,,その他の設立登記法人,東京都,目黒区,原町２丁目２２番２号１階,,13,110,1520011,,,,,,,2023-03-07,1,,,,,オオヤマシカイイン,0
1248,5011101102051,新規,0,2023-03-07,2023-03-07,株式会社ＡＵＲＡＬＥＥ,,株式会社,東京都,新宿区,西新宿６丁目１０－１日土地西新宿ビル８階,,13,104,1600023,,,,,,,2023-03-07,1,,,,,オーラリー,0
1249,5011101102076,新規,0,2023-03-07,2023-03-07,株式会社ＷＡＬＫ　ＰＡＲＡＤＥ,,株式会社,東京都,新宿区,北新宿１丁目２０番１１号９０２,,13,104,1690074,,,,,,,2023-03-07,1,,,,,ウォークパレード,0
1251,5011401024945,新規,0,2023-03-07,2023-03-07,株式会社与良正男事務所,,株式会社,東京都,板橋区,氷川町２７番３－４０２号,,13,119,1730013,,,,,,,2023-03-07,1,,,,,ヨラマサオジムショ,0
1254,5011501029019,新規,0,2023-03-07,2023-03-07,千興株式会社,,株式会社,東京都,北区,滝野川３丁目９番２号西巣鴨ＫＴＢビル２０８号室,,13,117,1140023,,,,,,,2023-03-07,1,,,,,センコウ,0
1255,5011503005505,新規,0,2023-03-07,2023-03-07,合同会社Ｒｉｆｉ,,合同会社,東京都,北区,赤羽１丁目７番９号赤羽第一葉山ビル４Ｆ,,13,117,1150045,,,,,,,2023-03-07,1,,,,,リフィ,0
1259,5011701026063,新規,0,2023-03-07,2023-03-07,株式会社ＢｉｚＦｉｒｓｔ,,株式会社,東京都,江戸川区,西葛西２丁目２２番４５－２１１号,,13,123,1340088,,,,,,,2023-03-07,1,,,,,,0
1260,5011703003399,新規,0,2023-03-07,2023-03-07,合同会社雅企画,,合同会社,東京都,江戸川区,東葛西５丁目８番１８号,,13,123,1340084,,,,,,,2023-03-07,1,,,,,ミヤビキカク,0
1263,5011801042027,新規,0,2023-03-07,2023-03-07,株式会社アジズワン,,株式会社,東京都,足立区,西新井６丁目１番２号,,13,121,1230841,,,,,,,2023-03-07,1,,,,,アジズワン,0
1265,5012301013336,新規,0,2023-03-07,2023-03-07,ＡＢＣ．Ｇｌｏｂａｌ株式会社,,株式会社,東京都,町田市,原町田４丁目１１番１３号天野ビル４Ｆ,,13,209,1940013,,,,,,,2023-03-07,1,,,,,エービーシーグローバル,0
1267,5012403005859,新規,0,2023-03-07,2023-03-07,ＧＲＥＥＮ　ＢＡＹ合同会社,,合同会社,東京都,府中市,宮西町３丁目１番地の１,,13,206,1830022,,,,,,,2023-03-07,1,,,,,グリーンベイ,0
1268,5012403005867,新規,0,2023-03-07,2023-03-07,合同会社シナプスエンジニアリング,,合同会社,東京都,府中市,住吉町２丁目１８番１号中銀府中大国マンシオン２３２,,13,206,1830034,,,,,,,2023-03-07,1,,,,,シナプスエンジニアリング,0
1283,5020003023438,新規,0,2023-03-07,2023-03-07,ＭＹＳ合同会社,,合同会社,神奈川県,横浜市青葉区,あざみ野１丁目１２番地５,,14,117,2250011,,,,,,,2023-03-07,1,,,,,エムワイエス,0
1284,5020003023462,新規,0,2023-03-07,2023-03-07,合同会社神道Ｇｌｏｂａｌ,,合同会社,神奈川県,川崎市川崎区,東扇島２４番地,,14,131,2100869,,,,,,,2023-03-07,1,,,,,シントウグローバル,0
1285,5020005015862,新規,0,2023-03-07,2023-03-07,一般社団法人日本化粧品専門店協会,,その他の設立登記法人,神奈川県,横浜市神奈川区,鶴屋町２丁目２０番２号,,14,102,2210835,,,,,,,2023-03-07,1,,,,,ニホンケショウヒンセンモンテンキョウカイ,0
1288,5021003012835,新規,0,2023-03-07,2023-03-07,合同会社Ｂｕｒｉｔｏ,,合同会社,神奈川県,相模原市中央区,上溝７丁目２１番４号,,14,152,2520243,,,,,,,2023-03-07,1,,,,,ブリト,0
1295,5030001152691,新規,0,2023-03-07,2023-03-07,株式会社リソース・コーチング,,株式会社,埼玉県,川越市,岸町２丁目２５番地１３（コスモ川越サーパスコート３０１号室）,,11,201,3501131,,,,,,,2023-03-07,1,,,,,リソースコーチング,0
1296,5030001152725,新規,0,2023-03-07,2023-03-07,株式会社エフトラスト,,株式会社,埼玉県,三郷市,彦野１丁目７番地１,,11,237,3410052,,,,,,,2023-03-07,1,,,,,エフトラスト,0
1297,5030001152766,新規,0,2023-03-07,2023-03-07,株式会社志彩堂,,株式会社,埼玉県,児玉郡上里町,大字七本木２５５１番地４,,11,385,3690306,,,,,,,2023-03-07,1,,,,,シサイドウ,0
1304,5040001127271,新規,0,2023-03-07,2023-03-07,株式会社京竹,,株式会社,千葉県,市川市,市川１丁目９番１１号,,12,203,2720034,,,,,,,2023-03-07,1,,,,,キョウチク,0
1305,5040001127346,新規,0,2023-03-07,2023-03-07,株式会社バリアゼロ,,株式会社,千葉県,柏市,柏２丁目５番９号,,12,217,2770005,,,,,,,2023-03-07,1,,,,,バリアゼロ,0
1306,5040001127379,新規,0,2023-03-07,2023-03-07,ＫＩＢＡＲＯ　ＴＲＡＤＩＮＧ株式会社,,株式会社,千葉県,山武市,木原１５９０番地７,,12,237,2891212,,,,,,,2023-03-07,1,,,,,キバロトレーディング,0
1307,5040003022124,新規,0,2023-03-07,2023-03-07,合同会社リトルフォース,,合同会社,千葉県,成田市,花崎町８１６ラ・エント成田５Ｆ,,12,211,2860033,,,,,,,2023-03-07,1,,,,,リトルフォース,0
1313,5060003004459,新規,0,2023-03-07,2023-03-07,合同会社イリー,,合同会社,栃木県,那須塩原市,東三島２丁目８５番地４号,,09,213,3292751,,,,,,,2023-03-07,1,,,,,イリー,0
1321,5100001036185,新規,0,2023-03-07,2023-03-07,株式会社登城農園,,株式会社,長野県,上伊那郡飯島町,本郷１６７２番地,,20,384,3993704,,,,,,,2023-03-07,1,,,,,トジョウノウエン,0
1325,5110005016901,新規,0,2023-03-07,2023-03-07,農事組合法人大月ファーム,,その他の設立登記法人,新潟県,南魚沼市,大月６４８番地２,,15,226,9496682,,,,,,,2023-03-07,1,,,,,オオツキファーム,0
1332,5120001252763,新規,0,2023-03-07,2023-03-07,株式会社ジョセス,,株式会社,大阪府,大阪市西区,靱本町１丁目９－１５近畿富山会館５階,,27,106,5500004,,,,,,,2023-03-07,1,,,,,ジョセス,0
1333,5120001252895,新規,0,2023-03-07,2023-03-07,株式会社東福,,株式会社,大阪府,大阪市生野区,桃谷２丁目１７番１０号,,27,116,5440034,,,,,,,2023-03-07,1,,,,,トウフク,0
1334,5120001252904,新規,0,2023-03-07,2023-03-07,ウォーターネクサスＯＳＡＫＡ株式会社,,株式会社,大阪府,大阪市北区,小松原町２番４号,,27,127,5300018,,,,,,,2023-03-07,1,,,,,ウォーターネクサスオオサカ,0
1335,5120001252920,新規,0,2023-03-07,2023-03-07,株式会社ライム,,株式会社,大阪府,大阪市東住吉区,桑津３丁目３０番１１－４０４号,,27,121,5460041,,,,,,,2023-03-07,1,,,,,ライム,0
1336,5120001252929,新規,0,2023-03-07,2023-03-07,株式会社Ｔｉｇｒｅ,,株式会社,大阪府,大阪市大正区,小林西２丁目１５番１号,,27,108,5510013,,,,,,,2023-03-07,1,,,,,ティグレ,0
1337,5120001252994,新規,0,2023-03-07,2023-03-07,株式会社明誠,,株式会社,大阪府,大阪市鶴見区,横堤５丁目５番３６－６１３号,,27,124,5380052,,,,,,,2023-03-07,1,,,,,メイセイ,0
1346,5130001073820,新規,0,2023-03-07,2023-03-07,株式会社Ｌｕｓｔｅｒ,,株式会社,京都府,京田辺市,田辺中央３丁目１番地１,,26,211,6100334,,,,,,,2023-03-07,1,,,,,ラスター,0
1347,5130001073829,新規,0,2023-03-07,2023-03-07,株式会社ＺＩＯ,,株式会社,京都府,京都市南区,東九条室町２９番地１１,,26,107,6018001,,,,,,,2023-03-07,1,,,,,ジオ,0
1350,5130003008568,新規,0,2023-03-07,2023-03-07,合同会社ｓｏｒａｕｍｉ,,合同会社,京都府,京都市右京区,西院西今田町１２番地１６,,26,108,6150003,,,,,,,2023-03-07,1,,,,,ソラウミ,0
1359,5140001129290,新規,0,2023-03-07,2023-03-07,株式会社シンシア,,株式会社,兵庫県,西宮市,高塚町７番２０－３０２号,,28,204,6620066,,,,,,,2023-03-07,1,,,,,シンシア,0
1360,5140001129299,新規,0,2023-03-07,2023-03-07,共栄管理株式会社,,株式会社,兵庫県,宝塚市,中筋６丁目５番７号,,28,214,6650874,,,,,,,2023-03-07,1,,,,,キョウエイカンリ,0
1361,5140001129308,新規,0,2023-03-07,2023-03-07,株式会社ラフラデザイン,,株式会社,兵庫県,西宮市,上甲東園３丁目９番９号,,28,204,6620813,,,,,,,2023-03-07,1,,,,,ラフラデザイン,0
1362,5140001129316,新規,0,2023-03-07,2023-03-07,ＧＥ株式会社,,株式会社,兵庫県,三田市,広沢１９１番地２,,28,219,6691332,,,,,,,2023-03-07,1,,,,,ジーイー,0
1372,5180001155192,新規,0,2023-03-07,2023-03-07,株式会社アンドＥコマース,,株式会社,愛知県,知多市,南粕谷新海３丁目１６番地１,,23,224,4780026,,,,,,,2023-03-07,1,,,,,アンドイーコマース,0
1373,5180001155201,新規,0,2023-03-07,2023-03-07,株式会社真鈴パーツ,,株式会社,愛知県,名古屋市名東区,猪子石２丁目１６１０番地,,23,115,4650021,,,,,,,2023-03-07,1,,,,,マリンパーツ,0
1374,5180001155242,新規,0,2023-03-07,2023-03-07,株式会社Ｎａｖｙ,,株式会社,愛知県,名古屋市中区,新栄３丁目１９－５エクセランス新栄４０７号,,23,106,4600007,,,,,,,2023-03-07,1,,,,,ネイビー,0
1375,5180001155259,新規,0,2023-03-07,2023-03-07,ＢＫＳ宇都株式会社,,株式会社,愛知県,北名古屋市,鹿田栄２４７番地２,,23,234,4810004,,,,,,,2023-03-07,1,,,,,ビーケーエスウト,0
1377,5180003024908,新規,0,2023-03-07,2023-03-07,合同会社ＦＵＫＡＹＡ,,合同会社,愛知県,大府市,朝日町３丁目３６番地,,23,223,4740024,,,,,,,2023-03-07,1,,,,,フカヤ,0
1378,5180003024924,新規,0,2023-03-07,2023-03-07,合同会社ｙｏｒｉｓｏ,,合同会社,愛知県,江南市,小杁町八幡１４３番地,,23,217,4838411,,,,,,,2023-03-07,1,,,,,ヨリソ,0
1379,5180003024932,新規,0,2023-03-07,2023-03-07,合同会社ＥＡＧＬＥ　ＰＲＯＤＵＣＴ,,合同会社,愛知県,丹羽郡大口町,城屋敷１丁目４７番,,23,361,4800143,,,,,,,2023-03-07,1,,,,,イーグルプロダクト,0
1380,5180005020120,新規,0,2023-03-07,2023-03-07,一般社団法人創研,,その他の設立登記法人,愛知県,名古屋市中区,錦３丁目１１番２５号,,23,106,4600003,,,,,,,2023-03-07,1,,,,,ソウケン,0
1383,5190001030205,新規,0,2023-03-07,2023-03-07,株式会社Ｉ’ｓホールディングス,,株式会社,三重県,四日市市,新正３丁目１７番６号,,24,202,5100064,,,,,,,2023-03-07,1,,,,,アイズホールディングス,0
1385,5190005011795,新規,0,2023-03-07,2023-03-07,一般社団法人天空の庭ミュージアム,,その他の設立登記法人,三重県,津市,東丸之内５番１４号,,24,201,5140028,,,,,,,2023-03-07,1,,,,,テンクウノニワミュージアム,0
1387,5200001041051,新規,0,2023-03-07,2023-03-07,株式会社ＮＥＡＤ,,株式会社,岐阜県,岐阜市,茜部新所３丁目１１６番地２,,21,201,5008263,,,,,,,2023-03-07,1,,,,,ニード,0
1388,5220001025300,新規,0,2023-03-07,2023-03-07,折戸産業株式会社,,株式会社,石川県,能美市,寺井町か１３６番地５,,17,211,9231121,,,,,,,2023-03-07,1,,,,,オリトサンギョウ,0
1392,5240001061153,新規,0,2023-03-07,2023-03-07,株式会社杉山不動産,,株式会社,広島県,廿日市市,深江２丁目１２番１６号,,34,213,7390421,,,,,,,2023-03-07,1,,,,,スギヤマフドウサン,0
1407,5290001100798,新規,0,2023-03-07,2023-03-07,株式会社ＸＹＺテクノロジー,,株式会社,福岡県,福岡市中央区,渡辺通５丁目２３番３号,,40,133,8100004,,,,,,,2023-03-07,1,,,,,エックスワイジーテクノロジー,0
1408,5290001100815,新規,0,2023-03-07,2023-03-07,株式会社ニタカ通工,,株式会社,福岡県,久留米市,寺町１番地１１,,40,203,8300014,,,,,,,2023-03-07,1,,,,,ニタカツウコウ,0
1411,5290003013619,新規,0,2023-03-07,2023-03-07,合同会社Ｇｒｏｗｔｈ,,合同会社,福岡県,福岡市中央区,高砂１丁目１５－２４－３０２,,40,133,8100011,,,,,,,2023-03-07,1,,,,,グロウス,0
1412,5290003013627,新規,0,2023-03-07,2023-03-07,まことや合同会社,,合同会社,福岡県,糸島市,曽根７１８番地８,,40,230,8191561,,,,,,,2023-03-07,1,,,,,マコトヤ,0
1414,5310005008663,新規,0,2023-03-07,2023-03-07,一般社団法人対馬市シルバー人材センター,,その他の設立登記法人,長崎県,対馬市,豊玉町仁位９４番地１０,,42,209,8171201,,,,,,,2023-03-07,1,,,,,ツシマシシルバージンザイセンター,0
1420,5340003004067,新規,0,2023-03-07,2023-03-07,ルイーズコーポレーション合同会社,,合同会社,鹿児島県,鹿児島市,郡元２丁目５番６－２号,,46,201,8900065,,,,,,,2023-03-07,1,,,,,ルイーズコーポレーション,0
1423,5350005006143,新規,0,2023-03-07,2023-03-07,一般社団法人ＡＳ,,その他の設立登記法人,宮崎県,串間市,大字西方２８７７－１,,45,207,8880001,,,,,,,2023-03-07,1,,,,,エイエス,0
1426,5360001031648,新規,0,2023-03-07,2023-03-07,香陽電工株式会社,,株式会社,沖縄県,名護市,大東２丁目５番５－４０１号イースト１マンション,,47,209,9050016,,,,,,,2023-03-07,1,,,,,コウヨウデンコウ,0
1427,5370001049680,新規,0,2023-03-07,2023-03-07,リペイル株式会社,,株式会社,宮城県,仙台市青葉区,東勝山１丁目１０番５号,,04,101,9810923,,,,,,,2023-03-07,1,,,,,リペイル,0
1441,5400001016173,新規,0,2023-03-07,2023-03-07,株式会社ＣｏＣｏｈａｐｉ,,株式会社,岩手県,盛岡市,菜園１丁目３番６号農林会館３階３０４－２号室,,03,201,0200024,,,,,,,2023-03-07,1,,,,,,0
1449,5430001088516,新規,0,2023-03-07,2023-03-07,株式会社Ｄ’ａｍプランニング,,株式会社,北海道,石狩市,花川南二条４丁目２３７番地１,,01,235,0613202,,,,,,,2023-03-07,1,,,,,ディーエーエムプランニング,0
1450,5430001088524,新規,0,2023-03-07,2023-03-07,株式会社ＩＫＥＤＡ,,株式会社,北海道,札幌市豊平区,月寒東五条１６丁目６番２０号,,01,105,0620055,,,,,,,2023-03-07,1,,,,,イケダ,0
1451,5430001088540,新規,0,2023-03-07,2023-03-07,株式会社小松組,,株式会社,北海道,千歳市,勇舞６丁目６番６号,,01,224,0660078,,,,,,,2023-03-07,1,,,,,コマツグミ,0
1453,5430003014800,新規,0,2023-03-07,2023-03-07,ＤＩＲＥＣＴＩＯＮ合同会社,,合同会社,北海道,札幌市南区,川沿四条５丁目９－８,,01,106,0050804,,,,,,,2023-03-07,1,,,,,ディレクション,0
1461,5700150114631,新規,0,2023-03-07,2023-03-07,仏山市壹顕頤電子商務有限公司,,外国会社等,,,,,,,,中国広東省仏山市順徳区大良近良居委会鑒海南路美食城（後面）六福苑二層Ｂ２７号,,,,,,2023-03-07,1,,,,,ブツザンシイツケンイデンシシヨウムユウゲンコウシ,0
1469,6010001233542,新規,0,2023-03-07,2023-03-07,株式会社ｎｉｃａ,,株式会社,東京都,中央区,日本橋横山町８番５号日本橋８８ビル１Ｆ,,13,102,1030003,,,,,,,2023-03-07,1,,,,,ニカ,0
1470,6010003039921,新規,0,2023-03-07,2023-03-07,合同会社エナジーパーク,,合同会社,東京都,千代田区,平河町１丁目３番１３号平河町フロントビル７階株式会社シリウス・アドバイザリー内,,13,101,1020093,,,,,,,2023-03-07,1,,,,,エナジーパーク,0
1471,6010003039938,新規,0,2023-03-07,2023-03-07,ローズ合同会社,,合同会社,東京都,千代田区,丸の内３丁目１番１号,,13,101,1000005,,,,,,,2023-03-07,1,,,,,ローズ,0
1472,6010003039946,新規,0,2023-03-07,2023-03-07,ＦＡＶＩＳＨ合同会社,,合同会社,東京都,中央区,銀座１丁目２２番１１号銀座大竹ビジデンス２Ｆ,,13,102,1040061,,,,,,,2023-03-07,1,,,,,ファーヴィッシュ,0
1473,6010003039970,新規,0,2023-03-07,2023-03-07,合同会社Ｌｉｃｈｔ,,合同会社,東京都,中央区,銀座７丁目１３番２０号銀座ＴＨビル９階,,13,102,1040061,,,,,,,2023-03-07,1,,,,,リヒト,0
1474,6010003039987,新規,0,2023-03-07,2023-03-07,さくらもち合同会社,,合同会社,東京都,中央区,銀座１丁目２２番１１号銀座大竹ビジデンス２Ｆ,,13,102,1040061,,,,,,,2023-03-07,1,,,,,サクラモチ,0
1486,6010405021865,新規,0,2023-03-07,2023-03-07,一般社団法人在日カザフ人協会,,その他の設立登記法人,東京都,港区,港南４丁目６番４号,,13,103,1080075,,,,,,,2023-03-07,1,,,,,ザイニチカザフジンキョウカイ,0
1487,6010501050082,新規,0,2023-03-07,2023-03-07,株式会社ｄｅ’ｆｉ,,株式会社,東京都,台東区,浅草橋２丁目１６番９号,,13,106,1110053,,,,,,,2023-03-07,1,,,,,デフィー,0
1488,6010501050108,新規,0,2023-03-07,2023-03-07,株式会社入谷珈琲,,株式会社,東京都,台東区,入谷１丁目１９番６号八千代ビル１階,,13,106,1100013,,,,,,,2023-03-07,1,,,,,イリヤコーヒー,0
1492,6010601062713,新規,0,2023-03-07,2023-03-07,株式会社ブンドド,,株式会社,東京都,墨田区,業平１丁目７番５－６０２号,,13,107,1300002,,,,,,,2023-03-07,1,,,,,ブンドド,0
1493,6010603010042,新規,0,2023-03-07,2023-03-07,合同会社ＬＯＴＳ　ＯＦ　ＨＵＴＳ,,合同会社,東京都,墨田区,菊川２丁目９番８号,,13,107,1300024,,,,,,,2023-03-07,1,,,,,ロッツオブハッツ,0
1498,6010705003480,新規,0,2023-03-07,2023-03-07,医療法人社団絢晴会,,その他の設立登記法人,東京都,品川区,東大井５丁目１６番９号フィル・パーク大井町駅前４階,,13,109,1400011,,,,,,,2023-03-07,1,,,,,ケンセイカイ,0
1500,6010803004463,新規,0,2023-03-07,2023-03-07,合同会社ラージャー,,合同会社,東京都,大田区,蒲田５丁目２１－１３ペガサスステーションプラザ蒲田Ｂ２Ｆ,,13,111,1440052,,,,,,,2023-03-07,1,,,,,ラージャー,0
1506,6011001152906,新規,0,2023-03-07,2023-03-07,株式会社メタバース総研,,株式会社,東京都,渋谷区,道玄坂１丁目１０番８号渋谷道玄坂東急ビル２Ｆ－Ｃ,,13,113,1500043,,,,,,,2023-03-07,1,,,,,メタバースソウケン,0
1507,6011001152939,新規,0,2023-03-07,2023-03-07,株式会社フォワード,,株式会社,東京都,渋谷区,代々木１丁目２５番５号ＢＩＺＳＭＡＲＴ代々木４０１号室,,13,113,1510053,,,,,,,2023-03-07,1,,,,,フォワード,0
1508,6011001152955,新規,0,2023-03-07,2023-03-07,株式会社スマートセクション,,株式会社,東京都,渋谷区,上原２丁目３１番３－２０５号Ｆｉｋａ代々木上原,,13,113,1510064,,,,,,,2023-03-07,1,,,,,スマートセクション,0
1509,6011001152971,新規,0,2023-03-07,2023-03-07,リエールグループ株式会社,,株式会社,東京都,目黒区,目黒本町２丁目２８番１０－１０４号,,13,110,1520002,,,,,,,2023-03-07,1,,,,,リエールグループ,0
1516,6011101102059,新規,0,2023-03-07,2023-03-07,フュージョンテクノロジー株式会社,,株式会社,東京都,新宿区,新宿２丁目２－１０－６０５,,13,104,1600022,,,,,,,2023-03-07,1,,,,,フュージョンテクノロジー,0
1517,6011103012727,新規,0,2023-03-07,2023-03-07,合同会社キエイ,,合同会社,東京都,新宿区,市谷薬王寺町７１－５２オーパス市谷薬王寺２０１,,13,104,1620063,,,,,,,2023-03-07,1,,,,,キエイ,0
1519,6011301028509,新規,0,2023-03-07,2023-03-07,株式会社デンタルプロフィット,,株式会社,東京都,杉並区,成田西１丁目２９番７号,,13,115,1660016,,,,,,,2023-03-07,1,,,,,デンタルプロフィット,0
1520,6011303004689,新規,0,2023-03-07,2023-03-07,合同会社鹿鳴館,,合同会社,東京都,杉並区,高円寺南２丁目２３－２,,13,115,1660003,,,,,,,2023-03-07,1,,,,,ロクメイカン,0
1521,6011503005504,新規,0,2023-03-07,2023-03-07,ＦＬＹＦＩＳＨ合同会社,,合同会社,東京都,荒川区,東日暮里６丁目５８番３号,,13,118,1160014,,,,,,,2023-03-07,1,,,,,フライフィッシュ,0
1525,6012301013335,新規,0,2023-03-07,2023-03-07,株式会社ＢＬＥＮ,,株式会社,東京都,町田市,中町１丁目１７番１号,,13,209,1940021,,,,,,,2023-03-07,1,,,,,ブレン,0
1531,6012701017514,新規,0,2023-03-07,2023-03-07,株式会社ヤマショウ,,株式会社,東京都,東村山市,久米川町４丁目７番地１８,,13,213,1890003,,,,,,,2023-03-07,1,,,,,ヤマショウ,0
1542,6020001150571,新規,0,2023-03-07,2023-03-07,株式会社在宅療養支援之人,,株式会社,神奈川県,横浜市神奈川区,子安通２丁目２２７番地１－１００１号,,14,102,2210021,,,,,,,2023-03-07,1,,,,,ザイタクリョウヨウシエンノヒト,0
1548,6021001078357,新規,0,2023-03-07,2023-03-07,株式会社ＧＮ建築,,株式会社,神奈川県,相模原市中央区,星が丘１丁目１８番２号,,14,152,2520238,,,,,,,2023-03-07,1,,,,,ジーエヌケンチク,0
1553,6021003012834,新規,0,2023-03-07,2023-03-07,合同会社ＭＥＲＣＩ,,合同会社,神奈川県,相模原市中央区,陽光台４丁目１７番１０号,,14,152,2520226,,,,,,,2023-03-07,1,,,,,メルシー,0
1564,6030001152658,新規,0,2023-03-07,2023-03-07,ＴＲＩｗｏｒｋｓ株式会社,,株式会社,埼玉県,三郷市,上彦名５２２番地,,11,237,3410004,,,,,,,2023-03-07,1,,,,,トライワークス,0
1565,6030001152740,新規,0,2023-03-07,2023-03-07,優信商事株式会社,,株式会社,埼玉県,川口市,西川口１丁目３０番２０号創業館・西川口オフィス６階,,11,203,3320021,,,,,,,2023-03-07,1,,,,,ユウシンショウジ,0
1578,6040001127304,新規,0,2023-03-07,2023-03-07,Ｋ＆Ｃ商事株式会社,,株式会社,千葉県,浦安市,日の出３丁目３番Ｅ－１００７号シーガーデン新浦安,,12,227,2790013,,,,,,,2023-03-07,1,,,,,ケイアンドシーショウジ,0
1579,6040001127386,新規,0,2023-03-07,2023-03-07,テニビズ株式会社,,株式会社,千葉県,千葉市中央区,富士見１丁目１４－１３,,12,101,2600015,,,,,,,2023-03-07,1,,,,,テニビズ,0
1581,6040003022123,新規,0,2023-03-07,2023-03-07,合同会社ｏｎｅ１,,合同会社,千葉県,浦安市,堀江４丁目４番３２－５０２号,,12,227,2790041,,,,,,,2023-03-07,1,,,,,ワン,0
1586,6050001052484,新規,0,2023-03-07,2023-03-07,株式会社宮窪建設,,株式会社,茨城県,常総市,内守谷町きぬの里１丁目１０番地１０,,08,211,3030046,,,,,,,2023-03-07,1,,,,,ミヤクボケンセツ,0
1596,6090001018011,新規,0,2023-03-07,2023-03-07,富士学生支援株式会社,,株式会社,山梨県,南都留郡富士河口湖町,小立７１８７番地,,19,430,4010302,,,,,,,2023-03-07,1,,,,,フジガクセイシエン,0
1597,6090003002269,新規,0,2023-03-07,2023-03-07,合同会社ＩＫＩＧＡＩ,,合同会社,山梨県,南アルプス市,下今諏訪４５６番地１,,19,208,4000212,,,,,,,2023-03-07,1,,,,,イキガイ,0
1599,6100003006912,新規,0,2023-03-07,2023-03-07,合同会社ＧＯＫＵＲＡＫＵ,,合同会社,長野県,長野市,七二会己６５７番地１５,,20,201,3813163,,,,,,,2023-03-07,1,,,,,ゴクラク,0
1603,6110003004997,新規,0,2023-03-07,2023-03-07,合同会社レーヴ,,合同会社,新潟県,新潟市東区,幸栄２丁目２番３号,,15,102,9500022,,,,,,,2023-03-07,1,,,,,レーヴ,0
1609,6120001252894,新規,0,2023-03-07,2023-03-07,株式会社正和建装,,株式会社,大阪府,大阪市住吉区,遠里小野７丁目４番２４号エンブレムトキワ３０５,,27,120,5580032,,,,,,,2023-03-07,1,,,,,セイワケンソウ,0
1610,6120001252911,新規,0,2023-03-07,2023-03-07,株式会社華夢,,株式会社,大阪府,大阪市北区,天満１丁目４番１９－９０５号,,27,127,5300043,,,,,,,2023-03-07,1,,,,,ハナユメ,0
1611,6120001252936,新規,0,2023-03-07,2023-03-07,株式会社正富,,株式会社,大阪府,大阪市福島区,野田４丁目３番３０号,,27,103,5530005,,,,,,,2023-03-07,1,,,,,マサトミ,0
1612,6120001253001,新規,0,2023-03-07,2023-03-07,株式会社ハトハ,,株式会社,大阪府,大阪市中央区,上本町西５丁目２番２３号樋口ビル６０２号,00129668,27,128,5420062,,,,,,,2023-03-07,1,,,,,ハトハ,0
1616,6120003023526,新規,0,2023-03-07,2023-03-07,合同会社アイリー,,合同会社,大阪府,大阪市中央区,船越町２丁目３番８－６０５号,,27,128,5400036,,,,,,,2023-03-07,1,,,,,アイリー,0
1630,6130005016709,新規,0,2023-03-07,2023-03-07,一般社団法人ホホホ座浄土寺座,,その他の設立登記法人,京都府,京都市左京区,浄土寺馬場町２－７,,26,103,6068412,,,,,,,2023-03-07,1,,,,,ホホホザジョウドジザ,0
1635,6140001129307,新規,0,2023-03-07,2023-03-07,株式会社薫不動産,,株式会社,兵庫県,神戸市長田区,西山町１丁目１番１０号,,28,106,6530862,,,,,,,2023-03-07,1,,,,,カオルフドウサン,0
1636,6140001129315,新規,0,2023-03-07,2023-03-07,株式会社ＫＨテック,,株式会社,兵庫県,姫路市,福中町３６番地スミヨン福中町４階,,28,201,6700017,,,,,,,2023-03-07,1,,,,,ケイエイチテック,0
1637,6140001129331,新規,0,2023-03-07,2023-03-07,ヘルグーテ株式会社,,株式会社,兵庫県,神戸市中央区,磯上通４丁目３番１０－１４１０号,,28,110,6510086,,,,,,,2023-03-07,1,,,,,ヘルグーテ,0
1643,6160003002815,新規,0,2023-03-07,2023-03-07,ＯＮＥ　ＯＣＥＡＮ合同会社,,合同会社,滋賀県,大津市,錦織３丁目１２番５号,,25,201,5200027,,,,,,,2023-03-07,1,,,,,ワンオーシャン,0
1648,6170001017500,新規,0,2023-03-07,2023-03-07,株式会社ｉｎｎｖＳＡＩＴＯ,,株式会社,和歌山県,和歌山市,匠町２５ポポロビル５Ｆ,,30,201,6408028,,,,,,,2023-03-07,1,,,,,イノベサイトウ,0
1654,6180001155142,新規,0,2023-03-07,2023-03-07,株式会社ＧＣ．Ｕｎｉｏｎ,,株式会社,愛知県,名古屋市中区,錦１丁目４－２７ジェムストーン錦１０Ｆ,,23,106,4600003,,,,,,,2023-03-07,1,,,,,ジーシーユニオン,0
1655,6180001155167,新規,0,2023-03-07,2023-03-07,株式会社Ｇｒａｎｄ　Ｄｅｓｉｇｎ　Ｌａｂ,,株式会社,愛知県,春日井市,弥生町１丁目１２番地,,23,206,4860838,,,,,,,2023-03-07,1,,,,,グランドデザインラボ,0
1656,6180001155200,新規,0,2023-03-07,2023-03-07,株式会社マサナ,,株式会社,愛知県,日進市,五色園４丁目１０２番地,,23,230,4700105,,,,,,,2023-03-07,1,,,,,マサナ,0
1660,6180003024931,新規,0,2023-03-07,2023-03-07,リンクアイランド合同会社,,合同会社,愛知県,名古屋市中村区,名駅４丁目２４番５号第２森ビル４０１,,23,105,4500002,,,,,,,2023-03-07,1,,,,,リンクアイランド,0
1662,6180303005631,新規,0,2023-03-07,2023-03-07,合同会社ＫＡＮＡＳＨＩＲＯ　ＴＲＡＮＳＰＯＲＴ,,合同会社,愛知県,西尾市,一色町一色西荒子４７－１,,23,213,4440423,,,,,,,2023-03-07,1,,,,,カナシロトランスポート,0
1663,6190003004255,新規,0,2023-03-07,2023-03-07,合同会社明石,,合同会社,三重県,三重郡川越町,大字豊田２８５番地１,,24,344,5108122,,,,,,,2023-03-07,1,,,,,アカシ,0
1666,6190005011794,新規,0,2023-03-07,2023-03-07,農事組合法人天花寺営農組合,,その他の設立登記法人,三重県,松阪市,嬉野天花寺町４６８番地,,24,204,5152302,,,,,,,2023-03-07,1,,,,,テンゲエジエイノウクミアイ,0
1670,6200001041034,新規,0,2023-03-07,2023-03-07,ハローホーム東海株式会社,,株式会社,岐阜県,岐阜市,加納城南通１丁目７番地,,21,201,5008486,,,,,,,2023-03-07,1,,,,,ハローホームトウカイ,0
1672,6200003005887,新規,0,2023-03-07,2023-03-07,合同会社富士＆Ｅｖｅｒｅｓｔ,,合同会社,岐阜県,羽島市,舟橋町１６０番地１,,21,209,5016302,,,,,,,2023-03-07,1,,,,,フジアンドエベレスト,0
1673,6220001025299,新規,0,2023-03-07,2023-03-07,株式会社ＦｏｘＢｕｙホールディングス,,株式会社,石川県,小松市,長田町ト１１１‐３,,17,203,9230034,,,,,,,2023-03-07,1,,,,,フォックスバイホールディングス,0
1685,6240005015534,新規,0,2023-03-07,2023-03-07,医療法人千歳,,その他の設立登記法人,広島県,広島市中区,大手町２丁目７番２号５階,,34,101,7300051,,,,,,,2023-03-07,1,,,,,チトセ,0
1687,6260001037704,新規,0,2023-03-07,2023-03-07,株式会社おいもくん,,株式会社,岡山県,岡山市北区,下石井２丁目１０番３０号杜の街グレース岡山ザ・タワー３６０３号室,,33,101,7000907,,,,,,,2023-03-07,1,,,,,オイモクン,0
1693,6290001100707,新規,0,2023-03-07,2023-03-07,株式会社イング,,株式会社,福岡県,福岡市中央区,舞鶴１丁目６番２号ウエストヒルズ天神５０１号,,40,133,8100073,,,,,,,2023-03-07,1,,,,,イング,0
1694,6290001100797,新規,0,2023-03-07,2023-03-07,千鳥電装株式会社,,株式会社,福岡県,古賀市,千鳥２丁目２７番７号,,40,223,8113113,,,,,,,2023-03-07,1,,,,,チドリデンソウ,0
1695,6290001100814,新規,0,2023-03-07,2023-03-07,Ｋｕｍａｍｏｔｏ　Ｍｉｎｄ株式会社,,株式会社,福岡県,福岡市東区,香椎照葉４丁目４番２０号,,40,131,8130017,,,,,,,2023-03-07,1,,,,,クマモトマインド,0
1705,6320001019613,新規,0,2023-03-07,2023-03-07,株式会社日興ＯＳ情報,,株式会社,大分県,宇佐市,大字下敷田７８１番地,,44,211,8790161,,,,,,,2023-03-07,1,,,,,ニッコウオーエスジョウホウ,0
1715,6370001049671,新規,0,2023-03-07,2023-03-07,株式会社ＺＴＥＸ,,株式会社,宮城県,仙台市青葉区,中央４丁目１０番３号ＪＭＦビル仙台０１－２Ｆ,,04,101,9800021,,,,,,,2023-03-07,1,,,,,ジーテックス,0
1719,6400001016172,新規,0,2023-03-07,2023-03-07,株式会社Ｆｌｏｗ,,株式会社,岩手県,盛岡市,津志田一丁目１－２エスティオ１０１号室,,03,201,0200835,,,,,,,2023-03-07,1,,,,,フロー,0
1725,6430003014782,新規,0,2023-03-07,2023-03-07,合同会社ＹＭホースレーシング,,合同会社,北海道,様似郡様似町,字岡田１２５番地の１地先,,01,608,0580022,,,,,,,2023-03-07,1,,,,,ワイエムホースレーシング,0
1726,6430003014799,新規,0,2023-03-07,2023-03-07,合同会社しろくま工作室,,合同会社,北海道,札幌市中央区,大通西１丁目１４番地２桂和大通ビル５０・９Ｆ,,01,101,0600042,,,,,,,2023-03-07,1,,,,,シロクマコウサクシツ,0
1727,6440001009230,新規,0,2023-03-07,2023-03-07,株式会社ワンダーラスト,,株式会社,北海道,函館市,石川町３２４番地１８,,01,202,0410802,,,,,,,2023-03-07,1,,,,,ワンダーラスト,0
1728,6440003001516,新規,0,2023-03-07,2023-03-07,合同会社安島工業,,合同会社,北海道,函館市,東山町１８２番地２０８,,01,202,0410834,,,,,,,2023-03-07,1,,,,,アジマコウギョウ,0
1738,6700150113087,新規,0,2023-03-07,2022-11-30,ＥＪＡ　ＴＯＫＹＯ,,その他,東京都,港区,高輪２丁目１２－５６－１１５,,13,103,1080074,,,,,,,2022-11-30,1,,,,,イージエーエートウキヨウ,0
1739,6700150114630,新規,0,2023-03-07,2023-03-07,深セン市花澗里電子商務有限責任公司,,外国会社等,,,,,,,,中国深セン市南山区粤海街道麻雀レイ工業区Ｍ－１０棟２号厰房５楼,,,,,,2023-03-07,1,,,,,シンセンシカカンリデンシシヨウムユウゲンセキニンコウシ,0
1751,7010001233467,新規,0,2023-03-07,2023-03-07,株式会社ＭＥＤＩ‐ＳＯＵＲＩＲＥ,,株式会社,東京都,中央区,新富町一丁目５番１１号エスパシオ新富町１１階,,13,102,1030000,,,,,,,2023-03-07,1,,,,,メディスリール,0
1752,7010001233509,新規,0,2023-03-07,2023-03-07,株式会社日本フリーランス総研,,株式会社,東京都,中央区,銀座１丁目１２－４Ｎ＆Ｅ－ＢＬＤ．７階,,13,102,1040061,,,,,,,2023-03-07,1,,,,,ニホンフリーランスソウケン,0
1753,7010001233533,新規,0,2023-03-07,2023-03-07,株式会社ＳＩＣＴ,,株式会社,東京都,中央区,勝どき４丁目８番９号,,13,102,1040054,,,,,,,2023-03-07,1,,,,,エスアイシーティー,0
1755,7010003039920,新規,0,2023-03-07,2023-03-07,合同会社ＰＶエコ,,合同会社,東京都,千代田区,平河町１丁目３番１３号平河町フロントビル７階株式会社シリウス・アドバイザリー内,,13,101,1020093,,,,,,,2023-03-07,1,,,,,ピーブイエコ,0
1768,7010401172868,新規,0,2023-03-07,2023-03-07,株式会社モケ,,株式会社,東京都,港区,麻布十番４丁目６番８号,,13,103,1060045,,,,,,,2023-03-07,1,,,,,モケ,0
1770,7010403029661,新規,0,2023-03-07,2023-03-07,合同会社ＮａＦ,,合同会社,東京都,港区,虎ノ門３丁目２２番１０－２０１号,,13,103,1050001,,,,,,,2023-03-07,1,,,,,ナフ,0
1779,7010601062712,新規,0,2023-03-07,2023-03-07,株式会社ＥＫＯＩ,,株式会社,東京都,江東区,東雲１丁目９番３２－４１１２号,,13,108,1350062,,,,,,,2023-03-07,1,,,,,イコイ,0
1786,7010901052652,新規,0,2023-03-07,2023-03-07,株式会社クレディオ,,株式会社,東京都,世田谷区,代田６丁目６番２１号,,13,112,1550033,,,,,,,2023-03-07,1,,,,,クレディオ,0
1787,7010905004443,新規,0,2023-03-07,2023-03-07,医療法人社団ＳＴＡＲ　ＡＴＬＡＳ,,その他の設立登記法人,東京都,世田谷区,砧６丁目３３番５号１階,,13,112,1570073,,,,,,,2023-03-07,1,,,,,スターアトラス,0
1796,7011001152938,新規,0,2023-03-07,2023-03-07,株式会社ＲＫコンサルティング,,株式会社,東京都,渋谷区,渋谷２丁目１９番１５号,,13,113,1500002,,,,,,,2023-03-07,1,,,,,アールケーコンサルティング,0
1797,7011001152962,新規,0,2023-03-07,2023-03-07,株式会社Ｃａｂａｎ　Ｈｏｔｅｌ,,株式会社,東京都,渋谷区,恵比寿西１丁目３２番１８号,,13,113,1500021,,,,,,,2023-03-07,1,,,,,キャバンホテル,0
1798,7011001152987,新規,0,2023-03-07,2023-03-07,株式会社ＨＡＭＩＤＥＲＵ,,株式会社,東京都,目黒区,中目黒３丁目６番１号千陽アポロンビル５Ｆ,,13,110,1530061,,,,,,,2023-03-07,1,,,,,ハミデル,0
1803,7011003016389,新規,0,2023-03-07,2023-03-07,ビズメトリクス合同会社,,合同会社,東京都,渋谷区,道玄坂１丁目１０番８号渋谷道玄坂東急ビル２Ｆ－Ｃ,,13,113,1500043,,,,,,,2023-03-07,1,,,,,ビズメトリクス,0
1806,7011101102058,新規,0,2023-03-07,2023-03-07,株式会社インスウィング,,株式会社,東京都,新宿区,西新宿２丁目４－１新宿ＮＳビル１４階ＭＥＧＡオフィス,,13,104,1600023,,,,,,,2023-03-07,1,,,,,インスウィング,0
1807,7011101102066,新規,0,2023-03-07,2023-03-07,株式会社ヴィラ西早稲田,,株式会社,東京都,新宿区,西早稲田２丁目１０番１３号,,13,104,1690051,,,,,,,2023-03-07,1,,,,,ヴィラニシワセダ,0
1809,7011105010579,新規,0,2023-03-07,2023-03-07,一般社団法人日本越境ＥＣ協会,,その他の設立登記法人,東京都,新宿区,西新宿１丁目２６番地２号新宿野村ビル３２階,,13,104,1600023,,,,,,,2023-03-07,1,,,,,ニホンエッキョウイーシーキョウカイ,0
1810,7011203004020,新規,0,2023-03-07,2023-03-07,合同会社ＳＫＫ,,合同会社,東京都,中野区,中野６丁目２番１９号ＫＡｎｓ,,13,114,1640001,,,,,,,2023-03-07,1,,,,,エスケーケー,0
1812,7011301028516,新規,0,2023-03-07,2023-03-07,株式会社ＡＯＹＡＧＩ,,株式会社,東京都,杉並区,天沼３丁目１１番５号,,13,115,1670032,,,,,,,2023-03-07,1,,,,,アオヤギ,0
1813,7011303004688,新規,0,2023-03-07,2023-03-07,合同会社ＴＲＩＣＫＳＴＥＲ,,合同会社,東京都,杉並区,桃井２丁目１６番１１号,,13,115,1670034,,,,,,,2023-03-07,1,,,,,トリックスター,0
1820,7011801042017,新規,0,2023-03-07,2023-03-07,株式会社みらい,,株式会社,東京都,葛飾区,亀有２丁目７２番４号,,13,122,1250061,,,,,,,2023-03-07,1,,,,,,0
1821,7011801042033,新規,0,2023-03-07,2023-03-07,株式会社ＭＡＤＤＵＸ,,株式会社,東京都,足立区,西新井３丁目１６フレール西新井中央公園５号棟４０３,,13,121,1230841,,,,,,,2023-03-07,1,,,,,マダックス,0
1824,7012401040253,新規,0,2023-03-07,2023-03-07,株式会社ＭＩＷＡＣＬＥ,,株式会社,東京都,府中市,北山町２丁目４１番地の１６,,13,206,1830041,,,,,,,2023-03-07,1,,,,,ミワクル,0
1825,7012403005873,新規,0,2023-03-07,2023-03-07,合同会社ＧＲＯＷ　ＵＰ,,合同会社,東京都,武蔵野市,西久保３丁目６－２０３号クレール武蔵野,,13,203,1800013,,,,,,,2023-03-07,1,,,,,グローアップ,0
1826,7012405004840,新規,0,2023-03-07,2023-03-07,医療法人社団晃明会,,その他の設立登記法人,東京都,調布市,国領町４丁目５１番地７ピエールシークル１階,,13,208,1820022,,,,,,,2023-03-07,1,,,,,コウメイカイ,0
1827,7012701017513,新規,0,2023-03-07,2023-03-07,優電株式会社,,株式会社,東京都,小平市,学園西町３丁目１８番５－３号,,13,211,1870045,,,,,,,2023-03-07,1,,,,,ユウデン,0
1832,7013301050417,新規,0,2023-03-07,2023-03-07,株式会社ｒｅｐＬａｂ,,株式会社,東京都,豊島区,南池袋２丁目４５番２－２３０２号,,13,116,1710022,,,,,,,2023-03-07,1,,,,,レプラボ,0
1841,7020001150513,新規,0,2023-03-07,2023-03-07,株式会社彩光,,株式会社,神奈川県,横浜市中区,末吉町１丁目２１番地ヒューセット飯田７０１号室,,14,104,2310055,,,,,,,2023-03-07,1,,,,,サイコウ,0
1842,7020001150570,新規,0,2023-03-07,2023-03-07,株式会社ＦＫホーム,,株式会社,神奈川県,川崎市川崎区,日ノ出１丁目５番７号,,14,131,2100824,,,,,,,2023-03-07,1,,,,,エフケーホーム,0
1843,7020001150587,新規,0,2023-03-07,2023-03-07,株式会社Ａｖａｌｏｎ,,株式会社,神奈川県,横浜市西区,北幸２丁目１０番地２８むつみビル３Ｆ,,14,103,2200004,,,,,,,2023-03-07,1,,,,,アヴァロン,0
1845,7020005015860,新規,0,2023-03-07,2023-03-07,税理士法人アクレスト,,その他の設立登記法人,神奈川県,横浜市神奈川区,鶴屋町２丁目２６番地２,,14,102,2210835,,,,,,,2023-03-07,1,,,,,アクレスト,0
1847,7021001078331,新規,0,2023-03-07,2023-03-07,株式会社エム＆アイセブン,,株式会社,神奈川県,相模原市中央区,東淵野辺４丁目１１番３０号,,14,152,2520203,,,,,,,2023-03-07,1,,,,,エムアンドアイセブン,0
1848,7021001078348,新規,0,2023-03-07,2023-03-07,株式会社ＫＪプランニング,,株式会社,神奈川県,小田原市,栄町１丁目１７番１９号,,14,206,2500011,,,,,,,2023-03-07,1,,,,,ケイジェイプランニング,0
1849,7021001078356,新規,0,2023-03-07,2023-03-07,株式会社ツールブレイン,,株式会社,神奈川県,相模原市中央区,相模原４丁目８番１０－４０３号,,14,152,2520231,,,,,,,2023-03-07,1,,,,,ツールブレイン,0
1850,7021001078364,新規,0,2023-03-07,2023-03-07,株式会社ファースト,,株式会社,神奈川県,相模原市緑区,相原２丁目２２番１４号,,14,151,2520141,,,,,,,2023-03-07,1,,,,,ファースト,0
1864,7040001127303,新規,0,2023-03-07,2023-03-07,株式会社柿の木不動産,,株式会社,千葉県,船橋市,三山４丁目２５番４号,,12,204,2740072,,,,,,,2023-03-07,1,,,,,カキノキフドウサン,0
1865,7040001127344,新規,0,2023-03-07,2023-03-07,株式会社Ｓｈｉｎｙｕ,,株式会社,千葉県,山武郡九十九里町,作田２０３５番地３,,12,403,2830101,,,,,,,2023-03-07,1,,,,,シンユウ,0
1866,7040001127360,新規,0,2023-03-07,2023-03-07,ＩＢＲＡＨＩＭ株式会社,,株式会社,千葉県,佐倉市,表町１丁目６－３グリーンハイツ１０４,,12,212,2850811,,,,,,,2023-03-07,1,,,,,イブラヒム,0
1867,7040001127410,新規,0,2023-03-07,2023-03-07,トライホーム株式会社,,株式会社,千葉県,松戸市,三矢小台５丁目３番地の２７,,12,207,2710087,,,,,,,2023-03-07,1,,,,,トライホーム,0
1871,7040003022089,新規,0,2023-03-07,2023-03-07,トマト合同会社,,合同会社,千葉県,我孫子市,柴崎台５丁目５番７号,,12,222,2701176,,,,,,,2023-03-07,1,,,,,トマト,0
1872,7040003022122,新規,0,2023-03-07,2023-03-07,合同会社ＫＡＮＯＮ,,合同会社,千葉県,市川市,宝２丁目９番１２号,,12,203,2720122,,,,,,,2023-03-07,1,,,,,カノン,0
1878,7050001052500,新規,0,2023-03-07,2023-03-07,ＡＧ　ＴＲＡＤＩＮＧ株式会社,,株式会社,茨城県,猿島郡境町,大字長井戸１０１５番地５,,08,546,3060404,,,,,,,2023-03-07,1,,,,,エージートレーディング,0
1881,7060003004432,新規,0,2023-03-07,2023-03-07,合同会社ＡＩエンジニアリング,,合同会社,栃木県,宇都宮市,鶴田町２７６０－１０ＶＩＴＡＦＥＲＯ２０１,,09,201,3200851,,,,,,,2023-03-07,1,,,,,エーアイエンジニアリング,0
1882,7070001040189,新規,0,2023-03-07,2023-03-07,シナリーＦｒａｎ株式会社,,株式会社,群馬県,高崎市,上中居町５００番地１,,10,202,3700851,,,,,,,2023-03-07,1,,,,,シナリーフラン,0
1886,7080003002938,新規,0,2023-03-07,2023-03-07,合同会社Ｐｏｔｅｎｔｉａｌ,,合同会社,静岡県,静岡市駿河区,国吉田６丁目１０番１１－２,,22,102,4228004,,,,,,,2023-03-07,1,,,,,ポテンシャル,0
1892,7080401026357,新規,0,2023-03-07,2023-03-07,株式会社テイクマ,,株式会社,静岡県,浜松市南区,三島町１６７３番地の３,,22,134,4300853,,,,,,,2023-03-07,1,,,,,テイクマ,0
1895,7100003006911,新規,0,2023-03-07,2023-03-07,合同会社長野トータルコーポレイツ,,合同会社,長野県,長野市,吉田２丁目２９番１６号,,20,201,3810043,,,,,,,2023-03-07,1,,,,,ナガノトータルコーポレイツ,0
1904,7120001252927,新規,0,2023-03-07,2023-03-07,株式会社ＪＭＣ大阪,,株式会社,大阪府,大阪市阿倍野区,昭和町５丁目５番３０号,,27,119,5450011,,,,,,,2023-03-07,1,,,,,ジェイエムシーオオサカ,0
1905,7120001253000,新規,0,2023-03-07,2023-03-07,株式会社Ｒｅｎｅｗａｌ,,株式会社,大阪府,大阪市中央区,高麗橋２丁目３番１５号ＲＥ北浜ビルディング５Ｆ,,27,128,5410043,,,,,,,2023-03-07,1,,,,,リニューアル,0
1908,7120003023558,新規,0,2023-03-07,2023-03-07,Ｒｉｋｉｔ合同会社,,合同会社,大阪府,大阪市福島区,鷺洲３丁目１番１７－２４０３号,,27,103,5530002,,,,,,,2023-03-07,1,,,,,リキット,0
1909,7120101067102,新規,0,2023-03-07,2023-03-07,株式会社グローリー,,株式会社,大阪府,松原市,天美東７丁目４番１５号,,27,217,5800032,,,,,,,2023-03-07,1,,,,,グローリー,0
1925,7140001129314,新規,0,2023-03-07,2023-03-07,トルクマン株式会社,,株式会社,兵庫県,神戸市垂水区,高丸７丁目２－６リアルティ高丸ビル３０２号,,28,108,6550016,,,,,,,2023-03-07,1,,,,,トルクマン,0
1926,7140001129330,新規,0,2023-03-07,2023-03-07,株式会社ファーム吉川,00129661,株式会社,兵庫県,多可郡多可町,加美区的場５１０番地５,,28,365,6791214,,,,,,,2023-03-07,1,,,,,ファームヨシカワ,0
1927,7140001129339,新規,0,2023-03-07,2023-03-07,株式会社河装,,株式会社,兵庫県,西宮市,里中町１丁目６番１８号,,28,204,6638183,,,,,,,2023-03-07,1,,,,,カワソウ,0
1935,7140003018779,新規,0,2023-03-07,2023-03-07,合同会社坂本商会,,合同会社,兵庫県,神戸市北区,若葉台３丁目１３番１４号,,28,109,6511143,,,,,,,2023-03-07,1,,,,,サカモトショウカイ,0
1938,7150001026205,新規,0,2023-03-07,2023-03-07,株式会社ＢＥＲＧ,,株式会社,奈良県,磯城郡三宅町,大字石見４７０番地の１１石見店舗１－２号室,,29,362,6360212,,,,,,,2023-03-07,1,,,,,ベルク,0
1939,7150003002897,新規,0,2023-03-07,2023-03-07,ＹＦＢ合同会社,,合同会社,奈良県,奈良市,学園北２丁目１番５－８０２号,,29,201,6310036,,,,,,,2023-03-07,1,,,,,ワイエフビー,0
1940,7160001024876,新規,0,2023-03-07,2023-03-07,プログレブ株式会社,,株式会社,滋賀県,大津市,雄琴２丁目７番１０－１号,,25,201,5200101,,,,,,,2023-03-07,1,,,,,プログレブ,0
1941,7160001024884,新規,0,2023-03-07,2023-03-07,株式会社ぱるぱる,,株式会社,滋賀県,東近江市,祇園町３７０,,25,213,5270101,,,,,,,2023-03-07,1,,,,,パルパル,0
1943,7160005011169,新規,0,2023-03-07,2023-03-07,医療法人誠幸舎,,その他の設立登記法人,滋賀県,大津市,瀬田１丁目３２番１６号,,25,201,5202134,,,,,,,2023-03-07,1,,,,,セイコウシャ,0
1952,7180001155199,新規,0,2023-03-07,2023-03-07,株式会社マサキ,,株式会社,愛知県,日進市,五色園４丁目１０２番地,,23,230,4700105,,,,,,,2023-03-07,1,,,,,マサキ,0
1953,7180001155208,新規,0,2023-03-07,2023-03-07,株式会社ヒサオ・オオツカ,,株式会社,愛知県,名古屋市中村区,名駅３丁目４番１０号アルティメイト名駅１ｓｔ２階,,23,105,4500002,,,,,,,2023-03-07,1,,,,,ヒサオオオツカ,0
1954,7180001155216,新規,0,2023-03-07,2023-03-07,株式会社パレエ,,株式会社,愛知県,名古屋市西区,比良４丁目１６８番地,,23,104,4520802,,,,,,,2023-03-07,1,,,,,パレエ,0
1955,7180001155240,新規,0,2023-03-07,2023-03-07,株式会社ウィズライフ,,株式会社,愛知県,海部郡大治町,大字西條字須先２４番地,,23,424,4901144,,,,,,,2023-03-07,1,,,,,ウィズライフ,0
1959,7180003024906,新規,0,2023-03-07,2023-03-07,合同会社Ｄａｗｉｎ,,合同会社,愛知県,名古屋市東区,泉１丁目２３番３４号山田ビル３Ｆ,,23,102,4610001,,,,,,,2023-03-07,1,,,,,ダーウィン,0
1960,7180003024922,新規,0,2023-03-07,2023-03-07,ｍｅｄｅｒｕ合同会社,,合同会社,愛知県,名古屋市東区,新出来２丁目１番８号（ソレイユ徳川７０１号）,,23,102,4610038,,,,,,,2023-03-07,1,,,,,メデル,0
1961,7180003024930,新規,0,2023-03-07,2023-03-07,合同会社ミズノエステート,,合同会社,愛知県,長久手市,作田２丁目７１０番地,,23,238,4801153,,,,,,,2023-03-07,1,,,,,ミズノエステート,0
1962,7180005020127,新規,0,2023-03-07,2023-03-07,協同組合ハウスワランティ,,その他の設立登記法人,愛知県,名古屋市西区,牛島町６－１名古屋ルーセントタワー４０階,,23,104,4510046,,,,,,,2023-03-07,1,,,,,ハウスワランティ,0
1968,7190005011793,新規,0,2023-03-07,2023-03-07,ＣｏｍＮｅｔ協同組合,,その他の設立登記法人,三重県,三重郡川越町,大字高松字天神３４番地１,,24,344,5108121,,,,,,,2023-03-07,1,,,,,コムネット,0
1972,7200001041025,新規,0,2023-03-07,2023-03-07,株式会社チェックハウスグループＨＤ,,株式会社,岐阜県,揖斐郡大野町,大字黒野２０６４番地１,,21,403,5010521,,,,,,,2023-03-07,1,,,,,チェックハウスグループ,0
1985,7240001061184,新規,0,2023-03-07,2023-03-07,株式会社Ｂｅｌｉｅｖｅ　Ｌｉｆｅ　Ｃｏｒｐｏｒａｔｉｏｎ,,株式会社,広島県,広島市中区,橋本町９番７号ビル博丈８Ｆ,,34,101,7300015,,,,,,,2023-03-07,1,,,,,ビリーブライフコーポレーション,0
1993,7260001037686,新規,0,2023-03-07,2023-03-07,株式会社山本工業,,株式会社,岡山県,井原市,高屋町１丁目１７番地３,,33,207,7150024,,,,,,,2023-03-07,1,,,,,ヤマモトコウギョウ,0
1994,7260003004222,新規,0,2023-03-07,2023-03-07,蓮寧合同会社,,合同会社,岡山県,赤磐市,桜が丘東６丁目６番地１２０,,33,213,7090721,,,,,,,2023-03-07,1,,,,,レンネ,0
1995,7280003001705,新規,0,2023-03-07,2023-03-07,合同会社和み,,合同会社,島根県,隠岐郡海士町,大字福井９６８番地７,,32,525,6840404,,,,,,,2023-03-07,1,,,,,ナゴミ,0
2000,7290001100796,新規,0,2023-03-07,2023-03-07,株式会社爽健の森,,株式会社,福岡県,福岡市中央区,大名１丁目９番５０号東邦オフィス福岡天神,,40,133,8100041,,,,,,,2023-03-07,1,,,,,ソウケンノモリ,0
2001,7290001100805,新規,0,2023-03-07,2023-03-07,株式会社Ｌｉｌｅ,,株式会社,福岡県,福岡市中央区,大名２丁目８－１８天神パークビル８Ｆ,,40,133,8100041,,,,,,,2023-03-07,1,,,,,リル,0
2005,7310001018301,新規,0,2023-03-07,2023-03-07,株式会社ＭＯＭＯ,,株式会社,長崎県,長崎市,上浦町２１番９号,,42,201,8511131,,,,,,,2023-03-07,1,,,,,モモ,0
2012,7350003004312,新規,0,2023-03-07,2023-03-07,合同会社ＲＥ　ＳＴＡＲＴ,,合同会社,宮崎県,宮崎市,大字恒久９７３番地７,,45,201,8800916,,,,,,,2023-03-07,1,,,,,リスタート,0
2013,7360001031654,新規,0,2023-03-07,2023-03-07,株式会社Ａｎｓｗｅｒ,,株式会社,沖縄県,宮古島市,平良字西里２７番地,,47,214,9060012,,,,,,,2023-03-07,1,,,,,アンサー,0
2015,7370001049662,新規,0,2023-03-07,2023-03-07,株式会社京進建設,,株式会社,宮城県,黒川郡大郷町,東成田字板谷西山１１－１,,04,422,9813522,,,,,,,2023-03-07,1,,,,,キョウシンケンセツ,0
2016,7370001049679,新規,0,2023-03-07,2023-03-07,秋夏株式会社,,株式会社,宮城県,仙台市若林区,卸町東５丁目１番２３号,,04,103,9840002,,,,,,,2023-03-07,1,,,,,シュウカ,0
2021,7400003003036,新規,0,2023-03-07,2023-03-07,矢巾ファーム合同会社,,合同会社,岩手県,紫波郡矢巾町,大字土橋第１地割１１番２,,03,322,0283606,,,,,,,2023-03-07,1,,,,,ヤハバファーム,0
2032,7430001088539,新規,0,2023-03-07,2023-03-07,株式会社マイカントリー,,株式会社,北海道,白老郡白老町,字萩野７７番地１６,,01,578,0590922,,,,,,,2023-03-07,1,,,,,マイカントリー,0
2033,7430001088547,新規,0,2023-03-07,2023-03-07,株式会社コウセイ工業,,株式会社,北海道,札幌市手稲区,西宮の沢四条３丁目１番２４－２０１号,,01,109,0060004,,,,,,,2023-03-07,1,,,,,コウセイコウギョウ,0
2034,7430001088588,新規,0,2023-03-07,2023-03-07,ブレイス株式会社,,株式会社,北海道,小樽市,色内１丁目９番１号松田ビル２階,,01,203,0470031,,,,,,,2023-03-07,1,,,,,ブレイス,0
2050,7700150106494,新規,0,2023-03-07,2022-01-05,糸魚川ジオパーク協議会,,その他,新潟県,糸魚川市,一の宮１丁目２－５,,15,216,9410056,,,,,,,2022-01-05,1,,,,,イトイガワジオパークキヨウギカイ,0
2073,8010001233400,新規,0,2023-03-07,2023-03-07,株式会社Ｆｒｏｍ　Ｎｏｗ　Ｏｎ,,株式会社,東京都,中央区,日本橋２丁目２番３号ＲＩＳＨＥビルＵＣＦ４０２,,13,102,1030027,,,,,,,2023-03-07,1,,,,,フロムナウオン,0
2074,8010001233425,新規,0,2023-03-07,2023-03-07,株式会社ＯＶＥＲＢＯＯＯＳＴ,,株式会社,東京都,中央区,晴海２丁目３番２,,13,102,1040053,,,,,,,2023-03-07,1,,,,,,0
2075,8010001233466,新規,0,2023-03-07,2023-03-07,株式会社Ｃｏ‐Ｓｕｃｃｅｓｓ,,株式会社,東京都,中央区,銀座１丁目１２番４号Ｎ＆ＥＢＬＤ．６Ｆ,,13,102,1040061,,,,,,,2023-03-07,1,,,,,コーサクセス,0
2076,8010001233532,新規,0,2023-03-07,2023-03-07,Ｋファイナンシャル株式会社,,株式会社,東京都,中央区,勝どき６丁目３番２－５７０２号,,13,102,1040054,,,,,,,2023-03-07,1,,,,,ケイファイナンシャル,0
2078,8010003039985,新規,0,2023-03-07,2023-03-07,エスティファンドフォー合同会社,,合同会社,東京都,千代田区,丸の内３丁目１番１号東京共同会計事務所内,,13,101,1000005,,,,,,,2023-03-07,1,,,,,エスティファンドフォー,0
2081,8010401172875,新規,0,2023-03-07,2023-03-07,株式会社ＵＰＣＹＣＬＥ,,株式会社,東京都,港区,芝４丁目７番６号芝ビルディング７０４,,13,103,1080014,,,,,,,2023-03-07,1,,,,,アップサイクル,0
2082,8010401172900,新規,0,2023-03-07,2023-03-07,Ｂａｒｋｅｒ　Ｗｅｌｌｎｅｓｓ　Ｊａｐａｎ株式会社,,株式会社,東京都,港区,南麻布５丁目１６番１３－３０２号,,13,103,1060047,,,,,,,2023-03-07,1,,,,,バーカーウェルネスジャパン,0
2085,8010405021896,新規,0,2023-03-07,2023-03-07,一般社団法人Ｍｅｄｉｖａｔｅ,,その他の設立登記法人,東京都,港区,西新橋１丁目２－９日比谷セントラルビル１４階,,13,103,1050003,,,,,,,2023-03-07,1,,,,,メディベイト,0
2087,8010601062711,新規,0,2023-03-07,2023-03-07,ＭＳ　ＬＹＮＸ株式会社,,株式会社,東京都,墨田区,東駒形４丁目５番１１号,,13,107,1300005,,,,,,,2023-03-07,1,,,,,エムエスリンクス,0
2092,8010701043933,新規,0,2023-03-07,2023-03-07,株式会社パルコンサル,,株式会社,東京都,品川区,西五反田８丁目７番７－２０１号,,13,109,1410031,,,,,,,2023-03-07,1,,,,,パルコンサル,0
2093,8010703006616,新規,0,2023-03-07,2023-03-07,合同会社ＴＳＮ,,合同会社,東京都,品川区,上大崎１丁目１番１７号プライムメゾン白金台タワー２１０３,,13,109,1410021,,,,,,,2023-03-07,1,,,,,ティーエスエヌ,0
2100,8010901052651,新規,0,2023-03-07,2023-03-07,Ｂｉｇ　Ｃｌｏｖｅｒ株式会社,,株式会社,東京都,世田谷区,太子堂４丁目７番３号アルス三軒茶屋３０２,,13,112,1540004,,,,,,,2023-03-07,1,,,,,ビッグクローバー,0
2102,8010905004442,新規,0,2023-03-07,2023-03-07,医療法人社団理奏会,,その他の設立登記法人,東京都,世田谷区,経堂１丁目２４番１５号スタンザ経堂１階１Ｆ号室,,13,112,1560052,,,,,,,2023-03-07,1,,,,,リソウカイ,0
2108,8011001152920,新規,0,2023-03-07,2023-03-07,株式会社ＥｐｏＣｈ,,株式会社,東京都,渋谷区,神宮前６丁目２３番４号,,13,113,1500001,,,,,,,2023-03-07,1,,,,,エポック,0
2117,8011101102065,新規,0,2023-03-07,2023-03-07,株式会社ＳＵＩＴＥＤ,,株式会社,東京都,新宿区,新宿７丁目９－２２,,13,104,1600022,,,,,,,2023-03-07,1,,,,,スーティッド,0
2118,8011103012774,新規,0,2023-03-07,2023-03-07,チェルシージャパン合同会社,,合同会社,東京都,新宿区,河田町６番１７号,,13,104,1620054,,,,,,,2023-03-07,1,,,,,チェルシージャパン,0
2121,8011201024473,新規,0,2023-03-07,2023-03-07,株式会社ファンドクラウド,,株式会社,東京都,中野区,中野２丁目２６番１号,,13,114,1640001,,,,,,,2023-03-07,1,,,,,ファンドクラウド,0
2124,8011301028507,新規,0,2023-03-07,2023-03-07,株式会社ＫＯＧＡＮＥＺＡＷＡ,,株式会社,東京都,杉並区,西荻南４丁目１３番１８号ソルナクレイシア西荻窪ＩＩ１０５,00129654,13,115,1670053,,,,,,,2023-03-07,1,,,,,コガネザワ,0
2125,8011301028515,新規,0,2023-03-07,2023-03-07,株式会社ひのや不動産,,株式会社,東京都,杉並区,高円寺南２丁目４９番９号,,13,115,1660003,,,,,,,2023-03-07,1,,,,,ヒノヤフドウサン,0
2127,8011501029024,新規,0,2023-03-07,2023-03-07,株式会社ＭＳ,,株式会社,東京都,荒川区,荒川３丁目１５番８号,,13,118,1160002,,,,,,,2023-03-07,1,,,,,エムエス,0
2130,8011701026060,新規,0,2023-03-07,2023-03-07,株式会社オフィス越塚,,株式会社,東京都,江戸川区,南小岩５丁目１６番２５号,,13,123,1330056,,,,,,,2023-03-07,1,,,,,オフィスコシヅカ,0
2133,8012403005872,新規,0,2023-03-07,2023-03-07,合同会社Ｉｎｎｏｃｅｎｃｅ,,合同会社,東京都,小金井市,貫井南町５丁目１２番２８号,,13,210,1840014,,,,,,,2023-03-07,1,,,,,イノセンス,0
2135,8013303006523,新規,0,2023-03-07,2023-03-07,合同会社樹,,合同会社,東京都,豊島区,池袋２丁目１３－４天翔池袋西口ビル２１０,,13,116,1710014,,,,,,,2023-03-07,1,,,,,イツキ,0
2143,8020001150586,新規,0,2023-03-07,2023-03-07,株式会社サルベージ・クリエイティブ・トウキョウ,,株式会社,神奈川県,横浜市南区,睦町１丁目１８番地の１０,,14,105,2320041,,,,,,,2023-03-07,1,,,,,サルベージクリエイティブトウキョウ,0
2146,8020003023451,新規,0,2023-03-07,2023-03-07,ＢＡＮＳＥＩ　ＩＮＳＩＤＥ合同会社,,合同会社,神奈川県,横浜市鶴見区,東寺尾中台１７番１３号,,14,101,2300017,,,,,,,2023-03-07,1,,,,,バンセイインサイド,0
2149,8021001078347,新規,0,2023-03-07,2023-03-07,株式会社七音,,株式会社,神奈川県,小田原市,本町２丁目１番３号ＨＳビル２階,,14,206,2500012,,,,,,,2023-03-07,1,,,,,ナナオ,0
2152,8021003012840,新規,0,2023-03-07,2023-03-07,合同会社ＮＢＯ,,合同会社,神奈川県,座間市,四ツ谷６３６,,14,216,2520025,,,,,,,2023-03-07,1,,,,,エヌビーオー,0
2154,8021005012748,新規,0,2023-03-07,2023-03-07,一般社団法人関東鍼灸接骨師会,,その他の設立登記法人,神奈川県,相模原市緑区,橋本３丁目１３番１号パークスクウェア１０１号室,,14,151,2520143,,,,,,,2023-03-07,1,,,,,カントウシンキュウセッコツシカイ,0
2158,8030001152714,新規,0,2023-03-07,2023-03-07,株式会社Ｍａｋｅ,,株式会社,埼玉県,加須市,旗井２丁目２９番地７,,11,210,3491132,,,,,,,2023-03-07,1,,,,,メイク,0
2159,8030001152739,新規,0,2023-03-07,2023-03-07,株式会社ＬＩｂｅｒｔｙ,,株式会社,埼玉県,川越市,大字的場２８３９番地４９（オネトーム白金２０１号室）,,11,201,3501101,,,,,,,2023-03-07,1,,,,,リバティー,0
2164,8030003021264,新規,0,2023-03-07,2023-03-07,合同会社雅建業,,合同会社,埼玉県,さいたま市緑区,東浦和５丁目１５番３号ツインレイク２０２,,11,109,3360926,,,,,,,2023-03-07,1,,,,,ミヤビケンギョウ,0
2165,8030003021314,新規,0,2023-03-07,2023-03-07,佐藤知雄合同会社,,合同会社,埼玉県,志木市,本町５丁目１４番２２号ビレッタ志木１Ｆ,,11,228,3530004,,,,,,,2023-03-07,1,,,,,サトウトモオ,0
2170,8040001127319,新規,0,2023-03-07,2023-03-07,株式会社ＦＨＢ,,株式会社,千葉県,市川市,妙典６丁目３番２１－９０１号（ガーデナヴィル市川妙典）,,12,203,2720111,,,,,,,2023-03-07,1,,,,,エフエイチビー,0
2171,8040001127401,新規,0,2023-03-07,2023-03-07,株式会社Ｙ’ｓクルー,,株式会社,千葉県,千葉市中央区,富士見２丁目７番９号富士見ビル６０９,,12,101,2600015,,,,,,,2023-03-07,1,,,,,ワイズクルー,0
2175,8040003022088,新規,0,2023-03-07,2023-03-07,合同会社ｔｒｉ,,合同会社,千葉県,印西市,戸神台２丁目１－４－６３５,,12,231,2701349,,,,,,,2023-03-07,1,,,,,トリ,0
2176,8040003022096,新規,0,2023-03-07,2023-03-07,ＴＳＫ合同会社,,合同会社,千葉県,千葉市緑区,椎名崎町１１８番地６カルム夕映２０３号,,12,105,2660016,,,,,,,2023-03-07,1,,,,,ティーエスケー,0
2177,8040003022121,新規,0,2023-03-07,2023-03-07,ＭＡＬＩＫ　ＩＮＴＥＲＮＡＴＩＯＮＡＬ合同会社,,合同会社,千葉県,山武市,木原９３８番地８７,,12,237,2891212,,,,,,,2023-03-07,1,,,,,マリックインターナショナル,0
2179,8050001052466,新規,0,2023-03-07,2023-03-07,養田商事株式会社,,株式会社,茨城県,筑西市,乙１３３番地の８,,08,227,3080041,,,,,,,2023-03-07,1,,,,,ヨウダショウジ,0
2180,8050001052482,新規,0,2023-03-07,2023-03-07,株式会社古波田建設,,株式会社,茨城県,坂東市,辺田１１４６番地６１,,08,228,3060632,,,,,,,2023-03-07,1,,,,,フルハタケンセツ,0
2181,8050001052499,新規,0,2023-03-07,2023-03-07,ＩＮＦＩＮＩＴＹ株式会社,,株式会社,茨城県,牛久市,神谷２丁目４番地２３,,08,219,3001216,,,,,,,2023-03-07,1,,,,,インフィニティ,0
2185,8060003004456,新規,0,2023-03-07,2023-03-07,合同会社想造,,合同会社,栃木県,栃木市,西方町金井８６７－３,,09,203,3220602,,,,,,,2023-03-07,1,,,,,ソウゾウ,0
2193,8080001025493,新規,0,2023-03-07,2023-03-07,株式会社黒川工業,,株式会社,静岡県,静岡市葵区,有永町１８番１４号,,22,101,4200969,,,,,,,2023-03-07,1,,,,,クロカワコウギョウ,0
2200,8100001036208,新規,0,2023-03-07,2023-03-07,伊那谷ファーミング株式会社,,株式会社,長野県,下伊那郡高森町,出原３００,,20,403,3993107,,,,,,,2023-03-07,1,,,,,イナダニファーミング,0
2204,8100003006910,新規,0,2023-03-07,2023-03-07,合同会社Ｊａｐａｎ　Ｅｘｐｌｏｒｅｒ,,合同会社,長野県,北安曇郡白馬村,大字北城３０２０番地１１０８,,20,485,3999301,,,,,,,2023-03-07,1,,,,,ジャパンエクスプローラー,0
2216,8120001252810,新規,0,2023-03-07,2023-03-07,株式会社ムビメイ,,株式会社,大阪府,大阪市浪速区,敷津西２丁目１番１２号ＹＫビルディング４階４Ａ号室,,27,111,5560015,,,,,,,2023-03-07,1,,,,,ムビメイ,0
2217,8120001252892,新規,0,2023-03-07,2023-03-07,悦兒株式会社,,株式会社,大阪府,大阪市西淀川区,野里１丁目１１番３号ホーユウコンフォルト塚本４０３号室,,27,113,5550024,,,,,,,2023-03-07,1,,,,,エツコ,0
2218,8120001252926,新規,0,2023-03-07,2023-03-07,株式会社ＢｉＢｉ,,株式会社,大阪府,大阪市北区,中津５丁目５番１８号,,27,127,5310071,,,,,,,2023-03-07,1,,,,,ビビ,0
2219,8120001252959,新規,0,2023-03-07,2023-03-07,株式会社ＦＯＰＥ　ＨＯＭＥ,,株式会社,大阪府,枚方市,東香里元町２８－２０－１,,27,210,5730076,,,,,,,2023-03-07,1,,,,,フォープホーム,0
2220,8120001253008,新規,0,2023-03-07,2023-03-07,株式会社服薬コンシェルジュ,,株式会社,大阪府,大阪市中央区,内久宝寺町２丁目２番２２－２１０６号,,27,128,5400013,,,,,,,2023-03-07,1,,,,,フクヤクコンシェルジュ,0
2221,8120001253024,新規,0,2023-03-07,2023-03-07,株式会社くらわんか電気設備,,株式会社,大阪府,枚方市,長尾西町１丁目２４番１８号,,27,210,5730162,,,,,,,2023-03-07,1,,,,,クラワンカデンキセツビ,0
2226,8120003023557,新規,0,2023-03-07,2023-03-07,太陽サービス合同会社,,合同会社,大阪府,大阪市東住吉区,杭全３丁目４番１２号,,27,121,5460002,,,,,,,2023-03-07,1,,,,,タイヨーサービス,0
2229,8120101067101,新規,0,2023-03-07,2023-03-07,岸本Ｆｉｅｌｄエンジニアリング株式会社,,株式会社,大阪府,河内長野市,松ケ丘西町１５４０番地の１６,,27,216,5860005,,,,,,,2023-03-07,1,,,,,キシモトフィールドエンジニアリング,0
2232,8120901047194,新規,0,2023-03-07,2023-03-07,株式会社Ｍｕｎａｋａｔａ　Ｍｅｄｉｃａｌ　Ａｓｓｏｃｉａｔｉｏｎ,,株式会社,大阪府,池田市,城南３丁目６番１４号,,27,204,5630025,,,,,,,2023-03-07,1,,,,,ムナカタメディカルアソシエーション,0
2233,8122001036755,新規,0,2023-03-07,2023-03-07,株式会社ビューティーフレンドリー,,株式会社,大阪府,八尾市,南木の本２丁目２１番地の３３,,27,212,5810042,,,,,,,2023-03-07,1,,,,,ビューティーフレンドリー,0
2234,8122003002532,新規,0,2023-03-07,2023-03-07,合同会社ＯＮＥ,,合同会社,大阪府,八尾市,太田３丁目１４７番地の８,,27,212,5810037,,,,,,,2023-03-07,1,,,,,ワン,0
2237,8130003008565,新規,0,2023-03-07,2023-03-07,合同会社ＳＳ　Ｂｒａｎｄ,,合同会社,京都府,京都市伏見区,深草西伊達町８７－９２,,26,109,6120876,,,,,,,2023-03-07,1,,,,,エスエスブランド,0
2246,8140001129296,新規,0,2023-03-07,2023-03-07,株式会社４ａ．ｍ．,,株式会社,兵庫県,宝塚市,湯本町３番１１号メルヘン宝塚２０１,,28,214,6650003,,,,,,,2023-03-07,1,,,,,フォーエーエム,0
2247,8140001129305,新規,0,2023-03-07,2023-03-07,株式会社進通コーポレーション,,株式会社,兵庫県,神戸市東灘区,住吉宮町６丁目１番２２号,,28,101,6580053,,,,,,,2023-03-07,1,,,,,シンツウコーポレーション,0
2248,8140001129321,新規,0,2023-03-07,2023-03-07,株式会社小舟,,株式会社,兵庫県,神戸市東灘区,向洋町中１丁目１７番地２９階,,28,101,6580032,,,,,,,2023-03-07,1,,,,,コブネ,0
2249,8140001129346,新規,0,2023-03-07,2023-03-07,株式会社ＮｏｎＤｕａｌ,,株式会社,兵庫県,尼崎市,開明町２丁目７番地マーベラスＫ９０２,,28,202,6600862,,,,,,,2023-03-07,1,,,,,ノンデュアル,0
2253,8150001026212,新規,0,2023-03-07,2023-03-07,株式会社エフドットコーポレーション,,株式会社,奈良県,奈良市,百楽園２丁目８－１１,,29,201,6310024,,,,,,,2023-03-07,1,,,,,エフドットコーポレーション,0
2254,8150005009460,新規,0,2023-03-07,2023-03-07,社会福祉法人栄真会,,その他の設立登記法人,奈良県,大和高田市,大字藤森２４４番１,,29,202,6350004,,,,,,,2023-03-07,1,,,,,エイシンカイ,0
2258,8170005007000,新規,0,2023-03-07,2023-03-07,一般社団法人和歌山新城下町ＤＭＣ,,その他の設立登記法人,和歌山県,和歌山市,中之島２２８７,,30,201,6408392,,,,,,,2023-03-07,1,,,,,ワカヤマシンジョウカマチディエムシー,0
2270,8180001155181,新規,0,2023-03-07,2023-03-07,株式会社ＭＴ美装,,株式会社,愛知県,津島市,青塚町１丁目６８番地,00129660,23,208,4960001,,,,,,,2023-03-07,1,,,,,エムティービソウ,0
2271,8180001155248,新規,0,2023-03-07,2023-03-07,株式会社Ｋ‐ＳＴＹＬＥ,,株式会社,愛知県,名古屋市守山区,天子田３丁目９０２番地,,23,113,4630037,,,,,,,2023-03-07,1,,,,,ケースタイル,0
2276,8180005020118,新規,0,2023-03-07,2023-03-07,一般社団法人民遊文化研究所,,その他の設立登記法人,愛知県,名古屋市中区,丸の内２丁目１５番２９号,,23,106,4600002,,,,,,,2023-03-07,1,,,,,ミンユウブンカケンキュウジョ,0
2283,8190001030193,新規,0,2023-03-07,2023-03-07,株式会社本郷園,,株式会社,三重県,鈴鹿市,山本町１３６１番地の２,,24,207,5190315,,,,,,,2023-03-07,1,,,,,ホンゴウエン,0
2285,8190003004253,新規,0,2023-03-07,2023-03-07,Ｎｅｘｔ　ｉｎｎｏｖａｔｉｏｎ合同会社,,合同会社,三重県,津市,一身田町４４５番地１,,24,201,5140114,,,,,,,2023-03-07,1,,,,,ネクストイノベーション,0
2288,8200001041016,新規,0,2023-03-07,2023-03-07,ｓｈｏｏｏｔ株式会社,,株式会社,岐阜県,岐阜市,宇佐南４丁目２番１４‐４０３号,,21,201,5008367,,,,,,,2023-03-07,1,,,,,シュート,0
2297,8240005015532,新規,0,2023-03-07,2023-03-07,税理士法人ＫＭ会計,,その他の設立登記法人,広島県,福山市,三吉町５丁目５番９号,,34,207,7200031,,,,,,,2023-03-07,1,,,,,ケイエムカイケイ,0
2299,8270001008735,新規,0,2023-03-07,2023-03-07,株式会社元屋創発,,株式会社,鳥取県,東伯郡北栄町,弓原６０３番地,,31,372,6892104,,,,,,,2023-03-07,1,,,,,モトヤソウハツ,0
2303,8290001100762,新規,0,2023-03-07,2023-03-07,株式会社バランス,,株式会社,福岡県,福岡市南区,大橋２丁目１番１号,,40,134,8150033,,,,,,,2023-03-07,1,,,,,バランス,0
2304,8290001100795,新規,0,2023-03-07,2023-03-07,株式会社ＨＫＤ,,株式会社,福岡県,福岡市博多区,住吉５丁目２５番１５号,,40,132,8120018,,,,,,,2023-03-07,1,,,,,エイチケーディー,0
2305,8290001100804,新規,0,2023-03-07,2023-03-07,株式会社Ｇ　ＮＥＸＴ　ＭＯＲＥ,,株式会社,福岡県,福岡市東区,馬出６丁目１１番１号,,40,131,8120054,,,,,,,2023-03-07,1,,,,,ジーネクストモア,0
2306,8290001100812,新規,0,2023-03-07,2023-03-07,Ｓａｉ株式会社,,株式会社,福岡県,福岡市博多区,博多駅前２丁目１９番１７号トーカン博多第５ビル３１２号室,,40,132,8120011,,,,,,,2023-03-07,1,,,,,サイ,0
2314,8310001018300,新規,0,2023-03-07,2023-03-07,株式会社サンシステム,,株式会社,長崎県,長崎市,本原町２８番１０号モリセビル２０２,,42,201,8528133,,,,,,,2023-03-07,1,,,,,サンシステム,0
2330,8360003012767,新規,0,2023-03-07,2023-03-07,合同会社やんちゃ,,合同会社,沖縄県,うるま市,字栄野比９７２番地７,,47,213,9042205,,,,,,,2023-03-07,1,,,,,ヤンチャ,0
2340,8430001088538,新規,0,2023-03-07,2023-03-07,ヤマイチテクノ株式会社,,株式会社,北海道,札幌市東区,本町一条４丁目４番１８号,,01,103,0650041,,,,,,,2023-03-07,1,,,,,ヤマイチテクノ,0
2341,8430001088579,新規,0,2023-03-07,2023-03-07,Ｔｉｚ　ｓｐａｃｅ株式会社,,株式会社,北海道,札幌市中央区,南七条西１２丁目１番１０－２０５号,,01,101,0640807,,,,,,,2023-03-07,1,,,,,ティズスペース,0
2342,8430001088595,新規,0,2023-03-07,2023-03-07,ＹＥＳ株式会社,,株式会社,北海道,札幌市東区,本町一条２丁目６番７号,,01,103,0650041,,,,,,,2023-03-07,1,,,,,イエス,0
2346,8440001009229,新規,0,2023-03-07,2023-03-07,東陽ホールディングス株式会社,,株式会社,北海道,二海郡八雲町,栄町１３番地２,,01,346,0493117,,,,,,,2023-03-07,1,,,,,トウヨウホールディングス,0
2348,8450003002305,新規,0,2023-03-07,2023-03-07,合同会社Ｋ‐Ａｍｉ,,合同会社,北海道,富良野市,桂木町３番３号,,01,229,0760038,,,,,,,2023-03-07,1,,,,,ケーアミ,0
2349,8460101007345,新規,0,2023-03-07,2023-03-07,ＥＺＯ・Ｃｒｅａｔｉｖｅ株式会社,,株式会社,北海道,帯広市,西四条南３０丁目１番地７シティハイツ３０　１０１号,,01,207,0800014,,,,,,,2023-03-07,1,,,,,エゾクリエイティブ,0
2353,8480003001948,新規,0,2023-03-07,2023-03-07,合同会社志,,合同会社,徳島県,阿南市,領家町走寄９８番地８,,36,204,7740011,,,,,,,2023-03-07,1,,,,,ココロ,0
2358,8700150110487,新規,0,2023-03-07,2022-06-27,ワイルドファイア,,その他,東京都,千代田区,西神田３丁目３－１２西神田ＹＳビルＢ１,,13,101,1010065,,,,,,,2022-06-27,1,,,,,ワイルドフアイア,0
2359,8700150114629,新規,0,2023-03-07,2023-03-07,Ｃａｍｅｌｌｉａ　ＴＭＫ　Ｈｏｌｄｉｎｇ　Ｐｔｅ．　Ｌｔｄ．,,外国会社等,東京都,港区,虎ノ門５丁目１番４号,,13,103,1050001,シンガポール共和国０４８６１６、ラッフルズ・プレイス１、ワン・ラッフルズ・プレイス＃２０－０１,,,,,,2023-03-07,1,,,,,カメリアテイーエムケーホールデイングプライベートリミテツド,0
2360,8700150114637,新規,0,2023-03-07,2023-03-07,ＫＥＴＡＫＵＭＢＵＲ　ＴＥＡ　ＰＲＯＣＥＳＳＩＮＧ　ＣＥＮＴＥＲ　ＰＲＩＶＡＴＥ　ＬＩＭＩＴＥＤ,,外国会社等,千葉県,長生郡長生村,水口１２４１－１６Ｂ,,12,423,2994335,スリランカ民主社会主義共和国、キャンディ、リーマガハコツワ、ブーウェリカダ、Ｎｏ．１６２／Ａ,,,,,,2023-03-07,1,,,,,ケタクンブラテイープロセツシングプライベートリミテツド,0
2375,9010001233399,新規,0,2023-03-07,2023-03-07,株式会社ＲＥフォワード,,株式会社,東京都,千代田区,神田三崎町２丁目１７－８,,13,101,1010061,,,,,,,2023-03-07,1,,,,,アールイーフォワード,0
2376,9010001233408,新規,0,2023-03-07,2023-03-07,ＰｌｕｓＤｉｖｉｄｅ株式会社,,株式会社,東京都,中央区,銀座１丁目１２番４号Ｎ＆Ｅ・ＢＬＤ．６Ｆ,,13,102,1040061,,,,,,,2023-03-07,1,,,,,プラスディバイド,0
2377,9010001233449,新規,0,2023-03-07,2023-03-07,ＮＴＴグリーン＆フード株式会社,,株式会社,東京都,千代田区,大手町１丁目５番１号,,13,101,1000004,,,,,,,2023-03-07,1,,,,,エヌティティグリーンアンドフード,0
2379,9010003039976,新規,0,2023-03-07,2023-03-07,レオ合同会社,,合同会社,東京都,中央区,銀座１丁目６番１１号土志田ビルディング３Ｆ,,13,102,1040061,,,,,,,2023-03-07,1,,,,,レオ,0
2385,9010401172841,新規,0,2023-03-07,2023-03-07,株式会社ｓＩｇＮａＬ,,株式会社,東京都,港区,三田１丁目３番４０号天翔オフィス麻布十番３０１,,13,103,1080073,,,,,,,2023-03-07,1,,,,,シグナル,0
2386,9010401172899,新規,0,2023-03-07,2023-03-07,ＳＯＩＫＡ　ＧＲＯＵＰ株式会社,,株式会社,東京都,港区,六本木６丁目１５番１３号,,13,103,1060032,,,,,,,2023-03-07,1,,,,,ソイカグループ,0
2392,9010701043899,新規,0,2023-03-07,2023-03-07,株式会社マーキュリー商事,,株式会社,東京都,品川区,中延５丁目１４－２６－３０３,,13,109,1420053,,,,,,,2023-03-07,1,,,,,マーキュリーショウジ,0
2394,9010803004460,新規,0,2023-03-07,2023-03-07,さ山合同会社,,合同会社,東京都,大田区,田園調布本町４０番１４－３０１号,,13,111,1450072,,,,,,,2023-03-07,1,,,,,サヤマ,0
2399,9010901052642,新規,0,2023-03-07,2023-03-07,株式会社旨味フーズ,,株式会社,東京都,世田谷区,瀬田３丁目２番８号,,13,112,1580095,,,,,,,2023-03-07,1,,,,,ウマミフーズ,0
2404,9011001152928,新規,0,2023-03-07,2023-03-07,株式会社ｗｅｌｌｅｑｕｉｐ,,株式会社,東京都,渋谷区,千駄ヶ谷３丁目１６番１７号４０１,,13,113,1510051,,,,,,,2023-03-07,1,,,,,ウェルエキップ,0
2405,9011001152952,新規,0,2023-03-07,2023-03-07,株式会社ＴＲＡＤ＆Ｃｏ,,株式会社,東京都,渋谷区,恵比寿２丁目２０番３号,,13,113,1500013,,,,,,,2023-03-07,1,,,,,トラッドアンドコー,0
2406,9011001152977,新規,0,2023-03-07,2023-03-07,株式会社グリーンズタイヤ興産,,株式会社,東京都,渋谷区,恵比寿４丁目２０番３号恵比寿ガーデンプレイスタワー１８階,,13,113,1500013,,,,,,,2023-03-07,1,,,,,グリーンズタイヤコウサン,0
2407,9011001153018,新規,0,2023-03-07,2023-03-07,株式会社３１７,,株式会社,東京都,目黒区,鷹番２丁目９番３－２０３号,,13,110,1520004,,,,,,,2023-03-07,1,,,,,スリーワンセブン,0
2412,9011003016395,新規,0,2023-03-07,2023-03-07,合同会社ＤｉｒｅｃｔＰａｒｔｎｅｒｓ,,合同会社,東京都,渋谷区,恵比寿１丁目２３番１７－１００４号,,13,113,1500013,,,,,,,2023-03-07,1,,,,,ダイレクトパートナーズ,0
2413,9011003016404,新規,0,2023-03-07,2023-03-07,合同会社アップルチャレンジ,,合同会社,東京都,渋谷区,恵比寿３丁目４５番２号コンシェリア恵比寿７０２,,13,113,1500013,,,,,,,2023-03-07,1,,,,,アップルチャレンジ,0
2415,9011005009967,新規,0,2023-03-07,2023-03-07,医療法人社団巨樹の会,,その他の設立登記法人,東京都,渋谷区,神宮前６丁目２６番１号,,13,113,1500001,,,,,,,2023-03-07,1,,,,,キョジュノカイ,0
2420,9011101102064,新規,0,2023-03-07,2023-03-07,株式会社ＡＣＡ,,株式会社,東京都,新宿区,四谷４丁目３４番地２ＹＳビル２階,,13,104,1600004,,,,,,,2023-03-07,1,,,,,,0
2421,9011103012765,新規,0,2023-03-07,2023-03-07,合同会社エーピークリエイト,,合同会社,東京都,新宿区,西新宿３丁目３番１３号西新宿水間ビル６階,,13,104,1600023,,,,,,,2023-03-07,1,,,,,エーピークリエイト,0
2422,9011103012773,新規,0,2023-03-07,2023-03-07,Ｅｖｅｒｇｒｅｅｎ　Ｔｈｒｅｅ合同会社,,合同会社,東京都,新宿区,四谷４丁目３２番８号ＹＫＢサニービル６階,,13,104,1600004,,,,,,,2023-03-07,1,,,,,エヴァーグリーンスリー,0
2423,9011301028514,新規,0,2023-03-07,2023-03-07,株式会社Ａｍｕｌｅｔ　Ｐｅａｒｌ,,株式会社,東京都,杉並区,高円寺南４丁目１６番６号,,13,115,1660003,,,,,,,2023-03-07,1,,,,,アミュレットパール,0
2437,9012403005871,新規,0,2023-03-07,2023-03-07,Ｊａｐａｎ　Ｆａｓｈｉｏｎ　Ｍａｒｔ合同会社,,合同会社,東京都,三鷹市,下連雀３丁目１１番１１号下連雀ハイツ２０２,,13,204,1810013,,,,,,,2023-03-07,1,,,,,ジャパンファッションマート,0
2438,9012405004839,新規,0,2023-03-07,2023-03-07,医療法人社団ＣｏＴＥＲＲＡＣＥ,,その他の設立登記法人,東京都,小金井市,本町６丁目２番３０号ＳＯＣＯＬＡ武蔵小金井クロス２階,,13,210,1840004,,,,,,,2023-03-07,1,,,,,コテラス,0
2443,9013301050415,新規,0,2023-03-07,2023-03-07,株式会社Ｍａｒｋｅｔ,,株式会社,東京都,豊島区,南池袋２丁目４９番７号池袋パークビル４階,,13,116,1710022,,,,,,,2023-03-07,1,,,,,マーケット,0
2451,9020001150486,新規,0,2023-03-07,2023-03-07,株式会社トラスリーブ,,株式会社,神奈川県,横浜市旭区,中希望が丘１０５番地１８太陽ビル３Ｆ,,14,112,2410825,,,,,,,2023-03-07,1,,,,,トラスリーブ,0
2459,9020003023459,新規,0,2023-03-07,2023-03-07,合同会社ｓｉｇｍｏｉｄ,,合同会社,神奈川県,横浜市西区,浅間町１丁目４番３号ウィザードビル４０２,,14,103,2200072,,,,,,,2023-03-07,1,,,,,シグモイド,0
2460,9020003023467,新規,0,2023-03-07,2023-03-07,合同会社Ｓｐｒｉｎｇ,,合同会社,神奈川県,横浜市西区,北幸２丁目１０番地２８むつみビル３Ｆ,,14,103,2200004,,,,,,,2023-03-07,1,,,,,スプリング,0
2461,9020005015859,新規,0,2023-03-07,2023-03-07,一般社団法人ＨＩＲＡＫＵ　ＣＩＴＹ横浜十日市場,,その他の設立登記法人,神奈川県,横浜市緑区,十日市場町１４８１番地２０,,14,113,2260025,,,,,,,2023-03-07,1,,,,,ヒラクシティヨコハマトオカイチバ,0
2468,9021005012747,新規,0,2023-03-07,2023-03-07,よこすか行政書士法人,,その他の設立登記法人,神奈川県,横須賀市,小川町２５番地３税理士合同ビル２階,,14,201,2380004,,,,,,,2023-03-07,1,,,,,ヨコスカ,0
2472,9030001152622,新規,0,2023-03-07,2023-03-07,株式会社ライブライン,,株式会社,埼玉県,北葛飾郡松伏町,大字松伏２００７番地７号セントラルコーポ３号棟３０２号室,,11,465,3430111,,,,,,,2023-03-07,1,,,,,ライブライン,0
2473,9030001152762,新規,0,2023-03-07,2023-03-07,株式会社ＴＡＭＡＧＡＳＨＩ,,株式会社,埼玉県,入間郡毛呂山町,中央３丁目３０番地１２,,11,326,3500461,,,,,,,2023-03-07,1,,,,,タマガシ,0
2485,9040001127391,新規,0,2023-03-07,2023-03-07,株式会社ＣＡＲＢＵＹＵＰ,,株式会社,千葉県,佐倉市,中志津７丁目３７７－７３,,12,212,2850843,,,,,,,2023-03-07,1,,,,,カーバイアップ,0
2490,9040003022087,新規,0,2023-03-07,2023-03-07,合同会社ワンネス,,合同会社,千葉県,松戸市,西馬橋蔵元町１１番地ラフィーヌ馬橋４０２号室,,12,207,2710046,,,,,,,2023-03-07,1,,,,,ワンネス,0
2491,9040003022095,新規,0,2023-03-07,2023-03-07,合同会社ぷらっとほーむ,,合同会社,千葉県,千葉市中央区,中央２丁目５－１千葉中央ツインビル２号館７階ＣＨＩＢＡ－ＬＡＢＯ内,,12,101,2600013,,,,,,,2023-03-07,1,,,,,プラットホーム,0
2492,9040003022104,新規,0,2023-03-07,2023-03-07,アミナトレーディング合同会社,,合同会社,千葉県,松戸市,六高台５丁目５５番地の１アンビシャス松戸六高台５１０号,,12,207,2702203,,,,,,,2023-03-07,1,,,,,アミナトレーディング,0
2495,9060001035741,新規,0,2023-03-07,2023-03-07,株式会社ＧＯＯＤＮＥＷＳ　ＰＡＲＴＮＥＲＳ,,株式会社,栃木県,那須郡那須町,大字高久乙２９０５番地２５,,09,407,3250303,,,,,,,2023-03-07,1,,,,,グッドニュースパートナーズ,0
2501,9080005007520,新規,0,2023-03-07,2023-03-07,特定非営利活動法人ＢＡＳＳ　ｐｌｕｓ,,その他の設立登記法人,静岡県,静岡市駿河区,大谷３８００－１９３,,22,102,4228017,,,,,,,2023-03-07,1,,,,,ベースプラス,0
2502,9080101023842,新規,0,2023-03-07,2023-03-07,昊心設備株式会社,,株式会社,静岡県,富士宮市,万野原新田３０５０番地の５,,22,207,4180001,,,,,,,2023-03-07,1,,,,,コウシンセツビ,0
2507,9100001036207,新規,0,2023-03-07,2023-03-07,あい株式会社,,株式会社,長野県,安曇野市,穂高柏原２８７２番地６９,,20,220,3998304,,,,,,,2023-03-07,1,,,,,アイ,0
2508,9110001037352,新規,0,2023-03-07,2023-03-07,株式会社ディライト,,株式会社,新潟県,新潟市中央区,女池西１丁目１５番１３号,,15,103,9500946,,,,,,,2023-03-07,1,,,,,ディライト,0
2521,9120001252842,新規,0,2023-03-07,2023-03-07,株式会社塗色,,株式会社,大阪府,大阪市此花区,梅香３丁目１５番１２号,,27,104,5540013,,,,,,,2023-03-07,1,,,,,トイロ,0
2522,9120001252875,新規,0,2023-03-07,2023-03-07,株式会社ＫＥＮＴＯ,,株式会社,大阪府,大阪市東成区,大今里４丁目２５番１８号,,27,115,5370012,,,,,,,2023-03-07,1,,,,,ケント,0
2523,9120001252941,新規,0,2023-03-07,2023-03-07,ファミリー・ウェルネス株式会社,,株式会社,大阪府,大阪市西淀川区,大和田３丁目１番２１－１０３号,,27,113,5550032,,,,,,,2023-03-07,1,,,,,ファミリーウェルネス,0
2524,9120001252999,新規,0,2023-03-07,2023-03-07,株式会社クリエイティブプラス,,株式会社,大阪府,大阪市中央区,高麗橋２丁目３番１５号ＲＥ北浜ビルディング６Ｆ,,27,128,5410043,,,,,,,2023-03-07,1,,,,,クリエイティブプラス,0
2525,9120001253007,新規,0,2023-03-07,2023-03-07,株式会社フリーワールド,,株式会社,大阪府,大阪市北区,曾根崎１丁目３番６－１９０１号,,27,127,5300057,,,,,,,2023-03-07,1,,,,,フリーワールド,0
2526,9120001253015,新規,0,2023-03-07,2023-03-07,アマツ商事株式会社,,株式会社,大阪府,大阪市旭区,高殿２丁目３－２０－２０５号,,27,117,5350031,,,,,,,2023-03-07,1,,,,,アマツショウジ,0
2530,9120103005108,新規,0,2023-03-07,2023-03-07,合同会社美らナース,,合同会社,大阪府,羽曳野市,はびきの４丁目２０番地３２号,,27,222,5830872,,,,,,,2023-03-07,1,,,,,チュラナース,0
2531,9120901047227,新規,0,2023-03-07,2023-03-07,光明抗加齢研究会株式会社,,株式会社,大阪府,箕面市,船場西３丁目８番１１－２０１号,,27,220,5620036,,,,,,,2023-03-07,1,,,,,コウミョウコウカレイケンキュウカイ,0
2532,9120901047235,新規,0,2023-03-07,2023-03-07,温海工業株式会社,,株式会社,大阪府,茨木市,新郡山２丁目２３番４０４号,,27,211,5670074,,,,,,,2023-03-07,1,,,,,アツミコウギョウ,0
2534,9122003002531,新規,0,2023-03-07,2023-03-07,合同会社Ｅａｃｈ・Ｃｏｌｏｒ・Ｈｏｕｓｅ,,合同会社,大阪府,大東市,大野１丁目１番５号,,27,218,5740042,,,,,,,2023-03-07,1,,,,,イーチカラーハウス,0
2537,9130001073800,新規,0,2023-03-07,2023-03-07,株式会社Ｓ　Ｉ　Ａｕｔｏ　Ｔｒａｄｉｎｇ,,株式会社,京都府,八幡市,橋本堂ケ原３３番地の９,,26,210,6148344,,,,,,,2023-03-07,1,,,,,エスアイオートトレーディング,0
2538,9130001073809,新規,0,2023-03-07,2023-03-07,株式会社ＨＯＵＴＯＳ,,株式会社,京都府,宇治市,五ケ庄芝ノ東１９番地の１,,26,204,6110011,,,,,,,2023-03-07,1,,,,,ハウトス,0
2539,9130001073825,新規,0,2023-03-07,2023-03-07,株式会社アイ・フルーツ,,株式会社,京都府,京都市山科区,御陵原西町７０番地４１,,26,110,6078424,,,,,,,2023-03-07,1,,,,,アイフルーツ,0
2541,9140001129295,新規,0,2023-03-07,2023-03-07,株式会社石井油脂,,株式会社,兵庫県,姫路市,花田町高木３６番地２,,28,201,6710256,,,,,,,2023-03-07,1,,,,,イシイユシ,0
2542,9140001129312,新規,0,2023-03-07,2023-03-07,株式会社かもめ,,株式会社,兵庫県,明石市,朝霧南町２丁目２３２橋本ビル１Ｆ,,28,203,6730870,,,,,,,2023-03-07,1,,,,,カモメ,0
2543,9140001129320,新規,0,2023-03-07,2023-03-07,株式会社ぼんじー,,株式会社,兵庫県,神戸市灘区,神前町３丁目２番３号,,28,102,6570052,,,,,,,2023-03-07,1,,,,,ボンジー,0
2544,9140001129329,新規,0,2023-03-07,2023-03-07,ＫＯＢＥ　ＢＫ株式会社,,株式会社,兵庫県,神戸市西区,伊川谷町有瀬１５２４番地,,28,111,6512113,,,,,,,2023-03-07,1,,,,,コウベビーケー,0
2549,9140003018752,新規,0,2023-03-07,2023-03-07,合同会社Ｂｅ,,合同会社,兵庫県,神戸市兵庫区,中道通１丁目２－１１－１Ｆ,,28,105,6520801,,,,,,,2023-03-07,1,,,,,ベー,0
2550,9150001026211,新規,0,2023-03-07,2023-03-07,松成株式会社,,株式会社,奈良県,生駒市,真弓２丁目６番９号,,29,209,6300122,,,,,,,2023-03-07,1,,,,,マツナリ,0
2552,9160001024874,新規,0,2023-03-07,2023-03-07,株式会社高木建材,00129655,株式会社,滋賀県,東近江市,布施町５１８番地,,25,213,5270081,,,,,,,2023-03-07,1,,,,,タカギケンザイ,0
2561,9180001155172,新規,0,2023-03-07,2023-03-07,株式会社Ｌｉｆｅ　ｓｔｙｌｅ,,株式会社,愛知県,春日井市,中新町２丁目１４番地９,,23,206,4860956,,,,,,,2023-03-07,1,,,,,ライフスタイル,0
2562,9180001155180,新規,0,2023-03-07,2023-03-07,株式会社トップデリカ,,株式会社,愛知県,江南市,高屋町十六田１５７番地の１,,23,217,4838064,,,,,,,2023-03-07,1,,,,,トップデリカ,0
2563,9180001155214,新規,0,2023-03-07,2023-03-07,株式会社ＨＩＮＡＴＡ,,株式会社,愛知県,名古屋市昭和区,折戸町５丁目３８番地,,23,107,4660858,,,,,,,2023-03-07,1,,,,,ヒナタ,0
2564,9180001155230,新規,0,2023-03-07,2023-03-07,株式会社Ｗｉｓｄｏｍ,,株式会社,愛知県,江南市,草井町南２３４番地１,,23,217,4838077,,,,,,,2023-03-07,1,,,,,ウィズダム,0
2565,9180001155255,新規,0,2023-03-07,2023-03-07,レモネード株式会社,,株式会社,愛知県,北名古屋市,九之坪市場４５番地５,,23,234,4810041,,,,,,,2023-03-07,1,,,,,レモネード,0
2568,9180003024912,新規,0,2023-03-07,2023-03-07,合同会社リーガルスタッフ,,合同会社,愛知県,名古屋市西区,城西４丁目５番４号浄心すみれビル４０４号室,,23,104,4510031,,,,,,,2023-03-07,1,,,,,リーガルスタッフ,0
2569,9180003024920,新規,0,2023-03-07,2023-03-07,合同会社Ｍｏｔｏｒ　Ｃｈａｉｎ,,合同会社,愛知県,名古屋市中区,新栄１丁目４６－５ハイウッド栄６Ｆ,,23,106,4600007,,,,,,,2023-03-07,1,,,,,モーターチェイン,0
2570,9180003024929,新規,0,2023-03-07,2023-03-07,合同会社組み立て楽楽,,合同会社,愛知県,名古屋市北区,北久手町２８番地の１,,23,103,4620001,,,,,,,2023-03-07,1,,,,,クミタテラクラク,0
2571,9180005020125,新規,0,2023-03-07,2023-03-07,一般社団法人優結,,その他の設立登記法人,愛知県,名古屋市守山区,森孝１丁目１６１９番地,,23,113,4630035,,,,,,,2023-03-07,1,,,,,ユウユウ,0
2575,9180301037161,新規,0,2023-03-07,2023-03-07,株式会社リンク,,株式会社,愛知県,岡崎市,石神町６番地１,,23,202,4440079,,,,,,,2023-03-07,1,,,,,リンク,0
2576,9190003004252,新規,0,2023-03-07,2023-03-07,合同会社協信,,合同会社,三重県,志摩市,阿児町鵜方４９０５,,24,215,5170501,,,,,,,2023-03-07,1,,,,,キョウシン,0
2588,9250003003231,新規,0,2023-03-07,2023-03-07,合同会社弘星,,合同会社,山口県,岩国市,今津町１丁目６番９号,,35,208,7400017,,,,,,,2023-03-07,1,,,,,コウセイ,0
2597,9290001100778,新規,0,2023-03-07,2023-03-07,株式会社寿電通,,株式会社,福岡県,福岡市南区,柳瀬２丁目１６－２０,,40,134,8111321,,,,,,,2023-03-07,1,,,,,コトブキデンツウ,0
2598,9290001100811,新規,0,2023-03-07,2023-03-07,株式会社壮健堂,,株式会社,福岡県,久留米市,中央町１１－１第一田中ビル２階,,40,203,8300023,,,,,,,2023-03-07,1,,,,,ソウケンドウ,0
2601,9290801029309,新規,0,2023-03-07,2023-03-07,株式会社ＲＡＪ,,株式会社,福岡県,北九州市小倉北区,萩崎町９番３５号,,40,106,8020066,,,,,,,2023-03-07,1,,,,,アールエイジェイ,0
2607,9320001019610,新規,0,2023-03-07,2023-03-07,株式会社ＱＵＡＬＩＴＹ,,株式会社,大分県,大分市,尼が瀬１丁目４番３号,,44,201,8700858,,,,,,,2023-03-07,1,,,,,クオリティ,0
2609,9330001030665,新規,0,2023-03-07,2023-03-07,株式会社ｍｉｍｕ,,株式会社,熊本県,熊本市西区,花園７丁目８番２８号,,43,103,8600072,,,,,,,2023-03-07,1,,,,,ミム,0
2610,9330003009740,新規,0,2023-03-07,2023-03-07,経済林合同会社,,合同会社,熊本県,菊池郡大津町,大字大津１４３２－１－３０３,,43,403,8691233,,,,,,,2023-03-07,1,,,,,ケイザイリン,0
2611,9330003009749,新規,0,2023-03-07,2023-03-07,合同会社バックボーン,,合同会社,熊本県,菊池郡菊陽町,武蔵ヶ丘北３丁目９番２２号,,43,404,8691112,,,,,,,2023-03-07,1,,,,,バックボーン,0
2612,9330005010630,新規,0,2023-03-07,2023-03-07,農事組合法人はいわら,,その他の設立登記法人,熊本県,阿蘇郡南小国町,大字満願寺８５８８番地,,43,423,8692402,,,,,,,2023-03-07,1,,,,,ハイワラ,0
2615,9350003004310,新規,0,2023-03-07,2023-03-07,合同会社向こうがわ,,合同会社,宮崎県,宮崎市,東宮１丁目２５５番地,,45,201,8800928,,,,,,,2023-03-07,1,,,,,ムコウガワ,0
2619,9360001031652,新規,0,2023-03-07,2023-03-07,ＡＬ株式会社,,株式会社,沖縄県,那覇市,久米２丁目３２番１４－１０３号,,47,201,9000033,,,,,,,2023-03-07,1,,,,,エーエル,0
2622,9360003012766,新規,0,2023-03-07,2023-03-07,合同会社糸工業,,合同会社,沖縄県,中頭郡西原町,字翁長１７５番地１２,,47,329,9030117,,,,,,,2023-03-07,1,,,,,イトコウギョウ,0
2625,9370001049660,新規,0,2023-03-07,2023-03-07,株式会社フロンティア,,株式会社,宮城県,仙台市宮城野区,栄２丁目２５番７号,,04,102,9830011,,,,,,,2023-03-07,1,,,,,フロンティア,0
2627,9370003006024,新規,0,2023-03-07,2023-03-07,合同会社トムサン,,合同会社,宮城県,東松島市,牛網字駅前一丁目５６番地１１,,04,214,9810301,,,,,,,2023-03-07,1,,,,,トムサン,0
2633,9410001013406,新規,0,2023-03-07,2023-03-07,藤澤工業株式会社,,株式会社,秋田県,にかほ市,象潟町関字建石４５番地５７,,05,214,0180133,,,,,,,2023-03-07,1,,,,,フジサワコウギョウ,0
2638,9430001088529,新規,0,2023-03-07,2023-03-07,株式会社丸智,,株式会社,北海道,夕張郡長沼町,西１線北７番地,,01,428,0691318,,,,,,,2023-03-07,1,,,,,マルトモ,0
2642,9430003014796,新規,0,2023-03-07,2023-03-07,ＡＩＲＢＡＧ　ＡＳＳＯＣＩＡＴＥＳ合同会社,,合同会社,北海道,虻田郡ニセコ町,字羊蹄１１番地１,,01,395,0481541,,,,,,,2023-03-07,1,,,,,エアバッグアソシエイツ,0
2644,9440001009228,新規,0,2023-03-07,2023-03-07,株式会社マインドクリーンシステム,,株式会社,北海道,函館市,神山１丁目２４番５－２０３号,,01,202,0410832,,,,,,,2023-03-07,1,,,,,マインドクリーンシステム,0
2645,9440005002749,新規,0,2023-03-07,2023-03-07,道南生コンクリート協同組合,,その他の設立登記法人,北海道,北斗市,清水川１４２番２９号,,01,236,0411221,,,,,,,2023-03-07,1,,,,,ドウナンナマコンクリート,0
2651,9700150114446,新規,0,2023-03-07,2023-02-21,能代山本がん予防推進協議会,,その他,秋田県,秋田市,川尻町字大川反２３３－２０９秋田朝日放送内,,05,201,0100941,,,,,,,2023-02-21,1,,,,,ノシロヤマモトガンヨボウスイシンキヨウギカイ,0
2652,9700150114628,新規,0,2023-03-07,2023-03-07,ＧＲＥＥＮ　ＬＡＮＤ　ＨＯＬＤＩＮＧＳ　ＰＴＥ．ＬＴＤ．,,外国会社等,北海道,札幌市南区,藻岩下２丁目２番４８号,,01,106,0050040,シンガポール共和国アンソンロード１０インターナショナルプラザ＃３３－０４Ａ,,,,,,2023-03-07,1,,,,,グリーンランドホールデイングスプライベートリミテツド,0
2653,9700150114636,新規,0,2023-03-07,2023-03-07,台日福全有限公司,,外国会社等,東京都,渋谷区,神宮前３丁目４２－２ＶＯＲＴ外苑前ＩＩＩ　地下１階,00129667,13,113,1500001,中華民国新北市三重区文化北路３９巷５４号１樓,,,,,,2023-03-07,1,,,,,タイニチフクゼンユウゲンコウシ,0
