sequenceNumber,corporateNumber,process,correct,updateDate,changeDate,name,nameImageId,kind,prefectureName,cityName,streetNumber,addressImageId,prefectureCode,cityCode,postCode,addressOutside,addressOutsideImageId,closeDate,closeCause,successorCorporateNumber,changeCause,assignmentDate,latest,enName,enPrefectureName,enCityName,enAddressOutside,furigana,hihyoji
8,1010001236979,新規,0,2023-07-20,2023-07-20,株式会社スイム,,株式会社,東京都,文京区,目白台１丁目１７番１号,,13,105,1120015,,,,,,,2023-07-20,1,,,,,スイム,0
9,1010001237036,新規,0,2023-07-20,2023-07-20,株式会社アドグラス,,株式会社,東京都,中央区,銀座１丁目２２番１１号銀座大竹ビジデンス２Ｆ,,13,102,1040061,,,,,,,2023-07-20,1,,,,,アドグラス,0
10,1010001237044,新規,0,2023-07-20,2023-07-20,株式会社琴ノ華,,株式会社,東京都,文京区,千駄木３丁目３６－１１－２Ｆ,,13,105,1130022,,,,,,,2023-07-20,1,,,,,キンノハナ,0
15,1010003041139,新規,0,2023-07-20,2023-07-20,合同会社ＫｍＮ,,合同会社,東京都,中央区,銀座１丁目１２番４号Ｎ＆ＥＢＬＤ．７階,,13,102,1040061,,,,,,,2023-07-20,1,,,,,ケーエムエヌ,0
17,1010005036970,新規,0,2023-07-20,2023-07-20,社会保険労務士法人ＥＬＭソリューションズ,,その他の設立登記法人,東京都,中央区,日本橋室町１丁目１１番１２号日本橋水野ビル７階,,13,102,1030022,,,,,,,2023-07-20,1,,,,,エルムソリューションズ,0
22,1010401175406,新規,0,2023-07-20,2023-07-20,ＬＥＯ　ＳＴＡＲ株式会社,,株式会社,東京都,港区,新橋６丁目６番２－１３０３号,,13,103,1050004,,,,,,,2023-07-20,1,,,,,レオスター,0
23,1010405022323,新規,0,2023-07-20,2023-07-20,ＢＦ社会保険労務士法人,,その他の設立登記法人,東京都,港区,南青山３丁目４番地３５号たつむら青山１１０３,,13,103,1070062,,,,,,,2023-07-20,1,,,,,ビーエフ,0
32,1010703006787,新規,0,2023-07-20,2023-07-20,アイルス合同会社,,合同会社,東京都,品川区,北品川３丁目６番１３,,13,109,1400001,,,,,,,2023-07-20,1,,,,,アイルス,0
33,1010801034178,新規,0,2023-07-20,2023-07-20,株式会社三竜,,株式会社,東京都,大田区,南雪谷２丁目３番８号,,13,111,1450066,,,,,,,2023-07-20,1,,,,,サンリュウ,0
38,1010901053466,新規,0,2023-07-20,2023-07-20,株式会社あじさいキャピタル,,株式会社,東京都,世田谷区,下馬６丁目４０番２号,,13,112,1540002,,,,,,,2023-07-20,1,,,,,アジサイキャピタル,0
42,1011001155780,新規,0,2023-07-20,2023-07-20,株式会社庄境屋トーキョー,,株式会社,東京都,渋谷区,代官山町３番４号,,13,113,1500034,,,,,,,2023-07-20,1,,,,,ショウザカヤトーキョー,0
52,1011101103565,新規,0,2023-07-20,2023-07-20,株式会社ＮＥＷ　ＦＵＴＵＲＥ,,株式会社,東京都,新宿区,高田馬場３丁目２－１４天翔高田馬場ビル５階５０３号室,,13,104,1690075,,,,,,,2023-07-20,1,,,,,ニューフューチャー,0
57,1011201024793,新規,0,2023-07-20,2023-07-20,株式会社グランプレス,,株式会社,東京都,中野区,江古田１丁目３９番１号ユニオン・スクエア１０２,,13,114,1650022,,,,,,,2023-07-20,1,,,,,グランプレス,0
59,1011601026992,新規,0,2023-07-20,2023-07-20,株式会社丸虎,,株式会社,東京都,練馬区,桜台２丁目４９番８号,,13,120,1760002,,,,,,,2023-07-20,1,,,,,マルトラ,0
63,1011803005745,新規,0,2023-07-20,2023-07-20,Ｋａｔａｇｉｒｉｓ合同会社,,合同会社,東京都,葛飾区,新宿６丁目２－１－１２０７,,13,122,1250051,,,,,,,2023-07-20,1,,,,,カタギリズ,0
71,1012703002758,新規,0,2023-07-20,2023-07-20,ＨｙＤｉＯ技術合同会社,,合同会社,東京都,小平市,上水新町１丁目１４番２３－２号,,13,211,1870023,,,,,,,2023-07-20,1,,,,,ハイディオギジュツ,0
74,1012801022518,新規,0,2023-07-20,2023-07-20,株式会社大寿,,株式会社,東京都,立川市,高松町２丁目６番９号,,13,202,1900011,,,,,,,2023-07-20,1,,,,,ダイジュ,0
75,1013301051049,新規,0,2023-07-20,2023-07-20,ＩＫＳ株式会社,,株式会社,東京都,豊島区,巣鴨５丁目３８－５グランドパレス巣鴨２０５,,13,116,1700002,,,,,,,2023-07-20,1,,,,,アイケーエス,0
79,1020001152176,新規,0,2023-07-20,2023-07-20,株式会社ＨＯＭＡＲＥ,,株式会社,神奈川県,川崎市宮前区,宮崎２丁目９番地６,,14,136,2160033,,,,,,,2023-07-20,1,,,,,ホマレ,0
90,1021001079599,新規,0,2023-07-20,2023-07-20,ＯＴＭ株式会社,,株式会社,神奈川県,大和市,大和東３丁目５－２４、２Ｆ,,14,213,2420017,,,,,,,2023-07-20,1,,,,,オーティーエム,0
91,1021001079640,新規,0,2023-07-20,2023-07-20,株式会社ヒサアートステーション,,株式会社,神奈川県,鎌倉市,七里ガ浜東３丁目５番１４番,,14,204,2480025,,,,,,,2023-07-20,1,,,,,ヒサアートステーション,0
104,1040001129313,新規,0,2023-07-20,2023-07-20,株式会社ケーティーエス,,株式会社,千葉県,松戸市,稔台７丁目１－３クミアイビル３０２号室,,12,207,2702231,,,,,,,2023-07-20,1,,,,,ケーティーエス,0
105,1040001129321,新規,0,2023-07-20,2023-07-20,株式会社極弋,,株式会社,千葉県,木更津市,清見台南５丁目１０番２１号,,12,206,2920042,,,,,,,2023-07-20,1,,,,,キョクトビ,0
106,1040001129338,新規,0,2023-07-20,2023-07-20,株式会社幹構造設計,,株式会社,千葉県,千葉市稲毛区,小仲台５丁目１１番１号８１９号室,,12,103,2630043,,,,,,,2023-07-20,1,,,,,ミキコウゾウセッケイ,0
109,1040003022978,新規,0,2023-07-20,2023-07-20,合同会社Ｌｕｋｉ,,合同会社,千葉県,木更津市,大和２丁目２－４吉田店舗Ａ１階東側,,12,206,2920805,,,,,,,2023-07-20,1,,,,,ルキ,0
112,1050001053173,新規,0,2023-07-20,2023-07-20,株式会社フォレスト,,株式会社,茨城県,守谷市,松前台７丁目１１番地２,,08,224,3020102,,,,,,,2023-07-20,1,,,,,フォレスト,0
119,1080103002851,新規,0,2023-07-20,2023-07-20,ＦＵＪＩ　ＬＡＮＫＡ　ＡＵＴＯ商会合同会社,,合同会社,静岡県,富士宮市,北山４９６３番地８－４０Ｅ,,22,207,4180112,,,,,,,2023-07-20,1,,,,,フジランカオート,0
120,1080401026610,新規,0,2023-07-20,2023-07-20,株式会社らいおんハート,,株式会社,静岡県,湖西市,新所・岡崎・梅田入会地６番地の１１０,,22,221,4310423,,,,,,,2023-07-20,1,,,,,ライオンハート,0
141,1120001256586,新規,0,2023-07-20,2023-07-20,株式会社ｉｓ,,株式会社,大阪府,大阪市西区,江戸堀２丁目１番１号江戸堀センタービルＢ１Ｆ,,27,106,5500002,,,,,,,2023-07-20,1,,,,,イズ,0
142,1120001256611,新規,0,2023-07-20,2023-07-20,株式会社キッズ・パワー,,株式会社,大阪府,大阪市北区,西天満６丁目４番１３－３０１号,,27,127,5300047,,,,,,,2023-07-20,1,,,,,キッズパワー,0
144,1120003024487,新規,0,2023-07-20,2023-07-20,合同会社Ｌｕｚ,,合同会社,大阪府,大阪市北区,梅田１丁目１－３大阪駅前第３ビル２９階１－１－１号室,,27,127,5300001,,,,,,,2023-07-20,1,,,,,ルーズ,0
155,1130001074707,新規,0,2023-07-20,2023-07-20,株式会社矢野組,,株式会社,京都府,京都市南区,西九条高畠町２６番地１セントヴィラージュ２０１号,,26,107,6018446,,,,,,,2023-07-20,1,,,,,ヤノグミ,0
156,1130001074748,新規,0,2023-07-20,2023-07-20,西蒙株式会社,,株式会社,京都府,京都市下京区,西新屋敷下之町１２番地１－２０６,,26,106,6000000,,,,,,,2023-07-20,1,,,,,サイモウ,0
157,1130001074772,新規,0,2023-07-20,2023-07-20,テクノ長谷川株式会社,,株式会社,京都府,向日市,森本町石田１５番地の３９,,26,208,6170003,,,,,,,2023-07-20,1,,,,,テクノハセガワ,0
160,1140001130905,新規,0,2023-07-20,2023-07-20,株式会社ＷＡＴＡＮＡＢＥ,,株式会社,兵庫県,姫路市,的形町福泊４９０番地１,,28,201,6710112,,,,,,,2023-07-20,1,,,,,ワタナベ,0
161,1140001130913,新規,0,2023-07-20,2023-07-20,株式会社サンポラリス,,株式会社,兵庫県,姫路市,香寺町田野７５８番地の２,,28,201,6792153,,,,,,,2023-07-20,1,,,,,サンポラリス,0
162,1140001130921,新規,0,2023-07-20,2023-07-20,Ｂ‐ｅｉｇｈｔ株式会社,,株式会社,兵庫県,三田市,志手原８７３番地８,,28,219,6691506,,,,,,,2023-07-20,1,,,,,ビーエイト,0
163,1140003019304,新規,0,2023-07-20,2023-07-20,合同会社ＭＡＴ,,合同会社,兵庫県,宝塚市,中山桜台６丁目１７番１－６０６号,,28,214,6650877,,,,,,,2023-07-20,1,,,,,エムエーティ,0
164,1140003019329,新規,0,2023-07-20,2023-07-20,土岐調達戦略合同会社,,合同会社,兵庫県,西宮市,苦楽園六番町２番２０号,,28,204,6620086,,,,,,,2023-07-20,1,,,,,トキチョウタツセンリャク,0
169,1160001025203,新規,0,2023-07-20,2023-07-20,ボイスカルチャージャパン株式会社,,株式会社,滋賀県,彦根市,本町１丁目９番２４号,,25,202,5220064,,,,,,,2023-07-20,1,,,,,ボイスカルチャージャパン,0
177,1180001157176,新規,0,2023-07-20,2023-07-20,株式会社Ｉ　ａｎｄ　Ｄｅｓｉｇｎ,,株式会社,愛知県,あま市,本郷郷中１０９番地,,23,237,4901116,,,,,,,2023-07-20,1,,,,,アイアンドデザイン,0
178,1180001157234,新規,0,2023-07-20,2023-07-20,株式会社ハウスム,,株式会社,愛知県,大府市,月見町５丁目１８５番地の１,,23,223,4740036,,,,,,,2023-07-20,1,,,,,ハウスム,0
184,1180003025505,新規,0,2023-07-20,2023-07-20,ＧＩテック合同会社,,合同会社,愛知県,名古屋市中村区,名駅３丁目４－１０アルティメイト名駅１ｓｔ２階,,23,105,4500002,,,,,,,2023-07-20,1,,,,,ジーアイテック,0
185,1180005020297,新規,0,2023-07-20,2023-07-20,弁護士法人不二法律事務所,,その他の設立登記法人,愛知県,名古屋市中区,丸の内３丁目５番１０号名古屋丸の内ビル９階,,23,106,4600002,,,,,,,2023-07-20,1,,,,,フジホウリツジムショ,0
186,1180305009494,新規,0,2023-07-20,2023-07-20,医療法人Ｓａｎｔｅ,,その他の設立登記法人,愛知県,刈谷市,住吉町１丁目６０番地１,,23,210,4480852,,,,,,,2023-07-20,1,,,,,サンテ,0
188,1190005011849,新規,0,2023-07-20,2023-07-20,医療法人もり歯科,,その他の設立登記法人,三重県,四日市市,高花平３丁目１番地３,,24,202,5100945,,,,,,,2023-07-20,1,,,,,モリシカ,0
198,1220003003555,新規,0,2023-07-20,2023-07-20,合同会社ＫＳＫ,,合同会社,石川県,小松市,打越町乙２４番地４,,17,203,9230831,,,,,,,2023-07-20,1,,,,,ケーエスケー,0
205,1240001061842,新規,0,2023-07-20,2023-07-20,株式会社知隆,,株式会社,広島県,福山市,加茂町字上加茂６３－１３６,,34,207,7202419,,,,,,,2023-07-20,1,,,,,チリュウ,0
214,1290001102328,新規,0,2023-07-20,2023-07-20,株式会社Ｇフィールドリレーション,,株式会社,福岡県,福岡市中央区,警固１丁目１３－１５－４０２,,40,133,8100023,,,,,,,2023-07-20,1,,,,,ジーフィールドリレーション,0
215,1290001102336,新規,0,2023-07-20,2023-07-20,ＭＡＲＩＣＡ株式会社,,株式会社,福岡県,福岡市南区,塩原３丁目２４番３０－３０３号,,40,134,8150032,,,,,,,2023-07-20,1,,,,,マリカ,0
216,1290001102360,新規,0,2023-07-20,2023-07-20,東九開発株式会社,,株式会社,福岡県,嘉麻市,上山田１９０番地１,,40,227,8210012,,,,,,,2023-07-20,1,,,,,トウキュウカイハツ,0
221,1300001013399,新規,0,2023-07-20,2023-07-20,株式会社ＩＮＦＩＮＩＴＹ,,株式会社,佐賀県,小城市,三日月町久米１３０８番地,,41,208,8450022,,,,,,,2023-07-20,1,,,,,インフィニティ,0
223,1310001018521,新規,0,2023-07-20,2023-07-20,株式会社清水市場,,株式会社,長崎県,長崎市,清水町２０番４４号,,42,201,8528041,,,,,,,2023-07-20,1,,,,,シミズイチバ,0
225,1330001031076,新規,0,2023-07-20,2023-07-20,株式会社山商,,株式会社,熊本県,宇土市,住吉町６７７番地１,,43,211,8690401,,,,,,,2023-07-20,1,,,,,ヤマショー,0
235,1360001032303,新規,0,2023-07-20,2023-07-20,株式会社徳原防災,,株式会社,沖縄県,浦添市,字沢岻９９３番地１メゾンながた２０３,,47,208,9012112,,,,,,,2023-07-20,1,,,,,トクハラボウサイ,0
240,1360003013128,新規,0,2023-07-20,2023-07-20,合同会社ＴＡＫＡコーポレーション,,合同会社,沖縄県,うるま市,字昆布１８３２番地６７１,,47,213,9042201,,,,,,,2023-07-20,1,,,,,タカコーポレーション,0
241,1360003013136,新規,0,2023-07-20,2023-07-20,合同会社シロアリのむつみ消毒,,合同会社,沖縄県,石垣市,字登野城３５５番地３（南）,,47,207,9070004,,,,,,,2023-07-20,1,,,,,シロアリノムツミショウドク,0
245,1370001050196,新規,0,2023-07-20,2023-07-20,株式会社Ｔ・Ｒ・Ｙ,,株式会社,宮城県,仙台市若林区,中倉３丁目１０番１０号オークプラザ若林４０１号室,,04,103,9840821,,,,,,,2023-07-20,1,,,,,ティーアールワイ,0
259,1420001018337,新規,0,2023-07-20,2023-07-20,株式会社龍美,,株式会社,青森県,上北郡七戸町,字森ノ下３１番地２２,,02,402,0392815,,,,,,,2023-07-20,1,,,,,タツミ,0
265,1430001089468,新規,0,2023-07-20,2023-07-20,株式会社ＴＳＮ工房,,株式会社,北海道,札幌市西区,西野十条９丁目４番３５号,,01,107,0630040,,,,,,,2023-07-20,1,,,,,ティーエスエヌコウボウ,0
266,1430001089476,新規,0,2023-07-20,2023-07-20,株式会社ＡＲＣＨ　ＰＲＯＪＥＣＴ,,株式会社,北海道,札幌市北区,南あいの里６丁目１０番８号,,01,102,0028091,,,,,,,2023-07-20,1,,,,,アーチプロジェクト,0
267,1430003015224,新規,0,2023-07-20,2023-07-20,フジ合同会社,,合同会社,北海道,千歳市,北陽３丁目４番９号,,01,224,0660032,,,,,,,2023-07-20,1,,,,,フジ,0
268,1440003001529,新規,0,2023-07-20,2023-07-20,合同会社Ｔ・Ｍ　ｅｄｕｃａｔｉｏｎ,,合同会社,北海道,函館市,東川町１８番２－３１０号,,01,202,0400042,,,,,,,2023-07-20,1,,,,,ティーエムエデュケーション,0
273,1480003002003,新規,0,2023-07-20,2023-07-20,合同会社遍路イレブン,,合同会社,徳島県,吉野川市,鴨島町飯尾１４８４番地１,,36,205,7760033,,,,,,,2023-07-20,1,,,,,ヘンロイレブン,0
276,1500003003064,新規,0,2023-07-20,2023-07-20,合同会社ＳＹコンサルティング,,合同会社,愛媛県,松山市,平井町１４４３番地１－２０３号,,38,201,7910243,,,,,,,2023-07-20,1,,,,,エスワイコンサルティング,0
288,2010001236243,新規,0,2023-07-20,2023-07-20,株式会社ＭＡＧＩＳＴＥＲ,,株式会社,東京都,千代田区,神田神保町１丁目９番２３号,,13,101,1010051,,,,,,,2023-07-20,1,,,,,マギステル,0
289,2010001236838,新規,0,2023-07-20,2023-07-20,株式会社Ｌ７,,株式会社,東京都,中央区,日本橋２丁目１番１７号丹生ビル２階,,13,102,1030027,,,,,,,2023-07-20,1,,,,,エルセブン,0
290,2010001236953,新規,0,2023-07-20,2023-07-20,株式会社ＭＥＤＩＴＨＥＲＡＰＹ　ＪＰ,,株式会社,東京都,中央区,勝どき１丁目８番１号,,13,102,1040054,,,,,,,2023-07-20,1,,,,,メディセラピージャパン,0
291,2010001236978,新規,0,2023-07-20,2023-07-20,盒馬日本株式会社,,株式会社,東京都,中央区,京橋２丁目２番１号京橋エドグラン２７階,,13,102,1040031,,,,,,,2023-07-20,1,,,,,フーマーニホン,0
292,2010001237010,新規,0,2023-07-20,2023-07-20,株式会社ジェイ・ワン・インベストメント,,株式会社,東京都,千代田区,有楽町１丁目１番２号東京ミッドタウン日比谷３２階,,13,101,1000006,,,,,,,2023-07-20,1,,,,,ジェイワンインベストメント,0
296,2010003041071,新規,0,2023-07-20,2023-07-20,ＥＧＡ１合同会社,,合同会社,東京都,千代田区,霞が関３丁目２番５号,,13,101,1000013,,,,,,,2023-07-20,1,,,,,イージーエーワン,0
297,2010003041154,新規,0,2023-07-20,2023-07-20,合同会社虎ノ門８,,合同会社,東京都,千代田区,内神田２丁目２番６号５階あすな会計事務所内,,13,101,1010047,,,,,,,2023-07-20,1,,,,,トラノモンエイト,0
299,2010005036986,新規,0,2023-07-20,2023-07-20,一般社団法人ＭＬ未来メディカル,,その他の設立登記法人,東京都,中央区,日本橋室町１丁目１１番１２号日本橋水野ビル７階,,13,102,1030022,,,,,,,2023-07-20,1,,,,,エムエルミライメディカル,0
308,2010401175900,新規,0,2023-07-20,2023-07-20,株式会社リビー,,株式会社,東京都,港区,港南３丁目６番２１号－２２１５号,,13,103,1080075,,,,,,,2023-07-20,1,,,,,リビー,0
309,2010401175917,新規,0,2023-07-20,2023-07-20,ＲｅＬｉｇｈｔｎｉｎｇ株式会社,,株式会社,東京都,港区,虎ノ門４丁目３番１号城山トラストタワー,,13,103,1050001,,,,,,,2023-07-20,1,,,,,リライトニング,0
315,2010901053440,新規,0,2023-07-20,2023-07-20,株式会社ＢｉｚＭａｘ　Ｐａｒｔｎｅｒｓ,,株式会社,東京都,世田谷区,南烏山５丁目２４－５,,13,112,1570062,,,,,,,2023-07-20,1,,,,,ビズマックスパートナーズ,0
316,2010901053457,新規,0,2023-07-20,2023-07-20,株式会社ｋｕｕ,,株式会社,東京都,世田谷区,大原１丁目１６－１７メゾンドロマネ２０２,,13,112,1560041,,,,,,,2023-07-20,1,,,,,クウ,0
317,2010901053465,新規,0,2023-07-20,2023-07-20,余和株式会社,,株式会社,東京都,世田谷区,太子堂２丁目１４番２０号ステップス三軒茶屋３０２,,13,112,1540004,,,,,,,2023-07-20,1,,,,,ヨワ,0
319,2010903008310,新規,0,2023-07-20,2023-07-20,合同会社ＨＥＲＯプロダクション,,合同会社,東京都,世田谷区,船橋２丁目１９番３号ハイムＫ１０５,,13,112,1560055,,,,,,,2023-07-20,1,,,,,ヒーロープロダクション,0
324,2011001155796,新規,0,2023-07-20,2023-07-20,ＥＶジェネシス株式会社,,株式会社,東京都,渋谷区,代官山町１０番１号,,13,113,1500034,,,,,,,2023-07-20,1,,,,,イーブイジェネシス,0
325,2011001155805,新規,0,2023-07-20,2023-07-20,ＴＨＥ　ＶＥＴＲＥＳＫＡ　ＣＯＭＰＡＮＹ　ＪＡＰＡＮ株式会社,,株式会社,東京都,渋谷区,桜丘町２６番１号セルリアンタワー１５階,,13,113,1500031,,,,,,,2023-07-20,1,,,,,ザヴェトレスカカンパニージャパン,0
327,2011005010147,新規,0,2023-07-20,2023-07-20,一般社団法人ペット・ソーシャルＦＰセンター,,その他の設立登記法人,東京都,渋谷区,渋谷２丁目２１番１号渋谷ヒカリエ３２階,,13,113,1500002,,,,,,,2023-07-20,1,,,,,ペットソーシャルエフピーセンター,0
337,2011101103606,新規,0,2023-07-20,2023-07-20,ＳＩＲＩＵＳ　ＥＳＴＡＴＥ株式会社,,株式会社,東京都,新宿区,高田馬場４丁目２５番４号Ｍｙｓｔｙｌｅ高田馬場弐番館３０２号室,,13,104,1690075,,,,,,,2023-07-20,1,,,,,シリウスエステート,0
339,2011201024792,新規,0,2023-07-20,2023-07-20,株式会社ＲＹＣ,,株式会社,東京都,中野区,白鷺１丁目２０番１４号１０１室,,13,114,1650035,,,,,,,2023-07-20,1,,,,,アールワイシー,0
345,2011603003989,新規,0,2023-07-20,2023-07-20,合同会社山のや,,合同会社,東京都,練馬区,北町７丁目１９番１６号,,13,120,1790081,,,,,,,2023-07-20,1,,,,,ヤマノヤ,0
350,2013301051064,新規,0,2023-07-20,2023-07-20,Ｔｅｅｎｙ　Ｗｉｎｙ株式会社,,株式会社,東京都,豊島区,上池袋３丁目３３番１５号,,13,116,1700012,,,,,,,2023-07-20,1,,,,,ティーニィウィーニィ,0
354,2020001152555,新規,0,2023-07-20,2023-07-20,株式会社にっこり不動産,,株式会社,神奈川県,横浜市栄区,飯島町９２番地１飯島第一ビル２０２,,14,115,2440842,,,,,,,2023-07-20,1,,,,,ニッコリフドウサン,0
372,2040001129337,新規,0,2023-07-20,2023-07-20,館山の教育を発展させる株式会社,,株式会社,千葉県,館山市,北条２０９３番地の１,,12,205,2940045,,,,,,,2023-07-20,1,,,,,タテヤマノキョウイクヲハッテンサセル,0
378,2040003022977,新規,0,2023-07-20,2023-07-20,合同会社コバヤシ,,合同会社,千葉県,木更津市,新宿３番３号,,12,206,2920066,,,,,,,2023-07-20,1,,,,,コバヤシ,0
381,2050001053180,新規,0,2023-07-20,2023-07-20,レモン株式会社,,株式会社,茨城県,つくば市,筑穂２丁目１番地２,,08,220,3003257,,,,,,,2023-07-20,1,,,,,レモン,0
383,2070001040648,新規,0,2023-07-20,2023-07-20,シーラカンス株式会社,,株式会社,群馬県,高崎市,上大類町９７９番地１－２階,,10,202,3700031,,,,,,,2023-07-20,1,,,,,シーラカンス,0
388,2080001025747,新規,0,2023-07-20,2023-07-20,株式会社ＨＡＲＵＫＡ,,株式会社,静岡県,静岡市清水区,長崎南町９番１１号,,22,103,4240068,,,,,,,2023-07-20,1,,,,,ハルカ,0
398,2080101024129,新規,0,2023-07-20,2023-07-20,株式会社Ｈ・Ｍ・Ｉコモンズ,,株式会社,静岡県,沼津市,真砂町１９番地の１１,,22,203,4100861,,,,,,,2023-07-20,1,,,,,エイチエムアイコモンズ,0
408,2090005007583,新規,0,2023-07-20,2023-07-20,一般財団法人みらいエデュテインメント財団,,その他の設立登記法人,山梨県,南都留郡富士河口湖町,西湖９９７番地,,19,430,4010332,,,,,,,2023-07-20,1,,,,,ミライエデュテインメントザイダン,0
410,2100005013027,新規,0,2023-07-20,2023-07-20,一般社団法人チームホシノマチ,,その他の設立登記法人,長野県,佐久市,下越２１６番地１ホシノマチ団地ｓｈｏｋｕ＿ｂａ,,20,217,3840414,,,,,,,2023-07-20,1,,,,,チームホシノマチ,0
425,2120001256494,新規,0,2023-07-20,2023-07-20,株式会社ＪＩＳＥＤＡＩ,,株式会社,大阪府,大阪市東淀川区,東中島１丁目１１－８－６０３,,27,114,5330033,,,,,,,2023-07-20,1,,,,,ジセダイ,0
426,2120001256585,新規,0,2023-07-20,2023-07-20,株式会社Ｎｏｍａｄ　Ｘｅｎｏ,,株式会社,大阪府,大阪市浪速区,敷津西１丁目５番２５－４０８号,,27,111,5560015,,,,,,,2023-07-20,1,,,,,ノーマッドゼノ,0
427,2120001256593,新規,0,2023-07-20,2023-07-20,株式会社六三,,株式会社,大阪府,大阪市阿倍野区,丸山通１丁目３番１８号,,27,119,5450042,,,,,,,2023-07-20,1,,,,,ロクサン,0
428,2120003024536,新規,0,2023-07-20,2023-07-20,合同会社ロクペンス,,合同会社,大阪府,大阪市住吉区,東粉浜３丁目１５番１０号,,27,120,5580051,,,,,,,2023-07-20,1,,,,,ロクペンス,0
431,2120903004744,新規,0,2023-07-20,2023-07-20,合同会社サニースタイル,,合同会社,大阪府,箕面市,彩都粟生南５丁目１８番１８号,,27,220,5620028,,,,,,,2023-07-20,1,,,,,サニースタイル,0
432,2120905006499,新規,0,2023-07-20,2023-07-20,医療法人松尾歯科医院,,その他の設立登記法人,大阪府,茨木市,中津町４番１２号コノミヤ２階,,27,211,5670824,,,,,,,2023-07-20,1,,,,,マツオシカイイン,0
435,2130001074656,新規,0,2023-07-20,2023-07-20,株式会社Ｅｎｈａｒｐ,,株式会社,京都府,京都市伏見区,深草柴田屋敷町３－１４,,26,109,6128432,,,,,,,2023-07-20,1,,,,,エンハープ,0
436,2130001074747,新規,0,2023-07-20,2023-07-20,株式会社艶玲商事,,株式会社,京都府,京都市下京区,西新屋敷下之町１２番地１－２０１,,26,106,6000000,,,,,,,2023-07-20,1,,,,,エンレイショウジ,0
437,2130001074771,新規,0,2023-07-20,2023-07-20,楽水株式会社,,株式会社,京都府,京都市左京区,鹿ケ谷寺ノ前町３０番地,,26,103,6068426,,,,,,,2023-07-20,1,,,,,ラクスイ,0
438,2130003008868,新規,0,2023-07-20,2023-07-20,合同会社サフィール,,合同会社,京都府,舞鶴市,字倉谷１５１７番地－２階,,26,202,6240906,,,,,,,2023-07-20,1,,,,,サフィール,0
445,2140001130904,新規,0,2023-07-20,2023-07-20,株式会社大信,,株式会社,兵庫県,宍粟市,波賀町原４４１番地,,28,227,6714213,,,,,,,2023-07-20,1,,,,,ダイシン,0
446,2140001130945,新規,0,2023-07-20,2023-07-20,株式会社Ｅ．ＳＴＯＣＫ,,株式会社,兵庫県,明石市,朝霧町１丁目４番１号,,28,203,6730866,,,,,,,2023-07-20,1,,,,,イーストック,0
453,2150001026556,新規,0,2023-07-20,2023-07-20,アイディール・ユニバース株式会社,,株式会社,奈良県,天理市,櫟本町３０８９番地,,29,204,6320004,,,,,,,2023-07-20,1,,,,,アイディールユニバース,0
455,2180001025340,新規,0,2023-07-20,2023-07-20,株式会社コウケン,,株式会社,愛知県,名古屋市西区,則武新町３丁目５番２号,,23,104,4510051,,,,,,,2023-07-20,1,,,,,コウケン,0
462,2180003025504,新規,0,2023-07-20,2023-07-20,合同会社ワンダーリング,,合同会社,愛知県,春日井市,神領町３丁目１番地４ＥＭＰＯＲＩＵＭ１０１号,,23,206,4860821,,,,,,,2023-07-20,1,,,,,ワンダーリング,0
465,2180303005783,新規,0,2023-07-20,2023-07-20,合同会社東海エクステリア,,合同会社,愛知県,蒲郡市,拾石町土取４－１,,23,214,4430038,,,,,,,2023-07-20,1,,,,,トウカイエクステリア,0
468,2200001041517,新規,0,2023-07-20,2023-07-20,株式会社アクスモア,,株式会社,岐阜県,羽島市,福寿町平方３９４番地７,,21,209,5016257,,,,,,,2023-07-20,1,,,,,アクスモア,0
477,2240001061841,新規,0,2023-07-20,2023-07-20,株式会社古野計算センター,,株式会社,広島県,庄原市,板橋町４９７番地１,,34,210,7270014,,,,,,,2023-07-20,1,,,,,フルノケイサンセンター,0
480,2260003004367,新規,0,2023-07-20,2023-07-20,合同会社ＯＥＮ,,合同会社,岡山県,浅口市,鴨方町益坂１４８３番地,,33,216,7190234,,,,,,,2023-07-20,1,,,,,オエン,0
482,2280001008995,新規,0,2023-07-20,2023-07-20,株式会社ＳＵＵ,,株式会社,島根県,松江市,東出雲町揖屋２７４６番地６,,32,201,6990101,,,,,,,2023-07-20,1,,,,,スー,0
492,2300003001995,新規,0,2023-07-20,2023-07-20,合同会社クール電工,,合同会社,佐賀県,佐賀市,金立町大字金立２４７番地１,,41,201,8490906,,,,,,,2023-07-20,1,,,,,クールデンコウ,0
495,2330001031067,新規,0,2023-07-20,2023-07-20,株式会社宝松丸,,株式会社,熊本県,上天草市,大矢野町維和５２３９番地２,,43,212,8693604,,,,,,,2023-07-20,1,,,,,ホウショウマル,0
496,2340001025737,新規,0,2023-07-20,2023-07-20,株式会社オオタキ,,株式会社,鹿児島県,薩摩川内市,平佐町１９６７番地１,,46,215,8950012,,,,,,,2023-07-20,1,,,,,オオタキ,0
498,2340003004185,新規,0,2023-07-20,2023-07-20,合同会社ラピスラズリ,,合同会社,鹿児島県,鹿児島市,山之口町９番４３号,,46,201,8920844,,,,,,,2023-07-20,1,,,,,ラピスラズリ,0
503,2360001032269,新規,0,2023-07-20,2023-07-20,株式会社ミヤコジマ不動産,,株式会社,沖縄県,宮古島市,平良字東仲宗根３４１番地２,,47,214,9060007,,,,,,,2023-07-20,1,,,,,ミヤコジマフドウサン,0
506,2370001050170,新規,0,2023-07-20,2023-07-20,株式会社果豊,,株式会社,宮城県,仙台市青葉区,堤町２丁目１８番３０号,,04,101,9810912,,,,,,,2023-07-20,1,,,,,カホウ,0
530,2430003015223,新規,0,2023-07-20,2023-07-20,合同会社フォレスト,,合同会社,北海道,札幌市中央区,南五条東３丁目１１番地１札幌ビオス館１１０８号,,01,101,0600055,,,,,,,2023-07-20,1,,,,,フォレスト,0
537,2460101007409,新規,0,2023-07-20,2023-07-20,株式会社グットヒル,,株式会社,北海道,帯広市,西十七条北２丁目４９番２号,,01,207,0800047,,,,,,,2023-07-20,1,,,,,グットヒル,0
541,2500001025076,新規,0,2023-07-20,2023-07-20,株式会社井上電匠,,株式会社,愛媛県,松山市,粟井河原３６５番地１６,,38,201,7992463,,,,,,,2023-07-20,1,,,,,イノウエデンショウ,0
543,2500003003063,新規,0,2023-07-20,2023-07-20,合同会社ｓｏａｒｉ,,合同会社,愛媛県,松山市,久保１７番地２,,38,201,7992462,,,,,,,2023-07-20,1,,,,,ソアリ,0
547,3010001236663,新規,0,2023-07-20,2023-07-20,株式会社Ｈｕｍｐ,,株式会社,東京都,中央区,銀座１丁目１２番４号Ｎ＆ＥＢＬＤ．６Ｆ,,13,102,1040061,,,,,,,2023-07-20,1,,,,,ハンプ,0
552,3010003041120,新規,0,2023-07-20,2023-07-20,合同会社ライラック札幌,,合同会社,東京都,千代田区,霞が関３丁目２番５号,,13,101,1000013,,,,,,,2023-07-20,1,,,,,ライラックサッポロ,0
553,3010003041129,新規,0,2023-07-20,2023-07-20,ＳＨブルーオーシャン神戸合同会社,,合同会社,東京都,千代田区,丸の内３丁目１番１号東京共同会計事務所内,,13,101,1000005,,,,,,,2023-07-20,1,,,,,エスエイチブルーオーシャンコウベ,0
560,3010401175486,新規,0,2023-07-20,2023-07-20,株式会社泥亀,,株式会社,東京都,港区,六本木５丁目１８番１９号,,13,103,1060032,,,,,,,2023-07-20,1,,,,,ドロガメ,0
561,3010401175734,新規,0,2023-07-20,2023-07-20,株式会社ＴｒｕｅＣｏｌｏｒ,,株式会社,東京都,港区,北青山１丁目３番１号アールキューブ青山３階,,13,103,1070061,,,,,,,2023-07-20,1,,,,,トゥルーカラー,0
562,3010401175767,新規,0,2023-07-20,2023-07-20,ルカ国際貿易株式会社,,株式会社,東京都,港区,虎ノ門１丁目３番１号５階,,13,103,1050001,,,,,,,2023-07-20,1,,,,,ルカコクサイボウエキ,0
565,3010403030532,新規,0,2023-07-20,2023-07-20,ＥＸＩＭ　ＤＥＶＥＬＯＰＭＥＮＴ合同会社,,合同会社,東京都,港区,南青山１丁目２０番２号,,13,103,1070062,,,,,,,2023-07-20,1,,,,,エクシムデベロップメント,0
582,3010901053456,新規,0,2023-07-20,2023-07-20,株式会社ＶＡＲＩＯ,,株式会社,東京都,世田谷区,太子堂２丁目６番１号,,13,112,1540004,,,,,,,2023-07-20,1,,,,,ヴァリオ,0
590,3011001155779,新規,0,2023-07-20,2023-07-20,株式会社エンジン＆ソリューションズ,,株式会社,東京都,渋谷区,千駄ヶ谷３丁目３０番９号モデリアブリュット北参道Ｂ２０５,,13,113,1510051,,,,,,,2023-07-20,1,,,,,エンジンアンドソリューションズ,0
591,3011001155804,新規,0,2023-07-20,2023-07-20,Ｋコンサルティング株式会社,,株式会社,東京都,渋谷区,神南１丁目４番１３号プラウドジェム渋谷神南００３号室,,13,113,1500041,,,,,,,2023-07-20,1,,,,,ケーコンサルティング,0
599,3011103013174,新規,0,2023-07-20,2023-07-20,合同会社ＬＡＹ‐ｔｉｖＥ,,合同会社,東京都,新宿区,西新宿８丁目８番１２－７０５号,,13,104,1600023,,,,,,,2023-07-20,1,,,,,レイティブ,0
600,3011103013265,新規,0,2023-07-20,2023-07-20,ＤＡＯ　Ｈｅａｖｅｎ合同会社,,合同会社,東京都,新宿区,西新宿３丁目３番１３号西新宿水間ビル２Ｆ,,13,104,1600023,,,,,,,2023-07-20,1,,,,,ダオヘヴン,0
601,3011103013273,新規,0,2023-07-20,2023-07-20,合同会社ジェイ・イー・エル,,合同会社,東京都,新宿区,下宮比町１番４号,,13,104,1620822,,,,,,,2023-07-20,1,,,,,ジェイイーエル,0
603,3011203004131,新規,0,2023-07-20,2023-07-20,合同会社ＬＥＥＡＮ,,合同会社,東京都,中野区,中野２丁目２８番１－２０３号,,13,114,1640001,,,,,,,2023-07-20,1,,,,,リアン,0
612,3011501029540,新規,0,2023-07-20,2023-07-20,株式会社ｎｅａｒ　ａｎｄ　ｄｅａｒ,,株式会社,東京都,荒川区,南千住６丁目３７番２－５０３号,,13,118,1160003,,,,,,,2023-07-20,1,,,,,ニアーアンドディアー,0
614,3011601026990,新規,0,2023-07-20,2023-07-20,株式会社クロコ,,株式会社,東京都,練馬区,大泉町３丁目３５番１２号,,13,120,1780062,,,,,,,2023-07-20,1,,,,,クロコ,0
615,3011701026437,新規,0,2023-07-20,2023-07-20,ウイングエース株式会社,,株式会社,東京都,江戸川区,平井２丁目１５番７－８０２号,,13,123,1320035,,,,,,,2023-07-20,1,,,,,ウイングエース,0
623,3013301051039,新規,0,2023-07-20,2023-07-20,株式会社ｉ‐Ｎｏｔｅ,,株式会社,東京都,豊島区,南池袋２丁目４５番２－２３０２号,,13,116,1710022,,,,,,,2023-07-20,1,,,,,アイノテ,0
624,3013301051055,新規,0,2023-07-20,2023-07-20,株式会社Ｍｏｌｔｏ,,株式会社,東京都,豊島区,東池袋１丁目１７番１１号パークハイツ池袋１１０５号,,13,116,1700013,,,,,,,2023-07-20,1,,,,,モルト,0
625,3013301051071,新規,0,2023-07-20,2023-07-20,株式会社ハリー,,株式会社,東京都,豊島区,東池袋３丁目２１番２１－２９１０号,,13,116,1700013,,,,,,,2023-07-20,1,,,,,ハリー,0
637,3020005016061,新規,0,2023-07-20,2023-07-20,一般社団法人古民家再生協会神奈川,,その他の設立登記法人,神奈川県,横浜市金沢区,富岡西４丁目４３番５号,,14,108,2360052,,,,,,,2023-07-20,1,,,,,コミンカサイセイキョウカイカナガワ,0
640,3021001079622,新規,0,2023-07-20,2023-07-20,株式会社ＢＡＩＬＤ,,株式会社,神奈川県,相模原市緑区,橋本２丁目２番１８号コンフォートＩＩ２階,00131222,14,151,2520143,,,,,,,2023-07-20,1,,,,,ベイルド,0
641,3021001079647,新規,0,2023-07-20,2023-07-20,株式会社小野興業,,株式会社,神奈川県,相模原市中央区,水郷田名２丁目３番１８号,,14,152,2520246,,,,,,,2023-07-20,1,,,,,オノコウギョウ,0
650,3040001129336,新規,0,2023-07-20,2023-07-20,株式会社山屋,,株式会社,千葉県,佐倉市,上志津１５９７－１,,12,212,2850846,,,,,,,2023-07-20,1,,,,,ヤマヤ,0
655,3050003007654,新規,0,2023-07-20,2023-07-20,ヤンツ合同会社,,合同会社,茨城県,土浦市,烏山２丁目５３０番地３１１,,08,203,3000836,,,,,,,2023-07-20,1,,,,,ヤンツ,0
665,3090001018229,新規,0,2023-07-20,2023-07-20,株式会社南アルプスロジ,,株式会社,山梨県,南アルプス市,野牛島２５７８番地１,,19,208,4000205,,,,,,,2023-07-20,1,,,,,ミナミアルプスロジ,0
675,3120001256584,新規,0,2023-07-20,2023-07-20,星宇株式会社,,株式会社,大阪府,大阪市生野区,桃谷２丁目２２番２０号,,27,116,5440034,,,,,,,2023-07-20,1,,,,,セイウ,0
676,3120001256592,新規,0,2023-07-20,2023-07-20,株式会社フロントレイズ,,株式会社,大阪府,大阪市東住吉区,今川２丁目７番１０号,,27,121,5460003,,,,,,,2023-07-20,1,,,,,フロントレイズ,0
677,3120001256618,新規,0,2023-07-20,2023-07-20,株式会社山山,,株式会社,大阪府,大阪市淀川区,加島２丁目６－３,,27,123,5320031,,,,,,,2023-07-20,1,,,,,ヤマヤマ,0
679,3120003024527,新規,0,2023-07-20,2023-07-20,合同会社Ｔｒａｕｍ,,合同会社,大阪府,寝屋川市,平池町１６－１６,,27,215,5720839,,,,,,,2023-07-20,1,,,,,トラオム,0
680,3120005023766,新規,0,2023-07-20,2023-07-20,医療法人義喜会,,その他の設立登記法人,大阪府,大阪市北区,梅田２丁目４番３７号西梅田上島ビル５階,,27,127,5300001,,,,,,,2023-07-20,1,,,,,ヨシキカイ,0
684,3120903004743,新規,0,2023-07-20,2023-07-20,Ｕｍｕｓａｎ　Ｓｍｉｌｅ合同会社,,合同会社,大阪府,茨木市,元町６－１２ノア元町１０１,,27,211,5670882,,,,,,,2023-07-20,1,,,,,ウムサンスマイル,0
685,3120905006498,新規,0,2023-07-20,2023-07-20,一般社団法人福祉経営推進センター,,その他の設立登記法人,大阪府,吹田市,江坂町１丁目１４番３３号,,27,205,5640063,,,,,,,2023-07-20,1,,,,,フクシケイエイスイシンセンター,0
688,3122003002628,新規,0,2023-07-20,2023-07-20,合同会社松英,,合同会社,大阪府,東大阪市,松原１丁目２番３９号,,27,227,5780922,,,,,,,2023-07-20,1,,,,,ショウエイ,0
690,3130001074738,新規,0,2023-07-20,2023-07-20,株式会社工機産業,,株式会社,京都府,福知山市,土師宮町２丁目２１３番地の１,,26,201,6200856,,,,,,,2023-07-20,1,,,,,,0
691,3130003008867,新規,0,2023-07-20,2023-07-20,合同会社栄,,合同会社,京都府,久世郡久御山町,栄３丁目１番地８,,26,322,6130032,,,,,,,2023-07-20,1,,,,,サカエ,0
696,3140001130903,新規,0,2023-07-20,2023-07-20,株式会社Ｒｙｕｂｏｋｕａｎ,,株式会社,兵庫県,西宮市,桜谷町１番１８号,,28,204,6620032,,,,,,,2023-07-20,1,,,,,リュウボクアン,0
702,3170001017701,新規,0,2023-07-20,2023-07-20,株式会社カナリア,,株式会社,和歌山県,和歌山市,田尻７７５番地２４,,30,201,6410005,,,,,,,2023-07-20,1,,,,,カナリア,0
705,3180001157216,新規,0,2023-07-20,2023-07-20,株式会社エージェイアイ商店,,株式会社,愛知県,名古屋市北区,安井４丁目１４番６８号（宝マンション城北５０８号）,,23,103,4620023,,,,,,,2023-07-20,1,,,,,エージェイアイショウテン,0
714,3200001041516,新規,0,2023-07-20,2023-07-20,株式会社新販,,株式会社,岐阜県,関市,下之保５１８８番地３グリーンハイツ高沢２０６,,21,205,5013521,,,,,,,2023-07-20,1,,,,,シンパン,0
717,3220003003553,新規,0,2023-07-20,2023-07-20,Ｔｓｕｃｈｉｙａ合同会社,,合同会社,石川県,金沢市,主計町２‐３,,17,201,9200908,,,,,,,2023-07-20,1,,,,,ツチヤ,0
723,3240001061840,新規,0,2023-07-20,2023-07-20,株式会社ＳＡＴＯ,,株式会社,広島県,広島市中区,三川町２－８,,34,101,7300029,,,,,,,2023-07-20,1,,,,,サト,0
734,3290001102318,新規,0,2023-07-20,2023-07-20,株式会社瑞蘭,,株式会社,福岡県,福岡市中央区,伊崎４番１０号コーポだいこく１０３号,,40,133,8100067,,,,,,,2023-07-20,1,,,,,ミズラン,0
735,3290001102334,新規,0,2023-07-20,2023-07-20,ベトリンクソリューションズ株式会社,,株式会社,福岡県,筑紫野市,針摺東１丁目１０番８号,,40,217,8180081,,,,,,,2023-07-20,1,,,,,ベトリンクソリューションズ,0
736,3290001102359,新規,0,2023-07-20,2023-07-20,株式会社ＴｏａＴｅｃｈｎｏｌｏｇｙ,,株式会社,福岡県,福岡市中央区,天神４丁目６番２８号天神ファーストビル７階,,40,133,8100001,,,,,,,2023-07-20,1,,,,,トアテクノロジー,0
740,3290801029660,新規,0,2023-07-20,2023-07-20,株式会社エヴァル,,株式会社,福岡県,行橋市,行事４丁目３番３号,,40,213,8240001,,,,,,,2023-07-20,1,,,,,エヴァル,0
742,3300003001994,新規,0,2023-07-20,2023-07-20,合同会社Ｆｌａｔｏｒｙ,,合同会社,佐賀県,伊万里市,大川町大川野４１６３番地３,,41,205,8495251,,,,,,,2023-07-20,1,,,,,フラットリー,0
752,3340001025728,新規,0,2023-07-20,2023-07-20,株式会社国境離島革命団,,株式会社,鹿児島県,鹿児島郡三島村,大字硫黄島１８６番地,,46,303,8900901,,,,,,,2023-07-20,1,,,,,コッキョウリトウカクメイダン,0
753,3340001025736,新規,0,2023-07-20,2023-07-20,株式会社栄華堂,,株式会社,鹿児島県,鹿児島市,明和２丁目３３番１１号,,46,201,8900024,,,,,,,2023-07-20,1,,,,,エイカドウ,0
755,3340003004184,新規,0,2023-07-20,2023-07-20,合同会社Ｅ‐ｗｏｒｋ,,合同会社,鹿児島県,鹿児島市,伊敷５丁目３３－２６,,46,201,8900008,,,,,,,2023-07-20,1,,,,,イーワーク,0
756,3360001032301,新規,0,2023-07-20,2023-07-20,株式会社ＩＮＴＥＲＩＯＲ琉装,,株式会社,沖縄県,うるま市,字赤道２５５番地１５,,47,213,9042245,,,,,,,2023-07-20,1,,,,,インテリアリュウソウ,0
757,3370001050186,新規,0,2023-07-20,2023-07-20,北落師門株式会社,,株式会社,宮城県,仙台市宮城野区,小田原１丁目８番１０号４３０号室,,04,102,9830803,,,,,,,2023-07-20,1,,,,,ホクラクシモン,0
758,3370001050194,新規,0,2023-07-20,2023-07-20,ヤマフジパートナーズ株式会社,,株式会社,宮城県,東松島市,矢本字上河戸２７９－２,,04,214,9810503,,,,,,,2023-07-20,1,,,,,ヤマフジパートナーズ,0
759,3370001050203,新規,0,2023-07-20,2023-07-20,株式会社ジェイプラス,,株式会社,宮城県,多賀城市,東田中２丁目４０番１号セイメイビル２０１,,04,209,9850863,,,,,,,2023-07-20,1,,,,,ジェイプラス,0
776,3430003015222,新規,0,2023-07-20,2023-07-20,合同会社ＹＯＮＥＷＡＫＡ,,合同会社,北海道,苫小牧市,字植苗２３０番地７,,01,213,0591365,,,,,,,2023-07-20,1,,,,,ヨネワカ,0
787,4010001236893,新規,0,2023-07-20,2023-07-20,ＤｒサポートＰｒｏ株式会社,,株式会社,東京都,中央区,銀座１丁目１２番４号,,13,102,1040061,,,,,,,2023-07-20,1,,,,,ドクターサポートプロ,0
788,4010001236910,新規,0,2023-07-20,2023-07-20,株式会社ｔｏ　ｓｕｉｔ,,株式会社,東京都,中央区,新富１丁目１０－１１エターナル新富２Ｆ,,13,102,1040041,,,,,,,2023-07-20,1,,,,,トゥースーツ,0
789,4010001236919,新規,0,2023-07-20,2023-07-20,株式会社大智商事,,株式会社,東京都,中央区,月島３丁目２０番８－７１３号,,13,102,1040052,,,,,,,2023-07-20,1,,,,,オオトモショウジ,0
790,4010001236935,新規,0,2023-07-20,2023-07-20,株式会社ビヨンドソフトホールディング,,株式会社,東京都,千代田区,神田岩本町１番地１４,,13,101,1010033,,,,,,,2023-07-20,1,,,,,ビヨンドソフトホールディング,0
791,4010001236968,新規,0,2023-07-20,2023-07-20,株式会社ＳＨＧ　Ｉｎｔｅｒｎａｔｉｏｎａｌ,,株式会社,東京都,千代田区,九段北１丁目１３番５号ヒューリック九段ビル１２Ｆ,,13,101,1020073,,,,,,,2023-07-20,1,,,,,エスエイチジーインターナショナル,0
792,4010001236976,新規,0,2023-07-20,2023-07-20,株式会社トラスト,,株式会社,東京都,中央区,日本橋３丁目２番１４号新槇町ビル別館第一２階,,13,102,1030027,,,,,,,2023-07-20,1,,,,,トラスト,0
793,4010001237017,新規,0,2023-07-20,2023-07-20,Ｄｅｎｔａｌ　Ｂｒａｉｎ株式会社,,株式会社,東京都,千代田区,大手町１丁目６番１号大手町ビル１Ｆ，２Ｆ，３Ｆ,,13,101,1000004,,,,,,,2023-07-20,1,,,,,デンタルブレイン,0
794,4010001237025,新規,0,2023-07-20,2023-07-20,株式会社アルデザインカンパニー,,株式会社,東京都,文京区,本郷３丁目２４－１７,,13,105,1130033,,,,,,,2023-07-20,1,,,,,アルデザインカンパニー,0
795,4010001237033,新規,0,2023-07-20,2023-07-20,株式会社ガジリオン,,株式会社,東京都,中央区,勝どき３丁目５－９,,13,102,1040054,,,,,,,2023-07-20,1,,,,,ガジリオン,0
800,4010003041152,新規,0,2023-07-20,2023-07-20,ＭＩＲＡＩ地所合同会社,,合同会社,東京都,中央区,日本橋室町１丁目１１番１２号日本橋水野ビル７階,,13,102,1030022,,,,,,,2023-07-20,1,,,,,ミライジショ,0
805,4010401175725,新規,0,2023-07-20,2023-07-20,ＲＥＤ　ＡＶＥＮＵＥ日本株式会社,,株式会社,東京都,港区,六本木３丁目７－１ＴＨＥ・ＲＯＰＰＯＮＧＩ・ＴＯＫＹＯ２９１２号,,13,103,1060032,,,,,,,2023-07-20,1,,,,,レッドアベニューニッポン,0
806,4010401175758,新規,0,2023-07-20,2023-07-20,株式会社Ｎｂａｓｅ,,株式会社,東京都,港区,浜松町２丁目２番１５号,,13,103,1050013,,,,,,,2023-07-20,1,,,,,エヌベース,0
808,4010403030548,新規,0,2023-07-20,2023-07-20,デジタルバリューチェーンパートナーズ合同会社,,合同会社,東京都,港区,北青山２丁目５番１号,,13,103,1070061,,,,,,,2023-07-20,1,,,,,デジタルバリューチェーンパートナーズ,0
811,4010501050786,新規,0,2023-07-20,2023-07-20,Ｂｌｕｅ　Ｓｔａｒ株式会社,,株式会社,東京都,台東区,東上野５丁目４番１５－４０２号,,13,106,1100015,,,,,,,2023-07-20,1,,,,,ブルースター,0
815,4010603010242,新規,0,2023-07-20,2023-07-20,瑞達合同会社,,合同会社,東京都,江東区,大島４丁目２番４号大明ビル５０１,,13,108,1360072,,,,,,,2023-07-20,1,,,,,スイタツ,0
816,4010605004218,新規,0,2023-07-20,2023-07-20,一般社団法人アジア太平洋医療福祉産業発展促進会,,その他の設立登記法人,東京都,江東区,福住１丁目４番１２号１Ｆ,,13,108,1350032,,,,,,,2023-07-20,1,,,,,アジアタイヘイヨウイリョウフクシサンギョウハッテンソクシンカイ,0
826,4011003017159,新規,0,2023-07-20,2023-07-20,合同会社Ｒｏｏｔｓ,,合同会社,東京都,目黒区,中目黒１丁目４番１３－１０２号,,13,110,1530061,,,,,,,2023-07-20,1,,,,,ルーツ,0
827,4011005010145,新規,0,2023-07-20,2023-07-20,一般社団法人日本安全保障広報協会,,その他の設立登記法人,東京都,渋谷区,渋谷４丁目３番６－２０１号,,13,113,1500002,,,,,,,2023-07-20,1,,,,,ニホンアンゼンホショウコウホウキョウカイ,0
835,4011101103629,新規,0,2023-07-20,2023-07-20,株式会社マサラボ,,株式会社,東京都,新宿区,大京町９番地１３,,13,104,1600015,,,,,,,2023-07-20,1,,,,,マサラボ,0
836,4011101103645,新規,0,2023-07-20,2023-07-20,株式会社ＨＯＭＥ,,株式会社,東京都,新宿区,西新宿５丁目２５番１４号,,13,104,1600023,,,,,,,2023-07-20,1,,,,,ホーム,0
837,4011101103661,新規,0,2023-07-20,2023-07-20,Ｅｌｅｇａｎｔｉａ株式会社,,株式会社,東京都,新宿区,西新宿３丁目３番１３号西新宿水間ビル２階,,13,104,1600023,,,,,,,2023-07-20,1,,,,,エレガンティア,0
841,4011701026436,新規,0,2023-07-20,2023-07-20,株式会社ボデガキャット,,株式会社,東京都,江戸川区,東葛西３丁目１０番２２－３０２号,,13,123,1340084,,,,,,,2023-07-20,1,,,,,ボデガキャット,0
842,4011803005742,新規,0,2023-07-20,2023-07-20,合同会社えんとらんす,,合同会社,東京都,葛飾区,東金町３丁目１７－１０ＫＢＳ・Ｆ－１号,,13,122,1250041,,,,,,,2023-07-20,1,,,,,エントランス,0
848,4013301051062,新規,0,2023-07-20,2023-07-20,株式会社クイズセルバ,,株式会社,東京都,豊島区,西池袋５丁目１３番１８号Ａｔｔｉｃ,,13,116,1710021,,,,,,,2023-07-20,1,,,,,クイズセルバ,0
849,4013303006717,新規,0,2023-07-20,2023-07-20,かめや合同会社,,合同会社,東京都,豊島区,東池袋５丁目３９番９号,,13,116,1700013,,,,,,,2023-07-20,1,,,,,カメヤ,0
858,4021001079638,新規,0,2023-07-20,2023-07-20,株式会社Ｆ＆Ａ　Ｐａｃｉｆｉｃ,,株式会社,神奈川県,藤沢市,下土棚６１６番地富士見台ハイツ１～２０８,,14,205,2520807,,,,,,,2023-07-20,1,,,,,エフアンドエーパシフィック,0
861,4021003013330,新規,0,2023-07-20,2023-07-20,合同会社ＴＫコーポレーション,,合同会社,神奈川県,秦野市,平沢１１６１番地の１,,14,211,2570015,,,,,,,2023-07-20,1,,,,,ティーケーコーポレーション,0
870,4030003022134,新規,0,2023-07-20,2023-07-20,匠祐堂合同会社,,合同会社,埼玉県,さいたま市南区,南浦和２丁目２８番１３－３１４,,11,108,3360017,,,,,,,2023-07-20,1,,,,,,0
878,4040001129319,新規,0,2023-07-20,2023-07-20,株式会社東京アンカー,,株式会社,千葉県,流山市,加１丁目３番地の７,,12,220,2700176,,,,,,,2023-07-20,1,,,,,トウキョウアンカー,0
879,4040001129335,新規,0,2023-07-20,2023-07-20,株式会社Ｃａｍｐｕｓ　Ｂｌｅｎｄ,,株式会社,千葉県,柏市,南増尾８丁目８－１ライオンズステージ常盤平２０１号室,,12,217,2770054,,,,,,,2023-07-20,1,,,,,キャンパスブレンド,0
880,4040003022959,新規,0,2023-07-20,2023-07-20,合同会社ｈｉｐｐｏｐｏ,,合同会社,千葉県,船橋市,海神５丁目３番１５－３号,,12,204,2730021,,,,,,,2023-07-20,1,,,,,ヒポポ,0
882,4050001053179,新規,0,2023-07-20,2023-07-20,キウイ株式会社,,株式会社,茨城県,つくば市,筑穂２丁目１番地２,,08,220,3003257,,,,,,,2023-07-20,1,,,,,キウイ,0
884,4050003007653,新規,0,2023-07-20,2023-07-20,合同会社ＨＳ　ＴＲＡＤＩＮＧ,,合同会社,茨城県,水戸市,朝日町２８９７番地の２,,08,201,3100831,,,,,,,2023-07-20,1,,,,,エイチエストレーディング,0
886,4060001036166,新規,0,2023-07-20,2023-07-20,ＳＨエステート株式会社,,株式会社,栃木県,宇都宮市,大曽２丁目１番１０号,,09,201,3200014,,,,,,,2023-07-20,1,,,,,エスエイチエステート,0
890,4070003005036,新規,0,2023-07-20,2023-07-20,ＪＩＧＮＡ合同会社,,合同会社,群馬県,吾妻郡東吾妻町,大字原町２０５番地２新井アパート,,10,429,3770801,,,,,,,2023-07-20,1,,,,,ジグナ,0
895,4080001025745,新規,0,2023-07-20,2023-07-20,株式会社ＴｏｕｇｈＮｅｓｓ,,株式会社,静岡県,静岡市葵区,両替町２丁目３番地の１濱村ビレッジ１階,,22,101,4200032,,,,,,,2023-07-20,1,,,,,タフネス,0
896,4080101024127,新規,0,2023-07-20,2023-07-20,株式会社リンクネクスト,,株式会社,静岡県,富士市,松岡３番地の３,,22,210,4160909,,,,,,,2023-07-20,1,,,,,リンクネクスト,0
897,4080403004834,新規,0,2023-07-20,2023-07-20,合同会社昇和,,合同会社,静岡県,浜松市東区,天王町１１３４番地の３,,22,132,4350052,,,,,,,2023-07-20,1,,,,,ショウワ,0
899,4090005007581,新規,0,2023-07-20,2023-07-20,特定非営利活動法人むすぶ,,その他の設立登記法人,山梨県,甲斐市,万才４４９番地５,,19,210,4000114,,,,,,,2023-07-20,1,,,,,ムスブ,0
910,4120001256583,新規,0,2023-07-20,2023-07-20,株式会社リフレッシュプラス,,株式会社,大阪府,大阪市淀川区,西中島４丁目２番２６号,,27,123,5320011,,,,,,,2023-07-20,1,,,,,リフレッシュプラス,0
911,4120001256591,新規,0,2023-07-20,2023-07-20,株式会社ＧＴＳ,,株式会社,大阪府,大阪市中央区,博労町１丁目２番１号オーセンティック東船場９０１号,,27,128,5410059,,,,,,,2023-07-20,1,,,,,ジーティーエス,0
912,4120001256600,新規,0,2023-07-20,2023-07-20,株式会社縁,,株式会社,大阪府,大阪市中央区,南本町１丁目３番１７号,,27,128,5410054,,,,,,,2023-07-20,1,,,,,エニシ,0
913,4120001256617,新規,0,2023-07-20,2023-07-20,ＮＡＧＡＴＳＵＢＡＫＩ株式会社,,株式会社,大阪府,大阪市浪速区,恵美須西１丁目４番２３住吉ビル３０６号,,27,111,5560003,,,,,,,2023-07-20,1,,,,,ナガツバキ,0
914,4120001256699,新規,0,2023-07-20,2023-07-20,株式会社クズハガードホショウ,,株式会社,大阪府,枚方市,南楠葉１丁目２２－３浜ハイツ３０５号,,27,210,5731105,,,,,,,2023-07-20,1,,,,,クズハガードホショウ,0
917,4120003024476,新規,0,2023-07-20,2023-07-20,福田貿易合同会社,,合同会社,大阪府,大阪市港区,市岡元町１丁目６－１１フレンドリー一番館４１０号室,,27,107,5520002,,,,,,,2023-07-20,1,,,,,フクダボウエキ,0
919,4120005023749,新規,0,2023-07-20,2023-07-20,日中総合行政書士法人,,その他の設立登記法人,大阪府,大阪市東住吉区,湯里５丁目１６番５号２Ｆ,,27,121,5460013,,,,,,,2023-07-20,1,,,,,ニッチュウソウゴウ,0
922,4120105009739,新規,0,2023-07-20,2023-07-20,一般社団法人バランスアート,,その他の設立登記法人,大阪府,堺市美原区,多治井４８１,,27,147,5870012,,,,,,,2023-07-20,1,,,,,バランスアート,0
932,4130001074761,新規,0,2023-07-20,2023-07-20,カナール株式会社,,株式会社,京都府,京都市山科区,音羽千本町９－１,,26,110,6078071,,,,,,,2023-07-20,1,,,,,カナール,0
933,4130001074778,新規,0,2023-07-20,2023-07-20,株式会社Ｓｅｅｋ,,株式会社,京都府,京都市東山区,富永町１４１番地ＳＡＫＩＺＯ祇園富永町ビル地下１階,,26,105,6050078,,,,,,,2023-07-20,1,,,,,シーク,0
934,4130001074786,新規,0,2023-07-20,2023-07-20,金石産業株式会社,,株式会社,京都府,京都市伏見区,醍醐合場町８番地１２,,26,109,6011347,,,,,,,2023-07-20,1,,,,,キンセキサンギョウ,0
942,4150001026554,新規,0,2023-07-20,2023-07-20,株式会社ウラオカ,,株式会社,奈良県,吉野郡大淀町,大字北野１２４番地の８,,29,442,6393125,,,,,,,2023-07-20,1,,,,,ウラオカ,0
944,4160003002932,新規,0,2023-07-20,2023-07-20,Ｍａｄｅｍｏｉｓｅｌｌｅ　ＬＡＰＩＮ合同会社,,合同会社,滋賀県,大津市,竜が丘２番１－６０６号,,25,201,5200803,,,,,,,2023-07-20,1,,,,,マドモアゼルラパン,0
951,4180001157198,新規,0,2023-07-20,2023-07-20,株式会社クロセス,,株式会社,愛知県,名古屋市中区,栄２丁目２番１号広小路伏見中駒ビル５Ｆ,,23,106,4600008,,,,,,,2023-07-20,1,,,,,クロセス,0
953,4180003025510,新規,0,2023-07-20,2023-07-20,合同会社ククナ,,合同会社,愛知県,名古屋市中村区,千原町１０番２５号ハートヒルズ名駅北３Ａ,,23,105,4530011,,,,,,,2023-07-20,1,,,,,ククナ,0
957,4200001041515,新規,0,2023-07-20,2023-07-20,株式会社カルム,,株式会社,岐阜県,岐阜市,六条南１丁目１０番５号,,21,201,5008358,,,,,,,2023-07-20,1,,,,,カルム,0
963,4240001022404,新規,0,2023-07-20,2023-07-20,潮建設株式会社,,株式会社,広島県,東広島市,福富町久芳３６９４番地の３,,34,212,7392303,,,,,,,2023-07-20,1,,,,,ウシオケンセツ,0
968,4280003001749,新規,0,2023-07-20,2023-07-20,合同会社コウコク,,合同会社,島根県,松江市,西川津町６５４番地８グラード西川津２０２号室,,32,201,6900823,,,,,,,2023-07-20,1,,,,,コウコク,0
972,4290001102192,新規,0,2023-07-20,2023-07-20,ＣＨＡＩＮＯＮ株式会社,,株式会社,福岡県,福岡市中央区,地行４丁目１０番３２－２０３号リバティＲ,,40,133,8100064,,,,,,,2023-07-20,1,,,,,シェノン,0
973,4290003014139,新規,0,2023-07-20,2023-07-20,合同会社コーシェリジャパンワークス,,合同会社,福岡県,福岡市中央区,平尾５丁目１７番１０号,,40,133,8100014,,,,,,,2023-07-20,1,,,,,コーシェリジャパンワークス,0
978,4330001031057,新規,0,2023-07-20,2023-07-20,株式会社總伸,,株式会社,熊本県,荒尾市,宮内１７６番地１ルートテラス２０２号,,43,204,8640004,,,,,,,2023-07-20,1,,,,,ソウシン,0
980,4340001025735,新規,0,2023-07-20,2023-07-20,株式会社池田太一建築設計事務所,,株式会社,鹿児島県,姶良市,宮島町１９番地２６,,46,225,8995432,,,,,,,2023-07-20,1,,,,,イケダタイチケンチクセッケイジムショ,0
986,4360001032300,新規,0,2023-07-20,2023-07-20,沖栄商会株式会社,,株式会社,沖縄県,那覇市,牧志２丁目１７番２７号４０１号室,,47,201,9000013,,,,,,,2023-07-20,1,,,,,オキエイショウカイ,0
988,4360003013125,新規,0,2023-07-20,2023-07-20,合同会社Ｃｈｕｒａｒｉａ,,合同会社,沖縄県,宜野湾市,伊佐４丁目９番２０－２０５号ＳＵＮＳＥＴＩＩＩ,00131221,47,205,9012221,,,,,,,2023-07-20,1,,,,,チュラリア,0
989,4360003013141,新規,0,2023-07-20,2023-07-20,合同会社Ｌ５,,合同会社,沖縄県,糸満市,字兼城３８６番地シャトークレシア１０３号,,47,210,9010303,,,,,,,2023-07-20,1,,,,,エルファイブ,0
992,4370001050177,新規,0,2023-07-20,2023-07-20,株式会社Ｍｅｄｉｓｙｍ,,株式会社,宮城県,柴田郡柴田町,船岡新栄３丁目４３－９,,04,323,9891607,,,,,,,2023-07-20,1,,,,,メディシン,0
993,4370001050202,新規,0,2023-07-20,2023-07-20,アクアテック針生株式会社,,株式会社,宮城県,亘理郡亘理町,逢隈高屋字保原５４番地２,00131220,04,361,9892324,,,,,,,2023-07-20,1,,,,,アクアテックハリュウ,0
995,4370003006210,新規,0,2023-07-20,2023-07-20,合同会社ローカリズムジャパン,,合同会社,宮城県,仙台市若林区,荒井４丁目２６番地９号ＤＩＹＳＴＵＤＩＯ,,04,103,9840032,,,,,,,2023-07-20,1,,,,,ローカリズムジャパン,0
998,4380003005517,新規,0,2023-07-20,2023-07-20,白河をワクワクさせる合同会社,,合同会社,福島県,白河市,中田１４０番地,,07,205,9610053,,,,,,,2023-07-20,1,,,,,シラカワヲワクワクサセル,0
1004,4390003002125,新規,0,2023-07-20,2023-07-20,齋藤商事合同会社,,合同会社,山形県,鶴岡市,藤の花２丁目２２番地５８,,06,203,9997602,,,,,,,2023-07-20,1,,,,,サイトウショウジ,0
1009,4430003015262,新規,0,2023-07-20,2023-07-20,合同会社Ｓｏｕｎｄ．ｅｓｓ‐Ｓｙｓｔｅｍ,,合同会社,北海道,札幌市中央区,南八条西８丁目１０３２番地４４－６０３号,,01,101,0640808,,,,,,,2023-07-20,1,,,,,サウンドエスシステム,0
1019,5010001236678,新規,0,2023-07-20,2023-07-20,企業承継支援株式会社,,株式会社,東京都,千代田区,丸の内３丁目４番１号新国際ビル８階,,13,101,1000005,,,,,,,2023-07-20,1,,,,,キギョウショウケイシエン,0
1020,5010001236827,新規,0,2023-07-20,2023-07-20,オーエムシー株式会社,,株式会社,東京都,中央区,銀座１丁目１２番４号Ｎ＆Ｅ．ＢＬＤ．７Ｆ,,13,102,1040061,,,,,,,2023-07-20,1,,,,,オーエムシー,0
1021,5010001236892,新規,0,2023-07-20,2023-07-20,株式会社東京法令学院,,株式会社,東京都,千代田区,神田駿河台１丁目７番１０号,,13,101,1010062,,,,,,,2023-07-20,1,,,,,トウキョウホウレイガクイン,0
1022,5010001237024,新規,0,2023-07-20,2023-07-20,株式会社Ｎｏｓｔｒｏ　Ｈｏｌｄｉｎｇ,,株式会社,東京都,千代田区,大手町１丁目９番２号,,13,101,1000004,,,,,,,2023-07-20,1,,,,,ノストロホールディング,0
1023,5010001237049,新規,0,2023-07-20,2023-07-20,ｆｌａｐｓ株式会社,,株式会社,東京都,中央区,銀座１丁目２２番１１号銀座大竹ビジデンス２Ｆ,,13,102,1040061,,,,,,,2023-07-20,1,,,,,フラップス,0
1024,5010001237057,新規,0,2023-07-20,2023-07-20,ｉｍａ株式会社,,株式会社,東京都,中央区,八丁堀２丁目８番２号,,13,102,1040032,,,,,,,2023-07-20,1,,,,,アイエムエー,0
1025,5010003041093,新規,0,2023-07-20,2023-07-20,合同会社Ｐｉｘｃｅｌ　Ｐｉｃｔｕｒｅｓ,,合同会社,東京都,千代田区,岩本町１丁目８番６号,,13,101,1010032,,,,,,,2023-07-20,1,,,,,ピクセルピクチャーズ,0
1030,5010401175410,新規,0,2023-07-20,2023-07-20,株式会社ＳｔａｙＬｉｎｋ,,株式会社,東京都,港区,愛宕２丁目３番１号愛宕グリーンヒルズフォレストタワー２８０１,,13,103,1050002,,,,,,,2023-07-20,1,,,,,ステイリンク,0
1031,5010401175749,新規,0,2023-07-20,2023-07-20,株式会社フォゼット,,株式会社,東京都,港区,南青山２丁目２番１５号,,13,103,1070062,,,,,,,2023-07-20,1,,,,,フォゼット,0
1032,5010401175872,新規,0,2023-07-20,2023-07-20,株式会社ＦｕｎｋｒｏｗＤ,,株式会社,東京都,港区,北青山１丁目３番１号アールキューブ青山３階,,13,103,1070061,,,,,,,2023-07-20,1,,,,,ファンクラウド,0
1039,5010601063464,新規,0,2023-07-20,2023-07-20,株式会社ラング,,株式会社,東京都,江東区,豊洲３丁目６番８号３１１０号,,13,108,1350061,,,,,,,2023-07-20,1,,,,,ラング,0
1042,5010605004217,新規,0,2023-07-20,2023-07-20,一般社団法人Ｋａｉｇｏと日本語つむぎの会,,その他の設立登記法人,東京都,墨田区,立花５丁目２３番３号,,13,107,1310043,,,,,,,2023-07-20,1,,,,,カイゴトニホンゴツムギノカイ,0
1046,5010901053421,新規,0,2023-07-20,2023-07-20,株式会社Ｎｅｂｕｌａｌ,,株式会社,東京都,世田谷区,代沢１丁目２２番１号,,13,112,1550032,,,,,,,2023-07-20,1,,,,,ネビュラル,0
1054,5011001155785,新規,0,2023-07-20,2023-07-20,日本事業承継パートナーズ株式会社,,株式会社,東京都,目黒区,八雲４丁目１番１２号,,13,110,1520023,,,,,,,2023-07-20,1,,,,,ニホンジギョウショウケイパートナーズ,0
1055,5011001155793,新規,0,2023-07-20,2023-07-20,株式会社ＳＯＲＡ,,株式会社,東京都,渋谷区,笹塚２丁目４３番７号アペックス笹塚３０１,,13,113,1510073,,,,,,,2023-07-20,1,,,,,ソラ,0
1060,5011003017216,新規,0,2023-07-20,2023-07-20,合同会社ａｎｋｏ．ｓｔｙｌｅ,,合同会社,東京都,目黒区,東山２丁目１２－１６,,13,110,1530043,,,,,,,2023-07-20,1,,,,,アンコスタイル,0
1064,5011101103660,新規,0,2023-07-20,2023-07-20,株式会社ＯＲＣＡ　ＡＳＳＥＴ,,株式会社,東京都,新宿区,歌舞伎町２丁目６番１６号パレドール歌舞伎町第二３階３１４号室,,13,104,1600021,,,,,,,2023-07-20,1,,,,,オルカアセット,0
1065,5011101103669,新規,0,2023-07-20,2023-07-20,仁心医療株式会社,,株式会社,東京都,新宿区,西新宿３丁目３番１３号西新宿水間ビル６階,,13,104,1600023,,,,,,,2023-07-20,1,,,,,ジンシンイリョウ,0
1066,5011103013263,新規,0,2023-07-20,2023-07-20,合同会社Ｓ‐ＦＩＸ,,合同会社,東京都,新宿区,四谷４丁目６番地６ラピスコート四谷４０２,,13,104,1600004,,,,,,,2023-07-20,1,,,,,エスフィックス,0
1068,5011401025282,新規,0,2023-07-20,2023-07-20,株式会社ＮＥＴＸ,,株式会社,東京都,板橋区,常盤台２丁目１－１３ジョイフル常盤台第３,,13,119,1740071,,,,,,,2023-07-20,1,,,,,ネテックス,0
1071,5011601026989,新規,0,2023-07-20,2023-07-20,株式会社ＧＥＡＲ,,株式会社,東京都,練馬区,豊玉上２丁目５番７号ソレイユ桜台１階,,13,120,1760011,,,,,,,2023-07-20,1,,,,,ギア,0
1073,5011701026435,新規,0,2023-07-20,2023-07-20,尚友株式会社,,株式会社,東京都,江戸川区,松島２丁目３３－８－３０２,,13,123,1320031,,,,,,,2023-07-20,1,,,,,ナオトモ,0
1074,5012401040759,新規,0,2023-07-20,2023-07-20,シンロボサービス株式会社,,株式会社,東京都,三鷹市,上連雀１丁目１２番１７号,,13,204,1810012,,,,,,,2023-07-20,1,,,,,シンロボサービス,0
1080,5013301051061,新規,0,2023-07-20,2023-07-20,株式会社無限商社,,株式会社,東京都,豊島区,東池袋５丁目７番３号アゼリア東池袋４０１,,13,116,1700013,,,,,,,2023-07-20,1,,,,,ムゲンショウシャ,0
1081,5013301051078,新規,0,2023-07-20,2023-07-20,株式会社ＮＥＶＡＤＡ,,株式会社,東京都,豊島区,高田３丁目１４番２６号,,13,116,1710033,,,,,,,2023-07-20,1,,,,,ネバダ,0
1083,5013303006708,新規,0,2023-07-20,2023-07-20,合同会社ネクスト,,合同会社,東京都,豊島区,南大塚３丁目５０番１号ウィンド大塚ビル３Ｆ,,13,116,1700005,,,,,,,2023-07-20,1,,,,,ネクスト,0
1099,5040001129251,新規,0,2023-07-20,2023-07-20,株式会社ＴＫＹ,,株式会社,千葉県,市川市,行徳駅前２丁目８－１５,,12,203,2720133,,,,,,,2023-07-20,1,,,,,ティーケイワイ,0
1100,5040001129334,新規,0,2023-07-20,2023-07-20,株式会社自動化＆コンサルティング,,株式会社,千葉県,松戸市,新松戸５丁目３０,,12,207,2700034,,,,,,,2023-07-20,1,,,,,ジドウカアンドコンサルティング,0
1101,5040001129342,新規,0,2023-07-20,2023-07-20,株式会社Ｌｕｍｉｎｏｕｓ,,株式会社,千葉県,我孫子市,並木６丁目１３番１号,,12,222,2701165,,,,,,,2023-07-20,1,,,,,ルミナス,0
1102,5040003022982,新規,0,2023-07-20,2023-07-20,合同会社宮本電設,,合同会社,千葉県,船橋市,高根台６丁目１９番５号,,12,204,2740065,,,,,,,2023-07-20,1,,,,,ミヤモトデンセツ,0
1105,5050001053186,新規,0,2023-07-20,2023-07-20,株式会社Ｚ＆Ｋ,,株式会社,茨城県,北茨城市,大津町北町６０４番地１,,08,215,3191704,,,,,,,2023-07-20,1,,,,,ゼットアンドケー,0
1106,5050003007644,新規,0,2023-07-20,2023-07-20,ＫＡＮＴＯ　ＩＮＴＥＲＮＡＴＩＯＮＡＬ合同会社,,合同会社,茨城県,結城市,大字東茂呂１３３６番地１－（１）,,08,207,3070037,,,,,,,2023-07-20,1,,,,,カントウインターナショナル,0
1107,5050005013293,新規,0,2023-07-20,2023-07-20,一般社団法人誠心支援機構,,その他の設立登記法人,茨城県,稲敷郡阿見町,中央７丁目１１－１０,,08,443,3000332,,,,,,,2023-07-20,1,,,,,セイシンシエンキコウ,0
1113,5070003005035,新規,0,2023-07-20,2023-07-20,Ｎａ　Ｐｌａｎｎｉｎｇ合同会社,,合同会社,群馬県,みどり市,大間々町桐原４３４―９,,10,212,3760102,,,,,,,2023-07-20,1,,,,,エヌエープランニング,0
1115,5080001025736,新規,0,2023-07-20,2023-07-20,株式会社とこま,,株式会社,静岡県,静岡市葵区,伝馬町１番地の２ホテルシティオ静岡３Ｆ,,22,101,4200858,,,,,,,2023-07-20,1,,,,,トコマ,0
1120,5080403004833,新規,0,2023-07-20,2023-07-20,合同会社ＡＳＫ,,合同会社,静岡県,浜松市東区,中郡町１７９２番地の２２,,22,132,4313111,,,,,,,2023-07-20,1,,,,,エーエスケー,0
1123,5090001018219,新規,0,2023-07-20,2023-07-20,藤井寺株式会社,,株式会社,山梨県,北杜市,大泉町西井出２６８７番地,,19,209,4091501,,,,,,,2023-07-20,1,,,,,フジイデラ,0
1134,5120001256517,新規,0,2023-07-20,2023-07-20,株式会社Ｓ,,株式会社,大阪府,大阪市西区,靱本町１丁目１０番７－１８０３号,,27,106,5500004,,,,,,,2023-07-20,1,,,,,エス,0
1135,5120001256525,新規,0,2023-07-20,2023-07-20,株式会社ＬＯＵＶＲＥＤＯ＆Ｃｏ．,,株式会社,大阪府,大阪市淀川区,西中島６丁目７番９号Ｒｎビル,,27,123,5320011,,,,,,,2023-07-20,1,,,,,ルーヴルドーアンドコー,0
1136,5120001256582,新規,0,2023-07-20,2023-07-20,株式会社Ｋ１貿易,,株式会社,大阪府,大阪市中央区,島之内１丁目２１番２９号２Ｆ,,27,128,5420082,,,,,,,2023-07-20,1,,,,,ケイワンボウエキ,0
1137,5120001256608,新規,0,2023-07-20,2023-07-20,株式会社プライムウェブ,,株式会社,大阪府,大阪市中央区,本町４丁目４番１２号ラッキービル３０１,,27,128,5410053,,,,,,,2023-07-20,1,,,,,プライムウェブ,0
1138,5120003024525,新規,0,2023-07-20,2023-07-20,合同会社ｐｌａｎｋｔｏｎ,,合同会社,大阪府,大阪市天王寺区,上本町２丁目１番３３号プレステージ上町台３０１号,,27,109,5430001,,,,,,,2023-07-20,1,,,,,プランクトン,0
1141,5120101067913,新規,0,2023-07-20,2023-07-20,株式会社ケイプロスパー,,株式会社,大阪府,堺市北区,長曽根町１３０番地４２Ｒｅ：ＺＯＮＥ、Ｓ－Ｃｕｂｅ２０３－１,,27,146,5918025,,,,,,,2023-07-20,1,,,,,ケイプロスパー,0
1142,5130001074769,新規,0,2023-07-20,2023-07-20,株式会社ココン,,株式会社,京都府,京都市左京区,松ケ崎三反長町２９－１,,26,103,6060916,,,,,,,2023-07-20,1,,,,,ココン,0
1143,5130003008865,新規,0,2023-07-20,2023-07-20,合同会社瓢,,合同会社,京都府,京都市下京区,富永町３６１番地１３０２号,,26,106,6008023,,,,,,,2023-07-20,1,,,,,ヒョウ,0
1155,5180001157164,新規,0,2023-07-20,2023-07-20,株式会社マシンリペアリスト,,株式会社,愛知県,瀬戸市,進陶町１８番地の８,,23,204,4890058,,,,,,,2023-07-20,1,,,,,マシンリペアリスト,0
1156,5180001157189,新規,0,2023-07-20,2023-07-20,株式会社３０,,株式会社,愛知県,大府市,吉川町４丁目２３７番地の２９,,23,223,4740046,,,,,,,2023-07-20,1,,,,,サンマル,0
1164,5180301037586,新規,0,2023-07-20,2023-07-20,株式会社ＧＡＲＡＧＥ　ＣＲＡＦＴ　ＤＥＳＩＧＮ　ＷＯＲＫＳ,,株式会社,愛知県,岡崎市,井田新町７番地８,,23,202,4440069,,,,,,,2023-07-20,1,,,,,ガレージクラフトデザインワークス,0
1165,5180303005780,新規,0,2023-07-20,2023-07-20,合同会社ＡＯ,,合同会社,愛知県,豊田市,保見町井ノ口１番地１５,,23,211,4700344,,,,,,,2023-07-20,1,,,,,アオ,0
1178,5240001061847,新規,0,2023-07-20,2023-07-20,株式会社新内農園,,株式会社,広島県,神石郡神石高原町,上豊松８９６番地２,,34,545,7201702,,,,,,,2023-07-20,1,,,,,,0
1189,5260001038133,新規,0,2023-07-20,2023-07-20,株式会社藤森塗建,,株式会社,岡山県,倉敷市,北畝５丁目４－２２－Ｅ,,33,202,7128032,,,,,,,2023-07-20,1,,,,,フジモリトケン,0
1192,5290001102142,新規,0,2023-07-20,2023-07-20,ＪＲ九州建設グループホールディングス株式会社,,株式会社,福岡県,福岡市博多区,博多駅前３丁目８番１０号,,40,132,8120011,,,,,,,2023-07-20,1,,,,,ジェイアールキュウシュウケンセツグループホールディングス,0
1193,5290001102349,新規,0,2023-07-20,2023-07-20,株式会社ＢＵＳＨＯ,,株式会社,福岡県,久留米市,長門石５丁目５番２１号,,40,203,8300027,,,,,,,2023-07-20,1,,,,,ブショウ,0
1194,5290001102357,新規,0,2023-07-20,2023-07-20,株式会社ＳＩＮあかしや,,株式会社,福岡県,那珂川市,松原１番８－１１０１号,,40,231,8111215,,,,,,,2023-07-20,1,,,,,シンアカシヤ,0
1197,5290005019093,新規,0,2023-07-20,2023-07-20,ネオトップ税理士法人,,その他の設立登記法人,福岡県,福岡市中央区,大宮１丁目６－３都セントラルコーポ２ＦＣ,,40,133,8100013,,,,,,,2023-07-20,1,,,,,ネオトップ,0
1199,5290801029717,新規,0,2023-07-20,2023-07-20,ＡＢＢＡＳ　ＴＲＡＤＩＮＧ株式会社,,株式会社,福岡県,鞍手郡鞍手町,大字中山３９２３－２０７,,40,402,8071312,,,,,,,2023-07-20,1,,,,,アバストレーディング,0
1201,5300001013379,新規,0,2023-07-20,2023-07-20,株式会社陣内畜産,,株式会社,佐賀県,佐賀市,久保田町大字新田１４０４番地,,41,201,8490203,,,,,,,2023-07-20,1,,,,,ジンノウチチクサン,0
1202,5300001013395,新規,0,2023-07-20,2023-07-20,株式会社エステートＯＯＴＡ,,株式会社,佐賀県,唐津市,浜玉町横田下１０番地１５,,41,202,8495122,,,,,,,2023-07-20,1,,,,,エステートオオタ,0
1204,5330001031072,新規,0,2023-07-20,2023-07-20,株式会社Ｃａｌｌｂａｓｅ,,株式会社,熊本県,熊本市中央区,城東町２－１８求人案内通町ビル４Ｆ,,43,101,8600846,,,,,,,2023-07-20,1,,,,,コールベース,0
1206,5340001025734,新規,0,2023-07-20,2023-07-20,株式会社アグリマキナ,,株式会社,鹿児島県,奄美市,名瀬鳩浜町２４７番地,,46,222,8940004,,,,,,,2023-07-20,1,,,,,アグリマキナ,0
1220,5410003003821,新規,0,2023-07-20,2023-07-20,Ｔ＆Ｔファクトリー合同会社,,合同会社,秋田県,横手市,大雄字耳取西５１番地,,05,203,0130338,,,,,,,2023-07-20,1,,,,,ティアンドティファクトリー,0
1248,6010001236859,新規,0,2023-07-20,2023-07-20,新企画創業株式会社,,株式会社,東京都,中央区,日本橋箱崎町３０－１Ａ．Ｉ．ＮｉｈｏｍｂａｓｈｉＥａｓｔ，１Ｆ,,13,102,1030015,,,,,,,2023-07-20,1,,,,,シンキカクソウギョウ,0
1249,6010001236941,新規,0,2023-07-20,2023-07-20,株式会社ももやま,,株式会社,東京都,中央区,日本橋馬喰町１丁目３番１－６０３号,,13,102,1030002,,,,,,,2023-07-20,1,,,,,モモヤマ,0
1250,6010001237031,新規,0,2023-07-20,2023-07-20,株式会社ドットエム,,株式会社,東京都,中央区,銀座１丁目１２番４号Ｎ＆ＥＢＬＤ．７階,,13,102,1040061,,,,,,,2023-07-20,1,,,,,ドットエム,0
1251,6010001237048,新規,0,2023-07-20,2023-07-20,Ａｌｐｈａ　ＥＳＳ　Ｊａｐａｎ株式会社,,株式会社,東京都,中央区,築地５丁目４番１９号,,13,102,1040045,,,,,,,2023-07-20,1,,,,,アルファイーエスエスジャパン,0
1255,6010003041076,新規,0,2023-07-20,2023-07-20,ａｃａｌｌｉ合同会社,,合同会社,東京都,中央区,晴海１丁目６番１－４３０５号,,13,102,1040053,,,,,,,2023-07-20,1,,,,,アカリ,0
1256,6010005036966,新規,0,2023-07-20,2023-07-20,一般社団法人日本色気研究所,,その他の設立登記法人,東京都,中央区,日本橋兜町１７－２兜町第６葉山ビル４階,,13,102,1030026,,,,,,,2023-07-20,1,,,,,ニホンイロケケンキュウジョ,0
1259,6010401175764,新規,0,2023-07-20,2023-07-20,株式会社ＲＡＳ,,株式会社,東京都,港区,港南３丁目５番１５－１５０４号,,13,103,1080075,,,,,,,2023-07-20,1,,,,,ラス,0
1260,6010401175863,新規,0,2023-07-20,2023-07-20,株式会社Ｒｉｎｏｌａ,,株式会社,東京都,港区,南青山３丁目１番３６号青山丸竹ビル６Ｆ,,13,103,1070062,,,,,,,2023-07-20,1,,,,,リノラ,0
1263,6010501050792,新規,0,2023-07-20,2023-07-20,株式会社ガルリベ,,株式会社,東京都,台東区,元浅草１丁目６番１２号,,13,106,1110041,,,,,,,2023-07-20,1,,,,,ガルリベ,0
1267,6010601063455,新規,0,2023-07-20,2023-07-20,株式会社コミュニケーションサービス,,株式会社,東京都,江東区,東砂７丁目２－１１,,13,108,1360074,,,,,,,2023-07-20,1,,,,,コミュニケーションサービス,0
1273,6010801034173,新規,0,2023-07-20,2023-07-20,天愛株式会社,,株式会社,東京都,大田区,蒲田４丁目４３番１０－１２０１号,,13,111,1440052,,,,,,,2023-07-20,1,,,,,テンアイ,0
1277,6010903008323,新規,0,2023-07-20,2023-07-20,たくみキャピタル合同会社,,合同会社,東京都,世田谷区,羽根木１丁目１５番６号,,13,112,1560042,,,,,,,2023-07-20,1,,,,,タクミキャピタル,0
1292,6011101103643,新規,0,2023-07-20,2023-07-20,株式会社ＣＴＦ,,株式会社,東京都,新宿区,新宿１丁目３４－８ＴＨＥＫＩＮＤＡＩ１５ＳＨＩＮＪＵＫＵ７Ｆ,,13,104,1600022,,,,,,,2023-07-20,1,,,,,シーティーエフ,0
1293,6011101103668,新規,0,2023-07-20,2023-07-20,株式会社ＤＯＲＥ,,株式会社,東京都,新宿区,南元町４番地１７信濃町ハイム７０３,,13,104,1600012,,,,,,,2023-07-20,1,,,,,ドレ,0
1297,6011601026996,新規,0,2023-07-20,2023-07-20,株式会社ヒルトップジャパン,,株式会社,東京都,練馬区,石神井町３丁目２７番１７－５０１号,,13,120,1770041,,,,,,,2023-07-20,1,,,,,ヒルトップジャパン,0
1304,6011701026434,新規,0,2023-07-20,2023-07-20,ＣＬＣ株式会社,,株式会社,東京都,江戸川区,西葛西６丁目１５－１５ミューズ西葛西９０１,,13,123,1340088,,,,,,,2023-07-20,1,,,,,シーエルシー,0
1306,6011703003539,新規,0,2023-07-20,2023-07-20,合同会社ＲＥＱＵＬ,,合同会社,東京都,江戸川区,瑞江２丁目５－３グレイス瑞江２Ｆ,,13,123,1320011,,,,,,,2023-07-20,1,,,,,リクール,0
1308,6011801042744,新規,0,2023-07-20,2023-07-20,株式会社ＦＥＬＩＺ　ＶＩＤＡ,,株式会社,東京都,葛飾区,新小岩２丁目２８番１号,,13,122,1240024,,,,,,,2023-07-20,1,,,,,フェリスヴィーダ,0
1310,6011803005749,新規,0,2023-07-20,2023-07-20,合同会社Ｏｎｅ,,合同会社,東京都,足立区,中央本町４丁目１７番２号,,13,121,1210011,,,,,,,2023-07-20,1,,,,,,0
1323,6020003024229,新規,0,2023-07-20,2023-07-20,合同会社ラック,,合同会社,神奈川県,川崎市宮前区,宮崎２丁目６－１０宮崎台ガーデンオフィス４０２号室,,14,136,2160033,,,,,,,2023-07-20,1,,,,,ラック,0
1343,6030001154902,新規,0,2023-07-20,2023-07-20,株式会社ナノクロ,,株式会社,埼玉県,川口市,大字榛松１８２２番地の１２,,11,203,3340062,,,,,,,2023-07-20,1,,,,,ナノクロ,0
1346,6040001129234,新規,0,2023-07-20,2023-07-20,ＭＥＤＩ株式会社,,株式会社,千葉県,柏市,若葉１７８番地４柏の葉キャンパス１４８街区２ショップ＆オフィス棟６階,,12,217,2770000,,,,,,,2023-07-20,1,,,,,メディ,0
1347,6040001129300,新規,0,2023-07-20,2023-07-20,株式会社市川サッカークラブ,,株式会社,千葉県,市川市,東菅野１丁目１６番２４号,,12,203,2720823,,,,,,,2023-07-20,1,,,,,イチカワサッカークラブ,0
1348,6040001129325,新規,0,2023-07-20,2023-07-20,株式会社ＮＯＲＩ,,株式会社,千葉県,千葉市中央区,長洲１丁目２４番１号エスカイア本千葉第一２０６号室,,12,101,2600854,,,,,,,2023-07-20,1,,,,,ノリ,0
1350,6050001053169,新規,0,2023-07-20,2023-07-20,株式会社ブリッジ,,株式会社,茨城県,牛久市,上柏田２丁目１５番地７,,08,219,3001232,,,,,,,2023-07-20,1,,,,,ブリッジ,0
1351,6050001053177,新規,0,2023-07-20,2023-07-20,株式会社樹森興業,,株式会社,茨城県,取手市,桜が丘２丁目４２番１号,,08,217,3001525,,,,,,,2023-07-20,1,,,,,ジュシンコウギョウ,0
1361,6070005010148,新規,0,2023-07-20,2023-07-20,一般社団法人ぐんまドローン産業安全運用協会,,その他の設立登記法人,群馬県,前橋市,高井町１丁目２９番地２１,,10,201,3710857,,,,,,,2023-07-20,1,,,,,グンマドローンサンギョウアンゼンウンヨウキョウカイ,0
1376,6120001256482,新規,0,2023-07-20,2023-07-20,株式会社成空設,,株式会社,大阪府,大阪市浪速区,幸町１丁目３番２９－４０２号,,27,111,5560021,,,,,,,2023-07-20,1,,,,,ナリクウセツ,0
1377,6120001256557,新規,0,2023-07-20,2023-07-20,株式会社ＩＮＮＵＯＶＯジャパン,,株式会社,大阪府,大阪市淀川区,西宮原１丁目８番１０号,,27,123,5320004,,,,,,,2023-07-20,1,,,,,イノーボジャパン,0
1378,6120001256598,新規,0,2023-07-20,2023-07-20,株式会社シーユー・トピア,,株式会社,大阪府,大阪市北区,梅田２丁目２－２ヒルトンプラザウエスト１９階,,27,127,5300001,,,,,,,2023-07-20,1,,,,,シーユートピア,0
1379,6120001256607,新規,0,2023-07-20,2023-07-20,コーラル株式会社,,株式会社,大阪府,大阪市東成区,東小橋１丁目１１番３０号,,27,115,5370024,,,,,,,2023-07-20,1,,,,,コーラル,0
1388,6130001074751,新規,0,2023-07-20,2023-07-20,株式会社Ｂｏｎｂｏｎ,,株式会社,京都府,京都市山科区,椥辻草海道町３６－２２２,,26,110,6078162,,,,,,,2023-07-20,1,,,,,ボンボン,0
1389,6130001074768,新規,0,2023-07-20,2023-07-20,株式会社フォードッツ,,株式会社,京都府,亀岡市,西つつじケ丘霧島台２丁目６番３号,,26,206,6210844,,,,,,,2023-07-20,1,,,,,フォードッツ,0
1391,6130003008864,新規,0,2023-07-20,2023-07-20,合同会社ロン,,合同会社,京都府,京都市下京区,高辻大宮町１２３番地モンテベルデ壬生１Ｆ森林堂,,26,106,6000000,,,,,,,2023-07-20,1,,,,,ロン,0
1394,6140001130909,新規,0,2023-07-20,2023-07-20,株式会社Ｙ２ｈｏｍｅ,,株式会社,兵庫県,西宮市,上大市１丁目１０番９号２Ｆ,,28,204,6638003,,,,,,,2023-07-20,1,,,,,ワイツーホーム,0
1395,6140003019316,新規,0,2023-07-20,2023-07-20,合同会社板倉,,合同会社,兵庫県,明石市,太寺３丁目４番２０号,,28,203,6730845,,,,,,,2023-07-20,1,,,,,イタクラ,0
1397,6160003002930,新規,0,2023-07-20,2023-07-20,ｇｏｋｋｅ合同会社,,合同会社,滋賀県,彦根市,小泉町３１０－１６,,25,202,5220043,,,,,,,2023-07-20,1,,,,,ゴッケ,0
1401,6180001157155,新規,0,2023-07-20,2023-07-20,株式会社小栗ピッグファーム,,株式会社,愛知県,半田市,十一号地１８番２８,,23,205,4750831,,,,,,,2023-07-20,1,,,,,オグリピッグファーム,0
1402,6180001157221,新規,0,2023-07-20,2023-07-20,株式会社ＡＨＫ,,株式会社,愛知県,名古屋市東区,橦木町３丁目３０番地,,23,102,4610014,,,,,,,2023-07-20,1,,,,,エーエイチケー,0
1404,6180003025509,新規,0,2023-07-20,2023-07-20,合同会社Ｍｓ,,合同会社,愛知県,名古屋市中区,新栄１丁目２７番２５号ファーストレジデンス栄６０５号,,23,106,4600007,,,,,,,2023-07-20,1,,,,,エムエス,0
1405,6180301037585,新規,0,2023-07-20,2023-07-20,株式会社Ａｚｕｍａグループ,,株式会社,愛知県,刈谷市,神田町３丁目３６番地,,23,210,4480851,,,,,,,2023-07-20,1,,,,,アズマグループ,0
1409,6200001041513,新規,0,2023-07-20,2023-07-20,株式会社ＨＢ,,株式会社,岐阜県,各務原市,各務おがせ町９丁目５９番地１,,21,213,5090104,,,,,,,2023-07-20,1,,,,,エイチビー,0
1415,6210005010100,新規,0,2023-07-20,2023-07-20,ＮＰＯ法人越前ふくし応援団,,その他の設立登記法人,福井県,越前市,府中１丁目１１番２号市民プラザたけふ３階,,18,209,9150071,,,,,,,2023-07-20,1,,,,,エチゼンフクシオウエンダン,0
1418,6240001061846,新規,0,2023-07-20,2023-07-20,ＣＯＰＲＯＳ株式会社,,株式会社,広島県,広島市安佐南区,中須１丁目１番１４号,,34,105,7310121,,,,,,,2023-07-20,1,,,,,コプロス,0
1424,6240005015617,新規,0,2023-07-20,2023-07-20,一般社団法人広島県福山地方露店商組合,,その他の設立登記法人,広島県,福山市,幕山台２丁目６番２１号,,34,207,7210913,,,,,,,2023-07-20,1,,,,,ヒロシマケンフクヤマチホウロテンショウクミアイ,0
1426,6260005011250,新規,0,2023-07-20,2023-07-20,一般社団法人地域ＤＸ支援センター,,その他の設立登記法人,岡山県,岡山市北区,中山下１丁目１１番１５号新田第１ビル４０２,,33,101,7000821,,,,,,,2023-07-20,1,,,,,チイキディーエックスシエンセンター,0
1430,6290001102364,新規,0,2023-07-20,2023-07-20,株式会社ＯＮＥ,,株式会社,福岡県,福岡市博多区,青木１丁目６番１９号,,40,132,8120851,,,,,,,2023-07-20,1,,,,,ワン,0
1434,6290005019092,新規,0,2023-07-20,2023-07-20,一般社団法人女性と子どものエンパワメント研究所,,その他の設立登記法人,福岡県,久留米市,諏訪野町１８１０番地６パステル１２－２０６号,,40,203,8300037,,,,,,,2023-07-20,1,,,,,ジョセイトコドモノエンパワメントケンキュウショ,0
1438,6300001013378,新規,0,2023-07-20,2023-07-20,株式会社ＫＩＫＵＫＡ,,株式会社,佐賀県,三養基郡基山町,大字長野９９１番地２１,,41,341,8410202,,,,,,,2023-07-20,1,,,,,キクカ,0
1443,6330001031047,新規,0,2023-07-20,2023-07-20,天草グリーンサービス株式会社,,株式会社,熊本県,天草市,亀場町亀川１５１５番地１九州テクニカルメンテナンス株式会社天草支店内,,43,215,8630043,,,,,,,2023-07-20,1,,,,,アマクサグリーンサービス,0
1444,6340001025733,新規,0,2023-07-20,2023-07-20,株式会社モエノバ,,株式会社,鹿児島県,肝属郡南大隅町,根占辺田１１８３番地,,46,491,8932505,,,,,,,2023-07-20,1,,,,,モエノバ,0
1445,6340001025741,新規,0,2023-07-20,2023-07-20,藤原産業株式会社,,株式会社,鹿児島県,薩摩郡さつま町,宮之城屋地２４３５番地１,,46,392,8951803,,,,,,,2023-07-20,1,,,,,フジワラサンギョウ,0
1452,6370001050191,新規,0,2023-07-20,2023-07-20,Ｄｅａｒ　Ｇｒｅｅｎ株式会社,,株式会社,宮城県,岩沼市,土ケ崎４丁目１２番４０ー３号,,04,211,9892451,,,,,,,2023-07-20,1,,,,,ディアグリーン,0
1459,6410001013549,新規,0,2023-07-20,2023-07-20,株式会社Ａｖａｎｃｅ,,株式会社,秋田県,秋田市,広面字谷地沖１番地３,,05,201,0100041,,,,,,,2023-07-20,1,,,,,エヴァンス,0
1461,6420001018340,新規,0,2023-07-20,2023-07-20,株式会社ルピナス地建,,株式会社,青森県,五所川原市,大字唐笠柳字藤巻２５１番地１１,,02,205,0370004,,,,,,,2023-07-20,1,,,,,ルピナスチケン,0
1466,6470001019706,新規,0,2023-07-20,2023-07-20,株式会社ピボット,,株式会社,香川県,観音寺市,豊浜町和田甲１１９２番地１道溝団地１棟３０２号,,37,205,7691603,,,,,,,2023-07-20,1,,,,,ピボット,0
1468,6500002024494,新規,0,2023-07-20,2023-07-20,有限会社山下不動産,,有限会社,愛媛県,今治市,宮下町１丁目６番６号,,38,202,7940052,,,,,,,2023-07-20,1,,,,,,0
1488,7010001236957,新規,0,2023-07-20,2023-07-20,株式会社セビック,,株式会社,東京都,中央区,日本橋人形町２丁目１５番１５号,,13,102,1030013,,,,,,,2023-07-20,1,,,,,セビック,0
1489,7010001236965,新規,0,2023-07-20,2023-07-20,株式会社ＳＫ　ＮＥＸＴ,,株式会社,東京都,中央区,日本橋本石町３丁目２番７号,,13,102,1030021,,,,,,,2023-07-20,1,,,,,エスケーネクスト,0
1490,7010001237030,新規,0,2023-07-20,2023-07-20,株式会社ＧＫＴＴ,,株式会社,東京都,千代田区,岩本町１丁目４番１－８０２,,13,101,1010032,,,,,,,2023-07-20,1,,,,,ジーケーティーティー,0
1491,7010001237047,新規,0,2023-07-20,2023-07-20,株式会社ブライトインフィニティ,,株式会社,東京都,中央区,銀座１丁目２２番１１号銀座大竹ビジデンス２Ｆ,,13,102,1040061,,,,,,,2023-07-20,1,,,,,ブライトインフィニティ,0
1492,7010003041133,新規,0,2023-07-20,2023-07-20,合同会社中村アートプロジェクト研究所,,合同会社,東京都,千代田区,神田小川町２丁目４番地、優美堂,,13,101,1010052,,,,,,,2023-07-20,1,,,,,ナカムラアートプロジェクトケンキュウジョ,0
1493,7010003041158,新規,0,2023-07-20,2023-07-20,合同会社ＧＨプロパティ２,,合同会社,東京都,千代田区,神田錦町１丁目２１番１号,,13,101,1010054,,,,,,,2023-07-20,1,,,,,ジーエイチプロパティツー,0
1501,7010403030545,新規,0,2023-07-20,2023-07-20,新三郷合同会社,,合同会社,東京都,港区,海岸１丁目１番１－２０１６号,,13,103,1050022,,,,,,,2023-07-20,1,,,,,シンミサト,0
1505,7010601063470,新規,0,2023-07-20,2023-07-20,株式会社キャプティエンジニアリング,,株式会社,東京都,墨田区,堤通１丁目１９番９号,,13,107,1310034,,,,,,,2023-07-20,1,,,,,キャプティエンジニアリング,0
1510,7010801034164,新規,0,2023-07-20,2023-07-20,葵興業株式会社,,株式会社,東京都,大田区,新蒲田３丁目１８番１－３０６号,,13,111,1440054,,,,,,,2023-07-20,1,,,,,アオイコウギョウ,0
1513,7010901053469,新規,0,2023-07-20,2023-07-20,株式会社アクシオス,,株式会社,東京都,世田谷区,経堂３丁目３１番１４－２０２号,,13,112,1560052,,,,,,,2023-07-20,1,,,,,アクシオス,0
1520,7011003017206,新規,0,2023-07-20,2023-07-20,トライン合同会社,,合同会社,東京都,渋谷区,渋谷２丁目１９－１５宮益坂ビルディング６０９,,13,113,1500002,,,,,,,2023-07-20,1,,,,,,0
1528,7011101103642,新規,0,2023-07-20,2023-07-20,剣橋通商株式会社,,株式会社,東京都,新宿区,余丁町１４番４－２０３号,,13,104,1620055,,,,,,,2023-07-20,1,,,,,ケンブリッジツウショウ,0
1529,7011101103691,新規,0,2023-07-20,2023-07-20,株式会社アドリバー,,株式会社,東京都,新宿区,西新宿３丁目３番１３号西新宿水間ビル２Ｆ,,13,104,1600023,,,,,,,2023-07-20,1,,,,,アドリバー,0
1533,7011601026995,新規,0,2023-07-20,2023-07-20,ＫＡＮＹＯＵ株式会社,,株式会社,東京都,練馬区,錦２丁目１８番１５号,,13,120,1790082,,,,,,,2023-07-20,1,,,,,カンヨウ,0
1534,7011701026441,新規,0,2023-07-20,2023-07-20,日和株式会社,,株式会社,東京都,江戸川区,北小岩６丁目１７番５号２階,,13,123,1330051,,,,,,,2023-07-20,1,,,,,ニチワ,0
1535,7011801042743,新規,0,2023-07-20,2023-07-20,ＹＴＴホールディングス株式会社,,株式会社,東京都,足立区,鹿浜５丁目５番４号,,13,121,1230864,,,,,,,2023-07-20,1,,,,,ワイティティホールディングス,0
1542,7012801022520,新規,0,2023-07-20,2023-07-20,株式会社ＫＥＹアカデミー社,,株式会社,東京都,国分寺市,光町２丁目１－３７－１０４,,13,214,1850034,,,,,,,2023-07-20,1,,,,,キーアカデミーシャ,0
1551,7013301051068,新規,0,2023-07-20,2023-07-20,株式会社ｔｒｅｃ,,株式会社,東京都,豊島区,巣鴨１丁目２２番２号ウィステリア１０１,,13,116,1700002,,,,,,,2023-07-20,1,,,,,トレック,0
1552,7013303006714,新規,0,2023-07-20,2023-07-20,三水倉合同会社,,合同会社,東京都,豊島区,西池袋１丁目３１－５白井ビル３－０３号室,,13,116,1710021,,,,,,,2023-07-20,1,,,,,サンスイソウ,0
1557,7020001152410,新規,0,2023-07-20,2023-07-20,株式会社ダズル,,株式会社,神奈川県,横浜市青葉区,たちばな台２丁目２５番地４パレーたちばな第８‐２０５,,14,117,2270046,,,,,,,2023-07-20,1,,,,,ダズル,0
1562,7021001079651,新規,0,2023-07-20,2023-07-20,ＫＯＯＬ　Ｂｅａｎｓ株式会社,,株式会社,神奈川県,相模原市緑区,与瀬６９６ミサワコーポレートハウス２０５,,14,151,2520171,,,,,,,2023-07-20,1,,,,,クールビーンズ,0
1565,7021003013336,新規,0,2023-07-20,2023-07-20,合同会社コーリング,,合同会社,神奈川県,平塚市,明石町２３番３４－２号,,14,203,2540042,,,,,,,2023-07-20,1,,,,,コーリング,0
1579,7040001129332,新規,0,2023-07-20,2023-07-20,株式会社エクセレントカインド,,株式会社,千葉県,香取郡多古町,川島２３６番地,,12,347,2892324,,,,,,,2023-07-20,1,,,,,エクセレントカインド,0
1580,7040001129340,新規,0,2023-07-20,2023-07-20,株式会社ＡＬＴＡＫＥ,,株式会社,千葉県,茂原市,千代田町２丁目２番地８－４０１号,,12,210,2970023,,,,,,,2023-07-20,1,,,,,アルテイク,0
1584,7050003007659,新規,0,2023-07-20,2023-07-20,合同会社ソンニャーレ,,合同会社,茨城県,水戸市,袴塚１丁目５－１８Ｂ棟,,08,201,3100055,,,,,,,2023-07-20,1,,,,,ソンニャーレ,0
1598,7100003007117,新規,0,2023-07-20,2023-07-20,サードグローブ合同会社,,合同会社,長野県,東筑摩郡生坂村,５４７０番地１,,20,448,3997201,,,,,,,2023-07-20,1,,,,,サードグローブ,0
1600,7110005016973,新規,0,2023-07-20,2023-07-20,一般社団法人フードエイド・ラボ,,その他の設立登記法人,新潟県,新潟市西区,真砂４丁目６番１６号３,,15,107,9502074,,,,,,,2023-07-20,1,,,,,フードエイドラボ,0
1608,7120001256523,新規,0,2023-07-20,2023-07-20,株式会社Ｈ＆Ｗ,,株式会社,大阪府,大阪市北区,梅田１丁目２－２大阪駅前第２ビル１２－１２,,27,127,5300001,,,,,,,2023-07-20,1,,,,,エイチアンドダブリュー,0
1609,7120001256556,新規,0,2023-07-20,2023-07-20,株式会社ＴＯＳＰＯジャパン,,株式会社,大阪府,大阪市淀川区,西宮原１丁目８番１０号,,27,123,5320004,,,,,,,2023-07-20,1,,,,,トスポジャパン,0
1610,7120001256564,新規,0,2023-07-20,2023-07-20,ＡＳＫ株式会社,,株式会社,大阪府,大阪市東成区,深江北３丁目４番２１号エクラ深江橋４１０Ａ,,27,115,5370001,,,,,,,2023-07-20,1,,,,,エィエスケェィ,0
1611,7120001256606,新規,0,2023-07-20,2023-07-20,株式会社ＲＥＦＩＮＥ,,株式会社,大阪府,大阪市浪速区,稲荷２丁目１番２３－５１０号,,27,111,5560023,,,,,,,2023-07-20,1,,,,,リファイン,0
1612,7120001256614,新規,0,2023-07-20,2023-07-20,株式会社ＮＲスタイル,,株式会社,大阪府,大阪市中央区,久太郎町１丁目２番１６－７０６号,,27,128,5410056,,,,,,,2023-07-20,1,,,,,エヌアールスタイル,0
1613,7120001256622,新規,0,2023-07-20,2023-07-20,株式会社ＦｏｒｗａｒｄＢｌｏｏｍ,,株式会社,大阪府,大阪市北区,梅田１丁目１－３大阪駅前第３ビル２９階１－１－１号室,,27,127,5300001,,,,,,,2023-07-20,1,,,,,フォワードブルーム,0
1625,7130001074775,新規,0,2023-07-20,2023-07-20,京都プロジェット株式会社,,株式会社,京都府,京都市下京区,松原通麩屋町東入石不動之町６９２番地２ＬａｑｕｏｈＣｏｍｐｌｅｘレジデンス２０１号,,26,106,6008047,,,,,,,2023-07-20,1,,,,,キョウトプロジェット,0
1639,7150001026551,新規,0,2023-07-20,2023-07-20,株式会社ＡＭＨ,,株式会社,奈良県,橿原市,雲梯町８８,,29,205,6340834,,,,,,,2023-07-20,1,,,,,エーエムエイチ,0
1649,7180001157212,新規,0,2023-07-20,2023-07-20,あすらぼ株式会社,,株式会社,愛知県,名古屋市東区,矢田東２－２３矢田ビル２階,,23,102,4610044,,,,,,,2023-07-20,1,,,,,アスラボ,0
1650,7180001157220,新規,0,2023-07-20,2023-07-20,株式会社ＡＩＤｂａｓｅ,,株式会社,愛知県,名古屋市千種区,汁谷町１１番地リーデンススクエア茶屋ヶ坂３０７号,,23,101,4640013,,,,,,,2023-07-20,1,,,,,エイドベース,0
1651,7180001157229,新規,0,2023-07-20,2023-07-20,株式会社Ｋａｎｕｒｅ,,株式会社,愛知県,あま市,七宝町下之森郷西３５－１７,,23,237,4970006,,,,,,,2023-07-20,1,,,,,カヌレ,0
1656,7200001041512,新規,0,2023-07-20,2023-07-20,株式会社グレイス,,株式会社,岐阜県,安八郡安八町,牧３６８２番地の３,,21,383,5030125,,,,,,,2023-07-20,1,,,,,グレイス,0
1661,7230005009321,新規,0,2023-07-20,2023-07-20,一般社団法人Ｈｏｎｅｙ＆Ｃｏｔｔｏｎ,,その他の設立登記法人,富山県,南砺市,城端１００番地３,,16,210,9391861,,,,,,,2023-07-20,1,,,,,ハニーアンドコットン,0
1665,7240003006229,新規,0,2023-07-20,2023-07-20,合同会社ＳＴパートナーズ,,合同会社,広島県,三次市,三次町１９８３番地,,34,209,7280021,,,,,,,2023-07-20,1,,,,,エスティーパートナーズ,0
1671,7240005015616,新規,0,2023-07-20,2023-07-20,一般社団法人オレンジ,,その他の設立登記法人,広島県,広島市西区,南観音７丁目１３番２６号,,34,104,7330035,,,,,,,2023-07-20,1,,,,,オレンジ,0
1675,7250001020172,新規,0,2023-07-20,2023-07-20,株式会社Ｃ＆Ｃ,,株式会社,山口県,山口市,湯田温泉１丁目７番２２号アキモトテナントビル１のＤ,,35,203,7530056,,,,,,,2023-07-20,1,,,,,シーアンドシー,0
1685,7290001102330,新規,0,2023-07-20,2023-07-20,エンホープ株式会社,,株式会社,福岡県,柳川市,三橋町吉開６９１番地５,,40,207,8320802,,,,,,,2023-07-20,1,,,,,エンホープ,0
1686,7290001102339,新規,0,2023-07-20,2023-07-20,株式会社Ｙ’ｓ工房,,株式会社,福岡県,福岡市早良区,曙１丁目１１番１１－４０１号アーベインルネス曙,,40,137,8140004,,,,,,,2023-07-20,1,,,,,ワイズコウボウ,0
1690,7290003014144,新規,0,2023-07-20,2023-07-20,合同会社ＴＳＫ,,合同会社,福岡県,糟屋郡志免町,桜丘３丁目１９番１１号,,40,343,8112201,,,,,,,2023-07-20,1,,,,,ティーエスケー,0
1694,7290005019091,新規,0,2023-07-20,2023-07-20,社会保険労務士法人Ｋｎｏｗｌｅｄｇｅ　Ｗｏｒｋｓ,,その他の設立登記法人,福岡県,福岡市博多区,祇園町８－１３第１プリンスビル１階,,40,132,8120038,,,,,,,2023-07-20,1,,,,,ナレッジワークス,0
1695,7300001013377,新規,0,2023-07-20,2023-07-20,株式会社ながまつ,,株式会社,佐賀県,佐賀市,大和町大字久池井１５４１番地８６,,41,201,8400202,,,,,,,2023-07-20,1,,,,,ナガマツ,0
1713,7370003006208,新規,0,2023-07-20,2023-07-20,合同会社ショウケン工業,,合同会社,宮城県,仙台市泉区,南光台７丁目３５番１８号Ｍａｒｑｕｅ－ｐａｇｅ１０３,,04,105,9818003,,,,,,,2023-07-20,1,,,,,ショウケンコウギョウ,0
1734,7430001089520,新規,0,2023-07-20,2023-07-20,どうグル株式会社,,株式会社,北海道,小樽市,富岡１丁目１３番２０－３０７号チェリーハウスＩＩ,00131219,01,203,0470033,,,,,,,2023-07-20,1,,,,,ドウグル,0
1737,7470003002460,新規,0,2023-07-20,2023-07-20,合同会社みち,,合同会社,香川県,坂出市,林田町１６８０番地１,,37,203,7620012,,,,,,,2023-07-20,1,,,,,ミチ,0
1746,8010001236956,新規,0,2023-07-20,2023-07-20,株式会社やまなしゲームス,,株式会社,東京都,千代田区,平河町１丁目６番１５号,,13,101,1020093,,,,,,,2023-07-20,1,,,,,ヤマナシゲームス,0
1747,8010001236980,新規,0,2023-07-20,2023-07-20,株式会社風凜,,株式会社,東京都,中央区,銀座１丁目１２番４号Ｎ＆ＥＢＬＤ．７階,,13,102,1040061,,,,,,,2023-07-20,1,,,,,フウリン,0
1748,8010001237013,新規,0,2023-07-20,2023-07-20,株式会社キンマニ,,株式会社,東京都,千代田区,神田佐久間町３丁目２１番５号ヒガシカンダビル３０７号,,13,101,1010025,,,,,,,2023-07-20,1,,,,,キンマニ,0
1749,8010001237046,新規,0,2023-07-20,2023-07-20,バイオテクノーム・コンサルティング株式会社,,株式会社,東京都,中央区,銀座７丁目１３番２１号銀座ｓｉｎｒｏｋｕｓｙｕビル２階,,13,102,1040061,,,,,,,2023-07-20,1,,,,,バイオテクノームコンサルティング,0
1750,8010001237054,新規,0,2023-07-20,2023-07-20,株式会社ｂｅｙｏｎｄ　Ｆｒａｍｅｓ,,株式会社,東京都,千代田区,神田鍛冶町３丁目５－１５第五古川ビル２０４,,13,101,1010045,,,,,,,2023-07-20,1,,,,,ビヨンドフレームス,0
1755,8010101015723,新規,0,2023-07-20,2023-07-20,株式会社ココロヒカリ,,株式会社,東京都,八王子市,東中野１０６０番地１０１東山６５－８,,13,201,1920351,,,,,,,2023-07-20,1,,,,,ココロヒカリ,0
1758,8010401175754,新規,0,2023-07-20,2023-07-20,株式会社ＷＰＳ,,株式会社,東京都,港区,海岸１丁目９番１５－２２０１号,,13,103,1050022,,,,,,,2023-07-20,1,,,,,ダブリューピーエス,0
1759,8010401175804,新規,0,2023-07-20,2023-07-20,株式会社Ｍｉｌｌｙ,,株式会社,東京都,港区,芝浦１丁目９番４－８０７号,,13,103,1050023,,,,,,,2023-07-20,1,,,,,ミリー,0
1761,8010403030552,新規,0,2023-07-20,2023-07-20,合同会社横浜新杉田ロジ,,合同会社,東京都,港区,元赤坂１丁目１番８号株式会社赤坂国際会計内,,13,103,1070051,,,,,,,2023-07-20,1,,,,,ヨコハマシンスギタロジ,0
1765,8010601063453,新規,0,2023-07-20,2023-07-20,株式会社ゲーミフィケーション,,株式会社,東京都,江東区,有明３丁目７番１１号有明パークビル２０Ｆ,,13,108,1350063,,,,,,,2023-07-20,1,,,,,ゲーミフィケーション,0
1766,8010605004214,新規,0,2023-07-20,2023-07-20,一般社団法人ののにわこどもスペース,,その他の設立登記法人,東京都,江東区,門前仲町１丁目１２－４－１階,,13,108,1350048,,,,,,,2023-07-20,1,,,,,ノノニワコドモスペース,0
1778,8011001155717,新規,0,2023-07-20,2023-07-20,株式会社ｏｐｔｉｍａ,,株式会社,東京都,渋谷区,代々木４丁目５９－３－８０１,,13,113,1510053,,,,,,,2023-07-20,1,,,,,オプティマ,0
1783,8011003017196,新規,0,2023-07-20,2023-07-20,トリプル合同会社,,合同会社,東京都,渋谷区,道玄坂１丁目１０番８号渋谷道玄坂東急ビル２Ｆ－Ｃ,,13,113,1500043,,,,,,,2023-07-20,1,,,,,トリプル,0
1787,8011101103658,新規,0,2023-07-20,2023-07-20,丸五株式会社,,株式会社,東京都,新宿区,原町２丁目５番地ＫＥＮ２１ビル４階,,13,104,1620053,,,,,,,2023-07-20,1,,,,,マルゴ,0
1788,8011101103666,新規,0,2023-07-20,2023-07-20,株式会社ＴｏｋｙｏＤａｙｓ,,株式会社,東京都,新宿区,新宿５丁目２番１号,,13,104,1600022,,,,,,,2023-07-20,1,,,,,トウキョウデイズ,0
1791,8011103013260,新規,0,2023-07-20,2023-07-20,ＨＯシステム合同会社,,合同会社,東京都,新宿区,西新宿３丁目３番１３号西新宿水間ビル２Ｆ,,13,104,1600023,,,,,,,2023-07-20,1,,,,,エイチオーシステム,0
1795,8011401025296,新規,0,2023-07-20,2023-07-20,Ｌ＆Ｈ株式会社,,株式会社,東京都,板橋区,大山金井町４８－７トリアノンＭＹ３０２室,,13,119,1730024,,,,,,,2023-07-20,1,,,,,エルアンドエイチ,0
1797,8011601026994,新規,0,2023-07-20,2023-07-20,株式会社リユースケア,,株式会社,東京都,練馬区,関町南３丁目６番１１号,,13,120,1770053,,,,,,,2023-07-20,1,,,,,リユースケア,0
1798,8011701026440,新規,0,2023-07-20,2023-07-20,株式会社パキラ,,株式会社,東京都,江戸川区,北葛西１丁目２２番１７号,,13,123,1340081,,,,,,,2023-07-20,1,,,,,パキラ,0
1799,8011703003537,新規,0,2023-07-20,2023-07-20,合同会社北惣エステート,,合同会社,東京都,江戸川区,東葛西３丁目４番１３号,,13,123,1340084,,,,,,,2023-07-20,1,,,,,キタソウエステート,0
1803,8011803005739,新規,0,2023-07-20,2023-07-20,合同会社東京萬家,,合同会社,東京都,葛飾区,東堀切１丁目２１番６号,,13,122,1240004,,,,,,,2023-07-20,1,,,,,トウキョウヨロズヤ,0
1804,8011803005747,新規,0,2023-07-20,2023-07-20,合同会社ａｎｃｈｏｒ,,合同会社,東京都,葛飾区,高砂１丁目１１番２－６０３号サンリット青砥,,13,122,1250054,,,,,,,2023-07-20,1,,,,,アンカー,0
1810,8013301051067,新規,0,2023-07-20,2023-07-20,株式会社スタワ,,株式会社,東京都,豊島区,長崎３丁目２０番７号ラルジュ長崎,,13,116,1710051,,,,,,,2023-07-20,1,,,,,スタワ,0
1811,8013303006713,新規,0,2023-07-20,2023-07-20,羅羅合同会社,,合同会社,東京都,豊島区,上池袋３丁目４７－９ミツトシビル４－０６号室,,13,116,1700012,,,,,,,2023-07-20,1,,,,,ララ,0
1814,8020003024202,新規,0,2023-07-20,2023-07-20,合同会社Ａ‐Ｆｅｌｉｘ,,合同会社,神奈川県,横浜市緑区,東本郷３丁目３５－２４,,14,113,2260002,,,,,,,2023-07-20,1,,,,,エーフェリクス,0
1832,8030001155007,新規,0,2023-07-20,2023-07-20,株式会社明大,,株式会社,埼玉県,さいたま市岩槻区,加倉１丁目７番９号,,11,110,3390056,,,,,,,2023-07-20,1,,,,,メイト,0
1836,8040001129315,新規,0,2023-07-20,2023-07-20,ＪＦＫ株式会社,,株式会社,千葉県,船橋市,湊町２丁目１番１９号ルミエール船橋１０５－Ｂ,,12,204,2730011,,,,,,,2023-07-20,1,,,,,ジェイエフケー,0
1850,8080401026587,新規,0,2023-07-20,2023-07-20,株式会社ＫＥＮＴＥＭ　ＬＡＢＯ,,株式会社,静岡県,浜松市中区,和地山３丁目１番７号,,22,131,4328003,,,,,,,2023-07-20,1,,,,,ケンテムラボ,0
1851,8080405007559,新規,0,2023-07-20,2023-07-20,一般社団法人日本介護アロマ研究所・命のアロマ,,その他の設立登記法人,静岡県,浜松市中区,鴨江２丁目７番５号,,22,131,4328023,,,,,,,2023-07-20,1,,,,,ニホンカイゴアロマケンキュウジョイノチノアロマ,0
1854,8100001036604,新規,0,2023-07-20,2023-07-20,株式会社ＴＭマネジメント,,株式会社,長野県,佐久市,八幡６１３番地,,20,217,3842106,,,,,,,2023-07-20,1,,,,,ティーエムマネジメント,0
1859,8110001037709,新規,0,2023-07-20,2023-07-20,株式会社新装舎,,株式会社,新潟県,新潟市北区,松浜８丁目７番１１号,,15,101,9503126,,,,,,,2023-07-20,1,,,,,シンソウシャ,0
1873,8120001256596,新規,0,2023-07-20,2023-07-20,株式会社アセット・Ｍ,,株式会社,大阪府,大阪市東成区,東中本１丁目１６番９号,,27,115,5370021,,,,,,,2023-07-20,1,,,,,アセットエム,0
1874,8120001256613,新規,0,2023-07-20,2023-07-20,株式会社ＡＲＴＳ,,株式会社,大阪府,大阪市城東区,東中浜６丁目１４番１８号,,27,118,5360023,,,,,,,2023-07-20,1,,,,,アーツ,0
1878,8120003024506,新規,0,2023-07-20,2023-07-20,合同会社ＡＬＬ‐Ｒ,,合同会社,大阪府,大阪市浪速区,難波中２丁目１０－７０パークスタワー１９階,,27,111,5560011,,,,,,,2023-07-20,1,,,,,オールアール,0
1882,8120101067919,新規,0,2023-07-20,2023-07-20,株式会社ＭＵＵＴ,,株式会社,大阪府,堺市堺区,宿院町東１丁１番２０号Ｈｉｓビル１Ｆ,,27,141,5900955,,,,,,,2023-07-20,1,,,,,ムート,0
1883,8120105009743,新規,0,2023-07-20,2023-07-20,医療法人まぶたラボ,,その他の設立登記法人,大阪府,堺市中区,新家町５８９番地１０,,27,142,5998232,,,,,,,2023-07-20,1,,,,,マブタラボ,0
1891,8140001130907,新規,0,2023-07-20,2023-07-20,トラスト株式会社,,株式会社,兵庫県,尼崎市,大庄西町３丁目１６番３－２号,,28,202,6600077,,,,,,,2023-07-20,1,,,,,トラスト,0
1892,8140001130915,新規,0,2023-07-20,2023-07-20,株式会社ＳＴホールディングス,,株式会社,兵庫県,神戸市長田区,苅藻通７丁目４番２７号,,28,106,6530032,,,,,,,2023-07-20,1,,,,,エスティーホールディングス,0
1896,8150003003011,新規,0,2023-07-20,2023-07-20,合同会社ＴＲ,,合同会社,奈良県,橿原市,曲川町６丁目６－４５,,29,205,6340837,,,,,,,2023-07-20,1,,,,,ティーアール,0
1897,8160003002920,新規,0,2023-07-20,2023-07-20,合同会社ＰＬＵＳ,,合同会社,滋賀県,甲賀市,水口町東名坂１５６番地２－１１２号,,25,209,5280036,,,,,,,2023-07-20,1,,,,,プラス,0
1906,8180001157228,新規,0,2023-07-20,2023-07-20,株式会社解王工業,,株式会社,愛知県,春日井市,東山町２３１１－７８,,23,206,4860811,,,,,,,2023-07-20,1,,,,,カイオウコウギョウ,0
1908,8180301037583,新規,0,2023-07-20,2023-07-20,株式会社ＺＥＲＯ‐ＯＮＥ,,株式会社,愛知県,豊橋市,松葉町１丁目４４番地サクラレジャービルＢ１,,23,201,4400897,,,,,,,2023-07-20,1,,,,,ゼロワン,0
1909,8190005011842,新規,0,2023-07-20,2023-07-20,医療法人あのだクリニック,,その他の設立登記法人,三重県,亀山市,阿野田町１６７５番地２,,24,210,5190137,,,,,,,2023-07-20,1,,,,,アノダクリニック,0
1912,8200003006025,新規,0,2023-07-20,2023-07-20,頤中国際合同会社,00131226,合同会社,岐阜県,羽島市,福寿町平方４丁目４４番地,,21,209,5016257,,,,,,,2023-07-20,1,,,,,イチュウコクサイ,0
1928,8290001102305,新規,0,2023-07-20,2023-07-20,株式会社オーシャンズ,,株式会社,福岡県,福岡市中央区,西中洲９－３,,40,133,8100002,,,,,,,2023-07-20,1,,,,,オーシャンズ,0
1929,8290001102321,新規,0,2023-07-20,2023-07-20,株式会社まりか薬局,,株式会社,福岡県,久留米市,原古賀町２５－１１,,40,203,8300046,,,,,,,2023-07-20,1,,,,,マリカヤッキョク,0
1930,8290001102354,新規,0,2023-07-20,2023-07-20,株式会社ＬＦＤ,,株式会社,福岡県,福岡市西区,田尻東３丁目２５５８番地６,,40,135,8190380,,,,,,,2023-07-20,1,,,,,エルエフディー,0
1931,8290003014102,新規,0,2023-07-20,2023-07-20,箱庭ＬＡＢ合同会社,,合同会社,福岡県,福岡市博多区,住吉３丁目１６－２グランマコイ博多５０１,,40,132,8120018,,,,,,,2023-07-20,1,,,,,ハコニワラボ,0
1933,8290801029648,新規,0,2023-07-20,2023-07-20,株式会社ピカデリーＫＢ,,株式会社,福岡県,北九州市八幡西区,楠橋上方２丁目９番９号,,40,109,8071141,,,,,,,2023-07-20,1,,,,,ピカデリーケービー,0
1940,8330003009915,新規,0,2023-07-20,2023-07-20,合同会社カワショウ,,合同会社,熊本県,熊本市中央区,九品寺３丁目７番１９号,,43,101,8620976,,,,,,,2023-07-20,1,,,,,カワショウ,0
1944,8370001050198,新規,0,2023-07-20,2023-07-20,株式会社百年人生,,株式会社,宮城県,柴田郡大河原町,字広表８番地５,,04,321,9891225,,,,,,,2023-07-20,1,,,,,ヒャクネンジンセイ,0
1946,8370003006207,新規,0,2023-07-20,2023-07-20,合同会社ＰＲＯＳＰＥＲ,,合同会社,宮城県,仙台市太白区,長町南２丁目１０番２４号６０３号,,04,104,9820012,,,,,,,2023-07-20,1,,,,,プロスパー,0
1965,8430003015234,新規,0,2023-07-20,2023-07-20,合同会社もり栗,,合同会社,北海道,夕張郡栗山町,中央３丁目３７,,01,429,0691511,,,,,,,2023-07-20,1,,,,,モリクリ,0
1966,8470001019712,新規,0,2023-07-20,2023-07-20,株式会社キャロライナディスコ,,株式会社,香川県,高松市,鍛冶屋町１番地５ＦＫビル１階,,37,201,7600028,,,,,,,2023-07-20,1,,,,,キャロライナディスコ,0
1976,9010001236609,新規,0,2023-07-20,2023-07-20,昭和重工株式会社,,株式会社,東京都,中央区,日本橋茅場町３丁目１４番地,,13,102,1030025,,,,,,,2023-07-20,1,,,,,ショウワジュウコウ,0
1977,9010001236996,新規,0,2023-07-20,2023-07-20,インターナショナルスタッフィング株式会社,,株式会社,東京都,中央区,銀座４丁目１３番８号岩藤ビル５階,,13,102,1040061,,,,,,,2023-07-20,1,,,,,インターナショナルスタッフィング,0
1978,9010001237037,新規,0,2023-07-20,2023-07-20,株式会社ディースクワッド,,株式会社,東京都,中央区,銀座２丁目１２番１０号銀座藤ビル２階,,13,102,1040061,,,,,,,2023-07-20,1,,,,,ディースクワッド,0
1981,9010003041107,新規,0,2023-07-20,2023-07-20,合同会社ＴＡＫＡＴＡマネジメント,,合同会社,東京都,千代田区,神田駿河台１丁目８番地２,,13,101,1010062,,,,,,,2023-07-20,1,,,,,タカタマネジメント,0
1982,9010003041131,新規,0,2023-07-20,2023-07-20,合同会社ホワイトラビット,,合同会社,東京都,千代田区,神田錦町１丁目１２番地２,,13,101,1010054,,,,,,,2023-07-20,1,,,,,ホワイトラビット,0
1984,9010005036971,新規,0,2023-07-20,2023-07-20,一般社団法人平和医学会,,その他の設立登記法人,東京都,文京区,千駄木２丁目１５番６－４０９号,,13,105,1130022,,,,,,,2023-07-20,1,,,,,ヘイワイガクカイ,0
1988,9010401175753,新規,0,2023-07-20,2023-07-20,株式会社吉合,,株式会社,東京都,港区,芝浦２丁目１４番１９号モナーク田町３０４,,13,103,1080023,,,,,,,2023-07-20,1,,,,,キチゴウ,0
1993,9010501050781,新規,0,2023-07-20,2023-07-20,ホワイト量子エネルギー株式会社,,株式会社,東京都,台東区,雷門２丁目１番１０号,,13,106,1110034,,,,,,,2023-07-20,1,,,,,ホワイトリョウシエネルギー,0
1994,9010501050798,新規,0,2023-07-20,2023-07-20,株式会社ＩＹＣビジネスサポート,,株式会社,東京都,台東区,松が谷４丁目２４番１２－９０４号銅政ビル,,13,106,1110036,,,,,,,2023-07-20,1,,,,,アイワイシービジネスサポート,0
2004,9010701044583,新規,0,2023-07-20,2023-07-20,Ｍｏｖｉｎｇ　ｏｎ株式会社,,株式会社,東京都,品川区,北品川５丁目３番１－３１１２号,,13,109,1410001,,,,,,,2023-07-20,1,,,,,ムービングオン,0
2005,9010801034170,新規,0,2023-07-20,2023-07-20,株式会社ｓｙエステート,,株式会社,東京都,大田区,仲六郷４丁目３番１６号パークハイツ多摩川１２０４号,,13,111,1440055,,,,,,,2023-07-20,1,,,,,エスワイエステート,0
2007,9010901053467,新規,0,2023-07-20,2023-07-20,株式会社ザッキーファーム,,株式会社,東京都,世田谷区,上馬４丁目２番９－９０１号,,13,112,1540011,,,,,,,2023-07-20,1,,,,,ザッキーファーム,0
2009,9011001005755,新規,0,2023-07-20,2023-07-20,株式会社カンパニーエム・ワン,,株式会社,東京都,渋谷区,恵比寿１丁目２６番１３号,,13,113,1500013,,,,,,,2023-07-20,1,,,,,,0
2014,9011003017204,新規,0,2023-07-20,2023-07-20,ＡＲＣＨＩＥ合同会社,,合同会社,東京都,目黒区,駒場１丁目２番１４号玉川ビル１Ｆ,,13,110,1530041,,,,,,,2023-07-20,1,,,,,アーチー,0
2018,9011103013251,新規,0,2023-07-20,2023-07-20,ピーエスジェイ合同会社,,合同会社,東京都,新宿区,西新宿３丁目３番１３号西新宿水間ビル２階,,13,104,1600023,,,,,,,2023-07-20,1,,,,,ピーエスジェイ,0
2020,9011201024786,新規,0,2023-07-20,2023-07-20,Ｏｃｔ株式会社,,株式会社,東京都,中野区,江原町３丁目３番３号,,13,114,1650023,,,,,,,2023-07-20,1,,,,,オクト,0
2021,9011203004126,新規,0,2023-07-20,2023-07-20,旭日国際商事合同会社,,合同会社,東京都,中野区,弥生町２丁目１２－３－２Ｆ,,13,114,1640013,,,,,,,2023-07-20,1,,,,,アサヒコクサイショウジ,0
2026,9011601026993,新規,0,2023-07-20,2023-07-20,株式会社Ｍプランニング,,株式会社,東京都,練馬区,南田中３丁目１７番４－１０９号,,13,120,1770035,,,,,,,2023-07-20,1,,,,,エムプランニング,0
2029,9011603003990,新規,0,2023-07-20,2023-07-20,合同会社ＳＳＳ,,合同会社,東京都,練馬区,石神井町７丁目１０番１４－１０２号,,13,120,1770041,,,,,,,2023-07-20,1,,,,,スリーエース,0
2034,9011801042733,新規,0,2023-07-20,2023-07-20,ｇｒｏｗ‐ｕｐ株式会社,,株式会社,東京都,足立区,花畑２丁目８番１号,,13,121,1210061,,,,,,,2023-07-20,1,,,,,,0
2035,9011803005746,新規,0,2023-07-20,2023-07-20,合同会社まほらコンサルティング,,合同会社,東京都,葛飾区,柴又６丁目１９番７号,,13,122,1250052,,,,,,,2023-07-20,1,,,,,マホラコンサルティング,0
2036,9012403006069,新規,0,2023-07-20,2023-07-20,ＲＯＹＡＬ　ＤＩＰ合同会社,,合同会社,東京都,武蔵野市,境１丁目１２番２号,,13,203,1800022,,,,,,,2023-07-20,1,,,,,ロイヤルディップ,0
2041,9013301051074,新規,0,2023-07-20,2023-07-20,株式会社えんむすび,,株式会社,東京都,豊島区,南池袋２丁目５番１号島一ビル２階,,13,116,1710022,,,,,,,2023-07-20,1,,,,,エンムスビ,0
2042,9013303006704,新規,0,2023-07-20,2023-07-20,ｍａｎｙ．ｓｔｅｐ合同会社,,合同会社,東京都,豊島区,池袋２丁目６５番６号,,13,116,1710014,,,,,,,2023-07-20,1,,,,,メニーステップ,0
2043,9013303006712,新規,0,2023-07-20,2023-07-20,伊派合同会社,,合同会社,東京都,豊島区,上池袋３丁目４７－９ミツトシビル４－０３号室,,13,116,1700012,,,,,,,2023-07-20,1,,,,,イハ,0
2070,9040001129289,新規,0,2023-07-20,2023-07-20,向日葵商事株式会社,,株式会社,千葉県,印西市,草深字新井堀２２８－４９－１０２室,,12,231,2701337,,,,,,,2023-07-20,1,,,,,ヒマワリショウジ,0
2071,9040001129330,新規,0,2023-07-20,2023-07-20,ルクール株式会社,,株式会社,千葉県,柏市,松葉町２丁目１５番１４号,,12,217,2770827,,,,,,,2023-07-20,1,,,,,ルクール,0
2074,9050001053190,新規,0,2023-07-20,2023-07-20,株式会社ともみ経営,,株式会社,茨城県,水戸市,笠原町１７５０番地９,,08,201,3100852,,,,,,,2023-07-20,1,,,,,トモミケイエイ,0
2076,9060001036161,新規,0,2023-07-20,2023-07-20,株式会社クアッドリンク,,株式会社,栃木県,宇都宮市,本町９番４号,,09,201,3200033,,,,,,,2023-07-20,1,,,,,クアッドリンク,0
2082,9080003003018,新規,0,2023-07-20,2023-07-20,合同会社シュライン,,合同会社,静岡県,静岡市清水区,草薙１丁目２６－２０－５０１,,22,103,4240886,,,,,,,2023-07-20,1,,,,,シュライン,0
2095,9110005016971,新規,0,2023-07-20,2023-07-20,米杜氏生産者協同組合,,その他の設立登記法人,新潟県,新潟市北区,朝日町２丁目１３番１７号,,15,101,9503315,,,,,,,2023-07-20,1,,,,,コメトウジセイサンシャ,0
2106,9120001256562,新規,0,2023-07-20,2023-07-20,鶴鳴株式会社,,株式会社,大阪府,大阪市東成区,深江北３丁目４番２１号エクラ深江橋７０３Ｂ,,27,115,5370001,,,,,,,2023-07-20,1,,,,,カクメイ,0
2107,9120001256587,新規,0,2023-07-20,2023-07-20,株式会社大阪吉祥,,株式会社,大阪府,大阪市浪速区,恵美須西１丁目５番９号,,27,111,5560003,,,,,,,2023-07-20,1,,,,,オオサカキッショウ,0
2108,9120001256595,新規,0,2023-07-20,2023-07-20,株式会社Ｍｏｏｎ,,株式会社,大阪府,大阪市中央区,久太郎町３丁目１番２７号,,27,128,5410056,,,,,,,2023-07-20,1,,,,,ムーン,0
2109,9120001256604,新規,0,2023-07-20,2023-07-20,株式会社トラクション,,株式会社,大阪府,大阪市大正区,南恩加島２丁目８番３号,,27,108,5510021,,,,,,,2023-07-20,1,,,,,トラクション,0
2110,9120003024513,新規,0,2023-07-20,2023-07-20,合同会社スリースクエア,,合同会社,大阪府,大阪市北区,天神橋１丁目１９－８ＭＦ南森町３ビル９階,,27,127,5300041,,,,,,,2023-07-20,1,,,,,スリースクエア,0
2117,9130001074765,新規,0,2023-07-20,2023-07-20,吉村建設工業株式会社,00131228,株式会社,京都府,相楽郡和束町,大字杣田小字平尾１１４番地,,26,365,6191223,,,,,,,2023-07-20,1,,,,,ヨシムラケンセツコウギョウ,0
2119,9140001130922,新規,0,2023-07-20,2023-07-20,ＰＢＫ株式会社,,株式会社,兵庫県,西宮市,甲子園砂田町７番５－１１７号,,28,204,6638162,,,,,,,2023-07-20,1,,,,,ピービーケイ,0
2120,9140001130947,新規,0,2023-07-20,2023-07-20,株式会社未来スイッチ,,株式会社,兵庫県,西宮市,甲東園１丁目１－６,,28,204,6620812,,,,,,,2023-07-20,1,,,,,ミライスイッチ,0
2128,9160003002936,新規,0,2023-07-20,2023-07-20,合同会社ＩＳＳ,,合同会社,滋賀県,大津市,和邇春日３丁目８５４番地１０,,25,201,5200529,,,,,,,2023-07-20,1,,,,,アイエスエス,0
2134,9180001157169,新規,0,2023-07-20,2023-07-20,桂昌株式会社,,株式会社,愛知県,名古屋市瑞穂区,南山町１９番地の３８,,23,108,4670023,,,,,,,2023-07-20,1,,,,,ケイショウ,0
2135,9180001157227,新規,0,2023-07-20,2023-07-20,株式会社リュミエール,,株式会社,愛知県,名古屋市中区,栄２丁目７番２３号,,23,106,4600008,,,,,,,2023-07-20,1,,,,,リュミエール,0
2143,9180003025506,新規,0,2023-07-20,2023-07-20,マルストレーズ合同会社,,合同会社,愛知県,名古屋市瑞穂区,駒場町７丁目６番地２Ｆ号,,23,108,4670807,,,,,,,2023-07-20,1,,,,,マルストレーズ,0
2144,9180005020298,新規,0,2023-07-20,2023-07-20,医療法人Ｓｔｅｌｌａ,,その他の設立登記法人,愛知県,名古屋市緑区,桶狭間神明１７２８番地パレソレイユ１Ｆ,,23,114,4580919,,,,,,,2023-07-20,1,,,,,ステラ,0
2156,9220001025511,新規,0,2023-07-20,2023-07-20,株式会社ＲＹＫ,,株式会社,石川県,加賀市,山代温泉２９戊５４番地,,17,206,9220242,,,,,,,2023-07-20,1,,,,,アールワイケー,0
2158,9230001019925,新規,0,2023-07-20,2023-07-20,株式会社辰美屋,,株式会社,富山県,小矢部市,芹川５２１５番地１,,16,209,9320033,,,,,,,2023-07-20,1,,,,,タツミヤ,0
2162,9240001061835,新規,0,2023-07-20,2023-07-20,株式会社ＫＦＰ,,株式会社,広島県,広島市佐伯区,八幡東４丁目４０番３号,,34,108,7315115,,,,,,,2023-07-20,1,,,,,ケイエフピー,0
2164,9240003006227,新規,0,2023-07-20,2023-07-20,合同会社東邦企画,,合同会社,広島県,広島市中区,弥生町４番８－４０６号,,34,101,7300023,,,,,,,2023-07-20,1,,,,,トウホウキカク,0
2172,9290001102329,新規,0,2023-07-20,2023-07-20,アーバン株式会社,,株式会社,福岡県,福岡市中央区,警固１丁目１０番９－８０３号,,40,133,8100023,,,,,,,2023-07-20,1,,,,,アーバン,0
2173,9290001102345,新規,0,2023-07-20,2023-07-20,株式会社ラピース,,株式会社,福岡県,福岡市早良区,高取２丁目８番１３－１０２号,,40,137,8140011,,,,,,,2023-07-20,1,,,,,ラピース,0
2176,9290801029721,新規,0,2023-07-20,2023-07-20,株式会社ＳＴＲ,,株式会社,福岡県,北九州市小倉北区,大手町１０番１８－４０１号,,40,106,8030814,,,,,,,2023-07-20,1,,,,,エスティーアール,0
2177,9290803004458,新規,0,2023-07-20,2023-07-20,ＡＦＥＣフード合同会社,,合同会社,福岡県,北九州市八幡西区,船越１丁目５番７号,,40,109,8071111,,,,,,,2023-07-20,1,,,,,エーエフイーシーフード,0
2183,9310001018522,新規,0,2023-07-20,2023-07-20,株式会社ハラダ,,株式会社,長崎県,西彼杵郡長与町,北陽台２丁目２７番地１,,42,307,8512131,,,,,,,2023-07-20,1,,,,,ハラダ,0
2191,9340001025730,新規,0,2023-07-20,2023-07-20,株式会社二見自動車商会,,株式会社,鹿児島県,霧島市,隼人町内９１０番１号,,46,218,8995116,,,,,,,2023-07-20,1,,,,,フタミジドウシャショウカイ,0
2195,9360001032304,新規,0,2023-07-20,2023-07-20,Ｈａｒｕ株式会社,,株式会社,沖縄県,島尻郡南風原町,字兼城６４４番地１０,,47,350,9011111,,,,,,,2023-07-20,1,,,,,ハル,0
2199,9370001050197,新規,0,2023-07-20,2023-07-20,株式会社らむちゃん,,株式会社,宮城県,仙台市宮城野区,榴岡４丁目６番２３号今野ビル２Ｆ,,04,102,9830852,,,,,,,2023-07-20,1,,,,,ラムチャン,0
2200,9370001050206,新規,0,2023-07-20,2023-07-20,株式会社Ａｄ‐Ａｒｈｙｍｅ,,株式会社,宮城県,富谷市,大童上八幡４９番地,,04,216,9813321,,,,,,,2023-07-20,1,,,,,アドアライム,0
2206,9410001013546,新規,0,2023-07-20,2023-07-20,北秋田木材株式会社,,株式会社,秋田県,北秋田市,住吉町４－２７住吉ビル２０２号室,,05,213,0183322,,,,,,,2023-07-20,1,,,,,キタアキタモクザイ,0
2212,9420001018338,新規,0,2023-07-20,2023-07-20,株式会社千葉資材,,株式会社,青森県,むつ市,海老川町５番７号,,02,208,0350054,,,,,,,2023-07-20,1,,,,,チバシザイ,0
