sequenceNumber,corporateNumber,process,correct,updateDate,changeDate,name,nameImageId,kind,prefectureName,cityName,streetNumber,addressImageId,prefectureCode,cityCode,postCode,addressOutside,addressOutsideImageId,closeDate,closeCause,successorCorporateNumber,changeCause,assignmentDate,latest,enName,enPrefectureName,enCityName,enAddressOutside,furigana,hihyoji
11,1010003040082,登記記録の閉鎖等,0,2024-03-18,2024-03-11,ＪＯＩＮＴ合同会社,,合同会社,東京都,中央区,東日本橋２丁目２８番４号日本橋ＣＥＴビル２階,,13,102,1030004,,,2024-03-11,清算の結了等,,,2023-03-15,1,,,,,ジョイント,0
29,1010505002613,登記記録の閉鎖等,0,2024-03-18,2024-03-13,一般社団法人音声テキスト化協会,,その他の設立登記法人,東京都,台東区,浅草橋５丁目２番３号鈴和ビル２階,,13,106,1110053,,,2024-03-13,清算の結了等,,,2016-01-12,1,,,,,オンセイテキストカキョウカイ,0
59,1012401014642,登記記録の閉鎖等,0,2024-03-18,2024-03-13,サンベリー・ジャパン株式会社,,株式会社,東京都,府中市,朝日町１丁目６番地の９,,13,206,1830003,,,2024-03-13,清算の結了等,,,2015-10-05,1,,,,,,0
106,1040003014265,登記記録の閉鎖等,0,2024-03-18,2024-03-13,合同会社セーフティーファースト,,合同会社,千葉県,山武市,森１４４５番地３６,,12,237,2891214,,,2024-03-13,清算の結了等,,,2019-10-29,1,,,,,セーフティーファースト,0
107,1040003018092,登記記録の閉鎖等,0,2024-03-18,2024-03-13,合同会社ＫＵＲＩＳＵＫＥ,,合同会社,千葉県,浦安市,今川１丁目１０－７セディアメージュ浦安２０３号室,,12,227,2790022,,,2024-03-13,清算の結了等,,,2021-07-12,1,,,,,クリスケ,0
110,1050001009621,登記記録の閉鎖等,0,2024-03-18,2024-03-12,株式会社関鉄クリエイト,,株式会社,茨城県,土浦市,真鍋１丁目１０番８号,,08,203,3000051,,,2024-03-12,合併による解散等,5050001029418,令和６年３月１日茨城県常総市水海道天満町１６１９番地の５常総産業株式会社（5050001029418）に合併し解散,2015-10-05,1,,,,,カンテツクリエイト,0
111,1050001040601,登記記録の閉鎖等,0,2024-03-18,2024-03-12,株式会社水戸建設工業,,株式会社,茨城県,水戸市,けやき台２丁目３３番地５,,08,201,3100842,,,2024-03-12,清算の結了等,,,2016-03-07,1,,,,,,0
123,1080001019196,登記記録の閉鎖等,0,2024-03-18,2024-03-13,株式会社ケイ・ディー・エス,,株式会社,静岡県,焼津市,浜当目１丁目９番２０号,,22,212,4250012,,,2024-03-13,清算の結了等,,,2015-10-05,1,,,,,ケイディーエス,0
125,1080002003018,登記記録の閉鎖等,0,2024-03-18,2024-03-14,有限会社駿府ハウジング,,有限会社,静岡県,静岡市駿河区,向敷地１１５０番地の１０,,22,102,4210101,,,2024-03-14,清算の結了等,,,2015-10-05,1,,,,,スンプハウジング,0
126,1080102000831,登記記録の閉鎖等,0,2024-03-18,2024-03-14,有限会社カーネギー,,有限会社,静岡県,沼津市,大岡１７２８番地の１,,22,203,4100022,,,2024-03-14,清算の結了等,,,2015-10-05,1,,,,,カーネギー,0
146,1120003017375,登記記録の閉鎖等,0,2024-03-18,2024-03-13,アレシス・ジャパン合同会社,,合同会社,大阪府,寝屋川市,田井町２１番９号,,27,215,5720021,,,2024-03-13,清算の結了等,,,2020-04-28,1,,,,,アレシスジャパン,0
154,1120102010974,登記記録の閉鎖等,0,2024-03-18,2024-03-18,有限会社伸進社,,有限会社,大阪府,堺市東区,菩提町４丁３８番地２３,,27,143,5998103,,,2024-03-18,清算の結了等,,,2015-10-05,1,,,,,シンシンシャ,0
197,1180002022420,登記記録の閉鎖等,0,2024-03-18,2024-03-11,有限会社ユービック,,有限会社,愛知県,名古屋市瑞穂区,大喜町３丁目２２番地,,23,108,4670822,,,2024-03-11,清算の結了等,,,2015-10-05,1,,,,,ユービック,0
217,1200002021535,登記記録の閉鎖等,0,2024-03-18,2024-03-15,有限会社浩貴工業,,有限会社,岐阜県,土岐市,泉町久尻１４２９番地の２７,,21,212,5095142,,,2024-03-15,清算の結了等,,,2015-10-05,1,,,,,ヒロタカコウギョウ,0
259,1380001029611,登記記録の閉鎖等,0,2024-03-18,2024-03-11,信夫工業ホールディング株式会社,,株式会社,福島県,福島市,曽根田町７番３１号,,07,201,9608051,,,2024-03-11,清算の結了等,,,2018-11-30,1,,,,,シノブコウギョウホールディング,0
274,1430005000034,登記記録の閉鎖等,0,2024-03-18,2024-02-29,エホバの証人札幌澄川会衆,,その他の設立登記法人,北海道,札幌市南区,澄川五条６丁目３８９番１７１,,01,106,0050005,,,2024-02-29,合併による解散等,5430005000022,令和６年２月２９日札幌市豊平区福住三条一丁目４番１０号エホバの証人の札幌市福住会衆（5430005000022）に合併し解散,2015-10-05,1,,,,,エホバノショウニンサッポロスミカワカイシュウ,0
305,2010003033721,登記記録の閉鎖等,0,2024-03-18,2024-03-11,合同会社イレブン,,合同会社,東京都,中央区,銀座７丁目５番５号長谷第一ビルＢ１,,13,102,1040061,,,2024-03-11,清算の結了等,,,2020-12-17,1,,,,,イレブン,0
311,2010005027168,登記記録の閉鎖等,0,2024-03-18,2024-03-13,一般社団法人職業紹介連携協会,,その他の設立登記法人,東京都,中央区,築地２丁目１２番６号ＳＫ東銀座ビル６階,,13,102,1040045,,,2024-03-13,清算の結了等,,,2017-07-24,1,,,,,ショクギョウショウカイレンケイキョウカイ,0
321,2010401162840,登記記録の閉鎖等,0,2024-03-18,2024-03-12,株式会社アドジェット,,株式会社,東京都,港区,浜松町２丁目２番１５号浜松町ダイヤビル２Ｆ,,13,103,1050013,,,2024-03-12,清算の結了等,,,2021-09-27,1,,,,,アドジェット,0
328,2010601040177,登記記録の閉鎖等,0,2024-03-18,2024-03-07,エクストリコ株式会社,,株式会社,東京都,中央区,勝どき１丁目７番２－１１０９号,,13,102,1040054,,,2024-03-07,清算の結了等,,,2015-10-05,1,,,,,エクストリコ,0
358,2011601027115,登記記録の閉鎖等,0,2024-03-18,2024-03-13,株式会社ケ・アンド・ケ,,株式会社,東京都,練馬区,立野町３５番１０号,,13,120,1770054,,,2024-03-13,清算の結了等,,,2023-09-11,1,,,,,ケアンドケ,0
380,2020001111627,登記記録の閉鎖等,0,2024-03-18,2024-03-14,株式会社ＩＫ　Ｗｉｎｓ,,株式会社,神奈川県,相模原市中央区,上溝１８７５番地１,,14,152,2520243,,,2024-03-14,清算の結了等,,,2015-10-05,1,,,,,アイケーウィンズ,0
393,2030001044702,登記記録の閉鎖等,0,2024-03-18,2024-03-11,株式会社協進興産,,株式会社,埼玉県,朝霞市,溝沼４丁目１番５８号,,11,227,3510023,,,2024-03-11,清算の結了等,,,2015-10-05,1,,,,,キョウシンコウサン,0
407,2040001063890,登記記録の閉鎖等,0,2024-03-18,2024-03-13,青柳建設株式会社,,株式会社,千葉県,香取市,阿玉川９６番地２６,,12,236,2890321,,,2024-03-13,清算の結了等,,,2015-10-05,1,,,,,アオヤギケンセツ,0
423,2050001017706,登記記録の閉鎖等,0,2024-03-18,2024-03-11,株式会社　常栄サービス,,株式会社,茨城県,つくば市,松塚１０３０番地,,08,220,3050015,,,2024-03-11,清算の結了等,,,2015-10-05,1,,,,,,0
454,2110002029116,登記記録の閉鎖等,0,2024-03-18,2024-03-14,有限会社ホテルまるやま,,有限会社,新潟県,長岡市,山田１丁目６番１６号,,15,202,9400097,,,2024-03-14,清算の結了等,,,2015-10-05,1,,,,,ホテルマルヤマ,0
456,2110005004644,登記記録の閉鎖等,0,2024-03-18,2024-03-01,胎内市農業協同組合,,その他の設立登記法人,新潟県,胎内市,本郷字家の下４９３番地２,,15,227,9592655,,,2024-03-01,合併による解散等,6110005004640,令和６年３月１日新潟県新発田市島潟１１８４番地１北新潟農業協同組合（6110005004640）に合併し解散,2015-10-05,1,,,,,タイナイシ,0
461,2120001093319,登記記録の閉鎖等,0,2024-03-18,2024-03-13,日本電気ホームエレクトロニクス株式会社,,株式会社,大阪府,大阪市中央区,城見１丁目４番２４号,,27,128,5400001,,,2024-03-13,清算の結了等,,,2024-02-07,1,,,,,ニホンデンキホームエレクトロニクス,0
494,2140001024338,登記記録の閉鎖等,0,2024-03-18,2024-03-11,株式会社生興デリバリー,,株式会社,兵庫県,神戸市須磨区,北落合２丁目１番１号,,28,107,6540151,,,2024-03-11,清算の結了等,,,2015-10-05,1,,,,,セイコウデリバリー,0
496,2140001104528,登記記録の閉鎖等,0,2024-03-18,2024-03-07,株式会社インターキューブ,,株式会社,兵庫県,神戸市中央区,港島中町６丁目８番１,,28,110,6500046,,,2024-03-07,合併による解散等,6140001104524,令和６年３月１日神戸市中央区港島中町六丁目８番１株式会社エクスプローラーズトーキョー（6140001104524）に合併し解散,2017-01-04,1,,,,,インターキューブ,0
506,2140003014915,登記記録の閉鎖等,0,2024-03-18,2024-03-12,合同会社オオスミソーラー,,合同会社,兵庫県,西宮市,鷲林寺南町２２番５４号,,28,204,6620002,,,2024-03-12,清算の結了等,,,2020-04-23,1,,,,,オオスミソーラー,0
517,2180001056030,登記記録の閉鎖等,0,2024-03-18,2024-03-11,ライフ・プランニング・サービス株式会社,,株式会社,愛知県,名古屋市名東区,本郷２丁目６６番地の２,,23,115,4650024,,,2024-03-11,清算の結了等,,,2015-10-05,1,,,,,ライフプランニングサービス,0
522,2180002064420,登記記録の閉鎖等,0,2024-03-18,2024-03-08,有限会社Ｎ．コンサル,,有限会社,愛知県,豊明市,阿野町稲葉６７番地１２オーラム１０２,,23,229,4701144,,,2024-03-08,清算の結了等,,,2015-10-05,1,,,,,エヌコンサル,0
529,2180005018134,登記記録の閉鎖等,0,2024-03-18,2024-03-05,司法書士法人アルファオフィス,,その他の設立登記法人,愛知県,名古屋市東区,泉１丁目２１番２７号泉ファーストスクエア８階,,23,102,4610001,,,2024-03-05,清算の結了等,,,2019-02-08,1,,,,,アルファオフィス,0
536,2200001038208,登記記録の閉鎖等,0,2024-03-18,2024-03-13,株式会社アルファ,,株式会社,愛知県,名古屋市東区,出来町２丁目８－８－１２０１,,23,102,4610032,,,2024-03-13,清算の結了等,,,2021-01-08,1,,,,,アルファ,0
544,2230005005275,登記記録の閉鎖等,0,2024-03-18,2024-03-12,一般財団法人利賀ふるさと財団,,その他の設立登記法人,富山県,南砺市,利賀村上百瀬４８２番地,,16,210,9392513,,,2024-03-12,清算の結了等,,,2015-10-05,1,,,,,トガフルサトザイダン,0
569,2300001010908,登記記録の閉鎖等,0,2024-03-18,2024-03-12,株式会社エイトエンジニアリング,,株式会社,東京都,港区,赤坂２丁目９番２号ウェイタワーズ５階,,13,103,1070052,,,2024-03-12,清算の結了等,,,2017-07-07,1,,,,,エイトエンジニアリング,0
615,2500005000604,登記記録の閉鎖等,0,2024-03-18,2024-03-14,医療法人井伊歯科医院,,その他の設立登記法人,愛媛県,松山市,古川西１丁目１０番５号,,38,201,7900944,,,2024-03-14,清算の結了等,,,2015-10-05,1,,,,,イイシカイイン,0
633,3010003038182,登記記録の閉鎖等,0,2024-03-18,2024-03-12,合同会社アドオン,,合同会社,東京都,千代田区,神田和泉町一丁目６番２号,,13,101,1010024,,,2024-03-12,清算の結了等,,,2022-07-14,1,,,,,アドオン,0
673,3011101088474,登記記録の閉鎖等,0,2024-03-18,2024-03-12,株式会社東和,,株式会社,東京都,新宿区,神楽坂６丁目８文悠ビルＢ１,,13,104,1620825,,,2024-03-12,清算の結了等,,,2019-08-01,1,,,,,トウワ,0
708,3020003019371,登記記録の閉鎖等,0,2024-03-18,2024-03-13,合同会社ケンショー,,合同会社,神奈川県,川崎市川崎区,宮前町１２番１４号シャンボール川崎９０２,,14,131,2100012,,,2024-03-13,清算の結了等,,,2021-03-09,1,,,,,ケンショー,0
709,3020003021897,登記記録の閉鎖等,0,2024-03-18,2024-03-12,合同会社ユゾーン,,合同会社,神奈川県,横浜市鶴見区,北寺尾２丁目２番１１号,,14,101,2300074,,,2024-03-12,清算の結了等,,,2022-06-08,1,,,,,ユゾーン,0
742,3060001020690,登記記録の閉鎖等,0,2024-03-18,2024-03-13,株式会社山本精工,,株式会社,栃木県,佐野市,赤坂町２０３番地,,09,204,3270004,,,2024-03-13,清算の結了等,,,2015-10-05,1,,,,,ヤマモトセイコウ,0
747,3070001006375,登記記録の閉鎖等,0,2024-03-18,2024-03-13,株式会社エンドー,,株式会社,群馬県,高崎市,岩押町２７番１２号,,10,202,3700044,,,2024-03-13,清算の結了等,,,2015-10-05,1,,,,,エンドー,0
764,3110001010141,登記記録の閉鎖等,0,2024-03-18,2024-03-14,株式会社Ｍ・Ｋプランニング,,株式会社,新潟県,新潟市南区,杉菜３番１５号,,15,106,9501208,,,2024-03-14,清算の結了等,,,2015-10-05,1,,,,,エムケープランニング,0
767,3110005007480,登記記録の閉鎖等,0,2024-03-18,2024-03-01,かみはやし農業協同組合,,その他の設立登記法人,新潟県,村上市,山田９３０番地５,,15,212,9593425,,,2024-03-01,合併による解散等,6110005004640,令和６年３月１日新潟県新発田市島潟１１８４番地１北新潟農業協同組合（6110005004640）に合併し解散,2015-10-05,1,,,,,カミハヤシ,0
768,3110005007943,登記記録の閉鎖等,0,2024-03-18,2024-03-01,にいがた岩船農業協同組合,,その他の設立登記法人,新潟県,村上市,田端町８番５号,,15,212,9580854,,,2024-03-01,合併による解散等,6110005004640,令和６年３月１日新潟県新発田市島潟１１８４番地１北新潟農業協同組合（6110005004640）に合併し解散,2015-10-05,1,,,,,ニイガタイワフネ,0
769,3110005013941,登記記録の閉鎖等,0,2024-03-18,2024-03-01,羽茂農業協同組合,,その他の設立登記法人,新潟県,佐渡市,羽茂本郷５０４番地３,,15,224,9520504,,,2024-03-01,合併による解散等,2110005013942,令和６年３月１日新潟県佐渡市原黒３００番地１佐渡農業協同組合（2110005013942）に合併し解散,2015-10-05,1,,,,,ハモチ,0
791,3120901029998,登記記録の閉鎖等,0,2024-03-18,2024-03-13,株式会社Ｋテック,,株式会社,大阪府,豊中市,蛍池西町一丁目２６番２号,,27,203,5600000,,,2024-03-13,清算の結了等,,,2015-10-05,1,,,,,ケイテック,0
792,3120901036755,登記記録の閉鎖等,0,2024-03-18,2024-03-14,株式会社誠信興業,,株式会社,大阪府,豊中市,浜２丁目２０番２８－６０２号,,27,203,5610817,,,2024-03-14,清算の結了等,,,2016-04-12,1,,,,,,0
796,3122005003046,登記記録の閉鎖等,0,2024-03-18,2024-03-14,一般社団法人Ｂｅａｖｅｒ’ｓ,,その他の設立登記法人,京都府,京都市西京区,大原野上里南ノ町３５４番地５,,26,111,6101123,,,2024-03-14,清算の結了等,,,2015-10-05,1,,,,,ビーバーズ,0
806,3140001109047,登記記録の閉鎖等,0,2024-03-18,2024-03-07,株式会社アダバット,,株式会社,兵庫県,神戸市中央区,港島中町６丁目８番１,,28,110,6500046,,,2024-03-07,合併による解散等,6140001104524,令和６年３月１日神戸市中央区港島中町六丁目８番１株式会社エクスプローラーズトーキョー（6140001104524）に合併し解散,2018-02-07,1,,,,,アダバット,0
819,3180001054347,登記記録の閉鎖等,0,2024-03-18,2024-03-11,株式会社東京長谷川,,株式会社,愛知県,名古屋市中村区,猪之越町３丁目１番８号,,23,105,4530038,,,2024-03-11,清算の結了等,,,2015-10-05,1,,,,,トウキョウハセガワ,0
829,3180005009058,登記記録の閉鎖等,0,2024-03-18,2024-03-12,サンライズ企業組合,,その他の設立登記法人,愛知県,尾張旭市,旭前町新田洞５０５０番地,,23,226,4880852,,,2024-03-12,清算の結了等,,,2015-10-05,1,,,,,サンライズ,0
834,3190002015322,登記記録の閉鎖等,0,2024-03-18,2024-03-14,有限会社みずポリス三重,,有限会社,三重県,松阪市,中道町５０５番地１,,24,204,5152115,,,2024-03-14,清算の結了等,,,2015-10-05,1,,,,,ミズホポリスミエ,0
852,3290001072750,登記記録の閉鎖等,0,2024-03-18,2024-03-07,株式会社ＯＮＥ－ＳＴＥＰ,,株式会社,福岡県,福岡市南区,井尻４丁目２番４９号,,40,134,8111302,,,2024-03-07,清算の結了等,,,2016-02-03,1,,,,,,0
860,3300001006590,登記記録の閉鎖等,0,2024-03-18,2024-03-14,株式会社キムラ産業,,株式会社,佐賀県,鳥栖市,平田町３１３６番地１１,,41,203,8410076,,,2024-03-14,清算の結了等,,,2015-10-05,1,,,,,キムラサンギョウ,0
869,3350001016288,登記記録の閉鎖等,0,2024-03-18,2024-02-29,ひいらぎホールディングス株式会社,,株式会社,宮崎県,小林市,細野２８８番地１,,45,205,8860004,,,2024-02-29,合併による解散等,7350001012250,令和６年２月２９日宮崎県小林市細野２８８番地１株式会社ハリー＆カンパニー（7350001012250）に合併し解散,2020-02-27,1,,,,,ヒイラギホールディングス,0
871,3360001005117,登記記録の閉鎖等,0,2024-03-18,2024-03-08,株式会社ワイエムシィ,,株式会社,沖縄県,那覇市,旭町１１４番地４,,47,201,9000029,,,2024-03-08,合併による解散等,9180001061008,令和６年２月２７日名古屋市中区錦二丁目１３番１９号株式会社Ｂｒｉｃｋｓ＆ＵＫ（9180001061008）に合併し解散,2015-10-05,1,,,,,ワイエムシィ,0
895,3400001014831,登記記録の閉鎖等,0,2024-03-18,2024-03-12,株式会社幸和,,株式会社,岩手県,盛岡市,乙部２地割１番地２０,,03,201,0200403,,,2024-03-12,清算の結了等,,,2019-11-12,1,,,,,コウワ,0
905,3420001016925,登記記録の閉鎖等,0,2024-03-18,2024-03-13,株式会社セレクト,,株式会社,青森県,八戸市,大字十三日町１番地ヴィアノヴァビル３Ｆ３０２,,02,203,0310042,,,2024-03-13,清算の結了等,,,2020-03-09,1,,,,,,0
931,4010001170267,登記記録の閉鎖等,0,2024-03-18,2024-03-08,株式会社ヒューマンアート,,株式会社,東京都,中央区,銀座６丁目８番７号,,13,102,1040061,,,2024-03-08,清算の結了等,,,2015-10-05,1,,,,,ヒューマンアート,0
932,4010001202978,登記記録の閉鎖等,0,2024-03-18,2024-03-11,日本ロジスティックスプラットフォーム株式会社,,株式会社,東京都,千代田区,大手町１丁目４番２号,,13,101,1000004,,,2024-03-11,清算の結了等,,,2019-08-02,1,,,,,ニホンロジスティックスプラットフォーム,0
983,4011202004346,登記記録の閉鎖等,0,2024-03-18,2024-03-13,有限会社鳥正,,有限会社,東京都,中野区,新井１丁目３７番１号,,13,114,1650026,,,2024-03-13,清算の結了等,,,2015-10-05,1,,,,,トリショウ,0
998,4012401022089,登記記録の閉鎖等,0,2024-03-18,2024-03-15,株式会社クールワカミヤ,,株式会社,東京都,府中市,白糸台３丁目４３番地の２,,13,206,1830011,,,2024-03-15,清算の結了等,,,2015-10-05,1,,,,,クールワカミヤ,0
1013,4020005003827,登記記録の閉鎖等,0,2024-03-18,2024-03-11,西区木材協同組合,,その他の設立登記法人,神奈川県,横浜市西区,浅間町１丁目４番地の４,,14,103,2200072,,,2024-03-11,清算の結了等,,,2015-10-05,1,,,,,ニシクモクザイ,0
1026,4030002077146,登記記録の閉鎖等,0,2024-03-18,2024-03-12,有限会社関根商事,,有限会社,埼玉県,入間郡三芳町,大字竹間沢６５４番地,,11,324,3540043,,,2024-03-12,清算の結了等,,,2015-10-05,1,,,,,セキネショウジ,0
1034,4040001060572,登記記録の閉鎖等,0,2024-03-18,2024-03-13,株式会社ベジテック食品分析センター,,株式会社,千葉県,山武市,松尾町本柏２８８４番地３,,12,237,2891521,,,2024-03-13,清算の結了等,,,2015-10-05,1,,,,,ベジテックショクヒンブンセキセンター,0
1056,4060002014831,登記記録の閉鎖等,0,2024-03-18,2024-03-11,有限会社きむら,,有限会社,栃木県,日光市,木和田島１５２６番地５７,,09,206,3212345,,,2024-03-11,清算の結了等,,,2015-10-05,1,,,,,キムラ,0
1069,4090002002882,登記記録の閉鎖等,0,2024-03-18,2024-03-15,有限会社松木工務店,,有限会社,山梨県,甲府市,大里町２９０１番地,,19,201,4000053,,,2024-03-15,清算の結了等,,,2015-10-05,1,,,,,マツキコウムテン,0
1074,4110005010723,登記記録の閉鎖等,0,2024-03-18,2024-03-01,ひすい農業協同組合,,その他の設立登記法人,新潟県,糸魚川市,大町１丁目３番４号,,15,216,9410061,,,2024-03-01,合併による解散等,9110005009380,令和６年３月１日新潟県上越市藤巻５番３０号えちご上越農業協同組合（9110005009380）に合併し解散,2015-10-05,1,,,,,ヒスイ,0
1075,4110005012067,登記記録の閉鎖等,0,2024-03-18,2024-03-04,特定非営利活動法人縄文の杜をつくる会,,その他の設立登記法人,新潟県,長岡市,飯島１３８番地２株式会社鈴木造園内,,15,202,9495401,,,2024-03-04,清算の結了等,,,2015-10-05,1,,,,,ジョウモンノモリヲツクルカイ,0
1123,4170003001594,登記記録の閉鎖等,0,2024-03-18,2024-03-15,合同会社ＭＯＭＯＤＡ,,合同会社,和歌山県,和歌山市,田野２０７－２,,30,201,6410061,,,2024-03-15,清算の結了等,,,2021-06-24,1,,,,,モモダ,0
1135,4180002050022,登記記録の閉鎖等,0,2024-03-18,2024-03-08,有限会社アトラクト,,有限会社,愛知県,名古屋市守山区,大森４丁目１４０６番地の２,,23,113,4630021,,,2024-03-08,清算の結了等,,,2015-10-05,1,,,,,アトラクト,0
1152,4240002012354,登記記録の閉鎖等,0,2024-03-18,2024-03-13,有限会社ニューウエーブ,,有限会社,広島県,広島市佐伯区,観音台３丁目８番１０号,,34,108,7315157,,,2024-03-13,清算の結了等,,,2015-10-05,1,,,,,ニューウエーブ,0
1157,4250001008063,登記記録の閉鎖等,0,2024-03-18,2024-03-13,萩酒類販売株式会社,,株式会社,山口県,萩市,大字北古萩町８０番地１０,,35,204,7580032,,,2024-03-13,合併による解散等,3250001016827,令和６年３月１日山口県下関市竹崎町四丁目２番３６号地域商社やまぐち株式会社（3250001016827）に合併し解散,2015-10-05,1,,,,,,0
1176,4290002022794,登記記録の閉鎖等,0,2024-03-18,2024-03-08,有限会社エイ・エム・シー,,有限会社,福岡県,福岡市南区,野間１丁目１番１９号,,40,134,8150041,,,2024-03-08,清算の結了等,,,2015-10-05,1,,,,,エイエムシー,0
1203,4370005008849,登記記録の閉鎖等,0,2024-03-18,2024-03-13,バイオ環境企業組合,,その他の設立登記法人,宮城県,仙台市宮城野区,出花１丁目１５７－２,,04,102,9830012,,,2024-03-13,清算の結了等,,,2015-10-05,1,,,,,バイオカンキョウ,0
1206,4380005004673,登記記録の閉鎖等,0,2024-03-18,2024-03-11,医療法人一麦会,,その他の設立登記法人,福島県,白河市,中町５番地,,07,205,9610951,,,2024-03-11,清算の結了等,,,2015-10-05,1,,,,,イチバクカイ,0
1207,4380005010738,登記記録の閉鎖等,0,2024-03-18,2024-03-12,特定非営利活動法人ＴＡＴＡＫＩＡＧＥ　Ｊａｐａｎ,,その他の設立登記法人,福島県,いわき市,平字白銀町２番地の１０,,07,204,9708026,,,2024-03-12,清算の結了等,,,2015-10-05,1,,,,,タタキアゲジャパン,0
1212,4410001004459,登記記録の閉鎖等,0,2024-03-18,2024-03-11,株式会社さくらエンジニアリング,,株式会社,秋田県,秋田市,土崎港中央５丁目１０番３８号,,05,201,0110946,,,2024-03-11,清算の結了等,,,2015-10-05,1,,,,,サクラエンジニアリング,0
1241,5010401028543,登記記録の閉鎖等,0,2024-03-18,2024-03-13,三河屋株式会社,,株式会社,東京都,港区,南青山２丁目１９番３号サザンキャッスルビル,,13,103,1070062,,,2024-03-13,清算の結了等,,,2015-10-05,1,,,,,ミカワヤ,0
1253,5010405016098,登記記録の閉鎖等,0,2024-03-18,2024-03-13,ビーロットリート投資法人,,その他の設立登記法人,東京都,港区,新橋２丁目１９番１０号,,13,103,1050004,,,2024-03-13,清算の結了等,,,2017-09-25,1,,,,,ビーロットリート,0
1256,5010601036981,登記記録の閉鎖等,0,2024-03-18,2024-03-12,株式会社ランドクリエイト,,株式会社,東京都,墨田区,緑３丁目６番２号,,13,107,1300021,,,2024-03-12,清算の結了等,,,2015-10-05,1,,,,,ランドクリエイト,0
1299,5013401002410,登記記録の閉鎖等,0,2024-03-18,2024-03-12,株式会社リピート,,株式会社,東京都,多摩市,関戸４丁目１０番地の９,,13,224,2060011,,,2024-03-12,清算の結了等,,,2015-10-05,1,,,,,リピート,0
1318,5030001116192,登記記録の閉鎖等,0,2024-03-18,2024-03-13,株式会社しらいしプラス,,株式会社,埼玉県,北本市,中丸７丁目１６２番地２,,11,233,3640013,,,2024-03-13,清算の結了等,,,2016-09-06,1,,,,,シライシプラス,0
1333,5040002056759,登記記録の閉鎖等,0,2024-03-18,2024-03-13,窓立工業有限会社,,有限会社,千葉県,印旛郡栄町,安食２９２５番地,,12,329,2701516,,,2024-03-13,清算の結了等,,,2015-10-05,1,,,,,,0
1347,5060005009332,登記記録の閉鎖等,0,2024-03-18,2024-03-11,一般社団法人ＤＭＯ日光,,その他の設立登記法人,栃木県,日光市,今市本町１番地,,09,206,3211272,,,2024-03-11,清算の結了等,,,2017-05-15,1,,,,,ディーエムオーニッコウ,0
1362,5120001066197,登記記録の閉鎖等,0,2024-03-18,2024-03-14,株式会社創豊,,株式会社,大阪府,大阪市北区,梅田２丁目４番２号,,27,127,5300001,,,2024-03-14,清算の結了等,,,2015-10-05,1,,,,,ソウホウ,0
1378,5120003025003,登記記録の閉鎖等,0,2024-03-18,2024-03-12,合同会社Ｎａｌｕ,,合同会社,大阪府,大阪市西淀川区,野里１丁目７－２５フルーレ野里４０３,,27,113,5550024,,,2024-03-12,清算の結了等,,,2023-10-03,1,,,,,ナル,0
1399,5140001026793,登記記録の閉鎖等,0,2024-03-18,2024-03-01,株式会社楓塗装,,株式会社,兵庫県,神戸市長田区,鹿松町３丁目５番４号,,28,106,6530877,,,2024-03-01,清算の結了等,,,2015-10-05,1,,,,,カエデトソウ,0
1423,5180001016997,登記記録の閉鎖等,0,2024-03-18,2024-03-07,親和貿易株式会社,,株式会社,愛知県,名古屋市東区,徳川１丁目６０７番地,,23,102,4610025,,,2024-03-07,清算の結了等,,,2015-10-05,1,,,,,シンワボウエキ,0
1434,5180005015905,登記記録の閉鎖等,0,2024-03-18,2024-03-07,一般社団法人ユニバーサルガイドユニオン,,その他の設立登記法人,愛知県,名古屋市熱田区,神宮３丁目７番１号べんてん会館４階,,23,109,4560031,,,2024-03-07,清算の結了等,,,2015-10-05,1,,,,,ユニバーサルガイドユニオン,0
1435,5180301036753,登記記録の閉鎖等,0,2024-03-18,2024-03-14,株式会社ティー・キュー・エス,,株式会社,愛知県,岡崎市,上青野町字中屋敷１２３番地,,23,202,4440243,,,2024-03-14,清算の結了等,,,2022-10-26,1,,,,,ティーキューエス,0
1451,5260001021089,登記記録の閉鎖等,0,2024-03-18,2024-03-14,株式会社大栄,,株式会社,岡山県,津山市,加茂町公郷１７２６番地６,,33,203,7093921,,,2024-03-14,清算の結了等,,,2015-10-05,1,,,,,ダイエイ,0
1458,5290001027942,登記記録の閉鎖等,0,2024-03-18,2024-03-08,株式会社コピス,,株式会社,福岡県,福岡市中央区,舞鶴２丁目２番３－４０１号,,40,133,8100073,,,2024-03-08,清算の結了等,,,2015-10-05,1,,,,,,0
1463,5290001090890,登記記録の閉鎖等,0,2024-03-18,2024-03-12,株式会社フォーシーズン大分,,株式会社,福岡県,久留米市,六ツ門町３番地６２－２０１,,40,203,8300031,,,2024-03-12,合併による解散等,8290001074437,令和６年３月１日福岡県久留米市六ツ門町３番地６２－２０１株式会社フォーシーズン（8290001074437）に合併し解散,2020-11-10,1,,,,,フォーシーズンオオイタ,0
1501,5400003003062,登記記録の閉鎖等,0,2024-03-18,2024-03-13,みやざき不動産合同会社,,合同会社,岩手県,盛岡市,三本柳５地割３３番地２７エクセル都南２０３号,,03,201,0200831,,,2024-03-13,清算の結了等,,,2023-04-10,1,,,,,ミヤザキフドウサン,0
1585,6011001066429,登記記録の閉鎖等,0,2024-03-18,2024-03-07,ネクストマークス株式会社,,株式会社,東京都,渋谷区,渋谷１丁目１４番１６号,,13,113,1500002,,,2024-03-07,清算の結了等,,,2015-10-05,1,,,,,ネクストマークス,0
1604,6011602021419,登記記録の閉鎖等,0,2024-03-18,2024-03-15,有限会社小坂技術士事務所,,有限会社,東京都,練馬区,東大泉１丁目１２番２１号,,13,120,1780063,,,2024-03-15,清算の結了等,,,2015-10-05,1,,,,,コサカギジュツシジムショ,0
1611,6013101007642,登記記録の閉鎖等,0,2024-03-18,2024-03-15,株式会社佐藤建興,,株式会社,東京都,あきる野市,伊奈９７９番地,,13,228,1900142,,,2024-03-15,清算の結了等,,,2017-06-09,1,,,,,,0
1625,6020003016300,登記記録の閉鎖等,0,2024-03-18,2024-03-12,合同会社タカセ,,合同会社,京都府,京都市南区,久世高田町３７３番地,,26,107,6018211,,,2024-03-12,清算の結了等,,,2019-07-02,1,,,,,タカセ,0
1632,6030001069522,登記記録の閉鎖等,0,2024-03-18,2024-03-14,株式会社セレモア埼玉本社,,株式会社,埼玉県,坂戸市,日の出町３１番地１３,,11,239,3500225,,,2024-03-14,合併による解散等,8012801009302,令和６年３月１日東京都立川市柏町一丁目２６番地の４株式会社セレモア（8012801009302）に合併し解散,2015-10-05,1,,,,,セレモアサイタマホンシャ,0
1633,6030001104411,登記記録の閉鎖等,0,2024-03-18,2024-03-13,株式会社Ｍ＆Ｉ,,株式会社,埼玉県,鴻巣市,天神１丁目１０番６１号,,11,217,3650036,,,2024-03-13,合併による解散等,7011601026847,令和６年３月１日東京都練馬区高野台二丁目１１番１５－４０８号株式会社スリープ愛ランド（7011601026847）に合併し解散,2015-10-05,1,,,,,エムアンドアイ,0
1650,6040002031348,登記記録の閉鎖等,0,2024-03-18,2024-03-13,スカイフィッシュ有限会社,,有限会社,千葉県,八千代市,村上南５丁目１番地２１ルークスティール１Ａ－１０３,,12,221,2760029,,,2024-03-13,清算の結了等,,,2015-10-05,1,,,,,スカイフィッシュ,0
1659,6060001016249,登記記録の閉鎖等,0,2024-03-18,2024-03-13,株式会社大出物産,,株式会社,栃木県,栃木市,嘉右衛門町８番１０号,,09,203,3280072,,,2024-03-13,清算の結了等,,,2015-10-05,1,,,,,オオデブッサン,0
1671,6080402007670,登記記録の閉鎖等,0,2024-03-18,2024-03-14,有限会社マルケイ洋服店,,有限会社,静岡県,浜松市中央区,白羽町６５４番地の２,,22,138,4300846,,,2024-03-14,清算の結了等,,,2015-10-05,1,,,,,マルケイヨウフクテン,0
1696,6120901027594,登記記録の閉鎖等,0,2024-03-18,2024-03-05,株式会社色彩カーサ,,株式会社,大阪府,豊中市,北条町１丁目１４番４４号,,27,203,5610812,,,2024-03-05,清算の結了等,,,2015-10-05,1,,,,,シキサイカーサ,0
1700,6120901033956,登記記録の閉鎖等,0,2024-03-18,2024-03-14,株式会社リアルファクトリー,,株式会社,大阪府,高槻市,城北町２丁目５番２０号,,27,207,5690071,,,2024-03-14,清算の結了等,,,2015-10-05,1,,,,,リアルファクトリー,0
1730,6180001023778,登記記録の閉鎖等,0,2024-03-18,2024-03-04,株式会社宗野電設,,株式会社,愛知県,名古屋市天白区,島田黒石１３１５番地,,23,116,4680028,,,2024-03-04,清算の結了等,,,2015-10-05,1,,,,,ムネノデンセツ,0
1789,6290003010185,登記記録の閉鎖等,0,2024-03-18,2024-03-07,合同会社レイヤード,,合同会社,福岡県,福岡市中央区,渡辺通５丁目１４番１２号南天神ビル３階,,40,133,8100004,,,2024-03-07,清算の結了等,,,2020-07-10,1,,,,,レイヤード,0
1800,6330005004230,登記記録の閉鎖等,0,2024-03-18,2024-03-08,荒尾市土地開発公社,,その他の設立登記法人,熊本県,荒尾市,宮内出目３９０番地,,43,204,8640003,,,2024-03-08,清算の結了等,,,2015-10-05,1,,,,,アラオシ,0
1823,6402702000173,登記記録の閉鎖等,0,2024-03-18,2024-03-11,有限会社サウンドリアス大船渡,,有限会社,岩手県,大船渡市,大船渡町字地ノ森２５番地９,,03,203,0220002,,,2024-03-11,清算の結了等,,,2015-10-05,1,,,,,サウンドリアスオオフナト,0
1851,7010003029046,登記記録の閉鎖等,0,2024-03-18,2024-03-12,トレードスパイク合同会社,,合同会社,東京都,中央区,日本橋室町１丁目１３番７号,,13,102,1030022,,,2024-03-12,清算の結了等,,,2019-01-11,1,,,,,トレードスパイク,0
1858,7010401096101,登記記録の閉鎖等,0,2024-03-18,2024-03-13,アエル株式会社,,株式会社,東京都,新宿区,天神町７８番地,,13,104,1620808,,,2024-03-13,清算の結了等,,,2015-10-05,1,,,,,アエル,0
1874,7010603004984,登記記録の閉鎖等,0,2024-03-18,2024-03-13,合同会社ＧＲＩＴ,,合同会社,東京都,港区,浜松町２丁目２番１５号浜松町ダイヤビル２Ｆ,,13,103,1050013,,,2024-03-13,清算の結了等,,,2015-10-05,1,,,,,グリット,0
1887,7011001119516,登記記録の閉鎖等,0,2024-03-18,2024-03-12,プレイアデス株式会社,,株式会社,東京都,千代田区,麹町５丁目３番２３号,,13,101,1020083,,,2024-03-12,清算の結了等,,,2017-12-14,1,,,,,プレイアデス,0
1901,7011305002153,登記記録の閉鎖等,0,2024-03-18,2024-03-11,司法書士法人高橋事務所,00054626,その他の設立登記法人,東京都,杉並区,天沼３丁目１１番２号東洋時計北口ビル６階,,13,115,1670032,,,2024-03-11,清算の結了等,,,2015-10-05,1,,,,,タカハシジムショ,0
1914,7011803002217,登記記録の閉鎖等,0,2024-03-18,2024-03-13,合同会社Ｆｏｒｗａｒｄ,,合同会社,東京都,港区,浜松町２丁目２番１５号浜松町ダイヤビル２Ｆ,,13,103,1050013,,,2024-03-13,清算の結了等,,,2015-10-05,1,,,,,フォワード,0
1916,7012402002153,登記記録の閉鎖等,0,2024-03-18,2024-03-13,有限会社花屋設備工業,,有限会社,東京都,府中市,是政６丁目１６番地の８,,13,206,1830014,,,2024-03-13,清算の結了等,,,2015-10-05,1,,,,,ハナヤセツビコウギョウ,0
1918,7012402021698,登記記録の閉鎖等,0,2024-03-18,2024-03-12,有限会社エーシージャパン,,有限会社,東京都,武蔵野市,吉祥寺南町１丁目１１番３号,,13,203,1800003,,,2024-03-12,清算の結了等,,,2015-10-05,1,,,,,エーシージャパン,0
1937,7021001069891,登記記録の閉鎖等,0,2024-03-18,2024-03-14,株式会社ｅａｒｔｈ＆ｏｎｅ　ａｒｃｈｉｔｅｃｔ,,株式会社,神奈川県,相模原市緑区,橋本２丁目３番２２号,,14,151,2520143,,,2024-03-14,清算の結了等,,,2020-05-15,1,,,,,アースアンドワンアーキテクト,0
1976,7080403004600,登記記録の閉鎖等,0,2024-03-18,2024-03-14,合同会社Ｉｒｉｓ,,合同会社,静岡県,浜松市中央区,豊町２１９０－２,,22,138,4313101,,,2024-03-14,清算の結了等,,,2022-08-10,1,,,,,アイリス,0
1981,7090001013317,登記記録の閉鎖等,0,2024-03-18,2024-03-13,ハヤシ商事株式会社,,株式会社,埼玉県,北本市,二ツ家３丁目１,,11,233,3640014,,,2024-03-13,清算の結了等,,,2015-10-05,1,,,,,ハヤシショウジ,0
1990,7120001169923,登記記録の閉鎖等,0,2024-03-18,2024-03-13,株式会社モリシタロジ,,株式会社,大阪府,交野市,倉治９丁目２６４４番地の３,,27,230,5760051,,,2024-03-13,清算の結了等,,,2015-10-05,1,,,,,モリシタロジ,0
2011,7122001024728,登記記録の閉鎖等,0,2024-03-18,2024-03-13,株式会社ティーホーム,,株式会社,大阪府,東大阪市,小阪１丁目２番３号,,27,227,5770801,,,2024-03-13,清算の結了等,,,2015-10-05,1,,,,,ティーホーム,0
2021,7140001084162,登記記録の閉鎖等,0,2024-03-18,2024-03-11,株式会社マロン,,株式会社,兵庫県,宝塚市,千種２丁目８番９６号,,28,214,6650072,,,2024-03-11,清算の結了等,,,2015-10-05,1,,,,,マロン,0
2054,7190001027785,登記記録の閉鎖等,0,2024-03-18,2024-03-14,株式会社宍戸ホールディングス,,株式会社,三重県,津市,半田９３６番地２５,,24,201,5140823,,,2024-03-14,清算の結了等,,,2020-11-04,1,,,,,シシドホールディングス,0
2062,7240001037969,登記記録の閉鎖等,0,2024-03-18,2024-03-15,金富産業株式会社,,株式会社,広島県,尾道市,東御所町５番１号,,34,205,7220036,,,2024-03-15,清算の結了等,,,2015-10-05,1,,,,,カナトミサンギョウ,0
2080,7290805004029,登記記録の閉鎖等,0,2024-03-18,2024-03-12,学校法人小鳩幼稚園,,その他の設立登記法人,福岡県,北九州市八幡東区,枝光４丁目１０番１号,,40,108,8050002,,,2024-03-12,清算の結了等,,,2015-10-05,1,,,,,コバトヨウチエン,0
2082,7310002016881,登記記録の閉鎖等,0,2024-03-18,2024-03-12,有限会社時代屋,,有限会社,長崎県,大村市,上諏訪町８９８番地,,42,205,8560023,,,2024-03-12,合併による解散等,6310001011224,令和６年３月１日長崎県大村市上諏訪町８９８番地株式会社大幸企画（6310001011224）に合併し解散,2015-10-05,1,,,,,,0
2114,7420003001442,登記記録の閉鎖等,0,2024-03-18,2024-03-13,合同会社居宅介護支援サービス介護のこと,,合同会社,青森県,五所川原市,大字梅田字平野１２番地,,02,205,0370022,,,2024-03-13,清算の結了等,,,2015-10-05,1,,,,,キョタクカイゴシエンサービスカイゴノコト,0
2116,7420005001093,登記記録の閉鎖等,0,2024-03-18,2024-02-29,特定非営利活動法人ピアネット,,その他の設立登記法人,青森県,青森市,篠田１丁目８番１号エムズコーポ１０１,,02,201,0380011,,,2024-02-29,合併による解散等,6420005002118,令和６年２月２９日青森市北金沢一丁目１５番１２号特定非営利活動法人あおもり２４（6420005002118）に合併し解散,2015-10-05,1,,,,,,0
2148,8010001226817,登記記録の閉鎖等,0,2024-03-18,2024-03-12,Ｒ‐ＳＴＡＲ株式会社,,株式会社,東京都,文京区,水道２丁目８番１号ハウザス小日向４０１,,13,105,1120005,,,2024-03-12,清算の結了等,,,2022-05-26,1,,,,,アールスター,0
2149,8010001228747,登記記録の閉鎖等,0,2024-03-18,2024-03-12,株式会社ａｕｔｏｆｉｔ,,株式会社,東京都,文京区,本郷５丁目２５番１８－５０１号,,13,105,1130033,,,2024-03-12,清算の結了等,,,2022-08-15,1,,,,,オートフィット,0
2156,8010101000246,登記記録の閉鎖等,0,2024-03-18,2024-03-08,天草産業株式会社,,株式会社,東京都,八王子市,緑町４１２番地１０,,13,201,1930932,,,2024-03-08,清算の結了等,,,2015-10-05,1,,,,,アマクササンギョウ,0
2157,8010101008462,登記記録の閉鎖等,0,2024-03-18,2024-03-11,株式会社メディアワーク,,株式会社,東京都,八王子市,小比企町２３７０番地の６,,13,201,1930934,,,2024-03-11,清算の結了等,,,2015-10-05,1,,,,,メディアワーク,0
2161,8010401151763,登記記録の閉鎖等,0,2024-03-18,2024-03-13,株式会社Ｓｐｌｅｎｄ,,株式会社,東京都,港区,高輪４丁目２４番４３号,,13,103,1080074,,,2024-03-13,清算の結了等,,,2020-03-23,1,,,,,スプレンド,0
2171,8010601010802,登記記録の閉鎖等,0,2024-03-18,2024-03-13,株式会社サンライ総合企画,,株式会社,東京都,墨田区,押上２丁目１６番２－５０５号エスタガーデン,,13,107,1310045,,,2024-03-13,清算の結了等,,,2015-10-05,1,,,,,サンライソウゴウキカク,0
2178,8010801021228,登記記録の閉鎖等,0,2024-03-18,2024-03-14,クロスポイント株式会社,,株式会社,千葉県,千葉市中央区,中央４丁目１０番８号,,12,101,2600013,,,2024-03-14,合併による解散等,7020001052123,令和６年３月１日横浜市港北区新横浜三丁目６番地１２ＳＯＣＳマネジメントシステムズ株式会社（7020001052123）に合併し解散,2015-10-05,1,,,,,クロスポイント,0
2179,8010805000327,登記記録の閉鎖等,0,2024-03-18,2024-03-06,天理教梅屋敷分教会,,その他の設立登記法人,東京都,大田区,東蒲田１丁目１５番１１号,,13,111,1440031,,,2024-03-06,合併による解散等,3080105000612,令和６年２月２９日静岡県裾野市茶畑２０５番地天理教佐野原大教会（3080105000612）に合併し解散,2015-10-05,1,,,,,,0
2183,8011001012546,登記記録の閉鎖等,0,2024-03-18,2024-03-13,セブンシーズ株式会社,,株式会社,東京都,渋谷区,千駄ヶ谷３丁目５３番１４号,,13,113,1510051,,,2024-03-13,清算の結了等,,,2023-08-09,1,,,,,,0
2237,8020002050942,登記記録の閉鎖等,0,2024-03-18,2024-03-13,有限会社インテリア・藤田,,有限会社,神奈川県,横浜市中区,本牧町１丁目３０番地,,14,104,2310806,,,2024-03-13,清算の結了等,,,2015-10-05,1,,,,,インテリアフジタ,0
2240,8020005015356,登記記録の閉鎖等,0,2024-03-18,2024-03-12,一般社団法人ＪＱＩ補完医療協会,,その他の設立登記法人,神奈川県,横浜市鶴見区,東寺尾５丁目２番１０－４０４号,,14,101,2300077,,,2024-03-12,清算の結了等,,,2022-01-17,1,,,,,ジェイキュウアイホカンイリョウキョウカイ,0
2254,8030001046899,登記記録の閉鎖等,0,2024-03-18,2024-03-14,リビングウィル株式会社,,株式会社,埼玉県,和光市,新倉１丁目２番４２号,,11,229,3510115,,,2024-03-14,清算の結了等,,,2015-10-05,1,,,,,リビングウィル,0
2268,8030002117880,登記記録の閉鎖等,0,2024-03-18,2024-03-13,株式会社スリープ愛ランド,,株式会社,埼玉県,鴻巣市,天神１丁目１０番６１号,,11,217,3650036,,,2024-03-13,合併による解散等,7011601026847,令和６年３月１日東京都練馬区高野台二丁目１１番１５－４０８号株式会社スリープ愛ランド（7011601026847）に合併し解散,2015-10-05,1,,,,,スリープアイランド,0
2283,8040003022476,登記記録の閉鎖等,0,2024-03-18,2024-03-13,ＭＡＳＡＫＩ　ＳＴＯＲＥ合同会社,,合同会社,千葉県,市川市,曽谷７丁目３２番１０号レオパレスグローバル市川１０２号,,12,203,2720832,,,2024-03-13,清算の結了等,,,2023-04-28,1,,,,,マサキストア,0
2295,8080102014346,登記記録の閉鎖等,0,2024-03-18,2024-03-15,有限会社大成フーズ,,有限会社,静岡県,富士市,伝法３５３番地の１,,22,210,4170061,,,2024-03-15,清算の結了等,,,2015-10-05,1,,,,,,0
2302,8080405004779,登記記録の閉鎖等,0,2024-03-18,2024-02-28,如意庵,,その他の設立登記法人,静岡県,掛川市,西大渕３６番地,,22,213,4371304,,,2024-02-28,合併による解散等,1080405004802,令和６年２月２８日静岡県掛川市西大渕５６５９番地龍眠寺（1080405004802）に合併し解散,2015-10-05,1,,,,,ニョイアン,0
2306,8100001024609,登記記録の閉鎖等,0,2024-03-18,2024-03-07,株式会社諸国銘酒会,,株式会社,長野県,上田市,長瀬２９９９番地１,,20,203,3860407,,,2024-03-07,清算の結了等,,,2015-10-05,1,,,,,ショコクメイシュカイ,0
2334,8130005005180,登記記録の閉鎖等,0,2024-03-18,2024-03-14,特定非営利活動法人シーズネット京都,,その他の設立登記法人,京都府,京都市上京区,河原町今出川下る二丁目栄町３６４ハウスセゾンビル４０５,,26,102,6020000,,,2024-03-14,清算の結了等,,,2015-10-05,1,,,,,シーズネットキョウト,0
2338,8140001014639,登記記録の閉鎖等,0,2024-03-18,2024-03-12,神戸六甲タクシー株式会社,,株式会社,兵庫県,神戸市長田区,菅原通４丁目２０２番地の３,,28,106,6530015,,,2024-03-12,清算の結了等,,,2015-10-05,1,,,,,コウベロッコウタクシー,0
2348,8140002009506,登記記録の閉鎖等,0,2024-03-18,2024-03-11,有限会社ロスト,,有限会社,兵庫県,神戸市長田区,上池田２丁目１番１９号,,28,106,6530827,,,2024-03-11,清算の結了等,,,2015-10-05,1,,,,,ロスト,0
2350,8140002071332,登記記録の閉鎖等,0,2024-03-18,2024-03-12,有限会社丸北商店,,有限会社,兵庫県,西宮市,羽衣町１０番５２号,,28,204,6620051,,,2024-03-12,清算の結了等,,,2024-01-31,1,,,,,,0
2372,8180002054168,登記記録の閉鎖等,0,2024-03-18,2024-03-12,有限会社真憲,,有限会社,愛知県,名古屋市北区,辻町９丁目６６番地,00073217,23,103,4620032,,,2024-03-12,清算の結了等,,,2015-10-05,1,,,,,シンケン,0
2387,8210001016116,登記記録の閉鎖等,0,2024-03-18,2024-03-13,株式会社婚姻届工房,,株式会社,福井県,鯖江市,新横江１丁目５番２９号,,18,207,9160042,,,2024-03-13,清算の結了等,,,2015-10-16,1,,,,,コンイントドケコウボウ,0
2393,8240001060664,登記記録の閉鎖等,0,2024-03-18,2024-03-13,環光コネクト株式会社,,株式会社,広島県,廿日市市,宮浜温泉１丁目２０番２３号,,34,213,7390454,,,2024-03-13,清算の結了等,,,2022-11-15,1,,,,,ワコウコネクト,0
2416,8310005003117,登記記録の閉鎖等,0,2024-03-18,2024-03-06,天理教治栄分教会,,その他の設立登記法人,長崎県,佐世保市,大宮町２４番９号,,42,202,8570841,,,2024-03-06,合併による解散等,9310005002745,令和６年３月６日長崎県佐世保市相浦町１９１０番地天理教相浦分教会（9310005002745）に合併し解散,2015-10-05,1,,,,,テンリキョウハルエイブンキョウカイ,0
2417,8320001014752,登記記録の閉鎖等,0,2024-03-18,2024-03-13,エジャイルロジテック株式会社,,株式会社,大分県,大分市,金池町５丁目８番１２号東洋第一ビル,,44,201,8700026,,,2024-03-13,清算の結了等,,,2016-02-25,1,,,,,,0
2420,8330002024733,登記記録の閉鎖等,0,2024-03-18,2024-03-07,有限会社光永,,有限会社,熊本県,宇土市,新町１丁目４６番地,,43,211,8690444,,,2024-03-07,清算の結了等,,,2015-10-05,1,,,,,ミツナガ,0
2432,8360005000563,登記記録の閉鎖等,0,2024-03-18,2024-03-14,沖縄こんにゃく事業協同組合,,その他の設立登記法人,沖縄県,中頭郡西原町,字東崎４番地１１,,47,329,9030105,,,2024-03-14,清算の結了等,,,2015-10-05,1,,,,,オキナワコンニャク,0
2442,8420001005576,登記記録の閉鎖等,0,2024-03-18,2024-03-11,株式会社岩徳,,株式会社,青森県,八戸市,大字六日町１０番地,,02,203,0310033,,,2024-03-11,清算の結了等,,,2015-10-05,1,,,,,,0
2464,9010001181144,登記記録の閉鎖等,0,2024-03-18,2024-03-13,クレア・ジャパン株式会社,,株式会社,東京都,千代田区,丸の内１丁目６番２号新丸の内センタービルディング株式会社アドバンテスト気付,,13,101,1000005,,,2024-03-13,清算の結了等,,,2017-02-01,1,,,,,クレアジャパン,0
2465,9010001191779,登記記録の閉鎖等,0,2024-03-18,2024-03-13,まるこう食品株式会社,,株式会社,東京都,中央区,明石町８番１号,,13,102,1040044,,,2024-03-13,清算の結了等,,,2018-05-16,1,,,,,マルコウショクヒン,0
2527,9011803002702,登記記録の閉鎖等,0,2024-03-18,2024-03-13,株式会社ＥＴＳ,,株式会社,東京都,墨田区,墨田５丁目５番２号Ｒビル墨田,,13,107,1310031,,,2024-03-13,清算の結了等,,,2016-12-09,1,,,,,イーティーエス,0
2555,9030001024029,登記記録の閉鎖等,0,2024-03-18,2024-03-12,高華通商株式会社,,株式会社,埼玉県,所沢市,くすのき台３丁目１６番地の６ビジュー所沢くすのき台４０４,,11,208,3590037,,,2024-03-12,清算の結了等,,,2015-10-05,1,,,,,コウカツウショウ,0
2563,9030001157605,登記記録の閉鎖等,0,2024-03-18,2024-03-13,株式会社秩父銀行,,株式会社,埼玉県,秩父市,大宮１３１番,,11,207,3680023,,,2024-03-13,清算の結了等,,,2023-12-13,1,,,,,チチブギンコウ,0
2567,9030002109167,登記記録の閉鎖等,0,2024-03-18,2024-03-13,有限会社糸井工業,,有限会社,埼玉県,川口市,元郷５丁目５番１４号,,11,203,3320011,,,2024-03-13,清算の結了等,,,2015-10-05,1,,,,,イトイコウギョウ,0
2573,9040001072753,登記記録の閉鎖等,0,2024-03-18,2024-03-13,株式会社大謙土木,,株式会社,千葉県,八千代市,大和田新田９２２番地５５,,12,221,2760046,,,2024-03-13,清算の結了等,,,2015-10-05,1,,,,,ダイケンドボク,0
2584,9050001008384,登記記録の閉鎖等,0,2024-03-18,2024-03-12,株式会社樹設計事務所,,株式会社,茨城県,笠間市,大田町９２０番地,,08,216,3091738,,,2024-03-12,清算の結了等,,,2015-10-05,1,,,,,タチキセッケイジムショ,0
2585,9050001009052,登記記録の閉鎖等,0,2024-03-18,2024-03-12,関鉄観光株式会社,,株式会社,茨城県,土浦市,真鍋１丁目１０番８号,,08,203,3000051,,,2024-03-12,合併による解散等,8050001009631,令和６年３月１日茨城県土浦市真鍋一丁目１０番８号関鉄観光バス株式会社（8050001009631）に合併し解散,2015-10-05,1,,,,,カンテツカンコウ,0
2595,9070002033231,登記記録の閉鎖等,0,2024-03-18,2024-03-11,有限会社梶本工業所,,有限会社,群馬県,館林市,北成島町８２５番地の１３２,,10,207,3740057,,,2024-03-11,清算の結了等,,,2015-10-05,1,,,,,カジモトコウギョウショ,0
2597,9070005006928,登記記録の閉鎖等,0,2024-03-18,2024-03-13,川場村土地開発公社,,その他の設立登記法人,群馬県,利根郡川場村,大字谷地２３９０番地２,,10,444,3780101,,,2024-03-13,清算の結了等,,,2015-10-05,1,,,,,カワバムラ,0
2613,9120001040479,登記記録の閉鎖等,0,2024-03-18,2024-03-12,株式会社レジーナ・ジャパン,,株式会社,大阪府,大阪市西区,靱本町３丁目８番６号,,27,106,5500004,,,2024-03-12,清算の結了等,,,2015-10-05,1,,,,,レジーナジャパン,0
2618,9120001227407,登記記録の閉鎖等,0,2024-03-18,2024-03-13,株式会社エーエスエボリューション,,株式会社,大阪府,大阪市平野区,加美鞍作３丁目１２番５号,,27,126,5470004,,,2024-03-13,清算の結了等,,,2020-02-26,1,,,,,,0
2635,9120901034860,登記記録の閉鎖等,0,2024-03-18,2024-03-14,株式会社政,,株式会社,大阪府,豊中市,上津島２丁目１６番３５号,,27,203,5610843,,,2024-03-14,清算の結了等,,,2015-10-05,1,,,,,マサ,0
2644,9120903002254,登記記録の閉鎖等,0,2024-03-18,2024-03-14,合同会社市原,,合同会社,大阪府,豊中市,上津島２丁目１６番３５号,,27,203,5610843,,,2024-03-14,清算の結了等,,,2017-08-01,1,,,,,イチハラ,0
2655,9140002002773,登記記録の閉鎖等,0,2024-03-18,2024-03-14,有限会社アトラス,,有限会社,兵庫県,神戸市灘区,篠原北町２丁目１番９号,,28,102,6570068,,,2024-03-14,清算の結了等,,,2015-10-05,1,,,,,アトラス,0
2664,9180001046545,登記記録の閉鎖等,0,2024-03-18,2024-03-11,株式会社ドゥ・ハウス,,株式会社,愛知県,名古屋市中川区,中須町９２番地,,23,110,4540925,,,2024-03-11,清算の結了等,,,2015-10-05,1,,,,,ドゥハウス,0
2671,9180001152921,登記記録の閉鎖等,0,2024-03-18,2024-03-11,株式会社イーテクノ伊東,,株式会社,愛知県,名古屋市中区,千代田２丁目１７番３号,,23,106,4600012,,,2024-03-11,清算の結了等,,,2022-09-07,1,,,,,イーテクノイトウ,0
2677,9200001031536,登記記録の閉鎖等,0,2024-03-18,2024-03-11,株式会社ＴＤＩ　ｉｎｎｏｖａｔｉｏｎ,,株式会社,愛知県,春日井市,八田町７丁目１８番地８,,23,206,4860849,,,2024-03-11,清算の結了等,,,2015-10-05,1,,,,,ティーディーアイイノベーション,0
2685,9200002027285,登記記録の閉鎖等,0,2024-03-18,2024-03-14,有限会社坂本産業,,有限会社,岐阜県,下呂市,小坂町大島１８９７番地の２,,21,220,5093106,,,2024-03-14,清算の結了等,,,2015-10-05,1,,,,,サカモトサンギョウ,0
2688,9210001010522,登記記録の閉鎖等,0,2024-03-18,2024-03-11,北中商事株式会社,,株式会社,福井県,敦賀市,莇生野７４号５番地の１,,18,202,9140141,,,2024-03-11,清算の結了等,,,2015-10-05,1,,,,,キタナカショウジ,0
2699,9240001043775,登記記録の閉鎖等,0,2024-03-18,2024-03-15,株式会社鶴逸,,株式会社,広島県,廿日市市,宮内４丁目１０番２３号,,34,213,7380034,,,2024-03-15,清算の結了等,,,2015-10-05,1,,,,,ツルイツ,0
2716,9290002020496,登記記録の閉鎖等,0,2024-03-18,2024-03-08,株式会社スペースパル,,株式会社,福岡県,福岡市博多区,三筑１丁目７番２０－２０５号,,40,132,8120887,,,2024-03-08,清算の結了等,,,2015-10-05,1,,,,,スペースパル,0
2726,9320001003861,登記記録の閉鎖等,0,2024-03-18,2024-03-13,株式会社けやき,,株式会社,大分県,大分市,大字横尾３６０７番地の１,,44,201,8700126,,,2024-03-13,合併による解散等,6320001005316,令和６年２月１日大分市西大道二丁目３番８号株式会社フォレストホールディングス（6320001005316）に合併し解散,2015-10-05,1,,,,,ケヤキ,0
2749,9390002002377,登記記録の閉鎖等,0,2024-03-18,2024-03-15,有限会社フジ・エンタープライズ,,有限会社,山形県,山形市,十日町３丁目６番３３号,,06,201,9900031,,,2024-03-15,清算の結了等,,,2015-10-05,1,,,,,フジエンタープライズ,0
2750,9390002006246,登記記録の閉鎖等,0,2024-03-18,2024-03-13,高建工業有限会社,00084902,有限会社,山形県,上山市,四ツ谷１丁目７番４号,,06,207,9993162,,,2024-03-13,清算の結了等,,,2015-10-05,1,,,,,タカケンコウギョウ,0
2754,9420002014550,登記記録の閉鎖等,0,2024-03-18,2024-03-13,有限会社ワイエムスリー,,有限会社,青森県,弘前市,大字中野１丁目９番地１１,,02,202,0368155,,,2024-03-13,清算の結了等,,,2015-10-05,1,,,,,,0
2768,9480005002869,登記記録の閉鎖等,0,2024-03-18,2024-03-04,天理教別枝分教会,,その他の設立登記法人,徳島県,吉野川市,美郷字宗田４２２番地の５,,36,205,7793501,,,2024-03-04,合併による解散等,4480005002857,令和６年３月４日徳島県吉野川市川島町学字唐戸４７番地１天理教学分教会（4480005002857）に合併し解散,2015-10-05,1,,,,,テンリキョウベッシブンキョウカイ,0
