sequenceNumber,corporateNumber,process,correct,updateDate,changeDate,name,nameImageId,kind,prefectureName,cityName,streetNumber,addressImageId,prefectureCode,cityCode,postCode,addressOutside,addressOutsideImageId,closeDate,closeCause,successorCorporateNumber,changeCause,assignmentDate,latest,enName,enPrefectureName,enCityName,enAddressOutside,furigana,hihyoji
2,1010001131156,登記記録の閉鎖等,0,2023-01-16,2022-12-26,株式会社小泉工務店,,株式会社,東京都,大島町,元町２丁目１３番１７号,,13,361,1000101,,,2022-12-26,清算の結了等,,,2015-10-05,1,,,,,コイズミコウムテン,0
40,1010802007265,登記記録の閉鎖等,0,2023-01-16,2023-01-05,有限会社庄八金物,,有限会社,東京都,大田区,蒲田１丁目１０番１０号,,13,111,1440052,,,2023-01-05,清算の結了等,,,2015-10-05,1,,,,,ショウハチカナモノ,0
62,1011302000512,登記記録の閉鎖等,0,2023-01-16,2023-01-06,有限会社安達工務店,,有限会社,東京都,杉並区,下井草２丁目１２番１６号,,13,115,1670022,,,2023-01-06,清算の結了等,,,2015-10-05,1,,,,,アダチコウムテン,0
65,1011401014000,登記記録の閉鎖等,0,2023-01-16,2023-01-13,株式会社ファナティック,,株式会社,東京都,板橋区,徳丸６丁目４８番１２号,,13,119,1750083,,,2023-01-13,登記官による閉鎖,,,2015-10-05,1,,,,,,0
66,1011401014867,登記記録の閉鎖等,0,2023-01-16,2023-01-13,ミラクルノナカ株式会社,,株式会社,東京都,板橋区,志村２丁目２番１号,,13,119,1740056,,,2023-01-13,登記官による閉鎖,,,2015-10-05,1,,,,,,0
68,1011402001014,登記記録の閉鎖等,0,2023-01-16,2023-01-13,有限会社インテリア池田,,有限会社,東京都,板橋区,志村２丁目２７番１７号,,13,119,1740056,,,2023-01-13,登記官による閉鎖,,,2015-10-05,1,,,,,,0
69,1011402018116,登記記録の閉鎖等,0,2023-01-16,2023-01-13,有限会社悠花,,有限会社,東京都,板橋区,志村２丁目２７番１８号,,13,119,1740056,,,2023-01-13,登記官による閉鎖,,,2015-10-05,1,,,,,,0
70,1011403001186,登記記録の閉鎖等,0,2023-01-16,2023-01-13,合同会社グリーン,,合同会社,東京都,板橋区,三園１丁目４９番３２号,,13,119,1750091,,,2023-01-13,登記官による閉鎖,,,2015-10-05,1,,,,,,0
71,1011501010403,登記記録の閉鎖等,0,2023-01-16,2023-01-04,株式会社大友商事,,株式会社,東京都,北区,西ケ原１丁目６番６－２０１号,,13,117,1140024,,,2023-01-04,清算の結了等,,,2015-10-05,1,,,,,,0
80,1012401007241,登記記録の閉鎖等,0,2023-01-16,2023-01-16,株式会社アトリエ飯塚,,株式会社,東京都,調布市,入間町３丁目７番地２８,,13,208,1820004,,,2023-01-16,登記官による閉鎖,,,2015-10-05,1,,,,,,0
81,1012401020343,登記記録の閉鎖等,0,2023-01-16,2023-01-16,株式会社Ｔ・Ｍ・Ｊマーケティング,,株式会社,東京都,武蔵野市,吉祥寺南町２丁目６番１０号,,13,203,1800003,,,2023-01-16,登記官による閉鎖,,,2015-10-05,1,,,,,,0
82,1012402013404,登記記録の閉鎖等,0,2023-01-16,2023-01-16,勝和ホーム有限会社,,有限会社,東京都,狛江市,和泉本町１丁目１番１６号,,13,219,2010003,,,2023-01-16,登記官による閉鎖,,,2015-10-05,1,,,,,,0
84,1012402018287,登記記録の閉鎖等,0,2023-01-16,2023-01-12,有限会社伊勢元商店,,有限会社,東京都,三鷹市,下連雀３丁目１６番１４号,,13,204,1810013,,,2023-01-12,清算の結了等,,,2015-10-05,1,,,,,イセモトショウテン,0
85,1012402020680,登記記録の閉鎖等,0,2023-01-16,2023-01-16,有限会社大州,,有限会社,東京都,武蔵野市,吉祥寺南町２丁目１８番２号,,13,203,1800003,,,2023-01-16,登記官による閉鎖,,,2015-10-05,1,,,,,,0
86,1012405000639,登記記録の閉鎖等,0,2023-01-16,2023-01-16,特定非営利活動法人ＳＡＬＡＮＥＴＷＯＲＫ,,その他の設立登記法人,東京都,府中市,是政４丁目８番地の１２,,13,206,1830014,,,2023-01-16,登記官による閉鎖,,,2015-10-05,1,,,,,,0
87,1012405001075,登記記録の閉鎖等,0,2023-01-16,2023-01-16,全日本電機・電子・情報関連産業労働組合連合会京セラキンセキ労働組合,,その他の設立登記法人,東京都,狛江市,和泉本町１丁目８番１号,,13,219,2010003,,,2023-01-16,登記官による閉鎖,,,2015-10-05,1,,,,,,0
91,1013402004335,登記記録の閉鎖等,0,2023-01-16,2023-01-16,有限会社光界,,有限会社,東京都,稲城市,矢野口８４番地の１,,13,225,2060812,,,2023-01-16,登記官による閉鎖,,,2015-10-05,1,,,,,,0
92,1013405000067,登記記録の閉鎖等,0,2023-01-16,2023-01-16,多摩市住宅建設協同組合,,その他の設立登記法人,東京都,多摩市,馬引沢２丁目１４番１４号,,13,224,2060023,,,2023-01-16,登記官による閉鎖,,,2015-10-05,1,,,,,,0
100,1030001002792,登記記録の閉鎖等,0,2023-01-16,2023-01-11,株式会社小林製作所,,株式会社,埼玉県,さいたま市中央区,本町東１丁目９番２１号,,11,105,3380003,,,2023-01-11,清算の結了等,,,2015-10-05,1,,,,,コバヤシセイサクショ,0
101,1030001020159,登記記録の閉鎖等,0,2023-01-16,2023-01-10,株式会社金属防錆工業所,,株式会社,埼玉県,戸田市,早瀬２丁目２５番２号,,11,224,3350036,,,2023-01-10,清算の結了等,,,2015-10-05,1,,,,,キンゾクボウセイコウギョウショ,0
115,1040001087032,登記記録の閉鎖等,0,2023-01-16,2022-12-27,横綱システム株式会社,,株式会社,千葉県,松戸市,和名ケ谷９８５番地の４ウィズ松戸陽だまりの丘１１６号,,12,207,2702232,,,2022-12-27,清算の結了等,,,2015-10-05,1,,,,,ヨコヅナシステム,0
130,1070001028850,登記記録の閉鎖等,0,2023-01-16,2023-01-10,株式会社しずく,,株式会社,群馬県,渋川市,横堀１８４７番地,,10,208,3770206,,,2023-01-10,清算の結了等,,,2015-10-05,1,,,,,シズク,0
188,1150001001106,登記記録の閉鎖等,0,2023-01-16,2023-01-04,ネッツトヨタ奈良株式会社,,株式会社,奈良県,奈良市,南京終町１丁目１５５番地の１,,29,201,6308141,,,2023-01-04,合併による解散等,7150001001744,令和５年１月１日奈良市南京終町二丁目２６９番地トヨタユナイテッド奈良株式会社（7150001001744）に合併し解散,2015-10-05,1,,,,,ネッツトヨタナラ,0
214,1180003012791,登記記録の閉鎖等,0,2023-01-16,2023-01-10,合名会社第一薬局,,合名会社,愛知県,半田市,銀座本町２丁目１０番地,,23,205,4750874,,,2023-01-10,清算の結了等,,,2022-10-06,1,,,,,ダイイチヤッキョク,0
215,1180005012443,登記記録の閉鎖等,0,2023-01-16,2023-01-10,特定非営利活動法人エヌ・ピー・オー・シニア・ピー・シー・マザーズ,,その他の設立登記法人,愛知県,半田市,東生見町２６番２,,23,205,4750012,,,2023-01-10,清算の結了等,,,2015-10-05,1,,,,,エヌピーオーシニアピーシーマザーズ,0
225,1220001012863,登記記録の閉鎖等,0,2023-01-16,2023-01-16,株式会社エムジー・イン金沢,,株式会社,石川県,能美市,緑が丘２丁目６８番地,,17,211,9231226,,,2023-01-16,登記官による閉鎖,,,2015-10-05,1,,,,,,0
226,1220001014488,登記記録の閉鎖等,0,2023-01-16,2023-01-16,株式会社Ｊｉｎｚａ,,株式会社,石川県,金沢市,小立野１丁目７番３号２０３号,,17,201,9200942,,,2023-01-16,登記官による閉鎖,,,2015-10-05,1,,,,,,0
227,1220001014793,登記記録の閉鎖等,0,2023-01-16,2023-01-16,株式会社フジタ,,株式会社,石川県,金沢市,黒田１丁目１４０番地,,17,201,9218051,,,2023-01-16,登記官による閉鎖,,,2015-10-05,1,,,,,,0
228,1220001018316,登記記録の閉鎖等,0,2023-01-16,2023-01-16,株式会社結愛フルール,,株式会社,石川県,金沢市,鳴和１丁目１８番３３号アテリア鳴和１０８号,,17,201,9200804,,,2023-01-16,登記官による閉鎖,,,2015-10-05,1,,,,,,0
229,1220001018745,登記記録の閉鎖等,0,2023-01-16,2023-01-16,ＡＬＬ　ＲＥＳＣＵＥ株式会社,,株式会社,石川県,小松市,若杉町１丁目２番地,,17,203,9230832,,,2023-01-16,登記官による閉鎖,,,2015-10-05,1,,,,,,0
230,1220002002285,登記記録の閉鎖等,0,2023-01-16,2023-01-16,有限会社楠経営センター,,有限会社,石川県,金沢市,七ツ屋町ニ２６番地９,,17,201,9200021,,,2023-01-16,登記官による閉鎖,,,2015-10-05,1,,,,,,0
231,1220002012359,登記記録の閉鎖等,0,2023-01-16,2023-01-16,有限会社コマザワ,,有限会社,石川県,小松市,園町ハ２３番地１,,17,203,9230801,,,2023-01-16,登記官による閉鎖,,,2015-10-05,1,,,,,,0
232,1220002013687,登記記録の閉鎖等,0,2023-01-16,2023-01-16,有限会社岡田物産,,有限会社,石川県,七尾市,小丸山台１丁目１２番地,,17,202,9260855,,,2023-01-16,登記官による閉鎖,,,2015-10-05,1,,,,,,0
233,1220002015931,登記記録の閉鎖等,0,2023-01-16,2023-01-16,有限会社宮田組,,有限会社,石川県,鳳珠郡能登町,字藤ノ瀬５２字１０８番地,,17,463,9270451,,,2023-01-16,登記官による閉鎖,,,2015-10-05,1,,,,,,0
242,1240005006661,登記記録の閉鎖等,0,2023-01-16,2023-01-10,医療法人社団川岡医院,,その他の設立登記法人,広島県,呉市,音戸町波多見１丁目２８番１６号,,34,202,7371207,,,2023-01-10,清算の結了等,,,2015-10-05,1,,,,,カワオカイイン,0
243,1240005007222,登記記録の閉鎖等,0,2023-01-16,2023-01-12,広島新天地商店街協同組合,,その他の設立登記法人,広島県,広島市中区,新天地１番１３号,,34,101,7300034,,,2023-01-12,清算の結了等,,,2015-10-05,1,,,,,ヒロシマシンテンチショウテンガイ,0
245,1250001019047,登記記録の閉鎖等,0,2023-01-16,2023-01-05,ＭｉｃｒｏＩｎｎｏｖａｔｏｒｓ　Ｌａｂｏｒａｔｏｒｙ株式会社,,株式会社,山口県,宇部市,あすとぴあ２丁目１番地１７,,35,202,7550152,,,2023-01-05,合併による解散等,7040001101167,令和５年１月１日山口県宇部市あすとぴあ二丁目１番地１７Ｉ‐ＰＥＸ　Ｐｉｅｚｏ　Ｓｏｌｕｔｉｏｎｓ株式会社（7040001101167）に合併し解散,2021-08-06,1,,,,,マイクロイノベーターズラボラトリー,0
247,1260001003116,登記記録の閉鎖等,0,2023-01-16,2023-01-16,株式会社ジエイ・エム・シー,,株式会社,岡山県,岡山市北区,今６丁目１３番２－５号,,33,101,7000975,,,2023-01-16,登記官による閉鎖,,,2015-10-05,1,,,,,,0
248,1260001003537,登記記録の閉鎖等,0,2023-01-16,2023-01-16,スズキアリーナ岡山株式会社,,株式会社,岡山県,岡山市北区,平野６２２番地,,33,101,7010151,,,2023-01-16,登記官による閉鎖,,,2015-10-05,1,,,,,,0
251,1260001012604,登記記録の閉鎖等,0,2023-01-16,2023-01-16,株式会社石井材木店,,株式会社,岡山県,倉敷市,玉島長尾２２４１番地,,33,202,7100251,,,2023-01-16,登記官による閉鎖,,,2015-10-05,1,,,,,,0
252,1260001013255,登記記録の閉鎖等,0,2023-01-16,2023-01-16,児島長尾組株式会社,,株式会社,岡山県,倉敷市,児島元浜町１２７番地,,33,202,7110922,,,2023-01-16,登記官による閉鎖,,,2015-10-05,1,,,,,,0
253,1260001016225,登記記録の閉鎖等,0,2023-01-16,2023-01-16,株式会社石井興業,,株式会社,岡山県,倉敷市,茶屋町早沖７３３番地９,,33,202,7101102,,,2023-01-16,登記官による閉鎖,,,2015-10-05,1,,,,,,0
254,1260001017157,登記記録の閉鎖等,0,2023-01-16,2023-01-16,株式会社エフエフ,,株式会社,岡山県,倉敷市,児島田の口２９５８番地の１,,33,202,7110903,,,2023-01-16,登記官による閉鎖,,,2015-10-05,1,,,,,,0
255,1260001017859,登記記録の閉鎖等,0,2023-01-16,2023-01-16,光産業株式会社,,株式会社,岡山県,笠岡市,五番町５番地の８０,,33,205,7140086,,,2023-01-16,登記官による閉鎖,,,2015-10-05,1,,,,,,0
256,1260002001572,登記記録の閉鎖等,0,2023-01-16,2023-01-16,有限会社江本工業,,有限会社,岡山県,岡山市中区,桜橋２丁目２番１号,,33,102,7038285,,,2023-01-16,登記官による閉鎖,,,2015-10-05,1,,,,,,0
258,1260002014756,登記記録の閉鎖等,0,2023-01-16,2023-01-16,東地所有限会社,,有限会社,岡山県,岡山市南区,藤田１９１４番地,,33,104,7010221,,,2023-01-16,登記官による閉鎖,,,2015-10-05,1,,,,,,0
260,1260002022131,登記記録の閉鎖等,0,2023-01-16,2023-01-16,有限会社わたち瓦葺業,,有限会社,岡山県,倉敷市,児島上の町１丁目１１番８号,,33,202,7110907,,,2023-01-16,登記官による閉鎖,,,2015-10-05,1,,,,,,0
261,1260002026727,登記記録の閉鎖等,0,2023-01-16,2023-01-16,有限会社小野損害保険事務所,,有限会社,岡山県,高梁市,栄町１９４３番地の１９,,33,209,7160035,,,2023-01-16,登記官による閉鎖,,,2015-10-05,1,,,,,,0
262,1260002028079,登記記録の閉鎖等,0,2023-01-16,2023-01-16,有限会社河島木工所,,有限会社,岡山県,津山市,津山口１５０番地の５,,33,203,7080884,,,2023-01-16,登記官による閉鎖,,,2015-10-05,1,,,,,,0
263,1260003000053,登記記録の閉鎖等,0,2023-01-16,2023-01-16,合資会社赤木商店,,合資会社,岡山県,岡山市北区,大井２４０６番地の８,,33,101,7011462,,,2023-01-16,登記官による閉鎖,,,2015-10-05,1,,,,,,0
265,1260005003376,登記記録の閉鎖等,0,2023-01-16,2023-01-16,児島ダンプ運輸事業協同組合,,その他の設立登記法人,岡山県,倉敷市,菰池２丁目１０番２０号,,33,202,7110932,,,2023-01-16,登記官による閉鎖,,,2015-10-05,1,,,,,,0
266,1280002004961,登記記録の閉鎖等,0,2023-01-16,2023-01-12,有限会社足立燃料店,,有限会社,島根県,安来市,安来町７６５番地１,,32,206,6920011,,,2023-01-12,清算の結了等,,,2015-10-05,1,,,,,アダチネンリョウテン,0
283,1330005009754,登記記録の閉鎖等,0,2023-01-16,2023-01-12,一般社団法人衝撃波応用技術研究所,,その他の設立登記法人,熊本県,阿蘇市,乙姫２０７０番地１９,,43,214,8692226,,,2023-01-12,清算の結了等,,,2017-10-20,1,,,,,ショウゲキハオウヨウギジュツケンキュウショ,0
286,1350002018459,登記記録の閉鎖等,0,2023-01-16,2023-01-12,有限会社カンダ住建,,有限会社,宮崎県,西諸県郡高原町,大字西麓２４８番地２３,,45,361,8894412,,,2023-01-12,清算の結了等,,,2015-10-05,1,,,,,カンダジュウケン,0
290,1360001016099,登記記録の閉鎖等,0,2023-01-16,2023-01-10,株式会社アドバンス・オキナワ,,株式会社,沖縄県,うるま市,字州崎１２番地８５,,47,213,9042234,,,2023-01-10,合併による解散等,3030001045195,令和４年１２月３１日埼玉県新座市大和田二丁目１番３９号株式会社アドバンス（3030001045195）に合併し解散,2015-10-05,1,,,,,アドバンスオキナワ,0
302,1410001012596,登記記録の閉鎖等,0,2023-01-16,2023-01-05,株式会社いぶりの里,,株式会社,秋田県,大仙市,内小友字山根８９番地の４,,05,212,0140073,,,2023-01-05,合併による解散等,7410002011229,令和４年１２月３１日秋田県大仙市内小友字山根８９番地の４株式会社井上農産（7410002011229）に合併し解散,2020-08-19,1,,,,,イブリノサト,0
310,1430002057523,登記記録の閉鎖等,0,2023-01-16,2023-01-06,有限会社蔵春夏秋冬,,有限会社,北海道,岩内郡共和町,梨野舞納４番地１,,01,401,0450031,,,2023-01-06,清算の結了等,,,2015-10-05,1,,,,,,0
317,1470001016369,登記記録の閉鎖等,0,2023-01-16,2023-01-13,株式会社池内建設工業,,株式会社,香川県,高松市,東山崎町７９４番地１,,37,201,7610312,,,2023-01-13,清算の結了等,,,2017-06-15,1,,,,,イケウチケンセツコウギョウ,0
325,2010001061716,登記記録の閉鎖等,0,2023-01-16,2023-01-04,花王フィールドマーケティング株式会社,,株式会社,東京都,中央区,日本橋小網町８番３号,,13,102,1030016,,,2023-01-04,合併による解散等,6010001170819,令和５年１月１日東京都中央区日本橋小網町８番３号花王グループカスタマーマーケティング株式会社（6010001170819）に合併し解散,2015-10-05,1,,,,,カオウフィールドマーケティング,0
332,2010001186133,登記記録の閉鎖等,0,2023-01-16,2023-01-05,株式会社リボーン,,株式会社,東京都,中央区,日本橋蛎殻町２丁目２番２号,,13,102,1030014,,,2023-01-05,清算の結了等,,,2017-09-06,1,,,,,リボーン,0
359,2010403010758,登記記録の閉鎖等,0,2023-01-16,2022-12-26,フォーフレンズ合同会社,,合同会社,東京都,港区,赤坂２丁目６番２２号,,13,103,1070052,,,2022-12-26,清算の結了等,,,2015-10-05,1,,,,,フォーフレンズ,0
370,2010901003981,登記記録の閉鎖等,0,2023-01-16,2023-01-10,株式会社香風会,,株式会社,東京都,世田谷区,成城４丁目２０番３１号,,13,112,1570066,,,2023-01-10,清算の結了等,,,2015-10-05,1,,,,,コウフウカイ,0
384,2011005003423,登記記録の閉鎖等,0,2023-01-16,2022-12-28,特定非営利活動法人ナショナルデモクラックジャパン,,その他の設立登記法人,東京都,渋谷区,道玄坂２丁目２５番５号島田ビル５階,,13,113,1500043,,,2022-12-28,清算の結了等,,,2015-10-05,1,,,,,ナショナルデモクラックジャパン,0
390,2011401004215,登記記録の閉鎖等,0,2023-01-16,2023-01-13,株式会社辻本製本,00054759,株式会社,東京都,板橋区,中丸町２９番１－１０１号,,13,119,1730026,,,2023-01-13,登記官による閉鎖,,,2015-10-05,1,,,,,,0
391,2011401012201,登記記録の閉鎖等,0,2023-01-16,2023-01-13,株式会社オーシャントレーディング,,株式会社,東京都,板橋区,氷川町２６番地１,,13,119,1730013,,,2023-01-13,登記官による閉鎖,,,2015-10-05,1,,,,,,0
395,2011402003190,登記記録の閉鎖等,0,2023-01-16,2023-01-13,有限会社恒研堂,,有限会社,東京都,板橋区,宮本町５２番３号,,13,119,1740054,,,2023-01-13,登記官による閉鎖,,,2015-10-05,1,,,,,,0
400,2011802007064,登記記録の閉鎖等,0,2023-01-16,2022-01-10,有限会社堀装飾,,有限会社,東京都,葛飾区,金町３丁目２８番４号,,13,122,1250042,,,2022-01-10,清算の結了等,,,2015-10-05,1,,,,,ホリソウショク,0
404,2012401001870,登記記録の閉鎖等,0,2023-01-16,2023-01-16,株式会社和合土木,,株式会社,東京都,府中市,浅間町３丁目７番地の４０,,13,206,1830001,,,2023-01-16,登記官による閉鎖,,,2015-10-05,1,,,,,,0
405,2012401019104,登記記録の閉鎖等,0,2023-01-16,2023-01-16,株式会社プヤ,,株式会社,東京都,武蔵野市,吉祥寺本町１丁目１１番３０号８１２号室,,13,203,1800004,,,2023-01-16,登記官による閉鎖,,,2015-10-05,1,,,,,,0
406,2012402002744,登記記録の閉鎖等,0,2023-01-16,2023-01-16,有限会社村山土木,,有限会社,東京都,府中市,西原町２丁目１０番地１４,,13,206,1830046,,,2023-01-16,登記官による閉鎖,,,2015-10-05,1,,,,,,0
407,2012402019879,登記記録の閉鎖等,0,2023-01-16,2023-01-16,有限会社森建設プランニング,,有限会社,東京都,三鷹市,新川４丁目１番５号,,13,204,1810004,,,2023-01-16,登記官による閉鎖,,,2015-10-05,1,,,,,,0
408,2012405001875,登記記録の閉鎖等,0,2023-01-16,2023-01-16,特定非営利活動法人新分子栄養学研究所,,その他の設立登記法人,東京都,武蔵野市,吉祥寺南町３丁目１番２号,,13,203,1800003,,,2023-01-16,登記官による閉鎖,,,2015-10-05,1,,,,,,0
409,2012405001958,登記記録の閉鎖等,0,2023-01-16,2023-01-16,特定非営利活動法人　オニルバン,,その他の設立登記法人,東京都,調布市,下石原３丁目４９番地２,,13,208,1820034,,,2023-01-16,登記官による閉鎖,,,2015-10-05,1,,,,,,0
414,2013401001142,登記記録の閉鎖等,0,2023-01-16,2023-01-16,株式会社山晴商事,,株式会社,東京都,多摩市,東寺方１丁目６番地１２,,13,224,2060003,,,2023-01-16,登記官による閉鎖,,,2015-10-05,1,,,,,,0
415,2013402003773,登記記録の閉鎖等,0,2023-01-16,2023-01-16,有限会社萩原設備,,有限会社,東京都,稲城市,矢野口４８０番地の４,,13,225,2060812,,,2023-01-16,登記官による閉鎖,,,2015-10-05,1,,,,,,0
416,2013405000710,登記記録の閉鎖等,0,2023-01-16,2023-01-16,特定非営利活動法人ブルーホースカントリー,,その他の設立登記法人,東京都,多摩市,関戸５丁目１５番地の１３スカール聖蹟桜ヶ丘２０２,,13,224,2060011,,,2023-01-16,登記官による閉鎖,,,2015-10-05,1,,,,,,0
422,2021005005071,登記記録の閉鎖等,0,2023-01-16,2023-01-05,医療法人敬愛会,,その他の設立登記法人,神奈川県,綾瀬市,上土棚南６丁目４番５号,,14,218,2521114,,,2023-01-05,清算の結了等,,,2015-10-05,1,,,,,ケイアイカイ,0
455,2080102022081,登記記録の閉鎖等,0,2023-01-16,2023-01-13,有限会社フリーウェイズアウトドア・プランニング,,有限会社,静岡県,賀茂郡西伊豆町,宇久須７８７番地の１,,22,306,4103501,,,2023-01-13,清算の結了等,,,2015-10-05,1,,,,,フリーウェイズアウトドアプランニング,0
460,2100001001101,登記記録の閉鎖等,0,2023-01-16,2023-01-12,株式会社セレクト,,株式会社,長野県,長野市,中御所３丁目１１番５号,,20,201,3800935,,,2023-01-12,清算の結了等,,,2015-10-05,1,,,,,セレクト,0
465,2100002031361,登記記録の閉鎖等,0,2023-01-16,2023-01-11,有限会社事務機センター松阪,,有限会社,長野県,岡谷市,長地柴宮１丁目１６番３９号,,20,204,3940083,,,2023-01-11,清算の結了等,,,2015-10-05,1,,,,,ジムキセンターマツザカ,0
480,2120002012756,登記記録の閉鎖等,0,2023-01-16,2023-01-12,有限会社割烹福助,,有限会社,大阪府,大阪市天王寺区,下味原町１番２３号,,27,109,5430025,,,2023-01-12,清算の結了等,,,2015-10-05,1,,,,,カッポウフクスケ,0
513,2180001045603,登記記録の閉鎖等,0,2023-01-16,2023-01-11,株式会社栄美装,,株式会社,愛知県,清須市,西枇杷島町弁天２９の２,,23,233,4520006,,,2023-01-11,清算の結了等,,,2015-10-05,1,,,,,サカエビソウ,0
519,2180001109242,登記記録の閉鎖等,0,2023-01-16,2023-01-10,株式会社ＨＲマネジメント,,株式会社,愛知県,名古屋市中区,栄２丁目９番８号クリエイトセンター伏見ビル３階,,23,106,4600008,,,2023-01-10,清算の結了等,,,2015-10-05,1,,,,,エイチアールマネジメント,0
523,2180001148819,登記記録の閉鎖等,0,2023-01-16,2023-01-10,ＷａｔｅｒＰＳ株式会社,,株式会社,愛知県,名古屋市中区,丸の内３丁目１７番４号第１１ＫＴビル８階,,23,106,4600002,,,2023-01-10,清算の結了等,,,2021-11-19,1,,,,,ウォーターピーエス,0
534,2180302010768,登記記録の閉鎖等,0,2023-01-16,2023-01-04,有限会社スズキ整備,,有限会社,愛知県,田原市,加治町恩中４８番地の１,,23,231,4413427,,,2023-01-04,清算の結了等,,,2015-10-05,1,,,,,スズキセイビ,0
538,2200001006115,登記記録の閉鎖等,0,2023-01-16,2023-01-13,株式会社アスカ,,株式会社,岐阜県,岐阜市,六条北３丁目１０番７号サンホワイトオサムラ１０１号室,,21,201,5008359,,,2023-01-13,清算の結了等,,,2015-10-05,1,,,,,アスカ,0
542,2210001011774,登記記録の閉鎖等,0,2023-01-16,2023-01-16,武生商業開発株式会社,,株式会社,福井県,越前市,新町第７号８番地,,18,209,9150883,,,2023-01-16,登記官による閉鎖,,,2015-10-05,1,,,,,,0
544,2210002012689,登記記録の閉鎖等,0,2023-01-16,2023-01-16,山田商事有限会社,,有限会社,福井県,鯖江市,丸山町１丁目３番１号,,18,207,9160019,,,2023-01-16,登記官による閉鎖,,,2015-10-05,1,,,,,,0
545,2210002013563,登記記録の閉鎖等,0,2023-01-16,2023-01-16,有限会社ロイヤル商事,,有限会社,福井県,鯖江市,幸町１丁目４番１９号,,18,207,9160018,,,2023-01-16,登記官による閉鎖,,,2015-10-05,1,,,,,,0
546,2210005000815,登記記録の閉鎖等,0,2023-01-16,2023-01-16,協同組合福井県景観施設協会,,その他の設立登記法人,福井県,福井市,大町２丁目９０１番地,,18,201,9188116,,,2023-01-16,登記官による閉鎖,,,2015-10-05,1,,,,,,0
547,2220001001733,登記記録の閉鎖等,0,2023-01-16,2023-01-16,かえる保険センター株式会社,,株式会社,石川県,金沢市,南森本町カ３３番地１１,,17,201,9203116,,,2023-01-16,登記官による閉鎖,,,2015-10-05,1,,,,,,0
548,2220001014314,登記記録の閉鎖等,0,2023-01-16,2023-01-16,ＮＥＤジャパン株式会社,,株式会社,石川県,加賀市,永井町４３の４１番地,,17,206,9220857,,,2023-01-16,登記官による閉鎖,,,2015-10-05,1,,,,,,0
549,2220001016186,登記記録の閉鎖等,0,2023-01-16,2023-01-16,株式会社北陸旅行社,,株式会社,石川県,七尾市,石崎町タ、７番地６,,17,202,9260171,,,2023-01-16,登記官による閉鎖,,,2015-10-05,1,,,,,,0
550,2220002009610,登記記録の閉鎖等,0,2023-01-16,2023-01-16,有限会社岡嶋工務店,,有限会社,石川県,金沢市,中山町ハ１５番地,,17,201,9201109,,,2023-01-16,登記官による閉鎖,,,2015-10-05,1,,,,,,0
552,2220002014536,登記記録の閉鎖等,0,2023-01-16,2023-01-16,有限会社正徳漁業,,有限会社,石川県,羽咋郡志賀町,福浦港ケの５０番地１,,17,384,9250315,,,2023-01-16,登記官による閉鎖,,,2015-10-05,1,,,,,,0
553,2220003000972,登記記録の閉鎖等,0,2023-01-16,2023-01-16,ＬＥＣ合同会社,,合同会社,石川県,小松市,日の出町３丁目３３番地小松日の出ビル６０６,,17,203,9230868,,,2023-01-16,登記官による閉鎖,,,2015-10-05,1,,,,,,0
560,2260001010953,登記記録の閉鎖等,0,2023-01-16,2023-01-16,株式会社石家,,株式会社,岡山県,岡山市北区,牟佐２９１１番地１,,33,101,7012141,,,2023-01-16,登記官による閉鎖,,,2015-10-05,1,,,,,,0
562,2260001018096,登記記録の閉鎖等,0,2023-01-16,2023-01-16,株式会社とらや,,株式会社,岡山県,小田郡矢掛町,小林１９０番地の１,,33,461,7141202,,,2023-01-16,登記官による閉鎖,,,2015-10-05,1,,,,,,0
563,2260001019532,登記記録の閉鎖等,0,2023-01-16,2023-01-16,有宗商事株式会社,,株式会社,岡山県,勝田郡奈義町,滝本１５８８番地の２,,33,623,7081325,,,2023-01-16,登記官による閉鎖,,,2015-10-05,1,,,,,,0
564,2260001020977,登記記録の閉鎖等,0,2023-01-16,2023-01-16,トネ基礎株式会社,,株式会社,岡山県,津山市,上村６７１番地１２,,33,203,7081224,,,2023-01-16,登記官による閉鎖,,,2015-10-05,1,,,,,,0
565,2260001022271,登記記録の閉鎖等,0,2023-01-16,2023-01-16,おきな製菓株式会社,,株式会社,岡山県,玉野市,用吉１０７４番地,,33,204,7060132,,,2023-01-16,登記官による閉鎖,,,2015-10-05,1,,,,,,0
566,2260002003675,登記記録の閉鎖等,0,2023-01-16,2023-01-16,有限会社岡南サツシ,,有限会社,岡山県,岡山市北区,東古松４６８番地の８,,33,101,7000921,,,2023-01-16,登記官による閉鎖,,,2015-10-05,1,,,,,,0
567,2260002007115,登記記録の閉鎖等,0,2023-01-16,2023-01-16,有限会社長尾鮮魚店,,有限会社,岡山県,岡山市中区,門田屋敷２丁目２番８号,,33,102,7038275,,,2023-01-16,登記官による閉鎖,,,2015-10-05,1,,,,,,0
568,2260002011959,登記記録の閉鎖等,0,2023-01-16,2023-01-16,有限会社スカイ創宅,,有限会社,岡山県,岡山市北区,西島田町９番２号,,33,101,7000981,,,2023-01-16,登記官による閉鎖,,,2015-10-05,1,,,,,,0
569,2260003000028,登記記録の閉鎖等,0,2023-01-16,2023-01-16,合名会社エー，アール，ティー,,合名会社,岡山県,岡山市北区,中仙道４７番地の１１９,,33,101,7000964,,,2023-01-16,登記官による閉鎖,,,2015-10-05,1,,,,,,0
570,2260003001257,登記記録の閉鎖等,0,2023-01-16,2023-01-16,合同会社福祉サービス輝き,,合同会社,岡山県,井原市,上稲木町１５９５番地,,33,207,7150018,,,2023-01-16,登記官による閉鎖,,,2015-10-05,1,,,,,,0
572,2260005001395,登記記録の閉鎖等,0,2023-01-16,2023-01-16,岡山軽自動車運送事業協同組合,,その他の設立登記法人,岡山県,岡山市北区,平田２３９番地の１,,33,101,7000952,,,2023-01-16,登記官による閉鎖,,,2015-10-05,1,,,,,,0
573,2260005007277,登記記録の閉鎖等,0,2023-01-16,2023-01-16,農事組合法人共和牧場,,その他の設立登記法人,岡山県,美作市,粟井中１６６３番地,,33,215,7094205,,,2023-01-16,登記官による閉鎖,,,2015-10-05,1,,,,,,0
574,2260005008548,登記記録の閉鎖等,0,2023-01-16,2023-01-16,農事組合法人湯原町水気耕生産組合,,その他の設立登記法人,岡山県,真庭市,本庄１４０５番地,,33,214,7170412,,,2023-01-16,登記官による閉鎖,,,2015-10-05,1,,,,,,0
582,2290002002451,登記記録の閉鎖等,0,2023-01-16,2023-01-06,有限会社白水建設,,有限会社,福岡県,福岡市南区,鶴田２丁目２３番２３号,,40,134,8111352,,,2023-01-06,清算の結了等,,,2015-10-05,1,,,,,シロウズケンセツ,0
603,2370002012500,登記記録の閉鎖等,0,2023-01-16,2023-01-10,有限会社豊間根タイル工事,,有限会社,宮城県,仙台市泉区,天神沢１丁目１５番３１号カーザミユキ２０３,,04,105,9813105,,,2023-01-10,清算の結了等,,,2015-10-05,1,,,,,トヨマネタイルコウジ,0
615,2420002008897,登記記録の閉鎖等,0,2023-01-16,2023-01-12,有限会社まつもと家事介護サービス,,有限会社,青森県,八戸市,南類家２丁目２６番７号,,02,203,0310004,,,2023-01-12,清算の結了等,,,2015-10-05,1,,,,,マツモトカジカイゴサービス,0
616,2430001050156,登記記録の閉鎖等,0,2023-01-16,2023-01-13,樽一小樽中央青果株式会社,00088694,株式会社,北海道,小樽市,有幌町１番１０号,,01,203,0470006,,,2023-01-13,清算の結了等,,,2015-10-05,1,,,,,タルイチオタルチュウオウセイカ,0
668,3010403024286,登記記録の閉鎖等,0,2023-01-16,2022-12-26,合同会社ＥＷＣ,,合同会社,東京都,港区,南青山５丁目１１番９号レキシントン青山３階,,13,103,1070062,,,2022-12-26,清算の結了等,,,2020-12-10,1,,,,,イーダブリューシー,0
669,3010501033602,登記記録の閉鎖等,0,2023-01-16,2022-12-26,株式会社ｍｙｆａｎｓ,,株式会社,東京都,渋谷区,恵比寿１丁目２４番１６号カルチェ恵比寿３０４号室,,13,113,1500013,,,2022-12-26,合併による解散等,8011003011967,令和４年１２月１日東京都渋谷区恵比寿一丁目２４番１６号カルチェ恵比寿３０４号室トクネコ合同会社（8011003011967）に合併し解散,2015-10-05,1,,,,,マイファンズ,0
676,3010901019663,登記記録の閉鎖等,0,2023-01-16,2023-01-10,株式会社東恒,,株式会社,東京都,世田谷区,上野毛３丁目１９番２１号,,13,112,1580093,,,2023-01-10,清算の結了等,,,2015-10-05,1,,,,,トウコウ,0
704,3011401004899,登記記録の閉鎖等,0,2023-01-16,2023-01-13,成増陶業株式会社,,株式会社,東京都,板橋区,南常盤台１丁目７番１４号,,13,119,1740072,,,2023-01-13,登記官による閉鎖,,,2015-10-05,1,,,,,,0
705,3011401006516,登記記録の閉鎖等,0,2023-01-16,2023-01-13,山田商工株式会社,,株式会社,東京都,板橋区,中板橋２９番８号,,13,119,1730016,,,2023-01-13,登記官による閉鎖,,,2015-10-05,1,,,,,,0
707,3011402000476,登記記録の閉鎖等,0,2023-01-16,2023-01-13,有限会社アサノビコー,,有限会社,東京都,板橋区,四葉１丁目８番１号,,13,119,1750084,,,2023-01-13,登記官による閉鎖,,,2015-10-05,1,,,,,,0
708,3011402018329,登記記録の閉鎖等,0,2023-01-16,2023-01-13,有限会社スイテック,,有限会社,東京都,板橋区,高島平２丁目７番７号,,13,119,1750082,,,2023-01-13,登記官による閉鎖,,,2015-10-05,1,,,,,,0
709,3011403000987,登記記録の閉鎖等,0,2023-01-16,2023-01-13,合同会社ＵＢ,,合同会社,東京都,板橋区,徳丸８丁目２０番１５－２０１号,,13,119,1750083,,,2023-01-13,登記官による閉鎖,,,2015-10-05,1,,,,,,0
710,3011405001166,登記記録の閉鎖等,0,2023-01-16,2023-01-13,特定非営利活動法人日中クリエイティブ事業団,,その他の設立登記法人,東京都,板橋区,東新町１丁目３６番１２－３０１号,,13,119,1740074,,,2023-01-13,登記官による閉鎖,,,2015-10-05,1,,,,,,0
718,3011803005322,登記記録の閉鎖等,0,2023-01-16,2023-01-11,合同会社ＨＭＳワークス,,合同会社,東京都,足立区,小台２丁目１５番７号,,13,121,1200046,,,2023-01-11,清算の結了等,,,2022-10-26,1,,,,,エイチエムエスワークス,0
721,3012401011489,登記記録の閉鎖等,0,2023-01-16,2023-01-16,デルコ株式会社,,株式会社,東京都,武蔵野市,境２丁目３番２６号,,13,203,1800022,,,2023-01-16,登記官による閉鎖,,,2015-10-05,1,,,,,,0
722,3012401013915,登記記録の閉鎖等,0,2023-01-16,2023-01-16,株式会社フジックスインテグレート,,株式会社,東京都,三鷹市,新川５丁目１７番１６号,,13,204,1810004,,,2023-01-16,登記官による閉鎖,,,2015-10-05,1,,,,,,0
723,3012401020911,登記記録の閉鎖等,0,2023-01-16,2023-01-16,株式会社ライブ,,株式会社,東京都,武蔵野市,吉祥寺東町１丁目１５番１７号,,13,203,1800002,,,2023-01-16,登記官による閉鎖,,,2015-10-05,1,,,,,,0
724,3012401021884,登記記録の閉鎖等,0,2023-01-16,2023-01-16,株式会社ユアプラン,,株式会社,東京都,府中市,本町１丁目１２番地の２オウズ御殿山３０２,,13,206,1830027,,,2023-01-16,登記官による閉鎖,,,2015-10-05,1,,,,,,0
725,3012401022049,登記記録の閉鎖等,0,2023-01-16,2023-01-16,株式会社ハンガリア,,株式会社,東京都,調布市,西つつじケ丘４丁目２３番地神代団地５３号棟２０２号,,13,208,1820006,,,2023-01-16,登記官による閉鎖,,,2015-10-05,1,,,,,,0
726,3012402001043,登記記録の閉鎖等,0,2023-01-16,2023-01-16,有限会社コバヤシ,,有限会社,東京都,府中市,緑町３丁目３番地の６,,13,206,1830006,,,2023-01-16,登記官による閉鎖,,,2015-10-05,1,,,,,,0
727,3012402016090,登記記録の閉鎖等,0,2023-01-16,2023-01-16,有限会社アスナロ,,有限会社,東京都,武蔵野市,境南町２丁目１０番２５号,,13,203,1800023,,,2023-01-16,登記官による閉鎖,,,2015-10-05,1,,,,,,0
728,3012402018632,登記記録の閉鎖等,0,2023-01-16,2023-01-16,有限会社共栄塗装工業所,,有限会社,東京都,三鷹市,下連雀７丁目１番２６号,,13,204,1810013,,,2023-01-16,登記官による閉鎖,,,2015-10-05,1,,,,,,0
729,3012402021124,登記記録の閉鎖等,0,2023-01-16,2023-01-16,有限会社エムコレクション,,有限会社,東京都,武蔵野市,桜堤１丁目１番５－３０１号,,13,203,1800021,,,2023-01-16,登記官による閉鎖,,,2015-10-05,1,,,,,,0
730,3012402022213,登記記録の閉鎖等,0,2023-01-16,2023-01-16,有限会社アセンテ,,有限会社,東京都,三鷹市,井の頭１丁目３０番２０号,,13,204,1810001,,,2023-01-16,登記官による閉鎖,,,2015-10-05,1,,,,,,0
734,3013402003384,登記記録の閉鎖等,0,2023-01-16,2023-01-16,有限会社金田工業,,有限会社,東京都,稲城市,大丸２９０番地２,,13,225,2060801,,,2023-01-16,登記官による閉鎖,,,2015-10-05,1,,,,,,0
736,3020001081539,登記記録の閉鎖等,0,2023-01-16,2023-01-10,株式会社スペース・プレーヤー,,株式会社,神奈川県,川崎市宮前区,鷺沼１丁目３番地１３東急アパート３０７,,14,136,2160004,,,2023-01-10,清算の結了等,,,2015-10-05,1,,,,,スペースプレーヤー,0
744,3020002019505,登記記録の閉鎖等,0,2023-01-16,2023-01-10,有限会社ネモトプランニング,,有限会社,神奈川県,横浜市保土ケ谷区,瀬戸ケ谷町２９７番地１８,,14,106,2400024,,,2023-01-10,清算の結了等,,,2015-10-05,1,,,,,ネモトプランニング,0
766,3040001072651,登記記録の閉鎖等,0,2023-01-16,2023-01-04,ウレスジ商事株式会社,,株式会社,千葉県,千葉市緑区,土気町６６５－１サニーコート１０５,,12,105,2670061,,,2023-01-04,清算の結了等,,,2015-10-05,1,,,,,ウレスジショウジ,0
786,3050002029055,登記記録の閉鎖等,0,2023-01-16,2023-01-06,有限会社エヌテック,,有限会社,茨城県,行方市,芹沢７９１番地２,,08,233,3113501,,,2023-01-06,清算の結了等,,,2015-10-05,1,,,,,エヌテック,0
825,3130001060911,登記記録の閉鎖等,0,2023-01-16,2023-01-04,ムラタシステム株式会社,,株式会社,京都府,京都市下京区,紺屋町３９６番地,,26,106,6008130,,,2023-01-04,清算の結了等,,,2017-11-09,1,,,,,ムラタシステム,0
860,3180005015832,登記記録の閉鎖等,0,2023-01-16,2023-01-11,一般社団法人Ｑｕａｌｉｔｙ　Ｍａｎａｇｅｍｅｎｔ戦略実践協会,,その他の設立登記法人,愛知県,名古屋市西区,城西３丁目１１番１３号,,23,104,4510031,,,2023-01-11,清算の結了等,,,2015-10-05,1,,,,,クオリティマネジメントセンリャクジッセンキョウカイ,0
872,3210001012615,登記記録の閉鎖等,0,2023-01-16,2023-01-16,丹南開発株式会社,,株式会社,福井県,越前市,新保町第３２号１番地の１,,18,209,9150804,,,2023-01-16,登記官による閉鎖,,,2015-10-05,1,,,,,,0
874,3210002001690,登記記録の閉鎖等,0,2023-01-16,2023-01-16,有限会社イワゴシ工業,,有限会社,福井県,福井市,板垣３丁目４０６番地,,18,201,9188104,,,2023-01-16,登記官による閉鎖,,,2015-10-05,1,,,,,,0
875,3210002004033,登記記録の閉鎖等,0,2023-01-16,2023-01-16,有限会社ヤスギ電気,,有限会社,福井県,福井市,松本１丁目５番４号,,18,201,9100003,,,2023-01-16,登記官による閉鎖,,,2015-10-05,1,,,,,,0
876,3220001001947,登記記録の閉鎖等,0,2023-01-16,2023-01-16,株式会社河尻商店,,株式会社,石川県,金沢市,増泉４丁目１０番１６号,,17,201,9218025,,,2023-01-16,登記官による閉鎖,,,2015-10-05,1,,,,,,0
878,3220001018561,登記記録の閉鎖等,0,2023-01-16,2023-01-16,株式会社遠田商店,,株式会社,石川県,金沢市,袋町４番１１号,,17,201,9200909,,,2023-01-16,登記官による閉鎖,,,2015-10-05,1,,,,,,0
880,3220002007555,登記記録の閉鎖等,0,2023-01-16,2023-01-16,有限会社アスモカンパニー,,有限会社,石川県,金沢市,片町２丁目２番１３号,,17,201,9200981,,,2023-01-16,登記官による閉鎖,,,2015-10-05,1,,,,,,0
882,3220002010815,登記記録の閉鎖等,0,2023-01-16,2023-01-16,有限会社田中,,有限会社,石川県,小松市,串町ヌ２６番地,,17,203,9230965,,,2023-01-16,登記官による閉鎖,,,2015-10-05,1,,,,,,0
883,3220002013660,登記記録の閉鎖等,0,2023-01-16,2023-01-16,有限会社宇田産業,,有限会社,石川県,七尾市,本府中町ヒ部１３番地２,,17,202,9260021,,,2023-01-16,登記官による閉鎖,,,2015-10-05,1,,,,,,0
884,3220002013743,登記記録の閉鎖等,0,2023-01-16,2023-01-16,有限会社ケーエルシー,,有限会社,石川県,七尾市,国分町ラ部２番地の１,,17,202,9260821,,,2023-01-16,登記官による閉鎖,,,2015-10-05,1,,,,,,0
885,3220005002462,登記記録の閉鎖等,0,2023-01-16,2023-01-16,協同組合レッツ,,その他の設立登記法人,石川県,金沢市,本江町２番４号,,17,201,9218012,,,2023-01-16,登記官による閉鎖,,,2015-10-05,1,,,,,,0
886,3220005003023,登記記録の閉鎖等,0,2023-01-16,2023-01-16,特定非営利活動法人Ｉｓｈｉｋａｗａ　Ｉｎｔｅｒｎａｔｉｏｎａｌ　Ｂｏａｒｄｉｎｇ　Ｓｃｈｏｏｌ,,その他の設立登記法人,石川県,金沢市,入江３丁目９１,,17,201,9218011,,,2023-01-16,登記官による閉鎖,,,2015-10-05,1,,,,,,0
887,3230002005285,登記記録の閉鎖等,0,2023-01-16,2023-01-12,有限会社トヤマソフトサポート,,有限会社,富山県,富山市,黒瀬４４７番地１アルビトロ・Ｊ１０５,,16,201,9398213,,,2023-01-12,清算の結了等,,,2015-10-05,1,,,,,トヤマソフトサポート,0
895,3260001003808,登記記録の閉鎖等,0,2023-01-16,2023-01-16,株式会社創木土建,,株式会社,岡山県,岡山市北区,七日市西町３番４６号,,33,101,7000851,,,2023-01-16,登記官による閉鎖,,,2015-10-05,1,,,,,,0
896,3260001010069,登記記録の閉鎖等,0,2023-01-16,2023-01-16,株式会社井上電気,,株式会社,岡山県,岡山市中区,湊１１５番地６,,33,102,7038266,,,2023-01-16,登記官による閉鎖,,,2015-10-05,1,,,,,,0
897,3260001010515,登記記録の閉鎖等,0,2023-01-16,2023-01-16,株式会社アイティー・ビッグ,,株式会社,岡山県,岡山市北区,京町２番１０号,,33,101,7000838,,,2023-01-16,登記官による閉鎖,,,2015-10-05,1,,,,,,0
898,3260001012049,登記記録の閉鎖等,0,2023-01-16,2023-01-16,株式会社デアワールド,,株式会社,岡山県,岡山市北区,大和町１丁目９番２０号,,33,101,7000808,,,2023-01-16,登記官による閉鎖,,,2015-10-05,1,,,,,,0
899,3260001014326,登記記録の閉鎖等,0,2023-01-16,2023-01-16,株式会社西井鉄工所,,株式会社,岡山県,倉敷市,玉島３丁目１３番２４号,,33,202,7138102,,,2023-01-16,登記官による閉鎖,,,2015-10-05,1,,,,,,0
900,3260001021025,登記記録の閉鎖等,0,2023-01-16,2023-01-16,利根基礎株式会社,,株式会社,岡山県,美作市,真加部１７８８番２,,33,215,7070113,,,2023-01-16,登記官による閉鎖,,,2015-10-05,1,,,,,,0
902,3260002005150,登記記録の閉鎖等,0,2023-01-16,2023-01-16,有限会社シヨツプ河原,,有限会社,岡山県,岡山市北区,津島西坂１丁目４番２３号,,33,101,7000086,,,2023-01-16,登記官による閉鎖,,,2015-10-05,1,,,,,,0
903,3260002007790,登記記録の閉鎖等,0,2023-01-16,2023-01-16,萩原電気有限会社,,有限会社,岡山県,岡山市南区,大福５２７番地の７,,33,104,7010204,,,2023-01-16,登記官による閉鎖,,,2015-10-05,1,,,,,,0
904,3260002008839,登記記録の閉鎖等,0,2023-01-16,2023-01-13,双葉住宅有限会社,,有限会社,岡山県,岡山市中区,赤田３１４番地の８,,33,102,7038231,,,2023-01-13,清算の結了等,,,2015-10-05,1,,,,,フタバジュウタク,0
905,3260002013665,登記記録の閉鎖等,0,2023-01-16,2023-01-16,有限会社ワールドライン,,有限会社,岡山県,岡山市北区,南中央町２番１４号,,33,101,7000837,,,2023-01-16,登記官による閉鎖,,,2015-10-05,1,,,,,,0
906,3260002016271,登記記録の閉鎖等,0,2023-01-16,2023-01-16,有限会社アゼリア,,有限会社,岡山県,倉敷市,下津井吹上１丁目１０番５６号,,33,202,7110926,,,2023-01-16,登記官による閉鎖,,,2015-10-05,1,,,,,,0
907,3260002019885,登記記録の閉鎖等,0,2023-01-16,2023-01-16,有限会社ときわ酒販,,有限会社,岡山県,倉敷市,水島東常盤町７番１４号,,33,202,7128058,,,2023-01-16,登記官による閉鎖,,,2015-10-05,1,,,,,,0
908,3260002020389,登記記録の閉鎖等,0,2023-01-16,2023-01-16,有限会社能登原商事,,有限会社,岡山県,倉敷市,水島川崎通１丁目８番地,,33,202,7128074,,,2023-01-16,登記官による閉鎖,,,2015-10-05,1,,,,,,0
909,3260002034397,登記記録の閉鎖等,0,2023-01-16,2023-01-16,有限会社守安商店,,有限会社,岡山県,総社市,西郡８１９番地,,33,208,7191164,,,2023-01-16,登記官による閉鎖,,,2016-05-10,1,,,,,,0
910,3260005002987,登記記録の閉鎖等,0,2023-01-16,2023-01-16,ＩＴベンチャー岡山協同組合,,その他の設立登記法人,岡山県,岡山市北区,厚生町３丁目１番１５号,,33,101,7000985,,,2023-01-16,登記官による閉鎖,,,2015-10-05,1,,,,,,0
911,3260005008547,登記記録の閉鎖等,0,2023-01-16,2023-01-16,農事組合法人湯原町きのこセンター,,その他の設立登記法人,岡山県,真庭市,豊栄６１８番地の１,,33,214,7170406,,,2023-01-16,登記官による閉鎖,,,2015-10-05,1,,,,,,0
920,3290002040764,登記記録の閉鎖等,0,2023-01-16,2023-01-10,有限会社五葉商会,,有限会社,福岡県,春日市,須玖北２丁目１０番地,,40,218,8160864,,,2023-01-10,清算の結了等,,,2015-10-05,1,,,,,ゴヨウショウカイ,0
924,3290801015594,登記記録の閉鎖等,0,2023-01-16,2023-01-12,輝建設株式会社,,株式会社,福岡県,行橋市,大字上稗田１０９７番地の１,,40,213,8240055,,,2023-01-12,清算の結了等,,,2015-10-05,1,,,,,カガヤキケンセツ,0
936,3340002011586,登記記録の閉鎖等,0,2023-01-16,2023-01-13,有限会社ゴトウパッケージ産業,,有限会社,鹿児島県,鹿児島市,荒田１丁目５６番１５号,,46,201,8900054,,,2023-01-13,清算の結了等,,,2015-10-05,1,,,,,ゴトウパッケージサンギョウ,0
938,3380002017027,登記記録の閉鎖等,0,2023-01-16,2023-01-10,有限会社三瓶工務店,,有限会社,福島県,本宮市,和田字十王堂１０３番地,,07,214,9691205,,,2023-01-10,清算の結了等,,,2015-10-05,1,,,,,サンペイコウムテン,0
944,3430001027203,登記記録の閉鎖等,0,2023-01-16,2023-01-04,ティーズホールディングス株式会社,,株式会社,北海道,札幌市中央区,南六条東３丁目３番地２,,01,101,0600056,,,2023-01-04,合併による解散等,1430001009970,令和５年１月１日札幌市中央区南三条西一丁目１番１号株式会社ジョム・アンド・カンパニー（1430001009970）に合併し解散,2015-10-05,1,,,,,ティーズホールディングス,0
945,3430001038191,登記記録の閉鎖等,0,2023-01-16,2023-01-10,株式会社東栄,,株式会社,北海道,札幌市清田区,美しが丘五条６丁目１０番１２号,,01,110,0040815,,,2023-01-10,清算の結了等,,,2015-10-05,1,,,,,トウエイ,0
982,4010002015925,登記記録の閉鎖等,0,2023-01-16,2023-01-05,有限会社レオダッグ,,有限会社,東京都,千代田区,神田和泉町１番地３－１０,,13,101,1010024,,,2023-01-05,清算の結了等,,,2015-10-05,1,,,,,レオダッグ,0
989,4010401095056,登記記録の閉鎖等,0,2023-01-16,2022-12-26,株式会社ウィズ・ワン,,株式会社,東京都,港区,南青山５丁目１６番１４号,,13,103,1070062,,,2022-12-26,清算の結了等,,,2015-10-05,1,,,,,ウィズワン,0
994,4010401149935,登記記録の閉鎖等,0,2023-01-16,2023-01-11,株式会社ＮＳＳＫ－ＮＮ,,株式会社,東京都,港区,愛宕２丁目５番１号愛宕グリーンヒルズＭＯＲＩタワー,,13,103,1050002,,,2023-01-11,合併による解散等,3010401149936,令和５年１月１日栃木県矢板市こぶし台４番地１株式会社壮関（3010401149936）に合併し解散,2019-12-18,1,,,,,エヌエスエスケーエヌエヌ,0
998,4010402002176,登記記録の閉鎖等,0,2023-01-16,2022-12-26,有限会社エスディネットワーク,,有限会社,東京都,港区,西新橋２丁目３番２号三好ビル,,13,103,1050003,,,2022-12-26,清算の結了等,,,2015-10-05,1,,,,,エスディネットワーク,0
1004,4010602015779,登記記録の閉鎖等,0,2023-01-16,2023-01-05,有限会社都田ニツト工業,,有限会社,東京都,墨田区,緑４丁目３番１号,,13,107,1300021,,,2023-01-05,清算の結了等,,,2015-10-05,1,,,,,ミヤコダニツトコウギョウ,0
1013,4010901020059,登記記録の閉鎖等,0,2023-01-16,2023-01-10,株式会社ＨＬＦ,,株式会社,東京都,世田谷区,松原６丁目３１番１８号,,13,112,1560043,,,2023-01-10,清算の結了等,,,2015-10-05,1,,,,,,0
1031,4011401000088,登記記録の閉鎖等,0,2023-01-16,2023-01-13,株式会社アート・ビット,,株式会社,東京都,板橋区,蓮根１丁目７番４号,00054627,13,119,1740046,,,2023-01-13,登記官による閉鎖,,,2015-10-05,1,,,,,,0
1032,4011401001490,登記記録の閉鎖等,0,2023-01-16,2023-01-13,カワカミ電気株式会社,,株式会社,東京都,板橋区,常盤台２丁目６番２－１０１号,,13,119,1740071,,,2023-01-13,登記官による閉鎖,,,2015-10-05,1,,,,,,0
1033,4011401003413,登記記録の閉鎖等,0,2023-01-16,2023-01-13,住昌株式会社,,株式会社,東京都,板橋区,常盤台２丁目１番１３号,,13,119,1740071,,,2023-01-13,登記官による閉鎖,,,2015-10-05,1,,,,,,0
1034,4011401003652,登記記録の閉鎖等,0,2023-01-16,2023-01-13,株式会社第一工芸,,株式会社,東京都,板橋区,板橋４丁目４番３号片岡ビル１Ｆ,,13,119,1730004,,,2023-01-13,登記官による閉鎖,,,2015-10-05,1,,,,,,0
1035,4011401005582,登記記録の閉鎖等,0,2023-01-16,2023-01-13,株式会社フレンド觀光,,株式会社,東京都,板橋区,泉町４番１０号,,13,119,1740055,,,2023-01-13,登記官による閉鎖,,,2015-10-05,1,,,,,,0
1036,4011401012463,登記記録の閉鎖等,0,2023-01-16,2023-01-13,レストランアベニュートーキョー株式会社,,株式会社,東京都,板橋区,舟渡３丁目２番１号グランヴェルジェ３０４,,13,119,1740041,,,2023-01-13,登記官による閉鎖,,,2015-10-05,1,,,,,,0
1037,4011401012843,登記記録の閉鎖等,0,2023-01-16,2023-01-13,株式会社ＳＺ,,株式会社,東京都,板橋区,赤塚７丁目１番１３号,00065715,13,119,1750092,,,2023-01-13,登記官による閉鎖,,,2015-10-05,1,,,,,,0
1038,4011401013040,登記記録の閉鎖等,0,2023-01-16,2023-01-13,双葉食品工業株式会社,,株式会社,東京都,板橋区,大山金井町４０番１号,,13,119,1730024,,,2023-01-13,登記官による閉鎖,,,2015-10-05,1,,,,,,0
1039,4011401016191,登記記録の閉鎖等,0,2023-01-16,2023-01-13,株式会社エーオーコーポレーション,,株式会社,東京都,板橋区,仲宿６３番７号,,13,119,1730005,,,2023-01-13,登記官による閉鎖,,,2015-10-05,1,,,,,,0
1040,4011402001606,登記記録の閉鎖等,0,2023-01-16,2023-01-13,有限会社エフディーラボラトリー,,有限会社,東京都,板橋区,清水町７２番１０号,,13,119,1740053,,,2023-01-13,登記官による閉鎖,,,2015-10-05,1,,,,,,0
1041,4011402005012,登記記録の閉鎖等,0,2023-01-16,2023-01-13,有限会社第三商事,,有限会社,東京都,板橋区,常盤台２丁目２番１０号,,13,119,1740071,,,2023-01-13,登記官による閉鎖,,,2015-10-05,1,,,,,,0
1046,4012401004509,登記記録の閉鎖等,0,2023-01-16,2023-01-16,株式会社ディプロ・インターナショナル,,株式会社,東京都,府中市,八幡町３丁目１７番地の１５,,13,206,1830016,,,2023-01-16,登記官による閉鎖,,,2015-10-05,1,,,,,,0
1047,4012401019390,登記記録の閉鎖等,0,2023-01-16,2023-01-16,ＹＭＢコンサルティング株式会社,,株式会社,東京都,府中市,清水が丘２丁目１番地の５荒井マンション３０３,,13,206,1830015,,,2023-01-16,登記官による閉鎖,,,2015-10-05,1,,,,,,0
1048,4012401019515,登記記録の閉鎖等,0,2023-01-16,2023-01-16,株式会社コア,,株式会社,東京都,府中市,宮町１丁目３４番地の１４デュオ府中４０１,,13,206,1830023,,,2023-01-16,登記官による閉鎖,,,2015-10-05,1,,,,,,0
1051,4012402000614,登記記録の閉鎖等,0,2023-01-16,2023-01-16,有限会社小川歯科技術研究所,,有限会社,東京都,府中市,朝日町１丁目３２番地１５５,,13,206,1830003,,,2023-01-16,登記官による閉鎖,,,2015-10-05,1,,,,,,0
1052,4012402001728,登記記録の閉鎖等,0,2023-01-16,2023-01-16,有限会社種三,,有限会社,東京都,府中市,宮西町５丁目２４番地２,,13,206,1830022,,,2023-01-16,登記官による閉鎖,,,2015-10-05,1,,,,,,0
1053,4012402008335,登記記録の閉鎖等,0,2023-01-16,2023-01-16,有限会社トスタック,,有限会社,東京都,小金井市,前原町３丁目１番１５号,,13,210,1840013,,,2023-01-16,登記官による閉鎖,,,2015-10-05,1,,,,,,0
1054,4012402011990,登記記録の閉鎖等,0,2023-01-16,2023-01-16,有限会社東和商会,,有限会社,東京都,調布市,菊野台３丁目２６番地６０,,13,208,1820007,,,2023-01-16,登記官による閉鎖,,,2015-10-05,1,,,,,,0
1055,4012402019167,登記記録の閉鎖等,0,2023-01-16,2023-01-16,有限会社太陽輪業社,,有限会社,東京都,三鷹市,下連雀３丁目３４番１４号,,13,204,1810013,,,2023-01-16,登記官による閉鎖,,,2015-10-05,1,,,,,,0
1057,4012402020752,登記記録の閉鎖等,0,2023-01-16,2023-01-16,有限会社ニュートリ・クッキング,,有限会社,東京都,三鷹市,北野４丁目１５番１６号,,13,204,1810003,,,2023-01-16,登記官による閉鎖,,,2015-10-05,1,,,,,,0
1061,4013301021445,登記記録の閉鎖等,0,2023-01-16,2023-01-11,マーコックスジャパン株式会社,,株式会社,東京都,豊島区,上池袋４丁目４６番２号,,13,116,1700012,,,2023-01-11,清算の結了等,,,2015-10-05,1,,,,,マーコックスジャパン,0
1068,4020001045294,登記記録の閉鎖等,0,2023-01-16,2023-01-10,古沢地所株式会社,,株式会社,神奈川県,横浜市保土ケ谷区,新桜ケ丘１丁目１０番１４号,,14,106,2400036,,,2023-01-10,清算の結了等,,,2015-10-05,1,,,,,フルサワジショ,0
1078,4021001037091,登記記録の閉鎖等,0,2023-01-16,2023-01-10,ＮＫアセット株式会社,,株式会社,神奈川県,平塚市,四之宮４丁目１８番２９号,,14,203,2540014,,,2023-01-10,合併による解散等,3020001029505,令和５年１月１日横浜市中区山下町３３番地ウエインズアセット株式会社（3020001029505）に合併し解散,2015-10-05,1,,,,,,0
1123,4080001022296,登記記録の閉鎖等,0,2023-01-16,2023-01-12,株式会社帶金,,株式会社,静岡県,静岡市葵区,千代田５丁目８番４１号,,22,101,4200803,,,2023-01-12,清算の結了等,,,2018-06-20,1,,,,,オビカネ,0
1141,4120101025211,登記記録の閉鎖等,0,2023-01-16,2023-01-13,株式会社サンコー,,株式会社,大阪府,松原市,天美南４丁目３番２号,,27,217,5800033,,,2023-01-13,清算の結了等,,,2015-10-05,1,,,,,サンコー,0
1182,4180002007823,登記記録の閉鎖等,0,2023-01-16,2022-12-28,有限会社亀井商会,,有限会社,愛知県,名古屋市昭和区,雪見町１丁目４番地,,23,107,4660005,,,2022-12-28,清算の結了等,,,2015-10-05,1,,,,,カメイショウカイ,0
1187,4180005007911,登記記録の閉鎖等,0,2023-01-16,2023-01-05,特定非営利活動法人めいせい,,その他の設立登記法人,愛知県,名古屋市中川区,戸田明正２丁目２４１４番地,,23,110,4540961,,,2023-01-05,清算の結了等,,,2015-10-05,1,,,,,メイセイ,0
1202,4210001000577,登記記録の閉鎖等,0,2023-01-16,2023-01-16,株式会社エムティコーポレーション,,株式会社,福井県,福井市,西木田１丁目２０番２１号,,18,201,9188004,,,2023-01-16,登記官による閉鎖,,,2015-10-05,1,,,,,,0
1204,4210002010311,登記記録の閉鎖等,0,2023-01-16,2023-01-16,有限会社山和冷全,,有限会社,福井県,敦賀市,莇生野８７号１３番地の６,,18,202,9140141,,,2023-01-16,登記官による閉鎖,,,2015-10-05,1,,,,,,0
1205,4210002011961,登記記録の閉鎖等,0,2023-01-16,2023-01-16,有限会社ミドリ,,有限会社,福井県,越前市,平和町７番１２号,,18,209,9150827,,,2023-01-16,登記官による閉鎖,,,2015-10-05,1,,,,,,0
1206,4220002003108,登記記録の閉鎖等,0,2023-01-16,2023-01-16,有限会社清水鮮魚店,,有限会社,石川県,金沢市,金石北１丁目２番１４号,,17,201,9200338,,,2023-01-16,登記官による閉鎖,,,2015-10-05,1,,,,,,0
1207,4220002009336,登記記録の閉鎖等,0,2023-01-16,2023-01-13,有限会社原鉄工所,,有限会社,石川県,白山市,横江町２８８番地,,17,210,9240011,,,2023-01-13,清算の結了等,,,2015-10-05,1,,,,,ハラテッコウショ,0
1208,4220002011226,登記記録の閉鎖等,0,2023-01-16,2023-01-16,有限会社マツシタ,,有限会社,石川県,小松市,向本折町午２３１番地,,17,203,9230961,,,2023-01-16,登記官による閉鎖,,,2015-10-05,1,,,,,,0
1210,4220003002075,登記記録の閉鎖等,0,2023-01-16,2023-01-12,合同会社いわうちマルシェ,,合同会社,石川県,能美市,岩内町イ８８番地,,17,211,9231201,,,2023-01-12,清算の結了等,,,2015-11-06,1,,,,,イワウチマルシェ,0
1221,4240005015024,登記記録の閉鎖等,0,2023-01-16,2023-01-13,ＵＳＪ協同組合,,その他の設立登記法人,広島県,広島市中区,大手町３丁目１番７号,,34,101,7300051,,,2023-01-13,清算の結了等,,,2020-05-22,1,,,,,ユーエスジェイ,0
1223,4250005007251,登記記録の閉鎖等,0,2023-01-16,2023-01-05,特定非営利活動法人デイサービスクローバー,,その他の設立登記法人,山口県,大島郡周防大島町,大字久賀４６０２番地１,,35,305,7422301,,,2023-01-05,清算の結了等,,,2015-10-05,1,,,,,デイサービスクローバー,0
1224,4260001000176,登記記録の閉鎖等,0,2023-01-16,2023-01-16,アクアシステム株式会社,,株式会社,岡山県,岡山市南区,北浦１５５番地の９,,33,104,7028012,,,2023-01-16,登記官による閉鎖,,,2015-10-05,1,,,,,,0
1225,4260001008228,登記記録の閉鎖等,0,2023-01-16,2023-01-16,株式会社イーアイシー・ウッドハウス,,株式会社,岡山県,岡山市南区,新福１丁目１７番１２号,,33,104,7000943,,,2023-01-16,登記官による閉鎖,,,2015-10-05,1,,,,,,0
1226,4260001015678,登記記録の閉鎖等,0,2023-01-16,2023-01-16,株式会社エコシステム,,株式会社,岡山県,倉敷市,玉島乙島２４４０番地３,,33,202,7138103,,,2023-01-16,登記官による閉鎖,,,2015-10-05,1,,,,,,0
1227,4260001017567,登記記録の閉鎖等,0,2023-01-16,2023-01-16,株式会社ＨＲジャパン,,株式会社,岡山県,倉敷市,昭和２丁目１番３号コスモビル３階,,33,202,7100057,,,2023-01-16,登記官による閉鎖,,,2015-10-05,1,,,,,,0
1229,4260002007939,登記記録の閉鎖等,0,2023-01-16,2023-01-16,有限会社ハピー水産,,有限会社,岡山県,岡山市南区,妹尾２４０７番地の８０,,33,104,7010205,,,2023-01-16,登記官による閉鎖,,,2015-10-05,1,,,,,,0
1230,4260002011206,登記記録の閉鎖等,0,2023-01-16,2023-01-16,ユシロンテック有限会社,,有限会社,岡山県,赤磐市,山陽５丁目２番１号,,33,213,7090827,,,2023-01-16,登記官による閉鎖,,,2015-10-05,1,,,,,,0
1231,4260002011809,登記記録の閉鎖等,0,2023-01-16,2023-01-16,有限会社みつ商事,,有限会社,岡山県,岡山市北区,御津野々口４７６番地の１,,33,101,7092117,,,2023-01-16,登記官による閉鎖,,,2015-10-05,1,,,,,,0
1232,4260002013623,登記記録の閉鎖等,0,2023-01-16,2023-01-16,有限会社日本潤友貿易,,有限会社,岡山県,岡山市北区,野殿東町４５７番地の５,,33,101,7000065,,,2023-01-16,登記官による閉鎖,,,2015-10-05,1,,,,,,0
1233,4260002013821,登記記録の閉鎖等,0,2023-01-16,2023-01-16,有限会社萬建装,,有限会社,岡山県,岡山市南区,内尾４０２番地の１４,,33,104,7010212,,,2023-01-16,登記官による閉鎖,,,2015-10-05,1,,,,,,0
1234,4260002016626,登記記録の閉鎖等,0,2023-01-16,2023-01-16,有限会社いわた,,有限会社,岡山県,倉敷市,玉島２丁目７番２９号,,33,202,7138102,,,2023-01-16,登記官による閉鎖,,,2015-10-05,1,,,,,,0
1235,4260002025040,登記記録の閉鎖等,0,2023-01-16,2023-01-16,かもがた麺業有限会社,,有限会社,岡山県,浅口市,鴨方町小坂東５５９番地の１,,33,216,7190241,,,2023-01-16,登記官による閉鎖,,,2015-10-05,1,,,,,,0
1236,4260002027929,登記記録の閉鎖等,0,2023-01-16,2023-01-16,有限会社奥田商事,,有限会社,岡山県,苫田郡鏡野町,上齋原４９０番地の１,,33,606,7080601,,,2023-01-16,登記官による閉鎖,,,2015-10-05,1,,,,,,0
1237,4260002029413,登記記録の閉鎖等,0,2023-01-16,2023-01-16,有限会社まさや商事,,有限会社,岡山県,津山市,院庄９１０番地の１,,33,203,7080014,,,2023-01-16,登記官による閉鎖,,,2015-10-05,1,,,,,,0
1238,4260002031690,登記記録の閉鎖等,0,2023-01-16,2023-01-16,有限会社岸本商店,,有限会社,岡山県,備前市,浦伊部５１９番地の２,,33,211,7050002,,,2023-01-16,登記官による閉鎖,,,2015-10-05,1,,,,,,0
1239,4260002031699,登記記録の閉鎖等,0,2023-01-16,2023-01-16,有限会社清美産業,,有限会社,岡山県,備前市,大内１０５９番地,,33,211,7050003,,,2023-01-16,登記官による閉鎖,,,2015-10-05,1,,,,,,0
1241,4260005000131,登記記録の閉鎖等,0,2023-01-16,2023-01-16,社団法人岡山県友愛会,,その他の設立登記法人,岡山県,岡山市中区,東山２丁目１番１２号,,33,102,7038281,,,2023-01-16,登記官による閉鎖,,,2015-10-05,1,,,,,,0
1243,4290001082856,登記記録の閉鎖等,0,2023-01-16,2023-01-06,株式会社Ａｓｉａｎ　Ｔｅｃｈ　Ｊａｐａｎ　ｉｎｃ．,,株式会社,福岡県,福岡市博多区,祇園町８番１３号第一プリンスビル１Ｆ,00114531,40,132,8120038,,,2023-01-06,清算の結了等,,,2018-09-25,1,,,,,アジアンテックジャパンインク,0
1244,4290001083210,登記記録の閉鎖等,0,2023-01-16,2023-01-10,株式会社エイトホーム,,株式会社,福岡県,福岡市中央区,大名１丁目９番４５－３０８号,,40,133,8100041,,,2023-01-10,清算の結了等,,,2018-11-01,1,,,,,エイトホーム,0
1260,4340001023061,登記記録の閉鎖等,0,2023-01-16,2023-01-11,株式会社キューオキ鹿児島,,株式会社,鹿児島県,鹿児島市,永吉２丁目３５番２６号,,46,201,8900023,,,2023-01-11,合併による解散等,8290001086556,令和５年１月１日福岡市南区井尻四丁目２８番１８号株式会社Ｋｙｕホールディングス（8290001086556）に合併し解散,2020-08-14,1,,,,,キューオキカゴシマ,0
1261,4340002013185,登記記録の閉鎖等,0,2023-01-16,2023-01-12,有限会社三喜,,有限会社,鹿児島県,鹿児島市,田上７丁目２１番２１号,,46,201,8900034,,,2023-01-12,清算の結了等,,,2015-10-05,1,,,,,ミツキ,0
1274,4430001048116,登記記録の閉鎖等,0,2023-01-16,2023-01-10,赤平製紙株式会社,,株式会社,北海道,赤平市,共和町１９９番地５,,01,218,0791101,,,2023-01-10,合併による解散等,6080101011305,令和５年１月１日静岡県富士宮市南陵６番地エリエールペーパー株式会社（6080101011305）に合併し解散,2015-10-05,1,,,,,アカビラセイシ,0
1276,4430001065615,登記記録の閉鎖等,0,2023-01-16,2023-01-05,株式会社日和,,株式会社,北海道,札幌市西区,西野五条８丁目１３番１号,,01,107,0630035,,,2023-01-05,清算の結了等,,,2015-10-05,1,,,,,ニチワ,0
1279,4430002054914,登記記録の閉鎖等,0,2023-01-16,2023-01-04,有限会社なるみ薬局,,有限会社,北海道,小樽市,塩谷２丁目１７番１２号,,01,203,0482672,,,2023-01-04,合併による解散等,5430001050178,令和５年１月１日北海道小樽市塩谷二丁目１７番１２号株式会社太誠堂薬局（5430001050178）に合併し解散,2015-10-05,1,,,,,ナルミヤッキョク,0
1284,4440001005280,登記記録の閉鎖等,0,2023-01-16,2023-01-06,北斗建設工業株式会社,,株式会社,北海道,北斗市,東浜２丁目１４番３１号,,01,236,0490122,,,2023-01-06,合併による解散等,6440001000115,令和５年１月１日北海道北斗市東浜二丁目１４番３１号石黒建設株式会社（6440001000115）に合併し解散,2015-10-05,1,,,,,ホクトケンセツコウギョウ,0
1287,4440005000237,登記記録の閉鎖等,0,2023-01-16,2023-01-05,医療法人社団上磯整形外科クリニック,,その他の設立登記法人,北海道,北斗市,久根別１丁目２６番８号,,01,236,0490121,,,2023-01-05,清算の結了等,,,2015-10-05,1,,,,,カミイソセイケイゲカクリニック,0
1289,4490001005020,登記記録の閉鎖等,0,2023-01-16,2023-01-12,株式会社弘瀬商店,,株式会社,高知県,土佐清水市,本町２番３号,,39,209,7870326,,,2023-01-12,清算の結了等,,,2015-10-05,1,,,,,ヒロセショウテン,0
1298,5010001120345,登記記録の閉鎖等,0,2023-01-16,2022-12-28,ジェンティア・バイオシステムズ株式会社,,株式会社,東京都,千代田区,五番町２番日本大学別館２階,,13,101,1020076,,,2022-12-28,清算の結了等,,,2015-10-05,1,,,,,ジェンティアバイオシステムズ,0
1315,5010401003422,登記記録の閉鎖等,0,2023-01-16,2022-12-26,株式会社ウィークス,,株式会社,東京都,港区,南麻布５丁目２番９号,,13,103,1060047,,,2022-12-26,清算の結了等,,,2015-10-05,1,,,,,ウィークス,0
1316,5010401114599,登記記録の閉鎖等,0,2023-01-16,2022-12-26,株式会社エバーチス,,株式会社,東京都,港区,港南１丁目９番３６号,,13,103,1080075,,,2022-12-26,清算の結了等,,,2015-10-05,1,,,,,エバーチス,0
1318,5010401120168,登記記録の閉鎖等,0,2023-01-16,2022-12-27,ＩＢＣソーラー・プロージェクツ株式会社,,株式会社,東京都,港区,赤坂２丁目２２番２４号,,13,103,1070052,,,2022-12-27,合併による解散等,1010401164706,令和４年１２月２１日東京都港区赤坂二丁目２２番２４号ＩＢＣソーラー・エナジー・ジャパン株式会社（1010401164706）に合併し解散,2015-10-05,1,,,,,アイビーシーソーラープロージェクツ,0
1338,5010901027219,登記記録の閉鎖等,0,2023-01-16,2023-01-10,株式会社Ｇｌｏｂａｌ　Ｔｈｉｎｋｅｒｓ　Ｆｏｒｕｍ,,株式会社,東京都,世田谷区,砧８丁目３２番１７号,,13,112,1570073,,,2023-01-10,清算の結了等,,,2015-10-05,1,,,,,グローバルシンカーズフォーラム,0
1343,5011001125730,登記記録の閉鎖等,0,2023-01-16,2023-01-04,ｅｖｏｌｕ株式会社,,株式会社,東京都,豊島区,池袋２丁目４６番３号,,13,116,1710014,,,2023-01-04,合併による解散等,7013301038445,令和４年１２月３１日東京都豊島区池袋二丁目４６番３号株式会社Ｆｕｔｕｒｉｚｅ（7013301038445）に合併し解散,2018-12-20,1,,,,,エボル,0
1355,5011401002488,登記記録の閉鎖等,0,2023-01-16,2023-01-13,株式会社サクミドレス,,株式会社,東京都,板橋区,大原町４６番１４号,,13,119,1740061,,,2023-01-13,登記官による閉鎖,,,2015-10-05,1,,,,,,0
1356,5011401002562,登記記録の閉鎖等,0,2023-01-16,2023-01-13,日資開発工業株式会社,,株式会社,東京都,板橋区,三園１丁目４２番７号,,13,119,1750091,,,2023-01-13,登記官による閉鎖,,,2015-10-05,1,,,,,,0
1357,5011401013097,登記記録の閉鎖等,0,2023-01-16,2023-01-13,株式会社大裕,,株式会社,東京都,板橋区,坂下２丁目２６番３号,,13,119,1740043,,,2023-01-13,登記官による閉鎖,,,2015-10-05,1,,,,,,0
1358,5011401015820,登記記録の閉鎖等,0,2023-01-16,2023-01-13,株式会社グローバルファインズ,,株式会社,東京都,板橋区,板橋４丁目５３番１０号,,13,119,1730004,,,2023-01-13,登記官による閉鎖,,,2015-10-05,1,,,,,,0
1359,5011402007040,登記記録の閉鎖等,0,2023-01-16,2023-01-13,有限会社野村電業,,有限会社,東京都,板橋区,西台４丁目３番２１号,,13,119,1750045,,,2023-01-13,登記官による閉鎖,,,2015-10-05,1,,,,,,0
1360,5011402007965,登記記録の閉鎖等,0,2023-01-16,2023-01-13,有限会社豊伸,,有限会社,東京都,板橋区,徳丸５丁目２８番１０号,,13,119,1750083,,,2023-01-13,登記官による閉鎖,,,2015-10-05,1,,,,,,0
1361,5011402019267,登記記録の閉鎖等,0,2023-01-16,2023-01-13,有限会社辰能,,有限会社,東京都,板橋区,蓮沼町２６番１号,00055497,13,119,1740052,,,2023-01-13,登記官による閉鎖,,,2015-10-05,1,,,,,,0
1362,5011402019580,登記記録の閉鎖等,0,2023-01-16,2023-01-13,有限会社レーザーニュースジャパン,,有限会社,東京都,板橋区,小豆沢２丁目３１番１－９０２号,,13,119,1740051,,,2023-01-13,登記官による閉鎖,,,2015-10-05,1,,,,,,0
1363,5011405001437,登記記録の閉鎖等,0,2023-01-16,2023-01-13,ＳＴＱエコ内装事業協同組合,,その他の設立登記法人,東京都,板橋区,高島平２丁目１番１５号,,13,119,1750082,,,2023-01-13,登記官による閉鎖,,,2015-10-05,1,,,,,,0
1373,5012401016668,登記記録の閉鎖等,0,2023-01-16,2023-01-16,株式会社プロトコル・ジャパン,,株式会社,東京都,府中市,西原町２丁目５番地の１２,,13,206,1830046,,,2023-01-16,登記官による閉鎖,,,2015-10-05,1,,,,,,0
1375,5012401035057,登記記録の閉鎖等,0,2023-01-16,2023-01-11,株式会社Ｂｍａｒｋ,,株式会社,東京都,武蔵野市,吉祥寺東町１丁目１０番２号サングリーンハイツ１０１,,13,203,1800002,,,2023-01-11,清算の結了等,,,2019-03-15,1,,,,,ビーマーク,0
1376,5012402001082,登記記録の閉鎖等,0,2023-01-16,2023-01-16,有限会社佐伯精密工業所,,有限会社,東京都,府中市,分梅町３丁目１９番地７,,13,206,1830033,,,2023-01-16,登記官による閉鎖,,,2015-10-05,1,,,,,,0
1377,5012402012170,登記記録の閉鎖等,0,2023-01-16,2023-01-16,有限会社濱島工機,00058128,有限会社,東京都,調布市,仙川町２丁目１７番地２１,,13,208,1820002,,,2023-01-16,登記官による閉鎖,,,2015-10-05,1,,,,,,0
1378,5012402021964,登記記録の閉鎖等,0,2023-01-16,2023-01-16,有限会社オーバーシーズアート,,有限会社,東京都,三鷹市,井の頭５丁目１５番７号,,13,204,1810001,,,2023-01-16,登記官による閉鎖,,,2015-10-05,1,,,,,,0
1381,5013201018292,登記記録の閉鎖等,0,2023-01-16,2023-01-10,株式会社ＫＩＴ,,株式会社,東京都,世田谷区,玉川３丁目２３番２６号,,13,112,1580094,,,2023-01-10,清算の結了等,,,2015-10-05,1,,,,,,0
1383,5013303002483,登記記録の閉鎖等,0,2023-01-16,2023-01-12,合同会社アブソ,,合同会社,東京都,豊島区,南大塚３丁目１７番１号２０２,,13,116,1700005,,,2023-01-12,清算の結了等,,,2015-10-05,1,,,,,アブン,0
1395,5021001045374,登記記録の閉鎖等,0,2023-01-16,2023-01-10,株式会社アプリスタープロパティ,,株式会社,神奈川県,厚木市,七沢１６２４番地３２,,14,212,2430121,,,2023-01-10,清算の結了等,,,2015-10-05,1,,,,,アプリスタープロパティ,0
1396,5021001048988,登記記録の閉鎖等,0,2023-01-16,2023-01-10,株式会社ウチヤマ商事,,株式会社,神奈川県,厚木市,愛名１２４０番地６,,14,212,2430038,,,2023-01-10,清算の結了等,,,2015-10-05,1,,,,,,0
1399,5030001141521,登記記録の閉鎖等,0,2023-01-16,2023-01-10,株式会社Ｍ．Ｄ．Ｋ,,株式会社,埼玉県,越谷市,大字増森２４８９番地１,,11,222,3430012,,,2023-01-10,清算の結了等,,,2021-04-06,1,,,,,エムディケイ,0
1407,5030003011152,登記記録の閉鎖等,0,2023-01-16,2023-01-10,ＭＢＺＳ合同会社,,合同会社,埼玉県,さいたま市北区,東大成二丁目２０７番２,,11,102,3310800,,,2023-01-10,清算の結了等,,,2017-12-12,1,,,,,エムビーゼットエス,0
1414,5040003016010,登記記録の閉鎖等,0,2023-01-16,2022-12-28,合同会社瀧玖堂,,合同会社,千葉県,松戸市,岩瀬６３１－７クレストイワセ２０８,,12,207,2710076,,,2022-12-28,清算の結了等,,,2020-09-14,1,,,,,リュウキュウドウ,0
1421,5060001027049,登記記録の閉鎖等,0,2023-01-16,2023-01-06,戸田株式会社,,株式会社,栃木県,栃木市,箱森町１３番５２号,,09,203,3280075,,,2023-01-06,清算の結了等,,,2015-10-05,1,,,,,トダ,0
1423,5060002027469,登記記録の閉鎖等,0,2023-01-16,2023-01-06,有限会社永遠,,有限会社,栃木県,大田原市,富池３７７番地１１,,09,210,3240004,,,2023-01-06,清算の結了等,,,2015-10-05,1,,,,,トワ,0
1467,5120101004197,登記記録の閉鎖等,0,2023-01-16,2023-01-12,株式会社辻建,00032130,株式会社,大阪府,堺市西区,浜寺元町６丁８３４番地,,27,144,5928343,,,2023-01-12,清算の結了等,,,2015-10-05,1,,,,,ツジケン,0
1484,5140001052336,登記記録の閉鎖等,0,2023-01-16,2023-01-05,株式会社ナカタケホーム,,株式会社,兵庫県,尼崎市,常吉１丁目３番４号,,28,202,6610042,,,2023-01-05,清算の結了等,,,2015-10-05,1,,,,,ナカタケホーム,0
1498,5170001006710,登記記録の閉鎖等,0,2023-01-16,2023-01-12,株式会社ジーイー,,株式会社,和歌山県,和歌山市,毛見１１３１番地の１７,,30,201,6410014,,,2023-01-12,合併による解散等,1120901014779,令和５年１月１日大阪府東大阪市若江西新町一丁目７番３８号共和メディカル株式会社（1120901014779）に合併し解散,2015-10-05,1,,,,,ジーイー,0
1510,5180002068807,登記記録の閉鎖等,0,2023-01-16,2023-01-06,有限会社川口機工,,有限会社,愛知県,小牧市,小針１丁目２７２番地,,23,219,4850037,,,2023-01-06,清算の結了等,,,2015-10-05,1,,,,,カワグチキコウ,0
1521,5200001024659,登記記録の閉鎖等,0,2023-01-16,2023-01-13,株式会社カラコルム,,株式会社,岐阜県,岐阜市,鷺山新町１番１－１０３号,,21,201,5020871,,,2023-01-13,清算の結了等,,,2015-10-05,1,,,,,カラコルム,0
1524,5210001009881,登記記録の閉鎖等,0,2023-01-16,2023-01-16,株式会社アグリアス,,株式会社,福井県,大野市,上舌第１７号１２番地,,18,205,9120064,,,2023-01-16,登記官による閉鎖,,,2015-10-05,1,,,,,,0
1525,5210001011061,登記記録の閉鎖等,0,2023-01-16,2023-01-16,株式会社高伸,00077723,株式会社,福井県,敦賀市,清水町２丁目１９番４号,,18,202,9140052,,,2023-01-16,登記官による閉鎖,,,2015-10-05,1,,,,,,0
1526,5210002001747,登記記録の閉鎖等,0,2023-01-16,2023-01-16,有限会社シマダ商事,,有限会社,福井県,福井市,舞屋町第４号５番地８,,18,201,9188024,,,2023-01-16,登記官による閉鎖,,,2015-10-05,1,,,,,,0
1527,5210002010772,登記記録の閉鎖等,0,2023-01-16,2023-01-16,有限会社ヤマシタ,,有限会社,福井県,敦賀市,杉箸８４号５番地,00077912,18,202,9140314,,,2023-01-16,登記官による閉鎖,,,2015-10-05,1,,,,,,0
1528,5210002011754,登記記録の閉鎖等,0,2023-01-16,2023-01-16,有限会社タスト企画,,有限会社,福井県,越前市,小野谷町第１４号１番地の１,,18,209,9150054,,,2023-01-16,登記官による閉鎖,,,2015-10-05,1,,,,,,0
1529,5210005005159,登記記録の閉鎖等,0,2023-01-16,2023-01-16,福井県記章業協同組合,,その他の設立登記法人,福井県,福井市,大手２丁目１３番２５号,,18,201,9100005,,,2023-01-16,登記官による閉鎖,,,2015-10-05,1,,,,,,0
1530,5210005006594,登記記録の閉鎖等,0,2023-01-16,2023-01-16,敦賀港運輸企業組合,,その他の設立登記法人,福井県,敦賀市,呉竹町１丁目３１０１番地,,18,202,9140802,,,2023-01-16,登記官による閉鎖,,,2015-10-05,1,,,,,,0
1531,5210005009713,登記記録の閉鎖等,0,2023-01-16,2023-01-16,無限責任千福利用組合,,その他の設立登記法人,福井県,越前市,千福町３５号１６番地,,18,209,9150846,,,2023-01-16,登記官による閉鎖,,,2018-01-05,1,,,,,,0
1533,5220001008783,登記記録の閉鎖等,0,2023-01-16,2023-01-16,株式会社タイジ,,株式会社,石川県,白山市,相川町９９４番地１９,,17,210,9240027,,,2023-01-16,登記官による閉鎖,,,2015-10-05,1,,,,,,0
1535,5220001012587,登記記録の閉鎖等,0,2023-01-16,2023-01-16,リー・インターナショナル・株式会社,,株式会社,石川県,小松市,坊丸町丙６番地１,,17,203,9230005,,,2023-01-16,登記官による閉鎖,,,2015-10-05,1,,,,,,0
1536,5220001013585,登記記録の閉鎖等,0,2023-01-16,2023-01-16,株式会社藤苑,,株式会社,石川県,加賀市,山中温泉塚谷町ニの１０７番地の２,,17,206,9220111,,,2023-01-16,登記官による閉鎖,,,2015-10-05,1,,,,,,0
1538,5220002011679,登記記録の閉鎖等,0,2023-01-16,2023-01-16,有限会社メイフクニット,,有限会社,石川県,能美市,福島町ワ３２番地,,17,211,9290112,,,2023-01-16,登記官による閉鎖,,,2015-10-05,1,,,,,,0
1539,5220002015696,登記記録の閉鎖等,0,2023-01-16,2023-01-16,有限会社極楽地重機,,有限会社,石川県,鳳珠郡能登町,字当目５７字３４７番地,,17,463,9280334,,,2023-01-16,登記官による閉鎖,,,2015-10-05,1,,,,,,0
1541,5220005001520,登記記録の閉鎖等,0,2023-01-16,2023-01-16,石川測量事業協同組合,,その他の設立登記法人,石川県,金沢市,出雲町イ１０５番地２,,17,201,9200056,,,2023-01-16,登記官による閉鎖,,,2015-10-05,1,,,,,,0
1547,5240001044570,登記記録の閉鎖等,0,2023-01-16,2023-01-12,株式会社丸住石材,,株式会社,広島県,広島市中区,西平塚町４番６－２０１号,,34,101,7300024,,,2023-01-12,清算の結了等,,,2015-10-05,1,,,,,マルジュウセキザイ,0
1556,5260001001446,登記記録の閉鎖等,0,2023-01-16,2023-01-16,株式会社応武企画,,株式会社,岡山県,岡山市中区,江崎５９１番地,,33,102,7028005,,,2023-01-16,登記官による閉鎖,,,2015-10-05,1,,,,,,0
1557,5260001008268,登記記録の閉鎖等,0,2023-01-16,2023-01-16,株式会社コスモ電設,,株式会社,岡山県,岡山市北区,下中野７１８番地１１２,,33,101,7000973,,,2023-01-16,登記官による閉鎖,,,2015-10-05,1,,,,,,0
1558,5260001018795,登記記録の閉鎖等,0,2023-01-16,2023-01-16,株式会社フロス,,株式会社,岡山県,笠岡市,吉浜４８３番地１,,33,205,7140074,,,2023-01-16,登記官による閉鎖,,,2015-10-05,1,,,,,,0
1559,5260001019067,登記記録の閉鎖等,0,2023-01-16,2023-01-16,仲田農機株式会社,,株式会社,岡山県,高梁市,本町４７番地,,33,209,7160011,,,2023-01-16,登記官による閉鎖,,,2015-10-05,1,,,,,,0
1560,5260001023837,登記記録の閉鎖等,0,2023-01-16,2023-01-16,株式会社綾工ホーム,,株式会社,岡山県,倉敷市,児島小川８丁目８番１号,,33,202,7110911,,,2023-01-16,登記官による閉鎖,,,2015-10-05,1,,,,,,0
1562,5260002000950,登記記録の閉鎖等,0,2023-01-16,2023-01-16,有限会社いまむら,,有限会社,岡山県,岡山市北区,中山下１丁目５番４１号,,33,101,7000821,,,2023-01-16,登記官による閉鎖,,,2015-10-05,1,,,,,,0
1563,5260002004332,登記記録の閉鎖等,0,2023-01-16,2023-01-16,有限会社坂本商店,,有限会社,岡山県,岡山市北区,津高６３３番地の２,,33,101,7011152,,,2023-01-16,登記官による閉鎖,,,2015-10-05,1,,,,,,0
1564,5260002006155,登記記録の閉鎖等,0,2023-01-16,2023-01-16,有限会社高松プラザ電器,,有限会社,岡山県,岡山市北区,三手３２５番地,,33,101,7011353,,,2023-01-16,登記官による閉鎖,,,2015-10-05,1,,,,,,0
1565,5260002010248,登記記録の閉鎖等,0,2023-01-16,2023-01-16,有限会社光,,有限会社,岡山県,加賀郡吉備中央町,吉川７５７０番地１２３,,33,681,7161241,,,2023-01-16,登記官による閉鎖,,,2015-10-05,1,,,,,,0
1566,5260002012203,登記記録の閉鎖等,0,2023-01-16,2023-01-16,有限会社山陽アドバンス,,有限会社,岡山県,岡山市北区,南中央町９番５号,,33,101,7000837,,,2023-01-16,登記官による閉鎖,,,2016-02-02,1,,,,,,0
1568,5260002016930,登記記録の閉鎖等,0,2023-01-16,2023-01-16,有限会社オーエムプラニング,,有限会社,岡山県,倉敷市,下庄６２２番地の２,,33,202,7010112,,,2023-01-16,登記官による閉鎖,,,2015-10-05,1,,,,,,0
1570,5260002020180,登記記録の閉鎖等,0,2023-01-16,2023-01-16,有限会社ナンバカンパニー,,有限会社,岡山県,倉敷市,児島小川２丁目５番４７号,,33,202,7110911,,,2023-01-16,登記官による閉鎖,,,2015-10-05,1,,,,,,0
1571,5260002020940,登記記録の閉鎖等,0,2023-01-16,2023-01-16,有限会社フックデリバリーセンター,,有限会社,岡山県,倉敷市,児島柳田町４５６番７８,,33,202,7110936,,,2023-01-16,登記官による閉鎖,,,2015-10-05,1,,,,,,0
1572,5260002022615,登記記録の閉鎖等,0,2023-01-16,2023-01-16,有限会社沖機工,,有限会社,岡山県,倉敷市,児島下の町１０丁目４番４０号,,33,202,7110906,,,2023-01-16,登記官による閉鎖,,,2015-10-05,1,,,,,,0
1573,5260002023761,登記記録の閉鎖等,0,2023-01-16,2023-01-16,有限会社アイ・エボリューション,,有限会社,岡山県,倉敷市,上富井２８９番地４,,33,202,7100846,,,2023-01-16,登記官による閉鎖,,,2015-10-05,1,,,,,,0
1574,5260002026847,登記記録の閉鎖等,0,2023-01-16,2023-01-16,有限会社備高不動産,,有限会社,岡山県,高梁市,原田南町１１６６番地の５,,33,209,7160044,,,2023-01-16,登記官による閉鎖,,,2015-10-05,1,,,,,,0
1575,5260002033406,登記記録の閉鎖等,0,2023-01-16,2023-01-16,有限会社宗建産業,,有限会社,岡山県,玉野市,宇野１丁目９番１８号,,33,204,7060011,,,2023-01-16,登記官による閉鎖,,,2017-08-23,1,,,,,,0
1576,5260002034255,登記記録の閉鎖等,0,2023-01-16,2023-01-16,有限会社コハラ建設,,有限会社,岡山県,笠岡市,笠岡３０５１番地２２,,33,205,7140081,,,2023-01-16,登記官による閉鎖,,,2015-10-05,1,,,,,,0
1577,5260002034420,登記記録の閉鎖等,0,2023-01-16,2023-01-16,有限会社吉田鉄工所,,有限会社,岡山県,津山市,川崎４２９番地の１,,33,203,7080841,,,2023-01-16,登記官による閉鎖,,,2017-01-24,1,,,,,,0
1578,5260003000413,登記記録の閉鎖等,0,2023-01-16,2023-01-16,合同会社創学舎,,合同会社,岡山県,岡山市中区,原尾島３丁目８番１７号,,33,102,7038235,,,2023-01-16,登記官による閉鎖,,,2015-10-05,1,,,,,,0
1579,5260003000487,登記記録の閉鎖等,0,2023-01-16,2023-01-16,合同会社ＭＹＲＩＡＤ,,合同会社,岡山県,岡山市北区,畑鮎２３８０番地,,33,101,7012153,,,2023-01-16,登記官による閉鎖,,,2015-10-05,1,,,,,,0
1580,5260003000941,登記記録の閉鎖等,0,2023-01-16,2023-01-16,合資会社谷川タンス店,,合資会社,岡山県,高梁市,中間町３番地の１,,33,209,7160021,,,2023-01-16,登記官による閉鎖,,,2015-10-05,1,,,,,,0
1582,5260005001459,登記記録の閉鎖等,0,2023-01-16,2023-01-16,協同組合共同物流,,その他の設立登記法人,岡山県,岡山市東区,瀬戸町寺地８９７番地の１,,33,103,7090875,,,2023-01-16,登記官による閉鎖,,,2015-10-05,1,,,,,,0
1583,5260005003372,登記記録の閉鎖等,0,2023-01-16,2023-01-16,協同組合倉敷トラックセンター,,その他の設立登記法人,岡山県,倉敷市,阿知２丁目４番５号,,33,202,7100055,,,2023-01-16,登記官による閉鎖,,,2015-10-05,1,,,,,,0
1584,5260005003422,登記記録の閉鎖等,0,2023-01-16,2023-01-16,協同組合茶屋町共同店舗,,その他の設立登記法人,岡山県,倉敷市,茶屋町６０１番地の２,,33,202,7101101,,,2023-01-16,登記官による閉鎖,,,2015-10-05,1,,,,,,0
1585,5260005004271,登記記録の閉鎖等,0,2023-01-16,2023-01-16,宗教法人寳隆寺,,その他の設立登記法人,岡山県,倉敷市,連島町西之浦７３番地,,33,202,7128001,,,2023-01-16,登記官による閉鎖,,,2015-10-05,1,,,,,,0
1599,5330001016098,登記記録の閉鎖等,0,2023-01-16,2023-01-12,株式会社岩昭電機,,株式会社,熊本県,球磨郡多良木町,大字久米９３６番地,,43,505,8680503,,,2023-01-12,清算の結了等,,,2015-10-05,1,,,,,,0
1618,5380002013412,登記記録の閉鎖等,0,2023-01-16,2023-01-12,有限会社ティー・プロ,,有限会社,福島県,郡山市,富田町字町西４４番地８,,07,203,9638041,,,2023-01-12,清算の結了等,,,2015-10-05,1,,,,,ティープロ,0
1619,5380002028377,登記記録の閉鎖等,0,2023-01-16,2023-01-10,有限会社齊藤材木店,,有限会社,福島県,相馬市,大曲字大毛内３５５番地の１,,07,209,9760032,,,2023-01-10,清算の結了等,,,2015-10-05,1,,,,,サイトウザイモクテン,0
1620,5380005005035,登記記録の閉鎖等,0,2023-01-16,2022-12-28,医療法人社団恵周会白河病院,,その他の設立登記法人,福島県,白河市,六反山１０番地の１,,07,205,9610092,,,2022-12-28,合併による解散等,4011505001148,令和４年１２月２８日福島県白河市六反山１０番地の１医療法人社団若杉会（4011505001148）に合併し解散,2015-10-05,1,,,,,ケイシュウカイシラカワビョウイン,0
1622,5380005010555,登記記録の閉鎖等,0,2023-01-16,2022-12-26,特定非営利活動法人子ども未来ＮＰＯセンター,,その他の設立登記法人,福島県,いわき市,平字三倉６７番地の１１,,07,204,9708026,,,2022-12-26,清算の結了等,,,2015-10-05,1,,,,,コドモミライエヌピーオーセンター,0
1624,5390001007364,登記記録の閉鎖等,0,2023-01-16,2023-01-10,日本ホテルマネジメント株式会社,,株式会社,東京都,港区,赤坂３丁目２番３号,,13,103,1070052,,,2023-01-10,合併による解散等,3220001008158,令和５年１月１日石川県金沢市大和町１番５号アパホーム株式会社（3220001008158）に合併し解散,2015-10-05,1,,,,,ニホンホテルマネジメント,0
1627,5390002001894,登記記録の閉鎖等,0,2023-01-16,2023-01-10,有限会社東北テラシス,,有限会社,山形県,山形市,大字風間１２０１番地４,,06,201,9902221,,,2023-01-10,清算の結了等,,,2015-10-05,1,,,,,トウホクテラシス,0
1630,5410001003278,登記記録の閉鎖等,0,2023-01-16,2023-01-11,株式会社ＡＲＤ秋田開発センター,,株式会社,秋田県,秋田市,楢山南中町１０番１８号,,05,201,0100022,,,2023-01-11,清算の結了等,,,2022-11-15,1,,,,,エーアールデーアキタカイハツセンター,0
1642,5450002005897,登記記録の閉鎖等,0,2023-01-16,2023-01-13,有限会社山代米穀店,,有限会社,北海道,上川郡当麻町,四条南３丁目９番３２号,,01,454,0781324,,,2023-01-13,清算の結了等,,,2015-10-05,1,,,,,ヤマシロベイコクテン,0
1645,5460302004078,登記記録の閉鎖等,0,2023-01-16,2023-01-12,有限会社マルミ嶺田商店,,有限会社,北海道,北見市,常呂町字常呂１６３番地,,01,208,0930210,,,2023-01-12,清算の結了等,,,2015-10-05,1,,,,,マルミミネタショウテン,0
1649,5480002004252,登記記録の閉鎖等,0,2023-01-16,2023-01-11,有限会社史建築設計事務所,,有限会社,徳島県,徳島市,上八万町下中筋１４１番地２,,36,201,7708040,,,2023-01-11,清算の結了等,,,2015-10-05,1,,,,,フミケンチクセッケイジムショ,0
1681,6010601048745,登記記録の閉鎖等,0,2023-01-16,2023-01-11,株式会社Ｇｒｏｗ,,株式会社,東京都,豊島区,南池袋２丁目４７番１３号,,13,116,1710022,,,2023-01-11,清算の結了等,,,2015-11-11,1,,,,,グロウ,0
1704,6011301024235,登記記録の閉鎖等,0,2023-01-16,2023-01-04,株式会社まもり屋,,株式会社,東京都,立川市,若葉町３丁目２３番地の３６,,13,202,1900001,,,2023-01-04,合併による解散等,7012401002773,令和５年１月１日東京都国分寺市西恋ケ窪三丁目２０番地３４株式会社一興舎（7012401002773）に合併し解散,2018-06-21,1,,,,,マモリヤ,0
1706,6011401003139,登記記録の閉鎖等,0,2023-01-16,2023-01-13,昭和工業株式会社,,株式会社,東京都,板橋区,板橋２丁目６１番１０号,,13,119,1730004,,,2023-01-13,登記官による閉鎖,,,2016-11-01,1,,,,,,0
1707,6011401014549,登記記録の閉鎖等,0,2023-01-16,2023-01-13,田工業株式会社,,株式会社,東京都,板橋区,赤塚３丁目２１番１号,00065768,13,119,1750092,,,2023-01-13,登記官による閉鎖,,,2015-10-05,1,,,,,,0
1708,6011402001810,登記記録の閉鎖等,0,2023-01-16,2023-01-13,有限会社大竹口,,有限会社,東京都,板橋区,高島平３丁目１０番１－１２６号,,13,119,1750082,,,2023-01-13,登記官による閉鎖,,,2015-10-05,1,,,,,,0
1709,6011402003559,登記記録の閉鎖等,0,2023-01-16,2023-01-13,有限会社三栄光機製作所,,有限会社,東京都,板橋区,板橋４丁目３２番１２号,,13,119,1730004,,,2023-01-13,登記官による閉鎖,,,2015-10-05,1,,,,,,0
1710,6011402004788,登記記録の閉鎖等,0,2023-01-16,2023-01-13,有限会社白鳥事務所,,有限会社,東京都,板橋区,徳丸２丁目９番６号,,13,119,1750083,,,2023-01-13,登記官による閉鎖,,,2015-10-05,1,,,,,,0
1711,6011402004945,登記記録の閉鎖等,0,2023-01-16,2023-01-13,有限会社鈴和硝子,,有限会社,東京都,板橋区,熊野町３８番３,,13,119,1730025,,,2023-01-13,登記官による閉鎖,,,2015-10-05,1,,,,,,0
1712,6011402006066,登記記録の閉鎖等,0,2023-01-16,2023-01-13,有限会社ティーケイコーポレーション,,有限会社,東京都,板橋区,南常盤台２丁目６番１４号,,13,119,1740072,,,2023-01-13,登記官による閉鎖,,,2015-10-05,1,,,,,,0
1713,6011402006586,登記記録の閉鎖等,0,2023-01-16,2023-01-13,有限会社ナイーブ,,有限会社,東京都,板橋区,成増４丁目２０番１２号,,13,119,1750094,,,2023-01-13,登記官による閉鎖,,,2015-10-05,1,,,,,,0
1721,6011801006468,登記記録の閉鎖等,0,2023-01-16,2023-01-10,株式会社エムズインコーポレイション,,株式会社,東京都,足立区,千住橋戸町３７番地,,13,121,1200038,,,2023-01-10,合併による解散等,6011802019411,令和４年１２月１日東京都足立区千住橋戸町３７番地株式会社村上商事（6011802019411）に合併し解散,2015-10-05,1,,,,,エムズインコーポレイション,0
1730,6012401009175,登記記録の閉鎖等,0,2023-01-16,2023-01-16,株式会社辰昇,,株式会社,東京都,狛江市,東和泉１丁目６番７号,,13,219,2010014,,,2023-01-16,登記官による閉鎖,,,2015-10-05,1,,,,,,0
1731,6012401010570,登記記録の閉鎖等,0,2023-01-16,2023-01-16,株式会社マツイ・エンタープライズ,,株式会社,東京都,狛江市,岩戸南４丁目２７番３６号,,13,219,2010005,,,2023-01-16,登記官による閉鎖,,,2015-10-05,1,,,,,,0
1732,6012401014489,登記記録の閉鎖等,0,2023-01-16,2023-01-16,ローズライフ株式会社,,株式会社,東京都,武蔵野市,吉祥寺北町４丁目１０番２２号,,13,203,1800001,,,2023-01-16,登記官による閉鎖,,,2015-10-05,1,,,,,,0
1733,6012401020504,登記記録の閉鎖等,0,2023-01-16,2023-01-16,株式会社インテリアエム,,株式会社,東京都,小金井市,本町６丁目１３番１４号,,13,210,1840004,,,2023-01-16,登記官による閉鎖,,,2015-10-05,1,,,,,,0
1734,6012401022599,登記記録の閉鎖等,0,2023-01-16,2023-01-16,輝煌株式会社,,株式会社,東京都,府中市,清水が丘１丁目１番３号,,13,206,1830015,,,2023-01-16,登記官による閉鎖,,,2015-10-05,1,,,,,,0
1737,6012402000348,登記記録の閉鎖等,0,2023-01-16,2023-01-16,有限会社イムスタツク,,有限会社,東京都,府中市,白糸台６丁目６番７号,,13,206,1830011,,,2023-01-16,登記官による閉鎖,,,2015-10-05,1,,,,,,0
1738,6012402002823,登記記録の閉鎖等,0,2023-01-16,2023-01-16,有限会社矢吹建設,,有限会社,東京都,府中市,小柳町３丁目１５番地,,13,206,1830013,,,2023-01-16,登記官による閉鎖,,,2015-10-05,1,,,,,,0
1739,6012402013787,登記記録の閉鎖等,0,2023-01-16,2023-01-16,有限会社宮城製作所,,有限会社,東京都,狛江市,岩戸南４丁目３番５号,,13,219,2010005,,,2023-01-16,登記官による閉鎖,,,2015-10-05,1,,,,,,0
1740,6012402019727,登記記録の閉鎖等,0,2023-01-16,2023-01-16,有限会社丸鈴商会,,有限会社,東京都,武蔵野市,境南町２丁目１０番２４－５０５号第二ときわマンション,,13,203,1800023,,,2023-01-16,登記官による閉鎖,,,2015-10-05,1,,,,,,0
1741,6012402022391,登記記録の閉鎖等,0,2023-01-16,2023-01-16,ｄｅｓｉｇｎ４Ｌ有限会社,,有限会社,東京都,三鷹市,中原４丁目８番１２号,,13,204,1810005,,,2023-01-16,登記官による閉鎖,,,2015-10-05,1,,,,,,0
1749,6013401006749,登記記録の閉鎖等,0,2023-01-16,2023-01-12,株式会社あこべる,,株式会社,東京都,多摩市,落合６丁目１２番地９,,13,224,2060033,,,2023-01-12,清算の結了等,,,2015-10-05,1,,,,,,0
1752,6020001049698,登記記録の閉鎖等,0,2023-01-16,2023-01-10,マルヒサ広宣株式会社,,株式会社,神奈川県,横浜市都筑区,川向町１２９４番地１,,14,118,2240044,,,2023-01-10,清算の結了等,,,2015-10-05,1,,,,,マルヒサコウセン,0
1769,6030001063657,登記記録の閉鎖等,0,2023-01-16,2023-01-10,エスピー株式会社,,株式会社,埼玉県,越谷市,登戸町２２番３９号,,11,222,3430846,,,2023-01-10,清算の結了等,,,2015-10-05,1,,,,,エスピー,0
1792,6040002034383,登記記録の閉鎖等,0,2023-01-16,2023-01-10,有限会社シアターテック,,有限会社,千葉県,市川市,行徳駅前２丁目２１番２２－５０１８号,,12,203,2720133,,,2023-01-10,清算の結了等,,,2015-10-05,1,,,,,シアターテック,0
1806,6070005009124,登記記録の閉鎖等,0,2023-01-16,2023-01-11,ＲＩＴＡ社会保険労務士法人,,その他の設立登記法人,群馬県,前橋市,本町３丁目５番１１号,,10,201,3710023,,,2023-01-11,清算の結了等,,,2015-12-24,1,,,,,リタ,0
1807,6080001007799,登記記録の閉鎖等,0,2023-01-16,2023-01-12,株式会社織商,,株式会社,静岡県,静岡市駿河区,有東１丁目２番５号,,22,102,4228032,,,2023-01-12,清算の結了等,,,2015-10-05,1,,,,,,0
1818,6110005005341,登記記録の閉鎖等,0,2023-01-16,2023-01-11,医療法人社団広神産婦人科医院,,その他の設立登記法人,新潟県,新発田市,中央町１丁目３番７号,,15,206,9570053,,,2023-01-11,清算の結了等,,,2015-10-05,1,,,,,ヒロガミサンフジンカイイン,0
1829,6120003021554,登記記録の閉鎖等,0,2023-01-16,2023-01-11,合同会社レアルメレンゲ,,合同会社,大阪府,大阪市東成区,大今里西１丁目７－３,,27,115,5370014,,,2023-01-11,清算の結了等,,,2022-04-25,1,,,,,レアルメレンゲ,0
1843,6130001056304,登記記録の閉鎖等,0,2023-01-16,2023-01-06,株式会社花中舎伊藤組,,株式会社,京都府,京都市右京区,太秦安井春日町５番地,,26,108,6168062,,,2023-01-06,清算の結了等,,,2015-11-06,1,,,,,カチュウシャイトウグミ,0
1865,6140002007115,登記記録の閉鎖等,0,2023-01-16,2023-01-11,有限会社音成,,有限会社,兵庫県,神戸市須磨区,月見山本町２丁目５番２号,,28,107,6540051,,,2023-01-11,清算の結了等,,,2015-10-05,1,,,,,オトナリ,0
1869,6140003010621,登記記録の閉鎖等,0,2023-01-16,2023-01-06,合同会社井上測量設計,,合同会社,兵庫県,姫路市,青山西３丁目５番６号,,28,201,6712224,,,2023-01-06,清算の結了等,,,2015-10-05,1,,,,,イノウエソクリョウセッケイ,0
1872,6150001012049,登記記録の閉鎖等,0,2023-01-16,2023-01-04,奈良トヨペットオートクラフト株式会社,,株式会社,奈良県,磯城郡田原本町,大字唐古３６３番地の１,,29,363,6360226,,,2023-01-04,合併による解散等,7150001001744,令和５年１月１日奈良市南京終町二丁目２６９番地トヨタユナイテッド奈良株式会社（7150001001744）に合併し解散,2015-10-05,1,,,,,ナラトヨペットオートクラフト,0
1896,6190001001717,登記記録の閉鎖等,0,2023-01-16,2023-01-06,北陸補聴器株式会社,,株式会社,三重県,津市,丸之内養正町８番３号,,24,201,5140036,,,2023-01-06,合併による解散等,8080001002047,令和５年１月１日三重県津市丸之内養正町８番３号新日本補聴器株式会社（8080001002047）に合併し解散,2015-10-05,1,,,,,ホクリクホチョウキ,0
1898,6190001025039,登記記録の閉鎖等,0,2023-01-16,2023-01-10,株式会社昇竹栄,,株式会社,三重県,伊勢市,神久３丁目５番７２号,,24,203,5160017,,,2023-01-10,合併による解散等,9190001024161,令和５年１月８日三重県伊勢市神久三丁目５番７２号株式会社永太園（9190001024161）に合併し解散,2017-10-23,1,,,,,ショウチクエイ,0
1901,6210001002092,登記記録の閉鎖等,0,2023-01-16,2023-01-16,株式会社茶太,,株式会社,福井県,福井市,花堂南２丁目４番６号,,18,201,9188015,,,2023-01-16,登記官による閉鎖,,,2015-10-05,1,,,,,,0
1902,6210001003561,登記記録の閉鎖等,0,2023-01-16,2023-01-16,株式会社ＫＩＴＡＮＯ,,株式会社,福井県,福井市,引目町第１１号１０１番地の１,,18,201,9188156,,,2023-01-16,登記官による閉鎖,,,2015-10-05,1,,,,,,0
1903,6210002000137,登記記録の閉鎖等,0,2023-01-16,2023-01-16,有限会社浅井商会,,有限会社,福井県,福井市,寺前町第２号１番地の１,,18,201,9100801,,,2023-01-16,登記官による閉鎖,,,2015-10-05,1,,,,,,0
1904,6210002010094,登記記録の閉鎖等,0,2023-01-16,2023-01-16,岩下工業有限会社,,有限会社,福井県,敦賀市,平和町２６番８号,,18,202,9140815,,,2023-01-16,登記官による閉鎖,,,2015-10-05,1,,,,,,0
1905,6210005000860,登記記録の閉鎖等,0,2023-01-16,2023-01-16,福井繊維トータルコーディネイト協同組合,,その他の設立登記法人,福井県,福井市,乾徳２丁目４番２２号,,18,201,9100021,,,2023-01-16,登記官による閉鎖,,,2015-10-05,1,,,,,,0
1906,6210005006478,登記記録の閉鎖等,0,2023-01-16,2023-01-16,協同組合つるがセントラルプラザ,,その他の設立登記法人,福井県,敦賀市,本町２丁目１０－６家高不動産ビル３階東,00078125,18,202,9140051,,,2023-01-16,登記官による閉鎖,,,2015-10-05,1,,,,,,0
1907,6220001012685,登記記録の閉鎖等,0,2023-01-16,2023-01-16,株式会社辰巳電工,,株式会社,石川県,小松市,白江町カ２１番地１,,17,203,9230811,,,2023-01-16,登記官による閉鎖,,,2015-10-05,1,,,,,,0
1908,6220001016224,登記記録の閉鎖等,0,2023-01-16,2023-01-16,株式会社ハマテツ,,株式会社,石川県,羽咋市,大町む部３１番地１,,17,207,9291572,,,2023-01-16,登記官による閉鎖,,,2015-10-05,1,,,,,,0
1919,6260002005288,登記記録の閉鎖等,0,2023-01-16,2023-01-16,有限会社杉原電気工事,,有限会社,岡山県,岡山市中区,桜橋２丁目９番６号,,33,102,7038285,,,2023-01-16,登記官による閉鎖,,,2015-10-05,1,,,,,,0
1920,6260002015122,登記記録の閉鎖等,0,2023-01-16,2023-01-16,林工業有限会社,,有限会社,岡山県,岡山市南区,西七区５５８番地,,33,104,7091202,,,2023-01-16,登記官による閉鎖,,,2015-10-05,1,,,,,,0
1921,6260002015171,登記記録の閉鎖等,0,2023-01-16,2023-01-16,有限会社ビッグ・フォー,,有限会社,岡山県,岡山市南区,西七区２４４番地１,,33,104,7091202,,,2023-01-16,登記官による閉鎖,,,2015-10-05,1,,,,,,0
1923,6260002022028,登記記録の閉鎖等,0,2023-01-16,2023-01-16,有限会社与島,,有限会社,岡山県,倉敷市,児島阿津１丁目２１番２１号,,33,202,7110923,,,2023-01-16,登記官による閉鎖,,,2015-10-05,1,,,,,,0
1924,6260002025427,登記記録の閉鎖等,0,2023-01-16,2023-01-16,有限会社真鍋家具,,有限会社,岡山県,笠岡市,生江浜６３８番地,,33,205,7140055,,,2023-01-16,登記官による閉鎖,,,2015-10-05,1,,,,,,0
1925,6260002028388,登記記録の閉鎖等,0,2023-01-16,2023-01-16,有限会社佐古建材店,,有限会社,岡山県,津山市,川崎１０３番地の１,,33,203,7080841,,,2023-01-16,登記官による閉鎖,,,2015-10-05,1,,,,,,0
1927,6260002029428,登記記録の閉鎖等,0,2023-01-16,2023-01-16,有限会社松下製作所,,有限会社,岡山県,津山市,大篠６００番地,,33,203,7080802,,,2023-01-16,登記官による閉鎖,,,2015-10-05,1,,,,,,0
1928,6260005002893,登記記録の閉鎖等,0,2023-01-16,2023-01-16,日本ミャンマー親善協同組合,,その他の設立登記法人,岡山県,岡山市南区,藤田５６６番地２２３,,33,104,7010221,,,2023-01-16,登記官による閉鎖,,,2015-10-05,1,,,,,,0
1929,6260005003074,登記記録の閉鎖等,0,2023-01-16,2023-01-16,特定非営利活動法人おかやま不登校支援センター,,その他の設立登記法人,岡山県,岡山市北区,本町６番３０号第一セントラルビル２号館５階,,33,101,7000901,,,2023-01-16,登記官による閉鎖,,,2015-10-05,1,,,,,,0
1930,6260005003371,登記記録の閉鎖等,0,2023-01-16,2023-01-16,倉敷ダンプ運輸事業協同組合,,その他の設立登記法人,岡山県,倉敷市,水島中通２丁目１番４号,,33,202,7128072,,,2023-01-16,登記官による閉鎖,,,2015-10-05,1,,,,,,0
1931,6260005007158,登記記録の閉鎖等,0,2023-01-16,2023-01-16,岡山県北部縫製協同組合,,その他の設立登記法人,岡山県,津山市,山下３５番地４,,33,203,7080022,,,2023-01-16,登記官による閉鎖,,,2015-10-05,1,,,,,,0
1936,6290001069950,登記記録の閉鎖等,0,2023-01-16,2023-01-04,株式会社ＣＬＵＢ　ＨＯＵＳＥ,,株式会社,福岡県,飯塚市,弁分４０番地３,,40,205,8200088,,,2023-01-04,合併による解散等,3290001045194,令和５年１月１日福岡県飯塚市弁分４０番地３株式会社ＧＯＬＤ　ＳＥＡ　ＨＯＬＤＩＮＧＳ（3290001045194）に合併し解散,2015-10-05,1,,,,,クラブハウス,0
1957,6390001001696,登記記録の閉鎖等,0,2023-01-16,2023-01-06,株式会社ベルコム弐拾四,,株式会社,山形県,山形市,鉄砲町２丁目８番２９号,,06,201,9902492,,,2023-01-06,清算の結了等,,,2015-10-05,1,,,,,ベルコムニジュウヨン,0
1962,6430001070357,登記記録の閉鎖等,0,2023-01-16,2023-01-04,株式会社ときわ調剤薬局,,株式会社,北海道,札幌市南区,常盤三条１丁目３番７号,,01,106,0050853,,,2023-01-04,合併による解散等,5430001050178,令和５年１月１日北海道小樽市塩谷二丁目１７番１２号株式会社太誠堂薬局（5430001050178）に合併し解散,2015-12-03,1,,,,,トキワチョウザイヤッキョク,0
1963,6430002000429,登記記録の閉鎖等,0,2023-01-16,2023-01-04,有限会社アールケーフードサービス,,有限会社,北海道,札幌市豊平区,豊平四条１２丁目１番１号,,01,105,0620904,,,2023-01-04,合併による解散等,9430001012265,令和５年１月１日札幌市豊平区豊平四条十二丁目１番１号梨湖フーズ株式会社（9430001012265）に合併し解散,2015-10-05,1,,,,,アールケーフードサービス,0
1979,7010001128270,登記記録の閉鎖等,0,2023-01-16,2023-01-04,ネオプロモーション株式会社,,株式会社,東京都,品川区,東五反田１丁目８番１２号,,13,109,1410022,,,2023-01-04,清算の結了等,,,2015-10-05,1,,,,,ネオプロモーション,0
1980,7010001134368,登記記録の閉鎖等,0,2023-01-16,2023-01-05,テックサービス株式会社,,株式会社,東京都,千代田区,九段南１丁目５番６号りそな九段ビル５階ＫＳフロア,,13,101,1020074,,,2023-01-05,清算の結了等,,,2015-10-05,1,,,,,テックサービス,0
1995,7010401080666,登記記録の閉鎖等,0,2023-01-16,2022-12-26,ユニ・チャームヒューマンケア株式会社,,株式会社,東京都,港区,高輪３丁目２５番２３号,,13,103,1080074,,,2022-12-26,清算の結了等,,,2015-10-05,1,,,,,ユニチャームヒューマンケア,0
2021,7010901043247,登記記録の閉鎖等,0,2023-01-16,2023-01-10,株式会社ＡＷＰプラス,,株式会社,東京都,世田谷区,代田２丁目１７番１６号代田タウンハウスＦ,,13,112,1550033,,,2023-01-10,清算の結了等,,,2018-12-07,1,,,,,エーダブルピープラス,0
2040,7011401001050,登記記録の閉鎖等,0,2023-01-16,2023-01-13,株式会社エルゴン,,株式会社,東京都,板橋区,南町７番２号,,13,119,1730027,,,2023-01-13,登記官による閉鎖,,,2015-10-05,1,,,,,,0
2041,7011401005472,登記記録の閉鎖等,0,2023-01-16,2023-01-13,株式会社平沢工務店,,株式会社,東京都,板橋区,仲宿２番２号,,13,119,1730005,,,2023-01-13,登記官による閉鎖,,,2015-10-05,1,,,,,,0
2042,7011401015273,登記記録の閉鎖等,0,2023-01-16,2023-01-13,アース企画株式会社,,株式会社,東京都,板橋区,大谷口１丁目５１番地３号,,13,119,1730035,,,2023-01-13,登記官による閉鎖,,,2015-10-05,1,,,,,,0
2043,7011402000729,登記記録の閉鎖等,0,2023-01-16,2023-01-13,有限会社飯田鉄工,,有限会社,東京都,板橋区,常盤台２丁目５番１５号,,13,119,1740071,,,2023-01-13,登記官による閉鎖,,,2015-10-05,1,,,,,,0
2044,7011402006263,登記記録の閉鎖等,0,2023-01-16,2023-01-13,有限会社藤昭企画,,有限会社,東京都,板橋区,板橋１丁目４９番１３号,,13,119,1730004,,,2023-01-13,登記官による閉鎖,,,2015-10-05,1,,,,,,0
2052,7012401000075,登記記録の閉鎖等,0,2023-01-16,2023-01-16,株式会社あづさ,,株式会社,東京都,府中市,宮西町１丁目３番地の１,,13,206,1830022,,,2023-01-16,登記官による閉鎖,,,2015-10-05,1,,,,,,0
2054,7012401010768,登記記録の閉鎖等,0,2023-01-16,2023-01-16,株式会社アッポサウンドプロジェクト,,株式会社,東京都,武蔵野市,西久保１丁目４３番８号,,13,203,1800013,,,2023-01-16,登記官による閉鎖,,,2015-10-05,1,,,,,,0
2055,7012401014554,登記記録の閉鎖等,0,2023-01-16,2023-01-16,株式会社ジョブ,,株式会社,東京都,府中市,白糸台１丁目２２番地９,,13,206,1830011,,,2023-01-16,登記官による閉鎖,,,2015-10-05,1,,,,,,0
2056,7012401017152,登記記録の閉鎖等,0,2023-01-16,2023-01-16,株式会社大沼設計事務所,,株式会社,東京都,調布市,深大寺南町１丁目２０番地７－１１２,,13,208,1820013,,,2023-01-16,登記官による閉鎖,,,2015-10-05,1,,,,,,0
2057,7012401019702,登記記録の閉鎖等,0,2023-01-16,2023-01-16,Ｇｒｅｅｎ　Ｅｘｐａｎｓｉｏｎ株式会社,,株式会社,東京都,調布市,深大寺南町３丁目１７番地１深大寺レジデンスＦ１００６,,13,208,1820013,,,2023-01-16,登記官による閉鎖,,,2015-10-05,1,,,,,,0
2062,7013402002597,登記記録の閉鎖等,0,2023-01-16,2023-01-16,有限会社テンション,,有限会社,東京都,多摩市,桜ヶ丘１丁目４６番地の３,,13,224,2060013,,,2023-01-16,登記官による閉鎖,,,2015-10-05,1,,,,,,0
2063,7013403000518,登記記録の閉鎖等,0,2023-01-16,2023-01-16,合同会社ヤムダックスシステム,,合同会社,東京都,多摩市,南野３丁目７番地の２６,,13,224,2060032,,,2023-01-16,登記官による閉鎖,,,2015-10-05,1,,,,,,0
2100,7050001024953,登記記録の閉鎖等,0,2023-01-16,2023-01-11,株式会社Ｋ・Ｄ・Ｆ,,株式会社,茨城県,古河市,諸川２４５０番地５,,08,204,3060126,,,2023-01-11,合併による解散等,7060001033788,令和５年１月１日栃木県小山市西城南四丁目２５番地２０株式会社Ｈｅａｒｔｓ（7060001033788）に合併し解散,2015-10-05,1,,,,,ケーディーエフ,0
2141,7120101032031,登記記録の閉鎖等,0,2023-01-16,2023-01-13,共栄商事株式会社,,株式会社,大阪府,羽曳野市,伊賀１丁目１４番１号,,27,222,5830876,,,2023-01-13,清算の結了等,,,2015-10-05,1,,,,,,0
2158,7140001116130,登記記録の閉鎖等,0,2023-01-16,2023-01-05,株式会社オフィスＲＵＮ,,株式会社,兵庫県,尼崎市,東園田町４丁目１１２番地の３,,28,202,6610953,,,2023-01-05,清算の結了等,,,2020-01-14,1,,,,,オフィスラン,0
2180,7180302001341,登記記録の閉鎖等,0,2023-01-16,2023-01-05,有限会社サン・ミヨシ,,有限会社,愛知県,岡崎市,柱町字福部池１番地１４６,,23,202,4440834,,,2023-01-05,清算の結了等,,,2015-10-05,1,,,,,サンミヨシ,0
2181,7180302008485,登記記録の閉鎖等,0,2023-01-16,2023-01-04,有限会社中日新聞豊橋東部専売所,,有限会社,愛知県,豊橋市,仲ノ町１４４番地の１,,23,201,4400046,,,2023-01-04,合併による解散等,5180302007522,令和５年１月１日愛知県豊橋市小畷町４５６番地株式会社佐久間新聞店（5180302007522）に合併し解散,2015-10-05,1,,,,,チュウニチシンブントヨハシトウブセンバイショ,0
2191,7210002002636,登記記録の閉鎖等,0,2023-01-16,2023-01-16,有限会社南部染工場,,有限会社,福井県,坂井市,春江町江留上本町５番地１,,18,210,9190452,,,2023-01-16,登記官による閉鎖,,,2015-10-05,1,,,,,,0
2192,7210002009458,登記記録の閉鎖等,0,2023-01-16,2023-01-16,有限会社栄鉄筋,,有限会社,福井県,大野市,大矢戸２２号３２番地,,18,205,9120001,,,2023-01-16,登記官による閉鎖,,,2015-10-05,1,,,,,,0
2193,7210005000876,登記記録の閉鎖等,0,2023-01-16,2023-01-16,大信産業協同組合,,その他の設立登記法人,福井県,福井市,渕４丁目１８１４番地,,18,201,9188026,,,2023-01-16,登記官による閉鎖,,,2015-10-05,1,,,,,,0
2194,7210005000926,登記記録の閉鎖等,0,2023-01-16,2023-01-16,福井県福井眼鏡協同組合,,その他の設立登記法人,福井県,福井市,上北野町千徳４４番地,,18,201,9180000,,,2023-01-16,登記官による閉鎖,,,2015-10-05,1,,,,,,0
2195,7210005005231,登記記録の閉鎖等,0,2023-01-16,2023-01-16,エフ・エイ・ケイ協同組合,,その他の設立登記法人,福井県,福井市,高木中央２丁目１６０２番地,,18,201,9100804,,,2023-01-16,登記官による閉鎖,,,2015-10-05,1,,,,,,0
2196,7210005007087,登記記録の閉鎖等,0,2023-01-16,2023-01-16,池田建設業協同組合,,その他の設立登記法人,福井県,今立郡池田町,寺島第４号６番地の２,,18,382,9102513,,,2023-01-16,登記官による閉鎖,,,2015-10-05,1,,,,,,0
2198,7220001017411,登記記録の閉鎖等,0,2023-01-16,2023-01-16,アメニティハウスピア株式会社,,株式会社,石川県,河北郡津幡町,字太田ア４番地１６,,17,361,9290345,,,2023-01-16,登記官による閉鎖,,,2015-10-05,1,,,,,,0
2200,7220002005489,登記記録の閉鎖等,0,2023-01-16,2023-01-16,有限会社マツシマ薬品,,有限会社,石川県,金沢市,光が丘１丁目１１１番地,,17,201,9218142,,,2023-01-16,登記官による閉鎖,,,2015-10-05,1,,,,,,0
2201,7220002006751,登記記録の閉鎖等,0,2023-01-16,2023-01-16,有限会社エー・アイ・システム,,有限会社,石川県,金沢市,昭和町５番１２号デザインキューブ３－Ｃ,,17,201,9200856,,,2023-01-16,登記官による閉鎖,,,2015-10-05,1,,,,,,0
2202,7220002012295,登記記録の閉鎖等,0,2023-01-16,2023-01-16,有限会社かのう,,有限会社,石川県,加賀市,塩屋町イ８８番地３,,17,206,9220673,,,2023-01-16,登記官による閉鎖,,,2015-10-05,1,,,,,,0
2203,7220002016701,登記記録の閉鎖等,0,2023-01-16,2023-01-16,有限会社ホクユウ,,有限会社,石川県,河北郡津幡町,字杉瀬タ１６１番地１,,17,361,9290454,,,2023-01-16,登記官による閉鎖,,,2015-10-05,1,,,,,,0
2205,7220005003374,登記記録の閉鎖等,0,2023-01-16,2023-01-16,大織工業協同組合,,その他の設立登記法人,石川県,能美市,大成町ワ１５番地１,,17,211,9290113,,,2023-01-16,登記官による閉鎖,,,2015-10-05,1,,,,,,0
2206,7230003001734,登記記録の閉鎖等,0,2023-01-16,2023-01-11,１５１Ａリース合同会社,,合同会社,富山県,富山市,八尾町薄島５７番地２４,,16,201,9392312,,,2023-01-11,清算の結了等,,,2021-10-04,1,,,,,イチゴイチエリース,0
2212,7260001000479,登記記録の閉鎖等,0,2023-01-16,2023-01-16,株式会社泉工業,,株式会社,岡山県,岡山市南区,福浜西町１番３２号,,33,104,7028034,,,2023-01-16,登記官による閉鎖,,,2015-10-05,1,,,,,,0
2213,7260001005379,登記記録の閉鎖等,0,2023-01-16,2023-01-16,橋本建設株式会社,,株式会社,岡山県,岡山市北区,津島西坂２丁目１１番１９号,,33,101,7000086,,,2023-01-16,登記官による閉鎖,,,2015-10-05,1,,,,,,0
2215,7260001011906,登記記録の閉鎖等,0,2023-01-16,2023-01-16,ＨＦＩ株式会社,,株式会社,岡山県,岡山市北区,西辛川２６５番地１,,33,101,7011213,,,2023-01-16,登記官による閉鎖,,,2015-10-05,1,,,,,,0
2216,7260001016351,登記記録の閉鎖等,0,2023-01-16,2023-01-16,株式会社スリーエスコミュニティ,,株式会社,岡山県,倉敷市,児島上の町１丁目１０番１２号,,33,202,7110907,,,2023-01-16,登記官による閉鎖,,,2015-10-05,1,,,,,,0
2218,7260002010221,登記記録の閉鎖等,0,2023-01-16,2023-01-16,有限会社矢部商店,,有限会社,岡山県,岡山市東区,宍甘１７６番地の４,,33,103,7038216,,,2023-01-16,登記官による閉鎖,,,2015-10-05,1,,,,,,0
2219,7260002016103,登記記録の閉鎖等,0,2023-01-16,2023-01-16,有限会社アイソン－ラウンド社,,有限会社,岡山県,倉敷市,山地１３７３番地,,33,202,7010104,,,2023-01-16,登記官による閉鎖,,,2015-10-05,1,,,,,,0
2220,7260002021268,登記記録の閉鎖等,0,2023-01-16,2023-01-16,有限会社丸江商店,,有限会社,岡山県,倉敷市,幸町４番３１号,,33,202,7100051,,,2023-01-16,登記官による閉鎖,,,2015-10-05,1,,,,,,0
2222,7260002026746,登記記録の閉鎖等,0,2023-01-16,2023-01-16,有限会社クボタ乳業,,有限会社,岡山県,高梁市,和田町２０１０番地,,33,209,7160008,,,2023-01-16,登記官による閉鎖,,,2015-10-05,1,,,,,,0
2223,7260002031449,登記記録の閉鎖等,0,2023-01-16,2023-01-16,有限会社ナカムラ石油,,有限会社,岡山県,瀬戸内市,長船町福岡１１２１番地,,33,212,7014265,,,2023-01-16,登記官による閉鎖,,,2015-10-05,1,,,,,,0
2224,7260002032240,登記記録の閉鎖等,0,2023-01-16,2023-01-16,有限会社スリーエス,,有限会社,岡山県,瀬戸内市,牛窓町牛窓２２５５番地３,,33,212,7014302,,,2023-01-16,登記官による閉鎖,,,2015-10-05,1,,,,,,0
2225,7260003001153,登記記録の閉鎖等,0,2023-01-16,2023-01-16,合同会社リブラ,,合同会社,岡山県,岡山市北区,吉備津１１５７番地１８,,33,101,7011341,,,2023-01-16,登記官による閉鎖,,,2015-10-05,1,,,,,,0
2226,7260005003008,登記記録の閉鎖等,0,2023-01-16,2023-01-16,特定非営利活動法人岡山県健康管理士会,,その他の設立登記法人,岡山県,岡山市北区,撫川４３９番地,,33,101,7010164,,,2023-01-16,登記官による閉鎖,,,2015-10-05,1,,,,,,0
2227,7260005007280,登記記録の閉鎖等,0,2023-01-16,2023-01-16,農事組合法人太陽養豚組合,,その他の設立登記法人,岡山県,美作市,芦河内１７２番地,00004177,33,215,7094232,,,2023-01-16,登記官による閉鎖,,,2015-10-05,1,,,,,,0
2246,7360002002638,登記記録の閉鎖等,0,2023-01-16,2023-01-10,有限会社大豊建産,,有限会社,沖縄県,那覇市,小禄４丁目１０番地５,,47,201,9010152,,,2023-01-10,清算の結了等,,,2015-10-05,1,,,,,タイホウケンサン,0
2247,7370101001300,登記記録の閉鎖等,0,2023-01-16,2023-01-13,株式会社ＱＫＳ,,株式会社,東京都,千代田区,有楽町２丁目１０番１号,,13,101,1000006,,,2023-01-13,清算の結了等,,,2015-10-05,1,,,,,キューケーエス,0
2248,7370201003857,登記記録の閉鎖等,0,2023-01-16,2023-01-10,株式会社ＷＩＮＮＥＲ’Ｓ　ＣＲＥＡＴＥ,,株式会社,宮城県,仙台市青葉区,大町２丁目１３番９－２０２号,,04,101,9800804,,,2023-01-10,清算の結了等,,,2015-10-05,1,,,,,,0
2250,7370601003201,登記記録の閉鎖等,0,2023-01-16,2023-01-10,佐藤建設株式会社,,株式会社,宮城県,塩竈市,玉川２丁目１１番１５号,,04,203,9850042,,,2023-01-10,清算の結了等,,,2015-10-05,1,,,,,,0
2251,7380001004550,登記記録の閉鎖等,0,2023-01-16,2023-01-11,株式会社伊勢鈑金,,株式会社,福島県,郡山市,富久山町久保田字伊賀河原１９番地,,07,203,9638071,,,2023-01-11,清算の結了等,,,2015-10-05,1,,,,,イセバンキン,0
2261,7390001015159,登記記録の閉鎖等,0,2023-01-16,2023-01-11,株式会社サプリス,,株式会社,茨城県,石岡市,山崎９６０番地５５,,08,205,3150125,,,2023-01-11,合併による解散等,1011101066250,令和５年１月１日東京都渋谷区道玄坂一丁目１７番９号株式会社シアーズ（1011101066250）に合併し解散,2018-01-10,1,,,,,サプリス,0
2265,7400502000269,登記記録の閉鎖等,0,2023-01-16,2023-01-10,有限会社厳美電設,,有限会社,岩手県,一関市,厳美町字岡山１５番地１,,03,209,0210101,,,2023-01-10,清算の結了等,,,2015-10-05,1,,,,,ゲンビデンセツ,0
2293,8010001229489,登記記録の閉鎖等,0,2023-01-16,2023-01-06,株式会社Ｊ‐ＦＵＮ８,,株式会社,東京都,千代田区,丸の内１丁目８番２号,,13,101,1000005,,,2023-01-06,合併による解散等,8080001001635,令和５年１月１日静岡市駿河区中田一丁目５番３号三興商事株式会社（8080001001635）に合併し解散,2022-09-13,1,,,,,ジェイファンエイト,0
2329,8010901037900,登記記録の閉鎖等,0,2023-01-16,2023-01-10,株式会社エバーグリーン,,株式会社,東京都,世田谷区,下馬６丁目２３番１７号,,13,112,1540002,,,2023-01-10,清算の結了等,,,2016-04-08,1,,,,,エバーグリーン,0
2332,8010902013710,登記記録の閉鎖等,0,2023-01-16,2023-01-10,有限会社返里,,有限会社,東京都,世田谷区,松原１丁目１１番１４号,,13,112,1560043,,,2023-01-10,清算の結了等,,,2015-10-05,1,,,,,ヘンリ,0
2333,8010903004691,登記記録の閉鎖等,0,2023-01-16,2023-01-10,合同会社ＦＯＲＺＡ,,合同会社,東京都,世田谷区,松原６丁目３１番１８号,,13,112,1560043,,,2023-01-10,清算の結了等,,,2018-12-07,1,,,,,フォルツァ,0
2342,8011101094245,登記記録の閉鎖等,0,2023-01-16,2023-01-05,Ｉｓｌａｎｄ　Ｈｏｎｅｙ　Ｗｏｒｋｓ株式会社,,株式会社,東京都,新宿区,市谷田町２丁目１７番地,,13,104,1620843,,,2023-01-05,合併による解散等,6010001107754,令和５年１月５日東京都新宿区市谷田町二丁目１７番地株式会社ボーダレス・ジャパン（6010001107754）に合併し解散,2021-03-04,1,,,,,アイランドハニーワークス,0
2348,8011202004367,登記記録の閉鎖等,0,2023-01-16,2023-01-11,有限会社中野地所,,有限会社,東京都,中野区,中野３丁目１３番１２号,,13,114,1640001,,,2023-01-11,清算の結了等,,,2015-10-05,1,,,,,ナカノジショ,0
2350,8011402000810,登記記録の閉鎖等,0,2023-01-16,2023-01-13,有限会社イシイ宝飾,,有限会社,東京都,板橋区,徳丸３丁目１番３号,,13,119,1750083,,,2023-01-13,登記官による閉鎖,,,2015-10-05,1,,,,,,0
2351,8011402003986,登記記録の閉鎖等,0,2023-01-16,2023-01-13,有限会社佐竹園,,有限会社,東京都,板橋区,大山町３２番３号,,13,119,1730023,,,2023-01-13,登記官による閉鎖,,,2015-10-05,1,,,,,,0
2352,8011402007046,登記記録の閉鎖等,0,2023-01-16,2023-01-13,有限会社パイオニア印刷,,有限会社,東京都,板橋区,本町９番４号,,13,119,1730001,,,2023-01-13,登記官による閉鎖,,,2015-10-05,1,,,,,,0
2353,8011403000017,登記記録の閉鎖等,0,2023-01-16,2023-01-13,合名会社酒井紙店,,合名会社,東京都,板橋区,大谷口上町２番３号,,13,119,1730032,,,2023-01-13,登記官による閉鎖,,,2015-10-05,1,,,,,,0
2354,8011403001213,登記記録の閉鎖等,0,2023-01-16,2023-01-13,ａｇｅｉ合同会社,,合同会社,東京都,板橋区,板橋１丁目３３番９号はりよしビル２０１,,13,119,1730004,,,2023-01-13,登記官による閉鎖,,,2015-10-05,1,,,,,,0
2360,8012401015460,登記記録の閉鎖等,0,2023-01-16,2023-01-16,ウィン・ベスト株式会社,,株式会社,東京都,調布市,国領町３丁目６番地１,,13,208,1820022,,,2023-01-16,登記官による閉鎖,,,2015-10-05,1,,,,,,0
2361,8012401017226,登記記録の閉鎖等,0,2023-01-16,2023-01-16,株式会社スパークプロ,,株式会社,東京都,府中市,新町１丁目５６番地の２ヒタチビル２階,,13,206,1830052,,,2023-01-16,登記官による閉鎖,,,2015-10-05,1,,,,,,0
2362,8012401022713,登記記録の閉鎖等,0,2023-01-16,2023-01-16,株式会社ベルクローナ,,株式会社,東京都,府中市,府中町２丁目１８番２６号パークアベニュー府中１０５,,13,206,1830055,,,2023-01-16,登記官による閉鎖,,,2015-10-05,1,,,,,,0
2363,8012402005171,登記記録の閉鎖等,0,2023-01-16,2023-01-16,有限会社タアナ,,有限会社,東京都,小金井市,前原町４丁目１７番１４号,,13,210,1840013,,,2023-01-16,登記官による閉鎖,,,2015-10-05,1,,,,,,0
2364,8012402011995,登記記録の閉鎖等,0,2023-01-16,2023-01-16,ナイスクリーニング有限会社,,有限会社,東京都,調布市,深大寺東町６丁目２６番地１６,,13,208,1820012,,,2023-01-16,登記官による閉鎖,,,2015-10-05,1,,,,,,0
2365,8012402020658,登記記録の閉鎖等,0,2023-01-16,2023-01-16,有限会社マイヘルシー,,有限会社,東京都,武蔵野市,吉祥寺南町１丁目１０－１０,,13,203,1800003,,,2023-01-16,登記官による閉鎖,,,2015-10-05,1,,,,,,0
2366,8012405000582,登記記録の閉鎖等,0,2023-01-16,2023-01-16,エクレール国領管理組合法人,,その他の設立登記法人,東京都,調布市,国領町４丁目４６番１７,,13,208,1820022,,,2023-01-16,登記官による閉鎖,,,2015-10-05,1,,,,,,0
2367,8012405001762,登記記録の閉鎖等,0,2023-01-16,2023-01-16,特定非営利活動法人アイ・アカデミア,,その他の設立登記法人,東京都,武蔵野市,西久保１丁目９番９号,,13,203,1800013,,,2023-01-16,登記官による閉鎖,,,2015-10-05,1,,,,,,0
2368,8012405001804,登記記録の閉鎖等,0,2023-01-16,2023-01-16,特定非営利活動法人伝統芸能むさしの我夢之会,,その他の設立登記法人,東京都,武蔵野市,吉祥寺東町１丁目１５番１９号,,13,203,1800002,,,2023-01-16,登記官による閉鎖,,,2015-10-05,1,,,,,,0
2369,8012405002620,登記記録の閉鎖等,0,2023-01-16,2023-01-16,一般社団法人生活支援ネット,,その他の設立登記法人,東京都,調布市,国領町５丁目１０番地２１,,13,208,1820022,,,2023-01-16,登記官による閉鎖,,,2015-10-05,1,,,,,,0
2382,8021001030605,登記記録の閉鎖等,0,2023-01-16,2023-01-12,湘南ベンディング株式会社,,株式会社,東京都,調布市,若葉町１丁目３０番地６３,,13,208,1820003,,,2023-01-12,清算の結了等,,,2015-10-05,1,,,,,ショウナンベンディング,0
2398,8040001117526,登記記録の閉鎖等,0,2023-01-16,2023-01-06,株式会社徳得マーケティングパートナーズ,,株式会社,千葉県,木更津市,潮浜１丁目１７番地１０５,,12,206,2920838,,,2023-01-06,清算の結了等,,,2021-03-19,1,,,,,トクトクマーケティングパートナーズ,0
2408,8050002035024,登記記録の閉鎖等,0,2023-01-16,2023-01-10,有限会社ウイング,,有限会社,茨城県,常陸太田市,塙町３５９７番地,,08,212,3130062,,,2023-01-10,清算の結了等,,,2015-10-05,1,,,,,ウイング,0
2413,8070002028406,登記記録の閉鎖等,0,2023-01-16,2023-01-10,有限会社大島硝子,,有限会社,群馬県,太田市,中根町５０６番地の４,,10,205,3730846,,,2023-01-10,清算の結了等,,,2015-10-05,1,,,,,オオシマガラス,0
2425,8100002004626,登記記録の閉鎖等,0,2023-01-16,2023-01-10,有限会社堀内精機,,有限会社,長野県,長野市,若里６丁目７番１８号,,20,201,3800928,,,2023-01-10,清算の結了等,,,2015-10-05,1,,,,,ホリウチセイキ,0
2426,8100005011578,登記記録の閉鎖等,0,2023-01-16,2023-01-12,特定非営利活動法人アスベストネット,,その他の設立登記法人,長野県,長野市,大字高田１０３６番地１,,20,201,3810034,,,2023-01-12,清算の結了等,,,2015-10-05,1,,,,,アスベストネット,0
2432,8120001024805,登記記録の閉鎖等,0,2023-01-16,2023-01-11,株式会社西谷製材所,,株式会社,大阪府,大阪市天王寺区,大道２丁目２番２号,,27,109,5430052,,,2023-01-11,清算の結了等,,,2015-10-05,1,,,,,ニシタニセイザイショ,0
2446,8120002016223,登記記録の閉鎖等,0,2023-01-16,2023-01-10,有限会社大阪ラヂエーター工業所,,有限会社,大阪府,大阪市住之江区,浜口西３丁目２番２８号,,27,125,5590006,,,2023-01-10,清算の結了等,,,2015-10-05,1,,,,,オオサカラヂエーターコウギョウショ,0
2447,8120003022567,登記記録の閉鎖等,0,2023-01-16,2023-01-12,イスコ合同会社,,合同会社,大阪府,寝屋川市,萱島東２丁目７－１１,,27,215,5720824,,,2023-01-12,清算の結了等,,,2022-09-28,1,,,,,イスコ,0
2452,8120902020035,登記記録の閉鎖等,0,2023-01-16,2023-01-12,有限会社八重通商,,有限会社,大阪府,豊中市,柴原町３丁目６番５１－１０４号,,27,203,5600055,,,2023-01-12,清算の結了等,,,2015-10-05,1,,,,,ヤエツウショウ,0
2472,8140001113432,登記記録の閉鎖等,0,2023-01-16,2023-01-05,北野ガーデン株式会社,,株式会社,兵庫県,神戸市中央区,布引町１丁目１番５号,,28,110,6510097,,,2023-01-05,清算の結了等,,,2019-05-07,1,,,,,キタノガーデン,0
2473,8140001120957,登記記録の閉鎖等,0,2023-01-16,2023-01-06,株式会社ｊｏｕｊｏｕ,,株式会社,兵庫県,神戸市須磨区,若宮町３丁目２番７号２Ｆ,,28,107,6540049,,,2023-01-06,清算の結了等,,,2021-04-02,1,,,,,ジュジュ,0
2480,8160001001123,登記記録の閉鎖等,0,2023-01-16,2023-01-10,西日本ホテルマネジメント株式会社,,株式会社,東京都,港区,赤坂３丁目２番３号,,13,103,1070052,,,2023-01-10,合併による解散等,3220001008158,令和５年１月１日石川県金沢市大和町１番５号アパホーム株式会社（3220001008158）に合併し解散,2015-10-05,1,,,,,ニシニホンホテルマネジメント,0
2497,8180002092341,登記記録の閉鎖等,0,2023-01-16,2023-01-10,有限会社西部レッカー,,有限会社,愛知県,あま市,七宝町遠島十坪１８番地,,23,237,4970002,,,2023-01-10,清算の結了等,,,2015-10-05,1,,,,,セイブレッカー,0
2508,8210001011380,登記記録の閉鎖等,0,2023-01-16,2023-01-16,株式会社クーロス・アドバイザーズ,,株式会社,福井県,敦賀市,和久野１０号１２番地の４,,18,202,9140123,,,2023-01-16,登記官による閉鎖,,,2015-10-05,1,,,,,,0
2509,8210002007683,登記記録の閉鎖等,0,2023-01-16,2023-01-16,有限会社石田細巾織物,,有限会社,福井県,坂井市,丸岡町板倉第４９号５８番地,,18,210,9100325,,,2023-01-16,登記官による閉鎖,,,2015-10-05,1,,,,,,0
2510,8210005000553,登記記録の閉鎖等,0,2023-01-16,2023-01-16,三十八社鉄工団地協同組合,,その他の設立登記法人,福井県,福井市,三十八社町第３２号１９番地,,18,201,9188176,,,2023-01-16,登記官による閉鎖,,,2015-10-05,1,,,,,,0
2511,8210005006591,登記記録の閉鎖等,0,2023-01-16,2023-01-16,油平企業組合,,その他の設立登記法人,福井県,敦賀市,相生町２１番３０号,,18,202,9140062,,,2023-01-16,登記官による閉鎖,,,2015-10-05,1,,,,,,0
2512,8210005007078,登記記録の閉鎖等,0,2023-01-16,2023-01-16,福井県新古美術商協同組合,,その他の設立登記法人,福井県,越前市,塚町第６６号１番地の１,,18,209,9150092,,,2023-01-16,登記官による閉鎖,,,2015-10-05,1,,,,,,0
2513,8220001006405,登記記録の閉鎖等,0,2023-01-16,2023-01-16,株式会社北陸塗装鈑金工業所,,株式会社,石川県,金沢市,増泉４丁目４番２５号,,17,201,9218025,,,2023-01-16,登記官による閉鎖,,,2015-10-05,1,,,,,,0
2514,8220001006966,登記記録の閉鎖等,0,2023-01-16,2023-01-16,向川工設株式会社,,株式会社,石川県,金沢市,利屋町る３４番地１,,17,201,9200101,,,2023-01-16,登記官による閉鎖,,,2015-10-05,1,,,,,,0
2519,8220002011800,登記記録の閉鎖等,0,2023-01-16,2023-01-16,有限会社フジモト,,有限会社,石川県,能美市,粟生町チ１３０番地,,17,211,9231101,,,2023-01-16,登記官による閉鎖,,,2015-10-05,1,,,,,,0
2530,8260001011062,登記記録の閉鎖等,0,2023-01-16,2023-01-04,株式会社クルーズ,,株式会社,岡山県,岡山市中区,浜２丁目１番３号,,33,102,7038256,,,2023-01-04,合併による解散等,1260003003980,令和５年１月１日岡山市南区古新田１２３３番地２合同会社クルー（1260003003980）に合併し解散,2015-10-05,1,,,,,クルーズ,0
2531,8260001020195,登記記録の閉鎖等,0,2023-01-16,2023-01-16,藤本建設株式会社,,株式会社,岡山県,津山市,安井９９０番地,,33,203,7081212,,,2023-01-16,登記官による閉鎖,,,2015-10-05,1,,,,,,0
2532,8260001024279,登記記録の閉鎖等,0,2023-01-16,2023-01-16,ネクストステージ株式会社,,株式会社,岡山県,玉野市,渋川１丁目１５番１６号,,33,204,7060028,,,2023-01-16,登記官による閉鎖,,,2015-10-05,1,,,,,,0
2533,8260002001013,登記記録の閉鎖等,0,2023-01-16,2023-01-16,有限会社魚幸,,有限会社,岡山県,岡山市北区,辰巳２番地の１０９,,33,101,7000976,,,2023-01-16,登記官による閉鎖,,,2015-10-05,1,,,,,,0
2534,8260002001748,登記記録の閉鎖等,0,2023-01-16,2023-01-16,有限会社岡山住宅機器販売,,有限会社,岡山県,岡山市中区,清水３７３番地の３０,,33,102,7038243,,,2023-01-16,登記官による閉鎖,,,2015-10-05,1,,,,,,0
2535,8260002006276,登記記録の閉鎖等,0,2023-01-16,2023-01-16,有限会社田野倉迪男美容室,,有限会社,岡山県,岡山市北区,津高１５４５番地３３,,33,101,7011152,,,2023-01-16,登記官による閉鎖,,,2015-10-05,1,,,,,,0
2536,8260002008710,登記記録の閉鎖等,0,2023-01-16,2023-01-16,有限会社藤田エステート,,有限会社,岡山県,岡山市北区,下伊福本町１６番２４号,,33,101,7000053,,,2023-01-16,登記官による閉鎖,,,2015-10-05,1,,,,,,0
2537,8260002010427,登記記録の閉鎖等,0,2023-01-16,2023-01-16,有限会社ユーリン不動産部,,有限会社,岡山県,岡山市北区,駅元町９番２６号,,33,101,7000024,,,2023-01-16,登記官による閉鎖,,,2015-10-05,1,,,,,,0
2538,8260002015756,登記記録の閉鎖等,0,2023-01-16,2023-01-16,有限会社ヤスダ工業,,有限会社,岡山県,赤磐市,山陽５丁目２番１２号,,33,213,7090827,,,2023-01-16,登記官による閉鎖,,,2015-10-05,1,,,,,,0
2539,8260002020186,登記記録の閉鎖等,0,2023-01-16,2023-01-16,有限会社難波商店,,有限会社,岡山県,倉敷市,新田２６６８番地の３,,33,202,7100038,,,2023-01-16,登記官による閉鎖,,,2015-10-05,1,,,,,,0
2540,8260002021705,登記記録の閉鎖等,0,2023-01-16,2023-01-16,有限会社森近電機,,有限会社,岡山県,倉敷市,水島東千鳥町３番１４号,,33,202,7128057,,,2023-01-16,登記官による閉鎖,,,2015-10-05,1,,,,,,0
2541,8260002025185,登記記録の閉鎖等,0,2023-01-16,2023-01-16,有限会社たけむら,,有限会社,岡山県,浅口市,鴨方町六条院中１９４９番地の１９,,33,216,7190252,,,2023-01-16,登記官による閉鎖,,,2015-10-05,1,,,,,,0
2542,8260002033816,登記記録の閉鎖等,0,2023-01-16,2023-01-16,有限会社興安酒家,,有限会社,岡山県,真庭市,中４２９番地の１,,33,214,7193115,,,2023-01-16,登記官による閉鎖,,,2015-10-05,1,,,,,,0
2544,8260005003361,登記記録の閉鎖等,0,2023-01-16,2023-01-16,協同組合児島運輸サービス,,その他の設立登記法人,岡山県,倉敷市,児島味野４０５１番地の１０,,33,202,7110913,,,2023-01-16,登記官による閉鎖,,,2015-10-05,1,,,,,,0
2545,8260005006728,登記記録の閉鎖等,0,2023-01-16,2023-01-16,農事組合法人養野第二養蚕組合,,その他の設立登記法人,岡山県,苫田郡鏡野町,養野８５６番地,,33,606,7080422,,,2023-01-16,登記官による閉鎖,,,2015-10-05,1,,,,,,0
2546,8260005007189,登記記録の閉鎖等,0,2023-01-16,2023-01-16,特定非営利活動法人Ｊ－Ｉｎｓｅｃｔ,,その他の設立登記法人,岡山県,津山市,神戸１０４番地の１,,33,203,7080015,,,2023-01-16,登記官による閉鎖,,,2015-10-05,1,,,,,,0
2547,8260005007288,登記記録の閉鎖等,0,2023-01-16,2023-01-16,農事組合法人緑華園,00004179,その他の設立登記法人,岡山県,美作市,野形３０１番地,,33,215,7070424,,,2023-01-16,登記官による閉鎖,,,2015-10-05,1,,,,,,0
2569,8350002007496,登記記録の閉鎖等,0,2023-01-16,2023-01-13,有限会社照栄設備工業,,有限会社,宮崎県,宮崎市,佐土原町下田島１１７０３－１８,,45,201,8800211,,,2023-01-13,清算の結了等,,,2015-10-05,1,,,,,ショウエイセツビコウギョウ,0
2575,8370101001299,登記記録の閉鎖等,0,2023-01-16,2023-01-13,株式会社ＱＫＫ,,株式会社,東京都,千代田区,有楽町２丁目１０番１号,,13,101,1000006,,,2023-01-13,清算の結了等,,,2015-10-05,1,,,,,キューケーケー,0
2579,8380001026511,登記記録の閉鎖等,0,2023-01-16,2023-01-12,福島フコク運輸株式会社,,株式会社,福島県,双葉郡楢葉町,大字井出字浄光西１２－４,,07,542,9790603,,,2023-01-12,清算の結了等,,,2016-02-22,1,,,,,フクシマフコクウンユ,0
2586,8410001008761,登記記録の閉鎖等,0,2023-01-16,2023-01-12,株式会社アキタ・アダマンド,,株式会社,秋田県,横手市,外目字上桜沢１２番地１,,05,203,0130053,,,2023-01-12,合併による解散等,7011801010758,令和５年１月１日東京都足立区新田三丁目８番２２号Ｏｒｂｒａｙ株式会社（7011801010758）に合併し解散,2015-10-05,1,,,,,アキタアダマンド,0
2591,8430002063424,登記記録の閉鎖等,0,2023-01-16,2023-01-11,有限会社ピーファクトリー,,有限会社,北海道,伊達市,網代町１０４番地,,01,233,0520025,,,2023-01-11,清算の結了等,,,2015-10-05,1,,,,,ピーファクトリー,0
2597,8460102004069,登記記録の閉鎖等,0,2023-01-16,2023-01-05,有限会社アグリダイレクト,,有限会社,北海道,河西郡芽室町,東芽室北１線１８番地７,,01,637,0820004,,,2023-01-05,合併による解散等,1460101004828,令和５年１月１日北海道河西郡芽室町東芽室北一線１８番地７株式会社アグリダイレクト（1460101004828）に合併し解散,2015-10-05,1,,,,,アグリダイレクト,0
2608,9010001036430,登記記録の閉鎖等,0,2023-01-16,2023-01-13,株式会社築地青木,,株式会社,東京都,中央区,銀座７丁目１３番６号,,13,102,1040061,,,2023-01-13,清算の結了等,,,2015-10-05,1,,,,,ツキジアオキ,0
2611,9010001187298,登記記録の閉鎖等,0,2023-01-16,2023-01-06,インクス株式会社,,株式会社,千葉県,野田市,蕃昌２４３番７号,,12,208,2780041,,,2023-01-06,清算の結了等,,,2017-10-30,1,,,,,インクス,0
2624,9010401125122,登記記録の閉鎖等,0,2023-01-16,2022-12-27,ＩＢＣソーラーＥＰＣ株式会社,,株式会社,東京都,港区,赤坂２丁目２２番２４号,,13,103,1070052,,,2022-12-27,合併による解散等,1010401164706,令和４年１２月２１日東京都港区赤坂二丁目２２番２４号ＩＢＣソーラー・エナジー・ジャパン株式会社（1010401164706）に合併し解散,2016-06-03,1,,,,,アイビーシーソーラーイーピーシー,0
2632,9010601007087,登記記録の閉鎖等,0,2023-01-16,2023-01-04,丸善食品工業株式会社,,株式会社,東京都,江東区,森下２丁目１１番９号,,13,108,1350004,,,2023-01-04,清算の結了等,,,2015-10-05,1,,,,,マルゼンショクヒンコウギョウ,0
2638,9010701025030,登記記録の閉鎖等,0,2023-01-16,2023-01-04,株式会社物理応用研究所,,株式会社,東京都,品川区,東品川２丁目２番２５－２００６号,,13,109,1400002,,,2023-01-04,清算の結了等,,,2015-10-05,1,,,,,,0
2639,9010701035343,登記記録の閉鎖等,0,2023-01-16,2023-01-04,株式会社第一ホールディングス,,株式会社,東京都,品川区,南大井６丁目１３番１０号,,13,109,1400013,,,2023-01-04,合併による解散等,8010701005413,令和５年１月１日東京都品川区南大井六丁目１３番１０号株式会社第一テクノ（8010701005413）に合併し解散,2018-02-16,1,,,,,ダイイチホールディングス,0
2643,9010801023173,登記記録の閉鎖等,0,2023-01-16,2023-01-05,株式会社ｆｏｒｅｖｅｒ　ｅｔｅｒｎａｌｌｙ,,株式会社,東京都,大田区,蒲田５丁目２０番７号,,13,111,1440052,,,2023-01-05,清算の結了等,,,2015-10-05,1,,,,,フォーエバーエターナリー,0
2653,9011105004760,登記記録の閉鎖等,0,2023-01-16,2023-01-04,特定非営利活動法人ＭＥＭＯＲＯ記憶の銀行,,その他の設立登記法人,東京都,渋谷区,恵比寿２丁目３２番２２号,,13,113,1500013,,,2023-01-04,清算の結了等,,,2015-10-05,1,,,,,メモロキオクノギンコウ,0
2657,9011401002419,登記記録の閉鎖等,0,2023-01-16,2023-01-13,三幸石油株式会社,,株式会社,東京都,板橋区,栄町３１番６号,,13,119,1730015,,,2023-01-13,登記官による閉鎖,,,2015-10-05,1,,,,,,0
2658,9011401003648,登記記録の閉鎖等,0,2023-01-16,2023-01-13,大栄木工株式会社,,株式会社,東京都,板橋区,弥生町１２番１５号,,13,119,1730021,,,2023-01-13,登記官による閉鎖,,,2015-10-05,1,,,,,,0
2659,9011401013234,登記記録の閉鎖等,0,2023-01-16,2023-01-13,株式会社フタバプランニング,,株式会社,東京都,板橋区,大原町１１番７号,,13,119,1740061,,,2023-01-13,登記官による閉鎖,,,2015-10-05,1,,,,,,0
2660,9011402002228,登記記録の閉鎖等,0,2023-01-16,2023-01-13,有限会社かざまき,,有限会社,東京都,板橋区,大山町２４番１１号,,13,119,1730023,,,2023-01-13,登記官による閉鎖,,,2015-10-05,1,,,,,,0
2661,9011402006088,登記記録の閉鎖等,0,2023-01-16,2023-01-13,有限会社テーラーサトウ,,有限会社,東京都,板橋区,前野町５丁目７番４号,,13,119,1740063,,,2023-01-13,登記官による閉鎖,,,2015-10-05,1,,,,,,0
2672,9012401001311,登記記録の閉鎖等,0,2023-01-16,2023-01-16,株式会社日健,,株式会社,東京都,府中市,四谷３丁目７番地の１,,13,206,1830035,,,2023-01-16,登記官による閉鎖,,,2015-10-05,1,,,,,,0
2673,9012401008042,登記記録の閉鎖等,0,2023-01-16,2023-01-16,株式会社泰山,,株式会社,東京都,調布市,深大寺北町４丁目２番地７,,13,208,1820011,,,2023-01-16,登記官による閉鎖,,,2015-10-05,1,,,,,,0
2674,9012401008983,登記記録の閉鎖等,0,2023-01-16,2023-01-16,矩勝建設株式会社,,株式会社,東京都,狛江市,和泉本町１丁目１番１６号,,13,219,2010003,,,2023-01-16,登記官による閉鎖,,,2015-10-05,1,,,,,,0
2675,9012401010816,登記記録の閉鎖等,0,2023-01-16,2023-01-16,池月株式会社,,株式会社,東京都,武蔵野市,吉祥寺東町２丁目２８番１５号,,13,203,1800002,,,2023-01-16,登記官による閉鎖,,,2015-10-05,1,,,,,,0
2677,9012402005492,登記記録の閉鎖等,0,2023-01-16,2023-01-16,ヘルシーファミリー有限会社,,有限会社,東京都,小金井市,貫井南町２丁目７番１０号,,13,210,1840014,,,2023-01-16,登記官による閉鎖,,,2015-10-05,1,,,,,,0
2678,9012402012852,登記記録の閉鎖等,0,2023-01-16,2023-01-16,有限会社ワインアンドフーズオオシマヤ,,有限会社,東京都,調布市,下石原１丁目７番地８,,13,208,1820034,,,2023-01-16,登記官による閉鎖,,,2015-10-05,1,,,,,,0
2679,9012402013875,登記記録の閉鎖等,0,2023-01-16,2023-01-16,有限会社ヨル,,有限会社,東京都,狛江市,岩戸北３丁目５番１４号,,13,219,2010004,,,2023-01-16,登記官による閉鎖,,,2015-10-05,1,,,,,,0
2680,9012402023247,登記記録の閉鎖等,0,2023-01-16,2023-01-16,有限会社皆川商事,,有限会社,東京都,小金井市,貫井北町５丁目２４番２号コーポ青藍１０５,,13,210,1840015,,,2023-01-16,登記官による閉鎖,,,2015-10-05,1,,,,,,0
2681,9012405002322,登記記録の閉鎖等,0,2023-01-16,2023-01-16,特定非営利活動法人三宅島復興関東慈生会,,その他の設立登記法人,東京都,狛江市,和泉本町３丁目３４番１２－１０１号,,13,219,2010003,,,2023-01-16,登記官による閉鎖,,,2015-10-05,1,,,,,,0
2686,9013305000952,登記記録の閉鎖等,0,2023-01-16,2023-01-11,特定非営利活動法人日本ＮＰＯ支援事業団,,その他の設立登記法人,東京都,豊島区,東池袋４丁目３０番１３－５０３号,,13,116,1700013,,,2023-01-11,清算の結了等,,,2015-10-05,1,,,,,ニホンエヌピーオーシエンジギョウダン,0
2687,9013305000969,登記記録の閉鎖等,0,2023-01-16,2023-01-11,特定非営利活動法人日本スポーツ振興会,,その他の設立登記法人,東京都,豊島区,東池袋４丁目３０番１３－５０３号,,13,116,1700013,,,2023-01-11,清算の結了等,,,2015-10-05,1,,,,,ニホンスポーツシンコウカイ,0
2697,9021001052037,登記記録の閉鎖等,0,2023-01-16,2023-01-10,株式会社アプライ・イット,,株式会社,神奈川県,厚木市,七沢１６２４番地３２,,14,212,2430121,,,2023-01-10,清算の結了等,,,2015-10-05,1,,,,,アプライイット,0
2712,9040002066903,登記記録の閉鎖等,0,2023-01-16,2023-01-11,シールート・インスペクション有限会社,,有限会社,千葉県,木更津市,高柳３２５０番地,,12,206,2920014,,,2023-01-11,清算の結了等,,,2015-10-05,1,,,,,シールートインスペクション,0
2715,9050001005381,登記記録の閉鎖等,0,2023-01-16,2023-01-05,株式会社ＣＨＩＬＤＲＥＮ　ＣＯＭＰＡＮＹ　ＣＣ,,株式会社,茨城県,水戸市,河和田３丁目２５３６番地,,08,201,3114152,,,2023-01-05,清算の結了等,,,2015-10-05,1,,,,,,0
2740,9100002026000,登記記録の閉鎖等,0,2023-01-16,2023-01-11,有限会社信栄商事,,有限会社,長野県,松本市,平田東２丁目１０番６号,,20,202,3990014,,,2023-01-11,清算の結了等,,,2015-10-05,1,,,,,シンエイショウジ,0
2744,9110002032757,登記記録の閉鎖等,0,2023-01-16,2023-01-10,有限会社大久保電設,,有限会社,新潟県,南魚沼市,船ケ沢新田４８５番地４,,15,226,9497244,,,2023-01-10,清算の結了等,,,2015-10-05,1,,,,,オオクボデンセツ,0
2752,9120001228264,登記記録の閉鎖等,0,2023-01-16,2023-01-10,ユニークオン株式会社,,株式会社,大阪府,大阪市北区,天神橋１丁目１９番１５号ヴィラナリー天神橋２０１－１,,27,127,5300041,,,2023-01-10,清算の結了等,,,2020-04-06,1,,,,,ユニークオン,0
2768,9130001041781,登記記録の閉鎖等,0,2023-01-16,2023-01-05,株式会社セークロヴォアール,,株式会社,京都府,福知山市,字天田小字中長戸４５番地の６,,26,201,6200000,,,2023-01-05,合併による解散等,2130001041466,令和５年１月１日京都府福知山市字天田小字中長戸４５番地の６達川商事株式会社（2130001041466）に合併し解散,2015-10-05,1,,,,,セークロヴォアール,0
2776,9140001000357,登記記録の閉鎖等,0,2023-01-16,2022-12-28,株式会社コンタクス,,株式会社,兵庫県,芦屋市,松ノ内町７番１１号,,28,206,6590094,,,2022-12-28,清算の結了等,,,2015-10-05,1,,,,,コンタクス,0
2778,9140001025841,登記記録の閉鎖等,0,2023-01-16,2023-01-10,株式会社フォレスト,,株式会社,兵庫県,芦屋市,業平町３番５号,,28,206,6590068,,,2023-01-10,清算の結了等,,,2015-10-05,1,,,,,フォレスト,0
2792,9140005018965,登記記録の閉鎖等,0,2023-01-16,2023-01-13,特定非営利活動法人アズイット,,その他の設立登記法人,兵庫県,宝塚市,小林１丁目１－８エルフォンテひらつかＣ,,28,214,6650034,,,2023-01-13,清算の結了等,,,2015-10-05,1,,,,,アズイット,0
2799,9180001112330,登記記録の閉鎖等,0,2023-01-16,2023-01-04,株式会社イーシー・ライダー,,株式会社,東京都,渋谷区,恵比寿４丁目６番１号,,13,113,1500013,,,2023-01-04,合併による解散等,1011001095317,令和５年１月１日東京都渋谷区恵比寿四丁目６番１号株式会社フライトシステムコンサルティング（1011001095317）に合併し解散,2015-10-05,1,,,,,イーシーライダー,0
2813,9200001030637,登記記録の閉鎖等,0,2023-01-16,2023-01-10,株式会社アルデ,,株式会社,岐阜県,多治見市,松坂町２丁目１番地の４７,,21,204,5070063,,,2023-01-10,清算の結了等,,,2015-10-05,1,,,,,アルデ,0
2818,9210001000036,登記記録の閉鎖等,0,2023-01-16,2023-01-16,株式会社アイシーエム,,株式会社,福井県,福井市,順化１丁目２１番１号,,18,201,9100023,,,2023-01-16,登記官による閉鎖,,,2015-10-05,1,,,,,,0
2820,9210002014010,登記記録の閉鎖等,0,2023-01-16,2023-01-16,若狭商事有限会社,,有限会社,福井県,小浜市,小浜広峰３２番地の１,,18,204,9170084,,,2023-01-16,登記官による閉鎖,,,2015-10-05,1,,,,,,0
2821,9210003001404,登記記録の閉鎖等,0,2023-01-16,2023-01-11,合同会社ｍ．ｂｒｉｌｌｅｒ,,合同会社,福井県,鯖江市,神明町３丁目８番３２号,,18,207,9160017,,,2023-01-11,清算の結了等,,,2021-08-31,1,,,,,エムドットブリエ,0
2823,9220001011866,登記記録の閉鎖等,0,2023-01-16,2023-01-16,加賀観光バス株式会社,,株式会社,石川県,小松市,津波倉町ハ３８番地,,17,203,9230313,,,2023-01-16,登記官による閉鎖,,,2015-10-05,1,,,,,,0
2827,9220002010982,登記記録の閉鎖等,0,2023-01-16,2023-01-16,有限会社中道コンクリート工業,,有限会社,石川県,小松市,千木野町ヘ１７３番地,,17,203,9230834,,,2023-01-16,登記官による閉鎖,,,2015-10-05,1,,,,,,0
2828,9220002014843,登記記録の閉鎖等,0,2023-01-16,2023-01-16,有限会社小門前造園,,有限会社,石川県,羽咋郡志賀町,徳田ナの１２９番地,,17,384,9250212,,,2023-01-16,登記官による閉鎖,,,2015-10-05,1,,,,,,0
2829,9220005003042,登記記録の閉鎖等,0,2023-01-16,2023-01-16,石川県コンクリートブロック施工業協同組合,,その他の設立登記法人,石川県,金沢市,福久町ハ２２番地２,,17,201,9203122,,,2023-01-16,登記官による閉鎖,,,2015-10-05,1,,,,,,0
2844,9260001001079,登記記録の閉鎖等,0,2023-01-16,2023-01-16,岡山製線株式会社,,株式会社,岡山県,岡山市北区,高柳東町１１番３７号,,33,101,7000034,,,2023-01-16,登記官による閉鎖,,,2015-10-05,1,,,,,,0
2845,9260001002408,登記記録の閉鎖等,0,2023-01-16,2023-01-16,株式会社ゴールキーパー,,株式会社,岡山県,岡山市中区,四御神１番地の２６,,33,102,7038201,,,2023-01-16,登記官による閉鎖,,,2015-10-05,1,,,,,,0
2846,9260001006210,登記記録の閉鎖等,0,2023-01-16,2023-01-16,株式会社オート興産高屋,,株式会社,岡山県,岡山市中区,高屋２９２番地の１,,33,102,7038233,,,2023-01-16,登記官による閉鎖,,,2015-10-05,1,,,,,,0
2847,9260001016812,登記記録の閉鎖等,0,2023-01-16,2023-01-16,株式会社ロッソネロ,,株式会社,岡山県,倉敷市,黒崎３５番地５,,33,202,7100014,,,2023-01-16,登記官による閉鎖,,,2015-10-05,1,,,,,,0
2848,9260001020764,登記記録の閉鎖等,0,2023-01-16,2023-01-13,作東建設株式会社,,株式会社,岡山県,美作市,土居２６２５番地,,33,215,7094244,,,2023-01-13,清算の結了等,,,2015-10-05,1,,,,,,0
2849,9260002007505,登記記録の閉鎖等,0,2023-01-16,2023-01-16,有限会社西山鶏卵問屋,,有限会社,岡山県,岡山市北区,三門中町４－１９なにわ荘南棟２０５号,,33,101,7000043,,,2023-01-16,登記官による閉鎖,,,2015-10-05,1,,,,,,0
2850,9260002009567,登記記録の閉鎖等,0,2023-01-16,2023-01-16,有限会社サンロード,,有限会社,岡山県,岡山市中区,海吉２１４８番地４,,33,102,7038261,,,2023-01-16,登記官による閉鎖,,,2015-10-05,1,,,,,,0
2851,9260002014856,登記記録の閉鎖等,0,2023-01-16,2023-01-16,有限会社アクトブイイケウチ,,有限会社,岡山県,赤磐市,桜が丘東５丁目５番地の１９９,,33,213,7090721,,,2023-01-16,登記官による閉鎖,,,2015-10-05,1,,,,,,0
2852,9260002014963,登記記録の閉鎖等,0,2023-01-16,2023-01-16,有限会社オーシージー,,有限会社,岡山県,岡山市南区,植松６４３番地の２,,33,104,7100151,,,2023-01-16,登記官による閉鎖,,,2015-10-05,1,,,,,,0
2853,9260002026728,登記記録の閉鎖等,0,2023-01-16,2023-01-16,有限会社小野木工所,,有限会社,岡山県,高梁市,津川町今津３１５番地の１,,33,209,7160002,,,2023-01-16,登記官による閉鎖,,,2015-10-05,1,,,,,,0
2854,9260002028278,登記記録の閉鎖等,0,2023-01-16,2023-01-16,有限会社神戸屋,,有限会社,岡山県,津山市,元魚町３５番地,,33,203,7080061,,,2023-01-16,登記官による閉鎖,,,2015-10-05,1,,,,,,0
2855,9260002030531,登記記録の閉鎖等,0,2023-01-16,2023-01-16,有限会社セラミック・ルーフ・カワノ,,有限会社,岡山県,美作市,入田字勝負谷６１８番２,,33,215,7070004,,,2023-01-16,登記官による閉鎖,,,2015-10-05,1,,,,,,0
2856,9260002032882,登記記録の閉鎖等,0,2023-01-16,2023-01-16,有限会社大賀建設,,有限会社,岡山県,玉野市,長尾１３８７番地の１,,33,204,7060151,,,2023-01-16,登記官による閉鎖,,,2015-10-05,1,,,,,,0
2858,9260005003006,登記記録の閉鎖等,0,2023-01-16,2023-01-16,環境資源リサイクル事業協同組合,,その他の設立登記法人,岡山県,岡山市南区,西市１０８番地の３,,33,104,7000953,,,2023-01-16,登記官による閉鎖,,,2015-10-05,1,,,,,,0
2859,9260005004953,登記記録の閉鎖等,0,2023-01-16,2023-01-16,井笠鉄道労働組合,,その他の設立登記法人,岡山県,笠岡市,笠岡５５７４番地の３,,33,205,7140081,,,2023-01-16,登記官による閉鎖,,,2015-10-05,1,,,,,,0
2860,9260005007188,登記記録の閉鎖等,0,2023-01-16,2023-01-16,特定非営利活動法人高齢者介護研究研修実践の会Ｒｉｎｇ,,その他の設立登記法人,岡山県,津山市,日本原字日本１９９番地,,33,203,7081204,,,2023-01-16,登記官による閉鎖,,,2015-10-05,1,,,,,,0
2861,9260005008756,登記記録の閉鎖等,0,2023-01-16,2023-01-16,一般社団法人着物レンタルくらはな,,その他の設立登記法人,岡山県,玉野市,大藪５５番地１,,33,204,7060317,,,2023-01-16,登記官による閉鎖,,,2015-10-05,1,,,,,,0
2871,9290003003285,登記記録の閉鎖等,0,2023-01-16,2023-01-06,合資会社やまなみケアネットワーク,,合資会社,福岡県,大牟田市,神田町３０１番地,,40,202,8360093,,,2023-01-06,清算の結了等,,,2015-10-05,1,,,,,ヤマナミケアネットワーク,0
2874,9300001006742,登記記録の閉鎖等,0,2023-01-16,2023-01-11,株式会社九州サンテック,,株式会社,佐賀県,三養基郡基山町,大字小倉字野入８番１,,41,341,8410201,,,2023-01-11,清算の結了等,,,2015-10-05,1,,,,,キュウシュウサンテック,0
2880,9320002009726,登記記録の閉鎖等,0,2023-01-16,2023-01-11,有限会社姫野電気商会,,有限会社,大分県,大分市,大字佐賀関２２３３番地の２,,44,201,8792201,,,2023-01-11,清算の結了等,,,2015-10-05,1,,,,,,0
2895,9370001012899,登記記録の閉鎖等,0,2023-01-16,2023-01-06,株式会社ヨコハマタイヤサービス東北,,株式会社,宮城県,仙台市宮城野区,仙台港北２丁目１３番地の４,,04,102,9830007,,,2023-01-06,合併による解散等,4370001004240,令和５年１月１日仙台市宮城野区福室四丁目１８番１３号株式会社ヨコハマタイヤルック宮城（4370001004240）に合併し解散,2015-10-05,1,,,,,ヨコハマタイヤサービストウホク,0
2913,9430002005648,登記記録の閉鎖等,0,2023-01-16,2022-12-19,有限会社琴西設備工業所,,有限会社,北海道,札幌市手稲区,前田七条９丁目１０番８号,,01,109,0060817,,,2022-12-19,清算の結了等,,,2015-10-05,1,,,,,キンセイセツビコウギョウショ,0
