sequenceNumber,corporateNumber,process,correct,updateDate,changeDate,name,nameImageId,kind,prefectureName,cityName,streetNumber,addressImageId,prefectureCode,cityCode,postCode,addressOutside,addressOutsideImageId,closeDate,closeCause,successorCorporateNumber,changeCause,assignmentDate,latest,enName,enPrefectureName,enCityName,enAddressOutside,furigana,hihyoji
4,1010001155221,登記記録の閉鎖等,0,2024-11-12,2024-11-08,株式会社いそべ教育グループ,,株式会社,東京都,府中市,浅間町４丁目２番地の２,,13,206,1830001,,,2024-11-08,清算の結了等,,,2015-10-05,1,,,,,イソベキョウイクグループ,0
43,1010603008487,登記記録の閉鎖等,0,2024-11-12,2024-11-08,合同会社アップドラフト,,合同会社,東京都,墨田区,錦糸１丁目２番１号アルカセントラル１４階,,13,107,1300013,,,2024-11-08,清算の結了等,,,2020-08-13,1,,,,,アップドラフト,0
45,1010801024617,登記記録の閉鎖等,0,2024-11-12,2024-11-06,はぐくみカンパニー株式会社,,株式会社,東京都,世田谷区,深沢５丁目２２番８号,,13,112,1580081,,,2024-11-06,清算の結了等,,,2015-10-05,1,,,,,ハグクミカンパニー,0
53,1011002007948,登記記録の閉鎖等,0,2024-11-12,2024-10-31,有限会社チーム・スパイラル,,有限会社,山形県,寒河江市,大字慈恩寺８６４番地,,06,206,9900511,,,2024-10-31,清算の結了等,,,2015-10-05,1,,,,,チームスパイラル,0
64,1011105010147,登記記録の閉鎖等,0,2024-11-12,2024-11-01,一般社団法人ジェイ・エイチ・ジー,,その他の設立登記法人,東京都,新宿区,下宮比町１番４号,,13,104,1620822,,,2024-11-01,清算の結了等,,,2022-02-21,1,,,,,ジェイエイチジー,0
65,1011302002756,登記記録の閉鎖等,0,2024-11-12,2024-11-01,有限会社きくや青果店,,有限会社,東京都,練馬区,下石神井４丁目１３番１１号,,13,120,1770042,,,2024-11-01,清算の結了等,,,2015-10-05,1,,,,,キクヤセイカテン,0
71,1011801004773,登記記録の閉鎖等,0,2024-11-12,2024-11-07,株式会社御代川製作所,,株式会社,東京都,葛飾区,東立石２丁目５番２３号,,13,122,1240013,,,2024-11-07,清算の結了等,,,2015-10-05,1,,,,,ミヨカワセイサクショ,0
73,1012701016652,登記記録の閉鎖等,0,2024-11-12,2024-10-29,株式会社ＫＯＲＵ,,株式会社,東京都,東村山市,本町２丁目２１番地３ファーストステージ東村山３０３,,13,213,1890014,,,2024-10-29,清算の結了等,,,2021-09-03,1,,,,,コル,0
84,1021001005547,登記記録の閉鎖等,0,2024-11-12,2024-11-05,レントハウス株式会社,,株式会社,神奈川県,藤沢市,藤沢１０９４番地,,14,205,2510052,,,2024-11-05,清算の結了等,,,2015-10-05,1,,,,,レントハウス,0
105,1030002055492,登記記録の閉鎖等,0,2024-11-12,2024-11-07,有限会社内田ホーム,,有限会社,埼玉県,桶川市,寿１丁目１２番１１号,,11,231,3630016,,,2024-11-07,清算の結了等,,,2015-10-05,1,,,,,ウチダホーム,0
106,1030002088311,登記記録の閉鎖等,0,2024-11-12,2024-11-05,有限会社森田自動車,,有限会社,埼玉県,越谷市,花田２丁目１７番地９,,11,222,3430015,,,2024-11-05,清算の結了等,,,2015-10-05,1,,,,,モリタジドウシャ,0
111,1040001034455,登記記録の閉鎖等,0,2024-11-12,2024-11-06,株式会社Ｋｏｙｏ　ＳＭＳ　Ｊａｐａｎ　Ｃｏｒｐｏｒａｔｉｏｎ,,株式会社,千葉県,成田市,十余三３７番地１,,12,211,2860101,,,2024-11-06,清算の結了等,,,2015-10-05,1,,,,,コーヨーエスエムエスジャパンコーポレーション,0
118,1040002055962,登記記録の閉鎖等,0,2024-11-12,2024-11-06,有限会社アンドウ,,有限会社,千葉県,富里市,七栄１７１番地の１２９,,12,233,2860221,,,2024-11-06,清算の結了等,,,2015-10-05,1,,,,,アンドウ,0
125,1080101000262,登記記録の閉鎖等,0,2024-11-12,2024-11-01,株式会社エス・アイ・エム,,株式会社,静岡県,沼津市,西沢田１０９番地の５,,22,203,4100007,,,2024-11-01,合併による解散等,8080101000727,令和６年１１月１日静岡県沼津市西沢田１０９番地の５株式会社静岡精機（8080101000727）に合併し解散,2015-10-05,1,,,,,エスアイエム,0
126,1080401015258,登記記録の閉鎖等,0,2024-11-12,2024-11-06,株式会社内山石油,,株式会社,静岡県,菊川市,高橋４２３５番地の１,,22,224,4371505,,,2024-11-06,清算の結了等,,,2015-10-05,1,,,,,ウチヤマセキユ,0
127,1100001033632,登記記録の閉鎖等,0,2024-11-12,2024-10-30,株式会社Ｈａｋｕｂａ　Ａｓｓｅｔ　Ｍａｎａｇｅｍｅｎｔ,,株式会社,長野県,北安曇郡白馬村,大字北城８２９５－４７,,20,485,3999301,,,2024-10-30,清算の結了等,,,2020-10-22,1,,,,,ハクバアセットマネジメント,0
130,1110001016917,登記記録の閉鎖等,0,2024-11-12,2024-11-06,シモトリガスサービス株式会社,,株式会社,新潟県,燕市,吉田神田町１５番２８号,,15,213,9590241,,,2024-11-06,清算の結了等,,,2015-10-05,1,,,,,シモトリガスサービス,0
132,1110002034975,登記記録の閉鎖等,0,2024-11-12,2024-11-08,株式会社萬,,株式会社,東京都,江東区,新砂１丁目１３番１３号,,13,108,1360075,,,2024-11-08,清算の結了等,,,2015-10-05,1,,,,,ヨロズ,0
134,1120001078626,登記記録の閉鎖等,0,2024-11-12,2024-11-07,株式会社グレースニシムラ,,株式会社,大阪府,大阪市中央区,心斎橋筋２丁目７番７号,,27,128,5420085,,,2024-11-07,清算の結了等,,,2015-10-05,1,,,,,グレースニシムラ,0
138,1120001129916,登記記録の閉鎖等,0,2024-11-12,2024-11-11,株式会社アスリード東京,,株式会社,大阪府,大阪市西淀川区,大和田４丁目７番３０－５１２号,,27,113,5550032,,,2024-11-11,清算の結了等,,,2015-10-05,1,,,,,アスリードトウキョウ,0
139,1120001149897,登記記録の閉鎖等,0,2024-11-12,2024-11-06,総合建設山末株式会社,,株式会社,大阪府,枚方市,南中振１丁目７番４１号,,27,210,5730094,,,2024-11-06,清算の結了等,,,2015-10-05,1,,,,,ソウゴウケンセツヤマスエ,0
143,1120001202094,登記記録の閉鎖等,0,2024-11-12,2024-11-08,株式会社ヴィエント大阪,,株式会社,大阪府,大阪市中央区,南船場３丁目２番２２号,,27,128,5420081,,,2024-11-08,清算の結了等,,,2016-11-25,1,,,,,,0
149,1120002025734,登記記録の閉鎖等,0,2024-11-12,2024-11-08,有限会社ポムロール,,有限会社,大阪府,大阪市東淀川区,南江口２丁目７番１２号,,27,114,5330003,,,2024-11-08,清算の結了等,,,2015-10-05,1,,,,,ポムロール,0
179,1140003005535,登記記録の閉鎖等,0,2024-11-12,2024-11-07,合名会社井上商店,,合名会社,兵庫県,明石市,林崎町２丁目６番５号,,28,203,6730033,,,2024-11-07,清算の結了等,,,2015-10-05,1,,,,,イノウエショウテン,0
198,1180303001354,登記記録の閉鎖等,0,2024-11-12,2024-11-05,ユタカホームズ合資会社,,合資会社,愛知県,豊橋市,飯村町字寺前９５番地の５,,23,201,4400836,,,2024-11-05,清算の結了等,,,2015-10-05,1,,,,,ユタカホームズ,0
206,1230005009104,登記記録の閉鎖等,0,2024-11-12,2024-11-07,一般社団法人聖,,その他の設立登記法人,富山県,富山市,藤木１９７２番地４,,16,201,9300936,,,2024-11-07,清算の結了等,,,2020-10-21,1,,,,,ヒジリ,0
207,1240001036984,登記記録の閉鎖等,0,2024-11-12,2024-11-07,株式会社Ｗｏｒｋｓ－Ｌｏｒｄ,,株式会社,広島県,安芸郡海田町,南堀川町６番１８号,,34,304,7360044,,,2024-11-07,清算の結了等,,,2015-10-05,1,,,,,ワークスロード,0
209,1240002025887,登記記録の閉鎖等,0,2024-11-12,2024-11-07,有限会社ワールド塗研,,有限会社,広島県,広島市佐伯区,杉並台６０番地の６,,34,108,7380514,,,2024-11-07,清算の結了等,,,2015-10-05,1,,,,,,0
220,1290001008376,登記記録の閉鎖等,0,2024-11-12,2024-10-03,株式会社綜合設計,,株式会社,福岡県,福岡市西区,生松台３丁目１番２号,,40,135,8190044,,,2024-10-03,清算の結了等,,,2015-10-05,1,,,,,ソウゴウセッケイ,0
223,1290002055203,登記記録の閉鎖等,0,2024-11-12,2024-10-04,有限会社真鍋造園,,有限会社,福岡県,大牟田市,大字歴木４２０番地の１,,40,202,8370924,,,2024-10-04,清算の結了等,,,2015-10-05,1,,,,,マナベゾウエン,0
226,1290005000957,登記記録の閉鎖等,0,2024-11-12,2024-10-29,公益財団法人婦人児童問題研究所,,その他の設立登記法人,福岡県,福岡市南区,筑紫丘２丁目１番２号,,40,134,8150036,,,2024-10-29,清算の結了等,,,2015-10-05,1,,,,,フジンジドウモンダイケンキュウショ,0
229,1320001000123,登記記録の閉鎖等,0,2024-11-12,2024-11-07,株式会社エス・ケー・ファーマシー,,株式会社,大分県,大分市,南鶴崎２丁目４番２２号,,44,201,8700104,,,2024-11-07,合併による解散等,7430001069398,令和６年１１月１日札幌市白石区東札幌五条二丁目４番３０号株式会社アインファーマシーズ（7430001069398）に合併し解散,2015-10-05,1,,,,,エスケーファーマシー,0
232,1330001022554,登記記録の閉鎖等,0,2024-11-12,2024-11-01,武末建設株式会社,,株式会社,熊本県,熊本市中央区,紺屋今町２番２３号,,43,101,8600012,,,2024-11-01,合併による解散等,7330001019198,令和６年１１月１日熊本市中央区紺屋今町２番２３号三ツ矢建設株式会社（7330001019198）に合併し解散,2016-03-11,1,,,,,タケマツケンセツ,0
252,1420002008452,登記記録の閉鎖等,0,2024-11-12,2024-11-07,有限会社バースアイルコーポレーション,,有限会社,青森県,八戸市,大字沢里字下沢内３６番地４,,02,203,0391167,,,2024-11-07,清算の結了等,,,2015-10-05,1,,,,,バースアイルコーポレーション,0
257,1430001084519,登記記録の閉鎖等,0,2024-11-12,2024-11-06,株式会社信栄,,株式会社,北海道,札幌市豊平区,平岸一条１丁目４番１２号,,01,105,0620931,,,2024-11-06,清算の結了等,,,2021-07-09,1,,,,,シンエイ,0
295,2010401113067,登記記録の閉鎖等,0,2024-11-12,2024-11-08,株式会社コスモ紙業,,株式会社,千葉県,市原市,玉前西２丁目１番地１８,,12,219,2900044,,,2024-11-08,合併による解散等,2080001006020,令和６年１１月１日静岡市清水区興津中町９９０番地株式会社兼子（2080001006020）に合併し解散,2015-10-05,1,,,,,,0
315,2010902024119,登記記録の閉鎖等,0,2024-11-12,2024-10-31,有限会社インベストワークス,,有限会社,東京都,世田谷区,岡本２丁目５番２号,,13,112,1570076,,,2024-10-31,合併による解散等,1010902019953,令和６年１０月３１日東京都世田谷区岡本二丁目５番２号株式会社ブライトワン（1010902019953）に合併し解散,2015-10-05,1,,,,,インベストワークス,0
331,2011502009344,登記記録の閉鎖等,0,2024-11-12,2024-11-08,有限会社関商店,,有限会社,東京都,荒川区,東日暮里１丁目１１番１６号,,13,118,1160014,,,2024-11-08,清算の結了等,,,2015-10-05,1,,,,,セキショウテン,0
344,2013301037352,登記記録の閉鎖等,0,2024-11-12,2024-11-01,ＳＴＡＧＥ株式会社,,株式会社,東京都,豊島区,池袋２丁目３６番１号ＩＮＦＩＮＩＴＹＩＫＥＢＵＫＵＲＯ６Ｆ,,13,116,1710014,,,2024-11-01,清算の結了等,,,2015-10-05,1,,,,,ステージ,0
383,2040002038974,登記記録の閉鎖等,0,2024-11-12,2024-11-01,株式会社ファミリア,,株式会社,東京都,江戸川区,西小岩１丁目１２番１７号,,13,123,1330057,,,2024-11-01,合併による解散等,2011701026339,令和６年１１月１日東京都江戸川区南小岩五丁目４番１６号株式会社エドホールディングス（2011701026339）に合併し解散,2015-10-05,1,,,,,ファミリア,0
386,2040005004692,登記記録の閉鎖等,0,2024-11-12,2024-10-17,特定非営利活動法人市川東部・船橋西部交通不便地域対策協議会,,その他の設立登記法人,千葉県,市川市,若宮３丁目１番７号,,12,203,2720812,,,2024-10-17,清算の結了等,,,2015-10-05,1,,,,,,0
387,2060001008266,登記記録の閉鎖等,0,2024-11-12,2024-11-06,東京建物管理株式会社,,株式会社,栃木県,宇都宮市,中今泉３丁目７番２２号,,09,201,3210968,,,2024-11-06,清算の結了等,,,2015-10-05,1,,,,,トウキョウタテモノカンリ,0
389,2060001034337,登記記録の閉鎖等,0,2024-11-12,2024-11-06,ハラモデリング株式会社,,株式会社,栃木県,足利市,里矢場町２３７３番地３,,09,202,3260835,,,2024-11-06,清算の結了等,,,2021-12-03,1,,,,,ハラモデリング,0
393,2070002017785,登記記録の閉鎖等,0,2024-11-12,2024-11-08,豊永建設有限会社,,有限会社,群馬県,藤岡市,下栗須１０６３番地１,,10,209,3750014,,,2024-11-08,清算の結了等,,,2015-10-05,1,,,,,ホウエイケンセツ,0
396,2080001026101,登記記録の閉鎖等,0,2024-11-12,2024-11-05,Ｊｕｍｐ　Ｌｉｆｅ株式会社,,株式会社,静岡県,静岡市清水区,由比北田１１４番地の１,,22,103,4213104,,,2024-11-05,合併による解散等,1080001015385,令和６年１１月５日静岡県焼津市小川新町五丁目８番１３号焼津水産化学工業株式会社（1080001015385）に合併し解散,2024-01-25,1,,,,,ジャンプライフ,0
403,2120001169168,登記記録の閉鎖等,0,2024-11-12,2024-11-11,株式会社親和,,株式会社,兵庫県,宝塚市,売布１丁目２６番１９号,,28,214,6650852,,,2024-11-11,清算の結了等,,,2015-10-05,1,,,,,シンワ,0
406,2120001213074,登記記録の閉鎖等,0,2024-11-12,2024-11-07,株式会社ジェイプラスセキュリティー,,株式会社,大阪府,大阪市淀川区,木川東４丁目１２番２５号,,27,123,5320012,,,2024-11-07,清算の結了等,,,2018-05-02,1,,,,,ジェイプラスセキュリティー,0
427,2120903000355,登記記録の閉鎖等,0,2024-11-12,2024-11-05,合資会社荻田会計事務所,,合資会社,大阪府,吹田市,豊津町１番３０号江坂ビル７０３号室,,27,205,5640051,,,2024-11-05,清算の結了等,,,2015-10-05,1,,,,,オギタカイケイジムショ,0
429,2122001008446,登記記録の閉鎖等,0,2024-11-12,2024-11-07,大阪タカギ冷機株式会社,,株式会社,大阪府,東大阪市,長田東５丁目２番２号,,27,227,5770012,,,2024-11-07,合併による解散等,8011801009527,令和６年１１月１日埼玉県草加市谷塚一丁目１８番１３号タカギ冷機株式会社（8011801009527）に合併し解散,2015-10-05,1,,,,,オオサカタカギレイキ,0
434,2130001059376,登記記録の閉鎖等,0,2024-11-12,2024-11-07,株式会社レノックス,,株式会社,京都府,福知山市,字天田４８８番地の１,,26,201,6200000,,,2024-11-07,清算の結了等,,,2017-03-10,1,,,,,レノックス,0
464,2180301010538,登記記録の閉鎖等,0,2024-11-12,2024-11-01,株式会社オミクロン,,株式会社,愛知県,豊川市,西豊町２丁目３５番地,,23,207,4420024,,,2024-11-01,合併による解散等,6180301010369,令和６年１０月３１日愛知県豊川市西豊町二丁目３５番地株式会社トヨテック（6180301010369）に合併し解散,2015-10-05,1,,,,,オミクロン,0
465,2180301029363,登記記録の閉鎖等,0,2024-11-12,2024-11-05,株式会社Ｋ＆Ｋ,,株式会社,愛知県,刈谷市,半城土中町１丁目１８番地１２,,23,210,4480805,,,2024-11-05,清算の結了等,,,2016-07-05,1,,,,,ケーアンドケー,0
468,2180303002970,登記記録の閉鎖等,0,2024-11-12,2024-11-05,合同会社辰巳,,合同会社,愛知県,岡崎市,中田町６番地１,,23,202,4440836,,,2024-11-05,清算の結了等,,,2015-10-05,1,,,,,タツミ,0
469,2200001011073,登記記録の閉鎖等,0,2024-11-12,2024-11-08,株式会社サンマリーノ,,株式会社,岐阜県,羽島市,福寿町間島４丁目２５番地の１,,21,209,5016251,,,2024-11-08,清算の結了等,,,2015-10-05,1,,,,,サンマリーノ,0
474,2230002000568,登記記録の閉鎖等,0,2024-11-12,2024-11-07,有限会社ゑり駒,,有限会社,富山県,富山市,中野新町２丁目４番１３号,,16,201,9398085,,,2024-11-07,清算の結了等,,,2015-10-05,1,,,,,エリコマ,0
479,2240002028492,登記記録の閉鎖等,0,2024-11-12,2024-11-07,有限会社ミヤケ,,有限会社,広島県,東広島市,黒瀬松ケ丘４番１８号,,34,212,7392614,,,2024-11-07,清算の結了等,,,2015-10-05,1,,,,,,0
538,3010002031386,登記記録の閉鎖等,0,2024-11-12,2024-11-07,有限会社三榮工務店管理部,,有限会社,東京都,中野区,新井４丁目２９番１号,,13,114,1650026,,,2024-11-07,清算の結了等,,,2015-10-05,1,,,,,サンエイコウムテンカンリブ,0
571,3010403014155,登記記録の閉鎖等,0,2024-11-12,2024-11-01,ゴールドトレーディング合同会社,,合同会社,東京都,港区,南青山２丁目２番６号－７０２号室,,13,103,1070062,,,2024-11-01,合併による解散等,4010401124582,令和６年１１月１日東京都港区南青山二丁目２番６号７０２号室Ｄｕａｌ　Ｌｉｆｅ　Ｐａｒｔｎｅｒｓ株式会社（4010401124582）に合併し解散,2015-12-07,1,,,,,ゴールドトレーディング,0
593,3010905001510,登記記録の閉鎖等,0,2024-11-12,2024-11-01,医療法人社団奉心会,,その他の設立登記法人,東京都,世田谷区,砧６丁目４番９号ウッドクレスト砧Ｃ棟１階,,13,112,1570073,,,2024-11-01,清算の結了等,,,2015-10-05,1,,,,,ホウシンカイ,0
603,3011101099315,登記記録の閉鎖等,0,2024-11-12,2024-11-01,株式会社ＥＳ５２,,株式会社,東京都,新宿区,下宮比町１番４号,,13,104,1620822,,,2024-11-01,清算の結了等,,,2022-06-22,1,,,,,イーエスゴジュウニ,0
624,3013302000127,登記記録の閉鎖等,0,2024-11-12,2024-11-06,有限会社飯吉建築設計事務所,,有限会社,東京都,世田谷区,北烏山５丁目８番１８－１１１号,,13,112,1570061,,,2024-11-06,清算の結了等,,,2015-10-05,1,,,,,,0
626,3020001009507,登記記録の閉鎖等,0,2024-11-12,2024-10-21,株式会社ラックスオスカー,,株式会社,神奈川県,横浜市都筑区,池辺町４８２２番地,,14,118,2240053,,,2024-10-21,合併による解散等,7020002102348,令和６年１０月１５日川崎市高津区坂戸三丁目２２番１号株式会社ＲＣＦ（7020002102348）に合併し解散,2015-10-05,1,,,,,ラックスオスカー,0
631,3020001138058,登記記録の閉鎖等,0,2024-11-12,2024-10-24,株式会社ジョイドリーム,,株式会社,神奈川県,横浜市中区,長者町２丁目６番地１－３０８,,14,104,2310033,,,2024-10-24,清算の結了等,,,2020-10-09,1,,,,,ジョイドリーム,0
632,3020001143677,登記記録の閉鎖等,0,2024-11-12,2024-11-01,エイチフィルタコントロールズ株式会社,,株式会社,神奈川県,横浜市都筑区,荏田南３丁目２４番１２号,,14,118,2240007,,,2024-11-01,合併による解散等,9020001038277,令和６年１１月１日横浜市港北区富士塚二丁目１８番１７号株式会社エフテック（9020001038277）に合併し解散,2021-10-28,1,,,,,エイチフィルタコントロールズ,0
649,3021002043172,登記記録の閉鎖等,0,2024-11-12,2024-11-11,有限会社一福ランチセンター,,有限会社,神奈川県,座間市,相模が丘４丁目６９番１８号,,14,216,2520001,,,2024-11-11,清算の結了等,,,2015-10-05,1,,,,,,0
662,3030002064161,登記記録の閉鎖等,0,2024-11-12,2024-11-06,有限会社三和硝子工業所,,有限会社,埼玉県,新座市,畑中１丁目１３番１５号,,11,230,3520012,,,2024-11-06,清算の結了等,,,2015-10-05,1,,,,,サンワガラスコウギョウショ,0
674,3040002096030,登記記録の閉鎖等,0,2024-11-12,2024-11-05,有限会社アームス保険事務所,,有限会社,千葉県,柏市,西原１丁目４番３号新川ビル,,12,217,2770885,,,2024-11-05,清算の結了等,,,2015-10-05,1,,,,,アームスホケンジムショ,0
685,3070001036414,登記記録の閉鎖等,0,2024-11-12,2024-11-08,オオテ企画株式会社,,株式会社,群馬県,安中市,磯部１丁目１２番３０号,,10,211,3790127,,,2024-11-08,清算の結了等,,,2019-12-23,1,,,,,オオテキカク,0
688,3080102018062,登記記録の閉鎖等,0,2024-11-12,2024-11-06,有限会社ＨＷ設計建築,,有限会社,静岡県,熱海市,下多賀７７３番地の５,,22,205,4130102,,,2024-11-06,清算の結了等,,,2015-10-05,1,,,,,エイチダブルセッケイケンチク,0
694,3080403003036,登記記録の閉鎖等,0,2024-11-12,2024-11-06,ワイシーピーエーパートナーズ合同会社,,合同会社,静岡県,浜松市中央区,佐鳴台６丁目７番２９号,,22,138,4328021,,,2024-11-06,清算の結了等,,,2015-10-05,1,,,,,ワイシーピーエーパートナーズ,0
702,3110002033736,登記記録の閉鎖等,0,2024-11-12,2024-11-06,有限会社小川屋,,有限会社,新潟県,魚沼市,堀之内３０４番地,,15,225,9497413,,,2024-11-06,清算の結了等,,,2015-10-05,1,,,,,オガワヤ,0
705,3120001114569,登記記録の閉鎖等,0,2024-11-12,2024-11-11,株式会社モナッド＆シード,,株式会社,大阪府,大阪市中央区,谷町６丁目４番８－２０７号,,27,128,5420012,,,2024-11-11,清算の結了等,,,2015-10-05,1,,,,,モナッドアンドシード,0
723,3120102006590,登記記録の閉鎖等,0,2024-11-12,2024-11-08,有限会社ゼペット,,有限会社,大阪府,堺市東区,大美野２２番地の４,,27,143,5998126,,,2024-11-08,清算の結了等,,,2015-10-05,1,,,,,ゼペット,0
724,3120102016094,登記記録の閉鎖等,0,2024-11-12,2024-11-05,有限会社上進電気工業所,,有限会社,大阪府,松原市,丹南６丁目５００番地の８,,27,217,5800013,,,2024-11-05,清算の結了等,,,2015-10-05,1,,,,,ジョウシンデンキコウギョウショ,0
728,3122002009558,登記記録の閉鎖等,0,2024-11-12,2024-11-06,有限会社ライフ・ワン,,有限会社,大阪府,東大阪市,中新開２丁目１３番１６号,,27,227,5780911,,,2024-11-06,清算の結了等,,,2015-10-05,1,,,,,ライフワン,0
743,3140001049870,登記記録の閉鎖等,0,2024-11-12,2024-11-05,タカラ工業株式会社,,株式会社,兵庫県,尼崎市,長洲中通２丁目１６番２２号,,28,202,6600802,,,2024-11-05,清算の結了等,,,2015-10-05,1,,,,,タカラコウギョウ,0
759,3160005008037,登記記録の閉鎖等,0,2024-11-12,2024-11-08,特定非営利活動法人秦の郷,,その他の設立登記法人,滋賀県,東近江市,市原野町２１３９,,25,213,5270224,,,2024-11-08,清算の結了等,,,2015-10-05,1,,,,,ハタノサト,0
779,3220001005782,登記記録の閉鎖等,0,2024-11-12,2024-11-07,平和通信工業株式会社,,株式会社,石川県,金沢市,山の上町９番１６号,,17,201,9200816,,,2024-11-07,清算の結了等,,,2015-10-05,1,,,,,,0
789,3250002000400,登記記録の閉鎖等,0,2024-11-12,2024-11-07,有限会社かぎやメディカル・サービス,,有限会社,山口県,山口市,吉敷下東１丁目１０番１号,,35,203,7530814,,,2024-11-07,清算の結了等,,,2015-10-05,1,,,,,カギヤメディカルサービス,0
790,3250002011513,登記記録の閉鎖等,0,2024-11-12,2024-11-06,有限会社読売新聞姫の水サービスセンター,,有限会社,山口県,下関市,彦島江の浦町９丁目１０番１７号,,35,201,7500075,,,2024-11-06,清算の結了等,,,2015-10-05,1,,,,,ヨミウリシンブンヒメノミズサービスセンター,0
792,3260001002421,登記記録の閉鎖等,0,2024-11-12,2024-11-01,株式会社岡和ビル,,株式会社,岡山県,岡山市北区,西古松２丁目２４番５号,,33,101,7000927,,,2024-11-01,合併による解散等,5260001006230,令和６年１１月１日岡山市北区西古松２３７番地１２６松本ビルマツモト株式会社（5260001006230）に合併し解散,2015-10-05,1,,,,,コウワビル,0
794,3270001001026,登記記録の閉鎖等,0,2024-11-12,2024-11-07,株式会社中村運輸,,株式会社,鳥取県,鳥取市,福部町海士３５９番地１,,31,201,6890106,,,2024-11-07,清算の結了等,,,2015-10-05,1,,,,,ナカムラウンユ,0
796,3290001020156,登記記録の閉鎖等,0,2024-11-12,2024-11-05,株式会社ゼン福岡スタジオ,,株式会社,福岡県,福岡市中央区,渡辺通１丁目１番３号,,40,133,8100004,,,2024-11-05,合併による解散等,4120901028652,令和６年１１月１日大阪市中央区安堂寺町一丁目６番４号株式会社ゼンフオトスタジオ（4120901028652）に合併し解散,2015-10-05,1,,,,,ゼンフクオカスタジオ,0
799,3290801010728,登記記録の閉鎖等,0,2024-11-12,2024-10-30,八幡タクシー株式会社,,株式会社,福岡県,北九州市八幡西区,皇后崎町９番４号,,40,109,8060041,,,2024-10-30,清算の結了等,,,2015-10-05,1,,,,,ヤハタタクシー,0
811,3360005005947,登記記録の閉鎖等,0,2024-11-12,2024-11-01,一般社団法人桜桃,,その他の設立登記法人,沖縄県,うるま市,字前原３８５番地１１,,47,213,9042235,,,2024-11-01,合併による解散等,8360005006073,令和６年１１月１日沖縄県浦添市城間三丁目１３番１３号１０１号室一般社団法人あんびしおん（8360005006073）に合併し解散,2018-11-20,1,,,,,サクランボ,0
876,4010403026505,登記記録の閉鎖等,0,2024-11-12,2024-10-28,合同会社Ｆｉｒｅ　Ｂａｌｌ,,合同会社,東京都,港区,虎ノ門５丁目１番４号,,13,103,1050001,,,2024-10-28,清算の結了等,,,2021-11-11,1,,,,,ファイヤーボール,0
897,4011601021099,登記記録の閉鎖等,0,2024-11-12,2024-11-01,株式会社ＪＵＮＫ　ＦＡＣＥ,,株式会社,東京都,練馬区,南大泉１丁目３６番４号,,13,120,1780064,,,2024-11-01,清算の結了等,,,2016-08-04,1,,,,,ジャンクフェイス,0
898,4011601023236,登記記録の閉鎖等,0,2024-11-12,2024-11-05,株式会社ＩＤＥＡ,,株式会社,東京都,練馬区,西大泉５丁目１６番１４号,,13,120,1780065,,,2024-11-05,清算の結了等,,,2019-04-09,1,,,,,イデア,0
906,4013301049387,登記記録の閉鎖等,0,2024-11-12,2024-11-01,Ｓｐａｒｋｓｍａｇｉｃ株式会社,,株式会社,東京都,豊島区,高松２丁目４０番１４号ジュネスｉ池袋４０１号,,13,116,1710042,,,2024-11-01,清算の結了等,,,2022-07-19,1,,,,,スパークスマジック,0
912,4020001125237,登記記録の閉鎖等,0,2024-11-12,2024-10-23,株式会社ラフィーヌ,,株式会社,神奈川県,横浜市中区,山下町１４９番地,,14,104,2310023,,,2024-10-23,合併による解散等,8020001061305,令和６年１０月２３日横浜市中区山下町９２番地３株式会社王府井（8020001061305）に合併し解散,2018-02-23,1,,,,,ラフィーヌ,0
923,4021001054211,登記記録の閉鎖等,0,2024-11-12,2024-11-11,テクノステップ株式会社,,株式会社,神奈川県,茅ヶ崎市,菱沼海岸２番４３号,,14,207,2530037,,,2024-11-11,清算の結了等,,,2015-10-05,1,,,,,テクノステップ,0
930,4021002057139,登記記録の閉鎖等,0,2024-11-12,2024-11-08,有限会社遠藤商店,,有限会社,神奈川県,平塚市,桜ケ丘１３番４８号,,14,203,2540053,,,2024-11-08,清算の結了等,,,2015-10-05,1,,,,,エンドウショウテン,0
944,4030002021277,登記記録の閉鎖等,0,2024-11-12,2024-11-06,有限会社セキトミ,,有限会社,埼玉県,さいたま市岩槻区,西町１丁目５番１０号,,11,110,3390067,,,2024-11-06,清算の結了等,,,2015-10-05,1,,,,,セキトミ,0
950,4030005005946,登記記録の閉鎖等,0,2024-11-12,2024-11-06,特定非営利活動法人さわやかたすけあい草加,,その他の設立登記法人,埼玉県,草加市,谷塚町８２８番地１２,,11,221,3400023,,,2024-11-06,清算の結了等,,,2015-10-05,1,,,,,サワヤカタスケアイソウカ,0
951,4040001008522,登記記録の閉鎖等,0,2024-11-12,2024-11-08,株式会社エスケーワイ,,株式会社,千葉県,千葉市緑区,あすみが丘４丁目３９番地５－３０８,,12,105,2670066,,,2024-11-08,合併による解散等,3011801027376,令和６年１０月１日東京都足立区鹿浜三丁目３番３号株式会社アベルコ（3011801027376）に合併し解散,2015-10-05,1,,,,,エスケーワイ,0
953,4040001087302,登記記録の閉鎖等,0,2024-11-12,2024-11-01,株式会社Ｍａｉｋａ’ｉ,,株式会社,千葉県,船橋市,高根台７丁目２番２５号,,12,204,2740065,,,2024-11-01,合併による解散等,5040002082045,令和６年１１月１日千葉県茂原市緑ケ丘四丁目６－３株式会社ＡＬＴＷＥＬＬ（5040002082045）に合併し解散,2015-10-05,1,,,,,マイカイ,0
973,4070002036759,登記記録の閉鎖等,0,2024-11-12,2024-11-07,有限会社福田製作所,,有限会社,群馬県,吾妻郡中之条町,大字西中之条１７２５番地の２,,10,421,3770425,,,2024-11-07,清算の結了等,,,2015-10-05,1,,,,,フクダセイサクショ,0
978,4080402009743,登記記録の閉鎖等,0,2024-11-12,2024-11-06,有限会社むらた,,有限会社,静岡県,湖西市,新居町新居３３７９番地の４６,,22,221,4310302,,,2024-11-06,清算の結了等,,,2015-10-05,1,,,,,ムラタ,0
990,4120001002269,登記記録の閉鎖等,0,2024-11-12,2024-11-07,トキワブロツク工業株式会社,,株式会社,大阪府,大阪市鶴見区,緑２丁目１番２４号,,27,124,5380054,,,2024-11-07,清算の結了等,,,2015-10-05,1,,,,,トキワブロツクコウギョウ,0
991,4120001029840,登記記録の閉鎖等,0,2024-11-12,2024-11-07,マル井製麺株式会社,00027989,株式会社,大阪府,大阪市港区,池島１丁目２番２５号,,27,107,5520015,,,2024-11-07,清算の結了等,,,2015-10-05,1,,,,,マルイセイメン,0
993,4120001240059,登記記録の閉鎖等,0,2024-11-12,2024-11-07,Ｎｏ８株式会社,,株式会社,大阪府,大阪市中央区,東心斎橋２丁目６－１９－１１１,,27,128,5420083,,,2024-11-07,清算の結了等,,,2021-08-31,1,,,,,ナンバーエイト,0
1005,4120003022389,登記記録の閉鎖等,0,2024-11-12,2024-11-06,合同会社ＥＲＩＫＡ,,合同会社,大阪府,大阪市北区,梅田１丁目１番３号大阪駅前第３ビル２９階１－１－１号室,,27,127,5300001,,,2024-11-06,清算の結了等,,,2022-09-08,1,,,,,エリカ,0
1008,4120102012968,登記記録の閉鎖等,0,2024-11-12,2024-11-06,有限会社ドゥーエ,,有限会社,大阪府,堺市中区,土師町２丁２７番３７号,,27,142,5998238,,,2024-11-06,清算の結了等,,,2015-10-05,1,,,,,ドゥーエ,0
1017,4130002009543,登記記録の閉鎖等,0,2024-11-12,2024-11-07,有限会社わくた,,有限会社,京都府,京都市右京区,太秦椙ケ本町５番地８,,26,108,6168126,,,2024-11-07,清算の結了等,,,2015-10-05,1,,,,,ワクタ,0
1019,4140001029203,登記記録の閉鎖等,0,2024-11-12,2024-11-07,株式会社ライフクリエイター,,株式会社,兵庫県,神戸市東灘区,深江南町１丁目１６番７－２１０,,28,101,6580022,,,2024-11-07,清算の結了等,,,2015-10-05,1,,,,,ライフクリエイター,0
1022,4140002005302,登記記録の閉鎖等,0,2024-11-12,2024-11-01,有限会社都屋クリーニング,,有限会社,兵庫県,神戸市西区,伊川谷町潤和７２４番４号,,28,111,6512124,,,2024-11-01,清算の結了等,,,2015-10-05,1,,,,,ミヤコヤクリーニング,0
1023,4140002022941,登記記録の閉鎖等,0,2024-11-12,2024-11-06,有限会社ナカヨシ保険事務所,,有限会社,兵庫県,芦屋市,業平町２番１７号,,28,206,6590068,,,2024-11-06,清算の結了等,,,2015-10-05,1,,,,,ナカヨシホケンジムショ,0
1025,4140002046461,登記記録の閉鎖等,0,2024-11-12,2024-11-05,有限会社山和商店,,有限会社,兵庫県,美方郡香美町,香住区一日市２００番地１,,28,585,6696542,,,2024-11-05,清算の結了等,,,2015-10-05,1,,,,,ヤマワショウテン,0
1033,4160002007973,登記記録の閉鎖等,0,2024-11-12,2024-11-08,有限会社大薮酒店,,有限会社,滋賀県,彦根市,大藪町１８６４番地の２,,25,202,5220053,,,2024-11-08,清算の結了等,,,2015-10-05,1,,,,,オオヤブサケテン,0
1037,4170001013600,登記記録の閉鎖等,0,2024-11-12,2024-11-01,日交自動車株式会社,,株式会社,和歌山県,和歌山市,中之島２２８７番地,,30,201,6408392,,,2024-11-01,合併による解散等,6170001003475,令和６年１１月１日和歌山市中之島２２８７番地ユタカ交通株式会社（6170001003475）に合併し解散,2015-10-05,1,,,,,ニッコウジドウシャ,0
1038,4170002009853,登記記録の閉鎖等,0,2024-11-12,2024-11-08,有限会社ストリーム,,有限会社,和歌山県,西牟婁郡上富田町,朝来３５２０番地の１１,,30,404,6492105,,,2024-11-08,清算の結了等,,,2015-10-05,1,,,,,ストリーム,0
1048,4180301033693,登記記録の閉鎖等,0,2024-11-12,2024-11-05,株式会社バディ＆シップ,,株式会社,愛知県,高浜市,小池町６丁目５番地６,,23,227,4441303,,,2024-11-05,清算の結了等,,,2020-05-13,1,,,,,バディアンドシップ,0
1054,4220001022050,登記記録の閉鎖等,0,2024-11-12,2024-11-06,株式会社ミント,,株式会社,石川県,金沢市,芳斉１丁目１４番２４号,,17,201,9200862,,,2024-11-06,清算の結了等,,,2018-01-09,1,,,,,ミント,0
1068,4290001038593,登記記録の閉鎖等,0,2024-11-12,2024-10-01,マルキ物流株式会社,,株式会社,福岡県,糟屋郡志免町,田富１丁目５番１号,,40,343,8112204,,,2024-10-01,合併による解散等,4290001004117,令和６年１０月１日福岡県糟屋郡志免町田富一丁目５番１号株式会社マルキ（4290001004117）に合併し解散,2015-10-05,1,,,,,,0
1076,4310002015804,登記記録の閉鎖等,0,2024-11-12,2024-11-11,株式会社ＫＭＯ,,株式会社,長崎県,諫早市,小長井町小川原浦８０８番地,,42,204,8590165,,,2024-11-11,清算の結了等,,,2015-10-05,1,,,,,ケイエムオー,0
1077,4320001006951,登記記録の閉鎖等,0,2024-11-12,2024-11-08,株式会社おおいた観光サービス,,株式会社,大分県,別府市,新港町９４２番５号,,44,202,8740923,,,2024-11-08,清算の結了等,,,2015-10-05,1,,,,,オオイタカンコウサービス,0
1081,4330002011108,登記記録の閉鎖等,0,2024-11-12,2024-11-05,有限会社佑和商会,,有限会社,熊本県,熊本市南区,田迎町大字田迎２８７番地９,,43,104,8610000,,,2024-11-05,清算の結了等,,,2015-10-05,1,,,,,ユウワショウカイ,0
1088,4380001028362,登記記録の閉鎖等,0,2024-11-12,2024-10-28,株式会社益壮,,株式会社,福島県,岩瀬郡天栄村,大字飯豊字上原３８番地,,07,344,9620512,,,2024-10-28,清算の結了等,,,2017-08-08,1,,,,,,0
1095,4410002009473,登記記録の閉鎖等,0,2024-11-12,2024-11-05,ニシ鉄工有限会社,,有限会社,秋田県,北秋田市,伊勢町３番４６号,,05,213,0183314,,,2024-11-05,清算の結了等,,,2015-10-05,1,,,,,,0
1097,4420002008029,登記記録の閉鎖等,0,2024-11-12,2024-11-07,有限会社中村製麺所,00087604,有限会社,青森県,八戸市,大字十八日町２１番地,,02,203,0310084,,,2024-11-07,清算の結了等,,,2015-10-05,1,,,,,ナカムラセイメンジョ,0
1099,4430001079838,登記記録の閉鎖等,0,2024-11-12,2024-11-05,株式会社Ｎ４３イストラテジア,,株式会社,北海道,札幌市北区,東茨戸四条１丁目１０番２０号,,01,102,0028045,,,2024-11-05,清算の結了等,,,2019-09-17,1,,,,,エヌヨンサンイストラテジア,0
1105,4460302000061,登記記録の閉鎖等,0,2024-11-12,2024-11-11,有限会社朝日印刷,,有限会社,北海道,北見市,端野町端野１番地２,,01,208,0992104,,,2024-11-11,清算の結了等,,,2015-10-05,1,,,,,アサヒインサツ,0
1118,5010001190124,登記記録の閉鎖等,0,2024-11-12,2024-11-07,株式会社アルカナ,,株式会社,山梨県,甲府市,朝日１丁目９番１２号,,19,201,4000025,,,2024-11-07,清算の結了等,,,2018-03-07,1,,,,,アルカナ,0
1123,5010003034015,登記記録の閉鎖等,0,2024-11-12,2024-10-29,日光Ｐｌｕｓ１５合同会社５,,合同会社,東京都,千代田区,丸の内３丁目１番１号東京共同会計事務所内,,13,101,1000005,,,2024-10-29,清算の結了等,,,2021-01-27,1,,,,,ニッコウプラスフィフティーンゴ,0
1148,5010401142798,登記記録の閉鎖等,0,2024-11-12,2024-10-28,衛元株式会社,,株式会社,東京都,港区,港南２丁目１５番１号品川インターシティＡ棟２８階,,13,103,1080075,,,2024-10-28,清算の結了等,,,2018-12-26,1,,,,,エイゲン,0
1152,5010401177448,登記記録の閉鎖等,0,2024-11-12,2024-10-29,株式会社Ｌｉｇｈｔｓ,,株式会社,東京都,港区,北青山１丁目３番１号アールキューブ青山３階,,13,103,1070061,,,2024-10-29,清算の結了等,,,2023-10-04,1,,,,,ライツ,0
1159,5010701022320,登記記録の閉鎖等,0,2024-11-12,2024-11-06,株式会社ＲＩＫＩ,,株式会社,東京都,荒川区,東日暮里４丁目２０－１－５０１号,,13,118,1160014,,,2024-11-06,清算の結了等,,,2015-10-05,1,,,,,,0
1174,5011103011614,登記記録の閉鎖等,0,2024-11-12,2024-11-01,ＬＲＦ２プロパティーズ合同会社,,合同会社,東京都,新宿区,四谷２丁目９番地１５東京ユナイテッド綜合事務所内,,13,104,1600004,,,2024-11-01,清算の結了等,,,2022-03-29,1,,,,,エルアールエフツープロパティーズ,0
1175,5011105008690,登記記録の閉鎖等,0,2024-11-12,2024-11-01,一般社団法人ジェイ・エイチ・シー,,その他の設立登記法人,東京都,新宿区,下宮比町１番４号,,13,104,1620822,,,2024-11-01,清算の結了等,,,2019-02-08,1,,,,,ジェイエイチシー,0
1182,5011801030857,登記記録の閉鎖等,0,2024-11-12,2024-11-01,株式会社トライケア紬,,株式会社,東京都,葛飾区,金町６丁目７番６号１００１号室,,13,122,1250042,,,2024-11-01,合併による解散等,6011801026326,令和６年１１月１日東京都足立区千住五丁目１番１０号株式会社トライケア（6011801026326）に合併し解散,2015-10-05,1,,,,,トライケアツムギ,0
1183,5011801033744,登記記録の閉鎖等,0,2024-11-12,2024-11-07,株式会社ＲｅＭＩＣ,,株式会社,東京都,足立区,保塚町１９番１６号,,13,121,1210072,,,2024-11-07,清算の結了等,,,2017-08-14,1,,,,,リミック,0
1190,5012401017848,登記記録の閉鎖等,0,2024-11-12,2024-10-29,株式会社ミツワ塗装,,株式会社,東京都,国分寺市,本多３丁目１３番１３号,,13,214,1850011,,,2024-10-29,清算の結了等,,,2015-10-05,1,,,,,ミツワトソウ,0
1196,5020001083624,登記記録の閉鎖等,0,2024-11-12,2024-10-24,株式会社アビエーション・テクノ,,株式会社,神奈川県,横浜市泉区,中田南４丁目４５番１４号,,14,116,2450014,,,2024-10-24,清算の結了等,,,2015-10-05,1,,,,,アビエーションテクノ,0
1203,5020002036085,登記記録の閉鎖等,0,2024-11-12,2024-10-25,有限会社美浜電装,,有限会社,神奈川県,横浜市港北区,樽町２丁目７番２号,,14,109,2220001,,,2024-10-25,清算の結了等,,,2015-10-05,1,,,,,ミハマデンソウ,0
1204,5020002046349,登記記録の閉鎖等,0,2024-11-12,2024-10-24,有限会社インテリア布施,,有限会社,神奈川県,横浜市瀬谷区,三ツ境１１１番地の７パークヒルズ三ッ境Ａ－３０１,,14,114,2460022,,,2024-10-24,清算の結了等,,,2015-10-05,1,,,,,インテリアフセ,0
1211,5021001022316,登記記録の閉鎖等,0,2024-11-12,2024-11-08,株式会社彩池園,,株式会社,神奈川県,愛甲郡愛川町,半原４３１４番地,,14,401,2430307,,,2024-11-08,清算の結了等,,,2015-10-05,1,,,,,,0
1215,5021002047072,登記記録の閉鎖等,0,2024-11-12,2024-11-08,有限会社山辺製作所,,有限会社,神奈川県,綾瀬市,上土棚中３丁目１０番２号,,14,218,2521113,,,2024-11-08,清算の結了等,,,2015-10-05,1,,,,,ヤマベセイサクジョ,0
1233,5030002121043,登記記録の閉鎖等,0,2024-11-12,2024-11-05,有限会社たかしな,,有限会社,埼玉県,日高市,大字旭ケ丘１０７番地,,11,242,3501203,,,2024-11-05,清算の結了等,,,2015-10-05,1,,,,,タカシナ,0
1246,5040002088620,登記記録の閉鎖等,0,2024-11-12,2024-11-05,有限会社赤かぶや,,有限会社,千葉県,流山市,西平井２丁目２２番地の４,,12,220,2700156,,,2024-11-05,清算の結了等,,,2015-10-05,1,,,,,アカカブヤ,0
1251,5050001015871,登記記録の閉鎖等,0,2024-11-12,2024-10-31,株式会社つくばホーム,,株式会社,茨城県,つくば市,緑が丘１７番地９,,08,220,3050863,,,2024-10-31,清算の結了等,,,2015-10-05,1,,,,,ツクバホーム,0
1263,5090002008292,登記記録の閉鎖等,0,2024-11-12,2024-11-07,有限会社ケーキハウス・ミサワ,,有限会社,山梨県,笛吹市,石和町市部４６１番地３,,19,211,4060031,,,2024-11-07,清算の結了等,,,2015-10-05,1,,,,,ケーキハウスミサワ,0
1271,5100003004669,登記記録の閉鎖等,0,2024-11-12,2024-10-31,合同会社共育,,合同会社,長野県,諏訪市,高島２丁目１２０１番地４２,,20,206,3920022,,,2024-10-31,清算の結了等,,,2017-05-02,1,,,,,キョウイク,0
1274,5120001027703,登記記録の閉鎖等,0,2024-11-12,2024-11-07,タカギ住宅株式会社,,株式会社,大阪府,大阪市大正区,三軒家東５丁目１２番１号,,27,108,5510002,,,2024-11-07,清算の結了等,,,2015-10-05,1,,,,,タカギジュウタク,0
1278,5120001115920,登記記録の閉鎖等,0,2024-11-12,2024-11-06,株式会社光興産,,株式会社,大阪府,大阪市中央区,日本橋２丁目１５番１７号,,27,128,5420073,,,2024-11-06,合併による解散等,1120001080441,令和６年１１月２日大阪市中央区日本橋二丁目１５番１７号株式会社三光園（1120001080441）に合併し解散,2015-10-05,1,,,,,ヒカリコウサン,0
1279,5120001172367,登記記録の閉鎖等,0,2024-11-12,2024-11-07,株式会社ＢＵＤＤＹ,,株式会社,大阪府,守口市,大久保町５丁目２０番４－１０１号,,27,209,5700012,,,2024-11-07,清算の結了等,,,2015-10-05,1,,,,,,0
1280,5120001179684,登記記録の閉鎖等,0,2024-11-12,2024-11-11,株式会社三枝,,株式会社,大阪府,寝屋川市,松屋町６番１０号,,27,215,5720086,,,2024-11-11,清算の結了等,,,2015-10-05,1,,,,,ミツエダ,0
1285,5120001250098,登記記録の閉鎖等,0,2024-11-12,2024-11-11,株式会社モクレン,,株式会社,大阪府,大阪市東住吉区,東田辺１丁目１６番２０号,,27,121,5460032,,,2024-11-11,清算の結了等,,,2022-11-08,1,,,,,モクレン,0
1294,5120003024252,登記記録の閉鎖等,0,2024-11-12,2024-11-05,合同会社パック,,合同会社,大阪府,大阪市北区,梅田１丁目２番２号大阪駅前第２ビル１２‐１２,,27,127,5300001,,,2024-11-05,清算の結了等,,,2023-06-07,1,,,,,パック,0
1317,5140001117956,登記記録の閉鎖等,0,2024-11-12,2024-11-07,株式会社明日香珈琲店,,株式会社,兵庫県,加古川市,平岡町新在家４６２,,28,210,6750101,,,2024-11-07,清算の結了等,,,2020-07-09,1,,,,,アスカコーヒーテン,0
1324,5140003008146,登記記録の閉鎖等,0,2024-11-12,2024-11-06,合名会社浅野組,,合名会社,兵庫県,川西市,小花１丁目９番１３号,,28,217,6660015,,,2024-11-06,清算の結了等,,,2024-08-16,1,,,,,アサノグミ,0
1329,5180003003960,登記記録の閉鎖等,0,2024-11-12,2024-11-01,合資会社丸正商事,,合資会社,愛知県,名古屋市西区,上名古屋４丁目２番２６号,,23,104,4510025,,,2024-11-01,清算の結了等,,,2015-10-05,1,,,,,マルショウショウジ,0
1332,5200001004594,登記記録の閉鎖等,0,2024-11-12,2024-11-07,株式会社フリーダム,,株式会社,岐阜県,岐阜市,南蝉１丁目５２番地,,21,201,5020852,,,2024-11-07,清算の結了等,,,2015-10-05,1,,,,,フリーダム,0
1341,5250001006330,登記記録の閉鎖等,0,2024-11-12,2024-11-05,穂波物産株式会社,,株式会社,山口県,下関市,伊崎町１丁目３番７号,,35,201,7500065,,,2024-11-05,清算の結了等,,,2015-10-05,1,,,,,,0
1350,5260002009645,登記記録の閉鎖等,0,2024-11-12,2024-11-06,有限会社水谷,,有限会社,岡山県,岡山市北区,東島田町１丁目２番１１－８０３号,,33,101,7000983,,,2024-11-06,清算の結了等,,,2015-10-05,1,,,,,ミズタニ,0
1353,5260002023852,登記記録の閉鎖等,0,2024-11-12,2024-11-05,津神工業有限会社,,有限会社,岡山県,総社市,南溝手４３８－１,,33,208,7191113,,,2024-11-05,清算の結了等,,,2015-10-05,1,,,,,ツガミコウギョウ,0
1364,5300002004922,登記記録の閉鎖等,0,2024-11-12,2024-11-11,有限会社辻洗,00095290,有限会社,佐賀県,佐賀市,大和町大字川上５４５３－５,,41,201,8400214,,,2024-11-11,清算の結了等,,,2015-10-05,1,,,,,ツジセン,0
1365,5320002019209,登記記録の閉鎖等,0,2024-11-12,2024-11-08,有限会社タカセ・インテリアコーティング,,有限会社,大分県,日田市,亀山町４番１５号,,44,204,8770045,,,2024-11-08,清算の結了等,,,2015-10-05,1,,,,,タカセインテリアコーティング,0
1371,5340002014240,登記記録の閉鎖等,0,2024-11-12,2024-10-31,有限会社森食品工業所,,有限会社,鹿児島県,霧島市,隼人町眞孝１２６５番地,,46,218,8994300,,,2024-10-31,清算の結了等,,,2015-10-05,1,,,,,モリショクヒンコウギョウショ,0
1387,5380001013875,登記記録の閉鎖等,0,2024-11-12,2024-11-01,丸栄瓦建材株式会社,,株式会社,福島県,いわき市,泉町本谷字作１１２番地,,07,204,9718181,,,2024-11-01,合併による解散等,7380001013873,令和６年１１月１日福島県いわき市泉町本谷字作３５番地株式会社マルエイ（7380001013873）に合併し解散,2015-10-05,1,,,,,マルエイカワラケンザイ,0
1391,5380005001991,登記記録の閉鎖等,0,2024-11-12,2024-10-29,医療法人石川クリニック,,その他の設立登記法人,福島県,伊達市,保原町字半道１８番地１,,07,213,9600635,,,2024-10-29,清算の結了等,,,2015-10-05,1,,,,,イシカワクリニック,0
1394,5390002014896,登記記録の閉鎖等,0,2024-11-12,2024-11-01,有限会社佐藤ボーリング,,有限会社,山形県,長井市,寺泉１２９８番地の４,,06,209,9930061,,,2024-11-01,清算の結了等,,,2015-10-05,1,,,,,サトウボーリング,0
1395,5390002016125,登記記録の閉鎖等,0,2024-11-12,2024-10-31,有限会社フルーツ館おおえ,,有限会社,山形県,西村山郡大江町,大字藤田５２２番地,,06,324,9901121,,,2024-10-31,清算の結了等,,,2015-10-05,1,,,,,フルーツカンオオエ,0
1402,5430001076660,登記記録の閉鎖等,0,2024-11-12,2024-11-07,株式会社クルーズ,,株式会社,北海道,札幌市北区,北九条西３丁目１番地１パワービル札幌駅前,,01,102,0600809,,,2024-11-07,清算の結了等,,,2018-05-30,1,,,,,クルーズ,0
1408,5430002054285,登記記録の閉鎖等,0,2024-11-12,2024-11-05,有限会社クリーンドライマエダ,,有限会社,北海道,小樽市,新光１丁目３９番１０号,,01,203,0470152,,,2024-11-05,清算の結了等,,,2015-10-05,1,,,,,クリーンドライマエダ,0
1412,5430003010972,登記記録の閉鎖等,0,2024-11-12,2024-11-05,合同会社ミツグ,,合同会社,北海道,札幌市北区,太平八条４丁目７番８号,,01,102,0028008,,,2024-11-05,清算の結了等,,,2019-11-13,1,,,,,ミツグ,0
1420,5500002020965,登記記録の閉鎖等,0,2024-11-12,2024-11-07,有限会社石川鶏肉店,,有限会社,愛媛県,四国中央市,三島宮川３丁目１４番１０号,,38,213,7990404,,,2024-11-07,清算の結了等,,,2015-10-05,1,,,,,イシカワケイニクテン,0
1429,6010003021037,登記記録の閉鎖等,0,2024-11-12,2024-10-29,日光４９田園調布レディース合同会社,,合同会社,東京都,千代田区,丸の内３丁目１番１号東京共同会計事務所内,,13,101,1000005,,,2024-10-29,清算の結了等,,,2015-10-05,1,,,,,ニッコウフォーティーナインデンエンチョウフレディース,0
1464,6010401141816,登記記録の閉鎖等,0,2024-11-12,2024-10-29,株式会社ＢＩＯＷＩＺ,,株式会社,東京都,港区,海岸２丁目６番３１号日建ビル７階,,13,103,1050022,,,2024-10-29,清算の結了等,,,2018-11-02,1,,,,,ビオウィズ,0
1465,6010403020167,登記記録の閉鎖等,0,2024-11-12,2024-10-29,合同会社クリニカルネットワーク,,合同会社,東京都,港区,赤坂１丁目８番１号,,13,103,1070052,,,2024-10-29,清算の結了等,,,2019-02-13,1,,,,,クリニカルネットワーク,0
1474,6010902002822,登記記録の閉鎖等,0,2024-11-12,2024-11-08,有限会社エムアイユー建築計画事務所,,有限会社,神奈川県,川崎市麻生区,片平２丁目２２番１号住真マンション２０５,,14,137,2150023,,,2024-11-08,清算の結了等,,,2015-10-05,1,,,,,エムアイユーケンチクケイカクジムショ,0
1476,6010902022085,登記記録の閉鎖等,0,2024-11-12,2024-11-06,有限会社ライフワーク,,有限会社,東京都,世田谷区,野沢３丁目１１番３号,,13,112,1540003,,,2024-11-06,清算の結了等,,,2015-10-05,1,,,,,ライフワーク,0
1492,6011103009120,登記記録の閉鎖等,0,2024-11-12,2024-11-01,合同会社ジェイ・ヴイ・ケイ,,合同会社,東京都,新宿区,下宮比町１番４号,,13,104,1620822,,,2024-11-01,清算の結了等,,,2019-09-25,1,,,,,ジェイヴイケイ,0
1509,6012401037754,登記記録の閉鎖等,0,2024-11-12,2024-10-31,トラストハート株式会社,,株式会社,東京都,府中市,本町１丁目１２番地の２オウズ御殿山３０２,,13,206,1830027,,,2024-10-31,清算の結了等,,,2021-04-09,1,,,,,トラストハート,0
1534,6030001056966,登記記録の閉鎖等,0,2024-11-12,2024-11-07,株式会社真和,,株式会社,埼玉県,川越市,かすみ野２丁目４番地４,,11,201,3501174,,,2024-11-07,清算の結了等,,,2015-10-05,1,,,,,シンワ,0
1539,6030001123584,登記記録の閉鎖等,0,2024-11-12,2024-11-05,株式会社テクニカル・アシスト藤枝,,株式会社,埼玉県,草加市,柳島町２４５番地２,,11,221,3400033,,,2024-11-05,清算の結了等,,,2017-12-25,1,,,,,テクニカルアシストフジエダ,0
1552,6030002071064,登記記録の閉鎖等,0,2024-11-12,2024-11-08,有限会社ベルコスモエンタープライズ,,有限会社,埼玉県,春日部市,上柳１３５８番地１,,11,214,3440121,,,2024-11-08,清算の結了等,,,2015-10-05,1,,,,,ベルコスモエンタープライズ,0
1553,6030002078555,登記記録の閉鎖等,0,2024-11-12,2024-11-05,有限会社サニーサイドアップ,,有限会社,埼玉県,川越市,仙波町１丁目１３番地１１,,11,201,3500034,,,2024-11-05,清算の結了等,,,2015-10-05,1,,,,,サニーサイドアップ,0
1554,6030002096160,登記記録の閉鎖等,0,2024-11-12,2024-11-05,有限会社野村和三郎商店,,有限会社,埼玉県,東松山市,箭弓町１丁目４番５号サンデュエル東松山１００６,,11,212,3550028,,,2024-11-05,清算の結了等,,,2015-10-05,1,,,,,ノムラワサブロウショウテン,0
1560,6040001116521,登記記録の閉鎖等,0,2024-11-12,2024-11-05,株式会社ＳＩＺ,,株式会社,千葉県,佐倉市,上志津１０４３番地６,,12,212,2850846,,,2024-11-05,清算の結了等,,,2021-01-04,1,,,,,エスアイゼット,0
1566,6050002029746,登記記録の閉鎖等,0,2024-11-12,2024-11-01,有限会社酒井工業,,有限会社,茨城県,鉾田市,鉾田５７７番地の１０,,08,234,3111517,,,2024-11-01,清算の結了等,,,2015-10-05,1,,,,,サカイコウギョウ,0
1574,6060001030464,登記記録の閉鎖等,0,2024-11-12,2024-11-01,株式会社マリム・インターナショナル,,株式会社,栃木県,小山市,城北４丁目３４番地２２,,09,208,3230029,,,2024-11-01,清算の結了等,,,2018-04-18,1,,,,,マリムインターナショナル,0
1576,6060002023269,登記記録の閉鎖等,0,2024-11-12,2024-11-05,有限会社弁天,,有限会社,栃木県,那須郡那須町,大字湯本１５７番地,,09,407,3250301,,,2024-11-05,清算の結了等,,,2015-10-05,1,,,,,ベンテン,0
1581,6080402005105,登記記録の閉鎖等,0,2024-11-12,2024-11-06,鶴田精機有限会社,,有限会社,静岡県,浜松市中央区,野口町６３０番地,,22,138,4300919,,,2024-11-06,清算の結了等,,,2015-10-05,1,,,,,ツルタセイキ,0
1613,6120003016810,登記記録の閉鎖等,0,2024-11-12,2024-11-08,合同会社トラストリンク,,合同会社,大阪府,大阪市淀川区,西中島４丁目１３番２４号花原第３ビル８階,,27,123,5320011,,,2024-11-08,清算の結了等,,,2020-01-09,1,,,,,トラストリンク,0
1624,6130003004450,登記記録の閉鎖等,0,2024-11-12,2024-11-07,きのこぽこぽこ合同会社,,合同会社,京都府,与謝郡与謝野町,字滝９４１－２,,26,465,6292422,,,2024-11-07,清算の結了等,,,2015-12-07,1,,,,,キノコポコポコ,0
1626,6130005004184,登記記録の閉鎖等,0,2024-11-12,2024-11-07,医療法人社団悠和会松島医院,,その他の設立登記法人,京都府,京都市下京区,仏光寺通大宮西入坊門町７８１番地,,26,106,6008388,,,2024-11-07,清算の結了等,,,2015-10-05,1,,,,,ユウワカイマツシマイイン,0
1642,6140002034316,登記記録の閉鎖等,0,2024-11-12,2024-11-06,有限会社木村タンス店,,有限会社,兵庫県,赤穂市,加里屋２１７３番地,,28,212,6780239,,,2024-11-06,清算の結了等,,,2015-10-05,1,,,,,キムラタンステン,0
1672,6180302007901,登記記録の閉鎖等,0,2024-11-12,2024-11-01,シンクタンクケーツー有限会社,,有限会社,愛知県,豊橋市,下地町字宮腰３３番地,,23,201,4400084,,,2024-11-01,合併による解散等,6180301007415,令和６年１１月１日愛知県豊橋市下地町字宮腰３３番地株式会社モミヂヤ（6180301007415）に合併し解散,2015-10-05,1,,,,,シンクタンクケーツー,0
1679,6220002008278,登記記録の閉鎖等,0,2024-11-12,2024-11-07,有限会社倖勢,,有限会社,石川県,河北郡内灘町,字千鳥台３丁目６８番地,,17,365,9200277,,,2024-11-07,清算の結了等,,,2015-10-05,1,,,,,コウセイ,0
1681,6220002012775,登記記録の閉鎖等,0,2024-11-12,2024-11-07,有限会社フクシマ,,有限会社,石川県,加賀市,箱宮町ム１１６番地,,17,206,9220303,,,2024-11-07,清算の結了等,,,2015-10-05,1,,,,,フクシマ,0
1682,6230001007627,登記記録の閉鎖等,0,2024-11-12,2024-11-06,池田電設興業株式会社,,株式会社,富山県,黒部市,宇奈月町内山２３６８番地,,16,207,9380281,,,2024-11-06,清算の結了等,,,2015-10-05,1,,,,,イケダデンセツコウギョウ,0
1691,6240002053990,登記記録の閉鎖等,0,2024-11-12,2024-11-06,有限会社前東組,,有限会社,広島県,三原市,本郷町善入寺１０２番地,,34,204,7290416,,,2024-11-06,清算の結了等,,,2015-10-05,1,,,,,マエヒガシグミ,0
1693,6250001013103,登記記録の閉鎖等,0,2024-11-12,2024-11-08,株式会社石本,,株式会社,山口県,下関市,貴船町３丁目１番３３号,,35,201,7510823,,,2024-11-08,清算の結了等,,,2015-10-05,1,,,,,イシモト,0
1705,6290001023387,登記記録の閉鎖等,0,2024-11-12,2024-10-04,株式会社ジャパンエンタープライズ,,株式会社,福岡県,福岡市博多区,博多駅前１丁目１番１号Ｂ１博多新三井ビル,,40,132,8120011,,,2024-10-04,清算の結了等,,,2015-10-05,1,,,,,ジャパンエンタープライズ,0
1724,6340001016749,登記記録の閉鎖等,0,2024-11-12,2024-11-08,Ｓｙｃｎ　Ｊａｐａｎ株式会社,,株式会社,鹿児島県,鹿児島市,西千石町１２番９号,,46,201,8920847,,,2024-11-08,清算の結了等,,,2015-10-05,1,,,,,シーケンジャパン,0
1725,6340001020338,登記記録の閉鎖等,0,2024-11-12,2024-11-08,Ｊｒ．Ｚｅｒｏ株式会社,,株式会社,鹿児島県,鹿児島市,西千石町１２番９号（１Ｆ）,,46,201,8920847,,,2024-11-08,清算の結了等,,,2017-06-07,1,,,,,ジュニアゼロ,0
1731,6340005005970,登記記録の閉鎖等,0,2024-11-12,2024-11-07,医療法人橋口歯科医院,,その他の設立登記法人,鹿児島県,南九州市,川辺町平山３０３８番地１,,46,223,8970215,,,2024-11-07,清算の結了等,,,2015-10-05,1,,,,,ハシグチシカイイン,0
1738,6370003005771,登記記録の閉鎖等,0,2024-11-12,2024-11-01,合同会社ＹＳＤマネジメント,,合同会社,宮城県,仙台市宮城野区,宮千代１丁目２７番地の１７,,04,102,9830044,,,2024-11-01,清算の結了等,,,2022-07-13,1,,,,,ワイエスディマネジメント,0
1741,6380001014088,登記記録の閉鎖等,0,2024-11-12,2024-10-31,ジグプラス株式会社,,株式会社,福島県,いわき市,川部町川原５１番地,,07,204,9790153,,,2024-10-31,清算の結了等,,,2015-10-05,1,,,,,,0
1743,6380001024194,登記記録の閉鎖等,0,2024-11-12,2024-10-31,株式会社常和,,株式会社,福島県,いわき市,平字愛谷町二丁目８番地の３,,07,204,9708026,,,2024-10-31,清算の結了等,,,2015-10-05,1,,,,,,0
1757,6470005004951,登記記録の閉鎖等,0,2024-11-12,2024-11-06,一般財団法人小豆島産業科学研究所,,その他の設立登記法人,香川県,小豆郡小豆島町,苗羽甲１３５６番地４,,37,324,7614421,,,2024-11-06,清算の結了等,,,2015-10-05,1,,,,,ショウドシマサンギョウカガクケンキュウショ,0
1764,7010001024362,登記記録の閉鎖等,0,2024-11-12,2024-10-29,東興コンサルタント株式会社,,株式会社,東京都,千代田区,麹町３丁目５番８号麹町センタービル７階,00060408,13,101,1020083,,,2024-10-29,清算の結了等,,,2015-10-05,1,,,,,トウコウコンサルタント,0
1765,7010001038767,登記記録の閉鎖等,0,2024-11-12,2024-10-29,エヌエス・ビルサービス株式会社,,株式会社,東京都,千代田区,岩本町１丁目４番４号神田第４パークビル７階,,13,101,1010032,,,2024-10-29,清算の結了等,,,2015-10-05,1,,,,,エヌエスビルサービス,0
1796,7010401131502,登記記録の閉鎖等,0,2024-11-12,2024-11-01,株式会社Ｌｃｏｄｅ,,株式会社,大阪府,大阪市中央区,西心斎橋１丁目５番５号アーバンＢＬＤ心斎橋６階,,27,128,5420086,,,2024-11-01,合併による解散等,2120001257996,令和６年１１月１日大阪市中央区西心斎橋一丁目５番５号アーバンＢＬＤ心斎橋６階株式会社Ｌｃｏｄｅ（2120001257996）に合併し解散,2017-05-15,1,,,,,エルコード,0
1806,7010601030628,登記記録の閉鎖等,0,2024-11-12,2024-11-08,富士プリンティング株式会社,,株式会社,東京都,墨田区,立川３丁目１３番９号,,13,107,1300023,,,2024-11-08,清算の結了等,,,2015-10-05,1,,,,,,0
1814,7011001051116,登記記録の閉鎖等,0,2024-11-12,2024-10-31,株式会社ＹＡＲＮ　ＨＯＵＳＥ,,株式会社,東京都,新宿区,新宿１丁目８番１号,,13,104,1600022,,,2024-10-31,合併による解散等,2010401112738,令和６年１０月３１日東京都新宿区新宿三丁目２番４号株式会社エジンバラ（2010401112738）に合併し解散,2015-10-05,1,,,,,ヤーンハウス,0
1826,7011103012676,登記記録の閉鎖等,0,2024-11-12,2024-11-01,合同会社ジェイ・イー・エフ,,合同会社,東京都,新宿区,下宮比町１番４号,,13,104,1620822,,,2024-11-01,清算の結了等,,,2023-02-07,1,,,,,ジェイイーエフ,0
1832,7011702002664,登記記録の閉鎖等,0,2024-11-12,2024-11-05,有限会社カーサービス,,有限会社,東京都,江戸川区,南葛西７丁目１番７－３０６号,,13,123,1340085,,,2024-11-05,清算の結了等,,,2015-10-05,1,,,,,カーサービス,0
1846,7020001127206,登記記録の閉鎖等,0,2024-11-12,2024-10-24,株式会社ＳＡＵ,,株式会社,神奈川県,横浜市鶴見区,上の宮１丁目２４番２１－６号,,14,101,2300075,,,2024-10-24,清算の結了等,,,2018-07-18,1,,,,,ソウ,0
1874,7030002073811,登記記録の閉鎖等,0,2024-11-12,2024-11-08,有限会社末広商店,,有限会社,埼玉県,川越市,大字大仙波１２７５番地,,11,201,3500032,,,2024-11-08,合併による解散等,2080001006020,令和６年１１月１日静岡市清水区興津中町９９０番地株式会社兼子（2080001006020）に合併し解散,2015-10-05,1,,,,,スエヒロショウテン,0
1879,7040001046668,登記記録の閉鎖等,0,2024-11-12,2024-11-05,株式会社エイビックス,,株式会社,千葉県,佐倉市,表町１丁目１８番地１４,,12,212,2850811,,,2024-11-05,清算の結了等,,,2015-10-05,1,,,,,エイビックス,0
1885,7040002023039,登記記録の閉鎖等,0,2024-11-12,2024-11-06,有限会社須藤動物病院,,有限会社,千葉県,船橋市,金杉４丁目７番８号,,12,204,2730853,,,2024-11-06,清算の結了等,,,2015-10-05,1,,,,,スドウドウブツビョウイン,0
1886,7040005014480,登記記録の閉鎖等,0,2024-11-12,2024-10-31,協同組合システムネット北千葉,,その他の設立登記法人,千葉県,野田市,吉春５１９番の４有限会社石川運輸内,,12,208,2780042,,,2024-10-31,清算の結了等,,,2015-10-05,1,,,,,システムネットキタチバ,0
1888,7060001011307,登記記録の閉鎖等,0,2024-11-12,2024-11-01,イーデイーハウス株式会社,,株式会社,栃木県,那須塩原市,鍋掛１０８８番地１３,,09,213,3250013,,,2024-11-01,清算の結了等,,,2015-10-05,1,,,,,イーデイーハウス,0
1890,7060002008079,登記記録の閉鎖等,0,2024-11-12,2024-11-06,有限会社ベーカリージョイ,,有限会社,栃木県,宇都宮市,平松本町１２１８番地１,,09,201,3210932,,,2024-11-06,清算の結了等,,,2015-10-05,1,,,,,ベーカリージョイ,0
1900,7080102002327,登記記録の閉鎖等,0,2024-11-12,2024-11-06,有限会社土屋工務店,,有限会社,静岡県,沼津市,本田町５番１４号,,22,203,4100004,,,2024-11-06,清算の結了等,,,2015-10-05,1,,,,,ツチヤコウムテン,0
1901,7080102010742,登記記録の閉鎖等,0,2024-11-12,2024-11-07,有限会社双和工務店,,有限会社,静岡県,三島市,西若町９番３３号,,22,206,4110038,,,2024-11-07,清算の結了等,,,2015-10-05,1,,,,,ソウワコウムテン,0
1902,7080402004114,登記記録の閉鎖等,0,2024-11-12,2024-11-06,有限会社鈴義工業,,有限会社,静岡県,浜松市中央区,中沢町６８番１６号,,22,138,4300904,,,2024-11-06,清算の結了等,,,2015-10-05,1,,,,,スズヨシコウギョウ,0
1909,7120001033724,登記記録の閉鎖等,0,2024-11-12,2024-11-11,株式会社万善,,株式会社,大阪府,大阪市住吉区,杉本１丁目３番１３号,,27,120,5580022,,,2024-11-11,清算の結了等,,,2023-10-11,1,,,,,マンゼン,0
1935,7122001006775,登記記録の閉鎖等,0,2024-11-12,2024-11-08,充建設株式会社,,株式会社,大阪府,東大阪市,吉松２丁目３番１８号,,27,227,5770821,,,2024-11-08,清算の結了等,,,2015-10-05,1,,,,,ジュウケンセツ,0
1943,7130002005003,登記記録の閉鎖等,0,2024-11-12,2024-10-21,有限会社香洲波,,有限会社,京都府,京都市左京区,一乗寺野田町２番地の２ハイツ白川５２１,,26,103,6068165,,,2024-10-21,清算の結了等,,,2015-10-05,1,,,,,カスバ,0
1944,7130002018987,登記記録の閉鎖等,0,2024-11-12,2024-11-07,有限会社牧野,,有限会社,京都府,京都市上京区,西堀川通上長者町下る奈良物町４７２番地の１ライオンズマンション西陣南６０２,,26,102,6028243,,,2024-11-07,清算の結了等,,,2015-10-05,1,,,,,マキノ,0
1948,7140001081531,登記記録の閉鎖等,0,2024-11-12,2024-11-06,株式会社産業技術研究所,,株式会社,兵庫県,宝塚市,平井山荘２２番３３号,,28,214,6650817,,,2024-11-06,清算の結了等,,,2015-10-05,1,,,,,サンギョウギジュツケンキュウショ,0
1957,7140002051186,登記記録の閉鎖等,0,2024-11-12,2024-11-01,有限会社ミレニアム・シーエーアイ,,有限会社,兵庫県,姫路市,花田町小川８２０番地,,28,201,6710255,,,2024-11-01,清算の結了等,,,2015-10-05,1,,,,,ミレニアムシーエーアイ,0
1958,7140003018333,登記記録の閉鎖等,0,2024-11-12,2024-11-06,ＫＧ合同会社,,合同会社,兵庫県,神戸市中央区,中山手通１丁目２２番２３号藤正ファインクラフト２０３,,28,110,6500004,,,2024-11-06,清算の結了等,,,2022-11-04,1,,,,,ケージー,0
1970,7180001063939,登記記録の閉鎖等,0,2024-11-12,2024-11-01,株式会社ＸＥＢＥＣ,,株式会社,愛知県,名古屋市守山区,小幡１丁目１５番７号,,23,113,4630011,,,2024-11-01,合併による解散等,7180001079027,令和６年１１月１日愛知県瀬戸市穴田町９７４番地大栄工業株式会社（7180001079027）に合併し解散,2015-10-05,1,,,,,ジーベック,0
1979,7180302002067,登記記録の閉鎖等,0,2024-11-12,2024-11-06,東海土地有限会社,,有限会社,愛知県,岡崎市,康生通南２丁目３７番地,,23,202,4440044,,,2024-11-06,清算の結了等,,,2015-10-05,1,,,,,トウカイトチ,0
1986,7200005012575,登記記録の閉鎖等,0,2024-11-12,2024-11-06,一般社団法人日本医師厚生会,,その他の設立登記法人,富山県,富山市,黒崎３３番地,,16,201,9398214,,,2024-11-06,清算の結了等,,,2016-12-08,1,,,,,ニホンイシコウセイカイ,0
1990,7240001028654,登記記録の閉鎖等,0,2024-11-12,2024-11-06,株式会社みせん本舗,,株式会社,広島県,廿日市市,宮島口１丁目１０番８号,,34,213,7390411,,,2024-11-06,清算の結了等,,,2015-10-05,1,,,,,,0
1994,7240002049071,登記記録の閉鎖等,0,2024-11-12,2024-11-07,スターワークス有限会社,,有限会社,広島県,安芸郡府中町,宮の町２丁目５番２５号,,34,302,7350005,,,2024-11-07,清算の結了等,,,2015-10-05,1,,,,,スターワークス,0
1996,7250002013225,登記記録の閉鎖等,0,2024-11-12,2024-11-07,有限会社大栄,,有限会社,山口県,萩市,大字東浜崎町字菊ケ浜１４９番地の５,,35,204,7580024,,,2024-11-07,清算の結了等,,,2015-10-05,1,,,,,ダイエイ,0
1997,7260001030187,登記記録の閉鎖等,0,2024-11-12,2024-10-31,株式会社リアルシフト,,株式会社,岡山県,真庭市,田原９０５番地,,33,214,7193104,,,2024-10-31,清算の結了等,,,2016-11-29,1,,,,,,0
2018,7290802006820,登記記録の閉鎖等,0,2024-11-12,2024-11-07,有限会社夜宮調剤薬局,,有限会社,福岡県,北九州市戸畑区,浅生２丁目５番２１号,,40,105,8040062,,,2024-11-07,合併による解散等,8290001001390,令和６年１０月１日福岡市南区中尾三丁目１２番１７号株式会社新生堂薬局（8290001001390）に合併し解散,2015-10-05,1,,,,,,0
2022,7320001014919,登記記録の閉鎖等,0,2024-11-12,2024-11-08,株式会社創翔の里,,株式会社,大分県,別府市,大字鶴見字下原４２３０番地５３,,44,202,8740840,,,2024-11-08,清算の結了等,,,2016-05-12,1,,,,,ソウショウノサト,0
2025,7320003002442,登記記録の閉鎖等,0,2024-11-12,2024-11-08,合同会社Ｌｉｆｉｎｇ　Ｓｕｐｐｏｒｔ,,合同会社,大分県,由布市,挾間町古野８８番地１,,44,213,8795511,,,2024-11-08,清算の結了等,,,2016-07-08,1,,,,,ライフィングサポート,0
2032,7340001019924,登記記録の閉鎖等,0,2024-11-12,2024-11-08,リハケアネクサス株式会社,,株式会社,鹿児島県,姶良市,東餅田１４４２番地１,,46,225,8995421,,,2024-11-08,清算の結了等,,,2016-12-26,1,,,,,リハケアネクサス,0
2097,8010401131807,登記記録の閉鎖等,0,2024-11-12,2024-10-28,株式会社ＰＧＴホールディングス,,株式会社,東京都,港区,浜松町２丁目４番１号,,13,103,1050013,,,2024-10-28,清算の結了等,,,2017-06-05,1,,,,,ピージーティーホールディングス,0
2107,8010701034635,登記記録の閉鎖等,0,2024-11-12,2024-10-24,ＥＬＳＹＳ　ＴＯＫＹＯ株式会社,,株式会社,神奈川県,横浜市泉区,和泉町２６０６－３,,14,116,2450016,,,2024-10-24,清算の結了等,,,2017-08-22,1,,,,,エルシストーキョー,0
2113,8010902023940,登記記録の閉鎖等,0,2024-11-12,2024-11-06,有限会社奥昌管理,,有限会社,東京都,世田谷区,奥沢５丁目１４番８号,,13,112,1580083,,,2024-11-06,清算の結了等,,,2015-10-05,1,,,,,オクショウカンリ,0
2129,8011105007772,登記記録の閉鎖等,0,2024-11-12,2024-11-01,一般社団法人ジェイ・エス・ワイ,,その他の設立登記法人,東京都,新宿区,下宮比町１番４号,,13,104,1620822,,,2024-11-01,清算の結了等,,,2017-05-01,1,,,,,ジェイエスワイ,0
2140,8012402007762,登記記録の閉鎖等,0,2024-11-12,2024-11-11,有限会社タカギファーム,,有限会社,東京都,狛江市,元和泉２丁目１４番２５号,,13,219,2010013,,,2024-11-11,清算の結了等,,,2015-10-05,1,,,,,タカギファーム,0
2147,8020001009213,登記記録の閉鎖等,0,2024-11-12,2024-10-24,秒進工業株式会社,,株式会社,神奈川県,横浜市都筑区,大熊町７９番地５号,,14,118,2240042,,,2024-10-24,清算の結了等,,,2015-10-05,1,,,,,ビョウシンコウギョウ,0
2148,8020001049168,登記記録の閉鎖等,0,2024-11-12,2024-11-06,株式会社花企画,,株式会社,神奈川県,横浜市保土ケ谷区,新井町２２９番地６５,,14,106,2400053,,,2024-11-06,合併による解散等,9020001045769,令和６年１１月１日横浜市金沢区鳥浜町１番地１株式会社クローバー（9020001045769）に合併し解散,2015-10-05,1,,,,,ハナキカク,0
2165,8021002034695,登記記録の閉鎖等,0,2024-11-12,2024-11-11,有限会社エム・ケー・ティー・フォーミュラ,,有限会社,神奈川県,伊勢原市,沼目４丁目８番５号,,14,214,2591126,,,2024-11-11,清算の結了等,,,2015-10-05,1,,,,,,0
2171,8030001089502,登記記録の閉鎖等,0,2024-11-12,2024-11-06,日空機工株式会社,,株式会社,埼玉県,飯能市,大字双柳２８１番地の２,,11,209,3570021,,,2024-11-06,清算の結了等,,,2015-10-05,1,,,,,ニックウキコウ,0
2181,8030002004699,登記記録の閉鎖等,0,2024-11-12,2024-11-07,有限会社高栄商店,00015952,有限会社,埼玉県,さいたま市南区,根岸５丁目２番３号,,11,108,3360024,,,2024-11-07,清算の結了等,,,2015-10-05,1,,,,,タカエイショウテン,0
2186,8040001010838,登記記録の閉鎖等,0,2024-11-12,2024-11-07,株式会社メープル,,株式会社,千葉県,千葉市美浜区,打瀬１丁目２番地３セントラルパーク・ウエストシータワー１４０８号,,12,106,2610013,,,2024-11-07,清算の結了等,,,2015-10-05,1,,,,,メープル,0
2190,8040001074750,登記記録の閉鎖等,0,2024-11-12,2024-11-06,ＭＥＧＵＭＩ・ＣＯＳＭＥＴＩＣＳ株式会社,,株式会社,千葉県,鴨川市,江見青木１０２番地６０６号,,12,223,2992842,,,2024-11-06,清算の結了等,,,2015-10-05,1,,,,,メグミコスメティックス,0
2191,8040001097306,登記記録の閉鎖等,0,2024-11-12,2024-11-05,株式会社ユニオン,,株式会社,千葉県,松戸市,金ケ作４０８番地３４２スカイコートビル１０３号室,,12,207,2702251,,,2024-11-05,清算の結了等,,,2016-10-18,1,,,,,ユニオン,0
2198,8040002090887,登記記録の閉鎖等,0,2024-11-12,2024-11-06,有限会社虎ノ門ビジネスコンサルタント,,有限会社,千葉県,柏市,根戸４３２番地の４９,,12,217,2770831,,,2024-11-06,清算の結了等,,,2015-10-05,1,,,,,トラノモンビジネスコンサルタント,0
2203,8060002003715,登記記録の閉鎖等,0,2024-11-12,2024-11-05,有限会社光福土木,,有限会社,栃木県,宇都宮市,砂田町４３０番地,,09,201,3210113,,,2024-11-05,清算の結了等,,,2015-10-05,1,,,,,コウフクドボク,0
2211,8080002005841,登記記録の閉鎖等,0,2024-11-12,2024-11-06,有限会社メイワンオフィス,,有限会社,静岡県,静岡市駿河区,下川原５丁目３５番８号,,22,102,4210113,,,2024-11-06,清算の結了等,,,2015-10-05,1,,,,,メイワンオフィス,0
2213,8080102008991,登記記録の閉鎖等,0,2024-11-12,2024-11-07,有限会社稲田商店,,有限会社,静岡県,伊豆の国市,中７２４番地,,22,225,4102113,,,2024-11-07,清算の結了等,,,2015-10-05,1,,,,,イナダショウテン,0
2223,8090003001277,登記記録の閉鎖等,0,2024-11-12,2024-11-07,日本料理三ツ橋合同会社,,合同会社,山梨県,中央市,山之神２１９６番地１,,19,214,4093845,,,2024-11-07,清算の結了等,,,2017-04-14,1,,,,,ニホンリョウリミツハシ,0
2229,8120001028194,登記記録の閉鎖等,0,2024-11-12,2024-11-01,三浦運送株式会社,,株式会社,大阪府,大阪市大正区,小林西１丁目１７番３１号,,27,108,5510013,,,2024-11-01,合併による解散等,5120001027364,令和６年１１月１日大阪市大正区小林西一丁目１７番３１号協同運輸株式会社（5120001027364）に合併し解散,2015-10-05,1,,,,,ミウラウンソウ,0
2243,8120002050065,登記記録の閉鎖等,0,2024-11-12,2024-11-11,有限会社昌幸,,有限会社,大阪府,大阪市福島区,福島４丁目１番７０－６０５号,,27,103,5530003,,,2024-11-11,清算の結了等,,,2015-10-05,1,,,,,マサユキ,0
2251,8130001066986,登記記録の閉鎖等,0,2024-11-12,2024-11-07,株式会社グリーンゲージ,,株式会社,京都府,舞鶴市,字南田辺１２６－５,,26,202,6240853,,,2024-11-07,清算の結了等,,,2020-06-02,1,,,,,グリーンゲージ,0
2255,8140001007650,登記記録の閉鎖等,0,2024-11-12,2024-11-08,小黒産業株式会社,,株式会社,兵庫県,神戸市中央区,楠町２丁目３番５号,,28,110,6500017,,,2024-11-08,清算の結了等,,,2015-10-05,1,,,,,オグロサンギョウ,0
2257,8140001045816,登記記録の閉鎖等,0,2024-11-12,2024-11-06,株式会社コーシン,,株式会社,兵庫県,加古川市,加古川町寺家町６２番地の７－９０４,,28,210,6750066,,,2024-11-06,清算の結了等,,,2015-10-05,1,,,,,コーシン,0
2266,8140002062918,登記記録の閉鎖等,0,2024-11-12,2024-11-08,有限会社二葉運輸,,有限会社,兵庫県,小野市,二葉町８０番地の１３４,,28,218,6751328,,,2024-11-08,清算の結了等,,,2015-10-05,1,,,,,フタバウンユ,0
2269,8160001025007,登記記録の閉鎖等,0,2024-11-12,2024-11-07,株式会社アクティアセキュリティ,,株式会社,滋賀県,近江八幡市,池田本町９２７番地５,,25,204,5230043,,,2024-11-07,清算の結了等,,,2023-05-02,1,,,,,アクティアセキュリティ,0
2279,8180002049077,登記記録の閉鎖等,0,2024-11-12,2024-11-05,有限会社コムネットインターナショナル,,有限会社,愛知県,名古屋市守山区,中新７番地の８－５０１,,23,113,4630057,,,2024-11-05,清算の結了等,,,2015-10-05,1,,,,,コムネットインターナショナル,0
2284,8190002018015,登記記録の閉鎖等,0,2024-11-12,2024-11-07,有限会社出口精機,,有限会社,三重県,いなべ市,大安町高柳１９７６番地,,24,214,5110272,,,2024-11-07,清算の結了等,,,2015-10-05,1,,,,,デグチセイキ,0
2285,8220002001000,登記記録の閉鎖等,0,2024-11-12,2024-11-01,有限会社荒井商会,,有限会社,石川県,金沢市,駅西本町１丁目１０番６号,,17,201,9200025,,,2024-11-01,清算の結了等,,,2015-10-05,1,,,,,アライショウカイ,0
2296,8260001018561,登記記録の閉鎖等,0,2024-11-12,2024-11-06,株式会社森田電熱工業所,,株式会社,岡山県,倉敷市,玉島勇崎１３１２番地,,33,202,7138125,,,2024-11-06,清算の結了等,,,2015-10-05,1,,,,,モリタデンネツコウギョウショ,0
2313,8330003009849,登記記録の閉鎖等,0,2024-11-12,2024-11-05,合同会社こんぺき,,合同会社,熊本県,熊本市北区,鶴羽田１丁目１１番３３号サンビレッジ長田２－２０１号室,,43,105,8615517,,,2024-11-05,清算の結了等,,,2023-05-17,1,,,,,コンペキ,0
2317,8350002014864,登記記録の閉鎖等,0,2024-11-12,2024-11-06,有限会社穂積商会,,有限会社,宮崎県,都城市,花繰町３街区１４号,,45,202,8850037,,,2024-11-06,清算の結了等,,,2015-10-05,1,,,,,ホズミショウカイ,0
2325,8370003006181,登記記録の閉鎖等,0,2024-11-12,2024-10-30,イシデ合同会社,,合同会社,宮城県,柴田郡川崎町,大字前川字手代塚山１－９７,00130960,04,324,9891501,,,2024-10-30,清算の結了等,,,2023-06-23,1,,,,,イシデ,0
2329,8380002019753,登記記録の閉鎖等,0,2024-11-12,2024-10-30,有限会社北日本サービス,,有限会社,福島県,須賀川市,崩免４５番地１,,07,207,9620805,,,2024-10-30,清算の結了等,,,2015-10-05,1,,,,,,0
2332,8390002003310,登記記録の閉鎖等,0,2024-11-12,2024-11-01,有限会社プラントフナヤマ,,有限会社,山形県,東村山郡山辺町,大字山辺５８５１番地,,06,301,9900301,,,2024-11-01,合併による解散等,4390001014246,令和６年１１月１日山形県東村山郡山辺町大字山辺５８５１番地株式会社プラントフナヤマ（4390001014246）に合併し解散,2015-10-05,1,,,,,プラントフナヤマ,0
2359,9010001213203,登記記録の閉鎖等,0,2024-11-12,2024-10-24,株式会社ケニーチャン,,株式会社,東京都,港区,新橋６丁目１１番１３－１８０２号,,13,103,1050004,,,2024-10-24,清算の結了等,,,2020-10-23,1,,,,,ケニーチャン,0
2369,9010003040827,登記記録の閉鎖等,0,2024-11-12,2024-10-29,ＴＭＡグリーンエナジー２０２３合同会社,,合同会社,東京都,千代田区,丸の内１丁目８番２号,,13,101,1000005,,,2024-10-29,清算の結了等,,,2023-06-09,1,,,,,ティーエムエーグリーンエナジーニセンニジュウサン,0
2393,9010403011205,登記記録の閉鎖等,0,2024-11-12,2024-10-28,合同会社ブロケード,,合同会社,東京都,港区,虎ノ門３丁目２２番１０－２０１号,,13,103,1050001,,,2024-10-28,清算の結了等,,,2015-10-05,1,,,,,ブロケード,0
2424,9011803004748,登記記録の閉鎖等,0,2024-11-12,2024-11-07,グレイスジャパン合同会社,,合同会社,東京都,葛飾区,堀切１丁目５番９号,,13,122,1240006,,,2024-11-07,清算の結了等,,,2021-08-24,1,,,,,グレイスジャパン,0
2427,9012402002878,登記記録の閉鎖等,0,2024-11-12,2024-11-08,有限会社山本,,有限会社,東京都,府中市,浅間町２丁目３番地の１８,,13,206,1830001,,,2024-11-08,清算の結了等,,,2015-10-05,1,,,,,ヤマモト,0
2438,9020001127245,登記記録の閉鎖等,0,2024-11-12,2024-10-24,株式会社創羽,,株式会社,神奈川県,横浜市金沢区,寺前２丁目２６番１５,,14,108,2360014,,,2024-10-24,清算の結了等,,,2018-07-19,1,,,,,ソウバ,0
2439,9020001141080,登記記録の閉鎖等,0,2024-11-12,2024-10-24,ＹＧＦレーシング株式会社,,株式会社,神奈川県,横浜市中区,麦田町４丁目９９番地,,14,104,2310849,,,2024-10-24,清算の結了等,,,2021-04-28,1,,,,,ワイジーエフレーシング,0
2446,9021001064610,登記記録の閉鎖等,0,2024-11-12,2024-11-11,株式会社レブフラット,,株式会社,神奈川県,伊勢原市,善波１４０３番地１,,14,214,2591106,,,2024-11-11,清算の結了等,,,2018-04-20,1,,,,,,0
2466,9030002103780,登記記録の閉鎖等,0,2024-11-12,2024-11-06,有限会社松楽,,有限会社,埼玉県,川口市,中青木４丁目１４番２号,,11,203,3320032,,,2024-11-06,清算の結了等,,,2015-10-05,1,,,,,ショウラク,0
2476,9040002034505,登記記録の閉鎖等,0,2024-11-12,2024-11-06,有限会社島田商店,,有限会社,千葉県,市川市,真間１丁目５番３号,,12,203,2720826,,,2024-11-06,清算の結了等,,,2015-10-05,1,,,,,シマダショウテン,0
2477,9040002077272,登記記録の閉鎖等,0,2024-11-12,2024-11-05,有限会社桂造園,,有限会社,千葉県,東金市,西中１６２番地１,,12,213,2830045,,,2024-11-05,清算の結了等,,,2015-10-05,1,,,,,カツラゾウエン,0
2480,9040003011874,登記記録の閉鎖等,0,2024-11-12,2024-11-05,合同会社トゥーヴィレッジ,,合同会社,千葉県,我孫子市,我孫子２丁目１番,,12,222,2701166,,,2024-11-05,清算の結了等,,,2018-07-06,1,,,,,トゥーヴィレッジ,0
2495,9070002037785,登記記録の閉鎖等,0,2024-11-12,2024-11-07,有限会社高橋アルミ工業,,有限会社,群馬県,高崎市,箕郷町矢原１０６０番地３１,,10,202,3703107,,,2024-11-07,清算の結了等,,,2024-08-05,1,,,,,タカハシアルミコウギョウ,0
2511,9100002022081,登記記録の閉鎖等,0,2024-11-12,2024-11-01,横山製菓有限会社,,有限会社,長野県,松本市,本庄１丁目６番１８号,,20,202,3900814,,,2024-11-01,清算の結了等,,,2015-10-05,1,,,,,ヨコヤマセイカ,0
2516,9120001230303,登記記録の閉鎖等,0,2024-11-12,2024-10-31,株式会社ＪＭＥＲＡＴＥ,,株式会社,大阪府,大阪市北区,梅田１丁目１番３号大阪駅前第３ビル２３０７,,27,127,5300001,,,2024-10-31,清算の結了等,,,2020-07-13,1,,,,,ジェーマリット,0
2527,9120101059163,登記記録の閉鎖等,0,2024-11-12,2024-11-08,株式会社ｓｏｕｋｅｎ・ｓｅｃｏｎｄ,,株式会社,大阪府,堺市西区,鳳西町１丁７９番地５,,27,144,5938326,,,2024-11-08,清算の結了等,,,2018-12-17,1,,,,,ソウケンセカンド,0
2532,9122002011657,登記記録の閉鎖等,0,2024-11-12,2024-11-05,有限会社毛洲工業,,有限会社,大阪府,大東市,中垣内７丁目４番１１号,,27,218,5740013,,,2024-11-05,清算の結了等,,,2015-10-05,1,,,,,モスコウギョウ,0
2550,9140002007772,登記記録の閉鎖等,0,2024-11-12,2024-11-07,有限会社フジシステム,,有限会社,兵庫県,神戸市須磨区,東白川台１丁目８番地の５,,28,107,6540102,,,2024-11-07,清算の結了等,,,2015-10-05,1,,,,,フジシステム,0
2563,9180301008914,登記記録の閉鎖等,0,2024-11-12,2024-11-06,株式会社ミズタニ,,株式会社,静岡県,湖西市,新所６０６２番地の２５,,22,221,4310421,,,2024-11-06,清算の結了等,,,2015-10-05,1,,,,,ミズタニ,0
2570,9210001008335,登記記録の閉鎖等,0,2024-11-12,2024-11-05,三栄株式会社,,株式会社,福井県,福井市,甑谷町第２８号１番地９,00077689,18,201,9103613,,,2024-11-05,清算の結了等,,,2015-10-05,1,,,,,サンエイ,0
2575,9240002033825,登記記録の閉鎖等,0,2024-11-12,2024-11-05,有限会社平岡ビル,,有限会社,千葉県,松戸市,平賀８４番地の２,,12,207,2700002,,,2024-11-05,清算の結了等,,,2015-10-05,1,,,,,ヒラオカビル,0
2592,9350001008602,登記記録の閉鎖等,0,2024-11-12,2024-11-07,株式会社ミナヨシ,,株式会社,宮崎県,都城市,上水流町１６６３番地の５,,45,202,8851103,,,2024-11-07,合併による解散等,3350001004805,令和６年１１月１日宮崎市佐土原町上田島５１１０番地株式会社アメックスエステート（3350001004805）に合併し解散,2015-10-05,1,,,,,ミナヨシ,0
2593,9350003000747,登記記録の閉鎖等,0,2024-11-12,2024-11-06,西都砂利合資会社,,合資会社,宮崎県,西都市,大字右松３１７１番地１,,45,208,8810003,,,2024-11-06,清算の結了等,,,2015-10-05,1,,,,,サイトジャリ,0
2596,9360003005778,登記記録の閉鎖等,0,2024-11-12,2024-11-07,嶺トータルプラン合同会社,,合同会社,沖縄県,豊見城市,字渡橋名４番地１０１号,,47,212,9010222,,,2024-11-07,清算の結了等,,,2015-10-05,1,,,,,ミネトータルプラン,0
2611,9430005001784,登記記録の閉鎖等,0,2024-11-12,2024-11-08,医療法人社団サカキ歯科医院,,その他の設立登記法人,北海道,札幌市東区,北二十六条東１０丁目３番２１号,,01,103,0650026,,,2024-11-08,清算の結了等,,,2015-10-05,1,,,,,サカキシカイイン,0
2620,9480003000890,登記記録の閉鎖等,0,2024-11-12,2024-11-08,合同会社トレードウインド・インベストメント,,合同会社,徳島県,徳島市,上八万町西山７８５,,36,201,7708041,,,2024-11-08,清算の結了等,,,2015-10-05,1,,,,,トレードウインドインベストメント,0
