sequenceNumber,corporateNumber,process,correct,updateDate,changeDate,name,nameImageId,kind,prefectureName,cityName,streetNumber,addressImageId,prefectureCode,cityCode,postCode,addressOutside,addressOutsideImageId,closeDate,closeCause,successorCorporateNumber,changeCause,assignmentDate,latest,enName,enPrefectureName,enCityName,enAddressOutside,furigana,hihyoji
12,1010101015309,新規,0,2022-09-01,2022-09-01,株式会社藤吉郎,,株式会社,東京都,八王子市,東町３番地８浦島ビル１階,,13,201,1920082,,,,,,,2022-09-01,1,,,,,トウキチロウ,0
42,1011001149502,新規,0,2022-09-01,2022-09-01,株式会社ＣＩＲＣＬＥ,,株式会社,東京都,目黒区,下目黒５丁目６番５号,,13,110,1530064,,,,,,,2022-09-01,1,,,,,サークル,0
45,1011003015297,新規,0,2022-09-01,2022-09-01,ＯＡＪ合同会社,,合同会社,東京都,目黒区,平町１丁目２２番１０号,,13,110,1520032,,,,,,,2022-09-01,1,,,,,オーエージェー,0
59,1012305002025,新規,0,2022-09-01,2022-09-01,医療法人社団平衡会,,その他の設立登記法人,東京都,町田市,玉川学園２丁目８番２３号１階,,13,209,1940041,,,,,,,2022-09-01,1,,,,,ヘイコウカイ,0
67,1013301049596,新規,0,2022-09-01,2022-09-01,株式会社未来,,株式会社,東京都,豊島区,千早４丁目４４番２号,,13,116,1710044,,,,,,,2022-09-01,1,,,,,ミライ,0
69,1013305003368,新規,0,2022-09-01,2022-09-01,特定非営利活動法人ＯｔｔｏＲｉｎｇ,,その他の設立登記法人,東京都,豊島区,目白３丁目１７番２３号ＡＶＩＷＳビル３Ｆ,,13,116,1710031,,,,,,,2022-09-01,1,,,,,オットーリング,0
74,1020001148001,新規,0,2022-09-01,2022-09-01,株式会社Ｒ＆Ｙオート,,株式会社,神奈川県,横浜市保土ケ谷区,今井町１３５０番地２１,,14,106,2400035,,,,,,,2022-09-01,1,,,,,アールアンドワイオート,0
75,1020001148026,新規,0,2022-09-01,2022-09-01,株式会社スリーボディ,,株式会社,神奈川県,横浜市西区,平沼１丁目１２番１コパールーフ横浜１００１号室,,14,103,2200023,,,,,,,2022-09-01,1,,,,,スリーボディ,0
80,1020005015643,新規,0,2022-09-01,2022-09-01,特定非営利活動法人ウッドデッキ,,その他の設立登記法人,神奈川県,横浜市栄区,本郷台２丁目２５番１１号,,14,115,2470008,,,,,,,2022-09-01,1,,,,,ウッドデッキ,0
82,1021001076885,新規,0,2022-09-01,2022-09-01,ＲｅＢＩＯ　ＪＡＰＡＮ株式会社,,株式会社,神奈川県,茅ヶ崎市,美住町５番１２号,,14,207,2530023,,,,,,,2022-09-01,1,,,,,リバイオジャパン,0
85,1021003012087,新規,0,2022-09-01,2022-09-01,深洋資産管理合同会社,,合同会社,神奈川県,小田原市,本町２丁目２番１６－１０１号,,14,206,2500012,,,,,,,2022-09-01,1,,,,,シンヨウシサンカンリ,0
93,1030001149857,新規,0,2022-09-01,2022-09-01,株式会社ウェルビー,,株式会社,埼玉県,さいたま市浦和区,常盤２丁目２－１１－８０５,,11,107,3300061,,,,,,,2022-09-01,1,,,,,ウェルビー,0
99,1030003020108,新規,0,2022-09-01,2022-09-01,ＢＡＮ　ＭＡＩ　ＸＡＮＨ合同会社,,合同会社,埼玉県,草加市,栄町２丁目３番３号徳輝ビル３階,,11,221,3400011,,,,,,,2022-09-01,1,,,,,バンマイサン,0
105,1040001124859,新規,0,2022-09-01,2022-09-01,シースカイ株式会社,,株式会社,千葉県,印旛郡栄町,竜角寺台２丁目１９番９号,,12,329,2701505,,,,,,,2022-09-01,1,,,,,シースカイ,0
106,1040001124883,新規,0,2022-09-01,2022-09-01,株式会社Ｃ＆Ｋ,,株式会社,千葉県,千葉市稲毛区,轟町４丁目８番８号ビュウビレッヂ轟２０３号,,12,103,2630021,,,,,,,2022-09-01,1,,,,,シーアンドケイ,0
137,1120001248567,新規,0,2022-09-01,2022-09-01,ＢＬＡＣＫ　ＢＵＬＬｓ株式会社,,株式会社,大阪府,大阪市西区,江戸堀１丁目１６番２７号,,27,106,5500002,,,,,,,2022-09-01,1,,,,,ブラックブルズ,0
138,1120001248575,新規,0,2022-09-01,2022-09-01,ＢＥＡＲＴＲＥＥ株式会社,,株式会社,大阪府,大阪市東成区,神路３丁目１６番２１号,,27,115,5370003,,,,,,,2022-09-01,1,,,,,ベァトリー,0
148,1122003002415,新規,0,2022-09-01,2022-09-01,合同会社和久,,合同会社,大阪府,東大阪市,岩田町５丁目２番３７号,,27,227,5780941,,,,,,,2022-09-01,1,,,,,ワク,0
151,1130001072520,新規,0,2022-09-01,2022-09-01,株式会社Ｓｋｙ,,株式会社,京都府,京都市伏見区,久我東町３番地６,,26,109,6128494,,,,,,,2022-09-01,1,,,,,スカイ,0
152,1130001072529,新規,0,2022-09-01,2022-09-01,株式会社エムズ,,株式会社,京都府,城陽市,平川車塚４５－２７,,26,207,6100101,,,,,,,2022-09-01,1,,,,,エムズ,0
162,1140003018082,新規,0,2022-09-01,2022-09-01,合同会社Ｙ　Ｇｉｆｔ,,合同会社,兵庫県,神戸市須磨区,天神町３丁目２番１３号,,28,107,6540053,,,,,,,2022-09-01,1,,,,,ワイギフト,0
173,1180001152813,新規,0,2022-09-01,2022-09-01,ＦＷホールディングス株式会社,,株式会社,愛知県,長久手市,市が洞１丁目９３１番地,,23,238,4801147,,,,,,,2022-09-01,1,,,,,エフダブリューホールディングス,0
197,1290001098748,新規,0,2022-09-01,2022-09-01,株式会社クレアル,,株式会社,福岡県,福岡市博多区,東比恵３丁目１３番４９号,,40,132,8120007,,,,,,,2022-09-01,1,,,,,クレアル,0
198,1290001098764,新規,0,2022-09-01,2022-09-01,株式会社ＬＥＡＰ,,株式会社,福岡県,飯塚市,平恒８３８番地８,,40,205,8200073,,,,,,,2022-09-01,1,,,,,リープ,0
202,1300001013052,新規,0,2022-09-01,2022-09-01,株式会社ＫＮＴフーズ,,株式会社,佐賀県,鳥栖市,原古賀町３０３５番地,,41,203,8410071,,,,,,,2022-09-01,1,,,,,ケイエヌティフーズ,0
213,1350001017924,新規,0,2022-09-01,2022-09-01,株式会社Ｒｓ　Ｃｏ．,,株式会社,宮崎県,宮崎市,大字赤江１６０７番地３,,45,201,8800912,,,,,,,2022-09-01,1,,,,,アールエスカンパニー,0
218,1370001048991,新規,0,2022-09-01,2022-09-01,ありのみファーム株式会社,,株式会社,宮城県,宮城郡利府町,春日字柳沢２６番地,,04,406,9810102,,,,,,,2022-09-01,1,,,,,アリノミファーム,0
224,1400003002968,新規,0,2022-09-01,2022-09-01,合同会社高要,00127686,合同会社,岩手県,北上市,黒沢尻１丁目２１番３号,,03,206,0240022,,,,,,,2022-09-01,1,,,,,タカヨウ,0
234,1700150111335,新規,0,2022-09-01,2022-08-19,本庄一元胡瓜部会選果機利用組合,,その他,埼玉県,本庄市,６２８－１,,11,211,3670000,,,,,,,2022-08-19,1,,,,,ホンジヨウイチゲンキユウリブカイセンカキリヨウクミアイ,0
235,1700150111459,新規,0,2022-09-01,2022-08-23,米山隆一政策研究会,,その他,東京都,千代田区,永田町２丁目１－２衆議院第２議員会館７２４号室,,13,101,1000014,,,,,,,2022-08-23,1,,,,,ヨネヤマリユウイチセイサクケンキユウカイ,0
247,2010005035419,新規,0,2022-09-01,2022-09-01,一般財団法人ＰＶリボーン協会,,その他の設立登記法人,東京都,中央区,日本橋堀留町１丁目１１番５号,,13,102,1030012,,,,,,,2022-09-01,1,,,,,ピーブイリボーンキョウカイ,0
248,2010005035501,新規,0,2022-09-01,2022-09-01,医療法人社団花無心会,,その他の設立登記法人,東京都,千代田区,神田駿河台４丁目１番地２ステラお茶の水ビル７階,,13,101,1010062,,,,,,,2022-09-01,1,,,,,ハナムシンカイ,0
253,2010401168656,新規,0,2022-09-01,2022-09-01,聯衆自動車株式会社,,株式会社,東京都,港区,新橋６丁目８－１－２０６号,,13,103,1050004,,,,,,,2022-09-01,1,,,,,レンシュウジドウシャ,0
254,2010401169217,新規,0,2022-09-01,2022-09-01,１６８ホールディングス株式会社,,株式会社,東京都,港区,六本木６丁目８番１５号,,13,103,1060032,,,,,,,2022-09-01,1,,,,,イチロクハチホールディングス,0
260,2010501049310,新規,0,2022-09-01,2022-09-01,株式会社ＨＥＩＷＡ　ＨＯＳＥＫＩ,,株式会社,東京都,台東区,小島１丁目１７番４号,,13,106,1110056,,,,,,,2022-09-01,1,,,,,ヘイワホウセキ,0
262,2010503006706,新規,0,2022-09-01,2022-09-01,合同会社オフィス松本ＤＫＳ,,合同会社,東京都,台東区,寿４丁目１３－１０,,13,106,1110042,,,,,,,2022-09-01,1,,,,,オフィスマツモトディーケーエス,0
265,2010601061768,新規,0,2022-09-01,2022-09-01,株式会社ＺＥＲＯ　ＯＮＥ,,株式会社,東京都,墨田区,堤通２丁目７番１０－１０６号,,13,107,1310034,,,,,,,2022-09-01,1,,,,,ゼロワン,0
273,2010901051543,新規,0,2022-09-01,2022-09-01,華音マネジメント株式会社,,株式会社,東京都,世田谷区,深沢５丁目２４番２３－４０１号,,13,112,1580081,,,,,,,2022-09-01,1,,,,,カノンマネジメント,0
284,2011001149542,新規,0,2022-09-01,2022-09-01,株式会社ｂｕｒｎ,,株式会社,東京都,渋谷区,代々木４丁目５１番２ー３０２号,,13,113,1510053,,,,,,,2022-09-01,1,,,,,バーン,0
294,2011501028436,新規,0,2022-09-01,2022-09-01,株式会社ｍｉｓｏｒａ,,株式会社,東京都,北区,田端５丁目２番１１－１０１号,,13,117,1140014,,,,,,,2022-09-01,1,,,,,ミソラ,0
312,2020001148017,新規,0,2022-09-01,2022-09-01,株式会社上田宅建,,株式会社,神奈川県,横浜市神奈川区,羽沢南３丁目２６番１５号,,14,102,2210866,,,,,,,2022-09-01,1,,,,,ウエダタッケン,0
321,2021003012086,新規,0,2022-09-01,2022-09-01,合同会社Ｏｒｄｉｎａｒｙ　ｄａｙｓ,,合同会社,神奈川県,大和市,中央林間西４丁目３－８,,14,213,2420008,,,,,,,2022-09-01,1,,,,,オーディナリーデイズ,0
327,2030001149872,新規,0,2022-09-01,2022-09-01,株式会社ＫＯＵＫＩＴＥＣ,,株式会社,埼玉県,所沢市,大字松郷１５１番地１号,,11,208,3590027,,,,,,,2022-09-01,1,,,,,コウキテック,0
339,2040001124841,新規,0,2022-09-01,2022-09-01,株式会社セントラルカレッジ,,株式会社,千葉県,千葉市美浜区,真砂２丁目２４番１３号,,12,106,2610011,,,,,,,2022-09-01,1,,,,,セントラルカレッジ,0
340,2040001124858,新規,0,2022-09-01,2022-09-01,スギタ研究会株式会社,,株式会社,千葉県,流山市,おおたかの森東４丁目１２番地の７,,12,220,2700138,,,,,,,2022-09-01,1,,,,,スギタケンキュウカイ,0
341,2040001124874,新規,0,2022-09-01,2022-09-01,株式会社ｔｒｍｒ７,,株式会社,千葉県,柏市,豊四季５０８番地２５,,12,217,2770863,,,,,,,2022-09-01,1,,,,,トレモロセブン,0
342,2040001124890,新規,0,2022-09-01,2022-09-01,株式会社シン・メソッド,,株式会社,千葉県,成田市,小泉７８９,,12,211,2860823,,,,,,,2022-09-01,1,,,,,シンメソッド,0
346,2040003020717,新規,0,2022-09-01,2022-09-01,ＮＢ合同会社,,合同会社,千葉県,船橋市,三山９丁目３４番１号レオパレスミヤマセブン２０１,,12,204,2740072,,,,,,,2022-09-01,1,,,,,エヌビー,0
347,2040003020725,新規,0,2022-09-01,2022-09-01,合同会社Ｌｉｅｎ,,合同会社,千葉県,流山市,おおたかの森東４丁目３２番地の２ベルテＩＩ－１０２,00127687,12,220,2700138,,,,,,,2022-09-01,1,,,,,リアン,0
348,2040003020733,新規,0,2022-09-01,2022-09-01,Ｔ＆Ｕ合同会社,,合同会社,千葉県,野田市,山崎１４２７番地の１大和田マツキマンション２０２号室,,12,208,2780022,,,,,,,2022-09-01,1,,,,,ティーアンドユー,0
352,2070001039590,新規,0,2022-09-01,2022-09-01,株式会社イイジマ工業,,株式会社,群馬県,太田市,台之郷町１８１５－２,,10,205,3730801,,,,,,,2022-09-01,1,,,,,イイジマコウギョウ,0
353,2080001025169,新規,0,2022-09-01,2022-09-01,株式会社ＡＢ‐Ｔｅｃｈｎｏｓ,,株式会社,静岡県,静岡市駿河区,下川原２丁目２３－１０,,22,102,4210113,,,,,,,2022-09-01,1,,,,,エービーテクノス,0
356,2100001035660,新規,0,2022-09-01,2022-09-01,株式会社ＡＳＯＬＡＢ．,,株式会社,長野県,松本市,大字島立８６１番地１ＩＺＵＭＩ２１ビル３Ｆ,,20,202,3900852,,,,,,,2022-09-01,1,,,,,アソラボ,0
385,2120001248525,新規,0,2022-09-01,2022-09-01,株式会社Ｃ‐ＰＡＲＴＮＥＲ’Ｓ,,株式会社,大阪府,大阪市天王寺区,上本町１丁目１番１８号武島ビル４０２,,27,109,5430001,,,,,,,2022-09-01,1,,,,,シーパートナーズ,0
386,2120001248558,新規,0,2022-09-01,2022-09-01,株式会社４ＳＰ,,株式会社,大阪府,大阪市北区,同心１丁目８番２６号,,27,127,5300035,,,,,,,2022-09-01,1,,,,,フォーエスピー,0
387,2120001248574,新規,0,2022-09-01,2022-09-01,株式会社百財禄,,株式会社,大阪府,大阪市中央区,南本町１丁目４－６－３Ｆ,,27,128,5410054,,,,,,,2022-09-01,1,,,,,ヒャクザイロク,0
394,2120901046417,新規,0,2022-09-01,2022-09-01,株式会社ファーマシーマスヤ,,株式会社,大阪府,池田市,石橋２丁目２番１４号,,27,204,5630032,,,,,,,2022-09-01,1,,,,,ファーマシーマスヤ,0
411,2180001152812,新規,0,2022-09-01,2022-09-01,株式会社ラシドラ,,株式会社,愛知県,名古屋市緑区,神の倉１丁目１７１番地,,23,114,4580812,,,,,,,2022-09-01,1,,,,,ラシドラ,0
412,2180001152820,新規,0,2022-09-01,2022-09-01,株式会社ＲＥＶＥＲＳＡＬ,,株式会社,愛知県,名古屋市港区,川間町１丁目１３１番地,,23,111,4550076,,,,,,,2022-09-01,1,,,,,リバーサル,0
416,2180003024209,新規,0,2022-09-01,2022-09-01,合同会社ＯＳＯＮＥ,,合同会社,愛知県,長久手市,五合池１０１番地ハイライズ鴨田７０１号,,23,238,4801156,,,,,,,2022-09-01,1,,,,,オソネ,0
417,2190003004077,新規,0,2022-09-01,2022-09-01,ＢＵＮＩＯ　ＧＲＯＵＰ合同会社,,合同会社,三重県,伊勢市,小俣町宮前６６２－１,,24,203,5190504,,,,,,,2022-09-01,1,,,,,ブニオグループ,0
420,2200001040403,新規,0,2022-09-01,2022-09-01,株式会社ｃｉｅｌ,,株式会社,岐阜県,瑞穂市,別府３４９番地１,,21,216,5010222,,,,,,,2022-09-01,1,,,,,シエル,0
443,2320003003890,新規,0,2022-09-01,2022-09-01,合同会社シー,,合同会社,大分県,大分市,中島西３丁目８番９－９０３号テリオ中島西,,44,201,8700047,,,,,,,2022-09-01,1,,,,,シー,0
444,2330003009499,新規,0,2022-09-01,2022-09-01,合同会社日華,,合同会社,熊本県,八代市,千丁町古閑出２１１２番地４,,43,202,8694704,,,,,,,2022-09-01,1,,,,,ニチカ,0
446,2330005010554,新規,0,2022-09-01,2022-09-01,医療法人健幸会,,その他の設立登記法人,熊本県,菊池市,隈府５６５,,43,210,8611331,,,,,,,2022-09-01,1,,,,,ケンコウカイ,0
449,2350001017923,新規,0,2022-09-01,2022-09-01,ＫＡＷＡＮＯファーム株式会社,,株式会社,宮崎県,宮崎市,大字熊野２９８０番地,,45,201,8892151,,,,,,,2022-09-01,1,,,,,カワノファーム,0
451,2370001048999,新規,0,2022-09-01,2022-09-01,株式会社リバティック,,株式会社,宮城県,仙台市青葉区,本町１丁目５番２８号カーニープレイス仙台駅前通６０３号室,,04,101,9800014,,,,,,,2022-09-01,1,,,,,リバティック,0
471,2700150111037,新規,0,2022-09-01,2022-08-04,パティーナ北綾瀬管理組合,,その他,東京都,足立区,東和５丁目１０－６,,13,121,1200003,,,,,,,2022-08-04,1,,,,,パテイーナキタアヤセカンリクミアイ,0
472,2700150111169,新規,0,2022-09-01,2022-08-12,仰木地区活性化委員会,,その他,滋賀県,大津市,仰木４丁目１５－１１,,25,201,5200247,,,,,,,2022-08-12,1,,,,,オオギチクカツセイカイインカイ,0
513,3010903007617,新規,0,2022-09-01,2022-09-01,合同会社デリバースマイル,,合同会社,東京都,世田谷区,太子堂４丁目５番２９号メゾン・ド・ブリーヤン２１０号室,,13,112,1540004,,,,,,,2022-09-01,1,,,,,デリバースマイル,0
517,3011001149509,新規,0,2022-09-01,2022-09-01,ＡＡＡＰＡＲＥ株式会社,,株式会社,東京都,渋谷区,神宮前３丁目１４番１２号グランフォルム神宮前３０１,,13,113,1500001,,,,,,,2022-09-01,1,,,,,アーパレー,0
520,3011005009700,新規,0,2022-09-01,2022-09-01,一般社団法人新正会,,その他の設立登記法人,東京都,目黒区,上目黒１丁目２６番１号中目黒アトラスタワー２階,,13,110,1530051,,,,,,,2022-09-01,1,,,,,シンセイカイ,0
529,3011501028435,新規,0,2022-09-01,2022-09-01,川一株式会社,,株式会社,東京都,荒川区,東尾久２丁目２番９号三祥ビル２２８,,13,118,1160012,,,,,,,2022-09-01,1,,,,,カワイチ,0
530,3011601026207,新規,0,2022-09-01,2022-09-01,株式会社ケーエイト,,株式会社,東京都,練馬区,東大泉４丁目３番１８号プラザ大泉学園２０２,,13,120,1780063,,,,,,,2022-09-01,1,,,,,ケーエイト,0
531,3011801041229,新規,0,2022-09-01,2022-09-01,株式会社ライフトレイン,,株式会社,東京都,足立区,千住橋戸町１番地２０－７２４号室,,13,121,1200038,,,,,,,2022-09-01,1,,,,,ライフトレイン,0
533,3013301049594,新規,0,2022-09-01,2022-09-01,株式会社ＫＢＴイノベーション,,株式会社,東京都,豊島区,北大塚１丁目１６番５号６０２号,,13,116,1700004,,,,,,,2022-09-01,1,,,,,ケービーティーイノベーション,0
549,3021001076883,新規,0,2022-09-01,2022-09-01,株式会社スタジオタムず,,株式会社,神奈川県,伊勢原市,東大竹１１３３番地の３ボナールハイツ２０１号,,14,214,2591133,,,,,,,2022-09-01,1,,,,,スタジオタムズ,0
555,3030001149888,新規,0,2022-09-01,2022-09-01,株式会社ライフ上野,,株式会社,埼玉県,川口市,大字里１３８６番地の２,,11,203,3340005,,,,,,,2022-09-01,1,,,,,ライフウエノ,0
556,3030001149905,新規,0,2022-09-01,2022-09-01,株式会社アリソウ,,株式会社,埼玉県,八潮市,大字西袋１１５５－３,,11,234,3400833,,,,,,,2022-09-01,1,,,,,アリソウ,0
558,3030003020106,新規,0,2022-09-01,2022-09-01,合同会社ソルティ,,合同会社,埼玉県,川越市,大字鯨井１５８０－１－Ｃ２０１,,11,201,3500815,,,,,,,2022-09-01,1,,,,,ソルティ,0
576,3060003004205,新規,0,2022-09-01,2022-09-01,Ｔｏｃｈｉｇｉ　Ｓｈｏｋａｉ合同会社,,合同会社,栃木県,小山市,大字立木１３６６番地２ツェレ立木Ｂ１０１,,09,208,3230062,,,,,,,2022-09-01,1,,,,,トチギショウカイ,0
589,3110001036921,新規,0,2022-09-01,2022-09-01,株式会社ＳＣＭ,,株式会社,新潟県,上越市,大字下真砂６０５番地,,15,222,9420034,,,,,,,2022-09-01,1,,,,,エスシーエム,0
600,3120001248482,新規,0,2022-09-01,2022-09-01,株式会社慶,,株式会社,大阪府,大阪市中央区,北久宝寺町１丁目４番２号,,27,128,5410057,,,,,,,2022-09-01,1,,,,,イワイ,0
601,3120001248540,新規,0,2022-09-01,2022-09-01,株式会社Ｃｌａｓｓｉｆｉｃａｔｉｏｎ,,株式会社,大阪府,大阪市中央区,西心斎橋１丁目１２番８号２Ｆ,,27,128,5420086,,,,,,,2022-09-01,1,,,,,クラシフィケーション,0
602,3120001248565,新規,0,2022-09-01,2022-09-01,株式会社ライフテクノス,,株式会社,大阪府,大阪市都島区,都島中通２丁目１番９号,,27,102,5340022,,,,,,,2022-09-01,1,,,,,ライフテクノス,0
609,3120901046424,新規,0,2022-09-01,2022-09-01,株式会社末松工業,,株式会社,大阪府,豊中市,利倉西２丁目３番２４号,,27,203,5610844,,,,,,,2022-09-01,1,,,,,スエマツコウギョウ,0
620,3140003018080,新規,0,2022-09-01,2022-09-01,合同会社ｉｒａｕ,,合同会社,兵庫県,川西市,清和台東５丁目１番地の３３,,28,217,6660142,,,,,,,2022-09-01,1,,,,,イラウ,0
627,3150003002769,新規,0,2022-09-01,2022-09-01,合同会社まめ,,合同会社,奈良県,北葛城郡広陵町,大字三吉３４５－１０,,29,426,6350823,,,,,,,2022-09-01,1,,,,,マメ,0
630,3160003002652,新規,0,2022-09-01,2022-09-01,合同会社ｙｕｊ,,合同会社,滋賀県,大津市,京町１丁目１－３５ジオ大津京町４０２,,25,201,5200044,,,,,,,2022-09-01,1,,,,,ワイユージェイ,0
631,3160003002660,新規,0,2022-09-01,2022-09-01,合同会社そら,,合同会社,滋賀県,長浜市,湖北町速水１－１５－２０２,,25,203,5290341,,,,,,,2022-09-01,1,,,,,ソラ,0
638,3180001152794,新規,0,2022-09-01,2022-09-01,株式会社Ｂａｒ　ｅ　Ｐａｓｓｉｏｎｅ,,株式会社,愛知県,名古屋市千種区,天満通２丁目４７番地の１,,23,101,4640095,,,,,,,2022-09-01,1,,,,,バールエパッショーネ,0
639,3180001152811,新規,0,2022-09-01,2022-09-01,株式会社ライム,,株式会社,愛知県,名古屋市中川区,吉津１丁目１５０２番地,,23,110,4540981,,,,,,,2022-09-01,1,,,,,ライム,0
640,3180001152828,新規,0,2022-09-01,2022-09-01,株式会社ワークナビ春日井,,株式会社,愛知県,春日井市,瑞穂通５丁目６０番地平成ビル１階,,23,206,4860845,,,,,,,2022-09-01,1,,,,,ワークナビカスガイ,0
641,3180001152836,新規,0,2022-09-01,2022-09-01,株式会社イノベーション,,株式会社,愛知県,名古屋市緑区,大高町字東千正坊１番地マカナ２０３号,,23,114,4598001,,,,,,,2022-09-01,1,,,,,イノベーション,0
642,3180001152852,新規,0,2022-09-01,2022-09-01,株式会社パスダ,,株式会社,愛知県,一宮市,木曽川町黒田字城東３５番地,,23,203,4930001,,,,,,,2022-09-01,1,,,,,パスダ,0
646,3180003024208,新規,0,2022-09-01,2022-09-01,合同会社エイト,,合同会社,愛知県,名古屋市中川区,八熊３丁目６番１号,,23,110,4540013,,,,,,,2022-09-01,1,,,,,エイト,0
647,3180005019916,新規,0,2022-09-01,2022-09-01,一般社団法人ＷＨＰ　Ｗｏｒｌｄ　Ｈｅａｌｔｈ　Ｐｒｏ　Ｓｕｐｅｒ　Ｄｏｃｔｏｒｓ　Ａｃａｄｅｍｙ,,その他の設立登記法人,愛知県,名古屋市天白区,焼山１丁目４２０番地フジイビル２Ｆ－Ｄ号室,,23,116,4680002,,,,,,,2022-09-01,1,,,,,ダブリューエイチピーワールドヘルスプロスーパードクターズアカデミー,0
674,3290001098713,新規,0,2022-09-01,2022-09-01,福吉住建株式会社,,株式会社,福岡県,糸島市,高田５丁目１７番３号,,40,230,8191102,,,,,,,2022-09-01,1,,,,,フクヨシジュウケン,0
675,3290001098762,新規,0,2022-09-01,2022-09-01,株式会社サニーデイアンドモア,,株式会社,福岡県,福岡市博多区,東比恵３丁目１９－２４－８０１号,,40,132,8120007,,,,,,,2022-09-01,1,,,,,サニーデイアンドモア,0
676,3290003012903,新規,0,2022-09-01,2022-09-01,合同会社ＱｕａｎｇＴｈａｉ福岡,,合同会社,福岡県,福岡市博多区,博多駅南３丁目１５番２７号マルセン博多ビル４０１号,,40,132,8120016,,,,,,,2022-09-01,1,,,,,クァンタイフクオカ,0
688,3330003009498,新規,0,2022-09-01,2022-09-01,合同会社ゆめファーム,,合同会社,熊本県,宇土市,宮庄町７５－１,,43,211,8690457,,,,,,,2022-09-01,1,,,,,ユメファーム,0
689,3330005010553,新規,0,2022-09-01,2022-09-01,アスリーム協同組合,,その他の設立登記法人,熊本県,熊本市東区,桜木１丁目１４番１５号,,43,102,8612101,,,,,,,2022-09-01,1,,,,,アスリーム,0
697,3350001017930,新規,0,2022-09-01,2022-09-01,株式会社イベリス,,株式会社,宮崎県,宮崎市,永楽町２９番地１,,45,201,8800872,,,,,,,2022-09-01,1,,,,,イベリス,0
714,3470001019238,新規,0,2022-09-01,2022-09-01,ＢＲＩＧＨＴ株式会社,,株式会社,香川県,仲多度郡多度津町,大字山階１５１５番地１,,37,404,7640034,,,,,,,2022-09-01,1,,,,,ブライト,0
715,3700150111424,新規,0,2022-09-01,2022-08-22,兎一族　Ｌａｓ☆Ｒａｂｂｉｔａｓ,,その他,東京都,八王子市,北野町２８,,13,201,1920906,,,,,,,2022-08-22,1,,,,,ウサギイチゾクラスラビータス,0
729,4010001229088,新規,0,2022-09-01,2022-09-01,株式会社ビューティクリエイト,,株式会社,東京都,文京区,本郷７丁目２番１２－４０１,,13,105,1130033,,,,,,,2022-09-01,1,,,,,,0
735,4010401169330,新規,0,2022-09-01,2022-09-01,株式会社スピカコンサルティング,,株式会社,東京都,港区,南青山３丁目１番３号,,13,103,1070062,,,,,,,2022-09-01,1,,,,,スピカコンサルティング,0
736,4010405021272,新規,0,2022-09-01,2022-09-01,一般社団法人Ｃｏｎｔｅｎｔ　Ｅｔｈｅｒｅｕｍ　Ｔｅｃｈｎｏｌｏｇｙ　Ａｓｓｏｃｉａｔｉｏｎ,,その他の設立登記法人,東京都,港区,麻布十番１丁目５－１０アトラスビルＴＨＥＨＵＢ麻布十番,,13,103,1060045,,,,,,,2022-09-01,1,,,,,コンテンツイーサリアムテクノロジーアソシエイション,0
737,4010405021306,新規,0,2022-09-01,2022-09-01,ＫｉＮＤ行政書士法人,,その他の設立登記法人,東京都,港区,六本木４丁目８番７号六本木嶋田ビル,,13,103,1060032,,,,,,,2022-09-01,1,,,,,カインド,0
745,4010701043136,新規,0,2022-09-01,2022-09-01,株式会社エヌシーアール,,株式会社,東京都,品川区,豊町６丁目６番１１号,,13,109,1420042,,,,,,,2022-09-01,1,,,,,エヌシーアール,0
746,4010701043144,新規,0,2022-09-01,2022-09-01,株式会社Ａ＆Ｗ,,株式会社,東京都,品川区,西五反田３丁目８－３町原ビル３Ｆ,,13,109,1410031,,,,,,,2022-09-01,1,,,,,エーアンドダブリュー,0
760,4011001149466,新規,0,2022-09-01,2022-09-01,株式会社たか企画設計,,株式会社,東京都,渋谷区,千駄ヶ谷５丁目１５番８号,,13,113,1510051,,,,,,,2022-09-01,1,,,,,タカキカクセッケイ,0
761,4011001149524,新規,0,2022-09-01,2022-09-01,株式会社アセットパートナー,,株式会社,東京都,渋谷区,本町３丁目３７番６号ジョリィ・メゾン２０４,,13,113,1510071,,,,,,,2022-09-01,1,,,,,アセットパートナー,0
764,4011003015303,新規,0,2022-09-01,2022-09-01,合同会社Ｗｉｎｓｔｏｎ,,合同会社,東京都,渋谷区,渋谷２丁目１９－１５宮益坂ビルディング６０９,,13,113,1500002,,,,,,,2022-09-01,1,,,,,ウィンストン,0
772,4011501028426,新規,0,2022-09-01,2022-09-01,星の伝説株式会社,,株式会社,東京都,荒川区,南千住３丁目２７－２浅草ビルＤ号室,,13,118,1160003,,,,,,,2022-09-01,1,,,,,ホシノデンセツ,0
773,4011501028434,新規,0,2022-09-01,2022-09-01,威盛実業株式会社,,株式会社,東京都,荒川区,南千住３丁目２７－２浅草ビル,,13,118,1160003,,,,,,,2022-09-01,1,,,,,イセイジツギョウ,0
774,4011501028442,新規,0,2022-09-01,2022-09-01,株式会社ＴＡＫＡＭＡＳＡ,,株式会社,東京都,荒川区,東尾久１丁目２８番８号,,13,118,1160012,,,,,,,2022-09-01,1,,,,,,0
776,4011601026214,新規,0,2022-09-01,2022-09-01,株式会社スーパーナード,,株式会社,東京都,練馬区,石神井台６丁目１３番２１号,,13,120,1770045,,,,,,,2022-09-01,1,,,,,スーパーナード,0
781,4011801041228,新規,0,2022-09-01,2022-09-01,株式会社ＳＯＲＡ　ＣＯＲＰＯＲＡＴＩＯＮ,,株式会社,東京都,足立区,新田３丁目３番１２号,,13,121,1230865,,,,,,,2022-09-01,1,,,,,ソラコーポレーション,0
791,4013301049593,新規,0,2022-09-01,2022-09-01,株式会社圓か丸,,株式会社,東京都,豊島区,上池袋２丁目３２番８号,,13,116,1700012,,,,,,,2022-09-01,1,,,,,ツブラカマル,0
793,4020001147982,新規,0,2022-09-01,2022-09-01,株式会社応用技術研究院,,株式会社,神奈川県,横浜市都筑区,新栄町９番５号,,14,118,2240035,,,,,,,2022-09-01,1,,,,,オウヨウギジュツケンキュウイン,0
794,4020001147999,新規,0,2022-09-01,2022-09-01,株式会社コンサル,,株式会社,神奈川県,横浜市港北区,新横浜３丁目７番７号３Ｆ,,14,109,2220033,,,,,,,2022-09-01,1,,,,,コンサル,0
795,4020001148015,新規,0,2022-09-01,2022-09-01,株式会社谷知,,株式会社,神奈川県,横浜市磯子区,岡村２丁目２番１９号,,14,107,2350021,,,,,,,2022-09-01,1,,,,,ヤチ,0
800,4020003022325,新規,0,2022-09-01,2022-09-01,アヴァンセ合同会社,,合同会社,神奈川県,横浜市青葉区,若草台１９－１９,,14,117,2270045,,,,,,,2022-09-01,1,,,,,アヴァンセ,0
803,4021001076882,新規,0,2022-09-01,2022-09-01,株式会社ウィステリア,,株式会社,神奈川県,鎌倉市,津１０６９番地３５２,,14,204,2480032,,,,,,,2022-09-01,1,,,,,ウィステリア,0
804,4021003012084,新規,0,2022-09-01,2022-09-01,Ｈ．Ｉ　ｉｎｔｅｒｎａｔｉｏｎａｌ合同会社,,合同会社,神奈川県,厚木市,関口９７０番地５－２０２,,14,212,2430804,,,,,,,2022-09-01,1,,,,,エイチアイインターナショナル,0
808,4030001149887,新規,0,2022-09-01,2022-09-01,ＥＳＰ株式会社,,株式会社,埼玉県,さいたま市大宮区,北袋町１丁目６０１番地１・Ａ１４０４,,11,103,3300835,,,,,,,2022-09-01,1,,,,,イーエスピー,0
814,4040001124897,新規,0,2022-09-01,2022-09-01,株式会社Ａ‐フォレスト,,株式会社,千葉県,印西市,原山１丁目１８番地５,,12,231,2701341,,,,,,,2022-09-01,1,,,,,エーフォレスト,0
822,4050001051612,新規,0,2022-09-01,2022-09-01,株式会社侍Ｓｕｐｅｒ　Ｆｏｏｄ　Ａｃａｄｅｍｙ,,株式会社,茨城県,つくば市,並木２丁目９番地デュオヒルズつくば学園都市１１２号,,08,220,3050044,,,,,,,2022-09-01,1,,,,,サムライスーパーフードアカデミー,0
835,4080401026021,新規,0,2022-09-01,2022-09-01,天のヒーリング株式会社,,株式会社,静岡県,浜松市天竜区,山東４３４８番地の６,,22,137,4313303,,,,,,,2022-09-01,1,,,,,テンノヒーリング,0
850,4120001248399,新規,0,2022-09-01,2022-09-01,嘉度株式会社,,株式会社,大阪府,大阪市中央区,徳井町２丁目１－１５第二共栄ビル６号室,,27,128,5400025,,,,,,,2022-09-01,1,,,,,カド,0
851,4120001248548,新規,0,2022-09-01,2022-09-01,株式会社Ｊ‐ＣＴ,,株式会社,大阪府,大阪市中央区,北浜２丁目６番１８号淀屋橋スクエア１１階,,27,128,5410041,,,,,,,2022-09-01,1,,,,,ジェイシーティー,0
852,4120001248556,新規,0,2022-09-01,2022-09-01,ハッピーホーム株式会社,,株式会社,大阪府,大阪市住之江区,西加賀屋３丁目１９番１４号,,27,125,5590016,,,,,,,2022-09-01,1,,,,,ハッピーホーム,0
853,4120001248572,新規,0,2022-09-01,2022-09-01,株式会社Ｚｅｒｏ‐Ｓａｍ,,株式会社,大阪府,大阪市中央区,本町２丁目６番５号ベアーレ本町ビル５階,,27,128,5410053,,,,,,,2022-09-01,1,,,,,ゼローサム,0
867,4130001072534,新規,0,2022-09-01,2022-09-01,株式会社仁修樓,,株式会社,京都府,京都市北区,紫竹北栗栖町２番地１２,,26,101,6038433,,,,,,,2022-09-01,1,,,,,ニンシュウロウ,0
869,4140001127171,新規,0,2022-09-01,2022-09-01,株式会社ベイエリア８１,,株式会社,兵庫県,西宮市,城ケ堀町２番２３号,,28,204,6620856,,,,,,,2022-09-01,1,,,,,ベイエリアハチジュウイチ,0
878,4160001024482,新規,0,2022-09-01,2022-09-01,株式会社Ｚｗｅｉ,,株式会社,滋賀県,大津市,本堅田４丁目１５番１３－７０３号,,25,201,5200242,,,,,,,2022-09-01,1,,,,,ツヴァイ,0
887,4180001152810,新規,0,2022-09-01,2022-09-01,株式会社Ｆｉｎｅ‐Ｐａｒｔｎｅｒ,,株式会社,愛知県,名古屋市天白区,八事山１５４番地,,23,116,4680077,,,,,,,2022-09-01,1,,,,,ファインパートナー,0
888,4180001152819,新規,0,2022-09-01,2022-09-01,株式会社トモテック,,株式会社,愛知県,名古屋市緑区,太子３丁目２３番地,,23,114,4580823,,,,,,,2022-09-01,1,,,,,トモテック,0
889,4180001152827,新規,0,2022-09-01,2022-09-01,ワンブランチ株式会社,,株式会社,愛知県,名古屋市中区,栄１丁目２０番１０号－９０４号室,,23,106,4600008,,,,,,,2022-09-01,1,,,,,ワンブランチ,0
903,4200005013386,新規,0,2022-09-01,2022-09-01,一般社団法人ＱＯＬ‐ｓｕｐｐｏｒｔ研究所,,その他の設立登記法人,岐阜県,可児郡御嵩町,上恵土１２８５番地１,,21,521,5050126,,,,,,,2022-09-01,1,,,,,キューオーエルサポートケンキュウジョ,0
911,4260001037202,新規,0,2022-09-01,2022-09-01,株式会社共生,,株式会社,岡山県,総社市,総社２丁目１６番３５号,,33,208,7191126,,,,,,,2022-09-01,1,,,,,キョウセイ,0
912,4260005011129,新規,0,2022-09-01,2022-09-01,特定非営利活動法人こども・若者ケアラー支援センターもみの木,,その他の設立登記法人,岡山県,岡山市中区,住吉町１丁目５０番地,,33,102,7038238,,,,,,,2022-09-01,1,,,,,コドモワカモノケアラーシエンセンターモミノキ,0
920,4290801028851,新規,0,2022-09-01,2022-09-01,株式会社ＬＩＢＥＲＡ,,株式会社,福岡県,北九州市小倉南区,北方２丁目９番２５号,,40,107,8020841,,,,,,,2022-09-01,1,,,,,リベラ,0
931,4350003004158,新規,0,2022-09-01,2022-09-01,合同会社ｍｏｃｏｎｎｅｃｔ,,合同会社,宮崎県,宮崎市,本郷２丁目３番地２４号,,45,201,8800922,,,,,,,2022-09-01,1,,,,,モコネクト,0
933,4360003012267,新規,0,2022-09-01,2022-09-01,合同会社ハブリッジ,,合同会社,沖縄県,那覇市,首里末吉町１丁目８９番地７,,47,201,9030801,,,,,,,2022-09-01,1,,,,,ハブリッジ,0
936,4370001048997,新規,0,2022-09-01,2022-09-01,不用品買取株式会社,,株式会社,宮城県,仙台市若林区,沖野６丁目１３番１号,,04,103,9840831,,,,,,,2022-09-01,1,,,,,フヨウヒンカイトリ,0
945,4400001015985,新規,0,2022-09-01,2022-09-01,ＪＩＧ‐ＩＮＤＵＳＴＲＹ株式会社,,株式会社,岩手県,盛岡市,みたけ５丁目１４番１５号,,03,201,0200122,,,,,,,2022-09-01,1,,,,,ジェイアイジーインダストリー,0
951,4470003002240,新規,0,2022-09-01,2022-09-01,合同会社ＨＡＲＵ,,合同会社,香川県,高松市,屋島中町２１５番地,,37,201,7610112,,,,,,,2022-09-01,1,,,,,ハル,0
963,5010001229021,新規,0,2022-09-01,2022-09-01,株式会社ＴＭＳ,,株式会社,東京都,千代田区,富士見２丁目１番５号,,13,101,1020071,,,,,,,2022-09-01,1,,,,,ティーエムエス,0
964,5010001229079,新規,0,2022-09-01,2022-09-01,株式会社アクセス,,株式会社,東京都,中央区,銀座１丁目１２－４Ｎ＆ＥＢＬＤ．７階,,13,102,1040061,,,,,,,2022-09-01,1,,,,,アクセス,0
967,5010005035498,新規,0,2022-09-01,2022-09-01,スカイホスピタリティー２一般社団法人,,その他の設立登記法人,東京都,千代田区,霞が関３丁目２番５号,,13,101,1000013,,,,,,,2022-09-01,1,,,,,スカイホスピタリティーツー,0
968,5010101015313,新規,0,2022-09-01,2022-09-01,株式会社ＨＲｐａｒｔｎｅｒ,,株式会社,東京都,八王子市,松木１４番地７－５０２,,13,201,1920362,,,,,,,2022-09-01,1,,,,,エイチアールパートナー,0
979,5010401169354,新規,0,2022-09-01,2022-09-01,ＤＯＫＤＯＯＲ　ＪＡＰＡＮ株式会社,,株式会社,東京都,港区,海岸３丁目６－３２レグノオンザベイ８０５,,13,103,1080022,,,,,,,2022-09-01,1,,,,,ドックドアージャパン,0
982,5010405021346,新規,0,2022-09-01,2022-09-01,Ｐｌｕｔｏ特定目的会社,,その他の設立登記法人,東京都,港区,虎ノ門５丁目１番４号,,13,103,1050001,,,,,,,2022-09-01,1,,,,,プルート,0
986,5010601061781,新規,0,2022-09-01,2022-09-01,株式会社ＴＫ　ＪＡＰＡＮ,,株式会社,東京都,墨田区,向島５丁目１１番９－１２０２号,,13,107,1310033,,,,,,,2022-09-01,1,,,,,ティケージャパン,0
990,5010701043143,新規,0,2022-09-01,2022-09-01,ヒップスター株式会社,,株式会社,東京都,品川区,上大崎２丁目１３番２９号,,13,109,1410021,,,,,,,2022-09-01,1,,,,,ヒップスター,0
1004,5011001149449,新規,0,2022-09-01,2022-09-01,株式会社ＧＲＫＳ,,株式会社,東京都,目黒区,三田１丁目１２番２４号ＭＴ３ビル１Ｆ,,13,110,1530062,,,,,,,2022-09-01,1,,,,,ジーアールケーエス,0
1005,5011001149498,新規,0,2022-09-01,2022-09-01,ＦＴ防災株式会社,,株式会社,東京都,渋谷区,恵比寿南２丁目１９番１０号,,13,113,1500022,,,,,,,2022-09-01,1,,,,,エフティーボウサイ,0
1006,5011001149507,新規,0,2022-09-01,2022-09-01,株式会社Ｓｅｅｓｈｏｗ,,株式会社,東京都,渋谷区,渋谷２丁目１９番１５－６０９号,,13,113,1500002,,,,,,,2022-09-01,1,,,,,シショー,0
1007,5011001149515,新規,0,2022-09-01,2022-09-01,ＤＴホールディングス株式会社,,株式会社,東京都,渋谷区,千駄ヶ谷４丁目２７番１号神宮外苑ビル３階,,13,113,1510051,,,,,,,2022-09-01,1,,,,,ディーティーホールデイングス,0
1012,5011005009681,新規,0,2022-09-01,2022-09-01,一般社団法人レッジョ・インスパイア国際教育,,その他の設立登記法人,東京都,目黒区,上目黒３丁目３７番１０号,,13,110,1530051,,,,,,,2022-09-01,1,,,,,レッジョインスパイアコクサイキョウイク,0
1013,5011005009723,新規,0,2022-09-01,2022-09-01,一般社団法人日本スクランブルゴルフ協会,,その他の設立登記法人,東京都,渋谷区,幡ヶ谷２丁目２１番４号８階,,13,113,1510072,,,,,,,2022-09-01,1,,,,,ニホンスクランブルゴルフキョウカイ,0
1017,5011305002849,新規,0,2022-09-01,2022-09-01,特定非営利活動法人健全経営コンサルタント協会,,その他の設立登記法人,東京都,杉並区,下井草１丁目２５番３３号,,13,115,1670022,,,,,,,2022-09-01,1,,,,,ケンゼンケイエイコンサルタントキョウカイ,0
1022,5011701025569,新規,0,2022-09-01,2022-09-01,宏栄株式会社,,株式会社,東京都,江戸川区,東小松川２丁目７番２６号,,13,123,1320033,,,,,,,2022-09-01,1,,,,,コウエイ,0
1025,5011801041227,新規,0,2022-09-01,2022-09-01,Ｂｕｄｄｙ株式会社,,株式会社,東京都,足立区,西伊興１丁目１０番２２号,,13,121,1210824,,,,,,,2022-09-01,1,,,,,バディ,0
1036,5020001148014,新規,0,2022-09-01,2022-09-01,株式会社グッドライフサポート,,株式会社,神奈川県,横浜市栄区,飯島町１４２０番地７,,14,115,2440842,,,,,,,2022-09-01,1,,,,,グッドライフサポート,0
1038,5020003022324,新規,0,2022-09-01,2022-09-01,合同会社はなや建物,,合同会社,神奈川県,川崎市麻生区,白鳥２丁目８番３０号ペイサージュ白鳥１０７,,14,137,2150024,,,,,,,2022-09-01,1,,,,,ハナヤタテモノ,0
1044,5030001149878,新規,0,2022-09-01,2022-09-01,株式会社Ａｃｔ　Ｖｉｓｉｏｎ,,株式会社,埼玉県,ふじみ野市,西２丁目１３番５号,,11,245,3560005,,,,,,,2022-09-01,1,,,,,アクトビジョン,0
1050,5040001124863,新規,0,2022-09-01,2022-09-01,株式会社アルファサポート,,株式会社,千葉県,千葉市若葉区,都賀３丁目３３番１７号グランツＴＡ・ＴＵ・ＭＩ２０１号,,12,104,2640025,,,,,,,2022-09-01,1,,,,,アルファサポート,0
1051,5040001124888,新規,0,2022-09-01,2022-09-01,株式会社アクトプランニング,,株式会社,千葉県,木更津市,祇園３丁目２５－１５ソレアードビーダＤ,00127685,12,206,2920052,,,,,,,2022-09-01,1,,,,,アクトプランニング,0
1052,5040001124896,新規,0,2022-09-01,2022-09-01,株式会社ｇｌａｄｈｏｍｅｓ,,株式会社,千葉県,野田市,関宿台町２０６０番地９,,12,208,2700202,,,,,,,2022-09-01,1,,,,,グラッドホームズ,0
1053,5040003020714,新規,0,2022-09-01,2022-09-01,ゴーイングトゥビィベター合同会社,,合同会社,千葉県,千葉市稲毛区,園生町３９９番地１１４,,12,103,2630051,,,,,,,2022-09-01,1,,,,,ゴーイングトゥビィベター,0
1056,5050003006803,新規,0,2022-09-01,2022-09-01,合同会社ＧｒｅｅｎＢｅａｒ,,合同会社,茨城県,守谷市,中央２丁目８－８－９０３,,08,224,3020115,,,,,,,2022-09-01,1,,,,,グリーンベア,0
1061,5060003004211,新規,0,2022-09-01,2022-09-01,合同会社篠崎建築,,合同会社,栃木県,鹿沼市,栄町２丁目２４番地１３,,09,205,3220028,,,,,,,2022-09-01,1,,,,,シノザキケンチク,0
1063,5070001039588,新規,0,2022-09-01,2022-09-01,株式会社やすだや,,株式会社,群馬県,高崎市,藤塚町３２６番地７,,10,202,3700875,,,,,,,2022-09-01,1,,,,,ヤスダヤ,0
1068,5080001025166,新規,0,2022-09-01,2022-09-01,株式会社ＲＥａｎｄ,,株式会社,静岡県,静岡市葵区,千代田３丁目１２番３－１号,,22,101,4200803,,,,,,,2022-09-01,1,,,,,アールイーアンド,0
1077,5100001035666,新規,0,2022-09-01,2022-09-01,株式会社ＳｗｉｎｇＳ,,株式会社,長野県,長野市,大字栗田１６伊藤ビル２階,,20,201,3800921,,,,,,,2022-09-01,1,,,,,エスウイングス,0
1093,5120001248547,新規,0,2022-09-01,2022-09-01,株式会社モナミ,,株式会社,大阪府,大阪市中央区,本町橋２番１５号三恵ビル,,27,128,5400029,,,,,,,2022-09-01,1,,,,,モナミ,0
1094,5120001248555,新規,0,2022-09-01,2022-09-01,株式会社セントラル,,株式会社,大阪府,大阪市住吉区,殿辻１丁目６番９号ＥＮコート４０１号,00127692,27,120,5580042,,,,,,,2022-09-01,1,,,,,セントラル,0
1109,5130003008155,新規,0,2022-09-01,2022-09-01,合同会社つぶぞろい,,合同会社,京都府,京都市南区,久世殿城町６１－９メゾン南中久世１０１,,26,107,6018205,,,,,,,2022-09-01,1,,,,,,0
1113,5160001024481,新規,0,2022-09-01,2022-09-01,株式会社ＣＯＣＯＡＩＮＡ,,株式会社,滋賀県,草津市,山寺町２５０－２３,,25,206,5250042,,,,,,,2022-09-01,1,,,,,ココアイナ,0
1115,5160005011105,新規,0,2022-09-01,2022-09-01,ファーストタワー大津ＭＡＲＹ管理組合法人,,その他の設立登記法人,滋賀県,大津市,皇子が丘２丁目１０番２５号,,25,201,5200025,,,,,,,2022-09-01,1,,,,,ファーストタワーオオツマリー,0
1121,5180001152818,新規,0,2022-09-01,2022-09-01,株式会社みなと国際サービス,,株式会社,愛知県,名古屋市港区,十一屋３丁目１６０番地ロイヤルクレストベイレジデンス４０４号,,23,111,4550831,,,,,,,2022-09-01,1,,,,,ミナトコクサイサービス,0
1122,5180001152826,新規,0,2022-09-01,2022-09-01,株式会社ネクストイノベーション,,株式会社,愛知県,名古屋市中区,栄１丁目２２番２号,,23,106,4600008,,,,,,,2022-09-01,1,,,,,ネクストイノベーション,0
1123,5180001152834,新規,0,2022-09-01,2022-09-01,株式会社誠,,株式会社,愛知県,名古屋市中区,栄３丁目２－３名古屋日興證券ビル４階,,23,106,4600008,,,,,,,2022-09-01,1,,,,,マコト,0
1124,5180001152842,新規,0,2022-09-01,2022-09-01,株式会社ｇｌａｄ,,株式会社,愛知県,稲沢市,田代１丁目１番４５号,,23,220,4928455,,,,,,,2022-09-01,1,,,,,グラッド,0
1140,5220005008697,新規,0,2022-09-01,2022-09-01,社会保険労務士法人人・人・人,,その他の設立登記法人,石川県,金沢市,疋田１丁目３３番地,,17,201,9200003,,,,,,,2022-09-01,1,,,,,ヒトヒトヒト,0
1141,5230001019508,新規,0,2022-09-01,2022-09-01,とんがりサンタ株式会社,,株式会社,富山県,富山市,八尾町松原２５１番地８,,16,201,9392367,,,,,,,2022-09-01,1,,,,,トンガリサンタ,0
1147,5240003005769,新規,0,2022-09-01,2022-09-01,ＢＡＳＥ　ＳＰＯＲＴＳ　ＰＥＲＦＯＲＭＡＮＣＥ合同会社,,合同会社,広島県,広島市西区,三篠町２丁目１番１０号福島ビル１階,,34,104,7330003,,,,,,,2022-09-01,1,,,,,ベーススポーツパフォーマンス,0
1148,5240005015444,新規,0,2022-09-01,2022-09-01,特定非営利活動法人おかしの家,,その他の設立登記法人,広島県,広島市南区,稲荷町１－１,,34,103,7320827,,,,,,,2022-09-01,1,,,,,オカシノイエ,0
1161,5290001098744,新規,0,2022-09-01,2022-09-01,株式会社ＴＯＰ　ＥＬＥＶＥＮ,,株式会社,福岡県,福岡市東区,馬出２丁目２番４３－５０７号,,40,131,8120054,,,,,,,2022-09-01,1,,,,,トップイレブン,0
1166,5330001030058,新規,0,2022-09-01,2022-09-01,熊本システム造船株式会社,,株式会社,熊本県,天草市,天草町大江軍浦１３９４－３,,43,215,8632801,,,,,,,2022-09-01,1,,,,,クマモトシステムゾウセン,0
1175,5350003004157,新規,0,2022-09-01,2022-09-01,合同会社梓,,合同会社,宮崎県,延岡市,平原町５丁目６８５番地９,,45,203,8820866,,,,,,,2022-09-01,1,,,,,アズサ,0
1190,5450001013785,新規,0,2022-09-01,2022-09-01,株式会社ユニティブクリエイト,,株式会社,北海道,旭川市,豊岡四条７丁目４番１０号,,01,204,0788234,,,,,,,2022-09-01,1,,,,,ユニティブクリエイト,0
1196,5500001024430,新規,0,2022-09-01,2022-09-01,矢野ソーラーファーム株式会社,,株式会社,愛媛県,西条市,小松町新屋敷乙５番地７,,38,206,7991101,,,,,,,2022-09-01,1,,,,,ヤノソーラーファーム,0
1197,5700150008247,新規,0,2022-09-01,2015-10-09,現代書道研究所,,その他,東京都,渋谷区,恵比寿１丁目９－１０－２０２,,13,113,1500013,,,,,,,2015-10-09,1,,,,,ゲンダイシヨドウケンキユウシヨ,0
1214,6010001229169,新規,0,2022-09-01,2022-09-01,株式会社グランベル,,株式会社,東京都,中央区,銀座８丁目８－１９伊勢由ビル２Ｆ,,13,102,1040061,,,,,,,2022-09-01,1,,,,,グランベル,0
1215,6010001229185,新規,0,2022-09-01,2022-09-01,株式会社ｉｃｈｉｋａ,,株式会社,東京都,中央区,銀座１丁目１２－４Ｎ＆Ｅ、ＢＬＤ．７階,,13,102,1040061,,,,,,,2022-09-01,1,,,,,イチカ,0
1216,6010003038535,新規,0,2022-09-01,2022-09-01,右京合同会社,,合同会社,東京都,中央区,銀座１丁目１２番４号,,13,102,1040061,,,,,,,2022-09-01,1,,,,,ウキョウ,0
1227,6010405021345,新規,0,2022-09-01,2022-09-01,Ｎｅｐｔｕｎｅ特定目的会社,,その他の設立登記法人,東京都,港区,虎ノ門５丁目１番４号,,13,103,1050001,,,,,,,2022-09-01,1,,,,,ネプチューン,0
1229,6010601061772,新規,0,2022-09-01,2022-09-01,株式会社ＴｏＤａｗｎ,,株式会社,東京都,江東区,東雲１丁目９番４１－１４０８号,,13,108,1350062,,,,,,,2022-09-01,1,,,,,トゥドーン,0
1236,6010801033241,新規,0,2022-09-01,2022-09-01,株式会社エトワール,,株式会社,東京都,大田区,大森西２丁目３０番１０－３０５号,,13,111,1430015,,,,,,,2022-09-01,1,,,,,,0
1241,6011001149415,新規,0,2022-09-01,2022-09-01,Ｐｌｕｓ　Ｉｄｅａ　Ｌａｂ株式会社,,株式会社,東京都,渋谷区,恵比寿４丁目２２番１０号,,13,113,1500013,,,,,,,2022-09-01,1,,,,,プラスアイディアラボ,0
1242,6011001149514,新規,0,2022-09-01,2022-09-01,株式会社エイトワン,,株式会社,東京都,渋谷区,神宮前３丁目３７番１号ザ神宮前レジデンス１１０６号室,,13,113,1500001,,,,,,,2022-09-01,1,,,,,エイトワン,0
1243,6011003015292,新規,0,2022-09-01,2022-09-01,合同会社ｂｕｚｚ,,合同会社,東京都,渋谷区,幡ヶ谷３丁目３９番１２号渋谷ウェストビル１階,,13,113,1510072,,,,,,,2022-09-01,1,,,,,バズ,0
1252,6011501028440,新規,0,2022-09-01,2022-09-01,株式会社ｐａｌｅｔｔｅ　ｃａｎｖａｓ,,株式会社,東京都,北区,志茂１丁目７番１号ラ・ヴェール赤羽１０１号,,13,117,1150042,,,,,,,2022-09-01,1,,,,,パレットキャンバス,0
1253,6011601026204,新規,0,2022-09-01,2022-09-01,ヘルスツリージャパン株式会社,,株式会社,東京都,練馬区,光が丘５丁目２番１－５０２号,,13,120,1790072,,,,,,,2022-09-01,1,,,,,ヘルスツリージャパン,0
1255,6011703003241,新規,0,2022-09-01,2022-09-01,ＭＩＣＣＨＥＬ合同会社,,合同会社,東京都,江戸川区,船堀３丁目１３番１２号クレアシティ船堀９０１,,13,123,1340091,,,,,,,2022-09-01,1,,,,,ミッチェル,0
1258,6012805003146,新規,0,2022-09-01,2022-09-01,医療法人社団玉誠会,,その他の設立登記法人,東京都,国分寺市,本町２丁目２番１号ｃｏｃｏｂｕｎｊｉＥＡＳＴ２Ｆ,,13,214,1850012,,,,,,,2022-09-01,1,,,,,ギョクセイカイ,0
1260,6013301049600,新規,0,2022-09-01,2022-09-01,株式会社コスメブリッジ,,株式会社,東京都,豊島区,南長崎１丁目５番１１号,,13,116,1710052,,,,,,,2022-09-01,1,,,,,コスメブリッジ,0
1265,6020001148005,新規,0,2022-09-01,2022-09-01,株式会社万,,株式会社,神奈川県,横浜市緑区,長津田１丁目２２番４－４２６号,,14,113,2260027,,,,,,,2022-09-01,1,,,,,ヨロズ,0
1266,6020001148021,新規,0,2022-09-01,2022-09-01,ＡＣＰスター株式会社,,株式会社,神奈川県,川崎市川崎区,本町２丁目５番地２本町住宅７０２,,14,131,2100001,,,,,,,2022-09-01,1,,,,,エーシーピースター,0
1274,6021001076864,新規,0,2022-09-01,2022-09-01,株式会社ＳＰＳ,,株式会社,神奈川県,相模原市緑区,橋本５丁目１０番２６号３階,,14,151,2520143,,,,,,,2022-09-01,1,,,,,エスピーエス,0
1282,6021003012082,新規,0,2022-09-01,2022-09-01,合同会社ＡＮＪＵ,,合同会社,神奈川県,相模原市緑区,橋本２丁目１４番７号,,14,151,2520143,,,,,,,2022-09-01,1,,,,,アンジュウ,0
1283,6021003012090,新規,0,2022-09-01,2022-09-01,たのしい國つくり研究所合同会社,,合同会社,神奈川県,足柄上郡開成町,金井島１０３７,,14,366,2580028,,,,,,,2022-09-01,1,,,,,タノシイクニツクリケンキュウジョ,0
1295,6030003020111,新規,0,2022-09-01,2022-09-01,合同会社エスト,,合同会社,埼玉県,川口市,朝日２丁目６番１２号エクレール朝日町１Ｆ,,11,203,3320001,,,,,,,2022-09-01,1,,,,,エスト,0
1297,6040001124879,新規,0,2022-09-01,2022-09-01,株式会社メディカルハーツ,,株式会社,千葉県,市川市,南八幡５丁目１１番１１号,,12,203,2720023,,,,,,,2022-09-01,1,,,,,メディカルハーツ,0
1298,6040001124895,新規,0,2022-09-01,2022-09-01,輝久光貿易株式会社,,株式会社,千葉県,松戸市,栄町２丁目９９番地６,,12,207,2710062,,,,,,,2022-09-01,1,,,,,キキュウコウボウエキ,0
1302,6040005021718,新規,0,2022-09-01,2022-09-01,農事組合法人睦的ファーム,,その他の設立登記法人,千葉県,千葉市緑区,誉田町１丁目８４９番６,,12,105,2660005,,,,,,,2022-09-01,1,,,,,ムテキファーム,0
1304,6050001051610,新規,0,2022-09-01,2022-09-01,株式会社花星,,株式会社,茨城県,稲敷市,下馬渡９２６番地１１,,08,229,3000642,,,,,,,2022-09-01,1,,,,,ハナホシ,0
1307,6050003006810,新規,0,2022-09-01,2022-09-01,家佳合同会社,,合同会社,茨城県,北相馬郡利根町,大字上曽根６９５,,08,564,3001635,,,,,,,2022-09-01,1,,,,,イエヨシ,0
1313,6070003004606,新規,0,2022-09-01,2022-09-01,合同会社ＳＯＲＡＲＩ,,合同会社,群馬県,利根郡みなかみ町,猿ヶ京温泉１１３１番地１,,10,449,3791403,,,,,,,2022-09-01,1,,,,,ソラリ,0
1325,6120001248546,新規,0,2022-09-01,2022-09-01,ＷＩＬＬＥＲ　ＭＡＲＫＥＴＩＮＧ株式会社,,株式会社,大阪府,大阪市北区,大淀中１丁目１番８８号,,27,127,5310076,,,,,,,2022-09-01,1,,,,,ウイラーマーケティング,0
1326,6120001248562,新規,0,2022-09-01,2022-09-01,株式会社ときのこえ,,株式会社,大阪府,大阪市中央区,淡路町１丁目６番９号堺筋サテライトビル８Ｆ９号室,,27,128,5410047,,,,,,,2022-09-01,1,,,,,トキノコエ,0
1338,6130001072466,新規,0,2022-09-01,2022-09-01,株式会社きのわ,,株式会社,京都府,京都市伏見区,両替町４丁目３１９,,26,109,6128082,,,,,,,2022-09-01,1,,,,,キノワ,0
1353,6160001024480,新規,0,2022-09-01,2022-09-01,株式会社ＴＴＴ,,株式会社,滋賀県,栗東市,下鈎４４０番地１（３０１号）フェリス,,25,208,5203026,,,,,,,2022-09-01,1,,,,,ティーティーティー,0
1354,6160003002658,新規,0,2022-09-01,2022-09-01,ＳＳＫ合同会社,,合同会社,滋賀県,大津市,大門町１３－２９,,25,201,5200000,,,,,,,2022-09-01,1,,,,,エスエスケー,0
1362,6180001152817,新規,0,2022-09-01,2022-09-01,株式会社ＮＩＶ,,株式会社,愛知県,東海市,加木屋町泡池１１番地の６３６,,23,222,4770032,,,,,,,2022-09-01,1,,,,,エヌアイヴィ,0
1363,6180001152833,新規,0,2022-09-01,2022-09-01,株式会社Ｂｌｕｅ　Ｐｒｉｎｔ　Ｆａｃｔｏｒｙ,,株式会社,愛知県,犬山市,大字五郎丸字下前田６５番地ＳＩＬＫＨＯＵＳＥＹＵＭＩＨＯ２０１号,,23,215,4840066,,,,,,,2022-09-01,1,,,,,ブループリントファクトリー,0
1364,6180001152858,新規,0,2022-09-01,2022-09-01,株式会社ＫＴ,,株式会社,愛知県,名古屋市守山区,白山３丁目１１０５番地の９,,23,113,4630032,,,,,,,2022-09-01,1,,,,,ケイティー,0
1366,6180003024205,新規,0,2022-09-01,2022-09-01,Ｋｅｎ　Ｂｒｉｄｇｅ　Ｐａｒｔｎｅｒｓ合同会社,,合同会社,愛知県,名古屋市天白区,御幸山５３０番地,,23,116,4680075,,,,,,,2022-09-01,1,,,,,ケンブリッジパートナーズ,0
1373,6200001040408,新規,0,2022-09-01,2022-09-01,株式会社雄建設,,株式会社,岐阜県,岐阜市,茜部中島１丁目１６番地１０,,21,201,5008269,,,,,,,2022-09-01,1,,,,,ユウケンセツ,0
1374,6210001019062,新規,0,2022-09-01,2022-09-01,株式会社みや善,,株式会社,福井県,三方郡美浜町,木野第２５号２番地２,,18,442,9191131,,,,,,,2022-09-01,1,,,,,ミヤゼン,0
1381,6260003004017,新規,0,2022-09-01,2022-09-01,合同会社中庄自動車整備,,合同会社,岡山県,倉敷市,生坂７５３番地,,33,202,7100002,,,,,,,2022-09-01,1,,,,,ナカショウジドウシャセイビ,0
1383,6290001007737,新規,0,2022-09-01,2022-09-01,三宝住宅株式会社,,株式会社,福岡県,福岡市中央区,大濠公園２番３５号,,40,133,8100051,,,,,,,2022-09-01,1,,,,,,0
1387,6290001098768,新規,0,2022-09-01,2022-09-01,ＫＡＳＨＩＭＵＲＡ事業投資株式会社,,株式会社,福岡県,福岡市中央区,白金１丁目２１番１３号３階,,40,133,8100012,,,,,,,2022-09-01,1,,,,,カシムラジギョウトウシ,0
1391,6340003003893,新規,0,2022-09-01,2022-09-01,ＵＤラボ合同会社,,合同会社,鹿児島県,鹿児島市,易居町１番２号鹿児島市役所みなと大通り別館６階ソーホーかごしま４号室,,46,201,8920815,,,,,,,2022-09-01,1,,,,,ユーディラボ,0
1392,6360003012265,新規,0,2022-09-01,2022-09-01,合同会社マイクロ・オーブ,,合同会社,沖縄県,那覇市,前島３丁目２５番２号泊ポートビル１階,,47,201,9000016,,,,,,,2022-09-01,1,,,,,マイクロオーブ,0
1394,6370003005813,新規,0,2022-09-01,2022-09-01,アーガーライン合同会社,,合同会社,宮城県,加美郡加美町,字南町１６３番地１,,04,445,9814241,,,,,,,2022-09-01,1,,,,,アーガーライン,0
1403,6450001013784,新規,0,2022-09-01,2022-09-01,株式会社十仁,,株式会社,北海道,旭川市,神楽二条８丁目１番８－８号,,01,204,0708002,,,,,,,2022-09-01,1,,,,,ジュウジン,0
1422,7010001229127,新規,0,2022-09-01,2022-09-01,ＨＫＳ　ＪＡＰＡＮ株式会社,,株式会社,東京都,中央区,日本橋堀留町２丁目３番３号グランドメゾン日本橋堀留７０１,,13,102,1030012,,,,,,,2022-09-01,1,,,,,,0
1425,7010003038542,新規,0,2022-09-01,2022-09-01,合同会社ＲＹパートナーズ,,合同会社,東京都,中央区,銀座４丁目４番８号浜一和光ビル９階,,13,102,1040061,,,,,,,2022-09-01,1,,,,,アールワイパートナーズ,0
1428,7010101015311,新規,0,2022-09-01,2022-09-01,株式会社ＳＣ,,株式会社,東京都,八王子市,椚田町５０８番地１９,,13,201,1930942,,,,,,,2022-09-01,1,,,,,エスシー,0
1459,7011001149447,新規,0,2022-09-01,2022-09-01,株式会社物語工房,,株式会社,東京都,目黒区,祐天寺１丁目８番５号ルミエール祐天寺１０１,,13,110,1530052,,,,,,,2022-09-01,1,,,,,モノガタリコウボウ,0
1461,7011003015283,新規,0,2022-09-01,2022-09-01,高柳興産合同会社,,合同会社,東京都,渋谷区,上原２丁目３３番２号,,13,113,1510064,,,,,,,2022-09-01,1,,,,,タカヤナギコウサン,0
1462,7011003015300,新規,0,2022-09-01,2022-09-01,七村アソシエイツ合同会社,,合同会社,東京都,渋谷区,西原１丁目４番３号Ｖ７代々木上原３０１,,13,113,1510066,,,,,,,2022-09-01,1,,,,,ナナムラアソシエイツ,0
1467,7011103012107,新規,0,2022-09-01,2022-09-01,合同会社Ａ　Ｌｉｎｋｓ,,合同会社,東京都,新宿区,新宿２丁目６番１１－１３０９号,,13,104,1600022,,,,,,,2022-09-01,1,,,,,エーリンクス,0
1476,7011601026211,新規,0,2022-09-01,2022-09-01,Ａｌｄｒｉｃｈ　Ｉｎｖｅｓｔｍｅｎｔ株式会社,,株式会社,東京都,練馬区,東大泉７丁目３４番２８号３０５室,,13,120,1780063,,,,,,,2022-09-01,1,,,,,アルドリッチインベストメント,0
1478,7011801041225,新規,0,2022-09-01,2022-09-01,株式会社ＯＦＦＩＣＥ　ＫＯＪＩＭＡ,,株式会社,東京都,葛飾区,新小岩２丁目１０番４号欅ビル,,13,122,1240024,,,,,,,2022-09-01,1,,,,,オフィスコジマ,0
1482,7012401039584,新規,0,2022-09-01,2022-09-01,株式会社ＥＳＭ,,株式会社,東京都,調布市,東つつじケ丘３丁目６番地１６,,13,208,1820005,,,,,,,2022-09-01,1,,,,,イーエスエム,0
1483,7012705002321,新規,0,2022-09-01,2022-09-01,医療法人社団旭山会,,その他の設立登記法人,東京都,東久留米市,滝山４丁目１－４０,,13,222,2030033,,,,,,,2022-09-01,1,,,,,キョクザンカイ,0
1490,7020001148004,新規,0,2022-09-01,2022-09-01,株式会社ＹＣ,,株式会社,神奈川県,横浜市磯子区,丸山１丁目２４番１０号,,14,107,2350011,,,,,,,2022-09-01,1,,,,,,0
1491,7020001148012,新規,0,2022-09-01,2022-09-01,株式会社プログレス,,株式会社,神奈川県,川崎市中原区,木月３丁目５８番２０－１号,,14,133,2110025,,,,,,,2022-09-01,1,,,,,プログレス,0
1492,7020001148020,新規,0,2022-09-01,2022-09-01,株式会社だるま猫,,株式会社,神奈川県,横浜市中区,本牧満坂２２番地２,,14,104,2310833,,,,,,,2022-09-01,1,,,,,ダルマネコ,0
1496,7020003022306,新規,0,2022-09-01,2022-09-01,ビフレストインベストメント合同会社,,合同会社,神奈川県,横浜市都筑区,中川中央１丁目１９番１９－８０５号,,14,118,2240003,,,,,,,2022-09-01,1,,,,,ビフレストインベストメント,0
1497,7020003022322,新規,0,2022-09-01,2022-09-01,合同会社イフユー,,合同会社,神奈川県,横浜市港南区,日限山２丁目８－２,,14,111,2330015,,,,,,,2022-09-01,1,,,,,イフユー,0
1502,7021001076863,新規,0,2022-09-01,2022-09-01,株式会社ＫＭＳ,,株式会社,神奈川県,相模原市緑区,橋本５丁目１０番２６号３階,,14,151,2520143,,,,,,,2022-09-01,1,,,,,ケイエムエス,0
1503,7021001076871,新規,0,2022-09-01,2022-09-01,株式会社ハートフル湘南,,株式会社,神奈川県,茅ヶ崎市,共恵１丁目２番２２号,,14,207,2530056,,,,,,,2022-09-01,1,,,,,ハートフルショウナン,0
1504,7021001076888,新規,0,2022-09-01,2022-09-01,株式会社ＹＯＳＨＩＮＯ,,株式会社,神奈川県,藤沢市,藤沢５７７番地寿ビル４０１,,14,205,2510052,,,,,,,2022-09-01,1,,,,,ヨシノ,0
1514,7030001149868,新規,0,2022-09-01,2022-09-01,株式会社カメリア,,株式会社,埼玉県,北足立郡伊奈町,大字小室８１８番地埼玉県立がんセンター医師公舎３０９号室,,11,301,3620806,,,,,,,2022-09-01,1,,,,,カメリア,0
1525,7040001124878,新規,0,2022-09-01,2022-09-01,株式会社船橋教文社,,株式会社,千葉県,船橋市,古和釜町５９７番地９,,12,204,2740061,,,,,,,2022-09-01,1,,,,,フナバシキョウブンシャ,0
1531,7040003020737,新規,0,2022-09-01,2022-09-01,合同会社ＵＣＪ,,合同会社,千葉県,千葉市花見川区,幕張町５丁目４１７番地１７エステ・シティ海浜幕張１－５０８号,,12,102,2620032,,,,,,,2022-09-01,1,,,,,ユーシージェィ,0
1543,7070001039586,新規,0,2022-09-01,2022-09-01,株式会社ＳＰコーポレーション,,株式会社,群馬県,館林市,日向町１１４３－５２,,10,207,3740076,,,,,,,2022-09-01,1,,,,,エスピーコーポレーション,0
1551,7090002011526,新規,0,2022-09-01,2022-09-01,有限会社ときわ厨房,,有限会社,山梨県,甲州市,塩山赤尾３８５番地,,19,213,4040033,,,,,,,2022-09-01,1,,,,,,0
1555,7100002039334,新規,0,2022-09-01,2022-09-01,ヨシトモ木工有限会社,,有限会社,長野県,松本市,大字出川町２７７５番地,,20,202,,,,,,,,2022-09-01,1,,,,,ヨシトモモッコウ,0
1557,7110005016841,新規,0,2022-09-01,2022-09-01,一般社団法人にいがた県央医療連携推進機構,,その他の設立登記法人,新潟県,新潟市中央区,新光町４番地１,,15,103,9500965,,,,,,,2022-09-01,1,,,,,ニイガタケンオウイリョウレンケイスイシンキコウ,0
1563,7120001248487,新規,0,2022-09-01,2022-09-01,隆盛貿易株式会社,,株式会社,大阪府,大阪市浪速区,芦原１丁目１番７号フォレスト難波西４０１号室,,27,111,5560029,,,,,,,2022-09-01,1,,,,,タカモリボウエキ,0
1564,7120001248578,新規,0,2022-09-01,2022-09-01,ＳＭＡＲＴ未来株式会社,,株式会社,大阪府,大阪市中央区,東心斎橋１丁目２－１７第一住建東心斎橋ビル２０３号室,,27,128,5420083,,,,,,,2022-09-01,1,,,,,スマートミライ,0
1569,7120901046412,新規,0,2022-09-01,2022-09-01,グッドセレクション株式会社,,株式会社,大阪府,吹田市,泉町３丁目３番５号,,27,205,5640041,,,,,,,2022-09-01,1,,,,,グッドセレクション,0
1570,7120901046420,新規,0,2022-09-01,2022-09-01,ハーモニーワールド株式会社,,株式会社,大阪府,豊中市,新千里北町３丁目１５番１２号,,27,203,5600081,,,,,,,2022-09-01,1,,,,,ハーモニーワールド,0
1571,7122005003637,新規,0,2022-09-01,2022-09-01,一般社団法人南木の本東北実行組合,,その他の設立登記法人,大阪府,八尾市,南木の本７丁目９３番地,,27,212,5810042,,,,,,,2022-09-01,1,,,,,ミナミキノモトトウホクジッコウクミアイ,0
1574,7130003008161,新規,0,2022-09-01,2022-09-01,ＳＡＵ合同会社,,合同会社,京都府,京都市伏見区,竹田真幡木町５３番地栗塚ビル２階,,26,109,6128427,,,,,,,2022-09-01,1,,,,,エスエーユー,0
1577,7130005016559,新規,0,2022-09-01,2022-09-01,一般社団法人風の杜,,その他の設立登記法人,京都府,京都市右京区,西院高田町２４パデシオン西院７０３,,26,108,6160000,,,,,,,2022-09-01,1,,,,,カゼノモリ,0
1581,7140003018077,新規,0,2022-09-01,2022-09-01,シーザリオ合同会社,,合同会社,兵庫県,高砂市,今市１丁目１番３１号,,28,216,6760003,,,,,,,2022-09-01,1,,,,,シーザリオ,0
1585,7160003002657,新規,0,2022-09-01,2022-09-01,合同会社大善,,合同会社,滋賀県,大津市,唐崎１丁目９－３,,25,201,5200106,,,,,,,2022-09-01,1,,,,,ダイゼン,0
1596,7180001152816,新規,0,2022-09-01,2022-09-01,株式会社テイシン,,株式会社,愛知県,名古屋市中村区,岩塚町１丁目７５番地,,23,105,4530862,,,,,,,2022-09-01,1,,,,,テイシン,0
1597,7180001152824,新規,0,2022-09-01,2022-09-01,株式会社ＪＡＰＩＴＡ,,株式会社,愛知県,名古屋市瑞穂区,南山町１９番地の１・６０７号,,23,108,4670023,,,,,,,2022-09-01,1,,,,,ジャピタ,0
1600,7200001040407,新規,0,2022-09-01,2022-09-01,ＤＭＢＭ株式会社,,株式会社,岐阜県,岐阜市,加納大石町４番地,,21,201,5008427,,,,,,,2022-09-01,1,,,,,ディーエムビーエム,0
1602,7200003005639,新規,0,2022-09-01,2022-09-01,合同会社エヌプラス,,合同会社,岐阜県,多治見市,大針町６番地４７,,21,204,5070062,,,,,,,2022-09-01,1,,,,,エヌプラス,0
1613,7240001060285,新規,0,2022-09-01,2022-09-01,株式会社もりひろホーム,,株式会社,広島県,広島市安佐北区,亀山南２丁目７３番６号,,34,106,7310232,,,,,,,2022-09-01,1,,,,,モリヒロホーム,0
1622,7290001098610,新規,0,2022-09-01,2022-09-01,株式会社アースファクトリー,,株式会社,福岡県,福岡市中央区,大名２丁目９番２９号４０７,,40,133,8100041,,,,,,,2022-09-01,1,,,,,アースファクトリー,0
1627,7320001019298,新規,0,2022-09-01,2022-09-01,株式会社ＬＡＮ．Ｄ,,株式会社,大分県,大分市,中春日町４番２５号,,44,201,8700039,,,,,,,2022-09-01,1,,,,,ランド,0
1629,7340001024998,新規,0,2022-09-01,2022-09-01,株式会社ＧＲＯＵマーケティング,,株式会社,鹿児島県,鹿児島市,吉野町３５７３番地８７,,46,201,8920871,,,,,,,2022-09-01,1,,,,,グロウマーケティング,0
1630,7350001017927,新規,0,2022-09-01,2022-09-01,株式会社石川企画,,株式会社,宮崎県,宮崎市,青島西２丁目３番地１４,,45,201,8892163,,,,,,,2022-09-01,1,,,,,イシカワキカク,0
1633,7360003012272,新規,0,2022-09-01,2022-09-01,合同会社Ｔ．Ｋ．Ｃ,,合同会社,沖縄県,中頭郡西原町,字千原２５３番地６、１Ｆ,,47,329,9030129,,,,,,,2022-09-01,1,,,,,ティーケーシー,0
1638,7380001033079,新規,0,2022-09-01,2022-09-01,株式会社渡辺代行,,株式会社,福島県,福島市,上鳥渡字しのぶ台７６番地の５,,07,201,9601107,,,,,,,2022-09-01,1,,,,,ワタナベダイコウ,0
1644,7400005008264,新規,0,2022-09-01,2022-09-01,一般社団法人うかい結ファーム,,その他の設立登記法人,岩手県,滝沢市,鵜飼八人打４３番地,,03,216,0200676,,,,,,,2022-09-01,1,,,,,ウカイユイファーム,0
1645,7420001017985,新規,0,2022-09-01,2022-09-01,株式会社尚洋,,株式会社,青森県,弘前市,大字末広１丁目５番地１,,02,202,0368085,,,,,,,2022-09-01,1,,,,,ショウヨウ,0
1648,7460105002244,新規,0,2022-09-01,2022-09-01,特定非営利活動法人十勝にじいろ会,,その他の設立登記法人,北海道,帯広市,西二条南１１丁目１番清水ビル４０２号室,,01,207,0800012,,,,,,,2022-09-01,1,,,,,トカチニジイロカイ,0
1650,7490001010265,新規,0,2022-09-01,2022-09-01,株式会社あんじぇれ,,株式会社,高知県,高知市,南ノ丸町５８番地１７,,39,201,7818016,,,,,,,2022-09-01,1,,,,,アンジェレ,0
1651,7500001024437,新規,0,2022-09-01,2022-09-01,ＲＩ設計事務所株式会社,,株式会社,愛媛県,松山市,松末１丁目６番２６号,,38,201,7900915,,,,,,,2022-09-01,1,,,,,アールアイセッケイジムショ,0
1652,7500005008519,新規,0,2022-09-01,2022-09-01,大洲喜多衛生協同組合,,その他の設立登記法人,愛媛県,大洲市,八多喜町甲２１９番地１,,38,207,7950041,,,,,,,2022-09-01,1,,,,,オオズキタエイセイ,0
1661,8010001228862,新規,0,2022-09-01,2022-09-01,鼎陽テクノロジー株式会社,,株式会社,東京都,千代田区,六番町１５番２号鳳翔ビル３階,,13,101,1020085,,,,,,,2022-09-01,1,,,,,テイヨウテクノロジー,0
1672,8010401169368,新規,0,2022-09-01,2022-09-01,株式会社２２００,,株式会社,東京都,港区,浜松町２丁目２－１５浜松町ダイヤビル２Ｆ,,13,103,1050013,,,,,,,2022-09-01,1,,,,,ニーニーゼロゼロ,0
1678,8010603009702,新規,0,2022-09-01,2022-09-01,クラウドフォース合同会社,,合同会社,東京都,江東区,有明１丁目４番１１－２６２１号,,13,108,1350063,,,,,,,2022-09-01,1,,,,,クラウドフォース,0
1679,8010701043132,新規,0,2022-09-01,2022-09-01,株式会社ＯＧＲコーポレーション,,株式会社,東京都,品川区,北品川５丁目３番１－３７１１号,,13,109,1410001,,,,,,,2022-09-01,1,,,,,オージーアールコーポレーション,0
1680,8010701043140,新規,0,2022-09-01,2022-09-01,株式会社ＦＲＡＴパートナーズ,,株式会社,東京都,品川区,西五反田７丁目１３番５号ＤＫ五反田３階,,13,109,1410031,,,,,,,2022-09-01,1,,,,,フラットパートナーズ,0
1686,8011001149479,新規,0,2022-09-01,2022-09-01,株式会社ライフワンネクスト,,株式会社,東京都,渋谷区,桜丘町２３番１７号シティコート桜丘５０７,,13,113,1500031,,,,,,,2022-09-01,1,,,,,ライフワンネクスト,0
1687,8011001149504,新規,0,2022-09-01,2022-09-01,椎橋＆Ｃｏ．株式会社,,株式会社,東京都,渋谷区,富ヶ谷１丁目３５番２０号,,13,113,1510063,,,,,,,2022-09-01,1,,,,,シイハシアンドコー,0
1697,8011201024069,新規,0,2022-09-01,2022-09-01,株式会社誠科医薬,,株式会社,東京都,中野区,弥生町６丁目１２番３号,,13,114,1640013,,,,,,,2022-09-01,1,,,,,セイカイヤク,0
1700,8011301028044,新規,0,2022-09-01,2022-09-01,日本川上株式会社,,株式会社,東京都,杉並区,梅里２丁目２５番１３号高円寺プラザ２０３号,,13,115,1660011,,,,,,,2022-09-01,1,,,,,ニホンカワカミ,0
1704,8011303004506,新規,0,2022-09-01,2022-09-01,ｗａｃｒｅｃｏ合同会社,,合同会社,東京都,杉並区,高円寺南４丁目４１－１０ＵＰＢＡＳＥ高円寺２０８,,13,115,1660003,,,,,,,2022-09-01,1,,,,,ワクレコ,0
1708,8011501028430,新規,0,2022-09-01,2022-09-01,１２７株式会社,,株式会社,東京都,北区,浮間３丁目６－１３クレストガーデンレジデンス１０８,,13,117,1150051,,,,,,,2022-09-01,1,,,,,イチニナ,0
1709,8011501028439,新規,0,2022-09-01,2022-09-01,株式会社Ｍテック,,株式会社,東京都,荒川区,東日暮里３丁目１２番９号,,13,118,1160014,,,,,,,2022-09-01,1,,,,,,0
1713,8011805003204,新規,0,2022-09-01,2022-09-01,医療法人社団恵飾会,,その他の設立登記法人,東京都,葛飾区,白鳥４丁目１０番１７号コープみらい葛飾白鳥店２階,,13,122,1250063,,,,,,,2022-09-01,1,,,,,ケイショクカイ,0
1722,8020001148011,新規,0,2022-09-01,2022-09-01,株式会社Ｓｏｕｒｃｅ　Ｄｅｓｉｇｎ,,株式会社,神奈川県,横浜市鶴見区,駒岡２丁目７番１号,,14,101,2300071,,,,,,,2022-09-01,1,,,,,ソースデザイン,0
1729,8021001076879,新規,0,2022-09-01,2022-09-01,Ｈｏｎｍｏｎｏ　Ｊａｐａｎ株式会社,,株式会社,神奈川県,逗子市,山の根１丁目４－１５－４０５,,14,208,2490002,,,,,,,2022-09-01,1,,,,,ホンモノジャパン,0
1730,8021001076887,新規,0,2022-09-01,2022-09-01,フラットシステム株式会社,,株式会社,神奈川県,相模原市中央区,富士見３丁目１０番１－１０８号,,14,152,2520236,,,,,,,2022-09-01,1,,,,,フラットシステム,0
1731,8021003012089,新規,0,2022-09-01,2022-09-01,Ｔｚアカウンティングファーム合同会社,,合同会社,神奈川県,中郡二宮町,山西３５番地の１９２,,14,342,2590124,,,,,,,2022-09-01,1,,,,,ティーズアカウンティングファーム,0
1732,8021005012599,新規,0,2022-09-01,2022-09-01,一般社団法人ＮｅｗＳｃｅｎｅ,,その他の設立登記法人,神奈川県,鎌倉市,材木座１丁目２番１６号,,14,204,2480013,,,,,,,2022-09-01,1,,,,,ニューシーン,0
1736,8030001149867,新規,0,2022-09-01,2022-09-01,株式会社レスタ,,株式会社,埼玉県,川口市,大字安行吉岡１７６５番地の１プレジール１０３号,,11,203,3340072,,,,,,,2022-09-01,1,,,,,レスタ,0
1737,8030001149883,新規,0,2022-09-01,2022-09-01,株式会社グラン・パ・ド・ドゥ,,株式会社,埼玉県,和光市,南２丁目１番５－２０４号,,11,229,3510104,,,,,,,2022-09-01,1,,,,,グランパドドゥ,0
1738,8030001149891,新規,0,2022-09-01,2022-09-01,株式会社大誠,,株式会社,埼玉県,東松山市,松本町１丁目８番１０号,,11,212,3550014,,,,,,,2022-09-01,1,,,,,タイセイ,0
1739,8030001149900,新規,0,2022-09-01,2022-09-01,太陽工業株式会社,,株式会社,埼玉県,和光市,南２丁目１番１３号２０２南大和団地,,11,229,3510104,,,,,,,2022-09-01,1,,,,,タイヨウコウギョウ,0
1742,8030003020092,新規,0,2022-09-01,2022-09-01,合同会社ＫＹサービス,,合同会社,埼玉県,上尾市,西宮下３丁目２１１－１０１,,11,219,3620043,,,,,,,2022-09-01,1,,,,,ケイワイサービス,0
1744,8040001124852,新規,0,2022-09-01,2022-09-01,株式会社ＦＵＫＡＩ,,株式会社,千葉県,野田市,中野台８３番地,,12,208,2780035,,,,,,,2022-09-01,1,,,,,フカイ,0
1745,8040001124877,新規,0,2022-09-01,2022-09-01,株式会社ＵＰＢＥＡＴ．Ｅｎｔｅｒｔａｉｎｍｅｎｔ,,株式会社,千葉県,四街道市,大日２００８番地１３,,12,228,2840001,,,,,,,2022-09-01,1,,,,,アップビートエンターテイメント,0
1746,8040001124885,新規,0,2022-09-01,2022-09-01,志成ライフパートナーズ株式会社,,株式会社,千葉県,船橋市,本町３丁目２５番３号,,12,204,2730005,,,,,,,2022-09-01,1,,,,,シセイライフパートナーズ,0
1759,8050001051609,新規,0,2022-09-01,2022-09-01,株式会社Ｂｅ　ｔｈｅ　ｌｉｇｈｔ,,株式会社,茨城県,土浦市,摩利山新田３０１番地３,,08,203,3000838,,,,,,,2022-09-01,1,,,,,ビーザライト,0
1775,8110001036917,新規,0,2022-09-01,2022-09-01,Ｐ＆Ｃ株式会社,,株式会社,新潟県,新潟市西区,坂井砂山４丁目８番２号８,,15,107,9502044,,,,,,,2022-09-01,1,,,,,ピーアンドシー,0
1789,8120001248486,新規,0,2022-09-01,2022-09-01,株式会社ＴＨＴ,,株式会社,大阪府,大阪市大正区,三軒家西１丁目１７番１８号１Ｆ,,27,108,5510001,,,,,,,2022-09-01,1,,,,,ティーエイチティー,0
1790,8120001248560,新規,0,2022-09-01,2022-09-01,株式会社ユニコーエン,,株式会社,大阪府,大阪市中央区,安土町１丁目６番７－１５０２,,27,128,5410052,,,,,,,2022-09-01,1,,,,,ユニコーエン,0
1791,8120001248569,新規,0,2022-09-01,2022-09-01,オールウィン株式会社,,株式会社,大阪府,大阪市中央区,内本町２丁目２－１４ＧＳハイム内本町４０１号室,,27,128,5400026,,,,,,,2022-09-01,1,,,,,オールウィン,0
1792,8120001248577,新規,0,2022-09-01,2022-09-01,Ｍｅｔａ未来株式会社,,株式会社,大阪府,大阪市北区,豊崎４丁目８－２日商岩井中津マンション７０３,,27,127,5310072,,,,,,,2022-09-01,1,,,,,メタミライ,0
1801,8122001036185,新規,0,2022-09-01,2022-09-01,ＧＫドットコム株式会社,,株式会社,大阪府,八尾市,栄町１丁目６番６号,,27,212,5810074,,,,,,,2022-09-01,1,,,,,ジーケードットコム,0
1807,8130001072530,新規,0,2022-09-01,2022-09-01,株式会社ハトヤ産業,,株式会社,京都府,京都市南区,西九条藤ノ木町２３番地,,26,107,6018421,,,,,,,2022-09-01,1,,,,,ハトヤサンギョウ,0
1809,8130003008152,新規,0,2022-09-01,2022-09-01,メディネクスト合同会社,,合同会社,京都府,京都市上京区,浄福寺通今出川下る竪亀屋町２５２,,26,102,6028462,,,,,,,2022-09-01,1,,,,,メディネクスト,0
1814,8140001127234,新規,0,2022-09-01,2022-09-01,株式会社オフィスＮ２１,,株式会社,兵庫県,三木市,大村２９３番地,,28,215,6730404,,,,,,,2022-09-01,1,,,,,オフィスエヌニジュウイチ,0
1821,8180001152815,新規,0,2022-09-01,2022-09-01,株式会社Ｅ‐ＦＥＬＬＯＷ,,株式会社,愛知県,名古屋市中区,栄１丁目１３番４号みその大林ビル９階,,23,106,4600008,,,,,,,2022-09-01,1,,,,,イーフェロー,0
1822,8180001152831,新規,0,2022-09-01,2022-09-01,株式会社ＳＥＲＡ,,株式会社,愛知県,名古屋市昭和区,滝川町４７番地の１６３,,23,107,4660826,,,,,,,2022-09-01,1,,,,,セラ,0
1834,8200001040406,新規,0,2022-09-01,2022-09-01,株式会社Ｒ,,株式会社,岐阜県,下呂市,萩原町萩原１３６６番地,,21,220,5092517,,,,,,,2022-09-01,1,,,,,アール,0
1837,8210001019060,新規,0,2022-09-01,2022-09-01,株式会社ザナックコーポレーション,,株式会社,福井県,福井市,文京３丁目２０番１２号,,18,201,9100017,,,,,,,2022-09-01,1,,,,,ザナックコーポレーション,0
1843,8240001060284,新規,0,2022-09-01,2022-09-01,株式会社ＣｏＣｏＭｏ,,株式会社,広島県,福山市,春日町５丁目８番６－２０２号,,34,207,7210907,,,,,,,2022-09-01,1,,,,,ココモ,0
1844,8240003005774,新規,0,2022-09-01,2022-09-01,合同会社ＭＳＫ,,合同会社,広島県,広島市中区,流川町二丁目６番ＴＯＹＯｐｅｒｆｕｍｅ流川３階,,34,101,7300028,,,,,,,2022-09-01,1,,,,,エムエスケイ,0
1855,8290001098741,新規,0,2022-09-01,2022-09-01,Ｔａｍａｇｏ　Ｂｌｏｃｋｃｈａｉｎ　Ｌａｂｓ株式会社,,株式会社,福岡県,福岡市博多区,博多駅中央街１－１アミュプラザ博多Ｂ１ＦＪＲ博多シティ,,40,132,8120012,,,,,,,2022-09-01,1,,,,,タマゴブロックチェーンラブス,0
1856,8290001098766,新規,0,2022-09-01,2022-09-01,ＫＡＳＨＩＭＵＲＡ不動産レジデンス株式会社,,株式会社,福岡県,福岡市中央区,白金１丁目２１番１３号３階,,40,133,8100012,,,,,,,2022-09-01,1,,,,,カシムラフドウサンレジデンス,0
1857,8290003012873,新規,0,2022-09-01,2022-09-01,合同会社みかづき,,合同会社,福岡県,福津市,宮司６丁目２３番２号グリーンハイム津屋崎２号棟２０７,,40,224,8113305,,,,,,,2022-09-01,1,,,,,ミカズキ,0
1858,8310001018011,新規,0,2022-09-01,2022-09-01,株式会社ＷＡＫＯＵ,,株式会社,長崎県,佐世保市,大和町１０８０,,42,202,8571165,,,,,,,2022-09-01,1,,,,,ワコウ,0
1880,8400005008263,新規,0,2022-09-01,2022-09-01,一般社団法人アグリサポートおおさ輪,,その他の設立登記法人,岩手県,滝沢市,大沢米倉６１番地１,,03,216,0200716,,,,,,,2022-09-01,1,,,,,アグリサポートオオサワ,0
1883,8430001087399,新規,0,2022-09-01,2022-09-01,株式会社ＯＷＬ　ＴＩＤＥ,,株式会社,北海道,札幌市白石区,本通１丁目南２番２０号アルファススクエア白石本通,,01,104,0030026,,,,,,,2022-09-01,1,,,,,アウルタイド,0
1897,9010001229166,新規,0,2022-09-01,2022-09-01,採用ＨＥＲＯ株式会社,,株式会社,東京都,千代田区,神田平河町１番地,,13,101,1010027,,,,,,,2022-09-01,1,,,,,サイヨウヒーロー,0
1899,9010003038482,新規,0,2022-09-01,2022-09-01,橋本高野バイオマス発電所合同会社,,合同会社,東京都,中央区,銀座８丁目１４番９号,,13,102,1040061,,,,,,,2022-09-01,1,,,,,ハシモトコウヤバイオマスハツデン,0
1900,9010003038557,新規,0,2022-09-01,2022-09-01,ＡＢプロパティ合同会社,,合同会社,東京都,文京区,目白台３丁目２９番２３－３０７号,,13,105,1120015,,,,,,,2022-09-01,1,,,,,エービープロパティ,0
1917,9010405021268,新規,0,2022-09-01,2022-09-01,一般社団法人美容鍼灸技能教育研究協会,,その他の設立登記法人,東京都,港区,白金台５丁目２番５号トランドゥ４０３,,13,103,1080071,,,,,,,2022-09-01,1,,,,,ビヨウシンキュウギノウキョウイクケンキュウキョウカイ,0
1919,9010601061778,新規,0,2022-09-01,2022-09-01,株式会社Ｕｐ　Ｂｅａｔ,,株式会社,東京都,江東区,森下３丁目１３番６号,,13,108,1350004,,,,,,,2022-09-01,1,,,,,アップビート,0
1927,9010803004270,新規,0,2022-09-01,2022-09-01,合同会社すなおランド,,合同会社,東京都,大田区,池上７丁目２番７号,,13,111,1460082,,,,,,,2022-09-01,1,,,,,スナオランド,0
1932,9011001149503,新規,0,2022-09-01,2022-09-01,ＬＯＺＡ　ｐｒｏｍｏｔｉｏｎ株式会社,,株式会社,東京都,目黒区,青葉台２丁目１７番２号青葉台ハウス０８,,13,110,1530042,,,,,,,2022-09-01,1,,,,,ロザプロモーション,0
1942,9011701025557,新規,0,2022-09-01,2022-09-01,株式会社エスケー調査,,株式会社,東京都,江戸川区,東小岩１丁目１２番１２号,,13,123,1330052,,,,,,,2022-09-01,1,,,,,エスケーチョウサ,0
1943,9011701025565,新規,0,2022-09-01,2022-09-01,志泰電子株式会社,,株式会社,東京都,江戸川区,南篠崎町５丁目１０番１１号,,13,123,1330065,,,,,,,2022-09-01,1,,,,,シタイデンシ,0
1947,9012401039590,新規,0,2022-09-01,2022-09-01,株式会社飯田工業,,株式会社,東京都,稲城市,東長沼３２１番地５,,13,225,2060802,,,,,,,2022-09-01,1,,,,,イイダコウギョウ,0
1948,9012701017230,新規,0,2022-09-01,2022-09-01,株式会社エルエイト,,株式会社,東京都,清瀬市,中清戸３丁目４１０番地１－Ｂ－１０２号,,13,221,2040012,,,,,,,2022-09-01,1,,,,,エルエイト,0
1959,9020001148010,新規,0,2022-09-01,2022-09-01,株式会社Ｇ．ａｉｒ　ｃｏｒｐｏｒａｔｉｏｎ,,株式会社,神奈川県,川崎市宮前区,平３丁目２３番２４号,,14,136,2160022,,,,,,,2022-09-01,1,,,,,ジーエアーコーポレーション,0
1960,9020001148019,新規,0,2022-09-01,2022-09-01,株式会社Ｂｌｕｅ　Ｓｐａｃｅ,,株式会社,神奈川県,横浜市中区,相生町１丁目７和同ビル４Ｆ,,14,104,2310012,,,,,,,2022-09-01,1,,,,,ブルースペース,0
1962,9020003022320,新規,0,2022-09-01,2022-09-01,合同会社正和工業,,合同会社,神奈川県,横浜市戸塚区,深谷町６３６番地５エターナル・サン戸塚２０３号,,14,110,2450067,,,,,,,2022-09-01,1,,,,,マサカズコウギョウ,0
1968,9021001076886,新規,0,2022-09-01,2022-09-01,ＣＯＬＢＩＯ　ＧＲＯＵＰ株式会社,,株式会社,神奈川県,茅ヶ崎市,美住町５番１２号,,14,207,2530023,,,,,,,2022-09-01,1,,,,,コルビオグループ,0
1970,9021005012607,新規,0,2022-09-01,2022-09-01,一般社団法人シンドバットＥＮガーデン,,その他の設立登記法人,神奈川県,相模原市緑区,根小屋３８８－１,,14,151,2520153,,,,,,,2022-09-01,1,,,,,シンドバットエンガーデン,0
1977,9030001149874,新規,0,2022-09-01,2022-09-01,株式会社Ｏｂｌｉｇｅ,,株式会社,埼玉県,さいたま市大宮区,土手町２丁目１番地１,,11,103,3300801,,,,,,,2022-09-01,1,,,,,オブリージュ,0
1978,9030001149882,新規,0,2022-09-01,2022-09-01,株式会社ＫＤＣ,,株式会社,埼玉県,さいたま市見沼区,東大宮５丁目２番地１３斎藤ビル５階,,11,104,3370051,,,,,,,2022-09-01,1,,,,,ケイディーシー,0
1980,9030003020067,新規,0,2022-09-01,2022-09-01,合同会社ＹＰＭ,,合同会社,埼玉県,さいたま市大宮区,下町３丁目７番地１Ｆ３０３,,11,103,3300844,,,,,,,2022-09-01,1,,,,,ワイピーエム,0
1981,9030003020100,新規,0,2022-09-01,2022-09-01,東陽合同会社,,合同会社,埼玉県,川口市,芝園町３番４－５１１号芝園団地,,11,203,3330853,,,,,,,2022-09-01,1,,,,,トウヨウ,0
1988,9040001124851,新規,0,2022-09-01,2022-09-01,良木株式会社,,株式会社,千葉県,松戸市,西馬橋２丁目３７番１３号,,12,207,2710044,,,,,,,2022-09-01,1,,,,,ヨシキ,0
1989,9040001124876,新規,0,2022-09-01,2022-09-01,株式会社ＡＮＮＡ　Ｇｒｏｕｐ,,株式会社,千葉県,佐倉市,表町３丁目１３番地２,,12,212,2850811,,,,,,,2022-09-01,1,,,,,アンナグループ,0
1990,9040001124892,新規,0,2022-09-01,2022-09-01,株式会社ＣＥＲＥＳＴ,,株式会社,千葉県,千葉市中央区,中央３丁目１３－７－４０９,,12,101,2600013,,,,,,,2022-09-01,1,,,,,セレスト,0
1996,9060001035221,新規,0,2022-09-01,2022-09-01,株式会社菊池いちご園,,株式会社,栃木県,那須塩原市,上横林２６２番地,,09,213,3292805,,,,,,,2022-09-01,1,,,,,キクチイチゴエン,0
2001,9080105006281,新規,0,2022-09-01,2022-09-01,一般社団法人海月福祉会,,その他の設立登記法人,静岡県,沼津市,沼北町２丁目１４番６－２号,,22,203,4100058,,,,,,,2022-09-01,1,,,,,カイゲツフクシカイ,0
2007,9100001035662,新規,0,2022-09-01,2022-09-01,株式会社協和商事,,株式会社,長野県,佐久市,臼田１３２５番地,,20,217,3840301,,,,,,,2022-09-01,1,,,,,キョウワショウジ,0
2009,9110001036916,新規,0,2022-09-01,2022-09-01,株式会社神州屋,,株式会社,新潟県,新発田市,松岡甲１７８１番地,,15,206,9570044,,,,,,,2022-09-01,1,,,,,シンシュウヤ,0
2018,9120001248485,新規,0,2022-09-01,2022-09-01,富謙商事株式会社,,株式会社,大阪府,大阪市生野区,桃谷３丁目１８番１０号,,27,116,5440034,,,,,,,2022-09-01,1,,,,,トミケンショウジ,0
2019,9120001248502,新規,0,2022-09-01,2022-09-01,弘懿株式会社,,株式会社,大阪府,大阪市中央区,松屋町９番２０号ローレルステート松屋町９０４Ｂ,,27,128,5420067,,,,,,,2022-09-01,1,,,,,コウイ,0
2020,9120001248568,新規,0,2022-09-01,2022-09-01,株式会社Ａｒｉｚａｓ,,株式会社,大阪府,大阪市福島区,海老江１丁目１１番１号－１５０６グリーンシティＯＳＡＫＡ１５０６号室,,27,103,5530001,,,,,,,2022-09-01,1,,,,,アリザス,0
2022,9120003022384,新規,0,2022-09-01,2022-09-01,ＲＥＳＴＡ合同会社,,合同会社,大阪府,大阪市此花区,島屋６丁目２－１１０－７０７,,27,104,5540024,,,,,,,2022-09-01,1,,,,,レスタ,0
2025,9120005023158,新規,0,2022-09-01,2022-09-01,一般社団法人えびす堂,,その他の設立登記法人,大阪府,大阪市阿倍野区,阿倍野元町１８番３９号,,27,119,5450034,,,,,,,2022-09-01,1,,,,,エビスドウ,0
2031,9120901046419,新規,0,2022-09-01,2022-09-01,ヴァイアンドフェロウズ株式会社,,株式会社,大阪府,吹田市,五月が丘北５番１号,,27,205,5650834,,,,,,,2022-09-01,1,,,,,ヴァイアンドフェロウズ,0
2050,9140001127233,新規,0,2022-09-01,2022-09-01,シントラエンジニアリング株式会社,,株式会社,兵庫県,尼崎市,道意町７丁目１番地の３ＡＲＩＣ,,28,202,6600083,,,,,,,2022-09-01,1,,,,,シントラエンジニアリング,0
2056,9140003018083,新規,0,2022-09-01,2022-09-01,マイヤーアセットマネジメント合同会社,,合同会社,兵庫県,明石市,旭が丘２－２７,,28,203,6730002,,,,,,,2022-09-01,1,,,,,マイヤーアセットマネジメント,0
2059,9150001025790,新規,0,2022-09-01,2022-09-01,株式会社ＫＡＮＯＡ,,株式会社,奈良県,橿原市,内膳町１丁目１番１号,,29,205,6340804,,,,,,,2022-09-01,1,,,,,カノア,0
2060,9160003002655,新規,0,2022-09-01,2022-09-01,合同会社エイアール,,合同会社,滋賀県,大津市,八屋戸字カヤ８４７番２,,25,201,5200515,,,,,,,2022-09-01,1,,,,,エイアール,0
2066,9180001152822,新規,0,2022-09-01,2022-09-01,株式会社みわ,,株式会社,愛知県,名古屋市中川区,戸田明正２丁目９０８番地,,23,110,4540961,,,,,,,2022-09-01,1,,,,,ミワ,0
2067,9180001152830,新規,0,2022-09-01,2022-09-01,株式会社フジックス,,株式会社,愛知県,名古屋市中区,錦３丁目１４番９号,,23,106,4600003,,,,,,,2022-09-01,1,,,,,フジックス,0
2072,9180003024185,新規,0,2022-09-01,2022-09-01,ストロボちょっぷ合同会社,,合同会社,愛知県,尾張旭市,瀬戸川町１丁目４８番地コーポ富丘１０３号室,,23,226,4880023,,,,,,,2022-09-01,1,,,,,ストロボチョップ,0
2073,9180003024210,新規,0,2022-09-01,2022-09-01,ＳＡＪ合同会社,,合同会社,愛知県,名古屋市昭和区,戸田町５丁目１３番地の５,,23,107,4660846,,,,,,,2022-09-01,1,,,,,エスエージェイ,0
2093,9290001098757,新規,0,2022-09-01,2022-09-01,ＡＫＡ　ＳＴＹＬＥ株式会社,,株式会社,福岡県,福岡市東区,香椎照葉３丁目３番１号アイランドタワースカイクラブＡ棟３０２号,,40,131,8130017,,,,,,,2022-09-01,1,,,,,エーケーエースタイル,0
2104,9350001017925,新規,0,2022-09-01,2022-09-01,ＭＣＭ株式会社,,株式会社,宮崎県,延岡市,三ツ瀬町１丁目３－５ウェルレジデンス三ツ瀬６０１,,45,203,8820842,,,,,,,2022-09-01,1,,,,,エムシーエム,0
2110,9370001048992,新規,0,2022-09-01,2022-09-01,かみファーム株式会社,,株式会社,宮城県,大崎市,古川駅南３丁目３０番地２,,04,215,9896161,,,,,,,2022-09-01,1,,,,,カミファーム,0
2111,9370003005819,新規,0,2022-09-01,2022-09-01,扇＆奥久尼合同会社,,合同会社,宮城県,仙台市宮城野区,福室２丁目８番１７号福室マンション３１４号,,04,102,9830005,,,,,,,2022-09-01,1,,,,,オウギアンドオクニ,0
2116,9410001013265,新規,0,2022-09-01,2022-09-01,東北プロパティ株式会社,,株式会社,秋田県,能代市,扇田字扇渕４番地４号,,05,202,0160122,,,,,,,2022-09-01,1,,,,,トウホクプロパティ,0
2129,9470001019240,新規,0,2022-09-01,2022-09-01,株式会社ネプチューン,,株式会社,香川県,坂出市,府中町５４１１番地５,,37,203,7620024,,,,,,,2022-09-01,1,,,,,ネプチューン,0
