sequenceNumber,corporateNumber,process,correct,updateDate,changeDate,name,nameImageId,kind,prefectureName,cityName,streetNumber,addressImageId,prefectureCode,cityCode,postCode,addressOutside,addressOutsideImageId,closeDate,closeCause,successorCorporateNumber,changeCause,assignmentDate,latest,enName,enPrefectureName,enCityName,enAddressOutside,furigana,hihyoji
5,1010001231807,新規,0,2022-12-27,2022-12-27,エーステクノロジー株式会社,,株式会社,東京都,中央区,京橋１丁目１７番１号,,13,102,1040031,,,,,,,2022-12-27,1,,,,,エーステクノロジー,0
6,1010001231823,新規,0,2022-12-27,2022-12-27,株式会社にしかん企画,,株式会社,東京都,中央区,京橋１丁目１番１０号西勘本店ビル７Ｆ,,13,102,1040031,,,,,,,2022-12-27,1,,,,,ニシカンキカク,0
7,1010001231872,新規,0,2022-12-27,2022-12-27,株式会社塚本ＦＰ事務所,,株式会社,東京都,中央区,銀座７丁目１３番６号サガミビル２階,,13,102,1040061,,,,,,,2022-12-27,1,,,,,ツカモトエフピージムショ,0
8,1010001231880,新規,0,2022-12-27,2022-12-27,株式会社一耕,,株式会社,東京都,千代田区,神田東松下町２５番地,,13,101,1010042,,,,,,,2022-12-27,1,,,,,イッコウ,0
10,1010003039389,新規,0,2022-12-27,2022-12-27,合同会社シュリーパドマ,,合同会社,東京都,千代田区,神田神保町２丁目１４番地１１朝日神保町プラザ９０１号,,13,101,1010051,,,,,,,2022-12-27,1,,,,,シュリーパドマ,0
17,1010401171512,新規,0,2022-12-27,2022-12-27,株式会社スミカ,,株式会社,東京都,港区,六本木６丁目３番１号,,13,103,1060032,,,,,,,2022-12-27,1,,,,,スミカ,0
21,1010501049807,新規,0,2022-12-27,2022-12-27,Ｂａｓｉｃ　ｂａｓｅ株式会社,,株式会社,東京都,台東区,西浅草２丁目２４－１０コーポなつめ３０３,,13,106,1110035,,,,,,,2022-12-27,1,,,,,ベーシックベース,0
23,1010701043659,新規,0,2022-12-27,2022-12-27,株式会社ＴＩＫＩ,,株式会社,東京都,品川区,南大井３丁目１６番－５－２０１,,13,109,1400013,,,,,,,2022-12-27,1,,,,,ティーキー,0
26,1010901052212,新規,0,2022-12-27,2022-12-27,無限大株式会社,,株式会社,東京都,世田谷区,上北沢４丁目１７番２号ニューコート上北沢１０１号室,,13,112,1560057,,,,,,,2022-12-27,1,,,,,ムゲンダイ,0
28,1011001151672,新規,0,2022-12-27,2022-12-27,株式会社リバーヴィクトリー,,株式会社,東京都,渋谷区,恵比寿西１丁目１０番８号,,13,113,1500021,,,,,,,2022-12-27,1,,,,,リバーヴィクトリー,0
29,1011003015974,新規,0,2022-12-27,2022-12-27,合同会社ｉｃｏ,,合同会社,東京都,渋谷区,神宮前６丁目１０－４ＣＯＭＳ神宮前２Ｆ,,13,113,1500001,,,,,,,2022-12-27,1,,,,,イコ,0
30,1011003015990,新規,0,2022-12-27,2022-12-27,ミニーアンキラ合同会社,,合同会社,東京都,渋谷区,道玄坂１丁目１０番８号渋谷道玄坂東急ビル２Ｆ－Ｃ,,13,113,1500043,,,,,,,2022-12-27,1,,,,,ミニーアンキラ,0
32,1011005009891,新規,0,2022-12-27,2022-12-27,一般社団法人歯科検定協会,,その他の設立登記法人,東京都,渋谷区,渋谷２丁目１９番１５－６０９号宮益坂ビルディング,,13,113,1500002,,,,,,,2022-12-27,1,,,,,シカケンテイキョウカイ,0
36,1011201024315,新規,0,2022-12-27,2022-12-27,株式会社Ｂｅｇｉｎｎｉｎｇ,,株式会社,東京都,中野区,東中野２丁目２１－１１,,13,114,1640003,,,,,,,2022-12-27,1,,,,,ビギニング,0
39,1011603003783,新規,0,2022-12-27,2022-12-27,合同会社ブルー,,合同会社,東京都,練馬区,東大泉５丁目４３番１号ゆめりあタワー５０５号,,13,120,1780063,,,,,,,2022-12-27,1,,,,,ブルー,0
42,1012301013265,新規,0,2022-12-27,2022-12-27,戸塚装飾株式会社,,株式会社,東京都,町田市,小川５丁目６番１－１５１３号,,13,209,1940003,,,,,,,2022-12-27,1,,,,,トヅカソウショク,0
44,1012401040011,新規,0,2022-12-27,2022-12-27,株式会社スリースコープ,,株式会社,東京都,府中市,晴見町１丁目２８番地,,13,206,1830057,,,,,,,2022-12-27,1,,,,,スリースコープ,0
47,1012803002963,新規,0,2022-12-27,2022-12-27,合同会社Ｆｒｅｅ　Ｓｔｙｌｅ　Ｃｏｍｐａｎｙ,,合同会社,東京都,昭島市,松原町１丁目１８－１７エステートＡＭＮ２０４,,13,207,1960003,,,,,,,2022-12-27,1,,,,,フリースタイルカンパニー,0
53,1020001149569,新規,0,2022-12-27,2022-12-27,株式会社ＲＡＳＨＩＫＵ　ＹＯＵＲＳＥＬＦ,,株式会社,神奈川県,横浜市西区,平沼１丁目１８番１８号,,14,103,2200023,,,,,,,2022-12-27,1,,,,,ラシクユアセルフ,0
54,1020001149585,新規,0,2022-12-27,2022-12-27,株式会社ベストフォーラム,,株式会社,神奈川県,横浜市南区,前里町２丁目４２番地矢沢ビル２Ｆ,,14,105,2320004,,,,,,,2022-12-27,1,,,,,ベストフォーラム,0
56,1020003022971,新規,0,2022-12-27,2022-12-27,合同会社スマイリー,,合同会社,神奈川県,横浜市鶴見区,駒岡２丁目１５番５３号金子駒岡ビル２０１,,14,101,2300071,,,,,,,2022-12-27,1,,,,,スマイリー,0
70,1040001126351,新規,0,2022-12-27,2022-12-27,株式会社福田商事,,株式会社,千葉県,千葉市花見川区,こてはし台１丁目１－１５－３Ｆ,,12,102,2620005,,,,,,,2022-12-27,1,,,,,フクダショウジ,0
73,1040005021846,新規,0,2022-12-27,2022-12-27,特定非営利活動法人Ｗｏｒｌｄ　Ｓｈｏｅｓ　Ｓｈｉｎｅ,,その他の設立登記法人,千葉県,千葉市中央区,神明町３番地３２明生ビル４０３号,,12,101,2600022,,,,,,,2022-12-27,1,,,,,ワールドシューズシャイン,0
75,1050001052150,新規,0,2022-12-27,2022-12-27,株式会社藤電,,株式会社,茨城県,土浦市,田宮７２４番地１,,08,203,3004105,,,,,,,2022-12-27,1,,,,,フジデン,0
108,1120003023142,新規,0,2022-12-27,2022-12-27,ＬＯＵＩＳ合同会社,,合同会社,大阪府,大阪市西成区,旭１丁目４番２６－３０１号,,27,122,5570032,,,,,,,2022-12-27,1,,,,,ルイス,0
112,1120101066737,新規,0,2022-12-27,2022-12-27,湯一膳商会株式会社,,株式会社,大阪府,泉佐野市,春日町１２番２５号,,27,213,5980058,,,,,,,2022-12-27,1,,,,,トウイチゼンショウカイ,0
119,1122001036530,新規,0,2022-12-27,2022-12-27,ＳＥＴＴＳＵ　Ｆ＆Ｄ株式会社,,株式会社,大阪府,大東市,南新田１丁目３番１３号,,27,218,5740023,,,,,,,2022-12-27,1,,,,,セッツエフアンドディー,0
130,1170003001812,新規,0,2022-12-27,2022-12-27,合同会社ＭｏｔｔｏＥｇａｏ,,合同会社,和歌山県,和歌山市,美園町５丁目４－２,,30,201,6408331,,,,,,,2022-12-27,1,,,,,モットエガオ,0
132,1180001154322,新規,0,2022-12-27,2022-12-27,株式会社ＴＳＵＫＡＳＡ,,株式会社,愛知県,半田市,大高町２丁目２番地１,,23,205,4750015,,,,,,,2022-12-27,1,,,,,ツカサ,0
138,1210001019190,新規,0,2022-12-27,2022-12-27,スグクル株式会社,,株式会社,福井県,坂井市,春江町江留下屋敷７２番地１,,18,210,9190414,,,,,,,2022-12-27,1,,,,,スグクル,0
157,1290001100026,新規,0,2022-12-27,2022-12-27,骨盤腸整ウォーキング株式会社,,株式会社,福岡県,福岡市中央区,天神３丁目１６番１７号イエローベース天神４階,,40,133,8100001,,,,,,,2022-12-27,1,,,,,コツバンチョウセイウォーキング,0
158,1290001100034,新規,0,2022-12-27,2022-12-27,エネルギースマート株式会社,,株式会社,福岡県,福岡市中央区,天神１丁目１番１号,,40,133,8100001,,,,,,,2022-12-27,1,,,,,エネルギースマート,0
167,1330001030433,新規,0,2022-12-27,2022-12-27,株式会社ＭＥＴＡＬ‐Ｃｓｔｙｌｅ,,株式会社,熊本県,熊本市西区,島崎６丁目２番３４号,,43,103,8600073,,,,,,,2022-12-27,1,,,,,メタルシースタイル,0
177,1380001033357,新規,0,2022-12-27,2022-12-27,株式会社プレイスメイキングふくしま伊達,,株式会社,福島県,伊達市,保原町高子岡２３４番地,,07,213,9600689,,,,,,,2022-12-27,1,,,,,プレイスメイキングフクシマダテ,0
180,1400001016103,新規,0,2022-12-27,2022-12-27,株式会社川徳,,株式会社,岩手県,盛岡市,大沢川原１丁目４番２５号,,03,201,0200025,,,,,,,2022-12-27,1,,,,,カワトク,0
189,1430001088081,新規,0,2022-12-27,2022-12-27,株式会社りとあ,,株式会社,北海道,札幌市手稲区,富丘二条３丁目１５番１０号,,01,109,0060012,,,,,,,2022-12-27,1,,,,,リトア,0
191,1430003014589,新規,0,2022-12-27,2022-12-27,ＭａｒｖｅｌＡｒｔｓ合同会社,,合同会社,北海道,札幌市手稲区,星置二条６丁目２番１号,,01,109,0060852,,,,,,,2022-12-27,1,,,,,マーベルアーツ,0
192,1440003001504,新規,0,2022-12-27,2022-12-27,合同会社山形巧哉デザイン事務所,,合同会社,北海道,茅部郡森町,字鳥崎町１８１－１０コーポサイトウＤ－２,,01,345,0492323,,,,,,,2022-12-27,1,,,,,ヤマガタタクヤデザインジムショ,0
194,1460101007302,新規,0,2022-12-27,2022-12-27,ダイセル株式会社,,株式会社,北海道,上川郡清水町,字旭山５８７番地３,,01,636,0890355,,,,,,,2022-12-27,1,,,,,ダイセル,0
202,1700150087971,新規,0,2022-12-27,2018-03-12,森の駅マルシェかわかみ農産物等直売所運営組合,,その他,長野県,南佐久郡川上村,大字大深山５３６,,20,304,3841405,,,,,,,2018-03-12,1,,,,,モリノエキマルシエカワカミノウサンブツトウチヨクバイジヨウンエイクミアイ,0
204,1700150113513,新規,0,2022-12-27,2022-12-27,ｃｈａｎｇｓｈａｘｉａｎｘｉａｎｇｃｈｕａｎｌｉｊｉｎｃｈｕｋｏｕｙｏｕｘｉａｎｇｏｎｇｓｉ,,外国会社等,,,,,,,,ｘｉａｎｇｌｏｎｇｉｉｅｄａｏｘｉａｎｇｘｉｕｓｈｅｑｕ　ｔｅｎｇｈｕｉｌｕ７７ｈａｏｇｏｎｇｍｅｉｄａｓｈａ１０ｌｏｕ１０３，１０９，１０１０ｈａｏ　ｃｈａｎｇｓｈａｘｉａｎ　ｈｕａｎｓｈｅｎｇ，Ｃｈｉｎａ,,,,,,2022-12-27,1,,,,,チヤンシヤーケンシヤンツアンリシンシユツグチユウゲンコウシ,0
212,2010001231806,新規,0,2022-12-27,2022-12-27,２４ｈ　Ｓｏｌａｒ株式会社,,株式会社,東京都,中央区,京橋１丁目１７番１号,,13,102,1040031,,,,,,,2022-12-27,1,,,,,トゥエンティーフォーソーラー,0
213,2010001231871,新規,0,2022-12-27,2022-12-27,北条株式会社,,株式会社,東京都,文京区,本郷２丁目２２番５－１０２号,,13,105,1130033,,,,,,,2022-12-27,1,,,,,ホウジョウ,0
214,2010001231888,新規,0,2022-12-27,2022-12-27,株式会社ＲＣＳｐｐｐ,,株式会社,東京都,千代田区,神田錦町２丁目２－１ＫＡＮＤＡ－ＳＱＵＡＲＥ１１Ｆ,,13,101,1010054,,,,,,,2022-12-27,1,,,,,アールシーエスピーピーピー,0
222,2010003039413,新規,0,2022-12-27,2022-12-27,合同会社三芦エンタープライズ,,合同会社,東京都,中央区,日本橋箱崎町１６番１号東益ビル６Ｆ,,13,102,1030015,,,,,,,2022-12-27,1,,,,,ミツアシエンタープライズ,0
223,2010003039438,新規,0,2022-12-27,2022-12-27,合同会社ヘルスケアアセット・ガンマ,,合同会社,東京都,千代田区,平河町２丁目４番５号,,13,101,1020093,,,,,,,2022-12-27,1,,,,,ヘルスケアアセットガンマ,0
233,2010401171552,新規,0,2022-12-27,2022-12-27,株式会社ジョーンズジャパン,,株式会社,東京都,港区,白金６丁目２０番１０号,,13,103,1080072,,,,,,,2022-12-27,1,,,,,ジョーンズジャパン,0
242,2010801033550,新規,0,2022-12-27,2022-12-27,株式会社サンデイブロンド,,株式会社,東京都,大田区,矢口３丁目２８－８－９０４,,13,111,1460093,,,,,,,2022-12-27,1,,,,,サンデイブロンド,0
259,2012301013264,新規,0,2022-12-27,2022-12-27,株式会社ＴＳＵＫＡＳＡ,,株式会社,東京都,町田市,原町田１丁目１３番１号町田ハイツ壱番館１－３,,13,209,1940013,,,,,,,2022-12-27,1,,,,,ツカサ,0
260,2012401040002,新規,0,2022-12-27,2022-12-27,株式会社五和,,株式会社,東京都,武蔵野市,境２丁目２番２２号,,13,203,1800022,,,,,,,2022-12-27,1,,,,,イツワ,0
261,2012403005754,新規,0,2022-12-27,2022-12-27,今夕商事合同会社,,合同会社,東京都,武蔵野市,吉祥寺南町２丁目３０番８号第２テラスピア１,,13,203,1800003,,,,,,,2022-12-27,1,,,,,コンセキショウジ,0
262,2013101009089,新規,0,2022-12-27,2022-12-27,トリアス株式会社,,株式会社,東京都,福生市,大字熊川１１１５番地３０,,13,218,1970003,,,,,,,2022-12-27,1,,,,,トリアス,0
270,2020003022962,新規,0,2022-12-27,2022-12-27,合同会社エコローグ,,合同会社,神奈川県,横浜市金沢区,能見台東８番Ａ－５０８号,,14,108,2360058,,,,,,,2022-12-27,1,,,,,エコローグ,0
271,2020003022970,新規,0,2022-12-27,2022-12-27,合同会社ＫＭＩ,,合同会社,神奈川県,川崎市高津区,末長１丁目４１－１２大久保ビル２０７号室,,14,134,2130013,,,,,,,2022-12-27,1,,,,,ケーエムアイ,0
277,2021001077817,新規,0,2022-12-27,2022-12-27,株式会社ＳＨＩ,,株式会社,神奈川県,藤沢市,片瀬海岸３丁目１６－２,,14,205,2510035,,,,,,,2022-12-27,1,,,,,エスエイチアイ,0
279,2021003012540,新規,0,2022-12-27,2022-12-27,インマヌエル合同会社,,合同会社,神奈川県,相模原市中央区,横山３丁目３３番６号スターヒルズ１０１,,14,152,2520242,,,,,,,2022-12-27,1,,,,,インマヌエル,0
284,2030003020809,新規,0,2022-12-27,2022-12-27,合同会社コマツ商会,,合同会社,埼玉県,羽生市,大字小松３８４スタークレスト２０５号室,,11,216,3480037,,,,,,,2022-12-27,1,,,,,コマツショウカイ,0
285,2030003020817,新規,0,2022-12-27,2022-12-27,合同会社ＡＰトレーディング,,合同会社,埼玉県,吉川市,大字上笹塚１６５１－１グリーンラボ２０２号,,11,243,3420017,,,,,,,2022-12-27,1,,,,,エーピートレーディング,0
286,2030003020825,新規,0,2022-12-27,2022-12-27,合同会社プライマル,,合同会社,埼玉県,比企郡小川町,大字小川１０７番地１,,11,343,3550321,,,,,,,2022-12-27,1,,,,,プライマル,0
297,2040001126417,新規,0,2022-12-27,2022-12-27,Ａｍｉｇｏｓ株式会社,,株式会社,千葉県,習志野市,谷津５丁目３５番１号,,12,216,2750026,,,,,,,2022-12-27,1,,,,,アミーゴス,0
300,2050001052158,新規,0,2022-12-27,2022-12-27,メンテナンス株式会社,,株式会社,茨城県,龍ケ崎市,佐貫１１３２,,08,208,3010000,,,,,,,2022-12-27,1,,,,,メンテナンス,0
312,2080101023709,新規,0,2022-12-27,2022-12-27,株式会社みななろ,,株式会社,静岡県,富士市,厚原９８５番地の１０,,22,210,4190201,,,,,,,2022-12-27,1,,,,,ミナナロ,0
318,2110001037193,新規,0,2022-12-27,2022-12-27,株式会社ＡＩＲ　ＷＯＲＫＳ,,株式会社,新潟県,新潟市秋葉区,覚路津９８７番地,,15,105,9560001,,,,,,,2022-12-27,1,,,,,エアーワークス,0
326,2120001251314,新規,0,2022-12-27,2022-12-27,株式会社ふくふく,,株式会社,大阪府,枚方市,村野本町３８番１９号,,27,210,5730016,,,,,,,2022-12-27,1,,,,,フクフク,0
327,2120001251339,新規,0,2022-12-27,2022-12-27,仁朋株式会社,,株式会社,大阪府,大阪市生野区,小路東６丁目８番１７号昭和エクセルビュー東大阪１０３－Ｇ０５,,27,116,5440003,,,,,,,2022-12-27,1,,,,,ジンホウ,0
328,2120001251355,新規,0,2022-12-27,2022-12-27,山霖揚成株式会社,,株式会社,大阪府,大阪市浪速区,恵美須三丁目２番９号パークシャトー５０５号,,27,111,5560000,,,,,,,2022-12-27,1,,,,,サンリンヨウセイ,0
329,2120001251388,新規,0,2022-12-27,2022-12-27,麗陽国際コンサルティング株式会社,,株式会社,大阪府,大阪市阿倍野区,共立通１丁目１０－１８,,27,119,5450041,,,,,,,2022-12-27,1,,,,,,0
332,2120101066736,新規,0,2022-12-27,2022-12-27,ワルツ株式会社,,株式会社,大阪府,和泉市,浦田町１４番地の１,,27,219,5941103,,,,,,,2022-12-27,1,,,,,ワルツ,0
357,2180005020049,新規,0,2022-12-27,2022-12-27,医療法人ＯＫＣ,,その他の設立登記法人,愛知県,知多市,大草字大瀬１１７番地１,,23,224,4780035,,,,,,,2022-12-27,1,,,,,オーケイシー,0
368,2240003005945,新規,0,2022-12-27,2022-12-27,ＹＥＬＬＯＴＲＥＥ合同会社,,合同会社,広島県,東広島市,西条町寺家５６３７番地８カシータＳＴ・Ｆ棟,,34,212,7390041,,,,,,,2022-12-27,1,,,,,イエローツリー,0
371,2260001037518,新規,0,2022-12-27,2022-12-27,株式会社ＣＯＬＯＲＳ,,株式会社,岡山県,岡山市北区,田町１丁目９番１７号,,33,101,7000825,,,,,,,2022-12-27,1,,,,,カラーズ,0
375,2290001100017,新規,0,2022-12-27,2022-12-27,株式会社ナツノ,,株式会社,福岡県,福岡市博多区,博多駅前２丁目１９番２７号,,40,132,8120011,,,,,,,2022-12-27,1,,,,,ナツノ,0
380,2290003013349,新規,0,2022-12-27,2022-12-27,合同会社アトラス,,合同会社,福岡県,福岡市城南区,別府１丁目２０－６フローラ別府２０２,,40,136,8140104,,,,,,,2022-12-27,1,,,,,アトラス,0
384,2300003001921,新規,0,2022-12-27,2022-12-27,高野ファーム合同会社,,合同会社,佐賀県,唐津市,鎮西町高野５３１番地３,,41,202,8470324,,,,,,,2022-12-27,1,,,,,タカノファーム,0
394,2340003004004,新規,0,2022-12-27,2022-12-27,合同会社Ｓｅｃｕｒｉｔｙ　Ｌｉｎｅ,,合同会社,鹿児島県,鹿児島市,武岡１丁目１１２番７号コーポピュアタウン１階,,46,201,8900031,,,,,,,2022-12-27,1,,,,,セキュリティーライン,0
395,2350001018095,新規,0,2022-12-27,2022-12-27,株式会社Ｂｉｇ　Ｒｉｓｅ,,株式会社,宮崎県,串間市,大字西方２６１１番地９,,45,207,8880001,,,,,,,2022-12-27,1,,,,,ビッグライズ,0
415,2500001024680,新規,0,2022-12-27,2022-12-27,ピクトグラム株式会社,,株式会社,愛媛県,松山市,井門町９９番地１,,38,201,7911114,,,,,,,2022-12-27,1,,,,,ピクトグラム,0
418,2700150113512,新規,0,2022-12-27,2022-12-27,ｓｈｅｎｚｈｅｎｓｈｉｚｏｎｇｚｈｉｋｅｊｉｙｏｕｘｉａｎｇｏｎｇｓｉ,,外国会社等,,,,,,,,Ｓｈｅｎｚｈｅｎ　ｓｈｉ　Ｂａｏ　ａｎ　ｑｕ　Ｆｕｙｏｎｇ　ｊｉｅｄａｏ　Ｈｕａｉｄｅ　ｓｈｅｑｕ　Ｃｕｉｇａｎｇ　Ｇｏｎｇｙｅ　Ｓｉｑｕ　２７　Ｄｏｎｇ　２０１　Ｓｈｅｎｚｈｅｎ　Ｇｕａｎｇｄｏｎｇ,,,,,,2022-12-27,1,,,,,シエンチエンシゾンチカギユウゲンコウシ,0
424,3010001231482,新規,0,2022-12-27,2022-12-27,株式会社タピオカＣＳ,,株式会社,東京都,中央区,銀座１丁目１２番４号Ｎ＆Ｅ・ＢＬＤ．６Ｆ,,13,102,1040061,,,,,,,2022-12-27,1,,,,,タピオカシーエス,0
425,3010001231821,新規,0,2022-12-27,2022-12-27,株式会社ＳＨＡＫＡ,,株式会社,東京都,千代田区,平河町１丁目６番１５号ＵＳビル８Ｆ,,13,101,1020093,,,,,,,2022-12-27,1,,,,,シャカ,0
426,3010001231846,新規,0,2022-12-27,2022-12-27,株式会社学生新聞倶楽部,,株式会社,東京都,中央区,銀座３丁目１１番３号,,13,102,1040061,,,,,,,2022-12-27,1,,,,,ガクセイシンブンクラブ,0
427,3010001231870,新規,0,2022-12-27,2022-12-27,株式会社ＭＩＮＯ,,株式会社,東京都,千代田区,神田神保町２丁目３８番地１０多幸ビル１階,,13,101,1010051,,,,,,,2022-12-27,1,,,,,ミノ,0
430,3010003039437,新規,0,2022-12-27,2022-12-27,クリークビー合同会社,,合同会社,東京都,中央区,銀座１丁目２２番１１号銀座大竹ビジデンス２階,,13,102,1040061,,,,,,,2022-12-27,1,,,,,クリークビー,0
435,3010403029211,新規,0,2022-12-27,2022-12-27,合同会社ソーラーパーク１４号,,合同会社,東京都,港区,六本木３丁目２番１号,,13,103,1060032,,,,,,,2022-12-27,1,,,,,ソーラーパークジュウヨンゴウ,0
439,3010503006829,新規,0,2022-12-27,2022-12-27,ＲＭＳ合同会社,,合同会社,東京都,台東区,浅草１丁目１番１６号５階,,13,106,1110032,,,,,,,2022-12-27,1,,,,,アールエムエス,0
451,3010901052227,新規,0,2022-12-27,2022-12-27,株式会社ｅｘｐｌｏｒｅｔｏ,,株式会社,東京都,世田谷区,下馬３丁目１６番５号,,13,112,1540002,,,,,,,2022-12-27,1,,,,,エクスプロアトゥ,0
457,3011001151662,新規,0,2022-12-27,2022-12-27,株式会社オールアボン,,株式会社,東京都,渋谷区,神宮前５丁目５１番８号ラ・ポルト青山Ｂ１Ｆ,,13,113,1500001,,,,,,,2022-12-27,1,,,,,オールアボン,0
458,3011005009881,新規,0,2022-12-27,2022-12-27,一般社団法人座敷舞桐崎会,,その他の設立登記法人,東京都,目黒区,八雲１丁目９番３６号,,13,110,1520023,,,,,,,2022-12-27,1,,,,,ザシキマイキリザキカイ,0
462,3011101101311,新規,0,2022-12-27,2022-12-27,株式会社ＡＷＡ,,株式会社,東京都,新宿区,富久町１１番５－７１０号,,13,104,1620067,,,,,,,2022-12-27,1,,,,,アワ,0
468,3011405002230,新規,0,2022-12-27,2022-12-27,特定非営利活動法人のざるキッズスポーツクラブ,,その他の設立登記法人,東京都,板橋区,赤塚５丁目２３番３７号,,13,119,1750092,,,,,,,2022-12-27,1,,,,,ノザルキッズスポーツクラブ,0
475,3012401040001,新規,0,2022-12-27,2022-12-27,ＥＭＭＹ株式会社,,株式会社,東京都,小金井市,東町４丁目２２番１３号,,13,210,1840011,,,,,,,2022-12-27,1,,,,,エミー,0
495,3020001149393,新規,0,2022-12-27,2022-12-27,株式会社Ｓｈｕｊｉ,,株式会社,神奈川県,横浜市中区,山手町２４１番地１４,,14,104,2310862,,,,,,,2022-12-27,1,,,,,シュージ,0
504,3021001077808,新規,0,2022-12-27,2022-12-27,わたつみマリタイム株式会社,,株式会社,神奈川県,三浦市,南下浦町金田１００３番地９,,14,210,2380103,,,,,,,2022-12-27,1,,,,,ワタツミマリタイム,0
512,3030001151654,新規,0,2022-12-27,2022-12-27,株式会社ワイエスワーク,,株式会社,埼玉県,行田市,長野１丁目１５－１３,,11,206,3610023,,,,,,,2022-12-27,1,,,,,ワイエスワーク,0
530,3040003021573,新規,0,2022-12-27,2022-12-27,小高合同会社,,合同会社,千葉県,松戸市,新松戸６丁目１３２－２,,12,207,2700034,,,,,,,2022-12-27,1,,,,,オダカ,0
541,3080003002917,新規,0,2022-12-27,2022-12-27,合同会社三神,,合同会社,静岡県,静岡市葵区,両替町２丁目７番地の２８,,22,101,4200032,,,,,,,2022-12-27,1,,,,,サンジン,0
546,3090001017908,新規,0,2022-12-27,2022-12-27,ｔｉｎｙｍａｎｙ株式会社,,株式会社,山梨県,都留市,田原２丁目５番２６号,,19,204,4020054,,,,,,,2022-12-27,1,,,,,,0
556,3120001251346,新規,0,2022-12-27,2022-12-27,ＧＣＸ株式会社,,株式会社,大阪府,大阪市中央区,松屋町９番２０号ローレルステート松屋町６０１Ａ,,27,128,5420067,,,,,,,2022-12-27,1,,,,,ジーシーエックス,0
557,3120001251379,新規,0,2022-12-27,2022-12-27,株式会社Ｌｉｂｅｒｅｉｎｅ,,株式会社,大阪府,大阪市中央区,東心斎橋１丁目３番１１号ＡＨ東心斎橋ビル３０１号,,27,128,5420083,,,,,,,2022-12-27,1,,,,,リベレーヌ,0
558,3120003023157,新規,0,2022-12-27,2022-12-27,合同会社ＫＯＭＥＸ,,合同会社,大阪府,大阪市西淀川区,歌島２丁目３番２４号,,27,113,5550021,,,,,,,2022-12-27,1,,,,,コメックス,0
560,3120101066743,新規,0,2022-12-27,2022-12-27,株式会社ｅｌ　ｄｏｒａｄｏ,,株式会社,大阪府,堺市北区,蔵前町１丁１８番１－５０４号,,27,146,5918004,,,,,,,2022-12-27,1,,,,,エルドラード,0
563,3120901046911,新規,0,2022-12-27,2022-12-27,株式会社ＮＡＧＯＭＩ　Ｃｌｕｂ,,株式会社,大阪府,豊能郡能勢町,山辺４０９,,27,322,5630372,,,,,,,2022-12-27,1,,,,,ナゴミクラブ,0
567,3122003002470,新規,0,2022-12-27,2022-12-27,合同会社デクモＤｅＣＭＯ,,合同会社,大阪府,八尾市,西山本町４丁目１２番２７号,,27,212,5810868,,,,,,,2022-12-27,1,,,,,デクモデクモ,0
577,3140003018510,新規,0,2022-12-27,2022-12-27,合同会社アオゾラ,,合同会社,兵庫県,西宮市,弓場町９番３０－６０２号,,28,204,6620964,,,,,,,2022-12-27,1,,,,,アオゾラ,0
579,3150001026051,新規,0,2022-12-27,2022-12-27,中井通商株式会社,,株式会社,奈良県,葛城市,南道穗１６６番地５,,29,211,6392143,,,,,,,2022-12-27,1,,,,,ナカイツウショウ,0
583,3180001154337,新規,0,2022-12-27,2022-12-27,株式会社ｚ‐ｉｎｄｅｘ,,株式会社,愛知県,名古屋市中区,橘１丁目６番１５号,,23,106,4600016,,,,,,,2022-12-27,1,,,,,ゼットインデックス,0
587,3180003024653,新規,0,2022-12-27,2022-12-27,サード・ウエイブ合同会社,,合同会社,愛知県,名古屋市熱田区,南一番町７番３５号,,23,109,4560055,,,,,,,2022-12-27,1,,,,,サードウエイブ,0
596,3200003005782,新規,0,2022-12-27,2022-12-27,合同会社ブライトパートナーズ,,合同会社,岐阜県,各務原市,鵜沼羽場町２丁目２５８番地６,,21,213,5090135,,,,,,,2022-12-27,1,,,,,ブライトパートナーズ,0
602,3240001060842,新規,0,2022-12-27,2022-12-27,株式会社ＬＵＣＥ,,株式会社,広島県,福山市,駅家町大字近田３７５番地１,,34,207,7201133,,,,,,,2022-12-27,1,,,,,ルーチェ,0
606,3260001037517,新規,0,2022-12-27,2022-12-27,株式会社ＲＥＤ,,株式会社,岡山県,岡山市北区,田町１丁目９番１７号,,33,101,7000825,,,,,,,2022-12-27,1,,,,,レッド,0
617,3290003013348,新規,0,2022-12-27,2022-12-27,チーム虎合同会社,,合同会社,福岡県,福岡市博多区,博多駅前１丁目２３番１号ＰａｒｋＦｒｏｎｔ博多駅前一丁目５Ｆ－Ｂ,,40,132,8120011,,,,,,,2022-12-27,1,,,,,チームトラ,0
623,3310001018180,新規,0,2022-12-27,2022-12-27,株式会社フローリストジャパン,,株式会社,長崎県,長崎市,万屋町２番２０号,,42,201,8500852,,,,,,,2022-12-27,1,,,,,フローリストジャパン,0
625,3320001019483,新規,0,2022-12-27,2022-12-27,やまさ商会株式会社,,株式会社,大分県,大分市,荏隈町２丁目２４番１８号,,44,201,8700891,,,,,,,2022-12-27,1,,,,,ヤマサショウカイ,0
631,3340003004003,新規,0,2022-12-27,2022-12-27,ＡＲＴＯＮ合同会社,,合同会社,鹿児島県,鹿児島市,荒田２丁目３６番１１号パストラルハウス１０５,,46,201,8900054,,,,,,,2022-12-27,1,,,,,アートン,0
637,3380001033355,新規,0,2022-12-27,2022-12-27,株式会社ＣＳＳ,,株式会社,福島県,白河市,新池１番地ビレッジハウス白河２号棟３０４,,07,205,9610842,,,,,,,2022-12-27,1,,,,,シーエスエス,0
640,3400001016101,新規,0,2022-12-27,2022-12-27,株式会社ＪＢＭ,,株式会社,岩手県,久慈市,中の橋１丁目５３番地,,03,207,0280066,,,,,,,2022-12-27,1,,,,,ジェイビーエム,0
664,3700150112876,新規,0,2022-12-27,2022-11-14,宿田曽地域活性化協議会,,その他,三重県,度会郡南伊勢町,田曽浦３４９９番地１,,24,472,5160222,,,,,,,2022-11-14,1,,,,,シユクタソチイキカツセイカキヨウギカイ,0
665,3700150113511,新規,0,2022-12-27,2022-12-27,ｓｈｅｎｚｈｅｎｓｈｉｇｅｂｅｉｅｒｋｅｊｉｙｏｕｘｉａｎｇｏｎｇｓｉ,,外国会社等,,,,,,,,ｘｉｎｇｈｕａｌｕｂｅｉ１０２ｈａｏ　ｃｈｕａｎｇｚａｏｌｉｋｅｊｉｄａｓｈａ　Ｂｄｏｎｇ７１２　ｆｕｙｏｎｇｊｉｅｄａｏｘｉｎｇｗｅｉｓｈｅｑｕ　ｓｈｅｎｚｈｅｎｓｈｉｂａｏａｎｑｕ,,,,,,2022-12-27,1,,,,,シエンチエンシゲベルカギユウゲンコウシ,0
672,4010001231820,新規,0,2022-12-27,2022-12-27,株式会社アルカド,,株式会社,東京都,中央区,東日本橋１丁目５番６号,,13,102,1030004,,,,,,,2022-12-27,1,,,,,アルカド,0
673,4010001231837,新規,0,2022-12-27,2022-12-27,Ａｄｖａｎｃｅｄ　Ｃａｒｄ　Ｓｙｓｔｅｍｓ　Ｊａｐａｎ株式会社,,株式会社,東京都,中央区,日本橋室町１丁目２－６日本橋大栄ビル７階,,13,102,1030022,,,,,,,2022-12-27,1,,,,,アドバンスドカードシステムズジャパン,0
679,4010003039403,新規,0,2022-12-27,2022-12-27,合同会社ＤＲＩＦ３,,合同会社,東京都,中央区,日本橋１丁目４番１号日本橋一丁目ビルディング,,13,102,1030027,,,,,,,2022-12-27,1,,,,,ディーアールアイエフスリー,0
680,4010003039428,新規,0,2022-12-27,2022-12-27,合同会社ファニークリエイティブ,,合同会社,東京都,文京区,根津１丁目２１－１１,,13,105,1130031,,,,,,,2022-12-27,1,,,,,ファニークリエイティブ,0
689,4010401171609,新規,0,2022-12-27,2022-12-27,Ｉｎｎｏｃｕｓ　Ｊａｐａｎ株式会社,,株式会社,東京都,港区,元麻布１丁目３番１－２１０５号,,13,103,1060046,,,,,,,2022-12-27,1,,,,,イノカスジャパン,0
692,4010403029210,新規,0,2022-12-27,2022-12-27,合同会社ソーラーパーク１３号,,合同会社,東京都,港区,六本木３丁目２番１号,,13,103,1060032,,,,,,,2022-12-27,1,,,,,ソーラーパークジュウサンゴウ,0
698,4010601062368,新規,0,2022-12-27,2022-12-27,株式会社ＵＪＭ,,株式会社,東京都,墨田区,京島１丁目８番８号曳舟オフィス０２,,13,107,1310046,,,,,,,2022-12-27,1,,,,,ユージェイエム,0
702,4010701043664,新規,0,2022-12-27,2022-12-27,株式会社Ｋ’ｚ‐クラフト,,株式会社,東京都,品川区,旗の台４丁目１５番１２号,,13,109,1420064,,,,,,,2022-12-27,1,,,,,ケイズクラフト,0
707,4010801033549,新規,0,2022-12-27,2022-12-27,株式会社ＨＯＴＪＡＭ,,株式会社,東京都,大田区,上池台１丁目４番１５号カスタリア上池台１０３,,13,111,1450064,,,,,,,2022-12-27,1,,,,,ホットジャム,0
712,4010901052226,新規,0,2022-12-27,2022-12-27,株式会社Ａｂｒｉｒ,,株式会社,東京都,世田谷区,三宿１丁目２４番１８号メゾン・ド・アンブル１０２,,13,112,1540005,,,,,,,2022-12-27,1,,,,,アブリール,0
720,4011001151595,新規,0,2022-12-27,2022-12-27,株式会社あおぞら賃貸,,株式会社,東京都,渋谷区,代々木３丁目１番１１号,,13,113,1510053,,,,,,,2022-12-27,1,,,,,アオゾラチンタイ,0
722,4011003015996,新規,0,2022-12-27,2022-12-27,ｓｉｇｈｔ合同会社,,合同会社,東京都,渋谷区,道玄坂１丁目１０番８号渋谷道玄坂東急ビル２Ｆ－Ｃ,,13,113,1500043,,,,,,,2022-12-27,1,,,,,サイト,0
725,4011305002882,新規,0,2022-12-27,2022-12-27,一般社団法人ビーイングバンブー,,その他の設立登記法人,東京都,杉並区,堀ノ内１丁目１５番２３号,,13,115,1660013,,,,,,,2022-12-27,1,,,,,ビーイングバンブー,0
727,4011403003857,新規,0,2022-12-27,2022-12-27,旭川商事合同会社,,合同会社,東京都,板橋区,赤塚１丁目３１番５－２０２号,,13,119,1750092,,,,,,,2022-12-27,1,,,,,アサヒカワショウジ,0
728,4011601026461,新規,0,2022-12-27,2022-12-27,株式会社ＡＺＵＳＡ　ＴＲＡＤＥ,,株式会社,東京都,練馬区,練馬４丁目２１番３－１０２号,,13,120,1760001,,,,,,,2022-12-27,1,,,,,アズサトレード,0
737,4020001149517,新規,0,2022-12-27,2022-12-27,アクィラ株式会社,,株式会社,神奈川県,横浜市西区,高島２丁目１９番１２号横浜スカイビル２０Ｆ,,14,103,2200011,,,,,,,2022-12-27,1,,,,,アクィラ,0
738,4020001149566,新規,0,2022-12-27,2022-12-27,株式会社イトーデンキ,,株式会社,神奈川県,横浜市鶴見区,鶴見中央５丁目１１番７－３０３号,,14,101,2300051,,,,,,,2022-12-27,1,,,,,イトーデンキ,0
743,4020003022969,新規,0,2022-12-27,2022-12-27,合同会社成家,,合同会社,神奈川県,横浜市保土ケ谷区,神戸町１７６－２,,14,106,2400005,,,,,,,2022-12-27,1,,,,,イルエ,0
745,4021001077807,新規,0,2022-12-27,2022-12-27,株式会社隼,,株式会社,神奈川県,茅ヶ崎市,下町屋３丁目１４番７号,,14,207,2530087,,,,,,,2022-12-27,1,,,,,ハヤブサ,0
759,4030003020798,新規,0,2022-12-27,2022-12-27,合同会社ＭＵＳＣＬＥ,,合同会社,埼玉県,上尾市,大字領家６６番地１４,,11,219,3620066,,,,,,,2022-12-27,1,,,,,ミュスクル,0
760,4030003020815,新規,0,2022-12-27,2022-12-27,合同会社マイト,,合同会社,埼玉県,加須市,騎西１２６５－１,,11,210,3470105,,,,,,,2022-12-27,1,,,,,マイト,0
761,4030003020823,新規,0,2022-12-27,2022-12-27,ＤＩＮＯ合同会社,,合同会社,埼玉県,所沢市,御幸町７番１３号ＭＡＣ所沢６０４号,,11,208,3591115,,,,,,,2022-12-27,1,,,,,ディーノ,0
762,4030003020831,新規,0,2022-12-27,2022-12-27,合同会社ＶＥＮＯＬＥ,,合同会社,埼玉県,戸田市,大字新曽２２２０番地の１（北戸田ファーストゲートタワー７０２号室）,,11,224,3350021,,,,,,,2022-12-27,1,,,,,ヴェノル,0
770,4040001126349,新規,0,2022-12-27,2022-12-27,株式会社カイトル,,株式会社,千葉県,船橋市,飯山満町３丁目１５０１番２号グランシーナ薬園台３０５,,12,204,2740822,,,,,,,2022-12-27,1,,,,,カイトル,0
784,4070001039960,新規,0,2022-12-27,2022-12-27,株式会社リコレクション,,株式会社,群馬県,伊勢崎市,連取町３０８３番地９,,10,204,3720812,,,,,,,2022-12-27,1,,,,,リコレクション,0
786,4070003004772,新規,0,2022-12-27,2022-12-27,Ｂｅｔｈｅｌ合同会社,,合同会社,群馬県,みどり市,笠懸町阿左美２０３３番地１０,,10,212,3792311,,,,,,,2022-12-27,1,,,,,ベテル,0
787,4080001025365,新規,0,2022-12-27,2022-12-27,株式会社Ｋｌａｎｇｓ,,株式会社,静岡県,静岡市清水区,高橋２丁目２番１０号,,22,103,4240041,,,,,,,2022-12-27,1,,,,,クラングス,0
788,4080103002717,新規,0,2022-12-27,2022-12-27,合同会社Ｔｉｌａｎ　ｒｕｎｓａｕｓ,,合同会社,静岡県,伊東市,鎌田１０７４－１３１,,22,208,4140054,,,,,,,2022-12-27,1,,,,,ティランルンサウス,0
789,4090001017907,新規,0,2022-12-27,2022-12-27,セレンディップインベスターズ株式会社,,株式会社,山梨県,甲府市,宝１丁目１０番９号,,19,201,4000034,,,,,,,2022-12-27,1,,,,,セレンディップインベスターズ,0
801,4120001251287,新規,0,2022-12-27,2022-12-27,カワテック株式会社,,株式会社,大阪府,大阪市住之江区,南港北２丁目１－１０,,27,125,5590034,,,,,,,2022-12-27,1,,,,,カワテック,0
802,4120001251345,新規,0,2022-12-27,2022-12-27,青目福田株式会社,,株式会社,大阪府,大阪市生野区,小路東６丁目８番１７号昭和エクセルビュー東大阪１０３－Ｇ２２,,27,116,5440003,,,,,,,2022-12-27,1,,,,,セイモクフクデン,0
803,4120001251353,新規,0,2022-12-27,2022-12-27,株式会社ＳＯＡＲ,,株式会社,大阪府,大阪市北区,野崎町１番３０－８１０号,,27,127,5300055,,,,,,,2022-12-27,1,,,,,ソアー,0
809,4122001036528,新規,0,2022-12-27,2022-12-27,株式会社朝日護謨工業所,,株式会社,大阪府,東大阪市,柏田西２丁目１２番３号,,27,227,5770835,,,,,,,2022-12-27,1,,,,,アサヒゴムコウギョウショ,0
815,4130003008395,新規,0,2022-12-27,2022-12-27,コンツール合同会社,,合同会社,京都府,宇治市,神明宮東８５番地７,,26,204,6110025,,,,,,,2022-12-27,1,,,,,コンツール,0
825,4140003018518,新規,0,2022-12-27,2022-12-27,合同会社ｍａｎｚａｎａ,,合同会社,兵庫県,神戸市長田区,源平町３番４号,,28,106,6530888,,,,,,,2022-12-27,1,,,,,マンサーナ,0
829,4180001154328,新規,0,2022-12-27,2022-12-27,株式会社ＳＴＡＲＴ,,株式会社,愛知県,北名古屋市,宇福寺長田２８,,23,234,4810035,,,,,,,2022-12-27,1,,,,,スタート,0
830,4180001154344,新規,0,2022-12-27,2022-12-27,株式会社テックハック,,株式会社,愛知県,名古屋市中区,新栄１丁目１０番２０号,,23,106,4600007,,,,,,,2022-12-27,1,,,,,テックハック,0
831,4180003024660,新規,0,2022-12-27,2022-12-27,合同会社ｍｉｃｏｍｉ,,合同会社,愛知県,大府市,柊山町１丁目２１３番地,,23,223,4740053,,,,,,,2022-12-27,1,,,,,ミコミ,0
833,4180005020030,新規,0,2022-12-27,2022-12-27,一般社団法人スマイルデザイン,,その他の設立登記法人,愛知県,名古屋市港区,木場町２番地,,23,111,4550021,,,,,,,2022-12-27,1,,,,,スマイルデザイン,0
842,4240001060841,新規,0,2022-12-27,2022-12-27,株式会社芸北,,株式会社,広島県,山県郡北広島町,中祖１９番地,,34,369,7312432,,,,,,,2022-12-27,1,,,,,ゲイホク,0
843,4240003005935,新規,0,2022-12-27,2022-12-27,合同会社吉,,合同会社,広島県,広島市中区,東白島町１６－２５栗栖ビル１Ｆ,,34,101,7300004,,,,,,,2022-12-27,1,,,,,ヨシ,0
848,4260001037516,新規,0,2022-12-27,2022-12-27,株式会社ＢＬＡＣＫ,,株式会社,岡山県,岡山市北区,田町１丁目９番１７号,,33,101,7000825,,,,,,,2022-12-27,1,,,,,ブラック,0
863,4320001019482,新規,0,2022-12-27,2022-12-27,ＥＳＴ株式会社,,株式会社,大分県,別府市,松原町７番２号,,44,202,8740946,,,,,,,2022-12-27,1,,,,,イスト,0
864,4330001030430,新規,0,2022-12-27,2022-12-27,株式会社クリーンライト,,株式会社,熊本県,熊本市東区,下南部２丁目１６番３号シャトレー下南部１０３,,43,102,8618019,,,,,,,2022-12-27,1,,,,,クリーンライト,0
875,4350003004249,新規,0,2022-12-27,2022-12-27,合同会社ＹｏｇａＬｏｋａ,,合同会社,宮崎県,宮崎市,日ノ出町５６番地３,,45,201,8800856,,,,,,,2022-12-27,1,,,,,ヨガロカ,0
878,4360001031376,新規,0,2022-12-27,2022-12-27,株式会社オートビジネス沖縄,,株式会社,沖縄県,中頭郡北中城村,字安谷屋１４７－３,,47,327,9012316,,,,,,,2022-12-27,1,,,,,オートビジネスオキナワ,0
880,4360003012580,新規,0,2022-12-27,2022-12-27,合同会社ＵＳＡ　Ｌｉｖｉｎｇ,,合同会社,沖縄県,中頭郡北谷町,字美浜１５－１６、Ｄ－１３,,47,326,9040115,,,,,,,2022-12-27,1,,,,,ユーエスエーリビング,0
893,4430003014578,新規,0,2022-12-27,2022-12-27,合同会社ハローディン,,合同会社,北海道,浦河郡浦河町,荻伏町１２番地,,01,607,0593451,,,,,,,2022-12-27,1,,,,,ハローディン,0
896,4470003002315,新規,0,2022-12-27,2022-12-27,合同会社ＷＥＳＴ　ＲＩＶＥＲ,,合同会社,香川県,高松市,田町３－１１妹尾ビル２Ｆ,,37,201,7600053,,,,,,,2022-12-27,1,,,,,ウエストリバー,0
899,4490001010367,新規,0,2022-12-27,2022-12-27,株式会社グート,,株式会社,高知県,高知市,万々３４４番地－３０６号,,39,201,7800973,,,,,,,2022-12-27,1,,,,,グート,0
900,4500001024679,新規,0,2022-12-27,2022-12-27,株式会社ＳＫＳ,,株式会社,愛媛県,松山市,朝生田町３丁目４番６号,,38,201,7900952,,,,,,,2022-12-27,1,,,,,エスケイエス,0
902,4700150113510,新規,0,2022-12-27,2022-12-27,ＡｒｔＣａｖｅ　Ｔｅｃｈｎｏｌｏｇｙ　Ｃｏ．，Ｌｉｍｉｔｅｄ,,外国会社等,,,,,,,,ＲＭ　８０３　ＣＨＥＶＡＬＩＥＲ　ＨＳＥ　４５－５１　ＣＨＡＴＨＡＭ　ＲＤ　ＳＯＵＴＨ　ＴＳＴ　ＫＬＮ,,,,,,2022-12-27,1,,,,,アートケーブテクノロジーカンパニーリミテツド,0
906,5010003039402,新規,0,2022-12-27,2022-12-27,合同会社はやぶさ２号,,合同会社,東京都,中央区,日本橋１丁目４番１号日本橋一丁目ビルディング,,13,102,1030027,,,,,,,2022-12-27,1,,,,,ハヤブサニゴウ,0
907,5010003039427,新規,0,2022-12-27,2022-12-27,合同会社ブリリアント・トワイス,,合同会社,東京都,中央区,銀座１丁目２２番１１号銀座大竹ビジデンス２階,,13,102,1040061,,,,,,,2022-12-27,1,,,,,ブリリアントトワイス,0
916,5010401171566,新規,0,2022-12-27,2022-12-27,株式会社アンサンブル,,株式会社,東京都,港区,三田１丁目１番１２－１６０３号,,13,103,1080073,,,,,,,2022-12-27,1,,,,,アンサンブル,0
918,5010403029201,新規,0,2022-12-27,2022-12-27,ストレージサービス合同会社,,合同会社,東京都,港区,芝公園２丁目２番１０号中和ビル３階,,13,103,1050011,,,,,,,2022-12-27,1,,,,,ストレージサービス,0
923,5010601062359,新規,0,2022-12-27,2022-12-27,株式会社ＳＫＹＰＯＮＹ,,株式会社,東京都,墨田区,押上２丁目４番１０号,,13,107,1310045,,,,,,,2022-12-27,1,,,,,スカイポニー,0
927,5010801033548,新規,0,2022-12-27,2022-12-27,ＷＳＰ株式会社,,株式会社,東京都,大田区,蒲田４丁目１８番２７号エリア蒲田５０２,,13,111,1440052,,,,,,,2022-12-27,1,,,,,ダブルエスピー,0
929,5010901052225,新規,0,2022-12-27,2022-12-27,株式会社タイヨーテレビ,,株式会社,東京都,世田谷区,松原２丁目３２番１１号ハイム松原２０１,,13,112,1560043,,,,,,,2022-12-27,1,,,,,タイヨーテレビ,0
936,5011001151693,新規,0,2022-12-27,2022-12-27,株式会社ホワイトアーキテクト,,株式会社,東京都,渋谷区,道玄坂１丁目１２－１渋谷マークシティＷ２２階,,13,113,1500043,,,,,,,2022-12-27,1,,,,,ホワイトアーキテクト,0
940,5011401024796,新規,0,2022-12-27,2022-12-27,株式会社口福自然商店,,株式会社,東京都,板橋区,小茂根１丁目２５番２６－３０３号ルシエール江古田,,13,119,1730037,,,,,,,2022-12-27,1,,,,,コウフクシゼンショウテン,0
941,5011403003856,新規,0,2022-12-27,2022-12-27,貴＿工業合同会社,00128905,合同会社,東京都,板橋区,中丸町２９番１４号高山ビル４０１,,13,119,1730026,,,,,,,2022-12-27,1,,,,,キキンコウギョウ,0
953,5013305003422,新規,0,2022-12-27,2022-12-27,一般社団法人日本事業主連合会,,その他の設立登記法人,東京都,豊島区,池袋２丁目４７番６号第二オンダビル３階,,13,116,1710014,,,,,,,2022-12-27,1,,,,,ニホンジギョウヌシレンゴウカイ,0
964,5020003022976,新規,0,2022-12-27,2022-12-27,合同会社あかてる,,合同会社,神奈川県,横浜市青葉区,松風台２６番地４８,,14,117,2270067,,,,,,,2022-12-27,1,,,,,アカテル,0
968,5021001077814,新規,0,2022-12-27,2022-12-27,株式会社ＭＯＵ,,株式会社,神奈川県,鎌倉市,植木１６８番地１ジュネパレス第３－１０１,,14,204,2470073,,,,,,,2022-12-27,1,,,,,モウ,0
969,5021001077822,新規,0,2022-12-27,2022-12-27,Ｐ３ジャパン株式会社,,株式会社,神奈川県,鎌倉市,高野１８番地２,,14,204,2470054,,,,,,,2022-12-27,1,,,,,ピースリージャパン,0
985,5040003021464,新規,0,2022-12-27,2022-12-27,米蘭合同会社,,合同会社,千葉県,松戸市,松戸新田５０７番地の１４,,12,207,2702241,,,,,,,2022-12-27,1,,,,,ベイラン,0
988,5050003007124,新規,0,2022-12-27,2022-12-27,タムラ合同会社,,合同会社,茨城県,下妻市,下木戸１６８番地１,,08,210,3040028,,,,,,,2022-12-27,1,,,,,タムラ,0
1003,5070003004771,新規,0,2022-12-27,2022-12-27,合同会社Ｏｒｄｏ,,合同会社,群馬県,太田市,東別所町５０３番地４,,10,205,3730815,,,,,,,2022-12-27,1,,,,,,0
1010,5080103002716,新規,0,2022-12-27,2022-12-27,合同会社Ｓ．Ｄ．機構,,合同会社,静岡県,富士宮市,万野原新田３０４０番地の３,,22,207,4180001,,,,,,,2022-12-27,1,,,,,エスディーキコウ,0
1023,5120001251229,新規,0,2022-12-27,2022-12-27,ＲＥＥＥＡ株式会社,,株式会社,大阪府,大阪市中央区,西心斎橋２丁目１８番６号アベニュー心斎橋４０１号,,27,128,5420086,,,,,,,2022-12-27,1,,,,,レーア,0
1024,5120001251278,新規,0,2022-12-27,2022-12-27,株式会社ｉｎｎｏｖｉｓ,,株式会社,大阪府,大阪市北区,堂島１丁目１番５号,,27,127,5300003,,,,,,,2022-12-27,1,,,,,インヴィス,0
1025,5120001251328,新規,0,2022-12-27,2022-12-27,株式会社Ｂ‐ＪＩＮＳＥＩ,,株式会社,大阪府,大阪市生野区,鶴橋５丁目１１番１号,,27,116,5440031,,,,,,,2022-12-27,1,,,,,ビージンセイ,0
1026,5120001251336,新規,0,2022-12-27,2022-12-27,森川株式会社,,株式会社,大阪府,大阪市西成区,天下茶屋１丁目４番４号Ａ３,,27,122,5570014,,,,,,,2022-12-27,1,,,,,モリカワ,0
1027,5120001251344,新規,0,2022-12-27,2022-12-27,株式会社Ａｏｚ,,株式会社,大阪府,大阪市西淀川区,大和田６丁目１４－７ＧＲＡＮＤＩＲ来島２０３,,27,113,5550032,,,,,,,2022-12-27,1,,,,,アオズ,0
1028,5120001251352,新規,0,2022-12-27,2022-12-27,株式会社リアライズホールディングス,,株式会社,大阪府,大阪市中央区,南船場１丁目１３番２０号,,27,128,5420081,,,,,,,2022-12-27,1,,,,,リアライズホールディングス,0
1029,5120001251377,新規,0,2022-12-27,2022-12-27,ワンライフ株式会社,,株式会社,大阪府,大阪市西区,千代崎２丁目５番８号シロハイヌ千代崎５０５,,27,106,5500023,,,,,,,2022-12-27,1,,,,,ワンライフ,0
1035,5120101066733,新規,0,2022-12-27,2022-12-27,株式会社ＡｕＸｉｌｉｕｍ．,,株式会社,大阪府,岸和田市,箕土路町２丁目６番１６号,,27,202,5960801,,,,,,,2022-12-27,1,,,,,アクシリウム,0
1042,5122001036519,新規,0,2022-12-27,2022-12-27,株式会社ＦＩＧＡＲＯ,,株式会社,大阪府,八尾市,楠根町３丁目３５番３号,,27,212,5810814,,,,,,,2022-12-27,1,,,,,フィガロ,0
1046,5130003008403,新規,0,2022-12-27,2022-12-27,綺羅斎合同会社,,合同会社,京都府,京都市南区,上鳥羽高畠町８９番地４０５,,26,107,6018101,,,,,,,2022-12-27,1,,,,,キラサイ,0
1052,5140001128549,新規,0,2022-12-27,2022-12-27,ブレーンズ株式会社,,株式会社,兵庫県,川西市,向陽台２丁目２番地の６１,,28,217,6660115,,,,,,,2022-12-27,1,,,,,ブレーンズ,0
1053,5140001128557,新規,0,2022-12-27,2022-12-27,株式会社立花建設,,株式会社,兵庫県,尼崎市,三反田町３丁目６番３０号３Ｆ,,28,202,6610024,,,,,,,2022-12-27,1,,,,,タチバナケンセツ,0
1056,5140003018517,新規,0,2022-12-27,2022-12-27,合同会社大杉総合研究所,,合同会社,兵庫県,神戸市垂水区,多聞台２丁目１１番１－３０３号,,28,108,6550007,,,,,,,2022-12-27,1,,,,,オオスギソウゴウケンキュウショ,0
1058,5140005026419,新規,0,2022-12-27,2022-12-27,医療法人社団ひかり会,,その他の設立登記法人,兵庫県,西宮市,樋之池町１０番１５号紀乃国第一ビル１０１号室,,28,204,6620084,,,,,,,2022-12-27,1,,,,,ヒカリカイ,0
1063,5170005006987,新規,0,2022-12-27,2022-12-27,医療法人紀真会,,その他の設立登記法人,和歌山県,和歌山市,手平１丁目７番３１号,,30,201,6408319,,,,,,,2022-12-27,1,,,,,キシンカイ,0
1069,5180003024635,新規,0,2022-12-27,2022-12-27,合同会社Ｂｕｄｄｙ,,合同会社,愛知県,春日井市,角崎町５３エコタウン勝川５６６,,23,206,4860943,,,,,,,2022-12-27,1,,,,,バディー,0
1070,5180003024651,新規,0,2022-12-27,2022-12-27,合同会社ＡＢ‐ＢＯＸ,,合同会社,愛知県,名古屋市港区,津金１丁目４番１４号リヴェールチエ２０１号室,,23,111,4550004,,,,,,,2022-12-27,1,,,,,エイビーボックス,0
1071,5180005020046,新規,0,2022-12-27,2022-12-27,一般社団法人愛知県電動車椅子サッカー協会,,その他の設立登記法人,愛知県,春日井市,勝川町７丁目３７番地ネクシティパレッタ１Ｆ,,23,206,4860945,,,,,,,2022-12-27,1,,,,,アイチケンデンドウクルマイスサッカーキョウカイ,0
1086,5260001037515,新規,0,2022-12-27,2022-12-27,株式会社モアナ,,株式会社,岡山県,岡山市南区,浜野２丁目７番１８号,,33,104,7000845,,,,,,,2022-12-27,1,,,,,モアナ,0
1091,5290001100022,新規,0,2022-12-27,2022-12-27,株式会社レフェルヴェソンス,,株式会社,福岡県,糟屋郡粕屋町,長者原東４丁目５番３７号Ｃ－１０２,,40,349,8112317,,,,,,,2022-12-27,1,,,,,レフェルヴェソンス,0
1092,5290001100030,新規,0,2022-12-27,2022-12-27,満室経営株式会社,,株式会社,福岡県,福岡市早良区,百道浜２丁目３番２号ＴＮＣ放送会館３Ｆ,,40,137,8140001,,,,,,,2022-12-27,1,,,,,マンシツケイエイ,0
1094,5290801029147,新規,0,2022-12-27,2022-12-27,株式会社ファンプラス設計室,,株式会社,福岡県,北九州市八幡西区,三ケ森３丁目１１番３－１０２号,,40,109,8070843,,,,,,,2022-12-27,1,,,,,ファンプラスセッケイシツ,0
1096,5310001018179,新規,0,2022-12-27,2022-12-27,株式会社愛日,,株式会社,長崎県,諫早市,多良見町シーサイド２－３２３,,42,204,8590407,,,,,,,2022-12-27,1,,,,,アイヒ,0
1113,5390005008986,新規,0,2022-12-27,2022-12-27,協同組合風車市場,,その他の設立登記法人,山形県,東田川郡庄内町,狩川字外北割９７番地１,,06,428,9996601,,,,,,,2022-12-27,1,,,,,フウシャイチバ,0
1116,5410003003730,新規,0,2022-12-27,2022-12-27,合同会社ＡＫＣ,,合同会社,秋田県,大仙市,大曲福住町９番３０号,,05,212,0140014,,,,,,,2022-12-27,1,,,,,エーケーシ,0
1119,5430001088103,新規,0,2022-12-27,2022-12-27,株式会社エストレージャ,,株式会社,北海道,札幌市中央区,北三条西２丁目１番地３０,,01,101,0600003,,,,,,,2022-12-27,1,,,,,エストレージャ,0
1135,5700150064323,新規,0,2022-12-27,2015-10-09,鹿児島市学校給食会,,その他,鹿児島県,鹿児島市,真砂本町５８－３６,,46,201,8900067,,,,,,,2015-10-09,1,,,,,カゴシマシガツコウキユウシヨクカイ,0
1138,5700150113328,新規,0,2022-12-27,2022-12-09,南種子町糖業振興会,,その他,鹿児島県,熊毛郡南種子町,中之上２７９３番地１,,46,502,8913701,,,,,,,2022-12-09,1,,,,,ミナミタネチヨウトウギヨウシンコウカイ,0
1145,6010001231819,新規,0,2022-12-27,2022-12-27,フェムテック株式会社,,株式会社,東京都,中央区,銀座１丁目１２－４Ｎ＆ＥＢＬＤ．７階,,13,102,1040061,,,,,,,2022-12-27,1,,,,,フェムテック,0
1146,6010001231868,新規,0,2022-12-27,2022-12-27,ユーグン株式会社,,株式会社,東京都,千代田区,神田和泉町１－６－１６ヤマトビル４０５,,13,101,1010024,,,,,,,2022-12-27,1,,,,,ユーグン,0
1149,6010003039418,新規,0,2022-12-27,2022-12-27,ＳＲＭＧ合同会社,,合同会社,東京都,千代田区,丸の内１丁目８番３号丸の内トラストタワー本館２０階,,13,101,1000005,,,,,,,2022-12-27,1,,,,,エスアールエムジー,0
1163,6010403029159,新規,0,2022-12-27,2022-12-27,合同会社縁,,合同会社,東京都,港区,南青山６丁目９番１０－７０１号プラネット南青山,,13,103,1070062,,,,,,,2022-12-27,1,,,,,,0
1167,6010701043654,新規,0,2022-12-27,2022-12-27,株式会社Ｒｅｂｏｒｎ,,株式会社,東京都,品川区,南大井２丁目１２番１－１０１１号,,13,109,1400013,,,,,,,2022-12-27,1,,,,,リボーン,0
1172,6010901052224,新規,0,2022-12-27,2022-12-27,株式会社ＳＯＮ,,株式会社,東京都,世田谷区,深沢７丁目１７－８,,13,112,1580081,,,,,,,2022-12-27,1,,,,,ソン,0
1174,6010905004411,新規,0,2022-12-27,2022-12-27,ザ一般社団法人,,その他の設立登記法人,東京都,世田谷区,桜丘２丁目２１番７号メゾンリエールＣ,,13,112,1560054,,,,,,,2022-12-27,1,,,,,ザ,0
1182,6011003015994,新規,0,2022-12-27,2022-12-27,合同会社吉澤,,合同会社,東京都,目黒区,下目黒２丁目５番４－２１１号,,13,110,1530064,,,,,,,2022-12-27,1,,,,,ヨシザワ,0
1184,6011101101317,新規,0,2022-12-27,2022-12-27,株式会社梟,,株式会社,東京都,新宿区,歌舞伎町２丁目３９番８ダーマビル４Ｆ,,13,104,1600021,,,,,,,2022-12-27,1,,,,,フクロウ,0
1188,6011103012520,新規,0,2022-12-27,2022-12-27,純醸合同会社,,合同会社,東京都,新宿区,四谷三栄町２番１４号四ッ谷ビジネスガーデン,,13,104,1600008,,,,,,,2022-12-27,1,,,,,ジュンジョウ,0
1190,6011203003972,新規,0,2022-12-27,2022-12-27,合同会社ＦＲＭ,,合同会社,東京都,中野区,新井５丁目１６番１号北島ビル１階,,13,114,1650026,,,,,,,2022-12-27,1,,,,,エフアールエム,0
1191,6011303004623,新規,0,2022-12-27,2022-12-27,合同会社ｆｌｏ．ｄａｎｃｅ,,合同会社,東京都,杉並区,和田１丁目８番１５号４階,,13,115,1660012,,,,,,,2022-12-27,1,,,,,フラダンス,0
1196,6011603003779,新規,0,2022-12-27,2022-12-27,アムツム企画合同会社,,合同会社,東京都,練馬区,豊玉南３丁目３２番８号,,13,120,1760014,,,,,,,2022-12-27,1,,,,,アムツムキカク,0
1198,6012303001759,新規,0,2022-12-27,2022-12-27,合同会社ＴＨストリームズ,,合同会社,東京都,町田市,小川１丁目２４番地６,,13,209,1940003,,,,,,,2022-12-27,1,,,,,ティーエイチストリームズ,0
1201,6012803002926,新規,0,2022-12-27,2022-12-27,合同会社ｆｉｖｅ　ｓｔｏｒｉｅｓ　Ｈｉｇｈ,,合同会社,東京都,日野市,多摩平７丁目１１－２,,13,212,1910062,,,,,,,2022-12-27,1,,,,,ファイブストリーズハイ,0
1203,6013301050079,新規,0,2022-12-27,2022-12-27,株式会社ｗｉｎｄ　ｓｅｅ　ｊａｐａｎ,,株式会社,東京都,豊島区,東池袋２丁目６０番１０号２階,,13,116,1700013,,,,,,,2022-12-27,1,,,,,ウインドシージャパン,0
1204,6013301050120,新規,0,2022-12-27,2022-12-27,株式会社アイ・ステーション,,株式会社,東京都,豊島区,東池袋１丁目２５番９号,,13,116,1700013,,,,,,,2022-12-27,1,,,,,アイステーション,0
1207,6020001149564,新規,0,2022-12-27,2022-12-27,株式会社ＰＢＤ,,株式会社,神奈川県,横浜市戸塚区,川上町５７６番地,,14,110,2440805,,,,,,,2022-12-27,1,,,,,ピービーディ,0
1208,6020001149572,新規,0,2022-12-27,2022-12-27,株式会社ｉｌｌｕｍｅ　Ｘ,,株式会社,神奈川県,横浜市西区,浅間町１丁目４番３号ウィザードビル４０２,,14,103,2200072,,,,,,,2022-12-27,1,,,,,イリュームエックス,0
1209,6020001149589,新規,0,2022-12-27,2022-12-27,株式会社ＳＵＮＮＹ,,株式会社,神奈川県,川崎市高津区,千年新町２２番地ＬＭ武蔵新城緑園の街壱番館１１２,,14,134,2130021,,,,,,,2022-12-27,1,,,,,サニー,0
1233,6040003021579,新規,0,2022-12-27,2022-12-27,合同会社Ｂｌａｕｅｒ　Ｍｏｎｄ,,合同会社,千葉県,船橋市,丸山５丁目１６番２９号,,12,204,2730048,,,,,,,2022-12-27,1,,,,,ブラウエルモント,0
1234,6050001052146,新規,0,2022-12-27,2022-12-27,株式会社ａｉｔｏ　ｄｏｇ,,株式会社,茨城県,つくば市,西大橋３０１番地１,,08,220,3050831,,,,,,,2022-12-27,1,,,,,アイトドッグ,0
1259,6120001251343,新規,0,2022-12-27,2022-12-27,燕真工芸株式会社,,株式会社,大阪府,大阪市生野区,小路東６丁目８番１７号昭和エクセルビュー東大阪１０３－Ｇ４,,27,116,5440003,,,,,,,2022-12-27,1,,,,,エンシンコウゲイ,0
1263,6120005023367,新規,0,2022-12-27,2022-12-27,一般社団法人ビクトリー,,その他の設立登記法人,大阪府,守口市,寺方元町１丁目２０番１２号,,27,209,5700047,,,,,,,2022-12-27,1,,,,,ビクトリー,0
1266,6120101066732,新規,0,2022-12-27,2022-12-27,株式会社ＡＺＡＮ　ＴＲＡＤＩＮＧ,,株式会社,大阪府,羽曳野市,大黒４６１番地の１,,27,222,5830847,,,,,,,2022-12-27,1,,,,,アザントレーディング,0
1269,6120103004995,新規,0,2022-12-27,2022-12-27,合同会社ミトラ,,合同会社,大阪府,堺市東区,日置荘西町１丁２５番４４号,,27,143,5998114,,,,,,,2022-12-27,1,,,,,ミトラ,0
1271,6122001036526,新規,0,2022-12-27,2022-12-27,稲川株式会社,,株式会社,大阪府,八尾市,大竹７丁目１６９番地,,27,212,5810854,,,,,,,2022-12-27,1,,,,,イナガワ,0
1272,6122003002476,新規,0,2022-12-27,2022-12-27,合同会社ＳＡＭＵＲＡＩ,,合同会社,大阪府,東大阪市,衣摺４丁目２１番１２号,,27,227,5770827,,,,,,,2022-12-27,1,,,,,サムライ,0
1274,6130001073349,新規,0,2022-12-27,2022-12-27,玉倚国際株式会社,,株式会社,京都府,京都市中京区,藤木町２４－１－３０１,,26,104,6040992,,,,,,,2022-12-27,1,,,,,ギョクイコクサイ,0
1275,6130001073357,新規,0,2022-12-27,2022-12-27,自然堂宝石株式会社,,株式会社,京都府,京都市中京区,新京極通蛸薬師下る東側町５２６,,26,104,6048046,,,,,,,2022-12-27,1,,,,,シゼンドウホウセキ,0
1279,6130003008402,新規,0,2022-12-27,2022-12-27,エイト・オーク合同会社,,合同会社,京都府,八幡市,八幡砂田２番地の８２,,26,210,6148046,,,,,,,2022-12-27,1,,,,,エイトオーク,0
1288,6140001128564,新規,0,2022-12-27,2022-12-27,株式会社千戸,,株式会社,兵庫県,川西市,南花屋敷２丁目３番６号,,28,217,6660026,,,,,,,2022-12-27,1,,,,,セント,0
1290,6140003018508,新規,0,2022-12-27,2022-12-27,ＢＡＢＹ　ＨＯＵＳＥ合同会社,,合同会社,兵庫県,西宮市,甲子園網引町４－２７,,28,204,6638156,,,,,,,2022-12-27,1,,,,,ベイビィハウス,0
1305,6190005011778,新規,0,2022-12-27,2022-12-27,東海振興協同組合,,その他の設立登記法人,三重県,桑名市,大字赤須賀字猟師町５２６番地４７,,24,205,5110033,,,,,,,2022-12-27,1,,,,,トウカイシンコウ,0
1327,6290001100021,新規,0,2022-12-27,2022-12-27,日本頤然株式会社,,株式会社,福岡県,福岡市中央区,天神４丁目５番１０号チサンマンション第二天神１０１１号,,40,133,8100001,,,,,,,2022-12-27,1,,,,,ニホンイゼン,0
1330,6290005018879,新規,0,2022-12-27,2022-12-27,九州フードリサイクル事業協同組合,,その他の設立登記法人,福岡県,古賀市,糸ケ浦３８番地,,40,223,8113136,,,,,,,2022-12-27,1,,,,,キュウシュウフードリサイクル,0
1331,6290005018887,新規,0,2022-12-27,2022-12-27,医療法人ＩＭＧ,,その他の設立登記法人,福岡県,福岡市博多区,銀天町１丁目５番８号,,40,132,8120879,,,,,,,2022-12-27,1,,,,,アイエムジー,0
1333,6290801029146,新規,0,2022-12-27,2022-12-27,株式会社Ｋ‐ｐｉｅｃｅ,,株式会社,福岡県,北九州市門司区,吉志１丁目３７番１号,,40,101,8000114,,,,,,,2022-12-27,1,,,,,ケーピース,0
1334,6320003003978,新規,0,2022-12-27,2022-12-27,合同会社ＣＨＡＵ　ＬＩＮＨ,,合同会社,大分県,宇佐市,大字法鏡寺２９０－１－１０１号,,44,211,8790454,,,,,,,2022-12-27,1,,,,,チャウリン,0
1335,6340001025262,新規,0,2022-12-27,2022-12-27,株式会社Ｇｒｅｅｎ　Ｐｌｕｓ,,株式会社,鹿児島県,霧島市,隼人町姫城９０８番１２号,,46,218,8995111,,,,,,,2022-12-27,1,,,,,グリーンプラス,0
1336,6360001031358,新規,0,2022-12-27,2022-12-27,株式会社グルーアップル,,株式会社,沖縄県,中頭郡北谷町,桑江１丁目１２番２７号ｃａｓａてぃんがーら３０２,,47,326,9040103,,,,,,,2022-12-27,1,,,,,グルーアップル,0
1337,6360001031366,新規,0,2022-12-27,2022-12-27,株式会社Ｒｉｎｏｈｏｐｅ,,株式会社,沖縄県,島尻郡八重瀬町,字新城１４７１－３,,47,362,9010503,,,,,,,2022-12-27,1,,,,,リノホープ,0
1351,6380005012658,新規,0,2022-12-27,2022-12-27,特定非営利活動法人たむらちいき活動部,,その他の設立登記法人,福島県,田村市,滝根町菅谷字平木内１４３番地５,,07,211,9633601,,,,,,,2022-12-27,1,,,,,タムラチイキカツドウブ,0
1353,6390001017107,新規,0,2022-12-27,2022-12-27,株式会社原田左官工業所,,株式会社,山形県,山形市,大字中野４２３番地１,,06,201,9900892,,,,,,,2022-12-27,1,,,,,ハラダサカンコウギョウショ,0
1355,6400003003012,新規,0,2022-12-27,2022-12-27,合同会社フリーダム,,合同会社,岩手県,一関市,赤荻字槻本２７４番地８,,03,209,0210041,,,,,,,2022-12-27,1,,,,,,0
1359,6420001018101,新規,0,2022-12-27,2022-12-27,株式会社木下工務店,,株式会社,青森県,青森市,大字合子沢字松森１４３番地１,,02,201,0300134,,,,,,,2022-12-27,1,,,,,キノシタコウムテン,0
1360,6430001088102,新規,0,2022-12-27,2022-12-27,株式会社誠和建設,,株式会社,北海道,札幌市清田区,平岡一条５丁目２番１２号ハイブライト平岡３０５号,,01,110,0040871,,,,,,,2022-12-27,1,,,,,セイワケンセツ,0
1362,6430005014616,新規,0,2022-12-27,2022-12-27,一般社団法人新さっぽろエリアマネジメント,,その他の設立登記法人,北海道,札幌市東区,北四十二条東１７丁目６番１２号,,01,103,0070842,,,,,,,2022-12-27,1,,,,,シンサッポロエリアマネジメント,0
1363,6450003002281,新規,0,2022-12-27,2022-12-27,ファーストウィン合同会社,,合同会社,北海道,空知郡上富良野町,緑町３丁目２番４４号,,01,460,0710563,,,,,,,2022-12-27,1,,,,,ファーストウィン,0
1366,6460105002253,新規,0,2022-12-27,2022-12-27,特定非営利活動法人北海道の小規模多機能型居宅サービスを考える会,,その他の設立登記法人,北海道,帯広市,清流東４丁目４番地,,01,207,0800871,,,,,,,2022-12-27,1,,,,,ホッカイドウノショウキボタキノウガタキョタクサービスヲカンガエルカイ,0
1372,6700150113509,新規,0,2022-12-27,2022-12-27,Ｓｈｅｎｚｈｅｎ　Ｊｉｎａｎｔｅ　Ｅｌｅｃｔｒｏｎｉｃ　Ｔｅｃｈｎｏｌｏｇｙ　Ｃｏ．，Ｌｔｄ,,外国会社等,,,,,,,,Ｂ３０９，Ｂｕｉｌｄｉｎｇ　ＡＢＣ，Ｆｕｘｉｎｇｄａ　Ｌｏｇｉｓｔｉｃｓ　Ｐａｒｋ，Ｎｏ．１０７　Ｘｉｎｇｈｕａ　Ｒｏａｄ　Ｓｏｕｔｈ，Ｘｉｎｇｗｅｉ，Ｆｕｙｏｎｇ　Ｓｔｒｅｅｔ，Ｂａｏ’ａｎ　Ｄｉｓｔｒｉｃｔ，Ｓｈｅｎｚｈｅｎ，Ｇｕａｎｇｄｏｎｇ,,,,,,2022-12-27,1,,,,,シエンチエンジンアンテエレクトロニクテクノロジーカンパニーリミテツド,0
1373,6700150113517,新規,0,2022-12-27,2022-12-27,ＭＯＲＥＴＺ　ＬＩＭＩＴＥＤ,,外国会社等,,,,,,,,ＲＭ　５１７　ＮＥＷ　ＣＩＴＹ　ＣＴＲ　２　ＬＥＩ　ＹＵＥ　ＭＵＮ　ＲＤ　ＫＷＵＮ　ＴＯＮＧ　ＫＬ　ＨＯＮＧＫＯＮＧ,,,,,,2022-12-27,1,,,,,モレヅリミテツド,0
1384,7010001231487,新規,0,2022-12-27,2022-12-27,開誠国際株式会社,,株式会社,東京都,千代田区,紀尾井町３番１２号紀尾井町ビル１５０１,,13,101,1020094,,,,,,,2022-12-27,1,,,,,カイセイボウエキ,0
1385,7010001231859,新規,0,2022-12-27,2022-12-27,Ｒｏｕｂｉｃ株式会社,,株式会社,東京都,文京区,根津１丁目２１番１１号,,13,105,1130031,,,,,,,2022-12-27,1,,,,,ルービック,0
1386,7010001231883,新規,0,2022-12-27,2022-12-27,ＯＮＥ　ＣＯＮＳＵＬＴＩＮＧ株式会社,,株式会社,東京都,中央区,銀座７丁目４番１４号光ビルディングＢ１,,13,102,1040061,,,,,,,2022-12-27,1,,,,,ワンコンサルティング,0
1387,7010001231891,新規,0,2022-12-27,2022-12-27,ドライブパートナーズ株式会社,,株式会社,東京都,千代田区,神田須田町１丁目３４番地１,,13,101,1010041,,,,,,,2022-12-27,1,,,,,ドライブパートナーズ,0
1389,7010003039425,新規,0,2022-12-27,2022-12-27,六本木インターナショナル合同会社,,合同会社,東京都,中央区,銀座４丁目９番８号,,13,102,1040061,,,,,,,2022-12-27,1,,,,,ロッポンギインターナショナル,0
1402,7010403029199,新規,0,2022-12-27,2022-12-27,合同会社柊,,合同会社,東京都,港区,浜松町２丁目２番１５号浜松町ダイヤビル２Ｆ,,13,103,1050013,,,,,,,2022-12-27,1,,,,,ヒイラギ,0
1408,7010601062357,新規,0,2022-12-27,2022-12-27,鼎誠株式会社,,株式会社,東京都,墨田区,両国２丁目１７番１７号両国ダイヤハイツ２０２－Ｇ,,13,107,1300026,,,,,,,2022-12-27,1,,,,,テイセイ,0
1409,7010701043637,新規,0,2022-12-27,2022-12-27,株式会社Ｎｅｘｔ　Ｖｉｓｉｏｎ,,株式会社,東京都,品川区,小山６丁目１３番４号ＫＯＹＡＭＡＰＲＩＶＡＴＥＰＬＡＣＥ３０３号室,,13,109,1420062,,,,,,,2022-12-27,1,,,,,ネクストビジョン,0
1411,7010801033554,新規,0,2022-12-27,2022-12-27,株式会社ＮＥＷＯＲＤＥＲ,,株式会社,東京都,大田区,山王２丁目５－１３大森北口ビル５Ｆ,,13,111,1430023,,,,,,,2022-12-27,1,,,,,ニューオーダー,0
1415,7010901052215,新規,0,2022-12-27,2022-12-27,株式会社エムセカンド,,株式会社,東京都,世田谷区,奥沢２丁目３７番１５号,,13,112,1580083,,,,,,,2022-12-27,1,,,,,エムセカンド,0
1420,7011001151683,新規,0,2022-12-27,2022-12-27,ｋａｉｋｉ株式会社,,株式会社,東京都,渋谷区,西原３丁目１７番１１号ＩＲビルＢ１Ｆ,,13,113,1510066,,,,,,,2022-12-27,1,,,,,カイキ,0
1422,7011003015993,新規,0,2022-12-27,2022-12-27,コンパス・キャリア＆ＨＲ合同会社,,合同会社,東京都,渋谷区,恵比寿１丁目１５番９号,,13,113,1500013,,,,,,,2022-12-27,1,,,,,コンパスキャリアアンドエイチアール,0
1423,7011003016001,新規,0,2022-12-27,2022-12-27,Ｅｄｕｃｏｐｉａ合同会社,,合同会社,東京都,渋谷区,道玄坂１丁目１０番８号渋谷道玄坂東急ビル２Ｆ－Ｃ,,13,113,1500043,,,,,,,2022-12-27,1,,,,,エデュコピア,0
1429,7011203003971,新規,0,2022-12-27,2022-12-27,Ｋｉｎｔｓｕｇｕ合同会社,,合同会社,東京都,中野区,弥生町１丁目３３番１３－１１１号,,13,114,1640013,,,,,,,2022-12-27,1,,,,,キンツグ,0
1434,7011501028786,新規,0,2022-12-27,2022-12-27,京智株式会社,,株式会社,東京都,北区,田端新町１丁目７－１４ビズフィールド西日暮里２０２,,13,117,1140012,,,,,,,2022-12-27,1,,,,,キョウチ,0
1435,7011501028794,新規,0,2022-12-27,2022-12-27,ＺＥＴＴＯＮ株式会社,,株式会社,東京都,北区,神谷３丁目４２番１１号,,13,117,1150043,,,,,,,2022-12-27,1,,,,,ゼットン,0
1436,7011701025889,新規,0,2022-12-27,2022-12-27,Ｏｄｍ株式会社,,株式会社,東京都,江戸川区,西葛西７丁目２９－１０西葛西ＡＰＡＲＴＭＥＮＴＳ－２－２０１,,13,123,1340088,,,,,,,2022-12-27,1,,,,,オーディーエム,0
1439,7011803005442,新規,0,2022-12-27,2022-12-27,合同会社ＴＳＵＭＩＫＩ,,合同会社,東京都,足立区,東綾瀬３丁目１１番１５号ビューパレスＢＬ号室,,13,121,1200004,,,,,,,2022-12-27,1,,,,,ツミキ,0
1441,7012401040014,新規,0,2022-12-27,2022-12-27,株式会社シンシアメディカル,,株式会社,東京都,三鷹市,中原３丁目２番１２号,,13,204,1810005,,,,,,,2022-12-27,1,,,,,シンシアメディカル,0
1446,7013303006425,新規,0,2022-12-27,2022-12-27,東和合同会社,,合同会社,東京都,豊島区,池袋１丁目２番６号ベルメゾン池袋９０８,,13,116,1700014,,,,,,,2022-12-27,1,,,,,トウワ,0
1455,7020003022974,新規,0,2022-12-27,2022-12-27,アジアワーキングサポート合同会社,,合同会社,神奈川県,横浜市泉区,上飯田町２６７０番地,,14,116,2450018,,,,,,,2022-12-27,1,,,,,アジアワーキングサポート,0
1456,7020003022982,新規,0,2022-12-27,2022-12-27,合同会社ＥａｓｔｅｒｎＳｋｙ,,合同会社,神奈川県,川崎市中原区,上小田中５丁目９番１１－５１０号コンフォートナカハラ,,14,133,2110053,,,,,,,2022-12-27,1,,,,,イースタンスカイ,0
1459,7020005015786,新規,0,2022-12-27,2022-12-27,特定非営利活動法人こっこ,,その他の設立登記法人,神奈川県,横浜市南区,西中町４丁目７２－１,,14,105,2320003,,,,,,,2022-12-27,1,,,,,コッコ,0
1464,7021001077795,新規,0,2022-12-27,2022-12-27,としかんホールディングス株式会社,,株式会社,神奈川県,愛甲郡愛川町,中津６８３８番地１,,14,401,2430303,,,,,,,2022-12-27,1,,,,,トシカンホールディングス,0
1465,7021001077804,新規,0,2022-12-27,2022-12-27,株式会社小山建興,,株式会社,神奈川県,横須賀市,馬堀町２丁目１５番２６号,,14,201,2390802,,,,,,,2022-12-27,1,,,,,コヤマケンコウ,0
1466,7021001077812,新規,0,2022-12-27,2022-12-27,湘南株式会社,,株式会社,神奈川県,藤沢市,湘南台２丁目６番地の９－２Ｆ,,14,205,2520804,,,,,,,2022-12-27,1,,,,,ショウナン,0
1471,7030001151642,新規,0,2022-12-27,2022-12-27,エスシーテック株式会社,,株式会社,埼玉県,上尾市,本町４丁目８番２４号グランハイム琴２０２,,11,219,3620014,,,,,,,2022-12-27,1,,,,,エスシーテック,0
1481,7030003020820,新規,0,2022-12-27,2022-12-27,えいが合同会社,,合同会社,埼玉県,朝霞市,岡３丁目１８番３５号,,11,227,3510007,,,,,,,2022-12-27,1,,,,,エイガ,0
1496,7040003021553,新規,0,2022-12-27,2022-12-27,福潤合同会社,,合同会社,千葉県,船橋市,本町５丁目１９－１海老川マンション３１１－５号室,,12,204,2730005,,,,,,,2022-12-27,1,,,,,フクジュン,0
1499,7050001052145,新規,0,2022-12-27,2022-12-27,株式会社木村製作所,,株式会社,茨城県,桜川市,東飯田４６９番地,,08,231,3091233,,,,,,,2022-12-27,1,,,,,キムラセイサクジョ,0
1503,7060001035561,新規,0,2022-12-27,2022-12-27,株式会社ＪＴＬ,,株式会社,栃木県,足利市,伊勢町３丁目４番地１４,,09,202,3260053,,,,,,,2022-12-27,1,,,,,ジェイティーエル,0
1507,7080103002714,新規,0,2022-12-27,2022-12-27,合同会社ＣＯＣＯ　ＴＥＲＲＡＣＥ,,合同会社,静岡県,伊東市,富戸１１３１番地の８２,,22,208,4130231,,,,,,,2022-12-27,1,,,,,ココテラス,0
1526,7120001251334,新規,0,2022-12-27,2022-12-27,福田株式会社,,株式会社,大阪府,大阪市北区,天満４丁目１２番１９号,,27,127,5300043,,,,,,,2022-12-27,1,,,,,フクダ,0
1529,7120005023366,新規,0,2022-12-27,2022-12-27,一般財団法人在日韓国奨学会,,その他の設立登記法人,大阪府,大阪市北区,中崎町二丁目４番２号在日韓国人会館３階,,27,127,5300000,,,,,,,2022-12-27,1,,,,,ザイニチカンコクショウガクカイ,0
1534,7120903004434,新規,0,2022-12-27,2022-12-27,合同会社ＮＥＷ　ＬＥＡＦ,,合同会社,大阪府,箕面市,小野原西６丁目１６番３２－４０６号,,27,220,5620032,,,,,,,2022-12-27,1,,,,,ニューリーフ,0
1535,7120905006404,新規,0,2022-12-27,2022-12-27,特定非営利活動法人Ｌｉｆｅ　ｃｙｃｌｅ　ｓｕｐｐｏｒｔ協会,,その他の設立登記法人,大阪府,三島郡島本町,広瀬４丁目１７番６号,,27,301,6180011,,,,,,,2022-12-27,1,,,,,ライフサイクルサポートキョウカイ,0
1537,7122001036525,新規,0,2022-12-27,2022-12-27,株式会社Ｔｉａｒａ　Ｐｌｕｓ,,株式会社,大阪府,八尾市,大竹７丁目１６９番地,,27,212,5810854,,,,,,,2022-12-27,1,,,,,ティアラプラス,0
1540,7130001073364,新規,0,2022-12-27,2022-12-27,株式会社大海設備,,株式会社,京都府,京都市山科区,川田欠ノ上１４番地３６,,26,110,6078334,,,,,,,2022-12-27,1,,,,,タイガセツビ,0
1553,7160003002764,新規,0,2022-12-27,2022-12-27,合同会社ＺＥＳＴ,,合同会社,滋賀県,草津市,野路町１３０２番地１,,25,206,5250055,,,,,,,2022-12-27,1,,,,,ゼスト,0
1557,7180001154309,新規,0,2022-12-27,2022-12-27,株式会社ＥＸＯ,,株式会社,愛知県,名古屋市中区,栄３丁目１１番３１号グラスシティ栄８階,,23,106,4600008,,,,,,,2022-12-27,1,,,,,エクソ,0
1560,7180301036941,新規,0,2022-12-27,2022-12-27,アサイホールディングス株式会社,,株式会社,愛知県,高浜市,二池町２丁目１番地２,,23,227,4441322,,,,,,,2022-12-27,1,,,,,アサイホールディングス,0
1565,7200001040811,新規,0,2022-12-27,2022-12-27,株式会社美山やな,,株式会社,岐阜県,山県市,青波９６６番地,,21,215,5012256,,,,,,,2022-12-27,1,,,,,ミヤマヤナ,0
1589,7290001100020,新規,0,2022-12-27,2022-12-27,株式会社九州エネルギー,,株式会社,福岡県,大野城市,筒井２丁目１２番１１号,,40,219,8160931,,,,,,,2022-12-27,1,,,,,キュウシュウエネルギー,0
1590,7290001100029,新規,0,2022-12-27,2022-12-27,株式会社幸和ホーム,,株式会社,福岡県,福岡市南区,塩原３丁目１４番２３－１０３号,,40,134,8150032,,,,,,,2022-12-27,1,,,,,コウワホーム,0
1593,7290801029145,新規,0,2022-12-27,2022-12-27,株式会社壱番亭,,株式会社,福岡県,直方市,大字上新入１８６２番地２５,,40,204,8220033,,,,,,,2022-12-27,1,,,,,イチバンテイ,0
1600,7360003012594,新規,0,2022-12-27,2022-12-27,合同会社ｔｅｔｏｔｅ,,合同会社,沖縄県,豊見城市,字豊見城１００４番地１ウィングシャトー豊見城２０１号,,47,212,9010241,,,,,,,2022-12-27,1,,,,,テトテ,0
1609,7390001017106,新規,0,2022-12-27,2022-12-27,株式会社近鈑金製作所,,株式会社,山形県,米沢市,万世町立沢３６４番地の２,,06,202,9921201,,,,,,,2022-12-27,1,,,,,コンバンキンセイサクショ,0
1618,7430001088092,新規,0,2022-12-27,2022-12-27,株式会社小康,,株式会社,北海道,札幌市南区,真駒内緑町３丁目４番４－５０３号,,01,106,0050013,,,,,,,2022-12-27,1,,,,,ココウ,0
1619,7430001088101,新規,0,2022-12-27,2022-12-27,株式会社Ｆｌｅｍｉｎｇ,,株式会社,北海道,札幌市豊平区,豊平一条７丁目２番２１－３０２号,,01,105,0620901,,,,,,,2022-12-27,1,,,,,フレミング,0
1622,7440001009205,新規,0,2022-12-27,2022-12-27,株式会社富原工務店,,株式会社,北海道,函館市,石川町１３４番地５７,,01,202,0410802,,,,,,,2022-12-27,1,,,,,トミハラコウムテン,0
1623,7450003002280,新規,0,2022-12-27,2022-12-27,合同会社ＬＥＧＡＬ,,合同会社,北海道,旭川市,川端町三条６丁目１－１１,,01,204,0700813,,,,,,,2022-12-27,1,,,,,リーガル,0
1629,7480001011958,新規,0,2022-12-27,2022-12-27,株式会社エボティ,,株式会社,徳島県,吉野川市,鴨島町中島２６５番地１,,36,205,7760004,,,,,,,2022-12-27,1,,,,,エボティ,0
1636,7700150113508,新規,0,2022-12-27,2022-12-27,ＥＭＣ　ＰＲＯＰＥＲＴＩＥＳ　ＰＴＥ．ＬＴＤ．,,外国会社等,北海道,虻田郡倶知安町,ニセコひらふ一条２丁目６番９号３１６,,01,400,0440080,３１　Ｊｕｒｏｎｇ　Ｐｏｒｔ　Ｒｏａｄ　＃０７－０１　Ｊｕｒｏｎｇ　Ｌｏｇｉｓｔｉｃｓ　Ｈｕｂ　Ｓｉｎｇａｐｏｒｅ　６１９１１５,,,,,,2022-12-27,1,,,,,イーエムシープロパテイーズピーテイーイーエルテイーデイー,0
1637,7700150113516,新規,0,2022-12-27,2022-12-27,Ｃｒｅｅｄｏｎ　Ｔｅｃｈｎｏｌｏｇｉｅｓ　ＵＳＡ，ＬＬＣ,,外国会社等,,,,,,,,１２３０１　Ｗｈｉｔｅｗａｔｅｒ　Ｄｒｖ　＃１１５Ｍｔｋａ，ＭＮ　５５３４３ＵＳＡ,,,,,,2022-12-27,1,,,,,クリードンテクノロジーズユーエスエーエルエルシー,0
1649,8010001231767,新規,0,2022-12-27,2022-12-27,バリュー・クエスト・パートナーズ株式会社,,株式会社,東京都,千代田区,神田須田町１丁目１４番地ヒューリック神田須田町ビル３Ｆ,,13,101,1010041,,,,,,,2022-12-27,1,,,,,バリュークエストパートナーズ,0
1650,8010001231858,新規,0,2022-12-27,2022-12-27,株式会社ＭＴＳ,,株式会社,東京都,千代田区,東神田１丁目３番９号ニューアガタビル６０２,,13,101,1010031,,,,,,,2022-12-27,1,,,,,エムティーエス,0
1651,8010001231890,新規,0,2022-12-27,2022-12-27,Ｈｏｒｉｚｏｎ株式会社,,株式会社,東京都,文京区,小日向２丁目２番２０号,,13,105,1120006,,,,,,,2022-12-27,1,,,,,ホライゾン,0
1652,8010003039432,新規,0,2022-12-27,2022-12-27,合同会社ＰＥａｒｔｈ,,合同会社,東京都,中央区,銀座１丁目１２番４号Ｎ＆ＥＢＬＤ．６Ｆ,,13,102,1040061,,,,,,,2022-12-27,1,,,,,ピーアース,0
1656,8010401171596,新規,0,2022-12-27,2022-12-27,ＤＯＴＥＫ株式会社,,株式会社,東京都,港区,東麻布２丁目１７番８号,,13,103,1060044,,,,,,,2022-12-27,1,,,,,ドゥーテック,0
1660,8010403029207,新規,0,2022-12-27,2022-12-27,合同会社ＶＥＪＢＰ　Ｄｅｖｅｌｏｐｍｅｎｔ,,合同会社,東京都,港区,虎ノ門２丁目１０番４号オークラプレステージタワー,,13,103,1050001,,,,,,,2022-12-27,1,,,,,ブイイージェイビーピーデベロップメント,0
1671,8010701043660,新規,0,2022-12-27,2022-12-27,ノンスタン株式会社,,株式会社,東京都,品川区,西五反田２丁目２３番３号,,13,109,1410031,,,,,,,2022-12-27,1,,,,,ノンスタン,0
1682,8011001151658,新規,0,2022-12-27,2022-12-27,株式会社カタライ,,株式会社,東京都,渋谷区,神宮前２丁目３５番９号原宿リビン３１２,,13,113,1500001,,,,,,,2022-12-27,1,,,,,カタライ,0
1683,8011003015992,新規,0,2022-12-27,2022-12-27,合同会社ｍｕｓｏ蒸装,,合同会社,東京都,渋谷区,神宮前６丁目２３番４号桑野ビル２階,,13,113,1500001,,,,,,,2022-12-27,1,,,,,ムソウ,0
1687,8011201024317,新規,0,2022-12-27,2022-12-27,株式会社ＡＬＬ　ＬＩＮＫ　ＶＩＳＩＯＮ,,株式会社,東京都,中野区,弥生町２丁目４１番１７号東京コンテンツインキュベーションセンター,,13,114,1640013,,,,,,,2022-12-27,1,,,,,オールリンクビジョン,0
1693,8011601026466,新規,0,2022-12-27,2022-12-27,株式会社ラストダイブ,,株式会社,東京都,練馬区,南大泉２丁目５番４６号,,13,120,1780064,,,,,,,2022-12-27,1,,,,,ラストダイブ,0
1712,8012801022049,新規,0,2022-12-27,2022-12-27,業務支援株式会社,,株式会社,東京都,国分寺市,東恋ヶ窪４丁目２８番地３,,13,214,1850014,,,,,,,2022-12-27,1,,,,,ギョウムシエン,0
1713,8012803002965,新規,0,2022-12-27,2022-12-27,コネクトキカク合同会社,,合同会社,東京都,立川市,錦町１丁目４番２０号ＴＳＣビル５階,,13,202,1900022,,,,,,,2022-12-27,1,,,,,コネクトキカク,0
1726,8020001149538,新規,0,2022-12-27,2022-12-27,株式会社こもれ陽,,株式会社,神奈川県,横浜市西区,高島２丁目１９番１２号,,14,103,2200011,,,,,,,2022-12-27,1,,,,,コモレビ,0
1727,8020001149546,新規,0,2022-12-27,2022-12-27,株式会社Ｊ＆Ｋコンサルティング,,株式会社,神奈川県,川崎市高津区,千年９６１番地１,,14,134,2130022,,,,,,,2022-12-27,1,,,,,ジェイアンドケイコンサルティング,0
1728,8020001149562,新規,0,2022-12-27,2022-12-27,株式会社ＢＡＮＤＯ,,株式会社,神奈川県,横浜市保土ケ谷区,天王町１丁目４－１９ル・セラヴィ５０３,,14,106,2400003,,,,,,,2022-12-27,1,,,,,バンドー,0
1736,8021001077381,新規,0,2022-12-27,2022-12-27,株式会社Ｄｉｎマーケティング,,株式会社,神奈川県,足柄下郡箱根町,宮城野字ヲツソバ５８番地７５,,14,382,2500401,,,,,,,2022-12-27,1,,,,,ディーアイエヌマーケティング,0
1737,8021001077811,新規,0,2022-12-27,2022-12-27,ツアラテックジャパン株式会社,,株式会社,神奈川県,相模原市緑区,中野９８８番地,,14,151,2520157,,,,,,,2022-12-27,1,,,,,ツアラテックジャパン,0
1740,8021005012707,新規,0,2022-12-27,2022-12-27,社会福祉法人アール・ド・ヴィーヴル,,その他の設立登記法人,神奈川県,小田原市,久野４０３番地の１７,,14,206,2500055,,,,,,,2022-12-27,1,,,,,アールドヴィーヴル,0
1744,8030001151550,新規,0,2022-12-27,2022-12-27,株式会社日和,,株式会社,埼玉県,蕨市,中央４丁目１３番３－１０２号,,11,223,3350004,,,,,,,2022-12-27,1,,,,,ヒヨリ,0
1747,8040001126411,新規,0,2022-12-27,2022-12-27,株式会社木更津建設,,株式会社,千葉県,木更津市,東中央３丁目７番４－１０９号,,12,206,2920057,,,,,,,2022-12-27,1,,,,,キサラヅケンセツ,0
1754,8040003021585,新規,0,2022-12-27,2022-12-27,合同会社Ｏｄｙｓｓｅｙ,,合同会社,千葉県,松戸市,常盤平陣屋前１－１３高橋ハイツ１０４,,12,207,2702265,,,,,,,2022-12-27,1,,,,,オデッセイ,0
1762,8050003007121,新規,0,2022-12-27,2022-12-27,合同会社ＳＴＲ,,合同会社,茨城県,行方市,島並７２８番地１,,08,233,3113835,,,,,,,2022-12-27,1,,,,,エスティーアール,0
1766,8060001035560,新規,0,2022-12-27,2022-12-27,株式会社中進建設,,株式会社,栃木県,那須塩原市,関谷１１８６番地９０,,09,213,3292801,,,,,,,2022-12-27,1,,,,,ナカシンケンセツ,0
1767,8060003004357,新規,0,2022-12-27,2022-12-27,合同会社エコアース,,合同会社,栃木県,宇都宮市,駒生１丁目７番４３号,,09,201,3200066,,,,,,,2022-12-27,1,,,,,エコアース,0
1774,8080101023711,新規,0,2022-12-27,2022-12-27,クリアー株式会社,,株式会社,静岡県,田方郡函南町,上沢７０１番地の１１,,22,325,4190122,,,,,,,2022-12-27,1,,,,,クリアー,0
1790,8120001251333,新規,0,2022-12-27,2022-12-27,株式会社レコ,,株式会社,大阪府,大阪市中央区,久太郎町４丁目１番３号大阪センタービル６Ｆ－１９１,,27,128,5410056,,,,,,,2022-12-27,1,,,,,レコ,0
1791,8120001251341,新規,0,2022-12-27,2022-12-27,三山株式会社,,株式会社,大阪府,大阪市生野区,小路東６丁目８番１７号昭和エクセルビュー東大阪１０３－Ｇ１６,,27,116,5440003,,,,,,,2022-12-27,1,,,,,ミサン,0
1792,8120001251366,新規,0,2022-12-27,2022-12-27,株式会社ＣＨＩＡＫＩＴＴＹ,,株式会社,大阪府,大阪市中央区,玉造１丁目２番３４号,,27,128,5400004,,,,,,,2022-12-27,1,,,,,チアキティー,0
1793,8120001251382,新規,0,2022-12-27,2022-12-27,祺商共創株式会社,,株式会社,大阪府,大阪市生野区,勝山南１丁目１番２０号４０１,,27,116,5440021,,,,,,,2022-12-27,1,,,,,キショウキョウソウ,0
1796,8120101066739,新規,0,2022-12-27,2022-12-27,日前産業株式会社,,株式会社,大阪府,堺市西区,草部６０４番地３１,,27,144,5938312,,,,,,,2022-12-27,1,,,,,ヒノクマサンギョウ,0
1805,8122003002474,新規,0,2022-12-27,2022-12-27,合同会社アクシス,,合同会社,大阪府,四條畷市,南野４丁目４番５５号－３,,27,229,5750021,,,,,,,2022-12-27,1,,,,,アクシス,0
1807,8130003008400,新規,0,2022-12-27,2022-12-27,合同会社キジカク,,合同会社,京都府,京都市下京区,朱雀宝蔵町４４番地協栄ビル２階京都朱雀スタジオ,,26,106,6008846,,,,,,,2022-12-27,1,,,,,キジカク,0
1813,8140001128546,新規,0,2022-12-27,2022-12-27,岡村特殊金属株式会社,,株式会社,兵庫県,姫路市,御国野町御着火山２２,,28,201,6710232,,,,,,,2022-12-27,1,,,,,オカムラトクシュキンゾク,0
1814,8140001128554,新規,0,2022-12-27,2022-12-27,ＹＵＭＩ　ＷＯＲＬＤ　ＪＡＰＡＮ株式会社,,株式会社,兵庫県,神戸市灘区,永手町５丁目２番６号永手ビル３Ｆ,,28,102,6570027,,,,,,,2022-12-27,1,,,,,ユーミワールドジャパン,0
1817,8150003002847,新規,0,2022-12-27,2022-12-27,合同会社イシカルコンサルティング,,合同会社,奈良県,生駒市,鹿ノ台北１丁目７番地７,,29,209,6300111,,,,,,,2022-12-27,1,,,,,イシカルコンサルティング,0
1820,8160001024727,新規,0,2022-12-27,2022-12-27,ＹＫ　ＦＯＲＷＡＲＤＩＮＧ　ＳＹＳＴＥＭＳ株式会社,,株式会社,滋賀県,守山市,浮気町３００番地１５グランドメゾン守山４棟１２２５号,,25,207,5240033,,,,,,,2022-12-27,1,,,,,ワイケイフォワーディングシステムズ,0
1823,8180001154324,新規,0,2022-12-27,2022-12-27,株式会社エメリル,,株式会社,愛知県,名古屋市中区,錦３丁目６番１５号先名古屋テレビ塔３階,,23,106,4600003,,,,,,,2022-12-27,1,,,,,エメリル,0
1824,8180301036940,新規,0,2022-12-27,2022-12-27,株式会社アスクエート,,株式会社,愛知県,豊橋市,小浜町１２３番地,,23,201,4418067,,,,,,,2022-12-27,1,,,,,アスクエート,0
1825,8180305009430,新規,0,2022-12-27,2022-12-27,医療法人大杉医院,,その他の設立登記法人,愛知県,刈谷市,一ツ木町１丁目１０番地７,,23,210,4480003,,,,,,,2022-12-27,1,,,,,,0
1833,8240001060846,新規,0,2022-12-27,2022-12-27,ＴＡＫＥＡＲＣＨＩＴＥＣＴＳ株式会社,,株式会社,広島県,広島市安佐北区,口田南９丁目１１番１６号,,34,106,7391733,,,,,,,2022-12-27,1,,,,,テイクアーキテクツ,0
1834,8240001060854,新規,0,2022-12-27,2022-12-27,株式会社カンショウ,,株式会社,広島県,広島市安佐南区,安東２丁目８番１１－６０１号,,34,105,7310153,,,,,,,2022-12-27,1,,,,,カンショウ,0
1839,8270003001473,新規,0,2022-12-27,2022-12-27,コントレイル合同会社,,合同会社,鳥取県,東伯郡三朝町,大字久原２５９,,31,364,6820375,,,,,,,2022-12-27,1,,,,,コントレイル,0
1848,8290001100036,新規,0,2022-12-27,2022-12-27,株式会社Ｃサポート,,株式会社,福岡県,福岡市中央区,舞鶴３丁目８番６号１Ｆ,,40,133,8100073,,,,,,,2022-12-27,1,,,,,シーサポート,0
1851,8290801029152,新規,0,2022-12-27,2022-12-27,株式会社Ｔ‐ＷＯＲＫＥＲＳ,,株式会社,福岡県,宮若市,上大隈７０５番地２２,,40,226,8230005,,,,,,,2022-12-27,1,,,,,ティーワーカーズ,0
1859,8330005010598,新規,0,2022-12-27,2022-12-27,ＮＰＯ法人キャリアパーク,,その他の設立登記法人,熊本県,合志市,須屋２１８５－２,,43,216,8611102,,,,,,,2022-12-27,1,,,,,キャリアパーク,0
1866,8360003012585,新規,0,2022-12-27,2022-12-27,合同会社琉球アドコム,,合同会社,沖縄県,那覇市,字大道５５番地,,47,201,9020066,,,,,,,2022-12-27,1,,,,,リュウキュウアドコム,0
1868,8370005010578,新規,0,2022-12-27,2022-12-27,一般社団法人日本文化デジタル図書館,,その他の設立登記法人,宮城県,伊具郡丸森町,舘矢間舘山字鳥内１０－１,,04,341,9812102,,,,,,,2022-12-27,1,,,,,ニホンブンカデジタルトショカン,0
1869,8380001033359,新規,0,2022-12-27,2022-12-27,株式会社ライトハウスジャパン,,株式会社,福島県,須賀川市,栄町３５０,,07,207,9620858,,,,,,,2022-12-27,1,,,,,,0
1871,8380003005348,新規,0,2022-12-27,2022-12-27,ＨＤ合同会社,,合同会社,福島県,郡山市,大町２丁目１２番４号大橋ビル１Ｆ,,07,203,9638001,,,,,,,2022-12-27,1,,,,,エイチディー,0
1873,8390001017096,新規,0,2022-12-27,2022-12-27,株式会社つなぐ,,株式会社,山形県,米沢市,中田町７５１番地の１,,06,202,9920011,,,,,,,2022-12-27,1,,,,,ツナグ,0
1878,8450001013865,新規,0,2022-12-27,2022-12-27,株式会社清原技建工業,,株式会社,北海道,旭川市,東光五条４丁目１番１６号,,01,204,0788345,,,,,,,2022-12-27,1,,,,,キヨハラギケンコウギョウ,0
1884,8700150113515,新規,0,2022-12-27,2022-12-27,Ｔａｉｙｕａｎｂｉｎｙｕａｎｘｉａｎｇｄｉａｎｚｉｓｈａｎｇｗｕｙｏｕｘｉａｎｇｏｎｇｓｉ,,外国会社等,,,,,,,,Ｘｉａｏｙａｏｔｏｕｃｕｎ　ｘｉｙａｊｉｅ　２２ｈａｏ　Ｒｕｚｈｕ　ｔａｉｙｕａｎｓｈｉ　ｆｅｉｙｉｘｉａｏｚｈｅｎ　ｆｕｈｕａｙｕａｎ　ｇｕａｎｌｉ　ｙｏｕｘｉａｎｇｏｎｇｓｉ　Ｂｑｕ－１２ｈａｏ　Ｔａｉｙｕａｎ　Ｓｈａｎｘｉ,,,,,,2022-12-27,1,,,,,タイウエンビンウエンシヤンデンシシヨウムユウゲンコウシ,0
1897,9010001231709,新規,0,2022-12-27,2022-12-27,株式会社ビッケンジー・エンド・カンパニー,,株式会社,東京都,千代田区,神田神保町２丁目１０番２９号,,13,101,1010051,,,,,,,2022-12-27,1,,,,,ビッケンジーエンドカンパニー,0
1898,9010001231799,新規,0,2022-12-27,2022-12-27,株式会社ＹＫ　Ｗｏｒｌｄ,,株式会社,東京都,中央区,日本橋蛎殻町１丁目１９番１号,,13,102,1030014,,,,,,,2022-12-27,1,,,,,ワイケーワールド,0
1899,9010001231824,新規,0,2022-12-27,2022-12-27,株式会社ＦＵＮ,,株式会社,東京都,千代田区,大手町１丁目５番１号,,13,101,1000004,,,,,,,2022-12-27,1,,,,,ファン,0
1900,9010001231849,新規,0,2022-12-27,2022-12-27,ワールドコーポレーション株式会社,,株式会社,東京都,中央区,日本橋本町１丁目４番１２号,,13,102,1030023,,,,,,,2022-12-27,1,,,,,ワールドコーポレーション,0
1901,9010001231873,新規,0,2022-12-27,2022-12-27,ＰＯＩＮＴ　ＤＥ　ＶＵＥ　ＤＩＧＴＡＬ株式会社,,株式会社,東京都,千代田区,麹町３丁目４－３シェルプール麹町３０２号室,,13,101,1020083,,,,,,,2022-12-27,1,,,,,ポアンドヴュデジタル,0
1906,9010003039217,新規,0,2022-12-27,2022-12-27,サンタテレサ合同会社,,合同会社,東京都,中央区,銀座６丁目６番１号銀座風月堂ビル５Ｆ,,13,102,1040061,,,,,,,2022-12-27,1,,,,,サンタテレサ,0
1907,9010003039431,新規,0,2022-12-27,2022-12-27,合同会社ＳｕｎＳｕｎ,,合同会社,東京都,中央区,明石町１番７－９０４号,,13,102,1040044,,,,,,,2022-12-27,1,,,,,サンサン,0
1916,9010401171538,新規,0,2022-12-27,2022-12-27,株式会社Ｂｉｚｇｅｍ,,株式会社,東京都,港区,北青山２丁目７番１３号プラセオ青山ビル３Ｆ,,13,103,1070061,,,,,,,2022-12-27,1,,,,,ビズジェム,0
1917,9010403029156,新規,0,2022-12-27,2022-12-27,合同会社ａｍｅｌｉｏｒｅｒ,,合同会社,東京都,港区,南青山２丁目２番１５号,,13,103,1070062,,,,,,,2022-12-27,1,,,,,アメリオレ,0
1922,9010503006823,新規,0,2022-12-27,2022-12-27,羽叶合同会社,,合同会社,東京都,台東区,台東３丁目１２番２号,,13,106,1100016,,,,,,,2022-12-27,1,,,,,ワカナ,0
1926,9010601062355,新規,0,2022-12-27,2022-12-27,株式会社Ｌｉｂｅｒｏ,,株式会社,東京都,墨田区,錦糸１丁目２番１号アルカセントラル１４Ｆ,,13,107,1300013,,,,,,,2022-12-27,1,,,,,リベロ,0
1927,9010601062363,新規,0,2022-12-27,2022-12-27,株式会社ｃｏｎｅｃｏｎｅ,,株式会社,東京都,墨田区,立川４丁目１４－９－６０１,,13,107,1300023,,,,,,,2022-12-27,1,,,,,コネコネ,0
1928,9010701043643,新規,0,2022-12-27,2022-12-27,ひまわりプランニング株式会社,,株式会社,東京都,品川区,北品川５丁目３番１－１８１７号,,13,109,1410001,,,,,,,2022-12-27,1,,,,,ヒマワリプランニング,0
1936,9011001151673,新規,0,2022-12-27,2022-12-27,株式会社ＮＯＴＣＯＤＥ,,株式会社,東京都,目黒区,碑文谷５丁目２－５Ｔ＆Ａビル５Ｆ,,13,110,1520003,,,,,,,2022-12-27,1,,,,,ノットコード,0
1937,9011001151681,新規,0,2022-12-27,2022-12-27,トレジャーハウステクノロジー株式会社,,株式会社,東京都,渋谷区,上原１丁目３番９号,,13,113,1510064,,,,,,,2022-12-27,1,,,,,トレジャーハウステクノロジー,0
1940,9011005009892,新規,0,2022-12-27,2022-12-27,一般社団法人ミライギフト,,その他の設立登記法人,東京都,渋谷区,神宮前５丁目４６－４ＵＮＢＡＢＥＬ,,13,113,1500001,,,,,,,2022-12-27,1,,,,,ミライギフト,0
1947,9011101101306,新規,0,2022-12-27,2022-12-27,株式会社ＴＡＩＬＡＮＤ,,株式会社,東京都,新宿区,天神町１番地２シェア天神町２０１,,13,104,1620808,,,,,,,2022-12-27,1,,,,,タイランド,0
1952,9012301013266,新規,0,2022-12-27,2022-12-27,株式会社シェルフィッシュサウンド,,株式会社,東京都,町田市,金井ヶ丘３丁目２５番１７号,,13,209,1950076,,,,,,,2022-12-27,1,,,,,シェルフィッシュサウンド,0
1954,9012403005756,新規,0,2022-12-27,2022-12-27,合同会社Ｗｅｓｔ,,合同会社,東京都,稲城市,大丸３５８番地の４,,13,225,2060801,,,,,,,2022-12-27,1,,,,,ウェスト,0
1957,9012803002964,新規,0,2022-12-27,2022-12-27,銀海合同会社,,合同会社,東京都,日野市,日野本町３丁目１４－１８谷井ビル４Ｆ４０６室,,13,212,1910011,,,,,,,2022-12-27,1,,,,,ギンカイ,0
1969,9020005015792,新規,0,2022-12-27,2022-12-27,一般社団法人未来ぷらす舎,,その他の設立登記法人,神奈川県,横浜市中区,桜木町１丁目１０１番地１クロスゲート７階,,14,104,2310062,,,,,,,2022-12-27,1,,,,,ミライプラスシャ,0
1974,9021003012542,新規,0,2022-12-27,2022-12-27,Ｔ＆Ｈ合同会社,,合同会社,神奈川県,厚木市,温水９８９番地２ラ・レコルト１０２,,14,212,2430033,,,,,,,2022-12-27,1,,,,,ティーアンドエイチ,0
1978,9030001151640,新規,0,2022-12-27,2022-12-27,株式会社ＳＡＰＩＥＮＳ,,株式会社,埼玉県,飯能市,大字岩沢５１１番地３,,11,209,3570023,,,,,,,2022-12-27,1,,,,,サピエンス,0
1982,9030003020827,新規,0,2022-12-27,2022-12-27,ＹＫＭ合同会社,,合同会社,埼玉県,草加市,青柳３丁目２５番３３号２Ｆ,,11,221,3400002,,,,,,,2022-12-27,1,,,,,ワイケーエム,0
1983,9030003020835,新規,0,2022-12-27,2022-12-27,ミラクリーズ合同会社,,合同会社,埼玉県,鴻巣市,栄町６番４５号,,11,217,3650055,,,,,,,2022-12-27,1,,,,,ミラクリーズ,0
1990,9040001126385,新規,0,2022-12-27,2022-12-27,株式会社蓮,,株式会社,千葉県,四街道市,みそら４丁目１９番７号,,12,228,2840023,,,,,,,2022-12-27,1,,,,,レン,0
1994,9040003021584,新規,0,2022-12-27,2022-12-27,合同会社ＳＤ　Ｐｌａｎｅｔ,,合同会社,千葉県,成田市,花崎町８１６ラ・エント成田５階,,12,211,2860033,,,,,,,2022-12-27,1,,,,,エスディープラネット,0
1995,9050003007120,新規,0,2022-12-27,2022-12-27,合同会社ＩＤＯ‐ＦＯＯＤＳ,,合同会社,茨城県,古河市,長谷町３３－２２エミネンス長谷２０２,,08,204,3060034,,,,,,,2022-12-27,1,,,,,アイディーオーフーズ,0
2000,9060003004356,新規,0,2022-12-27,2022-12-27,Ｌｕｍｉｅｒｅ合同会社,,合同会社,栃木県,佐野市,富岡町１４１８番地キーステーションビル２－５,,09,204,3270844,,,,,,,2022-12-27,1,,,,,リュミエール,0
2008,9080101023710,新規,0,2022-12-27,2022-12-27,株式会社金太郎モバイル,,株式会社,静岡県,駿東郡小山町,須走１１２番地の１９富士高原コンドＤ－１３４,,22,344,4101431,,,,,,,2022-12-27,1,,,,,キンタロウモバイル,0
2018,9110001037187,新規,0,2022-12-27,2022-12-27,株式会社Ｙグループ,,株式会社,新潟県,上越市,上昭和町１１番２５号,,15,222,9430894,,,,,,,2022-12-27,1,,,,,ワイグループ,0
2019,9110001037195,新規,0,2022-12-27,2022-12-27,株式会社アオヤマフーズ,,株式会社,新潟県,上越市,春日新田２丁目１番２２号,,15,222,9420061,,,,,,,2022-12-27,1,,,,,アオヤマフーズ,0
2029,9120001251340,新規,0,2022-12-27,2022-12-27,清児株式会社,,株式会社,大阪府,大阪市中央区,内本町２丁目３－１１内本町グリーンビル７Ｆ,,27,128,5400026,,,,,,,2022-12-27,1,,,,,セイジ,0
2030,9120001251373,新規,0,2022-12-27,2022-12-27,株式会社淀川建設,,株式会社,大阪府,大阪市淀川区,西三国１丁目２１番４３─５１０号,,27,123,5320006,,,,,,,2022-12-27,1,,,,,ヨドガワケンセツ,0
2046,9140003018513,新規,0,2022-12-27,2022-12-27,合同会社エス・ワイ・エム,,合同会社,兵庫県,たつの市,龍野町四箇２９１番地,,28,229,6794168,,,,,,,2022-12-27,1,,,,,エスワイエム,0
2050,9150001026046,新規,0,2022-12-27,2022-12-27,株式会社大笑,,株式会社,奈良県,大和郡山市,小南町４８８番地２４２,,29,203,6391023,,,,,,,2022-12-27,1,,,,,タイショウ,0
2054,9160001024734,新規,0,2022-12-27,2022-12-27,株式会社ケイアイ,,株式会社,滋賀県,大津市,国分１丁目１４番１０号,,25,201,5200844,,,,,,,2022-12-27,1,,,,,ケイアイ,0
2056,9170001017423,新規,0,2022-12-27,2022-12-27,田辺ファーム株式会社,,株式会社,和歌山県,田辺市,新庄町２５８３番地の１,,30,206,6460011,,,,,,,2022-12-27,1,,,,,タナベファーム,0
2059,9180001154307,新規,0,2022-12-27,2022-12-27,株式会社Ｋ．ｉｓｍ名古屋,,株式会社,愛知県,名古屋市中川区,川前町３２,,23,110,4540916,,,,,,,2022-12-27,1,,,,,ケーイズムナゴヤ,0
2060,9180001154315,新規,0,2022-12-27,2022-12-27,ダブルオーホールディングス株式会社,,株式会社,愛知県,清須市,西枇杷島町南松原２４番地,,23,233,4520053,,,,,,,2022-12-27,1,,,,,ダブルオーホールディングス,0
2061,9180001154348,新規,0,2022-12-27,2022-12-27,大林土建株式会社,,株式会社,愛知県,名古屋市中村区,烏森町５丁目６番地,,23,105,4530855,,,,,,,2022-12-27,1,,,,,オオバヤシドケン,0
2066,9210005010072,新規,0,2022-12-27,2022-12-27,一般社団法人クラブリッジ,,その他の設立登記法人,福井県,坂井市,坂井町大味第５６号２５番地７,,18,210,9190547,,,,,,,2022-12-27,1,,,,,クラブリッジ,0
2069,9250001019898,新規,0,2022-12-27,2022-12-27,株式会社彩建,,株式会社,山口県,宇部市,明神町２丁目１０番２３号,,35,202,7550008,,,,,,,2022-12-27,1,,,,,サイケン,0
2071,9260001037511,新規,0,2022-12-27,2022-12-27,株式会社ユニットティ,,株式会社,岡山県,倉敷市,大内９４３番地１５,,33,202,7100817,,,,,,,2022-12-27,1,,,,,ユニットティ,0
2084,9310005008651,新規,0,2022-12-27,2022-12-27,特定非営利活動法人イコール子ども支援,,その他の設立登記法人,長崎県,佐世保市,母ケ浦町２０００番地２,,42,202,8580912,,,,,,,2022-12-27,1,,,,,イコールコドモシエン,0
2085,9320001019486,新規,0,2022-12-27,2022-12-27,株式会社街づくり,,株式会社,大分県,大分市,大道町４丁目１番９号,,44,201,8700822,,,,,,,2022-12-27,1,,,,,マチヅクリ,0
2095,9380001033358,新規,0,2022-12-27,2022-12-27,株式会社ＦＩＫＡ,,株式会社,福島県,伊達市,鍛治屋川２８番地６ミコト３東,,07,213,9600427,,,,,,,2022-12-27,1,,,,,フィーカ,0
2097,9390001017104,新規,0,2022-12-27,2022-12-27,株式会社ロビン２,,株式会社,山形県,天童市,南町１丁目７番２５号,,06,210,9940049,,,,,,,2022-12-27,1,,,,,ロビンツー,0
2103,9430003014581,新規,0,2022-12-27,2022-12-27,合同会社わっしょい,,合同会社,北海道,札幌市中央区,南八条西６丁目２８９番地１９５,,01,101,0640808,,,,,,,2022-12-27,1,,,,,ワッショイ,0
2105,9450001013864,新規,0,2022-12-27,2022-12-27,王子サーモンロード株式会社,,株式会社,北海道,上川郡上川町,字東雲５２７番地の８,,01,457,0781731,,,,,,,2022-12-27,1,,,,,オウジサーモンロード,0
2109,9480001011956,新規,0,2022-12-27,2022-12-27,株式会社ＭＲ,,株式会社,徳島県,徳島市,国府町和田字七反田２４番地の５０,,36,201,7793121,,,,,,,2022-12-27,1,,,,,エムアール,0
2114,9700150113514,新規,0,2022-12-27,2022-12-27,ＣＡＳＥＰＲＩＭＥ（ＨＫ）ＩＮＤＵＳＴＲＩＡＬ　ＣＯ．，ＬＩＭＩＴＥＤ,,外国会社等,,,,,,,,ＲＭ１５　１１／Ｆ　ＣＨＩＮＡ　ＵＮＩＴＥＤ　ＰＬＡＺＡ　１００８　ＴＡＩ　ＮＡＮ　ＷＥＳＴ　ＳＴＲＥＥＴ　ＬＡＩ　ＣＨＩ　ＫＯＫ　ＫＬ,,,,,,2022-12-27,1,,,,,ケースプライムインダストリアルカンパニーリミテツド,0
