sequenceNumber,corporateNumber,process,correct,updateDate,changeDate,name,nameImageId,kind,prefectureName,cityName,streetNumber,addressImageId,prefectureCode,cityCode,postCode,addressOutside,addressOutsideImageId,closeDate,closeCause,successorCorporateNumber,changeCause,assignmentDate,latest,enName,enPrefectureName,enCityName,enAddressOutside,furigana,hihyoji
4,1010001242507,新規,0,2024-03-01,2024-03-01,株式会社ＳＫ　ＬＩＮＥ,,株式会社,東京都,千代田区,外神田６丁目１２番８号第二中鉄ビル２０３,,13,101,1010021,,,,,,,2024-03-01,1,,,,,エスケーライン,0
5,1010001242589,新規,0,2024-03-01,2024-03-01,株式会社日本ハウスメンテナンス,,株式会社,東京都,千代田区,平河町２丁目５番５号１階,,13,101,1020093,,,,,,,2024-03-01,1,,,,,ニホンハウスメンテナンス,0
8,1010005037878,新規,0,2024-03-01,2024-03-01,一般社団法人芽衣心会,,その他の設立登記法人,東京都,中央区,銀座７丁目８番６号９階,,13,102,1040061,,,,,,,2024-03-01,1,,,,,メイシンカイ,0
10,1010401180752,新規,0,2024-03-01,2024-03-01,ｗｅｌｌｆａｍｉ株式会社,,株式会社,東京都,港区,南青山３丁目１番３６号青山丸竹ビル６Ｆ,,13,103,1070062,,,,,,,2024-03-01,1,,,,,ウェルファミ,0
13,1010405022991,新規,0,2024-03-01,2024-03-01,一般社団法人夢・希望ＪＡＰＡＮ,,その他の設立登記法人,東京都,港区,麻布十番２丁目２０番７号ＢＩＲＴＨＡＺＡＢＵ－ＪＵＢＡＮ,,13,103,1060045,,,,,,,2024-03-01,1,,,,,ユメキボウジャパン,0
21,1010901054786,新規,0,2024-03-01,2024-03-01,株式会社ＣＯＮＦＩＸ,,株式会社,東京都,世田谷区,大原１丁目７番３号,,13,112,1560041,,,,,,,2024-03-01,1,,,,,コンフィックス,0
22,1010901054794,新規,0,2024-03-01,2024-03-01,セブン・スプリングス株式会社,,株式会社,東京都,世田谷区,成城５丁目１９番３号マウントロイヤル成城２０１,,13,112,1570066,,,,,,,2024-03-01,1,,,,,セブンスプリングス,0
33,1011101106320,新規,0,2024-03-01,2024-03-01,株式会社ＵＺＵＺホールディングス,,株式会社,東京都,新宿区,西新宿３丁目１１番２０号,,13,104,1600023,,,,,,,2024-03-01,1,,,,,ウズウズホールディングス,0
34,1011101106386,新規,0,2024-03-01,2024-03-01,株式会社奄凪,,株式会社,東京都,新宿区,大久保１丁目１４番２０号プティベルソ１０５,,13,104,1690072,,,,,,,2024-03-01,1,,,,,アマナギ,0
35,1011101106394,新規,0,2024-03-01,2024-03-01,株式会社テクニカ,,株式会社,東京都,新宿区,西新宿３丁目２番９号,,13,104,1600023,,,,,,,2024-03-01,1,,,,,テクニカ,0
37,1011201025271,新規,0,2024-03-01,2024-03-01,クマ・コンセプツ株式会社,,株式会社,東京都,中野区,東中野３丁目２番７号ＦＡＩＴＨ,,13,114,1640003,,,,,,,2024-03-01,1,,,,,クマコンセプツ,0
39,1011303005072,新規,0,2024-03-01,2024-03-01,合同会社ステイマスター,,合同会社,東京都,杉並区,成田東４丁目３２－３,,13,115,1660015,,,,,,,2024-03-01,1,,,,,ステイマスター,0
41,1011403004288,新規,0,2024-03-01,2024-03-01,合同会社テイルズ,,合同会社,東京都,板橋区,舟渡１丁目１６番１８号ビルドール浮間舟渡１－４０３,,13,119,1740041,,,,,,,2024-03-01,1,,,,,テイルズ,0
49,1013301052154,新規,0,2024-03-01,2024-03-01,株式会社Ｈ‐Ｐｏｗｅｒホールディングス,,株式会社,東京都,豊島区,西池袋１丁目４番１０号,,13,116,1710021,,,,,,,2024-03-01,1,,,,,エイチパワーホールディングス,0
54,1020001156012,新規,0,2024-03-01,2024-03-01,Ｆｕｔｕｒｅ　Ｐｅａｋ株式会社,,株式会社,神奈川県,川崎市中原区,今井仲町３番４８号,,14,133,2110065,,,,,,,2024-03-01,1,,,,,フューチャーピーク,0
55,1020001156037,新規,0,2024-03-01,2024-03-01,ＮＭ　ＥＮＴＥＲＴＡＩＮＭＥＮＴ株式会社,,株式会社,神奈川県,横浜市中区,弥生町２丁目１８番１号ロイヤルステージＳＴ大通公園地下１Ｆ３号室,,14,104,2310058,,,,,,,2024-03-01,1,,,,,エヌエムエンターテインメント,0
56,1020001156045,新規,0,2024-03-01,2024-03-01,株式会社ａｎｄ　ａ,,株式会社,神奈川県,横浜市都筑区,川和町１２０７番地,,14,118,2240057,,,,,,,2024-03-01,1,,,,,アンドエー,0
62,1021003014208,新規,0,2024-03-01,2024-03-01,合同会社ＫＬＴ,,合同会社,神奈川県,平塚市,八重咲町１９番２５号ヴィラ平塚４０３,,14,203,2540811,,,,,,,2024-03-01,1,,,,,ケイエルティー,0
68,1030001158874,新規,0,2024-03-01,2024-03-01,株式会社さとるの畑,,株式会社,埼玉県,さいたま市浦和区,瀬ヶ崎１丁目３３番１９号,,11,107,3300044,,,,,,,2024-03-01,1,,,,,サトルノハタケ,0
69,1030001158940,新規,0,2024-03-01,2024-03-01,株式会社ＨＩＫＡＲＵ,,株式会社,埼玉県,川口市,長蔵１丁目１番１号,,11,203,3330807,,,,,,,2024-03-01,1,,,,,ヒカル,0
70,1030001158957,新規,0,2024-03-01,2024-03-01,ＰｌｕｓＯｎｅ株式会社,,株式会社,埼玉県,川越市,大字上戸３０２番地１９,,11,201,3500816,,,,,,,2024-03-01,1,,,,,プラスワン,0
84,1040003024446,新規,0,2024-03-01,2024-03-01,合同会社ＮＩＢＩ,,合同会社,千葉県,浦安市,当代島３丁目３番１６号,,12,227,2790001,,,,,,,2024-03-01,1,,,,,エヌアイビーアイ,0
89,1060003004941,新規,0,2024-03-01,2024-03-01,ケアサービス合同会社,,合同会社,栃木県,宇都宮市,御幸ケ原町１１６番地１５,,09,201,3210982,,,,,,,2024-03-01,1,,,,,ケアサービス,0
93,1090001018569,新規,0,2024-03-01,2024-03-01,株式会社朝日園,,株式会社,山梨県,甲州市,勝沼町勝沼１８５２番地,,19,213,4091316,,,,,,,2024-03-01,1,,,,,アサヒエン,0
113,1120001262130,新規,0,2024-03-01,2024-03-01,Ｂｅａｕｔｙ　ＧＦ株式会社,,株式会社,大阪府,大阪市北区,曾根崎新地２丁目２－１６関電不動産西梅田ビル２階,,27,127,5300002,,,,,,,2024-03-01,1,,,,,ビューティージーエフ,0
114,1120001262758,新規,0,2024-03-01,2024-03-01,日本裕和株式会社,,株式会社,大阪府,大阪市西成区,南津守７丁目８番６号４Ｃ,,27,122,5570063,,,,,,,2024-03-01,1,,,,,ニホンシュウワ,0
115,1120001262766,新規,0,2024-03-01,2024-03-01,中和株式会社,,株式会社,大阪府,大阪市生野区,巽北１丁目７番３号２０３号室,00133911,27,116,5440004,,,,,,,2024-03-01,1,,,,,チュウワ,0
121,1130001076455,新規,0,2024-03-01,2024-03-01,Ｓｕｍｍｅｒ株式会社,,株式会社,京都府,京都市伏見区,深草平田町１８番地５３,,26,109,6120019,,,,,,,2024-03-01,1,,,,,サマー,0
123,1130003009330,新規,0,2024-03-01,2024-03-01,合同会社ホームラン,,合同会社,京都府,京都市下京区,西八百屋町１３８,,26,106,6008269,,,,,,,2024-03-01,1,,,,,ホームラン,0
124,1130003009339,新規,0,2024-03-01,2024-03-01,合同会社ホーリーウィン,,合同会社,京都府,京都市西京区,桂浅原町１１９番地パラーティ浅原３０２号,,26,111,6158021,,,,,,,2024-03-01,1,,,,,ホーリーウィン,0
130,1160001025715,新規,0,2024-03-01,2024-03-01,はせべ不動産株式会社,,株式会社,滋賀県,長浜市,朝日町２４番３２号,,25,203,5260056,,,,,,,2024-03-01,1,,,,,ハセベフドウサン,0
132,1170005007072,新規,0,2024-03-01,2024-03-01,一般社団法人ミュージアムＥＳＤコミュニティ,,その他の設立登記法人,和歌山県,岩出市,西安上３１１番地の８,,30,209,6496255,,,,,,,2024-03-01,1,,,,,ミュージアムイーエスディコミュニティ,0
137,1180001160337,新規,0,2024-03-01,2024-03-01,敬和株式会社,,株式会社,愛知県,一宮市,真清田１丁目１－１９,,23,203,4910043,,,,,,,2024-03-01,1,,,,,ケイワ,0
138,1180003026437,新規,0,2024-03-01,2024-03-01,合同会社Ｆｌｏｕｌｉｓｈ,,合同会社,愛知県,春日井市,鳥居松町７丁目２０番地１,,23,206,4860844,,,,,,,2024-03-01,1,,,,,フロウリッシュ,0
142,1190001031140,新規,0,2024-03-01,2024-03-01,株式会社ＮＩＫＫＯ　ＧＬＯＢＡＬ,,株式会社,三重県,四日市市,大治田３丁目５番５５‐４号,,24,202,5100875,,,,,,,2024-03-01,1,,,,,ニッコーグローバル,0
151,1220001025840,新規,0,2024-03-01,2024-03-01,５０１株式会社,,株式会社,石川県,金沢市,問屋町２丁目８６番地,,17,201,9200061,,,,,,,2024-03-01,1,,,,,ゴーマルイチ,0
163,1260001038789,新規,0,2024-03-01,2024-03-01,株式会社ふぉとん,,株式会社,岡山県,倉敷市,南畝５丁目３番３６号,,33,202,7128055,,,,,,,2024-03-01,1,,,,,フォトン,0
168,1290001104885,新規,0,2024-03-01,2024-03-01,ボンフカヤ株式会社,,株式会社,福岡県,福岡市中央区,赤坂１丁目１０番２２号ベスト赤坂門ビル５Ｆ,,40,133,8100042,,,,,,,2024-03-01,1,,,,,ボンフカヤ,0
179,1330001031803,新規,0,2024-03-01,2024-03-01,株式会社さくらい教材,,株式会社,熊本県,山鹿市,菊鹿町松尾９６番地,,43,208,8610424,,,,,,,2024-03-01,1,,,,,サクライキョウザイ,0
184,1350003004581,新規,0,2024-03-01,2024-03-01,合同会社与一,,合同会社,宮崎県,宮崎市,月見ケ丘１丁目２７番地２４号,,45,201,8800926,,,,,,,2024-03-01,1,,,,,ヨイチ,0
191,1360001033268,新規,0,2024-03-01,2024-03-01,株式会社Ｏｋｉａｓ,,株式会社,沖縄県,那覇市,牧志２丁目１７－２７－４０１,,47,201,9000013,,,,,,,2024-03-01,1,,,,,オキアス,0
197,1410001013743,新規,0,2024-03-01,2024-03-01,株式会社ＲＩＮＫ,,株式会社,秋田県,横手市,大屋新町字大平５８３番地１,,05,203,0130051,,,,,,,2024-03-01,1,,,,,リンク,0
204,1430001091127,新規,0,2024-03-01,2024-03-01,株式会社ジー・ワイズ,,株式会社,北海道,札幌市白石区,北郷２４０４番地２４,,01,104,0030849,,,,,,,2024-03-01,1,,,,,ジーワイズ,0
210,1480005007009,新規,0,2024-03-01,2024-03-01,ＮＰＯ法人ＰＡＲＫＥＴ,,その他の設立登記法人,徳島県,徳島市,南内町１丁目６９番地１,,36,201,7700846,,,,,,,2024-03-01,1,,,,,パーケット,0
212,1500001025481,新規,0,2024-03-01,2024-03-01,株式会社ＰＩＴＹＵ,,株式会社,愛媛県,今治市,枝堀町３丁目１番３８号,,38,202,7940035,,,,,,,2024-03-01,1,,,,,ピットユー,0
213,1500005008680,新規,0,2024-03-01,2024-03-01,一般社団法人ＳＡＳＡＥＲＵ,,その他の設立登記法人,愛媛県,伊予市,米湊３２３番地１,,38,210,7993113,,,,,,,2024-03-01,1,,,,,ササエル,0
224,2010401180652,新規,0,2024-03-01,2024-03-01,ダ・ヴィンチグループ株式会社,,株式会社,東京都,港区,浜松町１丁目３番２－３６０３号,,13,103,1050013,,,,,,,2024-03-01,1,,,,,ダヴィンチグループ,0
241,2010901054785,新規,0,2024-03-01,2024-03-01,株式会社Ｉｄｅａｓｔｅｌｌａｓ,,株式会社,東京都,世田谷区,鎌田２丁目２４番１７号ネイチャータウン１－５,,13,112,1570077,,,,,,,2024-03-01,1,,,,,イデアステラス,0
246,2011001160342,新規,0,2024-03-01,2024-03-01,株式会社ＫＡＮＡＳＡ,,株式会社,東京都,渋谷区,初台２丁目２２番１４号,,13,113,1510061,,,,,,,2024-03-01,1,,,,,カナサ,0
249,2011003018605,新規,0,2024-03-01,2024-03-01,合同会社スルー,,合同会社,東京都,渋谷区,渋谷２丁目１９－１５宮益坂ビルディング６０９,,13,113,1500002,,,,,,,2024-03-01,1,,,,,スルー,0
251,2011101106360,新規,0,2024-03-01,2024-03-01,株式会社雨下空,,株式会社,東京都,新宿区,新宿１丁目１５－１１今給黎ビル２階,,13,104,1600022,,,,,,,2024-03-01,1,,,,,ウカソラ,0
252,2011101106385,新規,0,2024-03-01,2024-03-01,株式会社ワイズマネジメント,,株式会社,東京都,新宿区,西新宿５丁目７－１,,13,104,1600023,,,,,,,2024-03-01,1,,,,,ワイズマネジメント,0
257,2011501030375,新規,0,2024-03-01,2024-03-01,株式会社ＥＤ商事,,株式会社,東京都,北区,栄町３８番１０号,,13,117,1140005,,,,,,,2024-03-01,1,,,,,イーディーショウジ,0
258,2011601027577,新規,0,2024-03-01,2024-03-01,株式会社ソシオ大宮,,株式会社,東京都,練馬区,石神井台８丁目１０番５号,,13,120,1770045,,,,,,,2024-03-01,1,,,,,ソシオオオミヤ,0
262,2011801043829,新規,0,2024-03-01,2024-03-01,日系國際株式会社,,株式会社,東京都,足立区,中央本町３丁目１２－１－１２０２,,13,121,1210011,,,,,,,2024-03-01,1,,,,,ニッケイコクサイ,0
263,2011801043837,新規,0,2024-03-01,2024-03-01,株式会社Ｍｅｌｔｙ　Ｍｅｌｔ,,株式会社,東京都,足立区,東和４丁目２４番１０－５０３号,,13,121,1200003,,,,,,,2024-03-01,1,,,,,メルティーメルト,0
264,2012301013801,新規,0,2024-03-01,2024-03-01,ＵＴＡ商事株式会社,,株式会社,東京都,町田市,小山町７７２番地４,,13,209,1940212,,,,,,,2024-03-01,1,,,,,ユーティーエーショウジ,0
265,2012303001944,新規,0,2024-03-01,2024-03-01,合同会社豊珠世,,合同会社,東京都,町田市,玉川学園７丁目１１番２号,,13,209,1940041,,,,,,,2024-03-01,1,,,,,ホウジュヨ,0
266,2012305002081,新規,0,2024-03-01,2024-03-01,一般社団法人ユニプラ,,その他の設立登記法人,東京都,町田市,高ヶ坂３丁目１３番１３号,,13,209,1940014,,,,,,,2024-03-01,1,,,,,ユニプラ,0
269,2012801022995,新規,0,2024-03-01,2024-03-01,株式会社アシストＷＩＮＧ,,株式会社,東京都,昭島市,宮沢町３丁目３番９号,,13,207,1960024,,,,,,,2024-03-01,1,,,,,アシストウィング,0
271,2013301052145,新規,0,2024-03-01,2024-03-01,株式会社ＬＵＣＫＹ　ＳＴＡＲ,,株式会社,東京都,豊島区,駒込１丁目４２番４号,,13,116,1700003,,,,,,,2024-03-01,1,,,,,ラッキースター,0
276,2020001156003,新規,0,2024-03-01,2024-03-01,ＴＩＰＳ横浜株式会社,,株式会社,神奈川県,横浜市神奈川区,松見町２丁目４３９番地４,,14,102,2210005,,,,,,,2024-03-01,1,,,,,ティップスヨコハマ,0
277,2020001156028,新規,0,2024-03-01,2024-03-01,株式会社インパクト,,株式会社,神奈川県,横浜市中区,常盤町５丁目５７番竹内ビル５階,,14,104,2310014,,,,,,,2024-03-01,1,,,,,インパクト,0
286,2021001081587,新規,0,2024-03-01,2024-03-01,株式会社ＮＳＣ,,株式会社,神奈川県,茅ヶ崎市,浜竹４丁目７番１アーバンビュー湘南辻堂サウスヴィラ３０４号,,14,207,2530021,,,,,,,2024-03-01,1,,,,,エヌエスシー,0
287,2021001081604,新規,0,2024-03-01,2024-03-01,株式会社ハングアウト,,株式会社,神奈川県,藤沢市,鵠沼桜が岡３丁目１２番１号ココ・ガーデン鵠沼１０６,00133916,14,205,2510027,,,,,,,2024-03-01,1,,,,,ハングアウト,0
292,2030001158964,新規,0,2024-03-01,2024-03-01,株式会社Ｐｉｎｅ,,株式会社,埼玉県,さいたま市見沼区,大字蓮沼１８０１,,11,104,3370015,,,,,,,2024-03-01,1,,,,,パイン,0
298,2030003023720,新規,0,2024-03-01,2024-03-01,Ｐｈａｎｔａｓｉａ合同会社,,合同会社,埼玉県,秩父市,荒川上田野２１０８番地,,11,207,3691802,,,,,,,2024-03-01,1,,,,,ファンタジア,0
303,2040001132464,新規,0,2024-03-01,2024-03-01,慶株式会社,,株式会社,千葉県,松戸市,松戸１４３４－２リバーシティ松戸３０７号室,,12,207,2710092,,,,,,,2024-03-01,1,,,,,ケイ,0
309,2040003024437,新規,0,2024-03-01,2024-03-01,クレスト合同会社,,合同会社,千葉県,匝瑳市,栢田８３２６番地,,12,235,2893184,,,,,,,2024-03-01,1,,,,,クレスト,0
310,2040005022298,新規,0,2024-03-01,2024-03-01,一般社団法人幸生,,その他の設立登記法人,千葉県,柏市,花野井３２１番地４,,12,217,2770812,,,,,,,2024-03-01,1,,,,,コウセイ,0
316,2060003004940,新規,0,2024-03-01,2024-03-01,Ｚａｉｎｕｂ　Ｔｒａｄｉｎｇ合同会社,,合同会社,栃木県,佐野市,並木町５３６番地,,09,204,3270002,,,,,,,2024-03-01,1,,,,,ザイヌブトレーディング,0
320,2080001026150,新規,0,2024-03-01,2024-03-01,株式会社Ｍｉｚｕｋａｍｉ,,株式会社,静岡県,静岡市清水区,横砂東町３２番２号,,22,103,4240032,,,,,,,2024-03-01,1,,,,,ミズカミ,0
344,2120001262740,新規,0,2024-03-01,2024-03-01,ＬＳＩ株式会社,,株式会社,大阪府,大阪市浪速区,恵美須西１丁目３番３号恵美須ビル７階,,27,111,5560003,,,,,,,2024-03-01,1,,,,,エルエスアイ,0
349,2120003026053,新規,0,2024-03-01,2024-03-01,合同会社ＰＯＮＴＥ,,合同会社,大阪府,大阪市福島区,野田５丁目１１番１７号,,27,103,5530005,,,,,,,2024-03-01,1,,,,,ポンテ,0
358,2122001037866,新規,0,2024-03-01,2024-03-01,株式会社ＣＯＬＬＩＥ,,株式会社,大阪府,東大阪市,柏田東町１番８号コーポＫ２０１号室,,27,227,5770833,,,,,,,2024-03-01,1,,,,,コリー,0
360,2130001076479,新規,0,2024-03-01,2024-03-01,株式会社６８,,株式会社,京都府,京都市東山区,今小路町８６－１－３０１,,26,105,6050023,,,,,,,2024-03-01,1,,,,,ロクジュウハチ,0
373,2160003003123,新規,0,2024-03-01,2024-03-01,合同会社よりみち,,合同会社,滋賀県,愛知郡愛荘町,長野１０９８番地２０,,25,425,5291303,,,,,,,2024-03-01,1,,,,,ヨリミチ,0
377,2180001160352,新規,0,2024-03-01,2024-03-01,アッドライブ株式会社,,株式会社,愛知県,名古屋市港区,魁町２丁目１６番地１,,23,111,4550043,,,,,,,2024-03-01,1,,,,,アッドライブ,0
378,2180001160369,新規,0,2024-03-01,2024-03-01,スターケータリング株式会社,,株式会社,愛知県,名古屋市東区,出来町３丁目９番１０号,,23,102,4610032,,,,,,,2024-03-01,1,,,,,スターケータリング,0
382,2190003004597,新規,0,2024-03-01,2024-03-01,合同会社Ｄｉａｍｏｎｄ,,合同会社,三重県,四日市市,西浦１丁目７番３号ＧＲＡＮＶＩＡニシウラ２階,,24,202,5100071,,,,,,,2024-03-01,1,,,,,ダイヤモンド,0
395,2230003002159,新規,0,2024-03-01,2024-03-01,合同会社土巳宏,,合同会社,富山県,富山市,本郷町１２３番地２アネシス・ルナＢ２０２号,,16,201,9398045,,,,,,,2024-03-01,1,,,,,トミヒロ,0
398,2250001020532,新規,0,2024-03-01,2024-03-01,株式会社ＡＯソリューション,,株式会社,山口県,周南市,若草町３番２４号,,35,215,7450841,,,,,,,2024-03-01,1,,,,,エーオーソリューション,0
403,2260005011320,新規,0,2024-03-01,2024-03-01,一般社団法人にじ,,その他の設立登記法人,岡山県,岡山市北区,駅前町２丁目３番１２号カーサ・スタチオーネ２０３,,33,101,7000023,,,,,,,2024-03-01,1,,,,,ニジ,0
408,2290001104760,新規,0,2024-03-01,2024-03-01,大木バイオクリエーションズ株式会社,,株式会社,福岡県,三潴郡大木町,大字三八松４５６番地,,40,522,8300424,,,,,,,2024-03-01,1,,,,,オオキバイオクリエーションズ,0
409,2290001104884,新規,0,2024-03-01,2024-03-01,ＴＨＥ　ＳＴＡＮＤＡＲＤ　ＧＲＯＵＰ株式会社,,株式会社,福岡県,福岡市中央区,赤坂１丁目１０番２２号ベスト赤坂門ビル５Ｆ,,40,133,8100042,,,,,,,2024-03-01,1,,,,,ザスタンダードグループ,0
412,2290003015015,新規,0,2024-03-01,2024-03-01,合同会社サポーティア,,合同会社,福岡県,宗像市,葉山２丁目１５７５番地２７フェリーチェ桜壱番館Ａ号,,40,220,8114171,,,,,,,2024-03-01,1,,,,,サポーティア,0
418,2320001020319,新規,0,2024-03-01,2024-03-01,ＴＡＫＡ株式会社,,株式会社,大分県,大分市,下郡中央３丁目１０番１３号,,44,201,8700954,,,,,,,2024-03-01,1,,,,,タカ,0
419,2330001031793,新規,0,2024-03-01,2024-03-01,ＭＳフロンティア株式会社,,株式会社,熊本県,熊本市中央区,白山１丁目３－２,,43,101,8620959,,,,,,,2024-03-01,1,,,,,エムエスフロンティア,0
421,2350001018814,新規,0,2024-03-01,2024-03-01,株式会社リンクスル,,株式会社,宮崎県,宮崎市,大字島之内９４３６番地５,,45,201,8800121,,,,,,,2024-03-01,1,,,,,リンクスル,0
423,2360001033275,新規,0,2024-03-01,2024-03-01,ヴィオリアス日本株式会社,,株式会社,沖縄県,国頭郡恩納村,字谷茶１９１９番地１ＯＩＳＴイノベーション・インキュベータ,,47,311,9040412,,,,,,,2024-03-01,1,,,,,ヴィオリアスニホン,0
437,2430001091191,新規,0,2024-03-01,2024-03-01,グランドデザインファーム株式会社,,株式会社,北海道,札幌市西区,発寒十三条４丁目１３番２９号,,01,107,0630833,,,,,,,2024-03-01,1,,,,,グランドデザインファーム,0
440,2440001009390,新規,0,2024-03-01,2024-03-01,ワイズホースパートナー株式会社,,株式会社,北海道,函館市,山の手１丁目４番１１号,,01,202,0410836,,,,,,,2024-03-01,1,,,,,ワイズホースパートナー,0
447,2500003003195,新規,0,2024-03-01,2024-03-01,合同会社２８クリエイト,,合同会社,愛媛県,松山市,西長戸町１５１－１ブルージュＢ２０３号,,38,201,7918017,,,,,,,2024-03-01,1,,,,,ニーハチクリエイト,0
450,2700150124253,新規,0,2024-03-01,2024-03-01,野々市市長池土地区画整理組合,,その他,石川県,野々市市,長池２９番地,,17,212,9218808,,,,,,,2024-03-01,1,,,,,ノノイチシナガイケトチクカクセイリクミアイ,0
457,3010001242703,新規,0,2024-03-01,2024-03-01,株式会社Ｌｅｇａｃｙ　Ｌｏｏｐ,,株式会社,東京都,千代田区,九段南４丁目３番４号Ｐｏｌａｒ九段２階,,13,101,1020074,,,,,,,2024-03-01,1,,,,,レガシーループ,0
459,3010003043109,新規,0,2024-03-01,2024-03-01,クラウドマネジメント合同会社,,合同会社,東京都,中央区,日本橋室町１丁目１１番１２号日本橋水野ビル７階,,13,102,1030022,,,,,,,2024-03-01,1,,,,,クラウドマネジメント,0
469,3010401180742,新規,0,2024-03-01,2024-03-01,株式会社まるちゃんまる,,株式会社,東京都,港区,赤坂３丁目１１番１４号赤坂ベルコ５０２,,13,103,1070052,,,,,,,2024-03-01,1,,,,,マルチャンマル,0
472,3010403032041,新規,0,2024-03-01,2024-03-01,赤坂Ｏｎｅ合同会社,,合同会社,東京都,港区,六本木７丁目７番７号トライセブンロッポンギ８階,,13,103,1060032,,,,,,,2024-03-01,1,,,,,アカサカワン,0
487,3011003018604,新規,0,2024-03-01,2024-03-01,合同会社Ｊ＆Ｍクリエイト,,合同会社,東京都,渋谷区,恵比寿西２丁目４番８号ウィンド恵比寿ビル８Ｆ,,13,113,1500021,,,,,,,2024-03-01,1,,,,,ジェイアンドエムクリエイト,0
490,3011101106384,新規,0,2024-03-01,2024-03-01,株式会社ＫＢＤ,,株式会社,東京都,新宿区,西新宿７丁目１８番１０号,,13,104,1600023,,,,,,,2024-03-01,1,,,,,ケイビーディー,0
491,3011101106392,新規,0,2024-03-01,2024-03-01,株式会社Ｎｏｓｅ　ｔｏ　Ｔａｉｌ,,株式会社,東京都,新宿区,神楽坂３丁目２－６神楽坂越後屋ビル３階,,13,104,1620825,,,,,,,2024-03-01,1,,,,,ノーズトゥテール,0
492,3011101106401,新規,0,2024-03-01,2024-03-01,株式会社Ｌｏｔｕｓ　ＡＩ,,株式会社,東京都,新宿区,新宿５丁目３番２２－１３０１号,,13,104,1600022,,,,,,,2024-03-01,1,,,,,ロータスエーアイ,0
494,3011103014164,新規,0,2024-03-01,2024-03-01,刀千舎合同会社,,合同会社,東京都,新宿区,西新宿４丁目３２－１１－２０７,,13,104,1600023,,,,,,,2024-03-01,1,,,,,トウセンシャ,0
499,3011401025895,新規,0,2024-03-01,2024-03-01,サンテクノ株式会社,,株式会社,東京都,板橋区,板橋１丁目２５－１クレールＯ２．１０１,,13,119,1730004,,,,,,,2024-03-01,1,,,,,サンテクノ,0
504,3012301013800,新規,0,2024-03-01,2024-03-01,株式会社きずなグループ空,,株式会社,東京都,町田市,木曽西３丁目８－４らくりーぶ２１忠生１０４,,13,209,1940037,,,,,,,2024-03-01,1,,,,,キズナグループソラ,0
506,3013301052152,新規,0,2024-03-01,2024-03-01,株式会社ｓｉｇｇａｚｅ,,株式会社,東京都,豊島区,雑司が谷３丁目３番２５号,,13,116,1710032,,,,,,,2024-03-01,1,,,,,サイゲイズ,0
508,3013303007022,新規,0,2024-03-01,2024-03-01,エースジュニア合同会社,,合同会社,東京都,豊島区,南長崎３丁目８－１４,,13,116,1710052,,,,,,,2024-03-01,1,,,,,エースジュニア,0
512,3020001155994,新規,0,2024-03-01,2024-03-01,株式会社ＥＮＴＥＲ,,株式会社,神奈川県,川崎市高津区,末長４丁目４番１６号ヴァンヴェール玉川２０３,,14,134,2130013,,,,,,,2024-03-01,1,,,,,エンター,0
513,3020001156027,新規,0,2024-03-01,2024-03-01,Ｉｄｅａｌ　Ｋａ株式会社,,株式会社,神奈川県,横浜市南区,井土ケ谷上町２０－１２－４０２,,14,105,2320051,,,,,,,2024-03-01,1,,,,,イデアルケイエイ,0
514,3020001156043,新規,0,2024-03-01,2024-03-01,株式会社畠山空調設備,,株式会社,神奈川県,川崎市宮前区,初山２丁目２２番１７号向ヶ丘矢澤荘２Ｆ,,14,136,2160026,,,,,,,2024-03-01,1,,,,,ハタケヤマクウチョウセツビ,0
516,3020003025634,新規,0,2024-03-01,2024-03-01,合同会社ぶんた,,合同会社,神奈川県,川崎市中原区,木月伊勢町９番３５号ＭＨ１０１,,14,133,2110032,,,,,,,2024-03-01,1,,,,,ブンタ,0
524,3021001081578,新規,0,2024-03-01,2024-03-01,望月電気株式会社,,株式会社,神奈川県,厚木市,山際１４６番地３,,14,212,2430803,,,,,,,2024-03-01,1,,,,,モチヅキデンキ,0
525,3021001081586,新規,0,2024-03-01,2024-03-01,株式会社Ｍ’ｓ　Ｆａｃｔｏｒｙ,,株式会社,神奈川県,相模原市緑区,根小屋２４９１番地６,,14,151,2520153,,,,,,,2024-03-01,1,,,,,エムズファクトリー,0
527,3021003014206,新規,0,2024-03-01,2024-03-01,金井コンサルティング合同会社,,合同会社,神奈川県,鎌倉市,雪ノ下３丁目９番６号,,14,204,2480005,,,,,,,2024-03-01,1,,,,,カナイコンサルティング,0
536,3030001158963,新規,0,2024-03-01,2024-03-01,宮原化成株式会社,,株式会社,埼玉県,さいたま市北区,宮原町３丁目５８４－３宮原ステーションプラザ３０９,,11,102,3310812,,,,,,,2024-03-01,1,,,,,ミヤハラカセイ,0
546,3030003023736,新規,0,2024-03-01,2024-03-01,合同会社土田塗装,,合同会社,埼玉県,八潮市,大字古新田１０８２－１,,11,234,3400823,,,,,,,2024-03-01,1,,,,,ツチダトソウ,0
550,3040001132455,新規,0,2024-03-01,2024-03-01,大連紅島日本株式会社,,株式会社,千葉県,柏市,今谷南町５番１０号,,12,217,2770073,,,,,,,2024-03-01,1,,,,,ダイレンベニシマニホン,0
555,3040003024452,新規,0,2024-03-01,2024-03-01,合同会社スポーツキング,,合同会社,千葉県,柏市,高南台１丁目１５番地８８,,12,217,2770942,,,,,,,2024-03-01,1,,,,,スポーツキング,0
558,3050001054368,新規,0,2024-03-01,2024-03-01,株式会社ダイガ,,株式会社,茨城県,常陸大宮市,富岡２０８１番地,,08,225,3192204,,,,,,,2024-03-01,1,,,,,ダイガ,0
559,3050003008165,新規,0,2024-03-01,2024-03-01,ＷＰＰコンサルティング合同会社,,合同会社,茨城県,つくば市,上原３９９番地１,,08,220,3050055,,,,,,,2024-03-01,1,,,,,ダブリューピーピーコンサルティング,0
562,3080003003139,新規,0,2024-03-01,2024-03-01,合同会社スタジオエム,,合同会社,静岡県,静岡市駿河区,西島１５７番地の１,,22,102,4228045,,,,,,,2024-03-01,1,,,,,スタジオエム,0
564,3100005013125,新規,0,2024-03-01,2024-03-01,医療法人小泉クリニック,,その他の設立登記法人,長野県,上田市,小泉字古仁反田７７５番地７,,20,203,3861106,,,,,,,2024-03-01,1,,,,,コイズミクリニック,0
579,3120001262582,新規,0,2024-03-01,2024-03-01,株式会社Ｌｙｒａ,,株式会社,大阪府,交野市,星田４丁目３６番１０－３０２号,,27,230,5760016,,,,,,,2024-03-01,1,,,,,リラ,0
580,3120001262632,新規,0,2024-03-01,2024-03-01,株式会社スラング,,株式会社,大阪府,大阪市中央区,本町橋６－１９本町第２今岡ビル６０３号,,27,128,5400029,,,,,,,2024-03-01,1,,,,,スラング,0
581,3120001262698,新規,0,2024-03-01,2024-03-01,株式会社遠易,,株式会社,大阪府,大阪市浪速区,恵美須西３丁目１０番６－５０２号,,27,111,5560003,,,,,,,2024-03-01,1,,,,,エンイ,0
582,3120001262731,新規,0,2024-03-01,2024-03-01,ｉＧＰＳＰＯＲＴ株式会社,,株式会社,大阪府,大阪市平野区,平野東１丁目７番２５号セントパークス平野公園８０６号,,27,126,5470043,,,,,,,2024-03-01,1,,,,,アイジーピースポート,0
583,3120001262764,新規,0,2024-03-01,2024-03-01,Ｋ’ｓランディングインターナショナル株式会社,,株式会社,大阪府,大阪市東淀川区,東淡路１丁目５番５１号ショッピングタウンエバーレオーフェス会館Ｂ－１,,27,114,5330023,,,,,,,2024-03-01,1,,,,,ケーズランディングインターナショナル,0
585,3120003026036,新規,0,2024-03-01,2024-03-01,合同会社ＫＪＦ,,合同会社,大阪府,大阪市浪速区,湊町１丁目２番１７号ローレルタワー難波３０３号,,27,111,5560017,,,,,,,2024-03-01,1,,,,,ケイジェイエフ,0
590,3120103005699,新規,0,2024-03-01,2024-03-01,合同会社若林建設,,合同会社,大阪府,岸和田市,吉井町３丁目２８番１４－８０４号,,27,202,5960002,,,,,,,2024-03-01,1,,,,,ワカバヤシケンセツ,0
596,3130003009337,新規,0,2024-03-01,2024-03-01,ＬＩＦＥ　ＴＲＥＫ　ＪＡＰＡＮ合同会社,,合同会社,京都府,京都市下京区,大黒町２２７番地第２キョートビル４０２,,26,106,6008043,,,,,,,2024-03-01,1,,,,,ライフトレックジャパン,0
601,3140001133344,新規,0,2024-03-01,2024-03-01,株式会社Ｆｌｙｉｎｇ　ｄｉｓｔａｎｃｅ,,株式会社,兵庫県,神戸市中央区,浜辺通３丁目１－３ベルレコルテ浜辺２０３,,28,110,6510083,,,,,,,2024-03-01,1,,,,,フライングディスタンス,0
605,3160001025721,新規,0,2024-03-01,2024-03-01,株式会社ＡＲ,,株式会社,滋賀県,高島市,新旭町新庄４５９番地２,,25,212,5201522,,,,,,,2024-03-01,1,,,,,エーアール,0
606,3160005011271,新規,0,2024-03-01,2024-03-01,ＮＰＯ法人にじまち,,その他の設立登記法人,滋賀県,長浜市,八幡東町２１３番地東英ハイツ参番館１０７号室,,25,203,5260031,,,,,,,2024-03-01,1,,,,,,0
613,3180001160343,新規,0,2024-03-01,2024-03-01,株式会社ＡＬＬＹ　ＮＥＴＷＯＲＫＳ,,株式会社,愛知県,名古屋市中村区,森末町４丁目１４６,,23,105,4530052,,,,,,,2024-03-01,1,,,,,アライネットワークス,0
614,3180301038363,新規,0,2024-03-01,2024-03-01,株式会社ＡＳＩ,,株式会社,愛知県,岡崎市,庄司田２丁目９番地２７,,23,202,4440821,,,,,,,2024-03-01,1,,,,,エーエスアイ,0
627,3230001020228,新規,0,2024-03-01,2024-03-01,株式会社日結,,株式会社,富山県,高岡市,あわら町２番２１号,,16,202,9330911,,,,,,,2024-03-01,1,,,,,ヒユイ,0
628,3230003002158,新規,0,2024-03-01,2024-03-01,合同会社ｄｅｎｆｏｒ,,合同会社,富山県,富山市,太田口通り２丁目２－１６,,16,201,9300063,,,,,,,2024-03-01,1,,,,,デンフォー,0
630,3230005009366,新規,0,2024-03-01,2024-03-01,一般社団法人はやぶさ,,その他の設立登記法人,富山県,射水市,小島３７５８マンションオオシマ４０１号,,16,211,9390274,,,,,,,2024-03-01,1,,,,,ハヤブサ,0
636,3240003006562,新規,0,2024-03-01,2024-03-01,合同会社リッチベル,,合同会社,広島県,広島市西区,鈴が峰町３５番２４－１０３号,,34,104,7330852,,,,,,,2024-03-01,1,,,,,リッチベル,0
637,3250003003443,新規,0,2024-03-01,2024-03-01,合同会社ＯＧＡＫＥＮ,,合同会社,山口県,山口市,矢原９３９－２カサヌーボＡ２０２,,35,203,7530861,,,,,,,2024-03-01,1,,,,,オガケン,0
641,3260003004597,新規,0,2024-03-01,2024-03-01,合同会社ＲｅｖｅｌＡｉ,,合同会社,岡山県,倉敷市,中帯江１７番地の１,,33,202,7100013,,,,,,,2024-03-01,1,,,,,レベルアイ,0
647,3290001104875,新規,0,2024-03-01,2024-03-01,株式会社ＷＲＣ,,株式会社,福岡県,福岡市東区,舞松原１丁目１５番９号,,40,131,8130042,,,,,,,2024-03-01,1,,,,,ダブリューアールシー,0
648,3290001104891,新規,0,2024-03-01,2024-03-01,株式会社ＨＩＲＯ,,株式会社,福岡県,那珂川市,西隈４丁目３番３号,,40,231,8111242,,,,,,,2024-03-01,1,,,,,ヒロ,0
649,3300001013629,新規,0,2024-03-01,2024-03-01,株式会社佐賀新聞エージェンシー,,株式会社,佐賀県,佐賀市,天神３丁目２番２３号,,41,201,8400815,,,,,,,2024-03-01,1,,,,,サガシンブンエージェンシー,0
653,3330001031801,新規,0,2024-03-01,2024-03-01,株式会社ＢＯＮＤＳ,,株式会社,熊本県,熊本市西区,春日７丁目１７番１６－３０２号ヴィレッジハウス春日２,,43,103,8600047,,,,,,,2024-03-01,1,,,,,ボンズ,0
654,3340001026321,新規,0,2024-03-01,2024-03-01,株式会社ＥＮＩＣＩＡＴＥ,,株式会社,鹿児島県,鹿屋市,旭原町３６７７番地２３,,46,203,8930022,,,,,,,2024-03-01,1,,,,,エニシエイト,0
660,3360001033274,新規,0,2024-03-01,2024-03-01,株式会社ＳＹＬＣＡＳＴ,,株式会社,沖縄県,国頭郡恩納村,字谷茶１９１９番地１ＯＩＳＴイノベーション・インキュベータ,,47,311,9040412,,,,,,,2024-03-01,1,,,,,シルキャスト,0
661,3360001033282,新規,0,2024-03-01,2024-03-01,株式会社上,,株式会社,沖縄県,那覇市,久茂地１丁目１番１号パレットくもじ９階,,47,201,9000015,,,,,,,2024-03-01,1,,,,,ウエ,0
662,3370001050987,新規,0,2024-03-01,2024-03-01,株式会社ミナコイ屋,,株式会社,宮城県,仙台市若林区,南小泉３丁目９番２３号アルファネクスト南小泉１０５号,,04,103,9840827,,,,,,,2024-03-01,1,,,,,ミナコイヤ,0
665,3380003005699,新規,0,2024-03-01,2024-03-01,合同会社ここから,,合同会社,福島県,福島市,笹谷字上成出５番地,,07,201,9600241,,,,,,,2024-03-01,1,,,,,ココカラ,0
680,3500001025488,新規,0,2024-03-01,2024-03-01,いなだ庭園株式会社,,株式会社,愛媛県,松山市,古三津５丁目４番１０号,,38,201,7918067,,,,,,,2024-03-01,1,,,,,イナダテイエン,0
685,4010001242719,新規,0,2024-03-01,2024-03-01,ランウェイ株式会社,,株式会社,東京都,中央区,月島１丁目８番１－１３０２号,,13,102,1040052,,,,,,,2024-03-01,1,,,,,ランウェイ,0
686,4010001242727,新規,0,2024-03-01,2024-03-01,株式会社エーピーフォース,,株式会社,東京都,千代田区,神田佐久間町２丁目１８番地１秋葉原ＳＴＮフロント１０階,,13,101,1010025,,,,,,,2024-03-01,1,,,,,エーピーフォース,0
687,4010001242735,新規,0,2024-03-01,2024-03-01,株式会社Ｕｎｃｉｒｃｌｅ,,株式会社,東京都,中央区,日本橋浜町２丁目２２番５－８０４号,,13,102,1030007,,,,,,,2024-03-01,1,,,,,アンサークル,0
690,4010003043099,新規,0,2024-03-01,2024-03-01,合同会社ＰＦスピカ,,合同会社,東京都,千代田区,平河町１丁目６番１５号シルスフィア会計事務所内,,13,101,1020093,,,,,,,2024-03-01,1,,,,,ピーエフスピカ,0
698,4010403032049,新規,0,2024-03-01,2024-03-01,ＺＥＣ６合同会社,,合同会社,東京都,港区,芝公園１丁目２番９号花井ビルディング５階,,13,103,1050011,,,,,,,2024-03-01,1,,,,,ゼックロク,0
702,4010405022997,新規,0,2024-03-01,2024-03-01,一般財団法人Ｔｈｏｒｏｕｇｈｂｒｅｄ　Ａｆｔｅｒｃａｒｅ　ａｎｄ　Ｗｅｌｆａｒｅ,,その他の設立登記法人,東京都,港区,西新橋１丁目１９番４号,,13,103,1050003,,,,,,,2024-03-01,1,,,,,サラブレッドアフターケアアンドウェルフェア,0
703,4010501051818,新規,0,2024-03-01,2024-03-01,日科株式会社,,株式会社,東京都,台東区,東上野３丁目１８番１号ＴＨＥＢＬＯＯＭＵＥＮＯ２０５室,,13,106,1100015,,,,,,,2024-03-01,1,,,,,ニッカ,0
721,4010903008861,新規,0,2024-03-01,2024-03-01,合同会社ＦｉｌｏｍｅｎａＡ．Ｃ．,,合同会社,東京都,世田谷区,梅丘２丁目２６番２号,,13,112,1540022,,,,,,,2024-03-01,1,,,,,フィロメーナエーシー,0
725,4011001160266,新規,0,2024-03-01,2024-03-01,スペキュリード株式会社,,株式会社,東京都,渋谷区,渋谷２丁目１９－１５宮益坂ビルディング６０９,,13,113,1500002,,,,,,,2024-03-01,1,,,,,スペキュリード,0
726,4011001160357,新規,0,2024-03-01,2024-03-01,株式会社９,,株式会社,東京都,渋谷区,代々木１丁目２５番５,,13,113,1510053,,,,,,,2024-03-01,1,,,,,ナイン,0
729,4011101106334,新規,0,2024-03-01,2024-03-01,株式会社アンドＪ,,株式会社,東京都,新宿区,歌舞伎町２丁目４５－１７－３Ｆ,,13,104,1600021,,,,,,,2024-03-01,1,,,,,アンドジェイ,0
730,4011101106400,新規,0,2024-03-01,2024-03-01,株式会社つくし,,株式会社,東京都,新宿区,早稲田町７６―１,,13,104,1620042,,,,,,,2024-03-01,1,,,,,ツクシ,0
733,4011301029450,新規,0,2024-03-01,2024-03-01,株式会社Ｄ‐ｓｉｄｅｓ．,,株式会社,東京都,杉並区,高井戸東３丁目２９－１５,,13,115,1680072,,,,,,,2024-03-01,1,,,,,ディーサイズ,0
739,4012301013799,新規,0,2024-03-01,2024-03-01,株式会社エイブリー,,株式会社,東京都,町田市,山崎町１１４４番地６５,,13,209,1950074,,,,,,,2024-03-01,1,,,,,エイブリー,0
745,4020001155993,新規,0,2024-03-01,2024-03-01,大栄工業株式会社,,株式会社,神奈川県,横浜市港南区,日野３丁目１０番１－２０９号,,14,111,2340051,,,,,,,2024-03-01,1,,,,,ダイエイコウギョウ,0
746,4020001156026,新規,0,2024-03-01,2024-03-01,Ｏ・Ｋジャパン株式会社,,株式会社,神奈川県,横浜市瀬谷区,三ツ境１１３番地８ブルーベリーハウス３０２,,14,114,2460022,,,,,,,2024-03-01,1,,,,,オーケージャパン,0
747,4020003025625,新規,0,2024-03-01,2024-03-01,Ｄ‐Ｐｌａｎｎｉｎｇ合同会社,,合同会社,神奈川県,横浜市磯子区,磯子２丁目２０番１０－１号,,14,107,2350016,,,,,,,2024-03-01,1,,,,,ディープランニング,0
748,4020003025633,新規,0,2024-03-01,2024-03-01,合同会社Ｄ　Ｂｒａｎｄ　Ｊａｐａｎ　Ｔｒａｄｉｎｇ,,合同会社,神奈川県,横浜市中区,末吉町１丁目３番地１小此木第２ビル２１１号室,,14,104,2310055,,,,,,,2024-03-01,1,,,,,ディーブランドジャパントレーディング,0
750,4021001081585,新規,0,2024-03-01,2024-03-01,フォレスト・ワン株式会社,,株式会社,神奈川県,三浦市,三崎町小網代４４番地６,,14,210,2380225,,,,,,,2024-03-01,1,,,,,フォレストワン,0
761,4030001158962,新規,0,2024-03-01,2024-03-01,株式会社ＣＥＳ,,株式会社,埼玉県,蕨市,中央４丁目１８番１６号アーデル蕨市役所通り４０３号,,11,223,3350004,,,,,,,2024-03-01,1,,,,,シーイーエス,0
762,4030003023735,新規,0,2024-03-01,2024-03-01,合同会社トゥデイシップ,,合同会社,埼玉県,越谷市,大成町１丁目１５５－７,,11,222,3430825,,,,,,,2024-03-01,1,,,,,トゥデイシップ,0
769,4040001132454,新規,0,2024-03-01,2024-03-01,株式会社ＨＲＣ,,株式会社,千葉県,木更津市,笹子３４３番地,,12,206,2920032,,,,,,,2024-03-01,1,,,,,エイチアールシー,0
770,4040001132470,新規,0,2024-03-01,2024-03-01,株式会社あにもる,,株式会社,千葉県,流山市,美田２０６番地の２,,12,220,2700131,,,,,,,2024-03-01,1,,,,,アニモル,0
775,4040003024419,新規,0,2024-03-01,2024-03-01,合同会社ａ‐ｓｕｐｐｏｒｔ,,合同会社,千葉県,千葉市中央区,弁天１丁目３－６－１階,,12,101,2600045,,,,,,,2024-03-01,1,,,,,アルファサポート,0
776,4040003024451,新規,0,2024-03-01,2024-03-01,ＣＧＭ　Ｊａｐａｎ合同会社,,合同会社,千葉県,千葉市美浜区,打瀬１丁目１１番地１グリーナＢ棟１４２０号,,12,106,2610013,,,,,,,2024-03-01,1,,,,,シージーエムジャパン,0
778,4050001054326,新規,0,2024-03-01,2024-03-01,株式会社ＥＬＴ,,株式会社,茨城県,下妻市,皆葉１６９７番地１２,,08,210,3040822,,,,,,,2024-03-01,1,,,,,,0
779,4050003008164,新規,0,2024-03-01,2024-03-01,合同会社ｖｉｌｌａ　ｖｉｒｉｄｉ,,合同会社,茨城県,取手市,戸頭７丁目３－４,,08,217,3020034,,,,,,,2024-03-01,1,,,,,ビラビリィティ,0
780,4060001036868,新規,0,2024-03-01,2024-03-01,株式会社ＭＣＲＫ,,株式会社,栃木県,宇都宮市,下荒針町３３９３番地２２,,09,201,3210346,,,,,,,2024-03-01,1,,,,,エムシーアールケイ,0
789,4090001018566,新規,0,2024-03-01,2024-03-01,株式会社渡邊,,株式会社,山梨県,甲府市,上町４０４番地９,,19,201,4000831,,,,,,,2024-03-01,1,,,,,ワタナベ,0
791,4090005007615,新規,0,2024-03-01,2024-03-01,一般社団法人６ｏｋｋｅｎ,,その他の設立登記法人,山梨県,南都留郡富士河口湖町,大石１０７３,,19,430,4010305,,,,,,,2024-03-01,1,,,,,ロッケン,0
794,4110005017058,新規,0,2024-03-01,2024-03-01,一般社団法人自立支援協会,,その他の設立登記法人,新潟県,新潟市江南区,東船場３丁目４番８号,,15,104,9500163,,,,,,,2024-03-01,1,,,,,ジリツシエンキョウカイ,0
807,4120003026051,新規,0,2024-03-01,2024-03-01,Ｎｏｖａ　Ｖｉｎｔａｇｅ合同会社,,合同会社,大阪府,大阪市港区,南市岡１丁目１１番８号１０２号室,,27,107,5520011,,,,,,,2024-03-01,1,,,,,ノヴァヴィンテージ,0
808,4120101069142,新規,0,2024-03-01,2024-03-01,株式会社ＮＡＧＯＭＩ,,株式会社,大阪府,岸和田市,尾生町１１０７番地の２上松上住宅２－１,,27,202,5960816,,,,,,,2024-03-01,1,,,,,ナゴミ,0
811,4120901048816,新規,0,2024-03-01,2024-03-01,株式会社ＺＥＲＯ　ｃｏｎｎｅｃｔ,,株式会社,大阪府,池田市,畑２丁目１番７号,,27,204,5630021,,,,,,,2024-03-01,1,,,,,ゼロコネクト,0
812,4120901048832,新規,0,2024-03-01,2024-03-01,株式会社ＧＲＯＷ,,株式会社,大阪府,吹田市,佐井寺４丁目３０番１０号,,27,205,5650836,,,,,,,2024-03-01,1,,,,,グロウ,0
815,4120905006571,新規,0,2024-03-01,2024-03-01,一般社団法人ＭＡＢＡＤＩＬＩＫＯ,,その他の設立登記法人,大阪府,箕面市,小野原東６丁目２２番３号,,27,220,5620031,,,,,,,2024-03-01,1,,,,,マバディリコ,0
816,4122003002809,新規,0,2024-03-01,2024-03-01,ミーモＡＤＶＡＮＣＥ合同会社,,合同会社,大阪府,東大阪市,高井田３番２号,,27,227,5770053,,,,,,,2024-03-01,1,,,,,ミーモアドバンス,0
823,4130005017023,新規,0,2024-03-01,2024-03-01,一般社団法人ＫＩＮＯ,,その他の設立登記法人,京都府,京都市北区,紫野下柏野町１４番地３２,,26,101,6038313,,,,,,,2024-03-01,1,,,,,キノ,0
838,4180001160219,新規,0,2024-03-01,2024-03-01,ＳＭＴ　ＴＲＡＤＥ株式会社,,株式会社,愛知県,名古屋市中区,栄１丁目１４番１４号御園パレス７０７号,,23,106,4600008,,,,,,,2024-03-01,1,,,,,エスエムティートレード,0
839,4180001160359,新規,0,2024-03-01,2024-03-01,株式会社ＣＯＳＴ　ＳＴＡＴＩＯＮ,,株式会社,愛知県,名古屋市西区,上名古屋３丁目２３番１７号,,23,104,4510025,,,,,,,2024-03-01,1,,,,,コストステーション,0
845,4180301038354,新規,0,2024-03-01,2024-03-01,株式会社ミトラス,,株式会社,愛知県,岡崎市,橋目町字阿知賀２５番地１アクアオーラユリオウ１０１,,23,202,4440908,,,,,,,2024-03-01,1,,,,,ミトラス,0
846,4180301038362,新規,0,2024-03-01,2024-03-01,株式会社ＳＥ,,株式会社,愛知県,西尾市,羽塚町本郷１７番地２,,23,213,4440316,,,,,,,2024-03-01,1,,,,,エスイー,0
853,4230005009365,新規,0,2024-03-01,2024-03-01,一般社団法人富山県こども食堂支援センター,,その他の設立登記法人,富山県,富山市,婦中町速星１０３９番地８,,16,201,9392706,,,,,,,2024-03-01,1,,,,,トヤマケンコドモショクドウシエンセンター,0
858,4260005011319,新規,0,2024-03-01,2024-03-01,特定非営利活動法人おかやま理大クラブ,,その他の設立登記法人,岡山県,岡山市北区,理大町１番１号Ａ１号館７階事務局,,33,101,7000005,,,,,,,2024-03-01,1,,,,,オカヤマリダイクラブ,0
861,4290001104858,新規,0,2024-03-01,2024-03-01,株式会社Ｏ工務店,,株式会社,福岡県,福岡市博多区,春町２丁目３番２１－２０３号,,40,132,8120872,,,,,,,2024-03-01,1,,,,,オーコウムテン,0
862,4290001104890,新規,0,2024-03-01,2024-03-01,粋な株式会社,,株式会社,福岡県,糟屋郡志免町,別府北２丁目３番２号,,40,343,8112233,,,,,,,2024-03-01,1,,,,,イキナ,0
864,4290003015013,新規,0,2024-03-01,2024-03-01,合同会社つむぎ,,合同会社,福岡県,春日市,星見ヶ丘３丁目１３２番地,,40,218,8160849,,,,,,,2024-03-01,1,,,,,ツムギ,0
873,4360001033273,新規,0,2024-03-01,2024-03-01,株式会社ＧＵＬＦ,,株式会社,沖縄県,うるま市,勝連南風原５１９４番地６２,,47,213,9042311,,,,,,,2024-03-01,1,,,,,ガルフ,0
876,4370001050986,新規,0,2024-03-01,2024-03-01,シントウホールディングス株式会社,,株式会社,宮城県,石巻市,大街道北３丁目７番２７号,,04,202,9860854,,,,,,,2024-03-01,1,,,,,シントウホールディングス,0
879,4380001034328,新規,0,2024-03-01,2024-03-01,日本マンストテクノロジー株式会社,,株式会社,福島県,郡山市,八山田西３丁目１０２番地,,07,203,9638053,,,,,,,2024-03-01,1,,,,,ニホンマンストテクノロジー,0
891,4430005014907,新規,0,2024-03-01,2024-03-01,農事組合法人ＭＳＴ,,その他の設立登記法人,北海道,札幌市中央区,北三条西３０丁目１－１６ブローニュ宮の森３０１,,01,101,0640823,,,,,,,2024-03-01,1,,,,,エムエスティー,0
895,4480003002099,新規,0,2024-03-01,2024-03-01,合同会社進幸,,合同会社,徳島県,名西郡石井町,石井字石井６５４番地１,,36,341,7793233,,,,,,,2024-03-01,1,,,,,シンコウ,0
897,4500003003193,新規,0,2024-03-01,2024-03-01,Ｒｅｎａｉｓｓａｎｃｅ合同会社,,合同会社,愛媛県,越智郡上島町,弓削鎌田１４８番地１,,38,356,7942510,,,,,,,2024-03-01,1,,,,,ルネサンス,0
899,4700150124268,新規,0,2024-03-01,2024-03-01,雄郡地区まちづくり協議会,,その他,愛媛県,松山市,小栗３丁目５－２４,,38,201,7900036,,,,,,,2024-03-01,1,,,,,ユウグンチクマチヅクリキョウギカイ,0
910,5010003043107,新規,0,2024-03-01,2024-03-01,ｉｉＤＴｅｃｈ合同会社,,合同会社,東京都,文京区,関口１丁目５－９ドーム関口２Ｆ,,13,105,1120014,,,,,,,2024-03-01,1,,,,,アイアイディテック,0
911,5010005037957,新規,0,2024-03-01,2024-03-01,医療法人社団真正美会,,その他の設立登記法人,東京都,中央区,新川２丁目２８－２メディカルプライム新川４階,,13,102,1040033,,,,,,,2024-03-01,1,,,,,シンセイビカイ,0
921,5010401180583,新規,0,2024-03-01,2024-03-01,Ｌｉｆｅｐｌｕｓ　Ｊａｐａｎ株式会社,,株式会社,東京都,港区,元麻布３丁目１番６号,,13,103,1060046,,,,,,,2024-03-01,1,,,,,ライフプラスジャパン,0
922,5010403032072,新規,0,2024-03-01,2024-03-01,Ｈ＆Ｍ合同会社,,合同会社,東京都,港区,南麻布２丁目１４番２号,,13,103,1060047,,,,,,,2024-03-01,1,,,,,エイチアンドエム,0
933,5011001160190,新規,0,2024-03-01,2024-03-01,北山社中株式会社,,株式会社,東京都,目黒区,柿の木坂２丁目９番８号,,13,110,1520022,,,,,,,2024-03-01,1,,,,,キタヤマシャチュウ,0
935,5011003018560,新規,0,2024-03-01,2024-03-01,合同会社ＴＵＲＮ,,合同会社,東京都,渋谷区,神宮前６丁目２３番４号桑野ビル２階,,13,113,1500001,,,,,,,2024-03-01,1,,,,,ターン,0
936,5011003018602,新規,0,2024-03-01,2024-03-01,ＭＯＷＬ合同会社,,合同会社,東京都,目黒区,大橋１丁目５番１号クロスエアタワー３００７,,13,110,1530044,,,,,,,2024-03-01,1,,,,,モール,0
942,5011101106382,新規,0,2024-03-01,2024-03-01,ＡＧＷ株式会社,,株式会社,東京都,新宿区,高田馬場４丁目４番１０号コーポラス徳光,,13,104,1690075,,,,,,,2024-03-01,1,,,,,エイジーダブルユー,0
949,5011401025885,新規,0,2024-03-01,2024-03-01,Ｃｈａｒｏｅｎ　Ｇｌｏｂａｌ株式会社,,株式会社,東京都,板橋区,若木３丁目２４番２号,,13,119,1740065,,,,,,,2024-03-01,1,,,,,チャルーングローバル,0
951,5011703003754,新規,0,2024-03-01,2024-03-01,云嵩日本合同会社,00133913,合同会社,東京都,江戸川区,西小岩３丁目１２番３号フドウアーバニティー西小岩２０１,,13,123,1330057,,,,,,,2024-03-01,1,,,,,ウンソンニホン,0
952,5012301013798,新規,0,2024-03-01,2024-03-01,株式会社ＳＴＴ,,株式会社,東京都,町田市,金井ヶ丘４丁目４番５号,,13,209,1950076,,,,,,,2024-03-01,1,,,,,エスティティ,0
965,5020001155968,新規,0,2024-03-01,2024-03-01,株式会社ニューノート,,株式会社,神奈川県,横浜市中区,桜木町１丁目１０１番地１クロスゲート７階,,14,104,2310062,,,,,,,2024-03-01,1,,,,,ニューノート,0
966,5020001155992,新規,0,2024-03-01,2024-03-01,＿園株式会社,00133925,株式会社,神奈川県,川崎市幸区,鹿島田１丁目１番５－１００６号,,14,132,2120058,,,,,,,2024-03-01,1,,,,,テイエン,0
967,5020001156033,新規,0,2024-03-01,2024-03-01,株式会社あかるいチカラ,,株式会社,神奈川県,横浜市金沢区,大道１丁目４番１６号,,14,108,2360035,,,,,,,2024-03-01,1,,,,,アカルイチカラ,0
970,5020003025616,新規,0,2024-03-01,2024-03-01,合同会社ｎｕｌｌＶｉｓｔａ,,合同会社,神奈川県,横浜市西区,浅間町１丁目４番３号ウィザードビル４０２,,14,103,2200072,,,,,,,2024-03-01,1,,,,,ヌルビスタ,0
971,5020003025649,新規,0,2024-03-01,2024-03-01,合同会社アミア,,合同会社,神奈川県,横浜市都筑区,高山１２―６,,14,118,2240065,,,,,,,2024-03-01,1,,,,,アミア,0
972,5021001081584,新規,0,2024-03-01,2024-03-01,株式会社ウィルアシスト,,株式会社,神奈川県,小田原市,小竹８１５番地の７１,,14,206,2560802,,,,,,,2024-03-01,1,,,,,ウィルアシスト,0
973,5021001081601,新規,0,2024-03-01,2024-03-01,株式会社ＳＭＫ,,株式会社,神奈川県,逗子市,新宿５丁目１番１０－２１３号,,14,208,2490007,,,,,,,2024-03-01,1,,,,,エスエムケイ,0
983,5030001158870,新規,0,2024-03-01,2024-03-01,株式会社オウルサム,,株式会社,埼玉県,越谷市,東町５丁目２４２番地,,11,222,3430826,,,,,,,2024-03-01,1,,,,,オウルサム,0
984,5030001158961,新規,0,2024-03-01,2024-03-01,株式会社Ｙｕｊｉｒｏ,,株式会社,埼玉県,本庄市,早稲田の杜４丁目２番１５号,,11,211,3670030,,,,,,,2024-03-01,1,,,,,ユウジロウ,0
991,5030003023734,新規,0,2024-03-01,2024-03-01,ＡＴ‐ＢＯＮＤ合同会社,,合同会社,埼玉県,春日部市,中央５丁目３番地７号,,11,214,3440067,,,,,,,2024-03-01,1,,,,,エーティーボンド,0
995,5040001132437,新規,0,2024-03-01,2024-03-01,株式会社リバーページ,,株式会社,千葉県,野田市,大殿井１５０番地９,,12,208,2780017,,,,,,,2024-03-01,1,,,,,リバーページ,0
999,5040003024442,新規,0,2024-03-01,2024-03-01,ＢＢＣ合同会社,,合同会社,千葉県,千葉市中央区,新千葉３丁目１２番８号エクセレントシティ千葉レジデンス１０５号,,12,101,2600031,,,,,,,2024-03-01,1,,,,,ビービーシー,0
1004,5060001036867,新規,0,2024-03-01,2024-03-01,株式会社Ｎｅｉｔ,,株式会社,栃木県,那須塩原市,下永田１丁目９８１番地１ルミライズ１０２号,,09,213,3292712,,,,,,,2024-03-01,1,,,,,ナイト,0
1005,5060005010174,新規,0,2024-03-01,2024-03-01,一般社団法人キープクリーンジャパン協会,,その他の設立登記法人,栃木県,小山市,西城南４丁目３０番地３０,,09,208,3230820,,,,,,,2024-03-01,1,,,,,キープクリーンジャパンキョウカイ,0
1019,5110003005311,新規,0,2024-03-01,2024-03-01,合同会社すいみー,,合同会社,新潟県,見附市,市野坪町２－５０－１,,15,211,9540083,,,,,,,2024-03-01,1,,,,,スイミー,0
1030,5120001262779,新規,0,2024-03-01,2024-03-01,ＸＹ株式会社,,株式会社,大阪府,大阪市西成区,岸里東１丁目１９番５号,,27,122,5570042,,,,,,,2024-03-01,1,,,,,エックスワイ,0
1031,5120001262804,新規,0,2024-03-01,2024-03-01,株式会社Ｙ二Ｘ,,株式会社,大阪府,大阪市中央区,南新町１丁目３番６号エクセレント南新町７０２,,27,128,5400024,,,,,,,2024-03-01,1,,,,,ワイツーエックス,0
1036,5120003026042,新規,0,2024-03-01,2024-03-01,合同会社障害者就労援護会,,合同会社,大阪府,大阪市東成区,中道１丁目９番１０号,,27,115,5370025,,,,,,,2024-03-01,1,,,,,ショウガイシャシュウロウエンゴカイ,0
1038,5120903005070,新規,0,2024-03-01,2024-03-01,合同会社ＡＹＣＳ,,合同会社,大阪府,箕面市,半町４丁目２０番１３号,,27,220,5620044,,,,,,,2024-03-01,1,,,,,エーワイシーエス,0
1049,5130003009343,新規,0,2024-03-01,2024-03-01,合同会社ヨシフジ,,合同会社,京都府,亀岡市,千代川町湯井中筋４５番地,,26,206,6210045,,,,,,,2024-03-01,1,,,,,ヨシフジ,0
1050,5130005017022,新規,0,2024-03-01,2024-03-01,一般社団法人ＫＰＢＣ,,その他の設立登記法人,京都府,京都市北区,等持院東町５１番地７,,26,101,6038343,,,,,,,2024-03-01,1,,,,,ケーピービーシー,0
1056,5140001133490,新規,0,2024-03-01,2024-03-01,株式会社ｍｉｓｏｒａ,,株式会社,兵庫県,西宮市,戸田町３番５－１０１号ソアールＫ,,28,204,6620916,,,,,,,2024-03-01,1,,,,,ミソラ,0
1057,5140003020217,新規,0,2024-03-01,2024-03-01,ゴールドビレッジ合同会社,,合同会社,兵庫県,西宮市,五月ケ丘４番８号,,28,204,6620875,,,,,,,2024-03-01,1,,,,,ゴールドビレッジ,0
1068,5190001031145,新規,0,2024-03-01,2024-03-01,ＤＲＡＦＴＩＮＧ株式会社,,株式会社,三重県,鈴鹿市,磯山２丁目１‐１１,,24,207,5100256,,,,,,,2024-03-01,1,,,,,ドラフティング,0
1071,5200001042207,新規,0,2024-03-01,2024-03-01,ロビンス株式会社,,株式会社,岐阜県,各務原市,蘇原緑町４丁目２５番地２０,,21,213,5040902,,,,,,,2024-03-01,1,,,,,ロビンス,0
1081,5240001062861,新規,0,2024-03-01,2024-03-01,株式会社中央運輸,,株式会社,広島県,広島市中区,竹屋町３番２２－４０１号,,34,101,7300048,,,,,,,2024-03-01,1,,,,,チュウオウウンユ,0
1085,5260001038785,新規,0,2024-03-01,2024-03-01,株式会社はれわ,,株式会社,岡山県,岡山市北区,吉備津１１５７番地１８,,33,101,7011341,,,,,,,2024-03-01,1,,,,,ハレワ,0
1092,5290001104881,新規,0,2024-03-01,2024-03-01,株式会社いくのう,,株式会社,福岡県,宗像市,平等寺前田７１４番１,,40,220,8113412,,,,,,,2024-03-01,1,,,,,イクノウ,0
1095,5290003015012,新規,0,2024-03-01,2024-03-01,だいまるっと合同会社,,合同会社,福岡県,福岡市東区,箱崎１丁目１１番２４－２０１号大丸コーポ,,40,131,8120053,,,,,,,2024-03-01,1,,,,,ダイマルット,0
1099,5290801030352,新規,0,2024-03-01,2024-03-01,ＦＲＯＭ．Ｍ株式会社,,株式会社,福岡県,北九州市小倉北区,霧ケ丘２丁目１９－３０,,40,106,8020052,,,,,,,2024-03-01,1,,,,,フロムエム,0
1100,5290801030360,新規,0,2024-03-01,2024-03-01,Ｋ’ｓ　ｃｏｒｐｏｒａｔｉｏｎ株式会社,,株式会社,福岡県,北九州市八幡東区,西台良町７番１１号,,40,108,8050064,,,,,,,2024-03-01,1,,,,,ケーズコーポレーション,0
1101,5300001013627,新規,0,2024-03-01,2024-03-01,株式会社Ｑ’ｓ＆Ｃｏ．,,株式会社,佐賀県,鹿島市,大字三河内甲２０３３番地,,41,207,8491315,,,,,,,2024-03-01,1,,,,,キューズアンドコー,0
1115,5360001033264,新規,0,2024-03-01,2024-03-01,海邦マリン株式会社,,株式会社,沖縄県,石垣市,字石垣５２４－１０黒嶋アパート２０１,,47,207,9070023,,,,,,,2024-03-01,1,,,,,カイホウマリン,0
1116,5360003013751,新規,0,2024-03-01,2024-03-01,合同会社Ｌｕｐｉｎａｌ,,合同会社,沖縄県,那覇市,泉崎１丁目２０番１号,,47,201,9000021,,,,,,,2024-03-01,1,,,,,ルピナル,0
1117,5370001050985,新規,0,2024-03-01,2024-03-01,株式会社Ｃｈａｒｍ,,株式会社,宮城県,仙台市太白区,大野田５丁目３０番地の６,,04,104,9820014,,,,,,,2024-03-01,1,,,,,チャーム,0
1123,5380003005697,新規,0,2024-03-01,2024-03-01,合同会社ＧＲＡＮＤ　ＪＡＰＡＮ　ＬＥＩＳＵＲＥ,,合同会社,福島県,須賀川市,館取町８２番地２スズキビル１０３,,07,207,9620021,,,,,,,2024-03-01,1,,,,,グランドジャパンレジャー,0
1125,5430001091180,新規,0,2024-03-01,2024-03-01,株式会社エマ,,株式会社,北海道,札幌市西区,琴似二条７丁目２番４１号,,01,107,0630812,,,,,,,2024-03-01,1,,,,,エマ,0
1128,5430005014906,新規,0,2024-03-01,2024-03-01,一般社団法人ＮＨスポーツ振興連盟,,その他の設立登記法人,北海道,札幌市西区,琴似四条４丁目１番１８号１階,,01,107,0630814,,,,,,,2024-03-01,1,,,,,エヌエイチスポーツシンコウレンメイ,0
1142,6010001242254,新規,0,2024-03-01,2024-03-01,ＳＵＣＣＥＥＤ株式会社,,株式会社,東京都,千代田区,丸の内３丁目４番１号,,13,101,1000005,,,,,,,2024-03-01,1,,,,,サクシード,0
1143,6010001242725,新規,0,2024-03-01,2024-03-01,株式会社マリンリソースマネジメント,,株式会社,東京都,中央区,銀座１丁目１２番４号Ｎ＆Ｅ－ＢＬＤ．６Ｆ,,13,102,1040061,,,,,,,2024-03-01,1,,,,,マリンリソースマネジメント,0
1144,6010001242733,新規,0,2024-03-01,2024-03-01,株式会社ヴェリタス,,株式会社,東京都,文京区,西片１丁目１１－６,,13,105,1130024,,,,,,,2024-03-01,1,,,,,ヴェリタス,0
1145,6010003043031,新規,0,2024-03-01,2024-03-01,Ｏｆｆｓｈｏｒｅ　Ｗｉｎｄ　Ｐｏｗｅｒ　Ｃｏｎｓｕｌｔｉｎｇ合同会社,,合同会社,東京都,千代田区,丸の内１丁目８番３号丸の内トラストタワー本館２０階,,13,101,1000005,,,,,,,2024-03-01,1,,,,,オフショアウィンドパワーコンサルティング,0
1146,6010003043089,新規,0,2024-03-01,2024-03-01,合同会社Ｓａｎｄｉａ,,合同会社,東京都,中央区,八丁堀４丁目２番１０号ＡＯＪ税理士法人内,,13,102,1040032,,,,,,,2024-03-01,1,,,,,サンディア,0
1147,6010005037956,新規,0,2024-03-01,2024-03-01,一般社団法人アルファメガソーラープロジェクト２号,,その他の設立登記法人,東京都,千代田区,二番町３番地麹町スクエア株式会社シリウス・アドバイザリー内,,13,101,1020084,,,,,,,2024-03-01,1,,,,,アルファメガソーラープロジェクトニゴウ,0
1148,6010005037972,新規,0,2024-03-01,2024-03-01,一般社団法人アイランドシップ６号,,その他の設立登記法人,東京都,中央区,八丁堀４丁目２番１０号ＡＯＪ税理士法人内,,13,102,1040032,,,,,,,2024-03-01,1,,,,,アイランドシップロクゴウ,0
1153,6010601064734,新規,0,2024-03-01,2024-03-01,株式会社Ｃｈｉｃ,,株式会社,東京都,墨田区,押上１丁目１２－６あすかマンション１Ｆ,,13,107,1310045,,,,,,,2024-03-01,1,,,,,シック,0
1155,6010603010678,新規,0,2024-03-01,2024-03-01,合同会社プルテウス,,合同会社,東京都,江東区,豊洲５丁目１番１３－２０２０号,,13,108,1350061,,,,,,,2024-03-01,1,,,,,プルテウス,0
1156,6010603010686,新規,0,2024-03-01,2024-03-01,合同会社スリーサポート,,合同会社,東京都,江東区,有明３丁目７番１１号有明パークビル２０階,,13,108,1350063,,,,,,,2024-03-01,1,,,,,スリーサポート,0
1170,6011003018601,新規,0,2024-03-01,2024-03-01,ＯＮＥ合同会社,,合同会社,東京都,渋谷区,笹塚１丁目５２番６号千葉ビル７０３,,13,113,1510073,,,,,,,2024-03-01,1,,,,,ワン,0
1172,6011101106381,新規,0,2024-03-01,2024-03-01,康年株式会社,,株式会社,東京都,新宿区,高田馬場４丁目４番１０号コーポラス徳光,,13,104,1690075,,,,,,,2024-03-01,1,,,,,コウネン,0
1174,6011103014161,新規,0,2024-03-01,2024-03-01,合同会社ＤＬｅｒ,,合同会社,東京都,新宿区,西新宿３丁目３番１３号西新宿水間ビル６階,,13,104,1600023,,,,,,,2024-03-01,1,,,,,ディーラー,0
1180,6011601027573,新規,0,2024-03-01,2024-03-01,株式会社ＡＫＳ,,株式会社,東京都,練馬区,石神井町４丁目１１番２３号,,13,120,1770041,,,,,,,2024-03-01,1,,,,,エイケイエス,0
1185,6012403006435,新規,0,2024-03-01,2024-03-01,合同会社ＧＲＩＭＭ,,合同会社,東京都,三鷹市,深大寺２丁目１５番１３号,,13,204,1810016,,,,,,,2024-03-01,1,,,,,グリム,0
1189,6013303007028,新規,0,2024-03-01,2024-03-01,合同会社１７８,,合同会社,東京都,豊島区,東池袋２丁目６２番８号ＢＩＧオフィスプラザ池袋１１０２,,13,116,1700013,,,,,,,2024-03-01,1,,,,,イチナナハチ,0
1191,6020001155835,新規,0,2024-03-01,2024-03-01,日本盛庚株式会社,,株式会社,神奈川県,横浜市中区,相生町４丁目６９－１トーカン馬車道キャステール７０１号室,,14,104,2310012,,,,,,,2024-03-01,1,,,,,ニホンセイコウ,0
1192,6020001156008,新規,0,2024-03-01,2024-03-01,株式会社クルーズ,,株式会社,神奈川県,横浜市青葉区,美しが丘１丁目１３番地１０吉村ビル１０７号,,14,117,2250002,,,,,,,2024-03-01,1,,,,,クルーズ,0
1193,6020001156024,新規,0,2024-03-01,2024-03-01,株式会社ＨＯＰＥ,,株式会社,神奈川県,川崎市麻生区,細山３丁目１７番２－６号,,14,137,2150001,,,,,,,2024-03-01,1,,,,,ホープ,0
1194,6020001156032,新規,0,2024-03-01,2024-03-01,株式会社清和総建,,株式会社,神奈川県,横浜市緑区,いぶき野８番地２７アーバンヒルズ２Ｆ,,14,113,2260028,,,,,,,2024-03-01,1,,,,,セイワソウケン,0
1195,6020001156040,新規,0,2024-03-01,2024-03-01,株式会社ＡｒｃｈＴａｎｋ,,株式会社,神奈川県,横浜市都筑区,川和町２６９３番地３２,,14,118,2240057,,,,,,,2024-03-01,1,,,,,アーキタンク,0
1197,6020003025573,新規,0,2024-03-01,2024-03-01,合同会社ＦＡＬＦＴ,,合同会社,神奈川県,横浜市神奈川区,金港町５‐１４クアドリフォリオ８階,,14,102,2210056,,,,,,,2024-03-01,1,,,,,ファルフト,0
1202,6021003014203,新規,0,2024-03-01,2024-03-01,Ｄ‐Ｓｔｙｌｅ英語学園合同会社,,合同会社,神奈川県,藤沢市,南藤沢１１番３号１階,,14,205,2510055,,,,,,,2024-03-01,1,,,,,ディースタイルエイゴガクエン,0
1209,6030001158969,新規,0,2024-03-01,2024-03-01,おいしいパスタ株式会社,,株式会社,埼玉県,戸田市,大字新曽２２００－２－２Ｆ,,11,224,3350021,,,,,,,2024-03-01,1,,,,,オイシイパスタ,0
1211,6030003023733,新規,0,2024-03-01,2024-03-01,ブレインストーム・コンサルティング合同会社,,合同会社,埼玉県,志木市,本町４丁目１３番１－１１１５号志木ガーデンヒルズ,,11,228,3530004,,,,,,,2024-03-01,1,,,,,ブレインストームコンサルティング,0
1220,6040001132452,新規,0,2024-03-01,2024-03-01,株式会社松央ミート,,株式会社,千葉県,旭市,鎌数４１８番地２,,12,215,2892505,,,,,,,2024-03-01,1,,,,,マツオウミート,0
1223,6040005022303,新規,0,2024-03-01,2024-03-01,一般社団法人ｈｏｐｅ　ｈａｐｐｙ　ｏｆ　ａｎｉｍａｌｓ,,その他の設立登記法人,千葉県,柏市,加賀２丁目７番１１号,,12,217,2770051,,,,,,,2024-03-01,1,,,,,ホープハッピーオブアニマルズ,0
1228,6060001036750,新規,0,2024-03-01,2024-03-01,鹿北産業株式会社,,株式会社,栃木県,鹿沼市,茂呂２６０３番地,,09,205,3220026,,,,,,,2024-03-01,1,,,,,,0
1231,6080002013623,新規,0,2024-03-01,2024-03-01,有限会社斉藤硝子店,,有限会社,静岡県,島田市,若松町２４９２番地の２０,,22,209,4270046,,,,,,,2024-03-01,1,,,,,サイトウガラステン,0
1247,6120001262695,新規,0,2024-03-01,2024-03-01,三六五日株式会社,,株式会社,大阪府,大阪市北区,天神橋２丁目２番１０号ハイマウントビル６０１号室,,27,127,5300041,,,,,,,2024-03-01,1,,,,,サンビャクロクジュウゴニチ,0
1248,6120001262729,新規,0,2024-03-01,2024-03-01,ＩＴＬ株式会社,,株式会社,大阪府,大阪市平野区,加美北３丁目７番３０号ノアーズアーク８８（１階）,,27,126,5470001,,,,,,,2024-03-01,1,,,,,アイティーエル,0
1249,6120001262794,新規,0,2024-03-01,2024-03-01,株式会社Ａｎｇｅｌｉｃ,,株式会社,大阪府,大阪市北区,本庄東１丁目１４番１９号,,27,127,5310074,,,,,,,2024-03-01,1,,,,,エンジェリック,0
1257,6120101069066,新規,0,2024-03-01,2024-03-01,株式会社Ａｉｄｓｉｇｎ,,株式会社,大阪府,泉大津市,東雲町４番１４号２階,,27,206,5950026,,,,,,,2024-03-01,1,,,,,エイドサイン,0
1258,6120901048814,新規,0,2024-03-01,2024-03-01,株式会社ＳＡＩＳＥＩ,,株式会社,大阪府,箕面市,如意谷１丁目１１－２２,,27,220,5620011,,,,,,,2024-03-01,1,,,,,サイセイ,0
1259,6120901048830,新規,0,2024-03-01,2024-03-01,Ｇｒａｔｉｔｕｄｅ株式会社,,株式会社,大阪府,吹田市,佐井寺３丁目４番１０号ツインフィールド壱番館３０３,,27,205,5650836,,,,,,,2024-03-01,1,,,,,グラティテュード,0
1260,6122001037862,新規,0,2024-03-01,2024-03-01,ＩＧ　Ｔｅｃｈ株式会社,,株式会社,大阪府,四條畷市,清滝中町２１番３８号,,27,229,5750061,,,,,,,2024-03-01,1,,,,,アイジーテック,0
1264,6130001076467,新規,0,2024-03-01,2024-03-01,株式会社ビッグスタッフ,,株式会社,京都府,向日市,上植野町落堀１番地の１ヴェレーナ京都西向日６０２号,,26,208,6170006,,,,,,,2024-03-01,1,,,,,ビッグスタッフ,0
1272,6140001133465,新規,0,2024-03-01,2024-03-01,株式会社ｎｉｎｅｔｏｏｌ,,株式会社,兵庫県,神戸市兵庫区,羽坂通２丁目１番地３３号１Ｆ,,28,105,6520805,,,,,,,2024-03-01,1,,,,,ナインツール,0
1273,6140001133507,新規,0,2024-03-01,2024-03-01,神戸鉄道トイ株式会社,,株式会社,兵庫県,神戸市兵庫区,上沢通４丁目１番１号,,28,105,6520046,,,,,,,2024-03-01,1,,,,,コウベテツドウトイ,0
1274,6140001133523,新規,0,2024-03-01,2024-03-01,株式会社福吉商事,,株式会社,兵庫県,神戸市東灘区,向洋町中５丁目１番地５２３号棟１１１号室,,28,101,6580032,,,,,,,2024-03-01,1,,,,,フクヨシショウジ,0
1276,6140003020216,新規,0,2024-03-01,2024-03-01,合同会社塚口獣医科医院分院,00133919,合同会社,兵庫県,尼崎市,南塚口町１丁目１番１７号,,28,202,6610012,,,,,,,2024-03-01,1,,,,,ツカグチジュウイカイインブンイン,0
1277,6160001025719,新規,0,2024-03-01,2024-03-01,株式会社ＢＲＡＶＥ,,株式会社,滋賀県,長浜市,大戌亥町１２７４番地,,25,203,5260043,,,,,,,2024-03-01,1,,,,,ブレーブ,0
1280,6160005011277,新規,0,2024-03-01,2024-03-01,一般社団法人ワクワクモバイル,,その他の設立登記法人,滋賀県,長浜市,口分田町３８８番地５,,25,203,5260014,,,,,,,2024-03-01,1,,,,,ワクワクモバイル,0
1290,6180001160365,新規,0,2024-03-01,2024-03-01,株式会社ワーク,,株式会社,愛知県,名古屋市中区,栄１丁目２４番２５号,,23,106,4600008,,,,,,,2024-03-01,1,,,,,ワーク,0
1293,6190001031144,新規,0,2024-03-01,2024-03-01,株式会社プライムシェア,,株式会社,三重県,三重郡菰野町,大字菰野４６６８番地１１,,24,341,5101233,,,,,,,2024-03-01,1,,,,,プライムシェア,0
1299,6240001062852,新規,0,2024-03-01,2024-03-01,株式会社Ｌｉｆａｃｔ,,株式会社,広島県,広島市佐伯区,五日市町上河内４７２－１０１,,34,108,7315100,,,,,,,2024-03-01,1,,,,,リフアクト,0
1301,6240005015740,新規,0,2024-03-01,2024-03-01,医療法人戸田眼科,,その他の設立登記法人,広島県,東広島市,寺家駅前１３番３５号,,34,212,7390040,,,,,,,2024-03-01,1,,,,,トダガンカ,0
1305,6260001038792,新規,0,2024-03-01,2024-03-01,株式会社ＲＯＯＳＴＥＲ,,株式会社,岡山県,岡山市北区,清輝橋４丁目４番３２号１００３号,,33,101,7000861,,,,,,,2024-03-01,1,,,,,ルースター,0
1307,6270001008927,新規,0,2024-03-01,2024-03-01,株式会社海陽,,株式会社,鳥取県,境港市,渡町１５１４番地１０,,31,204,6840072,,,,,,,2024-03-01,1,,,,,カイヨウ,0
1315,6290005019299,新規,0,2024-03-01,2024-03-01,多々良村農業會,,その他の設立登記法人,福岡県,福岡市東区,大字津屋１０３２番地の４,,40,131,,,,,,,,2024-03-01,1,,,,,タタラムラノウギョウカイ,0
1325,6330001031807,新規,0,2024-03-01,2024-03-01,株式会社ワールド・ウイング,,株式会社,熊本県,熊本市東区,御領５丁目８番１４号,,43,102,8618035,,,,,,,2024-03-01,1,,,,,ワールドウイング,0
1331,6360001033263,新規,0,2024-03-01,2024-03-01,株式会社ＰＬＡＮ‐Ｂ,,株式会社,沖縄県,浦添市,字前田１００５番地２・３Ｆ,,47,208,9012102,,,,,,,2024-03-01,1,,,,,プランビー,0
1332,6360003013676,新規,0,2024-03-01,2024-03-01,合同会社ＬＵＭＩＮＯＵＳ,,合同会社,沖縄県,石垣市,美崎町１０番地８号Ｋ１ビル２Ｆ,,47,207,9070012,,,,,,,2024-03-01,1,,,,,ルミナス,0
1333,6360003013750,新規,0,2024-03-01,2024-03-01,Ｃｈａｌｌｅｎｇｅｄ　Ｏｃｅａｎ合同会社,,合同会社,沖縄県,中頭郡読谷村,字波平１７０５番地１ハイツリラッシー３０５,,47,324,9040322,,,,,,,2024-03-01,1,,,,,チャレンジドオーシャン,0
1340,6400001016569,新規,0,2024-03-01,2024-03-01,株式会社さくらの里八幡平,,株式会社,岩手県,八幡平市,大更第３１地割４６番地３,,03,214,0287111,,,,,,,2024-03-01,1,,,,,サクラノサトハチマンタイ,0
1347,6430001091188,新規,0,2024-03-01,2024-03-01,テンポラリー株式会社,,株式会社,北海道,札幌市中央区,北一条西３丁目３番地,,01,101,0600001,,,,,,,2024-03-01,1,,,,,テンポラリー,0
1350,6430003016003,新規,0,2024-03-01,2024-03-01,合同会社侑進,,合同会社,北海道,札幌市西区,西町北２０丁目５番１２号,,01,107,0630061,,,,,,,2024-03-01,1,,,,,ユウシン,0
1351,6460101007504,新規,0,2024-03-01,2024-03-01,ＫＮＲｅｓａｌｅ株式会社,,株式会社,北海道,河西郡芽室町,西八条９丁目１番地２４,,01,637,0820038,,,,,,,2024-03-01,1,,,,,ケーエヌリセール,0
1352,6460103001595,新規,0,2024-03-01,2024-03-01,Ｄａｎｏ合同会社,,合同会社,北海道,帯広市,西五条南３９丁目６番１２号,,01,207,0800015,,,,,,,2024-03-01,1,,,,,ダノ,0
1354,6480001012404,新規,0,2024-03-01,2024-03-01,株式会社大倉,,株式会社,徳島県,三好市,西祖谷山村善徳１７４番地８,,36,208,7780102,,,,,,,2024-03-01,1,,,,,オオクラ,0
1368,7010001242690,新規,0,2024-03-01,2024-03-01,株式会社ショーランナーズ,,株式会社,東京都,千代田区,内神田１丁目５番４号,,13,101,1010047,,,,,,,2024-03-01,1,,,,,ショーランナーズ,0
1369,7010001242699,新規,0,2024-03-01,2024-03-01,株式会社荒井企画,,株式会社,東京都,文京区,本郷１丁目２８番２１号,,13,105,1130033,,,,,,,2024-03-01,1,,,,,アライキカク,0
1370,7010005037971,新規,0,2024-03-01,2024-03-01,一般社団法人岡山物流,,その他の設立登記法人,東京都,中央区,日本橋１丁目４番１号,,13,102,1030027,,,,,,,2024-03-01,1,,,,,オカヤマブツリュウ,0
1377,7010401180747,新規,0,2024-03-01,2024-03-01,株式会社オースビジネスパートナーズ,,株式会社,東京都,港区,浜松町２丁目２－１５浜松町ダイヤビル２Ｆ,,13,103,1050013,,,,,,,2024-03-01,1,,,,,オースビジネスパートナーズ,0
1378,7010401180755,新規,0,2024-03-01,2024-03-01,ＳＵＤＡＲＩＯ株式会社,,株式会社,東京都,港区,赤坂９丁目１番７号,,13,103,1070052,,,,,,,2024-03-01,1,,,,,スダリオ,0
1383,7010405023002,新規,0,2024-03-01,2024-03-01,医療法人社団ＭＯＲＩ　ＤＥＮＴＡＬ　ＣＬＩＮＩＣ,,その他の設立登記法人,東京都,港区,南青山６丁目２番９号ＮＹＫビル２階,,13,103,1070062,,,,,,,2024-03-01,1,,,,,モリデンタルクリニック,0
1385,7010505003498,新規,0,2024-03-01,2024-03-01,医療法人社団優幸会,,その他の設立登記法人,東京都,台東区,上野３丁目２３番１１号松田ビル２階,,13,106,1100005,,,,,,,2024-03-01,1,,,,,ユウコウカイ,0
1391,7010603010685,新規,0,2024-03-01,2024-03-01,龍馬商事合同会社,,合同会社,東京都,墨田区,江東橋１丁目１６番１－４００号,,13,107,1300022,,,,,,,2024-03-01,1,,,,,リュウマショウジ,0
1403,7011003018600,新規,0,2024-03-01,2024-03-01,ランタナ合同会社,,合同会社,東京都,目黒区,中目黒１丁目８番１号,,13,110,1530061,,,,,,,2024-03-01,1,,,,,ランタナ,0
1412,7011101106182,新規,0,2024-03-01,2024-03-01,株式会社禅農,,株式会社,東京都,新宿区,市谷八幡町９番地市ヶ谷ＺＥＮビル４階,,13,104,1620844,,,,,,,2024-03-01,1,,,,,ゼンノウ,0
1413,7011101106364,新規,0,2024-03-01,2024-03-01,株式会社ＲＭ,,株式会社,東京都,新宿区,西新宿３丁目３番１３号西新宿水間ビル２Ｆ,,13,104,1600023,,,,,,,2024-03-01,1,,,,,アールエム,0
1414,7011103014160,新規,0,2024-03-01,2024-03-01,合同会社ｆｏｒｃｉｘ,,合同会社,東京都,新宿区,四谷３丁目１３番地ＳＥＡＢＩＲＤビル２階,,13,104,1600004,,,,,,,2024-03-01,1,,,,,フォーシックス,0
1416,7011401025883,新規,0,2024-03-01,2024-03-01,方園株式会社,,株式会社,東京都,板橋区,仲宿６０－１６林ビル２階,,13,119,1730005,,,,,,,2024-03-01,1,,,,,ホウエン,0
1417,7011403004290,新規,0,2024-03-01,2024-03-01,合同会社グランコンスト,,合同会社,東京都,板橋区,舟渡３丁目１７番５号,,13,119,1740041,,,,,,,2024-03-01,1,,,,,グランコンスト,0
1419,7011601027572,新規,0,2024-03-01,2024-03-01,４２７株式会社,,株式会社,東京都,練馬区,関町東２丁目１３番１０号キャッスル鹿田東側Ｂ１Ｆ,,13,120,1770052,,,,,,,2024-03-01,1,,,,,ヨンニナナ,0
1423,7012701018098,新規,0,2024-03-01,2024-03-01,株式会社Ｋ‐Ｗｏｒｋｓ,,株式会社,東京都,東久留米市,下里６丁目５番８５号ＨＢ５,,13,222,2030043,,,,,,,2024-03-01,1,,,,,ケーワークス,0
1425,7013301052149,新規,0,2024-03-01,2024-03-01,Ｓｔａｒｌｉｇｈｔ株式会社,,株式会社,東京都,豊島区,駒込２丁目７番１８－１０１号,,13,116,1700003,,,,,,,2024-03-01,1,,,,,スターライト,0
1426,7013301052157,新規,0,2024-03-01,2024-03-01,三和産業株式会社,,株式会社,東京都,豊島区,東池袋２丁目６３番１号３０３号室,,13,116,1700013,,,,,,,2024-03-01,1,,,,,サンワサンギョウ,0
1429,7020001155990,新規,0,2024-03-01,2024-03-01,株式会社クリア電設,,株式会社,神奈川県,横浜市緑区,三保町２２４３番地５サンシャインヒルズＣ２０６,,14,113,2260015,,,,,,,2024-03-01,1,,,,,クリアデンセツ,0
1430,7020001155999,新規,0,2024-03-01,2024-03-01,株式会社グッドワン,,株式会社,神奈川県,横浜市旭区,今宿２丁目３２番２２号,,14,112,2410817,,,,,,,2024-03-01,1,,,,,グッドワン,0
1431,7020001156031,新規,0,2024-03-01,2024-03-01,株式会社テックトレック,,株式会社,神奈川県,川崎市川崎区,宮本町６－１２ＧＳ川崎ビル２階,,14,131,2100004,,,,,,,2024-03-01,1,,,,,テックトレック,0
1435,7020003025639,新規,0,2024-03-01,2024-03-01,Ａｖａｔｉｍｉｋ合同会社,,合同会社,神奈川県,横浜市港南区,日野２丁目２８番１１号,,14,111,2340051,,,,,,,2024-03-01,1,,,,,アバティミック,0
1437,7021001081599,新規,0,2024-03-01,2024-03-01,株式会社ＳＡＮＳＨＯＵ,,株式会社,神奈川県,横須賀市,武１丁目８番１５－４号,,14,201,2380313,,,,,,,2024-03-01,1,,,,,サンショウ,0
1439,7021003014202,新規,0,2024-03-01,2024-03-01,ＭＩＮＡＴＯ合同会社,,合同会社,神奈川県,茅ヶ崎市,菱沼海岸１番４０－１号,,14,207,2530037,,,,,,,2024-03-01,1,,,,,ミナト,0
1444,7030001158968,新規,0,2024-03-01,2024-03-01,ＭＩＴＳＵ　ＲＡＫＵ株式会社,,株式会社,埼玉県,川口市,大字芝７０２６－１－１０５室,,11,203,3330866,,,,,,,2024-03-01,1,,,,,ミツラク,0
1445,7030001158976,新規,0,2024-03-01,2024-03-01,株式会社ステップアップ,,株式会社,埼玉県,川口市,芝富士１丁目１５番３１号,,11,203,3330854,,,,,,,2024-03-01,1,,,,,ステップアップ,0
1450,7030003023732,新規,0,2024-03-01,2024-03-01,合同会社ＳｍａｒｔＣｒｅａｔｅ,,合同会社,埼玉県,さいたま市西区,大字内野本郷４２７番地６,,11,101,3310045,,,,,,,2024-03-01,1,,,,,スマートクリエイト,0
1453,7040003024440,新規,0,2024-03-01,2024-03-01,合同会社Ｉ‐Ｓｔｙｌｅ,,合同会社,千葉県,浦安市,高洲１丁目１番２９－５０１号,,12,227,2790023,,,,,,,2024-03-01,1,,,,,アイスタイル,0
1458,7060003004928,新規,0,2024-03-01,2024-03-01,栃木商会合同会社,,合同会社,栃木県,足利市,今福町２９８番１サンシティビルＧＲ１,,09,202,3260842,,,,,,,2024-03-01,1,,,,,トチギショウカイ,0
1459,7060003004936,新規,0,2024-03-01,2024-03-01,ＮＩＳＳＡＮＫＡ　ＥＮＴＥＲＰＲＩＳＥＳ合同会社,,合同会社,栃木県,小山市,大字東黒田１９６番地９,,09,208,3290204,,,,,,,2024-03-01,1,,,,,ニッサンカエンタープライゼス,0
1460,7070003005297,新規,0,2024-03-01,2024-03-01,合同会社Ｖｏｙａｇｅ　Ｖｉｌｌａｇｅ,,合同会社,群馬県,利根郡昭和村,大字川額３７１６番地５４７,,10,448,3791205,,,,,,,2024-03-01,1,,,,,ボヤージュヴィレッジ,0
1463,7080403004963,新規,0,2024-03-01,2024-03-01,合同会社ＰＬＵＣＫ,,合同会社,静岡県,磐田市,二之宮東１２－９ｍｉｅｌｅ１０２,,22,211,4380073,,,,,,,2024-03-01,1,,,,,プラック,0
1464,7090001018571,新規,0,2024-03-01,2024-03-01,株式会社ＫＳＢ,,株式会社,山梨県,甲府市,上石田１丁目１２番１３号,,19,201,4000041,,,,,,,2024-03-01,1,,,,,ケイエスビー,0
1474,7110005017055,新規,0,2024-03-01,2024-03-01,一般社団法人Ｃｏｌｌｅｃｔｉｖｅ　Ｃｏｍｍｕｎｉｔｙ,,その他の設立登記法人,新潟県,十日町市,蓬平３７１,,15,210,9421544,,,,,,,2024-03-01,1,,,,,コレクティブコミュニティ,0
1483,7120001262678,新規,0,2024-03-01,2024-03-01,株式会社ｒｅＡホールディングス,,株式会社,大阪府,大阪市中央区,備後町３丁目１番２号,,27,128,5410051,,,,,,,2024-03-01,1,,,,,レアホールディングス,0
1484,7120001262703,新規,0,2024-03-01,2024-03-01,株式会社ブックヒルズ,,株式会社,大阪府,大阪市北区,梅田１丁目１－３大阪駅前第３ビル２９階１－１－１号室,,27,127,5300001,,,,,,,2024-03-01,1,,,,,ブックヒルズ,0
1485,7120001262711,新規,0,2024-03-01,2024-03-01,株式会社ＧＢＧ　Ｔｅｃｈｎｏｌｏｇｙ　Ｊａｐａｎ,,株式会社,大阪府,大阪市北区,梅田１丁目１－３大阪駅前第３ビル２９階１－１－１号室,,27,127,5300001,,,,,,,2024-03-01,1,,,,,ジイビイジイテクノロジージャパン,0
1486,7120001262752,新規,0,2024-03-01,2024-03-01,株式会社Ｔｒｕｓｔ　Ｓｅｒｖｉｃｅ,,株式会社,大阪府,大阪市西淀川区,千舟２丁目４番１１号チェリービルＩＩ４－Ａ,00133915,27,113,5550013,,,,,,,2024-03-01,1,,,,,トラストサービス,0
1487,7120001262769,新規,0,2024-03-01,2024-03-01,株式会社ＭＡＤ　ＦＩＬＭ　ＥＮＴ,,株式会社,大阪府,大阪市住吉区,南住吉２丁目２２番７号,,27,120,5580041,,,,,,,2024-03-01,1,,,,,マッドフィルムエンターテイメント,0
1488,7120001262785,新規,0,2024-03-01,2024-03-01,株式会社ｎａｖ,,株式会社,大阪府,大阪市北区,梅田１丁目２番２号大阪駅前第２ビル１２－１２,,27,127,5300001,,,,,,,2024-03-01,1,,,,,ナヴ,0
1489,7120001262827,新規,0,2024-03-01,2024-03-01,株式会社ＪＦソリューションズ,,株式会社,大阪府,大阪市北区,梅田１丁目１－３大阪駅前第３ビル２９階１－１－１号室,,27,127,5300001,,,,,,,2024-03-01,1,,,,,ジェイエフソリューションズ,0
1490,7120003026032,新規,0,2024-03-01,2024-03-01,プライムウェルス合同会社,,合同会社,大阪府,大阪市北区,梅田１丁目１番３号大阪駅前第３ビル２９階１－１－１号室,,27,127,5300001,,,,,,,2024-03-01,1,,,,,プライムウェルス,0
1491,7120003026057,新規,0,2024-03-01,2024-03-01,Ｒｅｐｏｓ合同会社,,合同会社,大阪府,大阪市東淀川区,東淡路１丁目８番２７号,,27,114,5330023,,,,,,,2024-03-01,1,,,,,ルポ,0
1501,7130003009341,新規,0,2024-03-01,2024-03-01,ＨＲ　Ｉｎｔｅｌｌｉｇｅｎｃｅ合同会社,,合同会社,京都府,京都市下京区,仏光寺通烏丸東入上柳町３３１番地タカノハスクエア４階,,26,106,6008099,,,,,,,2024-03-01,1,,,,,エイチアールインテリジェンス,0
1502,7130005017020,新規,0,2024-03-01,2024-03-01,特定非営利活動法人外国人女性の会パルヨン,,その他の設立登記法人,京都府,京都市東山区,三条通大橋東入二丁目下る巽町４４２番地の９東山いきいき市民活動センター内,,26,105,6050000,,,,,,,2024-03-01,1,,,,,ガイコクジンジョセイノカイパルヨン,0
1510,7140005026953,新規,0,2024-03-01,2024-03-01,ＮＰＯ法人Ｇｅｎｅｒａｔｉｏｎ　Ｆｕｓｉｏｎ,,その他の設立登記法人,兵庫県,尼崎市,杭瀬本町３丁目３番５６－４０２号,,28,202,6600814,,,,,,,2024-03-01,1,,,,,ジェネレーションフュージョン,0
1511,7150001027070,新規,0,2024-03-01,2024-03-01,株式会社ＡｎｙＷａｒｅ,,株式会社,奈良県,大和高田市,礒野北町１２－５,,29,202,6350094,,,,,,,2024-03-01,1,,,,,エニーウェア,0
1512,7150005009560,新規,0,2024-03-01,2024-03-01,一般社団法人西響会,,その他の設立登記法人,奈良県,奈良市,宝来１丁目８番１号,,29,201,6310845,,,,,,,2024-03-01,1,,,,,サイキョウカイ,0
1513,7160001025718,新規,0,2024-03-01,2024-03-01,株式会社ルブセカンド,,株式会社,滋賀県,守山市,笠原町８６９番地２２,,25,207,5240004,,,,,,,2024-03-01,1,,,,,ルブセカンド,0
1516,7180001160331,新規,0,2024-03-01,2024-03-01,日高株式会社,00133920,株式会社,愛知県,名古屋市名東区,梅森坂西１丁目８０１番地の１４６,,23,115,4650066,,,,,,,2024-03-01,1,,,,,ヒダカ,0
1517,7180001160364,新規,0,2024-03-01,2024-03-01,源流ロジ株式会社,,株式会社,愛知県,名古屋市港区,大西３丁目５０番地の１,,23,111,4550861,,,,,,,2024-03-01,1,,,,,ゲンリュウロジ,0
1518,7180001160389,新規,0,2024-03-01,2024-03-01,株式会社ＮＲＫ,,株式会社,愛知県,名古屋市中川区,山王３丁目１６番１２号,,23,110,4540011,,,,,,,2024-03-01,1,,,,,エヌアールケー,0
1525,7190001031143,新規,0,2024-03-01,2024-03-01,株式会社シェアライト出版,,株式会社,三重県,津市,藤方１５２７番地５,,24,201,5140815,,,,,,,2024-03-01,1,,,,,シェアライトシュッパン,0
1531,7240003006559,新規,0,2024-03-01,2024-03-01,合同会社Ｓｈｉｍｏｋｅｎ,,合同会社,広島県,廿日市市,上平良１６２－１,,34,213,7380026,,,,,,,2024-03-01,1,,,,,シモケン,0
1539,7290003015010,新規,0,2024-03-01,2024-03-01,合同会社ＨＫＴ９１０,,合同会社,福岡県,福岡市南区,柏原６丁目６２番１３号,,40,134,8111353,,,,,,,2024-03-01,1,,,,,エイチケイティキュウイチゼロ,0
1541,7300003002080,新規,0,2024-03-01,2024-03-01,合同会社西九州エナジー,,合同会社,佐賀県,鳥栖市,本通町２丁目１０３７番地１ＭＪＲ鳥栖弐番館２０９１,,41,203,8410033,,,,,,,2024-03-01,1,,,,,ニシキュウシュウエナジー,0
1544,7310005008744,新規,0,2024-03-01,2024-03-01,医療法人福郎会,,その他の設立登記法人,長崎県,西彼杵郡長与町,高田郷８番地２,,42,307,8512127,,,,,,,2024-03-01,1,,,,,フクロウカイ,0
1549,7340001026318,新規,0,2024-03-01,2024-03-01,株式会社ＬＩＦＥ,,株式会社,鹿児島県,薩摩川内市,宮崎町２０６１番地８,,46,215,8950013,,,,,,,2024-03-01,1,,,,,ライフ,0
1553,7360001033279,新規,0,2024-03-01,2024-03-01,株式会社ｗｏｒｋ匠,,株式会社,沖縄県,名護市,字辺野古２０３番地３,,47,209,9052171,,,,,,,2024-03-01,1,,,,,ワークタクミ,0
1558,7370003006496,新規,0,2024-03-01,2024-03-01,合同会社Ｓｔｒａｄａ,,合同会社,宮城県,仙台市青葉区,錦ケ丘４丁目２４番地の１０,,04,101,9893123,,,,,,,2024-03-01,1,,,,,ストラーダ,0
1582,7480001012403,新規,0,2024-03-01,2024-03-01,株式会社トレードタウン,,株式会社,徳島県,徳島市,北田宮４丁目４番１６号,,36,201,7700003,,,,,,,2024-03-01,1,,,,,トレードタウン,0
1594,8010005037921,新規,0,2024-03-01,2024-03-01,ラ・レジダンス・ド・京橋管理組合法人,,その他の設立登記法人,東京都,中央区,京橋１丁目１番５号,,13,102,1040031,,,,,,,2024-03-01,1,,,,,ラレジダンスドキョウバシ,0
1595,8010005037970,新規,0,2024-03-01,2024-03-01,広尾一般社団法人,,その他の設立登記法人,東京都,千代田区,神田小川町３丁目２６番８号神田小川町三丁目ビル６階,,13,101,1010052,,,,,,,2024-03-01,1,,,,,ヒロオ,0
1597,8010401180663,新規,0,2024-03-01,2024-03-01,ＺＥＦＩＲＯ　ＪＡＰＡＮ株式会社,,株式会社,東京都,港区,南青山１丁目１番１号新青山ビル東館７階,,13,103,1070062,,,,,,,2024-03-01,1,,,,,ゼフィロジャパン,0
1598,8010401180762,新規,0,2024-03-01,2024-03-01,株式会社Ｚｉｎｇｔｈ,,株式会社,東京都,港区,南青山３丁目１－３６青山丸竹ビル６Ｆ,,13,103,1070062,,,,,,,2024-03-01,1,,,,,ジングス,0
1613,8010901054788,新規,0,2024-03-01,2024-03-01,株式会社ＫＲＡＦＴ,,株式会社,東京都,世田谷区,北沢２丁目１１番１５号ミカン下北Ａ街区４階,,13,112,1550031,,,,,,,2024-03-01,1,,,,,クラフト,0
1614,8010901054796,新規,0,2024-03-01,2024-03-01,株式会社レソラ,,株式会社,東京都,世田谷区,新町３丁目２２番１０－４０１号,,13,112,1540014,,,,,,,2024-03-01,1,,,,,レソラ,0
1616,8010903008866,新規,0,2024-03-01,2024-03-01,合同会社Ｌｉｎｏ,,合同会社,東京都,世田谷区,赤堤２丁目９番１５号,,13,112,1560044,,,,,,,2024-03-01,1,,,,,リノ,0
1627,8011001160139,新規,0,2024-03-01,2024-03-01,株式会社ＭＥＤＩＡ　ＴＲＵＮＫ,,株式会社,東京都,渋谷区,神宮前６丁目２３－４桑野ビル２階,,13,113,1500001,,,,,,,2024-03-01,1,,,,,メディアトランク,0
1628,8011001160320,新規,0,2024-03-01,2024-03-01,ＡＩｗａｎｔ株式会社,,株式会社,東京都,渋谷区,円山町５番５号Ｎａｖｉ渋谷Ｖ３階,,13,113,1500044,,,,,,,2024-03-01,1,,,,,アイウォント,0
1629,8011001160345,新規,0,2024-03-01,2024-03-01,株式会社ＡＫＫ,,株式会社,東京都,目黒区,東山２丁目２０番１－７０９号,,13,110,1530043,,,,,,,2024-03-01,1,,,,,エーケイケイ,0
1630,8011003018574,新規,0,2024-03-01,2024-03-01,合同会社Ｎｏｉｒ,,合同会社,東京都,目黒区,下目黒１丁目１－１４コトノラビル７Ｆ,,13,110,1530064,,,,,,,2024-03-01,1,,,,,ノワール,0
1633,8011101106371,新規,0,2024-03-01,2024-03-01,億城株式会社,,株式会社,東京都,新宿区,大久保２丁目２０番１８号Ａ棟,,13,104,1690072,,,,,,,2024-03-01,1,,,,,オクシロ,0
1636,8011301029455,新規,0,2024-03-01,2024-03-01,株式会社エムズ,,株式会社,東京都,杉並区,方南１丁目３０番６－４０３号ヴェルト杉並サウスヒル,,13,115,1680062,,,,,,,2024-03-01,1,,,,,エムズ,0
1640,8011501030386,新規,0,2024-03-01,2024-03-01,ストルツメディカル・ジャパン株式会社,,株式会社,東京都,北区,上中里１丁目３７番１５号,,13,117,1140016,,,,,,,2024-03-01,1,,,,,ストルツメディカルジャパン,0
1642,8011801043856,新規,0,2024-03-01,2024-03-01,株式会社遠威,,株式会社,東京都,葛飾区,東金町２丁目１８－１まるますマンション４階４０７号室,,13,122,1250041,,,,,,,2024-03-01,1,,,,,エンイ,0
1649,8012803003328,新規,0,2024-03-01,2024-03-01,合同会社わたしの,,合同会社,東京都,立川市,若葉町１丁目１２－４,,13,202,1900001,,,,,,,2024-03-01,1,,,,,ワタシノ,0
1651,8013303007026,新規,0,2024-03-01,2024-03-01,合同会社ＴＩＧ,,合同会社,東京都,豊島区,東池袋２丁目３８番４号シティタワー池袋１９０５号室,,13,116,1700013,,,,,,,2024-03-01,1,,,,,ティーアイジー,0
1652,8013305003576,新規,0,2024-03-01,2024-03-01,一般社団法人ＫアンドＹ,,その他の設立登記法人,東京都,豊島区,目白２丁目１６番１０－３０５号,,13,116,1710031,,,,,,,2024-03-01,1,,,,,ケーアンドワイ,0
1657,8020001156022,新規,0,2024-03-01,2024-03-01,サンランド株式会社,,株式会社,神奈川県,横浜市栄区,笠間３丁目１２番１２号,,14,115,2470006,,,,,,,2024-03-01,1,,,,,サンランド,0
1658,8020001156047,新規,0,2024-03-01,2024-03-01,パンセ株式会社,,株式会社,神奈川県,横浜市南区,平楽９１番地２,,14,105,2320035,,,,,,,2024-03-01,1,,,,,パンセ,0
1660,8020003025646,新規,0,2024-03-01,2024-03-01,合同会社ＳＴコンサルティング,,合同会社,神奈川県,横浜市神奈川区,松本町１丁目２番３号第２カヤギヤビル１Ｆ,,14,102,2210841,,,,,,,2024-03-01,1,,,,,,0
1663,8021001081581,新規,0,2024-03-01,2024-03-01,株式会社Ｎｕｍｅｒｏ　ｕｎｏ,,株式会社,神奈川県,相模原市中央区,氷川町８番１０－５０２号,,14,152,2520215,,,,,,,2024-03-01,1,,,,,ヌメロウーノ,0
1666,8030001158934,新規,0,2024-03-01,2024-03-01,古美術東郷堂株式会社,,株式会社,埼玉県,さいたま市南区,文蔵３丁目３８番１号,,11,108,3360025,,,,,,,2024-03-01,1,,,,,コビジュツトウゴウドウ,0
1667,8030001158950,新規,0,2024-03-01,2024-03-01,株式会社リードベッツ,,株式会社,埼玉県,狭山市,中央４丁目２４番４号,,11,215,3501308,,,,,,,2024-03-01,1,,,,,リードベッツ,0
1668,8030001158975,新規,0,2024-03-01,2024-03-01,株式会社ザナ,,株式会社,埼玉県,さいたま市緑区,大字大間木３９８番地１８,,11,109,3360923,,,,,,,2024-03-01,1,,,,,ザナ,0
1679,8040001132459,新規,0,2024-03-01,2024-03-01,株式会社コイデ商会,,株式会社,千葉県,八千代市,勝田台６丁目２１番地３,,12,221,2760023,,,,,,,2024-03-01,1,,,,,コイデショウカイ,0
1682,8040003024381,新規,0,2024-03-01,2024-03-01,合同会社Ｍｉｙａｂｉ,,合同会社,千葉県,千葉市若葉区,桜木６丁目１５番２１号桜木ビル２０１,,12,104,2640028,,,,,,,2024-03-01,1,,,,,ミヤビ,0
1683,8050001054355,新規,0,2024-03-01,2024-03-01,株式会社ＴＧＭエンタープライズ,,株式会社,茨城県,水戸市,酒門町３２８８番地の２,,08,201,3100841,,,,,,,2024-03-01,1,,,,,ティージーエムエンタープライズ,0
1696,8100005013129,新規,0,2024-03-01,2024-03-01,医療法人かみじょうリハビリ整形外科クリニック,,その他の設立登記法人,長野県,長野市,徳間１丁目２７番４号,,20,201,3810041,,,,,,,2024-03-01,1,,,,,カミジョウリハビリセイケイゲカクリニック,0
1697,8110003005309,新規,0,2024-03-01,2024-03-01,日本ＩＢ合同会社,,合同会社,新潟県,新潟市中央区,網川原２丁目３１番１６号,,15,103,9500964,,,,,,,2024-03-01,1,,,,,ニッポンアイビー,0
1710,8120001262719,新規,0,2024-03-01,2024-03-01,株式会社レガ,,株式会社,大阪府,大阪市都島区,都島本通３丁目２５番７－２１８号,,27,102,5340021,,,,,,,2024-03-01,1,,,,,レガ,0
1711,8120001262751,新規,0,2024-03-01,2024-03-01,株式会社守正,,株式会社,大阪府,大阪市住之江区,粉浜西３丁目７番１７号,,27,125,5590007,,,,,,,2024-03-01,1,,,,,モリマサ,0
1712,8120001262768,新規,0,2024-03-01,2024-03-01,今外株式会社,,株式会社,大阪府,大阪市北区,天満橋１丁目４番１４号天満橋ビル３０５号室,,27,127,5300042,,,,,,,2024-03-01,1,,,,,コンガイ,0
1713,8120001262834,新規,0,2024-03-01,2024-03-01,株式会社聖美,,株式会社,大阪府,守口市,金田町５丁目２３番９号,,27,209,5700011,,,,,,,2024-03-01,1,,,,,サトミ,0
1717,8120003026031,新規,0,2024-03-01,2024-03-01,合同会社ＺＯＮＥ．Ｃ,,合同会社,大阪府,大阪市浪速区,桜川４丁目１２番２６号８１２号室,,27,111,5560022,,,,,,,2024-03-01,1,,,,,ゾーンシー,0
1718,8120003026048,新規,0,2024-03-01,2024-03-01,ホームメンテナンス合同会社,,合同会社,大阪府,大阪市北区,梅田１丁目２番２号大阪駅前第２ビル１２－１２,,27,127,5300001,,,,,,,2024-03-01,1,,,,,ホームメンテナンス,0
1731,8130001076465,新規,0,2024-03-01,2024-03-01,株式会社出雲路対比社,,株式会社,京都府,京都市中京区,西洞院通錦小路上る古西町４３６番地,,26,104,6048227,,,,,,,2024-03-01,1,,,,,イズモジタイヒシャ,0
1732,8130001076473,新規,0,2024-03-01,2024-03-01,株式会社カストディアン,,株式会社,京都府,京都市東山区,豊浦町３４３番アンジェリック１０２号室,,26,105,6050905,,,,,,,2024-03-01,1,,,,,カストディアン,0
1738,8140001133414,新規,0,2024-03-01,2024-03-01,株式会社パラダイス,,株式会社,兵庫県,神戸市中央区,京町７８番地三宮京町ビル３階,,28,110,6500034,,,,,,,2024-03-01,1,,,,,パラダイス,0
1740,8140003020214,新規,0,2024-03-01,2024-03-01,ＴＮＴ合同会社,,合同会社,兵庫県,神戸市兵庫区,西上橘通２丁目８－３高田屋アパート１,00133914,28,105,6520033,,,,,,,2024-03-01,1,,,,,ティエヌティ,0
1742,8160001025717,新規,0,2024-03-01,2024-03-01,富士芳見商事株式会社,,株式会社,滋賀県,大津市,坂本８丁目１５番１１号,,25,201,5200113,,,,,,,2024-03-01,1,,,,,フジヨシミショウジ,0
1748,8180001160339,新規,0,2024-03-01,2024-03-01,株式会社ＬＨＧ,,株式会社,愛知県,名古屋市中区,丸の内２丁目１６番４号チサンマンション丸の内第６・７０７号室,,23,106,4600002,,,,,,,2024-03-01,1,,,,,エルエイチジー,0
1749,8180001160347,新規,0,2024-03-01,2024-03-01,シマグリ株式会社,,株式会社,愛知県,小牧市,光ケ丘１丁目１番地アクシス光ケ丘１号棟４０８号,,23,219,4850811,,,,,,,2024-03-01,1,,,,,シマグリ,0
1750,8180001160363,新規,0,2024-03-01,2024-03-01,株式会社アドミコート,,株式会社,愛知県,半田市,南大矢知町２丁目１４番地の３,,23,205,4750006,,,,,,,2024-03-01,1,,,,,アドミコート,0
1765,8240001062859,新規,0,2024-03-01,2024-03-01,株式会社クライス,,株式会社,広島県,福山市,大谷台２丁目１番２３号,,34,207,7210914,,,,,,,2024-03-01,1,,,,,クライス,0
1767,8250003003447,新規,0,2024-03-01,2024-03-01,春福合同会社,,合同会社,山口県,岩国市,南岩国町１丁目７番１０－３０６号,,35,208,7400034,,,,,,,2024-03-01,1,,,,,ハルフク,0
1768,8260001038790,新規,0,2024-03-01,2024-03-01,株式会社ＴＫＧｐｌｕｓ,,株式会社,岡山県,玉野市,胸上１０９８－１,,33,204,7060305,,,,,,,2024-03-01,1,,,,,ティーケージープラス,0
1775,8290001104838,新規,0,2024-03-01,2024-03-01,ＡＰＯＪＡＰＡＮ株式会社,,株式会社,福岡県,福岡市南区,警弥郷２丁目１２番２３号,,40,134,8111324,,,,,,,2024-03-01,1,,,,,アポジャパン,0
1779,8330001031805,新規,0,2024-03-01,2024-03-01,株式会社ＢＯＸ　Ｆａｃｔｏｒｙ,,株式会社,熊本県,熊本市東区,月出５丁目１番１５６号,,43,102,8620920,,,,,,,2024-03-01,1,,,,,ボックスファクトリー,0
1783,8360001033278,新規,0,2024-03-01,2024-03-01,株式会社ＴＷＯ　ＲＥＡＬＩＺＥ,,株式会社,沖縄県,中頭郡北谷町,字砂辺２４７番地４２,,47,326,9040111,,,,,,,2024-03-01,1,,,,,トゥーリアライズ,0
1784,8360003013740,新規,0,2024-03-01,2024-03-01,國知不動合同会社,,合同会社,沖縄県,島尻郡与那原町,字板良敷３７０番地知念アパート１０３号,,47,348,9011301,,,,,,,2024-03-01,1,,,,,コクチフドウ,0
1785,8370001050982,新規,0,2024-03-01,2024-03-01,株式会社ズバット,,株式会社,宮城県,仙台市宮城野区,宮城野２丁目７番２６－４０３号,,04,102,9830045,,,,,,,2024-03-01,1,,,,,ズバット,0
1788,8380003005694,新規,0,2024-03-01,2024-03-01,合同会社グリーンライフエイド,,合同会社,福島県,福島市,渡利字絵馬平８９番地の８,,07,201,9608141,,,,,,,2024-03-01,1,,,,,グリーンライフエイド,0
1799,8430003015952,新規,0,2024-03-01,2024-03-01,合同会社ａＦｒｏｎｔｉｅｒ,,合同会社,北海道,札幌市西区,平和三条４丁目１‐１９,,01,107,0630023,,,,,,,2024-03-01,1,,,,,アルファフロンティア,0
1800,8430005014903,新規,0,2024-03-01,2024-03-01,農事組合法人エナジーサポート,,その他の設立登記法人,北海道,札幌市中央区,北三条西３０丁目１－１６ブローニュ宮の森３０１,,01,101,0640823,,,,,,,2024-03-01,1,,,,,エナジーサポート,0
1801,8470003002591,新規,0,2024-03-01,2024-03-01,合同会社とんとん,,合同会社,香川県,高松市,栗林町１丁目２番８－７０１号,,37,201,7600073,,,,,,,2024-03-01,1,,,,,トントン,0
1803,8480001012402,新規,0,2024-03-01,2024-03-01,浩揚株式会社,,株式会社,徳島県,阿波市,土成町水田字月成６２番地１－Ａ,,36,206,7711502,,,,,,,2024-03-01,1,,,,,コウヨウ,0
1813,9010001242598,新規,0,2024-03-01,2024-03-01,株式会社Ｃａｔ　Ｈｅａｌｔｈ,,株式会社,東京都,中央区,銀座１丁目２２番１１号銀座大竹ビジデンス２Ｆ,,13,102,1040061,,,,,,,2024-03-01,1,,,,,キャットヘルス,0
1814,9010001242722,新規,0,2024-03-01,2024-03-01,株式会社ＭＩＣＨＩ,,株式会社,東京都,中央区,銀座１丁目１２－４Ｎ＆ＥＢＬＤ．７階,,13,102,1040061,,,,,,,2024-03-01,1,,,,,ミチ,0
1816,9010003043111,新規,0,2024-03-01,2024-03-01,合同会社つむぎ舎,,合同会社,東京都,中央区,銀座１丁目１２番４号,,13,102,1040061,,,,,,,2024-03-01,1,,,,,ツムギシャ,0
1821,9010005037920,新規,0,2024-03-01,2024-03-01,メゾン・ド・パルファン管理組合法人,,その他の設立登記法人,東京都,中央区,京橋１丁目１番５号,,13,102,1040031,,,,,,,2024-03-01,1,,,,,メゾンドパルファン,0
1826,9010401180646,新規,0,2024-03-01,2024-03-01,株式会社ＧＩＳＥＬＥ,,株式会社,東京都,港区,南青山３丁目１７番１５号,,13,103,1070062,,,,,,,2024-03-01,1,,,,,ジゼル,0
1827,9010401180745,新規,0,2024-03-01,2024-03-01,株式会社ロコシロ,,株式会社,東京都,港区,浜松町２丁目２番１５号浜松町ダイヤビル２Ｆ,,13,103,1050013,,,,,,,2024-03-01,1,,,,,ロコシロ,0
1828,9010401180753,新規,0,2024-03-01,2024-03-01,株式会社アジャイルテックソリューションズ,,株式会社,東京都,港区,芝４丁目１０番５号,,13,103,1080014,,,,,,,2024-03-01,1,,,,,アジャイルテックソリューションズ,0
1832,9010501051846,新規,0,2024-03-01,2024-03-01,東海国際株式会社,,株式会社,東京都,台東区,台東２丁目３１－１０－１０１号室,,13,106,1100016,,,,,,,2024-03-01,1,,,,,トウカイコクサイ,0
1833,9010503007359,新規,0,2024-03-01,2024-03-01,合同会社ミックス,,合同会社,東京都,台東区,上野３丁目１４番２号ＵｅｎｏＹｏｕｒ２ｎｄ３１６号,,13,106,1100005,,,,,,,2024-03-01,1,,,,,ミックス,0
1835,9010601064723,新規,0,2024-03-01,2024-03-01,株式会社オリクック,,株式会社,東京都,江東区,北砂６丁目１９番２１号,,13,108,1360073,,,,,,,2024-03-01,1,,,,,オリクック,0
1839,9010703007068,新規,0,2024-03-01,2024-03-01,Ｆｉｌｌａｐコンサルティング・アンド・デジタル合同会社,,合同会社,東京都,品川区,大崎２丁目１１番２－１２０６号,,13,109,1410032,,,,,,,2024-03-01,1,,,,,フィラップコンサルティングアンドデジタル,0
1847,9011001160344,新規,0,2024-03-01,2024-03-01,株式会社ケイティーシステム,,株式会社,東京都,目黒区,下目黒１丁目１番１４号コノトラビル７Ｆ,,13,110,1530064,,,,,,,2024-03-01,1,,,,,ケイティーシステム,0
1848,9011003018607,新規,0,2024-03-01,2024-03-01,ＷＥＢＭＡＳＴＲＩＰＥ合同会社,,合同会社,東京都,渋谷区,神宮前６丁目２３番４号桑野ビル２階,,13,113,1500001,,,,,,,2024-03-01,1,,,,,ウェブマストライプ,0
1849,9011005010314,新規,0,2024-03-01,2024-03-01,一般社団法人Ｔｅｒｒａ,,その他の設立登記法人,東京都,目黒区,目黒本町３丁目７番１７号,,13,110,1520002,,,,,,,2024-03-01,1,,,,,テラ,0
1851,9011101106379,新規,0,2024-03-01,2024-03-01,株式会社Ｆｕｎｎｙｅｐｏｃｈ,,株式会社,東京都,新宿区,西新宿７丁目５番５号Ｐｌａｚａ西新宿ＵＣＦ４階,,13,104,1600023,,,,,,,2024-03-01,1,,,,,ファニーエポック,0
1854,9011501030393,新規,0,2024-03-01,2024-03-01,株式会社駒込区,,株式会社,東京都,北区,中里１丁目１５番２号,,13,117,1140015,,,,,,,2024-03-01,1,,,,,コマゴメク,0
1863,9020001155980,新規,0,2024-03-01,2024-03-01,Ｒ＆Ｔ株式会社,,株式会社,神奈川県,横浜市金沢区,六浦南５丁目１１－６－３０７,,14,108,2360038,,,,,,,2024-03-01,1,,,,,アールアンドティー,0
1864,9020001156013,新規,0,2024-03-01,2024-03-01,株式会社たまきホールディングス,,株式会社,神奈川県,横浜市南区,山王町３丁目２４番地８港横浜ビル７階,,14,105,2320013,,,,,,,2024-03-01,1,,,,,タマキホールディングス,0
1865,9020001156021,新規,0,2024-03-01,2024-03-01,株式会社ＴＲサービス,,株式会社,神奈川県,横浜市南区,大岡４丁目８番２号ニッポーハイツ３０１号,,14,105,2320061,,,,,,,2024-03-01,1,,,,,,0
1866,9020001156046,新規,0,2024-03-01,2024-03-01,株式会社ＥＮＴＲＵＳＴ,,株式会社,神奈川県,横浜市神奈川区,金港町５－１４クアドリフォリオ８階,,14,102,2210056,,,,,,,2024-03-01,1,,,,,エントラスト,0
1868,9020003025629,新規,0,2024-03-01,2024-03-01,ジェーディーエムカーワールド合同会社,,合同会社,神奈川県,横浜市瀬谷区,瀬谷町５８１２番地細谷戸ハイツ２街区２棟３１０号,,14,114,2460003,,,,,,,2024-03-01,1,,,,,ジェーディーエムカーワールド,0
1869,9020003025645,新規,0,2024-03-01,2024-03-01,Ｋｅｌｉ合同会社,,合同会社,神奈川県,川崎市中原区,中丸子１３５番地２アールスタイルズ武蔵小杉小杉イースト６０７,,14,133,2110012,,,,,,,2024-03-01,1,,,,,ケリ,0
1873,9021003014217,新規,0,2024-03-01,2024-03-01,合同会社ｍｅｗ,,合同会社,神奈川県,鎌倉市,大町２丁目８番１０－３０２号,,14,204,2480007,,,,,,,2024-03-01,1,,,,,ミュー,0
1879,9030001158966,新規,0,2024-03-01,2024-03-01,Ｌ・Ｇ株式会社,,株式会社,埼玉県,川口市,西川口１丁目３０番２０－１１２号,,11,203,3320021,,,,,,,2024-03-01,1,,,,,エルジー,0
1884,9030005021567,新規,0,2024-03-01,2024-03-01,一般社団法人行屋稲荷大明神を祀る会,,その他の設立登記法人,埼玉県,志木市,柏町６丁目２９番４５号,,11,228,3530007,,,,,,,2024-03-01,1,,,,,ギョウヤイナリダイミョウジンヲマツルカイ,0
1888,9040001132276,新規,0,2024-03-01,2024-03-01,株式会社Ｒ＆ＡＴ　Ｃｏｎｓｕｌｔｉｎｇ,,株式会社,千葉県,市川市,南大野２丁目４番Ｂ棟３０２号,,12,203,2720804,,,,,,,2024-03-01,1,,,,,アールアンドエーティーコンサルティング,0
1889,9040001132458,新規,0,2024-03-01,2024-03-01,株式会社ＩＴＦ,,株式会社,千葉県,千葉市中央区,港町１２番１１号,,12,101,2600831,,,,,,,2024-03-01,1,,,,,,0
1891,9040003024447,新規,0,2024-03-01,2024-03-01,合同会社ＬｅａｒｎＫ,,合同会社,千葉県,松戸市,小金原５丁目１６番地の１３,,12,207,2700021,,,,,,,2024-03-01,1,,,,,ラーンケイ,0
1897,9060001036863,新規,0,2024-03-01,2024-03-01,株式会社Ｔｏｋｙｏ　Ｔｒａｄｉｎｇ,,株式会社,栃木県,栃木市,大平町富田２３７３－１,,09,203,3294404,,,,,,,2024-03-01,1,,,,,トーキョートレーディング,0
1907,9100001037238,新規,0,2024-03-01,2024-03-01,株式会社ｂａｏｂａｂ,,株式会社,長野県,北佐久郡軽井沢町,大字長倉８２０番地３５,,20,321,3890111,,,,,,,2024-03-01,1,,,,,バオバブ,0
1921,9120001262593,新規,0,2024-03-01,2024-03-01,株式会社セルフカート,,株式会社,大阪府,大阪市東住吉区,杭全３丁目３番２１号,,27,121,5460002,,,,,,,2024-03-01,1,,,,,セルフカート,0
1922,9120001262750,新規,0,2024-03-01,2024-03-01,株式会社ａｎｄ　Ｒｉｔａ,,株式会社,大阪府,大阪市北区,梅田２丁目４番３４号産光西梅田ビル６０１号室,,27,127,5300001,,,,,,,2024-03-01,1,,,,,アンドリタ,0
1923,9120001262759,新規,0,2024-03-01,2024-03-01,株式会社２‐ＦＡＣＥ,,株式会社,大阪府,大阪市北区,梅田１丁目１－３大阪駅前第３ビル２９階１－１－１号室,,27,127,5300001,,,,,,,2024-03-01,1,,,,,ツーフェイス,0
1929,9120901048828,新規,0,2024-03-01,2024-03-01,凛株式会社,,株式会社,大阪府,箕面市,小野原西６丁目２０番３号,,27,220,5620032,,,,,,,2024-03-01,1,,,,,リン,0
1930,9120901048836,新規,0,2024-03-01,2024-03-01,フジタカ建設株式会社,,株式会社,大阪府,摂津市,正雀３丁目２番６号,,27,224,5660023,,,,,,,2024-03-01,1,,,,,フジタカケンセツ,0
1936,9130001076472,新規,0,2024-03-01,2024-03-01,株式会社ビーエムエス,,株式会社,京都府,京都市下京区,佐女牛井町１５６番Ｌｅ佐女牛井２０２号室,,26,106,6008337,,,,,,,2024-03-01,1,,,,,ビーエムエス,0
1956,9160001025716,新規,0,2024-03-01,2024-03-01,株式会社奥村開発,,株式会社,滋賀県,湖南市,柑子袋２８９番地５,,25,211,5203233,,,,,,,2024-03-01,1,,,,,オクムラカイハツ,0
1957,9170001018025,新規,0,2024-03-01,2024-03-01,株式会社ＹＵＡ建設,,株式会社,和歌山県,和歌山市,土入２０１番６１,,30,201,6408432,,,,,,,2024-03-01,1,,,,,ユアケンセツ,0
1964,9180001160338,新規,0,2024-03-01,2024-03-01,株式会社ぷるめりあ,,株式会社,愛知県,名古屋市東区,東桜１丁目５番７号,,23,102,4610005,,,,,,,2024-03-01,1,,,,,プルメリア,0
1965,9180001160362,新規,0,2024-03-01,2024-03-01,株式会社メイクエイド,,株式会社,愛知県,名古屋市中村区,名駅３丁目４番１０号アルティメイト名駅１ｓｔ２階,,23,105,4500002,,,,,,,2024-03-01,1,,,,,メイクエイド,0
1970,9180003026438,新規,0,2024-03-01,2024-03-01,ＭＡＹＬＳＯＮ合同会社,,合同会社,愛知県,瀬戸市,南山町２丁目６９番地,,23,204,4890986,,,,,,,2024-03-01,1,,,,,メラサン,0
1975,9190003004599,新規,0,2024-03-01,2024-03-01,ＴＤＲ合同会社,,合同会社,三重県,伊勢市,常磐１丁目１０番１９号,,24,203,5160041,,,,,,,2024-03-01,1,,,,,ティーディーアール,0
1976,9190005011908,新規,0,2024-03-01,2024-03-01,一般社団法人Ｐｒｅｍａ,,その他の設立登記法人,三重県,鈴鹿市,江島台１丁目１１番２２号,,24,207,5100231,,,,,,,2024-03-01,1,,,,,プレマ,0
1979,9220001025841,新規,0,2024-03-01,2024-03-01,株式会社はるたいき,,株式会社,石川県,金沢市,森山１丁目２番１号２２１,,17,201,9200843,,,,,,,2024-03-01,1,,,,,ハルタイキ,0
1981,9230003002160,新規,0,2024-03-01,2024-03-01,合同会社エムケイメンテナンス,,合同会社,富山県,中新川郡立山町,前沢３５８７‐９,,16,323,9300221,,,,,,,2024-03-01,1,,,,,エムケイメンテナンス,0
1985,9250003003446,新規,0,2024-03-01,2024-03-01,合同会社リトフル,,合同会社,山口県,山口市,小郡大正町１番１号,,35,203,7540044,,,,,,,2024-03-01,1,,,,,リトフル,0
1995,9290001104861,新規,0,2024-03-01,2024-03-01,株式会社伽樹汰,,株式会社,福岡県,福岡市城南区,鳥飼６丁目３番８－１３０３号,,40,136,8140103,,,,,,,2024-03-01,1,,,,,カキタ,0
1996,9290001104886,新規,0,2024-03-01,2024-03-01,株式会社ジェイ・エフ・シィ,,株式会社,福岡県,福岡市中央区,赤坂１丁目１０番２２号ベスト赤坂門ビル５Ｆ,,40,133,8100042,,,,,,,2024-03-01,1,,,,,ジェイエフシィ,0
1997,9290003015000,新規,0,2024-03-01,2024-03-01,玄海農財通商合同会社,,合同会社,福岡県,福津市,中央５丁目６番３０号,,40,224,8113217,,,,,,,2024-03-01,1,,,,,ゲンカイノウザイツウショウ,0
2003,9330001031804,新規,0,2024-03-01,2024-03-01,株式会社興南ホールディングス,,株式会社,熊本県,水俣市,浜松町５番１２号,,43,205,8670068,,,,,,,2024-03-01,1,,,,,コウナンホールディングス,0
2004,9330003010244,新規,0,2024-03-01,2024-03-01,合同会社ライトチャンバー,,合同会社,熊本県,熊本市南区,日吉１丁目９番３－１０１号,,43,104,8614109,,,,,,,2024-03-01,1,,,,,ライトチャンバー,0
2006,9360001033277,新規,0,2024-03-01,2024-03-01,株式会社當山装會,,株式会社,沖縄県,島尻郡与那原町,字与那原２６６８番地の２,,47,348,9011303,,,,,,,2024-03-01,1,,,,,トウヤマソウカイ,0
2007,9360003013748,新規,0,2024-03-01,2024-03-01,合同会社総合整備センターヒロポンズ,,合同会社,沖縄県,中頭郡西原町,字小那覇４８９－１,,47,329,9030103,,,,,,,2024-03-01,1,,,,,ソウゴウセイビセンターヒロポンズ,0
2009,9380001034331,新規,0,2024-03-01,2024-03-01,株式会社相互ぱーとなー,,株式会社,福島県,二本松市,木ノ崎４２０番１階,,07,210,9640956,,,,,,,2024-03-01,1,,,,,ソウゴパートナー,0
2012,9390001017541,新規,0,2024-03-01,2024-03-01,株式会社ａｉ．ｔｏＹＯＵ,,株式会社,山形県,新庄市,大字松本１２６番地の１６,,06,205,9960051,,,,,,,2024-03-01,1,,,,,アイトゥーユー,0
2013,9400001016566,新規,0,2024-03-01,2024-03-01,トリプルＫ株式会社,,株式会社,岩手県,北上市,相去町下成沢５４番地８,,03,206,0240051,,,,,,,2024-03-01,1,,,,,トリプルケー,0
2017,9410003003891,新規,0,2024-03-01,2024-03-01,合同会社ＶＩＳＴＡ,,合同会社,秋田県,秋田市,仁井田本町１丁目６番３０号２階,,05,201,0101421,,,,,,,2024-03-01,1,,,,,ビスタ,0
2025,9430003016009,新規,0,2024-03-01,2024-03-01,合同会社ＩＲＥＮＫＡ,,合同会社,北海道,札幌市厚別区,厚別東四条７丁目２８番１５号,,01,108,0040004,,,,,,,2024-03-01,1,,,,,イレンカ,0
2030,9500001025482,新規,0,2024-03-01,2024-03-01,株式会社四国コスメ,,株式会社,愛媛県,今治市,古国分２丁目１０番１４号,,38,202,7991521,,,,,,,2024-03-01,1,,,,,シコクコスメ,0
