sequenceNumber,corporateNumber,process,correct,updateDate,changeDate,name,nameImageId,kind,prefectureName,cityName,streetNumber,addressImageId,prefectureCode,cityCode,postCode,addressOutside,addressOutsideImageId,closeDate,closeCause,successorCorporateNumber,changeCause,assignmentDate,latest,enName,enPrefectureName,enCityName,enAddressOutside,furigana,hihyoji
10,1010001226063,新規,0,2022-04-25,2022-04-25,株式会社ギーカーズラボ,,株式会社,東京都,千代田区,平河町１丁目６番１５号ＵＳビル８Ｆ,,13,101,1020093,,,,,,,2022-04-25,1,,,,,ギーカーズラボ,0
11,1010001226096,新規,0,2022-04-25,2022-04-25,株式会社アタラクシア,,株式会社,東京都,文京区,本駒込３丁目３９－９アミューズ本駒込１Ｆ,,13,105,1130021,,,,,,,2022-04-25,1,,,,,アタラクシア,0
14,1010003037517,新規,0,2022-04-25,2022-04-25,合同会社亀井,,合同会社,東京都,中央区,晴海３丁目１３番２－５１６号,,13,102,1040053,,,,,,,2022-04-25,1,,,,,カメイ,0
15,1010003037525,新規,0,2022-04-25,2022-04-25,合同会社ＡＤＡ,,合同会社,東京都,文京区,向丘１丁目１５番８号,,13,105,1130023,,,,,,,2022-04-25,1,,,,,エイダ,0
23,1010401166875,新規,0,2022-04-25,2022-04-25,株式会社Ｒｅｓｏｒｔ　Ｃｌｕｂ　ＮＸ,,株式会社,東京都,港区,六本木６丁目２－３１六本木ヒルズノースタワー１７Ｆ,,13,103,1060032,,,,,,,2022-04-25,1,,,,,リゾートクラブエヌエックス,0
24,1010401166941,新規,0,2022-04-25,2022-04-25,ＢｌｏｃｋＨＡＳＨ株式会社,,株式会社,東京都,港区,赤坂２丁目２１番１５号赤坂ＯＳビル３Ｆ,,13,103,1070052,,,,,,,2022-04-25,1,,,,,ブロックハッシュ,0
29,1010503006574,新規,0,2022-04-25,2022-04-25,合同会社ＴＡＫＥＯ,,合同会社,東京都,台東区,松が谷２丁目３番７号ラ・メゾン・ブリュン４０３,,13,106,1110036,,,,,,,2022-04-25,1,,,,,タケオ,0
30,1010601061034,新規,0,2022-04-25,2022-04-25,株式会社ウイズ,,株式会社,東京都,墨田区,堤通１丁目１２番１４－４０２号,,13,107,1310034,,,,,,,2022-04-25,1,,,,,ウイズ,0
39,1010903007338,新規,0,2022-04-25,2022-04-25,合同会社ＴＡＲＯ,,合同会社,東京都,世田谷区,世田谷４丁目１番１３号２Ａ,,13,112,1540017,,,,,,,2022-04-25,1,,,,,タロー,0
54,1011105010238,新規,0,2022-04-25,2022-04-25,一般社団法人ビューティーアンドザライフ協会,,その他の設立登記法人,東京都,新宿区,西新宿３丁目３番１３号西新宿水間ビル６階,,13,104,1600023,,,,,,,2022-04-25,1,,,,,ビューティーアンドザライフ,0
56,1011301027738,新規,0,2022-04-25,2022-04-25,株式会社ミクスター,,株式会社,東京都,杉並区,高井戸東３丁目２９番２０号ジオ杉並高井戸１０８,,13,115,1680072,,,,,,,2022-04-25,1,,,,,ミクスター,0
58,1011403003637,新規,0,2022-04-25,2022-04-25,Ｋ＆Ｊ合同会社,,合同会社,東京都,板橋区,南常盤台１丁目１１－６レフア南常盤台１０１号室,,13,119,1740072,,,,,,,2022-04-25,1,,,,,ケイアンドジェイ,0
59,1011501027967,新規,0,2022-04-25,2022-04-25,株式会社がんばれニッポンのアイドル,,株式会社,東京都,北区,田端２丁目１０番１２号,,13,117,1140014,,,,,,,2022-04-25,1,,,,,ガンバレニッポンノアイドル,0
60,1011501027975,新規,0,2022-04-25,2022-04-25,株式会社カナプ,,株式会社,東京都,北区,堀船２丁目２１番１－１０３,,13,117,1140004,,,,,,,2022-04-25,1,,,,,カナプ,0
65,1011601025912,新規,0,2022-04-25,2022-04-25,株式会社ｓｔｕｄｉｏＨＩＰ‐ＣＡＴＳ,,株式会社,東京都,練馬区,西大泉３丁目２０番１４号,,13,120,1780065,,,,,,,2022-04-25,1,,,,,スタジオヒップキャッツ,0
66,1011603003585,新規,0,2022-04-25,2022-04-25,合同会社セントラル企画,,合同会社,東京都,練馬区,豊玉中２丁目１１番１０号Ｋハイム２０３,,13,120,1760013,,,,,,,2022-04-25,1,,,,,セントラルキカク,0
78,1020001146269,新規,0,2022-04-25,2022-04-25,株式会社タダヒロフード,,株式会社,神奈川県,横浜市青葉区,美しが丘４丁目１４番地８新屋第２ハイツ２０１,,14,117,2250002,,,,,,,2022-04-25,1,,,,,タダヒロフード,0
79,1020001146285,新規,0,2022-04-25,2022-04-25,株式会社ベイシック,,株式会社,神奈川県,横浜市南区,大岡４丁目２番３６号,,14,105,2320061,,,,,,,2022-04-25,1,,,,,ベイシック,0
80,1020003021676,新規,0,2022-04-25,2022-04-25,令和技術合同会社,,合同会社,神奈川県,川崎市川崎区,大島上町６番２号パークサイド大島２０３号室,,14,131,2100836,,,,,,,2022-04-25,1,,,,,レイワギジュツ,0
81,1020003021684,新規,0,2022-04-25,2022-04-25,合同会社昼飯商事,,合同会社,神奈川県,川崎市川崎区,藤崎３丁目１２－１１,,14,131,2100804,,,,,,,2022-04-25,1,,,,,ヒルメシショウジ,0
92,1021003011642,新規,0,2022-04-25,2022-04-25,アスクメディアクリエイティブ合同会社,,合同会社,神奈川県,相模原市中央区,矢部３丁目２５番４号,,14,152,2520232,,,,,,,2022-04-25,1,,,,,アスクメディアクリエイティブ,0
100,1030001147836,新規,0,2022-04-25,2022-04-25,株式会社農楽,,株式会社,埼玉県,比企郡嵐山町,大字川島２３４２番地４,,11,342,3550213,,,,,,,2022-04-25,1,,,,,ノウラク,0
101,1030001147877,新規,0,2022-04-25,2022-04-25,アメイジンググレース株式会社,,株式会社,埼玉県,草加市,金明町３５１番地６,,11,221,3400052,,,,,,,2022-04-25,1,,,,,アメイジンググレース,0
110,1040001123101,新規,0,2022-04-25,2022-04-25,株式会社クリエイターズパートナーシップ,,株式会社,千葉県,八千代市,大和田８１番地９３,,12,221,2760045,,,,,,,2022-04-25,1,,,,,クリエイターズパートナーシップ,0
111,1040001123167,新規,0,2022-04-25,2022-04-25,北原商事株式会社,,株式会社,千葉県,松戸市,古ケ崎３丁目３２８７番地の１３,,12,207,2710068,,,,,,,2022-04-25,1,,,,,キタハラショウジ,0
120,1060001034775,新規,0,2022-04-25,2022-04-25,株式会社ＨＢＢ,,株式会社,栃木県,佐野市,奈良渕町３４０番地２０,,09,204,3270842,,,,,,,2022-04-25,1,,,,,エイチビービー,0
126,1070001039162,新規,0,2022-04-25,2022-04-25,エフティスリー株式会社,,株式会社,群馬県,前橋市,城東町３丁目１０番５号,,10,201,3710016,,,,,,,2022-04-25,1,,,,,エフティスリー,0
134,1080401025769,新規,0,2022-04-25,2022-04-25,株式会社Ｃａｍｐ　Ｆａｃｔｏｒｙ,,株式会社,静岡県,浜松市西区,神ケ谷町６２２９番地の１,,22,133,4328005,,,,,,,2022-04-25,1,,,,,キャンプファクトリー,0
140,1100003006520,新規,0,2022-04-25,2022-04-25,ｓｔｒｉｐｅｓ．ｃ．ｏ合同会社,,合同会社,長野県,長野市,大字南長野新田町１１２０番地２・１Ｆ,,20,201,3800835,,,,,,,2022-04-25,1,,,,,ストライプスコンサルティングオフィス,0
150,1120001245382,新規,0,2022-04-25,2022-04-25,株式会社Ｆ．,,株式会社,大阪府,大阪市中央区,島之内１丁目１１番６号グレイス長堀１１０６号室,,27,128,5420082,,,,,,,2022-04-25,1,,,,,エフドット,0
151,1120001245424,新規,0,2022-04-25,2022-04-25,株式会社Ｐｏｎｏ,,株式会社,大阪府,門真市,千石東町１１番５号,,27,223,5710013,,,,,,,2022-04-25,1,,,,,ポノ,0
156,1120003021550,新規,0,2022-04-25,2022-04-25,森秋合同会社,,合同会社,大阪府,大阪市西淀川区,柏里２丁目７番２６号ラピース塚本４０２,,27,113,5550022,,,,,,,2022-04-25,1,,,,,モリアキ,0
157,1120003021559,新規,0,2022-04-25,2022-04-25,布目の里合同会社,,合同会社,大阪府,大阪市中央区,谷町１丁目６番４号,,27,128,5400012,,,,,,,2022-04-25,1,,,,,ヌノメノサト,0
158,1120003021575,新規,0,2022-04-25,2022-04-25,ＯＴ　ＫＯＹ合同会社,,合同会社,大阪府,大阪市西成区,千本北２丁目８番７号,,27,122,5570053,,,,,,,2022-04-25,1,,,,,オットコイ,0
159,1120101065474,新規,0,2022-04-25,2022-04-25,株式会社野田商店,,株式会社,大阪府,堺市東区,草尾２９６番地１４,,27,143,5998127,,,,,,,2022-04-25,1,,,,,ノダショウテン,0
160,1120105009551,新規,0,2022-04-25,2022-04-25,松本栄作行政書士法人,,その他の設立登記法人,大阪府,泉佐野市,俵屋３３２番地１,,27,213,5980003,,,,,,,2022-04-25,1,,,,,マツモトエイサク,0
165,1122001035805,新規,0,2022-04-25,2022-04-25,株式会社ＡＧｏｏｄＺ,,株式会社,大阪府,東大阪市,本庄中１丁目１番４５号,,27,227,5780957,,,,,,,2022-04-25,1,,,,,エーグッズ,0
171,1130001071588,新規,0,2022-04-25,2022-04-25,正農保連携研究所株式会社,,株式会社,京都府,相楽郡精華町,祝園西１丁目１６番地１１－２０１号,,26,366,6190240,,,,,,,2022-04-25,1,,,,,ショウノウホレンケイケンキュウショ,0
172,1130001071621,新規,0,2022-04-25,2022-04-25,株式会社ＧＬＡＳ,,株式会社,京都府,京都市下京区,朱雀宝蔵町４４番地協栄ビル２階京都朱雀スタジオ,,26,106,6008846,,,,,,,2022-04-25,1,,,,,グラス,0
173,1130001071638,新規,0,2022-04-25,2022-04-25,株式会社ネクスト,,株式会社,京都府,京都市右京区,太秦乾町２２番地１１,,26,108,6168176,,,,,,,2022-04-25,1,,,,,ネクスト,0
177,1130005016457,新規,0,2022-04-25,2022-04-25,一般社団法人殿田地区周辺防災協議会,,その他の設立登記法人,京都府,相楽郡南山城村,大字北大河原小字奥田４０番地,,26,367,6191411,,,,,,,2022-04-25,1,,,,,トンダチクシュウヘンボウサイキョウギカイ,0
184,1140001125748,新規,0,2022-04-25,2022-04-25,株式会社敦盛メンテナンス,,株式会社,兵庫県,宝塚市,山本西３丁目１１番３－２０６号,,28,214,6650884,,,,,,,2022-04-25,1,,,,,アツモリメンテナンス,0
190,1170001017075,新規,0,2022-04-25,2022-04-25,株式会社アルファメディカル,,株式会社,和歌山県,有田郡湯浅町,大字湯浅１０６３番地４,,30,361,6430004,,,,,,,2022-04-25,1,,,,,アルファメディカル,0
203,1180001151047,新規,0,2022-04-25,2022-04-25,ＪＬＭＲ　ＳＡＫＵＲＡ株式会社,,株式会社,愛知県,春日井市,熊野町１３５０番地１７,,23,206,4860822,,,,,,,2022-04-25,1,,,,,ジェイエルエムアールサクラ,0
207,1180003023748,新規,0,2022-04-25,2022-04-25,アグリステラ合同会社,,合同会社,愛知県,津島市,大字古川字上割５９８番地６,,23,208,4960043,,,,,,,2022-04-25,1,,,,,アグリステラ,0
211,1180301036154,新規,0,2022-04-25,2022-04-25,大都興設株式会社,,株式会社,愛知県,豊橋市,東田町７９番地５,,23,201,4400066,,,,,,,2022-04-25,1,,,,,ヤマトコウセツ,0
212,1180301036162,新規,0,2022-04-25,2022-04-25,ＷＯＲＬＤ株式会社,,株式会社,愛知県,みよし市,西陣取山３番地,,23,236,4700221,,,,,,,2022-04-25,1,,,,,ワールド,0
219,1200003005545,新規,0,2022-04-25,2022-04-25,合同会社ｖｉｎｃｅ,,合同会社,岐阜県,岐阜市,西玉宮町２丁目１番地,,21,201,5008836,,,,,,,2022-04-25,1,,,,,ヴィンス,0
225,1230001019338,新規,0,2022-04-25,2022-04-25,株式会社掃除之者,,株式会社,富山県,高岡市,戸出大清水２５１番地,,16,202,9391117,,,,,,,2022-04-25,1,,,,,,0
236,1260001036784,新規,0,2022-04-25,2022-04-25,株式会社下川建設,,株式会社,岡山県,倉敷市,児島塩生１７８６番地,,33,202,7110934,,,,,,,2022-04-25,1,,,,,シモカワケンセツ,0
242,1290001097295,新規,0,2022-04-25,2022-04-25,ｔｏｃａｎａｌ株式会社,,株式会社,福岡県,福岡市早良区,飯倉３丁目４６－２０－４１６,,40,137,8140161,,,,,,,2022-04-25,1,,,,,トカナル,0
246,1290005018636,新規,0,2022-04-25,2022-04-25,一般社団法人シニアドリームプロジェクト,,その他の設立登記法人,福岡県,久留米市,荒木町藤田１４９５番地６,,40,203,8300064,,,,,,,2022-04-25,1,,,,,シニアドリームプロジェクト,0
247,1290803004110,新規,0,2022-04-25,2022-04-25,合同会社ファーストトップ,,合同会社,福岡県,北九州市小倉南区,八重洲町１０番１－３０２号,,40,107,8020831,,,,,,,2022-04-25,1,,,,,ファーストトップ,0
248,1290805009545,新規,0,2022-04-25,2022-04-25,医療法人たんぽぽ,,その他の設立登記法人,福岡県,北九州市八幡東区,昭和２丁目１番１３号,,40,108,8050013,,,,,,,2022-04-25,1,,,,,タンポポ,0
251,1310003004338,新規,0,2022-04-25,2022-04-25,プロキューブ合同会社,,合同会社,長崎県,諫早市,福田町３３７２番地３１,,42,204,8540001,,,,,,,2022-04-25,1,,,,,プロキューブ,0
253,1330001029673,新規,0,2022-04-25,2022-04-25,株式会社ａｄｍｏｖ,,株式会社,熊本県,熊本市北区,梶尾町１５９１番地１８,,43,105,8615512,,,,,,,2022-04-25,1,,,,,アドモブ,0
256,1340001024681,新規,0,2022-04-25,2022-04-25,株式会社ＨＩＤＥファーム,,株式会社,鹿児島県,奄美市,名瀬春日町２２番４５号,,46,222,8940013,,,,,,,2022-04-25,1,,,,,ヒデファーム,0
259,1360001030307,新規,0,2022-04-25,2022-04-25,株式会社ゆいハウジング,,株式会社,沖縄県,宜野湾市,大謝名４丁目４番５－１０５号,,47,205,9012225,,,,,,,2022-04-25,1,,,,,ユイハウジング,0
261,1360003011949,新規,0,2022-04-25,2022-04-25,ＰＨＩＬｉａ合同会社,,合同会社,沖縄県,那覇市,久茂地１丁目１－１パレットくもじ９階,,47,201,9000015,,,,,,,2022-04-25,1,,,,,フィリア,0
262,1360003011965,新規,0,2022-04-25,2022-04-25,合同会社ウェーブ,,合同会社,沖縄県,那覇市,西１丁目７番１３号シティサイト西町５０２号室,,47,201,9000036,,,,,,,2022-04-25,1,,,,,ウェーブ,0
266,1380003005164,新規,0,2022-04-25,2022-04-25,合同会社きのか,,合同会社,福島県,いわき市,好間町下好間字一町坪２１番地の４,,07,204,9701151,,,,,,,2022-04-25,1,,,,,キノカ,0
269,1390001016872,新規,0,2022-04-25,2022-04-25,株式会社Ｆｏｒｅｓｔ４．０,,株式会社,山形県,米沢市,桜木町２番４７－２号,,06,202,9920017,,,,,,,2022-04-25,1,,,,,フォレストフォーポイントゼロ,0
272,1410001013173,新規,0,2022-04-25,2022-04-25,株式会社トミサワ電工,,株式会社,秋田県,大館市,根下戸字小館花尻３６５番地,,05,204,0170862,,,,,,,2022-04-25,1,,,,,トミサワデンコウ,0
276,1430001086507,新規,0,2022-04-25,2022-04-25,株式会社琉騎興業,,株式会社,北海道,札幌市東区,北二十五条東１６丁目３番６号,,01,103,0650025,,,,,,,2022-04-25,1,,,,,ルキコウギョウ,0
277,1430001086515,新規,0,2022-04-25,2022-04-25,株式会社クローバー,,株式会社,北海道,千歳市,弥生２丁目３番２５号,,01,224,0660024,,,,,,,2022-04-25,1,,,,,クローバー,0
279,1430003013847,新規,0,2022-04-25,2022-04-25,合同会社ＭＡＵ,,合同会社,北海道,石狩市,花川南六条２丁目５２番地,,01,235,0613206,,,,,,,2022-04-25,1,,,,,エムエーユー,0
280,1430003013855,新規,0,2022-04-25,2022-04-25,合同会社ストアリゾート,,合同会社,北海道,札幌市南区,定山渓温泉西２丁目４５番地３,,01,106,0612303,,,,,,,2022-04-25,1,,,,,ストアリゾート,0
284,1460103001451,新規,0,2022-04-25,2022-04-25,合同会社Ｃ．Ｉ．クリエイターズ,,合同会社,北海道,河西郡芽室町,東一条３丁目１６番地,,01,637,0820011,,,,,,,2022-04-25,1,,,,,シーアイクリエイターズ,0
293,1490001010163,新規,0,2022-04-25,2022-04-25,株式会社新興設備,,株式会社,高知県,高知市,中の島１番７９号ＭＯＲＩマンション１階,,39,201,7810831,,,,,,,2022-04-25,1,,,,,シンコウセツビ,0
302,1500005008490,新規,0,2022-04-25,2022-04-25,医療法人あおば眼科クリニック,,その他の設立登記法人,愛媛県,松山市,藤原町６１７番地１３,,38,201,7900034,,,,,,,2022-04-25,1,,,,,アオバガンカクリニック,0
308,2010001226046,新規,0,2022-04-25,2022-04-25,Ｖｏｌｖｅ株式会社,,株式会社,東京都,千代田区,霞が関１丁目４番１号,,13,101,1000013,,,,,,,2022-04-25,1,,,,,ボルブ,0
309,2010001226070,新規,0,2022-04-25,2022-04-25,株式会社Ｃｏｌｏｒ　Ｙｏｕｒ　Ｌｉｆｅ,,株式会社,東京都,文京区,水道１丁目４番２号シュトラール２０２,,13,105,1120005,,,,,,,2022-04-25,1,,,,,カラーユアライフ,0
310,2010001226095,新規,0,2022-04-25,2022-04-25,株式会社ＢＡＮＫＡＩ,,株式会社,東京都,中央区,銀座１丁目１２番４号Ｎ＆ＥＢＬＤ．７階,,13,102,1040061,,,,,,,2022-04-25,1,,,,,バンカイ,0
312,2010005034916,新規,0,2022-04-25,2022-04-25,一般社団法人日本在宅医療マッサージ協会,,その他の設立登記法人,東京都,中央区,日本橋兜町１７番１号ロイヤルプラザ７０６,,13,102,1030026,,,,,,,2022-04-25,1,,,,,ニホンザイタクイリョウマッサージキョウカイ,0
315,2010401166874,新規,0,2022-04-25,2022-04-25,株式会社ＷＤＣ,,株式会社,東京都,港区,新橋２丁目８－１６石田ビル４階Ｃ,,13,103,1050004,,,,,,,2022-04-25,1,,,,,ダブリュディーシー,0
316,2010401166932,新規,0,2022-04-25,2022-04-25,株式会社Ｂａｃｋｍａｎ,,株式会社,東京都,港区,三田４丁目１番１６号小阪邸１号室,,13,103,1080073,,,,,,,2022-04-25,1,,,,,バックマン,0
317,2010401166940,新規,0,2022-04-25,2022-04-25,Ｆｏｃｕｓ　Ｉｎｔｅｒｎａｔｉｏｎａｌ　Ｃｏｍｐａｎｙ株式会社,,株式会社,東京都,港区,芝浦３丁目４番２号グランパークハイツ２１０１,,13,103,1080023,,,,,,,2022-04-25,1,,,,,フォーカスインターナショナルカンパニー,0
318,2010401167006,新規,0,2022-04-25,2022-04-25,日本ＫＳＷＴエネルギー株式会社,,株式会社,東京都,港区,芝公園３丁目５番８号機械振興会館Ｂ３,,13,103,1050011,,,,,,,2022-04-25,1,,,,,ニホンケイエスダブルティエネルギー,0
323,2010705003344,新規,0,2022-04-25,2022-04-25,一般社団法人日本教育技術学会,,その他の設立登記法人,東京都,品川区,旗の台２丁目４番１２号,,13,109,1420064,,,,,,,2022-04-25,1,,,,,ニホンキョウイクギジュツガッカイ,0
335,2011403003644,新規,0,2022-04-25,2022-04-25,ＩＳＳＩＮ‐ＣＨＩ合同会社,,合同会社,東京都,板橋区,大山東町５８－４,,13,119,1730014,,,,,,,2022-04-25,1,,,,,イッシンイチー,0
339,2011501027966,新規,0,2022-04-25,2022-04-25,株式会社ａｌｌｆｕｚ　ｅｎｔｅｒｔａｉｎｍｅｎｔ,,株式会社,東京都,北区,田端２丁目１０番１２号,,13,117,1140014,,,,,,,2022-04-25,1,,,,,オルファスエンタテインメント,0
340,2011501027974,新規,0,2022-04-25,2022-04-25,ＪＣＰＡ株式会社,,株式会社,東京都,北区,堀船１丁目２７番５号,,13,117,1140004,,,,,,,2022-04-25,1,,,,,ジェイシーピーエー,0
341,2011601025911,新規,0,2022-04-25,2022-04-25,株式会社Ｋ２Ｃ,,株式会社,東京都,練馬区,貫井５丁目１５番１４号２Ｆ,,13,120,1760021,,,,,,,2022-04-25,1,,,,,ケイツーシー,0
342,2011603003584,新規,0,2022-04-25,2022-04-25,ｍａｖａ合同会社,,合同会社,東京都,練馬区,東大泉７丁目３４番１１号,,13,120,1780063,,,,,,,2022-04-25,1,,,,,マヴァ,0
343,2011701025258,新規,0,2022-04-25,2022-04-25,株式会社ＰｒｏｊｅｃｔＬａｂ,,株式会社,東京都,江戸川区,西一之江３丁目１９番６号,,13,123,1320023,,,,,,,2022-04-25,1,,,,,プロジェクトラボ,0
364,2020003021691,新規,0,2022-04-25,2022-04-25,合同会社青柳工業,,合同会社,神奈川県,横浜市泉区,和泉中央南４丁目１－１７,,14,116,2450023,,,,,,,2022-04-25,1,,,,,アオヤギコウギョウ,0
368,2021001075779,新規,0,2022-04-25,2022-04-25,株式会社ＩＹＡＳＵ,,株式会社,神奈川県,海老名市,国分寺台１丁目１７番１０－１号,,14,215,2430413,,,,,,,2022-04-25,1,,,,,イヤス,0
369,2021001075787,新規,0,2022-04-25,2022-04-25,株式会社ＴＥＲＲＡ,,株式会社,神奈川県,厚木市,中町４丁目１３番１－１６０１号,,14,212,2430018,,,,,,,2022-04-25,1,,,,,テラ,0
380,2030003019264,新規,0,2022-04-25,2022-04-25,合同会社オプション,,合同会社,埼玉県,さいたま市浦和区,常盤９丁目１５－２０－１４０１,,11,107,3300061,,,,,,,2022-04-25,1,,,,,オプション,0
381,2030003019297,新規,0,2022-04-25,2022-04-25,詩諾華合同会社,,合同会社,埼玉県,川越市,東田町４－２５０,,11,201,3501114,,,,,,,2022-04-25,1,,,,,スノワ,0
398,2050001050987,新規,0,2022-04-25,2022-04-25,株式会社ジョイワーク,,株式会社,茨城県,土浦市,中荒川沖町３番３号２０３号,,08,203,3000875,,,,,,,2022-04-25,1,,,,,ジョイワーク,0
400,2050003006525,新規,0,2022-04-25,2022-04-25,合同会社よこしま会計事務所,,合同会社,茨城県,つくば市,上広岡５２７番地１４６,,08,220,3050041,,,,,,,2022-04-25,1,,,,,ヨコシマカイケイジムショ,0
404,2060001034808,新規,0,2022-04-25,2022-04-25,株式会社Ｉｔｓｕｋａ,,株式会社,栃木県,宇都宮市,中今泉３丁目１５番３４号,,09,201,3210968,,,,,,,2022-04-25,1,,,,,イツカ,0
406,2060003004024,新規,0,2022-04-25,2022-04-25,合同会社Ｌａｕｇｈ,,合同会社,栃木県,那須塩原市,井口８６０番地２,,09,213,3292763,,,,,,,2022-04-25,1,,,,,ラフ,0
407,2060003004049,新規,0,2022-04-25,2022-04-25,ＴＨＡＲＡＫＡ　ＥＮＴＥＲＰＲＩＳＥＳ合同会社,,合同会社,栃木県,宇都宮市,峰町２８０番地マルオカハイツ２０３号室,,09,201,3210943,,,,,,,2022-04-25,1,,,,,,0
419,2110001036609,新規,0,2022-04-25,2022-04-25,株式会社ｇｒａｃｅ,,株式会社,新潟県,新潟市中央区,弁天１丁目４番２４号,,15,103,9500901,,,,,,,2022-04-25,1,,,,,グレース,0
420,2110001036617,新規,0,2022-04-25,2022-04-25,朝日山青果株式会社,,株式会社,新潟県,長岡市,新産１丁目１番地１５,,15,202,9402127,,,,,,,2022-04-25,1,,,,,アサヒヤマセイカ,0
441,2120001245407,新規,0,2022-04-25,2022-04-25,株式会社ＳＥＣＲＥＴ　ＭＥＤＩＣＩＮＥ,,株式会社,大阪府,大阪市城東区,東中浜７丁目５番２号,,27,118,5360023,,,,,,,2022-04-25,1,,,,,シークレットメディスン,0
442,2120001245431,新規,0,2022-04-25,2022-04-25,株式会社宗寿苑Ｃｒｅａｔｅ,,株式会社,大阪府,大阪市此花区,酉島１丁目１４番１７号,,27,104,5540051,,,,,,,2022-04-25,1,,,,,ソウジュエンクリエイト,0
443,2120001245489,新規,0,2022-04-25,2022-04-25,株式会社ＴＯＭＯＲＲＯＷ　ＬＡＮＤ,,株式会社,大阪府,大阪市西区,西本町２丁目５－１９東海建物西本町３１０号,,27,106,5500005,,,,,,,2022-04-25,1,,,,,トゥモローランド,0
447,2120003021541,新規,0,2022-04-25,2022-04-25,合同会社ウィート,,合同会社,大阪府,大阪市西区,江戸堀１丁目４番２３号,,27,106,5500002,,,,,,,2022-04-25,1,,,,,ウィート,0
448,2120003021558,新規,0,2022-04-25,2022-04-25,むすひろあん合同会社,,合同会社,大阪府,大阪市北区,天神橋１丁目１５番７号クリスタルビル３０２号室,,27,127,5300041,,,,,,,2022-04-25,1,,,,,ムスヒロアン,0
449,2120003021574,新規,0,2022-04-25,2022-04-25,合同会社ＣＯＭＡＳＡ,,合同会社,大阪府,大阪市福島区,吉野４丁目２５番２号,,27,103,5530006,,,,,,,2022-04-25,1,,,,,コマサ,0
453,2120005022934,新規,0,2022-04-25,2022-04-25,一般社団法人フェミーユメソッド協会,,その他の設立登記法人,大阪府,大阪市西区,北堀江１丁目８番１４号,,27,106,5500014,,,,,,,2022-04-25,1,,,,,フェミーユメソッドキョウカイ,0
456,2120101065481,新規,0,2022-04-25,2022-04-25,ヒットテック株式会社,,株式会社,大阪府,堺市西区,上９６番地,,27,144,5938311,,,,,,,2022-04-25,1,,,,,ヒットテック,0
458,2120901045897,新規,0,2022-04-25,2022-04-25,ＭＩＲＡＩ　ＭＥＤＩＣＡＬ株式会社,,株式会社,大阪府,豊中市,緑丘１丁目１７番４号,,27,203,5600002,,,,,,,2022-04-25,1,,,,,ミライメディカル,0
460,2122001035795,新規,0,2022-04-25,2022-04-25,株式会社フラットクリエイト,,株式会社,大阪府,東大阪市,俊徳町３丁目７番３２号,,27,227,5770831,,,,,,,2022-04-25,1,,,,,フラットクリエイト,0
462,2130001071637,新規,0,2022-04-25,2022-04-25,株式会社小森重量,,株式会社,京都府,京都市北区,紫竹西野山町３１－７,,26,101,6038443,,,,,,,2022-04-25,1,,,,,コモリジュウリョウ,0
473,2170001017074,新規,0,2022-04-25,2022-04-25,おざきの干物株式会社,,株式会社,和歌山県,東牟婁郡串本町,鬮野川１５９５番地７,,30,428,6493511,,,,,,,2022-04-25,1,,,,,オザキノヒモノ,0
485,2180001151038,新規,0,2022-04-25,2022-04-25,株式会社Ｔ‐Ｍ　ｔｒａｄｉｎｇ,,株式会社,愛知県,名古屋市熱田区,西野町１丁目３１番地メゾン西野２Ｂ号,,23,109,4560063,,,,,,,2022-04-25,1,,,,,ティーエムトレーディング,0
486,2180001151046,新規,0,2022-04-25,2022-04-25,ライラック株式会社,,株式会社,愛知県,名古屋市緑区,大高町字杁前３８番地２,,23,114,4598001,,,,,,,2022-04-25,1,,,,,ライラック,0
487,2180001151054,新規,0,2022-04-25,2022-04-25,株式会社プリペア,,株式会社,愛知県,名古屋市千種区,新西１丁目５番３１号,,23,101,4640003,,,,,,,2022-04-25,1,,,,,プリペア,0
492,2180003023755,新規,0,2022-04-25,2022-04-25,合同会社ＬＹＳ,,合同会社,愛知県,名古屋市北区,会所町６番地の２,,23,103,4620061,,,,,,,2022-04-25,1,,,,,エルワイエス,0
493,2180003023763,新規,0,2022-04-25,2022-04-25,合同会社モアシステム,,合同会社,愛知県,名古屋市天白区,植田東２丁目１５０１－１,,23,116,4680006,,,,,,,2022-04-25,1,,,,,モアシステム,0
497,2190003003970,新規,0,2022-04-25,2022-04-25,合同会社Ｋｉｍｏｍｏ堂,,合同会社,三重県,四日市市,西坂部町２８９０番地２,,24,202,5120913,,,,,,,2022-04-25,1,,,,,キモモドウ,0
502,2200003005544,新規,0,2022-04-25,2022-04-25,合同会社解体レイワークス,,合同会社,岐阜県,岐阜市,下鵜飼１７７９番地１,,21,201,5011172,,,,,,,2022-04-25,1,,,,,カイタイレイワークス,0
516,2240001059679,新規,0,2022-04-25,2022-04-25,株式会社ｉｎｆｉｎｉｔｙ,,株式会社,広島県,広島市東区,馬木５丁目１２５５－７－１０４,,34,102,7320031,,,,,,,2022-04-25,1,,,,,インフィニティー,0
528,2290001097311,新規,0,2022-04-25,2022-04-25,株式会社Ｋメディカル,,株式会社,福岡県,太宰府市,大字向佐野１番地９,,40,221,8180135,,,,,,,2022-04-25,1,,,,,ケイメディカル,0
529,2290003012441,新規,0,2022-04-25,2022-04-25,合同会社建築調査研究会,,合同会社,福岡県,福岡市中央区,赤坂３丁目８番３１－８０２号,,40,133,8100042,,,,,,,2022-04-25,1,,,,,ケンチクチョウサケンキュウカイ,0
533,2290801028473,新規,0,2022-04-25,2022-04-25,株式会社平原ビル管理事務所,,株式会社,福岡県,北九州市小倉南区,守恒本町２丁目２－３２,,40,107,8020971,,,,,,,2022-04-25,1,,,,,ヒラハラビルカンリジムショ,0
535,2310001017828,新規,0,2022-04-25,2022-04-25,株式会社ＥＸ　Ｇｒｏｗ　ｍｅａｔ,,株式会社,長崎県,島原市,緑町９１６２番地１,,42,203,8550867,,,,,,,2022-04-25,1,,,,,エクスグロウミート,0
537,2330001029672,新規,0,2022-04-25,2022-04-25,株式会社太凛,,株式会社,熊本県,宇城市,松橋町久具１７１９番地,,43,213,8690532,,,,,,,2022-04-25,1,,,,,タイリン,0
539,2330003009334,新規,0,2022-04-25,2022-04-25,合同会社ＴＭトータルエージェンシー,,合同会社,熊本県,熊本市東区,花立３丁目２０番９号,,43,102,8612118,,,,,,,2022-04-25,1,,,,,ティーエムトータルエージェンシー,0
542,2350003004069,新規,0,2022-04-25,2022-04-25,宮崎農林水産支援合同会社,,合同会社,宮崎県,日向市,亀崎東１丁目３２－３,,45,206,8830067,,,,,,,2022-04-25,1,,,,,ミヤザキノウリンスイサンシエン,0
543,2360003011989,新規,0,2022-04-25,2022-04-25,合同会社松明,,合同会社,沖縄県,那覇市,古波蔵１丁目２２番１号,,47,201,9000024,,,,,,,2022-04-25,1,,,,,,0
545,2370001048495,新規,0,2022-04-25,2022-04-25,ＡＧＲＩ＆ｃｏ株式会社,,株式会社,宮城県,柴田郡川崎町,大字川内字北川原山２３８－３３コーポコデランネ１Ｆ,,04,324,9891503,,,,,,,2022-04-25,1,,,,,アグリアンドコー,0
556,2430001086497,新規,0,2022-04-25,2022-04-25,株式会社Ｐｒｏｏｆ　Ｏｆ　Ｃｏｎｃｅｐｔ‐Ｓａｐｐｏｒｏ　ＡＩＯＴ　Ｌａｂ．,,株式会社,北海道,札幌市東区,北八条東４丁目１番２０号,,01,103,0600908,,,,,,,2022-04-25,1,,,,,プルーフオブコンセプトサッポロエーアイオーティーラボ,0
558,2430003013846,新規,0,2022-04-25,2022-04-25,合同会社スアロウシングス,,合同会社,北海道,岩見沢市,緑町７丁目５番１５号,,01,210,0680046,,,,,,,2022-04-25,1,,,,,スアロウシングス,0
560,2450001013680,新規,0,2022-04-25,2022-04-25,株式会社ＷＴＣ,,株式会社,北海道,稚内市,萩見２丁目１２番１２号,,01,214,0970016,,,,,,,2022-04-25,1,,,,,ダブルティーシー,0
561,2470001019049,新規,0,2022-04-25,2022-04-25,株式会社リシナブル,,株式会社,香川県,高松市,太田上町６０４番地,,37,201,7618074,,,,,,,2022-04-25,1,,,,,リシナブル,0
562,2480001011715,新規,0,2022-04-25,2022-04-25,Ｓｅａ　Ｎｅｘｔ株式会社,,株式会社,徳島県,海部郡海陽町,鞆浦字山下２番地２,00126398,36,388,7750301,,,,,,,2022-04-25,1,,,,,,0
567,2500001024177,新規,0,2022-04-25,2022-04-25,株式会社第三建設,,株式会社,愛媛県,伊予郡松前町,大字北黒田７７４番地６,,38,401,7913102,,,,,,,2022-04-25,1,,,,,ダイサンケンセツ,0
571,2700150108306,新規,0,2022-04-25,2022-04-25,千葉駅東口地区市街地再開発組合,,その他,千葉県,千葉市中央区,富士見１丁目１番１号,,12,101,2600015,,,,,,,2022-04-25,1,,,,,チバエキヒガシグチチクシガイチサイカイハツクミアイ,0
577,3010001226053,新規,0,2022-04-25,2022-04-25,Ｍ＆Ｚｅｎ株式会社,,株式会社,東京都,中央区,銀座５丁目５番１４号ＪＰＲ銀座並木通りビル５階,,13,102,1040061,,,,,,,2022-04-25,1,,,,,エムアンドゼン,0
578,3010001226094,新規,0,2022-04-25,2022-04-25,石原薬局株式会社,,株式会社,東京都,千代田区,内神田２丁目１３番７号,,13,101,1010047,,,,,,,2022-04-25,1,,,,,イシハラヤッキョク,0
580,3010005034915,新規,0,2022-04-25,2022-04-25,一般社団法人豪雨に強いふとん籠工法研究会,,その他の設立登記法人,東京都,文京区,湯島２丁目１０番１０号エターナルプレザーブ株式会社内,,13,105,1130034,,,,,,,2022-04-25,1,,,,,ゴウウニツヨイフトンカゴコウホウケンキュウカイ,0
581,3010005034923,新規,0,2022-04-25,2022-04-25,一般社団法人ＪＴＯＷＥＲ　Ｉｎｆｒａｓｔｒｕｃｔｕｒｅ　Ｈｏｌｄｉｎｇｓ,,その他の設立登記法人,東京都,千代田区,丸の内３丁目１番１号東京共同会計事務所内,,13,101,1000005,,,,,,,2022-04-25,1,,,,,ジェイタワーインフラストラクチャーホールディングス,0
582,3010103001899,新規,0,2022-04-25,2022-04-25,合同会社ＦＡＩＲ,,合同会社,東京都,八王子市,初沢町１２２７番地４高尾パークハイツＡ１４１４号,,13,201,1930845,,,,,,,2022-04-25,1,,,,,フェア,0
591,3010401167021,新規,0,2022-04-25,2022-04-25,株式会社ＡＣＡ,,株式会社,東京都,港区,三田３丁目４番３号,,13,103,1080073,,,,,,,2022-04-25,1,,,,,エーシーエー,0
597,3010501048749,新規,0,2022-04-25,2022-04-25,株式会社Ｍａｒｖｅｌｉｘ　ｎｅｘｔ,,株式会社,東京都,台東区,東上野３丁目３７番１３号３階,,13,106,1100015,,,,,,,2022-04-25,1,,,,,マーベリックスネクスト,0
601,3010601061016,新規,0,2022-04-25,2022-04-25,株式会社ぶらちゃん本舗,,株式会社,東京都,江東区,北砂４丁目７番５号,,13,108,1360073,,,,,,,2022-04-25,1,,,,,ブラチャンホンポ,0
612,3011001147108,新規,0,2022-04-25,2022-04-25,株式会社ＳＡＮＭＥＮ,,株式会社,東京都,目黒区,鷹番３丁目６－８ＴＳビル２Ｆ,,13,110,1520004,,,,,,,2022-04-25,1,,,,,サンメン,0
613,3011001147132,新規,0,2022-04-25,2022-04-25,株式会社インテグラル・ソリューションズ,,株式会社,東京都,渋谷区,道玄坂１丁目１０番８号渋谷道玄坂東急ビル２Ｆ－Ｃ,,13,113,1500043,,,,,,,2022-04-25,1,,,,,インテグラルソリューションズ,0
614,3011003014529,新規,0,2022-04-25,2022-04-25,合同会社Ａｒｃｈｅ,,合同会社,東京都,渋谷区,神宮前６丁目２３番４号桑野ビル２階,,13,113,1500001,,,,,,,2022-04-25,1,,,,,,0
615,3011003014603,新規,0,2022-04-25,2022-04-25,合同会社Ｐｌｕｓ　Ｘ,,合同会社,東京都,渋谷区,恵比寿４丁目２０番３号恵比寿ガーデンプレイスタワー１８階,,13,113,1500013,,,,,,,2022-04-25,1,,,,,プラスエックス,0
628,3011101098630,新規,0,2022-04-25,2022-04-25,日本小林百貨株式会社,,株式会社,東京都,新宿区,百人町２丁目１番４５号赤煉瓦２１９,,13,104,1690073,,,,,,,2022-04-25,1,,,,,ニホンコバヤシヒャッカ,0
634,3011203003802,新規,0,2022-04-25,2022-04-25,Ｍｒ．Ｐｏｋｅ合同会社,,合同会社,東京都,中野区,弥生町３丁目３３番１２号Ｊハウス２－Ｅ,,13,114,1640013,,,,,,,2022-04-25,1,,,,,ミスターポーク,0
638,3011301027736,新規,0,2022-04-25,2022-04-25,株式会社ＣＨＩＺＵ　Ｍｕｓｉｃ　Ｓｕｐｅｒｖｉｓｉｏｎ,,株式会社,東京都,杉並区,天沼３丁目３番３号,,13,115,1670032,,,,,,,2022-04-25,1,,,,,チズミュージックスーパービジョン,0
640,3011401024195,新規,0,2022-04-25,2022-04-25,日本ビジネス企画株式会社,,株式会社,東京都,板橋区,蓮根２丁目２７番１２号,,13,119,1740046,,,,,,,2022-04-25,1,,,,,ニホンビジネスキカク,0
642,3011403003643,新規,0,2022-04-25,2022-04-25,合同会社ｆｒｅｅｍａｎ,,合同会社,東京都,板橋区,西台３丁目２３番１１号,,13,119,1750045,,,,,,,2022-04-25,1,,,,,フリーマン,0
643,3011501027965,新規,0,2022-04-25,2022-04-25,株式会社ａｌｌｆｕｚ　ｇｒｏｕｐ,,株式会社,東京都,北区,田端２丁目１０番１２号,,13,117,1140014,,,,,,,2022-04-25,1,,,,,オルファスグループ,0
645,3011701025257,新規,0,2022-04-25,2022-04-25,株式会社グリーンテラス,,株式会社,東京都,江戸川区,大杉１丁目１１番１号,,13,123,1320022,,,,,,,2022-04-25,1,,,,,グリーンテラス,0
656,3012803002763,新規,0,2022-04-25,2022-04-25,楽縁ケアサービス合同会社,,合同会社,東京都,国立市,北３丁目２３番の３アイム２０１,,13,215,1860001,,,,,,,2022-04-25,1,,,,,ラクエンケアサービス,0
674,3020003021591,新規,0,2022-04-25,2022-04-25,合同会社メカニクスウェアジャパン,,合同会社,神奈川県,横浜市都筑区,中川中央１丁目３０－１プレミアヨコハマ３階,,14,118,2240003,,,,,,,2022-04-25,1,,,,,メカニクスウェアジャパン,0
675,3020003021682,新規,0,2022-04-25,2022-04-25,コニー電子合同会社,,合同会社,神奈川県,横浜市西区,北幸１丁目１１番１号水信ビル７階,,14,103,2200004,,,,,,,2022-04-25,1,,,,,コニーデンシ,0
685,3030001147875,新規,0,2022-04-25,2022-04-25,株式会社ＹＵＳＥＩ,,株式会社,埼玉県,さいたま市桜区,町谷３丁目２番１号,,11,106,3380836,,,,,,,2022-04-25,1,,,,,ユウセイ,0
693,3030003019271,新規,0,2022-04-25,2022-04-25,合同会社ｈｕｍｐｄａｙ,,合同会社,埼玉県,川越市,新宿町４丁目１番地８（コンシアンス７号室）,,11,201,3501124,,,,,,,2022-04-25,1,,,,,ハンプデイ,0
694,3030003019296,新規,0,2022-04-25,2022-04-25,合同会社にこにこ,,合同会社,埼玉県,越谷市,東大沢３丁目２３４－１０,,11,222,3430022,,,,,,,2022-04-25,1,,,,,ニコニコ,0
695,3030005020839,新規,0,2022-04-25,2022-04-25,一般社団法人埼玉県スマートまちづくり,,その他の設立登記法人,埼玉県,さいたま市大宮区,宮町２丁目７３番地２ＮＫビル,,11,103,3300802,,,,,,,2022-04-25,1,,,,,サイタマケンスマートマチヅクリ,0
706,3050001050978,新規,0,2022-04-25,2022-04-25,株式会社Ｋ２ＳＴＯＲＹ,,株式会社,茨城県,取手市,新町３丁目２－８菊地ビル１Ｆ、Ｃ号室,,08,217,3020024,,,,,,,2022-04-25,1,,,,,ケーツーストーリー,0
707,3050001050994,新規,0,2022-04-25,2022-04-25,株式会社リュウセイロジ,,株式会社,茨城県,古河市,東間中橋１６３番地１,,08,204,3060107,,,,,,,2022-04-25,1,,,,,リュウセイロジ,0
714,3050003006524,新規,0,2022-04-25,2022-04-25,合同会社ＡｌｉＡ,,合同会社,茨城県,古河市,諸川１１３６番地２,,08,204,3060126,,,,,,,2022-04-25,1,,,,,アリア,0
716,3060001034807,新規,0,2022-04-25,2022-04-25,株式会社Ｃｏｚｙ　Ｄｉｎｉｎｇ,,株式会社,栃木県,宇都宮市,東宿郷１丁目９番１２号,,09,201,3210953,,,,,,,2022-04-25,1,,,,,コージーダイニング,0
721,3070001039169,新規,0,2022-04-25,2022-04-25,Ａ．Ｄ．ＩＮＴＥＲＮＡＴＩＯＮＡＬ株式会社,,株式会社,群馬県,太田市,東本町２９番３２号,,10,205,3730026,,,,,,,2022-04-25,1,,,,,エーディーインターナショナル,0
730,3080103002577,新規,0,2022-04-25,2022-04-25,合同会社横山保険ＬＣＰ,,合同会社,静岡県,富士市,松岡１２３３番地の１４,,22,210,4160909,,,,,,,2022-04-25,1,,,,,ヨコヤマホケンエルシーピー,0
731,3090001017544,新規,0,2022-04-25,2022-04-25,株式会社エンダルジ,,株式会社,山梨県,笛吹市,春日居町加茂１９８番地１,,19,211,4060005,,,,,,,2022-04-25,1,,,,,エンダルジ,0
742,3120001245397,新規,0,2022-04-25,2022-04-25,株式会社Ｒｅａｃｔ,,株式会社,大阪府,大阪市中央区,南本町１丁目６番９－８０７号,,27,128,5410054,,,,,,,2022-04-25,1,,,,,リアクト,0
743,3120001245430,新規,0,2022-04-25,2022-04-25,桜株式会社,,株式会社,大阪府,大阪市中央区,東心斎橋１丁目４番２８号,,27,128,5420083,,,,,,,2022-04-25,1,,,,,サクラ,0
744,3120001245471,新規,0,2022-04-25,2022-04-25,株式会社ＢｉＢｉ,,株式会社,大阪府,大阪市西区,南堀江１丁目１１－１６－１００１,,27,106,5500015,,,,,,,2022-04-25,1,,,,,ビビ,0
747,3120003021490,新規,0,2022-04-25,2022-04-25,毎日買取合同会社,,合同会社,大阪府,大阪市阿倍野区,旭町１丁目２番７号あべのメディックス３０６,,27,119,5450051,,,,,,,2022-04-25,1,,,,,マイニチカイトリ,0
748,3120003021557,新規,0,2022-04-25,2022-04-25,ＰＲ　ＧＲＯＵＰ合同会社,,合同会社,大阪府,大阪市淀川区,新北野３丁目１１番１８号サンプラザ新北野Ｃ棟５０１号,,27,123,5320025,,,,,,,2022-04-25,1,,,,,ピーアールグループ,0
749,3120003021565,新規,0,2022-04-25,2022-04-25,合同会社Ｒａｙ‐ｏｕｔ,,合同会社,大阪府,大阪市西区,本田１丁目８番１６－６０３号,,27,106,5500022,,,,,,,2022-04-25,1,,,,,レイアウト,0
757,3120101065464,新規,0,2022-04-25,2022-04-25,株式会社アイス,,株式会社,大阪府,松原市,天美南５丁目１８番２３号,,27,217,5800033,,,,,,,2022-04-25,1,,,,,アイス,0
758,3120101065472,新規,0,2022-04-25,2022-04-25,株式会社喜納,,株式会社,大阪府,堺市東区,大美野１０７番地２２,,27,143,5998126,,,,,,,2022-04-25,1,,,,,キノウ,0
761,3120901045888,新規,0,2022-04-25,2022-04-25,株式会社入山電工,,株式会社,大阪府,吹田市,南高浜町３番１７号,,27,205,5640025,,,,,,,2022-04-25,1,,,,,イリヤマデンコウ,0
762,3120905006317,新規,0,2022-04-25,2022-04-25,一般社団法人リゾムウェル,,その他の設立登記法人,大阪府,摂津市,鳥飼中１丁目１９番８号,,27,224,5660064,,,,,,,2022-04-25,1,,,,,リゾムウェル,0
767,3122001035794,新規,0,2022-04-25,2022-04-25,福康株式会社,,株式会社,大阪府,東大阪市,稲田上町１丁目１１番１号稲田の家２０２室,,27,227,5770002,,,,,,,2022-04-25,1,,,,,フクヤス,0
768,3122003002322,新規,0,2022-04-25,2022-04-25,Ｒｅ．Ｌａｂｏｒ合同会社,,合同会社,大阪府,八尾市,高砂町１丁目２１番１号北－１号室,,27,212,5810822,,,,,,,2022-04-25,1,,,,,リレイバー,0
779,3150001025490,新規,0,2022-04-25,2022-04-25,株式会社ｋａｎａ,,株式会社,奈良県,吉野郡吉野町,大字六田９７６番地,,29,441,6393116,,,,,,,2022-04-25,1,,,,,カナ,0
783,3160001024145,新規,0,2022-04-25,2022-04-25,株式会社ＫＰＳ,,株式会社,滋賀県,甲賀市,甲賀町滝１００６番地,,25,209,5203432,,,,,,,2022-04-25,1,,,,,ケーピーエス,0
797,3180001151029,新規,0,2022-04-25,2022-04-25,株式会社巧雅建設,,株式会社,愛知県,半田市,乙川深田町２丁目３９番地,,23,205,4750065,,,,,,,2022-04-25,1,,,,,コウガケンセツ,0
798,3180001151053,新規,0,2022-04-25,2022-04-25,株式会社ファンズ設計,,株式会社,愛知県,犬山市,大字五郎丸字狭間５番地９,,23,215,4840066,,,,,,,2022-04-25,1,,,,,ファンズセッケイ,0
805,3180003023754,新規,0,2022-04-25,2022-04-25,合同会社ＲＬＳ,,合同会社,愛知県,名古屋市北区,金城１丁目７番２３号,,23,103,4620847,,,,,,,2022-04-25,1,,,,,アールエルエス,0
811,3200001040006,新規,0,2022-04-25,2022-04-25,丸建林工株式会社,,株式会社,岐阜県,恵那市,三郷町野井１７５４番地２７,,21,210,5097123,,,,,,,2022-04-25,1,,,,,マルケンリンコウ,0
814,3230001019336,新規,0,2022-04-25,2022-04-25,海王貿易株式会社,,株式会社,富山県,射水市,南太閤山１０丁目８０番地,,16,211,9390364,,,,,,,2022-04-25,1,,,,,カイオウボウエキ,0
820,3240001059661,新規,0,2022-04-25,2022-04-25,株式会社Ｔｒｉｇｇｅｒ,,株式会社,広島県,広島市西区,南観音２丁目５番２４号,,34,104,7330035,,,,,,,2022-04-25,1,,,,,トリガー,0
822,3240003005597,新規,0,2022-04-25,2022-04-25,合同会社パルコ,,合同会社,広島県,東広島市,西条町吉行５４１番地１,,34,212,7390002,,,,,,,2022-04-25,1,,,,,パルコ,0
825,3250003003047,新規,0,2022-04-25,2022-04-25,はまでん合同会社,,合同会社,山口県,熊毛郡平生町,大字小郡２３１,,35,344,7421112,,,,,,,2022-04-25,1,,,,,ハマデン,0
828,3260001036782,新規,0,2022-04-25,2022-04-25,株式会社笹川農場,,株式会社,岡山県,岡山市北区,門前６０８番地,,33,101,7011351,,,,,,,2022-04-25,1,,,,,ササガワノウジョウ,0
830,3260003003888,新規,0,2022-04-25,2022-04-25,合同会社セブニウム,,合同会社,岡山県,岡山市中区,平井１丁目１５番１１－２号メゾン・ジェルメＢ２０３,,33,102,7038282,,,,,,,2022-04-25,1,,,,,セブニウム,0
834,3290001097310,新規,0,2022-04-25,2022-04-25,株式会社リアンフューチャー,,株式会社,福岡県,福岡市博多区,博多駅前３丁目１９番１４号,,40,132,8120011,,,,,,,2022-04-25,1,,,,,リアンフューチャー,0
837,3290003012408,新規,0,2022-04-25,2022-04-25,クサビホールデイングス合同会社,,合同会社,福岡県,福岡市早良区,田村７丁目１４－８３－２,,40,137,8140175,,,,,,,2022-04-25,1,,,,,クサビホールデイングス,0
838,3290003012440,新規,0,2022-04-25,2022-04-25,合同会社ＣＡＤ’Ｚ,,合同会社,福岡県,小郡市,小郡７６７番地２５,,40,216,8380141,,,,,,,2022-04-25,1,,,,,キャズ,0
841,3290801028472,新規,0,2022-04-25,2022-04-25,新入クレーン株式会社,,株式会社,福岡県,直方市,大字上新入１８８５－９Ａ２０３号,,40,204,8220033,,,,,,,2022-04-25,1,,,,,シンニュウクレーン,0
843,3290803004109,新規,0,2022-04-25,2022-04-25,モモタマズ合同会社,,合同会社,福岡県,北九州市門司区,白野江３丁目１５－３４,,40,101,8010802,,,,,,,2022-04-25,1,,,,,モモタマズ,0
844,3300001012903,新規,0,2022-04-25,2022-04-25,株式会社ＫＫ商事,,株式会社,佐賀県,唐津市,東城内１７番２９号唐津商工共済ビル３階３号室,,41,202,8470016,,,,,,,2022-04-25,1,,,,,ケーケーショウジ,0
847,3310003004344,新規,0,2022-04-25,2022-04-25,合同会社コレカライク,,合同会社,長崎県,長崎市,西山４丁目３６４番地６,,42,201,8500001,,,,,,,2022-04-25,1,,,,,コレカライク,0
848,3320001019038,新規,0,2022-04-25,2022-04-25,株式会社井村工業,,株式会社,大分県,大分市,三川上３丁目４番２号,,44,201,8700143,,,,,,,2022-04-25,1,,,,,イムラコウギョウ,0
855,3340003003764,新規,0,2022-04-25,2022-04-25,合同会社ヘンペラー,,合同会社,鹿児島県,鹿児島市,常盤１丁目２６番５号１０３号室,,46,201,8900047,,,,,,,2022-04-25,1,,,,,ヘンペラー,0
861,3360003011955,新規,0,2022-04-25,2022-04-25,合同会社Ｎａｅｅｅｎ,,合同会社,沖縄県,島尻郡八重瀬町,字東風平１１５２番地Ｃ,,47,362,9010401,,,,,,,2022-04-25,1,,,,,,0
862,3360003011971,新規,0,2022-04-25,2022-04-25,合同会社やましろ建設,,合同会社,沖縄県,糸満市,字兼城８５８番地の１４,,47,210,9010303,,,,,,,2022-04-25,1,,,,,ヤマシロケンセツ,0
863,3370003005667,新規,0,2022-04-25,2022-04-25,合同会社プレミス,,合同会社,宮城県,仙台市青葉区,中山６丁目８番２３号,,04,101,9810952,,,,,,,2022-04-25,1,,,,,プレミス,0
872,3390003001953,新規,0,2022-04-25,2022-04-25,合同会社シャルマンファクトリー,,合同会社,山形県,山形市,七日町２丁目４‐１８ＹＴ七番館１階１０３,,06,201,9900042,,,,,,,2022-04-25,1,,,,,シャルマンファクトリー,0
879,3430003013853,新規,0,2022-04-25,2022-04-25,合同会社クォーツ,,合同会社,北海道,虻田郡洞爺湖町,高砂町１０７番地,,01,584,0495605,,,,,,,2022-04-25,1,,,,,クォーツ,0
882,3430005014461,新規,0,2022-04-25,2022-04-25,特定非営利活動法人友愛,,その他の設立登記法人,北海道,札幌市豊平区,福住二条１０丁目１２番２号,,01,105,0620042,,,,,,,2022-04-25,1,,,,,ユウアイ,0
883,3470001019048,新規,0,2022-04-25,2022-04-25,朝霧Ａｉｒ株式会社,,株式会社,香川県,高松市,木太町３１５６番地２,,37,201,7600080,,,,,,,2022-04-25,1,,,,,アサギリエアー,0
889,3500003002816,新規,0,2022-04-25,2022-04-25,ラウレア合同会社,,合同会社,愛媛県,松山市,御幸１丁目３１３番地２御幸マンション１０１号,,38,201,7900824,,,,,,,2022-04-25,1,,,,,ラウレア,0
890,3500005008489,新規,0,2022-04-25,2022-04-25,医療法人あらたま内科・糖尿病内科,,その他の設立登記法人,愛媛県,松山市,千舟町８丁目６６番地５,,38,201,7900011,,,,,,,2022-04-25,1,,,,,アラタマナイカトウニョウビョウナイカ,0
892,3700150108180,新規,0,2022-04-25,2022-04-20,小児専門管理栄養士制度合同協議会,,その他,東京都,文京区,本郷３丁目３－１１ＮＣＫビル５Ｆ　株式会社コンパス内,,13,105,1130033,,,,,,,2022-04-20,1,,,,,シヨウニセンモンカンリエイヨウシセイドゴウドウキヨウギカイ,0
902,4010001226085,新規,0,2022-04-25,2022-04-25,株式会社エクスレイ,,株式会社,東京都,千代田区,神田淡路町１丁目９番２号日宝新御茶ノ水ビル５階,,13,101,1010063,,,,,,,2022-04-25,1,,,,,エクスレイ,0
926,4010401166922,新規,0,2022-04-25,2022-04-25,株式会社ＷＩＬＬＺＩＮＥ,,株式会社,東京都,港区,南青山２丁目２番１５号,,13,103,1070062,,,,,,,2022-04-25,1,,,,,ウィルジーン,0
927,4010401166947,新規,0,2022-04-25,2022-04-25,株式会社ワイズコンサルティング,,株式会社,東京都,港区,赤坂７丁目６番６５グレディール赤坂１０４号,,13,103,1070052,,,,,,,2022-04-25,1,,,,,ワイズコンサルティング,0
928,4010401167094,新規,0,2022-04-25,2022-04-25,ＰＡＳＴＡ＆ＰＡＲＭＩＧＩＡＮＯ株式会社,,株式会社,東京都,港区,新橋２丁目１５番１７号タマキビル８階,,13,103,1050004,,,,,,,2022-04-25,1,,,,,パスタアンドパルミジャーノ,0
930,4010403027445,新規,0,2022-04-25,2022-04-25,合同会社ＨＩＲＯ商事,,合同会社,東京都,港区,赤坂６丁目１３番１９号,,13,103,1070052,,,,,,,2022-04-25,1,,,,,ヒロショウジ,0
931,4010403027536,新規,0,2022-04-25,2022-04-25,合同会社神谷町インベストメント１８号,,合同会社,東京都,港区,虎ノ門５丁目１番４号,,13,103,1050001,,,,,,,2022-04-25,1,,,,,カミヤチョウインベストメントジュウハチゴウ,0
932,4010403027544,新規,0,2022-04-25,2022-04-25,合同会社Ｇｒａｎｔ’ｓ　Ｃａｐｉｔａｌ,,合同会社,東京都,港区,芝浦４丁目２０番２－５１７号,,13,103,1080023,,,,,,,2022-04-25,1,,,,,グランツキャピタル,0
933,4010403027552,新規,0,2022-04-25,2022-04-25,合同会社あやふや,,合同会社,東京都,港区,新橋５丁目８番３号１Ｆ,,13,103,1050004,,,,,,,2022-04-25,1,,,,,アヤフヤ,0
946,4010703006207,新規,0,2022-04-25,2022-04-25,合同会社Ｊ‐ＭＡＧＩＣ,,合同会社,東京都,品川区,西五反田６丁目１７番１４号,,13,109,1410031,,,,,,,2022-04-25,1,,,,,ジェイマジック,0
950,4011001146892,新規,0,2022-04-25,2022-04-25,株式会社ｒａｓｃｉｖａ,,株式会社,東京都,渋谷区,円山町５番５号,,13,113,1500044,,,,,,,2022-04-25,1,,,,,ラシーバ,0
951,4011001147107,新規,0,2022-04-25,2022-04-25,株式会社リージェント,,株式会社,東京都,渋谷区,西原２丁目５０番２号メイフィールドコートＢ,,13,113,1510066,,,,,,,2022-04-25,1,,,,,リージェント,0
952,4011001147131,新規,0,2022-04-25,2022-04-25,株式会社Ｏｎｅ’ｓ,,株式会社,東京都,渋谷区,宇田川町２８番１号,,13,113,1500042,,,,,,,2022-04-25,1,,,,,ワンズ,0
953,4011001147156,新規,0,2022-04-25,2022-04-25,Ｄ‐ｃｏｎｓｕｌｔｉｎｇ株式会社,,株式会社,東京都,渋谷区,東１丁目２５番２号丸橋ビル２階,,13,113,1500011,,,,,,,2022-04-25,1,,,,,ディーコンサルティング,0
954,4011001147164,新規,0,2022-04-25,2022-04-25,株式会社ＧｒａｄｅＸ,,株式会社,東京都,渋谷区,神宮前５丁目１６番１２号,,13,113,1500001,,,,,,,2022-04-25,1,,,,,グラードエックス,0
959,4011101098638,新規,0,2022-04-25,2022-04-25,Ｌａｃｈｅｓｙｓ株式会社,,株式会社,東京都,新宿区,西新宿１丁目２６番２号新宿野村ビル３２階,,13,104,1600023,,,,,,,2022-04-25,1,,,,,ラケシス,0
960,4011101098654,新規,0,2022-04-25,2022-04-25,ＳＡＭＫＷＡＮＧ　Ｊａｐａｎ株式会社,,株式会社,東京都,新宿区,西新宿３丁目６番５－５０２号,,13,104,1600023,,,,,,,2022-04-25,1,,,,,サムカンジャパン,0
964,4011401024194,新規,0,2022-04-25,2022-04-25,宏鵬株式会社,,株式会社,東京都,板橋区,赤塚２丁目２番１８号,,13,119,1750092,,,,,,,2022-04-25,1,,,,,コウホウ,0
965,4011403003642,新規,0,2022-04-25,2022-04-25,合同会社ＬＵＣＥ,,合同会社,東京都,板橋区,小茂根３丁目４番２８号センチュリーパレス小茂根４０１,,13,119,1730037,,,,,,,2022-04-25,1,,,,,ルーチェ,0
977,4012803002762,新規,0,2022-04-25,2022-04-25,合同会社ＩｎＤａＨｏｕｓｅ事務局,,合同会社,東京都,武蔵村山市,学園２丁目１５番地の３,,13,223,2080011,,,,,,,2022-04-25,1,,,,,インダハウスジムキョク,0
986,4020005015509,新規,0,2022-04-25,2022-04-25,一般社団法人Ｋｉｎｇｆｉｓｈｅｒ７４,,その他の設立登記法人,神奈川県,横浜市青葉区,鴨志田町１２２１番地１,,14,117,2270033,,,,,,,2022-04-25,1,,,,,,0
993,4021001075777,新規,0,2022-04-25,2022-04-25,株式会社マカナ,,株式会社,神奈川県,足柄上郡山北町,山北８１８番地６,,14,364,2580113,,,,,,,2022-04-25,1,,,,,マカナ,0
994,4021001075793,新規,0,2022-04-25,2022-04-25,福本工業株式会社,,株式会社,神奈川県,横須賀市,津久井２丁目１０番２１号,,14,201,2390843,,,,,,,2022-04-25,1,,,,,フクモトコウギョウ,0
1000,4030001147874,新規,0,2022-04-25,2022-04-25,株式会社ｕｎｐｒｏｇｇｅｄ,,株式会社,埼玉県,所沢市,寿町２６－６－１０１２,,11,208,3591122,,,,,,,2022-04-25,1,,,,,アンプログド,0
1004,4030003019262,新規,0,2022-04-25,2022-04-25,ａＺ合同会社,,合同会社,埼玉県,三郷市,さつき平１丁目４番２－１４０６号,,11,237,3410021,,,,,,,2022-04-25,1,,,,,エージー,0
1005,4030003019295,新規,0,2022-04-25,2022-04-25,合同会社永彩,,合同会社,埼玉県,所沢市,青葉台１３０２－４７ＲＯＳＳＯ青葉台１０１号室,,11,208,3591105,,,,,,,2022-04-25,1,,,,,エイサイ,0
1006,4030003019304,新規,0,2022-04-25,2022-04-25,合同会社ｉｎＴｏ,,合同会社,埼玉県,蕨市,北町２丁目１９番４号スターハウス蕨１０４号,,11,223,3350001,,,,,,,2022-04-25,1,,,,,イントゥ,0
1007,4030005020838,新規,0,2022-04-25,2022-04-25,一般社団法人災害のない希望の町づくりを進める会,,その他の設立登記法人,埼玉県,坂戸市,大字小沼８６０番地１,,11,239,3500202,,,,,,,2022-04-25,1,,,,,サイガイノナイキボウノマチヅクリヲススメルカイ,0
1021,4050003006523,新規,0,2022-04-25,2022-04-25,ＳＨＥＮＯＬ　ＥＮＴＥＲＰＲＩＳＥＳ合同会社,,合同会社,茨城県,土浦市,永井１９６２番地,,08,203,3004101,,,,,,,2022-04-25,1,,,,,シェノールエンタープライゼス,0
1025,4060005009977,新規,0,2022-04-25,2022-04-25,医療法人雄愛会,,その他の設立登記法人,栃木県,宇都宮市,中岡本町２９７７番地,,09,201,3291105,,,,,,,2022-04-25,1,,,,,ユウアイカイ,0
1034,4080101023244,新規,0,2022-04-25,2022-04-25,ＮＫビルド株式会社,,株式会社,静岡県,沼津市,大岡３４９１番地の１,,22,203,4100022,,,,,,,2022-04-25,1,,,,,エヌケイビルド,0
1035,4080103002576,新規,0,2022-04-25,2022-04-25,ＬＳＬ合同会社,,合同会社,静岡県,三島市,青木２８２番地の１０‐６０２,,22,206,4110811,,,,,,,2022-04-25,1,,,,,ラボラトリーオブサイエンスアンドラーニング,0
1040,4090005007482,新規,0,2022-04-25,2022-04-25,一般社団法人山梨アイセブン,,その他の設立登記法人,山梨県,笛吹市,石和町井戸２９３番地１コンフォート石和２０５号室,,19,211,4060045,,,,,,,2022-04-25,1,,,,,,0
1044,4100001035287,新規,0,2022-04-25,2022-04-25,株式会社あきしょう不動産,,株式会社,長野県,伊那市,中央５１３０番地アースコートビル２０２,,20,209,3960015,,,,,,,2022-04-25,1,,,,,アキショウフドウサン,0
1046,4100005012860,新規,0,2022-04-25,2022-04-25,一般社団法人伊那市総合型地域スポーツクラブ,,その他の設立登記法人,長野県,伊那市,西町５８３０番地１,,20,209,3960026,,,,,,,2022-04-25,1,,,,,イナシソウゴウガタチイキスポーツクラブ,0
1048,4110001036615,新規,0,2022-04-25,2022-04-25,株式会社建装オオシマ,,株式会社,新潟県,十日町市,中条己２８２３番地,,15,210,9498617,,,,,,,2022-04-25,1,,,,,ケンソウオオシマ,0
1053,4120001245454,新規,0,2022-04-25,2022-04-25,株式会社テンポレップ,,株式会社,大阪府,大阪市中央区,釣鐘町１丁目６番２号,,27,128,5400035,,,,,,,2022-04-25,1,,,,,テンポレップ,0
1054,4120001245470,新規,0,2022-04-25,2022-04-25,トソプロ株式会社,,株式会社,大阪府,大阪市北区,西天満１丁目２番２３－５０２号,,27,127,5300047,,,,,,,2022-04-25,1,,,,,トソプロ,0
1055,4120001245495,新規,0,2022-04-25,2022-04-25,株式会社Ｅｓｃａｐｅ,,株式会社,大阪府,守口市,大日東町２９番１５号,,27,209,5700016,,,,,,,2022-04-25,1,,,,,エスケープ,0
1060,4120003021556,新規,0,2022-04-25,2022-04-25,ＭＡＮ　ＦＵＴＵＲＥＳ合同会社,,合同会社,大阪府,大阪市淀川区,塚本２丁目２４番１１号,,27,123,5320026,,,,,,,2022-04-25,1,,,,,マンフューチャーズ,0
1062,4120101065471,新規,0,2022-04-25,2022-04-25,株式会社ユウテック,,株式会社,大阪府,貝塚市,東山１丁目２４番２号,,27,208,5970046,,,,,,,2022-04-25,1,,,,,ユウテック,0
1064,4120103004675,新規,0,2022-04-25,2022-04-25,合同会社じろ,,合同会社,大阪府,高石市,西取石３丁目１０番７号,,27,225,5920012,,,,,,,2022-04-25,1,,,,,ジロ,0
1067,4120901045895,新規,0,2022-04-25,2022-04-25,Ｐｅｅｌ　Ｌｉｆｅ　Ｃｏｎｓｕｌｔｉｎｇ株式会社,,株式会社,大阪府,茨木市,宮元町７番２２号仲辻ビル５Ｄ号室,,27,211,5670810,,,,,,,2022-04-25,1,,,,,ピールライフコンサルティング,0
1070,4120905006316,新規,0,2022-04-25,2022-04-25,一般社団法人日本産後ケア推進協会マナカイ,,その他の設立登記法人,大阪府,豊中市,長興寺南２丁目７番３９号１０６号,,27,203,5610874,,,,,,,2022-04-25,1,,,,,ニホンサンゴケアスイシンキョウカイマナカイ,0
1071,4122003002321,新規,0,2022-04-25,2022-04-25,合同会社ｃｕｃｕｒｕ,,合同会社,大阪府,東大阪市,楠根２丁目２－３７,,27,227,5770006,,,,,,,2022-04-25,1,,,,,ククル,0
1087,4140001125778,新規,0,2022-04-25,2022-04-25,株式会社アーバンサポート,,株式会社,兵庫県,芦屋市,大桝町３番１９号,,28,206,6590066,,,,,,,2022-04-25,1,,,,,アーバンサポート,0
1088,4140001125786,新規,0,2022-04-25,2022-04-25,株式会社ｉｘ　ｌａｂ,,株式会社,兵庫県,神戸市中央区,磯上通８丁目１番２９号カサベラビルＣ＆Ｍ４０３号室,,28,110,6510086,,,,,,,2022-04-25,1,,,,,アイエックスラボ,0
1089,4140005026147,新規,0,2022-04-25,2022-04-25,一般社団法人ひとａｓみらい,,その他の設立登記法人,兵庫県,丹波市,山南町谷川３７２５番地３,,28,223,6693131,,,,,,,2022-04-25,1,,,,,ヒトアズミライ,0
1096,4180001150995,新規,0,2022-04-25,2022-04-25,株式会社近藤コーヒー,,株式会社,愛知県,尾張旭市,緑町緑ケ丘２６番地１６,,23,226,4880822,,,,,,,2022-04-25,1,,,,,コンドウコーヒー,0
1097,4180001151036,新規,0,2022-04-25,2022-04-25,株式会社ジェイアクシスパートナーズ,,株式会社,愛知県,津島市,我原町字郷東９０番地２,,23,208,4960000,,,,,,,2022-04-25,1,,,,,ジェイアクシスパートナーズ,0
1098,4180001151052,新規,0,2022-04-25,2022-04-25,株式会社ＪＣＴ,,株式会社,愛知県,名古屋市東区,筒井３丁目１５番１６号,,23,102,4610003,,,,,,,2022-04-25,1,,,,,ジャンクション,0
1099,4180001151069,新規,0,2022-04-25,2022-04-25,株式会社エイトインベストメント,,株式会社,愛知県,名古屋市名東区,明が丘８３番地ウエストサイドアベニュー１０１号,,23,115,4650033,,,,,,,2022-04-25,1,,,,,エイトインベストメント,0
1101,4180003023729,新規,0,2022-04-25,2022-04-25,Ｇａｒａｇｅ３５Ｈｉｇａｓｈｉｕｒａ合同会社,,合同会社,愛知県,知多郡東浦町,大字藤江字三丁７０－２,,23,442,4702105,,,,,,,2022-04-25,1,,,,,ガレージサンジュゴヒガシウラ,0
1110,4200005013337,新規,0,2022-04-25,2022-04-25,一般社団法人８ＫＮＯＴ,,その他の設立登記法人,岐阜県,可児市,矢戸４１５番地１,,21,214,5090252,,,,,,,2022-04-25,1,,,,,エイトノット,0
1111,4210005010028,新規,0,2022-04-25,2022-04-25,医療法人まつむら眼科クリニック,,その他の設立登記法人,福井県,福井市,上北野１丁目２５番１９号,,18,201,9188203,,,,,,,2022-04-25,1,,,,,マツムラガンカクリニック,0
1113,4220001024815,新規,0,2022-04-25,2022-04-25,ＬＯＣＡＬＩＧＨＴ株式会社,,株式会社,石川県,鳳珠郡能登町,字矢波２７字２６番地５,,17,463,9270443,,,,,,,2022-04-25,1,,,,,,0
1122,4230003001844,新規,0,2022-04-25,2022-04-25,合同会社ライス不動産,,合同会社,富山県,富山市,高島７７番地４,,16,201,9318441,,,,,,,2022-04-25,1,,,,,,0
1125,4230005009225,新規,0,2022-04-25,2022-04-25,医療法人社団みのうち内科クリニック,,その他の設立登記法人,富山県,富山市,掛尾町５６番地１,,16,201,9398212,,,,,,,2022-04-25,1,,,,,ミノウチナイカクリニック,0
1126,4240001059669,新規,0,2022-04-25,2022-04-25,株式会社ＮＩＫ,,株式会社,広島県,広島市安芸区,矢野東６丁目２４番２－９号,,34,107,7360083,,,,,,,2022-04-25,1,,,,,エヌアイケー,0
1134,4250001019507,新規,0,2022-04-25,2022-04-25,株式会社志涼会,,株式会社,山口県,宇部市,恩田町２丁目２６番１－１号,,35,202,7550023,,,,,,,2022-04-25,1,,,,,シリョウカイ,0
1135,4250001019531,新規,0,2022-04-25,2022-04-25,ハルヤ株式会社,,株式会社,山口県,柳井市,大畠４８２番地,,35,212,7490102,,,,,,,2022-04-25,1,,,,,ハルヤ,0
1137,4250005008737,新規,0,2022-04-25,2022-04-25,特定非営利活動法人アクティブ太陽,,その他の設立登記法人,山口県,萩市,東沖田４２８６,,35,204,7580000,,,,,,,2022-04-25,1,,,,,アクティブタイヨウ,0
1138,4260001036781,新規,0,2022-04-25,2022-04-25,株式会社ＮＩＨＯＮ　ＢＯＥＫＩ,,株式会社,岡山県,小田郡矢掛町,小林１６９番地２２,,33,461,7141202,,,,,,,2022-04-25,1,,,,,ニホンボウエキ,0
1148,4290001097318,新規,0,2022-04-25,2022-04-25,株式会社Ｌｉｂｅｒｔａｄ,,株式会社,福岡県,福岡市中央区,今泉１丁目２３番８号,,40,133,8100021,,,,,,,2022-04-25,1,,,,,リベルター,0
1151,4300001012877,新規,0,2022-04-25,2022-04-25,株式会社立花,,株式会社,佐賀県,唐津市,浜玉町横田下１１１３番地８,,41,202,8495122,,,,,,,2022-04-25,1,,,,,タチバナ,0
1152,4310001017826,新規,0,2022-04-25,2022-04-25,株式会社つむぎラボ,,株式会社,長崎県,佐世保市,松浦町５番１号,,42,202,8570052,,,,,,,2022-04-25,1,,,,,ツムギラボ,0
1154,4310003004343,新規,0,2022-04-25,2022-04-25,合同会社ＴＩＰ‐ＯＦＦ,,合同会社,長崎県,大村市,大川田町４０３番地１２,,42,205,8560804,,,,,,,2022-04-25,1,,,,,ティップオフ,0
1157,4340001024687,新規,0,2022-04-25,2022-04-25,仮屋企画株式会社,,株式会社,鹿児島県,鹿児島市,向陽１丁目１８番１号,,46,201,8900038,,,,,,,2022-04-25,1,,,,,カリヤキカク,0
1187,4430003013828,新規,0,2022-04-25,2022-04-25,合同会社Ｌ・ｆｌａｍｉｎｇｏ,,合同会社,北海道,札幌市清田区,真栄三条２丁目９－１－３１０,,01,110,0040833,,,,,,,2022-04-25,1,,,,,エルフラミンゴ,0
1189,4470001019047,新規,0,2022-04-25,2022-04-25,スターティック株式会社,,株式会社,香川県,高松市,鬼無町山口７７３番地５,,37,201,7618025,,,,,,,2022-04-25,1,,,,,スターティック,0
1191,4490001010160,新規,0,2022-04-25,2022-04-25,株式会社五常ワークス,,株式会社,高知県,高知市,本宮町１２９番地１－４０５号,,39,201,7800945,,,,,,,2022-04-25,1,,,,,ゴジョウワークス,0
1194,4500001024175,新規,0,2022-04-25,2022-04-25,株式会社ヤマモト電設,,株式会社,愛媛県,松山市,久万ノ台６２１番地７,,38,201,7918016,,,,,,,2022-04-25,1,,,,,ヤマモトデンセツ,0
1203,5010001226084,新規,0,2022-04-25,2022-04-25,本和エステート株式会社,,株式会社,東京都,文京区,根津１丁目１６番９号,,13,105,1130031,,,,,,,2022-04-25,1,,,,,ホンワエステート,0
1222,5010403027535,新規,0,2022-04-25,2022-04-25,合同会社神谷町インベストメント１７号,,合同会社,東京都,港区,虎ノ門５丁目１番４号,,13,103,1050001,,,,,,,2022-04-25,1,,,,,カミヤチョウインベストメントジュウナナゴウ,0
1225,5010501048730,新規,0,2022-04-25,2022-04-25,株式会社ＥＮＡＭＯＲ,,株式会社,東京都,台東区,浅草橋１丁目９番７号,,13,106,1110053,,,,,,,2022-04-25,1,,,,,エナモア,0
1229,5010601061039,新規,0,2022-04-25,2022-04-25,三石国際株式会社,,株式会社,東京都,江東区,木場６丁目１１番８号１階,,13,108,1350042,,,,,,,2022-04-25,1,,,,,ミツイシコクサイ,0
1235,5010803004126,新規,0,2022-04-25,2022-04-25,Ｖｉｎｋａ合同会社,,合同会社,東京都,大田区,中央６丁目１－１０,,13,111,1430024,,,,,,,2022-04-25,1,,,,,ヴィンカ,0
1244,5011001147056,新規,0,2022-04-25,2022-04-25,Ｈ＆Ｙｏｕｒｓｅｌｆ株式会社,,株式会社,東京都,渋谷区,代官山町８番１６号Ｂ１,,13,113,1500034,,,,,,,2022-04-25,1,,,,,エイチアンドユアセルフ,0
1245,5011001147106,新規,0,2022-04-25,2022-04-25,団体管理マスター株式会社,,株式会社,東京都,渋谷区,神宮前３丁目１番２４号,,13,113,1500001,,,,,,,2022-04-25,1,,,,,ダンタイカンリマスター,0
1246,5011001147130,新規,0,2022-04-25,2022-04-25,株式会社ＳＴＥＭＥＹ　ＪＡＰＡＮ,,株式会社,東京都,渋谷区,恵比寿南１丁目１番１号ＨｕｍａｘＥｂｉｓｕビル７２０,,13,113,1500022,,,,,,,2022-04-25,1,,,,,ステミー,0
1256,5011401024193,新規,0,2022-04-25,2022-04-25,株式会社肝付,,株式会社,東京都,板橋区,小豆沢２丁目２４番７号３号室,,13,119,1740051,,,,,,,2022-04-25,1,,,,,キモツキ,0
1257,5011403003641,新規,0,2022-04-25,2022-04-25,Ａｗａｋｅ合同会社,,合同会社,東京都,板橋区,幸町５－１６,,13,119,1730034,,,,,,,2022-04-25,1,,,,,アウェイク,0
1270,5012401039140,新規,0,2022-04-25,2022-04-25,株式会社サオトメ,,株式会社,東京都,武蔵野市,吉祥寺東町２丁目２３番１号,,13,203,1800002,,,,,,,2022-04-25,1,,,,,サオトメ,0
1271,5012401039149,新規,0,2022-04-25,2022-04-25,株式会社Ｂｏｌｌａｒｄ,,株式会社,東京都,武蔵野市,吉祥寺本町１丁目３６番１２号,,13,203,1800004,,,,,,,2022-04-25,1,,,,,ボラード,0
1273,5012403005339,新規,0,2022-04-25,2022-04-25,合同会社ＭＳＡ,,合同会社,東京都,多摩市,和田１４４９番１クオリティハウスＡ１０１,,13,224,2060001,,,,,,,2022-04-25,1,,,,,エムエスエー,0
1278,5020001146166,新規,0,2022-04-25,2022-04-25,株式会社ニューコンテクスト,,株式会社,神奈川県,横浜市港北区,篠原東３丁目１５番２１号ラ・テール妙蓮寺Ａ棟１０３,,14,109,2220022,,,,,,,2022-04-25,1,,,,,ニューコンテクスト,0
1280,5020003021680,新規,0,2022-04-25,2022-04-25,合同会社サークルコミュニケーション,,合同会社,神奈川県,横浜市磯子区,久木町１８番２０号ラディエンス横濱磯子シーグリーン２０８号,,14,107,2350015,,,,,,,2022-04-25,1,,,,,サークルコミュニケーション,0
1281,5020003021689,新規,0,2022-04-25,2022-04-25,Ｈ＆Ｕ合同会社,,合同会社,神奈川県,横浜市中区,長者町８丁目１２８第８吉田ビル２０５号,,14,104,2310033,,,,,,,2022-04-25,1,,,,,エイチアンドユー,0
1286,5021003011614,新規,0,2022-04-25,2022-04-25,ＯＲＧＡＮＩＳＭＵＳ合同会社,,合同会社,神奈川県,相模原市南区,大野台６丁目１５―１３,,14,153,2520331,,,,,,,2022-04-25,1,,,,,オルガニスムス,0
1287,5021003011622,新規,0,2022-04-25,2022-04-25,合同会社ベルスリープラン,,合同会社,神奈川県,相模原市南区,相模大野８丁目４番１４－２０３号,,14,153,2520303,,,,,,,2022-04-25,1,,,,,ベルスリープラン,0
1288,5021005012503,新規,0,2022-04-25,2022-04-25,一般社団法人アダプティブテクノロジー,,その他の設立登記法人,神奈川県,大和市,西鶴間３丁目５番６－７０３号,,14,213,2420005,,,,,,,2022-04-25,1,,,,,アダプティブテクノロジー,0
1294,5030003019303,新規,0,2022-04-25,2022-04-25,合同会社ＳＨＩＶＡＭ　ｃｏｒｐｏｒａｔｉｏｎ,,合同会社,埼玉県,川越市,大字的場２８５０番地１３－１０２,,11,201,3501101,,,,,,,2022-04-25,1,,,,,シヴァムコーポレーション,0
1298,5040001123171,新規,0,2022-04-25,2022-04-25,フルマネジメント株式会社,,株式会社,千葉県,いすみ市,大原最上台１０番地５,,12,238,2980006,,,,,,,2022-04-25,1,,,,,フルマネジメント,0
1308,5050003006522,新規,0,2022-04-25,2022-04-25,合同会社栄樹工業,,合同会社,茨城県,つくば市,上横場２５２０番地４レナジア上横場１０２,,08,220,3050854,,,,,,,2022-04-25,1,,,,,エイジュコウギョウ,0
1310,5060001034805,新規,0,2022-04-25,2022-04-25,小川林業株式会社,,株式会社,栃木県,日光市,倉ケ崎１１５番地５,,09,206,3212412,,,,,,,2022-04-25,1,,,,,オガワリンギョウ,0
1321,5080401025773,新規,0,2022-04-25,2022-04-25,株式会社トリノス,,株式会社,静岡県,浜松市中区,新津町６７７番地,,22,131,4300911,,,,,,,2022-04-25,1,,,,,トリノス,0
1329,5110001036614,新規,0,2022-04-25,2022-04-25,株式会社ＫＹサービス,,株式会社,新潟県,三条市,南新保２番２１号,,15,204,9550862,,,,,,,2022-04-25,1,,,,,ケーワイサービス,0
1347,5120001245404,新規,0,2022-04-25,2022-04-25,ＫＴＡＣＳ株式会社,,株式会社,大阪府,大阪市阿倍野区,阿倍野筋４丁目１６番１２号,,27,119,5450052,,,,,,,2022-04-25,1,,,,,ケイタクス,0
1348,5120001245412,新規,0,2022-04-25,2022-04-25,株式会社レフロマ,,株式会社,大阪府,大阪市西区,江之子島２丁目１番３７－２２０９号,,27,106,5500006,,,,,,,2022-04-25,1,,,,,レフロマ,0
1349,5120001245420,新規,0,2022-04-25,2022-04-25,ＰＬＯＴ　Ｌａｂ株式会社,,株式会社,大阪府,大阪市北区,芝田２丁目８－１１共栄ビル３Ｆ,,27,127,5300012,,,,,,,2022-04-25,1,,,,,プロットラボ,0
1350,5120001245453,新規,0,2022-04-25,2022-04-25,株式会社ゴールデングラブ,,株式会社,大阪府,大阪市中央区,宗右衛門町７番１０号,,27,128,5420084,,,,,,,2022-04-25,1,,,,,ゴールデングラブ,0
1351,5120003021571,新規,0,2022-04-25,2022-04-25,合同会社マネーボックス,,合同会社,大阪府,大阪市中央区,和泉町１丁目１－１４シイナＨＤビル谷町５Ｆ３号室,,27,128,5400019,,,,,,,2022-04-25,1,,,,,マネーボックス,0
1356,5120101065470,新規,0,2022-04-25,2022-04-25,株式会社ＰＲＩＺ,,株式会社,大阪府,富田林市,津々山台１丁目１番３－２１３号,,27,214,5840086,,,,,,,2022-04-25,1,,,,,プライズ,0
1357,5120103004674,新規,0,2022-04-25,2022-04-25,合同会社未楽,,合同会社,大阪府,堺市中区,堀上町４８４番地４,,27,142,5998261,,,,,,,2022-04-25,1,,,,,ミラク,0
1361,5122001035792,新規,0,2022-04-25,2022-04-25,株式会社健助,,株式会社,大阪府,四條畷市,米崎町２０番２７号,,27,229,5750032,,,,,,,2022-04-25,1,,,,,ケンスケ,0
1362,5122001035801,新規,0,2022-04-25,2022-04-25,株式会社ＭＯＴＥＫ,,株式会社,大阪府,東大阪市,衣摺４丁目１１番３１号,,27,227,5770827,,,,,,,2022-04-25,1,,,,,モテック,0
1363,5122003002320,新規,0,2022-04-25,2022-04-25,合同会社ＡＲＶＡ,,合同会社,大阪府,東大阪市,新庄３丁目１３番１６号,,27,227,5780963,,,,,,,2022-04-25,1,,,,,アルヴァ,0
1365,5130001071535,新規,0,2022-04-25,2022-04-25,株式会社ａｎｄ　Ｈｕｂ,,株式会社,京都府,福知山市,南本町２６４－５,,26,201,6200000,,,,,,,2022-04-25,1,,,,,アンドハブ,0
1366,5130001071601,新規,0,2022-04-25,2022-04-25,Ｎｏ．株式会社,,株式会社,京都府,京都市左京区,新丸太町７８－３－１Ｆ,,26,103,6068386,,,,,,,2022-04-25,1,,,,,ナンバー,0
1374,5140001125752,新規,0,2022-04-25,2022-04-25,株式会社神戸管理サービス,,株式会社,兵庫県,神戸市北区,鈴蘭台南町５丁目４番２４号,,28,109,6511113,,,,,,,2022-04-25,1,,,,,コウベカンリサービス,0
1377,5140003017618,新規,0,2022-04-25,2022-04-25,合同会社ＯＨＡＮＡ,,合同会社,兵庫県,加古川市,平岡町二俣７５５番地の３ル・プランタン２０２号,,28,210,6750111,,,,,,,2022-04-25,1,,,,,オハナ,0
1381,5150001025489,新規,0,2022-04-25,2022-04-25,株式会社ＹＡＭＡＴＯ,,株式会社,奈良県,御所市,大字茅原２０番地の５,,29,208,6392241,,,,,,,2022-04-25,1,,,,,ヤマト,0
1390,5180001150978,新規,0,2022-04-25,2022-04-25,Ｇ．Ｂ．Ｚ株式会社,,株式会社,愛知県,名古屋市南区,内田橋１丁目１７番１５号,,23,112,4570862,,,,,,,2022-04-25,1,,,,,ジービーゼット,0
1391,5180001151043,新規,0,2022-04-25,2022-04-25,株式会社ワンエイト,,株式会社,愛知県,名古屋市中区,新栄２丁目４６番３５号ポルタニグラ千種４０３号,,23,106,4600007,,,,,,,2022-04-25,1,,,,,ワンエイト,0
1392,5180001151051,新規,0,2022-04-25,2022-04-25,株式会社Ｔ‐ｔｒｕｓｔ,,株式会社,愛知県,一宮市,丹羽字大森５８番地,,23,203,4910083,,,,,,,2022-04-25,1,,,,,ティートラスト,0
1393,5180001151068,新規,0,2022-04-25,2022-04-25,ＴＳＵＷＡＭＯＮＯ株式会社,,株式会社,愛知県,日進市,梅森町上松３５１番地３,,23,230,4700132,,,,,,,2022-04-25,1,,,,,ツワモノ,0
1394,5180001151076,新規,0,2022-04-25,2022-04-25,株式会社牛追道中,,株式会社,愛知県,名古屋市東区,泉１丁目９番２１号,,23,102,4610001,,,,,,,2022-04-25,1,,,,,ウシオイドウチュウ,0
1401,5180003023760,新規,0,2022-04-25,2022-04-25,ｓｋｙｂｌｕｅ合同会社,,合同会社,愛知県,名古屋市東区,代官町１５番３号,,23,102,4610002,,,,,,,2022-04-25,1,,,,,スカイブルー,0
1403,5180301036159,新規,0,2022-04-25,2022-04-25,ビニット株式会社,,株式会社,愛知県,岡崎市,上和田町字森崎３１番地６,,23,202,4440201,,,,,,,2022-04-25,1,,,,,ビニット,0
1413,5210005010027,新規,0,2022-04-25,2022-04-25,医療法人はまだ内科クリニック,,その他の設立登記法人,福井県,福井市,開発１丁目２０３,,18,201,9100842,,,,,,,2022-04-25,1,,,,,ハマダナイカクリニック,0
1419,5230005009224,新規,0,2022-04-25,2022-04-25,医療法人社団だいぞうクリニック,,その他の設立登記法人,富山県,高岡市,木津６２４番地１,,16,202,9330857,,,,,,,2022-04-25,1,,,,,ダイゾウクリニック,0
1427,5250001019530,新規,0,2022-04-25,2022-04-25,株式会社ＤｉｎＤｅｅ,,株式会社,山口県,防府市,緑町１丁目８番３１号,,35,206,7470026,,,,,,,2022-04-25,1,,,,,ディンディー,0
1430,5260001036789,新規,0,2022-04-25,2022-04-25,株式会社ＤＡＶＯＤＡＶＯ,,株式会社,岡山県,倉敷市,西阿知町９３番地１,,33,202,7100807,,,,,,,2022-04-25,1,,,,,ダボダボ,0
1432,5260005011078,新規,0,2022-04-25,2022-04-25,医療法人社団三輝会,,その他の設立登記法人,岡山県,岡山市南区,新保１１８７番３,,33,104,7000945,,,,,,,2022-04-25,1,,,,,シャダンサンキカイ,0
1441,5290001097325,新規,0,2022-04-25,2022-04-25,株式会社ビッグストーン・ツアーズ,,株式会社,福岡県,福岡市中央区,大名１丁目９番４５－４０４号,,40,133,8100041,,,,,,,2022-04-25,1,,,,,ビッグストーンツアーズ,0
1443,5290003012439,新規,0,2022-04-25,2022-04-25,合同会社ＭＯＸＮＩＸ,,合同会社,福岡県,福岡市早良区,南庄６丁目１－１５リベルテ室見３０３号室,,40,137,8140031,,,,,,,2022-04-25,1,,,,,モックスニックス,0
1445,5310003004342,新規,0,2022-04-25,2022-04-25,合同会社きよみ,,合同会社,長崎県,長崎市,戸町１丁目５番１－５０７号,,42,201,8500952,,,,,,,2022-04-25,1,,,,,キヨミ,0
1449,5340001024678,新規,0,2022-04-25,2022-04-25,株式会社アロース,,株式会社,鹿児島県,鹿児島市,清和４丁目６番３１号,,46,201,8910109,,,,,,,2022-04-25,1,,,,,アロース,0
1450,5340003003762,新規,0,2022-04-25,2022-04-25,合同会社Ｙ’ｓ　ｐｌｕｓ,,合同会社,鹿児島県,薩摩川内市,矢倉町４３１１番地１,,46,215,8950036,,,,,,,2022-04-25,1,,,,,ワイズプラス,0
1466,5430001086478,新規,0,2022-04-25,2022-04-25,株式会社Ｕ‐ＢＡＳＥ,,株式会社,北海道,札幌市白石区,菊水元町九条２丁目２番地１,,01,104,0030829,,,,,,,2022-04-25,1,,,,,ユーベース,0
1481,5500003002814,新規,0,2022-04-25,2022-04-25,合同会社ハイクロ,,合同会社,愛媛県,今治市,吉海町八幡６４,,38,202,7942110,,,,,,,2022-04-25,1,,,,,ハイクロ,0
1490,6010001226059,新規,0,2022-04-25,2022-04-25,株式会社Ｅｉｇｈｔ　Ｒｕｎ,,株式会社,東京都,千代田区,飯田橋２丁目８番５号多幸ビル７階,,13,101,1020072,,,,,,,2022-04-25,1,,,,,エイトラン,0
1491,6010001226067,新規,0,2022-04-25,2022-04-25,株式会社アオイロ,,株式会社,東京都,中央区,銀座７丁目１３番６号サガミビル２階,,13,102,1040061,,,,,,,2022-04-25,1,,,,,アオイロ,0
1492,6010001226083,新規,0,2022-04-25,2022-04-25,株式会社ＳＲ,,株式会社,東京都,千代田区,神田三崎町２丁目６番７号,,13,101,1010061,,,,,,,2022-04-25,1,,,,,エスアール,0
1493,6010001226091,新規,0,2022-04-25,2022-04-25,株式会社栄光,,株式会社,東京都,千代田区,神田平河町１番地第３東ビル５階,,13,101,1010027,,,,,,,2022-04-25,1,,,,,エイコウ,0
1494,6010001226100,新規,0,2022-04-25,2022-04-25,株式会社２ａ　Ｊａｐａｎ,,株式会社,東京都,中央区,銀座６丁目１３番１６号銀座ＷａｌｌビルＵＣＦ５階,,13,102,1040061,,,,,,,2022-04-25,1,,,,,トゥーエージャパン,0
1495,6010001226109,新規,0,2022-04-25,2022-04-25,株式会社ＢＯＡＴｓｈｉｐ,,株式会社,東京都,千代田区,富士見２丁目７番１－７１３号,,13,101,1020071,,,,,,,2022-04-25,1,,,,,ボートシップ,0
1499,6010003037520,新規,0,2022-04-25,2022-04-25,合同会社ロジ開発１号,,合同会社,東京都,千代田区,霞が関３丁目２番５号,,13,101,1000013,,,,,,,2022-04-25,1,,,,,ロジカイハツイチゴウ,0
1510,6010401166805,新規,0,2022-04-25,2022-04-25,株式会社Ｆｌｕｆｆｙ　Ｃｏｍｍｕｎｉｃａｔｉｏｎｓ,,株式会社,東京都,港区,南青山３丁目１５－９ＭＩＮＯＷＡ表参道３階,,13,103,1070062,,,,,,,2022-04-25,1,,,,,フラッフィコミュニケーションズ,0
1511,6010401166920,新規,0,2022-04-25,2022-04-25,鍵祥資訊日本株式会社,,株式会社,東京都,港区,三田１丁目２番１８号ＴＴＤビル,,13,103,1080073,,,,,,,2022-04-25,1,,,,,ケンショウシシンニホン,0
1512,6010403027427,新規,0,2022-04-25,2022-04-25,合同会社ＭＩＩインベストメント,,合同会社,東京都,港区,海岸１丁目１番１－５００５号,,13,103,1050022,,,,,,,2022-04-25,1,,,,,ミーインベストメント,0
1517,6010603009497,新規,0,2022-04-25,2022-04-25,合同会社ＫＳＣＰ,,合同会社,東京都,墨田区,錦糸１丁目２番１号アルカセントラル５階,,13,107,1300013,,,,,,,2022-04-25,1,,,,,ケーエスシーピー,0
1527,6010903007333,新規,0,2022-04-25,2022-04-25,合同会社オフィスアイズ,,合同会社,東京都,世田谷区,弦巻２丁目１７番２３号,,13,112,1540016,,,,,,,2022-04-25,1,,,,,オフィスアイズ,0
1533,6011001147055,新規,0,2022-04-25,2022-04-25,株式会社ＥｓＭＯＶＥ,,株式会社,東京都,渋谷区,神宮前６丁目２３番４号,,13,113,1500001,,,,,,,2022-04-25,1,,,,,エスムーヴ,0
1534,6011001147096,新規,0,2022-04-25,2022-04-25,株式会社ステラー,,株式会社,東京都,渋谷区,富ヶ谷２丁目４番１３号,,13,113,1510063,,,,,,,2022-04-25,1,,,,,ステラー,0
1535,6011001147105,新規,0,2022-04-25,2022-04-25,株式会社Ｔｅｒａｋｏｙａ,,株式会社,東京都,渋谷区,神宮前６丁目２３－４桑野ビル２Ｆ,,13,113,1500001,,,,,,,2022-04-25,1,,,,,テラコヤ,0
1536,6011001147179,新規,0,2022-04-25,2022-04-25,株式会社セルクラウド,,株式会社,東京都,渋谷区,広尾５丁目４番１６号ＥＡＴＰＬＡＹＷＯＲＫＳ３階,,13,113,1500012,,,,,,,2022-04-25,1,,,,,セルクラウド,0
1543,6011203003799,新規,0,2022-04-25,2022-04-25,合同会社かきくけこ,,合同会社,東京都,中野区,大和町１丁目５３－８,,13,114,1650034,,,,,,,2022-04-25,1,,,,,カキクケコ,0
1544,6011303004391,新規,0,2022-04-25,2022-04-25,合同会社リアウィステリア,,合同会社,東京都,杉並区,高井戸東１丁目３０－７，ヴィークコート浜田山２０８号,,13,115,1680072,,,,,,,2022-04-25,1,,,,,リアウィステリア,0
1558,6012801021531,新規,0,2022-04-25,2022-04-25,株式会社ＬＡＺＯＳ　ＲＯＴＹＫ,,株式会社,東京都,立川市,幸町１丁目２５番の２３ヴィレッジ２０－５０５号,,13,202,1900002,,,,,,,2022-04-25,1,,,,,ラゾスロティーク,0
1559,6012803002760,新規,0,2022-04-25,2022-04-25,Ｔ＆Ｑ合同会社,,合同会社,東京都,昭島市,松原町２丁目６番３号藤コーポ１Ｆ,,13,207,1960003,,,,,,,2022-04-25,1,,,,,ティーアンドキュー,0
1572,6020001146280,新規,0,2022-04-25,2022-04-25,Ｇｙｏｚａａ　ｃｏｍｐａｎｙ株式会社,,株式会社,神奈川県,横浜市西区,みなとみらい６丁目３番４号,,14,103,2200012,,,,,,,2022-04-25,1,,,,,ギョーザーカンパニー,0
1576,6020003021688,新規,0,2022-04-25,2022-04-25,ライノフィルム合同会社,,合同会社,神奈川県,川崎市高津区,久本３丁目４－８溝の口セントラルマンション２１９,,14,134,2130011,,,,,,,2022-04-25,1,,,,,ライノフィルム,0
1577,6021001075643,新規,0,2022-04-25,2022-04-25,株式会社ＥＲＥＣＴＵＳ,,株式会社,神奈川県,綾瀬市,小園９５番地,,14,218,2521121,,,,,,,2022-04-25,1,,,,,エレクトス,0
1578,6021001075783,新規,0,2022-04-25,2022-04-25,株式会社Ｒｉｒｉｙ,,株式会社,神奈川県,相模原市中央区,淵野辺本町２丁目６番６－３号,,14,152,2520202,,,,,,,2022-04-25,1,,,,,リリー,0
1579,6021001075791,新規,0,2022-04-25,2022-04-25,ショザール株式会社,,株式会社,神奈川県,相模原市緑区,橋本台１丁目２６番３号,,14,151,2520132,,,,,,,2022-04-25,1,,,,,ショザール,0
1581,6021003011638,新規,0,2022-04-25,2022-04-25,ＨＩＧＯ’ｓベネフィット合同会社,,合同会社,神奈川県,相模原市南区,相模大野２丁目５番２９－２号,,14,153,2520303,,,,,,,2022-04-25,1,,,,,ヒゴズベネフィット,0
1593,6030003019293,新規,0,2022-04-25,2022-04-25,合同会社ＫＫ,,合同会社,埼玉県,志木市,本町５丁目１７番５－２０１号,,11,228,3530004,,,,,,,2022-04-25,1,,,,,ケーケー,0
1594,6030003019302,新規,0,2022-04-25,2022-04-25,合同会社Ｓ‐ｉｓｌａｎｄ,,合同会社,埼玉県,春日部市,西金野井１７５番地２,,11,214,3440112,,,,,,,2022-04-25,1,,,,,エスアイランド,0
1603,6040001123170,新規,0,2022-04-25,2022-04-25,株式会社ｍｕｓｉｃ　ａｎｄ,,株式会社,千葉県,船橋市,咲が丘４丁目２－２４,,12,204,2740807,,,,,,,2022-04-25,1,,,,,ミュージックアンド,0
1605,6040003019937,新規,0,2022-04-25,2022-04-25,合同会社礼,,合同会社,千葉県,松戸市,１３３９番地の１東京ロイヤルコート１１０９号,,12,207,2700000,,,,,,,2022-04-25,1,,,,,レイ,0
1619,6050003006521,新規,0,2022-04-25,2022-04-25,ＲＫ・Ｅｎｔｅｒｐｒｉｓｅｓ合同会社,,合同会社,茨城県,水戸市,大工町２丁目２番１１号,,08,201,3100031,,,,,,,2022-04-25,1,,,,,アールケーナカグロエンタープライズ,0
1627,6060003004037,新規,0,2022-04-25,2022-04-25,北関東貿易合同会社,,合同会社,栃木県,小山市,大字喜沢１２７番地ツェレ喜沢第３邸,,09,208,3230014,,,,,,,2022-04-25,1,,,,,キタカントウボウエキ,0
1636,6080101023242,新規,0,2022-04-25,2022-04-25,エスアドバンス株式会社,,株式会社,静岡県,富士市,水戸島元町１４番１８号ＷＥＬＬ’ＳＨＩＬＬ、Ｂ号室,,22,210,4160922,,,,,,,2022-04-25,1,,,,,エスアドバンス,0
1638,6080401025772,新規,0,2022-04-25,2022-04-25,株式会社フジトレーディング,,株式会社,静岡県,浜松市南区,三島町１５０３番地,,22,134,4300853,,,,,,,2022-04-25,1,,,,,フジトレーディング,0
1642,6090005007480,新規,0,2022-04-25,2022-04-25,特定非営利活動法人ひなたぼっこ,,その他の設立登記法人,山梨県,北杜市,大泉町西井出９１７１－６,,19,209,4091501,,,,,,,2022-04-25,1,,,,,ヒナタボッコ,0
1646,6100005012867,新規,0,2022-04-25,2022-04-25,特定非営利活動法人シナノソイル,,その他の設立登記法人,長野県,長野市,大字鶴賀権堂町２３００番地ＧＯＦＵＫＵ内,,20,201,3800833,,,,,,,2022-04-25,1,,,,,シナノソイル,0
1662,6120001245386,新規,0,2022-04-25,2022-04-25,株式会社築港計画,,株式会社,大阪府,大阪市港区,築港４丁目３番２１号,,27,107,5520021,,,,,,,2022-04-25,1,,,,,チッコウケイカク,0
1663,6120001245394,新規,0,2022-04-25,2022-04-25,株式会社Ｋ’ｓＢＵＩＬＤ,,株式会社,大阪府,大阪市西淀川区,福町３丁目４番１１号,,27,113,5550034,,,,,,,2022-04-25,1,,,,,ケーズビルド,0
1664,6120001245436,新規,0,2022-04-25,2022-04-25,任責株式会社,,株式会社,大阪府,大阪市生野区,巽北１丁目１番１号２Ｆ－Ｆ,,27,116,5440004,,,,,,,2022-04-25,1,,,,,ニンセキ,0
1665,6120001245444,新規,0,2022-04-25,2022-04-25,株式会社まるぜん,,株式会社,大阪府,大阪市中央区,高津３丁目１４－１１シエリアタワーなんば５０３,,27,128,5420072,,,,,,,2022-04-25,1,,,,,マルゼン,0
1666,6120001245452,新規,0,2022-04-25,2022-04-25,株式会社ＴｅｎＦｕｋｕ,,株式会社,大阪府,大阪市北区,天神橋６丁目２番７号,,27,127,5300041,,,,,,,2022-04-25,1,,,,,テンフク,0
1667,6120003021554,新規,0,2022-04-25,2022-04-25,合同会社レアルメレンゲ,,合同会社,大阪府,大阪市東成区,大今里西１丁目７－３,,27,115,5370014,,,,,,,2022-04-25,1,,,,,レアルメレンゲ,0
1668,6120003021570,新規,0,2022-04-25,2022-04-25,合同会社Ｃａｒｅ　Ｃｌｏｗｎ,,合同会社,大阪府,大阪市西成区,天下茶屋２丁目２１－５,,27,122,5570014,,,,,,,2022-04-25,1,,,,,ケアクラウン,0
1684,6130001071609,新規,0,2022-04-25,2022-04-25,株式会社Ｔｕｕ,,株式会社,京都府,長岡京市,調子１丁目２４番２７号ベルウィッシュ西山天王山１Ｆ,,26,209,6170844,,,,,,,2022-04-25,1,,,,,ツー,0
1685,6130001071625,新規,0,2022-04-25,2022-04-25,ｗａｔｅｒｗｏｒｋｓ佐藤株式会社,,株式会社,京都府,京都市右京区,太秦三尾町１番地３３３,,26,108,6168192,,,,,,,2022-04-25,1,,,,,ウォーターワークスサトウ,0
1686,6130001071633,新規,0,2022-04-25,2022-04-25,株式会社カナリ,,株式会社,京都府,京都市北区,紫野上野町９６番地,,26,101,6038242,,,,,,,2022-04-25,1,,,,,カナリ,0
1691,6140003017617,新規,0,2022-04-25,2022-04-25,合同会社良至交通,,合同会社,兵庫県,尼崎市,大島３丁目１番２２号,,28,202,6600076,,,,,,,2022-04-25,1,,,,,リョウジコウツウ,0
1692,6150001025488,新規,0,2022-04-25,2022-04-25,株式会社Ｔ＆Ｍファーマシー,,株式会社,奈良県,生駒市,東生駒１丁目２１５番地ローレルコート東生駒一丁目５１０,,29,209,6300213,,,,,,,2022-04-25,1,,,,,ティーアンドエムファーマシー,0
1693,6170001017079,新規,0,2022-04-25,2022-04-25,株式会社スタイン,,株式会社,和歌山県,岩出市,川尻４６番地の２７,,30,209,6496231,,,,,,,2022-04-25,1,,,,,スタイン,0
1704,6180001151042,新規,0,2022-04-25,2022-04-25,株式会社安井企画,,株式会社,愛知県,豊明市,前後町三ツ谷１２７５番地１６４,,23,229,4701153,,,,,,,2022-04-25,1,,,,,ヤスイキカク,0
1705,6180001151059,新規,0,2022-04-25,2022-04-25,株式会社ＬＩＰ,,株式会社,愛知県,愛知郡東郷町,兵庫２丁目９番地１１,,23,302,4700166,,,,,,,2022-04-25,1,,,,,リップ,0
1716,6180301036166,新規,0,2022-04-25,2022-04-25,株式会社琉建,,株式会社,愛知県,岡崎市,六名南２丁目１０番地２,,23,202,4440845,,,,,,,2022-04-25,1,,,,,リュウケン,0
1718,6180303005318,新規,0,2022-04-25,2022-04-25,ＮＣカンパニー合同会社,,合同会社,愛知県,豊橋市,賀茂町字天神前６番地,,23,201,4411101,,,,,,,2022-04-25,1,,,,,エヌシーカンパニー,0
1722,6200001040003,新規,0,2022-04-25,2022-04-25,株式会社ワタナベトランスポート岐阜,,株式会社,岐阜県,各務原市,川島河田町１０９６番地１,,21,213,5016025,,,,,,,2022-04-25,1,,,,,ワタナベトランスポートギフ,0
1723,6210005010026,新規,0,2022-04-25,2022-04-25,医療法人佑幸会,,その他の設立登記法人,福井県,福井市,大宮３丁目３０番２７号,,18,201,9100016,,,,,,,2022-04-25,1,,,,,ユウコウカイ,0
1728,6230005009223,新規,0,2022-04-25,2022-04-25,特定非営利活動法人園むすびプロジェクト,,その他の設立登記法人,富山県,富山市,神通本町２丁目４番３０号,,16,201,9300008,,,,,,,2022-04-25,1,,,,,,0
1729,6240001059659,新規,0,2022-04-25,2022-04-25,株式会社Ｎｅｘｔ　ｉｎｎｏｖａｔｉｏｎ,,株式会社,広島県,廿日市市,四季が丘９丁目４番地４,,34,213,7380036,,,,,,,2022-04-25,1,,,,,ネクストイノベーション,0
1730,6240001059675,新規,0,2022-04-25,2022-04-25,株式会社インデップホールディングス,,株式会社,広島県,福山市,卸町８番３号,,34,207,7210954,,,,,,,2022-04-25,1,,,,,インデップホールディングス,0
1741,6280005007478,新規,0,2022-04-25,2022-04-25,特定非営利活動法人サントメジャパオ,,その他の設立登記法人,島根県,浜田市,日脚町１８５番地１２（３）,,32,202,6971322,,,,,,,2022-04-25,1,,,,,,0
1746,6290001097290,新規,0,2022-04-25,2022-04-25,株式会社Ｈ＆Ｋ,,株式会社,福岡県,宗像市,日の里８丁目１４番地６,,40,220,8113425,,,,,,,2022-04-25,1,,,,,エイチアンドケー,0
1747,6290001097308,新規,0,2022-04-25,2022-04-25,株式会社ＪＶＳ,,株式会社,福岡県,福岡市西区,大字徳永１０１１番地１２,,40,135,8190375,,,,,,,2022-04-25,1,,,,,ジェイブイエス,0
1748,6290001097324,新規,0,2022-04-25,2022-04-25,株式会社コネクト,,株式会社,福岡県,筑紫野市,大字下見１３７番地１０,,40,217,8180021,,,,,,,2022-04-25,1,,,,,コネクト,0
1752,6290003012421,新規,0,2022-04-25,2022-04-25,ゴウディッシュ合同会社,,合同会社,福岡県,福岡市博多区,上川端町１１番８号,,40,132,8120026,,,,,,,2022-04-25,1,,,,,ゴウディッシュ,0
1753,6290003012438,新規,0,2022-04-25,2022-04-25,合同会社キターブ,,合同会社,福岡県,福岡市早良区,野芥２丁目２５番２６号アンピオ野芥１０３号,,40,137,8140171,,,,,,,2022-04-25,1,,,,,キターブ,0
1763,6330001029669,新規,0,2022-04-25,2022-04-25,株式会社愛平,,株式会社,熊本県,熊本市北区,大鳥居町６１８番地,,43,105,8615502,,,,,,,2022-04-25,1,,,,,アイヘイ,0
1768,6360001030302,新規,0,2022-04-25,2022-04-25,遊島リゾート株式会社,,株式会社,沖縄県,那覇市,壺屋１丁目２９番１５号ライオンズマンション壺屋５０３,,47,201,9020065,,,,,,,2022-04-25,1,,,,,ユウトリゾート,0
1769,6360003011960,新規,0,2022-04-25,2022-04-25,合同会社グローイングマインド,,合同会社,沖縄県,那覇市,与儀２丁目１５番２５号,,47,201,9020076,,,,,,,2022-04-25,1,,,,,グローイングマインド,0
1771,6370001048491,新規,0,2022-04-25,2022-04-25,ｋｏｍｕｐａｃｅ株式会社,,株式会社,宮城県,仙台市太白区,向山４丁目１８番７号,,04,104,9820841,,,,,,,2022-04-25,1,,,,,コムペース,0
1786,6430001086519,新規,0,2022-04-25,2022-04-25,株式会社Ｆｕｊｉ　ＴＥＣ,,株式会社,北海道,恵庭市,柏陽町３丁目１９４番地７１,,01,231,0611434,,,,,,,2022-04-25,1,,,,,フジテック,0
1792,6450001013685,新規,0,2022-04-25,2022-04-25,株式会社ゼストホールディングス,,株式会社,北海道,上川郡東神楽町,北三条東２丁目３番５号,,01,453,0711515,,,,,,,2022-04-25,1,,,,,ゼストホールディングス,0
1793,6460303000760,新規,0,2022-04-25,2022-04-25,ｍｏｃｏｔｔｏ合同会社,,合同会社,北海道,網走郡大空町,東藻琴末広５１５番地の９,,01,564,0993232,,,,,,,2022-04-25,1,,,,,モコット,0
1797,6700150108194,新規,0,2022-04-25,2022-04-21,札幌中央労務管理センター,,その他,北海道,札幌市中央区,北一条西８丁目２番地７ホサカビル２Ｆ,,01,101,0600001,,,,,,,2022-04-21,1,,,,,サツポロチユウオウロウムカンリセンター,0
1802,7010001226025,新規,0,2022-04-25,2022-04-25,株式会社サンクルーリゾート,,株式会社,東京都,千代田区,神田神保町３丁目２番２８号,,13,101,1010051,,,,,,,2022-04-25,1,,,,,サンクルーリゾート,0
1803,7010001226066,新規,0,2022-04-25,2022-04-25,株式会社明成テクノサービス,,株式会社,東京都,中央区,日本橋本町４丁目８番１４号,,13,102,1030023,,,,,,,2022-04-25,1,,,,,メイセイテクノサービス,0
1804,7010001226099,新規,0,2022-04-25,2022-04-25,株式会社ｅｆ,,株式会社,東京都,中央区,銀座１丁目２２番１１号銀座大竹ビジデンス２階,,13,102,1040061,,,,,,,2022-04-25,1,,,,,エフ,0
1807,7010003037528,新規,0,2022-04-25,2022-04-25,合同会社メテオ,,合同会社,東京都,文京区,湯島３丁目４５－１０湯島ジェストビル５Ｂ,,13,105,1130034,,,,,,,2022-04-25,1,,,,,メテオ,0
1809,7010005034928,新規,0,2022-04-25,2022-04-25,一般財団法人日本安全保障フォーラム,,その他の設立登記法人,東京都,千代田区,九段北１丁目２番２号グランドメゾン九段９０９号,,13,101,1020073,,,,,,,2022-04-25,1,,,,,ニッポンアンゼンホショウフォーラム,0
1820,7010401166696,新規,0,2022-04-25,2022-04-25,ＧＲＯＷ　ＳＥＥＤ株式会社,,株式会社,東京都,港区,浜松町２丁目２番１５号浜松町ダイヤビル２Ｆ,,13,103,1050013,,,,,,,2022-04-25,1,,,,,グロウシード,0
1821,7010401166952,新規,0,2022-04-25,2022-04-25,株式会社アートウィングス,,株式会社,東京都,港区,南青山２丁目２番１５号ウィン青山９４２,,13,103,1070062,,,,,,,2022-04-25,1,,,,,アートウィングス,0
1822,7010401166969,新規,0,2022-04-25,2022-04-25,株式会社ミライズエステート,,株式会社,東京都,港区,芝浦２丁目９番１－１６０４号,,13,103,1080023,,,,,,,2022-04-25,1,,,,,ミライズエステート,0
1823,7010401166977,新規,0,2022-04-25,2022-04-25,株式会社ＢＩＳＩＴＳ,,株式会社,東京都,港区,新橋２丁目１６番１号ニュー新橋ビル７０４Ａ－２,,13,103,1050004,,,,,,,2022-04-25,1,,,,,ビジッツ,0
1825,7010403027434,新規,0,2022-04-25,2022-04-25,ｒｅｇｅｎｅｒａｒ合同会社,,合同会社,東京都,港区,西麻布４丁目１５番３－３０３号,,13,103,1060031,,,,,,,2022-04-25,1,,,,,レゲネラ,0
1830,7010501048761,新規,0,2022-04-25,2022-04-25,日影商事株式会社,,株式会社,東京都,台東区,浅草橋５丁目１９番１０－６０５号,,13,106,1110053,,,,,,,2022-04-25,1,,,,,ヒカゲショウジ,0
1833,7010601061053,新規,0,2022-04-25,2022-04-25,盛泰株式会社,,株式会社,東京都,江東区,越中島３丁目５番２７－４０１号,,13,108,1350044,,,,,,,2022-04-25,1,,,,,セイタイ,0
1835,7010703006212,新規,0,2022-04-25,2022-04-25,上無合同会社,,合同会社,東京都,品川区,東品川３丁目２０番１号,,13,109,1400002,,,,,,,2022-04-25,1,,,,,カミナシ,0
1839,7010901050747,新規,0,2022-04-25,2022-04-25,キャニー株式会社,,株式会社,東京都,世田谷区,世田谷４丁目１７番８号グランデュオ世田谷Ｘ１４０３,,13,112,1540017,,,,,,,2022-04-25,1,,,,,キャニー,0
1841,7010903007340,新規,0,2022-04-25,2022-04-25,ｉｇｎｉｔｉｏｎ　ａｇｅｎｔ合同会社,,合同会社,東京都,世田谷区,深沢３丁目２９番地６号,,13,112,1580081,,,,,,,2022-04-25,1,,,,,イグニションエージェント,0
1844,7011001147054,新規,0,2022-04-25,2022-04-25,株式会社Ｉｍｐｒｅｓｓｉｏｎ５,,株式会社,東京都,目黒区,目黒１丁目４番１６号目黒Ｇビル７Ｆ,,13,110,1530063,,,,,,,2022-04-25,1,,,,,インプレッションファイブ,0
1845,7011001147104,新規,0,2022-04-25,2022-04-25,株式会社ＭＯＯＮ,,株式会社,東京都,目黒区,上目黒３丁目４４－２６－２０９,,13,110,1530051,,,,,,,2022-04-25,1,,,,,ムーン,0
1846,7011001147129,新規,0,2022-04-25,2022-04-25,株式会社Ｄｏｔａｂａｔａ,,株式会社,東京都,渋谷区,東２丁目２３番８号渋谷ＭＭＩビル２Ｆ,,13,113,1500011,,,,,,,2022-04-25,1,,,,,ドタバタ,0
1851,7011103011686,新規,0,2022-04-25,2022-04-25,ＲＥ合同会社,,合同会社,東京都,新宿区,新小川町１番１６－１３０４号,,13,104,1620814,,,,,,,2022-04-25,1,,,,,アールイー,0
1852,7011105010240,新規,0,2022-04-25,2022-04-25,一般社団法人日本フィールドアスレチック協会,,その他の設立登記法人,東京都,新宿区,新宿５丁目７番１４－８０７号,,13,104,1600022,,,,,,,2022-04-25,1,,,,,ニホンフィールドアスレチックキョウカイ,0
1859,7011701025261,新規,0,2022-04-25,2022-04-25,株式会社住まいる,,株式会社,東京都,江戸川区,中葛西５丁目３番３号信友ビル３Ｂ号室,,13,123,1340083,,,,,,,2022-04-25,1,,,,,スマイル,0
1862,7012403005337,新規,0,2022-04-25,2022-04-25,合同会社ＦＩ‐Ｐａｒｔｎｅｒｓ,,合同会社,東京都,府中市,分梅町１丁目３０番地の５,,13,206,1830033,,,,,,,2022-04-25,1,,,,,エフアイパートナーズ,0
1863,7012801021530,新規,0,2022-04-25,2022-04-25,株式会社ラクスマハウス,,株式会社,東京都,昭島市,大神町４丁目１８番８メゾンカワクボ２０５号室,,13,207,1960013,,,,,,,2022-04-25,1,,,,,ラクスマハウス,0
1865,7013301048989,新規,0,2022-04-25,2022-04-25,三合川株式会社,,株式会社,東京都,豊島区,巣鴨４丁目２７－９リウビアカスティリオ２０２,,13,116,1700002,,,,,,,2022-04-25,1,,,,,ミカワ,0
1874,7020001146271,新規,0,2022-04-25,2022-04-25,株式会社ｓｏｕｌ　ｔｏｕｃｈ,,株式会社,神奈川県,川崎市宮前区,菅生２丁目５番４８－２１３号,,14,136,2160015,,,,,,,2022-04-25,1,,,,,ソウルタッチ,0
1881,7020003021679,新規,0,2022-04-25,2022-04-25,Ｈｙｇｇｅ合同会社,,合同会社,神奈川県,横浜市青葉区,桂台２丁目３２番地２４メゾンド桂台Ｂ棟２０１,,14,117,2270034,,,,,,,2022-04-25,1,,,,,ヒュッゲ,0
1882,7020003021687,新規,0,2022-04-25,2022-04-25,合同会社自治会サポートプラス,,合同会社,神奈川県,横浜市緑区,長津田５丁目１１番５－６０１号,,14,113,2260027,,,,,,,2022-04-25,1,,,,,ジチカイサポートプラス,0
1889,7021001075790,新規,0,2022-04-25,2022-04-25,株式会社エイ・シー・イーＮｅｘｔ,,株式会社,神奈川県,横須賀市,森崎２丁目１４番７号,,14,201,2380023,,,,,,,2022-04-25,1,,,,,エイシイーネクスト,0
1893,7021003011637,新規,0,2022-04-25,2022-04-25,合同会社ＯＲＧＡＮＴ,,合同会社,神奈川県,海老名市,上今泉４丁目４番３５－１号,,14,215,2430431,,,,,,,2022-04-25,1,,,,,オーガント,0
1898,7030001147863,新規,0,2022-04-25,2022-04-25,大煌モーターズ株式会社,,株式会社,埼玉県,川口市,並木４丁目１５番６号３Ｆ,,11,203,3320034,,,,,,,2022-04-25,1,,,,,ダイコウモーターズ,0
1899,7030001147888,新規,0,2022-04-25,2022-04-25,ＳＲＳ株式会社,,株式会社,埼玉県,北本市,中央１丁目６１番地アーバンＳＴ１０３,,11,233,3640031,,,,,,,2022-04-25,1,,,,,エスアールエス,0
1900,7030001147938,新規,0,2022-04-25,2022-04-25,株式会社ＡＳＴＥＰ,,株式会社,埼玉県,三郷市,戸ケ崎２３０６－２５,,11,237,3410044,,,,,,,2022-04-25,1,,,,,アステップ,0
1904,7030003019301,新規,0,2022-04-25,2022-04-25,ＮＪコーポレーション合同会社,,合同会社,埼玉県,和光市,白子３丁目２５番４５号,,11,229,3510101,,,,,,,2022-04-25,1,,,,,,0
1906,7030005020843,新規,0,2022-04-25,2022-04-25,一般社団法人友音音楽協会,,その他の設立登記法人,埼玉県,さいたま市浦和区,岸町６丁目３番３号,,11,107,3300064,,,,,,,2022-04-25,1,,,,,ユウオンオンガクキョウカイ,0
1915,7040001123079,新規,0,2022-04-25,2022-04-25,Ｌａｎｉａｋｅａ株式会社,,株式会社,千葉県,市川市,市川南３丁目５番１３－２０１号,,12,203,2720033,,,,,,,2022-04-25,1,,,,,ラニアケア,0
1924,7060003004052,新規,0,2022-04-25,2022-04-25,合同会社Ｒ＆Ｂ　ｃｏｒｐｏｒａｔｉｏｎ,,合同会社,栃木県,小山市,乙女３丁目３０番２１号,,09,208,3290214,,,,,,,2022-04-25,1,,,,,アールアンドビーコーポレーション,0
1925,7060005009974,新規,0,2022-04-25,2022-04-25,一般社団法人ファルマ・プラス,,その他の設立登記法人,栃木県,宇都宮市,御幸ケ原町１９９番地２６,,09,201,3210982,,,,,,,2022-04-25,1,,,,,ファルマプラス,0
1930,7080003002789,新規,0,2022-04-25,2022-04-25,Ｇｒａｎ　ＡＰ　ｍａｎａｇｅｍｅｎｔ合同会社,,合同会社,静岡県,静岡市駿河区,曲金５丁目１３番４８号,,22,102,4228006,,,,,,,2022-04-25,1,,,,,グランエーピーマネジメント,0
1934,7080101023241,新規,0,2022-04-25,2022-04-25,株式会社土に活力,,株式会社,静岡県,富士宮市,北山７４２９番地の１４５１,,22,207,4180112,,,,,,,2022-04-25,1,,,,,ツチニカツリョク,0
1940,7080403004526,新規,0,2022-04-25,2022-04-25,プラチナ合同会社,,合同会社,静岡県,掛川市,横須賀１４１３番地の１,,22,213,4371301,,,,,,,2022-04-25,1,,,,,プラチナ,0
1941,7100001035284,新規,0,2022-04-25,2022-04-25,株式会社Ｉｒｉｓ,,株式会社,長野県,長野市,大字鶴賀問御所町１２０１番地富士ビル１階,,20,201,3800834,,,,,,,2022-04-25,1,,,,,アイリス,0
1943,7100003006523,新規,0,2022-04-25,2022-04-25,合同会社城町文庫,,合同会社,長野県,松本市,蟻ケ崎２丁目４番１３－２号,,20,202,3900861,,,,,,,2022-04-25,1,,,,,シロマチブンコ,0
1949,7110001036620,新規,0,2022-04-25,2022-04-25,ＳＯＲＡ　ｓｔｙｌｅ株式会社,,株式会社,新潟県,新潟市中央区,上大川前通７番町１２３０番地７ストークビル鏡橋７階,,15,103,9518068,,,,,,,2022-04-25,1,,,,,ソラスタイル,0
1957,7120001245410,新規,0,2022-04-25,2022-04-25,株式会社ライフラインプランナー協会,,株式会社,大阪府,大阪市中央区,本町４丁目５番６号ＪＡＳＰＥＲ御堂筋本町１１０３,,27,128,5410053,,,,,,,2022-04-25,1,,,,,ライフラインプランナーキョウカイ,0
1958,7120001245419,新規,0,2022-04-25,2022-04-25,協昇電気工業株式会社,,株式会社,大阪府,寝屋川市,萱島東１丁目１番７号,,27,215,5720824,,,,,,,2022-04-25,1,,,,,キョウショウデンキコウギョウ,0
1959,7120001245427,新規,0,2022-04-25,2022-04-25,慧光株式会社,,株式会社,大阪府,守口市,金田町２丁目１番１５号,,27,209,5700011,,,,,,,2022-04-25,1,,,,,エコウ,0
1960,7120001245443,新規,0,2022-04-25,2022-04-25,株式会社ｅｎｆａｎｔｓ　ｓｏｉｎ,,株式会社,大阪府,大阪市此花区,伝法３丁目１１番１１号,,27,104,5540002,,,,,,,2022-04-25,1,,,,,アンファンソワン,0
1961,7120001245451,新規,0,2022-04-25,2022-04-25,ジョン・ダニエル株式会社,,株式会社,大阪府,大阪市福島区,福島３丁目１番５７－６０７号,,27,103,5530003,,,,,,,2022-04-25,1,,,,,ジョンダニエル,0
1962,7120001245468,新規,0,2022-04-25,2022-04-25,株式会社ＲＡＴ,,株式会社,大阪府,大阪市北区,東天満２丁目１０－１９マークベストビル５Ｆ,,27,127,5300044,,,,,,,2022-04-25,1,,,,,ラット,0
1963,7120001245476,新規,0,2022-04-25,2022-04-25,ＩＳＭ株式会社,,株式会社,大阪府,大阪市東住吉区,針中野３丁目８番２４号１Ｆ,,27,121,5460011,,,,,,,2022-04-25,1,,,,,イズム,0
1971,7120003021545,新規,0,2022-04-25,2022-04-25,合同会社マーヴェリック,,合同会社,大阪府,守口市,寺内町２丁目８－８,,27,209,5700056,,,,,,,2022-04-25,1,,,,,マーヴェリック,0
1972,7120003021561,新規,0,2022-04-25,2022-04-25,合同会社シバック,,合同会社,大阪府,大阪市北区,梅田１丁目１－３大阪駅前第３ビル２９階１－１－１号,,27,127,5300001,,,,,,,2022-04-25,1,,,,,シバック,0
1975,7120101065469,新規,0,2022-04-25,2022-04-25,株式会社一歩,,株式会社,大阪府,松原市,岡３丁目９番３３号,,27,217,5800014,,,,,,,2022-04-25,1,,,,,イッポ,0
1976,7120105009554,新規,0,2022-04-25,2022-04-25,司法書士法人ｂｅｔｔｅｒ,,その他の設立登記法人,大阪府,堺市東区,菩提町４丁４９番地１３,,27,143,5998103,,,,,,,2022-04-25,1,,,,,ベター,0
1979,7120901045892,新規,0,2022-04-25,2022-04-25,株式会社ＥＮＧＩＮＥ,,株式会社,大阪府,摂津市,東別府４丁目３番４１－４号,,27,224,5660042,,,,,,,2022-04-25,1,,,,,エンジン,0
1984,7130001071632,新規,0,2022-04-25,2022-04-25,バイワイテック株式会社,,株式会社,京都府,京都市山科区,西野山中臣町２６－８６,,26,110,6078305,,,,,,,2022-04-25,1,,,,,バイワイテック,0
1985,7130001071640,新規,0,2022-04-25,2022-04-25,株式会社Ｄａｍｐｆｅｒ,,株式会社,京都府,京都市伏見区,石田大山町５６番地７,,26,109,6011433,,,,,,,2022-04-25,1,,,,,ダンファー,0
1987,7130003007881,新規,0,2022-04-25,2022-04-25,合同会社ＳＤホールディングス,,合同会社,京都府,城陽市,富野西垣内３３－７４メゾン・ド・アリエッタ３０４,,26,207,6100111,,,,,,,2022-04-25,1,,,,,エスディーホールディングス,0
1999,7140001125750,新規,0,2022-04-25,2022-04-25,株式会社ｆｏｒ　Ｃｒａｆｔｓ,,株式会社,兵庫県,神戸市中央区,元町通３丁目９－１８,,28,110,6500022,,,,,,,2022-04-25,1,,,,,フォークラフツ,0
2000,7140001125791,新規,0,2022-04-25,2022-04-25,株式会社エスシーエー,,株式会社,兵庫県,尼崎市,武庫元町２丁目１７－１８－１Ｆ,,28,202,6610043,,,,,,,2022-04-25,1,,,,,エスシーエー,0
2001,7140001125800,新規,0,2022-04-25,2022-04-25,株式会社ソウコウフーヅ,,株式会社,兵庫県,神戸市中央区,琴ノ緒町５丁目４－２３,,28,110,6510094,,,,,,,2022-04-25,1,,,,,ソウコウフーヅ,0
2006,7140003017624,新規,0,2022-04-25,2022-04-25,合同会社ＩｘＦ,,合同会社,兵庫県,三田市,けやき台３丁目２８番地７２,,28,219,6691321,,,,,,,2022-04-25,1,,,,,アイバイエフ,0
2018,7180003023750,新規,0,2022-04-25,2022-04-25,合同会社ＭＡＣＫＳ　ＴＲＡＤＩＮＧ,,合同会社,愛知県,海部郡大治町,大字長牧字浦畑１４５番地の６,,23,424,4901131,,,,,,,2022-04-25,1,,,,,マックストレイディング,0
2019,7180301036173,新規,0,2022-04-25,2022-04-25,株式会社ＲＺ,,株式会社,愛知県,豊田市,竜神町寺池１番地１３２,,23,211,4730907,,,,,,,2022-04-25,1,,,,,アールゼット,0
2020,7180303005317,新規,0,2022-04-25,2022-04-25,合同会社ひろがり,,合同会社,愛知県,西尾市,つくしが丘２丁目８－１０,,23,213,4450014,,,,,,,2022-04-25,1,,,,,,0
2021,7190003003966,新規,0,2022-04-25,2022-04-25,ＹＯＫＯＴＡＮＩ合同会社,,合同会社,三重県,三重郡朝日町,大字縄生１０４０番地１サンテラスＮＡＯ－Ｂ－２,,24,343,5108101,,,,,,,2022-04-25,1,,,,,ヨコタニ,0
2024,7200001039985,新規,0,2022-04-25,2022-04-25,株式会社セントラル・ブレイン,,株式会社,岐阜県,羽島郡岐南町,三宅８丁目２６７番地４,,21,302,5016002,,,,,,,2022-04-25,1,,,,,セントラルブレイン,0
2025,7200001040002,新規,0,2022-04-25,2022-04-25,株式会社ダイシン,,株式会社,岐阜県,羽島市,竹鼻町丸の内４丁目３５番地シャンドフルール２０１,,21,209,5016244,,,,,,,2022-04-25,1,,,,,ダイシン,0
2026,7200005013342,新規,0,2022-04-25,2022-04-25,特定非営利活動法人Ｗｅｌｌｂｅｉｎｇ,,その他の設立登記法人,岐阜県,岐阜市,加納清水町２丁目２０番地２,,21,201,5008429,,,,,,,2022-04-25,1,,,,,ウェルヴィーング,0
2040,7250001019529,新規,0,2022-04-25,2022-04-25,株式会社モア・ザン・グリーン,,株式会社,山口県,下関市,綾羅木新町３丁目７番１号,,35,201,7510865,,,,,,,2022-04-25,1,,,,,モアザングリーン,0
2042,7250003003051,新規,0,2022-04-25,2022-04-25,合同会社道成,,合同会社,山口県,長門市,油谷向津具上４１７９番地１,,35,211,7594622,,,,,,,2022-04-25,1,,,,,,0
2044,7260003003892,新規,0,2022-04-25,2022-04-25,合同会社オフィスヤスダ,,合同会社,岡山県,岡山市北区,本町４番１８号コア本町１２０３号,,33,101,7000901,,,,,,,2022-04-25,1,,,,,オフォイスヤスダ,0
2058,7290001097307,新規,0,2022-04-25,2022-04-25,株式会社澪州会,,株式会社,福岡県,太宰府市,五条２丁目２１番６－２０３号パシフィック五条,,40,221,8180125,,,,,,,2022-04-25,1,,,,,レイシュウカイ,0
2063,7290801028469,新規,0,2022-04-25,2022-04-25,株式会社青賢,,株式会社,福岡県,北九州市小倉北区,木町１丁目１０番１－１００５号,,40,106,8030851,,,,,,,2022-04-25,1,,,,,アオケン,0
2066,7290805009548,新規,0,2022-04-25,2022-04-25,旦過市場協同組合,,その他の設立登記法人,福岡県,北九州市小倉北区,魚町４丁目２番１８号,,40,106,8020006,,,,,,,2022-04-25,1,,,,,タンガイチバ,0
2068,7310003004340,新規,0,2022-04-25,2022-04-25,合同会社ＴＫアライナーデザイン,,合同会社,長崎県,長崎市,幸町４番５－３０１号,,42,201,8500046,,,,,,,2022-04-25,1,,,,,ティーケーアライナーデザイン,0
2073,7330001029668,新規,0,2022-04-25,2022-04-25,株式会社アークブレス,,株式会社,熊本県,宇城市,不知火町柏原１２８番地,,43,213,8690554,,,,,,,2022-04-25,1,,,,,アークブレス,0
2080,7330005010509,新規,0,2022-04-25,2022-04-25,ＮＰＯ法人熊本ゴルフ振興協会,,その他の設立登記法人,熊本県,熊本市西区,島崎２丁目１１番１８号,,43,103,8600073,,,,,,,2022-04-25,1,,,,,クマモトゴルフシンコウキョウカイ,0
2083,7340003003760,新規,0,2022-04-25,2022-04-25,合同会社Ｋｅｉ空調設備,,合同会社,鹿児島県,曽於市,財部町南俣１１１７９番地８,,46,217,8994101,,,,,,,2022-04-25,1,,,,,ケイクウチョウセツビ,0
2086,7350003004072,新規,0,2022-04-25,2022-04-25,エステックジャパン合同会社,,合同会社,宮崎県,宮崎市,大塚台西１丁目１番地３２セラヴィ大塚台２－５０４号,,45,201,8802105,,,,,,,2022-04-25,1,,,,,エステックジャパン,0
2087,7360001030350,新規,0,2022-04-25,2022-04-25,アニマート・グループ美ら夢株式会社,,株式会社,沖縄県,名護市,宇茂佐の森４丁目１９番地４,,47,209,9050009,,,,,,,2022-04-25,1,,,,,アニマートグループチュラユメ,0
2088,7370003005655,新規,0,2022-04-25,2022-04-25,合同会社アップビート,,合同会社,宮城県,仙台市青葉区,堤町１丁目１－２エムズ北仙台ビル,,04,101,9810912,,,,,,,2022-04-25,1,,,,,アップビート,0
2104,7410001013176,新規,0,2022-04-25,2022-04-25,株式会社三船商店,,株式会社,秋田県,由利本荘市,矢島町七日町字七日町３９番地１７,,05,210,0150404,,,,,,,2022-04-25,1,,,,,ミフネショウテン,0
2111,7430001086476,新規,0,2022-04-25,2022-04-25,株式会社サステナブル,,株式会社,北海道,岩見沢市,九条東１丁目２５番地１,,01,210,0680009,,,,,,,2022-04-25,1,,,,,サステナブル,0
2112,7430001086501,新規,0,2022-04-25,2022-04-25,氷都とまこまいパートナーズ株式会社,,株式会社,北海道,苫小牧市,一本松町４番地４,,01,213,0530001,,,,,,,2022-04-25,1,,,,,ヒョウトトマコマイパートナーズ,0
2113,7430001086534,新規,0,2022-04-25,2022-04-25,株式会社エリアファイブ,,株式会社,北海道,札幌市東区,栄町６９８番地４,,01,103,0070852,,,,,,,2022-04-25,1,,,,,エリアファイブ,0
2116,7430003013841,新規,0,2022-04-25,2022-04-25,合同会社いけだ,,合同会社,北海道,札幌市北区,あいの里二条７丁目１番８号,,01,102,0028072,,,,,,,2022-04-25,1,,,,,イケダ,0
2131,8010003037527,新規,0,2022-04-25,2022-04-25,合同会社矢田事務所,,合同会社,東京都,文京区,本郷３丁目４２番２－３０３号,,13,105,1130033,,,,,,,2022-04-25,1,,,,,ヤダジムショ,0
2134,8010101015153,新規,0,2022-04-25,2022-04-25,株式会社あおぞら,,株式会社,東京都,八王子市,高尾町１８２２番地,,13,201,1930844,,,,,,,2022-04-25,1,,,,,アオゾラ,0
2143,8010401166828,新規,0,2022-04-25,2022-04-25,株式会社ＨＳ　ＣＲＥＡＴＩＯＮ,,株式会社,東京都,港区,南青山２丁目２－１５ウィン青山９４２,,13,103,1070062,,,,,,,2022-04-25,1,,,,,エイチエスクリエーション,0
2144,8010401166943,新規,0,2022-04-25,2022-04-25,ＤＮＡ　ＢＡＮＫ株式会社,,株式会社,東京都,港区,赤坂２丁目２１番１５号赤坂ＯＳビル３階,,13,103,1070052,,,,,,,2022-04-25,1,,,,,ディーエヌエーバンク,0
2145,8010401166976,新規,0,2022-04-25,2022-04-25,株式会社ｐｒｏｆｏｒｅｅ,,株式会社,東京都,港区,麻布十番２丁目７番２号７０２,,13,103,1060045,,,,,,,2022-04-25,1,,,,,プロフォリー,0
2147,8010403027540,新規,0,2022-04-25,2022-04-25,合同会社Ｗａ,,合同会社,東京都,港区,芝浦４丁目２１番１号芝浦アイランドグローヴタワー３９１２号,,13,103,1080023,,,,,,,2022-04-25,1,,,,,ワ,0
2148,8010405020923,新規,0,2022-04-25,2022-04-25,Ａｌｆａ一般社団法人,,その他の設立登記法人,東京都,港区,虎ノ門３丁目２２番１０－２０１号,,13,103,1050001,,,,,,,2022-04-25,1,,,,,アルファ,0
2152,8010601061028,新規,0,2022-04-25,2022-04-25,株式会社ＬｅＡＤ,,株式会社,東京都,江東区,福住１丁目２番６号,,13,108,1350032,,,,,,,2022-04-25,1,,,,,リード,0
2166,8011001147053,新規,0,2022-04-25,2022-04-25,株式会社ＳＵＩＪＩＢＡ,,株式会社,東京都,渋谷区,神宮前６丁目２３番４号２階,,13,113,1500001,,,,,,,2022-04-25,1,,,,,スイジバ,0
2167,8011001147078,新規,0,2022-04-25,2022-04-25,株式会社フィジーポップ,,株式会社,東京都,渋谷区,渋谷２丁目７番１４号ＶＯＲＴＡＯＹＡＭＡ３０２,,13,113,1500002,,,,,,,2022-04-25,1,,,,,フィジーポップ,0
2168,8011001147152,新規,0,2022-04-25,2022-04-25,株式会社ＣＤ３４‐Ｓｕｐ,,株式会社,東京都,渋谷区,神宮前３丁目４番９号ＡＲＡ神宮前プレイス２階,,13,113,1500001,,,,,,,2022-04-25,1,,,,,シーディーサーティーフォーマイナススープ,0
2172,8011003014581,新規,0,2022-04-25,2022-04-25,Ｇｅｍｉｎｉ　Ｉｎｔｅｒｌｉｖｅ合同会社,,合同会社,東京都,渋谷区,神宮前６丁目２３番４号桑野ビル２階,,13,113,1500001,,,,,,,2022-04-25,1,,,,,ジェミニインターライブ,0
2173,8011003014598,新規,0,2022-04-25,2022-04-25,ＣＡＴ　ｃｏｎｃｉｅｒｇｅ合同会社,,合同会社,東京都,目黒区,下目黒１丁目３番８－４０１号,,13,110,1530064,,,,,,,2022-04-25,1,,,,,キャットコンシェルジュ,0
2174,8011005009555,新規,0,2022-04-25,2022-04-25,リタクラウド社会保険労務士法人,,その他の設立登記法人,東京都,渋谷区,松濤１丁目２８番２号ＷＯＲＫＣＯＵＲＴ渋谷松濤,,13,113,1500046,,,,,,,2022-04-25,1,,,,,リタクラウド,0
2177,8011101098618,新規,0,2022-04-25,2022-04-25,株式会社サルトモルターレ,,株式会社,東京都,新宿区,富久町１５番１－３０９号,,13,104,1620067,,,,,,,2022-04-25,1,,,,,サルトモルターレ,0
2178,8011101098642,新規,0,2022-04-25,2022-04-25,株式会社ＡＬＡＴＡ,,株式会社,東京都,新宿区,西新宿６丁目８番１号住友不動産新宿オークタワー４階,,13,104,1600023,,,,,,,2022-04-25,1,,,,,アラタ,0
2185,8011403003639,新規,0,2022-04-25,2022-04-25,ＹＳ　Ｇｌｏｂａｌ　Ｓｅｌｅｃｔｉｏｎｓ合同会社,,合同会社,東京都,板橋区,南常盤台１丁目１１－６レフア南常盤台１０１号室,,13,119,1740072,,,,,,,2022-04-25,1,,,,,ワイエスグローバルセレクションズ,0
2193,8012401039138,新規,0,2022-04-25,2022-04-25,Ｌａｉｃａ株式会社,,株式会社,東京都,小金井市,梶野町２丁目１４番２号,,13,210,1840002,,,,,,,2022-04-25,1,,,,,ライカ,0
2204,8020001146246,新規,0,2022-04-25,2022-04-25,ＪＭＧＯ株式会社,,株式会社,神奈川県,横浜市西区,東ケ丘２６番地５ランドシティ横濱野毛坂１０２号,,14,103,2200033,,,,,,,2022-04-25,1,,,,,ジェイクゥヲ,0
2207,8020003021678,新規,0,2022-04-25,2022-04-25,合同会社Ｗマネジメント,,合同会社,神奈川県,川崎市川崎区,下並木１１番地５川崎サイトシティＩＩＩ番館９０６,00126391,14,131,2100025,,,,,,,2022-04-25,1,,,,,ダブルマネジメント,0
2208,8020003021694,新規,0,2022-04-25,2022-04-25,合同会社みなとみらいエージェンシー,,合同会社,神奈川県,横浜市中区,桜木町１丁目１０１番地１クロスゲート７階,,14,104,2310062,,,,,,,2022-04-25,1,,,,,ミナトミライエージェンシー,0
2209,8020005015505,新規,0,2022-04-25,2022-04-25,医療法人ＦＥＭ,,その他の設立登記法人,神奈川県,川崎市幸区,大宮町１２番７ＴＭビルＩＩ２０１号室,00126399,14,132,2120014,,,,,,,2022-04-25,1,,,,,エフイーエム,0
2224,8030001147805,新規,0,2022-04-25,2022-04-25,株式会社Ｔｒａｖｅｌ　Ｃａｔ,,株式会社,埼玉県,三郷市,中央２丁目１４番地３７,,11,237,3410038,,,,,,,2022-04-25,1,,,,,トラベルキャット,0
2225,8030001147887,新規,0,2022-04-25,2022-04-25,アイタイ視聴技研株式会社,,株式会社,埼玉県,さいたま市西区,大字西遊馬２０４０番地９,,11,101,3310061,,,,,,,2022-04-25,1,,,,,アイタイシチョウギケン,0
2226,8030001147904,新規,0,2022-04-25,2022-04-25,株式会社彩玉舗道,,株式会社,埼玉県,久喜市,本町３丁目１５番３６号,,11,232,3460005,,,,,,,2022-04-25,1,,,,,サイタマホドウ,0
2227,8030001147920,新規,0,2022-04-25,2022-04-25,株式会社ＢＹ　ＰＨＡＲ　ＴＨＥ　ＳＣＲＩＰＴ,,株式会社,埼玉県,熊谷市,肥塚１４１７番地８,,11,202,3600015,,,,,,,2022-04-25,1,,,,,バイファザスクリプト,0
2232,8030003019291,新規,0,2022-04-25,2022-04-25,シュアー合同会社,,合同会社,埼玉県,日高市,武蔵台７丁目５番地１５,,11,242,3501255,,,,,,,2022-04-25,1,,,,,シュアー,0
2233,8030003019309,新規,0,2022-04-25,2022-04-25,合同会社Ｒｉｇｈｔ　Ｈａｎｄ,,合同会社,埼玉県,久喜市,栗橋北１丁目３－２０,,11,232,3491101,,,,,,,2022-04-25,1,,,,,ライトハンド,0
2234,8030005020842,新規,0,2022-04-25,2022-04-25,一般社団法人オープンコミュニティおいでよハウス,,その他の設立登記法人,埼玉県,飯能市,稲荷町９番１５号フォーブル岩沢１０２,,11,209,3570037,,,,,,,2022-04-25,1,,,,,オープンコミュニティオイデヨハウス,0
2240,8060001034802,新規,0,2022-04-25,2022-04-25,株式会社ａｓｓｄｙ,,株式会社,栃木県,塩谷郡高根沢町,大字石末１９３７番地６,,09,386,3291225,,,,,,,2022-04-25,1,,,,,アスディ,0
2244,8060003004051,新規,0,2022-04-25,2022-04-25,ＴＡＲＡ合同会社,,合同会社,栃木県,栃木市,大平町富田３９８番地８栄神ハイツ３０１,,09,203,3294404,,,,,,,2022-04-25,1,,,,,タラ,0
2253,8080003002788,新規,0,2022-04-25,2022-04-25,合同会社オーバードライブ,,合同会社,静岡県,静岡市駿河区,登呂５丁目１５番８号,,22,102,4228033,,,,,,,2022-04-25,1,,,,,オーバードライブ,0
2255,8080101023240,新規,0,2022-04-25,2022-04-25,株式会社ＡＬＬＪＡＰＡＮ,,株式会社,静岡県,富士宮市,貫戸１８７番地の２第３工場,,22,207,4180024,,,,,,,2022-04-25,1,,,,,オールジャパン,0
2262,8100001035283,新規,0,2022-04-25,2022-04-25,株式会社無限夢,,株式会社,長野県,東御市,八重原９０５番地１１,,20,219,3890406,,,,,,,2022-04-25,1,,,,,ムゲンム,0
2265,8100003006522,新規,0,2022-04-25,2022-04-25,合同会社龍源,,合同会社,長野県,長野市,中御所４丁目９－５,,20,201,3800935,,,,,,,2022-04-25,1,,,,,リュウゲン,0
2268,8110005016799,新規,0,2022-04-25,2022-04-25,一般社団法人新潟子どもの心身発達支援会議,,その他の設立登記法人,新潟県,新潟市中央区,水道町１丁目５９３９番地（新潟青陵大学福祉心理学部社会福祉学科齊藤研究室）,,15,103,9518121,,,,,,,2022-04-25,1,,,,,ニイガタコドモノシンシンハッタツシエンカイギ,0
2275,8120001245434,新規,0,2022-04-25,2022-04-25,株式会社秀輝,,株式会社,大阪府,門真市,栄町２９番１８号１０２号,,27,223,5710047,,,,,,,2022-04-25,1,,,,,シュウキ,0
2276,8120001245450,新規,0,2022-04-25,2022-04-25,株式会社守田運送,,株式会社,大阪府,大阪市福島区,福島１丁目１番４８－３５０５号,,27,103,5530003,,,,,,,2022-04-25,1,,,,,モリタウンソウ,0
2277,8120001245475,新規,0,2022-04-25,2022-04-25,ＫＹＢＥＬＥ　Ｎｕｔｒｉｔｉｏｎ株式会社,,株式会社,大阪府,大阪市西区,西本町２丁目１番２７号,,27,106,5500005,,,,,,,2022-04-25,1,,,,,キューベレーニュートリション,0
2283,8120003021560,新規,0,2022-04-25,2022-04-25,合同会社ＡＬＯＨＡ,,合同会社,大阪府,大阪市阿倍野区,阿倍野筋５丁目１０番１６号,,27,119,5450052,,,,,,,2022-04-25,1,,,,,アロハ,0
2284,8120005022912,新規,0,2022-04-25,2022-04-25,ハートランド税理士法人,,その他の設立登記法人,大阪府,大阪市北区,本庄東１丁目２４番５号,,27,127,5310074,,,,,,,2022-04-25,1,,,,,ハートランド,0
2288,8120101065468,新規,0,2022-04-25,2022-04-25,株式会社ニーナ不動産,,株式会社,大阪府,藤井寺市,岡１丁目１４番１２号,,27,226,5830027,,,,,,,2022-04-25,1,,,,,ニーナフドウサン,0
2293,8122001035798,新規,0,2022-04-25,2022-04-25,株式会社中西電気,,株式会社,大阪府,八尾市,久宝園２丁目１２９番地の１,,27,212,5810817,,,,,,,2022-04-25,1,,,,,ナカニシデンキ,0
2294,8122001035807,新規,0,2022-04-25,2022-04-25,株式会社ＧＨＰ,,株式会社,大阪府,八尾市,東山本新町６丁目３番１号,,27,212,5810866,,,,,,,2022-04-25,1,,,,,ジーエッチピー,0
2296,8130001071623,新規,0,2022-04-25,2022-04-25,株式会社ｓｔａｎｄ　ｏｕｔ,,株式会社,京都府,京都市伏見区,深草西飯食町７２－５,,26,109,6120032,,,,,,,2022-04-25,1,,,,,スタンドアウト,0
2297,8130001071631,新規,0,2022-04-25,2022-04-25,株式会社ＬＸ,,株式会社,京都府,京都市東山区,梅宮町４８４番地マナーハウスＢ１１２,,26,105,6050061,,,,,,,2022-04-25,1,,,,,エルエックス,0
2302,8140005026151,新規,0,2022-04-25,2022-04-25,司法書士法人みらいテラス,,その他の設立登記法人,兵庫県,西宮市,神楽町５番５号ラ・ベルジュ夙川２Ｆ,,28,204,6620977,,,,,,,2022-04-25,1,,,,,ミライテラス,0
2321,8180001150975,新規,0,2022-04-25,2022-04-25,ａｎｎａｐｕｒｎａ株式会社,,株式会社,愛知県,丹羽郡大口町,城屋敷２丁目９番地,,23,361,4800143,,,,,,,2022-04-25,1,,,,,アンナプルナ,0
2322,8180001151016,新規,0,2022-04-25,2022-04-25,ミツヤ株式会社,,株式会社,愛知県,春日井市,小野町５丁目８６番地１４,,23,206,4860926,,,,,,,2022-04-25,1,,,,,ミツヤ,0
2323,8180001151065,新規,0,2022-04-25,2022-04-25,株式会社大和,,株式会社,愛知県,名古屋市名東区,一社３丁目８２アサヒ一社ビル１階,,23,115,4650093,,,,,,,2022-04-25,1,,,,,ヤマト,0
2324,8180001151073,新規,0,2022-04-25,2022-04-25,株式会社ＳＫＡＴ,,株式会社,愛知県,北名古屋市,熊之庄宮地７９番地５,,23,234,4810006,,,,,,,2022-04-25,1,,,,,スカット,0
2336,8200001040001,新規,0,2022-04-25,2022-04-25,株式会社ｋｏｎｇｃｏｎｇ,,株式会社,岐阜県,飛騨市,古川町殿町５番２６号,,21,217,5094224,,,,,,,2022-04-25,1,,,,,コンコン,0
2339,8200003005547,新規,0,2022-04-25,2022-04-25,合同会社ＫＩＳＴＹ　Ｄ＆Ｄ,,合同会社,岐阜県,可児市,土田５０３３番地１フレンズハイツ１０２,,21,214,5090206,,,,,,,2022-04-25,1,,,,,キスティディアンドディ,0
2341,8220005008661,新規,0,2022-04-25,2022-04-25,税理士法人白山コンサルティング,,その他の設立登記法人,石川県,白山市,橋爪町７０８番地１０,,17,210,9240812,,,,,,,2022-04-25,1,,,,,ハクサンコンサルティング,0
2350,8260001036786,新規,0,2022-04-25,2022-04-25,林瓦株式会社,,株式会社,岡山県,岡山市北区,吉備津５４５番地,,33,101,7011341,,,,,,,2022-04-25,1,,,,,ハヤシカワラ,0
2357,8290001097322,新規,0,2022-04-25,2022-04-25,ｍｉｃｏ＆ｄａｉｓｙ株式会社,,株式会社,福岡県,久留米市,西町１１８番地９,,40,203,8300038,,,,,,,2022-04-25,1,,,,,ミコアンドデイジー,0
2363,8300005007069,新規,0,2022-04-25,2022-04-25,一般社団法人隣友の会,,その他の設立登記法人,佐賀県,佐賀市,白山２丁目１－１２佐賀商工ビル７ＦＮｏ．２６,,41,201,8400826,,,,,,,2022-04-25,1,,,,,トナリトモノカイ,0
2367,8360001030300,新規,0,2022-04-25,2022-04-25,株式会社伊平屋酒造所,,株式会社,沖縄県,島尻郡伊平屋村,字我喜屋２１３１番地４０,,47,359,9050703,,,,,,,2022-04-25,1,,,,,イヘヤシュゾウショ,0
2378,8430001086483,新規,0,2022-04-25,2022-04-25,株式会社Ｃｈｅｅｒｆｕｌ　Ｌｉｆｅ　ａｎｄ　Ｅａｒｔｈ,,株式会社,北海道,北広島市,西の里東４丁目３番地１０,,01,234,0611105,,,,,,,2022-04-25,1,,,,,チアフルライフアンドアース,0
2382,8460001005688,新規,0,2022-04-25,2022-04-25,マル北水産株式会社,,株式会社,北海道,厚岸郡浜中町,丸山散布１丁目６０番地,,01,663,0881537,,,,,,,2022-04-25,1,,,,,マルキタスイサン,0
2388,8700150107970,新規,0,2022-04-25,2022-04-14,Ｒプランニング,,その他,京都府,京都市左京区,聖護院蓮華蔵町２８－４不破マンションＡ２０７号,,26,103,6068357,,,,,,,2022-04-14,1,,,,,アールプランニング,0
2393,9010001225776,新規,0,2022-04-25,2022-04-25,株式会社Ｗ＆Ｂ,,株式会社,東京都,中央区,日本橋蛎殻町１丁目３７番９号,,13,102,1030014,,,,,,,2022-04-25,1,,,,,ダブリューアンドビー,0
2394,9010001226048,新規,0,2022-04-25,2022-04-25,株式会社ｍｅｔａ　ｌａｂ,,株式会社,東京都,中央区,日本橋横山町３番１２号２階,,13,102,1030003,,,,,,,2022-04-25,1,,,,,メタラボ,0
2395,9010001226080,新規,0,2022-04-25,2022-04-25,株式会社ＬＫ国際医療グループ,,株式会社,東京都,千代田区,外神田３丁目６番２号ＦＨ協和スクエア３０２,,13,101,1010021,,,,,,,2022-04-25,1,,,,,エルケイコクサイイリョウグループ,0
2396,9010001226106,新規,0,2022-04-25,2022-04-25,株式会社ｅ‐ＣＬＡＰｉ,,株式会社,東京都,中央区,銀座１丁目２２番１１号銀座大竹ビジデンス２階,,13,102,1040061,,,,,,,2022-04-25,1,,,,,イークラッピ,0
2400,9010003037518,新規,0,2022-04-25,2022-04-25,ムスブレイン合同会社,,合同会社,東京都,中央区,日本橋１丁目２番１０号東洋ビル３Ｆ,,13,102,1030027,,,,,,,2022-04-25,1,,,,,ムスブレイン,0
2401,9010003037526,新規,0,2022-04-25,2022-04-25,リト合同会社,,合同会社,東京都,八丈島八丈町,三根５５４６番地,,13,401,1001511,,,,,,,2022-04-25,1,,,,,リト,0
2414,9010401166942,新規,0,2022-04-25,2022-04-25,ＳＷＡＰａｙ株式会社,,株式会社,東京都,港区,赤坂２丁目２１番１５号赤坂ＯＳビル３Ｆ,,13,103,1070052,,,,,,,2022-04-25,1,,,,,エスダブリュウエーペイ,0
2415,9010401166975,新規,0,2022-04-25,2022-04-25,株式会社ＲＩＳＥ,,株式会社,東京都,港区,高輪１丁目１８番３号ラプレ白金高輪１０２,,13,103,1080074,,,,,,,2022-04-25,1,,,,,ライズ,0
2419,9010403027523,新規,0,2022-04-25,2022-04-25,ＲＥ　ＤＥＳＩＧＮ合同会社,,合同会社,東京都,港区,南青山２丁目２番１５号,,13,103,1070062,,,,,,,2022-04-25,1,,,,,リデザイン,0
2424,9010601061051,新規,0,2022-04-25,2022-04-25,株式会社サンアシスト,,株式会社,東京都,江東区,東雲１丁目５番１８－１０１号,,13,108,1350062,,,,,,,2022-04-25,1,,,,,サンアシスト,0
2431,9010701042570,新規,0,2022-04-25,2022-04-25,株式会社ＷａＳｑｕａｔｅ,,株式会社,東京都,品川区,東五反田５丁目２２－３７,,13,109,1410022,,,,,,,2022-04-25,1,,,,,ワースケイト,0
2435,9010901050761,新規,0,2022-04-25,2022-04-25,株式会社ＴＨＥ　ＯＮＥＮＥＳＳ,,株式会社,東京都,世田谷区,用賀２丁目２９番２号,,13,112,1580097,,,,,,,2022-04-25,1,,,,,ザワンネス,0
2444,9011001146970,新規,0,2022-04-25,2022-04-25,株式会社ＹＯＴＳＵ,,株式会社,東京都,目黒区,上目黒５丁目２７－１８－３０７号ヘーベルメゾン上目黒,,13,110,1530051,,,,,,,2022-04-25,1,,,,,ヨツ,0
2445,9011001147102,新規,0,2022-04-25,2022-04-25,株式会社スタジオ・シュウカ,,株式会社,東京都,渋谷区,代々木１丁目３２番１１号Ｋビル７Ｆ,,13,113,1510053,,,,,,,2022-04-25,1,,,,,スタジオシュウカ,0
2446,9011001147110,新規,0,2022-04-25,2022-04-25,ＭＫフジ株式会社,,株式会社,東京都,目黒区,目黒本町２丁目２４番１７号,,13,110,1520002,,,,,,,2022-04-25,1,,,,,エムケイフジ,0
2447,9011001147127,新規,0,2022-04-25,2022-04-25,株式会社アズロスフィーダ,,株式会社,東京都,渋谷区,代々木３丁目１２番１１号,,13,113,1510053,,,,,,,2022-04-25,1,,,,,アズロスフィーダ,0
2448,9011001147135,新規,0,2022-04-25,2022-04-25,Ｈ．Ｓコンサルティング株式会社,,株式会社,東京都,渋谷区,桜丘町２６番１号セルリアンタワー１５階,,13,113,1500031,,,,,,,2022-04-25,1,,,,,エイチエスコンサルティング,0
2449,9011001147143,新規,0,2022-04-25,2022-04-25,坂野国際株式会社,,株式会社,東京都,渋谷区,神南１丁目１２番１４号,,13,113,1500041,,,,,,,2022-04-25,1,,,,,サカノコクサイ,0
2450,9011001147151,新規,0,2022-04-25,2022-04-25,株式会社ＫＲＰ,,株式会社,東京都,渋谷区,神宮前１丁目２３番８－６０８号ブリスベージュ神宮前,,13,113,1500001,,,,,,,2022-04-25,1,,,,,ケーアールピー,0
2453,9011003014589,新規,0,2022-04-25,2022-04-25,合同会社Ｃｕｔｅ　Ｃａｔ,,合同会社,東京都,渋谷区,渋谷２丁目１９番１５号宮益坂ビルディング６０９,,13,113,1500002,,,,,,,2022-04-25,1,,,,,キュウトキャット,0
2454,9011003014597,新規,0,2022-04-25,2022-04-25,ＳＩＰ合同会社,,合同会社,東京都,目黒区,上目黒３丁目３１番３２号クラルテ諏訪山１０１号室,,13,110,1530051,,,,,,,2022-04-25,1,,,,,エスアイピー,0
2459,9011105010239,新規,0,2022-04-25,2022-04-25,一般社団法人ジェイ・エイチ・エイチ,,その他の設立登記法人,東京都,新宿区,下宮比町１番４号,,13,104,1620822,,,,,,,2022-04-25,1,,,,,ジェイエイチエイチ,0
2465,9011403003638,新規,0,2022-04-25,2022-04-25,アルテス合同会社,,合同会社,東京都,板橋区,高島平２丁目２８番１－８２０号,,13,119,1750082,,,,,,,2022-04-25,1,,,,,アルテス,0
2467,9011601025913,新規,0,2022-04-25,2022-04-25,株式会社ＹＯＭＯＹＡＭＡ,,株式会社,東京都,練馬区,大泉学園町７丁目２０番４号,,13,120,1780061,,,,,,,2022-04-25,1,,,,,ヨモヤマ,0
2481,9012401039054,新規,0,2022-04-25,2022-04-25,株式会社元想設計事務所,,株式会社,東京都,武蔵野市,吉祥寺東町１丁目１８番９号,,13,203,1800002,,,,,,,2022-04-25,1,,,,,ゲンソウセッケイジムショ,0
2482,9012401039129,新規,0,2022-04-25,2022-04-25,株式会社Ｔｈｅ　Ｌｏｇｓ,,株式会社,東京都,調布市,調布ケ丘１丁目５－１国立大学法人電気通信大学内（電気通信大学インキュベーション施設）,,13,208,1820021,,,,,,,2022-04-25,1,,,,,ザログス,0
2483,9012403005335,新規,0,2022-04-25,2022-04-25,ギアードサイクリング合同会社,,合同会社,東京都,調布市,飛田給２丁目２９番地８ベルヴェデーレ調布２０２,,13,208,1820036,,,,,,,2022-04-25,1,,,,,ギアードサイクリング,0
2487,9012801021529,新規,0,2022-04-25,2022-04-25,株式会社Ａｔｈｌｉｆｅｓ,,株式会社,東京都,国立市,西２丁目４番地の６,,13,215,1860005,,,,,,,2022-04-25,1,,,,,アスライフス,0
2493,9013301048979,新規,0,2022-04-25,2022-04-25,ＯｒａｎｇｅＧｒｅｅｎＪＡＰＡＮ株式会社,,株式会社,東京都,豊島区,東池袋３丁目１－１サンシャイン６０ビル,,13,116,1700013,,,,,,,2022-04-25,1,,,,,オレンジグリーンジャパン,0
2508,9020001146261,新規,0,2022-04-25,2022-04-25,ＢＶ　Ｊａｐａｎ株式会社,,株式会社,神奈川県,横浜市中区,山下町２番地産業貿易センタービル２階,,14,104,2310023,,,,,,,2022-04-25,1,,,,,ビーヴィージャパン,0
2509,9020001146278,新規,0,2022-04-25,2022-04-25,株式会社ＴＫＳ,,株式会社,神奈川県,横浜市西区,みなとみらい４丁目９番２－Ｄ１２０８号,,14,103,2200012,,,,,,,2022-04-25,1,,,,,ティーケーエス,0
2510,9020001146286,新規,0,2022-04-25,2022-04-25,ハル商会株式会社,,株式会社,神奈川県,横浜市都筑区,荏田東４丁目３１番３号,,14,118,2240006,,,,,,,2022-04-25,1,,,,,ハルショウカイ,0
2511,9020003021669,新規,0,2022-04-25,2022-04-25,合同会社鈴鹿ＥＲＩ２号,,合同会社,神奈川県,横浜市港北区,新横浜２丁目５番地２新横浜Ｕ・Ｕビル５階,,14,109,2220033,,,,,,,2022-04-25,1,,,,,スズカイーアールアイニゴウ,0
2512,9020003021693,新規,0,2022-04-25,2022-04-25,合同会社ＨＡＫＯＢＵＮＥ,,合同会社,神奈川県,横浜市中区,吉浜町２番地１０ＩＤＡビル４０４,,14,104,2310024,,,,,,,2022-04-25,1,,,,,ハコブネ,0
2513,9020005015504,新規,0,2022-04-25,2022-04-25,一般社団法人ウェルネスデザイン協会,,その他の設立登記法人,神奈川県,横浜市中区,桜木町１丁目１０１番地１クロスゲート７階,,14,104,2310062,,,,,,,2022-04-25,1,,,,,ウェルネスデザインキョウカイ,0
2524,9030001147787,新規,0,2022-04-25,2022-04-25,株式会社ロイアーク,,株式会社,埼玉県,さいたま市北区,宮原町２丁目１１８番地３８,,11,102,3310812,,,,,,,2022-04-25,1,,,,,ロイアーク,0
2525,9030001147837,新規,0,2022-04-25,2022-04-25,Ａｓｔａｓｉａ株式会社,,株式会社,埼玉県,川口市,大字安行領根岸８５１番地５,,11,203,3330834,,,,,,,2022-04-25,1,,,,,アスタシア,0
2526,9030001147853,新規,0,2022-04-25,2022-04-25,華＿株式会社,00126392,株式会社,埼玉県,蕨市,南町３丁目１４番１１号,,11,223,3350003,,,,,,,2022-04-25,1,,,,,カウン,0
2527,9030003019299,新規,0,2022-04-25,2022-04-25,合同会社ＳＢＳ,,合同会社,埼玉県,飯能市,本町１番１１号ＫＩＶオフィス飯能Ａ号室,,11,209,3570032,,,,,,,2022-04-25,1,,,,,エスビーエス,0
2531,9040001123168,新規,0,2022-04-25,2022-04-25,株式会社秋源,,株式会社,千葉県,松戸市,小根本５７番地の２森山ハイツ１０２,,12,207,2710073,,,,,,,2022-04-25,1,,,,,シュウゲン,0
2534,9040003019934,新規,0,2022-04-25,2022-04-25,合同会社ＳＨケアオートマート,,合同会社,千葉県,白井市,折立５４８番地１Ａ－１,,12,232,2701404,,,,,,,2022-04-25,1,,,,,エスエイチケアオートマート,0
2540,9060001034792,新規,0,2022-04-25,2022-04-25,国際商会株式会社,,株式会社,栃木県,栃木市,岩舟町静２４３２番地１,,09,203,3294307,,,,,,,2022-04-25,1,,,,,コクサイショウカイ,0
2542,9060003004050,新規,0,2022-04-25,2022-04-25,ＲＹＣ合同会社,,合同会社,栃木県,栃木市,城内町１丁目２番１９号,,09,203,3280033,,,,,,,2022-04-25,1,,,,,アールワイシー,0
2549,9100001035282,新規,0,2022-04-25,2022-04-25,株式会社ＲＡＬＰＨ,,株式会社,長野県,茅野市,湖東６５９５番地１１６,,20,214,3910211,,,,,,,2022-04-25,1,,,,,ラルフ,0
2551,9100003006521,新規,0,2022-04-25,2022-04-25,Ｍ’ｓＨＯＵＳＥ合同会社,,合同会社,長野県,長野市,大字金箱９５番地９,,20,201,3810007,,,,,,,2022-04-25,1,,,,,エムズハウス,0
2553,9110003004747,新規,0,2022-04-25,2022-04-25,合同会社光工業,,合同会社,新潟県,五泉市,三本木２８６番地５,,15,218,9591811,,,,,,,2022-04-25,1,,,,,ヒカルコウギョウ,0
2560,9120001245375,新規,0,2022-04-25,2022-04-25,Ｉｎｉｏｄ株式会社,,株式会社,大阪府,大阪市北区,鶴野町４番１１号朝日プラザ梅田２階,,27,127,5300014,,,,,,,2022-04-25,1,,,,,イニオド,0
2561,9120001245400,新規,0,2022-04-25,2022-04-25,株式会社ＭｏｎｄｅＢｌｉｓｓ,,株式会社,大阪府,大阪市北区,堂山町５番１８号,,27,127,5300027,,,,,,,2022-04-25,1,,,,,モンドブリス,0
2562,9120001245409,新規,0,2022-04-25,2022-04-25,株式会社アップリング,,株式会社,大阪府,大阪市阿倍野区,天王寺町南３丁目６番９号,,27,119,5450002,,,,,,,2022-04-25,1,,,,,アップリング,0
2563,9120001245417,新規,0,2022-04-25,2022-04-25,株式会社ＡＷＳ,,株式会社,大阪府,大阪市西区,北堀江１丁目５番８号ＳｔｏＲＫ北堀江５０３,,27,106,5500014,,,,,,,2022-04-25,1,,,,,エーダブルエス,0
2564,9120001245425,新規,0,2022-04-25,2022-04-25,株式会社愛里Ｃｏｍｐａｎｙ,,株式会社,大阪府,大阪市住之江区,御崎５丁目１３番２３号,,27,125,5590013,,,,,,,2022-04-25,1,,,,,アイリカンパニー,0
2565,9120001245458,新規,0,2022-04-25,2022-04-25,ＪＩＬＬ＆ＴＥＴＯ株式会社,,株式会社,大阪府,大阪市北区,天神橋７丁目１５番５号好きやねん大阪ビル５階,,27,127,5310041,,,,,,,2022-04-25,1,,,,,ジルアンドテト,0
2566,9120001245466,新規,0,2022-04-25,2022-04-25,Ｋ・Ｋパネル株式会社,,株式会社,大阪府,大阪市西成区,聖天下２丁目４番１号,,27,122,5570012,,,,,,,2022-04-25,1,,,,,ケーケーパネル,0
2567,9120001245490,新規,0,2022-04-25,2022-04-25,株式会社アイティエスロジスティクス,,株式会社,大阪府,大阪市中央区,内本町２丁目１番１９号内本町松屋ビル１０－９階,,27,128,5400026,,,,,,,2022-04-25,1,,,,,アイティエスロジスティクス,0
2569,9120003021535,新規,0,2022-04-25,2022-04-25,合同会社樋口企画,00126397,合同会社,大阪府,大阪市住吉区,住吉２丁目３番１１号,,27,120,5580045,,,,,,,2022-04-25,1,,,,,ヒグチキカク,0
2570,9120101065467,新規,0,2022-04-25,2022-04-25,株式会社ルポンレーヴ,,株式会社,大阪府,和泉市,緑ケ丘２丁目９番３号,,27,219,5941155,,,,,,,2022-04-25,1,,,,,ルポンレーヴ,0
2571,9120101065475,新規,0,2022-04-25,2022-04-25,亀井電気株式会社,,株式会社,大阪府,高石市,西取石６丁目１番３号,,27,225,5920012,,,,,,,2022-04-25,1,,,,,カメイデンキ,0
2572,9120101065483,新規,0,2022-04-25,2022-04-25,株式会社サウスビレッジ,,株式会社,大阪府,富田林市,若松町５丁目１－７,,27,214,5840024,,,,,,,2022-04-25,1,,,,,サウスビレッジ,0
2576,9120903004127,新規,0,2022-04-25,2022-04-25,一八合同会社,,合同会社,大阪府,箕面市,西小路１丁目２番１１号,,27,220,5620003,,,,,,,2022-04-25,1,,,,,イチハチ,0
2579,9122001035797,新規,0,2022-04-25,2022-04-25,株式会社四季工房,,株式会社,大阪府,東大阪市,中石切町３丁目５－４４,,27,227,5798014,,,,,,,2022-04-25,1,,,,,シキコウボウ,0
2580,9122001035806,新規,0,2022-04-25,2022-04-25,株式会社飛影,,株式会社,大阪府,東大阪市,長堂１丁目１０－２０サンモール１２１３号,,27,227,5770056,,,,,,,2022-04-25,1,,,,,ヒエイ,0
2583,9130001071639,新規,0,2022-04-25,2022-04-25,株式会社西川建設,,株式会社,京都府,舞鶴市,字朝来中８１５番地１０－Ａ３０４号,,26,202,6250005,,,,,,,2022-04-25,1,,,,,ニシカワケンセツ,0
2586,9130005016458,新規,0,2022-04-25,2022-04-25,特定非営利活動法人きょうと健康相談室,,その他の設立登記法人,京都府,京都市下京区,西七条比輪田町３３番地パデシオン西七条５０２号,,26,106,6008882,,,,,,,2022-04-25,1,,,,,キョウトケンコウソウダンシツ,0
2588,9140001125757,新規,0,2022-04-25,2022-04-25,株式会社クリタ,,株式会社,兵庫県,神戸市灘区,高尾通４丁目３番１５－４１３号,,28,102,6570813,,,,,,,2022-04-25,1,,,,,クリタ,0
2589,9140001125773,新規,0,2022-04-25,2022-04-25,株式会社Ｍａｙｂｅ,,株式会社,兵庫県,西脇市,黒田庄町岡１０６８番地の４９,,28,213,6790313,,,,,,,2022-04-25,1,,,,,メイビー,0
2590,9140001125781,新規,0,2022-04-25,2022-04-25,株式会社ファーストステイ,,株式会社,兵庫県,尼崎市,南武庫之荘３丁目２３番１８号,,28,202,6610033,,,,,,,2022-04-25,1,,,,,ファーストステイ,0
2592,9140005026150,新規,0,2022-04-25,2022-04-25,特定非営利活動法人グロースカンパニー,,その他の設立登記法人,兵庫県,尼崎市,長洲本通１丁目７番１号ＷＥＳＴハイツ２０２,,28,202,6600803,,,,,,,2022-04-25,1,,,,,グロースカンパニー,0
2593,9150001025493,新規,0,2022-04-25,2022-04-25,オブオール株式会社,,株式会社,奈良県,生駒市,小明町５８６番地２,,29,209,6300201,,,,,,,2022-04-25,1,,,,,オブオール,0
2595,9160003002556,新規,0,2022-04-25,2022-04-25,合同会社ＢＡＢＹ　ＢｏＳＳ,,合同会社,滋賀県,大津市,唐橋町７番３３号,,25,201,5200851,,,,,,,2022-04-25,1,,,,,ベイビーボス,0
2614,9180001151056,新規,0,2022-04-25,2022-04-25,株式会社リアンポート,,株式会社,愛知県,名古屋市西区,浄心１丁目１番３８－３０５号,,23,104,4510061,,,,,,,2022-04-25,1,,,,,リアンポート,0
2625,9180303005315,新規,0,2022-04-25,2022-04-25,松合同会社,,合同会社,愛知県,豊橋市,賀茂町字御灯田２７番地の１０,,23,201,4411101,,,,,,,2022-04-25,1,,,,,マツ,0
2629,9190003003972,新規,0,2022-04-25,2022-04-25,ｎｍｉ合同会社,,合同会社,三重県,三重郡朝日町,大字縄生１０４０番地１サンテラスＮＡＯ－Ｂ－２,,24,343,5108101,,,,,,,2022-04-25,1,,,,,エヌエムアイ,0
2633,9200005013340,新規,0,2022-04-25,2022-04-25,弁護士法人見田村法律事務所,,その他の設立登記法人,岐阜県,岐阜市,明徳町１０杉山ビル３階,,21,201,5008813,,,,,,,2022-04-25,1,,,,,ミタムラホウリツジムショ,0
2651,9260001036793,新規,0,2022-04-25,2022-04-25,株式会社奈義大動物病院,,株式会社,岡山県,勝田郡奈義町,久常２９５番地３６,,33,623,7081311,,,,,,,2022-04-25,1,,,,,ナギダイドウブツビョウイン,0
2654,9260003003890,新規,0,2022-04-25,2022-04-25,木の住まいしのおか合同会社,,合同会社,岡山県,岡山市中区,国富３丁目５番４号,,33,102,7038236,,,,,,,2022-04-25,1,,,,,キノスマイシノオカ,0
2658,9280001008683,新規,0,2022-04-25,2022-04-25,株式会社ＮＥＯ,,株式会社,島根県,鹿足郡津和野町,後田イ１０６番地,,32,501,6995605,,,,,,,2022-04-25,1,,,,,ネオ,0
2663,9290001097288,新規,0,2022-04-25,2022-04-25,株式会社ＧＩＵＳＴＯ,,株式会社,福岡県,福岡市南区,大楠１丁目３２番１７号,,40,134,8150082,,,,,,,2022-04-25,1,,,,,ジュスト,0
2664,9290001097313,新規,0,2022-04-25,2022-04-25,株式会社Ｄ’ｓ,,株式会社,福岡県,八女市,大籠２８３番地１ドミール八女２Ｆ南２０１号,,40,210,8340013,,,,,,,2022-04-25,1,,,,,ディーズ,0
2666,9290003012427,新規,0,2022-04-25,2022-04-25,西鉄自然電力合同会社,,合同会社,福岡県,福岡市博多区,博多駅前３丁目５番７号,,40,132,8120011,,,,,,,2022-04-25,1,,,,,ニシテツシゼンデンリョク,0
2667,9290003012443,新規,0,2022-04-25,2022-04-25,合同会社ラフテル,,合同会社,福岡県,糸島市,潤１丁目２番２５号,,40,230,8191105,,,,,,,2022-04-25,1,,,,,ラフテル,0
2676,9330003009336,新規,0,2022-04-25,2022-04-25,合同会社Ｊ．Ｇフーズ,,合同会社,熊本県,熊本市北区,龍田陳内３丁目３４番８号,,43,105,8618005,,,,,,,2022-04-25,1,,,,,ジェイジーフーズ,0
2677,9330003009344,新規,0,2022-04-25,2022-04-25,合同会社けろしゃん,,合同会社,熊本県,熊本市中央区,壺川１丁目８番２７－１号,,43,101,8600076,,,,,,,2022-04-25,1,,,,,ケロシャン,0
2682,9340001024674,新規,0,2022-04-25,2022-04-25,株式会社エクシード,,株式会社,鹿児島県,鹿児島市,西田２丁目１３番１６号,,46,201,8900046,,,,,,,2022-04-25,1,,,,,エクシード,0
2703,9430003013831,新規,0,2022-04-25,2022-04-25,合同会社Ｄ４Ｃ,,合同会社,北海道,札幌市中央区,北四条西１１丁目４２番１号ソーレルハイツ植物園２０２号室,,01,101,0600004,,,,,,,2022-04-25,1,,,,,ディーフォーシー,0
2704,9430003013856,新規,0,2022-04-25,2022-04-25,Ｂｌｕｅ　Ｂｏｏｋ合同会社,,合同会社,北海道,札幌市中央区,南八条西１３丁目２番３７－４０５号,,01,101,0640808,,,,,,,2022-04-25,1,,,,,ブルーブック,0
2712,9700150107953,新規,0,2022-04-25,2022-04-14,ＳＤＫ,,その他,東京都,新宿区,上落合１丁目３０番１１号ハウス多鹿１０２,,13,104,1610034,,,,,,,2022-04-14,1,,,,,エスデイーケー,0
2713,9700150108324,新規,0,2022-04-25,2022-04-25,糸島二丈絆太鼓,,その他,福岡県,糸島市,二丈石崎８３番地１,,40,230,8191623,,,,,,,2022-04-25,1,,,,,イトシマニジョウキズナダイコ,0
