sequenceNumber,corporateNumber,process,correct,updateDate,changeDate,name,nameImageId,kind,prefectureName,cityName,streetNumber,addressImageId,prefectureCode,cityCode,postCode,addressOutside,addressOutsideImageId,closeDate,closeCause,successorCorporateNumber,changeCause,assignmentDate,latest,enName,enPrefectureName,enCityName,enAddressOutside,furigana,hihyoji
15,1010001221502,新規,0,2021-10-12,2021-10-12,株式会社Ｓｈａｒｅ＆Ｃｏｎｎｅｃｔ,,株式会社,東京都,中央区,築地６丁目１２－１フレンシア築地２０２号室,,13,102,1040045,,,,,,,2021-10-12,1,,,,,シェアアンドコネクト,0
16,1010001221650,新規,0,2021-10-12,2021-10-12,株式会社Ｕ＆Ｐ,,株式会社,東京都,中央区,銀座１丁目１２番４号Ｎ＆ＥＢＬＤ．７階,,13,102,1040061,,,,,,,2021-10-12,1,,,,,ユーアンドピー,0
17,1010001221700,新規,0,2021-10-12,2021-10-12,株式会社Ｊｏｓａｎ－ｓｈｅ’ｓ,,株式会社,東京都,中央区,日本橋２丁目１番地１７号丹生ビル２階,,13,102,1030027,,,,,,,2021-10-12,1,,,,,ジョサンシーズ,0
23,1010003035958,新規,0,2021-10-12,2021-10-12,Ｓｔｒｉｖｅ合同会社,,合同会社,東京都,千代田区,平河町１丁目６番１５号ＵＳビル８０２号室,,13,101,1020093,,,,,,,2021-10-12,1,,,,,ストライブ,0
25,1010005034066,新規,0,2021-10-12,2021-10-12,一般社団法人西舞子ヘルスケア,,その他の設立登記法人,東京都,中央区,銀座２丁目１０番８号マニエラ銀座ビル４階,,13,102,1040061,,,,,,,2021-10-12,1,,,,,ニシマイコヘルスケア,0
35,1010401163121,新規,0,2021-10-12,2021-10-12,株式会社悟空テクノロジーズ,,株式会社,東京都,港区,麻布台１丁目７番３号,,13,103,1060041,,,,,,,2021-10-12,1,,,,,ゴクウテクノロジーズ,0
42,1010601060060,新規,0,2021-10-12,2021-10-12,株式会社インテリア冨塚,00124542,株式会社,東京都,墨田区,墨田４丁目５０番４号,,13,107,1310031,,,,,,,2021-10-12,1,,,,,インテリアトミヅカ,0
43,1010601060069,新規,0,2021-10-12,2021-10-12,株式会社大生,,株式会社,東京都,江東区,亀戸６丁目２０番８－２０５号,,13,108,1360071,,,,,,,2021-10-12,1,,,,,タイセイ,0
45,1010701041613,新規,0,2021-10-12,2021-10-12,株式会社ジモカー,,株式会社,東京都,品川区,西五反田１丁目３０番２号,,13,109,1410031,,,,,,,2021-10-12,1,,,,,ジモカー,0
59,1011001143307,新規,0,2021-10-12,2021-10-12,株式会社イミリミ,,株式会社,東京都,渋谷区,渋谷２丁目１９－１５宮益坂ビルディング６０９,,13,113,1500002,,,,,,,2021-10-12,1,,,,,イミリミ,0
60,1011001143315,新規,0,2021-10-12,2021-10-12,草本優子研究開発株式会社,,株式会社,東京都,渋谷区,神宮前６丁目２３番４号桑野ビル２階,,13,113,1500001,,,,,,,2021-10-12,1,,,,,ソウホンユウコケンキュウカイハツ,0
65,1011003013549,新規,0,2021-10-12,2021-10-12,合同会社ロイズノア,,合同会社,東京都,渋谷区,渋谷２丁目１９－１５宮益坂ビルディング６０９,,13,113,1500002,,,,,,,2021-10-12,1,,,,,ロイズノア,0
66,1011101096314,新規,0,2021-10-12,2021-10-12,株式会社トップサポートジャパン,,株式会社,東京都,新宿区,西新宿４丁目１２－７ガラステージ西新宿４０９,,13,104,1600023,,,,,,,2021-10-12,1,,,,,トップサポートジャパン,0
67,1011101096537,新規,0,2021-10-12,2021-10-12,株式会社ＥＮＮＮ,,株式会社,東京都,新宿区,西新宿５丁目５番１号ＴＰＨ６０－３４１７,,13,104,1600023,,,,,,,2021-10-12,1,,,,,エンン,0
70,1011103011064,新規,0,2021-10-12,2021-10-12,Ｓｅｐｔｅｎｉ　Ｇｌｏｂａｌ合同会社,,合同会社,東京都,新宿区,西新宿８丁目１７番１号,,13,104,1600023,,,,,,,2021-10-12,1,,,,,セプテーニグローバル,0
71,1011105010007,新規,0,2021-10-12,2021-10-12,一般社団法人ＴＵ０４,,その他の設立登記法人,東京都,新宿区,四谷２丁目９番地１５東京ユナイテッド綜合事務所内,,13,104,1600004,,,,,,,2021-10-12,1,,,,,ティーユーゼロフォー,0
72,1011301027234,新規,0,2021-10-12,2021-10-12,株式会社令三社,,株式会社,東京都,杉並区,和泉２丁目１３番１７－３０５号フェアロージュ永福町,,13,115,1680063,,,,,,,2021-10-12,1,,,,,レイサンシャ,0
77,1011601025441,新規,0,2021-10-12,2021-10-12,株式会社ライドオン,,株式会社,東京都,練馬区,土支田１丁目２８－１５－１Ｆ,,13,120,1790076,,,,,,,2021-10-12,1,,,,,ライドオン,0
78,1011601025458,新規,0,2021-10-12,2021-10-12,株式会社ドゥアンドゥ,,株式会社,東京都,練馬区,旭丘１丁目４６番９号クローバーハイツ２０２号室,,13,120,1760005,,,,,,,2021-10-12,1,,,,,ドゥアンドゥ,0
80,1011701024772,新規,0,2021-10-12,2021-10-12,サムライマーケット株式会社,,株式会社,東京都,江戸川区,西一之江２丁目２２番２２号,,13,123,1320023,,,,,,,2021-10-12,1,,,,,サムライマーケット,0
83,1011801039803,新規,0,2021-10-12,2021-10-12,株式会社リハウジング,,株式会社,東京都,足立区,竹の塚１丁目３６番７号エンゼルハイム竹の塚駅前２０１号,,13,121,1210813,,,,,,,2021-10-12,1,,,,,リハウジング,0
86,1012305001976,新規,0,2021-10-12,2021-10-12,一般社団法人やおろず舎,,その他の設立登記法人,東京都,町田市,東玉川学園１丁目３３番１９号,,13,209,1940042,,,,,,,2021-10-12,1,,,,,ヤオロズシャ,0
95,1012803002625,新規,0,2021-10-12,2021-10-12,盈利合同会社,,合同会社,東京都,立川市,栄町５丁目３７番地の２２,,13,202,1900003,,,,,,,2021-10-12,1,,,,,エイリ,0
105,1020001143241,新規,0,2021-10-12,2021-10-12,株式会社Ｍｉｌｌｅ　Ｃｒｉｓｔａｌｌｏ,,株式会社,神奈川県,横浜市旭区,今宿１丁目４１番８号,,14,112,2410817,,,,,,,2021-10-12,1,,,,,ミレクリスタロ,0
117,1021001074187,新規,0,2021-10-12,2021-10-12,ＴＯＹＯ　ＭＯＴＯＲＳ株式会社,,株式会社,神奈川県,厚木市,三田南２丁目２５番地３１グレイトフル三田ＩＩ１０５,00124533,14,212,2430217,,,,,,,2021-10-12,1,,,,,トーヨーモータース,0
135,1050001049989,新規,0,2021-10-12,2021-10-12,らぺら株式会社,,株式会社,茨城県,水戸市,東原２丁目９番１４号,,08,201,3100035,,,,,,,2021-10-12,1,,,,,ラペラ,0
150,1080003002662,新規,0,2021-10-12,2021-10-12,合同会社Ａｇｇｒｉｇａｔｉｏｎ,,合同会社,静岡県,静岡市清水区,草薙３６５番地の１８０,,22,103,4240886,,,,,,,2021-10-12,1,,,,,アグリゲーション,0
151,1080101022810,新規,0,2021-10-12,2021-10-12,株式会社ＴＡＫＩ,,株式会社,静岡県,下田市,一丁目４番２７号,,22,219,4150021,,,,,,,2021-10-12,1,,,,,タキ,0
152,1080105006181,新規,0,2021-10-12,2021-10-12,税理士法人和田会計,,その他の設立登記法人,静岡県,富士市,水戸島元町１４番１８号ＷＥＬＬ’ＳＨＩＬＬ１階Ｅ,,22,210,4160922,,,,,,,2021-10-12,1,,,,,ワダカイケイ,0
155,1100001034713,新規,0,2021-10-12,2021-10-12,株式会社安曇野ボーリング,,株式会社,長野県,安曇野市,堀金烏川１５１８番地６２,,20,220,3998211,,,,,,,2021-10-12,1,,,,,アズミノボーリング,0
173,1120001241051,新規,0,2021-10-12,2021-10-12,ハイツ管理組合株式会社,,株式会社,大阪府,大阪市淀川区,塚本２丁目１９番６号,,27,123,5320026,,,,,,,2021-10-12,1,,,,,ハイツカンリクミアイ,0
174,1120001241076,新規,0,2021-10-12,2021-10-12,株式会社フラワーケアセンター,,株式会社,大阪府,大阪市東住吉区,田辺２丁目７番１６号,,27,121,5460031,,,,,,,2021-10-12,1,,,,,フラワーケアセンター,0
175,1120001241084,新規,0,2021-10-12,2021-10-12,長吉電設株式会社,,株式会社,大阪府,大阪市平野区,長吉長原１丁目７番３１号,,27,126,5470016,,,,,,,2021-10-12,1,,,,,ナガヨシデンセツ,0
184,1120105009460,新規,0,2021-10-12,2021-10-12,社会福祉法人萬年会,,その他の設立登記法人,大阪府,堺市北区,黒土町１３番４,,27,146,5918024,,,,,,,2021-10-12,1,,,,,マンネンカイ,0
190,1130003007540,新規,0,2021-10-12,2021-10-12,合同会社京船戸,,合同会社,京都府,京都市西京区,川島滑樋町３３－２０,,26,111,6158106,,,,,,,2021-10-12,1,,,,,キョウフナト,0
196,1140001123462,新規,0,2021-10-12,2021-10-12,富島海運ホールディングス株式会社,,株式会社,兵庫県,神戸市中央区,中山手通３丁目２番１－２９０２号,,28,110,6500004,,,,,,,2021-10-12,1,,,,,トミシマカイウンホールディングス,0
197,1140003016838,新規,0,2021-10-12,2021-10-12,ベータ商事合同会社,,合同会社,兵庫県,神戸市西区,井吹台西町１丁目７番地,,28,111,6512243,,,,,,,2021-10-12,1,,,,,,0
199,1140005025853,新規,0,2021-10-12,2021-10-12,特定非営利活動法人ＯＬＩＶＥ,,その他の設立登記法人,兵庫県,高砂市,曽根町２４０４番地の５,,28,216,6760082,,,,,,,2021-10-12,1,,,,,オリーブ,0
207,1160001023719,新規,0,2021-10-12,2021-10-12,株式会社徳谷自動車,00124535,株式会社,滋賀県,蒲生郡竜王町,大字岡屋２５４７番地１,,25,384,5202541,,,,,,,2021-10-12,1,,,,,トクヤジドウシャ,0
218,1180001147920,新規,0,2021-10-12,2021-10-12,株式会社Ｋｅｅｐ　Ｇｏｉｎｇ,,株式会社,愛知県,名古屋市中村区,岩塚町５丁目４１番地の２,,23,105,4530862,,,,,,,2021-10-12,1,,,,,キープゴーイング,0
219,1180001148217,新規,0,2021-10-12,2021-10-12,株式会社ワントル,,株式会社,愛知県,名古屋市中川区,元中野町４丁目１０６番地の１,,23,110,4540048,,,,,,,2021-10-12,1,,,,,ワントル,0
229,1180301035494,新規,0,2021-10-12,2021-10-12,大原工業株式会社,,株式会社,愛知県,豊田市,上挙母３丁目１番地,,23,211,4710866,,,,,,,2021-10-12,1,,,,,オオハラコウギョウ,0
230,1180301035503,新規,0,2021-10-12,2021-10-12,株式会社クーリア,,株式会社,愛知県,岡崎市,橋目町字御小屋西１８９番地３,,23,202,4440909,,,,,,,2021-10-12,1,,,,,クーリア,0
231,1180301035511,新規,0,2021-10-12,2021-10-12,株式会社ＯＡＫＭＯＮＤ,,株式会社,愛知県,安城市,里町三郎２２番地１,,23,212,4460001,,,,,,,2021-10-12,1,,,,,オークモンド,0
233,1180303005132,新規,0,2021-10-12,2021-10-12,クレミールジャパン合同会社,,合同会社,愛知県,田原市,亀山町瀬戸畑１９番地,,23,231,4413625,,,,,,,2021-10-12,1,,,,,クレミールジャパン,0
235,1200001039289,新規,0,2021-10-12,2021-10-12,アーチュ株式会社,,株式会社,岐阜県,大垣市,宿地町１０８６－１２,,21,202,5030024,,,,,,,2021-10-12,1,,,,,アーチュ,0
238,1210001018647,新規,0,2021-10-12,2021-10-12,株式会社エリーゼ,,株式会社,福井県,福井市,開発４丁目１０７番地１,,18,201,9100842,,,,,,,2021-10-12,1,,,,,エリーゼ,0
246,1240001058748,新規,0,2021-10-12,2021-10-12,株式会社建央工業社,,株式会社,広島県,東広島市,黒瀬町大多田８７７番地２,,34,212,7392611,,,,,,,2021-10-12,1,,,,,ケンオウコウギョウシャ,0
247,1240001058756,新規,0,2021-10-12,2021-10-12,株式会社タカハシ企画,,株式会社,広島県,東広島市,黒瀬町津江４０２７,,34,212,7392732,,,,,,,2021-10-12,1,,,,,タカハシキカク,0
254,1250001019195,新規,0,2021-10-12,2021-10-12,株式会社岡田自動車,,株式会社,山口県,下松市,清瀬町３丁目１５番１号,,35,207,7440071,,,,,,,2021-10-12,1,,,,,オカダジドウシャ,0
258,1280001008534,新規,0,2021-10-12,2021-10-12,ヨシダ工業株式会社,,株式会社,島根県,江津市,後地町２１９０番地７,,32,207,6992841,,,,,,,2021-10-12,1,,,,,ヨシダコウギョウ,0
264,1290001094920,新規,0,2021-10-12,2021-10-12,本田建設工業株式会社,,株式会社,福岡県,福岡市博多区,麦野１丁目２８番２２号,,40,132,8120882,,,,,,,2021-10-12,1,,,,,ホンダケンセツコウギョウ,0
265,1290001094953,新規,0,2021-10-12,2021-10-12,株式会社ユーノ,,株式会社,福岡県,福岡市早良区,梅林６丁目５番１６号,,40,137,8140172,,,,,,,2021-10-12,1,,,,,ユーノ,0
271,1320001018669,新規,0,2021-10-12,2021-10-12,株式会社オフィスＫ,,株式会社,大分県,大分市,三佐１丁目１６番１１号,,44,201,8700108,,,,,,,2021-10-12,1,,,,,オフィスケイ,0
280,1350001017362,新規,0,2021-10-12,2021-10-12,株式会社Ｍ－Ｌａｂｏ,,株式会社,宮崎県,宮崎市,恒久４丁目１１番地５パークサイド城ケ崎１０２号,,45,201,8800913,,,,,,,2021-10-12,1,,,,,エムラボ,0
283,1360001029497,新規,0,2021-10-12,2021-10-12,株式会社Ｃｒｏｓｓ　Ｅｄｕｃａｔｉｏｎ,,株式会社,沖縄県,中頭郡北谷町,字浜川２１７番地３（１－Ａ）,,47,326,9040112,,,,,,,2021-10-12,1,,,,,クロスエデュケーション,0
301,1400001015633,新規,0,2021-10-12,2021-10-12,Ｇｒｅｅｎ　Ｎｅｉｇｈｂｏｒｓ　Ｈａｒｄ　Ｃｉｄｅｒ株式会社,,株式会社,岩手県,紫波郡矢巾町,医大通２丁目４番８号,,03,322,0283609,,,,,,,2021-10-12,1,,,,,グリーンネイバースハードサイダー,0
312,1430003013236,新規,0,2021-10-12,2021-10-12,合同会社ＭＯＳＴ,,合同会社,北海道,江別市,文京台東町１１－２４,,01,217,0690834,,,,,,,2021-10-12,1,,,,,モースト,0
316,1460103001402,新規,0,2021-10-12,2021-10-12,エゾガシマ合同会社,,合同会社,北海道,帯広市,大空町８丁目２番地６,,01,207,0800838,,,,,,,2021-10-12,1,,,,,エゾガシマ,0
328,2010001221708,新規,0,2021-10-12,2021-10-12,株式会社ＫＰＩ,,株式会社,東京都,中央区,銀座１丁目２２番１１号銀座大竹ビジデンス２階,,13,102,1040061,,,,,,,2021-10-12,1,,,,,ケーピーアイ,0
329,2010001221757,新規,0,2021-10-12,2021-10-12,株式会社ＫＯＺＡＮ,,株式会社,東京都,中央区,日本橋馬喰町１丁目１２番７号,,13,102,1030002,,,,,,,2021-10-12,1,,,,,コウザン,0
332,2010003036014,新規,0,2021-10-12,2021-10-12,Ｆｏｏｔ　Ｌｏｏｋｅｒ　ａｔｍｏｓ　Ｊａｐａｎ合同会社,,合同会社,東京都,千代田区,丸の内２丁目１番１号明治生命館７階ディーエルエイ・パイパー東京パートナーシップ外国法共同事業法律事務所内,,13,101,1000005,,,,,,,2021-10-12,1,,,,,フットロッカーアトモスジャパン,0
339,2010401163095,新規,0,2021-10-12,2021-10-12,株式会社Ｋｉｔｏｎ　Ｂｌｕｅ　ＰＵ,,株式会社,東京都,港区,浜松町２丁目２番１５号浜松町ダイヤビル２Ｆ,,13,103,1050013,,,,,,,2021-10-12,1,,,,,キトンブループー,0
340,2010401163129,新規,0,2021-10-12,2021-10-12,ＣＯＴＯＲＩ株式会社,,株式会社,東京都,港区,南青山５丁目１１番２４号グレイセス２階,,13,103,1070062,,,,,,,2021-10-12,1,,,,,コトリ,0
342,2010403026291,新規,0,2021-10-12,2021-10-12,福久国際釣具合同会社,,合同会社,東京都,港区,芝大門２丁目４番５号芝ダイヤハイツ９０８,,13,103,1050012,,,,,,,2021-10-12,1,,,,,フクヒサコクサイツリグ,0
343,2010403026300,新規,0,2021-10-12,2021-10-12,ＡＲＴＲＩＰ合同会社,,合同会社,東京都,港区,南青山２丁目２－１５,,13,103,1070062,,,,,,,2021-10-12,1,,,,,アートリップ,0
345,2010405020268,新規,0,2021-10-12,2021-10-12,一般社団法人ＴＥＮＥＴ,,その他の設立登記法人,東京都,港区,赤坂４丁目８番１９号赤坂フロントタウン３階,,13,103,1070052,,,,,,,2021-10-12,1,,,,,テネット,0
346,2010501047958,新規,0,2021-10-12,2021-10-12,株式会社一凛堂,,株式会社,東京都,台東区,今戸２丁目２０番５－４０２号フォースター浅草今戸,,13,106,1110024,,,,,,,2021-10-12,1,,,,,イチリンドウ,0
349,2010601060051,新規,0,2021-10-12,2021-10-12,ＤＵＮＬＩＮ　ＨＩＬＬＳ株式会社,,株式会社,東京都,江東区,豊洲１丁目３番１－２９０６号,,13,108,1350061,,,,,,,2021-10-12,1,,,,,ダンリンヒルズ,0
354,2010701041620,新規,0,2021-10-12,2021-10-12,株式会社Ｗｏｒｌｄ　Ｇｒｏｕｎｄ,,株式会社,東京都,品川区,南大井２丁目９番３号ルフォンブランシェ品川南大井３０１,,13,109,1400013,,,,,,,2021-10-12,1,,,,,ワールドグラウンド,0
356,2010705003278,新規,0,2021-10-12,2021-10-12,弁護士法人岡田総合法律事務所,,その他の設立登記法人,東京都,品川区,東五反田１丁目１０番７号アイオス五反田ビル９０６,,13,109,1410022,,,,,,,2021-10-12,1,,,,,オカダソウゴウホウリツジムショ,0
357,2010803003915,新規,0,2021-10-12,2021-10-12,ｔ‐ｃｏｍ　ｏｆｆｉｃｅ合同会社,,合同会社,東京都,大田区,北馬込２丁目４１番８号ステージグランデ馬込アジールコート３０７,,13,111,1430021,,,,,,,2021-10-12,1,,,,,ティーコムオフィス,0
360,2010903006867,新規,0,2021-10-12,2021-10-12,合同会社ＫＥＭＳコーポレーション,,合同会社,東京都,世田谷区,深沢８丁目１８番２３号,,13,112,1580081,,,,,,,2021-10-12,1,,,,,ケムズコーポレーション,0
370,2011001143306,新規,0,2021-10-12,2021-10-12,株式会社ＡＭＯＮ,,株式会社,東京都,渋谷区,広尾５丁目１４番２号,,13,113,1500012,,,,,,,2021-10-12,1,,,,,アモン,0
371,2011001143314,新規,0,2021-10-12,2021-10-12,株式会社ポシビリティー,,株式会社,東京都,渋谷区,恵比寿４丁目３番１４号恵比寿ＳＳビル６Ｆ,,13,113,1500013,,,,,,,2021-10-12,1,,,,,ポシビリティー,0
372,2011001143330,新規,0,2021-10-12,2021-10-12,株式会社アローファイヤー,,株式会社,東京都,渋谷区,上原１丁目２８－１０－４０３,,13,113,1510064,,,,,,,2021-10-12,1,,,,,アローファイヤー,0
373,2011001143339,新規,0,2021-10-12,2021-10-12,株式会社アウロ,,株式会社,東京都,渋谷区,東３丁目２５番３－３１２号,,13,113,1500011,,,,,,,2021-10-12,1,,,,,アウロ,0
379,2011003013449,新規,0,2021-10-12,2021-10-12,日本電子機器開発合同会社,,合同会社,東京都,渋谷区,千駄ヶ谷４丁目２７－１３－４０５シャトレ代々木,,13,113,1510051,,,,,,,2021-10-12,1,,,,,ニホンデンシキキカイハツ,0
388,2011101096585,新規,0,2021-10-12,2021-10-12,株式会社Ｄｕｘ,,株式会社,東京都,新宿区,歌舞伎町２丁目２－２０グランドメゾン歌舞伎町３０１号室,,13,104,1600021,,,,,,,2021-10-12,1,,,,,ダックス,0
392,2011701024747,新規,0,2021-10-12,2021-10-12,株式会社イランカラプテ,,株式会社,東京都,江戸川区,西葛西７丁目２９番１０西葛西ＡＰＡＲＴＭＥＮＴＳ－２－２０１号,,13,123,1340088,,,,,,,2021-10-12,1,,,,,イランカラプテ,0
394,2012301012737,新規,0,2021-10-12,2021-10-12,ＳＴＳ製作所株式会社,,株式会社,東京都,町田市,小山町１６９０番地１５,,13,209,1940212,,,,,,,2021-10-12,1,,,,,エスティーエスセイサクショ,0
396,2012401038401,新規,0,2021-10-12,2021-10-12,株式会社日本再生酒場,,株式会社,東京都,調布市,佐須町１丁目１２番地３,,13,208,1820016,,,,,,,2021-10-12,1,,,,,ニホンサイセイサカバ,0
409,2020001143430,新規,0,2021-10-12,2021-10-12,株式会社カラサワインテリア,,株式会社,神奈川県,横浜市緑区,白山１丁目２４番Ａ－３０９号,,14,113,2260006,,,,,,,2021-10-12,1,,,,,カラサワインテリア,0
410,2020001143455,新規,0,2021-10-12,2021-10-12,株式会社アクトキャップ,,株式会社,神奈川県,横浜市戸塚区,品濃町５５０－７広進ビル３階,,14,110,2440801,,,,,,,2021-10-12,1,,,,,アクトキャップ,0
411,2020001143463,新規,0,2021-10-12,2021-10-12,株式会社ＲＪＣ,,株式会社,神奈川県,横浜市中区,山下町９９番地,,14,104,2310023,,,,,,,2021-10-12,1,,,,,アールジェーシー,0
414,2020003020628,新規,0,2021-10-12,2021-10-12,ととのえ合同会社,,合同会社,神奈川県,横浜市中区,山下町１２２番地２フレンズ元町５０２号,,14,104,2310023,,,,,,,2021-10-12,1,,,,,トトノエ,0
437,2030003018092,新規,0,2021-10-12,2021-10-12,合同会社メタセコイア,,合同会社,埼玉県,所沢市,大字久米７７２番地の２７,,11,208,3591131,,,,,,,2021-10-12,1,,,,,メタセコイア,0
443,2040001120394,新規,0,2021-10-12,2021-10-12,株式会社Ｄ．Ｔ．ＩＮＴＥＲＮＡＴＩＯＮＡＬ,,株式会社,千葉県,八千代市,神野１０７６番地４３,,12,221,2760016,,,,,,,2021-10-12,1,,,,,ディティインターナショナル,0
444,2040001120469,新規,0,2021-10-12,2021-10-12,株式会社マツモトキヨシグループ,,株式会社,千葉県,松戸市,新松戸東９番地１,,12,207,2700033,,,,,,,2021-10-12,1,,,,,マツモトキヨシグループ,0
445,2040001120551,新規,0,2021-10-12,2021-10-12,島田建設株式会社,,株式会社,千葉県,松戸市,新松戸３丁目３０９番地ベルナーデ２０２,,12,207,2700034,,,,,,,2021-10-12,1,,,,,シマダケンセツ,0
446,2040001120576,新規,0,2021-10-12,2021-10-12,ジートラスト株式会社,,株式会社,千葉県,木更津市,永井作２６７番地３,,12,206,2920053,,,,,,,2021-10-12,1,,,,,ジートラスト,0
447,2040001120584,新規,0,2021-10-12,2021-10-12,株式会社ＲＩ－Ｇ,,株式会社,千葉県,松戸市,小金１７番地の８光新ビル１Ｆ,,12,207,2700014,,,,,,,2021-10-12,1,,,,,リグ,0
457,2040005021374,新規,0,2021-10-12,2021-10-12,一般社団法人いきいきライフ協会千葉南,,その他の設立登記法人,千葉県,木更津市,東中央２丁目４番１４号,,12,206,2920057,,,,,,,2021-10-12,1,,,,,イキイキライフキョウカイチバミナミ,0
479,2080005007403,新規,0,2021-10-12,2021-10-12,医療法人社団一全会,,その他の設立登記法人,静岡県,焼津市,小柳津２１０番地,,22,212,4250073,,,,,,,2021-10-12,1,,,,,イツゼンカイ,0
486,2100003006263,新規,0,2021-10-12,2021-10-12,合同会社なかぶん,,合同会社,長野県,長野市,大字長野横町３６０番地,,20,201,3800856,,,,,,,2021-10-12,1,,,,,ナカブン,0
487,2110001036113,新規,0,2021-10-12,2021-10-12,フォーエス株式会社,,株式会社,新潟県,十日町市,袋町中西９１番地１ＡＳＴＯ,,15,210,9480066,,,,,,,2021-10-12,1,,,,,フォーエス,0
505,2120001241042,新規,0,2021-10-12,2021-10-12,日進国際株式会社,,株式会社,大阪府,大阪市中央区,島之内１丁目１３番６号１階,,27,128,5420082,,,,,,,2021-10-12,1,,,,,ニッシンコクサイ,0
506,2120001241050,新規,0,2021-10-12,2021-10-12,株式会社ＪＦ,,株式会社,大阪府,大阪市浪速区,日本橋３丁目４番９－２３０５号,,27,111,5560005,,,,,,,2021-10-12,1,,,,,ジェイエフ,0
507,2120001241083,新規,0,2021-10-12,2021-10-12,叶交通株式会社,,株式会社,大阪府,大阪市住之江区,新北島５丁目３番５３号,,27,125,5590024,,,,,,,2021-10-12,1,,,,,カノウコウツウ,0
508,2120001241091,新規,0,2021-10-12,2021-10-12,株式会社ナガオカ,,株式会社,大阪府,大阪市西淀川区,福町１丁目１０番２６号,,27,113,5550034,,,,,,,2021-10-12,1,,,,,ナガオカ,0
509,2120001241100,新規,0,2021-10-12,2021-10-12,株式会社ブレーンセンターホールディング,,株式会社,大阪府,大阪市北区,天満４丁目２番１３号,,27,127,5300043,,,,,,,2021-10-12,1,,,,,ブレーンセンターホールディング,0
510,2120001241125,新規,0,2021-10-12,2021-10-12,海川株式会社,,株式会社,大阪府,大阪市港区,市岡元町２丁目６番１１－３０３号,,27,107,5520002,,,,,,,2021-10-12,1,,,,,カイカワ,0
515,2120003020386,新規,0,2021-10-12,2021-10-12,合同会社ＲＡＭＴＩＴＯ,,合同会社,大阪府,大阪市港区,弁天１丁目２番３０－２２０１号,,27,107,5520007,,,,,,,2021-10-12,1,,,,,ラムティト,0
517,2120005022538,新規,0,2021-10-12,2021-10-12,一般社団法人キャビアソムリエ協会,,その他の設立登記法人,大阪府,大阪市淀川区,新高６丁目１４番７－９０５号,,27,123,5320033,,,,,,,2021-10-12,1,,,,,キャビアソムリエキョウカイ,0
518,2120103004388,新規,0,2021-10-12,2021-10-12,ＹＫａｍａｔａｎｉ合同会社,,合同会社,大阪府,羽曳野市,南恵我之荘６丁目２番２０号,,27,222,5830885,,,,,,,2021-10-12,1,,,,,ワイカマタニ,0
524,2130001070317,新規,0,2021-10-12,2021-10-12,株式会社ナノクレスタ,,株式会社,京都府,京都市伏見区,日野西風呂町３７番地シンフォニー伏見東５０９号,,26,109,6011423,,,,,,,2021-10-12,1,,,,,ナノクレスタ,0
531,2140005025786,新規,0,2021-10-12,2021-10-12,一般社団法人ＨｉＣＯ－ＢＡＹ,,その他の設立登記法人,兵庫県,美方郡香美町,香住区若松５６４番地の９,,28,585,6696543,,,,,,,2021-10-12,1,,,,,ヒコベエ,0
532,2140005025852,新規,0,2021-10-12,2021-10-12,特定非営利活動法人Ｇｒａｎｔ　Ｂｅａｕｔｙ　Ｊａｐａｎ,,その他の設立登記法人,兵庫県,姫路市,花田町加納原田１２６番地２,,28,201,6710252,,,,,,,2021-10-12,1,,,,,グラントビューティージャパン,0
544,2180001148158,新規,0,2021-10-12,2021-10-12,株式会社ＭＥＤＩＡＬＩＮＫ,,株式会社,愛知県,名古屋市千種区,桜が丘１１９番地,,23,101,4640025,,,,,,,2021-10-12,1,,,,,メディアリンク,0
545,2180001148232,新規,0,2021-10-12,2021-10-12,株式会社サブセクション,,株式会社,愛知県,愛西市,西保町石暮４４番地１４,,23,232,4960911,,,,,,,2021-10-12,1,,,,,サブセクション,0
546,2180001148249,新規,0,2021-10-12,2021-10-12,株式会社天成,,株式会社,愛知県,名古屋市東区,東桜１丁目６番９号,,23,102,4610005,,,,,,,2021-10-12,1,,,,,テンセイ,0
547,2180001148257,新規,0,2021-10-12,2021-10-12,株式会社ザイタス,,株式会社,愛知県,名古屋市名東区,西里町４丁目２番地１,,23,115,4650084,,,,,,,2021-10-12,1,,,,,ザイタス,0
554,2180003023078,新規,0,2021-10-12,2021-10-12,ＳＴ合同会社,,合同会社,愛知県,名古屋市中区,錦３丁目６－１５,,23,106,4600003,,,,,,,2021-10-12,1,,,,,エスティー,0
557,2180301035493,新規,0,2021-10-12,2021-10-12,株式会社ＲＡＤ　ＵＰ,,株式会社,愛知県,田原市,日出町又三畑９５１番地９,,23,231,4413623,,,,,,,2021-10-12,1,,,,,ラッドアップ,0
558,2180301035502,新規,0,2021-10-12,2021-10-12,株式会社エイエスピー,,株式会社,愛知県,安城市,御幸本町１７番７号,,23,212,4460032,,,,,,,2021-10-12,1,,,,,エイエスピー,0
559,2180301035510,新規,0,2021-10-12,2021-10-12,株式会社ＭＯＲＩＹＡＭＡ,,株式会社,愛知県,刈谷市,一ツ木町７丁目１番地１７,,23,210,4480003,,,,,,,2021-10-12,1,,,,,モリヤマ,0
565,2200001039288,新規,0,2021-10-12,2021-10-12,株式会社エスケーシー,,株式会社,岐阜県,多治見市,希望ケ丘２丁目７１番地,,21,204,5070008,,,,,,,2021-10-12,1,,,,,エスケーシー,0
568,2210001018646,新規,0,2021-10-12,2021-10-12,株式会社ウルトラ,,株式会社,福井県,福井市,開発４丁目１０７番地１,,18,201,9100842,,,,,,,2021-10-12,1,,,,,ウルトラ,0
572,2220003003133,新規,0,2021-10-12,2021-10-12,ワイズ・アセットマネジメント合同会社,,合同会社,石川県,金沢市,泉が丘２丁目１１番５３号,,17,201,9218035,,,,,,,2021-10-12,1,,,,,ワイズアセットマネジメント,0
575,2230003001739,新規,0,2021-10-12,2021-10-12,合同会社宇満安,,合同会社,富山県,高岡市,木津１４２３番地４,,16,202,9330857,,,,,,,2021-10-12,1,,,,,ウミアン,0
577,2240001058739,新規,0,2021-10-12,2021-10-12,株式会社カズマ成建,,株式会社,広島県,広島市東区,牛田南２丁目１番１９号,,34,102,7320064,,,,,,,2021-10-12,1,,,,,カズマセイケン,0
578,2240001058755,新規,0,2021-10-12,2021-10-12,株式会社Ｂｅｌｉｅｆ,,株式会社,広島県,尾道市,栗原町１２０２０番地,,34,205,7220022,,,,,,,2021-10-12,1,,,,,ビリーフ,0
585,2250001019194,新規,0,2021-10-12,2021-10-12,株式会社波戸崎電気,,株式会社,山口県,山口市,大内千坊１丁目２番１９号,,35,203,7530251,,,,,,,2021-10-12,1,,,,,ハトザキデンキ,0
593,2290001094845,新規,0,2021-10-12,2021-10-12,株式会社ｉｍｏテック,,株式会社,福岡県,太宰府市,御笠５丁目１３番５号,,40,221,8180110,,,,,,,2021-10-12,1,,,,,イモテック,0
594,2290001094969,新規,0,2021-10-12,2021-10-12,株式会社クールオーシャン,,株式会社,福岡県,久留米市,北野町中１１５６番地１,,40,203,8301113,,,,,,,2021-10-12,1,,,,,クールオーシャン,0
595,2290001094977,新規,0,2021-10-12,2021-10-12,小山田技建株式会社,,株式会社,福岡県,福岡市城南区,友丘４丁目１９番８号アバンセ友丘２０１号,,40,136,8140112,,,,,,,2021-10-12,1,,,,,オヤマダギケン,0
599,2290003011699,新規,0,2021-10-12,2021-10-12,Ｗ‐Ｍ合同会社,,合同会社,福岡県,小郡市,大保１２８１番地１１,,40,216,8380115,,,,,,,2021-10-12,1,,,,,ダブリューエム,0
601,2290005018387,新規,0,2021-10-12,2021-10-12,一般社団法人うみの考古学ラボ,,その他の設立登記法人,福岡県,福岡市東区,多々良１丁目５２番９－２０２号,,40,131,8130033,,,,,,,2021-10-12,1,,,,,ウミノコウコガクラボ,0
602,2290801027905,新規,0,2021-10-12,2021-10-12,株式会社Ｋｙｏ－ＰＬＡ,,株式会社,福岡県,北九州市小倉北区,白銀２丁目３番３１号,,40,106,8020074,,,,,,,2021-10-12,1,,,,,キョープラ,0
605,2310001017530,新規,0,2021-10-12,2021-10-12,株式会社エスワン,,株式会社,長崎県,西彼杵郡長与町,三根郷５２０番地１１２,,42,307,8512125,,,,,,,2021-10-12,1,,,,,エスワン,0
612,2360001029455,新規,0,2021-10-12,2021-10-12,ロックセラー株式会社,,株式会社,沖縄県,浦添市,牧港３丁目１１番７号,,47,208,9012131,,,,,,,2021-10-12,1,,,,,ロックセラー,0
613,2360001029463,新規,0,2021-10-12,2021-10-12,株式会社いいにおい,,株式会社,沖縄県,国頭郡恩納村,字谷茶１９１９番地１Ｉｎｎｏｖａｔｉｏｎ　Ｓｑｕａｒｅ　Ｉｎｃｕｂａｔｏｒ,,47,311,9040412,,,,,,,2021-10-12,1,,,,,イイニオイ,0
614,2360001029496,新規,0,2021-10-12,2021-10-12,株式会社Ｐａｔｗｕｍａ,,株式会社,沖縄県,那覇市,久茂地２丁目２番２号タイムスビル２Ｆ,,47,201,9000015,,,,,,,2021-10-12,1,,,,,パトゥマ,0
618,2370005010369,新規,0,2021-10-12,2021-10-12,一般社団法人日本接客アドバイザー協会,,その他の設立登記法人,宮城県,柴田郡大河原町,字西浦３５－１,,04,321,9891242,,,,,,,2021-10-12,1,,,,,ニホンセッキャクアドバイザーキョウカイ,0
635,2430001085169,新規,0,2021-10-12,2021-10-12,株式会社アールエス,,株式会社,北海道,苫小牧市,新開町２丁目１番９号,,01,213,0530052,,,,,,,2021-10-12,1,,,,,アールエス,0
637,2430003013219,新規,0,2021-10-12,2021-10-12,合同会社ＹＯＫＡ,,合同会社,北海道,石狩郡当別町,末広１２２番地８８,,01,303,0610224,,,,,,,2021-10-12,1,,,,,ヨカ,0
643,2470001018744,新規,0,2021-10-12,2021-10-12,株式会社ヒカリグループホールディングス,,株式会社,香川県,丸亀市,田村町１２３８番地,,37,202,7630071,,,,,,,2021-10-12,1,,,,,ヒカリグループホールディングス,0
645,2480001011525,新規,0,2021-10-12,2021-10-12,株式会社鬼ケ岩屋工学研究所,,株式会社,徳島県,徳島市,南田宮２丁目５番６２号,,36,201,7700004,,,,,,,2021-10-12,1,,,,,オニガイワヤコウガクケンキュウショ,0
646,2500001023740,新規,0,2021-10-12,2021-10-12,株式会社あぐりサポートいわね,,株式会社,愛媛県,西条市,小松町大頭甲１０４２番地１,,38,206,7991106,,,,,,,2021-10-12,1,,,,,アグリサポートイワネ,0
660,3010001221566,新規,0,2021-10-12,2021-10-12,株式会社コントラフト,,株式会社,東京都,千代田区,二番町３番地５,,13,101,1020084,,,,,,,2021-10-12,1,,,,,コントラフト,0
661,3010001221707,新規,0,2021-10-12,2021-10-12,株式会社ＫＯＮ,,株式会社,東京都,中央区,銀座８丁目５番１２号第２ポールスタービル６ＦＢ,,13,102,1040061,,,,,,,2021-10-12,1,,,,,コン,0
662,3010001221756,新規,0,2021-10-12,2021-10-12,株式会社ＣＯＣＯＴＥＹ,,株式会社,東京都,中央区,銀座１丁目１２－４Ｎ＆ＥＢＬＤ．７階,,13,102,1040061,,,,,,,2021-10-12,1,,,,,ココティ,0
667,3010003036005,新規,0,2021-10-12,2021-10-12,合同会社南三陸ソーラー,,合同会社,東京都,中央区,月島４丁目１２番１２号,,13,102,1040052,,,,,,,2021-10-12,1,,,,,ミナミサンリクソーラー,0
682,3010401163111,新規,0,2021-10-12,2021-10-12,ニアデリ株式会社,,株式会社,東京都,港区,海岸１丁目１１番１号ニューピア竹芝ノースタワー１４階,,13,103,1050022,,,,,,,2021-10-12,1,,,,,ニアデリ,0
683,3010401163136,新規,0,2021-10-12,2021-10-12,株式会社バイブスアップ,,株式会社,東京都,港区,南青山２丁目２番１５号,,13,103,1070062,,,,,,,2021-10-12,1,,,,,バイブスアップ,0
684,3010401163210,新規,0,2021-10-12,2021-10-12,株式会社ＨＩＭＡＲＩ,,株式会社,東京都,港区,南麻布４丁目２番４２－２０１号,,13,103,1060047,,,,,,,2021-10-12,1,,,,,ヒマリ,0
687,3010403026290,新規,0,2021-10-12,2021-10-12,合同会社Ｔｈａｎｋｓ,,合同会社,東京都,港区,芝浦３丁目４－２グランパークハイツ２３０１,,13,103,1080023,,,,,,,2021-10-12,1,,,,,サンクス,0
690,3010501047949,新規,0,2021-10-12,2021-10-12,ポテト株式会社,,株式会社,東京都,台東区,東浅草２丁目２５－５,,13,106,1110025,,,,,,,2021-10-12,1,,,,,ポテト,0
691,3010601060059,新規,0,2021-10-12,2021-10-12,株式会社やすらぎ,,株式会社,東京都,墨田区,墨田４丁目１番１１号,,13,107,1310031,,,,,,,2021-10-12,1,,,,,ヤスラギ,0
697,3010803003914,新規,0,2021-10-12,2021-10-12,ＷＩＮＧ合同会社,,合同会社,東京都,大田区,東矢口３丁目８番２４号,,13,111,1460094,,,,,,,2021-10-12,1,,,,,ウイング,0
705,3011001143239,新規,0,2021-10-12,2021-10-12,株式会社コモラ,,株式会社,東京都,渋谷区,代々木２丁目２３番１号,,13,113,1510053,,,,,,,2021-10-12,1,,,,,コモラ,0
706,3011001143296,新規,0,2021-10-12,2021-10-12,株式会社ＥＢＩＳＵ　ＭＡＦＩＡ,,株式会社,東京都,渋谷区,恵比寿南１丁目１３番１１号ヴェール５０１,,13,113,1500022,,,,,,,2021-10-12,1,,,,,エビスマフィア,0
707,3011001143305,新規,0,2021-10-12,2021-10-12,株式会社ＡＩＣＹ,,株式会社,東京都,目黒区,下目黒２丁目９番２号パークホームズ目黒ザレジデンス３１６,,13,110,1530064,,,,,,,2021-10-12,1,,,,,アイシー,0
708,3011001143362,新規,0,2021-10-12,2021-10-12,株式会社ＦｉｎｄＵｐ,,株式会社,東京都,渋谷区,渋谷２丁目１９番１５号宮益坂ビルディング６０９,,13,113,1500002,,,,,,,2021-10-12,1,,,,,ファインドアップ,0
710,3011003013497,新規,0,2021-10-12,2021-10-12,ＩｎａｚｕｍａＣｏｄｉｎｇ合同会社,,合同会社,東京都,渋谷区,渋谷２丁目１９－１５宮益坂ビルディング６０９,,13,113,1500002,,,,,,,2021-10-12,1,,,,,,0
711,3011003013530,新規,0,2021-10-12,2021-10-12,ハイシーエステート合同会社,,合同会社,東京都,渋谷区,幡ヶ谷３丁目３９番１２号渋谷ウェストビル１階,,13,113,1510072,,,,,,,2021-10-12,1,,,,,,0
715,3011101096452,新規,0,2021-10-12,2021-10-12,株式会社ＫＢＮＧ,,株式会社,東京都,新宿区,高田馬場３丁目１番５号サンパティオ高田馬場３０９号室,,13,104,1690075,,,,,,,2021-10-12,1,,,,,カビンゴ,0
716,3011101096493,新規,0,2021-10-12,2021-10-12,株式会社８６ｅｒｓ,,株式会社,東京都,新宿区,四谷３丁目３番地６,,13,104,1600004,,,,,,,2021-10-12,1,,,,,エイティーシクサーズ,0
717,3011101096519,新規,0,2021-10-12,2021-10-12,ミアヘルサホールディングス株式会社,,株式会社,東京都,新宿区,市谷仲之町３番１９号,,13,104,1620064,,,,,,,2021-10-12,1,,,,,ミアヘルサホールディングス,0
719,3011103011079,新規,0,2021-10-12,2021-10-12,合同会社ＴＵ０４,,合同会社,東京都,新宿区,四谷２丁目９番地１５東京ユナイテッド綜合事務所内,,13,104,1600004,,,,,,,2021-10-12,1,,,,,ティーユーゼロフォー,0
731,3011801039818,新規,0,2021-10-12,2021-10-12,株式会社ｌａ　Ｐｌａｇｅ,,株式会社,東京都,足立区,梅田８丁目１４番２―１０２３号,,13,121,1230851,,,,,,,2021-10-12,1,,,,,ラプラージュ,0
733,3011802024950,新規,0,2021-10-12,2021-10-12,有限会社ＧＡＬＬＥＲＹ　ＡＮＤ　ＬＩＮＫＳ８１,,有限会社,東京都,足立区,一ツ家２丁目２２番１４号,,13,121,1210075,,,,,,,2021-10-12,1,,,,,ギャラリーアンドリンクスエイティワン,0
738,3012401038400,新規,0,2021-10-12,2021-10-12,株式会社もつやき処い志井,,株式会社,東京都,調布市,佐須町１丁目１２番地３,,13,208,1820016,,,,,,,2021-10-12,1,,,,,モツヤキドコロイシイ,0
752,3020001143322,新規,0,2021-10-12,2021-10-12,株式会社ＩＴＭインターナショナル,,株式会社,神奈川県,横浜市保土ケ谷区,東川島町３０番地２９ビューハイム足立２０３号,,14,106,2400041,,,,,,,2021-10-12,1,,,,,アイティーエムインターナショナル,0
753,3020001143454,新規,0,2021-10-12,2021-10-12,株式会社ケイプラス,,株式会社,神奈川県,横浜市青葉区,しらとり台１９番地８,,14,117,2270054,,,,,,,2021-10-12,1,,,,,ケイプラス,0
775,3030001144823,新規,0,2021-10-12,2021-10-12,株式会社中川商事,,株式会社,埼玉県,川口市,西川口３丁目２３番１３号,,11,203,3320021,,,,,,,2021-10-12,1,,,,,ナカガワショウジ,0
776,3030001144831,新規,0,2021-10-12,2021-10-12,株式会社ｍｂ,,株式会社,埼玉県,さいたま市岩槻区,城南２丁目６番１０号,,11,110,3390043,,,,,,,2021-10-12,1,,,,,エムビー,0
787,3040001120427,新規,0,2021-10-12,2021-10-12,宝産業株式会社,,株式会社,千葉県,柏市,藤ケ谷１１９７－２,,12,217,2770931,,,,,,,2021-10-12,1,,,,,タカラサンギョウ,0
788,3040001120542,新規,0,2021-10-12,2021-10-12,佳信株式会社,,株式会社,千葉県,市川市,柏井町１丁目１７８９番地１２,,12,203,2720802,,,,,,,2021-10-12,1,,,,,,0
789,3040001120583,新規,0,2021-10-12,2021-10-12,株式会社Ｓｕｐｐｏｒｔ　ＵＰ,,株式会社,千葉県,八千代市,大和田新田９４９番地６２,,12,221,2760046,,,,,,,2021-10-12,1,,,,,サポートアップ,0
790,3040001120591,新規,0,2021-10-12,2021-10-12,株式会社稲田工業,,株式会社,千葉県,成田市,加良部４丁目２２番地（１棟４０６号）,,12,211,2860036,,,,,,,2021-10-12,1,,,,,イナダコウギョウ,0
795,3040003018677,新規,0,2021-10-12,2021-10-12,ＦＬＡＳＨ　ｔｏ　ＢＥＡＭ合同会社,,合同会社,千葉県,松戸市,小根本１３７番地の１東急ドエル・アルス松戸シンシアガーデン４０３号,,12,207,2710073,,,,,,,2021-10-12,1,,,,,フラッシュトゥビーム,0
799,3050001049987,新規,0,2021-10-12,2021-10-12,株式会社フォレストガーデンデザイン,,株式会社,茨城県,笠間市,大橋２３６５番地１７,,08,216,3091601,,,,,,,2021-10-12,1,,,,,フォレストガーデンデザイン,0
803,3050003006136,新規,0,2021-10-12,2021-10-12,合同会社ライフ・ツリー,,合同会社,茨城県,水戸市,成沢町１２１４番地の２,,08,201,3114207,,,,,,,2021-10-12,1,,,,,ライフツリー,0
806,3060001034170,新規,0,2021-10-12,2021-10-12,株式会社ミキャン,,株式会社,栃木県,小山市,西城南６丁目３４番地９,,09,208,3230820,,,,,,,2021-10-12,1,,,,,ミキャン,0
812,3060005009912,新規,0,2021-10-12,2021-10-12,特定非営利活動法人栃木まつりの里,,その他の設立登記法人,栃木県,那須塩原市,井口５４８番地３５０,,09,213,3292763,,,,,,,2021-10-12,1,,,,,トチギマツリノサト,0
847,3120001240919,新規,0,2021-10-12,2021-10-12,株式会社グランドライン,,株式会社,大阪府,大阪市西成区,天下茶屋東１丁目１９番８号,,27,122,5570011,,,,,,,2021-10-12,1,,,,,グランドライン,0
848,3120001241000,新規,0,2021-10-12,2021-10-12,Ｓ＆Ｓ　ＩｎｔｅｒｎａｔｉｏｎａｌＴｒａｄｉｎｇ株式会社,,株式会社,大阪府,大阪市浪速区,難波中２丁目８－６５,,27,111,5560011,,,,,,,2021-10-12,1,,,,,エスアンドエスインターナショナルトレーディング,0
849,3120001241009,新規,0,2021-10-12,2021-10-12,株式会社Ｃａｎａｅｌ,,株式会社,大阪府,枚方市,楠葉朝日１丁目６番１０号,,27,210,5731111,,,,,,,2021-10-12,1,,,,,カナエル,0
850,3120001241108,新規,0,2021-10-12,2021-10-12,株式会社恵希,,株式会社,大阪府,大阪市東住吉区,針中野１丁目１６番５８号,,27,121,5460011,,,,,,,2021-10-12,1,,,,,ヨシキ,0
851,3120001241124,新規,0,2021-10-12,2021-10-12,株式会社ＡＺグランツ,,株式会社,大阪府,大阪市中央区,石町１丁目１番１号,,27,128,5400033,,,,,,,2021-10-12,1,,,,,アズグランツ,0
857,3120005022545,新規,0,2021-10-12,2021-10-12,ＮＰＯ法人アクロバットクラブ,,その他の設立登記法人,大阪府,交野市,星田北４丁目３番６号,,27,230,5760017,,,,,,,2021-10-12,1,,,,,アクロバットクラブ,0
862,3120105009459,新規,0,2021-10-12,2021-10-12,ＮＰＯ法人陶器,,その他の設立登記法人,大阪府,堺市中区,福田９９２番地１４,,27,142,5998241,,,,,,,2021-10-12,1,,,,,トウキ,0
863,3120901045046,新規,0,2021-10-12,2021-10-12,さくら総合調査株式会社,,株式会社,大阪府,吹田市,広芝町１０番８号江坂董友ビル２Ｆ,,27,205,5640052,,,,,,,2021-10-12,1,,,,,サクラソウゴウチョウサ,0
864,3120901045054,新規,0,2021-10-12,2021-10-12,株式会社広八屋,,株式会社,大阪府,吹田市,山手町２丁目９番１４号,,27,205,5640073,,,,,,,2021-10-12,1,,,,,ヒロハチヤ,0
869,3120903003869,新規,0,2021-10-12,2021-10-12,合同会社Ｎｅｘｔ　Ｉｎｎｏｖａｔｉｏｎ,,合同会社,大阪府,高槻市,富田丘町４２－４,,27,207,5691145,,,,,,,2021-10-12,1,,,,,ネクストイノベーション,0
873,3130001070316,新規,0,2021-10-12,2021-10-12,株式会社ＰＯＷＥＲ,,株式会社,京都府,京都市右京区,常盤西町８番地１２,,26,108,6168223,,,,,,,2021-10-12,1,,,,,パワー,0
876,3130003007547,新規,0,2021-10-12,2021-10-12,合同会社Ｙ２ＣＡＲＥ,,合同会社,京都府,舞鶴市,北浜町１８番地５,,26,202,6250050,,,,,,,2021-10-12,1,,,,,ワイツーケア,0
886,3140001123460,新規,0,2021-10-12,2021-10-12,株式会社ｏｎｅ　ｂｙ　ｏｎｅ,,株式会社,兵庫県,神戸市東灘区,住吉台２番４０－４０４号,,28,101,6580062,,,,,,,2021-10-12,1,,,,,ワンバイワン,0
893,3160001023717,新規,0,2021-10-12,2021-10-12,株式会社ＡＤＮ,,株式会社,滋賀県,野洲市,菖蒲１０８番地１,,25,210,5240202,,,,,,,2021-10-12,1,,,,,エーディーエヌ,0
899,3180001148140,新規,0,2021-10-12,2021-10-12,株式会社ＪＯＹＳ,,株式会社,愛知県,津島市,寿町３３番地１,,23,208,4960829,,,,,,,2021-10-12,1,,,,,ジョイズ,0
904,3180003023069,新規,0,2021-10-12,2021-10-12,合同会社Ｖｅｒｋｏｏｐ,,合同会社,愛知県,名古屋市中村区,佐古前町２１番１９号Ｂｒａｖｅ亀島本陣５０３号,,23,105,4530018,,,,,,,2021-10-12,1,,,,,ヴェルコープ,0
905,3180003023077,新規,0,2021-10-12,2021-10-12,Ｒ＆Ｎ　ＪＢ合同会社,,合同会社,愛知県,名古屋市中村区,太閤通７丁目２５番地,,23,105,4530811,,,,,,,2021-10-12,1,,,,,アールアンドエヌジェイビー,0
914,3190003003788,新規,0,2021-10-12,2021-10-12,合同会社ピクテ,,合同会社,三重県,いなべ市,大安町丹生川上７８７番地,,24,214,5110261,,,,,,,2021-10-12,1,,,,,ピクテ,0
920,3200001039279,新規,0,2021-10-12,2021-10-12,株式会社松倉,,株式会社,岐阜県,高山市,越後町１８８１番地５,,21,203,5060033,,,,,,,2021-10-12,1,,,,,マツクラ,0
921,3200001039287,新規,0,2021-10-12,2021-10-12,株式会社あさひ工務店,,株式会社,岐阜県,多治見市,大正町３丁目５３番地,,21,204,5070024,,,,,,,2021-10-12,1,,,,,アサヒコウムテン,0
922,3200003005345,新規,0,2021-10-12,2021-10-12,合同会社ＷＡＹＢＥ,,合同会社,岐阜県,大垣市,外渕１丁目４３５番地１,,21,202,5030934,,,,,,,2021-10-12,1,,,,,ウェイビー,0
923,3210001018645,新規,0,2021-10-12,2021-10-12,ネクストサービス株式会社,,株式会社,福井県,越前市,丹生郷町第７号１８番地,,18,209,9150894,,,,,,,2021-10-12,1,,,,,ネクストサービス,0
924,3210005009995,新規,0,2021-10-12,2021-10-12,医療法人佳和会,,その他の設立登記法人,福井県,坂井市,坂井町大味第８号４番地１,,18,210,9190547,,,,,,,2021-10-12,1,,,,,ヨシワカイ,0
929,3230003001738,新規,0,2021-10-12,2021-10-12,合同会社氣分家,,合同会社,富山県,射水市,太閤山１丁目９１番地２ホワイト石坂１Ｆ,,16,211,9390362,,,,,,,2021-10-12,1,,,,,キブンヤ,0
930,3240001058746,新規,0,2021-10-12,2021-10-12,ジセダイプロジェクト株式会社,,株式会社,広島県,呉市,中央５丁目５－６,,34,202,7370051,,,,,,,2021-10-12,1,,,,,ジセダイプロジェクト,0
932,3250001019193,新規,0,2021-10-12,2021-10-12,令和新山口株式会社,,株式会社,山口県,長門市,深川湯本１０６１２番地８６,,35,211,7594103,,,,,,,2021-10-12,1,,,,,レイワシンヤマグチ,0
939,3280003001543,新規,0,2021-10-12,2021-10-12,合同会社楓,,合同会社,島根県,松江市,苧町１４番地１２,,32,201,6900848,,,,,,,2021-10-12,1,,,,,カエデ,0
946,3290001094943,新規,0,2021-10-12,2021-10-12,プラム工業株式会社,,株式会社,福岡県,筑紫野市,大字俗明院１４２番地７－６０５号,,40,217,8180067,,,,,,,2021-10-12,1,,,,,プラムコウギョウ,0
947,3290001094951,新規,0,2021-10-12,2021-10-12,株式会社スカイメディカルネクスト,,株式会社,福岡県,久留米市,中央町３５番地１８,,40,203,8300023,,,,,,,2021-10-12,1,,,,,スカイメディカルネクスト,0
953,3290003011698,新規,0,2021-10-12,2021-10-12,ＲＯＬＩ合同会社,,合同会社,福岡県,福岡市博多区,那珂１丁目３番１２－１１２号,,40,132,8120893,,,,,,,2021-10-12,1,,,,,ローリ,0
954,3290005018378,新規,0,2021-10-12,2021-10-12,セブン・シーオー協同組合,,その他の設立登記法人,福岡県,福岡市中央区,赤坂３丁目１３番２号エステートモアけやき通り１－Ｃ,,40,133,8100042,,,,,,,2021-10-12,1,,,,,セブンシーオー,0
957,3300001012663,新規,0,2021-10-12,2021-10-12,株式会社モンスティル,,株式会社,佐賀県,佐賀市,駅前中央１丁目１４番３１号,,41,201,8400801,,,,,,,2021-10-12,1,,,,,モンスティル,0
961,3310005008558,新規,0,2021-10-12,2021-10-12,一般社団法人自然と大地の会,,その他の設立登記法人,長崎県,長崎市,琴海戸根町２９１２番地１ハイツ・エム２０５号,,42,201,8513103,,,,,,,2021-10-12,1,,,,,シゼントダイチノカイ,0
962,3320001018667,新規,0,2021-10-12,2021-10-12,株式会社首藤森林,,株式会社,大分県,竹田市,直入町大字上田北１０８４番地,,44,208,8780403,,,,,,,2021-10-12,1,,,,,シュトウシンリン,0
964,3320005009927,新規,0,2021-10-12,2021-10-12,三佐漁業協同組合,,その他の設立登記法人,大分県,大分市,大字三佐２３２２番地,,44,201,8700108,,,,,,,2021-10-12,1,,,,,ミサ,0
978,3370005010368,新規,0,2021-10-12,2021-10-12,一般社団法人医療機器サブスクリプションモデル検討協議会,,その他の設立登記法人,宮城県,仙台市若林区,卸町２丁目１１番地３,,04,103,9840015,,,,,,,2021-10-12,1,,,,,イリョウキキサブスクリプションモデルケントウキョウギカイ,0
981,3380001032266,新規,0,2021-10-12,2021-10-12,えんどう不動産株式会社,,株式会社,福島県,郡山市,安積町日出山３丁目１８９番地２,,07,203,9630101,,,,,,,2021-10-12,1,,,,,,0
994,3430001085143,新規,0,2021-10-12,2021-10-12,株式会社ガルーダ,,株式会社,北海道,札幌市中央区,南五条西３丁目１１番地美松ビル３Ｆ,,01,101,0640805,,,,,,,2021-10-12,1,,,,,ガルーダ,0
995,3430001085151,新規,0,2021-10-12,2021-10-12,株式会社ライノテン,,株式会社,北海道,伊達市,網代町８番地２,,01,233,0520025,,,,,,,2021-10-12,1,,,,,ライノテン,0
999,3450003002144,新規,0,2021-10-12,2021-10-12,合同会社北海道アクシア,,合同会社,北海道,留萌郡小平町,字大椴２１４番地,,01,482,0783457,,,,,,,2021-10-12,1,,,,,ホッカイドウアクシア,0
1001,3460003000865,新規,0,2021-10-12,2021-10-12,合同会社セービング,,合同会社,北海道,厚岸郡厚岸町,若竹４丁目８７番地,,01,662,0881118,,,,,,,2021-10-12,1,,,,,セービング,0
1005,3480001011524,新規,0,2021-10-12,2021-10-12,株式会社ツツイメディカルコーポレーション,,株式会社,徳島県,吉野川市,鴨島町上下島２００番地,,36,205,7760013,,,,,,,2021-10-12,1,,,,,ツツイメディカルコーポレーション,0
1022,4010001221697,新規,0,2021-10-12,2021-10-12,株式会社ＬｕＧＥＮＤ,,株式会社,東京都,千代田区,九段南１丁目５番６号りそな九段ビル５階ＫＳフロア,,13,101,1020074,,,,,,,2021-10-12,1,,,,,ルジェンド,0
1023,4010001221714,新規,0,2021-10-12,2021-10-12,株式会社ＳＨＡＦＴ,,株式会社,東京都,千代田区,九段南１丁目５番６号りそな九段ビル５ＦＫＳフロア,,13,101,1020074,,,,,,,2021-10-12,1,,,,,シャフト,0
1024,4010001221722,新規,0,2021-10-12,2021-10-12,株式会社ｕｙｅｔ,,株式会社,東京都,中央区,勝どき１丁目１－１プラザ勝どきＡ５０３号,,13,102,1040054,,,,,,,2021-10-12,1,,,,,ユエット,0
1030,4010401163093,新規,0,2021-10-12,2021-10-12,タンデムブレイン株式会社,,株式会社,東京都,港区,芝５丁目３２番１２号シャーメゾンステージ田町３Ｆ,,13,103,1080014,,,,,,,2021-10-12,1,,,,,タンデムブレイン,0
1031,4010401163127,新規,0,2021-10-12,2021-10-12,株式会社鴟尾,,株式会社,東京都,港区,東新橋１丁目１０番１号,,13,103,1050021,,,,,,,2021-10-12,1,,,,,シビ,0
1032,4010401163135,新規,0,2021-10-12,2021-10-12,株式会社アロマンス,,株式会社,東京都,港区,北青山３丁目６番７号青山パラシオタワー１１階,,13,103,1070061,,,,,,,2021-10-12,1,,,,,アロマンス,0
1033,4010401163192,新規,0,2021-10-12,2021-10-12,ＯｐｔＣｈｅｍｉｃａｌ株式会社,,株式会社,東京都,港区,港南４丁目６番１－２４０３,,13,103,1080075,,,,,,,2021-10-12,1,,,,,オプトケミカル,0
1035,4010403026298,新規,0,2021-10-12,2021-10-12,ジョアイノベーション合同会社,,合同会社,東京都,港区,南青山２丁目２番１５号ＷＩＮ青山５３１,,13,103,1070062,,,,,,,2021-10-12,1,,,,,ジョアイノベーション,0
1041,4010501047915,新規,0,2021-10-12,2021-10-12,ＭＵＳＥ飛揚株式会社,,株式会社,東京都,台東区,東上野３丁目２８番４号上野スカイハイツ６０６号,,13,106,1100015,,,,,,,2021-10-12,1,,,,,ミューズヒヨウ,0
1056,4011001143304,新規,0,2021-10-12,2021-10-12,ｅ２アカウンティング株式会社,,株式会社,東京都,渋谷区,広尾１丁目１３番５号東急セットアップレジデェンス恵比寿１３０４,,13,113,1500012,,,,,,,2021-10-12,1,,,,,イートゥアカウンティング,0
1057,4011001143312,新規,0,2021-10-12,2021-10-12,株式会社アンビアンス,,株式会社,東京都,渋谷区,代々木２丁目２３番１号,,13,113,1510053,,,,,,,2021-10-12,1,,,,,アンビアンス,0
1064,4011101096518,新規,0,2021-10-12,2021-10-12,株式会社ほいといすＴｏｋｙｏ,,株式会社,東京都,新宿区,高田馬場２丁目１４番８号,,13,104,1690075,,,,,,,2021-10-12,1,,,,,ホイトイストウキョウ,0
1065,4011101096542,新規,0,2021-10-12,2021-10-12,ＳＴＣコンサルティング株式会社,,株式会社,東京都,新宿区,西新宿４丁目３２番４号,,13,104,1600023,,,,,,,2021-10-12,1,,,,,エスティーシーコンサルティング,0
1066,4011101096559,新規,0,2021-10-12,2021-10-12,ＭＴＳ　Ｉｎｔｅｒｎａｔｉｏｎａｌ株式会社,,株式会社,東京都,新宿区,新宿区下落合一丁目５番９－５１３号,,13,104,1600000,,,,,,,2021-10-12,1,,,,,エムティエスインターナショナル,0
1067,4011103011078,新規,0,2021-10-12,2021-10-12,プラザコンサルティング合同会社,,合同会社,東京都,新宿区,西新宿７丁目２２－３９興亜第二マンション２０２,,13,104,1600023,,,,,,,2021-10-12,1,,,,,プラザコンサルティング,0
1069,4011201023314,新規,0,2021-10-12,2021-10-12,株式会社Ｖｅｎｕｓ　Ｃｅｎｔｕｒｉｏｎ,,株式会社,東京都,中野区,弥生町１丁目２１番１３号,,13,114,1640013,,,,,,,2021-10-12,1,,,,,ヴィーナスセンチュリオン,0
1070,4011201023322,新規,0,2021-10-12,2021-10-12,株式会社天将,,株式会社,東京都,中野区,野方５丁目２５番３号野方ビル２０１,,13,114,1650027,,,,,,,2021-10-12,1,,,,,テンショー,0
1082,4011801012170,新規,0,2021-10-12,2021-10-12,株式会社マルサ商事,,株式会社,東京都,足立区,江北１丁目２１番２８号,,13,121,1230872,,,,,,,2021-10-12,1,,,,,,0
1083,4011801039809,新規,0,2021-10-12,2021-10-12,株式会社バックブラシ,,株式会社,東京都,足立区,鹿浜４丁目２３番９号,,13,121,1230864,,,,,,,2021-10-12,1,,,,,バックブラシ,0
1086,4012701016716,新規,0,2021-10-12,2021-10-12,株式会社青空,,株式会社,東京都,東村山市,栄町２丁目３７番地８都営栄町二丁目第４アパート１０１,,13,213,1890013,,,,,,,2021-10-12,1,,,,,アオゾラ,0
1092,4013303005850,新規,0,2021-10-12,2021-10-12,ＡＫＴＶ合同会社,,合同会社,東京都,豊島区,北大塚２丁目６番４号コミヤビルＩＩＩ１Ｆ,00124534,13,116,1700004,,,,,,,2021-10-12,1,,,,,,0
1097,4020001143420,新規,0,2021-10-12,2021-10-12,Ｓｈｉｓｈａ　ｚｏｚｏｔｏｗｎ株式会社,,株式会社,神奈川県,横浜市中区,日ノ出町２丁目１６６番地１号,,14,104,2310066,,,,,,,2021-10-12,1,,,,,シシャゾゾタウン,0
1098,4020001143429,新規,0,2021-10-12,2021-10-12,株式会社バリューインタラクティブ,,株式会社,神奈川県,川崎市宮前区,宮崎３丁目１３番地４－１１１号,,14,136,2160033,,,,,,,2021-10-12,1,,,,,バリューインタラクティブ,0
1099,4020001143437,新規,0,2021-10-12,2021-10-12,株式会社ＣＡＮ,,株式会社,神奈川県,横浜市港北区,新横浜３丁目１９－１１加瀬ビル８８４階１号室,,14,109,2220033,,,,,,,2021-10-12,1,,,,,キャン,0
1108,4020003020642,新規,0,2021-10-12,2021-10-12,Ｋ－Ｎ１Ｎ３Ｗｅｂ合同会社,,合同会社,神奈川県,川崎市麻生区,高石２丁目４１番１８号コンヴィスタＶ１０１,00124537,14,137,2150003,,,,,,,2021-10-12,1,,,,,ケーナインウェブ,0
1122,4030003017984,新規,0,2021-10-12,2021-10-12,合同会社クリプトーカレンシハンタ,,合同会社,埼玉県,川口市,西川口５丁目１５－１８,,11,203,3320021,,,,,,,2021-10-12,1,,,,,クリプトーカレンシハンタ,0
1127,4040001120558,新規,0,2021-10-12,2021-10-12,株式会社ＮＵＭＡＲＵ,,株式会社,千葉県,千葉市若葉区,若松町１０８番地３,,12,104,2640021,,,,,,,2021-10-12,1,,,,,ヌマル,0
1131,4040005021372,新規,0,2021-10-12,2021-10-12,一般社団法人＿啄同時,00124532,その他の設立登記法人,千葉県,夷隅郡大多喜町,板谷１４６番地,,12,441,2980261,,,,,,,2021-10-12,1,,,,,ソッタクドウジ,0
1138,4060001034186,新規,0,2021-10-12,2021-10-12,株式会社きれい本舗,,株式会社,栃木県,佐野市,高橋町１０５１番地３,,09,204,3270045,,,,,,,2021-10-12,1,,,,,キレイホンポ,0
1147,4070005009910,新規,0,2021-10-12,2021-10-12,一般財団法人ユグドラシル,,その他の設立登記法人,群馬県,伊勢崎市,連取町２３４１番地４,,10,204,3720812,,,,,,,2021-10-12,1,,,,,ユグドラシル,0
1152,4080101022832,新規,0,2021-10-12,2021-10-12,株式会社Ｇ－ＣＡＲＳ,,株式会社,静岡県,御殿場市,御殿場３２８番地の８,,22,215,4120028,,,,,,,2021-10-12,1,,,,,ジーカーズ,0
1185,4120001241057,新規,0,2021-10-12,2021-10-12,株式会社ＧＭＴＳ,,株式会社,大阪府,枚方市,招提大谷２丁目２２番２０号,,27,210,5731153,,,,,,,2021-10-12,1,,,,,ゲマトス,0
1186,4120001241081,新規,0,2021-10-12,2021-10-12,株式会社ビトスダ,,株式会社,大阪府,大阪市浪速区,幸町２丁目２－４０－１１０１,,27,111,5560021,,,,,,,2021-10-12,1,,,,,ビトスダ,0
1187,4120001241148,新規,0,2021-10-12,2021-10-12,スパークルキャリア株式会社,,株式会社,大阪府,大阪市中央区,淡路町３丁目５番１３号,,27,128,5410047,,,,,,,2021-10-12,1,,,,,スパークルキャリア,0
1194,4120005022536,新規,0,2021-10-12,2021-10-12,ロイヤル行政書士法人,,その他の設立登記法人,大阪府,大阪市中央区,本町橋２番２３号,,27,128,5400029,,,,,,,2021-10-12,1,,,,,ロイヤルギョウセイショシ,0
1196,4120105009458,新規,0,2021-10-12,2021-10-12,特定非営利活動法人Ｇｒｏｕｐ．真．,,その他の設立登記法人,大阪府,藤井寺市,小山５丁目１番１８号,,27,226,5830033,,,,,,,2021-10-12,1,,,,,グループシン,0
1212,4130001070315,新規,0,2021-10-12,2021-10-12,肉坊主株式会社,,株式会社,京都府,京田辺市,田辺中央１丁目７番地２ベルバール新田辺８０２,,26,211,6100334,,,,,,,2021-10-12,1,,,,,ニクボウズ,0
1213,4130001070323,新規,0,2021-10-12,2021-10-12,向島塗装株式会社,,株式会社,京都府,宇治市,槇島町薗場８６番地２０,,26,204,6110041,,,,,,,2021-10-12,1,,,,,ムカイジマトソウ,0
1215,4130003007546,新規,0,2021-10-12,2021-10-12,合同会社顧客志向,,合同会社,京都府,相楽郡精華町,精華台５丁目１６－１５,,26,366,6190238,,,,,,,2021-10-12,1,,,,,コキャクシコウ,0
1222,4140001123328,新規,0,2021-10-12,2021-10-12,成洋産業株式会社,,株式会社,兵庫県,伊丹市,北本町３丁目１６５番地１－２０１号,,28,207,6640836,,,,,,,2021-10-12,1,,,,,セイヨウサンギョウ,0
1225,4140005025850,新規,0,2021-10-12,2021-10-12,一般社団法人スマートワーク推進アカデミー,,その他の設立登記法人,兵庫県,芦屋市,平田町１番３１－２号,,28,206,6590074,,,,,,,2021-10-12,1,,,,,スマートワークスイシンアカデミー,0
1226,4150001025011,新規,0,2021-10-12,2021-10-12,株式会社Ｉ．Ｋ,,株式会社,奈良県,橿原市,小槻町３８３番地の１５,,29,205,6340846,,,,,,,2021-10-12,1,,,,,アイケイ,0
1228,4150003002512,新規,0,2021-10-12,2021-10-12,合同会社百福衛生社,,合同会社,奈良県,生駒市,真弓２丁目４番２４号,,29,209,6300122,,,,,,,2021-10-12,1,,,,,ヒャクフクエイセイシャ,0
1229,4170003001644,新規,0,2021-10-12,2021-10-12,合同会社ＣｒｅａｔＥ,,合同会社,和歌山県,西牟婁郡上富田町,南紀の台１５－２６,,30,404,6492106,,,,,,,2021-10-12,1,,,,,クリエイト,0
1236,4180001148057,新規,0,2021-10-12,2021-10-12,株式会社あいち経営サポート,,株式会社,愛知県,名古屋市千種区,松軒２丁目１０番１２号,,23,101,4640084,,,,,,,2021-10-12,1,,,,,アイチケイエイサポート,0
1237,4180001148255,新規,0,2021-10-12,2021-10-12,株式会社ＳＫＥＴＴ,,株式会社,愛知県,名古屋市千種区,千種通７丁目１０１番地オオクラビル４Ｆ,,23,101,4640855,,,,,,,2021-10-12,1,,,,,スケット,0
1238,4180001148263,新規,0,2021-10-12,2021-10-12,株式会社ガッツコーポレーション,,株式会社,愛知県,名古屋市中村区,井深町１番１号新名古屋センタービル本陣街２階２４８号,,23,105,4530012,,,,,,,2021-10-12,1,,,,,ガッツコーポレーション,0
1247,4180005019477,新規,0,2021-10-12,2021-10-12,一般社団法人Ｙｏｕサポート,,その他の設立登記法人,愛知県,名古屋市中村区,椿町１７番１６号,,23,105,4530015,,,,,,,2021-10-12,1,,,,,ユーサポート,0
1252,4180301035509,新規,0,2021-10-12,2021-10-12,Ｌｏｕｉｓ　Ｓａｌｕｔｅ株式会社,,株式会社,愛知県,刈谷市,一ツ木町７丁目１番地１７,,23,210,4480003,,,,,,,2021-10-12,1,,,,,ルイサルーテ,0
1260,4200001039278,新規,0,2021-10-12,2021-10-12,株式会社たこちゅう,,株式会社,岐阜県,岐阜市,早田東町９丁目５４番地,,21,201,5020843,,,,,,,2021-10-12,1,,,,,タコチュウ,0
1261,4200001039286,新規,0,2021-10-12,2021-10-12,株式会社Ａ．Ｋ．Ｍ　Ｇａｍｉｎｇ,,株式会社,岐阜県,大垣市,昼飯町３７３番地４グローリーハウス２０２,,21,202,5032216,,,,,,,2021-10-12,1,,,,,エーケーエムゲーミング,0
1262,4210001018644,新規,0,2021-10-12,2021-10-12,福井アースエンジニアリング株式会社,,株式会社,福井県,福井市,江端町第２４号２１番地２,,18,201,9188016,,,,,,,2021-10-12,1,,,,,フクイアースエンジニアリング,0
1272,4240001058753,新規,0,2021-10-12,2021-10-12,株式会社ｋｉｔａｋｅｎ,,株式会社,広島県,福山市,春日町２丁目１３番６号,,34,207,7210907,,,,,,,2021-10-12,1,,,,,キタケン,0
1274,4240003005316,新規,0,2021-10-12,2021-10-12,合同会社若松産業,,合同会社,広島県,三原市,皆実６丁目９番８－２０２号,,34,204,7230052,,,,,,,2021-10-12,1,,,,,ワカマツサンギョウ,0
1280,4260001036030,新規,0,2021-10-12,2021-10-12,株式会社日山精肉店,,株式会社,岡山県,笠岡市,二番町３番地３０,,33,205,7140083,,,,,,,2021-10-12,1,,,,,ヒヤマセイニクテン,0
1287,4290801027903,新規,0,2021-10-12,2021-10-12,のぞみ工務店株式会社,,株式会社,福岡県,北九州市小倉北区,黒原３丁目３１番２号,,40,106,8020051,,,,,,,2021-10-12,1,,,,,,0
1289,4300001012662,新規,0,2021-10-12,2021-10-12,株式会社Ｇｒｅｅｎ　ｌａｂｅｌ,,株式会社,佐賀県,嬉野市,塩田町大字真崎１７４７番地５,,41,209,8491421,,,,,,,2021-10-12,1,,,,,グリーンレーベル,0
1290,4310001017529,新規,0,2021-10-12,2021-10-12,株式会社ラヴィ,,株式会社,長崎県,西彼杵郡時津町,左底郷２６番地,,42,308,8512106,,,,,,,2021-10-12,1,,,,,ラヴィ,0
1294,4310005008557,新規,0,2021-10-12,2021-10-12,医療法人翠月会,,その他の設立登記法人,長崎県,大村市,桜馬場２丁目３５５番地１,,42,205,8560812,,,,,,,2021-10-12,1,,,,,スイゲツカイ,0
1310,4370001006245,新規,0,2021-10-12,2021-10-12,株式会社杜コーポレーション,,株式会社,宮城県,仙台市太白区,青山１丁目１５番５号,,04,104,9820834,,,,,,,2021-10-12,1,,,,,モリコーポレーション,0
1312,4370001047702,新規,0,2021-10-12,2021-10-12,ＢＥ　ＧＡＲＡＧＥ株式会社,,株式会社,宮城県,仙台市太白区,富田字八幡中４０番地２,,04,104,9820033,,,,,,,2021-10-12,1,,,,,ビーガレージ,0
1314,4370003005443,新規,0,2021-10-12,2021-10-12,合同会社円越,,合同会社,宮城県,宮城郡七ヶ浜町,汐見台１丁目１番１７号,,04,404,9850821,,,,,,,2021-10-12,1,,,,,マルゴエ,0
1315,4370005010367,新規,0,2021-10-12,2021-10-12,特定非営利活動法人ＥＰＦ,,その他の設立登記法人,宮城県,刈田郡蔵王町,宮字願行寺２０番地２,,04,301,9890701,,,,,,,2021-10-12,1,,,,,イーピーエフ,0
1319,4380001032265,新規,0,2021-10-12,2021-10-12,株式会社コーシュリー,,株式会社,福島県,いわき市,平泉崎字辻道６番地の１,,07,204,9700112,,,,,,,2021-10-12,1,,,,,コーシュリー,0
1334,4430001085150,新規,0,2021-10-12,2021-10-12,株式会社ジョブリーチ,,株式会社,北海道,札幌市北区,北二十一条西１３丁目１番２号,,01,102,0010021,,,,,,,2021-10-12,1,,,,,ジョブリーチ,0
1337,4470001018767,新規,0,2021-10-12,2021-10-12,株式会社ＨＹＧＧＥ,,株式会社,香川県,高松市,国分寺町新名１５１５番地,,37,201,7690104,,,,,,,2021-10-12,1,,,,,ヒュッゲ,0
1339,4480001011523,新規,0,2021-10-12,2021-10-12,株式会社セキュリティガーディアン,,株式会社,徳島県,名西郡石井町,浦庄字諏訪８６番地１,,36,341,7793241,,,,,,,2021-10-12,1,,,,,セキュリティガーディアン,0
1347,4700150105219,新規,0,2021-10-12,2021-10-12,愛仁会健康保険組合,,その他,大阪府,大阪市西淀川区,佃２丁目２番４６号,,27,113,5550001,,,,,,,2021-10-12,1,,,,,アイジンカイケンコウホケンクミアイ,0
1362,5010001221705,新規,0,2021-10-12,2021-10-12,賀藤リサーチ・アンド・アドバイザリー株式会社,,株式会社,東京都,中央区,銀座７丁目１３番６号サガミビル２階,,13,102,1040061,,,,,,,2021-10-12,1,,,,,カトウリサーチアンドアドバイザリー,0
1377,5010401163118,新規,0,2021-10-12,2021-10-12,ＫＯ－ＧＵ株式会社,,株式会社,東京都,港区,南青山５丁目４番３５号,,13,103,1070062,,,,,,,2021-10-12,1,,,,,コーグ,0
1378,5010401163134,新規,0,2021-10-12,2021-10-12,株式会社ＡＺＵＭＡ　ＦＡＭＩＬＹ,,株式会社,東京都,港区,赤坂９丁目７番７号パーク・レジデンシィズ・アット・ザ・リッツ・カールトン東京８０５,,13,103,1070052,,,,,,,2021-10-12,1,,,,,アズマファミリー,0
1379,5010401163159,新規,0,2021-10-12,2021-10-12,株式会社アンドローカル,,株式会社,東京都,港区,南青山２丁目２番１５号,,13,103,1070062,,,,,,,2021-10-12,1,,,,,アンドローカル,0
1382,5010403026289,新規,0,2021-10-12,2021-10-12,タカ合同会社,,合同会社,東京都,港区,元麻布３丁目１―６,,13,103,1060046,,,,,,,2021-10-12,1,,,,,タカ,0
1383,5010403026297,新規,0,2021-10-12,2021-10-12,メディアティア合同会社,,合同会社,東京都,港区,南青山２丁目２番１５号ウィン青山９４２,,13,103,1070062,,,,,,,2021-10-12,1,,,,,メディアティア,0
1384,5010405020273,新規,0,2021-10-12,2021-10-12,小平インターナショナル一般社団法人,,その他の設立登記法人,東京都,港区,西新橋１丁目２２番５号６階,,13,103,1050003,,,,,,,2021-10-12,1,,,,,コダイラインターナショナル,0
1390,5010501047955,新規,0,2021-10-12,2021-10-12,株式会社ＨＩＬＯＴ,,株式会社,東京都,台東区,谷中３丁目２５番１７－４１３号,,13,106,1100001,,,,,,,2021-10-12,1,,,,,ヒロット,0
1412,5011001143261,新規,0,2021-10-12,2021-10-12,エスピード株式会社,,株式会社,東京都,渋谷区,渋谷３丁目６番２号エクラート渋谷,,13,113,1500002,,,,,,,2021-10-12,1,,,,,エスピード,0
1413,5011001143311,新規,0,2021-10-12,2021-10-12,株式会社ＰＥＬＥ,,株式会社,東京都,渋谷区,富ヶ谷２丁目４１番７号,,13,113,1510063,,,,,,,2021-10-12,1,,,,,ペレ,0
1414,5011001143328,新規,0,2021-10-12,2021-10-12,ＣＡＮＯＭＡ株式会社,,株式会社,東京都,渋谷区,恵比寿南１丁目２０－４－６０２,,13,113,1500022,,,,,,,2021-10-12,1,,,,,カノマ,0
1423,5011101096558,新規,0,2021-10-12,2021-10-12,株式会社ＲＯＹＢＯ,,株式会社,東京都,新宿区,新宿１丁目３６番２号新宿第七葉山ビル３階,,13,104,1600022,,,,,,,2021-10-12,1,,,,,ロイボー,0
1425,5011103011077,新規,0,2021-10-12,2021-10-12,合同会社ＭＥＬＩＫＥ,,合同会社,東京都,新宿区,西早稲田１丁目１３番８号,,13,104,1690051,,,,,,,2021-10-12,1,,,,,ミーライク,0
1429,5011403003468,新規,0,2021-10-12,2021-10-12,合同会社ポキブレラ,,合同会社,東京都,板橋区,東新町２丁目５４番３－１０３号,,13,119,1740074,,,,,,,2021-10-12,1,,,,,ポキブレラ,0
1435,5011803004826,新規,0,2021-10-12,2021-10-12,Ｓ商事合同会社,,合同会社,東京都,足立区,西新井２丁目２４番１１号,,13,121,1230841,,,,,,,2021-10-12,1,,,,,エスショウジ,0
1436,5012701016715,新規,0,2021-10-12,2021-10-12,株式会社三浦電気,,株式会社,東京都,東久留米市,中央町４丁目１４番９号,,13,222,2030054,,,,,,,2021-10-12,1,,,,,ミウラデンキ,0
1443,5013301048124,新規,0,2021-10-12,2021-10-12,株式会社ＷＡＴＡ　ＪＡＰＡＮ,,株式会社,東京都,豊島区,東池袋５丁目７番３号アゼリア東池袋４０１,,13,116,1700013,,,,,,,2021-10-12,1,,,,,ワタジャパン,0
1447,5020001143378,新規,0,2021-10-12,2021-10-12,株式会社１２ｔｙｐｅｓ　ｄｅ　ｌｉｇｎｅｓ,,株式会社,神奈川県,横浜市緑区,鴨居２丁目８番４号,,14,113,2260003,,,,,,,2021-10-12,1,,,,,ドゥースティップドゥリーニュ,0
1448,5020001143444,新規,0,2021-10-12,2021-10-12,株式会社Ａ２Ｚ,,株式会社,神奈川県,横浜市青葉区,しらとり台２２番地１０ドゥフォルトゥーナ１０７,,14,117,2270054,,,,,,,2021-10-12,1,,,,,エーツーゼット,0
1449,5020001143460,新規,0,2021-10-12,2021-10-12,ＴＧＣ株式会社,,株式会社,神奈川県,川崎市多摩区,南生田６丁目１６番１０号,,14,135,2140036,,,,,,,2021-10-12,1,,,,,ティージーシー,0
1463,5021005012313,新規,0,2021-10-12,2021-10-12,行政書士法人アーチス,,その他の設立登記法人,神奈川県,平塚市,宮の前１番６号湘南平塚中央ビル６階,,14,203,2540035,,,,,,,2021-10-12,1,,,,,アーチス,0
1481,5030003018032,新規,0,2021-10-12,2021-10-12,合同会社孝橋工務店,,合同会社,埼玉県,富士見市,鶴瀬西２丁目７－３－４０１,,11,235,3540026,,,,,,,2021-10-12,1,,,,,タカハシコウムテン,0
1482,5030005020564,新規,0,2021-10-12,2021-10-12,ラングリット輸送協同組合,,その他の設立登記法人,埼玉県,三郷市,番匠免１丁目３９０番地,,11,237,3410056,,,,,,,2021-10-12,1,,,,,ラングリットユソウ,0
1486,5040001120573,新規,0,2021-10-12,2021-10-12,株式会社ｂｒｉｇｈｔ　ｌｉｎｅ,,株式会社,千葉県,千葉市花見川区,千種町１６８－１４－Ｂ,,12,102,2620012,,,,,,,2021-10-12,1,,,,,ブライトライン,0
1487,5040001120598,新規,0,2021-10-12,2021-10-12,スカイアース株式会社,,株式会社,千葉県,富里市,日吉倉１５１５番地,,12,233,2860202,,,,,,,2021-10-12,1,,,,,スカイアース,0
1494,5040005021363,新規,0,2021-10-12,2021-10-12,一般社団法人千葉県居住支援法人協議会,,その他の設立登記法人,千葉県,船橋市,湊町２丁目５番４号藤代ビル３０２,,12,204,2730011,,,,,,,2021-10-12,1,,,,,チバケンキョジュウシエンホウジンキョウギカイ,0
1502,5050001049985,新規,0,2021-10-12,2021-10-12,株式会社ＣＯＯ　ＭＯＴＯＲＳ,,株式会社,茨城県,筑西市,中上野１８５４番地１７,,08,227,3004524,,,,,,,2021-10-12,1,,,,,クーモータース,0
1507,5060001034185,新規,0,2021-10-12,2021-10-12,株式会社オルガパーツ,,株式会社,栃木県,那須塩原市,鍋掛１０８５番地１７５,,09,213,3250013,,,,,,,2021-10-12,1,,,,,オルガパーツ,0
1512,5070001038524,新規,0,2021-10-12,2021-10-12,光莉トレーディング株式会社,,株式会社,群馬県,邑楽郡千代田町,大字舞木３９７番地,,10,523,3700504,,,,,,,2021-10-12,1,,,,,アカリトレーディング,0
1519,5080101022831,新規,0,2021-10-12,2021-10-12,株式会社ＦＲＡＭＥ,,株式会社,静岡県,沼津市,松長７７８番地,,22,203,4100874,,,,,,,2021-10-12,1,,,,,フレーム,0
1526,5100003006260,新規,0,2021-10-12,2021-10-12,合同会社プラチナレーン,,合同会社,長野県,安曇野市,堀金烏川５１１４番地６,,20,220,3998211,,,,,,,2021-10-12,1,,,,,プラチナレーン,0
1540,5120001241089,新規,0,2021-10-12,2021-10-12,株式会社アバーボード,,株式会社,大阪府,大阪市北区,東天満２丁目２－１５第６新興ビル４０７号室,,27,127,5300044,,,,,,,2021-10-12,1,,,,,アバーボード,0
1541,5120001241122,新規,0,2021-10-12,2021-10-12,株式会社ウェブリード,,株式会社,大阪府,大阪市福島区,福島５丁目１３番１８号,,27,103,5530003,,,,,,,2021-10-12,1,,,,,ウェブリード,0
1542,5120003020391,新規,0,2021-10-12,2021-10-12,合同会社Ｔ・Ｈ企画,,合同会社,大阪府,大阪市鶴見区,今津中３丁目２－４レーゼンハイム８０３号,,27,124,5380042,,,,,,,2021-10-12,1,,,,,ティエイチキカク,0
1544,5120103004393,新規,0,2021-10-12,2021-10-12,ｋ．ｋ合同会社,,合同会社,大阪府,堺市北区,中百舌鳥町３丁３７５番地４,,27,146,5918023,,,,,,,2021-10-12,1,,,,,ケーケー,0
1545,5120105009457,新規,0,2021-10-12,2021-10-12,一般社団法人りんくう動物救急医療協会,,その他の設立登記法人,大阪府,泉大津市,助松町３丁目２番４０号,,27,206,5950071,,,,,,,2021-10-12,1,,,,,リンクウドウブツキュウキュウイリョウキョウカイ,0
1546,5120903003867,新規,0,2021-10-12,2021-10-12,合同会社なごみ,,合同会社,大阪府,吹田市,千里丘北１番２８－３１７号,,27,205,5650815,,,,,,,2021-10-12,1,,,,,ナゴミ,0
1551,5130003007545,新規,0,2021-10-12,2021-10-12,合同会社マリア,,合同会社,京都府,亀岡市,千代川町小川３丁目５番３号,,26,206,6210041,,,,,,,2021-10-12,1,,,,,マリア,0
1562,5170001016800,新規,0,2021-10-12,2021-10-12,ｉｓ　ｍｙファーム株式会社,,株式会社,和歌山県,和歌山市,園部１４１１番地１,,30,201,6408483,,,,,,,2021-10-12,1,,,,,イズマイファーム,0
1577,5180001148064,新規,0,2021-10-12,2021-10-12,株式会社ＳＩＮＣＥＲＥ,,株式会社,愛知県,春日井市,月見町５６０１番地５,,23,206,4860835,,,,,,,2021-10-12,1,,,,,シンシア,0
1578,5180001148221,新規,0,2021-10-12,2021-10-12,ＳＵＮ　ＴＥＣＨ株式会社,,株式会社,愛知県,あま市,新居屋山１０９番地２,,23,237,4901105,,,,,,,2021-10-12,1,,,,,サンテック,0
1579,5180001148238,新規,0,2021-10-12,2021-10-12,株式会社リブプラス,,株式会社,愛知県,名古屋市千種区,東山通５丁目２０番地１サン東山公園ウエストビル２階,,23,101,4640807,,,,,,,2021-10-12,1,,,,,リブプラス,0
1580,5180001148254,新規,0,2021-10-12,2021-10-12,ナカノ電気株式会社,,株式会社,愛知県,瀬戸市,井戸金町９６番地の４,,23,204,4890976,,,,,,,2021-10-12,1,,,,,ナカノデンキ,0
1583,5180003023075,新規,0,2021-10-12,2021-10-12,合同会社Ｙｏｓｈｉ,,合同会社,愛知県,名古屋市瑞穂区,佐渡町５丁目２３番地の１,,23,108,4670016,,,,,,,2021-10-12,1,,,,,ヨシ,0
1586,5180301035458,新規,0,2021-10-12,2021-10-12,株式会社ドゥ・ミール,,株式会社,愛知県,安城市,榎前町井杭山２１１番地４,,23,212,4441215,,,,,,,2021-10-12,1,,,,,ドゥミール,0
1587,5180301035499,新規,0,2021-10-12,2021-10-12,荻野電気株式会社,,株式会社,愛知県,豊橋市,南瓦町５５番地,,23,201,4400823,,,,,,,2021-10-12,1,,,,,オギノデンキ,0
1605,5240003005315,新規,0,2021-10-12,2021-10-12,合同会社ウィズ,,合同会社,広島県,広島市東区,光町２丁目８番２６号佐々木ビル３Ｆ,,34,102,7320052,,,,,,,2021-10-12,1,,,,,ウィズ,0
1613,5290001094974,新規,0,2021-10-12,2021-10-12,株式会社アーク・ワン,,株式会社,福岡県,那珂川市,今光５丁目１０２番地３０３,,40,231,8111211,,,,,,,2021-10-12,1,,,,,アークワン,0
1618,5290003011655,新規,0,2021-10-12,2021-10-12,Ａｇｒｉ　Ｔｅｃｈ合同会社,,合同会社,福岡県,福岡市西区,壱岐団地１３９－２,,40,135,8190042,,,,,,,2021-10-12,1,,,,,アグリテック,0
1619,5290005018392,新規,0,2021-10-12,2021-10-12,一般社団法人博多の伝統文化を紡ぐ会,,その他の設立登記法人,福岡県,福岡市博多区,千代４丁目２９番２５号２Ｆ,,40,132,8120044,,,,,,,2021-10-12,1,,,,,ハカタノデントウブンカヲツムグカイ,0
1623,5290801027902,新規,0,2021-10-12,2021-10-12,株式会社廣敬,,株式会社,福岡県,田川郡川崎町,大字川崎１０８３番地１,,40,605,8270003,,,,,,,2021-10-12,1,,,,,ヒロヨシ,0
1626,5310001017528,新規,0,2021-10-12,2021-10-12,株式会社ヤマサキプランニング,,株式会社,長崎県,長崎市,樺島町１番１号倉岡ビル３階,,42,201,8500034,,,,,,,2021-10-12,1,,,,,ヤマサキプランニング,0
1628,5310005008556,新規,0,2021-10-12,2021-10-12,医療法人希葉会,,その他の設立登記法人,長崎県,西彼杵郡時津町,久留里郷１４５８番地,,42,308,8512107,,,,,,,2021-10-12,1,,,,,キヨウカイ,0
1633,5320001018665,新規,0,2021-10-12,2021-10-12,株式会社ＡＲＵ,,株式会社,大分県,大分市,大字勢家８５８番地の２－１０２号,,44,201,8700100,,,,,,,2021-10-12,1,,,,,アル,0
1635,5340001024166,新規,0,2021-10-12,2021-10-12,株式会社きはら,,株式会社,鹿児島県,志布志市,有明町野井倉１４７５番地８,,46,221,8997402,,,,,,,2021-10-12,1,,,,,キハラ,0
1637,5350001017359,新規,0,2021-10-12,2021-10-12,株式会社三昌,,株式会社,宮崎県,児湯郡高鍋町,大字南高鍋８４９４番地,,45,401,8840003,,,,,,,2021-10-12,1,,,,,サンショウ,0
1644,5360001029485,新規,0,2021-10-12,2021-10-12,犬丸通商株式会社,,株式会社,沖縄県,豊見城市,字与根１９７番地２階,,47,212,9010224,,,,,,,2021-10-12,1,,,,,イヌマルツウショウ,0
1648,5370001047701,新規,0,2021-10-12,2021-10-12,株式会社ヨニデル,,株式会社,宮城県,仙台市若林区,東八番丁１８３番地,,04,103,9840072,,,,,,,2021-10-12,1,,,,,ヨニデル,0
1657,5400001015638,新規,0,2021-10-12,2021-10-12,株式会社モモトレーディング,,株式会社,岩手県,滝沢市,鵜飼上高柳５０番地１,,03,216,0200671,,,,,,,2021-10-12,1,,,,,モモトレーディング,0
1658,5400003002849,新規,0,2021-10-12,2021-10-12,合同会社リアルシステムズ,,合同会社,岩手県,花巻市,湯本第７地割２１７番地２,,03,205,0250304,,,,,,,2021-10-12,1,,,,,リアルシステムズ,0
1661,5410001012989,新規,0,2021-10-12,2021-10-12,株式会社ＧＡＴＥ,,株式会社,秋田県,秋田市,泉字登木２１６番地３,,05,201,0100816,,,,,,,2021-10-12,1,,,,,ゲート,0
1665,5430001085158,新規,0,2021-10-12,2021-10-12,ｈａｃｈｉ．株式会社,,株式会社,北海道,札幌市中央区,南二十条西１０丁目１番２号,,01,101,0640920,,,,,,,2021-10-12,1,,,,,ハチ,0
1668,5430003013249,新規,0,2021-10-12,2021-10-12,ペントヨ合同会社,,合同会社,北海道,札幌市豊平区,美園五条２丁目１番２０－９０５号,,01,105,0620005,,,,,,,2021-10-12,1,,,,,ペントヨ,0
1680,5470001018766,新規,0,2021-10-12,2021-10-12,株式会社しっぽ,,株式会社,香川県,綾歌郡宇多津町,２４０８番地１,,37,386,7690210,,,,,,,2021-10-12,1,,,,,シッポ,0
1684,5480001011522,新規,0,2021-10-12,2021-10-12,美波タクシー株式会社,,株式会社,徳島県,海部郡美波町,奥河内字弁才天８４番地の１,,36,387,7792305,,,,,,,2021-10-12,1,,,,,ミナミタクシー,0
1687,5700150046668,新規,0,2021-10-12,2015-10-09,新町地区放課後児童クラブわかば会,,その他,三重県,津市,八町３丁目３―１新町小学校内,,24,201,5140041,,,,,,,2015-10-09,1,,,,,シンマチチクホウカゴジドウクラブワカバカイ,0
1688,5700150105226,新規,0,2021-10-12,2021-10-12,ＮＴＴ　Ｇｌｏｂａｌ　Ｓｏｕｒｃｉｎｇ，Ｉｎｃ．,,外国会社等,東京都,港区,元麻布３丁目１－６,,13,103,1060046,アメリカ合衆国７５０２４テキサス州プレイノ市、レガシー・ドライブ７９５０、スイート９００,,,,,,2021-10-12,1,,,,,エヌテイーテイーグローバルソーシング,0
1689,5700150105250,新規,0,2021-10-12,2021-10-12,習志野台１１街区住宅マンション建替組合,,その他,千葉県,船橋市,習志野台３丁目１１番７,,12,204,2740063,,,,,,,2021-10-12,1,,,,,ナラシノダイジユウイチガイクジユウタクマンシヨンタテカエクミアイ,0
1700,6010001221654,新規,0,2021-10-12,2021-10-12,株式会社アンドアーキテクチャ,,株式会社,東京都,中央区,日本橋小網町１番４号８階,,13,102,1030016,,,,,,,2021-10-12,1,,,,,アンドアーキテクチャ,0
1703,6010003036010,新規,0,2021-10-12,2021-10-12,合同会社ｂｏｕｑｕｅｔ　ｄｅ,,合同会社,東京都,中央区,月島３丁目２５番５号,,13,102,1040052,,,,,,,2021-10-12,1,,,,,ブーケドゥ,0
1704,6010005034061,新規,0,2021-10-12,2021-10-12,メック都市開発１３号一般社団法人,,その他の設立登記法人,東京都,中央区,日本橋２丁目７番１号,,13,102,1030027,,,,,,,2021-10-12,1,,,,,メックトシカイハツジュウサンゴウ,0
1709,6010401163125,新規,0,2021-10-12,2021-10-12,株式会社ＷＡＫＵＷＡＫＵゲームズ,,株式会社,東京都,港区,海岸３丁目１８番２１－７０８号,,13,103,1080022,,,,,,,2021-10-12,1,,,,,ワクワクゲームズ,0
1715,6010403026271,新規,0,2021-10-12,2021-10-12,合同会社蔵住,,合同会社,東京都,港区,六本木７丁目１７番２０号六本木明泉ビル５０１,,13,103,1060032,,,,,,,2021-10-12,1,,,,,クラスミ,0
1716,6010403026288,新規,0,2021-10-12,2021-10-12,Ｅｒｒｈａｌｔ　Ｃｏｎｓｕｌｔｉｎｇ合同会社,,合同会社,東京都,港区,元麻布３丁目１番６号,,13,103,1060046,,,,,,,2021-10-12,1,,,,,エリホルトコンサルティング,0
1717,6010405020272,新規,0,2021-10-12,2021-10-12,小平インターナショナル特定目的会社,,その他の設立登記法人,東京都,港区,西新橋１丁目２２番５号６階,,13,103,1050003,,,,,,,2021-10-12,1,,,,,コダイラインターナショナル,0
1719,6010501047954,新規,0,2021-10-12,2021-10-12,Ｏｉａ株式会社,,株式会社,東京都,台東区,浅草７丁目２番１４号,,13,106,1110032,,,,,,,2021-10-12,1,,,,,イア,0
1732,6011001143236,新規,0,2021-10-12,2021-10-12,株式会社Ｓｈｉｋａｋｕ,,株式会社,東京都,目黒区,碑文谷５丁目２番５号Ｔ＆Ａビル５階,,13,110,1520003,,,,,,,2021-10-12,1,,,,,シカク,0
1734,6011003013544,新規,0,2021-10-12,2021-10-12,ＫＯＫＩコーポレ－ション合同会社,,合同会社,東京都,渋谷区,渋谷２丁目２２番６号,,13,113,1500002,,,,,,,2021-10-12,1,,,,,コキコーポレション,0
1739,6011101096532,新規,0,2021-10-12,2021-10-12,株式会社Ｃｒｏｓｓ　Ｐｅｇａｓｕｓ,,株式会社,東京都,新宿区,新宿６丁目２２番６号,,13,104,1600022,,,,,,,2021-10-12,1,,,,,クロスペガサス,0
1740,6011101096549,新規,0,2021-10-12,2021-10-12,株式会社ＭＵＳＵＢＩ,,株式会社,東京都,新宿区,矢来町５０番地２,,13,104,1620805,,,,,,,2021-10-12,1,,,,,ムスビ,0
1741,6011101096581,新規,0,2021-10-12,2021-10-12,株式会社ＷＥＳＴ　ＮＥＷ　ＧＡＴＥ,,株式会社,東京都,新宿区,新宿１丁目３６番２号新宿第七葉山ビル３階,,13,104,1600022,,,,,,,2021-10-12,1,,,,,ウエストニューゲート,0
1743,6011103011076,新規,0,2021-10-12,2021-10-12,合同会社ゼロワン,,合同会社,東京都,新宿区,西新宿１丁目２６番２号新宿野村ビル３２階,,13,104,1600023,,,,,,,2021-10-12,1,,,,,ゼロワン,0
1747,6011301027246,新規,0,2021-10-12,2021-10-12,株式会社香紀,,株式会社,東京都,杉並区,梅里２丁目２９番１２号,,13,115,1660011,,,,,,,2021-10-12,1,,,,,カキ,0
1752,6011403003467,新規,0,2021-10-12,2021-10-12,合同会社Ｊｕｔａ,,合同会社,東京都,板橋区,成増２丁目３１番－１－４１３,,13,119,1750094,,,,,,,2021-10-12,1,,,,,ジュタ,0
1765,6011801039815,新規,0,2021-10-12,2021-10-12,ＨＯＫ株式会社,,株式会社,東京都,足立区,竹の塚１丁目４０番１５号庄栄ビル５ＦＢＰＴ,,13,121,1210813,,,,,,,2021-10-12,1,,,,,エイチオーケー,0
1768,6012401038364,新規,0,2021-10-12,2021-10-12,株式会社スリーベット,,株式会社,東京都,武蔵野市,吉祥寺南町２丁目２番４号,,13,203,1800003,,,,,,,2021-10-12,1,,,,,スリーベット,0
1782,6013303005849,新規,0,2021-10-12,2021-10-12,哲里合同会社,,合同会社,東京都,豊島区,池袋２丁目７７－１０ＧＡＲＤＥＮＳＱＵＡＲＥ３０１号室,,13,116,1710014,,,,,,,2021-10-12,1,,,,,テツリ,0
1786,6020001143393,新規,0,2021-10-12,2021-10-12,鶴見動物病院株式会社,,株式会社,神奈川県,横浜市鶴見区,鶴見中央４丁目４３番１０号鶴見イーストリバー１０３号,,14,101,2300051,,,,,,,2021-10-12,1,,,,,ツルミドウブツビョウイン,0
1797,6021001074190,新規,0,2021-10-12,2021-10-12,株式会社ブルージーストーム,,株式会社,神奈川県,茅ヶ崎市,本宿町２番６号,,14,207,2530014,,,,,,,2021-10-12,1,,,,,ブルージーストーム,0
1810,6030001144754,新規,0,2021-10-12,2021-10-12,株式会社彬彩ライフ,,株式会社,埼玉県,川口市,前川２丁目２９－２１,,11,203,3330842,,,,,,,2021-10-12,1,,,,,ヒンサイライフ,0
1811,6030001144762,新規,0,2021-10-12,2021-10-12,株式会社圏央テスコン,,株式会社,埼玉県,入間市,大字二本木１２７４番地,,11,225,3580015,,,,,,,2021-10-12,1,,,,,ケンオウテスコン,0
1812,6030001144820,新規,0,2021-10-12,2021-10-12,株式会社丸零,,株式会社,埼玉県,志木市,上宗岡３丁目２１番２５号,,11,228,3530001,,,,,,,2021-10-12,1,,,,,マルゼロ,0
1819,6040001120515,新規,0,2021-10-12,2021-10-12,株式会社ｇｒｅｅｎ　ｓｅｅｄ,,株式会社,千葉県,香取郡多古町,間倉４６３番４,,12,347,2892235,,,,,,,2021-10-12,1,,,,,グリーンシード,0
1820,6040001120580,新規,0,2021-10-12,2021-10-12,東九株式会社,,株式会社,千葉県,佐倉市,藤治台１６番地１０,,12,212,2850816,,,,,,,2021-10-12,1,,,,,トウキュウ,0
1821,6040003018724,新規,0,2021-10-12,2021-10-12,合同会社アサート,,合同会社,千葉県,印西市,西の原４丁目２００番地１８９,,12,231,2701334,,,,,,,2021-10-12,1,,,,,アサート,0
1823,6040005021370,新規,0,2021-10-12,2021-10-12,税理士法人リアドリ,,その他の設立登記法人,千葉県,市川市,八幡２丁目５番２０号イーストビル芝田６階,,12,203,2720021,,,,,,,2021-10-12,1,,,,,リアドリ,0
1827,6050001049984,新規,0,2021-10-12,2021-10-12,株式会社櫻井緑化サ－ビス,,株式会社,茨城県,石岡市,北府中１丁目１３番３６号,,08,205,3150012,,,,,,,2021-10-12,1,,,,,サクライリョッカサービス,0
1841,6070001038531,新規,0,2021-10-12,2021-10-12,ｍ．ｋ．ｈ株式会社,,株式会社,群馬県,高崎市,下之城町５８４番地７０,,10,202,3700854,,,,,,,2021-10-12,1,,,,,エムケイエイチ,0
1842,6080001024497,新規,0,2021-10-12,2021-10-12,東煌株式会社,,株式会社,静岡県,静岡市清水区,北脇新田６３２番地の２０,,22,103,4240051,,,,,,,2021-10-12,1,,,,,トウコウ,0
1843,6080401025384,新規,0,2021-10-12,2021-10-12,株式会社ＫＴＳアソシエーション,,株式会社,静岡県,浜松市中区,東伊場１丁目１番２６号,,22,131,4328036,,,,,,,2021-10-12,1,,,,,ケイティエスアソシエーション,0
1844,6080401025418,新規,0,2021-10-12,2021-10-12,株式会社ＴＥＤ,,株式会社,静岡県,袋井市,葵町３丁目７番地８,,22,216,4370016,,,,,,,2021-10-12,1,,,,,テッド,0
1845,6100001034709,新規,0,2021-10-12,2021-10-12,成華株式会社,,株式会社,長野県,松本市,大字寿豊丘６１０番地１１,,20,202,3990021,,,,,,,2021-10-12,1,,,,,ショウカ,0
1846,6100005012776,新規,0,2021-10-12,2021-10-12,一般社団法人松本国際高等学校同窓会,,その他の設立登記法人,長野県,松本市,村井町南３丁目６番２５号松本国際高等学校内,,20,202,3990036,,,,,,,2021-10-12,1,,,,,マツモトコクサイコウトウガッコウドウソウカイ,0
1867,6120001241071,新規,0,2021-10-12,2021-10-12,アジサイ株式会社,,株式会社,大阪府,大阪市浪速区,恵美須東３丁目２番９号,,27,111,5560002,,,,,,,2021-10-12,1,,,,,アジサイ,0
1868,6120001241105,新規,0,2021-10-12,2021-10-12,株式会社ＴＯＰ　ＧＵＮ,,株式会社,大阪府,大阪市北区,中之島６丁目１番３８－２７１４号,,27,127,5300005,,,,,,,2021-10-12,1,,,,,トップガン,0
1879,6120101064397,新規,0,2021-10-12,2021-10-12,株式会社漁師鮮度,,株式会社,大阪府,阪南市,鳥取１７１６番地,,27,232,5990204,,,,,,,2021-10-12,1,,,,,リョウシセンド,0
1882,6120103004392,新規,0,2021-10-12,2021-10-12,合同会社ＳＰ,,合同会社,大阪府,堺市北区,北花田町４丁１１４番地１３,,27,146,5918002,,,,,,,2021-10-12,1,,,,,エスピー,0
1884,6120901045051,新規,0,2021-10-12,2021-10-12,株式会社ＧＲＡＮＤＳＬＡＭ,,株式会社,大阪府,豊中市,螢池東町１丁目２番４－１０１号,,27,203,5600032,,,,,,,2021-10-12,1,,,,,グランドスラム,0
1889,6130001070313,新規,0,2021-10-12,2021-10-12,株式会社スタークローバー,,株式会社,京都府,京都市伏見区,東大文字町１０６５番地２,,26,109,6128334,,,,,,,2021-10-12,1,,,,,スタークローバー,0
1890,6130001070321,新規,0,2021-10-12,2021-10-12,株式会社クランクリエ,,株式会社,京都府,京都市中京区,尾張町２２５番地,,26,104,6040934,,,,,,,2021-10-12,1,,,,,クランクリエ,0
1891,6130003007544,新規,0,2021-10-12,2021-10-12,合同会社マミーティンクル,,合同会社,京都府,福知山市,大江町常津３９７番地,,26,201,6200355,,,,,,,2021-10-12,1,,,,,マミーティンクル,0
1896,6140001123409,新規,0,2021-10-12,2021-10-12,株式会社Ｔｒｉ－Ｓ,,株式会社,兵庫県,神戸市東灘区,深江南町２丁目１３番１６－１３０８号,,28,101,6580022,,,,,,,2021-10-12,1,,,,,トライエス,0
1907,6160001023722,新規,0,2021-10-12,2021-10-12,株式会社Ｊ’ｓ　ａｓｓｏｃｉａｔｅｓ,,株式会社,滋賀県,彦根市,平田町２１３番地２０,,25,202,5220041,,,,,,,2021-10-12,1,,,,,ジェイズアソシエイツ,0
1908,6170001016816,新規,0,2021-10-12,2021-10-12,株式会社Ｋａｋｏ－ｙａ,,株式会社,和歌山県,和歌山市,築港２丁目１２番地１,,30,201,6408287,,,,,,,2021-10-12,1,,,,,カコーヤ,0
1915,6180001148204,新規,0,2021-10-12,2021-10-12,株式会社タスケル,,株式会社,愛知県,あま市,七宝町鯰橋５丁目９番地２,,23,237,4970015,,,,,,,2021-10-12,1,,,,,タスケル,0
1916,6180001148261,新規,0,2021-10-12,2021-10-12,株式会社Ｇ－ＴＯＬＡＳＴ,,株式会社,愛知県,名古屋市東区,東桜２丁目３番７号,,23,102,4610005,,,,,,,2021-10-12,1,,,,,ジートラスト,0
1924,6180301035498,新規,0,2021-10-12,2021-10-12,株式会社アイリス,,株式会社,愛知県,みよし市,園原３丁目９番地３ツインズＢ棟２０１号,,23,236,4700227,,,,,,,2021-10-12,1,,,,,アイリス,0
1925,6180301035507,新規,0,2021-10-12,2021-10-12,株式会社きく結び,,株式会社,愛知県,豊田市,伊熊町乙ケ久保３０番地１,,23,211,4442807,,,,,,,2021-10-12,1,,,,,キクムスビ,0
1935,6210001018642,新規,0,2021-10-12,2021-10-12,株式会社キッチンボード,,株式会社,福井県,丹生郡越前町,東内郡２丁目２１５番地,,18,423,9160156,,,,,,,2021-10-12,1,,,,,キッチンボード,0
1943,6240001058751,新規,0,2021-10-12,2021-10-12,株式会社Ｋｏｍａｔｓｕ　Ｏｆｆｉｃｅ,,株式会社,広島県,福山市,寺町９番１１号ディックスビル２Ｆ,,34,207,7200041,,,,,,,2021-10-12,1,,,,,コマツオフィス,0
1948,6240003005314,新規,0,2021-10-12,2021-10-12,合同会社クロマニヨン,,合同会社,広島県,広島市中区,鉄砲町４番１６－７０３号,,34,101,7300017,,,,,,,2021-10-12,1,,,,,クロマニヨン,0
1963,6290001094899,新規,0,2021-10-12,2021-10-12,株式会社Ｕｍｂｒｅｌｌａ,,株式会社,福岡県,大野城市,仲畑２丁目３番２０－６０５ａｍ・ｐａｒｋ,,40,219,8160921,,,,,,,2021-10-12,1,,,,,アンブレラ,0
1964,6290001094949,新規,0,2021-10-12,2021-10-12,株式会社愛光ライフ,,株式会社,福岡県,福岡市博多区,博多駅東１丁目１６番８号ＩＴビル３Ｆ,,40,132,8120013,,,,,,,2021-10-12,1,,,,,アイコウライフ,0
1965,6290001094965,新規,0,2021-10-12,2021-10-12,株式会社ＣＨＥＲＩＥ,,株式会社,福岡県,福岡市中央区,大名１丁目３番７号４Ｆ,,40,133,8100041,,,,,,,2021-10-12,1,,,,,シェリ,0
1966,6290001094973,新規,0,2021-10-12,2021-10-12,株式会社Ａｌｏｈｉ　Ｓｐｉｄｅｒ,,株式会社,福岡県,嘉麻市,貞月３４０番地１,,40,227,8200305,,,,,,,2021-10-12,1,,,,,アロヒスパイダー,0
1967,6290001094981,新規,0,2021-10-12,2021-10-12,株式会社ＬＬＱ,,株式会社,福岡県,福岡市南区,高宮２丁目２２番８－３０１号グランドメゾン西高宮,,40,134,8150083,,,,,,,2021-10-12,1,,,,,エルエルキュー,0
1971,6290005018391,新規,0,2021-10-12,2021-10-12,一般社団法人言葉のかけはし,,その他の設立登記法人,福岡県,福岡市博多区,竹下２丁目１－５６－６０１,,40,132,8120895,,,,,,,2021-10-12,1,,,,,コトバノカケハシ,0
1977,6310001017527,新規,0,2021-10-12,2021-10-12,株式会社高倉組,00124543,株式会社,長崎県,諫早市,福田町４５番８号ステートリーガーデン２０３号,,42,204,8540001,,,,,,,2021-10-12,1,,,,,タカクラグミ,0
1978,6310003004184,新規,0,2021-10-12,2021-10-12,合同会社ＥＣ二葉屋,,合同会社,長崎県,長崎市,万屋町４番１３号二葉屋ビル６Ｆ,,42,201,8500852,,,,,,,2021-10-12,1,,,,,イーシーフタバヤ,0
1979,6310005008555,新規,0,2021-10-12,2021-10-12,医療法人大村会,,その他の設立登記法人,長崎県,大村市,沖田町７４番地２,,42,205,8560809,,,,,,,2021-10-12,1,,,,,オオムラカイ,0
1980,6320001018672,新規,0,2021-10-12,2021-10-12,株式会社タナベ花明機,,株式会社,大分県,大分市,大字津守６４番地の１,,44,201,8700945,,,,,,,2021-10-12,1,,,,,タナベハナアカリキ,0
1981,6320003003631,新規,0,2021-10-12,2021-10-12,サン合同会社,,合同会社,大分県,大分市,賀来南２丁目７番１０号,,44,201,8700849,,,,,,,2021-10-12,1,,,,,サン,0
1984,6330003009082,新規,0,2021-10-12,2021-10-12,Ｈ＆Ａ合同会社,,合同会社,熊本県,熊本市中央区,新町２丁目１１番３３号４０３号室,,43,101,8600004,,,,,,,2021-10-12,1,,,,,エイチアンドエー,0
1989,6350001017358,新規,0,2021-10-12,2021-10-12,レイテック株式会社,,株式会社,宮崎県,宮崎市,大字小松１０８３番地４,,45,201,8802112,,,,,,,2021-10-12,1,,,,,レイテック,0
1994,6370001047709,新規,0,2021-10-12,2021-10-12,株式会社ワイケー,,株式会社,宮城県,多賀城市,高橋２丁目１１番５号,,04,209,9850853,,,,,,,2021-10-12,1,,,,,ワイケー,0
1997,6380001032247,新規,0,2021-10-12,2021-10-12,Ｓｋｙ　Ｐｌａｎ株式会社,,株式会社,福島県,双葉郡浪江町,大字川添字西町４６番地,,07,547,9791531,,,,,,,2021-10-12,1,,,,,スカイプラン,0
1998,6380001032255,新規,0,2021-10-12,2021-10-12,株式会社龍野商事,,株式会社,福島県,いわき市,小名浜岡小名字台ノ下１９番地の２,,07,204,9718151,,,,,,,2021-10-12,1,,,,,タツノショウジ,0
2006,6400001015637,新規,0,2021-10-12,2021-10-12,株式会社東北建材工業,,株式会社,岩手県,一関市,花泉町老松字上汁足９１番地５,,03,209,0293103,,,,,,,2021-10-12,1,,,,,トウホクケンザイコウギョウ,0
2007,6410001012988,新規,0,2021-10-12,2021-10-12,株式会社門脇商店,,株式会社,秋田県,仙北市,田沢湖卒田字柴倉１２７番地,,05,215,0141113,,,,,,,2021-10-12,1,,,,,カドワキショウテン,0
2012,6420003002391,新規,0,2021-10-12,2021-10-12,合同会社プロメテクニックス,,合同会社,青森県,青森市,大字浦町字奥野３３２－１グレース泉Ｃ棟２０１,,02,201,0300842,,,,,,,2021-10-12,1,,,,,プロメテクニックス,0
2014,6430001085157,新規,0,2021-10-12,2021-10-12,株式会社Ｂｏｎｎｅ,,株式会社,北海道,札幌市中央区,南六条西１２丁目１３０１－３－６０８,,01,101,0640806,,,,,,,2021-10-12,1,,,,,ボンヌ,0
2019,6470001018724,新規,0,2021-10-12,2021-10-12,株式会社ＹＡＮＯ,,株式会社,香川県,坂出市,川津町６１００川津団地１９号,,37,203,7620025,,,,,,,2021-10-12,1,,,,,ヤノ,0
2021,6490001010019,新規,0,2021-10-12,2021-10-12,株式会社ウェルウィッシャーズ,,株式会社,高知県,高知市,大津乙２４７番地８,,39,201,7815103,,,,,,,2021-10-12,1,,,,,ウェルウィッシャーズ,0
2027,7010001221686,新規,0,2021-10-12,2021-10-12,株式会社Ｍ＆Ｐ,,株式会社,東京都,千代田区,神田紺屋町１３－１,,13,101,1010035,,,,,,,2021-10-12,1,,,,,エムアンドピー,0
2028,7010001221703,新規,0,2021-10-12,2021-10-12,株式会社日本ヒューマンポートホールディングス,,株式会社,東京都,千代田区,丸の内１丁目８番２号＿鋼ビルディング４階,00124541,13,101,1000005,,,,,,,2021-10-12,1,,,,,ニホンヒューマンポートホールディングス,0
2030,7010003035993,新規,0,2021-10-12,2021-10-12,ＳＮｕＧ合同会社,,合同会社,東京都,中央区,銀座１丁目１５番７号ＭＡＣ銀座ビル３階,,13,102,1040061,,,,,,,2021-10-12,1,,,,,スナグ,0
2031,7010005034060,新規,0,2021-10-12,2021-10-12,一般社団法人再エネ振興機構,,その他の設立登記法人,東京都,中央区,八丁堀４丁目２番１０号ＡＯＪ税理士法人内,,13,102,1040032,,,,,,,2021-10-12,1,,,,,サイエネシンコウキコウ,0
2037,7010401163157,新規,0,2021-10-12,2021-10-12,モアラブ株式会社,,株式会社,東京都,港区,南青山２丁目２番１５号ＷＩＮ青山５３１,,13,103,1070062,,,,,,,2021-10-12,1,,,,,モアラブ,0
2040,7010403026238,新規,0,2021-10-12,2021-10-12,ＩＮＢＬＯＯＭ　ＳＡＣＡＳＯ合同会社,,合同会社,東京都,港区,南青山１丁目４－２八並ビル,,13,103,1070062,,,,,,,2021-10-12,1,,,,,インブルームサカソ,0
2041,7010403026270,新規,0,2021-10-12,2021-10-12,Ｂａｓｅ合同会社,,合同会社,東京都,港区,三田５丁目７－１２ビラカーサ１２０７,,13,103,1080073,,,,,,,2021-10-12,1,,,,,ベイス,0
2045,7010405020255,新規,0,2021-10-12,2021-10-12,一般社団法人絆会,,その他の設立登記法人,東京都,港区,西新橋１丁目５番９号,,13,103,1050003,,,,,,,2021-10-12,1,,,,,キズナカイ,0
2046,7010501047953,新規,0,2021-10-12,2021-10-12,株式会社ＡＩ－Ｃ,,株式会社,東京都,台東区,東上野１丁目１９番２号,,13,106,1100015,,,,,,,2021-10-12,1,,,,,エーアイシー,0
2059,7010903006862,新規,0,2021-10-12,2021-10-12,合同会社ｐｉｐｐｉｚ,,合同会社,東京都,世田谷区,等々力６丁目２－７ティアレ自由が丘１０１,,13,112,1580082,,,,,,,2021-10-12,1,,,,,ピッピーズ,0
2067,7011001143301,新規,0,2021-10-12,2021-10-12,株式会社光アドバンス,,株式会社,東京都,渋谷区,宇田川町２番１－２１８号,,13,113,1500042,,,,,,,2021-10-12,1,,,,,ヒカリアドバンス,0
2068,7011001143326,新規,0,2021-10-12,2021-10-12,株式会社ＯＲＯ,,株式会社,東京都,渋谷区,松濤１丁目２５－６,,13,113,1500046,,,,,,,2021-10-12,1,,,,,オーロ,0
2079,7011101096548,新規,0,2021-10-12,2021-10-12,株式会社オプティマソリューションズ,,株式会社,東京都,新宿区,百人町１丁目１８－８カドビル２０３号室,,13,104,1690073,,,,,,,2021-10-12,1,,,,,,0
2080,7011101096556,新規,0,2021-10-12,2021-10-12,株式会社Ｖｉｌｌａｇｅ　Ｋ,,株式会社,東京都,新宿区,高田馬場２丁目７番１２号,,13,104,1690075,,,,,,,2021-10-12,1,,,,,ヴィレッジケー,0
2081,7011101096564,新規,0,2021-10-12,2021-10-12,株式会社ＯＯＬ,,株式会社,東京都,新宿区,西新宿７丁目５番地５号プラザ西新宿７０９,,13,104,1600023,,,,,,,2021-10-12,1,,,,,オール,0
2091,7011603003407,新規,0,2021-10-12,2021-10-12,合同会社Ｆｌｅｘ,,合同会社,東京都,練馬区,関町北３丁目４３番４０号,,13,120,1770051,,,,,,,2021-10-12,1,,,,,フレックス,0
2092,7011801039814,新規,0,2021-10-12,2021-10-12,株式会社澤田産業,,株式会社,東京都,足立区,青井５丁目１１番２７－３１１号,,13,121,1210012,,,,,,,2021-10-12,1,,,,,サワダサンギョウ,0
2097,7012703002331,新規,0,2021-10-12,2021-10-12,合同会社ビーフラット,,合同会社,東京都,東久留米市,下里７丁目２番１９号アルクトス１０８号,,13,222,2030043,,,,,,,2021-10-12,1,,,,,ビーフラット,0
2100,7013103001080,新規,0,2021-10-12,2021-10-12,中山キャピタルマネジメント合同会社,,合同会社,東京都,あきる野市,秋留１丁目５－１－７０５,,13,228,1970828,,,,,,,2021-10-12,1,,,,,ナカヤマキャピタルマネジメント,0
2105,7020001143467,新規,0,2021-10-12,2021-10-12,株式会社一途,,株式会社,神奈川県,川崎市幸区,塚越４丁目３３３番地１３－２０４,,14,132,2120024,,,,,,,2021-10-12,1,,,,,イチズ,0
2111,7020003020631,新規,0,2021-10-12,2021-10-12,ゴレイン合同会社,,合同会社,神奈川県,横浜市青葉区,大場町９１０－１３,,14,117,2250023,,,,,,,2021-10-12,1,,,,,ゴレイン,0
2112,7020005015233,新規,0,2021-10-12,2021-10-12,一般社団法人声をかける,,その他の設立登記法人,神奈川県,横浜市南区,六ツ川２丁目２３番２７号レジデンス六ツ川１０２,,14,105,2320066,,,,,,,2021-10-12,1,,,,,コエヲカケル,0
2118,7021003010985,新規,0,2021-10-12,2021-10-12,合同会社Ｔ－ＢＡＳＥ,,合同会社,神奈川県,高座郡寒川町,一之宮１丁目５番１４－２号,,14,321,2530111,,,,,,,2021-10-12,1,,,,,ティーベイス,0
2126,7030001144729,新規,0,2021-10-12,2021-10-12,株式会社快適創建,,株式会社,埼玉県,八潮市,緑町５丁目６番１１号クレイノオオシモ２０７,,11,234,3400808,,,,,,,2021-10-12,1,,,,,カイテキソウケン,0
2127,7030001144786,新規,0,2021-10-12,2021-10-12,株式会社小林設備,,株式会社,埼玉県,川口市,芝２丁目４番１９号サンライトＥＫ１０１号,,11,203,3330866,,,,,,,2021-10-12,1,,,,,コバヤシセツビ,0
2134,7030005020554,新規,0,2021-10-12,2021-10-12,社会保険労務士法人きらり,,その他の設立登記法人,埼玉県,さいたま市浦和区,常盤４丁目１１－２－２０２号室,,11,107,3300061,,,,,,,2021-10-12,1,,,,,キラリ,0
2143,7040001120596,新規,0,2021-10-12,2021-10-12,株式会社Ｂｅａｓｔｅｐ,,株式会社,千葉県,八千代市,緑が丘１丁目１１０６番地５,,12,221,2760049,,,,,,,2021-10-12,1,,,,,ビーステップ,0
2148,7040003018731,新規,0,2021-10-12,2021-10-12,ＷＡＡＤ合同会社,,合同会社,千葉県,いすみ市,岬町椎木２２５７番地１,,12,238,2994501,,,,,,,2021-10-12,1,,,,,ワード,0
2152,7050001049975,新規,0,2021-10-12,2021-10-12,株式会社ＴＡＲＣＳ,,株式会社,茨城県,那珂市,下大賀１６９４番地１,,08,226,3192107,,,,,,,2021-10-12,1,,,,,タークス,0
2153,7050001049983,新規,0,2021-10-12,2021-10-12,株式会社ダイキンテクノ,,株式会社,茨城県,桜川市,金敷３８０番地,,08,231,3091245,,,,,,,2021-10-12,1,,,,,ダイキンテクノ,0
2154,7050003006108,新規,0,2021-10-12,2021-10-12,ＫＩＫＩ　ＩＮＴＥＲＮＡＴＩＯＮＡＬ　ＪＡＰＡＮ合同会社,,合同会社,茨城県,土浦市,荒川沖西２丁目６－５,,08,203,3000874,,,,,,,2021-10-12,1,,,,,キキインターナショナルジャパン,0
2160,7060001034183,新規,0,2021-10-12,2021-10-12,株式会社季慶,,株式会社,栃木県,矢板市,豊田３７０－１,,09,211,3292133,,,,,,,2021-10-12,1,,,,,キキョウ,0
2162,7060003003830,新規,0,2021-10-12,2021-10-12,合同会社ＡＨＡＮＡ,,合同会社,栃木県,日光市,栗原３５２番地,,09,206,3212421,,,,,,,2021-10-12,1,,,,,アハナ,0
2163,7060005009909,新規,0,2021-10-12,2021-10-12,医療法人三誠の会,,その他の設立登記法人,栃木県,下都賀郡野木町,大字丸林６６２番地３,,09,364,3290111,,,,,,,2021-10-12,1,,,,,サンセイノカイ,0
2164,7070001038530,新規,0,2021-10-12,2021-10-12,株式会社ＧＭソリューション,,株式会社,群馬県,太田市,新井町３７７番地３３,,10,205,3730852,,,,,,,2021-10-12,1,,,,,ジーエムソリューション,0
2168,7080401025417,新規,0,2021-10-12,2021-10-12,株式会社山田空工設備,,株式会社,静岡県,浜松市中区,天神町１６番４５号,,22,131,4300808,,,,,,,2021-10-12,1,,,,,ヤマダクウコウセツビ,0
2173,7110001036100,新規,0,2021-10-12,2021-10-12,株式会社ＵＲＵＭＡ建築設計事務所,,株式会社,新潟県,上越市,春日野２丁目３番８号,,15,222,9430803,,,,,,,2021-10-12,1,,,,,ウルマケンチクセッケイジムショ,0
2183,7120001241038,新規,0,2021-10-12,2021-10-12,株式会社ＦＵＪＩＩ＆ＳＯＮＳ,,株式会社,大阪府,大阪市淀川区,十三東２丁目１２－３８,,27,123,5320023,,,,,,,2021-10-12,1,,,,,フジイアンドサンズ,0
2184,7120001241087,新規,0,2021-10-12,2021-10-12,株式会社Ｉ’ｚ　ＧＲＯＵＰ,,株式会社,大阪府,大阪市西区,江戸堀１丁目６番１０号肥後橋渡辺ビル９階,,27,106,5500002,,,,,,,2021-10-12,1,,,,,アイズグループ,0
2185,7120001241095,新規,0,2021-10-12,2021-10-12,株式会社ＣＲＹＳＴＡＬ８,,株式会社,大阪府,大阪市浪速区,恵美須東２丁目７番８号新世界ニューハイツ３０２号,,27,111,5560002,,,,,,,2021-10-12,1,,,,,クリスタルエイト,0
2186,7120001241120,新規,0,2021-10-12,2021-10-12,Ｃｌｉｎｉｃ　Ｍａｒｋｅｔｉｎｇ株式会社,,株式会社,大阪府,大阪市北区,西天満６丁目７番２号,,27,127,5300047,,,,,,,2021-10-12,1,,,,,クリニックマーケティング,0
2189,7120103004391,新規,0,2021-10-12,2021-10-12,ＨＵＧ合同会社,,合同会社,大阪府,岸和田市,小松里町７４３番地の１２,,27,202,5960821,,,,,,,2021-10-12,1,,,,,ハグ,0
2191,7120901045050,新規,0,2021-10-12,2021-10-12,株式会社Ｔ＆Ａハウジング,,株式会社,大阪府,池田市,桃園１丁目７番８－１号,,27,204,5630045,,,,,,,2021-10-12,1,,,,,ティーアンドエーハウジング,0
2198,7130003007543,新規,0,2021-10-12,2021-10-12,合同会社ＭＹ　ＥＤＵＣＡＴＩＯＮ,,合同会社,京都府,京都市左京区,高野西開町３４番地１東大路高野第１住宅３棟４０２号,,26,103,6068103,,,,,,,2021-10-12,1,,,,,マイエデュケーション,0
2204,7140001123234,新規,0,2021-10-12,2021-10-12,株式会社華音,,株式会社,兵庫県,神戸市中央区,相生町１丁目２番７－１３０５号,,28,110,6500025,,,,,,,2021-10-12,1,,,,,カノン,0
2205,7140001123317,新規,0,2021-10-12,2021-10-12,株式会社ＤＤＴ　ＷＯＲＫＳ,,株式会社,兵庫県,伊丹市,西台２丁目５番７号,,28,207,6640858,,,,,,,2021-10-12,1,,,,,ディディティワークス,0
2206,7140001123432,新規,0,2021-10-12,2021-10-12,栄寿陸運株式会社,,株式会社,兵庫県,加古川市,志方町志方町５３６番地の１,,28,210,6750321,,,,,,,2021-10-12,1,,,,,エイジュリクウン,0
2207,7140001123449,新規,0,2021-10-12,2021-10-12,株式会社Ｆｏｕｒ　ａ　Ｈｏｍｅ,,株式会社,兵庫県,神戸市兵庫区,下三条町７番１５号,,28,105,6520014,,,,,,,2021-10-12,1,,,,,フォーエーホーム,0
2208,7140001123498,新規,0,2021-10-12,2021-10-12,エミフルホーム株式会社,,株式会社,兵庫県,神戸市須磨区,戸政町３丁目２番１号,,28,107,6540034,,,,,,,2021-10-12,1,,,,,エミフルホーム,0
2215,7150001025009,新規,0,2021-10-12,2021-10-12,株式会社トップフューチャーズ,,株式会社,奈良県,北葛城郡上牧町,大字上牧３４３９番地２１,,29,424,6390214,,,,,,,2021-10-12,1,,,,,トップフューチャーズ,0
2217,7160001023721,新規,0,2021-10-12,2021-10-12,株式会社ハヤタ,,株式会社,滋賀県,米原市,坂口１３１番地１０,,25,214,5210232,,,,,,,2021-10-12,1,,,,,ハヤタ,0
2218,7160003002401,新規,0,2021-10-12,2021-10-12,合同会社レディオ,,合同会社,滋賀県,大津市,今堅田１丁目２番７号,,25,201,5200241,,,,,,,2021-10-12,1,,,,,レディオ,0
2220,7170001016815,新規,0,2021-10-12,2021-10-12,和奏産業株式会社,,株式会社,和歌山県,新宮市,緑ケ丘１丁目５番２７号－２Ｆ,,30,207,6470043,,,,,,,2021-10-12,1,,,,,ワカナサンギョウ,0
2223,7180001148194,新規,0,2021-10-12,2021-10-12,株式会社オット,,株式会社,愛知県,小牧市,小針１丁目４１８－１,,23,219,4850037,,,,,,,2021-10-12,1,,,,,オット,0
2224,7180001148252,新規,0,2021-10-12,2021-10-12,株式会社Ｎクリーン,,株式会社,愛知県,名古屋市西区,児玉３丁目１番３号,,23,104,4510066,,,,,,,2021-10-12,1,,,,,エヌクリーン,0
2225,7180001148260,新規,0,2021-10-12,2021-10-12,株式会社フューチャーコミュニケーション,,株式会社,愛知県,名古屋市西区,那古野１丁目３番１６号,,23,104,4510042,,,,,,,2021-10-12,1,,,,,フューチャーコミュニケーション,0
2226,7180001148269,新規,0,2021-10-12,2021-10-12,株式会社クリスタル・ムーン,,株式会社,愛知県,知多郡南知多町,大字大井字真向２３番地の１,,23,445,4703501,,,,,,,2021-10-12,1,,,,,クリスタルムーン,0
2229,7180003023065,新規,0,2021-10-12,2021-10-12,合同会社電匠,,合同会社,愛知県,豊明市,栄町村前８３．８４番地,,23,229,4701161,,,,,,,2021-10-12,1,,,,,デンショウ,0
2230,7180003023081,新規,0,2021-10-12,2021-10-12,合同会社尽星,,合同会社,愛知県,名古屋市中区,大須１丁目７番１４号パークＩＭビル２Ｆ,,23,106,4600011,,,,,,,2021-10-12,1,,,,,ジンセイ,0
2231,7180005019458,新規,0,2021-10-12,2021-10-12,一般社団法人みつぼし,,その他の設立登記法人,愛知県,丹羽郡扶桑町,大字小淵１２８６番地１,,23,362,4800106,,,,,,,2021-10-12,1,,,,,ミツボシ,0
2234,7180301035497,新規,0,2021-10-12,2021-10-12,株式会社メルシーエンタープライズ,,株式会社,愛知県,刈谷市,半城土北町３丁目２０５番地,,23,210,4480861,,,,,,,2021-10-12,1,,,,,メルシーエンタープライズ,0
2235,7180301035506,新規,0,2021-10-12,2021-10-12,株式会社小野塚工業,00124536,株式会社,愛知県,岡崎市,福桶町字上三丁２３番地２,,23,202,4440233,,,,,,,2021-10-12,1,,,,,オノヅカコウギョウ,0
2248,7200001039283,新規,0,2021-10-12,2021-10-12,株式会社ナムロック,,株式会社,岐阜県,高山市,八日町２００番地,,21,203,5060047,,,,,,,2021-10-12,1,,,,,ナムロック,0
2249,7200001039291,新規,0,2021-10-12,2021-10-12,株式会社ａｉｍｅｒ,,株式会社,岐阜県,不破郡垂井町,表佐４１７０番地の４,,21,361,5032122,,,,,,,2021-10-12,1,,,,,エメ,0
2250,7210001018625,新規,0,2021-10-12,2021-10-12,株式会社ディーライオン,,株式会社,福井県,福井市,開発５丁目３１５番地,,18,201,9100842,,,,,,,2021-10-12,1,,,,,ディーライオン,0
2256,7240001058750,新規,0,2021-10-12,2021-10-12,ライズ株式会社,,株式会社,広島県,広島市中区,上幟町２番３６－２０２号,,34,101,7300014,,,,,,,2021-10-12,1,,,,,ライズ,0
2259,7240003005313,新規,0,2021-10-12,2021-10-12,ＣＯＮＣＲＥ　ＴＯＫＹＯ合同会社,,合同会社,広島県,広島市中区,東千田町１丁目１番６１号ｈｉｔｏｔｏ広島ナレッジスクエア１Ｆ,,34,101,7300053,,,,,,,2021-10-12,1,,,,,コンクリトーキョー,0
2262,7250001019181,新規,0,2021-10-12,2021-10-12,株式会社アイ・ダブル・シー,,株式会社,山口県,岩国市,昭和町３丁目１０番７号,,35,208,7400004,,,,,,,2021-10-12,1,,,,,アイダブルシー,0
2266,7260001036077,新規,0,2021-10-12,2021-10-12,株式会社山河建設,,株式会社,岡山県,笠岡市,大井南２０番地１５,,33,205,7140013,,,,,,,2021-10-12,1,,,,,ヤマカワケンセツ,0
2279,7290001094980,新規,0,2021-10-12,2021-10-12,株式会社ＦＯＯＤＲＩＳＥ,,株式会社,福岡県,福岡市中央区,春吉１丁目４番２号,,40,133,8100003,,,,,,,2021-10-12,1,,,,,フードライズ,0
2293,7310003004183,新規,0,2021-10-12,2021-10-12,五島フローティングウィンドファーム合同会社,,合同会社,長崎県,五島市,下大津町７０８番地４２,,42,211,8530011,,,,,,,2021-10-12,1,,,,,ゴトウフローティングウィンドファーム,0
2294,7310005008554,新規,0,2021-10-12,2021-10-12,特定非営利活動法人佐世保マスターズ水泳協会,,その他の設立登記法人,長崎県,佐世保市,干尽町２番５号観光交流センター２Ｆ,,42,202,8570852,,,,,,,2021-10-12,1,,,,,サセボマスターズスイエイキョウカイ,0
2309,7340003003595,新規,0,2021-10-12,2021-10-12,九州マルタカ合同会社,,合同会社,鹿児島県,鹿児島市,坂之上３丁目２７－３,,46,201,8910150,,,,,,,2021-10-12,1,,,,,キュウシュウマルタカ,0
2312,7360003011506,新規,0,2021-10-12,2021-10-12,ＩＶＱ合同会社,,合同会社,沖縄県,中頭郡北谷町,北谷２丁目１５番地４－３０３号,,47,326,9040116,,,,,,,2021-10-12,1,,,,,アイヴィーキュー,0
2324,7400001015636,新規,0,2021-10-12,2021-10-12,株式会社稀望,,株式会社,岩手県,花巻市,轟木８地割１１７番地,,03,205,0250131,,,,,,,2021-10-12,1,,,,,キボウ,0
2334,7430003013206,新規,0,2021-10-12,2021-10-12,合同会社ＬＯＴＯＳ,,合同会社,北海道,札幌市北区,北二十四条西４丁目１番２０号グランドビル２Ｆ,,01,102,0010024,,,,,,,2021-10-12,1,,,,,ロトス,0
2341,7490003001592,新規,0,2021-10-12,2021-10-12,合同会社ＢａＴＯＮ,,合同会社,高知県,高知市,桜井町１丁目１２番２号,,39,201,7800821,,,,,,,2021-10-12,1,,,,,バトン,0
2345,7700150105208,新規,0,2021-10-12,2021-10-12,永沼区,,その他,埼玉県,春日部市,永沼８０６番地３,,11,214,3440123,,,,,,,2021-10-12,1,,,,,ナガヌマク,0
2346,7700150105249,新規,0,2021-10-12,2021-10-12,Ｌａｎｄｓｏｎ　Ｌｉｍｉｔｅｄ,,外国会社等,東京都,千代田区,丸の内３丁目１番１号東京共同会計事務所内,,13,101,1000005,中華人民共和国香港特別行政区コーズウェイベイ、イーウォー・ストリート６８、１８／Ｆ,,,,,,2021-10-12,1,,,,,ランドソンリミテツド,0
2354,8010001221652,新規,0,2021-10-12,2021-10-12,株式会社Ｃｕｓｔｏｍ　Ｔｈｅｍｅ,,株式会社,東京都,千代田区,九段南１丁目５－６りそな九段ビル５階ＫＳフロア,,13,101,1020074,,,,,,,2021-10-12,1,,,,,カスタムテーマ,0
2355,8010001221660,新規,0,2021-10-12,2021-10-12,株式会社ＦＩＲＳＴ,,株式会社,東京都,中央区,日本橋小伝馬町８番１号,,13,102,1030001,,,,,,,2021-10-12,1,,,,,ファースト,0
2356,8010001221776,新規,0,2021-10-12,2021-10-12,株式会社千代田ＳＤＧｓ総研,,株式会社,東京都,千代田区,丸の内２丁目２番３号,,13,101,1000005,,,,,,,2021-10-12,1,,,,,チヨダエスディージーズソウケン,0
2358,8010003035968,新規,0,2021-10-12,2021-10-12,クリアテックイーストアジア合同会社,,合同会社,東京都,千代田区,有楽町２丁目７番１号,,13,101,1000006,,,,,,,2021-10-12,1,,,,,クリアテックイーストアジア,0
2359,8010003035992,新規,0,2021-10-12,2021-10-12,合同会社ＷｅＳｔａｃｋ,,合同会社,東京都,千代田区,神田神保町１丁目５６番地１,,13,101,1010051,,,,,,,2021-10-12,1,,,,,ウィスタック,0
2361,8010005034043,新規,0,2021-10-12,2021-10-12,特定非営利活動法人パブリックマインド,,その他の設立登記法人,東京都,中央区,八丁堀２丁目１９番８号日宝八丁堀ビル７階,,13,102,1040032,,,,,,,2021-10-12,1,,,,,パブリックマインド,0
2372,8010401162942,新規,0,2021-10-12,2021-10-12,株式会社ｍｉｒｏｋｕ,,株式会社,東京都,港区,南青山２丁目２番１５号ＷｉｎＡｏｙａｍａビルＵＣＦ６３５,,13,103,1070062,,,,,,,2021-10-12,1,,,,,ミロク,0
2373,8010401163197,新規,0,2021-10-12,2021-10-12,株式会社Ｕ・Ｒ・Ｄ．Ｆａｍｉｌｙ,,株式会社,東京都,港区,麻布十番２丁目１２番５号,,13,103,1060045,,,,,,,2021-10-12,1,,,,,ユーアールディーファミリー,0
2374,8010401163239,新規,0,2021-10-12,2021-10-12,カーニバルグループ株式会社,,株式会社,東京都,港区,六本木４丁目２番４５号,,13,103,1060032,,,,,,,2021-10-12,1,,,,,カーニバルグループ,0
2397,8010801032398,新規,0,2021-10-12,2021-10-12,株式会社リンジー,,株式会社,東京都,大田区,仲六郷２丁目１８番６号,,13,111,1440055,,,,,,,2021-10-12,1,,,,,リンジー,0
2416,8011001143226,新規,0,2021-10-12,2021-10-12,株式会社やす寿,,株式会社,東京都,渋谷区,広尾４丁目１番１１,,13,113,1500012,,,,,,,2021-10-12,1,,,,,ヤスジュ,0
2422,8011101096431,新規,0,2021-10-12,2021-10-12,株式会社クレストライズ,,株式会社,東京都,新宿区,西新宿７丁目２０番１－６０６号,,13,104,1600023,,,,,,,2021-10-12,1,,,,,クレストライズ,0
2432,8011703002968,新規,0,2021-10-12,2021-10-12,ＲＴＤコンサルティング合同会社,,合同会社,東京都,江戸川区,西葛西５丁目７－８－３０５,,13,123,1340088,,,,,,,2021-10-12,1,,,,,アールティディーコンサルティング,0
2437,8012303001600,新規,0,2021-10-12,2021-10-12,合同会社ＯＮＥ　ＧＡＴＥ,,合同会社,東京都,町田市,矢部町１２－１グリーンコーポ２０５,,13,209,1940214,,,,,,,2021-10-12,1,,,,,ワンゲート,0
2443,8012703002330,新規,0,2021-10-12,2021-10-12,クランライフ合同会社,,合同会社,東京都,東村山市,栄町２丁目２０番地６,,13,213,1890013,,,,,,,2021-10-12,1,,,,,クランライフ,0
2459,8020001143367,新規,0,2021-10-12,2021-10-12,株式会社エーアイエス企画,,株式会社,神奈川県,横浜市南区,平楽１２番地,,14,105,2320035,,,,,,,2021-10-12,1,,,,,エーアイエスキカク,0
2463,8020003020614,新規,0,2021-10-12,2021-10-12,ビオｔｏＹｏｕ合同会社,,合同会社,神奈川県,川崎市多摩区,菅馬場３丁目３３番１号,,14,135,2140004,,,,,,,2021-10-12,1,,,,,ビオトイウ,0
2464,8020003020639,新規,0,2021-10-12,2021-10-12,優Ｊａｐａｎ合同会社,,合同会社,神奈川県,横浜市中区,弁天通２丁目２１番地,,14,104,2310007,,,,,,,2021-10-12,1,,,,,ユウジャパン,0
2469,8021001074189,新規,0,2021-10-12,2021-10-12,薫風箱根の湯株式会社,,株式会社,神奈川県,足柄下郡箱根町,仙石原１２４６番４６０,,14,382,2500631,,,,,,,2021-10-12,1,,,,,カオルカゼハコネノユ,0
2493,8040001120587,新規,0,2021-10-12,2021-10-12,株式会社ＳＩＣ,,株式会社,千葉県,大網白里市,みどりが丘２丁目３２番地１６,,12,239,2993255,,,,,,,2021-10-12,1,,,,,エスアイシー,0
2501,8040005021369,新規,0,2021-10-12,2021-10-12,はぎの社会保険労務士法人,,その他の設立登記法人,千葉県,千葉市花見川区,幕張町６丁目７３番地４,,12,102,2620032,,,,,,,2021-10-12,1,,,,,ハギノ,0
2506,8050001049925,新規,0,2021-10-12,2021-10-12,株式会社ネクストバース,,株式会社,茨城県,牛久市,岡見町１５５１番地,,08,219,3001204,,,,,,,2021-10-12,1,,,,,ネクストバース,0
2507,8050001049966,新規,0,2021-10-12,2021-10-12,株式会社トレジャーローズ,,株式会社,茨城県,ひたちなか市,外野１丁目２０番１８－１０６号ケイセイグランドハイツそとの,,08,221,3120053,,,,,,,2021-10-12,1,,,,,トレジャーローズ,0
2508,8050001049982,新規,0,2021-10-12,2021-10-12,株式会社Ｒｉｖｅｌｌａ,,株式会社,茨城県,水戸市,笠原町１１８９－２グリーンヒル西野２Ｆ,,08,201,3100852,,,,,,,2021-10-12,1,,,,,リヴェラ,0
2512,8060001034182,新規,0,2021-10-12,2021-10-12,株式会社壬来,,株式会社,栃木県,下都賀郡壬生町,本丸２丁目１５番４５号,,09,361,3210225,,,,,,,2021-10-12,1,,,,,ミライ,0
2522,8080103002432,新規,0,2021-10-12,2021-10-12,合同会社ケー・アンド・ケー,,合同会社,静岡県,富士市,本市場９番地の２,,22,210,4160906,,,,,,,2021-10-12,1,,,,,ケーアンドケー,0
2548,8120001241020,新規,0,2021-10-12,2021-10-12,株式会社ＬＳＴ,,株式会社,大阪府,大阪市中央区,本町橋二丁目２２,,27,128,5400029,,,,,,,2021-10-12,1,,,,,エルエスティ,0
2549,8120001241045,新規,0,2021-10-12,2021-10-12,ＳＪＶ株式会社,,株式会社,大阪府,大阪市西成区,花園南１丁目１２番１４号ＦＤＳプレジール８０９号,,27,122,5570015,,,,,,,2021-10-12,1,,,,,エスジェイブイ,0
2550,8120001241078,新規,0,2021-10-12,2021-10-12,株式会社エンシアホーム,,株式会社,大阪府,枚方市,田口山３丁目１番１５号１Ｆ,,27,210,5730001,,,,,,,2021-10-12,1,,,,,エンシアホーム,0
2551,8120001241086,新規,0,2021-10-12,2021-10-12,株式会社空,,株式会社,大阪府,大阪市淀川区,加島３丁目１１番１６号,,27,123,5320031,,,,,,,2021-10-12,1,,,,,ソラ,0
2552,8120001241094,新規,0,2021-10-12,2021-10-12,株式会社ＭＫＲ工房,,株式会社,大阪府,大阪市都島区,都島中通２丁目１３番１６号,,27,102,5340022,,,,,,,2021-10-12,1,,,,,エムケーアールコウボウ,0
2555,8120003020397,新規,0,2021-10-12,2021-10-12,合同会社春名会,,合同会社,大阪府,大阪市東住吉区,針中野１丁目５－８廣田方,,27,121,5460011,,,,,,,2021-10-12,1,,,,,シュンメイカイ,0
2557,8120005022549,新規,0,2021-10-12,2021-10-12,一般社団法人ヘナサロンサポート協会,,その他の設立登記法人,大阪府,大阪市西淀川区,柏里３丁目１番７－３０３号,,27,113,5550022,,,,,,,2021-10-12,1,,,,,ヘナサロンサポートキョウカイ,0
2560,8120903003864,新規,0,2021-10-12,2021-10-12,合同会社ｖｅｌｍｅ,,合同会社,大阪府,豊中市,緑丘３丁目１１－６,,27,203,5600002,,,,,,,2021-10-12,1,,,,,ヴェルメ,0
2563,8122001035261,新規,0,2021-10-12,2021-10-12,株式会社ＤＩＡＭＯＮＤ,,株式会社,大阪府,東大阪市,水走３丁目９番５号,,27,227,5780921,,,,,,,2021-10-12,1,,,,,ダイヤモンド,0
2570,8130001070179,新規,0,2021-10-12,2021-10-12,株式会社丸勝,,株式会社,京都府,宇治市,小倉町南浦１８－１０,,26,204,6110042,,,,,,,2021-10-12,1,,,,,,0
2572,8130003007542,新規,0,2021-10-12,2021-10-12,合同会社京愛グローバルサービス,,合同会社,京都府,宇治市,伊勢田町大谷１５－１パデシオン宇治伊勢田ＩＩ番館５０９号,00124539,26,204,6110043,,,,,,,2021-10-12,1,,,,,ケイアイグローバルサービス,0
2581,8140001123431,新規,0,2021-10-12,2021-10-12,株式会社ケイトップ,,株式会社,兵庫県,神戸市須磨区,中落合４丁目２番４８９－２０３号,,28,107,6540154,,,,,,,2021-10-12,1,,,,,ケイトップ,0
2590,8160001023720,新規,0,2021-10-12,2021-10-12,グロワール株式会社,,株式会社,滋賀県,彦根市,宇尾町１番地７８,,25,202,5220045,,,,,,,2021-10-12,1,,,,,グロワール,0
2609,8180001148103,新規,0,2021-10-12,2021-10-12,株式会社末平設備,,株式会社,愛知県,一宮市,常願通２丁目１７番地１,,23,203,4910063,,,,,,,2021-10-12,1,,,,,スエヒラセツビ,0
2610,8180001148152,新規,0,2021-10-12,2021-10-12,株式会社ビジョン,,株式会社,愛知県,知多郡武豊町,字小迎１１５番地２,,23,447,4702343,,,,,,,2021-10-12,1,,,,,ビジョン,0
2617,8180301035496,新規,0,2021-10-12,2021-10-12,Ｋ１株式会社,,株式会社,愛知県,みよし市,福谷町蔵屋敷２７番地１,,23,236,4700207,,,,,,,2021-10-12,1,,,,,ケーワン,0
2628,8210001018649,新規,0,2021-10-12,2021-10-12,株式会社ＨＡＦ．Ｂ,,株式会社,福井県,敦賀市,相生町１４番１５号,,18,202,9140062,,,,,,,2021-10-12,1,,,,,ハフビー,0
2634,8240001058758,新規,0,2021-10-12,2021-10-12,株式会社立浪組,,株式会社,広島県,広島市西区,三篠町１丁目１２番８号,,34,104,7330003,,,,,,,2021-10-12,1,,,,,タツナミグミ,0
2644,8260001036076,新規,0,2021-10-12,2021-10-12,株式会社Ｙ‐ｈｏｍｅ　ｓｔｙｌｅ,,株式会社,岡山県,倉敷市,水島北亀島町２番８号,,33,202,7128005,,,,,,,2021-10-12,1,,,,,ワイホームスタイル,0
2645,8260001036084,新規,0,2021-10-12,2021-10-12,株式会社一都,,株式会社,岡山県,岡山市南区,豊成２丁目５番１２号,,33,104,7000942,,,,,,,2021-10-12,1,,,,,イチミヤ,0
2648,8270003001358,新規,0,2021-10-12,2021-10-12,合同会社ルミエール,,合同会社,鳥取県,米子市,皆生温泉３丁目６番１６号,,31,202,6830001,,,,,,,2021-10-12,1,,,,,ルミエール,0
2649,8280001008536,新規,0,2021-10-12,2021-10-12,株式会社太陽警備浜田,,株式会社,島根県,浜田市,浅井町８６番地２３（３０１）,,32,202,6970022,,,,,,,2021-10-12,1,,,,,タイヨウケイビハマダ,0
2658,8290001094880,新規,0,2021-10-12,2021-10-12,プランテック株式会社,,株式会社,福岡県,福岡市中央区,渡辺通１丁目１番１号,,40,133,8100004,,,,,,,2021-10-12,1,,,,,プランテック,0
2659,8290001094906,新規,0,2021-10-12,2021-10-12,株式会社ＷＯＮＤＥＲＭＡＫＥ,,株式会社,福岡県,大牟田市,新栄町２０番地６,,40,202,8360041,,,,,,,2021-10-12,1,,,,,ワンダーメイク,0
2660,8290001094988,新規,0,2021-10-12,2021-10-12,株式会社ＴｈｉｒｄＤｏｏｒ,,株式会社,福岡県,福岡市中央区,大名１丁目７番８－３０２号,,40,133,8100041,,,,,,,2021-10-12,1,,,,,サードドア,0
2661,8290801027908,新規,0,2021-10-12,2021-10-12,株式会社中田電機,,株式会社,福岡県,北九州市八幡西区,丸尾町３番２０号,,40,109,8070826,,,,,,,2021-10-12,1,,,,,ナカタデンキ,0
2684,8360001029499,新規,0,2021-10-12,2021-10-12,株式会社日新ミートフーズ,,株式会社,沖縄県,島尻郡南風原町,字山川２８６番地１７,,47,350,9011115,,,,,,,2021-10-12,1,,,,,ニッシンミートフーズ,0
2689,8380001032261,新規,0,2021-10-12,2021-10-12,株式会社オオラ,,株式会社,福島県,石川郡玉川村,大字南須釜字奥平２９０,,07,502,9636302,,,,,,,2021-10-12,1,,,,,オオラ,0
2712,8500003002704,新規,0,2021-10-12,2021-10-12,合同会社和海,,合同会社,愛媛県,松山市,二番町１丁目１０番１号第２２ミツワビル７階,,38,201,7900002,,,,,,,2021-10-12,1,,,,,ナゴミ,0
2725,9010001221577,新規,0,2021-10-12,2021-10-12,株式会社マナック・ケミカル・パートナーズ,,株式会社,東京都,中央区,日本橋３丁目８番４号,,13,102,1030027,,,,,,,2021-10-12,1,,,,,マナックケミカルパートナーズ,0
2726,9010001221602,新規,0,2021-10-12,2021-10-12,ラジット株式会社,,株式会社,東京都,中央区,八丁堀３丁目１５番６－３０１号,,13,102,1040032,,,,,,,2021-10-12,1,,,,,ラジット,0
2727,9010001221684,新規,0,2021-10-12,2021-10-12,株式会社アシスト,,株式会社,東京都,千代田区,神田三崎町３丁目５番９号天翔ビル８０３,,13,101,1010061,,,,,,,2021-10-12,1,,,,,アシスト,0
2728,9010001221742,新規,0,2021-10-12,2021-10-12,株式会社ＢｉｍｏＲａ,,株式会社,東京都,千代田区,平河町２丁目５番３号ＮａｇａｔａｃｈｏＧＲｉＤ５Ｆ,,13,101,1020093,,,,,,,2021-10-12,1,,,,,ビモラ,0
2731,9010003036032,新規,0,2021-10-12,2021-10-12,合同会社コラボローン西瀬戸３,,合同会社,東京都,千代田区,丸の内３丁目１番１号東京共同会計事務所内,,13,101,1000005,,,,,,,2021-10-12,1,,,,,コラボローンニシセトスリー,0
2737,9010401163122,新規,0,2021-10-12,2021-10-12,アニモ株式会社,,株式会社,東京都,港区,東新橋１丁目１０番１－２５０６号,,13,103,1050021,,,,,,,2021-10-12,1,,,,,アニモ,0
2740,9010403026293,新規,0,2021-10-12,2021-10-12,東京アセット合同会社,,合同会社,東京都,港区,高輪３丁目１６番４－６０３号,,13,103,1080074,,,,,,,2021-10-12,1,,,,,トウキョウアセット,0
2741,9010403026310,新規,0,2021-10-12,2021-10-12,合同会社ｏｄｅｎｎ,,合同会社,東京都,港区,浜松町２丁目２番１５号浜松町ダイヤビル２Ｆ,,13,103,1050013,,,,,,,2021-10-12,1,,,,,オデン,0
2778,9011103011073,新規,0,2021-10-12,2021-10-12,志遠商事合同会社,,合同会社,東京都,新宿区,大久保２丁目１８－１０新宿スカイプラザ７０１,,13,104,1690072,,,,,,,2021-10-12,1,,,,,シエンショウジ,0
2782,9011501027373,新規,0,2021-10-12,2021-10-12,株式会社彩心,,株式会社,東京都,荒川区,南千住６丁目４３番３－１４０１号,,13,118,1160003,,,,,,,2021-10-12,1,,,,,サイシン,0
2784,9011601006260,新規,0,2021-10-12,2021-10-12,豊和ハウス株式会社,,株式会社,東京都,練馬区,関町北４丁目１８番６号,,13,120,1770051,,,,,,,2021-10-12,1,,,,,ホウワハウス,0
2785,9011601025459,新規,0,2021-10-12,2021-10-12,ミライリス株式会社,,株式会社,東京都,練馬区,高野台２丁目９番地７号,,13,120,1770033,,,,,,,2021-10-12,1,,,,,ミライリス,0
2786,9011605002405,新規,0,2021-10-12,2021-10-12,一般社団法人スパファンゴヘルシーエイジング協会,,その他の設立登記法人,東京都,練馬区,田柄２丁目４８番１４号２階,,13,120,1790073,,,,,,,2021-10-12,1,,,,,スパファンゴヘルシーエイジングキョウカイ,0
2788,9011801039812,新規,0,2021-10-12,2021-10-12,株式会社Ｓアドバンス,,株式会社,東京都,葛飾区,鎌倉３丁目５７番１号,,13,122,1250053,,,,,,,2021-10-12,1,,,,,エスアドバンス,0
2790,9012301012730,新規,0,2021-10-12,2021-10-12,株式会社ＡＩＳＨＵ,,株式会社,東京都,町田市,原町田５丁目１－６－４０１,,13,209,1940013,,,,,,,2021-10-12,1,,,,,アイシュ,0
2795,9012401038353,新規,0,2021-10-12,2021-10-12,共に生きる株式会社,,株式会社,東京都,府中市,美好町１丁目３７－１,,13,206,1830045,,,,,,,2021-10-12,1,,,,,トモニイキル,0
2800,9012801021165,新規,0,2021-10-12,2021-10-12,株式会社ＣＨＡＭ,,株式会社,東京都,国分寺市,本町２丁目２５番８号,,13,214,1850012,,,,,,,2021-10-12,1,,,,,シャム,0
2801,9013101008745,新規,0,2021-10-12,2021-10-12,株式会社アニマルグリーンサービス,,株式会社,東京都,青梅市,東青梅５丁目１０番地６－１０５,,13,205,1980042,,,,,,,2021-10-12,1,,,,,アニマルグリーンサービス,0
2802,9013103001079,新規,0,2021-10-12,2021-10-12,合同会社チームイシバシ,,合同会社,東京都,福生市,大字熊川１６７０番地５２,,13,218,1970003,,,,,,,2021-10-12,1,,,,,チームイシバシ,0
2822,9020001143399,新規,0,2021-10-12,2021-10-12,株式会社Ｈｉｇｈ　Ｈｉｇｈ,,株式会社,神奈川県,横浜市中区,宮川町２丁目１９－１Ｌｅ’ａ横濱桜木町２０２,,14,104,2310065,,,,,,,2021-10-12,1,,,,,ハイハイ,0
2833,9021005012318,新規,0,2021-10-12,2021-10-12,一般社団法人よこすかスポーツ・Ｍ学舎ＢＡＯ,,その他の設立登記法人,神奈川県,横須賀市,岩戸３丁目１番１６号,,14,201,2390844,,,,,,,2021-10-12,1,,,,,ヨコスカスポーツエムガクシャバオ,0
2842,9030001144727,新規,0,2021-10-12,2021-10-12,株式会社リメディカ,,株式会社,埼玉県,さいたま市緑区,大字中尾２７２番地５,,11,109,3360932,,,,,,,2021-10-12,1,,,,,リメディカ,0
2854,9040001120413,新規,0,2021-10-12,2021-10-12,株式会社倉月園,,株式会社,千葉県,白井市,根７７２番地の４５,,12,232,2701431,,,,,,,2021-10-12,1,,,,,クラツキエン,0
2858,9050001049981,新規,0,2021-10-12,2021-10-12,株式会社ＭＥＩ,,株式会社,茨城県,水戸市,酒門町３２９８番地８,,08,201,3100841,,,,,,,2021-10-12,1,,,,,メイ,0
2864,9060001034181,新規,0,2021-10-12,2021-10-12,Ｋ－ＮＥＸＵＳ株式会社,,株式会社,栃木県,矢板市,末広町７番地５,,09,211,3292162,,,,,,,2021-10-12,1,,,,,ケイネクサス,0
2866,9060003003829,新規,0,2021-10-12,2021-10-12,合同会社Ｐｒｉｍａｌ,,合同会社,栃木県,芳賀郡益子町,大字益子２０１４番地１,,09,342,3214217,,,,,,,2021-10-12,1,,,,,プライマル,0
2870,9070003004264,新規,0,2021-10-12,2021-10-12,バーンタイ合同会社,,合同会社,群馬県,渋川市,伊香保町伊香保５３０番地５４,,10,208,3770102,,,,,,,2021-10-12,1,,,,,バーンタイ,0
2872,9080003002663,新規,0,2021-10-12,2021-10-12,合同会社ＩＤＥＡＬ,,合同会社,静岡県,島田市,横岡９５８,,22,209,4280004,,,,,,,2021-10-12,1,,,,,イデアル,0
2878,9100001034714,新規,0,2021-10-12,2021-10-12,フィノス株式会社,,株式会社,長野県,北佐久郡軽井沢町,大字長倉千ケ滝西区３９２６,,20,321,3890111,,,,,,,2021-10-12,1,,,,,フィノス,0
2903,9120001241077,新規,0,2021-10-12,2021-10-12,株式会社エイチエム,,株式会社,大阪府,大阪市此花区,春日出中２丁目１１番６号,,27,104,5540022,,,,,,,2021-10-12,1,,,,,エイチエム,0
2904,9120001241102,新規,0,2021-10-12,2021-10-12,株式会社ｙｏｕ’ｌｌ　ｓｅｅ　ａ　ｍａｎ　ｃｏｏｌ,,株式会社,大阪府,大阪市北区,鶴野町３番９号,,27,127,5300014,,,,,,,2021-10-12,1,,,,,ユールシーアマンクール,0
2908,9120003020388,新規,0,2021-10-12,2021-10-12,合同会社翼,,合同会社,大阪府,大阪市旭区,太子橋１丁目２番２３－大成ビル６０２,,27,117,5350001,,,,,,,2021-10-12,1,,,,,ツバサ,0
2911,9120101064394,新規,0,2021-10-12,2021-10-12,株式会社ＢＲＵＳＨ　ＵＰ,,株式会社,大阪府,羽曳野市,はびきの２丁目７番１７－３０６号,,27,222,5830872,,,,,,,2021-10-12,1,,,,,ブラッシュアップ,0
2912,9120101064477,新規,0,2021-10-12,2021-10-12,株式会社Ｌｉｌｌｙ,,株式会社,大阪府,泉佐野市,鶴原２８０９番地の１８,,27,213,5980071,,,,,,,2021-10-12,1,,,,,リリー,0
2914,9120901045049,新規,0,2021-10-12,2021-10-12,株式会社Ｙａｍａｔｏ,,株式会社,大阪府,豊中市,庄内幸町４丁目１０番１９号,,27,203,5610833,,,,,,,2021-10-12,1,,,,,ヤマト,0
2917,9130001070327,新規,0,2021-10-12,2021-10-12,株式会社Ｓ．ＤＨＡＮＡ　ＴＲＡＤＩＮＧ＆ＥＸＰＯＲＴ,,株式会社,京都府,八幡市,八幡小松１５番地の１３,,26,210,6148035,,,,,,,2021-10-12,1,,,,,エスダナトレーディングアンドエクスポート,0
2921,9130003007541,新規,0,2021-10-12,2021-10-12,合同会社平和土地,,合同会社,京都府,京都市中京区,烏丸通夷川上る少将井町２４５－１－７０５,,26,104,6040862,,,,,,,2021-10-12,1,,,,,ヘイワトチ,0
2929,9140001123414,新規,0,2021-10-12,2021-10-12,株式会社ＳＴＥ,,株式会社,兵庫県,伊丹市,中央１丁目４－７,,28,207,6640851,,,,,,,2021-10-12,1,,,,,エスティーイー,0
2936,9170001016813,新規,0,2021-10-12,2021-10-12,株式会社さこうお,,株式会社,和歌山県,新宮市,千穂２丁目２番２４号,,30,207,6470015,,,,,,,2021-10-12,1,,,,,サコウオ,0
2937,9170001016821,新規,0,2021-10-12,2021-10-12,株式会社中尾ロジスティクス,,株式会社,和歌山県,紀の川市,畑野上２９４番地１,,30,208,6496424,,,,,,,2021-10-12,1,,,,,ナカオロジスティクス,0
2946,9180001148143,新規,0,2021-10-12,2021-10-12,株式会社アクセス,,株式会社,愛知県,名古屋市守山区,八反１０番３０号,,23,113,4630063,,,,,,,2021-10-12,1,,,,,アクセス,0
2947,9180001148250,新規,0,2021-10-12,2021-10-12,伸和物産株式会社,,株式会社,愛知県,名古屋市西区,則武新町１丁目１６番１号,,23,104,4510051,,,,,,,2021-10-12,1,,,,,シンワブッサンカブシイカイシャ,0
2948,9180001148267,新規,0,2021-10-12,2021-10-12,株式会社エムエスジェイ,,株式会社,愛知県,名古屋市天白区,音聞山１５１５番地の２,,23,116,4680063,,,,,,,2021-10-12,1,,,,,エムエスジェイ,0
2954,9180003023063,新規,0,2021-10-12,2021-10-12,合同会社小川屋,,合同会社,愛知県,一宮市,光明寺字神明前４３番地,,23,203,4910135,,,,,,,2021-10-12,1,,,,,,0
2957,9180301035504,新規,0,2021-10-12,2021-10-12,株式会社エアコンプラザ,,株式会社,愛知県,安城市,高棚町茨池９番地５,,23,212,4460053,,,,,,,2021-10-12,1,,,,,エアコンプラザ,0
2966,9200001039281,新規,0,2021-10-12,2021-10-12,株式会社ｖａｌｕｅｓ　ｓｈａｒｉｎｇ,,株式会社,岐阜県,各務原市,各務山の前町４丁目４３８番地,,21,213,5090105,,,,,,,2021-10-12,1,,,,,バリューズシェアリング,0
2970,9210001018648,新規,0,2021-10-12,2021-10-12,株式会社桔梗,,株式会社,福井県,吉田郡永平寺町,光明寺第１６号１８番地１,,18,322,9101216,,,,,,,2021-10-12,1,,,,,キキョウ,0
2976,9230003001740,新規,0,2021-10-12,2021-10-12,合同会社Ｌｉｂｅｒｔｙ,,合同会社,富山県,高岡市,戸出町５丁目９番１４５号,,16,202,9391104,,,,,,,2021-10-12,1,,,,,リバティ,0
2982,9240001058749,新規,0,2021-10-12,2021-10-12,株式会社貴理之介興産,,株式会社,広島県,広島市中区,富士見町１０番１号,,34,101,7300043,,,,,,,2021-10-12,1,,,,,キリノスケコウサン,0
2986,9250001019188,新規,0,2021-10-12,2021-10-12,ＳＡＩＫＹＯ　ＴＲＡＤＥ株式会社,,株式会社,山口県,宇部市,厚南中央１丁目４番５１号,,35,202,7590212,,,,,,,2021-10-12,1,,,,,サイキョウトレード,0
2987,9250001019196,新規,0,2021-10-12,2021-10-12,事業承継・Ｍ＆Ａマネジメント株式会社,,株式会社,山口県,下関市,秋根上町１丁目３番２号形山パレス１Ｆ,,35,201,7510878,,,,,,,2021-10-12,1,,,,,ジギョウショウケイエムアンドエーマネジメント,0
2990,9260001036075,新規,0,2021-10-12,2021-10-12,株式会社ユウセキ,,株式会社,岡山県,岡山市中区,神下５９８番地２,,33,102,7038225,,,,,,,2021-10-12,1,,,,,ユウセキ,0
2992,9280001008535,新規,0,2021-10-12,2021-10-12,株式会社インプレッション,,株式会社,島根県,松江市,乃木福富町３５９番地１,,32,201,6900046,,,,,,,2021-10-12,1,,,,,インプレッション,0
2998,9290001094954,新規,0,2021-10-12,2021-10-12,株式会社ライクピース,,株式会社,福岡県,福岡市中央区,渡辺通１丁目１番２号ホテルニューオータニ博多５０７,,40,133,8100004,,,,,,,2021-10-12,1,,,,,ライクピース,0
3000,9290003011701,新規,0,2021-10-12,2021-10-12,合同会社ライズインベスト,,合同会社,福岡県,福岡市西区,愛宕２丁目１３番３１号,,40,135,8190015,,,,,,,2021-10-12,1,,,,,ライズインベスト,0
3018,9360005006510,新規,0,2021-10-12,2021-10-12,沖縄県卸売酒販組合,,その他の設立登記法人,沖縄県,那覇市,前島３丁目４番１６号（有）喜屋武商店内,,47,201,9000016,,,,,,沖縄県浦添市勢理客三丁目３番１２号那覇酒類販売（株）内沖縄南部卸売酒販組合（4360005002943）と沖縄県沖縄市住吉二丁目２８番３０号沖縄卸売酒販組合（8360005002089）と沖縄県名護市大南四丁目１１番１３号名護卸売酒販組合（4360005003272）と沖縄県宮古島市平良字下里８１２番地宮古島酒販組合（6360005003774）と沖縄県石垣市美崎町７番地１１石垣卸売酒販組合（8360005003649）の合併により設立,2021-10-12,1,,,,,オキナワケンオロシウリ,0
3022,9380003005033,新規,0,2021-10-12,2021-10-12,合同会社キョウドウ,,合同会社,福島県,いわき市,常磐西郷町金山３０６番地の２,,07,204,9728316,,,,,,,2021-10-12,1,,,,,キョウドウ,0
3025,9390001016634,新規,0,2021-10-12,2021-10-12,リヴィナス株式会社,,株式会社,山形県,鶴岡市,みどり町２２－３９－２,,06,203,9970046,,,,,,,2021-10-12,1,,,,,リヴィナス,0
3046,9470001018770,新規,0,2021-10-12,2021-10-12,株式会社ＬＩＥＭＯ,,株式会社,香川県,善通寺市,下吉田町３４番地４メイソン・ブランシュＡ２０１,,37,204,7650021,,,,,,,2021-10-12,1,,,,,リエモ,0
3047,9470003002054,新規,0,2021-10-12,2021-10-12,ＰＭＣ合同会社,,合同会社,香川県,観音寺市,本大町１６７３番地３,,37,205,7680022,,,,,,,2021-10-12,1,,,,,ピーエムシー,0
3051,9490001010016,新規,0,2021-10-12,2021-10-12,株式会社チョイスランド,,株式会社,高知県,土佐市,高岡町乙３０５３番地,,39,205,7811102,,,,,,,2021-10-12,1,,,,,チョイスランド,0
