sequenceNumber,corporateNumber,process,correct,updateDate,changeDate,name,nameImageId,kind,prefectureName,cityName,streetNumber,addressImageId,prefectureCode,cityCode,postCode,addressOutside,addressOutsideImageId,closeDate,closeCause,successorCorporateNumber,changeCause,assignmentDate,latest,enName,enPrefectureName,enCityName,enAddressOutside,furigana,hihyoji
1,1010001013833,登記記録の閉鎖等,0,2021-09-29,2021-09-14,株式会社学考社,,株式会社,東京都,千代田区,神田神保町３丁目１１番地安田神保町マンション３０４号,,13,101,1010051,,,2021-09-14,清算の結了等,,,2015-10-05,1,,,,,ガッコウシャ,0
14,1010002012314,登記記録の閉鎖等,0,2021-09-29,2021-09-22,千代田技研工業有限会社,,有限会社,東京都,千代田区,外神田３丁目６番１号,,13,101,1010021,,,2021-09-22,清算の結了等,,,2015-10-05,1,,,,,チヨダギケンコウギョウ,0
22,1010403019874,登記記録の閉鎖等,0,2021-09-29,2021-09-14,合同会社ハッピー・キャット・ライフ,,合同会社,東京都,港区,浜松町２丁目２番１５号,,13,103,1050013,,,2021-09-14,清算の結了等,,,2018-12-26,1,,,,,ハッピーキャットライフ,0
26,1010602032174,登記記録の閉鎖等,0,2021-09-29,2021-09-15,有限会社フールブロスインク,,有限会社,千葉県,南房総市,千倉町南朝夷２０１３番地１,,12,234,2950012,,,2021-09-15,清算の結了等,,,2015-10-05,1,,,,,フールブロスインク,0
36,1010802013486,登記記録の閉鎖等,0,2021-09-29,2021-09-16,有限会社マツダ精機,,有限会社,東京都,大田区,大森西７丁目６番９号,,13,111,1430015,,,2021-09-16,清算の結了等,,,2015-10-05,1,,,,,マツダセイキ,0
57,1011105003704,登記記録の閉鎖等,0,2021-09-29,2021-09-16,特定非営利活動法人特定健診対策会,,その他の設立登記法人,東京都,新宿区,新宿１丁目８番１１号東食健保新宿会館,,13,104,1600022,,,2021-09-16,清算の結了等,,,2015-10-05,1,,,,,トクテイケンシンタイサクカイ,0
99,1020003014184,登記記録の閉鎖等,0,2021-09-29,2021-09-24,合同会社Ａ．Ｇ．Ｒ．,,合同会社,神奈川県,横浜市港南区,上大岡西１丁目１４－１０,,14,111,2330002,,,2021-09-24,清算の結了等,,,2018-04-11,1,,,,,エージーアール,0
107,1021001033201,登記記録の閉鎖等,0,2021-09-29,2021-09-27,宮田商事株式会社,,株式会社,神奈川県,小田原市,扇町３丁目６番１１号,,14,206,2500001,,,2021-09-27,清算の結了等,,,2015-10-05,1,,,,,,0
108,1021001041798,登記記録の閉鎖等,0,2021-09-29,2021-09-21,株式会社ワイ・エヌ・ロジックス,,株式会社,神奈川県,横須賀市,津久井２丁目１１番４４号,,14,201,2390843,,,2021-09-21,清算の結了等,,,2015-10-05,1,,,,,ワイエヌロジックス,0
123,1030003012096,登記記録の閉鎖等,0,2021-09-29,2021-09-15,合同会社雄光,,合同会社,埼玉県,さいたま市浦和区,東仲町２６番１９－５０３号,,11,107,3300056,,,2021-09-15,清算の結了等,,,2018-06-29,1,,,,,ユウコウ,0
135,1040002024505,登記記録の閉鎖等,0,2021-09-29,2021-09-17,有限会社サニー藥局,,有限会社,千葉県,船橋市,三山８丁目２番１号,,12,204,2740072,,,2021-09-17,清算の結了等,,,2015-10-05,1,,,,,サニーヤッキョク,0
146,1070002024238,登記記録の閉鎖等,0,2021-09-29,2021-09-24,有限会社トシテックス,,有限会社,群馬県,桐生市,東久方町２丁目６番３０号,,10,203,3760053,,,2021-09-24,清算の結了等,,,2015-10-05,1,,,,,トシテックス,0
154,1110001012932,登記記録の閉鎖等,0,2021-09-29,2021-09-24,株式会社丸石商事,,株式会社,新潟県,新発田市,緑町３丁目４番４号,,15,206,9570018,,,2021-09-24,清算の結了等,,,2015-10-05,1,,,,,マルイシショウジ,0
156,1110002029868,登記記録の閉鎖等,0,2021-09-29,2021-09-22,有限会社割烹なかまち,,有限会社,新潟県,長岡市,与板町与板４８６番地,,15,202,9402402,,,2021-09-22,清算の結了等,,,2015-10-05,1,,,,,カッポウナカマチ,0
160,1120001089846,登記記録の閉鎖等,0,2021-09-29,2021-09-13,松本環境開発株式会社,,株式会社,大阪府,大阪市中央区,西心斎橋２丁目１２番２２号,,27,128,5420086,,,2021-09-13,清算の結了等,,,2015-10-05,1,,,,,マツモトカンキョウカイハツ,0
216,1180001049968,登記記録の閉鎖等,0,2021-09-29,2021-09-22,株式会社ハウジング・ユー,,株式会社,愛知県,名古屋市南区,鳥栖１丁目１２番８号,,23,112,4570006,,,2021-09-22,清算の結了等,,,2015-10-05,1,,,,,ハウジングユー,0
224,1180003015167,登記記録の閉鎖等,0,2021-09-29,2021-09-21,合資会社ＵＲＵＭＡ,,合資会社,愛知県,名古屋市守山区,大森４丁目２０１９－２,,23,113,4630021,,,2021-09-21,清算の結了等,,,2015-10-05,1,,,,,ウルマ,0
229,1180302014365,登記記録の閉鎖等,0,2021-09-29,2021-09-27,有限会社ごゆ動物病院,,有限会社,愛知県,豊川市,御油町小山１３番地の１,,23,207,4410211,,,2021-09-27,清算の結了等,,,2015-10-05,1,,,,,ゴユドウブツビョウイン,0
230,1180302015248,登記記録の閉鎖等,0,2021-09-29,2021-09-27,有限会社形原綱業所,,有限会社,愛知県,蒲郡市,形原町北新田１９番地１,,23,214,4430104,,,2021-09-27,清算の結了等,,,2015-10-05,1,,,,,カタハラコウギョウジョ,0
254,1280001004442,登記記録の閉鎖等,0,2021-09-29,2021-09-27,株式会社山形興行,,株式会社,島根県,浜田市,牛市町１０３番地１,,32,202,6970032,,,2021-09-27,清算の結了等,,,2015-10-05,1,,,,,ヤマガタコウギョウ,0
292,1390005000971,登記記録の閉鎖等,0,2021-09-29,2021-09-24,医療法人安藤医院,,その他の設立登記法人,山形県,東村山郡中山町,大字長崎１１４４番地の１,,06,302,9900401,,,2021-09-24,清算の結了等,,,2015-10-05,1,,,,,アンドウイイン,0
293,1390005004956,登記記録の閉鎖等,0,2021-09-29,2021-09-22,特定非営利活動法人あゆみ,,その他の設立登記法人,山形県,鶴岡市,青柳町３９番１１号,,06,203,9970832,,,2021-09-22,清算の結了等,,,2015-10-05,1,,,,,アユミ,0
296,1420002002629,登記記録の閉鎖等,0,2021-09-29,2021-09-24,有限会社ホクエー開発,,有限会社,青森県,青森市,長島２丁目１番１４号,,02,201,0300861,,,2021-09-24,清算の結了等,,,2015-10-05,1,,,,,ホクエーカイハツ,0
313,2010001205124,登記記録の閉鎖等,0,2021-09-29,2021-09-24,株式会社室町硝子工芸,,株式会社,東京都,中央区,日本橋本町３丁目３番６号,,13,102,1030023,,,2021-09-24,合併による解散等,4011801025957,令和３年９月１日東京都台東区上野六丁目１番６号株式会社一創（4011801025957）に合併し解散,2019-11-07,1,,,,,ムロマチガラスコウゲイ,0
317,2010005010504,登記記録の閉鎖等,0,2021-09-29,2021-09-22,ＴＯＲＡＮＯＭＯＮ　ＪＡＰＡＮ　ＨＯＬＤＩＮＧ特定目的会社,,その他の設立登記法人,東京都,千代田区,霞が関３丁目２番５号,,13,101,1000013,,,2021-09-22,清算の結了等,,,2015-10-05,1,,,,,トラノモンジャパンホールディング,0
335,2010802003354,登記記録の閉鎖等,0,2021-09-29,2021-09-17,株式会社カーサ平,,株式会社,東京都,大田区,千鳥１丁目９番１２号,,13,111,1460083,,,2021-09-17,清算の結了等,,,2015-10-05,1,,,,,カーサタイラ,0
353,2011403001029,登記記録の閉鎖等,0,2021-09-29,2021-09-27,合同会社ライフマーケティング,,合同会社,東京都,板橋区,若木１丁目２７番１－８１１号,,13,119,1740065,,,2021-09-27,清算の結了等,,,2015-10-05,1,,,,,ライフマーケティング,0
360,2011602005532,登記記録の閉鎖等,0,2021-09-29,2021-09-28,有限会社仙南工業,,有限会社,東京都,練馬区,北町７丁目７番１２－１１２号,,13,120,1790081,,,2021-09-28,清算の結了等,,,2015-10-05,1,,,,,センナンコウギョウ,0
386,2020001069519,登記記録の閉鎖等,0,2021-09-29,2021-09-24,住吉電気通信株式会社,,株式会社,神奈川県,川崎市中原区,木月３丁目２７番１９号,,14,133,2110025,,,2021-09-24,清算の結了等,,,2015-10-05,1,,,,,スミヨシデンキツウシン,0
388,2020001083817,登記記録の閉鎖等,0,2021-09-29,2021-09-22,株式会社日向精巧社,,株式会社,神奈川県,川崎市宮前区,宮崎３丁目３番地４０コスモヒルズ宮崎台７０４,,14,136,2160033,,,2021-09-22,清算の結了等,,,2015-10-05,1,,,,,ヒナタセイコウシャ,0
420,2040001096247,登記記録の閉鎖等,0,2021-09-29,2021-09-16,遠藤基礎工業株式会社,,株式会社,千葉県,千葉市稲毛区,園生町２６６番地２アインズコート稲毛４１４号,,12,103,2630051,,,2021-09-16,清算の結了等,,,2016-07-26,1,,,,,エンドウキソコウギョウ,0
438,2080101010442,登記記録の閉鎖等,0,2021-09-29,2021-09-21,株式会社白峰産業,,株式会社,静岡県,富士市,中野４８９番地の５,,22,210,4170809,,,2021-09-21,清算の結了等,,,2015-10-05,1,,,,,ハクホウサンギョウ,0
439,2080101018758,登記記録の閉鎖等,0,2021-09-29,2021-09-21,株式会社モリブリング,,株式会社,静岡県,沼津市,岡宮１２０３番地の５,,22,203,4100011,,,2021-09-21,清算の結了等,,,2015-11-18,1,,,,,モリブリング,0
442,2090002001861,登記記録の閉鎖等,0,2021-09-29,2021-09-17,有限会社大成ビニール販売商会,,有限会社,山梨県,甲府市,中央１丁目１５番９号,,19,201,4000032,,,2021-09-17,清算の結了等,,,2015-10-05,1,,,,,タイセイビニールハンバイショウカイ,0
447,2110002004655,登記記録の閉鎖等,0,2021-09-29,2021-09-22,有限会社晴耕建舎,,有限会社,新潟県,長岡市,要町３丁目１番１５号,,15,202,9401153,,,2021-09-22,清算の結了等,,,2015-10-05,1,,,,,セイコウケンシャ,0
449,2120001085381,登記記録の閉鎖等,0,2021-09-29,2021-09-22,東宝洋傘工業株式会社,,株式会社,大阪府,大阪市中央区,玉造１丁目１９番２号,,27,128,5400004,,,2021-09-22,清算の結了等,,,2015-10-05,1,,,,,トウホウヨウガサコウギョウ,0
463,2120001229995,登記記録の閉鎖等,0,2021-09-29,2021-09-14,愛希株式会社,,株式会社,埼玉県,川口市,芝中田１丁目２３番１３号クリアハウス川口２０５号室,,11,203,3330847,,,2021-09-14,清算の結了等,,,2020-06-29,1,,,,,アイキ,0
469,2120002061670,登記記録の閉鎖等,0,2021-09-29,2021-09-21,有限会社フジクラシステムサービス,,有限会社,大阪府,大阪市天王寺区,清水谷町８番１５号,,27,109,5430011,,,2021-09-21,清算の結了等,,,2015-10-05,1,,,,,フジクラシステムサービス,0
478,2120905003934,登記記録の閉鎖等,0,2021-09-29,2021-08-18,日本聖公会石橋聖トマス教会,,その他の設立登記法人,大阪府,豊中市,待兼山町５番１７号,,27,203,5600043,,,2021-08-18,合併による解散等,9120005002153,令和３年８月１０日大阪市阿倍野区松崎町二丁目１番８号日本聖公会大阪教区（9120005002153）に合併し解散,2015-10-05,1,,,,,,0
481,2130002022143,登記記録の閉鎖等,0,2021-09-29,2021-09-22,京都優食有限会社,,有限会社,京都府,京都市北区,西賀茂角社町１７８番地４,,26,101,6038845,,,2021-09-22,清算の結了等,,,2015-10-05,1,,,,,キョウトユウショク,0
484,2140001039633,登記記録の閉鎖等,0,2021-09-29,2021-09-22,相生金属工業株式会社,,株式会社,兵庫県,相生市,那波野３丁目８番２８号,,28,208,6780011,,,2021-09-22,清算の結了等,,,2015-10-05,1,,,,,,0
490,2140001089777,登記記録の閉鎖等,0,2021-09-29,2021-09-22,株式会社ＫＡＺＵＹＡ,,株式会社,兵庫県,西宮市,川東町４－２,,28,204,6620945,,,2021-09-22,清算の結了等,,,2015-10-05,1,,,,,カズヤ,0
507,2180001102858,登記記録の閉鎖等,0,2021-09-29,2021-09-21,株式会社まちの接骨院,,株式会社,愛知県,名古屋市千種区,内山３丁目１０番２２号,,23,101,4640075,,,2021-09-21,清算の結了等,,,2015-10-05,1,,,,,マチノセッコツイン,0
509,2180002046848,登記記録の閉鎖等,0,2021-09-29,2021-09-22,有限会社印刷工房,,有限会社,愛知県,名古屋市中村区,名駅南３丁目１２番３０号,,23,105,4500003,,,2021-09-22,清算の結了等,,,2015-10-05,1,,,,,インサツコウボウ,0
515,2200001001264,登記記録の閉鎖等,0,2021-09-29,2021-09-27,岐北建設株式会社,,株式会社,岐阜県,岐阜市,茂地５４番地の６,,21,201,5012523,,,2021-09-27,清算の結了等,,,2015-10-05,1,,,,,ギホクケンセツ,0
519,2220001011162,登記記録の閉鎖等,0,2021-09-29,2021-09-27,株式会社ＳＭＳ,,株式会社,石川県,金沢市,長町３丁目１１番８号,,17,201,9200865,,,2021-09-27,清算の結了等,,,2015-10-05,1,,,,,エスエムエス,0
544,2320001015244,登記記録の閉鎖等,0,2021-09-29,2021-09-27,株式会社大宮電設,,株式会社,大分県,大分市,大字猪野８９０番地の１,,44,201,8700134,,,2021-09-27,清算の結了等,,,2016-10-25,1,,,,,オオミヤデンセツ,0
562,2400002011548,登記記録の閉鎖等,0,2021-09-29,2021-09-22,有限会社木村不動産,,有限会社,岩手県,釜石市,小川町１丁目２番４号,,03,211,0260045,,,2021-09-22,清算の結了等,,,2015-10-05,1,,,,,キムラフドウサン,0
568,2430005009025,登記記録の閉鎖等,0,2021-09-29,2021-09-15,北海道プラント事業協同組合,,その他の設立登記法人,北海道,苫小牧市,字沼ノ端２５５番地２８４,,01,213,0591364,,,2021-09-15,清算の結了等,,,2015-10-05,1,,,,,ホッカイドウプラント,0
580,2490002011498,登記記録の閉鎖等,0,2021-09-29,2021-09-24,有限会社ティーイー・二一,,有限会社,高知県,南国市,浜改田２３７４番地１,,39,204,7830083,,,2021-09-24,清算の結了等,,,2015-10-05,1,,,,,ティーイーニジュウイチ,0
582,2490005003658,登記記録の閉鎖等,0,2021-09-29,2021-09-27,東新町商店街振興組合,,その他の設立登記法人,高知県,須崎市,新町２丁目３番,,39,206,7850003,,,2021-09-27,清算の結了等,,,2015-10-05,1,,,,,ヒガシシンマチ,0
585,2500005000026,登記記録の閉鎖等,0,2021-09-29,2021-08-10,天理教二神分教会,,その他の設立登記法人,愛媛県,松山市,二神甲４３６番地,,38,201,7914323,,,2021-08-10,合併による解散等,8500005000400,令和３年８月１０日愛媛県松山市平和通四丁目２番２号天理教松山市分教会（8500005000400）に合併し解散,2015-10-05,1,,,,,テンリキョウフタカミブンキョウカイ,0
591,3010001153256,登記記録の閉鎖等,0,2021-09-29,2021-09-24,マクセルスマートコミュニケーションズ株式会社,,株式会社,東京都,渋谷区,元代々木町３０番１３号,,13,113,1510062,,,2021-09-24,合併による解散等,3130001059706,令和３年９月１５日京都府乙訓郡大山崎町大山崎小泉１番地マクセル株式会社（3130001059706）に合併し解散,2015-10-05,1,,,,,マクセルスマートコミュニケーションズ,0
603,3010102010752,登記記録の閉鎖等,0,2021-09-29,2021-09-21,有限会社シーエス商会,,有限会社,東京都,八王子市,上柚木３丁目１０番地２－５０１,,13,201,1920373,,,2021-09-21,清算の結了等,,,2015-10-05,1,,,,,シーエスショウカイ,0
611,3010601005815,登記記録の閉鎖等,0,2021-09-29,2021-09-14,株式会社ヒューマンポテンシャルカンパニー,,株式会社,東京都,江東区,永代２丁目９番６号,,13,108,1350034,,,2021-09-14,清算の結了等,,,2015-10-05,1,,,,,ヒューマンポテンシャルカンパニー,0
626,3010802020497,登記記録の閉鎖等,0,2021-09-29,2021-09-16,有限会社リンガシスト,,有限会社,東京都,大田区,田園調布４丁目１１番６号,,13,111,1450071,,,2021-09-16,清算の結了等,,,2015-10-05,1,,,,,リンガシスト,0
647,3011005006276,登記記録の閉鎖等,0,2021-09-29,2021-09-08,一般社団法人日本財経促進協会,,その他の設立登記法人,東京都,目黒区,駒場２丁目１番７－２０６号,,13,110,1530041,,,2021-09-08,清算の結了等,,,2015-10-05,1,,,,,ニホンザイケイソクシンキョウカイ,0
658,3011201003944,登記記録の閉鎖等,0,2021-09-29,2021-09-22,中野物産株式会社,,株式会社,東京都,中野区,中央５丁目８番６号,,13,114,1640011,,,2021-09-22,清算の結了等,,,2015-10-05,1,,,,,,0
691,3013101007190,登記記録の閉鎖等,0,2021-09-29,2021-09-15,エーアイコンサルティング株式会社,,株式会社,埼玉県,越谷市,レイクタウン２丁目２７番地１０,,11,222,3430828,,,2021-09-15,清算の結了等,,,2015-12-21,1,,,,,エーアイコンサルティング,0
704,3020001086463,登記記録の閉鎖等,0,2021-09-29,2021-09-24,株式会社エッジファクトリー,,株式会社,神奈川県,横浜市青葉区,藤が丘１丁目８番地８ボニート藤が丘３０２,,14,117,2270043,,,2021-09-24,清算の結了等,,,2015-10-05,1,,,,,エッジファクトリー,0
713,3020002024249,登記記録の閉鎖等,0,2021-09-29,2021-09-24,有限会社中央歯研,,有限会社,神奈川県,横浜市保土ケ谷区,上星川２丁目１０番２２号,,14,106,2400042,,,2021-09-24,清算の結了等,,,2015-10-05,1,,,,,チュウオウシケン,0
723,3021002014198,登記記録の閉鎖等,0,2021-09-29,2021-09-24,有限会社大船アルミ工業,,有限会社,神奈川県,鎌倉市,大船２丁目９番６号,,14,204,2470056,,,2021-09-24,清算の結了等,,,2015-10-05,1,,,,,オオフナアルミコウギョウ,0
741,3040001004299,登記記録の閉鎖等,0,2021-09-29,2021-09-15,株式会社高長谷商店,,株式会社,千葉県,千葉市中央区,神明町２４４番地,,12,101,2600022,,,2021-09-15,清算の結了等,,,2015-10-05,1,,,,,タカハセショウテン,0
744,3040001066645,登記記録の閉鎖等,0,2021-09-29,2021-09-16,大機ゴム工業株式会社,,株式会社,千葉県,柏市,花野井７１３番地１,,12,217,2770812,,,2021-09-16,清算の結了等,,,2015-10-05,1,,,,,ダイキゴムコウギョウ,0
748,3040002024164,登記記録の閉鎖等,0,2021-09-29,2021-09-17,有限会社ナガシマエージェンシー,,有限会社,千葉県,船橋市,宮本８丁目２５番２２号,,12,204,2730003,,,2021-09-17,清算の結了等,,,2015-10-05,1,,,,,ナガシマエージェンシー,0
751,3040002056562,登記記録の閉鎖等,0,2021-09-29,2021-09-15,有限会社宮本,,有限会社,千葉県,富里市,七栄１００５番地３,,12,233,2860221,,,2021-09-15,清算の結了等,,,2015-10-05,1,,,,,,0
768,3080101001432,登記記録の閉鎖等,0,2021-09-29,2021-09-22,株式会社日峰興業,,株式会社,静岡県,沼津市,大岡３１９２番地の１,,22,203,4100022,,,2021-09-22,清算の結了等,,,2015-10-05,1,,,,,ニッポウコウギョウ,0
771,3080102000359,登記記録の閉鎖等,0,2021-09-29,2021-09-22,有限会社いづみ,,有限会社,静岡県,沼津市,下香貫柿原２８４６番地の１,,22,203,4100822,,,2021-09-22,清算の結了等,,,2015-10-05,1,,,,,,0
772,3080401001223,登記記録の閉鎖等,0,2021-09-29,2021-09-24,株式会社カツポー,,株式会社,静岡県,浜松市南区,法枝町６１９番地,,22,134,4328053,,,2021-09-24,清算の結了等,,,2015-10-05,1,,,,,カツポー,0
773,3080401010356,登記記録の閉鎖等,0,2021-09-29,2021-09-29,株式会社タコウ,,株式会社,静岡県,浜松市浜北区,中瀬２２４１番地の３,,22,136,4340012,,,2021-09-29,清算の結了等,,,2015-10-05,1,,,,,,0
776,3080402019974,登記記録の閉鎖等,0,2021-09-29,2021-09-24,有限会社ミツオカ自動車工業,,有限会社,静岡県,磐田市,千手堂５４８番地の２,,22,211,4380057,,,2021-09-24,清算の結了等,,,2015-10-05,1,,,,,ミツオカジドウシャコウギョウ,0
784,3110002022945,登記記録の閉鎖等,0,2021-09-29,2021-09-22,有限会社寿司信,,有限会社,新潟県,上越市,大町４丁目４番１７号,,15,222,9430833,,,2021-09-22,清算の結了等,,,2015-10-05,1,,,,,スシシン,0
794,3120005010137,登記記録の閉鎖等,0,2021-09-29,2021-09-10,特定非営利活動法人ふれあい広場コスモス,,その他の設立登記法人,大阪府,大阪市城東区,関目４丁目３番２３号,,27,118,5360008,,,2021-09-10,清算の結了等,,,2015-10-05,1,,,,,フレアイヒロバコスモス,0
806,3120902011328,登記記録の閉鎖等,0,2021-09-29,2021-09-28,有限会社マサキ建設,,有限会社,大阪府,高槻市,大冠町１丁目７番５号,,27,207,5690031,,,2021-09-28,清算の結了等,,,2015-10-05,1,,,,,マサキケンセツ,0
813,3130001034989,登記記録の閉鎖等,0,2021-09-29,2021-09-24,樹山建設株式会社,,株式会社,京都府,船井郡京丹波町,上野慶庵３１番地,,26,407,6220211,,,2021-09-24,清算の結了等,,,2015-10-05,1,,,,,キヤマケンセツ,0
828,3180001087025,登記記録の閉鎖等,0,2021-09-29,2021-09-17,株式会社プラックス,,株式会社,愛知県,稲沢市,祖父江町祖父江中屋敷１７９番地２,,23,220,4950001,,,2021-09-17,清算の結了等,,,2015-10-05,1,,,,,プラックス,0
835,3180302004612,登記記録の閉鎖等,0,2021-09-29,2021-09-27,有限会社小芝工業,,有限会社,愛知県,岡崎市,筒針町字池田１番地３,,23,202,4440932,,,2021-09-27,清算の結了等,,,2015-10-05,1,,,,,コシバコウギョウ,0
842,3200002004785,登記記録の閉鎖等,0,2021-09-29,2021-09-27,有限会社名和セット工業所,,有限会社,岐阜県,岐阜市,水海道５丁目１１番７号,,21,201,5008223,,,2021-09-27,清算の結了等,,,2015-10-05,1,,,,,ナワセットコウギョウショ,0
845,3210001000660,登記記録の閉鎖等,0,2021-09-29,2021-09-27,大森建設株式会社,,株式会社,福井県,福井市,大森町第１９号１６番地,,18,201,9103634,,,2021-09-27,清算の結了等,,,2015-10-05,1,,,,,オオモリケンセツ,0
859,3270002002188,登記記録の閉鎖等,0,2021-09-29,2021-09-28,有限会社丸豊食堂,,有限会社,鳥取県,鳥取市,本町２丁目２１２番地,,31,201,6800031,,,2021-09-28,清算の結了等,,,2015-10-05,1,,,,,マルトヨショクドウ,0
895,3420005003366,登記記録の閉鎖等,0,2021-09-29,2021-09-16,税理士法人北星会計事務所,,その他の設立登記法人,青森県,八戸市,大字新荒町４１番地,,02,203,0310056,,,2021-09-16,清算の結了等,,,2015-10-05,1,,,,,ホクセイカイケイジムショ,0
908,3460102007811,登記記録の閉鎖等,0,2021-09-29,2021-09-27,有限会社澤田共研重機センター,,有限会社,北海道,河西郡芽室町,西八条５丁目１番地１０,,01,637,0820038,,,2021-09-27,清算の結了等,,,2021-05-26,1,,,,,サワダキョウケンジュウキセンター,0
920,4010001165300,登記記録の閉鎖等,0,2021-09-29,2021-09-24,株式会社Ｔ．Ｎ．Ｇ,,株式会社,東京都,千代田区,神田松永町１７番地３秋葉原妙見屋ビル７Ｆ,,13,101,1010023,,,2021-09-24,清算の結了等,,,2015-10-05,1,,,,,ティエヌジー,0
921,4010001196155,登記記録の閉鎖等,0,2021-09-29,2021-09-21,有明施設開発株式会社,,株式会社,東京都,千代田区,永田町２丁目１１番１号,,13,101,1000014,,,2021-09-21,清算の結了等,,,2018-11-06,1,,,,,アリアケシセツカイハツ,0
937,4010401149605,登記記録の閉鎖等,0,2021-09-29,2021-09-15,株式会社ドンファイ１号,,株式会社,東京都,港区,元赤坂１丁目１番８号株式会社赤坂国際会計内,,13,103,1070051,,,2021-09-15,清算の結了等,,,2019-12-03,1,,,,,ドンファイイチゴウ,0
960,4010901009878,登記記録の閉鎖等,0,2021-09-29,2021-09-24,株式会社バリエント商事,,株式会社,東京都,世田谷区,羽根木２丁目６番５号,,13,112,1560042,,,2021-09-24,清算の結了等,,,2015-10-05,1,,,,,バリエントショウジ,0
969,4011101045978,登記記録の閉鎖等,0,2021-09-29,2021-09-08,株式会社ソフトビジョン,,株式会社,東京都,新宿区,内藤町８７番地,,13,104,1600014,,,2021-09-08,合併による解散等,2010401122225,令和３年９月１日東京都新宿区内藤町８７番地株式会社カイテクノロジー（2010401122225）に合併し解散,2015-10-05,1,,,,,ソフトビジョン,0
973,4011202003703,登記記録の閉鎖等,0,2021-09-29,2021-09-24,有限会社高橋損害保險代理店,,有限会社,東京都,中野区,南台４丁目２５番８号,,13,114,1640014,,,2021-09-24,清算の結了等,,,2015-10-05,1,,,,,,0
1018,4020001046532,登記記録の閉鎖等,0,2021-09-29,2021-09-24,ランコントル株式会社,,株式会社,神奈川県,横浜市神奈川区,栄町６番地１－１－７０１,,14,102,2210052,,,2021-09-24,清算の結了等,,,2015-10-05,1,,,,,ランコントル,0
1026,4020005001046,登記記録の閉鎖等,0,2021-09-29,2021-08-10,天理教本説分教会,,その他の設立登記法人,神奈川県,横浜市港南区,芹が谷１丁目２４番２７号,,14,111,2330006,,,2021-08-10,合併による解散等,5020005001045,令和３年８月１０日横浜市港南区芹が谷五丁目５０番２６号宗教法人天理教本神分教会（5020005001045）に合併し解散,2015-10-05,1,,,,,,0
1028,4021001051027,登記記録の閉鎖等,0,2021-09-29,2021-09-24,日本高齢者保証協会株式会社,,株式会社,神奈川県,横須賀市,久里浜１丁目５番１６号第１０臼井ビル２階,,14,201,2390831,,,2021-09-24,清算の結了等,,,2015-10-05,1,,,,,ニホンコウレイシャホショウキョウカイ,0
1038,4040001090396,登記記録の閉鎖等,0,2021-09-29,2021-09-16,株式会社プレジャーアドバンス,,株式会社,千葉県,松戸市,上本郷４２２２番地の２,,12,207,2710064,,,2021-09-16,清算の結了等,,,2015-10-05,1,,,,,プレジャーアドバンス,0
1053,4060001012084,登記記録の閉鎖等,0,2021-09-29,2021-09-21,株式会社フォースウェイブ,,株式会社,栃木県,那須塩原市,東三島５丁目９３番地１７,,09,213,3292751,,,2021-09-21,清算の結了等,,,2015-10-05,1,,,,,フォースウェイブ,0
1058,4070001007876,登記記録の閉鎖等,0,2021-09-29,2021-09-27,株式会社ナース・カンパニー,,株式会社,群馬県,高崎市,八幡町４２１番地,,10,202,3700884,,,2021-09-27,清算の結了等,,,2015-10-05,1,,,,,ナースカンパニー,0
1070,4080105005651,登記記録の閉鎖等,0,2021-09-29,2021-09-17,一般社団法人ナカムラ,,その他の設立登記法人,静岡県,伊東市,川奈１１８２番地の８１,,22,208,4140044,,,2021-09-17,清算の結了等,,,2016-06-08,1,,,,,ナカムラ,0
1076,4090002006644,登記記録の閉鎖等,0,2021-09-29,2021-09-21,有限会社グリーンライフ中島,,有限会社,山梨県,甲斐市,志田５９６番地１,,19,210,4000107,,,2021-09-21,清算の結了等,,,2015-10-05,1,,,,,グリーンライフナカジマ,0
1084,4110001022144,登記記録の閉鎖等,0,2021-09-29,2021-09-22,株式会社ウエスト・ウッズ,,株式会社,新潟県,長岡市,福戸町２５７７番地１,,15,202,9402052,,,2021-09-22,清算の結了等,,,2015-10-05,1,,,,,ウエストウッズ,0
1090,4120001013217,登記記録の閉鎖等,0,2021-09-29,2021-09-21,株式会社中西隆三商店,,株式会社,大阪府,大阪市東成区,大今里西２丁目１番１４号,,27,115,5370014,,,2021-09-21,清算の結了等,,,2015-10-05,1,,,,,ナカニシリュウゾウショウテン,0
1101,4120001221050,登記記録の閉鎖等,0,2021-09-29,2021-09-16,ＴＴ　ＳＴＵＤＩＯ株式会社,,株式会社,大阪府,大阪市東淀川区,東中島４丁目５番１０号セントレジス新大阪１０１号室,,27,114,5330033,,,2021-09-16,清算の結了等,,,2019-05-16,1,,,,,ティーティースタジオ,0
1110,4120102002647,登記記録の閉鎖等,0,2021-09-29,2021-09-24,有限会社泉北じゅらく,,有限会社,大阪府,堺市南区,茶山台１丁２番３号,,27,145,5900115,,,2021-09-24,清算の結了等,,,2015-10-05,1,,,,,センボクジュラク,0
1119,4140001065495,登記記録の閉鎖等,0,2021-09-29,2021-09-22,株式会社サマッシュ,,株式会社,愛知県,名古屋市千種区,東山元町３丁目７０番地,,23,101,4640804,,,2021-09-22,清算の結了等,,,2015-10-05,1,,,,,サマッシュ,0
1126,4140005011215,登記記録の閉鎖等,0,2021-09-29,2021-09-24,大島事業協同組合,,その他の設立登記法人,兵庫県,尼崎市,大庄北５丁目２１番１５号,,28,202,6600063,,,2021-09-24,清算の結了等,,,2015-10-05,1,,,,,オオシマ,0
1140,4180001109579,登記記録の閉鎖等,0,2021-09-29,2021-09-24,株式会社東海ルーセント,,株式会社,愛知県,名古屋市守山区,野萩町３番１８号,,23,113,4630042,,,2021-09-24,清算の結了等,,,2015-10-05,1,,,,,トウカイルーセント,0
1148,4180002035485,登記記録の閉鎖等,0,2021-09-29,2021-09-27,有限会社アルカサール,,有限会社,愛知県,名古屋市中村区,名駅３丁目１３番２８号,,23,105,4500002,,,2021-09-27,清算の結了等,,,2015-10-05,1,,,,,アルカサール,0
1168,4210002000130,登記記録の閉鎖等,0,2021-09-29,2021-09-24,明里機材運輸有限会社,,有限会社,福井県,福井市,高木中央２丁目３４０２番地,,18,201,9100804,,,2021-09-24,清算の結了等,,,2015-10-05,1,,,,,アカリキザイウンユ,0
1175,4260005010394,登記記録の閉鎖等,0,2021-09-29,2021-09-24,特定非営利活動法人ひよこ子ども食堂,,その他の設立登記法人,岡山県,岡山市北区,川入１６番地１,,33,101,7010161,,,2021-09-24,清算の結了等,,,2018-01-26,1,,,,,ヒヨココドモショクドウ,0
1179,4290001084423,登記記録の閉鎖等,0,2021-09-29,2021-09-09,株式会社ディーノ,,株式会社,福岡県,柳川市,田脇２９４番地１,,40,207,8320089,,,2021-09-09,清算の結了等,,,2019-03-06,1,,,,,ディーノ,0
1187,4290801005685,登記記録の閉鎖等,0,2021-09-29,2021-09-27,株式会社福永鉄工所,,株式会社,福岡県,北九州市門司区,下二十町５番１９号,,40,101,8000028,,,2021-09-27,清算の結了等,,,2015-10-05,1,,,,,,0
1202,4370102000064,登記記録の閉鎖等,0,2021-09-29,2021-09-17,有限会社エコー商事,,有限会社,宮城県,柴田郡村田町,大字村田字針生前１９番地,,04,322,9891305,,,2021-09-17,清算の結了等,,,2015-10-05,1,,,,,,0
1204,4390001010435,登記記録の閉鎖等,0,2021-09-29,2021-09-24,株式会社ホクト,,株式会社,東京都,足立区,関原３丁目８番１１号,,13,121,1230852,,,2021-09-24,清算の結了等,,,2015-10-05,1,,,,,ホクト,0
1221,4490002001076,登記記録の閉鎖等,0,2021-09-29,2021-09-27,有限会社川北運輸,,有限会社,高知県,高知市,中万々２９２番地２０,,39,201,7800972,,,2021-09-27,清算の結了等,,,2015-10-05,1,,,,,カワキタウンユ,0
1236,5010401057947,登記記録の閉鎖等,0,2021-09-29,2021-09-15,酔心興業株式会社,,株式会社,東京都,港区,東新橋２丁目５番１４号,,13,103,1050021,,,2021-09-15,合併による解散等,7010401014731,令和３年８月３１日東京都港区東新橋二丁目５番１４号株式会社酔心（7010401014731）に合併し解散,2015-10-05,1,,,,,スイシンコウギョウ,0
1246,5010801011264,登記記録の閉鎖等,0,2021-09-29,2021-09-17,株式会社大田商事,,株式会社,東京都,大田区,千鳥１丁目９番１２号,,13,111,1460083,,,2021-09-17,清算の結了等,,,2015-10-05,1,,,,,オオタショウジ,0
1267,5011102006755,登記記録の閉鎖等,0,2021-09-29,2021-09-17,有限会社杉原商店,,有限会社,東京都,新宿区,北新宿１丁目１番１号,,13,104,1690074,,,2021-09-17,清算の結了等,,,2015-10-05,1,,,,,スギハラショウテン,0
1269,5011202007546,登記記録の閉鎖等,0,2021-09-29,2021-09-24,有限会社棟設計工房,,有限会社,東京都,中野区,東中野４丁目５番１４号,,13,114,1640003,,,2021-09-24,清算の結了等,,,2015-10-05,1,,,,,,0
1271,5011302008163,登記記録の閉鎖等,0,2021-09-29,2021-09-24,有限会社フジエンタープライズ,,有限会社,東京都,杉並区,桃井２丁目２３番１４号,,13,115,1670034,,,2021-09-24,清算の結了等,,,2015-10-05,1,,,,,フジエンタープライズ,0
1281,5011602011049,登記記録の閉鎖等,0,2021-09-29,2021-09-28,有限会社ロニオン,,有限会社,東京都,練馬区,石神井町３丁目１０番２０号,,13,120,1770041,,,2021-09-28,清算の結了等,,,2015-10-05,1,,,,,ロニオン,0
1296,5020001126424,登記記録の閉鎖等,0,2021-09-29,2021-09-22,株式会社ＩＤＣＭ　ＪＡＰＡＮ,,株式会社,東京都,千代田区,一番町３番３号ラシーヌ一番町８階,,13,101,1020082,,,2021-09-22,清算の結了等,,,2018-05-23,1,,,,,アイディーシーエムジャパン,0
1299,5020003019601,登記記録の閉鎖等,0,2021-09-29,2021-09-27,合同会社サイトウ,,合同会社,神奈川県,横浜市都筑区,南山田３丁目３０－２８,,14,118,2240029,,,2021-09-27,清算の結了等,,,2021-04-13,1,,,,,サイトウ,0
1304,5021001029749,登記記録の閉鎖等,0,2021-09-29,2021-09-24,株式会社アールエスリンク,,株式会社,神奈川県,大和市,柳橋１丁目３９０６番地３９,,14,213,2420022,,,2021-09-24,清算の結了等,,,2015-10-05,1,,,,,アールエスリンク,0
1319,5030002090214,登記記録の閉鎖等,0,2021-09-29,2021-09-15,有限会社シミズ,,有限会社,埼玉県,吉川市,高久１丁目３０番地１５,,11,243,3420035,,,2021-09-15,清算の結了等,,,2015-10-05,1,,,,,シミズ,0
1341,5060002019680,登記記録の閉鎖等,0,2021-09-29,2021-09-21,有限会社エスリードシステム,,有限会社,栃木県,鹿沼市,南上野町２６６番地１,,09,205,3220531,,,2021-09-21,清算の結了等,,,2015-10-05,1,,,,,エスリードシステム,0
1347,5080102001330,登記記録の閉鎖等,0,2021-09-29,2021-09-22,有限会社コマツフード,,有限会社,静岡県,沼津市,山王台９番１６号,,22,203,4100035,,,2021-09-22,清算の結了等,,,2015-10-05,1,,,,,コマツフード,0
1353,5100002016483,登記記録の閉鎖等,0,2021-09-29,2021-09-27,有限会社丸子観光バス,,有限会社,長野県,上田市,下武石６３番地１１,,20,203,3860503,,,2021-09-27,清算の結了等,,,2015-10-05,1,,,,,マルコカンコウバス,0
1421,5180002076529,登記記録の閉鎖等,0,2021-09-29,2021-09-24,有限会社新興印刷,,有限会社,愛知県,一宮市,神山１丁目１１番２号,,23,203,4910904,,,2021-09-24,清算の結了等,,,2015-10-05,1,,,,,シンコウインサツ,0
1423,5180002089745,登記記録の閉鎖等,0,2021-09-29,2021-09-21,有限会社さくら電話サービス,,有限会社,愛知県,海部郡蟹江町,大字今字五之坪５番地,,23,425,4970032,,,2021-09-21,清算の結了等,,,2015-10-05,1,,,,,サクラデンワサービス,0
1426,5180301023553,登記記録の閉鎖等,0,2021-09-29,2021-09-27,株式会社きららネットワーク,,株式会社,愛知県,西尾市,桜町５丁目３１番地,,23,213,4450803,,,2021-09-27,清算の結了等,,,2015-10-05,1,,,,,キララネットワーク,0
1436,5220002015639,登記記録の閉鎖等,0,2021-09-29,2021-09-24,有限会社かずよし,,有限会社,石川県,鳳珠郡穴水町,字大町い７７番地３,,17,461,9270026,,,2021-09-24,清算の結了等,,,2015-10-05,1,,,,,カズヨシ,0
1454,5270002000181,登記記録の閉鎖等,0,2021-09-29,2021-09-28,岩田商事有限会社,,有限会社,鳥取県,鳥取市,上町６５番地２,,31,201,6800015,,,2021-09-28,清算の結了等,,,2015-10-05,1,,,,,イワタショウジ,0
1478,5350005000798,登記記録の閉鎖等,0,2021-09-29,2021-08-10,天理教紫波洲分教会,,その他の設立登記法人,宮崎県,宮崎市,青島３丁目３番２３号,,45,201,8892162,,,2021-08-10,合併による解散等,6350005002240,令和３年８月１０日宮崎県児湯郡新富町大字下富田３８１２番地天理教日宮分教会（6350005002240）に合併し解散,2015-10-05,1,,,,,テンリキョウシワスブンキョウカイ,0
1490,5402705000361,登記記録の閉鎖等,0,2021-09-29,2021-09-24,特定非営利活動法人パクト,,その他の設立登記法人,岩手県,陸前高田市,米崎町字中島１０８番２,,03,210,0292206,,,2021-09-24,清算の結了等,,,2015-10-05,1,,,,,パクト,0
1494,5420002006188,登記記録の閉鎖等,0,2021-09-29,2021-09-22,有限会社飯田理容室,,有限会社,青森県,八戸市,柏崎４丁目１５番３０号,,02,203,0310081,,,2021-09-22,清算の結了等,,,2015-10-05,1,,,,,イイダリヨウシツ,0
1497,5430005006317,登記記録の閉鎖等,0,2021-09-29,2021-09-16,特定非営利活動法人ライフ・プロデュース,,その他の設立登記法人,北海道,札幌市豊平区,豊平一条３丁目１番３３－１１０号,,01,105,0620901,,,2021-09-16,清算の結了等,,,2015-10-05,1,,,,,ライフプロデュース,0
1499,5450002011565,登記記録の閉鎖等,0,2021-09-29,2021-09-27,有限会社ジャスティス,,有限会社,北海道,稚内市,緑５丁目３４番９号,,01,214,0970004,,,2021-09-27,清算の結了等,,,2015-10-05,1,,,,,ジャスティス,0
1511,6010001104990,登記記録の閉鎖等,0,2021-09-29,2021-09-24,株式会社ハッピー・パスポート,,株式会社,東京都,中央区,銀座６丁目１６番１２号丸高ビル３階,,13,102,1040061,,,2021-09-24,清算の結了等,,,2015-10-05,1,,,,,ハッピーパスポート,0
1549,6010802013754,登記記録の閉鎖等,0,2021-09-29,2021-09-17,有限会社三吉商事,,有限会社,東京都,大田区,西蒲田７丁目２番６号,,13,111,1440051,,,2021-09-17,清算の結了等,,,2015-10-05,1,,,,,ミヨシショゥジ,0
1566,6011101048483,登記記録の閉鎖等,0,2021-09-29,2021-09-22,株式会社清洲,,株式会社,栃木県,鹿沼市,深程１１９６番地２,,09,205,3220302,,,2021-09-22,清算の結了等,,,2015-10-05,1,,,,,キヨス,0
1583,6011601005645,登記記録の閉鎖等,0,2021-09-29,2021-09-24,浜中建設株式会社,,株式会社,東京都,練馬区,関町北２丁目２７番１０号,,13,120,1770051,,,2021-09-24,清算の結了等,,,2015-10-05,1,,,,,ハマナカケンセツ,0
1586,6011701012806,登記記録の閉鎖等,0,2021-09-29,2021-09-21,株式会社エリス,,株式会社,東京都,江戸川区,松江４丁目１８番１４号,,13,123,1320025,,,2021-09-21,清算の結了等,,,2015-10-05,1,,,,,,0
1590,6011801011617,登記記録の閉鎖等,0,2021-09-29,2021-09-24,福永鋼業株式会社,,株式会社,東京都,足立区,扇２丁目３３番５号,,13,121,1230873,,,2021-09-24,清算の結了等,,,2015-10-05,1,,,,,フクナガコウギョウ,0
1595,6012401022153,登記記録の閉鎖等,0,2021-09-29,2021-09-24,株式会社ペンギン企画室,,株式会社,神奈川県,川崎市川崎区,大島４丁目２０番４号,,14,131,2100834,,,2021-09-24,清算の結了等,,,2015-10-05,1,,,,,ペンギンキカクシツ,0
1598,6012701012696,登記記録の閉鎖等,0,2021-09-29,2021-09-24,株式会社ココバル,,株式会社,東京都,小平市,小川町２丁目１９５９番地の１ダルエルベイダ６０２号,,13,211,1870032,,,2021-09-24,清算の結了等,,,2015-10-05,1,,,,,ココバル,0
1615,6020001068789,登記記録の閉鎖等,0,2021-09-29,2021-09-27,株式会社青山環境研究所,,株式会社,神奈川県,川崎市中原区,井田三舞町１７番８号,,14,133,2110037,,,2021-09-27,清算の結了等,,,2015-10-05,1,,,,,アオヤマカンキョウケンキュウショ,0
1625,6021001019749,登記記録の閉鎖等,0,2021-09-29,2021-09-24,コスモスの会株式会社,,株式会社,神奈川県,厚木市,船子１０６０番地１,,14,212,2430034,,,2021-09-24,清算の結了等,,,2015-10-05,1,,,,,コスモスノカイ,0
1628,6021001041835,登記記録の閉鎖等,0,2021-09-29,2021-09-17,株式会社ブランドッグ,,株式会社,神奈川県,逗子市,桜山１丁目６番１６号,,14,208,2490005,,,2021-09-17,清算の結了等,,,2015-10-05,1,,,,,ブランドッグ,0
1629,6021001048260,登記記録の閉鎖等,0,2021-09-29,2021-09-24,株式会社Ｗｏｒｄｓ　ｆｏｒ　Ｗｏｒｄｓ,,株式会社,神奈川県,中郡大磯町,東小磯６２番地４,,14,341,2550004,,,2021-09-24,清算の結了等,,,2015-10-05,1,,,,,ワーズフォーワーズ,0
1646,6030003009526,登記記録の閉鎖等,0,2021-09-29,2021-09-17,合同会社イワホリ,,合同会社,埼玉県,ふじみ野市,大井１丁目９番１号,,11,245,3560053,,,2021-09-17,清算の結了等,,,2016-11-11,1,,,,,イワホリ,0
1653,6040002015053,登記記録の閉鎖等,0,2021-09-29,2021-09-16,有限会社アイエー・コンセプト,,有限会社,千葉県,成田市,伊能１９３番地１４,,12,211,2870204,,,2021-09-16,清算の結了等,,,2015-10-05,1,,,,,アイエーコンセプト,0
1656,6040005004020,登記記録の閉鎖等,0,2021-09-29,2021-09-15,医療法人社団さわやか会,,その他の設立登記法人,千葉県,市川市,真間２丁目１番２号,,12,203,2720826,,,2021-09-15,清算の結了等,,,2015-10-05,1,,,,,サワヤカカイ,0
1667,6070001022717,登記記録の閉鎖等,0,2021-09-29,2021-09-27,株式会社ワクテック,,株式会社,群馬県,邑楽郡板倉町,大字板倉３４１８番地の８,,10,521,3740132,,,2021-09-27,清算の結了等,,,2015-10-05,1,,,,,ワクテック,0
1675,6100002027315,登記記録の閉鎖等,0,2021-09-29,2021-09-24,有限会社川崎屋カメラ,,有限会社,長野県,木曽郡木曽町,福島５３９８番地,,20,432,3970001,,,2021-09-24,清算の結了等,,,2015-10-05,1,,,,,カワサキヤカメラ,0
1690,6120101002068,登記記録の閉鎖等,0,2021-09-29,2021-09-28,株式会社ケーディーケー,,株式会社,大阪府,堺市西区,浜寺船尾町東２丁１２２番地,,27,144,5928341,,,2021-09-28,清算の結了等,,,2015-10-05,1,,,,,ケーディーケー,0
1695,6120905005019,登記記録の閉鎖等,0,2021-09-29,2021-09-28,一般社団法人大阪自由大学,,その他の設立登記法人,大阪府,大阪市中央区,平野町２丁目２－９ビルサライ７０１号,,27,128,5410046,,,2021-09-28,清算の結了等,,,2015-10-05,1,,,,,オオサカジユウダイガク,0
1701,6140001013931,登記記録の閉鎖等,0,2021-09-29,2021-09-15,浜口水産株式会社,,株式会社,兵庫県,神戸市兵庫区,中之島１丁目１番５号,,28,105,6520844,,,2021-09-15,清算の結了等,,,2015-10-05,1,,,,,ハマグチスイサン,0
1710,6140002043218,登記記録の閉鎖等,0,2021-09-29,2021-09-22,有限会社ビジネスクリエイト,,有限会社,兵庫県,尼崎市,食満５丁目９番１２号,,28,202,6610982,,,2021-09-22,清算の結了等,,,2015-10-05,1,,,,,ビジネスクリエイト,0
1742,6220002001324,登記記録の閉鎖等,0,2021-09-29,2021-09-27,有限会社浦山サッシ,,有限会社,石川県,金沢市,疋田２丁目１５５番地,,17,201,9200003,,,2021-09-27,清算の結了等,,,2015-10-05,1,,,,,ウラヤマサッシ,0
1755,6290001062988,登記記録の閉鎖等,0,2021-09-29,2021-09-07,株式会社九州イノアックプロダクツ,,株式会社,福岡県,福岡市博多区,博多駅東３丁目１２番２４号,,40,132,8120013,,,2021-09-07,合併による解散等,4290001012350,令和３年９月１日福岡市博多区博多駅東三丁目１２番２４号株式会社九州イノアック（4290001012350）に合併し解散,2015-10-05,1,,,,,キュウシュウイノアックプロダクツ,0
1760,6290005004367,登記記録の閉鎖等,0,2021-09-29,2021-09-27,特定非営利活動法人世界環境協会,,その他の設立登記法人,福岡県,福岡市博多区,月隈２丁目１７番１６号,,40,132,8120858,,,2021-09-27,清算の結了等,,,2015-10-05,1,,,,,セカイカンキョウキョウカイ,0
1781,6420001015809,登記記録の閉鎖等,0,2021-09-29,2021-09-22,株式会社金生会,,株式会社,青森県,八戸市,大字金浜字一ノ久保１８番地,,02,203,0310843,,,2021-09-22,清算の結了等,,,2017-07-20,1,,,,,キンセイカイ,0
1782,6430001000280,登記記録の閉鎖等,0,2021-09-29,2021-09-27,株式会社アームズ,,株式会社,北海道,札幌市東区,北十四条東１６丁目２番２０号,,01,103,0650014,,,2021-09-27,清算の結了等,,,2015-10-05,1,,,,,アームズ,0
1786,6430005008667,登記記録の閉鎖等,0,2021-09-29,2021-09-17,一般社団法人しりべしツーリズムサポート,,その他の設立登記法人,北海道,小樽市,稲穂２丁目１９番地１４,,01,203,0470032,,,2021-09-17,清算の結了等,,,2015-10-05,1,,,,,シリベシツーリズムサポート,0
1806,7010001208799,登記記録の閉鎖等,0,2021-09-29,2021-09-24,株式会社アンドロソフィー,,株式会社,東京都,千代田区,外神田６丁目８番３号,,13,101,1010021,,,2021-09-24,合併による解散等,4011801025957,令和３年９月１日東京都台東区上野六丁目１番６号株式会社一創（4011801025957）に合併し解散,2020-04-03,1,,,,,アンドロソフィー,0
1814,7010005016356,登記記録の閉鎖等,0,2021-09-29,2021-09-17,特定非営利活動法人エコスクール推進協議会,,その他の設立登記法人,東京都,千代田区,神田佐久間河岸７１番地３柴田ビル５階,,13,101,1010026,,,2021-09-17,清算の結了等,,,2015-10-05,1,,,,,エコスクールスイシンキョウギカイ,0
1825,7010605003729,登記記録の閉鎖等,0,2021-09-29,2021-09-14,一般社団法人ＳＰＲＫ,,その他の設立登記法人,東京都,江東区,有明１丁目４番２０－７０２号,,13,108,1350063,,,2021-09-14,清算の結了等,,,2019-08-16,1,,,,,スパーク,0
1843,7011101032841,登記記録の閉鎖等,0,2021-09-29,2021-09-24,株式会社東京商事,,株式会社,東京都,中央区,日本橋堀留町１丁目８番１２号,,13,102,1030012,,,2021-09-24,清算の結了等,,,2015-10-05,1,,,,,トウキョウショウジ,0
1882,7021001041322,登記記録の閉鎖等,0,2021-09-29,2021-09-15,横須賀住建株式会社,,株式会社,神奈川県,横須賀市,森崎１丁目２番１７号,,14,201,2380023,,,2021-09-15,清算の結了等,,,2015-10-05,1,,,,,ヨコスカジュウケン,0
1916,7060002013905,登記記録の閉鎖等,0,2021-09-29,2021-09-22,有限会社小室製作所,,有限会社,栃木県,那須烏山市,谷浅見１２１６番地,,09,215,3210603,,,2021-09-22,清算の結了等,,,2015-10-05,1,,,,,コムロセイサクショ,0
1930,7100001026655,登記記録の閉鎖等,0,2021-09-29,2021-09-24,株式会社幸成,,株式会社,長野県,長野市,西和田１丁目３２番３号,,20,201,3810037,,,2021-09-24,清算の結了等,,,2015-10-05,1,,,,,,0
1976,7150001011751,登記記録の閉鎖等,0,2021-09-29,2021-09-27,株式会社山下組,,株式会社,奈良県,橿原市,石原田町２９７番地の１８,,29,205,6340014,,,2021-09-27,清算の結了等,,,2015-10-05,1,,,,,ヤマシタグミ,0
1977,7160001001990,登記記録の閉鎖等,0,2021-09-29,2021-09-28,株式会社ヤマギワ事務所,,株式会社,滋賀県,大津市,南志賀１丁目７番３号,,25,201,5200011,,,2021-09-28,清算の結了等,,,2015-10-05,1,,,,,ヤマギワジムショ,0
1991,7180002018487,登記記録の閉鎖等,0,2021-09-29,2021-09-22,有限会社太陽メンテナンス商会,,有限会社,愛知県,名古屋市東区,砂田橋３丁目２番１０５－８０２号,,23,102,4610045,,,2021-09-22,清算の結了等,,,2015-10-05,1,,,,,タイヨウメンテナンスショウカイ,0
1995,7190002005328,登記記録の閉鎖等,0,2021-09-29,2021-09-27,有限会社紀州百貨店,,有限会社,三重県,熊野市,紀和町板屋７９番地,,24,212,5195413,,,2021-09-27,清算の結了等,,,2015-10-05,1,,,,,キシュウヒャッカテン,0
2007,7240002037258,登記記録の閉鎖等,0,2021-09-29,2021-09-27,有限会社サミュゼ,,有限会社,広島県,廿日市市,桜尾１丁目１２番１号,,34,213,7380004,,,2021-09-27,清算の結了等,,,2015-10-05,1,,,,,サミュゼ,0
2022,7300002010794,登記記録の閉鎖等,0,2021-09-29,2021-09-21,有限会社好海,,有限会社,佐賀県,唐津市,菜畑３５９４番地１,,41,202,8470844,,,2021-09-21,清算の結了等,,,2015-10-05,1,,,,,ヨシミ,0
2073,7500002021722,登記記録の閉鎖等,0,2021-09-29,2021-09-27,有限会社彩工堂,,有限会社,愛媛県,四国中央市,妻鳥町１０３３番地の２,,38,213,7990113,,,2021-09-27,清算の結了等,,,2015-10-05,1,,,,,サイコウドウ,0
2083,8010002048624,登記記録の閉鎖等,0,2021-09-29,2021-09-22,有限会社マークル,,有限会社,東京都,中央区,日本橋大伝馬町１３番１５号,,13,102,1030011,,,2021-09-22,清算の結了等,,,2015-10-05,1,,,,,,0
2088,8010401106486,登記記録の閉鎖等,0,2021-09-29,2021-09-22,クリニス株式会社,,株式会社,東京都,中央区,日本橋箱崎町１番５号ハニー箱崎ビル４階,,13,102,1030015,,,2021-09-22,清算の結了等,,,2015-10-05,1,,,,,クリニス,0
2115,8010802010717,登記記録の閉鎖等,0,2021-09-29,2021-09-17,有限会社永原製作所,,有限会社,東京都,大田区,大森西１丁目１９番１５号,,13,111,1430015,,,2021-09-17,清算の結了等,,,2015-10-05,1,,,,,ナガハラセイサクジョ,0
2130,8011202005472,登記記録の閉鎖等,0,2021-09-29,2021-09-22,有限会社北斗制御,,有限会社,東京都,中野区,若宮２丁目４１番３号,,13,114,1650033,,,2021-09-22,清算の結了等,,,2015-10-05,1,,,,,ホクトセイギョ,0
2131,8011301004953,登記記録の閉鎖等,0,2021-09-29,2021-09-22,東洋企画開発株式会社,,株式会社,東京都,杉並区,荻窪５丁目１６番１５号,,13,115,1670051,,,2021-09-22,清算の結了等,,,2015-10-05,1,,,,,トウヨウキカクカイハツ,0
2132,8011301023929,登記記録の閉鎖等,0,2021-09-29,2021-09-27,ライテックジャパン株式会社,,株式会社,東京都,練馬区,富士見台１丁目２３番２１号,,13,120,1770034,,,2021-09-27,清算の結了等,,,2018-02-27,1,,,,,ライテックジャパン,0
2159,8020001103899,登記記録の閉鎖等,0,2021-09-29,2021-09-27,Ｇｌｏｂａｌ　Ｐｒｏｊｅｃｔ　Ｓｅｒｖｉｃｅｓ株式会社,,株式会社,神奈川県,大和市,西鶴間７丁目１０番２３号,,14,213,2420005,,,2021-09-27,清算の結了等,,,2015-10-05,1,,,,,グローバルプロジェクトサービシス,0
2163,8020002061634,登記記録の閉鎖等,0,2021-09-29,2021-09-24,角谷メディカルシステム有限会社,,有限会社,神奈川県,横浜市磯子区,西町１１番８－５１２号根岸駅前ビル,,14,107,2350007,,,2021-09-24,清算の結了等,,,2015-10-05,1,,,,,カクヤメディカルシステム,0
2164,8020002094691,登記記録の閉鎖等,0,2021-09-29,2021-09-27,有限会社ディー・ツー・ファーム,,有限会社,神奈川県,川崎市麻生区,千代ケ丘１丁目５番地３１,,14,137,2150005,,,2021-09-27,清算の結了等,,,2015-10-05,1,,,,,ディーツーファーム,0
2165,8020003018666,登記記録の閉鎖等,0,2021-09-29,2021-09-14,合同会社Ｓｏｌｏｗｏｒｋｓ,,合同会社,神奈川県,川崎市中原区,小杉町２丁目２０７－３ＨＲ武蔵小杉フォレストスクエア２１９,,14,133,2110063,,,2021-09-14,清算の結了等,,,2020-10-16,1,,,,,ソロワークス,0
2175,8030001086185,登記記録の閉鎖等,0,2021-09-29,2021-09-15,ウエスタンホーム株式会社,,株式会社,埼玉県,深谷市,上柴町東４丁目１６番地１２,,11,218,3660051,,,2021-09-15,清算の結了等,,,2015-10-05,1,,,,,ウエスタンホーム,0
2190,8040002038812,登記記録の閉鎖等,0,2021-09-29,2021-09-16,有限会社計電サービス,,有限会社,千葉県,松戸市,中根長津町２４７番１号,,12,207,2710054,,,2021-09-16,清算の結了等,,,2015-10-05,1,,,,,ケイデンサービス,0
2197,8050001018137,登記記録の閉鎖等,0,2021-09-29,2021-09-22,株式会社ホークビジネス,,株式会社,茨城県,つくば市,二の宮１丁目２番地２酒井ビル２０８号,,08,220,3050051,,,2021-09-22,清算の結了等,,,2015-10-05,1,,,,,ホークビジネス,0
2221,8110005002650,登記記録の閉鎖等,0,2021-09-29,2021-08-10,宗像社,,その他の設立登記法人,新潟県,新潟市西蒲区,矢島１１５０番地,,15,108,9590426,,,2021-08-10,合併による解散等,5110005002546,令和３年８月１０日新潟市西蒲区遠藤２４７２番地神明社（5110005002546）に合併し解散,2015-10-05,1,,,,,ムナカタシャ,0
2222,8110005006841,登記記録の閉鎖等,0,2021-09-29,2021-08-10,大津神社,,その他の設立登記法人,新潟県,柏崎市,西山町大津１０３番地,,15,205,9494203,,,2021-08-10,合併による解散等,9110005007194,令和３年８月１０日新潟県柏崎市西山町大津字横道１４７９番地八幡神社（9110005007194）に合併し解散,2015-10-05,1,,,,,オオヅジンジャ,0
2224,8120001132707,登記記録の閉鎖等,0,2021-09-29,2021-09-21,株式会社ＰＡＲＫ　ＴＲＡＤＩＮＧ,,株式会社,大阪府,大阪市淀川区,東三国１丁目２６番８号,,27,123,5320002,,,2021-09-21,清算の結了等,,,2015-10-05,1,,,,,パークトレイディング,0
2230,8120001189103,登記記録の閉鎖等,0,2021-09-29,2021-09-21,株式会社岡本製作所,,株式会社,大阪府,大阪市平野区,長吉六反２丁目２番３８号,,27,126,5470012,,,2021-09-21,清算の結了等,,,2015-10-05,1,,,,,オカモトセイサクショ,0
2253,8130001043457,登記記録の閉鎖等,0,2021-09-29,2021-09-27,株式会社西加食品,,株式会社,京都府,舞鶴市,字万願寺１２３番地,,26,202,6240814,,,2021-09-27,清算の結了等,,,2015-10-05,1,,,,,セイカショクヒン,0
2254,8130003005546,登記記録の閉鎖等,0,2021-09-29,2021-09-24,合同会社アスカ,,合同会社,京都府,城陽市,寺田宮ノ平１７番地の６１,,26,207,6100121,,,2021-09-24,清算の結了等,,,2018-06-18,1,,,,,アスカ,0
2264,8170001006534,登記記録の閉鎖等,0,2021-09-29,2021-09-28,株式会社リープフラップ,,株式会社,和歌山県,和歌山市,中野３１番地の１,,30,201,6408433,,,2021-09-28,清算の結了等,,,2015-10-05,1,,,,,リープフラップ,0
2277,8180002031497,登記記録の閉鎖等,0,2021-09-29,2021-09-24,有限会社その,,有限会社,愛知県,名古屋市中区,錦３丁目１２番３０号,,23,106,4600003,,,2021-09-24,清算の結了等,,,2015-10-05,1,,,,,ソノ,0
2281,8180003018361,登記記録の閉鎖等,0,2021-09-29,2021-09-27,Ｍ＆Ａ名古屋パートナーズ合同会社,,合同会社,愛知県,名古屋市中区,丸の内３丁目７番２６号,,23,106,4600002,,,2021-09-27,清算の結了等,,,2017-10-17,1,,,,,エムアンドエイナゴヤパートナーズ,0
2289,8190002001854,登記記録の閉鎖等,0,2021-09-29,2021-09-27,有限会社国民宿舎紫峰閣,,有限会社,三重県,津市,榊原町浜田５０６６の３番地,,24,201,5141251,,,2021-09-27,清算の結了等,,,2015-10-05,1,,,,,コクミンシュクシャシホウカク,0
2294,8200002014788,登記記録の閉鎖等,0,2021-09-29,2021-09-27,イトウ工芸有限会社,,有限会社,岐阜県,海津市,平田町土倉１１８番地,,21,221,5030322,,,2021-09-27,清算の結了等,,,2015-10-05,1,,,,,イトウコウゲイ,0
2310,8280002000491,登記記録の閉鎖等,0,2021-09-29,2021-09-28,有限会社オフィスシバタ,,有限会社,島根県,松江市,学園南１丁目２２番地２号,,32,201,6900826,,,2021-09-28,清算の結了等,,,2015-10-05,1,,,,,オフィスシバタ,0
2332,8340005003527,登記記録の閉鎖等,0,2021-09-29,2021-07-15,鎮守神社,,その他の設立登記法人,鹿児島県,薩摩川内市,入来町浦之名５７００番地,,46,215,8951402,,,2021-07-15,合併による解散等,3340005003515,令和３年７月１５日鹿児島県薩摩川内市入来町浦之名７３０８番地大宮神社（3340005003515）に合併し解散,2015-10-05,1,,,,,,0
2351,8430005012857,登記記録の閉鎖等,0,2021-09-29,2021-09-16,一般社団法人日本共生振興機構,,その他の設立登記法人,北海道,恵庭市,恵み野西１丁目６番１号,,01,231,0611373,,,2021-09-16,清算の結了等,,,2016-07-26,1,,,,,ニホンキョウセイシンコウキコウ,0
2353,8480002014182,登記記録の閉鎖等,0,2021-09-29,2021-09-21,有限会社浜己水産,,有限会社,徳島県,海部郡牟岐町,大字牟岐浦字宮ノ本１５４番地,,36,383,7750012,,,2021-09-21,清算の結了等,,,2015-10-05,1,,,,,ハマミスイサン,0
2355,8490002012763,登記記録の閉鎖等,0,2021-09-29,2021-09-22,有限会社小谷電設,,有限会社,高知県,安芸市,赤野乙６９番地４,,39,203,7840034,,,2021-09-22,清算の結了等,,,2015-10-05,1,,,,,オダニデンセツ,0
2359,8500005000029,登記記録の閉鎖等,0,2021-09-29,2021-08-10,天理教愛乃泉分教会,,その他の設立登記法人,愛媛県,松山市,元怒和甲１１７８番地,,38,201,7914321,,,2021-08-10,合併による解散等,8500005000400,令和３年８月１０日愛媛県松山市平和通四丁目２番２号天理教松山市分教会（8500005000400）に合併し解散,2015-10-05,1,,,,,テンリキョウアイノイズミブンキョウカイ,0
2381,9010601020230,登記記録の閉鎖等,0,2021-09-29,2021-09-14,長栄堂商事株式会社,,株式会社,東京都,墨田区,石原３丁目１２番９号,,13,107,1300011,,,2021-09-14,清算の結了等,,,2015-10-05,1,,,,,チョウエイドウショウジ,0
2395,9011001057169,登記記録の閉鎖等,0,2021-09-29,2021-09-17,株式会社アジア・パシフィック・インベストメント,,株式会社,東京都,大田区,西蒲田１丁目２２番１７号,,13,111,1440051,,,2021-09-17,清算の結了等,,,2015-10-05,1,,,,,アジアパシフィックインベストメント,0
2405,9011101010408,登記記録の閉鎖等,0,2021-09-29,2021-09-08,株式会社スクエアシステムズ,,株式会社,東京都,新宿区,内藤町８７番地,,13,104,1600014,,,2021-09-08,合併による解散等,2010401122225,令和３年９月１日東京都新宿区内藤町８７番地株式会社カイテクノロジー（2010401122225）に合併し解散,2015-10-05,1,,,,,スクエアシステムズ,0
2425,9011701022083,登記記録の閉鎖等,0,2021-09-29,2021-09-24,株式会社オールジャパンシステムズ,,株式会社,神奈川県,横浜市神奈川区,西神奈川１丁目６番１５号,,14,102,2210822,,,2021-09-24,清算の結了等,,,2018-09-19,1,,,,,オールジャパンシステムズ,0
2428,9011802014129,登記記録の閉鎖等,0,2021-09-29,2021-09-27,有限会社昭美印刷,,有限会社,東京都,足立区,西新井５丁目２９番１号,,13,121,1230841,,,2021-09-27,清算の結了等,,,2015-10-05,1,,,,,ショウビインサツ,0
2436,9013301023593,登記記録の閉鎖等,0,2021-09-29,2021-09-27,株式会社さいでりあ,,株式会社,東京都,豊島区,北大塚１丁目１７番３号,,13,116,1700004,,,2021-09-27,清算の結了等,,,2015-10-05,1,,,,,サイデリア,0
2456,9020002076301,登記記録の閉鎖等,0,2021-09-29,2021-09-24,有限会社ゴルフアート,,有限会社,神奈川県,横浜市金沢区,西柴２丁目３番１４号,,14,108,2360017,,,2021-09-24,清算の結了等,,,2015-10-05,1,,,,,ゴルフアート,0
2462,9021001004401,登記記録の閉鎖等,0,2021-09-29,2021-09-27,株式会社松永技研,,株式会社,神奈川県,藤沢市,本町２丁目９番１２号,,14,205,2510053,,,2021-09-27,清算の結了等,,,2015-10-05,1,,,,,マツナガギケン,0
2467,9021002051962,登記記録の閉鎖等,0,2021-09-29,2021-09-24,有限会社椎野工務店,,有限会社,神奈川県,小田原市,成田６４番地の２,,14,206,2500862,,,2021-09-24,清算の結了等,,,2015-10-05,1,,,,,シイノコウムテン,0
2477,9040002054528,登記記録の閉鎖等,0,2021-09-29,2021-09-17,有限会社アピオス,,有限会社,千葉県,松戸市,小金１番地,,12,207,2700014,,,2021-09-17,清算の結了等,,,2015-10-05,1,,,,,アピオス,0
2485,9050002016774,登記記録の閉鎖等,0,2021-09-29,2021-09-22,エンタープライズトレーニンググループ有限会社,,有限会社,茨城県,かすみがうら市,戸崎７９４番地１,,08,230,3000136,,,2021-09-22,清算の結了等,,,2015-10-05,1,,,,,エンタープライズトレーニンググループ,0
2487,9060001010620,登記記録の閉鎖等,0,2021-09-29,2021-09-21,株式会社堀金,,株式会社,栃木県,鹿沼市,東町３丁目４番３６号,,09,205,3220022,,,2021-09-21,清算の結了等,,,2015-10-05,1,,,,,ホリガネ,0
2490,9060001030668,登記記録の閉鎖等,0,2021-09-29,2021-09-21,株式会社ワイズプランニング,,株式会社,栃木県,佐野市,鐙塚町３０７番地５,,09,204,3270815,,,2021-09-21,清算の結了等,,,2018-06-27,1,,,,,ワイズプランニング,0
2492,9060002020255,登記記録の閉鎖等,0,2021-09-29,2021-09-21,下沢加藤木工有限会社,,有限会社,栃木県,鹿沼市,下沢４２０番地２,,09,205,3220256,,,2021-09-21,清算の結了等,,,2015-10-05,1,,,,,シモザワカトウモッコウ,0
2497,9080002006112,登記記録の閉鎖等,0,2021-09-29,2021-09-27,有限会社山長,,有限会社,静岡県,静岡市葵区,羽鳥２丁目１２番３号,,22,101,4211215,,,2021-09-27,清算の結了等,,,2015-10-05,1,,,,,ヤマチョウ,0
2501,9080402009061,登記記録の閉鎖等,0,2021-09-29,2021-09-24,有限会社レカン,,有限会社,静岡県,浜松市東区,半田山３丁目３３番１２号,,22,132,4313125,,,2021-09-24,清算の結了等,,,2015-10-05,1,,,,,レカン,0
2502,9090001011789,登記記録の閉鎖等,0,2021-09-29,2021-09-17,株式会社ニッセイバイオ,,株式会社,山梨県,北杜市,小淵沢町上笹尾３３３１番地１１４,,19,209,4080041,,,2021-09-17,清算の結了等,,,2015-10-05,1,,,,,,0
2515,9120001135386,登記記録の閉鎖等,0,2021-09-29,2021-09-08,株式会社タス,,株式会社,東京都,新宿区,内藤町８７番地,,13,104,1600014,,,2021-09-08,合併による解散等,2010401122225,令和３年９月１日東京都新宿区内藤町８７番地株式会社カイテクノロジー（2010401122225）に合併し解散,2015-10-05,1,,,,,タス,0
2523,9120002038175,登記記録の閉鎖等,0,2021-09-29,2021-09-21,有限会社ファースト・エム,,有限会社,大阪府,大阪市中央区,東心斎橋１丁目６番２７号,,27,128,5420083,,,2021-09-21,清算の結了等,,,2015-10-05,1,,,,,ファーストエム,0
2556,9160001001824,登記記録の閉鎖等,0,2021-09-29,2021-09-28,株式会社松山商店,,株式会社,滋賀県,大津市,中央３丁目３番１３号,,25,201,5200043,,,2021-09-28,清算の結了等,,,2015-10-05,1,,,,,マツヤマショウテン,0
2560,9180001007266,登記記録の閉鎖等,0,2021-09-29,2021-09-22,株式会社ヒラノ機工,,株式会社,愛知県,名古屋市港区,正徳町６丁目５４番地,,23,111,4550075,,,2021-09-22,清算の結了等,,,2015-10-05,1,,,,,ヒラノキコウ,0
2561,9180001015731,登記記録の閉鎖等,0,2021-09-29,2021-09-22,本山設備株式会社,,株式会社,愛知県,名古屋市南区,観音町６丁目６番地,,23,112,4570845,,,2021-09-22,清算の結了等,,,2015-10-05,1,,,,,モトヤマセツビ,0
2564,9180001119615,登記記録の閉鎖等,0,2021-09-29,2021-09-24,株式会社倉本工業,,株式会社,愛知県,名古屋市千種区,鹿子殿１３番３０号,,23,101,4640021,,,2021-09-24,清算の結了等,,,2015-10-05,1,,,,,クラモトコウギョウ,0
2577,9200005011229,登記記録の閉鎖等,0,2021-09-29,2021-09-21,特定非営利活動法人郡上ミスチーフファミリー,,その他の設立登記法人,岐阜県,郡上市,大和町神路５４４番地,,21,219,5014605,,,2021-09-21,清算の結了等,,,2015-10-05,1,,,,,グジョウミスチーフファミリー,0
2599,9280002003031,登記記録の閉鎖等,0,2021-09-29,2021-09-24,玉造自工有限会社,,有限会社,島根県,松江市,玉湯町湯町１５６０番地,,32,201,6990202,,,2021-09-24,清算の結了等,,,2015-10-05,1,,,,,タマツクリジコウ,0
2611,9290002032764,登記記録の閉鎖等,0,2021-09-29,2021-09-08,有限会社清上薬局,,有限会社,福岡県,糸島市,前原西４丁目８番１５号,,40,230,8191117,,,2021-09-08,清算の結了等,,,2015-10-05,1,,,,,セイジョウヤッキョク,0
2635,9380002030701,登記記録の閉鎖等,0,2021-09-29,2021-09-22,有限会社ティエム,,有限会社,福島県,双葉郡富岡町,大字本岡字新夜ノ森５８３番地１,,07,543,9791151,,,2021-09-22,清算の結了等,,,2015-10-05,1,,,,,,0
2636,9380005007630,登記記録の閉鎖等,0,2021-09-29,2021-08-11,天理教東広野分教会,,その他の設立登記法人,福島県,双葉郡広野町,大字下浅見川字広長９２番地の１,,07,541,9790403,,,2021-08-11,合併による解散等,7380005006262,令和３年８月１１日福島県いわき市常磐湯本町吹谷７２番地天理教湯本分教会（7380005006262）に合併し解散,2015-10-05,1,,,,,,0
2637,9380005011756,登記記録の閉鎖等,0,2021-09-29,2021-09-22,特定非営利活動法人ふたば創造未来塾,,その他の設立登記法人,福島県,福島市,春日町１０番２６号,,07,201,9608116,,,2021-09-22,清算の結了等,,,2016-12-01,1,,,,,フタバソウゾウミライジュク,0
2649,9430001073753,登記記録の閉鎖等,0,2021-09-29,2021-09-27,武部工業株式会社,,株式会社,北海道,札幌市北区,南あいの里７丁目２８番１号,,01,102,0028091,,,2021-09-27,清算の結了等,,,2017-04-13,1,,,,,タケベコウギョウ,0
2652,9430002049827,登記記録の閉鎖等,0,2021-09-29,2021-09-21,有限会社真山動物病院,,有限会社,北海道,岩見沢市,八条西１８丁目２４番地,,01,210,0680028,,,2021-09-21,清算の結了等,,,2015-10-05,1,,,,,マヤマドウブツビョウイン,0
