sequenceNumber,corporateNumber,process,correct,updateDate,changeDate,name,nameImageId,kind,prefectureName,cityName,streetNumber,addressImageId,prefectureCode,cityCode,postCode,addressOutside,addressOutsideImageId,closeDate,closeCause,successorCorporateNumber,changeCause,assignmentDate,latest,enName,enPrefectureName,enCityName,enAddressOutside,furigana,hihyoji
8,1010001221163,新規,0,2021-09-17,2021-09-17,株式会社ＭＶＣ,,株式会社,東京都,千代田区,四番町４番地９,,13,101,1020081,,,,,,,2021-09-17,1,,,,,エムブイシー,0
20,1010401162701,新規,0,2021-09-17,2021-09-17,Ｋｉｎｅｓｉ　Ｃｏｒｐｏｒａｔｉｏｎ株式会社,,株式会社,東京都,港区,東新橋２丁目１０番１０号東新橋ビル２Ｆ,,13,103,1050021,,,,,,,2021-09-17,1,,,,,キネシーコーポレーション,0
21,1010401162750,新規,0,2021-09-17,2021-09-17,株式会社エレガント,,株式会社,東京都,港区,赤坂３丁目２番２号日総第２４ビル６階,,13,103,1070052,,,,,,,2021-09-17,1,,,,,エレガント,0
24,1010403026144,新規,0,2021-09-17,2021-09-17,Ｆｒｅｅｊｉｏｎ合同会社,,合同会社,東京都,港区,浜松町２丁目２番１５号浜松町ダイヤビル２Ｆ,,13,103,1050013,,,,,,,2021-09-17,1,,,,,フリージィオン,0
25,1010403026152,新規,0,2021-09-17,2021-09-17,ＦＭ　Ｔｅｃｈ－Ａｒｔｓ合同会社,,合同会社,東京都,港区,赤坂７丁目５番１号,,13,103,1070052,,,,,,,2021-09-17,1,,,,,エフエムテックアーツ,0
27,1010501047835,新規,0,2021-09-17,2021-09-17,株式会社Ｇｕｎｓｈｉ,,株式会社,東京都,台東区,東上野２丁目１１番６号津多屋ビル２階,,13,106,1100015,,,,,,,2021-09-17,1,,,,,グンシ,0
32,1010701041530,新規,0,2021-09-17,2021-09-17,株式会社ラクスパ,,株式会社,東京都,品川区,大崎４丁目１２－１４－２０１,,13,109,1410032,,,,,,,2021-09-17,1,,,,,ラクスパ,0
33,1010701041539,新規,0,2021-09-17,2021-09-17,株式会社Ｆｃｏｎｔｉｎｕｅ,,株式会社,東京都,品川区,上大崎３丁目５番３号万代目黒ビル６Ｆ,,13,109,1410021,,,,,,,2021-09-17,1,,,,,エフコンティニュー,0
39,1010901049464,新規,0,2021-09-17,2021-09-17,株式会社Ｏｈ　Ｌａ　Ｌａ,,株式会社,東京都,世田谷区,砧６丁目１３－２２,,13,112,1570073,,,,,,,2021-09-17,1,,,,,ウーララ,0
41,1010903006810,新規,0,2021-09-17,2021-09-17,合同会社ＴＩＧＥＲ　ＷＯＲＫＳ,,合同会社,東京都,世田谷区,下馬３丁目２３番１６号１０１号室,,13,112,1540002,,,,,,,2021-09-17,1,,,,,タイガーワークス,0
46,1011001142804,新規,0,2021-09-17,2021-09-17,ＴＹＯ株式会社,,株式会社,東京都,渋谷区,松濤１丁目６番２号,,13,113,1500046,,,,,,,2021-09-17,1,,,,,ティーワイオー,0
47,1011001142878,新規,0,2021-09-17,2021-09-17,株式会社サムライ,,株式会社,東京都,渋谷区,神宮前５丁目１７番１３号,,13,113,1500001,,,,,,,2021-09-17,1,,,,,サムライ,0
48,1011003013391,新規,0,2021-09-17,2021-09-17,医学工房合同会社,,合同会社,東京都,渋谷区,千駄ヶ谷３丁目５３番１２号グレンパーク原宿６０１,,13,113,1510051,,,,,,,2021-09-17,1,,,,,イガクコウボウ,0
73,1011403003439,新規,0,2021-09-17,2021-09-17,合同会社タチアゲ,,合同会社,東京都,板橋区,成増３丁目３６－２２シティテラス成増２０４,,13,119,1750094,,,,,,,2021-09-17,1,,,,,タチアゲ,0
74,1011403003447,新規,0,2021-09-17,2021-09-17,合同会社皆座,,合同会社,東京都,板橋区,蓮沼町４番３号サンウエスト・ＳＫ４０２号室,,13,119,1740052,,,,,,,2021-09-17,1,,,,,カイザ,0
84,1011801039712,新規,0,2021-09-17,2021-09-17,株式会社ＣＹＥＬＯＮ,,株式会社,東京都,足立区,梅田７丁目１０－３０,,13,121,1230851,,,,,,,2021-09-17,1,,,,,セイロン,0
91,1012401038303,新規,0,2021-09-17,2021-09-17,株式会社Ｋ電工,,株式会社,東京都,府中市,片町２丁目２２番地の１,,13,206,1830021,,,,,,,2021-09-17,1,,,,,ケイデンコウ,0
104,1020001143051,新規,0,2021-09-17,2021-09-17,匠外装株式会社,,株式会社,神奈川県,横浜市港南区,日野８丁目３－１０,,14,111,2340051,,,,,,,2021-09-17,1,,,,,タクミガイソウ,0
119,1021001073981,新規,0,2021-09-17,2021-09-17,株式会社ａｏｎａｔｓｕ,,株式会社,神奈川県,秦野市,尾尻４５０番地の１２１,,14,211,2570011,,,,,,,2021-09-17,1,,,,,アオナツ,0
125,1030003017814,新規,0,2021-09-17,2021-09-17,合同会社ぴえん,,合同会社,埼玉県,さいたま市北区,宮原町２丁目１３５－４６,,11,102,3310812,,,,,,,2021-09-17,1,,,,,ピエン,0
137,1040003018522,新規,0,2021-09-17,2021-09-17,翔豊合同会社,,合同会社,千葉県,柏市,豊四季台２丁目１番１０６－７０６号,,12,217,2770845,,,,,,,2021-09-17,1,,,,,ショウホウ,0
140,1050001049857,新規,0,2021-09-17,2021-09-17,株式会社仁悠堂,,株式会社,茨城県,水戸市,本町２丁目１３番３９号ＦＫＹドリームハイツ２０５号室,,08,201,3100815,,,,,,,2021-09-17,1,,,,,ジンユウドウ,0
144,1050003006088,新規,0,2021-09-17,2021-09-17,ＦｒｅｅｖｅｒＪａｐａｎ合同会社,,合同会社,茨城県,小美玉市,野田９６８番地２８,,08,236,3113411,,,,,,,2021-09-17,1,,,,,フリーバージャパン,0
146,1050005012935,新規,0,2021-09-17,2021-09-17,医療法人いがらしクリニック,,その他の設立登記法人,茨城県,龍ケ崎市,栄町４６５９番地３,,08,208,3010826,,,,,,,2021-09-17,1,,,,,イガラシクリニック,0
149,1060001034098,新規,0,2021-09-17,2021-09-17,株式会社永見保険事務所,,株式会社,栃木県,宇都宮市,鶴田町３９０番地１ホワイトローズⅡ１０１,00124280,09,201,3200851,,,,,,,2021-09-17,1,,,,,ナガミホケンジムショ,0
154,1070001038445,新規,0,2021-09-17,2021-09-17,Ｍ’ｓｔａｆｆ株式会社,,株式会社,群馬県,前橋市,大友町３丁目９番２号第二伸栄ビル２－４号室,,10,201,3710847,,,,,,,2021-09-17,1,,,,,エムスタッフ,0
156,1070003004230,新規,0,2021-09-17,2021-09-17,合同会社ＦＲＣサポート,,合同会社,群馬県,藤岡市,譲原６－３,,10,209,3701402,,,,,,,2021-09-17,1,,,,,エフアールシーサポート,0
161,1080401025348,新規,0,2021-09-17,2021-09-17,株式会社ＡＫＡＭＡＴＳＵ,,株式会社,静岡県,磐田市,大立野４５０番地,,22,211,4380036,,,,,,,2021-09-17,1,,,,,アカマツ,0
162,1080403004366,新規,0,2021-09-17,2021-09-17,合同会社児玉工業,,合同会社,静岡県,浜松市東区,市野町１７５１番地の１,,22,132,4350051,,,,,,,2021-09-17,1,,,,,コダマコウギョウ,0
167,1110005016715,新規,0,2021-09-17,2021-09-17,特定非営利活動法人はねうまネットワーク,,その他の設立登記法人,新潟県,妙高市,大字上四ツ屋２６２－１,,15,217,9440083,,,,,,,2021-09-17,1,,,,,ハネウマネットワーク,0
175,1120001240508,新規,0,2021-09-17,2021-09-17,株式会社ＭＹＴＨＥＬ,,株式会社,大阪府,大阪市西区,立売堀３丁目７番１４－１１０１号,,27,106,5500012,,,,,,,2021-09-17,1,,,,,ミセル,0
176,1120001240516,新規,0,2021-09-17,2021-09-17,株式会社浪越ひろみや,,株式会社,大阪府,大阪市都島区,中野町５丁目１３番３号桜宮リバーシティ・ウォータータワープラザ２７０３,,27,102,5340027,,,,,,,2021-09-17,1,,,,,ナミコシヒロミヤ,0
213,1160001023636,新規,0,2021-09-17,2021-09-17,ＳＥＤＡＩ株式会社,,株式会社,滋賀県,湖南市,夏見２１１６－２,,25,211,5203223,,,,,,,2021-09-17,1,,,,,セダイ,0
220,1180001147870,新規,0,2021-09-17,2021-09-17,株式会社ＥＣＳ,,株式会社,愛知県,名古屋市西区,比良２丁目２４４番地の４,,23,104,4520802,,,,,,,2021-09-17,1,,,,,イーシーエス,0
221,1180001147879,新規,0,2021-09-17,2021-09-17,ＭＩＲＡＩ＆パートナーズ株式会社,,株式会社,愛知県,名古屋市昭和区,折戸町３丁目６番地の１２,,23,107,4660858,,,,,,,2021-09-17,1,,,,,ミライアンドパートナーズ,0
223,1180003022972,新規,0,2021-09-17,2021-09-17,合同会社荒川絞り,,合同会社,愛知県,名古屋市緑区,相原郷２丁目４０８番地,,23,114,4580033,,,,,,,2021-09-17,1,,,,,アラカワシボリ,0
232,1240001058624,新規,0,2021-09-17,2021-09-17,株式会社エンジョイライフ,,株式会社,広島県,広島市佐伯区,城山２丁目３番２０号,,34,108,7315155,,,,,,,2021-09-17,1,,,,,エンジョイライフ,0
234,1240003005285,新規,0,2021-09-17,2021-09-17,合同会社ＥＤＥＵＲＯ　ＪＡＰＡＮ,,合同会社,広島県,福山市,新市町戸手１１０１番地４,,34,207,7210000,,,,,,,2021-09-17,1,,,,,エデユーロジャパン,0
237,1250003002901,新規,0,2021-09-17,2021-09-17,Ｌａｄｙ合同会社,,合同会社,山口県,周南市,大字櫛ヶ浜３７２番地の３,,35,215,7450805,,,,,,,2021-09-17,1,,,,,レディ,0
241,1260001035968,新規,0,2021-09-17,2021-09-17,株式会社日鋼工業,,株式会社,岡山県,倉敷市,老松町４丁目７番３２－２０１号,,33,202,7100826,,,,,,,2021-09-17,1,,,,,ニッコウコウギョウ,0
246,1290001094680,新規,0,2021-09-17,2021-09-17,ｓｈａｍｒｏｃＫ株式会社,,株式会社,福岡県,大野城市,山田４丁目２番２５－３０２号,,40,219,8160922,,,,,,,2021-09-17,1,,,,,シャムロック,0
247,1290001094689,新規,0,2021-09-17,2021-09-17,那珂川グランディール株式会社,,株式会社,福岡県,那珂川市,松木１丁目１３６番地,,40,231,8111251,,,,,,,2021-09-17,1,,,,,ナカガワグランディール,0
250,1290005018371,新規,0,2021-09-17,2021-09-17,一般社団法人発達サポートセンターＳＴＥＰ,,その他の設立登記法人,福岡県,福岡市中央区,警固１丁目１０番３－２０６号,,40,133,8100023,,,,,,,2021-09-17,1,,,,,ハッタツサポートセンターステップ,0
266,1360001029381,新規,0,2021-09-17,2021-09-17,株式会社シャイン,,株式会社,沖縄県,那覇市,字国場３９３番地１,,47,201,9020075,,,,,,,2021-09-17,1,,,,,シャイン,0
282,1430001084989,新規,0,2021-09-17,2021-09-17,株式会社秦秀工業,,株式会社,北海道,札幌市豊平区,月寒東二条３丁目７番１３号,,01,105,0620052,,,,,,,2021-09-17,1,,,,,シンシュウコウギョウ,0
287,1430003013161,新規,0,2021-09-17,2021-09-17,ＡＢＲＩＬ　ＡＢＡＹＡ合同会社,,合同会社,北海道,札幌市中央区,南四条西９丁目１００９番地２,,01,101,0640804,,,,,,,2021-09-17,1,,,,,アブリルアバヤ,0
289,1470001018712,新規,0,2021-09-17,2021-09-17,株式会社フェニックス,,株式会社,香川県,綾歌郡綾川町,陶２０２４番地１,,37,387,7612103,,,,,,,2021-09-17,1,,,,,フェニックス,0
290,1470003002037,新規,0,2021-09-17,2021-09-17,合同会社一建想,,合同会社,香川県,丸亀市,津森町８００番地１フィネス坂本３０４号,,37,202,7630052,,,,,,,2021-09-17,1,,,,,ハジメケンソウ,0
293,1700150103274,新規,0,2021-09-17,2021-05-18,高羽風の子学童保育所,,その他,兵庫県,神戸市灘区,山田町１丁目１番１５号六甲カガミマンション１階東,,28,102,6570064,,,,,,,2021-05-18,1,,,,,タカハカゼノコガクドウホイクシヨ,0
301,2010001221162,新規,0,2021-09-17,2021-09-17,株式会社ノクシー,,株式会社,東京都,中央区,銀座１丁目１２番４号Ｎ＆ＥＢＬＤ．７階,,13,102,1040061,,,,,,,2021-09-17,1,,,,,ノクシー,0
302,2010001221220,新規,0,2021-09-17,2021-09-17,Ｅｘｌｉｍｉｆｙ株式会社,,株式会社,東京都,中央区,銀座１丁目１２－４Ｎ＆Ｅ・ＢＬＤ．７階,,13,102,1040061,,,,,,,2021-09-17,1,,,,,エクスリミファイ,0
303,2010001221245,新規,0,2021-09-17,2021-09-17,株式会社リードヴァンス,,株式会社,東京都,中央区,銀座７丁目１３番６号サガミビル２階,,13,102,1040061,,,,,,,2021-09-17,1,,,,,リードヴァンス,0
308,2010101014870,新規,0,2021-09-17,2021-09-17,株式会社ミズタニ,,株式会社,東京都,八王子市,犬目町５７８番地５,,13,201,1930802,,,,,,,2021-09-17,1,,,,,,0
311,2010401162691,新規,0,2021-09-17,2021-09-17,株式会社Ａｓｍｙ,,株式会社,東京都,港区,北青山２丁目１２番３３号ＡＣＮ青山テラス１階,,13,103,1070061,,,,,,,2021-09-17,1,,,,,ア,0
312,2010401162717,新規,0,2021-09-17,2021-09-17,株式会社Ｓｎｏｗ　Ｄｏｍｅ,,株式会社,東京都,港区,赤坂１丁目９番１３号,,13,103,1070052,,,,,,,2021-09-17,1,,,,,スノードーム,0
313,2010401162733,新規,0,2021-09-17,2021-09-17,アクシス・インベストメント株式会社,,株式会社,東京都,港区,南青山２丁目２番１５号,,13,103,1070062,,,,,,,2021-09-17,1,,,,,アクシスインベストメント,0
320,2010501047850,新規,0,2021-09-17,2021-09-17,香西会計・不動産鑑定株式会社,,株式会社,東京都,台東区,上野３丁目１５番７号,,13,106,1100005,,,,,,,2021-09-17,1,,,,,コウザイカイケイフドウサンカンテイ,0
326,2010801032288,新規,0,2021-09-17,2021-09-17,株式会社ねことふじい,,株式会社,東京都,大田区,大森北１丁目３６番９号,,13,111,1430016,,,,,,,2021-09-17,1,,,,,ネコトフジイ,0
331,2011001142844,新規,0,2021-09-17,2021-09-17,株式会社ＤＣビューティー,,株式会社,東京都,渋谷区,神南１丁目１１番５号,,13,113,1500041,,,,,,,2021-09-17,1,,,,,ディーシービューティー,0
332,2011001142852,新規,0,2021-09-17,2021-09-17,株式会社きララ,,株式会社,東京都,渋谷区,神宮前１丁目５番８号神宮前タワービルディング１３階ＮＯ．９,,13,113,1500001,,,,,,,2021-09-17,1,,,,,キララ,0
334,2011101096305,新規,0,2021-09-17,2021-09-17,株式会社アキワ,,株式会社,東京都,新宿区,西落合３丁目２８番３号,,13,104,1610031,,,,,,,2021-09-17,1,,,,,アキワ,0
339,2011401023677,新規,0,2021-09-17,2021-09-17,株式会社石山不動産,,株式会社,東京都,板橋区,熊野町５－１３－１０３号,,13,119,1730025,,,,,,,2021-09-17,1,,,,,イシヤマフドウサン,0
341,2011503004897,新規,0,2021-09-17,2021-09-17,合同会社トランジション,,合同会社,東京都,北区,赤羽１丁目４８番１号,,13,117,1150045,,,,,,,2021-09-17,1,,,,,トランジション,0
347,2011801039711,新規,0,2021-09-17,2021-09-17,株式会社アラビカ,,株式会社,東京都,葛飾区,鎌倉４丁目３２番７号,,13,122,1250053,,,,,,,2021-09-17,1,,,,,アラビカ,0
349,2012401038310,新規,0,2021-09-17,2021-09-17,５－Ｓｔａｒ　Ｉｎｓｉｇｈｔｓ株式会社,,株式会社,東京都,多摩市,東寺方１丁目９－１４ＡＮＮＥＸＬＡＵＬＥ’Ａ２０３,,13,224,2060003,,,,,,,2021-09-17,1,,,,,ファイブスターインサイト,0
352,2013301048011,新規,0,2021-09-17,2021-09-17,ＳｕｍｍｅｒＪＡＰＡＮ株式会社,,株式会社,東京都,豊島区,東池袋１丁目１９番１号,,13,116,1700013,,,,,,,2021-09-17,1,,,,,サマージャパン,0
366,2020001143026,新規,0,2021-09-17,2021-09-17,株式会社協尽システム,,株式会社,神奈川県,横浜市鶴見区,江ケ崎町８番６３－２５８号,,14,101,2300002,,,,,,,2021-09-17,1,,,,,キョウジンシステム,0
367,2020001143042,新規,0,2021-09-17,2021-09-17,株式会社ＢＡＬＯＣＫＸ,,株式会社,神奈川県,横浜市保土ケ谷区,保土ケ谷町１丁目６１番地レナジア１０３Ｂ,,14,106,2400021,,,,,,,2021-09-17,1,,,,,バロックス,0
368,2020001143050,新規,0,2021-09-17,2021-09-17,株式会社Ｒｉｔｚ　ｍｉｒａｃｌｅ,,株式会社,神奈川県,横浜市鶴見区,北寺尾５丁目６番４０号２０２,,14,101,2300074,,,,,,,2021-09-17,1,,,,,リッツミラクル,0
400,2040001120238,新規,0,2021-09-17,2021-09-17,株式会社ＨＡＹＡＳＥ,,株式会社,千葉県,松戸市,常盤平６丁目６－１,,12,207,2702261,,,,,,,2021-09-17,1,,,,,ハヤセ,0
409,2050001049856,新規,0,2021-09-17,2021-09-17,牛久どうぶつ病院株式会社,,株式会社,茨城県,牛久市,南１丁目４４番地２５,,08,219,3001222,,,,,,,2021-09-17,1,,,,,ウシクドウブツビョウイン,0
412,2050003006079,新規,0,2021-09-17,2021-09-17,合同会社Ｔｒｅａｓｕｒｅ　Ｇａｒａｇｅ,,合同会社,茨城県,神栖市,奥野谷４１３１,,08,232,3140116,,,,,,,2021-09-17,1,,,,,トレジャーガレージ,0
413,2050003006087,新規,0,2021-09-17,2021-09-17,合同会社野口商事,,合同会社,茨城県,つくば市,真瀬１６３０番地３,,08,220,3002656,,,,,,,2021-09-17,1,,,,,ノグチショウジ,0
418,2070001038444,新規,0,2021-09-17,2021-09-17,株式会社Ｔｉｎｙ　Ｓｔａｒ,,株式会社,群馬県,前橋市,力丸町１１５番地２,,10,201,3792134,,,,,,,2021-09-17,1,,,,,タイニースター,0
422,2080101022784,新規,0,2021-09-17,2021-09-17,株式会社アオキ,,株式会社,静岡県,沼津市,大岡１８４４番地の４６,,22,203,4100022,,,,,,,2021-09-17,1,,,,,アオキ,0
424,2080403004365,新規,0,2021-09-17,2021-09-17,合同会社ユーエフ商会,,合同会社,静岡県,浜松市北区,引佐町伊平１５５１番地の１,,22,135,4312205,,,,,,,2021-09-17,1,,,,,ユーエフショウカイ,0
441,2120101064327,新規,0,2021-09-17,2021-09-17,株式会社福徳,,株式会社,大阪府,堺市北区,金岡町１０５５－５,,27,146,5918022,,,,,,,2021-09-17,1,,,,,フクトク,0
446,2120903003829,新規,0,2021-09-17,2021-09-17,ウエストリバー・アンド・カンパニー合同会社,,合同会社,大阪府,茨木市,上泉町１２番１８号の２,,27,211,5670811,,,,,,,2021-09-17,1,,,,,ウエストリバーアンドカンパニー,0
450,2130003007481,新規,0,2021-09-17,2021-09-17,合同会社Ｙｕｕｙｕ,,合同会社,京都府,福知山市,桔梗が丘４丁目２０番地,,26,201,6200859,,,,,,,2021-09-17,1,,,,,ユウユ,0
451,2140001123107,新規,0,2021-09-17,2021-09-17,ＨＡＳＨＩＵＤＯ　ＤＥＮＳＨＩ株式会社,,株式会社,兵庫県,神戸市中央区,大日通５丁目２番２４号,,28,110,6510064,,,,,,,2021-09-17,1,,,,,ハシウドデンシ,0
453,2140003016754,新規,0,2021-09-17,2021-09-17,合同会社Ｅｃｄｙｓｉｓ,,合同会社,兵庫県,姫路市,下手野４丁目３－２０,,28,201,6700063,,,,,,,2021-09-17,1,,,,,エクディシス,0
455,2150003002489,新規,0,2021-09-17,2021-09-17,アトリエ合同会社,,合同会社,奈良県,奈良市,登美ヶ丘４丁目２番５号,,29,201,6310004,,,,,,,2021-09-17,1,,,,,アトリエ,0
458,2160001023635,新規,0,2021-09-17,2021-09-17,株式会社Ｋ．キャスティング,,株式会社,滋賀県,大津市,京町４丁目５－１３,,25,201,5200044,,,,,,,2021-09-17,1,,,,,ケイキャスティング,0
468,2180001147829,新規,0,2021-09-17,2021-09-17,ｆｋ．ｓｐｉｃｅ株式会社,,株式会社,愛知県,春日井市,高蔵寺町北１丁目８６番地１,,23,206,4870016,,,,,,,2021-09-17,1,,,,,エフケースパイス,0
473,2180003022963,新規,0,2021-09-17,2021-09-17,合同会社ＤＴＨ,,合同会社,愛知県,名古屋市天白区,池場３丁目１１７番地カーサ東田面１０５,,23,116,4680055,,,,,,,2021-09-17,1,,,,,ディティエイチ,0
476,2180303005107,新規,0,2021-09-17,2021-09-17,Ｈｉｇｈ　Ｔａｉｌ　Ｈａｐｐｙ　Ｖｉｌｌａｇｅ合同会社,,合同会社,愛知県,安城市,里町池ノ浦１番地２,,23,212,4460001,,,,,,,2021-09-17,1,,,,,ハイテイルハッピーヴィレッジ,0
482,2200001039148,新規,0,2021-09-17,2021-09-17,株式会社ラフテル,,株式会社,岐阜県,岐阜市,長良丘１丁目６番地１,,21,201,5020838,,,,,,,2021-09-17,1,,,,,ラフテル,0
483,2200001039156,新規,0,2021-09-17,2021-09-17,アグリフレンドホリグチ株式会社,,株式会社,岐阜県,本巣市,石原４６７番地,,21,218,5010405,,,,,,,2021-09-17,1,,,,,アグリフレンドホリグチ,0
496,2240005015273,新規,0,2021-09-17,2021-09-17,ＳＡＴＯＮＯＷＡ団地管理組合法人,,その他の設立登記法人,広島県,広島市東区,牛田早稲田３丁目５番１６号,,34,102,7320062,,,,,,,2021-09-17,1,,,,,サトノワダンチ,0
506,2290001094696,新規,0,2021-09-17,2021-09-17,Ｍｅｄｉｃａｌ　Ｍｉｎｄ株式会社,,株式会社,福岡県,福岡市東区,松田３丁目７番２８号,,40,131,8120064,,,,,,,2021-09-17,1,,,,,メディカルマインド,0
510,2290003011625,新規,0,2021-09-17,2021-09-17,合同会社花・かご,,合同会社,福岡県,糟屋郡宇美町,貴船２丁目１６番８号グランツシュティルⅡＡ２０２号,00124272,40,341,8112131,,,,,,,2021-09-17,1,,,,,ハナカゴ,0
511,2290803003929,新規,0,2021-09-17,2021-09-17,虎の子プロダクション合同会社,,合同会社,福岡県,北九州市小倉北区,堺町１丁目５番５－１０７号,,40,106,8020005,,,,,,,2021-09-17,1,,,,,トラノコプロダクション,0
515,2320001018610,新規,0,2021-09-17,2021-09-17,株式会社エスネットソリューション,,株式会社,大分県,大分市,城崎町１丁目１番５－４０３号,,44,201,8700045,,,,,,,2021-09-17,1,,,,,エスネットソリューション,0
518,2320003003619,新規,0,2021-09-17,2021-09-17,合同会社デイム,,合同会社,大分県,大分市,政所２丁目４番６－１号,,44,201,8700268,,,,,,,2021-09-17,1,,,,,デイム,0
521,2340003003559,新規,0,2021-09-17,2021-09-17,合同会社アストライド,,合同会社,鹿児島県,鹿児島市,谷山中央５丁目４番８号２階,,46,201,8910141,,,,,,,2021-09-17,1,,,,,アストライド,0
524,2360001029372,新規,0,2021-09-17,2021-09-17,株式会社ゴールドアップ,,株式会社,沖縄県,中頭郡西原町,字内間４９番地,,47,329,9030121,,,,,,,2021-09-17,1,,,,,ゴールドアップ,0
525,2360003011444,新規,0,2021-09-17,2021-09-17,合同会社ミヤビ企画,,合同会社,沖縄県,那覇市,真嘉比１丁目９番１０号クレストハイム雅１Ｆ,,47,201,9020068,,,,,,,2021-09-17,1,,,,,ミヤビキカク,0
530,2390005008915,新規,0,2021-09-17,2021-09-17,一般社団法人琴の森ふれあい協会,,その他の設立登記法人,山形県,天童市,南町３丁目１２番１４号,,06,210,9940049,,,,,,,2021-09-17,1,,,,,コトノモリフレアイキョウカイ,0
537,2430003013169,新規,0,2021-09-17,2021-09-17,ＰｏｌａｒｉｓＴａｉｌ合同会社,,合同会社,北海道,石狩市,花川南九条３丁目１６８番地,,01,235,0613209,,,,,,,2021-09-17,1,,,,,ポラリステイル,0
538,2450001013482,新規,0,2021-09-17,2021-09-17,株式会社ＡＲＲＯＷＳ,,株式会社,北海道,旭川市,豊岡二条５丁目３番１５号,,01,204,0788232,,,,,,,2021-09-17,1,,,,,アローズ,0
540,2480001011491,新規,0,2021-09-17,2021-09-17,株式会社ｍａｔｏｓ,,株式会社,徳島県,徳島市,西二軒屋町１丁目３番地サンフェリーチェ３０１,,36,201,7708061,,,,,,,2021-09-17,1,,,,,マトス,0
543,2700150028768,新規,0,2021-09-17,2015-10-09,二見商友会,,その他,兵庫県,明石市,二見町東二見４２２,,28,203,6740092,,,2015-12-23,その他の清算の結了等,,,2015-10-09,1,,,,,フタミシヨウユウカイ,0
544,2700150104619,新規,0,2021-09-17,2021-09-03,日本マスターズパフォーマンス協会,,その他,岐阜県,大垣市,林町７丁目７５３－１,,21,202,5030015,,,,,,,2021-09-03,1,,,,,ニホンマスターズパフオーマンスキヨウカイ,0
555,3010005033966,新規,0,2021-09-17,2021-09-17,医療法人社団Ｇｏｏｄ　Ｔｉｍｅ,,その他の設立登記法人,東京都,中央区,日本橋蛎殻町１丁目６番３号ＶＯＲＴ茅場町Ⅰ１階地下１階,00124279,13,102,1030014,,,,,,,2021-09-17,1,,,,,,0
560,3010401162716,新規,0,2021-09-17,2021-09-17,Ｙ＆Ｈカンパニー株式会社,,株式会社,東京都,港区,虎ノ門１丁目１６番６号虎ノ門ＲＡＰＯ－ＴＯビルＵＣＦ７階,,13,103,1050001,,,,,,,2021-09-17,1,,,,,ワイアンドエイチカンパニー,0
561,3010401162757,新規,0,2021-09-17,2021-09-17,株式会社袋屋,,株式会社,東京都,港区,新橋５丁目３１番８号,,13,103,1050004,,,,,,,2021-09-17,1,,,,,フクロヤ,0
562,3010401162765,新規,0,2021-09-17,2021-09-17,株式会社Ｗｈｉｔｅ　ｂｅａｒ,,株式会社,東京都,港区,南青山６丁目７番１７－５０３号,,13,103,1070062,,,,,,,2021-09-17,1,,,,,ホワイトベア,0
565,3010403026118,新規,0,2021-09-17,2021-09-17,エイエムエフ合同会社,,合同会社,東京都,港区,南青山３丁目８番４０号青山センタービル２Ｆ,,13,103,1070062,,,,,,,2021-09-17,1,,,,,エイエムエフ,0
566,3010403026142,新規,0,2021-09-17,2021-09-17,Ａｃｅｂｒａｎｄ合同会社,,合同会社,東京都,港区,南青山３丁目１５－９ＭＩＮＯＷＡ表参道３階－１９３,,13,103,1070062,,,,,,,2021-09-17,1,,,,,エースブランド,0
567,3010403026150,新規,0,2021-09-17,2021-09-17,ノア・コンサルティング合同会社,,合同会社,東京都,港区,南青山２丁目２番１５号,,13,103,1070062,,,,,,,2021-09-17,1,,,,,ノアコンサルティング,0
568,3010405020234,新規,0,2021-09-17,2021-09-17,一般社団法人六本木四丁目計画,,その他の設立登記法人,東京都,港区,虎ノ門３丁目２２番１０－２０１号,,13,103,1050001,,,,,,,2021-09-17,1,,,,,ロッポンギヨンチョウメケイカク,0
570,3010603009145,新規,0,2021-09-17,2021-09-17,合同会社Ｇｏ　ｆｏｒ　ｉｔ,,合同会社,東京都,墨田区,横網２丁目１３－２－４０５,,13,107,1300015,,,,,,,2021-09-17,1,,,,,ゴーフォーイット,0
588,3011001142728,新規,0,2021-09-17,2021-09-17,株式会社Ｆｌｏｗｚ,,株式会社,東京都,渋谷区,渋谷２丁目１９－１５宮益坂ビルディング６０９,,13,113,1500002,,,,,,,2021-09-17,1,,,,,フロウズ,0
590,3011101096295,新規,0,2021-09-17,2021-09-17,株式会社カジカワ,,株式会社,東京都,新宿区,西新宿７丁目５番９号,,13,104,1600023,,,,,,,2021-09-17,1,,,,,カジカワ,0
591,3011101096337,新規,0,2021-09-17,2021-09-17,株式会社Ｔｓｕｍｕｇｉ,,株式会社,東京都,新宿区,西新宿７丁目５番９－１９１３号,,13,104,1600023,,,,,,,2021-09-17,1,,,,,ツムギ,0
607,3011801039702,新規,0,2021-09-17,2021-09-17,株式会社フォルム,,株式会社,東京都,足立区,伊興本町１丁目１０番地１７,,13,121,1210807,,,,,,,2021-09-17,1,,,,,フォルム,0
609,3012401038301,新規,0,2021-09-17,2021-09-17,株式会社ＭＥＤ　ｘ　Ｔｅｃｈｎｏｌｏｇｉｅｓ,,株式会社,東京都,調布市,国領町２丁目５番地１５コクティー３階,,13,208,1820022,,,,,,,2021-09-17,1,,,,,メドエックステクノロジーズ,0
611,3012701016667,新規,0,2021-09-17,2021-09-17,株式会社クラスタ,,株式会社,東京都,西東京市,中町３丁目１１番７号,,13,229,2020013,,,,,,,2021-09-17,1,,,,,クラスタ,0
615,3020001143017,新規,0,2021-09-17,2021-09-17,株式会社タイガー商会,,株式会社,神奈川県,川崎市多摩区,東生田４丁目６番３号,,14,135,2140031,,,,,,,2021-09-17,1,,,,,タイガーショウカイ,0
623,3021001073971,新規,0,2021-09-17,2021-09-17,みなづき株式会社,,株式会社,神奈川県,藤沢市,石川４丁目３３－１０,,14,205,2520815,,,,,,,2021-09-17,1,,,,,ミナヅキ,0
624,3021001073996,新規,0,2021-09-17,2021-09-17,株式会社Ｋ・Ｂ・Ｉエンヴィジョン,,株式会社,神奈川県,平塚市,平塚４丁目１６番１１号カスガノースワン１０１,,14,203,2540052,,,,,,,2021-09-17,1,,,,,ケービーアイエンヴィジョン,0
636,3040001120237,新規,0,2021-09-17,2021-09-17,株式会社ロードレックス,,株式会社,千葉県,成田市,津富浦字中脇５９８番地,,12,211,2870236,,,,,,,2021-09-17,1,,,,,ロードレックス,0
638,3040003018529,新規,0,2021-09-17,2021-09-17,合同会社美門,,合同会社,千葉県,館山市,館山１３４３番地の３,,12,205,2940036,,,,,,,2021-09-17,1,,,,,ミカド,0
639,3040003018545,新規,0,2021-09-17,2021-09-17,Ｗｈｉｔｅｆｏｒｄ　Ｒｅｓｅａｒｃｈ合同会社,,合同会社,千葉県,千葉市緑区,土気町１２７７番地１４,,12,105,2670061,,,,,,,2021-09-17,1,,,,,ホワイトフォードリサーチ,0
646,3050005012933,新規,0,2021-09-17,2021-09-17,医療法人社団仁洋会,,その他の設立登記法人,茨城県,神栖市,土合南１丁目１１番１４号,,08,232,3140345,,,,,,,2021-09-17,1,,,,,ジンヨウカイ,0
654,3070001038443,新規,0,2021-09-17,2021-09-17,株式会社拓進,,株式会社,群馬県,前橋市,大胡町１１１番地２,,10,201,3710223,,,,,,,2021-09-17,1,,,,,タクシン,0
656,3070003004229,新規,0,2021-09-17,2021-09-17,エムケー商事合同会社,,合同会社,群馬県,高崎市,上中居町８４９番地４,,10,202,3700851,,,,,,,2021-09-17,1,,,,,エムケーショウジ,0
657,3080001024450,新規,0,2021-09-17,2021-09-17,ＣＲＥＡＲＴＨ株式会社,,株式会社,静岡県,静岡市駿河区,高松２丁目２５番１８号,,22,102,4228034,,,,,,,2021-09-17,1,,,,,クリアース,0
660,3080401025346,新規,0,2021-09-17,2021-09-17,株式会社ＧＭ,,株式会社,静岡県,浜松市東区,豊町３０８６番地の３,,22,132,4313101,,,,,,,2021-09-17,1,,,,,ジーエム,0
667,3110005016713,新規,0,2021-09-17,2021-09-17,一般財団法人朝日記念財団,,その他の設立登記法人,新潟県,長岡市,朝日８８０番地１,,15,202,9495412,,,,,,,2021-09-17,1,,,,,アサヒキネンザイダン,0
677,3120001239894,新規,0,2021-09-17,2021-09-17,株式会社Ｍｅｍｅｎｔｏ,,株式会社,大阪府,大阪市淀川区,西中島６丁目６番６号ＮＬＣ新大阪１１号館２Ｆ,,27,123,5320011,,,,,,,2021-09-17,1,,,,,メメント,0
678,3120001240381,新規,0,2021-09-17,2021-09-17,株式会社ＰｌｕｓＲｏａｄ,,株式会社,大阪府,大阪市北区,西天満６丁目９－１８リーガル梅田Ⅱ７０１号室,00124274,27,127,5300047,,,,,,,2021-09-17,1,,,,,プラスロード,0
681,3120003020245,新規,0,2021-09-17,2021-09-17,合同会社Ｌｅ　Ｓｉｌｌａｇｅ,,合同会社,大阪府,大阪市天王寺区,玉造元町４番７号,,27,109,5430014,,,,,,,2021-09-17,1,,,,,ルシャージュ,0
686,3120101064318,新規,0,2021-09-17,2021-09-17,株式会社ライズエステート,,株式会社,大阪府,和泉市,室堂町４８番地の１,,27,219,5941101,,,,,,,2021-09-17,1,,,,,ライズエステート,0
689,3120901044907,新規,0,2021-09-17,2021-09-17,Ａ－ｔｈｉｒｄ株式会社,,株式会社,大阪府,池田市,石橋２丁目７番６－３０３号,,27,204,5630032,,,,,,,2021-09-17,1,,,,,アサード,0
690,3120903003828,新規,0,2021-09-17,2021-09-17,合同会社ジーク,,合同会社,大阪府,豊中市,稲津町１丁目５番２６－４０８号,,27,203,5610854,,,,,,,2021-09-17,1,,,,,ジーク,0
693,3122001035175,新規,0,2021-09-17,2021-09-17,株式会社アイムライン,,株式会社,大阪府,東大阪市,今米１丁目２番４８号松栄ビル５０５号,,27,227,5780903,,,,,,,2021-09-17,1,,,,,アイムライン,0
704,3140001123056,新規,0,2021-09-17,2021-09-17,株式会社淡路島フードサービス,,株式会社,兵庫県,洲本市,海岸通２丁目７９３番１号,,28,205,6560022,,,,,,,2021-09-17,1,,,,,アワジシマフードサービス,0
705,3140001123080,新規,0,2021-09-17,2021-09-17,株式会社ＩＳＩＧＥＮ　ＯＭＯＧ,,株式会社,兵庫県,神戸市長田区,四番町７丁目５番地,,28,106,6530004,,,,,,,2021-09-17,1,,,,,イシガンオモッグ,0
708,3140003016737,新規,0,2021-09-17,2021-09-17,合同会社ガラージュ,,合同会社,兵庫県,豊岡市,日高町日置２２番地の２６,,28,209,6695311,,,,,,,2021-09-17,1,,,,,ガラージュ,0
721,3180001147836,新規,0,2021-09-17,2021-09-17,株式会社ＰＳＹ,,株式会社,愛知県,津島市,越津町字西之郷３５番地２,,23,208,4960022,,,,,,,2021-09-17,1,,,,,ピーエスワイ,0
722,3180001147852,新規,0,2021-09-17,2021-09-17,Ｇｒａｎｄｉｏｓｅ株式会社,,株式会社,愛知県,一宮市,大和町馬引字郷戌猪２２１８番地１,,23,203,4910931,,,,,,,2021-09-17,1,,,,,グランディオーズ,0
723,3180001147869,新規,0,2021-09-17,2021-09-17,株式会社モレナシホーム,,株式会社,愛知県,あま市,下萱津九反田１７番地,,23,237,4901114,,,,,,,2021-09-17,1,,,,,モレナシホーム,0
724,3180001147877,新規,0,2021-09-17,2021-09-17,株式会社Ａｉｌｌ,,株式会社,愛知県,名古屋市北区,楠５丁目９０３番地２,,23,103,4620012,,,,,,,2021-09-17,1,,,,,エール,0
727,3180003022970,新規,0,2021-09-17,2021-09-17,合同会社サン,,合同会社,愛知県,名古屋市南区,豊田２丁目２１番８号,,23,112,4570841,,,,,,,2021-09-17,1,,,,,サン,0
730,3190003003763,新規,0,2021-09-17,2021-09-17,アルケミーステッチ合同会社,,合同会社,三重県,員弁郡東員町,城山１丁目３０－５,,24,324,5110233,,,,,,,2021-09-17,1,,,,,アルケミーステッチ,0
731,3200001039155,新規,0,2021-09-17,2021-09-17,株式会社Ｓｏｗ－Ｎａｒｕ,,株式会社,岐阜県,羽島市,正木町曲利９９１番地１,,21,209,5016227,,,,,,,2021-09-17,1,,,,,ソーナル,0
732,3200001039163,新規,0,2021-09-17,2021-09-17,洸建装株式会社,,株式会社,岐阜県,瑞穂市,古橋１４６２番地５,,21,216,5010322,,,,,,,2021-09-17,1,,,,,コウケンソウ,0
733,3200005013247,新規,0,2021-09-17,2021-09-17,保証責任常道負債整理組合,,その他の設立登記法人,岐阜県,瑞浪市,日吉町（岐阜県土岐郡日吉村）,,21,208,5096251,,,,,,,2021-09-17,1,,,,,ホショウセキニンツネミチフサイセイリクミアイ,0
738,3240003005283,新規,0,2021-09-17,2021-09-17,ｎｉｌｅ合同会社,,合同会社,広島県,広島市西区,天満町１３番１－３０１号,,34,104,7330022,,,,,,,2021-09-17,1,,,,,ナイル,0
748,3280001008508,新規,0,2021-09-17,2021-09-17,株式会社ＭＩＨＯ,,株式会社,島根県,出雲市,平田町１７０２番地１０,,32,203,6910001,,,,,,,2021-09-17,1,,,,,ミホ,0
754,3290001094670,新規,0,2021-09-17,2021-09-17,株式会社ｄａｎｄａｎ,,株式会社,福岡県,糸島市,南風台３丁目１３－６－２０１,,40,230,8191137,,,,,,,2021-09-17,1,,,,,ダンダン,0
755,3290001094687,新規,0,2021-09-17,2021-09-17,株式会社スマイルプランニング,,株式会社,福岡県,福岡市博多区,比恵町１９番２８号,,40,132,8120014,,,,,,,2021-09-17,1,,,,,スマイルプランニング,0
768,3330003009044,新規,0,2021-09-17,2021-09-17,ＣＡＳイノベーション合同会社,,合同会社,熊本県,熊本市中央区,下通１丁目３－８下通ＮＳビル６Ｆ,,43,101,8600807,,,,,,,2021-09-17,1,,,,,シーエーエスイノベーション,0
771,3340003003558,新規,0,2021-09-17,2021-09-17,合同会社しらゆり,,合同会社,鹿児島県,鹿児島市,宇宿４丁目２２番１９号,,46,201,8900073,,,,,,,2021-09-17,1,,,,,シラユリ,0
787,3450001013481,新規,0,2021-09-17,2021-09-17,株式会社ＡＤＤＶＡＬＵＥ,,株式会社,北海道,旭川市,東三条３丁目１番３号,,01,204,0700023,,,,,,,2021-09-17,1,,,,,アッドヴァリュー,0
793,3480001011499,新規,0,2021-09-17,2021-09-17,株式会社櫻琳,,株式会社,徳島県,鳴門市,撫養町林崎字南殿町５７番地,,36,202,7720016,,,,,,,2021-09-17,1,,,,,オウリン,0
807,4010001221185,新規,0,2021-09-17,2021-09-17,株式会社ＡＭＳプラス,,株式会社,東京都,千代田区,丸の内３丁目４番２号,,13,101,1000005,,,,,,,2021-09-17,1,,,,,エーエムエスプラス,0
808,4010001221227,新規,0,2021-09-17,2021-09-17,株式会社Ｅｌｌｅｐａｐｉ,,株式会社,東京都,千代田区,九段南２丁目４番１６号パレス２１ビル２Ｆ,,13,101,1020074,,,,,,,2021-09-17,1,,,,,エルパピ,0
809,4010001221235,新規,0,2021-09-17,2021-09-17,株式会社ＢＡＳＩＣ,,株式会社,東京都,中央区,八重洲２丁目６番５号,,13,102,1040028,,,,,,,2021-09-17,1,,,,,ベィシック,0
814,4010003035823,新規,0,2021-09-17,2021-09-17,Ｎ２ブルワリー合同会社,,合同会社,東京都,中央区,新川２丁目１９番６,,13,102,1040033,,,,,,,2021-09-17,1,,,,,エヌツーブルワリー,0
815,4010003035856,新規,0,2021-09-17,2021-09-17,合同会社Ｓｔｒａｉｔｓ　Ｈｉｍａｗａｒｉ　ＧＫ　Ｔｗｏ,,合同会社,東京都,中央区,新富１丁目１５番３号ジパングアウトソーシングサービス内,,13,102,1040041,,,,,,,2021-09-17,1,,,,,ストレイツヒマワリジーケーツー,0
820,4010401162681,新規,0,2021-09-17,2021-09-17,株式会社ｓｈｉｒｏｍｅ,,株式会社,東京都,港区,南青山３丁目１５番９号ＭＩＮＯＷＡ表参道３階,,13,103,1070062,,,,,,,2021-09-17,1,,,,,シロメ,0
821,4010401162756,新規,0,2021-09-17,2021-09-17,ＩＤＲ　Ｈｏｌｄｉｎｇｓ株式会社,,株式会社,東京都,港区,北青山２丁目１０番２８号,,13,103,1070061,,,,,,,2021-09-17,1,,,,,アイディーアールホールディングス,0
825,4010403026117,新規,0,2021-09-17,2021-09-17,合同会社ウオスケ,,合同会社,東京都,港区,浜松町１丁目２８番１３号,,13,103,1050013,,,,,,,2021-09-17,1,,,,,ウオスケ,0
828,4010605003995,新規,0,2021-09-17,2021-09-17,医療法人社団Ｅ．Ｙ．Ｄｅｎｔ,,その他の設立登記法人,東京都,墨田区,京島１丁目２０番７号小野内ビル１階,,13,107,1310046,,,,,,,2021-09-17,1,,,,,イーワイデント,0
832,4010701041536,新規,0,2021-09-17,2021-09-17,グラブ・ジー株式会社,,株式会社,東京都,品川区,西五反田２丁目３１番５号セブンスターマンション第５五反田８０２,,13,109,1410031,,,,,,,2021-09-17,1,,,,,グラブジー,0
849,4011101096294,新規,0,2021-09-17,2021-09-17,株式会社エルジーアール,,株式会社,東京都,新宿区,西新宿１丁目１４番１５号タウンウエストビル６階,,13,104,1600023,,,,,,,2021-09-17,1,,,,,エルジーアール,0
850,4011101096303,新規,0,2021-09-17,2021-09-17,株式会社ポップアスリート,,株式会社,東京都,新宿区,四谷４丁目２５番９号マンション新宿御苑１００１号室,,13,104,1600004,,,,,,,2021-09-17,1,,,,,ポップアスリート,0
851,4011103011012,新規,0,2021-09-17,2021-09-17,高野商事合同会社,,合同会社,東京都,新宿区,大久保２丁目６番１８号アルカーデンシティリンクス５０６号,,13,104,1690072,,,,,,,2021-09-17,1,,,,,タカノショウジ,0
860,4011303004179,新規,0,2021-09-17,2021-09-17,ＶＩＮＡＫＵＮ合同会社,,合同会社,東京都,杉並区,阿佐谷北４丁目９番１８－７０４号ライオンズマンション阿佐ヶ谷中杉通り,,13,115,1660001,,,,,,,2021-09-17,1,,,,,ヴィナクン,0
861,4011305002775,新規,0,2021-09-17,2021-09-17,特定非営利活動法人こどもの明るい未来を創る会,,その他の設立登記法人,東京都,杉並区,荻窪４丁目３０番１６号藤澤ビルディング８階,,13,115,1670051,,,,,,,2021-09-17,1,,,,,コドモノアカルイミライヲツクルカイ,0
864,4011603003392,新規,0,2021-09-17,2021-09-17,アトリエファーム合同会社,,合同会社,東京都,練馬区,氷川台３丁目３６番７－２０５号,,13,120,1790084,,,,,,,2021-09-17,1,,,,,アトリエファーム,0
875,4012701016666,新規,0,2021-09-17,2021-09-17,株式会社マーミー,,株式会社,東京都,東村山市,栄町２丁目１０番地５エルム久米川Ｂ１－Ｂ,,13,213,1890013,,,,,,,2021-09-17,1,,,,,マーミー,0
877,4012803002597,新規,0,2021-09-17,2021-09-17,合同会社ＧｏｒｉｌｌａＴｅｃｈ,,合同会社,東京都,立川市,柴崎町３丁目８－５立川ＮＸビル５０２,,13,202,1900023,,,,,,,2021-09-17,1,,,,,ゴリラテック,0
881,4013301048026,新規,0,2021-09-17,2021-09-17,株式会社Ｑｕｒｅ,,株式会社,東京都,豊島区,東池袋１丁目４２番１２号ステーションサイドビル３階,,13,116,1700013,,,,,,,2021-09-17,1,,,,,キュア,0
883,4013303005826,新規,0,2021-09-17,2021-09-17,合同会社ハントハウス,,合同会社,東京都,豊島区,東池袋１丁目４４－１０タイガースビル８０２,,13,116,1700013,,,,,,,2021-09-17,1,,,,,ハントハウス,0
891,4020001143016,新規,0,2021-09-17,2021-09-17,株式会社ＤＣＡ,,株式会社,神奈川県,川崎市川崎区,東田町２番地１９エステムプラザ川崎１４階,,14,131,2100005,,,,,,,2021-09-17,1,,,,,ディーシーエー,0
892,4020001143032,新規,0,2021-09-17,2021-09-17,株式会社Ｉｋｋｅｎ,,株式会社,神奈川県,横浜市保土ケ谷区,明神台２番２－６０２号,,14,106,2400007,,,,,,,2021-09-17,1,,,,,イッケン,0
893,4020001143049,新規,0,2021-09-17,2021-09-17,ＶＯＷＳ株式会社,,株式会社,神奈川県,横浜市旭区,善部町１３８番地２１,,14,112,2410823,,,,,,,2021-09-17,1,,,,,ヴォース,0
923,4040005021307,新規,0,2021-09-17,2021-09-17,宇那谷開拓農業協同組合,,その他の設立登記法人,千葉県,千葉市花見川区,宇那谷町２４０番地,,12,102,2620003,,,,,,,2021-09-17,1,,,,,,0
926,4050001049854,新規,0,2021-09-17,2021-09-17,株式会社Ｈａｒｉｙａ,,株式会社,茨城県,坂東市,沓掛４０４１番地１,,08,228,3060515,,,,,,,2021-09-17,1,,,,,ハリヤ,0
930,4050005012932,新規,0,2021-09-17,2021-09-17,特定非営利活動法人ＩＣ探検隊,,その他の設立登記法人,茨城県,日立市,大みか町６丁目１１番１号,,08,202,3191221,,,,,,,2021-09-17,1,,,,,アイシータンケンタイ,0
939,4070005009902,新規,0,2021-09-17,2021-09-17,一般社団法人ＩＣＴ教育機構,,その他の設立登記法人,群馬県,高崎市,倉賀野町４５３５番地１－２Ｆ,,10,202,3701201,,,,,,,2021-09-17,1,,,,,アイシーティーキョウイクキコウ,0
953,4110001036045,新規,0,2021-09-17,2021-09-17,ロメロトレード株式会社,,株式会社,新潟県,新潟市北区,松浜６丁目１３番地２２,,15,101,9503126,,,,,,,2021-09-17,1,,,,,ロメロトレード,0
974,4120003020269,新規,0,2021-09-17,2021-09-17,ＦＣベース合同会社,,合同会社,大阪府,大阪市淀川区,新高２丁目６番２８－１２１２号,,27,123,5320033,,,,,,,2021-09-17,1,,,,,エフシーベース,0
990,4122001035182,新規,0,2021-09-17,2021-09-17,株式会社創新,,株式会社,大阪府,東大阪市,稲葉３丁目１１番２２号,,27,227,5780925,,,,,,,2021-09-17,1,,,,,ソウシン,0
1000,4130003007488,新規,0,2021-09-17,2021-09-17,合同会社Ａｓｓｉｓｔ　ｙｏｕ,,合同会社,京都府,木津川市,城山台１３丁目２３番地４,,26,214,6190218,,,,,,,2021-09-17,1,,,,,アシストユウ,0
1012,4140003016752,新規,0,2021-09-17,2021-09-17,合同会社ゼン,,合同会社,兵庫県,尼崎市,北大物町９番１３号,,28,202,6600804,,,,,,,2021-09-17,1,,,,,ゼン,0
1016,4150003002487,新規,0,2021-09-17,2021-09-17,ＣＵＰＳ合同会社,,合同会社,奈良県,奈良市,都祁白石町１５５１,00124273,29,201,6320221,,,,,,,2021-09-17,1,,,,,カップス,0
1019,4170001016784,新規,0,2021-09-17,2021-09-17,山寿工業株式会社,,株式会社,和歌山県,和歌山市,築港５丁目１５番地,,30,201,6408287,,,,,,,2021-09-17,1,,,,,ヤマヒサコウギョウ,0
1031,4180001147819,新規,0,2021-09-17,2021-09-17,株式会社中庄センター,,株式会社,愛知県,北名古屋市,中之郷北１３７番地,,23,234,4810045,,,,,,,2021-09-17,1,,,,,ナカショウセンター,0
1032,4180001147843,新規,0,2021-09-17,2021-09-17,株式会社Ｔｅｎｄｅｒ,,株式会社,愛知県,名古屋市中区,千代田１丁目８番２１号千代田ビル７階,,23,106,4600012,,,,,,,2021-09-17,1,,,,,テンダー,0
1033,4180001147892,新規,0,2021-09-17,2021-09-17,株式会社誠幸,,株式会社,愛知県,名古屋市守山区,幸心２丁目５１４番地,,23,113,4630079,,,,,,,2021-09-17,1,,,,,セイコウ,0
1037,4180005019436,新規,0,2021-09-17,2021-09-17,医療法人輝信会,,その他の設立登記法人,愛知県,名古屋市名東区,藤が丘１７０番地４藤が丘エフ２階,,23,115,4650032,,,,,,,2021-09-17,1,,,,,キシンカイ,0
1040,4190001028687,新規,0,2021-09-17,2021-09-17,株式会社エレクトレーション,,株式会社,三重県,鈴鹿市,住吉１丁目１２番２２号,,24,207,5130826,,,,,,,2021-09-17,1,,,,,エレクトレーション,0
1042,4200001039146,新規,0,2021-09-17,2021-09-17,株式会社ｍｏｙａｉ,,株式会社,岐阜県,可児市,下恵土７８番地１,,21,214,5090203,,,,,,,2021-09-17,1,,,,,モヤイ,0
1050,4240003005282,新規,0,2021-09-17,2021-09-17,合同会社さち,,合同会社,広島県,広島市南区,東本浦町１０番３０号,,34,103,7340025,,,,,,,2021-09-17,1,,,,,サチ,0
1052,4260001035965,新規,0,2021-09-17,2021-09-17,株式会社ＣＡＶＯＬＯ,,株式会社,岡山県,岡山市北区,建部町西原８８番地,,33,101,7093133,,,,,,,2021-09-17,1,,,,,カヴォロ,0
1056,4290001094686,新規,0,2021-09-17,2021-09-17,株式会社マイラム,,株式会社,福岡県,福岡市西区,今宿３丁目２番５７号,,40,135,8190167,,,,,,,2021-09-17,1,,,,,マイラム,0
1057,4290001094711,新規,0,2021-09-17,2021-09-17,株式会社Ａｌｗｅｌｌ,,株式会社,福岡県,古賀市,美明３丁目１番７号,,40,223,8113107,,,,,,,2021-09-17,1,,,,,オルウェル,0
1060,4290003011631,新規,0,2021-09-17,2021-09-17,合同会社ＦＡＴＰＯＣＫＥＴＳ,,合同会社,福岡県,福岡市南区,高宮４丁目５－６,,40,134,8150083,,,,,,,2021-09-17,1,,,,,ファットポケット,0
1066,4320002022840,新規,0,2021-09-17,2021-09-17,新建興業有限会社,,有限会社,大分県,大分市,山津町２丁目５番１８号,,44,201,8700136,,,,,,,2021-09-17,1,,,,,シンケンコウギョウ,0
1071,4330003009043,新規,0,2021-09-17,2021-09-17,Ｆｉｅｌｄｒｉｖｅｒ合同会社,,合同会社,熊本県,熊本市西区,上代１丁目３－４１,,43,103,8600068,,,,,,,2021-09-17,1,,,,,フィールドリバー,0
1074,4360003011450,新規,0,2021-09-17,2021-09-17,ハレトケ合同会社,,合同会社,沖縄県,うるま市,字赤道１１番地１５,,47,213,9042245,,,,,,,2021-09-17,1,,,,,ハレトケ,0
1091,4410003003574,新規,0,2021-09-17,2021-09-17,合同会社大仙富士見,,合同会社,秋田県,大仙市,富士見町６番５６号,,05,212,0140011,,,,,,,2021-09-17,1,,,,,ダイセンフジミ,0
1093,4420003002377,新規,0,2021-09-17,2021-09-17,下村農園合同会社,,合同会社,青森県,三戸郡五戸町,大字倉石又重字舘町８８番地,,02,442,0391703,,,,,,,2021-09-17,1,,,,,シモムラノウエン,0
1095,4430005014279,新規,0,2021-09-17,2021-09-17,医療法人博聖会,,その他の設立登記法人,北海道,札幌市手稲区,新発寒二条１丁目１番１０号ＣＲＯＳＳＭＡＬＬ,,01,109,0060802,,,,,,,2021-09-17,1,,,,,ハクセイカイ,0
1099,4480001011498,新規,0,2021-09-17,2021-09-17,株式会社橘湾白扇ターミナル,,株式会社,徳島県,阿南市,橘町鍋浦３２番地,,36,204,7740023,,,,,,,2021-09-17,1,,,,,タチバナワンハクセンターミナル,0
1104,4700150102488,新規,0,2021-09-17,2021-03-24,東武大宮公園サンライトマンション弐番館管理組合,,その他,埼玉県,さいたま市大宮区,寿能町１丁目１５９番地２,,11,103,3300805,,,,,,,2021-03-24,1,,,,,トウブオオミヤコウエンサンライトマンシヨンニバンカンカンリクミアイ,0
1105,4700150104550,新規,0,2021-09-17,2021-08-31,バッハホール管弦楽団,,その他,宮城県,加美郡加美町,字一本杉１０１,,04,445,9814262,,,,,,,2021-08-31,1,,,,,バツハホールカンゲンガクダン,0
1115,5010001221135,新規,0,2021-09-17,2021-09-17,Ｘ－ｂｏｒｄｅｒ　Ｐａｒｔｎｅｒｓ株式会社,,株式会社,東京都,中央区,銀座６丁目９－８銀座ＵＫビル５階,,13,102,1040061,,,,,,,2021-09-17,1,,,,,クロスボーダーパートナーズ,0
1116,5010001221176,新規,0,2021-09-17,2021-09-17,ナイスデイツアー株式会社,,株式会社,東京都,千代田区,麹町２丁目２番ＶＯＲＴ半蔵門Ⅱ,00124271,13,101,1020083,,,,,,,2021-09-17,1,,,,,ナイスデイツアー,0
1117,5010001221184,新規,0,2021-09-17,2021-09-17,株式会社ＴＳＵＢＡＳＡ,,株式会社,東京都,文京区,本駒込６丁目１４番４－６０３号,,13,105,1130021,,,,,,,2021-09-17,1,,,,,ツバサ,0
1118,5010001221242,新規,0,2021-09-17,2021-09-17,株式会社ＴＲＩ　Ｅｘｐｒｅｓｓ,,株式会社,東京都,中央区,東日本橋１丁目９番２号,,13,102,1030004,,,,,,,2021-09-17,1,,,,,トライエクスプレス,0
1124,5010101014868,新規,0,2021-09-17,2021-09-17,株式会社サトウ水道サービス,,株式会社,東京都,八王子市,八木町５番１号,,13,201,1920055,,,,,,,2021-09-17,1,,,,,サトウスイドウサービス,0
1139,5010405020224,新規,0,2021-09-17,2021-09-17,司法書士法人ＰＧＡ,,その他の設立登記法人,東京都,港区,六本木４丁目８番７号六本木三河台ビル５階,,13,103,1060032,,,,,,,2021-09-17,1,,,,,ピーシーエー,0
1146,5010801032310,新規,0,2021-09-17,2021-09-17,株式会社４ＴＲ,,株式会社,東京都,大田区,西嶺町２番２号,,13,111,1450075,,,,,,,2021-09-17,1,,,,,フォーティーアール,0
1157,5011001142817,新規,0,2021-09-17,2021-09-17,株式会社Ｕｎｒｕｌｙ,,株式会社,東京都,渋谷区,神宮前６丁目２３番４号桑野ビル２階,,13,113,1500001,,,,,,,2021-09-17,1,,,,,アンルーリー,0
1158,5011001142825,新規,0,2021-09-17,2021-09-17,株式会社メタバス,,株式会社,東京都,渋谷区,渋谷２丁目１９－１５宮益坂ビルディング６０９,,13,113,1500002,,,,,,,2021-09-17,1,,,,,メタバス,0
1159,5011001142858,新規,0,2021-09-17,2021-09-17,株式会社ｕｒｂａｎ,,株式会社,東京都,目黒区,大橋１丁目３番５－５０３号ロイヤルアメニティー池尻大橋,,13,110,1530044,,,,,,,2021-09-17,1,,,,,アーバン,0
1160,5011101096293,新規,0,2021-09-17,2021-09-17,株式会社ラプレース,,株式会社,東京都,新宿区,新宿２丁目６番３号藤和新宿コープ７０２号室,,13,104,1600022,,,,,,,2021-09-17,1,,,,,ラプレース,0
1161,5011101096310,新規,0,2021-09-17,2021-09-17,株式会社デジタルジャパン,,株式会社,東京都,新宿区,東五軒町５番８－１１０７号,,13,104,1620813,,,,,,,2021-09-17,1,,,,,デジタルジャパン,0
1162,5011101096319,新規,0,2021-09-17,2021-09-17,株式会社ベオスアイティーホールディングス,,株式会社,東京都,新宿区,西新宿５丁目５－１,,13,104,1600023,,,,,,,2021-09-17,1,,,,,ベオスアイティーホールディングス,0
1164,5011301027189,新規,0,2021-09-17,2021-09-17,共立コンサルティング株式会社,,株式会社,東京都,杉並区,宮前１丁目２０番２９－６０８号,,13,115,1680081,,,,,,,2021-09-17,1,,,,,キョウリツコンサルティング,0
1168,5012405004644,新規,0,2021-09-17,2021-09-17,医療法人社団安真会,,その他の設立登記法人,東京都,三鷹市,新川６丁目９番６号シンエイビル２階,,13,204,1810004,,,,,,,2021-09-17,1,,,,,アンシンカイ,0
1169,5012701016673,新規,0,2021-09-17,2021-09-17,株式会社エッセンシャル・アカデミー,,株式会社,東京都,東久留米市,東本町８－１４,,13,222,2030014,,,,,,,2021-09-17,1,,,,,エッセンシャルアカデミー,0
1175,5013301048025,新規,0,2021-09-17,2021-09-17,株式会社グループ,,株式会社,東京都,豊島区,東池袋３丁目９番９号,,13,116,1700013,,,,,,,2021-09-17,1,,,,,グループ,0
1179,5020001142999,新規,0,2021-09-17,2021-09-17,株式会社ワカキ,,株式会社,神奈川県,川崎市麻生区,栗木台３丁目４番８号オーチャードＡ２０２,,14,137,2150032,,,,,,,2021-09-17,1,,,,,ワカキ,0
1180,5020001143015,新規,0,2021-09-17,2021-09-17,株式会社セカンド,,株式会社,神奈川県,横浜市神奈川区,羽沢町１７９８番地１,,14,102,2210863,,,,,,,2021-09-17,1,,,,,セカンド,0
1181,5020001143048,新規,0,2021-09-17,2021-09-17,株式会社ＴＹ　ｔｒｕｓｓ,,株式会社,神奈川県,横浜市中区,石川町４丁目１５８番地１－３０２号室,,14,104,2310868,,,,,,,2021-09-17,1,,,,,ティーワイトラス,0
1188,5020005015210,新規,0,2021-09-17,2021-09-17,一般社団法人直流機・高圧電動機修理・保守技術研究会,,その他の設立登記法人,神奈川県,横浜市青葉区,荏田北２丁目１９番地１２,,14,117,2250015,,,,,,,2021-09-17,1,,,,,チョクリュウキコウアツデンドウキシュウリホシュギジュツケンキュウカイ,0
1201,5030001144458,新規,0,2021-09-17,2021-09-17,Ｌｙｎｋ株式会社,,株式会社,埼玉県,さいたま市浦和区,高砂２丁目１－２,,11,107,3300063,,,,,,,2021-09-17,1,,,,,リンク,0
1202,5030005020523,新規,0,2021-09-17,2021-09-17,特定非営利活動法人風天の杜,,その他の設立登記法人,埼玉県,北足立郡伊奈町,大字小室字赤羽４７８９番３,,11,301,3620806,,,,,,,2021-09-17,1,,,,,フウテンノモリ,0
1207,5040001120243,新規,0,2021-09-17,2021-09-17,株式会社ＡＬＬ　ＢＬＵＥ,,株式会社,千葉県,船橋市,藤原７丁目３１－５６,,12,204,2730047,,,,,,,2021-09-17,1,,,,,オールブルー,0
1244,5090005007432,新規,0,2021-09-17,2021-09-17,一般社団法人タニラダー協会,,その他の設立登記法人,山梨県,甲斐市,中下条２０３番地３,,19,210,4000124,,,,,,,2021-09-17,1,,,,,タニラダーキョウカイ,0
1268,5120001240520,新規,0,2021-09-17,2021-09-17,株式会社ハウスオール,,株式会社,大阪府,大阪市此花区,高見１丁目５番４６号,,27,104,5540001,,,,,,,2021-09-17,1,,,,,ハウスオール,0
1273,5120105009449,新規,0,2021-09-17,2021-09-17,一般財団法人日本ランボルギーニ・オーナーズ協会,,その他の設立登記法人,大阪府,松原市,上田８丁目１５番１２号,,27,217,5800016,,,,,,,2021-09-17,1,,,,,ニホンランボルギーニオーナーズキョウカイ,0
1276,5122001035181,新規,0,2021-09-17,2021-09-17,株式会社吉昌,,株式会社,大阪府,東大阪市,西石切町１丁目６番２８号,,27,227,5798013,,,,,,,2021-09-17,1,,,,,ヨシマサ,0
1284,5140001123054,新規,0,2021-09-17,2021-09-17,株式会社Ｋ－ＴＥＣ,,株式会社,兵庫県,尼崎市,西御園町１１４番地サンロイヤル御園１０５号,,28,202,6600868,,,,,,,2021-09-17,1,,,,,ケーテック,0
1285,5140001123070,新規,0,2021-09-17,2021-09-17,株式会社ａｌｏｈａｊｉ,,株式会社,兵庫県,神戸市中央区,波止場町３番３号,,28,110,6500042,,,,,,,2021-09-17,1,,,,,アロハジ,0
1290,5140003016743,新規,0,2021-09-17,2021-09-17,合同会社ヤマグチ,,合同会社,兵庫県,川西市,水明台３丁目５番地の２４,,28,217,6660116,,,,,,,2021-09-17,1,,,,,ヤマグチ,0
1291,5140003016751,新規,0,2021-09-17,2021-09-17,合同会社リレイトオール,,合同会社,兵庫県,神戸市中央区,東川崎町１丁目８番４号神戸市産業振興センター５階５－１,,28,110,6500044,,,,,,,2021-09-17,1,,,,,リレイトオール,0
1296,5170001016783,新規,0,2021-09-17,2021-09-17,株式会社シーズ工業,,株式会社,和歌山県,和歌山市,小倉６３９番地４,,30,201,6496261,,,,,,,2021-09-17,1,,,,,シーズコウギョウ,0
1302,5180001147883,新規,0,2021-09-17,2021-09-17,株式会社アスブライト,,株式会社,愛知県,日進市,香久山２丁目１６０７番地羽地ビル２階,,23,230,4700134,,,,,,,2021-09-17,1,,,,,アスブライト,0
1305,5180003022977,新規,0,2021-09-17,2021-09-17,合同会社安達商事,,合同会社,愛知県,あま市,七宝町川部出屋敷８０番地,,23,237,4970013,,,,,,,2021-09-17,1,,,,,アダチショウジ,0
1311,5180301035391,新規,0,2021-09-17,2021-09-17,ＬＴＭソリューションズ株式会社,,株式会社,愛知県,豊川市,諏訪３丁目９２番地の３,,23,207,4420068,,,,,,,2021-09-17,1,,,,,エルティーエムソリューションズ,0
1330,5240003005281,新規,0,2021-09-17,2021-09-17,命安豊樹合同会社,,合同会社,広島県,三次市,塩町１９７６番地,,34,209,7296205,,,,,,,2021-09-17,1,,,,,メイアンホウジュ,0
1341,5290001094495,新規,0,2021-09-17,2021-09-17,株式会社ＣＨＡＮＴ,,株式会社,福岡県,太宰府市,大佐野４丁目５番３号,,40,221,8180134,,,,,,,2021-09-17,1,,,,,チャント,0
1342,5290001094677,新規,0,2021-09-17,2021-09-17,株式会社夢みるくじら,,株式会社,福岡県,福岡市南区,柏原３丁目３３番３７号,,40,134,8111353,,,,,,,2021-09-17,1,,,,,ユメミルクジラ,0
1343,5290001094702,新規,0,2021-09-17,2021-09-17,株式会社サスティナプロジェクト,,株式会社,福岡県,福岡市南区,大楠３丁目２８番３３号,,40,134,8150082,,,,,,,2021-09-17,1,,,,,サスティナプロジェクト,0
1349,5300003001720,新規,0,2021-09-17,2021-09-17,涼風・エスコート合同会社,,合同会社,佐賀県,西松浦郡有田町,岩谷川内２丁目１番５号,,41,401,8440011,,,,,,,2021-09-17,1,,,,,スズカゼエスコート,0
1352,5320001018608,新規,0,2021-09-17,2021-09-17,株式会社長谷,,株式会社,大分県,大分市,下郡中央３丁目９番４１号,,44,201,8700954,,,,,,,2021-09-17,1,,,,,ハセ,0
1361,5330003009042,新規,0,2021-09-17,2021-09-17,合同会社ＭＡＫＩ百年ライフデザイン企画オフィス,,合同会社,熊本県,熊本市中央区,坪井６丁目８－１５アドバンス２１セントラルパーク壱番館４０３号,,43,101,8600863,,,,,,,2021-09-17,1,,,,,マキヒャクネンライフデザインキカクオフィス,0
1368,5360005006514,新規,0,2021-09-17,2021-09-17,一般社団法人福祉サービス支援ライオンラビット,,その他の設立登記法人,沖縄県,沖縄市,諸見里１丁目１１番２０号,,47,211,9040032,,,,,,,2021-09-17,1,,,,,フクシサービスシエンライオンラビット,0
1379,5390003001869,新規,0,2021-09-17,2021-09-17,合同会社山の手仕事,,合同会社,山形県,西村山郡朝日町,大字太郎１５７２番地,,06,323,9901572,,,,,,,2021-09-17,1,,,,,ヤマノテシゴト,0
1380,5400001015605,新規,0,2021-09-17,2021-09-17,株式会社Ｍｉ－Ｃａｔ,,株式会社,岩手県,花巻市,若葉町３丁目１４番２４号,,03,205,0250097,,,,,,,2021-09-17,1,,,,,エムアイキャット,0
1381,5410001012964,新規,0,2021-09-17,2021-09-17,Ｏｎｅ　Ｌｉｆｅ株式会社,,株式会社,秋田県,秋田市,中通２丁目２番３２号山二ビル６階,,05,201,0100001,,,,,,,2021-09-17,1,,,,,ワンライフ,0
1383,5420001017582,新規,0,2021-09-17,2021-09-17,Ｖ‐ｆａｒｍｓ株式会社,,株式会社,青森県,つがる市,牛潟町潟上４９番地,,02,209,0383305,,,,,,,2021-09-17,1,,,,,ブイファームズ,0
1391,5430003013133,新規,0,2021-09-17,2021-09-17,合同会社リゾネートデザイン,,合同会社,北海道,札幌市東区,北十五条東６丁目４番５９－２０１号,,01,103,0650015,,,,,,,2021-09-17,1,,,,,リゾネートデザイン,0
1392,5430003013158,新規,0,2021-09-17,2021-09-17,合同会社奥江別,,合同会社,北海道,江別市,二条２丁目６番地,,01,217,0670012,,,,,,,2021-09-17,1,,,,,オクエベツ,0
1393,5430005014278,新規,0,2021-09-17,2021-09-17,医療法人社団慶風会,,その他の設立登記法人,北海道,札幌市清田区,北野三条１丁目１２番１号,,01,110,0040863,,,,,,,2021-09-17,1,,,,,ケイフウカイ,0
1394,5450005004310,新規,0,2021-09-17,2021-09-17,一般社団法人北海道健康科学ＤＸ社,,その他の設立登記法人,北海道,旭川市,東光五条１０丁目１番４号,,01,204,0788345,,,,,,,2021-09-17,1,,,,,ホッカイドウケンコウカガクディーエックスシャ,0
1399,5480001011497,新規,0,2021-09-17,2021-09-17,株式会社ＦＫＪ,,株式会社,徳島県,阿南市,才見町三本松４３番地１,,36,204,7740015,,,,,,,2021-09-17,1,,,,,エフケージェー,0
1400,5480003001728,新規,0,2021-09-17,2021-09-17,合同会社Ｌ′ｅｐｉｃ,,合同会社,徳島県,徳島市,北沖洲２丁目１番１０号,,36,201,7700872,,,,,,,2021-09-17,1,,,,,レピック,0
1408,6010001221134,新規,0,2021-09-17,2021-09-17,株式会社ボイスリズ,,株式会社,東京都,中央区,銀座１丁目２２番１１号,,13,102,1040061,,,,,,,2021-09-17,1,,,,,ボイスリズ,0
1409,6010001221142,新規,0,2021-09-17,2021-09-17,住商コルバスエナジー株式会社,,株式会社,東京都,千代田区,神田錦町２丁目２番地１（ＫＡＮＤＡ・ＳＱＵＡＲＥ・１９Ｆ）,,13,101,1010054,,,,,,,2021-09-17,1,,,,,スミショウコルバスエナジー,0
1410,6010001221209,新規,0,2021-09-17,2021-09-17,美満株式会社,,株式会社,東京都,中央区,東日本橋２丁目２８番５号５０８,,13,102,1030004,,,,,,,2021-09-17,1,,,,,ミマン,0
1415,6010005033988,新規,0,2021-09-17,2021-09-17,アースタックス一般社団法人,,その他の設立登記法人,東京都,中央区,銀座１丁目６番１１号土志田ビルディング３Ｆ,,13,102,1040061,,,,,,,2021-09-17,1,,,,,アースタックス,0
1416,6010103001772,新規,0,2021-09-17,2021-09-17,合同会社ＹｏｕＴＡＫＡＳＡ,,合同会社,東京都,八王子市,南大沢５丁目６番地２－６０６,,13,201,1920364,,,,,,,2021-09-17,1,,,,,ユタカサ,0
1422,6010401162779,新規,0,2021-09-17,2021-09-17,Ｈｉｋａｒｉ　Ａｃｑｕｉｓｉｔｉｏｎ株式会社,,株式会社,東京都,港区,愛宕２丁目５番１号愛宕グリーンヒルズＭＯＲＩタワー３７階税理士法人ＡＫＪパートナーズ内,,13,103,1050002,,,,,,,2021-09-17,1,,,,,ヒカリアクイジション,0
1425,6010403026148,新規,0,2021-09-17,2021-09-17,合同会社Ａｃｃｅｌｅｒ　Ｄｉｇｉｔａｌ,,合同会社,東京都,港区,六本木１丁目９番３５－７０７号,,13,103,1060032,,,,,,,2021-09-17,1,,,,,アクセラデジタル,0
1431,6010501047814,新規,0,2021-09-17,2021-09-17,株式会社ＭＴＴＩ,,株式会社,東京都,台東区,元浅草２丁目１１－６－９０２稲荷町タワー,,13,106,1110041,,,,,,,2021-09-17,1,,,,,エムティティアイ,0
1438,6010701041518,新規,0,2021-09-17,2021-09-17,株式会社ＹＧＣ,,株式会社,東京都,品川区,西五反田２丁目１１番８号,,13,109,1410031,,,,,,,2021-09-17,1,,,,,ワイジーシー,0
1449,6011001142824,新規,0,2021-09-17,2021-09-17,株式会社ＳｏａｒＴｅｃ．ｌａｂ,,株式会社,東京都,渋谷区,神宮前６丁目２３番４号桑野ビル２階,,13,113,1500001,,,,,,,2021-09-17,1,,,,,ソアーテックラボ,0
1452,6011101096292,新規,0,2021-09-17,2021-09-17,株式会社ＳａｓａＥＬ,,株式会社,東京都,新宿区,市谷薬王寺町５８番地市ヶ谷春日マンション４０４,,13,104,1620063,,,,,,,2021-09-17,1,,,,,ササエル,0
1453,6011101096326,新規,0,2021-09-17,2021-09-17,株式会社ＷＩＮ　ＷＩＮ,,株式会社,東京都,新宿区,西新宿５丁目５番１－２９１２号室,,13,104,1600023,,,,,,,2021-09-17,1,,,,,ウィンウィン,0
1454,6011105009969,新規,0,2021-09-17,2021-09-17,医療法人社団Ｓ＆Ａ　Ｄｅｎｔａｌ　Ｐａｒｔｎｅｒｓ,,その他の設立登記法人,東京都,新宿区,西新宿８丁目１６番１新宿グランドプラザ１０２号,,13,104,1600023,,,,,,,2021-09-17,1,,,,,エスアンドエーデンタルパートナーズ,0
1455,6011201023254,新規,0,2021-09-17,2021-09-17,株式会社ぱやぱや,,株式会社,東京都,中野区,松が丘１丁目３５番４号,,13,114,1650024,,,,,,,2021-09-17,1,,,,,パヤパヤ,0
1456,6011301027114,新規,0,2021-09-17,2021-09-17,日発教育センター株式会社,,株式会社,東京都,杉並区,南荻窪４丁目２９－１０田丸ビル３階,,13,115,1670052,,,,,,,2021-09-17,1,,,,,ヒハツキョウイクセンター,0
1463,6011403003442,新規,0,2021-09-17,2021-09-17,ＡＧＣ合同会社,,合同会社,東京都,板橋区,東新町１丁目１２番８号,,13,119,1740074,,,,,,,2021-09-17,1,,,,,エージーシー,0
1465,6011503004893,新規,0,2021-09-17,2021-09-17,合同会社МＥＬＴｅｄМＥＡＤＯＷ,,合同会社,東京都,荒川区,東尾久６丁目４０番８号,,13,118,1160012,,,,,,,2021-09-17,1,,,,,メルテットメドウ,0
1466,6011601025404,新規,0,2021-09-17,2021-09-17,株式会社ソイチ設計,,株式会社,東京都,練馬区,東大泉３丁目３０番地９号昭栄マンション１０１,,13,120,1780063,,,,,,,2021-09-17,1,,,,,ソイチセッケイ,0
1475,6012401038307,新規,0,2021-09-17,2021-09-17,株式会社資産情報技術研究所,,株式会社,東京都,武蔵野市,御殿山１丁目１１番１２号吉祥寺御殿山ＨＯＵＳＥ１１４号,,13,203,1800005,,,,,,,2021-09-17,1,,,,,シサンジョウホウケンキュウショ,0
1491,6020003020491,新規,0,2021-09-17,2021-09-17,合同会社ソアリス,,合同会社,神奈川県,横浜市港北区,新横浜３丁目７番地１８日総第１８ビル５０１号室,,14,109,2220033,,,,,,,2021-09-17,1,,,,,ソアリス,0
1497,6021005012295,新規,0,2021-09-17,2021-09-17,一般社団法人湊会,,その他の設立登記法人,神奈川県,座間市,さがみ野２丁目１番３０号さがみ野ダイヤモンドマンション１階,,14,216,2520005,,,,,,,2021-09-17,1,,,,,ミナトカイ,0
1504,6030001144267,新規,0,2021-09-17,2021-09-17,株式会社Ｓｋｙ　ｋｉｔｃｈｅｎ,,株式会社,埼玉県,川越市,中原町２丁目９番地４,,11,201,3500042,,,,,,,2021-09-17,1,,,,,スカイキッチン,0
1517,6040005021354,新規,0,2021-09-17,2021-09-17,一般社団法人白檀会,,その他の設立登記法人,千葉県,船橋市,馬込西３丁目７９７番７,,12,204,2730855,,,,,,,2021-09-17,1,,,,,ビャクダンカイ,0
1520,6050001049852,新規,0,2021-09-17,2021-09-17,株式会社そーかい,,株式会社,茨城県,つくばみらい市,富士見ヶ丘１丁目１８番地１,,08,235,3002417,,,,,,,2021-09-17,1,,,,,,0
1523,6050003006075,新規,0,2021-09-17,2021-09-17,合同会社サンライト,,合同会社,茨城県,稲敷郡河内町,長竿３８８４番地,,08,447,3001312,,,,,,,2021-09-17,1,,,,,サンライト,0
1524,6050003006083,新規,0,2021-09-17,2021-09-17,合同会社ポセイドン,,合同会社,茨城県,石岡市,並木３番１６号、２０１,,08,205,3150006,,,,,,,2021-09-17,1,,,,,,0
1525,6050005012939,新規,0,2021-09-17,2021-09-17,ＪＩＮＯ協同組合,,その他の設立登記法人,茨城県,土浦市,若松町１９番地１０、２階Ｂ棟,,08,203,3000063,,,,,,,2021-09-17,1,,,,,ジーノ,0
1527,6070003004234,新規,0,2021-09-17,2021-09-17,合同会社城樹,,合同会社,群馬県,館林市,大島町５１９番地２,,10,207,3740001,,,,,,,2021-09-17,1,,,,,シロキ,0
1530,6080001024448,新規,0,2021-09-17,2021-09-17,静宅工房株式会社,,株式会社,静岡県,静岡市葵区,安西４丁目２３番地,,22,101,4200011,,,,,,,2021-09-17,1,,,,,シズタクコウボウ,0
1546,6120001240486,新規,0,2021-09-17,2021-09-17,株式会社セレクトスペース,,株式会社,大阪府,大阪市平野区,長吉出戸７丁目５番２２号２Ｆ,,27,126,5470011,,,,,,,2021-09-17,1,,,,,セレクトスペース,0
1548,6120005022501,新規,0,2021-09-17,2021-09-17,エスクル税理士法人,,その他の設立登記法人,大阪府,大阪市北区,芝田２丁目３番１９号東洋ビルディング本館３０５号室,,27,127,5300012,,,,,,,2021-09-17,1,,,,,エスクル,0
1554,6120901044920,新規,0,2021-09-17,2021-09-17,浪超株式会社,,株式会社,大阪府,吹田市,高野台３丁目９番１１号,,27,205,5650861,,,,,,,2021-09-17,1,,,,,ナミコシ,0
1555,6120903003833,新規,0,2021-09-17,2021-09-17,合同会社華波商店,,合同会社,大阪府,茨木市,宿川原町１１番６号,,27,211,5670055,,,,,,,2021-09-17,1,,,,,カナミショウテン,0
1558,6122003002179,新規,0,2021-09-17,2021-09-17,合同会社ａｎｏｎｅ,,合同会社,大阪府,東大阪市,高井田元町２丁目９番２１―１０３号,,27,227,5770054,,,,,,,2021-09-17,1,,,,,アノネ,0
1567,6140005025816,新規,0,2021-09-17,2021-09-17,一般社団法人エチュード推進協会,,その他の設立登記法人,兵庫県,姫路市,山畑新田７４１番地,,28,201,6700036,,,,,,,2021-09-17,1,,,,,エチュードスイシンキョウカイ,0
1571,6160001023631,新規,0,2021-09-17,2021-09-17,株式会社ＨａｒｕＨｏｍｅ,,株式会社,滋賀県,近江八幡市,堀上町１９０番地１,,25,204,5230031,,,,,,,2021-09-17,1,,,,,ハルホーム,0
1572,6160003002377,新規,0,2021-09-17,2021-09-17,合同会社かみつれ,,合同会社,滋賀県,長浜市,西浅井町岩熊４８５番地,,25,203,5290711,,,,,,,2021-09-17,1,,,,,カミツレ,0
1574,6170001016782,新規,0,2021-09-17,2021-09-17,いちひら工業株式会社,,株式会社,和歌山県,和歌山市,中之島１６４２番地,,30,201,6408392,,,,,,,2021-09-17,1,,,,,イチヒラコウギョウ,0
1591,6180005019442,新規,0,2021-09-17,2021-09-17,特許業務法人石黒国際特許事務所,,その他の設立登記法人,愛知県,名古屋市名東区,上社１丁目１８１３番地の２,,23,115,4650025,,,,,,,2021-09-17,1,,,,,イシグロコクサイトッキョジムショ,0
1602,6260001035963,新規,0,2021-09-17,2021-09-17,株式会社アブレイズ,,株式会社,岡山県,倉敷市,南畝３丁目１番８号,,33,202,7128055,,,,,,,2021-09-17,1,,,,,アブレイズ,0
1604,6290001094643,新規,0,2021-09-17,2021-09-17,ＬＵＮＡＲデザイン株式会社,,株式会社,福岡県,糸島市,志摩稲葉１０５番地,,40,230,8191315,,,,,,,2021-09-17,1,,,,,ルナデザイン,0
1605,6290001094718,新規,0,2021-09-17,2021-09-17,株式会社サンマルクマ,,株式会社,福岡県,福岡市早良区,弥生２丁目４番８－４０１号ウイング藤崎,,40,137,8140014,,,,,,,2021-09-17,1,,,,,サンマルクマ,0
1616,6330005010402,新規,0,2021-09-17,2021-09-17,はばたき協同組合,,その他の設立登記法人,熊本県,熊本市西区,島崎５丁目４６番１０号,,43,103,8600073,,,,,,,2021-09-17,1,,,,,ハバタキ,0
1622,6360001029369,新規,0,2021-09-17,2021-09-17,株式会社サンエム沖縄,,株式会社,沖縄県,那覇市,高良３丁目１７番５号,,47,201,9010145,,,,,,,2021-09-17,1,,,,,サンエムオキナワ,0
1631,6400001015604,新規,0,2021-09-17,2021-09-17,株式会社グリーンライト,,株式会社,岩手県,北上市,柳原町４丁目４－１８ウインザーモード２０５,,03,206,0240083,,,,,,,2021-09-17,1,,,,,グリーンライト,0
1633,6420003002383,新規,0,2021-09-17,2021-09-17,合同会社総造社,,合同会社,青森県,弘前市,大字小比内３丁目２番地３,,02,202,0368102,,,,,,,2021-09-17,1,,,,,ソウゾウシャ,0
1636,6430001085000,新規,0,2021-09-17,2021-09-17,株式会社ランドライン,,株式会社,北海道,札幌市豊平区,美園五条３丁目１番２９－４０５号,,01,105,0620005,,,,,,,2021-09-17,1,,,,,ランドライン,0
1638,6430003013157,新規,0,2021-09-17,2021-09-17,合同会社ＭＭ,,合同会社,北海道,千歳市,稲穂３丁目１２番８号ホークフェザー１３－１０１号,,01,224,0660029,,,,,,,2021-09-17,1,,,,,エムエム,0
1645,6480003001727,新規,0,2021-09-17,2021-09-17,合同会社大泉林業所,,合同会社,徳島県,美馬市,美馬町字城６０番地１,,36,207,7712107,,,,,,,2021-09-17,1,,,,,オオイズミリンギョウショ,0
1647,6500001023687,新規,0,2021-09-17,2021-09-17,中外リクリエイト株式会社,,株式会社,愛媛県,西条市,国安１４６番地１プチ・シャトーＡ２０２号,,38,206,7991322,,,,,,,2021-09-17,1,,,,,チュウガイリクリエイト,0
1648,6700150104573,新規,0,2021-09-17,2021-09-01,ザ・フォレシス管理組合,,その他,千葉県,我孫子市,台田１丁目１－４５,,12,222,2701167,,,,,,,2021-09-01,1,,,,,ザフオレシスカンリクミアイ,0
1659,7010001221117,新規,0,2021-09-17,2021-09-17,サンエイダイヤモンド株式会社,,株式会社,東京都,文京区,目白台２丁目１２番２８号,,13,105,1120015,,,,,,,2021-09-17,1,,,,,サンエイダイヤモンド,0
1660,7010001221141,新規,0,2021-09-17,2021-09-17,アクードホールディングス株式会社,,株式会社,東京都,千代田区,岩本町２丁目１６番４号,,13,101,1010032,,,,,,,2021-09-17,1,,,,,アクードホールディングス,0
1661,7010001221249,新規,0,2021-09-17,2021-09-17,株式会社トップスホールディングス,,株式会社,東京都,千代田区,岩本町１丁目８番１５号,,13,101,1010032,,,,,,,2021-09-17,1,,,,,トップスホールディングス,0
1662,7010001221281,新規,0,2021-09-17,2021-09-17,株式会社神戸三宮開発,,株式会社,東京都,千代田区,三番町２番地４,,13,101,1020075,,,,,,,2021-09-17,1,,,,,コウベサンノミヤカイハツ,0
1665,7010003035878,新規,0,2021-09-17,2021-09-17,合同会社ＳＡ　ＰＲＯＰＥＲＴＹ７,,合同会社,東京都,中央区,銀座１丁目６番１１号土志田ビルディング３Ｆ,,13,102,1040061,,,,,,,2021-09-17,1,,,,,エスエープロパティセブン,0
1666,7010005034003,新規,0,2021-09-17,2021-09-17,一般社団法人ＳＡ　ＰＲＯＰＥＲＴＹ７,,その他の設立登記法人,東京都,中央区,銀座１丁目６番１１号土志田ビルディング３Ｆ,,13,102,1040061,,,,,,,2021-09-17,1,,,,,エスエープロパティセブン,0
1673,7010401162662,新規,0,2021-09-17,2021-09-17,株式会社シグマ,,株式会社,東京都,港区,南青山５丁目４番３０号,,13,103,1070062,,,,,,,2021-09-17,1,,,,,シグマ,0
1674,7010401162695,新規,0,2021-09-17,2021-09-17,株式会社ＫＩ,,株式会社,東京都,港区,赤坂４丁目１４番１４パークコート赤坂ザタワー３５１０号室,,13,103,1070052,,,,,,,2021-09-17,1,,,,,ケーアイ,0
1675,7010401162761,新規,0,2021-09-17,2021-09-17,株式会社Ｅｌｅｆｉａ,,株式会社,東京都,港区,西新橋２丁目１８番１１号ル・グラシエルＢＬＤＧ１６－９Ｆ,,13,103,1050003,,,,,,,2021-09-17,1,,,,,エレフィア,0
1676,7010403026139,新規,0,2021-09-17,2021-09-17,ＧＬＥ．ｃｏｍ合同会社,,合同会社,東京都,港区,浜松町２丁目２番１５号浜松町ダイヤビル２Ｆ,,13,103,1050013,,,,,,,2021-09-17,1,,,,,ジーエルイードットコム,0
1677,7010403026147,新規,0,2021-09-17,2021-09-17,Ｕｖａ合同会社,,合同会社,東京都,港区,高輪２丁目１番１０号,,13,103,1080074,,,,,,,2021-09-17,1,,,,,ウーヴァ,0
1688,7010605004000,新規,0,2021-09-17,2021-09-17,医療法人社団桜江会,,その他の設立登記法人,東京都,江東区,猿江２丁目１６番５号スミセ深川ビル２階,,13,108,1350003,,,,,,,2021-09-17,1,,,,,オウコウカイ,0
1690,7010701041517,新規,0,2021-09-17,2021-09-17,株式会社ティムズファクトリー,,株式会社,東京都,品川区,豊町６丁目１９番１０号,,13,109,1420042,,,,,,,2021-09-17,1,,,,,ティムズファクトリー,0
1691,7010803003885,新規,0,2021-09-17,2021-09-17,Ｔｈｘｎｇｆａ合同会社,,合同会社,東京都,大田区,東蒲田２丁目４－１２,,13,111,1440031,,,,,,,2021-09-17,1,,,,,トーンファー,0
1699,7011001142947,新規,0,2021-09-17,2021-09-17,株式会社Ｃｌａｓｓ,,株式会社,東京都,渋谷区,円山町５番１８号道玄坂スクエア４Ｆ,,13,113,1500044,,,,,,,2021-09-17,1,,,,,クラス,0
1708,7011101096300,新規,0,2021-09-17,2021-09-17,株式会社ＭＩＫＯＳＨＩホールディングス,,株式会社,東京都,新宿区,新宿１丁目１３番１１号シブヤビル５階,,13,104,1600022,,,,,,,2021-09-17,1,,,,,ミコシホールディングス,0
1726,7011601025403,新規,0,2021-09-17,2021-09-17,ＭＣＤ株式会社,,株式会社,東京都,練馬区,石神井台８丁目１８番３４－１２３号,,13,120,1770045,,,,,,,2021-09-17,1,,,,,エムシーディー,0
1729,7011801039715,新規,0,2021-09-17,2021-09-17,株式会社Ｍ＆Ｐ,,株式会社,東京都,足立区,栗原３丁目９番２号オリエント第２ビル５０２,,13,121,1230842,,,,,,,2021-09-17,1,,,,,エムアンドピー,0
1731,7012403005031,新規,0,2021-09-17,2021-09-17,合同会社ナチュラルリンク,,合同会社,東京都,小金井市,桜町１丁目８番４号,,13,210,1840005,,,,,,,2021-09-17,1,,,,,ナチュラルリンク,0
1736,7012801021092,新規,0,2021-09-17,2021-09-17,株式会社ＬａｗＦｏｘ,,株式会社,東京都,立川市,錦町２丁目３番４号－２０１号,,13,202,1900022,,,,,,,2021-09-17,1,,,,,ローフォックス,0
1746,7020001143046,新規,0,2021-09-17,2021-09-17,ニシキ工業株式会社,,株式会社,神奈川県,横浜市磯子区,丸山１丁目１５番２－１号,,14,107,2350011,,,,,,,2021-09-17,1,,,,,ニシキコウギョウ,0
1753,7020005015209,新規,0,2021-09-17,2021-09-17,一般社団法人フロールキャンドルデザイン協会,,その他の設立登記法人,神奈川県,横浜市中区,花咲町３丁目８４番２１号ＹＲＥビル２Ｆ,,14,104,2310063,,,,,,,2021-09-17,1,,,,,フロールキャンドルデザインキョウカイ,0
1761,7030001144381,新規,0,2021-09-17,2021-09-17,株式会社大塚サービス,,株式会社,埼玉県,戸田市,美女木６丁目６番１５号２階,,11,224,3350031,,,,,,,2021-09-17,1,,,,,オオツカサービス,0
1772,7040001120159,新規,0,2021-09-17,2021-09-17,かもめ地建株式会社,,株式会社,千葉県,館山市,館山１５６０番地１６,,12,205,2940036,,,,,,,2021-09-17,1,,,,,カモメチケン,0
1773,7040001120183,新規,0,2021-09-17,2021-09-17,株式会社Ｇ’ＤＥＳＩＧＮ,,株式会社,千葉県,千葉市中央区,富士見１丁目１３番５号ＰＩＹＯ，ＴＥＲＲＡＣＥ，２Ｆ，ＨＯＭＩＥ,,12,101,2600015,,,,,,,2021-09-17,1,,,,,ジーデザイン,0
1774,7040001120200,新規,0,2021-09-17,2021-09-17,株式会社ムーブ・オン,,株式会社,千葉県,山武市,白幡１６１９番地５３,,12,237,2891306,,,,,,,2021-09-17,1,,,,,ムーブオン,0
1780,7040003018558,新規,0,2021-09-17,2021-09-17,合同会社希,,合同会社,千葉県,松戸市,八ケ崎３丁目７３番地の１２,,12,207,2700023,,,,,,,2021-09-17,1,,,,,ノゾミ,0
1786,7050001049851,新規,0,2021-09-17,2021-09-17,株式会社栗原工業,,株式会社,茨城県,つくば市,栗原１１５７番地１,,08,220,3050001,,,,,,,2021-09-17,1,,,,,クリハラコウギョウ,0
1789,7050005012938,新規,0,2021-09-17,2021-09-17,一般社団法人三芝福祉協会,,その他の設立登記法人,茨城県,つくばみらい市,中平柳１１１６番地５６,,08,235,3002334,,,,,,,2021-09-17,1,,,,,ミツシバフクシキョウカイ,0
1792,7060001034084,新規,0,2021-09-17,2021-09-17,ＦＯＲＬＩＮＫ株式会社,,株式会社,栃木県,佐野市,伊勢山町１４４８番地１,,09,204,3270817,,,,,,,2021-09-17,1,,,,,フォーリンク,0
1793,7060001034101,新規,0,2021-09-17,2021-09-17,株式会社たまには,,株式会社,栃木県,足利市,寿町１４番地１,,09,202,3260025,,,,,,,2021-09-17,1,,,,,タマニワ,0
1802,7070001038448,新規,0,2021-09-17,2021-09-17,株式会社ｒａｙｕｒｅｓ,,株式会社,群馬県,高崎市,阿久津町１３６２番地３,,10,202,3701211,,,,,,,2021-09-17,1,,,,,レイユール,0
1804,7070003004233,新規,0,2021-09-17,2021-09-17,アカホーム合同会社,,合同会社,群馬県,高崎市,金古町３６３－７,,10,202,3703511,,,,,,,2021-09-17,1,,,,,アカホーム,0
1838,7120101064297,新規,0,2021-09-17,2021-09-17,株式会社クロスロード,,株式会社,大阪府,高石市,綾園２丁目３番１３号,,27,225,5920014,,,,,,,2021-09-17,1,,,,,クロスロード,0
1842,7120103004350,新規,0,2021-09-17,2021-09-17,合同会社エーサポ,,合同会社,大阪府,松原市,一津屋１丁目１５番７号,,27,217,5800003,,,,,,,2021-09-17,1,,,,,エーサポ,0
1843,7120105009447,新規,0,2021-09-17,2021-09-17,特定非営利活動法人アヴニールファーム,,その他の設立登記法人,大阪府,和泉市,仏並町１３１０番地,,27,219,5941136,,,,,,,2021-09-17,1,,,,,アヴニールファーム,0
1846,7120903003832,新規,0,2021-09-17,2021-09-17,合同会社ＭＨトラスト,,合同会社,大阪府,吹田市,千里山西３丁目３３番１９号,,27,205,5650851,,,,,,,2021-09-17,1,,,,,エムエイチトラスト,0
1858,7140001123077,新規,0,2021-09-17,2021-09-17,バンテック冷熱株式会社,,株式会社,兵庫県,高砂市,高砂町浜田町１丁目２番１８号,,28,216,6760022,,,,,,,2021-09-17,1,,,,,バンテックレイネツ,0
1865,7160003002376,新規,0,2021-09-17,2021-09-17,合同会社グリーン・ファースト,,合同会社,滋賀県,長浜市,西浅井町余２３８番地,,25,203,5290706,,,,,,,2021-09-17,1,,,,,グリーンファースト,0
1867,7180001147865,新規,0,2021-09-17,2021-09-17,株式会社ＳＥＮＯＶＩ,,株式会社,愛知県,名古屋市東区,筒井３丁目２６番１０号,,23,102,4610003,,,,,,,2021-09-17,1,,,,,セノビ,0
1868,7180001147881,新規,0,2021-09-17,2021-09-17,株式会社Ｂｕｄｄｙ,,株式会社,愛知県,一宮市,萩原町串作字荒神浦５２番地１,,23,203,4910376,,,,,,,2021-09-17,1,,,,,バディ,0
1871,7180003022934,新規,0,2021-09-17,2021-09-17,合同会社ジェイ・リード,,合同会社,愛知県,名古屋市中村区,名駅３丁目３番２号志摩ビル５階,,23,105,4500002,,,,,,,2021-09-17,1,,,,,ジェイリード,0
1879,7200001039151,新規,0,2021-09-17,2021-09-17,株式会社Ｏｎｅ　Ｏｎｅ　Ｅｉｇｈｔ１１８,,株式会社,岐阜県,美濃市,片知１１０８番地,,21,207,5013781,,,,,,,2021-09-17,1,,,,,ワンワンエイトイチイチハチ,0
1888,7240001058627,新規,0,2021-09-17,2021-09-17,株式会社エイトプランニング,,株式会社,広島県,広島市東区,馬木６丁目１７２９番地５,,34,102,7320031,,,,,,,2021-09-17,1,,,,,エイトプランニング,0
1895,7260003003678,新規,0,2021-09-17,2021-09-17,合同会社Ｍｕｈ　ＳＴＹＬＥ,,合同会社,岡山県,岡山市北区,平野４４４番地１０,,33,101,7010151,,,,,,,2021-09-17,1,,,,,エムユーエイチスタイル,0
1904,7290001094659,新規,0,2021-09-17,2021-09-17,トレードワン株式会社,,株式会社,福岡県,福岡市中央区,大手門１丁目９番１号,,40,133,8100074,,,,,,,2021-09-17,1,,,,,トレードワン,0
1905,7290001094683,新規,0,2021-09-17,2021-09-17,鈴木工業株式会社,,株式会社,福岡県,大野城市,旭ケ丘２丁目１５番２４号,,40,219,8160953,,,,,,,2021-09-17,1,,,,,スズキコウギョウ,0
1919,7350003003925,新規,0,2021-09-17,2021-09-17,合同会社春窓,,合同会社,宮崎県,東諸県郡綾町,大字北俣３００４－８,,45,383,8801302,,,,,,,2021-09-17,1,,,,,ハルマド,0
1924,7360001029384,新規,0,2021-09-17,2021-09-17,株式会社ＡーＺーＵ,,株式会社,沖縄県,豊見城市,字真玉橋５５１番地,,47,212,9010201,,,,,,,2021-09-17,1,,,,,アーズー,0
1929,7360003011448,新規,0,2021-09-17,2021-09-17,合同会社松風,,合同会社,沖縄県,島尻郡南風原町,字津嘉山１３８４番地,,47,350,9011117,,,,,,,2021-09-17,1,,,,,ショウフウ,0
1936,7400001015603,新規,0,2021-09-17,2021-09-17,株式会社Ｐａｄｄｌｅｓｓ,,株式会社,岩手県,盛岡市,中央通１丁目７－３５コアフィールドモリオカ,,03,201,0200021,,,,,,,2021-09-17,1,,,,,パドレス,0
1943,7430005014276,新規,0,2021-09-17,2021-09-17,医療法人社団ペルル女性クリニック,,その他の設立登記法人,北海道,札幌市西区,二十四軒三条１丁目１－１８メディカルスクエア二十四軒２階,,01,107,0630803,,,,,,,2021-09-17,1,,,,,ペルルジョセイクリニック,0
1947,7460001005598,新規,0,2021-09-17,2021-09-17,株式会社Ｇｒｅａｔ　Ｓｐａｃｅ,,株式会社,北海道,釧路市,新富士町４丁目１０番２４号,,01,206,0840904,,,,,,,2021-09-17,1,,,,,グレートスペース,0
1948,7460103001396,新規,0,2021-09-17,2021-09-17,合同会社ゆめの杜,,合同会社,北海道,河東郡音更町,新通１２丁目１１番地１８,,01,631,0800104,,,,,,,2021-09-17,1,,,,,ユメノモリ,0
1953,7490001009992,新規,0,2021-09-17,2021-09-17,株式会社ＭＩＹＡＴＡ,,株式会社,高知県,高知市,日の出町４番１号,,39,201,7810804,,,,,,,2021-09-17,1,,,,,,0
1957,7700150104787,新規,0,2021-09-17,2021-09-17,スマイルプロジェクト,,その他,愛知県,瀬戸市,東松山町１３２パレス水南３０１,,23,204,4890069,,,,,,,2021-09-17,1,,,,,スマイルプロジェクト,0
1968,8010003035852,新規,0,2021-09-17,2021-09-17,Ｅｘｐｌｏｒｉｎｇ　Ｃｏｎｃｅｐｔｓ　Ｊａｐａｎ合同会社,,合同会社,東京都,中央区,銀座１丁目２２番１１号銀座大竹ビジデンス２階,,13,102,1040061,,,,,,,2021-09-17,1,,,,,エクスプロリングコンセプツジャパン,0
1970,8010005033986,新規,0,2021-09-17,2021-09-17,カニスＭＦ特定目的会社,,その他の設立登記法人,東京都,千代田区,霞が関３丁目２番５号,,13,101,1000013,,,,,,,2021-09-17,1,,,,,,0
1977,8010401162744,新規,0,2021-09-17,2021-09-17,株式会社ローリング,,株式会社,東京都,港区,赤坂７丁目６番１１－６０１号,,13,103,1070052,,,,,,,2021-09-17,1,,,,,ローリング,0
1978,8010401162760,新規,0,2021-09-17,2021-09-17,株式会社ＲＩＳＥ,,株式会社,東京都,港区,西新橋２丁目１８番１１号ル・グラシエルＢＬＤＧ１６－９Ｆ,,13,103,1050003,,,,,,,2021-09-17,1,,,,,ライズ,0
1979,8010401162777,新規,0,2021-09-17,2021-09-17,株式会社幽玄屋,,株式会社,東京都,港区,北青山３丁目５番１２号青山クリスタルビル,,13,103,1070061,,,,,,,2021-09-17,1,,,,,ユウゲンヤ,0
1980,8010403026138,新規,0,2021-09-17,2021-09-17,合同会社ミフル,,合同会社,東京都,港区,南麻布２丁目５番１６号グランドメゾン南麻布６０３,,13,103,1060047,,,,,,,2021-09-17,1,,,,,ミフル,0
1982,8010405020213,新規,0,2021-09-17,2021-09-17,一般社団法人日本ＳＤＧｓ農業協会,,その他の設立登記法人,東京都,港区,浜松町２丁目２－１５浜松町ダイヤビル２階,,13,103,1050013,,,,,,,2021-09-17,1,,,,,ニホンエスディージーズノウギョウキョウカイ,0
1987,8010603009149,新規,0,2021-09-17,2021-09-17,ＢＯＧＡＲ　ＨＫ　ＩＮＴＥＲＮＡＴＩＯＮＡＬ合同会社,,合同会社,東京都,江東区,大島６丁目１４番２－５０４号,,13,108,1360072,,,,,,,2021-09-17,1,,,,,ボーガルエイチケーインターナショナル,0
1988,8010701041532,新規,0,2021-09-17,2021-09-17,タクロウソメヤコンテンポラリーアート株式会社,,株式会社,東京都,品川区,東品川１丁目３３－１０,,13,109,1400002,,,,,,,2021-09-17,1,,,,,タクロウソメヤコンテンポラリーアート,0
1992,8010703005948,新規,0,2021-09-17,2021-09-17,合同会社ｙｓ,,合同会社,東京都,品川区,北品川３丁目１１－１３,,13,109,1400001,,,,,,,2021-09-17,1,,,,,ワイズ,0
1996,8010901049458,新規,0,2021-09-17,2021-09-17,ＫＮカンパニー株式会社,,株式会社,東京都,世田谷区,大原１丁目５３番１号,,13,112,1560041,,,,,,,2021-09-17,1,,,,,ケーエヌカンパニー,0
2002,8011003013336,新規,0,2021-09-17,2021-09-17,合同会社Ｉｎｎｏｖａｔｏｒ’ｓ　Ｌａｂ,,合同会社,東京都,渋谷区,千駄ヶ谷３丁目１１番８号（ＴＯＳグループ内）,,13,113,1510051,,,,,,,2021-09-17,1,,,,,イノベーターズラボ,0
2003,8011005009217,新規,0,2021-09-17,2021-09-17,一般社団法人日本マススクリーニング学会,,その他の設立登記法人,東京都,渋谷区,千駄ヶ谷５丁目８番１０号外苑マンション６０５,,13,113,1510051,,,,,,,2021-09-17,1,,,,,ニホンマススクリーニングガッカイ,0
2006,8011101096299,新規,0,2021-09-17,2021-09-17,株式会社ＫＩＬＡＭＥＫホールディングス,,株式会社,東京都,新宿区,左門町２番６ワコービル７階,,13,104,1600017,,,,,,,2021-09-17,1,,,,,キラメックホールディングス,0
2007,8011101096308,新規,0,2021-09-17,2021-09-17,株式会社ＭＡＴＴＯ　ＶＡＬＵＥ,,株式会社,東京都,新宿区,歌舞伎町１丁目１３番５号三経４３ビル５階,,13,104,1600021,,,,,,,2021-09-17,1,,,,,マットバリュー,0
2008,8011101096324,新規,0,2021-09-17,2021-09-17,株式会社ＲＯＣＫ　ＨＡＮＤ,,株式会社,東京都,新宿区,大久保１丁目１２番４号,,13,104,1690072,,,,,,,2021-09-17,1,,,,,ロックハンド,0
2010,8011103011009,新規,0,2021-09-17,2021-09-17,合同会社ウィブックス,,合同会社,東京都,新宿区,新小川町９番７号第３服部ビルＡ棟３０２号,,13,104,1620814,,,,,,,2021-09-17,1,,,,,ウィブックス,0
2011,8011103011017,新規,0,2021-09-17,2021-09-17,合同会社ＮＹアセット,,合同会社,東京都,新宿区,新宿３丁目１１番１２号永谷テイクエイトビル１０Ｆ,,13,104,1600022,,,,,,,2021-09-17,1,,,,,エヌワイアセット,0
2012,8011201023260,新規,0,2021-09-17,2021-09-17,株式会社ＤＡＪＵ　ＢＨＡＩ,,株式会社,東京都,中野区,沼袋３丁目８番１２号,,13,114,1650025,,,,,,,2021-09-17,1,,,,,ダズバイ,0
2020,8011801039714,新規,0,2021-09-17,2021-09-17,株式会社ＴＩＤＹ－ＵＰ,,株式会社,東京都,葛飾区,東新小岩８丁目２６番６－５０６号,,13,122,1240023,,,,,,,2021-09-17,1,,,,,タイディアップ,0
2022,8011803004781,新規,0,2021-09-17,2021-09-17,合同会社Ｃａｌｕｘ,,合同会社,東京都,足立区,新田３丁目３７番１２－１３０８号,,13,121,1230865,,,,,,,2021-09-17,1,,,,,カルクス,0
2026,8012403005030,新規,0,2021-09-17,2021-09-17,合同会社５２５,,合同会社,東京都,多摩市,一ノ宮１丁目２６番地の８ウインベル・コーラス聖蹟桜ヶ丘４０１,,13,224,2060002,,,,,,,2021-09-17,1,,,,,ゴニゴ,0
2027,8012701016670,新規,0,2021-09-17,2021-09-17,ａｉｋａフードプランニング株式会社,,株式会社,東京都,西東京市,東伏見５丁目２番４号,,13,229,2020021,,,,,,,2021-09-17,1,,,,,アイカフードプランニング,0
2028,8012703002314,新規,0,2021-09-17,2021-09-17,ＬＩＭＥ　Ｉｎｖｅｓｔｍｅｎｔ合同会社,,合同会社,東京都,小平市,鈴木町２丁目２３８番地の２１,,13,211,1870011,,,,,,,2021-09-17,1,,,,,ライムインベストメント,0
2029,8012803002593,新規,0,2021-09-17,2021-09-17,鴻裕商事合同会社,,合同会社,東京都,武蔵村山市,緑が丘１４６０－４９－４２,,13,223,2080012,,,,,,,2021-09-17,1,,,,,コウユウショウジ,0
2045,8020001142963,新規,0,2021-09-17,2021-09-17,リステージ株式会社,,株式会社,神奈川県,横浜市港南区,日野７丁目３０番３－３０２号,,14,111,2340051,,,,,,,2021-09-17,1,,,,,リステージ,0
2046,8020001143020,新規,0,2021-09-17,2021-09-17,株式会社イディアル,,株式会社,神奈川県,横浜市泉区,和泉町１４１１番地４,,14,116,2450016,,,,,,,2021-09-17,1,,,,,イディアル,0
2047,8020001143045,新規,0,2021-09-17,2021-09-17,株式会社ＩＣＨＩＹＵ,,株式会社,神奈川県,横浜市港南区,芹が谷３丁目３４番１２号,,14,111,2330006,,,,,,,2021-09-17,1,,,,,イチユウ,0
2051,8020005015208,新規,0,2021-09-17,2021-09-17,特定非営利活動法人シーホース工房,,その他の設立登記法人,神奈川県,横浜市中区,真砂町３丁目３３セルテ１１Ｆよこはま市民共同オフィス,,14,104,2310016,,,,,,,2021-09-17,1,,,,,シーホースコウボウ,0
2060,8030001144348,新規,0,2021-09-17,2021-09-17,御殿優株式会社,,株式会社,埼玉県,越谷市,中町９番２１号,,11,222,3430817,,,,,,,2021-09-17,1,,,,,ゴテンユ,0
2062,8030003017972,新規,0,2021-09-17,2021-09-17,さくらアンドパートナーズ合同会社,,合同会社,埼玉県,さいたま市南区,白幡１丁目１１番１号２Ｆ,,11,108,3360022,,,,,,,2021-09-17,1,,,,,サクラアンドパートナーズ,0
2073,8040001120224,新規,0,2021-09-17,2021-09-17,株式会社リメディカル,,株式会社,千葉県,流山市,松ケ丘５丁目７５９番地の８０,,12,220,2700141,,,,,,,2021-09-17,1,,,,,リメディカル,0
2074,8040003018557,新規,0,2021-09-17,2021-09-17,合同会社Ｂｕｒｒｉｔｏ,,合同会社,千葉県,千葉市稲毛区,宮野木町８３５番地１８,,12,103,2630054,,,,,,,2021-09-17,1,,,,,ブリート,0
2078,8050001049826,新規,0,2021-09-17,2021-09-17,株式会社ＭＥＥＲ　ＴＲＡＤＩＮＧ,,株式会社,茨城県,坂東市,生子２０２８番地１,,08,228,3060504,,,,,,,2021-09-17,1,,,,,ミールトレーディング,0
2080,8050003006081,新規,0,2021-09-17,2021-09-17,合同会社丸喜屋ソフトワークス,,合同会社,茨城県,筑西市,関本中５４－１５,,08,227,3080126,,,,,,,2021-09-17,1,,,,,マルキヤソフトワークス,0
2084,8050005012937,新規,0,2021-09-17,2021-09-17,特定非営利活動法人茨城県日中友好協会,,その他の設立登記法人,茨城県,水戸市,三の丸１丁目１番４２号駿優教育会館６Ｆ,,08,201,3100011,,,,,,,2021-09-17,1,,,,,イバラキケンニッチュウユウコウキョウカイ,0
2089,8070001038447,新規,0,2021-09-17,2021-09-17,ＺＯＸＸ株式会社,,株式会社,群馬県,北群馬郡吉岡町,大字漆原４７２番地６,,10,345,3703601,,,,,,,2021-09-17,1,,,,,ゾックス,0
2092,8080001024446,新規,0,2021-09-17,2021-09-17,株式会社アタウィック,,株式会社,静岡県,焼津市,駅北４丁目１０番２５号,,22,212,4250028,,,,,,,2021-09-17,1,,,,,アタウィック,0
2109,8120005022508,新規,0,2021-09-17,2021-09-17,一般社団法人ＡＶＢＡ,,その他の設立登記法人,大阪府,大阪市浪速区,難波中３丁目１４－１６靖安ビル２０３,,27,111,5560011,,,,,,,2021-09-17,1,,,,,エーブイビーエー,0
2113,8120101064321,新規,0,2021-09-17,2021-09-17,株式会社ＨＩＴＯＮＯＭＡ,,株式会社,大阪府,泉南郡熊取町,山の手台２丁目９－２１,,27,361,5900452,,,,,,,2021-09-17,1,,,,,ヒトノマ,0
2117,8120903003831,新規,0,2021-09-17,2021-09-17,合同会社ＳＹＢ－ＫＹＯＴＯ,,合同会社,大阪府,吹田市,千里山西４丁目３７番７－３０５号,,27,205,5650851,,,,,,,2021-09-17,1,,,,,エスワイビーキョウト,0
2128,8140001123027,新規,0,2021-09-17,2021-09-17,株式会社ランドロード,,株式会社,兵庫県,加古郡播磨町,東本荘２丁目３番６号,,28,382,6750156,,,,,,,2021-09-17,1,,,,,ランドロード,0
2129,8140001123092,新規,0,2021-09-17,2021-09-17,ダイワロジスティクス株式会社,,株式会社,兵庫県,神戸市西区,玉津町水谷４１０,,28,111,6512121,,,,,,,2021-09-17,1,,,,,ダイワロジスティクス,0
2133,8150003002491,新規,0,2021-09-17,2021-09-17,合同会社ＬＡＵＧＨ　ＧＡＲＤＥＮ,,合同会社,奈良県,天理市,川原城町６５３番地カーサプラス１０２,,29,204,6320016,,,,,,,2021-09-17,1,,,,,ラフガーデン,0
2145,8180001147864,新規,0,2021-09-17,2021-09-17,株式会社ｃｙｂｅｒ,,株式会社,愛知県,あま市,上萱津北ノ川５９番地ＰＡＲＫＣＯＵＲＴⅤ１０Ｆ,00124270,23,237,4901112,,,,,,,2021-09-17,1,,,,,サイバー,0
2150,8180005019440,新規,0,2021-09-17,2021-09-17,特定非営利活動法人あま福祉総合相談所,,その他の設立登記法人,愛知県,あま市,木田山之越東切４２番地３,,23,237,4901222,,,,,,,2021-09-17,1,,,,,アマフクシソウゴウソウダンジョ,0
2159,8240001058618,新規,0,2021-09-17,2021-09-17,株式会社ループアイズ,,株式会社,広島県,福山市,新涯町１丁目９番３０号,,34,207,7210955,,,,,,,2021-09-17,1,,,,,ループアイズ,0
2171,8250003002903,新規,0,2021-09-17,2021-09-17,合同会社Ｒａｆｆｉｔ,,合同会社,山口県,宇部市,大字妻崎開作７３５番地１０,,35,202,7590204,,,,,,,2021-09-17,1,,,,,ラフィット,0
2176,8290001094682,新規,0,2021-09-17,2021-09-17,タクスト株式会社,,株式会社,福岡県,福岡市中央区,舞鶴１丁目８番３３号４階,,40,133,8100073,,,,,,,2021-09-17,1,,,,,タクスト,0
2181,8290003011636,新規,0,2021-09-17,2021-09-17,合同会社福岡Ｌｉｆｅ,,合同会社,福岡県,福岡市博多区,空港前２丁目１０－１２,,40,132,8120002,,,,,,,2021-09-17,1,,,,,フクオカライフ,0
2184,8300001012634,新規,0,2021-09-17,2021-09-17,インテリア野口株式会社,,株式会社,佐賀県,小城市,三日月町堀江２０３番地６,,41,208,8450031,,,,,,,2021-09-17,1,,,,,インテリアノグチ,0
2188,8310001017483,新規,0,2021-09-17,2021-09-17,株式会社ｅｌｆ,,株式会社,長崎県,長崎市,新地町１２番８号,,42,201,8500842,,,,,,,2021-09-17,1,,,,,エルフ,0
2191,8320001018605,新規,0,2021-09-17,2021-09-17,マイベース大分株式会社,,株式会社,大分県,臼杵市,大字臼杵７２番地の３０,,44,206,8750041,,,,,,,2021-09-17,1,,,,,マイベースオオイタ,0
2199,8330005010400,新規,0,2021-09-17,2021-09-17,球磨焼酎協同組合,,その他の設立登記法人,熊本県,人吉市,麓町５番地の１,,43,203,8680051,,,,,,,2021-09-17,1,,,,,クマショウチュウ,0
2203,8350003003924,新規,0,2021-09-17,2021-09-17,ウォーター・スポーツ・宮崎合同会社,,合同会社,宮崎県,宮崎市,阿波岐原町前浜４２７６番地４８４,,45,201,8800835,,,,,,,2021-09-17,1,,,,,ウォータースポーツミヤザキ,0
2205,8360001029375,新規,0,2021-09-17,2021-09-17,株式会社ＳｕｎＣｕｔｅ,,株式会社,沖縄県,那覇市,久茂地１丁目１番１号パレットくもじ９階,,47,201,9000015,,,,,,,2021-09-17,1,,,,,サンキュート,0
2226,8430005014275,新規,0,2021-09-17,2021-09-17,医療法人社団Ａｑｕａ矯正歯科,,その他の設立登記法人,北海道,室蘭市,中島町３丁目２８番１６トラスト中島公園１Ｆ,,01,205,0500074,,,,,,,2021-09-17,1,,,,,アクアキョウセイシカ,0
2227,8460001005597,新規,0,2021-09-17,2021-09-17,株式会社北浩物産,,株式会社,北海道,釧路郡釧路町,東陽大通西１丁目２番９号,,01,661,0880628,,,,,,,2021-09-17,1,,,,,ホッコウブッサン,0
2233,8490001009991,新規,0,2021-09-17,2021-09-17,株式会社Ｂｒｉｄｇｅ,,株式会社,高知県,高知市,新屋敷２丁目９番２号,,39,201,7800911,,,,,,,2021-09-17,1,,,,,ブリッジ,0
2237,8700150098533,新規,0,2021-09-17,2020-03-30,藝を育むまち同好会,,その他,東京都,文京区,湯島３丁目３５－８コア湯島１Ｆ　有限会社十字屋商店　内,,13,105,1130034,,,,,,,2020-03-30,1,,,,,ゲイヲハグクムマチドウコウカイ,0
2238,8700150104786,新規,0,2021-09-17,2021-09-17,Ｖｉｋｉ　Ｉｎｃ．,,外国会社等,,,,,,,,８００　Ｃｏｎｃａｒ　Ｄｒｉｖｅ，　４ｔｈ　ｆｌｏｏｒ，　Ｓａｎ　Ｍａｔｅｏ　９４４０２，　ＣＡ，　ＵＳＡ,,,,,,2021-09-17,1,,,,,ヴィキインク,0
2245,9010003035876,新規,0,2021-09-17,2021-09-17,合同会社ＲＡＴＥＬ,,合同会社,東京都,中央区,銀座１丁目２２番１１号銀座大竹ビジデンス２階,,13,102,1040061,,,,,,,2021-09-17,1,,,,,ラーテル,0
2251,9010401162693,新規,0,2021-09-17,2021-09-17,株式会社ＭＡＧＩＣ　ＬＩＳＴ,,株式会社,東京都,港区,南麻布１丁目７番３１－１００３号,,13,103,1060047,,,,,,,2021-09-17,1,,,,,マジックリスト,0
2252,9010401162702,新規,0,2021-09-17,2021-09-17,株式会社ビジョン,,株式会社,東京都,港区,六本木３丁目４番３３号マルマン六本木ビル３Ｆ,,13,103,1060032,,,,,,,2021-09-17,1,,,,,ビジョン,0
2253,9010401162735,新規,0,2021-09-17,2021-09-17,株式会社ハーケティ,,株式会社,東京都,港区,元麻布２丁目２番１４－７０２号,,13,103,1060046,,,,,,,2021-09-17,1,,,,,ハーケティ,0
2257,9010403026145,新規,0,2021-09-17,2021-09-17,合同会社六本木四丁目計画,,合同会社,東京都,港区,虎ノ門３丁目２２番１０－２０１号,,13,103,1050001,,,,,,,2021-09-17,1,,,,,ロッポンギヨンチョウメケイカク,0
2259,9010503006385,新規,0,2021-09-17,2021-09-17,合同会社２ｎｄ　ｐｏｉｎｔ,,合同会社,東京都,台東区,上野６丁目８番１９号３階,,13,106,1100005,,,,,,,2021-09-17,1,,,,,セカンドポイント,0
2265,9010703005939,新規,0,2021-09-17,2021-09-17,合同会社ＨＤ,,合同会社,東京都,品川区,東五反田１丁目１９番８号ハイツ五反田４０５,,13,109,1410022,,,,,,,2021-09-17,1,,,,,エイチディー,0
2270,9011001142854,新規,0,2021-09-17,2021-09-17,フューチャーアイリス株式会社,,株式会社,東京都,渋谷区,道玄坂１丁目２番３号渋谷フクラス１７階,,13,113,1500043,,,,,,,2021-09-17,1,,,,,フューチャーアイリス,0
2273,9011101096315,新規,0,2021-09-17,2021-09-17,株式会社ＤＤＤ,,株式会社,東京都,新宿区,歌舞伎町１丁目３番１５号,,13,104,1600021,,,,,,,2021-09-17,1,,,,,ディーディーディー,0
2274,9011101096323,新規,0,2021-09-17,2021-09-17,株式会社エターナル,,株式会社,東京都,新宿区,富久町１５番１－２７１２号室,,13,104,1620067,,,,,,,2021-09-17,1,,,,,エターナル,0
2275,9011301027152,新規,0,2021-09-17,2021-09-17,森田日本生命科学研究所株式会社,,株式会社,東京都,杉並区,天沼２丁目７－７マンション大竹３０１,,13,115,1670032,,,,,,,2021-09-17,1,,,,,モリタニホンセイメイカガクケンキュウジョ,0
2278,9011401023679,新規,0,2021-09-17,2021-09-17,株式会社愛歯,,株式会社,東京都,板橋区,幸町１番６号,,13,119,1730034,,,,,,,2021-09-17,1,,,,,アイシ,0
2292,9013101008729,新規,0,2021-09-17,2021-09-17,ユーリヤ株式会社,,株式会社,東京都,西多摩郡瑞穂町,箱根ケ崎東松原３番地６,,13,303,1901222,,,,,,,2021-09-17,1,,,,,ユーリヤ,0
2294,9013301048013,新規,0,2021-09-17,2021-09-17,マサツナ株式会社,,株式会社,東京都,豊島区,池袋３丁目５６番９号,,13,116,1710014,,,,,,,2021-09-17,1,,,,,マサツナ,0
2295,9013301048021,新規,0,2021-09-17,2021-09-17,株式会社恵源,,株式会社,東京都,豊島区,池袋４丁目７番２号１Ｆ,,13,116,1710014,,,,,,,2021-09-17,1,,,,,メグモト,0
2308,9020001143036,新規,0,2021-09-17,2021-09-17,株式会社芳春,,株式会社,神奈川県,横浜市磯子区,森３丁目１４番３６－６０３号,,14,107,2350023,,,,,,,2021-09-17,1,,,,,ヨシハル,0
2312,9020003020489,新規,0,2021-09-17,2021-09-17,合同会社松本紙業,,合同会社,神奈川県,横浜市保土ケ谷区,峰沢町８８番地１２１,,14,106,2400061,,,,,,,2021-09-17,1,,,,,マツモトシギョウ,0
2313,9020005015207,新規,0,2021-09-17,2021-09-17,宗教法人Ｋｉｎｇｄｏｍ　Ｓｅｅｋｅｒｓ,,その他の設立登記法人,神奈川県,横浜市都筑区,すみれが丘１７番地３０,,14,118,2240013,,,,,,,2021-09-17,1,,,,,,0
2323,9040001120231,新規,0,2021-09-17,2021-09-17,シージェイスタイル株式会社,,株式会社,千葉県,松戸市,松戸８２２番地の１２,,12,207,2710092,,,,,,,2021-09-17,1,,,,,シージェイスタイル,0
2327,9040003018556,新規,0,2021-09-17,2021-09-17,グレースコーポレーション合同会社,,合同会社,千葉県,市川市,真間２丁目１２番１１号（リヴェール・ママ２０３号）,,12,203,2720826,,,,,,,2021-09-17,1,,,,,グレースコーポレーション,0
2334,9050005012936,新規,0,2021-09-17,2021-09-17,医療法人昭愛会,,その他の設立登記法人,茨城県,筑西市,横塚８７番地３,,08,227,3091116,,,,,,,2021-09-17,1,,,,,ショウアイカイ,0
2337,9070003004231,新規,0,2021-09-17,2021-09-17,関東設備合同会社,,合同会社,群馬県,高崎市,栄町３番１１号４Ｆ,,10,202,3700841,,,,,,,2021-09-17,1,,,,,カントウセツビ,0
2355,9110001036049,新規,0,2021-09-17,2021-09-17,株式会社岩村管財,,株式会社,新潟県,新発田市,大手町４丁目３番２１号,,15,206,9570052,,,,,,,2021-09-17,1,,,,,イワムラカンザイ,0
2373,9120101064304,新規,0,2021-09-17,2021-09-17,株式会社サンライト住まいる,,株式会社,大阪府,岸和田市,下松町１丁目１５番３号,,27,202,5960823,,,,,,,2021-09-17,1,,,,,サンライトスマイル,0
2382,9120903003830,新規,0,2021-09-17,2021-09-17,リベルテーク合同会社,,合同会社,大阪府,吹田市,広芝町４番３４号６階,,27,205,5640052,,,,,,,2021-09-17,1,,,,,リベルテーク,0
2391,9140001123059,新規,0,2021-09-17,2021-09-17,株式会社パインヘリテージ,,株式会社,兵庫県,姫路市,岡田４７９番地,,28,201,6700982,,,,,,,2021-09-17,1,,,,,パインヘリテージ,0
2393,9140005025821,新規,0,2021-09-17,2021-09-17,一般社団法人ＴＩＣＣ,,その他の設立登記法人,兵庫県,尼崎市,東難波町２丁目１７－７７,,28,202,6600892,,,,,,,2021-09-17,1,,,,,ティーアイシーシー,0
2402,9160003002374,新規,0,2021-09-17,2021-09-17,合同会社ゼットワークス,,合同会社,滋賀県,大津市,比叡平１丁目４１番１６号,,25,201,5200016,,,,,,,2021-09-17,1,,,,,ゼットワークス,0
2415,9190001028690,新規,0,2021-09-17,2021-09-17,ランドビル株式会社,,株式会社,三重県,津市,大谷町１１８番地８,,24,201,5140007,,,,,,,2021-09-17,1,,,,,ランドビル,0
2420,9200001039158,新規,0,2021-09-17,2021-09-17,サリー・スパイスランド株式会社,,株式会社,岐阜県,各務原市,那加土山町１丁目９３番地,,21,213,5040041,,,,,,,2021-09-17,1,,,,,サリースパイスランド,0
2421,9220003003119,新規,0,2021-09-17,2021-09-17,合同会社学習ドクター,,合同会社,石川県,金沢市,しじま台１丁目２番地２,,17,201,9218132,,,,,,,2021-09-17,1,,,,,ガクシュウドクター,0
2433,9240003005278,新規,0,2021-09-17,2021-09-17,合同会社ダイレク島本舗,,合同会社,広島県,尾道市,因島重井町６８３６番地,,34,205,7222102,,,,,,,2021-09-17,1,,,,,ダイレクトウホンポ,0
2436,9250005008682,新規,0,2021-09-17,2021-09-17,無限責任中山負債整理組合,,その他の設立登記法人,山口県,萩市,（旧阿武郡弥冨村）,,35,204,7580000,,,,,,,2021-09-17,1,,,,,ナカヤマ,0
2437,9260001035969,新規,0,2021-09-17,2021-09-17,株式会社ＦＵＪＩＹＡ．ｅ,,株式会社,岡山県,岡山市南区,浦安南町１９５番地１８,,33,104,7028024,,,,,,,2021-09-17,1,,,,,フジヤドットイー,0
2444,9290001094665,新規,0,2021-09-17,2021-09-17,株式会社ＴｈａｎｋＭａｒｋｅｔｉｎｇ,,株式会社,福岡県,大野城市,筒井４丁目４番２７号グランドゥール３０２号,,40,219,8160931,,,,,,,2021-09-17,1,,,,,サンクマーケティング,0
2445,9290001094673,新規,0,2021-09-17,2021-09-17,Ｎｉｒｖａｎａ株式会社,,株式会社,福岡県,福岡市南区,塩原１丁目２２－１１－２０３,,40,134,8150032,,,,,,,2021-09-17,1,,,,,ニルヴァーナ,0
2448,9290803003930,新規,0,2021-09-17,2021-09-17,合同会社ベストワーク,,合同会社,福岡県,北九州市小倉北区,井堀１丁目２０－１０,,40,106,8030835,,,,,,,2021-09-17,1,,,,,ベストワーク,0
2454,9310001017482,新規,0,2021-09-17,2021-09-17,株式会社すえよし建装,,株式会社,長崎県,長崎市,鳴見町６５番地９,,42,201,8512214,,,,,,,2021-09-17,1,,,,,スエヨシケンソウ,0
2463,9340003003560,新規,0,2021-09-17,2021-09-17,合同会社一樹会,,合同会社,鹿児島県,鹿屋市,南町４０６７－１,,46,203,8930043,,,,,,,2021-09-17,1,,,,,イチジュカイ,0
2464,9340005009341,新規,0,2021-09-17,2021-09-17,医療法人紀祥会,,その他の設立登記法人,鹿児島県,鹿児島市,下伊敷１丁目４７－１６,,46,201,8900005,,,,,,,2021-09-17,1,,,,,キショウカイ,0
2468,9360003011454,新規,0,2021-09-17,2021-09-17,合同会社ナカマサービス,,合同会社,沖縄県,国頭郡金武町,字金武１６８８番地１,,47,314,9041201,,,,,,,2021-09-17,1,,,,,ナカマサービス,0
2469,9370001047581,新規,0,2021-09-17,2021-09-17,ａｍｕ株式会社,,株式会社,宮城県,気仙沼市,笹が陣２－１２２マンスリー８０９Ｂ号室,,04,205,9880073,,,,,,,2021-09-17,1,,,,,アム,0
2485,9470005006383,新規,0,2021-09-17,2021-09-17,農事組合法人有岡ファーム,,その他の設立登記法人,香川県,綾歌郡綾川町,北２２３番地１,,37,387,7612306,,,,,,,2021-09-17,1,,,,,アリオカファーム,0
2486,9480001011493,新規,0,2021-09-17,2021-09-17,株式会社七や,,株式会社,徳島県,徳島市,吉野本町１丁目６番地前川ビル１Ｆ,,36,201,7700802,,,,,,,2021-09-17,1,,,,,ナナヤ,0
2488,9500005008418,新規,0,2021-09-17,2021-09-17,ＮＰＯ法人さんぷれぇぃず,,その他の設立登記法人,愛媛県,松山市,南江戸５丁目６－１６フライブルクカースル１０１号,,38,201,7900062,,,,,,,2021-09-17,1,,,,,サンプレェィズ,0
2489,9700150104496,新規,0,2021-09-17,2021-08-20,大分県子ども会育成会連絡協議会,,その他,大分県,別府市,亀川浜田町２３組,,44,202,8740014,,,,,,,2021-08-20,1,,,,,オオイタケンコドモカイイクセイカイレンラクキヨウギカイ,0
