sequenceNumber,corporateNumber,process,correct,updateDate,changeDate,name,nameImageId,kind,prefectureName,cityName,streetNumber,addressImageId,prefectureCode,cityCode,postCode,addressOutside,addressOutsideImageId,closeDate,closeCause,successorCorporateNumber,changeCause,assignmentDate,latest,enName,enPrefectureName,enCityName,enAddressOutside,furigana,hihyoji
17,1010002024391,登記記録の閉鎖等,0,2024-06-11,2024-06-06,有限会社深川商会,,有限会社,東京都,品川区,上大崎３丁目１番１号目黒セントラルスクエア１５階,,13,109,1410021,,,2024-06-06,合併による解散等,1010403031912,令和６年６月１日東京都港区芝二丁目１０番６号ＥＡＲＴＨＳＨＩＢＡＢＬＤ．３Ｆイントリム内ＳＵＫＩＹＡＢＡＳＨＩ合同会社（1010403031912）に合併し解散,2015-10-05,1,,,,,フカガワショウカイ,0
31,1010401137133,登記記録の閉鎖等,0,2024-06-11,2024-05-22,Ｖワンシード株式会社,,株式会社,東京都,港区,六本木５丁目１６番５０号,,13,103,1060032,,,2024-05-22,合併による解散等,5010701030868,令和６年５月１日東京都港区六本木五丁目１６番５０号株式会社Ｖ　ＡＮＤＲＯＢＯ（5010701030868）に合併し解散,2018-03-13,1,,,,,ブイワンシード,0
61,1011101085589,登記記録の閉鎖等,0,2024-06-11,2024-06-03,株式会社ｂ－ｄａｓｈ　Ｌｉｔｅ,,株式会社,東京都,新宿区,西新宿７丁目２０番１号,,13,104,1600023,,,2024-06-03,合併による解散等,1011101056020,令和６年６月１日東京都新宿区西新宿七丁目２０番１号株式会社データＸ（1011101056020）に合併し解散,2018-10-09,1,,,,,ビーダッシュライト,0
67,1011301001379,登記記録の閉鎖等,0,2024-06-11,2024-06-03,オリジン株式会社,,株式会社,東京都,杉並区,宮前３丁目３３番６号,,13,115,1680081,,,2024-06-03,清算の結了等,,,2015-10-05,1,,,,,オリジン,0
71,1011501006285,登記記録の閉鎖等,0,2024-06-11,2024-06-05,株式会社建電社,,株式会社,東京都,荒川区,東日暮里６丁目１９番１６号,,13,118,1160014,,,2024-06-05,清算の結了等,,,2015-10-05,1,,,,,ケンデンシャ,0
88,1013301046346,登記記録の閉鎖等,0,2024-06-11,2024-06-06,株式会社ＲＧＢ,,株式会社,東京都,豊島区,池袋２丁目１４番４号池袋ＴＡビル５階,,13,116,1710014,,,2024-06-06,清算の結了等,,,2020-10-12,1,,,,,アールジービー,0
111,1030002119875,登記記録の閉鎖等,0,2024-06-11,2024-06-06,有限会社ミクロ,,有限会社,埼玉県,飯能市,大字双柳１１６２番地８０,,11,209,3570021,,,2024-06-06,清算の結了等,,,2015-10-05,1,,,,,ミクロ,0
112,1030005014132,登記記録の閉鎖等,0,2024-06-11,2024-06-06,行田洋品商協同組合,,その他の設立登記法人,埼玉県,行田市,行田８番１０号,,11,206,3610073,,,2024-06-06,清算の結了等,,,2015-10-05,1,,,,,ギョウダヨウヒンショウ,0
115,1040001018524,登記記録の閉鎖等,0,2024-06-11,2024-05-31,株式会社日本食品総研,,株式会社,千葉県,船橋市,二宮１丁目５４番２号,,12,204,2740823,,,2024-05-31,清算の結了等,,,2015-10-05,1,,,,,ニホンショクヒンソウケン,0
116,1040001051178,登記記録の閉鎖等,0,2024-06-11,2024-06-03,日光商事株式会社,,株式会社,千葉県,袖ケ浦市,奈良輪２４９６番地,,12,229,2990263,,,2024-06-03,清算の結了等,,,2015-10-05,1,,,,,ニッコウショウジ,0
137,1060002011971,登記記録の閉鎖等,0,2024-06-11,2024-06-03,有限会社ヒロコーポレーション,,有限会社,栃木県,宇都宮市,花園町１７番１２号,,09,201,3200843,,,2024-06-03,清算の結了等,,,2015-10-05,1,,,,,ヒロコーポレーション,0
139,1070001024726,登記記録の閉鎖等,0,2024-06-11,2024-06-04,三永工業株式会社,,株式会社,群馬県,邑楽郡邑楽町,大字赤堀４０６３番地１５,,10,525,3700614,,,2024-06-04,清算の結了等,,,2015-10-05,1,,,,,サンエイコウギョウ,0
158,1120001010456,登記記録の閉鎖等,0,2024-06-11,2024-06-05,ツダ新装株式会社,,株式会社,大阪府,大阪市中央区,千日前１丁目４番８号,,27,128,5420074,,,2024-06-05,合併による解散等,5010601025497,令和６年６月１日東京都港区東新橋二丁目１１番４号三光建販株式会社（5010601025497）に合併し解散,2015-10-05,1,,,,,ツダシンソウ,0
175,1120002051730,登記記録の閉鎖等,0,2024-06-11,2024-06-05,有限会社ジュンネットサービス,,有限会社,大阪府,大阪市鶴見区,放出東２丁目１９番４号,,27,124,5380044,,,2024-06-05,清算の結了等,,,2015-10-05,1,,,,,ジュンネットサービス,0
179,1120003021716,登記記録の閉鎖等,0,2024-06-11,2024-06-07,待雪合同会社,,合同会社,大阪府,大阪市淀川区,宮原２丁目７番２９号朝日プラザ新大阪アネックス５０８号室,,27,123,5320003,,,2024-06-07,清算の結了等,,,2022-05-23,1,,,,,マツユキ,0
195,1122005003205,登記記録の閉鎖等,0,2024-06-11,2024-06-05,特定非営利活動法人山麓和の会,,その他の設立登記法人,大阪府,東大阪市,立花町９番１０号,,27,227,5798023,,,2024-06-05,清算の結了等,,,2016-12-26,1,,,,,サンロクワノカイ,0
202,1140001076280,登記記録の閉鎖等,0,2024-06-11,2024-06-06,東播瓦産業株式会社,,株式会社,兵庫県,加西市,笹倉町８０４番地,,28,220,6752443,,,2024-06-06,清算の結了等,,,2015-10-05,1,,,,,トウバンカワラサンギョウ,0
212,1150001021368,登記記録の閉鎖等,0,2024-06-11,2024-05-31,株式会社乾建設,,株式会社,奈良県,生駒郡平群町,大字福貴畑７３５番地,,29,342,6360937,,,2024-05-31,清算の結了等,,,2017-03-22,1,,,,,イヌイケンセツ,0
229,1180002033186,登記記録の閉鎖等,0,2024-06-11,2024-06-04,有限会社明栄,,有限会社,愛知県,名古屋市中区,橘１丁目２４番１２号,,23,106,4600016,,,2024-06-04,清算の結了等,,,2015-10-05,1,,,,,メイエイ,0
324,2010105001262,登記記録の閉鎖等,0,2024-06-11,2024-06-04,特定非営利活動法人薬物乱用防止教育協会,,その他の設立登記法人,東京都,八王子市,石川町２９７４番地２３,,13,201,1920032,,,2024-06-04,清算の結了等,,,2015-10-05,1,,,,,ヤクブツランヨウボウシキョウイクキョウカイ,0
349,2010701003059,登記記録の閉鎖等,0,2024-06-11,2024-06-10,株式会社建設工芸清水工務店,,株式会社,東京都,品川区,二葉１丁目１０番２０号,,13,109,1420043,,,2024-06-10,清算の結了等,,,2015-10-05,1,,,,,ケンセツコウゲイシミズコウムテン,0
354,2010702004279,登記記録の閉鎖等,0,2024-06-11,2024-06-10,有限会社末広園,,有限会社,東京都,品川区,中延５丁目６番１９号,,13,109,1420053,,,2024-06-10,清算の結了等,,,2015-10-05,1,,,,,スエヒロエン,0
359,2010901020861,登記記録の閉鎖等,0,2024-06-11,2024-05-30,株式会社煌プロダクション,,株式会社,東京都,世田谷区,桜丘５丁目２番１４号,,13,112,1560054,,,2024-05-30,清算の結了等,,,2015-10-05,1,,,,,キラプロダクション,0
362,2010903002602,登記記録の閉鎖等,0,2024-06-11,2024-05-31,合同会社シェアブックス,,合同会社,東京都,大田区,田園調布５丁目５４番６号,,13,111,1450071,,,2024-05-31,清算の結了等,,,2015-10-05,1,,,,,シェアブックス,0
364,2011001042342,登記記録の閉鎖等,0,2024-06-11,2024-05-27,株式会社トランエディット,,株式会社,東京都,渋谷区,本町１丁目２０番２号,,13,113,1510071,,,2024-05-27,清算の結了等,,,2015-10-05,1,,,,,トランエディット,0
369,2011101085588,登記記録の閉鎖等,0,2024-06-11,2024-06-03,株式会社ｄａｔａＸ　Ｔｅｃｈｎｏｌｏｇｉｅｓ,,株式会社,東京都,新宿区,西新宿７丁目２０番１号,,13,104,1600023,,,2024-06-03,合併による解散等,1011101056020,令和６年６月１日東京都新宿区西新宿七丁目２０番１号株式会社データＸ（1011101056020）に合併し解散,2018-10-04,1,,,,,データエックステクノロジーズ,0
375,2011401019543,登記記録の閉鎖等,0,2024-06-11,2024-06-04,株式会社藤倉会計事務所,,株式会社,東京都,板橋区,蓮沼町１番２号,,13,119,1740052,,,2024-06-04,清算の結了等,,,2016-06-22,1,,,,,フジクラカイケイジムショ,0
386,2012702000068,登記記録の閉鎖等,0,2024-06-11,2024-06-03,有限会社アウトドアデザインズ,,有限会社,東京都,小平市,小川東町５丁目１３番１７号,,13,211,1870031,,,2024-06-03,清算の結了等,,,2015-10-05,1,,,,,アウトドアデザインズ,0
389,2020001026453,登記記録の閉鎖等,0,2024-06-11,2024-06-04,コスメ・クラブ株式会社,,株式会社,神奈川県,横浜市南区,平楽４６番地,,14,105,2320035,,,2024-06-04,清算の結了等,,,2015-10-05,1,,,,,コスメクラブ,0
416,2030001079649,登記記録の閉鎖等,0,2024-06-11,2024-06-03,株式会社グローアップ,,株式会社,埼玉県,川口市,飯塚１丁目３番６－１７０５号,,11,203,3320023,,,2024-06-03,清算の結了等,,,2015-10-05,1,,,,,グローアップ,0
424,2030002009497,登記記録の閉鎖等,0,2024-06-11,2024-06-07,有限会社トクトク倶楽部,,有限会社,埼玉県,さいたま市桜区,栄和４丁目２２番５号,,11,106,3380823,,,2024-06-07,清算の結了等,,,2015-10-05,1,,,,,トクトククラブ,0
440,2050001039246,登記記録の閉鎖等,0,2024-06-11,2024-06-04,株式会社熊建設,,株式会社,茨城県,筑西市,森添島１８２７番地２,,08,227,3080861,,,2024-06-04,清算の結了等,,,2015-10-05,1,,,,,クマケンセツ,0
450,2060001032670,登記記録の閉鎖等,0,2024-06-11,2024-06-03,株式会社環境ライン,,株式会社,栃木県,真岡市,熊倉２丁目８―４グリーンヒル４０５,,09,209,3214369,,,2024-06-03,清算の結了等,,,2020-06-09,1,,,,,カンキョウライン,0
455,2080401018474,登記記録の閉鎖等,0,2024-06-11,2024-06-06,株式会社Ｍアップ,,株式会社,静岡県,袋井市,湊３７６８番地の１０,,22,216,4371115,,,2024-06-06,清算の結了等,,,2015-10-05,1,,,,,エムアップ,0
465,2100001028276,登記記録の閉鎖等,0,2024-06-11,2024-06-03,株式会社サンアール,,株式会社,長野県,飯田市,鼎切石４００４番地１,,20,205,3950807,,,2024-06-03,合併による解散等,9012402007803,令和６年６月１日長野県飯田市北方３５９番地２さくら管理株式会社（9012402007803）に合併し解散,2015-10-05,1,,,,,サンアール,0
468,2100002006108,登記記録の閉鎖等,0,2024-06-11,2024-06-06,有限会社窪田商店,,有限会社,長野県,長野市,中条住良木３９５番地１,,20,201,3813205,,,2024-06-06,清算の結了等,,,2015-10-05,1,,,,,クボタショウテン,0
469,2100002010720,登記記録の閉鎖等,0,2024-06-11,2024-05-30,有限会社佐久コンサルタント,,有限会社,長野県,佐久市,岩村田３３９１番地３,,20,217,3850022,,,2024-05-30,清算の結了等,,,2015-10-05,1,,,,,サクコンサルタント,0
481,2120001177716,登記記録の閉鎖等,0,2024-06-11,2024-06-07,株式会社旭興産,,株式会社,大阪府,大阪市浪速区,下寺２丁目１番５号,,27,111,5560001,,,2024-06-07,清算の結了等,,,2015-10-05,1,,,,,アサヒコウサン,0
507,2120901029727,登記記録の閉鎖等,0,2024-06-11,2024-06-04,株式会社ＬＳ７コーポレーション,,株式会社,大阪府,豊中市,東豊中町３丁目２８番３５号,,27,203,5600003,,,2024-06-04,清算の結了等,,,2015-10-05,1,,,,,エルエスセブンコーポレーション,0
512,2120902016484,登記記録の閉鎖等,0,2024-06-11,2024-06-06,有限会社山一,,有限会社,大阪府,箕面市,白島３丁目１番１０号,,27,220,5620012,,,2024-06-06,清算の結了等,,,2015-10-05,1,,,,,ヤマイチ,0
550,2180003020240,登記記録の閉鎖等,0,2024-06-11,2024-06-03,合同会社ＯｐｔｉＺ,,合同会社,愛知県,春日井市,中央台４丁目１番地３中央台団地特別分譲住宅２１９号棟５０４号室,,23,206,4870011,,,2024-06-03,清算の結了等,,,2019-08-05,1,,,,,オプティズ,0
575,2240002025069,登記記録の閉鎖等,0,2024-06-11,2024-06-06,Ｉｓｈｉｎｏ有限会社,,有限会社,広島県,広島市西区,中広町１丁目７番２１号,,34,104,7330012,,,2024-06-06,清算の結了等,,,2015-10-05,1,,,,,イシノ,0
596,2310001005097,登記記録の閉鎖等,0,2024-06-11,2024-05-31,株式会社アイテック,,株式会社,長崎県,佐世保市,天神４丁目３４番２３号,,42,202,8571174,,,2024-05-31,清算の結了等,,,2015-10-05,1,,,,,アイテック,0
630,2390002009073,登記記録の閉鎖等,0,2024-06-11,2024-05-31,有限会社イツキ通信機,,有限会社,山形県,鶴岡市,外内島字石名田１２１番地,,06,203,9970815,,,2024-05-31,清算の結了等,,,2015-10-05,1,,,,,イツキツウシンキ,0
650,2450001012138,登記記録の閉鎖等,0,2024-06-11,2024-05-31,株式会社ベストクルー,,株式会社,北海道,旭川市,豊岡十条１丁目２番２４号,,01,204,0788240,,,2024-05-31,清算の結了等,,,2017-08-04,1,,,,,ベストクルー,0
670,3010001186149,登記記録の閉鎖等,0,2024-06-11,2024-05-31,株式会社メディカルリテール,,株式会社,東京都,中央区,八丁堀３丁目７番１号宝ビル本館６階,,13,102,1040032,,,2024-05-31,合併による解散等,8010001100674,令和６年５月３１日東京都中央区八丁堀三丁目７番１号宝ビル本館６階株式会社アイテム（8010001100674）に合併し解散,2017-09-07,1,,,,,メディカルリテール,0
707,3010903001842,登記記録の閉鎖等,0,2024-06-11,2024-06-06,合同会社あろは,,合同会社,東京都,世田谷区,宮坂２丁目１９番１４号,,13,112,1560051,,,2024-06-06,清算の結了等,,,2015-10-05,1,,,,,アロハ,0
736,3013202012800,登記記録の閉鎖等,0,2024-06-11,2024-05-31,有限会社インフィニティ,,有限会社,東京都,目黒区,鷹番２丁目１９番１８号－２Ｆ,,13,110,1520004,,,2024-05-31,清算の結了等,,,2015-10-05,1,,,,,インフィニティ,0
757,3021002047462,登記記録の閉鎖等,0,2024-06-11,2024-06-06,有限会社幸成ハウジング,,有限会社,神奈川県,大和市,上草柳１丁目７番３６号大和フジハイツ２０４号,,14,213,2420029,,,2024-06-06,清算の結了等,,,2015-10-05,1,,,,,コウセイハウジング,0
760,3021005008965,登記記録の閉鎖等,0,2024-06-11,2024-06-10,ＮＰＯ法人サイバー絆研究所,,その他の設立登記法人,神奈川県,藤沢市,鵠沼藤が谷１丁目１１番２９号,,14,205,2510031,,,2024-06-10,清算の結了等,,,2015-10-05,1,,,,,サイバーキズナケンキュウショ,0
763,3030001063395,登記記録の閉鎖等,0,2024-06-11,2024-06-05,株式会社ライフトータルサービス,,株式会社,埼玉県,さいたま市西区,大字西遊馬１４１３番地,,11,101,3310061,,,2024-06-05,清算の結了等,,,2015-10-05,1,,,,,ライフトータルサービス,0
804,3100002001859,登記記録の閉鎖等,0,2024-06-11,2024-06-03,佐藤建材工業有限会社,,有限会社,長野県,長野市,北条町２３番地１,,20,201,3810035,,,2024-06-03,清算の結了等,,,2015-10-05,1,,,,,サトウケンザイコウギョウ,0
806,3100002017021,登記記録の閉鎖等,0,2024-06-11,2024-06-06,有限会社飯山フーズ,,有限会社,長野県,飯山市,大字豊田４５６３番地,,20,213,3892411,,,2024-06-06,清算の結了等,,,2015-10-05,1,,,,,イイヤマフーズ,0
812,3120001032936,登記記録の閉鎖等,0,2024-06-11,2024-06-07,株式会社住吉恒信社,,株式会社,大阪府,大阪市住吉区,上住吉１丁目８番２８号,,27,120,5580046,,,2024-06-07,清算の結了等,,,2015-10-05,1,,,,,スミヨシコウシンシャ,0
822,3120002055300,登記記録の閉鎖等,0,2024-06-11,2024-06-06,有限会社アドクリエイト,,有限会社,大阪府,大阪市阿倍野区,昭和町１丁目１６番６－１０３号,,27,119,5450011,,,2024-06-06,清算の結了等,,,2015-10-05,1,,,,,アドクリエイト,0
847,3140001052940,登記記録の閉鎖等,0,2024-06-11,2024-06-06,株式会社寿総研,,株式会社,兵庫県,尼崎市,武庫之荘２丁目６番３－７０２号,,28,202,6610035,,,2024-06-06,清算の結了等,,,2015-10-05,1,,,,,コトブキソウケン,0
890,3200001002278,登記記録の閉鎖等,0,2024-06-11,2024-06-06,株式会社サンポー社,,株式会社,岐阜県,岐阜市,曽我屋２丁目２５０番地の４,,21,201,5010101,,,2024-06-06,清算の結了等,,,2015-10-05,1,,,,,サンポーシャ,0
899,3240001034573,登記記録の閉鎖等,0,2024-06-11,2024-06-07,株式会社わらしべ計画,,株式会社,広島県,福山市,横尾町２丁目１１番３号,,34,207,7200011,,,2024-06-07,清算の結了等,,,2015-10-05,1,,,,,ワラシベケイカク,0
905,3240002045669,登記記録の閉鎖等,0,2024-06-11,2024-06-06,有限会社トップＭ,,有限会社,広島県,福山市,霞町３丁目２番２３号,,34,207,7200812,,,2024-06-06,清算の結了等,,,2015-10-05,1,,,,,トップエム,0
915,3290001000249,登記記録の閉鎖等,0,2024-06-11,2024-04-16,株式会社サンデック,,株式会社,福岡県,福岡市西区,大町団地７番３０２号,,40,135,8190021,,,2024-04-16,清算の結了等,,,2015-10-05,1,,,,,サンデック,0
920,3290003011211,登記記録の閉鎖等,0,2024-06-11,2024-05-20,ＡＪＤ合同会社,,合同会社,福岡県,筑紫野市,大字天山５２１－６,,40,217,8180012,,,2024-05-20,清算の結了等,,,2021-05-21,1,,,,,エージェイディー,0
944,3410003001728,登記記録の閉鎖等,0,2024-06-11,2024-06-03,合資会社船木商店,,合資会社,秋田県,能代市,西通町１番４号,,05,202,0160891,,,2024-06-03,清算の結了等,,,2015-10-05,1,,,,,フナキショウテン,0
949,3430002064385,登記記録の閉鎖等,0,2024-06-11,2024-05-31,株式会社セクマ,,株式会社,東京都,中央区,日本橋２丁目１番１４号日本橋加藤ビルディング６階弁護士法人ＰＬＡＺＡ総合法律事務所内,,13,102,1030027,,,2024-05-31,清算の結了等,,,2015-10-05,1,,,,,セクマ,0
963,4010001018714,登記記録の閉鎖等,0,2024-06-11,2024-06-03,株式会社食品と科学社,,株式会社,東京都,千代田区,神田錦町３丁目６番４－１２０１号,,13,101,1010054,,,2024-06-03,清算の結了等,,,2015-10-05,1,,,,,ショクヒントカガクシャ,0
988,4010401132197,登記記録の閉鎖等,0,2024-06-11,2024-05-22,アンドロボコアソリューションズ株式会社,,株式会社,東京都,港区,六本木５丁目１６番５０号,,13,103,1060032,,,2024-05-22,合併による解散等,5010701030868,令和６年５月１日東京都港区六本木五丁目１６番５０号株式会社Ｖ　ＡＮＤＲＯＢＯ（5010701030868）に合併し解散,2017-06-28,1,,,,,アンドロボコアソリューションズ,0
1022,4011303002661,登記記録の閉鎖等,0,2024-06-11,2024-06-04,合同会社ＹＫ会,,合同会社,東京都,杉並区,阿佐谷北３丁目３２番１５号,,13,115,1660001,,,2024-06-04,清算の結了等,,,2017-03-02,1,,,,,ワイケイカイ,0
1057,4030003007754,登記記録の閉鎖等,0,2024-06-11,2024-06-06,合同会社猪股,,合同会社,埼玉県,さいたま市桜区,中島１丁目３５番２０号,,11,106,3380822,,,2024-06-06,清算の結了等,,,2015-10-05,1,,,,,イノマタ,0
1085,4070002029696,登記記録の閉鎖等,0,2024-06-11,2024-06-06,有限会社スタッフ,,有限会社,群馬県,太田市,東新町５８番地２,,10,205,3730015,,,2024-06-06,清算の結了等,,,2015-10-05,1,,,,,スタッフ,0
1086,4080001007792,登記記録の閉鎖等,0,2024-06-11,2024-06-03,株式会社鳳工務店,,株式会社,静岡県,静岡市清水区,大手１丁目７番９号,,22,103,4240808,,,2024-06-03,清算の結了等,,,2015-10-05,1,,,,,オオトリコウムテン,0
1095,4090002008351,登記記録の閉鎖等,0,2024-06-11,2024-06-04,有限会社佐藤林業,,有限会社,山梨県,笛吹市,御坂町藤野木１４５２番地,,19,211,4060814,,,2024-06-04,清算の結了等,,,2015-10-05,1,,,,,サトウリンギョウ,0
1099,4100002025873,登記記録の閉鎖等,0,2024-06-11,2024-05-31,有限会社ＯＫプランニング,,有限会社,長野県,松本市,大字和田８０００番地４８６,,20,202,3901242,,,2024-05-31,清算の結了等,,,2015-10-05,1,,,,,オーケープランニング,0
1100,4100003005949,登記記録の閉鎖等,0,2024-06-11,2024-05-29,合同会社ＦｉｒｓｔＰｅｎｇｕｉｎ,,合同会社,長野県,佐久市,中込１２４８番地３号Ｂ－２０１,,20,217,3850051,,,2024-05-29,清算の結了等,,,2021-01-22,1,,,,,ファーストペンギン,0
1106,4110002010263,登記記録の閉鎖等,0,2024-06-11,2024-06-05,有限会社西脇農園,,有限会社,新潟県,新潟市南区,下八枚２０２０番地,,15,106,9501424,,,2024-06-05,清算の結了等,,,2015-10-05,1,,,,,,0
1128,4120101065050,登記記録の閉鎖等,0,2024-06-11,2024-06-07,日昇産業株式会社,,株式会社,大阪府,大阪市住吉区,長居４丁目２番２号ツェルマット長居６０２号,,27,120,5580003,,,2024-06-07,清算の結了等,,,2022-02-08,1,,,,,ニッショウサンギョウ,0
1136,4122001014954,登記記録の閉鎖等,0,2024-06-11,2024-06-06,株式会社東商,,株式会社,大阪府,東大阪市,神田町２番８号,,27,227,5798058,,,2024-06-06,合併による解散等,8120001143786,令和６年６月１日大阪市中央区谷町九丁目２番１４号株式会社大阪東商（8120001143786）に合併し解散,2015-10-05,1,,,,,トウショウ,0
1151,4140001117057,登記記録の閉鎖等,0,2024-06-11,2024-06-05,株式会社パソナスマイル,,株式会社,兵庫県,淡路市,野島蟇浦９８５番地１,,28,226,6561721,,,2024-06-05,合併による解散等,4140001088232,令和６年６月１日兵庫県淡路市野島蟇浦８４１番地５株式会社パソナふるさとインキュベーション（4140001088232）に合併し解散,2020-04-08,1,,,,,パソナスマイル,0
1156,4140002002423,登記記録の閉鎖等,0,2024-06-11,2024-06-05,ミスズエンタプライズ有限会社,,有限会社,兵庫県,神戸市東灘区,本山北町１丁目１３番２号,,28,101,6580003,,,2024-06-05,清算の結了等,,,2015-10-05,1,,,,,ミスズエンタプライズ,0
1179,4180302016912,登記記録の閉鎖等,0,2024-06-11,2024-05-31,有限会社ちくさ,,有限会社,愛知県,安城市,東栄町３丁目１１番８号,,23,212,4460007,,,2024-05-31,清算の結了等,,,2015-10-05,1,,,,,チクサ,0
1188,4200001008225,登記記録の閉鎖等,0,2024-06-11,2024-06-06,株式会社コンポ,,株式会社,岐阜県,山県市,東深瀬２８４１番地１,,21,215,5012104,,,2024-06-06,清算の結了等,,,2015-10-05,1,,,,,コンポ,0
1211,4290001078284,登記記録の閉鎖等,0,2024-06-11,2024-05-20,株式会社ＲＥＡＣＴ,,株式会社,福岡県,福岡市早良区,弥生１丁目６番５号,,40,137,8140014,,,2024-05-20,清算の結了等,,,2017-06-20,1,,,,,リアクト,0
1217,4290002039285,登記記録の閉鎖等,0,2024-06-11,2024-05-20,有限会社嶋津商会,,有限会社,福岡県,筑紫野市,湯町１丁目６番２０号,,40,217,8180058,,,2024-05-20,清算の結了等,,,2015-10-05,1,,,,,シマヅショウカイ,0
1222,4310002004633,登記記録の閉鎖等,0,2024-06-11,2024-06-06,有限会社平野機工,,有限会社,長崎県,長崎市,鳴見町９７番地６,,42,201,8512214,,,2024-06-06,清算の結了等,,,2015-10-05,1,,,,,ヒラノキコウ,0
1257,4460101006895,登記記録の閉鎖等,0,2024-06-11,2024-06-04,花岡生態研究所株式会社,,株式会社,北海道,中川郡本別町,共栄９番地７,,01,646,0893305,,,2024-06-04,清算の結了等,,,2021-01-21,1,,,,,ハナオカセイタイケンキュウジョ,0
1312,5010803003524,登記記録の閉鎖等,0,2024-06-11,2024-06-03,Ｆｌａｔ　Ｆｏｒｅｓｔ　Ｆｉｎｅｓｔ合同会社,,合同会社,東京都,大田区,東糀谷４丁目３番２２－６０５号,,13,111,1440033,,,2024-06-03,清算の結了等,,,2020-10-28,1,,,,,フラットフォレストファイネスト,0
1316,5011001030278,登記記録の閉鎖等,0,2024-06-11,2024-06-07,株式会社ヤマノビューティケミカル,,株式会社,埼玉県,八潮市,大字南後谷２００番地１１,,11,234,3400831,,,2024-06-07,合併による解散等,1011001030265,令和６年５月２１日東京都渋谷区代々木一丁目３０番７号株式会社ヤマノビューティメイトグループ（1011001030265）に合併し解散,2015-10-05,1,,,,,ヤマノビューティケミカル,0
1328,5011202002407,登記記録の閉鎖等,0,2024-06-11,2024-06-07,有限会社三一堂,,有限会社,東京都,中野区,鷺宮４丁目４０番５号,,13,114,1650032,,,2024-06-07,清算の結了等,,,2015-10-05,1,,,,,サンイチドウ,0
1334,5011501000391,登記記録の閉鎖等,0,2024-06-11,2024-06-05,イサム産業株式会社,,株式会社,東京都,北区,赤羽２丁目３４番５号アイエスハイツ２－１階,,13,117,1150045,,,2024-06-05,清算の結了等,,,2015-10-05,1,,,,,イサムサンギョウ,0
1345,5020001084374,登記記録の閉鎖等,0,2024-06-11,2024-06-04,株式会社ＳＤ企業,,株式会社,神奈川県,横浜市鶴見区,生麦３丁目１５番１４号,,14,101,2300052,,,2024-06-04,清算の結了等,,,2015-10-05,1,,,,,,0
1359,5021005002917,登記記録の閉鎖等,0,2024-06-11,2024-06-03,特定非営利活動法人ひろびろ,,その他の設立登記法人,神奈川県,相模原市中央区,矢部１丁目２１番７号原ハイツ１０１号,,14,152,2520232,,,2024-06-03,清算の結了等,,,2015-10-05,1,,,,,ヒロビロ,0
1371,5030002107810,登記記録の閉鎖等,0,2024-06-11,2024-06-06,有限会社ヤサカ建設,,有限会社,埼玉県,川口市,芝西１丁目２８番２９号,,11,203,3330855,,,2024-06-06,清算の結了等,,,2015-10-05,1,,,,,ヤサカケンセツ,0
1389,5060001017710,登記記録の閉鎖等,0,2024-06-11,2024-06-04,瀬下建設株式会社,,株式会社,栃木県,栃木市,岩舟町和泉１３１９番地２,,09,203,3294303,,,2024-06-04,清算の結了等,,,2015-10-05,1,,,,,セシモケンセツ,0
1393,5060002002471,登記記録の閉鎖等,0,2024-06-11,2024-06-03,有限会社オダ内装,,有限会社,栃木県,宇都宮市,砥上町１１１０番地９,,09,201,3200856,,,2024-06-03,清算の結了等,,,2015-10-05,1,,,,,オダナイソウ,0
1402,5090001013905,登記記録の閉鎖等,0,2024-06-11,2024-06-03,株式会社三協機電,,株式会社,山梨県,笛吹市,石和町河内１９６番地３,,19,211,4060043,,,2024-06-03,清算の結了等,,,2015-10-05,1,,,,,,0
1495,5180302012373,登記記録の閉鎖等,0,2024-06-11,2024-05-31,有限会社マツシタ工機,,有限会社,愛知県,豊橋市,中原町字東荒神９７番地の４,,23,201,4413106,,,2024-05-31,清算の結了等,,,2015-10-05,1,,,,,マツシタコウキ,0
1500,5190005009377,登記記録の閉鎖等,0,2024-06-11,2024-06-06,特定非営利活動法人植えるＣｏｍｅかわしま,,その他の設立登記法人,三重県,四日市市,川島町１６４５番地,,24,202,5120934,,,2024-06-06,清算の結了等,,,2015-10-05,1,,,,,ウエルカムカワシマ,0
1506,5200002012555,登記記録の閉鎖等,0,2024-06-11,2024-06-07,有限会社工建ミノウラ,,有限会社,岐阜県,大垣市,楽田町２丁目１６６２番地の１,,21,202,5030008,,,2024-06-07,清算の結了等,,,2015-10-05,1,,,,,コウケンミノウラ,0
1508,5210003001498,登記記録の閉鎖等,0,2024-06-11,2024-06-03,ＳＹ合同会社,,合同会社,福井県,吉田郡永平寺町,吉峰第５号５番地,,18,322,9101304,,,2024-06-03,合併による解散等,2380003001245,令和６年６月１日福井県吉田郡永平寺町吉峰第５号５番地シンフォニー吉田酒造株式会社（2380003001245）に合併し解散,2022-04-19,1,,,,,エスワイ,0
1513,5240001023467,登記記録の閉鎖等,0,2024-06-11,2024-06-07,株式会社エムニーＣ,,株式会社,広島県,東広島市,志和町冠６６０番地,,34,212,7390265,,,2024-06-07,清算の結了等,,,2015-10-05,1,,,,,,0
1516,5240002025413,登記記録の閉鎖等,0,2024-06-11,2024-06-06,有限会社上海ウェーブ,,有限会社,広島県,広島市西区,中広町１丁目７番２１号,,34,104,7330012,,,2024-06-06,清算の結了等,,,2015-10-05,1,,,,,シャンハイウェーブ,0
1519,5260001010389,登記記録の閉鎖等,0,2024-06-11,2024-05-31,株式会社岡山水道センター,,株式会社,岡山県,岡山市南区,豊成３丁目２３－３０,,33,104,7000942,,,2024-05-31,清算の結了等,,,2015-10-05,1,,,,,オカヤマスイドウセンター,0
1531,5290002037032,登記記録の閉鎖等,0,2024-06-11,2024-05-20,有限会社志免企画,,有限会社,福岡県,糟屋郡志免町,別府２丁目２０番１号,,40,343,8112205,,,2024-05-20,清算の結了等,,,2015-10-05,1,,,,,シメキカク,0
1543,5320001010795,登記記録の閉鎖等,0,2024-06-11,2024-05-31,株式会社シモン,,株式会社,大分県,中津市,大字上宮永９７２番地の３,,44,203,8710027,,,2024-05-31,清算の結了等,,,2015-10-05,1,,,,,,0
1573,5480001000624,登記記録の閉鎖等,0,2024-06-11,2024-06-07,郡ネット株式会社,,株式会社,徳島県,徳島市,津田本町２丁目４番２１号,,36,201,7708003,,,2024-06-07,清算の結了等,,,2015-10-05,1,,,,,コオリネット,0
1574,5500001001198,登記記録の閉鎖等,0,2024-06-11,2024-06-06,株式会社かけみず,,株式会社,愛媛県,松山市,東長戸２丁目６番４８号,,38,201,7918005,,,2024-06-06,清算の結了等,,,2015-10-05,1,,,,,カケミズ,0
1634,6011102014311,登記記録の閉鎖等,0,2024-06-11,2024-06-03,有限会社アーデン・プランニング,,有限会社,東京都,新宿区,早稲田鶴巻町５０１番地,,13,104,1620041,,,2024-06-03,清算の結了等,,,2015-10-05,1,,,,,アーデンプランニング,0
1642,6012402013077,登記記録の閉鎖等,0,2024-06-11,2024-06-06,有限会社エイ・エム・エス,,有限会社,東京都,狛江市,岩戸北３丁目１０番５－３０５号,,13,219,2010004,,,2024-06-06,清算の結了等,,,2015-10-05,1,,,,,エイエムエス,0
1684,6040002033468,登記記録の閉鎖等,0,2024-06-11,2024-05-27,有限会社河原商店,,有限会社,千葉県,市川市,市川南２丁目１番１号,,12,203,2720033,,,2024-05-27,清算の結了等,,,2015-10-05,1,,,,,カワハラショウテン,0
1698,6070002013797,登記記録の閉鎖等,0,2024-06-11,2024-06-06,有限会社産業ビル,,有限会社,群馬県,高崎市,東国分町５０７番地,,10,202,3703514,,,2024-06-06,清算の結了等,,,2015-10-05,1,,,,,サンギョウビル,0
1710,6080401020006,登記記録の閉鎖等,0,2024-06-11,2024-06-06,株式会社ホビーワールドマリン東海,,株式会社,静岡県,浜松市中央区,寺脇町４２５番地,,22,138,4300841,,,2024-06-06,清算の結了等,,,2015-10-05,1,,,,,ホビーワールドマリントウカイ,0
1718,6100002003290,登記記録の閉鎖等,0,2024-06-11,2024-06-05,有限会社デンタル・アート・ミヤノ,,有限会社,長野県,長野市,大字長野岩石町２２８番地,,20,201,3800855,,,2024-06-05,清算の結了等,,,2015-10-05,1,,,,,デンタルアートミヤノ,0
1729,6120001226337,登記記録の閉鎖等,0,2024-06-11,2024-06-06,株式会社ＮＫＩ,,株式会社,大阪府,茨木市,松ケ本町４番３号パインハウス２０５号,,27,211,5670033,,,2024-06-06,清算の結了等,,,2020-01-15,1,,,,,エヌケーアイ,0
1758,6140002043705,登記記録の閉鎖等,0,2024-06-11,2024-06-05,有限会社エムアンドエム貿易,,有限会社,兵庫県,尼崎市,塚口本町２丁目１８番５号,,28,202,6610001,,,2024-06-05,清算の結了等,,,2015-10-05,1,,,,,エムアンドエムボウエキ,0
1759,6140002063109,登記記録の閉鎖等,0,2024-06-11,2024-06-06,有限会社三創,,有限会社,兵庫県,西脇市,高田井町１３２番地の３,,28,213,6770016,,,2024-06-06,清算の結了等,,,2015-10-05,1,,,,,サンソウ,0
1769,6180001091321,登記記録の閉鎖等,0,2024-06-11,2024-06-04,株式会社マウントベンチャーキャピタル,,株式会社,愛知県,名古屋市東区,泉１丁目１８番３号イズミＳＴＡＴＥＬＹ名古屋毛織会館７０１号室,,23,102,4610001,,,2024-06-04,清算の結了等,,,2015-10-05,1,,,,,マウントベンチャーキャピタル,0
1810,6360001012259,登記記録の閉鎖等,0,2024-06-11,2024-06-07,株式会社カンナリゾートヴィラ,,株式会社,沖縄県,国頭郡宜野座村,字漢那３９７番地１,,47,313,9041304,,,2024-06-07,合併による解散等,3013301021685,令和６年５月３１日東京都豊島区東池袋一丁目１５番１２号アムス・エステート株式会社（3013301021685）に合併し解散,2015-10-05,1,,,,,,0
1818,6380001019046,登記記録の閉鎖等,0,2024-06-11,2024-06-05,ジョブプラネット株式会社,,株式会社,福島県,会津若松市,町北町大字始字宮前１２５番地シゲキ会津インタービル４階,,07,202,9650052,,,2024-06-05,清算の結了等,,,2015-10-05,1,,,,,ジョブプラネット,0
1828,6390001014384,登記記録の閉鎖等,0,2024-06-11,2024-05-31,株式会社Ｐａｓｓｉｏｎ,,株式会社,山形県,山形市,香澄町１丁目１１番１４号唐津屋ビル２Ｆ,,06,201,9900039,,,2024-05-31,清算の結了等,,,2016-02-04,1,,,,,パッション,0
1847,6490002012666,登記記録の閉鎖等,0,2024-06-11,2024-06-06,有限会社戸梶開発,,有限会社,高知県,香美市,土佐山田町繁藤９番地ロ,,39,212,7890585,,,2024-06-06,清算の結了等,,,2015-10-05,1,,,,,トカジカイハツ,0
1853,6500002005263,登記記録の閉鎖等,0,2024-06-11,2024-06-06,有限会社繁栄建設,,有限会社,愛媛県,松山市,一番町２丁目５番地３３,,38,201,7900001,,,2024-06-06,清算の結了等,,,2015-10-05,1,,,,,ハンエイケンセツ,0
1874,7010003041455,登記記録の閉鎖等,0,2024-06-11,2024-05-31,エスティファンドシックス合同会社,,合同会社,東京都,千代田区,丸の内３丁目１番１号東京共同会計事務所内,,13,101,1000005,,,2024-05-31,清算の結了等,,,2023-08-24,1,,,,,エスティファンドシックス,0
1889,7010703002244,登記記録の閉鎖等,0,2024-06-11,2024-06-07,株式会社久保会計事務所,,株式会社,東京都,品川区,東五反田１丁目１１番８号,,13,109,1410022,,,2024-06-07,清算の結了等,,,2015-10-05,1,,,,,クボカイケイジムショ,0
1900,7011001025128,登記記録の閉鎖等,0,2024-06-11,2024-06-07,株式会社リマーニ,,株式会社,東京都,渋谷区,恵比寿西１丁目３３番３号,,13,113,1500021,,,2024-06-07,清算の結了等,,,2015-10-05,1,,,,,,0
1932,7012401038859,登記記録の閉鎖等,0,2024-06-11,2024-06-06,Ｃｏｒｄ株式会社,,株式会社,東京都,府中市,本町１丁目１２番２号オウズ御殿山３０２,,13,206,1830027,,,2024-06-06,清算の結了等,,,2022-02-16,1,,,,,コード,0
1938,7013303005377,登記記録の閉鎖等,0,2024-06-11,2024-06-06,合同会社ＧＳＥ　Ｇｌｏｂａｌ　Ｐａｒｔｎｅｒｓ,,合同会社,東京都,豊島区,駒込６丁目１１番１８号,,13,116,1700003,,,2024-06-06,清算の結了等,,,2020-10-28,1,,,,,ジーエスイーグローバルパートナーズ,0
1941,7020001086179,登記記録の閉鎖等,0,2024-06-11,2024-06-04,株式会社クニハウス,,株式会社,神奈川県,川崎市麻生区,王禅寺西１丁目１４番１２号,,14,137,2150017,,,2024-06-04,清算の結了等,,,2015-10-05,1,,,,,クニハウス,0
1958,7021001018015,登記記録の閉鎖等,0,2024-06-11,2024-06-06,なかよしコンサルタント株式会社,,株式会社,神奈川県,相模原市中央区,上溝８８４番地１,,14,152,2520243,,,2024-06-06,清算の結了等,,,2015-10-05,1,,,,,ナカヨシコンサルタント,0
1961,7021001076228,登記記録の閉鎖等,0,2024-06-11,2024-06-07,湘南ホームナーシング株式会社,,株式会社,神奈川県,茅ヶ崎市,小和田２丁目８番２３号,,14,207,2530012,,,2024-06-07,清算の結了等,,,2022-06-15,1,,,,,ショウナンホームナーシング,0
1999,7040001112940,登記記録の閉鎖等,0,2024-06-11,2024-06-03,株式会社り・わーく,,株式会社,千葉県,市川市,福栄３丁目７番２４号,,12,203,2720137,,,2024-06-03,清算の結了等,,,2020-03-18,1,,,,,リワーク,0
2020,7080402013684,登記記録の閉鎖等,0,2024-06-11,2024-06-10,有限会社ライフライン,,有限会社,静岡県,浜松市中央区,立野町４１１番地の４,,22,138,4300827,,,2024-06-10,清算の結了等,,,2015-10-05,1,,,,,,0
2030,7100001024171,登記記録の閉鎖等,0,2024-06-11,2024-06-05,株式会社ＡｉＬｅｅ,,株式会社,長野県,北佐久郡軽井沢町,軽井沢東２５３番地マイアミビル２Ｆ,,20,321,3890104,,,2024-06-05,清算の結了等,,,2015-10-05,1,,,,,アイリー,0
2066,7130001047112,登記記録の閉鎖等,0,2024-06-11,2024-06-07,株式会社Ｎ．ｅ．ｔ,,株式会社,京都府,京都市西京区,大枝東長町３番地６５７,,26,111,6101111,,,2024-06-07,清算の結了等,,,2015-10-05,1,,,,,エヌイーティー,0
2070,7130002022320,登記記録の閉鎖等,0,2024-06-11,2024-06-06,有限会社塩見製作所,,有限会社,京都府,京都市東山区,大黒町通正面上る蛭子町南組２４５番地,,26,105,6050936,,,2024-06-06,清算の結了等,,,2015-10-05,1,,,,,シオミセイサクショ,0
2073,7130005012104,登記記録の閉鎖等,0,2024-06-11,2024-06-05,一般社団法人なむの会,,その他の設立登記法人,京都府,京都市中京区,油小路通錦小路上る山田町５２３番地,,26,104,6048237,,,2024-06-05,清算の結了等,,,2015-10-05,1,,,,,ナムノカイ,0
2093,7160001022756,登記記録の閉鎖等,0,2024-06-11,2024-06-07,株式会社ＳＫ＆Ｈｅｒｚ,,株式会社,滋賀県,大津市,真野１丁目２２番２４号,,25,201,5200232,,,2024-06-07,清算の結了等,,,2020-09-16,1,,,,,エスケーアンドヘルツ,0
2101,7180002015807,登記記録の閉鎖等,0,2024-06-11,2024-06-04,有限会社ケイバックス,,有限会社,愛知県,名古屋市千種区,新西２丁目１１番１８号,,23,101,4640003,,,2024-06-04,清算の結了等,,,2015-10-05,1,,,,,ケイバックス,0
2106,7180301015747,登記記録の閉鎖等,0,2024-06-11,2024-06-07,三州フリット株式会社,,株式会社,愛知県,高浜市,論地町１丁目１番地３,,23,227,4441314,,,2024-06-07,清算の結了等,,,2015-10-05,1,,,,,,0
2143,7360001007373,登記記録の閉鎖等,0,2024-06-11,2024-06-06,中頭コンクリートブロック株式会社,,株式会社,沖縄県,沖縄市,字登川２８７０番地,,47,211,9042142,,,2024-06-06,清算の結了等,,,2015-10-05,1,,,,,,0
2151,7370201002314,登記記録の閉鎖等,0,2024-06-11,2024-05-31,株式会社後藤工業所,,株式会社,宮城県,加美郡加美町,字大門四番１番地,,04,445,9814253,,,2024-05-31,清算の結了等,,,2015-10-05,1,,,,,ゴトウコウギョウショ,0
2163,7430002064704,登記記録の閉鎖等,0,2024-06-11,2024-05-31,株式会社バリウ,,株式会社,東京都,中央区,日本橋２丁目１番１４号日本橋加藤ビルディング６階,,13,102,1030027,,,2024-05-31,清算の結了等,,,2015-10-05,1,,,,,バリウ,0
2168,7470005005420,登記記録の閉鎖等,0,2024-06-11,2024-06-04,特定非営利活動法人かがわサポートセンターリンク,,その他の設立登記法人,香川県,高松市,元山町１０６０番地２,,37,201,7610311,,,2024-06-04,清算の結了等,,,2015-10-05,1,,,,,カガワサポートセンターリンク,0
2175,7700150104969,削除,,2024-06-11,,,,,,,,,,,,,,,,,,,,,,,,,
2186,8010001196110,登記記録の閉鎖等,0,2024-06-11,2024-05-31,株式会社エドテックシステム,,株式会社,東京都,中央区,銀座６丁目１３番１６号銀座ＷａｌｌビルＵＣＦ５０１,,13,102,1040061,,,2024-05-31,清算の結了等,,,2018-11-05,1,,,,,エドテックシステム,0
2220,8011003010300,登記記録の閉鎖等,0,2024-06-11,2024-05-31,合同会社東松山石橋,,合同会社,東京都,渋谷区,千駄ヶ谷４丁目２５番２号修養団ＳＹＤビル株式会社フジタ内,,13,113,1510051,,,2024-05-31,清算の結了等,,,2019-09-02,1,,,,,ヒガシマツヤマイシバシ,0
2225,8011101085590,登記記録の閉鎖等,0,2024-06-11,2024-06-03,株式会社ｂ－ｄａｓｈ　Ｔｅｃｈｎｏｌｏｇｉｅｓ,,株式会社,東京都,新宿区,西新宿７丁目２０番１号,,13,104,1600023,,,2024-06-03,合併による解散等,1011101056020,令和６年６月１日東京都新宿区西新宿七丁目２０番１号株式会社データＸ（1011101056020）に合併し解散,2018-10-09,1,,,,,ビーダッシュテクノロジーズ,0
2253,8020001054663,登記記録の閉鎖等,0,2024-06-11,2024-06-04,アコールシップ株式会社,,株式会社,神奈川県,横浜市都筑区,茅ケ崎中央５８番２７号,,14,118,2240032,,,2024-06-04,清算の結了等,,,2015-10-05,1,,,,,アコールシップ,0
2266,8021005008507,登記記録の閉鎖等,0,2024-06-11,2024-06-06,三崎塩干物加工業協同組合,,その他の設立登記法人,神奈川県,三浦市,三崎町城ケ島６５８番地,,14,210,2380237,,,2024-06-06,清算の結了等,,,2015-10-05,1,,,,,ミサキシオヒモノカコウギョウ,0
2289,8040002015340,登記記録の閉鎖等,0,2024-06-11,2024-06-03,有限会社京葉技建,,有限会社,千葉県,千葉市若葉区,若松町２３７７番地２９,,12,104,2640021,,,2024-06-03,清算の結了等,,,2015-10-05,1,,,,,ケイヨウギケン,0
2316,8100001021515,登記記録の閉鎖等,0,2024-06-11,2024-06-03,株式会社サンワーク,,株式会社,長野県,上伊那郡箕輪町,大字三日町６５２番地１,,20,383,3994603,,,2024-06-03,合併による解散等,6100001022069,令和６年６月１日長野県上伊那郡箕輪町大字三日町６５２番地１株式会社ＳＥＲＶＥ（6100001022069）に合併し解散,2015-10-05,1,,,,,サンワーク,0
2345,8120002074213,登記記録の閉鎖等,0,2024-06-11,2024-06-05,有限会社さいわい建設,,有限会社,大阪府,枚方市,枚方元町７番１６号,,27,210,5730052,,,2024-06-05,清算の結了等,,,2015-10-05,1,,,,,サイワイケンセツ,0
2383,8140003018084,登記記録の閉鎖等,0,2024-06-11,2024-06-05,Ｇｒｏｗ　ｗｉｔｈ合同会社,,合同会社,兵庫県,神戸市東灘区,向洋町中７丁目２－１－４番館９０４号室,,28,101,6580032,,,2024-06-05,清算の結了等,,,2022-09-12,1,,,,,グローウィズ,0
2392,8180003018543,登記記録の閉鎖等,0,2024-06-11,2024-06-05,合同会社フォルトゥーナ,,合同会社,愛知県,名古屋市西区,幅下２丁目１０番１２号,,23,104,4510041,,,2024-06-05,合併による解散等,1020001096852,令和６年５月３１日神奈川県横浜市鶴見区鶴見中央一丁目２３番１８号コスモプラザ４０３号室アセットライフマネジメント株式会社（1020001096852）に合併し解散,2017-12-19,1,,,,,フォルトゥーナ,0
2396,8180301015564,登記記録の閉鎖等,0,2024-06-11,2024-05-31,株式会社みつば,,株式会社,愛知県,碧南市,源氏神明町２７６番地,,23,209,4470872,,,2024-05-31,清算の結了等,,,2015-10-05,1,,,,,ミツバ,0
2398,8180301036197,登記記録の閉鎖等,0,2024-06-11,2024-05-29,株式会社オーティーエーコーポレーション,,株式会社,愛知県,刈谷市,小垣江町須賀２２０番地,,23,210,4480813,,,2024-05-29,清算の結了等,,,2022-05-09,1,,,,,オーティーエーコーポレーション,0
2415,8230003001873,登記記録の閉鎖等,0,2024-06-11,2024-06-06,合同会社リンク,,合同会社,富山県,富山市,神通本町１丁目９番１号レジデンス雅尚３０２号室,,16,201,9300008,,,2024-06-06,清算の結了等,,,2022-06-21,1,,,,,リンク,0
2421,8280002010664,登記記録の閉鎖等,0,2024-06-11,2024-06-07,有限会社山根石油,,有限会社,島根県,鹿足郡吉賀町,六日市４４３番地,,32,505,6995513,,,2024-06-07,清算の結了等,,,2015-10-05,1,,,,,ヤマネセキユ,0
2427,8290003008260,登記記録の閉鎖等,0,2024-06-11,2024-05-17,合同会社トリプルアール,,合同会社,福岡県,久留米市,東町１８５番地４立野ビル１階,,40,203,8300032,,,2024-05-17,清算の結了等,,,2018-08-02,1,,,,,トリプルアール,0
2433,8330001014925,登記記録の閉鎖等,0,2024-06-11,2024-06-07,株式会社坂本商事,,株式会社,熊本県,玉名市,三ツ川１３８３番地,,43,206,8650009,,,2024-06-07,清算の結了等,,,2015-10-05,1,,,,,サカモトショウジ,0
2456,8380001002529,登記記録の閉鎖等,0,2024-06-11,2024-06-05,株式会社不二家福島,,株式会社,福島県,伊達市,下川原２８番地,,07,213,9600401,,,2024-06-05,合併による解散等,3010001034910,令和６年６月１日東京都文京区大塚二丁目１５番６号株式会社不二家（3010001034910）に合併し解散,2015-10-05,1,,,,,,0
2489,9010001132320,登記記録の閉鎖等,0,2024-06-11,2024-06-06,株式会社ＮＢ　ＥＮＴＥＲＴＡＩＮＭＥＮＴ,,株式会社,東京都,中野区,弥生町１丁目５３番１１号,,13,114,1640013,,,2024-06-06,合併による解散等,1010501049047,令和６年６月１日東京都台東区浅草橋一丁目１３－６株式会社メタバース（1010501049047）に合併し解散,2015-10-05,1,,,,,エヌビーエンターテインメント,0
2558,9020001010723,登記記録の閉鎖等,0,2024-06-11,2024-06-04,株式会社横浜インテリジェンス,,株式会社,神奈川県,横浜市瀬谷区,二ツ橋町３６１番地１２,,14,114,2460021,,,2024-06-04,清算の結了等,,,2015-10-05,1,,,,,ヨコハマインテリジェンス,0
2564,9020003022799,登記記録の閉鎖等,0,2024-06-11,2024-06-04,Ｐｉｌａｔｅｓ　Ｓｔｕｄｉｏ　Ｆｌｙ　Ｙｏｋｏｈａｍａ合同会社,,合同会社,神奈川県,横浜市港北区,大倉山２丁目１番１４号久保田ビル４０１号,,14,109,2220037,,,2024-06-04,清算の結了等,,,2022-11-29,1,,,,,ピラティススタジオフライヨコハマ,0
2581,9030001141880,登記記録の閉鎖等,0,2024-06-11,2024-06-05,株式会社テラサキ,,株式会社,岐阜県,関市,千疋８０５番地,,21,205,5013954,,,2024-06-05,清算の結了等,,,2021-04-22,1,,,,,テラサキ,0
2589,9030002043944,登記記録の閉鎖等,0,2024-06-11,2024-06-06,有限会社グリーン・ウエーブ,,有限会社,埼玉県,草加市,新栄１丁目６番地１３,,11,221,3400056,,,2024-06-06,清算の結了等,,,2015-10-05,1,,,,,グリーンウエーブ,0
2634,9120001207895,登記記録の閉鎖等,0,2024-06-11,2024-06-03,ＳＴマネジメント株式会社,,株式会社,大阪府,大阪市東成区,東今里３丁目２１番１３号,,27,115,5370011,,,2024-06-03,合併による解散等,5120001113098,令和６年６月１日大阪市東成区東今里三丁目２１番１３号ロジ・エステート株式会社（5120001113098）に合併し解散,2017-09-05,1,,,,,エスティーマネジメント,0
2665,9120901002231,登記記録の閉鎖等,0,2024-06-11,2024-06-06,株式会社杢匠,,株式会社,大阪府,茨木市,東太田３丁目２番１２号,,27,211,5670012,,,2024-06-06,清算の結了等,,,2015-10-05,1,,,,,モクショウ,0
2690,9140002050830,登記記録の閉鎖等,0,2024-06-11,2024-06-07,有限会社ホワイトサービス,,有限会社,兵庫県,姫路市,青山北３丁目６番７号,,28,201,6712221,,,2024-06-07,清算の結了等,,,2015-10-05,1,,,,,ホワイトサービス,0
2712,9180002032569,登記記録の閉鎖等,0,2024-06-11,2024-06-03,有限会社ヒラシン,,有限会社,愛知県,名古屋市中区,栄３丁目１１番３１号,,23,106,4600008,,,2024-06-03,清算の結了等,,,2015-10-05,1,,,,,ヒラシン,0
2717,9190001011366,登記記録の閉鎖等,0,2024-06-11,2024-06-05,株式会社ＳＤファシリティーズ,,株式会社,三重県,松阪市,内五曲町１３４番地８,,24,204,5150072,,,2024-06-05,清算の結了等,,,2015-10-05,1,,,,,エスデイファシリティーズ,0
2759,9350001012199,登記記録の閉鎖等,0,2024-06-11,2024-06-03,株式会社三利,,株式会社,宮崎県,日南市,南郷町榎原甲２０９１番地,,45,204,8893215,,,2024-06-03,合併による解散等,6350003001681,令和６年６月１日宮崎県日南市南郷町榎原甲２０９１番地吉田産業株式会社（6350003001681）に合併し解散,2015-10-05,1,,,,,サンリ,0
2771,9380005010980,登記記録の閉鎖等,0,2024-06-11,2024-06-05,特定非営利活動法人須賀川いわせインフラ復旧・除染グループ,,その他の設立登記法人,福島県,須賀川市,大町１０６番地,,07,207,9620839,,,2024-06-05,清算の結了等,,,2015-10-05,1,,,,,スカガワイワセインフラフッキュウジョセングループ,0
2773,9390001015181,登記記録の閉鎖等,0,2024-06-11,2024-05-31,株式会社里渓,,株式会社,山形県,米沢市,万世町牛森４４６９番地の５４,,06,202,9921127,,,2024-05-31,清算の結了等,,,2018-01-23,1,,,,,リケイ,0
2778,9420001001863,登記記録の閉鎖等,0,2024-06-11,2024-06-04,株式会社ニュームラコシ,,株式会社,青森県,青森市,大字浜田字玉川１４０番地４９,,02,201,0300843,,,2024-06-04,清算の結了等,,,2015-10-05,1,,,,,ニュームラコシ,0
