sequenceNumber,corporateNumber,process,correct,updateDate,changeDate,name,nameImageId,kind,prefectureName,cityName,streetNumber,addressImageId,prefectureCode,cityCode,postCode,addressOutside,addressOutsideImageId,closeDate,closeCause,successorCorporateNumber,changeCause,assignmentDate,latest,enName,enPrefectureName,enCityName,enAddressOutside,furigana,hihyoji
8,1010001249072,新規,0,2024-10-16,2024-10-16,株式会社Ａｄｖａｎｃｅｄ　Ｅｄｕｃａｔｉｏｎ,,株式会社,東京都,千代田区,丸の内１丁目１１番１号パシフィックセンチュリープレイス丸の内１３階,,13,101,1000005,,,,,,,2024-10-16,1,,,,,アドバンスドエデュケーション,0
12,1010005038892,新規,0,2024-10-16,2024-10-16,一般社団法人銀座ホールディングス,,その他の設立登記法人,東京都,中央区,日本橋１丁目４番１号,,13,102,1030027,,,,,,,2024-10-16,1,,,,,ギンザホールディングス,0
13,1010101016372,新規,0,2024-10-16,2024-10-16,株式会社ＴＩＳＬ,,株式会社,東京都,八王子市,子安町１丁目４５－１,,13,201,1920904,,,,,,,2024-10-16,1,,,,,ティーアイエスエル,0
26,1010401185702,新規,0,2024-10-16,2024-10-16,株式会社和興産業,,株式会社,東京都,港区,新橋４丁目３１番１号第３名和ビル８０３号室,,13,103,1050004,,,,,,,2024-10-16,1,,,,,ワコウサンギョウ,0
27,1010401185710,新規,0,2024-10-16,2024-10-16,東和商事株式会社,,株式会社,東京都,港区,南青山２丁目２番１５号ウィン青山９４２,,13,103,1070062,,,,,,,2024-10-16,1,,,,,トウワショウジ,0
32,1010403033578,新規,0,2024-10-16,2024-10-16,合同会社ヴィスタ,,合同会社,東京都,港区,芝２丁目２４－９ベラヴィスタ芝２０３,,13,103,1050014,,,,,,,2024-10-16,1,,,,,ヴィスタ,0
50,1011001165160,新規,0,2024-10-16,2024-10-16,古里ぶどう園株式会社,,株式会社,東京都,渋谷区,広尾２丁目２番２０号,,13,113,1500012,,,,,,,2024-10-16,1,,,,,フルサトブドウエン,0
51,1011001165292,新規,0,2024-10-16,2024-10-16,株式会社ＬｕｍｅｒａＬｉｎｋ,,株式会社,東京都,渋谷区,神宮前６丁目２３番４号桑野ビル２階,,13,113,1500001,,,,,,,2024-10-16,1,,,,,ルメラリンク,0
52,1011001165318,新規,0,2024-10-16,2024-10-16,株式会社１４１,,株式会社,東京都,渋谷区,渋谷２丁目１９番１５号宮益坂ビルディング６０９,,13,113,1500002,,,,,,,2024-10-16,1,,,,,ワンフォーワン,0
60,1011101109141,新規,0,2024-10-16,2024-10-16,帝＿株式会社,00136641,株式会社,東京都,新宿区,新宿２丁目１２番１－６０２号,,13,104,1600022,,,,,,,2024-10-16,1,,,,,テイキン,0
65,1011201025866,新規,0,2024-10-16,2024-10-16,シンヨウ防災株式会社,,株式会社,東京都,中野区,中央３丁目１番３－１０４号,,13,114,1640011,,,,,,,2024-10-16,1,,,,,シンヨウボウサイ,0
74,1011403004536,新規,0,2024-10-16,2024-10-16,合同会社ＧＵＰ,,合同会社,東京都,板橋区,成増１丁目１８番９号,,13,119,1750094,,,,,,,2024-10-16,1,,,,,ジーユーピー,0
79,1011601028130,新規,0,2024-10-16,2024-10-16,Ｅａｒｖａｎａ株式会社,,株式会社,東京都,練馬区,大泉町２丁目５６番２号,,13,120,1780062,,,,,,,2024-10-16,1,,,,,イヤバーナ,0
82,1011703003997,新規,0,2024-10-16,2024-10-16,ＳＡＧＡＲ＆ＳＡＫＵＲＡ合同会社,,合同会社,東京都,江戸川区,北小岩１丁目８番１２号湯浅第２ビル２０１,,13,123,1330051,,,,,,,2024-10-16,1,,,,,サーガールアンドサクラ,0
86,1011803006504,新規,0,2024-10-16,2024-10-16,キーテイル合同会社,,合同会社,東京都,葛飾区,柴又５丁目１－１６,,13,122,1250052,,,,,,,2024-10-16,1,,,,,キーテイル,0
88,1012401042379,新規,0,2024-10-16,2024-10-16,株式会社Ｌｉｎｏコンサルティング,,株式会社,東京都,狛江市,西野川４丁目６番１－３０５号,,13,219,2010001,,,,,,,2024-10-16,1,,,,,リノコンサルティング,0
93,1012703003112,新規,0,2024-10-16,2024-10-16,フェイ合同会社,,合同会社,東京都,西東京市,谷戸町２丁目１番２４－５０６号,,13,229,1880001,,,,,,,2024-10-16,1,,,,,フェイ,0
113,1020001159626,新規,0,2024-10-16,2024-10-16,株式会社Ｗｉｌｌｏｗ,,株式会社,神奈川県,川崎市多摩区,宿河原３丁目１４番１３－３０５号Ｃｈｌｏｒｉｓ,,14,135,2140021,,,,,,,2024-10-16,1,,,,,ウィロー,0
114,1020001159634,新規,0,2024-10-16,2024-10-16,株式会社ＫＯＫＯらぼ未来コネクト,,株式会社,神奈川県,川崎市川崎区,小田５丁目１９－１６,,14,131,2100846,,,,,,,2024-10-16,1,,,,,ココラボミライコネクト,0
115,1020002037830,新規,0,2024-10-16,2024-10-16,有限会社久保弘栄堂薬局,,有限会社,神奈川県,横浜市鶴見区,市場上町１番５号,,14,101,2300021,,,,,,,2024-10-16,1,,,,,クボコウエイドウヤッキョク,0
118,1020003027046,新規,0,2024-10-16,2024-10-16,ＴＮフードサービス合同会社,,合同会社,神奈川県,横浜市都筑区,川和町６１番地２０,,14,118,2240057,,,,,,,2024-10-16,1,,,,,ティーエヌフードサービス,0
119,1020003027062,新規,0,2024-10-16,2024-10-16,合同会社フーズライフ,,合同会社,神奈川県,横浜市鶴見区,上末吉５丁目２９－１５－４,,14,101,2300011,,,,,,,2024-10-16,1,,,,,フーズライフ,0
127,1021001083460,新規,0,2024-10-16,2024-10-16,ＩＷ工業株式会社,,株式会社,神奈川県,相模原市中央区,上溝６丁目１番２７号ピア中丸３０１号,,14,152,2520243,,,,,,,2024-10-16,1,,,,,アイダブリューコウギョウ,0
128,1021001083477,新規,0,2024-10-16,2024-10-16,株式会社ニックプロジェクト,,株式会社,神奈川県,平塚市,四之宮６丁目３番２５号ハウスＫ２０１号,,14,203,2540014,,,,,,,2024-10-16,1,,,,,ニックプロジェクト,0
129,1021001083493,新規,0,2024-10-16,2024-10-16,株式会社らんぷ,,株式会社,神奈川県,厚木市,旭町１丁目７番７－６０３号,,14,212,2430014,,,,,,,2024-10-16,1,,,,,ランプ,0
131,1021003015115,新規,0,2024-10-16,2024-10-16,ｓｋｙｙｏ合同会社,,合同会社,神奈川県,横須賀市,若松町３丁目１６番地２サンコリーヌタワー横須賀中央駅前２５０３,,14,201,2380007,,,,,,,2024-10-16,1,,,,,スカイヨー,0
135,1030001162975,新規,0,2024-10-16,2024-10-16,株式会社杵臼,,株式会社,埼玉県,さいたま市見沼区,大字新右エ門新田５００番地１０,,11,104,3370000,,,,,,,2024-10-16,1,,,,,キネトウス,0
136,1030001162983,新規,0,2024-10-16,2024-10-16,株式会社ルーメンス,,株式会社,埼玉県,川越市,大字鹿飼８５１－２,,11,201,3500834,,,,,,,2024-10-16,1,,,,,ルーメンス,0
137,1030001163024,新規,0,2024-10-16,2024-10-16,株式会社ＭＵＳＵＢＵ,,株式会社,埼玉県,越谷市,東越谷８丁目２２番地１０,,11,222,3430023,,,,,,,2024-10-16,1,,,,,ムスブ,0
148,1040003025980,新規,0,2024-10-16,2024-10-16,合同会社ｓｔｏｎｅ　ｂｒｉｄｇｅ,,合同会社,千葉県,東金市,北之幸谷１７０番地,,12,213,2830061,,,,,,,2024-10-16,1,,,,,ストーンブリッジ,0
149,1050001055533,新規,0,2024-10-16,2024-10-16,Ｚ‐ＰＲＩＭＥ　ＩＮＴＥＲＮＡＴＩＯＮＡＬ株式会社,,株式会社,茨城県,坂東市,辺田３４０番地６,,08,228,3060632,,,,,,,2024-10-16,1,,,,,ジープライムインターナショナル,0
151,1050003008729,新規,0,2024-10-16,2024-10-16,合同会社イデア,,合同会社,茨城県,坂東市,辺田１１４４番地４５,,08,228,3060632,,,,,,,2024-10-16,1,,,,,イデア,0
156,1070001042273,新規,0,2024-10-16,2024-10-16,株式会社ＦＩＴ．Ｐ,,株式会社,群馬県,伊勢崎市,長沼町２６５０番地５,,10,204,3720855,,,,,,,2024-10-16,1,,,,,フィットピー,0
161,1080101025053,新規,0,2024-10-16,2024-10-16,株式会社小野屋薬品,,株式会社,静岡県,御殿場市,新橋１９８０番地の１２,,22,215,4120043,,,,,,,2024-10-16,1,,,,,,0
162,1080103003164,新規,0,2024-10-16,2024-10-16,アミックス２１合同会社,,合同会社,静岡県,三島市,富士ビレッジ１２－９,,22,206,4110028,,,,,,,2024-10-16,1,,,,,,0
167,1110003005554,新規,0,2024-10-16,2024-10-16,合同会社みぎかたあがり,,合同会社,新潟県,新潟市中央区,万代３丁目２番２３－７１２号,,15,103,9500088,,,,,,,2024-10-16,1,,,,,ミギカタアガリ,0
173,1120001269340,新規,0,2024-10-16,2024-10-16,エム株式会社,,株式会社,大阪府,大阪市生野区,巽南１丁目８－１５,,27,116,5440015,,,,,,,2024-10-16,1,,,,,エム,0
174,1120001269365,新規,0,2024-10-16,2024-10-16,ＫＯＯＴＥＣ株式会社,,株式会社,大阪府,大阪市城東区,野江３丁目９番１７－２１５号,,27,118,5360006,,,,,,,2024-10-16,1,,,,,コーテック,0
179,1122001038535,新規,0,2024-10-16,2024-10-16,株式会社レコード,,株式会社,大阪府,東大阪市,日下町４丁目１番４２－３２０号,,27,227,5798003,,,,,,,2024-10-16,1,,,,,レコード,0
183,1130005017216,新規,0,2024-10-16,2024-10-16,一般社団法人ハートオブキョウト,,その他の設立登記法人,京都府,京都市東山区,本町２丁目６８－２,,26,105,6050981,,,,,,,2024-10-16,1,,,,,ハートオブキョウト,0
192,1140001136076,新規,0,2024-10-16,2024-10-16,株式会社タイチクリエイティブ,,株式会社,兵庫県,神戸市長田区,長尾町２丁目３番６号,,28,106,6530855,,,,,,,2024-10-16,1,,,,,タイチクリエイティブ,0
193,1140001136092,新規,0,2024-10-16,2024-10-16,株式会社Ｔ＆Ｇ,,株式会社,兵庫県,神戸市北区,桂木４丁目１番地の１０７,,28,109,6511223,,,,,,,2024-10-16,1,,,,,ティーアンドジー,0
194,1140001136134,新規,0,2024-10-16,2024-10-16,株式会社ＫＵＲＯＴＥＮ,,株式会社,兵庫県,神戸市中央区,明石町４７番地ニッケ神戸ビル地下１階,,28,110,6500037,,,,,,,2024-10-16,1,,,,,クロテン,0
200,1140003021185,新規,0,2024-10-16,2024-10-16,合同会社ＳＵＮＰＬＡＣＥ,,合同会社,兵庫県,加古川市,西神吉町岸６８４番地の８,,28,210,6750045,,,,,,,2024-10-16,1,,,,,サンプレイス,0
201,1140003021193,新規,0,2024-10-16,2024-10-16,合同会社Ｒｉｓｉｎｇ,,合同会社,兵庫県,赤穂市,磯浜町２１８番地１１,,28,212,6780250,,,,,,,2024-10-16,1,,,,,ライジング,0
204,1140005027239,新規,0,2024-10-16,2024-10-16,一般社団法人マロントマール,,その他の設立登記法人,兵庫県,豊岡市,日高町鶴岡４７６－２,,28,209,6695313,,,,,,,2024-10-16,1,,,,,マロントマール,0
208,1160001026283,新規,0,2024-10-16,2024-10-16,株式会社シャンヴィル,,株式会社,滋賀県,東近江市,猪子町３３６番地,,25,213,5211223,,,,,,,2024-10-16,1,,,,,シャンヴィル,0
211,1180001083760,新規,0,2024-10-16,2024-10-16,株式会社マキタ,,株式会社,愛知県,一宮市,萩原町高松２２４番地,,23,203,4910373,,,,,,,2024-10-16,1,,,,,マキタ,0
217,1180001163521,新規,0,2024-10-16,2024-10-16,ＴＣＦホールディングス株式会社,,株式会社,愛知県,稲沢市,祖父江町森上本郷九２９番地３４,,23,220,4950011,,,,,,,2024-10-16,1,,,,,ティーシーエフホールディングス,0
218,1180001163538,新規,0,2024-10-16,2024-10-16,株式会社Ｍｉ＆Ｇｅｎ,,株式会社,愛知県,丹羽郡大口町,外坪１丁目１８８番地１,,23,361,4800125,,,,,,,2024-10-16,1,,,,,ミアンドゲン,0
219,1180001163686,新規,0,2024-10-16,2024-10-16,株式会社Ｔｅｒｍｉｎａｌ,,株式会社,愛知県,名古屋市中区,大須２丁目２０番３６号－５０７号,,23,106,4600011,,,,,,,2024-10-16,1,,,,,ターミナル,0
220,1180001163744,新規,0,2024-10-16,2024-10-16,株式会社ｉ,,株式会社,愛知県,名古屋市千種区,青柳町７丁目３９番地サン・ボヌール１０１号,,23,101,4640852,,,,,,,2024-10-16,1,,,,,アイ,0
227,1180003027492,新規,0,2024-10-16,2024-10-16,合同会社頭脳研,,合同会社,愛知県,長久手市,東原山３４番地の１,,23,238,4801158,,,,,,,2024-10-16,1,,,,,ズノウケン,0
230,1180301039140,新規,0,2024-10-16,2024-10-16,Ｓｈｅｅｐ＆Ｄｒａｇｏｎ　Ｖｅｎｔｕｒｅｓ株式会社,,株式会社,愛知県,刈谷市,一ツ木町４丁目３０番地２３サンコートＡｉ５０１号,,23,210,4480003,,,,,,,2024-10-16,1,,,,,シープアンドドラゴンベンチャーズ,0
232,1180303006312,新規,0,2024-10-16,2024-10-16,ｎｅｓｔｃｏｄｅ合同会社,,合同会社,愛知県,みよし市,三好丘あおば２丁目５番地３６,,23,236,4700233,,,,,,,2024-10-16,1,,,,,ネストコード,0
234,1190003004796,新規,0,2024-10-16,2024-10-16,合同会社ＥＶＥＲＧＲＥＥＮ,,合同会社,三重県,四日市市,富洲原町７－９,,24,202,5100000,,,,,,,2024-10-16,1,,,,,エヴァーグリーン,0
235,1200003006543,新規,0,2024-10-16,2024-10-16,合同会社中畑牧場,,合同会社,岐阜県,中津川市,上野７４６番地,,21,206,5099231,,,,,,,2024-10-16,1,,,,,ナカハタボクジョウ,0
237,1220001026244,新規,0,2024-10-16,2024-10-16,株式会社ＹＵＭＩＣＡ,,株式会社,石川県,能美市,佐野町ニ５２番地２,,17,211,9231112,,,,,,,2024-10-16,1,,,,,ユミカ,0
238,1220001026269,新規,0,2024-10-16,2024-10-16,株式会社ちよまる,,株式会社,石川県,鳳珠郡能登町,字姫７‐６３,,17,463,9270563,,,,,,,2024-10-16,1,,,,,チヨマル,0
247,1240001063946,新規,0,2024-10-16,2024-10-16,株式会社しまなみＥＤＧＥ　ＬＡＢ,,株式会社,広島県,尾道市,向東町３８９６,,34,205,7220062,,,,,,,2024-10-16,1,,,,,シマナミエッヂラボ,0
248,1240003006903,新規,0,2024-10-16,2024-10-16,合同会社バーミリオン,,合同会社,広島県,広島市東区,牛田本町４丁目９番４－３０１号,,34,102,7320066,,,,,,,2024-10-16,1,,,,,バーミリオン,0
254,1280001009276,新規,0,2024-10-16,2024-10-16,株式会社３Ｔ,,株式会社,島根県,出雲市,芦渡町３５４番地,,32,203,6930035,,,,,,,2024-10-16,1,,,,,スリーティー,0
259,1290001107401,新規,0,2024-10-16,2024-10-16,Ａｓｓｅｔ‐Ｆｕｋｕｏｋａ株式会社,,株式会社,福岡県,福岡市中央区,天神２丁目２番１２号Ｔ＆Ｊビルディング７Ｆ,,40,133,8100001,,,,,,,2024-10-16,1,,,,,,0
260,1290001107608,新規,0,2024-10-16,2024-10-16,株式会社ＦＪホールディングス,,株式会社,福岡県,福岡市博多区,麦野３丁目１８番８号,,40,132,8120882,,,,,,,2024-10-16,1,,,,,エフジェイホールディングス,0
264,1290003015932,新規,0,2024-10-16,2024-10-16,合同会社Ｎｏａ,,合同会社,福岡県,福岡市中央区,鳥飼１丁目３番３号大濠パフォーマンス２０３,,40,133,8100053,,,,,,,2024-10-16,1,,,,,ノア,0
269,1300001013936,新規,0,2024-10-16,2024-10-16,株式会社大麟,,株式会社,佐賀県,杵島郡白石町,大字福富下分３００４番地,,41,425,8490402,,,,,,,2024-10-16,1,,,,,ダイリン,0
276,1320003004493,新規,0,2024-10-16,2024-10-16,合同会社Ｕｆａｍ,,合同会社,大分県,宇佐市,大字長洲４２７８番地の１,,44,211,8720001,,,,,,,2024-10-16,1,,,,,ユーファム,0
279,1350001019227,新規,0,2024-10-16,2024-10-16,株式会社ＣＡＦＵＬＥ,,株式会社,宮崎県,都城市,中町１２－２４－２,,45,202,8850071,,,,,,,2024-10-16,1,,,,,カフール,0
289,1360003014381,新規,0,2024-10-16,2024-10-16,合同会社ＲＭラボラトリー,,合同会社,沖縄県,那覇市,牧志１丁目１番３１号パークサイド大城３０２,,47,201,9000013,,,,,,,2024-10-16,1,,,,,アールエムラボラトリー,0
290,1360003014398,新規,0,2024-10-16,2024-10-16,合同会社アサキ,,合同会社,沖縄県,那覇市,楚辺２丁目２番２２号,,47,201,9000023,,,,,,,2024-10-16,1,,,,,アサキ,0
292,1370001051822,新規,0,2024-10-16,2024-10-16,弘盛商事株式会社,,株式会社,宮城県,岩沼市,南長谷字台５６－１,,04,211,9892454,,,,,,,2024-10-16,1,,,,,ヒロモリショウジ,0
295,1380003005874,新規,0,2024-10-16,2024-10-16,合同会社ＥＮＬＥＩ,,合同会社,福島県,西白河郡西郷村,大字小田倉字大平２８４番地７,,07,461,9618061,,,,,,,2024-10-16,1,,,,,エンレイ,0
296,1380005012877,新規,0,2024-10-16,2024-10-16,医療法人社団慈鶯会,,その他の設立登記法人,福島県,白河市,高山１番地３,,07,205,9610854,,,,,,,2024-10-16,1,,,,,ジオウカイ,0
309,1440001009508,新規,0,2024-10-16,2024-10-16,金子見聞株式会社,,株式会社,北海道,檜山郡上ノ国町,字大留２４７番地３,,01,362,0490611,,,,,,,2024-10-16,1,,,,,カネコケンブン,0
332,2010001248858,新規,0,2024-10-16,2024-10-16,株式会社ｌｅａｎ,,株式会社,東京都,千代田区,神田美土代町１番地ＷＯＲＫＶＩＬＬＡＭＩＴＯＳＨＩＲＯ,,13,101,1010053,,,,,,,2024-10-16,1,,,,,リーン,0
333,2010001248981,新規,0,2024-10-16,2024-10-16,株式会社リーフ,,株式会社,東京都,中央区,銀座１丁目１２番４号Ｎ＆ＥＢＬＤ．６Ｆ,,13,102,1040061,,,,,,,2024-10-16,1,,,,,リーフ,0
334,2010001248998,新規,0,2024-10-16,2024-10-16,株式会社ＧＷＡ,,株式会社,東京都,文京区,本駒込６丁目１３－１９グランスイート六義園４０３,,13,105,1130021,,,,,,,2024-10-16,1,,,,,ジーダブリューエー,0
335,2010001249022,新規,0,2024-10-16,2024-10-16,Ｃｌａｓｓ　Ｚｅｒｏ株式会社,,株式会社,東京都,文京区,関口１丁目２４－４タキザワハウス３０１,,13,105,1120014,,,,,,,2024-10-16,1,,,,,クラスゼロ,0
342,2010003045188,新規,0,2024-10-16,2024-10-16,合同会社東池袋プロパティーズ,,合同会社,東京都,千代田区,丸の内１丁目４番１号東京共同会計事務所内,,13,101,1000005,,,,,,,2024-10-16,1,,,,,ヒガシイケブクロプロパティーズ,0
349,2010401185718,新規,0,2024-10-16,2024-10-16,株式会社ＲＰＦ,,株式会社,東京都,港区,元麻布３丁目２番２０号丸統麻布ビル３Ｆ,,13,103,1060046,,,,,,,2024-10-16,1,,,,,アールピーエフ,0
350,2010401185742,新規,0,2024-10-16,2024-10-16,株式会社オーケーナビ,,株式会社,東京都,港区,芝大門２丁目７番４号,,13,103,1050012,,,,,,,2024-10-16,1,,,,,オーケーナビ,0
351,2010401185767,新規,0,2024-10-16,2024-10-16,東通トランスレーションサービス株式会社,,株式会社,東京都,港区,新橋６丁目２０番２号,,13,103,1050004,,,,,,,2024-10-16,1,,,,,トウツウトランスレーションサービス,0
352,2010401185783,新規,0,2024-10-16,2024-10-16,株式会社ＫＪ,,株式会社,東京都,港区,六本木３丁目１１番５号山田ビル７Ｆ,,13,103,1060032,,,,,,,2024-10-16,1,,,,,ケージェイ,0
358,2010403033602,新規,0,2024-10-16,2024-10-16,合同会社ウェーブ,,合同会社,東京都,港区,南青山３丁目１番３６号青山丸竹ビル６Ｆ,,13,103,1070062,,,,,,,2024-10-16,1,,,,,ウェーブ,0
359,2010403033610,新規,0,2024-10-16,2024-10-16,合同会社アセット投資事業１２号,,合同会社,東京都,港区,西新橋１丁目２番９号メンターキャピタル税理士法人内,,13,103,1050003,,,,,,,2024-10-16,1,,,,,アセットトウシジギョウジュウニゴウ,0
361,2010505003560,新規,0,2024-10-16,2024-10-16,一般財団法人国際学術・医療福祉交流機構,,その他の設立登記法人,東京都,台東区,台東４丁目１－１０リエス新御徒町２階,,13,106,1100016,,,,,,,2024-10-16,1,,,,,コクサイガクジュツイリョウフクシコウリュウキコウ,0
370,2010701046702,新規,0,2024-10-16,2024-10-16,Ｃｒｅａｍ　ｐｕｆｆ株式会社,,株式会社,東京都,品川区,東品川２丁目５番６－１８０３号,,13,109,1400002,,,,,,,2024-10-16,1,,,,,クリームパフ,0
372,2010801035489,新規,0,2024-10-16,2024-10-16,株式会社三美ホールディングス,,株式会社,東京都,大田区,下丸子２丁目１４番３号,,13,111,1460092,,,,,,,2024-10-16,1,,,,,サンミホールディングス,0
373,2010803005127,新規,0,2024-10-16,2024-10-16,合同会社エアクリエイティブ,,合同会社,東京都,大田区,大森西３丁目２８番５号コスモリード大森西２階,,13,111,1430015,,,,,,,2024-10-16,1,,,,,エアクリエイティブ,0
379,2011003020214,新規,0,2024-10-16,2024-10-16,Ｂｒｅｗ　Ａｃｃｏｍｐａｎｙ合同会社,,合同会社,東京都,渋谷区,道玄坂１丁目１０番８号渋谷道玄坂東急ビル２Ｆ‐Ｃ,,13,113,1500043,,,,,,,2024-10-16,1,,,,,ブルーアカンパニー,0
384,2011101109124,新規,0,2024-10-16,2024-10-16,株式会社Ｙ’ｓ　Ｃｏ．,,株式会社,東京都,新宿区,高田馬場４丁目２２番２０号アーバンプレイス高田馬場ＸＩＢ棟１０２,00136643,13,104,1690075,,,,,,,2024-10-16,1,,,,,ワイズコーポレーション,0
385,2011101109140,新規,0,2024-10-16,2024-10-16,株式会社ＭＹＲＯ,,株式会社,東京都,新宿区,西新宿３丁目３番１３号西新宿水間ビル６階,,13,104,1600023,,,,,,,2024-10-16,1,,,,,マイロ,0
386,2011101109157,新規,0,2024-10-16,2024-10-16,株式会社駿,,株式会社,東京都,新宿区,市谷田町２丁目１７番地八重洲市谷ビル９階,,13,104,1620843,,,,,,,2024-10-16,1,,,,,シュン,0
393,2011103015031,新規,0,2024-10-16,2024-10-16,ドントハード合同会社,,合同会社,東京都,新宿区,西新宿３丁目３－１３西新宿水間ビル二階,,13,104,1600023,,,,,,,2024-10-16,1,,,,,ドントハード,0
394,2011201025865,新規,0,2024-10-16,2024-10-16,ヤシマホールディングス株式会社,,株式会社,東京都,中野区,新井２丁目１０番１１号,,13,114,1650026,,,,,,,2024-10-16,1,,,,,ヤシマホールディングス,0
401,2011501031274,新規,0,2024-10-16,2024-10-16,株式会社ＦＰＭ,,株式会社,東京都,荒川区,西日暮里２丁目２１番１－５０１号,,13,118,1160013,,,,,,,2024-10-16,1,,,,,エフピーエム,0
411,2012401042378,新規,0,2024-10-16,2024-10-16,ＶＩＳＴＡ株式会社,,株式会社,東京都,府中市,日新町４丁目３番地の１,,13,206,1830036,,,,,,,2024-10-16,1,,,,,ビィスタ,0
419,2020001159600,新規,0,2024-10-16,2024-10-16,株式会社ＤＰＲ,,株式会社,神奈川県,横浜市中区,桜木町１丁目１０１番地１クロスゲート７階,,14,104,2310062,,,,,,,2024-10-16,1,,,,,ディーピーアール,0
420,2020001159617,新規,0,2024-10-16,2024-10-16,株式会社Ｅ‐ＧＲＯＷ,,株式会社,神奈川県,横浜市西区,北幸１丁目１１番１号水信ビル７階,,14,103,2200004,,,,,,,2024-10-16,1,,,,,イーグローウ,0
421,2020001159625,新規,0,2024-10-16,2024-10-16,株式会社ケイワン,,株式会社,神奈川県,横浜市金沢区,泥亀２丁目１番８号,,14,108,2360021,,,,,,,2024-10-16,1,,,,,ケイワン,0
424,2020003026906,新規,0,2024-10-16,2024-10-16,合同会社ＣＨＩＬＬＭＡＮＩＡ,,合同会社,神奈川県,横浜市旭区,南希望が丘２０－４,,14,112,2410824,,,,,,,2024-10-16,1,,,,,チルマニア,0
434,2021003015097,新規,0,2024-10-16,2024-10-16,合同会社ＫＮオフィス,,合同会社,神奈川県,逗子市,新宿３丁目８－１５,,14,208,2490007,,,,,,,2024-10-16,1,,,,,ケイエヌオフィス,0
439,2030001162917,新規,0,2024-10-16,2024-10-16,株式会社オール・タヴァーン,,株式会社,埼玉県,朝霞市,溝沼３丁目２番５号,,11,227,3510023,,,,,,,2024-10-16,1,,,,,,0
440,2030001162974,新規,0,2024-10-16,2024-10-16,株式会社Ｔｈｒｅｅｅ,,株式会社,埼玉県,さいたま市岩槻区,西町４丁目１６－１号,,11,110,3390067,,,,,,,2024-10-16,1,,,,,スリー,0
441,2030001163007,新規,0,2024-10-16,2024-10-16,株式会社ｏｎｅ　ｓｏｕｎｄ,,株式会社,埼玉県,川越市,大字砂新田３７９番地５,,11,201,3501137,,,,,,,2024-10-16,1,,,,,ワンサウンド,0
442,2030001163031,新規,0,2024-10-16,2024-10-16,株式会社八光運輸,,株式会社,埼玉県,川口市,西川口３丁目２５－４コンテ・ボヌール３０１,,11,203,3320021,,,,,,,2024-10-16,1,,,,,ハッコウウンユ,0
445,2030005021887,新規,0,2024-10-16,2024-10-16,一般社団法人バイトルアクサー文化センター,,その他の設立登記法人,埼玉県,川口市,西川口３丁目１６－１０Ｍハイツ２０１号,,11,203,3320021,,,,,,,2024-10-16,1,,,,,,0
450,2040001135715,新規,0,2024-10-16,2024-10-16,山内建設株式会社,,株式会社,千葉県,君津市,上５２１番地の３,,12,225,2991107,,,,,,,2024-10-16,1,,,,,ヤマウチケンセツ,0
451,2040001135847,新規,0,2024-10-16,2024-10-16,風行株式会社,,株式会社,千葉県,成田市,前林２７１番地,,12,211,2870222,,,,,,,2024-10-16,1,,,,,フウコウ,0
457,2050001055532,新規,0,2024-10-16,2024-10-16,株式会社ＯＮ　ＴＲＡＣＫ,,株式会社,茨城県,龍ケ崎市,馴馬町７５４番地ＧＡＩＡビル１Ｆ,,08,208,3010004,,,,,,,2024-10-16,1,,,,,,0
460,2050003008728,新規,0,2024-10-16,2024-10-16,Ｋ．Ｋ　Ｔｒａｄｉｎｇ合同会社,,合同会社,茨城県,結城市,大字結城字塔ノ下町７４８番６イブラヒムハイツ２‐２０２号室,,08,207,3070001,,,,,,,2024-10-16,1,,,,,ケイケイトレーディング,0
467,2060001037579,新規,0,2024-10-16,2024-10-16,株式会社匠家ホーム,,株式会社,栃木県,宇都宮市,峰町２３９番地７,,09,201,3210943,,,,,,,2024-10-16,1,,,,,タクミヤホーム,0
473,2070001042264,新規,0,2024-10-16,2024-10-16,株式会社匠,,株式会社,群馬県,前橋市,上大屋町３９７番地１,,10,201,3710222,,,,,,,2024-10-16,1,,,,,タクミ,0
474,2070001042272,新規,0,2024-10-16,2024-10-16,ヨルモ株式会社,,株式会社,群馬県,高崎市,通町３３番地１－２Ｆ,,10,202,3700053,,,,,,,2024-10-16,1,,,,,ヨルモ,0
478,2070003005608,新規,0,2024-10-16,2024-10-16,ＳＨＥＡ合同会社,,合同会社,群馬県,前橋市,住吉町１丁目５－９,,10,201,3710021,,,,,,,2024-10-16,1,,,,,シアー,0
481,2080003003313,新規,0,2024-10-16,2024-10-16,合同会社アドア,,合同会社,静岡県,静岡市清水区,入江３丁目９番３号,,22,103,4240831,,,,,,,2024-10-16,1,,,,,アドア,0
492,2110003005553,新規,0,2024-10-16,2024-10-16,合同会社Ｊ　ＭＩＲＡＩ　Ｃｒｅａｔｉｏｎ,,合同会社,新潟県,上越市,清里区みらい３２５番地７,,15,222,9430510,,,,,,,2024-10-16,1,,,,,ジェイミライクリエイション,0
502,2120001269348,新規,0,2024-10-16,2024-10-16,ＦＹＣ．Ｊａｐａｎ株式会社,,株式会社,大阪府,大阪市東淀川区,豊里２丁目１８－１４アヴァンス淀川－ｅａｓｔ,,27,114,5330013,,,,,,,2024-10-16,1,,,,,エフワイシージャパン,0
503,2120001269356,新規,0,2024-10-16,2024-10-16,エース建築設計株式会社,,株式会社,大阪府,大阪市淀川区,西中島４丁目６番１９号,,27,123,5320011,,,,,,,2024-10-16,1,,,,,エースケンチクセッケイ,0
504,2120001269364,新規,0,2024-10-16,2024-10-16,株式会社英愛建設,,株式会社,大阪府,大阪市西区,南堀江１丁目１２番２号,,27,106,5500015,,,,,,,2024-10-16,1,,,,,エイアイケンセツ,0
507,2120101070424,新規,0,2024-10-16,2024-10-16,ＹＯＵ　ＣＯＮＮＥＣＴ株式会社,,株式会社,大阪府,泉大津市,北豊中町２丁目１７－３０河野ビル１Ｆ,,27,206,5950012,,,,,,,2024-10-16,1,,,,,ユーコネクト,0
512,2122001038534,新規,0,2024-10-16,2024-10-16,株式会社ＹＮＫ,,株式会社,大阪府,四條畷市,蔀屋本町７番７号,,27,229,5750042,,,,,,,2024-10-16,1,,,,,ワイエヌケー,0
516,2130001078013,新規,0,2024-10-16,2024-10-16,株式会社メガジャパン,,株式会社,京都府,京都市中京区,御倉町７５番地ファーストコート三条両替町ビル４Ｆ－０４,,26,104,6048166,,,,,,,2024-10-16,1,,,,,メガジャパン,0
517,2130001078161,新規,0,2024-10-16,2024-10-16,株式会社カーフレッツ,,株式会社,京都府,京都市南区,上鳥羽奈須野町１４６番地,,26,107,6018146,,,,,,,2024-10-16,1,,,,,カーフレッツ,0
521,2130005017215,新規,0,2024-10-16,2024-10-16,医療法人中野こども医院,,その他の設立登記法人,京都府,京都市中京区,西ノ京中保町２１番地１Ｂｕｒｅｚｉｏセフィール５０２,,26,104,6048461,,,,,,,2024-10-16,1,,,,,ナカノコドモイイン,0
529,2140003021184,新規,0,2024-10-16,2024-10-16,合同会社れもんケアプランセンター,,合同会社,兵庫県,川西市,一庫３丁目７番２０号,,28,217,6660153,,,,,,,2024-10-16,1,,,,,レモンケアプランセンター,0
530,2140003021192,新規,0,2024-10-16,2024-10-16,合同会社ＫＩＲＡＮ,,合同会社,兵庫県,西宮市,甲子園口３丁目１３番１９－３０２号,,28,204,6638113,,,,,,,2024-10-16,1,,,,,キラン,0
540,2150003003396,新規,0,2024-10-16,2024-10-16,合同会社Ｔ＆Ａ,,合同会社,奈良県,橿原市,和田町９番２８号,,29,205,6340041,,,,,,,2024-10-16,1,,,,,ティーアンドエー,0
548,2180001163594,新規,0,2024-10-16,2024-10-16,株式会社シュウワ,,株式会社,愛知県,名古屋市西区,比良２丁目３１３ＧＩＭＵＣＯ―Ｂ,,23,104,4520802,,,,,,,2024-10-16,1,,,,,シュウワ,0
563,2180303006294,新規,0,2024-10-16,2024-10-16,合資会社太田薬店,,合資会社,愛知県,岡崎市,美合町字生田８０番地,,23,202,4440804,,,,,,,2024-10-16,1,,,,,オオタヤクテン,0
564,2190001031718,新規,0,2024-10-16,2024-10-16,株式会社スマイルクラフト,,株式会社,三重県,津市,南中央６番１２号,,24,201,5140832,,,,,,,2024-10-16,1,,,,,スマイルクラフト,0
567,2200001043042,新規,0,2024-10-16,2024-10-16,株式会社ＩＺＵエンターテイメント,,株式会社,岐阜県,可児市,下恵土２４８４番地１－２０５号,,21,214,5090203,,,,,,,2024-10-16,1,,,,,イズエンターテイメント,0
568,2200001043050,新規,0,2024-10-16,2024-10-16,株式会社ＭＣＮＴ,,株式会社,岐阜県,各務原市,那加芦原町１丁目２９番地,00136654,21,213,5040007,,,,,,,2024-10-16,1,,,,,エムシーエヌティー,0
570,2200003006542,新規,0,2024-10-16,2024-10-16,合同会社ＷＡＫＯ,,合同会社,岐阜県,安八郡神戸町,大字下宮３０４,,21,381,5032312,,,,,,,2024-10-16,1,,,,,ワコー,0
580,2240001063937,新規,0,2024-10-16,2024-10-16,株式会社ホーイック,,株式会社,広島県,福山市,明神町１丁目５番８号,,34,207,7210961,,,,,,,2024-10-16,1,,,,,ホーイック,0
581,2240003006902,新規,0,2024-10-16,2024-10-16,合同会社Ｓｔｅｌｌａ速水,,合同会社,広島県,東広島市,西条朝日町８番２号,,34,212,7390012,,,,,,,2024-10-16,1,,,,,ステラハヤミ,0
584,2260001039547,新規,0,2024-10-16,2024-10-16,ＨＯＩＤＡ　ＣＲＡＦＴ株式会社,,株式会社,岡山県,倉敷市,真備町服部４３１,,33,202,7101302,,,,,,,2024-10-16,1,,,,,ホイダクラフト,0
600,2290001107623,新規,0,2024-10-16,2024-10-16,エイトカラー株式会社,,株式会社,福岡県,福岡市博多区,山王１丁目７番７号ウィルブ山王Ｃ－０２,,40,132,8120015,,,,,,,2024-10-16,1,,,,,エイトカラー,0
601,2290003015931,新規,0,2024-10-16,2024-10-16,合同会社ＧＯＬＤ　ＯＲＧＡＮＩＣ　Ｃｏｒｐ．,,合同会社,福岡県,福岡市中央区,今泉２丁目３番４－７０１号アドリーム天神,,40,133,8100021,,,,,,,2024-10-16,1,,,,,ゴールドオーガニツクコーポレーション,0
607,2310002021003,新規,0,2024-10-16,2024-10-16,佐世保西海陸送有限会社,,有限会社,長崎県,佐世保市,俵町２４番２５号,,42,202,8570016,,,,,,,2024-10-16,1,,,,,サセボサイカイリクソウ,0
608,2310005008807,新規,0,2024-10-16,2024-10-16,土地家屋調査士法人ＴＳＴ,,その他の設立登記法人,長崎県,佐世保市,小野町１番地１１,,42,202,8580965,,,,,,,2024-10-16,1,,,,,ティーエスティー,0
613,2330001032560,新規,0,2024-10-16,2024-10-16,株式会社ママココ,,株式会社,熊本県,熊本市北区,弓削２丁目８番１０号,,43,105,8618002,,,,,,,2024-10-16,1,,,,,ママココ,0
615,2340001026859,新規,0,2024-10-16,2024-10-16,株式会社ｃｏｎｎｅｃｔＵ,,株式会社,鹿児島県,鹿児島市,伊敷町６５４１番地１,,46,201,8900003,,,,,,,2024-10-16,1,,,,,コネクトユー,0
619,2340005009777,新規,0,2024-10-16,2024-10-16,特定非営利活動法人天結会,,その他の設立登記法人,鹿児島県,大島郡天城町,大字天城８２１番地１,,46,531,8917611,,,,,,,2024-10-16,1,,,,,アマユイカイ,0
621,2360003014273,新規,0,2024-10-16,2024-10-16,オーシャンダイバーズ石垣島合同会社,,合同会社,沖縄県,石垣市,新栄町５３－１５－１Ｆ,,47,207,9070014,,,,,,,2024-10-16,1,,,,,オーシャンダイバーズ,0
623,2360005007110,新規,0,2024-10-16,2024-10-16,医療法人水寿会,,その他の設立登記法人,沖縄県,うるま市,字江洲４５７番地１,,47,213,9042244,,,,,,,2024-10-16,1,,,,,スイジュカイ,0
625,2370001051813,新規,0,2024-10-16,2024-10-16,ＯＲＷホールディングス株式会社,,株式会社,宮城県,仙台市青葉区,北目町２番３９号東北中心ビル５Ｆ,,04,101,9800023,,,,,,,2024-10-16,1,,,,,オーアールダブリューホールディングス,0
626,2370001051821,新規,0,2024-10-16,2024-10-16,株式会社ＣＥＰ　ＥＡＳＴ,,株式会社,宮城県,仙台市泉区,松森字斉兵衛１７番地１,,04,105,9813111,,,,,,,2024-10-16,1,,,,,シーイーピーイースト,0
628,2380001034833,新規,0,2024-10-16,2024-10-16,株式会社小沢建設,,株式会社,福島県,会津若松市,扇町２７番地２,,07,202,9650025,,,,,,,2024-10-16,1,,,,,オザワケンセツ,0
638,2390001017770,新規,0,2024-10-16,2024-10-16,株式会社ナチュレル,,株式会社,山形県,東根市,さくらんぼ駅前１丁目７－２０,,06,211,9993720,,,,,,,2024-10-16,1,,,,,ナチュレル,0
640,2410003003997,新規,0,2024-10-16,2024-10-16,合同会社Ｇｏｏｄ　Ｄａｙ,,合同会社,秋田県,秋田市,仁井田新田２丁目２番地２３号フェリーチェにいだ１０２,,05,201,0101427,,,,,,,2024-10-16,1,,,,,,0
646,2430005015089,新規,0,2024-10-16,2024-10-16,医療法人社団百海歯科医院,,その他の設立登記法人,北海道,札幌市西区,発寒四条３丁目５番２３号,,01,107,0630824,,,,,,,2024-10-16,1,,,,,ドウカイシカイイン,0
651,2460001005941,新規,0,2024-10-16,2024-10-16,株式会社東幸,,株式会社,北海道,釧路市,鳥取大通４丁目３番１３号,,01,206,0840906,,,,,,,2024-10-16,1,,,,,,0
657,2480003002191,新規,0,2024-10-16,2024-10-16,合同会社Ｊ‐ＰＡＲＫ,,合同会社,徳島県,小松島市,小松島町字元根井５０番地１,,36,203,7730001,,,,,,,2024-10-16,1,,,,,ジェイパーク,0
671,3010001249054,新規,0,2024-10-16,2024-10-16,株式会社ＶＥＮＴＵＳ,,株式会社,東京都,千代田区,神田須田町２丁目３番１２号１２ＫＡＮＤＡ５０４,,13,101,1010041,,,,,,,2024-10-16,1,,,,,ヴェンタス,0
675,3010003045170,新規,0,2024-10-16,2024-10-16,合同会社Ｃ＆Ｙ総研,,合同会社,東京都,文京区,本郷１丁目３０番２７－９１５号,,13,105,1130033,,,,,,,2024-10-16,1,,,,,シーアンドワイソウケン,0
676,3010003045195,新規,0,2024-10-16,2024-10-16,東京地所合同会社,,合同会社,東京都,文京区,目白台１丁目２２番１－５Ａ,,13,105,1120015,,,,,,,2024-10-16,1,,,,,トウキョウジショ,0
683,3010401185659,新規,0,2024-10-16,2024-10-16,ＩＰゼネラルマネージメント株式会社,,株式会社,東京都,港区,赤坂１丁目１４－５（３０２）,,13,103,1070052,,,,,,,2024-10-16,1,,,,,アイピーゼネラルマネージメント,0
684,3010401185667,新規,0,2024-10-16,2024-10-16,凛和商事株式会社,,株式会社,東京都,港区,南青山５丁目４番２７号Ｂａｒｂｉｚｏｎ１０４－３０４号,,13,103,1070062,,,,,,,2024-10-16,1,,,,,リンワショウジ,0
685,3010401185683,新規,0,2024-10-16,2024-10-16,株式会社Ｐａｅｓｅ　Ｄｅｌｌ’Ａｍｏｒｅ　Ａｋａｓａｋａ,,株式会社,東京都,港区,赤坂７丁目５番４０号カーサプラヤ１０１,,13,103,1070052,,,,,,,2024-10-16,1,,,,,パエーゼデルアモーレアカサカ,0
686,3010401185725,新規,0,2024-10-16,2024-10-16,株式会社バベルタワー,,株式会社,東京都,港区,赤坂２丁目２１番５号ＡＢＣ－Ｃ－２号,,13,103,1070052,,,,,,,2024-10-16,1,,,,,バベルタワー,0
687,3010401185766,新規,0,2024-10-16,2024-10-16,株式会社富強食品,,株式会社,東京都,港区,西麻布１丁目１０番９号,,13,103,1060031,,,,,,,2024-10-16,1,,,,,フキョウショクヒン,0
688,3010401185782,新規,0,2024-10-16,2024-10-16,ＧＬ‐ＪＴ株式会社,,株式会社,東京都,港区,北青山３丁目６番７号青山パラシオタワー１２階,,13,103,1070061,,,,,,,2024-10-16,1,,,,,ジーエルジェーティー,0
693,3010403033584,新規,0,2024-10-16,2024-10-16,合同会社Ｌｕｇ,,合同会社,東京都,港区,浜松町２丁目２－１５浜松町ダイヤビル２Ｆ,,13,103,1050013,,,,,,,2024-10-16,1,,,,,ルグ,0
694,3010403033592,新規,0,2024-10-16,2024-10-16,合同会社８６３Ｍａｎａｇｅｍｅｎｔ,,合同会社,東京都,港区,麻布十番３丁目８－６－４０３,,13,103,1060045,,,,,,,2024-10-16,1,,,,,ハチロクサンマネジメント,0
695,3010405023666,新規,0,2024-10-16,2024-10-16,一般社団法人世界支援開発協会,,その他の設立登記法人,東京都,港区,赤坂９丁目６番２８号－９１３,,13,103,1070052,,,,,,,2024-10-16,1,,,,,セカイシエンカイハツキョウカイ,0
698,3010601066089,新規,0,2024-10-16,2024-10-16,株式会社斎藤健会計事務所,,株式会社,東京都,江東区,富岡２丁目１１－１８リードシー門前仲町４Ｆ－１,,13,108,1350047,,,,,,,2024-10-16,1,,,,,サイトウツヨシカイケイジムショ,0
707,3011001165290,新規,0,2024-10-16,2024-10-16,株式会社ＹＵＵＵＭ,,株式会社,東京都,渋谷区,渋谷２丁目１９‐１５宮益坂ビルディング６０９,,13,113,1500002,,,,,,,2024-10-16,1,,,,,ユーム,0
708,3011001165324,新規,0,2024-10-16,2024-10-16,ｏｎｅ　ｓｏｒａｚ株式会社,,株式会社,東京都,渋谷区,神南１丁目１１‐４ＦＰＧリンクス神南５階,,13,113,1500041,,,,,,,2024-10-16,1,,,,,ワンソラーズ,0
709,3011003020196,新規,0,2024-10-16,2024-10-16,グロウティブ合同会社,,合同会社,東京都,渋谷区,道玄坂１丁目１０番８号渋谷道玄坂東急ビル２Ｆ－Ｃ,,13,113,1500043,,,,,,,2024-10-16,1,,,,,グロウティブ,0
713,3011103015047,新規,0,2024-10-16,2024-10-16,合同会社ＫＵＲＯ,,合同会社,東京都,新宿区,西新宿３丁目３番１３号西新宿水間ビル２Ｆ,,13,104,1600023,,,,,,,2024-10-16,1,,,,,クロ,0
714,3011103015055,新規,0,2024-10-16,2024-10-16,ステラ合同会社,,合同会社,東京都,新宿区,須賀町１２番地マンション信濃苑１０２,,13,104,1600018,,,,,,,2024-10-16,1,,,,,ステラ,0
718,3011401026472,新規,0,2024-10-16,2024-10-16,西川食品株式会社,,株式会社,東京都,板橋区,高島平７丁目１４番４号,,13,119,1750082,,,,,,,2024-10-16,1,,,,,ニシカワショクヒン,0
723,3011601028129,新規,0,2024-10-16,2024-10-16,芙影株式会社,,株式会社,東京都,練馬区,三原台１丁目２９番８－１０２号,,13,120,1770031,,,,,,,2024-10-16,1,,,,,フカゲ,0
729,3011701027724,新規,0,2024-10-16,2024-10-16,株式会社サクセスキャリアエアライン,,株式会社,東京都,江戸川区,本一色１丁目３４－１６－４０３,,13,123,1330044,,,,,,,2024-10-16,1,,,,,サクセスキャリアエアライン,0
733,3011801044999,新規,0,2024-10-16,2024-10-16,ＷｉｎＷａｙ株式会社,,株式会社,東京都,足立区,新田１丁目２０－２０,,13,121,1230865,,,,,,,2024-10-16,1,,,,,ウィンウェイ,0
734,3011803006485,新規,0,2024-10-16,2024-10-16,合同会社ケフィカル,,合同会社,東京都,足立区,江北５丁目１１－１２－９０６,,13,121,1230872,,,,,,,2024-10-16,1,,,,,ケフィカル,0
742,3012403006792,新規,0,2024-10-16,2024-10-16,合同会社Ｇｒｅｅｎ　Ｂａｓｅ,,合同会社,東京都,調布市,下石原３丁目７０番地１,,13,208,1820034,,,,,,,2024-10-16,1,,,,,グリーンベース,0
747,3013303007352,新規,0,2024-10-16,2024-10-16,合同会社かぼす,,合同会社,東京都,豊島区,西池袋１丁目５番１１－１３０１号,,13,116,1710021,,,,,,,2024-10-16,1,,,,,カボス,0
751,3020001159608,新規,0,2024-10-16,2024-10-16,クレインテック株式会社,,株式会社,神奈川県,川崎市幸区,南加瀬１丁目７番１－５１８号メイツ新川崎,,14,132,2120055,,,,,,,2024-10-16,1,,,,,クレインテック,0
752,3020001159616,新規,0,2024-10-16,2024-10-16,Ａ‐Ｕ‐Ｊ　Ｃｏｎｓｕｌｔｉｎｇ株式会社,,株式会社,神奈川県,横浜市保土ケ谷区,神戸町５０,,14,106,2400005,,,,,,,2024-10-16,1,,,,,エーユージェイコンサルティング,0
758,3020003027028,新規,0,2024-10-16,2024-10-16,ＮＡシステム合同会社,,合同会社,神奈川県,川崎市川崎区,小田５丁目１６番１－６０７号,,14,131,2100846,,,,,,,2024-10-16,1,,,,,エヌエーシステム,0
759,3021001083450,新規,0,2024-10-16,2024-10-16,錦繍株式会社,00136644,株式会社,神奈川県,秦野市,南矢名２２２３番地の４東海ビル１０８Ｂ,,14,211,2570003,,,,,,,2024-10-16,1,,,,,キンシュウ,0
760,3021001083483,新規,0,2024-10-16,2024-10-16,株式会社さかい,,株式会社,神奈川県,海老名市,浜田町９番３０号,,14,215,2430412,,,,,,,2024-10-16,1,,,,,サカイ,0
761,3021001083491,新規,0,2024-10-16,2024-10-16,株式会社ギークスルール,,株式会社,神奈川県,逗子市,久木５丁目１３番１３号,,14,208,2490001,,,,,,,2024-10-16,1,,,,,ギークスルール,0
766,3021003015105,新規,0,2024-10-16,2024-10-16,合同会社ＬａＣｈｅｎｉｌｌｅ,,合同会社,神奈川県,藤沢市,大庭５３４２－５中田ビル１階,,14,205,2510861,,,,,,,2024-10-16,1,,,,,ラシュニーユ,0
772,3030001162899,新規,0,2024-10-16,2024-10-16,株式会社栄創,,株式会社,埼玉県,川口市,並木４丁目１０番８号,,11,203,3320034,,,,,,,2024-10-16,1,,,,,エイソウ,0
773,3030001163014,新規,0,2024-10-16,2024-10-16,株式会社ｙｏｕ．ｓａｙ．ｉｎｃ．ｇｐ,,株式会社,埼玉県,所沢市,大字山口７４６番４号ＹＫＳビル３０１,,11,208,3591145,,,,,,,2024-10-16,1,,,,,ユーセイインクドットジーピー,0
784,3040001135846,新規,0,2024-10-16,2024-10-16,浩元Ｅｃｏ産業株式会社,,株式会社,千葉県,富里市,中沢３９８番地２３,,12,233,2860222,,,,,,,2024-10-16,1,,,,,ヒロモトエコサンギョウ,0
788,3040005022553,新規,0,2024-10-16,2024-10-16,一般社団法人ＳＨＩＰ,,その他の設立登記法人,千葉県,南房総市,久枝７８４,,12,234,2992216,,,,,,,2024-10-16,1,,,,,シップ,0
794,3060001037578,新規,0,2024-10-16,2024-10-16,早乙女建設株式会社,,株式会社,栃木県,さくら市,穂積５５０番地,,09,214,3291403,,,,,,,2024-10-16,1,,,,,ソウトメケンセツ,0
802,3080001026546,新規,0,2024-10-16,2024-10-16,クレア株式会社,,株式会社,静岡県,静岡市葵区,安西４丁目２８番地グランドール安西４０４,,22,101,4200011,,,,,,,2024-10-16,1,,,,,クレア,0
804,3080003003312,新規,0,2024-10-16,2024-10-16,Ｓｃｈｏｅｎｅｎ　Ｔａｇ合同会社,,合同会社,静岡県,静岡市葵区,大岩２丁目４７番５号,,22,101,4200886,,,,,,,2024-10-16,1,,,,,シェーネンターク,0
807,3080401027508,新規,0,2024-10-16,2024-10-16,株式会社駿河モンキー,,株式会社,静岡県,浜松市中央区,中郡町１３２３番地,,22,138,4313111,,,,,,,2024-10-16,1,,,,,スルガモンキー,0
815,3110003005552,新規,0,2024-10-16,2024-10-16,Ｃａｌｍｅｒ　Ｌｏｄｇｉｎｇ合同会社,,合同会社,新潟県,妙高市,大字樽本丙１１０１番地３８,00136651,15,217,9492223,,,,,,,2024-10-16,1,,,,,カーマーロッジング,0
825,3120001269272,新規,0,2024-10-16,2024-10-16,マカン商事株式会社,,株式会社,大阪府,大阪市西淀川区,柏里２丁目７－２６ラ・ピース塚本７０６号室,00136645,27,113,5550022,,,,,,,2024-10-16,1,,,,,マカンショウジ,0
826,3120001269339,新規,0,2024-10-16,2024-10-16,株式会社シャインシャイン,,株式会社,大阪府,大阪市北区,豊崎３丁目４番１４号,,27,127,5310072,,,,,,,2024-10-16,1,,,,,シャインシャイン,0
827,3120001269347,新規,0,2024-10-16,2024-10-16,株式会社Ｓｐｒｉｎｇ　Ｒｅｐａｉｒ,,株式会社,大阪府,大阪市都島区,都島本通３丁目２６番２３号,,27,102,5340021,,,,,,,2024-10-16,1,,,,,スプリングリペア,0
828,3120001269355,新規,0,2024-10-16,2024-10-16,株式会社ＪＡＫｓ,,株式会社,大阪府,大阪市北区,曾根崎２丁目８－５お初天神ＥＡＳＴＢＬＤＧ３Ｆ,,27,127,5300057,,,,,,,2024-10-16,1,,,,,ジャックス,0
829,3120001269371,新規,0,2024-10-16,2024-10-16,鵬辰日中商務株式会社,,株式会社,大阪府,大阪市港区,八幡屋３丁目５番１－３０５号,,27,107,5520014,,,,,,,2024-10-16,1,,,,,ホウシンニッチュウショウム,0
830,3120001269388,新規,0,2024-10-16,2024-10-16,株式会社エステート大西,,株式会社,大阪府,大阪市鶴見区,焼野２丁目５番３１号,,27,124,5380037,,,,,,,2024-10-16,1,,,,,エステートオオニシ,0
833,3120003027760,新規,0,2024-10-16,2024-10-16,インフォリレーションシップ合同会社,,合同会社,大阪府,枚方市,南楠葉２丁目１４番２１号,,27,210,5731105,,,,,,,2024-10-16,1,,,,,インフォリレーションシップ,0
840,3130001078128,新規,0,2024-10-16,2024-10-16,ＳＨＩＹＡ株式会社,,株式会社,京都府,京都市中京区,古城町３５９,,26,104,6040045,,,,,,,2024-10-16,1,,,,,シヤ,0
850,3140001136000,新規,0,2024-10-16,2024-10-16,ソーシャル・サポート株式会社,,株式会社,兵庫県,神戸市中央区,東町１２３－１－８０７,,28,110,6500031,,,,,,,2024-10-16,1,,,,,,0
851,3140001136090,新規,0,2024-10-16,2024-10-16,株式会社プロテア,,株式会社,兵庫県,明石市,小久保２丁目１番地の１４グランカサーレ西明石駅前１００３号,,28,203,6730005,,,,,,,2024-10-16,1,,,,,プロテア,0
852,3140001136124,新規,0,2024-10-16,2024-10-16,株式会社グランフィールド,,株式会社,兵庫県,加古川市,加古川町稲屋３３７番地の７,,28,210,6750034,,,,,,,2024-10-16,1,,,,,グランフィールド,0
853,3140001136140,新規,0,2024-10-16,2024-10-16,株式会社ＨＩ‐ＲＯＮ,,株式会社,兵庫県,神戸市長田区,東尻池町７丁目１番１号君影ビル３０１,,28,106,6530022,,,,,,,2024-10-16,1,,,,,ヒーロン,0
854,3140003021200,新規,0,2024-10-16,2024-10-16,合同会社アリビオ,,合同会社,兵庫県,高砂市,高砂町浜田町１丁目２番２－２０１号デュオプレステージ高砂駅前,,28,216,6760022,,,,,,,2024-10-16,1,,,,,アリビオ,0
860,3170001018344,新規,0,2024-10-16,2024-10-16,株式会社ＤＫカンパニー,,株式会社,和歌山県,紀の川市,貴志川町神戸８００番地６,,30,208,6400413,,,,,,,2024-10-16,1,,,,,ディーケーカンパニー,0
863,3180001163692,新規,0,2024-10-16,2024-10-16,雲龍ＪＡＰＡＮ株式会社,,株式会社,愛知県,名古屋市千種区,今池１丁目５番２１号,,23,101,4640850,,,,,,,2024-10-16,1,,,,,ウンリュウジャパン,0
864,3180001163701,新規,0,2024-10-16,2024-10-16,株式会社ＷＡＣＲＡＦＴ,,株式会社,愛知県,名古屋市中村区,名駅４丁目２４番５号第２森ビル４０１,,23,105,4500002,,,,,,,2024-10-16,1,,,,,ワックラフト,0
869,3180005020808,新規,0,2024-10-16,2024-10-16,グロースリンク司法書士法人,,その他の設立登記法人,愛知県,名古屋市中村区,平池町４丁目６０番地の１２,,23,105,4530872,,,,,,,2024-10-16,1,,,,,グロースリンク,0
871,3180301039114,新規,0,2024-10-16,2024-10-16,株式会社ｍＢｉＲＳ,,株式会社,愛知県,岡崎市,六供町１丁目１２番地,,23,202,4440072,,,,,,,2024-10-16,1,,,,,エムバース,0
872,3180301039155,新規,0,2024-10-16,2024-10-16,株式会社西田電機,,株式会社,愛知県,安城市,箕輪町唐生１１７番地２,,23,212,4460051,,,,,,,2024-10-16,1,,,,,ニシダデンキ,0
876,3190001031717,新規,0,2024-10-16,2024-10-16,株式会社前地設備,,株式会社,三重県,南牟婁郡紀宝町,鵜殿７４４番地,,24,562,5195701,,,,,,,2024-10-16,1,,,,,マエジセツビ,0
877,3190001031725,新規,0,2024-10-16,2024-10-16,株式会社大川建設,,株式会社,三重県,四日市市,松原町４番３号,,24,202,5108015,,,,,,,2024-10-16,1,,,,,オオカワケンセツ,0
878,3200001043033,新規,0,2024-10-16,2024-10-16,株式会社Ｔｈｒｉｂｅｅ．,,株式会社,岐阜県,高山市,本町１丁目２３番地,,21,203,5060011,,,,,,,2024-10-16,1,,,,,スライビー,0
887,3230001020566,新規,0,2024-10-16,2024-10-16,ナカジマサイン株式会社,,株式会社,富山県,下新川郡朝日町,平柳１２００番地,,16,343,9390744,,,,,,,2024-10-16,1,,,,,ナカジマサイン,0
888,3240001063969,新規,0,2024-10-16,2024-10-16,株式会社フードキャンプ,,株式会社,広島県,広島市南区,皆実町１丁目７番１１－８０３号,,34,103,7340007,,,,,,,2024-10-16,1,,,,,フードキャンプ,0
891,3260005011410,新規,0,2024-10-16,2024-10-16,一般社団法人ハートリンクキッズ,,その他の設立登記法人,岡山県,倉敷市,真備町岡田６１９番地２,,33,202,7101311,,,,,,,2024-10-16,1,,,,,ハートリンクキッズ,0
895,3290001107589,新規,0,2024-10-16,2024-10-16,株式会社アルファーション,,株式会社,福岡県,福岡市東区,香椎照葉４丁目２番５－９０９号,,40,131,8130017,,,,,,,2024-10-16,1,,,,,アルファーション,0
898,3300003002191,新規,0,2024-10-16,2024-10-16,トリルナ合同会社,,合同会社,佐賀県,神埼市,神埼町田道ヶ里２３２７番地３グランドソレイユ３０１,,41,210,8420002,,,,,,,2024-10-16,1,,,,,トリルナ,0
903,3320001020763,新規,0,2024-10-16,2024-10-16,株式会社サンエススパサポート,,株式会社,大分県,別府市,大字内竈５番地の１７,,44,202,8740011,,,,,,,2024-10-16,1,,,,,サンエススパサポート,0
904,3320003004475,新規,0,2024-10-16,2024-10-16,彪雅ＫＥＮＤＯ合同会社,,合同会社,大分県,別府市,石垣西６丁目３番９号,,44,202,8740910,,,,,,,2024-10-16,1,,,,,ヒョウガケンドウ,0
905,3350001019233,新規,0,2024-10-16,2024-10-16,株式会社ＲＹＵＧＥＮ,,株式会社,宮崎県,日向市,大字幸脇４１８番地１,,45,206,8891112,,,,,,,2024-10-16,1,,,,,リュウゲン,0
906,3360001034306,新規,0,2024-10-16,2024-10-16,株式会社Ｆｏｒｅｓｔ＆Ｃｏ,,株式会社,沖縄県,豊見城市,字瀬長１７４番地６,,47,212,9010233,,,,,,,2024-10-16,1,,,,,フォレストアンドシーオー,0
907,3360001034314,新規,0,2024-10-16,2024-10-16,株式会社ヨシ塗装,,株式会社,沖縄県,島尻郡八重瀬町,字小城４２番地６,,47,362,9010415,,,,,,,2024-10-16,1,,,,,ヨシトソウ,0
910,3360003014388,新規,0,2024-10-16,2024-10-16,合同会社一心組,,合同会社,沖縄県,名護市,字汀間３８番地,,47,209,9052265,,,,,,,2024-10-16,1,,,,,イッシングミ,0
911,3360003014396,新規,0,2024-10-16,2024-10-16,合同会社アルバトロス,,合同会社,沖縄県,那覇市,安謝２丁目２０番２号スプリーム３０１,,47,201,9000003,,,,,,,2024-10-16,1,,,,,アルバトロス,0
931,3430003016864,新規,0,2024-10-16,2024-10-16,合同会社ＡｌｐｈａＯｍｅｇａ,,合同会社,北海道,札幌市厚別区,厚別中央三条４丁目１７－１トラピース新札幌１０２,,01,108,0040053,,,,,,,2024-10-16,1,,,,,アルファオメガ,0
932,3430005015088,新規,0,2024-10-16,2024-10-16,一般社団法人わん・すてっぷ,,その他の設立登記法人,北海道,砂川市,東四条南１０丁目１番１２号,,01,226,0730134,,,,,,,2024-10-16,1,,,,,ワンステップ,0
933,3450005004428,新規,0,2024-10-16,2024-10-16,下勇知農事實行組合,,その他の設立登記法人,北海道,稚内市,大字抜海村字下勇知,,01,214,0984581,,,,,,,2024-10-16,1,,,,,シモユウチ,0
937,3470005006587,新規,0,2024-10-16,2024-10-16,一般社団法人ＷＡＯＪＥさぬき,,その他の設立登記法人,香川県,さぬき市,寒川町神前１６１５番地,,37,206,7692323,,,,,,,2024-10-16,1,,,,,ワオウジェサヌキ,0
939,3490001010888,新規,0,2024-10-16,2024-10-16,株式会社ＡＫＡＴＵＫＩ,,株式会社,高知県,高知市,横浜３６７番地５,,39,201,7810240,,,,,,,2024-10-16,1,,,,,アカツキ,0
954,4010003045194,新規,0,2024-10-16,2024-10-16,福知山ＢＦ合同会社,,合同会社,東京都,中央区,日本橋１丁目４番１号,,13,102,1030027,,,,,,,2024-10-16,1,,,,,フクチヤマビーエフ,0
958,4010103002434,新規,0,2024-10-16,2024-10-16,合同会社ロータリー自動車,,合同会社,東京都,八王子市,元八王子町３丁目２９１２番地１、２０１号,,13,201,1930826,,,,,,,2024-10-16,1,,,,,ロータリージドウシャ,0
969,4010401185724,新規,0,2024-10-16,2024-10-16,リンクス・テクノロジーズ株式会社,,株式会社,東京都,港区,赤坂６丁目１８－１１Ｓｔｏｒｉａ赤坂２０２,,13,103,1070052,,,,,,,2024-10-16,1,,,,,リンクステクノロジーズ,0
970,4010401185773,新規,0,2024-10-16,2024-10-16,株式会社キャピベーター,,株式会社,東京都,港区,海岸２丁目５番１－２２０６号,,13,103,1050022,,,,,,,2024-10-16,1,,,,,キャピベーター,0
971,4010401185781,新規,0,2024-10-16,2024-10-16,株式会社福岡エステート,,株式会社,東京都,港区,芝大門１丁目１０番１１号芝大門センタービル１０Ｆ,,13,103,1050012,,,,,,,2024-10-16,1,,,,,フクオカエステート,0
973,4010403033600,新規,0,2024-10-16,2024-10-16,ｒｐｃ　Ｔｈｅ　Ｒｅｔａｉｌ　Ｐｅｒｆｏｒｍａｎｃｅ　Ｃｏｍｐａｎｙ　Ｊａｐａｎ合同会社,,合同会社,東京都,港区,海岸１丁目２番２０号汐留ビルディング,,13,103,1050022,,,,,,,2024-10-16,1,,,,,アールピーシーザリテールパフォーマンスカンパニージャパン,0
974,4010405023681,新規,0,2024-10-16,2024-10-16,一般社団法人日本ウガンダ新経済開発機構,,その他の設立登記法人,東京都,港区,赤坂３丁目５番５号,,13,103,1070052,,,,,,,2024-10-16,1,,,,,ニホンウガンダシンケイザイカイハツキコウ,0
978,4010601066105,新規,0,2024-10-16,2024-10-16,株式会社つなぐ,,株式会社,東京都,江東区,有明１丁目４番１１－３１１７号,,13,108,1350063,,,,,,,2024-10-16,1,,,,,ツナグ,0
980,4010701046683,新規,0,2024-10-16,2024-10-16,株式会社ブルーレーン,,株式会社,東京都,品川区,小山２丁目１６番８号,,13,109,1420062,,,,,,,2024-10-16,1,,,,,ブルーレーン,0
982,4010801035487,新規,0,2024-10-16,2024-10-16,株式会社ヤマオネット,,株式会社,東京都,大田区,田園調布本町４１番４号,,13,111,1450072,,,,,,,2024-10-16,1,,,,,ヤマオネット,0
999,4011001165174,新規,0,2024-10-16,2024-10-16,株式会社ＰａｎＤＫＬａｂ．,,株式会社,東京都,渋谷区,東３丁目１２番１０号,,13,113,1500011,,,,,,,2024-10-16,1,,,,,パンディーケーラボ,0
1002,4011101109155,新規,0,2024-10-16,2024-10-16,株式会社恵,,株式会社,東京都,新宿区,市谷田町２丁目１７番地八重洲市谷ビル９階,,13,104,1620843,,,,,,,2024-10-16,1,,,,,メグミ,0
1006,4011601028128,新規,0,2024-10-16,2024-10-16,株式会社兼成,,株式会社,東京都,練馬区,春日町１丁目１５番１５号,,13,120,1790074,,,,,,,2024-10-16,1,,,,,ケンセイ,0
1015,4012403006800,新規,0,2024-10-16,2024-10-16,合同会社Ｈａｕｏｌｉ,,合同会社,東京都,多摩市,愛宕４丁目９番地２２号１０３,,13,224,2060041,,,,,,,2024-10-16,1,,,,,ハウオリ,0
1017,4012701018497,新規,0,2024-10-16,2024-10-16,株式会社ＫＪＣ,,株式会社,東京都,西東京市,田無町４丁目２０番９号,,13,229,1880011,,,,,,,2024-10-16,1,,,,,ケージェーシー,0
1020,4013301053208,新規,0,2024-10-16,2024-10-16,株式会社ＢＣＰ,,株式会社,東京都,豊島区,南池袋１丁目９番１８号,,13,116,1710022,,,,,,,2024-10-16,1,,,,,ビーシーピー,0
1021,4013301053216,新規,0,2024-10-16,2024-10-16,株式会社テトラ・シフト,,株式会社,東京都,豊島区,池袋２丁目１７番８号天翔池袋ＡＮＮＥＸビル４１４号,,13,116,1710014,,,,,,,2024-10-16,1,,,,,テトラシフト,0
1022,4013305003654,新規,0,2024-10-16,2024-10-16,一般社団法人ガチホ塾,,その他の設立登記法人,東京都,豊島区,東池袋１丁目３４番５号いちご東池袋ビル６階,,13,116,1700013,,,,,,,2024-10-16,1,,,,,ガチホジュク,0
1036,4020001159508,新規,0,2024-10-16,2024-10-16,ＴＳＵＭＵＧＩ不動産株式会社,,株式会社,神奈川県,横浜市戸塚区,上倉田町２１４１－４プライズヒル２０２６,,14,110,2440816,,,,,,,2024-10-16,1,,,,,ツムギフドウサン,0
1037,4020001159598,新規,0,2024-10-16,2024-10-16,株式会社ＷＡＧＡＮＳＥ　ＰＬＵＳ,,株式会社,神奈川県,横浜市西区,北幸１丁目１１番１号水信ビル７階,,14,103,2200004,,,,,,,2024-10-16,1,,,,,ワガンセプラス,0
1038,4020001159607,新規,0,2024-10-16,2024-10-16,株式会社ＡＮＧＡ,,株式会社,神奈川県,横浜市金沢区,釜利谷西１丁目４４－１,,14,108,2360046,,,,,,,2024-10-16,1,,,,,アンガ,0
1040,4020003027027,新規,0,2024-10-16,2024-10-16,優和エステート合同会社,,合同会社,神奈川県,横浜市金沢区,能見台６丁目４６番地５,,14,108,2360057,,,,,,,2024-10-16,1,,,,,ユウワエステート,0
1044,4021003015104,新規,0,2024-10-16,2024-10-16,合同会社アプローチケア,,合同会社,神奈川県,横須賀市,湘南鷹取４丁目１３番４号,,14,201,2370066,,,,,,,2024-10-16,1,,,,,アプローチケア,0
1045,4021003015120,新規,0,2024-10-16,2024-10-16,合同会社ｆｌｏｔａｔｉｏｎ,,合同会社,神奈川県,相模原市南区,豊町６番１４ー１号,,14,153,2520305,,,,,,,2024-10-16,1,,,,,フローテーション,0
1059,4040001135804,新規,0,2024-10-16,2024-10-16,株式会社ＲＥＸ,,株式会社,千葉県,流山市,大字東深井６８８番地の５６,,12,220,2700101,,,,,,,2024-10-16,1,,,,,レックス,0
1060,4040001135820,新規,0,2024-10-16,2024-10-16,株式会社ティー・ツー,,株式会社,千葉県,習志野市,鷺沼台４丁目８番２４号,,12,216,2750015,,,,,,,2024-10-16,1,,,,,ティーツー,0
1066,4040003025978,新規,0,2024-10-16,2024-10-16,合同会社ＩＣＨＩＡＫＩ,,合同会社,千葉県,千葉市若葉区,桜木４丁目１３番１８号ピースクレスト１０１号,,12,104,2640028,,,,,,,2024-10-16,1,,,,,イチアキ,0
1071,4050001055555,新規,0,2024-10-16,2024-10-16,ミナト株式会社,,株式会社,茨城県,東茨城郡茨城町,大字長岡１３３５,,08,302,3113116,,,,,,,2024-10-16,1,,,,,ミナト,0
1087,4070001042279,新規,0,2024-10-16,2024-10-16,株式会社メモリアルアース,,株式会社,群馬県,前橋市,元総社町１５２番地２,,10,201,3710846,,,,,,,2024-10-16,1,,,,,メモリアルアース,0
1090,4080003003311,新規,0,2024-10-16,2024-10-16,合同会社Ｏｆｆｉｃｅ　ＲＩＳＥ,,合同会社,静岡県,静岡市清水区,駒越西２丁目９－８,,22,103,4240905,,,,,,,2024-10-16,1,,,,,オフィスライズ,0
1093,4080103003161,新規,0,2024-10-16,2024-10-16,合同会社ＧＢＬ,,合同会社,静岡県,伊豆市,柏久保５５５番地の３,,22,222,4102407,,,,,,,2024-10-16,1,,,,,ジービーエル,0
1095,4080401027507,新規,0,2024-10-16,2024-10-16,やさいバス食堂株式会社,,株式会社,静岡県,掛川市,駅前４番地の４,,22,213,4360077,,,,,,,2024-10-16,1,,,,,ヤサイバスショクドウ,0
1100,4110001038768,新規,0,2024-10-16,2024-10-16,株式会社シュガー,,株式会社,新潟県,三条市,東裏館３丁目５番１５号,,15,204,9550081,,,,,,,2024-10-16,1,,,,,シュガー,0
1107,4120001269172,新規,0,2024-10-16,2024-10-16,琵琶湖観光株式会社,,株式会社,大阪府,大阪市大正区,三軒家西２丁目５番地,,27,108,5510001,,,,,,,2024-10-16,1,,,,,ビワコカンコウ,0
1108,4120001269379,新規,0,2024-10-16,2024-10-16,株式会社山王堂,,株式会社,大阪府,大阪市北区,末広町３番２１号,,27,127,5300053,,,,,,,2024-10-16,1,,,,,サンノウドウ,0
1110,4120003027644,新規,0,2024-10-16,2024-10-16,合同会社ＬＩＥＢＥ,,合同会社,大阪府,大阪市北区,梅田１丁目２番２号大阪駅前第２ビル１２－１２,,27,127,5300001,,,,,,,2024-10-16,1,,,,,リーベ,0
1111,4120003027719,新規,0,2024-10-16,2024-10-16,合同会社前進,,合同会社,大阪府,大阪市生野区,巽中１丁目１７番６－５０７,,27,116,5440013,,,,,,,2024-10-16,1,,,,,ゼンシン,0
1112,4120003027743,新規,0,2024-10-16,2024-10-16,合同会社リンガ,,合同会社,大阪府,大阪市北区,東天満２丁目９－４千代田ビル東館３階,,27,127,5300044,,,,,,,2024-10-16,1,,,,,リンガ,0
1113,4120003027751,新規,0,2024-10-16,2024-10-16,合同会社Ａプライム,,合同会社,大阪府,枚方市,伊加賀北町６－２０－７０３,,27,210,5730036,,,,,,,2024-10-16,1,,,,,エープライム,0
1114,4120005024573,新規,0,2024-10-16,2024-10-16,一般社団法人中医鍼灸武派世界交流中心,,その他の設立登記法人,大阪府,大阪市中央区,内本町２丁目１－９－３０１号,,27,128,5400026,,,,,,,2024-10-16,1,,,,,チュウイシンキュウブハセカイコウリュウチュウシン,0
1115,4120005024581,新規,0,2024-10-16,2024-10-16,一般社団法人リベ大就労支援,,その他の設立登記法人,大阪府,大阪市北区,太融寺町３番３０－１１０５号,,27,127,5300051,,,,,,,2024-10-16,1,,,,,リベダイシュウロウシエン,0
1120,4120101070414,新規,0,2024-10-16,2024-10-16,株式会社ＳｙｎｃＯｎｅ,,株式会社,大阪府,富田林市,南旭ケ丘町３番１１号,,27,214,5840007,,,,,,,2024-10-16,1,,,,,シンクワン,0
1129,4130001078143,新規,0,2024-10-16,2024-10-16,株式会社ハラル・フーズ,,株式会社,京都府,京都市中京区,河原町通御池下る下丸屋町３９０番地２,,26,104,6048006,,,,,,,2024-10-16,1,,,,,ハラルフーズ,0
1132,4130003009930,新規,0,2024-10-16,2024-10-16,合同会社ａ　ｌａｂｏｕｒ　ｏｆ　ｌｏｖｅ,,合同会社,京都府,京都市上京区,竹屋町通千本東入主税町１１１５番地の１,,26,102,6028155,,,,,,,2024-10-16,1,,,,,アレイバーオブラブ,0
1138,4140001136131,新規,0,2024-10-16,2024-10-16,株式会社ランドテイク,,株式会社,兵庫県,南あわじ市,賀集立川瀬４０４－３,,28,224,6560512,,,,,,,2024-10-16,1,,,,,ランドテイク,0
1140,4140003021190,新規,0,2024-10-16,2024-10-16,合同会社ｕｍｉｈｉ,,合同会社,兵庫県,神戸市西区,宮下３丁目８番２－２０３号,,28,111,6512146,,,,,,,2024-10-16,1,,,,,ウミヒ,0
1141,4140003021208,新規,0,2024-10-16,2024-10-16,合同会社サツキ,,合同会社,兵庫県,伊丹市,荒牧３丁目１１番４号,,28,207,6640001,,,,,,,2024-10-16,1,,,,,サツキ,0
1142,4140005027236,新規,0,2024-10-16,2024-10-16,一般社団法人人と動物の絆,,その他の設立登記法人,兵庫県,たつの市,誉田町福田１３９番地１シャーメゾン福田Ａ１０２,,28,229,6794132,,,,,,,2024-10-16,1,,,,,,0
1144,4150003003394,新規,0,2024-10-16,2024-10-16,合同会社杉浦,,合同会社,奈良県,奈良市,六条３丁目７番１号,,29,201,6308043,,,,,,,2024-10-16,1,,,,,スギウラ,0
1146,4160001026280,新規,0,2024-10-16,2024-10-16,株式会社ｅｓｔ,,株式会社,滋賀県,彦根市,高宮町１３１３番地１１,,25,202,5220201,,,,,,,2024-10-16,1,,,,,エスト,0
1147,4160001026289,新規,0,2024-10-16,2024-10-16,株式会社イーグル,,株式会社,滋賀県,栗東市,安養寺７丁目１－２５,,25,208,5203015,,,,,,,2024-10-16,1,,,,,,0
1157,4180001163601,新規,0,2024-10-16,2024-10-16,株式会社クローバーマンダレージャパン,,株式会社,愛知県,名古屋市中村区,長戸井町２丁目２０番地１,,23,105,4530803,,,,,,,2024-10-16,1,,,,,クローバーマンダレージャパン,0
1158,4180001163618,新規,0,2024-10-16,2024-10-16,株式会社５５,,株式会社,愛知県,名古屋市天白区,池場３丁目１６０８番地,,23,116,4680055,,,,,,,2024-10-16,1,,,,,ゴーゴー,0
1166,4180003027473,新規,0,2024-10-16,2024-10-16,合同会社ＫＡＲＭＡ,,合同会社,愛知県,春日井市,妙慶町２丁目１６番地,,23,206,4860928,,,,,,,2024-10-16,1,,,,,カルマ,0
1169,4190001031724,新規,0,2024-10-16,2024-10-16,Ｔｏ．Ｕ．Ｒ株式会社,,株式会社,三重県,多気郡多気町,油夫３７２番地１,,24,441,5192173,,,,,,,2024-10-16,1,,,,,トゥーユー,0
1170,4200001043032,新規,0,2024-10-16,2024-10-16,株式会社梶間技研,,株式会社,岐阜県,岐阜市,此花町５丁目９番地２,,21,201,5008333,,,,,,,2024-10-16,1,,,,,カジマギケン,0
1173,4230001020565,新規,0,2024-10-16,2024-10-16,つぐ葉株式会社,,株式会社,富山県,富山市,呉羽町６７５７番地１シティハイムふじ２０１号,,16,201,9300138,,,,,,,2024-10-16,1,,,,,ツグハ,0
1176,4240001063935,新規,0,2024-10-16,2024-10-16,株式会社ウィズランド,,株式会社,広島県,広島市安芸区,阿戸町１２９０番地,,34,107,7314231,,,,,,,2024-10-16,1,,,,,ウィズランド,0
1177,4240001063943,新規,0,2024-10-16,2024-10-16,株式会社新和工業,,株式会社,広島県,江田島市,能美町高田１０９８－１,,34,215,7372303,,,,,,,2024-10-16,1,,,,,シンワコウギョウ,0
1182,4240003006900,新規,0,2024-10-16,2024-10-16,ユウノ合同会社,,合同会社,広島県,三原市,幸崎町能地５３１９番地１,,34,204,7292252,,,,,,,2024-10-16,1,,,,,,0
1185,4250003003574,新規,0,2024-10-16,2024-10-16,サービス山口合同会社,,合同会社,山口県,宇部市,大字際波２１３－２０,,35,202,7590207,,,,,,,2024-10-16,1,,,,,サービスヤマグチ,0
1187,4260001039545,新規,0,2024-10-16,2024-10-16,株式会社ＭＵＲＡＳＨＯ,,株式会社,岡山県,岡山市北区,門前３６２番地７,,33,101,7011351,,,,,,,2024-10-16,1,,,,,ムラショー,0
1188,4260001039553,新規,0,2024-10-16,2024-10-16,ＢＬＣ株式会社,,株式会社,岡山県,倉敷市,中央１丁目６番４号,,33,202,7100046,,,,,,,2024-10-16,1,,,,,ビーエルシー,0
1194,4290001107563,新規,0,2024-10-16,2024-10-16,ＭＦＳｐａｃｅ株式会社,,株式会社,福岡県,福岡市中央区,赤坂１丁目１５番６号５０５号室,,40,133,8100042,,,,,,,2024-10-16,1,,,,,エムエフスペース,0
1195,4290001107571,新規,0,2024-10-16,2024-10-16,ＬＮ　ＧＲＯＵＰ株式会社,,株式会社,福岡県,久留米市,東合川４丁目１２番１９－１０３号,,40,203,8390809,,,,,,,2024-10-16,1,,,,,エルエヌグループ,0
1196,4290001107596,新規,0,2024-10-16,2024-10-16,株式会社大賀ウェルネスサポートクルー,,株式会社,福岡県,福岡市博多区,博多駅前３丁目９番１号大賀博多駅前ビル３階,,40,132,8120011,,,,,,,2024-10-16,1,,,,,オオガウェルネスサポートクルー,0
1197,4290003015921,新規,0,2024-10-16,2024-10-16,合同会社Ｔ＆Ｎリアルエステート,,合同会社,福岡県,福岡市博多区,寿町３丁目３番１０号,,40,132,8120884,,,,,,,2024-10-16,1,,,,,テイアンドエヌリアルエステート,0
1199,4300001013933,新規,0,2024-10-16,2024-10-16,株式会社ピコロキッズ,,株式会社,佐賀県,伊万里市,立花町２２７９番地７,,41,205,8480027,,,,,,,2024-10-16,1,,,,,ピコロキッズ,0
1204,4340001026865,新規,0,2024-10-16,2024-10-16,出水シニアレジデンス株式会社,,株式会社,鹿児島県,出水市,大野原町２１０３番地,,46,208,8990216,,,,,,,2024-10-16,1,,,,,イズミシニアレジデンス,0
1213,4360001034305,新規,0,2024-10-16,2024-10-16,株式会社Ｒ　Ａｉｒ,,株式会社,沖縄県,中頭郡北谷町,北谷１丁目２－４,,47,326,9040116,,,,,,,2024-10-16,1,,,,,アールエアー,0
1214,4360001034313,新規,0,2024-10-16,2024-10-16,株式会社ニライカナイ竜宮,,株式会社,沖縄県,那覇市,字小禄１４８１番地６ピア・アーバン小禄８０２,,47,201,9010152,,,,,,,2024-10-16,1,,,,,ニライカナイリュウグウ,0
1215,4360003014379,新規,0,2024-10-16,2024-10-16,合同会社イルカ不動産,,合同会社,沖縄県,那覇市,久茂地２丁目６－２５ランドマークくもじ８Ｆ,,47,201,9000015,,,,,,,2024-10-16,1,,,,,イルカフドウサン,0
1216,4360003014395,新規,0,2024-10-16,2024-10-16,ゆいまーるＤＥＮＫＩ合同会社,,合同会社,沖縄県,浦添市,安波茶２丁目１０番地１、１０３号,,47,208,9012114,,,,,,,2024-10-16,1,,,,,ユイマールデンキ,0
1221,4370003006771,新規,0,2024-10-16,2024-10-16,合同会社ルーチェ,,合同会社,宮城県,石巻市,門脇字元浦屋敷１５番地１６,,04,202,9860853,,,,,,,2024-10-16,1,,,,,ルーチェ,0
1238,4462505000292,新規,0,2024-10-16,2024-10-16,オーレンス社会保険労務士法人,,その他の設立登記法人,北海道,標津郡中標津町,東四条北１丁目２番地７,,01,692,0861044,,,,,,,2024-10-16,1,,,,,オーレンス,0
1245,4700150127477,新規,0,2024-10-16,2024-10-16,エニット・エッセ・ピー・ア　日本駐在員事務所,,外国会社等,東京都,港区,三田２丁目５－４在日イタリア大使館内,,13,103,1080073,イタリア共和国ラツィオ州ローマ市マルゲーラ通り２,,,,,,2024-10-16,1,,,,,エニツトエツセピーアニホンチユウザイインジムシヨ,0
1254,5010001248764,新規,0,2024-10-16,2024-10-16,株式会社ＮＥＧＵＲＡ,,株式会社,東京都,中央区,銀座４丁目１０－１銀座ＡＺＡビル１０Ｆ,,13,102,1040061,,,,,,,2024-10-16,1,,,,,ネグラ,0
1255,5010001248946,新規,0,2024-10-16,2024-10-16,夢有芽株式会社,,株式会社,東京都,中央区,日本橋本町４丁目９－３本栄ビル６０４号室,,13,102,1030023,,,,,,,2024-10-16,1,,,,,ユメユメ,0
1256,5010001248987,新規,0,2024-10-16,2024-10-16,株式会社Ｇｅｍｓｅｋｉインベストメント,,株式会社,東京都,中央区,明石町８番１号,,13,102,1040044,,,,,,,2024-10-16,1,,,,,ゲンセキインベストメント,0
1264,5010005038955,新規,0,2024-10-16,2024-10-16,一般社団法人動物愛護管理法を遵守し推進する会,,その他の設立登記法人,東京都,中央区,京橋３丁目３番１３号平和ビル３号館３階,,13,102,1040031,,,,,,,2024-10-16,1,,,,,ドウブツアイゴカンリホウヲジュンシュシスイシンスルカイ,0
1265,5010005038963,新規,0,2024-10-16,2024-10-16,一般社団法人ソメイヨシノ,,その他の設立登記法人,東京都,千代田区,霞が関３丁目２番５号,,13,101,1000013,,,,,,,2024-10-16,1,,,,,ソメイヨシノ,0
1266,5010005038971,新規,0,2024-10-16,2024-10-16,一般社団法人ボンドブリッジ５,,その他の設立登記法人,東京都,千代田区,内神田１丁目３番７号４０１あすな会計事務所内,,13,101,1010047,,,,,,,2024-10-16,1,,,,,ボンドブリッジファイブ,0
1268,5010103002433,新規,0,2024-10-16,2024-10-16,合同会社シャイニングエス,,合同会社,東京都,八王子市,元本郷町３丁目１８番７号,,13,201,1920051,,,,,,,2024-10-16,1,,,,,シャイニングエス,0
1276,5010401185491,新規,0,2024-10-16,2024-10-16,株式会社プライムテック,,株式会社,東京都,港区,虎ノ門１丁目１６番６号虎ノ門ＲＡＰＯ－ＴＯビルＵＣＦ７階,,13,103,1050001,,,,,,,2024-10-16,1,,,,,プライムテック,0
1277,5010401185681,新規,0,2024-10-16,2024-10-16,株式会社Ｈｙｇｇｅｌｉｇ,,株式会社,東京都,港区,南青山１丁目３－２４Ｔｏｍ’ｓ南青山４０１,,13,103,1070062,,,,,,,2024-10-16,1,,,,,ヒュッグリー,0
1278,5010401185698,新規,0,2024-10-16,2024-10-16,タイリク株式会社,,株式会社,東京都,港区,三田４丁目１番３２－３０２号,,13,103,1080073,,,,,,,2024-10-16,1,,,,,タイリク,0
1279,5010401185748,新規,0,2024-10-16,2024-10-16,株式会社ＪＰ　ＭＯＭＥＮＴ,,株式会社,東京都,港区,西新橋１丁目１番１号,,13,103,1050003,,,,,,,2024-10-16,1,,,,,ジェイピーモーメント,0
1280,5010401185756,新規,0,2024-10-16,2024-10-16,株式会社ＬＧＭ,,株式会社,東京都,港区,南麻布２丁目１０番２１号１０２,,13,103,1060047,,,,,,,2024-10-16,1,,,,,エルジーエム,0
1281,5010401185772,新規,0,2024-10-16,2024-10-16,株式会社ＶＩＣＯＬＡ,,株式会社,東京都,港区,南青山３丁目４番８号コスモスマーサＢ００１,,13,103,1070062,,,,,,,2024-10-16,1,,,,,ビコラ,0
1284,5010403033590,新規,0,2024-10-16,2024-10-16,合同会社Ｍ．Ｇ．Ｂ．ＣＲＥＡＴＩＯＮ,,合同会社,東京都,港区,六本木４丁目３番１１号六本木ユニハウス２２３,,13,103,1060032,,,,,,,2024-10-16,1,,,,,エムジービークリエイション,0
1286,5010503007593,新規,0,2024-10-16,2024-10-16,ストーク合同会社,,合同会社,東京都,台東区,台東１丁目２４番９号,,13,106,1100016,,,,,,,2024-10-16,1,,,,,ストーク,0
1289,5010601066095,新規,0,2024-10-16,2024-10-16,ＳＳＪ株式会社,,株式会社,東京都,墨田区,墨田５丁目９番５号,,13,107,1310031,,,,,,,2024-10-16,1,,,,,ソシジ,0
1296,5011001165322,新規,0,2024-10-16,2024-10-16,ザ・セロス株式会社,,株式会社,東京都,渋谷区,松濤２丁目７番１２号,,13,113,1500046,,,,,,,2024-10-16,1,,,,,ザセロス,0
1299,5011003020194,新規,0,2024-10-16,2024-10-16,ノマディア・ワールド合同会社,,合同会社,東京都,渋谷区,円山町５番５号Ｎａｖｉ渋谷Ｖ３階,,13,113,1500044,,,,,,,2024-10-16,1,,,,,ノマディアワールド,0
1303,5011103015045,新規,0,2024-10-16,2024-10-16,ＣＢＳ合同会社,,合同会社,東京都,新宿区,西新宿３丁目３番１３号西新宿水間ビル２Ｆ,,13,104,1600023,,,,,,,2024-10-16,1,,,,,シービーエス,0
1305,5011303005317,新規,0,2024-10-16,2024-10-16,ｐｉｃｏ合同会社,,合同会社,東京都,杉並区,阿佐谷北３丁目４１番１３号,,13,115,1660001,,,,,,,2024-10-16,1,,,,,,0
1306,5011601028127,新規,0,2024-10-16,2024-10-16,今日ｔｏｄａｙ株式会社,,株式会社,東京都,練馬区,桜台１丁目７番７－４階,,13,120,1760002,,,,,,,2024-10-16,1,,,,,キョウトゥデイ,0
1310,5011701027730,新規,0,2024-10-16,2024-10-16,ＢＡＲＫＡＴ株式会社,,株式会社,東京都,江戸川区,船堀７丁目５番１４号,,13,123,1340091,,,,,,,2024-10-16,1,,,,,バルカット,0
1312,5011803006500,新規,0,2024-10-16,2024-10-16,合同会社朝日越南ライフ,,合同会社,東京都,足立区,足立１丁目３５－１２,,13,121,1200015,,,,,,,2024-10-16,1,,,,,アサヒエツナンライフ,0
1315,5013301053215,新規,0,2024-10-16,2024-10-16,株式会社ＳＥＲＩパートナーズ,,株式会社,東京都,豊島区,要町３丁目７番１２号,,13,116,1710043,,,,,,,2024-10-16,1,,,,,セリパートナーズ,0
1317,5013305003653,新規,0,2024-10-16,2024-10-16,社会保険労務士法人ＷＩＮ　Ｓｕｐｐｏｒｔ,,その他の設立登記法人,東京都,豊島区,東池袋１丁目３６番７号アルテール池袋９０２号室,,13,116,1700013,,,,,,,2024-10-16,1,,,,,ウィンサポート,0
1325,5020001159589,新規,0,2024-10-16,2024-10-16,株式会社ＤＦ警備,,株式会社,神奈川県,横浜市磯子区,氷取沢町２０４番地７、４棟１０７号,,14,107,2350043,,,,,,,2024-10-16,1,,,,,ディーエフケイビ,0
1326,5020001159597,新規,0,2024-10-16,2024-10-16,株式会社マンタレイズ,,株式会社,神奈川県,横浜市旭区,本宿町７６番地５５,,14,112,2410023,,,,,,,2024-10-16,1,,,,,マンタレイズ,0
1329,5020003027001,新規,0,2024-10-16,2024-10-16,合同会社いやび,,合同会社,神奈川県,川崎市高津区,溝口６丁目６番２６－３０２号,,14,134,2130001,,,,,,,2024-10-16,1,,,,,イヤビ,0
1330,5020003027034,新規,0,2024-10-16,2024-10-16,ナシラ合同会社,,合同会社,神奈川県,川崎市多摩区,菅４丁目１３番３９－４０１号,,14,135,2140001,,,,,,,2024-10-16,1,,,,,ナシラ,0
1331,5020003027042,新規,0,2024-10-16,2024-10-16,合同会社ＳｐｅｅｄｅｘＭｅｄｉａ,,合同会社,神奈川県,横浜市西区,北幸２丁目１０番４８号むつみビル３階,,14,103,2200004,,,,,,,2024-10-16,1,,,,,スピーデックスメディア,0
1332,5020003027075,新規,0,2024-10-16,2024-10-16,アクア合同会社,,合同会社,神奈川県,横浜市磯子区,中浜町１２番５号,,14,107,2350014,,,,,,,2024-10-16,1,,,,,アクア,0
1338,5021001083481,新規,0,2024-10-16,2024-10-16,ＴＥＩＹＯ株式会社,,株式会社,神奈川県,平塚市,ふじみ野１丁目２２―３,,14,203,2591211,,,,,,,2024-10-16,1,,,,,テイヨウ,0
1339,5021001083498,新規,0,2024-10-16,2024-10-16,株式会社ＫＡＭＡＫＵＲＡＳ,,株式会社,神奈川県,鎌倉市,坂ノ下９番９号,,14,204,2480021,,,,,,,2024-10-16,1,,,,,カマクラス,0
1351,5030001163012,新規,0,2024-10-16,2024-10-16,リバイブワーク株式会社,,株式会社,埼玉県,さいたま市浦和区,常盤３丁目１８番２０号常盤コーポラス９０３,,11,107,3300061,,,,,,,2024-10-16,1,,,,,リバイブワーク,0
1357,5040001135803,新規,0,2024-10-16,2024-10-16,株式会社アフターザレイン・フロッグス,,株式会社,千葉県,松戸市,紙敷１丁目１４番地４,,12,207,2702221,,,,,,,2024-10-16,1,,,,,アフターザレインフロッグス,0
1358,5040001135811,新規,0,2024-10-16,2024-10-16,株式会社朝日ドッグワールド,,株式会社,千葉県,八街市,朝日４８１番地１,,12,230,2891101,,,,,,,2024-10-16,1,,,,,ドッグワールド,0
1359,5040001135828,新規,0,2024-10-16,2024-10-16,株式会社フィールドロック,,株式会社,千葉県,千葉市中央区,中央２丁目５番１千葉中央ツインビル２号館７階,,12,101,2600013,,,,,,,2024-10-16,1,,,,,フィールドロック,0
1363,5040003025993,新規,0,2024-10-16,2024-10-16,合同会社慶光,,合同会社,千葉県,千葉市緑区,あすみが丘８丁目３８番地２８,,12,105,2670066,,,,,,,2024-10-16,1,,,,,ケイコウ,0
1366,5050003008725,新規,0,2024-10-16,2024-10-16,合同会社ＨＹ美容サービス,,合同会社,茨城県,つくば市,高見原５丁目２番地９,,08,220,3001252,,,,,,,2024-10-16,1,,,,,エイチワイビヨウサービス,0
1367,5060003005283,新規,0,2024-10-16,2024-10-16,ＰＲＡＫＡＳＨ合同会社,,合同会社,栃木県,宇都宮市,南一の沢町２－２６斉藤ビル１Ｆ,,09,201,3200044,,,,,,,2024-10-16,1,,,,,プラカシュ,0
1371,5070001042278,新規,0,2024-10-16,2024-10-16,株式会社スターフィールド,,株式会社,群馬県,前橋市,馬場町１２１番地８,,10,201,3710242,,,,,,,2024-10-16,1,,,,,スターフィールド,0
1378,5070003005605,新規,0,2024-10-16,2024-10-16,Ｈｕｎｔｅｒｓ　Ｒｅａｌｔｙ　ＬＬＣ合同会社,,合同会社,群馬県,前橋市,上小出町２丁目４３番４号,,10,201,3710037,,,,,,,2024-10-16,1,,,,,ハンターズリアリティエルエルシー,0
1394,5120001269238,新規,0,2024-10-16,2024-10-16,大阪中産ＲＦＩＤ株式会社,,株式会社,大阪府,大阪市東成区,大今里西１丁目２４－２０ライプ今里４０６室,,27,115,5370014,,,,,,,2024-10-16,1,,,,,オオサカチュウサンアールエフアイディー,0
1395,5120001269361,新規,0,2024-10-16,2024-10-16,株式会社サインポスト,,株式会社,大阪府,大阪市北区,芝田２丁目１番地１８号西阪急ビル１Ｆ,,27,127,5300012,,,,,,,2024-10-16,1,,,,,サインポスト,0
1396,5120001269394,新規,0,2024-10-16,2024-10-16,ＫＤ　ｅソリューションズ株式会社,,株式会社,大阪府,大阪市北区,西天満４丁目８番１７号,,27,127,5300047,,,,,,,2024-10-16,1,,,,,ケーディーイーソリューションズ,0
1401,5120003027734,新規,0,2024-10-16,2024-10-16,ＴＨＡＮＧ　ＱＢ合同会社,,合同会社,大阪府,大阪市西成区,千本北２丁目１６番３－２０１号,,27,122,5570053,,,,,,,2024-10-16,1,,,,,タンキュービー,0
1402,5120003027742,新規,0,2024-10-16,2024-10-16,合同会社ｋ．ｏ．ｍ．,,合同会社,大阪府,大阪市都島区,善源寺町２丁目２番７－５４０号,,27,102,5340015,,,,,,,2024-10-16,1,,,,,ケーオーエム,0
1403,5120003027759,新規,0,2024-10-16,2024-10-16,合同会社泰平,,合同会社,大阪府,大阪市生野区,林寺６丁目２番２０号,,27,116,5440023,,,,,,,2024-10-16,1,,,,,タイヘイ,0
1409,5130001078134,新規,0,2024-10-16,2024-10-16,株式会社Ｆｌｙ　Ｈｉｇｈ,,株式会社,京都府,京都市下京区,小稲荷町８５番地２Ｇｒａｎｄ－Ｋ京都駅前ビル２０１,,26,106,6008208,,,,,,,2024-10-16,1,,,,,フライハイ,0
1410,5130001078142,新規,0,2024-10-16,2024-10-16,ユニワン株式会社,,株式会社,京都府,京都市南区,東九条上御霊町１２番地５,,26,107,6018015,,,,,,,2024-10-16,1,,,,,ユニワン,0
1414,5140001135958,新規,0,2024-10-16,2024-10-16,株式会社みかげ,,株式会社,兵庫県,神戸市中央区,中山手通７丁目７－６－３０１,,28,110,6500004,,,,,,,2024-10-16,1,,,,,ミカゲ,0
1415,5140001136080,新規,0,2024-10-16,2024-10-16,久川建装株式会社,,株式会社,兵庫県,尼崎市,大庄西町３丁目１９番１４号,,28,202,6600077,,,,,,,2024-10-16,1,,,,,ヒサカワケンソウ,0
1416,5140001136097,新規,0,2024-10-16,2024-10-16,株式会社Ｍｅｔｒｉｃｓ,,株式会社,兵庫県,神戸市中央区,磯辺通１丁目１番１８号カサベラ国際プラザビル７０７号室,,28,110,6510084,,,,,,,2024-10-16,1,,,,,メトリクス,0
1417,5140001136106,新規,0,2024-10-16,2024-10-16,株式会社Ｂｕｌｌ,,株式会社,兵庫県,神戸市中央区,元町通４丁目１番１３－１１０３号,,28,110,6500022,,,,,,,2024-10-16,1,,,,,ブル,0
1418,5140001136122,新規,0,2024-10-16,2024-10-16,株式会社ジュンコウ技研,,株式会社,兵庫県,神戸市灘区,篠原南町６丁目９番２５号ザ・パークハウス六甲篠原８０３号室,,28,102,6570059,,,,,,,2024-10-16,1,,,,,ジュンコウ,0
1419,5140001136139,新規,0,2024-10-16,2024-10-16,株式会社ＮＩＮＩＧＩ,,株式会社,兵庫県,神戸市中央区,八幡通４丁目２－１２カサベラＦＲＩＩビル１０Ｆ,00136653,28,110,6510085,,,,,,,2024-10-16,1,,,,,ニニギ,0
1422,5140003021198,新規,0,2024-10-16,2024-10-16,英マック合同会社,,合同会社,兵庫県,神戸市長田区,房王寺町６丁目１番１８号グリーンマンション１０１号,,28,106,6530801,,,,,,,2024-10-16,1,,,,,エイマック,0
1423,5140005027219,新規,0,2024-10-16,2024-10-16,光西寺,,その他の設立登記法人,兵庫県,赤穂市,浜市４９７番地,,28,212,6780173,,,,,,,2024-10-16,1,,,,,コウサイジ,0
1426,5170001018342,新規,0,2024-10-16,2024-10-16,株式会社英縁,,株式会社,和歌山県,日高郡美浜町,大字濱ノ瀬２０９番地,,30,381,6440042,,,,,,,2024-10-16,1,,,,,エニシ,0
1434,5180001163435,新規,0,2024-10-16,2024-10-16,藤開発ＨＤ株式会社,,株式会社,愛知県,愛知郡東郷町,大字諸輪字富士塚２２番１０５,,23,302,4700151,,,,,,,2024-10-16,1,,,,,フジカイハツエイチディー,0
1435,5180001163591,新規,0,2024-10-16,2024-10-16,株式会社ＳＮＫホールディングス,,株式会社,愛知県,名古屋市西区,比良２丁目３１３番地,,23,104,4520802,,,,,,,2024-10-16,1,,,,,エスエヌケイホールディングス,0
1438,5180003027472,新規,0,2024-10-16,2024-10-16,Ｏｆｆｉｃｅ　ＴｏＧｏ合同会社,,合同会社,愛知県,長久手市,五合池１１３番地,,23,238,4801156,,,,,,,2024-10-16,1,,,,,オフィストゥーゴー,0
1443,5180301039153,新規,0,2024-10-16,2024-10-16,株式会社Ｒ＆Ｃ,,株式会社,愛知県,刈谷市,小垣江町西高根６０番地４１,,23,210,4480813,,,,,,,2024-10-16,1,,,,,アールアンドシー,0
1445,5190001031723,新規,0,2024-10-16,2024-10-16,億隆株式会社,,株式会社,三重県,松阪市,駅部田町１７０７番地１,,24,204,5150045,,,,,,,2024-10-16,1,,,,,オクリュウ,0
1448,5220001026265,新規,0,2024-10-16,2024-10-16,株式会社アサノ,,株式会社,石川県,金沢市,西念４丁目２３‐２３ライオンズマンション８０１号,,17,201,9200024,,,,,,,2024-10-16,1,,,,,アサノ,0
1453,5250003003565,新規,0,2024-10-16,2024-10-16,４ＣＥ　ｉｓｌｅ　ｍａｒｉｎｅ合同会社,,合同会社,山口県,下関市,幸町２２番１８号,,35,201,7500001,,,,,,,2024-10-16,1,,,,,フォーシーイーアイルマリン,0
1454,5250003003573,新規,0,2024-10-16,2024-10-16,合同会社山口商店,,合同会社,山口県,下関市,安岡町７丁目８番４２－１号,,35,201,7596603,,,,,,,2024-10-16,1,,,,,ヤマグチショウテン,0
1469,5290001107546,新規,0,2024-10-16,2024-10-16,株式会社秋月城下町醸造所,,株式会社,福岡県,朝倉市,秋月５１８番地,,40,228,8380001,,,,,,,2024-10-16,1,,,,,アキヅキジョウカマチジョウゾウショ,0
1470,5290001107562,新規,0,2024-10-16,2024-10-16,株式会社ルナ,,株式会社,福岡県,福岡市早良区,内野６丁目９番１号,,40,137,8111123,,,,,,,2024-10-16,1,,,,,ルナ,0
1471,5290001107579,新規,0,2024-10-16,2024-10-16,株式会社からだドック,,株式会社,福岡県,福岡市中央区,大手門３丁目１４番２７号ラフォーレ大濠パークアベニュー６０４,,40,133,8100074,,,,,,,2024-10-16,1,,,,,,0
1476,5290003015945,新規,0,2024-10-16,2024-10-16,櫻木マネジメント合同会社,,合同会社,福岡県,福岡市早良区,原６丁目１０番１－３０７号ドリームライツ原,,40,137,8140022,,,,,,,2024-10-16,1,,,,,サクラギマネジメント,0
1480,5310001019268,新規,0,2024-10-16,2024-10-16,株式会社Ｆｕｒａｈａ,,株式会社,長崎県,長崎市,古町２９番地シャミール７０１号,,42,201,8500026,,,,,,,2024-10-16,1,,,,,フラハ,0
1483,5330003010603,新規,0,2024-10-16,2024-10-16,合同会社ＳＮＵＧＧＬＥ,,合同会社,熊本県,熊本市南区,江越２丁目１番７号１階,,43,104,8600834,,,,,,,2024-10-16,1,,,,,スナグル,0
1490,5360001034312,新規,0,2024-10-16,2024-10-16,株式会社ｉｓｙ,,株式会社,沖縄県,島尻郡南風原町,字兼城２３７番地－２０２,,47,350,9011111,,,,,,,2024-10-16,1,,,,,アイエスワイ,0
1491,5360001034320,新規,0,2024-10-16,2024-10-16,リュウキュウテック株式会社,,株式会社,沖縄県,沖縄市,園田２丁目１３番１６号金城アパート１０１,,47,211,9040022,,,,,,,2024-10-16,1,,,,,リュウキュウテック,0
1494,5370003006779,新規,0,2024-10-16,2024-10-16,合同会社トラスフィールド,,合同会社,宮城県,仙台市太白区,茂庭字人来田西５３番地の５,,04,104,9820251,,,,,,,2024-10-16,1,,,,,トラスフィールド,0
1496,5380001034839,新規,0,2024-10-16,2024-10-16,エブリーラボ株式会社,,株式会社,福島県,郡山市,字下亀田４番８号サトービル３階,,07,203,9638032,,,,,,,2024-10-16,1,,,,,エブリーラボ,0
1503,5430005015086,新規,0,2024-10-16,2024-10-16,一般社団法人カナーレスポーツクラブ,,その他の設立登記法人,北海道,小樽市,銭函２丁目１番１８号,,01,203,0470261,,,,,,,2024-10-16,1,,,,,カナーレスポーツクラブ,0
1505,5470001020400,新規,0,2024-10-16,2024-10-16,ＩＣＭＴ株式会社,,株式会社,香川県,さぬき市,寒川町神前１６１５番地,,37,206,7692323,,,,,,,2024-10-16,1,,,,,,0
1507,5490003001941,新規,0,2024-10-16,2024-10-16,合同会社ＭＯＮＤＥＮＴＳＵ,,合同会社,高知県,高知市,春野町弘岡中２２５１,,39,201,7810302,,,,,,,2024-10-16,1,,,,,モンデンツウ,0
1522,6010001248994,新規,0,2024-10-16,2024-10-16,株式会社事業家集団,,株式会社,東京都,千代田区,丸の内１丁目８番３号丸の内トラストタワー本館２０階,,13,101,1000005,,,,,,,2024-10-16,1,,,,,ジギョウカシュウダン,0
1530,6010003045184,新規,0,2024-10-16,2024-10-16,合同会社Ｒｏｕｔｅ１,,合同会社,東京都,千代田区,平河町１丁目６番１５号シルスフィア会計事務所内,,13,101,1020093,,,,,,,2024-10-16,1,,,,,ルートワン,0
1534,6010005038970,新規,0,2024-10-16,2024-10-16,一般社団法人ボンドブリッジ４,,その他の設立登記法人,東京都,千代田区,内神田１丁目３番７号４０１あすな会計事務所内,,13,101,1010047,,,,,,,2024-10-16,1,,,,,ボンドブリッジフォー,0
1545,6010401185697,新規,0,2024-10-16,2024-10-16,株式会社ＸＹＺ,,株式会社,東京都,港区,北青山３丁目９－１０北青山ビル２Ｆ,,13,103,1070061,,,,,,,2024-10-16,1,,,,,エックスワイジー,0
1546,6010401185722,新規,0,2024-10-16,2024-10-16,株式会社ＧＡＴＥ,,株式会社,東京都,港区,麻布十番２丁目８番８号,,13,103,1060045,,,,,,,2024-10-16,1,,,,,ゲート,0
1547,6010401185747,新規,0,2024-10-16,2024-10-16,織田株式会社,,株式会社,東京都,港区,赤坂２丁目２１番４号天翔赤坂ＡＮＮＥＸビル４階４０７－Ｆ号室,,13,103,1070052,,,,,,,2024-10-16,1,,,,,オダ,0
1552,6010403033573,新規,0,2024-10-16,2024-10-16,合同会社ソルブライト,,合同会社,東京都,港区,麻布狸穴町５１－１－６０１,,13,103,1060042,,,,,,,2024-10-16,1,,,,,ソルブライト,0
1553,6010403033615,新規,0,2024-10-16,2024-10-16,ＦＹ　Ｅｎｅｒｇｙ合同会社,,合同会社,東京都,港区,赤坂１丁目１２番３２号アーク森ビル・センクサスグループ内,,13,103,1070052,,,,,,,2024-10-16,1,,,,,エフワイエナジー,0
1561,6010601066086,新規,0,2024-10-16,2024-10-16,株式会社アセットビルダー,,株式会社,東京都,江東区,牡丹２丁目１０番１号リヴェール河庄４０２,,13,108,1350046,,,,,,,2024-10-16,1,,,,,アセットビルダー,0
1565,6010701046673,新規,0,2024-10-16,2024-10-16,株式会社５Ｒｉｂｂｏｎ,,株式会社,東京都,品川区,旗の台４丁目９番８号,,13,109,1420064,,,,,,,2024-10-16,1,,,,,ファイブリボン,0
1567,6010803005131,新規,0,2024-10-16,2024-10-16,合同会社トート,,合同会社,東京都,大田区,北千束１丁目３７番２号松元ビル３階,,13,111,1450062,,,,,,,2024-10-16,1,,,,,トート,0
1570,6010901056126,新規,0,2024-10-16,2024-10-16,株式会社スタークレイ,,株式会社,東京都,世田谷区,代沢４丁目３４番１２－３０４号,,13,112,1550032,,,,,,,2024-10-16,1,,,,,スタークレイ,0
1579,6011001165081,新規,0,2024-10-16,2024-10-16,株式会社ＫＨＭ,,株式会社,東京都,渋谷区,本町１丁目４番１０号ＳＨＯＷＮＨＡＴＳＵＤＡＩＩＩ７０２,00136639,13,113,1510071,,,,,,,2024-10-16,1,,,,,ケイエイチエム,0
1583,6011005010713,新規,0,2024-10-16,2024-10-16,一般社団法人エロイカジャパン,,その他の設立登記法人,東京都,目黒区,五本木２丁目１４番１０号,,13,110,1530053,,,,,,,2024-10-16,1,,,,,エロイカジャパン,0
1590,6011101109112,新規,0,2024-10-16,2024-10-16,株式会社ファーマケアジャパン,,株式会社,東京都,新宿区,新宿７丁目２６番３６号,,13,104,1600022,,,,,,,2024-10-16,1,,,,,ファーマケアジャパン,0
1591,6011101109137,新規,0,2024-10-16,2024-10-16,株式会社マルニイゲタ,,株式会社,東京都,新宿区,市谷田町２丁目３５番地１,,13,104,1620843,,,,,,,2024-10-16,1,,,,,マルニイゲタ,0
1592,6011201025861,新規,0,2024-10-16,2024-10-16,株式会社ＰＡＫＡＲＡ,,株式会社,東京都,中野区,新井２丁目３０番４号ＩＦＯビル８Ａ,,13,114,1650026,,,,,,,2024-10-16,1,,,,,パカラ,0
1593,6011203004500,新規,0,2024-10-16,2024-10-16,合同会社ＲＵＮ,,合同会社,東京都,中野区,弥生町２丁目４９番５号,,13,114,1640013,,,,,,,2024-10-16,1,,,,,ラン,0
1595,6011301030084,新規,0,2024-10-16,2024-10-16,株式会社ブリスト,,株式会社,東京都,杉並区,高円寺南２丁目４４番６号,,13,115,1660003,,,,,,,2024-10-16,1,,,,,ブリスト,0
1601,6011501031270,新規,0,2024-10-16,2024-10-16,カレントスコープ株式会社,,株式会社,東京都,北区,田端１丁目１８番６号,,13,117,1140014,,,,,,,2024-10-16,1,,,,,カレントスコープ,0
1604,6011703004000,新規,0,2024-10-16,2024-10-16,Ｇｏｌｄ　Ｍｏｕｎｔａｉｎ合同会社,,合同会社,東京都,江戸川区,南葛西６丁目１３－１２第三パークメゾン２０３号室,,13,123,1340085,,,,,,,2024-10-16,1,,,,,ゴールドマウンテン,0
1606,6011801044996,新規,0,2024-10-16,2024-10-16,株式会社コネクト高橋,00136652,株式会社,東京都,足立区,東和３丁目３番２２―３０１号,,13,121,1200003,,,,,,,2024-10-16,1,,,,,コネクトタカハシ,0
1608,6012301014119,新規,0,2024-10-16,2024-10-16,株式会社テック,,株式会社,東京都,町田市,本町田１５４４番地２８,,13,209,1940032,,,,,,,2024-10-16,1,,,,,テック,0
1614,6012401042382,新規,0,2024-10-16,2024-10-16,株式会社ＢＩＭ,,株式会社,東京都,三鷹市,野崎１丁目１３番１６号リラフォート２０１,,13,204,1810014,,,,,,,2024-10-16,1,,,,,ビム,0
1617,6013301053206,新規,0,2024-10-16,2024-10-16,Ｋｎｏｗｌｅｄｇｅ　Ｂｏｏｔｈ　Ｃｏｎｓｕｌｔｉｎｇ株式会社Ｍ,,株式会社,東京都,豊島区,東池袋４丁目２番１号,,13,116,1700013,,,,,,,2024-10-16,1,,,,,ナレッジブースコンサルティングエム,0
1619,6013305003652,新規,0,2024-10-16,2024-10-16,一般社団法人日本家計インテリジェンス推進協会,,その他の設立登記法人,東京都,豊島区,高田１丁目３８番１２－３０３号,,13,116,1710033,,,,,,,2024-10-16,1,,,,,ニホンカケイインテリジェンススイシンキョウカイ,0
1627,6020001159547,新規,0,2024-10-16,2024-10-16,株式会社アウルクリエイト,,株式会社,神奈川県,横浜市西区,北幸１丁目１１番１号水信ビル７階,,14,103,2200004,,,,,,,2024-10-16,1,,,,,アウルクリエイト,0
1628,6020001159588,新規,0,2024-10-16,2024-10-16,中山ブロック株式会社,,株式会社,神奈川県,横浜市都筑区,池辺町４３６４番地,,14,118,2240053,,,,,,,2024-10-16,1,,,,,ナカヤマブロック,0
1629,6020001159605,新規,0,2024-10-16,2024-10-16,株式会社ＵＰＬＩＦＴＥＲ,,株式会社,神奈川県,川崎市高津区,子母口４２４番地１０,,14,134,2130023,,,,,,,2024-10-16,1,,,,,アップリフター,0
1633,6020003027041,新規,0,2024-10-16,2024-10-16,合同会社富士ネクスト,,合同会社,神奈川県,川崎市高津区,久本３丁目１４番１－６０２号ザ・タワー＆パークス田園都市溝口,,14,134,2130011,,,,,,,2024-10-16,1,,,,,フジネクスト,0
1647,6030001163003,新規,0,2024-10-16,2024-10-16,株式会社リンクリッチ,,株式会社,埼玉県,さいたま市大宮区,宮町２丁目９３－２ＢＩＺｃｏｍｆｏｒｔ大宮東口４Ｆ－３２号,,11,103,3300802,,,,,,,2024-10-16,1,,,,,リンクリッチ,0
1648,6030001163011,新規,0,2024-10-16,2024-10-16,すがお株式会社,,株式会社,埼玉県,鶴ヶ島市,大字藤金１１６番地９３,,11,241,3502206,,,,,,,2024-10-16,1,,,,,スガオ,0
1649,6030001163044,新規,0,2024-10-16,2024-10-16,ジャンＳＴＡＲ株式会社,,株式会社,埼玉県,北葛飾郡松伏町,大字大川戸１８０３番地１,,11,465,3430106,,,,,,,2024-10-16,1,,,,,ジャンスター,0
1653,6030003025325,新規,0,2024-10-16,2024-10-16,合同会社ｈｏｌｌ,,合同会社,埼玉県,草加市,小山２丁目１番３２－１０１号,,11,221,3400045,,,,,,,2024-10-16,1,,,,,ホール,0
1664,6040001135802,新規,0,2024-10-16,2024-10-16,株式会社ＫＡＮＫＩ,,株式会社,千葉県,船橋市,高瀬町６２－２,,12,204,2730014,,,,,,,2024-10-16,1,,,,,カンキ,0
1666,6040002052014,新規,0,2024-10-16,2024-10-16,有限会社中野屋豆腐店,,有限会社,千葉県,流山市,加６丁目１３２５番地,,12,220,2700176,,,,,,,2024-10-16,1,,,,,ナカノヤトウフテン,0
1669,6040003025992,新規,0,2024-10-16,2024-10-16,合同会社エス＆パートナーズ,,合同会社,千葉県,佐倉市,宮小路町４番地１６,,12,212,2850016,,,,,,,2024-10-16,1,,,,,エスアンドパートナーズ,0
1670,6040005022550,新規,0,2024-10-16,2024-10-16,一般社団法人想いと絆の恵み総合研究協会,,その他の設立登記法人,千葉県,柏市,若柴２２６番地４４中央１４１街区１ＫＯＩＬＴＥＲＲＡＣＥ６Ｆ,,12,217,2770871,,,,,,,2024-10-16,1,,,,,オモイトキズナノメグミソウゴウケンキュウキョウカイ,0
1674,6050003008740,新規,0,2024-10-16,2024-10-16,ＪＰ　ＴＲＡＤＩＮＧ合同会社,,合同会社,茨城県,結城市,大字結城字四ツ京１１５９０番９,,08,207,3070001,,,,,,,2024-10-16,1,,,,,ジェーピートレーディング,0
1677,6060001037583,新規,0,2024-10-16,2024-10-16,株式会社日本水道センター埼玉北,,株式会社,栃木県,鹿沼市,茂呂１９８番地１３,,09,205,3220026,,,,,,,2024-10-16,1,,,,,ニホンスイドウセンターサイタマキタ,0
1679,6070001042269,新規,0,2024-10-16,2024-10-16,田中興業株式会社,,株式会社,群馬県,高崎市,乗附町１５６５－６,,10,202,3700867,,,,,,,2024-10-16,1,,,,,タナカコウギョウ,0
1683,6070003005612,新規,0,2024-10-16,2024-10-16,テリオス・ラボ合同会社,,合同会社,群馬県,前橋市,前箱田町４１６番地５,,10,201,3710835,,,,,,,2024-10-16,1,,,,,テリオスラボ,0
1690,6110001038766,新規,0,2024-10-16,2024-10-16,株式会社ＫＯＴＯＢＵＫＩ,,株式会社,新潟県,新潟市秋葉区,新津東町１丁目３番２３号,,15,105,9560816,,,,,,,2024-10-16,1,,,,,コトブキ,0
1691,6110001038774,新規,0,2024-10-16,2024-10-16,株式会社Ａｓｓｅｔ　ＭＡＫＩ,,株式会社,新潟県,長岡市,飯塚２９５８番地,,15,202,9495414,,,,,,,2024-10-16,1,,,,,アセットマキ,0
1695,6110003005541,新規,0,2024-10-16,2024-10-16,ＭＩＫＩＭＩＫＩ合同会社,,合同会社,新潟県,新潟市江南区,荻曽根２丁目３－２１,,15,104,9500154,,,,,,,2024-10-16,1,,,,,ミキミキ,0
1704,6120001269220,新規,0,2024-10-16,2024-10-16,松尾株式会社,,株式会社,大阪府,大阪市天王寺区,東上町８番２６号,,27,109,5430026,,,,,,,2024-10-16,1,,,,,マツオ,0
1705,6120001269369,新規,0,2024-10-16,2024-10-16,株式会社ＨＹＬＥＮ　Ａｒｃｈｉｔｅｃｔｓ,,株式会社,大阪府,大阪市淀川区,西宮原１丁目５－３３新大阪飯田ビル１Ｆ,,27,123,5320004,,,,,,,2024-10-16,1,,,,,ヒュレンアーキテクツ,0
1706,6120001269377,新規,0,2024-10-16,2024-10-16,龍祥株式会社,,株式会社,大阪府,大阪市住之江区,粉浜西２丁目７番１７－４０２号室,,27,125,5590007,,,,,,,2024-10-16,1,,,,,リュウショウ,0
1718,6122003003020,新規,0,2024-10-16,2024-10-16,合同会社ＰＭＭ,,合同会社,大阪府,八尾市,弓削町３丁目８１番地の２レフア弓削２１３号,,27,212,5810032,,,,,,,2024-10-16,1,,,,,ピーエムエム,0
1721,6130001078109,新規,0,2024-10-16,2024-10-16,ＳｌｉｎｇｓｔｏｎｅＢｉｏ株式会社,,株式会社,京都府,京都市左京区,下鴨宮崎町１１９番地１ＳｈａｒｅＬａｂＥＶＥＲＳＨＩＭＯＧＡＭＯ,,26,103,6060802,,,,,,,2024-10-16,1,,,,,スリングストーンバイオ,0
1726,6140001136113,新規,0,2024-10-16,2024-10-16,株式会社エコリンググロース,,株式会社,兵庫県,姫路市,飾磨区恵美酒２１３番地,,28,201,6728057,,,,,,,2024-10-16,1,,,,,,0
1729,6140003021189,新規,0,2024-10-16,2024-10-16,八方旅行合同会社,,合同会社,兵庫県,西宮市,仁川町４丁目５番１０号,,28,204,6620811,,,,,,,2024-10-16,1,,,,,ハッポウリョコウ,0
1736,6150003003392,新規,0,2024-10-16,2024-10-16,合同会社只者,,合同会社,奈良県,生駒市,松美台４４－５３,,29,209,6300241,,,,,,,2024-10-16,1,,,,,タダモノ,0
1737,6150005009628,新規,0,2024-10-16,2024-10-16,一般社団法人ＩＤＳ,,その他の設立登記法人,奈良県,生駒市,辻町８８３－１０４,00136642,29,209,6300212,,,,,,,2024-10-16,1,,,,,アイディーエス,0
1739,6160001026279,新規,0,2024-10-16,2024-10-16,株式会社ｔｏｐ　ｎｅｘｔ,,株式会社,滋賀県,長浜市,高月町東高田１３３番地２,,25,203,5290202,,,,,,,2024-10-16,1,,,,,トップネクスト,0
1740,6170001018341,新規,0,2024-10-16,2024-10-16,株式会社中林肥料農薬,,株式会社,和歌山県,紀の川市,桃山町元３９９,,30,208,6496122,,,,,,,2024-10-16,1,,,,,ナカバヤシヒリョウノウヤク,0
1746,6180001163649,新規,0,2024-10-16,2024-10-16,ウィッズ株式会社,,株式会社,愛知県,知多郡東浦町,大字森岡字下申間１７番地の４,,23,442,4702101,,,,,,,2024-10-16,1,,,,,ウィッズ,0
1747,6180001163715,新規,0,2024-10-16,2024-10-16,株式会社Ｓｔｅｌｌａ　ｅｎｔｅｒｔａｉｎｍｅｎｔ,,株式会社,愛知県,名古屋市中区,栄１丁目１６番１６号１１０５号室,,23,106,4600008,,,,,,,2024-10-16,1,,,,,ステラエンターテイメント,0
1756,6190001031714,新規,0,2024-10-16,2024-10-16,株式会社ＰＡＲＣ,,株式会社,三重県,度会郡南伊勢町,慥柄浦６３７番地,,24,472,5161306,,,,,,,2024-10-16,1,,,,,パーク,0
1757,6190001031722,新規,0,2024-10-16,2024-10-16,株式会社橋本モータース,,株式会社,三重県,四日市市,日永３丁目２番２８号,,24,202,5100885,,,,,,,2024-10-16,1,,,,,ハシモトモータース,0
1760,6210001019946,新規,0,2024-10-16,2024-10-16,クロスアイウェア株式会社,,株式会社,福井県,福井市,城東４丁目１１番１５号,,18,201,9100853,,,,,,,2024-10-16,1,,,,,クロスアイウェア,0
1761,6220005008894,新規,0,2024-10-16,2024-10-16,一般社団法人恵和会,,その他の設立登記法人,石川県,金沢市,泉本町５丁目６１番地,,17,201,9218042,,,,,,,2024-10-16,1,,,,,ケイワカイ,0
1762,6240001063933,新規,0,2024-10-16,2024-10-16,株式会社ＳＵＮ・ＬＡＮＤ,,株式会社,広島県,三次市,十日市中１丁目６番８号参番館フジイ２０４,,34,209,7280012,,,,,,,2024-10-16,1,,,,,サンランド,0
1764,6250001020842,新規,0,2024-10-16,2024-10-16,ＥＮＩＳＨＩ株式会社,,株式会社,山口県,周南市,大字栗屋６１１番地の３,,35,215,7450802,,,,,,,2024-10-16,1,,,,,エニシ,0
1765,6260001039551,新規,0,2024-10-16,2024-10-16,株式会社つばき,,株式会社,岡山県,倉敷市,南畝３丁目１４番１０号,,33,202,7128055,,,,,,,2024-10-16,1,,,,,ツバキ,0
1771,6290001107586,新規,0,2024-10-16,2024-10-16,ＬＩＬＹ株式会社,,株式会社,福岡県,福岡市中央区,春吉２丁目２－１０,,40,133,8100003,,,,,,,2024-10-16,1,,,,,リリー,0
1775,6290003015911,新規,0,2024-10-16,2024-10-16,合同会社ＷｈｉｔｅＲｉｖｅｒ,,合同会社,福岡県,福岡市中央区,港２丁目１６番１１号,,40,133,8100075,,,,,,,2024-10-16,1,,,,,ホワイトリバー,0
1776,6290003015944,新規,0,2024-10-16,2024-10-16,合同会社なないろ,,合同会社,福岡県,大牟田市,大字吉野４９１番地１,,40,202,8370904,,,,,,,2024-10-16,1,,,,,ナナイロ,0
1777,6290005019539,新規,0,2024-10-16,2024-10-16,社会保険労務士法人志垣社労士オフィス,,その他の設立登記法人,福岡県,那珂川市,中原３丁目１０１番地グリュックスクレー１００１号,,40,231,8111213,,,,,,,2024-10-16,1,,,,,シガキシャロウシオフィス,0
1778,6330003010602,新規,0,2024-10-16,2024-10-16,合同会社磯部塗装,,合同会社,熊本県,八代市,永碇町７１０番地,,43,202,8660885,,,,,,,2024-10-16,1,,,,,イソベトソウ,0
1782,6340001026847,新規,0,2024-10-16,2024-10-16,農地所有適格法人株式会社Ｐ＆Ｙ’ｓ　Ｌａｂｏ,,株式会社,鹿児島県,肝属郡肝付町,新富８５８番地２,,46,492,8931207,,,,,,,2024-10-16,1,,,,,ノウチショユウテキカクホウジンピアンドワイズラボ,0
1790,6360003014369,新規,0,2024-10-16,2024-10-16,合同会社ＦＢＨ,,合同会社,沖縄県,宜野湾市,大山１丁目６－５アパラＲＹＵＶＩ１０１,,47,205,9012223,,,,,,,2024-10-16,1,,,,,エフビーエイチ,0
1792,6370001051818,新規,0,2024-10-16,2024-10-16,株式会社ＳＯＲＡ．ＷＯＲＫＳ,,株式会社,宮城県,仙台市宮城野区,榴岡４丁目６番２３号今野ビル２Ｆ,,04,102,9830852,,,,,,,2024-10-16,1,,,,,ソラワークス,0
1798,6380005012880,新規,0,2024-10-16,2024-10-16,ふくしまライス事業協同組合,,その他の設立登記法人,福島県,石川郡石川町,大字赤羽字長原１番地１１６,,07,501,9637826,,,,,,,2024-10-16,1,,,,,フクシマライス,0
1804,6430001092871,新規,0,2024-10-16,2024-10-16,ＡＣＲＯ　ＳＴＡＲ株式会社,,株式会社,北海道,苫小牧市,末広町３丁目６番１５号大東末広ビル６階Ｂ号室,,01,213,0530011,,,,,,,2024-10-16,1,,,,,アクロスター,0
1806,6430003016878,新規,0,2024-10-16,2024-10-16,合同会社Ｆｏｕｒ　Ｓｅａｓｏｎｓ,,合同会社,北海道,札幌市北区,新琴似三条２丁目１３番２１号,,01,102,0010903,,,,,,,2024-10-16,1,,,,,フォーシーズンズ,0
1807,6430003016886,新規,0,2024-10-16,2024-10-16,Ｓｐｒｉｎｇ合同会社,,合同会社,北海道,札幌市中央区,南十五条西９丁目２番４０号,,01,101,0640915,,,,,,,2024-10-16,1,,,,,スプリング,0
1813,6500001025931,新規,0,2024-10-16,2024-10-16,株式会社環宇産業,,株式会社,愛媛県,松山市,八反地甲１９１５番地１,,38,201,7992424,,,,,,,2024-10-16,1,,,,,カンウサンギョウ,0
1822,7010001248977,新規,0,2024-10-16,2024-10-16,ＲＥＸ　ＢＲＡＮＤ株式会社,,株式会社,東京都,中央区,銀座６丁目１３番１６号銀座ＷａｌｌビルＵＣＦ５階,,13,102,1040061,,,,,,,2024-10-16,1,,,,,レクスブランド,0
1823,7010001249067,新規,0,2024-10-16,2024-10-16,株式会社Ｂｌｏｏｍｉｎｇ　Ｈｏｒｓｅ　Ｃｌｕｂ,,株式会社,東京都,中央区,日本橋箱崎町３６番２号,,13,102,1030015,,,,,,,2024-10-16,1,,,,,ブルーミングホースクラブ,0
1824,7010001249100,新規,0,2024-10-16,2024-10-16,株式会社日本サーチファンド,,株式会社,東京都,千代田区,丸の内１丁目８番２号,,13,101,1000005,,,,,,,2024-10-16,1,,,,,ニホンサーチファンド,0
1825,7010001249141,新規,0,2024-10-16,2024-10-16,株式会社ＧｒａＳｏｒｒｉｓｏ,,株式会社,東京都,千代田区,内神田２丁目１４－１３,,13,101,1010047,,,,,,,2024-10-16,1,,,,,グラソリーゾ,0
1833,7010003045084,新規,0,2024-10-16,2024-10-16,合同会社ライフマネジメントカンパニー,,合同会社,東京都,中央区,銀座１丁目２２番１１号銀座大竹ビジデンス２Ｆ,,13,102,1040061,,,,,,,2024-10-16,1,,,,,ライフマネジメントカンパニー,0
1834,7010003045183,新規,0,2024-10-16,2024-10-16,ティー・エル・ジェイ・心斎橋・エムエル合同会社,,合同会社,東京都,千代田区,丸の内１丁目４番１号東京共同会計事務所内,,13,101,1000005,,,,,,,2024-10-16,1,,,,,ティーエルジェイシンサイバシエムエル,0
1844,7010401185713,新規,0,2024-10-16,2024-10-16,ＥＨＭプロパティーズ株式会社,,株式会社,東京都,港区,虎ノ門１丁目１番２１号新虎ノ門実業会館５階,,13,103,1050001,,,,,,,2024-10-16,1,,,,,イーエッチエムプロパティーズ,0
1845,7010401185820,新規,0,2024-10-16,2024-10-16,ｇｆ．Ｗ株式会社,,株式会社,東京都,港区,高輪３丁目１２番８号,,13,103,1080074,,,,,,,2024-10-16,1,,,,,ジーエフドットダブリュー,0
1848,7010403033589,新規,0,2024-10-16,2024-10-16,合同会社ダイナスタッツ,,合同会社,東京都,港区,浜松町１丁目３０番５号,,13,103,1050013,,,,,,,2024-10-16,1,,,,,ダイナスタッツ,0
1849,7010403033606,新規,0,2024-10-16,2024-10-16,ＩＳＡ　Ｔｏｋｙｏ合同会社,,合同会社,東京都,港区,芝大門２丁目４番８号メビウスビル４階,,13,103,1050012,,,,,,,2024-10-16,1,,,,,アイエスエートウキョウ,0
1858,7010801035468,新規,0,2024-10-16,2024-10-16,株式会社Ｒｉｔａ　Ｆｏｒ　Ａｌｌ,,株式会社,東京都,大田区,大森西１丁目３番７号,,13,111,1430015,,,,,,,2024-10-16,1,,,,,リタフォーオール,0
1861,7010901056125,新規,0,2024-10-16,2024-10-16,株式会社ＳＡＴＯＲＩ,,株式会社,東京都,世田谷区,太子堂１丁目８－１４－１０１,,13,112,1540004,,,,,,,2024-10-16,1,,,,,サトリ,0
1866,7011001165147,新規,0,2024-10-16,2024-10-16,株式会社ＮｅｘｕｓＡｄｖｉｓｏｒｓ,,株式会社,東京都,渋谷区,恵比寿西２丁目８番４号ＥＸ恵比寿西ビル５階,,13,113,1500021,,,,,,,2024-10-16,1,,,,,ネクサスアドバイザーズ,0
1867,7011001165196,新規,0,2024-10-16,2024-10-16,株式会社ＦＩＴ　ｔｈｅ　Ｌｏｃａｌ,,株式会社,東京都,渋谷区,道玄坂１丁目１０番８号渋谷道玄坂東急ビル２Ｆ－Ｃ,,13,113,1500043,,,,,,,2024-10-16,1,,,,,,0
1868,7011001165320,新規,0,2024-10-16,2024-10-16,ＧｅｅＴｅｃｈ株式会社,,株式会社,東京都,渋谷区,神宮前６丁目２３番４号桑野ビル２階,,13,113,1500001,,,,,,,2024-10-16,1,,,,,ギーテック,0
1875,7011301030075,新規,0,2024-10-16,2024-10-16,株式会社Ｍａｋｅ　Ｍｅ　Ｃａｒｅ,,株式会社,東京都,杉並区,和泉４丁目１８番１０号,,13,115,1680063,,,,,,,2024-10-16,1,,,,,メイクミーケア,0
1879,7011403004530,新規,0,2024-10-16,2024-10-16,合同会社リネクサス,,合同会社,東京都,板橋区,南町３６－８,,13,119,1730027,,,,,,,2024-10-16,1,,,,,リネクサス,0
1881,7011501031261,新規,0,2024-10-16,2024-10-16,日昇株式会社,,株式会社,東京都,北区,王子本町１丁目２２番１号ＫＳＧビル１０１,,13,117,1140022,,,,,,,2024-10-16,1,,,,,ニッショウ,0
1882,7011601028125,新規,0,2024-10-16,2024-10-16,株式会社リーエスト,,株式会社,東京都,練馬区,石神井町２丁目１５番１２－２０７号,,13,120,1770041,,,,,,,2024-10-16,1,,,,,リーエスト,0
1892,7012401042373,新規,0,2024-10-16,2024-10-16,株式会社Ｕｌｉｕｌｉ,,株式会社,東京都,多摩市,乞田１１５６番地１フラワーマンションコヤタ２０３,,13,224,2060014,,,,,,,2024-10-16,1,,,,,ウリウリ,0
1894,7012803003527,新規,0,2024-10-16,2024-10-16,田部井ワークス合同会社,,合同会社,東京都,東大和市,新堀１丁目１４２１番地５０号,,13,220,2070012,,,,,,,2024-10-16,1,,,,,タベイワークス,0
1904,7020001159604,新規,0,2024-10-16,2024-10-16,株式会社ＨＴシステムズ,,株式会社,神奈川県,横浜市神奈川区,金港町５－１４クアドリフォリオ８階,,14,102,2210056,,,,,,,2024-10-16,1,,,,,エイチティシステムズ,0
1907,7020003026991,新規,0,2024-10-16,2024-10-16,合同会社わくもん,,合同会社,神奈川県,横浜市都筑区,新栄町１５－１－１２１,,14,118,2240035,,,,,,,2024-10-16,1,,,,,ワクモン,0
1908,7020003027057,新規,0,2024-10-16,2024-10-16,合同会社パーク・プロジェクト・プランニング,,合同会社,神奈川県,横浜市中区,桜木町１丁目１０１番地１クロスゲート７階,,14,104,2310062,,,,,,,2024-10-16,1,,,,,パークプロジェクトプランニング,0
1916,7021001083488,新規,0,2024-10-16,2024-10-16,プロティアンワークス株式会社,,株式会社,神奈川県,横須賀市,小矢部３丁目６番１８号,,14,201,2380026,,,,,,,2024-10-16,1,,,,,プロティアンワークス,0
1917,7021001083496,新規,0,2024-10-16,2024-10-16,Ｆｉｖｅ・Ｅｓ株式会社,,株式会社,神奈川県,茅ヶ崎市,赤羽根１４７８番地３,,14,207,2530001,,,,,,,2024-10-16,1,,,,,ファイブエス,0
1922,7030001163027,新規,0,2024-10-16,2024-10-16,株式会社アライぐま,,株式会社,埼玉県,羽生市,南６丁目１４番地８,,11,216,3480053,,,,,,,2024-10-16,1,,,,,アライグマ,0
1928,7040001135495,新規,0,2024-10-16,2024-10-16,株式会社ＡＬＢＡＲＩＳＥ,,株式会社,千葉県,柏市,布施９１８－１ブルックパレス２０３,,12,217,2770825,,,,,,,2024-10-16,1,,,,,アルバライズ,0
1929,7040001135818,新規,0,2024-10-16,2024-10-16,株式会社Ｈ＆Ｔ,,株式会社,千葉県,千葉市美浜区,新港１１７番地,,12,106,2610002,,,,,,,2024-10-16,1,,,,,エイチアンドティー,0
1930,7040001135834,新規,0,2024-10-16,2024-10-16,ハーベスト２８株式会社,,株式会社,千葉県,船橋市,習志野台４丁目６９番１４号,,12,204,2740063,,,,,,,2024-10-16,1,,,,,ハーベストニジュウハチ,0
1931,7040001135850,新規,0,2024-10-16,2024-10-16,株式会社Ｊａｐａｎｅｓｅ　Ｆｒｅｓｈ　Ｆｏｏｄｓ,,株式会社,千葉県,野田市,山崎２２５５番地,,12,208,2780022,,,,,,,2024-10-16,1,,,,,ジャパニーズフレッシュフーズ,0
1936,7050001055544,新規,0,2024-10-16,2024-10-16,杉昌建設株式会社,,株式会社,茨城県,つくば市,東光台３丁目１８番地９つくばＢＡＳＥ－Ｄ,,08,220,3002635,,,,,,,2024-10-16,1,,,,,スギマサケンセツ,0
1940,7060001037582,新規,0,2024-10-16,2024-10-16,株式会社元気あっぷ,,株式会社,栃木県,塩谷郡高根沢町,大字上柏崎５８８番地１,,09,386,3291212,,,,,,,2024-10-16,1,,,,,ゲンキアップ,0
1942,7070001042268,新規,0,2024-10-16,2024-10-16,株式会社はるな,,株式会社,群馬県,前橋市,下小出町１丁目３１番地１２,,10,201,3710031,,,,,,,2024-10-16,1,,,,,ハルナ,0
1944,7070005010320,新規,0,2024-10-16,2024-10-16,税理士法人アイエムオー,,その他の設立登記法人,群馬県,吾妻郡中之条町,大字折田６８０番地,,10,421,3770433,,,,,,,2024-10-16,1,,,,,アイエムオー,0
1947,7080401027512,新規,0,2024-10-16,2024-10-16,蘭伊株式会社,,株式会社,静岡県,浜松市中央区,大平台４丁目１－１４ソレイユ佐鳴湖１Ｆ,,22,138,4328068,,,,,,,2024-10-16,1,,,,,ランイ,0
1949,7110001038773,新規,0,2024-10-16,2024-10-16,株式会社エムエフポラリス,,株式会社,新潟県,新潟市中央区,愛宕１丁目４番地１５,,15,103,9500944,,,,,,,2024-10-16,1,,,,,エムエフポラリス,0
1964,7120001269351,新規,0,2024-10-16,2024-10-16,エルリープ株式会社,,株式会社,大阪府,大阪市城東区,鴫野西５丁目１５番７号３１７号室,,27,118,5360014,,,,,,,2024-10-16,1,,,,,エルリープ,0
1965,7120001269376,新規,0,2024-10-16,2024-10-16,株式会社ｃｏｎｏｎ．ａｎｄ,,株式会社,大阪府,大阪市阿倍野区,松崎町２丁目４番２１号幸梅ハイツ１０１,,27,119,5450053,,,,,,,2024-10-16,1,,,,,コノンアンド,0
1980,7120903005382,新規,0,2024-10-16,2024-10-16,合同会社Ｓｎｏｗｙ　Ｇｒａｃｅ,,合同会社,大阪府,茨木市,井口台３番２８号,,27,211,5670076,,,,,,,2024-10-16,1,,,,,スノウィーグレイス,0
1984,7130001078132,新規,0,2024-10-16,2024-10-16,株式会社アクト,,株式会社,京都府,長岡京市,開田４丁目１３番２号,,26,209,6170826,,,,,,,2024-10-16,1,,,,,アクト,0
1985,7130001078149,新規,0,2024-10-16,2024-10-16,株式会社コネクト２,,株式会社,京都府,京都市左京区,岩倉幡枝町７８５番地２０,,26,103,6060015,,,,,,,2024-10-16,1,,,,,コネクトツー,0
1986,7130003009928,新規,0,2024-10-16,2024-10-16,合同会社整体ユニオン,,合同会社,京都府,京都市東山区,祇園町北側２８１－１－１祇園ファーストビル１階Ｃ－１０１－Ｂ,,26,105,6050073,,,,,,,2024-10-16,1,,,,,セイタイユニオン,0
1990,7140001136062,新規,0,2024-10-16,2024-10-16,サイコビット株式会社,,株式会社,兵庫県,神戸市中央区,磯辺通１丁目１番１８号カサベラ国際プラザビル７０７号室,,28,110,6510084,,,,,,,2024-10-16,1,,,,,サイコビット,0
1991,7140001136095,新規,0,2024-10-16,2024-10-16,株式会社葡萄建築,,株式会社,兵庫県,神戸市中央区,山本通３丁目７－２,,28,110,6500003,,,,,,,2024-10-16,1,,,,,カブブドウケンチク,0
1992,7140001136120,新規,0,2024-10-16,2024-10-16,株式会社水吉,,株式会社,兵庫県,伊丹市,昆陽南１丁目２番３８号４号室,,28,207,6640888,,,,,,,2024-10-16,1,,,,,ミズキチ,0
1993,7140001136137,新規,0,2024-10-16,2024-10-16,株式会社グロワール,,株式会社,兵庫県,西宮市,名塩２丁目７番２５号,,28,204,6691147,,,,,,,2024-10-16,1,,,,,グロワール,0
1997,7160001026286,新規,0,2024-10-16,2024-10-16,株式会社ＬＯＭＩＥＲＥ,,株式会社,滋賀県,甲賀市,水口町水口５７４３番地３和ｖｉｌｌａｇｅ２０３,,25,209,5280005,,,,,,,2024-10-16,1,,,,,ロミエール,0
2007,7180001163623,新規,0,2024-10-16,2024-10-16,株式会社タックコンサルティング,,株式会社,愛知県,名古屋市昭和区,鶴舞２丁目１２番２２号－１,,23,107,4660064,,,,,,,2024-10-16,1,,,,,タックコンサルティング,0
2008,7180001163656,新規,0,2024-10-16,2024-10-16,株式会社貴水設備,,株式会社,愛知県,名古屋市昭和区,御器所１丁目６－２３,,23,107,4660051,,,,,,,2024-10-16,1,,,,,キスイセツビ,0
2009,7180003027413,新規,0,2024-10-16,2024-10-16,合同会社ＳＴＡＲ　ＳＡＮＤ,,合同会社,愛知県,知多市,巽が丘４丁目１０３番地の２,00136640,23,224,4780012,,,,,,,2024-10-16,1,,,,,スターサンド,0
2010,7180003027479,新規,0,2024-10-16,2024-10-16,合同会社ＧＡＴＥ,,合同会社,愛知県,愛西市,須依町大正７６番地,,23,232,4960902,,,,,,,2024-10-16,1,,,,,ゲート,0
2015,7190003004832,新規,0,2024-10-16,2024-10-16,合同会社ＲＡＦＴＥＬ　ＳＡＴＹＡ　ＪＡＰＡＮ,,合同会社,三重県,四日市市,別名２丁目３番１３号,,24,202,5100007,,,,,,,2024-10-16,1,,,,,ラフテルサティヤジャパン,0
2016,7190005011991,新規,0,2024-10-16,2024-10-16,一般社団法人江陰商会,,その他の設立登記法人,三重県,桑名市,長島町福吉２０９,,24,205,5111137,,,,,,,2024-10-16,1,,,,,カンインショウカイ,0
2019,7200001043038,新規,0,2024-10-16,2024-10-16,日本晴Ｌｉｎｋ株式会社,,株式会社,岐阜県,岐阜市,羽根町１２番地８,,21,201,5008834,,,,,,,2024-10-16,1,,,,,ニホンバレリンク,0
2028,7240001063965,新規,0,2024-10-16,2024-10-16,株式会社ソリューション・システム・サポート,,株式会社,広島県,広島市安佐南区,伴南５丁目４０番１８号,,34,105,7313168,,,,,,,2024-10-16,1,,,,,ソリューションシステムサポート,0
2035,7260001039550,新規,0,2024-10-16,2024-10-16,株式会社山幸,,株式会社,岡山県,倉敷市,宮前３８０番地５６,,33,202,7100065,,,,,,,2024-10-16,1,,,,,サンコウ,0
2038,7260003004924,新規,0,2024-10-16,2024-10-16,合同会社グローイング,,合同会社,岡山県,玉野市,長尾１５８８番地２２３,,33,204,7060151,,,,,,,2024-10-16,1,,,,,グローイング,0
2052,7290001107569,新規,0,2024-10-16,2024-10-16,株式会社デジタルカタリスト,,株式会社,福岡県,福岡市博多区,博多駅前１丁目２３ＰａｒｋＦｒｏｎｔ博多駅前一丁目５Ｆ－Ｂ,,40,132,8120011,,,,,,,2024-10-16,1,,,,,デジタルカタリスト,0
2053,7290001107577,新規,0,2024-10-16,2024-10-16,株式会社Ｎｅｏ　Ｐｌａｔｆｏｒｍ,,株式会社,福岡県,久留米市,津福本町１番地３８,,40,203,8300047,,,,,,,2024-10-16,1,,,,,ネオプラットフォーム,0
2054,7290001107627,新規,0,2024-10-16,2024-10-16,株式会社中川商事,,株式会社,福岡県,福岡市西区,戸切３丁目１５番１号,,40,135,8190032,,,,,,,2024-10-16,1,,,,,ナカガワショウジ,0
2057,7290003015927,新規,0,2024-10-16,2024-10-16,合同会社ｆｕｋｕｒａｍ,,合同会社,福岡県,福津市,西福間１丁目２６―１８レジデンス松本２０３,,40,224,8113219,,,,,,,2024-10-16,1,,,,,フクラム,0
2058,7290003015943,新規,0,2024-10-16,2024-10-16,リベロ合同会社,,合同会社,福岡県,福岡市博多区,上牟田２丁目６番５－１０１号Ａｍｏｕｒｏｒｄｒｅ,,40,132,8120006,,,,,,,2024-10-16,1,,,,,リベロ,0
2061,7310001019266,新規,0,2024-10-16,2024-10-16,ｍａｔｔｙ株式会社,,株式会社,長崎県,佐世保市,白南風町１番１６号１０６号室,,42,202,8570862,,,,,,,2024-10-16,1,,,,,マッティ,0
2064,7330003010601,新規,0,2024-10-16,2024-10-16,合同会社光,,合同会社,熊本県,熊本市西区,河内町船津２７０９番地２,,43,103,8615347,,,,,,,2024-10-16,1,,,,,ミツ,0
2067,7340001026862,新規,0,2024-10-16,2024-10-16,株式会社Ｓｏｕｔｈ　Ｓｉｄｅ,,株式会社,鹿児島県,南さつま市,加世田宮原１１８４番地１,,46,220,8971124,,,,,,,2024-10-16,1,,,,,サウスサイド,0
2070,7360001034302,新規,0,2024-10-16,2024-10-16,株式会社ＴＯＭＡアセットマネジメント,,株式会社,沖縄県,宜野湾市,伊佐２丁目１２番８号,,47,205,9012221,,,,,,,2024-10-16,1,,,,,トウマアセットマネジメント,0
2071,7360001034319,新規,0,2024-10-16,2024-10-16,株式会社ぴぽら,,株式会社,沖縄県,うるま市,石川白浜１丁目３－１,,47,213,9041105,,,,,,,2024-10-16,1,,,,,ピポラ,0
2073,7360003014392,新規,0,2024-10-16,2024-10-16,合同会社ここはれて,,合同会社,沖縄県,浦添市,伊祖１丁目１－２１Ｅビル伊祖３０２,,47,208,9012132,,,,,,,2024-10-16,1,,,,,ココハレテ,0
2085,7390003002295,新規,0,2024-10-16,2024-10-16,合同会社ラウェルナ,,合同会社,山形県,鶴岡市,黒川字小在家２７１番地,,06,203,9970311,,,,,,,2024-10-16,1,,,,,ラウェルナ,0
2092,7460101007619,新規,0,2024-10-16,2024-10-16,Ｃｏｌｏｒ株式会社,,株式会社,北海道,河東郡音更町,新通７丁目３番地８メゾンボヌールＳ２号室,,01,631,0800104,,,,,,,2024-10-16,1,,,,,カラー,0
2102,8010001249041,新規,0,2024-10-16,2024-10-16,ＭＥＤ　Ｒｅｂｉｒｔｈキャピタル株式会社,,株式会社,東京都,千代田区,大手町２丁目６番４号ＴＯＫＹＯＴＯＲＣＨ常盤橋タワー８階,,13,101,1000004,,,,,,,2024-10-16,1,,,,,メッドリバースキャピタル,0
2110,8010005038960,新規,0,2024-10-16,2024-10-16,一般社団法人アジアブランド推進会,,その他の設立登記法人,東京都,千代田区,神田富山町９－３神田東邦センタービル３階,,13,101,1010043,,,,,,,2024-10-16,1,,,,,アジアブランドスイシンカイ,0
2117,8010401185670,新規,0,2024-10-16,2024-10-16,株式会社２４,,株式会社,東京都,港区,南青山２丁目２番１５号,,13,103,1070062,,,,,,,2024-10-16,1,,,,,トゥエンティーフォー,0
2118,8010401185761,新規,0,2024-10-16,2024-10-16,ヘルスケア・キャピタル・インベストメント株式会社,,株式会社,東京都,港区,南青山５丁目１２番４号全菓連ビル３階株式会社ブルー・スカイ・アソシエイツ内,,13,103,1070062,,,,,,,2024-10-16,1,,,,,ヘルスケアキャピタルインベストメント,0
2119,8010401185778,新規,0,2024-10-16,2024-10-16,株式会社一歩一歩たまには二歩三歩,,株式会社,東京都,港区,虎ノ門３丁目１８番６号朝日虎ノ門マンション６１４号室,,13,103,1050001,,,,,,,2024-10-16,1,,,,,イッポイッポタマニハニホサンポ,0
2124,8010601066092,新規,0,2024-10-16,2024-10-16,東京順安株式会社,,株式会社,東京都,江東区,牡丹２丁目９番１６号門前仲町東豊エステート１１４,,13,108,1350046,,,,,,,2024-10-16,1,,,,,トウキョウジュンアン,0
2128,8010901056124,新規,0,2024-10-16,2024-10-16,株式会社スタッフミール,,株式会社,東京都,世田谷区,尾山台３丁目１０番９号１Ｆ,,13,112,1580086,,,,,,,2024-10-16,1,,,,,スタッフミール,0
2129,8010901056132,新規,0,2024-10-16,2024-10-16,株式会社ＮＩＴＲＩＳＥ,,株式会社,東京都,世田谷区,用賀２丁目１０番２０号アサカシオン用賀台１０９,,13,112,1580097,,,,,,,2024-10-16,1,,,,,ニトライズ,0
2134,8011001165170,新規,0,2024-10-16,2024-10-16,株式会社ｓｏｒｂｅｔ,,株式会社,東京都,渋谷区,神南１丁目１１‐４ＦＰＧリンクス神南５階,,13,113,1500041,,,,,,,2024-10-16,1,,,,,ソルベ,0
2143,8011101109102,新規,0,2024-10-16,2024-10-16,株式会社Ｌｕｘ　Ｖｉｓｉｏｎ　Ｏｐｔｉｃａｌ,,株式会社,東京都,新宿区,高田馬場３丁目１２番８号高田馬場センタービル５０２号室,,13,104,1690075,,,,,,,2024-10-16,1,,,,,ルックスビジョンオプティカル,0
2145,8011105011196,新規,0,2024-10-16,2024-10-16,ＲＨ天王寺一般社団法人,,その他の設立登記法人,東京都,新宿区,四谷２丁目９番地１５東京ユナイテッド綜合事務所内,,13,104,1600004,,,,,,,2024-10-16,1,,,,,アールエイチテンノウジ,0
2147,8011203004498,新規,0,2024-10-16,2024-10-16,合同会社アワールズ,,合同会社,東京都,中野区,本町６丁目３６番５号シーアイマンション１０１,,13,114,1640012,,,,,,,2024-10-16,1,,,,,アワールズ,0
2151,8011501031269,新規,0,2024-10-16,2024-10-16,株式会社ＹＴＲ,,株式会社,東京都,北区,志茂２丁目５４番８－２０６号,,13,117,1150042,,,,,,,2024-10-16,1,,,,,ワイティアール,0
2157,8011803006489,新規,0,2024-10-16,2024-10-16,合同会社Ｓｔｅｌｌａｒ　Ｐａｔｈ,,合同会社,東京都,足立区,島根１丁目６番１１－１０５号,,13,121,1210815,,,,,,,2024-10-16,1,,,,,ステラーパス,0
2158,8011803006506,新規,0,2024-10-16,2024-10-16,ＰＲＩＭＥ　ＴＲＡＤＩＮＧ合同会社,,合同会社,東京都,足立区,千住寿町２３番７号,,13,121,1200033,,,,,,,2024-10-16,1,,,,,プライムトレーディング,0
2159,8012303002061,新規,0,2024-10-16,2024-10-16,合同会社オグラ設備,,合同会社,東京都,町田市,野津田町２８８番地８,,13,209,1950063,,,,,,,2024-10-16,1,,,,,オグラセツビ,0
2162,8012401042380,新規,0,2024-10-16,2024-10-16,株式会社クエイント,,株式会社,東京都,狛江市,岩戸北１丁目２１番３号,,13,219,2010004,,,,,,,2024-10-16,1,,,,,クエイント,0
2163,8012401042389,新規,0,2024-10-16,2024-10-16,株式会社英時,,株式会社,東京都,調布市,多摩川６丁目３３番地１シェアプレイア調布多摩川３２３,,13,208,1820025,,,,,,,2024-10-16,1,,,,,ヒデトキ,0
2167,8013101009538,新規,0,2024-10-16,2024-10-16,株式会社ＲＩＮＫＸ,,株式会社,東京都,あきる野市,伊奈４４０番地,,13,228,1900142,,,,,,,2024-10-16,1,,,,,リンクス,0
2175,8020001159586,新規,0,2024-10-16,2024-10-16,株式会社ＨＡＭＡＫＯ,,株式会社,神奈川県,横浜市神奈川区,三枚町５４３番地１,,14,102,2210862,,,,,,,2024-10-16,1,,,,,ハマコウ,0
2180,8020003027048,新規,0,2024-10-16,2024-10-16,ＹＫ合同会社,,合同会社,神奈川県,横浜市鶴見区,馬場２丁目８番１９号,,14,101,2300076,,,,,,,2024-10-16,1,,,,,ワイケー,0
2181,8020003027064,新規,0,2024-10-16,2024-10-16,合同会社ＰＬＡＣＥ,,合同会社,神奈川県,横浜市西区,高島２丁目１１番２号スカイメナー横浜５１９,,14,103,2200011,,,,,,,2024-10-16,1,,,,,プレイス,0
2192,8021001083454,新規,0,2024-10-16,2024-10-16,株式会社ビーチボーイズ,,株式会社,神奈川県,横須賀市,湘南鷹取１丁目４番９号,,14,201,2370066,,,,,,,2024-10-16,1,,,,,ビーチボーイズ,0
2193,8021001083487,新規,0,2024-10-16,2024-10-16,ゾンビレコード株式会社,,株式会社,神奈川県,藤沢市,辻堂東海岸２丁目３－４－Ａ,,14,205,2510045,,,,,,,2024-10-16,1,,,,,ゾンビレコード,0
2194,8021001083504,新規,0,2024-10-16,2024-10-16,ｉＰｏｉｎｔ株式会社,,株式会社,神奈川県,鎌倉市,七里ガ浜東４丁目１８番３号,,14,204,2480025,,,,,,,2024-10-16,1,,,,,アイポイント,0
2199,8030001162952,新規,0,2024-10-16,2024-10-16,Ｍ’ｓ　Ｗｉｎｇ株式会社,,株式会社,埼玉県,鴻巣市,氷川町１５０番地４,,11,217,3650045,,,,,,,2024-10-16,1,,,,,エムズウイング,0
2207,8040001135800,新規,0,2024-10-16,2024-10-16,株式会社浅井建築設計二級建築士事務所,,株式会社,千葉県,柏市,今谷上町２０番地５４,,12,217,2770074,,,,,,,2024-10-16,1,,,,,アサイケンチクセッケイニキュウケンチクシジムショ,0
2212,8040003025982,新規,0,2024-10-16,2024-10-16,ＭＩＲＡＩ　ＴＲＡＤＩＮＧ合同会社,,合同会社,千葉県,野田市,関宿台町１６９１番地１,,12,208,2700202,,,,,,,2024-10-16,1,,,,,ミライトレーディング,0
2216,8050001055543,新規,0,2024-10-16,2024-10-16,株式会社誠電工,,株式会社,茨城県,結城市,大字山川新宿３２２番地,,08,207,3070033,,,,,,,2024-10-16,1,,,,,マコトデンコウ,0
2224,8070001042275,新規,0,2024-10-16,2024-10-16,株式会社ｅｎｔｒｅｅ,,株式会社,群馬県,伊勢崎市,茂呂町１丁目５４番地１６,,10,204,3720034,,,,,,,2024-10-16,1,,,,,アントレ,0
2229,8070003005610,新規,0,2024-10-16,2024-10-16,合同会社石坂牧場,,合同会社,群馬県,渋川市,石原２２５７番地５０,,10,208,3770007,,,,,,,2024-10-16,1,,,,,イシザカボクジョウ,0
2233,8090001018950,新規,0,2024-10-16,2024-10-16,株式会社ほぉむＮｓ,,株式会社,山梨県,笛吹市,八代町大間田２１１番地１,,19,211,4060825,,,,,,,2024-10-16,1,,,,,ホームナース,0
2246,8120001269318,新規,0,2024-10-16,2024-10-16,株式会社ＥＮＡワークス,,株式会社,大阪府,大阪市生野区,巽東２丁目１９番３１号ＮＳＴビル４Ｆ,,27,116,5440014,,,,,,,2024-10-16,1,,,,,エーナワークス,0
2247,8120001269334,新規,0,2024-10-16,2024-10-16,株式会社ＪＩＮ’Ｓ　ＣＯＭＰＡＮＹ,,株式会社,大阪府,大阪市生野区,鶴橋３丁目５番８号,,27,116,5440031,,,,,,,2024-10-16,1,,,,,ジンスカンパニー,0
2249,8120003027748,新規,0,2024-10-16,2024-10-16,ＧＩＡ　ＨＵＹ合同会社,,合同会社,大阪府,大阪市中央区,南久宝寺町３丁目５番１号４階,,27,128,5410058,,,,,,,2024-10-16,1,,,,,ジャフィ,0
2256,8120101070427,新規,0,2024-10-16,2024-10-16,株式会社Ｓｈｕｔａｉｒｉ,,株式会社,大阪府,岸和田市,中井町３丁目１９－３,,27,202,5960003,,,,,,,2024-10-16,1,,,,,シュタイリ,0
2258,8120901049901,新規,0,2024-10-16,2024-10-16,株式会社ｇｒａｃｅ　ｆａｃｔｏｒｙ,,株式会社,大阪府,三島郡島本町,広瀬５丁目５番１６号,,27,301,6180011,,,,,,,2024-10-16,1,,,,,グレイスファクトリー,0
2261,8122001038537,新規,0,2024-10-16,2024-10-16,株式会社総合設備パートナーズ,,株式会社,大阪府,東大阪市,森河内東２丁目８番７号,,27,227,5770062,,,,,,,2024-10-16,1,,,,,ソウゴウセツビパートナーズ,0
2265,8130003009927,新規,0,2024-10-16,2024-10-16,合同会社ＭＢＯＸ,,合同会社,京都府,福知山市,字長田２７３１－１０,,26,201,6200000,,,,,,,2024-10-16,1,,,,,エムボックス,0
2276,8140001136078,新規,0,2024-10-16,2024-10-16,株式会社Ｏｃｅａｎ,,株式会社,兵庫県,西宮市,今津真砂町１番１３－９０３号,,28,204,6638224,,,,,,,2024-10-16,1,,,,,オーシャン,0
2277,8140001136128,新規,0,2024-10-16,2024-10-16,株式会社ＤｅｎｔＢｌｅｎｄ,,株式会社,兵庫県,神戸市中央区,京町７４番地京町７４番ビル８階,,28,110,6500034,,,,,,,2024-10-16,1,,,,,デントブレンド,0
2281,8140003021187,新規,0,2024-10-16,2024-10-16,合同会社ｅ‐Ｎｉｌｅ,,合同会社,兵庫県,神戸市東灘区,御影山手５丁目２６番８号,,28,101,6580065,,,,,,,2024-10-16,1,,,,,イーナイル,0
2282,8140003021195,新規,0,2024-10-16,2024-10-16,合同会社Ａｑｕａｎｏｔｅ,,合同会社,兵庫県,神戸市東灘区,田中町２丁目１２番１８号アコード本山１０４号室,,28,101,6580081,,,,,,,2024-10-16,1,,,,,アクアノーテ,0
2283,8140003021204,新規,0,2024-10-16,2024-10-16,合同会社ＡｕｒｏｒａＮｃｅ,,合同会社,兵庫県,伊丹市,中野北４丁目５番２１－４号,,28,207,6640029,,,,,,,2024-10-16,1,,,,,オーロランス,0
2285,8170001018348,新規,0,2024-10-16,2024-10-16,株式会社フルスコアインターナショナル,,株式会社,和歌山県,田辺市,新庄町２９０１番１号Ｃ棟９１０ナガタケ,,30,206,6460011,,,,,,,2024-10-16,1,,,,,フルスコアインターナショナル,0
2298,8180003027478,新規,0,2024-10-16,2024-10-16,合同会社水之音,,合同会社,愛知県,名古屋市中村区,名駅４丁目２４番５号第２森ビル４０１,,23,105,4500002,,,,,,,2024-10-16,1,,,,,ミズノオト,0
2302,8180303006306,新規,0,2024-10-16,2024-10-16,合同会社Ｌｉｆｅ,,合同会社,愛知県,知立市,八橋町的場４７番地４的場一番館１０６号,,23,225,4720001,,,,,,,2024-10-16,1,,,,,ライフ,0
2304,8190001031720,新規,0,2024-10-16,2024-10-16,株式会社最上ホールディングス,,株式会社,三重県,津市,雲出本郷町１１６１番地の１,,24,201,5140304,,,,,,,2024-10-16,1,,,,,モガミホールディングス,0
2305,8190001031729,新規,0,2024-10-16,2024-10-16,株式会社なかむら,,株式会社,三重県,伊勢市,一之木１丁目１３番１７号,,24,203,5160071,,,,,,,2024-10-16,1,,,,,ナカムラ,0
2309,8240001063956,新規,0,2024-10-16,2024-10-16,株式会社スコープ・インスタイル,,株式会社,広島県,広島市佐伯区,八幡東２丁目２５番６号,,34,108,7315115,,,,,,,2024-10-16,1,,,,,スコープインスタイル,0
2310,8240001063964,新規,0,2024-10-16,2024-10-16,株式会社アベニール,,株式会社,広島県,安芸郡府中町,鹿籠２丁目３番３１－８０２号,,34,302,7350025,,,,,,,2024-10-16,1,,,,,アベニール,0
2319,8290001107510,新規,0,2024-10-16,2024-10-16,峰貿易株式会社,,株式会社,福岡県,福岡市早良区,賀茂３丁目１番４号（２０１号室）,,40,137,8140164,,,,,,,2024-10-16,1,,,,,ミネボウエキ,0
2320,8290001107584,新規,0,2024-10-16,2024-10-16,株式会社ハシＧＯ,,株式会社,福岡県,福岡市博多区,比恵町１－１８－７１５,,40,132,8120014,,,,,,,2024-10-16,1,,,,,ハシゴー,0
2321,8290001107618,新規,0,2024-10-16,2024-10-16,株式会社エムファミリー,,株式会社,福岡県,福岡市中央区,今川１丁目２４番８－７０３号,,40,133,8100054,,,,,,,2024-10-16,1,,,,,エムファミリー,0
2330,8330001032563,新規,0,2024-10-16,2024-10-16,株式会社グルトン洋菓子店,,株式会社,熊本県,熊本市東区,長嶺西２丁目１６番２７号,,43,102,8618037,,,,,,,2024-10-16,1,,,,,グルトンヨウガシテン,0
2334,8360001034301,新規,0,2024-10-16,2024-10-16,ＥＲＩＳＡＮ　Ｂｉｏ株式会社,,株式会社,沖縄県,うるま市,字州崎５番地８沖縄ライフサイエンス研究センター１２４号,,47,213,9042234,,,,,,,2024-10-16,1,,,,,エリサンバイオ,0
2337,8360005007121,新規,0,2024-10-16,2024-10-16,一般社団法人レジャースポーツ研究所,,その他の設立登記法人,沖縄県,名護市,大西３丁目１９番５号,,47,209,9050018,,,,,,,2024-10-16,1,,,,,レジャースポーツケンキュウショ,0
2342,8370001051824,新規,0,2024-10-16,2024-10-16,株式会社ケン・ドリーム,,株式会社,宮城県,仙台市青葉区,本町１丁目１４番２５号本町佐藤ビル５０１号室,,04,101,9800014,,,,,,,2024-10-16,1,,,,,ケンドリーム,0
2355,8430001092886,新規,0,2024-10-16,2024-10-16,株式会社ＴＯＭＯＹＡ,,株式会社,北海道,札幌市豊平区,西岡四条１丁目６番１３号,,01,105,0620034,,,,,,,2024-10-16,1,,,,,トモヤ,0
2359,8430003016884,新規,0,2024-10-16,2024-10-16,合同会社Ｇｒｅｅｎ　Ｌａｂ　Ｅｃｏｌｏｇｙ,,合同会社,北海道,室蘭市,宮の森町４丁目５番２号,,01,205,0500073,,,,,,,2024-10-16,1,,,,,グリーンラボエコロジー,0
2385,9010001249049,新規,0,2024-10-16,2024-10-16,株式会社ＢＨ　Ｔｏｋｙｏ,,株式会社,東京都,千代田区,神田佐久間町４丁目１６番地４－１１０１,,13,101,1010025,,,,,,,2024-10-16,1,,,,,ビーエイチトーキョー,0
2388,9010003045074,新規,0,2024-10-16,2024-10-16,合同会社榎並屋,,合同会社,東京都,中央区,八丁堀４丁目１番３号安和宝町ビル３０４,,13,102,1040032,,,,,,,2024-10-16,1,,,,,エナミヤ,0
2401,9010401185760,新規,0,2024-10-16,2024-10-16,株式会社ＩＧ３,,株式会社,東京都,港区,赤坂９丁目７番２号ミッドタウン・イースト４階,,13,103,1070052,,,,,,,2024-10-16,1,,,,,アイジースリー,0
2404,9010405023611,新規,0,2024-10-16,2024-10-16,一般社団法人日本医学健康管理推進機構設立準備室,,その他の設立登記法人,東京都,港区,三田１丁目３－３３三田ネクサスビル５階,,13,103,1080073,,,,,,,2024-10-16,1,,,,,ニホンイガクケンコウカンリスイシンキコウセツリツジュンビシツ,0
2405,9010405023685,新規,0,2024-10-16,2024-10-16,一般社団法人ＦＹ　Ｅｎｅｒｇｙ,,その他の設立登記法人,東京都,港区,赤坂１丁目１２番３２号アーク森ビル・センクサスグループ内,,13,103,1070052,,,,,,,2024-10-16,1,,,,,エフワイエナジー,0
2407,9010501053033,新規,0,2024-10-16,2024-10-16,Ｆｏｒｃｔｉｓ株式会社,,株式会社,東京都,台東区,上野６丁目７番１６号川久保ビル５１２号室,,13,106,1100005,,,,,,,2024-10-16,1,,,,,フォークティス,0
2410,9010601066091,新規,0,2024-10-16,2024-10-16,株式会社ＺＩＤＡＩ,,株式会社,東京都,墨田区,江東橋４丁目２７番１４楽天地ビル３Ｆ・ＢＩＺｃｏｍｆｏｒｔ錦糸町１３号室,,13,107,1300022,,,,,,,2024-10-16,1,,,,,ジダイ,0
2414,9010801035474,新規,0,2024-10-16,2024-10-16,株式会社ＬＩＦＥ　ＬＩＮＥ,,株式会社,東京都,大田区,池上５丁目５番地１５アットホーム池上２０７,,13,111,1460082,,,,,,,2024-10-16,1,,,,,ライフライン,0
2415,9010803005129,新規,0,2024-10-16,2024-10-16,合同会社Ｅｃｌａｔ　ｄｅ　ＣｈａｒｍｅＢｅａｕｔｅ,,合同会社,東京都,大田区,久が原４丁目１７－１３,,13,111,1460085,,,,,,,2024-10-16,1,,,,,エクラドゥシャルムボーテ,0
2419,9010901056073,新規,0,2024-10-16,2024-10-16,株式会社ＲＩＤＩＣＵＬＩ,,株式会社,東京都,世田谷区,弦巻３丁目１５番２０号弦巻サールコート２０１,,13,112,1540016,,,,,,,2024-10-16,1,,,,,リディキュライ,0
2420,9010901056123,新規,0,2024-10-16,2024-10-16,株式会社ＯｎｅＳｔｏｐ,,株式会社,東京都,世田谷区,中町５丁目９番３－１０５号,,13,112,1580091,,,,,,,2024-10-16,1,,,,,ワンストップ,0
2421,9010901056131,新規,0,2024-10-16,2024-10-16,株式会社ケーエイチ企画,,株式会社,東京都,世田谷区,太子堂４丁目１８番１５号マガザン三軒茶屋２・３Ｆ－３,,13,112,1540004,,,,,,,2024-10-16,1,,,,,ケーエイチキカク,0
2426,9011005010702,新規,0,2024-10-16,2024-10-16,一般社団法人アールカラット,,その他の設立登記法人,東京都,目黒区,青葉台１丁目３０番１１号,,13,110,1530042,,,,,,,2024-10-16,1,,,,,アールカラット,0
2429,9011101109118,新規,0,2024-10-16,2024-10-16,株式会社ＨＩＮＡバス,,株式会社,東京都,新宿区,西新宿７丁目２２番３７号ストーク西新宿２０２,,13,104,1600023,,,,,,,2024-10-16,1,,,,,ヒナバス,0
2430,9011101109142,新規,0,2024-10-16,2024-10-16,株式会社ＳＡＮＳ,,株式会社,東京都,新宿区,西新宿３丁目３番１３号西新宿水間ビル２Ｆ,,13,104,1600023,,,,,,,2024-10-16,1,,,,,サンズ,0
2431,9011103015033,新規,0,2024-10-16,2024-10-16,合同会社Ｐｕｋｕ,,合同会社,東京都,新宿区,百人町１丁目１番１３号日新ビル２Ｆ,,13,104,1690073,,,,,,,2024-10-16,1,,,,,プク,0
2432,9011105011187,新規,0,2024-10-16,2024-10-16,特定非営利活動法人デザイン史リサーチセンター東京,,その他の設立登記法人,東京都,新宿区,下落合３丁目１５番２３号ダイナシティ目白１０４号室,,13,104,1610033,,,,,,,2024-10-16,1,,,,,デザインシリサーチセンタートウキョウ,0
2438,9011501031268,新規,0,2024-10-16,2024-10-16,株式会社ｇｒａｎｂｅ,,株式会社,東京都,荒川区,荒川３丁目６１番４号ハイシティ日暮里東２０５号室,,13,118,1160002,,,,,,,2024-10-16,1,,,,,グランビー,0
2440,9011701027727,新規,0,2024-10-16,2024-10-16,ＨＩＴ　Ｍａｒｉｎｅ　Ｊａｐａｎ株式会社,,株式会社,東京都,江戸川区,江戸川６丁目４０番１４－２０１号室,,13,123,1340013,,,,,,,2024-10-16,1,,,,,ヒットマリンジャパン,0
2442,9012301014124,新規,0,2024-10-16,2024-10-16,株式会社ＣＬＯＵＤ,,株式会社,東京都,町田市,成瀬２丁目６番地２,,13,209,1940044,,,,,,,2024-10-16,1,,,,,クラウド,0
2452,9020001159528,新規,0,2024-10-16,2024-10-16,株式会社食品信頼開発研究所,,株式会社,神奈川県,横浜市都筑区,長坂１４番３,,14,118,2240063,,,,,,,2024-10-16,1,,,,,ショクヒンシンライカイハツケンキュウショ,0
2453,9020001159585,新規,0,2024-10-16,2024-10-16,株式会社ＲＳＸプラス,,株式会社,神奈川県,横浜市神奈川区,金港町６番地３横浜金港町ビル５Ｆ,,14,102,2210056,,,,,,,2024-10-16,1,,,,,アールエスエックスプラス,0
2454,9020001159610,新規,0,2024-10-16,2024-10-16,株式会社Ｉｎｎｏｖａｔｉｏｎ　Ｓｅｌｅｃｔ,,株式会社,神奈川県,横浜市港南区,下永谷１丁目３７番２号,,14,111,2330016,,,,,,,2024-10-16,1,,,,,イノベーションセレクト,0
2455,9020001159627,新規,0,2024-10-16,2024-10-16,株式会社Ｈａｍｉｌｔｏｎ　Ｂａｂｙ,,株式会社,神奈川県,横浜市栄区,公田町１３９５番地６,,14,115,2470014,,,,,,,2024-10-16,1,,,,,ハミルトンベイビー,0
2456,9020001159635,新規,0,2024-10-16,2024-10-16,株式会社ワングリエイト,,株式会社,神奈川県,横浜市港北区,大曽根３丁目１６番１８号,,14,109,2220003,,,,,,,2024-10-16,1,,,,,ワングリエイト,0
2459,9020003027047,新規,0,2024-10-16,2024-10-16,合同会社Ａｉｄａサービス,,合同会社,神奈川県,横浜市旭区,白根８丁目２１番１７号,,14,112,2410005,,,,,,,2024-10-16,1,,,,,アイダサービス,0
2472,9021001083445,新規,0,2024-10-16,2024-10-16,株式会社プラン空間,,株式会社,神奈川県,茅ヶ崎市,中海岸２丁目１０－２９－３,,14,207,2530055,,,,,,,2024-10-16,1,,,,,プランクウカン,0
2473,9021001083478,新規,0,2024-10-16,2024-10-16,株式会社禅,,株式会社,神奈川県,海老名市,杉久保南３丁目４番１５号,,14,215,2430427,,,,,,,2024-10-16,1,,,,,ゼン,0
2474,9021001083503,新規,0,2024-10-16,2024-10-16,株式会社Ｎ．ｈａｎｓ,,株式会社,神奈川県,鎌倉市,長谷２丁目１５番７号,,14,204,2480016,,,,,,,2024-10-16,1,,,,,エヌハンス,0
2481,9021003015116,新規,0,2024-10-16,2024-10-16,ケイトエステート合同会社,,合同会社,神奈川県,横須賀市,馬堀海岸２丁目３番６号,,14,201,2390801,,,,,,,2024-10-16,1,,,,,ケイトエステート,0
2496,9040001135832,新規,0,2024-10-16,2024-10-16,株式会社ＢＡＶＥＳ,,株式会社,千葉県,松戸市,金ケ作４２１－２アムール１０２,,12,207,2702251,,,,,,,2024-10-16,1,,,,,ベイブス,0
2497,9040001135849,新規,0,2024-10-16,2024-10-16,株式会社オフィスＲＫ,,株式会社,千葉県,船橋市,三山８丁目９番４号,,12,204,2740072,,,,,,,2024-10-16,1,,,,,オフィスアールケイ,0
2498,9040001135857,新規,0,2024-10-16,2024-10-16,株式会社藤井加代子コーポレーション,,株式会社,千葉県,野田市,清水６５５番地の１８,,12,208,2780043,,,,,,,2024-10-16,1,,,,,フジイカヨココーポレーション,0
2504,9040005022548,新規,0,2024-10-16,2024-10-16,医療法人社団オルニカ,,その他の設立登記法人,千葉県,流山市,西初石３丁目３５４番地１初石メディカルモール１０３,,12,220,2700121,,,,,,,2024-10-16,1,,,,,オルニカ,0
2505,9040005022556,新規,0,2024-10-16,2024-10-16,医療法人社団ＳＫＢＲ,,その他の設立登記法人,千葉県,東金市,東岩崎１３番地１８,,12,213,2830068,,,,,,,2024-10-16,1,,,,,エスケービーアール,0
2513,9050003008721,新規,0,2024-10-16,2024-10-16,合同会社アシスト,,合同会社,茨城県,つくば市,東平塚１１８１番地２リヴェ－ル１０３号,,08,220,3050812,,,,,,,2024-10-16,1,,,,,アシスト,0
2516,9060001037580,新規,0,2024-10-16,2024-10-16,Ｃｏｎｎｅｃｔ　Ｗａｙ株式会社,,株式会社,栃木県,宇都宮市,中岡本町２６９５番地１,,09,201,3291105,,,,,,,2024-10-16,1,,,,,コネクトウェイ,0
2548,9120001269358,新規,0,2024-10-16,2024-10-16,株式会社斉米,,株式会社,大阪府,大阪市中央区,島之内２丁目１０－１２－７Ｆ,,27,128,5420082,,,,,,,2024-10-16,1,,,,,サイマイ,0
2555,9120903005380,新規,0,2024-10-16,2024-10-16,合同会社ハウスイート,,合同会社,大阪府,吹田市,青葉丘北１８番１０－４１０号,,27,205,5650801,,,,,,,2024-10-16,1,,,,,ハウスイート,0
2557,9122001038536,新規,0,2024-10-16,2024-10-16,株式会社リワードエステート,,株式会社,大阪府,東大阪市,若江南町４丁目２番９号,,27,227,5780943,,,,,,,2024-10-16,1,,,,,リワードエステート,0
2558,9122001038544,新規,0,2024-10-16,2024-10-16,株式会社Ｇｌｏｗ　Ｓｔａｒｔ,,株式会社,大阪府,東大阪市,稲田上町１丁目１６番２号キャンファーウッド３０１号,,27,227,5770002,,,,,,,2024-10-16,1,,,,,グロースタート,0
2562,9130001078130,新規,0,2024-10-16,2024-10-16,株式会社ＴｗｏＣｏｕｒｓ,,株式会社,京都府,京都市右京区,太秦樋ノ内町７－８１,,26,108,6168142,,,,,,,2024-10-16,1,,,,,ツークール,0
2563,9130001078147,新規,0,2024-10-16,2024-10-16,いもぼう平野家本家株式会社,,株式会社,京都府,京都市東山区,祇園町北側３６２番地（円山公園内八坂神社北側）,,26,105,6050073,,,,,,,2024-10-16,1,,,,,イモボウヒラノヤホンケ,0
2564,9130003009926,新規,0,2024-10-16,2024-10-16,合同会社ＦＫコンサルティング,,合同会社,京都府,京都市下京区,大黒町２２７番地第２キョートビル４０２,,26,106,6008043,,,,,,,2024-10-16,1,,,,,エフケーコンサルティング,0
2568,9140001136077,新規,0,2024-10-16,2024-10-16,ライフケア・コネクト株式会社,,株式会社,兵庫県,神戸市東灘区,本山中町４丁目３番９号,,28,101,6580016,,,,,,,2024-10-16,1,,,,,ライフケアコネクト,0
2569,9140002013936,新規,0,2024-10-16,2024-10-16,有限会社コスモポリタン製菓,,有限会社,兵庫県,神戸市灘区,篠原伯母野山町３丁目１０番８号,,28,102,6570015,,,,,,,2024-10-16,1,,,,,コスモポリタンセイカ,0
2573,9140003021186,新規,0,2024-10-16,2024-10-16,合同会社アスカグラフィックス,,合同会社,兵庫県,神戸市須磨区,友が丘２丁目５－Ｂ３－４０１,,28,107,6540142,,,,,,,2024-10-16,1,,,,,アスカグラフィックス,0
2574,9140003021194,新規,0,2024-10-16,2024-10-16,合同会社Ｈｕｍａｎ　ｃａｒｅ　ｓｙｓｔｅｍ,,合同会社,兵庫県,芦屋市,親王塚町１番１号２Ｆ,,28,206,6590016,,,,,,,2024-10-16,1,,,,,ヒューマンケアシステム,0
2581,9170005007107,新規,0,2024-10-16,2024-10-16,一般社団法人日ノ本,,その他の設立登記法人,和歌山県,和歌山市,新雑賀町１－２,,30,201,6408101,,,,,,,2024-10-16,1,,,,,ヒノモト,0
2587,9180001163522,新規,0,2024-10-16,2024-10-16,株式会社ＴＭ,,株式会社,愛知県,名古屋市中区,丸の内２丁目１８番５号サン・マルノウチビル１０２号室,,23,106,4600002,,,,,,,2024-10-16,1,,,,,ティーエム,0
2588,9180001163539,新規,0,2024-10-16,2024-10-16,株式会社エデュケアネクスト,,株式会社,愛知県,一宮市,奥町字神田２４番地３,,23,203,4910201,,,,,,,2024-10-16,1,,,,,エデュケアネクスト,0
2596,9180002094056,新規,0,2024-10-16,2024-10-16,有限会社名構建設,,有限会社,愛知県,海部郡蟹江町,本町２丁目１６番地,,23,425,4970034,,,,,,,2024-10-16,1,,,,,,0
2597,9180003027452,新規,0,2024-10-16,2024-10-16,合同会社ｌｅｖｅｒ,,合同会社,愛知県,名古屋市緑区,黒沢台５丁目１２４番地の３,,23,114,4580003,,,,,,,2024-10-16,1,,,,,ルヴェ,0
2599,9190001031728,新規,0,2024-10-16,2024-10-16,ＶＲＩＯ株式会社,,株式会社,三重県,伊勢市,楠部町１７５番地３５,,24,203,5160014,,,,,,,2024-10-16,1,,,,,ブリオ,0
2602,9190003004830,新規,0,2024-10-16,2024-10-16,合同会社まごころ,,合同会社,三重県,伊勢市,御薗町小林９５８番地３福島ハイツ２Ａ号室,,24,203,5160801,,,,,,,2024-10-16,1,,,,,マゴコロ,0
2613,9210001019943,新規,0,2024-10-16,2024-10-16,株式会社ＦＩＮＣＬＵ,,株式会社,福井県,坂井市,春江町針原３２号３９番地,,18,210,9190476,,,,,,,2024-10-16,1,,,,,フィンクル,0
2614,9220001026278,新規,0,2024-10-16,2024-10-16,ジャパンシーパップ株式会社,,株式会社,石川県,白山市,倉光１丁目１５２番地,,17,210,9240865,,,,,,,2024-10-16,1,,,,,ジャパンシーパップ,0
2616,9240001063930,新規,0,2024-10-16,2024-10-16,株式会社ＫＵＲＡＲＡ,,株式会社,広島県,広島市中区,本川町２丁目１番９－７０１号,,34,101,7300802,,,,,,,2024-10-16,1,,,,,クララ,0
2618,9240003006904,新規,0,2024-10-16,2024-10-16,コロコネクト合同会社,,合同会社,広島県,尾道市,美ノ郷町三成１１７６－１,,34,205,7220215,,,,,,,2024-10-16,1,,,,,コロコネクト,0
2619,9250001020848,新規,0,2024-10-16,2024-10-16,株式会社ＧＬＦ,,株式会社,山口県,下関市,大和町２丁目２番１２号,,35,201,7500067,,,,,,,2024-10-16,1,,,,,ジーエルエフ,0
2620,9260001039549,新規,0,2024-10-16,2024-10-16,株式会社みずべ,,株式会社,岡山県,笠岡市,生江浜２０６１番地３,,33,205,7140055,,,,,,,2024-10-16,1,,,,,ミズベ,0
2621,9260003004922,新規,0,2024-10-16,2024-10-16,合同会社ｃｏｊｉｊｉ,,合同会社,岡山県,瀬戸内市,邑久町尻海３９５番地１,,33,212,7014212,,,,,,,2024-10-16,1,,,,,コジジ,0
2633,9290001107600,新規,0,2024-10-16,2024-10-16,株式会社ＳＵＵＬＡ,,株式会社,福岡県,久留米市,東櫛原町１０１２－１－１０１,,40,203,8300003,,,,,,,2024-10-16,1,,,,,スーラ,0
2644,9310001019231,新規,0,2024-10-16,2024-10-16,丸中商事株式会社,,株式会社,長崎県,長崎市,鍛冶屋町６番２６号,,42,201,8500831,,,,,,,2024-10-16,1,,,,,,0
2646,9310005008809,新規,0,2024-10-16,2024-10-16,一般社団法人Ｓｋｙ’ｓ　ｔｈｅ　ｌｉｍｉｔ,,その他の設立登記法人,長崎県,長崎市,本河内３丁目３５番１８号,,42,201,8500012,,,,,,,2024-10-16,1,,,,,スカイズザリミット,0
2648,9340005009779,新規,0,2024-10-16,2024-10-16,医療法人星夢会,,その他の設立登記法人,鹿児島県,姶良市,脇元５４３番地１,,46,225,8995651,,,,,,,2024-10-16,1,,,,,ホシユメカイ,0
2651,9360001034309,新規,0,2024-10-16,2024-10-16,株式会社スリーインサンライズ,,株式会社,沖縄県,中頭郡北谷町,美浜１丁目６番地７オーシャンウインズ美浜４０４,,47,326,9040115,,,,,,,2024-10-16,1,,,,,スリーインサンライズ,0
2652,9360001034317,新規,0,2024-10-16,2024-10-16,ｎｅｗｍｏ沖縄株式会社,,株式会社,沖縄県,那覇市,久茂地２丁目２番２号タイムスビル２階,,47,201,9000015,,,,,,,2024-10-16,1,,,,,ニューモオキナワ,0
2653,9370001051823,新規,0,2024-10-16,2024-10-16,株式会社Ｌａｂａｒ,,株式会社,宮城県,仙台市青葉区,大町２丁目９－２０ピア大町２０３,,04,101,9800804,,,,,,,2024-10-16,1,,,,,ラバー,0
2658,9400001016830,新規,0,2024-10-16,2024-10-16,遠野林業株式会社,,株式会社,岩手県,遠野市,土淵町栃内７地割７６番地,,03,208,0280551,,,,,,,2024-10-16,1,,,,,トオノリンギョウ,0
2666,9430003016883,新規,0,2024-10-16,2024-10-16,インパルス合同会社,,合同会社,北海道,札幌市中央区,南三条西７丁目６番地１エステラ南３条館Ａ６０５号,,01,101,0600063,,,,,,,2024-10-16,1,,,,,インパルス,0
2667,9460103001659,新規,0,2024-10-16,2024-10-16,合同会社サトウ,,合同会社,北海道,中川郡幕別町,寿町１３３－１,,01,643,0890605,,,,,,,2024-10-16,1,,,,,サトウ,0
2669,9470001020421,新規,0,2024-10-16,2024-10-16,株式会社エンタープライジング工業,,株式会社,香川県,高松市,伏石町２１３７番地２４,,37,201,7618071,,,,,,,2024-10-16,1,,,,,エンタープライジングコウギョウ,0
2673,9500001025937,新規,0,2024-10-16,2024-10-16,株式会社龍水道,,株式会社,愛媛県,松山市,久万ノ台１５９３番地,,38,201,7918016,,,,,,,2024-10-16,1,,,,,リュウスイドウ,0
