sequenceNumber,corporateNumber,process,correct,updateDate,changeDate,name,nameImageId,kind,prefectureName,cityName,streetNumber,addressImageId,prefectureCode,cityCode,postCode,addressOutside,addressOutsideImageId,closeDate,closeCause,successorCorporateNumber,changeCause,assignmentDate,latest,enName,enPrefectureName,enCityName,enAddressOutside,furigana,hihyoji
3,1010001236384,新規,0,2023-06-29,2023-06-29,株式会社ＰＥＴ’Ｓ　ＭＯＳＴ,,株式会社,東京都,中央区,日本橋浜町３丁目３４番地５号吉田ビル１階,,13,102,1030007,,,,,,,2023-06-29,1,,,,,ペッツモスト,0
4,1010001236434,新規,0,2023-06-29,2023-06-29,錦虎株式会社,,株式会社,東京都,千代田区,神田三崎町２丁目１０番１１号Ｐｅｇビル３Ａ－４号室,,13,101,1010061,,,,,,,2023-06-29,1,,,,,キンコ,0
12,1010401008400,新規,0,2023-06-29,2023-06-29,久邇ウエルネス株式会社,,株式会社,東京都,港区,新橋４丁目２１番６号,,13,103,1050004,,,,,,,2023-06-29,1,,,,,クジウエルネス,0
17,1010403030393,新規,0,2023-06-29,2023-06-29,ジャパンインフラ３７号合同会社,,合同会社,東京都,港区,元赤坂１丁目１番７号,,13,103,1070051,,,,,,,2023-06-29,1,,,,,ジャパンインフラサンジュウナナゴウ,0
18,1010501050665,新規,0,2023-06-29,2023-06-29,ノベルトレーディング株式会社,,株式会社,東京都,台東区,上野６丁目７－１６川久保ビル８１７号,,13,106,1100005,,,,,,,2023-06-29,1,,,,,ノベルトレーディング,0
20,1010601063344,新規,0,2023-06-29,2023-06-29,千賀株式会社,,株式会社,東京都,墨田区,横川４丁目１－２０－１Ｆ－Ｂ,,13,107,1300003,,,,,,,2023-06-29,1,,,,,センガ,0
21,1010701044475,新規,0,2023-06-29,2023-06-29,株式会社Ｒｏｃｋｓ　Ｏｆｆ,,株式会社,東京都,品川区,旗の台６丁目２３番１０－６０１号,,13,109,1420064,,,,,,,2023-06-29,1,,,,,ロックスオフ,0
41,1011301028827,新規,0,2023-06-29,2023-06-29,株式会社インフォテック,,株式会社,東京都,杉並区,西荻北３丁目２１番１５－１２０３号ベルフォート西荻,,13,115,1670042,,,,,,,2023-06-29,1,,,,,インフォテック,0
57,1013301050983,新規,0,2023-06-29,2023-06-29,株式会社プロジェクトＭ,,株式会社,東京都,豊島区,駒込１丁目１９番５号ＤＧ駒込１０１,,13,116,1700003,,,,,,,2023-06-29,1,,,,,プロジェクトエム,0
67,1021001079426,新規,0,2023-06-29,2023-06-29,株式会社アトリエミッチェル,,株式会社,神奈川県,相模原市緑区,橋本３丁目２７番６号,,14,151,2520143,,,,,,,2023-06-29,1,,,,,アトリエミッチェル,0
68,1021001079434,新規,0,2023-06-29,2023-06-29,株式会社輝夜,,株式会社,神奈川県,厚木市,鳶尾３丁目１番４－２０１号,,14,212,2430204,,,,,,,2023-06-29,1,,,,,カグヤ,0
78,1040001129008,新規,0,2023-06-29,2023-06-29,株式会社幸田画業,,株式会社,千葉県,柏市,しいの木台４丁目４１番８号,,12,217,2770945,,,,,,,2023-06-29,1,,,,,コウダガギョウ,0
79,1040001129024,新規,0,2023-06-29,2023-06-29,株式会社ＴＯＵＷＡ,,株式会社,千葉県,木更津市,金田東１丁目１２番地１１,,12,206,2920009,,,,,,,2023-06-29,1,,,,,トウワ,0
90,1080102022520,新規,0,2023-06-29,2023-06-29,高田商事有限会社,00130972,有限会社,静岡県,駿東郡小山町,須走２４２番地,,22,344,4101431,,,,,,,2023-06-29,1,,,,,タカダショウジ,0
92,1080401026560,新規,0,2023-06-29,2023-06-29,株式会社コネクトプラス,,株式会社,静岡県,浜松市東区,薬師町３５７番地,,22,132,4350017,,,,,,,2023-06-29,1,,,,,コネクトプラス,0
93,1090001018148,新規,0,2023-06-29,2023-06-29,株式会社東和,,株式会社,山梨県,笛吹市,石和町川中島１６０７番地３１,,19,211,4060024,,,,,,,2023-06-29,1,,,,,トウワ,0
97,1100003007080,新規,0,2023-06-29,2023-06-29,合同会社ＳＡＲＥＤＯ,,合同会社,長野県,松本市,清水１丁目１番２号,,20,202,3900805,,,,,,,2023-06-29,1,,,,,サレド,0
108,1120001256025,新規,0,2023-06-29,2023-06-29,安騰株式会社,,株式会社,大阪府,大阪市中央区,船越町１丁目５－８－４０９号室,,27,128,5400036,,,,,,,2023-06-29,1,,,,,アントウ,0
109,1120001256058,新規,0,2023-06-29,2023-06-29,ＨＡＲＵＳＯＲＡ不動産株式会社,,株式会社,大阪府,寝屋川市,萱島東３丁目２４番４号プリンスヴィラ１０７号室,,27,215,5720824,,,,,,,2023-06-29,1,,,,,ハルソラフドウサン,0
110,1120001256066,新規,0,2023-06-29,2023-06-29,欧亜株式会社,,株式会社,大阪府,大阪市生野区,新今里１丁目１０番１７号,,27,116,5440001,,,,,,,2023-06-29,1,,,,,オウア,0
111,1120001256074,新規,0,2023-06-29,2023-06-29,株式会社アイリス警備保障,,株式会社,大阪府,大阪市東淀川区,東中島２丁目８番地８ワークステーション新大阪５０５号,,27,114,5330033,,,,,,,2023-06-29,1,,,,,アイリスケイビホショウ,0
112,1120001256090,新規,0,2023-06-29,2023-06-29,株式会社アシスト,,株式会社,大阪府,大阪市東住吉区,杭全４丁目１－１５ツクイアクト８８－１Ｆ,,27,121,5460002,,,,,,,2023-06-29,1,,,,,アシスト,0
115,1120101067784,新規,0,2023-06-29,2023-06-29,義達国際株式会社,,株式会社,大阪府,貝塚市,二色北町１－１５カワサキ貝塚倉庫２階（２０６）,,27,208,5970092,,,,,,,2023-06-29,1,,,,,ギタツコクサイ,0
117,1130001074599,新規,0,2023-06-29,2023-06-29,億雍株式会社,,株式会社,京都府,京都市中京区,天神山町２８０番地石勘ビル５Ｆ－０７,,26,104,6048221,,,,,,,2023-06-29,1,,,,,オクヨウ,0
118,1130001074616,新規,0,2023-06-29,2023-06-29,株式会社スリーカウント,,株式会社,京都府,京都市下京区,小稲荷町８５番地８,,26,106,6008208,,,,,,,2023-06-29,1,,,,,スリーカウント,0
122,1140001130640,新規,0,2023-06-29,2023-06-29,株式会社山和,,株式会社,兵庫県,西宮市,南郷町９番５２号,,28,204,6620038,,,,,,,2023-06-29,1,,,,,サンワ,0
123,1140001130681,新規,0,2023-06-29,2023-06-29,株式会社カガ,,株式会社,兵庫県,尼崎市,御園町２４番地尼崎第一ビル４０２号,,28,202,6600861,,,,,,,2023-06-29,1,,,,,カガ,0
128,1170001017661,新規,0,2023-06-29,2023-06-29,株式会社ＲＩＲＩＨＡＲＵ,,株式会社,和歌山県,和歌山市,三葛５５６－１３,,30,201,6410011,,,,,,,2023-06-29,1,,,,,リリハル,0
132,1180001156896,新規,0,2023-06-29,2023-06-29,株式会社スリール,,株式会社,愛知県,知多郡阿久比町,大字卯坂字向山下１番地９サンヒルズＪ２０１号,,23,441,4702212,,,,,,,2023-06-29,1,,,,,スリール,0
139,1200003005999,新規,0,2023-06-29,2023-06-29,合同会社ＳＯＵＬＡＢＯ,,合同会社,岐阜県,山県市,徳永２０５番地１,,21,215,5012313,,,,,,,2023-06-29,1,,,,,ソウラボ,0
154,1290001102096,新規,0,2023-06-29,2023-06-29,株式会社Ｎ,,株式会社,福岡県,糟屋郡宇美町,桜原１丁目４番３号,,40,341,8112109,,,,,,,2023-06-29,1,,,,,エヌ,0
157,1290003014075,新規,0,2023-06-29,2023-06-29,アドバンス・ラボ合同会社,,合同会社,福岡県,福岡市中央区,大名１丁目９番２１－２０２号,,40,133,8100041,,,,,,,2023-06-29,1,,,,,アドバンスラボ,0
170,1360001032204,新規,0,2023-06-29,2023-06-29,株式会社Ｄｉｍｅ,,株式会社,沖縄県,石垣市,字新川８７－３,,47,207,9070024,,,,,,,2023-06-29,1,,,,,ダイム,0
171,1360003013094,新規,0,2023-06-29,2023-06-29,合同会社小橋川テント,,合同会社,沖縄県,浦添市,港川１丁目３４番５号,,47,208,9012134,,,,,,,2023-06-29,1,,,,,コバシガワテント,0
174,1360005006872,新規,0,2023-06-29,2023-06-29,一般社団法人縁ｊｏｉｎｔ,,その他の設立登記法人,沖縄県,うるま市,与那城屋慶名４６７番地７７,,47,213,9042304,,,,,,,2023-06-29,1,,,,,エンジョイント,0
188,1430001089419,新規,0,2023-06-29,2023-06-29,株式会社レリオン,,株式会社,北海道,札幌市中央区,大通西７丁目１－１井門札幌パークフロント９階,,01,101,0600042,,,,,,,2023-06-29,1,,,,,レリオン,0
189,1430001089427,新規,0,2023-06-29,2023-06-29,株式会社高笠,00131012,株式会社,北海道,北広島市,西の里南２丁目１２番地５,,01,234,0611106,,,,,,,2023-06-29,1,,,,,タカガサ,0
195,1460005001574,新規,0,2023-06-29,2023-06-29,釧路中央税理士法人,,その他の設立登記法人,北海道,釧路市,愛国西４丁目２番２号,,01,206,0850057,,,,,,,2023-06-29,1,,,,,クシロチュウオウ,0
199,1500005008623,新規,0,2023-06-29,2023-06-29,特定非営利活動法人玉津サッカークラブ,,その他の設立登記法人,愛媛県,西条市,下島山甲２０５５番地６０,,38,206,7930006,,,,,,,2023-06-29,1,,,,,タマツサッカークラブ,0
200,1700150117828,新規,0,2023-06-29,2023-06-29,Ｓｈｅｎｚｈｅｎ　Ｌｉｎｆｅｎｇ　Ｂａｏｚｈｕａｎｇ　ＺｈｉＰｉｎ　Ｙｏｕｘｉａｎｇｏｎｇｓｉ,,外国会社等,,,,,,,,ＣＮ，５１８０００，Ｇｕａｎｇｄｏｎｇ，Ｓｈｅｎｚｈｅｎｓｈｉ，２０１　２Ｈａｏ　Ｓａｎｘｉａｎｇ　Ｇｏｎｇｃｕｎ　Ｓａｎｌｉａｎｓｈｅｑｕ　Ｌｏｎｇｈｕａｊｉｅｄａｏ，Ｌｏｎｇｈｕａｑｕ,,,,,,2023-06-29,1,,,,,シンセンリンフウホウソウセイヒンユウゲンコウシ,0
201,1700150117836,新規,0,2023-06-29,2023-06-29,ＤｏｎｇＧｕａｎＳｈｉ　ＤｕｏＦｅｉ　ＳｈａｎｇＭａｏ　Ｃｏ．，Ｌｔｄ．,,外国会社等,,,,,,,,Ｒｏｏｍ　３０３　Ｂｕｉｌｄｉｎｇ　１　Ｈａｏ　ＮＯ．２　Ｒｏａｄ　ＨｕａｎｇＤｏｎｇＪｉｎＴｉａｎ，ＦｅｎｇＧａｎｇ　Ｔｏｗｎ　ＤｏｎｇＧｕａｎ　ＧｕａｎｇＤｏｎｇ,,,,,,2023-06-29,1,,,,,トウカンシデユオフエイトレーデイングカンパニーリミテツド,0
202,1700150117844,新規,0,2023-06-29,2023-06-29,ｓｈｅｎｚｈｅｎｓｈｉｊｉｎｘｉａｎｇｙａｎｇｈｕａｍａｏｙｉｙｏｕｘｉａｎｇｏｎｇｓｉ,,外国会社等,,,,,,,,ｌｏｎｇｇａｎｇｄｉｓｔｒｉｃｔ　ｂａｎｔｉａｎ　ｓｔｒｅｅｔ　ｂａｎｔｉａｎ　ｃｏｍｍｕｎｉｔｙ　ｈｕａｎｇｊｉｎ　ｍｏｕｎｔａｉｎ　１１１－３　ｓｈｅｎｚｈｅｎ　ｇｕａｎｇｄｏｎｇ　５１８００４,,,,,,2023-06-29,1,,,,,シエンジエンシージンシヤンヤンフワーマオイーヨウシエンゴンスー,0
203,1700150117852,新規,0,2023-06-29,2023-06-29,Ｓｈｅｎｚｈｅｎ　ｓｈｉ　ｙｉ　ｂｏ　ｔｅ　ｇｕｏｊｉ　ｍａｏｙｉ　ｙｏｕｘｉａｎ　ｇｏｎｇｓｉ,,外国会社等,,,,,,,,ｇｕａｎｇｍｉｎｇ　ｘｉｎｑｕ　ｇｕａｎｇｍｉｎｇ　ｊｉｅｄａｏ　ｊｉｎｇ　ｋｏｕ　ｃｕｎ　２１　ｄ　ｓｈｅｎｚｈｅｎ　ｓｈｉ　Ｇｕａｎｇｄｏｎｇ　ｓｈｅｎｇ,,,,,,2023-06-29,1,,,,,シエンジエンシーイーボーターグオジーマオイーヨウシエンゴンスー,0
204,1700150117860,新規,0,2023-06-29,2023-06-29,Ｓｈｅｎｚｈｅｎ　Ｂｕｑｉａｎｌａｏ　Ｔｅｃｈｎｏｌｏｇｙ　Ｃｏ．，Ｌｔｄ．,,外国会社等,,,,,,,,Ａ３１０，Ｂｕｉｌｄｉｎｇ　Ｆ，Ｚｈｏｎｇｈａｏ　Ｊｉｎｙｕｃｈｅｎｇ　Ｉｎｄｕｓｔｒｉａｌ　Ｐａｒｋ　Ｘｉａｎｇｊｉａｏｔａｎｇ　Ｃｏｍｍｕｎｉｔｙ，Ｂａｎｔｉａｎ　Ｓｔｒｅｅｔ，Ｌｏｎｇｇａｎｇ　Ｄｉｓｔｒｉｃｔ　Ｓｈｅｎｚｈｅｎ　Ｇｕａｎｇｄｏｎｇ　５１８０００　ＣＮ,,,,,,2023-06-29,1,,,,,シエンジエンシーブーチエンラオコージーヨウシエンゴンスー,0
205,1700150117902,新規,0,2023-06-29,2023-06-29,ｓｈｅｎｚｈｅｎｓｈｉ　ｆｕｙａｎｇｘｉｎ　ｆａｎｇｚｈｉｐｉｎ　ｙｏｕｘｉａｎｇｏｎｇｓｉ,,外国会社等,,,,,,,,４ｔｈ　Ｆｌｏｏｒ，Ｎｏ．３　Ｂｕｉｌｄｉｎｇ，Ｐｕｘｉａ　Ｉｎｄｕｓｔｒｉａｌ　Ｚｏｎｅ，Ｌｉｕｙｕｅ　Ｃｏｍｍｕｎ　Ｈｅｎｇｇａｎｇ　Ｓｔ，Ｓｈｅｎｚｈｅｎ　Ｌｏｎｇｇａｎｇ　Ｄｉｓｔｒｉｃｔ　５１８１７３　ＣＮ,,,,,,2023-06-29,1,,,,,シエンジエンシフーヤンシンフアンジービンヨウシエンゴンス,0
213,2010001236499,新規,0,2023-06-29,2023-06-29,ＳＨＩＫＩ株式会社,,株式会社,東京都,千代田区,神田神保町３丁目２番地１,,13,101,1010051,,,,,,,2023-06-29,1,,,,,シキ,0
221,2010402005874,新規,0,2023-06-29,2023-06-29,有限会社三光商会,,有限会社,東京都,港区,白金１丁目２番１２号,,13,103,1080072,,,,,,,2023-06-29,1,,,,,,0
226,2010403030392,新規,0,2023-06-29,2023-06-29,ジャパンインフラ３６号合同会社,,合同会社,東京都,港区,元赤坂１丁目１番７号,,13,103,1070051,,,,,,,2023-06-29,1,,,,,ジャパンインフラサンジュウロクゴウ,0
227,2010403030401,新規,0,2023-06-29,2023-06-29,日本イノベーティブフィジックス合同会社,,合同会社,東京都,港区,港南２丁目１６番４号品川グランドセントラルタワー８階,,13,103,1080075,,,,,,,2023-06-29,1,,,,,ニホンイノベーティブフィジックス,0
230,2010703006753,新規,0,2023-06-29,2023-06-29,アンドシップ合同会社,,合同会社,東京都,品川区,東品川１丁目３６番３号,,13,109,1400002,,,,,,,2023-06-29,1,,,,,アンドシップ,0
238,2011003017045,新規,0,2023-06-29,2023-06-29,合同会社シェアワークス,,合同会社,東京都,渋谷区,渋谷２丁目１９－１５宮益坂ビルディング６０９,,13,113,1500002,,,,,,,2023-06-29,1,,,,,シェアワークス,0
240,2011201024743,新規,0,2023-06-29,2023-06-29,株式会社ＣＯＢＢ,,株式会社,東京都,中野区,中央２丁目３０－９－２２８,,13,114,1640011,,,,,,,2023-06-29,1,,,,,コブ,0
243,2011301028826,新規,0,2023-06-29,2023-06-29,ＲＦＰ株式会社,,株式会社,東京都,杉並区,高井戸東４丁目３番２２号,,13,115,1680072,,,,,,,2023-06-29,1,,,,,アールエフピー,0
244,2011503005664,新規,0,2023-06-29,2023-06-29,合同会社クローバー,,合同会社,東京都,荒川区,東日暮里６丁目５１番１０－１００３号,,13,118,1160014,,,,,,,2023-06-29,1,,,,,クローバー,0
249,2012801022467,新規,0,2023-06-29,2023-06-29,株式会社木瓜舎,,株式会社,東京都,国立市,東１丁目４番地の２０,,13,215,1860002,,,,,,,2023-06-29,1,,,,,モクカシャ,0
257,2021001079441,新規,0,2023-06-29,2023-06-29,株式会社Ｂｏｕｎｄｙ,,株式会社,神奈川県,横須賀市,秋谷２丁目７番８号,,14,201,2400105,,,,,,,2023-06-29,1,,,,,バウンディー,0
262,2040001128999,新規,0,2023-06-29,2023-06-29,株式会社森設備工房,,株式会社,千葉県,四街道市,内黒田３０８番地１３,,12,228,2840013,,,,,,,2023-06-29,1,,,,,モリセツビコウボウ,0
264,2040003022861,新規,0,2023-06-29,2023-06-29,合同会社まてなへあ,,合同会社,千葉県,松戸市,五香４丁目４０番地の１０,,12,207,2702213,,,,,,,2023-06-29,1,,,,,マテナヘア,0
280,2120001256008,新規,0,2023-06-29,2023-06-29,新創株式会社,,株式会社,大阪府,大阪市中央区,瓦屋町３丁目９－７シティライフディナスティ日本橋２０４号室,,27,128,5420066,,,,,,,2023-06-29,1,,,,,シンソウ,0
281,2120001256073,新規,0,2023-06-29,2023-06-29,株式会社Ａコマース,,株式会社,大阪府,大阪市住吉区,上住吉１丁目１番６号,,27,120,5580046,,,,,,,2023-06-29,1,,,,,エーコマース,0
290,2130003008810,新規,0,2023-06-29,2023-06-29,エスプロエ合同会社,,合同会社,京都府,長岡京市,長岡１丁目２０－２,,26,209,6170823,,,,,,,2023-06-29,1,,,,,エスプロエ,0
295,2140001130680,新規,0,2023-06-29,2023-06-29,株式会社キリシマ,,株式会社,兵庫県,尼崎市,御園町２４番地尼崎第一ビル４０２号,,28,202,6600861,,,,,,,2023-06-29,1,,,,,キリシマ,0
298,2140003019237,新規,0,2023-06-29,2023-06-29,合同会社北神興業,,合同会社,兵庫県,神戸市西区,南別府１丁目６番１－１０７,,28,111,6512116,,,,,,,2023-06-29,1,,,,,ホクシンコウギョウ,0
308,2180001156904,新規,0,2023-06-29,2023-06-29,航空ネットワークコンサルタンツ株式会社,,株式会社,愛知県,名古屋市中区,千代田１丁目１１番２６号,,23,106,4600012,,,,,,,2023-06-29,1,,,,,コウクウネットワークコンサルタンツ,0
309,2180001156920,新規,0,2023-06-29,2023-06-29,株式会社ＢＵＺＺＯＮＥ,,株式会社,愛知県,名古屋市中区,栄２丁目９番５号,,23,106,4600008,,,,,,,2023-06-29,1,,,,,バゾーン,0
311,2180003025405,新規,0,2023-06-29,2023-06-29,合同会社ＭＥ,,合同会社,愛知県,名古屋市中村区,名駅４丁目２４番５号第２森ビル４０１,,23,105,4500002,,,,,,,2023-06-29,1,,,,,エムイー,0
312,2180003025421,新規,0,2023-06-29,2023-06-29,Ｈ＆Ｓ　ＥＮＴＥＲＰＲＩＳＥＳ合同会社,,合同会社,愛知県,名古屋市熱田区,神宮３丁目５番７号,,23,109,4560031,,,,,,,2023-06-29,1,,,,,エイチアンドエスエンタープライゼズ,0
314,2180301037507,新規,0,2023-06-29,2023-06-29,株式会社ファーストスター,,株式会社,愛知県,安城市,東栄町６丁目２４番地１７ジュネス神谷１０１,,23,212,4460007,,,,,,,2023-06-29,1,,,,,ファーストスター,0
318,2210001019363,新規,0,2023-06-29,2023-06-29,株式会社ＥＶＩＲＯシャンパーニュ,,株式会社,福井県,福井市,安波賀中嶋町第６号２番地,,18,201,9180000,,,,,,,2023-06-29,1,,,,,エビロシャンパーニュ,0
319,2220001025476,新規,0,2023-06-29,2023-06-29,株式会社ＴＨＥ,,株式会社,石川県,金沢市,長土塀３丁目６‐１シティハウス金沢犀川１０１号,,17,201,9200867,,,,,,,2023-06-29,1,,,,,ザ,0
324,2240001061734,新規,0,2023-06-29,2023-06-29,株式会社縁,,株式会社,広島県,東広島市,三永２丁目１４番２７－１０１号,,34,212,7390026,,,,,,,2023-06-29,1,,,,,エン,0
335,2290003014082,新規,0,2023-06-29,2023-06-29,合同会社綿貫ホールディングス,,合同会社,福岡県,福岡市南区,大池１丁目２３番８号インパレス野間大池２０５,,40,134,8150073,,,,,,,2023-06-29,1,,,,,ワタヌキホールディングス,0
340,2310005008690,新規,0,2023-06-29,2023-06-29,一般社団法人長崎県トライアスロン協会,,その他の設立登記法人,長崎県,長崎市,鶴見台２丁目２３番２３号,,42,201,8500984,,,,,,,2023-06-29,1,,,,,ナガサキケントライアスロンキョウカイ,0
375,2500003003055,新規,0,2023-06-29,2023-06-29,ＢｅｔｏＬａｂｏ合同会社,,合同会社,愛媛県,今治市,常盤町４丁目４番３０号１Ｆ,,38,202,7940015,,,,,,,2023-06-29,1,,,,,ベトラボ,0
376,2700150117827,新規,0,2023-06-29,2023-06-29,ｌｏｎｇｙａｎｓｈｉｂｉｔｕｘｉｍａｏｙｉｙｏｕｘｉａｎｇｏｎｇｓｉ,,外国会社等,,,,,,,,ｚｈａｎｇｐｉｎｇｓｈｉｊｉｎｇｃｈｅｎｇｊｉｅｄａｏｈｅｐｉｎｇｂｅｉｌｕ６１５ｈａｏｔｉａｎｓｈｏｕｙａｎｇｇｕａｎｇｃｈｅｎｇｙｉｑｉ１ｚｈｕａｎｇ９０８ｓｈｉｌｏｎｇｙａｎ　ｆｕｊｉａｎ,,,,,,2023-06-29,1,,,,,リユウガンシヘイトツセイボウエキユウゲンコウシ,0
377,2700150117835,新規,0,2023-06-29,2023-06-29,ＣｈｅｎｇＤｕ　ＲｏｎｇＢｉｎ　Ｔｒａｄｉｎｇ　Ｃｏ．，Ｌｔｄ．,,外国会社等,,,,,,,,Ｒｏｏｍ　１４１５，Ｕｎｉｔ　３，１８ｔｈ　Ｆｌｏｏｒ，Ｂｕｉｌｄｉｎｇ　１　Ｃｈｕａｎｇ　ＮＯ．２７　ＱｉｎｇＬｏｎｇ　Ｓｔｒｅｅｔ　ＱｉｎｇＹａｎｇ　Ｄｉｓｔｒｉｃｔ　ＣｈｅｎｇＤｕ,,,,,,2023-06-29,1,,,,,セイトロンビントレーデイングカンパニーリミテツド,0
378,2700150117843,新規,0,2023-06-29,2023-06-29,Ｊｕｓｔｅｃｈ　Ｅｃｏｍｍｅｒｃｅ　Ｌｉｍｉｔｅｄ,,外国会社等,,,,,,,,ＦＬＡＴ／ＲＭ　Ａ　９／Ｆ　ＳＩＬＶＥＲＣＯＲＰ　ＩＮＴＥＲＮＡＴＩＯＮＡＬ　ＴＯＷＥＲ　７０７－７１３　ＮＡＴＨＡＮ　ＲＯＡＤ　ＭＯＮＧＫＯＫ　ＫＬ　ＨＯＮＧ　ＫＯＮＧ,,,,,,2023-06-29,1,,,,,ジートンデイエンズーシヤンウーコージーヨウシエンゴンスー,0
379,2700150117851,新規,0,2023-06-29,2023-06-29,ＳｈａｎＸｉＤｉｎｇＹｕａｎＳｈｅｎｇＫｅＪｉＹｏｕＸｉａｎＧｏｎｇＳｉ,,外国会社等,,,,,,,,ＳｈａｎＸｉＳｈｅｎｇＬｖＬｉａｎｇＳｈｉＬｉｎＸｉａｎＭｕＧｕａＰｉｎｇＸｉａｎｇＹｕＬｉｎＣｕｎ（ＣｕｎＭｉｎＺｉＪｉａｎＦａｎｇ）,,,,,,2023-06-29,1,,,,,シヤンシーデインユエンシヨンコージーヨウシエンゴンスー,0
388,3010001236481,新規,0,2023-06-29,2023-06-29,株式会社アクシスＩＴ,,株式会社,東京都,千代田区,丸の内１丁目１１番１号,,13,101,1000005,,,,,,,2023-06-29,1,,,,,アクシスアイティ,0
399,3010401175379,新規,0,2023-06-29,2023-06-29,株式会社タイドスクエア・ジャパン,,株式会社,東京都,港区,虎ノ門４丁目３－１－２７階,,13,103,1050001,,,,,,,2023-06-29,1,,,,,タイドスクエアジャパン,0
413,3010903008268,新規,0,2023-06-29,2023-06-29,合同会社ＲｕＣｉ,,合同会社,東京都,世田谷区,太子堂４丁目５番３０号,,13,112,1540004,,,,,,,2023-06-29,1,,,,,ルーシー,0
418,3011003017060,新規,0,2023-06-29,2023-06-29,ＢＥＮＴＯ　ＯＦ　ＪＡＰＡＮ合同会社,,合同会社,東京都,目黒区,大橋２丁目４番２１号グリーンランドビル６０１,,13,110,1530044,,,,,,,2023-06-29,1,,,,,ベントウオブジャパン,0
424,3011501029466,新規,0,2023-06-29,2023-06-29,東南株式会社,,株式会社,東京都,北区,中里１丁目２１番２号中里ビル１Ｆ,,13,117,1140015,,,,,,,2023-06-29,1,,,,,,0
427,3011701026379,新規,0,2023-06-29,2023-06-29,藤沢第二期株式会社,,株式会社,東京都,江戸川区,中葛西５丁目２０番９号ＳＵＮＧＩОＩＡＮоｒｔｈ１０１,,13,123,1340083,,,,,,,2023-06-29,1,,,,,フジサワダイニキ,0
433,3012303001844,新規,0,2023-06-29,2023-06-29,合同会社一三五,,合同会社,東京都,町田市,三輪町１５２５番地３まほーむ三輪町３号,,13,209,1950054,,,,,,,2023-06-29,1,,,,,イチサンゴ,0
441,3020001152257,新規,0,2023-06-29,2023-06-29,オプティセル株式会社,,株式会社,神奈川県,横浜市中区,桜木町１丁目１０１番地１クロスゲート７階,,14,104,2310062,,,,,,,2023-06-29,1,,,,,オプティセル,0
442,3020001152281,新規,0,2023-06-29,2023-06-29,Ｍａｒｋｓｕｐ株式会社,,株式会社,神奈川県,横浜市中区,曙町４丁目５９番地,,14,104,2310057,,,,,,,2023-06-29,1,,,,,マークスアップ,0
445,3020003024108,新規,0,2023-06-29,2023-06-29,ＳＫ合同会社,,合同会社,神奈川県,川崎市幸区,東小倉１５番７－６０３号ドメス新川崎,,14,132,2120033,,,,,,,2023-06-29,1,,,,,エスケー,0
450,3021001079424,新規,0,2023-06-29,2023-06-29,株式会社リパル,,株式会社,神奈川県,平塚市,四之宮３丁目６番３３号新倉ビル１０４,,14,203,2540014,,,,,,,2023-06-29,1,,,,,リパル,0
451,3030001154640,新規,0,2023-06-29,2023-06-29,ＳＨＩＯＭＯＮ株式会社,,株式会社,埼玉県,さいたま市大宮区,三橋２丁目５３９番地３,,11,103,3300856,,,,,,,2023-06-29,1,,,,,シオモン,0
453,3030003022028,新規,0,2023-06-29,2023-06-29,合同会社あすとび,,合同会社,埼玉県,富士見市,東みずほ台４丁目３－１４Ｏｒｉｅｎｓ１０２,,11,235,3540015,,,,,,,2023-06-29,1,,,,,アストビ,0
459,3040001128998,新規,0,2023-06-29,2023-06-29,株式会社ＴＡＫＵＭＩ,,株式会社,千葉県,市川市,市川南１丁目２番３号１０２号室,,12,203,2720033,,,,,,,2023-06-29,1,,,,,タクミ,0
460,3040001129006,新規,0,2023-06-29,2023-06-29,ＳＫＡＣ株式会社,,株式会社,千葉県,船橋市,夏見３丁目１９番１０－１０２号,,12,204,2730865,,,,,,,2023-06-29,1,,,,,エスケーエーシー,0
463,3040003022860,新規,0,2023-06-29,2023-06-29,Ｐｒｅｓｔｉｇｉｅｕｘ　Ｈｏｌｄｉｎｇｓ　Ｇｒｏｕｐ合同会社,,合同会社,千葉県,習志野市,鷺沼台３丁目１２番１７号,,12,216,2750015,,,,,,,2023-06-29,1,,,,,プレステージックスホールディングスグループ,0
478,3110001037647,新規,0,2023-06-29,2023-06-29,株式会社ＣｏｌｌａＷｉｎｄ,,株式会社,新潟県,新潟市西区,五十嵐２の町８０５０,,15,107,9502102,,,,,,,2023-06-29,1,,,,,コラワインド,0
483,3120001256072,新規,0,2023-06-29,2023-06-29,株式会社ＮＡＭＥ,,株式会社,大阪府,大阪市中央区,東心斎橋１丁目１６番２０号心斎橋ステージアビル５階,,27,128,5420083,,,,,,,2023-06-29,1,,,,,ネーム,0
487,3120101067782,新規,0,2023-06-29,2023-06-29,株式会社Ｍａｃｈｉｄａホールディングス,,株式会社,大阪府,堺市北区,北花田町４丁１１９番地１,,27,146,5918002,,,,,,,2023-06-29,1,,,,,マチダホールディングス,0
488,3120101067790,新規,0,2023-06-29,2023-06-29,エイエイト株式会社,,株式会社,大阪府,和泉市,唐国町３丁目９番１９号,,27,219,5941151,,,,,,,2023-06-29,1,,,,,エイエイト,0
491,3130001074606,新規,0,2023-06-29,2023-06-29,株式会社シンシア,,株式会社,京都府,京都市左京区,浄土寺下南田町１０３－１Ｆ,,26,103,6068404,,,,,,,2023-06-29,1,,,,,シンシア,0
492,3130001074614,新規,0,2023-06-29,2023-06-29,株式会社花住坂,,株式会社,京都府,京田辺市,花住坂１丁目１番地３,,26,211,6100352,,,,,,,2023-06-29,1,,,,,カスミザカ,0
495,3130003008818,新規,0,2023-06-29,2023-06-29,マスターピーシーズジャパン合同会社,,合同会社,京都府,京都市西京区,樫原蛸田町４０番地クレセントオークス２０２号室,,26,111,6158161,,,,,,,2023-06-29,1,,,,,マスターピーシーズジャパン,0
501,3140001130639,新規,0,2023-06-29,2023-06-29,株式会社誠和,,株式会社,兵庫県,西宮市,南郷町９番５２号,,28,204,6620038,,,,,,,2023-06-29,1,,,,,セイワ,0
506,3160001025127,新規,0,2023-06-29,2023-06-29,株式会社ＫＡＫＩＭＡＳＡ,,株式会社,滋賀県,大津市,粟津町５番７号,,25,201,5200832,,,,,,,2023-06-29,1,,,,,カキマサ,0
511,3180001156903,新規,0,2023-06-29,2023-06-29,Ｒｏａｄ株式会社,,株式会社,愛知県,名古屋市中区,新栄１丁目４９番６号ＫＤＸ千早レジデンス１１０８号,,23,106,4600007,,,,,,,2023-06-29,1,,,,,ロード,0
526,3290001102045,新規,0,2023-06-29,2023-06-29,株式会社エビュー,,株式会社,福岡県,福岡市南区,大楠２丁目４番１４号第２フジサンビル２０２号,,40,134,8150082,,,,,,,2023-06-29,1,,,,,エビュー,0
530,3290003014081,新規,0,2023-06-29,2023-06-29,合同会社霧島ライスパック,,合同会社,福岡県,福岡市中央区,赤坂２丁目４番５－１０３号,,40,133,8100042,,,,,,,2023-06-29,1,,,,,キリシマライスパック,0
543,3370001050112,新規,0,2023-06-29,2023-06-29,株式会社Ｄｗｅｌｌｉｎｇ,,株式会社,宮城県,仙台市若林区,荒井南２９番地の５,,04,103,9840039,,,,,,,2023-06-29,1,,,,,ドゥエリング,0
560,3430001089417,新規,0,2023-06-29,2023-06-29,Ｒｏｋａ株式会社,,株式会社,北海道,札幌市中央区,南九条西４丁目６－１７－２０１,,01,101,0640809,,,,,,,2023-06-29,1,,,,,ロカ,0
561,3430001089425,新規,0,2023-06-29,2023-06-29,株式会社ＧＲＣオートリース,,株式会社,北海道,札幌市東区,丘珠町５２４番地９３,,01,103,0070880,,,,,,,2023-06-29,1,,,,,ジーアールシーオートリース,0
572,3500005008621,新規,0,2023-06-29,2023-06-29,一般社団法人カラフルドットライフ,,その他の設立登記法人,愛媛県,松山市,石手３丁目８番８号,,38,201,7900852,,,,,,,2023-06-29,1,,,,,,0
573,3700150117529,新規,0,2023-06-29,2023-06-16,日本維新の会　福岡市議団,,その他,福岡県,福岡市中央区,天神１丁目８番１号,,40,133,8100001,,,,,,,2023-06-16,1,,,,,ニツポンイシンノカイフクオカシギダン,0
574,3700150117826,新規,0,2023-06-29,2023-06-29,ｊｉｌｉｎｓｈｉｊｉｊｉｎｇｄｉａｎｚｉｓｈａｎｇｗｕｙｏｕｘｉａｎｇｏｎｇｓｉ,,外国会社等,,,,,,,,ｃｈｕａｎｙｉｎｇｑｕ　ｇｕａｎｇｈｕａｌｕ１ｈａｏｂｅｉｑｉｇｕａｎｇｃｈａｎｇＡｚｕｏ１４ｃｅｎｇ２３ｈａｏｊｉｌｉｎ　ｊｉｌｉｎ１３２０１１ＣＮ,,,,,,2023-06-29,1,,,,,キツリンシキキヨウデンシシヨウムユウゲンコウシ,0
575,3700150117834,新規,0,2023-06-29,2023-06-29,ＣｈｅｎＤｕ　ＪｕｎＨｏｎｇＸｉｎｇ　Ｔｅｃｈｎｏｌｏｇｙ　Ｃｏ．，Ｌｔｄ．,,外国会社等,,,,,,,,ＮＯ．７８９，Ｒｏａｄ　ＧａｎｇＤａ　Ｎｏｒｔｈ　Ａｒｅａ　Ｃｈｅｎｇｄｕ　Ｍｏｄｅｒｎ　Ｉｎｄｕｓｔｒｉａｌ　Ｐａｒｋ　ＰｉＤｕ　Ｄｉｓｔｒｉｃｔ　ＣｈｅｎｇＤｕ,,,,,,2023-06-29,1,,,,,セイトグンホウセイテクノロジーカンパニーリミテツド,0
576,3700150117842,新規,0,2023-06-29,2023-06-29,ＨＩ－ＴＲＵＭＰ　ＴＥＣＨ　ＬＩＭＩＴＥＤ,,外国会社等,,,,,,,,ＲＭ　１００５　１０／Ｆ　ＨＯ　ＫＩＮＧ　ＣＯＭＭＥＲＣＩＡＬ　ＣＥＮＴＥＲ　２－１６　ＦＡ　ＹＵＥ　ＳＴＲＥＥＴ　ＭＯＮＧＯＫ　ＫＬ,,,,,,2023-06-29,1,,,,,ジンチユワンコージーヨウシエンゴンスー,0
577,3700150117850,新規,0,2023-06-29,2023-06-29,ｎｉｎｇｂｏｙｉｓｈｉｓｈａｎｇｍａｏｙｏｕｘｉａｎｇｏｎｇｓｉ,,外国会社等,,,,,,,,Ｒｏｏｍ　２０１（１２－２）Ｇｕａｎｇ’ａｎ　Ｒｏａｄ，Ｈａｉｓｈｕ　Ｄｉｓｔｒｉｃｔ，Ｎｉｎｇｂｏ　Ｃｉｔｙ，Ｚｈｅｊｉａｎｇ　Ｐｒｏｖｉｎｃｅ,,,,,,2023-06-29,1,,,,,ニンボーイーシーシヤンマオヨウシエンゴンスー,0
578,3700150117859,新規,0,2023-06-29,2023-06-29,Ｎｅｘｔｅｄｇｅ　Ｌａｂｓ　Ｉｎｃ,,外国会社等,,,,,,,,３Ｆ，Ｎｏ．１２，Ｚｈｏｕｚｉ　Ｓｔ．，Ｎｅｉｈｕ　Ｄｉｓｔ．，Ｔａｉｐｅｉ，Ｔａｉｗａｎ　１１４９３,,,,,,2023-06-29,1,,,,,ナイデイーコージーグーフエンヨウシエンゴンスー,0
590,4010001236332,新規,0,2023-06-29,2023-06-29,株式会社免疫健康開発,,株式会社,東京都,中央区,銀座１丁目２２－１１銀座大竹ビジデンス２Ｆ,,13,102,1040061,,,,,,,2023-06-29,1,,,,,メンエキケンコウカイハツ,0
591,4010001236431,新規,0,2023-06-29,2023-06-29,窓智化株式会社,,株式会社,東京都,中央区,新富１丁目１５番１１号マキプラザビル４０３,,13,102,1040041,,,,,,,2023-06-29,1,,,,,ソウチカ,0
592,4010001236506,新規,0,2023-06-29,2023-06-29,株式会社クレフラン,,株式会社,東京都,中央区,銀座１丁目２２番１１号銀座大竹ビジデンス２Ｆ,,13,102,1040061,,,,,,,2023-06-29,1,,,,,クレフラン,0
599,4010005036885,新規,0,2023-06-29,2023-06-29,ソーラーマスカットホールディングス一般社団法人,,その他の設立登記法人,東京都,千代田区,九段南３丁目７番７号成和綜合会計事務所内,,13,101,1020074,,,,,,,2023-06-29,1,,,,,ソーラーマスカットホールディングス,0
606,4010401175056,新規,0,2023-06-29,2023-06-29,株式会社Ｃｏａｃｈ　Ｇｒａｃｅ,,株式会社,東京都,港区,港南２丁目１５番１号品川インターシティＡ棟２８階,,13,103,1080075,,,,,,,2023-06-29,1,,,,,コーチグレイス,0
607,4010405022279,新規,0,2023-06-29,2023-06-29,ジャパンインフラホールディングス３８号一般社団法人,,その他の設立登記法人,東京都,港区,元赤坂１丁目１番７号,,13,103,1070051,,,,,,,2023-06-29,1,,,,,ジャパンインフラホールディングスサンジュウハチゴウ,0
618,4010903008275,新規,0,2023-06-29,2023-06-29,合同会社Ｔ＆Ａ,,合同会社,東京都,世田谷区,上野毛３丁目２３番１号サウススクエア１０５,,13,112,1580093,,,,,,,2023-06-29,1,,,,,ティーアンドエー,0
621,4011001155282,新規,0,2023-06-29,2023-06-29,ニフティデコライフ株式会社,,株式会社,東京都,渋谷区,道玄坂１丁目１０番８号渋谷道玄坂東急ビル２Ｆ－Ｃ,,13,113,1500043,,,,,,,2023-06-29,1,,,,,ニフティデコライフ,0
622,4011001155308,新規,0,2023-06-29,2023-06-29,株式会社エイト,,株式会社,東京都,渋谷区,代官山町９－１０ＳｏｄａＣＣｏ１Ｆ株式会社グリーンルーム内,,13,113,1500034,,,,,,,2023-06-29,1,,,,,エイト,0
625,4011101103414,新規,0,2023-06-29,2023-06-29,株式会社ミミフィーユ,,株式会社,東京都,新宿区,新宿２丁目５－１５小菅ビル５０５,,13,104,1600022,,,,,,,2023-06-29,1,,,,,ミミフィーユ,0
626,4011101103422,新規,0,2023-06-29,2023-06-29,株式会社Ｐｉｎｚ,,株式会社,東京都,新宿区,西新宿３丁目３番１３号西新宿水間ビル２Ｆ,,13,104,1600023,,,,,,,2023-06-29,1,,,,,ピンズ,0
630,4011303004815,新規,0,2023-06-29,2023-06-29,合同会社１１０２,,合同会社,東京都,杉並区,天沼３丁目２９－６,,13,115,1670032,,,,,,,2023-06-29,1,,,,,ユイイツムニ,0
633,4011601026932,新規,0,2023-06-29,2023-06-29,株式会社Ｐｒｏｐｅｅ,,株式会社,東京都,練馬区,中村１丁目８－２,,13,120,1760024,,,,,,,2023-06-29,1,,,,,プロッピー,0
635,4011701026378,新規,0,2023-06-29,2023-06-29,横浜山手町株式会社,,株式会社,東京都,江戸川区,中葛西５丁目２０番９号ＳＵＮＧＩＯＩＡＮｏｒｔｈ１０１,,13,123,1340083,,,,,,,2023-06-29,1,,,,,ヨコハマヤマテチョウ,0
644,4012703002739,新規,0,2023-06-29,2023-06-29,合同会社黒子サポート,,合同会社,東京都,東村山市,野口町１丁目２３番地３８第３ハシバハイツ３０１,,13,213,1890022,,,,,,,2023-06-29,1,,,,,クロコサポート,0
647,4013301050980,新規,0,2023-06-29,2023-06-29,悦之声株式会社,,株式会社,東京都,豊島区,池袋２丁目４９番１号高橋乾幸ビル３０１,,13,116,1710014,,,,,,,2023-06-29,1,,,,,エツノコエ,0
648,4013301050989,新規,0,2023-06-29,2023-06-29,Ｄ＆Ｇ　ＥＭＰＩＲＥ株式会社,,株式会社,東京都,豊島区,南大塚２丁目１１－１０ミモザビル３Ｆ,,13,116,1700005,,,,,,,2023-06-29,1,,,,,ディーアンドジーエンパイア,0
655,4021003013264,新規,0,2023-06-29,2023-06-29,合同会社ＳＡＢＢＡＴＨ,,合同会社,神奈川県,相模原市南区,磯部７１番地３,,14,153,2520327,,,,,,,2023-06-29,1,,,,,サバス,0
660,4030001154607,新規,0,2023-06-29,2023-06-29,株式会社ＩＤＥＡＳ,,株式会社,埼玉県,坂戸市,薬師町２２番地８第一石田ビル１０２号,,11,239,3500229,,,,,,,2023-06-29,1,,,,,イデアス,0
661,4030001154623,新規,0,2023-06-29,2023-06-29,株式会社武島建設,,株式会社,埼玉県,川口市,前川１丁目２６番１４号,,11,203,3330842,,,,,,,2023-06-29,1,,,,,タケシマケンセツ,0
662,4030001154631,新規,0,2023-06-29,2023-06-29,ＹＫＹ株式会社,,株式会社,埼玉県,川口市,南前川２丁目１１番２３号２０２,,11,203,3330846,,,,,,,2023-06-29,1,,,,,ワイケイワイ,0
663,4030003022035,新規,0,2023-06-29,2023-06-29,アップ音楽工房合同会社,,合同会社,埼玉県,川口市,坂下町２丁目１５番２５号,,11,203,3340003,,,,,,,2023-06-29,1,,,,,アップオンガクコウボウ,0
667,4040001128989,新規,0,2023-06-29,2023-06-29,株式会社湘北,,株式会社,千葉県,成田市,美郷台２丁目２５番地１,,12,211,2860013,,,,,,,2023-06-29,1,,,,,ショウホク,0
668,4040001128997,新規,0,2023-06-29,2023-06-29,Ｎｏｒｔｈ　Ｌｉｎｋ株式会社,,株式会社,千葉県,市川市,福栄２丁目２１番１１号,,12,203,2720137,,,,,,,2023-06-29,1,,,,,ノースリンク,0
674,4050001053047,新規,0,2023-06-29,2023-06-29,渡良瀬陸送商事株式会社,,株式会社,茨城県,古河市,尾崎３９５７番地９,,08,204,3060101,,,,,,,2023-06-29,1,,,,,ワタラセリクソウショウジ,0
680,4070003004987,新規,0,2023-06-29,2023-06-29,合同会社ＯＫＰ,,合同会社,群馬県,高崎市,双葉町９番２０号,,10,202,3700843,,,,,,,2023-06-29,1,,,,,オーケーピー,0
687,4110001037646,新規,0,2023-06-29,2023-06-29,株式会社萱森建設,,株式会社,新潟県,加茂市,大字加茂新田３９６９番地２,,15,209,9591311,,,,,,,2023-06-29,1,,,,,カヤモリケンセツ,0
694,4120001256047,新規,0,2023-06-29,2023-06-29,株式会社毅仁商事,,株式会社,大阪府,大阪市北区,天満橋２丁目２番１３号１Ｆ,,27,127,5300042,,,,,,,2023-06-29,1,,,,,タケミショウジ,0
695,4120001256063,新規,0,2023-06-29,2023-06-29,威音器楽器株式会社,,株式会社,大阪府,大阪市中央区,内本町２丁目３－１１内本町グリーンビル７Ｆ,,27,128,5400026,,,,,,,2023-06-29,1,,,,,イオンキガッキ,0
696,4120001256071,新規,0,2023-06-29,2023-06-29,株式会社ＣＨＥＥＳＥプラス,,株式会社,大阪府,大阪市中央区,南船場３丁目１１番１０号心斎橋太陽ビル,,27,128,5420081,,,,,,,2023-06-29,1,,,,,チーズプラス,0
697,4120003024352,新規,0,2023-06-29,2023-06-29,合同会社桜菫,,合同会社,大阪府,大阪市西区,九条南４丁目１番７号,,27,106,5500025,,,,,,,2023-06-29,1,,,,,サクラスミレ,0
700,4120101067781,新規,0,2023-06-29,2023-06-29,ハチイチドローン株式会社,,株式会社,大阪府,羽曳野市,野１０５番地の１,,27,222,5830884,,,,,,,2023-06-29,1,,,,,ハチイチドローン,0
708,4140001130638,新規,0,2023-06-29,2023-06-29,株式会社冨和,,株式会社,兵庫県,西宮市,南郷町９番５２号,,28,204,6620038,,,,,,,2023-06-29,1,,,,,フワ,0
709,4140001130662,新規,0,2023-06-29,2023-06-29,株式会社トライアブル,,株式会社,兵庫県,西宮市,上甲子園４丁目６番３号,,28,204,6638114,,,,,,,2023-06-29,1,,,,,トライアブル,0
710,4140001130670,新規,0,2023-06-29,2023-06-29,東方仙台株式会社,,株式会社,兵庫県,西宮市,鷲林寺南町１０－４５,,28,204,6620002,,,,,,,2023-06-29,1,,,,,トウホウセンダイ,0
711,4140001130687,新規,0,2023-06-29,2023-06-29,株式会社パインスマート,,株式会社,兵庫県,神戸市灘区,大和町４丁目２番５－２０１号,,28,102,6570031,,,,,,,2023-06-29,1,,,,,パインスマート,0
729,4180001156893,新規,0,2023-06-29,2023-06-29,株式会社スシル工業,,株式会社,愛知県,名古屋市中川区,尾頭橋３丁目１５番５号、裕富ビル,,23,110,4540012,,,,,,,2023-06-29,1,,,,,スシルコウギョウ,0
737,4180005020261,新規,0,2023-06-29,2023-06-29,一般社団法人常滑市身体障害者福祉協会,,その他の設立登記法人,愛知県,常滑市,大野町８丁目５３番地,,23,216,4790866,,,,,,,2023-06-29,1,,,,,トコナメシシンタイショウガイシャフクシキョウカイ,0
757,4290001102069,新規,0,2023-06-29,2023-06-29,株式会社ＴＥＡＬ,,株式会社,福岡県,福岡市博多区,板付４丁目８番１号,,40,132,8120888,,,,,,,2023-06-29,1,,,,,ティール,0
761,4290003014072,新規,0,2023-06-29,2023-06-29,Ｓｉｍｐｌｅ合同会社,,合同会社,福岡県,福岡市早良区,小田部１丁目２８－１４－１,,40,137,8140032,,,,,,,2023-06-29,1,,,,,シンプル,0
762,4290003014080,新規,0,2023-06-29,2023-06-29,ワールドクラス合同会社,,合同会社,福岡県,糸島市,前原西１丁目５－１８－６０１,,40,230,8191117,,,,,,,2023-06-29,1,,,,,ワールドクラス,0
764,4290801029643,新規,0,2023-06-29,2023-06-29,株式会社ゆうかり,,株式会社,福岡県,北九州市小倉南区,春ケ丘１０番７号（Ａ棟２０７）,,40,107,8020803,,,,,,,2023-06-29,1,,,,,ユウカリ,0
783,4420003002749,新規,0,2023-06-29,2023-06-29,合同会社Ｔｈｉｎｋ　ｒｉｃｈ,,合同会社,青森県,青森市,青葉３丁目１３番地２６プレステージＡ１０３号,,02,201,0300846,,,,,,,2023-06-29,1,,,,,シンクリッチ,0
792,4430003015188,新規,0,2023-06-29,2023-06-29,合同会社ｗａｎｏ,,合同会社,北海道,苫小牧市,明野新町５丁目２２番１９号,,01,213,0530054,,,,,,,2023-06-29,1,,,,,ワノ,0
800,4700150117833,新規,0,2023-06-29,2023-06-29,ＣｈｅｎｇＤｕ　ＪｕＬｉＨｅｎｇ　Ｔｅｃｈｎｏｌｏｇｙ　Ｃｏ．，Ｌｔｄ．,,外国会社等,,,,,,,,Ｒｏｏｍ　８０１　Ｓｃｉｅｎｃｅ　ａｎｄ　Ｔｅｃｈｎｏｌｏｇｙ　Ｂｕｉｌｄｉｎｇ　Ｓｏｕｔｈｗｅｓｔ　Ｐｅｔｒｏｌｅｕｍ　Ｕｎｉｖｅｒｓｉｔｙ，ＸｉｎＤｕ　Ｒｏａｄ　８　Ｈａｏ，ＸｉｎＤｕ　Ｄｔ　ＣｈｅｎｇＤｕ　ＳｉＣｈｕａｎ,,,,,,2023-06-29,1,,,,,セイトキヨリコウテクノロジーカンパニーリミテツド,0
801,4700150117841,新規,0,2023-06-29,2023-06-29,ＤｏｎｇＧｕａｎＳｈｉＹｕａｎＳｈａｎｇＤｉａｎＺｉＹｏｕＸｉａｎＧｏｎｇＳｉ,,外国会社等,,,,,,,,Ｒｏｏｍ　１２６，Ｂｕｉｌｄｉｎｇ　３，Ｄｅｚｈｏｕｃｈｅｎｇ，Ｎｏ．１　Ｌｉｎｃｕｎ　Ｌｉｎｚｈｏｎｇ　Ｒｏａｄ，Ｔａｎｇｘｉａ　Ｔｏｗｎ，Ｄｏｎｇｇｕａｎ　Ｃｉｔｙ，Ｇｕａｎｇｄｏｎｇ　Ｐｒｏｖｉｎｃｅ,,,,,,2023-06-29,1,,,,,ドングワンシーユエンシヤンデイエンズーヨウシエンゴンスー,0
802,4700150117858,新規,0,2023-06-29,2023-06-29,Ｓｈａｎｇｈａｉ　Ｊｉｎｇ　Ｙｕ　Ｎｅｔｗｏｒｋ　Ｔｅｃｈｎｏｌｏｇｙ　Ｃｏ．，Ｌｔｄ．,,外国会社等,,,,,,,,Ｔｈｅ　ｆｉｆｔｈ　ｂｕｉｌｄｉｎｇ，Ｒｏｏｍ　２９４７　Ｆｅｎｇｘｉａｎ　Ｄｉｓｔｒｉｃｔ，Ｕｎｉｔｅｄ　Ｎｏｒｔｈ　Ｒｏａｄ　Ｎｏ．２１５　Ｓｈａｎｇｈａｉ　２０１４９９,,,,,,2023-06-29,1,,,,,シヤンハイジンイーワンルオコージーヨウシエンゴンスー,0
813,5010001236281,新規,0,2023-06-29,2023-06-29,株式会社三ノ輪明神,,株式会社,東京都,中央区,日本橋３丁目３－３,,13,102,1030027,,,,,,,2023-06-29,1,,,,,ミノワメイシン,0
816,5010005036884,新規,0,2023-06-29,2023-06-29,ソーラーキャロットホールディングス一般社団法人,,その他の設立登記法人,東京都,千代田区,九段南３丁目７番７号成和綜合会計事務所内,,13,101,1020074,,,,,,,2023-06-29,1,,,,,ソーラーキャロットホールディングス,0
818,5010101015701,新規,0,2023-06-29,2023-06-29,株式会社Ｍ３７,,株式会社,東京都,八王子市,長沼町１０７６番地４,,13,201,1920907,,,,,,,2023-06-29,1,,,,,エムスリーセブン,0
825,5010401175286,新規,0,2023-06-29,2023-06-29,株式会社Ｔｈｉｎｋ,,株式会社,東京都,港区,新橋２丁目８番１号,,13,103,1050004,,,,,,,2023-06-29,1,,,,,シンク,0
826,5010401175336,新規,0,2023-06-29,2023-06-29,パラベラム・パートナーズ株式会社,,株式会社,東京都,港区,赤坂９丁目７番１号ミッドタウンタワー７階,,13,103,1070052,,,,,,,2023-06-29,1,,,,,パラベラムパートナーズ,0
827,5010401175419,新規,0,2023-06-29,2023-06-29,トライベース株式会社,,株式会社,東京都,港区,芝１丁目６番１０号,,13,103,1050014,,,,,,,2023-06-29,1,,,,,トライベース,0
829,5010405022278,新規,0,2023-06-29,2023-06-29,ジャパンインフラホールディングス３７号一般社団法人,,その他の設立登記法人,東京都,港区,元赤坂１丁目１番７号,,13,103,1070051,,,,,,,2023-06-29,1,,,,,ジャパンインフラホールディングスサンジュウナナゴウ,0
830,5010501050661,新規,0,2023-06-29,2023-06-29,株式会社秘祝,,株式会社,東京都,台東区,上野１丁目２番９号,,13,106,1100005,,,,,,,2023-06-29,1,,,,,ヒシュク,0
831,5010501050678,新規,0,2023-06-29,2023-06-29,株式会社ＨＯＭＥ　ＭＡＰ,,株式会社,東京都,台東区,下谷３丁目１番２４号,,13,106,1100004,,,,,,,2023-06-29,1,,,,,ホームマップ,0
833,5010601063266,新規,0,2023-06-29,2023-06-29,株式会社Ｆｏｒｅｓｔ＆Ｃｏ．,,株式会社,東京都,江東区,辰巳１丁目５番１７－２５０６号,,13,108,1350053,,,,,,,2023-06-29,1,,,,,フォレストアンドカンパニー,0
835,5010801034100,新規,0,2023-06-29,2023-06-29,株式会社ＲＡＤ　ＭＡＲＩＮＥ　ＣＬＵＢ,,株式会社,東京都,大田区,東矢口３丁目５番５－７０２号,,13,111,1460094,,,,,,,2023-06-29,1,,,,,ラッドマリンクラブ,0
840,5011001154993,新規,0,2023-06-29,2023-06-29,株式会社Ｐｏｓｔ　ＭＢＡ’ｓ,,株式会社,東京都,渋谷区,松濤１丁目２８－７シャトレー松濤４０３,,13,113,1500046,,,,,,,2023-06-29,1,,,,,ポストエムビーエーズ,0
869,5011601026923,新規,0,2023-06-29,2023-06-29,株式会社サイコロ・マネジメント,,株式会社,東京都,練馬区,大泉学園町６丁目２７番２０号,,13,120,1780061,,,,,,,2023-06-29,1,,,,,サイコロマネジメント,0
870,5011601026931,新規,0,2023-06-29,2023-06-29,株式会社ロックヒルファーム,,株式会社,東京都,練馬区,石神井町２丁目３４番１７－１０９号,,13,120,1770041,,,,,,,2023-06-29,1,,,,,ロックヒルファーム,0
881,5012801022472,新規,0,2023-06-29,2023-06-29,株式会社シマ,,株式会社,東京都,国分寺市,本町４丁目１３番１２号,,13,214,1850012,,,,,,,2023-06-29,1,,,,,シマ,0
886,5013301050988,新規,0,2023-06-29,2023-06-29,株式会社櫻景,,株式会社,東京都,豊島区,西巣鴨１丁目１９－１０,,13,116,1700001,,,,,,,2023-06-29,1,,,,,オウケイ,0
892,5020001152239,新規,0,2023-06-29,2023-06-29,ＳＰＡ株式会社,,株式会社,神奈川県,横浜市西区,みなとみらい３丁目７番１号オーシャンゲートみなとみらい８階,,14,103,2200012,,,,,,,2023-06-29,1,,,,,エスピーエー,0
897,5021003013263,新規,0,2023-06-29,2023-06-29,バーベル合同会社,,合同会社,神奈川県,藤沢市,葛原２０２０番地,,14,205,2520822,,,,,,,2023-06-29,1,,,,,バーベル,0
901,5030001154655,新規,0,2023-06-29,2023-06-29,株式会社ＵＲＡ　ＥＬＥＶＥＮ,,株式会社,埼玉県,羽生市,大字上岩瀬５番地１,,11,216,3480044,,,,,,,2023-06-29,1,,,,,ウライレブン,0
902,5030003022042,新規,0,2023-06-29,2023-06-29,ＴＨＡＮＨ　ＫＨＡＮＧ合同会社,,合同会社,埼玉県,坂戸市,伊豆の山町２１番地３９ＫＩＶオフィス伊豆の山２号棟Ａ号室,,11,239,3500275,,,,,,,2023-06-29,1,,,,,タインカン,0
903,5030003022050,新規,0,2023-06-29,2023-06-29,合同会社十人十色,,合同会社,埼玉県,川越市,大字小室６０６番地２,,11,201,3501106,,,,,,,2023-06-29,1,,,,,ジュウニントイロ,0
911,5040003022867,新規,0,2023-06-29,2023-06-29,合同会社ＮａＮａ,,合同会社,千葉県,柏市,布施１７０１－２,,12,217,2770825,,,,,,,2023-06-29,1,,,,,ナナ,0
914,5050001053038,新規,0,2023-06-29,2023-06-29,株式会社ＢＲＡＶＥ,,株式会社,茨城県,石岡市,瓦谷２１５７番地,,08,205,3150111,,,,,,,2023-06-29,1,,,,,ブレイヴ,0
915,5050001053046,新規,0,2023-06-29,2023-06-29,株式会社ＡＬ　ＲＩＨＬＡ,,株式会社,茨城県,筑西市,二木成１５２５番地,,08,227,3080841,,,,,,,2023-06-29,1,,,,,アルリフラ,0
933,5120001253844,新規,0,2023-06-29,2023-06-29,三祥株式会社,,株式会社,大阪府,大阪市中央区,船場中央２丁目１番４号船場センタービル４号館地下一階Ｂ１０８ＲＯＹＡＬＯＦＦＩＣＥ内,,27,128,5410055,,,,,,,2023-06-29,1,,,,,サンショウ,0
934,5120001255873,新規,0,2023-06-29,2023-06-29,株式会社自動レジ研究所,,株式会社,大阪府,大阪市淀川区,木川西２丁目２－１,,27,123,5320013,,,,,,,2023-06-29,1,,,,,ジドウレジケンキュウショ,0
935,5120001256054,新規,0,2023-06-29,2023-06-29,ＳＷＥＬＬ　ＳＯＣＩＥＴＹ株式会社,,株式会社,大阪府,大阪市天王寺区,大道２丁目６番１号,,27,109,5430052,,,,,,,2023-06-29,1,,,,,スウェルソサエティ,0
936,5120001256079,新規,0,2023-06-29,2023-06-29,株式会社エニシエイト,,株式会社,大阪府,大阪市東住吉区,矢田２丁目７番１２,,27,121,5460023,,,,,,,2023-06-29,1,,,,,エニシエイト,0
938,5120101067789,新規,0,2023-06-29,2023-06-29,木子木株式会社,,株式会社,大阪府,堺市南区,高倉台２丁１１番１３号,,27,145,5900117,,,,,,,2023-06-29,1,,,,,キコキ,0
942,5130001074612,新規,0,2023-06-29,2023-06-29,株式会社Ｔｏ　Ｊａｐａｎ,,株式会社,京都府,京都市下京区,深草町５８６番地１ＡＤ・ＣＯＭビル２階,,26,106,6008408,,,,,,,2023-06-29,1,,,,,トゥジャパン,0
947,5140001130686,新規,0,2023-06-29,2023-06-29,株式会社ホンダ不動産,,株式会社,兵庫県,神戸市西区,伊川谷町有瀬６９６－４７－２０１,,28,111,6512113,,,,,,,2023-06-29,1,,,,,ホンダフドウサン,0
955,5180001156901,新規,0,2023-06-29,2023-06-29,Ａｏｉ　ＰＬＡＮＴ株式会社,,株式会社,愛知県,名古屋市中区,栄４丁目２０番２号第２和光ビル１０５号室,,23,106,4600008,,,,,,,2023-06-29,1,,,,,アオイプラント,0
960,5180005020269,新規,0,2023-06-29,2023-06-29,医療法人テルミナ,,その他の設立登記法人,愛知県,名古屋市中村区,鳥居通４丁目１３番１,,23,105,4530044,,,,,,,2023-06-29,1,,,,,テルミナ,0
961,5190001030527,新規,0,2023-06-29,2023-06-29,株式会社ＡＩＳサポート,,株式会社,三重県,鈴鹿市,西条５丁目４０番地の１,,24,207,5130809,,,,,,,2023-06-29,1,,,,,エーアイエスサポート,0
969,5290001102084,新規,0,2023-06-29,2023-06-29,株式会社Ｍ．Ｅ．Ｃ,,株式会社,福岡県,糸島市,神在西３丁目９番１号,,40,230,8191148,,,,,,,2023-06-29,1,,,,,エムイーシー,0
970,5290003014047,新規,0,2023-06-29,2023-06-29,合同会社ショウキ,,合同会社,福岡県,春日市,一の谷１丁目１５１番地１,,40,218,8160852,,,,,,,2023-06-29,1,,,,,ショウキ,0
972,5290005019077,新規,0,2023-06-29,2023-06-29,一般社団法人福岡県社会福祉協会,,その他の設立登記法人,福岡県,福岡市東区,香住ヶ丘３丁目５番１５号,,40,131,8130003,,,,,,,2023-06-29,1,,,,,フクオカケンシャカイフクシキョウカイ,0
980,5360003013099,新規,0,2023-06-29,2023-06-29,Ｔｏｍｏｒｒｏｗ　Ｖｅｎｔｕｒｅ合同会社,,合同会社,沖縄県,宮古島市,平良字東仲宗根添１１６６番地３１９,,47,214,9060011,,,,,,,2023-06-29,1,,,,,トゥモローベンチャー,0
981,5380001033816,新規,0,2023-06-29,2023-06-29,株式会社フォレストベース,,株式会社,福島県,白河市,上ノ原４番地３３,,07,205,9610026,,,,,,,2023-06-29,1,,,,,フォレストベース,0
986,5410005006525,新規,0,2023-06-29,2023-06-29,一般社団法人白神山地アートミュージアム,,その他の設立登記法人,秋田県,にかほ市,平沢字前谷地１１２番地４,,05,214,0180402,,,,,,,2023-06-29,1,,,,,シラカミサンチアートミュージアム,0
989,5440001009280,新規,0,2023-06-29,2023-06-29,クラフィット株式会社,,株式会社,北海道,函館市,桔梗町６９５番地５,,01,202,0410801,,,,,,,2023-06-29,1,,,,,クラフィット,0
991,5450001014032,新規,0,2023-06-29,2023-06-29,株式会社福祉の萬屋傍楽,,株式会社,北海道,枝幸郡枝幸町,北浜町１０７番地３０,,01,514,0985826,,,,,,,2023-06-29,1,,,,,,0
997,5700150117832,新規,0,2023-06-29,2023-06-29,ＣｈｅｎｇＤｕ　ＪｉｎｇＳｈｉＳｈｉＹｅ　Ｃｏ．，Ｌｔｄ．,,外国会社等,,,,,,,,Ｒｏｏｍ　９－２，ＨｕａＬｉｎｇ　ＪｉＤｉａｎＧｕａｎｇＣｈａｎｇ　ＮＯ．１２　ＷｅｎＪｉａＸｉａｎｇ　ＪｉｎＮｉｕ　Ｄｉｓｔｒｉｃｔ　ＣｈｅｎｇＤｕ,,,,,,2023-06-29,1,,,,,セイトセイセキジツギヨウカンパニーリミテツド,0
998,5700150117840,新規,0,2023-06-29,2023-06-29,ＨｕａＬｅｉＸｕａｎ（Ｔｉａｎｊｉｎ）Ｔｅｃｈｎｏｌｏｇｙ　Ｃｏ．，Ｌｔｄ．,,外国会社等,,,,,,,,Ｒｏｏｍ　２１０２，Ｂｕｉｌｄｉｎｇ　６，Ｄ　Ｑｕ　ＧｕａｎｇＸｕａｎ　Ｒｏａｄ　ＷａｎＸｉｎ　Ｓｔｒｅｅｔ，ＤｏｎｇＬｉ　Ｄｉｓｔｒｉｃｔ　ＴｉａｎＪｉｎ　ＴｉａｎＪｉｎ,,,,,,2023-06-29,1,,,,,フアレイシユアンテンシンテクノロジーカンパニーリミテツド,0
999,5700150117849,新規,0,2023-06-29,2023-06-29,Ｕｌｉｎｋｅｒ　Ｔｅｃｈｎｏｌｏｇｙ　Ｌｉｍｉｔｅｄ,,外国会社等,,,,,,,,ＦＬＡＴ／ＲＭ　Ａ　９／Ｆ　ＳＩＬＶＥＲＣＯＲＰ　ＩＮＴＥＲＮＡＴＩＯＮＡＬ　ＴＯＷＥＲ　７０７－７１３　ＮＡＴＨＡＮ　ＲＯＡＤ　ＭＯＮＧＫＯＫ　ＫＬ　ＨＯＮＧ　ＫＯＮＧ,,,,,,2023-06-29,1,,,,,ヨウリエンシンシーコージーヨウシエンゴンスー,0
1000,5700150117857,新規,0,2023-06-29,2023-06-29,Ｎｉｎｇｂｏ　Ｔｉａｎｈｏｎｇ　Ｓｔａｔｉｏｎｅｒｙ　ｃｏ．ｌｔｄ．,,外国会社等,,,,,,,,Ｎｏ．８　Ｔｉａｎｓｈａｎ　Ｒｏａｄ，Ｉｎｄｕｓｔｒｉａｌ　Ｐａｒｋ，Ｃｈａｎｇｊｉｅ　Ｔｏｗｎ，Ｎｉｎｇｈａｉ　Ｃｏｕｎｔｙ，Ｚｈｅｊｉａｎｇ　Ｐｒｏｖｉｎｃｅ　３１５０００　ＣＮ,,,,,,2023-06-29,1,,,,,ニンボーテイエンホンウエンジーヨウシエンゴンスー,0
1004,6010001236363,新規,0,2023-06-29,2023-06-29,株式会社東京シネリサーチ,,株式会社,東京都,中央区,銀座３丁目１３番５号,,13,102,1040061,,,,,,,2023-06-29,1,,,,,トウキョウシネリサーチ,0
1005,6010001236462,新規,0,2023-06-29,2023-06-29,経天偉業株式会社,,株式会社,東京都,千代田区,神田三崎町２丁目１０番１１号Ｐｅｇビル３Ａ－３号室,,13,101,1010061,,,,,,,2023-06-29,1,,,,,ケイテンイギョウ,0
1008,6010003040994,新規,0,2023-06-29,2023-06-29,合同会社ききょう,,合同会社,東京都,千代田区,一ツ橋２丁目６番３号アクシスインベストメントアドバイザーズ株式会社内,,13,101,1010003,,,,,,,2023-06-29,1,,,,,キキョウ,0
1011,6010005036883,新規,0,2023-06-29,2023-06-29,ソーラーアップルホールディングス一般社団法人,,その他の設立登記法人,東京都,千代田区,九段南３丁目７番７号成和綜合会計事務所内,,13,101,1020074,,,,,,,2023-06-29,1,,,,,ソーラーアップルホールディングス,0
1025,6010405022277,新規,0,2023-06-29,2023-06-29,ジャパンインフラホールディングス３６号一般社団法人,,その他の設立登記法人,東京都,港区,元赤坂１丁目１番７号,,13,103,1070051,,,,,,,2023-06-29,1,,,,,ジャパンインフラホールディングスサンジュウロクゴウ,0
1029,6010701044470,新規,0,2023-06-29,2023-06-29,株式会社ａｂｃ,,株式会社,東京都,品川区,小山５丁目１６番２号,,13,109,1420062,,,,,,,2023-06-29,1,,,,,エービーシー,0
1033,6011001155330,新規,0,2023-06-29,2023-06-29,株式会社グラニフマーケティング,,株式会社,東京都,渋谷区,神宮前２丁目３４番１７号,,13,113,1500001,,,,,,,2023-06-29,1,,,,,グラニフマーケティング,0
1039,6011101103346,新規,0,2023-06-29,2023-06-29,株式会社日中茶龍,,株式会社,東京都,新宿区,西早稲田２丁目４番２３号グランベル西早稲田プレシャス９０２,,13,104,1690051,,,,,,,2023-06-29,1,,,,,ニッチュウチャロン,0
1043,6011501029463,新規,0,2023-06-29,2023-06-29,たからゆき株式会社,,株式会社,東京都,北区,王子本町１丁目２２番１号ＫＳＧビル２０５号室,,13,117,1140022,,,,,,,2023-06-29,1,,,,,タカラユキ,0
1044,6011701026376,新規,0,2023-06-29,2023-06-29,株式会社ＢＡＳＥ,,株式会社,東京都,江戸川区,東松本１丁目８番１３号,,13,123,1330071,,,,,,,2023-06-29,1,,,,,ベース,0
1045,6011701026384,新規,0,2023-06-29,2023-06-29,株式会社Ｅｒｉｍａｋｉｌｉｚａｒｄ,,株式会社,東京都,江戸川区,本一色３丁目１１－２０－１０２,,13,123,1330044,,,,,,,2023-06-29,1,,,,,エリマキリザード,0
1052,6012401040642,新規,0,2023-06-29,2023-06-29,株式会社ＪＣ,,株式会社,東京都,稲城市,矢野口２３９９－１,,13,225,2060812,,,,,,,2023-06-29,1,,,,,ジェイシー,0
1053,6012401040675,新規,0,2023-06-29,2023-06-29,株式会社ＢＧＩ,,株式会社,東京都,府中市,府中町３丁目７番地の１９,,13,206,1830055,,,,,,,2023-06-29,1,,,,,ビージーアイ,0
1057,6012801022471,新規,0,2023-06-29,2023-06-29,株式会社ＴＥＣ,,株式会社,東京都,東大和市,芋窪６丁目１０１２番地の１２,,13,220,2070033,,,,,,,2023-06-29,1,,,,,テック,0
1062,6013301050979,新規,0,2023-06-29,2023-06-29,北澤株式会社,,株式会社,東京都,豊島区,駒込１丁目１６番１０サンハイム１０２号,,13,116,1700003,,,,,,,2023-06-29,1,,,,,キタザワ,0
1072,6021003013262,新規,0,2023-06-29,2023-06-29,ｃｏｃｏ　ｓｍｉｌｉｎｇ合同会社,,合同会社,神奈川県,茅ヶ崎市,松が丘２丁目５番８号ボヌール湘南１０１,,14,207,2530025,,,,,,,2023-06-29,1,,,,,ココスマイリング,0
1077,6030001154613,新規,0,2023-06-29,2023-06-29,宮本株式会社,,株式会社,埼玉県,川口市,戸塚東１丁目２５番３３ニューグリーンスティ３０３号,,11,203,3330802,,,,,,,2023-06-29,1,,,,,ミヤモト,0
1078,6030001154638,新規,0,2023-06-29,2023-06-29,アイプラスモボット株式会社,,株式会社,埼玉県,加須市,愛宕１丁目９番１９号,,11,210,3470057,,,,,,,2023-06-29,1,,,,,アイプラスモボット,0
1079,6030001154654,新規,0,2023-06-29,2023-06-29,埼玉ドローンサービス株式会社,,株式会社,埼玉県,川口市,柳崎３丁目１２番４３号,,11,203,3330861,,,,,,,2023-06-29,1,,,,,サイタマドローンサービス,0
1080,6030001154662,新規,0,2023-06-29,2023-06-29,株式会社エートゥゼット,,株式会社,埼玉県,さいたま市岩槻区,大字長宮１０６２番地４,,11,110,3390011,,,,,,,2023-06-29,1,,,,,エートゥゼット,0
1084,6040001128987,新規,0,2023-06-29,2023-06-29,ＭｏｒｅＮｅｕ株式会社,,株式会社,千葉県,野田市,柳沢４２番地の１３５,,12,208,2780006,,,,,,,2023-06-29,1,,,,,モアニュー,0
1085,6040001128995,新規,0,2023-06-29,2023-06-29,ｃ．ｉ．ｈ株式会社,,株式会社,千葉県,習志野市,谷津５丁目４番９号岸田ビル２Ａ,,12,216,2750026,,,,,,,2023-06-29,1,,,,,シーアイエイチ,0
1086,6040001129003,新規,0,2023-06-29,2023-06-29,株式会社ｓｕｍ,,株式会社,千葉県,市川市,新田１丁目６番２１号（若葉ヴィラ２０２号）,,12,203,2720035,,,,,,,2023-06-29,1,,,,,サム,0
1091,6040003022858,新規,0,2023-06-29,2023-06-29,合同会社ＭＲＭ,,合同会社,千葉県,松戸市,南花島１丁目７番地の７,,12,207,2710065,,,,,,,2023-06-29,1,,,,,エムアールエム,0
1092,6040003022866,新規,0,2023-06-29,2023-06-29,合同会社ＧＦＫ‐ＳＵＣＣＥＳＳ,,合同会社,千葉県,市川市,高谷２丁目２番１８－１０６号（クレール市川）,,12,203,2720013,,,,,,,2023-06-29,1,,,,,ジーエフケーサクセス,0
1096,6050003007593,新規,0,2023-06-29,2023-06-29,Ｉｎｔｒａｄｏ　Ｌｉｆｅ＆Ｓａｆｅｔｙ　Ｊａｐａｎ合同会社,,合同会社,茨城県,水戸市,泉町２丁目２番３３号水戸泉町ビル７階,,08,201,3100026,,,,,,,2023-06-29,1,,,,,イントラードライフアンドセイフティジャパン,0
1097,6050003007602,新規,0,2023-06-29,2023-06-29,合同会社日本自然調査機構,,合同会社,茨城県,水戸市,東台２丁目１１－１９,,08,201,3100818,,,,,,,2023-06-29,1,,,,,ニホンシゼンチョウサキコウ,0
1108,6100003007076,新規,0,2023-06-29,2023-06-29,合同会社ミヤハラ,,合同会社,長野県,千曲市,大字杭瀬下６９－１,,20,218,3870011,,,,,,,2023-06-29,1,,,,,ミヤハラ,0
1119,6120001256053,新規,0,2023-06-29,2023-06-29,風の庭株式会社,,株式会社,大阪府,大阪市住吉区,万代東メゾン東和一丁目３－２２－１０８号室,,27,120,5580000,,,,,,,2023-06-29,1,,,,,カゼノニワ,0
1121,6120101067796,新規,0,2023-06-29,2023-06-29,日鉄プロセッシング株式会社,,株式会社,大阪府,堺市堺区,熊野町西３丁２番７号,,27,141,5900947,,,,,,,2023-06-29,1,,,,,ニッテツプロセッシング,0
1125,6120903004716,新規,0,2023-06-29,2023-06-29,ＩＲＯＮＷＯＲＫＥＲ　ｋｊ合同会社,,合同会社,大阪府,高槻市,日向町６番５号,,27,207,5690024,,,,,,,2023-06-29,1,,,,,アイアンワーカーケージェー,0
1129,6130003008815,新規,0,2023-06-29,2023-06-29,合同会社カフネ,,合同会社,京都府,京都市下京区,朱雀宝蔵町４４番地,,26,106,6008846,,,,,,,2023-06-29,1,,,,,カフネ,0
1138,6140001130677,新規,0,2023-06-29,2023-06-29,株式会社ＴＨＲＥＥ８,,株式会社,兵庫県,神戸市中央区,元町通５丁目３番１８号７Ｆ,,28,110,6500022,,,,,,,2023-06-29,1,,,,,スリーエイト,0
1139,6140001130685,新規,0,2023-06-29,2023-06-29,株式会社Ｃｏｒｄｉｓ,,株式会社,兵庫県,神戸市灘区,宮山町３丁目１番１８トーカン六甲キャスティール１０５号,,28,102,6570065,,,,,,,2023-06-29,1,,,,,コーディス,0
1145,6180005020268,新規,0,2023-06-29,2023-06-29,医療法人みやけ整形外科,,その他の設立登記法人,愛知県,愛知郡東郷町,大字春木字太子４５－１,,23,302,4700162,,,,,,,2023-06-29,1,,,,,ミヤケセイケイゲカ,0
1150,6200001041439,新規,0,2023-06-29,2023-06-29,株式会社Ｇｅｎｅｒａｌ　Ｏｎｅ,,株式会社,岐阜県,土岐市,泉町久尻三十二丁目７番地,,21,212,5095142,,,,,,,2023-06-29,1,,,,,ジェネラルワン,0
1152,6220001025472,新規,0,2023-06-29,2023-06-29,株式会社ソフィアホームズ,,株式会社,石川県,小松市,下粟津町子３３番地１,,17,203,9230304,,,,,,,2023-06-29,1,,,,,ソフィアホームズ,0
1154,6230001019894,新規,0,2023-06-29,2023-06-29,株式会社ビーアイ,,株式会社,富山県,富山市,山室１４４番地２０,,16,201,9398006,,,,,,,2023-06-29,1,,,,,ビーアイ,0
1157,6250001020157,新規,0,2023-06-29,2023-06-29,株式会社ヴァリアストレード,,株式会社,山口県,岩国市,麻里布町２丁目７番９号岩国ＹＳビル２階,,35,208,7400018,,,,,,,2023-06-29,1,,,,,ヴァリアストレード,0
1158,6260003004339,新規,0,2023-06-29,2023-06-29,合同会社Ｋｒｕｓｈ,,合同会社,岡山県,井原市,西江原町１５８６番地３,,33,207,7150006,,,,,,,2023-06-29,1,,,,,クラッシュ,0
1171,6290001102091,新規,0,2023-06-29,2023-06-29,株式会社ＴＫ,,株式会社,福岡県,福岡市東区,馬出４丁目４番２号,,40,131,8120054,,,,,,,2023-06-29,1,,,,,ティーケー,0
1177,6290003014079,新規,0,2023-06-29,2023-06-29,合同会社マゼンダ,,合同会社,福岡県,福岡市中央区,大名２丁目９番２９第二プリンスビル９０８号,,40,133,8100041,,,,,,,2023-06-29,1,,,,,マゼンダ,0
1186,6360003013098,新規,0,2023-06-29,2023-06-29,合同会社ｏｕｅｎ社,,合同会社,沖縄県,宜野湾市,真志喜３丁目１番１－３０２号比嘉アパート,,47,205,9012224,,,,,,,2023-06-29,1,,,,,オウエンシャ,0
1209,6500001025023,新規,0,2023-06-29,2023-06-29,株式会社エムエステート,,株式会社,愛媛県,松山市,清水町２丁目１３番地１５,,38,201,7900823,,,,,,,2023-06-29,1,,,,,エムエステート,0
1210,6700150117831,新規,0,2023-06-29,2023-06-29,Ｂｅｉｊｉｎｇ　ＳｈｉｌｉｈｅＴｅｃｈｎｏｌｏｇｙ　Ｄｅｖｅｌｏｐｍｅｎｔ　Ｃｏ．，Ｌｔｄ．,,外国会社等,,,,,,,,ＨａｉｄｉａｎｑｕＸｉｓａｎｈｕａｎｂｅｉｌｕ　５０Ｈａｏｙｕａｎ　８Ｈａｏｌｏｕ　１８０７Ｂｅｉｊｉｎｇ　Ｂｅｉｊｉｎｇ,,,,,,2023-06-29,1,,,,,ペキンシリカテクノロジーデイヴエロツプメントカンパニーリミテツド,0
1211,6700150117848,新規,0,2023-06-29,2023-06-29,ｄｏｎｇｇｕａｎｓｈｉｍｅｉｗａｎｇｌｕｏｙｏｕｘｉａｎｇｏｎｇｓｉ,,外国会社等,,,,,,,,ＨＵ　ＭＥＮ　ＺＨＥＮ　ＮＡＮ　ＺＨＡ　ＨＡＯ　ＪＩＮＧ　ＥＲ　ＸＩＡＮＧ　７　ＨＡＯ　２０１　ＳＨＩ　ＤＯＮＧ　ＧＵＡＮ　ＳＨＩ　ＧＵＡＮＧ　ＤＯＮＧ　ＳＨＥＮＧ　５２３９３２　ＣＮ,,,,,,2023-06-29,1,,,,,ドングワンシーメイワンルオヨウシエンゴンスー,0
1212,6700150117856,新規,0,2023-06-29,2023-06-29,ＳＨＡＮＧＨＡＩ　ＳＨＥＮＧＨＡＮＣＨＯＮＧＷＵＺＨＥＮＬＩＡＯ　ＣＯ．，ＬＴＤ,,外国会社等,,,,,,,,２０８ＳＨＩ，４ＺＨＵＡＮＧ，１６８８ＨＡＯＵ，ＨＯＮＧＭＥＩＬＵ，ＸＵＨＵＩＱ　ＳＨＡＮＧＨＡＩＳＨＩ　ＳＨＡＮＧＨＡＩＳＨＩ,,,,,,2023-06-29,1,,,,,シヤンハイシヨンハンチヨンウージエンリヤオヨウシエンゴンスー,0
1213,6700150117864,新規,0,2023-06-29,2023-06-29,Ｑｉｎｇｄａｏ　Ｗｅｍａｙ　Ｔｅｘｔｉｌｅ　ＣＯ．，Ｌｔｄ．,,外国会社等,,,,,,,,Ｑｉｎｇ　Ｄａｏ　Ｓｈｉ　Ｘｉａｎｇｇａｎｇｚｈｏｎｇｌｕ　３２　Ｈａｏ　２７１　Ｓｈｉ,,,,,,2023-06-29,1,,,,,チンダオウエイメイフアンジーヨウシエンゴンスー,0
1214,6700150117906,新規,0,2023-06-29,2023-06-29,Ｓｈｅｎｚｈｅｎ　Ｆｕｓｉｔａｉ　Ｎｅｔｗｏｒｋ　Ｔｅｃｈｎｏｌｏｇｙ　Ｃｏ．，Ｌｔｄ,,外国会社等,,,,,,,,４０１，Ｂｕｉｌｄｉｎｇ　Ａ２，Ｚｈｏｎｇｂａｏｔｏｎｇ，Ｎｏ．３４，Ｗｅｓｔ　Ｃｈａｎｇｆａ　Ｒｏａｄ，Ｄａｆａ　Ｐｕ　Ｃｏｍｍｕｎｉｔｙ，Ｂａｎｔｉａｎ　Ｓｔｒｅｅｔ，Ｌｏｎｇｇａｎｇ　Ｄｉｓｔｒｉｃｔ，Ｓｈｅｎｚｈｅｎ　ｃｉｔｙＣｈｉｎａ　５１８１２９,,,,,,2023-06-29,1,,,,,シエンジエンシフウスータイネツトワークテクノロジーカンパニーリミテツド,0
1222,7010001236296,新規,0,2023-06-29,2023-06-29,株式会社どんぐり,,株式会社,東京都,中央区,湊２丁目１５－１４－１２０６,,13,102,1040043,,,,,,,2023-06-29,1,,,,,ドングリ,0
1223,7010001236494,新規,0,2023-06-29,2023-06-29,株式会社Ｎ５,,株式会社,東京都,千代田区,神田和泉町１番地６－１６ヤマトビル４０５,,13,101,1010024,,,,,,,2023-06-29,1,,,,,エヌファイブ,0
1227,7010003040977,新規,0,2023-06-29,2023-06-29,無相合同会社,,合同会社,東京都,中央区,東日本橋２丁目２８－４,,13,102,1030004,,,,,,,2023-06-29,1,,,,,ムソウ,0
1230,7010101015699,新規,0,2023-06-29,2023-06-29,株式会社ＢｅＬＬＡ,,株式会社,東京都,八王子市,東町１番１０号グランデハイツ八王子８０１,,13,201,1920082,,,,,,,2023-06-29,1,,,,,ベラ,0
1231,7010103002167,新規,0,2023-06-29,2023-06-29,合同会社葵心工業,,合同会社,東京都,八王子市,横川町７３１番地石井マンションピーコック２０１号室,,13,201,1930823,,,,,,,2023-06-29,1,,,,,キシンコウギョウ,0
1237,7010405022251,新規,0,2023-06-29,2023-06-29,一般社団法人生成系ＡＩ協会,,その他の設立登記法人,東京都,港区,芝５丁目３６番４号札の辻スクエア９Ｆ,,13,103,1080014,,,,,,,2023-06-29,1,,,,,セイセイケイエーアイキョウカイ,0
1245,7010603010223,新規,0,2023-06-29,2023-06-29,合同会社サードプレイス,,合同会社,東京都,江東区,豊洲６丁目２番２９号－１６１８,,13,108,1350061,,,,,,,2023-06-29,1,,,,,サードプレイス,0
1249,7010901053312,新規,0,2023-06-29,2023-06-29,株式会社いぶきコーポレーション,,株式会社,東京都,世田谷区,等々力８丁目２６番８号,,13,112,1580082,,,,,,,2023-06-29,1,,,,,イブキコーポレーション,0
1250,7010901053329,新規,0,2023-06-29,2023-06-29,株式会社ミメロ,,株式会社,東京都,世田谷区,弦巻３丁目１２－２２ジェイパーク桜新町４０２,,13,112,1540016,,,,,,,2023-06-29,1,,,,,ミメロ,0
1254,7011101103411,新規,0,2023-06-29,2023-06-29,株式会社ＭｅＬｉｋｅハウジング,,株式会社,東京都,新宿区,高田馬場３丁目１－５サンパティオ高田馬場５２２号室,,13,104,1690075,,,,,,,2023-06-29,1,,,,,ミライクハウジング,0
1255,7011101103428,新規,0,2023-06-29,2023-06-29,株式会社太源,,株式会社,東京都,新宿区,中落合２丁目１８番１９号犬竹荘２０３,,13,104,1610032,,,,,,,2023-06-29,1,,,,,タイゲン,0
1262,7011503005668,新規,0,2023-06-29,2023-06-29,合同会社紺野,,合同会社,東京都,北区,赤羽１丁目６５番３号アビタルフレール５０１号,,13,117,1150045,,,,,,,2023-06-29,1,,,,,,0
1263,7011701026367,新規,0,2023-06-29,2023-06-29,株式会社ゼウスブリッジ,,株式会社,東京都,江戸川区,東葛西８丁目２３番２２号,,13,123,1340084,,,,,,,2023-06-29,1,,,,,ゼウスブリッジ,0
1264,7011703003513,新規,0,2023-06-29,2023-06-29,合同会社池澤,,合同会社,東京都,江戸川区,南葛西１丁目９－４アリエッタ１０１,,13,123,1340085,,,,,,,2023-06-29,1,,,,,イケザワ,0
1266,7011801042636,新規,0,2023-06-29,2023-06-29,ＯＨＡＹＯ人材サービス株式会社,,株式会社,東京都,葛飾区,新小岩１丁目５６番１４号キャッスルマンション新小岩７０２号室,,13,122,1240024,,,,,,,2023-06-29,1,,,,,オハヨウジンザイサービス,0
1270,7012801022470,新規,0,2023-06-29,2023-06-29,ＧＡＲＮＥＴ株式会社,,株式会社,東京都,東大和市,狭山５丁目１５８０番地,,13,220,2070003,,,,,,,2023-06-29,1,,,,,ガーネット,0
1274,7013303006689,新規,0,2023-06-29,2023-06-29,ＮＥ‐Ｓｔｙｌｅ合同会社,,合同会社,東京都,豊島区,千早２丁目１４番７号,,13,116,1710044,,,,,,,2023-06-29,1,,,,,エヌイースタイル,0
1279,7021001079429,新規,0,2023-06-29,2023-06-29,株式会社箱根民泊,,株式会社,神奈川県,足柄下郡箱根町,元箱根字御殿６番３４,,14,382,2500522,,,,,,,2023-06-29,1,,,,,ハコネミンパク,0
1282,7030001154653,新規,0,2023-06-29,2023-06-29,株式会社フルスマイル,,株式会社,埼玉県,さいたま市浦和区,高砂２丁目３番４－７０１号,,11,107,3300063,,,,,,,2023-06-29,1,,,,,フルスマイル,0
1290,7040001129002,新規,0,2023-06-29,2023-06-29,株式会社ＹＫＧ,,株式会社,千葉県,松戸市,栗ケ沢８３０番地の６１,,12,207,2700022,,,,,,,2023-06-29,1,,,,,ワイケージー,0
1291,7040001129019,新規,0,2023-06-29,2023-06-29,西岡空調設備株式会社,,株式会社,千葉県,千葉市花見川区,柏井１丁目２０番５棟５０３号,,12,102,2620048,,,,,,,2023-06-29,1,,,,,ニシオカクウチョウセツビ,0
1301,7080101024090,新規,0,2023-06-29,2023-06-29,大一水産株式会社,,株式会社,静岡県,伊東市,静海町１１番１４号,,22,208,4140042,,,,,,,2023-06-29,1,,,,,ダイイチスイサン,0
1305,7100002007712,新規,0,2023-06-29,2023-06-29,有限会社みつ星薬局,,有限会社,長野県,長野市,豊野町豊野１３３３番地３,,20,201,3891105,,,,,,,2023-06-29,1,,,,,ミツボシヤッキョク,0
1306,7120001256069,新規,0,2023-06-29,2023-06-29,株式会社クリエイト,,株式会社,大阪府,大阪市中央区,日本橋１丁目２５番２３号,,27,128,5420073,,,,,,,2023-06-29,1,,,,,クリエイト,0
1307,7120001256085,新規,0,2023-06-29,2023-06-29,株式会社Ｂｅｗｉｓｔｅｎｚ,,株式会社,大阪府,大阪市北区,樋之口町１番２０－３７０２号,,27,127,5300032,,,,,,,2023-06-29,1,,,,,ベヴィステンツ,0
1311,7120101067787,新規,0,2023-06-29,2023-06-29,株式会社ＶＥＳＴＡＲＣＨ,,株式会社,大阪府,大阪狭山市,大野台１丁目２７番１１号,,27,231,5890023,,,,,,,2023-06-29,1,,,,,ベスターチ,0
1312,7120101067795,新規,0,2023-06-29,2023-06-29,アップ株式会社,,株式会社,大阪府,堺市堺区,北三国ヶ丘町８丁７番７号,,27,141,5900021,,,,,,,2023-06-29,1,,,,,アップ,0
1315,7130001074610,新規,0,2023-06-29,2023-06-29,株式会社Ｌａ　Ｆｏｎｔｅ,,株式会社,京都府,南丹市,美山町和泉大迫１０番地１０,,26,213,6010754,,,,,,,2023-06-29,1,,,,,ラフォンテ,0
1323,7140001130627,新規,0,2023-06-29,2023-06-29,安歌コンサルティングサービス株式会社,,株式会社,兵庫県,神戸市中央区,御幸通８丁目１番６号神戸国際会館２２階１４２号室,,28,110,6510087,,,,,,,2023-06-29,1,,,,,アンカコンサルティングサービス,0
1324,7140005026664,新規,0,2023-06-29,2023-06-29,尼崎下水道メンテナンス事業協同組合,,その他の設立登記法人,兵庫県,尼崎市,西立花町２丁目２０番９号,,28,202,6600054,,,,,,,2023-06-29,1,,,,,,0
1330,7180001156890,新規,0,2023-06-29,2023-06-29,株式会社希禅工業,,株式会社,愛知県,あま市,七宝町遠島七反田５６５番地,,23,237,4970002,,,,,,,2023-06-29,1,,,,,キゼンコウギョウ,0
1331,7180001156899,新規,0,2023-06-29,2023-06-29,マーベリックソリューション株式会社,,株式会社,愛知県,名古屋市北区,垣戸町１丁目１０番地の１ＧＯＬＤ５０１号,,23,103,4620867,,,,,,,2023-06-29,1,,,,,マーベリックソリューション,0
1336,7180003025409,新規,0,2023-06-29,2023-06-29,合同会社ワイズワン東郷中央,,合同会社,愛知県,名古屋市中区,栄２丁目３番１号名古屋広小路ビルヂング１７階,,23,106,4600008,,,,,,,2023-06-29,1,,,,,ワイズワントウゴウチュウオウ,0
1356,7290801029640,新規,0,2023-06-29,2023-06-29,株式会社進詩工業,,株式会社,福岡県,北九州市八幡西区,楠橋下方２丁目２番４３号（Ａ棟１０１）,,40,109,8071146,,,,,,,2023-06-29,1,,,,,シンシコウギョウ,0
1360,7340001025674,新規,0,2023-06-29,2023-06-29,株式会社三愛,,株式会社,鹿児島県,鹿児島市,松原町６番２号松原ハイツ１０２号,,46,201,8920833,,,,,,,2023-06-29,1,,,,,サンアイ,0
1364,7360003013089,新規,0,2023-06-29,2023-06-29,合同会社Ｓ．Ｔ．Ｓ　ＥＮＴＥＲＰＲＩＳＥ,,合同会社,沖縄県,沖縄市,登川１丁目３３番３２号,,47,211,9042142,,,,,,,2023-06-29,1,,,,,エスティーエスエンタープライズ,0
1365,7360003013097,新規,0,2023-06-29,2023-06-29,合同会社ｃｏｎｔｉｇｏ,,合同会社,沖縄県,島尻郡南風原町,字宮平１９１番地６,,47,350,9011104,,,,,,,2023-06-29,1,,,,,コンティーゴ,0
1367,7370001050117,新規,0,2023-06-29,2023-06-29,株式会社シビルサポート・ケイ,,株式会社,宮城県,仙台市青葉区,本町１丁目１４番１８号,,04,101,9800014,,,,,,,2023-06-29,1,,,,,シビルサポートケイ,0
1368,7370003006182,新規,0,2023-06-29,2023-06-29,合同会社三粒コーポレーション,,合同会社,宮城県,仙台市青葉区,愛子東４丁目５番４７号,,04,101,9893127,,,,,,,2023-06-29,1,,,,,サンリュウコーポレーション,0
1370,7380001033814,新規,0,2023-06-29,2023-06-29,株式会社マルニホールディングス,,株式会社,福島県,郡山市,谷島町５番４２号,,07,203,9638802,,,,,,,2023-06-29,1,,,,,マルニホールディングス,0
1372,7380005012723,新規,0,2023-06-29,2023-06-29,特定非営利活動法人さくら,,その他の設立登記法人,福島県,本宮市,白岩字塩ノ崎４１５,,07,214,9691203,,,,,,,2023-06-29,1,,,,,サクラ,0
1379,7430001089405,新規,0,2023-06-29,2023-06-29,株式会社ＴｅｎＢｌｏｏｍ,,株式会社,北海道,札幌市白石区,菊水二条１丁目８番１６－３０４号,,01,104,0030802,,,,,,,2023-06-29,1,,,,,テンブルーム,0
1380,7430001089421,新規,0,2023-06-29,2023-06-29,リアクトパートナーズ株式会社,,株式会社,北海道,札幌市東区,伏古十一条４丁目８番１５号,,01,103,0070871,,,,,,,2023-06-29,1,,,,,リアクトパートナーズ,0
1385,7430003015193,新規,0,2023-06-29,2023-06-29,合同会社ＳＰＲＯＵＴ,,合同会社,北海道,札幌市中央区,南七条西６丁目４２３－４３－３０３号,,01,101,0640807,,,,,,,2023-06-29,1,,,,,スプラウト,0
1393,7700150117830,新規,0,2023-06-29,2023-06-29,Ｂｅｉｊｉｎｇ　Ｈｕａｘｉａｚｈｉｙｏｎｇ　Ｔｅｃｈｎｏｌｏｇｙ　Ｄｅｖｅｌｏｐｍｅｎｔ　Ｃｏ　Ｌｔｄ,,外国会社等,,,,,,,,Ｍｉｙｕｎｑｕ　Ｔｏｕｚｉｃｕｊｉｎｊｕ　Ｏｆｆｉｃｅ　３０５－３１４，Ｘｉｄａｑｉａｏ　Ｒｏａｄ　６９　Ｈａｏ，Ｍｉｙｕｎ　Ｄｉｓｔｒｉｃｔ　Ｂｅｉｊｉｎｇ,,,,,,2023-06-29,1,,,,,ペキンカカシユウテクノロジーデイヴエロツプメントカンパニーリミテツド,0
1394,7700150117839,新規,0,2023-06-29,2023-06-29,Ｚｈｅｎｇｘｕｅｓｉ（Ｔｉａｎｊｉｎ）Ｔｅｃｈｎｏｌｏｇｙ　Ｃｏ．，Ｌｔｄ,,外国会社等,,,,,,,,Ｒｏｏｍ　１３－９０８　ＧａｎｇＣｈｅｎｇＷｅｎＱｕａｎＨｕａＹｕａｎ　ＪｉｎＱｉａｏＪｉｅＤａｏ　ＤｏｎｇＬｉ　Ｄｉｓｔｒｉｃｔ　ＴｉａｎＪｉｎ,,,,,,2023-06-29,1,,,,,セイガクシテンシンテクノロジーカンパニーリミテツド,0
1395,7700150117847,新規,0,2023-06-29,2023-06-29,ｓｈｅｎｚｈｅｎ　ｙｉｎ　ｓｈｅ　ｃｈｕａｎｇ　ｘｉｎ　ｙｏｕ　ｘｉａｎ　ｇｏｎｇ　ｓｉ,,外国会社等,,,,,,,,Ｎａｎ　Ｓｈａｎ　Ｑｕ　ＹｕｅＨａｉ　ＪｉｅＤａｏ，ＧａｏＸｉｎ　Ｚｈｏｎｇ　Ｌｕ，５　ｈａｏ　ＫｅＪｉＹｕａｎ，ｓｈｅｎｇｃｈａｎｌｉ　ｄａｌｏｕ　Ｃ　ｚｕｏ　４　ｌｏｕ　Ｓｈｅｎｚｈｅｎ　Ｇｕａｎｇｄｏｎｇ　５１８０００　ＣＮ,,,,,,2023-06-29,1,,,,,シエンジエンインシヨーチユワンシンコージーヨウシエンゴンスー,0
1396,7700150117855,新規,0,2023-06-29,2023-06-29,ｓｈｅｎ　ｚｈｅｎ　ｓｈｉ　ｈａ　ｐｅｉ　ｑｉ　ｍａｏ　ｙｉ　ｙｏｕ　ｘｉａｎ　ｇｏｎｇ　ｓｉ,,外国会社等,,,,,,,,ｇｕａｎｇ　ｍｉｎｇ　ｘｉｎ　ｑｕ　ｙｕ　ｔａｎｇ　ｊｉｅ　ｄａｏ　ｔｉａｎ　ｌｉａｏ　ｃｕｎ　ｌｏｎｇ　ｘｉｎ　ｌｕ　ｗｕ　ｘｉａｎｇ　ｊｉｕ　ｈａｏ　ｙｉ　ｌｏｕ　ｓｈｅｎ　ｚｈｅｎ　ｓｈｉ　ｇｕａｎｇ　ｄｏｎｇ　ｓｈｅｎｇ,,,,,,2023-06-29,1,,,,,シエンジエンシーハーペイチーマオイーヨウシエンゴンスー,0
1397,7700150117863,新規,0,2023-06-29,2023-06-29,ｃｈａｎｇ　ｓｈａ　ｌｉ　ｒｕ　ｄｉａｎ　ｚｉ　ｋｅ　ｊｉ　ｙｏｕ　ｘｉａｎ　ｇｏｎｇ　ｓｉ,,外国会社等,,,,,,,,ＴｉａｎＸｉｎＱｕ　ＲｕａｎＪｉａｎＹｕａｎ　Ｂ　Ｑｕ　ＳｈａｎｇＷｕＸｉｅＺｉＬｏｕ　２　Ｌｏｕ－５２８　ＴｉａｎＸｉｎＱｕ　ＸｉｎＬｉｎｇ　Ｌｕ　６６－６８　Ｈａｏ（ＨｕＮａｎＳｈｅｎｇＴａｉＹｉＢｏＹｕａｎ　Ｂ　Ｑｕ）ＣｈａｎｇＳｈａ　ＨｕＮａｎ　４１０００４　ＣＮ,,,,,,2023-06-29,1,,,,,ジヤンシヤーリールーデイエンズーコージーヨウシエンゴンスー,0
1403,8010005036881,新規,0,2023-06-29,2023-06-29,一般社団法人ＬＥＶＥＣＨＹ３号,,その他の設立登記法人,東京都,千代田区,紀尾井町３－８第２紀尾井町ビル９０１アクシス綜合会計事務所内,,13,101,1020094,,,,,,,2023-06-29,1,,,,,レベチーサンゴウ,0
1406,8010103002166,新規,0,2023-06-29,2023-06-29,合同会社はなぶさ,,合同会社,東京都,八王子市,めじろ台３丁目１３番地９,,13,201,1930833,,,,,,,2023-06-29,1,,,,,ハナブサ,0
1417,8010601063338,新規,0,2023-06-29,2023-06-29,株式会社響,,株式会社,東京都,江東区,富岡１丁目６－６ＴＴＲビル地下１階,,13,108,1350047,,,,,,,2023-06-29,1,,,,,ヒビキ,0
1418,8010603010222,新規,0,2023-06-29,2023-06-29,合同会社ミライズ,,合同会社,東京都,墨田区,文花２丁目１９番２－２２３号,,13,107,1310044,,,,,,,2023-06-29,1,,,,,ミライズ,0
1428,8011001155320,新規,0,2023-06-29,2023-06-29,株式会社ＨＡＪＩＭＥ　ＡＳＡＯＫＡ,,株式会社,東京都,渋谷区,神宮前２丁目３０番７－１０４号,,13,113,1500001,,,,,,,2023-06-29,1,,,,,ハジメアサオカ,0
1435,8011103013194,新規,0,2023-06-29,2023-06-29,合同会社Ｈ・Ｙ,,合同会社,東京都,新宿区,大久保２丁目６番１０－２０２号,,13,104,1690072,,,,,,,2023-06-29,1,,,,,エイチワイ,0
1437,8011201024738,新規,0,2023-06-29,2023-06-29,ＤＹＬ株式会社,,株式会社,東京都,中野区,本町４丁目４８番１７号,,13,114,1640012,,,,,,,2023-06-29,1,,,,,ディーワイエル,0
1439,8011301028820,新規,0,2023-06-29,2023-06-29,昭明文苑株式会社,,株式会社,東京都,杉並区,井草４丁目１番４号シグマース１‐Ａ号室,,13,115,1670021,,,,,,,2023-06-29,1,,,,,ショウメイブンエン,0
1440,8011301028829,新規,0,2023-06-29,2023-06-29,日商拓産株式会社,,株式会社,東京都,杉並区,清水３丁目３１番１０号,,13,115,1670033,,,,,,,2023-06-29,1,,,,,ニッショウタクサン,0
1449,8011801042635,新規,0,2023-06-29,2023-06-29,株式会社Ｅ　Ａｓｓｅｔｓ　Ｍａｎａｇｅｍｅｎｔ,,株式会社,東京都,足立区,保木間４丁目２８番１７号,,13,121,1210064,,,,,,,2023-06-29,1,,,,,イーアセッツマネジメント,0
1450,8011803005714,新規,0,2023-06-29,2023-06-29,合同会社ブラサク,,合同会社,東京都,足立区,竹の塚３丁目１５番１８号,,13,121,1210813,,,,,,,2023-06-29,1,,,,,ブラサク,0
1455,8012401040673,新規,0,2023-06-29,2023-06-29,株式会社ハートケアナーシング,,株式会社,東京都,調布市,下石原３丁目２０番地７,,13,208,1820034,,,,,,,2023-06-29,1,,,,,ハートケアナーシング,0
1459,8013101009199,新規,0,2023-06-29,2023-06-29,株式会社カワタツフーズ,,株式会社,東京都,青梅市,大柳町１３８０番地の１マイキャッスル青梅７０５,,13,205,1980086,,,,,,,2023-06-29,1,,,,,カワタツフーズ,0
1464,8020001152260,新規,0,2023-06-29,2023-06-29,トランヒーロジャパン株式会社,,株式会社,神奈川県,横浜市戸塚区,深谷町７６－３,,14,110,2450067,,,,,,,2023-06-29,1,,,,,トランヒーロジャパン,0
1472,8021001079428,新規,0,2023-06-29,2023-06-29,株式会社新成,,株式会社,神奈川県,相模原市中央区,淵野辺本町２丁目３２番２０号,,14,152,2520202,,,,,,,2023-06-29,1,,,,,シンセイ,0
1475,8030001154611,新規,0,2023-06-29,2023-06-29,株式会社Ｓｉｍｐｌｅｍａｔｅ,,株式会社,埼玉県,さいたま市大宮区,桜木町２丁目３番地大宮マルイ７階,,11,103,3300854,,,,,,,2023-06-29,1,,,,,シンプルメイト,0
1477,8040001128985,新規,0,2023-06-29,2023-06-29,株式会社ＬａｎｄＮｉｎｅ,,株式会社,千葉県,千葉市美浜区,中瀬２丁目６番地１ワールドビジネスガーデンマリブウエスト２階,,12,106,2610023,,,,,,,2023-06-29,1,,,,,ランドナイン,0
1478,8040001129001,新規,0,2023-06-29,2023-06-29,ネプタス株式会社,,株式会社,千葉県,印西市,舞姫１丁目７番地１０,,12,231,2701608,,,,,,,2023-06-29,1,,,,,ネプタス,0
1481,8050001052978,新規,0,2023-06-29,2023-06-29,七賢電設株式会社,,株式会社,茨城県,常総市,内守谷町きぬの里３丁目３７－７セッジフィールド１０２,,08,211,3030046,,,,,,,2023-06-29,1,,,,,シチケンデンセツ,0
1496,8090001018190,新規,0,2023-06-29,2023-06-29,株式会社フタバ,,株式会社,山梨県,笛吹市,春日居町小松１０７８番地１,,19,211,4060004,,,,,,,2023-06-29,1,,,,,フタバ,0
1508,8120001255937,新規,0,2023-06-29,2023-06-29,ＨＵＮＴＳＭＡＮ株式会社,,株式会社,大阪府,大阪市大正区,小林東２丁目９－５－５０２,,27,108,5510011,,,,,,,2023-06-29,1,,,,,ハンツマン,0
1509,8120001256043,新規,0,2023-06-29,2023-06-29,株式会社Ｒｏａ,,株式会社,大阪府,大阪市西区,靱本町１丁目１４番１１号ＲＥ－０１４（５０２号室）,,27,106,5500004,,,,,,,2023-06-29,1,,,,,ロア,0
1510,8120001256068,新規,0,2023-06-29,2023-06-29,株式会社スロウライフ,,株式会社,大阪府,枚方市,長尾元町６丁目２番１５号サンビレッジ長尾３０３,,27,210,5730163,,,,,,,2023-06-29,1,,,,,スロウライフ,0
1515,8120003024373,新規,0,2023-06-29,2023-06-29,Ｌｗｅｓｔ合同会社,,合同会社,大阪府,大阪市中央区,高麗橋１丁目７－７Ｔｈｅｋｉｔａｈａｍａ２５１１号室,,27,128,5410043,,,,,,,2023-06-29,1,,,,,エルウエスト,0
1519,8122001037118,新規,0,2023-06-29,2023-06-29,株式会社ｇｒｉｍｐｉ,,株式会社,大阪府,東大阪市,花園本町２丁目１３番９号,,27,227,5780937,,,,,,,2023-06-29,1,,,,,グリンピ,0
1520,8130001074592,新規,0,2023-06-29,2023-06-29,オークツリー株式会社,,株式会社,京都府,京都市下京区,四条通柳馬場東入立売東町１２番地１,,26,106,6008005,,,,,,,2023-06-29,1,,,,,オークツリー,0
1522,8130003008813,新規,0,2023-06-29,2023-06-29,合同会社ＬＩＶＥＮ,,合同会社,京都府,京都市西京区,大枝北沓掛町１丁目５番地２,,26,111,6101101,,,,,,,2023-06-29,1,,,,,リビン,0
1527,8140001130667,新規,0,2023-06-29,2023-06-29,株式会社Ｌｉｆｅｓｉｚｅ,,株式会社,兵庫県,西宮市,南甲子園１丁目２番１９－２０１号,,28,204,6638153,,,,,,,2023-06-29,1,,,,,ライフサイズ,0
1530,8140005026671,新規,0,2023-06-29,2023-06-29,スターズ行政書士法人,,その他の設立登記法人,兵庫県,西宮市,戸田町１－２０ホワイトビル４階,,28,204,6620916,,,,,,,2023-06-29,1,,,,,スターズ,0
1533,8150005009493,新規,0,2023-06-29,2023-06-29,一般社団法人天理ＴＲＡＣＫ＆ＦＩＥＬＤ,,その他の設立登記法人,奈良県,天理市,石上町４５３番地９,,29,204,6320011,,,,,,,2023-06-29,1,,,,,テンリトラックアンドフィールド,0
1536,8160001025130,新規,0,2023-06-29,2023-06-29,株式会社寺元工業,,株式会社,滋賀県,大津市,大江６丁目２８番２１号アイリスキシバ４０５号,,25,201,5202141,,,,,,,2023-06-29,1,,,,,テラモトコウギョウ,0
1539,8170003001888,新規,0,2023-06-29,2023-06-29,合同会社ＨＯＭＥ,,合同会社,和歌山県,和歌山市,西庄１０１６番地,,30,201,6400112,,,,,,,2023-06-29,1,,,,,ホーム,0
1545,8180001156907,新規,0,2023-06-29,2023-06-29,Ｒｉｍａｎ　Ｊａｐａｎ株式会社,,株式会社,愛知県,名古屋市東区,白壁１丁目５８番地,,23,102,4610011,,,,,,,2023-06-29,1,,,,,リーマンジャパン,0
1546,8180001156915,新規,0,2023-06-29,2023-06-29,株式会社いろどり,,株式会社,愛知県,名古屋市熱田区,切戸町２丁目２番地,,23,109,4560076,,,,,,,2023-06-29,1,,,,,イロドリ,0
1556,8220001025479,新規,0,2023-06-29,2023-06-29,株式会社南生商会,,株式会社,石川県,金沢市,福久町ホ２８番地１プロスパーヤマキ２０１,,17,201,9203122,,,,,,,2023-06-29,1,,,,,ナンソウショウカイ,0
1558,8230003002038,新規,0,2023-06-29,2023-06-29,Ａ．Ｉ．ＰＣ合同会社,,合同会社,富山県,富山市,西長江本町７－３,,16,201,9300961,,,,,,,2023-06-29,1,,,,,エーアイピーシー,0
1572,8320005010087,新規,0,2023-06-29,2023-06-29,一般社団法人中村裕パラスポーツサポートミーティング,,その他の設立登記法人,大分県,大分市,明野東２丁目７番３３号,,44,201,8700161,,,,,,,2023-06-29,1,,,,,ナカムラユタカパラスポーツサポートミーティング,0
1577,8370001050116,新規,0,2023-06-29,2023-06-29,株式会社中嶋機械,,株式会社,宮城県,仙台市泉区,松森字新田１７５番地の２,,04,105,9813111,,,,,,,2023-06-29,1,,,,,ナカジマキカイ,0
1583,8380005012722,新規,0,2023-06-29,2023-06-29,ＮＰＯ法人みんなのデータサイト,,その他の設立登記法人,福島県,福島市,飯坂町字一本松１１番７,,07,201,9600201,,,,,,,2023-06-29,1,,,,,ミンナノデータサイト,0
1592,8430005014738,新規,0,2023-06-29,2023-06-29,特定非営利活動法人北海道難聴支援ネットワーク,,その他の設立登記法人,北海道,札幌市中央区,南一条西１７丁目２９１番地８５北海道公立大学法人札幌医科大学医学部耳鼻咽喉科・頭頸部外科学講座内,,01,101,0600061,,,,,,,2023-06-29,1,,,,,ホッカイドウナンチョウシエンネットワーク,0
1597,8700150117838,新規,0,2023-06-29,2023-06-29,ＳｈｅｎＺｈｏｕ　ＸｕＲｉ（ＴｉａｎＪｉｎ）Ｔｒａｄｉｎｇ　Ｃｏ．，Ｌｔｄ,,外国会社等,,,,,,,,Ｒｏｏｍ　ＮＯ．３４５６　８　Ｈａｏ　ＦｕＷｕ　ＨａｉＢｉｎＷｅｉ　ＰｉｎｇＹｉｎｇ　Ｒｏａｄ　ＤｏｎｇＬｉ　Ｄｉｓｔｒｉｃｔ　ＴｉａｎＪｉｎ,,,,,,2023-06-29,1,,,,,シエンヂヨウシユリテンシントレーデイングカンパニーリミテツド,0
1598,8700150117846,新規,0,2023-06-29,2023-06-29,ｓｈｅｎｚｈｅｎｓｈｉ　ｋｕｓｉ　ｙｕｎｄｏｎｇ　ｋｅｊｉ　ｙｏｕｘｉａｎ　ｇｏｎｇｓｉ,,外国会社等,,,,,,,,ｂａｏ’ａｎｑｕ　ｘｉｎ’ａｎｊｉｅｄａｏ　ｘｉｎｇｄｏｎｇｓｈｅｑｕ　ｌｉｕｆａｎｇｌｕ　２ｈａｏ　ｌｉｎｇｙｕｎ　ｃｈａｎｇｆａｌｏｕ　１ｈａｏ６０２　Ｓｈｅｎｚｈｅｎ　ｇｕａｎｇｄｏｎｇ　５１８０００　ＣＮ,,,,,,2023-06-29,1,,,,,シエンジエンシークースーインドンコージーヨウシエンゴンスー,0
1599,8700150117854,新規,0,2023-06-29,2023-06-29,ＳＨＥＮ　ＺＨＥＮ　ＳＨＩ　ＲＵＮ　ＦＥＮＧ　ＣＨＵＡＮＧ　ＸＩＮ　ＫＥＪＩ　ＣＯ，．ＬＴＤ,,外国会社等,,,,,,,,ＢＡＯ　ＡＮ　ＱＵ，ＳＯＮＧ　ＧＡＮＧ　ＪＩＥ　ＤＡＯ，ＬＩ　ＹＥ　ＬＵ，ＺＨＡＯ　ＸＩＡＮＧ　８１４　ＳＨＥＮ　ＺＨＥＮ　ＳＨＩ　ＧＵＡＮＧ　ＤＯＮＧ　ＳＨＥＮＧ　５１８０００　ＣＮ,,,,,,2023-06-29,1,,,,,シエンジエンシールンフオンチユワンシンコージーヨウシエンゴンスー,0
1600,8700150117862,新規,0,2023-06-29,2023-06-29,Ｃｈａｎｇｓｈａ　Ａｏｓｕｏ　Ｄｉａｎｚｉｓｈａｎｇｗｕ　Ｙｏｕｘｉａｎｇｏｎｇｓｉ,,外国会社等,,,,,,,,２７０９　Ｈａｏｆａｎｇ，Ｂｏｃｕｉｗａｎ　Ｓｈｉｍａｏｘｉｅｒｄｕｎ　Ｊｉｕｄｉａｎ　Ｘｉａｏｘｉａｎｇｂｅｉｌｕ　ｓａｎｄｕａｎ　１１００，Ｙｉｎｐｅｎｌｉｎｇ　ｊｉｅｄａｏ，Ｙｕｅｌｕｑｕ　Ｃｈａｎｇｓｈａ　Ｈｕｎａｎ　４１００１３　ＣＮ,,,,,,2023-06-29,1,,,,,ジヤンシヤーアオスオデイエンズーシヤンウーヨウシエンゴンスー,0
1611,9010103002165,新規,0,2023-06-29,2023-06-29,ＴＨＵＣ　ＰＨＡＭ　ＶＩＥＴ　ＨＵＮＧ　ＮＧＡ合同会社,,合同会社,東京都,八王子市,台町４丁目４６番３号,,13,201,1930931,,,,,,,2023-06-29,1,,,,,トックファムビエットフンガ,0
1621,9010401175266,新規,0,2023-06-29,2023-06-29,グローカル株式会社,,株式会社,東京都,港区,芝１丁目６番１０号,,13,103,1050014,,,,,,,2023-06-29,1,,,,,グローカル,0
1622,9010401175373,新規,0,2023-06-29,2023-06-29,Ｑｕａｎｔｕｍ　Ｍｅｓｈ株式会社,,株式会社,東京都,港区,六本木１丁目３番４１号アークヒルズサイド１Ｆ,,13,103,1060032,,,,,,,2023-06-29,1,,,,,クァンタムメッシュ,0
1623,9010403030394,新規,0,2023-06-29,2023-06-29,ジャパンインフラ３８号合同会社,,合同会社,東京都,港区,元赤坂１丁目１番７号,,13,103,1070051,,,,,,,2023-06-29,1,,,,,ジャパンインフラサンジュウハチゴウ,0
1624,9010405022209,新規,0,2023-06-29,2023-06-29,一般財団法人日本ソーシャルワークセンター,,その他の設立登記法人,東京都,港区,港南４丁目７番８号都漁連水産会館,,13,103,1080075,,,,,,,2023-06-29,1,,,,,ニホンソーシャルワークセンター,0
1626,9010501050641,新規,0,2023-06-29,2023-06-29,幼一花商株式会社,,株式会社,東京都,台東区,台東１丁目２３番４五十川ビル３０２号,,13,106,1100016,,,,,,,2023-06-29,1,,,,,ヨウイチカショウ,0
1627,9010501050666,新規,0,2023-06-29,2023-06-29,株式会社ＦＵＮＰＥＡ,,株式会社,東京都,台東区,柳橋１丁目４番３号ツイントラスＩＩビル２階,00131013,13,106,1110052,,,,,,,2023-06-29,1,,,,,ファンピー,0
1628,9010501050674,新規,0,2023-06-29,2023-06-29,株式会社ＫｎＴ,,株式会社,東京都,台東区,浅草橋５丁目４番５号,,13,106,1110053,,,,,,,2023-06-29,1,,,,,ケイエヌティ,0
1630,9010601063337,新規,0,2023-06-29,2023-06-29,株式会社モビリティアンサーホールディングス,,株式会社,東京都,江東区,有明３丁目７番２６号有明フロンティアビルＢ棟９階,,13,108,1350063,,,,,,,2023-06-29,1,,,,,モビリティアンサーホールディングス,0
1638,9011001155311,新規,0,2023-06-29,2023-06-29,株式会社すずなり,,株式会社,東京都,目黒区,駒場１丁目３０－９ラフィーヌ駒場１０１,,13,110,1530041,,,,,,,2023-06-29,1,,,,,スズナリ,0
1648,9011501029460,新規,0,2023-06-29,2023-06-29,ＹｏｕｎｇＯｎｅ広告株式会社,,株式会社,東京都,北区,赤羽２丁目６９番２号,,13,117,1150045,,,,,,,2023-06-29,1,,,,,ヤングワンコウコク,0
1654,9011701026381,新規,0,2023-06-29,2023-06-29,株式会社ＭＫスリー,,株式会社,東京都,江戸川区,東瑞江１丁目４８－８－１０１,,13,123,1320014,,,,,,,2023-06-29,1,,,,,エムケイスリー,0
1655,9011801042618,新規,0,2023-06-29,2023-06-29,株式会社Ｒ,,株式会社,東京都,葛飾区,奥戸６丁目２１番２２号,,13,122,1240022,,,,,,,2023-06-29,1,,,,,アール,0
1658,9012401040631,新規,0,2023-06-29,2023-06-29,株式会社Ａｔａｒａｘｉａ　Ｌｉｆｅ,,株式会社,東京都,多摩市,豊ヶ丘２丁目１５－３－４０３,,13,224,2060031,,,,,,,2023-06-29,1,,,,,アタラクシアライフ,0
1659,9012401040680,新規,0,2023-06-29,2023-06-29,ＷＡＣ化学株式会社,,株式会社,東京都,稲城市,東長沼９８２番地の３,,13,225,2060802,,,,,,,2023-06-29,1,,,,,ワックカガク,0
1663,9013301050951,新規,0,2023-06-29,2023-06-29,株式会社ドド・アセール,,株式会社,東京都,豊島区,池袋２丁目３６－１ＢＩＺｃｏｍｆｏｒｔ池袋西口８Ｆ－５０号室,,13,116,1710014,,,,,,,2023-06-29,1,,,,,ドドアセール,0
1668,9020001152227,新規,0,2023-06-29,2023-06-29,株式会社ＷＥＤＧＥ,,株式会社,神奈川県,横浜市鶴見区,岸谷２丁目２番５号,,14,101,2300078,,,,,,,2023-06-29,1,,,,,ウェッジ,0
1672,9021001079435,新規,0,2023-06-29,2023-06-29,株式会社横須賀マリン開発,,株式会社,神奈川県,横須賀市,小川町１３番地４ＭＳＰビル１Ｆ,,14,201,2380004,,,,,,,2023-06-29,1,,,,,ヨコスカマリンカイハツ,0
1674,9030001154610,新規,0,2023-06-29,2023-06-29,株式会社ＤＥＬＡＮＯ,,株式会社,埼玉県,川口市,並木２丁目２４番１８－１２０３号オーベル川口並木,,11,203,3320034,,,,,,,2023-06-29,1,,,,,デラノ,0
1675,9030001154627,新規,0,2023-06-29,2023-06-29,株式会社リベルタス,,株式会社,埼玉県,桶川市,西２丁目４番３－３号,,11,231,3630017,,,,,,,2023-06-29,1,,,,,リベルタス,0
1676,9030001154643,新規,0,2023-06-29,2023-06-29,株式会社ＦｉＶＥ　ＭＯＶＥＭＥＮＴ,,株式会社,埼玉県,越谷市,蒲生茜町１１番地１０,,11,222,3430843,,,,,,,2023-06-29,1,,,,,ファイブムーブメント,0
1678,9030003022039,新規,0,2023-06-29,2023-06-29,ＦＩＩＤＯ合同会社,,合同会社,埼玉県,越谷市,大沢５４７番地６,,11,222,3430025,,,,,,,2023-06-29,1,,,,,フィード,0
1679,9030003022063,新規,0,2023-06-29,2023-06-29,合同会社ＯＳＰＳＯ,,合同会社,埼玉県,川越市,大字小ケ谷７９番地１１,,11,201,3501104,,,,,,,2023-06-29,1,,,,,オーエスピーエスオー,0
1682,9040001129000,新規,0,2023-06-29,2023-06-29,株式会社ＯＮＥ　ＴＲＵＳＴＹ,,株式会社,千葉県,市川市,稲荷木２丁目７番６号,,12,203,2720024,,,,,,,2023-06-29,1,,,,,ワントラスティ,0
1683,9040001129025,新規,0,2023-06-29,2023-06-29,株式会社ＯＵＧＡ,,株式会社,千葉県,木更津市,金田東１丁目１２番地１１,,12,206,2920009,,,,,,,2023-06-29,1,,,,,オウガ,0
1693,9080401026561,新規,0,2023-06-29,2023-06-29,株式会社Ｔ２Ｋ,,株式会社,静岡県,浜松市中区,田町３２９－８マルマンビル２Ｆ,,22,131,4300944,,,,,,,2023-06-29,1,,,,,ティーツーケー,0
1695,9100001036537,新規,0,2023-06-29,2023-06-29,株式会社Ｓ．Ｓ．Ｃ,,株式会社,長野県,岡谷市,長地梨久保２丁目１６番５号,,20,204,3940088,,,,,,,2023-06-29,1,,,,,エスエスシー,0
1703,9120001255969,新規,0,2023-06-29,2023-06-29,株式会社安媛,,株式会社,大阪府,大阪市東住吉区,鷹合４丁目２１番１６号１Ｆ－Ｃ,,27,121,5460014,,,,,,,2023-06-29,1,,,,,ヤスヒメ,0
1704,9120001256050,新規,0,2023-06-29,2023-06-29,凱旋商事株式会社,,株式会社,大阪府,大阪市平野区,瓜破西３丁目８番６号,,27,126,5470025,,,,,,,2023-06-29,1,,,,,ガイセンショウジ,0
1705,9120001256059,新規,0,2023-06-29,2023-06-29,鴻晟株式会社,,株式会社,大阪府,大阪市住之江区,安立２丁目７番２－３０６号,,27,125,5590003,,,,,,,2023-06-29,1,,,,,コウセイ,0
1706,9120001256067,新規,0,2023-06-29,2023-06-29,株式会社スぺークローリー,,株式会社,大阪府,大阪市東淀川区,淡路４丁目１４番１３号,,27,114,5330032,,,,,,,2023-06-29,1,,,,,スペークローリー,0
1707,9120001256083,新規,0,2023-06-29,2023-06-29,日本藍狐株式会社,,株式会社,大阪府,大阪市西成区,橘３丁目７番３号１階,,27,122,5570051,,,,,,,2023-06-29,1,,,,,ニホンランコ,0
1714,9122001037117,新規,0,2023-06-29,2023-06-29,株式会社住連川建設,,株式会社,大阪府,四條畷市,雁屋北町５番５号,,27,229,5750035,,,,,,,2023-06-29,1,,,,,シメカワケンセツ,0
1718,9130001074609,新規,0,2023-06-29,2023-06-29,株式会社丸勝,,株式会社,京都府,京都市下京区,朱雀宝蔵町９０番地,,26,106,6008846,,,,,,,2023-06-29,1,,,,,マルカツ,0
1719,9130003008812,新規,0,2023-06-29,2023-06-29,合同会社飛翔庵,,合同会社,京都府,城陽市,寺田大川原４番地の２６,,26,207,6100121,,,,,,,2023-06-29,1,,,,,ヒショウアン,0
1724,9140001130641,新規,0,2023-06-29,2023-06-29,株式会社Ｈｉｌｌｔｏｐ　Ｃｏｒｐｏｒａｔｉｏｎ,,株式会社,兵庫県,西宮市,南郷町９番５２号,,28,204,6620038,,,,,,,2023-06-29,1,,,,,ヒルトップコーポレーション,0
1726,9150001026509,新規,0,2023-06-29,2023-06-29,株式会社ｍｅｍｅｎｔｏ,,株式会社,奈良県,桜井市,大字竜谷４０８番地の３,,29,206,6330016,,,,,,,2023-06-29,1,,,,,メメント,0
1727,9150005009492,新規,0,2023-06-29,2023-06-29,一般社団法人ｉｍａｒｇｉｎ,,その他の設立登記法人,奈良県,磯城郡三宅町,大字屏風４４０番地６４,,29,362,6360217,,,,,,,2023-06-29,1,,,,,イマージン,0
1735,9180001156906,新規,0,2023-06-29,2023-06-29,株式会社木の葉,,株式会社,愛知県,名古屋市中区,栄１丁目５番１４号,,23,106,4600008,,,,,,,2023-06-29,1,,,,,コノハ,0
1752,9250002020830,新規,0,2023-06-29,2023-06-29,有限会社第一工務,,有限会社,山口県,宇部市,大字上宇部１０７８番地の２,,35,202,7550091,,,,,,,2023-06-29,1,,,,,,0
1766,9290003014076,新規,0,2023-06-29,2023-06-29,合同会社ＩＢＬ,,合同会社,福岡県,福岡市東区,多の津５丁目４４番１号,,40,131,8130034,,,,,,,2023-06-29,1,,,,,アイビーエル,0
1768,9290801029647,新規,0,2023-06-29,2023-06-29,株式会社ＤａｎＡ　Ｃｒｅａｔｉｏｎｓ,,株式会社,福岡県,北九州市八幡西区,光貞台２丁目２５番１０号,,40,109,8070805,,,,,,,2023-06-29,1,,,,,ダナクリエーションズ,0
1777,9330001030987,新規,0,2023-06-29,2023-06-29,株式会社Ｈｅｌｌｏ　Ｗｏｒｌｄ,,株式会社,熊本県,菊池郡大津町,大字大津１２６９番地８,,43,403,8691233,,,,,,,2023-06-29,1,,,,,ハローワールド,0
1778,9330005010671,新規,0,2023-06-29,2023-06-29,一般社団法人二枚貝技術開発研究所,,その他の設立登記法人,熊本県,合志市,御代志１６７５－７,,43,216,8611104,,,,,,,2023-06-29,1,,,,,ニマイガイギジュツカイハツケンキュウジョ,0
1787,9360003013095,新規,0,2023-06-29,2023-06-29,合同会社Ｔ．フロンティア,,合同会社,沖縄県,那覇市,字与儀２３番地,,47,201,9020076,,,,,,,2023-06-29,1,,,,,ティーフロンティア,0
1788,9360005006873,新規,0,2023-06-29,2023-06-29,一般社団法人おーきな笑,,その他の設立登記法人,沖縄県,うるま市,与那城平安座１１番地,,47,213,9042426,,,,,,,2023-06-29,1,,,,,オーキナワ,0
1790,9370001050115,新規,0,2023-06-29,2023-06-29,株式会社ＲＯＯＴＺ,,株式会社,宮城県,仙台市青葉区,三条町１３番１１号,,04,101,9810935,,,,,,,2023-06-29,1,,,,,ルーツ,0
1803,9430001089411,新規,0,2023-06-29,2023-06-29,株式会社アット・ボタニカル,,株式会社,北海道,札幌市中央区,南九条西１６丁目３番７号,,01,101,0640809,,,,,,,2023-06-29,1,,,,,アットボタニカル,0
1809,9430005014737,新規,0,2023-06-29,2023-06-29,特定非営利活動法人キャリア形成推進研究所,,その他の設立登記法人,北海道,札幌市中央区,北四条西７丁目５番３７号緑苑第二ビル８０３号,,01,101,0600004,,,,,,,2023-06-29,1,,,,,キャリアケイセイスイシンケンキュウショ,0
1811,9480005006969,新規,0,2023-06-29,2023-06-29,一般財団法人トータルサポートセンター．フォア．セルフキュアー,,その他の設立登記法人,徳島県,板野郡板野町,松谷字シシトキ西１１番地５,,36,404,7790112,,,,,,,2023-06-29,1,,,,,トータルサポートセンターフォアセルフキュアー,0
1814,9700150038216,新規,0,2023-06-29,2015-10-09,自治労相馬市職員労働組合,,その他,福島県,相馬市,中村字北町６３－３,,07,209,9760042,,,,,,,2015-10-09,1,,,,,ジチロウソウマシシヨクインロウドウクミアイ,0
1815,9700150117829,新規,0,2023-06-29,2023-06-29,ＡｉＬｅＫｅ（ＴｉａｎＪｉｎ）Ｔｅｃｈｎｏｌｏｇｙ　Ｃｏ．，Ｌｔｄ．,,外国会社等,,,,,,,,Ｒｏｏｍ　２０２６，Ａ８　Ａｒｅａ　Ａ，Ａｉｒｐｏｒｔ　Ｉｎｔｅｒｎａｔｉｏｎａｌ　Ｈｅａｄｑｕａｒｔｅｒｓ　Ｂａｓｅ，ＨａｎｇＳｈｕａｎｇ　Ｒｏａｄ　ＤｏｎｇＬｉ　Ｄｉｓｔｒｉｃｔ　ＴｉａｎＪｉｎ,,,,,,2023-06-29,1,,,,,アイライカテンシンテクノロジーカンパニーリミテツド,0
1816,9700150117837,新規,0,2023-06-29,2023-06-29,ＤｕｏＦｅｉ（ＳｈｅｎＺｈｅｎ）Ｔｒａｄｉｎｇ　Ｃｏ．，Ｌｔｄ．,,外国会社等,,,,,,,,Ｒｏｏｍ　５０２－５１０　Ｂｕｉｌｄｉｎｇ　Ａ１，ＺｈｏｎｇＹｕＧｕａｎ　Ｉｎｄｕｓｔｒｉａｌ　Ｄｉｓｔｒｉｃｔ　ＢｕＬｏｎｇ　Ｒｏａｄ，ＬｏｎｇＨｕａ　Ｓｔｒｅｅｔ，ＬｏｎｇＨｕａＸｉｎ　Ｄｉｓｔｒｉｃｔ　ＳｈｅｎＺｈｅｎ　ＧｕａｎｇＤｏｎｇ　,,,,,,2023-06-29,1,,,,,デユオフエイシンセントレーデイングカンパニーリミテツド,0
1817,9700150117845,新規,0,2023-06-29,2023-06-29,Ｌａｂｏｒｓｉｎｇ　Ｓａｆｅｔｙ　Ｐｒｏｄｕｃｔｓ　Ｉｎｃ．,,外国会社等,,,,,,,,Ｎｏ．６８，ＢＥＩＢＵＷＡＮ　ＥＡＳＴ　ＲＯＡＤ，ＢＥＩＨＡＩ，ＧＵＡＮＧＸＩ，５３６０００，ＣＮ,,,,,,2023-06-29,1,,,,,グワンシーベイハイリーボーシヨンアンチユエンヨンピンヨウシエンゴンスー,0
1818,9700150117853,新規,0,2023-06-29,2023-06-29,Ｓｈｅｎ　ｚｈｅｎ　ｓｈｉ　ｍａｎ　ｓｕｏ　ｍａｏ　ｙｉ　ｙｏｕ　ｘｉａｎ　ｇｏｎｇ　ｓｉ,,外国会社等,,,,,,,,ｌｏｎｇ　ｇａｎｇ　ｑｕ　ｂｕ　ｌａｎ　ｌｕ　ｌｉ　ｌａｎｇ　ｇｕｏ　ｊｉ　ｚｈｕ　ｂａｏ　ｙｕａｎ　Ｂ６　ｄｏｎｇ　１２０２　ｓｈｅｎ　ｚｈｅｎ　ｇｕａｎｇ　ｄｏｎｇ,,,,,,2023-06-29,1,,,,,シエンジエンシーマンスオマオイーヨウシエンゴンスー,0
1819,9700150117861,新規,0,2023-06-29,2023-06-29,ＡＬＬＳＯ　ＴＥＣＨＮＯＬＯＧＹ　（ＨＫ）　ＬＩＭＩＴＥＤ,,外国会社等,,,,,,,,ＦＬＡＴ／ＲＭ　１７　ＢＬＫ　Ａ　９／Ｆ　ＮＥＷ　ＭＡＮＤＡＲＩＮ　ＰＬＡＺＡ　ＮＯ　１４　ＳＣＩＥＮＣＥ　ＭＵＳＥＵＭ　ＲＯＡＤ　ＴＳＩＭＳＨＡＴＳＵＩ　ＫＬ　９９９０７７　ＨＫ,,,,,,2023-06-29,1,,,,,アオスオコージーシヤンガンヨウシエンゴンスー,0
1820,9700150117903,新規,0,2023-06-29,2023-06-29,Ｓｈｅｎｚｈｅｎ　Ｚｈｉｙｕａｎｔｏｎｇｔａｉ　ｔｅｃｈｎｏｌｏｇｙ　Ｃｏ．ＬＴＤ,,外国会社等,,,,,,,,Ｂｕｉｌｄｉｎｇ　Ｃ４，ＸｉｎＨｅＸｉｎＸｉｎｇ　Ｉｎｄｕｓｔｒｉａｌ　Ｚｏｎｅ　４Ｆｕｙｏｎｔｏｗｎ，Ｂａｏａｎ　ＳｈｅｎＺｈｅｎ　ＧｕａｎｇＤｏｎｇ　５１８１００　ＣＮ,,,,,,2023-06-29,1,,,,,シンセンシジーユエントンタイテクノロジーカンパニーリミテツド,0
