sequenceNumber,corporateNumber,process,correct,updateDate,changeDate,name,nameImageId,kind,prefectureName,cityName,streetNumber,addressImageId,prefectureCode,cityCode,postCode,addressOutside,addressOutsideImageId,closeDate,closeCause,successorCorporateNumber,changeCause,assignmentDate,latest,enName,enPrefectureName,enCityName,enAddressOutside,furigana,hihyoji
20,1010401125749,登記記録の閉鎖等,0,2021-10-29,2021-10-15,株式会社ｉＥｎｅｒｇｙ,,株式会社,東京都,港区,芝５丁目２０番１４号三田鈴木ビル３階,,13,103,1080014,,,2021-10-15,清算の結了等,,,2016-07-13,1,,,,,アイエナジー,0
77,1012801020983,登記記録の閉鎖等,0,2021-10-29,2021-10-21,株式会社三和システムサービス,,株式会社,東京都,日野市,日野本町２丁目１４番地の３,,13,212,1910011,,,2021-10-21,清算の結了等,,,2021-08-03,1,,,,,サンワシステムサービス,0
83,1013301039440,登記記録の閉鎖等,0,2021-10-29,2021-10-22,株式会社トライキューブトレーディング,,株式会社,東京都,豊島区,池袋２丁目５８番７号３Ｄ,,13,116,1710014,,,2021-10-22,清算の結了等,,,2016-09-20,1,,,,,トライキューブトレーディング,0
86,1020001034580,登記記録の閉鎖等,0,2021-10-29,2021-10-26,株式会社エス・ティー・エル,,株式会社,神奈川県,横浜市都筑区,茅ケ崎中央八丁目３８番２１３号,,14,118,2240032,,,2021-10-26,清算の結了等,,,2015-10-05,1,,,,,エスティーエル,0
101,1021001027285,登記記録の閉鎖等,0,2021-10-29,2021-10-25,株式会社ＫＡＮＴＯ,,株式会社,神奈川県,座間市,立野台１丁目６－２９,,14,216,2520023,,,2021-10-25,合併による解散等,7010701000860,令和３年１０月２０日東京都品川区小山台一丁目２０番２０号株式会社石原製作所（7010701000860）に合併し解散,2015-10-05,1,,,,,カントウ,0
111,1030001074592,登記記録の閉鎖等,0,2021-10-29,2021-10-22,株式会社國井製作所,,株式会社,埼玉県,川口市,元郷３丁目１８番１号,,11,203,3320011,,,2021-10-22,清算の結了等,,,2015-10-05,1,,,,,クニイセイサクジョ,0
135,1040003008151,登記記録の閉鎖等,0,2021-10-29,2021-10-22,合同会社Ｅｘｐｒｅｓｓｉｏｎ,,合同会社,千葉県,柏市,豊町２丁目５番２５号,,12,217,2770854,,,2021-10-22,清算の結了等,,,2016-01-21,1,,,,,,0
142,1060005009336,登記記録の閉鎖等,0,2021-10-29,2021-10-14,特定非営利活動法人ＰＰＰ４５,,その他の設立登記法人,栃木県,足利市,月谷町１２１３番地１９,,09,202,3260068,,,2021-10-14,清算の結了等,,,2017-06-05,1,,,,,ピーピーピーヨンジュウゴド,0
148,1080102007125,登記記録の閉鎖等,0,2021-10-29,2021-10-21,有限会社田代木工所,,有限会社,静岡県,駿東郡小山町,藤曲２１５番地,,22,344,4101304,,,2021-10-21,清算の結了等,,,2015-10-05,1,,,,,,0
149,1090005000936,登記記録の閉鎖等,0,2021-10-29,2021-10-25,禊教甲斐分院教會,,その他の設立登記法人,山梨県,甲府市,宝２丁目８番３号,,19,201,4000034,,,2021-10-25,清算の結了等,,,2015-10-05,1,,,,,ミソギキョウカイブンインキョウカイ,0
150,1100002023896,登記記録の閉鎖等,0,2021-10-29,2021-10-28,有限会社野田園,,有限会社,長野県,安曇野市,豊科４８９２番地,,20,220,3998205,,,2021-10-28,清算の結了等,,,2015-10-05,1,,,,,ノダエン,0
152,1110005005932,登記記録の閉鎖等,0,2021-10-29,2021-10-26,医療法人社団大谷内科医院,,その他の設立登記法人,新潟県,加茂市,上町１番２５号,,15,209,9591352,,,2021-10-26,清算の結了等,,,2015-10-05,1,,,,,オオタニナイカイイン,0
189,1140001048726,登記記録の閉鎖等,0,2021-10-29,2021-10-27,向陽自動車整備株式会社,,株式会社,兵庫県,尼崎市,西長洲町２丁目３０番１号,,28,202,6600805,,,2021-10-27,清算の結了等,,,2015-10-05,1,,,,,,0
212,1180005005752,登記記録の閉鎖等,0,2021-10-29,2021-10-26,特定非営利活動法人中部定期借地借家権推進機構,,その他の設立登記法人,愛知県,名古屋市中区,栄４丁目３番２６号,,23,106,4600008,,,2021-10-26,清算の結了等,,,2015-10-05,1,,,,,チュウブテイキシャクチシャッカケンスイシンキコウ,0
215,1180301013046,登記記録の閉鎖等,0,2021-10-29,2021-10-26,株式会社玉木屋,,株式会社,愛知県,安城市,御幸本町７番１２号,,23,212,4460032,,,2021-10-26,清算の結了等,,,2015-10-05,1,,,,,タマキヤ,0
220,1190002009185,登記記録の閉鎖等,0,2021-10-29,2021-10-27,有限会社出口建設,,有限会社,三重県,伊勢市,下野町５１７番地６,,24,203,5160003,,,2021-10-27,清算の結了等,,,2015-10-05,1,,,,,デグチケンセツ,0
227,1220001019859,登記記録の閉鎖等,0,2021-10-29,2021-10-22,株式会社マスターマインド,,株式会社,石川県,加賀市,柴山町３の２４６番地,,17,206,9220402,,,2021-10-22,清算の結了等,,,2015-10-05,1,,,,,マスターマインド,0
237,1250002005062,登記記録の閉鎖等,0,2021-10-29,2021-10-27,有限会社ソガワ,,有限会社,山口県,宇部市,大字際波４１４番地の３３,,35,202,7590207,,,2021-10-27,清算の結了等,,,2015-10-05,1,,,,,ソガワ,0
255,1310001004835,登記記録の閉鎖等,0,2021-10-29,2021-10-28,株式会社タジマ電子サービス,,株式会社,長崎県,長崎市,三ツ山町１０００番地１６,,42,201,8528142,,,2021-10-28,清算の結了等,,,2015-10-05,1,,,,,タジマデンシサービス,0
267,1340002019326,登記記録の閉鎖等,0,2021-10-29,2021-10-28,有限会社明巧堂,,有限会社,鹿児島県,西之表市,西町７０６４番地２,,46,213,8913111,,,2021-10-28,清算の結了等,,,2015-10-05,1,,,,,,0
329,2010405013222,登記記録の閉鎖等,0,2021-10-29,2021-10-15,ＧＤＰ１特定目的会社,,その他の設立登記法人,東京都,港区,虎ノ門３丁目２２番１０－２０１号,,13,103,1050001,,,2021-10-15,清算の結了等,,,2015-10-05,1,,,,,ジーディーピーワン,0
332,2010601026449,登記記録の閉鎖等,0,2021-10-29,2021-10-15,金町浄水場エネルギーサービス株式会社,,株式会社,東京都,江東区,豊洲３丁目１番１号,,13,108,1350061,,,2021-10-15,清算の結了等,,,2015-10-05,1,,,,,カナマチジョウスイジョウエネルギーサービス,0
379,2020001017634,登記記録の閉鎖等,0,2021-10-29,2021-10-26,株式会社柴田商会,,株式会社,神奈川県,横浜市鶴見区,元宮１丁目１５番１８号,,14,101,2300004,,,2021-10-26,清算の結了等,,,2015-10-05,1,,,,,シバタショウカイ,0
384,2020002011479,登記記録の閉鎖等,0,2021-10-29,2021-10-27,有限会社川崎工業所,,有限会社,神奈川県,横浜市戸塚区,上矢部町１７４５番地２４,,14,110,2450053,,,2021-10-27,清算の結了等,,,2015-10-05,1,,,,,カワサキコウギョウショ,0
405,2030002079383,登記記録の閉鎖等,0,2021-10-29,2021-10-08,有限会社在宅リハビリ厚生治療院,,有限会社,埼玉県,入間郡三芳町,大字藤久保２８９番地１ディックピア鶴瀬６０２号,,11,324,3540041,,,2021-10-08,清算の結了等,,,2015-10-05,1,,,,,ザイタクリハビリコウセイチリョウイン,0
409,2030003010677,登記記録の閉鎖等,0,2021-10-29,2021-10-22,ミマス合同会社,,合同会社,埼玉県,所沢市,東所沢和田１丁目２６番地の３６,,11,208,3590023,,,2021-10-22,清算の結了等,,,2017-08-23,1,,,,,ミマス,0
416,2040001092147,登記記録の閉鎖等,0,2021-10-29,2021-10-22,株式会社末次工務店,,株式会社,千葉県,松戸市,西馬橋相川町１番地クレインヒルズ３０３号,,12,207,2710045,,,2021-10-22,清算の結了等,,,2015-10-05,1,,,,,,0
434,2110002029553,登記記録の閉鎖等,0,2021-10-29,2021-10-26,有限会社吉原商店,,有限会社,新潟県,長岡市,緑町１丁目８６番地３１,,15,202,9402105,,,2021-10-26,清算の結了等,,,2015-10-05,1,,,,,ヨシハラショウテン,0
485,2180302024660,登記記録の閉鎖等,0,2021-10-29,2021-10-27,有限会社ティーズエンジニアリング,,有限会社,愛知県,豊田市,山之手１０丁目１９番地,,23,211,4710833,,,2021-10-27,清算の結了等,,,2015-10-05,1,,,,,,0
494,2210002002293,登記記録の閉鎖等,0,2021-10-29,2021-10-26,有限会社中部テレコム,,有限会社,福井県,福井市,問屋町４丁目７１２番地,,18,201,9188231,,,2021-10-26,清算の結了等,,,2015-10-05,1,,,,,チュウブテレコム,0
529,2290005008470,登記記録の閉鎖等,0,2021-10-29,2021-10-25,医療法人上村クリニック,,その他の設立登記法人,福岡県,飯塚市,忠隈３５５番地２,,40,205,8200071,,,2021-10-25,清算の結了等,,,2015-10-05,1,,,,,ウエムラクリニック,0
548,2370202000024,登記記録の閉鎖等,0,2021-10-29,2021-10-22,有限会社粟野商店,,有限会社,宮城県,大崎市,古川南町１丁目１番３号,,04,215,9896155,,,2021-10-22,清算の結了等,,,2015-10-05,1,,,,,,0
550,2400001005402,登記記録の閉鎖等,0,2021-10-29,2021-10-27,株式会社日進電機,,株式会社,岩手県,花巻市,四日町１丁目９番３４号,,03,205,0250072,,,2021-10-27,清算の結了等,,,2015-10-05,1,,,,,ニッシンデンキ,0
551,2400005003781,登記記録の閉鎖等,0,2021-10-29,2021-10-28,遠野ビール事業協同組合,,その他の設立登記法人,岩手県,遠野市,青笹町糠前３１地割１９番地７,,03,208,0280501,,,2021-10-28,清算の結了等,,,2015-10-05,1,,,,,トオノビール,0
585,3010005015709,登記記録の閉鎖等,0,2021-10-29,2021-10-26,一般社団法人日本幼児教室協会,,その他の設立登記法人,東京都,文京区,本郷５丁目３３番１０号,,13,105,1130033,,,2021-10-26,清算の結了等,,,2015-10-05,1,,,,,ニホンヨウジキョウシツキョウカイ,0
589,3010401054731,登記記録の閉鎖等,0,2021-10-29,2021-10-15,シリリュス・ジャポン株式会社,,株式会社,東京都,港区,虎ノ門３丁目１０番４号虎ノ門ガーデン８０８,,13,103,1050001,,,2021-10-15,清算の結了等,,,2015-10-05,1,,,,,シリリュスジャポン,0
593,3010401118825,登記記録の閉鎖等,0,2021-10-29,2021-10-15,Ｆｒｕｉｔｓ　Ｃｏｍｐａｎｙ株式会社,,株式会社,東京都,港区,六本木１丁目１０番３－９０１号,,13,103,1060032,,,2021-10-15,清算の結了等,,,2015-10-05,1,,,,,フルーツカンパニー,0
603,3010403013586,登記記録の閉鎖等,0,2021-10-29,2021-10-15,ウッドランズ合同会社,,合同会社,東京都,港区,赤坂１丁目５番１３号,,13,103,1070052,,,2021-10-15,清算の結了等,,,2015-10-05,1,,,,,,0
615,3010801015085,登記記録の閉鎖等,0,2021-10-29,2021-10-25,株式会社フレッシュパック,,株式会社,東京都,大田区,東海３丁目９番１０号,,13,111,1430001,,,2021-10-25,清算の結了等,,,2015-10-05,1,,,,,フレッシュパック,0
630,3011101090901,登記記録の閉鎖等,0,2021-10-29,2021-10-28,株式会社テアプロ,,株式会社,東京都,新宿区,払方町２７番地,,13,104,1620841,,,2021-10-28,清算の結了等,,,2020-03-30,1,,,,,テアプロ,0
651,3011701015794,登記記録の閉鎖等,0,2021-10-29,2021-10-26,株式会社日進,,株式会社,東京都,江戸川区,篠崎町７丁目１７番１８号,,13,123,1330061,,,2021-10-26,清算の結了等,,,2015-10-05,1,,,,,,0
652,3011801002759,登記記録の閉鎖等,0,2021-10-29,2021-10-27,株式会社たかの電器,,株式会社,東京都,葛飾区,立石７丁目２２番３号,,13,122,1240012,,,2021-10-27,清算の結了等,,,2015-10-05,1,,,,,タカノデンキ,0
659,3011802020941,登記記録の閉鎖等,0,2021-10-29,2021-10-28,有限会社サカエヤ本店,,有限会社,東京都,足立区,千住１丁目１２番１号,,13,121,1200034,,,2021-10-28,清算の結了等,,,2015-10-05,1,,,,,サカエヤホンテン,0
671,3020001124116,登記記録の閉鎖等,0,2021-10-29,2021-10-26,株式会社グリーン,,株式会社,神奈川県,川崎市幸区,南加瀬３丁目２０番１８－５０５号,,14,132,2120055,,,2021-10-26,清算の結了等,,,2017-12-07,1,,,,,グリーン,0
673,3020002035048,登記記録の閉鎖等,0,2021-10-29,2021-10-26,有限会社内藤金物店,,有限会社,神奈川県,横浜市港北区,綱島西１丁目１５番４号,,14,109,2230053,,,2021-10-26,清算の結了等,,,2015-10-05,1,,,,,ナイトウカナモノテン,0
708,3050002010436,登記記録の閉鎖等,0,2021-10-29,2021-10-25,有限会社丸巳屋不動産,,有限会社,茨城県,笠間市,笠間１９６７番地の２,,08,216,3091611,,,2021-10-25,清算の結了等,,,2015-10-05,1,,,,,マルミヤフドウサン,0
716,3060002036430,登記記録の閉鎖等,0,2021-10-29,2021-10-25,有限会社下山木型製作所,,有限会社,栃木県,足利市,大沼田町７９番地の３,,09,202,3260011,,,2021-10-25,清算の結了等,,,2015-10-05,1,,,,,シモヤマキガタセイサクショ,0
728,3090001015721,登記記録の閉鎖等,0,2021-10-29,2021-10-26,エムズ環境株式会社,,株式会社,山梨県,中央市,下河東９５４番地,,19,214,4093821,,,2021-10-26,清算の結了等,,,2018-09-06,1,,,,,エムズカンキョウ,0
759,3120902000438,登記記録の閉鎖等,0,2021-10-29,2021-10-27,有限会社小方木材商会,,有限会社,大阪府,茨木市,水尾２丁目３番１１号,,27,211,5670891,,,2021-10-27,清算の結了等,,,2015-10-05,1,,,,,,0
774,3150005008863,登記記録の閉鎖等,0,2021-10-29,2021-10-28,税理士法人ＳＡＳＧＡ,,その他の設立登記法人,奈良県,橿原市,上品寺町３４６番地の６,,29,205,6340803,,,2021-10-28,清算の結了等,,,2017-06-16,1,,,,,サスガ,0
791,3180002053967,登記記録の閉鎖等,0,2021-10-29,2021-10-22,有限会社コハクフィルム,,有限会社,愛知県,名古屋市中区,千代田４丁目１番２３号,,23,106,4600012,,,2021-10-22,清算の結了等,,,2015-10-05,1,,,,,コハクフィルム,0
807,3220005003766,登記記録の閉鎖等,0,2021-10-29,2021-10-05,天理教小松分教会,,その他の設立登記法人,石川県,小松市,佐々木町イ１７３番地,,17,203,9230821,,,2021-10-05,合併による解散等,2220005003767,令和３年１０月５日石川県小松市大領中町二丁目３２４番地天理教能美分教会（2220005003767）に合併し解散,2015-10-05,1,,,,,テンリキョウコマツブンキョウカイ,0
809,3230002001986,登記記録の閉鎖等,0,2021-10-29,2021-10-26,有限会社タカシステム,,有限会社,富山県,富山市,藤木２６１２番地,,16,201,9300936,,,2021-10-26,清算の結了等,,,2015-10-05,1,,,,,タカシステム,0
831,3300005001043,登記記録の閉鎖等,0,2021-10-29,2021-10-01,佐城地区園芸販売農業協同組合連合会,,その他の設立登記法人,佐賀県,佐賀市,高木瀬西６丁目７番１号,,41,201,8490921,,,2021-10-01,合併による解散等,6300005003029,令和３年１０月１日佐賀市栄町３番３２号佐賀県農業協同組合（6300005003029）に権利義務を承継し解散,2015-10-05,1,,,,,サジョウチクエンゲイハンバイ,0
837,3330001021496,登記記録の閉鎖等,0,2021-10-29,2021-10-26,株式会社カネソウ,,株式会社,熊本県,熊本市中央区,新屋敷１丁目４番３２号,,43,101,8620975,,,2021-10-26,清算の結了等,,,2015-10-05,1,,,,,カネソウ,0
849,3370001021625,登記記録の閉鎖等,0,2021-10-29,2021-10-21,株式会社ＩＣＳＡ,,株式会社,宮城県,仙台市宮城野区,岩切字水分４９番地の６,,04,102,9830821,,,2021-10-21,清算の結了等,,,2015-10-05,1,,,,,,0
853,3370001047249,登記記録の閉鎖等,0,2021-10-29,2021-10-21,久本工業株式会社,,株式会社,宮城県,仙台市太白区,西中田７丁目３６番２８号,,04,104,9811105,,,2021-10-21,清算の結了等,,,2021-07-05,1,,,,,ヒサモトコウギョウ,0
867,3420001004442,登記記録の閉鎖等,0,2021-10-29,2021-10-27,株式会社エービーテクノ,,株式会社,青森県,青森市,大字新城字平岡２５８番地３７,,02,201,0380042,,,2021-10-27,清算の結了等,,,2015-10-05,1,,,,,エービーテクノ,0
927,4010502010310,登記記録の閉鎖等,0,2021-10-29,2021-10-27,有限会社丸伸金属製作所,,有限会社,東京都,台東区,松が谷３丁目３番１７号,,13,106,1110036,,,2021-10-27,清算の結了等,,,2015-10-05,1,,,,,マルシンキンゾクセイサクジョ,0
931,4010601005368,登記記録の閉鎖等,0,2021-10-29,2021-10-18,東京ソーゴー株式会社,,株式会社,東京都,江東区,大島３丁目１３番１０号,,13,108,1360072,,,2021-10-18,清算の結了等,,,2015-10-05,1,,,,,トウキョウソーゴー,0
991,4021001037868,登記記録の閉鎖等,0,2021-10-29,2021-10-26,ハウスランド株式会社,,株式会社,神奈川県,中郡大磯町,国府本郷７６９番地,,14,341,2590111,,,2021-10-26,清算の結了等,,,2015-10-05,1,,,,,ハウスランド,0
1036,4080102016528,登記記録の閉鎖等,0,2021-10-29,2021-10-19,有限会社オートセンタールート一三九,,有限会社,静岡県,富士宮市,万野原新田４０８５番地の１６,,22,207,4180001,,,2021-10-19,清算の結了等,,,2015-10-05,1,,,,,オートセンタールートイチサンキュウ,0
1077,4180002026419,登記記録の閉鎖等,0,2021-10-29,2021-10-21,有限会社フェアネット,,有限会社,愛知県,名古屋市緑区,ほら貝１丁目３６３番地,,23,114,4580013,,,2021-10-21,清算の結了等,,,2015-10-05,1,,,,,フェアネット,0
1079,4180005011806,登記記録の閉鎖等,0,2021-10-29,2021-10-22,豊浜水産加工センター協同組合,,その他の設立登記法人,愛知県,知多郡南知多町,大字豊浜字月之浦１番地の８３,,23,445,4703412,,,2021-10-22,清算の結了等,,,2015-10-05,1,,,,,トヨハマスイサンカコウセンター,0
1080,4180301031689,登記記録の閉鎖等,0,2021-10-29,2021-10-27,株式会社藤通運,,株式会社,愛知県,豊橋市,二川町字川田４２番地の１,,23,201,4413155,,,2021-10-27,清算の結了等,,,2018-07-13,1,,,,,フジツウウン,0
1089,4200002009701,登記記録の閉鎖等,0,2021-10-29,2021-10-25,有限会社木村工務店,,有限会社,岐阜県,瑞穂市,稲里７３１番地の４,,21,216,5010224,,,2021-10-25,清算の結了等,,,2015-10-05,1,,,,,キムラコウムテン,0
1094,4230001008115,登記記録の閉鎖等,0,2021-10-29,2021-10-25,藤澤工業株式会社,,株式会社,富山県,下新川郡入善町,入膳４９５８番地３,,16,342,9390626,,,2021-10-25,清算の結了等,,,2015-10-05,1,,,,,フジサワコウギョウ,0
1160,4470001002060,登記記録の閉鎖等,0,2021-10-29,2021-10-27,＿海株式会社,00005022,株式会社,香川県,高松市,檀紙町１１４８番地１,,37,201,7618041,,,2021-10-27,清算の結了等,,,2015-10-05,1,,,,,ジュカイ,0
1164,4500005000767,登記記録の閉鎖等,0,2021-10-29,2021-10-01,医療法人博愛会,,その他の設立登記法人,愛媛県,松山市,祓川１丁目２番２８号,,38,201,7918066,,,2021-10-01,合併による解散等,2500005001932,令和３年１０月１日愛媛県松山市北井門二丁目７番２８号医療法人松山平成会（2500005001932）に合併し解散,2015-10-05,1,,,,,ハクアイカイ,0
1184,5010003026796,登記記録の閉鎖等,0,2021-10-29,2021-10-27,合同会社和田倉インベストメント,,合同会社,東京都,千代田区,丸の内２丁目４番１号,,13,101,1000005,,,2021-10-27,清算の結了等,,,2018-01-18,1,,,,,ワダクラインベストメント,0
1188,5010401108205,登記記録の閉鎖等,0,2021-10-29,2021-10-18,株式会社柳下,,株式会社,東京都,港区,元麻布２丁目１１番５０号,,13,103,1060046,,,2021-10-18,合併による解散等,3010403011103,令和３年１０月１日東京都港区元麻布二丁目１１番５０号合同会社タシギナヤ（3010403011103）に合併し解散,2015-10-05,1,,,,,,0
1206,5011001120319,登記記録の閉鎖等,0,2021-10-29,2021-10-14,株式会社ＳＡＭＥＳＨＩＭＡ,,株式会社,東京都,目黒区,青葉台１丁目２８番１号,,13,110,1530042,,,2021-10-14,清算の結了等,,,2018-01-26,1,,,,,サメシマ,0
1217,5011301021480,登記記録の閉鎖等,0,2021-10-29,2021-10-25,株式会社リンクス,,株式会社,東京都,杉並区,松ノ木１丁目１番１３号,,13,115,1660014,,,2021-10-25,清算の結了等,,,2015-10-05,1,,,,,リンクス,0
1227,5011701004787,登記記録の閉鎖等,0,2021-10-29,2021-10-27,大雄工業株式会社,,株式会社,東京都,江戸川区,江戸川１丁目１４番地５,,13,123,1320013,,,2021-10-27,清算の結了等,,,2015-10-05,1,,,,,ダイユウコウギョウ,0
1255,5021002043154,登記記録の閉鎖等,0,2021-10-29,2021-10-26,有限会社インターオートサービス,,有限会社,神奈川県,座間市,小松原１丁目１６番２０号,,14,216,2520002,,,2021-10-26,清算の結了等,,,2015-10-05,1,,,,,インターオートサービス,0
1265,5030002073301,登記記録の閉鎖等,0,2021-10-29,2021-10-25,有限会社寿観光バス,,有限会社,埼玉県,川越市,寿町１丁目２３１５番地,,11,201,3501116,,,2021-10-25,清算の結了等,,,2015-10-05,1,,,,,コトブキカンコウバス,0
1299,5100002003878,登記記録の閉鎖等,0,2021-10-29,2021-10-28,有限会社二幸電気商会,,有限会社,長野県,長野市,三輪８丁目７番１９号,,20,201,3800803,,,2021-10-28,清算の結了等,,,2015-10-05,1,,,,,ニコウデンキショウカイ,0
1301,5100002015254,登記記録の閉鎖等,0,2021-10-29,2021-10-27,有限会社ユー・ディー・エス,,有限会社,長野県,上田市,生田４１４４番地,,20,203,3860411,,,2021-10-27,清算の結了等,,,2015-10-05,1,,,,,ユーディーエス,0
1302,5100002018100,登記記録の閉鎖等,0,2021-10-29,2021-10-27,有限会社徳竹電機,,有限会社,長野県,中野市,西２丁目３番１３号,,20,211,3830021,,,2021-10-27,清算の結了等,,,2015-10-05,1,,,,,トクタケデンキ,0
1325,5120105004235,登記記録の閉鎖等,0,2021-10-29,2021-10-01,医療法人松原会,,その他の設立登記法人,大阪府,松原市,岡４丁目２番３０号,,27,217,5800014,,,2021-10-01,合併による解散等,2120105000170,令和３年１０月１日大阪府堺市西区上５５６番地の３医療法人芳明会（2120105000170）に合併し解散,2015-10-05,1,,,,,マツバラカイ,0
1331,5130002034607,登記記録の閉鎖等,0,2021-10-29,2021-10-26,有限会社舞鶴コンタクトレンズセンター,,有限会社,京都府,舞鶴市,字浜９９８番地,,26,202,6250036,,,2021-10-26,清算の結了等,,,2015-10-05,1,,,,,マイヅルコンタクトレンズセンター,0
1350,5180302027859,登記記録の閉鎖等,0,2021-10-29,2021-10-27,有限会社井出村管工,,有限会社,愛知県,新城市,大野字広野７番地の３,,23,221,4411615,,,2021-10-27,清算の結了等,,,2015-10-05,1,,,,,イデムラカンコウ,0
1352,5190001013151,登記記録の閉鎖等,0,2021-10-29,2021-10-27,株式会社フジモト,,株式会社,三重県,桑名市,大字額田１０００番地１３４,,24,205,5110911,,,2021-10-27,清算の結了等,,,2015-10-05,1,,,,,フジモト,0
1358,5230001014186,登記記録の閉鎖等,0,2021-10-29,2021-10-25,株式会社ハイスタンド,,株式会社,富山県,射水市,片口久々江６７４番地２,,16,211,9340037,,,2021-10-25,清算の結了等,,,2015-10-05,1,,,,,ハイスタンド,0
1366,5260002015065,登記記録の閉鎖等,0,2021-10-29,2021-10-28,有限会社アベナチュラルファーム,,有限会社,岡山県,岡山市南区,迫川６８７番地,,33,104,7091211,,,2021-10-28,清算の結了等,,,2015-10-05,1,,,,,,0
1369,5270005002299,登記記録の閉鎖等,0,2021-10-29,2021-10-06,天理教八賀茂分教会,,その他の設立登記法人,鳥取県,八頭郡八頭町,郡家４９５番地７,,31,329,6800461,,,2021-10-06,合併による解散等,1270005002410,令和３年１０月６日鳥取県鳥取市河原町佐貫１４５番地天理教八上分教会（1270005002410）に合併し解散,2015-10-05,1,,,,,テンリキョウヤカモブンキョウカイ,0
1370,5290001018512,登記記録の閉鎖等,0,2021-10-29,2021-10-25,株式会社都市評価システム福岡,,株式会社,福岡県,福岡市中央区,天神４丁目１番２９号,,40,133,8100001,,,2021-10-25,清算の結了等,,,2015-10-05,1,,,,,トシヒョウカシステムフクオカ,0
1400,5420005000691,登記記録の閉鎖等,0,2021-10-29,2021-10-27,医療法人正和会,,その他の設立登記法人,青森県,青森市,富田１丁目１０番１０号,,02,201,0380004,,,2021-10-27,清算の結了等,,,2015-10-05,1,,,,,セイワカイ,0
1433,6010001181163,登記記録の閉鎖等,0,2021-10-29,2021-10-26,株式会社コビックス,,株式会社,東京都,中央区,晴海２丁目３番２号２２０６,,13,102,1040053,,,2021-10-26,清算の結了等,,,2017-02-02,1,,,,,コビックス,0
1459,6010403022320,登記記録の閉鎖等,0,2021-10-29,2021-10-15,ブルーエナジーブリッジファンドラムダ合同会社,,合同会社,東京都,港区,元赤坂１丁目１番７号,,13,103,1070051,,,2021-10-15,清算の結了等,,,2020-02-12,1,,,,,ブルーエナジーブリッジファンドラムダ,0
1489,6011101073762,登記記録の閉鎖等,0,2021-10-29,2021-10-25,株式会社ピーアンドダブリュ,,株式会社,東京都,新宿区,下落合４丁目１２番１６号,,13,104,1610033,,,2021-10-25,清算の結了等,,,2015-10-05,1,,,,,ピーアンドダブリュ,0
1496,6011601020289,登記記録の閉鎖等,0,2021-10-29,2021-10-27,株式会社ＢＩＲ,,株式会社,東京都,練馬区,豊玉北４丁目２８番１５号２０１,,13,120,1760012,,,2021-10-27,清算の結了等,,,2015-10-05,1,,,,,,0
1498,6011602021963,登記記録の閉鎖等,0,2021-10-29,2021-10-26,有限会社ＩＴＡ,,有限会社,東京都,練馬区,石神井町６丁目１７番４３号,,13,120,1770041,,,2021-10-26,清算の結了等,,,2015-10-05,1,,,,,アイティーエイ,0
1569,6080401014172,登記記録の閉鎖等,0,2021-10-29,2021-10-27,株式会社アヅマ総合美装,,株式会社,静岡県,掛川市,掛川１７番地,,22,213,4360079,,,2021-10-27,清算の結了等,,,2015-10-05,1,,,,,アヅマソウゴウビソウ,0
1573,6110001004611,登記記録の閉鎖等,0,2021-10-29,2021-10-27,株式会社万代会館,,株式会社,新潟県,新潟市中央区,三和町３番２５号,,15,103,9500081,,,2021-10-27,清算の結了等,,,2015-10-05,1,,,,,バンダイカイカン,0
1582,6120001135042,登記記録の閉鎖等,0,2021-10-29,2021-10-27,曽根崎センタービル株式会社,,株式会社,大阪府,大阪市北区,曾根崎２丁目１０番１５号,,27,127,5300057,,,2021-10-27,清算の結了等,,,2015-10-05,1,,,,,ソネザキセンタービル,0
1591,6120901013520,登記記録の閉鎖等,0,2021-10-29,2021-10-26,株式会社西日本プロダクト,,株式会社,大阪府,茨木市,中津町１８番２３号,,27,211,5670824,,,2021-10-26,清算の結了等,,,2015-10-05,1,,,,,ニシニホンプロダクト,0
1592,6120901020459,登記記録の閉鎖等,0,2021-10-29,2021-10-27,株式会社公研理化製作所,,株式会社,大阪府,箕面市,半町３丁目５番Ｂ－３０１号,,27,220,5620044,,,2021-10-27,清算の結了等,,,2015-10-05,1,,,,,コウケンリカセイサクショ,0
1607,6140005006691,登記記録の閉鎖等,0,2021-10-29,2021-10-06,天理教網川分教会,,その他の設立登記法人,兵庫県,たつの市,龍野町宮脇２９８番地,,28,229,6794127,,,2021-10-06,合併による解散等,7140005006690,令和３年１０月６日兵庫県たつの市揖保町揖保上中屋敷１５３番地天理教揖保川分教会（7140005006690）に合併し解散,2015-10-05,1,,,,,テンリキョウアミカワブンキョウカイ,0
1643,6270005002463,登記記録の閉鎖等,0,2021-10-29,2021-10-26,大坪生産森林組合,,その他の設立登記法人,鳥取県,八頭郡智頭町,大字三吉５２１番地,,31,328,6891434,,,2021-10-26,清算の結了等,,,2015-10-05,1,,,,,オオツボ,0
1663,6330001023754,登記記録の閉鎖等,0,2021-10-29,2021-10-26,株式会社プログレス,,株式会社,熊本県,熊本市中央区,水前寺１丁目３３番３７号,,43,101,8620950,,,2021-10-26,清算の結了等,,,2017-02-20,1,,,,,プログレス,0
1671,6370001045381,登記記録の閉鎖等,0,2021-10-29,2021-10-18,株式会社アルソーラ,,株式会社,宮城県,宮城郡利府町,神谷沢字塚元１９番地３メゾンウィスタリアＢ,,04,406,9810121,,,2021-10-18,清算の結了等,,,2020-02-05,1,,,,,アルソーラ,0
1677,6380001019780,登記記録の閉鎖等,0,2021-10-29,2021-10-27,平南ディベロップメント株式会社,,株式会社,福島県,いわき市,平字愛谷町一丁目４番地の１０－２Ｆ,,07,204,9708026,,,2021-10-27,合併による解散等,2010403022274,令和３年１０月２２日東京都品川区上大崎三丁目１番１号目黒セントラルスクエア１５階平南ホールディングス合同会社（2010403022274）に合併し解散,2015-10-05,1,,,,,ヘイナンディベロップメント,0
1678,6390001005796,登記記録の閉鎖等,0,2021-10-29,2021-10-25,株式会社佐藤燃料,,株式会社,山形県,山形市,幸町７番２９号,,06,201,9900038,,,2021-10-25,清算の結了等,,,2015-10-05,1,,,,,サトウネンリョウ,0
1756,7011001117197,登記記録の閉鎖等,0,2021-10-29,2021-10-14,株式会社テイルスガーデン,,株式会社,東京都,渋谷区,幡ヶ谷３丁目３９番１２号,,13,113,1510072,,,2021-10-14,清算の結了等,,,2017-07-07,1,,,,,テイルスガーデン,0
1788,7020002013207,登記記録の閉鎖等,0,2021-10-29,2021-10-27,有限会社萬屋酒店,,有限会社,神奈川県,横浜市戸塚区,舞岡町２９番地１８,,14,110,2440813,,,2021-10-27,清算の結了等,,,2015-10-05,1,,,,,ヨロズヤサケテン,0
1791,7021001006102,登記記録の閉鎖等,0,2021-10-29,2021-10-26,株式会社ＦＡ工業,,株式会社,神奈川県,藤沢市,石川３丁目１番地の１４,,14,205,2520815,,,2021-10-26,清算の結了等,,,2015-10-05,1,,,,,エフエーコウギョウ,0
1805,7030001112982,登記記録の閉鎖等,0,2021-10-29,2021-09-27,株式会社スマイルサポート,,株式会社,埼玉県,草加市,青柳５丁目２番３号,,11,221,3400002,,,2021-09-27,清算の結了等,,,2016-02-24,1,,,,,スマイルサポート,0
1818,7040001075378,登記記録の閉鎖等,0,2021-10-29,2021-10-25,システムコントロールイニシャティブ株式会社,,株式会社,千葉県,夷隅郡御宿町,御宿台３３２番地１０,,12,443,2995112,,,2021-10-25,清算の結了等,,,2015-10-05,1,,,,,システムコントロールイニシャティブ,0
1824,7040002072069,登記記録の閉鎖等,0,2021-10-29,2021-10-25,有限会社アート・ウォール・ホンマ,,有限会社,千葉県,市原市,門前２丁目１番地１,,12,219,2900016,,,2021-10-25,清算の結了等,,,2015-10-05,1,,,,,アートウォールホンマ,0
1837,7080402007620,登記記録の閉鎖等,0,2021-10-29,2021-10-26,有限会社丸岡,,有限会社,静岡県,浜松市西区,大人見町２６７番地,,22,133,4311112,,,2021-10-26,清算の結了等,,,2015-10-05,1,,,,,マルオカ,0
1842,7110002006507,登記記録の閉鎖等,0,2021-10-29,2021-10-12,有限会社みやはら塗装,,有限会社,新潟県,新潟市西区,小針８丁目１３番５１号,,15,107,9502022,,,2021-10-12,清算の結了等,,,2015-10-05,1,,,,,ミヤハラトソウ,0
1890,7180005009731,登記記録の閉鎖等,0,2021-10-29,2021-10-27,阿弥陀寺,,その他の設立登記法人,愛知県,一宮市,萩原町東宮重６４０番地,,23,203,4910363,,,2021-10-27,清算の結了等,,,2015-10-05,1,,,,,アミダジ,0
1891,7180005010235,登記記録の閉鎖等,0,2021-10-29,2021-10-27,浄観寺,,その他の設立登記法人,愛知県,一宮市,西萩原字西浦９２５番地,,23,203,4940011,,,2021-10-27,清算の結了等,,,2015-10-05,1,,,,,ジョウカンジ,0
1892,7180005016001,登記記録の閉鎖等,0,2021-10-29,2021-10-27,一般社団法人日本家庭餃子協会,,その他の設立登記法人,愛知県,海部郡大治町,大字花常字西江端１１番地２,,23,424,4901136,,,2021-10-27,清算の結了等,,,2015-10-05,1,,,,,ニホンカテイギョウザキョウカイ,0
1933,7310003001643,登記記録の閉鎖等,0,2021-10-29,2021-10-27,合資会社山田司郎畳店,,合資会社,長崎県,諫早市,幸町１番１５号,,42,204,8540022,,,2021-10-27,清算の結了等,,,2015-10-05,1,,,,,ヤマダシロウタタミテン,0
1961,7420005002380,登記記録の閉鎖等,0,2021-10-29,2021-10-28,特定非営利活動法人あおもり観光・誘客推進協会,,その他の設立登記法人,青森県,青森市,新町２丁目７番１６号,,02,201,0300801,,,2021-10-28,清算の結了等,,,2015-10-05,1,,,,,アオモリカンコウユウキャクスイシンキョウカイ,0
1986,8010001080537,登記記録の閉鎖等,0,2021-10-29,2021-10-27,カミィ株式会社,,株式会社,東京都,千代田区,内神田２丁目１２番１２号,,13,101,1010047,,,2021-10-27,清算の結了等,,,2015-10-05,1,,,,,カミィ,0
1992,8010001158960,登記記録の閉鎖等,0,2021-10-29,2021-10-08,Ｋ２デザイン株式会社,,株式会社,東京都,渋谷区,千駄ヶ谷２丁目３３番８号,,13,113,1510051,,,2021-10-08,合併による解散等,3010002053694,令和３年１０月１日東京都渋谷区千駄ヶ谷二丁目３３番８号株式会社ワイケープロデュース（3010002053694）に合併し解散,2015-10-05,1,,,,,ケーツーデザイン,0
2020,8010403022319,登記記録の閉鎖等,0,2021-10-29,2021-10-15,ブルーエナジーブリッジファンドミュー合同会社,,合同会社,東京都,港区,元赤坂１丁目１番７号,,13,103,1070051,,,2021-10-15,清算の結了等,,,2020-02-12,1,,,,,ブルーエナジーブリッジファンドミュー,0
2058,8012701002860,登記記録の閉鎖等,0,2021-10-29,2021-10-27,株式会社新製品企画,,株式会社,東京都,西東京市,下保谷３丁目９番２３号,,13,229,2020004,,,2021-10-27,清算の結了等,,,2015-10-05,1,,,,,シンセイヒンキカク,0
2062,8012801016562,登記記録の閉鎖等,0,2021-10-29,2021-10-20,株式会社コミットブルー,,株式会社,東京都,国分寺市,本町２丁目２３番６号,,13,214,1850012,,,2021-10-20,清算の結了等,,,2015-10-05,1,,,,,コミットブルー,0
2067,8013301044541,登記記録の閉鎖等,0,2021-10-29,2021-10-22,株式会社Ｆｕｔｕｒｅ　Ｆｏｃｕｓ,,株式会社,東京都,豊島区,西池袋５丁目１７番１２号創業新幹線ビル７Ｆ,,13,116,1710021,,,2021-10-22,清算の結了等,,,2019-10-01,1,,,,,フューチャーフォーカス,0
2116,8080102010205,登記記録の閉鎖等,0,2021-10-29,2021-10-22,有限会社小林製菓,,有限会社,静岡県,駿東郡清水町,長沢１８８番地の１,,22,341,4110905,,,2021-10-22,清算の結了等,,,2015-10-05,1,,,,,コバヤシセイカ,0
2151,8120905006089,登記記録の閉鎖等,0,2021-10-29,2021-10-26,一般社団法人日本姓名判断協会,,その他の設立登記法人,大阪府,吹田市,江坂町１丁目２３番１９号,,27,205,5640063,,,2021-10-26,清算の結了等,,,2020-10-08,1,,,,,ニホンセイメイハンダンキョウカイ,0
2156,8130001048506,登記記録の閉鎖等,0,2021-10-29,2021-10-26,株式会社すまいるほけん,,株式会社,京都府,京都市右京区,西院四条畑町５番地３,,26,108,6150066,,,2021-10-26,清算の結了等,,,2015-10-05,1,,,,,スマイルホケン,0
2169,8150005004890,登記記録の閉鎖等,0,2021-10-29,2021-10-27,観音寺,,その他の設立登記法人,奈良県,高市郡明日香村,大字大根田２０１番地,,29,402,6340133,,,2021-10-27,清算の結了等,,,2015-10-05,1,,,,,カンノンジ,0
2178,8180001137700,登記記録の閉鎖等,0,2021-10-29,2021-10-27,ディーレセプション株式会社,,株式会社,愛知県,知立市,上重原町恩田２０８番地,,23,225,4720026,,,2021-10-27,清算の結了等,,,2019-08-05,1,,,,,ディーレセプション,0
2188,8190002000154,登記記録の閉鎖等,0,2021-10-29,2021-10-28,有限会社伊藤木工所,,有限会社,三重県,津市,東丸之内１４番２３号,,24,201,5140028,,,2021-10-28,清算の結了等,,,2015-10-05,1,,,,,イトウモッコウショ,0
2190,8190003002422,登記記録の閉鎖等,0,2021-10-29,2021-10-29,合同会社みやびや,,合同会社,三重県,津市,大里川北町５７７番地３１,,24,201,5140124,,,2021-10-29,清算の結了等,,,2015-10-05,1,,,,,ミヤビヤ,0
2202,8220002002056,登記記録の閉鎖等,0,2021-10-29,2021-10-26,有限会社金沢テクニカルエンジニアリングサービス,,有限会社,石川県,金沢市,本町１丁目３番３６号,,17,201,9200853,,,2021-10-26,合併による解散等,5220001002266,令和３年１０月２６日石川県金沢市本町一丁目３番３６号金商株式会社（5220001002266）に合併し解散,2015-10-05,1,,,,,カナザワテクニカルエンジニアリングサービス,0
2204,8230002014257,登記記録の閉鎖等,0,2021-10-29,2021-10-26,有限会社ライフサポート,,有限会社,富山県,射水市,小林２１０番地の５,,16,211,9390288,,,2021-10-26,清算の結了等,,,2015-10-05,1,,,,,ライフサポート,0
2251,8380001018921,登記記録の閉鎖等,0,2021-10-29,2021-10-22,夢舞台株式会社,,株式会社,福島県,耶麻郡磐梯町,大字磐梯字七ツ森７４２６番地２１,,07,407,9693301,,,2021-10-22,清算の結了等,,,2015-10-05,1,,,,,,0
2261,8450005002022,登記記録の閉鎖等,0,2021-10-29,2021-10-28,農事組合法人秩父別故郷米倶楽部,,その他の設立登記法人,北海道,雨竜郡秩父別町,２０７２番地の３,,01,434,0782100,,,2021-10-28,清算の結了等,,,2015-10-05,1,,,,,チップベツフルサトコメクラブ,0
2266,8500001001609,登記記録の閉鎖等,0,2021-10-29,2021-10-28,株式会社高山板金鉄工所,,株式会社,愛媛県,松山市,土居田町６４１番地の１,,38,201,7900056,,,2021-10-28,清算の結了等,,,2015-10-05,1,,,,,タカヤマバンキンテッコウショ,0
2325,9011703002397,登記記録の閉鎖等,0,2021-10-29,2021-10-26,レーヴェングレス合同会社,,合同会社,東京都,江戸川区,平井７丁目２９番１４号,,13,123,1320035,,,2021-10-26,清算の結了等,,,2019-10-30,1,,,,,レーヴェングレス,0
2332,9012801003477,登記記録の閉鎖等,0,2021-10-29,2021-10-26,株式会社大恵システム,,株式会社,東京都,東大和市,高木３丁目３５１番地の１,,13,220,2070005,,,2021-10-26,清算の結了等,,,2015-10-05,1,,,,,ダイケイシステム,0
2333,9013301027074,登記記録の閉鎖等,0,2021-10-29,2021-10-25,ラシーヌ株式会社,,株式会社,東京都,豊島区,南大塚３丁目５２番１０号,,13,116,1700005,,,2021-10-25,清算の結了等,,,2015-10-05,1,,,,,ラシーヌ,0
2334,9013402000657,登記記録の閉鎖等,0,2021-10-29,2021-10-25,有限会社サン・リッツ,,有限会社,東京都,日野市,豊田４丁目２番地の２,,13,212,1910053,,,2021-10-25,清算の結了等,,,2015-10-05,1,,,,,サンリッツ,0
2344,9020003003279,登記記録の閉鎖等,0,2021-10-29,2021-10-22,アリミック合資会社,,合資会社,神奈川県,横浜市都筑区,中川３丁目２５番７号,,14,118,2240001,,,2021-10-22,清算の結了等,,,2015-10-05,1,,,,,アリミック,0
2356,9030001098642,登記記録の閉鎖等,0,2021-10-29,2021-10-22,株式会社マドル,,株式会社,埼玉県,さいたま市緑区,大字大門１４６４番地８,,11,109,3360963,,,2021-10-22,清算の結了等,,,2015-10-05,1,,,,,マドル,0
2363,9030002106429,登記記録の閉鎖等,0,2021-10-29,2021-10-22,有限会社富士商工,,有限会社,埼玉県,川口市,飯原町４番１５号,,11,203,3320024,,,2021-10-22,清算の結了等,,,2015-10-05,1,,,,,フジショウコウ,0
2364,9030002117855,登記記録の閉鎖等,0,2021-10-29,2021-10-13,有限会社柴田商店,,有限会社,埼玉県,行田市,向町６番１９号,,11,206,3610075,,,2021-10-13,清算の結了等,,,2015-10-05,1,,,,,シバタショウテン,0
2367,9040001009887,登記記録の閉鎖等,0,2021-10-29,2021-10-22,日枝建設株式会社,,株式会社,千葉県,千葉市中央区,登戸１丁目２１番１５号,,12,101,2600032,,,2021-10-22,清算の結了等,,,2015-10-05,1,,,,,ヒエケンセツ,0
2374,9040003004309,登記記録の閉鎖等,0,2021-10-29,2021-10-21,合同会社Ｋ－ＭＡＸＡＵＴＯ,,合同会社,千葉県,市原市,八幡石塚１丁目３番地６,,12,219,2900061,,,2021-10-21,清算の結了等,,,2015-10-05,1,,,,,ケーマックスオート,0
2404,9110002028004,登記記録の閉鎖等,0,2021-10-29,2021-10-27,有限会社杉野建築,,有限会社,新潟県,長岡市,蔵王１丁目３番２７号,,15,202,9400028,,,2021-10-27,清算の結了等,,,2015-10-05,1,,,,,スギノケンチク,0
2416,9120001230682,登記記録の閉鎖等,0,2021-10-29,2021-10-26,株式会社ＲＭ,,株式会社,大阪府,大阪市淀川区,東三国３丁目１０番３号,,27,123,5320002,,,2021-10-26,合併による解散等,9430001083562,令和３年１０月１日札幌市中央区南五条西四丁目１番地株式会社ＴＲＡＭＯ（9430001083562）に合併し解散,2020-07-30,1,,,,,,0
2443,9140002024289,登記記録の閉鎖等,0,2021-10-29,2021-10-27,有限会社アイ・ビー・アイ,,有限会社,兵庫県,明石市,東朝霧丘３０番１０号ハイツ東朝霧１２０７号,,28,203,6730854,,,2021-10-27,清算の結了等,,,2015-10-05,1,,,,,アイビーアイ,0
2465,9180302013913,登記記録の閉鎖等,0,2021-10-29,2021-10-28,有限会社プリックス,,有限会社,愛知県,豊川市,諏訪２丁目２９４番地,,23,207,4420068,,,2021-10-28,清算の結了等,,,2015-10-05,1,,,,,プリックス,0
2466,9190001013486,登記記録の閉鎖等,0,2021-10-29,2021-10-27,株式会社中部不動産コンサルタント,,株式会社,三重県,桑名市,大字下深谷部６７３番地１,,24,205,5110808,,,2021-10-27,清算の結了等,,,2015-10-05,1,,,,,チュウブフドウサンコンサルタント,0
2480,9230002006385,登記記録の閉鎖等,0,2021-10-29,2021-10-26,有限会社エイアンドエム,,有限会社,富山県,富山市,八木山６８番地,,16,201,9392253,,,2021-10-26,清算の結了等,,,2015-10-05,1,,,,,,0
2509,9290802004343,登記記録の閉鎖等,0,2021-10-29,2021-10-12,有限会社結,,有限会社,福岡県,北九州市小倉北区,大畠２丁目５番１９号,,40,106,8020026,,,2021-10-12,清算の結了等,,,2015-10-05,1,,,,,ユイ,0
2527,9380002030346,登記記録の閉鎖等,0,2021-10-29,2021-10-26,広野エンジニアリング有限会社,,有限会社,福島県,双葉郡広野町,大字上北迫字代６０番地,,07,541,9790401,,,2021-10-26,清算の結了等,,,2015-10-05,1,,,,,ヒロノエンジニアリング,0
2534,9430002028120,登記記録の閉鎖等,0,2021-10-29,2021-10-25,有限会社エム・エス・エー・アーキワーク,,有限会社,北海道,札幌市白石区,東米里２１９３番地,,01,104,0030876,,,2021-10-25,清算の結了等,,,2015-10-05,1,,,,,エムエスエーアーキワーク,0
