sequenceNumber,corporateNumber,process,correct,updateDate,changeDate,name,nameImageId,kind,prefectureName,cityName,streetNumber,addressImageId,prefectureCode,cityCode,postCode,addressOutside,addressOutsideImageId,closeDate,closeCause,successorCorporateNumber,changeCause,assignmentDate,latest,enName,enPrefectureName,enCityName,enAddressOutside,furigana,hihyoji
9,1010001239486,新規,0,2023-10-25,2023-10-25,株式会社瑞徳,,株式会社,東京都,千代田区,神田紺屋町２７－４国際神田ビル２階,,13,101,1010035,,,,,,,2023-10-25,1,,,,,スイトク,0
17,1010003042021,新規,0,2023-10-25,2023-10-25,合同会社ａｎｄＤＯＧ,,合同会社,東京都,中央区,銀座１丁目１２番４号Ｎ＆ＥＢＬＤ．６Ｆ,,13,102,1040061,,,,,,,2023-10-25,1,,,,,アンドドッグ,0
18,1010003042038,新規,0,2023-10-25,2023-10-25,大栄レジデンシャルファンド１号合同会社,,合同会社,東京都,千代田区,丸の内３丁目１番１号東京共同会計事務所内,,13,101,1000005,,,,,,,2023-10-25,1,,,,,ダイエイレジデンシャルファンドイチゴウ,0
25,1010401178012,新規,0,2023-10-25,2023-10-25,ウェルペッツ株式会社,,株式会社,東京都,港区,海岸１丁目２番３号汐留芝離宮ビルディング２１階,,13,103,1050022,,,,,,,2023-10-25,1,,,,,ウェルペッツ,0
26,1010401178086,新規,0,2023-10-25,2023-10-25,ＴＮＮ株式会社,,株式会社,東京都,港区,芝大門２丁目１２番５－８０１号,,13,103,1050012,,,,,,,2023-10-25,1,,,,,ティーエヌエヌ,0
27,1010403031235,新規,0,2023-10-25,2023-10-25,合同会社ＭＴＤ,,合同会社,東京都,港区,北青山１丁目３－１アールキューブ青山３階,,13,103,1070061,,,,,,,2023-10-25,1,,,,,エムティーディー,0
28,1010403031243,新規,0,2023-10-25,2023-10-25,シー・アイ・ファイブ・パークコー・ジェイ・ピー合同会社,,合同会社,東京都,港区,虎ノ門４丁目１番１３号プライムテラス神谷町５階,,13,103,1050001,,,,,,,2023-10-25,1,,,,,,0
31,1010405022595,新規,0,2023-10-25,2023-10-25,一般社団法人ＨＤＧ３９,,その他の設立登記法人,東京都,港区,虎ノ門３丁目２２番１０－２０１号,,13,103,1050001,,,,,,,2023-10-25,1,,,,,エイチディージースリーナイン,0
44,1010801034459,新規,0,2023-10-25,2023-10-25,株式会社ＣＬＥＡＲ,,株式会社,東京都,大田区,大森北２丁目１４番１－５０１号,,13,111,1430016,,,,,,,2023-10-25,1,,,,,クリア,0
52,1011001157595,新規,0,2023-10-25,2023-10-25,ＭＩＲＡＥＲＡ株式会社,,株式会社,東京都,渋谷区,神宮前６丁目２３番４号桑野ビル２階,,13,113,1500001,,,,,,,2023-10-25,1,,,,,ミラエラ,0
54,1011003017797,新規,0,2023-10-25,2023-10-25,順豊合同会社,,合同会社,東京都,目黒区,柿の木坂２丁目１８番１５号２０３Ａ,,13,110,1520022,,,,,,,2023-10-25,1,,,,,ジュンホウ,0
55,1011005010247,新規,0,2023-10-25,2023-10-25,一般社団法人リーガルライフサポート,,その他の設立登記法人,東京都,目黒区,五本木３丁目２５番１１号,,13,110,1530053,,,,,,,2023-10-25,1,,,,,リーガルライフサポート,0
60,1011101104910,新規,0,2023-10-25,2023-10-25,株式会社石榴,,株式会社,東京都,新宿区,歌舞伎町１丁目２３番１２号第１０ＮＫビル３Ｆ,,13,104,1600021,,,,,,,2023-10-25,1,,,,,ザクロ,0
63,1011501029914,新規,0,2023-10-25,2023-10-25,株式会社ＺＰＮ,,株式会社,東京都,北区,赤羽北３丁目２６－１東京メガシティＡ棟９０８,,13,117,1150052,,,,,,,2023-10-25,1,,,,,ゼットピーエヌ,0
68,1012305002066,新規,0,2023-10-25,2023-10-25,一般社団法人パパン,,その他の設立登記法人,東京都,町田市,図師町１３２６番地１３８,,13,209,1940203,,,,,,,2023-10-25,1,,,,,パパン,0
72,1012801022716,新規,0,2023-10-25,2023-10-25,株式会社巨人工業マネジメント,,株式会社,東京都,東大和市,奈良橋３丁目４６４番地の２,,13,220,2070031,,,,,,,2023-10-25,1,,,,,キョジンコウギョウマネジメント,0
79,1020001153983,新規,0,2023-10-25,2023-10-25,株式会社ＳＰＩＲＡＬＬＹ,,株式会社,神奈川県,横浜市中区,北仲通５丁目５７番地２ザ・タワー横浜北仲１７１１号室,,14,104,2310003,,,,,,,2023-10-25,1,,,,,スパイラリー,0
80,1020001154065,新規,0,2023-10-25,2023-10-25,株式会社ｕｕＭ・ＱＵＲＡＳ不動産,,株式会社,神奈川県,横浜市中区,元町４丁目１６７番地,,14,104,2310861,,,,,,,2023-10-25,1,,,,,ウームクーラスフドウサン,0
81,1020001154115,新規,0,2023-10-25,2023-10-25,株式会社エムエムケー,,株式会社,神奈川県,川崎市中原区,小杉町２丁目２７６番地１Ｅ４００５,,14,133,2110063,,,,,,,2023-10-25,1,,,,,エムエムケー,0
82,1020001154123,新規,0,2023-10-25,2023-10-25,株式会社ＴＮ　Ｗｏｒｋｓ,,株式会社,神奈川県,川崎市川崎区,江川１丁目９番１３号,,14,131,2100823,,,,,,,2023-10-25,1,,,,,ティーエヌワークス,0
85,1020003024852,新規,0,2023-10-25,2023-10-25,合同会社レインツリー,,合同会社,神奈川県,横浜市西区,浅間町１丁目４番３－４０２号,,14,103,2200072,,,,,,,2023-10-25,1,,,,,レインツリー,0
89,1021001080508,新規,0,2023-10-25,2023-10-25,株式会社グラン・コスタ,,株式会社,神奈川県,中郡大磯町,大磯１４０番地２,,14,341,2550003,,,,,,,2023-10-25,1,,,,,グランコスタ,0
90,1021001080524,新規,0,2023-10-25,2023-10-25,株式会社ＮＳＪＡＰＡＮ,,株式会社,神奈川県,平塚市,岡崎２８０２番地の４,,14,203,2591212,,,,,,,2023-10-25,1,,,,,エヌエスジャパン,0
91,1021001080540,新規,0,2023-10-25,2023-10-25,株式会社ＡＣＥファイブ,,株式会社,神奈川県,横須賀市,馬堀海岸１丁目２３番３号,,14,201,2390801,,,,,,,2023-10-25,1,,,,,エースファイブ,0
92,1021001080573,新規,0,2023-10-25,2023-10-25,株式会社ライラビ,,株式会社,神奈川県,鎌倉市,材木座３丁目９番５ー３０８号,,14,204,2480013,,,,,,,2023-10-25,1,,,,,ライラビ,0
108,1040001000449,新規,0,2023-10-25,2023-10-25,株式会社アルファジャパン,,株式会社,千葉県,千葉市花見川区,西小中台２番２４棟４０３号,,12,102,2620016,,,,,,,2023-10-25,1,,,,,アルファジャパン,0
120,1040001130667,新規,0,2023-10-25,2023-10-25,株式会社北条建設,,株式会社,千葉県,船橋市,丸山３丁目４５番５号,,12,204,2730048,,,,,,,2023-10-25,1,,,,,ホウジョウケンセツ,0
122,1040003023621,新規,0,2023-10-25,2023-10-25,Ｓａｃｈｉｔｈ　Ａｕｔｏ　Ｌａｎｋａ合同会社,,合同会社,千葉県,山武郡芝山町,岩山２０８９番Ｂ棟,,12,409,2891608,,,,,,,2023-10-25,1,,,,,サチタオートランカ,0
124,1040005022175,新規,0,2023-10-25,2023-10-25,医療法人社団瞭和,,その他の設立登記法人,千葉県,流山市,おおたかの森南１丁目４番地の１１ウエルスおおたかの森２階,,12,220,2700139,,,,,,,2023-10-25,1,,,,,リョウワ,0
128,1050003007887,新規,0,2023-10-25,2023-10-25,なかや合同会社,,合同会社,茨城県,神栖市,神栖２丁目９番２７号山沢アパート６号,,08,232,3140143,,,,,,,2023-10-25,1,,,,,ナカヤ,0
129,1060001036482,新規,0,2023-10-25,2023-10-25,株式会社アンク,,株式会社,栃木県,大田原市,若草２丁目９７３－９,,09,210,3240021,,,,,,,2023-10-25,1,,,,,アンク,0
130,1060001036490,新規,0,2023-10-25,2023-10-25,株式会社鉄工芸工房ＴＡＡ,,株式会社,栃木県,下野市,小金井２３８１番地２,,09,216,3290414,,,,,,,2023-10-25,1,,,,,テツコウゲイコウボウティーエーエー,0
138,1070001041011,新規,0,2023-10-25,2023-10-25,株式会社Ａｉｒ‐Ｈ,,株式会社,群馬県,高崎市,八島町２２２番地高崎駅ビルモントレー５階,,10,202,3700849,,,,,,,2023-10-25,1,,,,,エアーエイチ,0
139,1070003005146,新規,0,2023-10-25,2023-10-25,すまいる合同会社,,合同会社,群馬県,高崎市,吉井町南陽台２丁目１３番地９,,10,202,3702101,,,,,,,2023-10-25,1,,,,,スマイル,0
140,1080003003082,新規,0,2023-10-25,2023-10-25,合同会社マッキー,,合同会社,静岡県,静岡市葵区,安東２丁目２０番３３号,,22,101,4200882,,,,,,,2023-10-25,1,,,,,マッキー,0
145,1100003007238,新規,0,2023-10-25,2023-10-25,合同会社ＡＶ‐ＡＮＴ,,合同会社,長野県,長野市,大字東和田４７４番地１,,20,201,3810038,,,,,,,2023-10-25,1,,,,,アバン,0
158,1120001258905,新規,0,2023-10-25,2023-10-25,ユナイト西日本株式会社,,株式会社,大阪府,大阪市中央区,南船場２丁目４番２３号,,27,128,5420081,,,,,,,2023-10-25,1,,,,,ユナイトニシニホン,0
159,1120001259036,新規,0,2023-10-25,2023-10-25,株式会社ケイエーシステム,,株式会社,大阪府,大阪市城東区,蒲生２丁目１０－３１－６０６号,,27,118,5360016,,,,,,,2023-10-25,1,,,,,ケイエーシステム,0
160,1120001259060,新規,0,2023-10-25,2023-10-25,日義株式会社,,株式会社,大阪府,大阪市浪速区,浪速東１丁目１０番１０－７０１号,,27,111,5560025,,,,,,,2023-10-25,1,,,,,ニチヨシ,0
161,1120001259069,新規,0,2023-10-25,2023-10-25,株式会社金田,,株式会社,大阪府,大阪市中央区,内本町２丁目１番１９号内本町松屋ビル１０、１２０１号室,,27,128,5400026,,,,,,,2023-10-25,1,,,,,カネダ,0
162,1120001259119,新規,0,2023-10-25,2023-10-25,株式会社ＰＡＲＡＧＯ．,,株式会社,大阪府,大阪市城東区,中浜３丁目２６番１１号フレンドビル２Ｆ,,27,118,5360024,,,,,,,2023-10-25,1,,,,,パラゴ,0
163,1120001259176,新規,0,2023-10-25,2023-10-25,株式会社リット,,株式会社,大阪府,大阪市北区,南森町１丁目３番２９号ＭＳＴ南森町ビル５０３,,27,127,5300054,,,,,,,2023-10-25,1,,,,,リット,0
164,1120001259184,新規,0,2023-10-25,2023-10-25,株式会社Ｉ’ｍ　ａｓｓｉｓｔ,,株式会社,大阪府,大阪市淀川区,西宮原２丁目７番５９－１４０２号,,27,123,5320004,,,,,,,2023-10-25,1,,,,,アイムアシスト,0
165,1120001259192,新規,0,2023-10-25,2023-10-25,園住宅株式会社,,株式会社,大阪府,大阪市生野区,生野東２丁目３－４４,,27,116,5440025,,,,,,,2023-10-25,1,,,,,エンジュウタク,0
166,1120001259218,新規,0,2023-10-25,2023-10-25,天泰株式会社,,株式会社,大阪府,大阪市中央区,博労町４丁目７－１ノバカネイチ本町御堂５０４号,,27,128,5410059,,,,,,,2023-10-25,1,,,,,テンタイ,0
167,1120001259234,新規,0,2023-10-25,2023-10-25,豊科株式会社,,株式会社,大阪府,大阪市西成区,岸里東１丁目５番１０号,,27,122,5570042,,,,,,,2023-10-25,1,,,,,ホウカ,0
168,1120003025163,新規,0,2023-10-25,2023-10-25,合同会社ＫＲＩＰ,,合同会社,大阪府,大阪市東住吉区,西今川４丁目２５番３号,,27,121,5460042,,,,,,,2023-10-25,1,,,,,クリップ,0
169,1120003025171,新規,0,2023-10-25,2023-10-25,Ｓｕｎ‐ｇｒａｃｅ合同会社,,合同会社,大阪府,大阪市中央区,谷町５丁目４－１ロイヤル谷町タワー４０４号室,,27,128,5400012,,,,,,,2023-10-25,1,,,,,サングレイス,0
170,1120003025188,新規,0,2023-10-25,2023-10-25,合同会社アンクル,,合同会社,大阪府,大阪市中央区,博労町１丁目７番１１－６０５号,,27,128,5410059,,,,,,,2023-10-25,1,,,,,アンクル,0
171,1120003025196,新規,0,2023-10-25,2023-10-25,合同会社Ｇｌｉｔｔｅｒｙ,,合同会社,大阪府,大阪市北区,浪花町３番１１号ＰｒｅｃｉｏｕｓＪ－１．４０３号室,,27,127,5300022,,,,,,,2023-10-25,1,,,,,グリットリー,0
175,1122001037512,新規,0,2023-10-25,2023-10-25,株式会社Ｌａｕｌｅ’ａ,,株式会社,大阪府,東大阪市,御厨２丁目４番２１号,,27,227,5770032,,,,,,,2023-10-25,1,,,,,ラウレア,0
182,1130001075498,新規,0,2023-10-25,2023-10-25,株式会社ＮＡＮＯＳ,,株式会社,京都府,京都市左京区,吉田下阿達町３１－３２,,26,103,6068304,,,,,,,2023-10-25,1,,,,,ナノス,0
183,1130001075580,新規,0,2023-10-25,2023-10-25,怡心株式会社,,株式会社,京都府,京都市南区,西九条唐戸町１８番４－２０１,,26,107,6018447,,,,,,,2023-10-25,1,,,,,イシン,0
189,1140001132091,新規,0,2023-10-25,2023-10-25,川洋薬粧株式会社,,株式会社,兵庫県,西宮市,中須佐町５番６号,,28,204,6620851,,,,,,,2023-10-25,1,,,,,センヨウヤクショウ,0
190,1140001132125,新規,0,2023-10-25,2023-10-25,株式会社ＴＨＥ　ＣＡＲＤ,,株式会社,兵庫県,丹波市,市島町上田１２８－１,,28,223,6694322,,,,,,,2023-10-25,1,,,,,ザカード,0
191,1140001132141,新規,0,2023-10-25,2023-10-25,Ｆｉｔ株式会社,,株式会社,兵庫県,西宮市,津門宝津町３番３号,,28,204,6638232,,,,,,,2023-10-25,1,,,,,フィット,0
193,1160001025450,新規,0,2023-10-25,2023-10-25,株式会社Ｏｎｉｓｈｉ　Ｇａｉｋｏｕ,,株式会社,滋賀県,近江八幡市,出町６４０番地１,,25,204,5230892,,,,,,,2023-10-25,1,,,,,オオニシガイコウ,0
197,1180001158645,新規,0,2023-10-25,2023-10-25,株式会社川合建材,,株式会社,愛知県,名古屋市千種区,橋本町３丁目４３番地,,23,101,4640035,,,,,,,2023-10-25,1,,,,,カワイケンザイ,0
209,1240001062312,新規,0,2023-10-25,2023-10-25,株式会社ＫＩｗｏｒｋｓ　ｐｌｕｓ,,株式会社,広島県,広島市西区,己斐上２丁目６９番１６号,,34,104,7330815,,,,,,,2023-10-25,1,,,,,ケイアイワークスプラス,0
214,1240003006390,新規,0,2023-10-25,2023-10-25,合同会社広元商事,,合同会社,広島県,広島市東区,山根町５番１２号,,34,102,7320048,,,,,,,2023-10-25,1,,,,,ヒロモトショウジ,0
215,1240005015670,新規,0,2023-10-25,2023-10-25,一般社団法人広島サポート,,その他の設立登記法人,広島県,広島市中区,住吉町１６番２０号,,34,101,7300813,,,,,,,2023-10-25,1,,,,,ヒロシマサポート,0
217,1250005008871,新規,0,2023-10-25,2023-10-25,一般社団法人トラビスタ山口,,その他の設立登記法人,山口県,周南市,大字徳山４９１５,,35,215,7450851,,,,,,,2023-10-25,1,,,,,トラビスタヤマグチ,0
219,1260001038442,新規,0,2023-10-25,2023-10-25,株式会社ユニメート,,株式会社,岡山県,倉敷市,福田町浦田５０１番地１３４,,33,202,7128031,,,,,,,2023-10-25,1,,,,,ユニメート,0
221,1260005011288,新規,0,2023-10-25,2023-10-25,一般社団法人ブルービレッジ,,その他の設立登記法人,岡山県,岡山市東区,中尾９５３番地１,,33,103,7090626,,,,,,,2023-10-25,1,,,,,ブルービレッジ,0
226,1290001103499,新規,0,2023-10-25,2023-10-25,株式会社Ｃｍｈ,,株式会社,福岡県,久留米市,上津町１１５１番地１８,,40,203,8300052,,,,,,,2023-10-25,1,,,,,シーエムエイチ,0
227,1290001103540,新規,0,2023-10-25,2023-10-25,株式会社ＩＮＯＶＹ,,株式会社,福岡県,筑後市,大字蔵数３０－１７,,40,211,8330054,,,,,,,2023-10-25,1,,,,,イノビィ,0
233,1290801029992,新規,0,2023-10-25,2023-10-25,株式会社九州鋼板,,株式会社,福岡県,北九州市小倉南区,沼緑町３丁目２０番５号,,40,107,8000207,,,,,,,2023-10-25,1,,,,,キュウシュウコウハン,0
241,1330005010712,新規,0,2023-10-25,2023-10-25,一般社団法人子どもの学びを支える熊本県民の会,,その他の設立登記法人,熊本県,熊本市中央区,大江３丁目６番８号三祐ビル３Ｆ,,43,101,8620971,,,,,,,2023-10-25,1,,,,,コドモノマナビヲササエルクマモトケンミンノカイ,0
244,1340001026018,新規,0,2023-10-25,2023-10-25,ふどうさん市場株式会社,,株式会社,鹿児島県,鹿児島市,吉野町９１０１番地１,,46,201,8920871,,,,,,,2023-10-25,1,,,,,フドウサンイチバ,0
248,1340003004293,新規,0,2023-10-25,2023-10-25,合同会社Ａｍａｃａｌ　Ｊａｐａｎ,,合同会社,鹿児島県,奄美市,名瀬長浜町７－１７,,46,222,8940036,,,,,,,2023-10-25,1,,,,,アマカルジャパン,0
249,1350003004474,新規,0,2023-10-25,2023-10-25,合同会社ＴＯＴ　ＢＯＸ,,合同会社,宮崎県,宮崎市,橘通西３丁目４番５号新江口ビル,,45,201,8800001,,,,,,,2023-10-25,1,,,,,トットボックス,0
255,1370005010700,新規,0,2023-10-25,2023-10-25,農事組合法人羽入ファームまるもり,,その他の設立登記法人,宮城県,伊具郡丸森町,字中平南１２１番地１,,04,341,9812100,,,,,,,2023-10-25,1,,,,,ハニュウファームマルモリ,0
269,1430005014819,新規,0,2023-10-25,2023-10-25,一般社団法人ウィンタースポーツサービス,,その他の設立登記法人,北海道,札幌市西区,八軒八条東１丁目１番１８－５１２号,,01,107,0630868,,,,,,,2023-10-25,1,,,,,ウィンタースポーツサービス,0
271,1460103001567,新規,0,2023-10-25,2023-10-25,ＲＩＫＵＢＥＴＳＵ　Ｃｕｌｔｉｖａｔｅ合同会社,,合同会社,北海道,足寄郡陸別町,字トマム幹線３０番地５,,01,648,0894300,,,,,,,2023-10-25,1,,,,,リクベツカルティベート,0
273,1470001019867,新規,0,2023-10-25,2023-10-25,株式会社ＮＫＫ,,株式会社,香川県,丸亀市,土器町東３丁目４４番地,,37,202,7630082,,,,,,,2023-10-25,1,,,,,エヌケイケイ,0
277,1490001010618,新規,0,2023-10-25,2023-10-25,株式会社Ｓｉｎ　ＳＴＡＲＴ,,株式会社,高知県,高知市,桟橋通６丁目９－５－１４０４アプリア桟橋,,39,201,7818010,,,,,,,2023-10-25,1,,,,,シンスタート,0
282,1500005008648,新規,0,2023-10-25,2023-10-25,一般社団法人もものき,,その他の設立登記法人,愛媛県,松山市,西垣生町７１６番地１３,,38,201,7918044,,,,,,,2023-10-25,1,,,,,,0
283,1700150120022,新規,0,2023-10-25,2023-10-25,Ｓｈｅｎｚｈｅｎ　Ｓｉａｉｊｉ　Ｈｕａｚｈｕａｎｇｐｉｎｇ　ｙｏｕｘｉａｎｇｏｎｇｓｉ,,外国会社等,,,,,,,,Ｃｕｉｚｈｏｕｊｉｅｄａｏ　Ｔａｉｎｉｎｇ　Ｃｕｉｙｕａｎｚｈｕｚｈａｉｑｕ　７－７０３　Ｌｕｏｈｕ　Ｓｈｅｎｚｈｅｎ　Ｇｕａｎｇｄｏｎｇ,,,,,,2023-10-25,1,,,,,シンセンシアイジホウアズウアンピンユウゲンコウシ,0
284,1700150120798,新規,0,2023-10-25,2023-10-25,Ｓｈｅｎｙａｎｇ　Ｌａｎｇｑｉ　Ｎｅｔｗｏｒｋ　Ｔｒａｄｉｎｇ　Ｃｏ．，Ｌｔｄ,,外国会社等,,,,,,,,（１８０８），Ｎｏ．１８　Ｘｉｎｇｈｕａ　Ｎｏｒｔｈ　Ｓｔｒｅｅｔ，Ｔｉｅｘｉ　Ｄｉｓｔｒｉｃｔ，Ｓｈｅｎｙａｎｇ　Ｃｉｔｙ，Ｌｉａｏｎｉｎｇ　Ｐｒｏｖｉｎｃｅ,,,,,,2023-10-25,1,,,,,シエニヤングランキーネトワークトレーデイングカンパニーリミテツド,0
285,1700150121367,新規,0,2023-10-25,2023-10-25,小千　有限公司　日本駐在員事務所,,外国会社等,東京都,台東区,千束３丁目２１番１２号キートスビル６階６０６号室,,13,106,1110031,新北市三芝区海景四街２１号,,,,,,2023-10-25,1,,,,,シヨウセンユウゲンコウシニホンチユウザイインジムシヨ,0
286,1700150121409,新規,0,2023-10-25,2023-10-25,ＸＩＡＭＥＮ　ＡＭＯＹＩＫＥＪＩＹＯＵＸＩＡＮＧＯＮＧＳＩ,,外国会社等,,,,,,,,Ｘｉａｍｅｎｓｈｉｘｉａｎｇａｎｑｕｆｅｎｇｘｉａｎｇｊｉｅｄａｏｌｕｑｉａｎｋｅｎｇｗｅｉｌｉ１ｈａｏｚｈｉｙｉ,,,,,,2023-10-25,1,,,,,シャメンアモイカギユウゲンコウシ,0
297,2010001239452,新規,0,2023-10-25,2023-10-25,ＦＡＳＩＬ株式会社,,株式会社,東京都,中央区,銀座１丁目１２番４号Ｎ＆ＥＢＬＤ．６Ｆ,,13,102,1040061,,,,,,,2023-10-25,1,,,,,ファジル,0
298,2010001239519,新規,0,2023-10-25,2023-10-25,株式会社オウセイ,,株式会社,東京都,中央区,日本橋蛎殻町１丁目２５番３－７０３号,,13,102,1030014,,,,,,,2023-10-25,1,,,,,オウセイ,0
299,2010001239527,新規,0,2023-10-25,2023-10-25,株式会社ティエヌホールディングス,,株式会社,東京都,中央区,日本橋小網町８番２号,,13,102,1030016,,,,,,,2023-10-25,1,,,,,ティエヌホールディングス,0
300,2010001239543,新規,0,2023-10-25,2023-10-25,株式会社Ｅ‐ｓｅｅｄｓ,,株式会社,東京都,中央区,銀座１丁目２２－１１銀座大竹ビジデンス２Ｆ,,13,102,1040061,,,,,,,2023-10-25,1,,,,,イーシーズ,0
304,2010003042020,新規,0,2023-10-25,2023-10-25,合同会社Ｆｌａｒｅ,,合同会社,東京都,中央区,銀座１丁目２２番１１号,,13,102,1040061,,,,,,,2023-10-25,1,,,,,フレア,0
305,2010003042029,新規,0,2023-10-25,2023-10-25,合同会社ＳＰＣ　Ｔｏｋｙｏ,,合同会社,東京都,千代田区,平河町１丁目６番１５号シルスフィア会計事務所内,,13,101,1020093,,,,,,,2023-10-25,1,,,,,エスピーシートウキョウ,0
306,2010003042037,新規,0,2023-10-25,2023-10-25,ＣＩＲＣＬＥ　ＮＩＮＥ合同会社,,合同会社,東京都,中央区,勝どき５丁目３番１－２５０５号,,13,102,1040054,,,,,,,2023-10-25,1,,,,,サークルナイン,0
320,2010401177806,新規,0,2023-10-25,2023-10-25,Ｃｈｉｌｌ　Ｔｉｍｅ株式会社,,株式会社,東京都,港区,赤坂４丁目２番３号,,13,103,1070052,,,,,,,2023-10-25,1,,,,,チルタイム,0
321,2010401178069,新規,0,2023-10-25,2023-10-25,株式会社ｍｉｄｉホールディングス,,株式会社,東京都,港区,港南２丁目１５番３号,,13,103,1080075,,,,,,,2023-10-25,1,,,,,ミディホールディングス,0
322,2010401178093,新規,0,2023-10-25,2023-10-25,株式会社サーキュラーエコノミードット東京,,株式会社,東京都,港区,麻布十番２丁目７番１号,,13,103,1060045,,,,,,,2023-10-25,1,,,,,,0
325,2010405022603,新規,0,2023-10-25,2023-10-25,一般社団法人ＳｍｉｌｅＭｅｄｉ,,その他の設立登記法人,東京都,港区,元麻布３丁目４番４１号麻布台ナショナルコート２０３,,13,103,1060046,,,,,,,2023-10-25,1,,,,,スマイルメディ,0
328,2010601064028,新規,0,2023-10-25,2023-10-25,株式会社ＩＴＯＨ,,株式会社,東京都,江東区,北砂４丁目２２番１号,,13,108,1360073,,,,,,,2023-10-25,1,,,,,イトウ,0
330,2010701045027,新規,0,2023-10-25,2023-10-25,株式会社シーエフディーラボ,,株式会社,東京都,品川区,西品川１丁目１番１号住友不動産大崎ガーデンタワー９階,,13,109,1410033,,,,,,,2023-10-25,1,,,,,シーエフディーラボ,0
331,2010701045051,新規,0,2023-10-25,2023-10-25,株式会社ｅｖｏ　ｈａｂｉｔ,,株式会社,東京都,品川区,上大崎４丁目５番１６号クリプトメリア目黒２０６,,13,109,1410021,,,,,,,2023-10-25,1,,,,,エボハビット,0
335,2011001157735,新規,0,2023-10-25,2023-10-25,株式会社Ｆｌｅｕｒ　ｂｅａｕｔｙ,,株式会社,東京都,渋谷区,恵比寿１丁目２２番１０号グランデュオ恵比寿ＩＩＩ２Ｆ,00132404,13,113,1500013,,,,,,,2023-10-25,1,,,,,フルールビューティ,0
336,2011001157743,新規,0,2023-10-25,2023-10-25,株式会社ＩＨＣ,,株式会社,東京都,目黒区,目黒２丁目１０番１４号,,13,110,1530063,,,,,,,2023-10-25,1,,,,,アイエイチシー,0
337,2011001157818,新規,0,2023-10-25,2023-10-25,スカイランジャパン株式会社,,株式会社,東京都,渋谷区,広尾１丁目３番１２－５０２,,13,113,1500012,,,,,,,2023-10-25,1,,,,,スカイランジャパン,0
338,2011001157850,新規,0,2023-10-25,2023-10-25,株式会社ＰＥＡＣＥ　ＩＮＮＯＶＡＴＩＯＮ,,株式会社,東京都,渋谷区,代々木１丁目２番９－２０２号アーバンパーク代々木,,13,113,1510053,,,,,,,2023-10-25,1,,,,,ピースイノベーション,0
339,2011001157875,新規,0,2023-10-25,2023-10-25,株式会社Ｇ　ＡＲＣＨＩＴＥＣＴＳ　ＳＴＵＤＩＯ,,株式会社,東京都,渋谷区,鶯谷町１９番１８号,,13,113,1500032,,,,,,,2023-10-25,1,,,,,ジーアーキテクツスタジオ,0
340,2011003017755,新規,0,2023-10-25,2023-10-25,合同会社ノンブル社,,合同会社,東京都,渋谷区,渋谷２丁目１９番１５号宮益坂ビルディング６０９,,13,113,1500002,,,,,,,2023-10-25,1,,,,,ノンブルシャ,0
341,2011003017796,新規,0,2023-10-25,2023-10-25,合同会社ＢＰデベロップメント,,合同会社,東京都,目黒区,下目黒１丁目１番１４号コノトラビル７Ｆ,,13,110,1530064,,,,,,,2023-10-25,1,,,,,ビーピーデベロップメント,0
342,2011005010246,新規,0,2023-10-25,2023-10-25,一般社団法人アソビデバイス,,その他の設立登記法人,東京都,渋谷区,神宮前６丁目２３番４号桑野ビル２Ｆ,,13,113,1500001,,,,,,,2023-10-25,1,,,,,アソビデバイス,0
345,2011101104918,新規,0,2023-10-25,2023-10-25,株式会社ａｎｄ　Ａ,,株式会社,東京都,新宿区,西新宿３丁目３番１３号西新宿水間ビル２階,,13,104,1600023,,,,,,,2023-10-25,1,,,,,アンドエー,0
346,2011101104926,新規,0,2023-10-25,2023-10-25,株式会社Ｌｉｍ　Ｌａｎｄ,,株式会社,東京都,新宿区,新宿７丁目１２番１号新宿平和ビル１階,,13,104,1600022,,,,,,,2023-10-25,1,,,,,リムランド,0
347,2011103013654,新規,0,2023-10-25,2023-10-25,合同会社ＥＫＥ,,合同会社,東京都,新宿区,水道町１番２３号石川ビル１Ｆ,,13,104,1620811,,,,,,,2023-10-25,1,,,,,イーケーイー,0
349,2011203004207,新規,0,2023-10-25,2023-10-25,ＬＨＤ合同会社,,合同会社,東京都,中野区,中野５丁目２４番１８号クロススクエア中野９０６,,13,114,1640001,,,,,,,2023-10-25,1,,,,,エルエイチディー,0
350,2011303004940,新規,0,2023-10-25,2023-10-25,合同会社マグノリア,,合同会社,東京都,杉並区,南荻窪４丁目３５番７号,,13,115,1670052,,,,,,,2023-10-25,1,,,,,マグノリア,0
352,2011401025558,新規,0,2023-10-25,2023-10-25,ＡＳ企画株式会社,,株式会社,東京都,板橋区,板橋１丁目４８番１０号雨澤ビル４０５,,13,119,1730004,,,,,,,2023-10-25,1,,,,,エーエスキカク,0
354,2011501029913,新規,0,2023-10-25,2023-10-25,龍韵株式会社,,株式会社,東京都,北区,中里１丁目２１番２号中里ビル１Ｆ,,13,117,1140015,,,,,,,2023-10-25,1,,,,,リュウイン,0
360,2011601027222,新規,0,2023-10-25,2023-10-25,株式会社ランワークス,,株式会社,東京都,練馬区,桜台６丁目２１番１５－２０２号,,13,120,1760002,,,,,,,2023-10-25,1,,,,,ランワークス,0
362,2011801043234,新規,0,2023-10-25,2023-10-25,株式会社ＨＭコンサルタント,,株式会社,東京都,足立区,千住東２丁目１９番１６号,,13,121,1200025,,,,,,,2023-10-25,1,,,,,エイチエムコンサルタント,0
367,2012401041132,新規,0,2023-10-25,2023-10-25,株式会社ＨＡＮＡＭＥＮＴ,,株式会社,東京都,調布市,東つつじケ丘１丁目１７番地２,,13,208,1820005,,,,,,,2023-10-25,1,,,,,ハナメント,0
368,2012401041149,新規,0,2023-10-25,2023-10-25,株式会社ＦＯＲＥＳＴＡＴＥ,,株式会社,東京都,武蔵野市,吉祥寺南町４丁目５番２０号,,13,203,1800003,,,,,,,2023-10-25,1,,,,,フォレステート,0
372,2012801022715,新規,0,2023-10-25,2023-10-25,株式会社巨人工業コンストラクション,,株式会社,東京都,東大和市,奈良橋３丁目４６４番地の２,,13,220,2070031,,,,,,,2023-10-25,1,,,,,キョジンコウギョウコンストラクション,0
379,2020001154048,新規,0,2023-10-25,2023-10-25,株式会社烈,,株式会社,神奈川県,横浜市神奈川区,片倉２丁目２９番９号,,14,102,2210865,,,,,,,2023-10-25,1,,,,,レツ,0
380,2020001154122,新規,0,2023-10-25,2023-10-25,株式会社ＲＥＴＵＲＮ,,株式会社,神奈川県,横浜市緑区,三保町２５５７番地１０,,14,113,2260015,,,,,,,2023-10-25,1,,,,,リターン,0
381,2020001154139,新規,0,2023-10-25,2023-10-25,株式会社リホタム,,株式会社,神奈川県,横浜市港南区,下永谷２丁目２８番１号,,14,111,2330016,,,,,,,2023-10-25,1,,,,,リホタム,0
384,2020003024835,新規,0,2023-10-25,2023-10-25,横浜キャピタル合同会社,,合同会社,神奈川県,横浜市西区,みなとみらい３丁目６番１号みなとみらいセンタービル１９階,,14,103,2200012,,,,,,,2023-10-25,1,,,,,ヨコハマキャピタル,0
385,2020003024843,新規,0,2023-10-25,2023-10-25,ＴＭＪＫ明智合同会社,,合同会社,神奈川県,横浜市保土ケ谷区,岩井町１番地の５アーバンハイツ保土ケ谷３０３号,,14,106,2400023,,,,,,,2023-10-25,1,,,,,ティエムジェイケーアケチ,0
386,2021001080498,新規,0,2023-10-25,2023-10-25,日昇株式会社,,株式会社,神奈川県,横須賀市,安浦町２丁目２１番地,,14,201,2380012,,,,,,,2023-10-25,1,,,,,ニッショウ,0
387,2021001080507,新規,0,2023-10-25,2023-10-25,株式会社Ｐｒｉｍａｔｈｅｒａｐｙ,,株式会社,神奈川県,茅ヶ崎市,常盤町６番５４号アズワン２０２,,14,207,2530032,,,,,,,2023-10-25,1,,,,,プリマセラピー,0
388,2021001080531,新規,0,2023-10-25,2023-10-25,アジェフォックス株式会社,,株式会社,神奈川県,鎌倉市,稲村ガ崎５丁目１２番１０－１号,,14,204,2480024,,,,,,,2023-10-25,1,,,,,アジェフォックス,0
405,2030005021458,新規,0,2023-10-25,2023-10-25,一般社団法人さいたまサステナブル経営研究所,,その他の設立登記法人,埼玉県,さいたま市北区,本郷町１６０８番地２,,11,102,3310802,,,,,,,2023-10-25,1,,,,,サイタマサステナブルケイエイケンキュウショ,0
413,2040001130633,新規,0,2023-10-25,2023-10-25,株式会社ＢＲＩＧＨＴ　ＳＩＤＥ,,株式会社,千葉県,柏市,船戸３丁目６番地８８,,12,217,2770802,,,,,,,2023-10-25,1,,,,,ブライトサイド,0
414,2040001130658,新規,0,2023-10-25,2023-10-25,株式会社総武教育プラン船橋,,株式会社,千葉県,船橋市,東船橋４丁目３９番３号,,12,204,2730002,,,,,,,2023-10-25,1,,,,,,0
415,2040001130666,新規,0,2023-10-25,2023-10-25,株式会社ＭＯＫＵ,,株式会社,千葉県,八千代市,ゆりのき台１丁目３５番地,,12,221,2760042,,,,,,,2023-10-25,1,,,,,モク,0
416,2040001130690,新規,0,2023-10-25,2023-10-25,株式会社ＮＩＰＵＮＩ　ＡＵＴＯ,,株式会社,千葉県,山武市,大木７０３－１,,12,237,2891211,,,,,,,2023-10-25,1,,,,,ニプニオート,0
417,2040003023579,新規,0,2023-10-25,2023-10-25,合同会社アダンプロジェクト,,合同会社,千葉県,印西市,平賀学園台３丁目７番１号,,12,231,2701606,,,,,,,2023-10-25,1,,,,,アダンプロジェクト,0
418,2040003023620,新規,0,2023-10-25,2023-10-25,Ｂ＆Ｒ　Ｂｉｏ　Ｐｒｏｄｕｃｔ合同会社,,合同会社,千葉県,八街市,文違３０１番地７００Ａ,,12,230,2891104,,,,,,,2023-10-25,1,,,,,ビーアンドアールバイオプロダクト,0
425,2060001036473,新規,0,2023-10-25,2023-10-25,株式会社サンライズスポーツ,,株式会社,栃木県,那須塩原市,上厚崎５０９番地９,,09,213,3250026,,,,,,,2023-10-25,1,,,,,サンライズスポーツ,0
426,2060001036481,新規,0,2023-10-25,2023-10-25,つち家株式会社,,株式会社,栃木県,足利市,大前町７５５番地１クレール富久Ｂ２０１,,09,202,3260845,,,,,,,2023-10-25,1,,,,,ツチヤ,0
429,2070001040994,新規,0,2023-10-25,2023-10-25,株式会社いろといろ,,株式会社,群馬県,みどり市,大間々町大間々１３８９番地６,,10,212,3760101,,,,,,,2023-10-25,1,,,,,イロトイロ,0
434,2080401026808,新規,0,2023-10-25,2023-10-25,世界モーター株式会社,,株式会社,静岡県,浜松市天竜区,二俣町二俣１５０９番地,,22,137,4313314,,,,,,,2023-10-25,1,,,,,セカイモーター,0
439,2100001036907,新規,0,2023-10-25,2023-10-25,サンアレオジャパン株式会社,,株式会社,長野県,小諸市,大字菱平１３１４番地,,20,208,3840041,,,,,,,2023-10-25,1,,,,,サンアレオジャパン,0
440,2100005013076,新規,0,2023-10-25,2023-10-25,医療法人アルプス矯正・小児歯科クリニック,,その他の設立登記法人,長野県,岡谷市,本町２丁目３番４号,,20,204,3940028,,,,,,,2023-10-25,1,,,,,アルプスキョウセイショウニシカクリニック,0
449,2120001258953,新規,0,2023-10-25,2023-10-25,山口飲料百貨株式会社,,株式会社,大阪府,守口市,金田町４丁目１番５６号,,27,209,5700011,,,,,,,2023-10-25,1,,,,,ヤマグチインリョウヒャッカ,0
450,2120001259126,新規,0,2023-10-25,2023-10-25,株式会社ｅ‐ＰＩＫＡ,,株式会社,大阪府,寝屋川市,三井が丘５丁目４番１００－１０２号,,27,215,5720013,,,,,,,2023-10-25,1,,,,,イーピカ,0
451,2120001259134,新規,0,2023-10-25,2023-10-25,株式会社Ｉ　ａｍ．,,株式会社,大阪府,大阪市淀川区,西宮原３丁目３番１－１３１８号,,27,123,5320004,,,,,,,2023-10-25,1,,,,,アイアム,0
452,2120001259150,新規,0,2023-10-25,2023-10-25,株式会社ＬＫ,,株式会社,大阪府,大阪市住之江区,浜口東３丁目６番１０号,,27,125,5590002,,,,,,,2023-10-25,1,,,,,エルケー,0
453,2120001259175,新規,0,2023-10-25,2023-10-25,株式会社Ｏｎｅ　Ｗｏｒｋｓ,,株式会社,大阪府,大阪市生野区,勝山北１丁目２番１号,,27,116,5440033,,,,,,,2023-10-25,1,,,,,ワンワークス,0
454,2120001259183,新規,0,2023-10-25,2023-10-25,株式会社Ｙ’ｓ‐Ｈａｒｍｏｎｙ,,株式会社,大阪府,大阪市西区,南堀江１丁目２５番１２号,,27,106,5500015,,,,,,,2023-10-25,1,,,,,ワイズハーモニー,0
455,2120001259191,新規,0,2023-10-25,2023-10-25,株式会社Ｋ２,,株式会社,大阪府,大阪市西区,新町２丁目１番２－１３０３号,,27,106,5500013,,,,,,,2023-10-25,1,,,,,ケイツー,0
461,2120003025170,新規,0,2023-10-25,2023-10-25,おいなり合同会社,,合同会社,大阪府,大阪市東淀川区,小松５丁目６番２１号プリマコートＩ１０３号,00132411,27,114,5330004,,,,,,,2023-10-25,1,,,,,オイナリ,0
462,2120003025187,新規,0,2023-10-25,2023-10-25,合同会社ＢＥＥ　ＧＡＲＤＥＮ,,合同会社,大阪府,寝屋川市,国松町４５番１６号,,27,215,5720016,,,,,,,2023-10-25,1,,,,,ビーガーデン,0
463,2120003025195,新規,0,2023-10-25,2023-10-25,合同会社オリーブ,,合同会社,大阪府,大阪市鶴見区,今津北５丁目４番２号,,27,124,5380041,,,,,,,2023-10-25,1,,,,,オリーブ,0
477,2130001075489,新規,0,2023-10-25,2023-10-25,株式会社ＷＩＮＲＩＶＥＲ,,株式会社,京都府,京都市山科区,勧修寺東出町６６番地サンフェリーチェＡ棟３０６,,26,110,6078216,,,,,,,2023-10-25,1,,,,,ウィンリバー,0
478,2130001075514,新規,0,2023-10-25,2023-10-25,株式会社シード,,株式会社,京都府,京都市南区,久世築山町３７番地,,26,107,6018203,,,,,,,2023-10-25,1,,,,,シード,0
479,2130001075605,新規,0,2023-10-25,2023-10-25,株式会社ウィルワン,,株式会社,京都府,京都市北区,小山西大野町８４番地,,26,101,6038167,,,,,,,2023-10-25,1,,,,,ウィルワン,0
481,2130003009073,新規,0,2023-10-25,2023-10-25,合同会社ＫｙｏｔｏＴｅｃｈ,,合同会社,京都府,京都市伏見区,深草大亀谷万帖敷町３２９番地１２,,26,109,6120846,,,,,,,2023-10-25,1,,,,,キョウトテック,0
484,2140001132099,新規,0,2023-10-25,2023-10-25,株式会社エムシー,,株式会社,兵庫県,神戸市兵庫区,湊川町９丁目２２番２号,,28,105,6520041,,,,,,,2023-10-25,1,,,,,エムシー,0
488,2140003019724,新規,0,2023-10-25,2023-10-25,Ｃ２ワークス合同会社,,合同会社,兵庫県,神戸市東灘区,西岡本１丁目１２番１－２０９号,,28,101,6580073,,,,,,,2023-10-25,1,,,,,シーツーワークス,0
489,2150001026837,新規,0,2023-10-25,2023-10-25,株式会社ＦＯＲＥＳＴＯＷＮ,,株式会社,奈良県,北葛城郡王寺町,畠田２丁目８８番地,,29,425,6360021,,,,,,,2023-10-25,1,,,,,フォレスタウン,0
498,2180001158636,新規,0,2023-10-25,2023-10-25,アワン・ブライト・フューチャー・トレーディング株式会社,,株式会社,愛知県,名古屋市港区,名四町１５番１号,,23,111,4550053,,,,,,,2023-10-25,1,,,,,アワンブライトフューチャートレーディング,0
499,2180001158652,新規,0,2023-10-25,2023-10-25,Ｐｒｅｕｖｅ株式会社,,株式会社,愛知県,名古屋市中村区,太閤５丁目７番２号ＨＡＲＶＥＹ　ＲＥＳＩＤＥＮＣＥ　ＴＡＩＫＯ１０２,,23,105,4530801,,,,,,,2023-10-25,1,,,,,プルーヴ,0
500,2180001158677,新規,0,2023-10-25,2023-10-25,株式会社Ｈｏｕｓｅｍａｉｎｔｅｎａｎｃｅ,,株式会社,愛知県,名古屋市緑区,作の山町１２６番地,,23,114,4580038,,,,,,,2023-10-25,1,,,,,ハウスメンテナンス,0
504,2180303005874,新規,0,2023-10-25,2023-10-25,アールワイ合同会社,,合同会社,愛知県,岡崎市,真伝吉祥２丁目１５番地１３,,23,202,4443176,,,,,,,2023-10-25,1,,,,,アールワイ,0
513,2210003001716,新規,0,2023-10-25,2023-10-25,合同会社Ｗｅｌｌ‐ｂｅｉｎｇなかむら,,合同会社,福井県,福井市,城東４丁目１９番１３号,,18,201,9100853,,,,,,,2023-10-25,1,,,,,ウェルビイングナカムラ,0
520,2240003006381,新規,0,2023-10-25,2023-10-25,合同会社ニューネクストスタイル,,合同会社,広島県,広島市西区,天満町１２番９－１００２号,,34,104,7330022,,,,,,,2023-10-25,1,,,,,ニューネクストスタイル,0
524,2260001038441,新規,0,2023-10-25,2023-10-25,Ｙ３マーケティング株式会社,,株式会社,岡山県,赤磐市,桜が丘東２丁目２番地１６６,,33,213,7090721,,,,,,,2023-10-25,1,,,,,ワイスリーマーケティング,0
527,2290001103498,新規,0,2023-10-25,2023-10-25,株式会社ＨＥＡＲＴＳコンシェルジュ,,株式会社,福岡県,福岡市博多区,博多駅前４丁目１４番１３号,,40,132,8120011,,,,,,,2023-10-25,1,,,,,ハーツコンシェルジュ,0
528,2290001103515,新規,0,2023-10-25,2023-10-25,株式会社ＲＥＨＡＮＯＷＡ,,株式会社,福岡県,久留米市,国分町１６２２番地１－１０６号,,40,203,8390863,,,,,,,2023-10-25,1,,,,,リハノワ,0
529,2290001103523,新規,0,2023-10-25,2023-10-25,株式会社企画室ＩＳＥ,,株式会社,福岡県,福岡市南区,野間３丁目１１番３号,,40,134,8150041,,,,,,,2023-10-25,1,,,,,キカクシツイセ,0
530,2290001103531,新規,0,2023-10-25,2023-10-25,ＩＩＮＯＫＯ株式会社,,株式会社,福岡県,福岡市早良区,城西２丁目６番３０－１号,,40,137,8140003,,,,,,,2023-10-25,1,,,,,イーノコ,0
532,2290003014512,新規,0,2023-10-25,2023-10-25,リバールーツ合同会社,,合同会社,福岡県,春日市,上白水８丁目１６４番地,,40,218,8160844,,,,,,,2023-10-25,1,,,,,リバールーツ,0
539,2340001026025,新規,0,2023-10-25,2023-10-25,株式会社りぼん,,株式会社,鹿児島県,鹿児島市,星ヶ峯４丁目３６番１１号,,46,201,8910102,,,,,,,2023-10-25,1,,,,,リボン,0
547,2350003004473,新規,0,2023-10-25,2023-10-25,合同会社ＯＮＥ　ＥＩＧＨＴ,,合同会社,宮崎県,宮崎市,原町７番８号プレジュール原町３０１,,45,201,8800007,,,,,,,2023-10-25,1,,,,,ワンエイト,0
550,2360003013416,新規,0,2023-10-25,2023-10-25,合同会社ＣＯＣＯＨＯＳＴＩＮＧ,,合同会社,沖縄県,南城市,玉城字愛地３５８番地ビックキャッスル３０１号,,47,215,9010617,,,,,,,2023-10-25,1,,,,,ココホスティング,0
551,2370001050567,新規,0,2023-10-25,2023-10-25,株式会社ＧＭＷ,,株式会社,宮城県,仙台市青葉区,本町１丁目５番２８号カーニープレイス仙台駅前通６０３号室,,04,101,9800014,,,,,,,2023-10-25,1,,,,,ジーエムダブリュー,0
553,2370003006328,新規,0,2023-10-25,2023-10-25,合同会社シーエムネットワークス,,合同会社,宮城県,仙台市宮城野区,田子３丁目５番１１号カーサ・イトウ１０１,,04,102,9830021,,,,,,,2023-10-25,1,,,,,シーエムネットワークス,0
554,2370003006336,新規,0,2023-10-25,2023-10-25,合同会社Ｋ‐２運送,,合同会社,宮城県,宮城郡七ヶ浜町,笹山５番地の２,,04,404,9850805,,,,,,,2023-10-25,1,,,,,ケーツーウンソウ,0
572,2450001014126,新規,0,2023-10-25,2023-10-25,アサヒ総合サービス株式会社,,株式会社,北海道,旭川市,旭町二条７丁目２５番地の２０３,,01,204,0700832,,,,,,,2023-10-25,1,,,,,アサヒソウゴウサービス,0
573,2460001005842,新規,0,2023-10-25,2023-10-25,株式会社ＳＤ興産,,株式会社,北海道,釧路市,若草町１０番２３号,,01,206,0850042,,,,,,,2023-10-25,1,,,,,エスディコウサン,0
574,2470001019866,新規,0,2023-10-25,2023-10-25,株式会社上杉,,株式会社,香川県,三豊市,高瀬町下勝間２３８番地１,,37,208,7670011,,,,,,,2023-10-25,1,,,,,ウエスギ,0
580,2490001010625,新規,0,2023-10-25,2023-10-25,ＩＮＤＯＮＥＳＩＡ　ＮＩＰＰＯＮ　ＡＮＵＧＥＲＡＨ株式会社,,株式会社,高知県,高知市,介良乙５８０番地１,,39,201,7815106,,,,,,,2023-10-25,1,,,,,インドネシアニッポンアヌグラ,0
582,2700150121408,新規,0,2023-10-25,2023-10-25,ｓｈｅｎｚｈｅｎｇｅｔｅｎｇｓｈａｎｇｍａｏ　ｙｏｕｘｉａｎｇｏｎｇｓｉ,,外国会社等,,,,,,,,Ｃ７３，４ｔｈ　Ｆｌｏｏｒ，Ｌｉａｎｈｕｉ　Ｂｕｉｌｄｉｎｇ，Ｎｏ．５　Ｘｉｎｇｏｎｇ　Ｖｉｌｌａｇｅ，Ｓａｎｌｉａｎ　Ｃｏｍｍｕｎｉｔｙ，Ｌｏｎｇｈｕａ　Ｓｔｒｅｅｔ，Ｌｏｎｇｈｕａ　Ｄｉｓｔｒｉｃｔ，Ｓｈｅｎｚｈｅｎ,,,,,,2023-10-25,1,,,,,シンセンゲテンシャンマオユウゲンコウシ,0
593,3010001239526,新規,0,2023-10-25,2023-10-25,株式会社トパーズ,,株式会社,東京都,中央区,勝どき５丁目１１番１５－５０４号,,13,102,1040054,,,,,,,2023-10-25,1,,,,,トパーズ,0
597,3010003042028,新規,0,2023-10-25,2023-10-25,合同会社アンスリウム,,合同会社,東京都,中央区,日本橋２丁目１－１７丹生ビル３Ｆ,,13,102,1030027,,,,,,,2023-10-25,1,,,,,アンスリウム,0
599,3010005037422,新規,0,2023-10-25,2023-10-25,一般社団法人あんばいＬＢ４号,,その他の設立登記法人,東京都,千代田区,霞が関３丁目２番５号,,13,101,1000013,,,,,,,2023-10-25,1,,,,,アンバイエルビーヨンゴウ,0
602,3010103002237,新規,0,2023-10-25,2023-10-25,合同会社渡辺工務店,,合同会社,東京都,八王子市,松木１４番地１３ＩＳグランデ南大沢１０３号,,13,201,1920362,,,,,,,2023-10-25,1,,,,,ワタナベコウムテン,0
616,3010401178068,新規,0,2023-10-25,2023-10-25,龍驍株式会社,,株式会社,東京都,港区,赤坂６丁目１９番１９号氷川ガーデンズ３０１－Ａ室,,13,103,1070052,,,,,,,2023-10-25,1,,,,,リュウギョウ,0
617,3010401178076,新規,0,2023-10-25,2023-10-25,レモン商事株式会社,,株式会社,東京都,港区,芝２丁目２８番１１号ＬｉｎｋＳｐａｃｅ芝５０４,,13,103,1050014,,,,,,,2023-10-25,1,,,,,レモンショウジ,0
618,3010401178084,新規,0,2023-10-25,2023-10-25,株式会社ＡＩＳＴＯＮ,,株式会社,東京都,港区,赤坂３丁目８番８号,,13,103,1070052,,,,,,,2023-10-25,1,,,,,アイストン,0
619,3010401178101,新規,0,2023-10-25,2023-10-25,株式会社梛パートナーズ,,株式会社,東京都,港区,赤坂１丁目３番１５号赤坂アビタシオンビル３Ｆ,,13,103,1070052,,,,,,,2023-10-25,1,,,,,ナギパートナーズ,0
622,3010403031225,新規,0,2023-10-25,2023-10-25,ＭＲＤ　Ｌａｂ合同会社,,合同会社,東京都,港区,三田５丁目８番８三田シティハウス１３１１号,,13,103,1080073,,,,,,,2023-10-25,1,,,,,エムアールディーラボ,0
626,3010601064002,新規,0,2023-10-25,2023-10-25,ＹｏｏＮｉ株式会社,,株式会社,東京都,江東区,豊洲１丁目３番１８号スカイシティ豊洲１７０２,,13,108,1350061,,,,,,,2023-10-25,1,,,,,ヨーニ,0
627,3010701045026,新規,0,2023-10-25,2023-10-25,株式会社パンパントレード,,株式会社,東京都,品川区,西五反田２丁目１４番１０号五反田ハイム７０３,,13,109,1410031,,,,,,,2023-10-25,1,,,,,パンパントレード,0
628,3010701045034,新規,0,2023-10-25,2023-10-25,株式会社ゆずは,,株式会社,東京都,品川区,戸越６丁目２３番１０号プランドールＭＹ１０１,,13,109,1420041,,,,,,,2023-10-25,1,,,,,ユズハ,0
629,3010703006892,新規,0,2023-10-25,2023-10-25,合同会社ＢＩＧ　ＢＵＬＬ,,合同会社,東京都,品川区,旗の台６丁目８－１メゾンドール２０７,,13,109,1420064,,,,,,,2023-10-25,1,,,,,ビッグブル,0
634,3010801034465,新規,0,2023-10-25,2023-10-25,株式会社ここはね,,株式会社,東京都,大田区,大森北１丁目１７番１１－１００６号,,13,111,1430016,,,,,,,2023-10-25,1,,,,,ココハネ,0
635,3010803004730,新規,0,2023-10-25,2023-10-25,合同会社ＴＡＧＹ,,合同会社,東京都,大田区,大森東３丁目１番２８－４０３号,,13,111,1430012,,,,,,,2023-10-25,1,,,,,テージー,0
641,3011001157726,新規,0,2023-10-25,2023-10-25,株式会社ＴＫＳ,,株式会社,東京都,渋谷区,恵比寿西２丁目８番４号ＥＸ恵比寿西ビル５階,,13,113,1500021,,,,,,,2023-10-25,1,,,,,ティーケイエス,0
642,3011001157734,新規,0,2023-10-25,2023-10-25,株式会社スカイハーツプロモーション,,株式会社,東京都,目黒区,中目黒１丁目４－１８－４０６,,13,110,1530061,,,,,,,2023-10-25,1,,,,,スカイハーツプロモーション,0
643,3011001157742,新規,0,2023-10-25,2023-10-25,ｂｉｊｏｕｘ株式会社,,株式会社,東京都,渋谷区,東３丁目１６番３号,,13,113,1500011,,,,,,,2023-10-25,1,,,,,ビジュー,0
644,3011001157817,新規,0,2023-10-25,2023-10-25,株式会社サードプレイス,,株式会社,東京都,目黒区,南２丁目１０番４号,,13,110,1520013,,,,,,,2023-10-25,1,,,,,サードプレイス,0
645,3011003017746,新規,0,2023-10-25,2023-10-25,合同会社ＬＡＣ,,合同会社,東京都,渋谷区,円山町２３－４サトウコーポラス４０４,,13,113,1500044,,,,,,,2023-10-25,1,,,,,エルエーシー,0
651,3011101104909,新規,0,2023-10-25,2023-10-25,株式会社ＳＴＡＲ,,株式会社,東京都,新宿区,歌舞伎町２丁目２０－１１,,13,104,1600021,,,,,,,2023-10-25,1,,,,,スター,0
652,3011101104917,新規,0,2023-10-25,2023-10-25,ＫＩＣＫＥＥ株式会社,,株式会社,東京都,新宿区,西新宿７丁目２番６号西新宿Ｋ－１ビル３階,,13,104,1600023,,,,,,,2023-10-25,1,,,,,キキ,0
655,3011105010822,新規,0,2023-10-25,2023-10-25,一般社団法人ジェイ・エイチ・ピー,,その他の設立登記法人,東京都,新宿区,下宮比町１番４号,,13,104,1620822,,,,,,,2023-10-25,1,,,,,ジェイエイチピー,0
666,3011601027221,新規,0,2023-10-25,2023-10-25,株式会社生向,,株式会社,東京都,練馬区,関町南３丁目２８番１７号ホワイト富士１０６,,13,120,1770053,,,,,,,2023-10-25,1,,,,,,0
679,3012701017905,新規,0,2023-10-25,2023-10-25,株式会社オーシャン,,株式会社,東京都,西東京市,向台町４丁目２１番４５－２３３号,,13,229,1880013,,,,,,,2023-10-25,1,,,,,オーシャン,0
680,3012701017913,新規,0,2023-10-25,2023-10-25,株式会社セントバリー,,株式会社,東京都,西東京市,東町２丁目８番１７－５１０号,,13,229,2020012,,,,,,,2023-10-25,1,,,,,セントバリー,0
681,3012703002839,新規,0,2023-10-25,2023-10-25,合同会社Ｂｅａｕｔｙ,,合同会社,東京都,東久留米市,浅間町１丁目１２番１３号ベルカランコエひばりケ丘１０３,,13,222,2030012,,,,,,,2023-10-25,1,,,,,ビューティー,0
684,3013101009278,新規,0,2023-10-25,2023-10-25,株式会社エコ・グノーシス,,株式会社,東京都,あきる野市,伊奈１２００－４－Ａ１０６号,,13,228,1900142,,,,,,,2023-10-25,1,,,,,,0
689,3013301051534,新規,0,2023-10-25,2023-10-25,株式会社佐藤建設,,株式会社,東京都,豊島区,池袋３丁目３９－２,,13,116,1710014,,,,,,,2023-10-25,1,,,,,サトウケンセツ,0
693,3020001154096,新規,0,2023-10-25,2023-10-25,エスコンサル株式会社,,株式会社,神奈川県,川崎市宮前区,神木１丁目６番地４３,,14,136,2160032,,,,,,,2023-10-25,1,,,,,エスコンサル,0
694,3020001154138,新規,0,2023-10-25,2023-10-25,株式会社ＬＩＢＥＲＴＡＤ,,株式会社,神奈川県,横浜市磯子区,磯子台２７番ブリリア磯子Ａ－５０９,,14,107,2350019,,,,,,,2023-10-25,1,,,,,リベルタ,0
699,3021001080464,新規,0,2023-10-25,2023-10-25,株式会社野川工務店,,株式会社,神奈川県,横須賀市,平作１丁目３番２号,,14,201,2380032,,,,,,,2023-10-25,1,,,,,ノガワコウムテン,0
700,3021001080506,新規,0,2023-10-25,2023-10-25,株式会社ｅ２ｍ,,株式会社,神奈川県,藤沢市,辻堂西海岸１丁目５番１－５３２号,,14,205,2510046,,,,,,,2023-10-25,1,,,,,イートゥエム,0
701,3021001080514,新規,0,2023-10-25,2023-10-25,株式会社ｐｅａｃｅ　ｉｓ．,,株式会社,神奈川県,茅ヶ崎市,東海岸南３丁目８番２４－４０３号,,14,207,2530054,,,,,,,2023-10-25,1,,,,,ピースイズ,0
713,3030005021449,新規,0,2023-10-25,2023-10-25,よこやま社会保険労務士法人,,その他の設立登記法人,埼玉県,川越市,脇田本町１５番地１３東上パールビル３Ｆ,,11,201,3501123,,,,,,,2023-10-25,1,,,,,ヨコヤマ,0
715,3040001130632,新規,0,2023-10-25,2023-10-25,株式会社美里設備,,株式会社,千葉県,匝瑳市,八日市場イ２６２４番地２,,12,235,2892144,,,,,,,2023-10-25,1,,,,,ミサトセツビ,0
716,3040001130657,新規,0,2023-10-25,2023-10-25,株式会社Ａｌｐｈａ　Ｎｅｘｔ,,株式会社,千葉県,千葉市若葉区,加曽利町１４７４番地２,,12,104,2640017,,,,,,,2023-10-25,1,,,,,アルファネクスト,0
717,3040001130665,新規,0,2023-10-25,2023-10-25,Ｙ’ｓコーポレーション株式会社,,株式会社,千葉県,千葉市緑区,大金沢町３９０番地,,12,105,2660014,,,,,,,2023-10-25,1,,,,,ワイズコーポレーション,0
718,3040001130681,新規,0,2023-10-25,2023-10-25,株式会社ＮＥＸＴ　ＨＯＭＥ,,株式会社,千葉県,我孫子市,泉３７番２４号,,12,222,2701142,,,,,,,2023-10-25,1,,,,,ネクストホーム,0
722,3040005022173,新規,0,2023-10-25,2023-10-25,医療法人社団誠飛会,,その他の設立登記法人,千葉県,千葉市美浜区,高洲１丁目１６番３号鈴正ビル１階,,12,106,2610004,,,,,,,2023-10-25,1,,,,,セイヒカイ,0
728,3060001036464,新規,0,2023-10-25,2023-10-25,株式会社ミートキング,,株式会社,栃木県,芳賀郡芳賀町,大字稲毛田１９２１番地７,,09,345,3213303,,,,,,,2023-10-25,1,,,,,ミートキング,0
729,3060001036480,新規,0,2023-10-25,2023-10-25,株式会社ＰＬＡＩＮ,,株式会社,栃木県,足利市,羽刈町１９２番地７,,09,202,3260327,,,,,,,2023-10-25,1,,,,,プレイン,0
730,3060001036489,新規,0,2023-10-25,2023-10-25,株式会社ＯＴＯ,,株式会社,栃木県,宇都宮市,鶴田町６１７番地３２,,09,201,3200851,,,,,,,2023-10-25,1,,,,,オト,0
734,3070001041001,新規,0,2023-10-25,2023-10-25,株式会社南海,,株式会社,群馬県,邑楽郡大泉町,大字吉田３０９０番地,,10,524,3700523,,,,,,,2023-10-25,1,,,,,ナンカイ,0
739,3090003002412,新規,0,2023-10-25,2023-10-25,合同会社エイチプラス,,合同会社,山梨県,富士吉田市,新西原４丁目１番１０号,,19,202,4030017,,,,,,,2023-10-25,1,,,,,エイチプラス,0
744,3100003007236,新規,0,2023-10-25,2023-10-25,合同会社ＮＩＣＯＬＩ,,合同会社,長野県,須坂市,大字日滝２８３－３,,20,207,3820000,,,,,,,2023-10-25,1,,,,,ニコリ,0
746,3100005013083,新規,0,2023-10-25,2023-10-25,医療法人ＩＯＣ,,その他の設立登記法人,長野県,松本市,大字笹賀５４４１番地２,,20,202,3990033,,,,,,,2023-10-25,1,,,,,アイオシー,0
748,3110001037936,新規,0,2023-10-25,2023-10-25,株式会社由雅工業,,株式会社,新潟県,新潟市江南区,西町６丁目４番６号,,15,104,9500165,,,,,,,2023-10-25,1,,,,,ユガコウギョウ,0
749,3110003005189,新規,0,2023-10-25,2023-10-25,巻機山プリンセス合同会社,,合同会社,新潟県,南魚沼市,姥沢新田２９‐１,,15,226,9496551,,,,,,,2023-10-25,1,,,,,マキハタヤマプリンセス,0
758,3120001258960,新規,0,2023-10-25,2023-10-25,明微株式会社,,株式会社,大阪府,大阪市生野区,巽中１丁目８－１３－２０２,00132399,27,116,5440013,,,,,,,2023-10-25,1,,,,,メイビ,0
759,3120001259109,新規,0,2023-10-25,2023-10-25,株式会社ａｏｔｓｕｋｉ,,株式会社,大阪府,大阪市北区,梅田１丁目２番２号大阪駅前第２ビル１２－１２,,27,127,5300001,,,,,,,2023-10-25,1,,,,,アオツキ,0
760,3120001259133,新規,0,2023-10-25,2023-10-25,株式会社ＮＳＫＢ,,株式会社,大阪府,大阪市北区,堂山町１５番４－５０５号,,27,127,5300027,,,,,,,2023-10-25,1,,,,,ネスナビ,0
761,3120001259158,新規,0,2023-10-25,2023-10-25,株式会社大瀬工業所,,株式会社,大阪府,大阪市城東区,中浜３丁目２３番１２号,,27,118,5360024,,,,,,,2023-10-25,1,,,,,オオセコウギョウショ,0
762,3120001259174,新規,0,2023-10-25,2023-10-25,株式会社ＡＩＺＥＮ．,,株式会社,大阪府,大阪市大正区,千島１丁目２３番１３８号,,27,108,5510003,,,,,,,2023-10-25,1,,,,,アイゼン,0
763,3120001259182,新規,0,2023-10-25,2023-10-25,株式会社ニテンスアップ,,株式会社,大阪府,大阪市淀川区,木川東２丁目５番４１－６０１号,,27,123,5320012,,,,,,,2023-10-25,1,,,,,ニテンスアップ,0
764,3120001259232,新規,0,2023-10-25,2023-10-25,ユゲン株式会社,,株式会社,大阪府,大阪市西区,阿波座２丁目３番２３号有恒ビル４０５号室,,27,106,5500011,,,,,,,2023-10-25,1,,,,,ユゲン,0
770,3120003025178,新規,0,2023-10-25,2023-10-25,合同会社Ｎｏｂｌｅ　Ｊａｐａｎ,,合同会社,大阪府,大阪市中央区,松屋町４番７号,,27,128,5420067,,,,,,,2023-10-25,1,,,,,ノーブルジャパン,0
771,3120003025186,新規,0,2023-10-25,2023-10-25,日新デジタル合同会社,,合同会社,大阪府,大阪市北区,梅田１丁目１番３号大阪駅前第３ビル２９階１－１－１号室,,27,127,5300001,,,,,,,2023-10-25,1,,,,,ニッシンデジタル,0
772,3120003025194,新規,0,2023-10-25,2023-10-25,一生しあわせ合同会社,,合同会社,大阪府,大阪市中央区,宗右衛門町４番８号ＡＢＣガーデン１Ｆ西側,,27,128,5420084,,,,,,,2023-10-25,1,,,,,イッショウシアワセ,0
775,3120105009780,新規,0,2023-10-25,2023-10-25,土地家屋調査士法人多賀登記測量事務所,,その他の設立登記法人,大阪府,貝塚市,近木町１６番６号,,27,208,5970001,,,,,,,2023-10-25,1,,,,,タガトウキソクリョウジムショ,0
778,3120901048230,新規,0,2023-10-25,2023-10-25,株式会社Ｋ＆Ｊ,,株式会社,大阪府,豊中市,東豊中町３丁目３１－１,,27,203,5600003,,,,,,,2023-10-25,1,,,,,ケイアンドジェイ,0
779,3120901048247,新規,0,2023-10-25,2023-10-25,株式会社Ｌｅ　Ｌｉｅｎ　Ｈｏｍｅ,,株式会社,大阪府,豊中市,庄内東町４丁目３番８号,,27,203,5610831,,,,,,,2023-10-25,1,,,,,ルリアンホーム,0
783,3122001037510,新規,0,2023-10-25,2023-10-25,株式会社北野ホールディングス,,株式会社,大阪府,東大阪市,本庄西１丁目９－１５,,27,227,5780965,,,,,,,2023-10-25,1,,,,,キタノホールディングス,0
784,3122001037519,新規,0,2023-10-25,2023-10-25,株式会社ルフト,,株式会社,大阪府,四條畷市,岡山東２丁目１番１１号,,27,229,5750003,,,,,,,2023-10-25,1,,,,,ルフト,0
790,3130003009080,新規,0,2023-10-25,2023-10-25,合同会社グラン・プロジェクト,,合同会社,京都府,京都市東山区,三条通東分木町２８０番地,,26,105,6050000,,,,,,,2023-10-25,1,,,,,グランプロジェクト,0
793,3140003019723,新規,0,2023-10-25,2023-10-25,合同会社ハピネス,,合同会社,兵庫県,尼崎市,神田北通４丁目１０１番地ベレッツァ尼崎１３０１,,28,202,6600883,,,,,,,2023-10-25,1,,,,,ハピネス,0
796,3160001025449,新規,0,2023-10-25,2023-10-25,株式会社９ｔｈ　Ｗｏｒｋｓ,,株式会社,滋賀県,大津市,伊香立南庄町７１５番地１,,25,201,5200354,,,,,,,2023-10-25,1,,,,,ナインスワークス,0
797,3160003003023,新規,0,2023-10-25,2023-10-25,シックス合同会社,,合同会社,滋賀県,草津市,野路東３丁目１番１３号センチュリー玉川４１０,,25,206,5250058,,,,,,,2023-10-25,1,,,,,シックス,0
798,3170001017858,新規,0,2023-10-25,2023-10-25,株式会社サイトパーク,,株式会社,和歌山県,和歌山市,卜半町３１番地卜半町さかえビル３階,,30,201,6408045,,,,,,,2023-10-25,1,,,,,サイトパーク,0
808,3180001158643,新規,0,2023-10-25,2023-10-25,株式会社ＲＥＯ,,株式会社,愛知県,名古屋市中区,栄４丁目２０番２号,,23,106,4600008,,,,,,,2023-10-25,1,,,,,レオ,0
809,3180001158668,新規,0,2023-10-25,2023-10-25,株式会社Ｐｕｒｅ　Ｗｈｉｔｅ,,株式会社,愛知県,名古屋市守山区,桜坂５丁目６２４番地,,23,113,4630018,,,,,,,2023-10-25,1,,,,,ピュアホワイト,0
821,3190003004489,新規,0,2023-10-25,2023-10-25,合同会社Ｃ＆Ｔ,,合同会社,三重県,伊賀市,上野農人町４４７番地,,24,216,5180831,,,,,,,2023-10-25,1,,,,,,0
827,3240001062319,新規,0,2023-10-25,2023-10-25,株式会社ＳＨＩＮＳＥＩ,,株式会社,広島県,広島市佐伯区,河内南２丁目３３番２３号,,34,108,7315153,,,,,,,2023-10-25,1,,,,,シンセイ,0
831,3240003006389,新規,0,2023-10-25,2023-10-25,ロハス合同会社,,合同会社,広島県,広島市安佐南区,緑井６丁目１０番１４－５０１号,,34,105,7310103,,,,,,,2023-10-25,1,,,,,ロハス,0
834,3260001038440,新規,0,2023-10-25,2023-10-25,株式会社吉乃助,,株式会社,岡山県,倉敷市,阿知２丁目１９番２９号,,33,202,7100055,,,,,,,2023-10-25,1,,,,,キチノスケ,0
836,3270001008863,新規,0,2023-10-25,2023-10-25,株式会社宮本,,株式会社,鳥取県,鳥取市,面影２丁目１６－４６フェリオ１０１,,31,201,6800855,,,,,,,2023-10-25,1,,,,,ミヤモト,0
842,3290001103497,新規,0,2023-10-25,2023-10-25,株式会社ＨＥＡＲＴＳホールディングス,,株式会社,福岡県,福岡市博多区,博多駅前４丁目１４番１３号,,40,132,8120011,,,,,,,2023-10-25,1,,,,,ハーツホールディングス,0
843,3290001103539,新規,0,2023-10-25,2023-10-25,株式会社ＺＹＬＩＸ,,株式会社,福岡県,福岡市中央区,天神４丁目６－２８天神ファーストビル７階,,40,133,8100001,,,,,,,2023-10-25,1,,,,,ザイリックス,0
846,3290003014528,新規,0,2023-10-25,2023-10-25,ファミリーオフィス合同会社,,合同会社,福岡県,福岡市博多区,中洲５丁目４番６号,,40,132,8100801,,,,,,,2023-10-25,1,,,,,ファミリーオフィス,0
857,3330001031388,新規,0,2023-10-25,2023-10-25,株式会社ＴＲコーポレーション,,株式会社,熊本県,熊本市東区,三郎２丁目２６番５２号,,43,102,8620922,,,,,,,2023-10-25,1,,,,,ティーアールコーポレーション,0
859,3330005010710,新規,0,2023-10-25,2023-10-25,農事組合法人さこんたろう,,その他の設立登記法人,熊本県,上益城郡御船町,大字田代６５７０番地１,,43,441,8613323,,,,,,,2023-10-25,1,,,,,サコンタロウ,0
861,3340001026016,新規,0,2023-10-25,2023-10-25,株式会社西日本ハウス,,株式会社,鹿児島県,薩摩川内市,平佐町１６９２番地１２,,46,215,8950012,,,,,,,2023-10-25,1,,,,,ニシニホンハウス,0
864,3360003013381,新規,0,2023-10-25,2023-10-25,琉球Ｄｏｍｉｎｏ合同会社,,合同会社,沖縄県,八重山郡竹富町,字鳩間１１１－１,,47,381,9071544,,,,,,,2023-10-25,1,,,,,リュウキュウドミノ,0
869,3370001050566,新規,0,2023-10-25,2023-10-25,株式会社医療福祉トータルネットワーク,,株式会社,宮城県,仙台市泉区,福岡字南切立３番地の１０,,04,105,9813225,,,,,,,2023-10-25,1,,,,,イリョウフクシトータルネットワーク,0
870,3370003006335,新規,0,2023-10-25,2023-10-25,合同会社サーティーンストラットＡＤＤ,,合同会社,宮城県,仙台市青葉区,国分町３丁目８－９大西ビル２０２,,04,101,9800803,,,,,,,2023-10-25,1,,,,,サーティーンストラットエイデイデイ,0
873,3380001034080,新規,0,2023-10-25,2023-10-25,株式会社押山建装,,株式会社,福島県,安達郡大玉村,玉井字又兵ェ３２番地,,07,322,9691302,,,,,,,2023-10-25,1,,,,,オシヤマケンソウ,0
874,3380001034089,新規,0,2023-10-25,2023-10-25,増井産業株式会社,,株式会社,福島県,いわき市,泉町滝尻字御前田５５番地の１,,07,204,9718182,,,,,,,2023-10-25,1,,,,,マスイサンギョウ,0
883,3420001018459,新規,0,2023-10-25,2023-10-25,フクシアンドフクシアーキテクツ株式会社,,株式会社,青森県,青森市,緑２丁目１６番地２４,,02,201,0300845,,,,,,,2023-10-25,1,,,,,フクシアンドフクシアーキテクツ,0
895,3490001010624,新規,0,2023-10-25,2023-10-25,株式会社ハウスオン,,株式会社,高知県,高知市,比島町３丁目１７番２５号,,39,201,7800066,,,,,,,2023-10-25,1,,,,,ハウスオン,0
897,3700150120788,新規,0,2023-10-25,2023-10-25,ＢＤ　Ｈｏｌｄｉｎｇｓ　Ｊａｐａｎ　ＩＩ　Ｌｉｍｉｔｅｄ,00132377,外国会社等,,,,,,,,Ｔｒｉｄｅｎｔ　Ｃｈａｍｂｅｒｓ　Ｐ．Ｏ．Ｂｏｘ１４６，Ｒｏａｄ　Ｔｏｗｎ，Ｔｏｒｔｏｌａ，ＶＧ１１１０，ＢＶＩ,,,,,,2023-10-25,1,,,,,ビーデイーホールデイングスジヤパンツーリミテツド,0
898,3700150120796,新規,0,2023-10-25,2023-10-25,ｚｈｕｊｉｓｈｉｈａｏｙａｚｈｅｎｚｈｉｙｏｕｘｉａｎｇｏｎｇｓｉ,,外国会社等,,,,,,,,ｚｈｕｊｉｓｈｉｃａｏｔａｚｈｅｎｎａｎｓｈａｎｃｕｎｚｈａｎｇｙｉｗｕｚｉｒａｎｃｕｎ１１０９ｈａｏ　ｓｈａｏｘｉｎｇｓｈｉ　ｚｈｅｊｉａｎｇｓｈｅｎｇ,,,,,,2023-10-25,1,,,,,ジユージーシハオヤージエンジーヨウシエンゴンスー,0
899,3700150121349,新規,0,2023-10-25,2023-10-25,Ｋｏｖａｐｉｒｔｔｉ　Ｏｙ,,外国会社等,,,,,,,,Ｋｏｌｍｏｓｖａｌｔａｕｓ　１５　６０３２０　Ｓｅｉｎａｊｏｋｉ　Ｆｉｎｌａｎｄ,,,,,,2023-10-25,1,,,,,コバピルテイ,0
900,3700150121357,新規,0,2023-10-25,2023-10-25,Ｏｂｊｅｃｔ　Ｆｒｏｎｔｉｅｒ　Ｓｏｆｔｗａｒｅ　Ｐｒｉｖａｔｅ　Ｌｉｍｉｔｅｄ,,外国会社等,,,,,,,,Ｐｌｏｔ　Ｎｏ．６，Ｎｏ．４－Ｂ　２ｎｄ　Ｍａｉｎ　Ｒｏａｄ，ｇｒｏｕｎｄ　ｆｌｏｏｒ，Ｖｉｊａｙａ　Ｎａｇａｒ，Ｖｅｌａｃｈｅｙ，Ｃｈｅｎｎａｉ－６０００４２,,,,,,2023-10-25,1,,,,,オブジエクトフロンテイアソフトウエアプライベートリミテツド,0
901,3700150121373,新規,0,2023-10-25,2023-10-25,Ｓｈｅｎｚｈｅｎｓｈｉ　ｇｅｉｍｕｓｈｕｍａ　ｋｅｊｉ　ｙｏｕｘｉａｎｇｏｎｇｓｉ,,外国会社等,,,,,,,,２０１，Ｎｏ．７７，Ｓｈａｗｅｉ　Ｅａｓｔ　Ｖｉｌｌａｇｅ，Ｓｈａｗｅｉ　Ｃｏｍｍｕｎｉｔｙ，Ｓｈａｔｏｕ　Ｓｔｒｅｅｔ，Ｆｕｔｉａｎ　Ｄｉｓｔｒｉｃｔ，Ｓｈｅｎｚｈｅｎ,,,,,,2023-10-25,1,,,,,シンセンシギムデジタルテクノロジーカンパニリミテツド,0
902,3700150121407,新規,0,2023-10-25,2023-10-25,ｄｏｎｇｇｕａｎｈｕａｙｉｎｇｚｈｉｎｅｎｇｋｅｊｉ　ｙｏｕｘｉａｎｇｏｎｇｓｉ,,外国会社等,,,,,,,,Ｒｏｏｍ４０２Ｂｕｉｌｄｉｎｇ２Ｎｏ．７６ＤａｓｈａＲｏａｄＤａｌｉｎｇｓｈａｎＴｏｗｎ　ＤｏｎｇｇｕａｎＣｉｔｙ　ＧｕａｎｇｄｏｎｇＰｒｏｖｉｎｃｅ,,,,,,2023-10-25,1,,,,,トウカンカエイチノウカギユウゲンコウシ,0
903,3700150121415,新規,0,2023-10-25,2023-10-25,Ｆｌｕｘ　Ｄｅｓｉｇｎ　Ｐｒｏｄｕｃｔｓ　ＧｍｂＨ,,外国会社等,,,,,,,,Ｇｕｓｔａｖ－Ｋｉｒｃｈｈｏｆｆ－Ｓｔｒ．３１，Ｂａｄ　Ｄｕｅｒｋｈｅｉｍ，６７０９８　Ｇｅｒｍａｎｙ,,,,,,2023-10-25,1,,,,,フラックスデザインプロダクツゲーエムベーハー,0
907,4010001239483,新規,0,2023-10-25,2023-10-25,ＨＸ東京株式会社,,株式会社,東京都,中央区,晴海１丁目８－１１晴海アイランドトリトンスクエアオフィスタワーＹ棟３７階,,13,102,1040053,,,,,,,2023-10-25,1,,,,,エイチエックストウキョウ,0
908,4010001239500,新規,0,2023-10-25,2023-10-25,株式会社硼泰医療技研,,株式会社,東京都,千代田区,九段南１丁目５番６号りそな九段ビル５階,,13,101,1020074,,,,,,,2023-10-25,1,,,,,ホウタイイリョウギケン,0
909,4010001239509,新規,0,2023-10-25,2023-10-25,株式会社プログライブコンサルティング,,株式会社,東京都,千代田区,神田駿河台２丁目５番地１御茶ノ水ファーストビル,,13,101,1010062,,,,,,,2023-10-25,1,,,,,プログライブコンサルティング,0
910,4010001239517,新規,0,2023-10-25,2023-10-25,緑城日本株式会社,,株式会社,東京都,千代田区,内幸町２丁目２番２号富国生命ビル渥美坂井法律事務所・外国法共同事業内,,13,101,1000011,,,,,,,2023-10-25,1,,,,,リョクジョウニホン,0
916,4010003042019,新規,0,2023-10-25,2023-10-25,合同会社ｒｉｌｌｓ,,合同会社,東京都,中央区,銀座１丁目２２番１１号銀座大竹ビジデンス２階,,13,102,1040061,,,,,,,2023-10-25,1,,,,,リルズ,0
917,4010003042027,新規,0,2023-10-25,2023-10-25,合同会社ＢＥＡＴＬ,,合同会社,東京都,中央区,銀座１丁目１５番４号銀座一丁目ビル７階,,13,102,1040061,,,,,,,2023-10-25,1,,,,,ビートル,0
922,4010103002236,新規,0,2023-10-25,2023-10-25,合同会社さあどすてーじ,,合同会社,東京都,八王子市,鑓水２丁目８３－１－６０４,,13,201,1920375,,,,,,,2023-10-25,1,,,,,サードステージ,0
940,4010401178067,新規,0,2023-10-25,2023-10-25,ＳｏｕｌＤｉｗａｌｉ株式会社,,株式会社,東京都,港区,南麻布５丁目５番２０－１０８号,,13,103,1060047,,,,,,,2023-10-25,1,,,,,ソウルディワリ,0
943,4010405022618,新規,0,2023-10-25,2023-10-25,ユヅカミインフラホールディングス一般社団法人,,その他の設立登記法人,東京都,港区,虎ノ門３丁目２２番１０－２０１号,,13,103,1050001,,,,,,,2023-10-25,1,,,,,ユヅカミインフラホールディングス,0
944,4010501051248,新規,0,2023-10-25,2023-10-25,健康薬局株式会社,,株式会社,東京都,台東区,東上野４丁目２０番５号,,13,106,1100015,,,,,,,2023-10-25,1,,,,,ケンコウヤッキョク,0
947,4010701045025,新規,0,2023-10-25,2023-10-25,株式会社アクシス,,株式会社,東京都,品川区,大井６丁目２１番１－１１０６号,,13,109,1400014,,,,,,,2023-10-25,1,,,,,アクシス,0
950,4010901054081,新規,0,2023-10-25,2023-10-25,株式会社Ｃｒｏｍｅｎｏｗ,,株式会社,東京都,世田谷区,上馬２丁目２９番１１号ヨークレジデンス１０４,,13,112,1540011,,,,,,,2023-10-25,1,,,,,クロメノウ,0
959,4011001157840,新規,0,2023-10-25,2023-10-25,株式会社ＦＵＮＣ　ＤＥＳＩＧＮ,,株式会社,東京都,渋谷区,千駄ヶ谷３丁目１３番２０号第７宮庭マンション１００６号室,,13,113,1510051,,,,,,,2023-10-25,1,,,,,ファンクデザイン,0
960,4011001157873,新規,0,2023-10-25,2023-10-25,株式会社Ｂｕｂｂｌｅ,,株式会社,東京都,渋谷区,東３丁目２４番２号恵比寿ＳＴビル２Ｆ,,13,113,1500011,,,,,,,2023-10-25,1,,,,,バブル,0
961,4011005010244,新規,0,2023-10-25,2023-10-25,一般社団法人ｍｕｓｉｋｍａｇｉｃこどもスマイル基金,,その他の設立登記法人,東京都,渋谷区,渋谷２丁目１０番６号,,13,113,1500002,,,,,,,2023-10-25,1,,,,,ミュージックマジックコドモスマイルキキン,0
964,4011101104833,新規,0,2023-10-25,2023-10-25,株式会社Ｌｉｆｅ　ｉｓ　ｊｏｕｒｎｅｙ,,株式会社,東京都,新宿区,原町２丁目１３番５号プラティーク新宿原町１階,,13,104,1620053,,,,,,,2023-10-25,1,,,,,ライフイズジャーニー,0
965,4011101104908,新規,0,2023-10-25,2023-10-25,株式会社ＯｆｆｉｃｅＹＡＭＡＳＨＩＴＡ,,株式会社,東京都,新宿区,西新宿４丁目２９番４号３１３号室,,13,104,1600023,,,,,,,2023-10-25,1,,,,,オフィスヤマシタ,0
966,4011101104916,新規,0,2023-10-25,2023-10-25,株式会社Ａｔｉ,,株式会社,東京都,新宿区,新宿５丁目１８－２０ルックハイツ新宿８０３号,,13,104,1600022,,,,,,,2023-10-25,1,,,,,アットアイ,0
968,4011401025556,新規,0,2023-10-25,2023-10-25,株式会社ａｎ‐ｋｈｅｐｒｉ,,株式会社,東京都,板橋区,小茂根４丁目１番２１号,,13,119,1730037,,,,,,,2023-10-25,1,,,,,アンケプリ,0
974,4012301013642,新規,0,2023-10-25,2023-10-25,グロス・ヒューゲル株式会社,,株式会社,東京都,町田市,森野２丁目１２番９号,,13,209,1940022,,,,,,,2023-10-25,1,,,,,グロスヒューゲル,0
982,4013101009277,新規,0,2023-10-25,2023-10-25,株式会社ＬＣ,,株式会社,東京都,青梅市,本町１５６番地,,13,205,1980083,,,,,,,2023-10-25,1,,,,,エルシー,0
991,4020001154120,新規,0,2023-10-25,2023-10-25,株式会社Ｄ‐ＰＲＯ,,株式会社,神奈川県,川崎市宮前区,土橋５丁目４番地４２,,14,136,2160005,,,,,,,2023-10-25,1,,,,,ディープロ,0
992,4020001154129,新規,0,2023-10-25,2023-10-25,株式会社碧井工房,,株式会社,神奈川県,横浜市西区,浅間町１丁目４番３号ウィザードビル４０２,,14,103,2200072,,,,,,,2023-10-25,1,,,,,アオイコウボウ,0
993,4020001154137,新規,0,2023-10-25,2023-10-25,株式会社ＮＩＮＥ,,株式会社,神奈川県,横浜市港南区,港南台６丁目１５番３２号,,14,111,2340054,,,,,,,2023-10-25,1,,,,,ナイン,0
994,4020001154145,新規,0,2023-10-25,2023-10-25,株式会社甚兵衛,,株式会社,神奈川県,横浜市都筑区,勝田町１８０番地,,14,118,2240034,,,,,,,2023-10-25,1,,,,,ジンベエ,0
997,4021001080488,新規,0,2023-10-25,2023-10-25,株式会社ＴＡＩＳＥＩ,,株式会社,神奈川県,厚木市,中町４丁目１４番１号サクセス本厚木ビル６Ｆ,,14,212,2430018,,,,,,,2023-10-25,1,,,,,タイセイ,0
998,4021001080546,新規,0,2023-10-25,2023-10-25,株式会社ａｐｐｒｅｅ,,株式会社,神奈川県,厚木市,下川入１２８１番地２,,14,212,2430206,,,,,,,2023-10-25,1,,,,,,0
999,4021001080562,新規,0,2023-10-25,2023-10-25,株式会社タンクスエンジニアリング,,株式会社,神奈川県,大和市,福田１丁目２番６号サンコービル１階,,14,213,2420024,,,,,,,2023-10-25,1,,,,,タンクスエンジニアリング,0
1000,4021001080570,新規,0,2023-10-25,2023-10-25,株式会社Ｙ．Ｂ．Ｓ,,株式会社,神奈川県,相模原市緑区,西橋本１丁目２４番２号,,14,151,2520131,,,,,,,2023-10-25,1,,,,,ワイビーエス,0
1001,4021003013719,新規,0,2023-10-25,2023-10-25,オープンエステート合同会社,,合同会社,神奈川県,平塚市,東八幡２丁目３番４３―１号,,14,203,2540016,,,,,,,2023-10-25,1,,,,,オープンエステート,0
1007,4030001156792,新規,0,2023-10-25,2023-10-25,Ｂｌｅｎｄｉｘ株式会社,,株式会社,埼玉県,幸手市,平須賀２丁目１２０番地,,11,240,3400145,,,,,,,2023-10-25,1,,,,,ブレンディックス,0
1008,4030001156834,新規,0,2023-10-25,2023-10-25,いろは計画株式会社,,株式会社,埼玉県,上尾市,二ツ宮１０１０番地２グランコート上尾４０３,,11,219,3620017,,,,,,,2023-10-25,1,,,,,イロハケイカク,0
1011,4030003022778,新規,0,2023-10-25,2023-10-25,合同会社Ａｃｅｐｉｒｅ,,合同会社,埼玉県,さいたま市南区,内谷４丁目１５―９（４０１）,,11,108,3360034,,,,,,,2023-10-25,1,,,,,エースパイア,0
1018,4040001130631,新規,0,2023-10-25,2023-10-25,長源商事株式会社,,株式会社,千葉県,四街道市,大日字今宿１８９７番,,12,228,2840001,,,,,,,2023-10-25,1,,,,,チョウゲンショウジ,0
1019,4040001130656,新規,0,2023-10-25,2023-10-25,株式会社ミヤザキングダム,,株式会社,千葉県,流山市,おおたかの森北２丁目５７番地の５,,12,220,2700119,,,,,,,2023-10-25,1,,,,,ミヤザキングダム,0
1020,4040001130672,新規,0,2023-10-25,2023-10-25,株式会社湊エンタープライズ,,株式会社,千葉県,船橋市,大穴南４丁目１３番８号,,12,204,2740067,,,,,,,2023-10-25,1,,,,,ミナトエンタープライズ,0
1025,4040003023619,新規,0,2023-10-25,2023-10-25,麗華合同会社,,合同会社,千葉県,千葉市稲毛区,作草部町５５９番地４ＰＯＰＴＯＷＮウィズ千葉公園４０５号,,12,103,2630014,,,,,,,2023-10-25,1,,,,,レイカ,0
1026,4050001053658,新規,0,2023-10-25,2023-10-25,マヤティートレーディング株式会社,,株式会社,茨城県,北相馬郡利根町,大字八幡台７番地７,,08,564,3001623,,,,,,,2023-10-25,1,,,,,マヤティートレーディング,0
1028,4050003007876,新規,0,2023-10-25,2023-10-25,ＣＳ合同会社,,合同会社,茨城県,小美玉市,羽鳥２３５１,,08,236,3190123,,,,,,,2023-10-25,1,,,,,シエス,0
1030,4060003004781,新規,0,2023-10-25,2023-10-25,Ｅ＆Ｅ　ＪＡＰＡＮ合同会社,,合同会社,栃木県,佐野市,閑馬町１８７８番地１,,09,204,3270321,,,,,,,2023-10-25,1,,,,,イーアンドイージャパン,0
1033,4070001041000,新規,0,2023-10-25,2023-10-25,株式会社ＩＲＩＩ,,株式会社,群馬県,安中市,板鼻１４７２番地サンセリテ高崎４０５,,10,211,3790111,,,,,,,2023-10-25,1,,,,,イリイ,0
1034,4070001041009,新規,0,2023-10-25,2023-10-25,株式会社いのもと園,,株式会社,群馬県,沼田市,利根町園原２０１１番地１,,10,206,3780324,,,,,,,2023-10-25,1,,,,,イノモトエン,0
1035,4070001041017,新規,0,2023-10-25,2023-10-25,にゃんこホーム株式会社,,株式会社,群馬県,高崎市,石原町３７０３番地３,,10,202,3700864,,,,,,,2023-10-25,1,,,,,ニャンコホーム,0
1042,4090003002411,新規,0,2023-10-25,2023-10-25,合同会社わっぱっぱっ,,合同会社,山梨県,韮崎市,龍岡町若尾新田３２番地１,,19,207,4070031,,,,,,,2023-10-25,1,,,,,ワッパッパッ,0
1066,4120001259108,新規,0,2023-10-25,2023-10-25,株式会社ＬＡ,,株式会社,大阪府,大阪市東住吉区,田辺６丁目１－９,,27,121,5460031,,,,,,,2023-10-25,1,,,,,エルエー,0
1067,4120001259157,新規,0,2023-10-25,2023-10-25,株式会社プリマステラ,,株式会社,大阪府,大阪市北区,梅田１丁目２番２号大阪駅前第２ビル１２－１２,,27,127,5300001,,,,,,,2023-10-25,1,,,,,プリマステラ,0
1068,4120001259173,新規,0,2023-10-25,2023-10-25,株式会社アシストセンター,,株式会社,大阪府,大阪市此花区,西九条６丁目１番１２５号,,27,104,5540012,,,,,,,2023-10-25,1,,,,,アシストセンター,0
1069,4120001259198,新規,0,2023-10-25,2023-10-25,株式会社ラボリエイト,,株式会社,大阪府,大阪市浪速区,元町２丁目８番４号,,27,111,5560016,,,,,,,2023-10-25,1,,,,,ラボリエイト,0
1070,4120001259223,新規,0,2023-10-25,2023-10-25,聖保羅国際企業株式会社,,株式会社,大阪府,大阪市北区,堂島２丁目２番２号近鉄堂島ビル１５階堂島パートナーズ内,,27,127,5300003,,,,,,,2023-10-25,1,,,,,セントポールコクサイキギョウ,0
1071,4120001259264,新規,0,2023-10-25,2023-10-25,弘明株式会社,,株式会社,大阪府,大阪市大正区,三軒家西３丁目４番１６号中山ビル１０４８,,27,108,5510001,,,,,,,2023-10-25,1,,,,,コウメイ,0
1077,4120003025185,新規,0,2023-10-25,2023-10-25,Ｊｕｎｄｏ合同会社,,合同会社,大阪府,大阪市生野区,新今里７丁目１７番１４号プレアール新今里Ｖ２０５,00132406,27,116,5440001,,,,,,,2023-10-25,1,,,,,ジュンド,0
1078,4120003025193,新規,0,2023-10-25,2023-10-25,合同会社聖実,,合同会社,大阪府,大阪市旭区,高殿４丁目１番１４－８１２号,,27,117,5350031,,,,,,,2023-10-25,1,,,,,セイジツ,0
1079,4120005023955,新規,0,2023-10-25,2023-10-25,社会保険労務士法人ＬＥＭＯＮ,,その他の設立登記法人,大阪府,大阪市住之江区,中加賀屋２丁目６番２５号２０２,,27,125,5590017,,,,,,,2023-10-25,1,,,,,レモン,0
1080,4120005023963,新規,0,2023-10-25,2023-10-25,一般社団法人ＴＨ１,,その他の設立登記法人,大阪府,大阪市中央区,高麗橋４丁目３番７号淀屋橋総合会計内,,27,128,5410043,,,,,,,2023-10-25,1,,,,,ティーエイチワン,0
1083,4120101068400,新規,0,2023-10-25,2023-10-25,株式会社Ｙｍｅｄｉｃａｌ,,株式会社,大阪府,泉佐野市,高松東１丁目７番３１号,,27,213,5980012,,,,,,,2023-10-25,1,,,,,ワイメディカル,0
1087,4120901048262,新規,0,2023-10-25,2023-10-25,株式会社ＣＯＮＩ,,株式会社,大阪府,吹田市,千里山東２丁目２７番３号,,27,205,5650842,,,,,,,2023-10-25,1,,,,,コニー,0
1088,4120901048270,新規,0,2023-10-25,2023-10-25,ネクストワン株式会社,,株式会社,大阪府,豊中市,利倉西２丁目１２番１４号,,27,203,5610844,,,,,,,2023-10-25,1,,,,,ネクストワン,0
1097,4130001075462,新規,0,2023-10-25,2023-10-25,株式会社リスブラン,,株式会社,京都府,京都市西京区,大枝西新林町５丁目１３番地３,,26,111,6101141,,,,,,,2023-10-25,1,,,,,リスブラン,0
1098,4130001075512,新規,0,2023-10-25,2023-10-25,株式会社建築計画,,株式会社,京都府,京都市北区,平野八丁柳町６８番地の１サニーハイム金閣寺４０３号,,26,101,6038345,,,,,,,2023-10-25,1,,,,,ケンチクケイカク,0
1099,4130001075594,新規,0,2023-10-25,2023-10-25,株式会社龍人工業,,株式会社,京都府,木津川市,木津南垣外２９番地２,,26,214,6190214,,,,,,,2023-10-25,1,,,,,リュウトコウギョウ,0
1105,4140001132106,新規,0,2023-10-25,2023-10-25,スリープ株式会社,,株式会社,兵庫県,姫路市,花影町１丁目２３番地花影中村コーポ４０４号,,28,201,6700047,,,,,,,2023-10-25,1,,,,,スリープ,0
1106,4140001132122,新規,0,2023-10-25,2023-10-25,株式会社ユナイテック,,株式会社,兵庫県,神戸市北区,八多町柳谷２番地の３１０,,28,109,6511342,,,,,,,2023-10-25,1,,,,,ユナイテック,0
1110,4140003019722,新規,0,2023-10-25,2023-10-25,合同会社ウエシマペイント,,合同会社,兵庫県,姫路市,的形町的形２４５７番地１４,,28,201,6710111,,,,,,,2023-10-25,1,,,,,ウエシマペイント,0
1122,4180001158642,新規,0,2023-10-25,2023-10-25,株式会社タケトキ,,株式会社,愛知県,知多郡阿久比町,大字草木字峯畑４１番地,,23,441,4702211,,,,,,,2023-10-25,1,,,,,タケトキ,0
1127,4180301037926,新規,0,2023-10-25,2023-10-25,株式会社パワー精工,,株式会社,愛知県,岡崎市,中島町字明生池３７番地,,23,202,4440226,,,,,,,2023-10-25,1,,,,,パワーセイコウ,0
1130,4180303005872,新規,0,2023-10-25,2023-10-25,合同会社あずき工房,,合同会社,愛知県,豊田市,加納町下大坪４番地５,,23,211,4700364,,,,,,,2023-10-25,1,,,,,アズキコウボウ,0
1137,4190003004488,新規,0,2023-10-25,2023-10-25,合同会社京谷工業,,合同会社,三重県,津市,白塚町２７９２番地２,,24,201,5140101,,,,,,,2023-10-25,1,,,,,キョウタニコウギョウ,0
1152,4240001062318,新規,0,2023-10-25,2023-10-25,エムプラス株式会社,,株式会社,広島県,竹原市,忠海床浦２丁目１６番５１号,,34,203,7292314,,,,,,,2023-10-25,1,,,,,エムプラス,0
1153,4240001062334,新規,0,2023-10-25,2023-10-25,株式会社ネクスト,,株式会社,広島県,広島市西区,三篠北町６番６号,,34,104,7330006,,,,,,,2023-10-25,1,,,,,ネクスト,0
1171,4290001103463,新規,0,2023-10-25,2023-10-25,株式会社Ｉｎｆｉｎｉ‐Ｔ,,株式会社,福岡県,福岡市中央区,笹丘１丁目１１－１１ＭＫビル２０５号室,,40,133,8100034,,,,,,,2023-10-25,1,,,,,インフィニティ,0
1186,4330001031395,新規,0,2023-10-25,2023-10-25,精美加株式会社,,株式会社,熊本県,熊本市東区,山ノ神２丁目１４番５号,,43,102,8620915,,,,,,,2023-10-25,1,,,,,セイビカ,0
1188,4340001026015,新規,0,2023-10-25,2023-10-25,株式会社ＩＮＳＵＬＡＴＩＯＮ,,株式会社,鹿児島県,鹿児島市,西別府町２７９４－１６５,,46,201,8900033,,,,,,,2023-10-25,1,,,,,,0
1203,4400001016439,新規,0,2023-10-25,2023-10-25,日成株式会社,,株式会社,岩手県,二戸市,上斗米字前田３４番地２,,03,213,0286108,,,,,,,2023-10-25,1,,,,,ニッセイ,0
1207,4420001018458,新規,0,2023-10-25,2023-10-25,メタルクラフト株式会社,,株式会社,青森県,八戸市,下長６丁目５番１３号,,02,203,0391164,,,,,,,2023-10-25,1,,,,,メタルクラフト,0
1208,4420003002823,新規,0,2023-10-25,2023-10-25,合同会社スネークアイズ,,合同会社,青森県,八戸市,吹上３丁目６－３１,,02,203,0310003,,,,,,,2023-10-25,1,,,,,スネークアイズ,0
1227,4460101007456,新規,0,2023-10-25,2023-10-25,株式会社Ｍｗｏｒｋｓ,,株式会社,北海道,帯広市,西十八条南５丁目４５番地１８,,01,207,0800028,,,,,,,2023-10-25,1,,,,,エムワークス,0
1228,4470001019864,新規,0,2023-10-25,2023-10-25,株式会社エンテン,,株式会社,香川県,仲多度郡多度津町,大字見立１３５１番地１,,37,404,7640036,,,,,,,2023-10-25,1,,,,,エンテン,0
1231,4490001010623,新規,0,2023-10-25,2023-10-25,株式会社狼炎,,株式会社,高知県,高岡郡檮原町,檮原１５８２番地２３,,39,405,7850600,,,,,,,2023-10-25,1,,,,,ノロシ,0
1233,4700150120795,新規,0,2023-10-25,2023-10-25,ＬＥＣＯＮＥ　ＴＥＣＨＮＯＬＯＧＹ　ＣＯ．，ＬＩＭＩＴＥＤ,,外国会社等,,,,,,,,ＦＬＡＴ／ＲＭ　１７０１，１７／Ｆ　ＲＩＣＫＹ　ＣＴＲ３６　ＣＨＯＮＧ　ＹＩＰ　ＳＴ，ＫＷＵＮ　ＴＯＮＧ，ＨＯＮＧ　ＫＯＮＧ,,,,,,2023-10-25,1,,,,,リコンテクノロジーシーオーリミテツド,0
1234,4700150121356,新規,0,2023-10-25,2023-10-25,深セン市富潤斯科技　有限公司,,外国会社等,,,,,,,,中国広東省深セン市福田区華強北街道桑達工業区４０９棟４０６室,,,,,,2023-10-25,1,,,,,シンセンシフジユンシカギユウゲンコウシ,0
1235,4700150121364,新規,0,2023-10-25,2023-10-25,Ｐ＆Ｇ　Ｎｏｒｔｈｅａｓｔ　Ａｓｉａ　Ｐｔｅ　Ｌｔｄ,,外国会社等,,,,,,,,８０　Ｒａｆｆｌｅｓ　Ｐｌａｃｅ　＃３２－０１　ＵＯＢ　Ｐｌａｚａ，Ｓｉｎｇａｐｏｒｅ,,,,,,2023-10-25,1,,,,,ピーアンドジーノースイーストアジアリミテツド,0
1236,4700150121372,新規,0,2023-10-25,2023-10-25,ＢＲＩＧＨＴＣＡＰ　ＩＮＶＥＳＴＭＥＮＴ　ＣＯＲＰＯＲＡＴＩＯＮ,,外国会社等,,,,,,,,Ｌｅｖｅｌ２，Ｌｏｔｅｍａｕ　Ｃｅｎｔｒｅ　Ｂｕｉｌｄｉｎｇ，Ｖａｅａ　Ｓｔｒｅｅｔ，Ａｐｉａ，Ｓａｍｏａ．,,,,,,2023-10-25,1,,,,,ブライトキヤツプインベストメントコーポレーシヨン,0
1237,4700150121406,新規,0,2023-10-25,2023-10-25,Ｓｈｅｎｚｈｅｎｓｈｉ　ＲｕｃｈｕａｎｇＫｅｊｉ　ｙｏｕｘｉａｎＧｏｎｇｓｉ,,外国会社等,,,,,,,,ｌｏｎｇｇａｎｇｑｕｂａｎｔｉａｎｊｉｅｄａｏｗｕｈｅｓｈｅｑｕｈｅｋａｎｌｕ　６ｈａｏ　４０１　Ｓｈｅｎｚｈｅｎ,,,,,,2023-10-25,1,,,,,シンセンシルチワンカギユウゲンコウシ,0
1238,4700150121414,新規,0,2023-10-25,2023-10-25,Ｓｈｅｎｚｈｅｎ　ｃｈｕａｎｓｈｉｙａｄｉａｎｍａｏｙｉ　ｙｏｕｘｉａｎｇｏｎｇｓｉ,,外国会社等,,,,,,,,ｌｏｎｇｇａｎｇｑｕｂａｎｔｉａｎｊｉｅｄａｏｙｏｎｇｇａｎｌｕ５０ｈａｏｌｏｕ９０３　ｓｈｅｎｚｈｅｎｓｈｉ,,,,,,2023-10-25,1,,,,,シンセンツァンシヤデンマオイユウゲンコウシ,0
1250,5010001239490,新規,0,2023-10-25,2023-10-25,Ｍｏｒｉｍｏｔｏ　Ｆｏｒｍｕｌａｓ株式会社,,株式会社,東京都,中央区,銀座１丁目１２－４Ｎ＆ＥＢＬＤ．７階,,13,102,1040061,,,,,,,2023-10-25,1,,,,,モリモトフォーミュラズ,0
1251,5010001239499,新規,0,2023-10-25,2023-10-25,ディーアールアイ・ユーティー株式会社,,株式会社,東京都,千代田区,丸の内２丁目６番１号,,13,101,1000005,,,,,,,2023-10-25,1,,,,,ディーアールアイユーティー,0
1252,5010001239508,新規,0,2023-10-25,2023-10-25,ＡＷＴ株式会社,,株式会社,東京都,千代田区,神田練塀町７３番地プロミエ秋葉原１００２号室,,13,101,1010022,,,,,,,2023-10-25,1,,,,,エーダブリュティ,0
1253,5010001239524,新規,0,2023-10-25,2023-10-25,株式会社ＳＴＤ,,株式会社,東京都,中央区,銀座８丁目６番８号福田ビル３階,,13,102,1040061,,,,,,,2023-10-25,1,,,,,エスティーディー,0
1254,5010001239532,新規,0,2023-10-25,2023-10-25,株式会社ＢＡＲＯＬＯ　ＧＬＯＢＡＬ,,株式会社,東京都,中央区,八重洲２丁目１番１号ＹＡＮＭＡＲＴＯＫＹＯ１２階,,13,102,1040028,,,,,,,2023-10-25,1,,,,,バローログローバル,0
1259,5010003042018,新規,0,2023-10-25,2023-10-25,ウェイブホリック合同会社,,合同会社,東京都,中央区,銀座１丁目１２番４号Ｎ＆Ｅ・ＢＬＤ．６Ｆ,,13,102,1040061,,,,,,,2023-10-25,1,,,,,ウェイブホリック,0
1263,5010401178066,新規,0,2023-10-25,2023-10-25,ハートフル・ホスピタリティ株式会社,,株式会社,東京都,港区,虎ノ門５丁目１番５号,,13,103,1050001,,,,,,,2023-10-25,1,,,,,ハートフルホスピタリティ,0
1264,5010401178116,新規,0,2023-10-25,2023-10-25,株式会社Ｂ‐ｃｕｂｅｄ,,株式会社,東京都,港区,麻布十番３丁目７番１０－９０４号,,13,103,1060045,,,,,,,2023-10-25,1,,,,,ビーキューブド,0
1267,5010403031248,新規,0,2023-10-25,2023-10-25,サン＆サンズ合同会社,,合同会社,東京都,港区,白金台１丁目１番１０号,,13,103,1080071,,,,,,,2023-10-25,1,,,,,サンアンドサンズ,0
1271,5010601064017,新規,0,2023-10-25,2023-10-25,エイトフィールズ株式会社,,株式会社,東京都,墨田区,八広５丁目４番１３号,,13,107,1310041,,,,,,,2023-10-25,1,,,,,エイトフィールズ,0
1272,5010603010448,新規,0,2023-10-25,2023-10-25,Ｓｔｙｌｅ　Ｃｒｅａｔｉｏｎ合同会社,,合同会社,東京都,江東区,有明１丁目１番１７,,13,108,1350063,,,,,,,2023-10-25,1,,,,,スタイルクリエイション,0
1277,5010801034463,新規,0,2023-10-25,2023-10-25,株式会社船宿まる八,,株式会社,東京都,大田区,大森本町２丁目１５番１０号,,13,111,1430011,,,,,,,2023-10-25,1,,,,,フナヤドマルハチ,0
1280,5010901054056,新規,0,2023-10-25,2023-10-25,株式会社Ａｈｆｏｏ,,株式会社,東京都,世田谷区,岡本３丁目３７番５号,,13,112,1570076,,,,,,,2023-10-25,1,,,,,アフー,0
1285,5011001157724,新規,0,2023-10-25,2023-10-25,株式会社ａｎｇｅｌｓ,,株式会社,東京都,渋谷区,恵比寿西２丁目８番４号ＥＸ恵比寿西ビル５階,,13,113,1500021,,,,,,,2023-10-25,1,,,,,アンジェルス,0
1286,5011001157848,新規,0,2023-10-25,2023-10-25,Ｙ＆Ｑファッション株式会社,,株式会社,東京都,目黒区,下目黒３丁目９番１２－２００号レジデンシャル目黒,,13,110,1530064,,,,,,,2023-10-25,1,,,,,ワイアンドキュウファッション,0
1287,5011001157856,新規,0,2023-10-25,2023-10-25,株式会社ＦａｓｔＡＩ,,株式会社,東京都,渋谷区,道玄坂１丁目１０番８号渋谷道玄坂東急ビル２Ｆ,,13,113,1500043,,,,,,,2023-10-25,1,,,,,ファストエーアイ,0
1288,5011001157864,新規,0,2023-10-25,2023-10-25,株式会社３９ＬＩＶＥ,,株式会社,東京都,渋谷区,渋谷２丁目１９番１５号宮益坂ビルディング６０９,,13,113,1500002,,,,,,,2023-10-25,1,,,,,サクライブ,0
1291,5011003017769,新規,0,2023-10-25,2023-10-25,合同会社イエローテール,,合同会社,東京都,渋谷区,恵比寿西２丁目８番４号ＥＸ恵比寿西ビル５階,,13,113,1500021,,,,,,,2023-10-25,1,,,,,イエローテール,0
1292,5011003017810,新規,0,2023-10-25,2023-10-25,イーム合同会社,,合同会社,東京都,渋谷区,恵比寿西２丁目１６番１５号,,13,113,1500021,,,,,,,2023-10-25,1,,,,,イーム,0
1302,5011101104865,新規,0,2023-10-25,2023-10-25,株式会社Ａ・Ｃ・Ｅ,,株式会社,東京都,新宿区,西新宿３丁目３番１３号西新宿水間ビル６Ｆ,,13,104,1600023,,,,,,,2023-10-25,1,,,,,エーシーイー,0
1304,5011103013651,新規,0,2023-10-25,2023-10-25,合同会社ＣＯＭ’Ｓ,,合同会社,東京都,新宿区,新宿７丁目４番６－２１５号グランハイツ東新宿,,13,104,1600022,,,,,,,2023-10-25,1,,,,,コムズ,0
1307,5011201025004,新規,0,2023-10-25,2023-10-25,株式会社ＹＲＳ,,株式会社,東京都,中野区,本町４丁目４６番９号オーチュー第６ビル７階,,13,114,1640012,,,,,,,2023-10-25,1,,,,,ワイアールエス,0
1308,5011401025547,新規,0,2023-10-25,2023-10-25,株式会社笑門来福,,株式会社,東京都,板橋区,大山西町５５番３号川名ビル１階,,13,119,1730033,,,,,,,2023-10-25,1,,,,,ショウモンライフク,0
1320,5012403006238,新規,0,2023-10-25,2023-10-25,合同会社ＦＤＣ,,合同会社,東京都,武蔵野市,吉祥寺本町１丁目２０－１吉祥寺永谷シティプラザ１００２,,13,203,1800004,,,,,,,2023-10-25,1,,,,,エフディーシー,0
1321,5012701017911,新規,0,2023-10-25,2023-10-25,株式会社Ｄｒｅａｍ　Ｐｒｏｍｏｔｉｏｎ,,株式会社,東京都,東村山市,富士見町２丁目１８番地５９,,13,213,1890024,,,,,,,2023-10-25,1,,,,,ドリームプロモーション,0
1322,5012703002837,新規,0,2023-10-25,2023-10-25,合同会社はちのじ,,合同会社,東京都,西東京市,住吉町２丁目６番１７号,,13,229,2020005,,,,,,,2023-10-25,1,,,,,ハチノジ,0
1328,5020001154045,新規,0,2023-10-25,2023-10-25,株式会社ＭＥＲＣＩ,,株式会社,神奈川県,川崎市多摩区,宿河原６丁目４０番３―４０１号,,14,135,2140021,,,,,,,2023-10-25,1,,,,,メルシー,0
1329,5020001154144,新規,0,2023-10-25,2023-10-25,ＳＣＡコンサルティングジャパン株式会社,,株式会社,神奈川県,横浜市中区,山下町２１５番地４－５０４,,14,104,2310023,,,,,,,2023-10-25,1,,,,,エスシーエーコンサルティングジャパン,0
1331,5020003024849,新規,0,2023-10-25,2023-10-25,大宮企画合同会社,,合同会社,神奈川県,川崎市高津区,新作６丁目５番１－３０１号ウェルネスＬ,,14,134,2130014,,,,,,,2023-10-25,1,,,,,オオミヤキカク,0
1332,5021001080504,新規,0,2023-10-25,2023-10-25,オガワ企画株式会社,,株式会社,神奈川県,藤沢市,湘南台６丁目３３番地の１４,,14,205,2520804,,,,,,,2023-10-25,1,,,,,オガワキカク,0
1333,5021001080512,新規,0,2023-10-25,2023-10-25,株式会社Ｇ‐ＢＲＩＧＨＴ,,株式会社,神奈川県,海老名市,東柏ケ谷４丁目６番２８号,,14,215,2430401,,,,,,,2023-10-25,1,,,,,ジーブライト,0
1336,5021003013692,新規,0,2023-10-25,2023-10-25,レッドアイ合同会社,,合同会社,神奈川県,藤沢市,長後５４６－８,,14,205,2520801,,,,,,,2023-10-25,1,,,,,レッドアイ,0
1337,5021003013701,新規,0,2023-10-25,2023-10-25,合同会社Ｔｅａｍアイ,,合同会社,神奈川県,秦野市,南矢名５４２番地の２６,,14,211,2570003,,,,,,,2023-10-25,1,,,,,チームアイ,0
1345,5030001156635,新規,0,2023-10-25,2023-10-25,株式会社ＭＫ商会,,株式会社,埼玉県,蓮田市,大字貝塚３１５番地３,,11,238,3490132,,,,,,,2023-10-25,1,,,,,エムケーショウカイ,0
1346,5030001156833,新規,0,2023-10-25,2023-10-25,株式会社あおぞら,,株式会社,埼玉県,さいたま市大宮区,東町１丁目１００番地６,,11,103,3300841,,,,,,,2023-10-25,1,,,,,アオゾラ,0
1353,5030003022868,新規,0,2023-10-25,2023-10-25,海瑞合同会社,,合同会社,埼玉県,川口市,川口５丁目１４番８－３０５号アーバンハイツ川口,,11,203,3320015,,,,,,,2023-10-25,1,,,,,カイズイ,0
1363,5040001130597,新規,0,2023-10-25,2023-10-25,株式会社こすもす,,株式会社,千葉県,船橋市,小室町３２９９番地レインボーハウス２－１０２号,,12,204,2701471,,,,,,,2023-10-25,1,,,,,コスモス,0
1364,5040001130630,新規,0,2023-10-25,2023-10-25,株式会社道,,株式会社,千葉県,市川市,市川２丁目２８番１３号アイ・シービル１階,,12,203,2720034,,,,,,,2023-10-25,1,,,,,タオ,0
1365,5040001130655,新規,0,2023-10-25,2023-10-25,株式会社Ｋ＆Ｎ　Ｐｒｏｐｅｒｔｙ,,株式会社,千葉県,柏市,あけぼの４丁目３番２２号１階,,12,217,2770841,,,,,,,2023-10-25,1,,,,,ケイアンドエヌプロパティ,0
1366,5040001130671,新規,0,2023-10-25,2023-10-25,株式会社勇Ｓｔｙｌｅ,,株式会社,千葉県,千葉市緑区,おゆみ野南４丁目７番地３,,12,105,2660033,,,,,,,2023-10-25,1,,,,,ユウスタイル,0
1376,5040003023618,新規,0,2023-10-25,2023-10-25,合同会社舩巳商事,,合同会社,千葉県,船橋市,夏見台３丁目１０番（１棟３０３号）,,12,204,2730866,,,,,,,2023-10-25,1,,,,,フナシショウジ,0
1377,5040003023626,新規,0,2023-10-25,2023-10-25,合同会社Ｈｏｍａｒｅ　Ｂｌｏｏｍ,,合同会社,千葉県,流山市,西初石２丁目９番地の４４－１０１号,,12,220,2700121,,,,,,,2023-10-25,1,,,,,ホマレブルーム,0
1381,5050005013343,新規,0,2023-10-25,2023-10-25,日岩協同組合,,その他の設立登記法人,茨城県,稲敷郡阿見町,中央７丁目２６番２号,,08,443,3000332,,,,,,,2023-10-25,1,,,,,ニチガン,0
1383,5060001036479,新規,0,2023-10-25,2023-10-25,株式会社ＥＮ,,株式会社,栃木県,宇都宮市,上籠谷町１３５３番地６,,09,201,3213233,,,,,,,2023-10-25,1,,,,,エン,0
1384,5060005010133,新規,0,2023-10-25,2023-10-25,特定非営利活動法人子どもの羽を翼に,,その他の設立登記法人,栃木県,下野市,仁良川１５２９番地３、３３街区２６,,09,216,3290432,,,,,,,2023-10-25,1,,,,,コドモノハネヲツバサニ,0
1388,5070001041016,新規,0,2023-10-25,2023-10-25,株式会社リフィックス工業,,株式会社,群馬県,伊勢崎市,粕川町１１２４－１,,10,204,3720023,,,,,,,2023-10-25,1,,,,,,0
1396,5100001036912,新規,0,2023-10-25,2023-10-25,株式会社芳和商事,,株式会社,長野県,上伊那郡飯島町,七久保２６０１番地３,,20,384,3993705,,,,,,,2023-10-25,1,,,,,ヨシワショウジ,0
1416,5120001259172,新規,0,2023-10-25,2023-10-25,株式会社和光,,株式会社,大阪府,枚方市,野村中町３６番１４号,,27,210,5730144,,,,,,,2023-10-25,1,,,,,ワコウ,0
1417,5120001259197,新規,0,2023-10-25,2023-10-25,株式会社ＪＡＣＫ,,株式会社,大阪府,大阪市西区,江之子島１丁目７番２３－６０２号,,27,106,5500006,,,,,,,2023-10-25,1,,,,,ジャック,0
1418,5120001259230,新規,0,2023-10-25,2023-10-25,越柴株式会社,,株式会社,大阪府,大阪市中央区,島之内２丁目２番２０号白扇ビル３０８号室,,27,128,5420082,,,,,,,2023-10-25,1,,,,,エツシバ,0
1421,5120003025176,新規,0,2023-10-25,2023-10-25,合同会社Ｚｅｋｋ,,合同会社,大阪府,守口市,大枝南町１０－２０,,27,209,5700051,,,,,,,2023-10-25,1,,,,,ゼック,0
1422,5120003025184,新規,0,2023-10-25,2023-10-25,合同会社ＴＮＧ,,合同会社,大阪府,大阪市大正区,泉尾４丁目１５－４,,27,108,5510031,,,,,,,2023-10-25,1,,,,,ティーエヌジー,0
1423,5120005023962,新規,0,2023-10-25,2023-10-25,一般社団法人コロンブスのたまごチーム１０,,その他の設立登記法人,大阪府,大阪市中央区,高麗橋２丁目５番１０号アイケイビル２Ｆ,,27,128,5410043,,,,,,,2023-10-25,1,,,,,コロンブスノタマゴチームテン,0
1428,5120901048179,新規,0,2023-10-25,2023-10-25,株式会社プロパガンダ,,株式会社,大阪府,茨木市,小川町４番１１号ヴィラナリー小川２０８,,27,211,5670873,,,,,,,2023-10-25,1,,,,,プロパガンダ,0
1429,5120903004881,新規,0,2023-10-25,2023-10-25,合同会社ＹＡＭＡＧＵＣＨＩ,,合同会社,大阪府,豊中市,本町１丁目４番１８－２０３号,,27,203,5600021,,,,,,,2023-10-25,1,,,,,ヤマグチ,0
1434,5130001075461,新規,0,2023-10-25,2023-10-25,株式会社ＳＭＳ,,株式会社,京都府,京都市伏見区,淀際目町３５番１（ライオンズマンション京都淀Ｂ棟１１１３号）,,26,109,6130915,,,,,,,2023-10-25,1,,,,,エスエムエス,0
1435,5130001075503,新規,0,2023-10-25,2023-10-25,株式会社ｊｏｎａｄｉｉｉ,,株式会社,京都府,向日市,物集女町御所海道１９番地の１,,26,208,6170001,,,,,,,2023-10-25,1,,,,,ヨナディ,0
1436,5130003009062,新規,0,2023-10-25,2023-10-25,合同会社弘斗嗣,,合同会社,京都府,亀岡市,大井町土田３丁目２４番５号,,26,206,6210011,,,,,,,2023-10-25,1,,,,,,0
1443,5140001132105,新規,0,2023-10-25,2023-10-25,株式会社Ｒｅｍａｋｅ．Ｆｉｒｓｔ,,株式会社,兵庫県,姫路市,亀山２丁目４０番地,,28,201,6700973,,,,,,,2023-10-25,1,,,,,,0
1448,5170001017856,新規,0,2023-10-25,2023-10-25,株式会社石井自動車,,株式会社,和歌山県,有田市,辻堂４０７番地１,00132403,30,204,6490311,,,,,,,2023-10-25,1,,,,,イシイジドウシャ,0
1462,5190001030840,新規,0,2023-10-25,2023-10-25,Ｋ３ソリューションズ株式会社,,株式会社,三重県,桑名市,長島町大倉１番地４０８,,24,205,5111112,,,,,,,2023-10-25,1,,,,,ケースリーソリューションズ,0
1467,5210001019518,新規,0,2023-10-25,2023-10-25,株式会社友栄農産,,株式会社,福井県,越前市,余田町第１４号３９番地の１,,18,209,9150891,,,,,,,2023-10-25,1,,,,,トモエノウサン,0
1470,5230001020077,新規,0,2023-10-25,2023-10-25,株式会社ＡＬＴＥＲ,,株式会社,富山県,黒部市,新町１２８番地,,16,207,9380056,,,,,,,2023-10-25,1,,,,,オルター,0
1484,5290001103504,新規,0,2023-10-25,2023-10-25,株式会社Ｌｉｆｅ　Ｌａｕｎｄｒｙ,,株式会社,福岡県,福岡市中央区,西中洲４番４号ＲＩＮＦＩＲＳＴ２Ｆ,,40,133,8100002,,,,,,,2023-10-25,1,,,,,ライフランドリー,0
1485,5290001103512,新規,0,2023-10-25,2023-10-25,日本佳業株式会社,,株式会社,福岡県,福岡市中央区,平尾１丁目１１－６－４１１,,40,133,8100014,,,,,,,2023-10-25,1,,,,,ニホンカギョウ,0
1486,5290001103520,新規,0,2023-10-25,2023-10-25,ＫＳ株式会社,,株式会社,福岡県,久留米市,荒木町白口１２５１番地２,,40,203,8300062,,,,,,,2023-10-25,1,,,,,ケーエス,0
1490,5290003014518,新規,0,2023-10-25,2023-10-25,Ｆｒｅｅｄａｒ’５０合同会社,,合同会社,福岡県,糟屋郡久山町,大字猪野６７９番地８,,40,348,8112503,,,,,,,2023-10-25,1,,,,,フリーダーフィフティ,0
1491,5290003014534,新規,0,2023-10-25,2023-10-25,合同会社Ｉｎｇｅｎｉｕｍ,,合同会社,福岡県,糟屋郡須惠町,大字須惠６２４番地,,40,344,8112113,,,,,,,2023-10-25,1,,,,,インジニウム,0
1492,5290003014542,新規,0,2023-10-25,2023-10-25,ＡＮＴＥＶＩＳＴＡ　ＪＡＰＡＮ合同会社,,合同会社,福岡県,福岡市中央区,小笹１丁目２０番２－２０１号,,40,133,8100033,,,,,,,2023-10-25,1,,,,,アンテビスタジャパン,0
1494,5290801029989,新規,0,2023-10-25,2023-10-25,株式会社樹来,,株式会社,福岡県,北九州市戸畑区,牧山３丁目６番５号,,40,105,8040053,,,,,,,2023-10-25,1,,,,,ジュライ,0
1499,5310003004664,新規,0,2023-10-25,2023-10-25,合同会社ＴＡＢＩ,,合同会社,長崎県,長崎市,高城台２丁目５番１２号,,42,201,8510137,,,,,,,2023-10-25,1,,,,,タビ,0
1518,5340001026014,新規,0,2023-10-25,2023-10-25,さかうえ農産株式会社,,株式会社,鹿児島県,志布志市,志布志町安楽２８７３番地４,,46,221,8997104,,,,,,,2023-10-25,1,,,,,サカウエノウサン,0
1519,5340001026022,新規,0,2023-10-25,2023-10-25,ジャパンワークス株式会社,,株式会社,鹿児島県,鹿児島市,山下町８番６号２Ｆ,,46,201,8920816,,,,,,,2023-10-25,1,,,,,ジャパンワークス,0
1527,5370001050564,新規,0,2023-10-25,2023-10-25,株式会社ＣＨＡｉＮＯＮ,,株式会社,宮城県,亘理郡亘理町,字上浜街道９２番地１０,,04,361,9892351,,,,,,,2023-10-25,1,,,,,シェノン,0
1528,5370003006333,新規,0,2023-10-25,2023-10-25,合同会社ＨＹＣ,,合同会社,宮城県,大崎市,古川駅東２丁目２番３５号,,04,215,9896115,,,,,,,2023-10-25,1,,,,,エイチワイシー,0
1534,5380001034087,新規,0,2023-10-25,2023-10-25,株式会社福來建設,,株式会社,福島県,いわき市,平字下川原３８番地の４東栄ビル２０４,,07,204,9708026,,,,,,,2023-10-25,1,,,,,フクラケンセツ,0
1541,5420003002822,新規,0,2023-10-25,2023-10-25,合同会社三方よし不動産ひろば,,合同会社,青森県,東津軽郡平内町,大字浅所字浅所７番地１４,,02,301,0393312,,,,,,,2023-10-25,1,,,,,サンポウヨシフドウサンヒロバ,0
1542,5420005007869,新規,0,2023-10-25,2023-10-25,一般社団法人鈴猫,,その他の設立登記法人,青森県,青森市,大字久栗坂字浜田１０３３番地,,02,201,0393502,,,,,,,2023-10-25,1,,,,,スズネコ,0
1543,5450003002398,新規,0,2023-10-25,2023-10-25,合同会社ａｎｔｈｅｍ,,合同会社,北海道,旭川市,神楽岡九条４丁目３番地２１２９,,01,204,0788319,,,,,,,2023-10-25,1,,,,,アンセム,0
1555,5700150120514,新規,0,2023-10-25,2023-10-25,ｚｈｏｎｇｓｈａｎｓｈｉｃｈａｎｇｋｕａｉｒｅｎｓｈｅｎｇｍａｏｙｉｙｏｕｘｉａｎｇｏｎｇｓｉ,,外国会社等,,,,,,,,ｓａｎ　ｘｉａｎｇ　ｚｈｅｎ　ｘｕ　ｚｉ　ｗｅｎ　ｃｈａｎｇ　ｚｈｏｎｇ　ｌｕ　８　ｈａｏ　ｄｉ　ｓａｎ　ｃｅｎｇ　３０２　ｚｈｏｎｇ　ｓｈａｎ　ｇｕａｎｇ　ｄｏｎｇ　５２８４６３　ＣＮ,,,,,,2023-10-25,1,,,,,ジヨンシヤンシチヤンクアイレンシヨンマオイーヨウシエンゴンスー,0
1556,5700150121355,新規,0,2023-10-25,2023-10-25,国立富士見台団地マンション建替組合,,その他,東京都,国立市,富士見台１丁目２８番地１,,13,215,1860003,,,,,,,2023-10-25,1,,,,,クニタチフジミダイダンチマンシヨンタテカエクミアイ,0
1557,5700150121371,新規,0,2023-10-25,2023-10-25,ＳＭＡＲＴ　ＥＤＩＴ１　ＰＴＥ．ＬＴＤ．,,外国会社等,,,,,,,,２３８Ａ　ＴＨＯＭＳＯＮ　ＲＯＡＤ　＃２５－０７　ＮＯＶＥＮＡ　ＳＱＵＡＲＥ　ＳＩＮＧＡＰＯＲＥ（３０７６８４）,,,,,,2023-10-25,1,,,,,スマートエデイツトワンピーテイーイーエルテイーデイー,0
1558,5700150121413,新規,0,2023-10-25,2023-10-25,ＳＨＥＮＺＨＥＮＳＨＩＺＥＪＵＫＥＪＩ　ＹＯＵＸＩＡＮＧＯＮＧＳＩ,,外国会社等,,,,,,,,ＳＨＥＮＺＨＥＮＳＨＩＧＵＡＮＧＭＩＮＧＱＵＭＡＴＩＡＮＪＩＥＤＡＯＨＥＳＨＵＩＫＯＵＳＨＥＱＵＤＩＳＡＮＧＯＮＧＹＥＱＵＣＨＡＮＧＬＡＮＧ１ＨＡＯ１３７ＪＩＮＸＩＮＧＨＵＩＤＩＡＮＳＨＡＮＧＤＡＳＨＡＢ５１３,,,,,,2023-10-25,1,,,,,シンセンシゼジュカギユウゲンコウシ,0
1569,6010001239250,新規,0,2023-10-25,2023-10-25,株式会社アンライク,,株式会社,東京都,中央区,銀座１丁目１２－４Ｎ＆ＥＢＬＤ．７階,,13,102,1040061,,,,,,,2023-10-25,1,,,,,アンライク,0
1570,6010001239374,新規,0,2023-10-25,2023-10-25,リブニ・エステート株式会社,,株式会社,東京都,文京区,関口１丁目５－１０,,13,105,1120014,,,,,,,2023-10-25,1,,,,,リブニエステート,0
1571,6010001239498,新規,0,2023-10-25,2023-10-25,イーエス建物管理株式会社,,株式会社,東京都,千代田区,飯田橋１丁目８番９号ニューシティハイツ飯田橋７０７,,13,101,1020072,,,,,,,2023-10-25,1,,,,,イーエスタテモノカンリ,0
1572,6010001239515,新規,0,2023-10-25,2023-10-25,ＭＥＤ‐ＡＩ株式会社,,株式会社,東京都,千代田区,神田東松下町２８番地１９,,13,101,1010042,,,,,,,2023-10-25,1,,,,,メドアイ,0
1573,6010001239523,新規,0,2023-10-25,2023-10-25,株式会社ＬＨＹ商事,,株式会社,東京都,中央区,日本橋中洲１－５浜町グランドハイツ１１０７室,,13,102,1030008,,,,,,,2023-10-25,1,,,,,エルエイチワイ,0
1592,6010501051254,新規,0,2023-10-25,2023-10-25,エレヴァール株式会社,,株式会社,東京都,台東区,浅草橋５丁目２４番８－６０２号,,13,106,1110053,,,,,,,2023-10-25,1,,,,,エレヴァール,0
1594,6010601064016,新規,0,2023-10-25,2023-10-25,株式会社ＳＯＲＳＡＴ,,株式会社,東京都,墨田区,東墨田２丁目１番５号,,13,107,1310042,,,,,,,2023-10-25,1,,,,,ソルサート,0
1595,6010701044999,新規,0,2023-10-25,2023-10-25,株式会社蒼空地所,,株式会社,東京都,品川区,上大崎２丁目１５番１９号,,13,109,1410021,,,,,,,2023-10-25,1,,,,,アオゾラジショ,0
1597,6010901054063,新規,0,2023-10-25,2023-10-25,株式会社ココノツ,,株式会社,東京都,世田谷区,池尻２丁目７番６－１０２号,,13,112,1540001,,,,,,,2023-10-25,1,,,,,ココノツ,0
1598,6010901054071,新規,0,2023-10-25,2023-10-25,株式会社黒石エンターテイメント,,株式会社,東京都,世田谷区,新町１丁目９番１１号,,13,112,1540014,,,,,,,2023-10-25,1,,,,,クロイシエンターテイメント,0
1604,6011001157715,新規,0,2023-10-25,2023-10-25,株式会社ＴＢエンターテインメント,,株式会社,東京都,渋谷区,代々木２丁目２３番１号,,13,113,1510053,,,,,,,2023-10-25,1,,,,,ティービーエンターテインメント,0
1605,6011001157748,新規,0,2023-10-25,2023-10-25,株式会社ＦＵＮＴＡＢＩ,,株式会社,東京都,渋谷区,恵比寿西２丁目８番４号ＥＸ恵比寿西ビル５階,,13,113,1500021,,,,,,,2023-10-25,1,,,,,ファンタビ,0
1606,6011001157847,新規,0,2023-10-25,2023-10-25,株式会社ロクメイ,,株式会社,東京都,渋谷区,神宮前６丁目８番４号,,13,113,1500001,,,,,,,2023-10-25,1,,,,,ロクメイ,0
1607,6011001157863,新規,0,2023-10-25,2023-10-25,株式会社ＢＡＳＩＬ　ＷＯＲＫＺ,,株式会社,東京都,渋谷区,神宮前６丁目２９番４号原宿Ｋｏｍｉｙａビル６階,,13,113,1500001,,,,,,,2023-10-25,1,,,,,バジルワークス,0
1611,6011003017801,新規,0,2023-10-25,2023-10-25,Ｔｒｙｓｏｍｅ　Ｂｒｏｓ．ＬＬＣ合同会社,,合同会社,東京都,渋谷区,神山町１３番４－１０１号,,13,113,1500047,,,,,,,2023-10-25,1,,,,,トライサムブラザースエルエルシー,0
1616,6011101104906,新規,0,2023-10-25,2023-10-25,株式会社ＭｏｏＮ,,株式会社,東京都,新宿区,西新宿３丁目３番１３号西新宿水間ビル６階,,13,104,1600023,,,,,,,2023-10-25,1,,,,,ムーン,0
1617,6011103013659,新規,0,2023-10-25,2023-10-25,九慈源合同会社,,合同会社,東京都,新宿区,西新宿３丁目３番１３号西新宿水間ビル２Ｆ,,13,104,1600023,,,,,,,2023-10-25,1,,,,,クジゲン,0
1623,6012701017910,新規,0,2023-10-25,2023-10-25,株式会社定額でできるお葬式,,株式会社,東京都,東村山市,多摩湖町１丁目３４－５７Ｂ棟１０３,,13,213,1890026,,,,,,,2023-10-25,1,,,,,テイガクデデキルオソウシ,0
1626,6012703002836,新規,0,2023-10-25,2023-10-25,合同会社エーティーフィールド,,合同会社,東京都,小平市,学園東町２丁目１０番３２号,,13,211,1870043,,,,,,,2023-10-25,1,,,,,エーティーフィールド,0
1628,6013101009275,新規,0,2023-10-25,2023-10-25,株式会社シンカ・ソニングファーム,,株式会社,東京都,西多摩郡日の出町,大字平井２２番地７,,13,305,1900182,,,,,,,2023-10-25,1,,,,,シンカソニングファーム,0
1640,6020003024848,新規,0,2023-10-25,2023-10-25,ＭＩＯＤＯＥＳ合同会社,,合同会社,神奈川県,川崎市川崎区,旭町１丁目１５番１－５０１号エスポワール神田,,14,131,2100808,,,,,,,2023-10-25,1,,,,,ミオダズ,0
1641,6021001080511,新規,0,2023-10-25,2023-10-25,株式会社ＳＥＶＥＮ,,株式会社,神奈川県,逗子市,逗子２丁目７番９号マーレ逗子２階,,14,208,2490006,,,,,,,2023-10-25,1,,,,,セブン,0
1642,6021001080569,新規,0,2023-10-25,2023-10-25,株式会社アドリンク,,株式会社,神奈川県,相模原市緑区,下九沢２４１４番地１０,,14,151,2520134,,,,,,,2023-10-25,1,,,,,アドリンク,0
1653,6030001156683,新規,0,2023-10-25,2023-10-25,株式会社賢志,,株式会社,埼玉県,八潮市,大字二丁目３６９番地２,,11,234,3400811,,,,,,,2023-10-25,1,,,,,ケンシ,0
1654,6030001156741,新規,0,2023-10-25,2023-10-25,株式会社維心,,株式会社,埼玉県,草加市,青柳２丁目１７番１２号,,11,221,3400002,,,,,,,2023-10-25,1,,,,,イシン,0
1655,6030001156774,新規,0,2023-10-25,2023-10-25,おうち商店株式会社,,株式会社,埼玉県,三郷市,中央２丁目４０番地８,,11,237,3410038,,,,,,,2023-10-25,1,,,,,オウチショウテン,0
1665,6040001130654,新規,0,2023-10-25,2023-10-25,株式会社アイスブレイク,,株式会社,千葉県,鎌ケ谷市,東鎌ケ谷２丁目２１番６号２Ｆ,,12,224,2730104,,,,,,,2023-10-25,1,,,,,アイスブレイク,0
1666,6040001130695,新規,0,2023-10-25,2023-10-25,株式会社藍,,株式会社,千葉県,香取郡多古町,間倉２２６番地,,12,347,2892235,,,,,,,2023-10-25,1,,,,,アイヤ,0
1668,6040003023617,新規,0,2023-10-25,2023-10-25,合同会社田ざわ,,合同会社,千葉県,千葉市稲毛区,稲毛東３丁目１０番９号,,12,103,2630031,,,,,,,2023-10-25,1,,,,,タザワ,0
1678,6070001041007,新規,0,2023-10-25,2023-10-25,Ｉ．Ｓ株式会社,,株式会社,群馬県,高崎市,緑町１丁目２３番地８円ビル１Ｆ,,10,202,3700073,,,,,,,2023-10-25,1,,,,,アイドットエス,0
1685,6100005013080,新規,0,2023-10-25,2023-10-25,医療法人松生会,,その他の設立登記法人,長野県,上田市,上田１４９３番地３,,20,203,3860001,,,,,,,2023-10-25,1,,,,,ショウセイカイ,0
1695,6120001259089,新規,0,2023-10-25,2023-10-25,アークビルド総合管理株式会社,,株式会社,大阪府,大阪市福島区,吉野３丁目１２番２４号,,27,103,5530006,,,,,,,2023-10-25,1,,,,,アークビルドソウゴウカンリ,0
1696,6120001259171,新規,0,2023-10-25,2023-10-25,ＴＮＥＴ株式会社,,株式会社,大阪府,大阪市北区,豊崎３丁目８－１４－５０３,,27,127,5310072,,,,,,,2023-10-25,1,,,,,ティーネット,0
1697,6120001259221,新規,0,2023-10-25,2023-10-25,富順株式会社,,株式会社,大阪府,大阪市淀川区,西中島７丁目２－１３、８０３号室,,27,123,5320011,,,,,,,2023-10-25,1,,,,,トミジュン,0
1699,6120003025167,新規,0,2023-10-25,2023-10-25,Ｓ．Ｋ．Ｇｒｏｕｐ合同会社,,合同会社,大阪府,大阪市北区,梅田１丁目２番２号大阪駅前第２ビル１２－１２,,27,127,5300001,,,,,,,2023-10-25,1,,,,,エスケーグループ,0
1700,6120003025175,新規,0,2023-10-25,2023-10-25,合同会社ｔｒｉｃｅ,,合同会社,大阪府,大阪市北区,梅田１丁目１番３号大阪駅前第３ビル２３０７,,27,127,5300001,,,,,,,2023-10-25,1,,,,,トライス,0
1706,6120101068415,新規,0,2023-10-25,2023-10-25,株式会社むすび不動産,,株式会社,大阪府,岸和田市,小松里町４２７番地の３,,27,202,5960821,,,,,,,2023-10-25,1,,,,,ムスビフドウサン,0
1707,6120103005507,新規,0,2023-10-25,2023-10-25,合同会社ＮＡＫＡＧＡＷＡ,,合同会社,大阪府,泉北郡忠岡町,馬瀬２丁目１１番１２号,,27,341,5950804,,,,,,,2023-10-25,1,,,,,ナカガワ,0
1709,6122001037516,新規,0,2023-10-25,2023-10-25,株式会社ａｄｆグループ,,株式会社,大阪府,八尾市,東本町２丁目４番４号,,27,212,5810004,,,,,,,2023-10-25,1,,,,,エーディーエフグループ,0
1714,6130001075510,新規,0,2023-10-25,2023-10-25,ｙｍｃ株式会社,,株式会社,京都府,宇治市,槇島町月夜２０番地５,,26,204,6110041,,,,,,,2023-10-25,1,,,,,ワイエムシー,0
1716,6130003009053,新規,0,2023-10-25,2023-10-25,合同会社フレンド,,合同会社,京都府,京都市左京区,高野西開町１番地第２くめマンション３１４,,26,103,6068103,,,,,,,2023-10-25,1,,,,,フレンド,0
1717,6130003009061,新規,0,2023-10-25,2023-10-25,合同会社ニャベット,,合同会社,京都府,綴喜郡井手町,大字井手小字南猪ノ阪９番地の１,,26,343,6100302,,,,,,,2023-10-25,1,,,,,ニャベット,0
1725,6140001132054,新規,0,2023-10-25,2023-10-25,ＹＵＫ株式会社,,株式会社,兵庫県,姫路市,的形町的形１９３３番地,,28,201,6710111,,,,,,,2023-10-25,1,,,,,ワイユーケー,0
1726,6140001132104,新規,0,2023-10-25,2023-10-25,株式会社オールドフィールド,,株式会社,兵庫県,神戸市灘区,高羽町５丁目９番１２号３０１,,28,102,6570023,,,,,,,2023-10-25,1,,,,,オールドフィールド,0
1727,6140003019695,新規,0,2023-10-25,2023-10-25,合同会社ｏｎｅ,,合同会社,兵庫県,川西市,水明台３丁目３番地の４５,,28,217,6660116,,,,,,,2023-10-25,1,,,,,ワン,0
1733,6160001025446,新規,0,2023-10-25,2023-10-25,ＤＥＬＩＧＨＴ株式会社,,株式会社,滋賀県,野洲市,野洲９１２番地２７,,25,210,5202342,,,,,,,2023-10-25,1,,,,,ディライト,0
1736,6170005007051,新規,0,2023-10-25,2023-10-25,一般社団法人和歌山遺体管理ケアセンター,,その他の設立登記法人,和歌山県,和歌山市,広瀬通丁２丁目１３番１号,,30,201,6408113,,,,,,,2023-10-25,1,,,,,ワカヤマイタイカンリケアセンター,0
1745,6180001158624,新規,0,2023-10-25,2023-10-25,株式会社バーディプレイス,,株式会社,愛知県,名古屋市天白区,植田山５丁目１５０２番地の３,,23,116,4680001,,,,,,,2023-10-25,1,,,,,バーディプレイス,0
1746,6180001158640,新規,0,2023-10-25,2023-10-25,株式会社ＳＥＮＳＥ　Ｄｅｓｉｇｎ,,株式会社,愛知県,名古屋市天白区,植田３丁目５０５番地,,23,116,4680051,,,,,,,2023-10-25,1,,,,,センスデザイン,0
1747,6180001158657,新規,0,2023-10-25,2023-10-25,株式会社ホットユー,,株式会社,愛知県,知多郡武豊町,大字東大高字鎮守５番地４,,23,447,4702521,,,,,,,2023-10-25,1,,,,,ホットユー,0
1766,6240001062332,新規,0,2023-10-25,2023-10-25,株式会社ｉｉｍｏｎｏ１１７,,株式会社,広島県,広島市西区,南観音町１８番１－６０１号,,34,104,7330034,,,,,,,2023-10-25,1,,,,,イイモノイイナ,0
1772,6240003006386,新規,0,2023-10-25,2023-10-25,野中商店合同会社,,合同会社,広島県,広島市西区,草津梅が台七丁目７番１５－１０２号,,34,104,7330864,,,,,,,2023-10-25,1,,,,,ノナカショウテン,0
1782,6260001038438,新規,0,2023-10-25,2023-10-25,禅物流株式会社,,株式会社,岡山県,岡山市南区,藤田６５２番地１８,,33,104,7010221,,,,,,,2023-10-25,1,,,,,ゼンブツリュウ,0
1787,6290001103511,新規,0,2023-10-25,2023-10-25,ＢＴ国際貿易株式会社,,株式会社,福岡県,福岡市博多区,住吉１丁目６－１４博多リバーサイドタワー,,40,132,8120018,,,,,,,2023-10-25,1,,,,,ビティコクサイボウエキ,0
1788,6290001103528,新規,0,2023-10-25,2023-10-25,株式会社アイワ技研,,株式会社,福岡県,福岡市東区,松香台２丁目１１番３２号,,40,131,8130004,,,,,,,2023-10-25,1,,,,,アイワギケン,0
1794,6310003004663,新規,0,2023-10-25,2023-10-25,合同会社Ｔｈｕａｎ　ＤｏＬａ　Ｍａｒｔ,,合同会社,長崎県,佐世保市,天神２丁目１１－１１－２０５,,42,202,8571174,,,,,,,2023-10-25,1,,,,,トゥアンドーラマート,0
1798,6330001031377,新規,0,2023-10-25,2023-10-25,株式会社サンドリバー,,株式会社,熊本県,熊本市中央区,草葉町４番２０号富士火災熊本ビル２階,,43,101,8600843,,,,,,,2023-10-25,1,,,,,サンドリバー,0
1799,6330003010040,新規,0,2023-10-25,2023-10-25,合同会社Ｌａ　ｉｓｌａ　ｂｏｎｉｔａ,,合同会社,熊本県,人吉市,西間上町２５４３－２,,43,203,8680071,,,,,,,2023-10-25,1,,,,,ライスラボニータ,0
1801,6340001026013,新規,0,2023-10-25,2023-10-25,桃園株式会社,,株式会社,鹿児島県,指宿市,湯の浜１丁目８番２号,,46,210,8910406,,,,,,,2023-10-25,1,,,,,モモゾノ,0
1807,6370001050530,新規,0,2023-10-25,2023-10-25,株式会社梅楽,,株式会社,宮城県,仙台市青葉区,一番町１丁目１１番９－９０６号,,04,101,9800811,,,,,,,2023-10-25,1,,,,,ウメラク,0
1808,6370001050563,新規,0,2023-10-25,2023-10-25,株式会社仙台リビング広告社,,株式会社,宮城県,仙台市青葉区,錦町１丁目１番９号三徳ビル２Ｆ,,04,101,9800012,,,,,,,2023-10-25,1,,,,,センダイリビングコウコクシャ,0
1819,6400003003169,新規,0,2023-10-25,2023-10-25,合同会社木工屋,,合同会社,岩手県,北上市,鬼柳町新井田１０３番地５,,03,206,0240056,,,,,,,2023-10-25,1,,,,,モッコウヤ,0
1821,6420003002821,新規,0,2023-10-25,2023-10-25,合同会社ＹＡＭＡＹＯ,,合同会社,青森県,むつ市,大湊新町３７番４５号,,02,208,0350084,,,,,,,2023-10-25,1,,,,,ヤマヨ,0
1840,6460301005175,新規,0,2023-10-25,2023-10-25,株式会社参水マネージメント,,株式会社,北海道,網走郡津別町,字達美２１３番地５,,01,544,0920203,,,,,,,2023-10-25,1,,,,,サンスイマネージメント,0
1847,6700150121354,新規,0,2023-10-25,2023-10-25,ＴｈｕｍｂＡｇｅ　Ｃｏ．，Ｌｔｄ,,外国会社等,,,,,,,,２４６，Ｈｗａｎｇｓａｅｕｌ－ｒｏ，Ｂｕｎｄａｎｇ－ｇｕ，Ｓｅｏｎｇｎａｍ－ｓｉ，Ｇｙｅｏｎｇｇｉ－ｄｏ，Ｒｅｐｕｂｌｉｃ　ｏｆ　Ｋｏｒｅａ,,,,,,2023-10-25,1,,,,,サムエイジ,0
1848,6700150121362,新規,0,2023-10-25,2023-10-25,ｎｉｎｇｂｏｂｏｋｅｊｉａｊｕｙｏｎｇｐｉｎｙｏｕｘｉａｎｇｏｎｇｓｉ,,外国会社等,,,,,,,,ｚｈｅｊｉａｎｇｓｈｅｎｇ　ｎｉｎｇｂｏｓｈｉ　ｙｉｎｚｈｏｕｑｕ　ｘｉｎｔｉａｎｄｉｄｏｎｇｑｕ　１　ｚｈｕａｎｇ　１－３ｈａｏ　ｍｉｎａｎｌｕ　１０１８ｈａｏ,,,,,,2023-10-25,1,,,,,ニンポーボークホームフアニングカンパニリミテツド,0
1849,6700150121370,新規,0,2023-10-25,2023-10-25,浙江由菜電子商務有限公司,,外国会社等,,,,,,,,中華人民共和国　浙江省義烏市赤岸鎮華川北路２５１号１棟５階,,,,,,2023-10-25,1,,,,,セツコウユーライクデンシシヨウムユウゲンコウシ,0
1850,6700150121404,新規,0,2023-10-25,2023-10-25,Ｎａｎｊｉｎｇ　Ｇｏｏｊｏｉｎ　Ｔｅｃｈｎｏｌｏｇｙ　Ｔｒａｄｅ　Ｃｏ．，Ｌｔｄ．,,外国会社等,,,,,,,,Ｎｏ．６０１　Ｃａｏ　Ｖｉｌｌａｇｅ，Ｓｈｕａｎｇｌｉａｎ　Ｃｏｍｍｕｎｉｔｙ，Ｑｉｑｉａｏ　Ｓｔｒｅｅｔ，Ｇａｏｃｈｕｎ　Ｄｉｓｔｒｉｃｔ，Ｎａｎｊｉｎｇ　Ｃｉｔｙ,,,,,,2023-10-25,1,,,,,ナンジンゴンジンコージーマオイーヨウシエンゴンスー,0
1851,6700150121412,新規,0,2023-10-25,2023-10-25,ｓｈｅｎｚｈｅｎｓｈｉｓｉｇｅｎｖｈａｉｋｅｊｉ　ｙｏｕｘｉａｎｇｏｎｇｓｉ,,外国会社等,,,,,,,,ｓｈｅｎｚｈｅｎｓｈｉ　ｌｏｎｇｈｕａｑｕ　ｌｏｎｇｈｕａｊｉｅｄａｏｙｕｃｕｉｓｈｅｑｕｓｈｉｔｏｕｌｉｎｇｌｏｎｇｇｕａｎｌｕｈｏｎｇｙｕｄａｓｈａ１１ｃｅｎｇ,,,,,,2023-10-25,1,,,,,シンセンシシゲリュハイカギユウゲンコウシ,0
1858,7010001239423,新規,0,2023-10-25,2023-10-25,ＬＩＦＥＭＯ株式会社,,株式会社,東京都,文京区,本郷４丁目１番４号,,13,105,1130033,,,,,,,2023-10-25,1,,,,,ライフモ,0
1859,7010001239497,新規,0,2023-10-25,2023-10-25,株式会社ＴＧＡ　ＪＡＰＡＮ,,株式会社,東京都,中央区,日本橋小網町１８番１０号ジェイスクェア日本橋３Ｆ,,13,102,1030016,,,,,,,2023-10-25,1,,,,,ティージーエージャパン,0
1860,7010001239522,新規,0,2023-10-25,2023-10-25,フルモサ株式会社,,株式会社,東京都,中央区,八重洲１丁目８番１７号新槇町ビル６Ｆ,,13,102,1030028,,,,,,,2023-10-25,1,,,,,フルモサ,0
1861,7010001239555,新規,0,2023-10-25,2023-10-25,ＳＴＯＮＥ　ＩＴ株式会社,,株式会社,東京都,千代田区,外神田６丁目１３番１０号プロステック秋葉原９階,,13,101,1010021,,,,,,,2023-10-25,1,,,,,ストーンアイティ,0
1865,7010003041991,新規,0,2023-10-25,2023-10-25,合同会社ウェルビーイング福祉研究所,,合同会社,東京都,文京区,千駄木５丁目４３番１８号,,13,105,1130022,,,,,,,2023-10-25,1,,,,,ウェルビーイングフクシケンキュウジョ,0
1866,7010003042040,新規,0,2023-10-25,2023-10-25,ＰＬＵＳ合同会社,,合同会社,東京都,中央区,銀座８丁目８番１５号青柳ビル６階１７号室,,13,102,1040061,,,,,,,2023-10-25,1,,,,,プラス,0
1872,7010401178056,新規,0,2023-10-25,2023-10-25,株式会社うみとも,,株式会社,東京都,港区,浜松町２丁目２番１５号浜松町ダイヤビル２Ｆ,,13,103,1050013,,,,,,,2023-10-25,1,,,,,ウミトモ,0
1873,7010401178106,新規,0,2023-10-25,2023-10-25,株式会社ＯＮＥ　ＯＮ,,株式会社,東京都,港区,南麻布２丁目５番１４－７０２号,,13,103,1060047,,,,,,,2023-10-25,1,,,,,ワンオン,0
1877,7010603010438,新規,0,2023-10-25,2023-10-25,合同会社ＣｈｅｅｒＢｒｅａｄ,,合同会社,東京都,江東区,枝川３丁目８番６－５０３号,,13,108,1350051,,,,,,,2023-10-25,1,,,,,チアブレッド,0
1878,7010605004256,新規,0,2023-10-25,2023-10-25,ＮＰＯ法人ポプルワークス,,その他の設立登記法人,東京都,墨田区,亀沢４丁目２１番３号ケイエスビル３階,,13,107,1300014,,,,,,,2023-10-25,1,,,,,ポプルワークス,0
1881,7010701045039,新規,0,2023-10-25,2023-10-25,品川バリデーションテクノロジー株式会社,,株式会社,東京都,品川区,東大井３丁目１２番１４－５０３号,,13,109,1400011,,,,,,,2023-10-25,1,,,,,シナガワバリデーションテクノロジー,0
1886,7010901054005,新規,0,2023-10-25,2023-10-25,株式会社ＬｉｆｅＳｐａｒｋ,,株式会社,東京都,世田谷区,駒沢４丁目３２番８号,,13,112,1540012,,,,,,,2023-10-25,1,,,,,ライフスパーク,0
1887,7010901054070,新規,0,2023-10-25,2023-10-25,株式会社ｈａｎｏｄ,,株式会社,東京都,世田谷区,上野毛２丁目１９－１４上野毛森の家１０１,,13,112,1580093,,,,,,,2023-10-25,1,,,,,ハノド,0
1891,7011001157879,新規,0,2023-10-25,2023-10-25,株式会社ジャパン５４,,株式会社,東京都,渋谷区,道玄坂１丁目１０番８号渋谷道玄坂東急ビル２Ｆ－Ｃ,,13,113,1500043,,,,,,,2023-10-25,1,,,,,ジャパンゴジュウヨン,0
1898,7011101104847,新規,0,2023-10-25,2023-10-25,ＡＷＳ株式会社,,株式会社,東京都,新宿区,西新宿８丁目８番６号ＬＵビル３０２,,13,104,1600023,,,,,,,2023-10-25,1,,,,,エーダブリューエス,0
1899,7011101104905,新規,0,2023-10-25,2023-10-25,株式会社ＴＮＥ,,株式会社,東京都,新宿区,神楽坂５丁目３４番地１,,13,104,1620825,,,,,,,2023-10-25,1,,,,,ティーエヌイー,0
1900,7011101104913,新規,0,2023-10-25,2023-10-25,株式会社ＮＥＯ　ＴＯＫＹＯ　ＫＡＲＴ,,株式会社,東京都,新宿区,西新宿６丁目５番１号新宿アイランドタワー２階,,13,104,1600023,,,,,,,2023-10-25,1,,,,,ネオトウキョウカート,0
1901,7011101104921,新規,0,2023-10-25,2023-10-25,株式会社ＴＷＳ,,株式会社,東京都,新宿区,新宿１丁目３番１２号壱丁目参番館５０１,,13,104,1600022,,,,,,,2023-10-25,1,,,,,ティーダブリューエス,0
1905,7011203004210,新規,0,2023-10-25,2023-10-25,ＣｈａｎｔＣｈａｎｔ合同会社,,合同会社,東京都,中野区,新井５丁目４番１２－５０１号,,13,114,1650026,,,,,,,2023-10-25,1,,,,,チャントチャント,0
1917,7012403006244,新規,0,2023-10-25,2023-10-25,合同会社第八研究所,,合同会社,東京都,多摩市,連光寺３丁目１８番地の１３コートビレッジ桜ヶ丘パート２レジデンスＡ１０４,,13,224,2060021,,,,,,,2023-10-25,1,,,,,ダイハチケンキュウジョ,0
1931,7021001080510,新規,0,2023-10-25,2023-10-25,株式会社ＤＹＮＡＧＲＡＣＥ,,株式会社,神奈川県,三浦郡葉山町,上山口５１３番地１,,14,301,2400115,,,,,,,2023-10-25,1,,,,,デュナグレイス,0
1932,7021001080568,新規,0,2023-10-25,2023-10-25,株式会社光建工業,,株式会社,神奈川県,座間市,南栗原３丁目１１番２０号,,14,216,2520015,,,,,,,2023-10-25,1,,,,,コウケンコウギョウ,0
1934,7021003013716,新規,0,2023-10-25,2023-10-25,合同会社ラチュビ,,合同会社,神奈川県,平塚市,河内９３番地の６,,14,203,2540903,,,,,,,2023-10-25,1,,,,,ラチュビ,0
1935,7021003013724,新規,0,2023-10-25,2023-10-25,合同会社茶柱,,合同会社,神奈川県,鎌倉市,山ノ内３０９番地９,,14,204,2470062,,,,,,,2023-10-25,1,,,,,チャバシラ,0
1942,7030001156831,新規,0,2023-10-25,2023-10-25,株式会社ユーファーム,,株式会社,埼玉県,本庄市,新井７６番地,,11,211,3670075,,,,,,,2023-10-25,1,,,,,ユーファーム,0
1943,7030001156848,新規,0,2023-10-25,2023-10-25,株式会社狭山新学校給食サービス,,株式会社,埼玉県,狭山市,狭山２８番１４号,,11,215,3501334,,,,,,,2023-10-25,1,,,,,サヤマシンガッコウキュウショクサービス,0
1945,7030003022858,新規,0,2023-10-25,2023-10-25,みらい合同会社,,合同会社,埼玉県,草加市,苗塚町２１４番地２,,11,221,3400036,,,,,,,2023-10-25,1,,,,,ミライ,0
1946,7030003022866,新規,0,2023-10-25,2023-10-25,ＮＭＲＫ　ＪＡＰＡＮ合同会社,,合同会社,埼玉県,さいたま市大宮区,堀の内町３丁目２５５,,11,103,3300804,,,,,,,2023-10-25,1,,,,,エヌエムアールケージャパン,0
1951,7040001130694,新規,0,2023-10-25,2023-10-25,株式会社Ｒｅｍｅｎｉｔｙ,,株式会社,千葉県,四街道市,亀崎４０２番地４,,12,228,2840011,,,,,,,2023-10-25,1,,,,,,0
1961,7060001036477,新規,0,2023-10-25,2023-10-25,ＡＫ株式会社,,株式会社,栃木県,栃木市,薗部町４丁目７番３号,,09,203,3280074,,,,,,,2023-10-25,1,,,,,エイケイ,0
1962,7060001036485,新規,0,2023-10-25,2023-10-25,株式会社ＬｅＬｉｅｎＪｕ,,株式会社,栃木県,宇都宮市,新町１丁目３番１号,,09,201,3200831,,,,,,,2023-10-25,1,,,,,ルリアンジュ,0
1965,7070001041006,新規,0,2023-10-25,2023-10-25,荒巻資産管理株式会社,,株式会社,群馬県,高崎市,倉賀野町４０２５番地４,,10,202,3701201,,,,,,,2023-10-25,1,,,,,アラマキシサンカンリ,0
1966,7070001041014,新規,0,2023-10-25,2023-10-25,株式会社佐藤エンジニアリング,,株式会社,群馬県,伊勢崎市,富塚町２０６番地３,,10,204,3720833,,,,,,,2023-10-25,1,,,,,サトウエンジニアリング,0
1974,7090003002409,新規,0,2023-10-25,2023-10-25,サンセイ建舎合同会社,,合同会社,山梨県,南都留郡富士河口湖町,河口３０２番地３,,19,430,4010304,,,,,,,2023-10-25,1,,,,,サンセイケンシャ,0
1975,7100003007240,新規,0,2023-10-25,2023-10-25,合同会社抱夢,,合同会社,長野県,長野市,川中島町原７９６番地４,,20,201,3812224,,,,,,,2023-10-25,1,,,,,ホウム,0
1978,7110005017014,新規,0,2023-10-25,2023-10-25,医療法人桜眞会,,その他の設立登記法人,新潟県,新潟市中央区,上大川前通１１番町１８９９番地,,15,103,9518068,,,,,,,2023-10-25,1,,,,,オウシンカイ,0
1987,7120001259096,新規,0,2023-10-25,2023-10-25,株式会社Ｋａｏ　Ｃｈａｒｍ,,株式会社,大阪府,大阪市浪速区,恵美須西２丁目８番１９号ドエル恵美須１１０５号,,27,111,5560003,,,,,,,2023-10-25,1,,,,,カオチャーム,0
1988,7120001259162,新規,0,2023-10-25,2023-10-25,株式会社夢紡,,株式会社,大阪府,大阪市淀川区,西中島４丁目６番１５号ミツフ第３ビル３階,,27,123,5320011,,,,,,,2023-10-25,1,,,,,ユメツムギ,0
1989,7120001259179,新規,0,2023-10-25,2023-10-25,株式会社ワンセカンド,,株式会社,大阪府,大阪市大正区,平尾５丁目９番９－２０２号,,27,108,5510012,,,,,,,2023-10-25,1,,,,,ワンセカンド,0
1990,7120001259220,新規,0,2023-10-25,2023-10-25,北野株式会社,,株式会社,大阪府,大阪市淀川区,十三東１丁目２０－１８ネオハイツ新淀川５階５０２号室,,27,123,5320023,,,,,,,2023-10-25,1,,,,,キタノ,0
1996,7120103005506,新規,0,2023-10-25,2023-10-25,合同会社ａｍｉｃｏ,,合同会社,大阪府,堺市東区,北野田１番６号６０１号室,,27,143,5998123,,,,,,,2023-10-25,1,,,,,アミコ,0
2001,7120903004871,新規,0,2023-10-25,2023-10-25,合同会社ＮＨＴ,,合同会社,大阪府,豊中市,利倉東１丁目８番８号,,27,203,5610846,,,,,,,2023-10-25,1,,,,,エヌエイチテイ,0
2003,7122001037515,新規,0,2023-10-25,2023-10-25,株式会社ザイオン,,株式会社,大阪府,東大阪市,足代１丁目１２番２２号,,27,227,5770841,,,,,,,2023-10-25,1,,,,,ザイオン,0
2004,7122005003711,新規,0,2023-10-25,2023-10-25,一般社団法人ほほえみ,,その他の設立登記法人,大阪府,八尾市,八尾木北５丁目４６番地の４パークサイドマンション１０１号,,27,212,5810016,,,,,,,2023-10-25,1,,,,,ホホエミ,0
2008,7130001075501,新規,0,2023-10-25,2023-10-25,株式会社メタルちゃん,,株式会社,京都府,京都市伏見区,日野北山２９番地,,26,109,6011401,,,,,,,2023-10-25,1,,,,,メタルチャン,0
2009,7130001075542,新規,0,2023-10-25,2023-10-25,株式会社グラーティア,,株式会社,京都府,京都市右京区,太秦安井春日町３－２４,,26,108,6168062,,,,,,,2023-10-25,1,,,,,グラーティア,0
2017,7140001132037,新規,0,2023-10-25,2023-10-25,ゼンサンズ株式会社,,株式会社,兵庫県,神戸市灘区,国玉通１丁目３番６号,,28,102,6570816,,,,,,,2023-10-25,1,,,,,ゼンサンズ,0
2018,7140001132103,新規,0,2023-10-25,2023-10-25,株式会社ｌｉｎｏ,,株式会社,兵庫県,西宮市,田代町１５番４号ＳｏｃｉｅＮｉｓｈｉｋｉｔａ１階,,28,204,6638201,,,,,,,2023-10-25,1,,,,,,0
2022,7140003019703,新規,0,2023-10-25,2023-10-25,合同会社旭,,合同会社,兵庫県,神戸市中央区,雲井通３丁目５番１２－１号,,28,110,6510096,,,,,,,2023-10-25,1,,,,,アサヒ,0
2023,7150001026832,新規,0,2023-10-25,2023-10-25,株式会社ＨＡＳクリエイト,,株式会社,奈良県,香芝市,旭ケ丘５丁目２６番地１６,,29,210,6390266,,,,,,,2023-10-25,1,,,,,ハスクリエイト,0
2037,7180001158623,新規,0,2023-10-25,2023-10-25,株式会社Ｈｉｍａｒｉｋｏ,,株式会社,愛知県,名古屋市中区,大須１丁目７番１４号パークＩＭビル２Ｆ,,23,106,4600011,,,,,,,2023-10-25,1,,,,,ヒマリコ,0
2038,7180001158631,新規,0,2023-10-25,2023-10-25,株式会社ＩＴ,,株式会社,愛知県,春日井市,六軒屋町西２丁目９番地１８,,23,206,4860839,,,,,,,2023-10-25,1,,,,,イット,0
2043,7190001030839,新規,0,2023-10-25,2023-10-25,株式会社スリーエフサービス,,株式会社,三重県,四日市市,芝田１丁目１番地１０号,,24,202,5100822,,,,,,,2023-10-25,1,,,,,スリーエフサービス,0
2046,7200003006125,新規,0,2023-10-25,2023-10-25,合同会社明幸,,合同会社,岐阜県,岐阜市,正木中３丁目１０番２１号,,21,201,5020882,,,,,,,2023-10-25,1,,,,,メイコウ,0
2047,7200005013532,新規,0,2023-10-25,2023-10-25,一般社団法人Ｌｅａｐ,,その他の設立登記法人,岐阜県,高山市,一之宮町１４９８番地の８,,21,203,5093505,,,,,,,2023-10-25,1,,,,,リープ,0
2048,7210001019524,新規,0,2023-10-25,2023-10-25,株式会社ＨＩＮＯＮＯＭＩ,,株式会社,福井県,南条郡南越前町,阿久和５９－９,,18,404,9190213,,,,,,,2023-10-25,1,,,,,ヒノノミ,0
2051,7240001062315,新規,0,2023-10-25,2023-10-25,株式会社くらら,,株式会社,広島県,福山市,神辺町大字川北１０８３番地５,,34,207,7202123,,,,,,,2023-10-25,1,,,,,クララ,0
2059,7260001038437,新規,0,2023-10-25,2023-10-25,株式会社バラトン,,株式会社,岡山県,倉敷市,宮前４１８－３,,33,202,7100065,,,,,,,2023-10-25,1,,,,,バラトン,0
2060,7260003004478,新規,0,2023-10-25,2023-10-25,合同会社スリーチアーズ,,合同会社,岡山県,岡山市南区,福田１７４番地４０,,33,104,7028021,,,,,,,2023-10-25,1,,,,,スリーチアーズ,0
2062,7290001103510,新規,0,2023-10-25,2023-10-25,龍江商事株式会社,,株式会社,福岡県,糸島市,曽根４４５－１２,,40,230,8191561,,,,,,,2023-10-25,1,,,,,リュウエイショウジ,0
2063,7290001103519,新規,0,2023-10-25,2023-10-25,株式会社至誠不動産,,株式会社,福岡県,福岡市中央区,天神２丁目２番１２号Ｔ＆Ｊビルディング７Ｆ,,40,133,8100001,,,,,,,2023-10-25,1,,,,,シセイフドウサン,0
2064,7290001103527,新規,0,2023-10-25,2023-10-25,彩花株式会社,,株式会社,福岡県,福岡市中央区,荒戸３丁目１０番１３号,,40,133,8100062,,,,,,,2023-10-25,1,,,,,イロハ,0
2065,7290001103543,新規,0,2023-10-25,2023-10-25,株式会社大和住宅商会,,株式会社,福岡県,糟屋郡粕屋町,原町５丁目１０番２２号,,40,349,8112307,,,,,,,2023-10-25,1,,,,,ヤマトジュウタクショウカイ,0
2068,7290003014532,新規,0,2023-10-25,2023-10-25,合同会社ＳＳＫ,,合同会社,福岡県,古賀市,天神１丁目２５番３３－６０７号,,40,223,8113101,,,,,,,2023-10-25,1,,,,,エスエスケイ,0
2070,7290801029987,新規,0,2023-10-25,2023-10-25,株式会社竹内酒店,,株式会社,福岡県,北九州市門司区,東新町１丁目５番４１号,,40,101,8000055,,,,,,,2023-10-25,1,,,,,タケウチサケテン,0
2077,7330001031343,新規,0,2023-10-25,2023-10-25,株式会社ｓｏｗａ,,株式会社,熊本県,熊本市東区,花立５丁目６番１２３号,,43,102,8620918,,,,,,,2023-10-25,1,,,,,ソワ,0
2078,7330001031392,新規,0,2023-10-25,2023-10-25,株式会社くくる,,株式会社,熊本県,熊本市中央区,万町２丁目４番地,,43,101,8600032,,,,,,,2023-10-25,1,,,,,ククル,0
2094,7380001034085,新規,0,2023-10-25,2023-10-25,株式会社ＲｅＦｒｕｉｔｓ,,株式会社,福島県,双葉郡大熊町,大字下野上字清水２３０番地,,07,545,9791308,,,,,,,2023-10-25,1,,,,,リフルーツ,0
2099,7420001018463,新規,0,2023-10-25,2023-10-25,株式会社０３７ガレージ,,株式会社,青森県,五所川原市,大字姥萢字船橋１５４番地２,,02,205,0370015,,,,,,,2023-10-25,1,,,,,ゼロサンナナガレージ,0
2111,7450003002396,新規,0,2023-10-25,2023-10-25,合同会社ＮＡＲＩＴＡＯＦＦＩＣＥ,,合同会社,北海道,紋別市,落石町２丁目４番１９号,,01,219,0940007,,,,,,,2023-10-25,1,,,,,,0
2118,7500001025261,新規,0,2023-10-25,2023-10-25,オフィスリック株式会社,,株式会社,愛媛県,西条市,壬生川１４１番地７,,38,206,7991341,,,,,,,2023-10-25,1,,,,,オフィスリック,0
2119,7700150121353,新規,0,2023-10-25,2023-10-25,山西斐ア商貿有限公司,,外国会社等,,,,,,,,中国太原市小店区学府街１３２号華宇百花谷Ａ座１６０９号,,,,,,2023-10-25,1,,,,,サンセイヒアシヨウボウユウゲンコウシ,0
2120,7700150121361,新規,0,2023-10-25,2023-10-25,ＧＬ　Ｇｒｕｐ－２０１５　Ｌｔｄ,,外国会社等,,,,,,,,３６　Ｖａｓｉｌ　Ｌｅｖｓｋｉ，Ｄｒｙａｎｏｖｏ　５３７０，Ｂｕｌｇａｒｉａ,,,,,,2023-10-25,1,,,,,ジーエルグループニセンジユウゴカンパニリミテツド,0
2121,7700150121411,新規,0,2023-10-25,2023-10-25,ｓｈｅｎｚｈｅｎｓｈｉｂｏｅｒｄｅｎｇｍａｏｙｉ　ｙｏｕｘｉａｎｇｏｎｇｓｉ,,外国会社等,,,,,,,,ｓｈｅｎｚｈｅｎｓｈｉ　ｌｏｎｇｇａｎｇｑｕ　ｊｉｈｕａｊｉｅｄａｏｇａｎｋｅｎｓｈｅｑｕｇａｎｋｅｎｇｌｉａｎｇｍａｏｓａｎｑｕｚｈｏｎｇｑｕｓａｎｘｉａｎｇ１ｈａｏ２／ＦＢ,,,,,,2023-10-25,1,,,,,シンセンシボエデンマオイユウゲンコウシ,0
2131,8010001239488,新規,0,2023-10-25,2023-10-25,株式会社ＱＱＢｒｉｄｇｅ,,株式会社,東京都,文京区,本郷６丁目２５番１４号,,13,105,1130033,,,,,,,2023-10-25,1,,,,,キューキューブリッジ,0
2132,8010001239513,新規,0,2023-10-25,2023-10-25,Ｃｒｙｓｔａｌ　Ａｄｖａｎｃｅｄ　Ｍａｔｅｒｉａｌｓ　Ｊａｐａｎ株式会社,,株式会社,東京都,千代田区,丸の内１丁目６番５号丸の内北口ビルディング９階,,13,101,1000005,,,,,,,2023-10-25,1,,,,,クリスタルアドバンスドマテリアルズジャパン,0
2135,8010005037426,新規,0,2023-10-25,2023-10-25,一般社団法人Ｉｎｔｅｒｎａｔｉｏｎａｌ　Ｃｏｍｍｉｓｓｉｏｎ　ｏｎ　Ｇｌａｓｓ　Ｊａｐａｎ,,その他の設立登記法人,東京都,文京区,弥生２丁目１１番１６号,,13,105,1130032,,,,,,,2023-10-25,1,,,,,インターナショナルコミッションオングラスジャパン,0
2136,8010101015863,新規,0,2023-10-25,2023-10-25,レイ株式会社,,株式会社,東京都,八王子市,館町６４２番地２４,,13,201,1930944,,,,,,,2023-10-25,1,,,,,レイ,0
2147,8010401178055,新規,0,2023-10-25,2023-10-25,株式会社ゼッケー,,株式会社,東京都,港区,六本木７丁目１５番７号,,13,103,1060032,,,,,,,2023-10-25,1,,,,,ゼッケー,0
2148,8010401178096,新規,0,2023-10-25,2023-10-25,株式会社ＭＯＣ,,株式会社,東京都,港区,六本木５丁目５番１号六本木ミニヨンビル４Ｆ,,13,103,1060032,,,,,,,2023-10-25,1,,,,,エムオーシー,0
2153,8010405022597,新規,0,2023-10-25,2023-10-25,一般社団法人日本オンライン診療協会,,その他の設立登記法人,東京都,港区,六本木７丁目１７番１２号６０７,,13,103,1060032,,,,,,,2023-10-25,1,,,,,ニホンオンラインシンリョウキョウカイ,0
2155,8010601064030,新規,0,2023-10-25,2023-10-25,株式会社ＭＩＮＡ,,株式会社,東京都,江東区,扇橋２丁目６番１２－１０２号,,13,108,1350011,,,,,,,2023-10-25,1,,,,,ミナ,0
2160,8010801034460,新規,0,2023-10-25,2023-10-25,株式会社アイナベース,,株式会社,東京都,大田区,東矢口３丁目２－１－８１１,,13,111,1460094,,,,,,,2023-10-25,1,,,,,アイナベース,0
2172,8011001157861,新規,0,2023-10-25,2023-10-25,株式会社エクストリームフィルム,,株式会社,東京都,渋谷区,円山町２０番１号新大宗道玄坂ビル８Ｆ,,13,113,1500044,,,,,,,2023-10-25,1,,,,,エクストリームフィルム,0
2173,8011003017758,新規,0,2023-10-25,2023-10-25,グラッツィア合同会社,,合同会社,東京都,渋谷区,円山町５番５号Ｎａｖｉ渋谷Ｖ３階,,13,113,1500044,,,,,,,2023-10-25,1,,,,,グラッツィア,0
2183,8011101104887,新規,0,2023-10-25,2023-10-25,株式会社ＬＯＳＴ＆ＦＯＵＮＤ,,株式会社,東京都,新宿区,西新宿８丁目５番７号ＬｅＣｌａｉｒ西新宿ＩＩ２０３,00132398,13,104,1600023,,,,,,,2023-10-25,1,,,,,ロストアンドファウンド,0
2184,8011101104912,新規,0,2023-10-25,2023-10-25,株式会社イーリス,,株式会社,東京都,新宿区,四谷２丁目９番地１５東京ユナイテッド綜合事務所内,,13,104,1600004,,,,,,,2023-10-25,1,,,,,イーリス,0
2185,8011103013657,新規,0,2023-10-25,2023-10-25,合同会社Ｌｕｍｉｒｉｚｅ,,合同会社,東京都,新宿区,歌舞伎町２丁目１９番７号新田中ビル２階,,13,104,1600021,,,,,,,2023-10-25,1,,,,,ルミリゼ,0
2186,8011201025001,新規,0,2023-10-25,2023-10-25,株式会社ビューズ,,株式会社,東京都,中野区,中野４丁目１０番２号中野セントラルパークサウス,,13,114,1640001,,,,,,,2023-10-25,1,,,,,ビューズ,0
2193,8011601027225,新規,0,2023-10-25,2023-10-25,株式会社ワイズ,,株式会社,東京都,練馬区,東大泉６丁目２７番１７号第２コーポかしわ１０１号室,,13,120,1780063,,,,,,,2023-10-25,1,,,,,ワイズ,0
2198,8012403006243,新規,0,2023-10-25,2023-10-25,合同会社キッカケ,,合同会社,東京都,小金井市,本町６丁目１０番３‐９１３号コスモフォーラム武蔵小金井,,13,210,1840004,,,,,,,2023-10-25,1,,,,,キッカケ,0
2203,8013301051538,新規,0,2023-10-25,2023-10-25,株式会社ＨａｐｐｙＳｍｉｌｅ,,株式会社,東京都,豊島区,東池袋４丁目５番１号,,13,116,1700013,,,,,,,2023-10-25,1,,,,,ハッピースマイル,0
2213,8021001080501,新規,0,2023-10-25,2023-10-25,株式会社ＦＳＢ,,株式会社,神奈川県,横須賀市,山科台１０番１０号,,14,201,2380312,,,,,,,2023-10-25,1,,,,,エフエスビー,0
2214,8021001080518,新規,0,2023-10-25,2023-10-25,ＩＮ　ＷＯＲＫ株式会社,,株式会社,神奈川県,相模原市中央区,田名塩田２丁目１３番１号,,14,152,2520245,,,,,,,2023-10-25,1,,,,,アイエヌワーク,0
2215,8021003013698,新規,0,2023-10-25,2023-10-25,合同会社ＥＭＡＲＩ,,合同会社,神奈川県,鎌倉市,津８９０番地１榎本ビル２Ｆ,,14,204,2480032,,,,,,,2023-10-25,1,,,,,エマリ,0
2216,8021003013707,新規,0,2023-10-25,2023-10-25,合同会社Ｍｏｒｅ　ｓｈｉｎｅｓ,,合同会社,神奈川県,平塚市,田村３丁目１番３４－７０７号秀和平塚レジデンス,00132405,14,203,2540013,,,,,,,2023-10-25,1,,,,,モアシャイン,0
2217,8021003013715,新規,0,2023-10-25,2023-10-25,障がい者福祉施設グループホーム太陽の花合同会社,,合同会社,神奈川県,相模原市緑区,下九沢２１０３番地６５北公園Ｆ棟,,14,151,2520134,,,,,,,2023-10-25,1,,,,,ショウガイシャフクシシセツグループホームタイヨウノハナ,0
2224,8030001156789,新規,0,2023-10-25,2023-10-25,株式会社松真防災,,株式会社,埼玉県,上尾市,本町５丁目１番９号,,11,219,3620014,,,,,,,2023-10-25,1,,,,,マツシンボウサイ,0
2225,8030001156822,新規,0,2023-10-25,2023-10-25,龍星株式会社,,株式会社,埼玉県,川口市,南町２丁目６－５５（１階）,,11,203,3320026,,,,,,,2023-10-25,1,,,,,リュウセイ,0
2232,8040001130644,新規,0,2023-10-25,2023-10-25,株式会社Ｌｉｇｈｔｍｏｔｉｏｎ,,株式会社,千葉県,船橋市,前原西４丁目１番９－２号,,12,204,2740825,,,,,,,2023-10-25,1,,,,,ライトモーション,0
2233,8040001130669,新規,0,2023-10-25,2023-10-25,株式会社シー・ワイ・ピー・２,,株式会社,千葉県,千葉市美浜区,中瀬１丁目１０番地２,,12,106,2610023,,,,,,,2023-10-25,1,,,,,シーワイピーツー,0
2242,8050001053679,新規,0,2023-10-25,2023-10-25,株式会社Ｉ　ＣＨＡＮＣＥ,,株式会社,茨城県,守谷市,けやき台３丁目２６番地１７,,08,224,3020128,,,,,,,2023-10-25,1,,,,,アイチャンス,0
2243,8060001036476,新規,0,2023-10-25,2023-10-25,株式会社刈部内装,,株式会社,栃木県,宇都宮市,雀の宮１丁目１１番１１号,,09,201,3210132,,,,,,,2023-10-25,1,,,,,カリベナイソウ,0
2251,8080003003084,新規,0,2023-10-25,2023-10-25,合同会社Ｗｅｌｂｉｅ,,合同会社,静岡県,静岡市葵区,北安東４丁目３１番８号,,22,101,4200881,,,,,,,2023-10-25,1,,,,,ウェルビー,0
2254,8100001036918,新規,0,2023-10-25,2023-10-25,株式会社ＣＵＣＫＯＯ,,株式会社,長野県,千曲市,上山田温泉２丁目３１番地３,,20,218,3890821,,,,,,,2023-10-25,1,,,,,カッコウ,0
2262,8120001259013,新規,0,2023-10-25,2023-10-25,グリーンハウス株式会社,,株式会社,大阪府,大阪市住吉区,千躰１丁目４番３８号,,27,120,5580047,,,,,,,2023-10-25,1,,,,,グリーンハウス,0
2263,8120001259046,新規,0,2023-10-25,2023-10-25,易恒株式会社,,株式会社,大阪府,大阪市北区,天神橋４丁目６番１９－５１３号,,27,127,5300041,,,,,,,2023-10-25,1,,,,,イコウ,0
2264,8120001259079,新規,0,2023-10-25,2023-10-25,株式会社ｏｖｅｒｌａｐ,,株式会社,大阪府,大阪市旭区,高殿７丁目６－１,,27,117,5350031,,,,,,,2023-10-25,1,,,,,オーバーラップ,0
2265,8120001259087,新規,0,2023-10-25,2023-10-25,吉沢貿易株式会社,,株式会社,大阪府,大阪市住之江区,西加賀屋４丁目７－２３ベルコモンズ西加賀屋４０２号,,27,125,5590016,,,,,,,2023-10-25,1,,,,,ヨシザワボウエキ,0
2266,8120001259095,新規,0,2023-10-25,2023-10-25,株式会社ＭＡＴＡＴＡＢＩ　ｄｅｓｉｇｎ,,株式会社,大阪府,大阪市北区,梅田１丁目２番２号大阪駅前第２ビル１２－１２,,27,127,5300001,,,,,,,2023-10-25,1,,,,,マタタビデザイン,0
2267,8120001259120,新規,0,2023-10-25,2023-10-25,株式会社セキュアコーディング,,株式会社,大阪府,大阪市阿倍野区,阿倍野筋１丁目１－４３あべのハルカス３１階,,27,119,5450052,,,,,,,2023-10-25,1,,,,,セキュアコーディング,0
2268,8120001259129,新規,0,2023-10-25,2023-10-25,株式会社ブランドナーチャー・コンサルティング,,株式会社,大阪府,大阪市西区,西本町１丁目４番１号オリックス本町ビル４階,,27,106,5500005,,,,,,,2023-10-25,1,,,,,ブランドナーチャーコンサルティング,0
2269,8120001259161,新規,0,2023-10-25,2023-10-25,ｓｐａｃｅ　ｔｒａｖｅｌ環宇国際株式会社,,株式会社,大阪府,大阪市北区,本庄東１丁目２３－２,,27,127,5310074,,,,,,,2023-10-25,1,,,,,スペーストラベルカンウコクサイ,0
2270,8120001259203,新規,0,2023-10-25,2023-10-25,株式会社国士,,株式会社,大阪府,守口市,南寺方東通５丁目５番１５号,,27,209,5700043,,,,,,,2023-10-25,1,,,,,コクシ,0
2271,8120001259211,新規,0,2023-10-25,2023-10-25,株式会社ＭＣＸ,,株式会社,大阪府,大阪市平野区,長吉六反３丁目５－４６,,27,126,5470012,,,,,,,2023-10-25,1,,,,,エムシーエックス,0
2272,8120001259277,新規,0,2023-10-25,2023-10-25,株式会社ミドリコーポレイション,,株式会社,大阪府,大阪市天王寺区,石ケ辻町２７番地の９,,27,109,5430031,,,,,,,2023-10-25,1,,,,,ミドリコーポレイション,0
2273,8120003025173,新規,0,2023-10-25,2023-10-25,ＡＪＯＢ合同会社,,合同会社,大阪府,大阪市北区,天神橋１丁目１９－１６木田鹿第一ビル３－Ｂ,,27,127,5300041,,,,,,,2023-10-25,1,,,,,エージョブ,0
2274,8120003025181,新規,0,2023-10-25,2023-10-25,合同会社みらいアシスト,,合同会社,大阪府,大阪市住之江区,浜口東２丁目３番１４号,,27,125,5590002,,,,,,,2023-10-25,1,,,,,ミライアシスト,0
2285,8120901048234,新規,0,2023-10-25,2023-10-25,イクトゥスエネライフ株式会社,,株式会社,大阪府,箕面市,如意谷３丁目７番Ａ－３０４号,,27,220,5620011,,,,,,,2023-10-25,1,,,,,イクトゥスエネライフ,0
2286,8120901048259,新規,0,2023-10-25,2023-10-25,株式会社ｉｎｎｏｖｅｘｔ,,株式会社,大阪府,豊中市,新千里西町３丁目９番４号,,27,203,5600083,,,,,,,2023-10-25,1,,,,,イノベクスト,0
2287,8120901048267,新規,0,2023-10-25,2023-10-25,株式会社ｅｍｌ,,株式会社,大阪府,池田市,満寿美町８番５－５０６号グランクレスト池田満寿美町,,27,204,5630041,,,,,,,2023-10-25,1,,,,,エムル,0
2288,8120901048275,新規,0,2023-10-25,2023-10-25,グレイスプラン株式会社,,株式会社,大阪府,豊中市,本町１丁目３番２３号,,27,203,5600021,,,,,,,2023-10-25,1,,,,,グレイスプラン,0
2296,8130001075582,新規,0,2023-10-25,2023-10-25,株式会社宇治田島運輸,,株式会社,京都府,宇治市,宇治樋ノ尻９７番地,00132342,26,204,6110021,,,,,,,2023-10-25,1,,,,,ウジタジマウンユ,0
2297,8130003009076,新規,0,2023-10-25,2023-10-25,合同会社Ｔ・Ｋ・Ｐ,,合同会社,京都府,京都市右京区,太秦中筋町６番地の１３,,26,108,6168184,,,,,,,2023-10-25,1,,,,,ティーケーピー,0
2302,8140001132119,新規,0,2023-10-25,2023-10-25,株式会社Ｅ．ＳＵＰＰＯＲＴ,,株式会社,兵庫県,神戸市長田区,若松町３丁目３番２－１１０８号,,28,106,6530038,,,,,,,2023-10-25,1,,,,,イーサポート,0
2303,8140001132127,新規,0,2023-10-25,2023-10-25,みなみ不動産株式会社,,株式会社,兵庫県,明石市,材木町１６番１５号,,28,203,6730893,,,,,,,2023-10-25,1,,,,,ミナミフドウサン,0
2304,8140001132143,新規,0,2023-10-25,2023-10-25,ミライウォーク株式会社,,株式会社,兵庫県,神戸市灘区,大内通２丁目１番５号,,28,102,6570833,,,,,,,2023-10-25,1,,,,,ミライウォーク,0
2309,8160001025444,新規,0,2023-10-25,2023-10-25,株式会社ユウプランニング,,株式会社,滋賀県,大津市,伊香立下龍華町５８４番地の９,,25,201,5200363,,,,,,,2023-10-25,1,,,,,ユウプランニング,0
2310,8160001025452,新規,0,2023-10-25,2023-10-25,よすが株式会社,,株式会社,滋賀県,彦根市,立花町２番７２号,,25,202,5220062,,,,,,,2023-10-25,1,,,,,ヨスガ,0
2318,8180001158498,新規,0,2023-10-25,2023-10-25,億勝株式会社,,株式会社,愛知県,名古屋市港区,入船２丁目２－４６,,23,111,4550032,,,,,,,2023-10-25,1,,,,,オクショウ,0
2319,8180001158564,新規,0,2023-10-25,2023-10-25,株式会社メーメーオンライン,,株式会社,愛知県,名古屋市中区,伊勢山２丁目６番１号,,23,106,4600026,,,,,,,2023-10-25,1,,,,,メーメーオンライン,0
2320,8180001158614,新規,0,2023-10-25,2023-10-25,株式会社シーラトゥール,,株式会社,愛知県,知多市,南粕谷新海４丁目７番地,,23,224,4780026,,,,,,,2023-10-25,1,,,,,シーラトゥーユ,0
2321,8180001158622,新規,0,2023-10-25,2023-10-25,ＮＩＣ．Ｊａｐａｎ株式会社,,株式会社,愛知県,名古屋市守山区,桔梗平２丁目４０２番地,,23,113,4630814,,,,,,,2023-10-25,1,,,,,ニックジャパン,0
2322,8180001158639,新規,0,2023-10-25,2023-10-25,ミューズ株式会社,,株式会社,愛知県,名古屋市東区,東桜２丁目９番２４号,,23,102,4610005,,,,,,,2023-10-25,1,,,,,ミューズ,0
2323,8180001158647,新規,0,2023-10-25,2023-10-25,株式会社ＴｅｎＰｌａｎｎｉｎｇ,,株式会社,愛知県,名古屋市中村区,名駅４丁目２４番５号第２森ビル４０１,,23,105,4500002,,,,,,,2023-10-25,1,,,,,テンプランニング,0
2324,8180001158655,新規,0,2023-10-25,2023-10-25,株式会社サンリブラ,,株式会社,愛知県,名古屋市名東区,若葉台１０１番地,,23,115,4650015,,,,,,,2023-10-25,1,,,,,サンリブラ,0
2325,8180001158663,新規,0,2023-10-25,2023-10-25,株式会社ファブリカコミュニケーションズ準備会社,,株式会社,愛知県,名古屋市中区,錦３丁目５番３０号,,23,106,4600003,,,,,,,2023-10-25,1,,,,,ファブリカコミュニケーションズジュンビガイシャ,0
2337,8190001030838,新規,0,2023-10-25,2023-10-25,ＭＥＥＴ　ＴＨＥ　ＣＡＲＳ株式会社,,株式会社,三重県,松阪市,小黒田町５４２番地１５,,24,204,5150062,,,,,,,2023-10-25,1,,,,,ミートザカーズ,0
2343,8200001041858,新規,0,2023-10-25,2023-10-25,ＱＵＡＮＧ　ＤＵＯＮＧ株式会社,,株式会社,岐阜県,本巣郡北方町,柱本南２丁目１５６番地,,21,421,5010445,,,,,,,2023-10-25,1,,,,,クアンズオン,0
2344,8200003006124,新規,0,2023-10-25,2023-10-25,合同会社Ｐｉｅｄ　Ｐｉｐｅｒ,,合同会社,岐阜県,美濃加茂市,蜂屋町中蜂屋２８２７番地６,,21,211,5050005,,,,,,,2023-10-25,1,,,,,パイドパイパー,0
2347,8230001020074,新規,0,2023-10-25,2023-10-25,株式会社岡崎鉄工所,00132401,株式会社,富山県,高岡市,上八ケ新２５４番地,,16,202,9330963,,,,,,,2023-10-25,1,,,,,オカザキテッコウショ,0
2350,8240003006384,新規,0,2023-10-25,2023-10-25,アジア物産合同会社,,合同会社,広島県,江田島市,江田島町切串１丁目２７番１１号,,34,215,7372111,,,,,,,2023-10-25,1,,,,,アジアブッサン,0
2358,8290001103484,新規,0,2023-10-25,2023-10-25,江藤左官株式会社,,株式会社,福岡県,うきは市,吉井町宮田５１番地４,,40,225,8391303,,,,,,,2023-10-25,1,,,,,エトウサカン,0
2362,8290803004533,新規,0,2023-10-25,2023-10-25,合同会社ブリッジ,,合同会社,福岡県,北九州市戸畑区,幸町１１番１７号Ｂ１,,40,105,8040084,,,,,,,2023-10-25,1,,,,,ブリッジ,0
2370,8330001031383,新規,0,2023-10-25,2023-10-25,株式会社ＳＹＮＥＲＧＹ,,株式会社,熊本県,合志市,須屋１０９番地２１－Ａ,,43,216,8611102,,,,,,,2023-10-25,1,,,,,シナジー,0
2372,8330003010039,新規,0,2023-10-25,2023-10-25,合同会社村正工業,,合同会社,熊本県,熊本市中央区,九品寺５丁目４番１３－２０７号,,43,101,8620976,,,,,,,2023-10-25,1,,,,,ムラマサコウギョウ,0
2376,8360003013419,新規,0,2023-10-25,2023-10-25,合同会社真龍,,合同会社,沖縄県,宜野湾市,野嵩４丁目１８－１０,,47,205,9012203,,,,,,,2023-10-25,1,,,,,シンリュウ,0
2377,8370001050561,新規,0,2023-10-25,2023-10-25,株式会社伊達ライフ,,株式会社,宮城県,仙台市宮城野区,東仙台１丁目２２番７号,,04,102,9830833,,,,,,,2023-10-25,1,,,,,ダテライフ,0
2388,8420001018462,新規,0,2023-10-25,2023-10-25,株式会社富鷹,,株式会社,青森県,南津軽郡田舎館村,大字高樋字八幡４０番２Ｆ,,02,367,0381111,,,,,,,2023-10-25,1,,,,,トミタカ,0
2401,8700150121352,新規,0,2023-10-25,2023-10-25,南昌市凡西実業有限公司,,外国会社等,,,,,,,,中国江西省南昌市南昌高新技術産業開発区天祥大道２７９９号南昌佳海産業園１１８＃楼―１０１室,,,,,,2023-10-25,1,,,,,ナンシヨウシボンセイジツギヨウユウゲンコウシ,0
2402,8700150121369,新規,0,2023-10-25,2023-10-25,Ｆａｉｔｈ　Ｗｏｒｌｄ　Ｄｅｖｅｌｏｐｍｅｎｔ　Ｌｉｍｉｔｅｄ,,外国会社等,,,,,,,,１１／Ｆ　２２　Ｋａｉ　Ｃｈｅｕｎｇ　Ｒｏａｄ，Ｋｏｗｌｏｏｎ　Ｂａｙ　Ｋｏｗｌｏｏｎ　ＨＫ,,,,,,2023-10-25,1,,,,,フエイスワールドデイベロツプメントリミテツド,0
2403,8700150121410,新規,0,2023-10-25,2023-10-25,ｙｉｗｕｙｉｎｇｙｕｊｉｎｃｈｕｋｏｕ　ｙｏｕｘｉａｎｇｏｎｇｓｉ,,外国会社等,,,,,,,,ｙｉｗｕｓｈｉ　ｃｈｅｎｇｘｉｊｉｅｄａｏｈｏｎｇｙｕｎｌｕ３１５ｈａｏ５ｚｕｏ１ｃｅｎｇ１０１－１０２　ｚｈｅｊｉａｎｇ,,,,,,2023-10-25,1,,,,,イーウインユジンツウコウユウゲンコウシ,0
2416,9010001239504,新規,0,2023-10-25,2023-10-25,ＮＢ　ｉｎｔｅｌｌｉｇｅｎｃｅ株式会社,,株式会社,東京都,中央区,銀座５丁目１２番６号,,13,102,1040061,,,,,,,2023-10-25,1,,,,,エヌビーインテリジェンス,0
2417,9010001239512,新規,0,2023-10-25,2023-10-25,ＭＵマネジメントサービス株式会社,,株式会社,東京都,中央区,銀座１丁目１２番４号Ｎ＆Ｅ－ＢＬＤ．６Ｆ,,13,102,1040061,,,,,,,2023-10-25,1,,,,,エムユーマネジメントサービス,0
2418,9010003042030,新規,0,2023-10-25,2023-10-25,Ｍｅｍｅｎｔ　Ｊａｐａｎ合同会社,,合同会社,東京都,中央区,築地５丁目４番１９号,,13,102,1040045,,,,,,,2023-10-25,1,,,,,メメントジャパン,0
2419,9010005037425,新規,0,2023-10-25,2023-10-25,ＤＲＦ一般社団法人,,その他の設立登記法人,東京都,千代田区,丸の内３丁目１番１号東京共同会計事務所内,,13,101,1000005,,,,,,,2023-10-25,1,,,,,ディーアールエフ,0
2427,9010401178087,新規,0,2023-10-25,2023-10-25,株式会社ｃｏｍｐｏｕｎｄ,,株式会社,東京都,港区,白金台５丁目１０番１６－４０３号,,13,103,1080071,,,,,,,2023-10-25,1,,,,,コンパウンド,0
2428,9010401178145,新規,0,2023-10-25,2023-10-25,Ｄｅｎｖｅｒ株式会社,,株式会社,東京都,港区,虎ノ門４丁目３番１号城山トラストタワー３３階,,13,103,1050001,,,,,,,2023-10-25,1,,,,,デンバー,0
2430,9010405022596,新規,0,2023-10-25,2023-10-25,一般社団法人ＨＤＧ４０,,その他の設立登記法人,東京都,港区,虎ノ門３丁目２２番１０－２０１号,,13,103,1050001,,,,,,,2023-10-25,1,,,,,エイチディージーフォーゼロ,0
2432,9010503007202,新規,0,2023-10-25,2023-10-25,合同会社ＳＴＥＬＬＡ,,合同会社,東京都,台東区,松が谷２丁目７番１号４０２,,13,106,1110036,,,,,,,2023-10-25,1,,,,,ステラ,0
2438,9010701045029,新規,0,2023-10-25,2023-10-25,株式会社ＴＴＰ,,株式会社,東京都,品川区,小山台１丁目６－１０ソレイユ小山台１０２,,13,109,1420061,,,,,,,2023-10-25,1,,,,,ティーティーピー,0
2445,9010901054069,新規,0,2023-10-25,2023-10-25,株式会社ＲｅＢｅｓｔ,,株式会社,東京都,世田谷区,玉川３丁目２０番２号マノア玉川第３ビル５０１号室,,13,112,1580094,,,,,,,2023-10-25,1,,,,,リベスト,0
2453,9011001157745,新規,0,2023-10-25,2023-10-25,株式会社Ｈｙｐｅｒ　Ｔｅｃｈｎｏｌｏｇｙ,,株式会社,東京都,渋谷区,道玄坂１丁目１０番８号渋谷道玄坂東急ビル２Ｆ－Ｃ,,13,113,1500043,,,,,,,2023-10-25,1,,,,,ハイパーテクノロジー,0
2454,9011001157761,新規,0,2023-10-25,2023-10-25,ＳＩＤＩＪＵＮ株式会社,,株式会社,東京都,目黒区,目黒本町５丁目３２番１７－１０３号ＰａｒｋＷｅｌｌ目黒本町,,13,110,1520002,,,,,,,2023-10-25,1,,,,,シディユン,0
2455,9011001157844,新規,0,2023-10-25,2023-10-25,株式会社Ｍｉｒａｃｌｅ　ＷｉｎＤ,,株式会社,東京都,渋谷区,恵比寿南１丁目１番１号,,13,113,1500022,,,,,,,2023-10-25,1,,,,,ミラクルウインド,0
2456,9011001157869,新規,0,2023-10-25,2023-10-25,株式会社ＰＡＶＯＮＩＺＥ,,株式会社,東京都,渋谷区,渋谷２丁目１９番１５号宮益坂ビルディング６０９,,13,113,1500002,,,,,,,2023-10-25,1,,,,,パボナイズ,0
2457,9011001157877,新規,0,2023-10-25,2023-10-25,株式会社ＯＸＴ,,株式会社,東京都,渋谷区,富ヶ谷１丁目４９番２１号,,13,113,1510063,,,,,,,2023-10-25,1,,,,,オーエックスティー,0
2458,9011003017708,新規,0,2023-10-25,2023-10-25,合同会社ＣＲＯＷＳＥＴ,,合同会社,東京都,渋谷区,神宮前６丁目２３－４桑野ビル２Ｆ,,13,113,1500001,,,,,,,2023-10-25,1,,,,,クロウセット,0
2460,9011101104878,新規,0,2023-10-25,2023-10-25,株式会社ＳＱＵＬＤ,,株式会社,東京都,新宿区,新宿２丁目１番９号,,13,104,1600022,,,,,,,2023-10-25,1,,,,,スクルド,0
2464,9011103013648,新規,0,2023-10-25,2023-10-25,合同会社ジェイ・イー・アール,,合同会社,東京都,新宿区,下宮比町１番４号,,13,104,1620822,,,,,,,2023-10-25,1,,,,,ジェイイーアール,0
2465,9011103013656,新規,0,2023-10-25,2023-10-25,合同会社ｙｕｍｉｌｅ,,合同会社,東京都,新宿区,西新宿６丁目１５番１号,,13,104,1600023,,,,,,,2023-10-25,1,,,,,ユーマイル,0
2468,9011105010825,新規,0,2023-10-25,2023-10-25,一般社団法人ＤＧヘルスケア,,その他の設立登記法人,東京都,新宿区,四谷２丁目９番地１５東京ユナイテッド綜合事務所内,,13,104,1600004,,,,,,,2023-10-25,1,,,,,ディージーヘルスケア,0
2478,9011503005807,新規,0,2023-10-25,2023-10-25,合同会社アンチョビ,,合同会社,東京都,北区,滝野川６丁目８４番１３号－２０１,,13,117,1140023,,,,,,,2023-10-25,1,,,,,アンチョビ,0
2480,9011601027224,新規,0,2023-10-25,2023-10-25,誠悦国際株式会社,,株式会社,東京都,練馬区,羽沢３丁目２番１３－４０８号,,13,120,1760003,,,,,,,2023-10-25,1,,,,,,0
2483,9011603004106,新規,0,2023-10-25,2023-10-25,合同会社ｏｆｆｉｃｅＴＯＫＯＲＯ,,合同会社,東京都,練馬区,小竹町１丁目２番６号,,13,120,1760004,,,,,,,2023-10-25,1,,,,,オフィストコロ,0
2488,9011801043252,新規,0,2023-10-25,2023-10-25,スタンダードウェイズ株式会社,,株式会社,東京都,足立区,梅島３丁目３３番６号,,13,121,1210816,,,,,,,2023-10-25,1,,,,,スタンダードウェイズ,0
2491,9012701017899,新規,0,2023-10-25,2023-10-25,株式会社ｃｏｃｏｒｏ　ｗｅａｒ,,株式会社,東京都,東久留米市,柳窪５丁目５番３３号,,13,222,2030044,,,,,,,2023-10-25,1,,,,,ココロウェア,0
2492,9012701017908,新規,0,2023-10-25,2023-10-25,株式会社ＪＤＯＣ,,株式会社,東京都,西東京市,向台町６丁目１８番２２号,,13,229,1880013,,,,,,,2023-10-25,1,,,,,ジェイドック,0
2494,9012703002833,新規,0,2023-10-25,2023-10-25,多田商事合同会社,,合同会社,東京都,小平市,美園町２丁目１９番１７－３０３号,,13,211,1870041,,,,,,,2023-10-25,1,,,,,タダショウジ,0
2503,9020001154132,新規,0,2023-10-25,2023-10-25,ワイマーク株式会社,,株式会社,神奈川県,横浜市泉区,上飯田町４５５２番地４ハウスマロニエ１０３号,,14,116,2450018,,,,,,,2023-10-25,1,,,,,ワイマーク,0
2504,9020001154165,新規,0,2023-10-25,2023-10-25,株式会社ワイズ,,株式会社,神奈川県,横浜市金沢区,幸浦２丁目２番地９,,14,108,2360003,,,,,,,2023-10-25,1,,,,,ワイズ,0
2508,9020003024688,新規,0,2023-10-25,2023-10-25,合同会社スマートエナジー,,合同会社,神奈川県,横浜市保土ケ谷区,法泉２丁目２５－１５－１０３,,14,106,2400032,,,,,,,2023-10-25,1,,,,,スマートエナジー,0
2509,9021001080509,新規,0,2023-10-25,2023-10-25,株式会社Ｇ‐ＬＩＮＥ,,株式会社,神奈川県,厚木市,三田３３２７番地５,,14,212,2430211,,,,,,,2023-10-25,1,,,,,ジーライン,0
2510,9021001080525,新規,0,2023-10-25,2023-10-25,株式会社ＴＲＡＮＳＨＩＰ,,株式会社,神奈川県,鎌倉市,七里ガ浜１丁目１５番１９号,,14,204,2480026,,,,,,,2023-10-25,1,,,,,トランシップ,0
2513,9021003013706,新規,0,2023-10-25,2023-10-25,合同会社バニヤン・ノワ,,合同会社,神奈川県,相模原市南区,相模台２丁目１０番１０号２０４,,14,153,2520321,,,,,,,2023-10-25,1,,,,,バニヤンノワ,0
2514,9021003013714,新規,0,2023-10-25,2023-10-25,シルバーエイトグループ合同会社,,合同会社,神奈川県,相模原市緑区,向原２丁目２番２３号プルミエールシャンブルＩＩ２０２,00132402,14,151,2520104,,,,,,,2023-10-25,1,,,,,シルバーエイトグループ,0
2515,9021003013730,新規,0,2023-10-25,2023-10-25,合同会社ウエカワ,,合同会社,神奈川県,相模原市緑区,又野６６７番地２,,14,151,2520158,,,,,,,2023-10-25,1,,,,,ウエカワ,0
2516,9021005012912,新規,0,2023-10-25,2023-10-25,一般社団法人日本ＲＳクラス協会,,その他の設立登記法人,神奈川県,三浦郡葉山町,堀内９３９番地の１３,,14,301,2400112,,,,,,,2023-10-25,1,,,,,,0
2520,9030001156788,新規,0,2023-10-25,2023-10-25,越思国際旅行サービス株式会社,,株式会社,埼玉県,草加市,谷塚２丁目１８－３１サーパス谷塚１０８室,,11,221,3400028,,,,,,,2023-10-25,1,,,,,エツシコクサイリョコウサービス,0
2534,9040001130528,新規,0,2023-10-25,2023-10-25,株式会社Ｗｅｅｄｐｌｕｓ,,株式会社,千葉県,佐倉市,石川６９－４サンリットレジデンスＩＩ２０３号室,00132400,12,212,2850813,,,,,,,2023-10-25,1,,,,,ウィードプラス,0
2535,9040001130560,新規,0,2023-10-25,2023-10-25,株式会社ＤＨ　Ｇｌｏｂａｌ　Ｔｒａｄｉｎｇ,,株式会社,千葉県,野田市,中戸１９０番地１,,12,208,2700215,,,,,,,2023-10-25,1,,,,,ディーエイチグローバルトレーディング,0
2536,9040001130635,新規,0,2023-10-25,2023-10-25,ハッピー未来株式会社,,株式会社,千葉県,山武郡芝山町,宮崎１０１番地１,,12,409,2891614,,,,,,,2023-10-25,1,,,,,ハッピーミライ,0
2538,9040003023606,新規,0,2023-10-25,2023-10-25,ハイドアンドシーク合同会社,,合同会社,千葉県,市川市,高石神３番４号,,12,203,2720814,,,,,,,2023-10-25,1,,,,,ハイドアンドシーク,0
2539,9040003023622,新規,0,2023-10-25,2023-10-25,ＨＤ　ｍｏｂｉｌｅ　ａｎｄ　ａｃｃｅｓｓｏｒｉｅｓ合同会社,,合同会社,千葉県,匝瑳市,内山１１９番地２,,12,235,2892171,,,,,,,2023-10-25,1,,,,,エイチディーモバイルアンドアクセサリーズ,0
2540,9050001053620,新規,0,2023-10-25,2023-10-25,株式会社まわる,,株式会社,茨城県,土浦市,港町２丁目９－２９霞ケ浦グリーンハイツ１０９,,08,203,3000034,,,,,,,2023-10-25,1,,,,,マワル,0
2543,9060001036475,新規,0,2023-10-25,2023-10-25,ＥＳクレンリネス株式会社,,株式会社,栃木県,小山市,城山町２丁目１０番１７号ポレスターステーションシティ城山１２０６,,09,208,3230025,,,,,,,2023-10-25,1,,,,,イーエスクレンリネス,0
2544,9060001036483,新規,0,2023-10-25,2023-10-25,株式会社野口カタリスト,,株式会社,栃木県,宇都宮市,東簗瀬１丁目４０番８号,,09,201,3210925,,,,,,,2023-10-25,1,,,,,ノグチカタリスト,0
2545,9060001036491,新規,0,2023-10-25,2023-10-25,株式会社雄新工業,,株式会社,栃木県,塩谷郡高根沢町,宝石台３丁目１２番地４,,09,386,3291231,,,,,,,2023-10-25,1,,,,,ユウシンコウギョウ,0
2549,9080101024295,新規,0,2023-10-25,2023-10-25,株式会社彩色建装,,株式会社,静岡県,富士市,大淵１５１番地の４６,,22,210,4170801,,,,,,,2023-10-25,1,,,,,サイショクケンソウ,0
2551,9100003007230,新規,0,2023-10-25,2023-10-25,合同会社落合技術士事務所,,合同会社,長野県,駒ヶ根市,下平７１４,,20,210,3994101,,,,,,,2023-10-25,1,,,,,オチアイギジュツシジムショ,0
2552,9100005013086,新規,0,2023-10-25,2023-10-25,医療法人ユーイン,,その他の設立登記法人,長野県,松本市,井川城２丁目５番２号,,20,202,3900831,,,,,,,2023-10-25,1,,,,,ユーイン,0
2565,9120001259078,新規,0,2023-10-25,2023-10-25,株式会社未在,,株式会社,大阪府,大阪市西区,京町堀２丁目４番１－１３０４号,,27,106,5500003,,,,,,,2023-10-25,1,,,,,ミザイ,0
2566,9120001259128,新規,0,2023-10-25,2023-10-25,アイ・アンド・アイ株式会社,,株式会社,大阪府,大阪市天王寺区,寺田町２丁目６－２アークビル寺田町２０１号,,27,109,5430045,,,,,,,2023-10-25,1,,,,,アイアンドアイ,0
2567,9120001259144,新規,0,2023-10-25,2023-10-25,株式会社アーユス,,株式会社,大阪府,大阪市北区,梅田１丁目２番２号大阪駅前第２ビル１２－１２,,27,127,5300001,,,,,,,2023-10-25,1,,,,,アーユス,0
2568,9120001259152,新規,0,2023-10-25,2023-10-25,らいちょう株式会社,,株式会社,大阪府,大阪市淀川区,十三東１丁目７番１４号久保ビル２階,,27,123,5320023,,,,,,,2023-10-25,1,,,,,ライチョウ,0
2569,9120001259160,新規,0,2023-10-25,2023-10-25,株式会社スタジオオドリ場,,株式会社,大阪府,大阪市天王寺区,大道３丁目８番１８号双正ビル１Ｆ,,27,109,5430052,,,,,,,2023-10-25,1,,,,,スタジオオドリバ,0
2570,9120001259169,新規,0,2023-10-25,2023-10-25,株式会社Ａｎ’ｃ,,株式会社,大阪府,大阪市浪速区,稲荷２丁目６－４レバンガ桜川ｆｏｘ２０３,,27,111,5560023,,,,,,,2023-10-25,1,,,,,エンク,0
2571,9120001259193,新規,0,2023-10-25,2023-10-25,株式会社ＫＲ,,株式会社,大阪府,大阪市西区,西本町１丁目７番２０号Ａｘｉｓｃｅｎｔｅｒ本町ビル８０１号,,27,106,5500005,,,,,,,2023-10-25,1,,,,,ケーアール,0
2572,9120001259210,新規,0,2023-10-25,2023-10-25,株式会社ｍＡｓｔ　Ｐｉｌａｔｅｓ,,株式会社,大阪府,大阪市天王寺区,東高津町９－１５ナカモリ第二ビル三階,,27,109,5430021,,,,,,,2023-10-25,1,,,,,マストピラティス,0
2573,9120001259219,新規,0,2023-10-25,2023-10-25,三禾株式会社,,株式会社,大阪府,大阪市住吉区,遠里小野６丁目１７番１８－３０１号,,27,120,5580032,,,,,,,2023-10-25,1,,,,,サンカ,0
2574,9120001259227,新規,0,2023-10-25,2023-10-25,恒盛株式会社,,株式会社,大阪府,大阪市東淀川区,瑞光４丁目２－２１プレアール瑞光４０５,,27,114,5330005,,,,,,,2023-10-25,1,,,,,コウセイ,0
2578,9120003025172,新規,0,2023-10-25,2023-10-25,オーエフオー合同会社,,合同会社,大阪府,大阪市住吉区,沢之町２丁目７番６号,,27,120,5580031,,,,,,,2023-10-25,1,,,,,オーエフオー,0
2580,9120005023959,新規,0,2023-10-25,2023-10-25,一般社団法人公民連携事業総合研究所,,その他の設立登記法人,大阪府,大阪市北区,梅田１丁目１－３大阪駅前第３ビル２９階１－１－１号室,,27,127,5300001,,,,,,,2023-10-25,1,,,,,コウミンレンケイジギョウソウゴウケンキュウジョ,0
2581,9120101068429,新規,0,2023-10-25,2023-10-25,ＫＯＮＤＯ株式会社,,株式会社,大阪府,羽曳野市,駒ケ谷３５０番地の１,,27,222,5830841,,,,,,,2023-10-25,1,,,,,コンドウ,0
2584,9120901048258,新規,0,2023-10-25,2023-10-25,株式会社Ｊｅｓｓｉｃａ,,株式会社,大阪府,池田市,石橋１丁目１１番１３号アークビルヴィラ石橋３Ａ,,27,204,5630032,,,,,,,2023-10-25,1,,,,,ジェシカ,0
2585,9120901048266,新規,0,2023-10-25,2023-10-25,株式会社アイアージュ,,株式会社,大阪府,茨木市,舟木町２番２３号１Ｆ,,27,211,5670828,,,,,,,2023-10-25,1,,,,,アイアージュ,0
2596,9130001075490,新規,0,2023-10-25,2023-10-25,株式会社ココノツ,,株式会社,京都府,京都市東山区,下堀詰町２４６テイブンビル２Ｆ,,26,105,6050992,,,,,,,2023-10-25,1,,,,,ココノツ,0
2597,9130001075499,新規,0,2023-10-25,2023-10-25,ＧｒｏｗＨｕｂ　Ｊａｐａｎ　Ｔｅｃｈｎｏｌｏｇｉｅｓ株式会社,,株式会社,京都府,京都市中京区,河原町通夷川上る指物町３２３番地ウッドテック国松４０１,,26,104,6040903,,,,,,,2023-10-25,1,,,,,グロウハブジャパンテクノロジーズ,0
2606,9140001132118,新規,0,2023-10-25,2023-10-25,株式会社繁まつ,,株式会社,兵庫県,神戸市北区,筑紫が丘３丁目１番地の３０,,28,109,6511212,,,,,,,2023-10-25,1,,,,,シゲマツ,0
2612,9160001025443,新規,0,2023-10-25,2023-10-25,株式会社ＹＳＳ,,株式会社,滋賀県,草津市,芦浦町７０－８,,25,206,5250002,,,,,,,2023-10-25,1,,,,,ワイエスエス,0
2613,9160001025451,新規,0,2023-10-25,2023-10-25,株式会社ＵＪＩテクノ,,株式会社,滋賀県,彦根市,長曽根南町４２８テラスビル３０５号,,25,202,5220052,,,,,,,2023-10-25,1,,,,,ウジテクノ,0
2618,9170001017852,新規,0,2023-10-25,2023-10-25,株式会社エムズ,,株式会社,和歌山県,新宮市,磐盾２－６１,,30,207,6470051,,,,,,,2023-10-25,1,,,,,エムズ,0
2627,9180001158563,新規,0,2023-10-25,2023-10-25,双和ホールディングス株式会社,,株式会社,愛知県,名古屋市港区,南十一番町５丁目２番地,,23,111,4550006,,,,,,,2023-10-25,1,,,,,ソウワホールディングス,0
2628,9180001158621,新規,0,2023-10-25,2023-10-25,株式会社Ｅｎｊｉｎ,,株式会社,愛知県,名古屋市熱田区,池内町４番７号,,23,109,4560005,,,,,,,2023-10-25,1,,,,,エンジン,0
2630,9180003025893,新規,0,2023-10-25,2023-10-25,合同会社Ｐｉｓｔａｃｉａｌｅ,,合同会社,愛知県,名古屋市中村区,名駅４丁目２４番５号第２森ビル４０１,,23,105,4500002,,,,,,,2023-10-25,1,,,,,ピスタチアーレ,0
2638,9220001025651,新規,0,2023-10-25,2023-10-25,株式会社ＳＴＡＹ　ＧＯＬＤ,,株式会社,石川県,小松市,一針町レ４８番地７（２０３）,,17,203,9230043,,,,,,,2023-10-25,1,,,,,ステイゴールド,0
2643,9240001062321,新規,0,2023-10-25,2023-10-25,株式会社Ｗｉｓｅ　Ｎｅｗ　Ｌｉｆｅ,,株式会社,広島県,広島市安佐南区,西原１丁目１８番１７－６号,,34,105,7310113,,,,,,,2023-10-25,1,,,,,ワイズニューライフ,0
2649,9240005015671,新規,0,2023-10-25,2023-10-25,一般社団法人Ｈｉｒｏｓｈｉｍａ　Ａｄｖｅｎｔｕｒｅ　Ｔｒａｖｅｌ,,その他の設立登記法人,広島県,広島市中区,土橋町２－２１ボイスビル４　１０１号室,,34,101,7300854,,,,,,,2023-10-25,1,,,,,ヒロシマアドベンチャートラベル,0
2662,9290001103500,新規,0,2023-10-25,2023-10-25,株式会社ｆｏｒｍｅ　ｄｅ　ｂｏｎｈｅｕｒ,,株式会社,福岡県,福岡市東区,香椎照葉６丁目３番１２号プライムメゾン照葉クロススタイルＷＥＳＴ１階Ｃ区画,,40,131,8130017,,,,,,,2023-10-25,1,,,,,フォルムドゥボヌール,0
2663,9290001103509,新規,0,2023-10-25,2023-10-25,株式会社京福,,株式会社,福岡県,福岡市東区,多の津１丁目１０－１－４３３,,40,131,8130034,,,,,,,2023-10-25,1,,,,,キョウフク,0
2664,9290001103525,新規,0,2023-10-25,2023-10-25,株式会社Ｂ’Ｇｒｏｕｐ,,株式会社,福岡県,福岡市中央区,警固１丁目５番２３号,,40,133,8100023,,,,,,,2023-10-25,1,,,,,ビーグループ,0
2665,9290001103541,新規,0,2023-10-25,2023-10-25,株式会社ＲＩＣＥＤ,,株式会社,福岡県,福岡市東区,唐原５丁目１番４７－１０５号,,40,131,8130001,,,,,,,2023-10-25,1,,,,,ライスド,0
2671,9290003014539,新規,0,2023-10-25,2023-10-25,合同会社ツキジ,,合同会社,福岡県,福岡市中央区,春吉１丁目６－１４－２階,,40,133,8100003,,,,,,,2023-10-25,1,,,,,ツキジ,0
2673,9290801029993,新規,0,2023-10-25,2023-10-25,株式会社サンライズ,,株式会社,福岡県,直方市,大字中泉１１２９番地１４,,40,204,8220011,,,,,,,2023-10-25,1,,,,,サンライズ,0
2676,9320003004214,新規,0,2023-10-25,2023-10-25,合同会社バルブ,,合同会社,大分県,大分市,大字鴛野１０３５番地の９,,44,201,8701121,,,,,,,2023-10-25,1,,,,,バルブ,0
2677,9340001026019,新規,0,2023-10-25,2023-10-25,株式会社井上工務店,,株式会社,鹿児島県,鹿児島市,小野３丁目３２番２０号,,46,201,8900021,,,,,,,2023-10-25,1,,,,,イノウエコウムテン,0
2682,9360003013392,新規,0,2023-10-25,2023-10-25,Ｒ＆ＬＩＦＥ合同会社,,合同会社,沖縄県,名護市,東江５丁目２３－２３－１０２号,,47,209,9050021,,,,,,,2023-10-25,1,,,,,アールアンドライフ,0
2685,9370005010701,新規,0,2023-10-25,2023-10-25,一般社団法人そわか,,その他の設立登記法人,宮城県,名取市,愛島郷２丁目１０番２号,,04,207,9811240,,,,,,,2023-10-25,1,,,,,ソワカ,0
2689,9380001034083,新規,0,2023-10-25,2023-10-25,モーニンググローリー株式会社,,株式会社,福島県,いわき市,常磐湯本町高倉２６番地の２,,07,204,9728321,,,,,,,2023-10-25,1,,,,,モーニンググローリー,0
2695,9380003005586,新規,0,2023-10-25,2023-10-25,合同会社ＪｏｙＪａｐａｎ,,合同会社,福島県,田村市,滝根町神俣字梵天川７５番地３、２－Ｂ,,07,211,9633602,,,,,,,2023-10-25,1,,,,,ジョイジャパン,0
2700,9420001018461,新規,0,2023-10-25,2023-10-25,株式会社名久井ファーム,,株式会社,青森県,三戸郡田子町,大字田子字下田子６９番地の６,,02,443,0390201,,,,,,,2023-10-25,1,,,,,ナクイファーム,0
2703,9430003015547,新規,0,2023-10-25,2023-10-25,合同会社サンショー,,合同会社,北海道,札幌市中央区,双子山３丁目３‐３０,,01,101,0640946,,,,,,,2023-10-25,1,,,,,サンショー,0
2707,9460103001568,新規,0,2023-10-25,2023-10-25,合同会社ＳＫＳプランニング,,合同会社,北海道,帯広市,西二条南２６丁目１１番地３,,01,207,0800012,,,,,,,2023-10-25,1,,,,,エスケーエスプランニング,0
2710,9490001010619,新規,0,2023-10-25,2023-10-25,株式会社田代農場,,株式会社,高知県,高岡郡中土佐町,上ノ加江字田代１３５１番地,,39,401,7891302,,,,,,,2023-10-25,1,,,,,タシロノウジョウ,0
2714,9700150121351,新規,0,2023-10-25,2023-10-25,Ａ．Ｓ．Ｂ．Ｅｎｔｅｒｐｒｉｓｅｓ日本駐在員事務所,,外国会社等,大阪府,富田林市,喜志町４丁目６－２９－２０１号,,27,214,5840005,スリランカ民主社会主義共和国Ｋｕｒｕｎｅｇａｌａ省ＭａｒａｌｕｗａｗａＮｏ．１９５,,,,,,2023-10-25,1,,,,,エーエスビーエンタープライゼズニホンチユウザイインジムシヨ,0
2715,9700150121368,新規,0,2023-10-25,2023-10-25,ＵＮＩＰＥＴ　ＳＩＮＧＡＰＯＲＥ　ＨＯＬＤＩＮＧ　ＰＴＥ．ＬＴＤ．,,外国会社等,愛媛県,伊予市,上三谷甲１１８８,,38,210,7993104,７７　ＲＯＢＩＮＳＯＮ　ＲＯＡＤ　＃１３－００　ＲＯＢＩＮＳＯＮ　７７　ＳＩＮＧＡＰＯＲＥ（０６８８９６）,,,,,,2023-10-25,1,,,,,ユニペトシンガポールホールデイングプライベートリミテツド,0
