sequenceNumber,corporateNumber,process,correct,updateDate,changeDate,name,nameImageId,kind,prefectureName,cityName,streetNumber,addressImageId,prefectureCode,cityCode,postCode,addressOutside,addressOutsideImageId,closeDate,closeCause,successorCorporateNumber,changeCause,assignmentDate,latest,enName,enPrefectureName,enCityName,enAddressOutside,furigana,hihyoji
12,1010001234140,新規,0,2023-04-10,2023-04-10,株式会社メタルホールディングス,,株式会社,東京都,千代田区,外神田５丁目４番３号,,13,101,1010021,,,,,,,2023-04-10,1,,,,,メタルホールディングス,0
13,1010001234223,新規,0,2023-04-10,2023-04-10,丸紅Ｉ‐ＤＩＧＩＯホールディングス株式会社,,株式会社,東京都,千代田区,大手町１丁目４番２号,,13,101,1000004,,,,,,,2023-04-10,1,,,,,マルベニアイデジオホールディングス,0
14,1010001234231,新規,0,2023-04-10,2023-04-10,ＳＨＯ　ＳＯＣＩＡＬ　ＳＯＬＵＴＩＯＮ株式会社,,株式会社,東京都,文京区,白山５丁目３５番２－６０５号,,13,105,1120001,,,,,,,2023-04-10,1,,,,,ショウソーシャルソルーション,0
15,1010001234264,新規,0,2023-04-10,2023-04-10,株式会社ちぇぶらぼ,,株式会社,東京都,中央区,銀座１丁目１２－４Ｎ＆ＥＢＬＤ．７階,,13,102,1040061,,,,,,,2023-04-10,1,,,,,チェブラボ,0
16,1010001234297,新規,0,2023-04-10,2023-04-10,株式会社ＩＮＮＯＶＩＴＡ,,株式会社,東京都,中央区,銀座１丁目１２番４号Ｎ＆ＥＢＬＤ．６Ｆ,,13,102,1040061,,,,,,,2023-04-10,1,,,,,イノヴィータ,0
17,1010001234314,新規,0,2023-04-10,2023-04-10,株式会社ソクサポコンサルティング,,株式会社,東京都,中央区,銀座１丁目１２－４Ｎ＆ＥＢＬＤ．７階,,13,102,1040061,,,,,,,2023-04-10,1,,,,,ソクサポコンサルティング,0
18,1010001234355,新規,0,2023-04-10,2023-04-10,株式会社ファンテイズ,,株式会社,東京都,千代田区,神田小川町１丁目８－３小川町北ビル,,13,101,1010052,,,,,,,2023-04-10,1,,,,,ファンテイズ,0
24,1010003040231,新規,0,2023-04-10,2023-04-10,ＲＢソーラーチコリ合同会社,,合同会社,東京都,千代田区,麹町２丁目８番地ＭＬＣ麹町ビル４階フィンポート税理士法人内,,13,101,1020083,,,,,,,2023-04-10,1,,,,,アールビーソーラーチコリ,0
25,1010003040256,新規,0,2023-04-10,2023-04-10,合同会社ＲａＶｉｔ,,合同会社,東京都,中央区,銀座１丁目２２番１１号銀座大竹ビジデンス２Ｆ,,13,102,1040061,,,,,,,2023-04-10,1,,,,,ラブイット,0
26,1010003040272,新規,0,2023-04-10,2023-04-10,Ｌｉｎｏ合同会社,,合同会社,東京都,中央区,築地３丁目１２番１０－６０２号,,13,102,1040045,,,,,,,2023-04-10,1,,,,,リノ,0
27,1010101015589,新規,0,2023-04-10,2023-04-10,株式会社東京アーキプロダクツ,,株式会社,東京都,八王子市,片倉町３５０番地１マイキャッスル八王子南１３２号,,13,201,1920914,,,,,,,2023-04-10,1,,,,,トウキョウアーキプロダクツ,0
38,1010401173517,新規,0,2023-04-10,2023-04-10,株式会社ｃｒａｆｔ．,,株式会社,東京都,港区,赤坂７丁目９番４号,,13,103,1070052,,,,,,,2023-04-10,1,,,,,クラフト,0
39,1010401173525,新規,0,2023-04-10,2023-04-10,株式会社ソレイユ,,株式会社,東京都,港区,浜松町２丁目２番１５号浜松町ダイヤビル２Ｆ,,13,103,1050013,,,,,,,2023-04-10,1,,,,,ソレイユ,0
40,1010401173566,新規,0,2023-04-10,2023-04-10,Ｙホールディングス株式会社,,株式会社,東京都,港区,新橋１丁目１２－９－１０Ｆ,,13,103,1050004,,,,,,,2023-04-10,1,,,,,ワイホールディングス,0
41,1010401173574,新規,0,2023-04-10,2023-04-10,株式会社ＳＩＬＫＳＵＩＴＥ,,株式会社,東京都,港区,南麻布４丁目１３－８プランドール南麻布７Ｆ,,13,103,1060047,,,,,,,2023-04-10,1,,,,,シルクスイート,0
42,1010401173657,新規,0,2023-04-10,2023-04-10,株式会社ＢＨ　Ｍｕｓｉｃ,,株式会社,東京都,港区,海岸１丁目４番２２号,,13,103,1050022,,,,,,,2023-04-10,1,,,,,ビーエイチミュージック,0
44,1010405021977,新規,0,2023-04-10,2023-04-10,一般社団法人日本フェムテックマイスター協会,,その他の設立登記法人,東京都,港区,麻布十番２丁目１０番３号マイスクエアビル６階,,13,103,1060045,,,,,,,2023-04-10,1,,,,,ニホンフェムテックマイスターキョウカイ,0
51,1010601062874,新規,0,2023-04-10,2023-04-10,株式会社ナツメグ・ネットワークス,,株式会社,東京都,江東区,有明３丁目７番２６号有明フロンティアビルＢ棟９階,,13,108,1350063,,,,,,,2023-04-10,1,,,,,ナツメグネットワークス,0
52,1010601062899,新規,0,2023-04-10,2023-04-10,株式会社ロータスアドバイザリー,,株式会社,東京都,江東区,東陽３丁目２３－２６東陽町コーポラス３Ｆ,,13,108,1350016,,,,,,,2023-04-10,1,,,,,ロータスアドバイザリー,0
54,1010603010096,新規,0,2023-04-10,2023-04-10,合同会社丸の内トラスト,,合同会社,東京都,墨田区,業平５丁目１－１２－１１５,,13,107,1300002,,,,,,,2023-04-10,1,,,,,マルノウチトラスト,0
60,1010701044005,新規,0,2023-04-10,2023-04-10,株式会社セルヴァ,,株式会社,東京都,品川区,大崎１丁目１９番９号２Ｆ,,13,109,1410032,,,,,,,2023-04-10,1,,,,,セルヴァ,0
69,1011001153603,新規,0,2023-04-10,2023-04-10,株式会社ＹＭ,,株式会社,東京都,渋谷区,千駄ヶ谷３丁目３０番４号ホワイトキャッスル１０４,,13,113,1510051,,,,,,,2023-04-10,1,,,,,ワイエム,0
70,1011001153611,新規,0,2023-04-10,2023-04-10,株式会社ソナエル,,株式会社,東京都,渋谷区,大山町４６－２０,,13,113,1510065,,,,,,,2023-04-10,1,,,,,ソナエル,0
71,1011001153636,新規,0,2023-04-10,2023-04-10,株式会社Ｔｕｌｉｐ,,株式会社,東京都,渋谷区,代々木５丁目１５番１０－７０８号,,13,113,1510053,,,,,,,2023-04-10,1,,,,,チューリップ,0
72,1011003016543,新規,0,2023-04-10,2023-04-10,ＬＵＣＥＯ合同会社,,合同会社,東京都,渋谷区,神宮前６丁目２３番４号桑野ビル２階,,13,113,1500001,,,,,,,2023-04-10,1,,,,,ルケオ,0
73,1011003016584,新規,0,2023-04-10,2023-04-10,合同会社ＫＭＧ,,合同会社,東京都,渋谷区,桜丘町１１－６ＤＡＧビル４０２,,13,113,1500031,,,,,,,2023-04-10,1,,,,,ケーエムジー,0
74,1011003016592,新規,0,2023-04-10,2023-04-10,ギロンコンサルティング合同会社,,合同会社,東京都,渋谷区,大山町４６－２０,,13,113,1510065,,,,,,,2023-04-10,1,,,,,ギロンコンサルティング,0
82,1011101101833,新規,0,2023-04-10,2023-04-10,株式会社プロイングリッシュ,,株式会社,東京都,新宿区,西新宿７丁目１－７Ａ１０１８新宿ダイカンプラザＡ館,,13,104,1600023,,,,,,,2023-04-10,1,,,,,プロイングリッシュ,0
83,1011101102443,新規,0,2023-04-10,2023-04-10,株式会社スタジオヒジキ,,株式会社,東京都,新宿区,西新宿３丁目７番１号新宿パークタワーＮ３０階,,13,104,1600023,,,,,,,2023-04-10,1,,,,,スタジオヒジキ,0
84,1011101102451,新規,0,2023-04-10,2023-04-10,株式会社Ｌｅｔ’ｓ,,株式会社,東京都,新宿区,山吹町３５７番地２,,13,104,1620801,,,,,,,2023-04-10,1,,,,,レッツ,0
85,1011103012913,新規,0,2023-04-10,2023-04-10,合同会社ＯＴＴＯ,,合同会社,東京都,新宿区,歌舞伎町１丁目９番８号,,13,104,1600021,,,,,,,2023-04-10,1,,,,,オット,0
86,1011105010618,新規,0,2023-04-10,2023-04-10,一般社団法人日本症例学会,,その他の設立登記法人,東京都,新宿区,東五軒町５番１８－６０１号,,13,104,1620813,,,,,,,2023-04-10,1,,,,,ニホンショウレイガッカイ,0
91,1011303004719,新規,0,2023-04-10,2023-04-10,合同会社ＲＥＩＢＥＮ,,合同会社,東京都,杉並区,阿佐谷南１丁目８番４－４０２号,,13,115,1660004,,,,,,,2023-04-10,1,,,,,レイベン,0
94,1011401025030,新規,0,2023-04-10,2023-04-10,株式会社エフォート,,株式会社,東京都,板橋区,大山町４番６号新井ビル４０１,,13,119,1730023,,,,,,,2023-04-10,1,,,,,エフォート,0
110,1012403005929,新規,0,2023-04-10,2023-04-10,合同会社石原書房,,合同会社,東京都,三鷹市,中原１丁目２６番,,13,204,1810005,,,,,,,2023-04-10,1,,,,,イシハラショボウ,0
117,1013301050513,新規,0,2023-04-10,2023-04-10,株式会社ｍｍ,,株式会社,東京都,豊島区,池袋３丁目３９番２号,,13,116,1710014,,,,,,,2023-04-10,1,,,,,エムエム,0
125,1020001151054,新規,0,2023-04-10,2023-04-10,株式会社カルチャースクエア,,株式会社,神奈川県,川崎市中原区,上小田中７丁目６番１７号,,14,133,2110053,,,,,,,2023-04-10,1,,,,,カルチャースクエア,0
126,1020001151062,新規,0,2023-04-10,2023-04-10,株式会社加藤設備,,株式会社,神奈川県,横浜市青葉区,大場町１３８番地メゾンシライＡ１０６,,14,117,2250023,,,,,,,2023-04-10,1,,,,,カトウセツビ,0
127,1020001151070,新規,0,2023-04-10,2023-04-10,株式会社ワールドスポーツエンターテイメント,,株式会社,神奈川県,横浜市中区,若葉町３丁目４３番地４,,14,104,2310056,,,,,,,2023-04-10,1,,,,,ワールドスポーツエンターテイメント,0
128,1020001151079,新規,0,2023-04-10,2023-04-10,ヘンリーアーマン株式会社,,株式会社,神奈川県,川崎市川崎区,新川通４番１３－５０３号ＭＧエステート,,14,131,2100013,,,,,,,2023-04-10,1,,,,,ヘンリーアーマン,0
129,1020001151095,新規,0,2023-04-10,2023-04-10,株式会社星光,,株式会社,神奈川県,横浜市保土ケ谷区,常盤台２４番２７号,,14,106,2400067,,,,,,,2023-04-10,1,,,,,セイコウ,0
135,1021001078691,新規,0,2023-04-10,2023-04-10,株式会社ＲＥＭ,,株式会社,神奈川県,相模原市中央区,相模原５丁目１０番８号６２０１,,14,152,2520231,,,,,,,2023-04-10,1,,,,,レム,0
138,1030001153124,新規,0,2023-04-10,2023-04-10,株式会社ＳｏｌｅｘＶｅｎｕｓ,,株式会社,埼玉県,川口市,領家１丁目２１番９号坂井ビル１Ｆ,,11,203,3320004,,,,,,,2023-04-10,1,,,,,ソレックスウェヌス,0
139,1030001153256,新規,0,2023-04-10,2023-04-10,株式会社てる吉,,株式会社,埼玉県,志木市,下宗岡３丁目２３番５６号,,11,228,3530003,,,,,,,2023-04-10,1,,,,,テルキチ,0
143,1030003021493,新規,0,2023-04-10,2023-04-10,合同会社ランラララン,,合同会社,埼玉県,さいたま市浦和区,駒場１丁目２２－１－５１２,,11,107,3300051,,,,,,,2023-04-10,1,,,,,ランラララン,0
147,1040001127911,新規,0,2023-04-10,2023-04-10,株式会社ＴＧプロダクツ,,株式会社,千葉県,浦安市,堀江４丁目１３番２０号,,12,227,2790041,,,,,,,2023-04-10,1,,,,,,0
149,1040003022359,新規,0,2023-04-10,2023-04-10,合同会社Ｋｕｒｕ,,合同会社,千葉県,千葉市若葉区,桜木４丁目１９－４６,,12,104,2640028,,,,,,,2023-04-10,1,,,,,クルー,0
150,1040003022375,新規,0,2023-04-10,2023-04-10,合同会社Ｖスタイルヒロ,,合同会社,千葉県,船橋市,みやぎ台３丁目３番５号イノ・レジデンス２０３号,,12,204,2740804,,,,,,,2023-04-10,1,,,,,ブイスタイルヒロ,0
157,1050001052596,新規,0,2023-04-10,2023-04-10,株式会社Ｗｏｎｄｅｒ　ＧＡＴＥ,,株式会社,茨城県,高萩市,大字横川１５３４番地の３,,08,214,3180101,,,,,,,2023-04-10,1,,,,,ワンダーゲート,0
160,1070001040285,新規,0,2023-04-10,2023-04-10,レディーボス・トレーディング株式会社,,株式会社,群馬県,高崎市,鼻高町４３番地２,,10,202,3700868,,,,,,,2023-04-10,1,,,,,レディーボストレーディング,0
162,1070005010103,新規,0,2023-04-10,2023-04-10,特定非営利活動法人ｕｎ　ｃｈａｔ,,その他の設立登記法人,群馬県,桐生市,新里町鶴ヶ谷１２４番地５,,10,203,3760132,,,,,,,2023-04-10,1,,,,,アンシャ,0
166,1080401026420,新規,0,2023-04-10,2023-04-10,株式会社ワーズ,,株式会社,静岡県,浜松市中区,砂山町３５５番地の４ハマキョウレックス浜松駅南ビル３階,,22,131,4300926,,,,,,,2023-04-10,1,,,,,ワーズ,0
168,1080405007540,新規,0,2023-04-10,2023-04-10,ＯＪＪ協同組合,,その他の設立登記法人,静岡県,浜松市西区,神ケ谷町２８７７番地の３,,22,133,4328005,,,,,,,2023-04-10,1,,,,,オージェイジェイ,0
172,1100003006958,新規,0,2023-04-10,2023-04-10,合同会社新和オート,,合同会社,長野県,南佐久郡小海町,大字豊里２１１０番地,,20,303,3841103,,,,,,,2023-04-10,1,,,,,シンワオート,0
173,1100003006966,新規,0,2023-04-10,2023-04-10,合同会社資源開発コンサルタント,,合同会社,長野県,松本市,大字島内８９８番地５８,,20,202,3900851,,,,,,,2023-04-10,1,,,,,シゲンカイハツコンサルタント,0
174,1110001037418,新規,0,2023-04-10,2023-04-10,株式会社敬心ライン,,株式会社,新潟県,見附市,今町４丁目１２番４８号,,15,211,9540111,,,,,,,2023-04-10,1,,,,,ケイシンライン,0
186,1120001253690,新規,0,2023-04-10,2023-04-10,星曇株式会社,,株式会社,大阪府,大阪市天王寺区,悲田院町９－１７阪和ビル３０４,,27,109,5430055,,,,,,,2023-04-10,1,,,,,セイウン,0
187,1120001253823,新規,0,2023-04-10,2023-04-10,路虎文化株式会社,,株式会社,大阪府,大阪市東住吉区,鷹合３丁目４－２プレジデント鷹合４０５号室,,27,121,5460014,,,,,,,2023-04-10,1,,,,,ロコブンカ,0
195,1120101067306,新規,0,2023-04-10,2023-04-10,株式会社前田ＴＥＣ,,株式会社,大阪府,堺市堺区,七道西町１２番地２２市営七道並松団地１棟４０４号,,27,141,5900911,,,,,,,2023-04-10,1,,,,,マエダテック,0
202,1130001074021,新規,0,2023-04-10,2023-04-10,株式会社ＪＢホールディングス,,株式会社,京都府,京都市右京区,嵯峨朝日町３５番地４７,,26,108,6168343,,,,,,,2023-04-10,1,,,,,ジェイビーホールディングス,0
203,1130001074046,新規,0,2023-04-10,2023-04-10,株式会社オーサンズ,,株式会社,京都府,京都市伏見区,深草西浦町８丁目１１３西陣ビル１０１号室,,26,109,6120029,,,,,,,2023-04-10,1,,,,,オーサンズ,0
211,1130005016738,新規,0,2023-04-10,2023-04-10,医療法人健桂会,,その他の設立登記法人,京都府,宇治市,小倉町西浦９８番地,,26,204,6110042,,,,,,,2023-04-10,1,,,,,ケンケイカイ,0
212,1130005016746,新規,0,2023-04-10,2023-04-10,一般社団法人Ｄｉｓｃｏｖｅｒ　Ｎｏｈ　ｉｎ　Ｋｙｏｔｏ,,その他の設立登記法人,京都府,京都市左京区,岡崎天王町２５番地,,26,103,6068335,,,,,,,2023-04-10,1,,,,,ディスカバーノウインキョウト,0
219,1140001129666,新規,0,2023-04-10,2023-04-10,田守建設株式会社,,株式会社,兵庫県,姫路市,夢前町塩田１１７番地,,28,201,6712112,,,,,,,2023-04-10,1,,,,,タモリケンセツ,0
220,1140001129708,新規,0,2023-04-10,2023-04-10,株式会社ＮＫアシスト,,株式会社,兵庫県,姫路市,書写１０１９番地６１４,,28,201,6712201,,,,,,,2023-04-10,1,,,,,エヌケーアシスト,0
225,1140003018933,新規,0,2023-04-10,2023-04-10,合同会社ＦｒｅｅＷｉｌｌ　Ｆｏｒｔｕｎｅ,,合同会社,兵庫県,尼崎市,東難波町５丁目１７番２５－７０２,,28,202,6600892,,,,,,,2023-04-10,1,,,,,フリーウィルフォーチュン,0
226,1140003018941,新規,0,2023-04-10,2023-04-10,ラ・ヴァレ合同会社,,合同会社,兵庫県,西宮市,羽衣町２番１１－１０１号,,28,204,6620051,,,,,,,2023-04-10,1,,,,,ラヴァレ,0
229,1160001024956,新規,0,2023-04-10,2023-04-10,株式会社アルカンシエル,,株式会社,滋賀県,大津市,平津２丁目１６番５６号,,25,201,5200862,,,,,,,2023-04-10,1,,,,,アルカンシエル,0
230,1160001024964,新規,0,2023-04-10,2023-04-10,ＤＯ真剣株式会社,,株式会社,滋賀県,彦根市,西今町６３７番地１,,25,202,5220054,,,,,,,2023-04-10,1,,,,,ドシンケン,0
234,1160005011182,新規,0,2023-04-10,2023-04-10,社会保険労務士法人Ｎｉｅｓ,,その他の設立登記法人,滋賀県,近江八幡市,西庄町７２４番地１,,25,204,5230816,,,,,,,2023-04-10,1,,,,,ニーズ,0
236,1170001017546,新規,0,2023-04-10,2023-04-10,株式会社Ｍ＆Ｍサービス,,株式会社,和歌山県,岩出市,中黒４２９番地１,,30,209,6496248,,,,,,,2023-04-10,1,,,,,エムアンドエムサービス,0
244,1180001155758,新規,0,2023-04-10,2023-04-10,株式会社Ｅａｔ　Ｃｒｏｓｓ,,株式会社,愛知県,知多市,南粕谷東坂１丁目１７１番地の１,,23,224,4780023,,,,,,,2023-04-10,1,,,,,イートクロス,0
245,1180001155774,新規,0,2023-04-10,2023-04-10,日本ペットホテル協会株式会社,,株式会社,愛知県,名古屋市千種区,内山３丁目９番２３号３Ｆ,,23,101,4640075,,,,,,,2023-04-10,1,,,,,ニホンペットホテルキョウカイ,0
255,1180005020165,新規,0,2023-04-10,2023-04-10,一般社団法人あんしん相続,,その他の設立登記法人,愛知県,名古屋市中川区,高畑１丁目２４１番地ケイツーホソノ４１１号,,23,110,4540911,,,,,,,2023-04-10,1,,,,,アンシンソウゾク,0
256,1180005020173,新規,0,2023-04-10,2023-04-10,一般社団法人長久手アグサポ倶楽部,,その他の設立登記法人,愛知県,長久手市,前熊前山１０４番地,,23,238,4801102,,,,,,,2023-04-10,1,,,,,ナガクテアグサポクラブ,0
258,1190003004284,新規,0,2023-04-10,2023-04-10,合同会社ノーマライズジャパン,,合同会社,三重県,四日市市,智積町６５８番地１,,24,202,5121212,,,,,,,2023-04-10,1,,,,,ノーマライズジャパン,0
263,1220001025345,新規,0,2023-04-10,2023-04-10,日本医療再生機構株式会社,,株式会社,石川県,金沢市,新神田１丁目９番２０号,,17,201,9218013,,,,,,,2023-04-10,1,,,,,ニホンイリョウサイセイキコウ,0
272,1260001037832,新規,0,2023-04-10,2023-04-10,株式会社くら敷畳,,株式会社,岡山県,倉敷市,西田４２９番地,,33,202,7100027,,,,,,,2023-04-10,1,,,,,クラシキダタミ,0
273,1260003004277,新規,0,2023-04-10,2023-04-10,合同会社クラトー,,合同会社,岡山県,倉敷市,東塚１丁目１４番３７号,,33,202,7128044,,,,,,,2023-04-10,1,,,,,クラトー,0
276,1280001008914,新規,0,2023-04-10,2023-04-10,細田鈑金株式会社,,株式会社,島根県,松江市,東出雲町揖屋２５８１番地１,,32,201,6990101,,,,,,,2023-04-10,1,,,,,ホソダバンキン,0
278,1290001101098,新規,0,2023-04-10,2023-04-10,株式会社柳川環美センター,,株式会社,福岡県,柳川市,筑紫町３９７番地１,,40,207,8320077,,,,,,,2023-04-10,1,,,,,ヤナガワカンビセンター,0
279,1290001101131,新規,0,2023-04-10,2023-04-10,株式会社ＭＨメディカル,,株式会社,福岡県,筑後市,大字蔵数５２１－７－１０８号,,40,211,8330054,,,,,,,2023-04-10,1,,,,,エムエイチメディカル,0
283,1290805009644,新規,0,2023-04-10,2023-04-10,事業協同組合Ｇｌｏｂａｌ　Ｌｉｎｋ,,その他の設立登記法人,福岡県,北九州市小倉南区,上吉田５丁目２番２２号,,40,107,8000201,,,,,,,2023-04-10,1,,,,,グローバルリンク,0
284,1300005007133,新規,0,2023-04-10,2023-04-10,特定非営利活動法人Ｔ　ｔｏ　Ａ,,その他の設立登記法人,佐賀県,武雄市,武雄町大字昭和１７番地１５‐２階,,41,206,8430023,,,,,,,2023-04-10,1,,,,,ティートゥエー,0
287,1320003004056,新規,0,2023-04-10,2023-04-10,Ｙ．Ｋ　Ｓｔｅｅｌ合同会社,,合同会社,大分県,速見郡日出町,大字大神３９３３番地,,44,341,8791504,,,,,,,2023-04-10,1,,,,,ワイケースチール,0
289,1320005010069,新規,0,2023-04-10,2023-04-10,一般財団法人中川久定記念基金,,その他の設立登記法人,大分県,竹田市,大字会々２３９５番地１,,44,208,8780011,,,,,,,2023-04-10,1,,,,,ナカガワヒサヤスキネンキキン,0
299,1350001018278,新規,0,2023-04-10,2023-04-10,株式会社ヤマグチ,,株式会社,宮崎県,宮崎市,松橋１丁目１５番１０号,,45,201,8800013,,,,,,,2023-04-10,1,,,,,ヤマグチ,0
300,1360001031809,新規,0,2023-04-10,2023-04-10,株式会社ＭＡＲＵ,,株式会社,沖縄県,石垣市,字登野城２６－４,,47,207,9070004,,,,,,,2023-04-10,1,,,,,マル,0
301,1360001031825,新規,0,2023-04-10,2023-04-10,ここじゃぱんｅＬｉｆｅ株式会社,,株式会社,沖縄県,中頭郡読谷村,字長浜１８４６,,47,324,9040324,,,,,,,2023-04-10,1,,,,,ココジャパンイーライフ,0
302,1360001031833,新規,0,2023-04-10,2023-04-10,株式会社食計画沖縄,,株式会社,沖縄県,南城市,玉城字志堅原４６番地,,47,215,9010613,,,,,,,2023-04-10,1,,,,,ショクケイカクオキナワ,0
306,1360003012872,新規,0,2023-04-10,2023-04-10,合同会社ＴＯＭＡＲＩフアーム,,合同会社,沖縄県,宮古島市,下地字与那覇３１０番地,,47,214,9060305,,,,,,,2023-04-10,1,,,,,トマリフアーム,0
309,1370001049809,新規,0,2023-04-10,2023-04-10,株式会社碧工業,,株式会社,宮城県,岩沼市,恵み野３丁目２番地の３,,04,211,9892429,,,,,,,2023-04-10,1,,,,,アオイコウギョウ,0
310,1370003006072,新規,0,2023-04-10,2023-04-10,合同会社ＫＣＣｏｎｓｕｌｔｉｎｇ,,合同会社,宮城県,仙台市青葉区,中央４丁目７－２５－１３０３,,04,101,9800021,,,,,,,2023-04-10,1,,,,,ケーシーコンサルティング,0
313,1380001033605,新規,0,2023-04-10,2023-04-10,株式会社ライト,,株式会社,福島県,郡山市,菜根１丁目１２番１３号,,07,203,9638862,,,,,,,2023-04-10,1,,,,,ライト,0
322,1400003003058,新規,0,2023-04-10,2023-04-10,ＦＡＣＥ　ＯＦＦ合同会社,,合同会社,岩手県,盛岡市,津志田南３丁目７番地５７,,03,201,0200839,,,,,,,2023-04-10,1,,,,,,0
323,1410001013446,新規,0,2023-04-10,2023-04-10,株式会社佐々木興業,,株式会社,秋田県,大館市,字一心院南１番地,,05,204,0170825,,,,,,,2023-04-10,1,,,,,ササキコウギョウ,0
330,1430001088759,新規,0,2023-04-10,2023-04-10,株式会社ＨＳシステム,,株式会社,北海道,札幌市厚別区,厚別東四条６丁目２番１号,,01,108,0040004,,,,,,,2023-04-10,1,,,,,エイチエスシステム,0
331,1430001088841,新規,0,2023-04-10,2023-04-10,ＤａｔａＴｒｅｅ株式会社,,株式会社,北海道,札幌市東区,北八条東４丁目１－２０ＥＺＯＨＵＢ　ＳＡＰＰＯＲＯ内,,01,103,0600908,,,,,,,2023-04-10,1,,,,,データツリー,0
332,1430003014886,新規,0,2023-04-10,2023-04-10,うちやま農園合同会社,,合同会社,北海道,美唄市,字上美唄原野４０２９番地（茶志内町３区）,,01,215,0720000,,,,,,,2023-04-10,1,,,,,ウチヤマノウエン,0
334,1460101007368,新規,0,2023-04-10,2023-04-10,株式会社ヒグマモバイル,,株式会社,北海道,帯広市,西八条南１丁目３番地２,,01,207,0800018,,,,,,,2023-04-10,1,,,,,ヒグマモバイル,0
336,1470001019545,新規,0,2023-04-10,2023-04-10,株式会社ＫＥＩＺ,,株式会社,香川県,坂出市,福江町２丁目３番１６号,,37,203,7620034,,,,,,,2023-04-10,1,,,,,ケイズ,0
337,1470003002391,新規,0,2023-04-10,2023-04-10,合同会社ＧＥＮＥＳＩＳ,,合同会社,香川県,丸亀市,郡家町８７３番地１,,37,202,7630093,,,,,,,2023-04-10,1,,,,,ジェネシス,0
338,1490001010444,新規,0,2023-04-10,2023-04-10,ＮＫＫソリューションズ株式会社,,株式会社,高知県,南国市,十市４４６５番地２５,,39,204,7830085,,,,,,,2023-04-10,1,,,,,エヌケイケイソリューションズ,0
339,1700150030114,新規,0,2023-04-10,2015-10-09,全日本自治団体労働組合　奈良県本部,,その他,奈良県,奈良市,大安寺５丁目１２－１６奈良地域労働文化センタ－２Ｆ,,29,201,6308133,,,,,,,2015-10-09,1,,,,,ゼンニホンジチダンタイロウドウクミアイナラケンホンブ,0
341,1700150115245,新規,0,2023-04-10,2023-04-10,Ｓｈｅｎｚｈｅｎ　Ｓｉｒｕｉｅｎ　Ｓｈｉｙｅ　Ｙｏｕｘｉａｎ　Ｇｏｎｇｓｉ,,外国会社等,,,,,,,,Ｌｏｎｇｇａｎｇｑｕ　Ｂｕｊｉｊｉｅｄａｏ　Ｗｅｎｊｉｎｇｓｈｅｑｕ　Ｇｕａｎｇｃｈａｎｇｌｕ　Ｚｈｏｎｇａｎｄａｓｈａ　１６０２　Ｓｈｅｎｚｈｅｎ　Ｇｕａｎｇｄｏｎｇ　Ｃｈｉｎａ　５１８０００,,,,,,2023-04-10,1,,,,,シエンジエンスールエンシーイエヨウシエンゴンス,0
342,1700150115253,新規,0,2023-04-10,2023-04-10,ｔａｉｙｕａｎｈｕａｎｔｅｎｇｍａｏｙｉｙｏｕｘｉａｎｇｏｎｇｓｉ,,外国会社等,,,,,,,,Ｈｏｕｓｅｈｏｌｄ　２，Ｎｏ．３２，Ｘｉｎｇｓｈｅｎｇ　Ｓｔｒｅｅｔ，Ｂｅｉｙｉｎｇ　Ｖｉｌｌａｇｅ，Ｑｉｎｇｙｕａｎ　Ｔｏｗｎ，Ｑｉｎｇｘｕ　Ｃｏｕｎｔｙ，Ｔａｉｙｕａｎ　Ｃｉｔｙ，Ｓｈａｎｘｉ　Ｐｒｏｖｉｎｃｅ,,,,,,2023-04-10,1,,,,,タイユエンフアントンマオイーヨウシエンゴンスー,0
352,2010001234247,新規,0,2023-04-10,2023-04-10,株式会社トーヨーホールディングス,,株式会社,東京都,千代田区,有楽町１丁目１０番１号,,13,101,1000006,,,,,,,2023-04-10,1,,,,,トーヨーホールディングス,0
353,2010001234288,新規,0,2023-04-10,2023-04-10,株式会社ＲＩＭＳ,,株式会社,東京都,千代田区,岩本町３丁目３－１４,,13,101,1010032,,,,,,,2023-04-10,1,,,,,リム,0
354,2010001234296,新規,0,2023-04-10,2023-04-10,株式会社Ｐａｓｔｅｌ　Ｂｌｕｅ,,株式会社,東京都,中央区,銀座１丁目１２－４Ｎ＆ＥＢＬＤ．７階,,13,102,1040061,,,,,,,2023-04-10,1,,,,,パステルブルー,0
355,2010001234346,新規,0,2023-04-10,2023-04-10,株式会社やっちゃば,,株式会社,東京都,中央区,日本橋小網町９－５,,13,102,1030016,,,,,,,2023-04-10,1,,,,,ヤッチャバ,0
356,2010001234387,新規,0,2023-04-10,2023-04-10,株式会社ＰＳＴＡＲ,,株式会社,東京都,千代田区,外神田３丁目６番４号,,13,101,1010021,,,,,,,2023-04-10,1,,,,,ピースター,0
362,2010003040222,新規,0,2023-04-10,2023-04-10,合同会社Ｓａｌｅｓ　ａｇｅｎｃｙ,,合同会社,東京都,中央区,日本橋３丁目２番１４号新槇町ビル別館第一２階,,13,102,1030027,,,,,,,2023-04-10,1,,,,,セールスエージェンシー,0
363,2010003040230,新規,0,2023-04-10,2023-04-10,ＲＢソーラーソレル合同会社,,合同会社,東京都,千代田区,麹町２丁目８番地ＭＬＣ麹町ビル４階フィンポート税理士法人内,,13,101,1020083,,,,,,,2023-04-10,1,,,,,アールビーソーラーソレル,0
364,2010003040247,新規,0,2023-04-10,2023-04-10,合同会社ＧＩＲＩＮ,,合同会社,東京都,千代田区,紀尾井町３番１０号紀尾井町ガーデンタワー２５０４号（Ｃ／Ｏｓｈｉｍａｄａ－ｏｆｆｉｃｅ）,,13,101,1020094,,,,,,,2023-04-10,1,,,,,ギリン,0
365,2010003040271,新規,0,2023-04-10,2023-04-10,けらを合同会社,,合同会社,東京都,中央区,銀座１丁目１２番４号Ｎ＆ＥＢＬＤ．６Ｆ,,13,102,1040061,,,,,,,2023-04-10,1,,,,,ケラヲ,0
368,2010005036425,新規,0,2023-04-10,2023-04-10,一般社団法人御茶ノ水消化器医療推進機構,,その他の設立登記法人,東京都,文京区,湯島１丁目５番４５号東京医科歯科大学消化器内科教授室内,,13,105,1130034,,,,,,,2023-04-10,1,,,,,オチャノミズショウカキイリョウスイシンキコウ,0
369,2010005036458,新規,0,2023-04-10,2023-04-10,一般社団法人グリーン水素燃料実用化コンソーシアム,,その他の設立登記法人,東京都,文京区,弥生２丁目１１番１６号,,13,105,1130032,,,,,,,2023-04-10,1,,,,,グリーンスイソネンリョウジツヨウカコンソーシアム,0
370,2010103002114,新規,0,2023-04-10,2023-04-10,ライト合同会社,,合同会社,東京都,八王子市,散田町３丁目６番１号,,13,201,1930832,,,,,,,2023-04-10,1,,,,,ライト,0
371,2010105002211,新規,0,2023-04-10,2023-04-10,一般社団法人せいさスポーツ振興協会,,その他の設立登記法人,東京都,八王子市,元横山町１丁目２５番６号,,13,201,1920063,,,,,,,2023-04-10,1,,,,,セイサスポーツシンコウキョウカイ,0
385,2010401173532,新規,0,2023-04-10,2023-04-10,ｓｅａｒｃｕｓ株式会社,,株式会社,東京都,港区,六本木３丁目１番３０号,,13,103,1060032,,,,,,,2023-04-10,1,,,,,サーカス,0
386,2010401173549,新規,0,2023-04-10,2023-04-10,Ｂ＆Ｃ　Ｄｅｓｉｇｎ株式会社,,株式会社,東京都,港区,西麻布２丁目１３番５－７０２号,,13,103,1060031,,,,,,,2023-04-10,1,,,,,ビーアンドシーデザイン,0
387,2010401173565,新規,0,2023-04-10,2023-04-10,Ｋホールディングス株式会社,,株式会社,東京都,港区,新橋１丁目１２－９－１０Ｆ,,13,103,1050004,,,,,,,2023-04-10,1,,,,,ケイホールディングス,0
388,2010401173631,新規,0,2023-04-10,2023-04-10,株式会社Ａｎｙｇｌｏ,,株式会社,東京都,港区,赤坂２丁目２１番４号,,13,103,1070052,,,,,,,2023-04-10,1,,,,,エニーグロー,0
389,2010401173656,新規,0,2023-04-10,2023-04-10,株式会社Ｓｅｃｏｎｄ　Ｃｌｏｓｅｔ,,株式会社,東京都,港区,海岸１丁目４番２２号,,13,103,1050022,,,,,,,2023-04-10,1,,,,,セカンドクローゼット,0
390,2010403029864,新規,0,2023-04-10,2023-04-10,リンデンキャピタルパートナーズ合同会社,,合同会社,東京都,港区,南青山３丁目１番３６号青山丸竹ビル６Ｆ,,13,103,1070062,,,,,,,2023-04-10,1,,,,,リンデンキャピタルパートナーズ,0
391,2010403029889,新規,0,2023-04-10,2023-04-10,ＪＲ東日本ローカルスタートアップ合同会社,,合同会社,東京都,港区,高輪２丁目２１番４２号,,13,103,1080074,,,,,,,2023-04-10,1,,,,,ジェイアールヒガシニホンローカルスタートアップ,0
394,2010405022025,新規,0,2023-04-10,2023-04-10,ＭＦＴＪＰＮ７特定目的会社,,その他の設立登記法人,東京都,港区,虎ノ門３丁目２２番１０－２０１号,,13,103,1050001,,,,,,,2023-04-10,1,,,,,エムエフティージェイピーエヌセブン,0
398,2010601062873,新規,0,2023-04-10,2023-04-10,株式会社グランドブライツ,,株式会社,東京都,墨田区,東向島６丁目１１番７号,,13,107,1310032,,,,,,,2023-04-10,1,,,,,グランドブライツ,0
399,2010601062881,新規,0,2023-04-10,2023-04-10,益運豊株式会社,,株式会社,東京都,墨田区,向島４丁目３番８号グレイス向島２０１Ｂ号室,,13,107,1310033,,,,,,,2023-04-10,1,,,,,エキウンホウ,0
402,2010603010095,新規,0,2023-04-10,2023-04-10,合同会社ＦＵＳＩＯＮ,,合同会社,東京都,江東区,東雲１丁目９番１２－１４０４号キャナルコート東雲,,13,108,1350062,,,,,,,2023-04-10,1,,,,,フュージョン,0
403,2010701044094,新規,0,2023-04-10,2023-04-10,株式会社ＡＭＩ,,株式会社,東京都,品川区,東五反田５丁目２５－１８ＥＮＺＯ五反田ビル,,13,109,1410022,,,,,,,2023-04-10,1,,,,,エーエムアイ,0
416,2011003016609,新規,0,2023-04-10,2023-04-10,合同会社エリムス,,合同会社,東京都,渋谷区,本町５丁目４４番６号プレミアムコート渋谷本町２０１,,13,113,1510071,,,,,,,2023-04-10,1,,,,,エリムス,0
426,2011101102392,新規,0,2023-04-10,2023-04-10,Ｆｉｎｎｅｒ株式会社,,株式会社,東京都,新宿区,西新宿８丁目３番１号西新宿ＧＦビル３Ｆ,,13,104,1600023,,,,,,,2023-04-10,1,,,,,フィナー,0
428,2011103012912,新規,0,2023-04-10,2023-04-10,合同会社ｍｏｊｉＰＲＯ,,合同会社,東京都,新宿区,西新宿３丁目３番１３号西新宿水間ビル６階,,13,104,1600023,,,,,,,2023-04-10,1,,,,,モジプロ,0
429,2011103012920,新規,0,2023-04-10,2023-04-10,ラッキーモア合同会社,,合同会社,東京都,新宿区,新宿５丁目１８－２０ルックハイツ新宿５０６号室,,13,104,1600022,,,,,,,2023-04-10,1,,,,,,0
444,2013301050594,新規,0,2023-04-10,2023-04-10,株式会社リユマテリアル,,株式会社,東京都,豊島区,西池袋１丁目３８－１池袋ＹＳステージビル７階,,13,116,1710021,,,,,,,2023-04-10,1,,,,,リユマテリアル,0
452,2020003023647,新規,0,2023-04-10,2023-04-10,Ｌｃ　Ｔｅｃｈｎｏ合同会社,,合同会社,神奈川県,横浜市神奈川区,台町７－１２－１０１,,14,102,2210834,,,,,,,2023-04-10,1,,,,,エルシーテクノ,0
453,2020003023696,新規,0,2023-04-10,2023-04-10,楽譜仕事人ＰＡＧ合同会社,,合同会社,神奈川県,横浜市都筑区,中川中央１丁目３０番１号,,14,118,2240003,,,,,,,2023-04-10,1,,,,,ガクフシゴトニンピーエージー,0
456,2021003012945,新規,0,2023-04-10,2023-04-10,合同会社風鞠,,合同会社,神奈川県,相模原市南区,東大沼１丁目１２番８号,,14,153,2520333,,,,,,,2023-04-10,1,,,,,カゼマリ,0
465,2030001153247,新規,0,2023-04-10,2023-04-10,株式会社ＡＬＬ１５,,株式会社,埼玉県,北本市,本宿１丁目１４番地２,,11,233,3640005,,,,,,,2023-04-10,1,,,,,オールフィフティーン,0
473,2050003007390,新規,0,2023-04-10,2023-04-10,合同会社ＣＹ　ＪＡＰＡＮ,,合同会社,茨城県,土浦市,右籾１５１５番地１,,08,203,3000837,,,,,,,2023-04-10,1,,,,,シーワイジャパン,0
474,2050003007399,新規,0,2023-04-10,2023-04-10,合同会社石の慶和,,合同会社,茨城県,水戸市,東前３丁目５１番地コンフォートヒルズ１０６号室,,08,201,3111136,,,,,,,2023-04-10,1,,,,,イシノケイワ,0
478,2060003004503,新規,0,2023-04-10,2023-04-10,ＡＭ　ＧＲＯＵＰ合同会社,,合同会社,栃木県,佐野市,伊勢山町１７９３番地,,09,204,3270817,,,,,,,2023-04-10,1,,,,,エーエムグループ,0
480,2070001040292,新規,0,2023-04-10,2023-04-10,株式会社おおたち事業所,,株式会社,群馬県,太田市,大島町３８４番地２,,10,205,3730055,,,,,,,2023-04-10,1,,,,,オオタチジギョウショ,0
485,2080003002959,新規,0,2023-04-10,2023-04-10,合同会社Ｐｒｏｆｉｔ,,合同会社,静岡県,静岡市葵区,安倍口新田３３８－６,,22,101,4212114,,,,,,,2023-04-10,1,,,,,プロフィット,0
486,2080101023898,新規,0,2023-04-10,2023-04-10,株式会社ジャムサーティーファイブ,,株式会社,静岡県,伊東市,吉田２３７番地の２,,22,208,4140051,,,,,,,2023-04-10,1,,,,,ジャムサーティーファイブ,0
487,2080101023907,新規,0,2023-04-10,2023-04-10,ふじさんあおぞら株式会社,,株式会社,静岡県,富士市,依田橋２３６番地の１,,22,210,4170002,,,,,,,2023-04-10,1,,,,,フジサンアオゾラ,0
506,2120001253830,新規,0,2023-04-10,2023-04-10,伝承株式会社,,株式会社,大阪府,大阪市中央区,高津３丁目９番２号１０１号室,,27,128,5420072,,,,,,,2023-04-10,1,,,,,デンショウ,0
507,2120001253938,新規,0,2023-04-10,2023-04-10,株式会社ＳＰＲＯＵＴ,,株式会社,大阪府,大阪市旭区,高殿４丁目１５番１１号,,27,117,5350031,,,,,,,2023-04-10,1,,,,,スプラウト,0
521,2120901047365,新規,0,2023-04-10,2023-04-10,株式会社ＤＥＫＩＲＵ　ＷＯＲＫＳ,,株式会社,大阪府,豊中市,曽根南町３丁目１３番２,,27,203,5610804,,,,,,,2023-04-10,1,,,,,デキルワークス,0
523,2122001036868,新規,0,2023-04-10,2023-04-10,株式会社ＵＫＡＮ,,株式会社,大阪府,柏原市,古町１丁目５番２号スタイルプラス２０２号,,27,221,5820008,,,,,,,2023-04-10,1,,,,,ウカン,0
545,2140001129632,新規,0,2023-04-10,2023-04-10,株式会社ＢＭキャリア,,株式会社,兵庫県,三田市,武庫が丘５丁目１番地Ｉ棟６０４号,00130031,28,219,6691544,,,,,,,2023-04-10,1,,,,,ビーエムキャリア,0
546,2140001129657,新規,0,2023-04-10,2023-04-10,株式会社サードプレイス,,株式会社,兵庫県,尼崎市,西立花町２丁目１番８－２０１,,28,202,6600054,,,,,,,2023-04-10,1,,,,,サードプレイス,0
547,2140001129665,新規,0,2023-04-10,2023-04-10,六甲山観光分割準備株式会社,,株式会社,兵庫県,神戸市灘区,六甲山町一ケ谷１番３２号,,28,102,6570101,,,,,,,2023-04-10,1,,,,,ロッコウサンカンコウブンカツジュンビ,0
548,2140001129698,新規,0,2023-04-10,2023-04-10,株式会社丹生八勝道,,株式会社,兵庫県,宝塚市,平井１丁目２１番９号,,28,214,6650816,,,,,,,2023-04-10,1,,,,,ニブハッショウドウ,0
549,2140001129707,新規,0,2023-04-10,2023-04-10,株式会社４４コーポレーション,,株式会社,兵庫県,神戸市中央区,磯上通８丁目１番２９号カサベラビルＣ＆Ｍ,,28,110,6510086,,,,,,,2023-04-10,1,,,,,ヨシコーポレーション,0
550,2140001129715,新規,0,2023-04-10,2023-04-10,株式会社リタ,,株式会社,兵庫県,神戸市西区,天王山２５番地の６,,28,111,6512123,,,,,,,2023-04-10,1,,,,,リタ,0
551,2140001129780,新規,0,2023-04-10,2023-04-10,アールシージャパン株式会社,,株式会社,兵庫県,神戸市中央区,中山手通４丁目１０番８号３階フリージア,,28,110,6500004,,,,,,,2023-04-10,1,,,,,アールシージャパン,0
557,2140003018940,新規,0,2023-04-10,2023-04-10,合同会社オフィス１１５,,合同会社,兵庫県,伊丹市,安堂寺町３丁目６７,,28,207,6640864,,,,,,,2023-04-10,1,,,,,オフィスイチイチゴ,0
559,2150001026291,新規,0,2023-04-10,2023-04-10,株式会社鹿丸,,株式会社,奈良県,奈良市,東九条町８８３番地の４,,29,201,6308144,,,,,,,2023-04-10,1,,,,,シカマル,0
560,2150003002927,新規,0,2023-04-10,2023-04-10,合同会社ＴｉＴＡＮＳ,,合同会社,奈良県,奈良市,紀寺町９０８－９,,29,201,6308306,,,,,,,2023-04-10,1,,,,,ティターンズ,0
573,2180001155690,新規,0,2023-04-10,2023-04-10,株式会社ポリティブ,,株式会社,愛知県,名古屋市中村区,名駅４丁目２４番５号第２森ビル４０１,,23,105,4500002,,,,,,,2023-04-10,1,,,,,ポリティブ,0
574,2180001155708,新規,0,2023-04-10,2023-04-10,株式会社ＡｌｐｈａＢｌｉｎｋ,,株式会社,愛知県,名古屋市千種区,千種通６丁目２５番地－１４０１,,23,101,4640855,,,,,,,2023-04-10,1,,,,,アルファブリンク,0
575,2180001155807,新規,0,2023-04-10,2023-04-10,株式会社あんじゅ,,株式会社,愛知県,名古屋市中区,錦２丁目１１番２４号長者町コットンビル４Ｆ,,23,106,4600003,,,,,,,2023-04-10,1,,,,,アンジュ,0
581,2180003025066,新規,0,2023-04-10,2023-04-10,合同会社ＴＨＡＭＩ,,合同会社,愛知県,名古屋市中村区,長筬町２丁目１２,,23,105,4530839,,,,,,,2023-04-10,1,,,,,タミ,0
582,2180003025090,新規,0,2023-04-10,2023-04-10,合同会社ＮＫｓｙｓｔｅｍｓ,,合同会社,愛知県,津島市,東柳原町１丁目３７番地１,,23,208,4960045,,,,,,,2023-04-10,1,,,,,エヌケイシステムズ,0
587,2180301037242,新規,0,2023-04-10,2023-04-10,浅上株式会社,,株式会社,愛知県,刈谷市,若松町３丁目９番地ＹＦビル３階,,23,210,4480858,,,,,,,2023-04-10,1,,,,,アサガミ,0
588,2180301037259,新規,0,2023-04-10,2023-04-10,株式会社ティーエスイー,,株式会社,愛知県,岡崎市,丸山町字上ノ野３番地１,,23,202,4440006,,,,,,,2023-04-10,1,,,,,ティーエスイー,0
589,2180301037283,新規,0,2023-04-10,2023-04-10,三遠メディアミックス株式会社,,株式会社,愛知県,豊橋市,小畷町５９６番地,,23,201,4400873,,,,,,,2023-04-10,1,,,,,サンエンメディアミックス,0
592,2180303005676,新規,0,2023-04-10,2023-04-10,合同会社Ｒｏａｄ　Ｒ,,合同会社,愛知県,岡崎市,上地２丁目２４番地１７,,23,202,4440823,,,,,,,2023-04-10,1,,,,,ロードアール,0
608,2240001061313,新規,0,2023-04-10,2023-04-10,株式会社ＦＵＪＩＭＯＴＯ,,株式会社,広島県,福山市,沼隈町大字常石１０８３番地,,34,207,7200313,,,,,,,2023-04-10,1,,,,,フジモト,0
610,2240003006092,新規,0,2023-04-10,2023-04-10,合同会社えにしＣｏｒｐｏｒａｔｉｏｎ,,合同会社,広島県,豊田郡大崎上島町,中野４８０９番地９,,34,431,7250301,,,,,,,2023-04-10,1,,,,,エニシコーポレーション,0
613,2250001020045,新規,0,2023-04-10,2023-04-10,株式会社ＡＣＴ　ＳＡＩＫＹＯ,,株式会社,山口県,周南市,平和通１丁目１０番の２,,35,215,7450015,,,,,,,2023-04-10,1,,,,,アクトサイキョウ,0
616,2270003001512,新規,0,2023-04-10,2023-04-10,合同会社ことらぼ,,合同会社,鳥取県,東伯郡琴浦町,大字徳万４８３番地３,,31,371,6892303,,,,,,,2023-04-10,1,,,,,コトラボ,0
619,2280001008913,新規,0,2023-04-10,2023-04-10,株式会社ＨＯＬＹ,,株式会社,島根県,出雲市,中野町３１６番地３６,,32,203,6930062,,,,,,,2023-04-10,1,,,,,ホーリィ,0
623,2290001101097,新規,0,2023-04-10,2023-04-10,株式会社Ｋ‐ＳＴＹＬＥ,,株式会社,福岡県,糸島市,曽根５１２番地６,,40,230,8191561,,,,,,,2023-04-10,1,,,,,ケースタイル,0
624,2290001101130,新規,0,2023-04-10,2023-04-10,株式会社ＡＬＬ　ＦＯＸ,,株式会社,福岡県,朝倉市,甘木２３３番地１,,40,228,8380068,,,,,,,2023-04-10,1,,,,,オールフォックス,0
625,2290001101139,新規,0,2023-04-10,2023-04-10,株式会社ＪＵＳＴ,,株式会社,福岡県,福岡市中央区,赤坂２丁目１番２１－１３０４号ユーエムライフ赤坂けやき通り,,40,133,8100042,,,,,,,2023-04-10,1,,,,,ジャスト,0
631,2290801029439,新規,0,2023-04-10,2023-04-10,株式会社おがわショップ,,株式会社,福岡県,北九州市八幡西区,友田１丁目１１番５号,,40,109,8070828,,,,,,,2023-04-10,1,,,,,オガワショップ,0
632,2300001013258,新規,0,2023-04-10,2023-04-10,株式会社古賀ボデー,,株式会社,佐賀県,小城市,芦刈町道免１４６８番地２,00130008,41,208,8490316,,,,,,,2023-04-10,1,,,,,,0
637,2310003004543,新規,0,2023-04-10,2023-04-10,合同会社ＫＡＯＲＵ,,合同会社,長崎県,南松浦郡新上五島町,奈良尾郷８６２番地１３,,42,411,8533101,,,,,,,2023-04-10,1,,,,,,0
638,2320001019674,新規,0,2023-04-10,2023-04-10,株式会社ミラージャパン研究所,,株式会社,大分県,大分市,大字佐賀関２２３２番地の１５８,,44,201,8792201,,,,,,,2023-04-10,1,,,,,ミラージャパンケンキュウショ,0
639,2320005010068,新規,0,2023-04-10,2023-04-10,一般社団法人地域商社ＵＳＡ,,その他の設立登記法人,大分県,宇佐市,大字上田１０３０番地の１,,44,211,8790453,,,,,,,2023-04-10,1,,,,,チイキショウシャウサ,0
641,2330005010645,新規,0,2023-04-10,2023-04-10,一般社団法人ヴィーブルＦＵＮクラブ,,その他の設立登記法人,熊本県,合志市,福原２９２２番地,,43,216,8611116,,,,,,,2023-04-10,1,,,,,ヴィーブルファンクラブ,0
643,2340001025489,新規,0,2023-04-10,2023-04-10,中央防災システム株式会社,,株式会社,鹿児島県,鹿児島市,東開町３番地７号寺岡第二ビル１階,,46,201,8910115,,,,,,,2023-04-10,1,,,,,チュウオウボウサイシステム,0
648,2350001018285,新規,0,2023-04-10,2023-04-10,株式会社コネビル,,株式会社,宮崎県,宮崎市,恒久３丁目３０番地５ヒロセＡＰ１０２,,45,201,8800913,,,,,,,2023-04-10,1,,,,,コネビル,0
650,2360001031849,新規,0,2023-04-10,2023-04-10,株式会社３＆１,,株式会社,沖縄県,糸満市,字武富５９５番地の３７,,47,210,9010311,,,,,,,2023-04-10,1,,,,,スリーアンドワン,0
655,2370001049808,新規,0,2023-04-10,2023-04-10,シェノン株式会社,,株式会社,宮城県,仙台市青葉区,米ケ袋３丁目１番５－６号,,04,101,9800813,,,,,,,2023-04-10,1,,,,,シェノン,0
656,2370001049824,新規,0,2023-04-10,2023-04-10,株式会社ＭＴＣ,,株式会社,宮城県,宮城郡利府町,菅谷字産野原５４番地,,04,406,9810122,,,,,,,2023-04-10,1,,,,,エムティーシー,0
657,2370003006071,新規,0,2023-04-10,2023-04-10,合同会社Ｔ．Ｃｏｌｏｒ,,合同会社,宮城県,仙台市宮城野区,鶴ケ谷７丁目１９番地の１１サニーヴィラ１０２,,04,102,9830824,,,,,,,2023-04-10,1,,,,,ティーカラー,0
667,2410001013445,新規,0,2023-04-10,2023-04-10,安保電気工事株式会社,,株式会社,秋田県,鹿角市,花輪字諏訪野７３番地,,05,209,0185201,,,,,,,2023-04-10,1,,,,,アンボデンキコウジ,0
671,2430001088865,新規,0,2023-04-10,2023-04-10,株式会社荒木工業,,株式会社,北海道,札幌市白石区,川下一条５丁目２番１２号,,01,104,0030861,,,,,,,2023-04-10,1,,,,,アラキコウギョウ,0
677,2460101007367,新規,0,2023-04-10,2023-04-10,株式会社ＦＥＲＮＡ,,株式会社,北海道,帯広市,西五条北４丁目７番地８,,01,207,0800035,,,,,,,2023-04-10,1,,,,,フェルナ,0
681,2470001019552,新規,0,2023-04-10,2023-04-10,株式会社ガジュマル,,株式会社,香川県,小豆郡小豆島町,西村甲１４８５番地１,,37,324,7614434,,,,,,,2023-04-10,1,,,,,ガジュマル,0
684,2490001010443,新規,0,2023-04-10,2023-04-10,株式会社第一建装,,株式会社,高知県,高知市,朝倉東町２３番１７号,,39,201,7808076,,,,,,,2023-04-10,1,,,,,ダイイチケンソウ,0
686,2500003003014,新規,0,2023-04-10,2023-04-10,合同会社コネホ,,合同会社,愛媛県,西予市,宇和町坂戸６５９－１,,38,214,7970045,,,,,,,2023-04-10,1,,,,,コネホ,0
689,2700150115244,新規,0,2023-04-10,2023-04-10,新宮町下府土地区画整理組合,,その他,福岡県,糟屋郡新宮町,大字下府１１８１番地２,,40,345,8110112,,,,,,,2023-04-10,1,,,,,シングウマチシモノフトチクカクセイリクミアイ,0
690,2700150115252,新規,0,2023-04-10,2023-04-10,ｐｕｊｉａｎｇｘｉａｎｚｈｕｏｊｉａｎｓｈｕｉｊｉｎｇｇｏｎｇｙｉｐｉｎｙｏｕｘｉａｎｇｏｎｇｓｉ,,外国会社等,,,,,,,,ｐｕｙａｎｇｊｉｅｄａｏｂａｉｌｉｎｄｏｎｇｑｕ７－１ｈａｏ４ｃｅｎｇ６６２３　ｐｕｊｉａｎｇｘｉａｎ　ｚｈｅｊｉａｎｇｓｈｅｎｇ　３２２２００　ＣＮ,,,,,,2023-04-10,1,,,,,プージャンシエンジュオジエンシュイジンゴンイーピンヨウシエンゴンスー,0
707,3010001234171,新規,0,2023-04-10,2023-04-10,株式会社栞,,株式会社,東京都,中央区,日本橋浜町３丁目２０番２－６０７号,,13,102,1030007,,,,,,,2023-04-10,1,,,,,シオリ,0
708,3010001234213,新規,0,2023-04-10,2023-04-10,株式会社ＬＤｃｕｂｅ,,株式会社,東京都,千代田区,神田相生町１番地,,13,101,1010029,,,,,,,2023-04-10,1,,,,,エルディーキューブ,0
709,3010001234262,新規,0,2023-04-10,2023-04-10,株式会社エーフレンドリー,,株式会社,東京都,中央区,日本橋兜町９番１５号兜町住信ビル４階,,13,102,1030026,,,,,,,2023-04-10,1,,,,,エーフレンドリー,0
710,3010001234270,新規,0,2023-04-10,2023-04-10,株式会社ジムチョー,,株式会社,東京都,中央区,銀座６丁目１３番地１６号銀座Ｗａｌｌビル５０１,,13,102,1040061,,,,,,,2023-04-10,1,,,,,ジムチョー,0
711,3010001234345,新規,0,2023-04-10,2023-04-10,江上．ＪＰ株式会社,,株式会社,東京都,文京区,小石川２丁目２５番１０号,,13,105,1120002,,,,,,,2023-04-10,1,,,,,エガミドットジェイピー,0
712,3010001234378,新規,0,2023-04-10,2023-04-10,スマートハウスＪａｐａｎ株式会社,,株式会社,東京都,中央区,銀座１丁目１２番４号Ｎ＆ＥＢＬＤ．６Ｆ,,13,102,1040061,,,,,,,2023-04-10,1,,,,,スマートハウスジャパン,0
716,3010003040221,新規,0,2023-04-10,2023-04-10,Ａｌｔｒｅｅｅ合同会社,,合同会社,東京都,中央区,銀座１丁目２２－１１銀座大竹ビジデンス２Ｆ,,13,102,1040061,,,,,,,2023-04-10,1,,,,,アルトゥリー,0
717,3010003040270,新規,0,2023-04-10,2023-04-10,合同会社ファレスタ・パートナーズ,,合同会社,東京都,千代田区,神田須田町１丁目１６番地ＲＡＸＡ神田須田町４階,,13,101,1010041,,,,,,,2023-04-10,1,,,,,ファレスタパートナーズ,0
719,3010105002210,新規,0,2023-04-10,2023-04-10,一般社団法人はちねこ,,その他の設立登記法人,東京都,八王子市,千人町１丁目６番２号,,13,201,1930835,,,,,,,2023-04-10,1,,,,,ハチネコ,0
725,3010401173515,新規,0,2023-04-10,2023-04-10,株式会社ｓｔｅｅｌ,,株式会社,東京都,港区,南青山３丁目８番４０号青山センタービル２階,,13,103,1070062,,,,,,,2023-04-10,1,,,,,スティール,0
726,3010401173523,新規,0,2023-04-10,2023-04-10,株式会社ハクア,,株式会社,東京都,港区,赤坂７丁目６番４５－３０７号,,13,103,1070052,,,,,,,2023-04-10,1,,,,,ハクア,0
727,3010401173548,新規,0,2023-04-10,2023-04-10,株式会社Ｓｕｒｖｉｖａｌ　Ｃａｐｉｔａｌ　Ｐａｒｔｎｅｒｓ,,株式会社,東京都,港区,赤坂２丁目２１番５号ＡＢＣ・Ｃー１,,13,103,1070052,,,,,,,2023-04-10,1,,,,,サバイバルキャピタルパートナーズ,0
728,3010401173564,新規,0,2023-04-10,2023-04-10,Ｒｅｎｅｇａｄｅｓ’Ｍｕｓｉｃ株式会社,,株式会社,東京都,港区,南青山３丁目３番３号,,13,103,1070062,,,,,,,2023-04-10,1,,,,,レネゲイズミュージック,0
729,3010401173589,新規,0,2023-04-10,2023-04-10,株式会社Ａｐｐｌｅｚ,,株式会社,東京都,港区,南青山３丁目１番３６号青山丸竹ビル６Ｆ,,13,103,1070062,,,,,,,2023-04-10,1,,,,,アップルズ,0
730,3010401173655,新規,0,2023-04-10,2023-04-10,株式会社Ｃｏｎｔｒｏｌ　Ｇａｍｅｓ,,株式会社,東京都,港区,海岸１丁目４番２２号,,13,103,1050022,,,,,,,2023-04-10,1,,,,,コントロールゲームス,0
731,3010403029847,新規,0,2023-04-10,2023-04-10,合同会社コースカ,,合同会社,東京都,港区,赤坂２丁目１０番５号税理士法人赤坂国際会計事務所内,,13,103,1070052,,,,,,,2023-04-10,1,,,,,コースカ,0
732,3010403029871,新規,0,2023-04-10,2023-04-10,Ｔｈｅ　Ｂａｕｈｉｎｉａ　Ｈｏｔｅｌｓ　Ｇｒｏｕｐ　Ｊａｐａｎ　Ｉ合同会社,,合同会社,東京都,港区,赤坂３丁目２番２号日総第２４ビル,,13,103,1070052,,,,,,,2023-04-10,1,,,,,ザバウヒニアホテルズグループジャパンアイ,0
734,3010405022024,新規,0,2023-04-10,2023-04-10,ＭＦＴＪＰＮ６特定目的会社,,その他の設立登記法人,東京都,港区,虎ノ門３丁目２２番１０－２０１号,,13,103,1050001,,,,,,,2023-04-10,1,,,,,エムエフティージェイピーエヌシックス,0
736,3010503006944,新規,0,2023-04-10,2023-04-10,リフォーカスジャパン合同会社,,合同会社,東京都,台東区,入谷１丁目４番３－５０１号,,13,106,1100013,,,,,,,2023-04-10,1,,,,,リフォーカスジャパン,0
738,3010601062880,新規,0,2023-04-10,2023-04-10,株式会社Ｒａｍｃｈａｉ,,株式会社,東京都,墨田区,両国１丁目６番７－１００３号,,13,107,1300026,,,,,,,2023-04-10,1,,,,,ランチャイ,0
758,3011001153568,新規,0,2023-04-10,2023-04-10,株式会社マイストーリーインカード,,株式会社,東京都,渋谷区,道玄坂１丁目１０番８号渋谷道玄坂東急ビル２Ｆ－Ｃ,,13,113,1500043,,,,,,,2023-04-10,1,,,,,マイストーリーインカード,0
759,3011001153584,新規,0,2023-04-10,2023-04-10,株式会社アックスグループ,,株式会社,東京都,渋谷区,富ヶ谷１丁目３２番２５号３０６,,13,113,1510063,,,,,,,2023-04-10,1,,,,,アックスグループ,0
760,3011001153592,新規,0,2023-04-10,2023-04-10,ＷＨＩＴＥ　ＰＡＰＥＲ　ＡＴＥＬＩＥＲ株式会社,,株式会社,東京都,目黒区,東が丘１丁目１３番１５号３０３室,,13,110,1520021,,,,,,,2023-04-10,1,,,,,ホワイトペーパーアトリエ,0
761,3011001153626,新規,0,2023-04-10,2023-04-10,株式会社Ａｃｃｏｍｐｒｅｅ,,株式会社,東京都,渋谷区,神南１丁目１１番５－４０１号,,13,113,1500041,,,,,,,2023-04-10,1,,,,,アコンプリー,0
762,3011001153650,新規,0,2023-04-10,2023-04-10,株式会社エムズ・アイ,,株式会社,東京都,渋谷区,西原１丁目２４番２号,,13,113,1510066,,,,,,,2023-04-10,1,,,,,エムズアイ,0
763,3011001153659,新規,0,2023-04-10,2023-04-10,株式会社一刃,,株式会社,東京都,渋谷区,渋谷２丁目１９番１５－６０９号宮益坂ビルディング,,13,113,1500002,,,,,,,2023-04-10,1,,,,,イチジン,0
764,3011001153725,新規,0,2023-04-10,2023-04-10,株式会社Ｎ‐ａｒｃｘ,,株式会社,東京都,渋谷区,本町３丁目３１番３号－４０５,,13,113,1510071,,,,,,,2023-04-10,1,,,,,エヌアークス,0
768,3011101102433,新規,0,2023-04-10,2023-04-10,株式会社トラベルＤＸジャパン,,株式会社,東京都,新宿区,新宿２丁目９番２０号,,13,104,1600022,,,,,,,2023-04-10,1,,,,,トラベルデイエックスジャパン,0
771,3011103012911,新規,0,2023-04-10,2023-04-10,合同会社ＵＵＮＩ,,合同会社,東京都,新宿区,四谷４丁目１８－１６十色ハウス２０１,,13,104,1600004,,,,,,,2023-04-10,1,,,,,ウーニ,0
773,3011105010624,新規,0,2023-04-10,2023-04-10,一般社団法人東京神楽坂組合,,その他の設立登記法人,東京都,新宿区,神楽坂３丁目６番地,,13,104,1620825,,,,,,,2023-04-10,1,,,,,トウキョウカグラザカクミアイ,0
775,3011201024536,新規,0,2023-04-10,2023-04-10,株式会社ウラタ,,株式会社,東京都,中野区,大和町３丁目４３番３号、ラビアン大和Ｂ１,,13,114,1650034,,,,,,,2023-04-10,1,,,,,ウラタ,0
777,3011301028610,新規,0,2023-04-10,2023-04-10,株式会社ＴＯ　ＰＬＡＣＥ,,株式会社,東京都,杉並区,永福２丁目３３番６号,,13,115,1680064,,,,,,,2023-04-10,1,,,,,トゥープレイス,0
784,3011601026710,新規,0,2023-04-10,2023-04-10,エモーションピクチャーズ株式会社,,株式会社,東京都,練馬区,大泉学園町３丁目２３番１０号,,13,120,1780061,,,,,,,2023-04-10,1,,,,,エモーションピクチャーズ,0
785,3011603003889,新規,0,2023-04-10,2023-04-10,ＴＦベガ合同会社,,合同会社,東京都,練馬区,氷川台４丁目４７番１８号,,13,120,1790084,,,,,,,2023-04-10,1,,,,,ティーエフベガ,0
790,3012401040380,新規,0,2023-04-10,2023-04-10,株式会社ｋｉｆｋｉｆ,,株式会社,東京都,武蔵野市,吉祥寺北町３丁目５番３９－６０２号,,13,203,1800001,,,,,,,2023-04-10,1,,,,,キフキフ,0
792,3012403005927,新規,0,2023-04-10,2023-04-10,合同会社ｋｓ　ａｃｃｏｕｎｔｉｎｇ,,合同会社,東京都,武蔵野市,吉祥寺本町１丁目１３－２シラカバビル５Ｆ,,13,203,1800004,,,,,,,2023-04-10,1,,,,,ケーエスアカウンティング,0
794,3012801022251,新規,0,2023-04-10,2023-04-10,株式会社ＤｒｅａＭ,,株式会社,東京都,立川市,富士見町５丁目１９番２２号,,13,202,1900013,,,,,,,2023-04-10,1,,,,,ドリーム,0
802,3020001151036,新規,0,2023-04-10,2023-04-10,ｍｙｄｉｏ株式会社,,株式会社,神奈川県,横浜市西区,浅間町１丁目４番３号ウィザードビル４０２,,14,103,2200072,,,,,,,2023-04-10,1,,,,,マイディオ,0
803,3020001151060,新規,0,2023-04-10,2023-04-10,株式会社ＫＹＭ,,株式会社,神奈川県,横浜市緑区,三保町２６４０番地１５,,14,113,2260015,,,,,,,2023-04-10,1,,,,,ケイワイエム,0
804,3020001151085,新規,0,2023-04-10,2023-04-10,株式会社Ｐｅａｃｅ　Ｒｅａｌ　Ｅｓｔａｔｅ,,株式会社,神奈川県,横浜市青葉区,桂台２丁目１３番地４,,14,117,2270034,,,,,,,2023-04-10,1,,,,,ピースリアルエステート,0
811,3020005015930,新規,0,2023-04-10,2023-04-10,医療法人フジコド,,その他の設立登記法人,神奈川県,横浜市磯子区,森１丁目９番１号アクロスキューブ磯子３０５,,14,107,2350023,,,,,,,2023-04-10,1,,,,,フジコド,0
812,3020005015939,新規,0,2023-04-10,2023-04-10,医療法人社団桔梗会,,その他の設立登記法人,神奈川県,横浜市中区,長者町５丁目５３番地横浜伊勢佐木町ホテルビル１階部分１０２区画,,14,104,2310033,,,,,,,2023-04-10,1,,,,,シャダンキキョウカイ,0
813,3021001078624,新規,0,2023-04-10,2023-04-10,湘南あすなろコンサルティング株式会社,,株式会社,神奈川県,藤沢市,本鵠沼５丁目１番１８びゅうパルク湘南本鵠沼４０５号,,14,205,2510028,,,,,,,2023-04-10,1,,,,,ショウナンアスナロコンサルティング,0
814,3021001078632,新規,0,2023-04-10,2023-04-10,株式会社ＰＯＭＥＡ,,株式会社,神奈川県,伊勢原市,板戸４３８番地１４,,14,214,2591145,,,,,,,2023-04-10,1,,,,,ポメア,0
822,3030001153122,新規,0,2023-04-10,2023-04-10,加倉コンクリート株式会社,,株式会社,埼玉県,さいたま市岩槻区,大字加倉２３９番地１,,11,110,3390056,,,,,,,2023-04-10,1,,,,,カクラコンクリート,0
823,3030001153221,新規,0,2023-04-10,2023-04-10,株式会社ＯＹファクトリー,,株式会社,埼玉県,さいたま市緑区,大字三室２３６３番地２,,11,109,3360911,,,,,,,2023-04-10,1,,,,,オーワイファクトリー,0
828,3030003021500,新規,0,2023-04-10,2023-04-10,合同会社ＡｚＰｒｏｊｅｃｔ,,合同会社,埼玉県,新座市,栄３丁目６番１４号,,11,230,3520014,,,,,,,2023-04-10,1,,,,,アズプロジェクト,0
829,3030005021192,新規,0,2023-04-10,2023-04-10,医療法人爽成会,,その他の設立登記法人,埼玉県,さいたま市大宮区,桜木町１丁目２６６番地１２ＧｒａｎｄｉｏＳａｋｕｒａｇｉｃｈｏ３階,,11,103,3300854,,,,,,,2023-04-10,1,,,,,ソウセイカイ,0
836,3050001052644,新規,0,2023-04-10,2023-04-10,株式会社ＤＡＲＥＳ,,株式会社,茨城県,ひたちなか市,大字佐和３０３９番地３,,08,221,3120001,,,,,,,2023-04-10,1,,,,,デアーズ,0
838,3050003007398,新規,0,2023-04-10,2023-04-10,合同会社ＩＣＴＢコンサルタント,,合同会社,茨城県,ひたちなか市,柳が丘８番地１０,,08,221,3111232,,,,,,,2023-04-10,1,,,,,アイシーティービーコンサルタント,0
839,3050005013246,新規,0,2023-04-10,2023-04-10,医療法人報國会,,その他の設立登記法人,茨城県,ひたちなか市,大字田彦１３９１番地２,,08,221,3120063,,,,,,,2023-04-10,1,,,,,ホウコクカイ,0
840,3060003004502,新規,0,2023-04-10,2023-04-10,合同会社ｒｏｐｏｓ,,合同会社,栃木県,那須郡那須町,大字高久丙海道下４５１４－５,,09,407,3250302,,,,,,,2023-04-10,1,,,,,ロポス,0
843,3070001040291,新規,0,2023-04-10,2023-04-10,ループ電業株式会社,,株式会社,群馬県,伊勢崎市,柳原町４４番地５,,10,204,3720054,,,,,,,2023-04-10,1,,,,,ループデンギョウ,0
844,3070001040309,新規,0,2023-04-10,2023-04-10,Ｋ‐ｔｒｕｃｋ株式会社,,株式会社,群馬県,高崎市,倉渕町川浦１０９３番地,,10,202,3703405,,,,,,,2023-04-10,1,,,,,ケートラック,0
853,3080003002958,新規,0,2023-04-10,2023-04-10,合同会社大正,,合同会社,静岡県,島田市,東町８４４番地,,22,209,4270011,,,,,,,2023-04-10,1,,,,,タイショウ,0
856,3080101023906,新規,0,2023-04-10,2023-04-10,株式会社Ａ．Ｓ．Ｃ,,株式会社,静岡県,沼津市,下香貫馬場４３９番地の１,,22,203,4100822,,,,,,,2023-04-10,1,,,,,エーエスシー,0
860,3080403004769,新規,0,2023-04-10,2023-04-10,合同会社ｎｏｍａ,,合同会社,静岡県,浜松市中区,新津町６４７ＴＫビルＩＩ,00130015,22,131,4300911,,,,,,,2023-04-10,1,,,,,ノーマ,0
866,3100001036286,新規,0,2023-04-10,2023-04-10,株式会社サン農事センター,,株式会社,長野県,佐久市,野沢１番地,,20,217,3850053,,,,,,,2023-04-10,1,,,,,サンノウジセンター,0
867,3110001037408,新規,0,2023-04-10,2023-04-10,株式会社ＯＪＳｓｅｒｖｉｃｅ,,株式会社,新潟県,上越市,柿崎区直海浜１４２２番地２０,,15,222,9493215,,,,,,,2023-04-10,1,,,,,オージェイエスサービス,0
868,3110001037416,新規,0,2023-04-10,2023-04-10,株式会社マサキ板金,,株式会社,新潟県,長岡市,三島上条１８３番地１,,15,202,9402323,,,,,,,2023-04-10,1,,,,,マサキバンキン,0
878,3120001253838,新規,0,2023-04-10,2023-04-10,株式会社ＯＷＬ,,株式会社,大阪府,大阪市東成区,東中本３丁目７番２５号１階,,27,115,5370021,,,,,,,2023-04-10,1,,,,,アウル,0
886,3120005023568,新規,0,2023-04-10,2023-04-10,一般社団法人ウィズアップあんしんサポート協会,,その他の設立登記法人,大阪府,大阪市中央区,島之内１丁目２２番２０号,,27,128,5420082,,,,,,,2023-04-10,1,,,,,ウィズアップアンシンサポートキョウカイ,0
888,3120101067320,新規,0,2023-04-10,2023-04-10,株式会社宏栄商会,,株式会社,大阪府,富田林市,津々山台１丁目１９番２０号,,27,214,5840086,,,,,,,2023-04-10,1,,,,,コウエイショウカイ,0
891,3120901047331,新規,0,2023-04-10,2023-04-10,ユウキ工業株式会社,,株式会社,大阪府,摂津市,鶴野４丁目２１番２３－４０２号,,27,224,5660035,,,,,,,2023-04-10,1,,,,,ユウキコウギョウ,0
895,3130001074011,新規,0,2023-04-10,2023-04-10,株式会社グリード,,株式会社,京都府,福知山市,字長田２４４番地の３,,26,201,6200000,,,,,,,2023-04-10,1,,,,,グリード,0
896,3130001074028,新規,0,2023-04-10,2023-04-10,株式会社フレグランスプロジェクト,,株式会社,京都府,京都市東山区,清水寺門前産寧坂北入清水三丁目３４８番,,26,105,6050000,,,,,,,2023-04-10,1,,,,,フレグランスプロジェクト,0
897,3130001074036,新規,0,2023-04-10,2023-04-10,株式会社レジット・クリーン,,株式会社,京都府,京都市下京区,七条通油小路東入大黒町２２７番地第２キョートビル４０２,,26,106,6008223,,,,,,,2023-04-10,1,,,,,レジットクリーン,0
902,3130005016736,新規,0,2023-04-10,2023-04-10,一般社団法人日本養生普及協会,,その他の設立登記法人,京都府,南丹市,日吉町保野田ヒノ谷６番地１明治国際医療大学内,,26,213,6290301,,,,,,,2023-04-10,1,,,,,ニホンヨウジョウフキュウキョウカイ,0
903,3130005016744,新規,0,2023-04-10,2023-04-10,特定非営利活動法人敬天愛人会,,その他の設立登記法人,京都府,京都市北区,平野宮敷町８－３ピエールカンパーニュ３階,,26,101,6038365,,,,,,,2023-04-10,1,,,,,ケイテンアイジンカイ,0
912,3140001129648,新規,0,2023-04-10,2023-04-10,株式会社サンテックジャパン,,株式会社,兵庫県,姫路市,勝原区下太田２２２番地１プラ・ディオビル２階,,28,201,6711201,,,,,,,2023-04-10,1,,,,,サンテックジャパン,0
913,3140001129656,新規,0,2023-04-10,2023-04-10,瑞輝工業株式会社,,株式会社,兵庫県,相生市,古池本町５番２５号,,28,208,6780025,,,,,,,2023-04-10,1,,,,,ミズキコウギョウ,0
914,3140001129664,新規,0,2023-04-10,2023-04-10,大月興産株式会社,,株式会社,兵庫県,神戸市中央区,港島中町６丁目４番１,,28,110,6500046,,,,,,,2023-04-10,1,,,,,オオツキコウサン,0
915,3140001129672,新規,0,2023-04-10,2023-04-10,株式会社ＮＯＢＬＥ　ＳＵＰＰＯＲＴ,,株式会社,兵庫県,神戸市中央区,港島中町６丁目１４番地ポートピアプラザＢ棟５０４号,,28,110,6500046,,,,,,,2023-04-10,1,,,,,ノウブルサポート,0
916,3140001129689,新規,0,2023-04-10,2023-04-10,株式会社モノリス,,株式会社,兵庫県,伊丹市,昆陽東１丁目２番３－４０１号,,28,207,6640886,,,,,,,2023-04-10,1,,,,,モノリス,0
917,3140001129722,新規,0,2023-04-10,2023-04-10,株式会社Ｈａｍａｔａｎｉ　Ｅ．,,株式会社,兵庫県,神戸市北区,長尾町宅原２３４番地,,28,109,6511511,,,,,,,2023-04-10,1,,,,,ハマタニイードット,0
924,3140003018923,新規,0,2023-04-10,2023-04-10,合同会社アイ・エム・エス,,合同会社,兵庫県,芦屋市,公光町８番１１－３０２号,,28,206,6590065,,,,,,,2023-04-10,1,,,,,アイエムエス,0
929,3140005026536,新規,0,2023-04-10,2023-04-10,一般社団法人ＳＤＧｓ人的資本認定機構,,その他の設立登記法人,兵庫県,神戸市中央区,東町１２３番地の１貿易ビル４Ｆ,,28,110,6500031,,,,,,,2023-04-10,1,,,,,エスディジーズジンテキシホンキコウ,0
930,3150001026290,新規,0,2023-04-10,2023-04-10,株式会社奈良うま直販フレッシュ,,株式会社,奈良県,北葛城郡広陵町,大字三吉４７９番地１－１０２,,29,426,6350823,,,,,,,2023-04-10,1,,,,,ナラウマチョクハンフレッシュ,0
932,3160001024938,新規,0,2023-04-10,2023-04-10,株式会社ＧＡＮＴＥＣ,,株式会社,滋賀県,湖南市,梅影町２番地３ＶＩＬＬＡＩＮＦＩＮＩＴＹ２－１１１号,,25,211,5203214,,,,,,,2023-04-10,1,,,,,ガンテック,0
933,3160001024962,新規,0,2023-04-10,2023-04-10,株式会社ＲＩＫＵ,,株式会社,滋賀県,彦根市,西今町９１３番地２,,25,202,5220054,,,,,,,2023-04-10,1,,,,,リク,0
934,3160001024970,新規,0,2023-04-10,2023-04-10,株式会社ｎｏＲａ,,株式会社,滋賀県,東近江市,東今崎町７番３３号,,25,213,5270037,,,,,,,2023-04-10,1,,,,,ノラ,0
943,3180001155707,新規,0,2023-04-10,2023-04-10,株式会社カネスエ・あーすワン,,株式会社,愛知県,一宮市,下川田町５丁目２番地,,23,203,4910845,,,,,,,2023-04-10,1,,,,,カネスエアースワン,0
944,3180001155756,新規,0,2023-04-10,2023-04-10,株式会社Ｂ,,株式会社,愛知県,北名古屋市,熊之庄六の坪２３番地,,23,234,4810006,,,,,,,2023-04-10,1,,,,,ビー,0
945,3180001155806,新規,0,2023-04-10,2023-04-10,株式会社ｋａｒｅｎ,,株式会社,愛知県,名古屋市名東区,藤森２丁目１－１,,23,115,4650026,,,,,,,2023-04-10,1,,,,,カレン,0
950,3180003025081,新規,0,2023-04-10,2023-04-10,商和合同会社,,合同会社,愛知県,名古屋市中村区,名駅４丁目２４番５号第２森ビル４０１,,23,105,4500002,,,,,,,2023-04-10,1,,,,,ショウワ,0
954,3180301037266,新規,0,2023-04-10,2023-04-10,株式会社ＨＲＣ,,株式会社,愛知県,岡崎市,美合町字南屋敷２３番地,,23,202,4440802,,,,,,,2023-04-10,1,,,,,エイチアールシー,0
955,3180301037290,新規,0,2023-04-10,2023-04-10,株式会社ＷＨ,,株式会社,愛知県,豊橋市,大岩町字東荒田１８８番地１,,23,201,4413132,,,,,,,2023-04-10,1,,,,,ダブリューエイチ,0
963,3200003005923,新規,0,2023-04-10,2023-04-10,合同会社ＳＹＴＡ,,合同会社,岐阜県,大垣市,見取町１丁目１０７番地,,21,202,5030025,,,,,,,2023-04-10,1,,,,,シータ,0
971,3240001061337,新規,0,2023-04-10,2023-04-10,株式会社ＡＢＡＭＯＴ,,株式会社,広島県,広島市西区,三滝本町２丁目４番３２―５０３号,,34,104,7330802,,,,,,,2023-04-10,1,,,,,アバモット,0
974,3250001020044,新規,0,2023-04-10,2023-04-10,株式会社訪問看護ステーション心萩,,株式会社,山口県,萩市,大字椿東２５３１番地１,,35,204,7580011,,,,,,,2023-04-10,1,,,,,ホウモンカンゴステーションコハギ,0
977,3270001008756,新規,0,2023-04-10,2023-04-10,株式会社ＤＥＥＰ　ＣＯＮＮＥＣＴ,,株式会社,鳥取県,米子市,両三柳２００番地２０１号,,31,202,6830853,,,,,,,2023-04-10,1,,,,,ディープコネクト,0
980,3280001008912,新規,0,2023-04-10,2023-04-10,Ｎａｇｉｓａ株式会社,,株式会社,島根県,出雲市,高岡町６３番地７,,32,203,6930066,,,,,,,2023-04-10,1,,,,,ナギサ,0
994,3290001101096,新規,0,2023-04-10,2023-04-10,株式会社余白,,株式会社,福岡県,久留米市,津福今町２９５番地２９,,40,203,8300061,,,,,,,2023-04-10,1,,,,,ヨハク,0
1000,3310001018346,新規,0,2023-04-10,2023-04-10,株式会社トリプルケー,,株式会社,長崎県,諫早市,長田町１２３－１,,42,204,8590301,,,,,,,2023-04-10,1,,,,,トリプルケー,0
1003,3320001019673,新規,0,2023-04-10,2023-04-10,ｉｍａｄｉａ株式会社,,株式会社,大分県,大分市,大字奥田６８７－３Ｔｈｅ　Ｂｌｕｅ　Ｔｅｒｒａｃｅ　２０３,,44,201,8700100,,,,,,,2023-04-10,1,,,,,イマディア,0
1011,3340001025488,新規,0,2023-04-10,2023-04-10,深正海洋開発漁業株式会社,,株式会社,鹿児島県,南さつま市,坊津町坊９３２１番地２５,,46,220,8980101,,,,,,,2023-04-10,1,,,,,シンセイカイヨウカイハツギョギョウ,0
1021,3360001031823,新規,0,2023-04-10,2023-04-10,株式会社ＵＰＳＥＴＴＥ,,株式会社,沖縄県,南城市,佐敷字佐敷４１８番地,,47,215,9011403,,,,,,,2023-04-10,1,,,,,アップセッテ,0
1027,3370001049823,新規,0,2023-04-10,2023-04-10,株式会社吉岡実業,,株式会社,宮城県,仙台市青葉区,芋沢字綱木４２番地の８,,04,101,9893212,,,,,,,2023-04-10,1,,,,,ヨシオカジツギョウ,0
1032,3380001033603,新規,0,2023-04-10,2023-04-10,Ｌｕｍｉｃｓ株式会社,,株式会社,福島県,会津若松市,一箕町大字亀賀字藤原３１７番地の１,,07,202,9650005,,,,,,,2023-04-10,1,,,,,ルミックス,0
1039,3390001017209,新規,0,2023-04-10,2023-04-10,株式会社セノバン,,株式会社,山形県,山形市,吉原１丁目４番５号,,06,201,9902451,,,,,,,2023-04-10,1,,,,,セノバン,0
1042,3400001016200,新規,0,2023-04-10,2023-04-10,株式会社ＡＥＲＵ,,株式会社,岩手県,盛岡市,北天昌寺町３番１８号,,03,201,0200136,,,,,,,2023-04-10,1,,,,,アエル,0
1049,3410005006510,新規,0,2023-04-10,2023-04-10,一般社団法人三種町シルバー人材センター,,その他の設立登記法人,秋田県,山本郡三種町,大口字上の沢１７番地４,,05,348,0182406,,,,,,,2023-04-10,1,,,,,ミタネチョウシルバージンザイセンター,0
1052,3430001088765,新規,0,2023-04-10,2023-04-10,サイサ株式会社,,株式会社,北海道,札幌市北区,北七条西２丁目８番地１札幌北ビルディング９階リージャス札幌北ビルビジネスセンター９０９号,,01,102,0600807,,,,,,,2023-04-10,1,,,,,サイサ,0
1069,3500003003013,新規,0,2023-04-10,2023-04-10,エイブルトランスポート合同会社,,合同会社,愛媛県,西条市,洲之内甲１０３０番地２,,38,206,7930053,,,,,,,2023-04-10,1,,,,,エイブルトランスポート,0
1071,3700150114988,新規,0,2023-04-10,2023-03-27,淡路パークハイツ団地管理組合,,その他,大阪府,大阪市東淀川区,下新庄２丁目３－１２,,27,114,5330021,,,,,,,2023-03-27,1,,,,,アワジパークハイツダンチカンリクミアイ,0
1072,3700150115227,新規,0,2023-04-10,2023-04-10,Ｈａｎｊｉｎ　ｉｎｔｅｒｍｏｄａｌ　Ａｍｅｒｉｃａ，Ｉｎｃ,,外国会社等,,,,,,,,１５９１３　Ｓ．Ｍａｉｎ　Ｓｔ　Ｇａｒｄｅｎａ，ＣＡ　９０２４８　ＵＳＡ,,,,,,2023-04-10,1,,,,,ハンジンインターモーダルアメリカインク,0
1073,3700150115235,新規,0,2023-04-10,2023-04-10,Ｚｈｅｎｇｚｈｏｕ　Ｄａｔｏｕ　Ａｕｔｏｍｏｔｉｖｅ　Ｐｒｏｄｕｃｔｓ　Ｃｏ．，Ｌｔｄ,,外国会社等,,,,,,,,Ｍｉａｏｗａｎｇ　Ｒｏａｄ　ａｎｄ　Ｇｏｎｇｙｅ　Ｒｏａｄ　Ｉｎｔｅｒｓｅｃｔｉｏｎ　１０００　ｍｅｔｅｒｓ　Ｗｅｓｔ　Ｘｉｎｇｙａｎｇｓｈｉ　Ｚｈｅｎｇｚｈｏｕｓｈｉ　Ｈｅｎａｎ　Ｚｈｅｎｇｚｈｏｕ　Ｈｅｎａｎ　４５０１００　ＣＮ,,,,,,2023-04-10,1,,,,,テイシユウダイトウジゴウシヤヨウヒンユウゲンコウシ,0
1074,3700150115251,新規,0,2023-04-10,2023-04-10,ｑｉａｎ　ｄｕ　ｄｉａｎ　ｚｉ　ｓｈａｎｇ　ｗｕ　ｙｏｕｘｉａｎｇｏｎｇｓｉ,,外国会社等,,,,,,,,３ｒｄ　Ｆｌｏｏｒ，Ｎｏ．６，ｙａｎｈｅ　ｒｏａｄ，ｇｕｗｕｃｕｎｂｅｉｑｕ　ｇｏｎｇｌｉａｎｓｈｅｑｕ，ｗａｎｊｉａｎｇｊｉｅｄａｏ　ｗａｎｊｉａｎｇ　Ｄｏｎｇｇｕａｎ　５２３０００　ＣＮ,,,,,,2023-04-10,1,,,,,ドングワンシーチエンドゥーディエンズーシャンウーヨウシエンゴンスー,0
1085,4010001234179,新規,0,2023-04-10,2023-04-10,Ｍａｇｒｏｏｔｓテクノロジー株式会社,,株式会社,東京都,中央区,日本橋室町１丁目１１番１２号日本橋水野ビル７階,,13,102,1030022,,,,,,,2023-04-10,1,,,,,マグルーズテクノロジー,0
1086,4010001234261,新規,0,2023-04-10,2023-04-10,株式会社オールペア,,株式会社,東京都,中央区,京橋２丁目６番１７号ＶＯＲＴ京橋ＩＩＩ,00130010,13,102,1040031,,,,,,,2023-04-10,1,,,,,オールペア,0
1089,4010003040261,新規,0,2023-04-10,2023-04-10,合同会社ＢｅＳａｌｕｓ,,合同会社,東京都,文京区,本郷１丁目２８番８－３０３号,,13,105,1130033,,,,,,,2023-04-10,1,,,,,ビーサルース,0
1091,4010101015586,新規,0,2023-04-10,2023-04-10,株式会社デジタル人材開発サポート,,株式会社,東京都,八王子市,旭町１－１セレオ八王子北館９Ｆ、ＳｔａｔｉｏｎＳｗｉｔｃｈポスト１号,,13,201,1920083,,,,,,,2023-04-10,1,,,,,デジタルジンザイカイハツサポート,0
1092,4010101015594,新規,0,2023-04-10,2023-04-10,株式会社Ｒｉｔａリフォーム,,株式会社,東京都,八王子市,旭町１１番５号ＣＰ－６ビル２階,,13,201,1920083,,,,,,,2023-04-10,1,,,,,リタリフォーム,0
1096,4010401173522,新規,0,2023-04-10,2023-04-10,株式会社ブロウミュージック,,株式会社,東京都,港区,海岸１丁目２番３号汐留芝離宮ビルディング２１階,,13,103,1050022,,,,,,,2023-04-10,1,,,,,ブロウミュージック,0
1097,4010401173530,新規,0,2023-04-10,2023-04-10,株式会社ｃｏｓｅｉｒｏ,,株式会社,東京都,港区,南青山２丁目１５番５号ＦＡＲＯ青山１階,,13,103,1070062,,,,,,,2023-04-10,1,,,,,コセイロ,0
1098,4010401173588,新規,0,2023-04-10,2023-04-10,ワールドシェアリング株式会社,,株式会社,東京都,港区,六本木７丁目１５番１３号六本木ダイヤハイツ９１２号室,,13,103,1060032,,,,,,,2023-04-10,1,,,,,ワールドシェアリング,0
1102,4010405021982,新規,0,2023-04-10,2023-04-10,武蔵小杉ホールディング２一般社団法人,,その他の設立登記法人,東京都,港区,虎ノ門３丁目２２番１０－２０１号,,13,103,1050001,,,,,,,2023-04-10,1,,,,,ムサシコスギホールディングツー,0
1109,4010601062871,新規,0,2023-04-10,2023-04-10,ＪＩＮＣＲＡＦＴ株式会社,,株式会社,東京都,墨田区,文花２丁目１９番２号,,13,107,1310044,,,,,,,2023-04-10,1,,,,,ジンクラフト,0
1110,4010601062896,新規,0,2023-04-10,2023-04-10,株式会社ＡＱＵＯ,,株式会社,東京都,江東区,豊洲３丁目５番２１－５２４号,,13,108,1350061,,,,,,,2023-04-10,1,,,,,アクオ,0
1117,4010603010093,新規,0,2023-04-10,2023-04-10,合同会社レイワ企画,,合同会社,東京都,墨田区,業平３丁目１１番７－２０３号,,13,107,1300002,,,,,,,2023-04-10,1,,,,,レイワキカク,0
1123,4010901052804,新規,0,2023-04-10,2023-04-10,株式会社ＭＡＤＡＮＡＩ,,株式会社,東京都,世田谷区,成城４丁目４番１０号,,13,112,1570066,,,,,,,2023-04-10,1,,,,,マダナイ,0
1130,4011001153559,新規,0,2023-04-10,2023-04-10,エクシアロジスティックス株式会社,,株式会社,東京都,渋谷区,千駄ヶ谷３丁目３番３１号アルティーム原宿３０２,,13,113,1510051,,,,,,,2023-04-10,1,,,,,エクシアロジスティックス,0
1131,4011001153609,新規,0,2023-04-10,2023-04-10,株式会社ＳＯＡＲ,,株式会社,東京都,渋谷区,渋谷２丁目１９－１５宮益坂ビルディング６０９,,13,113,1500002,,,,,,,2023-04-10,1,,,,,ソア,0
1132,4011001153666,新規,0,2023-04-10,2023-04-10,ミニウム株式会社,,株式会社,東京都,渋谷区,道玄坂１丁目１０番８号渋谷道玄坂東急ビル１Ｆ,,13,113,1500043,,,,,,,2023-04-10,1,,,,,ミニウム,0
1133,4011003016581,新規,0,2023-04-10,2023-04-10,Ｎｅｉｌｓｏｆｔ合同会社,,合同会社,東京都,渋谷区,千駄ヶ谷５丁目２７番１３号,,13,113,1510051,,,,,,,2023-04-10,1,,,,,ニールソフト,0
1134,4011003016607,新規,0,2023-04-10,2023-04-10,合同会社Ｊｏｂ　Ｖ,,合同会社,東京都,渋谷区,桜丘町２３番１７号シティコート桜丘４０８,,13,113,1500031,,,,,,,2023-04-10,1,,,,,ジョブイ,0
1139,4011101102432,新規,0,2023-04-10,2023-04-10,株式会社リクレボ,,株式会社,東京都,新宿区,西新宿３丁目３番１３号西新宿水間ビル６階,,13,104,1600023,,,,,,,2023-04-10,1,,,,,リクレボ,0
1140,4011103012910,新規,0,2023-04-10,2023-04-10,合同会社アドバリューコンサルティング,,合同会社,東京都,新宿区,四谷１丁目８番地１４四谷一丁目ビル６階,,13,104,1600004,,,,,,,2023-04-10,1,,,,,アドバリューコンサルティング,0
1141,4011105010623,新規,0,2023-04-10,2023-04-10,一般社団法人トート,,その他の設立登記法人,東京都,新宿区,下宮比町３番１号津多屋ビル３階,,13,104,1620822,,,,,,,2023-04-10,1,,,,,,0
1144,4011203004048,新規,0,2023-04-10,2023-04-10,どんぐり不動産合同会社,,合同会社,東京都,中野区,上鷺宮５丁目８番３８号,,13,114,1650031,,,,,,,2023-04-10,1,,,,,ドングリフドウサン,0
1146,4011303004716,新規,0,2023-04-10,2023-04-10,合同会社ＨＡＲＡＫＡＷＡ,,合同会社,東京都,杉並区,桃井３丁目２－１レクセル荻窪７０４,,13,115,1670034,,,,,,,2023-04-10,1,,,,,ハラカワ,0
1147,4011305002899,新規,0,2023-04-10,2023-04-10,学校法人井口学園,,その他の設立登記法人,東京都,杉並区,下井草４丁目２０番３号,,13,115,1670022,,,,,,,2023-04-10,1,,,,,,0
1152,4011501029143,新規,0,2023-04-10,2023-04-10,君和株式会社,,株式会社,東京都,荒川区,東尾久２丁目２－９三祥ビル２１０号室,,13,118,1160012,,,,,,,2023-04-10,1,,,,,キミワ,0
1162,4012401040371,新規,0,2023-04-10,2023-04-10,株式会社コネクト,,株式会社,東京都,府中市,清水が丘１丁目１３番地の５レディズビル１０１,,13,206,1830015,,,,,,,2023-04-10,1,,,,,コネクト,0
1167,4013101009145,新規,0,2023-04-10,2023-04-10,株式会社Ｒｏｎｄ,,株式会社,東京都,あきる野市,二宮２２４０番地２,,13,228,1970814,,,,,,,2023-04-10,1,,,,,ロンド,0
1171,4013301050568,新規,0,2023-04-10,2023-04-10,ＨＮＤ株式会社,,株式会社,東京都,豊島区,巣鴨３丁目３４番３号西村商店第二ビル５０１,,13,116,1700002,,,,,,,2023-04-10,1,,,,,エイチエヌディー,0
1173,4013303006568,新規,0,2023-04-10,2023-04-10,ワタリナ合同会社,,合同会社,東京都,豊島区,西池袋４丁目１９番８号,,13,116,1710021,,,,,,,2023-04-10,1,,,,,ワタリナ,0
1174,4013303006576,新規,0,2023-04-10,2023-04-10,合同会社ＳＰ　Ａｓｓｅｔ　Ｐｏｗｅｒ,,合同会社,東京都,豊島区,東池袋３丁目１番１号,,13,116,1700013,,,,,,,2023-04-10,1,,,,,エスピーアセットパワー,0
1177,4020001150912,新規,0,2023-04-10,2023-04-10,株式会社トラクログループ,,株式会社,神奈川県,川崎市川崎区,大師本町８番６－４０５号,,14,131,2100817,,,,,,,2023-04-10,1,,,,,トラクログループ,0
1190,4030003021490,新規,0,2023-04-10,2023-04-10,合同会社異彩,,合同会社,埼玉県,さいたま市緑区,原山２丁目５番６号,,11,109,3360931,,,,,,,2023-04-10,1,,,,,イサイ,0
1194,4040003022364,新規,0,2023-04-10,2023-04-10,合同会社Ｉｓｈｔａｒ,,合同会社,千葉県,四街道市,下志津新田２５２６番３０ニューキャッスル１０１,,12,228,2840006,,,,,,,2023-04-10,1,,,,,イシュタル,0
1198,4050001052602,新規,0,2023-04-10,2023-04-10,株式会社一来,,株式会社,茨城県,つくば市,上横場１２２６番地８,,08,220,3050854,,,,,,,2023-04-10,1,,,,,カズキ,0
1199,4050001052643,新規,0,2023-04-10,2023-04-10,ＢＡＪＷＡ株式会社,,株式会社,茨城県,桜川市,真壁町古城３２１番地２,,08,231,3004407,,,,,,,2023-04-10,1,,,,,バジュワ,0
1200,4050003007406,新規,0,2023-04-10,2023-04-10,ドラゴンファーム合同会社,,合同会社,茨城県,龍ケ崎市,川原代町１６６７,,08,208,3010005,,,,,,,2023-04-10,1,,,,,ドラゴンファーム,0
1202,4060001035845,新規,0,2023-04-10,2023-04-10,Ｄｏｕｘ　Ｇｒｏｕｐ株式会社,,株式会社,栃木県,小山市,若木町１丁目２２番２７号,,09,208,3230028,,,,,,,2023-04-10,1,,,,,ドゥグループ,0
1206,4070001040308,新規,0,2023-04-10,2023-04-10,株式会社フォーシーズン,,株式会社,群馬県,伊勢崎市,西小保方町３０６番地１,,10,204,3792224,,,,,,,2023-04-10,1,,,,,フォーシーズン,0
1209,4080101023905,新規,0,2023-04-10,2023-04-10,株式会社若松ビルドサポート,,株式会社,静岡県,三島市,４２４９番地の７,,22,206,4110000,,,,,,,2023-04-10,1,,,,,ワカマツビルドサポート,0
1210,4080103002774,新規,0,2023-04-10,2023-04-10,合同会社オンザストリート,,合同会社,静岡県,伊東市,池６３１番地の２０,,22,208,4130234,,,,,,,2023-04-10,1,,,,,オンザストリート,0
1215,4100001036310,新規,0,2023-04-10,2023-04-10,株式会社メーティス・ソリューションズ,,株式会社,長野県,岡谷市,本町１丁目４－８岡谷駅前ビル２Ｆ,,20,204,3940028,,,,,,,2023-04-10,1,,,,,メーティスソリューションズ,0
1216,4100003006955,新規,0,2023-04-10,2023-04-10,スタジオカルテット合同会社,,合同会社,長野県,長野市,大字長野西之門町５００番地１,,20,201,3800857,,,,,,,2023-04-10,1,,,,,スタジオカルテット,0
1219,4110001037431,新規,0,2023-04-10,2023-04-10,雪国企画株式会社,,株式会社,新潟県,南魚沼郡湯沢町,湯沢１丁目１番地４号,,15,461,9496101,,,,,,,2023-04-10,1,,,,,ユキグニキカク,0
1223,4110003005023,新規,0,2023-04-10,2023-04-10,あとむ合同会社,,合同会社,新潟県,佐渡市,相川大浦７１６番地,,15,224,9521646,,,,,,,2023-04-10,1,,,,,アトム,0
1235,4120001253779,新規,0,2023-04-10,2023-04-10,＿米糖株式会社,00130009,株式会社,大阪府,大阪市淀川区,三津屋南２丁目５番１５号,,27,123,5320035,,,,,,,2023-04-10,1,,,,,ソウベイトウ,0
1236,4120001253804,新規,0,2023-04-10,2023-04-10,株式会社ｇｒｉｔ,,株式会社,大阪府,大阪市中央区,内平野町２丁目２番６－１１０２号,,27,128,5400037,,,,,,,2023-04-10,1,,,,,グリット,0
1237,4120001253829,新規,0,2023-04-10,2023-04-10,Ｇｏｌｄｅｎ　ｋｅｙ株式会社,,株式会社,大阪府,大阪市浪速区,難波中２丁目８番７７号難波中豊田ビル３Ｆ,,27,111,5560011,,,,,,,2023-04-10,1,,,,,ゴールデンキー,0
1246,4120901047371,新規,0,2023-04-10,2023-04-10,株式会社ＴＥＮＡＣＩＴＹ,,株式会社,大阪府,豊中市,上野東３丁目４番７－２０２号,,27,203,5600013,,,,,,,2023-04-10,1,,,,,テネシティ,0
1247,4122001036874,新規,0,2023-04-10,2023-04-10,株式会社イチカ,,株式会社,大阪府,四條畷市,雁屋西町４番１３号,,27,229,5750045,,,,,,,2023-04-10,1,,,,,イチカ,0
1251,4130001073986,新規,0,2023-04-10,2023-04-10,株式会社Ｅｃｏ２１,,株式会社,京都府,京都市中京区,両替町通御池上る龍池町４４９番地１,,26,104,6048176,,,,,,,2023-04-10,1,,,,,エコニジュウイチ,0
1252,4130001074043,新規,0,2023-04-10,2023-04-10,株式会社京ふとん店,,株式会社,京都府,京都市西京区,大枝南福西町２丁目３番地２０,,26,111,6101113,,,,,,,2023-04-10,1,,,,,キョウトフトンテン,0
1256,4130003008635,新規,0,2023-04-10,2023-04-10,合同会社Ｌｉｎｋｓ,,合同会社,京都府,宮津市,字文殊４２９番地１,,26,205,6260000,,,,,,,2023-04-10,1,,,,,リンクス,0
1258,4130005016735,新規,0,2023-04-10,2023-04-10,一般社団法人京都こころ研究所,,その他の設立登記法人,京都府,京都市北区,小山堀池町２６番地１４,,26,101,6038145,,,,,,,2023-04-10,1,,,,,キョウトココロケンキュウショ,0
1259,4130005016743,新規,0,2023-04-10,2023-04-10,医療法人エルーラクリニック,,その他の設立登記法人,京都府,京都市下京区,東洞院通綾小路下る扇酒屋町２７５番地１,,26,106,6008095,,,,,,,2023-04-10,1,,,,,エルーラクリニック,0
1276,4140001129622,新規,0,2023-04-10,2023-04-10,株式会社ＤＯＫＫＡ,,株式会社,兵庫県,神戸市中央区,中山手通３丁目７番３０－１２０１号,,28,110,6500004,,,,,,,2023-04-10,1,,,,,ドゥッカ,0
1277,4140001129630,新規,0,2023-04-10,2023-04-10,株式会社グランＧしそう,,株式会社,兵庫県,宍粟市,山崎町千本屋２４１番地５,,28,227,6712544,,,,,,,2023-04-10,1,,,,,グランジーシソウ,0
1278,4140001129639,新規,0,2023-04-10,2023-04-10,株式会社Ｋｅｉｍ,,株式会社,兵庫県,姫路市,広畑区蒲田８３５番地５,,28,201,6711102,,,,,,,2023-04-10,1,,,,,カイム,0
1279,4140001129663,新規,0,2023-04-10,2023-04-10,株式会社Ｈｏｌｏｗａｙ,,株式会社,兵庫県,姫路市,書写２１６７,,28,201,6712201,,,,,,,2023-04-10,1,,,,,ホロウェイ,0
1280,4140001129671,新規,0,2023-04-10,2023-04-10,株式会社北河内病理学研究所,,株式会社,兵庫県,小野市,天神町８０番地の１７２２,,28,218,6751316,,,,,,,2023-04-10,1,,,,,キタカワチビョウリガクケンキュウショ,0
1288,4140003018930,新規,0,2023-04-10,2023-04-10,合同会社ＧＩＡ　ＫＨＡＮＨ,,合同会社,兵庫県,神戸市中央区,多聞通１丁目３番１１号ハイツ神戸２１１号室,,28,110,6500015,,,,,,,2023-04-10,1,,,,,ギアカイン,0
1289,4140003018939,新規,0,2023-04-10,2023-04-10,合同会社六二酒店,,合同会社,兵庫県,神戸市灘区,国玉通３丁目４－２０,,28,102,6570816,,,,,,,2023-04-10,1,,,,,ロクニサケテン,0
1291,4150003002933,新規,0,2023-04-10,2023-04-10,合同会社つむぐ,,合同会社,奈良県,橿原市,太田市町８７,,29,205,6340001,,,,,,,2023-04-10,1,,,,,ツムグ,0
1300,4180001155680,新規,0,2023-04-10,2023-04-10,サンユーエイチホールディングス株式会社,,株式会社,愛知県,小牧市,大字東田中２１０１番地１,,23,219,4850826,,,,,,,2023-04-10,1,,,,,サンユーエイチホールディングス,0
1301,4180001155706,新規,0,2023-04-10,2023-04-10,株式会社ＳＢＫ,,株式会社,愛知県,名古屋市天白区,焼山２丁目１９０４番地,,23,116,4680002,,,,,,,2023-04-10,1,,,,,エスビーケー,0
1302,4180001155755,新規,0,2023-04-10,2023-04-10,株式会社ばんどう,,株式会社,愛知県,名古屋市千種区,今池４丁目１番１４号フカミビル１Ａ,,23,101,4640850,,,,,,,2023-04-10,1,,,,,バンドウ,0
1303,4180001155763,新規,0,2023-04-10,2023-04-10,株式会社こまち,,株式会社,愛知県,一宮市,野口２丁目１１番１８号,,23,203,4910911,,,,,,,2023-04-10,1,,,,,コマチ,0
1310,4180003025089,新規,0,2023-04-10,2023-04-10,合同会社小川電工,,合同会社,愛知県,江南市,宮田町四ツ谷２３７番地１,,23,217,4838378,,,,,,,2023-04-10,1,,,,,オガワデンコウ,0
1311,4180003025097,新規,0,2023-04-10,2023-04-10,合同会社３Ｄ動画ＣＡＤデザイン構造解析研究所,,合同会社,愛知県,名古屋市中区,栄１丁目８番１８号,,23,106,4600008,,,,,,,2023-04-10,1,,,,,スリーディドウガキャドデザインコウゾウカイセキケンキュウジョ,0
1312,4180005020154,新規,0,2023-04-10,2023-04-10,一般社団法人こころの保健室ひだまり,,その他の設立登記法人,愛知県,一宮市,木曽川町黒田字錦里１１番地,,23,203,4930001,,,,,,,2023-04-10,1,,,,,ココロノホケンシツヒダマリ,0
1315,4180301037265,新規,0,2023-04-10,2023-04-10,株式会社大栄ホーム,,株式会社,愛知県,豊田市,井上町３丁目８４番地サンライズマンション堀３０３号,,23,211,4700372,,,,,,,2023-04-10,1,,,,,ダイエイホーム,0
1316,4180301037273,新規,0,2023-04-10,2023-04-10,株式会社ハヤブサ工業,,株式会社,愛知県,豊川市,本野町百々１２番地,,23,207,4420062,,,,,,,2023-04-10,1,,,,,ハヤブサコウギョウ,0
1319,4190005011813,新規,0,2023-04-10,2023-04-10,一般社団法人大紀町観光協会,,その他の設立登記法人,三重県,度会郡大紀町,崎２１５４番地１,,24,471,5192802,,,,,,,2023-04-10,1,,,,,タイキチョウカンコウキョウカイ,0
1323,4230001019780,新規,0,2023-04-10,2023-04-10,株式会社山内住設サービス,,株式会社,富山県,富山市,婦中町砂子田８１番地２７,,16,201,9392727,,,,,,,2023-04-10,1,,,,,ヤマウチジュウセツサービス,0
1325,4230005009290,新規,0,2023-04-10,2023-04-10,一般社団法人しあわせデザイン,,その他の設立登記法人,富山県,富山市,蓮町１丁目７番富山県創業支援センター「ＳＣＯＰＴＯＹＡＭＡ」４０８号室,,16,201,9318333,,,,,,,2023-04-10,1,,,,,シアワセデザイン,0
1328,4240003006090,新規,0,2023-04-10,2023-04-10,合同会社ｆｒｅｅｄｏｍ広島,,合同会社,広島県,広島市安佐南区,東野２丁目２１番２２号,,34,105,7310111,,,,,,,2023-04-10,1,,,,,フリーダムヒロシマ,0
1329,4250001020043,新規,0,2023-04-10,2023-04-10,株式会社リベルタ,,株式会社,山口県,下松市,星が丘１丁目３番１２号,,35,207,7440065,,,,,,,2023-04-10,1,,,,,リベルタ,0
1333,4260001037838,新規,0,2023-04-10,2023-04-10,株式会社ゼット設備,,株式会社,岡山県,倉敷市,玉島上成１０３５番地９,,33,202,7138101,,,,,,,2023-04-10,1,,,,,ゼットセツビ,0
1348,4290005018996,新規,0,2023-04-10,2023-04-10,弁護士法人三角総合法律事務所,,その他の設立登記法人,福岡県,福岡市中央区,薬院３丁目３番３３号,,40,133,8100022,,,,,,,2023-04-10,1,,,,,ミスミソウゴウホウリツジムショ,0
1349,4290005019004,新規,0,2023-04-10,2023-04-10,医療法人いしざき小児科クリニック,,その他の設立登記法人,福岡県,福岡市城南区,七隈４丁目３番地１２号,,40,136,8140133,,,,,,,2023-04-10,1,,,,,イシザキショウニカクリニック,0
1350,4290005019012,新規,0,2023-04-10,2023-04-10,一般社団法人みらいグループ,,その他の設立登記法人,福岡県,福岡市中央区,白金１丁目２番２１号,,40,133,8100012,,,,,,,2023-04-10,1,,,,,ミライグループ,0
1353,4290801029445,新規,0,2023-04-10,2023-04-10,株式会社ティシーエム,,株式会社,福岡県,北九州市八幡西区,夕原町１０番４号,,40,109,8070813,,,,,,,2023-04-10,1,,,,,ティシーエム,0
1354,4300001013256,新規,0,2023-04-10,2023-04-10,株式会社ガーデンツリー,,株式会社,佐賀県,武雄市,武雄町大字昭和３７２番地１,,41,206,8430023,,,,,,,2023-04-10,1,,,,,ガーデンツリー,0
1357,4320001019680,新規,0,2023-04-10,2023-04-10,株式会社トラストエステート,,株式会社,大分県,大分市,高松１丁目４番７号,,44,201,8700917,,,,,,,2023-04-10,1,,,,,トラストエステート,0
1367,4350001018283,新規,0,2023-04-10,2023-04-10,株式会社ネオファームジャパン,,株式会社,宮崎県,宮崎市,橘通東５丁目４番２号,,45,201,8800805,,,,,,,2023-04-10,1,,,,,ネオファームジャパン,0
1371,4360001031814,新規,0,2023-04-10,2023-04-10,株式会社３ＳＣ,,株式会社,沖縄県,沖縄市,松本１丁目７番２０号,,47,211,9042151,,,,,,,2023-04-10,1,,,,,スリーエスカンパニー,0
1372,4360001031822,新規,0,2023-04-10,2023-04-10,株式会社ｄｅｌｉｇｈｔ,,株式会社,沖縄県,中頭郡西原町,字小那覇２０１番地,,47,329,9030103,,,,,,,2023-04-10,1,,,,,ディライト,0
1373,4360001031830,新規,0,2023-04-10,2023-04-10,鯉株式会社,,株式会社,沖縄県,中頭郡西原町,字我謝１１５番地（ドリームパレス我謝２０２号）,,47,329,9030112,,,,,,,2023-04-10,1,,,,,コイ,0
1374,4370001049772,新規,0,2023-04-10,2023-04-10,株式会社ＴＩＳうんそう,,株式会社,宮城県,仙台市若林区,若林７丁目５番２３－３０１号,,04,103,9840826,,,,,,,2023-04-10,1,,,,,ティアイエスウンソウ,0
1375,4370001049814,新規,0,2023-04-10,2023-04-10,ＫｏＫｒｅａｔｅ株式会社,,株式会社,宮城県,仙台市青葉区,本町１丁目５番２８号カーニープレイス仙台駅前通６０３号室,,04,101,9800014,,,,,,,2023-04-10,1,,,,,コークリエイト,0
1376,4370001049822,新規,0,2023-04-10,2023-04-10,株式会社優志社,,株式会社,宮城県,富谷市,成田１丁目４番地１３７,,04,216,9813341,,,,,,,2023-04-10,1,,,,,ユウシシャ,0
1377,4370001049830,新規,0,2023-04-10,2023-04-10,ＲＯＯＴＳ株式会社,,株式会社,宮城県,亘理郡山元町,浅生原字作田山２番地５４,,04,362,9892203,,,,,,,2023-04-10,1,,,,,ルーツ,0
1396,4420003002699,新規,0,2023-04-10,2023-04-10,合同会社ゆたか,,合同会社,青森県,青森市,大字横内字亀井２４９番地１１９,,02,201,0300132,,,,,,,2023-04-10,1,,,,,ユタカ,0
1397,4430001088797,新規,0,2023-04-10,2023-04-10,株式会社上出農園,,株式会社,北海道,江別市,江別太２９８番地,,01,217,0670022,,,,,,,2023-04-10,1,,,,,カミデノウエン,0
1398,4430003014883,新規,0,2023-04-10,2023-04-10,合同会社フォーチュン,,合同会社,北海道,札幌市豊平区,平岸三条９丁目１１番１６号,,01,105,0620933,,,,,,,2023-04-10,1,,,,,フォーチュン,0
1399,4430003014900,新規,0,2023-04-10,2023-04-10,合同会社ワークシフト,,合同会社,北海道,札幌市西区,二十四軒四条５丁目１番８号,,01,107,0630804,,,,,,,2023-04-10,1,,,,,ワークシフト,0
1401,4450001013951,新規,0,2023-04-10,2023-04-10,株式会社かのＦＡＲＭ,,株式会社,北海道,旭川市,東旭川町米原１６１６番地の１,,01,204,0781273,,,,,,,2023-04-10,1,,,,,カノファーム,0
1403,4460301005136,新規,0,2023-04-10,2023-04-10,渡辺組ホールディングス株式会社,,株式会社,北海道,紋別郡遠軽町,南町３丁目１番地,,01,555,0990414,,,,,,,2023-04-10,1,,,,,ワタナベグミホールディングス,0
1404,4470001019542,新規,0,2023-04-10,2023-04-10,株式会社ＡＣＥ,,株式会社,香川県,高松市,円座町１７７４番地６,,37,201,7618044,,,,,,,2023-04-10,1,,,,,エース,0
1405,4470001019550,新規,0,2023-04-10,2023-04-10,株式会社秀工業,,株式会社,香川県,丸亀市,飯野町西分甲５０９番地１,,37,202,7630086,,,,,,,2023-04-10,1,,,,,ヒデコウギョウ,0
1406,4470003002389,新規,0,2023-04-10,2023-04-10,合同会社安藤工業,,合同会社,香川県,観音寺市,粟井町３０２３番地１,,37,205,7680052,,,,,,,2023-04-10,1,,,,,アンドウコウギョウ,0
1407,4480001012059,新規,0,2023-04-10,2023-04-10,株式会社ＰＡＳＯＣＡＬＡ,,株式会社,徳島県,徳島市,昭和町３丁目３９－１０１,,36,201,7700942,,,,,,,2023-04-10,1,,,,,パソカラ,0
1410,4480005006949,新規,0,2023-04-10,2023-04-10,徳島弁護士協同組合,,その他の設立登記法人,徳島県,徳島市,新蔵町１丁目３１,,36,201,7700855,,,,,,,2023-04-10,1,,,,,トクシマベンゴシ,0
1412,4490001010441,新規,0,2023-04-10,2023-04-10,一心工業株式会社,,株式会社,高知県,土佐市,高岡町甲１６１３番地４,,39,205,7811101,,,,,,,2023-04-10,1,,,,,,0
1414,4700150115226,新規,0,2023-04-10,2023-04-10,Ｓｉｅｍｅｎｓ　Ｇａｍｅｓａ　Ｒｅｎｅｗａｂｌｅ　Ｅｎｅｒｇｙ　Ｔｅｃｈｎｏｌｏｇｙ（Ｃｈｉｎａ）　Ｃｏ．，Ｌｔｄ,,外国会社等,,,,,,,,Ｎｏ　８　ｔｈｅ　４ｔｈ　ｒｏａｄ，Ｈａｉｔａｉ　ｃｒｅａｔｉｖｅ　ｒｏａｄ，Ｈｕａｙｕａｎ，Ｃｈｉｎａ,,,,,,2023-04-10,1,,,,,シーメンスガメサリニユーアブルエナジーテクノロジーチヤイナシーオーエルテイデイー,0
1415,4700150115234,新規,0,2023-04-10,2023-04-10,ＦｒｅｎｃｈｙＫｕｍａ日本駐在員事務所,,外国会社等,東京都,八王子市,三崎町４－１１トーネンビル５Ｆ－Ａ,,13,201,1920084,９　ｂｉｓ　ｒｕｅ　Ａｌｂｅｒｔ　Ｄａｒｍｏｎｔ，９４５００　Ｃｈａｍｐｉｇｎｙ－ｓｕｒ－Ｍａｒｎｅ，ＦＲＡＮＣＥ,,,,,,2023-04-10,1,,,,,フレンチクマニホンチユウザイインジムシヨ,0
1416,4700150115250,新規,0,2023-04-10,2023-04-10,Ｖｉｂｒａｎｔ　Ｂｌｉｓｓ　Ｌｉｍｉｔｅｄ,,外国会社等,北海道,虻田郡ニセコ町,字ニセコ４３２番地４７,,01,395,0481511,ＶｉｓｔｒａＬｉｍｉｔｅｄｏｆＶｉｓｔｒａＣｏｒｐｏｒａｔｅＳｅｒｖｉｃｅｓＣｅｎｔｒｅＷｉｃｋｈａｍｓＣａｙｌｉＲｏａｄＴｏｗｎＴｏｒｔｏｌａＶＧ１１１０,,,,,,2023-04-10,1,,,,,バイブラントブリスリミテツド,0
1417,4700150115259,新規,0,2023-04-10,2023-04-10,Ｎａｎｔｏｎｇ　ｂｏｄｕｏ　ｅｌｅｃｔｒｏｎｉｃ　ｃｏｍｍｅｒｃｅ　ｃｏ．，ｌｔｄ,,外国会社等,,,,,,,,Ｒｏｏｍ　４０８，Ｂｕｉｌｄｉｎｇ　３５，Ｚｈｏｎｇｎａｎ　Ｃｅｎｔｕｒｙ　Ｃｉｔｙ，Ｎｏ．１２　Ｔａｏｙｕａｎ　Ｒｏａｄ，Ｗｅｎｆｅｎｇ　Ｓｔｒｅｅｔ，Ｃｈｏｎｇｃｈｕａｎ　Ｄｉｓｔｒｉｃｔ，Ｎａｎｔｏｎｇ　Ｃｉｔｙ，Ｊｉａｎｇｓｕ　Ｐｒｏｖｉｎｃｅ,,,,,,2023-04-10,1,,,,,ナントンボードゥオディエンズーシャンウーヨウシエンゴンスー,0
1433,5010001234236,新規,0,2023-04-10,2023-04-10,日本ＳａａＳ総研株式会社,,株式会社,東京都,千代田区,神田錦町２丁目２－１ＷｅＷｏｒｋ・ＫＡＮＤＡ・ＳＱＵＡＲＥ１１Ｆ－１０１,,13,101,1010054,,,,,,,2023-04-10,1,,,,,ニホンサースソウケン,0
1434,5010001234244,新規,0,2023-04-10,2023-04-10,株式会社ＮＩＣＨＩＵＮ　ＨＯＬＤＩＮＧＳ,,株式会社,東京都,中央区,日本橋２丁目９番４号,,13,102,1030027,,,,,,,2023-04-10,1,,,,,ニチウンホールディングス,0
1435,5010001234260,新規,0,2023-04-10,2023-04-10,株式会社Ｙｕｔａｋａ,,株式会社,東京都,中央区,日本橋横山町３番１２号２階,,13,102,1030003,,,,,,,2023-04-10,1,,,,,ユタカ,0
1442,5010003040260,新規,0,2023-04-10,2023-04-10,ＡＳＯＲＥ合同会社,,合同会社,東京都,中央区,銀座１丁目２２番１１号銀座大竹ビジデンス２Ｆ,,13,102,1040061,,,,,,,2023-04-10,1,,,,,アソレ,0
1443,5010003040277,新規,0,2023-04-10,2023-04-10,合同会社ＺＥＨＰＪ７,,合同会社,東京都,中央区,銀座４丁目６番１号三幸オフィスマネジメント株式会社内,,13,102,1040061,,,,,,,2023-04-10,1,,,,,ゼッチピージェーセブン,0
1446,5010101015585,新規,0,2023-04-10,2023-04-10,株式会社Ｗｈｙと意志,,株式会社,東京都,八王子市,別所１丁目４５番地７レーベンリヴァーレ南大沢７０９号,,13,201,1920363,,,,,,,2023-04-10,1,,,,,ホワイトイシ,0
1447,5010101015593,新規,0,2023-04-10,2023-04-10,株式会社宮島高速貨物,,株式会社,東京都,八王子市,下恩方町８９４番地４,,13,201,1920154,,,,,,,2023-04-10,1,,,,,ミヤジマコウソクカモツ,0
1455,5010401173513,新規,0,2023-04-10,2023-04-10,株式会社ｓｏｎｏ,,株式会社,東京都,港区,南青山５丁目４番４３号程塚ビル２Ｆ,,13,103,1070062,,,,,,,2023-04-10,1,,,,,ソノ,0
1456,5010401173546,新規,0,2023-04-10,2023-04-10,ｖａｎｌｉｆｅｒ株式会社,,株式会社,東京都,港区,南青山３丁目８番４０号青山センタービル２０４,,13,103,1070062,,,,,,,2023-04-10,1,,,,,ヴァンライファー,0
1457,5010401173587,新規,0,2023-04-10,2023-04-10,株式会社ＳＡＩ,,株式会社,東京都,港区,浜松町２丁目２番１５号浜松町ダイヤビル２Ｆ,,13,103,1050013,,,,,,,2023-04-10,1,,,,,サイ,0
1460,5010403029878,新規,0,2023-04-10,2023-04-10,食と健康合同会社,,合同会社,東京都,港区,南青山２丁目２番１５号ウィン青山９４２,,13,103,1070062,,,,,,,2023-04-10,1,,,,,ショクトケンコウ,0
1462,5010405021981,新規,0,2023-04-10,2023-04-10,武蔵小杉ホールディング１一般社団法人,,その他の設立登記法人,東京都,港区,虎ノ門３丁目２２番１０－２０１号,,13,103,1050001,,,,,,,2023-04-10,1,,,,,ムサシコスギホールディングワン,0
1471,5010601062870,新規,0,2023-04-10,2023-04-10,株式会社ＤｏｕｂｌｅＡｕｔｈ,,株式会社,東京都,江東区,富岡１丁目１２番８号,,13,108,1350047,,,,,,,2023-04-10,1,,,,,ダブルオース,0
1472,5010601062879,新規,0,2023-04-10,2023-04-10,株式会社ワールド・コネクト,,株式会社,東京都,墨田区,菊川３丁目７番４号－４階,,13,107,1300024,,,,,,,2023-04-10,1,,,,,ワールドコネクト,0
1473,5010601062895,新規,0,2023-04-10,2023-04-10,Ｓｋｙｅ　Ｎｕｒｓｉｎｇ株式会社,,株式会社,東京都,墨田区,向島３丁目１８番８－７０１号エクセルシオール押上,,13,107,1310033,,,,,,,2023-04-10,1,,,,,スカイナーシング,0
1483,5011001153574,新規,0,2023-04-10,2023-04-10,デジタルベース株式会社,,株式会社,東京都,渋谷区,渋谷２丁目１９－１５宮益坂ビルディング６０９,,13,113,1500002,,,,,,,2023-04-10,1,,,,,デジタルベース,0
1484,5011001153632,新規,0,2023-04-10,2023-04-10,ピクセル・プラス株式会社,,株式会社,東京都,渋谷区,代々木１丁目３０番１５号,,13,113,1510053,,,,,,,2023-04-10,1,,,,,ピクセルプラス,0
1485,5011001153640,新規,0,2023-04-10,2023-04-10,くーぴーアカウンティング株式会社,,株式会社,東京都,渋谷区,神南１丁目８番１８－７０５号,,13,113,1500041,,,,,,,2023-04-10,1,,,,,クーピーアカウンティング,0
1486,5011001153665,新規,0,2023-04-10,2023-04-10,株式会社センプリ,,株式会社,東京都,渋谷区,松濤１丁目２９－２４シティコート松濤２０２号,,13,113,1500046,,,,,,,2023-04-10,1,,,,,センプリ,0
1493,5011101102448,新規,0,2023-04-10,2023-04-10,ＳＥＶＥＮ＆ＥＩＧＨＴ　ＳＹＳＴＥＭ株式会社,,株式会社,東京都,新宿区,津久戸町１番８号,,13,104,1620821,,,,,,,2023-04-10,1,,,,,セブンアンドエイトシステム,0
1496,5011105010622,新規,0,2023-04-10,2023-04-10,一般社団法人日本母子看護学会,,その他の設立登記法人,東京都,新宿区,下落合１丁目１６番７号エヌケイビル５Ｆ,,13,104,1610033,,,,,,,2023-04-10,1,,,,,ニホンボシカンゴガッカイ,0
1502,5011205002544,新規,0,2023-04-10,2023-04-10,ＮＰＯ法人ＩＦ,,その他の設立登記法人,東京都,中野区,上鷺宮５丁目２３番１０号,,13,114,1650031,,,,,,,2023-04-10,1,,,,,アイエフ,0
1505,5011305002898,新規,0,2023-04-10,2023-04-10,一般社団法人Ｙｏｈａｋｕ　Ｅｄｕｃａｔｉｏｎ,,その他の設立登記法人,東京都,杉並区,成田東４丁目２８番１３号,,13,115,1660015,,,,,,,2023-04-10,1,,,,,ヨハクエデュケーション,0
1506,5011401025019,新規,0,2023-04-10,2023-04-10,株式会社ｗｉｓｅ,,株式会社,東京都,板橋区,富士見町１４番５号ＢＩＺｃｉｒｃｌｅ板橋本町３０７号室,,13,119,1740062,,,,,,,2023-04-10,1,,,,,ワイズ,0
1507,5011403003963,新規,0,2023-04-10,2023-04-10,合同会社Ｏｆｆｉｃｅフィット,,合同会社,東京都,板橋区,三園２丁目１４番２６－３０４号ブルンネン西高島平,,13,119,1750091,,,,,,,2023-04-10,1,,,,,オフィスフィット,0
1509,5011601026709,新規,0,2023-04-10,2023-04-10,株式会社ＤｉｍｅｎｓｉｏｎＴｒａｃｅ,,株式会社,東京都,練馬区,貫井３丁目１０番５号サンモール富士見台２０５,,13,120,1760021,,,,,,,2023-04-10,1,,,,,ディメンショントレース,0
1513,5011801042200,新規,0,2023-04-10,2023-04-10,株式会社ＭＤＩＴＳ,,株式会社,東京都,足立区,花畑３丁目３１－４,,13,121,1210061,,,,,,,2023-04-10,1,,,,,メディッツ,0
1522,5013305003455,新規,0,2023-04-10,2023-04-10,一般社団法人豊島区看護師会,,その他の設立登記法人,東京都,豊島区,池袋本町２丁目３８番５号,,13,116,1700011,,,,,,,2023-04-10,1,,,,,トシマクカンゴシカイ,0
1526,5020001150894,新規,0,2023-04-10,2023-04-10,株式会社ニューロンロボテック,,株式会社,神奈川県,横浜市港北区,新吉田町５２２６番地,,14,109,2230056,,,,,,,2023-04-10,1,,,,,ニューロンロボテック,0
1527,5020001151050,新規,0,2023-04-10,2023-04-10,株式会社ライフハック,,株式会社,神奈川県,川崎市中原区,小杉御殿町２丁目１３５番３号玉津レジデンス３０２,,14,133,2110068,,,,,,,2023-04-10,1,,,,,ライフハック,0
1534,5020003023578,新規,0,2023-04-10,2023-04-10,合同会社ＫＧ　Ｐａｒｔｎｅｒｓ,,合同会社,神奈川県,川崎市中原区,木月３丁目３３－１７－２,,14,133,2110025,,,,,,,2023-04-10,1,,,,,ケージーパートナーズ,0
1535,5020003023685,新規,0,2023-04-10,2023-04-10,ＫＭＳＩ合同会社,,合同会社,神奈川県,横浜市都筑区,東山田町１３５９番地１２,,14,118,2240024,,,,,,,2023-04-10,1,,,,,ケイエムエスアイ,0
1536,5020003023693,新規,0,2023-04-10,2023-04-10,合同会社セルフ,,合同会社,神奈川県,横浜市保土ケ谷区,仏向町１１８０－４９,,14,106,2400044,,,,,,,2023-04-10,1,,,,,セルフ,0
1547,5030001153211,新規,0,2023-04-10,2023-04-10,Ｓｍａａｋ株式会社,,株式会社,埼玉県,富士見市,羽沢２丁目１番２０号,,11,235,3540033,,,,,,,2023-04-10,1,,,,,スマーク,0
1549,5030003021481,新規,0,2023-04-10,2023-04-10,合同会社アライブ,,合同会社,埼玉県,さいたま市中央区,下落合２丁目２番２５－１号,,11,105,3380002,,,,,,,2023-04-10,1,,,,,アライブ,0
1550,5030003021523,新規,0,2023-04-10,2023-04-10,栄子合同会社,00130033,合同会社,埼玉県,蕨市,中央３丁目５－１中央マンション４１６,,11,223,3350004,,,,,,,2023-04-10,1,,,,,エコ,0
1553,5040001127899,新規,0,2023-04-10,2023-04-10,株式会社ＪＢＣ,,株式会社,千葉県,四街道市,千代田５丁目５５番１４,,12,228,2840015,,,,,,,2023-04-10,1,,,,,ジェイビーシー,0
1555,5040003022371,新規,0,2023-04-10,2023-04-10,合同会社ＳＭＡＲＴ．Ａ,,合同会社,千葉県,船橋市,海神２丁目２０－１３－４０６,,12,204,2730021,,,,,,,2023-04-10,1,,,,,スマートエー,0
1561,5050001052667,新規,0,2023-04-10,2023-04-10,オネストレード株式会社,,株式会社,茨城県,牛久市,ひたち野東５丁目３３（２－５０５）,,08,219,3001207,,,,,,,2023-04-10,1,,,,,オネストレード,0
1565,5050005013244,新規,0,2023-04-10,2023-04-10,医療法人光輝会,,その他の設立登記法人,茨城県,水戸市,見和２丁目２４６番地１堤ビル３階,,08,201,3100911,,,,,,,2023-04-10,1,,,,,コウキカイ,0
1568,5060005010067,新規,0,2023-04-10,2023-04-10,職業訓練法人ＴＭＣ,,その他の設立登記法人,栃木県,那須塩原市,大原間西１丁目１０番地６,,09,213,3293157,,,,,,,2023-04-10,1,,,,,ティエムシー,0
1573,5070001040307,新規,0,2023-04-10,2023-04-10,株式会社てっちゃん,,株式会社,群馬県,高崎市,栄町３番１１号高崎バナーズビル３－５Ｆ,,10,202,3700841,,,,,,,2023-04-10,1,,,,,テッチャン,0
1580,5070005010108,新規,0,2023-04-10,2023-04-10,一般社団法人おえかき,,その他の設立登記法人,群馬県,太田市,市場町５９２番４号,,10,205,3730013,,,,,,,2023-04-10,1,,,,,,0
1584,5080101023904,新規,0,2023-04-10,2023-04-10,株式会社ＡＳＡＨＩ,,株式会社,静岡県,駿東郡清水町,伏見１５３番地の１サンクレイドル清水柿田川２０９号,,22,341,4110907,,,,,,,2023-04-10,1,,,,,アサヒ,0
1587,5080105006327,新規,0,2023-04-10,2023-04-10,医療法人社団東の杜,,その他の設立登記法人,静岡県,御殿場市,東田中１０６２番地の２,,22,215,4120026,,,,,,,2023-04-10,1,,,,,ヒガシノモリ,0
1589,5080401026417,新規,0,2023-04-10,2023-04-10,株式会社ドローンセンセーション,,株式会社,静岡県,浜松市中区,鴨江１丁目３０番１２号,,22,131,4328023,,,,,,,2023-04-10,1,,,,,ドローンセンセーション,0
1591,5090003002294,新規,0,2023-04-10,2023-04-10,合同会社サンハウス,,合同会社,山梨県,北杜市,大泉町谷戸８７４１番地１０２６,,19,209,4091502,,,,,,,2023-04-10,1,,,,,サンハウス,0
1593,5110001037422,新規,0,2023-04-10,2023-04-10,株式会社ＫＩＲＩＮ,,株式会社,新潟県,柏崎市,大字平井４３７１番地１,,15,205,9451353,,,,,,,2023-04-10,1,,,,,キリン,0
1605,5120001253794,新規,0,2023-04-10,2023-04-10,株式会社ＭＯＡ,,株式会社,大阪府,大阪市生野区,小路東６丁目８番１７号,,27,116,5440003,,,,,,,2023-04-10,1,,,,,モア,0
1611,5120101067319,新規,0,2023-04-10,2023-04-10,藤井商会株式会社,,株式会社,大阪府,堺市北区,新金岡町４丁３番１６－２０２号,,27,146,5918021,,,,,,,2023-04-10,1,,,,,フジイショウカイ,0
1631,5140001129646,新規,0,2023-04-10,2023-04-10,株式会社ビブバンケットサービス,,株式会社,兵庫県,西宮市,門戸東町３番５７－３０１号,,28,204,6620824,,,,,,,2023-04-10,1,,,,,ビブバンケットサービス,0
1632,5140001129654,新規,0,2023-04-10,2023-04-10,株式会社Ｂｅｓｔ　Ｆａｍｉｌｙ,,株式会社,兵庫県,姫路市,書写８７９番地２１,,28,201,6712201,,,,,,,2023-04-10,1,,,,,ベストファミリー,0
1633,5140001129670,新規,0,2023-04-10,2023-04-10,株式会社姫路高圧ホース,,株式会社,兵庫県,姫路市,宮上町２丁目４０番地,,28,201,6700823,,,,,,,2023-04-10,1,,,,,ヒメジコウアツホース,0
1634,5140001129679,新規,0,2023-04-10,2023-04-10,株式会社ｌｅｆｕＤｅｓｉｇｎ,,株式会社,兵庫県,姫路市,白浜町寺家２丁目７９番地１,,28,201,6728012,,,,,,,2023-04-10,1,,,,,レフデザイン,0
1635,5140001129687,新規,0,2023-04-10,2023-04-10,泰幸クリエイト株式会社,,株式会社,兵庫県,姫路市,船津町２５２４番地,,28,201,6792101,,,,,,,2023-04-10,1,,,,,タイコウクリエイト,0
1636,5140001129695,新規,0,2023-04-10,2023-04-10,株式会社Ｒａｉｓｅ,,株式会社,兵庫県,神戸市灘区,城内通４丁目３番４号ｃｏｚｙｓａｉ１１０３号,,28,102,6570836,,,,,,,2023-04-10,1,,,,,レイズ,0
1637,5140001129704,新規,0,2023-04-10,2023-04-10,株式会社海外電気倶楽部,,株式会社,兵庫県,神戸市中央区,元町通３丁目１０番２号,,28,110,6500022,,,,,,,2023-04-10,1,,,,,カイガイデンキクラブ,0
1641,5140003018938,新規,0,2023-04-10,2023-04-10,合同会社Ｄａｏｎ,,合同会社,兵庫県,西宮市,丸橋町４－３４－２０２,,28,204,6620831,,,,,,,2023-04-10,1,,,,,ダオン,0
1642,5140003018946,新規,0,2023-04-10,2023-04-10,好日コンサルティング合同会社,,合同会社,兵庫県,川辺郡猪名川町,伏見台３丁目２番地６２,,28,301,6660262,,,,,,,2023-04-10,1,,,,,コウジツコンサルティング,0
1646,5140005026567,新規,0,2023-04-10,2023-04-10,一般社団法人ｍＡｋｅｓ,,その他の設立登記法人,兵庫県,神戸市中央区,旭通３丁目５番７号,,28,110,6510095,,,,,,,2023-04-10,1,,,,,マークス,0
1647,5160001024960,新規,0,2023-04-10,2023-04-10,株式会社城食品,,株式会社,滋賀県,大津市,木戸１０２４番地,,25,201,5200514,,,,,,,2023-04-10,1,,,,,シロショクヒン,0
1651,5180001155746,新規,0,2023-04-10,2023-04-10,株式会社ブリエ,,株式会社,愛知県,名古屋市中区,新栄３丁目５－７フローラル千種２０３,,23,106,4600007,,,,,,,2023-04-10,1,,,,,ブリエ,0
1656,5180301037256,新規,0,2023-04-10,2023-04-10,株式会社すずらん,,株式会社,愛知県,高浜市,屋敷町２丁目８番地２７,,23,227,4441331,,,,,,,2023-04-10,1,,,,,スズラン,0
1657,5180301037272,新規,0,2023-04-10,2023-04-10,株式会社動楽,,株式会社,愛知県,岡崎市,緑丘１丁目９番地３,,23,202,4440806,,,,,,,2023-04-10,1,,,,,ドウラク,0
1658,5190001030312,新規,0,2023-04-10,2023-04-10,株式会社地球屋,,株式会社,三重県,津市,幸町２７番３５号,,24,201,5140835,,,,,,,2023-04-10,1,,,,,チキュウヤ,0
1667,5220005008739,新規,0,2023-04-10,2023-04-10,一般社団法人Ｔｏｍ＆Ｒｉｓａ,,その他の設立登記法人,石川県,金沢市,牧町イ１０２番,,17,201,9200827,,,,,,,2023-04-10,1,,,,,トムアンドリサ,0
1678,5250001020050,新規,0,2023-04-10,2023-04-10,株式会社アストロネッツ,,株式会社,山口県,宇部市,新町１２番１号,,35,202,7550044,,,,,,,2023-04-10,1,,,,,アストロネッツ,0
1682,5260001037829,新規,0,2023-04-10,2023-04-10,株式会社ＭＡＴＳＵ,,株式会社,岡山県,岡山市北区,津島東２丁目１番３９号,,33,101,7000081,,,,,,,2023-04-10,1,,,,,マツ,0
1683,5260005011210,新規,0,2023-04-10,2023-04-10,一般財団法人姿勢科学研究機構,,その他の設立登記法人,岡山県,倉敷市,吉岡３７８番地,,33,202,7100842,,,,,,,2023-04-10,1,,,,,シセイカガクケンキュウキコウ,0
1691,5290005019011,新規,0,2023-04-10,2023-04-10,医療法人史晴会,,その他の設立登記法人,福岡県,糟屋郡志免町,別府西３丁目１３番７号,,40,343,8112232,,,,,,,2023-04-10,1,,,,,シセイカイ,0
1694,5290801029444,新規,0,2023-04-10,2023-04-10,株式会社ＰＬＵＳ　Ｈ,,株式会社,福岡県,北九州市門司区,大里本町３丁目６－２５－３０１,,40,101,8000063,,,,,,,2023-04-10,1,,,,,プラスエイチ,0
1695,5290801029452,新規,0,2023-04-10,2023-04-10,新日本造園株式会社,,株式会社,福岡県,北九州市八幡西区,下上津役２丁目１９番１１号,,40,109,8070075,,,,,,,2023-04-10,1,,,,,シンニッポンゾウエン,0
1702,5320005010065,新規,0,2023-04-10,2023-04-10,一般社団法人すてきな大分を伝える会,,その他の設立登記法人,大分県,大分市,大字家島４６３番地,,44,201,8700113,,,,,,,2023-04-10,1,,,,,ステキナオオイタヲツタエルカイ,0
1706,5330003009793,新規,0,2023-04-10,2023-04-10,合同会社石田自動車産業,,合同会社,熊本県,山鹿市,鹿本町梶屋１３７３番地,,43,208,8610312,,,,,,,2023-04-10,1,,,,,イシダジドウシャサンギョウ,0
1709,5340001025494,新規,0,2023-04-10,2023-04-10,スパーキングスマイル株式会社,,株式会社,鹿児島県,鹿児島市,東坂元３丁目３４番１１号,,46,201,8920861,,,,,,,2023-04-10,1,,,,,スパーキングスマイル,0
1711,5350001018282,新規,0,2023-04-10,2023-04-10,株式会社スタローン,,株式会社,宮崎県,宮崎市,谷川２丁目１番３号,,45,201,8800908,,,,,,,2023-04-10,1,,,,,スタローン,0
1713,5350005006151,新規,0,2023-04-10,2023-04-10,一般社団法人セレソン都城フットボールクラブ,,その他の設立登記法人,宮崎県,北諸県郡三股町,大字樺山３２７６番地１４,,45,341,8891901,,,,,,,2023-04-10,1,,,,,セレソンミヤコノジョウフットボールクラブ,0
1714,5360001031805,新規,0,2023-04-10,2023-04-10,株式会社ＣＯＲＡＬ　ＨＯＭＥ,,株式会社,沖縄県,中頭郡読谷村,字宇座１８６１番地ｈｏｗｌｉｖｅ内,,47,324,9040328,,,,,,,2023-04-10,1,,,,,コーラルホーム,0
1715,5360001031846,新規,0,2023-04-10,2023-04-10,株式会社うなぁ沖縄,,株式会社,沖縄県,うるま市,字川田４０２番地１、２階,,47,213,9042232,,,,,,,2023-04-10,1,,,,,ウナァオキナワ,0
1716,5370001049788,新規,0,2023-04-10,2023-04-10,相続トータルサポート株式会社ワン・ストップ,,株式会社,宮城県,気仙沼市,西みなと町３番１７号,,04,205,9880006,,,,,,,2023-04-10,1,,,,,ソウゾクトータルサポートワンストップ,0
1717,5370001049813,新規,0,2023-04-10,2023-04-10,ＧＨＯＳＴ　ＦＩＴ株式会社,,株式会社,宮城県,仙台市青葉区,一番町３丁目１番１６号ＰＡＲＭ－ＣＩＴＹ１３１、２Ｆ,,04,101,9800811,,,,,,,2023-04-10,1,,,,,ゴーストフィット,0
1718,5370001049821,新規,0,2023-04-10,2023-04-10,東北ヘルスケアサポート株式会社,,株式会社,宮城県,仙台市青葉区,中央２丁目２番１０号,,04,101,9800021,,,,,,,2023-04-10,1,,,,,トウホクヘルスケアサポート,0
1729,5400003003062,新規,0,2023-04-10,2023-04-10,みやざき不動産合同会社,,合同会社,岩手県,盛岡市,三本柳５地割３３番地２７エクセル都南２０３号,,03,201,0200831,,,,,,,2023-04-10,1,,,,,ミヤザキフドウサン,0
1734,5430003014916,新規,0,2023-04-10,2023-04-10,合同会社ジェラパタット,,合同会社,北海道,虻田郡ニセコ町,字有島６２－２,,01,395,0481531,,,,,,,2023-04-10,1,,,,,ジェラパタット,0
1736,5450003002316,新規,0,2023-04-10,2023-04-10,合同会社Ｃａｒ　ｐｌｕｓ,,合同会社,北海道,稚内市,栄１丁目４０番６号,,01,214,0970017,,,,,,,2023-04-10,1,,,,,カープラス,0
1737,5460003000946,新規,0,2023-04-10,2023-04-10,ひまわり建設合同会社,,合同会社,北海道,釧路郡釧路町,字別保原野南１９線５６番地１,,01,661,0880605,,,,,,,2023-04-10,1,,,,,ヒマワリケンセツ,0
1742,5700150115225,新規,0,2023-04-10,2023-04-10,Ｓｕｃａｍｐｏ　Ｐｈａｒｍａ　Ａｍｅｒｉｃａｓ　ＬＬＣ,,外国会社等,,,,,,,,６７５　ＭｃＤｏｎｎｅｌｌ　Ｂｌｖｄ，Ｈａｚｅｌｗｏｏｄ，ＭＯ　６３０４２,,,,,,2023-04-10,1,,,,,スキヤンポフアーマアメリカエルエルシー,0
1743,5700150115233,新規,0,2023-04-10,2023-04-10,ＳｈｅｎｚｈｅｎｓｈｉＦｅｎｇｈｕａｘｉｎＫｅｊｉＹｏｕｘｉａｎＧｏｎｇｓｉ,,外国会社等,,,,,,,,ＬｏｎｇｈｕａｑｕＧｕａｎｌａｎｊｉｅｄａｏＺｈｕｃｕｎｌｕＧａｏｓｈｅｎｇｇｏｎｇｙｕ１０１１ＳＨＥＮＺＨＥＮＧＵＡＮＧＤＯＮＧＣｈｉｎａ,,,,,,2023-04-10,1,,,,,シエンズヘンシーフエングフアクシンケツジーヤウクシアンゴングシー,0
1744,5700150115258,新規,0,2023-04-10,2023-04-10,Ｎａｎｔｏｎｇ　Ｒｏｎｇｈｕｉ　Ｃｌｏｔｈｉｎｇ　Ｃｏ．，Ｌｔｄ,,外国会社等,,,,,,,,Ｎｏ．１，Ｇｕｏｑｉａｎｇ　Ｒｏａｄ，Ｇａｎｇｚｈａ　Ｄｉｓｔｒｉｃｔ，Ｎａｎｔｏｎｇ　Ｃｉｔｙ（Ｂａｌｉｍｉａｏ　Ｖｉｌｌａｇｅ　４ｚｕ）,,,,,,2023-04-10,1,,,,,ナントンロンフイフージュワンヨウシエンゴンスー,0
1754,6010001234160,新規,0,2023-04-10,2023-04-10,Ｊａｐａｎ　ＣＢＤ　Ｐｌｕｇ株式会社,,株式会社,東京都,中央区,銀座１丁目２２番１１号銀座大竹ビジデンス２Ｆ,,13,102,1040061,,,,,,,2023-04-10,1,,,,,ジャパンシービーディープラグ,0
1755,6010001234235,新規,0,2023-04-10,2023-04-10,株式会社ＵＰ‐ＳＴＡＲＴ,,株式会社,東京都,中央区,銀座１丁目１２番４号Ｎ＆ＥＢＬＤ．６Ｆ,,13,102,1040061,,,,,,,2023-04-10,1,,,,,アップスタート,0
1756,6010001234251,新規,0,2023-04-10,2023-04-10,株式会社サラゼフ,,株式会社,東京都,中央区,銀座１丁目２２番１１号銀座大竹ビジデンス２階,,13,102,1040061,,,,,,,2023-04-10,1,,,,,サラゼフ,0
1757,6010001234268,新規,0,2023-04-10,2023-04-10,株式会社Ｒｅｖｉｔａｌｉｚｅ,,株式会社,東京都,文京区,湯島４丁目１１番１６号－２０６号,,13,105,1130034,,,,,,,2023-04-10,1,,,,,リヴァイタライズ,0
1758,6010001234318,新規,0,2023-04-10,2023-04-10,株式会社ＣＨＡＬ,,株式会社,東京都,中央区,八丁堀４丁目８番１号,,13,102,1040032,,,,,,,2023-04-10,1,,,,,チャル,0
1759,6010001234350,新規,0,2023-04-10,2023-04-10,株式会社ＨＬａｂ,,株式会社,東京都,中央区,晴海２丁目３番２－３４０４号,,13,102,1040053,,,,,,,2023-04-10,1,,,,,エイチラボ,0
1762,6010003040243,新規,0,2023-04-10,2023-04-10,合同会社ＦＥ大船渡ＰＰＡ１,,合同会社,東京都,中央区,日本橋室町２丁目３番１号,,13,102,1030022,,,,,,,2023-04-10,1,,,,,エフイーオオフナトピーピーエーイチ,0
1763,6010003040276,新規,0,2023-04-10,2023-04-10,合同会社ＺＥＨＰＪ６,,合同会社,東京都,中央区,銀座４丁目６番１号三幸オフィスマネジメント株式会社内,,13,102,1040061,,,,,,,2023-04-10,1,,,,,ゼッチピージェーシックス,0
1774,6010101015584,新規,0,2023-04-10,2023-04-10,守屋電気工事株式会社,,株式会社,東京都,八王子市,七国３丁目２１番１０号,,13,201,1920919,,,,,,,2023-04-10,1,,,,,モリヤデンキコウジ,0
1777,6010401173537,新規,0,2023-04-10,2023-04-10,株式会社サブトラクトデザインスタジオ,,株式会社,東京都,港区,六本木７丁目８番６号６・７階,,13,103,1060032,,,,,,,2023-04-10,1,,,,,サブトラクトデザインスタジオ,0
1778,6010401173545,新規,0,2023-04-10,2023-04-10,株式会社Ｓｔｕｊｉｏ,,株式会社,東京都,港区,六本木７丁目１８番１８号２階,,13,103,1060032,,,,,,,2023-04-10,1,,,,,スタジオ,0
1779,6010401173553,新規,0,2023-04-10,2023-04-10,株式会社Ｅｓｓｅｎｃｅ　Ｇｒｏｕｐ,,株式会社,東京都,港区,南青山３丁目１番３６号６階,,13,103,1070062,,,,,,,2023-04-10,1,,,,,エッセンスグループ,0
1781,6010403029869,新規,0,2023-04-10,2023-04-10,ＰＫＸＤｉｇｉｔａｌ合同会社,,合同会社,東京都,港区,元麻布３丁目１番６号,,13,103,1060046,,,,,,,2023-04-10,1,,,,,ピーケーエックスデジタル,0
1784,6010405022005,新規,0,2023-04-10,2023-04-10,一般財団法人紀文奨学財団,,その他の設立登記法人,東京都,港区,海岸２丁目１番７号,,13,103,1050022,,,,,,,2023-04-10,1,,,,,キブンショウガクザイダン,0
1786,6010601062878,新規,0,2023-04-10,2023-04-10,株式会社トライ・アール,,株式会社,東京都,墨田区,東墨田３丁目２１番１５号,,13,107,1310042,,,,,,,2023-04-10,1,,,,,トライアール,0
1787,6010601062886,新規,0,2023-04-10,2023-04-10,株式会社ブリッジスマイル,,株式会社,東京都,江東区,豊洲２丁目５番２－１９０２,,13,108,1350061,,,,,,,2023-04-10,1,,,,,ブリッジスマイル,0
1788,6010603010091,新規,0,2023-04-10,2023-04-10,ＪＡＭ合同会社,,合同会社,東京都,墨田区,太平４丁目５番１６号明治屋ビル１０１,,13,107,1300012,,,,,,,2023-04-10,1,,,,,ジャム,0
1791,6010701044074,新規,0,2023-04-10,2023-04-10,株式会社ＡＴＥＬＩＥＲ　ＫＹＯＨＥＩ,,株式会社,東京都,品川区,東大井５丁目２５番４号,,13,109,1400011,,,,,,,2023-04-10,1,,,,,アトリエキョウヘイ,0
1805,6011001153656,新規,0,2023-04-10,2023-04-10,株式会社Ｆｒｅｄｄｙ,,株式会社,東京都,渋谷区,道玄坂１丁目１０番８号渋谷道玄坂東急ビル２Ｆ－Ｃ,,13,113,1500043,,,,,,,2023-04-10,1,,,,,フレディ,0
1815,6011101102364,新規,0,2023-04-10,2023-04-10,ＴＲＡＩＬ株式会社,,株式会社,東京都,新宿区,中井１丁目８番１０号,,13,104,1610035,,,,,,,2023-04-10,1,,,,,トレイル,0
1816,6011103012842,新規,0,2023-04-10,2023-04-10,ヴリルコンジャンクション日本合同会社,,合同会社,東京都,新宿区,赤城下町４４メゾン・ド・イグレック１０２,,13,104,1620803,,,,,,,2023-04-10,1,,,,,ヴリルコンジャンクションニホン,0
1817,6011105010613,新規,0,2023-04-10,2023-04-10,一般社団法人韓日文化芸術交流協会,,その他の設立登記法人,東京都,新宿区,百人町１丁目２番９号尚美ビルＩＩ２Ｆ,00130006,13,104,1690073,,,,,,,2023-04-10,1,,,,,カンニチブンカゲイジュツコウリュウキョウカイ,0
1824,6011601026716,新規,0,2023-04-10,2023-04-10,Ｃａｒｅｅｒ　Ｃｏｎｃｅｐｔ株式会社,,株式会社,東京都,練馬区,石神井台３丁目３１番２３号センチュリ－石神井台１０６号室,,13,120,1770045,,,,,,,2023-04-10,1,,,,,キャリアコンセプト,0
1825,6011603003886,新規,0,2023-04-10,2023-04-10,合同会社ＡＬＬＮＥＷＰＯＲＴＳ,,合同会社,東京都,練馬区,関町東１丁目２５番３号,,13,120,1770052,,,,,,,2023-04-10,1,,,,,オールニューポーツ,0
1830,6012801022257,新規,0,2023-04-10,2023-04-10,株式会社ＮＡＲＩ,,株式会社,東京都,日野市,高幡１０１２番地の５コメットＮ１０３,,13,212,1910031,,,,,,,2023-04-10,1,,,,,ナリ,0
1836,6013305003454,新規,0,2023-04-10,2023-04-10,特定非営利活動法人羽ばたく力ＭＩＲＡＫＡサポート,,その他の設立登記法人,東京都,豊島区,駒込１丁目１５番１８－４０３号,,13,116,1700003,,,,,,,2023-04-10,1,,,,,ハバタクチカラミラカサポート,0
1844,6020001150919,新規,0,2023-04-10,2023-04-10,株式会社若林電気,,株式会社,神奈川県,横浜市泉区,新橋町７０９番地１－Ｂ２０１号,,14,116,2450009,,,,,,,2023-04-10,1,,,,,ワカバヤシデンキ,0
1845,6020001151058,新規,0,2023-04-10,2023-04-10,株式会社ＡＭＡＳＩＡ,,株式会社,神奈川県,川崎市宮前区,有馬３丁目２５番２０－３０１号グローリエ３２７０,,14,136,2160003,,,,,,,2023-04-10,1,,,,,アメイジア,0
1846,6020001151090,新規,0,2023-04-10,2023-04-10,株式会社ＵＮＬＥＡＳＨ,,株式会社,神奈川県,横浜市保土ケ谷区,天王町１丁目２３番地１５Ｙフラット天王町１Ｆ,,14,106,2400003,,,,,,,2023-04-10,1,,,,,アンリーシュ,0
1852,6021001078670,新規,0,2023-04-10,2023-04-10,株式会社ｄａｉ‐ｃｒｅｗ,,株式会社,神奈川県,厚木市,関口１０１４番地１７,,14,212,2430804,,,,,,,2023-04-10,1,,,,,ダイクルー,0
1854,6021005012774,新規,0,2023-04-10,2023-04-10,医療法人おひさま会,,その他の設立登記法人,神奈川県,足柄上郡開成町,みなみ１丁目２３番３,,14,366,2580029,,,,,,,2023-04-10,1,,,,,オヒサマカイ,0
1855,6021005012782,新規,0,2023-04-10,2023-04-10,労働者協同組合キフクト,,その他の設立登記法人,神奈川県,大和市,下鶴間１８５９－２３,,14,213,2420001,,,,,,,2023-04-10,1,,,,,キフクト,0
1860,6030001153185,新規,0,2023-04-10,2023-04-10,株式会社心,,株式会社,埼玉県,狭山市,沢６番３５号,,11,215,3501303,,,,,,,2023-04-10,1,,,,,シン,0
1861,6030001153219,新規,0,2023-04-10,2023-04-10,株式会社ＡＣＯＲ,,株式会社,埼玉県,熊谷市,箱田７丁目８番２１－２号,,11,202,3600014,,,,,,,2023-04-10,1,,,,,エイカー,0
1862,6030001153326,新規,0,2023-04-10,2023-04-10,株式会社ＳＡＫＵＲＡ,,株式会社,埼玉県,志木市,中宗岡４丁目６番５４号,,11,228,3530002,,,,,,,2023-04-10,1,,,,,サクラ,0
1863,6030003021456,新規,0,2023-04-10,2023-04-10,セーフプロテクト合同会社,,合同会社,埼玉県,さいたま市北区,今羽町７５‐１ファミール大宮３０２,,11,102,3310801,,,,,,,2023-04-10,1,,,,,セーフプロテクト,0
1864,6030003021555,新規,0,2023-04-10,2023-04-10,合同会社ＡＹＵＲＩＫＵ,,合同会社,埼玉県,さいたま市浦和区,常盤１０丁目１６番２０―３０６号,,11,107,3300061,,,,,,,2023-04-10,1,,,,,アユリク,0
1871,6040001127915,新規,0,2023-04-10,2023-04-10,ＡＴＦ株式会社,,株式会社,千葉県,千葉市若葉区,加曽利町１８５番地５,,12,104,2640017,,,,,,,2023-04-10,1,,,,,エイティーエフ,0
1875,6040005021949,新規,0,2023-04-10,2023-04-10,一般社団法人ライズアップクリエイション,,その他の設立登記法人,千葉県,茂原市,下永吉１２９８番地１４,,12,210,2970035,,,,,,,2023-04-10,1,,,,,ライズアップクリエイション,0
1878,6050001052641,新規,0,2023-04-10,2023-04-10,株式会社三和自動車,,株式会社,茨城県,古河市,谷貝６２３番地１,,08,204,3060113,,,,,,,2023-04-10,1,,,,,サンワジドウシャ,0
1879,6050001052658,新規,0,2023-04-10,2023-04-10,エイトピース株式会社,,株式会社,茨城県,つくば市,竹園２丁目１１番地２１－００７号,,08,220,3050032,,,,,,,2023-04-10,1,,,,,エイトピース,0
1880,6050001052666,新規,0,2023-04-10,2023-04-10,株式会社Ｎｅａｆ,,株式会社,茨城県,行方市,玉造甲６３７３番地６,,08,233,3113512,,,,,,,2023-04-10,1,,,,,ニーフ,0
1881,6050001052674,新規,0,2023-04-10,2023-04-10,株式会社クレド,,株式会社,茨城県,稲敷市,結佐１６９番地,,08,229,3000734,,,,,,,2023-04-10,1,,,,,クレド,0
1882,6050003007395,新規,0,2023-04-10,2023-04-10,ＴＨ　ＪＡＰＡＮ合同会社,,合同会社,茨城県,水戸市,城東５丁目３番１０号サンハイツ城東２０１号,,08,201,3100012,,,,,,,2023-04-10,1,,,,,ティーエイチジャパン,0
1883,6050003007404,新規,0,2023-04-10,2023-04-10,啓程合同会社,,合同会社,茨城県,牛久市,中央３丁目７番地６,,08,219,3001234,,,,,,,2023-04-10,1,,,,,ケイテイ,0
1887,6060001035851,新規,0,2023-04-10,2023-04-10,翔英シャッター株式会社,,株式会社,栃木県,宇都宮市,鐺山町１８５６番地１２,,09,201,3213235,,,,,,,2023-04-10,1,,,,,ショウエイシャッター,0
1888,6060001035868,新規,0,2023-04-10,2023-04-10,株式会社エイティーファム,,株式会社,栃木県,宇都宮市,東簗瀬１丁目３番地１５,,09,201,3210925,,,,,,,2023-04-10,1,,,,,エイティーファム,0
1889,6060005010066,新規,0,2023-04-10,2023-04-10,医療法人社団新萌彰会,,その他の設立登記法人,栃木県,那須塩原市,野間字神沼４５３番地１４,,09,213,3250014,,,,,,,2023-04-10,1,,,,,シンホウショウカイ,0
1891,6070001040306,新規,0,2023-04-10,2023-04-10,ＮＩＨＯＮ　ＴＲＡＤＩＮＧ株式会社,,株式会社,群馬県,太田市,藤阿久町９３５番地１（Ｙ′ｓＩＩ２０３号）,00130019,10,205,3730034,,,,,,,2023-04-10,1,,,,,ニホントレーディング,0
1897,6070005010107,新規,0,2023-04-10,2023-04-10,一般社団法人群馬県山岳・スポーツクライミング連盟,,その他の設立登記法人,群馬県,前橋市,下小出町２丁目４６番地１,,10,201,3710031,,,,,,,2023-04-10,1,,,,,グンマケンサンガクスポーツクライミングレンメイ,0
1898,6080001025561,新規,0,2023-04-10,2023-04-10,ハヤテ２２３株式会社,,株式会社,静岡県,静岡市葵区,御幸町３番地の２１静岡市産学交流センター,,22,101,4200857,,,,,,,2023-04-10,1,,,,,ハヤテフジサン,0
1900,6080101023911,新規,0,2023-04-10,2023-04-10,株式会社ＯＸＰ,,株式会社,静岡県,伊豆の国市,田京９６‐７レオパレス田京１０５,,22,225,4102315,,,,,,,2023-04-10,1,,,,,オーエックスピー,0
1902,6080401026424,新規,0,2023-04-10,2023-04-10,株式会社Ｇｅｃｋｏ　Ｇａｒｄｅｎ　Ｗｏｒｋｓ,,株式会社,静岡県,掛川市,各和９８２番地の１,,22,213,4360113,,,,,,,2023-04-10,1,,,,,ゲッコーガーデンワークス,0
1906,6100003006961,新規,0,2023-04-10,2023-04-10,市之宮合同会社,,合同会社,長野県,長野市,大字高田１０６６－２,,20,201,3810034,,,,,,,2023-04-10,1,,,,,イチノミヤ,0
1910,6110003005021,新規,0,2023-04-10,2023-04-10,合同会社ヨアケ,,合同会社,新潟県,新潟市中央区,新和１丁目６番２０号アーク笹出,,15,103,9500972,,,,,,,2023-04-10,1,,,,,ヨアケ,0
1911,6110005016917,新規,0,2023-04-10,2023-04-10,Ｐｒｏｓｐｅｒ税理士法人,,その他の設立登記法人,新潟県,燕市,米納津４０２１番地５,,15,213,9590206,,,,,,,2023-04-10,1,,,,,プロスパー,0
1921,6120001253892,新規,0,2023-04-10,2023-04-10,株式会社トリプルスタンダード,,株式会社,大阪府,大阪市中央区,備後町３丁目６番２号,,27,128,5410051,,,,,,,2023-04-10,1,,,,,トリプルスタンダード,0
1932,6120005023557,新規,0,2023-04-10,2023-04-10,国際人材育成協同組合,,その他の設立登記法人,大阪府,大阪市阿倍野区,阿倍野筋１丁目１番４３号,,27,119,5450052,,,,,,,2023-04-10,1,,,,,コクサイジンザイイクセイ,0
1935,6120101067318,新規,0,2023-04-10,2023-04-10,リバービレッジ株式会社,,株式会社,大阪府,堺市中区,東山８１２番地１５,,27,142,5998247,,,,,,,2023-04-10,1,,,,,リバービレッジ,0
1941,6122001036872,新規,0,2023-04-10,2023-04-10,株式会社小林興業,,株式会社,大阪府,東大阪市,加納３丁目１７番１５号,,27,227,5780901,,,,,,,2023-04-10,1,,,,,コバヤシコウギョウ,0
1943,6130001073984,新規,0,2023-04-10,2023-04-10,株式会社Ｏ・Ｄ・Ｒ,,株式会社,京都府,宇治市,広野町寺山８２番地の６７,,26,204,6110031,,,,,,,2023-04-10,1,,,,,オーディーアール,0
1946,6130005016741,新規,0,2023-04-10,2023-04-10,一般社団法人農漁業農漁村地域活性化機構,,その他の設立登記法人,京都府,長岡京市,天神３丁目５番４号,,26,209,6170824,,,,,,,2023-04-10,1,,,,,ノウギョギョウノウギョソンチイキカッセイカキコウ,0
1964,6140001129637,新規,0,2023-04-10,2023-04-10,ＪＤＣ株式会社,,株式会社,兵庫県,尼崎市,南塚口町６丁目１０番３７号,,28,202,6610012,,,,,,,2023-04-10,1,,,,,ジェイディーシー,0
1965,6140001129645,新規,0,2023-04-10,2023-04-10,株式会社コニシ建設,,株式会社,兵庫県,多可郡多可町,中区西安田３７９番地,,28,365,6791123,,,,,,,2023-04-10,1,,,,,,0
1966,6140001129678,新規,0,2023-04-10,2023-04-10,Ａ‐ｆｅｅｌ株式会社,,株式会社,兵庫県,加古郡播磨町,東野添３丁目３番７号シャトリエＩＩ２０２号,00130007,28,382,6750159,,,,,,,2023-04-10,1,,,,,エーフィール,0
1967,6140001129686,新規,0,2023-04-10,2023-04-10,神戸テクノ株式会社,,株式会社,兵庫県,神戸市西区,竜が岡１丁目１１番地４,,28,111,6512412,,,,,,,2023-04-10,1,,,,,コウベテクノ,0
1968,6140001129694,新規,0,2023-04-10,2023-04-10,株式会社ＺＥＮ,,株式会社,兵庫県,西宮市,甲子園口２丁目１０番１号ラウル甲子園口１Ｆ,,28,204,6638113,,,,,,,2023-04-10,1,,,,,ゼン,0
1969,6140001129728,新規,0,2023-04-10,2023-04-10,株式会社ＹＥＮＳＴＵＤＩＯ,,株式会社,兵庫県,宝塚市,中山五月台６丁目１番,,28,214,6650871,,,,,,,2023-04-10,1,,,,,エンスタジオ,0
1973,6140003018945,新規,0,2023-04-10,2023-04-10,合同会社ワタナベカンパニー,,合同会社,兵庫県,丹波市,氷上町市辺６８３,,28,223,6693461,,,,,,,2023-04-10,1,,,,,ワタナベカンパニー,0
1977,6150001026296,新規,0,2023-04-10,2023-04-10,株式会社ＳＰＣトレーディング,,株式会社,奈良県,北葛城郡上牧町,大字上牧８１６番地１（１０７－１７）,,29,424,6390214,,,,,,,2023-04-10,1,,,,,エスピーシートレーディング,0
1978,6150003002923,新規,0,2023-04-10,2023-04-10,合同会社Ｑｏｏ,,合同会社,奈良県,桜井市,大字太田１０２番地の３６,,29,206,6330084,,,,,,,2023-04-10,1,,,,,クー,0
1982,6170001017541,新規,0,2023-04-10,2023-04-10,株式会社アスカ,,株式会社,和歌山県,有田郡有田川町,大字土生６０番地８,,30,366,6430025,,,,,,,2023-04-10,1,,,,,アスカ,0
1995,6180001155679,新規,0,2023-04-10,2023-04-10,株式会社ロイヤル牧,,株式会社,愛知県,名古屋市天白区,池場３丁目５１４番地,,23,116,4680055,,,,,,,2023-04-10,1,,,,,ロイヤルマキ,0
1996,6180001155712,新規,0,2023-04-10,2023-04-10,株式会社中京ハウスサービス,,株式会社,愛知県,津島市,神尾町字野中８７番地,,23,208,4960013,,,,,,,2023-04-10,1,,,,,チュウキョウハウスサービス,0
1997,6180001155753,新規,0,2023-04-10,2023-04-10,株式会社ＡＲＩＫＡＮ　ＣＯＲＰＯＲＡＴＩＯＮ,,株式会社,愛知県,小牧市,城山１丁目６番地６コンフォール城山６号棟１０８号,,23,219,4850812,,,,,,,2023-04-10,1,,,,,アリカンコーポレーション,0
1998,6180001155761,新規,0,2023-04-10,2023-04-10,まごころ相続株式会社,,株式会社,愛知県,名古屋市西区,名駅１丁目１番１７号,,23,104,4510045,,,,,,,2023-04-10,1,,,,,マゴコロソウゾク,0
1999,6180001155803,新規,0,2023-04-10,2023-04-10,株式会社プロキャスト,,株式会社,愛知県,名古屋市中区,丸の内１丁目１０番２９号,,23,106,4600002,,,,,,,2023-04-10,1,,,,,プロキャスト,0
2005,6180003025087,新規,0,2023-04-10,2023-04-10,合同会社ＴＩＧ,,合同会社,愛知県,名古屋市守山区,藪田町１８０６番地,,23,113,4630026,,,,,,,2023-04-10,1,,,,,ティーアイジー,0
2009,6180301037271,新規,0,2023-04-10,2023-04-10,株式会社ビジネスデザイン,,株式会社,愛知県,豊橋市,瓦町通１丁目８２番地,,23,201,4400824,,,,,,,2023-04-10,1,,,,,ビジネスデザイン,0
2010,6180301037288,新規,0,2023-04-10,2023-04-10,株式会社バディトランス,,株式会社,愛知県,知立市,牛田町社口４番地１,,23,225,4720007,,,,,,,2023-04-10,1,,,,,バディトランス,0
2014,6190005011811,新規,0,2023-04-10,2023-04-10,社会福祉法人サザンコート,,その他の設立登記法人,三重県,津市,鳥居町１６７番地８,,24,201,5140005,,,,,,,2023-04-10,1,,,,,サザンコート,0
2025,6220003003492,新規,0,2023-04-10,2023-04-10,合同会社円満,,合同会社,石川県,河北郡津幡町,字倉見ソ３９番地２,,17,361,9290455,,,,,,,2023-04-10,1,,,,,エンマン,0
2030,6230005009289,新規,0,2023-04-10,2023-04-10,特定非営利活動法人チア・ザ・チルドレン子どもの命と未来を守る児童虐待予防教育機構,,その他の設立登記法人,富山県,富山市,八尾町今町１６６９,,16,201,9392353,,,,,,,2023-04-10,1,,,,,チアザチルドレンコドモノイノチトミライヲマモルジドウギャクタイヨボウキョウイクキコウ,0
2033,6240001061326,新規,0,2023-04-10,2023-04-10,タツテック株式会社,,株式会社,広島県,広島市安佐南区,山本新町５丁目１５番８号,,34,105,7310139,,,,,,,2023-04-10,1,,,,,タツテック,0
2042,6260001037844,新規,0,2023-04-10,2023-04-10,株式会社ＨＯＰＥ,,株式会社,岡山県,岡山市中区,福泊１４４番地８小山ハイツ２０２,,33,102,7038262,,,,,,,2023-04-10,1,,,,,ホープ,0
2057,6290003013758,新規,0,2023-04-10,2023-04-10,合同会社うえはぴ,,合同会社,福岡県,福岡市博多区,東雲町３丁目３番３１号,,40,132,8120871,,,,,,,2023-04-10,1,,,,,ウエハピ,0
2064,6310001018343,新規,0,2023-04-10,2023-04-10,エーティ株式会社,,株式会社,長崎県,佐世保市,瀬戸越４丁目１３１８番地１,,42,202,8570134,,,,,,,2023-04-10,1,,,,,エーティ,0
2067,6320001019662,新規,0,2023-04-10,2023-04-10,株式会社アイエスファーマ,,株式会社,大分県,別府市,富士見町１番６号,,44,202,8740921,,,,,,,2023-04-10,1,,,,,アイエスファーマ,0
2068,6330001030726,新規,0,2023-04-10,2023-04-10,株式会社ｓｈｉｏｒｉ,,株式会社,熊本県,熊本市北区,山室２丁目１５番２５号,,43,105,8600084,,,,,,,2023-04-10,1,,,,,シオリ,0
2069,6330001030734,新規,0,2023-04-10,2023-04-10,株式会社ＡＫＩＲＡインシュアランス,,株式会社,熊本県,球磨郡多良木町,大字多良木１４４番地１,,43,505,8680501,,,,,,,2023-04-10,1,,,,,アキラインシュアランス,0
2072,6340001025485,新規,0,2023-04-10,2023-04-10,Ａ’ｒ　ｓｔａｇｅ株式会社,,株式会社,鹿児島県,垂水市,市木２４５１番地２,,46,214,8912103,,,,,,,2023-04-10,1,,,,,アールステージ,0
2073,6340001025493,新規,0,2023-04-10,2023-04-10,株式会社ＭＣＣ,,株式会社,鹿児島県,鹿児島市,小野２丁目９番８号,,46,201,8900021,,,,,,,2023-04-10,1,,,,,エムシーシー,0
2078,6360001031837,新規,0,2023-04-10,2023-04-10,株式会社スマイル,,株式会社,沖縄県,宜野湾市,真志喜３丁目９番７－８０１号,,47,205,9012224,,,,,,,2023-04-10,1,,,,,スマイル,0
2082,6360003012868,新規,0,2023-04-10,2023-04-10,合同会社コードソフト開発,,合同会社,沖縄県,那覇市,松山２丁目１１番６、４０６号室,,47,201,9000032,,,,,,,2023-04-10,1,,,,,コードソフトカイハツ,0
2084,6360005006827,新規,0,2023-04-10,2023-04-10,一般社団法人沖縄県の経済の発展と働く全ての人々の人権を尊重する会,,その他の設立登記法人,沖縄県,浦添市,屋富祖１丁目５番２号マンションみやぎ１Ｆ,,47,208,9012127,,,,,,,2023-04-10,1,,,,,オキナワケンノケイザイノハッテントハタラクスベテノヒトビトノジンケンヲソンチョウスルカイ,0
2090,6370001049812,新規,0,2023-04-10,2023-04-10,株式会社Ｔ．Ｓ．Ａ,,株式会社,宮城県,仙台市宮城野区,萩野町１丁目４番地の２１,,04,102,9830043,,,,,,,2023-04-10,1,,,,,ティーエスエー,0
2092,6370005010613,新規,0,2023-04-10,2023-04-10,一般社団法人ＬＩＥＮ,,その他の設立登記法人,宮城県,栗原市,金成中町１２２番地１,,04,213,9895144,,,,,,,2023-04-10,1,,,,,リアン,0
2110,6400003003061,新規,0,2023-04-10,2023-04-10,合同会社Ｂｉｈｏｎｄｏ,,合同会社,岩手県,紫波郡矢巾町,大字又兵エ新田第６地割２８番地３,,03,322,0283614,,,,,,,2023-04-10,1,,,,,ビホンドウ,0
2114,6430001088779,新規,0,2023-04-10,2023-04-10,山口左官工業株式会社,,株式会社,北海道,札幌市東区,東雁来十二条２丁目３番２０号,,01,103,0070032,,,,,,,2023-04-10,1,,,,,ヤマグチサカンコウギョウ,0
2115,6430001088787,新規,0,2023-04-10,2023-04-10,株式会社アスミル,,株式会社,北海道,札幌市中央区,南十九条西１３丁目１番２２号,,01,101,0640919,,,,,,,2023-04-10,1,,,,,アスミル,0
2116,6430001088829,新規,0,2023-04-10,2023-04-10,道興グループホールディングス株式会社,,株式会社,北海道,札幌市中央区,南八条西１５丁目２番１号,,01,101,0640808,,,,,,,2023-04-10,1,,,,,ドウコウグループホールディングス,0
2120,6440001009239,新規,0,2023-04-10,2023-04-10,函館花香園株式会社,,株式会社,北海道,亀田郡七飯町,字上藤城３９３番地の４,,01,337,0411104,,,,,,,2023-04-10,1,,,,,ハコダテカコウエン,0
2123,6460305001996,新規,0,2023-04-10,2023-04-10,農事組合法人ノースアグリ,,その他の設立登記法人,北海道,常呂郡訓子府町,字北栄３６番地３,,01,549,0991422,,,,,,,2023-04-10,1,,,,,ノースアグリ,0
2125,6470001019540,新規,0,2023-04-10,2023-04-10,セトウチサポート株式会社,,株式会社,香川県,観音寺市,吉岡町５８１番地１,,37,205,7680021,,,,,,,2023-04-10,1,,,,,セトウチサポート,0
2126,6480001012057,新規,0,2023-04-10,2023-04-10,株式会社ゲンボク,,株式会社,徳島県,徳島市,中昭和町１丁目３番地,,36,201,7700943,,,,,,,2023-04-10,1,,,,,ゲンボク,0
2131,6700150115240,新規,0,2023-04-10,2023-04-10,ｇａｎｚｈｏｕｚｉｊｉｅｆｕｍａｏｙｉｙｏｕｘｉａｎｇｏｎｇｓｉ,,外国会社等,,,,,,,,ｚｈａｎｇｇｏｎｇｑｕｃｈａｎｇｇａｎｇｌｕ１３ｈａｏｓｈｅｎｇｈｕｉｃｈｅｎｇｓｈｉｚｈｏｎｇｘｉｎ　１ｈａｏｌｏｕ８０８ｓｈｉ　ｇａｎｚｈｏｕｓｈｉ　ｊｉａｎｇｘｉｓｈｅｎｇ,,,,,,2023-04-10,1,,,,,カンシユウジセツフボウエキユウゲンコウシ,0
2132,6700150115249,新規,0,2023-04-10,2023-04-10,Ｓｈｅｎｚｈｅｎｓｈｉ　Ｈａｏｃｈｅｎｘｉｎｇ　Ｋｅｊｉｙｏｕｘｉａｎｇｏｎｇｓｉ,,外国会社等,,,,,,,,ｓｈｅｎｚｈｅｎｓｈｉｌｏｎｇｈｕａｑｕｌｏｎｇｈｕａｊｉｅｄａｏｊｉｎｇｌｏｎｇｓｈｅｑｕ　ｊｉｎｇｈｕａｘｉｎｃｕｎｄｏｎｇｑｕ２２ｈａｏ５０４　ｓｈｅｎｚｈｅｎｓｈｉ　ｇｕａｎｇｄｏｎｇｓｈｅｎｇ　５１８０００,,,,,,2023-04-10,1,,,,,シンセンシコウシンセイカギユウゲンコウシ,0
2133,6700150115257,新規,0,2023-04-10,2023-04-10,ｙｉｎｇｋｏｕｈｏｎｇｙａｍａｏｙｉｙｏｕｘｉａｎｇｏｎｇｓｉ,,外国会社等,,,,,,,,ｌｉａｏｎｉｎｇｓｈｅｎｇｙｉｎｇｋｏｕｓｈｉｂａｙｕｑｕａｎｑｕｚｈｕｏｙｕｅｄａｓｈａ７ｌｏｕ７０８ｓｈｉ（０５－ｔｏｎｇｘｉｎｊｉｆａｎｇ）,,,,,,2023-04-10,1,,,,,インコウホンヤーマオイーヨウシエンゴンスー,0
2144,7010003040283,新規,0,2023-04-10,2023-04-10,合同会社ＮＯＢＵＣＯ,,合同会社,東京都,中央区,日本橋箱崎町４１－３－４０１,,13,102,1030015,,,,,,,2023-04-10,1,,,,,ノブコ,0
2145,7010003040300,新規,0,2023-04-10,2023-04-10,ＵＮＩＹＡＭＡ合同会社,,合同会社,東京都,千代田区,麹町１丁目８－８グランドメゾン麹町４０４号,,13,101,1020083,,,,,,,2023-04-10,1,,,,,ウニヤマ,0
2155,7010401173569,新規,0,2023-04-10,2023-04-10,マイクロエンタテインメントワークス株式会社,,株式会社,東京都,港区,西麻布２丁目２２番１号,,13,103,1060031,,,,,,,2023-04-10,1,,,,,マイクロエンタテインメントワークス,0
2156,7010401173643,新規,0,2023-04-10,2023-04-10,アイレオヴァハ株式会社,,株式会社,東京都,港区,浜松町２丁目２番１５号浜松町ダイヤビル２階,,13,103,1050013,,,,,,,2023-04-10,1,,,,,アイレオヴァハ,0
2162,7010405022020,新規,0,2023-04-10,2023-04-10,一般社団法人Ｔｈｅ　Ｂａｕｈｉｎｉａ　Ｈｏｔｅｌｓ　Ｇｒｏｕｐ　Ｊａｐａｎ　Ｉ,,その他の設立登記法人,東京都,港区,赤坂３丁目２番２号日総第２４ビル,,13,103,1070052,,,,,,,2023-04-10,1,,,,,ザバウヒニアホテルズグループジャパンアイ,0
2164,7010501050255,新規,0,2023-04-10,2023-04-10,フォーカスオン株式会社,,株式会社,東京都,台東区,寿４丁目７－７グリーンキャピタル浅草２０２号,,13,106,1110042,,,,,,,2023-04-10,1,,,,,フォーカスオン,0
2168,7010601062869,新規,0,2023-04-10,2023-04-10,株式会社ワイズシステム,,株式会社,東京都,江東区,富岡１丁目１２番８号,,13,108,1350047,,,,,,,2023-04-10,1,,,,,ワイズシステム,0
2169,7010601062885,新規,0,2023-04-10,2023-04-10,株式会社ニューパワー,,株式会社,東京都,墨田区,両国２丁目２０番１２号ライオンズステーションプラザ両国２１０号室,,13,107,1300026,,,,,,,2023-04-10,1,,,,,ニューパワー,0
2170,7010603010090,新規,0,2023-04-10,2023-04-10,ＳＨＵＩＣＨＩ合同会社,,合同会社,東京都,江東区,有明１丁目４番１１－２１２７号,,13,108,1350063,,,,,,,2023-04-10,1,,,,,シュウイチ,0
2182,7011001153572,新規,0,2023-04-10,2023-04-10,ニンテンドーシステムズ株式会社,,株式会社,東京都,渋谷区,渋谷２丁目２４番１２号,,13,113,1500002,,,,,,,2023-04-10,1,,,,,ニンテンドーシステムズ,0
2190,7011103012899,新規,0,2023-04-10,2023-04-10,ｇｍ合同会社,,合同会社,東京都,新宿区,西新宿３丁目３番１３号西新宿水間ビル２Ｆ,,13,104,1600023,,,,,,,2023-04-10,1,,,,,ジーエム,0
2191,7011103012908,新規,0,2023-04-10,2023-04-10,合同会社エコソレール,,合同会社,東京都,新宿区,戸山３丁目１番１－２０１号,,13,104,1620052,,,,,,,2023-04-10,1,,,,,エコソレール,0
2192,7011105010620,新規,0,2023-04-10,2023-04-10,ＮＰＯ法人キャリア・クラフト,,その他の設立登記法人,東京都,新宿区,西新宿３丁目３番１３号水間ビル６階,,13,104,1600023,,,,,,,2023-04-10,1,,,,,,0
2198,7011403003961,新規,0,2023-04-10,2023-04-10,合同会社ラテラルサポート,,合同会社,東京都,板橋区,成増１丁目２７番７－７０１号プラザ・サン・タナカ７号館,,13,119,1750094,,,,,,,2023-04-10,1,,,,,ラテラルサポート,0
2199,7011405002243,新規,0,2023-04-10,2023-04-10,土地家屋調査士法人城北測量事務所,,その他の設立登記法人,東京都,板橋区,桜川３丁目２０番１１号神山ビル２０１,,13,119,1740075,,,,,,,2023-04-10,1,,,,,ジョウホクソクリョウジムショ,0
2200,7011501029132,新規,0,2023-04-10,2023-04-10,株式会社ＹＳＣ,,株式会社,東京都,荒川区,荒川４丁目３８番４－８０５号ヴィラロイヤル町屋,,13,118,1160002,,,,,,,2023-04-10,1,,,,,ワイエスシー,0
2202,7011603003885,新規,0,2023-04-10,2023-04-10,合同会社みかん,,合同会社,東京都,練馬区,西大泉４丁目１６番２０号,,13,120,1780065,,,,,,,2023-04-10,1,,,,,ミカン,0
2203,7011701026094,新規,0,2023-04-10,2023-04-10,Ｄ　Ｃｒｏｓｓ株式会社,,株式会社,東京都,江戸川区,北小岩４丁目３番１７号,,13,123,1330051,,,,,,,2023-04-10,1,,,,,ディークロス,0
2204,7011801042198,新規,0,2023-04-10,2023-04-10,ＮＩＤ　ＲＯＩＫＡＥＷ株式会社,,株式会社,東京都,足立区,舎人２丁目１番７号,,13,121,1210831,,,,,,,2023-04-10,1,,,,,ニッドロイケオ,0
2206,7012401040385,新規,0,2023-04-10,2023-04-10,株式会社シーラケース,,株式会社,東京都,三鷹市,牟礼５丁目９番８号,,13,204,1810002,,,,,,,2023-04-10,1,,,,,シーラケース,0
2207,7012403005923,新規,0,2023-04-10,2023-04-10,合同会社テロワール,,合同会社,東京都,武蔵野市,吉祥寺南町１丁目１３番１４号,,13,203,1800003,,,,,,,2023-04-10,1,,,,,テロワール,0
2212,7013301050557,新規,0,2023-04-10,2023-04-10,株式会社宮島組,,株式会社,東京都,豊島区,駒込７丁目１番３０－１０４号,,13,116,1700003,,,,,,,2023-04-10,1,,,,,ミヤジマグミ,0
2219,7020001150959,新規,0,2023-04-10,2023-04-10,Ｓａｎｋｙｏ‐ｄｅｓｉｇｎ株式会社,,株式会社,神奈川県,横浜市磯子区,中原１丁目１番３１号,,14,107,2350036,,,,,,,2023-04-10,1,,,,,サンキョウデザイン,0
2220,7020001151032,新規,0,2023-04-10,2023-04-10,株式会社おにぎり王国,,株式会社,神奈川県,川崎市宮前区,馬絹６丁目１７番１５－２０３号ディアコート宮崎台Ａ,,14,136,2160035,,,,,,,2023-04-10,1,,,,,オニギリオウコク,0
2221,7020001151057,新規,0,2023-04-10,2023-04-10,カナジュウサービス株式会社,,株式会社,神奈川県,横浜市瀬谷区,橋戸１丁目２２番地の１２,,14,114,2460037,,,,,,,2023-04-10,1,,,,,カナジュウサービス,0
2225,7020003023675,新規,0,2023-04-10,2023-04-10,合同会社ＦＵＪＩ　ＢＡＳＥ,,合同会社,神奈川県,横浜市中区,西之谷町１３６番地３山手第一セントラルハイツ１０１,,14,104,2310844,,,,,,,2023-04-10,1,,,,,フジベース,0
2226,7020005015935,新規,0,2023-04-10,2023-04-10,医療法人社団ＵＴＡ,,その他の設立登記法人,神奈川県,横浜市青葉区,新石川２丁目２番地２ＦＵＪＩＫＹＵ３階,,14,117,2250003,,,,,,,2023-04-10,1,,,,,ユーティーエー,0
2232,7021001078653,新規,0,2023-04-10,2023-04-10,飛梅建設株式会社,,株式会社,神奈川県,平塚市,明石町２２番１１号,,14,203,2540042,,,,,,,2023-04-10,1,,,,,トビウメケンセツ,0
2237,7030001153250,新規,0,2023-04-10,2023-04-10,Ｓｏｒａｍｏｔｅｃｈ株式会社,,株式会社,埼玉県,川口市,飯塚１丁目２番１６号,,11,203,3320023,,,,,,,2023-04-10,1,,,,,ソラモテック,0
2245,7050001052649,新規,0,2023-04-10,2023-04-10,Ｅｖｅｒｙ　Ｗｅｅｋ株式会社,,株式会社,茨城県,つくば市,吾妻１丁目５－７,,08,220,3050031,,,,,,,2023-04-10,1,,,,,エブリウィーク,0
2246,7050001052673,新規,0,2023-04-10,2023-04-10,春瀛商事株式会社,,株式会社,茨城県,つくば市,赤塚４４９番地１,,08,220,3050062,,,,,,,2023-04-10,1,,,,,ハルエイショウジ,0
2248,7050003007394,新規,0,2023-04-10,2023-04-10,合同会社大建工業,,合同会社,茨城県,鹿嶋市,大字中１２３４番地,,08,222,3112213,,,,,,,2023-04-10,1,,,,,ダイケンコウギョウ,0
2251,7060003004507,新規,0,2023-04-10,2023-04-10,ＫＨＩＺＡＲ　ＴＲＡＤＩＮＧ合同会社,,合同会社,栃木県,佐野市,金吹町４番地５サンライフ２１金吹Ａ１０３,,09,204,3270007,,,,,,,2023-04-10,1,,,,,キッザルトレーディング,0
2254,7070001040305,新規,0,2023-04-10,2023-04-10,Ｋ‐ＲＥＧＩＯＮ株式会社,,株式会社,群馬県,邑楽郡大泉町,城之内２丁目４－２２,,10,524,3700518,,,,,,,2023-04-10,1,,,,,ケーリージョン,0
2264,7080001025560,新規,0,2023-04-10,2023-04-10,株式会社セントラルシール,,株式会社,静岡県,静岡市葵区,上土１丁目１４番１６号,,22,101,4200810,,,,,,,2023-04-10,1,,,,,セントラルシール,0
2273,7110001037420,新規,0,2023-04-10,2023-04-10,株式会社ミーナハライペ,,株式会社,新潟県,上越市,大貫２丁目１７番４０号,,15,222,9430893,,,,,,,2023-04-10,1,,,,,ミーナハライペ,0
2291,7120001253735,新規,0,2023-04-10,2023-04-10,トクアン株式会社,,株式会社,大阪府,大阪市鶴見区,徳庵１丁目１番５８号,,27,124,5380034,,,,,,,2023-04-10,1,,,,,トクアン,0
2292,7120001253792,新規,0,2023-04-10,2023-04-10,阪鋭商事株式会社,00130030,株式会社,大阪府,大阪市北区,角田町８番４７号阪急グランドビル２０Ｆ,,27,127,5300017,,,,,,,2023-04-10,1,,,,,ハンエイショウジ,0
2293,7120001253842,新規,0,2023-04-10,2023-04-10,株式会社Ｇ　ｐｌａｎｎｉｎｇ,,株式会社,大阪府,大阪市平野区,平野南２丁目１番２号ガーデンコート平野南４０５号,,27,126,5470031,,,,,,,2023-04-10,1,,,,,ジープランニング,0
2294,7120001253859,新規,0,2023-04-10,2023-04-10,株式会社ＭＯＤＥ,,株式会社,大阪府,大阪市中央区,本町４丁目５番１５－４０１号,,27,128,5410053,,,,,,,2023-04-10,1,,,,,モード,0
2298,7120005023564,新規,0,2023-04-10,2023-04-10,ヴァンガード事業協同組合,,その他の設立登記法人,大阪府,大阪市中央区,瓦町４丁目４番３号,,27,128,5410048,,,,,,,2023-04-10,1,,,,,ヴァンガード,0
2309,7120901047369,新規,0,2023-04-10,2023-04-10,株式会社ＯＲＣＡ,,株式会社,大阪府,豊中市,新千里東町１丁目２番１－２７０７号,,27,203,5600082,,,,,,,2023-04-10,1,,,,,オルカ,0
2316,7130001074032,新規,0,2023-04-10,2023-04-10,株式会社ＴＫ企画,,株式会社,京都府,宇治市,広野町小根尾１３８番地の２１１,,26,204,6110031,,,,,,,2023-04-10,1,,,,,ティーケイキカク,0
2319,7130003008640,新規,0,2023-04-10,2023-04-10,合同会社水瓜,,合同会社,京都府,京都市左京区,高野東開町１番地７,,26,103,6068107,,,,,,,2023-04-10,1,,,,,ミズウリ,0
2320,7130005016740,新規,0,2023-04-10,2023-04-10,一般財団法人イノセンスプロジェクトジャパン,,その他の設立登記法人,京都府,京都市上京区,大宮通上立売上る西入伊佐町２３３番地,,26,102,6028407,,,,,,,2023-04-10,1,,,,,イノセンスプロジェクトジャパン,0
2336,7140001129660,新規,0,2023-04-10,2023-04-10,株式会社ＴＡＣＫ,,株式会社,兵庫県,姫路市,網干区高田１４番地１４,,28,201,6711226,,,,,,,2023-04-10,1,,,,,タック,0
2337,7140001129669,新規,0,2023-04-10,2023-04-10,ホクシン工業株式会社,,株式会社,兵庫県,神戸市北区,藤原台北町５丁目３番９－６０４号,,28,109,6511301,,,,,,,2023-04-10,1,,,,,ホクシンコウギョウ,0
2338,7140001129677,新規,0,2023-04-10,2023-04-10,株式会社ＬＩＦＥＯＮＥ　ＨＯＭＥ,,株式会社,兵庫県,神戸市長田区,平和台町２丁目４番１３－１０１号,,28,106,6530854,,,,,,,2023-04-10,1,,,,,ライフワンホーム,0
2339,7140001129693,新規,0,2023-04-10,2023-04-10,株式会社マイレボリューション,,株式会社,兵庫県,尼崎市,七松町１丁目９番５－１１０３号,,28,202,6600052,,,,,,,2023-04-10,1,,,,,マイレボリューション,0
2340,7140001129719,新規,0,2023-04-10,2023-04-10,株式会社ＳＵＭテクノロジー,,株式会社,兵庫県,明石市,二見町東二見１０３－２０,,28,203,6740092,,,,,,,2023-04-10,1,,,,,サムテクノロジー,0
2344,7140003018911,新規,0,2023-04-10,2023-04-10,ネクストグロウ合同会社,,合同会社,兵庫県,尼崎市,七松町１丁目３番１号,,28,202,6600052,,,,,,,2023-04-10,1,,,,,ネクストグロウ,0
2345,7140003018944,新規,0,2023-04-10,2023-04-10,合同会社Ｊｏｋｅｒ‐Ｋ　Ｃａｒｇｏ,,合同会社,兵庫県,川西市,清和台東４丁目４番地の１３４,,28,217,6660142,,,,,,,2023-04-10,1,,,,,ジョーカーケーカーゴ,0
2348,7150003002930,新規,0,2023-04-10,2023-04-10,合同会社アンドロメダ,,合同会社,奈良県,奈良市,西木辻町６３－２３ライオンズマンション奈良３０７,00130035,29,201,6308325,,,,,,,2023-04-10,1,,,,,アンドロメダ,0
2350,7160001024950,新規,0,2023-04-10,2023-04-10,株式会社アンビエンタ,,株式会社,滋賀県,栗東市,上鈎４８０番地,,25,208,5203022,,,,,,,2023-04-10,1,,,,,アンビエンタ,0
2357,7180001155703,新規,0,2023-04-10,2023-04-10,株式会社Ｓａｒａ,,株式会社,愛知県,名古屋市熱田区,八番２丁目１番１６号１階,,23,109,4560059,,,,,,,2023-04-10,1,,,,,サラ,0
2358,7180001155752,新規,0,2023-04-10,2023-04-10,株式会社ネクスト,,株式会社,愛知県,名古屋市中区,錦３丁目７番１号マリオット錦ビル７階,,23,106,4600003,,,,,,,2023-04-10,1,,,,,ネクスト,0
2359,7180001155760,新規,0,2023-04-10,2023-04-10,株式会社みら家,,株式会社,愛知県,名古屋市西区,歌里町２１８番地（ファミリアーレ庄内緑地公園１０７号）,,23,104,4520807,,,,,,,2023-04-10,1,,,,,ミライエ,0
2360,7180001155785,新規,0,2023-04-10,2023-04-10,株式会社Ｃｏ共,,株式会社,愛知県,名古屋市中区,千代田２丁目１９番２０号トーカンマンション鶴舞３０７号,,23,106,4600012,,,,,,,2023-04-10,1,,,,,コトモ,0
2361,7180001155802,新規,0,2023-04-10,2023-04-10,株式会社Ｅ‐ＳＴＥＰ,,株式会社,愛知県,津島市,越津町字こがね４０番地,,23,208,4960022,,,,,,,2023-04-10,1,,,,,イーステップ,0
2362,7180001155810,新規,0,2023-04-10,2023-04-10,株式会社ヒオリ,,株式会社,愛知県,名古屋市中村区,佐古前町１１番３１号,,23,105,4530018,,,,,,,2023-04-10,1,,,,,ヒオリ,0
2370,7180301037279,新規,0,2023-04-10,2023-04-10,ＫＡＮＯＮ貿易株式会社,,株式会社,愛知県,高浜市,神明町４丁目２番地２５１,,23,227,4441305,,,,,,,2023-04-10,1,,,,,カノンボウエキ,0
2371,7180301037287,新規,0,2023-04-10,2023-04-10,そらファーム株式会社,,株式会社,愛知県,田原市,若見町権亟地１００番地,,23,231,4413503,,,,,,,2023-04-10,1,,,,,ソラファーム,0
2375,7200001041173,新規,0,2023-04-10,2023-04-10,株式会社ＳＷＡＬＬＯＷ,,株式会社,岐阜県,岐阜市,粟野東３丁目４６３番地３,,21,201,5020002,,,,,,,2023-04-10,1,,,,,スワロー,0
2382,7220001025348,新規,0,2023-04-10,2023-04-10,株式会社堀川工業,,株式会社,石川県,野々市市,本町５丁目１１番１０号,,17,212,9218815,,,,,,,2023-04-10,1,,,,,ホリカワコウギョウ,0
2390,7260001037835,新規,0,2023-04-10,2023-04-10,株式会社Ａｌｉｓｏｎ,,株式会社,岡山県,岡山市北区,駅前町２丁目７番１１号,,33,101,7000023,,,,,,,2023-04-10,1,,,,,アリソン,0
2391,7260001037843,新規,0,2023-04-10,2023-04-10,シェド倉敷株式会社,,株式会社,岡山県,倉敷市,中央２丁目１１番１０号,,33,202,7100046,,,,,,,2023-04-10,1,,,,,シェドクラシキ,0
2402,7290001101101,新規,0,2023-04-10,2023-04-10,株式会社ｎｉｔｉｎｉｔｉ,,株式会社,福岡県,福岡市中央区,六本松１丁目４番２２号,,40,133,8100044,,,,,,,2023-04-10,1,,,,,ニチニチ,0
2406,7290003013749,新規,0,2023-04-10,2023-04-10,合同会社ＵＧ‐Ｎｅｘｔ,,合同会社,福岡県,福岡市城南区,別府３丁目６番１４－４０５号,,40,136,8140104,,,,,,,2023-04-10,1,,,,,ユージーネクスト,0
2407,7290005018993,新規,0,2023-04-10,2023-04-10,一般財団法人あすたむ舎,,その他の設立登記法人,福岡県,大野城市,川久保３丁目１番２３号,,40,219,8160905,,,,,,,2023-04-10,1,,,,,アスタムシャ,0
2410,7290801029442,新規,0,2023-04-10,2023-04-10,株式会社モスト・ウィンズ,,株式会社,福岡県,北九州市小倉北区,京町４丁目５番２７－２階,,40,106,8020002,,,,,,,2023-04-10,1,,,,,モストウィンズ,0
2417,7340001025484,新規,0,2023-04-10,2023-04-10,株式会社Ｕｎｉｔｙ　Ｌｉｆｅ,,株式会社,鹿児島県,鹿児島市,南林寺町２２番１号,,46,201,8920834,,,,,,,2023-04-10,1,,,,,ユニティライフ,0
2418,7340001025492,新規,0,2023-04-10,2023-04-10,株式会社ＴＫ　ｂｒａｎｄ,,株式会社,鹿児島県,日置市,東市来町湯田１６０５番地１,,46,216,8992201,,,,,,,2023-04-10,1,,,,,ティーケーブランド,0
2419,7350001018280,新規,0,2023-04-10,2023-04-10,株式会社ｄｅａｌ,,株式会社,宮崎県,宮崎市,中央通２－１０みらいビル１Ｆ,,45,201,8800002,,,,,,,2023-04-10,1,,,,,ディール,0
2420,7350003004337,新規,0,2023-04-10,2023-04-10,インテリアショップＷＯＲＫ’ｓ合同会社,,合同会社,宮崎県,宮崎市,城ケ崎３丁目２２－８,,45,201,8800917,,,,,,,2023-04-10,1,,,,,インテリアショップワークス,0
2428,7360001031729,新規,0,2023-04-10,2023-04-10,ＲＳＫ株式会社,,株式会社,沖縄県,浦添市,宮城４丁目１８番１３号ゴールドキャッスル３０５号,,47,208,9012126,,,,,,,2023-04-10,1,,,,,アールエスケー,0
2429,7360001031811,新規,0,2023-04-10,2023-04-10,保険ネットワークＯＷＬ株式会社,,株式会社,沖縄県,うるま市,字江洲３９３番地,,47,213,9042244,,,,,,,2023-04-10,1,,,,,ホケンネットワークアウル,0
2432,7360003012875,新規,0,2023-04-10,2023-04-10,合同会社愛千,,合同会社,沖縄県,那覇市,字松川３８７番地１ロイヤルマンション松川２０１,,47,201,9020062,,,,,,,2023-04-10,1,,,,,アイチ,0
2433,7360005006818,新規,0,2023-04-10,2023-04-10,一般財団法人赤嶺財産管理会,,その他の設立登記法人,沖縄県,那覇市,赤嶺１丁目１０番地１,,47,201,9010154,,,,,,,2023-04-10,1,,,,,アカミネザイサンカンリカイ,0
2439,7370001049794,新規,0,2023-04-10,2023-04-10,株式会社西舘ファーム,,株式会社,宮城県,遠田郡美里町,字西舘４４番地,,04,505,9870044,,,,,,,2023-04-10,1,,,,,ニシダテファーム,0
2440,7370001049803,新規,0,2023-04-10,2023-04-10,株式会社Ｎ．Ｄ．Ｓ,,株式会社,宮城県,仙台市青葉区,国分町３丁目１１番５号,,04,101,9800803,,,,,,,2023-04-10,1,,,,,エヌディーエス,0
2441,7370001049811,新規,0,2023-04-10,2023-04-10,株式会社トーワスタイルクリエイト,,株式会社,宮城県,登米市,東和町米川字町６５番地,,04,212,9870901,,,,,,,2023-04-10,1,,,,,トーワスタイルクリエイト,0
2444,7370003006083,新規,0,2023-04-10,2023-04-10,合同会社ＤＨＥＸ,,合同会社,宮城県,仙台市青葉区,上杉３丁目５番５－２０２号,,04,101,9800011,,,,,,,2023-04-10,1,,,,,ディーエイチイーエックス,0
2456,7430001088786,新規,0,2023-04-10,2023-04-10,株式会社Ｋ・Ｃｒｅａｔｅ　Ｓｐａｃｅ,,株式会社,北海道,札幌市北区,新川西三条６丁目８番１１号,,01,102,0010933,,,,,,,2023-04-10,1,,,,,ケイクリエイトスペース,0
2457,7430003014897,新規,0,2023-04-10,2023-04-10,合同会社ＴＫＹ,,合同会社,北海道,札幌市豊平区,美園七条８丁目２番６号,,01,105,0620007,,,,,,,2023-04-10,1,,,,,ティーケーワイ,0
2458,7430003014906,新規,0,2023-04-10,2023-04-10,合同会社バルプラッツ,,合同会社,北海道,岩見沢市,緑が丘２丁目３４番地１,,01,210,0680835,,,,,,,2023-04-10,1,,,,,バルプラッツ,0
2459,7430003014914,新規,0,2023-04-10,2023-04-10,合同会社ＭＥＲＡＩＳＥ,,合同会社,北海道,札幌市白石区,菊水元町一条４丁目４番１２,,01,104,0030821,,,,,,,2023-04-10,1,,,,,ミライズ,0
2460,7430003014922,新規,0,2023-04-10,2023-04-10,合同会社ｍｏｒｅ,,合同会社,北海道,札幌市白石区,東米里２１９２番地５,,01,104,0030876,,,,,,,2023-04-10,1,,,,,モア,0
2464,7470001019548,新規,0,2023-04-10,2023-04-10,株式会社リレーションアルファ,,株式会社,香川県,高松市,塩屋町９番地１０,,37,201,7600047,,,,,,,2023-04-10,1,,,,,リレーションアルファ,0
2469,7490001010439,新規,0,2023-04-10,2023-04-10,株式会社ＰｌａｓｔｉＦａｒｍ,,株式会社,高知県,南国市,物部乙２００番地,,39,204,7830093,,,,,,,2023-04-10,1,,,,,,0
2474,7700150115248,新規,0,2023-04-10,2023-04-10,Ｍｅｌｏｄｅｅ　ＬＬＣ,,外国会社等,,,,,,,,３２４９　Ｃａｈｙｅｎｇａ　Ｂｌｖｄ　Ｗｅｓｔ　Ｌｏｓ　Ａｎｇｅｌｅｓ，ＣＡ　９００２８　ＵＳＡ,,,,,,2023-04-10,1,,,,,メロデイーエルエルシー,0
2475,7700150115256,新規,0,2023-04-10,2023-04-10,Ｂｏｓｌｉｎ　Ｉｎｔｅｒｎａｔｉｏｎａｌ　Ｃｏｍｐａｎｙ　Ｌｔｄ．,,外国会社等,,,,,,,,２Ｆ，ＮＯ．８３，ＳＥＣ．３，ＴＡＮＸＩＮＧ　ＲＤ．，ＴＡＮＴＺＩ　ＤＩＳＴ．，ＴＡＩＣＨＵＮＧ　ＣＩＴＹ，４２７５１，ＴＡＩＷＡＮ（Ｒ．Ｏ．Ｃ）,,,,,,2023-04-10,1,,,,,バイリングオジーマオイーヨウシエンゴンスー,0
2482,8010001234225,新規,0,2023-04-10,2023-04-10,株式会社ＨｉＲＡＫＵ,,株式会社,東京都,千代田区,神田小川町３丁目２０番地,,13,101,1010052,,,,,,,2023-04-10,1,,,,,ヒラク,0
2483,8010001234266,新規,0,2023-04-10,2023-04-10,Ｐｒｏｄｕｃｔｉｏｎ　ｄａ　Ｖｉｎｃｉ株式会社,,株式会社,東京都,中央区,八丁堀２丁目２１番１１号エコアクワイエ４０１号,,13,102,1040032,,,,,,,2023-04-10,1,,,,,プロダクションダビンチ,0
2484,8010001234282,新規,0,2023-04-10,2023-04-10,みらいＡＣ株式会社,,株式会社,東京都,中央区,銀座１丁目２２番１１号銀座大竹ビジデンス２Ｆ,,13,102,1040061,,,,,,,2023-04-10,1,,,,,ミライエーシー,0
2485,8010001234308,新規,0,2023-04-10,2023-04-10,ＬＩＮＫＵＰ　Ｊａｐａｎ株式会社,,株式会社,東京都,文京区,本郷４丁目１６番６号文京区本郷四丁目ビル１２０７号室,,13,105,1130033,,,,,,,2023-04-10,1,,,,,リンクアップジャパン,0
2487,8010003040225,新規,0,2023-04-10,2023-04-10,合同会社ケアレイズ,,合同会社,東京都,新島村,本村６丁目４番１号,,13,363,1000402,,,,,,,2023-04-10,1,,,,,ケアレイズ,0
2488,8010003040233,新規,0,2023-04-10,2023-04-10,ＲＢソーラーディル合同会社,,合同会社,東京都,千代田区,麹町２丁目８番地ＭＬＣ麹町ビル４階フィンポート税理士法人内,,13,101,1020083,,,,,,,2023-04-10,1,,,,,アールビーソーラーディル,0
2489,8010003040266,新規,0,2023-04-10,2023-04-10,刀フォース合同会社,,合同会社,東京都,中央区,日本橋３丁目１番４号７０１号,,13,102,1030027,,,,,,,2023-04-10,1,,,,,カタナフォース,0
2490,8010003040274,新規,0,2023-04-10,2023-04-10,清雅ソリューションズ合同会社,,合同会社,東京都,中央区,銀座６丁目６番１号,,13,102,1040061,,,,,,,2023-04-10,1,,,,,セイガソリューションズ,0
2494,8010101015582,新規,0,2023-04-10,2023-04-10,探究アラブジャパン株式会社,,株式会社,東京都,八王子市,小宮町１１６８番地１ラ・マルク３０３号,,13,201,1920031,,,,,,,2023-04-10,1,,,,,タンキュウアラブジャパン,0
2503,8010401173576,新規,0,2023-04-10,2023-04-10,株式会社ＮＡＰ‐ＯＮＥ,,株式会社,東京都,港区,西麻布２丁目１３番８－１００５号,,13,103,1060031,,,,,,,2023-04-10,1,,,,,ナップワン,0
2506,8010403029883,新規,0,2023-04-10,2023-04-10,Ｃｌｅａｒ　Ｂｅａｕｔｙ　Ｌａｂｏ合同会社,,合同会社,東京都,港区,六本木４丁目５番７号スタジオＤ３０２,,13,103,1060032,,,,,,,2023-04-10,1,,,,,クリアビューティラボ,0
2507,8010403029891,新規,0,2023-04-10,2023-04-10,合同会社Ａｔｅ,,合同会社,東京都,港区,南青山４丁目１５‐４４‐３０１,,13,103,1070062,,,,,,,2023-04-10,1,,,,,アテ,0
2508,8010405022011,新規,0,2023-04-10,2023-04-10,ＪＭメンサ特定目的会社,,その他の設立登記法人,東京都,港区,六本木１丁目９番１０号アークヒルズ仙石山森タワー４０階,,13,103,1060032,,,,,,,2023-04-10,1,,,,,ジェイエムメンサ,0
2512,8010601062868,新規,0,2023-04-10,2023-04-10,株式会社Ｉｎｔｅｒｖｉｅｗ,,株式会社,東京都,墨田区,千歳１丁目２－１３モナークマンション両国隅田川１１０２,,13,107,1300025,,,,,,,2023-04-10,1,,,,,インタビュー,0
2513,8010601062876,新規,0,2023-04-10,2023-04-10,東洋商事株式会社,,株式会社,東京都,江東区,亀戸１丁目１３番９－５０２号,,13,108,1360071,,,,,,,2023-04-10,1,,,,,トウヨウショウジ,0
2514,8010601062884,新規,0,2023-04-10,2023-04-10,株式会社ＦＲＥＥＤＧＥ,,株式会社,東京都,江東区,有明３丁目７番２６号有明フロンティアビルＢ棟９階,,13,108,1350063,,,,,,,2023-04-10,1,,,,,フリッジ,0
2516,8010701044097,新規,0,2023-04-10,2023-04-10,アンジュエール株式会社,,株式会社,東京都,品川区,大崎５丁目３番１号,,13,109,1410032,,,,,,,2023-04-10,1,,,,,アンジュエール,0
2520,8010905004467,新規,0,2023-04-10,2023-04-10,一般社団法人暁研究所,,その他の設立登記法人,東京都,世田谷区,赤堤２丁目１２番４号パレス赤堤２０３,,13,112,1560044,,,,,,,2023-04-10,1,,,,,アカツキケンキュウショ,0
2525,8011001153571,新規,0,2023-04-10,2023-04-10,おかまる受験コンサルティング株式会社,,株式会社,東京都,渋谷区,渋谷２丁目１９番地１５号宮益坂ビルディング６０９,,13,113,1500002,,,,,,,2023-04-10,1,,,,,オカマルジュケンコンサルティング,0
2526,8011001153638,新規,0,2023-04-10,2023-04-10,株式会社ＤｉＬＰ,,株式会社,東京都,渋谷区,神宮前６丁目２８番９号５階,,13,113,1500001,,,,,,,2023-04-10,1,,,,,ディルプ,0
2529,8011103012907,新規,0,2023-04-10,2023-04-10,合同会社Ｖａｒｉｔｙ,,合同会社,東京都,新宿区,新宿１丁目３６番２号新宿第七葉山ビル３Ｆ,,13,104,1600022,,,,,,,2023-04-10,1,,,,,ヴェアリティ,0
2532,8011105010611,新規,0,2023-04-10,2023-04-10,一般社団法人次世代教育ネットワーキング機構,,その他の設立登記法人,東京都,新宿区,西新宿２丁目１番１号,,13,104,1600023,,,,,,,2023-04-10,1,,,,,ジセダイキョウイクネットワーキングキコウ,0
2533,8011201024556,新規,0,2023-04-10,2023-04-10,ＢＡＣＫＢＯＮＥ株式会社,,株式会社,東京都,中野区,本町２丁目４６番３－４０８号,,13,114,1640012,,,,,,,2023-04-10,1,,,,,バックボーン,0
2535,8011401025016,新規,0,2023-04-10,2023-04-10,Ｋ２Ｙアソシエーツ株式会社,,株式会社,東京都,板橋区,南町４９番２号,,13,119,1730027,,,,,,,2023-04-10,1,,,,,ケーツーワイアソシエーツ,0
2536,8011405002242,新規,0,2023-04-10,2023-04-10,一般社団法人日本獣医内視鏡外科学会,,その他の設立登記法人,東京都,板橋区,小豆沢２丁目９番１９号,,13,119,1740051,,,,,,,2023-04-10,1,,,,,ニホンジュウイナイシキョウゲカガッカイ,0
2540,8012401040384,新規,0,2023-04-10,2023-04-10,株式会社ゴールドメタル,,株式会社,東京都,稲城市,坂浜４丁目８番地の１,,13,225,2060822,,,,,,,2023-04-10,1,,,,,ゴールドメタル,0
2541,8012401040392,新規,0,2023-04-10,2023-04-10,株式会社エフピーファースト,,株式会社,東京都,三鷹市,井口４丁目５番４号,,13,204,1810011,,,,,,,2023-04-10,1,,,,,エフピーファースト,0
2542,8012403005930,新規,0,2023-04-10,2023-04-10,合同会社ＣＨＡＮＧＥ,,合同会社,東京都,武蔵野市,吉祥寺本町１丁目２０番１号吉祥寺永谷シティプラザ１００２,,13,203,1800004,,,,,,,2023-04-10,1,,,,,チェンジ,0
2543,8012801022255,新規,0,2023-04-10,2023-04-10,株式会社ＭＯＥ,,株式会社,東京都,立川市,錦町３丁目１番２１号熊ビル２０１,,13,202,1900022,,,,,,,2023-04-10,1,,,,,モエ,0
2544,8012803003047,新規,0,2023-04-10,2023-04-10,合同会社第二広報部,,合同会社,東京都,東大和市,向原４丁目３３番地１５号,,13,220,2070013,,,,,,,2023-04-10,1,,,,,ダイニコウホウブ,0
2549,8013301050556,新規,0,2023-04-10,2023-04-10,株式会社ソフトメディア,,株式会社,東京都,豊島区,池袋２丁目１７番８号天翔池袋西口ＡＮＮＥＸビル２０３－Ｄ号,,13,116,1710014,,,,,,,2023-04-10,1,,,,,ソフトメディア,0
2557,8020001151072,新規,0,2023-04-10,2023-04-10,株式会社Ｋｍｕｓｉｃ,,株式会社,神奈川県,川崎市麻生区,高石４丁目２１番１号,,14,137,2150003,,,,,,,2023-04-10,1,,,,,ケーミュージック,0
2558,8020001151097,新規,0,2023-04-10,2023-04-10,株式会社スガラボ,,株式会社,神奈川県,横浜市中区,太田町５丁目６３番地ＥＥＬ馬車道３０２,,14,104,2310011,,,,,,,2023-04-10,1,,,,,スガラボ,0
2559,8020005015934,新規,0,2023-04-10,2023-04-10,医療法人ウィステリア,,その他の設立登記法人,神奈川県,横浜市港北区,大豆戸町２１２番地１ラ・グランデ菊名１階,,14,109,2220032,,,,,,,2023-04-10,1,,,,,ウィステリア,0
2563,8021001078669,新規,0,2023-04-10,2023-04-10,株式会社鎌田総合設備,,株式会社,神奈川県,厚木市,飯山４７８０番地１,,14,212,2430213,,,,,,,2023-04-10,1,,,,,カマタソウゴウセツビ,0
2564,8021003012964,新規,0,2023-04-10,2023-04-10,合同会社ウンダーベルグ,,合同会社,神奈川県,藤沢市,辻堂元町３丁目１４番１号,,14,205,2510043,,,,,,,2023-04-10,1,,,,,ウンダーベルグ,0
2566,8030001153209,新規,0,2023-04-10,2023-04-10,株式会社バイク館イエローハットＫＰ,,株式会社,埼玉県,川口市,南鳩ヶ谷３丁目２２番８号,,11,203,3340013,,,,,,,2023-04-10,1,,,,,バイクカンイエローハットケーピー,0
2567,8030001153233,新規,0,2023-04-10,2023-04-10,株式会社小江戸の風,,株式会社,埼玉県,川越市,豊田町１丁目２０番地１３,,11,201,3501110,,,,,,,2023-04-10,1,,,,,コエドノカゼ,0
2568,8030003021529,新規,0,2023-04-10,2023-04-10,合同会社サンライト,,合同会社,埼玉県,川口市,幸町３丁目８番３５号永瀬ビル４０２号,,11,203,3320016,,,,,,,2023-04-10,1,,,,,サンライト,0
2572,8040001127888,新規,0,2023-04-10,2023-04-10,ＣｒｏｓｓＭｅｔａ株式会社,,株式会社,千葉県,千葉市美浜区,若葉３丁目１－１８幕張ベイパーククロスレジデンスＳ２－１（２Ｆ）,,12,106,2610014,,,,,,,2023-04-10,1,,,,,クロスメタ,0
2573,8040001127896,新規,0,2023-04-10,2023-04-10,株式会社ＳｔａｒＰｌａｓｍａ,,株式会社,千葉県,船橋市,湊町２丁目１２－２４湊町日本橋ビル６Ｆ,,12,204,2730011,,,,,,,2023-04-10,1,,,,,スタープラズマ,0
2577,8040003022344,新規,0,2023-04-10,2023-04-10,ガレットメゾン合同会社,,合同会社,千葉県,市川市,本北方１丁目３０番１０号グランデュール市川七番館２０１号,,12,203,2720816,,,,,,,2023-04-10,1,,,,,ガレットメゾン,0
2578,8040003022377,新規,0,2023-04-10,2023-04-10,永＿商事合同会社,00130017,合同会社,千葉県,松戸市,稔台８丁目３７番地の１７,,12,207,2702231,,,,,,,2023-04-10,1,,,,,,0
2581,8050001052656,新規,0,2023-04-10,2023-04-10,ＣＡＲ　ＳＨＯＰ　Ｔ．Ｋ．Ｉ株式会社,,株式会社,茨城県,石岡市,東大橋２５７８番地,,08,205,3150031,,,,,,,2023-04-10,1,,,,,カーショップティーケイアイ,0
2582,8050001052664,新規,0,2023-04-10,2023-04-10,アイエス株式会社,,株式会社,茨城県,ひたちなか市,大字馬渡８９７番地５,,08,221,3120012,,,,,,,2023-04-10,1,,,,,アイエス,0
2584,8050003007402,新規,0,2023-04-10,2023-04-10,合同会社ＡＩＭＩ　ＩＭＰＯＲＴＳ　ＡＮＤ　ＥＸＰＯＲＴＳ,,合同会社,茨城県,龍ケ崎市,下町４８５７番地８,,08,208,3010824,,,,,,,2023-04-10,1,,,,,アイミインポートアンドエクスポート,0
2589,8070001040279,新規,0,2023-04-10,2023-04-10,株式会社ファン・ビルダーズ,,株式会社,群馬県,前橋市,鶴光路町７６５番地,,10,201,3792141,,,,,,,2023-04-10,1,,,,,ファンビルダーズ,0
2594,8070005010105,新規,0,2023-04-10,2023-04-10,農事組合法人ワンマイルスマイル,,その他の設立登記法人,群馬県,安中市,下秋間１１３１番地,,10,211,3790104,,,,,,,2023-04-10,1,,,,,ワンマイルスマイル,0
2603,8110001037428,新規,0,2023-04-10,2023-04-10,株式会社ダイキコンサル,,株式会社,新潟県,魚沼市,本町１丁目１８番地,,15,225,9460041,,,,,,,2023-04-10,1,,,,,ダイキコンサル,0
2615,8120001253692,新規,0,2023-04-10,2023-04-10,泓暄文化株式会社,,株式会社,大阪府,大阪市天王寺区,悲田院町９－１７阪和ビル４０４号室,,27,109,5430055,,,,,,,2023-04-10,1,,,,,オウケンブンカ,0
2616,8120001253825,新規,0,2023-04-10,2023-04-10,富正株式会社,,株式会社,大阪府,大阪市港区,南市岡３丁目１０－２グリシーヌ弁天町１０３号室,,27,107,5520011,,,,,,,2023-04-10,1,,,,,トミマサ,0
2625,8120901047351,新規,0,2023-04-10,2023-04-10,株式会社ジャーニーズ,,株式会社,大阪府,吹田市,豊津町１番１８号,,27,205,5640051,,,,,,,2023-04-10,1,,,,,ジャーニーズ,0
2626,8120901047368,新規,0,2023-04-10,2023-04-10,株式会社ルークス,,株式会社,大阪府,吹田市,原町４丁目２２番４０号,,27,205,5640004,,,,,,,2023-04-10,1,,,,,ルークス,0
2629,8122003002557,新規,0,2023-04-10,2023-04-10,合同会社高木コーポレーション,,合同会社,大阪府,八尾市,北本町１丁目１番３０号２Ｆ,,27,212,5810802,,,,,,,2023-04-10,1,,,,,タカギコーポレーション,0
2630,8130001074031,新規,0,2023-04-10,2023-04-10,株式会社ＫＳＣグループ,,株式会社,京都府,京都市左京区,静市市原町２６５番地,,26,103,6011123,,,,,,,2023-04-10,1,,,,,ケイエスシーグループ,0
2651,8140001129635,新規,0,2023-04-10,2023-04-10,株式会社ハヤテック,,株式会社,兵庫県,姫路市,飾磨区阿成渡場２７５番地,,28,201,6728039,,,,,,,2023-04-10,1,,,,,ハヤテック,0
2652,8140001129668,新規,0,2023-04-10,2023-04-10,株式会社ＲＥＶＥ,,株式会社,兵庫県,高砂市,高砂町東宮町１０４２番地の２７,,28,216,6760043,,,,,,,2023-04-10,1,,,,,レーヴ,0
2653,8140001129684,新規,0,2023-04-10,2023-04-10,株式会社Ｊ＆Ｋ,,株式会社,兵庫県,神戸市東灘区,岡本７丁目２１番２号,,28,101,6580072,,,,,,,2023-04-10,1,,,,,ジェイアンドケイ,0
2654,8140001129692,新規,0,2023-04-10,2023-04-10,スリーエムベジ株式会社,,株式会社,兵庫県,南あわじ市,志知北４０６番地,,28,224,6560327,,,,,,,2023-04-10,1,,,,,スリーエムベジ,0
2655,8140001129718,新規,0,2023-04-10,2023-04-10,株式会社ｓｉｓｉ,,株式会社,兵庫県,神戸市兵庫区,船大工町１番１４号アーバン中央市場前２Ｆ,,28,105,6520843,,,,,,,2023-04-10,1,,,,,シシ,0
2656,8140001129726,新規,0,2023-04-10,2023-04-10,株式会社エムシーエス,,株式会社,兵庫県,尼崎市,南武庫之荘５丁目２２－９,,28,202,6610033,,,,,,,2023-04-10,1,,,,,エムシーエス,0
2664,8140003018927,新規,0,2023-04-10,2023-04-10,合同会社プライムマネージメント,,合同会社,兵庫県,神戸市灘区,森後町１丁目３番１９号リトルブラザーズ六甲ビル４Ｄ－２２,,28,102,6570028,,,,,,,2023-04-10,1,,,,,プライムマネージメント,0
2665,8140003018935,新規,0,2023-04-10,2023-04-10,合同会社ＩＤＣＰサポート,,合同会社,兵庫県,神戸市北区,鹿の子台南町４丁目３８番１２号,,28,109,6511514,,,,,,,2023-04-10,1,,,,,アイディーシーピーサポート,0
2668,8140005026556,新規,0,2023-04-10,2023-04-10,一般社団法人にしのみや観光協会,,その他の設立登記法人,兵庫県,西宮市,馬場町５番７－２０１号,,28,204,6620915,,,,,,,2023-04-10,1,,,,,ニシノミヤカンコウキョウカイ,0
2669,8140005026572,新規,0,2023-04-10,2023-04-10,医療法人社団岸田内科クリニック,,その他の設立登記法人,兵庫県,西宮市,高松町７番５号ストーンマナー１階,,28,204,6638204,,,,,,,2023-04-10,1,,,,,キシダナイカクリニック,0
2673,8160001024941,新規,0,2023-04-10,2023-04-10,株式会社Ｂｌｉｓｓ,,株式会社,滋賀県,大津市,大江３丁目６番５６号,,25,201,5202141,,,,,,,2023-04-10,1,,,,,ブリス,0
2674,8160001024966,新規,0,2023-04-10,2023-04-10,株式会社アット,,株式会社,滋賀県,近江八幡市,安土町東老蘇１７４１番地,,25,204,5211332,,,,,,,2023-04-10,1,,,,,アット,0
2694,8180001155669,新規,0,2023-04-10,2023-04-10,双葉機工株式会社,,株式会社,愛知県,一宮市,千秋町穂積塚本字塚本郷西５９番地２,,23,203,4910803,,,,,,,2023-04-10,1,,,,,フタバキコウ,0
2695,8180001155702,新規,0,2023-04-10,2023-04-10,株式会社エーティーデザイン,,株式会社,愛知県,名古屋市昭和区,鶴舞２丁目１９番３号ＨＧＢＬＤＧ４階,,23,107,4660064,,,,,,,2023-04-10,1,,,,,エーティーデザイン,0
2696,8180001155751,新規,0,2023-04-10,2023-04-10,株式会社岩崎電気,00130029,株式会社,愛知県,春日井市,朝宮町１丁目４番地１,,23,206,4860846,,,,,,,2023-04-10,1,,,,,イワサキデンキ,0
2697,8180001155768,新規,0,2023-04-10,2023-04-10,株式会社オルニス,,株式会社,愛知県,名古屋市中村区,名駅４丁目２４番５号第２森ビル４０１,,23,105,4500002,,,,,,,2023-04-10,1,,,,,オルニス,0
2698,8180001155776,新規,0,2023-04-10,2023-04-10,株式会社良成,,株式会社,愛知県,名古屋市名東区,陸前町３０３番地,,23,115,4650057,,,,,,,2023-04-10,1,,,,,リョウセイ,0
2704,8180003025085,新規,0,2023-04-10,2023-04-10,Ｏｎｅｓ　Ａｌｉｖｅ合同会社,,合同会社,愛知県,名古屋市南区,呼続１丁目５番７号,,23,112,4570014,,,,,,,2023-04-10,1,,,,,ワンズアライブ,0
2707,8180301037253,新規,0,2023-04-10,2023-04-10,株式会社アマノ,,株式会社,愛知県,豊橋市,神野新田町字ヌノ割３５番地１,,23,201,4418077,,,,,,,2023-04-10,1,,,,,アマノ,0
2708,8180301037261,新規,0,2023-04-10,2023-04-10,株式会社明星,,株式会社,愛知県,みよし市,三好町赤羽根２６番地３,,23,236,4700224,,,,,,,2023-04-10,1,,,,,メイセイ,0
2710,8200001041164,新規,0,2023-04-10,2023-04-10,株式会社Ｊ‐ｃｏｎｓｔｒｕｃｔｉｏｎ,,株式会社,岐阜県,可児市,今渡１６１９番地６０２ワンライフ１０３,,21,214,5090207,,,,,,,2023-04-10,1,,,,,ジェイコンストラクション,0
2713,8220001025347,新規,0,2023-04-10,2023-04-10,株式会社北陸エレテックホールディングス,,株式会社,石川県,加賀市,箱宮町ク６１番地１,,17,206,9220303,,,,,,,2023-04-10,1,,,,,ホクリクエレテックホールディングス,0
2718,8240001061324,新規,0,2023-04-10,2023-04-10,株式会社傳兵衛,,株式会社,広島県,福山市,神辺町字西中条１１２６番地１,,34,207,7202103,,,,,,,2023-04-10,1,,,,,デンベイ,0
2719,8240001061332,新規,0,2023-04-10,2023-04-10,株式会社Ｌａｋｓｈｍｉ　Ｐｒｏｊｅｃｔ,,株式会社,広島県,広島市中区,紙屋町１丁目４番３号,,34,101,7300031,,,,,,,2023-04-10,1,,,,,ラクシュミープロジェクト,0
2720,8240005015557,新規,0,2023-04-10,2023-04-10,一般社団法人広島介護福祉サービス,,その他の設立登記法人,広島県,広島市南区,堀越３丁目１１番２５号,,34,103,7340052,,,,,,,2023-04-10,1,,,,,ヒロシマカイゴフクシサービス,0
2722,8250001020048,新規,0,2023-04-10,2023-04-10,株式会社アキュパ,,株式会社,山口県,岩国市,錦見１丁目１０番１０号,,35,208,7410061,,,,,,,2023-04-10,1,,,,,アキュパ,0
2726,8260001037834,新規,0,2023-04-10,2023-04-10,株式会社カナヤマ商店,,株式会社,岡山県,岡山市北区,大元駅前８番１号,,33,101,7000923,,,,,,,2023-04-10,1,,,,,カナヤマショウテン,0
2727,8260001037842,新規,0,2023-04-10,2023-04-10,株式会社ＨＯＭＩＥＳ,,株式会社,岡山県,赤磐市,殿谷１１３８番地１４７,,33,213,7090703,,,,,,,2023-04-10,1,,,,,ホーミーズ,0
2728,8270001008751,新規,0,2023-04-10,2023-04-10,株式会社リンセン工業,,株式会社,鳥取県,米子市,福市２１０１番地１,,31,202,6830011,,,,,,,2023-04-10,1,,,,,リンセンコウギョウ,0
2733,8280005007542,新規,0,2023-04-10,2023-04-10,特定非営利活動法人山陰防災ワークス,,その他の設立登記法人,島根県,松江市,西川津町７４８番地９２嵩見団地９３号,,32,201,6900823,,,,,,,2023-04-10,1,,,,,サンインボウサイワークス,0
2736,8290001101050,新規,0,2023-04-10,2023-04-10,株式会社イノベーション,,株式会社,福岡県,福岡市中央区,春吉３丁目１６－２３,,40,133,8100003,,,,,,,2023-04-10,1,,,,,イノベーション,0
2737,8290001101075,新規,0,2023-04-10,2023-04-10,株式会社徳永事務所,00130032,株式会社,福岡県,筑紫野市,天拝坂５丁目１２番地４,,40,217,8180053,,,,,,,2023-04-10,1,,,,,トクナガジムショ,0
2741,8290005019000,新規,0,2023-04-10,2023-04-10,土地家屋調査士法人エコアース,,その他の設立登記法人,福岡県,福岡市西区,今宿青木１００番地８,,40,135,8190162,,,,,,,2023-04-10,1,,,,,エコアース,0
2742,8290801029441,新規,0,2023-04-10,2023-04-10,株式会社Ａ・Ｚファシリティーズ,,株式会社,福岡県,北九州市小倉北区,浅野１丁目２番３９－８０１号,,40,106,8020001,,,,,,,2023-04-10,1,,,,,エーゼットファシリィーズ,0
2745,8300001013260,新規,0,2023-04-10,2023-04-10,株式会社エスビー商会,,株式会社,佐賀県,鳥栖市,宿町１１６２番地３,,41,203,8410052,,,,,,,2023-04-10,1,,,,,エスビーショウカイ,0
2746,8300003001949,新規,0,2023-04-10,2023-04-10,合同会社補修職人山本啓,,合同会社,佐賀県,神埼市,神埼町城原７７７番地１,,41,210,8420122,,,,,,,2023-04-10,1,,,,,ホシュウショクニンヤマモトケイ,0
2756,8330005010648,新規,0,2023-04-10,2023-04-10,一般社団法人天草あかねデザイン協議会,,その他の設立登記法人,熊本県,天草市,中央新町１２番１３号,,43,215,8630023,,,,,,,2023-04-10,1,,,,,アマクサアカネデザインキョウギカイ,0
2761,8340003004097,新規,0,2023-04-10,2023-04-10,合同会社廣星,,合同会社,鹿児島県,鹿児島市,石谷町２４５３番地１０,,46,201,8992701,,,,,,,2023-04-10,1,,,,,ヒロセ,0
2762,8340005009581,新規,0,2023-04-10,2023-04-10,鹿児島県アスファルト合材工業組合,,その他の設立登記法人,鹿児島県,鹿児島市,宇宿２丁目８番２６号,,46,201,8900073,,,,,,,2023-04-10,1,,,,,カゴシマケンアスファルトゴウザイ,0
2765,8360005006817,新規,0,2023-04-10,2023-04-10,一般社団法人共育ステーションつむぎ,,その他の設立登記法人,沖縄県,那覇市,繁多川１丁目２１番１ルミエール繁多川３０１号,,47,201,9020071,,,,,,,2023-04-10,1,,,,,キョウイクステーションツムギ,0
2767,8370001006101,新規,0,2023-04-10,2023-04-10,株式会社マツダモータース宮城,,株式会社,宮城県,仙台市宮城野区,小田原１丁目３番２３号,,04,102,9830803,,,,,,,2023-04-10,1,,,,,,0
2769,8370003006082,新規,0,2023-04-10,2023-04-10,合同会社サンリクテック,,合同会社,宮城県,気仙沼市,東中才１４５番地２,,04,205,9880804,,,,,,,2023-04-10,1,,,,,サンリクテック,0
2771,8370005010611,新規,0,2023-04-10,2023-04-10,一般社団法人硯上の里おがつ,,その他の設立登記法人,宮城県,石巻市,雄勝町下雄勝２丁目１７番地（雄勝硯伝統産業会館）,,04,202,9861335,,,,,,,2023-04-10,1,,,,,ケンジョウノサトオガツ,0
2781,8420001018215,新規,0,2023-04-10,2023-04-10,株式会社ＰＬＵＳＵＰ,,株式会社,青森県,上北郡東北町,字往来ノ下４０番地６,,02,408,0392634,,,,,,,2023-04-10,1,,,,,プラスアップ,0
2784,8430001088777,新規,0,2023-04-10,2023-04-10,株式会社Ｎ,,株式会社,北海道,札幌市北区,新川三条５丁目２番１５号,,01,102,0010923,,,,,,,2023-04-10,1,,,,,エヌ,0
2785,8430003014913,新規,0,2023-04-10,2023-04-10,合同会社オフィス・Ｈａｎａ,,合同会社,北海道,札幌市手稲区,前田四条４丁目２番２０号クレストコートＣ－２０７号,,01,109,0060814,,,,,,,2023-04-10,1,,,,,オフィスハナ,0
2786,8430003014946,新規,0,2023-04-10,2023-04-10,合同会社えちかつ,,合同会社,北海道,札幌市東区,北二十条東１７丁目１－９　２０２,,01,103,0650020,,,,,,,2023-04-10,1,,,,,エチカツ,0
2790,8460001005787,新規,0,2023-04-10,2023-04-10,株式会社ＭＫ　ｗｏｒｋｓ,,株式会社,北海道,釧路市,新富士町５丁目３番１８号,,01,206,0840904,,,,,,,2023-04-10,1,,,,,エムケーワークス,0
2794,8470003002385,新規,0,2023-04-10,2023-04-10,合同会社エスケイオート,,合同会社,香川県,仲多度郡多度津町,大字庄８４６番地２,,37,404,7640031,,,,,,,2023-04-10,1,,,,,エスケイオート,0
2795,8480001012063,新規,0,2023-04-10,2023-04-10,株式会社ｃｏｔｏｃｏｔｏ,,株式会社,徳島県,徳島市,川内町平石古田２２１番地の５,,36,201,7710136,,,,,,,2023-04-10,1,,,,,コトコト,0
2797,8480003001964,新規,0,2023-04-10,2023-04-10,合同会社友成企画,,合同会社,徳島県,美馬市,脇町字小星１１９６番地４,,36,207,7793634,,,,,,,2023-04-10,1,,,,,トモナリキカク,0
2800,8700150115230,新規,0,2023-04-10,2023-04-10,Ｚｈｕｈａｉ　Ｔｍｅｚｏｎ　Ｔｅｃｈｎｏｌｏｇｙ　Ｃｏ．，Ｌｉｍｉｔｅｄ,,外国会社等,,,,,,,,５ｔｈ　Ｆｌｏｏｒ，Ｎｏ．６．Ｐｉｎｇｂｅｉ　２ｎｄ．Ｒｄ，Ｎａｎｐｉｎｇ　Ｓｃｉｅｎｃｅ　ＺｈｕＨａｉ　ＧｕａｎｇＤｏｎｇ,,,,,,2023-04-10,1,,,,,チユーハイビシンカギユウゲンコウシ,0
2801,8700150115247,新規,0,2023-04-10,2023-04-10,ＳｉｎｏーＡｍｅｒｉｃａｎ　Ｓｉｌｉｃｏｎ　Ｐｒｏｄｕｃｔｓ　Ｉｎｃ．,,外国会社等,,,,,,,,Ｎｏ．８，Ｉｎｄｕｓｔｒｙ　Ｅ．Ｒｄ．２，Ｈｓｉｎｃｈｕ　Ｓｃｉｅｎｃｅ　Ｐａｒｋ，Ｔａｉｗａｎ,,,,,,2023-04-10,1,,,,,シノアメリカンシリコンプロダクツインコーポレーテツド,0
2802,8700150115255,新規,0,2023-04-10,2023-04-10,ＫＣＰ　ＴＲＡＤＩＮＧ　ＣＯ．，ＬＴＤ．,,外国会社等,,,,,,,,３Ｆ．，ＮＯ．８５，ＦＵＧＵＩ　ＲＤ．，ＬＩＮＫＯＵ　ＤＩＳＴ．，ＮＥＷ　ＴＡＩＰＥＩ　ＣＩＴＹ　２４４０１６，ＴＡＩＷＡＮ（Ｒ．О．Ｃ）,,,,,,2023-04-10,1,,,,,カイションマオイーヨウシエンゴンスー,0
2810,9010001234257,新規,0,2023-04-10,2023-04-10,株式会社Ｉ＆Ａ,,株式会社,東京都,中央区,八丁堀４丁目８番１号,,13,102,1040032,,,,,,,2023-04-10,1,,,,,アイアンドエー,0
2811,9010001234265,新規,0,2023-04-10,2023-04-10,ＰＨＯＥＢＥ株式会社,,株式会社,東京都,文京区,本郷４丁目１６番６号天翔オフィス後楽園５階５０５号室,,13,105,1130033,,,,,,,2023-04-10,1,,,,,フィービー,0
2812,9010001234281,新規,0,2023-04-10,2023-04-10,ホタルデザイン株式会社,,株式会社,東京都,中央区,勝どき５丁目１２番４－１２０３号,,13,102,1040054,,,,,,,2023-04-10,1,,,,,ホタルデザイン,0
2813,9010001234315,新規,0,2023-04-10,2023-04-10,Ｎ．ＳＰＲＩＮＧ寧水株式会社,,株式会社,東京都,千代田区,神田三崎町２丁目１０番１１号Ｐｅｇビル６Ｂ－２,,13,101,1010061,,,,,,,2023-04-10,1,,,,,エヌスプリングネイスイ,0
2816,9010003040199,新規,0,2023-04-10,2023-04-10,合同会社ＤＶＭｋｅｎ４６,,合同会社,東京都,中央区,新富１丁目５－５トーア新富１００４,,13,102,1040041,,,,,,,2023-04-10,1,,,,,ディーブイエムケンシロウ,0
2817,9010003040208,新規,0,2023-04-10,2023-04-10,ＳｅａｋｌｅＣｏｎｓｕｌｔｉｎｇ合同会社,,合同会社,東京都,中央区,銀座１丁目２２番１１号銀座大竹ビジデンス２Ｆ,,13,102,1040061,,,,,,,2023-04-10,1,,,,,シークルコンサルティング,0
2818,9010003040232,新規,0,2023-04-10,2023-04-10,ＲＢソーラーホップ合同会社,,合同会社,東京都,千代田区,麹町２丁目８番地ＭＬＣ麹町ビル４階フィンポート税理士法人内,,13,101,1020083,,,,,,,2023-04-10,1,,,,,アールビーソーラーホップ,0
2819,9010003040240,新規,0,2023-04-10,2023-04-10,合同会社ライチ,,合同会社,東京都,千代田区,内神田３丁目１０－３神田ロイヤルビル６階６０２号,,13,101,1010047,,,,,,,2023-04-10,1,,,,,,0
2820,9010003040249,新規,0,2023-04-10,2023-04-10,ソフトマターソリューション合同会社,,合同会社,東京都,千代田区,九段南１丁目５番６号りそな銀行九段ビル５階ＫＳフロア,,13,101,1020074,,,,,,,2023-04-10,1,,,,,ソフトマターソリューション,0
2821,9010005036468,新規,0,2023-04-10,2023-04-10,一般社団法人東京クリーンリサイクル協会,,その他の設立登記法人,東京都,中央区,銀座５丁目１４番１０号第１０矢野ビル８階,,13,102,1040061,,,,,,,2023-04-10,1,,,,,トウキョウクリーンリサイクルキョウカイ,0
2826,9010103002116,新規,0,2023-04-10,2023-04-10,合同会社フジヤマ興業,,合同会社,東京都,八王子市,中山５６６番地２アムール白山２０２号,,13,201,1920374,,,,,,,2023-04-10,1,,,,,フジヤマコウギョウ,0
2835,9010401173402,新規,0,2023-04-10,2023-04-10,株式会社モダネージ,,株式会社,東京都,港区,芝浦１丁目１４－７－４０１,,13,103,1050023,,,,,,,2023-04-10,1,,,,,モダネージ,0
2836,9010401173518,新規,0,2023-04-10,2023-04-10,株式会社Ｌｏｇｉｃ,,株式会社,東京都,港区,南青山２丁目２番１５号ウィン青山９４２,,13,103,1070062,,,,,,,2023-04-10,1,,,,,ロジック,0
2837,9010401173526,新規,0,2023-04-10,2023-04-10,株式会社ＥＳＰＯＩＲ,,株式会社,東京都,港区,西麻布３丁目２０番１３号木村ビル３階,,13,103,1060031,,,,,,,2023-04-10,1,,,,,エスポワール,0
2838,9010401173583,新規,0,2023-04-10,2023-04-10,Ｗｅａｖｅ　Ｌｉｖｉｎｇ　Ｊａｐａｎ株式会社,,株式会社,東京都,港区,六本木１丁目９番１０号アークヒルズ仙石山森タワー２８階ベーカー＆マッケンジー法律事務所（外国法共同事業）内,,13,103,1060032,,,,,,,2023-04-10,1,,,,,ウィーブリビングジャパン,0
2840,9010403029866,新規,0,2023-04-10,2023-04-10,合同会社ユーラスバッテリーエナジー,,合同会社,東京都,港区,虎ノ門４丁目３番１３号,,13,103,1050001,,,,,,,2023-04-10,1,,,,,ユーラスバッテリーエナジー,0
2848,9010601062850,新規,0,2023-04-10,2023-04-10,株式会社企業家ＶＥＮＴＵＲＥＰＡＲＫ,,株式会社,東京都,江東区,木場３丁目１６番８号レッタスビル,,13,108,1350042,,,,,,,2023-04-10,1,,,,,キギョウカベンチャーパーク,0
2849,9010601062875,新規,0,2023-04-10,2023-04-10,株式会社Ｈ．Ｄ．Ｓ,,株式会社,東京都,江東区,豊洲３丁目４番１－４６０６号,,13,108,1350061,,,,,,,2023-04-10,1,,,,,エイチディーエス,0
2850,9010601062883,新規,0,2023-04-10,2023-04-10,ＨＳＶ　ＰＬＵＳ株式会社,,株式会社,東京都,江東区,深川１丁目３番１１号,,13,108,1350033,,,,,,,2023-04-10,1,,,,,エイチエスヴイプラス,0
2855,9010901052849,新規,0,2023-04-10,2023-04-10,株式会社Ｃｏｎｃｒｅｔｏ,,株式会社,東京都,世田谷区,新町３丁目２２番１０号ファーレ桜新町ＩＩＩ４０３,00130028,13,112,1540014,,,,,,,2023-04-10,1,,,,,コンクリート,0
2863,9011001153430,新規,0,2023-04-10,2023-04-10,森田製薬株式会社,,株式会社,東京都,渋谷区,代々木２丁目２３番１号,,13,113,1510053,,,,,,,2023-04-10,1,,,,,モリタセイヤク,0
2864,9011003016569,新規,0,2023-04-10,2023-04-10,合同会社ＧＨ,,合同会社,東京都,渋谷区,道玄坂１丁目１０番８号渋谷道玄坂東急ビル２Ｆ－Ｃ,,13,113,1500043,,,,,,,2023-04-10,1,,,,,ジーエイチ,0
2870,9011101102436,新規,0,2023-04-10,2023-04-10,株式会社リビ,,株式会社,東京都,新宿区,富久町１５番１－５３０８号室,,13,104,1620067,,,,,,,2023-04-10,1,,,,,リビ,0
2873,9011105010619,新規,0,2023-04-10,2023-04-10,一般社団法人ｃａｓａ,,その他の設立登記法人,東京都,新宿区,西新宿３丁目３番１３号西新宿水間ビル２Ｆ,,13,104,1600023,,,,,,,2023-04-10,1,,,,,カサ,0
2876,9011301028588,新規,0,2023-04-10,2023-04-10,株式会社南俊允建築設計事務所,,株式会社,東京都,杉並区,高円寺北３丁目１番９号青田ビル４０２,,13,115,1660002,,,,,,,2023-04-10,1,,,,,ミナミトシミツケンチクセッケイジムショ,0
2878,9011401025023,新規,0,2023-04-10,2023-04-10,東包パック産業株式会社,,株式会社,東京都,板橋区,坂下１丁目１１番３－５０２号,,13,119,1740043,,,,,,,2023-04-10,1,,,,,トウホウパックサンギョウ,0
2879,9011401025031,新規,0,2023-04-10,2023-04-10,株式会社ＫＢＳシステムズ,,株式会社,東京都,板橋区,大谷口北町８２番４号,,13,119,1730031,,,,,,,2023-04-10,1,,,,,,0
2887,9011801042196,新規,0,2023-04-10,2023-04-10,株式会社多美華製作所,,株式会社,東京都,足立区,綾瀬５丁目１７番１９号,,13,121,1200005,,,,,,,2023-04-10,1,,,,,タミカセイサクショ,0
2888,9011803005589,新規,0,2023-04-10,2023-04-10,プリマブレイン合同会社,,合同会社,東京都,葛飾区,東金町２丁目２３番１－３１２号,,13,122,1250041,,,,,,,2023-04-10,1,,,,,プリマブレイン,0
2890,9012401040383,新規,0,2023-04-10,2023-04-10,株式会社ＳＩＡ,,株式会社,東京都,武蔵野市,吉祥寺本町２丁目２番１０号村田ビルＢ１Ｆ,,13,203,1800004,,,,,,,2023-04-10,1,,,,,シア,0
2891,9012403005921,新規,0,2023-04-10,2023-04-10,合同会社徳尚,,合同会社,東京都,三鷹市,大沢３丁目１０－５０,,13,204,1810015,,,,,,,2023-04-10,1,,,,,トクショウ,0
2894,9012801022254,新規,0,2023-04-10,2023-04-10,株式会社ＷＪＭ,,株式会社,東京都,立川市,曙町２丁目２番２２号,,13,202,1900012,,,,,,,2023-04-10,1,,,,,ダブリュージェイエム,0
2899,9013303006571,新規,0,2023-04-10,2023-04-10,前田商事合同会社,,合同会社,東京都,豊島区,東池袋４丁目５番１号,,13,116,1700013,,,,,,,2023-04-10,1,,,,,マエダショウジ,0
2903,9020001150965,新規,0,2023-04-10,2023-04-10,株式会社大東産業,,株式会社,神奈川県,横浜市緑区,中山６丁目１番１－３０７号,,14,113,2260019,,,,,,,2023-04-10,1,,,,,ダイトウサンギョウ,0
2904,9020001151022,新規,0,2023-04-10,2023-04-10,株式会社リリーフメンテナンス,,株式会社,神奈川県,横浜市港南区,芹が谷５丁目４７番３３号メゾンクレール壱番館２０１号,,14,111,2330006,,,,,,,2023-04-10,1,,,,,リリーフメンテナンス,0
2905,9020001151039,新規,0,2023-04-10,2023-04-10,株式会社赤柴産業,,株式会社,神奈川県,横浜市鶴見区,平安町１丁目１番地１ＩＩＩ－７０７,00130011,14,101,2300031,,,,,,,2023-04-10,1,,,,,アカシバサンギョウ,0
2906,9020001151047,新規,0,2023-04-10,2023-04-10,株式会社キッチンＫ,,株式会社,神奈川県,横浜市金沢区,鳥浜町１番地１,,14,108,2360002,,,,,,,2023-04-10,1,,,,,キッチンケイ,0
2907,9020001151063,新規,0,2023-04-10,2023-04-10,株式会社風,,株式会社,神奈川県,横浜市都筑区,茅ケ崎中央４５番１号６０２号室,,14,118,2240032,,,,,,,2023-04-10,1,,,,,カゼ,0
2911,9020003023649,新規,0,2023-04-10,2023-04-10,合同会社ＰｏｔＢｅｔ,,合同会社,神奈川県,横浜市神奈川区,羽沢町１１１８－１,,14,102,2210863,,,,,,,2023-04-10,1,,,,,ポットベット,0
2919,9030001153141,新規,0,2023-04-10,2023-04-10,株式会社盈月,,株式会社,埼玉県,三郷市,笹塚２６,,11,237,3410027,,,,,,,2023-04-10,1,,,,,エイゲツ,0
2920,9030001153166,新規,0,2023-04-10,2023-04-10,株式会社明和ホールディングス,,株式会社,埼玉県,鶴ヶ島市,富士見１丁目１番５号,,11,241,3502201,,,,,,,2023-04-10,1,,,,,メイワホールディングス,0
2921,9030001153232,新規,0,2023-04-10,2023-04-10,モテギソリューション株式会社,,株式会社,埼玉県,深谷市,上柴町東７丁目５番地８,,11,218,3660051,,,,,,,2023-04-10,1,,,,,モテギソリューション,0
2922,9030001153249,新規,0,2023-04-10,2023-04-10,株式会社ＢＯＳ,,株式会社,埼玉県,さいたま市岩槻区,大字加倉５番地３コンフォート岩槻Ｂ２０２,,11,110,3390056,,,,,,,2023-04-10,1,,,,,ビーオーエス,0
2926,9040001127821,新規,0,2023-04-10,2023-04-10,株式会社いえチェン,,株式会社,千葉県,我孫子市,白山２丁目１６番４号,,12,222,2701154,,,,,,,2023-04-10,1,,,,,イエチェン,0
2927,9040001127895,新規,0,2023-04-10,2023-04-10,株式会社ユーテック,,株式会社,千葉県,印旛郡酒々井町,中央台１丁目４番２号,,12,322,2850922,,,,,,,2023-04-10,1,,,,,ユーテック,0
2935,9040003022368,新規,0,2023-04-10,2023-04-10,ＮＡ５ＭＩ合同会社,,合同会社,千葉県,千葉市花見川区,幕張本郷７丁目３４番４号,,12,102,2620033,,,,,,,2023-04-10,1,,,,,ナゴミ,0
2938,9050001052630,新規,0,2023-04-10,2023-04-10,株式会社ツクバコンサルタンツ,,株式会社,茨城県,つくば市,上大島３１番地２,,08,220,3004351,,,,,,,2023-04-10,1,,,,,ツクバコンサルタンツ,0
2939,9050001052639,新規,0,2023-04-10,2023-04-10,株式会社ハートフル,,株式会社,茨城県,牛久市,中央３丁目３６番地８号,,08,219,3001234,,,,,,,2023-04-10,1,,,,,ハートフル,0
2943,9070001040286,新規,0,2023-04-10,2023-04-10,株式会社津久井ファーム,,株式会社,群馬県,館林市,野辺町７３７番地,,10,207,3740047,,,,,,,2023-04-10,1,,,,,ツクイファーム,0
2946,9080005007529,新規,0,2023-04-10,2023-04-10,一般社団法人静岡県ライフセービング協会,,その他の設立登記法人,静岡県,静岡市清水区,港町２丁目１番１号キララシティ２階,,22,103,4240943,,,,,,,2023-04-10,1,,,,,シズオカケンライフセービングキョウカイ,0
2947,9080101023909,新規,0,2023-04-10,2023-04-10,株式会社ファンチャレンジ,,株式会社,静岡県,富士市,柚木２３７番地の２,,22,210,4160908,,,,,,,2023-04-10,1,,,,,ファンチャレンジ,0
2954,9100001036280,新規,0,2023-04-10,2023-04-10,株式会社コスモス工業,,株式会社,長野県,茅野市,金沢２７５６番地１,,20,214,3910012,,,,,,,2023-04-10,1,,,,,コスモスコウギョウ,0
2955,9110001037419,新規,0,2023-04-10,2023-04-10,株式会社ＪＡＥＴ,,株式会社,新潟県,新潟市中央区,山二ツ３丁目１４番１６号コーポ山二ツ２１０号,,15,103,9500922,,,,,,,2023-04-10,1,,,,,ジェット,0
2971,9120001253691,新規,0,2023-04-10,2023-04-10,株式会社Ｃ＆Ｗ,,株式会社,大阪府,大阪市淀川区,西宮原２丁目６－１６新大阪コーポビアネーズ１０３５号室,,27,123,5320004,,,,,,,2023-04-10,1,,,,,シーアンドダブリュー,0
2972,9120001253709,新規,0,2023-04-10,2023-04-10,株式会社Ｋ‐ＴＥＣ,,株式会社,大阪府,大阪市城東区,鴫野東３丁目２３番８号,,27,118,5360013,,,,,,,2023-04-10,1,,,,,ケイテック,0
2973,9120001253725,新規,0,2023-04-10,2023-04-10,ＵＫ　ＧＯ株式会社,,株式会社,大阪府,大阪市都島区,中野町１丁目３－２２－２０２号室,,27,102,5340027,,,,,,,2023-04-10,1,,,,,ユーケーゴー,0
2974,9120001253824,新規,0,2023-04-10,2023-04-10,旭源株式会社,,株式会社,大阪府,大阪市東住吉区,鷹合３丁目４－２プレジデント鷹合３０６号室,,27,121,5460014,,,,,,,2023-04-10,1,,,,,キョクゲン,0
2977,9120003023787,新規,0,2023-04-10,2023-04-10,合同会社ＳＯＵ,,合同会社,大阪府,大阪市旭区,中宮５丁目２番２６号中宮ビル４階,,27,117,5350003,,,,,,,2023-04-10,1,,,,,ソウ,0
2997,9130001074030,新規,0,2023-04-10,2023-04-10,株式会社Ｓｕｎ　Ｏｎｉｓｈｉ　ＪＡＰＡＮ,,株式会社,京都府,京都市左京区,浄土寺東田町５３番地,,26,103,6068411,,,,,,,2023-04-10,1,,,,,サンオオニシジャパン,0
3000,9130005016739,新規,0,2023-04-10,2023-04-10,医療法人社団悠水会,,その他の設立登記法人,京都府,京都市西京区,下津林南大般若町３７番地リペアス下津林３Ｆ,,26,111,6158036,,,,,,,2023-04-10,1,,,,,ユウスイカイ,0
3012,9140001129642,新規,0,2023-04-10,2023-04-10,株式会社エコロード,,株式会社,兵庫県,加古川市,平岡町新在家３０２番地農機ビル,,28,210,6750101,,,,,,,2023-04-10,1,,,,,エコロード,0
3013,9140001129650,新規,0,2023-04-10,2023-04-10,株式会社チューンアップ,,株式会社,兵庫県,神戸市兵庫区,大開通２丁目３番３３号,,28,105,6520803,,,,,,,2023-04-10,1,,,,,チューンアップ,0
3014,9140001129667,新規,0,2023-04-10,2023-04-10,株式会社トロイド,,株式会社,兵庫県,神戸市西区,狩場台３丁目７－１－２０－５０４,,28,111,6512272,,,,,,,2023-04-10,1,,,,,トロイド,0
3015,9140001129675,新規,0,2023-04-10,2023-04-10,株式会社ＪＯ,,株式会社,兵庫県,尼崎市,東難波町５丁目１２番４号アリビオ１０５,,28,202,6600892,,,,,,,2023-04-10,1,,,,,ジェイオー,0
3016,9140001129691,新規,0,2023-04-10,2023-04-10,トップワン株式会社,,株式会社,兵庫県,尼崎市,潮江２丁目２５番４号,,28,202,6610976,,,,,,,2023-04-10,1,,,,,トップワン,0
3025,9140005026571,新規,0,2023-04-10,2023-04-10,一般社団法人朝来市観光協会,,その他の設立登記法人,兵庫県,朝来市,和田山町東谷２１３番地１,,28,225,6695202,,,,,,,2023-04-10,1,,,,,アサゴシカンコウキョウカイ,0
3027,9150001026293,新規,0,2023-04-10,2023-04-10,株式会社福田電気サービス,,株式会社,奈良県,桜井市,大字辻２１０番地の６,00130012,29,206,6330083,,,,,,,2023-04-10,1,,,,,フクダデンキサービス,0
3049,9180001155750,新規,0,2023-04-10,2023-04-10,株式会社坪井メディカル,,株式会社,愛知県,清須市,寺野花園５２番地,,23,233,4520908,,,,,,,2023-04-10,1,,,,,ツボイメディカル,0
3050,9180001155759,新規,0,2023-04-10,2023-04-10,株式会社ＫＡＩ,,株式会社,愛知県,名古屋市千種区,吹上１丁目２０６番地,,23,101,4640856,,,,,,,2023-04-10,1,,,,,ケーエーアイ,0
3051,9180001155775,新規,0,2023-04-10,2023-04-10,株式会社タイムグラファー,,株式会社,愛知県,北名古屋市,熊之庄古井１４７番地１モリハイツ３０１号,,23,234,4810006,,,,,,,2023-04-10,1,,,,,タイムグラファー,0
3052,9180001155783,新規,0,2023-04-10,2023-04-10,ＤＣＣ株式会社,,株式会社,愛知県,名古屋市東区,泉１丁目１８番３号泉ステイトリービル８０１号,,23,102,4610001,,,,,,,2023-04-10,1,,,,,ディーシーシー,0
3053,9180001155791,新規,0,2023-04-10,2023-04-10,株式会社ｂｅｓｉｄｅ　ｍｅ,,株式会社,愛知県,名古屋市中川区,尾頭橋４丁目６番１６号,,23,110,4540012,,,,,,,2023-04-10,1,,,,,ビサイドミー,0
3062,9180003025084,新規,0,2023-04-10,2023-04-10,合同会社Ｐｒｉｍｅ　Ｓｃａｖａｒｅ,,合同会社,愛知県,名古屋市緑区,青山４丁目９１１番地,,23,114,4580833,,,,,,,2023-04-10,1,,,,,プライムスキャバー,0
3065,9180301037285,新規,0,2023-04-10,2023-04-10,株式会社當山ＦＲＰ化工,,株式会社,愛知県,北設楽郡豊根村,上黒川字間当１０番地４,,23,563,4490404,,,,,,,2023-04-10,1,,,,,トオヤマエフアールピーカコウ,0
3067,9200001041163,新規,0,2023-04-10,2023-04-10,株式会社アクライズ,,株式会社,岐阜県,安八郡神戸町,大字丈六道４３９番地の７,,21,381,5032304,,,,,,,2023-04-10,1,,,,,アクライズ,0
3079,9220005008743,新規,0,2023-04-10,2023-04-10,一般社団法人ふわる会,,その他の設立登記法人,石川県,小松市,細工町１２８番地チェリーハイツ１０１号室,,17,203,9230915,,,,,,,2023-04-10,1,,,,,フワルカイ,0
3084,9240001061315,新規,0,2023-04-10,2023-04-10,株式会社数田木材,,株式会社,広島県,神石郡神石高原町,相渡６５４４番地３,,34,545,7293601,,,,,,,2023-04-10,1,,,,,カズタモクザイ,0
3085,9240001061323,新規,0,2023-04-10,2023-04-10,Ｒ２エステート株式会社,,株式会社,広島県,広島市西区,大芝２丁目１５番１４－４０７号,,34,104,7330001,,,,,,,2023-04-10,1,,,,,アールツーエステート,0
3086,9240005015556,新規,0,2023-04-10,2023-04-10,一般社団法人ココロとカラダの創発空間‐遊,,その他の設立登記法人,広島県,広島市安佐南区,東野１丁目１８－２１－１０２,,34,105,7310111,,,,,,,2023-04-10,1,,,,,ココロトカラダノソウハツクウカンーユウ,0
3088,9250001020047,新規,0,2023-04-10,2023-04-10,株式会社山田塗装,,株式会社,山口県,岩国市,中津町３丁目７番１６号,,35,208,7400027,,,,,,,2023-04-10,1,,,,,ヤマダトソウ,0
3092,9260001037833,新規,0,2023-04-10,2023-04-10,株式会社Ｃｅｎｔｒａｌ　Ｈｏｒｓｅ,,株式会社,岡山県,倉敷市,南畝３丁目１番８号,,33,202,7128055,,,,,,,2023-04-10,1,,,,,セントラルホース,0
3093,9260001037841,新規,0,2023-04-10,2023-04-10,株式会社一矢,,株式会社,岡山県,岡山市北区,今３丁目１０－１０,,33,101,7000975,,,,,,,2023-04-10,1,,,,,イッシ,0
3100,9290001101074,新規,0,2023-04-10,2023-04-10,株式会社メイクインボディー,,株式会社,福岡県,福岡市中央区,天神４丁目４番１８号ヒット天神ビル２Ｆ,,40,133,8100001,,,,,,,2023-04-10,1,,,,,メイクインボディー,0
3105,9310003004545,新規,0,2023-04-10,2023-04-10,合同会社ライフながさき,,合同会社,長崎県,長崎市,上戸石町１５５７番地９,,42,201,8510111,,,,,,,2023-04-10,1,,,,,,0
3110,9330003009798,新規,0,2023-04-10,2023-04-10,コルソス合同会社,,合同会社,熊本県,熊本市中央区,新市街１番２８号ＴＨＥ・ＰＬＡＣＥ花畑ビル６Ｆ,,43,101,8600803,,,,,,,2023-04-10,1,,,,,コルソス,0
3111,9340001025482,新規,0,2023-04-10,2023-04-10,株式会社ＮＵＲＩＫＡＥＴＡＩ,,株式会社,鹿児島県,鹿児島市,吉野２丁目１１番５号,,46,201,8920877,,,,,,,2023-04-10,1,,,,,ヌリカエタイ,0
3112,9340001025490,新規,0,2023-04-10,2023-04-10,株式会社鹿児島飛翔,,株式会社,鹿児島県,いちき串木野市,大里３５１３番地,,46,219,8992103,,,,,,,2023-04-10,1,,,,,カゴシマヒショウ,0
3117,9350001018262,新規,0,2023-04-10,2023-04-10,岩倉林業株式会社,,株式会社,宮崎県,延岡市,北川町長井５２６１番地の２,,45,203,8890102,,,,,,,2023-04-10,1,,,,,イワクラリンギョウ,0
3119,9360001031818,新規,0,2023-04-10,2023-04-10,株式会社一白蟻防蟻社,,株式会社,沖縄県,宮古島市,平良字下里１５１０番地２,,47,214,9060013,,,,,,,2023-04-10,1,,,,,ハジメシロアリボウギシャ,0
3120,9360001031826,新規,0,2023-04-10,2023-04-10,ＭＵＳＯ株式会社,,株式会社,沖縄県,那覇市,長田２丁目２番２９号,,47,201,9020077,,,,,,,2023-04-10,1,,,,,,0
3121,9360001031834,新規,0,2023-04-10,2023-04-10,株式会社仲宗根設備,,株式会社,沖縄県,中頭郡西原町,字幸地２２４番地,,47,329,9030116,,,,,,,2023-04-10,1,,,,,ナカソネセツビ,0
3122,9360003012873,新規,0,2023-04-10,2023-04-10,合同会社カナリー,,合同会社,沖縄県,中頭郡読谷村,字瀬名波６４４番地１うふにしＩＩＦ号室,00130016,47,324,9040325,,,,,,,2023-04-10,1,,,,,カナリー,0
3124,9370001049818,新規,0,2023-04-10,2023-04-10,ボンズジャパン株式会社,,株式会社,宮城県,名取市,美田園４丁目４番地の６,,04,207,9811217,,,,,,,2023-04-10,1,,,,,ボンズジャパン,0
3128,9370003006081,新規,0,2023-04-10,2023-04-10,合同会社ｐｉｏｍａ,,合同会社,宮城県,仙台市宮城野区,新田東２丁目１３番地の１ファミールサイセイＩＩＩ‐６０７,00130018,04,102,9830039,,,,,,,2023-04-10,1,,,,,ピオマ,0
3130,9390001017211,新規,0,2023-04-10,2023-04-10,Ｇ・テックＹａｍａｇａｔａ株式会社,,株式会社,山形県,山形市,あかねケ丘３丁目２０番６号,,06,201,9902481,,,,,,,2023-04-10,1,,,,,ジーテックヤマガタ,0
3138,9410005006513,新規,0,2023-04-10,2023-04-10,農事組合法人とちや,,その他の設立登記法人,秋田県,大仙市,戸地谷字嶋田１５５番地,,05,212,0140801,,,,,,,2023-04-10,1,,,,,,0
3140,9430001088768,新規,0,2023-04-10,2023-04-10,株式会社鈴木電工,,株式会社,北海道,札幌市東区,北十八条東２０丁目３－１１,,01,103,0650018,,,,,,,2023-04-10,1,,,,,スズキデンコウ,0
3141,9430001088792,新規,0,2023-04-10,2023-04-10,株式会社ＭＡＫＩ,,株式会社,北海道,札幌市厚別区,大谷地東５丁目１番１５－７０３号,,01,108,0040041,,,,,,,2023-04-10,1,,,,,マキ,0
3144,9430003014945,新規,0,2023-04-10,2023-04-10,合同会社Ｍｏｕｔｏｎ,,合同会社,北海道,札幌市中央区,北四条東４丁目１番地３クリーンリバーフィネス札幌駅イースト３０７号,,01,101,0600034,,,,,,,2023-04-10,1,,,,,ムートン,0
3148,9470001019562,新規,0,2023-04-10,2023-04-10,Ｃ．ソリューションシステム株式会社,,株式会社,香川県,高松市,林町６番地１５,,37,201,7610301,,,,,,,2023-04-10,1,,,,,シーソリューションシステム,0
3149,9480003001963,新規,0,2023-04-10,2023-04-10,合同会社咲良,,合同会社,徳島県,阿南市,畭町新はり１７９番地１２,,36,204,7740003,,,,,,,2023-04-10,1,,,,,ソラ,0
3150,9490005006893,新規,0,2023-04-10,2023-04-10,一般社団法人ＣＲＯＳＳ　ＳＰＯＲＴＳ高知,,その他の設立登記法人,高知県,高知市,桜馬場２番１号,,39,201,7800929,,,,,,,2023-04-10,1,,,,,クロススポーツコウチ,0
3153,9500001024864,新規,0,2023-04-10,2023-04-10,株式会社瀧本プラント建設,,株式会社,愛媛県,四国中央市,上柏町８７６番地,,38,213,7990412,,,,,,,2023-04-10,1,,,,,タキモトプラントケンセツ,0
3154,9700150115246,新規,0,2023-04-10,2023-04-10,ｓｈａｎｄｏｎｇｌｉｆｕｔｅｂｏｌｉｋｅｊｉｇｕｆｅｎｙｏｕｘｉａｎｇｏｎｇｓｉ,,外国会社等,,,,,,,,ｓｈｏｕｇｕａｎｇｓｈｉｙａｎｇｋｏｕｌｉｎｇａｎｇｇｏｎｇｙｅｙｕａｎ　ｚｈｏｎｇｘｉｎｌｕｎａｎ，ｙａｎｇｔｉａｎｌｕｄｏｎｇ　ｗｅｉｆａｎｇｓｈｉ　ｓｈａｎｄｏｎｇｓｈｅｎｇ　２６２７１４　ＣＮ,,,,,,2023-04-10,1,,,,,シヤンドンリーフトアボーリカージーグーフンヨウシエンゴーンス,0
3155,9700150115254,新規,0,2023-04-10,2023-04-10,Ｓｈｅｎｚｈｅｎｓｈｉ　Ｌｉｅｒｄｅｓｈｉｙｅｙｏｕｘｉａｎｇｏｎｇｓｉ,,外国会社等,,,,,,,,Ｌｏｎｇｈｕａｑｕ　Ｄａｌａｎｇｊｉｅｄａｏ　Ｌａｎｇｋｏｕｓｈｅｑｕ　Ｈｕａｒｏｎｇｌｕ　５３０　Ｈａｏ　Ｆｕｓｈｉｊｉｅｃｈａｎｙｅｙｕａｎ　３　Ｄｏｎｇ　２０１　Ｓｈｉ　Ｓｈｅｎｚｈｅｎ　Ｇｕａｎｇｄｏｎｇ　５１８０００　ＣＮ,,,,,,2023-04-10,1,,,,,シェンジェンシーリーアーダーシーイエヨウシエンゴンスー,0
