sequenceNumber,corporateNumber,process,correct,updateDate,changeDate,name,nameImageId,kind,prefectureName,cityName,streetNumber,addressImageId,prefectureCode,cityCode,postCode,addressOutside,addressOutsideImageId,closeDate,closeCause,successorCorporateNumber,changeCause,assignmentDate,latest,enName,enPrefectureName,enCityName,enAddressOutside,furigana,hihyoji
7,1010001249923,新規,0,2024-11-18,2024-11-18,９９株式会社,,株式会社,東京都,中央区,築地４丁目３番１１号,,13,102,1040045,,,,,,,2024-11-18,1,,,,,ナインティナイン,0
8,1010001249948,新規,0,2024-11-18,2024-11-18,株式会社ＭａｋｅｕｐＣｅＣｅ,,株式会社,東京都,千代田区,六番町６番４号ＬＨ番町スクエア５階,,13,101,1020085,,,,,,,2024-11-18,1,,,,,メイクアップシシ,0
26,1010003045437,新規,0,2024-11-18,2024-11-18,合同会社ヤナギ商事,,合同会社,東京都,千代田区,神田和泉町１番地６－１６ヤマトビル４０５,,13,101,1010024,,,,,,,2024-11-18,1,,,,,ヤナギショウジ,0
27,1010003045453,新規,0,2024-11-18,2024-11-18,合同会社Ｂｅ　Ｓｉｎｃｅｒｅ,,合同会社,東京都,千代田区,九段北４丁目３番３２号,,13,101,1020073,,,,,,,2024-11-18,1,,,,,ビーシンシア,0
28,1010003045461,新規,0,2024-11-18,2024-11-18,合同会社ｒａｉｓｅ,,合同会社,東京都,中央区,晴海３丁目１３号２番ドゥトゥールウエストタワー１１０９,,13,102,1040053,,,,,,,2024-11-18,1,,,,,レイズ,0
29,1010003045478,新規,0,2024-11-18,2024-11-18,合同会社無壁,,合同会社,東京都,中央区,八丁堀２丁目４番１号,,13,102,1040032,,,,,,,2024-11-18,1,,,,,ウビ,0
30,1010003045486,新規,0,2024-11-18,2024-11-18,苫小牧ＴＪＤソーラー合同会社,,合同会社,東京都,千代田区,永田町２丁目１７番５号,,13,101,1000014,,,,,,,2024-11-18,1,,,,,トマコマイティージェイディーソーラー,0
31,1010005039131,新規,0,2024-11-18,2024-11-18,ＧＭ赤塚一般社団法人,,その他の設立登記法人,東京都,千代田区,丸の内１丁目４番１号東京共同会計事務所内,,13,101,1000005,,,,,,,2024-11-18,1,,,,,ジーエムアカツカ,0
33,1010401186312,新規,0,2024-11-18,2024-11-18,Ｎｉｏｖａ株式会社,,株式会社,東京都,港区,南青山４丁目１３番１１号,,13,103,1070062,,,,,,,2024-11-18,1,,,,,ナイオバ,0
44,1010503007639,新規,0,2024-11-18,2024-11-18,翠二合同会社,,合同会社,東京都,台東区,小島１丁目１番２号,,13,106,1110056,,,,,,,2024-11-18,1,,,,,スイニ,0
46,1010601066289,新規,0,2024-11-18,2024-11-18,株式会社ＪＭＳ,,株式会社,東京都,江東区,東陽２丁目２－１４－２１２,,13,108,1350016,,,,,,,2024-11-18,1,,,,,ジェイエムエス,0
47,1010603011219,新規,0,2024-11-18,2024-11-18,合同会社零,,合同会社,東京都,墨田区,江東橋２丁目６番９号ＨＢ錦糸町ビル５階,,13,107,1300022,,,,,,,2024-11-18,1,,,,,レイ,0
54,1010901056320,新規,0,2024-11-18,2024-11-18,株式会社ラプリモ,,株式会社,東京都,世田谷区,深沢５丁目１番２１号,,13,112,1580081,,,,,,,2024-11-18,1,,,,,ラプリモ,0
55,1010901056337,新規,0,2024-11-18,2024-11-18,株式会社Ｌｉｌｙ,,株式会社,東京都,世田谷区,北烏山３丁目１６番１３号－１０,,13,112,1570061,,,,,,,2024-11-18,1,,,,,リリー,0
57,1010903009499,新規,0,2024-11-18,2024-11-18,Ｏｌｉｒｉｓｅ合同会社,,合同会社,東京都,世田谷区,太子堂４丁目１８－１５マガザン三軒茶屋２・３Ｆ－３,,13,112,1540004,,,,,,,2024-11-18,1,,,,,オリライズ,0
61,1011001165805,新規,0,2024-11-18,2024-11-18,株式会社リンクアンドイー,,株式会社,東京都,渋谷区,道玄坂１丁目１０番８号渋谷道玄坂東急ビル２Ｆ－Ｃ,,13,113,1500043,,,,,,,2024-11-18,1,,,,,リンクアンドイー,0
62,1011001165961,新規,0,2024-11-18,2024-11-18,株式会社あやめや,,株式会社,東京都,渋谷区,笹塚１丁目５７番１０号笹塚駅前ビル２階,,13,113,1510073,,,,,,,2024-11-18,1,,,,,アヤメヤ,0
64,1011003020388,新規,0,2024-11-18,2024-11-18,合同会社フクダ経営法務サービス,,合同会社,東京都,渋谷区,恵比寿西２丁目８番４号ＥＸ恵比寿西ビル５階,,13,113,1500021,,,,,,,2024-11-18,1,,,,,フクダケイエイホウムサービス,0
71,1011103015180,新規,0,2024-11-18,2024-11-18,合同会社ＡｑｕａＦｉｅｌｄ,,合同会社,東京都,新宿区,新宿３丁目１２番４号新宿Ｎタウンプラザ３０９号,,13,104,1600022,,,,,,,2024-11-18,1,,,,,アクアフィールド,0
76,1011403004560,新規,0,2024-11-18,2024-11-18,Ａｎ　Ｐｈａｔ合同会社,,合同会社,東京都,板橋区,赤塚３丁目１６番１－４０７号,,13,119,1750092,,,,,,,2024-11-18,1,,,,,アンファト,0
80,1011601028171,新規,0,2024-11-18,2024-11-18,ＧＴＳ株式会社,,株式会社,東京都,練馬区,下石神井１丁目４番１１号,,13,120,1770042,,,,,,,2024-11-18,1,,,,,ジーティーエス,0
84,1012401042486,新規,0,2024-11-18,2024-11-18,株式会社だんだん,,株式会社,東京都,武蔵野市,緑町１丁目７番３８号榎本第二コーポラス１０６,,13,203,1800012,,,,,,,2024-11-18,1,,,,,ダンダン,0
86,1012403006844,新規,0,2024-11-18,2024-11-18,合同会社アプリ侍１２３,,合同会社,東京都,多摩市,鶴牧３丁目４番地Ｄ’グラフォート多摩センターガーデンサンクタム３０７,,13,224,2060034,,,,,,,2024-11-18,1,,,,,アプリサムライワンツースリー,0
87,1012701018566,新規,0,2024-11-18,2024-11-18,株式会社サンライズ・アールエフ,,株式会社,東京都,東村山市,栄町３丁目１７番地６,,13,213,1890013,,,,,,,2024-11-18,1,,,,,サンライズアールエフ,0
90,1012801023549,新規,0,2024-11-18,2024-11-18,ジンダウェイ科学技術株式会社,,株式会社,東京都,国立市,西１丁目１３番地２６,,13,215,1860005,,,,,,,2024-11-18,1,,,,,ジンダウェイカガクギジュツ,0
106,1020001160105,新規,0,2024-11-18,2024-11-18,和城株式会社,,株式会社,神奈川県,横浜市南区,伏見町１１－５－１０１号室,,14,105,2320001,,,,,,,2024-11-18,1,,,,,ワセイ,0
118,1020003027244,新規,0,2024-11-18,2024-11-18,Ｗ・Ｇパートナーズ合同会社,,合同会社,神奈川県,川崎市幸区,戸手本町２丁目４１１番地１ブリリアイースクエア３０９,,14,132,2120023,,,,,,,2024-11-18,1,,,,,ダブリュージーパートナーズ,0
119,1020003027252,新規,0,2024-11-18,2024-11-18,マイエステート合同会社,,合同会社,神奈川県,川崎市川崎区,小田６丁目７番３号,,14,131,2100846,,,,,,,2024-11-18,1,,,,,マイエステート,0
123,1021001083799,新規,0,2024-11-18,2024-11-18,株式会社環境防災イノベーション,,株式会社,神奈川県,藤沢市,遠藤４４８９－１０５慶應藤沢イノベーションビレッジＳＦＩＣ０２－ＳО８,,14,205,2520816,,,,,,,2024-11-18,1,,,,,カンキョウボウサイイノベーション,0
130,1030001163511,新規,0,2024-11-18,2024-11-18,ジュエリー貿易株式会社,,株式会社,埼玉県,川越市,大字南田島９２３番地３（ライオンズマンション川越南古谷第３－１１４号室）,,11,201,3500027,,,,,,,2024-11-18,1,,,,,ジュエリーボウエキ,0
131,1030001163552,新規,0,2024-11-18,2024-11-18,恵３株式会社,,株式会社,埼玉県,三郷市,彦成１丁目３５７－２,,11,237,3410003,,,,,,,2024-11-18,1,,,,,メグミ,0
135,1030003025511,新規,0,2024-11-18,2024-11-18,Ｍｏｎｕｍｅｎｔ合同会社,,合同会社,埼玉県,桶川市,大字加納１２２番地の２１,,11,231,3630001,,,,,,,2024-11-18,1,,,,,モニュメント,0
153,1050001055707,新規,0,2024-11-18,2024-11-18,御縁株式会社,,株式会社,茨城県,龍ケ崎市,馴馬町２９７１－２,,08,208,3010004,,,,,,,2024-11-18,1,,,,,ゴエン,0
159,1080003003330,新規,0,2024-11-18,2024-11-18,合同会社Ａｒｃ,,合同会社,静岡県,静岡市駿河区,登呂４丁目２６番５号,,22,102,4228033,,,,,,,2024-11-18,1,,,,,アーク,0
168,1100001037996,新規,0,2024-11-18,2024-11-18,西軽井沢物産株式会社,,株式会社,長野県,北佐久郡御代田町,大字馬瀬口２０９０番地,,20,323,3890207,,,,,,,2024-11-18,1,,,,,ニシカルイザワブッサン,0
170,1100003007865,新規,0,2024-11-18,2024-11-18,合同会社ＨＡＮＡ,,合同会社,長野県,長野市,南高田２丁目１－１７,,20,201,3810033,,,,,,,2024-11-18,1,,,,,ハナ,0
174,1110003005579,新規,0,2024-11-18,2024-11-18,合同会社ＵＳＶｉｓｉｏｎ,,合同会社,新潟県,新潟市北区,松浜３丁目４番地２,,15,101,9503126,,,,,,,2024-11-18,1,,,,,アスビジョン,0
179,1120003027993,新規,0,2024-11-18,2024-11-18,合同会社近川建装,,合同会社,大阪府,大阪市北区,梅田１丁目１－３大阪駅前第３ビル２９階１－１－１号室,,27,127,5300001,,,,,,,2024-11-18,1,,,,,チカガワケンソウ,0
185,1122001038659,新規,0,2024-11-18,2024-11-18,株式会社ハウジングパートナーズ,,株式会社,大阪府,東大阪市,稲葉１丁目５番６号,,27,227,5780925,,,,,,,2024-11-18,1,,,,,ハウジングパートナーズ,0
191,1130003010016,新規,0,2024-11-18,2024-11-18,合同会社京都インダストリー,,合同会社,京都府,京都市下京区,高倉通六条下る升屋町７１番地,,26,106,6008195,,,,,,,2024-11-18,1,,,,,キョウトインダストリー,0
197,1150003003422,新規,0,2024-11-18,2024-11-18,Ｌｉｒａ合同会社,,合同会社,奈良県,生駒郡平群町,大字信貴山２３０３番地の６,,29,342,6360923,,,,,,,2024-11-18,1,,,,,リラ,0
218,1200001043134,新規,0,2024-11-18,2024-11-18,株式会社Ｌｉｇａｔｉｖｅ,,株式会社,岐阜県,揖斐郡池田町,六之井１８８０番地の２４,,21,404,5032425,,,,,,,2024-11-18,1,,,,,リガティブ,0
219,1200001043142,新規,0,2024-11-18,2024-11-18,株式会社おおくま商店,,株式会社,岐阜県,岐阜市,伊吹町２丁目９番地,,21,201,5008077,,,,,,,2024-11-18,1,,,,,オオクマショウテン,0
226,1240001064110,新規,0,2024-11-18,2024-11-18,株式会社クローバー,,株式会社,広島県,広島市西区,都町３３番５号,,34,104,7330023,,,,,,,2024-11-18,1,,,,,クローバー,0
236,1290001107954,新規,0,2024-11-18,2024-11-18,株式会社ｋｏｍｏｒｅｂｉ,,株式会社,福岡県,春日市,春日原南町４丁目１３番地１０コンツェルト１０２号,,40,218,8160803,,,,,,,2024-11-18,1,,,,,コモレビ,0
237,1290001107995,新規,0,2024-11-18,2024-11-18,株式会社ＤＡＹＳＴＡＲ,,株式会社,福岡県,福岡市東区,箱崎２丁目１４番３３－３０２号,,40,131,8120053,,,,,,,2024-11-18,1,,,,,デイスター,0
244,1290801031049,新規,0,2024-11-18,2024-11-18,株式会社Ｃｏｎｎｅｃｔ　Ｐｌａｃｅ,,株式会社,福岡県,北九州市若松区,塩屋２丁目２－１４,,40,103,8080131,,,,,,,2024-11-18,1,,,,,コネクトプレイス,0
246,1300001013977,新規,0,2024-11-18,2024-11-18,株式会社はなあかり,,株式会社,佐賀県,神埼市,神埼町本告牟田１２５６番地１,,41,210,8420013,,,,,,,2024-11-18,1,,,,,ハナアカリ,0
247,1310003004899,新規,0,2024-11-18,2024-11-18,合同会社Ｃｌｅａｎ‐ｕｐプラス,,合同会社,長崎県,佐世保市,棚方町１９８番地３,,42,202,8580907,,,,,,,2024-11-18,1,,,,,クリーンアッププラス,0
250,1330001032652,新規,0,2024-11-18,2024-11-18,真建設株式会社,,株式会社,熊本県,熊本市南区,幸田２丁目１０番１１号,,43,104,8614108,,,,,,,2024-11-18,1,,,,,マコトケンセツ,0
252,1330003010623,新規,0,2024-11-18,2024-11-18,合同会社ＣＮＶコーポレーション,,合同会社,熊本県,熊本市中央区,内坪井町３番８号プレステージュ坪井２０５号,,43,101,8600077,,,,,,,2024-11-18,1,,,,,シーエヌブイコーポレーション,0
259,1360003014464,新規,0,2024-11-18,2024-11-18,Ｍ＆Ｏビジネスサポート合同会社,,合同会社,沖縄県,南城市,大里字稲嶺１５４８－８,,47,215,9011204,,,,,,,2024-11-18,1,,,,,エムアンドオービジネスサポート,0
262,1370005010857,新規,0,2024-11-18,2024-11-18,特定非営利活動法人はぎ福祉共生会,,その他の設立登記法人,宮城県,仙台市宮城野区,原町２丁目４番２９号,,04,102,9830841,,,,,,,2024-11-18,1,,,,,ハギフクシキョウセイカイ,0
280,1700150127892,新規,0,2024-11-18,2024-11-18,ＳＡＴＨＳＡＲＡＮＩ　ＬＯＧＩＳＴＩＣＳ,,外国会社等,茨城県,常総市,崎房４０８,,08,211,3002747,スリランカ民主社会主義共和国パナドゥラワラナワラナロードＮｏ１／５,,,,,,2024-11-18,1,,,,,サトサラニロジステイツクス,0
317,2010003045428,新規,0,2024-11-18,2024-11-18,Ｚｅｎｉｔｈ　ＭＬ合同会社,,合同会社,東京都,千代田区,霞が関３丁目２番５号,,13,101,1000013,,,,,,,2024-11-18,1,,,,,ゼニスエムエル,0
318,2010003045485,新規,0,2024-11-18,2024-11-18,合同会社ＪＡＭ,,合同会社,東京都,中央区,銀座１丁目１５番７号ＭＡＣ銀座ビル３階,,13,102,1040061,,,,,,,2024-11-18,1,,,,,ジェイエーエム,0
319,2010005039130,新規,0,2024-11-18,2024-11-18,一般社団法人ｒｅｎｇａプロ第３号,,その他の設立登記法人,東京都,千代田区,丸の内１丁目４番１号東京共同会計事務所内,,13,101,1000005,,,,,,,2024-11-18,1,,,,,レンガプロダイサンゴウ,0
323,2010401186492,新規,0,2024-11-18,2024-11-18,ＭｏｎｏＬｕ株式会社,,株式会社,東京都,港区,北青山１丁目３番１号アールキューブ青山３階,,13,103,1070061,,,,,,,2024-11-18,1,,,,,モノル,0
330,2010403033791,新規,0,2024-11-18,2024-11-18,合同会社ＨｉＪｏＪｏ　Ｆｕｎｄ４３,,合同会社,東京都,港区,西新橋１丁目７番２号,,13,103,1050003,,,,,,,2024-11-18,1,,,,,ヒジョージョーファンドヨンジュウサン,0
340,2010601066255,新規,0,2024-11-18,2024-11-18,太和株式会社,,株式会社,東京都,墨田区,両国２丁目１７－１７両国ダイヤハイツ２０２－Ｄ,,13,107,1300026,,,,,,,2024-11-18,1,,,,,タイワ,0
341,2010601066288,新規,0,2024-11-18,2024-11-18,株式会社オフィス花村,,株式会社,東京都,墨田区,京島２丁目１６番１６号,,13,107,1310046,,,,,,,2024-11-18,1,,,,,オフィスハナムラ,0
342,2010701046826,新規,0,2024-11-18,2024-11-18,株式会社グランスクエア,,株式会社,東京都,品川区,東五反田２丁目１０番１－１１１７号,,13,109,1410022,,,,,,,2024-11-18,1,,,,,グランスクエア,0
344,2010705003699,新規,0,2024-11-18,2024-11-18,一般社団法人調査研究機構,,その他の設立登記法人,東京都,品川区,西五反田８丁目１番１０号ヒキタカ五反田ビル６階,,13,109,1410031,,,,,,,2024-11-18,1,,,,,チョウサケンキュウキコウ,0
345,2010901056336,新規,0,2024-11-18,2024-11-18,株式会社Ｄｒｅａｍ　Ｄｏｏｒ,,株式会社,東京都,世田谷区,経堂１丁目２１番１６号キリン堂ビル３階,,13,112,1560052,,,,,,,2024-11-18,1,,,,,ドリームドア,0
347,2010903009507,新規,0,2024-11-18,2024-11-18,合同会社ライジング,,合同会社,東京都,世田谷区,桜丘２丁目２６番１５号,,13,112,1560054,,,,,,,2024-11-18,1,,,,,ライジング,0
348,2011001165804,新規,0,2024-11-18,2024-11-18,株式会社レベル９,,株式会社,東京都,渋谷区,渋谷３丁目５－１６渋谷３丁目スクエアビル２Ｆ,,13,113,1500002,,,,,,,2024-11-18,1,,,,,レベルナイン,0
349,2011001165820,新規,0,2024-11-18,2024-11-18,ＬＩＦＥ　ＨＡＣＫ株式会社,,株式会社,東京都,渋谷区,広尾１丁目８－５グランシャルム広尾２０５号,,13,113,1500012,,,,,,,2024-11-18,1,,,,,ライフハック,0
350,2011001165952,新規,0,2024-11-18,2024-11-18,株式会社シナリオコンシェルジュ,,株式会社,東京都,渋谷区,神宮前６丁目２３番４号桑野ビル２階,,13,113,1500001,,,,,,,2024-11-18,1,,,,,シナリオコンシェルジュ,0
351,2011001166034,新規,0,2024-11-18,2024-11-18,株式会社ＲＥＹＭ,,株式会社,東京都,渋谷区,道玄坂１丁目１６－６二葉ビル８Ｂ,,13,113,1500043,,,,,,,2024-11-18,1,,,,,レイム,0
352,2011003020387,新規,0,2024-11-18,2024-11-18,合同会社Ｍｉｒｒａｉｚｅ,,合同会社,東京都,渋谷区,神宮前４丁目２４－１神宮前ＣＯＵＲＴＡ１ＦＢ区画,,13,113,1500001,,,,,,,2024-11-18,1,,,,,ミライズ,0
357,2011101109578,新規,0,2024-11-18,2024-11-18,ＬｉｆｅＢｒｉｄｇｅ　Ｗｏｒｋｓ株式会社,,株式会社,東京都,新宿区,西新宿３丁目３番１３号西新宿水間ビル２Ｆ,,13,104,1600023,,,,,,,2024-11-18,1,,,,,ライフブリッジワークス,0
366,2012401042485,新規,0,2024-11-18,2024-11-18,株式会社Ｖｉｓｕｅｌｌ,,株式会社,東京都,調布市,上石原１丁目２７番地３２－２Ｆ－Ａ,,13,208,1820035,,,,,,,2024-11-18,1,,,,,ヴィジュエレ,0
371,2012801023572,新規,0,2024-11-18,2024-11-18,株式会社ＡＣＥ,,株式会社,東京都,東大和市,奈良橋１丁目２８６番地の１石川ハイツＡ－２０１,,13,220,2070031,,,,,,,2024-11-18,1,,,,,エース,0
372,2012801023580,新規,0,2024-11-18,2024-11-18,東京インターナショナルメディア株式会社,,株式会社,東京都,国立市,北３丁目３５番の１－１－５１４,,13,215,1860001,,,,,,,2024-11-18,1,,,,,トウキョウインターナショナルメディア,0
388,2020001160095,新規,0,2024-11-18,2024-11-18,株式会社Ｒ＆Ｙ,,株式会社,神奈川県,横浜市港北区,菊名７丁目１９－１４－２,,14,109,2220011,,,,,,,2024-11-18,1,,,,,アールアンドワイ,0
389,2020001160104,新規,0,2024-11-18,2024-11-18,株式会社イグニス,,株式会社,神奈川県,横浜市緑区,長津田町３０１６番地１南長津田団地１２号棟１２２１号,,14,113,2260026,,,,,,,2024-11-18,1,,,,,イグニス,0
390,2020001160252,新規,0,2024-11-18,2024-11-18,株式会社エクサーモ,,株式会社,神奈川県,川崎市宮前区,平６丁目１２－４－２０６,,14,136,2160022,,,,,,,2024-11-18,1,,,,,エクサーモ,0
396,2020003027243,新規,0,2024-11-18,2024-11-18,ネビュラ・ホームズ合同会社,,合同会社,神奈川県,横浜市戸塚区,平戸２丁目３４番２２号,,14,110,2440802,,,,,,,2024-11-18,1,,,,,ネビュラホームズ,0
405,2021001083765,新規,0,2024-11-18,2024-11-18,湘南コーポレーション株式会社,,株式会社,神奈川県,藤沢市,鵠沼石上１丁目１２番９号,,14,205,2510025,,,,,,,2024-11-18,1,,,,,ショウナンコーポレーション,0
412,2021003015246,新規,0,2024-11-18,2024-11-18,合同会社優香,,合同会社,神奈川県,海老名市,柏ケ谷３丁目９番３２号三枝コーポＩ－１０５号,00137050,14,215,2430402,,,,,,,2024-11-18,1,,,,,,0
421,2030001163469,新規,0,2024-11-18,2024-11-18,百川物産株式会社,,株式会社,埼玉県,蕨市,塚越２丁目１４番１２号,,11,223,3350002,,,,,,,2024-11-18,1,,,,,ヒャクガワブッサン,0
433,2030003025493,新規,0,2024-11-18,2024-11-18,三和工業合同会社,,合同会社,埼玉県,川口市,芝西１丁目２９番２４号ＭａｒｋＤｕｏ芝西２０２号,,11,203,3330855,,,,,,,2024-11-18,1,,,,,ミワコウギョウ,0
434,2030003025519,新規,0,2024-11-18,2024-11-18,合同会社美凜,,合同会社,埼玉県,富士見市,針ケ谷２丁目１９番地１０センチュリーアネックス４０４,,11,235,3540017,,,,,,,2024-11-18,1,,,,,ビリン,0
435,2030005021937,新規,0,2024-11-18,2024-11-18,医療法人社団仁優輝,,その他の設立登記法人,埼玉県,朝霞市,本町１丁目１２番５号ファーストステージ１階,,11,227,3510011,,,,,,,2024-11-18,1,,,,,ジンユウキ,0
438,2040001136060,新規,0,2024-11-18,2024-11-18,ツジウチホールディングス株式会社,,株式会社,千葉県,千葉市美浜区,磯辺７丁目３０番５号,,12,106,2610012,,,,,,,2024-11-18,1,,,,,ツジウチホールディングス,0
439,2040001136218,新規,0,2024-11-18,2024-11-18,株式会社ＴＯＮＥＰＬＡＣＥ,,株式会社,千葉県,松戸市,横須賀２丁目１４－９,,12,207,2700031,,,,,,,2024-11-18,1,,,,,トーンプレイス,0
446,2050003008810,新規,0,2024-11-18,2024-11-18,Ｈａｉｓｈｉｎ　Ｓｔｕｄｉｏ合同会社,,合同会社,茨城県,水戸市,泉町２丁目２－３３水戸泉町ビル７階,,08,201,3100026,,,,,,,2024-11-18,1,,,,,ハイシンスタジオ,0
457,2080401027574,新規,0,2024-11-18,2024-11-18,株式会社中建,,株式会社,静岡県,周智郡森町,薄場１６３番地の１,,22,461,4370217,,,,,,,2024-11-18,1,,,,,ナカケン,0
463,2110001038836,新規,0,2024-11-18,2024-11-18,株式会社精和工業,,株式会社,新潟県,燕市,小高１９９４番地,,15,213,9591241,,,,,,,2024-11-18,1,,,,,,0
464,2110001038844,新規,0,2024-11-18,2024-11-18,株式会社Ｋ．ａｎｌｉｎｏａ,,株式会社,新潟県,燕市,白山町１丁目７番１７号,,15,213,9591251,,,,,,,2024-11-18,1,,,,,ケーアンリノア,0
466,2110003005578,新規,0,2024-11-18,2024-11-18,ＲＯＭＩＳＥＡ合同会社,,合同会社,新潟県,見附市,本所２丁目１番８１‐１号,,15,211,9540051,,,,,,,2024-11-18,1,,,,,ロミシー,0
475,2120001270330,新規,0,2024-11-18,2024-11-18,瑞凰貿易株式会社,,株式会社,大阪府,大阪市都島区,善源寺町１丁目５－５１スターリービル５階,,27,102,5340015,,,,,,,2024-11-18,1,,,,,ズイオウボウエキ,0
476,2120001270363,新規,0,2024-11-18,2024-11-18,株式会社ＨＯＰＥ,,株式会社,大阪府,枚方市,黄金野１丁目１３番４号,,27,210,5731145,,,,,,,2024-11-18,1,,,,,ホープ,0
479,2120003027984,新規,0,2024-11-18,2024-11-18,合同会社７ｈａｂｉｔｓ,,合同会社,大阪府,大阪市城東区,古市３丁目２０－１９－２００１,,27,118,5360001,,,,,,,2024-11-18,1,,,,,セブンハビッツ,0
484,2122001038658,新規,0,2024-11-18,2024-11-18,株式会社ＳＥＩＴＥＮ,,株式会社,大阪府,大東市,深野北１丁目８番４号,,27,218,5740071,,,,,,,2024-11-18,1,,,,,セイテン,0
494,2150001027678,新規,0,2024-11-18,2024-11-18,株式会社大和学園,,株式会社,奈良県,大和高田市,大字市場７２０番地５,,29,202,6350074,,,,,,,2024-11-18,1,,,,,ヤマトガクエン,0
496,2160001026365,新規,0,2024-11-18,2024-11-18,野々断熱・板金工業株式会社,,株式会社,滋賀県,草津市,上笠４丁目１４番９号,,25,206,5250028,,,,,,,2024-11-18,1,,,,,ノノダンネツバンキンコウギョウ,0
510,2180001164064,新規,0,2024-11-18,2024-11-18,株式会社ユープランニング,,株式会社,愛知県,名古屋市昭和区,高峯町１４３番地の８,,23,107,4660811,,,,,,,2024-11-18,1,,,,,ユープランニング,0
511,2180001164213,新規,0,2024-11-18,2024-11-18,株式会社傲森,,株式会社,愛知県,名古屋市南区,要町２丁目２３番地の５,,23,112,4570802,,,,,,,2024-11-18,1,,,,,ゴウスン,0
512,2180001164221,新規,0,2024-11-18,2024-11-18,株式会社Ｈｉｋｏ,,株式会社,愛知県,名古屋市北区,楠１丁目１５０４番地の６,,23,103,4620012,,,,,,,2024-11-18,1,,,,,ヒコ,0
524,2200001043141,新規,0,2024-11-18,2024-11-18,株式会社ワンモアサイクル,,株式会社,岐阜県,岐阜市,雪見町１丁目１６番地２,,21,201,5008136,,,,,,,2024-11-18,1,,,,,ワンモアサイクル,0
530,2220001026334,新規,0,2024-11-18,2024-11-18,株式会社谷本電機,,株式会社,石川県,加賀市,柴山町よ５５番地２,,17,206,9220402,,,,,,,2024-11-18,1,,,,,タニモトデンキ,0
535,2240001064134,新規,0,2024-11-18,2024-11-18,株式会社グッドフォルム,,株式会社,広島県,広島市中区,幟町１３番４号,,34,101,7300016,,,,,,,2024-11-18,1,,,,,グッドフォルム,0
551,2290001107978,新規,0,2024-11-18,2024-11-18,Ｈｏｔ　Ｓｔｒｅａｋ株式会社,,株式会社,福岡県,福岡市南区,長住５丁目１１番２６－７０６号,,40,134,8111362,,,,,,,2024-11-18,1,,,,,ホットストリーク,0
553,2290005019559,新規,0,2024-11-18,2024-11-18,社会保険労務士法人きたはら社労士事務所,,その他の設立登記法人,福岡県,福岡市東区,香椎照葉３丁目２番１－２１１号,,40,131,8130017,,,,,,,2024-11-18,1,,,,,キタハラシャロウシジムショ,0
554,2300001013976,新規,0,2024-11-18,2024-11-18,株式会社ＰＲＯＺＩＴ,,株式会社,佐賀県,武雄市,武雄町大字武雄３８５番地２,,41,206,8430022,,,,,,,2024-11-18,1,,,,,プロージット,0
555,2300005007215,新規,0,2024-11-18,2024-11-18,医療法人フルライフパートナーズ,,その他の設立登記法人,佐賀県,佐賀市,駅前中央２丁目７番１９号,,41,201,8400801,,,,,,,2024-11-18,1,,,,,フルライフパートナーズ,0
563,2360003014463,新規,0,2024-11-18,2024-11-18,合同会社ココカラボ,,合同会社,沖縄県,豊見城市,字豊崎１－１８－１Ｆ,,47,212,9010225,,,,,,,2024-11-18,1,,,,,ココカラボ,0
567,2370005010856,新規,0,2024-11-18,2024-11-18,一般社団法人みこと,,その他の設立登記法人,宮城県,多賀城市,八幡２丁目１７番２５号三塚ビル３階,,04,209,9850874,,,,,,,2024-11-18,1,,,,,ミコト,0
586,2480001012655,新規,0,2024-11-18,2024-11-18,株式会社ＮＵＲＩ屋,,株式会社,徳島県,板野郡藍住町,東中富字朏傍示２８番地１２,,36,403,7711220,,,,,,,2024-11-18,1,,,,,ヌリヤ,0
590,2700150127891,新規,0,2024-11-18,2024-11-18,ｓｈｅｎｚｈｅｎｙｕａｎｄａｏｋｅｊｉｙｏｕｘｉａｎｇｏｎｇｓｉ,,外国会社等,,,,,,,,ｓｈｅｎｚｈｅｎｓｈｉｎａｎｓｈａｎｑｕｎａｎｔｏｕｊｉｅｄａｏｓｈｅｎｎａｎｄａｄａｏｈａｉａｎｓｈｉｄａｉｄｏｎｇＢ　ｓｈｅｎｚｈｅｎ　ｎａｎｓｈａｎｑｕ　ｇｕａｎｇｄｏｎｇｓｈｅｎｇ,,,,,,2024-11-18,1,,,,,シンセンエントウカギユウゲンコウシ,0
617,3010003045427,新規,0,2024-11-18,2024-11-18,Ｚｅｎｉｔｈ合同会社,,合同会社,東京都,千代田区,霞が関３丁目２番５号,,13,101,1000013,,,,,,,2024-11-18,1,,,,,ゼニス,0
618,3010003045451,新規,0,2024-11-18,2024-11-18,合同会社Ｌｉｂｅｒｒａ,,合同会社,東京都,中央区,日本橋茅場町２丁目８番１号,,13,102,1030025,,,,,,,2024-11-18,1,,,,,リベラ,0
619,3010003045484,新規,0,2024-11-18,2024-11-18,合同会社サーニーゴカードプロ,,合同会社,東京都,中央区,銀座１丁目１２番４号Ｎ＆ＥＢＬＤ．７階,,13,102,1040061,,,,,,,2024-11-18,1,,,,,サーニーゴカードプロ,0
622,3010005039088,新規,0,2024-11-18,2024-11-18,特定非営利活動法人京葉社会福祉協会,,その他の設立登記法人,東京都,中央区,日本橋本町４丁目１２番１６号中尾ビル,,13,102,1030023,,,,,,,2024-11-18,1,,,,,ケイヨウシャカイフクシキョウカイ,0
629,3010401186500,新規,0,2024-11-18,2024-11-18,株式会社ＭｅｅｎＡ,,株式会社,東京都,港区,北青山１丁目３番１号アールキューブ青山３階,,13,103,1070061,,,,,,,2024-11-18,1,,,,,ミーナ,0
630,3010401186509,新規,0,2024-11-18,2024-11-18,株式会社クラウド,,株式会社,東京都,港区,南青山７丁目１－２１常盤松ハウス６０４,,13,103,1070062,,,,,,,2024-11-18,1,,,,,クラウド,0
639,3010403033790,新規,0,2024-11-18,2024-11-18,合同会社ＨｉＪｏＪｏ　Ｆｕｎｄ４２,,合同会社,東京都,港区,西新橋１丁目７番２号,,13,103,1050003,,,,,,,2024-11-18,1,,,,,ヒジョージョーファンドヨンジュウニ,0
645,3010701046825,新規,0,2024-11-18,2024-11-18,Ａ２Ｂ株式会社,,株式会社,東京都,品川区,東五反田３丁目３－３－２０２,,13,109,1410022,,,,,,,2024-11-18,1,,,,,エーツービー,0
652,3010901056343,新規,0,2024-11-18,2024-11-18,株式会社リバーフィールド,,株式会社,東京都,世田谷区,祖師谷４丁目２６番１３号,,13,112,1570072,,,,,,,2024-11-18,1,,,,,リバーフィールド,0
653,3010903009489,新規,0,2024-11-18,2024-11-18,さくしん会計合同会社,,合同会社,東京都,世田谷区,弦巻５丁目３６番７号,,13,112,1540016,,,,,,,2024-11-18,1,,,,,サクシンカイケイ,0
654,3010903009497,新規,0,2024-11-18,2024-11-18,合同会社ＳＧＯ,,合同会社,東京都,世田谷区,宮坂３丁目１４番１号ドルチェ経堂１０５,,13,112,1560051,,,,,,,2024-11-18,1,,,,,エスジーオー,0
655,3010903009506,新規,0,2024-11-18,2024-11-18,アンプ・トウキョウ合同会社,,合同会社,東京都,世田谷区,上馬５丁目１２番１３号Ｄ,,13,112,1540011,,,,,,,2024-11-18,1,,,,,アンプトウキョウ,0
660,3011001165233,新規,0,2024-11-18,2024-11-18,ポラリスマネジメント株式会社,,株式会社,東京都,渋谷区,渋谷３丁目６番２号,,13,113,1500002,,,,,,,2024-11-18,1,,,,,ポラリスマネジメント,0
663,3011003020444,新規,0,2024-11-18,2024-11-18,合同会社林倩,00137038,合同会社,東京都,渋谷区,富ヶ谷２丁目２－２８,,13,113,1510063,,,,,,,2024-11-18,1,,,,,リンセイ,0
672,3011303005343,新規,0,2024-11-18,2024-11-18,合同会社フレイズ,,合同会社,東京都,杉並区,高円寺北２丁目３４－６千代田マンション高円寺北１０３,,13,115,1660002,,,,,,,2024-11-18,1,,,,,,0
675,3011403004559,新規,0,2024-11-18,2024-11-18,合同会社ＦｉｌＭａｒｋｅｔｉｎｇ,,合同会社,東京都,板橋区,南町１４番１－６０４号,,13,119,1730027,,,,,,,2024-11-18,1,,,,,フィルマーケティング,0
677,3011601028211,新規,0,2024-11-18,2024-11-18,株式会社ＧＬＡＮ橋本,,株式会社,東京都,練馬区,東大泉２丁目６番９号サンライズマンション３０１,,13,120,1780063,,,,,,,2024-11-18,1,,,,,グランハシモト,0
700,3020003027242,新規,0,2024-11-18,2024-11-18,合同会社クラフトグループ,,合同会社,神奈川県,横浜市西区,北幸１丁目１１番１号水信ビル７階,,14,103,2200004,,,,,,,2024-11-18,1,,,,,クラフトグループ,0
701,3020005016598,新規,0,2024-11-18,2024-11-18,一般社団法人万里一空,,その他の設立登記法人,神奈川県,川崎市川崎区,砂子２丁目６番１９号林ビル８階,,14,131,2100006,,,,,,,2024-11-18,1,,,,,バンリイックウ,0
705,3021001083797,新規,0,2024-11-18,2024-11-18,株式会社クルーズマニア,,株式会社,神奈川県,茅ヶ崎市,松浪１丁目５番３２号,,14,207,2530022,,,,,,,2024-11-18,1,,,,,クルーズマニア,0
708,3021003015245,新規,0,2024-11-18,2024-11-18,合同会社絶好調,,合同会社,神奈川県,海老名市,国分南４丁目５番２３－１０１号,,14,215,2430405,,,,,,,2024-11-18,1,,,,,ゼッコウチョウ,0
718,3030001163484,新規,0,2024-11-18,2024-11-18,株式会社ブラン,,株式会社,埼玉県,春日部市,備後西３丁目５番４０号,,11,214,3440033,,,,,,,2024-11-18,1,,,,,ブラン,0
719,3030001163492,新規,0,2024-11-18,2024-11-18,Ｘ　Ｆａｃｔｏｒ株式会社,,株式会社,埼玉県,越谷市,相模町６丁目４４３番地,,11,222,3430823,,,,,,,2024-11-18,1,,,,,クロスファクター,0
720,3030001163518,新規,0,2024-11-18,2024-11-18,株式会社やしきんち,,株式会社,埼玉県,上尾市,大字平塚１８８４番地,,11,219,3620011,,,,,,,2024-11-18,1,,,,,ヤシキンチ,0
721,3030001163526,新規,0,2024-11-18,2024-11-18,株式会社大森ＳＤ２,,株式会社,埼玉県,越谷市,大字西方２７６１番地,,11,222,3430822,,,,,,,2024-11-18,1,,,,,オオモリエスディーツー,0
729,3040001136200,新規,0,2024-11-18,2024-11-18,株式会社ＧａｌｉｌｅｏＣｏｍｐａｎｙ,,株式会社,千葉県,千葉市中央区,中央１丁目８－７,,12,101,2600013,,,,,,,2024-11-18,1,,,,,ガリレオカンパニー,0
734,3050001055754,新規,0,2024-11-18,2024-11-18,パープルホールディングス株式会社,,株式会社,茨城県,龍ケ崎市,直鮒７４５８番地,,08,208,3010815,,,,,,,2024-11-18,1,,,,,パープルホールディングス,0
738,3060001037660,新規,0,2024-11-18,2024-11-18,株式会社Ｋ・リノベーション,,株式会社,栃木県,栃木市,平井町１１０１－１－１,,09,203,3280054,,,,,,,2024-11-18,1,,,,,ケーリノベーション,0
752,3080403005148,新規,0,2024-11-18,2024-11-18,ＢＥＳＴ　ＥＭＢＬＡＣＥ合同会社,,合同会社,静岡県,磐田市,大久保２１３番地２,,22,211,4380002,,,,,,,2024-11-18,1,,,,,ベストエンブレイス,0
759,3100001038027,新規,0,2024-11-18,2024-11-18,ＳＨＡＬＩＭＡＲ株式会社,,株式会社,長野県,北佐久郡軽井沢町,大字長倉３４６０番地６,,20,321,3890111,,,,,,,2024-11-18,1,,,,,シャリマー,0
761,3110001038843,新規,0,2024-11-18,2024-11-18,株式会社マルケン,,株式会社,新潟県,新潟市北区,葛塚３３３５番地,,15,101,9503321,,,,,,,2024-11-18,1,,,,,マルケン,0
771,3120001270370,新規,0,2024-11-18,2024-11-18,株式会社安永エステート,,株式会社,大阪府,大阪市中央区,南本町１丁目５番１号,,27,128,5410054,,,,,,,2024-11-18,1,,,,,ヤスナガエステート,0
772,3120001270404,新規,0,2024-11-18,2024-11-18,株式会社瑞成,,株式会社,大阪府,大阪市北区,中之島６丁目１番３８－３５１８号,,27,127,5300005,,,,,,,2024-11-18,1,,,,,ズイセイ,0
776,3120003027967,新規,0,2024-11-18,2024-11-18,合同会社梅吉,,合同会社,大阪府,大阪市西区,江戸堀３丁目１番７号ＪＰビル３階,,27,106,5500002,,,,,,,2024-11-18,1,,,,,ウメキチ,0
777,3120003027983,新規,0,2024-11-18,2024-11-18,ＣＨＵＣＨＵ合同会社,,合同会社,大阪府,大阪市城東区,今福東３丁目１７番１３－６１２号,,27,118,5360002,,,,,,,2024-11-18,1,,,,,チュチュ,0
782,3120101070588,新規,0,2024-11-18,2024-11-18,海の風インターナショナル株式会社,,株式会社,大阪府,阪南市,自然田２７３番地の１３,,27,232,5990212,,,,,,,2024-11-18,1,,,,,ウミノカゼインターナショナル,0
787,3130001078301,新規,0,2024-11-18,2024-11-18,株式会社ファインコンサルティング,,株式会社,京都府,京都市伏見区,久我森の宮町２番地２８３,,26,109,6128495,,,,,,,2024-11-18,1,,,,,ファインコンサルティング,0
789,3130003009997,新規,0,2024-11-18,2024-11-18,合同会社ｃｏｃｏ,,合同会社,京都府,福知山市,字土師小字南町１７７６番地２１６,,26,201,6200857,,,,,,,2024-11-18,1,,,,,ココ,0
790,3130003010014,新規,0,2024-11-18,2024-11-18,合同会社ＤｏｇＦｉｇｈｔｅｒｓ,,合同会社,京都府,京都市伏見区,納所町７１番地２７白喜久荘８号室,,26,109,6128275,,,,,,,2024-11-18,1,,,,,ドッグファイターズ,0
796,3140001136396,新規,0,2024-11-18,2024-11-18,Ｅｃｌｅｎｄｅｕｒ株式会社,,株式会社,兵庫県,芦屋市,楠町１５番１４－４０７号,,28,206,6590015,,,,,,,2024-11-18,1,,,,,エクランドゥール,0
797,3140001136470,新規,0,2024-11-18,2024-11-18,三洋株式会社,,株式会社,兵庫県,神戸市長田区,本庄町７丁目５番１６号,,28,106,6530053,,,,,,,2024-11-18,1,,,,,サンヨウ,0
821,3180001164063,新規,0,2024-11-18,2024-11-18,株式会社ティープランニング,,株式会社,愛知県,名古屋市瑞穂区,白羽根町２丁目６３番地,,23,108,4670014,,,,,,,2024-11-18,1,,,,,ティープランニング,0
822,3180001164146,新規,0,2024-11-18,2024-11-18,株式会社ＨＩＧＡＳＨＩ,,株式会社,愛知県,名古屋市守山区,八反７番９号（ユーハウス第６守山３０１号）,,23,113,4630063,,,,,,,2024-11-18,1,,,,,ヒガシ,0
823,3180001164220,新規,0,2024-11-18,2024-11-18,ゆーかりここ株式会社,,株式会社,愛知県,名古屋市中川区,東春田２丁目７３番地,,23,110,4540983,,,,,,,2024-11-18,1,,,,,ユーカリココ,0
824,3180001164237,新規,0,2024-11-18,2024-11-18,株式会社ＡＢ　ＳＰＯＲＴＳ　ＪＡＰＡＮ,,株式会社,愛知県,名古屋市北区,成願寺１丁目６番Ａ－１７０４号,,23,103,4620021,,,,,,,2024-11-18,1,,,,,エービースポーツジャパン,0
836,3200003006582,新規,0,2024-11-18,2024-11-18,アマロ技術経営パートナーズ合同会社,,合同会社,岐阜県,揖斐郡池田町,六之井４００番地の２,,21,404,5032425,,,,,,,2024-11-18,1,,,,,アマロギジュツケイエイパートナーズ,0
837,3200005013684,新規,0,2024-11-18,2024-11-18,社会保険労務士法人ＡＳＡＤＡＹＡ　ＣＲＥＡＴＥ,,その他の設立登記法人,岐阜県,岐阜市,長森本町１丁目１０番１－１０号,,21,201,5008228,,,,,,,2024-11-18,1,,,,,アサダヤクリエイト,0
843,3240003006942,新規,0,2024-11-18,2024-11-18,合同会社山本商店,,合同会社,広島県,広島市南区,宇品西４丁目１番６６号,,34,103,7340014,,,,,,,2024-11-18,1,,,,,ヤマモトショウテン,0
848,3250003003591,新規,0,2024-11-18,2024-11-18,合同会社結葵,,合同会社,山口県,防府市,自由ケ丘４丁目３－１９,,35,206,7470066,,,,,,,2024-11-18,1,,,,,ユイキ,0
859,3290001107952,新規,0,2024-11-18,2024-11-18,ＪＨＪ株式会社,,株式会社,福岡県,福岡市西区,石丸１丁目２８番４号,,40,135,8190025,,,,,,,2024-11-18,1,,,,,ジェイエイチジェイ,0
866,3290801031047,新規,0,2024-11-18,2024-11-18,株式会社ＨＯＫＵＴＯ,,株式会社,福岡県,北九州市戸畑区,銀座２丁目４番２８－１号,,40,105,8040076,,,,,,,2024-11-18,1,,,,,ホクト,0
877,3330001032659,新規,0,2024-11-18,2024-11-18,株式会社春日総合開発,,株式会社,熊本県,熊本市中央区,中央街４－１０,,43,101,8600802,,,,,,,2024-11-18,1,,,,,カスガソウゴウカイハツ,0
904,3430005015113,新規,0,2024-11-18,2024-11-18,一般社団法人ＧｒｏｗｉｎｇＧｌｏｗ,,その他の設立登記法人,北海道,札幌市豊平区,美園十二条７丁目７－８,,01,105,0620012,,,,,,,2024-11-18,1,,,,,グロウインググロー,0
912,3700150127890,新規,0,2024-11-18,2024-11-18,ｓｈｅｎｚｈｅｎｓｈｉｙｉｅｒｍａｎｍａｏｙｉｙｏｕｘｉａｎｇｏｎｇｓｉ,,外国会社等,,,,,,,,ｓｈｅｎｚｈｅｎｓｈｉｌｏｎｇｇａｎｇｑｕｂａｎｔｉａｎｊｉｅｄａｏｙａｎｇｍｅｉｓｈｅｑｕ　ｙａｎｇｍｅｉｌｕ７ｈａｏ３０３　ｓｈｅｎｚｈｅｎｓｈｉ　ｇｕａｎｇｄｏｎｇｓｈｅｎｇ,,,,,,2024-11-18,1,,,,,シンセンシイジマンボウエキユウゲンコウシ,0
919,4010001249879,新規,0,2024-11-18,2024-11-18,株式会社ｓｔｏｒｅｌｉｎｋ,,株式会社,東京都,千代田区,六番町１５番２号,,13,101,1020085,,,,,,,2024-11-18,1,,,,,ストアリンク,0
920,4010001249994,新規,0,2024-11-18,2024-11-18,株式会社Ｌ＆Ｇ,,株式会社,東京都,文京区,本駒込６丁目１５番１１－２０２号,,13,105,1130021,,,,,,,2024-11-18,1,,,,,エルアンドジー,0
949,4010003045426,新規,0,2024-11-18,2024-11-18,合同会社すまいーと１,,合同会社,東京都,中央区,京橋２丁目１２番６号ＡＯＪ税理士法人内,,13,102,1040031,,,,,,,2024-11-18,1,,,,,スマイートワン,0
950,4010005039104,新規,0,2024-11-18,2024-11-18,一般社団法人日本バイオプラスチック協会,,その他の設立登記法人,東京都,中央区,日本橋箱崎町５番１１号ユニバーサルビル６階,,13,102,1030015,,,,,,,2024-11-18,1,,,,,ニホンバイオプラスチックキョウカイ,0
951,4010101016403,新規,0,2024-11-18,2024-11-18,Ｒ＆Ｄ株式会社,,株式会社,東京都,八王子市,小宮町１１７０番地１マンションさつき野２０２,,13,201,1920031,,,,,,,2024-11-18,1,,,,,アールアンドディー,0
959,4010401186433,新規,0,2024-11-18,2024-11-18,Ｄｅｍｅｒｚｅｌ株式会社,,株式会社,東京都,港区,西麻布五丁目１６番５－３０２号,,13,103,1050000,,,,,,,2024-11-18,1,,,,,デメルゼル,0
960,4010401186508,新規,0,2024-11-18,2024-11-18,株式会社Ｌｅｋｋｅｒｓ,,株式会社,東京都,港区,元麻布３丁目１２番３号麻布聖徳ビル２階,,13,103,1060046,,,,,,,2024-11-18,1,,,,,レッカーズ,0
975,4010901056318,新規,0,2024-11-18,2024-11-18,株式会社Ｙｏｍｏｇｉｎ,,株式会社,東京都,世田谷区,上馬２丁目２６－６チサンマンション三軒茶屋第二１２０３号,,13,112,1540011,,,,,,,2024-11-18,1,,,,,ヨモギン,0
984,4011001165711,新規,0,2024-11-18,2024-11-18,株式会社自游自在,,株式会社,東京都,渋谷区,道玄坂１丁目１６－６二葉ビル８ｂ,,13,113,1500043,,,,,,,2024-11-18,1,,,,,ジユウジザイ,0
985,4011001165827,新規,0,2024-11-18,2024-11-18,オリバー株式会社,,株式会社,東京都,目黒区,上目黒３丁目１７番２２－６０４号中目黒コーポラス,,13,110,1530051,,,,,,,2024-11-18,1,,,,,オリバー,0
986,4011001166008,新規,0,2024-11-18,2024-11-18,ロサリオ株式会社,,株式会社,東京都,渋谷区,代々木５丁目２３番１６号,,13,113,1510053,,,,,,,2024-11-18,1,,,,,ロサリオ,0
987,4011003020360,新規,0,2024-11-18,2024-11-18,合同会社アラタメ,,合同会社,東京都,渋谷区,道玄坂１丁目１０番８号渋谷道玄坂東急ビル２Ｆ－Ｃ,,13,113,1500043,,,,,,,2024-11-18,1,,,,,アタラメ,0
988,4011003020410,新規,0,2024-11-18,2024-11-18,ノマドマーク合同会社,,合同会社,東京都,渋谷区,恵比寿西２丁目４番８号ウィンド恵比寿ビル８Ｆ,,13,113,1500021,,,,,,,2024-11-18,1,,,,,ノマドマーク,0
989,4011003020427,新規,0,2024-11-18,2024-11-18,合同会社ＮＫ,,合同会社,東京都,渋谷区,神宮前１丁目５番８号,,13,113,1500001,,,,,,,2024-11-18,1,,,,,エヌケー,0
994,4011305003014,新規,0,2024-11-18,2024-11-18,一般社団法人歯科医療支援機構,,その他の設立登記法人,東京都,杉並区,荻窪１丁目１番１６号,,13,115,1670051,,,,,,,2024-11-18,1,,,,,シカイリョウシエンキコウ,0
996,4011601028202,新規,0,2024-11-18,2024-11-18,星辰株式会社,,株式会社,東京都,練馬区,桜台１丁目７番７－４０８号,,13,120,1760002,,,,,,,2024-11-18,1,,,,,セイシン,0
997,4011601028210,新規,0,2024-11-18,2024-11-18,株式会社オンガ,,株式会社,東京都,練馬区,平和台２丁目１９番８－１０１号,,13,120,1790083,,,,,,,2024-11-18,1,,,,,オンガ,0
1011,4012801023546,新規,0,2024-11-18,2024-11-18,ＪＥＩＯ　ＴＥＣＨ　Ｊａｐａｎ株式会社,,株式会社,東京都,日野市,南平２丁目７０番地の６０ルミナス南平２０１号室,,13,212,1910041,,,,,,,2024-11-18,1,,,,,ジェイオテックジャパン,0
1012,4012801023579,新規,0,2024-11-18,2024-11-18,ＮＲ　Ｐｒｏｊｅｃｔ株式会社,,株式会社,東京都,国分寺市,本町４丁目１３番１２号コンフォートＩ９０２,00137044,13,214,1850012,,,,,,,2024-11-18,1,,,,,エヌアールプロジェクト,0
1014,4013101009566,新規,0,2024-11-18,2024-11-18,株式会社３１０６,,株式会社,東京都,西多摩郡瑞穂町,大字駒形富士山２４５番地１４,,13,303,1901202,,,,,,,2024-11-18,1,,,,,サンイチゼロロク,0
1035,4020001160102,新規,0,2024-11-18,2024-11-18,株式会社ベルポム,,株式会社,神奈川県,横浜市神奈川区,栗田谷１５番１０号,,14,102,2210804,,,,,,,2024-11-18,1,,,,,ベルボム,0
1043,4021001083796,新規,0,2024-11-18,2024-11-18,株式会社ｋｏｋｉ,,株式会社,神奈川県,平塚市,虹ケ浜１０番３号,,14,203,2540823,,,,,,,2024-11-18,1,,,,,コーキ,0
1047,4030001163450,新規,0,2024-11-18,2024-11-18,株式会社Ｔロジ,,株式会社,埼玉県,川越市,大字下赤坂２９３番地１,,11,201,3501155,,,,,,,2024-11-18,1,,,,,ティーロジ,0
1049,4030003025509,新規,0,2024-11-18,2024-11-18,合同会社ソーシャルクラフト,,合同会社,埼玉県,比企郡鳩山町,大字赤沼２０１２番地,,11,348,3500321,,,,,,,2024-11-18,1,,,,,ソーシャルクラフト,0
1050,4030005021943,新規,0,2024-11-18,2024-11-18,農事組合法人フォース,,その他の設立登記法人,埼玉県,東松山市,大字松山２３０９番地３,,11,212,3550005,,,,,,,2024-11-18,1,,,,,フォース,0
1054,4040001136199,新規,0,2024-11-18,2024-11-18,株式会社Ｃｅｌｌｅｎｃｅ,,株式会社,千葉県,千葉市美浜区,中瀬１丁目３番地,,12,106,2610023,,,,,,,2024-11-18,1,,,,,セレンス,0
1061,4050001055712,新規,0,2024-11-18,2024-11-18,株式会社ＫＡＭＩＤＡ,,株式会社,茨城県,古河市,山田２２９番地１,,08,204,3060114,,,,,,,2024-11-18,1,,,,,カミダ,0
1064,4060003005334,新規,0,2024-11-18,2024-11-18,ユズミント合同会社,,合同会社,栃木県,佐野市,石塚町２２１８番地,,09,204,3270103,,,,,,,2024-11-18,1,,,,,ユズミント,0
1074,4100001038042,新規,0,2024-11-18,2024-11-18,株式会社ＲＥｉｎＣＡＲＮＡＴＩＯＮ,,株式会社,長野県,南佐久郡佐久穂町,大字高野町１９－５,,20,309,3840613,,,,,,,2024-11-18,1,,,,,リインカーネーション,0
1083,4110001038842,新規,0,2024-11-18,2024-11-18,プラスバリュー株式会社,,株式会社,新潟県,新潟市西区,寺地２０２５番地２,,15,107,9501104,,,,,,,2024-11-18,1,,,,,プラスバリュー,0
1084,4110001038850,新規,0,2024-11-18,2024-11-18,株式会社ディービー,,株式会社,新潟県,長岡市,東坂之上町３丁目２番地３２,,15,202,9400066,,,,,,,2024-11-18,1,,,,,ディービー,0
1085,4110003005576,新規,0,2024-11-18,2024-11-18,ＹＡＨＩＫＯ　Ａｖｅｎｉｒ合同会社,,合同会社,新潟県,西蒲原郡弥彦村,大字弥彦２４８７－１,,15,342,9590323,,,,,,,2024-11-18,1,,,,,ヤヒコアベニール,0
1089,4120001270345,新規,0,2024-11-18,2024-11-18,株式会社添翼,,株式会社,大阪府,大阪市淀川区,西中島６丁目２番３号,,27,123,5320011,,,,,,,2024-11-18,1,,,,,テンヨク,0
1090,4120001270361,新規,0,2024-11-18,2024-11-18,株式会社ｂｒｕｓｈｗｏｏｄ,,株式会社,大阪府,大阪市中央区,備後町３丁目６－２大雅ビル１０Ｆ,,27,128,5410051,,,,,,,2024-11-18,1,,,,,ブラッシュウッド,0
1101,4120101070587,新規,0,2024-11-18,2024-11-18,七星国際旅運株式会社,,株式会社,大阪府,泉佐野市,市場西２丁目７－５,,27,213,5980006,,,,,,,2024-11-18,1,,,,,セブンスターコクサイトラベル,0
1102,4120105009929,新規,0,2024-11-18,2024-11-18,一般社団法人どうぶつはモノじゃない,,その他の設立登記法人,大阪府,松原市,天美我堂６丁目５９番地の３,,27,217,5800026,,,,,,,2024-11-18,1,,,,,ドウブツハモノジャナイ,0
1104,4120901049863,新規,0,2024-11-18,2024-11-18,株式会社ＨＩＬ,,株式会社,大阪府,豊中市,上野東３丁目９番１５号,,27,203,5600013,,,,,,,2024-11-18,1,,,,,エイチアイエル,0
1105,4120901050045,新規,0,2024-11-18,2024-11-18,株式会社エスポワール,,株式会社,大阪府,茨木市,双葉町５番２－６０１号,,27,211,5670829,,,,,,,2024-11-18,1,,,,,エスポワール,0
1106,4120903005419,新規,0,2024-11-18,2024-11-18,合同会社ＳｗｅｅｔＩｔｅｍ,,合同会社,大阪府,吹田市,垂水町３丁目３番１０号ルクレール垂水３０１,,27,205,5640062,,,,,,,2024-11-18,1,,,,,スイートアイテム,0
1108,4122001038656,新規,0,2024-11-18,2024-11-18,株式会社ラッドライフ,,株式会社,大阪府,東大阪市,長堂３丁目２６番６号杉浦ビル２階,,27,227,5770056,,,,,,,2024-11-18,1,,,,,ラッドライフ,0
1115,4130003010013,新規,0,2024-11-18,2024-11-18,Ｒｅｓｔａｒｔ合同会社,,合同会社,京都府,京都市伏見区,竹田中内畑町２番地,,26,109,6128446,,,,,,,2024-11-18,1,,,,,リスタート,0
1140,4180001164087,新規,0,2024-11-18,2024-11-18,中島企画株式会社,,株式会社,愛知県,瀬戸市,刎田町５０番地の１５,,23,204,4890034,,,,,,,2024-11-18,1,,,,,ナカシマキカク,0
1150,4200001043123,新規,0,2024-11-18,2024-11-18,ＳＩＬＡ．ＴＲＡＤＩＮＧ株式会社,,株式会社,岐阜県,海津市,平田町脇野３５８番地１,,21,221,5030323,,,,,,,2024-11-18,1,,,,,シラトレイディング,0
1161,4250001020893,新規,0,2024-11-18,2024-11-18,株式会社興製,,株式会社,山口県,周南市,日地町７番７号,,35,215,7460035,,,,,,,2024-11-18,1,,,,,コウセイ,0
1171,4290001107828,新規,0,2024-11-18,2024-11-18,株式会社不動ヶ浦キャピタル,,株式会社,福岡県,福岡市東区,松島４丁目４番３７号,,40,131,8130062,,,,,,,2024-11-18,1,,,,,フドウガウラキャピタル,0
1180,4320005010198,新規,0,2024-11-18,2024-11-18,一般社団法人しろやまっ子の里,,その他の設立登記法人,大分県,佐伯市,中の島１丁目４番４５号,,44,205,8760843,,,,,,,2024-11-18,1,,,,,シロヤマッコノサト,0
1185,4340003004662,新規,0,2024-11-18,2024-11-18,合同会社Ｍ’ｓ　Ｆａｒｍｅｒ,,合同会社,鹿児島県,志布志市,有明町野神３６２７番地８,,46,221,8997512,,,,,,,2024-11-18,1,,,,,エムズファーマー,0
1191,4360001034445,新規,0,2024-11-18,2024-11-18,株式会社プライベートリゾート,,株式会社,沖縄県,国頭郡本部町,字瀬底４０７－１,,47,308,9050227,,,,,,,2024-11-18,1,,,,,プライベートリゾート,0
1193,4360003014461,新規,0,2024-11-18,2024-11-18,合同会社ＯＭ企画,,合同会社,沖縄県,那覇市,泉崎２丁目１０５番地１ライオンズプラザハーバービュー７０５,,47,201,9000021,,,,,,,2024-11-18,1,,,,,オーエムキカク,0
1197,4380001034922,新規,0,2024-11-18,2024-11-18,株式会社ラ・レーヌ,,株式会社,福島県,いわき市,平沼ノ内字諏訪原一丁目１７番地の４,,07,204,9700222,,,,,,,2024-11-18,1,,,,,ラレーヌ,0
1210,4430005015112,新規,0,2024-11-18,2024-11-18,一般社団法人小桜猫ゆうばり,,その他の設立登記法人,北海道,夕張市,沼ノ沢８２６番地３,,01,209,0680751,,,,,,,2024-11-18,1,,,,,コザクラネコユウバリ,0
1236,5010001249960,新規,0,2024-11-18,2024-11-18,ムガスタイルホールディングス株式会社,,株式会社,東京都,中央区,日本橋浜町３丁目２４番９号タイシップビル６階,,13,102,1030007,,,,,,,2024-11-18,1,,,,,ムガスタイルホールディングス,0
1263,5010003045516,新規,0,2024-11-18,2024-11-18,Ｐａｃｉｆｉｃａ　Ｌｉｍｉｔｅｄ合同会社,,合同会社,東京都,中央区,新川１丁目２７番８号新川大原ビル８階,,13,102,1040033,,,,,,,2024-11-18,1,,,,,パシフィカリミテッド,0
1266,5010101016402,新規,0,2024-11-18,2024-11-18,Ｓｏｌｅｉｌ株式会社,,株式会社,東京都,八王子市,左入町４２３番地,,13,201,1920012,,,,,,,2024-11-18,1,,,,,ソレイユ,0
1271,5010401186399,新規,0,2024-11-18,2024-11-18,株式会社料理カンパニー,,株式会社,東京都,港区,麻布台２丁目３－２０,,13,103,1060041,,,,,,,2024-11-18,1,,,,,リョウリカンパニー,0
1272,5010401186408,新規,0,2024-11-18,2024-11-18,ＡＩＣＵ　Ｊａｐａｎ株式会社,,株式会社,東京都,港区,芝浦３丁目３番６号東京科学大学キャンパス・イノベーションセンターＩＮＤＥＳＴ,,13,103,1080023,,,,,,,2024-11-18,1,,,,,アイキュージャパン,0
1273,5010401186424,新規,0,2024-11-18,2024-11-18,株式会社ネクサスプランニング,,株式会社,東京都,港区,北青山２丁目１２番８号,,13,103,1070061,,,,,,,2024-11-18,1,,,,,ネクサスプランニング,0
1274,5010401186481,新規,0,2024-11-18,2024-11-18,株式会社ＴＲＯＮ　ＪＡＰＡＮ,,株式会社,東京都,港区,西麻布３丁目１７番１１号,,13,103,1060031,,,,,,,2024-11-18,1,,,,,トロンジャパン,0
1275,5010401186507,新規,0,2024-11-18,2024-11-18,株式会社１２３,,株式会社,東京都,港区,南麻布４丁目５番６３号,,13,103,1060047,,,,,,,2024-11-18,1,,,,,ヒフミ,0
1282,5010403033723,新規,0,2024-11-18,2024-11-18,理想チキ合同会社,,合同会社,東京都,港区,南青山５丁目４番１１号１１１号室,,13,103,1070062,,,,,,,2024-11-18,1,,,,,リソウチキ,0
1283,5010403033780,新規,0,2024-11-18,2024-11-18,合同会社パラレルコネクト,,合同会社,東京都,港区,南青山３丁目１番２６号青山丸竹ビル６Ｆ,,13,103,1070062,,,,,,,2024-11-18,1,,,,,パラレルコネクト,0
1284,5010403033789,新規,0,2024-11-18,2024-11-18,合同会社ＨｉＪｏＪｏ　Ｆｕｎｄ４１,,合同会社,東京都,港区,西新橋１丁目７番２号,,13,103,1050003,,,,,,,2024-11-18,1,,,,,ヒジョージョーファンドヨンジュウイチ,0
1288,5010501053193,新規,0,2024-11-18,2024-11-18,ペット・ライフ株式会社,,株式会社,東京都,台東区,池之端１丁目１番４号,,13,106,1100008,,,,,,,2024-11-18,1,,,,,ペットライフ,0
1293,5010701046831,新規,0,2024-11-18,2024-11-18,株式会社Ｌ．Ｉ．Ｐ．Ｐ．Ｓ,,株式会社,東京都,品川区,西五反田３丁目４番１０号目黒ＭＡＲＣレジデンスタワー２３０４,,13,109,1410031,,,,,,,2024-11-18,1,,,,,リップス,0
1309,5011001165826,新規,0,2024-11-18,2024-11-18,株式会社ＳＨＥＶＡ,,株式会社,東京都,渋谷区,円山町５－１８道玄坂スクエア７０５,,13,113,1500044,,,,,,,2024-11-18,1,,,,,シーバ,0
1310,5011001165842,新規,0,2024-11-18,2024-11-18,株式会社心羽時間,,株式会社,東京都,渋谷区,道玄坂１丁目１２－１渋谷マークシティＷ２２Ｆ,,13,113,1500043,,,,,,,2024-11-18,1,,,,,コハネジカン,0
1311,5011001165909,新規,0,2024-11-18,2024-11-18,株式会社ＥＮＦＯＵＲ,,株式会社,東京都,渋谷区,神宮前６丁目２３番４号桑野ビル２階,,13,113,1500001,,,,,,,2024-11-18,1,,,,,エンフォー,0
1312,5011001166007,新規,0,2024-11-18,2024-11-18,株式会社ワイズ・ハウジング,,株式会社,東京都,渋谷区,渋谷１丁目１１番３号正栄ビル３階,,13,113,1500002,,,,,,,2024-11-18,1,,,,,ワイズハウジング,0
1313,5011001166031,新規,0,2024-11-18,2024-11-18,開脳株式会社,,株式会社,東京都,渋谷区,桜丘町１番２号渋谷サクラステージセントラルビル９階,,13,113,1500031,,,,,,,2024-11-18,1,,,,,カイノウ,0
1315,5011003020459,新規,0,2024-11-18,2024-11-18,合同会社みすまる,,合同会社,東京都,渋谷区,初台２丁目５番２号,,13,113,1510061,,,,,,,2024-11-18,1,,,,,ミスマル,0
1318,5011101109567,新規,0,2024-11-18,2024-11-18,株式会社イコイスタイル,,株式会社,東京都,新宿区,西新宿３丁目３番１３号西新宿水間ビル２Ｆ,,13,104,1600023,,,,,,,2024-11-18,1,,,,,イコイスタイル,0
1319,5011101109609,新規,0,2024-11-18,2024-11-18,ユトリ株式会社,,株式会社,東京都,新宿区,西新宿３丁目３番１３号,,13,104,1600023,,,,,,,2024-11-18,1,,,,,ユトリ,0
1320,5011103015185,新規,0,2024-11-18,2024-11-18,ＩＳＨＩＢＡ　ＪＡＰＡＮ合同会社,,合同会社,東京都,新宿区,新宿５丁目７番１４－４０８号,,13,104,1600022,,,,,,,2024-11-18,1,,,,,イシバジャパン,0
1322,5011301030168,新規,0,2024-11-18,2024-11-18,株式会社ＪＳ５,,株式会社,東京都,杉並区,浜田山１丁目１３－１０,,13,115,1680065,,,,,,,2024-11-18,1,,,,,ジェイエスファイブ,0
1330,5012401042474,新規,0,2024-11-18,2024-11-18,モーゼアート株式会社,,株式会社,東京都,武蔵野市,吉祥寺本町２丁目３３番２号吉祥寺プティット村３Ｆ,,13,203,1800004,,,,,,,2024-11-18,1,,,,,モーゼアート,0
1334,5012701018546,新規,0,2024-11-18,2024-11-18,株式会社ＮＹトランスポート,,株式会社,東京都,西東京市,住吉町４丁目４番２３号,,13,229,2020005,,,,,,,2024-11-18,1,,,,,エヌワイトランスポート,0
1352,5020001160092,新規,0,2024-11-18,2024-11-18,株式会社Ｓｕｎｋｉｓｓ,,株式会社,神奈川県,川崎市多摩区,菅野戸呂１１番３号,,14,135,2140002,,,,,,,2024-11-18,1,,,,,サンキス,0
1353,5020001160101,新規,0,2024-11-18,2024-11-18,株式会社Ｏｎｅ＆Ｏｎｌｙ,,株式会社,神奈川県,横浜市西区,中央１丁目２５－１０,,14,103,2200051,,,,,,,2024-11-18,1,,,,,ワンアンドオンリー,0
1363,5021001083795,新規,0,2024-11-18,2024-11-18,ＪＡＣＨＩ株式会社,,株式会社,神奈川県,相模原市中央区,相模原６丁目１１番１６号,,14,152,2520231,,,,,,,2024-11-18,1,,,,,ジャチ,0
1368,5021003015177,新規,0,2024-11-18,2024-11-18,合同会社ＭａｒｋｅｔＲｉｓｅ,,合同会社,神奈川県,海老名市,泉２丁目３－１セントガーデン海老名Ｉ街区１０２３号,00137049,14,215,2430437,,,,,,,2024-11-18,1,,,,,マーケットライズ,0
1369,5021003015235,新規,0,2024-11-18,2024-11-18,合同会社フラッグ,,合同会社,神奈川県,相模原市中央区,中央６丁目１３番１号,,14,152,2520239,,,,,,,2024-11-18,1,,,,,フラッグ,0
1376,5030001163400,新規,0,2024-11-18,2024-11-18,株式会社Ａｄｄ．Ｖａｌｕｅ,,株式会社,埼玉県,坂戸市,溝端町２番地３メイプルタウン新井１Ｆ,,11,239,3500274,,,,,,,2024-11-18,1,,,,,アッドヴァリュー,0
1377,5030001163466,新規,0,2024-11-18,2024-11-18,株式会社Ｋ．Ｃ,,株式会社,埼玉県,さいたま市大宮区,櫛引町１丁目８２３番地細谷ビル１階,,11,103,3300851,,,,,,,2024-11-18,1,,,,,ケーシー,0
1378,5030001163490,新規,0,2024-11-18,2024-11-18,株式会社ｓｅｒｐｅｎｔ,,株式会社,埼玉県,さいたま市緑区,原山２丁目２３番９号レオ浦和２０３号室,,11,109,3360931,,,,,,,2024-11-18,1,,,,,セルパン,0
1379,5030001163508,新規,0,2024-11-18,2024-11-18,安藤商事株式会社,,株式会社,埼玉県,川口市,並木２丁目１５番１５－３０１号,,11,203,3320034,,,,,,,2024-11-18,1,,,,,アントウショウジ,0
1380,5030001163516,新規,0,2024-11-18,2024-11-18,ハナエ株式会社,,株式会社,埼玉県,蕨市,南町２丁目１１番２０号コスモフェスタ蕨１１０号,,11,223,3350003,,,,,,,2024-11-18,1,,,,,ハナエ,0
1381,5030001163524,新規,0,2024-11-18,2024-11-18,株式会社Ｋ,,株式会社,埼玉県,さいたま市中央区,本町西３丁目１０番６号,,11,105,3380004,,,,,,,2024-11-18,1,,,,,ケー,0
1382,5030001163540,新規,0,2024-11-18,2024-11-18,株式会社ＫＯＫＵＳＵＩ　ＣＡＰＩＴＡＬ　ＷＯＲＫＳ,,株式会社,埼玉県,さいたま市桜区,田島１丁目４番３－２０１号,,11,106,3380837,,,,,,,2024-11-18,1,,,,,コクスイキャピタルワークス,0
1388,5030003025499,新規,0,2024-11-18,2024-11-18,合同会社ＭｏｂｉＳ　ＪＡＰＡＮ,,合同会社,埼玉県,坂戸市,伊豆の山町２１番地４７ＫＩＶオフィス伊豆の山１号棟Ｃ号室,,11,239,3500275,,,,,,,2024-11-18,1,,,,,モビスジャパン,0
1389,5030005021942,新規,0,2024-11-18,2024-11-18,農事組合法人ガリレオ,,その他の設立登記法人,埼玉県,東松山市,大字松山２３０９番地３,,11,212,3550005,,,,,,,2024-11-18,1,,,,,ガリレオ,0
1402,5040005022568,新規,0,2024-11-18,2024-11-18,一般社団法人柏市観光協会,,その他の設立登記法人,千葉県,柏市,中央１丁目２番１８号株式会社秋元印刷内,,12,217,2770023,,,,,,,2024-11-18,1,,,,,カシワシカンコウキョウカイ,0
1409,5060001037659,新規,0,2024-11-18,2024-11-18,中山電機株式会社,,株式会社,栃木県,栃木市,大平町北武井６１３番地２,,09,203,3294412,,,,,,,2024-11-18,1,,,,,ナカヤマデンキ,0
1412,5060003005333,新規,0,2024-11-18,2024-11-18,トトノウ合同会社,,合同会社,栃木県,矢板市,石関１２９９－３９,,09,211,3291576,,,,,,,2024-11-18,1,,,,,トトノウ,0
1421,5090001019010,新規,0,2024-11-18,2024-11-18,株式会社ルマサク,,株式会社,山梨県,甲府市,愛宕町２４９－１,,19,201,4000023,,,,,,,2024-11-18,1,,,,,ルマサク,0
1426,5100001038033,新規,0,2024-11-18,2024-11-18,株式会社丸山,,株式会社,長野県,上田市,中央６丁目１２番８号,,20,203,3860012,,,,,,,2024-11-18,1,,,,,マルヤマ,0
1428,5110001038841,新規,0,2024-11-18,2024-11-18,株式会社Ｎｏｈｉｍｅ,,株式会社,新潟県,長岡市,今朝白３丁目１２‐４,,15,202,9400033,,,,,,,2024-11-18,1,,,,,ノヒメ,0
1434,5120001270336,新規,0,2024-11-18,2024-11-18,ＳＡＴＳＵＫＩ株式会社,,株式会社,大阪府,大阪市生野区,鶴橋５丁目１９－４－１０１,,27,116,5440031,,,,,,,2024-11-18,1,,,,,サツキ,0
1435,5120001270344,新規,0,2024-11-18,2024-11-18,株式会社なかゆび,,株式会社,大阪府,大阪市平野区,長吉長原西１丁目３番１８号,,27,126,5470015,,,,,,,2024-11-18,1,,,,,ナカユビ,0
1436,5120001270360,新規,0,2024-11-18,2024-11-18,寧騰リサイクル資源株式会社,,株式会社,大阪府,大阪市西成区,玉出東１丁目１１番２３号,,27,122,5570043,,,,,,,2024-11-18,1,,,,,ネイトウリサイクルシゲン,0
1437,5120001270369,新規,0,2024-11-18,2024-11-18,株式会社シンクス,,株式会社,大阪府,大阪市西区,北堀江１丁目５番２号,,27,106,5500014,,,,,,,2024-11-18,1,,,,,シンクス,0
1443,5120003027981,新規,0,2024-11-18,2024-11-18,合同会社ＹＫＡ,,合同会社,大阪府,大阪市東住吉区,今川３丁目６－２４,,27,121,5460003,,,,,,,2024-11-18,1,,,,,ワイケーエー,0
1451,5120101070578,新規,0,2024-11-18,2024-11-18,株式会社こじま,,株式会社,大阪府,泉南郡岬町,多奈川小島５９７番地,,27,366,5990314,,,,,,,2024-11-18,1,,,,,コジマ,0
1463,5140003021330,新規,0,2024-11-18,2024-11-18,Ｉｚａｎａ　Ｍａｒｋｅｔｉｎｇ合同会社,,合同会社,兵庫県,南あわじ市,松帆古津路５９６番地,,28,224,6560304,,,,,,,2024-11-18,1,,,,,イザナマーケティング,0
1465,5160001026362,新規,0,2024-11-18,2024-11-18,株式会社ａｌａ,,株式会社,滋賀県,大津市,相模町４番５－Ａ１０２号,,25,201,5200816,,,,,,,2024-11-18,1,,,,,アーラ,0
1467,5170001018383,新規,0,2024-11-18,2024-11-18,株式会社日電,,株式会社,和歌山県,橋本市,さつき台２丁目１番地の１６,,30,203,6480075,,,,,,,2024-11-18,1,,,,,ニチデン,0
1479,5180001164202,新規,0,2024-11-18,2024-11-18,ジェイモーションズ株式会社,,株式会社,愛知県,名古屋市港区,入場２丁目５０８番地,,23,111,4550803,,,,,,,2024-11-18,1,,,,,ジェイモーションズ,0
1489,5240001064131,新規,0,2024-11-18,2024-11-18,くれだ鑑定株式会社,,株式会社,広島県,広島市安佐南区,祇園３丁目１４－３０Ｓｋｙｅ＋Ｎ４０４,,34,105,7310138,,,,,,,2024-11-18,1,,,,,クレダカンテイ,0
1504,5290001108040,新規,0,2024-11-18,2024-11-18,株式会社Ａｇｅｎｔ　Ｓｕｎ,,株式会社,福岡県,福岡市博多区,博多駅前１丁目２３番２号ＰａｒｋＦｒｏｎｔ博多駅前１丁目５Ｆ－Ｂ,,40,132,8120011,,,,,,,2024-11-18,1,,,,,エージェントサン,0
1513,5360001034444,新規,0,2024-11-18,2024-11-18,株式会社医,,株式会社,沖縄県,国頭郡宜野座村,字松田６１６番地の８サランマツダＩ・３０２号室,00137045,47,313,9041301,,,,,,,2024-11-18,1,,,,,オサム,0
1514,5360001034452,新規,0,2024-11-18,2024-11-18,Ｇｒｅｅｎ　Ｌｉｇｈｔ　Ｍａｎａｇｅｍｅｎｔ株式会社,,株式会社,沖縄県,那覇市,久茂地１丁目３番１８号,,47,201,9000015,,,,,,,2024-11-18,1,,,,,グリーンライトマネジメント,0
1521,5420001018928,新規,0,2024-11-18,2024-11-18,株式会社ＰＥＡＬ,,株式会社,青森県,八戸市,大字長苗代字上碇田４４番地１９,,02,203,0391103,,,,,,,2024-11-18,1,,,,,ピーレ,0
1527,5460101007629,新規,0,2024-11-18,2024-11-18,五日市国際貿易株式会社,,株式会社,北海道,帯広市,大通南２１丁目７番地,,01,207,0800010,,,,,,,2024-11-18,1,,,,,イツカイチコクサイボウエキ,0
1528,5470001020466,新規,0,2024-11-18,2024-11-18,株式会社オウシン,,株式会社,香川県,丸亀市,川西町北３９番地１２,,37,202,7630091,,,,,,,2024-11-18,1,,,,,,0
1530,5500001026006,新規,0,2024-11-18,2024-11-18,株式会社國中設備,,株式会社,愛媛県,伊予市,下三谷２７１１番地１,,38,210,7993105,,,,,,,2024-11-18,1,,,,,クニナカセツビ,0
1532,5700150127889,新規,0,2024-11-18,2024-11-18,Ａｎａｔａｎｏｆｕａｍｉｒｉｍｅｎｎｂａ,,外国会社等,,,,,,,,Ｒｏｏｍ　１２０４，Ｂｕｉｌｄｉｎｇ　６，Ｎｏ．４２８０　Ｓｏｕｔｈ　Ｒｉｎｇ　Ｒｏａｄ，Ｐｕｙａｎ　Ｓｔｒｅｅｔ，Ｂｉｎｊｉａｎｇ　Ｄｉｓｔｒｉｃｔ，Ｈａｎｇｚｈｏｕ　Ｃｉｔｙ，Ｚｈｅｊｉａｎｇ　Ｐｒｏｖｉｎｃｅ,,,,,,2024-11-18,1,,,,,コウシュウテイゲンボウショクヒンユウゲンコウシ,0
1537,6010001249679,新規,0,2024-11-18,2024-11-18,株式会社リックス,,株式会社,東京都,中央区,東日本橋２丁目２５番４号サンライズ升和ビル８階,,13,102,1030004,,,,,,,2024-11-18,1,,,,,リックス,0
1538,6010001250083,新規,0,2024-11-18,2024-11-18,コノバス株式会社,,株式会社,東京都,千代田区,平河町１丁目７－１６－４０２,,13,101,1020093,,,,,,,2024-11-18,1,,,,,コノバス,0
1568,6010003045234,新規,0,2024-11-18,2024-11-18,ＫＡＹＡＫ合同会社,,合同会社,東京都,中央区,築地７丁目１４番１４－１１０５号,,13,102,1040045,,,,,,,2024-11-18,1,,,,,カヤック,0
1569,6010005039102,新規,0,2024-11-18,2024-11-18,一般社団法人日本アフリカ開発機構,,その他の設立登記法人,東京都,中央区,日本橋茅場町１丁目２番１８号日本ビルディング別館９階,,13,102,1030025,,,,,,,2024-11-18,1,,,,,ニホンアフリカカイハツキコウ,0
1570,6010005039110,新規,0,2024-11-18,2024-11-18,一般社団法人日本ジュニア世界暗算協会,,その他の設立登記法人,東京都,千代田区,神田三崎町２丁目６番９号三栄ビル１階,,13,101,1010061,,,,,,,2024-11-18,1,,,,,ニホンジュニアセカイアンザンキョウカイ,0
1579,6010401186423,新規,0,2024-11-18,2024-11-18,株式会社ソウジョウデータ,,株式会社,東京都,港区,浜松町２丁目２番１５号,,13,103,1050013,,,,,,,2024-11-18,1,,,,,ソウジョウデータ,0
1580,6010401186472,新規,0,2024-11-18,2024-11-18,株式会社Ｓａｌａ‐Ｃｉｃａ,,株式会社,東京都,港区,北青山３丁目６－７青山パラシオタワー１１階,,13,103,1070061,,,,,,,2024-11-18,1,,,,,サーラチカ,0
1597,6010503007642,新規,0,2024-11-18,2024-11-18,宸軒合同会社,,合同会社,東京都,台東区,東上野１丁目１４番１４号一光ビル１階Ａ号室・２階,,13,106,1100015,,,,,,,2024-11-18,1,,,,,シンケン,0
1604,6010801035584,新規,0,2024-11-18,2024-11-18,株式会社まどあかり,,株式会社,東京都,大田区,上池台５丁目２６番２号,,13,111,1450064,,,,,,,2024-11-18,1,,,,,マドアカリ,0
1605,6010903009494,新規,0,2024-11-18,2024-11-18,合同会社よろず屋ＲＯＣＫ,,合同会社,東京都,世田谷区,太子堂４丁目１８－１５マガザン三軒茶屋２・３Ｆ－３,,13,112,1540004,,,,,,,2024-11-18,1,,,,,ヨロズヤロック,0
1606,6010903009503,新規,0,2024-11-18,2024-11-18,オフィス適材適所合同会社,,合同会社,東京都,世田谷区,太子堂４丁目６－６ＳＡＮＣＨＡＣＯ,,13,112,1540004,,,,,,,2024-11-18,1,,,,,オフィステキザイテキショ,0
1612,6011001165825,新規,0,2024-11-18,2024-11-18,株式会社誠信システム,,株式会社,東京都,目黒区,大岡山１丁目２６番１１号,,13,110,1520033,,,,,,,2024-11-18,1,,,,,セイシンシステム,0
1613,6011001165916,新規,0,2024-11-18,2024-11-18,株式会社フィールドパイン,,株式会社,東京都,渋谷区,笹塚１丁目５９－９－３０６,,13,113,1510073,,,,,,,2024-11-18,1,,,,,フィールドパイン,0
1614,6011003020391,新規,0,2024-11-18,2024-11-18,合同会社マルマル商会,,合同会社,東京都,渋谷区,神宮前２丁目１４番９号,,13,113,1500001,,,,,,,2024-11-18,1,,,,,マルマルショウカイ,0
1615,6011003020458,新規,0,2024-11-18,2024-11-18,ＫＥｉＹａ　Ｐａｒｔｎｅｒｓ合同会社,,合同会社,東京都,目黒区,三田２丁目１０番４５－４０４号三田パークマンション,,13,110,1530062,,,,,,,2024-11-18,1,,,,,ケイヤパートナーズ,0
1617,6011101109566,新規,0,2024-11-18,2024-11-18,Ｂｌｕｅｆｉｅｌｄ　Ｅｎｅｒｇｙ株式会社,,株式会社,東京都,新宿区,若葉１丁目１４－３２,,13,104,1600011,,,,,,,2024-11-18,1,,,,,ブルーフィールドエナジー,0
1619,6011203004533,新規,0,2024-11-18,2024-11-18,ｍｉｚｚｌｅ合同会社,,合同会社,東京都,中野区,中野５丁目６７番７号プラザ中野８０１,,13,114,1640001,,,,,,,2024-11-18,1,,,,,ミズル,0
1633,6012801023577,新規,0,2024-11-18,2024-11-18,株式会社どんどん,,株式会社,東京都,立川市,上砂町５丁目７９－７ウィスタリアマンション第三砂川１０３－Ａ,,13,202,1900032,,,,,,,2024-11-18,1,,,,,ドンドン,0
1637,6013301053387,新規,0,2024-11-18,2024-11-18,株式会社ＦＥＥＬ,,株式会社,東京都,豊島区,西池袋４丁目１９番１２号コート・アドヴァンス２０３,,13,116,1710021,,,,,,,2024-11-18,1,,,,,フィール,0
1639,6020001012433,新規,0,2024-11-18,2024-11-18,アイシーエス株式会社,,株式会社,神奈川県,横浜市中区,山手町２６８番地３,,14,104,2310862,,,,,,,2024-11-18,1,,,,,アイシーエス,0
1658,6020001160083,新規,0,2024-11-18,2024-11-18,株式会社Ｋｈｒｏｎｏｓ４Ｄ,,株式会社,神奈川県,横浜市港北区,新横浜２丁目１７番１９号ＡＲ新横浜ビル４Ｆ,,14,109,2220033,,,,,,,2024-11-18,1,,,,,クロノスフォーディー,0
1659,6020001160100,新規,0,2024-11-18,2024-11-18,Ｂｌｏｓｓｏｍ　Ｈｅａｌｔｈ＆Ｂｅａｕｔｙ株式会社,,株式会社,神奈川県,川崎市中原区,今井仲町１５番１－４０３号アドリーム武蔵小杉,,14,133,2110065,,,,,,,2024-11-18,1,,,,,ブロッサムヘルスアンドビューティー,0
1665,6020003027248,新規,0,2024-11-18,2024-11-18,合同会社ＴＴ,,合同会社,神奈川県,横浜市戸塚区,汲沢町１１－７,,14,110,2450062,,,,,,,2024-11-18,1,,,,,,0
1666,6020003027289,新規,0,2024-11-18,2024-11-18,合同会社トラストコンサルティング,,合同会社,神奈川県,横浜市神奈川区,神奈川本町１３番地１－２０４号,,14,102,2210046,,,,,,,2024-11-18,1,,,,,トラストコンサルティング,0
1671,6021001083786,新規,0,2024-11-18,2024-11-18,株式会社１３４,,株式会社,神奈川県,鎌倉市,七里ガ浜東２丁目２番２号,,14,204,2480025,,,,,,,2024-11-18,1,,,,,イチサンヨン,0
1672,6021001083794,新規,0,2024-11-18,2024-11-18,株式会社ＢＡＳＴＥＴ,,株式会社,神奈川県,伊勢原市,石田７５１番地の２ラ・パージュ桜１０５号,,14,214,2591116,,,,,,,2024-11-18,1,,,,,バステト,0
1677,6021003015242,新規,0,2024-11-18,2024-11-18,うみちか合同会社,,合同会社,神奈川県,中郡大磯町,大磯１２３１－１,,14,341,2550003,,,,,,,2024-11-18,1,,,,,ウミチカ,0
1682,6030001163507,新規,0,2024-11-18,2024-11-18,クアント・テクノロジーズ株式会社,,株式会社,埼玉県,戸田市,中町２丁目４番１４号,,11,224,3350012,,,,,,,2024-11-18,1,,,,,クアントテクノロジーズ,0
1683,6030001163515,新規,0,2024-11-18,2024-11-18,ＩＮＦＩＮＩＴＥ　ＣＲＥＡＴＥ株式会社,,株式会社,埼玉県,行田市,持田２丁目１８番３号,,11,206,3610056,,,,,,,2024-11-18,1,,,,,インフィニティクリエイト,0
1691,6030003025498,新規,0,2024-11-18,2024-11-18,合同会社小林,,合同会社,埼玉県,川口市,上青木２丁目４０番１７号,,11,203,3330844,,,,,,,2024-11-18,1,,,,,コバヤシ,0
1693,6030005021933,新規,0,2024-11-18,2024-11-18,農事組合法人Ｄファクター,,その他の設立登記法人,埼玉県,越谷市,千間台西２丁目４番地８ＴＭビル５０３号,,11,222,3430041,,,,,,,2024-11-18,1,,,,,ディーファクター,0
1694,6030005021941,新規,0,2024-11-18,2024-11-18,農事組合法人ＣＫ,,その他の設立登記法人,埼玉県,東松山市,大字松山２３０９番地３,,11,212,3550005,,,,,,,2024-11-18,1,,,,,シーケー,0
1698,6040001136197,新規,0,2024-11-18,2024-11-18,クリアファースト株式会社,,株式会社,千葉県,八街市,八街ほ９７０番地２４,,12,230,2891115,,,,,,,2024-11-18,1,,,,,クリアファースト,0
1699,6040001136206,新規,0,2024-11-18,2024-11-18,ＯＮＥ’ｚＴｒｕｓｔ株式会社,,株式会社,千葉県,船橋市,湊町１丁目８－２,,12,204,2730011,,,,,,,2024-11-18,1,,,,,ワンズトラスト,0
1703,6040003026215,新規,0,2024-11-18,2024-11-18,イーストフラワー合同会社,,合同会社,千葉県,千葉市美浜区,中瀬１丁目３番地幕張テクノガーデンＣＢ棟３階ＭＢＰ,,12,106,2610023,,,,,,,2024-11-18,1,,,,,イーストフラワー,0
1705,6050001055652,新規,0,2024-11-18,2024-11-18,環境美化リサイクル株式会社,,株式会社,茨城県,土浦市,下高津４丁目１９番１号,,08,203,3000812,,,,,,,2024-11-18,1,,,,,カンキョウビカリサイクル,0
1706,6050001055735,新規,0,2024-11-18,2024-11-18,株式会社Ａｍｕｌｅｔ,,株式会社,茨城県,鹿嶋市,大字津賀１４１９－５,,08,222,3112205,,,,,,,2024-11-18,1,,,,,アミュレット,0
1709,6060001037658,新規,0,2024-11-18,2024-11-18,ＳＤ　ＫＡＩＺＥＮ株式会社,,株式会社,栃木県,真岡市,八條８８１番地１,,09,209,3214303,,,,,,,2024-11-18,1,,,,,エスディーカイゼン,0
1715,6090001019001,新規,0,2024-11-18,2024-11-18,株式会社マヴィ,,株式会社,山梨県,北杜市,小淵沢町１００６０番地,,19,209,4080044,,,,,,,2024-11-18,1,,,,,マヴィ,0
1716,6090003002681,新規,0,2024-11-18,2024-11-18,合同会社田口管楽器工房,,合同会社,山梨県,甲府市,後屋町５５４番地１後藤店舗４号室,,19,201,4000045,,,,,,,2024-11-18,1,,,,,,0
1721,6110001038849,新規,0,2024-11-18,2024-11-18,株式会社タイヤハンター,,株式会社,新潟県,新潟市中央区,桜木町１番３号,,15,103,9500949,,,,,,,2024-11-18,1,,,,,タイヤハンター,0
1724,6120003027980,新規,0,2024-11-18,2024-11-18,合同会社フリーダム,,合同会社,大阪府,大阪市大正区,三軒家東５丁目１０番２－４０３号,,27,108,5510002,,,,,,,2024-11-18,1,,,,,フリーダム,0
1726,6120005024621,新規,0,2024-11-18,2024-11-18,日本産業労務協同組合,,その他の設立登記法人,大阪府,大阪市中央区,久太郎町２丁目５番１９号丸忠第三ビル７０３室,,27,128,5410056,,,,,,,2024-11-18,1,,,,,ニホンサンギョウロウドウ,0
1734,6120901050043,新規,0,2024-11-18,2024-11-18,株式会社一喜一牛,,株式会社,大阪府,豊中市,豊南町東３丁目６番２０号テラスハウスＫ,,27,203,5610814,,,,,,,2024-11-18,1,,,,,イッキイチギュウ,0
1736,6122001038654,新規,0,2024-11-18,2024-11-18,三和ホールディング株式会社,,株式会社,大阪府,東大阪市,本庄西２丁目１番１２号,,27,227,5780965,,,,,,,2024-11-18,1,,,,,サンワホールディング,0
1749,6150001027682,新規,0,2024-11-18,2024-11-18,やまよし株式会社,,株式会社,奈良県,奈良市,富雄元町２丁目３番１３号矢部ビル１０１,,29,201,6310078,,,,,,,2024-11-18,1,,,,,ヤマヨシ,0
1750,6150003003426,新規,0,2024-11-18,2024-11-18,合同会社ＴＭＯ,,合同会社,奈良県,大和郡山市,城町１６８１－３９,,29,203,6391051,,,,,,,2024-11-18,1,,,,,ティーエムオー,0
1757,6180001164184,新規,0,2024-11-18,2024-11-18,株式会社パシフィックダイニング,,株式会社,愛知県,名古屋市東区,泉１丁目２３番３７号,,23,102,4610001,,,,,,,2024-11-18,1,,,,,パシフィックダイニング,0
1771,6200003006588,新規,0,2024-11-18,2024-11-18,大姶良フューチャー合同会社,,合同会社,岐阜県,瑞穂市,十九条９４５番地１,,21,216,5010235,,,,,,,2024-11-18,1,,,,,オオアイラフューチャー,0
1782,6260003004974,新規,0,2024-11-18,2024-11-18,合同会社Ｙ’ｓ　Ｈｏｍｅ岡山,,合同会社,岡山県,岡山市中区,国府市場１０５２番地１０,,33,102,7038203,,,,,,,2024-11-18,1,,,,,ワイズホームオカヤマ,0
1800,6290801031052,新規,0,2024-11-18,2024-11-18,株式会社ＲＩＳＥ　ＵＰ,,株式会社,福岡県,北九州市小倉北区,鍛治町一丁目３番４－３１０号,,40,106,8020000,,,,,,,2024-11-18,1,,,,,ライズアップ,0
1802,6300001013980,新規,0,2024-11-18,2024-11-18,がばいＡＩコンサルティング株式会社,,株式会社,佐賀県,佐賀市,駅南本町２－１７,,41,201,8400816,,,,,,,2024-11-18,1,,,,,ガバイエーアイコンサルティング,0
1812,6340003004660,新規,0,2024-11-18,2024-11-18,合同会社よりみちｔｅｋｕｔｅｋｕ,,合同会社,鹿児島県,鹿児島市,上福元町３９６１番地１,,46,201,8910116,,,,,,,2024-11-18,1,,,,,ヨリミチテクテク,0
1813,6360001034443,新規,0,2024-11-18,2024-11-18,株式会社たくんちゅ,,株式会社,沖縄県,那覇市,久茂地３丁目１５番１８－１００１号ロイヤルマンション久茂地,,47,201,9000015,,,,,,,2024-11-18,1,,,,,タクンチュ,0
1817,6370005010860,新規,0,2024-11-18,2024-11-18,一般社団法人マリンエコバイオ研究所,,その他の設立登記法人,宮城県,仙台市泉区,高森１丁目１－３２０高森パークハウス弐番館７０６,,04,105,9813203,,,,,,,2024-11-18,1,,,,,マリンエコバイオケンキュウジョ,0
1832,6700150127888,新規,0,2024-11-18,2024-11-18,ＢＩＲＤＹ　ＶＥＮＴＵＲＥＳ　（ＰＲＩＶＡＴＥ）　ＬＩＭＩＴＥＤ,,外国会社等,長野県,木曽郡木曽町,福島２７７３－１,,20,432,3970001,Ｍｅｚｚａｎｉｎｅ　Ｆｌｏｏｒ，ＰＬｏｔ＃３６－，Ｓｈａｈｂａｚ　Ｃｏｍｍｅｒｃｉａｌ　Ａｒｅａ，Ｌａｎｅ－３，Ｐｈａｓｅ　６，ＤＨＡ　Ｋａｒａｃｈｉ　Ｐａｋｉｓｔａｎ,,,,,,2024-11-18,1,,,,,バーデイーベンチヤーズプライベートリミテツド,0
1836,7010001249942,新規,0,2024-11-18,2024-11-18,株式会社なないろホールディングス,,株式会社,東京都,千代田区,大手町１丁目６番１号,,13,101,1000004,,,,,,,2024-11-18,1,,,,,ナナイロホールディングス,0
1871,7010401186471,新規,0,2024-11-18,2024-11-18,日仏レアアース株式会社,,株式会社,東京都,港区,西新橋３丁目２１番８号,,13,103,1050003,,,,,,,2024-11-18,1,,,,,ニチフツレアアース,0
1880,7010603011196,新規,0,2024-11-18,2024-11-18,ＫＭＣ合同会社,,合同会社,東京都,江東区,越中島１丁目３―１―１４０６,,13,108,1350044,,,,,,,2024-11-18,1,,,,,ケーエムシー,0
1882,7010805003140,新規,0,2024-11-18,2024-11-18,特定非営利活動法人おおみ,,その他の設立登記法人,東京都,大田区,南久が原１丁目１８番８号,,13,111,1460084,,,,,,,2024-11-18,1,,,,,オオミ,0
1890,7011001165824,新規,0,2024-11-18,2024-11-18,株式会社ｇｒｉｎ,,株式会社,東京都,渋谷区,神宮前６丁目２３番４号桑野ビル２階,,13,113,1500001,,,,,,,2024-11-18,1,,,,,グリン,0
1891,7011001166005,新規,0,2024-11-18,2024-11-18,株式会社代々木上原,,株式会社,東京都,渋谷区,上原１丁目３２番１５号,,13,113,1510064,,,,,,,2024-11-18,1,,,,,ヨヨギウエハラ,0
1895,7011003020382,新規,0,2024-11-18,2024-11-18,合同会社ＦＰインサイト,,合同会社,東京都,渋谷区,代々木３丁目５７番１６号ベルテ参宮橋ＩＩ２０１号,00137037,13,113,1510053,,,,,,,2024-11-18,1,,,,,エフピーインサイト,0
1896,7011003020457,新規,0,2024-11-18,2024-11-18,合同会社Ｋｎｏｔ,,合同会社,東京都,目黒区,青葉台４丁目４番１－９０４号ＬＭ目黒青葉台,,13,110,1530042,,,,,,,2024-11-18,1,,,,,ノット,0
1897,7011101109565,新規,0,2024-11-18,2024-11-18,株式会社Ｌａｍｐｌｏｔ,,株式会社,東京都,新宿区,西新宿３丁目３番１３号西新宿水間ビル２Ｆ,,13,104,1600023,,,,,,,2024-11-18,1,,,,,ランプロット,0
1898,7011101109598,新規,0,2024-11-18,2024-11-18,株式会社ｅ‐Ｍｉｎｔ,,株式会社,東京都,新宿区,西新宿３丁目９－２３西新宿大和ビル３Ｆ,,13,104,1600023,,,,,,,2024-11-18,1,,,,,イーミント,0
1901,7011103015183,新規,0,2024-11-18,2024-11-18,合同会社トップライン,,合同会社,東京都,新宿区,高田馬場４丁目４番２３号３０１,,13,104,1690075,,,,,,,2024-11-18,1,,,,,トップライン,0
1902,7011203004532,新規,0,2024-11-18,2024-11-18,ＧＮ合同会社,,合同会社,東京都,中野区,南台２丁目９－１－１３０３,,13,114,1640014,,,,,,,2024-11-18,1,,,,,ジーエヌ,0
1904,7011301030166,新規,0,2024-11-18,2024-11-18,ＳＨＩＲＯＴＳＵＭＥ　ＧＲＡＳＳ株式会社,,株式会社,東京都,杉並区,和泉４丁目４２－３２方南町ハイツ１２０５号室,,13,115,1680063,,,,,,,2024-11-18,1,,,,,,0
1908,7011401026576,新規,0,2024-11-18,2024-11-18,川木株式会社,,株式会社,東京都,板橋区,富士見町６－５富士見ビル１０１,,13,119,1740062,,,,,,,2024-11-18,1,,,,,カワキ,0
1913,7012401042489,新規,0,2024-11-18,2024-11-18,ＫＨＪＪ株式会社,,株式会社,東京都,三鷹市,下連雀５丁目１番１－３６２号,,13,204,1810013,,,,,,,2024-11-18,1,,,,,ケーエーチジェジェ,0
1918,7013303007381,新規,0,2024-11-18,2024-11-18,ＳＨＷＥ　ＨＮＩＮ　ＴＨＡＲ合同会社,,合同会社,東京都,豊島区,北大塚２丁目１８番１０号５階５０５号,,13,116,1700004,,,,,,,2024-11-18,1,,,,,シュエヒンター,0
1919,7013402002093,新規,0,2024-11-18,2024-11-18,有限会社くすりのアオバ,,有限会社,東京都,多摩市,落合２丁目５番地２,,13,224,2060033,,,,,,,2024-11-18,1,,,,,クスリノアオバリ,0
1937,7020001160090,新規,0,2024-11-18,2024-11-18,株式会社ＩＮＮＯＭＯ,,株式会社,神奈川県,横浜市南区,新川町３丁目２０番地２ザ・パークハウス横浜吉野町５０５号,,14,105,2320027,,,,,,,2024-11-18,1,,,,,イノモ,0
1941,7020003027247,新規,0,2024-11-18,2024-11-18,アトリエさぼてん合同会社,,合同会社,神奈川県,川崎市幸区,戸手本町２丁目２４３番地１オーチャードプラザ５２４,,14,132,2120023,,,,,,,2024-11-18,1,,,,,アトリエサボテン,0
1942,7020005016603,新規,0,2024-11-18,2024-11-18,行政書士法人ＢＡＳＥ２６９,,その他の設立登記法人,神奈川県,横浜市青葉区,青葉台２丁目１１番１号青葉台ドミール大貫ＩＩ１号室,00137048,14,117,2270062,,,,,,,2024-11-18,1,,,,,ベイスツムグ,0
1944,7021001083793,新規,0,2024-11-18,2024-11-18,株式会社Ａｖａｉｌｏｍｉｃｓ,,株式会社,神奈川県,綾瀬市,深谷上６丁目３９番３２号２Ｆ,,14,218,2521108,,,,,,,2024-11-18,1,,,,,アベイロミクス,0
1953,7030001163506,新規,0,2024-11-18,2024-11-18,山錦川株式会社,,株式会社,埼玉県,川口市,並木２丁目１５－１５金川ビル２０６号室,,11,203,3320034,,,,,,,2024-11-18,1,,,,,サンキンセン,0
1954,7030001163539,新規,0,2024-11-18,2024-11-18,富士創テクノロジー株式会社,,株式会社,埼玉県,さいたま市西区,大字佐知川３２－７レオパレス２１０,,11,101,3310064,,,,,,,2024-11-18,1,,,,,フジソウテクノロジー,0
1955,7030001163547,新規,0,2024-11-18,2024-11-18,株式会社ｄｅｃｉｓｉｏｎ,,株式会社,埼玉県,さいたま市浦和区,岸町４丁目１９番１１号プライムパナＴａｎａｋａ２０３,,11,107,3300064,,,,,,,2024-11-18,1,,,,,ディシジョン,0
1963,7030005021932,新規,0,2024-11-18,2024-11-18,農事組合法人バロン,,その他の設立登記法人,埼玉県,越谷市,千間台西２丁目４番地８ＴＭビル５０３号,,11,222,3430041,,,,,,,2024-11-18,1,,,,,バロン,0
1964,7030005021940,新規,0,2024-11-18,2024-11-18,農事組合法人ベガ,,その他の設立登記法人,埼玉県,東松山市,大字松山２３０９番地３,,11,212,3550005,,,,,,,2024-11-18,1,,,,,ベガ,0
1969,7040001136196,新規,0,2024-11-18,2024-11-18,ＫＡＺＵ電設株式会社,,株式会社,千葉県,千葉市若葉区,下泉町８７３番地,,12,104,2650044,,,,,,,2024-11-18,1,,,,,カズデンセツ,0
1970,7040001136213,新規,0,2024-11-18,2024-11-18,株式会社ファンモ,,株式会社,千葉県,流山市,おおたかの森西４丁目１６番地の２アチェロストラーダ３０３,,12,220,2700128,,,,,,,2024-11-18,1,,,,,ファンモ,0
1973,7040003026180,新規,0,2024-11-18,2024-11-18,オガサン合同会社,,合同会社,千葉県,鎌ケ谷市,鎌ケ谷３丁目６番６８‐８号,,12,224,2730105,,,,,,,2024-11-18,1,,,,,オガサン,0
1974,7050001055734,新規,0,2024-11-18,2024-11-18,株式会社ＭＩＷＡＪＡＰＡＮ,,株式会社,茨城県,土浦市,真鍋６丁目２２番１２号,,08,203,3000051,,,,,,,2024-11-18,1,,,,,ミワジャパン,0
1982,7080401027578,新規,0,2024-11-18,2024-11-18,株式会社キア堂,,株式会社,静岡県,浜松市中央区,入野町９６２８番地プライムテラスＡ号室,,22,138,4328061,,,,,,,2024-11-18,1,,,,,キアドウ,0
1983,7100001038031,新規,0,2024-11-18,2024-11-18,株式会社ツインズ,,株式会社,長野県,長野市,大字徳間６３３番地８,,20,201,3810041,,,,,,,2024-11-18,1,,,,,ツインズ,0
1989,7120001270359,新規,0,2024-11-18,2024-11-18,株式会社ＳＹＳＴＥＭ１,,株式会社,大阪府,大阪市北区,梅田３丁目２番１２３号,,27,127,5300001,,,,,,,2024-11-18,1,,,,,システムワン,0
1990,7120001270375,新規,0,2024-11-18,2024-11-18,株式会社新エステート,,株式会社,大阪府,大阪市中央区,安土町２丁目４番１１－４３０７号,,27,128,5410052,,,,,,,2024-11-18,1,,,,,シンエステート,0
1993,7120101070592,新規,0,2024-11-18,2024-11-18,株式会社悠良,,株式会社,大阪府,堺市北区,百舌鳥陵南町３丁１８１番地,,27,146,5918034,,,,,,,2024-11-18,1,,,,,ユウラ,0
1994,7120103006132,新規,0,2024-11-18,2024-11-18,春上合同会社,,合同会社,大阪府,堺市堺区,神石市之町３０番２１号,,27,141,5900813,,,,,,,2024-11-18,1,,,,,ハルカミ,0
1995,7120901050034,新規,0,2024-11-18,2024-11-18,株式会社Ｄｉｏｎ,,株式会社,大阪府,高槻市,南松原町１０番１２－８０３号,,27,207,5690085,,,,,,,2024-11-18,1,,,,,ディオン,0
1999,7122003003044,新規,0,2024-11-18,2024-11-18,合同会社Ｙ,,合同会社,大阪府,東大阪市,森河内西２丁目３９番２４号,,27,227,5770061,,,,,,,2024-11-18,1,,,,,ワイ,0
2005,7140001136442,新規,0,2024-11-18,2024-11-18,株式会社クラージュ,,株式会社,兵庫県,宝塚市,ふじガ丘１５番２号,,28,214,6650806,,,,,,,2024-11-18,1,,,,,クラージュ,0
2006,7140001136450,新規,0,2024-11-18,2024-11-18,株式会社Ｃ３Ｇ,,株式会社,兵庫県,明石市,大久保町駅前２丁目６番４号１階,,28,203,6740058,,,,,,,2024-11-18,1,,,,,シースリージー,0
2007,7140001136475,新規,0,2024-11-18,2024-11-18,株式会社ネクステバー,,株式会社,兵庫県,神戸市須磨区,桜の杜１丁目１６番６号,,28,107,6540114,,,,,,,2024-11-18,1,,,,,ネクステバー,0
2014,7150001027681,新規,0,2024-11-18,2024-11-18,ワイズ株式会社,,株式会社,奈良県,葛城市,新町２５７番地５,,29,211,6392127,,,,,,,2024-11-18,1,,,,,ワイズ,0
2015,7160005011359,新規,0,2024-11-18,2024-11-18,一般社団法人京都・滋賀生活支援の会,,その他の設立登記法人,滋賀県,大津市,蓮池町１１番１１号,,25,201,5200001,,,,,,,2024-11-18,1,,,,,キョウトシガセイカツシエンノカイ,0
2028,7180305009621,新規,0,2024-11-18,2024-11-18,圓超寺,,その他の設立登記法人,愛知県,額田郡幸田町,大字深溝字市場６番地,,23,501,4440124,,,,,,,2024-11-18,1,,,,,エンチョウジ,0
2029,7190001031804,新規,0,2024-11-18,2024-11-18,株式会社たき観光商社,,株式会社,三重県,多気郡多気町,仁田７２５番地１,,24,441,5192179,,,,,,,2024-11-18,1,,,,,タキカンコウショウシャ,0
2031,7200001043145,新規,0,2024-11-18,2024-11-18,株式会社ＢＣＢ,,株式会社,岐阜県,大垣市,坂下町６１７番地,,21,202,5030009,,,,,,,2024-11-18,1,,,,,ビーシービー,0
2033,7200003006587,新規,0,2024-11-18,2024-11-18,合同会社あららぎ,,合同会社,岐阜県,羽島市,福寿町間島３丁目１２４パークサウスＴＡＮＡＫＡ２０２,,21,209,5016251,,,,,,,2024-11-18,1,,,,,アララギ,0
2035,7220001026346,新規,0,2024-11-18,2024-11-18,ｓｍａｒｔ　ｌｉｆｅ　ｓｕｐｐｏｒｔ株式会社,,株式会社,石川県,小松市,大領中町２丁目４８－３信開ドムス２１１,,17,203,9230962,,,,,,,2024-11-18,1,,,,,スマートライフサポート,0
2046,7290001108055,新規,0,2024-11-18,2024-11-18,株式会社コミュニティソフト,,株式会社,福岡県,福岡市西区,野方３丁目３０番３８号,,40,135,8190043,,,,,,,2024-11-18,1,,,,,コミュニティソフト,0
2078,7400001016857,新規,0,2024-11-18,2024-11-18,ゾルバ株式会社,,株式会社,岩手県,一関市,川崎町薄衣字須崎８番地１,,03,209,0290202,,,,,,,2024-11-18,1,,,,,ゾルバ,0
2087,7430001093092,新規,0,2024-11-18,2024-11-18,株式会社エス・ケイ・ディ・トレーディング,,株式会社,北海道,石狩市,緑苑台東一条２丁目６６番地,,01,235,0613221,,,,,,,2024-11-18,1,,,,,エスケイディトレーディング,0
2099,7500001026004,新規,0,2024-11-18,2024-11-18,株式会社パートナーズ会計,,株式会社,愛媛県,松山市,余戸東１丁目１番１３号,,38,201,7900044,,,,,,,2024-11-18,1,,,,,パートナーズカイケイ,0
2115,8010001249743,新規,0,2024-11-18,2024-11-18,株式会社Ｎｅｘｕｓ　Ｎｕｒｔｕｒｅ,,株式会社,東京都,中央区,銀座７丁目１５番８号タウンハイツ銀座４０６,,13,102,1040061,,,,,,,2024-11-18,1,,,,,ネクサスニューチャー,0
2116,8010001249867,新規,0,2024-11-18,2024-11-18,長城オアシス株式会社,,株式会社,東京都,文京区,白山１丁目６番４号文京ＶｅｎｔｕｒｅＢａｓｅ２３２号,,13,105,1130001,,,,,,,2024-11-18,1,,,,,チョウジョウオアシス,0
2117,8010001249958,新規,0,2024-11-18,2024-11-18,株式会社ＳＩＧ,,株式会社,東京都,文京区,湯島３丁目４５－５,,13,105,1130034,,,,,,,2024-11-18,1,,,,,エスアイジー,0
2142,8010005039100,新規,0,2024-11-18,2024-11-18,一般社団法人証券分析診断士協会,,その他の設立登記法人,東京都,中央区,銀座７丁目１０番１１号,,13,102,1040061,,,,,,,2024-11-18,1,,,,,ショウケンブンセキシンダンシキョウカイ,0
2143,8010005039109,新規,0,2024-11-18,2024-11-18,一般社団法人ＭＲＦ１号,,その他の設立登記法人,東京都,千代田区,丸の内１丁目４番１号東京共同会計事務所内,,13,101,1000005,,,,,,,2024-11-18,1,,,,,エムアールエフイチゴウ,0
2148,8010401186470,新規,0,2024-11-18,2024-11-18,Ｊａｐａｎ　ｉｎｔｅｌｌｉｇｅｎｃｅ　ｃｌｏｕｄ株式会社,,株式会社,東京都,港区,西麻布３丁目６番１号六本木センチュリオンタワー９０１,,13,103,1060031,,,,,,,2024-11-18,1,,,,,ジャパンインテリジェンスクラウド,0
2162,8010701046837,新規,0,2024-11-18,2024-11-18,株式会社Ｓａｌｏｐｐ,,株式会社,東京都,品川区,西五反田７丁目２３－１第３ＴＯＣビル１０階７号,,13,109,1410031,,,,,,,2024-11-18,1,,,,,サロップ,0
2164,8010703007440,新規,0,2024-11-18,2024-11-18,ｓｐａｒｋｌｅ　ｓｔｕｄｉｏ合同会社,,合同会社,東京都,品川区,小山３丁目２７番５号品川区立武蔵小山創業支援センター６階,,13,109,1420062,,,,,,,2024-11-18,1,,,,,スパークルスタジオ,0
2173,8010901056314,新規,0,2024-11-18,2024-11-18,株式会社カスガ・ジャパン,,株式会社,東京都,世田谷区,粕谷２丁目２番２０－２１０号,,13,112,1570063,,,,,,,2024-11-18,1,,,,,カスガジャパン,0
2174,8010901056330,新規,0,2024-11-18,2024-11-18,ＡＲＳＳＨ株式会社,,株式会社,東京都,世田谷区,上北沢４丁目１９番１０－１０５号,,13,112,1560057,,,,,,,2024-11-18,1,,,,,アーシュ,0
2178,8011001165823,新規,0,2024-11-18,2024-11-18,株式会社マネジメント・デザイナーズ,,株式会社,東京都,渋谷区,渋谷２丁目１９番１９号ワコー宮益坂ビル５階,,13,113,1500002,,,,,,,2024-11-18,1,,,,,マネジメントデザイナーズ,0
2179,8011001165971,新規,0,2024-11-18,2024-11-18,株式会社ＩＬＩＴ,,株式会社,東京都,渋谷区,道玄坂１丁目１０番８号渋谷道玄坂東急ビル２Ｆ－Ｃ,,13,113,1500043,,,,,,,2024-11-18,1,,,,,アイリット,0
2180,8011001165996,新規,0,2024-11-18,2024-11-18,ＲＲ株式会社,,株式会社,東京都,目黒区,目黒３丁目２１番３６号ｎｏｎｅｔ―Ｅ,,13,110,1530063,,,,,,,2024-11-18,1,,,,,アールアール,0
2181,8011001166012,新規,0,2024-11-18,2024-11-18,ｂｅｅｓｂｏｎｄｓ株式会社,,株式会社,東京都,目黒区,自由が丘２丁目１６番１２号ＲＪ３,,13,110,1520035,,,,,,,2024-11-18,1,,,,,ビーズボンズ,0
2182,8011001166045,新規,0,2024-11-18,2024-11-18,タレンタス株式会社,,株式会社,東京都,渋谷区,恵比寿南１丁目２０番６号プレファス恵比寿南４階,,13,113,1500022,,,,,,,2024-11-18,1,,,,,タレンタス,0
2185,8011101109597,新規,0,2024-11-18,2024-11-18,株式会社チョイス,,株式会社,東京都,新宿区,東五軒町１－９ＳＢＳ－Ｅ－３,,13,104,1620813,,,,,,,2024-11-18,1,,,,,チョイス,0
2186,8011101109606,新規,0,2024-11-18,2024-11-18,Ｋ＆Ｍ株式会社,,株式会社,東京都,新宿区,西新宿７丁目５番５号Ｐｌａｚａ西新宿ＵＣＦ４階,,13,104,1600023,,,,,,,2024-11-18,1,,,,,ケーアンドエム,0
2188,8011203004531,新規,0,2024-11-18,2024-11-18,Ｔｈｅ　Ｆｏｏｌ合同会社,,合同会社,東京都,中野区,丸山１丁目１５番９号アートヒルズ丸山２０２,,13,114,1650021,,,,,,,2024-11-18,1,,,,,ザフール,0
2195,8011501031376,新規,0,2024-11-18,2024-11-18,ユニオン投資株式会社,,株式会社,東京都,荒川区,町屋３丁目１－１３－４０９,,13,118,1160001,,,,,,,2024-11-18,1,,,,,,0
2197,8011601028207,新規,0,2024-11-18,2024-11-18,曙共栄グループ株式会社,,株式会社,東京都,練馬区,上石神井２丁目４番６号,,13,120,1770044,,,,,,,2024-11-18,1,,,,,アケボノキョウエイグループ,0
2198,8011701027810,新規,0,2024-11-18,2024-11-18,株式会社ＧＯＬＤＥＮ　ＳＴＡＲ,,株式会社,東京都,江戸川区,本一色１丁目２４番１４号メゾン高津３０３,,13,123,1330044,,,,,,,2024-11-18,1,,,,,ゴールデンスター,0
2204,8012401042488,新規,0,2024-11-18,2024-11-18,株式会社ＫＳカンパニー,,株式会社,東京都,武蔵野市,吉祥寺北町１丁目７番１４号,,13,203,1800001,,,,,,,2024-11-18,1,,,,,ケイエスカンパニー,0
2205,8012801023567,新規,0,2024-11-18,2024-11-18,株式会社オーギュメント,,株式会社,東京都,国分寺市,西町１丁目２６番地２８,,13,214,1850035,,,,,,,2024-11-18,1,,,,,オーギュメント,0
2229,8020003027238,新規,0,2024-11-18,2024-11-18,まえどまり合同会社,,合同会社,神奈川県,横浜市磯子区,岡村２丁目７番３４号,,14,107,2350021,,,,,,,2024-11-18,1,,,,,マエドマリ,0
2241,8021003015166,新規,0,2024-11-18,2024-11-18,Ｍｅｗｒｏｎ合同会社,,合同会社,神奈川県,座間市,相模が丘１丁目３３番２５号ベルハイツ相模が丘２０２,,14,216,2520001,,,,,,,2024-11-18,1,,,,,ミュウロン,0
2242,8021003015249,新規,0,2024-11-18,2024-11-18,合同会社荒井企画,,合同会社,神奈川県,相模原市中央区,光が丘３丁目１８番４号,,14,152,2520227,,,,,,,2024-11-18,1,,,,,アライキカク,0
2252,8030001163538,新規,0,2024-11-18,2024-11-18,ＡＶＩＯＮＩＱＳ株式会社,,株式会社,埼玉県,川越市,新宿町１丁目１７番地１７ウェスタ川越５０７号,,11,201,3501124,,,,,,,2024-11-18,1,,,,,アヴィオニクス,0
2259,8030003025521,新規,0,2024-11-18,2024-11-18,合同会社アースワークス,,合同会社,埼玉県,熊谷市,冑山１５７番地２号２０３号室,,11,202,3690104,,,,,,,2024-11-18,1,,,,,アースワークス,0
2260,8030005021931,新規,0,2024-11-18,2024-11-18,農事組合法人大倫会,,その他の設立登記法人,埼玉県,越谷市,千間台西２丁目４番地８ＴＭビル５０３号,,11,222,3430041,,,,,,,2024-11-18,1,,,,,ダイリンカイ,0
2278,8060003005330,新規,0,2024-11-18,2024-11-18,合同会社ＬＡＵＴ,,合同会社,栃木県,宇都宮市,西川田町９５８番地２,,09,201,3210151,,,,,,,2024-11-18,1,,,,,ラウ,0
2279,8070001042366,新規,0,2024-11-18,2024-11-18,株式会社インサイト,,株式会社,群馬県,高崎市,金古町２１７４番地４,,10,202,3703511,,,,,,,2024-11-18,1,,,,,インサイト,0
2281,8080001026608,新規,0,2024-11-18,2024-11-18,株式会社Ｌｉｎｋ　Ｄｅｐｏ,,株式会社,静岡県,牧之原市,静波２３１２番地３,,22,226,4210422,,,,,,,2024-11-18,1,,,,,リンクデポ,0
2284,8080005007653,新規,0,2024-11-18,2024-11-18,一般社団法人静岡県労働組合評議会会館,,その他の設立登記法人,静岡県,静岡市葵区,黒金町５５番地静岡交通ビル３階,,22,101,4200851,,,,,,,2024-11-18,1,,,,,シズオカケンロウドウクミアイヒョウギカイカイカン,0
2296,8080401027577,新規,0,2024-11-18,2024-11-18,株式会社ＴＣＴ,,株式会社,静岡県,浜松市浜名区,貴布祢１３９７番地の１０,,22,139,4340038,,,,,,,2024-11-18,1,,,,,ティーシーティー,0
2302,8110001038847,新規,0,2024-11-18,2024-11-18,株式会社ＭＯＧ,,株式会社,新潟県,燕市,井土巻５丁目２１８番地Ｃａｒｐレジデンス３０１号,,15,213,9591232,,,,,,,2024-11-18,1,,,,,エムオージー,0
2306,8120001270234,新規,0,2024-11-18,2024-11-18,株式会社アネステージ,,株式会社,大阪府,大阪市中央区,南船場１丁目３番９号プレミアム長堀ビル７Ｆ,,27,128,5420081,,,,,,,2024-11-18,1,,,,,アネステージ,0
2307,8120001270416,新規,0,2024-11-18,2024-11-18,株式会社アンド,,株式会社,大阪府,大阪市阿倍野区,文の里４丁目１９番１６号,,27,119,5450004,,,,,,,2024-11-18,1,,,,,アンド,0
2311,8120101070591,新規,0,2024-11-18,2024-11-18,ＮｅｏＥＲＡ株式会社,,株式会社,大阪府,河内長野市,千代田南町５番２号,,27,216,5860018,,,,,,,2024-11-18,1,,,,,ネオエラ,0
2312,8130001078379,新規,0,2024-11-18,2024-11-18,株式会社ピルグリマージュジャパン,,株式会社,京都府,京都市左京区,吉田橘町３２ｔｏｂｅｒｕ,,26,103,6068303,,,,,,,2024-11-18,1,,,,,ピルグリマージュジャパン,0
2319,8140003021278,新規,0,2024-11-18,2024-11-18,合同会社ｋｉｎｄ　ｈｅａｒｔ,,合同会社,兵庫県,神戸市垂水区,歌敷山３丁目５番１５号－２０２号,,28,108,6550037,,,,,,,2024-11-18,1,,,,,カインドハート,0
2320,8140003021328,新規,0,2024-11-18,2024-11-18,富源合同会社,,合同会社,兵庫県,神戸市兵庫区,中道通２丁目４番１９－８０２号,,28,105,6520801,,,,,,,2024-11-18,1,,,,,トミヒロ,0
2321,8140005027265,新規,0,2024-11-18,2024-11-18,一般社団法人リーガルパートナー,,その他の設立登記法人,兵庫県,神戸市中央区,琴ノ緒町５丁目７番１９号,,28,110,6510094,,,,,,,2024-11-18,1,,,,,リーガルパートナー,0
2323,8150003003424,新規,0,2024-11-18,2024-11-18,合同会社きよかの郷,,合同会社,奈良県,吉野郡十津川村,大字山崎２２９番地の２,,29,449,6371214,,,,,,,2024-11-18,1,,,,,キヨカノサト,0
2328,8170001018389,新規,0,2024-11-18,2024-11-18,株式会社南紀サンライズ,,株式会社,和歌山県,西牟婁郡上富田町,朝来２５３７番地の５７上富田町産業振興・文化交流館２Ｆ,,30,404,6492105,,,,,,,2024-11-18,1,,,,,ナンキサンライズ,0
2343,8200001043144,新規,0,2024-11-18,2024-11-18,ホリディ株式会社,,株式会社,岐阜県,揖斐郡池田町,小寺５８３番地の１,,21,404,5032419,,,,,,,2024-11-18,1,,,,,ホリディ,0
2347,8220005008901,新規,0,2024-11-18,2024-11-18,一般社団法人みらいのともしび,,その他の設立登記法人,石川県,鳳珠郡能登町,字宇出津新１字１４５番地２,,17,463,9270432,,,,,,,2024-11-18,1,,,,,ミライノトモシビ,0
2349,8240001064120,新規,0,2024-11-18,2024-11-18,前川不動産株式会社,,株式会社,広島県,福山市,引野町北２丁目６番２４号,,34,207,7210941,,,,,,,2024-11-18,1,,,,,マエガワフドウサン,0
2357,8260005011422,新規,0,2024-11-18,2024-11-18,一般社団法人しんみ,,その他の設立登記法人,岡山県,岡山市中区,平井３丁目１０１５番地２９,,33,102,7038282,,,,,,,2024-11-18,1,,,,,シンミ,0
2362,8290001107964,新規,0,2024-11-18,2024-11-18,株式会社三成車両,,株式会社,福岡県,福岡市博多区,東光寺町１丁目１４番１４号,,40,132,8120896,,,,,,,2024-11-18,1,,,,,サンセイシャリョウ,0
2363,8290001107989,新規,0,2024-11-18,2024-11-18,ウェブラボシステム株式会社,,株式会社,福岡県,福岡市早良区,大字脇山５１３番地１,,40,137,8111111,,,,,,,2024-11-18,1,,,,,ウェブラボシステム,0
2364,8290001108013,新規,0,2024-11-18,2024-11-18,ＭＣＵ株式会社,,株式会社,福岡県,福岡市東区,松崎３丁目３６番１６－２０８号,,40,131,8130035,,,,,,,2024-11-18,1,,,,,エムシーユー,0
2370,8290801031050,新規,0,2024-11-18,2024-11-18,株式会社ロギア,,株式会社,福岡県,豊前市,大字八屋２０２５－２　ＺＩＧＺＡＧ２Ｆ,,40,214,8280021,,,,,,,2024-11-18,1,,,,,ロギア,0
2371,8290803004888,新規,0,2024-11-18,2024-11-18,合同会社フルスロットル,,合同会社,福岡県,北九州市八幡西区,黒崎１丁目１３番１号黒崎２５番ビル２階,,40,109,8060021,,,,,,,2024-11-18,1,,,,,フルスロットル,0
2372,8330001032646,新規,0,2024-11-18,2024-11-18,株式会社くまもとメカトロニクス研究所,,株式会社,熊本県,熊本市東区,東京塚町１８番４４号,,43,102,8620923,,,,,,,2024-11-18,1,,,,,クマモトメカトロニクスケンキュウショ,0
2399,8430001093091,新規,0,2024-11-18,2024-11-18,株式会社ＰｒｏＪｅｃｔ　Ｒａｔｅｌ,,株式会社,北海道,札幌市豊平区,平岸三条１丁目２番５号,,01,105,0620933,,,,,,,2024-11-18,1,,,,,プロジェクトラーテル,0
2416,9010001249742,新規,0,2024-11-18,2024-11-18,株式会社ＯＭＯＲＯ　ＥＶＥＮＴ,,株式会社,東京都,中央区,銀座６丁目６番１号銀座風月堂ビル５階,,13,102,1040061,,,,,,,2024-11-18,1,,,,,オモロイベント,0
2417,9010001249924,新規,0,2024-11-18,2024-11-18,天王洲ｃｌａｒｉｔｙ株式会社,,株式会社,東京都,中央区,東日本橋３丁目４番１８号,,13,102,1030004,,,,,,,2024-11-18,1,,,,,テンノウズクラリティ,0
2436,9010003045487,新規,0,2024-11-18,2024-11-18,ＣＯＲＥ　Ｂｉｏｍｅｄｉｃｉｎｅ　Ｊａｐａｎ合同会社,,合同会社,東京都,文京区,向丘２丁目３番１０号東大前ＨｉＲＡＫＵＧＡＴＥ,,13,105,1130023,,,,,,,2024-11-18,1,,,,,コアバイオメディスンジャパン,0
2437,9010003045504,新規,0,2024-11-18,2024-11-18,合同会社プラム,,合同会社,東京都,千代田区,丸の内１丁目４番１号東京共同会計事務所内,,13,101,1000005,,,,,,,2024-11-18,1,,,,,プラム,0
2438,9010005039108,新規,0,2024-11-18,2024-11-18,一般社団法人Ｈｙｄｒｏ黒滝沢,,その他の設立登記法人,東京都,中央区,日本橋１丁目４番１号日本橋一丁目ビルディング,,13,102,1030027,,,,,,,2024-11-18,1,,,,,ハイドロクロタキサワ,0
2442,9010103002454,新規,0,2024-11-18,2024-11-18,合同会社ＴＣＩ　Ｇｌｏｂａｌ,,合同会社,東京都,八王子市,松木３番地１リバーサイドソシア１０３号,,13,201,1920362,,,,,,,2024-11-18,1,,,,,ティーシーアイグロバール,0
2448,9010401186445,新規,0,2024-11-18,2024-11-18,潤洲実業国際投資株式会社,,株式会社,東京都,港区,芝２丁目２８－１１ＬｉｎｋＳｐａｃｅ芝３０９,,13,103,1050014,,,,,,,2024-11-18,1,,,,,ジュンシュウジツギョウコクサイトウシ,0
2449,9010401186453,新規,0,2024-11-18,2024-11-18,株式会社ＮＥＴ　ＭＯＮＥＹ,,株式会社,東京都,港区,麻布台１丁目３番１号,,13,103,1060041,,,,,,,2024-11-18,1,,,,,ネットマネー,0
2450,9010401186478,新規,0,2024-11-18,2024-11-18,株式会社ルナテック,,株式会社,東京都,港区,麻布十番１丁目２番７号ラフィネ麻布十番７０１号室,,13,103,1060045,,,,,,,2024-11-18,1,,,,,ルナテック,0
2451,9010401186528,新規,0,2024-11-18,2024-11-18,株式会社ミクス・マネジメント,,株式会社,東京都,港区,南青山３丁目１番３６号青山丸竹ビル６Ｆ,,13,103,1070062,,,,,,,2024-11-18,1,,,,,ミクスマネジメント,0
2457,9010403033802,新規,0,2024-11-18,2024-11-18,合同会社ＯＵ‐Ｌ,,合同会社,東京都,港区,西麻布４丁目１－１－２Ｆ,,13,103,1060031,,,,,,,2024-11-18,1,,,,,オウル,0
2458,9010403033810,新規,0,2024-11-18,2024-11-18,ＭＹＭ　Ｌａｎｄ合同会社,,合同会社,東京都,港区,虎ノ門４丁目１番２８号虎ノ門タワー１９階,,13,103,1050001,,,,,,,2024-11-18,1,,,,,エムワイエムランド,0
2462,9010701046836,新規,0,2024-11-18,2024-11-18,株式会社ＵＤ教育社,,株式会社,東京都,品川区,旗の台３丁目１０番２号,,13,109,1420064,,,,,,,2024-11-18,1,,,,,ユーディーキョウイクシャ,0
2463,9010703007423,新規,0,2024-11-18,2024-11-18,合同会社ＳＥＫＡＩＴＯ,,合同会社,東京都,品川区,西中延２丁目１８番４号ｅｓｔ,,13,109,1420054,,,,,,,2024-11-18,1,,,,,セカイト,0
2468,9010903009500,新規,0,2024-11-18,2024-11-18,合同会社ケンショー・ランド,,合同会社,東京都,世田谷区,三軒茶屋２丁目２番１３－１００５号,,13,112,1540024,,,,,,,2024-11-18,1,,,,,ケンショーランド,0
2470,9011001165822,新規,0,2024-11-18,2024-11-18,株式会社ＳＴＡＲＤＩＮＥ,,株式会社,東京都,渋谷区,神南１丁目１１－４ＦＰＧリンクス神南５階,,13,113,1500041,,,,,,,2024-11-18,1,,,,,スターダイン,0
2473,9011003020389,新規,0,2024-11-18,2024-11-18,ベンチャーズホールディングス合同会社,,合同会社,東京都,渋谷区,宇田川町１２番３号ニュー渋谷コーポラス１１０１,,13,113,1500042,,,,,,,2024-11-18,1,,,,,ベンチャーズホールディングス,0
2474,9011003020414,新規,0,2024-11-18,2024-11-18,合同会社ＭＩＳＴ　ＲＡＶＥＮ,,合同会社,東京都,渋谷区,道玄坂１丁目１０番８号渋谷道玄坂東急ビル２Ｆ－Ｃ,,13,113,1500043,,,,,,,2024-11-18,1,,,,,ミストレイブン,0
2475,9011005010768,新規,0,2024-11-18,2024-11-18,一般社団法人ＮＫ,,その他の設立登記法人,東京都,渋谷区,神宮前１丁目５番８号,,13,113,1500001,,,,,,,2024-11-18,1,,,,,エヌケー,0
2481,9011101109563,新規,0,2024-11-18,2024-11-18,株式会社ＫａｎｄＰ,,株式会社,東京都,新宿区,大久保１丁目７－２６,,13,104,1690072,,,,,,,2024-11-18,1,,,,,ケイエンピ,0
2488,9011403004561,新規,0,2024-11-18,2024-11-18,合同会社ＪＵＭＰ　ＯＶＥＲ,,合同会社,東京都,板橋区,蓮沼町８１番８号,,13,119,1740052,,,,,,,2024-11-18,1,,,,,ジャンプオーバー,0
2489,9011601028206,新規,0,2024-11-18,2024-11-18,佳易株式会社,,株式会社,東京都,練馬区,豊玉中３丁目８番２号,,13,120,1760013,,,,,,,2024-11-18,1,,,,,カイ,0
2502,9012401042487,新規,0,2024-11-18,2024-11-18,株式会社Ｒｅｌａｔｉｏｎ,,株式会社,東京都,武蔵野市,吉祥寺本町３丁目３番２号メヌマビル１Ｆ,,13,203,1800004,,,,,,,2024-11-18,1,,,,,ルラシオン,0
2503,9012401042495,新規,0,2024-11-18,2024-11-18,株式会社ホビー商店,,株式会社,東京都,武蔵野市,吉祥寺東町１丁目１４－６,,13,203,1800002,,,,,,,2024-11-18,1,,,,,ホビーショウテン,0
2507,9013303007396,新規,0,2024-11-18,2024-11-18,合同会社シンクロニシティジャパン,,合同会社,東京都,豊島区,東池袋１丁目３６－７アルテール池袋８０８号室,,13,116,1700013,,,,,,,2024-11-18,1,,,,,シンクロニシティジャパン,0
2525,9020001160031,新規,0,2024-11-18,2024-11-18,株式会社ポイント８,,株式会社,神奈川県,川崎市高津区,下作延２丁目５番４３号アールエイビル１０１,,14,134,2130033,,,,,,,2024-11-18,1,,,,,ポイントエイト,0
2526,9020001160080,新規,0,2024-11-18,2024-11-18,株式会社ＡＺＥＥ,,株式会社,神奈川県,横浜市都筑区,茅ケ崎南５丁目２４番１４号,,14,118,2240037,,,,,,,2024-11-18,1,,,,,アジー,0
2531,9020003027294,新規,0,2024-11-18,2024-11-18,合同会社ウッドベル,,合同会社,神奈川県,横浜市青葉区,つつじが丘２８番地２０２,,14,117,2270055,,,,,,,2024-11-18,1,,,,,ウッドベル,0
2536,9021001083791,新規,0,2024-11-18,2024-11-18,株式会社ドリームプロジェクト,,株式会社,神奈川県,相模原市中央区,田名７１３０番地,,14,152,2520244,,,,,,,2024-11-18,1,,,,,ドリームプロジェクト,0
2547,9030001163446,新規,0,2024-11-18,2024-11-18,株式会社Ａ１,,株式会社,埼玉県,上尾市,大字小敷谷５５６番地,,11,219,3620064,,,,,,,2024-11-18,1,,,,,エーワン,0
2548,9030001163487,新規,0,2024-11-18,2024-11-18,株式会社スリー,,株式会社,埼玉県,川口市,西川口５丁目１５番３４号アジュール１０１号,,11,203,3320021,,,,,,,2024-11-18,1,,,,,スリー,0
2549,9030001163504,新規,0,2024-11-18,2024-11-18,株式会社ＴＲＩＮＩＴＹ,,株式会社,埼玉県,川口市,並木３丁目１７番４号フローラ並木参番館４０２号室,,11,203,3320034,,,,,,,2024-11-18,1,,,,,トリニティー,0
2554,9030003025504,新規,0,2024-11-18,2024-11-18,合同会社四つ葉ファーム,,合同会社,埼玉県,秩父市,蒔田１４７３番地,,11,207,3680062,,,,,,,2024-11-18,1,,,,,ヨツバファーム,0
2555,9030003025512,新規,0,2024-11-18,2024-11-18,合同会社ＴＥＲＩＯＲＤ,,合同会社,埼玉県,さいたま市大宮区,三橋１丁目４６３番地１０,,11,103,3300856,,,,,,,2024-11-18,1,,,,,テリアド,0
2556,9030005021930,新規,0,2024-11-18,2024-11-18,農事組合法人マッシュルーム,,その他の設立登記法人,埼玉県,越谷市,千間台西２丁目４番地８ＴＭビル５０３号,,11,222,3430041,,,,,,,2024-11-18,1,,,,,マッシュルーム,0
2561,9040001136194,新規,0,2024-11-18,2024-11-18,株式会社芝コーポスクエア,,株式会社,千葉県,千葉市緑区,おゆみ野３丁目３９番地３芝コーポ１号館２０８,,12,105,2660031,,,,,,,2024-11-18,1,,,,,シバコーポスクエア,0
2572,9050001055716,新規,0,2024-11-18,2024-11-18,株式会社志村建設,,株式会社,茨城県,ひたちなか市,西大島１丁目１９番２０－４０２号東横マンションＢ棟,,08,221,3120041,,,,,,,2024-11-18,1,,,,,シムラケンセツ,0
2573,9050001055724,新規,0,2024-11-18,2024-11-18,株式会社ＴＭコーポレーション,,株式会社,茨城県,日立市,諏訪町１丁目１７番１４号,,08,202,3160001,,,,,,,2024-11-18,1,,,,,ティーエムコーポレーション,0
2574,9050001055732,新規,0,2024-11-18,2024-11-18,株式会社ＱｕｉｃｋＢｕｉｌｄ,,株式会社,茨城県,鹿嶋市,大字佐田４９６番地,,08,222,3140027,,,,,,,2024-11-18,1,,,,,クイックビルド,0
2576,9050005013521,新規,0,2024-11-18,2024-11-18,一般社団法人東アジア・太平洋民主政治研究所,,その他の設立登記法人,茨城県,水戸市,千波町２３５６番地の４,,08,201,3100851,,,,,,,2024-11-18,1,,,,,ヒガシアジアタイヘイヨウミンシュセイジケンキュウジョ,0
2581,9080003003331,新規,0,2024-11-18,2024-11-18,合同会社しずおかレトリューション,,合同会社,静岡県,静岡市葵区,瀬名６丁目３７番１０号,,22,101,4200911,,,,,,,2024-11-18,1,,,,,シズオカレトリューション,0
2583,9080103003198,新規,0,2024-11-18,2024-11-18,合同会社エムズエコラボ,,合同会社,静岡県,富士市,高嶺町８－２６,,22,210,4170044,,,,,,,2024-11-18,1,,,,,エムズエコラボ,0
2587,9080403005142,新規,0,2024-11-18,2024-11-18,合同会社Ｏｎｅ,,合同会社,静岡県,浜松市中央区,篠ケ瀬町２１２番地グランストーク篠ケ瀬ＩＩ１０２,00137046,22,138,4350042,,,,,,,2024-11-18,1,,,,,ワン,0
2590,9090003002679,新規,0,2024-11-18,2024-11-18,合同会社リンク,,合同会社,山梨県,甲府市,城東２丁目９－１４,,19,201,4000861,,,,,,,2024-11-18,1,,,,,リンク,0
2597,9120001269977,新規,0,2024-11-18,2024-11-18,株式会社もあたん,,株式会社,大阪府,大阪市中央区,南本町１丁目５－７ＡＣＮ堺筋本町ビル３０２,,27,128,5410054,,,,,,,2024-11-18,1,,,,,モアタン,0
2598,9120001270340,新規,0,2024-11-18,2024-11-18,株式会社奄浩,,株式会社,大阪府,大阪市西成区,萩之茶屋１丁目８番１０号,,27,122,5570004,,,,,,,2024-11-18,1,,,,,アマヒロ,0
2599,9120001270357,新規,0,2024-11-18,2024-11-18,株式会社美福園,,株式会社,大阪府,大阪市中央区,安土町２丁目３－１３大阪国際ビルディング３１階,,27,128,5410052,,,,,,,2024-11-18,1,,,,,ミフクエン,0
2605,9120901050032,新規,0,2024-11-18,2024-11-18,株式会社ＩＣＥ　ＢＥＲＧ,,株式会社,大阪府,茨木市,宮元町７番２２号仲辻ビル５Ｄ号室,,27,211,5670810,,,,,,,2024-11-18,1,,,,,アイスバーグ,0
2609,9122001038651,新規,0,2024-11-18,2024-11-18,株式会社ａｔｅｌｉｅｒ　ｇ,,株式会社,大阪府,大東市,御供田３丁目１３番３１号,,27,218,5740025,,,,,,,2024-11-18,1,,,,,ラトリエジェイ,0
2628,9150005009641,新規,0,2024-11-18,2024-11-18,一般社団法人奈良県豊かな森づくりコンソーシアム,,その他の設立登記法人,奈良県,吉野郡吉野町,大字飯貝６８０番地,,29,441,6393113,,,,,,,2024-11-18,1,,,,,ナラケンユタカナモリヅクリコンソーシアム,0
2644,9190001031810,新規,0,2024-11-18,2024-11-18,株式会社ＶＦ物流センター,,株式会社,三重県,松阪市,小津町８００番地,,24,204,5152114,,,,,,,2024-11-18,1,,,,,ブイエフブツリュウセンター,0
2646,9210001019976,新規,0,2024-11-18,2024-11-18,株式会社ライディング,,株式会社,福井県,坂井市,春江町江留中第３９号１番地１９,,18,210,9190412,,,,,,,2024-11-18,1,,,,,ライディング,0
2656,9260001039648,新規,0,2024-11-18,2024-11-18,株式会社ガレージ１６４,,株式会社,岡山県,岡山市東区,政津８６０番地２,,33,103,7048165,,,,,,,2024-11-18,1,,,,,ガレージイチロクヨン,0
2658,9270001009088,新規,0,2024-11-18,2024-11-18,ラボーレ株式会社,,株式会社,鳥取県,米子市,夜見町２８４５番地,,31,202,6830851,,,,,,,2024-11-18,1,,,,,ラボーレ,0
2662,9290001107930,新規,0,2024-11-18,2024-11-18,康銀投資株式会社,,株式会社,福岡県,糟屋郡須惠町,大字植木３７５番地５,,40,344,8112112,,,,,,,2024-11-18,1,,,,,コウギントウシ,0
2663,9290001107955,新規,0,2024-11-18,2024-11-18,株式会社アンドリンクス,,株式会社,福岡県,福岡市中央区,天神２丁目２番１２号Ｔ＆Ｊビルディング７Ｆ,,40,133,8100001,,,,,,,2024-11-18,1,,,,,アンドリンクス,0
2664,9290001107971,新規,0,2024-11-18,2024-11-18,あゆむ株式会社,,株式会社,福岡県,福岡市城南区,茶山４丁目２４番１６号,,40,136,8140111,,,,,,,2024-11-18,1,,,,,アユム,0
2665,9290001108004,新規,0,2024-11-18,2024-11-18,株式会社ｏｎ　ｔｈｅ　Ｅｄｇｅ,,株式会社,福岡県,福岡市中央区,笹丘１丁目２３番１号,,40,133,8100034,,,,,,,2024-11-18,1,,,,,オンザエッジ,0
2667,9290003016072,新規,0,2024-11-18,2024-11-18,合同会社ＲＡＮＳ,,合同会社,福岡県,大牟田市,南船津町３丁目１０番地６,,40,202,8360075,,,,,,,2024-11-18,1,,,,,ランス,0
2670,9290803004895,新規,0,2024-11-18,2024-11-18,合同会社人中之龍,,合同会社,福岡県,北九州市小倉北区,富野台２番６号（２０１号）,,40,106,8020033,,,,,,,2024-11-18,1,,,,,ジンチュウノリュウ,0
2671,9300001013978,新規,0,2024-11-18,2024-11-18,株式会社Ｍａｉｓｏｎ　ｄｅ　Ｓｔｅｌｌａ,,株式会社,佐賀県,佐賀市,呉服元町２番１８号ＯｎＴｈｅＲｏｏｆ３Ｆ,,41,201,8400824,,,,,,,2024-11-18,1,,,,,メゾンドステラ,0
2672,9300003002203,新規,0,2024-11-18,2024-11-18,合同会社ｔｈａｎｋｕ,,合同会社,佐賀県,小城市,小城町畑田２４８４番地６０５号,,41,208,8450002,,,,,,,2024-11-18,1,,,,,サンク,0
2676,9320003004511,新規,0,2024-11-18,2024-11-18,合同会社マルヒラ,,合同会社,大分県,豊後大野市,三重町市場１７２－１,,44,212,8797131,,,,,,,2024-11-18,1,,,,,マルヒラ,0
2686,9360001034440,新規,0,2024-11-18,2024-11-18,株式会社ＶＩＴＳＯＬ,,株式会社,沖縄県,宮古島市,平良字下里１３０１－１７,,47,214,9060013,,,,,,,2024-11-18,1,,,,,ビットソル,0
2703,9380005012894,新規,0,2024-11-18,2024-11-18,一般社団法人Ｃｈｅｅｒ　Ｕｐ　Ｆｕｋｕｓｈｉｍａ,,その他の設立登記法人,福島県,石川郡石川町,大字沢井字上ノ原７５番地,,07,501,9637825,,,,,,,2024-11-18,1,,,,,チアアップフクシマ,0
2711,9430003016999,新規,0,2024-11-18,2024-11-18,にやまＧＲＥＥＮ　ＰＯＷＥＲ合同会社,,合同会社,北海道,札幌市南区,川沿十二条４丁目１番４４号,,01,106,0050812,,,,,,,2024-11-18,1,,,,,ニヤマグリーンパワー,0
2714,9500001026002,新規,0,2024-11-18,2024-11-18,株式会社なつめ,,株式会社,愛媛県,松山市,南吉田町１４１３番地３９,,38,201,7918042,,,,,,,2024-11-18,1,,,,,ナツメ,0
